sequenceNumber,corporateNumber,process,correct,updateDate,changeDate,name,nameImageId,kind,prefectureName,cityName,streetNumber,addressImageId,prefectureCode,cityCode,postCode,addressOutside,addressOutsideImageId,closeDate,closeCause,successorCorporateNumber,changeCause,assignmentDate,latest,enName,enPrefectureName,enCityName,enAddressOutside,furigana,hihyoji
1,1010001007380,登記記録の閉鎖等,0,2025-08-04,2025-07-07,株式会社藤原硝子店,,株式会社,東京都,文京区,本郷３丁目８番５号,,13,105,1130033,,,2025-07-07,清算の結了等,,,2015-10-05,1,,,,,フジワラガラステン,0
5,1010001187421,登記記録の閉鎖等,0,2025-08-04,2025-07-04,ＨＱＧ　Ｊａｐａｎ株式会社,,株式会社,東京都,中央区,京橋２丁目２番１号京橋エドグラン２７階,,13,102,1040031,,,2025-07-04,清算の結了等,,,2017-11-07,1,,,,,エイチキュージージャパン,0
13,1010401137546,登記記録の閉鎖等,0,2025-08-04,2025-06-18,ＢＫＢ株式会社,,株式会社,東京都,千代田区,神田猿楽町２丁目５番２号小山ビル３０３号室,,13,101,1010064,,,2025-06-18,清算の結了等,,,2018-04-06,1,,,,,ビーケービー,0
19,1010403022622,登記記録の閉鎖等,0,2025-08-04,2025-07-07,水天宮オフィス１合同会社,,合同会社,東京都,港区,六本木１丁目６番１号泉ガーデンタワー,,13,103,1060032,,,2025-07-07,清算の結了等,,,2020-03-11,1,,,,,スイテングウオフィスワン,0
20,1010403027051,登記記録の閉鎖等,0,2025-08-04,2025-07-07,ＲＢソーラーエーリス合同会社,,合同会社,東京都,港区,虎ノ門３丁目２２番１０－２０１号,,13,103,1050001,,,2025-07-07,清算の結了等,,,2022-02-08,1,,,,,アールビーソーラーエーリス,0
23,1010405020293,登記記録の閉鎖等,0,2025-08-04,2025-07-07,初台プロパティ一般社団法人,,その他の設立登記法人,東京都,港区,六本木１丁目６番１号泉ガーデンタワー,,13,103,1060032,,,2025-07-07,清算の結了等,,,2021-10-08,1,,,,,ハツダイプロパティ,0
27,1010701025095,登記記録の閉鎖等,0,2025-08-04,2025-07-07,トライデント株式会社,,株式会社,東京都,港区,高輪２丁目１４番１７号グレイス高輪ビル８階,,13,103,1080074,,,2025-07-07,清算の結了等,,,2015-10-05,1,,,,,トライデント,0
55,1011601021829,登記記録の閉鎖等,0,2025-08-04,2025-07-16,株式会社Ｄｉｏｏｎ,,株式会社,東京都,練馬区,桜台６丁目２７番３号,,13,120,1760002,,,2025-07-16,清算の結了等,,,2017-06-08,1,,,,,ディオーン,0
60,1011702004154,登記記録の閉鎖等,0,2025-08-04,2025-07-23,弘陽バルブ有限会社,,有限会社,東京都,江戸川区,南葛西１丁目２番５号,,13,123,1340085,,,2025-07-23,清算の結了等,,,2015-10-05,1,,,,,コウヨウバルブ,0
64,1013301037502,登記記録の閉鎖等,0,2025-08-04,2025-07-15,株式会社フード＆ライフコミュニケーションズ,,株式会社,東京都,豊島区,西池袋４丁目１９番８－２１１号,,13,116,1710021,,,2025-07-15,清算の結了等,,,2015-10-05,1,,,,,フードアンドライフコミュニケーションズ,0
81,1030001001241,登記記録の閉鎖等,0,2025-08-04,2025-08-01,株式会社永大ホールディングス,,株式会社,埼玉県,さいたま市大宮区,桜木町２丁目４５７番地２,,11,103,3300854,,,2025-08-01,合併による解散等,3030001001025,令和７年８月１日埼玉県さいたま市南区南本町二丁目２番２号株式会社永大（3030001001025）に合併し解散,2015-10-05,1,,,,,エイダイホールディングス,0
83,1030001060493,登記記録の閉鎖等,0,2025-08-04,2025-07-28,株式会社クリンダム埼玉,,株式会社,埼玉県,児玉郡上里町,大字七本木３５６４番地１８,,11,385,3690306,,,2025-07-28,清算の結了等,,,2015-10-05,1,,,,,クリンダムサイタマ,0
85,1030002036476,登記記録の閉鎖等,0,2025-08-04,2025-07-28,有限会社キュービクルテクノ,,有限会社,埼玉県,入間市,大字野田１０６０番地２１,,11,225,3580054,,,2025-07-28,清算の結了等,,,2015-10-05,1,,,,,キュービクルテクノ,0
119,1120001213629,登記記録の閉鎖等,0,2025-08-04,2025-07-28,株式会社ＫｅｅｐＯｎＧｏｉｎｇ,,株式会社,大阪府,堺市北区,東浅香山町３丁１５番１７－２０１,,27,146,5918008,,,2025-07-28,清算の結了等,,,2018-05-25,1,,,,,,0
136,1120902019496,登記記録の閉鎖等,0,2025-08-04,2025-07-15,有限会社樋口熔工所,00033930,有限会社,大阪府,豊中市,二葉町１丁目１９番１７号,,27,203,5610825,,,2025-07-15,清算の結了等,,,2015-10-05,1,,,,,ヒグチヨウコウショ,0
145,1140001038743,登記記録の閉鎖等,0,2025-08-04,2025-07-29,株式会社柳田設備,,株式会社,兵庫県,揖保郡太子町,福地６６４番地の１,,28,464,6711534,,,2025-07-29,清算の結了等,,,2015-10-05,1,,,,,ヤナギダセツビ,0
148,1140001094670,登記記録の閉鎖等,0,2025-08-04,2025-07-28,株式会社Ｓ・Ｔ,,株式会社,兵庫県,養父市,八鹿町八鹿９６１番地８Ｃビル,,28,222,6670021,,,2025-07-28,清算の結了等,,,2015-10-05,1,,,,,エスティ,0
161,1160001020451,登記記録の閉鎖等,0,2025-08-04,2025-07-24,株式会社心友,,株式会社,滋賀県,守山市,岡町４０番地２,,25,207,5240032,,,2025-07-24,清算の結了等,,,2017-09-13,1,,,,,シンユウ,0
221,1430002011232,登記記録の閉鎖等,0,2025-08-04,2025-07-11,有限会社総合電気防災,,有限会社,北海道,札幌市北区,北三十七条西３丁目２番３６－１００１号,,01,102,0010037,,,2025-07-11,清算の結了等,,,2015-10-05,1,,,,,ソウゴウデンキボウサイ,0
224,1440001001175,登記記録の閉鎖等,0,2025-08-04,2025-07-29,株式会社竹田ストアー,,株式会社,北海道,函館市,本通３丁目２番７号,,01,202,0410851,,,2025-07-29,清算の結了等,,,2015-10-05,1,,,,,タケダストアー,0
227,1460303000542,登記記録の閉鎖等,0,2025-08-04,2025-07-31,合同会社ＤＣＴ,,合同会社,北海道,北見市,栄町１丁目１番地２,,01,208,0900832,,,2025-07-31,清算の結了等,,,2015-10-05,1,,,,,ディーシーティー,0
233,2010001121957,登記記録の閉鎖等,0,2025-08-04,2025-07-30,グリーンヒル・ジャパン株式会社,,株式会社,東京都,千代田区,丸の内２丁目４番１号丸の内ビルディング,,13,101,1000005,,,2025-07-30,清算の結了等,,,2015-10-05,1,,,,,グリーンヒルジャパン,0
262,2010901050883,登記記録の閉鎖等,0,2025-08-04,2025-07-30,株式会社ライクライフ,,株式会社,東京都,世田谷区,奥沢２丁目３３番７号－１,,13,112,1580083,,,2025-07-30,清算の結了等,,,2022-05-20,1,,,,,ライクライフ,0
274,2011101028910,登記記録の閉鎖等,0,2025-08-04,2025-07-04,アイリン・リー・コーポレーション株式会社,,株式会社,東京都,台東区,浅草橋４丁目１０番８号,,13,106,1110053,,,2025-07-04,清算の結了等,,,2015-10-05,1,,,,,アイリンリーコーポレーション,0
276,2011103008134,登記記録の閉鎖等,0,2025-08-04,2025-07-03,オフィスキュア合同会社,,合同会社,東京都,新宿区,新宿１丁目３６番２号新宿第七葉山ビル３階,,13,104,1600022,,,2025-07-03,清算の結了等,,,2018-08-03,1,,,,,オフィスキュア,0
282,2011502008833,登記記録の閉鎖等,0,2025-08-04,2025-07-29,有限会社ジェイ・エム企業,,有限会社,東京都,荒川区,荒川６丁目１９番１０号,,13,118,1160002,,,2025-07-29,清算の結了等,,,2015-10-05,1,,,,,ジェイエムキギョウ,0
293,2013101007588,登記記録の閉鎖等,0,2025-08-04,2025-07-28,株式会社クラフト,,株式会社,東京都,青梅市,新町３丁目４１番地の３－Ａ１０２,,13,205,1980024,,,2025-07-28,清算の結了等,,,2017-04-13,1,,,,,,0
296,2013301046139,登記記録の閉鎖等,0,2025-08-04,2025-07-25,ファイナンシャルストリート株式会社,,株式会社,東京都,豊島区,南池袋２丁目８番１８－８０８号,,13,116,1710022,,,2025-07-25,清算の結了等,,,2020-08-26,1,,,,,ファイナンシャルストリート,0
322,2030001052705,登記記録の閉鎖等,0,2025-08-04,2025-07-28,株式会社アイテック,,株式会社,埼玉県,北葛飾郡杉戸町,大字佐左ヱ門１５７７番地２,,11,464,3450033,,,2025-07-28,清算の結了等,,,2015-10-05,1,,,,,アイテック,0
330,2040001066646,登記記録の閉鎖等,0,2025-08-04,2025-07-14,ライフエンタープライズ株式会社,,株式会社,千葉県,柏市,柏１丁目１番７号,,12,217,2770005,,,2025-07-14,合併による解散等,6030001066965,令和７年６月１日埼玉県北葛飾郡松伏町築比地７９５番地１株式会社ウィーズ（6030001066965）に合併し解散,2015-10-05,1,,,,,ライフエンタープライズ,0
331,2040001068254,登記記録の閉鎖等,0,2025-08-04,2025-07-22,株式会社新領域技術研究所,,株式会社,茨城県,つくば市,春日２丁目４３番地８,,08,220,3050821,,,2025-07-22,清算の結了等,,,2015-10-05,1,,,,,シンリョウイキギジュツケンキュウショ,0
348,2070002020310,登記記録の閉鎖等,0,2025-08-04,2025-07-25,有限会社内田工務店,,有限会社,群馬県,伊勢崎市,境下武士６４６番地３,,10,204,3700126,,,2025-07-25,清算の結了等,,,2015-10-05,1,,,,,ウチダコウムテン,0
353,2080401001802,登記記録の閉鎖等,0,2025-08-04,2025-07-29,株式会社小山金物,,株式会社,静岡県,浜松市中央区,東若林町６７番地の１,,22,138,4328052,,,2025-07-29,清算の結了等,,,2015-10-05,1,,,,,コヤマカナモノ,0
356,2090002007891,登記記録の閉鎖等,0,2025-08-04,2025-07-14,有限会社山口自動車,,有限会社,山梨県,南アルプス市,飯野３６６３番地,,19,208,4000222,,,2025-07-14,清算の結了等,,,2015-10-05,1,,,,,ヤマグチジドウシャ,0
361,2110001000936,登記記録の閉鎖等,0,2025-08-04,2025-07-10,株式会社小沢設計,,株式会社,新潟県,新潟市中央区,長潟８３２番地,,15,103,9500932,,,2025-07-10,清算の結了等,,,2015-10-05,1,,,,,オザワセッケイ,0
362,2110001029926,登記記録の閉鎖等,0,2025-08-04,2025-07-11,株式会社コスモ,,株式会社,新潟県,上越市,東本町１丁目３番３号,,15,222,9430825,,,2025-07-11,清算の結了等,,,2015-10-05,1,,,,,コスモ,0
363,2110002015231,登記記録の閉鎖等,0,2025-08-04,2025-07-10,有限会社高口興業,00123820,有限会社,新潟県,北蒲原郡聖籠町,大字諏訪山１６０３番地９,,15,307,9570117,,,2025-07-10,清算の結了等,,,2015-10-05,1,,,,,タカグチコウギョウ,0
381,2120003028611,登記記録の閉鎖等,0,2025-08-04,2025-07-23,世宗合同会社,,合同会社,大阪府,大阪市天王寺区,夕陽丘町４番２号ＭｅｔｒｏＰｏｒｔｅ四天王寺前夕陽ケ丘ＩＩＩ１２号室,00138028,27,109,5430075,,,2025-07-23,清算の結了等,,,2025-02-18,1,,,,,セイソウ,0
383,2120005014048,登記記録の閉鎖等,0,2025-08-04,2025-08-01,医療法人猪妻医院,,その他の設立登記法人,大阪府,門真市,江端町３７番２０号,,27,223,5710012,,,2025-08-01,清算の結了等,,,2015-10-05,1,,,,,イヅマイイン,0
406,2140002037982,登記記録の閉鎖等,0,2025-08-04,2025-07-25,有限会社桧原錻力店,,有限会社,兵庫県,加古川市,加古川町中津５９５番地の１,,28,210,6750068,,,2025-07-25,清算の結了等,,,2015-10-05,1,,,,,ヒハラブリキテン,0
424,2180301024546,登記記録の閉鎖等,0,2025-08-04,2025-07-24,株式会社ＶＯＹＡＧＥ,,株式会社,愛知県,碧南市,福清水町３丁目２８番地７,,23,209,4470048,,,2025-07-24,清算の結了等,,,2015-10-05,1,,,,,ボヤージュ,0
435,2200002009793,登記記録の閉鎖等,0,2025-08-04,2025-07-29,有限会社丸宮竹材,,有限会社,岐阜県,瑞穂市,七崎２１６番地１,,21,216,5010301,,,2025-07-29,清算の結了等,,,2015-10-05,1,,,,,マルミヤチクザイ,0
450,2290002016765,登記記録の閉鎖等,0,2025-08-04,2025-07-08,有限会社西原ビル,,有限会社,福岡県,福岡市博多区,東比恵２丁目２番１０号,,40,132,8120007,,,2025-07-08,清算の結了等,,,2015-10-05,1,,,,,ニシハラビル,0
454,2290005003876,登記記録の閉鎖等,0,2025-08-04,2025-07-11,医療法人犬丸医院,,その他の設立登記法人,福岡県,八女市,国武６３３－１,,40,210,8340046,,,2025-07-11,清算の結了等,,,2015-10-05,1,,,,,イヌマルイイン,0
458,2290805004966,登記記録の閉鎖等,0,2025-08-04,2025-07-31,協同組合広報開発機構,,その他の設立登記法人,福岡県,北九州市八幡西区,割子川２丁目７番１号,,40,109,8060064,,,2025-07-31,清算の結了等,,,2015-10-05,1,,,,,コウホウカイハツキコウ,0
460,2310001004900,登記記録の閉鎖等,0,2025-08-04,2025-07-29,株式会社匠,,株式会社,長崎県,長崎市,千歳町６番６号,,42,201,8528135,,,2025-07-29,合併による解散等,2310001008380,令和７年７月２８日長崎県諫早市宇都町３番５０号株式会社長崎建創（2310001008380）に合併し解散,2015-10-05,1,,,,,タクミ,0
464,2320003002166,登記記録の閉鎖等,0,2025-08-04,2025-07-24,合同会社ｇｏｒｏｎ,,合同会社,大分県,竹田市,大字竹田１２５９番地１,,44,208,8780013,,,2025-07-24,清算の結了等,,,2015-10-05,1,,,,,ゴロン,0
467,2330002027493,登記記録の閉鎖等,0,2025-08-04,2025-07-28,有限会社桜樹会,,有限会社,佐賀県,佐賀市,川副町福富４０番４号,,41,201,8490000,,,2025-07-28,清算の結了等,,,2015-10-05,1,,,,,オウジュカイ,0
482,2380003004181,登記記録の閉鎖等,0,2025-08-04,2025-07-09,合同会社ライフラボ,,合同会社,福島県,須賀川市,矢沢字竹ノ内９４番地,,07,207,9620311,,,2025-07-09,清算の結了等,,,2018-02-05,1,,,,,,0
485,2400001000452,登記記録の閉鎖等,0,2025-08-04,2025-07-09,株式会社亀半呉服店,,株式会社,岩手県,盛岡市,肴町９番１８号,,03,201,0200878,,,2025-07-09,清算の結了等,,,2015-10-05,1,,,,,,0
491,2430005005899,登記記録の閉鎖等,0,2025-08-04,2025-07-11,医療法人社団園田歯科医院,,その他の設立登記法人,北海道,恵庭市,中島町５丁目７番地の２８,,01,231,0611435,,,2025-07-11,清算の結了等,,,2015-10-05,1,,,,,ソノダシカイイン,0
498,2490002010707,登記記録の閉鎖等,0,2025-08-04,2025-08-04,有限会社小松電気工事店,,有限会社,高知県,高岡郡中土佐町,久礼２７２７番地２,,39,401,7891301,,,2025-08-04,清算の結了等,,,2015-10-05,1,,,,,コマツデンキコウジテン,0
506,3010001238197,登記記録の閉鎖等,0,2025-08-04,2025-07-03,株式会社Ａｗｅｓｏｍｅ　Ｔｏｋｙｏ,,株式会社,東京都,中央区,築地４丁目３番１２号秀和第二築地レジデンス１１０５号,,13,102,1040045,,,2025-07-03,清算の結了等,,,2023-09-05,1,,,,,オーサムトウキョウ,0
508,3010003039494,登記記録の閉鎖等,0,2025-08-04,2025-07-04,合同会社ＭＡＲＫ０１,,合同会社,東京都,千代田区,丸の内１丁目４番１号東京共同会計事務所内,,13,101,1000005,,,2025-07-04,清算の結了等,,,2023-01-12,1,,,,,マークゼロワン,0
529,3010403017892,登記記録の閉鎖等,0,2025-08-04,2025-07-29,合同会社永井,,合同会社,神奈川県,鎌倉市,雪ノ下２丁目７番１８号,,14,204,2480005,,,2025-07-29,合併による解散等,8010401140543,令和７年７月１日東京都港区西麻布一丁目３番１２号カスタリア西麻布霞町３１０号室株式会社システムラボ（8010401140543）に合併し解散,2018-01-10,1,,,,,ナガイ,0
532,3010403025441,登記記録の閉鎖等,0,2025-08-04,2025-07-04,合同会社ベンチャーＥ,,合同会社,東京都,港区,虎ノ門３丁目２２番１０－２０１号,,13,103,1050001,,,2025-07-04,清算の結了等,,,2021-06-04,1,,,,,ベンチャーイー,0
539,3010701037650,登記記録の閉鎖等,0,2025-08-04,2025-07-04,Ｍｉｄｆｉｅｌｄ　Ｒｅｓｏｒｔ　Ｍａｎａｇｅｍｅｎｔ株式会社,,株式会社,東京都,千代田区,丸の内２丁目５番１号丸の内二丁目ビル,,13,101,1000005,,,2025-07-04,清算の結了等,,,2019-06-03,1,,,,,ミッドフィールドリゾートマネジメント,0
540,3010701045876,登記記録の閉鎖等,0,2025-08-04,2025-07-16,セレネアセットマネジメント株式会社,,株式会社,東京都,品川区,西五反田５丁目２３番３号,,13,109,1410031,,,2025-07-16,清算の結了等,,,2024-04-18,1,,,,,セレネアセットマネジメント,0
568,3013301049917,登記記録の閉鎖等,0,2025-08-04,2025-07-14,株式会社アイランド,,株式会社,東京都,豊島区,南大塚２丁目４０－１大塚中央ビル５０１,,13,116,1700005,,,2025-07-14,清算の結了等,,,2022-11-10,1,,,,,アイランド,0
577,3020002033299,登記記録の閉鎖等,0,2025-08-04,2025-07-17,有限会社記原電工社,,有限会社,神奈川県,横浜市港北区,新吉田東６丁目５１番４０号,,14,109,2230058,,,2025-07-17,清算の結了等,,,2015-10-05,1,,,,,キハラデンコウシャ,0
594,3030005016366,登記記録の閉鎖等,0,2025-08-04,2025-07-28,特定非営利活動法人ライブル・ハート,,その他の設立登記法人,埼玉県,北足立郡伊奈町,大字小室４７８９－３,,11,301,3620806,,,2025-07-28,清算の結了等,,,2015-10-05,1,,,,,ライブルハート,0
610,3050002011905,登記記録の閉鎖等,0,2025-08-04,2025-07-22,有限会社筒井塗料店,,有限会社,茨城県,土浦市,桜町３丁目１番４号,,08,203,3000037,,,2025-07-22,清算の結了等,,,2015-10-05,1,,,,,ツツイトリョウテン,0
625,3120001254167,登記記録の閉鎖等,0,2025-08-04,2025-07-11,株式会社ＪＤ‐ＴＥＣＨ,,株式会社,大阪府,門真市,大池町２３番２３－３号,,27,223,5710076,,,2025-07-11,清算の結了等,,,2023-04-19,1,,,,,ジェーディーテック,0
645,3140001055729,登記記録の閉鎖等,0,2025-08-04,2025-07-28,株式会社優愛,,株式会社,兵庫県,伊丹市,森本６丁目１２３葵荘１０４,,28,207,6640842,,,2025-07-28,清算の結了等,,,2015-10-05,1,,,,,ユウアイ,0
652,3140002042404,登記記録の閉鎖等,0,2025-08-04,2025-07-28,有限会社藤塚工務店,,有限会社,兵庫県,尼崎市,浜３丁目１８番８号,,28,202,6610967,,,2025-07-28,清算の結了等,,,2015-10-05,1,,,,,,0
653,3140002054639,登記記録の閉鎖等,0,2025-08-04,2025-07-25,有限会社三田自動車整備工場,,有限会社,兵庫県,三田市,中町１７番３号,,28,219,6691527,,,2025-07-25,清算の結了等,,,2015-10-05,1,,,,,サンダジドウシャセイビコウジョウ,0
659,3160002007256,登記記録の閉鎖等,0,2025-08-04,2025-07-17,有限会社ユエリ,,有限会社,滋賀県,長浜市,高月町高月１５８１番地,,25,203,5290241,,,2025-07-17,清算の結了等,,,2015-10-05,1,,,,,ユエリ,0
667,3180302018843,登記記録の閉鎖等,0,2025-08-04,2025-07-23,有限会社ピークラブコーポレーション,,有限会社,愛知県,刈谷市,新富町１丁目５０６番地,,23,210,4480045,,,2025-07-23,清算の結了等,,,2015-10-05,1,,,,,ピークラブコーポレーション,0
674,3200002003993,登記記録の閉鎖等,0,2025-08-04,2025-07-29,有限会社冨士電工,,有限会社,岐阜県,岐阜市,福光東２丁目１０番１３号,,21,201,5020813,,,2025-07-29,清算の結了等,,,2015-10-05,1,,,,,フジデンコウ,0
687,3240002029176,登記記録の閉鎖等,0,2025-08-04,2025-07-28,有限会社安芸津建具製作所,,有限会社,広島県,東広島市,安芸津町三津４３０９番地の１０,,34,212,7392402,,,2025-07-28,清算の結了等,,,2015-10-05,1,,,,,アキツタテグセイサイクショ,0
695,3280002004910,登記記録の閉鎖等,0,2025-08-04,2025-07-30,有限会社松原商会,,有限会社,島根県,安来市,飯島町２２３番地５,,32,206,6920014,,,2025-07-30,清算の結了等,,,2015-10-05,1,,,,,マツバラショウカイ,0
698,3290001057867,登記記録の閉鎖等,0,2025-08-04,2025-07-28,白石ビジネスコンサルタント株式会社,,株式会社,福岡県,福岡市東区,美和台７丁目２３番１３号,,40,131,8110212,,,2025-07-28,清算の結了等,,,2015-10-05,1,,,,,シライシビジネスコンサルタント,0
699,3290001060251,登記記録の閉鎖等,0,2025-08-04,2025-07-08,株式会社アプロ,,株式会社,福岡県,久留米市,六ツ門町２番地２４,,40,203,8300031,,,2025-07-08,清算の結了等,,,2015-10-05,1,,,,,アプロ,0
718,3350003003631,登記記録の閉鎖等,0,2025-08-04,2025-07-29,合同会社芋道場,,合同会社,宮崎県,児湯郡川南町,大字川南２５２７３番地６,,45,405,8891301,,,2025-07-29,清算の結了等,,,2020-07-21,1,,,,,イモドウジョウ,0
741,4010001113416,登記記録の閉鎖等,0,2025-08-04,2025-07-04,Ｅｎｔｃｏｒｐ　Ｊａｐａｎ株式会社,,株式会社,東京都,千代田区,丸の内１丁目８番３号,,13,101,1000005,,,2025-07-04,清算の結了等,,,2015-10-05,1,,,,,エントコープジャパン,0
754,4010002006016,登記記録の閉鎖等,0,2025-08-04,2025-07-07,有限会社むらかみ美術,,有限会社,東京都,文京区,湯島３丁目４番６号,,13,105,1130034,,,2025-07-07,清算の結了等,,,2015-10-05,1,,,,,ムラカミビジュツ,0
772,4010403011928,登記記録の閉鎖等,0,2025-08-04,2025-07-07,合同会社ゼッケンドルフ,,合同会社,東京都,港区,浜松町２丁目２番１５号浜松町ダイヤハイツ２Ｆ,,13,103,1050013,,,2025-07-07,清算の結了等,,,2015-10-05,1,,,,,ゼッケンドルフ,0
775,4010405018590,登記記録の閉鎖等,0,2025-08-04,2025-07-07,水天宮オフィス特定目的会社,,その他の設立登記法人,東京都,港区,六本木１丁目６番１号泉ガーデンタワー,,13,103,1060032,,,2025-07-07,清算の結了等,,,2020-03-10,1,,,,,スイテングウオフィス,0
776,4010405020290,登記記録の閉鎖等,0,2025-08-04,2025-07-07,初台プロパティ特定目的会社,,その他の設立登記法人,東京都,港区,六本木１丁目６番１号泉ガーデンタワー,,13,103,1060032,,,2025-07-07,清算の結了等,,,2021-10-08,1,,,,,ハツダイプロパティ,0
778,4010601053763,登記記録の閉鎖等,0,2025-08-04,2025-07-25,株式会社日速,,株式会社,大阪府,大阪市中央区,船場中央３丁目１－７船場センタービル７号館４０４室,,27,128,5410055,,,2025-07-25,清算の結了等,,,2018-08-14,1,,,,,ニッソク,0
783,4010901029959,登記記録の閉鎖等,0,2025-08-04,2025-07-28,株式会社一成堂,,株式会社,東京都,世田谷区,深沢５丁目１番９号,,13,112,1580081,,,2025-07-28,清算の結了等,,,2015-10-05,1,,,,,イッセイドウ,0
784,4010901045436,登記記録の閉鎖等,0,2025-08-04,2025-07-31,株式会社いろり東京,,株式会社,東京都,世田谷区,北沢２丁目１３番４号第２伊奈ビル１Ｆ,,13,112,1550031,,,2025-07-31,合併による解散等,7040001111950,令和７年７月１日千葉県柏市旭町一丁目１０番５号サンシャインヒルズ１Ｆ株式会社いろり千葉（7040001111950）に合併し解散,2019-12-24,1,,,,,イロリトウキョウ,0
799,4011305002172,登記記録の閉鎖等,0,2025-08-04,2025-07-28,一般社団法人キッズコンサルタント協会,,その他の設立登記法人,東京都,杉並区,久我山３丁目３７番２７号,,13,115,1680082,,,2025-07-28,清算の結了等,,,2015-10-05,1,,,,,キッズコンサルタントキョウカイ,0
802,4011501027345,登記記録の閉鎖等,0,2025-08-04,2025-07-28,株式会社川又,,株式会社,東京都,荒川区,東日暮里５丁目２２番６号,,13,118,1160014,,,2025-07-28,清算の結了等,,,2021-10-01,1,,,,,カワマタ,0
811,4012403005620,登記記録の閉鎖等,0,2025-08-04,2025-07-28,こだわりマックス合同会社,,合同会社,埼玉県,川越市,大字小堤６５６番地５,,11,201,3500811,,,2025-07-28,清算の結了等,,,2022-10-07,1,,,,,コダワリマックス,0
842,4040001054847,登記記録の閉鎖等,0,2025-08-04,2025-07-03,株式会社マックス・オート・サービス,,株式会社,千葉県,市原市,権現堂３９６番地１,,12,219,2900209,,,2025-07-03,清算の結了等,,,2025-02-17,1,,,,,マックスオートサービス,0
853,4060001018486,登記記録の閉鎖等,0,2025-08-04,2025-07-14,株式会社上昌,,株式会社,栃木県,足利市,福居町２１７７番地１,,09,202,3260338,,,2025-07-14,清算の結了等,,,2015-10-05,1,,,,,カミショウ,0
868,4110001031772,登記記録の閉鎖等,0,2025-08-04,2025-07-10,新潟海天成形機株式会社,,株式会社,新潟県,新潟市東区,岡山１３００番地,,15,102,9500821,,,2025-07-10,清算の結了等,,,2016-09-02,1,,,,,ニイガタカイテンセイケイキ,0
869,4110002008340,登記記録の閉鎖等,0,2025-08-04,2025-07-10,有限会社原田製樽所,00070695,有限会社,新潟県,新潟市江南区,二本木５丁目１番２８号,,15,104,9500207,,,2025-07-10,清算の結了等,,,2015-10-05,1,,,,,ハラダセイタルジョ,0
885,4120002046174,登記記録の閉鎖等,0,2025-08-04,2025-07-11,有限会社サント,,有限会社,大阪府,大阪市都島区,都島本通４丁目２２番１６号泉谷ビル２０２号,,27,102,5340021,,,2025-07-11,清算の結了等,,,2015-10-05,1,,,,,サント,0
891,4122001015713,登記記録の閉鎖等,0,2025-08-04,2025-07-16,ナカムラハウジング株式会社,,株式会社,大阪府,大東市,灰塚２丁目１１番２８号,,27,218,5740043,,,2025-07-16,清算の結了等,,,2015-10-05,1,,,,,ナカムラハウジング,0
916,4180301038370,登記記録の閉鎖等,0,2025-08-04,2025-07-24,株式会社つなぐコンサルティング,,株式会社,愛知県,豊田市,泉町林畦１１９番地,,23,211,4710803,,,2025-07-24,清算の結了等,,,2024-03-04,1,,,,,ツナグコンサルティング,0
921,4200001039162,登記記録の閉鎖等,0,2025-08-04,2025-07-30,株式会社吉川家,00124287,株式会社,岐阜県,岐阜市,六条南２丁目６番２１号,,21,201,5008358,,,2025-07-30,合併による解散等,2210001002955,令和７年７月１日福井市二の宮四丁目６番１６号株式会社アスピカ（2210001002955）に合併し解散,2021-09-21,1,,,,,,0
940,4290001003358,登記記録の閉鎖等,0,2025-08-04,2025-07-09,株式会社スリーエー,,株式会社,福岡県,福岡市中央区,港１丁目５番１号,,40,133,8100075,,,2025-07-09,清算の結了等,,,2015-10-05,1,,,,,スリーエー,0
952,4290805004931,登記記録の閉鎖等,0,2025-08-04,2025-08-01,医療法人知足産婦人科医院,,その他の設立登記法人,福岡県,中間市,長津２丁目２４番２０号,,40,215,8090036,,,2025-08-01,清算の結了等,,,2015-10-05,1,,,,,トモタリサンフジンカイイン,0
963,4340002025032,登記記録の閉鎖等,0,2025-08-04,2025-07-15,有限会社おおやま調剤薬局,,有限会社,鹿児島県,鹿屋市,上谷町１１１７０番地５,,46,203,8930061,,,2025-07-15,清算の結了等,,,2015-10-05,1,,,,,オオヤマチョウザイヤッキョク,0
967,4370002008216,登記記録の閉鎖等,0,2025-08-04,2025-07-11,有限会社東洋銘板製作所,,有限会社,宮城県,仙台市宮城野区,宮城野２丁目２番２５号,,04,102,9830045,,,2025-07-11,清算の結了等,,,2015-10-05,1,,,,,トウヨウメイバンセイサクショ,0
976,4400001006258,登記記録の閉鎖等,0,2025-08-04,2025-07-10,株式会社丸満建材,,株式会社,岩手県,北上市,大通り４丁目１番１３号,,03,206,0240061,,,2025-07-10,清算の結了等,,,2015-10-05,1,,,,,マルマンケンザイ,0
979,4420005004009,登記記録の閉鎖等,0,2025-08-04,2025-07-16,農事組合法人亀ヶ岡施設園芸組合,,その他の設立登記法人,青森県,つがる市,木造亀ケ岡亀山６４番地,,02,209,0383284,,,2025-07-16,清算の結了等,,,2015-10-05,1,,,,,カメガオカシセツエンゲイクミアイ,0
980,4430001047480,登記記録の閉鎖等,0,2025-08-04,2025-07-10,株式会社グリーンウォール,,株式会社,北海道,夕張郡由仁町,熊本６２３番１,,01,427,0691136,,,2025-07-10,清算の結了等,,,2015-10-05,1,,,,,グリーンウォール,0
984,4430002048321,登記記録の閉鎖等,0,2025-08-04,2025-07-11,有限会社丸井坪井商事,,有限会社,北海道,千歳市,北陽３丁目２番１３号,,01,224,0660032,,,2025-07-11,清算の結了等,,,2015-10-05,1,,,,,マルイツボイショウジ,0
987,4430005009502,登記記録の閉鎖等,0,2025-08-04,2025-07-10,医療法人社団小川医院,,その他の設立登記法人,北海道,沙流郡日高町,富川西２丁目５番３号,,01,601,0550007,,,2025-07-10,清算の結了等,,,2015-10-05,1,,,,,オガワイイン,0
1006,5010401043550,登記記録の閉鎖等,0,2025-08-04,2025-07-07,株式会社エクセル,,株式会社,東京都,港区,港南２丁目１０番２３号,,13,103,1080075,,,2025-07-07,清算の結了等,,,2015-10-05,1,,,,,,0
1028,5010502013790,登記記録の閉鎖等,0,2025-08-04,2025-07-07,有限会社ワタナベインターナショナル,,有限会社,東京都,千代田区,有楽町１丁目１番３号東京宝塚ビル１７階,00113536,13,101,1000006,,,2025-07-07,清算の結了等,,,2015-10-05,1,,,,,ワタナベインターナショナル,0
1051,5011405001809,登記記録の閉鎖等,0,2025-08-04,2025-07-30,特定非営利活動法人男声合唱団東京リーダーターフェル１９２５,,その他の設立登記法人,東京都,世田谷区,経堂３丁目１６番１２号カルラホール,,13,112,1560052,,,2025-07-30,清算の結了等,,,2015-11-13,1,,,,,ダンセイガッショウダントウキョウ,0
1059,5011702013804,登記記録の閉鎖等,0,2025-08-04,2025-07-28,有限会社総合企画共同,,有限会社,東京都,江戸川区,松島３丁目１５番４－３０２号,,13,123,1320031,,,2025-07-28,清算の結了等,,,2015-10-05,1,,,,,ソウゴウキカクキョウドウ,0
1060,5011802001774,登記記録の閉鎖等,0,2025-08-04,2025-07-30,有限会社佳肴商事,,有限会社,東京都,葛飾区,東金町３丁目３２番２－４０２号,,13,122,1250041,,,2025-07-30,清算の結了等,,,2015-10-05,1,,,,,カコウショウジ,0
1072,5020001008077,登記記録の閉鎖等,0,2025-08-04,2025-07-11,株式会社宮崎建築設計,,株式会社,神奈川県,横浜市戸塚区,汲沢町６８７番地,00009212,14,110,2450062,,,2025-07-11,清算の結了等,,,2015-10-05,1,,,,,ミヤザキケンチクセッケイ,0
1092,5030001148979,登記記録の閉鎖等,0,2025-08-04,2025-07-28,株式会社丸昌,,株式会社,埼玉県,志木市,中宗岡２丁目７番５５号,,11,228,3530002,,,2025-07-28,清算の結了等,,,2022-07-04,1,,,,,マルマサ,0
1111,5040002054119,登記記録の閉鎖等,0,2025-08-04,2025-07-14,有限会社グロウヘアー,,有限会社,千葉県,松戸市,上本郷８９１番地,,12,207,2710064,,,2025-07-14,清算の結了等,,,2015-10-05,1,,,,,グロウヘアー,0
1129,5060002006489,登記記録の閉鎖等,0,2025-08-04,2025-07-22,栃木アグリ有限会社,,有限会社,栃木県,宇都宮市,細谷町６７５番地,,09,201,3200074,,,2025-07-22,清算の結了等,,,2015-10-05,1,,,,,トチギアグリ,0
1131,5060003002124,登記記録の閉鎖等,0,2025-08-04,2025-07-22,合同会社岩澤フーズ,,合同会社,栃木県,佐野市,小中町１２８２番地８,,09,204,3270001,,,2025-07-22,清算の結了等,,,2015-10-05,1,,,,,イワサワフーズ,0
1132,5070002026916,登記記録の閉鎖等,0,2025-08-04,2025-07-28,有限会社都オート,,有限会社,群馬県,渋川市,渋川２８３９番地の３,,10,208,3770008,,,2025-07-28,清算の結了等,,,2015-10-05,1,,,,,ミヤコオート,0
1133,5080003003285,登記記録の閉鎖等,0,2025-08-04,2025-07-24,合同会社ＺＥＮ,,合同会社,静岡県,静岡市駿河区,中吉田２４番１４‐３０５号,,22,102,4228001,,,2025-07-24,清算の結了等,,,2024-08-30,1,,,,,ゼン,0
1139,5120001022910,登記記録の閉鎖等,0,2025-08-04,2025-07-10,株式会社金元写真製版,,株式会社,大阪府,大阪市城東区,東中浜３丁目７番２号,,27,118,5360023,,,2025-07-10,清算の結了等,,,2015-10-05,1,,,,,カネモトシャシンセイハン,0
1152,5130001064621,登記記録の閉鎖等,0,2025-08-04,2025-07-16,梅田電工株式会社,,株式会社,京都府,与謝郡与謝野町,字岩屋４６０番地,,26,465,6292314,,,2025-07-16,清算の結了等,,,2019-06-07,1,,,,,ウメダデンコウ,0
1153,5130001068837,登記記録の閉鎖等,0,2025-08-04,2025-06-18,ＴＡＣコンサルタント株式会社,,株式会社,京都府,京都市下京区,梅小路西中町１０５番地,,26,106,6008854,,,2025-06-18,合併による解散等,6140001114837,令和７年６月１７日京都府京都市中京区壬生坊城町１番地の１グリッド株式会社（6140001114837）に合併し解散,2021-03-23,1,,,,,タックコンサルタント,0
1159,5140001092233,登記記録の閉鎖等,0,2025-08-04,2025-07-25,サンダロジテム株式会社,,株式会社,兵庫県,三田市,中町１７番４号,,28,219,6691527,,,2025-07-25,清算の結了等,,,2015-10-05,1,,,,,サンダロジテム,0
1166,5150001012693,登記記録の閉鎖等,0,2025-08-04,2025-07-31,広誠纎維株式会社,,株式会社,奈良県,北葛城郡広陵町,大字疋相６４番地の１,,29,426,6350824,,,2025-07-31,清算の結了等,,,2015-10-05,1,,,,,コウセイセンイ,0
1178,5180302007761,登記記録の閉鎖等,0,2025-08-04,2025-07-23,有限会社シノジマ,,有限会社,愛知県,豊橋市,柱六番町１２９番地の２,,23,201,4418058,,,2025-07-23,清算の結了等,,,2015-10-05,1,,,,,シノジマ,0
1183,5200001012135,登記記録の閉鎖等,0,2025-08-04,2025-07-30,イワタビルド株式会社,,株式会社,岐阜県,羽島市,正木町上大浦３丁目１２番地,,21,209,5016212,,,2025-07-30,清算の結了等,,,2015-10-05,1,,,,,イワタビルド,0
1186,5220001017009,登記記録の閉鎖等,0,2025-08-04,2025-07-30,株式会社大場屋,,株式会社,石川県,輪島市,鳳至町上町１１５番地,,17,204,9280077,,,2025-07-30,清算の結了等,,,2015-10-05,1,,,,,オオバヤ,0
1196,5280002007077,登記記録の閉鎖等,0,2025-08-04,2025-08-01,快生堂有限会社,,有限会社,島根県,出雲市,灘分町１６８４番地,,32,203,6910003,,,2025-08-01,清算の結了等,,,2015-10-05,1,,,,,カイセイドウ,0
1200,5290801015543,登記記録の閉鎖等,0,2025-08-04,2025-07-25,東九州コミュニティー放送株式会社,,株式会社,福岡県,築上郡築上町,大字椎田８９１番地の３,,40,647,8290301,,,2025-07-25,清算の結了等,,,2015-10-05,1,,,,,ヒガシキュウシュウコミュニティーホウソウ,0
1213,5370001045374,登記記録の閉鎖等,0,2025-08-04,2025-07-10,センスチップ株式会社,,株式会社,宮城県,仙台市宮城野区,岩切字若宮前１１番地の４２,,04,102,9830821,,,2025-07-10,清算の結了等,,,2020-02-06,1,,,,,センスチップ,0
1216,5380002022289,登記記録の閉鎖等,0,2025-08-04,2025-07-11,有限会社五十嵐商事,,有限会社,福島県,いわき市,平上荒川字五郎内１５１番地の４,,07,204,9708034,,,2025-07-11,清算の結了等,,,2015-10-05,1,,,,,イガラシショウジ,0
1217,5390001012372,登記記録の閉鎖等,0,2025-08-04,2025-07-18,株式会社おおぞら,,株式会社,山形県,西村山郡大江町,大字原田９番地の６,,06,324,9901161,,,2025-07-18,清算の結了等,,,2015-10-05,1,,,,,オオゾラ,0
1219,5390002000830,登記記録の閉鎖等,0,2025-08-04,2025-07-18,有限会社教育文化センター,,有限会社,山形県,山形市,薬師町２丁目６の１５新発見ビル２階,,06,201,9900053,,,2025-07-18,清算の結了等,,,2015-10-05,1,,,,,キョウイクブンカセンター,0
1221,5410005001303,登記記録の閉鎖等,0,2025-08-04,2025-08-01,医療法人やばせ内科クリニック,,その他の設立登記法人,秋田県,秋田市,八橋本町５丁目８番３１号１階,,05,201,0100973,,,2025-08-01,清算の結了等,,,2015-10-05,1,,,,,ヤバセナイカクリニック,0
1230,5480002005333,登記記録の閉鎖等,0,2025-08-04,2025-07-31,有限会社芳乃舘,,有限会社,徳島県,徳島市,寺島本町東２丁目１８番地１,,36,201,7700832,,,2025-07-31,清算の結了等,,,2015-10-05,1,,,,,ヨシノカン,0
1233,5500005000667,登記記録の閉鎖等,0,2025-08-04,2025-07-16,医療法人河野小児科,,その他の設立登記法人,愛媛県,松山市,久米窪田町７８１番地３,,38,201,7911101,,,2025-07-16,清算の結了等,,,2015-10-05,1,,,,,コウノショウニカ,0
1242,6010001124618,登記記録の閉鎖等,0,2025-08-04,2025-07-04,株式会社ＳＰＥ,,株式会社,東京都,千代田区,平河町１丁目３番６号ＢＩＺＭＡＲＫＳ麹町３１５号,,13,101,1020093,,,2025-07-04,清算の結了等,,,2015-10-05,1,,,,,エスピーイー,0
1276,6011501007980,登記記録の閉鎖等,0,2025-08-04,2025-07-29,株式会社永作商店,,株式会社,東京都,荒川区,西尾久２丁目１４番４号,,13,118,1160011,,,2025-07-29,清算の結了等,,,2015-10-05,1,,,,,ナガサクショウテン,0
1277,6011501020190,登記記録の閉鎖等,0,2025-08-04,2025-07-28,Ｓｕｎ　Ｂｒｉｄｇｅ株式会社,,株式会社,東京都,北区,赤羽１丁目３６番６号サンピア赤羽２０２号室,,13,117,1150045,,,2025-07-28,清算の結了等,,,2015-10-05,1,,,,,サンブリッジ,0
1280,6011801006682,登記記録の閉鎖等,0,2025-08-04,2025-07-28,株式会社岡野鉄筋工業所,,株式会社,東京都,足立区,綾瀬５丁目２２番１０号,,13,121,1200005,,,2025-07-28,清算の結了等,,,2015-10-05,1,,,,,オカノテッキンコウギョウショ,0
1310,6021001056602,登記記録の閉鎖等,0,2025-08-04,2025-07-28,株式会社ロカライブリィ,,株式会社,神奈川県,大和市,中央林間西２丁目１０番１号,,14,213,2420008,,,2025-07-28,清算の結了等,,,2015-10-05,1,,,,,ロカライブリィ,0
1312,6030001009965,登記記録の閉鎖等,0,2025-08-04,2025-08-01,株式会社永大プランニング,,株式会社,埼玉県,さいたま市南区,南本町２丁目２番２号,,11,108,3360018,,,2025-08-01,合併による解散等,3030001001025,令和７年８月１日埼玉県さいたま市南区南本町二丁目２番２号株式会社永大（3030001001025）に合併し解散,2015-10-05,1,,,,,エイダイプランニング,0
1315,6030001068243,登記記録の閉鎖等,0,2025-08-04,2025-07-18,ニャンパス株式会社,,株式会社,茨城県,つくばみらい市,陽光台２丁目１番地２デュオＴＸみらい７０８,,08,235,3002358,,,2025-07-18,清算の結了等,,,2015-10-05,1,,,,,ニャンパス,0
1347,6100001036795,登記記録の閉鎖等,0,2025-08-04,2025-07-17,株式会社ちとせアグリベース,,株式会社,神奈川県,川崎市高津区,坂戸３丁目２番１号,,14,134,2130012,,,2025-07-17,清算の結了等,,,2023-09-19,1,,,,,チトセアグリベース,0
1349,6110001007960,登記記録の閉鎖等,0,2025-08-04,2025-07-10,宝山酒造株式会社,,株式会社,新潟県,新潟市西蒲区,石瀬２９５３番地,,15,108,9530141,,,2025-07-10,清算の結了等,,,2015-10-05,1,,,,,,0
1356,6120001209894,登記記録の閉鎖等,0,2025-08-04,2025-07-11,鶴西株式会社,,株式会社,大阪府,大阪市北区,太融寺町１番１７号梅田アスカビル７階,,27,127,5300051,,,2025-07-11,清算の結了等,,,2017-12-06,1,,,,,ツルニシ,0
1361,6120001270509,登記記録の閉鎖等,0,2025-08-04,2025-07-25,株式会社タジマコーヒー,,株式会社,大阪府,大阪市生野区,田島４丁目４番３７号,,27,116,5440011,,,2025-07-25,清算の結了等,,,2024-11-25,1,,,,,タジマコーヒー,0
1373,6120101052914,登記記録の閉鎖等,0,2025-08-04,2025-07-28,株式会社ＧＬＩＴＴＥＲ,,株式会社,大阪府,堺市南区,赤坂台５丁９番１１,,27,145,5900144,,,2025-07-28,清算の結了等,,,2015-10-05,1,,,,,,0
1385,6130003003519,登記記録の閉鎖等,0,2025-08-04,2025-07-15,合同会社京都抗酸化食品開発研究所,,合同会社,京都府,宇治市,平尾台２丁目１２番地の２,,26,204,6110003,,,2025-07-15,清算の結了等,,,2015-10-05,1,,,,,キョウトコウサンカショクヒンカイハツケンキュウショ,0
1386,6130003008063,登記記録の閉鎖等,0,2025-08-04,2025-07-18,ＴＡＮＴＯ合同会社,,合同会社,京都府,京都市右京区,龍安寺西ノ川町８番地,,26,108,6168016,,,2025-07-18,清算の結了等,,,2022-07-22,1,,,,,タント,0
1390,6140001103278,登記記録の閉鎖等,0,2025-08-04,2025-07-30,ランドホールディングス株式会社,,株式会社,兵庫県,姫路市,南駅前町９１番地８ネバーランド姫路駅前１３０４号,,28,201,6700962,,,2025-07-30,合併による解散等,4140001064679,令和７年７月１８日大阪市中央区釣鐘町二丁目４番１６－１８０２号ランドヒルズ株式会社（4140001064679）に合併し解散,2016-09-02,1,,,,,ランドホールディングス,0
1392,6140003016635,登記記録の閉鎖等,0,2025-08-04,2025-07-29,合同会社麦わら帽子,,合同会社,兵庫県,神戸市北区,淡河町野瀬２６１番地,,28,109,6511623,,,2025-07-29,清算の結了等,,,2021-08-18,1,,,,,ムギワラボウシ,0
1398,6180001067585,登記記録の閉鎖等,0,2025-08-04,2025-07-10,株式会社中部美建,,株式会社,愛知県,日進市,赤池町村東１９２－１,,23,230,4700126,,,2025-07-10,清算の結了等,,,2015-10-05,1,,,,,チュウブビケン,0
1409,6200001016812,登記記録の閉鎖等,0,2025-08-04,2025-07-29,株式会社Ｗｏｎ　Ｓｔｕｄｉｏ,,株式会社,岐阜県,揖斐郡揖斐川町,脛永９８３番地１２,00080955,21,401,5010622,,,2025-07-29,清算の結了等,,,2015-10-05,1,,,,,オンスタジオ,0
1413,6210002007388,登記記録の閉鎖等,0,2025-08-04,2025-07-28,有限会社ホクプラ,,有限会社,福井県,あわら市,笹岡第１９号９０番地,,18,208,9190726,,,2025-07-28,清算の結了等,,,2015-10-05,1,,,,,ホクプラ,0
1418,6240001045527,登記記録の閉鎖等,0,2025-08-04,2025-07-29,株式会社レール,,株式会社,広島県,安芸郡海田町,稲葉１１番８－６号,,34,304,7360012,,,2025-07-29,清算の結了等,,,2015-10-05,1,,,,,レール,0
1420,6240005013760,登記記録の閉鎖等,0,2025-08-04,2025-07-25,特定非営利活動法人せら豊和のぞみ会,,その他の設立登記法人,広島県,世羅郡世羅町,大字本郷９２５番地４,,34,462,7221112,,,2025-07-25,清算の結了等,,,2015-10-05,1,,,,,セラホウワノゾミカイ,0
1426,6290005004747,登記記録の閉鎖等,0,2025-08-04,2025-07-14,特定非営利活動法人リアライズ,,その他の設立登記法人,福岡県,福岡市早良区,藤崎１丁目５番２０－３０７号,,40,137,8140013,,,2025-07-14,清算の結了等,,,2015-10-05,1,,,,,リアライズ,0
1430,6290802018271,登記記録の閉鎖等,0,2025-08-04,2025-07-31,有限会社徳茂建具製作所,,有限会社,福岡県,北九州市八幡西区,鷹の巣１丁目５番１４号,,40,109,8060047,,,2025-07-31,清算の結了等,,,2015-10-05,1,,,,,トクシゲタテグセイサクショ,0
1431,6300001005466,登記記録の閉鎖等,0,2025-08-04,2025-07-31,株式会社イシモク,,株式会社,佐賀県,伊万里市,東山代町里字新田１７７番地７９,,41,205,8494282,,,2025-07-31,清算の結了等,,,2015-10-05,1,,,,,イシモク,0
1432,6300001010359,登記記録の閉鎖等,0,2025-08-04,2025-07-01,フィッターズ株式会社,,株式会社,佐賀県,佐賀市,駅前中央３丁目１５番７号,,41,201,8400801,,,2025-07-01,合併による解散等,2300001009693,令和７年７月１日佐賀市駅前中央三丁目１５番７号ビズアカウンティング株式会社（2300001009693）に合併し解散,2016-06-06,1,,,,,フィッターズ,0
1452,6380001001350,登記記録の閉鎖等,0,2025-08-04,2025-07-03,株式会社双葉商会,,株式会社,福島県,福島市,下野寺字二反田６番地の１,,07,201,9608075,,,2025-07-03,清算の結了等,,,2015-10-05,1,,,,,,0
1460,6430001059895,登記記録の閉鎖等,0,2025-08-04,2025-07-31,Ｋ’Ｓレンタル株式会社,,株式会社,北海道,札幌市東区,中沼町１５番地６５,,01,103,0070890,,,2025-07-31,清算の結了等,,,2015-10-05,1,,,,,ケイズレンタル,0
1462,6430002037966,登記記録の閉鎖等,0,2025-08-04,2025-07-14,有限会社隆営舎,,有限会社,北海道,札幌市東区,北二十二条東３丁目１番３８号,,01,103,0650022,,,2025-07-14,清算の結了等,,,2015-10-05,1,,,,,リュウエイシャ,0
1465,6430003008264,登記記録の閉鎖等,0,2025-08-04,2025-07-31,合同会社Ｈ・Ｋ静内事務所,,合同会社,北海道,日高郡新ひだか町,静内こうせい町１丁目９番３７号,,01,610,0560005,,,2025-07-31,清算の結了等,,,2017-03-14,1,,,,,,0
1487,7010401003940,登記記録の閉鎖等,0,2025-08-04,2025-07-07,株式会社栄光社,,株式会社,東京都,港区,西新橋１丁目１５番１号,,13,103,1050003,,,2025-07-07,清算の結了等,,,2015-10-05,1,,,,,エイコウシャ,0
1494,7010403016239,登記記録の閉鎖等,0,2025-08-04,2025-07-07,合同会社トリニティワシントン,,合同会社,東京都,港区,虎ノ門３丁目２２番１０－２０１号,,13,103,1050001,,,2025-07-07,清算の結了等,,,2017-03-08,1,,,,,トリニティワシントン,0
1497,7010901017993,登記記録の閉鎖等,0,2025-08-04,2025-07-04,ジェイ・ドライブ・コミュニケーションズ株式会社,,株式会社,東京都,中央区,銀座６丁目６番１号銀座風月堂ビル５Ｆ,,13,102,1040061,,,2025-07-04,清算の結了等,,,2015-10-05,1,,,,,,0
1502,7011001061206,登記記録の閉鎖等,0,2025-08-04,2025-07-03,株式会社産業社会研究センター,,株式会社,東京都,渋谷区,道玄坂１丁目１５番３号プリメイラ道玄坂４０６号,,13,113,1500043,,,2025-07-03,清算の結了等,,,2015-10-05,1,,,,,,0
1503,7011001128814,登記記録の閉鎖等,0,2025-08-04,2025-07-07,株式会社Ｓ　ＫＡＫＥＲＵ,,株式会社,東京都,港区,南青山５丁目４番３１号,,13,103,1070062,,,2025-07-07,清算の結了等,,,2019-07-02,1,,,,,エスカケル,0
1517,7013302018363,登記記録の閉鎖等,0,2025-08-04,2025-07-14,有限会社シーズ,,有限会社,東京都,豊島区,東池袋１丁目３５番８号,,13,116,1700013,,,2025-07-14,清算の結了等,,,2015-10-05,1,,,,,シーズ,0
1537,7030001148572,登記記録の閉鎖等,0,2025-08-04,2025-07-29,株式会社ＳＡＫＵＲＡ家,,株式会社,埼玉県,入間市,大字木蓮寺１０７５番地,,11,225,3580047,,,2025-07-29,清算の結了等,,,2022-06-07,1,,,,,サクラヤ,0
1553,7050001041817,登記記録の閉鎖等,0,2025-08-04,2025-07-28,株式会社光輝,,株式会社,埼玉県,行田市,藤原町２丁目８番地１,,11,206,3610016,,,2025-07-28,清算の結了等,,,2016-11-09,1,,,,,コウキ,0
1555,7050001048168,登記記録の閉鎖等,0,2025-08-04,2025-07-22,株式会社ヨードラボ,,株式会社,茨城県,水戸市,堀町１０４４番地,,08,201,3100903,,,2025-07-22,清算の結了等,,,2020-10-12,1,,,,,ヨードラボ,0
1568,7060005009339,登記記録の閉鎖等,0,2025-08-04,2025-07-18,一般社団法人きつりずむ,,その他の設立登記法人,栃木県,さくら市,喜連川４３５５,,09,214,3291412,,,2025-07-18,清算の結了等,,,2017-06-09,1,,,,,キツリズム,0
1573,7080401004635,登記記録の閉鎖等,0,2025-08-04,2025-07-29,株式会社フジルーフ,,株式会社,静岡県,浜松市中央区,東若林町６７番地の１,,22,138,4328052,,,2025-07-29,清算の結了等,,,2015-10-05,1,,,,,フジルーフ,0
1588,7120001183701,登記記録の閉鎖等,0,2025-08-04,2025-07-25,株式会社バーリントン,,株式会社,大阪府,大阪市東淀川区,南江口１丁目１番４１－４１４号,,27,114,5330003,,,2025-07-25,清算の結了等,,,2015-10-05,1,,,,,バーリントン,0
1597,7120103004367,登記記録の閉鎖等,0,2025-08-04,2025-07-18,合同会社ＯＫＯ,,合同会社,大阪府,堺市中区,堀上町３１７番地５,,27,142,5998261,,,2025-07-18,清算の結了等,,,2021-10-04,1,,,,,オコ,0
1598,7120103005555,登記記録の閉鎖等,0,2025-08-04,2025-07-24,１３６８合同会社,,合同会社,大阪府,堺市西区,浜寺石津町中１丁９番３３号,,27,144,5928334,,,2025-07-24,清算の結了等,,,2023-11-30,1,,,,,イサロハ,0
1600,7130001019904,登記記録の閉鎖等,0,2025-08-04,2025-07-15,株式会社岩田工務店,,株式会社,京都府,京都市中京区,壬生西大竹町２７番地,,26,104,6048856,,,2025-07-15,清算の結了等,,,2015-10-05,1,,,,,イワタコウムテン,0
1628,7180303003394,登記記録の閉鎖等,0,2025-08-04,2025-07-22,茶臼の里合同会社,,合同会社,愛知県,北設楽郡豊根村,坂宇場字下中村３６番地２５,,23,563,4490405,,,2025-07-22,清算の結了等,,,2015-10-05,1,,,,,チャウスノサト,0
1644,7220003003491,登記記録の閉鎖等,0,2025-08-04,2025-07-10,合同会社一二三,,合同会社,石川県,金沢市,片町１丁目３番１０号（ファーストレーベン竪町・５０１号）,,17,201,9200981,,,2025-07-10,清算の結了等,,,2023-04-07,1,,,,,ヒフミ,0
1665,7330001017144,登記記録の閉鎖等,0,2025-08-04,2025-07-10,株式会社さとみホーム,,株式会社,熊本県,熊本市東区,長嶺西１丁目９番１－３０３号,,43,102,8618037,,,2025-07-10,清算の結了等,,,2015-10-05,1,,,,,サトミホーム,0
1677,7390001006686,登記記録の閉鎖等,0,2025-08-04,2025-07-22,株式会社渡部商店,,株式会社,山形県,酒田市,日吉町２丁目２番３３号,,06,204,9980037,,,2025-07-22,清算の結了等,,,2015-10-05,1,,,,,ワタナベショウテン,0
1680,7410002011162,登記記録の閉鎖等,0,2025-08-04,2025-08-01,株式会社白神カンパニー,,株式会社,秋田県,山本郡三種町,鵜川字一村竹５１番地１,,05,348,0182401,,,2025-08-01,清算の結了等,,,2015-10-05,1,,,,,,0
1706,8010003036909,登記記録の閉鎖等,0,2025-08-04,2025-07-04,ＡＬＪ　Ｏｆｆｉｃｅ　Ｋｏｄｅｎｍａ合同会社,,合同会社,東京都,千代田区,神田神保町１丁目１１番地さくら綜合事務所内,,13,101,1010051,,,2025-07-04,清算の結了等,,,2022-02-02,1,,,,,エーエルジェーオフィスコデンマ,0
1718,8010901013422,登記記録の閉鎖等,0,2025-08-04,2025-07-30,株式会社ドアーズ,,株式会社,東京都,世田谷区,下馬１丁目３８番１７号,,13,112,1540002,,,2025-07-30,清算の結了等,,,2015-10-05,1,,,,,ドアーズ,0
1733,8011201013096,登記記録の閉鎖等,0,2025-08-04,2025-07-30,株式会社寺島デザイン研究所,,株式会社,東京都,中野区,白鷺２丁目４番５号,,13,114,1650035,,,2025-07-30,清算の結了等,,,2015-10-05,1,,,,,テラシマデザインケンキュウジョ,0
1735,8011501006601,登記記録の閉鎖等,0,2025-08-04,2025-07-25,株式会社さかた,,株式会社,東京都,荒川区,西尾久２丁目３４番１９号,,13,118,1160011,,,2025-07-25,清算の結了等,,,2015-10-05,1,,,,,サカタ,0
1751,8013102002112,登記記録の閉鎖等,0,2025-08-04,2025-07-24,有限会社キューブ,,有限会社,東京都,青梅市,新町６丁目１４番地１９,,13,205,1980024,,,2025-07-24,清算の結了等,,,2015-10-05,1,,,,,キューブ,0
1759,8020001086112,登記記録の閉鎖等,0,2025-08-04,2025-07-07,株式会社ＴＥＡＭ　ＩＷＡＫＩＲＩ　ＰＲＯＤＵＣＴＳ,,株式会社,東京都,港区,西麻布１丁目９番７号,,13,103,1060031,,,2025-07-07,合併による解散等,5020001044246,令和７年７月１日東京都港区西麻布一丁目９番７号株式会社ＴＥＡＭ　ＩＷＡＫＩＲＩ　ＪＡＰＡＮ（5020001044246）に合併し解散,2015-10-05,1,"TEAM IWAKIRI PRODUCTS CO., LTD.",Tokyo,"1-9-7, Nishiazabu, Minato ku",,チームイワキリプロダクツ,0
1762,8020001118765,登記記録の閉鎖等,0,2025-08-04,2025-07-17,株式会社ちとせフローラ,,株式会社,神奈川県,川崎市高津区,坂戸３丁目２番１号,,14,134,2130012,,,2025-07-17,清算の結了等,,,2016-11-21,1,,,,,チトセフローラ,0
1767,8020003020110,登記記録の閉鎖等,0,2025-08-04,2025-07-16,合同会社Ｓｔｕｄｉｏ　Ａｃｅ－Ｅｎｔｅｒｐｒｉｓｅ＆Ｐｒｅｔｔｉｅｓ,,合同会社,神奈川県,横浜市鶴見区,下末吉５丁目５番２号,,14,101,2300012,,,2025-07-16,清算の結了等,,,2021-07-07,1,,,,,スタジオエースエンタープライズアンドプレティーズ,0
1770,8021001001275,登記記録の閉鎖等,0,2025-08-04,2025-07-16,大湖産業株式会社,,株式会社,滋賀県,東近江市,種町１７３６番地,,25,213,5211212,,,2025-07-16,清算の結了等,,,2015-10-05,1,,,,,ダイコサンギョウ,0
1774,8021001049728,登記記録の閉鎖等,0,2025-08-04,2025-07-31,株式会社アンクラウデッド,,株式会社,東京都,世田谷区,池尻１丁目７番１９号三宿タイニーテラス,,13,112,1540001,,,2025-07-31,清算の結了等,,,2015-10-05,1,,,,,アンクラウデッド,0
1782,8030002104061,登記記録の閉鎖等,0,2025-08-04,2025-07-29,有限会社スチロン金型製作所,,有限会社,埼玉県,川口市,領家２丁目１１番５号,,11,203,3320004,,,2025-07-29,清算の結了等,,,2015-10-05,1,,,,,スチロンカナガタセイサクショ,0
1785,8040001009608,登記記録の閉鎖等,0,2025-08-04,2025-07-11,株式会社メタックス,,株式会社,千葉県,千葉市美浜区,打瀬３丁目５マリンフォート３－１００４,,12,106,2610013,,,2025-07-11,清算の結了等,,,2015-10-05,1,,,,,メタックス,0
1802,8080101023934,登記記録の閉鎖等,0,2025-08-04,2025-07-04,ＡＣＡＯ　ＲＥＳＯＲＴ　ＭＡＮＡＧＥＭＥＮＴ株式会社,,株式会社,東京都,千代田区,丸の内２丁目５番１号丸の内二丁目ビル,,13,101,1000005,,,2025-07-04,清算の結了等,,,2023-04-20,1,,,,,アカオリゾートマネージメント,0
1824,8120102013715,登記記録の閉鎖等,0,2025-08-04,2025-07-23,有限会社メタルテック,,有限会社,大阪府,堺市美原区,さつき野西２丁目４番地１４,,27,147,5870031,,,2025-07-23,清算の結了等,,,2015-10-05,1,,,,,メタルテック,0
1826,8122002012417,登記記録の閉鎖等,0,2025-08-04,2025-08-01,有限会社Ｔ．Ｍ．Ｃ,,有限会社,大阪府,大東市,御領１丁目９番４８号,,27,218,5740064,,,2025-08-01,清算の結了等,,,2015-10-05,1,,,,,,0
1827,8140001024522,登記記録の閉鎖等,0,2025-08-04,2025-07-25,ライフサポートクリエイト株式会社,,株式会社,兵庫県,西宮市,樋ノ口町１丁目１番２６－３０２号,,28,204,6638011,,,2025-07-25,清算の結了等,,,2015-10-05,1,,,,,ライフサポートクリエイト,0
1830,8140001097931,登記記録の閉鎖等,0,2025-08-04,2025-07-28,株式会社Ｎ・Ｔケアコーポレーション,,株式会社,兵庫県,神戸市西区,竹の台４丁目１３番地の４,,28,111,6512274,,,2025-07-28,清算の結了等,,,2015-10-05,1,,,,,エヌティーケアコーポレーション,0
1854,8190001001450,登記記録の閉鎖等,0,2025-08-04,2025-07-25,株式会社あぐりネット三重中央,,株式会社,三重県,津市,久居新町１０８３番地１,,24,201,5141118,,,2025-07-25,清算の結了等,,,2015-10-05,1,,,,,アグリネットミエチュウオウ,0
1867,8240001039543,登記記録の閉鎖等,0,2025-08-04,2025-07-25,株式会社喜文商事,,株式会社,広島県,三原市,城町１丁目１１番１８号,,34,204,7230014,,,2025-07-25,清算の結了等,,,2015-10-05,1,,,,,キブンショウジ,0
1883,8290001093932,登記記録の閉鎖等,0,2025-08-04,2025-07-09,株式会社フルボ産業,,株式会社,福岡県,福岡市中央区,天神２丁目３番１０号天神パインクレスト７１９号,,40,133,8100001,,,2025-07-09,清算の結了等,,,2021-07-12,1,,,,,フルボサンギョウ,0
1892,8300002010100,登記記録の閉鎖等,0,2025-08-04,2025-07-31,有限会社井上米穀店,,有限会社,佐賀県,唐津市,熊原町３１７９番地５,,41,202,8470817,,,2025-07-31,清算の結了等,,,2015-10-05,1,,,,,イノウエベイコクテン,0
1894,8320001011510,登記記録の閉鎖等,0,2025-08-04,2025-07-07,株式会社水明,,株式会社,大分県,日田市,清岸寺町１０３３番地１,,44,204,8770000,,,2025-07-07,合併による解散等,4320001010235,令和７年７月１日大分県日田市清岸寺町１０３３番地１株式会社水明テクノス（4320001010235）に合併し解散,2015-10-05,1,,,,,スイメイ,0
1900,8380001002537,登記記録の閉鎖等,0,2025-08-04,2025-07-02,株式会社宝玄建設,,株式会社,福島県,伊達郡伊達町,大字箱崎字宝玄２０番地,,07,302,9600502,,,2025-07-02,清算の結了等,,,2024-09-30,1,,,,,ホウゲンケンセツ,0
1906,8400002006930,登記記録の閉鎖等,0,2025-08-04,2025-07-10,有限会社つばさファイブ,,有限会社,岩手県,紫波郡矢巾町,大字間野々第１０地割７７番地２,,03,322,0283605,,,2025-07-10,清算の結了等,,,2015-10-05,1,,,,,ツバサファイブ,0
1918,8440001002258,登記記録の閉鎖等,0,2025-08-04,2025-07-22,株式会社丸五丸山靴店,,株式会社,北海道,函館市,松風町８番２号,,01,202,0400035,,,2025-07-22,清算の結了等,,,2015-10-05,1,,,,,マルゴマルヤマクツテン,0
1935,9010002006498,登記記録の閉鎖等,0,2025-08-04,2025-07-03,和語情報サービス有限会社,,有限会社,東京都,文京区,千石４丁目１２番２号,,13,105,1120011,,,2025-07-03,清算の結了等,,,2015-10-05,1,,,,,ワゴジョウホウサービス,0
1937,9010005036146,登記記録の閉鎖等,0,2025-08-04,2025-07-01,一般社団法人相続終活テラス,,その他の設立登記法人,東京都,渋谷区,恵比寿４丁目２０番３号恵比寿ガーデンプレイスタワー１８階,,13,113,1500013,,,2025-07-01,清算の結了等,,,2023-01-26,1,,,,,ソウゾクシュウカツテラス,0
1954,9010405018586,登記記録の閉鎖等,0,2025-08-04,2025-07-07,水天宮オフィス一般社団法人,,その他の設立登記法人,東京都,港区,六本木１丁目６番１号泉ガーデンタワー,,13,103,1060032,,,2025-07-07,清算の結了等,,,2020-03-16,1,,,,,スイテングウオフィス,0
1961,9010901020797,登記記録の閉鎖等,0,2025-08-04,2025-07-31,株式会社都市経営総合研究センター,,株式会社,東京都,世田谷区,下馬３丁目７番３号,,13,112,1540002,,,2025-07-31,清算の結了等,,,2015-10-05,1,,,,,トシケイエイソウゴウケンキュウセンター,0
1976,9011502000148,登記記録の閉鎖等,0,2025-08-04,2025-07-29,有限会社アイ・ルート・サービス,,有限会社,東京都,北区,王子４丁目２２番５号,,13,117,1140002,,,2025-07-29,清算の結了等,,,2015-10-05,1,,,,,アイルートサービス,0
1980,9011702016704,登記記録の閉鎖等,0,2025-08-04,2025-07-25,有限会社ダイキ建設,,有限会社,東京都,江戸川区,松江２丁目３７番１１号,,13,123,1320025,,,2025-07-25,清算の結了等,,,2015-10-05,1,,,,,ダイキケンセツ,0
1985,9013101004637,登記記録の閉鎖等,0,2025-08-04,2025-07-25,株式会社ワイズサービス,,株式会社,東京都,青梅市,今井１丁目６番地の３,,13,205,1980023,,,2025-07-25,清算の結了等,,,2015-10-05,1,,,,,ワイズサービス,0
1987,9013201017423,登記記録の閉鎖等,0,2025-08-04,2025-07-30,キーストーンアンドアソシエイツ株式会社,,株式会社,東京都,世田谷区,深沢４丁目１番１－３０８号,,13,112,1580081,,,2025-07-30,清算の結了等,,,2015-10-05,1,,,,,キーストーンアンドアソシエイツ,0
1999,9020002002001,登記記録の閉鎖等,0,2025-08-04,2025-07-18,有限会社ホンダ・ガレージ,,有限会社,神奈川県,横浜市瀬谷区,阿久和南４丁目１３番地１０,,14,114,2460026,,,2025-07-18,清算の結了等,,,2015-10-05,1,,,,,ホンダガレージ,0
2000,9020002036841,登記記録の閉鎖等,0,2025-08-04,2025-07-18,有限会社あづま屋,,有限会社,神奈川県,横浜市鶴見区,岸谷４丁目２０番９号,,14,101,2300078,,,2025-07-18,清算の結了等,,,2015-10-05,1,,,,,アヅマヤ,0
2007,9021002066341,登記記録の閉鎖等,0,2025-08-04,2025-07-29,有限会社東山崎屋,,有限会社,神奈川県,横須賀市,野比３丁目２８番４号,,14,201,2390841,,,2025-07-29,清算の結了等,,,2015-10-05,1,,,,,ヒガシヤマザキヤ,0
2008,9030001043037,登記記録の閉鎖等,0,2025-08-04,2025-07-28,株式会社アーバン・アーツ,,株式会社,埼玉県,上尾市,大字小敷谷６８７番地１０,,11,219,3620064,,,2025-07-28,清算の結了等,,,2015-10-05,1,,,,,アーバンアーツ,0
2025,9040003000134,登記記録の閉鎖等,0,2025-08-04,2025-07-11,合資会社ロコ,,合資会社,千葉県,千葉市緑区,あすみが丘７丁目３２番８号,,12,105,2670066,,,2025-07-11,清算の結了等,,,2015-10-05,1,,,,,ロコ,0
2036,9080101023933,登記記録の閉鎖等,0,2025-08-04,2025-07-04,株式会社３９ＴＯＫＹＯ　ＧＯ,,株式会社,東京都,千代田区,丸の内２丁目５番１号丸の内二丁目ビル,,13,101,1000005,,,2025-07-04,清算の結了等,,,2023-04-20,1,,,,,サーティーナイントーキョーゴ,0
2044,9100001020912,登記記録の閉鎖等,0,2025-08-04,2025-08-01,株式会社南屋,,株式会社,長野県,伊那市,西町４９０８番地１５,,20,209,3960026,,,2025-08-01,清算の結了等,,,2015-10-05,1,,,,,ミナミヤ,0
2047,9100005012583,登記記録の閉鎖等,0,2025-08-04,2025-07-28,ＭＯＣＫ事業協同組合,,その他の設立登記法人,長野県,松本市,大字和田３９６７番地１８,,20,202,3901242,,,2025-07-28,清算の結了等,,,2020-07-06,1,,,,,エムオーシーケー,0
2058,9120001171828,登記記録の閉鎖等,0,2025-08-04,2025-07-15,株式会社アップルピンシステムズ,,株式会社,東京都,千代田区,飯田橋４丁目１番１号,,13,101,1020072,,,2025-07-15,合併による解散等,8011101062219,令和７年７月１日東京都千代田区飯田橋四丁目１番１号株式会社ティ・カトウ（8011101062219）に合併し解散,2015-10-05,1,,,,,アップルピンシステムズ,0
2060,9120001219890,登記記録の閉鎖等,0,2025-08-04,2025-07-11,Ａｒｔｉｌｌ株式会社,,株式会社,大阪府,大阪市北区,大深町３番１号グランフロント大阪北館６階,,27,127,5300011,,,2025-07-11,清算の結了等,,,2019-03-27,1,,,,,アーティル,0
2065,9120002067414,登記記録の閉鎖等,0,2025-08-04,2025-07-11,有限会社ＰＩＣ,,有限会社,大阪府,大阪市西区,京町堀１丁目７番９－３０１号,,27,106,5500003,,,2025-07-11,清算の結了等,,,2015-10-05,1,,,,,,0
2102,9180001072145,登記記録の閉鎖等,0,2025-08-04,2025-07-10,株式会社ヴァスター,,株式会社,愛知県,半田市,瑞穂町５丁目５番２１,,23,205,4750828,,,2025-07-10,清算の結了等,,,2015-10-05,1,,,,,ヴァスター,0
2105,9180001103833,登記記録の閉鎖等,0,2025-08-04,2025-07-10,株式会社リフォームのモリヤ,,株式会社,愛知県,名古屋市瑞穂区,玉水町２丁目２４番地,,23,108,4670046,,,2025-07-10,清算の結了等,,,2015-10-05,1,,,,,リフォームノモリヤ,0
2121,9190002014013,登記記録の閉鎖等,0,2025-08-04,2025-07-25,西和梱包運輸有限会社,,有限会社,三重県,松阪市,庄町７４３番地５,,24,204,5192147,,,2025-07-25,清算の結了等,,,2015-10-05,1,,,,,セイワコンポウウンユ,0
2143,9290001092933,登記記録の閉鎖等,0,2025-08-04,2025-07-09,株式会社ｐｌｕｓ,,株式会社,福岡県,福岡市中央区,天神２丁目３－１０－７１９号,,40,133,8100001,,,2025-07-09,清算の結了等,,,2021-04-23,1,,,,,プラス,0
2162,9370202001197,登記記録の閉鎖等,0,2025-08-04,2025-07-11,有限会社ユニパーツ,,有限会社,宮城県,大崎市,古川駅南１丁目８２番地,,04,215,9896161,,,2025-07-11,清算の結了等,,,2015-10-05,1,,,,,,0
2163,9380001010910,登記記録の閉鎖等,0,2025-08-04,2025-07-01,株式会社田中商事,,株式会社,福島県,西白河郡泉崎村,大字泉崎字上狐山２番地１,,07,464,9690101,,,2025-07-01,清算の結了等,,,2015-10-05,1,,,,,タナカショウジ,0
2164,9380001016569,登記記録の閉鎖等,0,2025-08-04,2025-07-11,相双電設株式会社,,株式会社,福島県,双葉郡双葉町,大字新山字久保前２番地の３,,07,546,9791472,,,2025-07-11,清算の結了等,,,2015-10-05,1,,,,,ソウソウデンセツ,0
2166,9380001027657,登記記録の閉鎖等,0,2025-08-04,2025-07-25,株式会社渡部新聞店,,株式会社,福島県,喜多方市,関柴町上高額字宮越５３７番地３,,07,208,9660015,,,2025-07-25,清算の結了等,,,2017-01-11,1,,,,,ワタナベシンブンテン,0
2167,9380002030643,登記記録の閉鎖等,0,2025-08-04,2025-07-03,まがら洋菓子研究所有限会社,,有限会社,福島県,双葉郡双葉町,大字新山字下条３３番地,,07,546,9791472,,,2025-07-03,清算の結了等,,,2015-10-05,1,,,,,,0
2168,9380003002328,登記記録の閉鎖等,0,2025-08-04,2025-07-11,合同会社柿芳,,合同会社,福島県,白河市,束前町１番地３３青山ハイツ１０１号,,07,205,9610916,,,2025-07-11,清算の結了等,,,2015-10-05,1,,,,,,0
2178,9430001066204,登記記録の閉鎖等,0,2025-08-04,2025-07-11,株式会社北耕地,,株式会社,北海道,雨竜郡雨竜町,字満寿２番地１７２,,01,436,0782600,,,2025-07-11,清算の結了等,,,2015-10-05,1,,,,,キタコウチ,0
