sequenceNumber,corporateNumber,process,correct,updateDate,changeDate,name,nameImageId,kind,prefectureName,cityName,streetNumber,addressImageId,prefectureCode,cityCode,postCode,addressOutside,addressOutsideImageId,closeDate,closeCause,successorCorporateNumber,changeCause,assignmentDate,latest,enName,enPrefectureName,enCityName,enAddressOutside,furigana,hihyoji
14,1010001257141,新規,0,2025-07-28,2025-07-28,Ｇｌｏｂａｌ　Ｆｌｏｗ株式会社,,株式会社,東京都,千代田区,神田三崎町２丁目１０番１１号Ｐｅｇビル６Ａ－５号室,,13,101,1010061,,,,,,,2025-07-28,1,,,,,グローバルフロー,0
15,1010003048101,新規,0,2025-07-28,2025-07-28,社会的健康デザイン合同会社,,合同会社,東京都,中央区,日本橋室町１丁目１１番１２号日本橋水野ビル７階,,13,102,1030022,,,,,,,2025-07-28,1,,,,,シャカイテキケンコウデザイン,0
19,1010401191758,新規,0,2025-07-28,2025-07-28,株式会社ハーバルコスモ,,株式会社,東京都,港区,北青山３丁目９番２号ＡＱＵＡビル１Ｆ,,13,103,1070061,,,,,,,2025-07-28,1,,,,,ハーバルコスモ,0
20,1010401191881,新規,0,2025-07-28,2025-07-28,株式会社ｐｌａｔｙｐｕｓ,,株式会社,東京都,港区,南青山２丁目２番１５号ＷＩＮ青山５３１,,13,103,1070062,,,,,,,2025-07-28,1,,,,,プラテパス,0
21,1010401191972,新規,0,2025-07-28,2025-07-28,ＺＥＬＹＣＡ株式会社,,株式会社,東京都,港区,北青山１丁目３番１号アールキューブ青山３階,,13,103,1070061,,,,,,,2025-07-28,1,,,,,ゼリカ,0
22,1010401192038,新規,0,2025-07-28,2025-07-28,ルイー株式会社,,株式会社,東京都,港区,三田１丁目３－４０麻布十番ＢＵＳＩＮＥＳＳ・ＣＵＢＥ－Ｓ天翔オフィス麻布十番５階５０１号室,,13,103,1080073,,,,,,,2025-07-28,1,,,,,ルイー,0
24,1010403035673,新規,0,2025-07-28,2025-07-28,Ｐａｃｉｆｉｃ　Ｂａｙｓ　Ｃａｐｉｔａｌ　Ｊａｐａｎ　Ｐｅｔｒｏｌｅｕｍ１号８合同会社,,合同会社,東京都,港区,虎ノ門５丁目３番２０号仙石山アネックス１０７号,,13,103,1050001,,,,,,,2025-07-28,1,,,,,パシフィックベイズキャピタルジャパンペトロリウムイチゴウハチ,0
25,1010403035681,新規,0,2025-07-28,2025-07-28,銚子第一風力合同会社,,合同会社,東京都,港区,赤坂２丁目２２番地２０号１０２,,13,103,1070052,,,,,,,2025-07-28,1,,,,,チョウシダイイチフウリョク,0
26,1010405024600,新規,0,2025-07-28,2025-07-28,ＲＥＰジャパン投資ホールディング一般社団法人,,その他の設立登記法人,東京都,港区,元赤坂１丁目１番７－１２０９号株式会社赤坂国際会計内,,13,103,1070051,,,,,,,2025-07-28,1,,,,,アールイーピージャパントウシホールディング,0
37,1011003021758,新規,0,2025-07-28,2025-07-28,合同会社ヒロナガ,,合同会社,東京都,渋谷区,道玄坂１丁目１０番８号渋谷道玄坂東急ビル２Ｆ－Ｃ,,13,113,1500043,,,,,,,2025-07-28,1,,,,,ヒロナガ,0
41,1011101112574,新規,0,2025-07-28,2025-07-28,株式会社ｒｉｎａｒｉａ,,株式会社,東京都,新宿区,西新宿３丁目３番１３号西新宿水間ビル２Ｆ,,13,104,1600023,,,,,,,2025-07-28,1,,,,,リナリア,0
44,1011201026526,新規,0,2025-07-28,2025-07-28,株式会社ミラルーシュ,,株式会社,東京都,中野区,弥生町１丁目３５－５シエスタミント１０３,,13,114,1640013,,,,,,,2025-07-28,1,,,,,ミラルーシュ,0
45,1011201026534,新規,0,2025-07-28,2025-07-28,株式会社イザナミマネジメント,,株式会社,東京都,中野区,野方１丁目２９番１号,,13,114,1650027,,,,,,,2025-07-28,1,,,,,イザナミマネジメント,0
47,1011401027282,新規,0,2025-07-28,2025-07-28,ツーインワンパーソナル株式会社,,株式会社,東京都,板橋区,志村２丁目１６番３３－１３０３号,,13,119,1740056,,,,,,,2025-07-28,1,,,,,ツーインワンパーソナル,0
53,1011801046527,新規,0,2025-07-28,2025-07-28,株式会社Ａｌｅｔｈｎｅ,,株式会社,東京都,葛飾区,東四つ木４丁目３２番２号,,13,122,1240014,,,,,,,2025-07-28,1,,,,,アレトネ,0
54,1012303002200,新規,0,2025-07-28,2025-07-28,緑労働合同会社,,合同会社,東京都,町田市,原町田４丁目１１－１３天野ビル４Ｆ,,13,209,1940013,,,,,,,2025-07-28,1,,,,,ミドリロウドウ,0
62,1012401043402,新規,0,2025-07-28,2025-07-28,株式会社ＮＥＯ　ＯＮＥ,,株式会社,東京都,狛江市,駒井町３丁目９番８－１号,,13,219,2010016,,,,,,,2025-07-28,1,,,,,ネオワン,0
70,1013301054662,新規,0,2025-07-28,2025-07-28,株式会社ＴＫ　ｗｅａｌｔｈ,,株式会社,東京都,豊島区,東池袋１丁目１４番３号,,13,116,1700013,,,,,,,2025-07-28,1,,,,,ティーケーウェルス,0
71,1020001164015,新規,0,2025-07-28,2025-07-28,株式会社Ｓｕｎｍｅｌ,,株式会社,神奈川県,横浜市港北区,篠原町９５８番地１グリーンコーポ篠原第２Ｇ号棟４０１,,14,109,2220026,,,,,,,2025-07-28,1,,,,,サンメル,0
73,1020003029018,新規,0,2025-07-28,2025-07-28,合同会社ＳＹＫＢ事務所,,合同会社,神奈川県,川崎市麻生区,万福寺２丁目２０番５号,,14,137,2150004,,,,,,,2025-07-28,1,,,,,エスワイケイビージムショ,0
81,1030001167776,新規,0,2025-07-28,2025-07-28,株式会社サポート・プラス,,株式会社,埼玉県,川口市,大字石神２４３番地の１池田コーポ２０３号,,11,203,3330823,,,,,,,2025-07-28,1,,,,,サポートプラス,0
82,1030001167801,新規,0,2025-07-28,2025-07-28,株式会社ＺＴＳ,,株式会社,埼玉県,さいたま市南区,沼影１丁目５番１４号マンションシェノッチュ２０３,,11,108,3360027,,,,,,,2025-07-28,1,,,,,ゼットティーエス,0
83,1030001167818,新規,0,2025-07-28,2025-07-28,株式会社パインフィールド,,株式会社,埼玉県,新座市,東２丁目３番１０号,,11,230,3520002,,,,,,,2025-07-28,1,,,,,パインフィールド,0
86,1030005022226,新規,0,2025-07-28,2025-07-28,一般社団法人こばと,,その他の設立登記法人,埼玉県,さいたま市大宮区,桜木町２丁目３番地大宮マルイ７階,,11,103,3300854,,,,,,,2025-07-28,1,,,,,コバト,0
90,1040003028050,新規,0,2025-07-28,2025-07-28,ＬＴ　ＨＥＹＤＡＹ　ＧＬＯＢＡＬ　ＪＡＰＡＮ合同会社,,合同会社,千葉県,松戸市,根本１８１番１号３１９Ａ,,12,207,2710077,,,,,,,2025-07-28,1,,,,,エルティーヘーデーグローバルジャパン,0
91,1040003028067,新規,0,2025-07-28,2025-07-28,Ｅｒａ九合同会社,,合同会社,千葉県,山武郡九十九里町,片貝字札立上２０８７番１,,12,403,2830104,,,,,,,2025-07-28,1,,,,,エラキュウ,0
92,1040003028109,新規,0,2025-07-28,2025-07-28,合同会社ＯＫ企画,,合同会社,千葉県,野田市,野田３２９番地１５,,12,208,2780037,,,,,,,2025-07-28,1,,,,,オーケーキカク,0
93,1040003028174,新規,0,2025-07-28,2025-07-28,合同会社リノ,,合同会社,千葉県,茂原市,鷲巣７１５―８アレイストイーグルＤ２０２,,12,210,2970051,,,,,,,2025-07-28,1,,,,,リノ,0
99,1050001056993,新規,0,2025-07-28,2025-07-28,株式会社魚留商店,,株式会社,茨城県,東茨城郡大洗町,磯浜町１９５番地,,08,309,3111301,,,,,,,2025-07-28,1,,,,,ウオトメショウテン,0
100,1050003009454,新規,0,2025-07-28,2025-07-28,合同会社ＲａｉｎｙＢｏｒｄｅｒｓ,,合同会社,茨城県,取手市,戸頭６丁目１番７－２０１号,,08,217,3020034,,,,,,,2025-07-28,1,,,,,レイニーボーダーズ,0
104,1070001043189,新規,0,2025-07-28,2025-07-28,ねこの手株式会社,,株式会社,群馬県,沼田市,西原新町１３６６－１９,,10,206,3780054,,,,,,,2025-07-28,1,,,,,ネコノテ,0
108,1080401028053,新規,0,2025-07-28,2025-07-28,株式会社アローズコンサルティング,,株式会社,静岡県,浜松市中央区,尾張町１２４番地の８,,22,138,4300949,,,,,,,2025-07-28,1,,,,,アローズコンサルティング,0
109,1080403005315,新規,0,2025-07-28,2025-07-28,合同会社ＧＬＯＢＡＬ　ＷＯＲＫ,,合同会社,静岡県,浜松市中央区,鹿谷町１２番２２号クアトロ３０３,,22,138,4328014,,,,,,,2025-07-28,1,,,,,グローバルワーク,0
113,1100003008269,新規,0,2025-07-28,2025-07-28,障がい福祉事務所ｕ橙合同会社,,合同会社,長野県,塩尻市,大字広丘野村１５８９－６,,20,215,3990702,,,,,,,2025-07-28,1,,,,,ショウガイフクシジムショダイダイ,0
122,1120001278135,新規,0,2025-07-28,2025-07-28,ＪＳ通商株式会社,,株式会社,大阪府,大阪市中央区,南本町１丁目４番８号澤村ビル６階,,27,128,5410054,,,,,,,2025-07-28,1,,,,,ジェイエスツウショウ,0
123,1120001278176,新規,0,2025-07-28,2025-07-28,Ｗｈｏｌｅ　Ｗｅａｌｔｈ　Ｐａｒｔｎｅｒ株式会社,,株式会社,大阪府,大阪市北区,紅梅町１－７久幸ビル２階,,27,127,5300038,,,,,,,2025-07-28,1,,,,,ホールウェルスパートナー,0
124,1120001278218,新規,0,2025-07-28,2025-07-28,株式会社Ｚｅａｌｉｇｎ,,株式会社,大阪府,大阪市中央区,南久宝寺町４丁目４番１号新御堂ビル５０２－１０号室,,27,128,5410058,,,,,,,2025-07-28,1,,,,,ジーライン,0
125,1120001278325,新規,0,2025-07-28,2025-07-28,森時株式会社,,株式会社,大阪府,大阪市北区,東天満２丁目６番１２号南森町双葉ビル３０１号,,27,127,5300044,,,,,,,2025-07-28,1,,,,,モリトキ,0
131,1120003030072,新規,0,2025-07-28,2025-07-28,廡都環瑞合同会社,,合同会社,大阪府,大阪市淀川区,西中島２丁目１２－３３,,27,123,5320011,,,,,,,2025-07-28,1,,,,,ムトワス,0
132,1120003030097,新規,0,2025-07-28,2025-07-28,リアン合同会社,,合同会社,大阪府,大阪市東住吉区,湯里５丁目１５番７号３階,,27,121,5460013,,,,,,,2025-07-28,1,,,,,リアン,0
133,1120003030114,新規,0,2025-07-28,2025-07-28,合同会社ハンバーグ,,合同会社,大阪府,大阪市東住吉区,照ケ丘矢田４丁目１２－７ＦａｓｅｃｉａＥＮＩＦ３０５,,27,121,5460021,,,,,,,2025-07-28,1,,,,,ハンバーグ,0
134,1120003030155,新規,0,2025-07-28,2025-07-28,合同会社ＲＥ　ＬＡＢ,,合同会社,大阪府,大阪市西区,立売堀１丁目６－１３南本町天祥ビル２号館４０９,,27,106,5500012,,,,,,,2025-07-28,1,,,,,リラボ,0
135,1120005025070,新規,0,2025-07-28,2025-07-28,一般社団法人希望,,その他の設立登記法人,大阪府,大阪市東住吉区,北田辺６丁目１５番４０号メゾン田辺１０１号,,27,121,5460044,,,,,,,2025-07-28,1,,,,,キボウ,0
143,1130001080127,新規,0,2025-07-28,2025-07-28,株式会社Ｌａ　Ｆｏｎｔｅ,,株式会社,京都府,京都市下京区,七条通油小路東入大黒町２２７番地第２キョートビル４０２,,26,106,6008223,,,,,,,2025-07-28,1,,,,,ラフォンテ,0
144,1130003010619,新規,0,2025-07-28,2025-07-28,合同会社Ａ２,,合同会社,京都府,京都市左京区,下鴨高木町４６－１－５０５,,26,103,6060864,,,,,,,2025-07-28,1,,,,,エーツー,0
145,1130003010627,新規,0,2025-07-28,2025-07-28,合同会社２Ｂ,,合同会社,京都府,京都市北区,上賀茂松本町１６番地１,,26,101,6038052,,,,,,,2025-07-28,1,,,,,トゥービー,0
146,1130005017406,新規,0,2025-07-28,2025-07-28,一般社団法人京都井手観光交流協会,,その他の設立登記法人,京都府,綴喜郡井手町,大字井手小字段ノ下５４番地の１,,26,343,6100302,,,,,,,2025-07-28,1,,,,,キョウトイデカンコウコウリュウキョウカイ,0
147,1130005017414,新規,0,2025-07-28,2025-07-28,一般社団法人あんしん居住保証センター,,その他の設立登記法人,京都府,京都市北区,小山上初音町３０番地２,,26,101,6038171,,,,,,,2025-07-28,1,,,,,アンシンキョジュウホショウセンター,0
149,1140001139343,新規,0,2025-07-28,2025-07-28,株式会社ＧＣＦｃｏｍｐａｎｙ,,株式会社,兵庫県,神戸市中央区,生田町１丁目４番２２号ニュー神戸フロントビルＢ１Ｆ,,28,110,6510092,,,,,,,2025-07-28,1,,,,,ジーシーエフカンパニー,0
152,1170003002257,新規,0,2025-07-28,2025-07-28,Ｓｈｉｎｏｖａ合同会社,,合同会社,和歌山県,西牟婁郡白浜町,市鹿野９７６番地,,30,401,6460301,,,,,,,2025-07-28,1,,,,,シノバ,0
156,1180001167638,新規,0,2025-07-28,2025-07-28,株式会社エス・シー・エス,,株式会社,愛知県,名古屋市天白区,大坪１丁目８０３番地－２０２号,,23,116,4680072,,,,,,,2025-07-28,1,,,,,エスシーエス,0
158,1180003028763,新規,0,2025-07-28,2025-07-28,サリ工業合同会社,,合同会社,愛知県,春日井市,神屋町１４２１番８号,,23,206,4800304,,,,,,,2025-07-28,1,,,,,サリコウギョウ,0
159,1180003028771,新規,0,2025-07-28,2025-07-28,合同会社タカギ,,合同会社,愛知県,稲沢市,高重中町６６番地１,,23,220,4928423,,,,,,,2025-07-28,1,,,,,タカギ,0
167,1240003007323,新規,0,2025-07-28,2025-07-28,マクロ商事合同会社,,合同会社,広島県,福山市,千田町大字千田３３４０－６７,,34,207,7200013,,,,,,,2025-07-28,1,,,,,マクロショウジ,0
171,1250001021267,新規,0,2025-07-28,2025-07-28,株式会社大照,,株式会社,山口県,岩国市,装束町４丁目１１番３－２号,,35,208,7400001,,,,,,,2025-07-28,1,,,,,ダイショウ,0
181,1290001110850,新規,0,2025-07-28,2025-07-28,ＪＰＥＸ投資株式会社,,株式会社,福岡県,福岡市博多区,博多駅南１丁目４番５号博多駅ＪＳビル,,40,132,8120016,,,,,,,2025-07-28,1,,,,,ジェイペックストウシ,0
182,1290001110867,新規,0,2025-07-28,2025-07-28,株式会社ＴＯＭＯＴＯ,,株式会社,福岡県,糟屋郡粕屋町,大字仲原２５３０番地１,,40,349,8112304,,,,,,,2025-07-28,1,,,,,トモト,0
183,1290003017144,新規,0,2025-07-28,2025-07-28,ＵＮＡＤＥＮ合同会社,,合同会社,福岡県,福岡市中央区,天神２丁目２番１２号Ｔ＆Ｊビルディング７Ｆ,,40,133,8100001,,,,,,,2025-07-28,1,,,,,ウナデン,0
185,1300003002318,新規,0,2025-07-28,2025-07-28,合同会社マカナ,,合同会社,佐賀県,小城市,牛津町下砥川７７１,,41,208,8490304,,,,,,,2025-07-28,1,,,,,マカナ,0
186,1330001033436,新規,0,2025-07-28,2025-07-28,株式会社Ｓｈｉｎｉｎｇ　Ｒｅｖｏ,,株式会社,熊本県,熊本市中央区,九品寺５丁目１１番１号豊永ビル２０１号,,43,101,8620976,,,,,,,2025-07-28,1,,,,,シャイニングレボ,0
194,1360001035545,新規,0,2025-07-28,2025-07-28,株式会社マホロバ,,株式会社,沖縄県,那覇市,樋川１丁目３０番１１号１Ｆ,,47,201,9000022,,,,,,,2025-07-28,1,,,,,マホロバ,0
197,1360003015124,新規,0,2025-07-28,2025-07-28,合同会社ＹＹＡ．オーガスター,,合同会社,沖縄県,豊見城市,字高嶺２７番地キューブ高嶺Ａ棟,,47,212,9010213,,,,,,,2025-07-28,1,,,,,ワイワイエーオーガスター,0
198,1370001052886,新規,0,2025-07-28,2025-07-28,株式会社Ｍ．Ｂｃ,,株式会社,宮城県,仙台市太白区,柳生６丁目２番地の３,,04,104,9811106,,,,,,,2025-07-28,1,,,,,エムドットビーシー,0
199,1370001052894,新規,0,2025-07-28,2025-07-28,株式会社エニシングゴーズ,,株式会社,宮城県,仙台市青葉区,本町１丁目９番５号五城ビル２０８号室,,04,101,9800014,,,,,,,2025-07-28,1,,,,,エニシングゴーズ,0
200,1370003007211,新規,0,2025-07-28,2025-07-28,みらいっこ合同会社,,合同会社,宮城県,仙台市若林区,遠見塚１丁目１９番８号アルファスィートＡ１０３,,04,103,9840823,,,,,,,2025-07-28,1,,,,,ミライッコ,0
207,1390001018068,新規,0,2025-07-28,2025-07-28,ＮＫ商事株式会社,,株式会社,山形県,酒田市,若宮町１丁目２１番１０号,,06,204,9980053,,,,,,,2025-07-28,1,,,,,エヌケーショウジ,0
210,1420003003147,新規,0,2025-07-28,2025-07-28,合同会社ＭｅｅＴｉｍｅ,,合同会社,青森県,八戸市,大字大久保字大山３番地３４８,,02,203,0310833,,,,,,,2025-07-28,1,,,,,ミイタイム,0
217,1460001006024,新規,0,2025-07-28,2025-07-28,株式会社のんびりまかい,,株式会社,北海道,釧路市,喜多町８－２・２階,,01,206,0850043,,,,,,,2025-07-28,1,,,,,ノンビリマカイ,0
231,2010001257140,新規,0,2025-07-28,2025-07-28,Ｓｔａｙ　Ｌｉｎｋ株式会社,,株式会社,東京都,千代田区,神田三崎町２丁目１０番１１号Ｐｅｇビル６Ａ－４号室,,13,101,1010061,,,,,,,2025-07-28,1,,,,,ステイリンク,0
233,2010003048125,新規,0,2025-07-28,2025-07-28,鯱哲工合同会社,,合同会社,東京都,千代田区,神田和泉町１番地６－１６ヤマトビル４０５,,13,101,1010024,,,,,,,2025-07-28,1,,,,,シャチテック,0
234,2010003048174,新規,0,2025-07-28,2025-07-28,ｒｅｎｇａプロ第５号合同会社,,合同会社,東京都,千代田区,丸の内１丁目４番１号東京共同会計事務所内,,13,101,1000005,,,,,,,2025-07-28,1,,,,,レンガプロダイゴゴウ,0
236,2010101016784,新規,0,2025-07-28,2025-07-28,Ｏｎｅ’ｓ株式会社,,株式会社,東京都,八王子市,みなみ野３丁目１５番２０号,,13,201,1920916,,,,,,,2025-07-28,1,,,,,ワンズ,0
245,2010401191922,新規,0,2025-07-28,2025-07-28,Ｓｅｃｕｒｅ　Ｖｅｒｔｅｘ株式会社,,株式会社,東京都,港区,南青山３丁目１番３６号青山丸竹ビル６Ｆ,,13,103,1070062,,,,,,,2025-07-28,1,,,,,セキュアヴァーテックス,0
246,2010401191955,新規,0,2025-07-28,2025-07-28,株式会社ＡＩＰＥＸ,,株式会社,東京都,港区,虎ノ門２丁目２番１号グロース虎ノ門５階ＡＮＯＢＡＳＨＯ内,,13,103,1050001,,,,,,,2025-07-28,1,,,,,アイペックス,0
247,2010401192020,新規,0,2025-07-28,2025-07-28,株式会社クレスト,,株式会社,東京都,港区,南青山３丁目１―３６青山丸竹ビル６Ｆ,,13,103,1070062,,,,,,,2025-07-28,1,,,,,クレスト,0
250,2010403035672,新規,0,2025-07-28,2025-07-28,Ｐａｃｉｆｉｃ　Ｂａｙｓ　Ｃａｐｉｔａｌ　Ｊａｐａｎ　Ｐｅｔｒｏｌｅｕｍ１号７合同会社,,合同会社,東京都,港区,虎ノ門５丁目３番２０号仙石山アネックス１０７号,,13,103,1050001,,,,,,,2025-07-28,1,,,,,パシフィックベイズキャピタルジャパンペトロリウムイチゴウナナ,0
251,2010405024599,新規,0,2025-07-28,2025-07-28,ＲＥＰ１０１ホールディング一般社団法人,,その他の設立登記法人,東京都,港区,元赤坂１丁目１番７－１２０９号株式会社赤坂国際会計内,,13,103,1070051,,,,,,,2025-07-28,1,,,,,アールイーピーイチゼロイチホールディング,0
253,2010501054459,新規,0,2025-07-28,2025-07-28,株式会社ＷＡＳＯ,,株式会社,東京都,台東区,雷門２丁目１９－１長谷川ビル３Ｆ,,13,106,1110034,,,,,,,2025-07-28,1,,,,,ワソー,0
255,2010703007834,新規,0,2025-07-28,2025-07-28,合同会社フェリオ,,合同会社,東京都,品川区,二葉３丁目３０番８号田中方,,13,109,1420043,,,,,,,2025-07-28,1,,,,,フェリオ,0
261,2011001171018,新規,0,2025-07-28,2025-07-28,株式会社Ｍｏｎｏｋｒｏｍｅ,,株式会社,東京都,渋谷区,円山町５番３号ＭＩＥＵＸ渋谷ビル８階,,13,113,1500044,,,,,,,2025-07-28,1,,,,,モノクローム,0
262,2011001171447,新規,0,2025-07-28,2025-07-28,株式会社ＤｅＮＡ　Ｃｒｅａｔｏｒ　Ｌｉｎｋｓ,,株式会社,東京都,渋谷区,渋谷２丁目２４番１２号,,13,113,1500002,,,,,,,2025-07-28,1,,,,,ディーエヌエークリエイターリンクス,0
264,2011003022152,新規,0,2025-07-28,2025-07-28,ｋａｎｄｏ１合同会社,,合同会社,東京都,渋谷区,円山町５番３号ＭＩＥＵＸ渋谷ビル８階,,13,113,1500044,,,,,,,2025-07-28,1,,,,,カンドーワン,0
265,2011003022193,新規,0,2025-07-28,2025-07-28,ボクラボン合同会社,,合同会社,東京都,渋谷区,神南１丁目１１‐４ＦＰＧリンクス神南５階,,13,113,1500041,,,,,,,2025-07-28,1,,,,,ボクラボン,0
266,2011003022219,新規,0,2025-07-28,2025-07-28,キッチンカーパーク合同会社,,合同会社,東京都,渋谷区,道玄坂１丁目１０番８号渋谷道玄坂東急ビル２Ｆ－Ｃ,,13,113,1500043,,,,,,,2025-07-28,1,,,,,キッチンカーパーク,0
268,2011101112516,新規,0,2025-07-28,2025-07-28,株式会社テンサウ,,株式会社,東京都,新宿区,百人町３丁目１６番６号ＭＡＩＳＯＮＤＥＧＥＲＢＥＲＡ０００２,,13,104,1690073,,,,,,,2025-07-28,1,,,,,テンサウ,0
271,2011201026533,新規,0,2025-07-28,2025-07-28,株式会社樹,,株式会社,東京都,中野区,本町６丁目３５番地１４号足立ビル,,13,114,1640012,,,,,,,2025-07-28,1,,,,,ノブ,0
273,2011301030765,新規,0,2025-07-28,2025-07-28,ケイ不動産株式会社,,株式会社,東京都,杉並区,永福２丁目２９番６号,,13,115,1680064,,,,,,,2025-07-28,1,,,,,ケイフドウサン,0
278,2011701028566,新規,0,2025-07-28,2025-07-28,株式会社カナルカンパニー,,株式会社,東京都,江戸川区,大杉５丁目８－２２,,13,123,1320022,,,,,,,2025-07-28,1,,,,,カナルカンパニー,0
280,2011801046170,新規,0,2025-07-28,2025-07-28,株式会社Ｊ＆Ｙ,,株式会社,東京都,足立区,関原３丁目２－１－１０２室,,13,121,1230852,,,,,,,2025-07-28,1,,,,,ジアンドワイ,0
294,2012701018986,新規,0,2025-07-28,2025-07-28,株式会社ＯＧＡＴＡ,,株式会社,東京都,東村山市,栄町３丁目１８番地１８池田ビルＩＩＩ４０１,00140061,13,213,1890013,,,,,,,2025-07-28,1,,,,,オガタ,0
295,2012701018994,新規,0,2025-07-28,2025-07-28,株式会社Ｔ・Ｍ・Ｃ,,株式会社,東京都,清瀬市,下清戸２丁目５８６番地１９,,13,221,2040011,,,,,,,2025-07-28,1,,,,,ティーエムシー,0
296,2012801024125,新規,0,2025-07-28,2025-07-28,百健株式会社,,株式会社,東京都,立川市,錦町１丁目３－２５丸三ビル５階,,13,202,1900022,,,,,,,2025-07-28,1,,,,,ハクケン,0
301,2013303007782,新規,0,2025-07-28,2025-07-28,合同会社燈和,,合同会社,東京都,豊島区,東池袋１丁目１７番１１号パークハイツ池袋１００５号,,13,116,1700013,,,,,,,2025-07-28,1,,,,,トウワ,0
304,2020001164039,新規,0,2025-07-28,2025-07-28,株式会社Ｓｏｒｇｅｎｔｅ　Ｃｒｅｓｃｉｔａ,,株式会社,神奈川県,横浜市神奈川区,六角橋２丁目３番６号,,14,102,2210802,,,,,,,2025-07-28,1,,,,,ソルジェンテクレシータ,0
306,2020003029025,新規,0,2025-07-28,2025-07-28,ＭＩＲＡＩ　ＲＥＳＯＮＡＮＣＥ合同会社,,合同会社,神奈川県,川崎市川崎区,藤崎４丁目６番１８号１階,,14,131,2100804,,,,,,,2025-07-28,1,,,,,ミライレゾナンス,0
307,2020003029033,新規,0,2025-07-28,2025-07-28,合同会社ノーマル,,合同会社,神奈川県,横浜市鶴見区,市場下町５番６号平林荘,,14,101,2300024,,,,,,,2025-07-28,1,,,,,ノーマル,0
311,2021001085910,新規,0,2025-07-28,2025-07-28,株式会社一幸,,株式会社,神奈川県,藤沢市,石川１丁目２４番地の１,,14,205,2520815,,,,,,,2025-07-28,1,,,,,イッコウ,0
312,2021001085919,新規,0,2025-07-28,2025-07-28,株式会社Ｙｅｌｌｏｗ　Ｌｉｆｅ,,株式会社,神奈川県,平塚市,徳延３３２番地の４０,,14,203,2540902,,,,,,,2025-07-28,1,,,,,イエローライフ,0
320,2021003016319,新規,0,2025-07-28,2025-07-28,合同会社ＨＹオフィスアソシエイツ,,合同会社,神奈川県,厚木市,寿町２丁目１－１８,,14,212,2430003,,,,,,,2025-07-28,1,,,,,エイチワイオフィスアソシエイツ,0
321,2021003016335,新規,0,2025-07-28,2025-07-28,Ｈｏｍｅｔｏｗｎ合同会社,,合同会社,神奈川県,小田原市,南町３丁目１０番１５号,,14,206,2500013,,,,,,,2025-07-28,1,,,,,ホームタウン,0
325,2030001167734,新規,0,2025-07-28,2025-07-28,株式会社咲‐ｓａｋｕ,,株式会社,埼玉県,川越市,大字下広谷１０７１番地６号,,11,201,3500804,,,,,,,2025-07-28,1,,,,,サクサク,0
326,2030001167783,新規,0,2025-07-28,2025-07-28,株式会社ＪＡＤＥＩＴＥ,,株式会社,埼玉県,川口市,戸塚東３丁目１８番１５号,,11,203,3330802,,,,,,,2025-07-28,1,,,,,ジェダイド,0
327,2030001167791,新規,0,2025-07-28,2025-07-28,株式会社Ｓｏｌｅｎｉａ,,株式会社,埼玉県,鴻巣市,本宮町５－２８,,11,217,3650076,,,,,,,2025-07-28,1,,,,,ソレニア,0
334,2030003027259,新規,0,2025-07-28,2025-07-28,光合同会社,,合同会社,埼玉県,熊谷市,千代３６４番地２,,11,202,3600107,,,,,,,2025-07-28,1,,,,,ヒカリ,0
337,2040001139765,新規,0,2025-07-28,2025-07-28,株式会社ジェイサービス,,株式会社,千葉県,長生郡一宮町,東野２８番地２フォーブル東野２０５号,,12,421,2994306,,,,,,,2025-07-28,1,,,,,ジェイサービス,0
338,2040001139807,新規,0,2025-07-28,2025-07-28,株式会社フォーティーワン,,株式会社,千葉県,千葉市美浜区,幕張西６丁目９番地６,,12,106,2610026,,,,,,,2025-07-28,1,,,,,フォーティーワン,0
341,2040003028074,新規,0,2025-07-28,2025-07-28,合同会社向蝶産業,,合同会社,千葉県,千葉市花見川区,千種町９８番地２６,,12,102,2620012,,,,,,,2025-07-28,1,,,,,コウチョウサンギョウ,0
342,2050001056984,新規,0,2025-07-28,2025-07-28,株式会社ａｉｎｏｗａ,,株式会社,茨城県,つくば市,大曽根３４７９番地２カーサフィオーレＡ棟２０２号,,08,220,3003253,,,,,,,2025-07-28,1,,,,,アイノワ,0
343,2050003009437,新規,0,2025-07-28,2025-07-28,Ｊ‐Ｂｒｉｄｇｅ　Ｗｏｒｋｓ合同会社,,合同会社,茨城県,ひたちなか市,堂端２丁目１－１,,08,221,3120051,,,,,,,2025-07-28,1,,,,,ジェイブリッジワークス,0
345,2060003005658,新規,0,2025-07-28,2025-07-28,合同会社カスタムメンテサービス,,合同会社,栃木県,栃木市,川原田町１１６番地,,09,203,3280123,,,,,,,2025-07-28,1,,,,,カスタムメンテサービス,0
347,2070001043155,新規,0,2025-07-28,2025-07-28,株式会社ＣＲＯＳＳ　ＬＩＮＫＳ,,株式会社,群馬県,高崎市,山名町１５８９－１９,,10,202,3701213,,,,,,,2025-07-28,1,,,,,クロスリンクス,0
354,2080401028052,新規,0,2025-07-28,2025-07-28,株式会社Ｌｕｃｉａ,,株式会社,静岡県,浜松市中央区,船越町５２番地の３５,,22,138,4300913,,,,,,,2025-07-28,1,,,,,ルシア,0
365,2100001038795,新規,0,2025-07-28,2025-07-28,株式会社米美ＬａｂｏＷＡＯ,,株式会社,長野県,松本市,梓川倭３５０９番地,,20,202,3901701,,,,,,,2025-07-28,1,,,,,コメビラボワオ,0
378,2120001278134,新規,0,2025-07-28,2025-07-28,株式会社ＮＹＡ‐Ｏ,,株式会社,大阪府,大阪市中央区,谷町３丁目２－１１ＦＬＡＧＳビル３階,,27,128,5400012,,,,,,,2025-07-28,1,,,,,ニャーオ,0
379,2120001278167,新規,0,2025-07-28,2025-07-28,Ｍ＆Ｇ株式会社,,株式会社,大阪府,大阪市西成区,玉出東１丁目１０番１２－５Ｃ号室,,27,122,5570043,,,,,,,2025-07-28,1,,,,,エムアンドジー,0
380,2120001278175,新規,0,2025-07-28,2025-07-28,吉田株式会社,,株式会社,大阪府,大阪市淀川区,三津屋北２丁目１１番８号リバーサイド三津屋１０３号室,,27,123,5320032,,,,,,,2025-07-28,1,,,,,ヨシダ,0
381,2120001278258,新規,0,2025-07-28,2025-07-28,華大株式会社,,株式会社,大阪府,大阪市大正区,平尾４丁目１１－７－３０４号,,27,108,5510012,,,,,,,2025-07-28,1,,,,,カダイ,0
382,2120001278266,新規,0,2025-07-28,2025-07-28,株式会社ＮＬ‐ＤＧ,,株式会社,大阪府,大阪市淀川区,西中島３丁目１２番１５号第５新大阪ビル３０１号室,,27,123,5320011,,,,,,,2025-07-28,1,,,,,エヌエルディージー,0
385,2120003030154,新規,0,2025-07-28,2025-07-28,パネル合同会社,,合同会社,大阪府,大阪市生野区,巽西３丁目８番１号,,27,116,5440012,,,,,,,2025-07-28,1,,,,,パネル,0
386,2120005024996,新規,0,2025-07-28,2025-07-28,一般社団法人中華玉石協会,,その他の設立登記法人,大阪府,大阪市中央区,内本町２丁目４番１０－２０７号,,27,128,5400026,,,,,,,2025-07-28,1,,,,,チュウカギョクセキキョウカイ,0
389,2120101072164,新規,0,2025-07-28,2025-07-28,翔翼工業株式会社,,株式会社,大阪府,堺市堺区,中瓦町１丁２－９－６０３,,27,141,5900077,,,,,,,2025-07-28,1,,,,,ショウヨクコウギョウ,0
390,2120101072172,新規,0,2025-07-28,2025-07-28,株式会社わだ会,,株式会社,大阪府,堺市北区,北長尾町２丁４番７号１階,,27,146,5918043,,,,,,,2025-07-28,1,,,,,ワダカイ,0
391,2120101072189,新規,0,2025-07-28,2025-07-28,株式会社タルミツ,,株式会社,大阪府,河内長野市,松ケ丘中町１４０６番地２,,27,216,5860006,,,,,,,2025-07-28,1,,,,,タルミツ,0
398,2122003003255,新規,0,2025-07-28,2025-07-28,合同会社オークションｐａｐａｆｕｎａ,,合同会社,大阪府,東大阪市,西鴻池町１丁目１３番１８号,,27,227,5780976,,,,,,,2025-07-28,1,,,,,オークションパパフナ,0
399,2122003003263,新規,0,2025-07-28,2025-07-28,合同会社ｌｕｃｉｒ,,合同会社,大阪府,東大阪市,足代３丁目３番９－４０４号,,27,227,5770841,,,,,,,2025-07-28,1,,,,,ルシール,0
401,2130001080167,新規,0,2025-07-28,2025-07-28,ビジョンイズム株式会社,,株式会社,京都府,京都市下京区,室町通仏光寺上る白楽天町５１９,,26,106,6008422,,,,,,,2025-07-28,1,,,,,ビジョンイズム,0
412,2150001028288,新規,0,2025-07-28,2025-07-28,株式会社ＳｍｉｌｅＨｏｌｄｉｎｇｓ,,株式会社,奈良県,天理市,川原城町６８０番地天理ビル３０１,,29,204,6320016,,,,,,,2025-07-28,1,,,,,スマイルホールディングス,0
414,2170003002256,新規,0,2025-07-28,2025-07-28,Ｃａｒ　ｃｌｅａｎｓｅ合同会社,,合同会社,和歌山県,新宮市,鴻田１丁目９番２号,,30,207,6470082,,,,,,,2025-07-28,1,,,,,カークレンズ,0
419,2180003028754,新規,0,2025-07-28,2025-07-28,合同会社ＢＥＡＴＳ,,合同会社,愛知県,半田市,石塚町１丁目１８４番地緑ケ丘住宅１０棟４０４号,,23,205,4750001,,,,,,,2025-07-28,1,,,,,ビーツ,0
420,2180003028770,新規,0,2025-07-28,2025-07-28,合同会社慶,,合同会社,愛知県,名古屋市東区,泉２丁目１番地２８ヴィアーレストーリア１３０３号室,,23,102,4610001,,,,,,,2025-07-28,1,,,,,ディライト,0
421,2180003028787,新規,0,2025-07-28,2025-07-28,合同会社ハウスマネージメントＳ,,合同会社,愛知県,名古屋市中村区,日吉町３０番地の３ＩＭＫビル４０２号,,23,105,4530029,,,,,,,2025-07-28,1,,,,,ハウスマネージメントエス,0
426,2180301040056,新規,0,2025-07-28,2025-07-28,株式会社アローズ,,株式会社,愛知県,安城市,住吉町６丁目２番地１,,23,212,4460072,,,,,,,2025-07-28,1,,,,,アローズ,0
433,2200001044081,新規,0,2025-07-28,2025-07-28,株式会社ネックスワン,,株式会社,岐阜県,海津市,海津町神桐１３６番地,,21,221,5030603,,,,,,,2025-07-28,1,,,,,ネックスワン,0
434,2200003006939,新規,0,2025-07-28,2025-07-28,ＭＢＲ合同会社,,合同会社,岐阜県,揖斐郡池田町,本郷１０７８‐１,,21,404,5032417,,,,,,,2025-07-28,1,,,,,エムビーアール,0
436,2210003001939,新規,0,2025-07-28,2025-07-28,合同会社ファームストン,,合同会社,福井県,あわら市,上番第４０号１番地１４,,18,208,9104134,,,,,,,2025-07-28,1,,,,,ファームストン,0
442,2240001065280,新規,0,2025-07-28,2025-07-28,株式会社ＳＯＳＨＩＪＩ,,株式会社,広島県,広島市安佐南区,高取北２丁目１９番２０号,,34,105,7310144,,,,,,,2025-07-28,1,,,,,ソシジ,0
443,2240003007322,新規,0,2025-07-28,2025-07-28,輝龍合同会社,,合同会社,広島県,三原市,小泉町３２５３番地,,34,204,7292361,,,,,,,2025-07-28,1,,,,,キリュウ,0
448,2260003005274,新規,0,2025-07-28,2025-07-28,合同会社ＲＡＮＫ,,合同会社,岡山県,岡山市南区,彦崎２８７２番地７,,33,104,7091213,,,,,,,2025-07-28,1,,,,,ランク,0
449,2270001009251,新規,0,2025-07-28,2025-07-28,株式会社暁Ｇｒｏｕｐ,,株式会社,鳥取県,鳥取市,弥生町３７３－４,,31,201,6800832,,,,,,,2025-07-28,1,,,,,アカツキグループ,0
458,2290001110858,新規,0,2025-07-28,2025-07-28,株式会社高専パートナー,,株式会社,福岡県,糟屋郡新宮町,杜の宮４丁目９－２６,,40,345,8110122,,,,,,,2025-07-28,1,,,,,コウセンパートナー,0
459,2290001110866,新規,0,2025-07-28,2025-07-28,株式会社Ｓｏａｒ,,株式会社,福岡県,福岡市中央区,大名１丁目４番２９－２０２号,,40,133,8100041,,,,,,,2025-07-28,1,,,,,ソア,0
460,2290001110874,新規,0,2025-07-28,2025-07-28,株式会社ＹＵＺＵＫＩ,,株式会社,福岡県,糟屋郡志免町,田富４丁目１番２６号,,40,343,8112204,,,,,,,2025-07-28,1,,,,,ユズキ,0
461,2300001014289,新規,0,2025-07-28,2025-07-28,株式会社エムスクエア,,株式会社,佐賀県,鹿島市,大字常広１３７番地８,,41,207,8491301,,,,,,,2025-07-28,1,,,,,エムスクエア,0
467,2330001033435,新規,0,2025-07-28,2025-07-28,ＢＬＯＯＭＯ株式会社,,株式会社,熊本県,熊本市中央区,新市街１２番９号,,43,101,8600803,,,,,,,2025-07-28,1,,,,,ブルーモ,0
469,2330003011141,新規,0,2025-07-28,2025-07-28,合同会社中川商店,,合同会社,熊本県,天草市,牛深町２３７番地１苓州ビル１階,,43,215,8631901,,,,,,,2025-07-28,1,,,,,ナカガワショウテン,0
470,2340001027551,新規,0,2025-07-28,2025-07-28,ＧＮ２株式会社,,株式会社,鹿児島県,鹿児島市,武１丁目４１番１２号,,46,201,8900045,,,,,,,2025-07-28,1,,,,,ジーエヌツー,0
471,2350001019671,新規,0,2025-07-28,2025-07-28,Ｍ’ｓ株式会社,,株式会社,宮崎県,都城市,栄町８－５ＭＧビル２Ｆ,,45,202,8850023,,,,,,,2025-07-28,1,,,,,エムズ,0
476,2360001035552,新規,0,2025-07-28,2025-07-28,株式会社ミヤラ,,株式会社,沖縄県,中頭郡西原町,字幸地９８２番地の１４,,47,329,9030116,,,,,,,2025-07-28,1,,,,,ミヤラ,0
480,2370001052885,新規,0,2025-07-28,2025-07-28,株式会社ＢＥＹＯＮＤ,,株式会社,宮城県,仙台市若林区,新寺１丁目１番１２号大貴ビル６階,,04,103,9840051,,,,,,,2025-07-28,1,,,,,ビヨンド,0
481,2390001018067,新規,0,2025-07-28,2025-07-28,株式会社麻雀荘みやもと山,,株式会社,山形県,山形市,七日町２丁目１番３号プラザビル七日町２階,,06,201,9900042,,,,,,,2025-07-28,1,,,,,マージャンソウミヤモトヤマ,0
489,2462501001040,新規,0,2025-07-28,2025-07-28,株式会社ファームエンジン,,株式会社,北海道,野付郡別海町,別海川上町２０番地の４６,,01,691,0860215,,,,,,,2025-07-28,1,,,,,ファームエンジン,0
494,2700150131539,新規,0,2025-07-28,2025-07-28,駅通り区自治会,,その他,佐賀県,神埼市,神埼町田道ヶ里２３１６－８,,41,210,8420002,,,,,,,2025-07-28,1,,,,,エキドオリクジチカイ,0
498,3010001256637,新規,0,2025-07-28,2025-07-28,株式会社ＸＩＮＸＩＮ,,株式会社,東京都,中央区,銀座１丁目１２番４号Ｎ＆ＥＢＬＤ．６Ｆ,,13,102,1040061,,,,,,,2025-07-28,1,,,,,シンシン,0
499,3010001257065,新規,0,2025-07-28,2025-07-28,株式会社Ｅｒｉｓｓ,,株式会社,東京都,中央区,銀座１丁目１２番４号Ｎ＆ＥＢＬＤ．６Ｆ,,13,102,1040061,,,,,,,2025-07-28,1,,,,,エリス,0
500,3010001257148,新規,0,2025-07-28,2025-07-28,船井生医株式会社,,株式会社,東京都,千代田区,丸の内１丁目１１番１号パシフィックセンチュリープレイス丸の内１３３２室,,13,101,1000005,,,,,,,2025-07-28,1,,,,,フナイセイイ,0
501,3010001257172,新規,0,2025-07-28,2025-07-28,株式会社ＲＩＣＨ　ＰＯＯＬ,,株式会社,東京都,千代田区,鍛冶町１丁目６番２号林ビル３階,,13,101,1010044,,,,,,,2025-07-28,1,,,,,リッチプール,0
502,3010003048124,新規,0,2025-07-28,2025-07-28,ＧＡＫＵ　Ｃｏｎｓｕｌｔｉｎｇ合同会社,,合同会社,東京都,中央区,銀座１丁目１２番４号Ｎ＆ＥＢＬＤ．６Ｆ,,13,102,1040061,,,,,,,2025-07-28,1,,,,,ガクコンサルティング,0
503,3010003048132,新規,0,2025-07-28,2025-07-28,合同会社Ｎｏｒｉｋｏｒｅａ,,合同会社,東京都,中央区,銀座１丁目２２番１１号銀座大竹ビジデンス２Ｆ,,13,102,1040061,,,,,,,2025-07-28,1,,,,,ノリコリア,0
510,3010401191723,新規,0,2025-07-28,2025-07-28,Ｃｕｒｒｙｂａｍｂｅ株式会社,,株式会社,東京都,港区,赤坂２丁目２３番１号アークヒルズ・フロントタワーＩｎＣｏｎｔｒｏｌ内,,13,103,1070052,,,,,,,2025-07-28,1,,,,,カリーバンベ,0
511,3010401191962,新規,0,2025-07-28,2025-07-28,ＬＧＮＥＣＴ株式会社,,株式会社,東京都,港区,北青山１丁目３番１号アールキューブ青山３Ｆ,,13,103,1070061,,,,,,,2025-07-28,1,,,,,リーグネクト,0
515,3010403035507,新規,0,2025-07-28,2025-07-28,合同会社鳥一,,合同会社,東京都,港区,港南２丁目６番７号品川ビルＢ１,,13,103,1080075,,,,,,,2025-07-28,1,,,,,トリイチ,0
516,3010403035655,新規,0,2025-07-28,2025-07-28,合同会社Ｄｏｔｓ,,合同会社,東京都,港区,芝浦１丁目６番４１－９０６号,,13,103,1050023,,,,,,,2025-07-28,1,,,,,ドッツ,0
517,3010403035663,新規,0,2025-07-28,2025-07-28,合同会社伊藤エナジー,,合同会社,東京都,港区,六本木３丁目１６番１９－３０２号,,13,103,1060032,,,,,,,2025-07-28,1,,,,,イトウエナジー,0
518,3010403035671,新規,0,2025-07-28,2025-07-28,Ｐａｃｉｆｉｃ　Ｂａｙｓ　Ｃａｐｉｔａｌ　Ｊａｐａｎ　Ｐｅｔｒｏｌｅｕｍ１号６合同会社,,合同会社,東京都,港区,虎ノ門５丁目３番２０号仙石山アネックス１０７号,,13,103,1050001,,,,,,,2025-07-28,1,,,,,パシフィックベイズキャピタルジャパンペトロリウムイチゴウロク,0
519,3010405024549,新規,0,2025-07-28,2025-07-28,アトラクト・ＩＰＯ税理士法人,,その他の設立登記法人,東京都,港区,南青山２丁目２番８号ＤＦビル６３０,,13,103,1070062,,,,,,,2025-07-28,1,,,,,アトラクトアイピーオー,0
520,3010405024598,新規,0,2025-07-28,2025-07-28,ＲＥＰ１０３ホールディング一般社団法人,,その他の設立登記法人,東京都,港区,元赤坂１丁目１番７－１２０９号株式会社赤坂国際会計内,,13,103,1070051,,,,,,,2025-07-28,1,,,,,アールイーピーイチゼロサンホールディング,0
523,3010501054458,新規,0,2025-07-28,2025-07-28,義明株式会社,,株式会社,東京都,台東区,下谷２丁目１０番－１３－１１０１,,13,106,1100004,,,,,,,2025-07-28,1,,,,,ヨシアキ,0
526,3010503007901,新規,0,2025-07-28,2025-07-28,大森合同会社,,合同会社,東京都,台東区,６－７－１６－川久保ビル５０６号室,,13,106,1100000,,,,,,,2025-07-28,1,,,,,オオモリ,0
527,3010503007926,新規,0,2025-07-28,2025-07-28,合同会社ドノスチア,,合同会社,東京都,台東区,三筋１丁目３番５－８０２号,,13,106,1110055,,,,,,,2025-07-28,1,,,,,ドノスチア,0
531,3010705003780,新規,0,2025-07-28,2025-07-28,一般社団法人東京リプロヘルスケア,,その他の設立登記法人,東京都,品川区,南大井６丁目１７番１０号,,13,109,1400013,,,,,,,2025-07-28,1,,,,,トウキョウリプロヘルスケア,0
532,3010801036420,新規,0,2025-07-28,2025-07-28,株式会社千和,,株式会社,東京都,大田区,本羽田１丁目２２番１９号,,13,111,1440044,,,,,,,2025-07-28,1,,,,,センワ,0
533,3010803005489,新規,0,2025-07-28,2025-07-28,合同会社ハルアセット,,合同会社,東京都,大田区,西蒲田８丁目３－８シャトレー西蒲田４１３,,13,111,1440051,,,,,,,2025-07-28,1,,,,,ハルアセット,0
536,3010903010100,新規,0,2025-07-28,2025-07-28,ＲＵＢＡＮＲＯＳＥ合同会社,,合同会社,東京都,世田谷区,太子堂４丁目１８番１５号マガザン三軒茶屋２－３Ｆ－３,,13,112,1540004,,,,,,,2025-07-28,1,,,,,ルバンローズ,0
537,3010903010133,新規,0,2025-07-28,2025-07-28,合同会社ＣＦＹＮ,,合同会社,東京都,世田谷区,弦巻１丁目１１番１２号,,13,112,1540016,,,,,,,2025-07-28,1,,,,,シーエフワイエヌ,0
544,3011001171504,新規,0,2025-07-28,2025-07-28,株式会社さくらエステート,,株式会社,東京都,渋谷区,恵比寿２丁目３番２号,,13,113,1500013,,,,,,,2025-07-28,1,,,,,サクラエステート,0
545,3011005011094,新規,0,2025-07-28,2025-07-28,一般社団法人代官山美容形成外科研究会,,その他の設立登記法人,東京都,渋谷区,猿楽町２８－１３ＲＯＯＢ１代官山３Ｆ,,13,113,1500033,,,,,,,2025-07-28,1,,,,,ダイカンヤマビヨウケイセイゲカケンキュウカイ,0
552,3011201026532,新規,0,2025-07-28,2025-07-28,株式会社Ｕｃｈｉ,,株式会社,東京都,中野区,中央３丁目２６番８号,,13,114,1640011,,,,,,,2025-07-28,1,,,,,ウチ,0
553,3011301030764,新規,0,2025-07-28,2025-07-28,株式会社徳庵,,株式会社,東京都,杉並区,本天沼２丁目３６番４号,,13,115,1670031,,,,,,,2025-07-28,1,,,,,トクアン,0
558,3011601028839,新規,0,2025-07-28,2025-07-28,株式会社日東農業,,株式会社,東京都,練馬区,北町５丁目１８番１３号,,13,120,1790081,,,,,,,2025-07-28,1,,,,,ニットウノウギョウ,0
565,3011701028565,新規,0,2025-07-28,2025-07-28,株式会社シュー電,,株式会社,東京都,江戸川区,清新町１丁目３番３－１３０２号,,13,123,1340087,,,,,,,2025-07-28,1,,,,,シューデン,0
568,3012701018993,新規,0,2025-07-28,2025-07-28,株式会社スキップ,,株式会社,東京都,小平市,花小金井１丁目３３番６号,,13,211,1870002,,,,,,,2025-07-28,1,,,,,スキップ,0
570,3012801024132,新規,0,2025-07-28,2025-07-28,株式会社ブレイン・ネクストドア,,株式会社,東京都,立川市,曙町２丁目３４－６小杉ビル７階,,13,202,1900012,,,,,,,2025-07-28,1,,,,,ブレインネクストドア,0
572,3013301054660,新規,0,2025-07-28,2025-07-28,文龍国際株式会社,,株式会社,東京都,豊島区,南池袋１丁目９番１８号ＧＯＧＯオフィス池袋２２２号室,,13,116,1710022,,,,,,,2025-07-28,1,,,,,ブンリュウコクサイ,0
573,3013301054669,新規,0,2025-07-28,2025-07-28,株式会社橋水,,株式会社,東京都,豊島区,高田３丁目５番５号谷口ビル３０８室,,13,116,1710033,,,,,,,2025-07-28,1,,,,,ハシミズ,0
577,3020005016945,新規,0,2025-07-28,2025-07-28,一般社団法人日本ライフスタイル医学会,,その他の設立登記法人,神奈川県,横浜市港北区,新横浜３丁目８番地１２丸八新横浜ビル４Ｆ,,14,109,2220033,,,,,,,2025-07-28,1,,,,,ニホンライフスタイルイガクカイ,0
580,3030001167741,新規,0,2025-07-28,2025-07-28,株式会社ディーズコミュニケーション,,株式会社,埼玉県,さいたま市見沼区,東大宮５丁目２６番地８－９０１,,11,104,3370051,,,,,,,2025-07-28,1,,,,,ディーズコミュニケーション,0
581,3030001167799,新規,0,2025-07-28,2025-07-28,鄭和日本株式会社,,株式会社,埼玉県,蕨市,南町３丁目５－９ＢＯＡ２番館３０１室,,11,223,3350003,,,,,,,2025-07-28,1,,,,,テイワニホン,0
582,3030001167816,新規,0,2025-07-28,2025-07-28,株式会社ＴＩ,,株式会社,埼玉県,三郷市,栄１丁目２２５番地５,,11,237,3410043,,,,,,,2025-07-28,1,,,,,テイアイ,0
588,3030003027258,新規,0,2025-07-28,2025-07-28,合同会社角岡商店,,合同会社,埼玉県,さいたま市南区,大字太田窪２４２９番地３,,11,108,3360015,,,,,,,2025-07-28,1,,,,,カドオカショウテン,0
589,3030003027274,新規,0,2025-07-28,2025-07-28,合同会社ニチエイ,,合同会社,埼玉県,入間市,大字新光３０６番地２４６,,11,225,3580055,,,,,,,2025-07-28,1,,,,,ニチエイ,0
597,3040001139789,新規,0,2025-07-28,2025-07-28,株式会社松和工業,,株式会社,千葉県,市川市,南行徳３丁目１３番９号,,12,203,2720138,,,,,,,2025-07-28,1,,,,,ショウワコウギョウ,0
598,3040001139814,新規,0,2025-07-28,2025-07-28,グリートゴー株式会社,,株式会社,千葉県,成田市,新田８８番地３,,12,211,2870224,,,,,,,2025-07-28,1,,,,,グリートゴー,0
602,3040003028081,新規,0,2025-07-28,2025-07-28,合同会社ＳＴＫ,,合同会社,千葉県,千葉市中央区,長洲１丁目２４－１エスカイア本千葉第一１０７号室,,12,101,2600854,,,,,,,2025-07-28,1,,,,,エスティーケー,0
606,3040005022834,新規,0,2025-07-28,2025-07-28,一般社団法人麦畑,,その他の設立登記法人,千葉県,東金市,東中島２９７番地,,12,213,2830053,,,,,,,2025-07-28,1,,,,,ムギバタケ,0
610,3050001056975,新規,0,2025-07-28,2025-07-28,株式会社アグリカルチャー中島,,株式会社,茨城県,筑西市,松原１６９番地,,08,227,3004541,,,,,,,2025-07-28,1,,,,,アグリカルチャーナカジマ,0
611,3050001056991,新規,0,2025-07-28,2025-07-28,株式会社石山鉄筋工業,,株式会社,茨城県,つくば市,上河原崎元宮本４２番地７（かみかわＡ２８街区３）,,08,220,3002661,,,,,,,2025-07-28,1,,,,,イシヤマテッキンコウギョウ,0
616,3060001038436,新規,0,2025-07-28,2025-07-28,株式会社ｔｈｒｅｅ　＆　ｃｏ．,,株式会社,栃木県,宇都宮市,富士見が丘４丁目１１番３号,,09,201,3200011,,,,,,,2025-07-28,1,,,,,スリーアンドコー,0
621,3080003003510,新規,0,2025-07-28,2025-07-28,合同会社Ｔギフト,,合同会社,静岡県,静岡市清水区,村松６７２番地の１３,,22,103,4240926,,,,,,,2025-07-28,1,,,,,ティーギフト,0
626,3080401028043,新規,0,2025-07-28,2025-07-28,ビビビビ株式会社,,株式会社,静岡県,浜松市中央区,寺脇町１５４８番地の１,,22,138,4300841,,,,,,,2025-07-28,1,,,,,ビビビビ,0
627,3080401028051,新規,0,2025-07-28,2025-07-28,株式会社進悦,,株式会社,静岡県,磐田市,見付１４００番地１ステージ１－１０１号室,,22,211,4380086,,,,,,,2025-07-28,1,,,,,シンエツ,0
630,3090001019409,新規,0,2025-07-28,2025-07-28,株式会社隼装業,,株式会社,山梨県,甲府市,宮原町１８７番地１３,,19,201,4000058,,,,,,,2025-07-28,1,,,,,ハヤブサソウギョウ,0
644,3120001278133,新規,0,2025-07-28,2025-07-28,株式会社Ｔ‐ＬＩＮＫ,,株式会社,大阪府,大阪市浪速区,下寺３丁目１７番１８号,,27,111,5560001,,,,,,,2025-07-28,1,,,,,ティーリンク,0
645,3120001278141,新規,0,2025-07-28,2025-07-28,株式会社ｓｎｏｗｌａｎｄ,,株式会社,大阪府,交野市,私部南４丁目９番３７号,,27,230,5760035,,,,,,,2025-07-28,1,,,,,スノーランド,0
646,3120001278182,新規,0,2025-07-28,2025-07-28,株式会社てらこや,,株式会社,大阪府,大阪市生野区,林寺２丁目２１番６号,,27,116,5440023,,,,,,,2025-07-28,1,,,,,テラコヤ,0
647,3120001278208,新規,0,2025-07-28,2025-07-28,寧和株式会社,,株式会社,大阪府,大阪市北区,西天満２丁目６番８号堂島ビルヂング６Ｆ新東京国際リーガル内,,27,127,5300047,,,,,,,2025-07-28,1,,,,,ネイワ,0
648,3120001278224,新規,0,2025-07-28,2025-07-28,建佳建築株式会社,,株式会社,大阪府,大阪市都島区,高倉町２丁目３－１１Ｑｕｎｓｉビル３０１号,,27,102,5340011,,,,,,,2025-07-28,1,,,,,ケンカケンチク,0
649,3120001278232,新規,0,2025-07-28,2025-07-28,太旺旺株式会社,,株式会社,大阪府,大阪市東成区,深江北２丁目１－３,,27,115,5370001,,,,,,,2025-07-28,1,,,,,タイワンワン,0
656,3120003030120,新規,0,2025-07-28,2025-07-28,合同会社ガンマ,,合同会社,大阪府,大阪市東住吉区,西今川２丁目３番２７－５０７号,,27,121,5460042,,,,,,,2025-07-28,1,,,,,ガンマ,0
657,3120003030137,新規,0,2025-07-28,2025-07-28,合同会社ＶＢＡ,,合同会社,大阪府,大阪市中央区,徳井町１丁目３番８号ＢＲＡＶＥ徳井町１２０２,,27,128,5400025,,,,,,,2025-07-28,1,,,,,ブイビーエー,0
661,3120103006598,新規,0,2025-07-28,2025-07-28,合同会社花逆,,合同会社,大阪府,泉佐野市,葵町２丁目１番９号,,27,213,5980014,,,,,,,2025-07-28,1,,,,,ハナサカ,0
662,3120901051267,新規,0,2025-07-28,2025-07-28,株式会社ＡＬＡＭＡＫＯ,,株式会社,大阪府,摂津市,鳥飼本町５丁目１番１６号,,27,224,5660052,,,,,,,2025-07-28,1,,,,,アラマコ,0
664,3122001039449,新規,0,2025-07-28,2025-07-28,株式会社ＡＬＬ　ＩＮ,,株式会社,大阪府,東大阪市,加納３丁目５番５号アルカディアＩ２０１,00140073,27,227,5780901,,,,,,,2025-07-28,1,,,,,オールイン,0
665,3122001039457,新規,0,2025-07-28,2025-07-28,ネジバナ株式会社,,株式会社,大阪府,八尾市,久宝寺６丁目６番７５号,,27,212,5810072,,,,,,,2025-07-28,1,,,,,ネジバナ,0
666,3122003003270,新規,0,2025-07-28,2025-07-28,合同会社Ｃ２Ｋ,,合同会社,大阪府,四條畷市,米崎町６－８,,27,229,5750032,,,,,,,2025-07-28,1,,,,,シーツーケイ,0
669,3130003010633,新規,0,2025-07-28,2025-07-28,Ｂ．Ｂ．Ｇｌｏｂａｌ合同会社,,合同会社,京都府,京都市左京区,田中古川町３７－１２,,26,103,6068232,,,,,,,2025-07-28,1,,,,,ビードットビードットグローバル,0
672,3140001139408,新規,0,2025-07-28,2025-07-28,株式会社Ｅ‐ＯＮＥ設備,,株式会社,兵庫県,神戸市長田区,水笠通１丁目２番５号１階１号室,,28,106,6530842,,,,,,,2025-07-28,1,,,,,イーワンセツビ,0
673,3140001139481,新規,0,2025-07-28,2025-07-28,株式会社ライクホーム,,株式会社,兵庫県,尼崎市,立花町２丁目３番３号,,28,202,6610025,,,,,,,2025-07-28,1,,,,,ライクホーム,0
679,3140003022363,新規,0,2025-07-28,2025-07-28,合同会社双蟹舎,,合同会社,兵庫県,神戸市長田区,日吉町４丁目１－３日吉町東ビル５０２,,28,106,6530039,,,,,,,2025-07-28,1,,,,,ソウカイシャ,0
681,3150001028295,新規,0,2025-07-28,2025-07-28,株式会社ｆａｒｍｅｒｓ　ｂｕｉｌｄ,,株式会社,奈良県,奈良市,菅原町６０９番地の１２,,29,201,6310842,,,,,,,2025-07-28,1,,,,,ファーマーズビルド,0
691,3180001167909,新規,0,2025-07-28,2025-07-28,日本メディカルクリエイト株式会社,,株式会社,愛知県,名古屋市名東区,新宿２丁目５－３ＭＳビル１Ｆ,,23,115,4650063,,,,,,,2025-07-28,1,,,,,ニホンメディカルクリエイト,0
692,3180001167933,新規,0,2025-07-28,2025-07-28,株式会社ＮＥＸＳＹＮ,,株式会社,愛知県,名古屋市港区,港栄４丁目３番１２号,,23,111,4550015,,,,,,,2025-07-28,1,,,,,ネクシン,0
701,3200001044064,新規,0,2025-07-28,2025-07-28,株式会社河村工務店,,株式会社,岐阜県,関市,寿町１丁目４番７号,,21,205,5013908,,,,,,,2025-07-28,1,,,,,コウムラコウムテン,0
702,3200001044080,新規,0,2025-07-28,2025-07-28,株式会社電研サービス,,株式会社,岐阜県,大垣市,今福町２２１番地２,,21,202,5030843,,,,,,,2025-07-28,1,,,,,デンケンサービス,0
706,3230001021011,新規,0,2025-07-28,2025-07-28,ＴＯＰＭＡＳＴＥＲ株式会社,,株式会社,富山県,富山市,婦中町西本郷１３８番地４,,16,201,9392701,,,,,,,2025-07-28,1,,,,,トップマスター,0
711,3260003005273,新規,0,2025-07-28,2025-07-28,合同会社Ｌｉｅｎ,,合同会社,岡山県,岡山市北区,矢坂東町１２番５６号１００５,,33,101,7000074,,,,,,,2025-07-28,1,,,,,リアン,0
712,3260005011501,新規,0,2025-07-28,2025-07-28,岡山県住宅設備協同組合,,その他の設立登記法人,岡山県,倉敷市,加須山２９０番３の２,,33,202,7100026,,,,,,,2025-07-28,1,,,,,オカヤマケンジュウタクセツビ,0
713,3270001009250,新規,0,2025-07-28,2025-07-28,株式会社足立建工,,株式会社,鳥取県,米子市,中島２丁目９番６３号,,31,202,6830005,,,,,,,2025-07-28,1,,,,,アダチケンコウ,0
720,3290001110849,新規,0,2025-07-28,2025-07-28,Ａｉ３株式会社,,株式会社,福岡県,福岡市早良区,城西１丁目９番２９号１００４,,40,137,8140003,,,,,,,2025-07-28,1,,,,,アイスリー,0
721,3290001110881,新規,0,2025-07-28,2025-07-28,株式会社エヌプロスパー,,株式会社,福岡県,福岡市東区,名島３丁目２９番１３号１階,,40,131,8130043,,,,,,,2025-07-28,1,,,,,エヌプロスパー,0
725,3310001019724,新規,0,2025-07-28,2025-07-28,株式会社和実,,株式会社,長崎県,長崎市,大黒町８番６号,,42,201,8500057,,,,,,,2025-07-28,1,,,,,ワジツ,0
726,3330003011124,新規,0,2025-07-28,2025-07-28,オフィスすずめ合同会社,,合同会社,熊本県,熊本市東区,湖東３丁目１６番８号,,43,102,8620909,,,,,,,2025-07-28,1,,,,,オフィススズメ,0
727,3340001027534,新規,0,2025-07-28,2025-07-28,鹿児島技巧株式会社,,株式会社,鹿児島県,鹿児島市,甲突町２１番３号,,46,201,8920837,,,,,,,2025-07-28,1,,,,,カゴシマギコウ,0
745,3370001052892,新規,0,2025-07-28,2025-07-28,株式会社グレースアンドカンパニー,,株式会社,宮城県,仙台市青葉区,中央２丁目１０番３号第２ＭＴビル２階,,04,101,9800021,,,,,,,2025-07-28,1,,,,,グレースアンドカンパニー,0
749,3390001018066,新規,0,2025-07-28,2025-07-28,コメットたかはた株式会社,,株式会社,山形県,東置賜郡高畠町,大字夏茂１５３２番地,,06,381,9992172,,,,,,,2025-07-28,1,,,,,コメットタカハタ,0
751,3400003003510,新規,0,2025-07-28,2025-07-28,合同会社Ｌｉｐｌａｙ　Ｐｌａｎｅｔ,,合同会社,岩手県,滝沢市,牧野林８６１番地８０,,03,216,0200632,,,,,,,2025-07-28,1,,,,,リプレイプラネット,0
758,3430001094862,新規,0,2025-07-28,2025-07-28,株式会社ドナウ,,株式会社,北海道,札幌市中央区,南五条西１５丁目２－３－５０３,,01,101,0640805,,,,,,,2025-07-28,1,,,,,ドナウ,0
759,3430001094961,新規,0,2025-07-28,2025-07-28,株式会社ｂｌａｎｃｈｅ　ｐｏｒｔｅ,,株式会社,北海道,岩見沢市,四条西５丁目１番地１,,01,210,0680024,,,,,,,2025-07-28,1,,,,,ブランシュポルテ,0
764,3450003002697,新規,0,2025-07-28,2025-07-28,合同会社ワイズ,,合同会社,北海道,旭川市,新富一条１丁目８番８号,,01,204,0700001,,,,,,,2025-07-28,1,,,,,ワイズ,0
772,3500001026437,新規,0,2025-07-28,2025-07-28,Ｒｅｓｔａｒｔ株式会社,,株式会社,愛媛県,伊予市,双海町串甲３５６９番地１,,38,210,7993312,,,,,,,2025-07-28,1,,,,,リスタート,0
779,4010001257114,新規,0,2025-07-28,2025-07-28,株式会社ＭＯＲＥ,,株式会社,東京都,中央区,月島３丁目１１番１１号,,13,102,1040052,,,,,,,2025-07-28,1,,,,,モア,0
780,4010001257163,新規,0,2025-07-28,2025-07-28,株式会社ＺＡＣカンパニー,,株式会社,東京都,中央区,月島４丁目１４番１１号シティハウス月島６０１,,13,102,1040052,,,,,,,2025-07-28,1,,,,,ザックカンパニー,0
783,4010003048016,新規,0,2025-07-28,2025-07-28,霧島土地合同会社,,合同会社,東京都,中央区,日本橋２丁目２番２１号スリーエス内,,13,102,1030027,,,,,,,2025-07-28,1,,,,,キリシマトチ,0
784,4010003048123,新規,0,2025-07-28,2025-07-28,ＵＢ合同会社,,合同会社,東京都,中央区,銀座５丁目５－１－６Ｆ,,13,102,1040061,,,,,,,2025-07-28,1,,,,,ユービー,0
794,4010401190922,新規,0,2025-07-28,2025-07-28,株式会社ＡｉＫＯＬ　ＪＡＰＡＮ,,株式会社,東京都,港区,麻布五丁目１番２号クラウディアビル２Ｆ,,13,103,1050000,,,,,,,2025-07-28,1,,,,,アイコールジャパン,0
795,4010401191697,新規,0,2025-07-28,2025-07-28,株式会社Ｆｉｎ　Ｓｔｒｅａｍ,,株式会社,東京都,港区,赤坂９丁目７番２号東京ミッドタウン・レジデンシィズ２４０５,,13,103,1070052,,,,,,,2025-07-28,1,,,,,フィンストリーム,0
796,4010401192027,新規,0,2025-07-28,2025-07-28,株式会社ＺＡＭＩＲＯ,,株式会社,東京都,港区,六本木７丁目１５番７号９階,,13,103,1060032,,,,,,,2025-07-28,1,,,,,ザミロ,0
800,4010403035670,新規,0,2025-07-28,2025-07-28,Ｐａｃｉｆｉｃ　Ｂａｙｓ　Ｃａｐｉｔａｌ　Ｊａｐａｎ　Ｐｅｔｒｏｌｅｕｍ１号５合同会社,,合同会社,東京都,港区,虎ノ門５丁目３番２０号仙石山アネックス１０７号,,13,103,1050001,,,,,,,2025-07-28,1,,,,,パシフィックベイズキャピタルジャパンペトロリウムイチゴウゴ,0
801,4010501054465,新規,0,2025-07-28,2025-07-28,株式会社星影,,株式会社,東京都,台東区,浅草３丁目５－３ジオ浅草三丁目１０１,,13,106,1110032,,,,,,,2025-07-28,1,,,,,ホシカゲ,0
808,4010701048011,新規,0,2025-07-28,2025-07-28,株式会社稲花,,株式会社,東京都,品川区,中延４丁目１番１９－１０２号,,13,109,1420053,,,,,,,2025-07-28,1,,,,,トウカ,0
809,4010703007832,新規,0,2025-07-28,2025-07-28,ミカタ合同会社,,合同会社,東京都,品川区,東五反田２丁目１６番１－３１０号,,13,109,1410022,,,,,,,2025-07-28,1,,,,,ミカタ,0
810,4010801036428,新規,0,2025-07-28,2025-07-28,ひかりＢｉｚサポート株式会社,,株式会社,東京都,大田区,大森本町１丁目２番１６グランイーグルシーサイド大森５０２号,,13,111,1430011,,,,,,,2025-07-28,1,,,,,ヒカリビズサポート,0
818,4011001171032,新規,0,2025-07-28,2025-07-28,ＨＹＰＥＮＯＤＥ株式会社,,株式会社,東京都,渋谷区,円山町５番３号ＭＩＥＵＸ渋谷ビル８階,,13,113,1500044,,,,,,,2025-07-28,1,,,,,ハイプノード,0
819,4011001171461,新規,0,2025-07-28,2025-07-28,株式会社オーシャンズ,,株式会社,東京都,渋谷区,本町４丁目３１番４号,,13,113,1510071,,,,,,,2025-07-28,1,,,,,オーシャンズ,0
821,4011003022200,新規,0,2025-07-28,2025-07-28,ＨＲＢＣホールディングス合同会社,,合同会社,東京都,渋谷区,恵比寿西２丁目１７番１２号,,13,113,1500021,,,,,,,2025-07-28,1,,,,,エイチアールビーシーホールディングス,0
822,4011101112555,新規,0,2025-07-28,2025-07-28,株式会社弥,,株式会社,東京都,新宿区,市谷田町３丁目８市ヶ谷科学技術イノベーションセンタービル２Ｆ,,13,104,1620843,,,,,,,2025-07-28,1,,,,,アマネ,0
823,4011103016151,新規,0,2025-07-28,2025-07-28,合同会社笠川,,合同会社,東京都,新宿区,白銀町６番１－４１１号,,13,104,1620816,,,,,,,2025-07-28,1,,,,,カサガワ,0
824,4011103016192,新規,0,2025-07-28,2025-07-28,ＴＥＲＡ合同会社,,合同会社,東京都,新宿区,北新宿１丁目８‐１０新宿司法書士会館３０３,,13,104,1690074,,,,,,,2025-07-28,1,,,,,テラ,0
827,4011201026531,新規,0,2025-07-28,2025-07-28,ＹａｍａｄａＮＥＸＴ株式会社,,株式会社,東京都,中野区,南台５丁目１３番３号,,13,114,1640014,,,,,,,2025-07-28,1,,,,,ヤマダネクスト,0
836,4012403007261,新規,0,2025-07-28,2025-07-28,Ｄ４Ｇ　Ｗｏｒｋｓ合同会社,,合同会社,東京都,三鷹市,下連雀３丁目３７－３３－４０５,,13,204,1810013,,,,,,,2025-07-28,1,,,,,ディーフォージーワークス,0
837,4012701018992,新規,0,2025-07-28,2025-07-28,株式会社ミト,,株式会社,東京都,西東京市,芝久保町２丁目２番１５－１０５号,,13,229,1880014,,,,,,,2025-07-28,1,,,,,ミト,0
843,4020001163740,新規,0,2025-07-28,2025-07-28,株式会社ｍｏｍｅｎｔ,,株式会社,神奈川県,川崎市中原区,上丸子八幡町１４７８番地,,14,133,2110001,,,,,,,2025-07-28,1,,,,,モーメント,0
844,4020001163955,新規,0,2025-07-28,2025-07-28,株式会社コルコ,,株式会社,神奈川県,川崎市川崎区,小田１丁目２０番１２号エスポワールＫ＆Ｈ４Ｆ,,14,131,2100846,,,,,,,2025-07-28,1,,,,,コルコ,0
853,4021003016333,新規,0,2025-07-28,2025-07-28,Ｆｒａｎｃｉｓ　Ａｒｔ　Ｓｔｕｄｉｏ合同会社,,合同会社,神奈川県,鎌倉市,七里ガ浜東３丁目５番１号,,14,204,2480025,,,,,,,2025-07-28,1,,,,,フランシスアートスタジオ,0
854,4021003016341,新規,0,2025-07-28,2025-07-28,ＹＤ　ＭＯＴＯＲＳ合同会社,,合同会社,神奈川県,座間市,南栗原６丁目２５番４５号ジュネパレス座間第６－２０５号室,,14,216,2520015,,,,,,,2025-07-28,1,,,,,ワイディーモーターズ,0
858,4030001167765,新規,0,2025-07-28,2025-07-28,株式会社鈴勇空調,,株式会社,埼玉県,さいたま市緑区,馬場１丁目１９番地２２,,11,109,3360912,,,,,,,2025-07-28,1,,,,,スズユウクウチョウ,0
859,4030001167798,新規,0,2025-07-28,2025-07-28,秀華株式会社,,株式会社,埼玉県,朝霞市,宮戸３丁目１５－３５－２０４,,11,227,3510031,,,,,,,2025-07-28,1,,,,,シュウカ,0
860,4030001167807,新規,0,2025-07-28,2025-07-28,株式会社ＩＷＣ,,株式会社,埼玉県,川口市,上青木３丁目１５番１３号,,11,203,3330844,,,,,,,2025-07-28,1,,,,,アイダブリューシー,0
861,4030001167823,新規,0,2025-07-28,2025-07-28,株式会社悠惺,,株式会社,埼玉県,さいたま市岩槻区,本丸３丁目２４番地４３,,11,110,3390058,,,,,,,2025-07-28,1,,,,,ユウセイ,0
864,4030003027265,新規,0,2025-07-28,2025-07-28,合同会社空創,,合同会社,埼玉県,越谷市,蒲生本町１番４２号プラムヴィレッジＩＩ２０２,00140057,11,222,3430837,,,,,,,2025-07-28,1,,,,,クウソウ,0
870,4040001139697,新規,0,2025-07-28,2025-07-28,株式会社Ｍ＆Ｍ賃貸,,株式会社,千葉県,市川市,田尻４丁目２番１４－１１０４号（アドバンスシティ市川）,,12,203,2720014,,,,,,,2025-07-28,1,,,,,エムアンドエムチンタイ,0
871,4040001139706,新規,0,2025-07-28,2025-07-28,株式会社石宝,,株式会社,千葉県,銚子市,上野町２０８番地１,,12,202,2880805,,,,,,,2025-07-28,1,,,,,セキホウ,0
872,4040001139788,新規,0,2025-07-28,2025-07-28,エム・ピー防食株式会社,,株式会社,千葉県,市原市,八幡２３８２番地２４,,12,219,2900062,,,,,,,2025-07-28,1,,,,,エムピーボウショク,0
876,4040003028097,新規,0,2025-07-28,2025-07-28,ＡＭＡＲ　ＭＯＴＯＲＳ合同会社,,合同会社,千葉県,山武市,埴谷２３４６番地１３,,12,237,2891223,,,,,,,2025-07-28,1,,,,,アマルモータース,0
877,4040003028114,新規,0,2025-07-28,2025-07-28,合同会社ＯＮＥ　ＳＨＩＮＫ,,合同会社,千葉県,柏市,南増尾４丁目３２番７号,,12,217,2770054,,,,,,,2025-07-28,1,,,,,ワンシンク,0
891,4080401028050,新規,0,2025-07-28,2025-07-28,Ｃｐｌａｔ株式会社,,株式会社,静岡県,磐田市,大久保８８６番地１７,,22,211,4380002,,,,,,,2025-07-28,1,,,,,シープラット,0
896,4100001038802,新規,0,2025-07-28,2025-07-28,システムアプローチ株式会社,,株式会社,長野県,須坂市,豊島５番地５,,20,207,3820908,,,,,,,2025-07-28,1,,,,,システムアプローチ,0
898,4110001039452,新規,0,2025-07-28,2025-07-28,株式会社トップメーカーズ,,株式会社,新潟県,新潟市北区,笹山１５７３番地２,,15,101,9503301,,,,,,,2025-07-28,1,,,,,トップメーカーズ,0
905,4120001278017,新規,0,2025-07-28,2025-07-28,一新株式会社,,株式会社,大阪府,大阪市都島区,東野田町４丁目１－５吉升ビル３０６号,,27,102,5340024,,,,,,,2025-07-28,1,,,,,イッシン,0
906,4120001278207,新規,0,2025-07-28,2025-07-28,株式会社輝響コンサルティング,,株式会社,大阪府,寝屋川市,打上宮前町１３番２号,,27,215,5720862,,,,,,,2025-07-28,1,,,,,テルキコンサルティング,0
907,4120001278215,新規,0,2025-07-28,2025-07-28,ＦＡＮ．ＧＥ・ＤＥＣＯＲＡＴＩＯＮ株式会社,,株式会社,大阪府,大阪市住吉区,万代東１丁目３番２２号メゾン東和１０８室,,27,120,5580056,,,,,,,2025-07-28,1,,,,,ファンジーデコレーション,0
908,4120001278223,新規,0,2025-07-28,2025-07-28,祥豊株式会社,,株式会社,大阪府,大阪市住之江区,西加賀屋４丁目７－２３－５０２号,,27,125,5590016,,,,,,,2025-07-28,1,,,,,ショウホウ,0
909,4120001278248,新規,0,2025-07-28,2025-07-28,麦芽福音株式会社,,株式会社,大阪府,大阪市西成区,天下茶屋２丁目２１番６－１１１号,,27,122,5570014,,,,,,,2025-07-28,1,,,,,バクガフクイン,0
910,4120001278264,新規,0,2025-07-28,2025-07-28,株式会社Ｋｏａ,,株式会社,大阪府,大阪市北区,梅田１丁目２番２号大阪駅前第２ビル１２－１２,,27,127,5300001,,,,,,,2025-07-28,1,,,,,コア,0
912,4120003030128,新規,0,2025-07-28,2025-07-28,御伽衆合同会社,,合同会社,大阪府,大阪市北区,鶴野町４番１１号朝日プラザ梅田２Ｆ－９０,,27,127,5300014,,,,,,,2025-07-28,1,,,,,オトギシュウ,0
913,4120003030136,新規,0,2025-07-28,2025-07-28,合同会社与楽,,合同会社,大阪府,大阪市中央区,北浜東４番２４－３４０６号,,27,128,5400031,,,,,,,2025-07-28,1,,,,,ヨラク,0
914,4120003030152,新規,0,2025-07-28,2025-07-28,合同会社ｚＷｏｒｋｓ,,合同会社,大阪府,大阪市中央区,久太郎町１丁目６番２７－７０２号,,27,128,5410056,,,,,,,2025-07-28,1,,,,,ゼットワークス,0
915,4120005025068,新規,0,2025-07-28,2025-07-28,医療法人優吾会,,その他の設立登記法人,大阪府,大阪市生野区,勝山北２丁目１１番２６号ハイツ１１０,,27,116,5440033,,,,,,,2025-07-28,1,,,,,ユウゴカイ,0
916,4120101072162,新規,0,2025-07-28,2025-07-28,ＮＯＯＲ　ＹＯＵＳＦＺＡＩ株式会社,,株式会社,大阪府,和泉市,春木町２０３番地１階,,27,219,5941141,,,,,,,2025-07-28,1,,,,,ヌールユスフザイ,0
917,4120103006597,新規,0,2025-07-28,2025-07-28,合同会社チェリーブロッサム堺,,合同会社,大阪府,堺市東区,引野町１丁７番地１７２,,27,143,5998104,,,,,,,2025-07-28,1,,,,,チェリーブロッサムサカイ,0
921,4130003010624,新規,0,2025-07-28,2025-07-28,合同会社藤三,,合同会社,京都府,京都市左京区,松ケ崎堀町８番地１,,26,103,6060945,,,,,,,2025-07-28,1,,,,,トウザ,0
927,4140003022338,新規,0,2025-07-28,2025-07-28,合同会社杉裕興業,,合同会社,兵庫県,神戸市長田区,宮丘町２丁目２番１３号,,28,106,6530863,,,,,,,2025-07-28,1,,,,,スギユウコウギョウ,0
930,4150001028294,新規,0,2025-07-28,2025-07-28,Ｎｒｉｓｅ株式会社,,株式会社,奈良県,奈良市,若葉台４丁目３番３２－４号,,29,201,6310837,,,,,,,2025-07-28,1,,,,,エヌライズ,0
936,4170001018731,新規,0,2025-07-28,2025-07-28,株式会社ＲＥＡＣＨ,,株式会社,和歌山県,和歌山市,毛見１５１７番地２－５００４号室,,30,201,6410014,,,,,,,2025-07-28,1,,,,,リーチ,0
939,4180001167759,新規,0,2025-07-28,2025-07-28,ＥｄｕＧｒｅｅｎＴｅｃｈ株式会社,,株式会社,愛知県,尾張旭市,旭ケ丘町長洞５８７４－３,,23,226,4880086,,,,,,,2025-07-28,1,,,,,エドゥグリーンテック,0
940,4180001167800,新規,0,2025-07-28,2025-07-28,マイファミリー株式会社,,株式会社,愛知県,名古屋市中区,丸の内２丁目１４番３２号ライオンズシティ丸の内５０５,,23,106,4600002,,,,,,,2025-07-28,1,,,,,マイファミリー,0
948,4200001044063,新規,0,2025-07-28,2025-07-28,株式会社河村土地住宅,,株式会社,岐阜県,関市,寿町１丁目４番３４号,,21,205,5013908,,,,,,,2025-07-28,1,,,,,コウムラトチジュウタク,0
954,4230003002470,新規,0,2025-07-28,2025-07-28,エンジョブ合同会社,,合同会社,富山県,砺波市,本町４番８号,,16,208,9391368,,,,,,,2025-07-28,1,,,,,エンジョブ,0
970,4250005009017,新規,0,2025-07-28,2025-07-28,企業組合さくら工房菊川,,その他の設立登記法人,山口県,下関市,菊川町大字楢崎７８９番地７,,35,201,7500322,,,,,,,2025-07-28,1,,,,,サクラコウボウキクガワ,0
971,4260005011500,新規,0,2025-07-28,2025-07-28,一般社団法人未来サポーターズ,,その他の設立登記法人,岡山県,岡山市北区,中井町１丁目４番３１号,,33,101,7000804,,,,,,,2025-07-28,1,,,,,ミライサポーターズ,0
976,4290001110872,新規,0,2025-07-28,2025-07-28,株式会社Ｒａｐｐｏｒｔ,,株式会社,福岡県,朝倉郡筑前町,四三嶋１５４１番地１,,40,447,8380212,,,,,,,2025-07-28,1,,,,,ラポール,0
980,4290005019796,新規,0,2025-07-28,2025-07-28,医療法人光樹会,,その他の設立登記法人,福岡県,福岡市中央区,赤坂１丁目１０番２２号,,40,133,8100042,,,,,,,2025-07-28,1,,,,,コウジュカイ,0
981,4300001014295,新規,0,2025-07-28,2025-07-28,株式会社ＷＩＬＬ,,株式会社,佐賀県,佐賀市,鍋島町大字八戸３１４８番地,,41,201,8400857,,,,,,,2025-07-28,1,,,,,ウィル,0
986,4360001035550,新規,0,2025-07-28,2025-07-28,株式会社ｃｏｎｄｉｓｈ,,株式会社,沖縄県,中頭郡嘉手納町,字嘉手納３０１番地１１,,47,325,9040203,,,,,,,2025-07-28,1,,,,,コンディッシュ,0
987,4360001035559,新規,0,2025-07-28,2025-07-28,株式会社ＴＯＮＮＡＲＡ　ＯＫＩＮＡＷＡ,,株式会社,沖縄県,那覇市,若狭２丁目７番２号,,47,201,9000031,,,,,,,2025-07-28,1,,,,,トンナラオキナワ,0
988,4370001052883,新規,0,2025-07-28,2025-07-28,株式会社ＧＴＡ,,株式会社,宮城県,仙台市青葉区,八幡６丁目３番２号カーサリビエール１０３,,04,101,9800871,,,,,,,2025-07-28,1,,,,,ジーティーエー,0
989,4370001052891,新規,0,2025-07-28,2025-07-28,株式会社エルクラン,,株式会社,宮城県,宮城郡利府町,神谷沢字塚元７９番地１－２０１,,04,406,9810121,,,,,,,2025-07-28,1,,,,,エルクラン,0
1004,4430001094861,新規,0,2025-07-28,2025-07-28,株式会社エフ・スタイル,,株式会社,北海道,札幌市北区,北二十八条西１５丁目２番２２号,,01,102,0010028,,,,,,,2025-07-28,1,,,,,エフスタイル,0
1007,4450003002696,新規,0,2025-07-28,2025-07-28,合同会社ランチ,,合同会社,北海道,旭川市,末広三条６丁目８番８号,,01,204,0718133,,,,,,,2025-07-28,1,,,,,ランチ,0
1008,4462501001039,新規,0,2025-07-28,2025-07-28,株式会社ノースポイント,,株式会社,北海道,標津郡中標津町,東七条南９丁目２番地２,,01,692,0861007,,,,,,,2025-07-28,1,,,,,ノースポイント,0
1013,4700150131537,新規,0,2025-07-28,2025-07-28,ＤＥＥＮ　ＡＵＴＯ　ＰＡＲＴＳ,,外国会社等,千葉県,八街市,東吉田５７８番地１,,12,230,2891114,スリランカ民主社会主義共和国、マータレー、ゴダポラロードＮｏ．１２６／２,,,,,,2025-07-28,1,,,,,デイーンオートパーツ,0
1021,5010003048130,新規,0,2025-07-28,2025-07-28,ＧＯＬＤ　ＭＡＲＩＮＥ　ＪＡＰＡＮ合同会社,,合同会社,東京都,中央区,日本橋室町１丁目１１番１２号日本橋水野ビル７階,,13,102,1030022,,,,,,,2025-07-28,1,,,,,ゴールドマリンジャパン,0
1022,5010003048147,新規,0,2025-07-28,2025-07-28,合同会社シンメディクス,,合同会社,東京都,文京区,大塚４丁目１６番２号,,13,105,1120012,,,,,,,2025-07-28,1,,,,,シンメディクス,0
1047,5010401191960,新規,0,2025-07-28,2025-07-28,テンプラス株式会社,,株式会社,東京都,港区,南青山２丁目２－１５ＷｉｎＡｏｙａｍａビルＵＦＣ６階,,13,103,1070062,,,,,,,2025-07-28,1,,,,,テンプラス,0
1048,5010401191969,新規,0,2025-07-28,2025-07-28,セカンド株式会社,,株式会社,東京都,港区,三田１丁目４番５５号,,13,103,1080073,,,,,,,2025-07-28,1,,,,,セカンド,0
1049,5010403035678,新規,0,2025-07-28,2025-07-28,松山コーポレーション合同会社,,合同会社,東京都,港区,南青山４丁目１８番８－７０４号,,13,103,1070062,,,,,,,2025-07-28,1,,,,,マツヤマコーポレーション,0
1052,5010501054464,新規,0,2025-07-28,2025-07-28,株式会社Ｍフロー,,株式会社,東京都,台東区,雷門２丁目１７番２号ＮＥＷＮＯ浅草５階,,13,106,1110034,,,,,,,2025-07-28,1,,,,,エムフロー,0
1060,5011001171196,新規,0,2025-07-28,2025-07-28,株式会社ＳｕｎＭｏｏｎ,,株式会社,東京都,目黒区,自由が丘１丁目３番２１号,,13,110,1520035,,,,,,,2025-07-28,1,,,,,サンムーン,0
1065,5011101112546,新規,0,2025-07-28,2025-07-28,株式会社ＴＯＫＹＯＥＹＥ警備,,株式会社,東京都,新宿区,新宿５丁目１７番６号新宿三光町ハイム９０５号室,,13,104,1600022,,,,,,,2025-07-28,1,,,,,トウキョウアイケイビ,0
1075,5011701028522,新規,0,2025-07-28,2025-07-28,株式会社エクシードリミット,,株式会社,東京都,江戸川区,西葛西２丁目８番１３号,,13,123,1340088,,,,,,,2025-07-28,1,,,,,エクシードリミット,0
1076,5011701028555,新規,0,2025-07-28,2025-07-28,株式会社ワイヤリングアーツ,,株式会社,東京都,江戸川区,北小岩６丁目１５－１２－１０２,,13,123,1330051,,,,,,,2025-07-28,1,,,,,ワイヤリングアーツ,0
1077,5011701028588,新規,0,2025-07-28,2025-07-28,株式会社チャレンジャー,,株式会社,東京都,江戸川区,平井２丁目３－２７－２０６,,13,123,1320035,,,,,,,2025-07-28,1,,,,,チャレンジャー,0
1079,5011801046523,新規,0,2025-07-28,2025-07-28,ＰＯＬＡＳＴＥＣＨ株式会社,,株式会社,東京都,葛飾区,お花茶屋２丁目１１番９号,,13,122,1240003,,,,,,,2025-07-28,1,,,,,ポーラステック,0
1081,5012701018991,新規,0,2025-07-28,2025-07-28,心生株式会社,,株式会社,東京都,東村山市,多摩湖町１丁目３番地２４,,13,213,1890026,,,,,,,2025-07-28,1,,,,,シンセイ,0
1093,5020001163797,新規,0,2025-07-28,2025-07-28,株式会社ＩＮＣｒｅｗ,,株式会社,神奈川県,横浜市西区,みなとみらい３丁目３番１号ＫＤＸ横浜みなとみらいタワー８階,,14,103,2200012,,,,,,,2025-07-28,1,,,,,インクルー,0
1096,5021003016332,新規,0,2025-07-28,2025-07-28,合同会社ＨａｐｐｙＣｈｉｌｄ,,合同会社,神奈川県,大和市,中央林間６丁目２７番２７－１０１号,,14,213,2420007,,,,,,,2025-07-28,1,,,,,ハッピーチャイルド,0
1097,5021003016340,新規,0,2025-07-28,2025-07-28,Ｓｔｕｄｉｏ　Ｗａｖｅ合同会社,,合同会社,神奈川県,藤沢市,辻堂新町３丁目１番３号１,,14,205,2510042,,,,,,,2025-07-28,1,,,,,スタジオウェーブ,0
1103,5030001167789,新規,0,2025-07-28,2025-07-28,株式会社さゆり,,株式会社,埼玉県,さいたま市中央区,下落合２丁目５番５号,,11,105,3380002,,,,,,,2025-07-28,1,,,,,サユリ,0
1104,5030001167814,新規,0,2025-07-28,2025-07-28,株式会社Ｃ‐ＢＡ,,株式会社,埼玉県,さいたま市緑区,太田窪３丁目２番２２－１号,,11,109,3360936,,,,,,,2025-07-28,1,,,,,シービーエー,0
1110,5040001139770,新規,0,2025-07-28,2025-07-28,株式会社ミライケア,,株式会社,千葉県,船橋市,海神５丁目２番２号,,12,204,2730021,,,,,,,2025-07-28,1,,,,,ミライケア,0
1111,5040001139779,新規,0,2025-07-28,2025-07-28,株式会社京葉クラフト,,株式会社,千葉県,市川市,大町２０番地の１１,,12,203,2720801,,,,,,,2025-07-28,1,,,,,ケイヨウクラフト,0
1112,5040001139787,新規,0,2025-07-28,2025-07-28,株式会社ＧＳ　ＬＡＢ,,株式会社,千葉県,松戸市,新松戸３丁目５番地ペガサスビル３階,,12,207,2700034,,,,,,,2025-07-28,1,,,,,ジーエスラボ,0
1113,5040001139804,新規,0,2025-07-28,2025-07-28,Ｙｏｕｓｕｆ　Ｃｏｒｐｏｒａｔｉｏｎ株式会社,,株式会社,千葉県,野田市,中里６６－５,,12,208,2700237,,,,,,,2025-07-28,1,,,,,ユスフコーポレーション,0
1121,5040003028055,新規,0,2025-07-28,2025-07-28,合同会社ＨＩＭＩＮＮＯＶＡＴＩＯＮ,,合同会社,千葉県,船橋市,栄町１丁目９番,,12,204,2730018,,,,,,,2025-07-28,1,,,,,ヒミノベーション,0
1122,5040003028105,新規,0,2025-07-28,2025-07-28,ＦＵＫＵＤＡ合同会社,,合同会社,千葉県,船橋市,東中山１丁目１９番１９号,,12,204,2730036,,,,,,,2025-07-28,1,,,,,フクダ,0
1132,5060003005655,新規,0,2025-07-28,2025-07-28,合同会社ＭＥＬＩＴ,,合同会社,栃木県,小山市,西城南２丁目２９番地１１,,09,208,3230820,,,,,,,2025-07-28,1,,,,,メルアイティー,0
1134,5070002037814,新規,0,2025-07-28,2025-07-28,有限会社並榎住宅,,有限会社,群馬県,高崎市,下和田町１８３番地,,10,202,3700846,,,,,,,2025-07-28,1,,,,,,0
1136,5080101025677,新規,0,2025-07-28,2025-07-28,ＡＤＮＡＮ　ＡＵＴＯ　ＪＡＰＡＮ株式会社,,株式会社,静岡県,沼津市,石川１１７番地の１,,22,203,4100317,,,,,,,2025-07-28,1,,,,,アドナンオートジャパン,0
1141,5100001038792,新規,0,2025-07-28,2025-07-28,ＧＮＧ未来株式会社,,株式会社,長野県,長野市,若里３丁目１０番３１号,,20,201,3800928,,,,,,,2025-07-28,1,,,,,ジーエヌジーミライ,0
1142,5100001038801,新規,0,2025-07-28,2025-07-28,ＳＨＩＮＡＮＯ　ＨＵＢ株式会社,,株式会社,長野県,上水内郡信濃町,大字古海２３８８番地１２,,20,583,3891302,,,,,,,2025-07-28,1,,,,,シナノハブ,0
1148,5120001278107,新規,0,2025-07-28,2025-07-28,日昇産業株式会社,,株式会社,大阪府,大阪市住吉区,苅田３丁目３番２４－２０２号,,27,120,5580011,,,,,,,2025-07-28,1,,,,,ニッショウサンギョウ,0
1149,5120001278148,新規,0,2025-07-28,2025-07-28,株式会社ＨＡＺＥＬ,,株式会社,大阪府,大阪市都島区,東野田町５丁目１１番１５－６０２号,,27,102,5340024,,,,,,,2025-07-28,1,,,,,ヘイゼル,0
1150,5120001278156,新規,0,2025-07-28,2025-07-28,株式会社吉祥,,株式会社,大阪府,大阪市淀川区,新北野１丁目８番１号,,27,123,5320025,,,,,,,2025-07-28,1,,,,,キチジョウ,0
1151,5120001278197,新規,0,2025-07-28,2025-07-28,株式会社Ｊ２Ｋ,,株式会社,大阪府,大阪市中央区,島之内１丁目２１番２３号大起興産長堀橋ビル８階,,27,128,5420082,,,,,,,2025-07-28,1,,,,,ジェイトゥケイ,0
1152,5120001278222,新規,0,2025-07-28,2025-07-28,ＧＭＳ株式会社,,株式会社,大阪府,大阪市浪速区,日本橋５丁目１２番５－４０３号,,27,111,5560005,,,,,,,2025-07-28,1,,,,,ジーエムエス,0
1153,5120001278247,新規,0,2025-07-28,2025-07-28,株式会社Ｓｏｒｅｌｌ　Ｊａｐａｎ,,株式会社,大阪府,大阪市西区,土佐堀３丁目２番７号３階,,27,106,5500001,,,,,,,2025-07-28,1,,,,,ソレルジャパン,0
1155,5120003030135,新規,0,2025-07-28,2025-07-28,合同会社Ａｉｌｅ,,合同会社,大阪府,大阪市北区,長柄東１丁目２－１２－５０１,,27,127,5310063,,,,,,,2025-07-28,1,,,,,エール,0
1158,5120101072178,新規,0,2025-07-28,2025-07-28,株式会社コームズ,,株式会社,大阪府,堺市堺区,熊野町東４丁４番４号,,27,141,5900946,,,,,,,2025-07-28,1,,,,,コームズ,0
1159,5120101072194,新規,0,2025-07-28,2025-07-28,遼建株式会社,,株式会社,大阪府,堺市中区,深井北町４８番地１３,,27,142,5998271,,,,,,,2025-07-28,1,,,,,リョウケン,0
1164,5130001080222,新規,0,2025-07-28,2025-07-28,ＨＴＦ　Ｈｏｌｄｉｎｇｓ株式会社,,株式会社,京都府,京都市北区,小山下板倉町１番地,,26,101,6038124,,,,,,,2025-07-28,1,,,,,エイチティエフホールディングス,0
1173,5150001028285,新規,0,2025-07-28,2025-07-28,株式会社キチ・アーキ,,株式会社,奈良県,奈良市,学園朝日町４番１０－１号,,29,201,6310016,,,,,,,2025-07-28,1,,,,,キチアーキ,0
1174,5150001028293,新規,0,2025-07-28,2025-07-28,株式会社くま．,,株式会社,奈良県,奈良市,秋篠町１４６５番地の１,,29,201,6310811,,,,,,,2025-07-28,1,,,,,クマ,0
1183,5180001167816,新規,0,2025-07-28,2025-07-28,株式会社エヌエルシイ,,株式会社,愛知県,名古屋市昭和区,楽園町３３番地,,23,107,4660822,,,,,,,2025-07-28,1,,,,,エヌエルシイ,0
1185,5180301040061,新規,0,2025-07-28,2025-07-28,株式会社不退転,,株式会社,愛知県,西尾市,江原町宮後５６番地,,23,213,4450026,,,,,,,2025-07-28,1,,,,,フタイテン,0
1190,5200001044079,新規,0,2025-07-28,2025-07-28,株式会社凛巧社,,株式会社,岐阜県,羽島市,足近町４丁目３４７番地１,,21,209,5016207,,,,,,,2025-07-28,1,,,,,リンコウシャ,0
1192,5220001026819,新規,0,2025-07-28,2025-07-28,株式会社エムライフ,,株式会社,石川県,白山市,木津町２５０番地１０,,17,210,9240821,,,,,,,2025-07-28,1,,,,,エムライフ,0
1197,5260001040353,新規,0,2025-07-28,2025-07-28,Ｐｕｌｓｅ　Ｗｏｒｋｅｒ　ＹＯＫＯＴＡ株式会社,,株式会社,岡山県,倉敷市,連島町鶴新田１０９０番地３,,33,202,7128006,,,,,,,2025-07-28,1,,,,,パルスワーカーヨコタ,0
1198,5280003001970,新規,0,2025-07-28,2025-07-28,合同会社Ｒｅｒｉｕｍ,,合同会社,島根県,隠岐郡海士町,大字豊田２３６番地２海士流跡ノ浦５号,,32,525,6840402,,,,,,,2025-07-28,1,,,,,リリウム,0
1201,5290001110855,新規,0,2025-07-28,2025-07-28,ＨＩＫＡＲＩ株式会社,,株式会社,福岡県,福岡市博多区,奈良屋町１０－３－５０２,,40,132,8120023,,,,,,,2025-07-28,1,,,,,ヒカリ,0
1205,5290003017157,新規,0,2025-07-28,2025-07-28,合同会社やまとアグリ,,合同会社,福岡県,久留米市,荒木町白口２１８６番地３,,40,203,8300062,,,,,,,2025-07-28,1,,,,,ヤマトアグリ,0
1208,5330001033440,新規,0,2025-07-28,2025-07-28,株式会社リアラスピリット,,株式会社,熊本県,熊本市中央区,水前寺公園３番３０－１１０９号,,43,101,8620956,,,,,,,2025-07-28,1,,,,,リアラスピリット,0
1209,5330003011139,新規,0,2025-07-28,2025-07-28,ＫＴ６合同会社,,合同会社,熊本県,熊本市南区,十禅寺２丁目３番１６号,,43,104,8600824,,,,,,,2025-07-28,1,,,,,ケーティロク,0
1216,5360001035483,新規,0,2025-07-28,2025-07-28,株式会社ＬＡＧＯＯＮ,,株式会社,沖縄県,石垣市,字真栄里３３２－１ＲＥＶＥ石垣島４０５,,47,207,9070002,,,,,,,2025-07-28,1,,,,,ラグーン,0
1217,5360001035533,新規,0,2025-07-28,2025-07-28,株式会社みらいえ不動産,,株式会社,沖縄県,うるま市,石川２４９１番地１,,47,213,9041106,,,,,,,2025-07-28,1,,,,,ミライエフドウサン,0
1218,5360001035541,新規,0,2025-07-28,2025-07-28,株式会社ＹＪＣ,,株式会社,沖縄県,浦添市,港川２丁目３０番６号,,47,208,9012134,,,,,,,2025-07-28,1,,,,,ワイジェイシー,0
1222,5370003007199,新規,0,2025-07-28,2025-07-28,合同会社ＭＳコーポレーション,,合同会社,宮城県,多賀城市,大代４丁目１０番１８号,,04,209,9850832,,,,,,,2025-07-28,1,,,,,エムエスコーポレーション,0
1233,5480003002296,新規,0,2025-07-28,2025-07-28,八味甘合同会社,,合同会社,徳島県,板野郡藍住町,勝瑞字正喜地１番地２４,,36,403,7711273,,,,,,,2025-07-28,1,,,,,ヤミカン,0
1234,5490001011125,新規,0,2025-07-28,2025-07-28,株式会社漂流社,,株式会社,高知県,高知市,札場６番３０－８０２号,,39,201,7810085,,,,,,,2025-07-28,1,,,,,ヒョウリュウシャ,0
1237,5500003003556,新規,0,2025-07-28,2025-07-28,合同会社ＷＩＣＱ　ＣＯＲＰＯＲＡＴＩＯＮ,,合同会社,愛媛県,松山市,中須賀１丁目１２－１２,,38,201,7918078,,,,,,,2025-07-28,1,,,,,ウィックコーポレーション,0
1238,5700150131536,新規,0,2025-07-28,2025-07-28,ＧＢＭ　Ａｓｓｅｔ　Ｍａｎａｇｅｍｅｎｔ,,外国会社等,東京都,港区,虎ノ門１丁目２３－１虎ノ門ヒルズ森タワー２０階,,13,103,1050001,英領ケイマン諸島ＫＹ１－１００２グランド・ケイマン、ライム・ツリー・ベイ・アベニュー２３、私書箱１０１７６、ゼドラ・トラスト・カンパニー・ケイマン・リミテッド,,,,,,2025-07-28,1,,,,,ジービーエムアセツトマネジメント,0
1249,6010001257005,新規,0,2025-07-28,2025-07-28,株式会社しんがいねん,,株式会社,東京都,千代田区,神田須田町１丁目７番８号ＶＯＲＴ秋葉原ＩＶ２Ｆ,00140074,13,101,1010041,,,,,,,2025-07-28,1,,,,,シンガイネン,0
1250,6010001257203,新規,0,2025-07-28,2025-07-28,株式会社Ｔｅｎｙｉ,,株式会社,東京都,中央区,日本橋室町１丁目１１番１２号日本橋水野ビル７階,,13,102,1030022,,,,,,,2025-07-28,1,,,,,テンイ,0
1260,6010401191968,新規,0,2025-07-28,2025-07-28,タシリンゴ株式会社,,株式会社,東京都,港区,北青山１丁目３番１号アールキューブ青山３階,,13,103,1070061,,,,,,,2025-07-28,1,,,,,タシリンゴ,0
1261,6010401191984,新規,0,2025-07-28,2025-07-28,Ｃｕｒｉｅ２株式会社,,株式会社,東京都,港区,麻布台１丁目３番１号麻布台ヒルズ森ＪＰタワー１７階,,13,103,1060041,,,,,,,2025-07-28,1,,,,,キュリーツー,0
1262,6010401192009,新規,0,2025-07-28,2025-07-28,株式会社ＡＫ,,株式会社,東京都,港区,赤坂４丁目１４番１４－１１１０号,,13,103,1070052,,,,,,,2025-07-28,1,,,,,エーケー,0
1263,6010401192017,新規,0,2025-07-28,2025-07-28,ｍｉｒｙｏ．ＡＩ株式会社,,株式会社,東京都,港区,北青山１丁目３－３三橋ビル３階,,13,103,1070061,,,,,,,2025-07-28,1,,,,,ミリョウドットエーアイ,0
1265,6010403035685,新規,0,2025-07-28,2025-07-28,合同会社ＺＥＵＳ,,合同会社,東京都,港区,芝大門２丁目１２番３号共生ビル２号館７階,,13,103,1050012,,,,,,,2025-07-28,1,,,,,ゼウス,0
1266,6010405024604,新規,0,2025-07-28,2025-07-28,プルーム２Ｆ一般社団法人,,その他の設立登記法人,東京都,港区,浜松町１丁目２０番１０号ライオネス浜松町５０６号室,,13,103,1050013,,,,,,,2025-07-28,1,,,,,プルームツーエフ,0
1268,6010501054471,新規,0,2025-07-28,2025-07-28,シーウッドパワー株式会社,,株式会社,東京都,台東区,上野５丁目１６番１６号天美ビル２階２５号,,13,106,1100005,,,,,,,2025-07-28,1,,,,,シーウッドパワー,0
1271,6010803005486,新規,0,2025-07-28,2025-07-28,東京響働ビジネスサポート合同会社,,合同会社,東京都,大田区,南六郷３丁目２２番１５－７０１号,,13,111,1440045,,,,,,,2025-07-28,1,,,,,トウキョウキョウドウビジネスサポート,0
1280,6011003022198,新規,0,2025-07-28,2025-07-28,合同会社Ｆａｃｅ,,合同会社,東京都,目黒区,碑文谷５丁目１２番１３号,,13,110,1520003,,,,,,,2025-07-28,1,,,,,フェイス,0
1282,6011005011117,新規,0,2025-07-28,2025-07-28,一般社団法人ブログ協会,,その他の設立登記法人,東京都,渋谷区,道玄坂１丁目１６－６二葉ビル８ｂ,,13,113,1500043,,,,,,,2025-07-28,1,,,,,ブログキョウカイ,0
1285,6011101112545,新規,0,2025-07-28,2025-07-28,ＭＥＴＲＥＡ株式会社,,株式会社,東京都,新宿区,西新宿３丁目９・３階フロンティアタワー３２５,,13,104,1600023,,,,,,,2025-07-28,1,,,,,メトレア,0
1293,6011601028836,新規,0,2025-07-28,2025-07-28,株式会社ワネスタ,,株式会社,東京都,練馬区,春日町６丁目１６番１１フォーチュン光が丘２６３号室,,13,120,1790074,,,,,,,2025-07-28,1,,,,,ワネスタ,0
1294,6011603004769,新規,0,2025-07-28,2025-07-28,ユニークアンドフリー合同会社,,合同会社,東京都,練馬区,早宮４丁目１９番１５－５０６号,,13,120,1790085,,,,,,,2025-07-28,1,,,,,ユニークアンドフリー,0
1301,6020001164019,新規,0,2025-07-28,2025-07-28,株式会社ＲＯＦＦ,,株式会社,神奈川県,横浜市都筑区,北山田６丁目２１番１８号,,14,118,2240021,,,,,,,2025-07-28,1,,,,,ロフ,0
1308,6021001085824,新規,0,2025-07-28,2025-07-28,株式会社知樹,,株式会社,神奈川県,相模原市中央区,東淵野辺１丁目２２番４号,,14,152,2520203,,,,,,,2025-07-28,1,,,,,トモキ,0
1309,6021001085857,新規,0,2025-07-28,2025-07-28,株式会社福井ゴムテック,,株式会社,神奈川県,秦野市,戸川６７０番地の５,,14,211,2591306,,,,,,,2025-07-28,1,,,,,フクイゴムテック,0
1310,6021001085915,新規,0,2025-07-28,2025-07-28,株式会社琢電,,株式会社,神奈川県,逗子市,久木８丁目１番４７号,,14,208,2490001,,,,,,,2025-07-28,1,,,,,タクデン,0
1318,6030001167821,新規,0,2025-07-28,2025-07-28,株式会社零壱製作所,,株式会社,埼玉県,三郷市,戸ケ崎２丁目２３３番地７,,11,237,3410044,,,,,,,2025-07-28,1,,,,,ゼロイチセイサクショ,0
1322,6040001139803,新規,0,2025-07-28,2025-07-28,ＳｏｌＤＸ株式会社,,株式会社,千葉県,千葉市美浜区,打瀬３丁目１３－５幕張ベイフロント,,12,106,2610013,,,,,,,2025-07-28,1,,,,,ソルデックス,0
1323,6040001139836,新規,0,2025-07-28,2025-07-28,株式会社ダスキンサーヴ南関東,,株式会社,千葉県,千葉市緑区,おゆみ野４丁目４番地１,,12,105,2660031,,,,,,,2025-07-28,1,,,,,ダスキンサーヴミナミカントウ,0
1327,6040003028137,新規,0,2025-07-28,2025-07-28,合同会社ＡＰＰＡＡＡ,,合同会社,千葉県,市原市,五井中央西１丁目１３番地１７号第三佐和ビルＡ号室,,12,219,2900081,,,,,,,2025-07-28,1,,,,,アッパアア,0
1329,6040005022765,新規,0,2025-07-28,2025-07-28,一般社団法人報徳会,,その他の設立登記法人,千葉県,君津市,北久保１丁目１番５号２０１,,12,225,2991164,,,,,,,2025-07-28,1,,,,,ホウトクカイ,0
1332,6050001056997,新規,0,2025-07-28,2025-07-28,一進総業株式会社,,株式会社,茨城県,土浦市,小松１丁目２４番３７号,,08,203,3000823,,,,,,,2025-07-28,1,,,,,イッシンソウギョウ,0
1335,6060001038441,新規,0,2025-07-28,2025-07-28,株式会社ファーストイノベーション,,株式会社,栃木県,宇都宮市,中里町２３５番地６,,09,201,3210414,,,,,,,2025-07-28,1,,,,,ファーストイノベーション,0
1341,6070005010412,新規,0,2025-07-28,2025-07-28,一般社団法人たかさき・まえばし空き家管理サポートセンター,,その他の設立登記法人,群馬県,高崎市,成田町２番地５,,10,202,3700812,,,,,,,2025-07-28,1,,,,,タカサキマエバシアキヤカンリサポートセンター,0
1343,6080101025676,新規,0,2025-07-28,2025-07-28,株式会社農と幸,,株式会社,静岡県,富士宮市,淀川町４番４号,,22,207,4180041,,,,,,,2025-07-28,1,,,,,ノウトサチ,0
1345,6080403005319,新規,0,2025-07-28,2025-07-28,ＴＩＭＳ合同会社,,合同会社,静岡県,浜松市中央区,中島１丁目２番８号,,22,138,4300856,,,,,,,2025-07-28,1,,,,,ティムズ,0
1356,6120001101548,新規,0,2025-07-28,2025-07-28,バッテリー再生株式会社,,株式会社,大阪府,大阪市北区,西天満６丁目３番１１号梅田ベイスワン４０２号室,,27,127,5300047,,,,,,,2025-07-28,1,,,,,バッテリーサイセイ,0
1360,6120001278114,新規,0,2025-07-28,2025-07-28,桜野明沙株式会社,,株式会社,大阪府,大阪市都島区,東野田町４丁目１－５吉升ビル３０５号,,27,102,5340024,,,,,,,2025-07-28,1,,,,,サクラノアサ,0
1361,6120001278163,新規,0,2025-07-28,2025-07-28,株式会社ｗｉｔｈ　ｕ,,株式会社,大阪府,大阪市中央区,大手通２丁目３番１６－１２０２号,,27,128,5400021,,,,,,,2025-07-28,1,,,,,ウィズユー,0
1362,6120001278196,新規,0,2025-07-28,2025-07-28,株式会社石原プロモーション,,株式会社,大阪府,大阪市北区,東天満１丁目５番１８－３０１号,,27,127,5300044,,,,,,,2025-07-28,1,,,,,イシハラプロモーション,0
1363,6120001278238,新規,0,2025-07-28,2025-07-28,天国之音株式会社,,株式会社,大阪府,大阪市西成区,天下茶屋２丁目２１番６－３０３号,,27,122,5570014,,,,,,,2025-07-28,1,,,,,テンゴクノオン,0
1366,6120003030051,新規,0,2025-07-28,2025-07-28,ＹＲＰ３合同会社,,合同会社,大阪府,大阪市福島区,福島１丁目２番４号,,27,103,5530003,,,,,,,2025-07-28,1,,,,,ワイアールピースリー,0
1367,6120003030101,新規,0,2025-07-28,2025-07-28,合同会社Ｔｗｉｎｔａｉｌ　Ｗｏｒｋｓ,,合同会社,大阪府,大阪市北区,中津３丁目２０番１０号,,27,127,5310071,,,,,,,2025-07-28,1,,,,,ツインテールワークス,0
1370,6120101072160,新規,0,2025-07-28,2025-07-28,銭多多株式会社,,株式会社,大阪府,阪南市,貝掛６３番３号シーサイド貝掛Ｂ棟４０９号室,,27,232,5990231,,,,,,,2025-07-28,1,,,,,センタタ,0
1371,6120103006595,新規,0,2025-07-28,2025-07-28,合同会社３‐ＬＩＮＫ,,合同会社,大阪府,河内長野市,北青葉台３１―１３,,27,216,5860068,,,,,,,2025-07-28,1,,,,,スリーリンク,0
1380,6130001080139,新規,0,2025-07-28,2025-07-28,株式会社みあれ,,株式会社,京都府,京都市中京区,室町通六角下る鯉山町５１８番地ローレルコート室町１０２号,,26,104,6048163,,,,,,,2025-07-28,1,,,,,ミアレ,0
1381,6130001080147,新規,0,2025-07-28,2025-07-28,株式会社ＲＡＭＷＩＮＧ,,株式会社,京都府,京都市下京区,朱雀宝蔵町４４番地協栄ビル２階京都朱雀スタジオＡＪ－４０８,,26,106,6008846,,,,,,,2025-07-28,1,,,,,ラムウィング,0
1382,6130003010622,新規,0,2025-07-28,2025-07-28,合同会社Ｄ‐ＮＡＴＩＯＮ,,合同会社,京都府,京都市上京区,寺町通今出川上る６丁目不動前町２カレッジコート京都鴨川３１３,,26,102,6020807,,,,,,,2025-07-28,1,,,,,ディーネーション,0
1388,6150001028284,新規,0,2025-07-28,2025-07-28,幸工業株式会社,,株式会社,奈良県,大和郡山市,筒井町２９４番地７,,29,203,6391123,,,,,,,2025-07-28,1,,,,,サチコウギョウ,0
1389,6150001028292,新規,0,2025-07-28,2025-07-28,振興ジャパン株式会社,,株式会社,奈良県,奈良市,坊屋敷町４２番地,,29,201,6308271,,,,,,,2025-07-28,1,,,,,シンコウジャパン,0
1390,6160001009069,新規,0,2025-07-28,2025-07-28,アストホーム株式会社,,株式会社,滋賀県,彦根市,原町６００番地６３,,25,202,5220023,,,,,,,2025-07-28,1,,,,,アストホーム,0
1395,6180001167699,新規,0,2025-07-28,2025-07-28,株式会社グリーンエナジー,,株式会社,愛知県,名古屋市千種区,穂波町３丁目３７番地３,,23,101,4640822,,,,,,,2025-07-28,1,,,,,グリーンエナジー,0
1396,6180001167906,新規,0,2025-07-28,2025-07-28,株式会社Ｌｉａｒｔｓｉｇｎ,,株式会社,愛知県,名古屋市中区,大須１丁目３４番２４号Ｎａｐａｒｔｍｅｎｔ７０１号,,23,106,4600011,,,,,,,2025-07-28,1,,,,,リアートサイン,0
1400,6180003028734,新規,0,2025-07-28,2025-07-28,合同会社ＭｉｎｄＫｏｍｐａｓｓ,,合同会社,愛知県,犬山市,天神町４丁目７５番地,,23,215,4840073,,,,,,,2025-07-28,1,,,,,マインドコンパス,0
1401,6180301040060,新規,0,2025-07-28,2025-07-28,ＮＡロジスティクス株式会社,,株式会社,愛知県,岡崎市,八帖北町６番地１６,,23,202,4440924,,,,,,,2025-07-28,1,,,,,エヌエーロジスティクス,0
1406,6200001044061,新規,0,2025-07-28,2025-07-28,株式会社羽波,,株式会社,岐阜県,恵那市,明智町８６６番地７,,21,210,5097731,,,,,,,2025-07-28,1,,,,,ハネナミ,0
1407,6200001044078,新規,0,2025-07-28,2025-07-28,川崎重工航空宇宙プロダクションテクノロジー株式会社,,株式会社,岐阜県,各務原市,川崎町１番地,,21,213,5040971,,,,,,,2025-07-28,1,,,,,カワサキジュウコウコウクウウチュウプロダクションテクノロジー,0
1408,6200001044086,新規,0,2025-07-28,2025-07-28,棚橋板金株式会社,,株式会社,岐阜県,安八郡輪之内町,楡俣２６７８番地の１６,,21,382,5030201,,,,,,,2025-07-28,1,,,,,タナハシバンキン,0
1411,6220001026818,新規,0,2025-07-28,2025-07-28,株式会社昌,,株式会社,石川県,輪島市,新橋通８字８番地１,,17,204,9280061,,,,,,,2025-07-28,1,,,,,ショウ,0
1418,6230005009487,新規,0,2025-07-28,2025-07-28,一般社団法人スマイルブリッジ,,その他の設立登記法人,富山県,富山市,大町南台２２番地７,,16,201,9398073,,,,,,,2025-07-28,1,,,,,スマイルブリッジ,0
1429,6260001040393,新規,0,2025-07-28,2025-07-28,株式会社ワークスロジコム,,株式会社,岡山県,岡山市東区,瀬戸町瀬戸９４番地５,,33,103,7090861,,,,,,,2025-07-28,1,,,,,ワークスロジコム,0
1438,6290001110788,新規,0,2025-07-28,2025-07-28,株式会社Ｇｏｏｄ　Ｎａｖｅｒ,,株式会社,福岡県,福岡市博多区,東那珂１丁目１４番２６－５０１号アルファステイツ東那珂,,40,132,8120892,,,,,,,2025-07-28,1,,,,,グッドネイバー,0
1439,6290001110846,新規,0,2025-07-28,2025-07-28,株式会社クルトリンクジャパン,,株式会社,福岡県,福岡市博多区,対馬小路２－１７－１ハイム対馬小路３０２,,40,132,8120020,,,,,,,2025-07-28,1,,,,,クルトリンクジャパン,0
1441,6290003017180,新規,0,2025-07-28,2025-07-28,合同会社ＲＩＧＣ,,合同会社,福岡県,福岡市早良区,小田部４丁目１１番１９号,,40,137,8140032,,,,,,,2025-07-28,1,,,,,リグシー,0
1442,6300001014293,新規,0,2025-07-28,2025-07-28,株式会社ベルフィーヌ,,株式会社,佐賀県,佐賀市,兵庫南２丁目７３６,,41,201,8490918,,,,,,,2025-07-28,1,,,,,ベルフィーヌ,0
1444,6340001027531,新規,0,2025-07-28,2025-07-28,株式会社Ｅｌｅｍｅｎｔ,,株式会社,鹿児島県,霧島市,国分川内１０５３番地,,46,218,8994314,,,,,,,2025-07-28,1,,,,,エレメント,0
1445,6350001019668,新規,0,2025-07-28,2025-07-28,株式会社内村緑化システムサービス,,株式会社,宮崎県,西臼杵郡五ヶ瀬町,大字三ヶ所１０６３３番地１,,45,443,8821203,,,,,,,2025-07-28,1,,,,,ウチムラリョッカシステムサービス,0
1452,6360001035532,新規,0,2025-07-28,2025-07-28,株式会社バルブコンサルティング,,株式会社,沖縄県,那覇市,首里久場川町２丁目１５２－２４－１Ｆ,,47,201,9030807,,,,,,,2025-07-28,1,,,,,バルブコンサルティング,0
1453,6370001052849,新規,0,2025-07-28,2025-07-28,株式会社ＫＭ,,株式会社,宮城県,仙台市青葉区,千代田町４番３３号ホワイトハイツ神明１０２,,04,101,9810936,,,,,,,2025-07-28,1,,,,,ケーエム,0
1454,6370001052881,新規,0,2025-07-28,2025-07-28,ナカガワ株式会社,,株式会社,宮城県,仙台市青葉区,一番町１丁目１２－２－６０４,,04,101,9800811,,,,,,,2025-07-28,1,,,,,ナカガワ,0
1455,6370003007207,新規,0,2025-07-28,2025-07-28,ＬｉＮＫＵＲｉＯ合同会社,,合同会社,宮城県,牡鹿郡女川町,女川２丁目１番地２,,04,581,9862265,,,,,,,2025-07-28,1,,,,,リンクリオ,0
1460,6390001018063,新規,0,2025-07-28,2025-07-28,インデム株式会社,,株式会社,山形県,天童市,久野本２丁目８番８号,,06,210,9940012,,,,,,,2025-07-28,1,,,,,インデム,0
1467,6410003004133,新規,0,2025-07-28,2025-07-28,合同会社あきた中央ファーム,,合同会社,秋田県,秋田市,下北手松崎字大巻１５０番地９,,05,201,0100051,,,,,,,2025-07-28,1,,,,,アキタチュウオウファーム,0
1475,6470001020812,新規,0,2025-07-28,2025-07-28,海悦株式会社,,株式会社,香川県,高松市,番町４丁目７番２３号真鍋ハイツＡ棟２０２号,,37,201,7600017,,,,,,,2025-07-28,1,,,,,カイエツ,0
1483,6490001011124,新規,0,2025-07-28,2025-07-28,株式会社ユウエイデンキ,,株式会社,高知県,高知市,高＿１５番１８号サンコート高そね５１２号,00140056,39,201,7800071,,,,,,,2025-07-28,1,,,,,ユウエイデンキ,0
1487,6700150131535,新規,0,2025-07-28,2025-07-28,ＤＨＬ　Ａｉｒ　ＵＫ　Ｌｉｍｉｔｅｄ,,外国会社等,東京都,江東区,新木場１丁目１０番９号東京ディストリビューションセンター,,13,108,1360082,英国、イングランド、バークシャーＳＬ３０ＢＢ、コルンブルック、ホールトン・ロード、サザン・ハブ、ユニット１,,,,,,2025-07-28,1,,,,,デイーエイチエルエアユーケーリミテツド,0
1503,7010001257111,新規,0,2025-07-28,2025-07-28,株式会社Ｓｅｎｏｔｙｘ,,株式会社,東京都,中央区,銀座１丁目２２番１１号銀座大竹ビジデンス２Ｆ,,13,102,1040061,,,,,,,2025-07-28,1,,,,,セノティクス,0
1504,7010001257202,新規,0,2025-07-28,2025-07-28,株式会社ＣＯＭＯＮ　ＣＥＮＴＥＲ,,株式会社,東京都,千代田区,九段南１丁目５－６りそな九段ビル５Ｆ,,13,101,1020074,,,,,,,2025-07-28,1,,,,,コモンセンター,0
1506,7010003048129,新規,0,2025-07-28,2025-07-28,合同会社ＰＩＯ,,合同会社,東京都,中央区,日本橋１丁目４番１号日本橋一丁目ビルディング,,13,102,1030027,,,,,,,2025-07-28,1,,,,,ピーアイオー,0
1508,7010005040439,新規,0,2025-07-28,2025-07-28,Ｙｄｋ日本橋税理士法人,,その他の設立登記法人,東京都,中央区,日本橋久松町９番９号ＦＲＡＭＥ日本橋８Ｆ－Ｃ室,,13,102,1030005,,,,,,,2025-07-28,1,,,,,ワイディーケーニホンバシ,0
1521,7010401191331,新規,0,2025-07-28,2025-07-28,株式会社ＧｏｏｄＮｉｇｈｔ,,株式会社,東京都,港区,南麻布１丁目５－１－１００１,,13,103,1060047,,,,,,,2025-07-28,1,,,,,グッドナイト,0
1522,7010401191983,新規,0,2025-07-28,2025-07-28,Ｃｕｒｉｅ１株式会社,,株式会社,東京都,港区,麻布台１丁目３番１号麻布台ヒルズ森ＪＰタワー１７階,,13,103,1060041,,,,,,,2025-07-28,1,,,,,キュリーワン,0
1523,7010401192008,新規,0,2025-07-28,2025-07-28,株式会社ＺＥＴＴＡＩ,,株式会社,東京都,港区,麻布十番１丁目５－１０第２石原ビル別館２階,,13,103,1060045,,,,,,,2025-07-28,1,,,,,ゼッタイ,0
1524,7010401192016,新規,0,2025-07-28,2025-07-28,Ｍａｖｅｎ　Ｊａｐａｎ　Ｄｅｓｉｇｎ＆Ｃｏｎｓｔｒｕｃｔｉｏｎ株式会社,,株式会社,東京都,港区,芝大門２丁目１２番１０号Ｔ＆Ｇ浜松町ビル６Ｆ,,13,103,1050012,,,,,,,2025-07-28,1,,,,,メイブンジャパンデザインアンドコンストラクション,0
1525,7010401192032,新規,0,2025-07-28,2025-07-28,株式会社アスクサポート,,株式会社,東京都,港区,港南１丁目９番３６号アレア品川１３階,,13,103,1080075,,,,,,,2025-07-28,1,,,,,アスクサポート,0
1526,7010401192040,新規,0,2025-07-28,2025-07-28,株式会社ナオリナ・キャピタル,,株式会社,東京都,港区,三田４丁目１２番１４号シャネックス５０１,,13,103,1080073,,,,,,,2025-07-28,1,,,,,ナオリナキャピタル,0
1528,7010403035684,新規,0,2025-07-28,2025-07-28,合同会社讃岐蓄電,,合同会社,東京都,港区,芝大門２丁目１２番３号共生ビル２号館７階,,13,103,1050012,,,,,,,2025-07-28,1,,,,,サヌキチクデン,0
1529,7010405024603,新規,0,2025-07-28,2025-07-28,一般社団法人ＺＥＵＳ,,その他の設立登記法人,東京都,港区,芝大門２丁目１２番３号共生ビル２号館７階,,13,103,1050012,,,,,,,2025-07-28,1,,,,,ゼウス,0
1532,7010501054446,新規,0,2025-07-28,2025-07-28,Ｄａｓ株式会社,,株式会社,東京都,台東区,蔵前３丁目１３－１２蔵前ハイム２０４－１,,13,106,1110051,,,,,,,2025-07-28,1,,,,,ダス,0
1533,7010501054462,新規,0,2025-07-28,2025-07-28,株式会社住楽商事,,株式会社,東京都,台東区,元浅草１丁目２番１号フラワービル３階３０１室,,13,106,1110041,,,,,,,2025-07-28,1,,,,,ジュウラクショウジ,0
1537,7010701048066,新規,0,2025-07-28,2025-07-28,株式会社４Ｕ,,株式会社,東京都,品川区,西中延２丁目７番２号,,13,109,1420054,,,,,,,2025-07-28,1,,,,,フォーユー,0
1541,7010901057817,新規,0,2025-07-28,2025-07-28,リバースホールディングス株式会社,,株式会社,東京都,世田谷区,松原２丁目４６番６号,,13,112,1560043,,,,,,,2025-07-28,1,,,,,リバースホールディングス,0
1545,7011001171467,新規,0,2025-07-28,2025-07-28,株式会社ぷくぷく,,株式会社,東京都,目黒区,下目黒１丁目１番１４号コノトラビル７Ｆ,,13,110,1530064,,,,,,,2025-07-28,1,,,,,プクプク,0
1546,7011101112486,新規,0,2025-07-28,2025-07-28,株式会社Ａｌｇｏｂｏａ,,株式会社,東京都,新宿区,水道町４番５－７０４号,,13,104,1620811,,,,,,,2025-07-28,1,,,,,アルゴボア,0
1551,7011303005645,新規,0,2025-07-28,2025-07-28,合同会社昇阿,,合同会社,東京都,杉並区,西荻南４丁目７番１４号,,13,115,1670053,,,,,,,2025-07-28,1,,,,,ショウア,0
1561,7012401043396,新規,0,2025-07-28,2025-07-28,株式会社ＢＩＬＬＩＭＡＮＥ,,株式会社,東京都,三鷹市,下連雀６丁目１７番５－２１６号,,13,204,1810013,,,,,,,2025-07-28,1,,,,,ビリマネ,0
1562,7012403007250,新規,0,2025-07-28,2025-07-28,合同会社こねこ,,合同会社,東京都,多摩市,関戸１丁目２０番地の１ブリリアタワー聖蹟桜ヶ丘８０３,,13,224,2060011,,,,,,,2025-07-28,1,,,,,コネコ,0
1573,7020001164018,新規,0,2025-07-28,2025-07-28,株式会社律音楽企画,,株式会社,神奈川県,横浜市中区,山下町１８７番地－５０４,,14,104,2310023,,,,,,,2025-07-28,1,,,,,リツオンガクキカク,0
1582,7021003016339,新規,0,2025-07-28,2025-07-28,ＶｏｎＷｅｌｌｅｒ　Ｂｕｓｉｎｅｓｓ　Ｓｏｌｕｔｉｏｎｓ合同会社,,合同会社,神奈川県,横須賀市,本町１丁目１６番地２セルアージュ横須賀ラヴィッサン１００１,,14,201,2380041,,,,,,,2025-07-28,1,,,,,ヴォンウェラービジネスソリューションズ,0
1590,7030001167787,新規,0,2025-07-28,2025-07-28,秋元株式会社,,株式会社,埼玉県,和光市,新倉１丁目３０番７４号,,11,229,3510115,,,,,,,2025-07-28,1,,,,,アキモト,0
1591,7030001167795,新規,0,2025-07-28,2025-07-28,株式会社ＥＮＩＳＨＩ,,株式会社,埼玉県,越谷市,宮本町５丁目１９１番地９,,11,222,3430806,,,,,,,2025-07-28,1,,,,,エニシ,0
1592,7030001167804,新規,0,2025-07-28,2025-07-28,株式会社エムワイケー,,株式会社,埼玉県,川口市,中青木１丁目１２番１０号,,11,203,3320032,,,,,,,2025-07-28,1,,,,,エムワイケー,0
1593,7030001167812,新規,0,2025-07-28,2025-07-28,株式会社エーダッシュ,,株式会社,埼玉県,新座市,栄２丁目１番１９－７号,,11,230,3520014,,,,,,,2025-07-28,1,,,,,エーダッシュ,0
1595,7030005022220,新規,0,2025-07-28,2025-07-28,天惠壇,,その他の設立登記法人,埼玉県,狭山市,入間川２丁目２６番６号,,11,215,3501305,,,,,,,2025-07-28,1,,,,,テンエイダン,0
1599,7040001139760,新規,0,2025-07-28,2025-07-28,ＵＭＡＩＲＡ’Ｓ　ＤＲＥＡＭ　ＷＡＶＥ株式会社,,株式会社,千葉県,松戸市,古ケ崎１丁目３０６０番１０,,12,207,2710068,,,,,,,2025-07-28,1,,,,,ウマイラスドリームウェイヴ,0
1600,7040001139769,新規,0,2025-07-28,2025-07-28,星禾商事株式会社,,株式会社,千葉県,我孫子市,若松１４５番地の６,,12,222,2701147,,,,,,,2025-07-28,1,,,,,ホシノギショウジ,0
1601,7040001139777,新規,0,2025-07-28,2025-07-28,ＯＡＳＩＳＳ株式会社,,株式会社,千葉県,船橋市,夏見台３丁目２７番９号,,12,204,2730866,,,,,,,2025-07-28,1,,,,,オアシス,0
1635,7120001278105,新規,0,2025-07-28,2025-07-28,株式会社富陽,,株式会社,大阪府,大阪市阿倍野区,播磨町１丁目２３番２２－４０１号,,27,119,5450022,,,,,,,2025-07-28,1,,,,,フヨウ,0
1636,7120001278195,新規,0,2025-07-28,2025-07-28,株式会社ワンダーボックス,,株式会社,大阪府,大阪市北区,中崎西１丁目５－２２中山文甫会館３Ａ,,27,127,5300015,,,,,,,2025-07-28,1,,,,,ワンダーボックス,0
1637,7120001278204,新規,0,2025-07-28,2025-07-28,株式会社ｄｉｖｅ　ｇｌｏｂａｌ　ｌｉｑｕｅｕｒ,,株式会社,大阪府,大阪市大正区,北村１丁目１２番３号良三マンション１０１号,,27,108,5510032,,,,,,,2025-07-28,1,,,,,ダイブグローバルリキュール,0
1638,7120001278212,新規,0,2025-07-28,2025-07-28,Ｌ・Ｒ・Ｇ株式会社,,株式会社,大阪府,大阪市天王寺区,四天王寺１丁目１番１４号ＳＨＩＴＥＮＮＯＵＪＩＪｅｎｇａＭａｉｓｏｎ１００１,,27,109,5430051,,,,,,,2025-07-28,1,,,,,エルアールジー,0
1639,7120001278237,新規,0,2025-07-28,2025-07-28,株式会社ベルノア,,株式会社,大阪府,大阪市天王寺区,堀越町１６番１０号大信ビル８階,,27,109,5430056,,,,,,,2025-07-28,1,,,,,ベルノア,0
1640,7120001278278,新規,0,2025-07-28,2025-07-28,昇羽株式会社,,株式会社,大阪府,大阪市都島区,都島中通１丁目１６番１５－７０３号,,27,102,5340022,,,,,,,2025-07-28,1,,,,,ショウワ,0
1641,7120001278311,新規,0,2025-07-28,2025-07-28,株式会社ＢＥＹＯＮＤ,,株式会社,大阪府,大阪市北区,梅田１丁目２番２号大阪駅前第２ビル１２－１２,,27,127,5300001,,,,,,,2025-07-28,1,,,,,ビヨンド,0
1642,7120001278344,新規,0,2025-07-28,2025-07-28,株式会社ＢＯＴＡＩ,,株式会社,大阪府,大阪市平野区,喜連西４丁目６番２７号,,27,126,5470026,,,,,,,2025-07-28,1,,,,,ボタイ,0
1645,7120003030117,新規,0,2025-07-28,2025-07-28,Ｓｈｏａｉｂ　Ｔｒａｄｉｎｇ合同会社,,合同会社,大阪府,枚方市,堤町５番２２号,,27,210,5730057,,,,,,,2025-07-28,1,,,,,ショアイブトレーディング,0
1646,7120003030141,新規,0,2025-07-28,2025-07-28,合同会社よりどころ,,合同会社,大阪府,大阪市都島区,高倉町２丁目６番８号,,27,102,5340011,,,,,,,2025-07-28,1,,,,,ヨリドコロ,0
1648,7120005025065,新規,0,2025-07-28,2025-07-28,一般社団法人ＩＳＦ,,その他の設立登記法人,大阪府,大阪市生野区,鶴橋２丁目１４番２号１０１号室,,27,116,5440031,,,,,,,2025-07-28,1,,,,,アイエスエフ,0
1651,7120901051239,新規,0,2025-07-28,2025-07-28,株式会社Ｂｌｅｎｄｏｕｔ,,株式会社,大阪府,豊中市,永楽荘１丁目９―３５ｗ３０３,,27,203,5600051,,,,,,,2025-07-28,1,,,,,ブレンドアウト,0
1655,7122003003259,新規,0,2025-07-28,2025-07-28,Ｌｉｅｎ合同会社,,合同会社,大阪府,八尾市,太田６丁目１６０番地,,27,212,5810037,,,,,,,2025-07-28,1,,,,,リアン,0
1657,7130001080179,新規,0,2025-07-28,2025-07-28,Ｎｏｒｄｈａｕｓ株式会社,,株式会社,京都府,京都市下京区,鶏鉾町４９３ムーンバットビル７１２号室,,26,106,6008491,,,,,,,2025-07-28,1,,,,,ノルドハウス,0
1658,7130001080204,新規,0,2025-07-28,2025-07-28,ＣＯＪＯ株式会社,,株式会社,京都府,京都市北区,紫野東藤ノ森町１１番地の１,,26,101,6038223,,,,,,,2025-07-28,1,,,,,コジョ,0
1660,7140001139387,新規,0,2025-07-28,2025-07-28,株式会社ＴＯＭＯＳ,,株式会社,兵庫県,宝塚市,安倉南１丁目１７番２０号,,28,214,6650823,,,,,,,2025-07-28,1,,,,,トモス,0
1662,7150001028291,新規,0,2025-07-28,2025-07-28,株式会社モリモト,,株式会社,奈良県,香芝市,下田西４丁目２００番地,,29,210,6390231,,,,,,,2025-07-28,1,,,,,モリモト,0
1670,7180003028766,新規,0,2025-07-28,2025-07-28,ＫＫ合同会社,,合同会社,愛知県,江南市,古知野町久保見１１番地サンライスビル１階北号室,,23,217,4838275,,,,,,,2025-07-28,1,,,,,ケーケー,0
1671,7180003028774,新規,0,2025-07-28,2025-07-28,合同会社グロウマーケット,,合同会社,愛知県,江南市,前野町新田北９３,,23,217,4838051,,,,,,,2025-07-28,1,,,,,,0
1672,7180301040051,新規,0,2025-07-28,2025-07-28,株式会社メタウイングパートナーズ,,株式会社,愛知県,岡崎市,井田町字４丁目２４４番地１,,23,202,4440076,,,,,,,2025-07-28,1,,,,,メタウイングパートナーズ,0
1682,7200001044077,新規,0,2025-07-28,2025-07-28,住まいのＤｒ．株式会社,,株式会社,岐阜県,岐阜市,細畑３丁目１４番２号,,21,201,5008238,,,,,,,2025-07-28,1,,,,,スマイノドクター,0
1684,7210001020250,新規,0,2025-07-28,2025-07-28,ビックエルダイナー株式会社,,株式会社,福井県,福井市,新保町三丁目２２１８番地,,18,201,9100832,,,,,,,2025-07-28,1,,,,,ビックエルダイナー,0
1688,7220001026817,新規,0,2025-07-28,2025-07-28,まき瓦店株式会社,,株式会社,石川県,羽咋市,西釜屋町ノ７０番地１２,,17,207,9250017,,,,,,,2025-07-28,1,,,,,マキカワラテン,0
1690,7220003004085,新規,0,2025-07-28,2025-07-28,合同会社Ｔｒｅｃａｍｐｉ,,合同会社,石川県,能美市,大長野町ト６０番３,,17,211,9231115,,,,,,,2025-07-28,1,,,,,トレカンピ,0
1693,7240001065276,新規,0,2025-07-28,2025-07-28,株式会社ｋｏｔｏｂｕｋｉ,,株式会社,広島県,広島市中区,小網町７番１３－１３０２号,,34,101,7300855,,,,,,,2025-07-28,1,,,,,コトブキ,0
1694,7240001065284,新規,0,2025-07-28,2025-07-28,株式会社Ｐｌｕｓ　Ｌｉｎｅ,,株式会社,広島県,福山市,駅家町大字万能倉３７３番地９８,,34,207,7201131,,,,,,,2025-07-28,1,,,,,プリュスライン,0
1707,7260003005278,新規,0,2025-07-28,2025-07-28,合同会社ＴＥＲＡＫＯＹＡ,,合同会社,岡山県,岡山市東区,西大寺中野８７５番地５,,33,103,7048191,,,,,,,2025-07-28,1,,,,,テラコヤ,0
1717,7330001033430,新規,0,2025-07-28,2025-07-28,株式会社Ｌｉｂｅｒｏ,,株式会社,熊本県,熊本市中央区,水前寺６丁目１１番２７号,,43,101,8620950,,,,,,,2025-07-28,1,,,,,リベロ,0
1718,7330003011145,新規,0,2025-07-28,2025-07-28,合同会社オフィスウエノ,,合同会社,熊本県,熊本市中央区,大江４丁目８番１０号,,43,101,8620971,,,,,,,2025-07-28,1,,,,,オフィスウエノ,0
1722,7350001019667,新規,0,2025-07-28,2025-07-28,株式会社再化産業,,株式会社,宮崎県,宮崎市,波島１丁目１８番１３号,,45,201,8800826,,,,,,,2025-07-28,1,,,,,サイカサンギョウ,0
1727,7360001035548,新規,0,2025-07-28,2025-07-28,株式会社ＭＯＴＴＯＹ,,株式会社,沖縄県,浦添市,城間３丁目１６番１６号メゾン幸１０１,,47,208,9012133,,,,,,,2025-07-28,1,,,,,モットイ,0
1731,7370001052864,新規,0,2025-07-28,2025-07-28,株式会社ＡＫＹ,,株式会社,宮城県,仙台市太白区,鹿野３丁目２７番１７号フレール仙台長町南１０４号,,04,104,9820023,,,,,,,2025-07-28,1,,,,,エーケーワイ,0
1732,7370003007206,新規,0,2025-07-28,2025-07-28,Ｈ　ＣＯＮＣＥＰＴ合同会社,,合同会社,宮城県,仙台市青葉区,国分町２丁目１３番２１号,,04,101,9800803,,,,,,,2025-07-28,1,,,,,エイチコンセプト,0
1747,7430003017900,新規,0,2025-07-28,2025-07-28,帝国堂ジャパン合同会社,,合同会社,北海道,江別市,豊幌美咲町５２番地の６,,01,217,0670027,,,,,,,2025-07-28,1,,,,,テイコクドウジャパン,0
1748,7440005002800,新規,0,2025-07-28,2025-07-28,一般社団法人道南地域おこし協力隊ネットワーク,,その他の設立登記法人,北海道,二海郡八雲町,本町２０２番地１本町かねたビル１階,,01,346,0493107,,,,,,,2025-07-28,1,,,,,ドウナンチイキオコシキョウリョクタイネットワーク,0
1760,7500001026425,新規,0,2025-07-28,2025-07-28,藤本商会株式会社,,株式会社,愛媛県,西条市,氷見乙７１０番地２,,38,206,7930072,,,,,,,2025-07-28,1,,,,,フジモトショウカイ,0
1762,7700150131542,新規,0,2025-07-28,2025-07-28,ｓｈｅｎｚｈｅｎｓｈｉｔｅｌｉｑｉｄｉａｎｚｉｓｈａｎｇｗｕｙｏｕｘｉａｎｇｏｎｇｓｉ,,外国会社等,,,,,,,,ｂａｎｔｉａｎｊｉｅｄａｏｎａｎｋｅｎｇｓｈｅｑｕｗｕｈｅｄａｄａｏｎａｎ４７ｈａｏ，　ｄａｎｇｎａｌｉｚｏｎｇｈｅｌｏｕ１０６－２１８ｓｈｉ，　ｌｏｎｇｇａｎｇｑｕ，　ｓｈｅｎｚｈｅｎｓｈｉ,,,,,,2025-07-28,1,,,,,シェンジェンシートーァリーチイディエンズーシャーンウーヨウシエンゴーンスー,0
1771,8010001257135,新規,0,2025-07-28,2025-07-28,ＷＯＯＺＯＯ　Ｆ＆Ｂ株式会社,,株式会社,東京都,中央区,銀座１丁目２１番１号,,13,102,1040061,,,,,,,2025-07-28,1,,,,,ウーズエフアンドビー,0
1772,8010001257201,新規,0,2025-07-28,2025-07-28,株式会社和灯ろ,,株式会社,東京都,文京区,白山２丁目１８番６号,,13,105,1120001,,,,,,,2025-07-28,1,,,,,ワヒロ,0
1773,8010003048128,新規,0,2025-07-28,2025-07-28,合同会社ブレイクアウト,,合同会社,東京都,中央区,日本橋室町１丁目１１番１２号日本橋水野ビル７階,,13,102,1030022,,,,,,,2025-07-28,1,,,,,ブレイクアウト,0
1774,8010005040446,新規,0,2025-07-28,2025-07-28,一般社団法人ｒｅｎｇａプロ第５号,,その他の設立登記法人,東京都,千代田区,丸の内１丁目４番１号東京共同会計事務所内,,13,101,1000005,,,,,,,2025-07-28,1,,,,,レンガプロダイゴゴウ,0
1779,8010401191801,新規,0,2025-07-28,2025-07-28,ペッパージャパン株式会社,,株式会社,東京都,港区,東麻布２丁目２８番１号ＵＰ・ＢＡＳＥ麻布十番,,13,103,1060044,,,,,,,2025-07-28,1,,,,,ペッパージャパン,0
1780,8010401191974,新規,0,2025-07-28,2025-07-28,ＶＯＣ　ＡＩ株式会社,,株式会社,東京都,港区,六本木３丁目３－２７スハラ六本木３階,,13,103,1060032,,,,,,,2025-07-28,1,,,,,ヴィオーシーエーアイ,0
1781,8010401192023,新規,0,2025-07-28,2025-07-28,株式会社ソラスト・キッズ・ネクスト,,株式会社,東京都,港区,港南２丁目１５番３号,,13,103,1080075,,,,,,,2025-07-28,1,,,,,ソラストキッズネクスト,0
1782,8010401192031,新規,0,2025-07-28,2025-07-28,株式会社海南自由貿易総合商社,,株式会社,東京都,港区,南青山１丁目１２－３ＬＩＦＯＲＫ・Ｓ－２０２,,13,103,1070062,,,,,,,2025-07-28,1,,,,,カイナンジユウボウエキソウゴウショウシャ,0
1784,8010403035650,新規,0,2025-07-28,2025-07-28,ＹＭＮＹ合同会社,,合同会社,東京都,港区,南青山２丁目２番１５号ウィン青山９４２,,13,103,1070062,,,,,,,2025-07-28,1,,,,,ワイエムエヌワイ,0
1787,8010405024602,新規,0,2025-07-28,2025-07-28,一般社団法人讃岐蓄電,,その他の設立登記法人,東京都,港区,芝大門２丁目１２番３号共生ビル２号館７階,,13,103,1050012,,,,,,,2025-07-28,1,,,,,サヌキチクデン,0
1789,8010501054445,新規,0,2025-07-28,2025-07-28,株式会社Ｆｕｎｃｉｎａｔｉｎｇ,,株式会社,東京都,台東区,台東２丁目３１－１０第２掛川ビル１１７号室,,13,106,1100016,,,,,,,2025-07-28,1,,,,,ファンシネーティング,0
1790,8010501054478,新規,0,2025-07-28,2025-07-28,株式会社コメテック,,株式会社,東京都,台東区,東上野１丁目２４番１号河野ビル１階,,13,106,1100015,,,,,,,2025-07-28,1,,,,,コメテック,0
1799,8010701048032,新規,0,2025-07-28,2025-07-28,株式会社ｐｏｏｌ,,株式会社,東京都,品川区,荏原２丁目１番４号シェル品川戸越４０１,,13,109,1420063,,,,,,,2025-07-28,1,,,,,プール,0
1800,8010701048073,新規,0,2025-07-28,2025-07-28,インターグロー株式会社,,株式会社,東京都,品川区,北品川５丁目１２番３号御殿山ニューハウジング２０３号室,,13,109,1410001,,,,,,,2025-07-28,1,,,,,インターグロー,0
1802,8010703007837,新規,0,2025-07-28,2025-07-28,ＲＥ．ＳＮｏｗ合同会社,,合同会社,東京都,品川区,大崎４丁目１２番６号,,13,109,1410032,,,,,,,2025-07-28,1,,,,,アールイースノー,0
1805,8010901057816,新規,0,2025-07-28,2025-07-28,株式会社Ｌａｕｇｈ,,株式会社,東京都,世田谷区,代沢３丁目１６番１６号ＳＴＥＰ１０１,,13,112,1550032,,,,,,,2025-07-28,1,,,,,ラフ,0
1809,8011005011123,新規,0,2025-07-28,2025-07-28,一般社団法人ｔｗｏｒｔｈｏ,,その他の設立登記法人,東京都,渋谷区,神宮前５丁目２番５号表参道ＪＹビル３階,,13,113,1500001,,,,,,,2025-07-28,1,,,,,トゥーオルソ,0
1820,8011403004769,新規,0,2025-07-28,2025-07-28,合同会社ＲＥＶＥＲＳＥ,,合同会社,東京都,板橋区,南町５－６プレッソ要町２０３,,13,119,1730027,,,,,,,2025-07-28,1,,,,,リバース,0
1823,8011601028826,新規,0,2025-07-28,2025-07-28,株式会社ファーストリース,,株式会社,東京都,練馬区,練馬１丁目５番２号新日本パレス５階,,13,120,1760001,,,,,,,2025-07-28,1,,,,,ファーストリース,0
1824,8011701028569,新規,0,2025-07-28,2025-07-28,株式会社Ｂｒｉｇｈｔ　Ｐａｔｈ,,株式会社,東京都,江戸川区,中葛西６丁目１８番１０－３０２号,,13,123,1340083,,,,,,,2025-07-28,1,,,,,ブライトパス,0
1827,8011803006976,新規,0,2025-07-28,2025-07-28,合同会社ＧＯＡＴ,,合同会社,東京都,葛飾区,東新小岩８丁目１５－５Ｋｃｏｕｔ１０２,,13,122,1240023,,,,,,,2025-07-28,1,,,,,ガート,0
1828,8011803006984,新規,0,2025-07-28,2025-07-28,アルファワークス合同会社,,合同会社,東京都,足立区,保木間１丁目２番７号,,13,121,1210064,,,,,,,2025-07-28,1,,,,,アルファワークス,0
1830,8012701018989,新規,0,2025-07-28,2025-07-28,Ｍ．Ｔｅｃｈ日本人材株式会社,,株式会社,東京都,西東京市,中町１丁目９番１１号,,13,229,2020013,,,,,,,2025-07-28,1,,,,,エムテックニホンジンザイ,0
1831,8012701018997,新規,0,2025-07-28,2025-07-28,株式会社Ｐａｒａｄｉｇｍ　ｓｈｉｆｔ,,株式会社,東京都,小平市,学園東町１丁目２番１０号,,13,211,1870043,,,,,,,2025-07-28,1,,,,,パラダイムシフト,0
1832,8012801024128,新規,0,2025-07-28,2025-07-28,残置屋まるき株式会社,,株式会社,東京都,昭島市,中神町３丁目７番２５号２階,,13,207,1960022,,,,,,,2025-07-28,1,,,,,ザンチヤマルキ,0
1840,8020001163860,新規,0,2025-07-28,2025-07-28,株式会社Ｉｎ　Ｃｌｏｔｈｅｓ　Ｃｏｒｐｏｒａｔｉｏｎ,,株式会社,神奈川県,横浜市中区,長者町４丁目９番８ストーク伊勢佐木１番館６０３号室,,14,104,2310033,,,,,,,2025-07-28,1,,,,,インクロースコーポレーション,0
1844,8021001085913,新規,0,2025-07-28,2025-07-28,株式会社ＫＧテック,,株式会社,神奈川県,相模原市南区,東林間７丁目３５番７号,,14,153,2520311,,,,,,,2025-07-28,1,,,,,ケージーテック,0
1853,8030003027245,新規,0,2025-07-28,2025-07-28,嘉悦合同会社,,合同会社,埼玉県,川口市,飯塚４丁目１０番２１－３号,,11,203,3320023,,,,,,,2025-07-28,1,,,,,カエ,0
1859,8040001139784,新規,0,2025-07-28,2025-07-28,株式会社Ｍリゾート,,株式会社,千葉県,船橋市,芝山２丁目２番１号－６０３,,12,204,2740816,,,,,,,2025-07-28,1,,,,,エムリゾート,0
1860,8040001139801,新規,0,2025-07-28,2025-07-28,株式会社秀栄,,株式会社,千葉県,市原市,泉台２丁目３７番地４,,12,219,2990114,,,,,,,2025-07-28,1,,,,,シュウエイ,0
1861,8040001139818,新規,0,2025-07-28,2025-07-28,株式会社ｐｉｅｃｅ,,株式会社,千葉県,松戸市,常盤平６丁目２１番地の９,,12,207,2702261,,,,,,,2025-07-28,1,,,,,ピース,0
1865,8040003028011,新規,0,2025-07-28,2025-07-28,Ｍｙ合同会社,,合同会社,千葉県,流山市,駒木５３１－１－２階Ｇ,,12,220,2700132,,,,,,,2025-07-28,1,,,,,マイ,0
1866,8040003028102,新規,0,2025-07-28,2025-07-28,合同会社ｔｈｅ　ｏｒｉｇｉｎａｌｓ,,合同会社,千葉県,銚子市,外川町１丁目１０８２９番地の１６,,12,202,2880014,,,,,,,2025-07-28,1,,,,,ジオリジナルズ,0
1869,8050001056979,新規,0,2025-07-28,2025-07-28,株式会社ファイナリスタ,,株式会社,茨城県,坂東市,神田山１３７７番地３,,08,228,3060617,,,,,,,2025-07-28,1,,,,,ファイナリスタ,0
1873,8060001038431,新規,0,2025-07-28,2025-07-28,株式会社離蓮Ｄｉｎｉｎｇ,,株式会社,栃木県,宇都宮市,曲師町５番３号,,09,201,3200803,,,,,,,2025-07-28,1,,,,,ハナレンダイニング,0
1889,8080101025674,新規,0,2025-07-28,2025-07-28,株式会社ガレージポジション,,株式会社,静岡県,御殿場市,竈１０５４番地の３,,22,215,4120039,,,,,,,2025-07-28,1,,,,,ガレージポジション,0
1890,8080401028055,新規,0,2025-07-28,2025-07-28,エージーアイ株式会社,,株式会社,静岡県,浜松市中央区,中田島町１４５１番地,,22,138,4300845,,,,,,,2025-07-28,1,,,,,エージーアイ,0
1901,8110003005829,新規,0,2025-07-28,2025-07-28,インテレクタス・ネクサス合同会社,,合同会社,新潟県,柏崎市,四谷１丁目７番１１号,,15,205,9450046,,,,,,,2025-07-28,1,,,,,インテレクタスネクサス,0
1917,8120001278137,新規,0,2025-07-28,2025-07-28,株式会社エバンス,,株式会社,大阪府,大阪市福島区,吉野３丁目５番９号,,27,103,5530006,,,,,,,2025-07-28,1,,,,,エバンス,0
1918,8120001278153,新規,0,2025-07-28,2025-07-28,株式会社新留工業,,株式会社,大阪府,枚方市,長尾西町１丁目１６番３８号,,27,210,5730162,,,,,,,2025-07-28,1,,,,,ニイドメコウギョウ,0
1919,8120001278186,新規,0,2025-07-28,2025-07-28,株式会社安兵衛商店,,株式会社,大阪府,大阪市此花区,西九条３丁目３番１号,,27,104,5540012,,,,,,,2025-07-28,1,,,,,ヤスベエショウテン,0
1920,8120001278236,新規,0,2025-07-28,2025-07-28,パンジャブグローバル株式会社,,株式会社,大阪府,大阪市中央区,西心斎橋２丁目２番１８号三国屋ビル４Ｆ,,27,128,5420086,,,,,,,2025-07-28,1,,,,,パンジャブグローバル,0
1921,8120001278277,新規,0,2025-07-28,2025-07-28,信和保証株式会社,,株式会社,大阪府,大阪市淀川区,十三本町１丁目１２番１５号,,27,123,5320024,,,,,,,2025-07-28,1,,,,,シンワホショウ,0
1922,8120001278319,新規,0,2025-07-28,2025-07-28,ＺＮ株式会社,,株式会社,大阪府,大阪市東淀川区,相川２丁目２４番３３号ルームリバーサイドＡ１０６号室,,27,114,5330007,,,,,,,2025-07-28,1,,,,,ゼットエヌ,0
1925,8120005025015,新規,0,2025-07-28,2025-07-28,税理士法人Ｋタックス,,その他の設立登記法人,大阪府,大阪市西区,江戸堀１丁目２番１１号大同生命南館７階０１０号室,,27,106,5500002,,,,,,,2025-07-28,1,,,,,ケータックス,0
1931,8120901051246,新規,0,2025-07-28,2025-07-28,３ｒｄエイド株式会社,,株式会社,大阪府,茨木市,彩都あさぎ１丁目２番１６号Ｐ・ＰＬＡＣＥ・ＳＩＴＥ１０２号室,,27,211,5670085,,,,,,,2025-07-28,1,,,,,サードエイド,0
1932,8120901051287,新規,0,2025-07-28,2025-07-28,株式会社パワーブレーン,,株式会社,大阪府,吹田市,藤白台４丁目３０番９－２号,,27,205,5650873,,,,,,,2025-07-28,1,,,,,パワーブレーン,0
1935,8122003003258,新規,0,2025-07-28,2025-07-28,合同会社ＨＥＭＴ,,合同会社,大阪府,八尾市,高砂町５丁目５５番地の２８,,27,212,5810822,,,,,,,2025-07-28,1,,,,,ヘムト,0
1936,8130001080161,新規,0,2025-07-28,2025-07-28,株式会社案設計,,株式会社,京都府,宇治市,宇治米阪１５－２８,,26,204,6110021,,,,,,,2025-07-28,1,,,,,アンセッケイ,0
1937,8130003010629,新規,0,2025-07-28,2025-07-28,合同会社Ｌａｇｇｕｋｕ,,合同会社,京都府,京都市右京区,梅津西浦町２３番地７個室ブース１０２,,26,108,6150917,,,,,,,2025-07-28,1,,,,,ラッグク,0
1938,8130005017408,新規,0,2025-07-28,2025-07-28,一般社団法人心安福祉会,,その他の設立登記法人,京都府,京都市右京区,梅津中倉町７番地１４,,26,108,6150923,,,,,,,2025-07-28,1,,,,,ココアフクシカイ,0
1943,8150001028290,新規,0,2025-07-28,2025-07-28,株式会社マルキタ,,株式会社,奈良県,生駒郡平群町,上庄５丁目８番８号,,29,342,6360905,,,,,,,2025-07-28,1,,,,,マルキタ,0
1952,8180001167805,新規,0,2025-07-28,2025-07-28,Ｕｎｉｔｅｄ株式会社,,株式会社,愛知県,名古屋市守山区,菱池町１４番３０号,,23,113,4630045,,,,,,,2025-07-28,1,,,,,ユナイテッド,0
1953,8180003028765,新規,0,2025-07-28,2025-07-28,合同会社ＺＥＮ・ＶＩＥＴＮＡＭ,,合同会社,愛知県,海部郡蟹江町,舟入３丁目４９０番地,,23,425,4970048,,,,,,,2025-07-28,1,,,,,ゼンベトナム,0
1954,8180003028773,新規,0,2025-07-28,2025-07-28,ユカイシェア合同会社,,合同会社,愛知県,名古屋市中村区,名駅３丁目４－１０アルティメイト名駅１ｓｔ２階,,23,105,4500002,,,,,,,2025-07-28,1,,,,,ユカイシェア,0
1961,8240001065275,新規,0,2025-07-28,2025-07-28,株式会社ヤンガルド,,株式会社,広島県,広島市西区,井口台２丁目２３－４３－Ｃ６０２,,34,104,7330844,,,,,,,2025-07-28,1,,,,,ヤンガルド,0
1964,8260001040383,新規,0,2025-07-28,2025-07-28,株式会社ｙｕｔｏｒｉ,,株式会社,岡山県,総社市,井尻野１３３２番地２,,33,208,7191154,,,,,,,2025-07-28,1,,,,,ユトリ,0
1966,8290001110869,新規,0,2025-07-28,2025-07-28,プロテラジャパン株式会社,,株式会社,福岡県,福岡市東区,三苫５丁目４番３０－１０１号,,40,131,8110201,,,,,,,2025-07-28,1,,,,,プロテラジャパン,0
1967,8290001110902,新規,0,2025-07-28,2025-07-28,服部建創株式会社,,株式会社,福岡県,糟屋郡須惠町,大字佐谷２６５番地２４,,40,344,8112115,,,,,,,2025-07-28,1,,,,,ハットリケンソウ,0
1970,8300001014291,新規,0,2025-07-28,2025-07-28,株式会社しいば士所,,株式会社,佐賀県,三養基郡みやき町,大字白壁２４８番地５,,41,346,8490111,,,,,,,2025-07-28,1,,,,,シイバシショ,0
1978,8320003004719,新規,0,2025-07-28,2025-07-28,ＭＩＮＨ　ＰＨＵＯＮＧ合同会社,,合同会社,大分県,別府市,駅前本町１番５号１階,,44,202,8740934,,,,,,,2025-07-28,1,,,,,ミンフオン,0
1979,8320003004727,新規,0,2025-07-28,2025-07-28,合同会社Ｗｏｒｋｓ,,合同会社,大分県,豊後大野市,大野町中原３６８番地２,,44,212,8796421,,,,,,,2025-07-28,1,,,,,ワークス,0
1984,8330003011144,新規,0,2025-07-28,2025-07-28,合同会社しとう農園,,合同会社,熊本県,菊池郡菊陽町,大字原水３８４番地６,,43,404,8691102,,,,,,,2025-07-28,1,,,,,シトウノウエン,0
1985,8340001027538,新規,0,2025-07-28,2025-07-28,株式会社ヒラノ,,株式会社,鹿児島県,鹿屋市,串良町有里８２０８番地３,,46,203,8931602,,,,,,,2025-07-28,1,,,,,ヒラノ,0
1989,8350003004988,新規,0,2025-07-28,2025-07-28,富吉地区企業誘致合同会社,,合同会社,宮崎県,宮崎市,大字富吉字来道５８４番１,,45,201,8802114,,,,,,,2025-07-28,1,,,,,,0
1990,8360001035555,新規,0,2025-07-28,2025-07-28,Ａｕｔｏｌｕｔｉｏｎ株式会社,,株式会社,沖縄県,那覇市,具志２丁目２０番７号カンセイホーム具志２０７号室,,47,201,9010146,,,,,,,2025-07-28,1,,,,,オートルシオン,0
1993,8360003015126,新規,0,2025-07-28,2025-07-28,合同会社ＷＩＭ,,合同会社,沖縄県,宜野湾市,新城２丁目９番２４号,,47,205,9012201,,,,,,,2025-07-28,1,,,,,ウィン,0
1995,8370001052871,新規,0,2025-07-28,2025-07-28,株式会社朝日グループ,,株式会社,宮城県,名取市,下増田字小沼２９番地の２,,04,207,9811201,,,,,,,2025-07-28,1,,,,,アサヒグループ,0
1996,8370001052888,新規,0,2025-07-28,2025-07-28,株式会社医術相乗効果プラスシグマ,,株式会社,宮城県,仙台市太白区,東中田４丁目６番６７号,,04,104,9811107,,,,,,,2025-07-28,1,,,,,イジュツソウジョウコウカプラスシグマ,0
1997,8370003007213,新規,0,2025-07-28,2025-07-28,合同会社タジマ,,合同会社,宮城県,仙台市宮城野区,福田町３丁目３番２号,,04,102,9830023,,,,,,,2025-07-28,1,,,,,タジマ,0
1999,8380003006107,新規,0,2025-07-28,2025-07-28,合同会社伊藤綜合事務所,,合同会社,福島県,郡山市,堂前町２１番２号,,07,203,9638877,,,,,,,2025-07-28,1,,,,,イトウソウゴウジムショ,0
2005,8400005008503,新規,0,2025-07-28,2025-07-28,特定非営利活動法人にじのかけはし,,その他の設立登記法人,岩手県,胆沢郡金ケ崎町,西根上餅田１２番地２,,03,381,0294503,,,,,,,2025-07-28,1,,,,,ニジノカケハシ,0
2012,8430001094899,新規,0,2025-07-28,2025-07-28,株式会社ＣＡＫ３,,株式会社,北海道,札幌市中央区,南五条西１５丁目２－３－５０３,,01,101,0640805,,,,,,,2025-07-28,1,,,,,ケイク,0
2016,8490001011122,新規,0,2025-07-28,2025-07-28,株式会社エス・コンサルタント,,株式会社,高知県,高知市,高須新町３丁目１番３６号グランディ２０１,,39,201,7818122,,,,,,,2025-07-28,1,,,,,エスコンサルタント,0
2022,8700150131541,新規,0,2025-07-28,2025-07-28,Ｒｈｏｓａ　Ｈｏｌｄｉｎｇｓ　Ｐｔｙ　Ｌｔｄ,,外国会社等,,,,,,,,９２　Ｅｕｃｕｍｂｅｎｅ　Ｒｏａｄ，Ｈｉｌｌ　Ｔｏｐ　ＮＳＷ　２６２８　Ａｕｓｔｒａｌｉａ,,,,,,2025-07-28,1,,,,,ローサホールデイングスプロプライアテリーリミツテツド,0
2026,9010001257076,新規,0,2025-07-28,2025-07-28,株式会社ポラリスホールディングス,,株式会社,東京都,中央区,銀座１丁目１６番１号東貨ビル３階,,13,102,1040061,,,,,,,2025-07-28,1,,,,,ポラリスホールディングス,0
2027,9010001257200,新規,0,2025-07-28,2025-07-28,株式会社ベストライク,,株式会社,東京都,中央区,銀座１丁目１２番４号Ｎ＆ＥＢＬＤ．６Ｆ,,13,102,1040061,,,,,,,2025-07-28,1,,,,,ベストライク,0
2032,9010003048127,新規,0,2025-07-28,2025-07-28,合同会社まちのわ,,合同会社,東京都,中央区,日本橋箱崎町３３－２エフビル４０１,,13,102,1030015,,,,,,,2025-07-28,1,,,,,マチノワ,0
2036,9010005040445,新規,0,2025-07-28,2025-07-28,ＨＫプロパティーズ特定目的会社,,その他の設立登記法人,東京都,千代田区,平河町１丁目６番１５号シルスフィア会計事務所内,,13,101,1020093,,,,,,,2025-07-28,1,,,,,エイチケイプロパティーズ,0
2037,9010101016786,新規,0,2025-07-28,2025-07-28,株式会社Ｍｏｒｍａｃ,,株式会社,東京都,八王子市,宇津木町９番地１,,13,201,1920024,,,,,,,2025-07-28,1,,,,,モーマック,0
2047,9010401191973,新規,0,2025-07-28,2025-07-28,ＭＫＡ．ｕｒｂａｎＣｏａｓｔ株式会社,,株式会社,東京都,港区,海岸３丁目８番９－３０４号,,13,103,1080022,,,,,,,2025-07-28,1,,,,,エムケーエーアーバンコースト,0
2048,9010401191981,新規,0,2025-07-28,2025-07-28,東京ＡＤ株式会社,,株式会社,東京都,港区,北青山１丁目３番１号アールキューブ青山３階,,13,103,1070061,,,,,,,2025-07-28,1,,,,,トウキョウエーディー,0
2049,9010401192039,新規,0,2025-07-28,2025-07-28,ＢｉｔＴｏｏｌ株式会社,,株式会社,東京都,港区,赤坂２丁目２１番４号天翔赤坂ＡＮＮＥＸビル３階３１０号室,,13,103,1070052,,,,,,,2025-07-28,1,,,,,ビットツール,0
2053,9010403035682,新規,0,2025-07-28,2025-07-28,プルーム２Ｆ合同会社,,合同会社,東京都,港区,浜松町１丁目２０番１０号ライオネス浜松町５０６号室,,13,103,1050013,,,,,,,2025-07-28,1,,,,,プルームツーエフ,0
2055,9010703007836,新規,0,2025-07-28,2025-07-28,Ｃｅｌｌｂｏｒｎ合同会社,,合同会社,東京都,品川区,八潮５丁目３－１５－１０３,,13,109,1400003,,,,,,,2025-07-28,1,,,,,セルボーン,0
2056,9010801036431,新規,0,2025-07-28,2025-07-28,株式会社Ｐｉｎｅ　Ｗｅｌｌ　Ｃｏｒｐｏｒａｔｉｏｎ,,株式会社,東京都,大田区,田園調布１丁目８番７号,,13,111,1450071,,,,,,,2025-07-28,1,,,,,パインウエルコーポレーション,0
2063,9011001171408,新規,0,2025-07-28,2025-07-28,株式会社英英英,,株式会社,東京都,渋谷区,神宮前６丁目２３番４号桑野ビル２階,,13,113,1500001,,,,,,,2025-07-28,1,,,,,エイエイエイ,0
2065,9011003022195,新規,0,2025-07-28,2025-07-28,合同会社南田辺西開発,,合同会社,東京都,渋谷区,千駄ヶ谷４丁目２５番２号株式会社フジタ内,,13,113,1510051,,,,,,,2025-07-28,1,,,,,ミナミタナベニシカイハツ,0
2066,9011101112575,新規,0,2025-07-28,2025-07-28,株式会社ＳＮＳ　ＨＡＣＫ　ＣＡＭＰ,,株式会社,東京都,新宿区,西新宿３丁目３番１３号西新宿水間ビル２Ｆ,,13,104,1600023,,,,,,,2025-07-28,1,,,,,エスエヌエスハックキャンプ,0
2074,9011303005643,新規,0,2025-07-28,2025-07-28,合同会社ｗＲ,,合同会社,東京都,杉並区,天沼１丁目２番８号,,13,115,1670032,,,,,,,2025-07-28,1,,,,,,0
2079,9011601028825,新規,0,2025-07-28,2025-07-28,瑞盈株式会社,,株式会社,東京都,練馬区,関町北５丁目６番７号関町マンション４０１Ｅ,,13,120,1770051,,,,,,,2025-07-28,1,,,,,ズイエイ,0
2080,9011601028833,新規,0,2025-07-28,2025-07-28,Ｉｎｆｉｎｉ株式会社,,株式会社,東京都,練馬区,大泉町４丁目３６－１７,,13,120,1780062,,,,,,,2025-07-28,1,,,,,アンフィニー,0
2081,9011603004774,新規,0,2025-07-28,2025-07-28,サイアム・ブーラパー合同会社,,合同会社,東京都,練馬区,関町北５丁目１９番３２号ファミールシティ武蔵関３－１０４,,13,120,1770051,,,,,,,2025-07-28,1,,,,,サイアムブーラパー,0
2085,9011701028568,新規,0,2025-07-28,2025-07-28,株式会社オルドア,,株式会社,東京都,江戸川区,篠崎町２丁目２７－７,,13,123,1330061,,,,,,,2025-07-28,1,,,,,オルドア,0
2087,9011801046511,新規,0,2025-07-28,2025-07-28,株式会社イフユーキャット,,株式会社,東京都,足立区,竹の塚６丁目６番１号竹ノ塚駅ビル２Ｆ・３Ｆ,,13,121,1210813,,,,,,,2025-07-28,1,,,,,イフユーキャット,0
2096,9013301054597,新規,0,2025-07-28,2025-07-28,株式会社ＧＲＯＭＳ,,株式会社,東京都,豊島区,高田３丁目１６番６－２０７号,,13,116,1710033,,,,,,,2025-07-28,1,,,,,,0
2099,9020001164016,新規,0,2025-07-28,2025-07-28,山本興業株式会社,,株式会社,神奈川県,川崎市川崎区,東門前３丁目３番９号,,14,131,2100812,,,,,,,2025-07-28,1,,,,,ヤマモトコウギョウ,0
2101,9020003029002,新規,0,2025-07-28,2025-07-28,合同会社Ｉｎｆｉｎｉｔｙ,,合同会社,神奈川県,横浜市栄区,鍛冶ケ谷町４６８番地２,,14,115,2470003,,,,,,,2025-07-28,1,,,,,インフィニティ,0
2102,9020005016948,新規,0,2025-07-28,2025-07-28,一般社団法人ＴＮＳコネクトファンド,,その他の設立登記法人,神奈川県,横浜市西区,みなとみらい３丁目６番４号,,14,103,2200012,,,,,,,2025-07-28,1,,,,,ティーエヌエスコネクトファンド,0
2106,9021001085904,新規,0,2025-07-28,2025-07-28,ＣｒｅｓＣ．株式会社,,株式会社,神奈川県,厚木市,寿町２丁目１番１８号,,14,212,2430003,,,,,,,2025-07-28,1,,,,,クレシッシェンド,0
2112,9021003016320,新規,0,2025-07-28,2025-07-28,合同会社ＳＭＩＬＥ　ＨＵＧ,,合同会社,神奈川県,相模原市南区,相南３丁目３番３号,,14,153,2520312,,,,,,,2025-07-28,1,,,,,スマイルハグ,0
2114,9030001167777,新規,0,2025-07-28,2025-07-28,株式会社Ｈ＆Ｈ,,株式会社,埼玉県,新座市,東北２丁目２４番１４号ブリリア志木ガーデン１０１号室,,11,230,3520001,,,,,,,2025-07-28,1,,,,,エイチアンドエイチ,0
2115,9030001167785,新規,0,2025-07-28,2025-07-28,株式会社Ｈｕ．ｄｏｔ,,株式会社,埼玉県,越谷市,大沢３丁目３番１９号,,11,222,3430025,,,,,,,2025-07-28,1,,,,,ヒュードット,0
2116,9030001167802,新規,0,2025-07-28,2025-07-28,旭商事株式会社,,株式会社,埼玉県,戸田市,喜沢南２丁目１番１０－６０７号,,11,224,3350014,,,,,,,2025-07-28,1,,,,,アサヒショウジ,0
2117,9030001167810,新規,0,2025-07-28,2025-07-28,株式会社繁羽商事,,株式会社,埼玉県,入間市,豊岡１丁目５－３９長州ビル３ＦＣ号室,,11,225,3580003,,,,,,,2025-07-28,1,,,,,ハンウショウジ,0
2118,9030001167851,新規,0,2025-07-28,2025-07-28,武蔵メンテナンス株式会社,,株式会社,埼玉県,さいたま市北区,宮原町３丁目５７０番地１,,11,102,3310812,,,,,,,2025-07-28,1,,,,,ムサシメンテナンス,0
2120,9030003027236,新規,0,2025-07-28,2025-07-28,リアライズビジョン合同会社,,合同会社,埼玉県,草加市,氷川町２１４４番地２,,11,221,3400034,,,,,,,2025-07-28,1,,,,,リアライズビジョン,0
2121,9030003027244,新規,0,2025-07-28,2025-07-28,合同会社関口建築,,合同会社,埼玉県,越谷市,東越谷１０丁目１０８番地３－２０２号,,11,222,3430023,,,,,,,2025-07-28,1,,,,,セキグチケンチク,0
2122,9030003027260,新規,0,2025-07-28,2025-07-28,Ｍａｎａｎ　Ｔｒａｄｉｎｇ　Ｃｏｍｐａｎｙ合同会社,,合同会社,埼玉県,北葛飾郡杉戸町,大字木野川４６２番地１２３,,11,464,3450003,,,,,,,2025-07-28,1,,,,,マナントレーディングカンパニー,0
2128,9040001139602,新規,0,2025-07-28,2025-07-28,スマートサポート株式会社,,株式会社,千葉県,千葉市若葉区,若松町４２４番地３４２フロレスタ１号,,12,104,2640021,,,,,,,2025-07-28,1,,,,,スマートサポート,0
2129,9040001139701,新規,0,2025-07-28,2025-07-28,鴻泰商事株式会社,,株式会社,千葉県,市川市,曽谷３丁目１５番３号,,12,203,2720832,,,,,,,2025-07-28,1,,,,,コタイショウジ,0
2130,9040001139759,新規,0,2025-07-28,2025-07-28,株式会社ＹＯＵＫＯ９,,株式会社,千葉県,松戸市,栗ケ沢８２０－７９,,12,207,2700022,,,,,,,2025-07-28,1,,,,,ヨウコナイン,0
2132,9050001056978,新規,0,2025-07-28,2025-07-28,三佳ケミリテック株式会社,,株式会社,茨城県,鉾田市,青柳下野原２７２７番地９８,,08,234,3111535,,,,,,,2025-07-28,1,,,,,ミヨシケミリテック,0
2135,9050003009455,新規,0,2025-07-28,2025-07-28,合同会社ジャスト・ワン,,合同会社,茨城県,つくば市,みどりの南１３－２４,,08,220,3050884,,,,,,,2025-07-28,1,,,,,ジャストワン,0
2137,9060001038422,新規,0,2025-07-28,2025-07-28,株式会社智知国際交流館,,株式会社,栃木県,宇都宮市,長岡町１２１７番地５,,09,201,3200004,,,,,,,2025-07-28,1,,,,,チチコクサイコウリュウカン,0
2138,9060001038430,新規,0,2025-07-28,2025-07-28,株式会社纏,,株式会社,栃木県,鹿沼市,板荷１８１０番地９９,,09,205,3211111,,,,,,,2025-07-28,1,,,,,マトイ,0
2140,9070001043173,新規,0,2025-07-28,2025-07-28,株式会社ハギワラ,,株式会社,群馬県,前橋市,笂井町８７７番地７,,10,201,3792115,,,,,,,2025-07-28,1,,,,,ハギワラ,0
2143,9070003006013,新規,0,2025-07-28,2025-07-28,合同会社ｉｎｃｌｕｓｉｏｎ,,合同会社,群馬県,前橋市,三俣町３丁目３番地５,,10,201,3710018,,,,,,,2025-07-28,1,,,,,インクルージョン,0
2148,9080101025582,新規,0,2025-07-28,2025-07-28,Ｒｅｐｌｕｓ株式会社,,株式会社,静岡県,富士市,中里１６１番地の６,,22,210,4170826,,,,,,,2025-07-28,1,,,,,リプラス,0
2151,9080401028054,新規,0,2025-07-28,2025-07-28,株式会社大武,,株式会社,静岡県,浜松市中央区,篠原町９２２４番地,,22,138,4310201,,,,,,,2025-07-28,1,,,,,オオタケ,0
2155,9100001038797,新規,0,2025-07-28,2025-07-28,株式会社０ＬｉｆｅＳｔｙｌｅ,,株式会社,長野県,茅野市,ちの３５０２－１ベルビア２Ｆワークラボ八ヶ岳,,20,214,3910001,,,,,,,2025-07-28,1,,,,,レイライフスタイル,0
2168,9120001278086,新規,0,2025-07-28,2025-07-28,ＺＥＮＩＴＨ　ＧＲＯＯＶＥ株式会社,,株式会社,大阪府,大阪市北区,中崎西４丁目２番１９号Ｋ－クラフト梅田１０８－４０１号室,,27,127,5300015,,,,,,,2025-07-28,1,,,,,ゼニスグルーヴ,0
2169,9120001278268,新規,0,2025-07-28,2025-07-28,株式会社ＢＢクロスカンパニー,,株式会社,大阪府,大阪市中央区,本町橋３番３号翔誠ビル,,27,128,5400029,,,,,,,2025-07-28,1,,,,,ビービークロスカンパニー,0
2172,9120003030164,新規,0,2025-07-28,2025-07-28,合同会社Ｇｒｏｗｔｈ　Ｒｉｖｅｒ,,合同会社,大阪府,大阪市西区,江之子島１丁目７番２４号,,27,106,5500006,,,,,,,2025-07-28,1,,,,,グロースリバー,0
2173,9120005025039,新規,0,2025-07-28,2025-07-28,ＮＰＯ法人かぶら,,その他の設立登記法人,大阪府,大阪市城東区,新喜多東１丁目８－４０－１１１,,27,118,5360017,,,,,,,2025-07-28,1,,,,,カブラ,0
2174,9120005025063,新規,0,2025-07-28,2025-07-28,一般社団法人一流塾志会,,その他の設立登記法人,大阪府,大阪市中央区,久太郎町３丁目５番１９号大阪ＤＩＣビル５階,,27,128,5410056,,,,,,,2025-07-28,1,,,,,イチリュウジュクシカイ,0
2175,9120005025071,新規,0,2025-07-28,2025-07-28,医療法人大森会,,その他の設立登記法人,大阪府,寝屋川市,八坂町１７番２号やさかビル１階,,27,215,5720838,,,,,,,2025-07-28,1,,,,,オオモリカイ,0
2179,9120101072190,新規,0,2025-07-28,2025-07-28,株式会社Ｋ２プランニング,,株式会社,大阪府,河内長野市,美加の台１丁目１７番８２－１０３号,,27,216,5860044,,,,,,,2025-07-28,1,,,,,ケーツープランニング,0
2182,9120901051286,新規,0,2025-07-28,2025-07-28,株式会社ＳＨＵＵＥＩリンクス,,株式会社,大阪府,茨木市,見付山１丁目１１番１５号,,27,211,5670035,,,,,,,2025-07-28,1,,,,,シュウエイリンクス,0
2186,9122001039451,新規,0,2025-07-28,2025-07-28,株式会社スザキホールディングス,,株式会社,大阪府,八尾市,楠根町４丁目２０番１号,,27,212,5810814,,,,,,,2025-07-28,1,,,,,スザキホールディングス,0
2187,9122003003257,新規,0,2025-07-28,2025-07-28,合同会社Ａ・Ｍ・Ｅ,,合同会社,大阪府,八尾市,木の本１丁目８２番地,,27,212,5810044,,,,,,,2025-07-28,1,,,,,エーエムイー,0
2192,9130001080136,新規,0,2025-07-28,2025-07-28,日華株式会社,,株式会社,京都府,京都市東山区,鞘町通五条下る４丁目正面町３０９番地２,,26,105,6050908,,,,,,,2025-07-28,1,,,,,ヒバナ,0
2193,9130001080144,新規,0,2025-07-28,2025-07-28,株式会社Ｔ‐ｗｏｒｋｓ,,株式会社,京都府,長岡京市,奥海印寺東条２９番地１メゾンドール奥文１０２,,26,209,6170853,,,,,,,2025-07-28,1,,,,,ティーワークス,0
2194,9130001080251,新規,0,2025-07-28,2025-07-28,ブルームウェイ株式会社,,株式会社,京都府,京都市南区,唐橋経田町３１番地３,,26,107,6018454,,,,,,,2025-07-28,1,,,,,ブルームウェイ,0
2209,9180001167705,新規,0,2025-07-28,2025-07-28,株式会社八神証券,,株式会社,愛知県,名古屋市中村区,名駅４丁目２３番９号,,23,105,4500002,,,,,,,2025-07-28,1,,,,,ヤガミショウケン,0
2210,9180001167944,新規,0,2025-07-28,2025-07-28,株式会社ＭＩＹＡＢＩ,,株式会社,愛知県,名古屋市港区,六軒家１３０９番地の１,,23,111,4550877,,,,,,,2025-07-28,1,,,,,ミヤビ,0
2214,9180003028756,新規,0,2025-07-28,2025-07-28,善一合同会社,,合同会社,愛知県,名古屋市中村区,太閤１丁目８０１番地,,23,105,4530801,,,,,,,2025-07-28,1,,,,,ゼンイチ,0
2215,9180003028764,新規,0,2025-07-28,2025-07-28,合同会社音聞山珈琲,,合同会社,愛知県,名古屋市中村区,名駅３丁目４番１０号アルティメイト名駅１ｓｔ２階,,23,105,4500002,,,,,,,2025-07-28,1,,,,,オトキキヤマコーヒー,0
2222,9190001032429,新規,0,2025-07-28,2025-07-28,株式会社ＥＶＥＲＳＴＯＮＥ,,株式会社,三重県,津市,南が丘２丁目３番地５,,24,201,5140822,,,,,,,2025-07-28,1,,,,,エバーストーン,0
2226,9210003001940,新規,0,2025-07-28,2025-07-28,合同会社渡邉電工,,合同会社,福井県,吉田郡永平寺町,荒谷第５４号６番地３,,18,322,9101227,,,,,,,2025-07-28,1,,,,,ワタナベデンコウ,0
2227,9220001026815,新規,0,2025-07-28,2025-07-28,株式会社あすなろチャレンジャーズ,,株式会社,石川県,加賀市,熊坂町ニ６番地,,17,206,9220842,,,,,,,2025-07-28,1,,,,,アスナロチャレンジャーズ,0
2243,9290001110819,新規,0,2025-07-28,2025-07-28,健和ウェルネス株式会社,,株式会社,福岡県,福岡市博多区,博多駅前２丁目１７番１号博多プレステージ本館１Ｆ,,40,132,8120011,,,,,,,2025-07-28,1,,,,,ケンワウェルネス,0
2249,9300001014290,新規,0,2025-07-28,2025-07-28,むら雲堂株式会社,,株式会社,佐賀県,小城市,小城町４４１番地１,,41,208,8450001,,,,,,,2025-07-28,1,,,,,ムラクモドウ,0
2250,9330001033437,新規,0,2025-07-28,2025-07-28,株式会社ｅｌｌｅ　ａｖｅ,,株式会社,熊本県,熊本市北区,麻生田５丁目１５番９号ＣＲＥＡ　ＯＣＴＹ　Ａ棟,,43,105,8618081,,,,,,,2025-07-28,1,,,,,エルレアベ,0
2259,9360003015117,新規,0,2025-07-28,2025-07-28,合同会社當眞塗装工業,,合同会社,沖縄県,浦添市,安波茶１丁目２０番８号１Ｆ,,47,208,9012114,,,,,,,2025-07-28,1,,,,,トウマトソウコウギョウ,0
2260,9370003007212,新規,0,2025-07-28,2025-07-28,美掃合同会社,,合同会社,宮城県,仙台市太白区,砂押町１８番２１号サニーコーポ２０３,,04,104,9820025,,,,,,,2025-07-28,1,,,,,ビソウ,0
2263,9380003006089,新規,0,2025-07-28,2025-07-28,合同会社ＡＺＺＵＲＲＯ,,合同会社,福島県,いわき市,東田町１丁目８－２ポートハウスＩＩＩＤ号室,00140055,07,204,9748212,,,,,,,2025-07-28,1,,,,,アズーロ,0
2266,9410001014239,新規,0,2025-07-28,2025-07-28,齋藤商事株式会社,,株式会社,秋田県,南秋田郡井川町,寺沢字綱木沢１７８番地８,,05,366,0181526,,,,,,,2025-07-28,1,,,,,サイトウショウジ,0
2283,9700150131540,新規,0,2025-07-28,2025-07-28,寝屋川市東大利町（Ａ街区）防災街区整備事業組合,,その他,大阪府,寝屋川市,東大利町４番１２号,,27,215,5720042,,,,,,,2025-07-28,1,,,,,ネヤガワシヒガシオオトシチヨウエーガイクボウサイガイクセイビジギヨウクミアイ,0
