sequenceNumber,corporateNumber,process,correct,updateDate,changeDate,name,nameImageId,kind,prefectureName,cityName,streetNumber,addressImageId,prefectureCode,cityCode,postCode,addressOutside,addressOutsideImageId,closeDate,closeCause,successorCorporateNumber,changeCause,assignmentDate,latest,enName,enPrefectureName,enCityName,enAddressOutside,furigana,hihyoji
14,1010001244610,新規,0,2024-05-10,2024-05-10,株式会社Ｎｕｍｉｒａｉ,,株式会社,東京都,中央区,銀座１丁目１２－４Ｎ＆Ｅ．ＢＬＤ．７階,,13,102,1040061,,,,,,,2024-05-10,1,,,,,ヌミライ,0
15,1010001244619,新規,0,2024-05-10,2024-05-10,Ｓｈｉｎｉｎｇ３Ｄ　Ｔｅｃｈｎｏｌｏｇｙ　Ｊａｐａｎ株式会社,,株式会社,東京都,中央区,八重洲２丁目１番１号ＹＡＮＭＡＲＴＯＫＹＯ１２階,,13,102,1040028,,,,,,,2024-05-10,1,,,,,シャイニングスリーディーテクノロジージャパン,0
16,1010001244676,新規,0,2024-05-10,2024-05-10,株式会社Ｓｅｅｄｓ　ｆｏｒ　ｔｈｅ　ｆｕｔｕｒｅ,,株式会社,東京都,文京区,本郷６丁目２５番１４号,,13,105,1130033,,,,,,,2024-05-10,1,,,,,シーズフォーザフューチャー,0
17,1010001244684,新規,0,2024-05-10,2024-05-10,株式会社アンコールグループ,,株式会社,東京都,千代田区,丸の内１丁目１１番１号,,13,101,1000005,,,,,,,2024-05-10,1,,,,,アンコールグループ,0
18,1010001244701,新規,0,2024-05-10,2024-05-10,ＩＮＴＡＩ　Ｊａｐａｎ株式会社,,株式会社,東京都,中央区,銀座３丁目１０番９号ＫＥＣ銀座ビル８階,,13,102,1040061,,,,,,,2024-05-10,1,,,,,インタイジャパン,0
29,1010003043688,新規,0,2024-05-10,2024-05-10,京都五条ホテル合同会社,,合同会社,東京都,中央区,日本橋１丁目４番１号,,13,102,1030027,,,,,,,2024-05-10,1,,,,,キョウトゴジョウホテル,0
33,1010005038281,新規,0,2024-05-10,2024-05-10,一般社団法人建設ヘルステック協会,,その他の設立登記法人,東京都,千代田区,富士見１丁目３番１１号富士見デュープレックスＢ’ｓ４Ｆ,,13,101,1020071,,,,,,,2024-05-10,1,,,,,ケンセツヘルステックキョウカイ,0
37,1010401182294,新規,0,2024-05-10,2024-05-10,株式会社ＰＤＳ　Ａｔｅｌｉｅｒ,,株式会社,東京都,港区,麻布台１丁目３番１号,,13,103,1060041,,,,,,,2024-05-10,1,,,,,ピーディーエスアトリエ,0
38,1010401182303,新規,0,2024-05-10,2024-05-10,株式会社エンビジェント,,株式会社,東京都,港区,南青山２丁目２番１５号,,13,103,1070062,,,,,,,2024-05-10,1,,,,,エンビジェント,0
39,1010401182311,新規,0,2024-05-10,2024-05-10,株式会社山海グローバル,,株式会社,東京都,港区,白金台２丁目９番１２－１４０１号,,13,103,1080071,,,,,,,2024-05-10,1,,,,,サンカイグローバル,0
40,1010401182352,新規,0,2024-05-10,2024-05-10,ＧＣＪＩ１５株式会社,,株式会社,東京都,港区,元赤坂１丁目１番８号株式会社赤坂国際会計内,,13,103,1070051,,,,,,,2024-05-10,1,,,,,ジーシージェイアイフィフティーン,0
43,1010405023180,新規,0,2024-05-10,2024-05-10,一般社団法人アポロンミュージックソサエティ,,その他の設立登記法人,東京都,港区,赤坂４丁目３番３０号横川ビル５０１,,13,103,1070052,,,,,,,2024-05-10,1,,,,,アポロンミュージックソサエティ,0
51,1010601065150,新規,0,2024-05-10,2024-05-10,株式会社Ｏｎｅ　Ａｃｔｉｖｅ,,株式会社,東京都,江東区,豊洲３丁目６番５－３１２０号ＴＨＥＴＯＹＯＳＵＴＯＷＥＲ,,13,108,1350061,,,,,,,2024-05-10,1,,,,,ワンアクティブ,0
52,1010601065159,新規,0,2024-05-10,2024-05-10,株式会社ＩＮＯ,,株式会社,東京都,江東区,東陽２丁目４番３９号４階４４号,,13,108,1350016,,,,,,,2024-05-10,1,,,,,イノ,0
59,1010701045911,新規,0,2024-05-10,2024-05-10,株式会社オリーブマーク,,株式会社,東京都,品川区,南品川６丁目１３番１２号,,13,109,1400004,,,,,,,2024-05-10,1,,,,,オリーブマーク,0
60,1010701045944,新規,0,2024-05-10,2024-05-10,株式会社Ｒｏｗｅｒ,,株式会社,東京都,品川区,西五反田５丁目２３番３号,,13,109,1410031,,,,,,,2024-05-10,1,,,,,ロウアー,0
61,1010701045952,新規,0,2024-05-10,2024-05-10,株式会社Ｋ２ｓｏｕｎｄ,,株式会社,東京都,品川区,北品川５丁目８番２６号,,13,109,1410001,,,,,,,2024-05-10,1,,,,,ケイツーサウンド,0
63,1010803004939,新規,0,2024-05-10,2024-05-10,Ｎｉ　Ａｏ　Ｓｏｆｔｗａｒｅ　Ｊａｐａｎ合同会社,,合同会社,東京都,大田区,羽田１丁目５－２０,,13,111,1440043,,,,,,,2024-05-10,1,,,,,ニーアオソフトウェアジャパン,0
70,1010901055223,新規,0,2024-05-10,2024-05-10,モスト企画株式会社,,株式会社,東京都,世田谷区,玉川台２丁目２８－５－６０１,,13,112,1580096,,,,,,,2024-05-10,1,,,,,モストキカク,0
78,1011001161754,新規,0,2024-05-10,2024-05-10,大重ホールディングス株式会社,,株式会社,東京都,渋谷区,道玄坂２丁目２０－２６エクシール道玄坂藤和,,13,113,1500043,,,,,,,2024-05-10,1,,,,,オオシゲホールディングス,0
79,1011001161820,新規,0,2024-05-10,2024-05-10,株式会社ＴＯＧＥＮ,,株式会社,東京都,渋谷区,道玄坂１丁目１０番８号渋谷道玄坂東急ビル２Ｆ－Ｃ,,13,113,1500043,,,,,,,2024-05-10,1,,,,,トーゲン,0
80,1011001161878,新規,0,2024-05-10,2024-05-10,株式会社ＬＥ　ＣＬＡＹＧＥ,,株式会社,東京都,渋谷区,渋谷２丁目１９－１５宮益坂ビルディング６０９,,13,113,1500002,,,,,,,2024-05-10,1,,,,,ルクレージュ,0
82,1011003019125,新規,0,2024-05-10,2024-05-10,ビバーチェプランニング合同会社,,合同会社,東京都,目黒区,中目黒１丁目９番１５号,,13,110,1530061,,,,,,,2024-05-10,1,,,,,ビバーチェプランニング,0
88,1011103014397,新規,0,2024-05-10,2024-05-10,合同会社まいなーこ,,合同会社,東京都,新宿区,西新宿３丁目３番１３号西新宿水間ビル２Ｆ,,13,104,1600023,,,,,,,2024-05-10,1,,,,,マイナーコ,0
93,1011203004380,新規,0,2024-05-10,2024-05-10,合同会社ファンコネクト,,合同会社,東京都,中野区,中野４丁目１０番２号中野セントラルパークサウス２階,,13,114,1640001,,,,,,,2024-05-10,1,,,,,ファンコネクト,0
95,1011301029627,新規,0,2024-05-10,2024-05-10,株式会社Ｉｎｆｉｎｉｔｙ,,株式会社,東京都,杉並区,浜田山４丁目１６番４－６０９号,,13,115,1680065,,,,,,,2024-05-10,1,,,,,インフィニティ,0
96,1011301029643,新規,0,2024-05-10,2024-05-10,株式会社コホマダ,,株式会社,東京都,杉並区,和泉４丁目４０番２５－１０２号,,13,115,1680063,,,,,,,2024-05-10,1,,,,,コホマダ,0
97,1011401026086,新規,0,2024-05-10,2024-05-10,株式会社リフ・アクシア,,株式会社,東京都,板橋区,高島平１丁目８番１３号響５０６,,13,119,1750082,,,,,,,2024-05-10,1,,,,,リフアクシア,0
102,1011505002628,新規,0,2024-05-10,2024-05-10,一般社団法人子どもＩＣＴ支援協会,,その他の設立登記法人,東京都,北区,赤羽２丁目５１－３ＮＳ３ビル２Ｆ,,13,117,1150045,,,,,,,2024-05-10,1,,,,,コドモアイシーティーシエンキョウカイ,0
107,1011805003367,新規,0,2024-05-10,2024-05-10,一般社団法人きさらぎ,,その他の設立登記法人,東京都,葛飾区,宝町１丁目１３番１１号,,13,122,1240005,,,,,,,2024-05-10,1,,,,,キサラギ,0
109,1012405004986,新規,0,2024-05-10,2024-05-10,医療法人社団ｊｕｉｌｌｅｔ,,その他の設立登記法人,東京都,武蔵野市,中町１丁目１０番６号三鷹北口共同ビル２階,,13,203,1800006,,,,,,,2024-05-10,1,,,,,ジュイエ,0
111,1012701018252,新規,0,2024-05-10,2024-05-10,株式会社１ｂｉｔ,,株式会社,東京都,東久留米市,学園町２丁目１５－２０,,13,222,2030021,,,,,,,2024-05-10,1,,,,,イチビット,0
114,1013101009412,新規,0,2024-05-10,2024-05-10,株式会社Ｎｕｍｂｅｒ,,株式会社,東京都,西多摩郡日の出町,大字平井２１６７番地１１,,13,305,1900182,,,,,,,2024-05-10,1,,,,,,0
118,1013301052468,新規,0,2024-05-10,2024-05-10,テレグラム株式会社,,株式会社,東京都,豊島区,池袋本町２丁目２番１３号,,13,116,1700011,,,,,,,2024-05-10,1,,,,,テレグラム,0
123,1020001157167,新規,0,2024-05-10,2024-05-10,株式会社ウィズ,,株式会社,神奈川県,横浜市鶴見区,東寺尾５丁目２１番５号,,14,101,2300077,,,,,,,2024-05-10,1,,,,,ウィズ,0
125,1020003026031,新規,0,2024-05-10,2024-05-10,合同会社なかむら,,合同会社,神奈川県,川崎市宮前区,宮崎６丁目３番地８１,,14,136,2160033,,,,,,,2024-05-10,1,,,,,ナカムラ,0
126,1020003026080,新規,0,2024-05-10,2024-05-10,桜やすらぎの郷合同会社,,合同会社,神奈川県,横浜市港南区,野庭町１８４３番地,,14,111,2340056,,,,,,,2024-05-10,1,,,,,サクラヤスラギノサト,0
127,1020005016410,新規,0,2024-05-10,2024-05-10,一般社団法人ゆうきとのぞみ,,その他の設立登記法人,神奈川県,横浜市西区,久保町４１番１１号,,14,103,2200061,,,,,,,2024-05-10,1,,,,,ユウキトノゾミ,0
133,1021001082198,新規,0,2024-05-10,2024-05-10,ＡＧマネジメント株式会社,,株式会社,神奈川県,厚木市,中町２丁目１０‐２０プレシス本厚木レジデンス２０９,,14,212,2430018,,,,,,,2024-05-10,1,,,,,エイジーマネージメント,0
154,1030001160244,新規,0,2024-05-10,2024-05-10,株式会社ソーホー,,株式会社,埼玉県,川口市,東川口４丁目６番６号コーポ吉田１０１号,,11,203,3330801,,,,,,,2024-05-10,1,,,,,ソーホー,0
160,1030003024249,新規,0,2024-05-10,2024-05-10,ＨｉｋｉＤｕｓ合同会社,,合同会社,埼玉県,東松山市,和泉町４番６号,,11,212,3550026,,,,,,,2024-05-10,1,,,,,ヒキダス,0
161,1030003024257,新規,0,2024-05-10,2024-05-10,Ｌ＆Ｍ合同会社,,合同会社,埼玉県,羽生市,南６丁目１９番地１,,11,216,3480053,,,,,,,2024-05-10,1,,,,,,0
169,1040003024891,新規,0,2024-05-10,2024-05-10,グッセル合同会社,,合同会社,千葉県,市川市,南八幡３丁目９番８号南八幡フラット２０２,,12,203,2720023,,,,,,,2024-05-10,1,,,,,グッセル,0
170,1040003024933,新規,0,2024-05-10,2024-05-10,合同会社白秋,,合同会社,千葉県,市川市,新浜１丁目１０番２８－５０１号,,12,203,2720136,,,,,,,2024-05-10,1,,,,,ハクシュウ,0
178,1060001037051,新規,0,2024-05-10,2024-05-10,株式会社アベ電設,,株式会社,栃木県,鹿沼市,府所町５０番地１６,,09,205,3220033,,,,,,,2024-05-10,1,,,,,アベデンセツ,0
179,1060003005064,新規,0,2024-05-10,2024-05-10,さくらプランニング合同会社,,合同会社,栃木県,栃木市,藤岡町蛭沼１５９２番地１,,09,203,3290312,,,,,,,2024-05-10,1,,,,,サクラプランニング,0
183,1080101024732,新規,0,2024-05-10,2024-05-10,朝日ホールディングス株式会社,,株式会社,静岡県,伊東市,荻５７４番地の２７,,22,208,4140053,,,,,,,2024-05-10,1,,,,,アサヒホールディングス,0
184,1080103003057,新規,0,2024-05-10,2024-05-10,合同会社在野社,,合同会社,静岡県,沼津市,高沢町１番９号メゾン・フィオーレ高沢１１１０,,22,203,4100057,,,,,,,2024-05-10,1,,,,,ザイヤシャ,0
200,1100001037419,新規,0,2024-05-10,2024-05-10,株式会社クボマサ,,株式会社,長野県,飯田市,大休７４６２番地３０,,20,205,3950068,,,,,,,2024-05-10,1,,,,,クボマサ,0
201,1100003007527,新規,0,2024-05-10,2024-05-10,合同会社ＴＮＴ興産,,合同会社,長野県,駒ヶ根市,赤穂３９５２番地１３,,20,210,3994117,,,,,,,2024-05-10,1,,,,,ティーエヌティーコウサン,0
203,1110001038399,新規,0,2024-05-10,2024-05-10,株式会社山二,,株式会社,新潟県,長岡市,飯塚８７０番地,,15,202,9495414,,,,,,,2024-05-10,1,,,,,ヤマニ,0
209,1120001264663,新規,0,2024-05-10,2024-05-10,オーエス工業株式会社,,株式会社,大阪府,門真市,三ツ島５丁目２９番７号,,27,223,5710015,,,,,,,2024-05-10,1,,,,,オーエスコウギョウ,0
210,1120001264688,新規,0,2024-05-10,2024-05-10,株式会社センコウ,,株式会社,大阪府,大阪市西淀川区,御幣島４丁目１番３４－８０１号,,27,113,5550012,,,,,,,2024-05-10,1,,,,,センコウ,0
211,1120001264713,新規,0,2024-05-10,2024-05-10,ＹＵＹＵ株式会社,,株式会社,大阪府,大阪市東淀川区,豊新５丁目６番３－３０２号,,27,114,5330014,,,,,,,2024-05-10,1,,,,,ユユ,0
212,1120001264754,新規,0,2024-05-10,2024-05-10,株式会社ひとさぽ,,株式会社,大阪府,大阪市中央区,谷町４丁目５番９号谷町アークビル,,27,128,5400012,,,,,,,2024-05-10,1,,,,,ヒトサポ,0
213,1120001264787,新規,0,2024-05-10,2024-05-10,鼎城株式会社,,株式会社,大阪府,大阪市淀川区,西宮原３丁目３番３号ファミールハイツ北大阪３号棟３２５号,,27,123,5320004,,,,,,,2024-05-10,1,,,,,テイジョウ,0
218,1120003026418,新規,0,2024-05-10,2024-05-10,合同会社ＡＳＨＩＧＡＲＵ,,合同会社,大阪府,大阪市北区,梅田１丁目１－３大阪駅前第３ビル２９階１－１－１号室,,27,127,5300001,,,,,,,2024-05-10,1,,,,,アシガル,0
219,1120003026541,新規,0,2024-05-10,2024-05-10,合同会社ＺＥＮＫＵ,,合同会社,大阪府,大阪市中央区,上汐１丁目２番５－１００７号,,27,128,5420064,,,,,,,2024-05-10,1,,,,,ゼンク,0
221,1120101069558,新規,0,2024-05-10,2024-05-10,株式会社ファースト工房,,株式会社,大阪府,堺市美原区,小寺４２６番地３,,27,147,5870065,,,,,,,2024-05-10,1,,,,,ファーストコウボウ,0
227,1122001038056,新規,0,2024-05-10,2024-05-10,株式会社ＫＩＮＧ,,株式会社,大阪府,八尾市,弓削町南１丁目８番地の１０,,27,212,5810034,,,,,,,2024-05-10,1,,,,,キング,0
235,1130003009553,新規,0,2024-05-10,2024-05-10,エージェント縁合同会社,,合同会社,京都府,木津川市,相楽神後原１５番地１奈良新聞きづがわビル３階,,26,214,6190222,,,,,,,2024-05-10,1,,,,,エージェントエン,0
240,1140003020526,新規,0,2024-05-10,2024-05-10,合同会社ｆａｉｒｅ,,合同会社,兵庫県,三田市,木器１５３１番地,,28,219,6691412,,,,,,,2024-05-10,1,,,,,フェール,0
243,1140005027049,新規,0,2024-05-10,2024-05-10,一般社団法人星宿集団,,その他の設立登記法人,兵庫県,神戸市中央区,脇浜町３丁目５番１０号カサベラエステ三宮１１１３号室,,28,110,6510072,,,,,,,2024-05-10,1,,,,,セイシュクシュウダン,0
244,1140005027073,新規,0,2024-05-10,2024-05-10,特定非営利活動法人セサミ,,その他の設立登記法人,兵庫県,三田市,三田町２番５号,,28,219,6691533,,,,,,,2024-05-10,1,,,,,セサミ,0
246,1150001027274,新規,0,2024-05-10,2024-05-10,株式会社鈴建,,株式会社,奈良県,桜井市,大字東新堂１００番地の４,,29,206,6330068,,,,,,,2024-05-10,1,,,,,スズケン,0
252,1180001161260,新規,0,2024-05-10,2024-05-10,ＲＥＤ　ＯＣＴＯＢＥＲ株式会社,,株式会社,愛知県,名古屋市中川区,服部３丁目２１０番地２Ｆ,,23,110,4540976,,,,,,,2024-05-10,1,,,,,レッドオクトーバー,0
253,1180001161343,新規,0,2024-05-10,2024-05-10,株式会社ＶＡＬＥＮＴＩ,,株式会社,愛知県,北名古屋市,九之坪松本２０番地２,,23,234,4810041,,,,,,,2024-05-10,1,,,,,ヴァレンチ,0
254,1180001161376,新規,0,2024-05-10,2024-05-10,株式会社ＳＡＩＺＥＮ,,株式会社,愛知県,名古屋市中区,松原１丁目１５－９ナビシティ大須ＩＩ１０１,00134701,23,106,4600017,,,,,,,2024-05-10,1,,,,,サイゼン,0
255,1180001161384,新規,0,2024-05-10,2024-05-10,株式会社Ｋ‐ＮＥＸＵＳ,,株式会社,愛知県,名古屋市北区,八代町２丁目６０番地,,23,103,4620043,,,,,,,2024-05-10,1,,,,,ケイネクサス,0
256,1180001161426,新規,0,2024-05-10,2024-05-10,株式会社Ｋｅｐａ,,株式会社,愛知県,名古屋市中区,錦３丁目１７番２４号鬼頭ビル５Ｆ,,23,106,4600003,,,,,,,2024-05-10,1,,,,,ケパ,0
258,1180003026750,新規,0,2024-05-10,2024-05-10,Ｄ‐ＷＥＳＴＡＩＬ合同会社,,合同会社,愛知県,名古屋市南区,呼続元町２３番５号,,23,112,4570011,,,,,,,2024-05-10,1,,,,,ディーウェステイル,0
259,1180003026759,新規,0,2024-05-10,2024-05-10,Ｄｅａｒ　Ｅｍｏｔｉｏｎ合同会社,,合同会社,愛知県,北名古屋市,熊之庄八幡６６番地,,23,234,4810006,,,,,,,2024-05-10,1,,,,,ディアエモーション,0
260,1180301038621,新規,0,2024-05-10,2024-05-10,株式会社ネクストプラス,,株式会社,愛知県,豊橋市,東小田原町４８番地セントラルレジデンス１３０５,,23,201,4400886,,,,,,,2024-05-10,1,,,,,ネクストプラス,0
262,1180305009569,新規,0,2024-05-10,2024-05-10,税理士法人ＴＥＮ,,その他の設立登記法人,愛知県,豊橋市,弥生町字中原１２番地５,,23,201,4418106,,,,,,,2024-05-10,1,,,,,テン,0
273,1240001063203,新規,0,2024-05-10,2024-05-10,株式会社タキモト建工,,株式会社,広島県,広島市佐伯区,観音台１丁目３９番１３号,,34,108,7315157,,,,,,,2024-05-10,1,,,,,タキモトケンコウ,0
281,1260003004681,新規,0,2024-05-10,2024-05-10,ローマオリーブ園合同会社,,合同会社,岡山県,岡山市北区,富町１丁目１番２６号,,33,101,7000031,,,,,,,2024-05-10,1,,,,,ローマオリーブエン,0
286,1280001009177,新規,0,2024-05-10,2024-05-10,隠あい心株式会社,,株式会社,島根県,隠岐郡隠岐の島町,西町名田の三１４―３（有）早川石油内,,32,528,6850014,,,,,,,2024-05-10,1,,,,,オアイコ,0
288,1290001105768,新規,0,2024-05-10,2024-05-10,株式会社プロデンシャルエンプロイメントエージェンシージャパン,,株式会社,福岡県,福岡市博多区,博多駅前２丁目１０番１２－９０３号ハイラーク博多駅前,,40,132,8120011,,,,,,,2024-05-10,1,,,,,プロデンシャルエンプロイメントエージェンシージャパン,0
295,1290801030546,新規,0,2024-05-10,2024-05-10,しろや株式会社,,株式会社,福岡県,田川市,大字奈良２６８番地４,,40,206,8260043,,,,,,,2024-05-10,1,,,,,シロヤ,0
296,1290803004713,新規,0,2024-05-10,2024-05-10,アラキ合同会社,,合同会社,福岡県,北九州市八幡西区,星ケ丘５丁目３番５号,,40,109,8071264,,,,,,,2024-05-10,1,,,,,アラキ,0
297,1300001013721,新規,0,2024-05-10,2024-05-10,株式会社なんでもそうじやさん,,株式会社,佐賀県,武雄市,朝日町大字甘久３８３９番地１,,41,206,8430001,,,,,,,2024-05-10,1,,,,,ナンデモソウジヤサン,0
303,1310003004791,新規,0,2024-05-10,2024-05-10,フット・ワーク合同会社,,合同会社,長崎県,大村市,松並２丁目１２１４番地４,,42,205,8560814,,,,,,,2024-05-10,1,,,,,フットワーク,0
308,1330003010367,新規,0,2024-05-10,2024-05-10,合同会社酒井鮮魚,,合同会社,熊本県,熊本市西区,野中１丁目５番１０号Ｂ－１０２,,43,103,8600059,,,,,,,2024-05-10,1,,,,,サカイセンギョ,0
314,1370001051277,新規,0,2024-05-10,2024-05-10,株式会社虹野,,株式会社,宮城県,岩沼市,長岡字栗木平東４７番地の１,,04,211,9892461,,,,,,,2024-05-10,1,,,,,ニジノ,0
321,1390001017607,新規,0,2024-05-10,2024-05-10,ニルヴァーナソフトウェア株式会社,,株式会社,山形県,山形市,幸町２－９ダイワロイネットホテル山形駅前１階,,06,201,9900038,,,,,,,2024-05-10,1,,,,,ニルヴァーナソフトウェア,0
323,1400001016656,新規,0,2024-05-10,2024-05-10,株式会社及川ホールディングス,,株式会社,岩手県,釜石市,甲子町第３地割３９番地７,,03,211,0260055,,,,,,,2024-05-10,1,,,,,オイカワホールディングス,0
326,1420001018717,新規,0,2024-05-10,2024-05-10,株式会社Ｋ．Ｈクリエイション,,株式会社,青森県,八戸市,大字市川町字古館５８番地３,,02,203,0392241,,,,,,,2024-05-10,1,,,,,ケイエイチクリエイション,0
329,1430001091754,新規,0,2024-05-10,2024-05-10,株式会社二代目ＳＡＭＵＲＡＩ,,株式会社,北海道,虻田郡倶知安町,北五条西１丁目１番地１３０,,01,400,0440055,,,,,,,2024-05-10,1,,,,,ニダイメサムライ,0
330,1450001014317,新規,0,2024-05-10,2024-05-10,株式会社山金林業,,株式会社,北海道,枝幸郡枝幸町,岬町９６４番地１,,01,514,0985814,,,,,,,2024-05-10,1,,,,,ヤマキンリンギョウ,0
340,1500005008706,新規,0,2024-05-10,2024-05-10,労働者協同組合ＳＡＫＵＲＡ,,その他の設立登記法人,愛媛県,東温市,上林丙１１２番地,,38,215,7910223,,,,,,,2024-05-10,1,,,,,サクラ,0
343,1700150110403,新規,0,2024-05-10,2022-06-24,Ｔｈｅ　Ｇｉｆｔ　ｏｆ　Ｍｕｓｉｃ,,その他,宮崎県,宮崎市,阿波岐原町坊ノ下２７３０番地,,45,201,8800835,,,,,,,2022-06-24,1,,,,,ザギフトオブミユージツク,0
344,1700150125211,新規,0,2024-05-10,2024-05-10,Ａｎｕｍｏｄａｎ　Ｔｒａｄｅ　株式会社,,外国会社等,東京都,荒川区,東日暮里３丁目１２番１５号１階,,13,118,1160014,ネパール国カスキ郡ポカラ市ガリパタン１７番地,,,,,,2024-05-10,1,,,,,アヌモダントレードカブシキガイシヤ,0
357,2010001244601,新規,0,2024-05-10,2024-05-10,ＡｐｅｘＡｓｓｅｔＣ＆Ｓ株式会社,,株式会社,東京都,千代田区,神田和泉町１番地６－１６ヤマトビル４０５,,13,101,1010024,,,,,,,2024-05-10,1,,,,,エーペックスアセットシーアンドエス,0
358,2010001244618,新規,0,2024-05-10,2024-05-10,日本電力サポート株式会社,,株式会社,東京都,中央区,銀座８丁目１７番５号ＴＨＥ・ＨＵＢ銀座ＯＣＴ８１４号室,,13,102,1040061,,,,,,,2024-05-10,1,,,,,ニホンデンリョクサポート,0
362,2010003043662,新規,0,2024-05-10,2024-05-10,合同会社ゼロワン,,合同会社,東京都,中央区,日本橋室町１丁目１１番１２号日本橋水野ビル７階,,13,102,1030022,,,,,,,2024-05-10,1,,,,,ゼロワン,0
363,2010003043670,新規,0,2024-05-10,2024-05-10,Ｙｉｎｔａｉ　Ｉｎｖｅｓｔｍｅｎｔ　Ｊａｐａｎ合同会社,,合同会社,東京都,中央区,日本橋３丁目９番１号日本橋三丁目スクエア１１階,,13,102,1030027,,,,,,,2024-05-10,1,,,,,インタイインベストメントジャパン,0
366,2010005038297,新規,0,2024-05-10,2024-05-10,司法書士法人志賀事務所,,その他の設立登記法人,東京都,千代田区,九段北１丁目１番６号リブ九段２階,,13,101,1020073,,,,,,,2024-05-10,1,,,,,シガジムショ,0
375,2010401182351,新規,0,2024-05-10,2024-05-10,ＧＣＪＩ１４株式会社,,株式会社,東京都,港区,元赤坂１丁目１番８号株式会社赤坂国際会計内,,13,103,1070051,,,,,,,2024-05-10,1,,,,,ジーシージェイアイフォーティーン,0
376,2010403032447,新規,0,2024-05-10,2024-05-10,ベルクアイン合同会社,,合同会社,東京都,港区,赤坂４丁目１３番５号,,13,103,1070052,,,,,,,2024-05-10,1,,,,,ベルクアイン,0
377,2010403032570,新規,0,2024-05-10,2024-05-10,ＩＡＭＡＮ合同会社,,合同会社,東京都,港区,南青山３丁目１番３６号,,13,103,1070062,,,,,,,2024-05-10,1,,,,,アイアムアン,0
378,2010403032587,新規,0,2024-05-10,2024-05-10,ＳＦ　Ｃｏｎｓｕｌｔｉｎｇ合同会社,,合同会社,東京都,港区,南麻布５丁目６番４８－４０１号,,13,103,1060047,,,,,,,2024-05-10,1,,,,,エスエフコンサルティング,0
379,2010403032595,新規,0,2024-05-10,2024-05-10,ＳＴＵＤＩＯ　ＮＩＮＧ合同会社,,合同会社,東京都,港区,南青山３丁目５番２号南青山第一韮澤ビル３階,,13,103,1070062,,,,,,,2024-05-10,1,,,,,スタジオニング,0
386,2010601065174,新規,0,2024-05-10,2024-05-10,株式会社ＦＲＣ,,株式会社,東京都,墨田区,京島２丁目９－１－３０３,,13,107,1310046,,,,,,,2024-05-10,1,,,,,エフアールシー,0
389,2010703007165,新規,0,2024-05-10,2024-05-10,ｌｉｅｎ合同会社,,合同会社,東京都,品川区,東品川３丁目７番３－８０５号,,13,109,1400002,,,,,,,2024-05-10,1,,,,,リアン,0
407,2011001161794,新規,0,2024-05-10,2024-05-10,株式会社ＩｃｅＲｉｖｅｒ,,株式会社,東京都,渋谷区,渋谷２丁目１９番１５号宮益坂ビルディング６０９,,13,113,1500002,,,,,,,2024-05-10,1,,,,,アイスリバー,0
408,2011001161852,新規,0,2024-05-10,2024-05-10,株式会社フリーランド,,株式会社,東京都,渋谷区,渋谷２丁目１９－１５宮益坂ビルディング６０９,,13,113,1500002,,,,,,,2024-05-10,1,,,,,フリーランド,0
409,2011001161869,新規,0,2024-05-10,2024-05-10,Ｔｒｉｐ　Ｐｏｒｔ株式会社,,株式会社,東京都,目黒区,東山２丁目２番５－８０１号,,13,110,1530043,,,,,,,2024-05-10,1,,,,,トリップポート,0
412,2011003019099,新規,0,2024-05-10,2024-05-10,合同会社Ａｏ．Ｇｒｅｅｎｓ,,合同会社,東京都,目黒区,下目黒１丁目６－５,,13,110,1530064,,,,,,,2024-05-10,1,,,,,アオグリーンズ,0
413,2011003019124,新規,0,2024-05-10,2024-05-10,ストライアル合同会社,,合同会社,東京都,目黒区,中町１丁目２５番２５号,,13,110,1530065,,,,,,,2024-05-10,1,,,,,ストライアル,0
420,2011105011020,新規,0,2024-05-10,2024-05-10,一般社団法人ベネッセ保育・子育て支援ラボ,,その他の設立登記法人,東京都,新宿区,西新宿２丁目３番１号新宿モノリスビル,,13,104,1600023,,,,,,,2024-05-10,1,,,,,ベネッセホイクコソダテシエンラボ,0
423,2011301029642,新規,0,2024-05-10,2024-05-10,シダールーツ株式会社,,株式会社,東京都,杉並区,高井戸東１丁目３１番６－６０２号パークシティ浜田山Ｅ棟,,13,115,1680072,,,,,,,2024-05-10,1,,,,,,0
439,2011801044199,新規,0,2024-05-10,2024-05-10,たびと株式会社,,株式会社,東京都,足立区,竹の塚２丁目１６－５,,13,121,1210813,,,,,,,2024-05-10,1,,,,,タビト,0
445,2012405004985,新規,0,2024-05-10,2024-05-10,一般社団法人慈織会,,その他の設立登記法人,東京都,稲城市,若葉台１丁目５５番地,,13,225,2060824,,,,,,,2024-05-10,1,,,,,イオリカイ,0
447,2012701018251,新規,0,2024-05-10,2024-05-10,株式会社スマテラス,,株式会社,東京都,清瀬市,松山２丁目６番４７号,,13,221,2040022,,,,,,,2024-05-10,1,,,,,スマテラス,0
448,2013101009411,新規,0,2024-05-10,2024-05-10,株式会社ソレイユ,,株式会社,東京都,羽村市,羽東１丁目２番１２号東洋ビル２階,,13,227,2050014,,,,,,,2024-05-10,1,,,,,ソレイユ,0
454,2020001157109,新規,0,2024-05-10,2024-05-10,永和株式会社,,株式会社,神奈川県,横浜市中区,簑沢７８番地２４,,14,104,2310856,,,,,,,2024-05-10,1,,,,,エイワ,0
455,2020001157133,新規,0,2024-05-10,2024-05-10,株式会社ＢＩＳＴＲＡＩＬ,,株式会社,神奈川県,横浜市港北区,菊名４丁目７番２３号,,14,109,2220011,,,,,,,2024-05-10,1,,,,,ビストレイル,0
456,2020001157141,新規,0,2024-05-10,2024-05-10,株式会社エスビーサイド,,株式会社,神奈川県,川崎市宮前区,菅生１丁目１６番５１号,,14,136,2160015,,,,,,,2024-05-10,1,,,,,エスビーサイド,0
487,2030001160235,新規,0,2024-05-10,2024-05-10,株式会社アキオ設備,,株式会社,埼玉県,日高市,大字旭ケ丘７３番地１５,,11,242,3501203,,,,,,,2024-05-10,1,,,,,アキオセツビ,0
488,2030001160243,新規,0,2024-05-10,2024-05-10,株式会社といろ,,株式会社,埼玉県,深谷市,東方３２２２番地５,,11,218,3660041,,,,,,,2024-05-10,1,,,,,トイロ,0
496,2030003024248,新規,0,2024-05-10,2024-05-10,合同会社Ｌ＆フードサービス,,合同会社,埼玉県,草加市,稲荷２丁目３４番２７－３号,,11,221,3400003,,,,,,,2024-05-10,1,,,,,エルアンドフードサービス,0
497,2030005021689,新規,0,2024-05-10,2024-05-10,一般社団法人ＲＩＮ,,その他の設立登記法人,埼玉県,比企郡滑川町,大字月輪９６１番地４,,11,341,3550813,,,,,,,2024-05-10,1,,,,,リン,0
505,2040001133322,新規,0,2024-05-10,2024-05-10,株式会社Ｃｏｍｍｉｔ,,株式会社,千葉県,印西市,大森６９８番地４０,,12,231,2701327,,,,,,,2024-05-10,1,,,,,コミット,0
506,2040001133462,新規,0,2024-05-10,2024-05-10,株式会社ａｎｄ　ｍ,,株式会社,千葉県,千葉市美浜区,打瀬２丁目１４番地パティオス１１番街６２０号,,12,106,2610013,,,,,,,2024-05-10,1,,,,,アンドエム,0
512,2040003024940,新規,0,2024-05-10,2024-05-10,合同会社一瀬研究所,,合同会社,千葉県,松戸市,本町１７－１１芹澤ビル６Ｆ,,12,207,2710091,,,,,,,2024-05-10,1,,,,,イッセケンキュウショ,0
513,2040003024949,新規,0,2024-05-10,2024-05-10,合同会社ＤＭ８号,,合同会社,千葉県,柏市,柏４丁目５番１０号,,12,217,2770005,,,,,,,2024-05-10,1,,,,,ディーエムハチゴウ,0
517,2050001054724,新規,0,2024-05-10,2024-05-10,凸凹株式会社,,株式会社,茨城県,筑西市,稲荷７３番地２,,08,227,3080106,,,,,,,2024-05-10,1,,,,,デコボコ,0
519,2050005013445,新規,0,2024-05-10,2024-05-10,一般社団法人日本貿易サポート協会,,その他の設立登記法人,茨城県,日立市,留町１０３９番地１,,08,202,3191231,,,,,,,2024-05-10,1,,,,,ニホンボウエキサポート,0
522,2060001037075,新規,0,2024-05-10,2024-05-10,ＲＡ　ＴＲＡＤＩＮＧ株式会社,,株式会社,栃木県,下都賀郡野木町,大字佐川野字寺家山４７２－３、３階３０３号室,,09,364,3290104,,,,,,,2024-05-10,1,,,,,アールエートレーディング,0
529,2080001026299,新規,0,2024-05-10,2024-05-10,株式会社アスラン,,株式会社,静岡県,島田市,中溝町１４８９番地の１,,22,209,4270047,,,,,,,2024-05-10,1,,,,,アスラン,0
534,2080401027178,新規,0,2024-05-10,2024-05-10,株式会社ＬｏｃａｌＳｅｒｖｉｃｅ,,株式会社,静岡県,浜松市中央区,龍禅寺町３７７番地の１英和マンション竜禅寺,,22,138,4300924,,,,,,,2024-05-10,1,,,,,ローカルサービス,0
538,2100001037426,新規,0,2024-05-10,2024-05-10,株式会社理装,,株式会社,長野県,上伊那郡南箕輪村,１２２８番地２,,20,385,3994511,,,,,,,2024-05-10,1,,,,,リソウ,0
539,2100003007526,新規,0,2024-05-10,2024-05-10,合同会社エイビス・ビット・ラボラトリー,,合同会社,長野県,下高井郡山ノ内町,大字佐野２５９２番地１４２,,20,561,3810402,,,,,,,2024-05-10,1,,,,,エイビスビットラボラトリー,0
554,2120001264662,新規,0,2024-05-10,2024-05-10,ＴＲ株式会社,,株式会社,大阪府,大阪市淀川区,西宮原２丁目６番１６号,,27,123,5320004,,,,,,,2024-05-10,1,,,,,ティーアール,0
555,2120001264679,新規,0,2024-05-10,2024-05-10,株式会社堺工務店,,株式会社,大阪府,大阪市旭区,中宮２丁目１１番２号,,27,117,5350003,,,,,,,2024-05-10,1,,,,,サカイコウムテン,0
556,2120001264695,新規,0,2024-05-10,2024-05-10,株式会社レイキャビック,,株式会社,大阪府,大阪市浪速区,日本橋西１丁目８番１８号,,27,111,5560004,,,,,,,2024-05-10,1,,,,,レイキャビック,0
557,2120001264712,新規,0,2024-05-10,2024-05-10,株式会社ＨＡＫＵＥＩ,,株式会社,大阪府,大阪市淀川区,西中島３丁目６番６号,,27,123,5320011,,,,,,,2024-05-10,1,,,,,ハクエイ,0
558,2120001264753,新規,0,2024-05-10,2024-05-10,ＫＳＭ　ＣＯＭＰＡＮＹ株式会社,,株式会社,大阪府,大阪市西成区,千本南２丁目１－２２,,27,122,5570055,,,,,,,2024-05-10,1,,,,,ケイエスエムカンパニー,0
561,2120003026557,新規,0,2024-05-10,2024-05-10,ＭＷ合同会社,,合同会社,大阪府,大阪市中央区,南船場１丁目６－１０プレサンス心斎橋レヨン４０１,,27,128,5420081,,,,,,,2024-05-10,1,,,,,ムゥ,0
563,2120005024311,新規,0,2024-05-10,2024-05-10,一般社団法人日本文化・伝統技術の国際展開と継承機構,,その他の設立登記法人,大阪府,大阪市西区,西本町１丁目２－１Ａｘｉｓ本町ビル４Ｆ,,27,106,5500005,,,,,,,2024-05-10,1,,,,,ニホンブンカデントウギジュツノコクサイテンカイトケイショウキコウ,0
564,2120101069516,新規,0,2024-05-10,2024-05-10,株式会社てぃぐる新体操クラブ,,株式会社,大阪府,和泉市,万町３６４番地の４,,27,219,5941104,,,,,,,2024-05-10,1,,,,,ティグルシンタイソウクラブ,0
565,2120101069524,新規,0,2024-05-10,2024-05-10,株式会社ガレージ友マイム,,株式会社,大阪府,和泉市,福瀬町２６２番地の６,,27,219,5941123,,,,,,,2024-05-10,1,,,,,ガレージユウマイム,0
566,2120101069540,新規,0,2024-05-10,2024-05-10,株式会社ＧＲＡＮＤＩＲ　ＴＯＵＪＯＵＲＳ,,株式会社,大阪府,河内長野市,千代田台町４番１６－１号,,27,216,5860027,,,,,,,2024-05-10,1,,,,,グランディールトゥジュール,0
567,2120101069557,新規,0,2024-05-10,2024-05-10,株式会社ＯＶＥＲ　ＡＮＤ　ＯＶＥＲ,,株式会社,大阪府,堺市中区,東山７６４－１,,27,142,5998247,,,,,,,2024-05-10,1,,,,,オーバーアンドオーバー,0
568,2120101069565,新規,0,2024-05-10,2024-05-10,ＴＷ国際物流株式会社,,株式会社,大阪府,泉佐野市,日根野４３３９番地の７（４階）,,27,213,5980021,,,,,,,2024-05-10,1,,,,,ティーダブリューコクサイブツリュウ,0
569,2120103005816,新規,0,2024-05-10,2024-05-10,リユースハブ合同会社,,合同会社,大阪府,河内長野市,原町６丁目９－１６レジャーセンターＴＥＮ２階,,27,216,5860021,,,,,,,2024-05-10,1,,,,,リユースハブ,0
576,2130001077007,新規,0,2024-05-10,2024-05-10,大志株式会社,,株式会社,京都府,京都市北区,上賀茂本山２５８番２７,,26,101,6038047,,,,,,,2024-05-10,1,,,,,ダイシ,0
577,2130001077031,新規,0,2024-05-10,2024-05-10,株式会社シーエスジェイ,,株式会社,京都府,京都市西京区,桂千代原町３３番地２,,26,111,6158085,,,,,,,2024-05-10,1,,,,,シーエスジェイ,0
592,2170001018130,新規,0,2024-05-10,2024-05-10,株式会社荷城,,株式会社,和歌山県,岩出市,西国分５１５－１－３,,30,209,6496213,,,,,,,2024-05-10,1,,,,,ニジョウ,0
597,2180001161144,新規,0,2024-05-10,2024-05-10,株式会社横関,,株式会社,愛知県,名古屋市西区,花の木３丁目１９番４号,,23,104,4510062,,,,,,,2024-05-10,1,,,,,ヨコゼキ,0
598,2180001161292,新規,0,2024-05-10,2024-05-10,株式会社クロスイー,,株式会社,愛知県,名古屋市中区,丸の内３丁目７番２６号ＡＣＡビル５階,,23,106,4600002,,,,,,,2024-05-10,1,,,,,クロスイー,0
599,2180001161301,新規,0,2024-05-10,2024-05-10,株式会社ｔｗｉｎ‐Ｇ,,株式会社,愛知県,名古屋市港区,大西２丁目１２３番地の２,,23,111,4550861,,,,,,,2024-05-10,1,,,,,ツインジー,0
600,2180001161326,新規,0,2024-05-10,2024-05-10,ルーフヤネトー株式会社,,株式会社,愛知県,名古屋市中村区,八社２丁目２１２番地,,23,105,4530863,,,,,,,2024-05-10,1,,,,,ルーフヤネトー,0
601,2180001161334,新規,0,2024-05-10,2024-05-10,株式会社南洲,,株式会社,愛知県,日進市,梅森町北田面７０１番地１梅森コーポラス２０６,,23,230,4700132,,,,,,,2024-05-10,1,,,,,ナンシュウ,0
602,2180001161367,新規,0,2024-05-10,2024-05-10,株式会社ＫＳメディカルサービス,,株式会社,愛知県,一宮市,赤見３丁目１８番１７号,,23,203,4910023,,,,,,,2024-05-10,1,,,,,ケイエスメディカルサービス,0
603,2180001161391,新規,0,2024-05-10,2024-05-10,株式会社ホロムア,,株式会社,愛知県,名古屋市中村区,横井２丁目８４番地の２,,23,105,4530866,,,,,,,2024-05-10,1,,,,,ホロムア,0
604,2180001161409,新規,0,2024-05-10,2024-05-10,株式会社風,,株式会社,愛知県,名古屋市千種区,千種２丁目２３番６号ロイヤルパークス千種８０１号,,23,101,4640858,,,,,,,2024-05-10,1,,,,,カゼ,0
605,2180001161474,新規,0,2024-05-10,2024-05-10,株式会社みずはテクノス,,株式会社,愛知県,日進市,米野木町南山１０３０番地１,,23,230,4700111,,,,,,,2024-05-10,1,,,,,ミズハテクノス,0
613,2180301038620,新規,0,2024-05-10,2024-05-10,株式会社メタオート,,株式会社,愛知県,豊川市,赤坂町大日２４２番地,,23,207,4410202,,,,,,,2024-05-10,1,,,,,メタオート,0
614,2180301038629,新規,0,2024-05-10,2024-05-10,株式会社Ｋｏｊｉｋｏ,,株式会社,愛知県,安城市,東栄町２丁目８番３号,,23,212,4460007,,,,,,,2024-05-10,1,,,,,コジコ,0
615,2180305009568,新規,0,2024-05-10,2024-05-10,一般社団法人双豊賑わい協働会,,その他の設立登記法人,愛知県,豊橋市,談合町１３８番地２,,23,201,4400816,,,,,,,2024-05-10,1,,,,,ソウホウニギワイキョウドウカイ,0
617,2190003004671,新規,0,2024-05-10,2024-05-10,合同会社Ｌｅａｌｅａ,,合同会社,三重県,亀山市,川合町１２２９番地１４,,24,210,5190103,,,,,,,2024-05-10,1,,,,,レアレア,0
621,2200003006336,新規,0,2024-05-10,2024-05-10,合同会社ｚｅｅｇｌｏ,,合同会社,岐阜県,関市,小屋名１２９４番地３,,21,205,5013941,,,,,,,2024-05-10,1,,,,,ジーグロ,0
624,2220001025996,新規,0,2024-05-10,2024-05-10,株式会社ｉｓｕ,,株式会社,石川県,金沢市,尾張町１丁目２‐８,,17,201,9200902,,,,,,,2024-05-10,1,,,,,イスゥ,0
625,2220005008849,新規,0,2024-05-10,2024-05-10,医療法人翔心会,,その他の設立登記法人,石川県,小松市,福乃宮町２丁目１１４番１,,17,203,9230865,,,,,,,2024-05-10,1,,,,,ショウシンカイ,0
656,2290801030561,新規,0,2024-05-10,2024-05-10,ハチドリ株式会社,,株式会社,福岡県,北九州市小倉南区,葛原本町２丁目３番１９号,,40,107,8000253,,,,,,,2024-05-10,1,,,,,ハチドリ,0
662,2330001032049,新規,0,2024-05-10,2024-05-10,株式会社ＹＫＤ,,株式会社,熊本県,熊本市東区,小峯４丁目４番１４２－２０２号,,43,102,8620933,,,,,,,2024-05-10,1,,,,,ワイケーディー,0
667,2330003010366,新規,0,2024-05-10,2024-05-10,合同会社国楽,,合同会社,熊本県,熊本市南区,富合町清藤４３４番地１９,,43,104,8614151,,,,,,,2024-05-10,1,,,,,ゴクラク,0
669,2340003004474,新規,0,2024-05-10,2024-05-10,ＭＥＧＡＭＩ合同会社,,合同会社,鹿児島県,霧島市,国分府中町２２番１１号,,46,218,8994346,,,,,,,2024-05-10,1,,,,,メガミ,0
670,2350003004639,新規,0,2024-05-10,2024-05-10,ベアンド合同会社,,合同会社,宮崎県,都城市,大王町３２－３－１,,45,202,8850026,,,,,,,2024-05-10,1,,,,,ベアンド,0
675,2360001033614,新規,0,2024-05-10,2024-05-10,株式会社ｂａｓｉｓ,,株式会社,沖縄県,うるま市,石川８３８ー９佐次田邸貸店舗１ーＢ,,47,213,9041106,,,,,,,2024-05-10,1,,,,,ベーシス,0
680,2370001051276,新規,0,2024-05-10,2024-05-10,株式会社渡邊工業,,株式会社,宮城県,仙台市若林区,今泉１丁目１７番３５号,,04,103,9840835,,,,,,,2024-05-10,1,,,,,ワタナベコウギョウ,0
681,2370005010781,新規,0,2024-05-10,2024-05-10,特定非営利活動法人Ｌｅ’ａ,,その他の設立登記法人,宮城県,栗原市,栗駒菱沼若宮４４番地,,04,213,9895323,,,,,,,2024-05-10,1,,,,,レア,0
685,2380001034511,新規,0,2024-05-10,2024-05-10,株式会社安建基業,,株式会社,福島県,いわき市,四倉町字町田１２４番地の２,,07,204,9790201,,,,,,,2024-05-10,1,,,,,ヤスケンキギョウ,0
687,2390001017606,新規,0,2024-05-10,2024-05-10,桧技研株式会社,,株式会社,山形県,山形市,銅町２丁目１０番２９－４号,,06,201,9900051,,,,,,,2024-05-10,1,,,,,ヒノキギケン,0
688,2410001013833,新規,0,2024-05-10,2024-05-10,川尻工務店株式会社,,株式会社,秋田県,山本郡八峰町,峰浜石川字石川５１３番地,,05,349,0182504,,,,,,,2024-05-10,1,,,,,カワシリコウムテン,0
692,2430001091778,新規,0,2024-05-10,2024-05-10,高梁電設株式会社,,株式会社,北海道,札幌市清田区,平岡五条６丁目１番２号,,01,110,0040875,,,,,,,2024-05-10,1,,,,,コウリョウデンセツ,0
697,2430005014982,新規,0,2024-05-10,2024-05-10,農事組合法人鈴木産業,,その他の設立登記法人,北海道,札幌市南区,澄川五条１２丁目６番２３号１０２号室,,01,106,0050005,,,,,,,2024-05-10,1,,,,,スズキサンギョウ,0
699,2460301005220,新規,0,2024-05-10,2024-05-10,株式会社アトリエノース,,株式会社,北海道,北見市,高砂町１５番５号,,01,208,0900017,,,,,,,2024-05-10,1,,,,,アトリエノース,0
702,2480001012465,新規,0,2024-05-10,2024-05-10,株式会社大扇,,株式会社,徳島県,美馬郡つるぎ町,一宇字十家４９６番地５,,36,468,7794303,,,,,,,2024-05-10,1,,,,,ダイセン,0
705,2700150113495,新規,0,2024-05-10,2024-05-10,Ｖｉｔａｃｏ　Ｈｅａｌｔｈ　Ａｕｓｔｒａｌｉａ　Ｐｔｙ　Ｌｔｄ,,外国会社等,,,,,,,,Ｌｅｖｅｌ　３，６８　Ｗａｔｅｒｌｏｏ　Ｒｏａｄ，Ｎｏｒｔｈ　Ｒｙｄｅ　ＮＳＷ　２１１３，Ａｕｓｔｒａｌｉａ,,,,,,2024-05-10,1,,,,,ヴイタコヘルスオーストラリアピーテイーワイリミテツド,0
708,2700150125053,新規,0,2024-05-10,2024-04-23,出津コミュニティ協議会,,その他,長崎県,長崎市,西出津町２７９４番地１,,42,201,8512322,,,,,,,2024-04-23,1,,,,,シツコミユニテイキヨウギカイ,0
709,2700150125210,新規,0,2024-05-10,2024-05-10,Ｈｏｎｇ　Ｋｏｎｇ　Ｆｒｅｅｙｏ　Ｃａｓｕａｌ　Ｓｐｏｒｔｓ　Ｔｅｃｈｎｏｌｏｇｙ　Ｃｏ．，Ｌｔｄ,,外国会社等,,,,,,,,ＦＬＡＴ／ＲＭ　１４５１　１４／Ｆ　ＥＴＯＮ　ＴＯＷＥＲ　８　ＨＹＳＡＮ　ＡＶＥＮＵＥ　ＣＡＵＳＥＷＡＹ　ＢＡＹ　ＨＫ,,,,,,2024-05-10,1,,,,,ホンコンフリーヨカジュアルスポーツテクノロジーカンパニーリミテッド,0
724,3010001244716,新規,0,2024-05-10,2024-05-10,株式会社シリカジャパン,,株式会社,東京都,中央区,銀座１丁目１２－４Ｎ＆ＥＢＬＤ．７階,,13,102,1040061,,,,,,,2024-05-10,1,,,,,シリカジャパン,0
725,3010001244732,新規,0,2024-05-10,2024-05-10,株式会社ＺＥＲＯＳ,,株式会社,東京都,文京区,湯島３丁目３０－６－１０１,,13,105,1130034,,,,,,,2024-05-10,1,,,,,ゼロス,0
732,3010003043686,新規,0,2024-05-10,2024-05-10,合同会社ＫＫ９０漫画スタジオ,,合同会社,東京都,千代田区,神田佐久間町１丁目１４番地第２東ビル３０３号,,13,101,1010025,,,,,,,2024-05-10,1,,,,,ケーケーキュウジュウマンガスタジオ,0
734,3010005038263,新規,0,2024-05-10,2024-05-10,一般社団法人ロボティクス・オートメーション普及推進協会,,その他の設立登記法人,東京都,千代田区,二番町９－３ＴＨＥＢＡＳＥ麹町,,13,101,1020084,,,,,,,2024-05-10,1,,,,,ロボティクスオートメーションフキュウスイシンキョウカイ,0
735,3010005038288,新規,0,2024-05-10,2024-05-10,一般社団法人京都五条ホテル,,その他の設立登記法人,東京都,中央区,日本橋１丁目４番１号,,13,102,1030027,,,,,,,2024-05-10,1,,,,,キョウトゴジョウホテル,0
736,3010101016131,新規,0,2024-05-10,2024-05-10,株式会社ウィンウィン,,株式会社,東京都,八王子市,南大沢５丁目６番地１－９０２,,13,201,1920364,,,,,,,2024-05-10,1,,,,,ウィンウィン,0
745,3010401182111,新規,0,2024-05-10,2024-05-10,松本建設株式会社,,株式会社,東京都,港区,赤坂３丁目２番８号ＶＯＲＴ赤坂見附ＩＩ６階,00134693,13,103,1070052,,,,,,,2024-05-10,1,,,,,マツモトケンセツ,0
746,3010401182375,新規,0,2024-05-10,2024-05-10,ＧＣＪＧ３７株式会社,,株式会社,東京都,港区,元赤坂１丁目１番８号株式会社赤坂国際会計内,,13,103,1070051,,,,,,,2024-05-10,1,,,,,ジーシージェイジーサーティセブン,0
747,3010401182391,新規,0,2024-05-10,2024-05-10,株式会社アスキュー,,株式会社,東京都,港区,南青山５丁目６番２４号,,13,103,1070062,,,,,,,2024-05-10,1,,,,,アスキュー,0
749,3010403032438,新規,0,2024-05-10,2024-05-10,合同会社明石メディカルサービス,,合同会社,東京都,港区,南青山３丁目１４番２４号,,13,103,1070062,,,,,,,2024-05-10,1,,,,,アカシメディカルサービス,0
750,3010403032594,新規,0,2024-05-10,2024-05-10,ＳＳ光３５合同会社,,合同会社,東京都,港区,芝公園１丁目３番１号留園ビル６階,,13,103,1050011,,,,,,,2024-05-10,1,,,,,エスエスヒカリサーティファイブ,0
751,3010405023179,新規,0,2024-05-10,2024-05-10,一般社団法人ブラジル日本交流協会,,その他の設立登記法人,東京都,港区,西新橋１丁目２０番１０号西新橋エクセルビル７階,,13,103,1050003,,,,,,,2024-05-10,1,,,,,ブラジルニホンコウリュウキョウカイ,0
754,3010601065173,新規,0,2024-05-10,2024-05-10,ＧｒａｔｈｒｅｅＨｅａｒｔ株式会社,,株式会社,東京都,江東区,有明１丁目５番２－１２０８号,,13,108,1350063,,,,,,,2024-05-10,1,,,,,グラスリーハート,0
755,3010603010821,新規,0,2024-05-10,2024-05-10,ＰＵＮＴＯＤＥＸ合同会社,,合同会社,東京都,江東区,豊洲６丁目２番３１－１９１７号,,13,108,1350061,,,,,,,2024-05-10,1,,,,,プントデックス,0
756,3010605004326,新規,0,2024-05-10,2024-05-10,一般社団法人Ｎｉｐｐｏｎ　ＡＷＡＫＥＳ,,その他の設立登記法人,東京都,墨田区,立川３丁目１０番１号４Ｆ,,13,107,1300023,,,,,,,2024-05-10,1,,,,,ニッポンアウェイクス,0
759,3010701045959,新規,0,2024-05-10,2024-05-10,株式会社Ｔｅｎｋ,,株式会社,東京都,品川区,北品川５丁目３番１－９１８号,,13,109,1410001,,,,,,,2024-05-10,1,,,,,テンク,0
762,3010703007164,新規,0,2024-05-10,2024-05-10,ｂｏｏｌ合同会社,,合同会社,東京都,品川区,西五反田１丁目２６番２号五反田サンハイツ９１１,,13,109,1410031,,,,,,,2024-05-10,1,,,,,ブール,0
766,3010801035042,新規,0,2024-05-10,2024-05-10,株式会社Ｍｏｓｔ,,株式会社,東京都,大田区,西蒲田７丁目４３番９号ザ・シティ蒲田５Ｆ,,13,111,1440051,,,,,,,2024-05-10,1,,,,,モスト,0
770,3010901055238,新規,0,2024-05-10,2024-05-10,株式会社ＥＳ＆ＧＯ,,株式会社,東京都,世田谷区,深沢７丁目７番５号ジオ深沢３０２号室,,13,112,1580081,,,,,,,2024-05-10,1,,,,,エスアンドゴー,0
774,3011001161752,新規,0,2024-05-10,2024-05-10,株式会社ＸＫＭ,,株式会社,東京都,渋谷区,代々木３丁目１６番９号フォレストバレーミノン２０３,,13,113,1510053,,,,,,,2024-05-10,1,,,,,エックスケーエム,0
775,3011001161835,新規,0,2024-05-10,2024-05-10,株式会社ムラハタワークス,,株式会社,東京都,渋谷区,道玄坂１丁目１０番８号渋谷道玄坂東急ビル２Ｆ－Ｃ,,13,113,1500043,,,,,,,2024-05-10,1,,,,,ムラハタワークス,0
777,3011003019098,新規,0,2024-05-10,2024-05-10,ＦＸの窓口合同会社,,合同会社,東京都,渋谷区,恵比寿西２丁目８番４号ＥＸ恵比寿西ビル５Ｆ,,13,113,1500021,,,,,,,2024-05-10,1,,,,,エフエックスノマドグチ,0
778,3011003019131,新規,0,2024-05-10,2024-05-10,ＡＡＤ合同会社,,合同会社,東京都,目黒区,鷹番１丁目１－５－４Ｆ,,13,110,1520004,,,,,,,2024-05-10,1,,,,,エーエーディー,0
779,3011005010501,新規,0,2024-05-10,2024-05-10,一般社団法人日本空間デザイナー支援機構,,その他の設立登記法人,東京都,目黒区,目黒本町４丁目１２番２０号モンファイエ目黒本町７０１,,13,110,1520002,,,,,,,2024-05-10,1,,,,,ニホンクウカンデザイナーシエンキコウ,0
784,3011101107300,新規,0,2024-05-10,2024-05-10,株式会社ナノカ,,株式会社,東京都,新宿区,新宿１丁目２０番３－２０８号,,13,104,1600022,,,,,,,2024-05-10,1,,,,,ナノカ,0
790,3011303005153,新規,0,2024-05-10,2024-05-10,合同会社ＧＬＯＲＹ９,,合同会社,東京都,杉並区,上高井戸３丁目５番９号,,13,115,1680074,,,,,,,2024-05-10,1,,,,,グローリーナイン,0
792,3011501030639,新規,0,2024-05-10,2024-05-10,株式会社泰昭,,株式会社,東京都,北区,赤羽台３丁目１１－９,,13,117,1150053,,,,,,,2024-05-10,1,,,,,,0
800,3012701018250,新規,0,2024-05-10,2024-05-10,株式会社Ｌｉｎｋ・Ｄ・Ｗｉｌｌ,,株式会社,東京都,東久留米市,前沢１丁目１番５号,,13,222,2030032,,,,,,,2024-05-10,1,,,,,リンクウィル,0
814,3020001157099,新規,0,2024-05-10,2024-05-10,東苑株式会社,,株式会社,神奈川県,横浜市中区,伊勢佐木町６丁目１３２番地１ライオンズプラザ伊勢佐木モール１０１号室,,14,104,2310045,,,,,,,2024-05-10,1,,,,,トウエン,0
815,3020001157108,新規,0,2024-05-10,2024-05-10,株式会社ＬｙＲ,,株式会社,神奈川県,横浜市南区,六ツ川２丁目１４４,,14,105,2320066,,,,,,,2024-05-10,1,,,,,リル,0
816,3020001157173,新規,0,2024-05-10,2024-05-10,株式会社ブッダ,,株式会社,神奈川県,横浜市保土ケ谷区,今井町７８４－１レジデンス美立橋６０３,,14,106,2400035,,,,,,,2024-05-10,1,,,,,ブッダ,0
817,3020001157181,新規,0,2024-05-10,2024-05-10,株式会社ＦＡＭ,,株式会社,神奈川県,横浜市西区,浅間町１丁目４番３号ウィザードビル４０２,,14,103,2200072,,,,,,,2024-05-10,1,,,,,エフエーエム,0
820,3020003026054,新規,0,2024-05-10,2024-05-10,合同会社コアインサイト,,合同会社,神奈川県,横浜市戸塚区,矢部町８１８－１ベルフォート４０１号,,14,110,2440002,,,,,,,2024-05-10,1,,,,,コアインサイト,0
821,3020003026070,新規,0,2024-05-10,2024-05-10,ＡＳＯ　ＬＡＢＯ合同会社,,合同会社,神奈川県,川崎市中原区,木月２丁目１２番２７－１０１号,,14,133,2110025,,,,,,,2024-05-10,1,,,,,アソラボ,0
822,3020003026087,新規,0,2024-05-10,2024-05-10,合同会社いちたすサポート,,合同会社,神奈川県,横浜市南区,六ツ川２丁目１１１番地１８,,14,105,2320066,,,,,,,2024-05-10,1,,,,,イチタスサポート,0
827,3021003014461,新規,0,2024-05-10,2024-05-10,合同会社Ｃｈｉｌｄ　Ｇｒａｃｅ,,合同会社,神奈川県,逗子市,桜山３丁目１５番１４号２０１,,14,208,2490005,,,,,,,2024-05-10,1,,,,,チャイルドグレース,0
828,3021003014486,新規,0,2024-05-10,2024-05-10,合同会社Ｖｉｌｌａｇｅ,,合同会社,神奈川県,藤沢市,本藤沢３丁目１０番１号,,14,205,2510875,,,,,,,2024-05-10,1,,,,,ヴィレッジ,0
844,3030001160259,新規,0,2024-05-10,2024-05-10,株式会社アクティブ,,株式会社,埼玉県,坂戸市,南町１５－１０、２階,,11,239,3500233,,,,,,,2024-05-10,1,,,,,アクティブ,0
849,3030003024271,新規,0,2024-05-10,2024-05-10,ＷＫＪ合同会社,,合同会社,埼玉県,三郷市,早稲田２丁目２７番地１５,,11,237,3410018,,,,,,,2024-05-10,1,,,,,ダブルケイジェイ,0
850,3030003024288,新規,0,2024-05-10,2024-05-10,友来商事合同会社,,合同会社,埼玉県,川口市,西川口１丁目３０番２０－６１３号室,,11,203,3320021,,,,,,,2024-05-10,1,,,,,ユウライショウジ,0
856,3040001133486,新規,0,2024-05-10,2024-05-10,株式会社浦安サイリ,,株式会社,千葉県,浦安市,高洲３丁目３番６号,,12,227,2790023,,,,,,,2024-05-10,1,,,,,ウラヤスサイリ,0
857,3040001133494,新規,0,2024-05-10,2024-05-10,グリーンパートナーズ株式会社,,株式会社,千葉県,成田市,押畑２２１１,,12,211,2860845,,,,,,,2024-05-10,1,,,,,グリーンパートナーズ,0
858,3040001133503,新規,0,2024-05-10,2024-05-10,ＲＫ企画株式会社,,株式会社,千葉県,佐倉市,中志津３丁目３６番１１,,12,212,2850843,,,,,,,2024-05-10,1,,,,,アールケーキカク,0
861,3040003024948,新規,0,2024-05-10,2024-05-10,合同会社ＤＭ７号,,合同会社,千葉県,柏市,柏４丁目５番１０号,,12,217,2770005,,,,,,,2024-05-10,1,,,,,ディーエムナナゴウ,0
862,3040003024956,新規,0,2024-05-10,2024-05-10,合同会社クラスウィズ,,合同会社,千葉県,印西市,小倉台４丁目１番地６棟５０３号,,12,231,2701356,,,,,,,2024-05-10,1,,,,,クラスウィズ,0
863,3040003024964,新規,0,2024-05-10,2024-05-10,合同会社大翔電設,,合同会社,千葉県,市川市,押切１４－１２－３０１,,12,203,2720107,,,,,,,2024-05-10,1,,,,,ダイショウデンセツ,0
874,3060001037082,新規,0,2024-05-10,2024-05-10,ふくろう不動産＆カフェ株式会社,,株式会社,栃木県,河内郡上三川町,大字上蒲生２２１３番地１５０,,09,301,3290617,,,,,,,2024-05-10,1,,,,,フクロウフドウサンアンドカフェ,0
879,3070001041711,新規,0,2024-05-10,2024-05-10,株式会社ＡＵＴＯ　ＲＥＰＡＩＲ,,株式会社,群馬県,北群馬郡吉岡町,大字上野田３７７番地２,,10,345,3703606,,,,,,,2024-05-10,1,,,,,オートリペア,0
880,3070001041736,新規,0,2024-05-10,2024-05-10,株式会社ＨＳガーデンヒルズ,,株式会社,群馬県,富岡市,上黒岩２５－８,,10,210,3702345,,,,,,,2024-05-10,1,,,,,エイチエスガーデンヒルズ,0
885,3080401027177,新規,0,2024-05-10,2024-05-10,株式会社クラフト,,株式会社,静岡県,浜松市天竜区,山東１９３５番地の１,,22,140,4313303,,,,,,,2024-05-10,1,,,,,クラフト,0
914,3120001264694,新規,0,2024-05-10,2024-05-10,株式会社デライト,,株式会社,大阪府,大阪市東淀川区,東中島１丁目２１番３１号,,27,114,5330033,,,,,,,2024-05-10,1,,,,,デライト,0
915,3120001264703,新規,0,2024-05-10,2024-05-10,株式会社ＴＭ‐ＦＯＲＷＡＲＤ,,株式会社,大阪府,大阪市生野区,巽中２丁目１５番２６号,00134687,27,116,5440013,,,,,,,2024-05-10,1,,,,,ティーエムフォワード,0
916,3120001264752,新規,0,2024-05-10,2024-05-10,美晴産業株式会社,,株式会社,大阪府,大阪市北区,豊崎３丁目１８番３－４００３号,,27,127,5310072,,,,,,,2024-05-10,1,,,,,ビセイサンギョウ,0
920,3120101069523,新規,0,2024-05-10,2024-05-10,株式会社グッドフィールド,,株式会社,大阪府,岸和田市,中井町３丁目１９番２１号,,27,202,5960003,,,,,,,2024-05-10,1,,,,,グッドフィールド,0
922,3120103005823,新規,0,2024-05-10,2024-05-10,合同会社ホダカ,,合同会社,大阪府,南河内郡河南町,大字大ヶ塚１７３番地,,27,382,5850003,,,,,,,2024-05-10,1,,,,,ホダカ,0
924,3122001038070,新規,0,2024-05-10,2024-05-10,株式会社カナオニ,,株式会社,大阪府,東大阪市,宝持４丁目１４番２１号,,27,227,5770805,,,,,,,2024-05-10,1,,,,,カナオニ,0
930,3130001077014,新規,0,2024-05-10,2024-05-10,ＭＡＳＡボディー株式会社,,株式会社,京都府,木津川市,加茂町里西鳥口８－７,,26,214,6191152,,,,,,,2024-05-10,1,,,,,マサボディー,0
931,3130001077022,新規,0,2024-05-10,2024-05-10,株式会社ＳＮＳ２．０,,株式会社,京都府,京田辺市,田辺中央１丁目２－１１アトリオパーク３０１号,,26,211,6100334,,,,,,,2024-05-10,1,,,,,エスエヌエスニテンゼロ,0
937,3140001134367,新規,0,2024-05-10,2024-05-10,株式会社高嶋デザイン製作所,00134704,株式会社,兵庫県,神戸市中央区,磯辺通３丁目１番２号大和地所三宮ビル７０５号,,28,110,6510084,,,,,,,2024-05-10,1,,,,,タカシマデザインセイサクショ,0
945,3160001025911,新規,0,2024-05-10,2024-05-10,株式会社豊サービス,,株式会社,滋賀県,湖南市,岩根中央３丁目４９番地１（１０４号）,,25,211,5203254,,,,,,,2024-05-10,1,,,,,ユタカサービス,0
947,3170003002040,新規,0,2024-05-10,2024-05-10,合同会社ＨＩＮＡＴＡ,,合同会社,和歌山県,和歌山市,馬場２２７番地１,,30,201,6400353,,,,,,,2024-05-10,1,,,,,ヒナタ,0
951,3180001161341,新規,0,2024-05-10,2024-05-10,株式会社アイケンガラス,,株式会社,愛知県,名古屋市港区,小碓１丁目８２番地,,23,111,4550801,,,,,,,2024-05-10,1,,,,,アイケンガラス,0
952,3180001161366,新規,0,2024-05-10,2024-05-10,株式会社ｈｉｐｐｏ,,株式会社,愛知県,名古屋市昭和区,鶴舞２丁目９番３号Ｓ－ＦＯＲＴ鶴舞ｒｅａｌｅ９０４号,,23,107,4660064,,,,,,,2024-05-10,1,,,,,ヒッポ,0
959,3180003026724,新規,0,2024-05-10,2024-05-10,合同会社Ｓ２,,合同会社,愛知県,名古屋市西区,東岸町２丁目４６番地イルレジーナＩ３０５号,00134683,23,104,4510076,,,,,,,2024-05-10,1,,,,,エスツー,0
960,3180003026757,新規,0,2024-05-10,2024-05-10,合同会社ｍｉｕｍｉｕ,,合同会社,愛知県,名古屋市中区,新栄２丁目４６番１号グランルクレ新栄イースト２０１,,23,106,4600007,,,,,,,2024-05-10,1,,,,,ミウミウ,0
961,3180005020618,新規,0,2024-05-10,2024-05-10,弁護士法人早河弘毅法律事務所,,その他の設立登記法人,愛知県,名古屋市北区,大曽根３丁目１０番７号,,23,103,4620825,,,,,,,2024-05-10,1,,,,,ハヤカワヒロキホウリツジムショ,0
963,3180301038611,新規,0,2024-05-10,2024-05-10,株式会社ＳＡＮＤＢＯＸ,,株式会社,愛知県,刈谷市,松坂町３丁目７４番地１,,23,210,4480822,,,,,,,2024-05-10,1,,,,,サンドボックス,0
965,3190001031337,新規,0,2024-05-10,2024-05-10,株式会社りのあいな,,株式会社,三重県,松阪市,郷津町２５１番地７,,24,204,5150002,,,,,,,2024-05-10,1,,,,,リノアイナ,0
967,3190003004679,新規,0,2024-05-10,2024-05-10,ネイラ工業合同会社,,合同会社,三重県,鈴鹿市,西条２丁目２３番２号ラフォーレ西条Ａ‐１Ａ,,24,207,5130809,,,,,,,2024-05-10,1,,,,,ネイラコウギョウ,0
968,3200001042489,新規,0,2024-05-10,2024-05-10,トモエ株式会社,,株式会社,岐阜県,岐阜市,正木１５５２番地１８,,21,201,5020857,,,,,,,2024-05-10,1,,,,,トモエ,0
977,3230001020335,新規,0,2024-05-10,2024-05-10,桶谷電気株式会社,,株式会社,富山県,射水市,白石５５７番地６,,16,211,9330207,,,,,,,2024-05-10,1,,,,,オケタニデンキ,0
978,3230003002199,新規,0,2024-05-10,2024-05-10,富山彫塑合同会社,,合同会社,富山県,中新川郡立山町,寺田２０５,,16,323,9300204,,,,,,,2024-05-10,1,,,,,トヤマチョウソ,0
988,3260001039050,新規,0,2024-05-10,2024-05-10,株式会社ナイン,,株式会社,岡山県,岡山市北区,津高１４４４番地１１２,,33,101,7011152,,,,,,,2024-05-10,1,,,,,ナイン,0
1006,3330003010365,新規,0,2024-05-10,2024-05-10,合同会社縁,,合同会社,熊本県,熊本市中央区,花畑町１番１４号Ａ＆Ｍ－ＨＡＮＡＢＡＴＡ３０１号,,43,101,8600806,,,,,,,2024-05-10,1,,,,,エン,0
1016,3370001051275,新規,0,2024-05-10,2024-05-10,エムジーシー株式会社,,株式会社,宮城県,仙台市宮城野区,中野１丁目３番２６号,,04,102,9830013,,,,,,,2024-05-10,1,,,,,エムジーシー,0
1017,3370001051291,新規,0,2024-05-10,2024-05-10,株式会社Ｌｅ’ａ,,株式会社,宮城県,大崎市,古川大崎字伏見地蔵堂浦２５,,04,215,9896227,,,,,,,2024-05-10,1,,,,,レア,0
1025,3390001017605,新規,0,2024-05-10,2024-05-10,Ｌｙｄｉａ株式会社,,株式会社,山形県,西村山郡河北町,谷地字嶋２１８－２,,06,321,9993511,,,,,,,2024-05-10,1,,,,,リディア,0
1027,3400001016654,新規,0,2024-05-10,2024-05-10,株式会社ＳＨＩＮ　ｃｒｅａｔｅｓ,,株式会社,岩手県,一関市,藤沢町増沢字下薗沢４６番地,,03,209,0293401,,,,,,,2024-05-10,1,,,,,シンクリエイツ,0
1031,3420001018715,新規,0,2024-05-10,2024-05-10,株式会社あおでんひがし店,,株式会社,青森県,青森市,虹ケ丘１丁目１４番地１６,,02,201,0300948,,,,,,,2024-05-10,1,,,,,アオデンヒガシテン,0
1038,3430001091769,新規,0,2024-05-10,2024-05-10,ＹＫ湯浅株式会社,,株式会社,北海道,札幌市白石区,北郷五条８丁目１２番３６号,,01,104,0030835,,,,,,,2024-05-10,1,,,,,ワイケイユアサ,0
1039,3430001091777,新規,0,2024-05-10,2024-05-10,ｄｏｕｂｌｅ　ｏｎｅ株式会社,,株式会社,北海道,苫小牧市,字錦岡７６１番地の１,,01,213,0591275,,,,,,,2024-05-10,1,,,,,ダブルワン,0
1040,3430001091785,新規,0,2024-05-10,2024-05-10,株式会社ＭＡＳＴＥＲＳＨＯＴ,,株式会社,北海道,札幌市中央区,旭ケ丘３丁目８番２８号,,01,101,0640941,,,,,,,2024-05-10,1,,,,,マスターショット,0
1042,3430005014981,新規,0,2024-05-10,2024-05-10,農事組合法人鈴木ファーム,,その他の設立登記法人,北海道,札幌市北区,北十二条西１丁目２番２４号３０３号,,01,102,0010012,,,,,,,2024-05-10,1,,,,,スズキファーム,0
1045,3470003002646,新規,0,2024-05-10,2024-05-10,合同会社フロートリーフクリエイション,,合同会社,香川県,綾歌郡綾川町,陶２０１６番地８,,37,387,7612103,,,,,,,2024-05-10,1,,,,,フロートリーフクリエイション,0
1052,3700150116753,新規,0,2024-05-10,2024-05-10,Ｎｉｎｇｂｏ　ｋａｌｉｎｇｋｅ　ｇｕｏｊｉ　ｍａｏｙｉ　ｙｏｕｘｉａｎｇｏｎｇ　ｓｉ,,外国会社等,,,,,,,,Ｈａｉｓｈｕｑｕ，Ｊｉｃｈａｎｇｌｕ　１０００Ｈａｏ，６　Ｈａｏｌｏｕ，１４５　Ｓｈｉ，Ｎｉｎｇｂｏ，Ｚｈｅｊｉａｎｇ，Ｃｈｉｎａ，３１５１００，ＣＮ,,,,,,2024-05-10,1,,,,,ニンポーカリョウカコクサイボウエキユウゲンコウシ,0
1064,4010001244723,新規,0,2024-05-10,2024-05-10,株式会社ＥｌｅｃｔｒｏＦｌｕｘｉｏｎ,,株式会社,東京都,文京区,本郷６丁目２５番１４号,,13,105,1130033,,,,,,,2024-05-10,1,,,,,エレクトロフラクション,0
1070,4010003043710,新規,0,2024-05-10,2024-05-10,合同会社ＺＥＨ南九州ファンド２号,,合同会社,東京都,中央区,銀座４丁目６番１号三幸アセットマネジメント株式会社内,,13,102,1040061,,,,,,,2024-05-10,1,,,,,ゼッチミナミキュウシュウファンドニゴウ,0
1071,4010101016130,新規,0,2024-05-10,2024-05-10,Ｆｒｅｅ株式会社,,株式会社,東京都,八王子市,東浅川町５２３－１３,,13,201,1930834,,,,,,,2024-05-10,1,,,,,フリー,0
1080,4010403032569,新規,0,2024-05-10,2024-05-10,ＷｉｎｇＷｉｎｋＷｏｒｋｓ合同会社,,合同会社,東京都,港区,東新橋２丁目７番３号昭和アステック１号館ＴＨＥ　ＨＵＢ汐留２１４号室,,13,103,1050021,,,,,,,2024-05-10,1,,,,,ウィングウィンクワークス,0
1081,4010405023178,新規,0,2024-05-10,2024-05-10,一般社団法人介護フィナンシャル協会,,その他の設立登記法人,東京都,港区,北青山１丁目３番１号アールキューブ青山３階,,13,103,1070061,,,,,,,2024-05-10,1,,,,,カイゴフィナンシャルキョウカイ,0
1082,4010405023244,新規,0,2024-05-10,2024-05-10,一般社団法人ホテルプロジェクト高山,,その他の設立登記法人,東京都,港区,元赤坂１丁目１番８号株式会社赤坂国際会計内,,13,103,1070051,,,,,,,2024-05-10,1,,,,,ホテルプロジェクトタカヤマ,0
1089,4010601065057,新規,0,2024-05-10,2024-05-10,株式会社Ｂｉｌｅｔ,,株式会社,東京都,墨田区,立川１丁目１８番６－２０１号,,13,107,1300023,,,,,,,2024-05-10,1,,,,,ビレト,0
1090,4010601065115,新規,0,2024-05-10,2024-05-10,Ｓｕｐｅｒｓｔｒｉｎｇ　Ｔｅｃｈ株式会社,,株式会社,東京都,墨田区,江東橋４丁目１６－１０ハミング錦糸町１０２,,13,107,1300022,,,,,,,2024-05-10,1,,,,,スーパーストリングテック,0
1091,4010601065172,新規,0,2024-05-10,2024-05-10,株式会社ＳｅｎｓｅＦｉｅｌｄ,,株式会社,東京都,江東区,青海２丁目７‐４ｔｈｅＳＯＨＯ９３１,,13,108,1350064,,,,,,,2024-05-10,1,,,,,センスフィールド,0
1092,4010603010812,新規,0,2024-05-10,2024-05-10,Ｆ．Ｐ．Ｓ．ＰＲＥＳＳ合同会社,,合同会社,東京都,墨田区,両国２丁目２０番１２ライオンズステーションプラザ両国６０２号,,13,107,1300026,,,,,,,2024-05-10,1,,,,,エフピーエスプレス,0
1093,4010603010829,新規,0,2024-05-10,2024-05-10,合同会社ＨＩＲ,,合同会社,東京都,江東区,南砂３丁目１３番６号ＨＥＢＥＬＨＡＵＳ南砂町２０１,,13,108,1360076,,,,,,,2024-05-10,1,,,,,エイチアイアール,0
1099,4010801035017,新規,0,2024-05-10,2024-05-10,山王キャピタル株式会社,,株式会社,東京都,大田区,大森北１丁目３０番５号,,13,111,1430016,,,,,,,2024-05-10,1,,,,,サンノウキャピタル,0
1100,4010801035041,新規,0,2024-05-10,2024-05-10,株式会社オプティマライズド,,株式会社,東京都,大田区,上池台３丁目３６－８,,13,111,1450064,,,,,,,2024-05-10,1,,,,,オプティマライズド,0
1105,4010903009042,新規,0,2024-05-10,2024-05-10,Ｃｅｌｌｍｉｎｇ　Ｊａｐａｎ合同会社,,合同会社,東京都,世田谷区,鎌田２丁目２３番１－４０１号,,13,112,1570077,,,,,,,2024-05-10,1,,,,,セルミグジャパン,0
1108,4011001161487,新規,0,2024-05-10,2024-05-10,株式会社ＫＩＫＹＯ,,株式会社,東京都,渋谷区,神南１丁目２３番１０号,,13,113,1500041,,,,,,,2024-05-10,1,,,,,キキョウ,0
1109,4011001161818,新規,0,2024-05-10,2024-05-10,株式会社ジョシュ,,株式会社,東京都,渋谷区,道玄坂１丁目１０番８号渋谷道玄坂東急ビル２Ｆ－Ｃ,,13,113,1500043,,,,,,,2024-05-10,1,,,,,ジョシュ,0
1110,4011001161842,新規,0,2024-05-10,2024-05-10,株式会社ｓｈａｐｅ,,株式会社,東京都,渋谷区,恵比寿西１丁目３１－１４グリーンマンション２０１,,13,113,1500021,,,,,,,2024-05-10,1,,,,,シェープ,0
1111,4011001161859,新規,0,2024-05-10,2024-05-10,株式会社ＳＡＴＩＯ,,株式会社,東京都,渋谷区,道玄坂１丁目１０番８号渋谷道玄坂東急ビル２Ｆ‐Ｃ,,13,113,1500043,,,,,,,2024-05-10,1,,,,,サチオ,0
1112,4011001161867,新規,0,2024-05-10,2024-05-10,ＭＴメディカル株式会社,,株式会社,東京都,目黒区,下目黒１丁目１番１４号コノトラビル７Ｆ,,13,110,1530064,,,,,,,2024-05-10,1,,,,,エムティーメディカル,0
1113,4011001161891,新規,0,2024-05-10,2024-05-10,スプートニク株式会社,,株式会社,東京都,渋谷区,渋谷２丁目１９番１５号宮益坂ビルディング６０９,,13,113,1500002,,,,,,,2024-05-10,1,,,,,スプートニク,0
1114,4011003019064,新規,0,2024-05-10,2024-05-10,合同会社ビハインドデスク,,合同会社,東京都,渋谷区,渋谷２丁目１９－１５宮益坂ビルディング６０９,,13,113,1500002,,,,,,,2024-05-10,1,,,,,ビハインドデスク,0
1115,4011003019089,新規,0,2024-05-10,2024-05-10,合同会社Ｏｍｎｅｋｙ,,合同会社,東京都,渋谷区,宇田川町１５番１号渋谷パルコＤＧビル,,13,113,1500042,,,,,,,2024-05-10,1,,,,,オムニキ,0
1116,4011003019097,新規,0,2024-05-10,2024-05-10,Ｚｏｏｍｉｅｓ合同会社,,合同会社,東京都,目黒区,中目黒１丁目１番１７号ＷＬ３０５,,13,110,1530061,,,,,,,2024-05-10,1,,,,,ズーミーズ,0
1117,4011003019130,新規,0,2024-05-10,2024-05-10,Ｒｏｗｅｒｓ　Ｐａｒｔｎｅｒｓ合同会社,,合同会社,東京都,渋谷区,道玄坂１丁目１０番８号渋谷道玄坂東急ビル２Ｆ－Ｃ,,13,113,1500043,,,,,,,2024-05-10,1,,,,,ロワーズパートナーズ,0
1125,4011101107258,新規,0,2024-05-10,2024-05-10,ＲｕＡｎ株式会社,,株式会社,東京都,新宿区,大久保３丁目８番１－５０７号,,13,104,1690072,,,,,,,2024-05-10,1,,,,,ルアン,0
1127,4011301029632,新規,0,2024-05-10,2024-05-10,株式会社ＩＬＤＡＮ,,株式会社,東京都,杉並区,阿佐谷北１丁目４７番１３－２０１号,,13,115,1660001,,,,,,,2024-05-10,1,,,,,イルダン,0
1136,4011801044206,新規,0,2024-05-10,2024-05-10,株式会社Ｙｏｌａｉｚ,,株式会社,東京都,葛飾区,お花茶屋３丁目２７－２,,13,122,1240003,,,,,,,2024-05-10,1,,,,,ヨーライズ,0
1137,4011803006229,新規,0,2024-05-10,2024-05-10,合同会社リヨ,,合同会社,東京都,足立区,足立３丁目２９番１０号－１０３,,13,121,1200015,,,,,,,2024-05-10,1,,,,,リヨ,0
1141,4012801023158,新規,0,2024-05-10,2024-05-10,株式会社Ｌ＆Ａｉｒ,,株式会社,東京都,日野市,神明３丁目１番地の１２プライムホームズ日野４０３,,13,212,1910016,,,,,,,2024-05-10,1,,,,,エルアンドエアー,0
1150,4020001157065,新規,0,2024-05-10,2024-05-10,奇峰科技株式会社,,株式会社,神奈川県,横浜市中区,本牧町２丁目３１３番地７サングレイス本牧４０３号室,,14,104,2310806,,,,,,,2024-05-10,1,,,,,キホウカギ,0
1151,4020001157115,新規,0,2024-05-10,2024-05-10,蜃気楼株式会社,,株式会社,神奈川県,横浜市西区,北幸２丁目１０番４８号むつみビル３階,,14,103,2200004,,,,,,,2024-05-10,1,,,,,シンキロウ,0
1155,4020003026086,新規,0,2024-05-10,2024-05-10,ｍ２Ｒ合同会社,,合同会社,神奈川県,横浜市青葉区,大場町３６２番地６４,,14,117,2250023,,,,,,,2024-05-10,1,,,,,エムツーアール,0
1160,4021001082179,新規,0,2024-05-10,2024-05-10,株式会社オージーオート,,株式会社,神奈川県,相模原市中央区,田名５９５３番地４,,14,152,2520244,,,,,,,2024-05-10,1,,,,,オージーオート,0
1174,4030001160233,新規,0,2024-05-10,2024-05-10,飛辰株式会社,,株式会社,埼玉県,川口市,大字東本郷１０３８番地の１グレースマンション１０６号,,11,203,3340063,,,,,,,2024-05-10,1,,,,,ヒシン,0
1175,4030001160241,新規,0,2024-05-10,2024-05-10,株式会社ＶＯＬＴＥＣＨＳ,,株式会社,埼玉県,さいたま市大宮区,宮町２丁目９３番地２,,11,103,3300802,,,,,,,2024-05-10,1,,,,,ボルテクス,0
1176,4030001160258,新規,0,2024-05-10,2024-05-10,テクマＢＨＲ株式会社,,株式会社,埼玉県,蕨市,塚越１丁目１１番７号,,11,223,3350002,,,,,,,2024-05-10,1,,,,,テクマビーエイチアール,0
1177,4030001160274,新規,0,2024-05-10,2024-05-10,株式会社ニコタ,,株式会社,埼玉県,川越市,大字鯨井６２８番地１,,11,201,3500815,,,,,,,2024-05-10,1,,,,,ニコタ,0
1178,4030001160324,新規,0,2024-05-10,2024-05-10,青鳥国際株式会社,,株式会社,埼玉県,川口市,西川口１丁目３０番２０－１０８号室,,11,203,3320021,,,,,,,2024-05-10,1,,,,,アオトリコクサイ,0
1184,4030003024254,新規,0,2024-05-10,2024-05-10,合同会社ペコ,,合同会社,埼玉県,比企郡鳩山町,楓ヶ丘３丁目２４番１２号,,11,348,3500314,,,,,,,2024-05-10,1,,,,,ペコ,0
1185,4030003024270,新規,0,2024-05-10,2024-05-10,大福建設合同会社,,合同会社,埼玉県,川口市,幸町２丁目８－２９,,11,203,3320016,,,,,,,2024-05-10,1,,,,,ダイフクケンセツ,0
1193,4040001133493,新規,0,2024-05-10,2024-05-10,株式会社Ｚ,,株式会社,千葉県,野田市,木間ケ瀬５５１番地５,,12,208,2700222,,,,,,,2024-05-10,1,,,,,ゼット,0
1196,4040003024971,新規,0,2024-05-10,2024-05-10,ＹＡＲＲＡ　ＬＡＮＫＡ合同会社,,合同会社,千葉県,東金市,台方１２０８番地６,,12,213,2830811,,,,,,,2024-05-10,1,,,,,ヤルラランカ,0
1198,4040005022387,新規,0,2024-05-10,2024-05-10,一般社団法人バングラデシュ財団ジャパン,,その他の設立登記法人,千葉県,市川市,柏井町２丁目１２９５番地２２,,12,203,2720802,,,,,,,2024-05-10,1,,,,,バングラディスザイダンジャパン,0
1206,4070001041727,新規,0,2024-05-10,2024-05-10,株式会社鉄板焼ステーキ久保田,,株式会社,群馬県,太田市,本町５０番１９号,,10,205,3730057,,,,,,,2024-05-10,1,,,,,テッパンヤキステーキクボタ,0
1210,4080101024738,新規,0,2024-05-10,2024-05-10,株式会社コトノス,,株式会社,静岡県,富士市,錦町１丁目１５番地２２,,22,210,4170045,,,,,,,2024-05-10,1,,,,,コトノス,0
1214,4080401027176,新規,0,2024-05-10,2024-05-10,株式会社ポラリス,,株式会社,静岡県,浜松市中央区,鴨江２丁目４４番２３号スギモトビル１Ｆ東側,,22,138,4328023,,,,,,,2024-05-10,1,,,,,ポラリス,0
1220,4100001037416,新規,0,2024-05-10,2024-05-10,株式会社あぐりん,,株式会社,長野県,安曇野市,明科中川手９３５番地１,,20,220,3997102,,,,,,,2024-05-10,1,,,,,アグリン,0
1238,4120001264660,新規,0,2024-05-10,2024-05-10,株式会社ブロードリアルティテクノロジーズ,,株式会社,大阪府,大阪市北区,太融寺町５番１５号,,27,127,5300051,,,,,,,2024-05-10,1,,,,,ブロードリアルティテクノロジーズ,0
1239,4120001264669,新規,0,2024-05-10,2024-05-10,タイキ化学株式会社,,株式会社,大阪府,大阪市平野区,加美北９丁目４番２０号,,27,126,5470001,,,,,,,2024-05-10,1,,,,,タイキカガク,0
1240,4120001264685,新規,0,2024-05-10,2024-05-10,株式会社藤田商会,,株式会社,大阪府,大阪市北区,中津１丁目２番１８号,,27,127,5310071,,,,,,,2024-05-10,1,,,,,フジタショウカイ,0
1241,4120001264693,新規,0,2024-05-10,2024-05-10,株式会社ユウ不動産建設,,株式会社,大阪府,大阪市北区,西天満５丁目１４番７号和光ビル５階,,27,127,5300047,,,,,,,2024-05-10,1,,,,,ユウフドウサンケンセツ,0
1242,4120001264702,新規,0,2024-05-10,2024-05-10,エースロジ株式会社,,株式会社,大阪府,大阪市西区,阿波座１丁目７番１２号東新ビル８階８０３号室,,27,106,5500011,,,,,,,2024-05-10,1,,,,,エースロジ,0
1243,4120001264710,新規,0,2024-05-10,2024-05-10,株式会社グッドサービス,,株式会社,大阪府,大阪市西成区,南津守５丁目６番４３号,,27,122,5570063,,,,,,,2024-05-10,1,,,,,グッドサービス,0
1247,4120003026539,新規,0,2024-05-10,2024-05-10,合同会社Ｌａ　ｒｅｃｏｌｔｅ　ｂｉｏ,,合同会社,大阪府,枚方市,東香里新町１９－５９,,27,210,5730077,,,,,,,2024-05-10,1,,,,,ラレコルテビオ,0
1249,4120101069522,新規,0,2024-05-10,2024-05-10,株式会社ＷＡＫＯ,,株式会社,大阪府,岸和田市,磯上町６丁目１６番１１号,,27,202,5960001,,,,,,,2024-05-10,1,,,,,ワコー,0
1250,4120101069530,新規,0,2024-05-10,2024-05-10,株式会社Ｇｒａｎｄｅ,,株式会社,大阪府,泉大津市,東助松町１丁目４番２１号,,27,206,5950006,,,,,,,2024-05-10,1,,,,,グランデ,0
1251,4120101069539,新規,0,2024-05-10,2024-05-10,株式会社Ｆ．Ｉ．Ｎ,,株式会社,大阪府,堺市堺区,北瓦町２丁３番１１号,,27,141,5900076,,,,,,,2024-05-10,1,,,,,エフアイエヌ,0
1252,4120101069547,新規,0,2024-05-10,2024-05-10,ＩＮＯＧＯ株式会社,,株式会社,大阪府,堺市南区,高倉台２丁３－３,,27,145,5900117,,,,,,,2024-05-10,1,,,,,イノゴ,0
1253,4120103005814,新規,0,2024-05-10,2024-05-10,ＭＩＫＥ合同会社,,合同会社,大阪府,泉佐野市,泉ケ丘１丁目９番１６ロイヤルヒルズ泉ヶ丘１０６号,,27,213,5980072,,,,,,,2024-05-10,1,,,,,ミケ,0
1255,4120901049145,新規,0,2024-05-10,2024-05-10,グロースアップ株式会社,,株式会社,大阪府,豊中市,桜の町１丁目８番１４の２号,,27,203,5600054,,,,,,,2024-05-10,1,,,,,グロースアップ,0
1263,4130001076980,新規,0,2024-05-10,2024-05-10,株式会社ｈｏｍｅ　ｄｉａｒｙ,,株式会社,京都府,京都市左京区,一乗寺染殿町５－１－２,,26,103,6068174,,,,,,,2024-05-10,1,,,,,ホームダイアリー,0
1267,4130003009550,新規,0,2024-05-10,2024-05-10,Ｋａｎｇｅｔｓｕｄｏ合同会社,,合同会社,京都府,京都市伏見区,桃山町泰長老１６０番地４,,26,109,6128034,,,,,,,2024-05-10,1,,,,,カンゲツドウ,0
1270,4140001134309,新規,0,2024-05-10,2024-05-10,ＣＩＡ株式会社,,株式会社,兵庫県,西宮市,神呪町１４番３４－１０１号,,28,204,6620823,,,,,,,2024-05-10,1,,,,,シーアイエー,0
1275,4170001018129,新規,0,2024-05-10,2024-05-10,株式会社ＧＭフェロー,,株式会社,和歌山県,和歌山市,粟３２番地１５,,30,201,6408462,,,,,,,2024-05-10,1,,,,,ジーエムフェロー,0
1279,4180001161266,新規,0,2024-05-10,2024-05-10,株式会社Ｈａｒｉｎｅｚｕｍｉ,,株式会社,愛知県,名古屋市緑区,篠の風１丁目９１３番地,,23,114,4580015,,,,,,,2024-05-10,1,,,,,ハリネズミ,0
1280,4180001161308,新規,0,2024-05-10,2024-05-10,株式会社社会効率化推進センター,,株式会社,愛知県,名古屋市中区,丸の内１丁目１３番１１号ジャルダン桜橋８Ｆ,,23,106,4600002,,,,,,,2024-05-10,1,,,,,シャカイコウリツカスイシンセンター,0
1281,4180001161349,新規,0,2024-05-10,2024-05-10,株式会社ＭＯＣ,,株式会社,愛知県,名古屋市中区,栄３丁目２５番４号クレストパーク２Ａ号室,,23,106,4600008,,,,,,,2024-05-10,1,,,,,エムオーシー,0
1284,4180003026723,新規,0,2024-05-10,2024-05-10,合同会社ＲＩＺＥ,,合同会社,愛知県,名古屋市中村区,中村中町２丁目１４番地,,23,105,4530831,,,,,,,2024-05-10,1,,,,,ライズ,0
1285,4180003026756,新規,0,2024-05-10,2024-05-10,合同会社Ｂｅｅ　Ｑｅｕｓｔ,,合同会社,愛知県,名古屋市中区,錦１丁目１７－１３名興ビル３Ｆ,,23,106,4600003,,,,,,,2024-05-10,1,,,,,ビークエスト,0
1298,4230001020334,新規,0,2024-05-10,2024-05-10,越後技研株式会社,,株式会社,富山県,富山市,高田５２７番地,,16,201,9300866,,,,,,,2024-05-10,1,,,,,エチゴギケン,0
1300,4240001063209,新規,0,2024-05-10,2024-05-10,株式会社Ａｌｈａｍｂｒａ,,株式会社,広島県,広島市中区,流川町１番２５号４階,,34,101,7300028,,,,,,,2024-05-10,1,,,,,アルハンブラ,0
1305,4240003006660,新規,0,2024-05-10,2024-05-10,合同会社辰巳農園,,合同会社,広島県,三次市,山家町６６２番地２,,34,209,7280001,,,,,,,2024-05-10,1,,,,,タツミノウエン,0
1309,4250003003500,新規,0,2024-05-10,2024-05-10,合同会社ｃｏｎｎｅｃｔ‐結び,,合同会社,山口県,宇部市,西宇部南２丁目１２番３３号３階,,35,202,7590208,,,,,,,2024-05-10,1,,,,,コネクトムスビ,0
1315,4290001105600,新規,0,2024-05-10,2024-05-10,株式会社ＴＨＥ　ＳＯＮＧ,,株式会社,福岡県,福岡市博多区,博多駅南３丁目１３番１７号小山ビル１Ｆ－１Ｂ,,40,132,8120016,,,,,,,2024-05-10,1,,,,,テソン,0
1316,4290001105617,新規,0,2024-05-10,2024-05-10,株式会社Ｉ‐ＮＯＴＥ,,株式会社,福岡県,福岡市東区,高美台２丁目１４番１５号,,40,131,8110215,,,,,,,2024-05-10,1,,,,,アイノテ,0
1317,4290001105625,新規,0,2024-05-10,2024-05-10,株式会社Ｓｕｐｅｒｃｅｌｌ,,株式会社,福岡県,福岡市博多区,博多駅前３丁目９番１４号３Ｆ,,40,132,8120011,,,,,,,2024-05-10,1,,,,,スーパーセル,0
1324,4300001013727,新規,0,2024-05-10,2024-05-10,ＤＥＪＩＭＡ　ＪＡＰＡＮ株式会社,,株式会社,佐賀県,杵島郡白石町,大字築切８４１－２４,,41,425,8491103,,,,,,,2024-05-10,1,,,,,デジマジャパン,0
1345,4360003013942,新規,0,2024-05-10,2024-05-10,合同会社Ｂ・Ｍ・Ｏ注文の多い料理店,,合同会社,沖縄県,石垣市,字大浜１３４９－１３３プカラッサＩＩ３－Ｃ,00134686,47,207,9070001,,,,,,,2024-05-10,1,,,,,ビエムオーチューモンノオオイリョウリテン,0
1353,4370003006598,新規,0,2024-05-10,2024-05-10,ＴＡＫＥＳＨＩＴＡクリーンサービス合同会社,,合同会社,宮城県,仙台市泉区,高森２丁目１番地の５０ＰＡＲＫＷＯＯＤ高森９０２,,04,105,9813203,,,,,,,2024-05-10,1,,,,,タケシタクリーンサービス,0
1367,4410001013831,新規,0,2024-05-10,2024-05-10,佐藤インテリア株式会社,,株式会社,秋田県,大仙市,豊岡字肥前１５２番地,,05,212,0140712,,,,,,,2024-05-10,1,,,,,サトウインテリア,0
1368,4410005006583,新規,0,2024-05-10,2024-05-10,農事組合法人ファーム中嶋,,その他の設立登記法人,秋田県,横手市,平鹿町浅舞字大中嶋１６５番地１,,05,203,0130105,,,,,,,2024-05-10,1,,,,,,0
1372,4430001091735,新規,0,2024-05-10,2024-05-10,アクトＨＤ株式会社,,株式会社,北海道,札幌市中央区,北一条西２０丁目１番２７号,,01,101,0640821,,,,,,,2024-05-10,1,,,,,アクトホールディングス,0
1374,4430003016302,新規,0,2024-05-10,2024-05-10,Ａｑｕａｔｉｎｔ合同会社,,合同会社,北海道,札幌市北区,北七条西４丁目１番１号トーカン札幌第一キャステール６０７,,01,102,0600807,,,,,,,2024-05-10,1,,,,,アクアティント,0
1384,4500003003243,新規,0,2024-05-10,2024-05-10,合同会社長盛園コンサルティング,,合同会社,愛媛県,松山市,中島大浦６５１番地,,38,201,7914501,,,,,,,2024-05-10,1,,,,,チョウセイエンコンサルティング,0
1385,4700150122412,新規,0,2024-05-10,2024-05-10,ｗｅｎｚｈｏｕ　ｂｅｉｊｉｅ　ｔｒａｄｉｎｇ　ｃｏ．，ｌｔｄ,,外国会社等,,,,,,,,ｊｉｎｇｊｉ　ｊｉｓｈｕ　ｋａｉｆａ　ｑｕ，ｔｉａｎｈｅ　ｊｉｅｄａｏ，ｔｉａｎｍａ　ｄａｊｉｅ　１７８ｎｏｎｇ，２９－３２ｈａｏ，ｄｉｙｉ　ｃｅｎｇ　ｗｅｎｚｈｏｕ　ｓｈｉ　ｚｈｅｊｉａｎｇ　ｓｈｅｎｇ　３２５０００　ＣＮ,,,,,,2024-05-10,1,,,,,ウエンジヨウベイジエマオイーヨウシエンゴンスー,0
1386,4700150123055,新規,0,2024-05-10,2024-05-10,Ｔａｂｌｅｔ　２　Ｃａｓｅｓ　Ｌｔｄ,,外国会社等,,,,,,,,ＯＦＦＩＣＥ　４，１０／Ｆ　ＫＷＡＮ　ＣＨＡＲＴ　ＴＯＷＥＲ．ＮＯ．６　Ｔｏｎｎｏｃｈｙ　Ｒｏａｄ　Ｈｏｎｇ　Ｋｏｎｇ　Ｗａｎｃｈａｉ　ＷＡＮＣＨＡＩ　ＨＫ,,,,,,2024-05-10,1,,,,,テイーアービーエルイーテイーシーアーエスイーエスエルテイーデイー,0
1387,4700150123170,新規,0,2024-05-10,2024-05-10,Ｓｈｅｎｚｈｅｎ　Ａｏｂａｓｉｔｅ　Ｔｅｃｈｎｏｌｏｇｙ　Ｃｏ．，Ｌｔｄ,,外国会社等,,,,,,,,Ｎａｎｙｕａｎ　Ｓｔｒｅｅｔ　Ｂａｇｕａ　４　Ｒｏａｄ　Ｚｈｏｎｇｈａｏ　Ｂｕｉｌｄｉｎｇ　３０８　Ｒｏｏｍ　Ｆｕｔｉａｎ　Ｄｉｓｔｒｉｃｔ　Ｇｕａｎｇｄｏｎｇ　Ｐｒｏｖｉｎｃｅ　Ｓｈｅｎｚｈｅｎ　Ｃｉｔｙ,,,,,,2024-05-10,1,,,,,シエンジエンシーアオバースーターコージーヨウシエンゴンスー,0
1388,4700150123360,新規,0,2024-05-10,2024-01-17,富津市ふれあいスポーツフェスタ実行委員会,,その他,千葉県,富津市,下飯野２４４３,,12,226,2930006,,,,,,,2024-01-17,1,,,,,フツツシフレアイスポーツフエスタジツコウイインカイ,0
1389,4700150124945,新規,0,2024-05-10,2024-04-18,中間市地域公共交通会議,,その他,福岡県,中間市,中間１丁目１番１号,,40,215,8090034,,,,,,,2024-04-18,1,,,,,ナカマシチイキコウキヨウコウツウカイギ,0
1390,4700150125209,新規,0,2024-05-10,2024-05-10,Ｈｕｉｚｈｏｕ　Ｈｕｉｊｕｄａ　ｔｅｃｈｎｏｌｏｇｙ　ｃｏ．ｌｔｄ,,外国会社等,,,,,,,,１ｓｔ　Ｆｌｏｏｒ，Ｕｎｉｔ　０７，Ｂｕｉｌｄｉｎｇ　１８，Ｓｈｕｉｙｕｅ　Ｌｏｎｇｗａｎ，Ｎｏ．１　Ｃｈａｎｇｈｕｎａｎ　Ｒｏａｄ，Ｑｉａｏｄｏｎｇ,,,,,,2024-05-10,1,,,,,フイジョウフイジーダーコージーヨウシエンゴンスー,0
1403,5010001244557,新規,0,2024-05-10,2024-05-10,株式会社アタックル,,株式会社,東京都,中央区,新川２丁目１０番１号庄田ビル２０２号室,,13,102,1040033,,,,,,,2024-05-10,1,,,,,アタックル,0
1404,5010001244581,新規,0,2024-05-10,2024-05-10,ワテック販売株式会社,,株式会社,東京都,千代田区,外神田５丁目５番１０号Ｏ．Ｋビル７階,,13,101,1010021,,,,,,,2024-05-10,1,,,,,ワテックハンバイ,0
1405,5010001244656,新規,0,2024-05-10,2024-05-10,サニーズ株式会社,,株式会社,東京都,千代田区,内神田１丁目９番５号ＳＦ内神田ビル８階,,13,101,1010047,,,,,,,2024-05-10,1,,,,,サニーズ,0
1406,5010001244680,新規,0,2024-05-10,2024-05-10,水賀池公園ミライプロジェクト株式会社,,株式会社,東京都,千代田区,丸の内２丁目２番３号,,13,101,1000005,,,,,,,2024-05-10,1,,,,,ミズガイケコウエンミライプロジェクト,0
1408,5010003043668,新規,0,2024-05-10,2024-05-10,合同会社ＫＦＡ,,合同会社,東京都,中央区,日本橋室町１丁目１１番１２号日本橋水野ビル７階,,13,102,1030022,,,,,,,2024-05-10,1,,,,,ケーエフエー,0
1410,5010005038294,新規,0,2024-05-10,2024-05-10,一般社団法人ＦＤ,,その他の設立登記法人,東京都,千代田区,丸の内１丁目６番１号,,13,101,1000005,,,,,,,2024-05-10,1,,,,,エフディー,0
1417,5010401182316,新規,0,2024-05-10,2024-05-10,株式会社エクシア,,株式会社,東京都,港区,芝浦４丁目１９番１－２３１３号,,13,103,1080023,,,,,,,2024-05-10,1,,,,,エクシア,0
1419,5010403032592,新規,0,2024-05-10,2024-05-10,合同会社ＳＴＡＲ　ｏｆ　ＳＯＵＬ,,合同会社,東京都,港区,南青山２丁目２番１５号ｗｉｎ青山ビル,,13,103,1070062,,,,,,,2024-05-10,1,,,,,スターオブソウル,0
1424,5010601065147,新規,0,2024-05-10,2024-05-10,株式会社安川,,株式会社,東京都,墨田区,文花１丁目３４番１１－２０５号,,13,107,1310044,,,,,,,2024-05-10,1,,,,,ヤスカワ,0
1431,5010701045949,新規,0,2024-05-10,2024-05-10,Ｌａ‐ｆｉｔ株式会社,,株式会社,東京都,品川区,北品川５丁目５番１５号大崎ブライトコア４階ＳＨＩＰ,,13,109,1410001,,,,,,,2024-05-10,1,,,,,ラフィット,0
1434,5010901055228,新規,0,2024-05-10,2024-05-10,株式会社八劫堂,,株式会社,東京都,世田谷区,南烏山１丁目２８番１４号,,13,112,1570062,,,,,,,2024-05-10,1,,,,,ハッコウドウ,0
1435,5010901055252,新規,0,2024-05-10,2024-05-10,株式会社ＲｅＣｒｅ,,株式会社,東京都,世田谷区,池尻３丁目１８番３号,,13,112,1540001,,,,,,,2024-05-10,1,,,,,リクレ,0
1444,5011001161817,新規,0,2024-05-10,2024-05-10,アクターネットワーク・デザイン株式会社,,株式会社,東京都,渋谷区,上原１丁目１８番７号,,13,113,1510064,,,,,,,2024-05-10,1,,,,,アクターネットワークデザイン,0
1445,5011001161833,新規,0,2024-05-10,2024-05-10,株式会社Ａｃｏｒｅ　Ｅｎｔｅｒｔａｉｎｍｅｎｔ,,株式会社,東京都,渋谷区,道玄坂１丁目１６－６二葉ビル８ｂ,,13,113,1500043,,,,,,,2024-05-10,1,,,,,アコアエンターテイメント,0
1446,5011001161890,新規,0,2024-05-10,2024-05-10,株式会社クラウン,,株式会社,東京都,渋谷区,渋谷２丁目１９番１５号宮益坂ビルディング６０９,,13,113,1500002,,,,,,,2024-05-10,1,,,,,クラウン,0
1449,5011003019105,新規,0,2024-05-10,2024-05-10,ゆいまぁる合同会社,,合同会社,東京都,渋谷区,円山町５番５号Ｎａｖｉ渋谷Ｖ３階,,13,113,1500044,,,,,,,2024-05-10,1,,,,,ユイマァル,0
1453,5011103014393,新規,0,2024-05-10,2024-05-10,合同会社ユウ,,合同会社,東京都,新宿区,西新宿６丁目１５番１号,,13,104,1600023,,,,,,,2024-05-10,1,,,,,ユウ,0
1454,5011103014402,新規,0,2024-05-10,2024-05-10,Ｔ＆Ｍ合同会社,,合同会社,東京都,新宿区,南榎町６８番地,,13,104,1620852,,,,,,,2024-05-10,1,,,,,ティーアンドエム,0
1456,5011105011018,新規,0,2024-05-10,2024-05-10,一般社団法人ウラノス・エコシステム推進センター,,その他の設立登記法人,東京都,新宿区,西新宿６丁目１２番７号ストーク新宿１Ｆ・Ｂ－１９号一般社団法人システムイノベーションセンター内,,13,104,1600023,,,,,,,2024-05-10,1,,,,,ウラノスエコシステムスイシンセンター,0
1459,5011301029631,新規,0,2024-05-10,2024-05-10,株式会社ｔｅｌ‐ｑｕｅｌ,,株式会社,東京都,杉並区,阿佐谷北１丁目１４－３ルピナス阿佐ヶ谷６０２,,13,115,1660001,,,,,,,2024-05-10,1,,,,,テルケル,0
1460,5011301029648,新規,0,2024-05-10,2024-05-10,株式会社山荷葉,,株式会社,東京都,杉並区,天沼３丁目９番１２号ＯＧＩ－ＳＵＮ・Ｃ号室,,13,115,1670032,,,,,,,2024-05-10,1,,,,,サンカヨウ,0
1465,5011705001830,新規,0,2024-05-10,2024-05-10,一般社団法人農業活性化組合,,その他の設立登記法人,東京都,江戸川区,大杉１丁目１７－７－２Ｆ,,13,123,1320022,,,,,,,2024-05-10,1,,,,,ノウギョウカッセイカクミアイ,0
1466,5011803006228,新規,0,2024-05-10,2024-05-10,合同会社ＤＷＥ,,合同会社,東京都,葛飾区,柴又７丁目１５－５アストレア２０５,,13,122,1250052,,,,,,,2024-05-10,1,,,,,ディダブルイー,0
1469,5012701018249,新規,0,2024-05-10,2024-05-10,ワンインククリエーション株式会社,,株式会社,東京都,西東京市,田無町３丁目５番５－６０３号,,13,229,1880011,,,,,,,2024-05-10,1,,,,,ワンインククリエーション,0
1471,5012801023157,新規,0,2024-05-10,2024-05-10,株式会社ユーネット,,株式会社,東京都,昭島市,朝日町２丁目２番４号さつきコーポ２０３号,,13,207,1960025,,,,,,,2024-05-10,1,,,,,ユーネット,0
1472,5012803003388,新規,0,2024-05-10,2024-05-10,合同会社君塚,,合同会社,東京都,日野市,新井２丁目１６－１１,,13,212,1910022,,,,,,,2024-05-10,1,,,,,キミヅカ,0
1485,5020001157155,新規,0,2024-05-10,2024-05-10,株式会社ＡｔｏＺＳｐｏｒｔｓ,,株式会社,神奈川県,横浜市都筑区,中川７丁目５番１３号,,14,118,2240001,,,,,,,2024-05-10,1,,,,,エーツーゼットスポーツ,0
1488,5020003026060,新規,0,2024-05-10,2024-05-10,三和合同会社,,合同会社,神奈川県,横浜市磯子区,滝頭２丁目１８－１コーポファイブ２０１,,14,107,2350012,,,,,,,2024-05-10,1,,,,,サンワ,0
1490,5020005016407,新規,0,2024-05-10,2024-05-10,一般社団法人明日への架け橋,,その他の設立登記法人,神奈川県,横浜市戸塚区,名瀬町２８７８番地８１,,14,110,2450051,,,,,,,2024-05-10,1,,,,,アスヘノカケハシ,0
1496,5021005013105,新規,0,2024-05-10,2024-05-10,ＮＰＯ法人ＡＳＯＶＩＶＡＲＴ,,その他の設立登記法人,神奈川県,茅ヶ崎市,中海岸４丁目８番８－１０１号カーサ湘南,,14,207,2530055,,,,,,,2024-05-10,1,,,,,アソビバート,0
1501,5030001160216,新規,0,2024-05-10,2024-05-10,株式会社アルファクリエイト,,株式会社,埼玉県,越谷市,南越谷５丁目１７番地２－５０２,,11,222,3430845,,,,,,,2024-05-10,1,,,,,アルファクリエイト,0
1502,5030001160240,新規,0,2024-05-10,2024-05-10,株式会社東拓プロパティ,,株式会社,埼玉県,草加市,谷塚町９２４番地１ラントシャフト２０１号,,11,221,3400023,,,,,,,2024-05-10,1,,,,,トウタクプロパティ,0
1503,5030001160257,新規,0,2024-05-10,2024-05-10,プリンシプル株式会社,,株式会社,埼玉県,川越市,連雀町２２番地２０,,11,201,3500066,,,,,,,2024-05-10,1,,,,,プリンシプル,0
1504,5030001160273,新規,0,2024-05-10,2024-05-10,株式会社Ｆｕｔｕｒｅ　Ｌｉｎｋ　Ｍｏｔｉｖａｔｉｏｎ,,株式会社,埼玉県,さいたま市南区,辻１丁目３番１４号１階,00134691,11,108,3360026,,,,,,,2024-05-10,1,,,,,,0
1507,5030003024253,新規,0,2024-05-10,2024-05-10,合同会社フォーサイト,,合同会社,埼玉県,さいたま市大宮区,桜木町２丁目３番地大宮マルイ７階,,11,103,3300854,,,,,,,2024-05-10,1,,,,,フォーサイト,0
1508,5030003024261,新規,0,2024-05-10,2024-05-10,合同会社さとら丸,,合同会社,埼玉県,川越市,大字大袋新田４４９番地５,,11,201,3501167,,,,,,,2024-05-10,1,,,,,サトラマル,0
1516,5040001133419,新規,0,2024-05-10,2024-05-10,株式会社イーエフェクト,,株式会社,千葉県,松戸市,常盤平３丁目１８番地の２デュオリスタ松戸常盤平５０３号,,12,207,2702261,,,,,,,2024-05-10,1,,,,,イーエフェクト,0
1517,5040001133492,新規,0,2024-05-10,2024-05-10,株式会社Ｓｕｎ‐ｆｌｏｗｅｒ,,株式会社,千葉県,香取郡多古町,十余三３５５番地５４,,12,347,2892306,,,,,,,2024-05-10,1,,,,,サンフラワー,0
1518,5040001133501,新規,0,2024-05-10,2024-05-10,株式会社最上,,株式会社,千葉県,船橋市,金杉４丁目１３番１６号,,12,204,2730853,,,,,,,2024-05-10,1,,,,,モガミ,0
1519,5040001133518,新規,0,2024-05-10,2024-05-10,株式会社Ｂａｃｋ‐Ｕｐ,,株式会社,千葉県,市原市,山田橋３丁目１１番地３３ボックスヒルＩＩ２０２号室,00134692,12,219,2900021,,,,,,,2024-05-10,1,,,,,バックアップ,0
1520,5040001133526,新規,0,2024-05-10,2024-05-10,株式会社Ｅｎｒｉｃｈ,,株式会社,千葉県,柏市,常盤台１３番２７号バンデルオーラ２０２号,,12,217,2770087,,,,,,,2024-05-10,1,,,,,エンリッチ,0
1524,5040003024896,新規,0,2024-05-10,2024-05-10,合同会社ＬｉｎＱ,,合同会社,千葉県,浦安市,弁天３丁目２－１３－４,,12,227,2790026,,,,,,,2024-05-10,1,,,,,リンク,0
1525,5040003024946,新規,0,2024-05-10,2024-05-10,合同会社ＰＷテック,,合同会社,千葉県,八千代市,ゆりのき台７丁目２６番地１４ディアスゆりのき台Ｂ－１０１,,12,221,2760042,,,,,,,2024-05-10,1,,,,,ピーダブルテック,0
1526,5040003024970,新規,0,2024-05-10,2024-05-10,合同会社Ｇ‐ＯＮＥ,,合同会社,千葉県,千葉市中央区,本千葉町３－７－１１０３号室,,12,101,2600014,,,,,,,2024-05-10,1,,,,,ジーワン,0
1530,5050001054746,新規,0,2024-05-10,2024-05-10,Ｍ’ｓ　Ｆａｒｍａ株式会社,,株式会社,茨城県,つくば市,二の宮４丁目８番地１店舗棟,,08,220,3050051,,,,,,,2024-05-10,1,,,,,エムズファーマ,0
1532,5060001037056,新規,0,2024-05-10,2024-05-10,株式会社船田商店,,株式会社,栃木県,栃木市,藤岡町赤麻４２４３番地４,,09,203,3231102,,,,,,,2024-05-10,1,,,,,フナダショウテン,0
1533,5060001037072,新規,0,2024-05-10,2024-05-10,株式会社ＺＧコーポレーション,,株式会社,栃木県,小山市,大字南和泉５１８番地,,09,208,3230816,,,,,,,2024-05-10,1,,,,,ゼットジーコーポレーション,0
1534,5060001037080,新規,0,2024-05-10,2024-05-10,株式会社創律,,株式会社,栃木県,小山市,大字喜沢６３２番地６８,,09,208,3230014,,,,,,,2024-05-10,1,,,,,ソウリツ,0
1540,5070001041734,新規,0,2024-05-10,2024-05-10,株式会社大童設備工業,,株式会社,群馬県,館林市,坂下町３０４６番地,,10,207,3740069,,,,,,,2024-05-10,1,,,,,ダイドウセツビコウギョウ,0
1559,5120001264676,新規,0,2024-05-10,2024-05-10,株式会社ＣＲＯＷＬＡＢＯ,,株式会社,大阪府,大阪市中央区,内淡路町２丁目４番１０号グランダム内淡路２０１,,27,128,5400038,,,,,,,2024-05-10,1,,,,,クロウラボ,0
1560,5120001264684,新規,0,2024-05-10,2024-05-10,株式会社ＮＫキャッスル,,株式会社,大阪府,大阪市西区,江戸堀２丁目７番２６－１３０４号,,27,106,5500002,,,,,,,2024-05-10,1,,,,,エヌケイキャッスル,0
1561,5120001264692,新規,0,2024-05-10,2024-05-10,家康株式会社,,株式会社,大阪府,大阪市西成区,岸里東１丁目２９－３フォレストゲート岸里東５０３号室,,27,122,5570042,,,,,,,2024-05-10,1,,,,,イエヤス,0
1562,5120001264742,新規,0,2024-05-10,2024-05-10,株式会社Ｉｎｎｏｖａｔｉｖｅ　Ｃｏｍｐａｎｙ,,株式会社,大阪府,大阪市西成区,南津守１丁目５番５４号,,27,122,5570063,,,,,,,2024-05-10,1,,,,,イノベイティブカンパニー,0
1563,5120001264750,新規,0,2024-05-10,2024-05-10,株式会社マニアジャパン,,株式会社,大阪府,大阪市西区,北堀江１丁目１４番９号ＡＶＡＮＺＡ北堀江４Ｆ,,27,106,5500014,,,,,,,2024-05-10,1,,,,,マニアジャパン,0
1564,5120001264800,新規,0,2024-05-10,2024-05-10,スカイイノベート株式会社,,株式会社,大阪府,大阪市西成区,橘３丁目１０番１２号,,27,122,5570051,,,,,,,2024-05-10,1,,,,,スカイイノベート,0
1567,5120003026538,新規,0,2024-05-10,2024-05-10,合同会社ふたつ乃,,合同会社,大阪府,寝屋川市,成田東町２９番３号,,27,215,5720001,,,,,,,2024-05-10,1,,,,,フタツノ,0
1570,5120101069521,新規,0,2024-05-10,2024-05-10,株式会社龍馬建設工業,,株式会社,大阪府,堺市南区,釜室５８番,,27,145,5900122,,,,,,,2024-05-10,1,,,,,リョウマケンセツコウギョウ,0
1571,5120103005813,新規,0,2024-05-10,2024-05-10,尾川建装合同会社,,合同会社,大阪府,富田林市,桜井町１丁目５番３１号,,27,214,5840013,,,,,,,2024-05-10,1,,,,,オガワケンソウ,0
1573,5122001038044,新規,0,2024-05-10,2024-05-10,七福貿易株式会社,,株式会社,大阪府,八尾市,竹渕西２丁目１６９,,27,212,5810051,,,,,,,2024-05-10,1,,,,,シチフクボウエキ,0
1574,5122001038060,新規,0,2024-05-10,2024-05-10,株式会社政七,,株式会社,大阪府,大東市,氷野１丁目１５番２号,,27,218,5740062,,,,,,,2024-05-10,1,,,,,マサシチ,0
1577,5130001077029,新規,0,2024-05-10,2024-05-10,エム・エスツアープランニング株式会社,,株式会社,京都府,京都市下京区,大黒町２２７番地第２キョートビル４０１,,26,106,6008043,,,,,,,2024-05-10,1,,,,,エムエスツアープランニング,0
1585,5140001134349,新規,0,2024-05-10,2024-05-10,株式会社キヅケル,,株式会社,兵庫県,姫路市,嵐山町１９番地６－３Ｆ,,28,201,6700029,,,,,,,2024-05-10,1,,,,,キヅケル,0
1586,5140001134357,新規,0,2024-05-10,2024-05-10,株式会社ＣＯＳＭＯＳ,,株式会社,兵庫県,神戸市兵庫区,荒田町２丁目７－１３,,28,105,6520032,,,,,,,2024-05-10,1,,,,,コスモス,0
1588,5140003020522,新規,0,2024-05-10,2024-05-10,Ｅｖｅｒリゾート合同会社,,合同会社,兵庫県,加古川市,加古川町北在家２６８１番地,,28,210,6750031,,,,,,,2024-05-10,1,,,,,エバーリゾート,0
1594,5180001161315,新規,0,2024-05-10,2024-05-10,株式会社興伊盛,,株式会社,愛知県,名古屋市名東区,猪子石３丁目１２１７番地の２,,23,115,4650021,,,,,,,2024-05-10,1,,,,,オキイモリ,0
1595,5180001161331,新規,0,2024-05-10,2024-05-10,株式会社ブルーグリーン,,株式会社,愛知県,小牧市,大字本庄２６１３番地１４０,,23,219,4850821,,,,,,,2024-05-10,1,,,,,ブルーグリーン,0
1596,5180001161356,新規,0,2024-05-10,2024-05-10,株式会社サクラ技研,,株式会社,愛知県,名古屋市西区,十方町１７０番地,,23,104,4520837,,,,,,,2024-05-10,1,,,,,サクラギケン,0
1597,5180001161372,新規,0,2024-05-10,2024-05-10,株式会社ＴＲＩＧＯＮ,,株式会社,愛知県,清須市,清洲田中町３２番地１１,,23,233,4520942,,,,,,,2024-05-10,1,,,,,トライゴン,0
1598,5180001161397,新規,0,2024-05-10,2024-05-10,ａｇｒｅｅ株式会社,,株式会社,愛知県,名古屋市中村区,名駅３丁目４番１０号アルティメイト名駅１ｓｔ２階,,23,105,4500002,,,,,,,2024-05-10,1,,,,,アグリー,0
1599,5180001161406,新規,0,2024-05-10,2024-05-10,株式会社芽々,,株式会社,愛知県,名古屋市南区,五条町２丁目１番地の１０８,,23,112,4570851,,,,,,,2024-05-10,1,,,,,メメ,0
1606,5200003006341,新規,0,2024-05-10,2024-05-10,ＢＢＣ合同会社,,合同会社,岐阜県,土岐市,駄知町１７９７番地の９３,,21,212,5095401,,,,,,,2024-05-10,1,,,,,ビービーシー,0
1609,5230001020333,新規,0,2024-05-10,2024-05-10,株式会社福本工業,,株式会社,富山県,射水市,本江針山２４４番地３,,16,211,9330248,,,,,,,2024-05-10,1,,,,,フクモトコウギョウ,0
1617,5260001039016,新規,0,2024-05-10,2024-05-10,株式会社１４６,,株式会社,岡山県,岡山市東区,西大寺中野７００番地７,,33,103,7048191,,,,,,,2024-05-10,1,,,,,イチヨンロク,0
1631,5330003010363,新規,0,2024-05-10,2024-05-10,合同会社ソラミズジャパン,,合同会社,熊本県,阿蘇郡小国町,大字宮原１６３５－５コーポグリーングラス２階Ｂ,,43,424,8692501,,,,,,,2024-05-10,1,,,,,ソラミズジャパン,0
1632,5330005010790,新規,0,2024-05-10,2024-05-10,一般社団法人ひごのいえ,,その他の設立登記法人,熊本県,下益城郡美里町,名越谷３９４０番地,,43,348,8614736,,,,,,,2024-05-10,1,,,,,ヒゴノイエ,0
1635,5370003006606,新規,0,2024-05-10,2024-05-10,合同会社おおさきミコファーム,,合同会社,宮城県,大崎市,古川新田字川原１２－２,,04,215,9896226,,,,,,,2024-05-10,1,,,,,オオサキミコファーム,0
1639,5380001034533,新規,0,2024-05-10,2024-05-10,エフアンドシー株式会社,,株式会社,福島県,双葉郡双葉町,大字新山字下条５３番地１,,07,546,9791472,,,,,,,2024-05-10,1,,,,,エフアンドシー,0
1648,5410005006582,新規,0,2024-05-10,2024-05-10,農事組合法人小杉山ファーム,,その他の設立登記法人,秋田県,大仙市,土川字小杉山１０番地,,05,212,0192111,,,,,,,2024-05-10,1,,,,,コスギヤマファーム,0
1654,5430001091734,新規,0,2024-05-10,2024-05-10,株式会社Ｎｌｏｕｇｈ,,株式会社,北海道,小樽市,新光３丁目１２番１０３号,,01,203,0470152,,,,,,,2024-05-10,1,,,,,エヌラフ,0
1655,5430001091767,新規,0,2024-05-10,2024-05-10,株式会社Ｌ・Ｏ,,株式会社,北海道,札幌市中央区,南十二条西６丁目１番２０－３０９号,,01,101,0640912,,,,,,,2024-05-10,1,,,,,ロウ,0
1667,5700150123054,新規,0,2024-05-10,2024-05-10,Ｈｕｎａｎ　Ｘｉａｎｇｃｈｕｎ　ｅｌｅｃｔｒｏｎｉｃ　ｃｏｍｍｅｒｃｅ　Ｃｏ．，ＬＴＤ,,外国会社等,,,,,,,,Ｒｏｏｍ　１３１９－６，１３ｔｈ　Ｆｌｏｏｒ，Ｆｉｌｍ　ａｎｄ　Ｔｅｌｅｖｉｓｉｏｎ　Ｉｎｔｅｒｎａｔｉｏｎａｌ　Ｂｕｓｉｎｅｓｓ　Ｃｅｎｔｅｒ　Ｂｕｉｌｄｉｎｇ，Ｓｔｉｉｄｕ　Ｍｉｄｄｌｅ　Ｒｏａｄ，Ｌｅｎｇｓｈｕｉｊｉａｎｇ　Ｓｔｒｅｅｔ，Ｌｅｎｇｓｈｕｉｊｉａｎｇ　Ｃｉｔｙ,,,,,,2024-05-10,1,,,,,フーナンシヨンシヤンチユンデイエンズーシヤンウーヨウシエンゴンスー,0
1668,5700150124944,新規,0,2024-05-10,2024-04-18,聾宝手話映画,,その他,京都府,長岡京市,一文橋２丁目３番８号,,26,209,6170825,,,,,,,2024-04-18,1,,,,,ロウホウシユワエイガ,0
1669,5700150125208,新規,0,2024-05-10,2024-05-10,相続財産法人（被相続人　土谷泉）,,その他,大阪府,大阪市東住吉区,矢田３丁目１１番２４号,,27,121,5460023,,,,,,,2024-05-10,1,,,,,ソウゾクザイサンホウジンヒソウゾクニンツチヤイズミ,0
1685,6010003043700,新規,0,2024-05-10,2024-05-10,合同会社ありんこ,,合同会社,東京都,千代田区,神田和泉町１－６－１６ヤマトビル５０２,,13,101,1010024,,,,,,,2024-05-10,1,,,,,アリンコ,0
1686,6010005038285,新規,0,2024-05-10,2024-05-10,一般社団法人ステップアップ月島,,その他の設立登記法人,東京都,中央区,月島１丁目１７番１２号,,13,102,1040052,,,,,,,2024-05-10,1,,,,,,0
1699,6010401182249,新規,0,2024-05-10,2024-05-10,ＳＴＲＡＴＩＣＳ株式会社,,株式会社,東京都,港区,白金１丁目２５番２１－２２０２号,,13,103,1080072,,,,,,,2024-05-10,1,,,,,ストラティクス,0
1700,6010401182323,新規,0,2024-05-10,2024-05-10,ジャパン・雇用ソリューション株式会社,,株式会社,東京都,港区,六本木６丁目１番２０号,,13,103,1060032,,,,,,,2024-05-10,1,,,,,ジャパンコヨウソリューション,0
1701,6010401182348,新規,0,2024-05-10,2024-05-10,幻境エンターテイメント株式会社,,株式会社,東京都,港区,新橋５丁目１２番１１号天翔新橋５丁目ビル７階７０３号室,,13,103,1050004,,,,,,,2024-05-10,1,,,,,ゲンキョウエンターテイメント,0
1702,6010401182356,新規,0,2024-05-10,2024-05-10,ＮＩＲＡ　Ｄｙｎａｍｉｃｓ　Ｊａｐａｎ株式会社,,株式会社,東京都,港区,六本木１丁目１０番３号,,13,103,1060032,,,,,,,2024-05-10,1,,,,,ニラダイナミクスジャパン,0
1704,6010503007436,新規,0,2024-05-10,2024-05-10,ランガムホール・ジャパン合同会社,,合同会社,東京都,台東区,駒形２丁目４番１６－４０３号ベルザ駒形,,13,106,1110043,,,,,,,2024-05-10,1,,,,,ランガムホールジャパン,0
1709,6010601065154,新規,0,2024-05-10,2024-05-10,株式会社枢,,株式会社,東京都,江東区,東砂８丁目６番９号,,13,108,1360074,,,,,,,2024-05-10,1,,,,,クルル,0
1712,6010701045956,新規,0,2024-05-10,2024-05-10,象山貿易株式会社,,株式会社,東京都,品川区,勝島１丁目７番１５,,13,109,1400012,,,,,,,2024-05-10,1,,,,,ゾウザンボウエキ,0
1714,6010703007161,新規,0,2024-05-10,2024-05-10,合同会社Ｔｗｏ　ｒａｉｌｓ,,合同会社,東京都,品川区,西大井１丁目１３番４号,,13,109,1400015,,,,,,,2024-05-10,1,,,,,トゥーレイルズ,0
1729,6011001161832,新規,0,2024-05-10,2024-05-10,ａｏ株式会社,,株式会社,東京都,渋谷区,渋谷２丁目１９－１５宮益坂ビルディング６０９,,13,113,1500002,,,,,,,2024-05-10,1,,,,,アオ,0
1730,6011001161849,新規,0,2024-05-10,2024-05-10,株式会社ＦＵＴＳＵＫＩ,,株式会社,東京都,渋谷区,恵比寿３丁目４３番３－８０１号,,13,113,1500013,,,,,,,2024-05-10,1,,,,,フツキ,0
1731,6011001161881,新規,0,2024-05-10,2024-05-10,株式会社ＳＡＭＣ,,株式会社,東京都,渋谷区,代々木５丁目３４番８号ベルテ代々木２０１,,13,113,1510053,,,,,,,2024-05-10,1,,,,,エスエーエムシー,0
1733,6011003019104,新規,0,2024-05-10,2024-05-10,合同会社まる,,合同会社,東京都,渋谷区,道玄坂１丁目１０番８号渋谷道玄坂東急ビル２Ｆ－Ｃ,,13,113,1500043,,,,,,,2024-05-10,1,,,,,マル,0
1734,6011003019129,新規,0,2024-05-10,2024-05-10,ＦｌｅｘｉＬｉｎｋ合同会社,,合同会社,東京都,渋谷区,渋谷２丁目１９－１５宮益坂ビルディング６０９,,13,113,1500002,,,,,,,2024-05-10,1,,,,,フレキシリンク,0
1737,6011101107198,新規,0,2024-05-10,2024-05-10,ＮＤＨＤ株式会社,,株式会社,東京都,新宿区,百人町２丁目２４番１０号,,13,104,1690073,,,,,,,2024-05-10,1,,,,,エヌディホールディングス,0
1741,6011201025432,新規,0,2024-05-10,2024-05-10,株式会社オーガイ,,株式会社,東京都,中野区,本町２丁目４１－７,,13,114,1640012,,,,,,,2024-05-10,1,,,,,オーガイ,0
1749,6011503006056,新規,0,2024-05-10,2024-05-10,Ａｒｚｕｗｙ合同会社,,合同会社,東京都,北区,赤羽１丁目７－９赤羽第一葉山ビル４Ｆ,,13,117,1150045,,,,,,,2024-05-10,1,,,,,アルズウイ,0
1755,6011803006219,新規,0,2024-05-10,2024-05-10,合同会社プメハナ,,合同会社,東京都,葛飾区,亀有３丁目２１－７小澤ビル１Ｆ,,13,122,1250061,,,,,,,2024-05-10,1,,,,,プメハナ,0
1756,6011803006227,新規,0,2024-05-10,2024-05-10,合同会社ＪＭＫ,,合同会社,東京都,足立区,東保木間２丁目２９番１号,,13,121,1210063,,,,,,,2024-05-10,1,,,,,ジェイエムケー,0
1758,6012701018248,新規,0,2024-05-10,2024-05-10,株式会社ニシエンジニアリングマニュファクチャ,,株式会社,東京都,東村山市,富士見町１丁目１２番地２ヴィラージュ・ヴェール九番館７１１,,13,213,1890024,,,,,,,2024-05-10,1,,,,,ニシエンジニアリングマニュファクチャ,0
1759,6012703002984,新規,0,2024-05-10,2024-05-10,合同会社Ｌａｔｔｅ　Ａｓｓｅｔ　Ｍａｎａｇｅｍｅｎｔ,,合同会社,東京都,西東京市,芝久保町４丁目１４番５号,,13,229,1880014,,,,,,,2024-05-10,1,,,,,ラテアセットマネジメント,0
1769,6020001157105,新規,0,2024-05-10,2024-05-10,ＴＤＮ　ＧｅｏＡＩ株式会社,,株式会社,神奈川県,川崎市麻生区,万福寺１丁目８番７号パストラル新百合ヶ丘４０２号,,14,137,2150004,,,,,,,2024-05-10,1,,,,,ティーディーエヌジオエーアイ,0
1770,6020001157170,新規,0,2024-05-10,2024-05-10,株式会社１ＯＮＥ,,株式会社,神奈川県,横浜市都筑区,川向町１２９４番地１－２階,,14,118,2240044,,,,,,,2024-05-10,1,,,,,ワン,0
1771,6020001157179,新規,0,2024-05-10,2024-05-10,株式会社桃栄,,株式会社,神奈川県,川崎市川崎区,本町２丁目２番地５,,14,131,2100001,,,,,,,2024-05-10,1,,,,,トウエイ,0
1774,6020003026051,新規,0,2024-05-10,2024-05-10,合同会社オフィスタゴ,,合同会社,神奈川県,川崎市川崎区,南町２０番地１５－１１０６,,14,131,2100015,,,,,,,2024-05-10,1,,,,,オフィスタゴ,0
1775,6020003026068,新規,0,2024-05-10,2024-05-10,合同会社ＩＵＣ,,合同会社,神奈川県,横浜市神奈川区,金港町５－１４クアドリフォリオ８階,,14,102,2210056,,,,,,,2024-05-10,1,,,,,アイユーシー,0
1776,6020003026092,新規,0,2024-05-10,2024-05-10,合同会社ＳＳＫ,,合同会社,神奈川県,川崎市中原区,下小田中１丁目１７番１１－１０４号,,14,133,2110041,,,,,,,2024-05-10,1,,,,,エスエスケイ,0
1778,6020005016397,新規,0,2024-05-10,2024-05-10,ＮＰＯ法人多文化共生ボランティア団体ＫＡＭ,,その他の設立登記法人,神奈川県,横浜市西区,北幸１丁目１１番１号水信ビル７階,,14,103,2200004,,,,,,,2024-05-10,1,,,,,タブンカキョウセイボランティアダンタイカム,0
1785,6021003014491,新規,0,2024-05-10,2024-05-10,愛奏合同会社,,合同会社,神奈川県,横須賀市,鴨居１丁目２０番１９号,,14,201,2390813,,,,,,,2024-05-10,1,,,,,マナカ,0
1799,6030001160264,新規,0,2024-05-10,2024-05-10,株式会社ＮＥＸＳＴＥＲ,,株式会社,埼玉県,越谷市,大沢４丁目１９番４９－１０１号,,11,222,3430025,,,,,,,2024-05-10,1,,,,,ネクスター,0
1806,6030003024194,新規,0,2024-05-10,2024-05-10,Ｗａｓｉｑ　Ｍｏｔｏｒｓ合同会社,,合同会社,埼玉県,所沢市,西狭山ケ丘２丁目１９８１番,,11,208,3591163,,,,,,,2024-05-10,1,,,,,ワジックモーターズ,0
1807,6030003024244,新規,0,2024-05-10,2024-05-10,有賀答山合同会社,,合同会社,埼玉県,さいたま市中央区,大戸５丁目１２番１４号,,11,105,3380012,,,,,,,2024-05-10,1,,,,,アリガトウサン,0
1808,6030003024277,新規,0,2024-05-10,2024-05-10,ロンテン合同会社,,合同会社,埼玉県,八潮市,大字古新田１０６９番地２,,11,234,3400823,,,,,,,2024-05-10,1,,,,,ロンテン,0
1813,6040001133525,新規,0,2024-05-10,2024-05-10,華熹株式会社,,株式会社,千葉県,香取市,佐原字上宿台イ１２７９番地４－１階１０１号室,,12,236,2870000,,,,,,,2024-05-10,1,,,,,カシ,0
1818,6040003024920,新規,0,2024-05-10,2024-05-10,ｂｅｖｉｓ０８５合同会社,,合同会社,千葉県,船橋市,本町３丁目３０－１４第２１美和ハウス本町１階,,12,204,2730005,,,,,,,2024-05-10,1,,,,,ベビスゼロハチゴ,0
1835,6070001041733,新規,0,2024-05-10,2024-05-10,株式会社シーラン,,株式会社,群馬県,吾妻郡嬬恋村,大字大前字細原２２８３番地６６,,10,425,3771612,,,,,,,2024-05-10,1,,,,,シーラン,0
1839,6080001026295,新規,0,2024-05-10,2024-05-10,株式会社Ｓ．Ｉ．Ｏ,,株式会社,静岡県,静岡市葵区,紺屋町１２番地の５カプチーノ６階Ａ,,22,101,4200852,,,,,,,2024-05-10,1,,,,,エスアイオー,0
1844,6100001037414,新規,0,2024-05-10,2024-05-10,株式会社Ｍａｒｋｏｐｏｌｏ　ａｉ　Ｊａｐａｎ,,株式会社,長野県,安曇野市,堀金烏川５０５６番地２１,,20,220,3998211,,,,,,,2024-05-10,1,,,,,マルコポーロエーアイジャパン,0
1853,6120001264675,新規,0,2024-05-10,2024-05-10,株式会社ＦＩＲＳＴ　ＣＬＡＳＳ,,株式会社,大阪府,大阪市旭区,太子橋３丁目２番２－９０８号,,27,117,5350001,,,,,,,2024-05-10,1,,,,,ファーストクラス,0
1854,6120001264683,新規,0,2024-05-10,2024-05-10,株式会社ボズアトール,,株式会社,大阪府,大阪市北区,西天満３丁目８番４号,,27,127,5300047,,,,,,,2024-05-10,1,,,,,ボズアトール,0
1855,6120001264741,新規,0,2024-05-10,2024-05-10,株式会社さち動物病院,,株式会社,大阪府,寝屋川市,高柳３丁目１４番７号,,27,215,5720051,,,,,,,2024-05-10,1,,,,,サチドウブツビョウイン,0
1861,6120003026561,新規,0,2024-05-10,2024-05-10,合同会社Ｐｏｉｎｔｅｄ,,合同会社,大阪府,大阪市北区,中津１丁目１７番１７－６０１号,,27,127,5310071,,,,,,,2024-05-10,1,,,,,ポインテッド,0
1865,6120903005103,新規,0,2024-05-10,2024-05-10,アークシエル合同会社,,合同会社,大阪府,茨木市,本町６番１５号メゾン・ド・バランシャＩ３０１号,,27,211,5670818,,,,,,,2024-05-10,1,,,,,アークシエル,0
1866,6120903005169,新規,0,2024-05-10,2024-05-10,トータルグラフィックアーツ合同会社,,合同会社,大阪府,高槻市,宮田町２丁目２１番１２号,,27,207,5691142,,,,,,,2024-05-10,1,,,,,トータルグラフィックアーツ,0
1874,6130001077028,新規,0,2024-05-10,2024-05-10,株式会社ハウスデザイン,,株式会社,京都府,京都市下京区,中堂寺壬生川町７番地２４,,26,106,6008806,,,,,,,2024-05-10,1,,,,,ハウスデザイン,0
1884,6140005027077,新規,0,2024-05-10,2024-05-10,一般社団法人レクリエーションスポーツ協会,,その他の設立登記法人,兵庫県,川辺郡猪名川町,つつじが丘２丁目１番地７,,28,301,6660245,,,,,,,2024-05-10,1,,,,,レクリエーションスポーツキョウカイ,0
1886,6160001025909,新規,0,2024-05-10,2024-05-10,株式会社永工,,株式会社,滋賀県,大津市,大石小田原２丁目３番７号,,25,201,5202267,,,,,,,2024-05-10,1,,,,,エイコウ,0
1887,6170003002038,新規,0,2024-05-10,2024-05-10,Ｍｙｍ合同会社,,合同会社,和歌山県,和歌山市,井辺５２２番地,,30,201,6408302,,,,,,,2024-05-10,1,,,,,エムワイエム,0
1889,6180001161314,新規,0,2024-05-10,2024-05-10,株式会社佐々木工業,,株式会社,愛知県,一宮市,大和町妙興寺字徳法寺浦１番地２,,23,203,4910922,,,,,,,2024-05-10,1,,,,,ササキコウギョウ,0
1890,6180001161330,新規,0,2024-05-10,2024-05-10,株式会社ユース,,株式会社,愛知県,名古屋市中区,栄４丁目８番２２号第１２オーシャンビル３Ｆ,,23,106,4600008,,,,,,,2024-05-10,1,,,,,ユース,0
1891,6180001161339,新規,0,2024-05-10,2024-05-10,株式会社ＫＢエステート,,株式会社,愛知県,春日井市,柏原町１丁目２６番地,,23,206,4860913,,,,,,,2024-05-10,1,,,,,ケービーエステート,0
1892,6180001161363,新規,0,2024-05-10,2024-05-10,株式会社名古屋フラワー,,株式会社,愛知県,名古屋市西区,押切２丁目２番９号Ｓｕｇａｒｌｏａｆ　Ｐａｒｋ浅間町３０１号室,,23,104,4510063,,,,,,,2024-05-10,1,,,,,ナゴヤフラワー,0
1893,6180001161388,新規,0,2024-05-10,2024-05-10,ここつむぎクリエイション株式会社,,株式会社,愛知県,一宮市,瀬部字西山１７番地,,23,203,4910001,,,,,,,2024-05-10,1,,,,,ココツムギクリエイション,0
1894,6180001161396,新規,0,2024-05-10,2024-05-10,株式会社アストロウィズ,,株式会社,愛知県,名古屋市北区,丸新町２８０番地の１,,23,103,4620063,,,,,,,2024-05-10,1,,,,,アストロウィズ,0
1898,6180003026738,新規,0,2024-05-10,2024-05-10,合同会社Ｌｉａｃｃａ,,合同会社,愛知県,名古屋市中村区,太閤通４丁目７番地,,23,105,4530811,,,,,,,2024-05-10,1,,,,,リアッカ,0
1899,6180003026746,新規,0,2024-05-10,2024-05-10,合同会社アクアプラントテクノ,,合同会社,愛知県,名古屋市東区,葵２丁目３番４８号,,23,102,4610004,,,,,,,2024-05-10,1,,,,,アクアプラントテクノ,0
1902,6180301038617,新規,0,2024-05-10,2024-05-10,株式会社マキノクリーンサービス,,株式会社,愛知県,岡崎市,中園町字前河原５４番地１５,,23,202,4440942,,,,,,,2024-05-10,1,,,,,マキノクリーンサービス,0
1907,6200001042478,新規,0,2024-05-10,2024-05-10,株式会社ランドフォーム,,株式会社,岐阜県,中津川市,茄子川１６４４番地１,,21,206,5099132,,,,,,,2024-05-10,1,,,,,ランドフォーム,0
1909,6200003006340,新規,0,2024-05-10,2024-05-10,合同会社スマイルワン,,合同会社,岐阜県,多治見市,虎渓山町５丁目３０－３,,21,204,5070014,,,,,,,2024-05-10,1,,,,,スマイルワン,0
1911,6210001019748,新規,0,2024-05-10,2024-05-10,和幸株式会社,,株式会社,福井県,福井市,森行町第３号８番地１,,18,201,9188171,,,,,,,2024-05-10,1,,,,,ワコウ,0
1912,6230001020332,新規,0,2024-05-10,2024-05-10,株式会社内記商店,,株式会社,富山県,高岡市,本町２番７号,,16,202,9330913,,,,,,,2024-05-10,1,,,,,ナイキショウテン,0
1916,6240001063198,新規,0,2024-05-10,2024-05-10,株式会社おもいかね,,株式会社,広島県,廿日市市,住吉２丁目１４番１４号,,34,213,7380014,,,,,,,2024-05-10,1,,,,,オモイカネ,0
1925,6260001039056,新規,0,2024-05-10,2024-05-10,株式会社Ｔｕｌｅｖｉｋ,,株式会社,岡山県,玉野市,槌ケ原１１２３番地３８,,33,204,7060141,,,,,,,2024-05-10,1,,,,,トゥレヴィク,0
1929,6270001008968,新規,0,2024-05-10,2024-05-10,株式会社ＴＥＲＲＡＳ,,株式会社,鳥取県,東伯郡三朝町,大字三徳９８９番地３,,31,364,6820132,,,,,,,2024-05-10,1,,,,,テラス,0
1930,6270003001624,新規,0,2024-05-10,2024-05-10,合同会社Ｄｏｌｌｙ‐Ｉｎ,,合同会社,鳥取県,八頭郡八頭町,見槻中１５４－２,,31,329,6800404,,,,,,,2024-05-10,1,,,,,,0
1935,6290001105581,新規,0,2024-05-10,2024-05-10,株式会社Ｎｉｈｏｎｉｕｍ,,株式会社,福岡県,糟屋郡須惠町,大字旅石１４２,,40,344,8112221,,,,,,,2024-05-10,1,,,,,ニホニウム,0
1936,6290001105755,新規,0,2024-05-10,2024-05-10,株式会社Ｓｈｉｎｙｕ,,株式会社,福岡県,福岡市中央区,天神２丁目２番１２号７Ｆ,,40,133,8100001,,,,,,,2024-05-10,1,,,,,シンユウ,0
1939,6290003015176,新規,0,2024-05-10,2024-05-10,合同会社Ｆ＆ｋｃ,,合同会社,福岡県,太宰府市,青山３丁目１番７号,,40,221,8180121,,,,,,,2024-05-10,1,,,,,エフアンドケーシー,0
1940,6290003015226,新規,0,2024-05-10,2024-05-10,合同会社クローバー,,合同会社,福岡県,糟屋郡粕屋町,戸原東２丁目４番６号,,40,349,8112318,,,,,,,2024-05-10,1,,,,,クローバー,0
1948,6320003004365,新規,0,2024-05-10,2024-05-10,合同会社稲田農機商会,,合同会社,大分県,日田市,大山町東大山２８９９番地１,,44,204,8770202,,,,,,,2024-05-10,1,,,,,イナダノウキショウカイ,0
1949,6320005010155,新規,0,2024-05-10,2024-05-10,医療法人律慶会,,その他の設立登記法人,大分県,大分市,羽屋２丁目１３４番地１,,44,201,8700854,,,,,,,2024-05-10,1,,,,,リッケイカイ,0
1954,6370003006605,新規,0,2024-05-10,2024-05-10,合同会社ｆｕｔｕｒｅ,,合同会社,宮城県,仙台市青葉区,台原４丁目５－１６ウィッシュコート１０１,,04,101,9810911,,,,,,,2024-05-10,1,,,,,フューチャー,0
1956,6380001034458,新規,0,2024-05-10,2024-05-10,株式会社旭屋コーポレーション,,株式会社,福島県,相馬市,中村字塚田６４番地の７,,07,209,9760042,,,,,,,2024-05-10,1,,,,,アサヒヤコーポレーション,0
1957,6380001034516,新規,0,2024-05-10,2024-05-10,株式会社光友ホールディングス,,株式会社,福島県,いわき市,小名浜南君ケ塚町２１番地の９,,07,204,9718169,,,,,,,2024-05-10,1,,,,,コウユウホールディングス,0
1958,6380001034532,新規,0,2024-05-10,2024-05-10,株式会社Ｌａｕｌｅ’ａ,,株式会社,福島県,喜多方市,字稲荷宮２番地５,,07,208,9660087,,,,,,,2024-05-10,1,,,,,ラウレア,0
1966,6410005006581,新規,0,2024-05-10,2024-05-10,農事組合法人菅原農園,,その他の設立登記法人,秋田県,横手市,平鹿町浅舞字新平川１４２番地,,05,203,0130105,,,,,,,2024-05-10,1,,,,,,0
1972,6430001091766,新規,0,2024-05-10,2024-05-10,株式会社北繁創業,,株式会社,北海道,札幌市中央区,北一条西１９丁目１番地４,,01,101,0600001,,,,,,,2024-05-10,1,,,,,ホクハンソウギョウ,0
1973,6430001091774,新規,0,2024-05-10,2024-05-10,八光プラント工業株式会社,,株式会社,北海道,室蘭市,築地町１４７‐１０,,01,205,0510031,,,,,,,2024-05-10,1,,,,,ハッコウプラントコウギョウ,0
1990,6700150125207,新規,0,2024-05-10,2024-05-10,江蘇鼎智智能控制科技股斌有限公司,00134659,外国会社等,東京都,大田区,西糀谷２丁目２７－１８慈恵ハイツ１０１,,13,111,1440034,中華人民共和国江蘇省常州市常州経済開発区＿城街道龍錦路３５５号,00134232,,,,,2024-05-10,1,,,,,ジヤンスーデイングスインテリジエントコントロールテクノロジーユウゲンコウシ,0
1997,7010001244555,新規,0,2024-05-10,2024-05-10,アイデアビジョン株式会社,,株式会社,東京都,中央区,銀座６丁目６番１号銀座風月堂ビル５Ｆ,,13,102,1040061,,,,,,,2024-05-10,1,,,,,アイデアビジョン,0
1998,7010001244621,新規,0,2024-05-10,2024-05-10,株式会社ミライクルラボ,,株式会社,東京都,千代田区,神田猿楽町２丁目８番１１号ＶＯＲＴＩＩＩ６階,00134684,13,101,1010064,,,,,,,2024-05-10,1,,,,,ミライクルラボ,0
1999,7010001244679,新規,0,2024-05-10,2024-05-10,株式会社Ｏｓｃｈｏｎａｄ　Ｔｈｅｒａｐｅｕｔｉｃｓ,,株式会社,東京都,中央区,日本橋兜町５番１号兜町第１平和ビル３階,,13,102,1030026,,,,,,,2024-05-10,1,,,,,オスコナセラピューティクス,0
2000,7010001244695,新規,0,2024-05-10,2024-05-10,株式会社ＯＮＥ,,株式会社,東京都,文京区,湯島３丁目４５番１０号３階,,13,105,1130034,,,,,,,2024-05-10,1,,,,,オーエヌイー,0
2013,7010401182306,新規,0,2024-05-10,2024-05-10,株式会社ときしろ,,株式会社,東京都,港区,赤坂９丁目６番２７号カーム乃木坂６０３,,13,103,1070052,,,,,,,2024-05-10,1,,,,,トキシロ,0
2014,7010405023225,新規,0,2024-05-10,2024-05-10,一般財団法人ＶＩＣＴＯＲＹ　ＦＯＵＮＤＡＴＩＯＮ,,その他の設立登記法人,東京都,港区,三田１丁目３番４０号麻布十番ＢＵＳＩＮＥＳＳ・ＣＵＢＥ－Ｓ天翔オフィス麻布十番２階２１０号室,,13,103,1080073,,,,,,,2024-05-10,1,,,,,ヴィクトリーファンデーション,0
2020,7010501052243,新規,0,2024-05-10,2024-05-10,株式会社Ｍ‐ＳＴＯＲＹ,,株式会社,東京都,台東区,千束２丁目１７番７－８０４号ルフォンプログレ浅草入谷,,13,106,1110031,,,,,,,2024-05-10,1,,,,,エムストーリー,0
2027,7010701045955,新規,0,2024-05-10,2024-05-10,株式会社エデロル,,株式会社,東京都,品川区,東大井１丁目２２番５号,,13,109,1400011,,,,,,,2024-05-10,1,,,,,エデロル,0
2028,7010703007160,新規,0,2024-05-10,2024-05-10,ザ・センセーション合同会社,,合同会社,東京都,品川区,西五反田６丁目２５番８－１８０５号,,13,109,1410031,,,,,,,2024-05-10,1,,,,,ザセンセーション,0
2037,7010905004617,新規,0,2024-05-10,2024-05-10,一般社団法人ｔｅａｍさくら,,その他の設立登記法人,東京都,世田谷区,豪徳寺１丁目２１番５号,,13,112,1540021,,,,,,,2024-05-10,1,,,,,チームサクラ,0
2041,7011001161831,新規,0,2024-05-10,2024-05-10,株式会社シンクロセレン,,株式会社,東京都,渋谷区,渋谷２丁目１９－１５宮益坂ビルディング６０９,,13,113,1500002,,,,,,,2024-05-10,1,,,,,シンクロセレン,0
2042,7011001161864,新規,0,2024-05-10,2024-05-10,タイムマシン研究所株式会社,,株式会社,東京都,渋谷区,渋谷３丁目５番１－４０５号,,13,113,1500002,,,,,,,2024-05-10,1,,,,,タイムマシンケンキュウジョ,0
2045,7011003019061,新規,0,2024-05-10,2024-05-10,合同会社ＯＴＩ出版,,合同会社,東京都,目黒区,自由が丘１丁目２－７国際パレス自由が丘１０９号,,13,110,1520035,,,,,,,2024-05-10,1,,,,,オーティーアイシュッパン,0
2052,7011101107255,新規,0,2024-05-10,2024-05-10,海外ＦＸ株式会社,,株式会社,東京都,新宿区,下宮比町２番２８号－５０８,,13,104,1620822,,,,,,,2024-05-10,1,,,,,カイガイエフエックス,0
2053,7011101107313,新規,0,2024-05-10,2024-05-10,株式会社ＥＯＴ,,株式会社,東京都,新宿区,西新宿３丁目３番１３号西新宿水間ビル２Ｆ,,13,104,1600023,,,,,,,2024-05-10,1,,,,,イーオーティー,0
2069,7011305002979,新規,0,2024-05-10,2024-05-10,一般社団法人国立公園利用企画ＣＡＮ,,その他の設立登記法人,東京都,杉並区,天沼３丁目９番１２号ＯＧＩ－ＳＵＮ・Ｃ号室,,13,115,1670032,,,,,,,2024-05-10,1,,,,,コクリツコウエンリヨウキカクカン,0
2070,7011501030635,新規,0,2024-05-10,2024-05-10,ＨＯＡＮＧ　ＴＨＡＮＨ　ＩＮＴＥＲＮＡＴＩＯＮＡＬ株式会社,,株式会社,東京都,北区,滝野川１丁目３８番１号,,13,117,1140023,,,,,,,2024-05-10,1,,,,,ホアンタンインターナショナル,0
2071,7011801044203,新規,0,2024-05-10,2024-05-10,全国不動産連盟株式会社,,株式会社,東京都,足立区,弘道１丁目３１－１－１０１,,13,121,1200013,,,,,,,2024-05-10,1,,,,,ゼンコクフドウサンレンメイ,0
2075,7012401041846,新規,0,2024-05-10,2024-05-10,株式会社ｐｒｅｐ．,,株式会社,東京都,三鷹市,下連雀３丁目７番２７－２０５号,,13,204,1810013,,,,,,,2024-05-10,1,,,,,プレップ,0
2088,7020001157095,新規,0,2024-05-10,2024-05-10,源本堂株式会社,,株式会社,神奈川県,横浜市神奈川区,鶴屋町１丁目７番地３４,,14,102,2210835,,,,,,,2024-05-10,1,,,,,ゲンポンドウ,0
2089,7020001157112,新規,0,2024-05-10,2024-05-10,株式会社珀修舎,,株式会社,神奈川県,横浜市神奈川区,金港町５－１４クアドリフォリオ８階,,14,102,2210056,,,,,,,2024-05-10,1,,,,,ハクシュウシャ,0
2093,7020003026067,新規,0,2024-05-10,2024-05-10,合同会社エス・トラン,,合同会社,神奈川県,横浜市都筑区,中川中央１丁目２９－２－１００２,,14,118,2240003,,,,,,,2024-05-10,1,,,,,エストラン,0
2094,7020003026075,新規,0,2024-05-10,2024-05-10,合同会社アイタイムズジャパン,,合同会社,神奈川県,横浜市中区,扇町１丁目１－２５キンガビル１Ｆ,,14,104,2310027,,,,,,,2024-05-10,1,,,,,アイタイムズジャパン,0
2095,7020003026083,新規,0,2024-05-10,2024-05-10,ＷＴ合同会社,,合同会社,神奈川県,横浜市金沢区,洲崎町２１番２２号,,14,108,2360028,,,,,,,2024-05-10,1,,,,,ダブリューティー,0
2111,7030001160239,新規,0,2024-05-10,2024-05-10,株式会社オートガレージアムス,,株式会社,埼玉県,秩父郡皆野町,大字皆野１４２番地３,,11,362,3691412,,,,,,,2024-05-10,1,,,,,オートガレージアムス,0
2112,7030001160255,新規,0,2024-05-10,2024-05-10,株式会社ＮＥＸＴ　ＦＲＥＥＤＯＭ,,株式会社,埼玉県,さいたま市見沼区,大字中川８６３番地１５,,11,104,3370043,,,,,,,2024-05-10,1,,,,,ネクストフリーダム,0
2113,7030001160271,新規,0,2024-05-10,2024-05-10,株式会社ショダイヤハウス,,株式会社,埼玉県,東松山市,箭弓町３丁目１２番３号,,11,212,3550028,,,,,,,2024-05-10,1,,,,,,0
2117,7030003024268,新規,0,2024-05-10,2024-05-10,合同会社ＴＨ　ＧＲＯＵＰ,,合同会社,埼玉県,川越市,野田町２丁目２番地４寺田マンション１０１号室,,11,201,3501115,,,,,,,2024-05-10,1,,,,,ティエッチグループ,0
2121,7030005021684,新規,0,2024-05-10,2024-05-10,一般社団法人ＭＡＬＬ　ＤＥＳＩＧＮ,,その他の設立登記法人,埼玉県,羽生市,中央２丁目５－２６,,11,216,3480058,,,,,,,2024-05-10,1,,,,,モールデザイン,0
2126,7040001133516,新規,0,2024-05-10,2024-05-10,株式会社パシックホスピスハウス,,株式会社,千葉県,市原市,千種２丁目１６番地４８,,12,219,2990109,,,,,,,2024-05-10,1,,,,,パシックホスピスハウス,0
2132,7040003024886,新規,0,2024-05-10,2024-05-10,合同会社江和,,合同会社,千葉県,佐倉市,下志津原１５９番地５（Ａ）,,12,212,2850842,,,,,,,2024-05-10,1,,,,,コワ,0
2133,7040003024928,新規,0,2024-05-10,2024-05-10,合同会社Ｃａｒｒｙ‐Ｏｎ,,合同会社,千葉県,船橋市,栄町１丁目８番１－１１０２号,,12,204,2730018,,,,,,,2024-05-10,1,,,,,キャリーオン,0
2134,7040003024936,新規,0,2024-05-10,2024-05-10,合同会社流星會,,合同会社,千葉県,流山市,大字北４７番地の１,,12,220,2700117,,,,,,,2024-05-10,1,,,,,リュウセイカイ,0
2135,7040003024944,新規,0,2024-05-10,2024-05-10,Ｋｏｈｉｌｏ合同会社,,合同会社,千葉県,松戸市,古ケ崎３丁目３４３７－５,,12,207,2710068,,,,,,,2024-05-10,1,,,,,コヒロ,0
2136,7040003024969,新規,0,2024-05-10,2024-05-10,ＺＡＩＮ　ＡＵＴＯ　ＬＩＮＫ合同会社,,合同会社,千葉県,山武郡芝山町,高田２３０番地１２,,12,409,2891623,,,,,,,2024-05-10,1,,,,,ザインオートリンク,0
2139,7040005022376,新規,0,2024-05-10,2024-05-10,医療法人社団りあら,,その他の設立登記法人,千葉県,柏市,若柴１６４番地４中央１４９街区７アクロスキューブ柏の葉キャンパス１階,,12,217,2770871,,,,,,,2024-05-10,1,,,,,リアラ,0
2143,7050001054744,新規,0,2024-05-10,2024-05-10,株式会社リオクーガ,,株式会社,茨城県,常陸大宮市,下町４０２１番地の４,,08,225,3192262,,,,,,,2024-05-10,1,,,,,リオクーガ,0
2148,7060001037079,新規,0,2024-05-10,2024-05-10,株式会社望工業,,株式会社,栃木県,宇都宮市,石井町２９５９番地１１,,09,201,3210912,,,,,,,2024-05-10,1,,,,,ノゾミコウギョウ,0
2171,7110003005391,新規,0,2024-05-10,2024-05-10,合同会社さとうた,,合同会社,新潟県,新潟市中央区,万代５丁目７番２号ダイアパレスシアース万代東棟４０２号,,15,103,9500088,,,,,,,2024-05-10,1,,,,,サトウタ,0
2177,7120001264625,新規,0,2024-05-10,2024-05-10,Ｐｌｕｍａ株式会社,,株式会社,大阪府,大阪市中央区,淡路町３丁目５－１３創建御堂筋ビル２１３,,27,128,5410047,,,,,,,2024-05-10,1,,,,,プルマ,0
2178,7120001264658,新規,0,2024-05-10,2024-05-10,株式会社おむすび不動産,,株式会社,大阪府,大阪市西淀川区,佃１丁目３番７号,,27,113,5550001,,,,,,,2024-05-10,1,,,,,オムスビフドウサン,0
2179,7120001264690,新規,0,2024-05-10,2024-05-10,友誠株式会社,,株式会社,大阪府,大阪市東住吉区,鷹合４丁目２１番１６号３Ｆ－Ｆ,,27,121,5460014,,,,,,,2024-05-10,1,,,,,ユウセイ,0
2180,7120001264708,新規,0,2024-05-10,2024-05-10,株式会社辰治,,株式会社,大阪府,寝屋川市,三井南町２７番９号,,27,215,5720019,,,,,,,2024-05-10,1,,,,,タツジ,0
2181,7120001264724,新規,0,2024-05-10,2024-05-10,株式会社五十鈴,,株式会社,大阪府,大阪市東住吉区,南田辺４丁目６番１３号南田辺ガーデンハウス３０２号,,27,121,5460033,,,,,,,2024-05-10,1,,,,,イスズ,0
2182,7120001264749,新規,0,2024-05-10,2024-05-10,キーメント株式会社,,株式会社,大阪府,大阪市西区,南堀江４丁目３１番５－１５０１号,,27,106,5500015,,,,,,,2024-05-10,1,,,,,キーメント,0
2183,7120001264765,新規,0,2024-05-10,2024-05-10,株式会社ガイヤ,,株式会社,大阪府,大阪市福島区,海老江４丁目１０番１９号,,27,103,5530001,,,,,,,2024-05-10,1,,,,,ガイヤ,0
2184,7120001264781,新規,0,2024-05-10,2024-05-10,ラムセス株式会社,,株式会社,大阪府,大阪市浪速区,幸町３丁目７番１２－４０２号,,27,111,5560021,,,,,,,2024-05-10,1,,,,,ラムセス,0
2185,7120001264807,新規,0,2024-05-10,2024-05-10,合禾株式会社,,株式会社,大阪府,大阪市港区,八幡屋２丁目１３番２０号１０１号室,,27,107,5520014,,,,,,,2024-05-10,1,,,,,ゴウカ,0
2193,7120003026544,新規,0,2024-05-10,2024-05-10,合同会社コモンズアシスト,,合同会社,大阪府,大阪市東住吉区,公園南矢田４丁目６番２ー６０１号,,27,121,5460024,,,,,,,2024-05-10,1,,,,,コモンズアシスト,0
2198,7120101069528,新規,0,2024-05-10,2024-05-10,株式会社シオミワークス,,株式会社,大阪府,泉大津市,汐見町３６番地の６,,27,206,5950054,,,,,,,2024-05-10,1,,,,,シオミワークス,0
2199,7120101069544,新規,0,2024-05-10,2024-05-10,ワイピース株式会社,,株式会社,大阪府,堺市西区,菱木３丁２６９７番地３,,27,144,5938315,,,,,,,2024-05-10,1,,,,,ワイピース,0
2200,7120101069552,新規,0,2024-05-10,2024-05-10,弘電通システム株式会社,,株式会社,大阪府,和泉市,池田下町１１２３－１,,27,219,5940032,,,,,,,2024-05-10,1,,,,,ヒロデンツウシステム,0
2201,7120101069569,新規,0,2024-05-10,2024-05-10,株式会社Ｗｉｓｈ,,株式会社,大阪府,泉南郡熊取町,朝代西４丁目４番２０号,,27,361,5900458,,,,,,,2024-05-10,1,,,,,ウィッシュ,0
2207,7120903005168,新規,0,2024-05-10,2024-05-10,ＡＨＢコンサルティング合同会社,,合同会社,大阪府,豊中市,新千里東町２丁目５番２５－９１５号,,27,203,5600082,,,,,,,2024-05-10,1,,,,,エイエイチビーコンサルティング,0
2210,7130001077035,新規,0,2024-05-10,2024-05-10,Ａｌｌ‐Ｉｎ株式会社,,株式会社,京都府,京都市山科区,大宅辻脇町４６番地１８,,26,110,6078183,,,,,,,2024-05-10,1,,,,,オールイン,0
2212,7130003009556,新規,0,2024-05-10,2024-05-10,花鈴京都合同会社,,合同会社,京都府,京都市中京区,西ノ京池ノ内町１６番地３７,,26,104,6048375,,,,,,,2024-05-10,1,,,,,カリンキョウト,0
2223,7140001134306,新規,0,2024-05-10,2024-05-10,フォローテック株式会社,,株式会社,兵庫県,宝塚市,安倉南１丁目１８番１０号,,28,214,6650823,,,,,,,2024-05-10,1,,,,,フォローテック,0
2226,7140003020537,新規,0,2024-05-10,2024-05-10,合同会社Ｈ３４５,,合同会社,兵庫県,神戸市中央区,中山手通６丁目２番７－５１８号,,28,110,6500004,,,,,,,2024-05-10,1,,,,,エイチサンヨンゴ,0
2230,7180001161180,新規,0,2024-05-10,2024-05-10,Ｈｏｒｓｅ　Ｊａｐａｎ株式会社,,株式会社,愛知県,名古屋市昭和区,山中町１丁目４１番地ベレオ山中ＩＩ３０３,00134702,23,107,4660828,,,,,,,2024-05-10,1,,,,,ホースジャパン,0
2231,7180001161313,新規,0,2024-05-10,2024-05-10,株式会社レヴァンテ,,株式会社,愛知県,稲沢市,日下部中町３丁目３２番地１,,23,220,4928182,,,,,,,2024-05-10,1,,,,,レヴァンテ,0
2232,7180001161321,新規,0,2024-05-10,2024-05-10,株式会社ＣＩＰＩＨ,,株式会社,愛知県,常滑市,飛香台４丁目２番地の２９,,23,216,4790868,,,,,,,2024-05-10,1,,,,,シピ,0
2233,7180001161338,新規,0,2024-05-10,2024-05-10,株式会社Ｋｅｉｋｉ　Ｍａｈｉｎａ,,株式会社,愛知県,名古屋市中川区,福船町５丁目１番地の４,,23,110,4540836,,,,,,,2024-05-10,1,,,,,ケイキマヒナ,0
2234,7180001161354,新規,0,2024-05-10,2024-05-10,株式会社Ｈ．Ｋ,,株式会社,愛知県,名古屋市中区,丸の内３丁目１５番２１号Ｃｅｒｅｓ丸の内１００３,,23,106,4600002,,,,,,,2024-05-10,1,,,,,エイチケー,0
2235,7180001161370,新規,0,2024-05-10,2024-05-10,株式会社ＧＭ,,株式会社,愛知県,岩倉市,神野町平久７５番地（フォレスト岩倉２０２号）,,23,228,4820033,,,,,,,2024-05-10,1,,,,,ジーエム,0
2236,7180001161395,新規,0,2024-05-10,2024-05-10,株式会社ＦＵＬＬ　ＦＬＡＴ,,株式会社,愛知県,名古屋市中村区,岩塚町字一里山１番地の１０５,,23,105,4530862,,,,,,,2024-05-10,1,,,,,フルフラット,0
2237,7180001161453,新規,0,2024-05-10,2024-05-10,株式会社大仙,,株式会社,愛知県,名古屋市港区,土古町４丁目８５番地,,23,111,4550068,,,,,,,2024-05-10,1,,,,,ダイセン,0
2245,7190001031325,新規,0,2024-05-10,2024-05-10,株式会社ＲｅｖｅｒｓｅＰＲ,,株式会社,三重県,四日市市,伊坂台３丁目１６７番地６,,24,202,5128066,,,,,,,2024-05-10,1,,,,,リバースプロモーション,0
2246,7190003004675,新規,0,2024-05-10,2024-05-10,合同会社ＯＬＩＶＥ,,合同会社,三重県,南牟婁郡紀宝町,井田２３８８番地２３,,24,562,5195711,,,,,,,2024-05-10,1,,,,,オリーブ,0
2247,7200001042493,新規,0,2024-05-10,2024-05-10,株式会社エクティブ,,株式会社,岐阜県,岐阜市,学園町３丁目４番地２０１号室,,21,201,5020841,,,,,,,2024-05-10,1,,,,,,0
2250,7210001019755,新規,0,2024-05-10,2024-05-10,丸福商事株式会社,,株式会社,福井県,福井市,若杉３丁目１７２３番地,,18,201,9188055,,,,,,,2024-05-10,1,,,,,マルフクショウジ,0
2258,7240003006658,新規,0,2024-05-10,2024-05-10,合同会社ひとよ,,合同会社,広島県,広島市中区,立町５番２－３０１号,,34,101,7300032,,,,,,,2024-05-10,1,,,,,ヒトヨ,0
2260,7250001020651,新規,0,2024-05-10,2024-05-10,ｓｆ３３株式会社,,株式会社,山口県,萩市,大字椿東４４８７番地１,,35,204,7580011,,,,,,,2024-05-10,1,,,,,エスエフサーティスリー,0
2262,7260001039055,新規,0,2024-05-10,2024-05-10,株式会社ＺＥＮｉｉ,,株式会社,岡山県,瀬戸内市,牛窓町長浜３６１０番地１,,33,212,7014301,,,,,,,2024-05-10,1,,,,,ゼニイ,0
2266,7270003001623,新規,0,2024-05-10,2024-05-10,Ｈａｚｚｙ　Ａｌｌ　Ｓｔａｒｓ合同会社,,合同会社,鳥取県,東伯郡琴浦町,大字八橋２１７－４,,31,371,6892301,,,,,,,2024-05-10,1,,,,,ヘイジーオールスターズ,0
2267,7280003001845,新規,0,2024-05-10,2024-05-10,ラナンクルス合同会社,,合同会社,島根県,松江市,古志原５丁目１３番２７号,,32,201,6900012,,,,,,,2024-05-10,1,,,,,ラナンクルス,0
2271,7290001105580,新規,0,2024-05-10,2024-05-10,株式会社ＤＡＨＬＩＡ　Ｅ‐ＮＥＴＷＯＲＫ,,株式会社,福岡県,糟屋郡志免町,別府東２丁目１番１２－２０２号,,40,343,8112231,,,,,,,2024-05-10,1,,,,,ダリアエデュケーショナルネットワーク,0
2272,7290001105606,新規,0,2024-05-10,2024-05-10,株式会社あたたかケア＆サポートＳＯＢＡＮＩ,,株式会社,福岡県,福岡市南区,太平寺二丁目２７番１４号,,40,134,8150000,,,,,,,2024-05-10,1,,,,,アタタカケアアンドサポートソバニ,0
2273,7290001105738,新規,0,2024-05-10,2024-05-10,株式会社琉心電工,,株式会社,福岡県,福岡市南区,桧原２丁目１０番２－２０３号,,40,134,8111355,,,,,,,2024-05-10,1,,,,,リュウシンデンコウ,0
2274,7290003015241,新規,0,2024-05-10,2024-05-10,ＭＡＹ合同会社,,合同会社,福岡県,福岡市南区,屋形原５丁目７番４５号,,40,134,8111351,,,,,,,2024-05-10,1,,,,,エムエーワイ,0
2281,7310001019010,新規,0,2024-05-10,2024-05-10,青雲エデュケーショナルサポート株式会社,,株式会社,長崎県,佐世保市,日宇町６６５番地,,42,202,8571151,,,,,,,2024-05-10,1,,,,,セイウンエデュケーショナルサポート,0
2283,7330001032060,新規,0,2024-05-10,2024-05-10,株式会社銀承企画,,株式会社,熊本県,上益城郡御船町,大字陣１９０５－１,,43,441,8613201,,,,,,,2024-05-10,1,,,,,ギンジョウキカク,0
2285,7340003004478,新規,0,2024-05-10,2024-05-10,合同会社ＧＬＯＢＡＬ,,合同会社,鹿児島県,鹿児島市,宇宿４丁目５番５号,,46,201,8900073,,,,,,,2024-05-10,1,,,,,グローバル,0
2287,7360003013964,新規,0,2024-05-10,2024-05-10,果物から始まる合同会社,,合同会社,沖縄県,那覇市,牧志２丁目１７－２７－４０１,,47,201,9000013,,,,,,,2024-05-10,1,,,,,クダモノカラハジマル,0
2291,7370003006604,新規,0,2024-05-10,2024-05-10,クマガイ商会合同会社,,合同会社,宮城県,仙台市青葉区,国見６丁目２４番２３号,,04,101,9810943,,,,,,,2024-05-10,1,,,,,クマガイショウカイ,0
2296,7380003005753,新規,0,2024-05-10,2024-05-10,合同会社ＢＡＲＸ,,合同会社,福島県,いわき市,平下平窪古川町３番地の１１,,07,204,9708005,,,,,,,2024-05-10,1,,,,,バークス,0
2297,7380005012822,新規,0,2024-05-10,2024-05-10,一般財団法人旅,,その他の設立登記法人,福島県,耶麻郡磐梯町,大字磐梯字七ツ森７０８４番地１７,,07,407,9693301,,,,,,,2024-05-10,1,,,,,タビ,0
2298,7380005012830,新規,0,2024-05-10,2024-05-10,一般社団法人クリーム,,その他の設立登記法人,福島県,南相馬市,原町区上渋佐字原田１５６番地,,07,212,9750034,,,,,,,2024-05-10,1,,,,,クリーム,0
2308,7430001091781,新規,0,2024-05-10,2024-05-10,株式会社大萱貿易,,株式会社,北海道,白老郡白老町,字萩野４３３番地２３０,,01,578,0590922,,,,,,,2024-05-10,1,,,,,オガヤボウエキ,0
2319,7700150124950,新規,0,2024-05-10,2024-04-18,香川県地域水産業再生委員会,,その他,香川県,高松市,北浜町８－２５,,37,201,7600031,,,,,,,2024-04-18,1,,,,,カガワケンチイキスイサンギヨウサイセイイインカイ,0
2320,7700150125206,新規,0,2024-05-10,2024-05-10,ＳＭＡＲＴ　Ｇ．Ｓ．Ｍ．,,外国会社等,千葉県,八街市,東吉田７２５番地オフィス１２号,,12,230,2891114,スリランカ民主社会主義共和国、キャンディ、グッドシェド、ニューショッピングコンプレックス、Ｎｏ．９４,,,,,,2024-05-10,1,,,,,スマートジーエスエム,0
2327,8010001244728,新規,0,2024-05-10,2024-05-10,ＫｎｏｗｌｅｄｇｅＬｉｎｋ株式会社,,株式会社,東京都,中央区,銀座７丁目６－９誠和ビル３０３,,13,102,1040061,,,,,,,2024-05-10,1,,,,,ナレッジリンク,0
2342,8010401182164,新規,0,2024-05-10,2024-05-10,株式会社懿美,,株式会社,東京都,港区,三田５丁目２番２２－２１０４号,,13,103,1080073,,,,,,,2024-05-10,1,,,,,イミ,0
2343,8010401182338,新規,0,2024-05-10,2024-05-10,大徳通株式会社,,株式会社,東京都,港区,芝２丁目２８番１１－３０７号,,13,103,1050014,,,,,,,2024-05-10,1,,,,,ダイトクツウ,0
2349,8010601065152,新規,0,2024-05-10,2024-05-10,株式会社マルス,,株式会社,東京都,江東区,南砂２丁目４番２４－２１０号,,13,108,1360076,,,,,,,2024-05-10,1,,,,,マルス,0
2354,8010703007168,新規,0,2024-05-10,2024-05-10,Ｓａｎｔｏ不動産Ｏｆｆｉｃｅ合同会社,,合同会社,東京都,品川区,西五反田１丁目２６番２－１２０９号,,13,109,1410031,,,,,,,2024-05-10,1,,,,,サントフドウサンオフィス,0
2359,8010801035038,新規,0,2024-05-10,2024-05-10,株式会社鈴木温大事務所,,株式会社,東京都,大田区,鵜の木３丁目１番１１号,,13,111,1460091,,,,,,,2024-05-10,1,,,,,スズキハルタジムショ,0
2362,8010803004949,新規,0,2024-05-10,2024-05-10,合同会社桜コネクト,,合同会社,東京都,大田区,山王１丁目２３番７号,,13,111,1430023,,,,,,,2024-05-10,1,,,,,サクラコネクト,0
2369,8011001161839,新規,0,2024-05-10,2024-05-10,株式会社ぶり松,,株式会社,東京都,目黒区,三田１丁目４－４恵比寿ビュータワー２１３,,13,110,1530062,,,,,,,2024-05-10,1,,,,,ブリマツ,0
2370,8011001161863,新規,0,2024-05-10,2024-05-10,株式会社オルカ,,株式会社,東京都,渋谷区,桜丘町１番２号,,13,113,1500031,,,,,,,2024-05-10,1,,,,,オルカ,0
2372,8011003019127,新規,0,2024-05-10,2024-05-10,ＢＷＤ合同会社,,合同会社,東京都,渋谷区,渋谷２丁目１９－１５宮益坂ビルディング６０９,,13,113,1500002,,,,,,,2024-05-10,1,,,,,ビーダブルディー,0
2374,8011101106834,新規,0,2024-05-10,2024-05-10,株式会社ロングハウス,,株式会社,東京都,新宿区,西新宿３丁目３番１３号西新宿水間ビル６階,,13,104,1600023,,,,,,,2024-05-10,1,,,,,ロングハウス,0
2375,8011101107221,新規,0,2024-05-10,2024-05-10,辻・本郷アセットプロパティ株式会社,00134690,株式会社,東京都,新宿区,新宿４丁目１番６号ＪＲ新宿ミライナタワー２８階,,13,104,1600022,,,,,,,2024-05-10,1,,,,,ツジホンゴウアセットプロパティ,0
2377,8011103014399,新規,0,2024-05-10,2024-05-10,合同会社Ｈｏｎｅｓｔ,,合同会社,東京都,新宿区,大久保２丁目１９－１５サンフォレスト４０５号室,,13,104,1690072,,,,,,,2024-05-10,1,,,,,オネスト,0
2378,8011203004382,新規,0,2024-05-10,2024-05-10,合同会社Ｂｒｉｌｌｉｏ,,合同会社,東京都,中野区,東中野１丁目４０番４号,,13,114,1640003,,,,,,,2024-05-10,1,,,,,ブリリオ,0
2391,8011501030634,新規,0,2024-05-10,2024-05-10,Ｕ　ＭＯＮＥＹ株式会社,,株式会社,東京都,北区,滝野川１丁目３８番１号,,13,117,1140023,,,,,,,2024-05-10,1,,,,,ユーマネー,0
2392,8011501030642,新規,0,2024-05-10,2024-05-10,哲也商事株式会社,,株式会社,東京都,荒川区,東尾久２丁目２番９号三祥ビル２２８,,13,118,1160012,,,,,,,2024-05-10,1,,,,,テツヤショウジ,0
2395,8011603004338,新規,0,2024-05-10,2024-05-10,合同会社ミナトヤ,,合同会社,東京都,練馬区,旭丘２丁目１５番２号,,13,120,1760005,,,,,,,2024-05-10,1,,,,,ミナトヤ,0
2402,8011801044202,新規,0,2024-05-10,2024-05-10,株式会社ｔｈｒｅｅ　Ｂ,,株式会社,東京都,足立区,関原１丁目１３－３,,13,121,1230852,,,,,,,2024-05-10,1,,,,,スリービー,0
2403,8011803006233,新規,0,2024-05-10,2024-05-10,合同会社Ｎａｋａｊｉｍａｙａ,,合同会社,東京都,葛飾区,新小岩１丁目１４―６―９,,13,122,1240024,,,,,,,2024-05-10,1,,,,,ナカジマヤ,0
2406,8012801023162,新規,0,2024-05-10,2024-05-10,株式会社ファインドシステム,,株式会社,東京都,国分寺市,南町３丁目２８番１号第３サイトウビル１Ｆ,,13,214,1850021,,,,,,,2024-05-10,1,,,,,ファインドシステム,0
2412,8020001157136,新規,0,2024-05-10,2024-05-10,株式会社Ｓｏｎｇ,,株式会社,神奈川県,横浜市港南区,日野南３丁目１５番５号,,14,111,2340055,,,,,,,2024-05-10,1,,,,,ソング,0
2415,8020003026074,新規,0,2024-05-10,2024-05-10,ＵＭＡＤＥＶＩ合同会社,,合同会社,神奈川県,横浜市神奈川区,大口通１３０－８Ｋｏｙｏ大口ビル３０２,,14,102,2210002,,,,,,,2024-05-10,1,,,,,ウマデヴィ,0
2417,8020005016404,新規,0,2024-05-10,2024-05-10,一般社団法人プロジェクト管理デジタル変革協会・ＡＷＰ実践共同体,,その他の設立登記法人,神奈川県,横浜市西区,みなとみらい２丁目３番１号,,14,103,2200012,,,,,,,2024-05-10,1,,,,,プロジェクトカンリデジタルヘンカクキョウカイエーダブリューピージッセンキョウドウタイ,0
2422,8021001082175,新規,0,2024-05-10,2024-05-10,株式会社ｏｏｚｍａｃｏｍｐａｎｙ,,株式会社,神奈川県,足柄下郡湯河原町,宮上２５６－１,,14,384,2590314,,,,,,,2024-05-10,1,,,,,ウーズマカンパニー,0
2428,8030001160238,新規,0,2024-05-10,2024-05-10,株式会社ＨＯＮＭＡ　ＨＯＵＳＥ,,株式会社,埼玉県,狭山市,広瀬１丁目１２番７号,,11,215,3501319,,,,,,,2024-05-10,1,,,,,ホンマハウス,0
2429,8030001160254,新規,0,2024-05-10,2024-05-10,株式会社Ｋスタイル,,株式会社,埼玉県,東松山市,大字高坂１２０２番地６,,11,212,3550047,,,,,,,2024-05-10,1,,,,,ケースタイル,0
2430,8030001160262,新規,0,2024-05-10,2024-05-10,株式会社ＢＲＩＧＨＴ,,株式会社,埼玉県,加須市,三俣２丁目２０番地１１,,11,210,3470009,,,,,,,2024-05-10,1,,,,,ブライト,0
2431,8030001160279,新規,0,2024-05-10,2024-05-10,株式会社ＳＫＡＹ,,株式会社,埼玉県,川口市,大字安行吉岡１５９４番地の１２,,11,203,3340072,,,,,,,2024-05-10,1,,,,,スカイ,0
2439,8030003024267,新規,0,2024-05-10,2024-05-10,合同会社クリエイトプラス,,合同会社,埼玉県,戸田市,本町１丁目１５番１７号,,11,224,3350023,,,,,,,2024-05-10,1,,,,,クリエイトプラス,0
2445,8040001133523,新規,0,2024-05-10,2024-05-10,株式会社凜星電設,,株式会社,千葉県,千葉市花見川区,幕張町６丁目２７９－９,,12,102,2620032,,,,,,,2024-05-10,1,,,,,リンセイデンセツ,0
2458,8050001054743,新規,0,2024-05-10,2024-05-10,中川造園土木株式会社,,株式会社,茨城県,ひたちなか市,西十三奉行１１４２３番地４３,,08,221,3111206,,,,,,,2024-05-10,1,,,,,ナカガワゾウエンドボク,0
2460,8060001037078,新規,0,2024-05-10,2024-05-10,株式会社新洋建設,,株式会社,栃木県,佐野市,植下町４００１番地１ファミリーフィールドアライ１０３,,09,204,3270835,,,,,,,2024-05-10,1,,,,,シンヨウケンセツ,0
2461,8060001037086,新規,0,2024-05-10,2024-05-10,株式会社５８,,株式会社,栃木県,鹿沼市,東町１丁目２番６号,,09,205,3220022,,,,,,,2024-05-10,1,,,,,ゴッパチ,0
2462,8060003005066,新規,0,2024-05-10,2024-05-10,合同会社小川屋肥料店,,合同会社,栃木県,芳賀郡益子町,大字七井６２番地,,09,342,3214106,,,,,,,2024-05-10,1,,,,,オガワヤヒリョウテン,0
2464,8070003005412,新規,0,2024-05-10,2024-05-10,合同会社Ｙ．Ｋ　ｆｕｎｎｙ,,合同会社,群馬県,高崎市,飯玉町９８－２メロディーハイツ２０１,,10,202,3700063,,,,,,,2024-05-10,1,,,,,,0
2468,8080103003059,新規,0,2024-05-10,2024-05-10,アークエンジェル合同会社,,合同会社,静岡県,伊東市,富戸１３０１番地の７０ロイヤルヴュー川奈４０１号,,22,208,4130231,,,,,,,2024-05-10,1,,,,,アークエンジェル,0
2469,8080401027180,新規,0,2024-05-10,2024-05-10,株式会社ＫＨＡＤＩＪＡ　ＴＲＡＤＩＮＧ,,株式会社,静岡県,浜松市浜名区,横須賀７５１番地,,22,139,4340036,,,,,,,2024-05-10,1,,,,,カジージャトレーディング,0
2473,8110001038401,新規,0,2024-05-10,2024-05-10,株式会社ファイブスター,,株式会社,新潟県,上越市,木田２丁目５番１号,,15,222,9430805,,,,,,,2024-05-10,1,,,,,ファイブスター,0
2481,8120001264624,新規,0,2024-05-10,2024-05-10,Ｆｊｅｒ株式会社,,株式会社,大阪府,大阪市中央区,淡路町３丁目５－１３創建御堂筋ビル２１３,,27,128,5410047,,,,,,,2024-05-10,1,,,,,フィーヤ,0
2482,8120001264665,新規,0,2024-05-10,2024-05-10,株式会社エヌアールケー,,株式会社,大阪府,大阪市平野区,長吉川辺４丁目１番１５－１０７号,,27,126,5470014,,,,,,,2024-05-10,1,,,,,エヌアールケー,0
2483,8120001264698,新規,0,2024-05-10,2024-05-10,株式会社ＲＥＮＧＡＭＥ,,株式会社,大阪府,大阪市淀川区,西中島３丁目２３番９号,,27,123,5320011,,,,,,,2024-05-10,1,,,,,レンゲム,0
2484,8120001264715,新規,0,2024-05-10,2024-05-10,株式会社Ｃｉｅｌ,,株式会社,大阪府,大阪市浪速区,桜川１丁目５番３６号,,27,111,5560022,,,,,,,2024-05-10,1,,,,,シエル,0
2485,8120001264756,新規,0,2024-05-10,2024-05-10,桜木株式会社,,株式会社,大阪府,大阪市浪速区,恵美須西３丁目１５－８栄昌ビル２０２,,27,111,5560003,,,,,,,2024-05-10,1,,,,,サクラギ,0
2488,8120003026535,新規,0,2024-05-10,2024-05-10,合同会社陽源舎,,合同会社,大阪府,大阪市中央区,伏見町２丁目２番１０号谷ビルディング,,27,128,5410044,,,,,,,2024-05-10,1,,,,,ヨウゲンシャ,0
2489,8120003026551,新規,0,2024-05-10,2024-05-10,合同会社ハンド・エイドｂａｓｉｓ,,合同会社,大阪府,大阪市東淀川区,西淡路１丁目１－９ビジネス新大阪２階,,27,114,5330031,,,,,,,2024-05-10,1,,,,,ハンドエイドベーシス,0
2492,8120005024314,新規,0,2024-05-10,2024-05-10,一般社団法人エイチ・エス・ジェイ,,その他の設立登記法人,大阪府,大阪市北区,東天満１丁目１１番７号,,27,127,5300044,,,,,,,2024-05-10,1,,,,,エイチエスジェイ,0
2497,8120103005810,新規,0,2024-05-10,2024-05-10,合同会社Ｍ＆Ｔ,,合同会社,大阪府,堺市南区,槇塚台３丁１－２４－１１０８,,27,145,5900114,,,,,,,2024-05-10,1,,,,,エムアンドティー,0
2502,8122001038082,新規,0,2024-05-10,2024-05-10,ＨＡＲＵＫＹＵ不動産株式会社,,株式会社,大阪府,東大阪市,足代北２丁目７番２－１５０１号,,27,227,5770058,,,,,,,2024-05-10,1,,,,,ハルキュウフドウサン,0
2513,8140003020494,新規,0,2024-05-10,2024-05-10,ＰＴＸ合同会社,,合同会社,兵庫県,姫路市,四郷町上鈴１５８番地２,,28,201,6710241,,,,,,,2024-05-10,1,,,,,ピーティーエックス,0
2520,8160001025907,新規,0,2024-05-10,2024-05-10,Ｔ‐ＴＲＵＳＴ株式会社,,株式会社,滋賀県,大津市,尾花川１１番１４号,,25,201,5200031,,,,,,,2024-05-10,1,,,,,ティトラスト,0
2530,8180001161254,新規,0,2024-05-10,2024-05-10,Ｗ‐Ｂｒｉｄｇｅ株式会社,,株式会社,愛知県,名古屋市西区,樋の口町１番１５号ホ－ワビル３階ＳＨＩＲＯＬＡＢＯ１９号,,23,104,4510034,,,,,,,2024-05-10,1,,,,,ダブリューブリッジ,0
2531,8180001161304,新規,0,2024-05-10,2024-05-10,株式会社Ｇ　ｏｆ　ｔｈｅ　Ｇ,,株式会社,愛知県,名古屋市天白区,島田３丁目６１０番地,,23,116,4680056,,,,,,,2024-05-10,1,,,,,ジーオブザジー,0
2532,8180001161329,新規,0,2024-05-10,2024-05-10,七夕コーポレーション株式会社,,株式会社,愛知県,名古屋市東区,泉１丁目２１番４号,,23,102,4610001,,,,,,,2024-05-10,1,,,,,タナバタコーポレーション,0
2533,8180001161337,新規,0,2024-05-10,2024-05-10,Ｂｏｕｓｈｕ株式会社,,株式会社,愛知県,名古屋市中川区,月島町１番２１号,,23,110,4540804,,,,,,,2024-05-10,1,,,,,ボウシュ,0
2534,8180001161345,新規,0,2024-05-10,2024-05-10,株式会社ｅｍｕ,,株式会社,愛知県,名古屋市千種区,覚王山通９丁目１９番地覚王山プラザ１階,,23,101,4640841,,,,,,,2024-05-10,1,,,,,エム,0
2535,8180001161378,新規,0,2024-05-10,2024-05-10,株式会社ＲＡ,,株式会社,愛知県,豊明市,西川町笹原７番８－Ｄ４,,23,229,4701123,,,,,,,2024-05-10,1,,,,,アールエー,0
2536,8180001161386,新規,0,2024-05-10,2024-05-10,株式会社陶然居,,株式会社,愛知県,名古屋市中川区,尾頭橋１丁目３番８号一光ハイツ尾頭橋,,23,110,4540012,,,,,,,2024-05-10,1,,,,,トウゼンキョ,0
2537,8180001161403,新規,0,2024-05-10,2024-05-10,株式会社バイトオアシス,,株式会社,愛知県,名古屋市東区,葵３丁目１８番１７号サンプレー名古屋ビル６Ｆ－Ｄ号室,,23,102,4610004,,,,,,,2024-05-10,1,,,,,バイトオアシス,0
2540,8180003026736,新規,0,2024-05-10,2024-05-10,合同会社豊心,,合同会社,愛知県,半田市,花田町１丁目４１番地,,23,205,4750088,,,,,,,2024-05-10,1,,,,,ホウシン,0
2541,8180003026752,新規,0,2024-05-10,2024-05-10,ＳＨＩＮＥＣＯＭＰＡＮＹ合同会社,,合同会社,愛知県,半田市,上池町４丁目３番地,,23,205,4750004,,,,,,,2024-05-10,1,,,,,シャインコンパニー,0
2543,8180301038615,新規,0,2024-05-10,2024-05-10,ｒｅｖｅｌ株式会社,,株式会社,愛知県,豊田市,丸山町３丁目５０番地３,,23,211,4710832,,,,,,,2024-05-10,1,,,,,ルヴェル,0
2544,8180301038623,新規,0,2024-05-10,2024-05-10,株式会社クラフトワークス岐阜,,株式会社,愛知県,豊田市,東新町２丁目７５番地１ＣＡＳＡＥＬＥＶＡＴＯＩＩ２階α,00134689,23,211,4710045,,,,,,,2024-05-10,1,,,,,クラフトワークスギフ,0
2547,8200001042492,新規,0,2024-05-10,2024-05-10,わいわいメディカル株式会社,,株式会社,岐阜県,羽島市,竹鼻町狐穴１７１９番地３,,21,209,5016232,,,,,,,2024-05-10,1,,,,,ワイワイメディカル,0
2549,8200003006339,新規,0,2024-05-10,2024-05-10,合同会社加藤アセットマネジメント,,合同会社,岐阜県,岐阜市,茜部寺屋敷１丁目１２３番地４,,21,201,5008267,,,,,,,2024-05-10,1,,,,,カトウアセットマネジメント,0
2564,8270003001622,新規,0,2024-05-10,2024-05-10,竹本塗装工事合同会社,,合同会社,鳥取県,鳥取市,松並町２丁目５０３番地１ハイパッションマツナミ１０３号,,31,201,6800801,,,,,,,2024-05-10,1,,,,,タケモトトソウコウジ,0
2569,8290001105588,新規,0,2024-05-10,2024-05-10,株式会社ＬＡＮＤ　ＦＯＸ,,株式会社,福岡県,福岡市中央区,赤坂１丁目８番２３号,,40,133,8100042,,,,,,,2024-05-10,1,,,,,ランドフォックス,0
2578,8320001020445,新規,0,2024-05-10,2024-05-10,株式会社エースアジャスト,,株式会社,大分県,大分市,大字佐野４２９４番地,,44,201,8700315,,,,,,,2024-05-10,1,,,,,エースアジャスト,0
2583,8350003004633,新規,0,2024-05-10,2024-05-10,合同会社エルアイ,,合同会社,宮崎県,宮崎市,源藤町原田３７１番地源藤ビル１０２号,,45,201,8800927,,,,,,,2024-05-10,1,,,,,エルアイ,0
2585,8360001033633,新規,0,2024-05-10,2024-05-10,株式会社グリーンフィールド,,株式会社,沖縄県,宮古島市,平良字西里１７０８番地２,,47,214,9060012,,,,,,,2024-05-10,1,,,,,グリーンフィールド,0
2590,8370001051279,新規,0,2024-05-10,2024-05-10,ファーストペンギン株式会社,,株式会社,宮城県,柴田郡川崎町,大字前川字手代塚山３番地４４,00134703,04,324,9891501,,,,,,,2024-05-10,1,,,,,ファーストペンギン,0
2603,8420003002919,新規,0,2024-05-10,2024-05-10,合同会社輝,,合同会社,青森県,青森市,浪岡大字大釈迦字山田６０番地４,,02,201,0381301,,,,,,,2024-05-10,1,,,,,テル,0
2605,8430001091748,新規,0,2024-05-10,2024-05-10,株式会社コネクト,,株式会社,北海道,恵庭市,島松東町４丁目３番１４号,,01,231,0611351,,,,,,,2024-05-10,1,,,,,コネクト,0
2606,8430001091756,新規,0,2024-05-10,2024-05-10,Ｒａｍａｔ株式会社,,株式会社,北海道,札幌市中央区,南十条西１４丁目１番２５号,,01,101,0640810,,,,,,,2024-05-10,1,,,,,ラマット,0
2607,8430001091789,新規,0,2024-05-10,2024-05-10,株式会社マルシン通商,,株式会社,北海道,札幌市東区,東苗穂三条１丁目１８番８号,,01,103,0070803,,,,,,,2024-05-10,1,,,,,マルシンツウショウ,0
2613,8430005014977,新規,0,2024-05-10,2024-05-10,ツナグ社会保険労務士法人,,その他の設立登記法人,北海道,千歳市,幸福４丁目８番１１号,,01,224,0660082,,,,,,,2024-05-10,1,,,,,ツナグ,0
2620,8700150125205,新規,0,2024-05-10,2024-05-10,高輪三丁目品川駅前地区市街地再開発組合,,その他,東京都,港区,高輪３丁目２３番１７号,,13,103,1080074,,,,,,,2024-05-10,1,,,,,タカナワサンチヨウメシナガワエキマエチクシガイチサイカイハツクミアイ,0
2621,8700150125213,新規,0,2024-05-10,2024-05-10,大東高麗蔘株式会社,,外国会社等,東京都,新宿区,住吉町１－１７シルバープラザ市ヶ谷４０１号,,13,104,1620065,大韓民国忠清南道錦山郡郡北面郡北路５８６,,,,,,2024-05-10,1,,,,,ダイトウコウライサンカブシキガイシヤ,0
2642,9010001244553,新規,0,2024-05-10,2024-05-10,株式会社彩画房,,株式会社,東京都,中央区,銀座１丁目２２番１１号銀座大竹ビジデンス２Ｆ,,13,102,1040061,,,,,,,2024-05-10,1,,,,,サイガボウ,0
2643,9010001244586,新規,0,2024-05-10,2024-05-10,株式会社セレモアマネジメント,,株式会社,東京都,千代田区,大手町１丁目７番２号,,13,101,1000004,,,,,,,2024-05-10,1,,,,,セレモアマネジメント,0
2644,9010001244677,新規,0,2024-05-10,2024-05-10,ＩＮＯＳＳＥＭ　ＪＡＰＡＮ株式会社,,株式会社,東京都,中央区,築地３丁目９番１０号築地ビル１０階,,13,102,1040045,,,,,,,2024-05-10,1,,,,,イノセンジャパン,0
2645,9010001244719,新規,0,2024-05-10,2024-05-10,株式会社サイヤング,,株式会社,東京都,千代田区,岩本町３丁目３番８－５０９号,,13,101,1010032,,,,,,,2024-05-10,1,,,,,サイヤング,0
2646,9010001244727,新規,0,2024-05-10,2024-05-10,株式会社ｃｏｍｍｅ　ｊｅ　ｓｕｉｓ,,株式会社,東京都,中央区,日本橋横山町６－１０－２０２,,13,102,1030003,,,,,,,2024-05-10,1,,,,,コムジュスイ,0
2651,9010003043689,新規,0,2024-05-10,2024-05-10,ＯＰＲ　ＫＡＭＩＯＳＡＫＩ合同会社,,合同会社,東京都,千代田区,霞が関３丁目２番５号,,13,101,1000013,,,,,,,2024-05-10,1,,,,,,0
2660,9010401182304,新規,0,2024-05-10,2024-05-10,ナチュラルヘルスパートナーズ株式会社,,株式会社,東京都,港区,南青山２丁目２番１５号,,13,103,1070062,,,,,,,2024-05-10,1,,,,,ナチュラルヘルスパートナーズ,0
2661,9010403032606,新規,0,2024-05-10,2024-05-10,ＺｅＮアドバイザリー合同会社,,合同会社,東京都,港区,北青山１丁目３－１,,13,103,1070061,,,,,,,2024-05-10,1,,,,,ゼンアドバイザリー,0
2666,9010501052233,新規,0,2024-05-10,2024-05-10,東京日和株式会社,,株式会社,東京都,台東区,下谷１丁目４番５号瑞橙ビル,,13,106,1100004,,,,,,,2024-05-10,1,,,,,トウキョウニチワ,0
2667,9010501052241,新規,0,2024-05-10,2024-05-10,株式会社百建,,株式会社,東京都,台東区,浅草橋１丁目２５番７－９０１号,,13,106,1110053,,,,,,,2024-05-10,1,,,,,ヒャクダテ,0
2673,9010701045945,新規,0,2024-05-10,2024-05-10,株式会社マーメル,,株式会社,東京都,品川区,上大崎３丁目１－２－１９０４,,13,109,1410021,,,,,,,2024-05-10,1,,,,,マーメル,0
2681,9010803004948,新規,0,2024-05-10,2024-05-10,Ｒ‐ｘ‐Ｚｅｎｉｔｈ合同会社,,合同会社,東京都,大田区,田園調布４丁目２２－１５,,13,111,1450071,,,,,,,2024-05-10,1,,,,,アールゼニス,0
2698,9011001161771,新規,0,2024-05-10,2024-05-10,株式会社ＩＤＥＯＪ,,株式会社,東京都,渋谷区,円山町５番５号Ｎａｖｉ渋谷Ｖ３階,00134685,13,113,1500044,,,,,,,2024-05-10,1,,,,,イデオ,0
2699,9011001161838,新規,0,2024-05-10,2024-05-10,株式会社Ｂｒｅａｋ　Ｂｅａｔｓ,,株式会社,東京都,目黒区,目黒４丁目２１番１９号アイビーハイツ１階,,13,110,1530063,,,,,,,2024-05-10,1,,,,,ブレイクビーツ,0
2700,9011001161870,新規,0,2024-05-10,2024-05-10,株式会社ＣＯＯＰＥＲ,,株式会社,東京都,渋谷区,神宮前３丁目２７番１５号ＦＬＡＧ神宮前３Ｆ,,13,113,1500001,,,,,,,2024-05-10,1,,,,,クーパー,0
2701,9011001161879,新規,0,2024-05-10,2024-05-10,株式会社アメーバワークス,,株式会社,東京都,渋谷区,幡ヶ谷１丁目２番２号京王幡ヶ谷ビル４階,,13,113,1510072,,,,,,,2024-05-10,1,,,,,アメーバワークス,0
2705,9011003019126,新規,0,2024-05-10,2024-05-10,合同会社ｍｉｎ　ｐｒｏｄｕｃｔｓ,,合同会社,東京都,渋谷区,道玄坂１丁目１０番８号渋谷道玄坂東急ビル２Ｆ－Ｃ,,13,113,1500043,,,,,,,2024-05-10,1,,,,,ミンプロダクツ,0
2713,9011103014398,新規,0,2024-05-10,2024-05-10,合同会社ｉｈｍｅ,,合同会社,東京都,新宿区,西新宿３丁目３番１３号西新宿水間ビル６階,,13,104,1600023,,,,,,,2024-05-10,1,,,,,イフメ,0
2715,9011301029636,新規,0,2024-05-10,2024-05-10,株式会社ＭＯＯＤ,,株式会社,東京都,杉並区,西荻北３丁目２０番１２－１３０２号グラツィオーソ西荻窪,,13,115,1670042,,,,,,,2024-05-10,1,,,,,ムード,0
2717,9011303005148,新規,0,2024-05-10,2024-05-10,合同会社イエプラス,,合同会社,東京都,杉並区,高井戸西２丁目１０－９－２１３,,13,115,1680071,,,,,,,2024-05-10,1,,,,,,0
2720,9011401026079,新規,0,2024-05-10,2024-05-10,ＳＯＦＴ　ＪＯＹ株式会社,,株式会社,東京都,板橋区,大山町４７番５号吉岡屋ビル６階,,13,119,1730023,,,,,,,2024-05-10,1,,,,,ソフトジョイ,0
2721,9011401026087,新規,0,2024-05-10,2024-05-10,ウインズ株式会社,,株式会社,東京都,板橋区,中丸町９番３,,13,119,1730026,,,,,,,2024-05-10,1,,,,,ウインズ,0
2725,9011801044192,新規,0,2024-05-10,2024-05-10,株式会社エレクトロビート,,株式会社,東京都,足立区,西新井栄町１丁目１６番２－１００５号,,13,121,1230843,,,,,,,2024-05-10,1,,,,,エレクトロビート,0
2726,9011801044201,新規,0,2024-05-10,2024-05-10,株式会社ＡＢＣ,,株式会社,東京都,足立区,青井４丁目４４－７,,13,121,1210012,,,,,,,2024-05-10,1,,,,,エービーシー,0
2754,9020003026073,新規,0,2024-05-10,2024-05-10,ＺＥＩＲＩ　Ｃｏｎｓｕｌｔｉｎｇ合同会社,,合同会社,神奈川県,横浜市中区,長者町４丁目１０番地６－３０２号室,,14,104,2310033,,,,,,,2024-05-10,1,,,,,ゼイリコンサルティング,0
2759,9021001082174,新規,0,2024-05-10,2024-05-10,株式会社長岡,,株式会社,神奈川県,綾瀬市,吉岡東４丁目２番２０号,,14,218,2521125,,,,,,,2024-05-10,1,,,,,ナガオカ,0
2760,9021001082190,新規,0,2024-05-10,2024-05-10,株式会社堀建,,株式会社,神奈川県,高座郡寒川町,岡田１丁目１５番地７－２０１,,14,321,2530105,,,,,,,2024-05-10,1,,,,,ホリケン,0
2761,9021001082208,新規,0,2024-05-10,2024-05-10,株式会社ナインデイズトレーディング,,株式会社,神奈川県,茅ヶ崎市,出口町２番１６－７号,,14,207,2530028,,,,,,,2024-05-10,1,,,,,ナインデイズトレーディング,0
2765,9021003014489,新規,0,2024-05-10,2024-05-10,合同会社ゆいまーる,,合同会社,神奈川県,厚木市,毛利台３丁目２７番１３号,,14,212,2430037,,,,,,,2024-05-10,1,,,,,ユイマール,0
2778,9030001160245,新規,0,2024-05-10,2024-05-10,株式会社エレンフューチャー,,株式会社,埼玉県,白岡市,白岡９０６番地１６,,11,246,3490218,,,,,,,2024-05-10,1,,,,,エレンフューチャー,0
2779,9030001160261,新規,0,2024-05-10,2024-05-10,スリーバック株式会社,,株式会社,埼玉県,川口市,大字峯１３１０番地の２,,11,203,3340056,,,,,,,2024-05-10,1,,,,,スリーバック,0
2804,9040001133472,新規,0,2024-05-10,2024-05-10,株式会社イーストプランニング,,株式会社,千葉県,市原市,椎津１３５１番地２,,12,219,2990118,,,,,,,2024-05-10,1,,,,,イーストプランニング,0
2805,9040001133480,新規,0,2024-05-10,2024-05-10,東＿国際株式会社,00134700,株式会社,千葉県,松戸市,金ケ作５２番地の３７,,12,207,2702251,,,,,,,2024-05-10,1,,,,,トウカンコクサイ,0
2806,9040001133489,新規,0,2024-05-10,2024-05-10,株式会社ＨＲＯフィナンシャル,,株式会社,千葉県,千葉市中央区,新町１０００番地センシティビルディング１９階,,12,101,2600028,,,,,,,2024-05-10,1,,,,,エッチアールオーフィナンシャル,0
2807,9040001133522,新規,0,2024-05-10,2024-05-10,Ｓａｓｉｎｄｕ　Ｓｐｉｃｙ株式会社,,株式会社,千葉県,山武郡芝山町,小池１３４９・１,,12,409,2891624,,,,,,,2024-05-10,1,,,,,サシンドゥスパイシー,0
2814,9040003024918,新規,0,2024-05-10,2024-05-10,合同会社ＪＣＸ　ＴＲＡＮＳＰＯＲＴ　ＬＬＣ,,合同会社,千葉県,船橋市,高野台３丁目２３番１３号,,12,204,2740801,,,,,,,2024-05-10,1,,,,,ジャパンカリフォルニアエクスプレストランスポート,0
2815,9040003024942,新規,0,2024-05-10,2024-05-10,Ａｔｅ　Ｔｈａｔ合同会社,,合同会社,千葉県,船橋市,二和東４丁目２番８号,,12,204,2740805,,,,,,,2024-05-10,1,,,,,エイトザット,0
2816,9040003024967,新規,0,2024-05-10,2024-05-10,合同会社ＹＯｉｅｎ,,合同会社,千葉県,柏市,柏２８９－１２,,12,217,2770005,,,,,,,2024-05-10,1,,,,,ヨイン,0
2820,9050001054718,新規,0,2024-05-10,2024-05-10,大和住宅株式会社,,株式会社,茨城県,結城市,大字結城１９１５－１９モンパレス結城第二２号館２０１号室,,08,207,3070001,,,,,,,2024-05-10,1,,,,,ヤマトジュウタク,0
2822,9050003008341,新規,0,2024-05-10,2024-05-10,ＲＡｊａ　ｔｒａｄｉｎｇ合同会社,,合同会社,茨城県,古河市,東山田２９４４－７４８,,08,204,3060112,,,,,,,2024-05-10,1,,,,,ラジャトレーディング,0
2823,9070001041689,新規,0,2024-05-10,2024-05-10,株式会社イータス,,株式会社,群馬県,渋川市,金井１７４番地２,,10,208,3770027,,,,,,,2024-05-10,1,,,,,イータス,0
2824,9070001041714,新規,0,2024-05-10,2024-05-10,株式会社江原測量事務所,,株式会社,群馬県,桐生市,新里町新川４００４番地５,,10,203,3760121,,,,,,,2024-05-10,1,,,,,エバラソクリョウジムショ,0
2825,9070001041730,新規,0,2024-05-10,2024-05-10,株式会社ベルル,,株式会社,群馬県,高崎市,吉井町小串１４７番地,,10,202,3702111,,,,,,,2024-05-10,1,,,,,,0
2833,9100001037411,新規,0,2024-05-10,2024-05-10,株式会社ＲＥＯＫＵＭＡ,,株式会社,長野県,上田市,本郷９２６番地１ロイヤルハイツ健１０１,,20,203,3861323,,,,,,,2024-05-10,1,,,,,レオクマ,0
2834,9100003007528,新規,0,2024-05-10,2024-05-10,Ｆｏｒｅｓｔ　Ｃａｐｉｔａｌ合同会社,,合同会社,長野県,北佐久郡軽井沢町,大字追分９２４番地１,,20,321,3890115,,,,,,,2024-05-10,1,,,,,フォレストキャピタル,0
2838,9110001038400,新規,0,2024-05-10,2024-05-10,株式会社ＫＩＴＡＭＡＥ,,株式会社,新潟県,新潟市西区,善久８２３番地,,15,107,9501102,,,,,,,2024-05-10,1,,,,,キタマエ,0
2849,9120001264680,新規,0,2024-05-10,2024-05-10,株式会社ベステジーパートナー,,株式会社,大阪府,大阪市北区,芝田２丁目８番１１号共栄ビル３階,,27,127,5300012,,,,,,,2024-05-10,1,,,,,ベステジーパートナー,0
2850,9120001264689,新規,0,2024-05-10,2024-05-10,澤木株式会社,,株式会社,大阪府,大阪市東住吉区,湯里５丁目１６番地５号３Ｆ－Ｃ,,27,121,5460013,,,,,,,2024-05-10,1,,,,,サワキ,0
2852,9120101069550,新規,0,2024-05-10,2024-05-10,株式会社福原住宅設備,,株式会社,大阪府,岸和田市,戎町９番４８号,,27,202,5960022,,,,,,,2024-05-10,1,,,,,フクハラジュウタクセツビ,0
2853,9120103005826,新規,0,2024-05-10,2024-05-10,合同会社ＭＡＲＩＮ,,合同会社,大阪府,和泉市,葛の葉町２丁目２２番４－２号,,27,219,5940081,,,,,,,2024-05-10,1,,,,,マリン,0
2866,9130003009554,新規,0,2024-05-10,2024-05-10,ＯＨＭＩ　Ｅｑｕｉｐｍｅｎｔ合同会社,,合同会社,京都府,京都市北区,大宮南林町１番地アウルグラン北山４０３,,26,101,6038403,,,,,,,2024-05-10,1,,,,,オウミイクイップメント,0
2871,9140001134353,新規,0,2024-05-10,2024-05-10,Ｍ’ｓＨＲ株式会社,,株式会社,兵庫県,姫路市,駅前町２４１番地フェスタビル北館３Ｆ,,28,201,6700927,,,,,,,2024-05-10,1,,,,,エムエスエイチアール,0
2872,9140001134361,新規,0,2024-05-10,2024-05-10,株式会社ＹＡＭＡＭＯＴＯ,,株式会社,兵庫県,神戸市兵庫区,下沢通２丁目３番９号ビルド・ゼン２階,,28,105,6520047,,,,,,,2024-05-10,1,,,,,ヤマモト,0
2873,9140003020527,新規,0,2024-05-10,2024-05-10,合同会社Ｐｈｉｌｉａ,,合同会社,兵庫県,尼崎市,若王寺２丁目３１番１５－２０２号,,28,202,6610974,,,,,,,2024-05-10,1,,,,,フィリア,0
2874,9140003020551,新規,0,2024-05-10,2024-05-10,合同会社未来支援研究所,,合同会社,兵庫県,尼崎市,長洲中通１丁目１－７－３０３,,28,202,6600802,,,,,,,2024-05-10,1,,,,,ミライシエンケンキュウショ,0
2877,9160003003190,新規,0,2024-05-10,2024-05-10,合同会社びわこへ,,合同会社,滋賀県,長浜市,湖北町尾上１０７番地,,25,203,5290364,,,,,,,2024-05-10,1,,,,,ビワコヘ,0
2879,9170001018132,新規,0,2024-05-10,2024-05-10,株式会社紀州,,株式会社,和歌山県,東牟婁郡串本町,串本４６４番地７,,30,428,6493503,,,,,,,2024-05-10,1,,,,,キシュウ,0
2884,9180001161336,新規,0,2024-05-10,2024-05-10,株式会社ＮＢＬホーム,,株式会社,愛知県,春日井市,中野町２丁目３番地１,,23,206,4860957,,,,,,,2024-05-10,1,,,,,エヌビーエルホーム,0
2885,9180001161352,新規,0,2024-05-10,2024-05-10,株式会社Ｒｏｈｔｏエンジニアリング,,株式会社,愛知県,名古屋市千種区,宮根台２丁目３番３号,,23,101,4640008,,,,,,,2024-05-10,1,,,,,ロートエンジニアリング,0
2886,9180001161360,新規,0,2024-05-10,2024-05-10,株式会社Ｕｎｉｏｎ,,株式会社,愛知県,名古屋市中区,栄３丁目２４番１１号パークフロントサカエビル５Ｆ,,23,106,4600008,,,,,,,2024-05-10,1,,,,,ユニオン,0
2887,9180001161377,新規,0,2024-05-10,2024-05-10,株式会社とんがり,,株式会社,愛知県,瀬戸市,石田町１８３番地の４,,23,204,4890951,,,,,,,2024-05-10,1,,,,,トンガリ,0
2888,9180001161393,新規,0,2024-05-10,2024-05-10,株式会社戸田塗装,,株式会社,愛知県,あま市,新居屋久渕郷１３９番地,,23,237,4901105,,,,,,,2024-05-10,1,,,,,トダトソウ,0
2889,9180001161410,新規,0,2024-05-10,2024-05-10,株式会社ハウスシールド,,株式会社,愛知県,名古屋市熱田区,明野町１９番２３号エントピア矢田ＩＩＩＢ号,00134688,23,109,4560071,,,,,,,2024-05-10,1,,,,,ハウスシールド,0
2890,9180001161419,新規,0,2024-05-10,2024-05-10,株式会社キャリーアウト,,株式会社,愛知県,春日井市,田楽町１０３０－１ハセガワビル２Ａ,,23,206,4860808,,,,,,,2024-05-10,1,,,,,キャリーアウト,0
2893,9180003026727,新規,0,2024-05-10,2024-05-10,瑞翔合同会社,,合同会社,愛知県,名古屋市東区,芳野１丁目３番９号,,23,102,4610027,,,,,,,2024-05-10,1,,,,,ミズト,0
2894,9180003026751,新規,0,2024-05-10,2024-05-10,合同会社ＣＲＡＲＴＳ,,合同会社,愛知県,名古屋市西区,城西３丁目１６番２３号,,23,104,4510031,,,,,,,2024-05-10,1,,,,,クラーツ,0
2896,9180301038614,新規,0,2024-05-10,2024-05-10,株式会社ｏｌｍｍ,,株式会社,愛知県,西尾市,横手町出屋敷５３番地,,23,213,4450052,,,,,,,2024-05-10,1,,,,,オルム,0
2900,9200001042491,新規,0,2024-05-10,2024-05-10,株式会社綱脇組,,株式会社,岐阜県,岐阜市,南柿ケ瀬２１番地１,,21,201,5011134,,,,,,,2024-05-10,1,,,,,ツナワキグミ,0
2902,9200003006338,新規,0,2024-05-10,2024-05-10,合同会社高橋,,合同会社,岐阜県,多治見市,松坂町４丁目８－１７０,,21,204,5070063,,,,,,,2024-05-10,1,,,,,タカハシ,0
2917,9260001039053,新規,0,2024-05-10,2024-05-10,ネクサス・トレーディング株式会社,,株式会社,岡山県,倉敷市,児島駅前１丁目４６番地・１階Ｃｏ　Ｃｒｅａｔｉｏｎ,,33,202,7110921,,,,,,,2024-05-10,1,,,,,ネクサストレーディング,0
2919,9270001008973,新規,0,2024-05-10,2024-05-10,株式会社ＫＩＰ　ＤＥＳＩＧＮ,,株式会社,鳥取県,東伯郡北栄町,江北４３１番地３,,31,372,6892101,,,,,,,2024-05-10,1,,,,,ケーアイピーデザイン,0
2925,9290001105595,新規,0,2024-05-10,2024-05-10,株式会社ルーチェ,,株式会社,福岡県,大野城市,南ケ丘３丁目１７番８号,,40,219,8160964,,,,,,,2024-05-10,1,,,,,ルーチェ,0
2926,9290001105612,新規,0,2024-05-10,2024-05-10,マッドソフト株式会社,,株式会社,福岡県,福岡市中央区,大名２丁目６－１１,,40,133,8100041,,,,,,,2024-05-10,1,,,,,マッドソフト,0
2929,9290003015223,新規,0,2024-05-10,2024-05-10,合同会社Ｋａｚ,,合同会社,福岡県,福岡市東区,和白丘３丁目３番２６号,,40,131,8110213,,,,,,,2024-05-10,1,,,,,カズ,0
2930,9290801030547,新規,0,2024-05-10,2024-05-10,株式会社アス,,株式会社,福岡県,北九州市八幡西区,則松７丁目１７番４２号,,40,109,8070831,,,,,,,2024-05-10,1,,,,,アス,0
2933,9300001013722,新規,0,2024-05-10,2024-05-10,株式会社ＢＯＮＩＴＡ,,株式会社,佐賀県,武雄市,武雄町大字昭和９－１ＴＭＧビル１Ｆ,,41,206,8430023,,,,,,,2024-05-10,1,,,,,ボニータ,0
2948,9360001033632,新規,0,2024-05-10,2024-05-10,株式会社松風の森,,株式会社,沖縄県,宮古島市,平良字西里２４１番地友利ビル１Ｆ西,,47,214,9060012,,,,,,,2024-05-10,1,,,,,マツカゼノモリ,0
2949,9360001033640,新規,0,2024-05-10,2024-05-10,ＳＭＩＴＨ株式会社,,株式会社,沖縄県,沖縄市,美里５丁目１０番２号,,47,211,9042153,,,,,,,2024-05-10,1,,,,,スミス,0
2953,9370001051278,新規,0,2024-05-10,2024-05-10,株式会社今野,,株式会社,宮城県,仙台市青葉区,大町２丁目９番８－５０６号,,04,101,9800804,,,,,,,2024-05-10,1,,,,,コンノ,0
2961,9380005012829,新規,0,2024-05-10,2024-05-10,司法書士法人なかむら,,その他の設立登記法人,福島県,会津若松市,城東町８番１４号,,07,202,9650807,,,,,,,2024-05-10,1,,,,,ナカムラ,0
2971,9430001091730,新規,0,2024-05-10,2024-05-10,株式会社ＳＥＥＤ,,株式会社,北海道,石狩市,花川南三条４丁目３番地,,01,235,0613203,,,,,,,2024-05-10,1,,,,,シード,0
2972,9430001091747,新規,0,2024-05-10,2024-05-10,株式会社笑福,,株式会社,北海道,札幌市北区,新琴似十二条５丁目１０７２－５８,,01,102,0010912,,,,,,,2024-05-10,1,,,,,ショウフク,0
2973,9430001091763,新規,0,2024-05-10,2024-05-10,株式会社ときわ設備,,株式会社,北海道,虻田郡倶知安町,北五条東３丁目１番地１１６,,01,400,0440005,,,,,,,2024-05-10,1,,,,,トキワセツビ,0
2983,9500001025615,新規,0,2024-05-10,2024-05-10,四国レンタル株式会社,,株式会社,愛媛県,松山市,祝谷２丁目１０番７号,,38,201,7900833,,,,,,,2024-05-10,1,,,,,シコクレンタル,0
2988,9700150123050,新規,0,2024-05-10,2024-05-10,Ｘｉａｍｅｎ　Ｓｈｉ　Ｙｉ　Ｌｉｎ　Ｄｉａｎ　Ｚｉ　Ｓｈａｎｇ　Ｗｕ　Ｙｏｕ　Ｘｉａｎ　Ｇｏｎｇ　Ｓｉ,,外国会社等,,,,,,,,Ｕｎｉｔ　５１６－３，ｃｒｏｓｓ－ｂｏｒｄｅｒ　Ｅ－ｃｏｍｍｅｒｃｅ　Ｉｎｄｕｓｔｒｉａｌ　Ｐａｒｋ　Ｎｏ．２９　Ｃｈａｎｇｈｏｎｇ　Ｒｏａｄ，Ｘｉａｍｅｎ，Ｆｕｊｉａｎ，ｃｈｉｎａ,,,,,,2024-05-10,1,,,,,シヤーメンシーイーリンデイエンズーシヤンウーヨウシエンゴンスー,0
2989,9700150124949,新規,0,2024-05-10,2024-04-18,熊本市川尻公会堂運営委員会,,その他,熊本県,熊本市南区,川尻４丁目８番２５号,,43,104,8614115,,,,,,,2024-04-18,1,,,,,クマモトシカワシリコウカイドウウンエイイインカイ,0
2990,9700150125212,新規,0,2024-05-10,2024-05-10,ＦＣアルベスタ小川スポーツ少年団,,その他,埼玉県,比企郡小川町,みどりが丘４丁目３－１１,,11,343,3550315,,,,,,,2024-05-10,1,,,,,エフシーアルベスタオガワスポーツショウネンダン,0
