sequenceNumber,corporateNumber,process,correct,updateDate,changeDate,name,nameImageId,kind,prefectureName,cityName,streetNumber,addressImageId,prefectureCode,cityCode,postCode,addressOutside,addressOutsideImageId,closeDate,closeCause,successorCorporateNumber,changeCause,assignmentDate,latest,enName,enPrefectureName,enCityName,enAddressOutside,furigana,hihyoji
7,1010003047714,新規,0,2025-06-17,2025-06-17,合同会社ＧｈｏｓｔＦｏｒｇｅ,,合同会社,東京都,千代田区,神田和泉町１番地６－１６ヤマトビル４０５,,13,101,1010024,,,,,,,2025-06-17,1,,,,,ゴーストフォージ,0
12,1010005040196,新規,0,2025-06-17,2025-06-17,一般社団法人あんばいＬＢ５号,,その他の設立登記法人,東京都,千代田区,霞が関３丁目２番５号,,13,101,1000013,,,,,,,2025-06-17,1,,,,,アンバイエルビーゴゴウ,0
13,1010005040205,新規,0,2025-06-17,2025-06-17,ＥＳホスピタリティーファンド１号一般社団法人,,その他の設立登記法人,東京都,千代田区,丸の内１丁目４番１号東京共同会計事務所内,,13,101,1000005,,,,,,,2025-06-17,1,,,,,イーエスホスピタリティーファンドイチゴウ,0
20,1010401190982,新規,0,2025-06-17,2025-06-17,株式会社マンションオタク,,株式会社,東京都,港区,芝２丁目８番１７号,,13,103,1050014,,,,,,,2025-06-17,1,,,,,マンションオタク,0
22,1010501022887,新規,0,2025-06-17,2025-06-17,株式会社ヒシキ,,株式会社,東京都,台東区,東浅草１丁目６番１号,,13,106,1110025,,,,,,,2025-06-17,1,,,,,ヒシキ,0
28,1010703007769,新規,0,2025-06-17,2025-06-17,Ｂｉｌｂｙ　Ｒｅｓｅａｒｃｈ合同会社,,合同会社,東京都,品川区,西五反田３丁目９番１８号,,13,109,1410031,,,,,,,2025-06-17,1,,,,,ビルビーリサーチ,0
34,1010901057582,新規,0,2025-06-17,2025-06-17,ｈｕｍ株式会社,,株式会社,東京都,世田谷区,北沢２丁目３０－１４重宗ビル３Ｆ,,13,112,1550031,,,,,,,2025-06-17,1,,,,,ハム,0
37,1010903010011,新規,0,2025-06-17,2025-06-17,ＣＣネクスト合同会社,,合同会社,東京都,世田谷区,若林４丁目４番２４号,,13,112,1540023,,,,,,,2025-06-17,1,,,,,シーシーネクスト,0
49,1011001170004,新規,0,2025-06-17,2025-06-17,株式会社ＣＨＥＤＤＡＲ　ＷＩＺＺ,,株式会社,東京都,渋谷区,恵比寿西２丁目８番４号,,13,113,1500021,,,,,,,2025-06-17,1,,,,,チェダーウィズ,0
50,1011001170103,新規,0,2025-06-17,2025-06-17,株式会社Ｒｉｔｏｋｙｏ,,株式会社,東京都,渋谷区,神南１丁目１１番４号ＦＰＧリンクス神南５階,,13,113,1500041,,,,,,,2025-06-17,1,,,,,リトウキョウ,0
51,1011001170219,新規,0,2025-06-17,2025-06-17,株式会社ジオニック,,株式会社,東京都,渋谷区,恵比寿４丁目４番２－５０５号,,13,113,1500013,,,,,,,2025-06-17,1,,,,,ジオニック,0
55,1011003021774,新規,0,2025-06-17,2025-06-17,合同会社トモラボ,,合同会社,東京都,渋谷区,恵比寿西２丁目８番４号ＥＸ恵比寿西ビル５階,,13,113,1500021,,,,,,,2025-06-17,1,,,,,トモラボ,0
56,1011003021799,新規,0,2025-06-17,2025-06-17,合同会社Ｈ　Ｐｒｏｊｅｃｔ,,合同会社,東京都,渋谷区,神南１丁目１１番４号,,13,113,1500041,,,,,,,2025-06-17,1,,,,,エイチプロジェクト,0
57,1011003021808,新規,0,2025-06-17,2025-06-17,ＬＤＰグローバル合同会社,,合同会社,東京都,渋谷区,幡ヶ谷３丁目３９番１２号渋谷ウエストビル１階,,13,113,1510072,,,,,,,2025-06-17,1,,,,,エルディーピーグローバル,0
62,1011101112046,新規,0,2025-06-17,2025-06-17,Ｎｅａｔ　Ｅｎｇｉｎｅｅｒｉｎｇ株式会社,,株式会社,東京都,新宿区,高田馬場４丁目９番１４号ふみビル４Ｆ,,13,104,1690075,,,,,,,2025-06-17,1,,,,,ニートエンジニアリング,0
63,1011101112070,新規,0,2025-06-17,2025-06-17,株式会社エレナ,,株式会社,東京都,新宿区,西早稲田３丁目２４番１１号,,13,104,1690051,,,,,,,2025-06-17,1,,,,,エレナ,0
64,1011101112104,新規,0,2025-06-17,2025-06-17,ＶＡＮＬＩＮＫＳ　ＥＮＥＲＧＹ株式会社,,株式会社,東京都,新宿区,市谷本村町２番２１号テーブルメディアセンター４階,,13,104,1620845,,,,,,,2025-06-17,1,,,,,ヴァンリンクスエネルギー,0
65,1011101112120,新規,0,2025-06-17,2025-06-17,株式会社Ｍｉｌｕｎｅａ,,株式会社,東京都,新宿区,新宿７丁目２６番２５－４１２号,,13,104,1600022,,,,,,,2025-06-17,1,,,,,ミルネア,0
66,1011101112129,新規,0,2025-06-17,2025-06-17,株式会社白熊商事,,株式会社,東京都,新宿区,西新宿６丁目２１番１－２０８号,,13,104,1600023,,,,,,,2025-06-17,1,,,,,シロクマショウジ,0
68,1011103015998,新規,0,2025-06-17,2025-06-17,合同会社Ｍｙｎｏ,,合同会社,東京都,新宿区,神楽坂６丁目３６－１神楽坂ビル４階,,13,104,1620825,,,,,,,2025-06-17,1,,,,,ミーノ,0
71,1011401027175,新規,0,2025-06-17,2025-06-17,株式会社柏木石材,,株式会社,東京都,板橋区,大山金井町５１番２号ｔｒｉａｓ５１２、４０４,,13,119,1730024,,,,,,,2025-06-17,1,,,,,カシワギセキザイ,0
75,1011601028741,新規,0,2025-06-17,2025-06-17,株式会社ＨＫＣ,,株式会社,東京都,練馬区,桜台２丁目６番８号,,13,120,1760002,,,,,,,2025-06-17,1,,,,,エッチケイシイ,0
78,1011703004285,新規,0,2025-06-17,2025-06-17,Ｙｏｌｌｙ　Ｌａｂｏ合同会社,,合同会社,東京都,江戸川区,鹿骨４丁目３０－３,,13,123,1330073,,,,,,,2025-06-17,1,,,,,ヨリラボ,0
84,1013301054448,新規,0,2025-06-17,2025-06-17,株式会社狸プロダクション,,株式会社,東京都,豊島区,東池袋１丁目３４－５いちご東池袋ビル６階,,13,116,1700013,,,,,,,2025-06-17,1,,,,,タヌキプロダクション,0
85,1013301054464,新規,0,2025-06-17,2025-06-17,皓翔株式会社,,株式会社,東京都,豊島区,西巣鴨１丁目２番２２号ＷＡＮＤＡビル２階,,13,116,1700001,,,,,,,2025-06-17,1,,,,,ハオシャン,0
94,1020001163322,新規,0,2025-06-17,2025-06-17,株式会社信創テック,,株式会社,神奈川県,横浜市西区,みなとみらい４丁目４－２横浜ブルーアベニュー,,14,103,2200012,,,,,,,2025-06-17,1,,,,,シンソウテック,0
95,1020001163388,新規,0,2025-06-17,2025-06-17,夏洛特株式会社,,株式会社,神奈川県,横浜市神奈川区,神大寺４丁目１４番２１号３ユナイト片倉アデリーナ１０２室,,14,102,2210801,,,,,,,2025-06-17,1,,,,,シャーロット,0
96,1020001163405,新規,0,2025-06-17,2025-06-17,株式会社ＭＯＡＮＤＭＯ,,株式会社,神奈川県,横浜市戸塚区,秋葉町５０番地１,,14,110,2450052,,,,,,,2025-06-17,1,,,,,モーアンドモー,0
97,1020001163421,新規,0,2025-06-17,2025-06-17,オカダポーターズ株式会社,,株式会社,神奈川県,横浜市南区,永田山王台３４番９－３０２号,,14,105,2320074,,,,,,,2025-06-17,1,,,,,オカダポーターズ,0
107,1021001085358,新規,0,2025-06-17,2025-06-17,株式会社Ｃｈａｒｍ＆Ｇｒｉｔ,,株式会社,神奈川県,横須賀市,安浦町３丁目４２番地,,14,201,2380012,,,,,,,2025-06-17,1,,,,,チャームアンドグリット,0
110,1021003016154,新規,0,2025-06-17,2025-06-17,合同会社八重,,合同会社,神奈川県,平塚市,大神６丁目１３番６号,,14,203,2540012,,,,,,,2025-06-17,1,,,,,ヤエ,0
113,1030001167066,新規,0,2025-06-17,2025-06-17,株式会社彩弥,,株式会社,埼玉県,所沢市,中新井３丁目１７番１５号,,11,208,3590041,,,,,,,2025-06-17,1,,,,,サヤ,0
114,1030001167124,新規,0,2025-06-17,2025-06-17,株式会社ＺＥＰＨＹＲ,,株式会社,埼玉県,蕨市,中央１丁目１７番３０号ルネ蕨１号館８１６号,,11,223,3350004,,,,,,,2025-06-17,1,,,,,ゼファー,0
116,1030003027012,新規,0,2025-06-17,2025-06-17,合同会社ヨミガエリ,,合同会社,埼玉県,川口市,西青木１丁目２４番１７－３０６号ガーラ・レジデンス川口西青木,,11,203,3320035,,,,,,,2025-06-17,1,,,,,ヨミガエリ,0
123,1040001138792,新規,0,2025-06-17,2025-06-17,株式会社ＡＸＩＳ・ＴＲＡＤＥ,,株式会社,千葉県,市原市,根田８１４,,12,219,2900024,,,,,,,2025-06-17,1,,,,,アクシストレード,0
132,1070001043024,新規,0,2025-06-17,2025-06-17,株式会社太田メカニカルサービス,,株式会社,群馬県,太田市,西新町３５番地２９,,10,205,3730847,,,,,,,2025-06-17,1,,,,,オオタメカニカルサービス,0
135,1080101025565,新規,0,2025-06-17,2025-06-17,株式会社十文字屋,,株式会社,静岡県,沼津市,大平２８７４番地の２７６,,22,203,4100821,,,,,,,2025-06-17,1,,,,,ジュウモンジヤ,0
143,1110001039348,新規,0,2025-06-17,2025-06-17,株式会社ビルドウェブ,,株式会社,新潟県,糸魚川市,大町２丁目４番４６号１０１,,15,216,9410061,,,,,,,2025-06-17,1,,,,,ビルドウェブ,0
156,1120001276907,新規,0,2025-06-17,2025-06-17,立贏科技株式会社,,株式会社,大阪府,大阪市福島区,福島６丁目１９番１２号ダンテＳＫ梅田５０１室,,27,103,5530003,,,,,,,2025-06-17,1,,,,,リツエイカギ,0
157,1120003029767,新規,0,2025-06-17,2025-06-17,川瀬建設合同会社,,合同会社,大阪府,大阪市北区,長柄西１丁目３番５４－５０８,,27,127,5310061,,,,,,,2025-06-17,1,,,,,カワセケンセツ,0
158,1120003029775,新規,0,2025-06-17,2025-06-17,Ａｈｍａｄ　Ｔｒａｄｉｎｇ合同会社,,合同会社,大阪府,大阪市住吉区,我孫子５丁目９番１７号,,27,120,5580014,,,,,,,2025-06-17,1,,,,,アハマドトレーディング,0
159,1120101071902,新規,0,2025-06-17,2025-06-17,株式会社Ｌｅｇｉｔ,,株式会社,大阪府,羽曳野市,野々上４丁目５番１９－１０２号スタンドアップ野々上,,27,222,5830871,,,,,,,2025-06-17,1,,,,,レジット,0
164,1120901051079,新規,0,2025-06-17,2025-06-17,株式会社エスクレスト,,株式会社,大阪府,豊中市,利倉１丁目１４番３５号,,27,203,5610845,,,,,,,2025-06-17,1,,,,,エスクレスト,0
169,1130003010544,新規,0,2025-06-17,2025-06-17,Ｐａｓｃａｌ　Ｊａｐａｎ合同会社,,合同会社,京都府,京都市右京区,山ノ内北ノ口町１９番３－３０３号,,26,108,6150094,,,,,,,2025-06-17,1,,,,,パスカルジャパン,0
177,1140001138907,新規,0,2025-06-17,2025-06-17,株式会社ＴＡＧＩＲＩ,,株式会社,兵庫県,神戸市中央区,元町通４丁目４番７号,,28,110,6500022,,,,,,,2025-06-17,1,,,,,タギリ,0
178,1140001138948,新規,0,2025-06-17,2025-06-17,株式会社シルバー,,株式会社,兵庫県,神戸市兵庫区,上庄通３丁目１－１－２Ｂ室,,28,105,6520862,,,,,,,2025-06-17,1,,,,,シルバー,0
184,1160001026829,新規,0,2025-06-17,2025-06-17,エムサポート株式会社,,株式会社,滋賀県,大津市,大江７丁目１５番１５号,,25,201,5202141,,,,,,,2025-06-17,1,,,,,エムサポート,0
192,1180001167332,新規,0,2025-06-17,2025-06-17,株式会社辻工務店,,株式会社,愛知県,愛西市,日置町四反割２１番地１有限会社愛西クリーンセンター内,,23,232,4960906,,,,,,,2025-06-17,1,,,,,ツジコウムテン,0
194,1180301039909,新規,0,2025-06-17,2025-06-17,株式会社ＪＷＩユニオン,,株式会社,愛知県,安城市,桜井町桜西三丁目６番地１５,,23,212,4441154,,,,,,,2025-06-17,1,,,,,ジェイダブリューアイユニオン,0
195,1200003006881,新規,0,2025-06-17,2025-06-17,合同会社Ｌｉｏｎ,,合同会社,岐阜県,岐阜市,芋島３丁目３番２号２０１号室,,21,201,5008234,,,,,,,2025-06-17,1,,,,,レオン,0
207,1240001065083,新規,0,2025-06-17,2025-06-17,株式会社ＬＥＧＡＸＩＡ,,株式会社,広島県,広島市安佐南区,山本新町５丁目１８番２１号,,34,105,7310139,,,,,,,2025-06-17,1,,,,,レガシア,0
213,1270003001760,新規,0,2025-06-17,2025-06-17,合同会社井上潜水,,合同会社,鳥取県,鳥取市,浜坂３丁目１５番３１－１号,,31,201,6800001,,,,,,,2025-06-17,1,,,,,イノウエセンスイ,0
219,1290001110405,新規,0,2025-06-17,2025-06-17,株式会社ＦＩＸ,,株式会社,福岡県,福岡市西区,横浜２丁目１９番３号,,40,135,8190166,,,,,,,2025-06-17,1,,,,,フィックス,0
222,1290003016996,新規,0,2025-06-17,2025-06-17,合同会社筑紫野市天山バッテリープレイス,,合同会社,福岡県,福岡市南区,大楠１丁目４番２２号,,40,134,8150082,,,,,,,2025-06-17,1,,,,,チクシノシアマヤマバッテリープレイス,0
226,1290801031635,新規,0,2025-06-17,2025-06-17,株式会社Ｎスタート,,株式会社,福岡県,北九州市小倉南区,若園３丁目２番４４号,,40,107,8020816,,,,,,,2025-06-17,1,,,,,エヌスタート,0
229,1290803005083,新規,0,2025-06-17,2025-06-17,合同会社ａｔａｔａｋａ,,合同会社,福岡県,行橋市,行事４丁目２１番２号テラッツァ行事Ｅ－１,,40,213,8240001,,,,,,,2025-06-17,1,,,,,アタタカ,0
232,1310001019651,新規,0,2025-06-17,2025-06-17,株式会社友浩,,株式会社,長崎県,佐世保市,高梨町１８番２４号,,42,202,8570811,,,,,,,2025-06-17,1,,,,,,0
235,1330005010927,新規,0,2025-06-17,2025-06-17,一般社団法人地方行政支援機構,,その他の設立登記法人,熊本県,熊本市東区,秋津新町１番３４号,,43,102,8612107,,,,,,,2025-06-17,1,,,,,チホウギョウセイシエンキコウ,0
244,1370001052713,新規,0,2025-06-17,2025-06-17,株式会社Ｈａｇｕｋｕｍｉ,,株式会社,宮城県,仙台市青葉区,三条町１９番１号東北大学国際交流会館三条第１会館Ｂ棟５１１,,04,101,9810935,,,,,,,2025-06-17,1,,,,,ハグクミ,0
245,1370001052721,新規,0,2025-06-17,2025-06-17,株式会社Ｖａｌｕｅ　ｏｆ,,株式会社,宮城県,仙台市青葉区,中央４丁目４－１９アーバンネット仙台中央ビル２Ｆ、ＹＵＩ　ＮＯＳ内,,04,101,9800021,,,,,,,2025-06-17,1,,,,,バリューオブ,0
249,1390003002409,新規,0,2025-06-17,2025-06-17,合同会社Ｌｕｃｅ　ｆｅｌｉｃｅ,,合同会社,山形県,酒田市,亀ケ崎２丁目１９番３９号,,06,204,9980842,,,,,,,2025-06-17,1,,,,,,0
253,1430003017773,新規,0,2025-06-17,2025-06-17,合同会社Ｐｏｉｘｏｎ,,合同会社,北海道,札幌市西区,平和三条４丁目１番３６号,,01,107,0630023,,,,,,,2025-06-17,1,,,,,ポイゾン,0
259,1500001026348,新規,0,2025-06-17,2025-06-17,浩臣組株式会社,,株式会社,愛媛県,松山市,古三津２丁目２番７号,,38,201,7918067,,,,,,,2025-06-17,1,,,,,ヒロオミグミ,0
262,1700150131085,新規,0,2025-06-17,2025-06-17,Ｃａｒ　Ｓｐａｒｅ　Ｔｒａｄｅｒｓ,,外国会社等,千葉県,八街市,朝日１７２番地３,,12,230,2891101,スリランカ民主社会主義共和国、マタレ、アッカラマレワッテドールロード、Ｎｏ．１２０／４４,,,,,,2025-06-17,1,,,,,カースペアトレーダーズ,0
263,1700150131093,新規,0,2025-06-17,2025-06-17,ＴＲＡＤＥＰＵＬＳＥ　ＴＥＣＨ　ＬＩＭＩＴＥＤ,,外国会社等,,,,,,,,ＵＮＩＴ　Ｂ３２，１１／Ｆ　ＷＯＮＧ　ＫＩＮＧ　ＩＮＤ　ＢＵＩＬＤＩＮＧ，ＮＯ．２　ＴＡＩ　ＹＡＵ　ＳＴＲＥＥＴ　ＳＡＮ　ＰＯ　ＫＯＮＧ　ＨＯＮＧ　ＫＯＮＧ,,,,,,2025-06-17,1,,,,,トレードパルステックリミテッド,0
265,2010001255986,新規,0,2025-06-17,2025-06-17,株式会社ＡｚｕｒｅＢｒｅａｔｈ,,株式会社,東京都,千代田区,神田紺屋町１１番鈴野ビル４階,,13,101,1010035,,,,,,,2025-06-17,1,,,,,アジュールブレス,0
266,2010001256035,新規,0,2025-06-17,2025-06-17,株式会社Ｄｏｃｔｏｒ　Ｓｕｐｐｌｙ,,株式会社,東京都,中央区,銀座１丁目１２番４号,,13,102,1040061,,,,,,,2025-06-17,1,,,,,ドクターサプライ,0
271,2010005040195,新規,0,2025-06-17,2025-06-17,Ｓｐｒｉｎｔ　Ａｒｍ一般社団法人,,その他の設立登記法人,東京都,千代田区,霞が関３丁目２番５号,,13,101,1000013,,,,,,,2025-06-17,1,,,,,,0
281,2010401191047,新規,0,2025-06-17,2025-06-17,株式会社ｉＴＴＥ,,株式会社,東京都,港区,北青山１丁目３－３三橋ビル３階,,13,103,1070061,,,,,,,2025-06-17,1,,,,,イッテ,0
284,2010403035375,新規,0,2025-06-17,2025-06-17,日桐合同会社,,合同会社,東京都,港区,南青山３丁目１－３６青山丸竹ビル６Ｆ,,13,103,1070062,,,,,,,2025-06-17,1,,,,,ニットウ,0
290,2010701047865,新規,0,2025-06-17,2025-06-17,スマートトラベル株式会社,,株式会社,東京都,品川区,東五反田２丁目５番５号五反田サマリヤマンション４０５号,,13,109,1410022,,,,,,,2025-06-17,1,,,,,スマートトラベル,0
291,2010701047881,新規,0,2025-06-17,2025-06-17,ウィルダー株式会社,,株式会社,東京都,品川区,東五反田１丁目４番９－６０６号,,13,109,1410022,,,,,,,2025-06-17,1,,,,,ウィルダー,0
304,2011001170003,新規,0,2025-06-17,2025-06-17,株式会社Ａｃｃｕｉｌｉｓ,,株式会社,東京都,渋谷区,恵比寿２丁目２０－１２－３０１,,13,113,1500013,,,,,,,2025-06-17,1,,,,,アクイリス,0
305,2011001170093,新規,0,2025-06-17,2025-06-17,ＣｌｏｕｄＬｉｆｅ株式会社,,株式会社,東京都,目黒区,上目黒２丁目１２－１３－３０１,,13,110,1530051,,,,,,,2025-06-17,1,,,,,クラウドライフ,0
306,2011001170102,新規,0,2025-06-17,2025-06-17,株式会社グローバルリンク,,株式会社,東京都,渋谷区,道玄坂１丁目１０番８号渋谷道玄坂東急ビル２Ｆ－Ｃ,,13,113,1500043,,,,,,,2025-06-17,1,,,,,グローバルリンク,0
307,2011001170218,新規,0,2025-06-17,2025-06-17,株式会社言の葉,,株式会社,東京都,渋谷区,南平台町１５番１３号,,13,113,1500036,,,,,,,2025-06-17,1,,,,,コトノハ,0
308,2011001170259,新規,0,2025-06-17,2025-06-17,Ｂｕｓｈ＆ＴａｂａｓＣｏ株式会社,,株式会社,東京都,目黒区,中目黒１丁目９番７号ｉＯＮ中目黒ＥＡＳＴ－４０２,,13,110,1530061,,,,,,,2025-06-17,1,,,,,ブッシュアンドタバスコ,0
309,2011001170333,新規,0,2025-06-17,2025-06-17,株式会社Ｌｕｍｉｒｉｓ,,株式会社,東京都,渋谷区,渋谷２丁目１番１号,,13,113,1500002,,,,,,,2025-06-17,1,,,,,ルミリス,0
313,2011003021765,新規,0,2025-06-17,2025-06-17,ＲａｎＫｕ合同会社,,合同会社,東京都,渋谷区,恵比寿西２丁目８番４号ＥＸ恵比寿西ビル５階,,13,113,1500021,,,,,,,2025-06-17,1,,,,,ランク,0
314,2011005011070,新規,0,2025-06-17,2025-06-17,一般社団法人未来共創機構,,その他の設立登記法人,東京都,渋谷区,神宮前３丁目３５番１９号バティマン・イケダ５Ｆ,,13,113,1500001,,,,,,,2025-06-17,1,,,,,ミライキョウソウキコウ,0
325,2011601028732,新規,0,2025-06-17,2025-06-17,家禾株式会社,,株式会社,東京都,練馬区,旭町３丁目２６番４号,,13,120,1790071,,,,,,,2025-06-17,1,,,,,カカ,0
331,2012801024034,新規,0,2025-06-17,2025-06-17,盛康株式会社,,株式会社,東京都,昭島市,福島町１０１１番地４５ハイツすずき１Ａ,,13,207,1960031,,,,,,,2025-06-17,1,,,,,モリヤス,0
333,2013301054447,新規,0,2025-06-17,2025-06-17,新東株式会社,,株式会社,東京都,豊島区,東池袋２丁目６２番８号ＢＩＧオフィスプラザ池袋１２０６,,13,116,1700013,,,,,,,2025-06-17,1,,,,,シントウ,0
334,2013301054463,新規,0,2025-06-17,2025-06-17,ＵＳＪ株式会社,,株式会社,東京都,豊島区,池袋本町２丁目３０番２－３０３号,,13,116,1700011,,,,,,,2025-06-17,1,,,,,ユーエスジェー,0
337,2020001163445,新規,0,2025-06-17,2025-06-17,株式会社日本メディカルサポート,,株式会社,神奈川県,横浜市西区,みなとみらい４丁目１０番１号,,14,103,2200012,,,,,,,2025-06-17,1,,,,,ニホンメディカルサポート,0
340,2020003028729,新規,0,2025-06-17,2025-06-17,ＡＮＤ合同会社,,合同会社,神奈川県,横浜市鶴見区,浜町１丁目３番地１６,,14,101,2300036,,,,,,,2025-06-17,1,,,,,エイエヌディー,0
349,2021001085448,新規,0,2025-06-17,2025-06-17,エナサホーム株式会社,,株式会社,神奈川県,逗子市,沼間２丁目８番１８号,,14,208,2490004,,,,,,,2025-06-17,1,,,,,エナサホーム,0
352,2021003016161,新規,0,2025-06-17,2025-06-17,合同会社ｈｉｂｉｔｏｋｕｒａｓｈｉ,,合同会社,神奈川県,鎌倉市,十二所３７番地１,,14,204,2480001,,,,,,,2025-06-17,1,,,,,ヒビトクラシ,0
360,2030001167081,新規,0,2025-06-17,2025-06-17,株式会社ＯＹＡＭＡ　ＩＭＰＯＲＴ＆ＥＸＰＯＲＴ,,株式会社,埼玉県,飯能市,本町１９番２号ＫＩＶーＷｅｌｆａｒｅ会館飯能３号室,,11,209,3570032,,,,,,,2025-06-17,1,,,,,オヤマインポートアンドエクスポート,0
366,2030003026995,新規,0,2025-06-17,2025-06-17,合同会社古賀企画,,合同会社,埼玉県,所沢市,大字久米３３７番地１８,,11,208,3591131,,,,,,,2025-06-17,1,,,,,,0
372,2040001139278,新規,0,2025-06-17,2025-06-17,白井市場株式会社,,株式会社,千葉県,白井市,根１０２番地の２５,,12,232,2701431,,,,,,,2025-06-17,1,,,,,シロイイチバ,0
373,2040002105428,新規,0,2025-06-17,2025-06-17,有限会社大隅材木店,,有限会社,千葉県,君津市,久留里市場８９５番地,,12,225,2920421,,,,,,,2025-06-17,1,,,,,オオスミザイモクテン,0
375,2040003027778,新規,0,2025-06-17,2025-06-17,合同会社ＰＷ　ｗｅｌｄｉｎｇ,,合同会社,千葉県,千葉市中央区,生実町２５５８－２ニューサンＡ２０１,,12,101,2600813,,,,,,,2025-06-17,1,,,,,ピーダブリューウェルディング,0
376,2040003027844,新規,0,2025-06-17,2025-06-17,ミドリノオト合同会社,,合同会社,千葉県,鎌ケ谷市,中佐津間１丁目１４番２２号,,12,224,2730135,,,,,,,2025-06-17,1,,,,,ミドリノオト,0
383,2060001038305,新規,0,2025-06-17,2025-06-17,株式会社ＧＳＦ,,株式会社,栃木県,那須塩原市,松浦町１１８番地１４８,,09,213,3250074,,,,,,,2025-06-17,1,,,,,ジーエスエフ,0
385,2060003005600,新規,0,2025-06-17,2025-06-17,合同会社オオタキ住建,,合同会社,栃木県,宇都宮市,細谷町５９２番地１３－１Ｆ,,09,201,3200074,,,,,,,2025-06-17,1,,,,,オオタキジュウケン,0
386,2060003005609,新規,0,2025-06-17,2025-06-17,富士健康合同会社,,合同会社,栃木県,矢板市,沢７７５－２,,09,211,3292132,,,,,,,2025-06-17,1,,,,,フジケンコウ,0
406,2120001276807,新規,0,2025-06-17,2025-06-17,智高盛株式会社,,株式会社,大阪府,大阪市旭区,千林２丁目１３番７号１Ｆ－Ｂ,,27,117,5350012,,,,,,,2025-06-17,1,,,,,チコウセイ,0
407,2120001276864,新規,0,2025-06-17,2025-06-17,ＧＯＬＤＥＮ　ＰＥＡＲＬ　ＪＡＰＡＮ株式会社,,株式会社,大阪府,大阪市淀川区,木川東２丁目４番１０号三共新大阪ビル３０１号,,27,123,5320012,,,,,,,2025-06-17,1,,,,,ゴールデンパールジャパン,0
408,2120001276906,新規,0,2025-06-17,2025-06-17,銀泉科技株式会社,,株式会社,大阪府,大阪市西成区,長橋１丁目３番１５号ＮＥＯＳＰＡＣＥ長橋３０５号Ａ,,27,122,5570025,,,,,,,2025-06-17,1,,,,,ギンセンカギ,0
410,2120003029766,新規,0,2025-06-17,2025-06-17,合同会社やまとら,,合同会社,大阪府,大阪市鶴見区,今津南１丁目９番２号,,27,124,5380043,,,,,,,2025-06-17,1,,,,,ヤマトラ,0
412,2120005024988,新規,0,2025-06-17,2025-06-17,一般社団法人サイエンス・インサイト,,その他の設立登記法人,大阪府,枚方市,村野東町１１－２０－３０６,,27,210,5730015,,,,,,,2025-06-17,1,,,,,サイエンスインサイト,0
416,2122001039334,新規,0,2025-06-17,2025-06-17,株式会社リヒト,,株式会社,大阪府,東大阪市,西岩田３丁目１－１５－３１８,,27,227,5780947,,,,,,,2025-06-17,1,,,,,リヒト,0
423,2130001079894,新規,0,2025-06-17,2025-06-17,Ｋｙｕｓｈｉｎ株式会社,,株式会社,京都府,京都市中京区,柳馬場通蛸薬師下る十文字町４５５番地５,,26,104,6048121,,,,,,,2025-06-17,1,,,,,キュウシン,0
424,2130001079903,新規,0,2025-06-17,2025-06-17,ＷＥ　ＣＯＮＮＥＣＴ株式会社,,株式会社,京都府,京都市下京区,七条通油小路東入大黒町２２７番地第２キョートビル４０２,,26,106,6008223,,,,,,,2025-06-17,1,,,,,ウィコネクト,0
425,2130001079911,新規,0,2025-06-17,2025-06-17,株式会社ＫＣ京都,,株式会社,京都府,京都市北区,大宮北箱ノ井町１９番地１０,,26,101,6038475,,,,,,,2025-06-17,1,,,,,ケーシーキョウト,0
432,2140001138914,新規,0,2025-06-17,2025-06-17,株式会社ＡＴＨＵＢ,,株式会社,兵庫県,神戸市東灘区,住吉本町１丁目１１番２８号,,28,101,6580051,,,,,,,2025-06-17,1,,,,,アットハブ,0
433,2140001138939,新規,0,2025-06-17,2025-06-17,株式会社粋農,,株式会社,兵庫県,加西市,山下町１１３９番地,,28,220,6752354,,,,,,,2025-06-17,1,,,,,スイノウ,0
434,2140001138955,新規,0,2025-06-17,2025-06-17,株式会社カケタズ,,株式会社,兵庫県,尼崎市,元浜町４丁目７６番６号セントグレース武庫川ＩＩ１０２号室,00139594,28,202,6600085,,,,,,,2025-06-17,1,,,,,カケタズ,0
436,2150003003628,新規,0,2025-06-17,2025-06-17,Ｅａｒｎｅｓｔ合同会社,,合同会社,奈良県,橿原市,栄和町５５番地１１サニークレスト橿原神宮前ＩＩ８０５号,00139580,29,205,6340046,,,,,,,2025-06-17,1,,,,,アーネスト,0
447,2180003028622,新規,0,2025-06-17,2025-06-17,合同会社Ｈｅａｒｔ　Ｅｎｔｅｒｔａｉｎｍｅｎｔ,,合同会社,愛知県,名古屋市中区,松原１丁目１２番９号,,23,106,4600017,,,,,,,2025-06-17,1,,,,,ハートエンターテインメント,0
451,2190003005075,新規,0,2025-06-17,2025-06-17,レガプロエージェント合同会社,,合同会社,三重県,四日市市,新正１丁目８番５号,,24,202,5100064,,,,,,,2025-06-17,1,,,,,レガロプロエージェント,0
464,2240003007256,新規,0,2025-06-17,2025-06-17,合同会社アキツムグ,,合同会社,広島県,東広島市,安芸津町小松原１０００番地２,,34,212,7392405,,,,,,,2025-06-17,1,,,,,アキツムグ,0
468,2260001040281,新規,0,2025-06-17,2025-06-17,Ｈｉクラージュ株式会社,,株式会社,岡山県,岡山市北区,野田３丁目１２番３３号,,33,101,7000971,,,,,,,2025-06-17,1,,,,,ハイクラージュ,0
472,2290001110387,新規,0,2025-06-17,2025-06-17,Ｖ．Ｓ株式会社,,株式会社,福岡県,福岡市中央区,今泉２丁目４－２４ヴェルドミール今泉７０７,,40,133,8100021,,,,,,,2025-06-17,1,,,,,ブイエス,0
473,2290001110412,新規,0,2025-06-17,2025-06-17,株式会社喜創,,株式会社,福岡県,福津市,西福間５丁目１７番１５号,,40,224,8113219,,,,,,,2025-06-17,1,,,,,キソウ,0
474,2290001110429,新規,0,2025-06-17,2025-06-17,株式会社アムレットベル,,株式会社,福岡県,福岡市南区,長丘２丁目１０番２３号,,40,134,8150075,,,,,,,2025-06-17,1,,,,,アムレットベル,0
476,2290003017003,新規,0,2025-06-17,2025-06-17,ＲＥＶＯＩＤ合同会社,,合同会社,福岡県,福岡市博多区,吉塚４丁目１５番１７－６０７号三島マンション博多駅東,,40,132,8120041,,,,,,,2025-06-17,1,,,,,リボイド,0
478,2290801031634,新規,0,2025-06-17,2025-06-17,株式会社徳力建設工業,,株式会社,福岡県,北九州市八幡西区,鷹見台１丁目５番２２号,,40,109,8070853,,,,,,,2025-06-17,1,,,,,トクリキケンセツコウギョウ,0
481,2300003002300,新規,0,2025-06-17,2025-06-17,合同会社６１０サン,,合同会社,佐賀県,東松浦郡玄海町,大字長倉１５０５番地１ラピス宿ノ内２０３号,,41,387,8471404,,,,,,,2025-06-17,1,,,,,ムトウサン,0
485,2330001033311,新規,0,2025-06-17,2025-06-17,株式会社長山冷熱,,株式会社,熊本県,熊本市東区,若葉４丁目２９番７号,,43,102,8612103,,,,,,,2025-06-17,1,,,,,ナガヤマレイネツ,0
502,2430003017772,新規,0,2025-06-17,2025-06-17,マルヒロ商事合同会社,,合同会社,北海道,沙流郡平取町,字二風谷８５番地１８,,01,602,0550101,,,,,,,2025-06-17,1,,,,,マルヒロショウジ,0
503,2430005015254,新規,0,2025-06-17,2025-06-17,一般社団法人アバイディング・プレイス,,その他の設立登記法人,北海道,沙流郡日高町,字清畠７３４番地の２,,01,601,0592245,,,,,,,2025-06-17,1,,,,,アバイディングプレイス,0
515,2500001026347,新規,0,2025-06-17,2025-06-17,株式会社アレックスレーシングデザイン,,株式会社,愛媛県,四国中央市,川之江町余木３９０番地１,,38,213,7990103,,,,,,,2025-06-17,1,,,,,アレックスレーシングデザイン,0
516,2700150131084,新規,0,2025-06-17,2025-06-17,Ｋａｎｄｙ　Ｃａｒ　Ｐｏｉｎｔ,,外国会社等,千葉県,八街市,八街ろ１４５番地２,,12,230,2891144,スリランカ民主社会主義共和国、アクラナ、マルワナヒンナジャンクション、Ｎｏ．７７３－Ａ,,,,,,2025-06-17,1,,,,,キヤンデイカーポイント,0
517,2700150131092,新規,0,2025-06-17,2025-06-17,ｓｈｅｎｚｈｅｎｓｈｉｆａｎｐｕｇｕｉｚｈｅｎｄｉａｎｚｉｓｈａｎｇｗｕｙｏｕｘｉａｎｇｏｎｇｓｉ,,外国会社等,,,,,,,,４０２，Ｎｏ．１５，Ｆｕｙｕａｎ　Ｓｔｒｅｅｔ，Ｄａｘｉｎ　Ｃｏｍｍｕｎｉｔｙ，Ｎａｎｔｏｕ　Ｓｔｒｅｅｔ，Ｎａｎｓｈａｎ，Ｓｈｅｎｚｈｅｎ,,,,,,2025-06-17,1,,,,,シンセンシファンプグゥイゼンデンシショウムユウゲンコウシ,0
534,3010003047712,新規,0,2025-06-17,2025-06-17,ＥＳホスピタリティーファンド１号合同会社,,合同会社,東京都,千代田区,丸の内１丁目４番１号東京共同会計事務所内,,13,101,1000005,,,,,,,2025-06-17,1,,,,,イーエスホスピタリティーファンドイチゴウ,0
548,3010403035366,新規,0,2025-06-17,2025-06-17,合同会社Ｙｏａｋａｒｉ,,合同会社,東京都,港区,南青山３丁目１番３６号青山丸竹ビル６Ｆ,,13,103,1070062,,,,,,,2025-06-17,1,,,,,ヨアカリ,0
549,3010405024441,新規,0,2025-06-17,2025-06-17,一般社団法人クロスコミュニティカンファレンス協会,,その他の設立登記法人,東京都,港区,芝５丁目２７番６号泉田町ビル５階,,13,103,1080014,,,,,,,2025-06-17,1,,,,,クロスコミュニティカンファレンスキョウカイ,0
550,3010501054193,新規,0,2025-06-17,2025-06-17,浅草不動産管理株式会社,,株式会社,東京都,台東区,三筋１丁目１２番１１号タスキｓｍａｒｔ新御徒町ＩＩ－１０１号,00139593,13,106,1110055,,,,,,,2025-06-17,1,,,,,アサクサフドウサンカンリ,0
552,3010601067475,新規,0,2025-06-17,2025-06-17,株式会社東大伴走,,株式会社,東京都,墨田区,太平３丁目８番３－４０３号ＡＴビル,,13,107,1300012,,,,,,,2025-06-17,1,,,,,トウダイバンソウ,0
560,3010903010018,新規,0,2025-06-17,2025-06-17,合同会社Ｌａｕｒｅｎｔｅｃｈ,,合同会社,東京都,世田谷区,太子堂４丁目１８番１５号マガザン三軒茶屋２－３Ｆ－３,,13,112,1540004,,,,,,,2025-06-17,1,,,,,ローレンテック,0
564,3011001169696,新規,0,2025-06-17,2025-06-17,株式会社ｃｈｏａ,,株式会社,東京都,渋谷区,渋谷３丁目１番９号ＹＡＺＡＷＡビル３階,,13,113,1500002,,,,,,,2025-06-17,1,,,,,チョア,0
565,3011001170150,新規,0,2025-06-17,2025-06-17,株式会社バズホールディングス,,株式会社,東京都,目黒区,自由が丘２丁目１６番９号,,13,110,1520035,,,,,,,2025-06-17,1,,,,,バズホールディングス,0
566,3011001170233,新規,0,2025-06-17,2025-06-17,東京人財コンサルティング株式会社,,株式会社,東京都,渋谷区,笹塚２丁目９番４号,,13,113,1510073,,,,,,,2025-06-17,1,,,,,トウキョウジンザイコンサルティング,0
567,3011003021772,新規,0,2025-06-17,2025-06-17,合同会社ＬＡＳＴ　ＨＯＬＩＤＡＹ,,合同会社,東京都,渋谷区,渋谷３丁目１－９ＹＡＺＡＷＡビル３階,,13,113,1500002,,,,,,,2025-06-17,1,,,,,ラストホリデイ,0
568,3011005011037,新規,0,2025-06-17,2025-06-17,一般社団法人ジャパン・エデュメイカーズラボ,,その他の設立登記法人,東京都,目黒区,下目黒２丁目８番１２号,,13,110,1530064,,,,,,,2025-06-17,1,,,,,ジャパンエデュメイカーズラボ,0
574,3011101112135,新規,0,2025-06-17,2025-06-17,株式会社ＤＩＳＩＴ,,株式会社,東京都,新宿区,富久町１５番１号,,13,104,1620067,,,,,,,2025-06-17,1,,,,,デイジット,0
579,3011301030624,新規,0,2025-06-17,2025-06-17,株式会社ＺＵＺＵ,,株式会社,東京都,杉並区,和泉２丁目１８番１８号,,13,115,1680063,,,,,,,2025-06-17,1,,,,,ズズ,0
580,3011303005582,新規,0,2025-06-17,2025-06-17,合同会社Ｓ＆Ｓ,,合同会社,東京都,杉並区,梅里２丁目１－１２ＣＡＳＳＩＡ新高円寺５０１,,13,115,1660011,,,,,,,2025-06-17,1,,,,,エスアンドエス,0
586,3012401043235,新規,0,2025-06-17,2025-06-17,株式会社東京イオニック,,株式会社,東京都,府中市,宮西町１丁目２番地１,,13,206,1830022,,,,,,,2025-06-17,1,,,,,トウキョウイオニック,0
594,3013301054462,新規,0,2025-06-17,2025-06-17,ＡＪＳ株式会社,,株式会社,東京都,豊島区,池袋本町２丁目３０番２－３０３号,,13,116,1700011,,,,,,,2025-06-17,1,,,,,エージェーエス,0
595,3013301054470,新規,0,2025-06-17,2025-06-17,株式会社ＧｒｉｔＦｌｏｗ,,株式会社,東京都,豊島区,東池袋２丁目６２番８号ＢＩＧオフィスプラザ池袋１２０６,,13,116,1700013,,,,,,,2025-06-17,1,,,,,グリットフロー,0
601,3020001163403,新規,0,2025-06-17,2025-06-17,ＦＭトータル株式会社,,株式会社,神奈川県,川崎市宮前区,土橋５丁目４－２４－４０１,,14,136,2160005,,,,,,,2025-06-17,1,,,,,エフエムトータル,0
602,3020001163469,新規,0,2025-06-17,2025-06-17,株式会社Ａｙａｓａｎ　Ｈｏｌｄｉｎｇｓ,,株式会社,神奈川県,横浜市西区,浅間町１丁目４番３号ウィザードビル４０２,,14,103,2200072,,,,,,,2025-06-17,1,,,,,アヤサンホールディングス,0
604,3020003028372,新規,0,2025-06-17,2025-06-17,ＴＲＥＮＤ合同会社,,合同会社,神奈川県,横浜市西区,霞ケ丘７１－１－２０１,,14,103,2200035,,,,,,,2025-06-17,1,,,,,トレンド,0
611,3021001085538,新規,0,2025-06-17,2025-06-17,株式会社ＦＯＴＨ,,株式会社,神奈川県,鎌倉市,山ノ内１０５８番地,,14,204,2470062,,,,,,,2025-06-17,1,,,,,エフオーティエイチ,0
622,3030001167122,新規,0,2025-06-17,2025-06-17,株式会社イールド・ユニバーサル・インベストメント,,株式会社,埼玉県,さいたま市大宮区,吉敷町４丁目１８０番地２,,11,103,3300843,,,,,,,2025-06-17,1,,,,,イールドユニバーサルインベストメント,0
623,3030001167130,新規,0,2025-06-17,2025-06-17,ＬＡＮＤ　ＳＭＩＴＨ株式会社,,株式会社,埼玉県,さいたま市浦和区,上木崎１丁目７番３号,,11,107,3300071,,,,,,,2025-06-17,1,,,,,ランドスミス,0
624,3030001167155,新規,0,2025-06-17,2025-06-17,株式会社加藤企画,,株式会社,埼玉県,さいたま市中央区,下落合４丁目５番８号,,11,105,3380002,,,,,,,2025-06-17,1,,,,,カトウキカク,0
640,3040003027793,新規,0,2025-06-17,2025-06-17,合同会社ワイファミリー,,合同会社,千葉県,千葉市稲毛区,長沼町２５６番地１９,,12,103,2630005,,,,,,,2025-06-17,1,,,,,ワイファミリー,0
646,3050005013650,新規,0,2025-06-17,2025-06-17,一般社団法人Ｂｅｓｈａ茨城江戸崎,,その他の設立登記法人,茨城県,稲敷市,月出里８９番地１０,,08,229,3000521,,,,,,,2025-06-17,1,,,,,ビーシャイバラキエドサキ,0
647,3060001038304,新規,0,2025-06-17,2025-06-17,株式会社塩井工業,,株式会社,栃木県,宇都宮市,上小倉町１９９８番地２,,09,201,3210401,,,,,,,2025-06-17,1,,,,,シオイコウギョウ,0
650,3070003005961,新規,0,2025-06-17,2025-06-17,タテヨコホールディングス合同会社,,合同会社,群馬県,利根郡片品村,大字東小川４６５８番地６５,,10,443,3780414,,,,,,,2025-06-17,1,,,,,タテヨコホールディングス,0
658,3090003002841,新規,0,2025-06-17,2025-06-17,合同会社壱富士屋,,合同会社,山梨県,甲府市,青沼３丁目８－２４,,19,201,4000867,,,,,,,2025-06-17,1,,,,,イチフジヤ,0
672,3120001276772,新規,0,2025-06-17,2025-06-17,アメイジング株式会社,,株式会社,大阪府,大阪市生野区,林寺４丁目１０－２７,,27,116,5440023,,,,,,,2025-06-17,1,,,,,アメイジング,0
673,3120001276814,新規,0,2025-06-17,2025-06-17,未来科技株式会社,,株式会社,大阪府,大阪市都島区,都島本通３丁目１８番４号２階２０８－５号室,,27,102,5340021,,,,,,,2025-06-17,1,,,,,ミライカギ,0
674,3120001276905,新規,0,2025-06-17,2025-06-17,宏辰株式会社,,株式会社,大阪府,大阪市都島区,中野町２丁目５－１３プレアール都島ＩＩＩ１階１０３号室,00139582,27,102,5340027,,,,,,,2025-06-17,1,,,,,コウシン,0
676,3120003029749,新規,0,2025-06-17,2025-06-17,合同会社ｓｏ　ｇｏｏｄ,,合同会社,大阪府,大阪市浪速区,幸町２丁目７番１号,,27,111,5560021,,,,,,,2025-06-17,1,,,,,ソーグッド,0
677,3120003029765,新規,0,2025-06-17,2025-06-17,合同会社鉄新,,合同会社,大阪府,大阪市西成区,旭２丁目１番１４号,,27,122,5570032,,,,,,,2025-06-17,1,,,,,テッシン,0
678,3120003029773,新規,0,2025-06-17,2025-06-17,合同会社ａｍｏｎａｎｇｅ,,合同会社,大阪府,大阪市浪速区,敷津東２丁目４－１７ザクロスシティタワー２３０５号室,,27,111,5560012,,,,,,,2025-06-17,1,,,,,アモナージュ,0
680,3120101071859,新規,0,2025-06-17,2025-06-17,株式会社ａｎｄ　ｓｍｉｌｅ,,株式会社,大阪府,堺市南区,城山台３丁２１番１８号,,27,145,5900137,,,,,,,2025-06-17,1,,,,,アンドスマイル,0
681,3120101071900,新規,0,2025-06-17,2025-06-17,恒盛産業株式会社,,株式会社,大阪府,堺市南区,若松台２丁１番４号若松台中央マンション５０１,,27,145,5900116,,,,,,,2025-06-17,1,,,,,コウセイサンギョウ,0
683,3120901051069,新規,0,2025-06-17,2025-06-17,新亜株式会社,,株式会社,大阪府,茨木市,島３丁目１２番３２号,,27,211,5670854,,,,,,,2025-06-17,1,,,,,シンア,0
684,3120903005717,新規,0,2025-06-17,2025-06-17,合同会社Ｎｅｘｉｔｉａ,,合同会社,大阪府,茨木市,橋の内２丁目８番５１３号,,27,211,5670805,,,,,,,2025-06-17,1,,,,,ネクシア,0
713,3180003028621,新規,0,2025-06-17,2025-06-17,Ａｒａｄｏ合同会社,,合同会社,愛知県,東海市,名和町寝覚１４５番地,,23,222,4760002,,,,,,,2025-06-17,1,,,,,アラド,0
721,3190001032310,新規,0,2025-06-17,2025-06-17,株式会社ＡＫＹ,,株式会社,三重県,津市,川方町３９７番地１９,,24,201,5141122,,,,,,,2025-06-17,1,,,,,エーケーワイ,0
732,3240001065073,新規,0,2025-06-17,2025-06-17,株式会社ｎｅｗ　ｐｒｏｍｏ,,株式会社,広島県,福山市,今津町３丁目２－１９,,34,207,7290111,,,,,,,2025-06-17,1,,,,,ニュープロモ,0
733,3250001021199,新規,0,2025-06-17,2025-06-17,毛利商会株式会社,,株式会社,山口県,宇部市,西宇部北４丁目６番２８号,,35,202,7590211,,,,,,,2025-06-17,1,,,,,モウリショウカイ,0
738,3260001040280,新規,0,2025-06-17,2025-06-17,Ｇｉｄｄｙ　ｕｐ株式会社,,株式会社,岡山県,美作市,南３０９番地１,,33,215,7012616,,,,,,,2025-06-17,1,,,,,ギディアップ,0
742,3290001110428,新規,0,2025-06-17,2025-06-17,Ｒｅｆｏｒｍａ株式会社,,株式会社,福岡県,福岡市博多区,寿町２丁目４－４０アクタス南福岡グランパーク８０１号,,40,132,8120884,,,,,,,2025-06-17,1,,,,,レフォルマ,0
743,3290003017002,新規,0,2025-06-17,2025-06-17,合同会社穂香,,合同会社,福岡県,福岡市早良区,原６丁目１７－９－１０１,,40,137,8140022,,,,,,,2025-06-17,1,,,,,ホノカ,0
760,3370003007151,新規,0,2025-06-17,2025-06-17,合同会社ぽっけ,,合同会社,宮城県,仙台市青葉区,小田原４丁目２番１８号,,04,101,9800003,,,,,,,2025-06-17,1,,,,,ポッケ,0
764,3400001017074,新規,0,2025-06-17,2025-06-17,株式会社ｌｉｏｎ,,株式会社,岩手県,盛岡市,内丸６番１０号,,03,201,0200023,,,,,,,2025-06-17,1,,,,,リオン,0
771,3420001019184,新規,0,2025-06-17,2025-06-17,株式会社ざわまる,,株式会社,青森県,八戸市,大字河原木字袖ノ沢２番地１３３,,02,203,0391161,,,,,,,2025-06-17,1,,,,,ザワマル,0
774,3430001094689,新規,0,2025-06-17,2025-06-17,株式会社ＣＯＮＮＥＣＴ　ＡＰ,,株式会社,北海道,千歳市,幸町２丁目２０番地の１ル・アーブルちとせ３０３号,,01,224,0660063,,,,,,,2025-06-17,1,,,,,コネクトエーピー,0
780,3460303000870,新規,0,2025-06-17,2025-06-17,合同会社ＧｒｅｅｎＲｏｏｆ,,合同会社,北海道,北見市,北進町３丁目１番２０号,,01,208,0900052,,,,,,,2025-06-17,1,,,,,グリーンルーフ,0
785,3480003002273,新規,0,2025-06-17,2025-06-17,合同会社Ｈｏｌｏｍｕａ,,合同会社,徳島県,徳島市,新内町１丁目６番地ダイアパレス新内町５０１,,36,201,7700845,,,,,,,2025-06-17,1,,,,,ホロムア,0
786,3500001026346,新規,0,2025-06-17,2025-06-17,株式会社グリーン,,株式会社,愛媛県,東温市,横河原１３３５番地１セレンディップ３０５,,38,215,7910203,,,,,,,2025-06-17,1,,,,,グリーン,0
788,3700150131083,新規,0,2025-06-17,2025-06-17,Ｔｅｃｈｎｏ　Ｍｏｔｏｒｓ　Ｓｐａｒｅｓ,,外国会社等,千葉県,八街市,八街ろ１４５番地２７,,12,230,2891144,スリランカ民主社会主義共和国、コロンボ１５、モダラ、モダラロード、モスクレーン、Ｎｏ．５１Ｂ,,,,,,2025-06-17,1,,,,,テクノモーターススペアーズ,0
789,3700150131091,新規,0,2025-06-17,2025-06-17,ｊｉａｎｇｙｉｎｓｈｉｚｈｏｎｇｊｉａｗｅｎｊｕｆａｚｈａｎｙｏｕｘｉａｎｇｏｎｇｓｉ,,外国会社等,,,,,,,,ｚｈｅｎｃｈｅｎｇｌｕ　８８５　ｊｉａｎｇｙｉｎ　Ｃｈｉｎａ,,,,,,2025-06-17,1,,,,,ジャンインシゾンジャウェンジュファザンユウゲンコウシ,0
796,4010001255992,新規,0,2025-06-17,2025-06-17,堅固風暴株式会社,,株式会社,東京都,千代田区,神田佐久間町３丁目２８番地星野ビル４Ｆ３８号,,13,101,1010025,,,,,,,2025-06-17,1,,,,,クンゴフウボウ,0
797,4010001256009,新規,0,2025-06-17,2025-06-17,ＳＥＩＨＡ　ＧＲＯＵＰ株式会社,,株式会社,東京都,千代田区,神田須田町１丁目１６番８号４Ｆ,,13,101,1010041,,,,,,,2025-06-17,1,,,,,セイハグループ,0
800,4010003047686,新規,0,2025-06-17,2025-06-17,合同会社あんばいＬＢ５号,,合同会社,東京都,千代田区,霞が関３丁目２番５号,,13,101,1000013,,,,,,,2025-06-17,1,,,,,アンバイエルビーゴゴウ,0
801,4010005040193,新規,0,2025-06-17,2025-06-17,一般社団法人ＧＣＬジャパン品質評価機構,,その他の設立登記法人,東京都,中央区,築地２丁目１５番１５号,,13,102,1040045,,,,,,,2025-06-17,1,,,,,ジーシーエルジャパンヒンシツヒョウカキコウ,0
806,4010401191086,新規,0,2025-06-17,2025-06-17,株式会社Ｌｅｘｐｌｏｒｅ,,株式会社,東京都,港区,虎ノ門１丁目１６番６号虎ノ門ラポートビル７階,,13,103,1050001,,,,,,,2025-06-17,1,,,,,レクスプロア,0
807,4010401191094,新規,0,2025-06-17,2025-06-17,株式会社警心ホールディングス,,株式会社,東京都,港区,虎ノ門３丁目８－２５近鉄虎ノ門ビル１１０３,,13,103,1050001,,,,,,,2025-06-17,1,,,,,ケイシンホールディングス,0
809,4010405024440,新規,0,2025-06-17,2025-06-17,一般社団法人技術経営研究フォーラム,,その他の設立登記法人,東京都,港区,赤坂２丁目８番１１号赤坂山王プラザ２０７,,13,103,1070052,,,,,,,2025-06-17,1,,,,,ギジュツケイエイケンキュウフォーラム,0
814,4010601067318,新規,0,2025-06-17,2025-06-17,ＫＩＮＢＯＮ株式会社,,株式会社,東京都,江東区,亀戸６丁目６番９号６０４号室,,13,108,1360071,,,,,,,2025-06-17,1,,,,,キンボン,0
817,4010801036254,新規,0,2025-06-17,2025-06-17,株式会社Ａ‐ｍｉｄ,,株式会社,東京都,大田区,南六郷３丁目１０番地１６号六郷ＢＡＳＥ２５３,,13,111,1440045,,,,,,,2025-06-17,1,,,,,,0
818,4010805003184,新規,0,2025-06-17,2025-06-17,ＣＲＯＳＳ‐ＬＩＮＫ税理士法人,,その他の設立登記法人,東京都,大田区,西蒲田７丁目３３番６号サンライズビル４階,,13,111,1440051,,,,,,,2025-06-17,1,,,,,クロスリンク,0
828,4011001170026,新規,0,2025-06-17,2025-06-17,Ｋ．Ａｃｃｏｕｎｔ　Ｐａｒｔｎｅｒｓ株式会社,,株式会社,東京都,渋谷区,恵比寿西２丁目８番４号ＥＸ恵比寿西ビル５階,,13,113,1500021,,,,,,,2025-06-17,1,,,,,ケーアカウントパートナーズ,0
829,4011001170059,新規,0,2025-06-17,2025-06-17,ノスタルジアガレージ株式会社,,株式会社,東京都,渋谷区,神山町３１番２号,,13,113,1500047,,,,,,,2025-06-17,1,,,,,ノスタルジアガレージ,0
830,4011001170273,新規,0,2025-06-17,2025-06-17,株式会社広大,,株式会社,東京都,渋谷区,桜丘町１３－９クリエート桜丘センチュリー２１・２０９,,13,113,1500031,,,,,,,2025-06-17,1,,,,,コウダイ,0
834,4011101112051,新規,0,2025-06-17,2025-06-17,株式会社ＳＫＹ　ＬＩＮＫ,,株式会社,東京都,新宿区,西新宿３丁目３番１３号西新宿水間ビル６階,,13,104,1600023,,,,,,,2025-06-17,1,,,,,スカイリンク,0
839,4011303005598,新規,0,2025-06-17,2025-06-17,スズキエステート合同会社,,合同会社,東京都,杉並区,井草３丁目２７番１０－４号,,13,115,1670021,,,,,,,2025-06-17,1,,,,,スズキエステート,0
841,4011401027164,新規,0,2025-06-17,2025-06-17,株式会社ｃｈｅｒｉｅ　Ｙ,,株式会社,東京都,板橋区,南常盤台１丁目１１番６レフア南常盤台１０２号室,,13,119,1740072,,,,,,,2025-06-17,1,,,,,シェリワイ,0
845,4011601028739,新規,0,2025-06-17,2025-06-17,株式会社たぐ忠,,株式会社,東京都,練馬区,旭丘１丁目３３番１０号,,13,120,1760005,,,,,,,2025-06-17,1,,,,,タグチュウ,0
851,4011803006922,新規,0,2025-06-17,2025-06-17,愛之助合同会社,,合同会社,東京都,葛飾区,鎌倉４丁目３５－１５リバティビル３０３,,13,122,1250053,,,,,,,2025-06-17,1,,,,,アイノスケ,0
869,4020003028710,新規,0,2025-06-17,2025-06-17,合同会社フルス,,合同会社,神奈川県,横浜市西区,北幸２丁目１０番４８号むつみビル３階,,14,103,2200004,,,,,,,2025-06-17,1,,,,,フルス,0
872,4021001085470,新規,0,2025-06-17,2025-06-17,株式会社ハピネス,,株式会社,神奈川県,平塚市,四之宮２丁目１５番１２号第１高橋マンション１階,,14,203,2540014,,,,,,,2025-06-17,1,,,,,ハピネス,0
873,4021001085529,新規,0,2025-06-17,2025-06-17,株式会社Ｎａｚａｒｅ,,株式会社,神奈川県,藤沢市,川名１８１番地の１８,,14,205,2510015,,,,,,,2025-06-17,1,,,,,ナザレ,0
875,4021003016151,新規,0,2025-06-17,2025-06-17,合同会社貴亮,,合同会社,神奈川県,藤沢市,鵠沼石上１丁目１３番１～１４０１号,00139579,14,205,2510025,,,,,,,2025-06-17,1,,,,,タカリョウ,0
884,4030001167154,新規,0,2025-06-17,2025-06-17,株式会社ネクレオ,,株式会社,埼玉県,蕨市,塚越７丁目３７番１４号ロミーナＡ２０２号,,11,223,3350002,,,,,,,2025-06-17,1,,,,,ネクレオ,0
892,4040001139276,新規,0,2025-06-17,2025-06-17,株式会社Ｊ＆Ｋミラクル,,株式会社,千葉県,柏市,南増尾４丁目１８番５号,,12,217,2770054,,,,,,,2025-06-17,1,,,,,ジェイアンドケイミラクル,0
893,4040001139301,新規,0,2025-06-17,2025-06-17,株式会社ＧＬＯＷ,,株式会社,千葉県,千葉市中央区,中央４丁目１２－１２中央土地建物ビル５０３,,12,101,2600013,,,,,,,2025-06-17,1,,,,,グロー,0
910,4090001019333,新規,0,2025-06-17,2025-06-17,株式会社マクアケ,,株式会社,山梨県,甲府市,上石田２丁目４１番２５号,,19,201,4000041,,,,,,,2025-06-17,1,,,,,マクアケ,0
927,4120001276846,新規,0,2025-06-17,2025-06-17,株式会社西岡織物,,株式会社,大阪府,大阪市西区,靱本町３丁目１０－２４兆豊阿波座ビル,,27,106,5500004,,,,,,,2025-06-17,1,,,,,ニシオカオリモノ,0
928,4120001276870,新規,0,2025-06-17,2025-06-17,ＣＡＲＮＡＪＡＰＡＮ株式会社,,株式会社,大阪府,大阪市中央区,船場中央２丁目１番４号船場センタービル４号館,,27,128,5410055,,,,,,,2025-06-17,1,,,,,カルナジャパン,0
932,4120003029772,新規,0,2025-06-17,2025-06-17,合同会社ラピッドラビット,,合同会社,大阪府,大阪市北区,梅田１丁目１－３大阪駅前第３ビル２９階１－１－１号室,,27,127,5300001,,,,,,,2025-06-17,1,,,,,ラピッドラビット,0
933,4120003029789,新規,0,2025-06-17,2025-06-17,合同会社ＤＯＮ　ＣＯＮＹ,,合同会社,大阪府,大阪市中央区,平野町４丁目８番１号Ｓキュート平野町１Ｆ、ＤＯＮＣＯＮＹ,,27,128,5410046,,,,,,,2025-06-17,1,,,,,ドンコニー,0
935,4120101071890,新規,0,2025-06-17,2025-06-17,株式会社エコワークスロゴ,,株式会社,大阪府,堺市中区,小阪５２番地７,,27,142,5998276,,,,,,,2025-06-17,1,,,,,エコワークスロゴ,0
940,4120903005716,新規,0,2025-06-17,2025-06-17,Ｐ・Ａ合同会社,,合同会社,大阪府,高槻市,西町５６番１号,,27,207,5690854,,,,,,,2025-06-17,1,,,,,ピーエー,0
942,4122001039332,新規,0,2025-06-17,2025-06-17,株式会社兄弟学級,,株式会社,大阪府,東大阪市,日下町３丁目６番６７号,,27,227,5798003,,,,,,,2025-06-17,1,,,,,キョウダイガッキュウ,0
947,4130001079892,新規,0,2025-06-17,2025-06-17,十代目白糸佐平治株式会社,,株式会社,京都府,京都市南区,唐橋西平垣町４５－２,,26,107,6018468,,,,,,,2025-06-17,1,,,,,ジュウダイメシライトサヘイジ,0
948,4130001079901,新規,0,2025-06-17,2025-06-17,七瑤株式会社,,株式会社,京都府,京都市山科区,日ノ岡朝田町１６－３１０号室,,26,110,6078493,,,,,,,2025-06-17,1,,,,,ナヨ,0
951,4130005017386,新規,0,2025-06-17,2025-06-17,一般社団法人西陣アート織協会,,その他の設立登記法人,京都府,京都市上京区,一観音町４２８番地とみやビルディング,,26,102,6028335,,,,,,,2025-06-17,1,,,,,ニシジンアートオリキョウカイ,0
959,4150001028195,新規,0,2025-06-17,2025-06-17,株式会社リバーストジャパン,,株式会社,奈良県,生駒郡三郷町,勢野東５丁目１０番４号（２０５号室）,,29,343,6360811,,,,,,,2025-06-17,1,,,,,リバーストジャパン,0
963,4160001026834,新規,0,2025-06-17,2025-06-17,株式会社白椿,,株式会社,滋賀県,栗東市,小野１５番地２５,,25,208,5203016,,,,,,,2025-06-17,1,,,,,シロツバキ,0
968,4160003003518,新規,0,2025-06-17,2025-06-17,合同会社菜の花,,合同会社,滋賀県,近江八幡市,馬淵町１９２４番地１１,,25,204,5230022,,,,,,,2025-06-17,1,,,,,ナノハナ,0
971,4180001167321,新規,0,2025-06-17,2025-06-17,株式会社纏枝,,株式会社,愛知県,常滑市,字椎田口１０番地８,,23,216,4790036,,,,,,,2025-06-17,1,,,,,センシ,0
976,4180003028629,新規,0,2025-06-17,2025-06-17,合同会社ＬＴ　ＴＲＡＤＩＮＧ,,合同会社,愛知県,名古屋市昭和区,伊勝町２丁目３９番フォレスト伊勝町１０５,,23,107,4660805,,,,,,,2025-06-17,1,,,,,エルティートレーディング,0
977,4180003028637,新規,0,2025-06-17,2025-06-17,アリックス合同会社,,合同会社,愛知県,日進市,浅田町上納５０番地５,,23,230,4700124,,,,,,,2025-06-17,1,,,,,アリックス,0
980,4180303006607,新規,0,2025-06-17,2025-06-17,合同会社ＨＩＲＯＢＡＣＯ,,合同会社,愛知県,岡崎市,舞木町字広池１８番地１,,23,202,4443511,,,,,,,2025-06-17,1,,,,,ヒロバコ,0
982,4190003005081,新規,0,2025-06-17,2025-06-17,興隆合同会社,,合同会社,三重県,多気郡多気町,朝柄２９６５番地１,,24,441,5192215,,,,,,,2025-06-17,1,,,,,コウリュウ,0
991,4240001065080,新規,0,2025-06-17,2025-06-17,東洋株式会社,,株式会社,広島県,福山市,神辺町字道上１１２３－１－２Ｆ,,34,207,7202104,,,,,,,2025-06-17,1,,,,,トウヨウ,0
1004,4290001110377,新規,0,2025-06-17,2025-06-17,株式会社ＥＶＥＲＹＤＡＹ,,株式会社,福岡県,福岡市中央区,天神１丁目９－１７福岡天神フコク生命ビル１５階,,40,133,8100001,,,,,,,2025-06-17,1,,,,,エブリデイ,0
1005,4290001110393,新規,0,2025-06-17,2025-06-17,益家株式会社,,株式会社,福岡県,福岡市博多区,中呉服町２－２ポラリス２Ｆ－２０１号室,,40,132,8120035,,,,,,,2025-06-17,1,,,,,エキヤ,0
1006,4290001110402,新規,0,2025-06-17,2025-06-17,株式会社アビオス,,株式会社,福岡県,福岡市東区,馬出６丁目１４番１７号,,40,131,8120054,,,,,,,2025-06-17,1,,,,,アビオス,0
1007,4290001110419,新規,0,2025-06-17,2025-06-17,株式会社和幸,,株式会社,福岡県,福岡市博多区,奈良屋町４番１９号ＫＡＺＵ奈良屋３階,,40,132,8120023,,,,,,,2025-06-17,1,,,,,ワコウ,0
1008,4290001110435,新規,0,2025-06-17,2025-06-17,ドムス株式会社,,株式会社,福岡県,福岡市早良区,百道２丁目８番２１－３０８号,,40,137,8140006,,,,,,,2025-06-17,1,,,,,ドムス,0
1017,4320003004648,新規,0,2025-06-17,2025-06-17,ＹＡＭＡＤＡ　ＨＯＮＹＡＫＵ　ＪＡＰＡＮ合同会社,,合同会社,大分県,別府市,駅前本町９－２０,,44,202,8740934,,,,,,,2025-06-17,1,,,,,ヤマダホンヤクジャパン,0
1018,4320003004697,新規,0,2025-06-17,2025-06-17,六感工房合同会社,,合同会社,大分県,別府市,石垣東１丁目１番２－１００２号フェスティオ別府境川ビューサイド,,44,202,8740919,,,,,,,2025-06-17,1,,,,,ロッカンコウボウ,0
1028,4370003007142,新規,0,2025-06-17,2025-06-17,合同会社ＰＰＳ梨の木,,合同会社,宮城県,仙台市青葉区,中央３丁目６－７,,04,101,9800021,,,,,,,2025-06-17,1,,,,,ピーピーエスナシノキ,0
1034,4380003006069,新規,0,2025-06-17,2025-06-17,合同会社ＴｒｕＶｉｓｔａ,,合同会社,福島県,いわき市,平字倉前１０６番地の１３,,07,204,9708026,,,,,,,2025-06-17,1,,,,,トゥルヴィスタ,0
1037,4420001019183,新規,0,2025-06-17,2025-06-17,株式会社足軽,,株式会社,青森県,上北郡六戸町,小松ケ丘６丁目７７番地１６５０,,02,405,0330074,,,,,,,2025-06-17,1,,,,,アシガル,0
1043,4430001094688,新規,0,2025-06-17,2025-06-17,株式会社メモリアルホール江別中央,,株式会社,北海道,江別市,中央町２９番地１０,,01,217,0690801,,,,,,,2025-06-17,1,,,,,メモリアルホールエベツチュウオウ,0
1052,4700150131082,新規,0,2025-06-17,2025-06-17,ＡＵＴＯ　ＶＩＳＩＯＮ　ＰＲＩＶＡＴＥ　ＬＩＭＩＴＥＤ,,外国会社等,千葉県,富里市,十倉１２７番地１０９,,12,233,2860212,スリランカ民主社会主義共和国ウエスタン州コロンボ、マラベ、カズウェラロード３２７,,,,,,2025-06-17,1,,,,,オートビジヨンプライベートリミテツド,0
1053,4700150131090,新規,0,2025-06-17,2025-06-17,ｓｈｅｎｚｈｅｎｓｈｉ　ｒｕｉｓｏｎｇ　ｄｉａｎｚｉｓｈａｎｇｗｕ　ｙｏｕｘｉａｎｇｏｎｇｓｉ,,外国会社等,,,,,,,,ｔａｏ　ｙｕａｎ　ｊｉｅ　ｄａｏ　ｔａｏ　ｙｕａｎ　ｓｈｅ　ｑｕ　ｇａｏ　ｆａ　ｋｅ　ｊｉ　ｙｕａｎ　ｙｉ　ｌｕ　１０　ｈａｏ　ｔａｏ　ｒａｎ　ｊｕ　ｚｏｎｇ　ｈｅ　ｌｏｕ　ｔａｏ　ｒａｎ　ｊｕ　ｚｏｎｇ　ｈｅ　ｌｏｕ　４０６　ｓｈｅｎ　ｚｈｅｎ　ｎａｎ　ｓｈａｎ　ｇｕ　ｇｕａｎｇ　ｄｏｎｇ　５１８０００　ＣＮ,,,,,,2025-06-17,1,,,,,シンセンシゼイソウデンシショウムユウゲンコウシ,0
1065,5010001256040,新規,0,2025-06-17,2025-06-17,ＷｉｒｅＴｅｃｈ株式会社,,株式会社,東京都,千代田区,神田須田町１丁目２－７淡路町駅前ビル３階プレミアムオフィス神田,,13,101,1010041,,,,,,,2025-06-17,1,,,,,ワイヤーテック,0
1066,5010001256057,新規,0,2025-06-17,2025-06-17,株式会社Ｄｏｇｇｏ,,株式会社,東京都,中央区,銀座１丁目１２－４Ｎ＆ＥＢＬＤ．７階,,13,102,1040061,,,,,,,2025-06-17,1,,,,,ドッゴ,0
1070,5010003047660,新規,0,2025-06-17,2025-06-17,合同会社ＡＲＩＢＡ,,合同会社,東京都,中央区,勝どき４丁目６番１－３９１５号,,13,102,1040054,,,,,,,2025-06-17,1,,,,,アリーバ,0
1071,5010003047685,新規,0,2025-06-17,2025-06-17,ＮＡＭＢＡ２合同会社,,合同会社,東京都,千代田区,霞が関３丁目２番５号,,13,101,1000013,,,,,,,2025-06-17,1,,,,,ナンバツー,0
1072,5010005040218,新規,0,2025-06-17,2025-06-17,ＤＬＩＦ長岡京一般社団法人,,その他の設立登記法人,東京都,千代田区,丸の内１丁目４番１号東京共同会計事務所内,,13,101,1000005,,,,,,,2025-06-17,1,,,,,ディーエルアイエフナガオカキョウ,0
1076,5010101016732,新規,0,2025-06-17,2025-06-17,株式会社バードホーム,,株式会社,東京都,八王子市,南大沢４丁目１９番地１－４０３,,13,201,1920364,,,,,,,2025-06-17,1,,,,,バードホーム,0
1084,5010401191127,新規,0,2025-06-17,2025-06-17,亜熱帯インターナショナル株式会社,,株式会社,東京都,港区,六本木３丁目１６番１２号六本木ＫＳビル５Ｆ,,13,103,1060032,,,,,,,2025-06-17,1,,,,,アネッタイインターナショナル,0
1086,5010403035356,新規,0,2025-06-17,2025-06-17,ＡｖＩｔＩｓ　ＦＧＨＤ合同会社,,合同会社,東京都,港区,赤坂４丁目８番１９号,,13,103,1070052,,,,,,,2025-06-17,1,,,,,アヴィティスフィナンシャルグループホールディングス,0
1087,5010403035380,新規,0,2025-06-17,2025-06-17,ＤＥＭＯＬＡ　ＧＬＯＢＡＬ　ＪＡＰＡＮ合同会社,,合同会社,東京都,港区,虎ノ門１丁目１７番１号虎ノ門ヒルズビジネスタワー１５階ＣＩＣ,,13,103,1050001,,,,,,,2025-06-17,1,,,,,デモラグローバルジャパン,0
1090,5010501054241,新規,0,2025-06-17,2025-06-17,株式会社天海未来企画,,株式会社,東京都,台東区,台東３丁目７－３和合ビル５階,,13,106,1100016,,,,,,,2025-06-17,1,,,,,アマミミライキカク,0
1091,5010501054258,新規,0,2025-06-17,2025-06-17,株式会社ＪＢエンターテインメント,,株式会社,東京都,台東区,上野１丁目１６番５号,,13,106,1100005,,,,,,,2025-06-17,1,,,,,ジェービーエンターテインメント,0
1095,5010605004464,新規,0,2025-06-17,2025-06-17,一般社団法人ＬＩＮＫ　ＣＲＥＡＴＯＲＳ,,その他の設立登記法人,東京都,江東区,猿江２丁目１５番地１０,,13,108,1350003,,,,,,,2025-06-17,1,,,,,リンククリエイターズ,0
1097,5010703007765,新規,0,2025-06-17,2025-06-17,合同会社三斗会,,合同会社,東京都,品川区,北品川２丁目１１番１－７０１号,,13,109,1400001,,,,,,,2025-06-17,1,,,,,サントカイ,0
1107,5010903009990,新規,0,2025-06-17,2025-06-17,Ｙｕ‐ｏｎ合同会社,,合同会社,東京都,世田谷区,世田谷１丁目４番３号ラビ世田谷公園通り１０１,,13,112,1540017,,,,,,,2025-06-17,1,,,,,ユオン,0
1108,5010903010016,新規,0,2025-06-17,2025-06-17,合同会社イケヤ・アンド・カンパニー,,合同会社,東京都,世田谷区,用賀３丁目８―２１,,13,112,1580097,,,,,,,2025-06-17,1,,,,,イケヤアンドカンパニー,0
1109,5011001013571,新規,0,2025-06-17,2025-06-17,株式会社拓新,,株式会社,東京都,渋谷区,東１丁目２６番３２号,,13,113,1500011,,,,,,,2025-06-17,1,,,,,,0
1113,5011001170025,新規,0,2025-06-17,2025-06-17,株式会社ＵｍｅｎｏＭａｓａｔｏ,,株式会社,東京都,渋谷区,道玄坂１丁目１０番８号道玄坂東急ビル２Ｆ－Ｃ,,13,113,1500043,,,,,,,2025-06-17,1,,,,,ウメノマサト,0
1114,5011001170099,新規,0,2025-06-17,2025-06-17,株式会社シンクリエーション,,株式会社,東京都,渋谷区,桜丘町１０番８号ヴィラアオヤマ２０３,,13,113,1500031,,,,,,,2025-06-17,1,,,,,シンクリエーション,0
1115,5011001170108,新規,0,2025-06-17,2025-06-17,株式会社クラスチェンジ,,株式会社,東京都,渋谷区,道玄坂１丁目１０番８号渋谷道玄坂東急ビル２Ｆ－Ｃ,,13,113,1500043,,,,,,,2025-06-17,1,,,,,クラスチェンジ,0
1116,5011001170124,新規,0,2025-06-17,2025-06-17,株式会社ＳＯＬＡ　Ｉｎｔｅｒｎａｔｉｏｎａｌ,,株式会社,東京都,渋谷区,代々木２丁目２１番１１号ベルテ代々木ＩＩ２０２号,00139585,13,113,1510053,,,,,,,2025-06-17,1,,,,,ソラインターナショナル,0
1117,5011001170363,新規,0,2025-06-17,2025-06-17,銘川株式会社,,株式会社,東京都,渋谷区,幡ヶ谷２丁目８番５号近藤ビル１０３号,,13,113,1510072,,,,,,,2025-06-17,1,,,,,メイカワ,0
1120,5011003021903,新規,0,2025-06-17,2025-06-17,ルミナスグレイ合同会社,,合同会社,東京都,渋谷区,恵比寿西２丁目４番８号ウィンド恵比寿ビル８Ｆ,,13,113,1500021,,,,,,,2025-06-17,1,,,,,ルミナスグレイ,0
1126,5011101112059,新規,0,2025-06-17,2025-06-17,株式会社ビジョンライズ,,株式会社,東京都,新宿区,新宿６丁目２７番３０号,,13,104,1600022,,,,,,,2025-06-17,1,,,,,ビジョンライズ,0
1127,5011103016010,新規,0,2025-06-17,2025-06-17,Ｖｉｍｅｔｒｉｃ合同会社,,合同会社,東京都,新宿区,大久保１丁目２番１－２０５号,,13,104,1690072,,,,,,,2025-06-17,1,,,,,ビメトリック,0
1128,5011105011471,新規,0,2025-06-17,2025-06-17,一般社団法人デジタル著作権保全機構,,その他の設立登記法人,東京都,新宿区,西新宿７丁目９番６号寿ビル３Ｆ,,13,104,1600023,,,,,,,2025-06-17,1,,,,,デジタルチョサクケンホゼンキコウ,0
1132,5011601028696,新規,0,2025-06-17,2025-06-17,アーク株式会社,,株式会社,東京都,練馬区,桜台３丁目１５番５号ＲＥＡＰＴ氷川台２０１号室,,13,120,1760002,,,,,,,2025-06-17,1,,,,,アーク,0
1133,5011601028738,新規,0,2025-06-17,2025-06-17,株式会社飯波設備,,株式会社,東京都,練馬区,豊玉南１丁目１７－１オレンジハイツ１０２,,13,120,1760014,,,,,,,2025-06-17,1,,,,,イイナミセツビ,0
1134,5011603004737,新規,0,2025-06-17,2025-06-17,合同会社ＡＮＥＲＡ,,合同会社,東京都,練馬区,貫井１丁目３５番６号フラットアキヤマ１０５号室,,13,120,1760021,,,,,,,2025-06-17,1,,,,,アネラ,0
1136,5011803006921,新規,0,2025-06-17,2025-06-17,猫とおじさんかさはら不動産合同会社,,合同会社,東京都,葛飾区,四つ木１丁目３８番３号,,13,122,1240011,,,,,,,2025-06-17,1,,,,,ネコトオジサンカサハラフドウサン,0
1144,5012803003768,新規,0,2025-06-17,2025-06-17,ＵＦＬ合同会社,,合同会社,東京都,武蔵村山市,大南３丁目１８番地の４アルナージュ１０１号,,13,223,2080013,,,,,,,2025-06-17,1,,,,,ユーエフエル,0
1149,5013303007722,新規,0,2025-06-17,2025-06-17,合同会社エムズパートナー,,合同会社,東京都,豊島区,池袋２丁目２４番４号,,13,116,1710014,,,,,,,2025-06-17,1,,,,,エムズパートナー,0
1158,5020001163392,新規,0,2025-06-17,2025-06-17,株式会社ＳｐｅｅｄＡｐｅｘ,,株式会社,神奈川県,横浜市緑区,中山６丁目８－２４,,14,113,2260019,,,,,,,2025-06-17,1,,,,,スピードエイペックス,0
1159,5020001163442,新規,0,2025-06-17,2025-06-17,株式会社小高建装,00139595,株式会社,神奈川県,横浜市旭区,小高町１６７番地１,,14,112,2410015,,,,,,,2025-06-17,1,,,,,オタカケンソウ,0
1162,5020003028718,新規,0,2025-06-17,2025-06-17,合同会社翼,,合同会社,神奈川県,横浜市青葉区,たちばな台２丁目１９－２－２０１,,14,117,2270046,,,,,,,2025-06-17,1,,,,,ツバサ,0
1163,5020003028726,新規,0,2025-06-17,2025-06-17,合同会社大山,,合同会社,神奈川県,川崎市中原区,上丸子山王町１丁目１４４９番地,,14,133,2110002,,,,,,,2025-06-17,1,,,,,オオヤマ,0
1164,5020003028734,新規,0,2025-06-17,2025-06-17,合同会社アプリコット,,合同会社,神奈川県,川崎市高津区,久本３丁目１４番１－１３１５号ザ・タワー＆パークス田園都市溝口,,14,134,2130011,,,,,,,2025-06-17,1,,,,,アプリコット,0
1170,5021001085528,新規,0,2025-06-17,2025-06-17,株式会社Ｋ３,,株式会社,神奈川県,秦野市,本町２丁目８番２９号クーペハウス１０１,,14,211,2570035,,,,,,,2025-06-17,1,,,,,ケイスリー,0
1175,5021003016150,新規,0,2025-06-17,2025-06-17,ＷＩＺｒｅｄｅｕｓ合同会社,,合同会社,神奈川県,茅ヶ崎市,円蔵２１３７番地１－２０２号りぶれ９７,,14,207,2530084,,,,,,,2025-06-17,1,,,,,ウィズリディアス,0
1179,5030001167112,新規,0,2025-06-17,2025-06-17,冬暁株式会社,,株式会社,埼玉県,鴻巣市,鎌塚５丁目５番３８号,,11,217,3690112,,,,,,,2025-06-17,1,,,,,トウギョウ,0
1186,5030003027009,新規,0,2025-06-17,2025-06-17,ノースクローズシステムズ合同会社,,合同会社,埼玉県,入間市,大字上藤沢４２４番地３４,,11,225,3580013,,,,,,,2025-06-17,1,,,,,ノースクローズシステムズ,0
1192,5040001139291,新規,0,2025-06-17,2025-06-17,株式会社ＴＲトラスト,,株式会社,千葉県,佐倉市,南ユーカリが丘２番地１、７１６号,,12,212,2850859,,,,,,,2025-06-17,1,,,,,ティーアールトラスト,0
1195,5040003027841,新規,0,2025-06-17,2025-06-17,合同会社ｇｕｉｄａ　ｓｉｃｕｒａ,,合同会社,千葉県,市川市,下貝塚２丁目９番６号,,12,203,2720821,,,,,,,2025-06-17,1,,,,,グイダシコラ,0
1204,5060001038310,新規,0,2025-06-17,2025-06-17,株式会社泰顕工業,,株式会社,栃木県,宇都宮市,南町２番３２号,,09,201,3210142,,,,,,,2025-06-17,1,,,,,タイケンコウギョウ,0
1206,5060003005597,新規,0,2025-06-17,2025-06-17,ＡＬ‐ＫＡＳＩＢ　ＭＯＴＯＲＳ　ＳＡＨＩＷＡＬ合同会社,,合同会社,栃木県,栃木市,今泉町２丁目８－７３梅原アパート２０１号,,09,203,3280027,,,,,,,2025-06-17,1,,,,,アルカシブモーターズサヒワル,0
1212,5080401027976,新規,0,2025-06-17,2025-06-17,株式会社ＵＮＩＴＯＲＡ,,株式会社,静岡県,浜松市中央区,篠原町２２４４７番地,,22,138,4310201,,,,,,,2025-06-17,1,,,,,ウニトラ,0
1229,5120001276754,新規,0,2025-06-17,2025-06-17,株式会社Ｂｒａｎｃｈ,,株式会社,大阪府,大阪市北区,梅田１丁目２番２号大阪駅前第２ビル２階５－６号室,,27,127,5300001,,,,,,,2025-06-17,1,,,,,ブランチ,0
1230,5120001276795,新規,0,2025-06-17,2025-06-17,ローリア株式会社,,株式会社,大阪府,大阪市西区,立売堀３丁目７－１６－３０１－Ｂ,,27,106,5500012,,,,,,,2025-06-17,1,,,,,ローリア,0
1231,5120001276903,新規,0,2025-06-17,2025-06-17,株式会社メイクル,,株式会社,大阪府,大阪市中央区,道修町２丁目４番１２－１３０１号,,27,128,5410045,,,,,,,2025-06-17,1,,,,,メイクル,0
1232,5120001276911,新規,0,2025-06-17,2025-06-17,嘉禾億恵株式会社,,株式会社,大阪府,大阪市西成区,南津守３丁目１番４８号,,27,122,5570063,,,,,,,2025-06-17,1,,,,,カガオクエ,0
1235,5120003029771,新規,0,2025-06-17,2025-06-17,顔彩合同会社,,合同会社,大阪府,大阪市北区,天神橋６丁目２－２５－３階Ｂ号室,,27,127,5300041,,,,,,,2025-06-17,1,,,,,ガンサイ,0
1243,5130001079909,新規,0,2025-06-17,2025-06-17,モノキチ株式会社,,株式会社,京都府,向日市,寺戸町向畑２０番地の１６１,,26,208,6170002,,,,,,,2025-06-17,1,,,,,モノキチ,0
1244,5130003010549,新規,0,2025-06-17,2025-06-17,ヒーローチェスト合同会社,,合同会社,京都府,京都市中京区,小結棚町４３５ジェイ・プライド四条烏丸７０３号室,,26,104,6048223,,,,,,,2025-06-17,1,,,,,ヒーローチェスト,0
1248,5140001138911,新規,0,2025-06-17,2025-06-17,アイネットシステム株式会社,,株式会社,兵庫県,伊丹市,山田３丁目６番１５－１号,,28,207,6640874,,,,,,,2025-06-17,1,,,,,アイネットシステム,0
1250,5140003022213,新規,0,2025-06-17,2025-06-17,合同会社カルムサポート,,合同会社,兵庫県,尼崎市,塚口町６丁目５８－２８,,28,202,6610002,,,,,,,2025-06-17,1,,,,,カルムサポート,0
1261,5180001167295,新規,0,2025-06-17,2025-06-17,株式会社マナリー,,株式会社,愛知県,名古屋市港区,秋葉３丁目１０７番地の３,,23,111,4550857,,,,,,,2025-06-17,1,,,,,マナリー,0
1272,5200001043907,新規,0,2025-06-17,2025-06-17,株式会社Ｓｔｕｎｎｅｒ,,株式会社,岐阜県,恵那市,長島町永田５６２,,21,210,5097204,,,,,,,2025-06-17,1,,,,,スタナー,0
1290,5260001040279,新規,0,2025-06-17,2025-06-17,株式会社め組,,株式会社,岡山県,岡山市中区,兼基１４１番地３,,33,102,7038227,,,,,,,2025-06-17,1,,,,,メグミ,0
1295,5290001110376,新規,0,2025-06-17,2025-06-17,株式会社ＦＩＤＥＭ,,株式会社,福岡県,福岡市中央区,大名１丁目３－４１プリオ大名ビル２Ｆ,,40,133,8100041,,,,,,,2025-06-17,1,,,,,フィデム,0
1296,5290001110426,新規,0,2025-06-17,2025-06-17,株式会社Ｊｕｎａ＆Ｃｏ．,,株式会社,福岡県,福岡市博多区,博多駅前１丁目２３番２号ＰａｒｋＦｒｏｎｔ博多駅前１丁目５Ｆ－Ｂ,,40,132,8120011,,,,,,,2025-06-17,1,,,,,ジュナアンドカンパニー,0
1301,5290801031631,新規,0,2025-06-17,2025-06-17,株式会社ＵＲＵＷＡＳＨＩ,,株式会社,福岡県,北九州市小倉南区,守恒本町２丁目２番１号ステップビル２０１号室,,40,107,8020971,,,,,,,2025-06-17,1,,,,,ウルワシ,0
1305,5330001033275,新規,0,2025-06-17,2025-06-17,株式会社ＳＡＳＡＫＩ,,株式会社,熊本県,菊池郡菊陽町,津久札宮ノ上１６２番地８,,43,404,8691100,,,,,,,2025-06-17,1,,,,,ササキ,0
1312,5350001019594,新規,0,2025-06-17,2025-06-17,株式会社うるわし保険事務所,,株式会社,宮崎県,延岡市,大貫町３丁目７６０番地,,45,203,8820803,,,,,,,2025-06-17,1,,,,,ウルワシホケンジムショ,0
1313,5350002002293,新規,0,2025-06-17,2025-06-17,有限会社将栄,,有限会社,宮崎県,宮崎市,出来島町１０番地１,,45,201,8800861,,,,,,,2025-06-17,1,,,,,ショウエイ,0
1325,5380003006068,新規,0,2025-06-17,2025-06-17,合同会社プランドゥ,,合同会社,福島県,須賀川市,森宿字北向９１番地６９,,07,207,9620001,,,,,,,2025-06-17,1,,,,,プランドゥ,0
1336,5430003017778,新規,0,2025-06-17,2025-06-17,合同会社ライジングノース,,合同会社,北海道,札幌市中央区,南五条西１５丁目２－３－５０３,,01,101,0640805,,,,,,,2025-06-17,1,,,,,ライジングノース,0
1339,5430005015251,新規,0,2025-06-17,2025-06-17,特定非営利活動法人そだちのささえ,,その他の設立登記法人,北海道,日高郡新ひだか町,静内田原８９７番地の２０,,01,610,0560144,,,,,,,2025-06-17,1,,,,,ソダチノササエ,0
1340,5450003002679,新規,0,2025-06-17,2025-06-17,合同会社サンセリテ,,合同会社,北海道,旭川市,三条通２丁目６００番地の１Ｔハウス３．２Ｉ　２０１号,00139592,01,204,0700033,,,,,,,2025-06-17,1,,,,,サンセリテ,0
1347,5500001026344,新規,0,2025-06-17,2025-06-17,株式会社コネクトデザイン,,株式会社,愛媛県,今治市,旭町１丁目２番地９ツカサビル１階,,38,202,7940042,,,,,,,2025-06-17,1,,,,,コネクトデザイン,0
1348,5500001026352,新規,0,2025-06-17,2025-06-17,株式会社エフリンク,,株式会社,愛媛県,松山市,南久米町４１４番地１,,38,201,7900924,,,,,,,2025-06-17,1,,,,,エフリンク,0
1350,5500005008801,新規,0,2025-06-17,2025-06-17,一般社団法人泰樹会,,その他の設立登記法人,愛媛県,今治市,喜田村４丁目１０番３５号,,38,202,7991502,,,,,,,2025-06-17,1,,,,,タイジュカイ,0
1363,6010001255999,新規,0,2025-06-17,2025-06-17,株式会社ＫＡＮＲＩ,,株式会社,東京都,文京区,本駒込６丁目１５―１６―６０２,,13,105,1130021,,,,,,,2025-06-17,1,,,,,カンリ,0
1364,6010003047676,新規,0,2025-06-17,2025-06-17,ナインスター合同会社,,合同会社,東京都,中央区,京橋２丁目１２番６号ＡＯＪ税理士法人内,,13,102,1040031,,,,,,,2025-06-17,1,,,,,ナインスター,0
1365,6010003047701,新規,0,2025-06-17,2025-06-17,Ｆｒｏｏｄｉ合同会社,,合同会社,東京都,千代田区,三崎町三丁目６番地１ＢＡＣＨビル２階,,13,101,1000000,,,,,,,2025-06-17,1,,,,,フルーディ,0
1376,6010401191118,新規,0,2025-06-17,2025-06-17,株式会社Ｍｅｄｌｉｓｓ,,株式会社,東京都,港区,六本木６丁目１０－１六本木ヒルズ森タワー１５階ＣＩＲＣＬＥｂｙＡＮＲＩ,,13,103,1060032,,,,,,,2025-06-17,1,,,,,メドリス,0
1380,6010403035355,新規,0,2025-06-17,2025-06-17,Ｘｉｏｎｖｏｄａ　ＦＧＨＤ合同会社,,合同会社,東京都,港区,赤坂４丁目８番１９号,,13,103,1070052,,,,,,,2025-06-17,1,,,,,シオンヴォーダフィナンシャルグループホールディングス,0
1381,6010501054257,新規,0,2025-06-17,2025-06-17,株式会社ＪＢメディカル,,株式会社,東京都,台東区,上野１丁目１６番５号,,13,106,1100005,,,,,,,2025-06-17,1,,,,,ジェービーメディカル,0
1383,6010601067456,新規,0,2025-06-17,2025-06-17,Ｃｏｍｐａｓｓｉｏｎ株式会社,,株式会社,東京都,江東区,亀戸４丁目４２番５号,,13,108,1360071,,,,,,,2025-06-17,1,,,,,コンパッション,0
1384,6010601067472,新規,0,2025-06-17,2025-06-17,株式会社Ｄｕ　Ｓｏｂｅｒ,,株式会社,東京都,江東区,東陽２丁目２番１４号,,13,108,1350016,,,,,,,2025-06-17,1,,,,,デュソバー,0
1394,6010903010015,新規,0,2025-06-17,2025-06-17,合同会社フルーツ,,合同会社,東京都,世田谷区,赤堤５丁目４３番１５号,,13,112,1560044,,,,,,,2025-06-17,1,,,,,,0
1401,6011001170008,新規,0,2025-06-17,2025-06-17,株式会社ナナメディア,,株式会社,東京都,渋谷区,道玄坂１丁目１０番８号渋谷道玄坂東急ビル２Ｆ－Ｃ,,13,113,1500043,,,,,,,2025-06-17,1,,,,,ナナメディア,0
1402,6011001170065,新規,0,2025-06-17,2025-06-17,株式会社Ｓｈｉｂｕｌｙ,,株式会社,東京都,渋谷区,道玄坂１丁目１０番８号渋谷道玄坂東急ビル２Ｆ－Ｃ,,13,113,1500043,,,,,,,2025-06-17,1,,,,,シブリー,0
1403,6011001170073,新規,0,2025-06-17,2025-06-17,ハース地所株式会社,,株式会社,東京都,渋谷区,恵比寿西２丁目３番１１号,,13,113,1500021,,,,,,,2025-06-17,1,,,,,ハースジショ,0
1404,6011001170107,新規,0,2025-06-17,2025-06-17,株式会社ＬＩＦＥＴＥＲＲＡ,,株式会社,東京都,渋谷区,円山町５番５号Ｎａｖｉ渋谷Ｖ３階,00139583,13,113,1500044,,,,,,,2025-06-17,1,,,,,ライフテラ,0
1405,6011001170156,新規,0,2025-06-17,2025-06-17,ＮＡＮＡＴＵＲＡＬ株式会社,,株式会社,東京都,渋谷区,富ヶ谷１丁目１４－１４スタンフォードアネックスビル３Ｆ,,13,113,1510063,,,,,,,2025-06-17,1,,,,,ナナチュラル,0
1406,6011001170239,新規,0,2025-06-17,2025-06-17,株式会社ＪＳＴＡＲｓ,,株式会社,東京都,目黒区,東山１丁目６番１号,,13,110,1530043,,,,,,,2025-06-17,1,,,,,ジェイスター,0
1407,6011001170478,新規,0,2025-06-17,2025-06-17,Ｅｘａｓｏｆｔ　Ｚｅｎｔａｃｔ株式会社,,株式会社,東京都,渋谷区,神南１丁目１２－１４宮田ビル,,13,113,1500041,,,,,,,2025-06-17,1,,,,,エグザソフトゼンタクト,0
1408,6011001170569,新規,0,2025-06-17,2025-06-17,株式会社Ｓｔｕｄｉｏ　ＲＯＯＴＳ,,株式会社,東京都,渋谷区,円山町５番３号ＭＩＥＵＸ渋谷ビル８階,,13,113,1500044,,,,,,,2025-06-17,1,,,,,スタジオルーツ,0
1410,6011003021794,新規,0,2025-06-17,2025-06-17,合同会社大西,,合同会社,東京都,渋谷区,神南１丁目１１－４ＦＰＧリンクス神南５階,,13,113,1500041,,,,,,,2025-06-17,1,,,,,オオニシ,0
1411,6011003021803,新規,0,2025-06-17,2025-06-17,合同会社ＣｉｔｔａＶｅｒｄｅ,,合同会社,東京都,渋谷区,恵比寿西２丁目４番８号ウィンド恵比寿ビル８Ｆ,,13,113,1500021,,,,,,,2025-06-17,1,,,,,チッタヴェルデ,0
1414,6011101001541,新規,0,2025-06-17,2025-06-17,アサヒ都市開発株式会社,,株式会社,東京都,新宿区,弁天町２３番地６,,13,104,1620851,,,,,,,2025-06-17,1,,,,,アサヒトシカイハツ,0
1417,6011101112058,新規,0,2025-06-17,2025-06-17,株式会社ｐｏｍｙ,,株式会社,東京都,新宿区,新宿６丁目２７－４８－１０１９,,13,104,1600022,,,,,,,2025-06-17,1,,,,,ポミー,0
1418,6011101112099,新規,0,2025-06-17,2025-06-17,ＯＮＥＡＬＬ株式会社,,株式会社,東京都,新宿区,西新宿３丁目３番１３号西新宿水間ビル６階,,13,104,1600023,,,,,,,2025-06-17,1,,,,,ワンオール,0
1419,6011101112116,新規,0,2025-06-17,2025-06-17,株式会社スリーエス,,株式会社,東京都,新宿区,下落合１丁目３番１９号６０１,,13,104,1610033,,,,,,,2025-06-17,1,,,,,スリーエス,0
1438,6012803003767,新規,0,2025-06-17,2025-06-17,合同会社ベルクス,,合同会社,東京都,昭島市,玉川町３丁目２７番３号,,13,207,1960034,,,,,,,2025-06-17,1,,,,,ベルクス,0
1453,6020001163391,新規,0,2025-06-17,2025-06-17,株式会社ＦＬＥＸＩ,,株式会社,神奈川県,川崎市川崎区,港町５－１－２３０１,,14,131,2100807,,,,,,,2025-06-17,1,,,,,フレキシ,0
1454,6020001163441,新規,0,2025-06-17,2025-06-17,株式会社ＡＬＬ　ＩＮ,,株式会社,神奈川県,横浜市戸塚区,深谷町８８２番地２,,14,110,2450067,,,,,,,2025-06-17,1,,,,,オールイン,0
1457,6020003028717,新規,0,2025-06-17,2025-06-17,ＴＨＡＮＨ　ＴＲＵＮＧ　ＣＯＭＰＡＮＹ合同会社,,合同会社,神奈川県,横浜市南区,高根町１丁目４番地４０高根町４－４０アパート２ＦＡ０１,,14,105,2320022,,,,,,,2025-06-17,1,,,,,タインチュンカンパニー,0
1458,6020003028725,新規,0,2025-06-17,2025-06-17,合同会社風水,,合同会社,神奈川県,横浜市鶴見区,鶴見中央３丁目１番２７－４０１号,,14,101,2300051,,,,,,,2025-06-17,1,,,,,フウスイ,0
1460,6021001085502,新規,0,2025-06-17,2025-06-17,株式会社大樹建築,,株式会社,神奈川県,小田原市,千代６５４番地の１２,,14,206,2500215,,,,,,,2025-06-17,1,,,,,ダイキケンチク,0
1461,6021001085535,新規,0,2025-06-17,2025-06-17,ホームズ株式会社,,株式会社,神奈川県,横須賀市,大津町５丁目２２番９号,,14,201,2390808,,,,,,,2025-06-17,1,,,,,ホームズ,0
1465,6021003016133,新規,0,2025-06-17,2025-06-17,合同会社倉橋書房,,合同会社,神奈川県,座間市,入谷西３丁目３番２６号,,14,216,2520029,,,,,,,2025-06-17,1,,,,,クラハシショボウ,0
1466,6021003016141,新規,0,2025-06-17,2025-06-17,合同会社湘南コトば,,合同会社,神奈川県,藤沢市,鵠沼松が岡２丁目４－４,,14,205,2510038,,,,,,,2025-06-17,1,,,,,ショウナンコトバ,0
1473,6030001167136,新規,0,2025-06-17,2025-06-17,スリービー株式会社,,株式会社,埼玉県,蕨市,塚越１丁目４番７号,,11,223,3350002,,,,,,,2025-06-17,1,,,,,スリービー,0
1474,6030001167160,新規,0,2025-06-17,2025-06-17,株式会社ワールドリセール,,株式会社,埼玉県,さいたま市西区,西大宮１丁目３１番地３,,11,101,3310078,,,,,,,2025-06-17,1,,,,,ワールドリセール,0
1478,6030003026991,新規,0,2025-06-17,2025-06-17,ＭＢＴ合同会社,,合同会社,埼玉県,和光市,西大和団地３番１号５０５,,11,229,3510105,,,,,,,2025-06-17,1,,,,,エムビーティー,0
1485,6040001139266,新規,0,2025-06-17,2025-06-17,株式会社ＰｒｏＭｅｄｉｘ,,株式会社,千葉県,船橋市,小室町１３８５番地４,,12,204,2701471,,,,,,,2025-06-17,1,,,,,プロメディクス,0
1486,6040001139290,新規,0,2025-06-17,2025-06-17,株式会社コンフィデンス・サービス,,株式会社,千葉県,市川市,湊５番４－１０３号,,12,203,2720131,,,,,,,2025-06-17,1,,,,,コンフィデンスサービス,0
1489,6040003027824,新規,0,2025-06-17,2025-06-17,合同会社暮し,,合同会社,千葉県,松戸市,樋野口７１９－１イニシア松戸２１０,,12,207,2710067,,,,,,,2025-06-17,1,,,,,クラシ,0
1490,6040003027840,新規,0,2025-06-17,2025-06-17,合同会社ＴＩＮ,,合同会社,千葉県,八街市,大関８０番地２２,,12,230,2891142,,,,,,,2025-06-17,1,,,,,ティーアイエヌ,0
1493,6050001056808,新規,0,2025-06-17,2025-06-17,英林商事株式会社,,株式会社,茨城県,常総市,中妻町２６３３番地２,,08,211,3002505,,,,,,,2025-06-17,1,,,,,エイリンショウジ,0
1494,6050005013648,新規,0,2025-06-17,2025-06-17,一般社団法人Ｂｅｓｈａ茨城常陸ノ国,,その他の設立登記法人,茨城県,常陸大宮市,東野４５５６番地,,08,225,3192224,,,,,,,2025-06-17,1,,,,,ビーシャヒタチノクニ,0
1498,6060003005596,新規,0,2025-06-17,2025-06-17,下野インターナショナル合同会社,,合同会社,栃木県,小山市,大字喜沢１２０１番地１ＹＮＳハイツ２０８号,,09,208,3230014,,,,,,,2025-06-17,1,,,,,シモツケインターナショナル,0
1502,6080001026989,新規,0,2025-06-17,2025-06-17,株式会社ＳＴＲＡＹ　ＰＡＲＡＤＥ,,株式会社,静岡県,静岡市葵区,両替町２丁目７番１０両替町ビル７階,,22,101,4200032,,,,,,,2025-06-17,1,,,,,ストレイパレード,0
1506,6080105006516,新規,0,2025-06-17,2025-06-17,一般社団法人らいおん,,その他の設立登記法人,静岡県,三島市,中田町１１番３３号マンションＡ＆Ｏ１０２,,22,206,4110838,,,,,,,2025-06-17,1,,,,,ライオン,0
1512,6090003002839,新規,0,2025-06-17,2025-06-17,合同会社やまなしデジタルラボ,,合同会社,山梨県,甲府市,里吉４丁目１４－２０ヴィナグラート２０２,,19,201,4000822,,,,,,,2025-06-17,1,,,,,ヤマナシデジタルラボ,0
1525,6120001276885,新規,0,2025-06-17,2025-06-17,株式会社ＡＳＡＲＩＤＡ,,株式会社,大阪府,大阪市北区,梅田１丁目２番２号大阪駅第２ビル１２‐１２,,27,127,5300001,,,,,,,2025-06-17,1,,,,,アサリダ,0
1526,6120001276893,新規,0,2025-06-17,2025-06-17,義澄株式会社,,株式会社,大阪府,大阪市天王寺区,伶人町２－３１ＳｔａｒＯｆｆｉｃｅ大阪天王寺北２０８号室,,27,109,5430061,,,,,,,2025-06-17,1,,,,,ギチョウ,0
1527,6120001276902,新規,0,2025-06-17,2025-06-17,大阪吉田貿易株式会社,,株式会社,大阪府,大阪市西成区,萩之茶屋２丁目６－４ニューかめや１６２号室,,27,122,5570004,,,,,,,2025-06-17,1,,,,,オオサカヨシダボウエキ,0
1531,6120101071864,新規,0,2025-06-17,2025-06-17,一番星株式会社,,株式会社,大阪府,堺市西区,浜寺船尾町東３丁３４３番地１階,,27,144,5928341,,,,,,,2025-06-17,1,,,,,イチバンボシ,0
1532,6120901051066,新規,0,2025-06-17,2025-06-17,株式会社宮田オート,,株式会社,大阪府,高槻市,大字原１８８９番地の１,,27,207,5691051,,,,,,,2025-06-17,1,,,,,ミヤタオート,0
1533,6120901051074,新規,0,2025-06-17,2025-06-17,株式会社Ｖ‐ｓｐｒｉｎｇ,,株式会社,大阪府,豊中市,庄内東町２丁目２－８牧酒業ビル３０４号,,27,203,5610831,,,,,,,2025-06-17,1,,,,,ブイスプリング,0
1534,6122003003227,新規,0,2025-06-17,2025-06-17,合同会社ＭＩＲＡＩ　ＴＡＰＩ,,合同会社,大阪府,東大阪市,若江本町３丁目６番１１号,,27,227,5780942,,,,,,,2025-06-17,1,,,,,ミライタピ,0
1539,6130001079899,新規,0,2025-06-17,2025-06-17,株式会社アトリエうさぎ,,株式会社,京都府,京都市伏見区,深草大亀谷大山町７６番地,,26,109,6120847,,,,,,,2025-06-17,1,,,,,アトリエウサギ,0
1540,6130001079908,新規,0,2025-06-17,2025-06-17,株式会社Ｃｏｌｏｎ,,株式会社,京都府,京都市北区,上賀茂今井河原町１０番地３,,26,101,6038063,,,,,,,2025-06-17,1,,,,,コロン,0
1541,6130001079916,新規,0,2025-06-17,2025-06-17,株式会社ＣＯＬＯＲＩＯ,,株式会社,京都府,京都市上京区,宮垣町９１－１０２,,26,102,6020853,,,,,,,2025-06-17,1,,,,,カラリオ,0
1549,6140003022212,新規,0,2025-06-17,2025-06-17,Ｓ合同会社,,合同会社,兵庫県,明石市,東野町１９１０番地の６ビアンコディモーラ１０３,,28,203,6730844,,,,,,,2025-06-17,1,,,,,エス,0
1558,6180001167294,新規,0,2025-06-17,2025-06-17,株式会社白氏工務店,,株式会社,愛知県,東海市,名和町一番割上７２番地の３,,23,222,4760002,,,,,,,2025-06-17,1,,,,,ハクウジコウムテン,0
1559,6180001167328,新規,0,2025-06-17,2025-06-17,株式会社ＳＥＮＳＥＳ,,株式会社,愛知県,名古屋市港区,甚兵衛通４丁目４６番地の７,,23,111,4550822,,,,,,,2025-06-17,1,,,,,センセス,0
1564,6180003028619,新規,0,2025-06-17,2025-06-17,合同会社Ｔｒｉｅｖｏ,,合同会社,愛知県,名古屋市北区,大曽根４丁目１８番３１号ドゥエトワール３０２,,23,103,4620825,,,,,,,2025-06-17,1,,,,,トリエヴォ,0
1567,6180301039912,新規,0,2025-06-17,2025-06-17,株式会社ＴＫ,,株式会社,愛知県,安城市,里町３丁目１７番地１,,23,212,4460001,,,,,,,2025-06-17,1,,,,,ティーケー,0
1584,6240001065079,新規,0,2025-06-17,2025-06-17,株式会社千惠政,,株式会社,広島県,福山市,金江町金見６４３番地３０,,34,207,7200541,,,,,,,2025-06-17,1,,,,,チエマサ,0
1588,6250003003754,新規,0,2025-06-17,2025-06-17,合同会社みまもーる,,合同会社,山口県,下関市,山の田本町２０番１号,,35,201,7510838,,,,,,,2025-06-17,1,,,,,ミマモール,0
1591,6290001110375,新規,0,2025-06-17,2025-06-17,１Ｘ　Ｊａｐａｎ株式会社,,株式会社,福岡県,福岡市南区,高宮４丁目１３番７号,,40,134,8150083,,,,,,,2025-06-17,1,,,,,ワンエックスジャパン,0
1592,6290001110383,新規,0,2025-06-17,2025-06-17,株式会社Ｎｏｘｉｓ,,株式会社,福岡県,福岡市中央区,天神３丁目１０番３０号,,40,133,8100001,,,,,,,2025-06-17,1,,,,,ノクシス,0
1593,6290001110400,新規,0,2025-06-17,2025-06-17,ＬＥＣ株式会社,,株式会社,福岡県,福岡市博多区,博多駅東１丁目１－３３はかた近代ビル４階Ｆ,,40,132,8120013,,,,,,,2025-06-17,1,,,,,エルイーシー,0
1596,6290003016983,新規,0,2025-06-17,2025-06-17,Ｍｕｓｕｖｉ合同会社,,合同会社,福岡県,福岡市中央区,大名２丁目４番３３号トートレビル２Ｆ,,40,133,8100041,,,,,,,2025-06-17,1,,,,,ムスビ,0
1597,6290003016991,新規,0,2025-06-17,2025-06-17,グレースソーラーニューエナジー合同会社,,合同会社,福岡県,福岡市博多区,千代１丁目１５番１号,,40,132,8120044,,,,,,,2025-06-17,1,,,,,グレースソーラーニューエナジー,0
1601,6320001021164,新規,0,2025-06-17,2025-06-17,株式会社Ｏｍｎａ,,株式会社,大分県,大分市,大字屋山字小越５６１番地６,,44,201,8700313,,,,,,,2025-06-17,1,,,,,オムナ,0
1607,6350003004957,新規,0,2025-06-17,2025-06-17,合同会社旺樹造園土木,,合同会社,宮崎県,都城市,中原町１１街区１４号,,45,202,8850032,,,,,,,2025-06-17,1,,,,,オウジュゾウエンドボク,0
1615,6420003003134,新規,0,2025-06-17,2025-06-17,合同会社そしじ,,合同会社,青森県,上北郡おいらせ町,浜道１３３番地５セゾンササキ,,02,412,0392184,,,,,,,2025-06-17,1,,,,,ソシジ,0
1624,6430001094686,新規,0,2025-06-17,2025-06-17,株式会社イージー建設,,株式会社,北海道,札幌市白石区,本郷通４丁目北４番地２２,,01,104,0030025,,,,,,,2025-06-17,1,,,,,イージーケンセツ,0
1632,6450003002678,新規,0,2025-06-17,2025-06-17,合同会社琉球浪漫倶楽部,,合同会社,北海道,礼文郡礼文町,大字香深村字トンナイ４０番地２６,,01,517,0971201,,,,,,,2025-06-17,1,,,,,リュウキュウロマンクラブ,0
1644,6500003003530,新規,0,2025-06-17,2025-06-17,ＯＭＥＧＡ　ＧＬＯＲＹ合同会社,,合同会社,愛媛県,四国中央市,土居町小林１２８５番地,,38,213,7990702,,,,,,,2025-06-17,1,,,,,オメガグローリー,0
1645,6700150059124,新規,0,2025-06-17,2015-10-09,福岡県未来ＩＴイニシアティブ,,その他,福岡県,福岡市博多区,東公園７番７号,,40,132,8120045,,,,,,,2015-10-09,1,,,,,フクオカケンミライアイテイイニシアテイブ,0
1646,6700150131056,新規,0,2025-06-17,2025-06-17,Ｓ．Ｈ．Ｍ　ＴＲＡＤＥＲＳ,,外国会社等,神奈川県,伊勢原市,上谷７０３番地Ｂ,,14,214,2591127,スリランカ民主社会主義共和国、中央州、キャンディ地区、アクラナ、メルチェナ、Ｎｏ．８８６／２／Ａ,,,,,,2025-06-17,1,,,,,エスエイチエムトレーダーズ,0
1647,6700150131089,新規,0,2025-06-17,2025-06-17,ＡＲ　ＬＡＮＫＡ　ＨＯＬＤＩＮＧＳ　ＰＶＴ　ＬＴＤ,,外国会社等,千葉県,八街市,朝日２７３番地１,,12,230,2891101,スリランカ民主社会主義共和国、サンマントゥライ、アンパラロード、Ｎｏ．９９／Ａ,,,,,,2025-06-17,1,,,,,エーアールランカホールデイングスプライベートリミテツド,0
1661,7010001256030,新規,0,2025-06-17,2025-06-17,エス株式会社,,株式会社,東京都,中央区,日本橋室町１丁目１１番１２号日本橋水野ビル７階,,13,102,1030022,,,,,,,2025-06-17,1,,,,,エス,0
1662,7010001256039,新規,0,2025-06-17,2025-06-17,株式会社Ａｎｇｅｌｕａ,,株式会社,東京都,中央区,銀座１丁目２２番１１号銀座大竹ビジデンス２Ｆ,,13,102,1040061,,,,,,,2025-06-17,1,,,,,エンジェルア,0
1663,7010001256055,新規,0,2025-06-17,2025-06-17,株式会社テランドロード,,株式会社,東京都,中央区,八丁堀４丁目１１番２号,,13,102,1040032,,,,,,,2025-06-17,1,,,,,テランドロード,0
1666,7010003047709,新規,0,2025-06-17,2025-06-17,合同会社ベストホーム,,合同会社,東京都,中央区,晴海５丁目１番１７－１４０１号,,13,102,1040053,,,,,,,2025-06-17,1,,,,,ベストホーム,0
1682,7010501054256,新規,0,2025-06-17,2025-06-17,株式会社ＪＢサステナブル,,株式会社,東京都,台東区,上野１丁目１６番５号,,13,106,1100005,,,,,,,2025-06-17,1,,,,,ジェービーサステナブル,0
1687,7010701047877,新規,0,2025-06-17,2025-06-17,ＲｉｄｅＣａｎｖａｓ株式会社,,株式会社,東京都,品川区,西五反田７丁目２４－４ＫＵビル８階,,13,109,1410031,,,,,,,2025-06-17,1,,,,,ライドキャンバス,0
1688,7010701047885,新規,0,2025-06-17,2025-06-17,株式会社ＲＯＹＡＬ,,株式会社,東京都,品川区,東五反田２丁目６－５フロインデ１０１,,13,109,1410022,,,,,,,2025-06-17,1,,,,,ロイヤル,0
1690,7010801036251,新規,0,2025-06-17,2025-06-17,ＫＫＧＯ株式会社,,株式会社,東京都,大田区,中央１丁目３番地１５,,13,111,1430024,,,,,,,2025-06-17,1,,,,,ケーケーゴ,0
1692,7010901057569,新規,0,2025-06-17,2025-06-17,ＢｏｒｉｎｇＣｌｉｃｋｓ株式会社,,株式会社,東京都,世田谷区,喜多見７丁目２２番３号,,13,112,1570067,,,,,,,2025-06-17,1,,,,,ボーリングクリックス,0
1693,7010903010014,新規,0,2025-06-17,2025-06-17,合同会社ｓｈｉｎａｐｓ,,合同会社,東京都,世田谷区,太子堂４丁目１８番１５号マガザン三軒茶屋２－３Ｆ－３,,13,112,1540004,,,,,,,2025-06-17,1,,,,,シナプス,0
1704,7011001170097,新規,0,2025-06-17,2025-06-17,株式会社サシロク,,株式会社,東京都,渋谷区,桜丘町１８番４号二宮ビル１Ｆ－５１,,13,113,1500031,,,,,,,2025-06-17,1,,,,,サシロク,0
1705,7011001170312,新規,0,2025-06-17,2025-06-17,株式会社イニシャルＴ,,株式会社,東京都,渋谷区,代々木４丁目２７番２６－３０５号,,13,113,1510053,,,,,,,2025-06-17,1,,,,,イニシャルティー,0
1706,7011001170576,新規,0,2025-06-17,2025-06-17,株式会社ＫｉｎｏＮｅ,,株式会社,東京都,渋谷区,恵比寿西２丁目４番８号ウィンド恵比寿ビル８Ｆ,,13,113,1500021,,,,,,,2025-06-17,1,,,,,キノネ,0
1708,7011003021703,新規,0,2025-06-17,2025-06-17,合同会社ＢＯＭ　ＢＡＹＥ,,合同会社,東京都,渋谷区,広尾４丁目１－３２－８０６,,13,113,1500012,,,,,,,2025-06-17,1,,,,,ボンバイエ,0
1709,7011003021777,新規,0,2025-06-17,2025-06-17,Ｋｅｉｃｈｕａｒｙ合同会社,,合同会社,東京都,渋谷区,恵比寿西１丁目１５－８－６０６,,13,113,1500021,,,,,,,2025-06-17,1,,,,,ケイチュアリ,0
1716,7011101112156,新規,0,2025-06-17,2025-06-17,株式会社ｅｒ,,株式会社,東京都,新宿区,河田町１０番１４号エクセルシオール新宿河田町２０２,,13,104,1620054,,,,,,,2025-06-17,1,,,,,イーアール,0
1720,7011403004729,新規,0,2025-06-17,2025-06-17,ルミナス合同会社,,合同会社,東京都,板橋区,宮本町３番７号,,13,119,1740054,,,,,,,2025-06-17,1,,,,,ルミナス,0
1725,7011701028421,新規,0,2025-06-17,2025-06-17,株式会社ＴＮＳ,,株式会社,東京都,江戸川区,西一之江３丁目４番１８号,,13,123,1320023,,,,,,,2025-06-17,1,,,,,ティーエヌエス,0
1734,7013301054450,新規,0,2025-06-17,2025-06-17,ＳａｔｏｒｕＨａｍａ　Ｌａｂ株式会社,,株式会社,東京都,豊島区,東池袋５丁目７番３号東池袋五丁目ビル２階,,13,116,1700013,,,,,,,2025-06-17,1,,,,,サトルハマラボ,0
1739,7020001163382,新規,0,2025-06-17,2025-06-17,ＳＴＲＩＡ株式会社,,株式会社,神奈川県,川崎市高津区,溝口１丁目９番７号長谷川ビル５Ｆ,,14,134,2130001,,,,,,,2025-06-17,1,,,,,ストリア,0
1740,7020001163390,新規,0,2025-06-17,2025-06-17,株式会社ＰＩＥＣＥ　ＦＩＴ,,株式会社,神奈川県,横浜市西区,みなとみらい５丁目３番１号ブリリアグランデみなとみらいＰ－１４０６,,14,103,2200012,,,,,,,2025-06-17,1,,,,,,0
1741,7020001163408,新規,0,2025-06-17,2025-06-17,株式会社ｓ２６,,株式会社,神奈川県,川崎市宮前区,宮前平１丁目２番地１ヒルトップ宮崎台３０３,,14,136,2160006,,,,,,,2025-06-17,1,,,,,エスニーロク,0
1749,7021001085526,新規,0,2025-06-17,2025-06-17,株式会社ＫＹＳ,,株式会社,神奈川県,平塚市,夕陽ケ丘２番２号,,14,203,2540806,,,,,,,2025-06-17,1,,,,,ケイワイエス,0
1750,7021001085542,新規,0,2025-06-17,2025-06-17,株式会社ｉＤＥＡＳＳ,,株式会社,神奈川県,大和市,草柳３丁目６番地２,,14,213,2420026,,,,,,,2025-06-17,1,,,,,イデアス,0
1751,7021001085550,新規,0,2025-06-17,2025-06-17,株式会社ＲＥＳＯＲＴＩＲ,,株式会社,神奈川県,足柄下郡箱根町,元箱根１６０番地の２０,,14,382,2500522,,,,,,,2025-06-17,1,,,,,リゾルティール,0
1764,7030001167135,新規,0,2025-06-17,2025-06-17,株式会社鰻勝,,株式会社,埼玉県,幸手市,東５丁目７番２号,,11,240,3400114,,,,,,,2025-06-17,1,,,,,ウナカツ,0
1767,7030003026999,新規,0,2025-06-17,2025-06-17,合同会社お庭のみつば,,合同会社,埼玉県,川口市,大字木曽呂２１９－１Ｂ－１０４,,11,203,3330831,,,,,,,2025-06-17,1,,,,,オニワノミツバ,0
1768,7030003027015,新規,0,2025-06-17,2025-06-17,Ｆｕｎｎｙ　Ｐｌａｃｅ合同会社,,合同会社,埼玉県,富士見市,ふじみ野東４丁目１２番地４レジデンスふじみ野２－３０２,,11,235,3540036,,,,,,,2025-06-17,1,,,,,ファニープレイス,0
1773,7040003027699,新規,0,2025-06-17,2025-06-17,合同会社＿凍暖洋,00139581,合同会社,千葉県,松戸市,新松戸６丁目２５５－１,,12,207,2700034,,,,,,,2025-06-17,1,,,,,トウトウダンヨウ,0
1774,7040003027823,新規,0,2025-06-17,2025-06-17,合同会社ＶＡ,,合同会社,千葉県,市原市,潤井戸１９７９番地８６,,12,219,2900171,,,,,,,2025-06-17,1,,,,,ブイエー,0
1777,7050001056807,新規,0,2025-06-17,2025-06-17,古賀農産株式会社,,株式会社,茨城県,龍ケ崎市,出し山町１１２番地１Ｆ,,08,208,3010839,,,,,,,2025-06-17,1,,,,,コガノウサン,0
1778,7050001056815,新規,0,2025-06-17,2025-06-17,株式会社ＩＤ,,株式会社,茨城県,土浦市,桜町４丁目７番１５号ｊステージ土浦３０４,,08,203,3000037,,,,,,,2025-06-17,1,,,,,アイディ,0
1782,7050003009358,新規,0,2025-06-17,2025-06-17,合同会社ＳＩメディカルケア,,合同会社,茨城県,猿島郡境町,大字長井戸５１番地４５,,08,546,3060404,,,,,,,2025-06-17,1,,,,,,0
1784,7060003005604,新規,0,2025-06-17,2025-06-17,合同会社ポテンシャルファンデーション,,合同会社,栃木県,宇都宮市,本町１０－１９,,09,201,3200033,,,,,,,2025-06-17,1,,,,,ポテンシャルファンデーション,0
1791,7080101025551,新規,0,2025-06-17,2025-06-17,株式会社エヌ・ワークス,,株式会社,静岡県,御殿場市,二の岡１丁目１８番１４号,,22,215,4120025,,,,,,,2025-06-17,1,,,,,エヌワークス,0
1796,7100001038700,新規,0,2025-06-17,2025-06-17,ＴｉｍｅＳｔｏｒｙ株式会社,,株式会社,長野県,北安曇郡白馬村,大字北城３４８５番地３之二１０２室,,20,485,3999301,,,,,,,2025-06-17,1,,,,,タイムストーリー,0
1809,7120103006520,新規,0,2025-06-17,2025-06-17,合同会社美頼,,合同会社,大阪府,羽曳野市,古市１４９６番地の１１,,27,222,5830852,,,,,,,2025-06-17,1,,,,,ミライ,0
1819,7140001138959,新規,0,2025-06-17,2025-06-17,消防ネット株式会社,,株式会社,兵庫県,尼崎市,西川２丁目４番１７号,,28,202,6610966,,,,,,,2025-06-17,1,,,,,ショウボウネット,0
1820,7140001138967,新規,0,2025-06-17,2025-06-17,一二三建設株式会社,,株式会社,兵庫県,神戸市垂水区,桃山台２丁目１６６４番地の４５ベルファミーユ桃山台３０７号,,28,108,6550854,,,,,,,2025-06-17,1,,,,,ヒフミケンセツ,0
1822,7140003022178,新規,0,2025-06-17,2025-06-17,合同会社ＬＢ,,合同会社,兵庫県,尼崎市,下坂部３丁目１１番１－５１２号,,28,202,6610975,,,,,,,2025-06-17,1,,,,,エルビー,0
1825,7160001026831,新規,0,2025-06-17,2025-06-17,株式会社ブンキョウヘリテージ,,株式会社,滋賀県,彦根市,佐和町６番１５号,,25,202,5220075,,,,,,,2025-06-17,1,,,,,ブンキョウヘリテージ,0
1827,7160003003515,新規,0,2025-06-17,2025-06-17,合同会社ひととせ,,合同会社,滋賀県,大津市,枝３丁目７番１１号,,25,201,5202275,,,,,,,2025-06-17,1,,,,,ヒトトセ,0
1835,7180003028592,新規,0,2025-06-17,2025-06-17,合同会社ＳＡＫＡＩ図研,,合同会社,愛知県,名古屋市中川区,中郷３丁目２６２番地１号中郷住宅東２－３０５,,23,110,4540921,,,,,,,2025-06-17,1,,,,,サカイズケン,0
1849,7240003007251,新規,0,2025-06-17,2025-06-17,Ｔｒｅｖｉａ合同会社,,合同会社,広島県,廿日市市,六本松１丁目１９－２５,,34,213,7380041,,,,,,,2025-06-17,1,,,,,トレビア,0
1851,7250005009014,新規,0,2025-06-17,2025-06-17,医療法人細江クリニック,,その他の設立登記法人,山口県,下関市,細江町３丁目２番１６号,,35,201,7500016,,,,,,,2025-06-17,1,,,,,ホソエクリニック,0
1854,7280002011647,新規,0,2025-06-17,2025-06-17,有限会社可部屋林産,,有限会社,島根県,仁多郡奥出雲町,上阿井１６５５番地,,32,343,6991621,,,,,,,2025-06-17,1,,,,,カベヤリンサン,0
1861,7290001110341,新規,0,2025-06-17,2025-06-17,株式会社ロジリンク,,株式会社,福岡県,福岡市博多区,千代２丁目８－６ルネス・ロワール東公園６０３号,,40,132,8120044,,,,,,,2025-06-17,1,,,,,ロジリンク,0
1862,7290001110399,新規,0,2025-06-17,2025-06-17,裕友天合株式会社,,株式会社,福岡県,福岡市東区,多の津４丁目５番１０－４０１室,,40,131,8130034,,,,,,,2025-06-17,1,,,,,ユウユウテンゴウ,0
1863,7290001110440,新規,0,2025-06-17,2025-06-17,株式会社Ｌｕｍｏ,,株式会社,福岡県,福岡市中央区,今川１丁目２３番４－２０１号,,40,133,8100054,,,,,,,2025-06-17,1,,,,,ルーモ,0
1865,7290003016999,新規,0,2025-06-17,2025-06-17,クリーンプラス柴藤合同会社,,合同会社,福岡県,福岡市西区,姪の浜５丁目１５番８号,,40,135,8190002,,,,,,,2025-06-17,1,,,,,クリーンプラスシバトウ,0
1867,7290005019777,新規,0,2025-06-17,2025-06-17,ＮＰＯ法人ＣＡＳＫ,,その他の設立登記法人,福岡県,福岡市博多区,上川端町９番３５号リノベーションミュージアム冷泉荘Ｂ４５,,40,132,8120026,,,,,,,2025-06-17,1,,,,,エヌピーオーホウジンキャスク,0
1870,7290805009837,新規,0,2025-06-17,2025-06-17,一般社団法人豊津霊園,,その他の設立登記法人,福岡県,京都郡みやこ町,節丸１３６１番地,,40,625,8240114,,,,,,,2025-06-17,1,,,,,トヨツレイエン,0
1871,7300005007251,新規,0,2025-06-17,2025-06-17,土地家屋調査士法人江副事務所,,その他の設立登記法人,佐賀県,佐賀市,八戸溝１丁目２番２０号,,41,201,8490935,,,,,,,2025-06-17,1,,,,,エゾエジムショ,0
1873,7310002021007,新規,0,2025-06-17,2025-06-17,有限会社江野建設工業,,有限会社,長崎県,長崎市,城山町２９番２５号,,42,201,8528021,,,,,,,2025-06-17,1,,,,,エノケンセツコウギョウ,0
1875,7350003004956,新規,0,2025-06-17,2025-06-17,合同会社ｅｎＢｌｏｏｍ,,合同会社,宮崎県,宮崎市,大字小松９８０番地１,,45,201,8802112,,,,,,,2025-06-17,1,,,,,エンブルーム,0
1883,7370001052716,新規,0,2025-06-17,2025-06-17,株式会社インパクト,,株式会社,宮城県,仙台市泉区,七北田字八乙女２１番地の１０１,,04,105,9813131,,,,,,,2025-06-17,1,,,,,インパクト,0
1901,7430003017768,新規,0,2025-06-17,2025-06-17,合同会社ミコアズ,,合同会社,北海道,札幌市中央区,南二条西１０丁目１０００－２クワガタビル３階,,01,101,0600062,,,,,,,2025-06-17,1,,,,,ミコアズ,0
1903,7460101007718,新規,0,2025-06-17,2025-06-17,株式会社Ｊ‐ＨＯＬＤＩＮＧＳ,,株式会社,北海道,中川郡幕別町,寿町１３４番地,,01,643,0890605,,,,,,,2025-06-17,1,,,,,ジェイホールディングス,0
1905,7700150131088,新規,0,2025-06-17,2025-06-17,ＲＡＳＨＭＩ　ＥＮＴＥＲＰＲＩＳＥＳ,,外国会社等,千葉県,四街道市,大日８３６番地ＤａｉｎｉｃｈｉＣｅｙｌｏｎＮｏ．７,,12,228,2840001,スリランカ民主社会主義共和国ヒングラコーダエアポートロード,,,,,,2025-06-17,1,,,,,ラシユミエンタープライズ,0
1914,8010001255551,新規,0,2025-06-17,2025-06-17,東京宏胤視界広告株式会社,,株式会社,東京都,千代田区,神田佐久間町３丁目２８番地星野ビル５１２号,,13,101,1010025,,,,,,,2025-06-17,1,,,,,トウキョウコウインシカイコウコク,0
1915,8010001255700,新規,0,2025-06-17,2025-06-17,ＴＩＧ株式会社,,株式会社,東京都,千代田区,神田須田町１丁目７番地８ＶＯＲＴ秋葉原ＩＶ２階,00139591,13,101,1010041,,,,,,,2025-06-17,1,,,,,ティグ,0
1917,8010003047641,新規,0,2025-06-17,2025-06-17,合同会社Ｒｅｇｕｌｕｓｓ,,合同会社,東京都,中央区,銀座１丁目１２番４号Ｎ＆ＥＢＬＤ．６Ｆ,,13,102,1040061,,,,,,,2025-06-17,1,,,,,レグルス,0
1918,8010003047682,新規,0,2025-06-17,2025-06-17,合同会社ＤａｙＯｎｅ　Ｄａｔａ　Ｃｅｎｔｅｒｓ　ＪａｐａｎＩＩＩ,,合同会社,東京都,千代田区,丸の内１丁目１１番１号パシフィックセンチュリープレイス丸の内１３階,,13,101,1000005,,,,,,,2025-06-17,1,,,,,デイワンデータセンタージャパンスリー,0
1919,8010003047699,新規,0,2025-06-17,2025-06-17,合同会社ＷＡＶＥ,,合同会社,東京都,文京区,湯島３丁目４６番６号,,13,105,1130034,,,,,,,2025-06-17,1,,,,,ウェーブ,0
1921,8010005040165,新規,0,2025-06-17,2025-06-17,一般社団法人ＡＩ　Ｂｅａｕｔｙ＆Ｈｅａｌｔｈ国際協会,,その他の設立登記法人,東京都,中央区,晴海１丁目８番１０号,,13,102,1040053,,,,,,,2025-06-17,1,,,,,エーアイビューティーアンドヘルスコクサイキョウカイ,0
1935,8010403035378,新規,0,2025-06-17,2025-06-17,ＳｅｅＤｏＮＡｔｉｏｎ　ＦＧＨＤ合同会社,,合同会社,東京都,港区,赤坂４丁目８番１９号,,13,103,1070052,,,,,,,2025-06-17,1,,,,,シードネイションフィナンシャルグループホールディングス,0
1953,8011001170047,新規,0,2025-06-17,2025-06-17,株式会社ホイクミ,,株式会社,東京都,渋谷区,道玄坂１丁目１０番８号渋谷道玄坂東急ビル２Ｆ－Ｃ,,13,113,1500043,,,,,,,2025-06-17,1,,,,,ホイクミ,0
1954,8011001170105,新規,0,2025-06-17,2025-06-17,株式会社マスタード,,株式会社,東京都,渋谷区,渋谷２丁目２－１７ＴｒａｎｃｅＷＯＲＫＳ青山ビル３Ｆ,,13,113,1500002,,,,,,,2025-06-17,1,,,,,マスタード,0
1955,8011001170121,新規,0,2025-06-17,2025-06-17,株式会社ＵＰＳＴＡＲ,,株式会社,東京都,渋谷区,円山町５番３号ＭＩＥＵＸ渋谷ビル８階,,13,113,1500044,,,,,,,2025-06-17,1,,,,,アップスター,0
1956,8011001170220,新規,0,2025-06-17,2025-06-17,株式会社ビヤクラフトジャパン,,株式会社,東京都,渋谷区,渋谷２丁目１９番１５号宮益坂ビルディング６階９号室,,13,113,1500002,,,,,,,2025-06-17,1,,,,,ビヤクラフトジャパン,0
1957,8011001170617,新規,0,2025-06-17,2025-06-17,株式会社Ｇ．Ｓ．,,株式会社,東京都,渋谷区,神宮前３丁目３３番１７号ガーデンテラス神宮前５０２,,13,113,1500001,,,,,,,2025-06-17,1,,,,,ジーエス,0
1960,8011003021784,新規,0,2025-06-17,2025-06-17,合同会社Ｏｕｃａ,,合同会社,東京都,渋谷区,恵比寿西２丁目４番８号ウィンド恵比寿ビル８Ｆ,,13,113,1500021,,,,,,,2025-06-17,1,,,,,オウカ,0
1963,8011101111883,新規,0,2025-06-17,2025-06-17,株式会社ＬｕｓｈＬｉｆｅ,,株式会社,東京都,新宿区,市谷本村町３番２１号,,13,104,1620845,,,,,,,2025-06-17,1,,,,,ラッシュライフ,0
1964,8011101112130,新規,0,2025-06-17,2025-06-17,株式会社Ｓｅｅｄ１,,株式会社,東京都,新宿区,矢来町４３番地ライオンズマンション矢来町４０１,,13,104,1620805,,,,,,,2025-06-17,1,,,,,シードワン,0
1979,8012403007191,新規,0,2025-06-17,2025-06-17,Ｏｒｇａｎｉｃ　Ｒｅｌａｔｉｏｎｓ合同会社,,合同会社,東京都,多摩市,鶴牧５丁目１０－１４,,13,224,2060034,,,,,,,2025-06-17,1,,,,,オーガニックリレーションズ,0
1981,8012703003295,新規,0,2025-06-17,2025-06-17,合同会社レッドストライプ,,合同会社,東京都,東村山市,廻田町４丁目１－７１－２０３,,13,213,1890025,,,,,,,2025-06-17,1,,,,,レッドストライプ,0
1983,8012801024037,新規,0,2025-06-17,2025-06-17,株式会社琉匠,,株式会社,東京都,武蔵村山市,残堀４丁目２８番地の１１,,13,223,2080034,,,,,,,2025-06-17,1,,,,,リュウショウ,0
1984,8012803003773,新規,0,2025-06-17,2025-06-17,合同会社トライステップ,,合同会社,東京都,武蔵村山市,榎３丁目１０１番地の４ガレージハウス榎１０５号,,13,223,2080022,,,,,,,2025-06-17,1,,,,,トライステップ,0
1985,8013101009711,新規,0,2025-06-17,2025-06-17,株式会社ＧＲＯＷ,,株式会社,東京都,あきる野市,瀬戸岡３１５－３,,13,228,1970803,,,,,,,2025-06-17,1,,,,,グロウ,0
1995,8020001162664,新規,0,2025-06-17,2025-06-17,株式会社プロフィットマネージメント,,株式会社,神奈川県,横浜市都筑区,東山田３丁目１７番７号,,14,118,2240023,,,,,,,2025-06-17,1,,,,,プロフィットマネージメント,0
1996,8020001163423,新規,0,2025-06-17,2025-06-17,ぼくのぴーす株式会社,,株式会社,神奈川県,横浜市中区,桜木町１丁目１０１番地１クロスゲート７階,,14,104,2310062,,,,,,,2025-06-17,1,,,,,ボクノピース,0
2003,8021001085541,新規,0,2025-06-17,2025-06-17,株式会社みやび,,株式会社,神奈川県,藤沢市,辻堂東海岸１丁目７番２５号,,14,205,2510045,,,,,,,2025-06-17,1,,,,,ミヤビ,0
2004,8021001085558,新規,0,2025-06-17,2025-06-17,よこすかホールディングス株式会社,,株式会社,神奈川県,逗子市,沼間５丁目１４番２５号,,14,208,2490004,,,,,,,2025-06-17,1,,,,,ヨコスカホールディングス,0
2006,8021003016115,新規,0,2025-06-17,2025-06-17,合同会社Ｓｕｒｐａｓｓ,,合同会社,神奈川県,小田原市,小八幡４丁目９－３０,,14,206,2560815,,,,,,,2025-06-17,1,,,,,サーパス,0
2007,8021003016164,新規,0,2025-06-17,2025-06-17,ＯＮＥ　ＷＡＹ　ＩＮＴＥＲＮＡＴＩＯＮＡＬ合同会社,,合同会社,神奈川県,藤沢市,宮原３１８９番１０１号,,14,205,2520826,,,,,,,2025-06-17,1,,,,,ワンウェイインターナショナル,0
2012,8030001167126,新規,0,2025-06-17,2025-06-17,株式会社アグライズ,,株式会社,埼玉県,川口市,大字里１０２１番地,,11,203,3340005,,,,,,,2025-06-17,1,,,,,アグライズ,0
2013,8030001167175,新規,0,2025-06-17,2025-06-17,株式会社ＡｃｕＬｉａ,,株式会社,埼玉県,上尾市,浅間台１丁目１６番地４－１０８号,,11,219,3620073,,,,,,,2025-06-17,1,,,,,アキュリア,0
2016,8030003027014,新規,0,2025-06-17,2025-06-17,合同会社Ｎｉｒｉ,,合同会社,埼玉県,吉川市,吉川団地２番２号３０３,,11,243,3420054,,,,,,,2025-06-17,1,,,,,ニリ,0
2024,8040001139280,新規,0,2025-06-17,2025-06-17,大興商事株式会社,,株式会社,千葉県,松戸市,西馬橋蔵元町５５番地,,12,207,2710046,,,,,,,2025-06-17,1,,,,,ダイコウショウジ,0
2025,8040001139306,新規,0,2025-06-17,2025-06-17,ＴＯＹｔｅｃ株式会社,,株式会社,千葉県,柏市,布施８３２番地１１,,12,217,2770825,,,,,,,2025-06-17,1,,,,,トイテック,0
2033,8050001056806,新規,0,2025-06-17,2025-06-17,株式会社リアライズ不動産,,株式会社,茨城県,取手市,藤代南３丁目１１番地２増山ビル１－Ａ,,08,217,3001516,,,,,,,2025-06-17,1,,,,,リアライズフドウサン,0
2041,8070002037811,新規,0,2025-06-17,2025-06-17,山口林業有限会社,,有限会社,群馬県,利根郡みなかみ町,藤原３７６５番地,,10,449,3791721,,,,,,,2025-06-17,1,,,,,,0
2046,8080103003348,新規,0,2025-06-17,2025-06-17,合同会社エスターテ,,合同会社,静岡県,伊東市,湯川６６２－１６５,,22,208,4140002,,,,,,,2025-06-17,1,,,,,エスターテ,0
2061,8120001276545,新規,0,2025-06-17,2025-06-17,関西綜合セキュリティ株式会社,,株式会社,大阪府,大阪市生野区,巽西２丁目１番３９号,,27,116,5440012,,,,,,,2025-06-17,1,,,,,カンサイソウゴウセキュリティ,0
2062,8120001276818,新規,0,2025-06-17,2025-06-17,安芯株式会社,,株式会社,大阪府,大阪市生野区,小路２丁目８－１６（１Ｆ）,,27,116,5440002,,,,,,,2025-06-17,1,,,,,アンシン,0
2063,8120001276867,新規,0,2025-06-17,2025-06-17,丸中本店株式会社,,株式会社,大阪府,寝屋川市,大字太秦９４９番地の１,,27,215,5720807,,,,,,,2025-06-17,1,,,,,マルナカホンテン,0
2064,8120001276909,新規,0,2025-06-17,2025-06-17,方円コンサルティング株式会社,,株式会社,大阪府,大阪市淀川区,新高４丁目３－１９号小林マンション３０１室,,27,123,5320033,,,,,,,2025-06-17,1,,,,,ホウエンコンサルティング,0
2074,8130003010546,新規,0,2025-06-17,2025-06-17,合同会社コアビジュアルプロダクション,,合同会社,京都府,京都市左京区,下鴨下川原町４６－５５,,26,103,6060803,,,,,,,2025-06-17,1,,,,,コアビジュアルプロダクション,0
2079,8140001138900,新規,0,2025-06-17,2025-06-17,株式会社Ｌｉｎｏ,,株式会社,兵庫県,芦屋市,大原町６番１５号,,28,206,6590092,,,,,,,2025-06-17,1,,,,,リノ,0
2088,8180001167292,新規,0,2025-06-17,2025-06-17,株式会社レフォルム,,株式会社,愛知県,名古屋市中村区,名駅５丁目４－１４花車ビル北館１Ｆ,,23,105,4500002,,,,,,,2025-06-17,1,,,,,,0
2089,8180001167301,新規,0,2025-06-17,2025-06-17,名和国際株式会社,,株式会社,愛知県,大府市,宮内町５丁目３０８－１０１,,23,223,4740047,,,,,,,2025-06-17,1,,,,,メイワコクサイ,0
2092,8180003028633,新規,0,2025-06-17,2025-06-17,合同会社ＡｉＴａｘ,,合同会社,愛知県,名古屋市天白区,植田山５丁目２２０７番地の２,,23,116,4680001,,,,,,,2025-06-17,1,,,,,エーアイタックス,0
2107,8240005015953,新規,0,2025-06-17,2025-06-17,一般社団法人ＮＵＫＵＩ　ＯＵＴＤＯＯＲ　ＦＩＥＬＤ,,その他の設立登記法人,広島県,山県郡安芸太田町,大字加計４６９２番６号,,34,368,7313501,,,,,,,2025-06-17,1,,,,,ヌクイアウトドアフィールド,0
2115,8290001110407,新規,0,2025-06-17,2025-06-17,株式会社インフィニティ,,株式会社,福岡県,福岡市中央区,大手門２丁目２番１１－７０５号,,40,133,8100074,,,,,,,2025-06-17,1,,,,,インフィニティ,0
2116,8290001110423,新規,0,2025-06-17,2025-06-17,株式会社グリーンループ,,株式会社,福岡県,福岡市東区,香住ヶ丘５丁目２１番１５号,,40,131,8130003,,,,,,,2025-06-17,1,,,,,グリーンループ,0
2118,8290003016998,新規,0,2025-06-17,2025-06-17,合同会社マイユウ,,合同会社,福岡県,福岡市東区,多の津４丁目４番１２号多の津ビル６０２号,,40,131,8130034,,,,,,,2025-06-17,1,,,,,マイユウ,0
2119,8290003017006,新規,0,2025-06-17,2025-06-17,合同会社シンマチデザイン,,合同会社,福岡県,福岡市博多区,博多駅前１丁目２３番２号ＰａｒｋＦｒｏｎｔ博多駅前一丁目５Ｆ－Ｂ,,40,132,8120011,,,,,,,2025-06-17,1,,,,,シンマチデザイン,0
2135,8360005007245,新規,0,2025-06-17,2025-06-17,富農事組合法人,,その他の設立登記法人,沖縄県,中頭郡読谷村,字大木７０番地１４,,47,324,9040316,,,,,,,2025-06-17,1,,,,,トミ,0
2138,8370003007147,新規,0,2025-06-17,2025-06-17,合同会社ウニクラフトカンパニー,,合同会社,宮城県,気仙沼市,高井４０,,04,205,9880613,,,,,,,2025-06-17,1,,,,,ウニクラフトカンパニー,0
2153,8430001094684,新規,0,2025-06-17,2025-06-17,豊八不動産開発株式会社,,株式会社,北海道,札幌市中央区,南十二条西１５丁目４番１２号,,01,101,0640912,,,,,,,2025-06-17,1,,,,,トヨハチフドウサンカイハツ,0
2166,8700150131087,新規,0,2025-06-17,2025-06-17,Ｏｎｙｘ　Ｉｎｔｅｒｎａｔｉｏｎａｌ　Ｉｎｃ．,,外国会社等,,,,,,,,ＬｉＷａｎＱｕＨｅＪｉｎｇＮａｎＬｕ２１ＨａｏＺｉＢｉａｎ２ＤｏｎｇＣ１０３　ＧｕａｎｇＺｈｏｕ　ＧｕａｎｇＤｏｎｇ　５１５０００　ＣＮ,,,,,,2025-06-17,1,,,,,オニキスインターナショナル,0
2174,9010001255939,新規,0,2025-06-17,2025-06-17,株式会社Ｐｉｃｕｌｅｔｔｅ,,株式会社,東京都,中央区,銀座７丁目１３番２０号銀座ＴＨビル９階,,13,102,1040061,,,,,,,2025-06-17,1,,,,,ピキュレット,0
2181,9010003047698,新規,0,2025-06-17,2025-06-17,合同会社澤本研究所,,合同会社,東京都,文京区,小石川５丁目１１番１号,,13,105,1120002,,,,,,,2025-06-17,1,,,,,サワモトケンキュウジョ,0
2195,9010401191057,新規,0,2025-06-17,2025-06-17,株式会社４０ＳＴＡＲＴ．,,株式会社,東京都,港区,高輪１丁目４番６－８０３号,,13,103,1080074,,,,,,,2025-06-17,1,,,,,フォーティスタートドット,0
2196,9010401191065,新規,0,2025-06-17,2025-06-17,フクシン株式会社,,株式会社,東京都,港区,南青山４丁目１７番３１－１０１号,,13,103,1070062,,,,,,,2025-06-17,1,,,,,フクシン,0
2197,9010403035377,新規,0,2025-06-17,2025-06-17,合同会社ダリバコ,,合同会社,東京都,港区,北青山１丁目３－３三橋ビル３階,,13,103,1070061,,,,,,,2025-06-17,1,,,,,ダリバコ,0
2203,9010603011624,新規,0,2025-06-17,2025-06-17,合同会社ＢｅａｎＷｏｒｋｓ,,合同会社,東京都,江東区,東砂１丁目３番３４号,,13,108,1360074,,,,,,,2025-06-17,1,,,,,ビーンワークス,0
2209,9010901057575,新規,0,2025-06-17,2025-06-17,株式会社キャリア支援,,株式会社,東京都,世田谷区,若林１丁目４１番６号,,13,112,1540023,,,,,,,2025-06-17,1,,,,,キャリアシエン,0
2216,9011001170021,新規,0,2025-06-17,2025-06-17,株式会社花蓮,,株式会社,東京都,渋谷区,猿楽町９－５－９１１,,13,113,1500033,,,,,,,2025-06-17,1,,,,,カレン,0
2217,9011001170054,新規,0,2025-06-17,2025-06-17,株式会社きれいごと,,株式会社,東京都,渋谷区,道玄坂１丁目１０番８号渋谷道玄坂東急ビル２Ｆ－Ｃ,,13,113,1500043,,,,,,,2025-06-17,1,,,,,キレイゴト,0
2218,9011001170104,新規,0,2025-06-17,2025-06-17,ＨｕｂＡｃｔ株式会社,,株式会社,東京都,渋谷区,代官山町２番５号コレタス代官山,,13,113,1500034,,,,,,,2025-06-17,1,,,,,ハブアクト,0
2219,9011001170277,新規,0,2025-06-17,2025-06-17,株式会社Ｌａｕｇｈ　Ｔａｌｅ,,株式会社,東京都,渋谷区,道玄坂１丁目１０番８号２Ｆ－Ｃ,,13,113,1500043,,,,,,,2025-06-17,1,,,,,ラフテール,0
2220,9011003021742,新規,0,2025-06-17,2025-06-17,合同会社ＳＡＫＵＰＡＮ,,合同会社,東京都,目黒区,中町１丁目４０番８号メゾン岡村１Ｆ,,13,110,1530065,,,,,,,2025-06-17,1,,,,,サクパン,0
2221,9011003021750,新規,0,2025-06-17,2025-06-17,合同会社ＩＦＦ,,合同会社,東京都,渋谷区,恵比寿西２丁目４番８号ウィンド恵比寿ビル８Ｆ,,13,113,1500021,,,,,,,2025-06-17,1,,,,,イフ,0
2222,9011003021775,新規,0,2025-06-17,2025-06-17,合同会社スマイルリンク,,合同会社,東京都,目黒区,目黒１丁目５番１９－４０３,,13,110,1530063,,,,,,,2025-06-17,1,,,,,スマイルリンク,0
2223,9011003021800,新規,0,2025-06-17,2025-06-17,合同会社Ｈｏｔ　ｎｏｒｔｈ　ｓｉｄｅ,,合同会社,東京都,渋谷区,神宮前６丁目２３番４号桑野ビル２階,,13,113,1500001,,,,,,,2025-06-17,1,,,,,ホットノースサイド,0
2224,9011005011072,新規,0,2025-06-17,2025-06-17,一般社団法人ＰｌａｙＧｒｏｕｎｄ,,その他の設立登記法人,東京都,渋谷区,円山町５番３号ＭＩＥＵＸ渋谷ビル８階,,13,113,1500044,,,,,,,2025-06-17,1,,,,,プレイグラウンド,0
2225,9011101112047,新規,0,2025-06-17,2025-06-17,株式会社Ｃ．Ｎ,,株式会社,東京都,新宿区,戸山３丁目１番１－５０８号,,13,104,1620052,,,,,,,2025-06-17,1,,,,,シーエヌ,0
2226,9011101112055,新規,0,2025-06-17,2025-06-17,株式会社ＭＩＫＡＳＡ　ｆｉｌｍｓ,,株式会社,東京都,新宿区,西新宿３丁目３番１３号西新宿水間ビル６階,,13,104,1600023,,,,,,,2025-06-17,1,,,,,ミカサフィルムズ,0
2228,9011103016007,新規,0,2025-06-17,2025-06-17,合同会社フィルムギルド,,合同会社,東京都,新宿区,早稲田鶴巻町５６４旭マンション３０２,,13,104,1620041,,,,,,,2025-06-17,1,,,,,フィルムギルド,0
2235,9011401027168,新規,0,2025-06-17,2025-06-17,ＦａｂＬｉｎｘ　Ｓｏｌｕｔｉｏｎｓ株式会社,,株式会社,東京都,板橋区,板橋１丁目５３番７号ＡＶＯＲＩＯｉｔａｂａｓｈｉ６０６,,13,119,1730004,,,,,,,2025-06-17,1,,,,,ファブリンクスソリューションズ,0
2237,9011503006581,新規,0,2025-06-17,2025-06-17,ＴＯＰ合同会社,,合同会社,東京都,北区,中里１丁目３－３アオヤマビル３Ｆ,,13,117,1140015,,,,,,,2025-06-17,1,,,,,トップ,0
2239,9011702007034,新規,0,2025-06-17,2025-06-17,有限会社竹内商店,,有限会社,東京都,江戸川区,東小松川２丁目２６番１２号,,13,123,1320033,,,,,,,2025-06-17,1,,,,,タケウチショウテン,0
2240,9011705001901,新規,0,2025-06-17,2025-06-17,ＮＰＯ法人しろひげ・たゆらかファンド,,その他の設立登記法人,東京都,江戸川区,南篠崎町２丁目１１番２号ニューサザンクロス１階店舗Ｃ,,13,123,1330065,,,,,,,2025-06-17,1,,,,,シロヒゲタユラカファンド,0
2242,9012401043246,新規,0,2025-06-17,2025-06-17,株式会社ｏｆｆ,,株式会社,東京都,狛江市,中和泉５丁目９番１９号,,13,219,2010012,,,,,,,2025-06-17,1,,,,,オフ,0
2243,9012403007190,新規,0,2025-06-17,2025-06-17,合同会社ＦＩＴ,,合同会社,東京都,稲城市,長峰３丁目８番地３－２０５,,13,225,2060821,,,,,,,2025-06-17,1,,,,,フィット,0
2251,9013301054449,新規,0,2025-06-17,2025-06-17,株式会社ＲＬ医療サポート,,株式会社,東京都,豊島区,南大塚１丁目５１番９－５０５号,,13,116,1700005,,,,,,,2025-06-17,1,,,,,アールエルイリョウサポート,0
2258,9020001163372,新規,0,2025-06-17,2025-06-17,株式会社ＨＣＣ,,株式会社,神奈川県,横浜市鶴見区,鶴見中央４丁目１９－９,,14,101,2300051,,,,,,,2025-06-17,1,,,,,,0
2259,9020001163430,新規,0,2025-06-17,2025-06-17,Ｔ．Ｇ．Ｆ株式会社,,株式会社,神奈川県,横浜市磯子区,中原２丁目８番５－１０３号,,14,107,2350036,,,,,,,2025-06-17,1,,,,,ティージーエフ,0
2267,9020003028706,新規,0,2025-06-17,2025-06-17,ＤＩＡＭＯＮＤ合同会社,,合同会社,神奈川県,川崎市川崎区,宮前町１１番１０－１０３号コーポＨＡＮＡＷＡ,,14,131,2100012,,,,,,,2025-06-17,1,,,,,ダイヤモンド,0
2268,9020003028730,新規,0,2025-06-17,2025-06-17,合同会社Ｒｅｌａｖｉｅ,,合同会社,神奈川県,川崎市多摩区,菅２丁目１６番８号アイランドメゾン１０４,,14,135,2140001,,,,,,,2025-06-17,1,,,,,リラヴィ,0
2275,9021001085557,新規,0,2025-06-17,2025-06-17,株式会社浜口海運,,株式会社,神奈川県,横須賀市,久里浜７丁目２番１－９０５号,,14,201,2390831,,,,,,,2025-06-17,1,,,,,ハマグチカイウン,0
2276,9021003015900,新規,0,2025-06-17,2025-06-17,合同会社ＨＩＨＩＫＯ,,合同会社,神奈川県,大和市,つきみ野７丁目８－１０,,14,213,2420002,,,,,,,2025-06-17,1,,,,,ヒヒコ,0
2277,9021003016114,新規,0,2025-06-17,2025-06-17,七七七合同会社,,合同会社,神奈川県,南足柄市,関本５２５番地,,14,217,2500105,,,,,,,2025-06-17,1,,,,,ナナナナナナ,0
2281,9030001167075,新規,0,2025-06-17,2025-06-17,株式会社ソリューションデザイングループ,,株式会社,埼玉県,草加市,旭町６丁目８－２－２,,11,221,3400053,,,,,,,2025-06-17,1,,,,,ソリューションデザイングループ,0
2282,9030001167083,新規,0,2025-06-17,2025-06-17,株式会社ＳＡＫＵＲＡ　ＭＵＬＴＩＰＵＲＰＯＳＥ,,株式会社,埼玉県,蕨市,錦町６丁目１５－１６ＳＨＡＲＯＮ－ＲＯＳＥ２０１号室,,11,223,3350005,,,,,,,2025-06-17,1,,,,,サクラマルチパーパス,0
2290,9030003027005,新規,0,2025-06-17,2025-06-17,ココス合同会社,,合同会社,埼玉県,さいたま市浦和区,北浦和５丁目１５番３９－５０２号,,11,107,3300074,,,,,,,2025-06-17,1,,,,,ココス,0
2292,9030005022193,新規,0,2025-06-17,2025-06-17,一般社団法人ラスター交流促進機構,,その他の設立登記法人,埼玉県,ふじみ野市,鶴ケ岡３丁目３番３１号,,11,245,3560045,,,,,,,2025-06-17,1,,,,,ラスターコウリュウソクシンキコウ,0
2294,9040001139271,新規,0,2025-06-17,2025-06-17,株式会社三洋商事,,株式会社,千葉県,君津市,陽光台３丁目５番８号,,12,225,2991166,,,,,,,2025-06-17,1,,,,,サンヨウショウジ,0
2299,9040003027805,新規,0,2025-06-17,2025-06-17,也鉄合同会社,,合同会社,千葉県,松戸市,上本郷中井町２－９－１アンベリール３０３号,,12,207,2710064,,,,,,,2025-06-17,1,,,,,ナリテツ,0
2300,9040003027813,新規,0,2025-06-17,2025-06-17,ＭＤクラフト合同会社,,合同会社,千葉県,松戸市,小金原１丁目１７番地の２１,,12,207,2700021,,,,,,,2025-06-17,1,,,,,エムディクラフト,0
2305,9060001038307,新規,0,2025-06-17,2025-06-17,叶物流株式会社,,株式会社,栃木県,宇都宮市,簗瀬３丁目７番７号,,09,201,3210934,,,,,,,2025-06-17,1,,,,,カナウブツリュウ,0
2314,9090001019329,新規,0,2025-06-17,2025-06-17,株式会社エムテクノ・コーポレィション,,株式会社,山梨県,笛吹市,御坂町成田２０４０番地３,,19,211,4060801,,,,,,,2025-06-17,1,,,,,エムテクノコーポレィション,0
2322,9120001044942,新規,0,2025-06-17,2025-06-17,株式会社大晴,,株式会社,大阪府,大阪市西区,立売堀４丁目３番１６号,,27,106,5500012,,,,,,,2025-06-17,1,,,,,ダイセイ,0
2328,9120001276866,新規,0,2025-06-17,2025-06-17,永勝株式会社,,株式会社,大阪府,大阪市西成区,萩之茶屋１丁目７－１１－１Ｆ,,27,122,5570004,,,,,,,2025-06-17,1,,,,,ナガカツ,0
2331,9120003029768,新規,0,2025-06-17,2025-06-17,合同会社ＰＥＷＢＩＮＱ０霙,,合同会社,大阪府,大阪市北区,梅田１丁目２番２号大阪駅前第２ビル１２－１２,,27,127,5300001,,,,,,,2025-06-17,1,,,,,ピービンクラブミゾレ,0
2337,9122003003232,新規,0,2025-06-17,2025-06-17,祥森合同会社,,合同会社,大阪府,東大阪市,上四条町３番６号（２Ｆ）,,27,227,5798052,,,,,,,2025-06-17,1,,,,,ショウシン,0
2340,9130001079913,新規,0,2025-06-17,2025-06-17,京栄ヘルシー株式会社,,株式会社,京都府,京都市東山区,三条通大橋東二町目５１－４０５号,,26,105,6050001,,,,,,,2025-06-17,1,,,,,キョウエイヘルシー,0
2350,9150001028199,新規,0,2025-06-17,2025-06-17,株式会社りぼんと薔薇,,株式会社,奈良県,桜井市,大字粟殿１０１７－５,,29,206,6330062,,,,,,,2025-06-17,1,,,,,リボントバラ,0
2352,9160003003513,新規,0,2025-06-17,2025-06-17,合同会社ＶＥＬＬ,,合同会社,滋賀県,栗東市,下戸山１１３４－４ハートフル下戸山３０１,,25,208,5203011,,,,,,,2025-06-17,1,,,,,ベル,0
2358,9180001167291,新規,0,2025-06-17,2025-06-17,株式会社オルソプラン,,株式会社,愛知県,名古屋市中村区,名駅５丁目３３番２１号,,23,105,4500002,,,,,,,2025-06-17,1,,,,,オルソプラン,0
2359,9180001167317,新規,0,2025-06-17,2025-06-17,Ｓｋｙ　Ｅｘｐｒｅｓｓ株式会社,,株式会社,愛知県,名古屋市南区,観音町９丁目１２５番地（プリミエール観音町４０３号）,,23,112,4570845,,,,,,,2025-06-17,1,,,,,スカイエクスプレス,0
2363,9180303006619,新規,0,2025-06-17,2025-06-17,合同会社ＨＲ,,合同会社,愛知県,安城市,高木町上屋敷３８番地,,23,212,4460015,,,,,,,2025-06-17,1,,,,,エイチアール,0
2364,9190001032313,新規,0,2025-06-17,2025-06-17,山再生グループ株式会社,,株式会社,三重県,桑名市,多度町御衣野２７０番地,,24,205,5110118,,,,,,,2025-06-17,1,,,,,ヤマサイセイグループ,0
2368,9220001026740,新規,0,2025-06-17,2025-06-17,ｗｏｏｄｙ　ｈｉｌｌ’ｓ株式会社,,株式会社,石川県,輪島市,鳳至町鳳至丁１０６番地の２,,17,204,9280074,,,,,,,2025-06-17,1,,,,,ウッディヒルズ,0
2382,9260003005219,新規,0,2025-06-17,2025-06-17,合同会社エース,,合同会社,岡山県,倉敷市,中島１４６３－１,,33,202,7100803,,,,,,,2025-06-17,1,,,,,エース,0
2383,9280003001959,新規,0,2025-06-17,2025-06-17,合同会社てとてファーム,,合同会社,島根県,松江市,外中原町２３番地１,,32,201,6900875,,,,,,,2025-06-17,1,,,,,テトテファーム,0
2384,9290001110414,新規,0,2025-06-17,2025-06-17,株式会社福岡デバイス,,株式会社,福岡県,福岡市城南区,友丘５丁目６番１３号,,40,136,8140112,,,,,,,2025-06-17,1,,,,,フクオカデバイス,0
2385,9290003016989,新規,0,2025-06-17,2025-06-17,合同会社ｋｉｋｋｏ,,合同会社,福岡県,福岡市南区,筑紫丘２丁目５番１０－８０３号,,40,134,8150036,,,,,,,2025-06-17,1,,,,,キッコ,0
2386,9290003017005,新規,0,2025-06-17,2025-06-17,合同会社太宰府プロジェクト１,,合同会社,福岡県,福岡市南区,平和２丁目２４番２７号,,40,134,8150071,,,,,,,2025-06-17,1,,,,,ダザイフプロジェクトワン,0
2390,9290801031636,新規,0,2025-06-17,2025-06-17,株式会社ＡＬＰＨＡ,,株式会社,福岡県,北九州市小倉北区,馬借２丁目７番３０－１０１号,,40,106,8020077,,,,,,,2025-06-17,1,,,,,アルファ,0
2391,9300001014225,新規,0,2025-06-17,2025-06-17,株式会社やまき,,株式会社,佐賀県,嬉野市,嬉野町大字下野甲２２５５番地,,41,209,8430302,,,,,,,2025-06-17,1,,,,,ヤマキ,0
2394,9300003002302,新規,0,2025-06-17,2025-06-17,合同会社ピノコーダ,,合同会社,佐賀県,佐賀市,大和町大字東山田２９２３番地１,,41,201,8400211,,,,,,,2025-06-17,1,,,,,ピノコーダ,0
2396,9310001019644,新規,0,2025-06-17,2025-06-17,エイアイグループ株式会社,,株式会社,長崎県,佐世保市,有福町４１８０－３,,42,202,8593241,,,,,,,2025-06-17,1,,,,,エイアイグループ,0
2400,9330003011060,新規,0,2025-06-17,2025-06-17,合同会社千蘭,,合同会社,熊本県,宇城市,三角町三角浦１１６０－１００,,43,213,8693207,,,,,,,2025-06-17,1,,,,,チラン,0
2405,9370001052706,新規,0,2025-06-17,2025-06-17,株式会社２ＧＥＯＮＥＴ,,株式会社,宮城県,仙台市青葉区,中央２丁目１１－１９仙南ビル４階－Ａ,,04,101,9800021,,,,,,,2025-06-17,1,,,,,ツージオネット,0
2412,9430001094667,新規,0,2025-06-17,2025-06-17,株式会社アルファディア,,株式会社,北海道,札幌市豊平区,豊平四条５丁目１－６,,01,105,0620904,,,,,,,2025-06-17,1,,,,,アルファディア,0
2429,9700150131086,新規,0,2025-06-17,2025-06-17,ＡＹＡＡ　Ｋ　ＡＵＴＯ　ＴＲＡＤＥＲＳ　ＰＶＴ　ＬＴＤ,,外国会社等,千葉県,八街市,山田台１７７番地３,,12,230,2891124,スリランカ民主社会主義共和国、キャンディ、アクラナ、メルチェネ、Ｎｏ．８９３,,,,,,2025-06-17,1,,,,,アヤアケーオートトレーダーズプライベートリミテツド,0
2430,9700150131094,新規,0,2025-06-17,2025-06-17,Ｄｏｎｇｇｕａｎ　Ｌｉｅｓｈｅｎｇ　Ｅｌｅｃｔｒｏｎｉｃ　Ｃｏ．，Ｌｔｄ,,外国会社等,,,,,,,,Ｒｏｏｍ　１００７３，Ｎｏ．１５６　Ｈｕｍｅｎ　Ａｖｅｎｕｅ，Ｈｕｍｅｎ　Ｔｏｗｎ，Ｄｏｎｇｇｕａｎ　Ｃｉｔｙ，Ｇｕａｎｇｄｏｎｇ　Ｐｒｏｖｉｎｃｅ，Ｃｈｉｎａ,,,,,,2025-06-17,1,,,,,ドンガンリエションエレクトロニックカンパニーリミテッド,0
