sequenceNumber,corporateNumber,process,correct,updateDate,changeDate,name,nameImageId,kind,prefectureName,cityName,streetNumber,addressImageId,prefectureCode,cityCode,postCode,addressOutside,addressOutsideImageId,closeDate,closeCause,successorCorporateNumber,changeCause,assignmentDate,latest,enName,enPrefectureName,enCityName,enAddressOutside,furigana,hihyoji
2,1010001088801,登記記録の閉鎖等,0,2023-01-30,2023-01-05,株式会社ヒューマンソフト,,株式会社,東京都,港区,西新橋１丁目２２番１０号,,13,103,1050003,,,2023-01-05,合併による解散等,6010401035266,令和５年１月１日東京都港区西新橋二丁目３番１号株式会社アクシス（6010401035266）に合併し解散,2015-10-05,1,,,,,ヒューマンソフト,0
35,1010901013619,登記記録の閉鎖等,0,2023-01-30,2023-01-27,株式会社サン・アドバルーン社,,株式会社,東京都,世田谷区,太子堂５丁目５番４号,,13,112,1540004,,,2023-01-27,登記官による閉鎖,,,2015-10-05,1,,,,,,0
36,1010901016919,登記記録の閉鎖等,0,2023-01-30,2023-01-24,株式会社リソー,,株式会社,東京都,世田谷区,野沢１丁目３５番１３－８１１号,,13,112,1540003,,,2023-01-24,清算の結了等,,,2015-10-05,1,,,,,リソー,0
37,1010901026026,登記記録の閉鎖等,0,2023-01-30,2023-01-27,株式会社タケナツ,,株式会社,東京都,世田谷区,弦巻４丁目２番２４号,,13,112,1540016,,,2023-01-27,登記官による閉鎖,,,2015-10-05,1,,,,,,0
38,1010902006720,登記記録の閉鎖等,0,2023-01-30,2023-01-27,有限会社ザック,,有限会社,東京都,世田谷区,砧７丁目５番２７号,,13,112,1570073,,,2023-01-27,登記官による閉鎖,,,2015-10-05,1,,,,,,0
39,1010902007090,登記記録の閉鎖等,0,2023-01-30,2023-01-27,有限会社新栄石装,,有限会社,東京都,世田谷区,梅丘１丁目２５番１０－２０２号,,13,112,1540022,,,2023-01-27,登記官による閉鎖,,,2015-10-05,1,,,,,,0
40,1010902009624,登記記録の閉鎖等,0,2023-01-30,2023-01-27,有限会社丹羽工業,,有限会社,東京都,世田谷区,下馬１丁目２６番７号,,13,112,1540002,,,2023-01-27,登記官による閉鎖,,,2015-10-05,1,,,,,,0
41,1010902015556,登記記録の閉鎖等,0,2023-01-30,2023-01-27,有限会社ヤマキ商店,,有限会社,東京都,世田谷区,桜１丁目５０番１５号,,13,112,1560053,,,2023-01-27,登記官による閉鎖,,,2015-10-05,1,,,,,,0
42,1010902022057,登記記録の閉鎖等,0,2023-01-30,2023-01-27,有限会社鹿商,,有限会社,東京都,世田谷区,鎌田２丁目２４番１７号,,13,112,1570077,,,2023-01-27,登記官による閉鎖,,,2015-10-05,1,,,,,,0
43,1010902023609,登記記録の閉鎖等,0,2023-01-30,2023-01-27,有限会社アジト,,有限会社,東京都,世田谷区,三宿２丁目３４番４号,,13,112,1540005,,,2023-01-27,登記官による閉鎖,,,2015-10-05,1,,,,,,0
52,1011101088897,登記記録の閉鎖等,0,2023-01-30,2023-01-25,株式会社ＧＧＡ,,株式会社,東京都,新宿区,歌舞伎町１丁目２番１５号,,13,104,1600021,,,2023-01-25,合併による解散等,4011201020897,令和４年１２月２８日東京都立川市高松町二丁目１１番１７号株式会社Ｄ．Ａ．Ｉ（4011201020897）に合併し解散,2019-09-05,1,,,,,ジージーエー,0
55,1011301022433,登記記録の閉鎖等,0,2023-01-30,2023-01-26,株式会社ＲＨＩＮＯ　ＰＲＯＤＵＣＴＩＯＮ,,株式会社,東京都,品川区,西五反田５丁目１番３号ヘリオスビル４Ｆ,,13,109,1410031,,,2023-01-26,清算の結了等,,,2016-08-01,1,,,,,ライノプロダクション,0
67,1013301000063,登記記録の閉鎖等,0,2023-01-30,2023-01-30,株式会社アイ・コーポレーション,,株式会社,東京都,豊島区,西池袋２丁目３９番９号,,13,116,1710021,,,2023-01-30,登記官による閉鎖,,,2015-10-05,1,,,,,,0
68,1013301010178,登記記録の閉鎖等,0,2023-01-30,2023-01-30,ハマロクリーン株式会社,,株式会社,東京都,豊島区,東池袋４丁目３０番９号,,13,116,1700013,,,2023-01-30,登記官による閉鎖,,,2017-06-27,1,,,,,,0
69,1013301013445,登記記録の閉鎖等,0,2023-01-30,2023-01-30,株式会社平林,,株式会社,東京都,豊島区,長崎１丁目２７番６号,,13,116,1710051,,,2023-01-30,登記官による閉鎖,,,2015-10-05,1,,,,,,0
70,1013301026546,登記記録の閉鎖等,0,2023-01-30,2023-01-30,世恩商貿株式会社,,株式会社,東京都,豊島区,西池袋１丁目２９番１４号オリエント３０６号,,13,116,1710021,,,2023-01-30,登記官による閉鎖,,,2015-10-05,1,,,,,,0
71,1013301032305,登記記録の閉鎖等,0,2023-01-30,2023-01-30,株式会社創健食品,,株式会社,東京都,豊島区,池袋４丁目３４番５－４Ｆ,,13,116,1710014,,,2023-01-30,登記官による閉鎖,,,2015-10-05,1,,,,,,0
72,1013302021612,登記記録の閉鎖等,0,2023-01-30,2023-01-30,有限会社システムアナライズ,,有限会社,東京都,豊島区,池袋本町２丁目２０番２号,,13,116,1700011,,,2023-01-30,登記官による閉鎖,,,2015-10-05,1,,,,,,0
73,1013305001611,登記記録の閉鎖等,0,2023-01-30,2023-01-30,特定非営利活動法人メンタルヘルス普及協会,,その他の設立登記法人,東京都,豊島区,長崎１丁目２８番２４－４０１号,,13,116,1710051,,,2023-01-30,登記官による閉鎖,,,2015-10-05,1,,,,,,0
74,1020001013444,登記記録の閉鎖等,0,2023-01-30,2023-01-25,株式会社中島印刷所,,株式会社,神奈川県,横浜市南区,二葉町４丁目３９番地,,14,105,2320026,,,2023-01-25,清算の結了等,,,2015-10-05,1,,,,,ナカジマインサツショ,0
84,1021001000556,登記記録の閉鎖等,0,2023-01-30,2023-01-25,株式会社共栄商会,,株式会社,神奈川県,藤沢市,鵠沼桜が岡２丁目４番８号,,14,205,2510027,,,2023-01-25,登記官による閉鎖,,,2015-10-05,1,,,,,,0
90,1021001022947,登記記録の閉鎖等,0,2023-01-30,2023-01-25,株式会社元気,,株式会社,神奈川県,秦野市,南矢名１丁目５番１３号,,14,211,2570003,,,2023-01-25,登記官による閉鎖,,,2015-10-05,1,,,,,,0
91,1021001031808,登記記録の閉鎖等,0,2023-01-30,2023-01-25,株式会社ヒカリ塗装工業,,株式会社,神奈川県,大和市,大和南１丁目６番１３－１００２号,,14,213,2420016,,,2023-01-25,登記官による閉鎖,,,2015-10-05,1,,,,,,0
92,1021001035354,登記記録の閉鎖等,0,2023-01-30,2023-01-25,株式会社エルヴィス,,株式会社,神奈川県,小田原市,本町２丁目１１番４号,,14,206,2500012,,,2023-01-25,登記官による閉鎖,,,2015-10-05,1,,,,,,0
93,1021001039594,登記記録の閉鎖等,0,2023-01-30,2023-01-25,ＢｅａｕｔｙＢｌｅｓｓ株式会社,,株式会社,神奈川県,茅ヶ崎市,浜之郷７９６番地３３,,14,207,2530086,,,2023-01-25,登記官による閉鎖,,,2015-10-05,1,,,,,,0
94,1021001041682,登記記録の閉鎖等,0,2023-01-30,2023-01-25,株式会社エイケン,,株式会社,神奈川県,三浦郡葉山町,上山口１９７２番地,,14,301,2400115,,,2023-01-25,登記官による閉鎖,,,2015-10-05,1,,,,,,0
95,1021001045007,登記記録の閉鎖等,0,2023-01-30,2023-01-25,株式会社リンド,,株式会社,神奈川県,三浦市,三崎町小網代２２５４番地,,14,210,2380225,,,2023-01-25,登記官による閉鎖,,,2015-10-05,1,,,,,,0
97,1021002001223,登記記録の閉鎖等,0,2023-01-30,2023-01-25,有限会社花壇,,有限会社,神奈川県,藤沢市,大庭５４５０番地の２,,14,205,2510861,,,2023-01-25,登記官による閉鎖,,,2015-10-05,1,,,,,,0
98,1021002002790,登記記録の閉鎖等,0,2023-01-30,2023-01-25,有限会社スギデン,,有限会社,神奈川県,藤沢市,長後２００３番地の３,,14,205,2520801,,,2023-01-25,登記官による閉鎖,,,2015-10-05,1,,,,,,0
99,1021002003847,登記記録の閉鎖等,0,2023-01-30,2023-01-25,有限会社ノーブル美容室,,有限会社,神奈川県,藤沢市,長後７４６番地,,14,205,2520801,,,2023-01-25,登記官による閉鎖,,,2015-10-05,1,,,,,,0
101,1021002009885,登記記録の閉鎖等,0,2023-01-30,2023-01-25,有限会社まつば,,有限会社,神奈川県,高座郡寒川町,小谷２丁目３番５号,,14,321,2530103,,,2023-01-25,登記官による閉鎖,,,2015-10-05,1,,,,,,0
102,1021002010678,登記記録の閉鎖等,0,2023-01-30,2023-01-25,有限会社楠本工務店,,有限会社,神奈川県,茅ヶ崎市,松林１丁目１６番５４号,,14,207,2530017,,,2023-01-25,登記官による閉鎖,,,2015-10-05,1,,,,,,0
103,1021002023093,登記記録の閉鎖等,0,2023-01-30,2023-01-25,有限会社仁志テント商会,,有限会社,神奈川県,相模原市中央区,清新８丁目８番２５号,,14,152,2520216,,,2023-01-25,登記官による閉鎖,,,2015-10-05,1,,,,,,0
104,1021002028217,登記記録の閉鎖等,0,2023-01-30,2023-01-25,有限会社プロダクトシステム,,有限会社,神奈川県,相模原市中央区,すすきの町３０番１号,,14,152,2520213,,,2023-01-25,登記官による閉鎖,,,2015-10-05,1,,,,,,0
105,1021002029297,登記記録の閉鎖等,0,2023-01-30,2023-01-25,有限会社渡邉電機通信工業,,有限会社,神奈川県,相模原市緑区,太井１３０－９,,14,151,2520152,,,2023-01-25,登記官による閉鎖,,,2015-10-05,1,,,,,,0
106,1021002037688,登記記録の閉鎖等,0,2023-01-30,2023-01-25,有限会社上島設計事務所,,有限会社,神奈川県,秦野市,南矢名５丁目１番２０号,,14,211,2570003,,,2023-01-25,登記官による閉鎖,,,2015-10-05,1,,,,,,0
107,1021002040394,登記記録の閉鎖等,0,2023-01-30,2023-01-25,有限会社オカモト,,有限会社,神奈川県,大和市,深見西６丁目４番３８号,,14,213,2420018,,,2023-01-25,登記官による閉鎖,,,2015-10-05,1,,,,,,0
108,1021002045823,登記記録の閉鎖等,0,2023-01-30,2023-01-25,有限会社和幸,,有限会社,神奈川県,海老名市,上今泉６丁目２６番４３号,,14,215,2430431,,,2023-01-25,登記官による閉鎖,,,2016-12-26,1,,,,,,0
109,1021002048215,登記記録の閉鎖等,0,2023-01-30,2023-01-25,有限会社すみれ商事,,有限会社,神奈川県,大和市,深見台１丁目１番６号,,14,213,2420013,,,2023-01-25,登記官による閉鎖,,,2015-10-05,1,,,,,,0
110,1021002054428,登記記録の閉鎖等,0,2023-01-30,2023-01-25,有限会社酒匂保険事務所,,有限会社,神奈川県,小田原市,酒匂５丁目１２番３２号,,14,206,2560816,,,2023-01-25,登記官による閉鎖,,,2015-10-05,1,,,,,,0
111,1021002054832,登記記録の閉鎖等,0,2023-01-30,2023-01-25,有限会社杉山商会,,有限会社,神奈川県,南足柄市,向田３５５番地,,14,217,2500104,,,2023-01-25,登記官による閉鎖,,,2015-10-05,1,,,,,,0
112,1021002055203,登記記録の閉鎖等,0,2023-01-30,2023-01-25,有限会社渋谷商事,,有限会社,神奈川県,足柄上郡松田町,松田庶子３４６番地,,14,363,2580004,,,2023-01-25,登記官による閉鎖,,,2015-10-05,1,,,,,,0
113,1021002059781,登記記録の閉鎖等,0,2023-01-30,2023-01-25,有限会社みこう工業,,有限会社,神奈川県,平塚市,田村７丁目１９番２２号,,14,203,2540013,,,2023-01-25,登記官による閉鎖,,,2015-10-05,1,,,,,,0
114,1021002066002,登記記録の閉鎖等,0,2023-01-30,2023-01-26,難波工業有限会社,,有限会社,神奈川県,横須賀市,森崎２丁目１３番１０号,,14,201,2380023,,,2023-01-26,清算の結了等,,,2015-10-05,1,,,,,,0
115,1021002067842,登記記録の閉鎖等,0,2023-01-30,2023-01-25,有限会社リカーショップセブ,,有限会社,神奈川県,横須賀市,上町４丁目４６番地,,14,201,2380017,,,2023-01-25,登記官による閉鎖,,,2015-10-05,1,,,,,,0
116,1021002068221,登記記録の閉鎖等,0,2023-01-30,2023-01-25,有限会社真康商会,,有限会社,神奈川県,逗子市,逗子２丁目８番１３号,,14,208,2490006,,,2023-01-25,登記官による閉鎖,,,2015-10-05,1,,,,,,0
117,1021003002963,登記記録の閉鎖等,0,2023-01-30,2023-01-25,合資会社山口興業,,合資会社,神奈川県,横須賀市,大滝町２丁目４番地,,14,201,2380008,,,2023-01-25,登記官による閉鎖,,,2015-10-05,1,,,,,,0
118,1021005004702,登記記録の閉鎖等,0,2023-01-30,2023-01-25,医療法人社団ホワイト中村歯科医院,,その他の設立登記法人,神奈川県,大和市,大和南１丁目５番１７号,,14,213,2420016,,,2023-01-25,登記官による閉鎖,,,2015-10-05,1,,,,,,0
140,1080402015463,登記記録の閉鎖等,0,2023-01-30,2023-01-26,有限会社浜北ロードテック,,有限会社,静岡県,浜松市浜北区,新原２５２８番地の１,,22,136,4340003,,,2023-01-26,清算の結了等,,,2015-10-05,1,,,,,ハマキタロードテック,0
148,1120001033977,登記記録の閉鎖等,0,2023-01-30,2023-01-27,ヨコタメインテナンス株式会社,,株式会社,大阪府,大阪市住吉区,南住吉４丁目３番１８号,,27,120,5580041,,,2023-01-27,清算の結了等,,,2015-10-05,1,,,,,,0
179,1130002007987,登記記録の閉鎖等,0,2023-01-30,2023-01-27,有限会社ミッドフィールド,,有限会社,京都府,京都市下京区,綾小路通柳馬場西入綾材木町２０５番地９,,26,106,6008072,,,2023-01-27,清算の結了等,,,2015-10-05,1,,,,,,0
189,1150001009603,登記記録の閉鎖等,0,2023-01-30,2023-01-25,株式会社やま寿,,株式会社,奈良県,桜井市,大字桜井１９４番地の２,,29,206,6330091,,,2023-01-25,清算の結了等,,,2015-10-05,1,,,,,ヤマジュ,0
192,1180001028063,登記記録の閉鎖等,0,2023-01-30,2023-01-24,株式会社コーシン,,株式会社,愛知県,名古屋市緑区,鳴海町字下汐田２１７番地１,,23,114,4580801,,,2023-01-24,清算の結了等,,,2015-10-05,1,,,,,コーシン,0
194,1180001088264,登記記録の閉鎖等,0,2023-01-30,2023-01-19,上旺貿易株式会社,,株式会社,愛知県,岩倉市,新柳町２丁目６８番地,,23,228,4820021,,,2023-01-19,清算の結了等,,,2015-10-05,1,,,,,カミオボウエキ,0
205,1200005011401,登記記録の閉鎖等,0,2023-01-30,2023-01-27,特定非営利活動法人ひだ情報通信フォーラム,,その他の設立登記法人,岐阜県,高山市,上岡本町５丁目５７９番地,,21,203,5060055,,,2023-01-27,清算の結了等,,,2015-10-05,1,,,,,ヒダジョウホウツウシンフォーラム,0
215,1240002039433,登記記録の閉鎖等,0,2023-01-30,2023-01-26,有限会社イワオカ被服,,有限会社,広島県,福山市,加茂町字粟根１０２１番地の２,,34,207,7202416,,,2023-01-26,清算の結了等,,,2015-10-05,1,,,,,イワオカヒフク,0
237,1350002002256,登記記録の閉鎖等,0,2023-01-30,2023-01-25,有限会社島之内薬局,,有限会社,宮崎県,宮崎市,大塚町大迫南平４３９３,,45,201,8800951,,,2023-01-25,清算の結了等,,,2015-10-05,1,,,,,シマノウチヤッキョク,0
242,1360003001000,登記記録の閉鎖等,0,2023-01-30,2023-01-24,合資会社仲井真産業,,合資会社,沖縄県,那覇市,壺川１丁目３番地１,,47,201,9000025,,,2023-01-24,清算の結了等,,,2015-10-05,1,,,,,ナカイマサンギョウ,0
260,1490002004817,登記記録の閉鎖等,0,2023-01-30,2023-01-26,有限会社マツシタ,,有限会社,高知県,高知市,はりまや町１丁目１２番１２号,,39,201,7800822,,,2023-01-26,清算の結了等,,,2015-10-05,1,,,,,マツシタ,0
281,2010002051055,登記記録の閉鎖等,0,2023-01-30,2023-01-25,有限会社赤坂人形,,有限会社,東京都,足立区,千住元町３７番８号北千住第２ダイヤモンドマンション１０２号室,,13,121,1200041,,,2023-01-25,清算の結了等,,,2015-10-05,1,,,,,アカサカニンギョウ,0
285,2010102011256,登記記録の閉鎖等,0,2023-01-30,2023-01-23,有限会社光望商事,,有限会社,東京都,八王子市,下恩方町１３２３番地,,13,201,1920154,,,2023-01-23,清算の結了等,,,2015-10-05,1,,,,,コウボウショウジ,0
300,2010801029953,登記記録の閉鎖等,0,2023-01-30,2023-01-20,メイクスタンダード株式会社,,株式会社,神奈川県,横浜市西区,戸部本町３９番８－５０１号,,14,103,2200041,,,2023-01-20,清算の結了等,,,2019-06-14,1,,,,,メイクスタンダード,0
303,2010901003321,登記記録の閉鎖等,0,2023-01-30,2023-01-27,株式会社桐澤,,株式会社,東京都,世田谷区,代田６丁目２２番１２号,,13,112,1550033,,,2023-01-27,登記官による閉鎖,,,2015-10-05,1,,,,,,0
304,2010901005160,登記記録の閉鎖等,0,2023-01-30,2023-01-27,株式会社新栄事務機,,株式会社,東京都,世田谷区,桜３丁目２７番１４号,,13,112,1560053,,,2023-01-27,登記官による閉鎖,,,2015-10-05,1,,,,,,0
305,2010901006976,登記記録の閉鎖等,0,2023-01-30,2023-01-27,株式会社ビック,,株式会社,東京都,世田谷区,船橋４丁目３５番１号,,13,112,1560055,,,2023-01-27,登記官による閉鎖,,,2015-10-05,1,,,,,,0
306,2010901023088,登記記録の閉鎖等,0,2023-01-30,2023-01-27,株式会社インターライブ,,株式会社,東京都,世田谷区,下馬１丁目９番２号,,13,112,1540002,,,2023-01-27,登記官による閉鎖,,,2015-10-05,1,,,,,,0
307,2010901024061,登記記録の閉鎖等,0,2023-01-30,2023-01-27,株式会社ＧＰファーマテック,,株式会社,東京都,世田谷区,大蔵１丁目９番２３号,,13,112,1570074,,,2023-01-27,登記官による閉鎖,,,2015-10-05,1,,,,,,0
308,2010901024169,登記記録の閉鎖等,0,2023-01-30,2023-01-27,株式会社タグクリエイト,,株式会社,東京都,世田谷区,奥沢６丁目１番９号,,13,112,1580083,,,2023-01-27,登記官による閉鎖,,,2015-10-05,1,,,,,,0
309,2010901026958,登記記録の閉鎖等,0,2023-01-30,2023-01-27,株式会社ソウルプロジェクト,,株式会社,東京都,世田谷区,等々力６丁目３２番９号,,13,112,1580082,,,2023-01-27,登記官による閉鎖,,,2015-10-05,1,,,,,,0
310,2010901028203,登記記録の閉鎖等,0,2023-01-30,2023-01-27,株式会社京来,,株式会社,東京都,世田谷区,駒沢３丁目７番２２号,,13,112,1540012,,,2023-01-27,登記官による閉鎖,,,2015-10-05,1,,,,,,0
311,2010902004608,登記記録の閉鎖等,0,2023-01-30,2023-01-27,有限会社北村不動産,,有限会社,東京都,世田谷区,若林５丁目３３番２５号,,13,112,1540023,,,2023-01-27,登記官による閉鎖,,,2015-10-05,1,,,,,,0
312,2010902005597,登記記録の閉鎖等,0,2023-01-30,2023-01-27,有限会社行榮,,有限会社,東京都,世田谷区,喜多見７丁目７番１０号,,13,112,1570067,,,2023-01-27,登記官による閉鎖,,,2015-10-05,1,,,,,,0
313,2010902014152,登記記録の閉鎖等,0,2023-01-30,2023-01-27,有限会社マジェッタ商会,,有限会社,東京都,世田谷区,中町４丁目２６番７号,,13,112,1580091,,,2023-01-27,登記官による閉鎖,,,2015-10-05,1,,,,,,0
314,2010902014409,登記記録の閉鎖等,0,2023-01-30,2023-01-27,有限会社マルイ,,有限会社,東京都,世田谷区,北烏山９丁目２３番８号,,13,112,1570061,,,2023-01-27,登記官による閉鎖,,,2015-10-05,1,,,,,,0
315,2010902018161,登記記録の閉鎖等,0,2023-01-30,2023-01-27,有限会社ヴィエント,,有限会社,東京都,世田谷区,用賀４丁目１９番１５号メゾンシャンス１Ｆ,,13,112,1580097,,,2023-01-27,登記官による閉鎖,,,2015-10-05,1,,,,,,0
316,2010903001463,登記記録の閉鎖等,0,2023-01-30,2023-01-27,ＥＧＧＨＥＡＤＳ合同会社,,合同会社,東京都,世田谷区,代田６丁目３４番２０号Ｒｍ１３,,13,112,1550033,,,2023-01-27,登記官による閉鎖,,,2015-10-05,1,,,,,,0
317,2010903001736,登記記録の閉鎖等,0,2023-01-30,2023-01-27,合同会社ライフブラッド,,合同会社,東京都,世田谷区,北烏山１丁目６１番１５号,,13,112,1570061,,,2023-01-27,登記官による閉鎖,,,2015-10-05,1,,,,,,0
319,2011001092214,登記記録の閉鎖等,0,2023-01-30,2023-01-23,株式会社結,,株式会社,東京都,渋谷区,神宮前４丁目２２－１７－２０２,,13,113,1500001,,,2023-01-23,清算の結了等,,,2015-10-05,1,,,,,ユイ,0
324,2011003007748,登記記録の閉鎖等,0,2023-01-30,2023-01-25,ＪＬＳ　Ｔｒａｄｉｎｇ合同会社,,合同会社,神奈川県,藤沢市,鵠沼海岸１丁目１２番１７号,,14,205,2510037,,,2023-01-25,清算の結了等,,,2017-06-13,1,,,,,ジェイエルエストレイディング,0
328,2011101081174,登記記録の閉鎖等,0,2023-01-30,2023-01-26,株式会社アロンハブリット,,株式会社,東京都,新宿区,新宿５丁目１７番６号１Ｆ,,13,104,1600022,,,2023-01-26,清算の結了等,,,2017-07-20,1,,,,,アロンハブリット,0
335,2011201007319,登記記録の閉鎖等,0,2023-01-30,2023-01-26,株式会社まりンミュージック,,株式会社,東京都,中野区,上高田１丁目１３番１１号,,13,114,1640002,,,2023-01-26,清算の結了等,,,2015-10-05,1,,,,,マリンミュージック,0
340,2011502008445,登記記録の閉鎖等,0,2023-01-30,2023-01-17,小林鉛筆製造有限会社,,有限会社,東京都,荒川区,東尾久３丁目５番５号,,13,118,1160012,,,2023-01-17,清算の結了等,,,2015-10-05,1,,,,,コバヤシエンピツセイゾウ,0
345,2012405003731,登記記録の閉鎖等,0,2023-01-30,2023-01-11,医療法人社団大隅会,,その他の設立登記法人,東京都,武蔵野市,吉祥寺本町２丁目２番５号,,13,203,1800004,,,2023-01-11,合併による解散等,3030005003521,令和５年１月４日埼玉県所沢市大字久米５３２番地１医療法人啓仁会（3030005003521）に合併し解散,2015-10-05,1,,,,,オオスミカイ,0
347,2012702003698,登記記録の閉鎖等,0,2023-01-30,2023-01-25,有限会社柳屋,,有限会社,東京都,東村山市,諏訪町１丁目２８番地２,,13,213,1890021,,,2023-01-25,清算の結了等,,,2015-10-05,1,,,,,ヤナギヤ,0
348,2013301002307,登記記録の閉鎖等,0,2023-01-30,2023-01-30,大田畜産株式会社,,株式会社,東京都,豊島区,巣鴨３丁目３１番５号,,13,116,1700002,,,2023-01-30,登記官による閉鎖,,,2015-10-05,1,,,,,,0
349,2013301009822,登記記録の閉鎖等,0,2023-01-30,2023-01-30,株式会社長田電気興業,,株式会社,東京都,豊島区,西池袋２丁目８番１０号,,13,116,1710021,,,2023-01-30,登記官による閉鎖,,,2015-10-05,1,,,,,,0
351,2013302001662,登記記録の閉鎖等,0,2023-01-30,2023-01-30,有限会社エイ綜合企画,,有限会社,東京都,豊島区,南大塚３丁目３８番１５－３０５号,,13,116,1700005,,,2023-01-30,登記官による閉鎖,,,2015-10-05,1,,,,,,0
354,2020001010192,登記記録の閉鎖等,0,2023-01-30,2023-01-27,株式会社たけおか,,株式会社,神奈川県,横浜市旭区,鶴ケ峰１丁目５４番地２,,14,112,2410022,,,2023-01-27,清算の結了等,,,2015-10-05,1,,,,,タケオカ,0
355,2020001095713,登記記録の閉鎖等,0,2023-01-30,2023-01-27,コルノ物産株式会社,,株式会社,神奈川県,横浜市都筑区,大熊町３５番地,,14,118,2240042,,,2023-01-27,清算の結了等,,,2015-10-05,1,,,,,,0
364,2021001005967,登記記録の閉鎖等,0,2023-01-30,2023-01-25,株式会社メッツ,,株式会社,神奈川県,藤沢市,鵠沼石上１丁目１０番１号,,14,205,2510025,,,2023-01-25,登記官による閉鎖,,,2015-10-05,1,,,,,,0
365,2021001006214,登記記録の閉鎖等,0,2023-01-30,2023-01-25,株式会社サニーコーポレーション,,株式会社,神奈川県,藤沢市,鵠沼石上１丁目１０番１号,,14,205,2510025,,,2023-01-25,登記官による閉鎖,,,2015-10-05,1,,,,,,0
366,2021001011214,登記記録の閉鎖等,0,2023-01-30,2023-01-25,荒木商事株式会社,,株式会社,神奈川県,相模原市中央区,相模原６丁目１番５号,,14,152,2520231,,,2023-01-25,登記官による閉鎖,,,2015-10-05,1,,,,,,0
367,2021001012204,登記記録の閉鎖等,0,2023-01-30,2023-01-25,相模トーヨー住器株式会社,,株式会社,神奈川県,相模原市中央区,宮下３丁目６番１２号,,14,152,2520212,,,2023-01-25,登記官による閉鎖,,,2015-10-05,1,,,,,,0
370,2021001029933,登記記録の閉鎖等,0,2023-01-30,2023-01-25,株式会社大章建設,,株式会社,神奈川県,大和市,上和田１８２４番地３８,,14,213,2420014,,,2023-01-25,登記官による閉鎖,,,2015-10-05,1,,,,,,0
371,2021001034933,登記記録の閉鎖等,0,2023-01-30,2023-01-25,株式会社Ｐｌａｎｎｉｎｇ　Ｏｆｆｉｃｅ　ＨＩＲＯ,,株式会社,神奈川県,小田原市,清水新田１３９番地の１ヴェルグ広貴１０４,,14,206,2500855,,,2023-01-25,登記官による閉鎖,,,2015-10-05,1,,,,,,0
373,2021001039164,登記記録の閉鎖等,0,2023-01-30,2023-01-25,株式会社ＭＡＣＳ,,株式会社,神奈川県,平塚市,四之宮５丁目１９番１８号,,14,203,2540014,,,2023-01-25,登記官による閉鎖,,,2015-10-05,1,,,,,,0
374,2021001039189,登記記録の閉鎖等,0,2023-01-30,2023-01-25,株式会社原田製材所,,株式会社,神奈川県,中郡大磯町,国府本郷８７３番地,,14,341,2590111,,,2023-01-25,登記官による閉鎖,,,2015-10-05,1,,,,,,0
375,2021001040155,登記記録の閉鎖等,0,2023-01-30,2023-01-25,神奈川和服美整株式会社,,株式会社,神奈川県,横須賀市,林２丁目４番１号,,14,201,2380315,,,2023-01-25,登記官による閉鎖,,,2015-10-05,1,,,,,,0
376,2021001043455,登記記録の閉鎖等,0,2023-01-30,2023-01-25,株式会社チャプター・テン,,株式会社,神奈川県,三浦市,東岡町２番１１号,,14,210,2380242,,,2023-01-25,登記官による閉鎖,,,2015-10-05,1,,,,,,0
377,2021001044049,登記記録の閉鎖等,0,2023-01-30,2023-01-25,ピュアズハーツ株式会社,,株式会社,神奈川県,逗子市,小坪１丁目５番１８－２０１号,,14,208,2490008,,,2023-01-25,登記官による閉鎖,,,2015-10-05,1,,,,,,0
378,2021001044627,登記記録の閉鎖等,0,2023-01-30,2023-01-25,株式会社インベストワン,,株式会社,神奈川県,横須賀市,秋谷１丁目５番２１号,,14,201,2400105,,,2023-01-25,清算の結了等,,,2015-10-05,1,,,,,インベストワン,0
379,2021001045856,登記記録の閉鎖等,0,2023-01-30,2023-01-25,株式会社Ｋ’ｓ,,株式会社,神奈川県,藤沢市,江の島１丁目６番８号,,14,205,2510036,,,2023-01-25,登記官による閉鎖,,,2015-10-05,1,,,,,,0
380,2021001045947,登記記録の閉鎖等,0,2023-01-30,2023-01-25,株式会社ルナヌオーバァ,,株式会社,神奈川県,茅ヶ崎市,中海岸４丁目１２９８６番地５２,,14,207,2530055,,,2023-01-25,登記官による閉鎖,,,2015-10-05,1,,,,,,0
387,2021002002798,登記記録の閉鎖等,0,2023-01-30,2023-01-25,有限会社杉本自動車,,有限会社,神奈川県,藤沢市,遠藤７５２番地の４０,,14,205,2520816,,,2023-01-25,登記官による閉鎖,,,2015-10-05,1,,,,,,0
388,2021002006403,登記記録の閉鎖等,0,2023-01-30,2023-01-25,協同地所有限会社,,有限会社,神奈川県,藤沢市,長後８９５番地の１,,14,205,2520801,,,2023-01-25,登記官による閉鎖,,,2015-10-05,1,,,,,,0
389,2021002016534,登記記録の閉鎖等,0,2023-01-30,2023-01-25,有限会社フレーズ・アイ,,有限会社,神奈川県,鎌倉市,岡本１１８９番地４鎌倉岡本ガーデンホームズ１０６７号,,14,204,2470072,,,2023-01-25,登記官による閉鎖,,,2015-10-05,1,,,,,,0
390,2021002018860,登記記録の閉鎖等,0,2023-01-30,2023-01-25,有限会社小川土建,,有限会社,神奈川県,相模原市中央区,陽光台２丁目１２番１３号,,14,152,2520226,,,2023-01-25,登記官による閉鎖,,,2015-10-05,1,,,,,,0
391,2021002022490,登記記録の閉鎖等,0,2023-01-30,2023-01-25,有限会社テーワイシー,,有限会社,神奈川県,相模原市中央区,相模原４丁目６番１１号,,14,152,2520231,,,2023-01-25,登記官による閉鎖,,,2015-10-05,1,,,,,,0
392,2021002029750,登記記録の閉鎖等,0,2023-01-30,2023-01-25,有限会社ヘアーハウスイワミ,,有限会社,神奈川県,相模原市緑区,久保沢３丁目７番３５号,,14,151,2520105,,,2023-01-25,登記官による閉鎖,,,2015-10-05,1,,,,,,0
393,2021002030667,登記記録の閉鎖等,0,2023-01-30,2023-01-25,厚木造園土木有限会社,,有限会社,神奈川県,厚木市,下依知２５６番地２,,14,212,2430806,,,2023-01-25,登記官による閉鎖,,,2015-10-05,1,,,,,,0
394,2021002033629,登記記録の閉鎖等,0,2023-01-30,2023-01-25,有限会社吉川商事,,有限会社,神奈川県,厚木市,中町３丁目４番２２号,,14,212,2430018,,,2023-01-25,登記官による閉鎖,,,2015-10-05,1,,,,,,0
395,2021002042068,登記記録の閉鎖等,0,2023-01-30,2023-01-25,有限会社馬場塗装,,有限会社,神奈川県,大和市,福田７丁目３２番地の１モア・ステージ桜ヶ丘５０７号,,14,213,2420024,,,2023-01-25,登記官による閉鎖,,,2015-10-05,1,,,,,,0
396,2021002043677,登記記録の閉鎖等,0,2023-01-30,2023-01-25,有限会社鹿野工業,,有限会社,神奈川県,座間市,栗原中央４丁目２５番１１号,,14,216,2520014,,,2023-01-25,登記官による閉鎖,,,2015-10-05,1,,,,,,0
397,2021002044394,登記記録の閉鎖等,0,2023-01-30,2023-01-25,有限会社横島住建,,有限会社,神奈川県,座間市,東原５丁目１番８－１０６号,,14,216,2520004,,,2023-01-25,登記官による閉鎖,,,2015-10-05,1,,,,,,0
398,2021002044576,登記記録の閉鎖等,0,2023-01-30,2023-01-25,有限会社イシイインテリア,,有限会社,神奈川県,海老名市,中新田２丁目２５番２号,,14,215,2430422,,,2023-01-25,登記官による閉鎖,,,2015-10-05,1,,,,,,0
399,2021002044840,登記記録の閉鎖等,0,2023-01-30,2023-01-25,有限会社金田電気,,有限会社,神奈川県,海老名市,門沢橋２丁目５番２３号,,14,215,2430426,,,2023-01-25,登記官による閉鎖,,,2015-10-05,1,,,,,,0
400,2021002050260,登記記録の閉鎖等,0,2023-01-30,2023-01-25,有限会社本田内装,,有限会社,神奈川県,足柄下郡湯河原町,吉浜７３０番地の１２,,14,384,2590312,,,2023-01-25,登記官による閉鎖,,,2015-10-05,1,,,,,,0
401,2021002061308,登記記録の閉鎖等,0,2023-01-30,2023-01-25,有限会社ランディス,,有限会社,神奈川県,平塚市,花水台３６番１３号,,14,203,2540824,,,2023-01-25,登記官による閉鎖,,,2015-10-05,1,,,,,,0
402,2021002062586,登記記録の閉鎖等,0,2023-01-30,2023-01-25,有限会社綾部工業所,,有限会社,神奈川県,横須賀市,鴨居１丁目１２番４号,,14,201,2390813,,,2023-01-25,登記官による閉鎖,,,2015-10-05,1,,,,,,0
403,2021002063907,登記記録の閉鎖等,0,2023-01-30,2023-01-25,有限会社クマガイ電器,,有限会社,神奈川県,横須賀市,鴨居１丁目２０番５号,,14,201,2390813,,,2023-01-25,登記官による閉鎖,,,2015-10-05,1,,,,,,0
404,2021002064062,登記記録の閉鎖等,0,2023-01-30,2023-01-25,有限会社建設業植村組,,有限会社,神奈川県,横須賀市,太田和２丁目１１番３３号,,14,201,2380311,,,2023-01-25,登記官による閉鎖,,,2015-10-05,1,,,,,,0
405,2021002064260,登記記録の閉鎖等,0,2023-01-30,2023-01-25,有限会社小林工務店,,有限会社,神奈川県,横須賀市,林３丁目４３４番地３６,,14,201,2380315,,,2023-01-25,登記官による閉鎖,,,2015-10-05,1,,,,,,0
406,2021003003820,登記記録の閉鎖等,0,2023-01-30,2023-01-25,合同会社ＫＩＥＳ,,合同会社,神奈川県,相模原市南区,古淵１丁目２９番２３号,,14,153,2520344,,,2023-01-25,登記官による閉鎖,,,2015-10-05,1,,,,,,0
407,2021005008826,登記記録の閉鎖等,0,2023-01-30,2023-01-25,一般社団法人生活支援機構,,その他の設立登記法人,神奈川県,三浦郡葉山町,長柄１３２１番地－２０２,,14,301,2400113,,,2023-01-25,登記官による閉鎖,,,2015-10-05,1,,,,,,0
408,2030001022773,登記記録の閉鎖等,0,2023-01-30,2023-01-25,シルバ製本株式会社,,株式会社,埼玉県,戸田市,笹目北町１０番地の１４,,11,224,3350033,,,2023-01-25,清算の結了等,,,2015-10-05,1,,,,,シルバセイホン,0
418,2030002040196,登記記録の閉鎖等,0,2023-01-30,2023-01-25,有限会社美研土木工業,,有限会社,埼玉県,久喜市,野久喜８４９番地６,,11,232,3460002,,,2023-01-25,清算の結了等,,,2015-10-05,1,,,,,ビケンドボクコウギョウ,0
451,2120001158617,登記記録の閉鎖等,0,2023-01-30,2023-01-27,株式会社エヌネット,,株式会社,大阪府,寝屋川市,点野４丁目１番３号,,27,215,5720077,,,2023-01-27,清算の結了等,,,2015-10-05,1,,,,,エヌネット,0
455,2120101027977,登記記録の閉鎖等,0,2023-01-30,2023-01-27,株式会社ピアリンク堺,,株式会社,大阪府,堺市南区,原山台２丁３番３－８０４号,,27,145,5900132,,,2023-01-27,清算の結了等,,,2015-10-05,1,,,,,ピアリンクサカイ,0
464,2130001032804,登記記録の閉鎖等,0,2023-01-30,2023-01-26,株式会社タカラプロセス,,株式会社,京都府,宇治市,伊勢田町南遊田２２番地の１１,,26,204,6110043,,,2023-01-26,清算の結了等,,,2015-10-05,1,,,,,タカラプロセス,0
493,2180005019644,登記記録の閉鎖等,0,2023-01-30,2023-01-25,特定非営利活動法人一宮福祉事業支援友の会,,その他の設立登記法人,愛知県,一宮市,松降通７丁目１番地２ライオンズマンション一宮貴船１００３号,,23,203,4910078,,,2023-01-25,清算の結了等,,,2022-02-22,1,,,,,イチノミヤフクシジギョウシエントモノカイ,0
498,2200001016485,登記記録の閉鎖等,0,2023-01-30,2023-01-30,さくらシステム株式会社,,株式会社,岐阜県,大垣市,波須２丁目１４６番地,,21,202,5030811,,,2023-01-30,清算の結了等,,,2015-10-05,1,,,,,サクラシステム,0
517,2260002011827,登記記録の閉鎖等,0,2023-01-30,2023-01-27,有限会社旭石油,,有限会社,岡山県,岡山市北区,建部町川口１４１８番地の２,,33,101,7093112,,,2023-01-27,清算の結了等,,,2015-10-05,1,,,,,,0
537,2360001014820,登記記録の閉鎖等,0,2023-01-30,2023-01-04,株式会社ｉ・コミュニケーション,,株式会社,沖縄県,那覇市,字安謝６１７番の１９２,,47,201,9000003,,,2023-01-04,合併による解散等,7360001008033,令和５年１月１日沖縄県沖縄市登川２８２６番地の１株式会社南星実業（7360001008033）に合併し解散,2015-10-05,1,,,,,アイコミュニケーション,0
547,2430003009002,登記記録の閉鎖等,0,2023-01-30,2023-01-26,合同会社フェイバー,,合同会社,北海道,札幌市白石区,南郷通２０丁目南１番２５号,,01,104,0030022,,,2023-01-26,清算の結了等,,,2017-12-28,1,,,,,フェイバー,0
549,2470002000932,登記記録の閉鎖等,0,2023-01-30,2023-01-26,石川建設有限会社,,有限会社,香川県,高松市,伏石町２１２５番地１０,,37,201,7618071,,,2023-01-26,清算の結了等,,,2015-10-05,1,,,,,イシカワケンセツ,0
553,2490001008900,登記記録の閉鎖等,0,2023-01-30,2023-01-26,Ｂｒｉｇｈｔ株式会社,,株式会社,高知県,高知市,縄手町３８番地１８,,39,201,7800932,,,2023-01-26,清算の結了等,,,2018-03-20,1,,,,,ブライト,0
569,3010005033000,登記記録の閉鎖等,0,2023-01-30,2023-01-27,一般社団法人オルコ,,その他の設立登記法人,東京都,千代田区,丸の内３丁目１番１号東京共同会計事務所内,,13,101,1000005,,,2023-01-27,清算の結了等,,,2021-03-02,1,,,,,オルコ,0
574,3010401163111,登記記録の閉鎖等,0,2023-01-30,2023-01-13,ニアデリ株式会社,,株式会社,東京都,港区,海岸１丁目１１番１号ニューピア竹芝ノースタワー１４階,,13,103,1050022,,,2023-01-13,清算の結了等,,,2021-10-12,1,,,,,ニアデリ,0
578,3010405014640,登記記録の閉鎖等,0,2023-01-30,2023-01-13,一般社団法人ＰＢＴＦ１,,その他の設立登記法人,東京都,港区,虎ノ門５丁目３番２０号株式会社アカウンティング・マネジメント・サービス内,,13,103,1050001,,,2023-01-13,清算の結了等,,,2016-03-08,1,,,,,ピービーティーエフワン,0
584,3010603007082,登記記録の閉鎖等,0,2023-01-30,2023-01-25,合同会社Ｓｐｅｃｉａｌ　Ｎｅｅｄｓ　Ｓｕｐｐｏｒｔ,,合同会社,埼玉県,さいたま市大宮区,桜木町３丁目９１番,,11,103,3300854,,,2023-01-25,清算の結了等,,,2018-01-30,1,,,,,スペシャルニーズサポート,0
589,3010901002529,登記記録の閉鎖等,0,2023-01-30,2023-01-27,株式会社オフィス・ホーセイ,,株式会社,東京都,世田谷区,奥沢７丁目２４番２０号,,13,112,1580083,,,2023-01-27,登記官による閉鎖,,,2015-10-05,1,,,,,,0
591,3010901024655,登記記録の閉鎖等,0,2023-01-30,2023-01-27,株式会社エンドレス,,株式会社,東京都,世田谷区,下馬６丁目３０番１５号,,13,112,1540002,,,2023-01-27,登記官による閉鎖,,,2015-10-05,1,,,,,,0
592,3010901025728,登記記録の閉鎖等,0,2023-01-30,2023-01-27,順豊株式会社,,株式会社,東京都,世田谷区,宮坂２丁目１番３４－２０１号,,13,112,1560051,,,2023-01-27,登記官による閉鎖,,,2015-10-05,1,,,,,,0
593,3010901026131,登記記録の閉鎖等,0,2023-01-30,2023-01-27,Ｐｒｉｓｍ　ＧＩＦＴ株式会社,,株式会社,東京都,世田谷区,経堂２丁目６番１号アームス経堂２－Ｆ,,13,112,1560052,,,2023-01-27,登記官による閉鎖,,,2015-10-05,1,,,,,,0
594,3010901029844,登記記録の閉鎖等,0,2023-01-30,2023-01-27,株式会社ＭＮＳ,,株式会社,東京都,世田谷区,豪徳寺１丁目９番１１号,,13,112,1540021,,,2023-01-27,登記官による閉鎖,,,2015-10-05,1,,,,,,0
597,3010902008194,登記記録の閉鎖等,0,2023-01-30,2023-01-27,有限会社鈴重商店,,有限会社,東京都,世田谷区,等々力４丁目５番８号,,13,112,1580082,,,2023-01-27,登記官による閉鎖,,,2015-10-05,1,,,,,,0
598,3010902008863,登記記録の閉鎖等,0,2023-01-30,2023-01-27,有限会社染宮,,有限会社,東京都,世田谷区,南烏山４丁目１２番６号,,13,112,1570062,,,2023-01-27,登記官による閉鎖,,,2015-10-05,1,,,,,,0
599,3010902015744,登記記録の閉鎖等,0,2023-01-30,2023-01-27,有限会社有希,,有限会社,東京都,世田谷区,祖師谷３丁目１番１５号,,13,112,1570072,,,2023-01-27,登記官による閉鎖,,,2015-10-05,1,,,,,,0
600,3010902025909,登記記録の閉鎖等,0,2023-01-30,2023-01-27,Ｂｌｕｅ　Ｓｅａ　Ｍａｎａｇｅｍｅｎｔ　Ｌｉｍｉｔｅｄ有限会社,,有限会社,東京都,世田谷区,成城８丁目８番４号２階,,13,112,1570066,,,2023-01-27,登記官による閉鎖,,,2015-10-05,1,,,,,,0
601,3010905001989,登記記録の閉鎖等,0,2023-01-30,2023-01-27,特定非営利活動法人日本イタリア交流協会,,その他の設立登記法人,東京都,世田谷区,上北沢３丁目３番７号,,13,112,1560057,,,2023-01-27,登記官による閉鎖,,,2015-10-05,1,,,,,,0
605,3011003008233,登記記録の閉鎖等,0,2023-01-30,2023-01-25,合同会社フェリス,,合同会社,東京都,渋谷区,神宮前１丁目１５番１３号,,13,113,1500001,,,2023-01-25,清算の結了等,,,2017-11-15,1,,,,,フェリス,0
611,3011101061150,登記記録の閉鎖等,0,2023-01-30,2023-01-27,株式会社Ａｔｅｌｉｅｒ　ＨＡＬ,,株式会社,広島県,福山市,三吉町南１丁目１１番２０号,,34,207,7200032,,,2023-01-27,清算の結了等,,,2015-10-05,1,,,,,アテリアヘル,0
615,3011101068906,登記記録の閉鎖等,0,2023-01-30,2023-01-24,株式会社ちっぱー,,株式会社,東京都,江東区,大島２丁目７番１６号山木マンション６０１,,13,108,1360072,,,2023-01-24,清算の結了等,,,2015-10-05,1,,,,,チッパー,0
626,3013301022997,登記記録の閉鎖等,0,2023-01-30,2023-01-30,株式会社イーテク・ジャパン,,株式会社,東京都,豊島区,池袋本町１丁目４６番４号福島ビル１Ｆ,,13,116,1700011,,,2023-01-30,登記官による閉鎖,,,2015-10-05,1,,,,,,0
627,3013301028796,登記記録の閉鎖等,0,2023-01-30,2023-01-30,株式会社なごみ,,株式会社,東京都,豊島区,池袋２丁目４３番２号,,13,116,1710014,,,2023-01-30,登記官による閉鎖,,,2015-10-05,1,,,,,,0
628,3013301029349,登記記録の閉鎖等,0,2023-01-30,2023-01-30,株式会社シナリーアトラス,,株式会社,東京都,豊島区,巣鴨５丁目５番２号,,13,116,1700002,,,2023-01-30,登記官による閉鎖,,,2015-10-05,1,,,,,,0
629,3013301036642,登記記録の閉鎖等,0,2023-01-30,2023-01-26,株式会社ニコプラス,,株式会社,神奈川県,横須賀市,津久井２丁目２２－１カルム湘南津久井浜６０５,,14,201,2390843,,,2023-01-26,清算の結了等,,,2015-10-05,1,,,,,ニコプラス,0
630,3013302014671,登記記録の閉鎖等,0,2023-01-30,2023-01-30,有限会社ワン・エイト,,有限会社,東京都,豊島区,西池袋１丁目４１番１号,,13,116,1710021,,,2023-01-30,登記官による閉鎖,,,2015-10-05,1,,,,,,0
631,3013303001850,登記記録の閉鎖等,0,2023-01-30,2023-01-30,合同会社フクトミ企画,,合同会社,東京都,豊島区,巣鴨１丁目１１番２－３０４号,,13,116,1700002,,,2023-01-30,登記官による閉鎖,,,2015-10-05,1,,,,,,0
632,3013305001072,登記記録の閉鎖等,0,2023-01-30,2023-01-30,特定非営利活動法人日本メンタルスクエア協会,,その他の設立登記法人,東京都,豊島区,高田３丁目４２番１１号,,13,116,1710033,,,2023-01-30,登記官による閉鎖,,,2015-10-05,1,,,,,,0
633,3013305001114,登記記録の閉鎖等,0,2023-01-30,2023-01-30,特定非営利活動法人成年後見支援機構,,その他の設立登記法人,東京都,豊島区,巣鴨３丁目１６番１３号木内ビル２０１号,,13,116,1700002,,,2023-01-30,登記官による閉鎖,,,2015-10-05,1,,,,,,0
641,3021001000959,登記記録の閉鎖等,0,2023-01-30,2023-01-25,株式会社湘南トレーディング,,株式会社,神奈川県,藤沢市,鵠沼松が岡３丁目４番５号,,14,205,2510038,,,2023-01-25,登記官による閉鎖,,,2015-10-05,1,,,,,,0
642,3021001007475,登記記録の閉鎖等,0,2023-01-30,2023-01-25,ホワイトゲイブルズハウス株式会社,,株式会社,神奈川県,茅ヶ崎市,南湖１丁目１番２号,,14,207,2530061,,,2023-01-25,登記官による閉鎖,,,2015-10-05,1,,,,,,0
643,3021001014199,登記記録の閉鎖等,0,2023-01-30,2023-01-25,株式会社八木土木興業,,株式会社,神奈川県,相模原市中央区,星が丘３丁目１５番４号,,14,152,2520238,,,2023-01-25,登記官による閉鎖,,,2015-10-05,1,,,,,,0
645,3021001018217,登記記録の閉鎖等,0,2023-01-30,2023-01-25,株式会社ボア・ソルチ,,株式会社,神奈川県,相模原市南区,上鶴間本町３丁目１０番７号,,14,153,2520318,,,2023-01-25,登記官による閉鎖,,,2015-10-05,1,,,,,,0
646,3021001024867,登記記録の閉鎖等,0,2023-01-30,2023-01-25,株式会社旭テクノ,,株式会社,神奈川県,大和市,大和東２丁目２番５号,,14,213,2420017,,,2023-01-25,登記官による閉鎖,,,2015-10-05,1,,,,,,0
647,3021001026467,登記記録の閉鎖等,0,2023-01-30,2023-01-25,東京家具株式会社,,株式会社,神奈川県,大和市,福田８丁目１１番地の７,,14,213,2420024,,,2023-01-25,登記官による閉鎖,,,2015-10-05,1,,,,,,0
648,3021002000669,登記記録の閉鎖等,0,2023-01-30,2023-01-25,有限会社魚政商店,00012885,有限会社,神奈川県,藤沢市,辻堂元町１丁目２番９号,,14,205,2510043,,,2023-01-25,登記官による閉鎖,,,2015-10-05,1,,,,,,0
649,3021002001907,登記記録の閉鎖等,0,2023-01-30,2023-01-25,有限会社コミュニティサロン,,有限会社,神奈川県,藤沢市,下土棚５１８番地,,14,205,2520807,,,2023-01-25,登記官による閉鎖,,,2015-10-05,1,,,,,,0
650,3021002003515,登記記録の閉鎖等,0,2023-01-30,2023-01-25,有限会社東信地所,,有限会社,神奈川県,藤沢市,辻堂６丁目２７番２３号,,14,205,2510047,,,2023-01-25,登記官による閉鎖,,,2015-10-05,1,,,,,,0
651,3021002003829,登記記録の閉鎖等,0,2023-01-30,2023-01-25,有限会社仁平金物店,,有限会社,神奈川県,藤沢市,石川２丁目１５番地の１１,,14,205,2520815,,,2023-01-25,登記官による閉鎖,,,2015-10-05,1,,,,,,0
652,3021002003985,登記記録の閉鎖等,0,2023-01-30,2023-01-25,有限会社馬場正昭商店,,有限会社,神奈川県,藤沢市,亀井野４丁目６番地の１３,,14,205,2520813,,,2023-01-25,登記官による閉鎖,,,2015-10-05,1,,,,,,0
653,3021002017878,登記記録の閉鎖等,0,2023-01-30,2023-01-25,有限会社泉屋,,有限会社,神奈川県,相模原市南区,下溝１１８９番地,,14,153,2520335,,,2023-01-25,登記官による閉鎖,,,2015-10-05,1,,,,,,0
654,3021002022903,登記記録の閉鎖等,0,2023-01-30,2023-01-25,有限会社中沢鉄工,,有限会社,神奈川県,相模原市中央区,星が丘１丁目１４番１８号,,14,152,2520238,,,2023-01-25,登記官による閉鎖,,,2015-10-05,1,,,,,,0
655,3021002024610,登記記録の閉鎖等,0,2023-01-30,2023-01-25,有限会社ミツワ電機製作所,,有限会社,神奈川県,相模原市中央区,淵野辺本町１丁目２６番３号,,14,152,2520202,,,2023-01-25,登記官による閉鎖,,,2015-10-05,1,,,,,,0
656,3021002033710,登記記録の閉鎖等,0,2023-01-30,2023-01-25,有限会社ワンダ,,有限会社,神奈川県,厚木市,三田２番地の３,,14,212,2430211,,,2023-01-25,登記官による閉鎖,,,2015-10-05,1,,,,,,0
657,3021002033933,登記記録の閉鎖等,0,2023-01-30,2023-01-25,有限会社春日台丸新商店,,有限会社,神奈川県,愛甲郡愛川町,中津１８１２番地の５,,14,401,2430303,,,2023-01-25,登記官による閉鎖,,,2015-10-05,1,,,,,,0
658,3021002034345,登記記録の閉鎖等,0,2023-01-30,2023-01-25,有限会社マルイ商事,,有限会社,神奈川県,愛甲郡愛川町,中津９８３番地の１０,,14,401,2430303,,,2023-01-25,登記官による閉鎖,,,2015-10-05,1,,,,,,0
659,3021002041498,登記記録の閉鎖等,0,2023-01-30,2023-01-25,有限会社タイガー・オート販売,,有限会社,神奈川県,大和市,中央６丁目９番５号,,14,213,2420021,,,2023-01-25,登記官による閉鎖,,,2015-10-05,1,,,,,,0
660,3021002051035,登記記録の閉鎖等,0,2023-01-30,2023-01-25,有限会社祝屋電気商会,,有限会社,神奈川県,小田原市,栄町１丁目１６番１３号,,14,206,2500011,,,2023-01-25,登記官による閉鎖,,,2015-10-05,1,,,,,,0
661,3021002052157,登記記録の閉鎖等,0,2023-01-30,2023-01-25,有限会社杉本林業,,有限会社,神奈川県,小田原市,久野３６９２番地,,14,206,2500055,,,2023-01-25,登記官による閉鎖,,,2015-10-05,1,,,,,,0
662,3021002055060,登記記録の閉鎖等,0,2023-01-30,2023-01-25,有限会社ヤナコー,,有限会社,神奈川県,南足柄市,怒田８３７番地,,14,217,2500106,,,2023-01-25,登記官による閉鎖,,,2015-10-05,1,,,,,,0
663,3021002059078,登記記録の閉鎖等,0,2023-01-30,2023-01-25,有限会社西迫木型製作所,,有限会社,神奈川県,平塚市,四之宮２丁目１２番４８号,,14,203,2540014,,,2023-01-25,登記官による閉鎖,,,2015-10-05,1,,,,,,0
664,3021002060374,登記記録の閉鎖等,0,2023-01-30,2023-01-25,有限会社加藤企画室,,有限会社,神奈川県,中郡大磯町,東町３丁目１０番２９号,,14,341,2550002,,,2023-01-25,登記官による閉鎖,,,2015-10-05,1,,,,,,0
665,3021002062486,登記記録の閉鎖等,0,2023-01-30,2023-01-25,有限会社亜細亜冷機,,有限会社,神奈川県,横須賀市,森崎２丁目１８番９号,,14,201,2380023,,,2023-01-25,登記官による閉鎖,,,2015-10-05,1,,,,,,0
666,3021002064879,登記記録の閉鎖等,0,2023-01-30,2023-01-25,有限会社湘南精密機械製作所,,有限会社,神奈川県,横須賀市,三春町１丁目２７番地,,14,201,2380014,,,2023-01-25,登記官による閉鎖,,,2015-10-05,1,,,,,,0
667,3021002065407,登記記録の閉鎖等,0,2023-01-30,2023-01-25,有限会社高梨商店,,有限会社,神奈川県,横須賀市,根岸町３丁目３番１４号,,14,201,2390807,,,2023-01-25,登記官による閉鎖,,,2015-10-05,1,,,,,,0
668,3021002067056,登記記録の閉鎖等,0,2023-01-30,2023-01-25,有限会社三浦食品,,有限会社,神奈川県,横須賀市,公郷町２丁目１６番地８,,14,201,2380022,,,2023-01-25,登記官による閉鎖,,,2015-10-05,1,,,,,,0
669,3021002071462,登記記録の閉鎖等,0,2023-01-30,2023-01-25,有限会社小菅工業,,有限会社,神奈川県,三浦市,栄町１２番３５号,,14,210,2380236,,,2023-01-25,登記官による閉鎖,,,2015-10-05,1,,,,,,0
690,3050002025756,登記記録の閉鎖等,0,2023-01-30,2023-01-24,有限会社高久製作所,00022959,有限会社,茨城県,古河市,上和田１２１番地４,,08,204,3060122,,,2023-01-24,清算の結了等,,,2015-10-05,1,,,,,タカクセイサクショ,0
722,3120002038718,登記記録の閉鎖等,0,2023-01-30,2023-01-26,有限会社マルタカ・リアールエステイト,,有限会社,大阪府,大阪市中央区,船場中央３丁目２番８－１８１号,,27,128,5410055,,,2023-01-26,清算の結了等,,,2015-10-05,1,,,,,マルタカリアールエステイト,0
723,3120002078664,登記記録の閉鎖等,0,2023-01-30,2023-01-25,有限会社寺沢印刷,,有限会社,大阪府,守口市,大日町２丁目１２番６号,,27,209,5700003,,,2023-01-25,清算の結了等,,,2015-10-05,1,,,,,テラサワインサツ,0
727,3120101043214,登記記録の閉鎖等,0,2023-01-30,2023-01-27,株式会社ヤタカ,,株式会社,大阪府,泉大津市,東助松町１丁目１２番６号,,27,206,5950006,,,2023-01-27,清算の結了等,,,2015-10-05,1,,,,,ヤタカ,0
748,3180001086290,登記記録の閉鎖等,0,2023-01-30,2023-01-26,株式会社シンワ,,株式会社,愛知県,一宮市,泉２丁目９番地１,,23,203,4910861,,,2023-01-26,清算の結了等,,,2015-10-05,1,,,,,シンワ,0
749,3180001117450,登記記録の閉鎖等,0,2023-01-30,2023-01-26,株式会社名都クリエイション,,株式会社,愛知県,長久手市,岩作三ケ峯２番地５３６,,23,238,4801103,,,2023-01-26,清算の結了等,,,2015-10-05,1,,,,,メイトクリエイション,0
756,3200002021590,登記記録の閉鎖等,0,2023-01-30,2023-01-26,丸浅陶料有限会社,,有限会社,岐阜県,土岐市,駄知町９５番地の２の１の１,,21,212,5095401,,,2023-01-26,清算の結了等,,,2015-10-05,1,,,,,マルアサトウリョウ,0
759,3240001038847,登記記録の閉鎖等,0,2023-01-30,2023-01-26,株式会社イノウエコンサルタント,,株式会社,広島県,尾道市,御調町大田４９４番地の１,,34,205,7220342,,,2023-01-26,清算の結了等,,,2015-10-05,1,,,,,イノウエコンサルタント,0
785,3310003000269,登記記録の閉鎖等,0,2023-01-30,2023-01-27,合名会社今井商店,,合名会社,長崎県,長崎市,浜町１番９号,,42,201,8500853,,,2023-01-27,清算の結了等,,,2015-10-05,1,,,,,イマイショウテン,0
788,3330005007558,登記記録の閉鎖等,0,2023-01-30,2023-01-04,医療法人木鶏会,,その他の設立登記法人,熊本県,球磨郡山江村,大字山田字南永シ切１７０５番地,,43,512,8680092,,,2023-01-04,合併による解散等,1330005007527,令和５年１月４日熊本県人吉市駒井田町１９５１番地医療法人愛（1330005007527）に合併し解散,2015-10-05,1,,,,,モッケイカイ,0
812,3430003007343,登記記録の閉鎖等,0,2023-01-30,2023-01-26,ＫＩＫＵＴＡ．Ｇ合同会社,,合同会社,北海道,札幌市北区,北七条西５丁目６番地１ストークマンション札幌２０８号,,01,102,0600807,,,2023-01-26,清算の結了等,,,2016-02-05,1,,,,,キクタドットジー,0
813,3440003000826,登記記録の閉鎖等,0,2023-01-30,2023-01-23,合名会社ヤマキ松浦商店,,合名会社,北海道,茅部郡森町,字御幸町２４番地の１,,01,345,0492326,,,2023-01-23,清算の結了等,,,2015-10-05,1,,,,,ヤマキマツウラショウテン,0
815,3460301003966,登記記録の閉鎖等,0,2023-01-30,2023-01-27,株式会社いの上,,株式会社,北海道,網走市,字潮見３０７番地の９,,01,211,0930042,,,2023-01-27,清算の結了等,,,2015-10-05,1,,,,,,0
842,4010402010162,登記記録の閉鎖等,0,2023-01-30,2023-01-13,ハウスケイアンドケイ有限会社,,有限会社,東京都,港区,三田４丁目１８番７号,,13,103,1080073,,,2023-01-13,清算の結了等,,,2015-10-05,1,,,,,ハウスケイアンドケイ,0
855,4010901000878,登記記録の閉鎖等,0,2023-01-30,2023-01-27,アルフア・ロマン株式会社,,株式会社,東京都,世田谷区,尾山台２丁目２６番１０号,,13,112,1580086,,,2023-01-27,登記官による閉鎖,,,2017-09-26,1,,,,,,0
856,4010901006826,登記記録の閉鎖等,0,2023-01-30,2023-01-27,株式会社大誠興産,,株式会社,東京都,世田谷区,鎌田３丁目２１番１号鎌田マンション１０１,,13,112,1570077,,,2023-01-27,登記官による閉鎖,,,2015-10-05,1,,,,,,0
857,4010901014977,登記記録の閉鎖等,0,2023-01-30,2023-01-27,株式会社リトル・ガレージ,,株式会社,東京都,世田谷区,玉堤２丁目３番２２号,,13,112,1580087,,,2023-01-27,登記官による閉鎖,,,2015-10-05,1,,,,,,0
858,4010901024943,登記記録の閉鎖等,0,2023-01-30,2023-01-27,株式会社トトボーノ,,株式会社,東京都,世田谷区,代沢２丁目２８番６号,,13,112,1550032,,,2023-01-27,登記官による閉鎖,,,2015-10-05,1,,,,,,0
862,4010902011239,登記記録の閉鎖等,0,2023-01-30,2023-01-27,有限会社ナッツ,,有限会社,東京都,世田谷区,桜丘３丁目３７番３５号グランベスタージュ桜丘５０５,,13,112,1560054,,,2023-01-27,登記官による閉鎖,,,2015-10-05,1,,,,,,0
863,4010902011874,登記記録の閉鎖等,0,2023-01-30,2023-01-27,有限会社白十字,,有限会社,東京都,世田谷区,桜新町２丁目２７番１７号,,13,112,1540015,,,2023-01-27,登記官による閉鎖,,,2015-10-05,1,,,,,,0
864,4010902017186,登記記録の閉鎖等,0,2023-01-30,2023-01-27,有限会社オー・エム・ビジネスプランニング,,有限会社,東京都,世田谷区,成城５丁目４番９号,,13,112,1570066,,,2023-01-27,登記官による閉鎖,,,2015-10-05,1,,,,,,0
865,4010902025247,登記記録の閉鎖等,0,2023-01-30,2023-01-27,有限会社アートボックス,,有限会社,東京都,世田谷区,玉川３丁目２８番２号ハイツリバーサイド３０１,,13,112,1580094,,,2023-01-27,登記官による閉鎖,,,2015-10-05,1,,,,,,0
873,4011002019437,登記記録の閉鎖等,0,2023-01-30,2023-01-18,有限会社ケイアンドケイキタ・ノルテ,,有限会社,東京都,渋谷区,渋谷３丁目２番１号,,13,113,1500002,,,2023-01-18,清算の結了等,,,2015-10-05,1,,,,,ケイアンドケイキタノルテ,0
894,4011802015718,登記記録の閉鎖等,0,2023-01-30,2023-01-26,有限会社中央化学,,有限会社,東京都,足立区,江北２丁目７番６号,,13,121,1230872,,,2023-01-26,清算の結了等,,,2015-10-05,1,,,,,チュウオウカガク,0
897,4012402003872,登記記録の閉鎖等,0,2023-01-30,2023-01-19,有限会社塚田板金工業,,有限会社,東京都,国分寺市,光町１丁目３８番地１７,,13,214,1850034,,,2023-01-19,清算の結了等,,,2015-10-05,1,,,,,ツカダバンキンコウギョウ,0
899,4013301002098,登記記録の閉鎖等,0,2023-01-30,2023-01-30,株式会社大嶋ペイント,,株式会社,東京都,豊島区,池袋本町１丁目１７番６－７０１号,,13,116,1700011,,,2023-01-30,登記官による閉鎖,,,2015-10-05,1,,,,,,0
900,4013301026403,登記記録の閉鎖等,0,2023-01-30,2023-01-30,ＡＭＳテクノロジー株式会社,,株式会社,東京都,豊島区,南大塚２丁目４０番１－３０６号,,13,116,1700005,,,2023-01-30,登記官による閉鎖,,,2015-10-05,1,,,,,,0
901,4013301027640,登記記録の閉鎖等,0,2023-01-30,2023-01-30,株式会社きもの都,,株式会社,東京都,豊島区,南長崎５丁目１８番１号,,13,116,1710052,,,2023-01-30,登記官による閉鎖,,,2015-10-05,1,,,,,,0
902,4013301028093,登記記録の閉鎖等,0,2023-01-30,2023-01-30,株式会社ユニティーグロー,,株式会社,東京都,豊島区,池袋２丁目４７番５号,,13,116,1710014,,,2023-01-30,登記官による閉鎖,,,2015-10-05,1,,,,,,0
903,4013302004218,登記記録の閉鎖等,0,2023-01-30,2023-01-30,有限会社蔵本,,有限会社,東京都,豊島区,高田３丁目２１番１１号,,13,116,1710033,,,2023-01-30,登記官による閉鎖,,,2015-10-05,1,,,,,,0
904,4013302005348,登記記録の閉鎖等,0,2023-01-30,2023-01-30,有限会社アイシーシー,,有限会社,東京都,豊島区,千早１丁目２８番１１号,,13,116,1710044,,,2023-01-30,登記官による閉鎖,,,2015-10-05,1,,,,,,0
905,4013302012195,登記記録の閉鎖等,0,2023-01-30,2023-01-30,有限会社エフアンドアール,,有限会社,東京都,豊島区,雑司が谷３丁目７番２号,,13,116,1710032,,,2023-01-30,登記官による閉鎖,,,2015-10-05,1,,,,,,0
906,4013302012534,登記記録の閉鎖等,0,2023-01-30,2023-01-30,仲佐商事有限会社,,有限会社,東京都,豊島区,巣鴨４丁目２８番１９号,,13,116,1700002,,,2023-01-30,登記官による閉鎖,,,2015-10-05,1,,,,,,0
907,4013302018589,登記記録の閉鎖等,0,2023-01-30,2023-01-30,有限会社イサムコーポレイション,,有限会社,東京都,豊島区,駒込１丁目２番６号,,13,116,1700003,,,2023-01-30,登記官による閉鎖,,,2015-10-05,1,,,,,,0
908,4013302021097,登記記録の閉鎖等,0,2023-01-30,2023-01-30,有限会社テック・デザイン・オフィス,,有限会社,東京都,豊島区,北大塚３丁目１３番４号,,13,116,1700004,,,2023-01-30,登記官による閉鎖,,,2015-10-05,1,,,,,,0
911,4020002031574,登記記録の閉鎖等,0,2023-01-30,2023-01-27,株式会社丸勝設備工業,,株式会社,神奈川県,横浜市南区,六ツ川３丁目７３番地１,,14,105,2320066,,,2023-01-27,清算の結了等,,,2015-10-05,1,,,,,,0
913,4021001009025,登記記録の閉鎖等,0,2023-01-30,2023-01-25,株式会社京和,,株式会社,神奈川県,鎌倉市,七里ガ浜東４丁目１０番１０号,,14,204,2480025,,,2023-01-25,登記官による閉鎖,,,2015-10-05,1,,,,,,0
914,4021001017969,登記記録の閉鎖等,0,2023-01-30,2023-01-25,株式会社エメラルド・スター,,株式会社,神奈川県,相模原市中央区,横山台２丁目１８番５－４０２号,,14,152,2520241,,,2023-01-25,登記官による閉鎖,,,2015-10-05,1,,,,,,0
917,4021001032142,登記記録の閉鎖等,0,2023-01-30,2023-01-25,株式会社サクラギ,,株式会社,神奈川県,足柄下郡箱根町,湯本６９５番地,,14,382,2500311,,,2023-01-25,登記官による閉鎖,,,2015-10-05,1,,,,,,0
918,4021001039955,登記記録の閉鎖等,0,2023-01-30,2023-01-25,株式会社伊藤興業,,株式会社,神奈川県,横須賀市,太田和５丁目９０番地,,14,201,2380311,,,2023-01-25,登記官による閉鎖,,,2015-10-05,1,,,,,,0
919,4021001046126,登記記録の閉鎖等,0,2023-01-30,2023-01-25,株式会社マーベルインターナショナル,,株式会社,神奈川県,大和市,大和東２丁目２番１号ワイズビル５Ｆ,,14,213,2420017,,,2023-01-25,登記官による閉鎖,,,2015-10-05,1,,,,,,0
920,4021001046836,登記記録の閉鎖等,0,2023-01-30,2023-01-25,株式会社コーディーコービー,,株式会社,神奈川県,愛甲郡愛川町,田代１８３４－１,,14,401,2430306,,,2023-01-25,登記官による閉鎖,,,2015-10-05,1,,,,,,0
921,4021002009115,登記記録の閉鎖等,0,2023-01-30,2023-01-25,有限会社飯塚石油,,有限会社,神奈川県,藤沢市,藤沢２丁目３番１３号,,14,205,2510052,,,2023-01-25,登記官による閉鎖,,,2015-10-05,1,,,,,,0
922,4021002011120,登記記録の閉鎖等,0,2023-01-30,2023-01-25,有限会社斎藤工業,,有限会社,神奈川県,茅ヶ崎市,浜之郷３１２番地５,,14,207,2530086,,,2023-01-25,登記官による閉鎖,,,2015-10-05,1,,,,,,0
923,4021002012151,登記記録の閉鎖等,0,2023-01-30,2023-01-25,有限会社丸善産業,,有限会社,神奈川県,茅ヶ崎市,東海岸北５丁目６番６号,,14,207,2530053,,,2023-01-25,登記官による閉鎖,,,2015-10-05,1,,,,,,0
924,4021002016400,登記記録の閉鎖等,0,2023-01-30,2023-01-25,有限会社鎌倉新聞社,,有限会社,神奈川県,鎌倉市,坂ノ下８番２３号,,14,204,2480021,,,2023-01-25,登記官による閉鎖,,,2015-10-05,1,,,,,,0
925,4021002021482,登記記録の閉鎖等,0,2023-01-30,2023-01-25,有限会社スタジオ・エイブル,,有限会社,神奈川県,相模原市中央区,緑が丘２丁目３３番４号,,14,152,2520225,,,2023-01-25,登記官による閉鎖,,,2015-10-05,1,,,,,,0
926,4021002024808,登記記録の閉鎖等,0,2023-01-30,2023-01-25,有限会社明立機材,,有限会社,神奈川県,相模原市中央区,東淵野辺４丁目１２番２３号,,14,152,2520203,,,2023-01-25,登記官による閉鎖,,,2015-10-05,1,,,,,,0
927,4021002025574,登記記録の閉鎖等,0,2023-01-30,2023-01-25,有限会社リコー建商,,有限会社,神奈川県,相模原市中央区,弥栄２丁目１８番１４号,,14,152,2520229,,,2023-01-25,登記官による閉鎖,,,2015-10-05,1,,,,,,0
928,4021002030095,登記記録の閉鎖等,0,2023-01-30,2023-01-25,有限会社須田屋商店,,有限会社,神奈川県,相模原市南区,相模台１丁目１４番５号,,14,153,2520321,,,2023-01-25,登記官による閉鎖,,,2015-10-05,1,,,,,,0
929,4021002031465,登記記録の閉鎖等,0,2023-01-30,2023-01-25,有限会社栗原新聞店,,有限会社,神奈川県,厚木市,中町４丁目３番８号,,14,212,2430018,,,2023-01-25,登記官による閉鎖,,,2015-10-05,1,,,,,,0
930,4021002035499,登記記録の閉鎖等,0,2023-01-30,2023-01-25,有限会社アリマコーポレーション,,有限会社,神奈川県,伊勢原市,高森１７７番地の１,,14,214,2591114,,,2023-01-25,登記官による閉鎖,,,2015-10-05,1,,,,,,0
931,4021002039442,登記記録の閉鎖等,0,2023-01-30,2023-01-25,アトリエ山田有限会社,,有限会社,神奈川県,秦野市,鶴巻１６７３番地の３,,14,211,2570007,,,2023-01-25,登記官による閉鎖,,,2015-10-05,1,,,,,,0
932,4021002042693,登記記録の閉鎖等,0,2023-01-30,2023-01-25,大和造園土木有限会社,,有限会社,神奈川県,大和市,下和田８４４番地,,14,213,2420015,,,2023-01-25,登記官による閉鎖,,,2015-10-05,1,,,,,,0
933,4021002043188,登記記録の閉鎖等,0,2023-01-30,2023-01-25,有限会社岩堀商会,,有限会社,神奈川県,座間市,新田宿２９８番地,,14,216,2520026,,,2023-01-25,登記官による閉鎖,,,2015-10-05,1,,,,,,0
934,4021002044285,登記記録の閉鎖等,0,2023-01-30,2023-01-25,有限会社溝田工務店,,有限会社,神奈川県,座間市,ひばりが丘２丁目２２番８号,,14,216,2520003,,,2023-01-25,登記官による閉鎖,,,2015-10-05,1,,,,,,0
935,4021002045424,登記記録の閉鎖等,0,2023-01-30,2023-01-25,有限会社西野設計事務所,,有限会社,神奈川県,海老名市,国分北２丁目７番３３－１０６号,,14,215,2430406,,,2023-01-25,登記官による閉鎖,,,2015-10-05,1,,,,,,0
936,4021002050226,登記記録の閉鎖等,0,2023-01-30,2023-01-25,有限会社福井鉄筋工業所,,有限会社,神奈川県,足柄下郡湯河原町,門川２４１番地,,14,384,2590302,,,2023-01-25,登記官による閉鎖,,,2015-10-05,1,,,,,,0
937,4021002051034,登記記録の閉鎖等,0,2023-01-30,2023-01-25,有限会社岩井鉄筋,,有限会社,神奈川県,小田原市,国府津２丁目７番５号,,14,206,2560812,,,2023-01-25,登記官による閉鎖,,,2015-10-05,1,,,,,,0
938,4021002051224,登記記録の閉鎖等,0,2023-01-30,2023-01-25,有限会社小田原はげ八,,有限会社,神奈川県,小田原市,栄町２丁目９番４６号,,14,206,2500011,,,2023-01-25,登記官による閉鎖,,,2015-10-05,1,,,,,,0
939,4021002053823,登記記録の閉鎖等,0,2023-01-30,2023-01-25,有限会社ヒットコーポレーション,,有限会社,神奈川県,小田原市,酒匂１丁目２番２号,,14,206,2560816,,,2023-01-25,登記官による閉鎖,,,2015-10-05,1,,,,,,0
940,4021002056784,登記記録の閉鎖等,0,2023-01-30,2023-01-25,有限会社伊藤工務店,,有限会社,神奈川県,平塚市,田村７丁目２８番２７号,,14,203,2540013,,,2023-01-25,登記官による閉鎖,,,2015-10-05,1,,,,,,0
941,4021002059259,登記記録の閉鎖等,0,2023-01-30,2023-01-25,有限会社ハルタ眼鏡店,,有限会社,神奈川県,平塚市,紅谷町１２番２０号,,14,203,2540043,,,2023-01-25,登記官による閉鎖,,,2015-10-05,1,,,,,,0
942,4021002059671,登記記録の閉鎖等,0,2023-01-30,2023-01-25,有限会社升水アートプランニング,,有限会社,神奈川県,平塚市,見附町１１－１４,,14,203,2540045,,,2023-01-25,登記官による閉鎖,,,2015-10-05,1,,,,,,0
943,4021002062865,登記記録の閉鎖等,0,2023-01-30,2023-01-25,有限会社井上商店,,有限会社,神奈川県,横須賀市,富士見町３丁目７６番地,,14,201,2380021,,,2023-01-25,登記官による閉鎖,,,2015-10-05,1,,,,,,0
944,4021002063525,登記記録の閉鎖等,0,2023-01-30,2023-01-25,加藤榮子有限会社,,有限会社,神奈川県,横須賀市,根岸町３丁目３番３,,14,201,2390807,,,2023-01-25,登記官による閉鎖,,,2015-10-05,1,,,,,,0
945,4021002068037,登記記録の閉鎖等,0,2023-01-30,2023-01-25,有限会社越後家,,有限会社,神奈川県,逗子市,逗子６丁目４番７号,,14,208,2490006,,,2023-01-25,登記官による閉鎖,,,2015-10-05,1,,,,,,0
946,4021002071049,登記記録の閉鎖等,0,2023-01-30,2023-01-25,有限会社丸信,,有限会社,神奈川県,横須賀市,佐原３丁目３番２１号,,14,201,2390835,,,2023-01-25,登記官による閉鎖,,,2015-10-05,1,,,,,,0
947,4021002073409,登記記録の閉鎖等,0,2023-01-30,2023-01-25,有限会社コジマ,,有限会社,神奈川県,横須賀市,大滝町１丁目２１番地,,14,201,2380008,,,2023-01-25,登記官による閉鎖,,,2018-01-18,1,,,,,,0
948,4021005000129,登記記録の閉鎖等,0,2023-01-30,2023-01-25,藤沢電算センター協同組合,,その他の設立登記法人,神奈川県,藤沢市,藤沢２丁目１番３号湘南商工会館,,14,205,2510052,,,2023-01-25,登記官による閉鎖,,,2015-10-05,1,,,,,,0
949,4021005002926,登記記録の閉鎖等,0,2023-01-30,2023-01-25,神奈川県都市再生事業協同組合,,その他の設立登記法人,神奈川県,相模原市南区,相模大野８丁目５番１０号,,14,153,2520303,,,2023-01-25,登記官による閉鎖,,,2015-10-05,1,,,,,,0
950,4021005008989,登記記録の閉鎖等,0,2023-01-30,2023-01-25,特定非営利活動法人ＤｏｃｈｉＲａｍｏ,,その他の設立登記法人,神奈川県,藤沢市,村岡東３丁目２６番地の１５,,14,205,2510012,,,2023-01-25,登記官による閉鎖,,,2015-10-05,1,,,,,,0
951,4021005011415,登記記録の閉鎖等,0,2023-01-30,2023-01-25,東神商業協同組合,,その他の設立登記法人,神奈川県,相模原市南区,上鶴間本町３丁目１０番８号サンレイビル５階Ａ号,,14,153,2520318,,,2023-01-25,登記官による閉鎖,,,2018-10-05,1,,,,,,0
962,4040001047388,登記記録の閉鎖等,0,2023-01-30,2023-01-26,株式会社羽根井商店,,株式会社,千葉県,四街道市,四街道２丁目５番１６号,,12,228,2840005,,,2023-01-26,清算の結了等,,,2015-10-05,1,,,,,ハネイショウテン,0
972,4040002010171,登記記録の閉鎖等,0,2023-01-30,2023-01-25,有限会社フリースインテリア,,有限会社,千葉県,千葉市若葉区,大宮台７丁目６番１８号,,12,104,2640015,,,2023-01-25,清算の結了等,,,2015-10-05,1,,,,,フリースインテリア,0
1006,4122005000422,登記記録の閉鎖等,0,2023-01-30,2023-01-30,神道大教高良中教会,,その他の設立登記法人,大阪府,東大阪市,太平寺１丁目３番３号,,27,227,5770844,,,2023-01-30,清算の結了等,,,2015-10-05,1,,,,,シントウタイキョウコウラチュウキョウカイ,0
1008,4130001039979,登記記録の閉鎖等,0,2023-01-30,2023-01-25,株式会社上野青果,,株式会社,京都府,京都市下京区,朱雀宝蔵町７３番地１,,26,106,6008846,,,2023-01-25,清算の結了等,,,2015-10-05,1,,,,,,0
1009,4130001048105,登記記録の閉鎖等,0,2023-01-30,2023-01-25,サンケイユニット株式会社,,株式会社,京都府,京都市南区,上鳥羽堀子町３３,,26,107,6018181,,,2023-01-25,清算の結了等,,,2015-10-05,1,,,,,,0
1046,4280002010750,登記記録の閉鎖等,0,2023-01-30,2023-01-26,有限会社オーワン,,有限会社,島根県,益田市,匹見町紙祖イ１１０３番地,,32,204,6981212,,,2023-01-26,清算の結了等,,,2015-10-05,1,,,,,オーワン,0
1081,4380002015896,登記記録の閉鎖等,0,2023-01-30,2023-01-26,ＦＯＶ有限会社,,有限会社,福島県,郡山市,赤木町７番２０号,,07,203,9638006,,,2023-01-26,清算の結了等,,,2015-10-05,1,,,,,エフオーブイ,0
1103,5010001037746,登記記録の閉鎖等,0,2023-01-30,2023-01-23,内山印刷株式会社,,株式会社,東京都,中央区,東日本橋３丁目１２番２号,,13,102,1030004,,,2023-01-23,清算の結了等,,,2015-10-05,1,,,,,ウチヤマインサツ,0
1104,5010001126747,登記記録の閉鎖等,0,2023-01-30,2023-01-24,ウィンゲート株式会社,,株式会社,東京都,千代田区,岩本町３丁目２番１号共同ビル,,13,101,1010032,,,2023-01-24,清算の結了等,,,2015-10-05,1,,,,,ウィンゲート,0
1115,5010003035558,登記記録の閉鎖等,0,2023-01-30,2023-01-23,アスタービッド合同会社,,合同会社,東京都,千代田区,丸の内３丁目１番１号東京共同会計事務所内,,13,101,1000005,,,2023-01-23,清算の結了等,,,2021-08-12,1,,,,,アスタービッド,0
1118,5010402036074,登記記録の閉鎖等,0,2023-01-30,2023-01-12,有限会社エースネット,,有限会社,東京都,港区,新橋２丁目９番１３号,,13,103,1050004,,,2023-01-12,清算の結了等,,,2015-10-05,1,,,,,エースネット,0
1119,5010403019482,登記記録の閉鎖等,0,2023-01-30,2023-01-23,合同会社Ｓｃｏｒｐｉｏｎ,,合同会社,東京都,千代田区,丸の内３丁目１番１号東京共同会計事務所内,,13,101,1000005,,,2023-01-23,清算の結了等,,,2018-10-11,1,,,,,スコーピオン,0
1129,5010901005273,登記記録の閉鎖等,0,2023-01-30,2023-01-27,株式会社シーマウント,,株式会社,東京都,世田谷区,船橋５丁目３０番１５号,,13,112,1560055,,,2023-01-27,登記官による閉鎖,,,2015-10-05,1,,,,,,0
1130,5010901027045,登記記録の閉鎖等,0,2023-01-30,2023-01-27,株式会社アイビービー,,株式会社,東京都,世田谷区,祖師谷３丁目７番７号,,13,112,1570072,,,2023-01-27,登記官による閉鎖,,,2015-10-05,1,,,,,,0
1131,5010901029322,登記記録の閉鎖等,0,2023-01-30,2023-01-27,株式会社ポプラ,,株式会社,東京都,世田谷区,松原１丁目５６番３１号,,13,112,1560043,,,2023-01-27,登記官による閉鎖,,,2015-10-05,1,,,,,,0
1134,5010902002047,登記記録の閉鎖等,0,2023-01-30,2023-01-27,うさぱら有限会社,,有限会社,東京都,世田谷区,上祖師谷３丁目２番３号,,13,112,1570065,,,2023-01-27,登記官による閉鎖,,,2015-10-05,1,,,,,,0
1135,5010902025857,登記記録の閉鎖等,0,2023-01-30,2023-01-27,有限会社ティーメック,,有限会社,東京都,世田谷区,北沢２丁目１７番７号,,13,112,1550031,,,2023-01-27,登記官による閉鎖,,,2015-10-05,1,,,,,,0
1136,5010905001442,登記記録の閉鎖等,0,2023-01-30,2023-01-27,特定非営利活動法人ユニバーサル福祉研究所,,その他の設立登記法人,東京都,世田谷区,経堂５丁目９番８号－１０３,,13,112,1560052,,,2023-01-27,登記官による閉鎖,,,2015-10-05,1,,,,,,0
1138,5011001020031,登記記録の閉鎖等,0,2023-01-30,2023-01-25,株式会社フィールド出版,,株式会社,東京都,渋谷区,本町１丁目２０番２号,,13,113,1510071,,,2023-01-25,清算の結了等,,,2015-10-05,1,,,,,フィールドシュッパン,0
1167,5013301003327,登記記録の閉鎖等,0,2023-01-30,2023-01-30,株式会社菊池寛記念会館,,株式会社,東京都,豊島区,雑司が谷１丁目３２番５号,,13,116,1710032,,,2023-01-30,登記官による閉鎖,,,2015-10-05,1,,,,,,0
1168,5013301006453,登記記録の閉鎖等,0,2023-01-30,2023-01-30,創栄コンサルティング株式会社,,株式会社,東京都,豊島区,巣鴨３丁目２５番１０号千葉ビル,,13,116,1700002,,,2023-01-30,登記官による閉鎖,,,2015-10-05,1,,,,,,0
1169,5013302000265,登記記録の閉鎖等,0,2023-01-30,2023-01-30,有限会社石の吉田,00059985,有限会社,東京都,豊島区,西巣鴨４丁目６番５号,,13,116,1700001,,,2023-01-30,登記官による閉鎖,,,2015-10-05,1,,,,,,0
1170,5013302018737,登記記録の閉鎖等,0,2023-01-30,2023-01-30,有限会社丸富士堂,,有限会社,東京都,豊島区,駒込６丁目２７番１０号,,13,116,1700003,,,2023-01-30,登記官による閉鎖,,,2015-10-05,1,,,,,,0
1171,5013305001104,登記記録の閉鎖等,0,2023-01-30,2023-01-30,特定非営利活動法人全国市民紛争解決支援センター,,その他の設立登記法人,東京都,豊島区,巣鴨３丁目１６番１３号木内ビル２０１号,,13,116,1700002,,,2023-01-30,登記官による閉鎖,,,2015-10-05,1,,,,,,0
1172,5013305001698,登記記録の閉鎖等,0,2023-01-30,2023-01-30,一般社団法人日本地域振興会,,その他の設立登記法人,東京都,豊島区,南長崎４丁目２４番２号,,13,116,1710052,,,2023-01-30,登記官による閉鎖,,,2015-10-05,1,,,,,,0
1181,5021001018231,登記記録の閉鎖等,0,2023-01-30,2023-01-25,シフトファクトリー株式会社,,株式会社,神奈川県,相模原市南区,相武台３丁目２６番１７－１０１号,,14,153,2520324,,,2023-01-25,登記官による閉鎖,,,2015-10-05,1,,,,,,0
1182,5021001030632,登記記録の閉鎖等,0,2023-01-30,2023-01-25,日本仙島金型技術株式会社,,株式会社,神奈川県,座間市,ひばりが丘２丁目７０番３８号,,14,216,2520003,,,2023-01-25,登記官による閉鎖,,,2015-10-05,1,,,,,,0
1183,5021001035037,登記記録の閉鎖等,0,2023-01-30,2023-01-25,株式会社日法警備保障,,株式会社,神奈川県,小田原市,久野３００番地の１浜野ハイツ３０５,,14,206,2500055,,,2023-01-25,登記官による閉鎖,,,2015-10-05,1,,,,,,0
1184,5021001035103,登記記録の閉鎖等,0,2023-01-30,2023-01-25,株式会社住まいるホーム,,株式会社,神奈川県,南足柄市,和田河原６８６番地高田ビル１０２号室,,14,217,2500112,,,2023-01-25,登記官による閉鎖,,,2015-10-05,1,,,,,,0
1185,5021001040326,登記記録の閉鎖等,0,2023-01-30,2023-01-25,株式会社寿屋商会,,株式会社,神奈川県,横須賀市,富士見町１丁目８番地,,14,201,2380021,,,2023-01-25,登記官による閉鎖,,,2015-10-05,1,,,,,,0
1189,5021001073425,登記記録の閉鎖等,0,2023-01-30,2023-01-26,株式会社寝台レスキュー,,株式会社,神奈川県,横浜市中区,千歳町１番２号横浜ＴＨビル５０１号室,,14,104,2310035,,,2023-01-26,清算の結了等,,,2021-07-16,1,,,,,シンダイレスキュー,0
1191,5021002001780,登記記録の閉鎖等,0,2023-01-30,2023-01-25,有限会社小糸商事,,有限会社,神奈川県,藤沢市,大庭５２４４番地の３,,14,205,2510861,,,2023-01-25,登記官による閉鎖,,,2015-10-05,1,,,,,,0
1192,5021002004445,登記記録の閉鎖等,0,2023-01-30,2023-01-25,有限会社藤沢店峰本,,有限会社,神奈川県,藤沢市,辻堂西海岸１丁目２番７号,,14,205,2510046,,,2023-01-25,登記官による閉鎖,,,2015-10-05,1,,,,,,0
1193,5021002011292,登記記録の閉鎖等,0,2023-01-30,2023-01-25,有限会社西湘フーズ,,有限会社,神奈川県,茅ヶ崎市,赤松町５番１４号,,14,207,2530013,,,2023-01-25,登記官による閉鎖,,,2015-10-05,1,,,,,,0
1194,5021002024369,登記記録の閉鎖等,0,2023-01-30,2023-01-25,有限会社マナベ商会,,有限会社,神奈川県,相模原市南区,麻溝台８丁目１２番５号,,14,153,2520328,,,2023-01-25,登記官による閉鎖,,,2015-10-05,1,,,,,,0
1195,5021002026349,登記記録の閉鎖等,0,2023-01-30,2023-01-25,有限会社佐藤電工,,有限会社,神奈川県,相模原市南区,南台１丁目９番１２－１０２号,,14,153,2520314,,,2023-01-25,登記官による閉鎖,,,2015-10-05,1,,,,,,0
1196,5021002030664,登記記録の閉鎖等,0,2023-01-30,2023-01-25,有限会社厚木熊水,,有限会社,神奈川県,厚木市,岡田２丁目６番１０号,,14,212,2430021,,,2023-01-25,登記官による閉鎖,,,2015-10-05,1,,,,,,0
1198,5021002045547,登記記録の閉鎖等,0,2023-01-30,2023-01-25,有限会社ファミリーランチ,,有限会社,神奈川県,海老名市,東柏ケ谷２丁目１２番１６号,,14,215,2430401,,,2023-01-25,登記官による閉鎖,,,2015-10-05,1,,,,,,0
1199,5021002049614,登記記録の閉鎖等,0,2023-01-30,2023-01-25,有限会社エスパーラボ,,有限会社,神奈川県,大和市,西鶴間７丁目１０番２３号,,14,213,2420005,,,2023-01-25,登記官による閉鎖,,,2015-10-05,1,,,,,,0
1200,5021002059191,登記記録の閉鎖等,0,2023-01-30,2023-01-25,有限会社速水製作所,,有限会社,神奈川県,平塚市,寺田縄１７４番地１,,14,203,2591215,,,2023-01-25,登記官による閉鎖,,,2015-10-05,1,,,,,,0
1201,5021002060645,登記記録の閉鎖等,0,2023-01-30,2023-01-25,有限会社守屋造園,,有限会社,神奈川県,中郡大磯町,黒岩４５７番地,,14,341,2590105,,,2023-01-25,登記官による閉鎖,,,2015-10-05,1,,,,,,0
1202,5021002061040,登記記録の閉鎖等,0,2023-01-30,2023-01-25,有限会社光栄製作所,,有限会社,神奈川県,平塚市,下島６５７番地の１,,14,203,2540003,,,2023-01-25,登記官による閉鎖,,,2015-10-05,1,,,,,,0
1203,5021002066790,登記記録の閉鎖等,0,2023-01-30,2023-01-25,有限会社本多宅建商事,,有限会社,神奈川県,横須賀市,浦賀６丁目６番１号,,14,201,2390822,,,2023-01-25,登記官による閉鎖,,,2015-10-05,1,,,,,,0
1205,5021002072789,登記記録の閉鎖等,0,2023-01-30,2023-01-25,やまいち商事有限会社,,有限会社,神奈川県,相模原市中央区,矢部３丁目３番１３号,,14,152,2520232,,,2023-01-25,登記官による閉鎖,,,2015-10-05,1,,,,,,0
1206,5021005001563,登記記録の閉鎖等,0,2023-01-30,2023-01-25,協同組合茅ヶ崎つるみね商店会,,その他の設立登記法人,神奈川県,茅ヶ崎市,矢畑２６２番地２,,14,207,2530085,,,2023-01-25,登記官による閉鎖,,,2015-10-05,1,,,,,,0
1208,5030001121226,登記記録の閉鎖等,0,2023-01-30,2023-01-25,ＮＥＸＴ　ＳＴＡＮＤＡＲＤ株式会社,,株式会社,東京都,豊島区,上池袋３丁目３２番４号,,13,116,1700012,,,2023-01-25,合併による解散等,4011201020897,令和４年１２月２８日東京都立川市高松町二丁目１１番１７号株式会社Ｄ．Ａ．Ｉ（4011201020897）に合併し解散,2017-07-11,1,,,,,ネクストスタンダード,0
1225,5040001040251,登記記録の閉鎖等,0,2023-01-30,2023-01-25,株式会社松本測量設計事務所,,株式会社,千葉県,松戸市,幸田３丁目１４２番地３,,12,207,2700001,,,2023-01-25,清算の結了等,,,2015-10-05,1,,,,,マツモトソクリョウセッケイジムショ,0
1227,5040001098744,登記記録の閉鎖等,0,2023-01-30,2023-01-25,株式会社菊丸,,株式会社,東京都,江東区,亀戸１丁目２５番６号鈴佐ビル３０１,,13,108,1360071,,,2023-01-25,合併による解散等,4011201020897,令和４年１２月２８日東京都立川市高松町二丁目１１番１７号株式会社Ｄ．Ａ．Ｉ（4011201020897）に合併し解散,2017-02-08,1,,,,,キクマル,0
1235,5050001043872,登記記録の閉鎖等,0,2023-01-30,2023-01-20,栄総業株式会社,,株式会社,茨城県,つくばみらい市,山王新田１３９６番地３,,08,235,3002332,,,2023-01-20,清算の結了等,,,2018-01-15,1,,,,,サカエソウギョウ,0
1245,5080401013621,登記記録の閉鎖等,0,2023-01-30,2023-01-26,株式会社第七天,,株式会社,静岡県,浜松市中区,曳馬６丁目１９番１１号,,22,131,4300901,,,2023-01-26,清算の結了等,,,2015-10-05,1,,,,,ダイナナテン,0
1252,5110001015873,登記記録の閉鎖等,0,2023-01-30,2023-01-26,株式会社ジャパンマーテン,,株式会社,新潟県,燕市,松橋１９８番地１,,15,213,9591202,,,2023-01-26,清算の結了等,,,2015-10-05,1,,,,,ジャパンマーテン,0
1254,5120001170726,登記記録の閉鎖等,0,2023-01-30,2023-01-27,株式会社湧輝ロジスティック,,株式会社,大阪府,大阪市住之江区,柴谷２丁目１番４５号,,27,125,5590021,,,2023-01-27,清算の結了等,,,2015-10-05,1,,,,,,0
1278,5120901038163,登記記録の閉鎖等,0,2023-01-30,2023-01-26,株式会社建昇,,株式会社,大阪府,大阪市西淀川区,野里１丁目７番２０－３０２号,,27,113,5550024,,,2023-01-26,清算の結了等,,,2017-03-10,1,,,,,ケンショウ,0
1285,5130002005731,登記記録の閉鎖等,0,2023-01-30,2023-01-26,有限会社ティオ,,有限会社,京都府,京都市左京区,浄土寺南田町１４１番地の８,,26,103,6068403,,,2023-01-26,清算の結了等,,,2015-10-05,1,,,,,ティオ,0
1287,5140001093990,登記記録の閉鎖等,0,2023-01-30,2023-01-27,株式会社ドアツウドア神戸,,株式会社,兵庫県,神戸市長田区,若松町１丁目３番３号,,28,106,6530038,,,2023-01-27,清算の結了等,,,2015-10-05,1,,,,,ドアツウドアコウベ,0
1306,5180002073550,登記記録の閉鎖等,0,2023-01-30,2023-01-24,有限会社フォーメルリーベン,,有限会社,愛知県,瀬戸市,西山町１丁目６３番地の１,,23,204,4890987,,,2023-01-24,清算の結了等,,,2015-10-05,1,,,,,フォーメルリーベン,0
1314,5240001000111,登記記録の閉鎖等,0,2023-01-30,2023-01-11,イー・アンド・シー・テクノロジー株式会社,,株式会社,高知県,高知市,仁井田４５６３番地１,,39,201,7810112,,,2023-01-11,合併による解散等,5011001008712,令和５年１月１日東京都中央区日本橋馬喰町二丁目２番１２号株式会社サイネット（5011001008712）に合併し解散,2015-10-05,1,,,,,イーアンドシーテクノロジー,0
1317,5240002045394,登記記録の閉鎖等,0,2023-01-30,2023-01-25,有限会社ロウリン,,有限会社,広島県,福山市,川口町４丁目２０番１２号,,34,207,7200822,,,2023-01-25,清算の結了等,,,2015-10-05,1,,,,,ロウリン,0
1320,5250002010430,登記記録の閉鎖等,0,2023-01-30,2023-01-26,有限会社ノエビア鞍手第一販売,,有限会社,山口県,下関市,小月宮の町８番１８号,,35,201,7501132,,,2023-01-26,清算の結了等,,,2015-10-05,1,,,,,ノエビアクラテダイイチハンバイ,0
1336,5290801018273,登記記録の閉鎖等,0,2023-01-30,2023-01-24,株式会社ほうむパートナー,,株式会社,福岡県,北九州市小倉南区,徳力２丁目９番１５号,,40,107,8020974,,,2023-01-24,清算の結了等,,,2015-10-05,1,,,,,ホウムパートナー,0
1337,5290802023108,登記記録の閉鎖等,0,2023-01-30,2023-01-26,有限会社中野木材,,有限会社,福岡県,京都郡みやこ町,勝山岩熊２０６番地,,40,625,8240817,,,2023-01-26,清算の結了等,,,2015-10-05,1,,,,,ナカノモクザイ,0
1352,5340002022268,登記記録の閉鎖等,0,2023-01-30,2023-01-27,有限会社大田水産,,有限会社,鹿児島県,阿久根市,波留６１３７番地６６,,46,206,8991625,,,2023-01-27,清算の結了等,,,2015-10-05,1,,,,,,0
1361,5390001010871,登記記録の閉鎖等,0,2023-01-30,2023-01-24,株式会社プレパラシオン,,株式会社,山形県,米沢市,松が岬２丁目６番６５号,,06,202,9920053,,,2023-01-24,清算の結了等,,,2015-10-05,1,,,,,プレパラシオン,0
1392,6010003016499,登記記録の閉鎖等,0,2023-01-30,2023-01-25,合同会社ＴＲ－Ｘ,,合同会社,東京都,千代田区,丸の内３丁目１番１号東京共同会計事務所内,,13,101,1000005,,,2023-01-25,清算の結了等,,,2015-10-05,1,,,,,ティーアールエックス,0
1397,6010005003611,登記記録の閉鎖等,0,2023-01-30,2023-01-25,財団法人日本金属造型振興会,,その他の設立登記法人,神奈川県,鎌倉市,大町３丁目２０番１１号,,14,204,2480007,,,2023-01-25,登記官による閉鎖,,,2015-10-05,1,,,,,,0
1403,6010401149628,登記記録の閉鎖等,0,2023-01-30,2023-01-12,パーソルプロフェッショナルアウトソーシング株式会社,,株式会社,東京都,港区,南青山１丁目１５番５号,,13,103,1070062,,,2023-01-12,合併による解散等,3180001032055,令和５年１月１日名古屋市中区栄三丁目１８番１号パーソルＲ＆Ｄ株式会社（3180001032055）に合併し解散,2019-12-06,1,,,,,パーソルプロフェッショナルアウトソーシング,0
1406,6010403020266,登記記録の閉鎖等,0,2023-01-30,2023-01-13,ＱＵＡＮＴＵＭ　ＥＮＧＩＮＥＥＲＩＮＧ合同会社,,合同会社,東京都,港区,西麻布２丁目２４番１１号麻布ウエストビル２階,,13,103,1060031,,,2023-01-13,清算の結了等,,,2019-03-06,1,,,,,クアンタムエンジニアリング,0
1407,6010403023772,登記記録の閉鎖等,0,2023-01-30,2023-01-23,合同会社Ｓａｂｏｔ,,合同会社,東京都,千代田区,丸の内３丁目１番１号東京共同会計事務所内,,13,101,1000005,,,2023-01-23,清算の結了等,,,2020-09-25,1,,,,,サボット,0
1414,6010601046690,登記記録の閉鎖等,0,2023-01-30,2023-01-24,ヒラキ縫製株式会社,,株式会社,東京都,墨田区,業平２丁目１４番９号,,13,107,1300002,,,2023-01-24,清算の結了等,,,2015-10-05,1,,,,,ヒラキホウセイ,0
1416,6010703003813,登記記録の閉鎖等,0,2023-01-30,2023-01-11,よつば管財合同会社,,合同会社,東京都,中央区,日本橋兜町１７番２号兜町第６葉山ビル４階,,13,102,1030026,,,2023-01-11,合併による解散等,6040003011051,令和５年１月１日千葉市中央区富士見二丁目７番９号富士見ビル６０９号みのりファーム合同会社（6040003011051）に合併し解散,2017-09-08,1,,,,,ヨツバカンザイ,0
1420,6010901000488,登記記録の閉鎖等,0,2023-01-30,2023-01-27,浅野建設株式会社,,株式会社,東京都,世田谷区,池尻２丁目１０番８号,,13,112,1540001,,,2023-01-27,登記官による閉鎖,,,2015-10-05,1,,,,,,0
1421,6010901000703,登記記録の閉鎖等,0,2023-01-30,2023-01-27,アビス株式会社,,株式会社,東京都,世田谷区,代田６丁目１０番２－２０３号,,13,112,1550033,,,2023-01-27,登記官による閉鎖,,,2015-10-05,1,,,,,,0
1422,6010901005314,登記記録の閉鎖等,0,2023-01-30,2023-01-27,株式会社仁工房,,株式会社,東京都,世田谷区,八幡山２丁目１１番９号,,13,112,1560056,,,2023-01-27,登記官による閉鎖,,,2015-10-05,1,,,,,,0
1423,6010901013770,登記記録の閉鎖等,0,2023-01-30,2023-01-27,Ｂｅコレクション株式会社,,株式会社,東京都,世田谷区,桜丘５丁目２６番１４号,,13,112,1560054,,,2023-01-27,登記官による閉鎖,,,2015-10-05,1,,,,,,0
1424,6010901016773,登記記録の閉鎖等,0,2023-01-30,2023-01-27,株式会社カーネルコンサルティング,,株式会社,東京都,世田谷区,駒沢３丁目２６番１０号,,13,112,1540012,,,2023-01-27,登記官による閉鎖,,,2015-10-05,1,,,,,,0
1425,6010901020370,登記記録の閉鎖等,0,2023-01-30,2023-01-27,株式会社映像探偵社,,株式会社,東京都,世田谷区,北沢１丁目９番１１号,,13,112,1550031,,,2023-01-27,登記官による閉鎖,,,2015-10-05,1,,,,,,0
1426,6010901027283,登記記録の閉鎖等,0,2023-01-30,2023-01-27,株式会社ＭＡＭＩＥ　Ｐｒｏｄｕｃｔｉｏｎｓ,,株式会社,東京都,世田谷区,駒沢１丁目２番５号,,13,112,1540012,,,2023-01-27,登記官による閉鎖,,,2015-10-05,1,,,,,,0
1427,6010901030246,登記記録の閉鎖等,0,2023-01-30,2023-01-27,ＨＡ＆Ｍパートナーズ株式会社,,株式会社,東京都,世田谷区,用賀４丁目１０番１号,,13,112,1580097,,,2023-01-27,登記官による閉鎖,,,2015-10-05,1,,,,,,0
1430,6010902007053,登記記録の閉鎖等,0,2023-01-30,2023-01-27,有限会社シーアールエヌ,,有限会社,東京都,世田谷区,松原４丁目１９番２号,,13,112,1560043,,,2023-01-27,登記官による閉鎖,,,2015-10-05,1,,,,,,0
1432,6010902011600,登記記録の閉鎖等,0,2023-01-30,2023-01-27,有限会社ネクスト,,有限会社,東京都,世田谷区,池尻３丁目２１番２６号ルミエール池尻３０２号室,,13,112,1540001,,,2023-01-27,登記官による閉鎖,,,2015-10-05,1,,,,,,0
1466,6012401014381,登記記録の閉鎖等,0,2023-01-30,2023-01-23,株式会社日本観賞魚センター,,株式会社,東京都,世田谷区,北烏山６丁目９番１５号,,13,112,1570061,,,2023-01-23,清算の結了等,,,2015-10-05,1,,,,,ニホンカンショウギョセンター,0
1471,6012805000366,登記記録の閉鎖等,0,2023-01-30,2023-01-12,天理教昭島市分教会,,その他の設立登記法人,東京都,昭島市,朝日町３丁目４番５号,,13,207,1960025,,,2023-01-12,合併による解散等,8010905000409,令和５年１月４日東京都世田谷区八幡山三丁目１０番３号天理教八幡山分教会（8010905000409）に合併し解散,2015-10-05,1,,,,,テンリキョウアキシマシブンキョウカイ,0
1473,6013301030031,登記記録の閉鎖等,0,2023-01-30,2023-01-30,株式会社ユープランニング,,株式会社,東京都,豊島区,池袋本町１丁目７番１２号,,13,116,1700011,,,2023-01-30,登記官による閉鎖,,,2015-10-05,1,,,,,,0
1474,6013301031112,登記記録の閉鎖等,0,2023-01-30,2023-01-30,株式会社ドリーム,,株式会社,東京都,豊島区,巣鴨２丁目５番９号,,13,116,1700002,,,2023-01-30,登記官による閉鎖,,,2015-10-05,1,,,,,,0
1475,6013301031194,登記記録の閉鎖等,0,2023-01-30,2023-01-30,株式会社Ｄｒｅａｍ,,株式会社,東京都,豊島区,池袋本町１丁目１３番４号,,13,116,1700011,,,2023-01-30,登記官による閉鎖,,,2015-10-05,1,,,,,,0
1476,6013302007128,登記記録の閉鎖等,0,2023-01-30,2023-01-30,有限会社とんかつとんぼ,,有限会社,東京都,豊島区,西池袋３丁目２３番５号,,13,116,1710021,,,2023-01-30,登記官による閉鎖,,,2015-10-05,1,,,,,,0
1477,6013305000864,登記記録の閉鎖等,0,2023-01-30,2023-01-30,特定非営利活動法人東京国際福祉交流事業団,,その他の設立登記法人,東京都,豊島区,池袋２丁目２３番２３号白鳥ハイツ２０２号,,13,116,1710014,,,2023-01-30,登記官による閉鎖,,,2015-10-05,1,,,,,,0
1478,6013305001177,登記記録の閉鎖等,0,2023-01-30,2023-01-30,特定非営利活動法人日本ドッグライフ協会,,その他の設立登記法人,東京都,豊島区,池袋１丁目１６番２０－４０１号,,13,116,1700014,,,2023-01-30,登記官による閉鎖,,,2015-10-05,1,,,,,,0
1484,6021001027652,登記記録の閉鎖等,0,2023-01-30,2023-01-25,大和カーゴシステム株式会社,,株式会社,神奈川県,綾瀬市,寺尾本町１丁目１７番８号,,14,218,2521133,,,2023-01-25,登記官による閉鎖,,,2015-10-05,1,,,,,,0
1485,6021001030029,登記記録の閉鎖等,0,2023-01-30,2023-01-25,株式会社プライムクルー,,株式会社,神奈川県,大和市,中央林間４丁目５番１９号,,14,213,2420007,,,2023-01-25,登記官による閉鎖,,,2015-10-05,1,,,,,,0
1486,6021001032231,登記記録の閉鎖等,0,2023-01-30,2023-01-25,株式会社ラムダ,,株式会社,神奈川県,足柄下郡箱根町,湯本４６２番地,,14,382,2500311,,,2023-01-25,登記官による閉鎖,,,2015-10-05,1,,,,,,0
1487,6021001032462,登記記録の閉鎖等,0,2023-01-30,2023-01-25,オーラ株式会社,,株式会社,神奈川県,小田原市,本町２丁目３番２４号,,14,206,2500012,,,2023-01-25,登記官による閉鎖,,,2015-10-05,1,,,,,,0
1488,6021001040119,登記記録の閉鎖等,0,2023-01-30,2023-01-25,株式会社カントウ,,株式会社,神奈川県,横須賀市,小矢部３丁目７番９号,,14,201,2380026,,,2023-01-25,登記官による閉鎖,,,2015-10-05,1,,,,,,0
1491,6021002008684,登記記録の閉鎖等,0,2023-01-30,2023-01-25,有限会社鐵,,有限会社,神奈川県,藤沢市,高倉２１７３番地の２,,14,205,2520802,,,2023-01-25,登記官による閉鎖,,,2015-10-05,1,,,,,,0
1492,6021002008949,登記記録の閉鎖等,0,2023-01-30,2023-01-25,有限会社タカギファーム,,有限会社,神奈川県,藤沢市,本鵠沼５丁目８番２５号,,14,205,2510028,,,2023-01-25,登記官による閉鎖,,,2015-10-05,1,,,,,,0
1493,6021002010194,登記記録の閉鎖等,0,2023-01-30,2023-01-25,有限会社伊藤工業,,有限会社,神奈川県,茅ヶ崎市,堤２７８３番地２,,14,207,2530006,,,2023-01-25,登記官による閉鎖,,,2015-10-05,1,,,,,,0
1494,6021002019723,登記記録の閉鎖等,0,2023-01-30,2023-01-25,有限会社倉本左官工業,,有限会社,神奈川県,相模原市中央区,矢部１丁目１６番１０号,,14,152,2520232,,,2023-01-25,登記官による閉鎖,,,2015-10-05,1,,,,,,0
1495,6021002026240,登記記録の閉鎖等,0,2023-01-30,2023-01-25,有限会社ヤマナ,,有限会社,神奈川県,相模原市南区,新磯野１丁目２５番１－４０３号,,14,153,2520325,,,2023-01-25,登記官による閉鎖,,,2015-10-05,1,,,,,,0
1497,6021002032362,登記記録の閉鎖等,0,2023-01-30,2023-01-25,有限会社タカハシ住装,,有限会社,神奈川県,厚木市,岡田３丁目４番３４号,,14,212,2430021,,,2023-01-25,登記官による閉鎖,,,2015-10-05,1,,,,,,0
1498,6021002041009,登記記録の閉鎖等,0,2023-01-30,2023-01-25,有限会社三商製作所,,有限会社,神奈川県,大和市,下和田１２６２番地の１１,,14,213,2420015,,,2023-01-25,登記官による閉鎖,,,2015-10-05,1,,,,,,0
1499,6021002052385,登記記録の閉鎖等,0,2023-01-30,2023-01-25,有限会社高匠工務店,,有限会社,神奈川県,南足柄市,沼田５５５番地３,,14,217,2500115,,,2023-01-25,登記官による閉鎖,,,2015-10-05,1,,,,,,0
1500,6021002055231,登記記録の閉鎖等,0,2023-01-30,2023-01-25,有限会社とろしょう,,有限会社,神奈川県,足柄上郡松田町,松田惣領１３３９番地１,,14,363,2580003,,,2023-01-25,登記官による閉鎖,,,2015-10-05,1,,,,,,0
1501,6021002055768,登記記録の閉鎖等,0,2023-01-30,2023-01-25,有限会社佐藤歯科補綴研究所,,有限会社,神奈川県,足柄上郡山北町,湯触３８１番地の２,,14,364,2580123,,,2023-01-25,登記官による閉鎖,,,2015-10-05,1,,,,,,0
1502,6021002058548,登記記録の閉鎖等,0,2023-01-30,2023-01-25,有限会社ダイエー住建,,有限会社,神奈川県,平塚市,中堂１２番３２号,,14,203,2540026,,,2023-01-25,登記官による閉鎖,,,2015-10-05,1,,,,,,0
1503,6021002060917,登記記録の閉鎖等,0,2023-01-30,2023-01-25,原鉄製綿工業有限会社,,有限会社,神奈川県,中郡二宮町,二宮９０６番地イ号,,14,342,2590123,,,2023-01-25,登記官による閉鎖,,,2015-10-05,1,,,,,,0
1504,6021002061163,登記記録の閉鎖等,0,2023-01-30,2023-01-25,有限会社エミネント,,有限会社,神奈川県,平塚市,万田４２９番地,,14,203,2540913,,,2023-01-25,登記官による閉鎖,,,2015-10-05,1,,,,,,0
1505,6021002065115,登記記録の閉鎖等,0,2023-01-30,2023-01-25,有限会社スピックコーポレーション,,有限会社,神奈川県,横須賀市,浦賀３丁目９番２号,,14,201,2390822,,,2023-01-25,登記官による閉鎖,,,2015-10-05,1,,,,,,0
1506,6021002070164,登記記録の閉鎖等,0,2023-01-30,2023-01-25,有限会社ミクロテック,,有限会社,神奈川県,逗子市,桜山６丁目１２番１３号,,14,208,2490005,,,2023-01-25,登記官による閉鎖,,,2015-10-05,1,,,,,,0
1507,6021002071880,登記記録の閉鎖等,0,2023-01-30,2023-01-25,有限会社山正水産,,有限会社,神奈川県,三浦市,南下浦町金田２８１番地の５,,14,210,2380103,,,2023-01-25,登記官による閉鎖,,,2015-10-05,1,,,,,,0
1510,6021005000143,登記記録の閉鎖等,0,2023-01-30,2023-01-25,協同組合藤沢市設計監理協会,,その他の設立登記法人,神奈川県,藤沢市,鵠沼石上１丁目１３番１３号藤沢共同ビル２０１号,,14,205,2510025,,,2023-01-25,登記官による閉鎖,,,2015-10-05,1,,,,,,0
1511,6021005003195,登記記録の閉鎖等,0,2023-01-30,2023-01-25,特定非営利活動法人藤野シュタイナー高等学園,,その他の設立登記法人,神奈川県,相模原市緑区,名倉２８００番地８,,14,151,2520187,,,2023-01-25,登記官による閉鎖,,,2015-10-05,1,,,,,,0
1512,6021005012213,登記記録の閉鎖等,0,2023-01-30,2023-01-25,神奈川プロパンガス容器検査協同組合,,その他の設立登記法人,神奈川県,海老名市,杉久保南４丁目３８番１号,,14,215,2430427,,,2023-01-25,登記官による閉鎖,,,2021-05-24,1,,,,,カナガワプロパンガスヨウキケンサ,0
1514,6030001009107,登記記録の閉鎖等,0,2023-01-30,2023-01-26,株式会社ロイヤルホーム,,株式会社,埼玉県,さいたま市見沼区,大和田町１丁目９１６番地３,,11,104,3370053,,,2023-01-26,清算の結了等,,,2015-10-05,1,,,,,ロイヤルホーム,0
1529,6040002064637,登記記録の閉鎖等,0,2023-01-30,2023-01-18,有限会社糧研,,有限会社,千葉県,佐倉市,宮小路町７２番地１,,12,212,2850016,,,2023-01-18,清算の結了等,,,2015-10-05,1,,,,,リョウケン,0
1538,6050002016364,登記記録の閉鎖等,0,2023-01-30,2023-01-23,有限会社シラト・プランニング,,有限会社,茨城県,石岡市,若松２丁目１０番２９号,,08,205,3150018,,,2023-01-23,清算の結了等,,,2015-10-05,1,,,,,シャシラトプランニング,0
1541,6080001024695,登記記録の閉鎖等,0,2023-01-30,2023-01-27,株式会社ＩＳプランニング,,株式会社,静岡県,静岡市駿河区,丸子６２７１番地の６０,,22,102,4210103,,,2023-01-27,清算の結了等,,,2022-01-18,1,,,,,アイエスプランニング,0
1564,6120102010680,登記記録の閉鎖等,0,2023-01-30,2023-01-26,有限会社なかふじ,,有限会社,大阪府,堺市北区,百舌鳥本町３丁４９５番地,,27,146,5918036,,,2023-01-26,清算の結了等,,,2015-10-05,1,,,,,ナカフジ,0
1581,6180001110287,登記記録の閉鎖等,0,2023-01-30,2023-01-25,株式会社岡本,,株式会社,愛知県,名古屋市名東区,香流１丁目１４０７番地ＭａｓｔＴｏｗｎさくら３０２号,,23,115,4650005,,,2023-01-25,清算の結了等,,,2015-10-05,1,,,,,オカモト,0
1590,6220002002594,登記記録の閉鎖等,0,2023-01-30,2023-01-10,有限会社越野地所,,有限会社,石川県,金沢市,彦三町２丁目５番３０号,,17,201,9200901,,,2023-01-10,合併による解散等,1220001006700,令和５年１月１日石川県金沢市彦三町二丁目５番３０号丸喜硝子建材株式会社（1220001006700）に合併し解散,2015-10-05,1,,,,,コシノジショ,0
1597,6250001009349,登記記録の閉鎖等,0,2023-01-30,2023-01-26,株式会社山崎孫吉商店,,株式会社,山口県,周南市,沖見町２丁目３０番地,,35,215,7450051,,,2023-01-26,清算の結了等,,,2015-10-05,1,,,,,ヤマサキマゴキチショウテン,0
1614,6340005006465,登記記録の閉鎖等,0,2023-01-30,2023-01-27,医療法人貴島歯科医院,,その他の設立登記法人,鹿児島県,鹿屋市,札元１丁目２４番９号,,46,203,8930013,,,2023-01-27,清算の結了等,,,2015-10-05,1,,,,,キジマシカイイン,0
1618,6370003005111,登記記録の閉鎖等,0,2023-01-30,2023-01-27,合同会社大福,,合同会社,宮城県,仙台市青葉区,花京院２丁目２番６８号高橋ビル４０３号室,,04,101,9800013,,,2023-01-27,清算の結了等,,,2021-02-15,1,,,,,ダイフク,0
1628,6390001010615,登記記録の閉鎖等,0,2023-01-30,2023-01-26,三幸商事株式会社,,株式会社,山形県,南陽市,椚塚１６１３番地１,,06,213,9992221,,,2023-01-26,清算の結了等,,,2015-10-05,1,,,,,サンコウショウジ,0
1693,7010701018250,登記記録の閉鎖等,0,2023-01-30,2023-01-19,ＨＴ企画株式会社,,株式会社,東京都,品川区,南品川１丁目９番１５号,,13,109,1400004,,,2023-01-19,清算の結了等,,,2015-10-05,1,,,,,エイチティキカク,0
1696,7010901018728,登記記録の閉鎖等,0,2023-01-30,2023-01-27,株式会社神商,,株式会社,東京都,世田谷区,下馬６丁目３０番１５号,,13,112,1540002,,,2023-01-27,登記官による閉鎖,,,2015-10-05,1,,,,,,0
1697,7010901026607,登記記録の閉鎖等,0,2023-01-30,2023-01-27,株式会社ビーンストーク代官山,,株式会社,東京都,世田谷区,桜丘５丁目２６番１４号,,13,112,1560054,,,2023-01-27,登記官による閉鎖,,,2015-10-05,1,,,,,,0
1698,7010901038115,登記記録の閉鎖等,0,2023-01-30,2023-01-26,ＺＥＮ管財株式会社,,株式会社,東京都,世田谷区,桜新町１丁目４１番１４－５０３号,,13,112,1540015,,,2023-01-26,合併による解散等,5011001071900,令和５年１月１日東京都港区六本木一丁目６番１号泉ガーデンタワー１０階株式会社アクティスコーポレーション（5011001071900）に合併し解散,2016-05-13,1,,,,,ゼンカンザイ,0
1699,7010902000024,登記記録の閉鎖等,0,2023-01-30,2023-01-27,有限会社アイ・エス・エー,,有限会社,東京都,世田谷区,三軒茶屋２丁目１５番１２号シャンボール三軒茶屋３１０,,13,112,1540024,,,2023-01-27,登記官による閉鎖,,,2015-10-05,1,,,,,,0
1700,7010902002284,登記記録の閉鎖等,0,2023-01-30,2023-01-27,有限会社エイチ・アンド・ピー,,有限会社,東京都,世田谷区,玉川１丁目３番１９号,,13,112,1580094,,,2023-01-27,登記官による閉鎖,,,2015-10-05,1,,,,,,0
1701,7010902004041,登記記録の閉鎖等,0,2023-01-30,2023-01-27,有限会社片岡保温興業所,,有限会社,東京都,世田谷区,用賀２丁目３３番７号,,13,112,1580097,,,2023-01-27,登記官による閉鎖,,,2015-10-05,1,,,,,,0
1702,7010902010980,登記記録の閉鎖等,0,2023-01-30,2023-01-27,有限会社鳥八,,有限会社,東京都,世田谷区,経堂１丁目１２番６号,,13,112,1560052,,,2023-01-27,登記官による閉鎖,,,2015-10-05,1,,,,,,0
1703,7010902016607,登記記録の閉鎖等,0,2023-01-30,2023-01-27,有限会社ロイドアンドロイド,,有限会社,東京都,世田谷区,祖師谷１丁目１１番７号,,13,112,1570072,,,2023-01-27,登記官による閉鎖,,,2015-10-05,1,,,,,,0
1704,7010903001500,登記記録の閉鎖等,0,2023-01-30,2023-01-27,合同会社かわうそ兄弟商會,,合同会社,東京都,世田谷区,深沢２丁目１番６－３０２号,,13,112,1580081,,,2023-01-27,登記官による閉鎖,,,2015-10-05,1,,,,,,0
1705,7010905001275,登記記録の閉鎖等,0,2023-01-30,2023-01-27,特定非営利活動法人音の文化研究会,,その他の設立登記法人,東京都,世田谷区,千歳台５丁目８番３５号リバーフィールド廻沢２０５号室,,13,112,1570071,,,2023-01-27,登記官による閉鎖,,,2015-10-05,1,,,,,,0
1706,7010905001523,登記記録の閉鎖等,0,2023-01-30,2023-01-27,特定非営利活動法人国際共生推進センター,,その他の設立登記法人,東京都,世田谷区,下馬２丁目５番６号,,13,112,1540002,,,2023-01-27,登記官による閉鎖,,,2015-10-05,1,,,,,,0
1707,7010905001944,登記記録の閉鎖等,0,2023-01-30,2023-01-27,特定非営利活動法人ピープルアクティブクラブ東京,,その他の設立登記法人,東京都,世田谷区,下馬６丁目５４番３号,,13,112,1540002,,,2023-01-27,登記官による閉鎖,,,2015-10-05,1,,,,,,0
1724,7011101070255,登記記録の閉鎖等,0,2023-01-30,2023-01-25,株式会社オペラダイニング,,株式会社,東京都,新宿区,西新宿７丁目２０番１６号,,13,104,1600023,,,2023-01-25,合併による解散等,4011201020897,令和４年１２月２８日東京都立川市高松町二丁目１１番１７号株式会社Ｄ．Ａ．Ｉ（4011201020897）に合併し解散,2015-10-05,1,,,,,オペラダイニング,0
1732,7011601003441,登記記録の閉鎖等,0,2023-01-30,2023-01-25,株式会社寿々喜,,株式会社,東京都,練馬区,関町北３丁目２番４号,,13,120,1770051,,,2023-01-25,清算の結了等,,,2015-10-05,1,,,,,スズキ,0
1735,7011703000064,登記記録の閉鎖等,0,2023-01-30,2023-01-27,合資会社秋元建築材料店,,合資会社,東京都,江戸川区,西小岩３丁目２番１５号,,13,123,1330057,,,2023-01-27,清算の結了等,,,2015-10-05,1,,,,,アキモトケンチクザイリョウテン,0
1742,7013301003911,登記記録の閉鎖等,0,2023-01-30,2023-01-30,国際企画開発株式会社,,株式会社,東京都,豊島区,南大塚３丁目４２番９号,00066825,13,116,1700005,,,2023-01-30,登記官による閉鎖,,,2015-10-05,1,,,,,,0
1743,7013305000938,登記記録の閉鎖等,0,2023-01-30,2023-01-30,特定非営利活動法人社会福祉創生協会,,その他の設立登記法人,東京都,豊島区,池袋本町３丁目２０番２号,,13,116,1700011,,,2023-01-30,登記官による閉鎖,,,2015-10-05,1,,,,,,0
1744,7013305001110,登記記録の閉鎖等,0,2023-01-30,2023-01-30,協同組合国際行政書士センター,,その他の設立登記法人,東京都,豊島区,巣鴨３丁目１６番１３号木内ビル,,13,116,1700002,,,2023-01-30,登記官による閉鎖,,,2015-10-05,1,,,,,,0
1745,7013305001176,登記記録の閉鎖等,0,2023-01-30,2023-01-30,特定非営利活動法人パワー・チャイルド・ジャパン,,その他の設立登記法人,東京都,豊島区,東池袋３丁目１１番９号下総屋ビル４０１号室,,13,116,1700013,,,2023-01-30,登記官による閉鎖,,,2015-10-05,1,,,,,,0
1753,7021001001805,登記記録の閉鎖等,0,2023-01-30,2023-01-25,株式会社光電設,,株式会社,神奈川県,藤沢市,用田２８０４番地の１６,,14,205,2520821,,,2023-01-25,登記官による閉鎖,,,2015-10-05,1,,,,,,0
1754,7021001011374,登記記録の閉鎖等,0,2023-01-30,2023-01-25,株式会社エイ・ケン,,株式会社,神奈川県,相模原市南区,上鶴間本町２丁目１２番３６号,,14,153,2520318,,,2023-01-25,登記官による閉鎖,,,2015-10-05,1,,,,,,0
1755,7021001011738,登記記録の閉鎖等,0,2023-01-30,2023-01-25,株式会社かみくら企画,,株式会社,神奈川県,相模原市中央区,相模原６丁目１３番１４号３０１,,14,152,2520231,,,2023-01-25,登記官による閉鎖,,,2015-10-05,1,,,,,,0
1756,7021001012769,登記記録の閉鎖等,0,2023-01-30,2023-01-25,株式会社善行商事,,株式会社,神奈川県,相模原市中央区,青葉３丁目１６番２号,,14,152,2520224,,,2023-01-25,登記官による閉鎖,,,2015-10-05,1,,,,,,0
1757,7021001014303,登記記録の閉鎖等,0,2023-01-30,2023-01-25,株式会社ユニック,,株式会社,神奈川県,相模原市緑区,下九沢１４５４番地,,14,151,2520134,,,2023-01-25,登記官による閉鎖,,,2015-10-05,1,,,,,,0
1758,7021001016522,登記記録の閉鎖等,0,2023-01-30,2023-01-25,株式会社テクニカルアート,,株式会社,神奈川県,相模原市中央区,田名２９４６番地１６,,14,152,2520244,,,2023-01-25,登記官による閉鎖,,,2015-10-05,1,,,,,,0
1759,7021001023650,登記記録の閉鎖等,0,2023-01-30,2023-01-25,株式会社コスモワーク,,株式会社,神奈川県,愛甲郡愛川町,中津６４番地１,,14,401,2430303,,,2023-01-25,登記官による閉鎖,,,2015-10-05,1,,,,,,0
1760,7021001031447,登記記録の閉鎖等,0,2023-01-30,2023-01-25,日本商業印刷株式会社,,株式会社,神奈川県,鎌倉市,大船２２００番地１１,,14,204,2470056,,,2023-01-25,登記官による閉鎖,,,2015-10-05,1,,,,,,0
1761,7021001035217,登記記録の閉鎖等,0,2023-01-30,2023-01-25,フルール・デ・ヤマ株式会社,,株式会社,神奈川県,足柄下郡箱根町,仙石原１２４６番７３７,,14,382,2500631,,,2023-01-25,登記官による閉鎖,,,2015-10-05,1,,,,,,0
1762,7021001040282,登記記録の閉鎖等,0,2023-01-30,2023-01-25,株式会社小池電気商会,,株式会社,神奈川県,横須賀市,舟倉２丁目１番１８号,,14,201,2390805,,,2023-01-25,登記官による閉鎖,,,2015-10-05,1,,,,,,0
1763,7021001045967,登記記録の閉鎖等,0,2023-01-30,2023-01-25,Ｏｎｅ　ｍａｋｅ株式会社Ｌａｎｎｅｅｄｓ,,株式会社,神奈川県,厚木市,下依知１１９２番地,,14,212,2430806,,,2023-01-25,登記官による閉鎖,,,2015-10-05,1,,,,,,0
1766,7021002009260,登記記録の閉鎖等,0,2023-01-30,2023-01-25,有限会社アイバンズ,,有限会社,神奈川県,高座郡寒川町,小動１００１番地８,,14,321,2530102,,,2023-01-25,登記官による閉鎖,,,2015-10-05,1,,,,,,0
1767,7021002010029,登記記録の閉鎖等,0,2023-01-30,2023-01-25,有限会社アイルビイバック,,有限会社,神奈川県,茅ヶ崎市,萩園２１５７番地,,14,207,2530071,,,2023-01-25,登記官による閉鎖,,,2015-10-05,1,,,,,,0
1768,7021002019128,登記記録の閉鎖等,0,2023-01-30,2023-01-25,有限会社片野菓子舖,,有限会社,神奈川県,相模原市南区,相模台２丁目２番１号,,14,153,2520321,,,2023-01-25,登記官による閉鎖,,,2015-10-05,1,,,,,,0
1769,7021002028525,登記記録の閉鎖等,0,2023-01-30,2023-01-25,有限会社高城重機,,有限会社,神奈川県,相模原市中央区,上溝１丁目７－１１番,,14,152,2520243,,,2023-01-25,登記官による閉鎖,,,2015-10-05,1,,,,,,0
1770,7021002028871,登記記録の閉鎖等,0,2023-01-30,2023-01-25,有限会社梶野沢食品,,有限会社,神奈川県,相模原市緑区,青野原７１３番地の３,,14,151,2520161,,,2023-01-25,登記官による閉鎖,,,2015-10-05,1,,,,,,0
1771,7021002030282,登記記録の閉鎖等,0,2023-01-30,2023-01-25,有限会社松本興業,,有限会社,神奈川県,相模原市南区,相武台１丁目１９番１号,,14,153,2520324,,,2023-01-25,登記官による閉鎖,,,2015-10-05,1,,,,,,0
1772,7021002031867,登記記録の閉鎖等,0,2023-01-30,2023-01-25,有限会社澤田米店,,有限会社,神奈川県,厚木市,東町３番９号,,14,212,2430001,,,2023-01-25,登記官による閉鎖,,,2015-10-05,1,,,,,,0
1773,7021002035158,登記記録の閉鎖等,0,2023-01-30,2023-01-25,有限会社善波堂,,有限会社,神奈川県,伊勢原市,善波１１９５番地の６,,14,214,2591106,,,2023-01-25,登記官による閉鎖,,,2015-10-05,1,,,,,,0
1774,7021002035298,登記記録の閉鎖等,0,2023-01-30,2023-01-25,東栄ホームサービス有限会社,,有限会社,神奈川県,伊勢原市,下谷７３９番地,,14,214,2591123,,,2023-01-25,登記官による閉鎖,,,2015-10-05,1,,,,,,0
1775,7021002037600,登記記録の閉鎖等,0,2023-01-30,2023-01-25,有限会社奥田建設,,有限会社,神奈川県,秦野市,曽屋３６７７番地,,14,211,2570031,,,2023-01-25,登記官による閉鎖,,,2015-10-05,1,,,,,,0
1776,7021002041148,登記記録の閉鎖等,0,2023-01-30,2023-01-25,有限会社新東設備工業,,有限会社,神奈川県,大和市,上草柳２丁目１９番１２号,,14,213,2420029,,,2023-01-25,登記官による閉鎖,,,2015-10-05,1,,,,,,0
1777,7021002045891,登記記録の閉鎖等,0,2023-01-30,2023-01-25,有限会社旭野商事,,有限会社,神奈川県,綾瀬市,寺尾本町１丁目１０番２０号,,14,218,2521133,,,2023-01-25,登記官による閉鎖,,,2015-10-05,1,,,,,,0
1778,7021002046386,登記記録の閉鎖等,0,2023-01-30,2023-01-25,有限会社ジェイ,,有限会社,神奈川県,綾瀬市,寺尾南３丁目１６番１２号,,14,218,2521134,,,2023-01-25,登記官による閉鎖,,,2015-10-05,1,,,,,,0
1779,7021002051997,登記記録の閉鎖等,0,2023-01-30,2023-01-25,神保木工有限会社,,有限会社,神奈川県,小田原市,東町２丁目２番１２号,,14,206,2500003,,,2023-01-25,登記官による閉鎖,,,2015-10-05,1,,,,,,0
1780,7021002057359,登記記録の閉鎖等,0,2023-01-30,2023-01-25,有限会社片野製作所,,有限会社,神奈川県,平塚市,立野町４１番３号,,14,203,2540046,,,2023-01-25,登記官による閉鎖,,,2015-10-05,1,,,,,,0
1782,7021002066392,登記記録の閉鎖等,0,2023-01-30,2023-01-25,有限会社火の鳥,,有限会社,神奈川県,横須賀市,野比２丁目２１番１９号,,14,201,2390841,,,2023-01-25,登記官による閉鎖,,,2015-10-05,1,,,,,,0
1783,7021002068265,登記記録の閉鎖等,0,2023-01-30,2023-01-25,有限会社スカイフード,,有限会社,神奈川県,逗子市,新宿４丁目３番１１号,,14,208,2490007,,,2023-01-25,登記官による閉鎖,,,2015-10-05,1,,,,,,0
1784,7021002069180,登記記録の閉鎖等,0,2023-01-30,2023-01-25,アーキエステート有限会社,,有限会社,神奈川県,横須賀市,上町１丁目５５番地,,14,201,2380017,,,2023-01-25,登記官による閉鎖,,,2015-10-05,1,,,,,,0
1785,7021002071236,登記記録の閉鎖等,0,2023-01-30,2023-01-25,有限会社カムイ,,有限会社,神奈川県,横須賀市,衣笠町５番２７号,,14,201,2380025,,,2023-01-25,登記官による閉鎖,,,2015-10-05,1,,,,,,0
1786,7021005003822,登記記録の閉鎖等,0,2023-01-30,2023-01-25,神奈川県ボディファッション事業協同組合,,その他の設立登記法人,神奈川県,厚木市,中町４丁目５番１１号,,14,212,2430018,,,2023-01-25,登記官による閉鎖,,,2015-10-05,1,,,,,,0
1787,7021005005331,登記記録の閉鎖等,0,2023-01-30,2023-01-25,特定非営利活動法人はむるの会,,その他の設立登記法人,神奈川県,海老名市,柏ケ谷５８４番地２医療法人社団医誠会湘陽かしわ台病院内,,14,215,2430402,,,2023-01-25,登記官による閉鎖,,,2015-10-05,1,,,,,,0
1799,7040002070428,登記記録の閉鎖等,0,2023-01-30,2023-01-26,農業生産法人有限会社西野,,有限会社,千葉県,君津市,山滝野１１２２番地,,12,225,2920501,,,2023-01-26,清算の結了等,,,2015-10-05,1,,,,,,0
1816,7120001015920,登記記録の閉鎖等,0,2023-01-30,2023-01-27,株式会社パアグ,,株式会社,大阪府,大阪市城東区,関目２丁目３番４号,,27,118,5360008,,,2023-01-27,清算の結了等,,,2015-10-05,1,,,,,パアグ,0
1817,7120001072499,登記記録の閉鎖等,0,2023-01-30,2023-01-27,大阪昆布海産株式会社,,株式会社,大阪府,大阪市北区,天神橋１丁目１３番８号,,27,127,5300041,,,2023-01-27,清算の結了等,,,2015-10-05,1,,,,,,0
1833,7120005019538,登記記録の閉鎖等,0,2023-01-30,2023-01-26,協同組合グローバルキャリア,,その他の設立登記法人,大阪府,大阪市北区,西天満５丁目２番１８号,,27,127,5300047,,,2023-01-26,清算の結了等,,,2017-06-20,1,,,,,グローバルキャリア,0
1834,7120005021221,登記記録の閉鎖等,0,2023-01-30,2023-01-27,ＮＰＯ法人ゆめや,,その他の設立登記法人,大阪府,大阪市北区,野崎町６番８号トレックノース梅田ビル３０５,,27,127,5300055,,,2023-01-27,清算の結了等,,,2019-11-14,1,,,,,ユメヤ,0
1839,7120901018650,登記記録の閉鎖等,0,2023-01-30,2023-01-26,株式会社フォードキンキ,,株式会社,大阪府,吹田市,青山台３丁目２２番２号,,27,205,5650875,,,2023-01-26,清算の結了等,,,2015-10-05,1,,,,,フォードキンキ,0
1873,7180301030242,登記記録の閉鎖等,0,2023-01-30,2023-01-25,株式会社イオリアルクス,,株式会社,愛知県,岡崎市,矢作町字末広１０番地２,,23,202,4440943,,,2023-01-25,清算の結了等,,,2017-04-19,1,,,,,イオリアルクス,0
1897,7340001018629,登記記録の閉鎖等,0,2023-01-30,2023-01-27,メイキッシュ株式会社,,株式会社,鹿児島県,鹿児島市,武１丁目２８番１０号,,46,201,8900045,,,2023-01-27,清算の結了等,,,2015-10-05,1,,,,,,0
1906,7360002008651,登記記録の閉鎖等,0,2023-01-30,2023-01-25,有限会社サン・コーポレーション,,有限会社,沖縄県,那覇市,松尾２丁目２１番１２号,,47,201,9000014,,,2023-01-25,清算の結了等,,,2015-10-05,1,,,,,,0
1907,7360002019855,登記記録の閉鎖等,0,2023-01-30,2023-01-04,有限会社金城部品店,,有限会社,沖縄県,名護市,大北２丁目７番２号,,47,209,9050019,,,2023-01-04,合併による解散等,4360001000125,令和５年１月１日沖縄県那覇市港町二丁目７番２２号株式会社石川部品店（4360001000125）に合併し解散,2015-10-05,1,,,,,キンジョウブヒンテン,0
1910,7390003001529,登記記録の閉鎖等,0,2023-01-30,2023-01-23,合同会社ミツバチガーデン,,合同会社,山形県,山形市,蔵王半郷５７８－５,,06,201,9902305,,,2023-01-23,清算の結了等,,,2018-07-04,1,,,,,ミツバチガーデン,0
1923,7490001009761,登記記録の閉鎖等,0,2023-01-30,2023-01-11,学舎さくら株式会社,,株式会社,高知県,高知市,仁井田４５６３番地１,,39,201,7810112,,,2023-01-11,合併による解散等,5011001008712,令和５年１月１日東京都中央区日本橋馬喰町二丁目２番１２号株式会社サイネット（5011001008712）に合併し解散,2021-01-14,1,,,,,マナビヤサクラ,0
1937,8010001152534,登記記録の閉鎖等,0,2023-01-30,2023-01-24,ＪＸ石油開発テクニカルサービス株式会社,,株式会社,東京都,千代田区,大手町１丁目１番２号,,13,101,1000004,,,2023-01-24,清算の結了等,,,2015-10-05,1,,,,,ジェイエックスセキユカイハツテクニカルサービス,0
1943,8010002004833,登記記録の閉鎖等,0,2023-01-30,2023-01-24,有限会社浜田,,有限会社,東京都,文京区,小石川３丁目３０番１２号,,13,105,1120002,,,2023-01-24,清算の結了等,,,2015-10-05,1,,,,,ハマダ,0
1961,8010502011362,登記記録の閉鎖等,0,2023-01-30,2023-01-26,有限会社ムトウ,,有限会社,東京都,台東区,東上野１丁目９番１号,,13,106,1100015,,,2023-01-26,清算の結了等,,,2015-10-05,1,,,,,ムトウ,0
1969,8010801005610,登記記録の閉鎖等,0,2023-01-30,2023-01-25,湘南エンジニアリング株式会社,,株式会社,神奈川県,鎌倉市,雪ノ下４丁目３番７号,,14,204,2480005,,,2023-01-25,登記官による閉鎖,,,2015-10-05,1,,,,,,0
1971,8010802009651,登記記録の閉鎖等,0,2023-01-30,2023-01-19,テイクスリィ有限会社,,有限会社,東京都,大田区,東嶺町４３番２号,,13,111,1450074,,,2023-01-19,清算の結了等,,,2015-10-05,1,,,,,テイクスリィ,0
1975,8010901007069,登記記録の閉鎖等,0,2023-01-30,2023-01-27,株式会社フューチャーズ,,株式会社,東京都,世田谷区,千歳台６丁目２番１７－４０３号,,13,112,1570071,,,2023-01-27,登記官による閉鎖,,,2015-10-05,1,,,,,,0
1976,8010901018727,登記記録の閉鎖等,0,2023-01-30,2023-01-27,株式会社エス・エヌ・プロジェクト,,株式会社,東京都,世田谷区,下馬６丁目３０番１５号,,13,112,1540002,,,2023-01-27,登記官による閉鎖,,,2015-10-05,1,,,,,,0
1978,8010901024254,登記記録の閉鎖等,0,2023-01-30,2023-01-27,株式会社ＳＵＰＥＲ　ＳＩＭＰＬＥ　ＬＥＡＲＮＩＮＧ,,株式会社,東京都,世田谷区,船橋１丁目２９番３号,,13,112,1560055,,,2023-01-27,登記官による閉鎖,,,2015-10-05,1,,,,,,0
1979,8010901025104,登記記録の閉鎖等,0,2023-01-30,2023-01-27,株式会社パリエロ,,株式会社,東京都,世田谷区,上用賀３丁目６番１１号,,13,112,1580098,,,2023-01-27,登記官による閉鎖,,,2015-10-05,1,,,,,,0
1981,8010901029947,登記記録の閉鎖等,0,2023-01-30,2023-01-27,株式会社ＡＳＳＩＳＴ,,株式会社,東京都,世田谷区,砧３丁目９番２４号,,13,112,1570073,,,2023-01-27,登記官による閉鎖,,,2015-10-05,1,,,,,,0
1983,8010902002580,登記記録の閉鎖等,0,2023-01-30,2023-01-27,有限会社エス・パレット,,有限会社,東京都,世田谷区,奥沢５丁目１２番３号,,13,112,1580083,,,2023-01-27,登記官による閉鎖,,,2015-10-05,1,,,,,,0
1984,8010902005229,登記記録の閉鎖等,0,2023-01-30,2023-01-27,有限会社栗原製作所,,有限会社,東京都,世田谷区,野沢２丁目１３番６号,,13,112,1540003,,,2023-01-27,登記官による閉鎖,,,2015-10-05,1,,,,,,0
1985,8010902008454,登記記録の閉鎖等,0,2023-01-30,2023-01-27,有限会社青喜,,有限会社,東京都,世田谷区,野毛２丁目３番８号,,13,112,1580092,,,2023-01-27,登記官による閉鎖,,,2015-10-05,1,,,,,,0
1986,8010902014064,登記記録の閉鎖等,0,2023-01-30,2023-01-27,有限会社前田設備,,有限会社,東京都,世田谷区,北烏山１丁目３０番１４号,,13,112,1570061,,,2023-01-27,登記官による閉鎖,,,2015-10-05,1,,,,,,0
1987,8010905000607,登記記録の閉鎖等,0,2023-01-30,2023-01-27,医療法人社団啓陽会,,その他の設立登記法人,東京都,世田谷区,奥沢５丁目６番１７号,,13,112,1580083,,,2023-01-27,登記官による閉鎖,,,2015-10-05,1,,,,,,0
1988,8010905001340,登記記録の閉鎖等,0,2023-01-30,2023-01-27,特定非営利活動法人外国人在留資格研究会,,その他の設立登記法人,東京都,世田谷区,若林３丁目６番８－１０５号,,13,112,1540023,,,2023-01-27,登記官による閉鎖,,,2015-10-05,1,,,,,,0
1999,8011101052673,登記記録の閉鎖等,0,2023-01-30,2023-01-26,株式会社Ｆ・Ｏ・Ｄ,,株式会社,東京都,新宿区,中落合２丁目１６番２０号,,13,104,1610032,,,2023-01-26,清算の結了等,,,2015-10-05,1,,,,,エフオーディー,0
2015,8013301004339,登記記録の閉鎖等,0,2023-01-30,2023-01-30,株式会社サンリバー,,株式会社,東京都,豊島区,南大塚３丁目３９番７号,,13,116,1700005,,,2023-01-30,登記官による閉鎖,,,2015-10-05,1,,,,,,0
2016,8013301013975,登記記録の閉鎖等,0,2023-01-30,2023-01-30,株式会社クリスタル興産,,株式会社,東京都,豊島区,東池袋１丁目４６番１３号堀口ビル３０５,,13,116,1700013,,,2023-01-30,登記官による閉鎖,,,2017-12-04,1,,,,,,0
2017,8013301015393,登記記録の閉鎖等,0,2023-01-30,2023-01-30,二幸通商株式会社,,株式会社,東京都,豊島区,池袋２丁目５６番１号,,13,116,1710014,,,2023-01-30,登記官による閉鎖,,,2015-10-05,1,,,,,,0
2018,8013301022547,登記記録の閉鎖等,0,2023-01-30,2023-01-30,株式会社グローバルコミュニケーションズ,,株式会社,東京都,豊島区,池袋３丁目６０番５号,,13,116,1710014,,,2023-01-30,登記官による閉鎖,,,2015-10-05,1,,,,,,0
2019,8013301025731,登記記録の閉鎖等,0,2023-01-30,2023-01-30,株式会社ＴＯＷＡＴＯＭＯ＆Ｐａｒｔｎｅｒｓ,,株式会社,東京都,豊島区,南池袋１丁目１１番２２号,,13,116,1710022,,,2023-01-30,登記官による閉鎖,,,2015-10-05,1,,,,,,0
2020,8013301028899,登記記録の閉鎖等,0,2023-01-30,2023-01-30,株式会社ネオユニバース,,株式会社,東京都,豊島区,西池袋３丁目２２番１０号ルミエール５０１,,13,116,1710021,,,2023-01-30,登記官による閉鎖,,,2015-10-05,1,,,,,,0
2021,8013301029237,登記記録の閉鎖等,0,2023-01-30,2023-01-30,株式会社ダイナモ,,株式会社,東京都,豊島区,池袋３丁目６９番１号,,13,116,1710014,,,2023-01-30,登記官による閉鎖,,,2015-10-05,1,,,,,,0
2022,8013301031399,登記記録の閉鎖等,0,2023-01-30,2023-01-30,株式会社Ｖｉ－Ｔａ,,株式会社,東京都,豊島区,目白１丁目４番１５号,,13,116,1710031,,,2023-01-30,登記官による閉鎖,,,2015-10-05,1,,,,,,0
2023,8013301032331,登記記録の閉鎖等,0,2023-01-30,2023-01-30,アプリコ株式会社,,株式会社,東京都,豊島区,池袋１丁目２番６－５０６号、ベルメゾン池袋,,13,116,1700014,,,2023-01-30,登記官による閉鎖,,,2015-10-05,1,,,,,,0
2024,8013302005492,登記記録の閉鎖等,0,2023-01-30,2023-01-30,有限会社西山荘,,有限会社,東京都,豊島区,東池袋１丁目２５番１７号,,13,116,1700013,,,2023-01-30,登記官による閉鎖,,,2017-04-07,1,,,,,,0
2025,8013302010170,登記記録の閉鎖等,0,2023-01-30,2023-01-30,有限会社森田企画,,有限会社,東京都,豊島区,巣鴨４丁目２６番３号,,13,116,1700002,,,2023-01-30,登記官による閉鎖,,,2015-10-05,1,,,,,,0
2026,8013302013925,登記記録の閉鎖等,0,2023-01-30,2023-01-30,有限会社ミウラニュースサービス,,有限会社,東京都,豊島区,東池袋５丁目３５番２号,,13,116,1700013,,,2023-01-30,登記官による閉鎖,,,2015-10-05,1,,,,,,0
2027,8013305001118,登記記録の閉鎖等,0,2023-01-30,2023-01-30,特定非営利活動法人ＬＩＣ生活相談センター,,その他の設立登記法人,東京都,豊島区,池袋２丁目７５番１号第一岸本ビル４０２号,,13,116,1710014,,,2023-01-30,登記官による閉鎖,,,2015-10-05,1,,,,,,0
2036,8021001000863,登記記録の閉鎖等,0,2023-01-30,2023-01-25,株式会社サンライト,,株式会社,神奈川県,藤沢市,南藤沢１１番１４－３０３号,,14,205,2510055,,,2023-01-25,登記官による閉鎖,,,2015-10-05,1,,,,,,0
2037,8021001008246,登記記録の閉鎖等,0,2023-01-30,2023-01-25,株式会社茅ヶ崎里山きのこ園,,株式会社,神奈川県,茅ヶ崎市,芹沢１０７３番地５,,14,207,2530008,,,2023-01-25,登記官による閉鎖,,,2015-10-05,1,,,,,,0
2038,8021001026108,登記記録の閉鎖等,0,2023-01-30,2023-01-25,吉野工業株式会社,,株式会社,神奈川県,大和市,下鶴間２７５０番地１,,14,213,2420001,,,2023-01-25,登記官による閉鎖,,,2015-10-05,1,,,,,,0
2039,8021001027964,登記記録の閉鎖等,0,2023-01-30,2023-01-25,株式会社ロスヒック,,株式会社,神奈川県,大和市,下鶴間４１８０番地の４０,,14,213,2420001,,,2023-01-25,登記官による閉鎖,,,2015-10-05,1,,,,,,0
2041,8021001029969,登記記録の閉鎖等,0,2023-01-30,2023-01-25,株式会社ＩＳＩエキスプレス,,株式会社,神奈川県,綾瀬市,吉岡１７９０番地１２４－１０２号,,14,218,2521124,,,2023-01-25,登記官による閉鎖,,,2015-10-05,1,,,,,,0
2042,8021001030530,登記記録の閉鎖等,0,2023-01-30,2023-01-25,株式会社サザンリビング,,株式会社,神奈川県,大和市,代官４丁目９番地の２,,14,213,2420025,,,2023-01-25,登記官による閉鎖,,,2015-10-05,1,,,,,,0
2043,8021001042724,登記記録の閉鎖等,0,2023-01-30,2023-01-25,とまと介護タクシー株式会社,,株式会社,神奈川県,横須賀市,追浜東町３丁目１番地,,14,201,2370063,,,2023-01-25,登記官による閉鎖,,,2015-10-05,1,,,,,,0
2044,8021001047483,登記記録の閉鎖等,0,2023-01-30,2023-01-25,株式会社ケイデイエス企画,,株式会社,神奈川県,鎌倉市,稲村ガ崎３丁目５番６号,,14,204,2480024,,,2023-01-25,登記官による閉鎖,,,2015-10-05,1,,,,,,0
2045,8021001055172,登記記録の閉鎖等,0,2023-01-30,2023-01-25,株式会社リブ・エステート,,株式会社,神奈川県,横須賀市,大滝町２丁目６番地ザ・タワー横須賀中央１３０６,,14,201,2380008,,,2023-01-25,清算の結了等,,,2015-10-05,1,,,,,リブエステート,0
2046,8021002001010,登記記録の閉鎖等,0,2023-01-30,2023-01-25,有限会社オート精密,,有限会社,神奈川県,藤沢市,石川２３番地１,,14,205,2520815,,,2023-01-25,登記官による閉鎖,,,2015-10-05,1,,,,,,0
2047,8021002004541,登記記録の閉鎖等,0,2023-01-30,2023-01-25,有限会社北海道の味やくも,,有限会社,神奈川県,藤沢市,南藤沢１０番１号,,14,205,2510055,,,2023-01-25,登記官による閉鎖,,,2015-10-05,1,,,,,,0
2049,8021002009846,登記記録の閉鎖等,0,2023-01-30,2023-01-25,有限会社藤沢峰本寒川店,,有限会社,神奈川県,高座郡寒川町,宮山１２４番地１,,14,321,2530106,,,2023-01-25,登記官による閉鎖,,,2015-10-05,1,,,,,,0
2050,8021002012131,登記記録の閉鎖等,0,2023-01-30,2023-01-25,有限会社松本建設,,有限会社,神奈川県,茅ヶ崎市,円蔵１３５６番地１,,14,207,2530084,,,2023-01-25,登記官による閉鎖,,,2015-10-05,1,,,,,,0
2051,8021002015613,登記記録の閉鎖等,0,2023-01-30,2023-01-25,有限会社マキ,,有限会社,神奈川県,鎌倉市,城廻７００番地３６,,14,204,2470074,,,2023-01-25,登記官による閉鎖,,,2015-10-05,1,,,,,,0
2053,8021002027113,登記記録の閉鎖等,0,2023-01-30,2023-01-25,有限会社テクノマシン,,有限会社,神奈川県,相模原市緑区,西橋本５丁目２番１２－２１０７号,,14,151,2520131,,,2023-01-25,登記官による閉鎖,,,2015-10-05,1,,,,,,0
2054,8021002033581,登記記録の閉鎖等,0,2023-01-30,2023-01-25,有限会社山六サービス,,有限会社,神奈川県,厚木市,栄町２丁目４番３２号井上コーポ１階,,14,212,2430017,,,2023-01-25,登記官による閉鎖,,,2015-10-05,1,,,,,,0
2055,8021002042582,登記記録の閉鎖等,0,2023-01-30,2023-01-25,宮崎建設有限会社,00013472,有限会社,神奈川県,大和市,下鶴間４２６８番地,,14,213,2420001,,,2023-01-25,登記官による閉鎖,,,2015-10-05,1,,,,,,0
2056,8021002043515,登記記録の閉鎖等,0,2023-01-30,2023-01-25,コーリン機器有限会社,,有限会社,神奈川県,座間市,立野台１丁目２番１８号,,14,216,2520023,,,2023-01-25,登記官による閉鎖,,,2015-10-05,1,,,,,,0
2057,8021002045172,登記記録の閉鎖等,0,2023-01-30,2023-01-25,有限会社白木建築設計事務所,,有限会社,神奈川県,海老名市,さつき町１番地７－５０６,,14,215,2430421,,,2023-01-25,登記官による閉鎖,,,2015-10-05,1,,,,,,0
2058,8021002050115,登記記録の閉鎖等,0,2023-01-30,2023-01-25,有限会社滝川,,有限会社,神奈川県,足柄下郡湯河原町,宮上１６４番地の１,,14,384,2590314,,,2023-01-25,登記官による閉鎖,,,2015-10-05,1,,,,,,0
2059,8021002052185,登記記録の閉鎖等,0,2023-01-30,2023-01-25,有限会社鈴木屋酒店,,有限会社,神奈川県,小田原市,酒匂１丁目１番１号,,14,206,2560816,,,2023-01-25,登記官による閉鎖,,,2015-10-05,1,,,,,,0
2060,8021002054743,登記記録の閉鎖等,0,2023-01-30,2023-01-25,有限会社正和製作所,,有限会社,神奈川県,南足柄市,塚原６４３番地,,14,217,2500117,,,2023-01-25,登記官による閉鎖,,,2015-10-05,1,,,,,,0
2061,8021002060824,登記記録の閉鎖等,0,2023-01-30,2023-01-25,有限会社上信美装,,有限会社,神奈川県,中郡二宮町,二宮６１８番地の１ハイツボンネビル１１２号,,14,342,2590123,,,2023-01-25,登記官による閉鎖,,,2015-10-05,1,,,,,,0
2062,8021002066920,登記記録の閉鎖等,0,2023-01-30,2023-01-25,有限会社松本組,,有限会社,神奈川県,横須賀市,池田町６丁目３３番４号,,14,201,2390806,,,2023-01-25,登記官による閉鎖,,,2015-10-05,1,,,,,,0
2063,8021002067621,登記記録の閉鎖等,0,2023-01-30,2023-01-25,有限会社横須賀特殊工事,,有限会社,神奈川県,横須賀市,長沢１丁目２９番２９号,,14,201,2390842,,,2023-01-25,登記官による閉鎖,,,2015-10-05,1,,,,,,0
2064,8021002067687,登記記録の閉鎖等,0,2023-01-30,2023-01-25,有限会社横浜三洋建材,,有限会社,神奈川県,横須賀市,佐野町５丁目１７番地７,,14,201,2380052,,,2023-01-25,登記官による閉鎖,,,2015-10-05,1,,,,,,0
2065,8021002070419,登記記録の閉鎖等,0,2023-01-30,2023-01-25,有限会社ファースト企画,,有限会社,神奈川県,横須賀市,米が浜通１丁目２番地コーポヨネガハマ７０６,,14,201,2380011,,,2023-01-25,登記官による閉鎖,,,2015-10-05,1,,,,,,0
2067,8021005004415,登記記録の閉鎖等,0,2023-01-30,2023-01-25,特定非営利活動法人国際援助団体アイウエオサークル,,その他の設立登記法人,神奈川県,秦野市,戸川１０３８番地,,14,211,2591306,,,2023-01-25,登記官による閉鎖,,,2015-10-05,1,,,,,,0
2076,8040001043160,登記記録の閉鎖等,0,2023-01-30,2023-01-26,株式会社はしもとや,,株式会社,千葉県,成田市,寺台２５８番地,,12,211,2860022,,,2023-01-26,清算の結了等,,,2015-10-05,1,,,,,ハシモトヤ,0
2077,8040001066079,登記記録の閉鎖等,0,2023-01-30,2023-01-26,東武ビコー株式会社,,株式会社,千葉県,柏市,宿連寺２６１番地３４,,12,217,2770826,,,2023-01-26,清算の結了等,,,2015-10-05,1,,,,,トウブビコー,0
2093,8050002002296,登記記録の閉鎖等,0,2023-01-30,2023-01-24,有限会社東和商事,,有限会社,茨城県,水戸市,千波町２８３６番７号,,08,201,3100851,,,2023-01-24,清算の結了等,,,2015-10-05,1,,,,,トウワショウジ,0
2096,8060002012757,登記記録の閉鎖等,0,2023-01-30,2023-01-26,有限会社栃木有仁,,有限会社,栃木県,さくら市,氏家３４３７番地３,,09,214,3291311,,,2023-01-26,清算の結了等,,,2015-10-05,1,,,,,トチギユウジン,0
2101,8070001001719,登記記録の閉鎖等,0,2023-01-30,2023-01-24,白川興業株式会社,,株式会社,群馬県,前橋市,岩神町１丁目２４番１６号,,10,201,3710035,,,2023-01-24,清算の結了等,,,2015-10-05,1,,,,,シラカワコウギョウ,0
2161,8210005006848,登記記録の閉鎖等,0,2023-01-30,2023-01-20,南条地区環境整備事業協同組合,,その他の設立登記法人,福井県,南条郡南越前町,東大道第３２号３番地の１,,18,404,9190223,,,2023-01-20,清算の結了等,,,2015-10-05,1,,,,,ナンジョウチクカンキョウセイビ,0
2167,8240002046019,登記記録の閉鎖等,0,2023-01-30,2023-01-26,有限会社ロックヒル,,有限会社,広島県,福山市,加茂町字粟根１０２１番地の１,,34,207,7202416,,,2023-01-26,清算の結了等,,,2015-10-05,1,,,,,ロックヒル,0
2174,8290003001645,登記記録の閉鎖等,0,2023-01-30,2023-01-27,合資会社ＳＭＫ,,合資会社,福岡県,福岡市中央区,今泉２丁目３番２８号,,40,133,8100021,,,2023-01-27,清算の結了等,,,2015-10-05,1,,,,,,0
2200,8400002000306,登記記録の閉鎖等,0,2023-01-30,2023-01-27,有限会社岩手保健企画,,有限会社,岩手県,盛岡市,南仙北３丁目２番３０号,,03,201,0200863,,,2023-01-27,清算の結了等,,,2015-10-05,1,,,,,イワテホケンキカク,0
2210,8430005003567,登記記録の閉鎖等,0,2023-01-30,2023-01-27,医療法人社団とんでん小児科,,その他の設立登記法人,北海道,札幌市北区,屯田六条６丁目５番３２号,,01,102,0020856,,,2023-01-27,清算の結了等,,,2015-10-05,1,,,,,トンデンショウニカ,0
2216,8490002006328,登記記録の閉鎖等,0,2023-01-30,2023-01-26,有限会社保険工房さくら,,有限会社,高知県,高知市,上町２丁目６番２３号,,39,201,7800901,,,2023-01-26,清算の結了等,,,2015-10-05,1,,,,,ホケンコウボウサクラ,0
2228,9010003034894,登記記録の閉鎖等,0,2023-01-30,2023-01-23,合同会社ｍｙｓｅｌｆ,,合同会社,東京都,千代田区,岩本町１丁目１２番１２－４０１,,13,101,1010032,,,2023-01-23,清算の結了等,,,2021-05-25,1,,,,,マイセルフ,0
2230,9010401017609,登記記録の閉鎖等,0,2023-01-30,2023-01-13,株式会社太陽ビルサービス,,株式会社,東京都,港区,芝４丁目５番９－１０２号,,13,103,1080014,,,2023-01-13,清算の結了等,,,2015-10-05,1,,,,,タイヨウビルサービス,0
2234,9010401131616,登記記録の閉鎖等,0,2023-01-30,2023-01-13,株式会社ＢＧＣＴジャパン,,株式会社,東京都,港区,新橋５丁目３５番６号,,13,103,1050004,,,2023-01-13,清算の結了等,,,2017-05-24,1,,,,,ビージーシーティージャパン,0
2239,9010403023308,登記記録の閉鎖等,0,2023-01-30,2023-01-23,合同会社ＳＡＪＵＲ,,合同会社,東京都,千代田区,丸の内３丁目１番１号東京共同会計事務所内,,13,101,1000005,,,2023-01-23,清算の結了等,,,2020-07-20,1,,,,,エスエージェイユーアール,0
2246,9010901001574,登記記録の閉鎖等,0,2023-01-30,2023-01-27,株式会社エー・アンド・ティー,,株式会社,東京都,世田谷区,若林３丁目１６番２６号,,13,112,1540023,,,2023-01-27,登記官による閉鎖,,,2015-10-05,1,,,,,,0
2247,9010901011912,登記記録の閉鎖等,0,2023-01-30,2023-01-27,株式会社無漏工業所,,株式会社,東京都,世田谷区,尾山台３丁目９番５号,,13,112,1580086,,,2023-01-27,登記官による閉鎖,,,2015-10-05,1,,,,,,0
2248,9010901012118,登記記録の閉鎖等,0,2023-01-30,2023-01-27,株式会社最上物産,,株式会社,東京都,世田谷区,上馬４丁目１６番７号,,13,112,1540011,,,2023-01-27,登記官による閉鎖,,,2015-10-05,1,,,,,,0
2249,9010901015491,登記記録の閉鎖等,0,2023-01-30,2023-01-27,株式会社コスモスペース,,株式会社,東京都,世田谷区,駒沢３丁目２３番３０号,,13,112,1540012,,,2023-01-27,登記官による閉鎖,,,2015-10-05,1,,,,,,0
2250,9010901023882,登記記録の閉鎖等,0,2023-01-30,2023-01-27,株式会社ＵＬＯＳ,,株式会社,東京都,世田谷区,船橋３丁目２６番４号,,13,112,1560055,,,2023-01-27,登記官による閉鎖,,,2015-10-05,1,,,,,,0
2251,9010901026019,登記記録の閉鎖等,0,2023-01-30,2023-01-27,豊徳株式会社,,株式会社,東京都,世田谷区,若林３丁目２０番６－２０６号,,13,112,1540023,,,2023-01-27,登記官による閉鎖,,,2015-10-05,1,,,,,,0
2252,9010901030160,登記記録の閉鎖等,0,2023-01-30,2023-01-27,ネオテクニカル株式会社,,株式会社,東京都,世田谷区,下馬１丁目４４番１０号,,13,112,1540002,,,2023-01-27,登記官による閉鎖,,,2015-10-05,1,,,,,,0
2253,9010901030185,登記記録の閉鎖等,0,2023-01-30,2023-01-27,株式会社寿家,,株式会社,東京都,世田谷区,上用賀６丁目３２番５号,,13,112,1580098,,,2023-01-27,登記官による閉鎖,,,2015-10-05,1,,,,,,0
2254,9010902005426,登記記録の閉鎖等,0,2023-01-30,2023-01-27,有限会社けいずらぼ,,有限会社,東京都,世田谷区,上北沢３丁目２９番１８号,,13,112,1560057,,,2023-01-27,登記官による閉鎖,,,2015-10-05,1,,,,,,0
2255,9010902011738,登記記録の閉鎖等,0,2023-01-30,2023-01-27,有限会社パークサイドモータース,,有限会社,東京都,世田谷区,弦巻３丁目１０番９号,,13,112,1540016,,,2023-01-27,登記官による閉鎖,,,2015-10-05,1,,,,,,0
2256,9010902013783,登記記録の閉鎖等,0,2023-01-30,2023-01-27,有限会社ポイソンツゥー,,有限会社,東京都,世田谷区,上馬２丁目３２番２号,,13,112,1540011,,,2023-01-27,登記官による閉鎖,,,2015-10-05,1,,,,,,0
2257,9010902016860,登記記録の閉鎖等,0,2023-01-30,2023-01-27,有限会社ワックスコーポレーション,,有限会社,東京都,世田谷区,駒沢５丁目２０番１７号,,13,112,1540012,,,2023-01-27,登記官による閉鎖,,,2015-10-05,1,,,,,,0
2258,9010905001380,登記記録の閉鎖等,0,2023-01-30,2023-01-27,特定非営利活動法人緑進会,,その他の設立登記法人,東京都,世田谷区,上祖師谷３丁目２０番１９号,,13,112,1570065,,,2023-01-27,登記官による閉鎖,,,2015-10-05,1,,,,,,0
2259,9010905001637,登記記録の閉鎖等,0,2023-01-30,2023-01-27,特定非営利活動法人はろっずライフふれあい会,,その他の設立登記法人,東京都,世田谷区,南烏山１丁目１１番９号エステート芦花３０１,00053045,13,112,1570062,,,2023-01-27,登記官による閉鎖,,,2015-10-05,1,,,,,,0
2295,9013301007836,登記記録の閉鎖等,0,2023-01-30,2023-01-30,株式会社テナントバンク,,株式会社,東京都,豊島区,南池袋１丁目１７番１号崎本ビル６階,,13,116,1710022,,,2023-01-30,登記官による閉鎖,,,2015-10-05,1,,,,,,0
2296,9013301020822,登記記録の閉鎖等,0,2023-01-30,2023-01-30,株式会社シーエスソリューション,,株式会社,東京都,豊島区,池袋２丁目４１番５号,,13,116,1710014,,,2023-01-30,登記官による閉鎖,,,2015-10-05,1,,,,,,0
2297,9013301023619,登記記録の閉鎖等,0,2023-01-30,2023-01-30,株式会社最上管財,,株式会社,東京都,豊島区,池袋２丁目６２番１２号,,13,116,1710014,,,2023-01-30,登記官による閉鎖,,,2015-10-05,1,,,,,,0
2298,9013301023890,登記記録の閉鎖等,0,2023-01-30,2023-01-30,株式会社Ｌ．Ｓ．Ｓコーポレーション,,株式会社,東京都,豊島区,池袋２丁目５０番４号クレストコート池袋１００４,,13,116,1710014,,,2023-01-30,登記官による閉鎖,,,2015-10-05,1,,,,,,0
2299,9013301025490,登記記録の閉鎖等,0,2023-01-30,2023-01-30,大宝株式会社,,株式会社,東京都,豊島区,池袋２丁目４３番２号ＦＩＮＯビル１、２階,,13,116,1710014,,,2023-01-30,登記官による閉鎖,,,2015-10-05,1,,,,,,0
2300,9013301031241,登記記録の閉鎖等,0,2023-01-30,2023-01-30,株式会社エンジョイコーポレーション,,株式会社,東京都,豊島区,池袋４丁目１番１１号,,13,116,1710014,,,2023-01-30,登記官による閉鎖,,,2015-10-05,1,,,,,,0
2301,9013301041959,登記記録の閉鎖等,0,2023-01-30,2023-01-25,株式会社ＺＥＲＯ,,株式会社,東京都,新宿区,百人町１丁目１３番１９号,,13,104,1690073,,,2023-01-25,合併による解散等,4011201020897,令和４年１２月２８日東京都立川市高松町二丁目１１番１７号株式会社Ｄ．Ａ．Ｉ（4011201020897）に合併し解散,2018-03-15,1,,,,,ゼロ,0
2302,9013302001284,登記記録の閉鎖等,0,2023-01-30,2023-01-30,有限会社恵知粉屋,,有限会社,東京都,豊島区,千川１丁目７番１０号,,13,116,1710041,,,2023-01-30,登記官による閉鎖,,,2015-10-05,1,,,,,,0
2303,9013302002737,登記記録の閉鎖等,0,2023-01-30,2023-01-30,有限会社京王加工,,有限会社,東京都,豊島区,千川１丁目１６番１号,,13,116,1710041,,,2023-01-30,登記官による閉鎖,,,2015-10-05,1,,,,,,0
2304,9013302014955,登記記録の閉鎖等,0,2023-01-30,2023-01-30,有限会社スプリングフィールド,,有限会社,東京都,豊島区,南池袋２丁目３６番３号,,13,116,1710022,,,2023-01-30,登記官による閉鎖,,,2015-10-05,1,,,,,,0
2305,9013402000327,登記記録の閉鎖等,0,2023-01-30,2023-01-19,有限会社大澤塗装,,有限会社,東京都,日野市,西平山３丁目５番地の２,,13,212,1910055,,,2023-01-19,清算の結了等,,,2015-10-05,1,,,,,オオサワトソウ,0
2315,9021001001621,登記記録の閉鎖等,0,2023-01-30,2023-01-25,日本計算化学サービス株式会社,,株式会社,神奈川県,藤沢市,羽鳥１丁目３番３４号,,14,205,2510056,,,2023-01-25,登記官による閉鎖,,,2015-10-05,1,,,,,,0
2316,9021001012032,登記記録の閉鎖等,0,2023-01-30,2023-01-25,コガ機販株式会社,,株式会社,神奈川県,相模原市緑区,下九沢１９０２番地の６,,14,151,2520134,,,2023-01-25,登記官による閉鎖,,,2015-10-05,1,,,,,,0
2317,9021001013988,登記記録の閉鎖等,0,2023-01-30,2023-01-25,株式会社増田製作所,,株式会社,神奈川県,相模原市緑区,大島７８３番地,,14,151,2520135,,,2023-01-25,登記官による閉鎖,,,2015-10-05,1,,,,,,0
2318,9021001014350,登記記録の閉鎖等,0,2023-01-30,2023-01-25,株式会社ワイケーエムコーポレーション,,株式会社,神奈川県,相模原市南区,御園３丁目２１番３号,,14,153,2520317,,,2023-01-25,登記官による閉鎖,,,2015-10-05,1,,,,,,0
2320,9021001024564,登記記録の閉鎖等,0,2023-01-30,2023-01-25,株式会社ヤマヤ,,株式会社,神奈川県,厚木市,岡田４丁目５番３－５１３号,,14,212,2430021,,,2023-01-25,登記官による閉鎖,,,2015-10-05,1,,,,,,0
2321,9021001035330,登記記録の閉鎖等,0,2023-01-30,2023-01-25,あしがら林工株式会社,,株式会社,神奈川県,南足柄市,中沼１３５番地１,,14,217,2500123,,,2023-01-25,登記官による閉鎖,,,2015-10-05,1,,,,,,0
2322,9021001040875,登記記録の閉鎖等,0,2023-01-30,2023-01-25,日進電設工業株式会社,,株式会社,神奈川県,横須賀市,長井５丁目１９番９号,,14,201,2380316,,,2023-01-25,登記官による閉鎖,,,2015-10-05,1,,,,,,0
2323,9021001044042,登記記録の閉鎖等,0,2023-01-30,2023-01-25,株式会社ホウエイ,,株式会社,神奈川県,横須賀市,船越町６丁目４３番地４,,14,201,2370076,,,2023-01-25,登記官による閉鎖,,,2015-10-05,1,,,,,,0
2324,9021001046071,登記記録の閉鎖等,0,2023-01-30,2023-01-25,株式会社好文の木,,株式会社,神奈川県,足柄下郡湯河原町,土肥５丁目１８番地の２５,,14,384,2590303,,,2023-01-25,登記官による閉鎖,,,2015-10-05,1,,,,,,0
2326,9021002010191,登記記録の閉鎖等,0,2023-01-30,2023-01-25,有限会社イトー,,有限会社,神奈川県,茅ヶ崎市,十間坂１丁目５番５４号,,14,207,2530045,,,2023-01-25,登記官による閉鎖,,,2015-10-05,1,,,,,,0
2327,9021002010695,登記記録の閉鎖等,0,2023-01-30,2023-01-25,有限会社クマザワ興業,,有限会社,神奈川県,茅ヶ崎市,矢畑７２０番地,,14,207,2530085,,,2023-01-25,登記官による閉鎖,,,2015-10-05,1,,,,,,0
2328,9021002011173,登記記録の閉鎖等,0,2023-01-30,2023-01-25,有限会社三真興業,,有限会社,神奈川県,茅ヶ崎市,萩園１１０６番地６,,14,207,2530071,,,2023-01-25,登記官による閉鎖,,,2015-10-05,1,,,,,,0
2329,9021002023821,登記記録の閉鎖等,0,2023-01-30,2023-01-25,有限会社フジタスポーツ,,有限会社,神奈川県,相模原市中央区,並木３丁目１７番９号,,14,152,2520228,,,2023-01-25,登記官による閉鎖,,,2015-10-05,1,,,,,,0
2330,9021002030636,登記記録の閉鎖等,0,2023-01-30,2023-01-25,有限会社アルトサービス,,有限会社,神奈川県,厚木市,小野３３番地,,14,212,2430125,,,2023-01-25,登記官による閉鎖,,,2015-10-05,1,,,,,,0
2331,9021002056920,登記記録の閉鎖等,0,2023-01-30,2023-01-25,有限会社宴商事,,有限会社,神奈川県,平塚市,明石町２２番８号,,14,203,2540042,,,2023-01-25,登記官による閉鎖,,,2015-10-05,1,,,,,,0
2332,9021002060996,登記記録の閉鎖等,0,2023-01-30,2023-01-25,有限会社ローズテアトル,,有限会社,神奈川県,平塚市,平塚２丁目１番１号,,14,203,2540052,,,2023-01-25,登記官による閉鎖,,,2015-10-05,1,,,,,,0
2333,9021002066531,登記記録の閉鎖等,0,2023-01-30,2023-01-25,有限会社富士一工業,,有限会社,神奈川県,三浦郡葉山町,上山口３０１１番地,,14,301,2400115,,,2023-01-25,登記官による閉鎖,,,2015-10-05,1,,,,,,0
2334,9021003002485,登記記録の閉鎖等,0,2023-01-30,2023-01-25,合同会社エス商会,,合同会社,神奈川県,小田原市,南町１丁目４番１８号,,14,206,2500013,,,2023-01-25,登記官による閉鎖,,,2015-10-05,1,,,,,,0
2335,9021005008142,登記記録の閉鎖等,0,2023-01-30,2023-01-25,特定非営利活動法人サポート海の手,,その他の設立登記法人,神奈川県,横須賀市,根岸町４丁目５番地１８,,14,201,2390807,,,2023-01-25,登記官による閉鎖,,,2015-10-05,1,,,,,,0
2341,9030005005041,登記記録の閉鎖等,0,2023-01-30,2023-01-25,農事組合法人利根ファーマーズ,,その他の設立登記法人,埼玉県,羽生市,大字上村君５４番地１,,11,216,3480005,,,2023-01-25,清算の結了等,,,2015-10-05,1,,,,,トネファーマーズ,0
2364,9070003002342,登記記録の閉鎖等,0,2023-01-30,2023-01-04,合同会社風光,,合同会社,群馬県,桐生市,巴町２丁目１８３２番地９,,10,203,3760021,,,2023-01-04,合併による解散等,9070001016815,令和５年１月１日群馬県桐生市巴町二丁目１８３２番地９株式会社ジェイ・アンカー（9070001016815）と合併し解散,2015-10-05,1,,,,,フウコウ,0
2377,9120001131658,登記記録の閉鎖等,0,2023-01-30,2023-01-27,株式会社イーズ,,株式会社,兵庫県,宝塚市,仁川北１丁目４番２２号,,28,214,6650061,,,2023-01-27,清算の結了等,,,2015-10-05,1,,,,,イーズ,0
2387,9120101001083,登記記録の閉鎖等,0,2023-01-30,2023-01-27,株式会社オクダ,,株式会社,大阪府,堺市北区,金岡町１０６６番地,,27,146,5918022,,,2023-01-27,清算の結了等,,,2015-10-05,1,,,,,オクダ,0
2388,9120101029587,登記記録の閉鎖等,0,2023-01-30,2023-01-27,ＡＴシステム株式会社,,株式会社,大阪府,堺市中区,深阪５丁１４番３４号,,27,142,5998253,,,2023-01-27,清算の結了等,,,2015-10-05,1,,,,,エーティーシステム,0
2394,9140001059889,登記記録の閉鎖等,0,2023-01-30,2023-01-25,株式会社大和屋商店,,株式会社,兵庫県,姫路市,福中町６３番地,,28,201,6700017,,,2023-01-25,清算の結了等,,,2015-10-05,1,,,,,,0
2396,9140001097550,登記記録の閉鎖等,0,2023-01-30,2023-01-24,株式会社コタニ,,株式会社,兵庫県,宝塚市,大原野字下林２４番地の１,,28,214,6691211,,,2023-01-24,清算の結了等,,,2015-10-05,1,,,,,コタニ,0
2434,9290001031528,登記記録の閉鎖等,0,2023-01-30,2023-01-27,株式会社イノベーション・ダブルエイト,,株式会社,福岡県,福岡市中央区,高砂１丁目２４番２６号,,40,133,8100011,,,2023-01-27,清算の結了等,,,2015-10-05,1,,,,,,0
2441,9320005001374,登記記録の閉鎖等,0,2023-01-30,2023-01-27,大分砂利販売企業組合,,その他の設立登記法人,大分県,大分市,乙津港町２丁目８番地５,,44,201,8700146,,,2023-01-27,清算の結了等,,,2015-10-05,1,,,,,オオイタジャリハンバイ,0
