sequenceNumber,corporateNumber,process,correct,updateDate,changeDate,name,nameImageId,kind,prefectureName,cityName,streetNumber,addressImageId,prefectureCode,cityCode,postCode,addressOutside,addressOutsideImageId,closeDate,closeCause,successorCorporateNumber,changeCause,assignmentDate,latest,enName,enPrefectureName,enCityName,enAddressOutside,furigana,hihyoji
13,1010401136366,登記記録の閉鎖等,0,2022-04-13,2022-04-01,株式会社ＮｅｘｔＧｅｎビジネスソリューションズ,,株式会社,東京都,港区,白金１丁目２７番６号,,13,103,1080072,,,2022-04-01,合併による解散等,6010001097517,令和４年４月１日東京都港区白金一丁目２７番６号株式会社ネクストジェン（6010001097517）に合併し解散,2018-01-31,1,,,,,ネクストジェンビジネスソリューションズ,0
16,1010401163071,登記記録の閉鎖等,0,2022-04-13,2022-03-31,株式会社Ｎｅａｕｔｙ,,株式会社,東京都,港区,赤坂４丁目１５番１号,,13,103,1070052,,,2022-03-31,清算の結了等,,,2021-10-08,1,,,,,ニューティー,0
22,1010402002328,登記記録の閉鎖等,0,2022-04-13,2022-04-01,有限会社エフオーエム,,有限会社,東京都,港区,南青山３丁目１４番２１号,,13,103,1070062,,,2022-04-01,清算の結了等,,,2015-10-05,1,,,,,エフオーエム,0
34,1010601005437,登記記録の閉鎖等,0,2022-04-13,2022-04-07,株式会社ナガノ店舗照明,,株式会社,東京都,新宿区,市谷本村町２番２８号市ヶ谷サンライトビル,,13,104,1620845,,,2022-04-07,合併による解散等,6120001069942,令和４年４月１日大阪市北区同心二丁目３番１号双葉電気通信株式会社（6120001069942）に合併し解散,2015-10-05,1,,,,,ナガノテンポショウメイ,0
39,1010901020350,登記記録の閉鎖等,0,2022-04-13,2022-04-05,株式会社プレデリック,,株式会社,東京都,杉並区,浜田山３丁目３３番１６号,,13,115,1680065,,,2022-04-05,清算の結了等,,,2015-10-05,1,,,,,プレデリック,0
78,1012801001760,登記記録の閉鎖等,0,2022-04-13,2022-04-05,株式会社和測,,株式会社,東京都,立川市,幸町１丁目１４番地の４,,13,202,1900002,,,2022-04-05,清算の結了等,,,2015-10-05,1,,,,,ワソク,0
108,1021001008087,登記記録の閉鎖等,0,2022-04-13,2022-04-04,株式会社アットホーム,,株式会社,神奈川県,茅ヶ崎市,東海岸北１丁目３番４号ビューシャトル茅ヶ崎２０３,,14,207,2530053,,,2022-04-04,清算の結了等,,,2015-10-05,1,,,,,アットホーム,0
118,1030001075046,登記記録の閉鎖等,0,2022-04-13,2022-04-05,三宏興業株式会社,,株式会社,埼玉県,川口市,栄町３丁目１２番１１－１２０７号,,11,203,3320017,,,2022-04-05,清算の結了等,,,2015-10-05,1,,,,,サンコウコウギョウ,0
133,1040001072868,登記記録の閉鎖等,0,2022-04-13,2022-04-04,株式会社勇進海運,,株式会社,千葉県,木更津市,中央３丁目１６番３号,,12,206,2920067,,,2022-04-04,清算の結了等,,,2015-10-05,1,,,,,ユウシンカイウン,0
135,1040001108077,登記記録の閉鎖等,0,2022-04-13,2022-04-01,株式会社エボリス・ジャパン,,株式会社,千葉県,柏市,柏４丁目６番３号新栄ビル,,12,217,2770005,,,2022-04-01,合併による解散等,1040001069154,令和４年４月１日千葉県柏市柏四丁目６番３号新栄ビル株式会社アドバンジェン（1040001069154）に合併し解散,2019-02-20,1,,,,,エボリスジャパン,0
140,1050002007244,登記記録の閉鎖等,0,2022-04-13,2022-04-05,有限会社ワイ・エム・コンピューター・サービス,,有限会社,茨城県,那珂郡東海村,大字舟石川５７３番地２,,08,341,3191111,,,2022-04-05,清算の結了等,,,2015-10-05,1,,,,,ワイエムコンピューターサービス,0
156,1080101005419,登記記録の閉鎖等,0,2022-04-13,2022-04-12,株式会社オービス商会,,株式会社,静岡県,田方郡函南町,塚本９１番地の２,,22,325,4190124,,,2022-04-12,清算の結了等,,,2015-10-05,1,,,,,オービスショウカイ,0
162,1080402008459,登記記録の閉鎖等,0,2022-04-13,2022-04-06,有限会社山口研削工業,,有限会社,静岡県,浜松市東区,下石田町５０３番地の２,,22,132,4350006,,,2022-04-06,清算の結了等,,,2015-10-05,1,,,,,ヤマグチケンサクコウギョウ,0
174,1110002001637,登記記録の閉鎖等,0,2022-04-13,2022-04-05,有限会社加藤電化センター,,有限会社,新潟県,新潟市西区,小針藤山６番１８号,,15,107,9502021,,,2022-04-05,清算の結了等,,,2015-10-05,1,,,,,カトウデンカセンター,0
189,1120002020066,登記記録の閉鎖等,0,2022-04-13,2022-04-05,昭和産業有限会社,,有限会社,大阪府,大阪市浪速区,元町１丁目５番７号ナンバプラザビル５Ｆ,,27,111,5560016,,,2022-04-05,清算の結了等,,,2015-10-05,1,,,,,ショウワサンギョウ,0
197,1120101045831,登記記録の閉鎖等,0,2022-04-13,2022-04-01,三起工業株式会社,,株式会社,大阪府,岸和田市,臨海町２０番地の６７,,27,202,5960013,,,2022-04-01,合併による解散等,5120101036513,令和４年４月１日大阪府岸和田市臨海町２０番地の６７岸和田金属株式会社（5120101036513）に合併し解散,2015-10-05,1,,,,,サンキコウギョウ,0
235,1170002004725,登記記録の閉鎖等,0,2022-04-13,2022-04-06,有限会社アクトメディ,,有限会社,和歌山県,和歌山市,弁財天丁２８番地,,30,201,6408131,,,2022-04-06,清算の結了等,,,2015-10-05,1,,,,,アクトメディ,0
241,1180002081854,登記記録の閉鎖等,0,2022-04-13,2022-03-31,有限会社江南シール印刷,,有限会社,愛知県,江南市,宮後町砂場東４５番地,,23,217,4838044,,,2022-03-31,清算の結了等,,,2015-10-05,1,,,,,コウナンシールインサツ,0
244,1180302007220,登記記録の閉鎖等,0,2022-04-13,2022-04-04,有限会社キング興産,,有限会社,愛知県,豊橋市,神野新田町字ヨノ割６９番地,,23,201,4418077,,,2022-04-04,清算の結了等,,,2015-10-05,1,,,,,キングコウサン,0
247,1190003003055,登記記録の閉鎖等,0,2022-04-13,2022-04-04,スープラス合同会社,,合同会社,北海道,札幌市豊平区,平岸二条６丁目２番１４号プレミオール平岸駅前１５０１,,01,105,0620932,,,2022-04-04,清算の結了等,,,2019-02-04,1,,,,,スープラス,0
249,1200001037111,登記記録の閉鎖等,0,2022-04-13,2022-04-06,株式会社丹羽工機グローバル,,株式会社,岐阜県,各務原市,各務東町５丁目８２番地の７,,21,213,5090103,,,2022-04-06,清算の結了等,,,2020-01-29,1,,,,,ニワコウキグローバル,0
257,1240001051744,登記記録の閉鎖等,0,2022-04-13,2022-04-01,株式会社小林石油店,,株式会社,広島県,広島市西区,横川町１丁目６番１７号,,34,104,7330011,,,2022-04-01,合併による解散等,5240001009986,令和４年４月１日広島市西区横川町一丁目６番１７号広川エナス株式会社（5240001009986）に合併し解散,2017-09-25,1,,,,,コバヤシセキユテン,0
264,1250002015292,登記記録の閉鎖等,0,2022-04-13,2022-04-05,有限会社ベーターオフィス,,有限会社,山口県,周南市,権現町４番１５号,,35,215,7450046,,,2022-04-05,清算の結了等,,,2015-10-05,1,,,,,ベーターオフィス,0
287,1290801019119,登記記録の閉鎖等,0,2022-04-13,2022-04-01,株式会社メディコ,,株式会社,福岡県,北九州市小倉北区,三萩野２丁目３番２３号,,40,106,8020065,,,2022-04-01,合併による解散等,2290801021478,令和４年４月１日北九州市小倉北区篠崎二丁目４８番３２号株式会社ＩＷＳ（2290801021478）に合併し解散,2015-10-05,1,,,,,メディコ,0
313,1370003001362,登記記録の閉鎖等,0,2022-04-13,2022-04-04,合資会社梅吉,,合資会社,宮城県,黒川郡大和町,吉岡南２丁目２８番１２号,,04,421,9813626,,,2022-04-04,清算の結了等,,,2015-10-05,1,,,,,ウメキチ,0
319,1390005007265,登記記録の閉鎖等,0,2022-04-13,2022-04-05,特定非営利活動法人長井まちづくりＮＰＯセンター,,その他の設立登記法人,山形県,長井市,十日町１丁目１０番２３号,,06,209,9930086,,,2022-04-05,清算の結了等,,,2015-10-05,1,,,,,ナガイマチヅクリエヌピーオーセンター,0
323,1410002006548,登記記録の閉鎖等,0,2022-04-13,2022-04-05,有限会社生駒組,,有限会社,秋田県,由利本荘市,石脇字田尻野７番地３１,,05,210,0150013,,,2022-04-05,清算の結了等,,,2015-10-05,1,,,,,イコマグミ,0
324,1420001000187,登記記録の閉鎖等,0,2022-04-13,2022-04-07,青森タクシー株式会社,,株式会社,青森県,青森市,大字新町野字幾田２番地２８,,02,201,0300135,,,2022-04-07,合併による解散等,2011801013963,令和４年４月１日東京都葛飾区四つ木五丁目５番１８号東京太陽株式会社（2011801013963）に合併し解散,2015-10-05,1,,,,,アオモリタクシー,0
328,1420002000681,登記記録の閉鎖等,0,2022-04-13,2022-04-08,有限会社オリジン企画,,有限会社,青森県,青森市,矢作３丁目１１番１３号,,02,201,0300917,,,2022-04-08,清算の結了等,,,2015-10-05,1,,,,,オリジンキカク,0
349,1470002007920,登記記録の閉鎖等,0,2022-04-13,2022-04-06,有限会社国高商会,,有限会社,香川県,高松市,一宮町９２５番地６,,37,201,7618084,,,2022-04-06,清算の結了等,,,2015-10-05,1,,,,,クニタカショウカイ,0
352,1500005001479,登記記録の閉鎖等,0,2022-04-13,2022-04-01,公益財団法人松山市スポーツ協会,,その他の設立登記法人,愛媛県,松山市,市坪西町６２５番地１,,38,201,7900948,,,2022-04-01,合併による解散等,1500005006973,令和４年４月１日愛媛県松山市湊町七丁目５番地公益財団法人松山市文化・スポーツ振興財団（1500005006973）に合併し解散,2015-10-05,1,,,,,マツヤマシスポーツキョウカイ,0
355,2010001067829,登記記録の閉鎖等,0,2022-04-13,2022-04-04,株式会社フォアキャスト・コミュニケーションズ,,株式会社,東京都,港区,東新橋１丁目２番１７号,,13,103,1050021,,,2022-04-04,合併による解散等,3010401139433,令和４年４月１日東京都港区東新橋一丁目６番１号株式会社日テレＷａｎｄｓ（3010401139433）に合併し解散,2015-10-05,1,,,,,フォアキャストコミュニケーションズ,0
361,2010401152560,登記記録の閉鎖等,0,2022-04-13,2022-04-05,ＦＩＮＴＥＧＲＩＴＹ’ｓ株式会社,,株式会社,愛知県,名古屋市中区,錦３丁目５番３０号三晃錦ビル４階,,23,106,4600003,,,2022-04-05,清算の結了等,,,2020-05-07,1,,,,,フィンテグリティー,0
364,2010501029997,登記記録の閉鎖等,0,2022-04-13,2022-04-08,ヘルスン株式会社,,株式会社,東京都,港区,芝５丁目２９番１１号,,13,103,1080014,,,2022-04-08,合併による解散等,3500001003279,令和４年４月１日愛媛県松山市来住町１３８３番１株式会社エポラ（3500001003279）に合併し解散,2015-10-05,1,,,,,ヘルスン,0
377,2010902001407,登記記録の閉鎖等,0,2022-04-13,2022-04-07,有限会社石川歯科商会,,有限会社,東京都,世田谷区,桜上水３丁目１２番１１号,,13,112,1560045,,,2022-04-07,清算の結了等,,,2015-10-05,1,,,,,イシカワシカショウカイ,0
390,2011003011634,登記記録の閉鎖等,0,2022-04-13,2022-03-28,合同会社Ｓｔｙｌｅ,,合同会社,東京都,渋谷区,恵比寿２丁目２８番１０号,,13,113,1500013,,,2022-03-28,清算の結了等,,,2020-09-23,1,,,,,スタイル,0
399,2011103009256,登記記録の閉鎖等,0,2022-04-13,2022-04-05,合同会社エムセカンド,,合同会社,東京都,新宿区,河田町３番５３－６０１号,,13,104,1620054,,,2022-04-05,清算の結了等,,,2019-11-18,1,,,,,エムセカンド,0
458,2021002000372,登記記録の閉鎖等,0,2022-04-13,2022-04-05,有限会社アルファ工業,,有限会社,神奈川県,藤沢市,長後１４２６番地の２,,14,205,2520801,,,2022-04-05,清算の結了等,,,2015-10-05,1,,,,,アルファコウギョウ,0
474,2040003013828,登記記録の閉鎖等,0,2022-04-13,2022-04-05,Ｕｍｉｋａ　Ｊａｐａｎ合同会社,,合同会社,千葉県,千葉市花見川区,幕張町１丁目７６７５番地１ハイホーム幕張８０２号,,12,102,2620032,,,2022-04-05,清算の結了等,,,2019-08-06,1,,,,,ウミカジャパン,0
487,2080001008157,登記記録の閉鎖等,0,2022-04-13,2022-04-06,オアシス株式会社,,株式会社,静岡県,静岡市清水区,長崎６９番地の１,,22,103,4240065,,,2022-04-06,合併による解散等,1080001008380,令和４年４月１日静岡市清水区長崎１０４２番地の１１静岡チップ工業株式会社（1080001008380）に合併し解散,2015-10-05,1,,,,,オアシス,0
491,2080401022600,登記記録の閉鎖等,0,2022-04-13,2022-04-05,株式会社ＧＥＮ,,株式会社,静岡県,浜松市中区,寺島町３２８番地,,22,131,4300925,,,2022-04-05,清算の結了等,,,2017-12-07,1,,,,,ゲン,0
500,2110001028044,登記記録の閉鎖等,0,2022-04-13,2022-04-04,株式会社Ｓｕｐｒｅｍｅ　Ｎａｎｏ　Ｔｅｃｈ　Ｊａｐａｎ,,株式会社,新潟県,新発田市,江口５２９番地,,15,206,9570037,,,2022-04-04,合併による解散等,3110001012690,令和４年４月１日新潟県新発田市米倉１２８７番地株式会社新和組（3110001012690）に合併し解散,2015-10-05,1,,,,,スプリームナノテックジャパン,0
501,2110001031601,登記記録の閉鎖等,0,2022-04-13,2022-04-05,株式会社ＮＥＥＶＯ,,株式会社,新潟県,新潟市東区,中野山２丁目４番地１９,,15,102,9500841,,,2022-04-05,清算の結了等,,,2016-06-21,1,,,,,ニーヴォ,0
504,2110002019281,登記記録の閉鎖等,0,2022-04-13,2022-04-04,有限会社ゴード,,有限会社,新潟県,燕市,殿島１丁目１４番２０号,,15,213,9591233,,,2022-04-04,清算の結了等,,,2015-10-05,1,,,,,ゴード,0
508,2120001023498,登記記録の閉鎖等,0,2022-04-13,2022-04-06,株式会社サンクス,,株式会社,大阪府,大阪市天王寺区,北山町８番８号,,27,109,5430035,,,2022-04-06,清算の結了等,,,2015-10-05,1,,,,,サンクス,0
522,2120002054534,登記記録の閉鎖等,0,2022-04-13,2022-04-07,有限会社エムズ・フロント,,有限会社,大阪府,大阪市中央区,松屋町１番１７号,,27,128,5420067,,,2022-04-07,清算の結了等,,,2015-10-05,1,,,,,エムズフロント,0
532,2120901016171,登記記録の閉鎖等,0,2022-04-13,2022-04-11,株式会社北摂商事,,株式会社,大阪府,茨木市,下井町１番１１号,,27,211,5670066,,,2022-04-11,合併による解散等,6122001012064,令和４年４月１日大阪府東大阪市新町２２番１５号株式会社ホクセツ（6122001012064）に合併し解散,2015-10-05,1,,,,,ホクセツショウジ,0
549,2140001034849,登記記録の閉鎖等,0,2022-04-13,2022-04-01,弘由運輸機工株式会社,,株式会社,兵庫県,明石市,魚住町錦が丘１丁目１３番地の１４,,28,203,6740081,,,2022-04-01,合併による解散等,9140001004663,令和４年４月１日神戸市西区岩岡町野中字内山２番地の１弘由ロジスティックス株式会社（9140001004663）に合併し解散,2015-10-05,1,,,,,コウユウウンユキコウ,0
557,2140001104610,登記記録の閉鎖等,0,2022-04-13,2022-04-08,株式会社フロンティア不動産販売,,株式会社,兵庫県,神戸市西区,玉津町居住１１９番地の１,,28,111,6512145,,,2022-04-08,合併による解散等,9120001177841,令和４年４月１日大阪府守口市南寺方東通二丁目１１番１号株式会社フロンティア不動産販売（9120001177841）に合併し解散,2017-01-12,1,,,,,フロンティアフドウサンハンバイ,0
568,2170001011432,登記記録の閉鎖等,0,2022-04-13,2022-04-06,株式会社紀南ヘリポート,,株式会社,和歌山県,新宮市,春日１番１号,,30,207,6470013,,,2022-04-06,清算の結了等,,,2015-10-05,1,,,,,キナンヘリポート,0
577,2180003022328,登記記録の閉鎖等,0,2022-04-13,2022-04-05,合同会社ｆｒｅｅｓｉａ,,合同会社,愛知県,海部郡大治町,大字長牧字浦畑１３５番地ＤＯＬＣＥＶＩＴＡ－Ａ２０２,,23,424,4901131,,,2022-04-05,清算の結了等,,,2021-04-07,1,,,,,フリージア,0
590,2210001001560,登記記録の閉鎖等,0,2022-04-13,2022-04-01,株式会社しゃり一,,株式会社,福井県,福井市,高木中央３丁目１０１番地,,18,201,9100804,,,2022-04-01,合併による解散等,9210001003294,令和４年４月１日福井市高木中央二丁目４２０２番地福井パールライス株式会社（9210001003294）に合併し解散,2015-10-05,1,,,,,シャリイチ,0
611,2280003001024,登記記録の閉鎖等,0,2022-04-13,2022-04-11,合同会社リライフキング,,合同会社,島根県,松江市,学園２丁目２８番１７号,,32,201,6900825,,,2022-04-11,清算の結了等,,,2015-10-05,1,,,,,リライフキング,0
677,3010001126162,登記記録の閉鎖等,0,2022-04-13,2022-04-11,エイト土地建物株式会社,,株式会社,東京都,千代田区,神田小川町３丁目３番地,,13,101,1010052,,,2022-04-11,合併による解散等,6011001138962,令和４年４月１日東京都新宿区新宿二丁目８番８号株式会社ケービーエステート（6011001138962）に合併し解散,2015-10-05,1,,,,,エイトトチタテモノ,0
688,3010005030749,登記記録の閉鎖等,0,2022-04-13,2022-04-08,一般社団法人スワンプロパティ,,その他の設立登記法人,東京都,中央区,日本橋２丁目７番１号,,13,102,1030027,,,2022-04-08,清算の結了等,,,2019-09-10,1,,,,,スワンプロパティ,0
692,3010401136240,登記記録の閉鎖等,0,2022-04-13,2022-04-01,株式会社ＮＯＢＯＲＩ,,株式会社,東京都,港区,三田３丁目１１番２４号,,13,103,1080073,,,2022-04-01,合併による解散等,6010401024698,令和４年４月１日東京都港区虎ノ門五丁目１３番１号ＰＳＰ株式会社（6010401024698）に合併し解散,2018-01-26,1,,,,,ノボリ,0
695,3010401151339,登記記録の閉鎖等,0,2022-04-13,2022-04-08,株式会社放送通信機器,,株式会社,兵庫県,神戸市東灘区,向洋町東３丁目１２番地,,28,101,6580031,,,2022-04-08,合併による解散等,1010401163749,令和４年４月１日東京都港区虎ノ門一丁目３番１号株式会社放送通信機器（1010401163749）に合併し解散,2020-02-28,1,,,,,ホウソウツウシンキキ,0
716,3011001017277,登記記録の閉鎖等,0,2022-04-13,2022-04-01,ニッタン電工株式会社,,株式会社,東京都,渋谷区,笹塚１丁目５４番５号,00064371,13,113,1510073,,,2022-04-01,合併による解散等,3011001017236,令和４年４月１日東京都渋谷区笹塚一丁目５４番５号ニッタン株式会社（3011001017236）に合併し解散,2015-10-05,1,,,,,ニッタンデンコウ,0
721,3011003012227,登記記録の閉鎖等,0,2022-04-13,2022-03-28,合同会社メディトリ,,合同会社,東京都,渋谷区,恵比寿２丁目２８番１０号,,13,113,1500013,,,2022-03-28,清算の結了等,,,2021-02-05,1,,,,,メディトリ,0
725,3011101051234,登記記録の閉鎖等,0,2022-04-13,2022-04-06,株式会社連建築設計事務所,,株式会社,東京都,新宿区,新宿１丁目３番地８号,,13,104,1600022,,,2022-04-06,清算の結了等,,,2015-10-05,1,,,,,レンケンチクセッケイジムショ,0
731,3011201015592,登記記録の閉鎖等,0,2022-04-13,2022-04-07,株式会社リンクル,,株式会社,東京都,新宿区,神楽坂２丁目１７番地,,13,104,1620825,,,2022-04-07,合併による解散等,5011101021045,令和４年４月１日東京都新宿区神楽坂二丁目１７番地株式会社メディアハウスホールディングス（5011101021045）に合併し解散,2015-10-05,1,,,,,リンクル,0
739,3011703000662,登記記録の閉鎖等,0,2022-04-13,2022-04-11,合同会社ＶＴＦＡマウンテン,,合同会社,東京都,江戸川区,東小岩３丁目７番１８号,,13,123,1330052,,,2022-04-11,清算の結了等,,,2015-10-05,1,,,,,ヴイティーエフエーマウンテン,0
744,3012401019697,登記記録の閉鎖等,0,2022-04-13,2022-04-01,株式会社エルシエロ,,株式会社,東京都,三鷹市,井の頭１丁目７番８号,,13,204,1810001,,,2022-04-01,合併による解散等,6012401018655,令和４年４月１日東京都三鷹市井の頭一丁目３１番２５号株式会社桂不動産（6012401018655）に合併し解散,2015-10-05,1,,,,,エルシエロ,0
748,3012402011083,登記記録の閉鎖等,0,2022-04-13,2022-04-11,有限会社小林製畳工業,,有限会社,東京都,調布市,西つつじケ丘３丁目２７番地５,,13,208,1820006,,,2022-04-11,清算の結了等,,,2015-10-05,1,,,,,コバヤシセイジョウコウギョウ,0
784,3040002094604,登記記録の閉鎖等,0,2022-04-13,2022-04-11,有限会社綾ロジテック,,有限会社,東京都,練馬区,中村１丁目４番７号,,13,120,1760024,,,2022-04-11,清算の結了等,,,2015-10-05,1,,,,,アヤロジテック,0
789,3060001016425,登記記録の閉鎖等,0,2022-04-13,2022-04-01,株式会社第一住宅,,株式会社,栃木県,小山市,西城南２丁目１３番地１８,,09,208,3230820,,,2022-04-01,合併による解散等,6060001016645,令和４年４月１日栃木県栃木市境町２３番２６号株式会社丸和住宅（6060001016645）に合併し解散,2015-10-05,1,,,,,ダイイチジュウタク,0
795,3060002037486,登記記録の閉鎖等,0,2022-04-13,2022-04-06,有限会社ミムラコーポレーション,,有限会社,栃木県,足利市,五十部町４２４番地の２,,09,202,3260843,,,2022-04-06,清算の結了等,,,2015-10-05,1,,,,,ミムラコーポレーション,0
796,3060005006199,登記記録の閉鎖等,0,2022-04-13,2022-04-05,足繊織物協同組合,,その他の設立登記法人,栃木県,足利市,五十部町６７８番地１,,09,202,3260843,,,2022-04-05,清算の結了等,,,2015-10-05,1,,,,,アシセンオリモノ,0
808,3080401014150,登記記録の閉鎖等,0,2022-04-13,2022-04-05,株式会社テイクワン,,株式会社,静岡県,浜松市中区,新津町３番地の４,,22,131,4300911,,,2022-04-05,清算の結了等,,,2015-10-05,1,,,,,テイクワン,0
841,3120001151273,登記記録の閉鎖等,0,2022-04-13,2022-04-05,株式会社小樹桂,,株式会社,大阪府,枚方市,出屋敷西町２丁目１２番１号,,27,210,5730003,,,2022-04-05,清算の結了等,,,2015-10-05,1,,,,,コジュケイ,0
855,3120005017628,登記記録の閉鎖等,0,2022-04-13,2022-04-07,一般社団法人Ｉ・Ｈ・Ｅ研修協会,,その他の設立登記法人,大阪府,大阪市淀川区,宮原４丁目１番４６号新大阪北ビル４０１号室,,27,123,5320003,,,2022-04-07,清算の結了等,,,2015-10-05,1,,,,,アイエイチイーケンシュウキョウカイ,0
867,3130002008083,登記記録の閉鎖等,0,2022-04-13,2022-04-05,有限会社ヤマサキ水草園,,有限会社,京都府,京都市下京区,梅小路西中町４０番地,,26,106,6008854,,,2022-04-05,清算の結了等,,,2015-10-05,1,,,,,ヤマサキスイソウエン,0
874,3140001119186,登記記録の閉鎖等,0,2022-04-13,2022-04-11,株式会社フロンティア不動産販売,,株式会社,兵庫県,姫路市,飾磨区構４丁目１３５番地,,28,201,6728071,,,2022-04-11,合併による解散等,7120001180351,令和４年４月１日大阪府枚方市東香里南町５２番２６号株式会社フロンティア住宅販売（7120001180351）に合併し解散,2020-10-22,1,,,,,フロンティアフドウサンハンバイ,0
878,3140002022637,登記記録の閉鎖等,0,2022-04-13,2022-04-06,有限会社ハート・ワン,,有限会社,兵庫県,神戸市東灘区,魚崎南町２丁目１８番１６号２,,28,101,6580025,,,2022-04-06,清算の結了等,,,2015-10-05,1,,,,,ハートワン,0
885,3160002002075,登記記録の閉鎖等,0,2022-04-13,2022-04-11,有限会社神田製作所,,有限会社,滋賀県,大津市,和邇中浜５０４番地,,25,201,5200522,,,2022-04-11,清算の結了等,,,2015-10-05,1,,,,,カンダセイサクショ,0
887,3180001022048,登記記録の閉鎖等,0,2022-04-13,2022-04-05,株式会社鈴豊,,株式会社,愛知県,名古屋市熱田区,三本松町７番１号,,23,109,4560032,,,2022-04-05,清算の結了等,,,2015-10-05,1,,,,,スズトヨ,0
889,3180001054297,登記記録の閉鎖等,0,2022-04-13,2022-04-04,株式会社タカセ,,株式会社,愛知県,名古屋市中区,大須３丁目１４番５５号,,23,106,4600011,,,2022-04-04,清算の結了等,,,2015-10-05,1,,,,,タカセ,0
890,3180001077298,登記記録の閉鎖等,0,2022-04-13,2022-04-06,株式会社ホンダドリーム中部,,株式会社,愛知県,小牧市,元町４丁目７７番地１,,23,219,4850072,,,2022-04-06,合併による解散等,1011801020861,令和４年４月１日東京都葛飾区柴又二丁目２１番１１号株式会社ホンダドリームジャパン（1011801020861）に合併し解散,2015-10-05,1,,,,,ホンダドリームチュウブ,0
897,3180301028819,登記記録の閉鎖等,0,2022-04-13,2022-04-04,三栄豊橋たまご株式会社,,株式会社,愛知県,豊橋市,大岩町字車田３１番地１,,23,201,4413147,,,2022-04-04,合併による解散等,4180301000776,令和４年４月１日愛知県岡崎市中島町字新町４０番地三栄鶏卵株式会社（4180301000776）に合併し解散,2016-01-19,1,,,,,サンエイトヨハシタマゴ,0
902,3210001010429,登記記録の閉鎖等,0,2022-04-13,2022-04-01,福井小松フォークリフト株式会社,,株式会社,福井県,福井市,若栄町９１２番地,,18,201,9100831,,,2022-04-01,合併による解散等,9210001001298,令和４年４月１日福井市主計中町第１３号７番地コマツサービスエース株式会社（9210001001298）に合併し解散,2015-10-05,1,,,,,フクイコマツフォークリフト,0
912,3230001006499,登記記録の閉鎖等,0,2022-04-13,2022-04-01,株式会社タテヤマ地所,,株式会社,富山県,中新川郡立山町,前沢３５２６番地９,,16,323,9300221,,,2022-04-01,合併による解散等,6230001006447,令和４年４月１日富山県中新川郡立山町前沢３５２６番地９株式会社オオツジ（6230001006447）に合併し解散,2015-10-05,1,,,,,タテヤマジショ,0
914,3230001010451,登記記録の閉鎖等,0,2022-04-13,2022-04-01,高岡ホンダ自販株式会社,,株式会社,富山県,高岡市,赤祖父７５２番地,,16,202,9330806,,,2022-04-01,合併による解散等,8230001002881,令和４年４月１日富山市新庄本町二丁目９番７９号株式会社ホンダ自販タナカ（8230001002881）に合併し解散,2015-10-05,1,,,,,タカオカホンダジハン,0
926,3280001003269,登記記録の閉鎖等,0,2022-04-13,2022-04-08,株式会社クロレラサプライ,,株式会社,島根県,出雲市,長浜町１３７２番地１７,,32,203,6930043,,,2022-04-08,合併による解散等,3500001003279,令和４年４月１日愛媛県松山市来住町１３８３番１株式会社エポラ（3500001003279）に合併し解散,2015-10-05,1,,,,,クロレラサプライ,0
934,3300001009098,登記記録の閉鎖等,0,2022-04-13,2022-04-11,株式会社プラネット・アース,,株式会社,滋賀県,大津市,別保３丁目１１番３２号,,25,201,5200835,,,2022-04-11,清算の結了等,,,2015-10-05,1,,,,,プラネットアース,0
956,3380001016888,登記記録の閉鎖等,0,2022-04-13,2022-04-05,株式会社Ａ・Ｍ・Ｏ・Ｓ,,株式会社,福島県,双葉郡浪江町,大字樋渡字前田２５番地１,00083261,07,547,9791532,,,2022-04-05,清算の結了等,,,2015-10-05,1,,,,,アモス,0
961,3400002012834,登記記録の閉鎖等,0,2022-04-13,2022-03-31,有限会社グリーンスポーツ久慈,,有限会社,岩手県,久慈市,夏井町夏井第１地割６０番地３５,,03,207,0280001,,,2022-03-31,清算の結了等,,,2015-10-05,1,,,,,グリーンスポーツクジ,0
967,3430002054799,登記記録の閉鎖等,0,2022-04-13,2022-04-01,有限会社テクノ大眼,,有限会社,北海道,小樽市,稲穂２丁目７番１８号,,01,203,0470032,,,2022-04-01,合併による解散等,5430001050129,令和４年３月３１日北海道小樽市稲穂二丁目７番１８号高橋燃料商事株式会社（5430001050129）に合併し解散,2015-10-05,1,,,,,テクノタイゲン,0
970,3430002062249,登記記録の閉鎖等,0,2022-04-13,2022-04-01,有限会社信成牧場,,有限会社,北海道,浦河郡浦河町,字上杵臼５６番地,,01,607,0570173,,,2022-04-01,清算の結了等,,,2015-10-05,1,,,,,シンセイボクジョウ,0
981,3460101003282,登記記録の閉鎖等,0,2022-04-13,2022-04-05,株式会社山中,,株式会社,北海道,中川郡本別町,北３丁目５番地９,,01,646,0893334,,,2022-04-05,合併による解散等,3460101003258,令和４年４月１日北海道中川郡本別町北三丁目５番地９株式会社野田組（3460101003258）に合併し解散,2015-10-05,1,,,,,ヤマナカ,0
996,4010001048752,登記記録の閉鎖等,0,2022-04-13,2022-04-01,第一紙業株式会社,,株式会社,東京都,中央区,銀座３丁目１４番１０号,,13,102,1040061,,,2022-04-01,合併による解散等,5010001223239,令和４年４月１日東京都文京区音羽一丁目１７番１４号株式会社ＫＰＳホールディングス（5010001223239）に合併し解散,2015-10-05,1,,,,,ダイイチシギョウ,0
1003,4010002050690,登記記録の閉鎖等,0,2022-04-13,2022-04-01,有限会社築地パッケージセンター,,有限会社,東京都,中央区,日本橋小網町１６番１４号,,13,102,1030016,,,2022-04-01,合併による解散等,5040001038898,令和４年４月１日東京都中央区日本橋小網町１６番１４号東京シティ商事株式会社（5040001038898）に合併し解散,2015-10-05,1,,,,,ツキジパッケージセンター,0
1005,4010005033528,登記記録の閉鎖等,0,2022-04-13,2022-04-08,一般社団法人ｅｘｐｏｎｅｎｔｉａｌ　ｄｅｖｅｌｏｐｍｅｎｔ,,その他の設立登記法人,東京都,千代田区,丸の内３丁目１番１号東京共同会計事務所内,,13,101,1000005,,,2022-04-08,清算の結了等,,,2021-06-21,1,,,,,エクスポネンシャルデベロップメント,0
1016,4010405017139,登記記録の閉鎖等,0,2022-04-13,2022-04-01,一般社団法人Ｈａｙａｍａ,,その他の設立登記法人,東京都,港区,虎ノ門５丁目１番４号,,13,103,1050001,,,2022-04-01,清算の結了等,,,2018-10-11,1,,,,,ハヤマ,0
1023,4010701028302,登記記録の閉鎖等,0,2022-04-13,2022-04-08,ｏｎａｋａｓｕｉｔａ株式会社,,株式会社,東京都,品川区,広町１丁目３番２９号,,13,109,1400005,,,2022-04-08,合併による解散等,2011301020989,令和４年４月１日東京都武蔵野市吉祥寺南町三丁目２７番２２号株式会社ｋｏｕｊｉｔｓｕ（2011301020989）に合併し解散,2015-10-05,1,,,,,オナカスイタ,0
1025,4010702004434,登記記録の閉鎖等,0,2022-04-13,2022-04-05,有限会社寿司勝,,有限会社,東京都,品川区,南品川２丁目９番１号,,13,109,1400004,,,2022-04-05,清算の結了等,,,2015-10-05,1,,,,,スシカツ,0
1036,4011001131184,登記記録の閉鎖等,0,2022-04-13,2022-03-31,Ｂｌｕｅ　Ｙｏｎｄｅｒパナソニックビジネスソリューションズ株式会社,,株式会社,東京都,目黒区,上目黒２丁目１番１号中目黒ＧＴタワー,,13,110,1530051,,,2022-03-31,清算の結了等,,,2019-12-04,1,,,,,,0
1043,4011101076569,登記記録の閉鎖等,0,2022-04-13,2022-04-07,株式会社メディアハウスクリエーション,,株式会社,東京都,新宿区,神楽坂２丁目１７番地,,13,104,1620825,,,2022-04-07,合併による解散等,5011101021045,令和４年４月１日東京都新宿区神楽坂二丁目１７番地株式会社メディアハウスホールディングス（5011101021045）に合併し解散,2016-04-08,1,,,,,メディアハウスクリエーション,0
1081,4020002068567,登記記録の閉鎖等,0,2022-04-13,2022-04-06,有限会社竜西造園,,有限会社,神奈川県,横浜市都筑区,すみれが丘２４番地１,,14,118,2240013,,,2022-04-06,清算の結了等,,,2015-10-05,1,,,,,リュウザイゾウエン,0
1083,4020003007012,登記記録の閉鎖等,0,2022-04-13,2022-04-06,スパーク・マーケティング・エンタテインメント・ジャパン合同会社,,合同会社,神奈川県,横浜市金沢区,柴町３６３番地,,14,108,2360012,,,2022-04-06,清算の結了等,,,2015-10-05,1,,,,,スパークマーケティングエンタテインメントジャパン,0
1092,4021002018165,登記記録の閉鎖等,0,2022-04-13,2022-04-05,有限会社うすやき米菓本舖,,有限会社,神奈川県,相模原市中央区,矢部１丁目１１番１号,,14,152,2520232,,,2022-04-05,清算の結了等,,,2015-10-05,1,,,,,ウスヤキベイカホンポ,0
1104,4040001006113,登記記録の閉鎖等,0,2022-04-13,2022-04-01,ハート株式会社,,株式会社,千葉県,市原市,五井中央南１丁目６番地２,,12,219,2900082,,,2022-04-01,清算の結了等,,,2015-10-05,1,,,,,ハート,0
1110,4040002069679,登記記録の閉鎖等,0,2022-04-13,2022-04-04,有限会社Ｌ＆Ｓ,,有限会社,千葉県,木更津市,畑沢南２丁目８番２５号,,12,206,2920826,,,2022-04-04,清算の結了等,,,2015-10-05,1,,,,,エルアンドエス,0
1147,4110001021690,登記記録の閉鎖等,0,2022-04-13,2022-04-01,くろひめグループ株式会社,,株式会社,新潟県,糸魚川市,大町１丁目４番２３号,,15,216,9410061,,,2022-04-01,合併による解散等,9110001021637,令和４年４月１日新潟県糸魚川市横町五丁目２番１４号くろひめグループ株式会社（9110001021637）に合併し解散,2015-10-05,1,,,,,クロヒメグループ,0
1158,4120001086659,登記記録の閉鎖等,0,2022-04-13,2022-04-11,日興ケミカル株式会社,,株式会社,大阪府,大阪市西区,江戸堀１丁目２番１１号大同生命肥後橋ビル南館２０１号,,27,106,5500002,,,2022-04-11,合併による解散等,3120001168326,令和４年４月１日広島県三原市八幡町垣内９３番地ＮＣＴフロンティア株式会社（3120001168326）に合併し解散,2015-10-05,1,,,,,,0
1161,4120001153814,登記記録の閉鎖等,0,2022-04-13,2022-04-04,株式会社ケアスマイル,,株式会社,大阪府,枚方市,南楠葉１丁目１３番５号サウスコート１０１号室,,27,210,5731105,,,2022-04-04,清算の結了等,,,2015-10-05,1,,,,,ケアスマイル,0
1162,4120001162773,登記記録の閉鎖等,0,2022-04-13,2022-04-04,株式会社トラストオフィス,,株式会社,大阪府,大阪市北区,中津１丁目１０番１３号,,27,127,5310071,,,2022-04-04,清算の結了等,,,2015-10-05,1,,,,,トラストオフィス,0
1180,4120102005815,登記記録の閉鎖等,0,2022-04-13,2022-04-06,有限会社エスジェイシステム,,有限会社,大阪府,堺市東区,引野町３丁１番地初芝グリーンハイツ２０１号,,27,143,5998104,,,2022-04-06,清算の結了等,,,2015-10-05,1,,,,,エスジェイシステム,0
1183,4120105007726,登記記録の閉鎖等,0,2022-04-13,2022-04-01,公益財団法人堺市勤労者福祉サービスセンター,,その他の設立登記法人,大阪府,堺市堺区,田出井町２番１号堺市立勤労者総合福祉センター内,,27,141,5900014,,,2022-04-01,合併による解散等,2120105007728,令和４年４月１日大阪府堺市北区長曽根町１８３番地５公益財団法人堺市産業振興センター（2120105007728）に合併し解散,2015-10-05,1,,,,,サカイシキンロウシャフクシサービスセンター,0
1211,4180301014314,登記記録の閉鎖等,0,2022-04-13,2022-04-01,株式会社トータルサービスシステムズ,,株式会社,愛知県,刈谷市,泉田町割田７７番地１,,23,210,4480004,,,2022-04-01,合併による解散等,2180302018992,令和４年４月１日愛知県刈谷市泉田町割田７７番地１まるすホールディングス株式会社（2180302018992）に合併し解散,2015-10-05,1,,,,,トータルサービスシステムズ,0
1217,4220001017777,登記記録の閉鎖等,0,2022-04-13,2022-04-08,ＰＦＵクリエイティブサービス株式会社,,株式会社,石川県,かほく市,宇野気ヌ９８番地の２,,17,209,9291125,,,2022-04-08,合併による解散等,6220001017593,令和４年４月１日石川県かほく市宇野気ヌ９８番地の２株式会社ＰＦＵ（6220001017593）に合併し解散,2015-10-05,1,,,,,ピーエフユークリエイティブサービス,0
1234,4260002025833,登記記録の閉鎖等,0,2022-04-13,2022-04-08,藤代産業有限会社,,有限会社,岡山県,井原市,井原町１８９番地の２,,33,207,7150019,,,2022-04-08,清算の結了等,,,2015-10-05,1,,,,,フジシロサンギョウ,0
1245,4290002056438,登記記録の閉鎖等,0,2022-04-13,2022-04-08,そえる・ニシヤマ３９有限会社,,有限会社,東京都,世田谷区,北沢４丁目２５番１０号宮國ハウス２０１,,13,112,1550031,,,2022-04-08,清算の結了等,,,2015-10-05,1,,,,,ソエルニシヤマ,0
1249,4290801023836,登記記録の閉鎖等,0,2022-04-13,2022-04-04,株式会社ｆｏｕｒ　ｌｅａｆ　ｃｌｏｖｅｒ,,株式会社,福岡県,北九州市小倉南区,湯川１丁目５番６号,,40,107,8000257,,,2022-04-04,合併による解散等,2290801006644,令和４年４月１日北九州市小倉北区三郎丸三丁目１２番１２号株式会社アンサー倶楽部（2290801006644）に合併し解散,2017-07-26,1,,,,,フォーリーフクローバー,0
1252,4290802004637,登記記録の閉鎖等,0,2022-04-13,2022-04-04,有限会社中野興産,,有限会社,福岡県,北九州市小倉北区,馬借２丁目６番８号,,40,106,8020077,,,2022-04-04,合併による解散等,5290801001485,令和４年４月１日北九州市小倉北区魚町二丁目６番１号第一小倉商工会館株式会社（5290801001485）に合併し解散,2015-10-05,1,,,,,ナカノコウサン,0
1304,4490002010804,登記記録の閉鎖等,0,2022-04-13,2022-04-01,有限会社市川ビルサッシ工業,,有限会社,高知県,高岡郡四万十町,中ノ越５８番地３,,39,412,7860023,,,2022-04-01,清算の結了等,,,2015-10-05,1,,,,,イチカワビルサッシコウギョウ,0
1307,4500005002656,登記記録の閉鎖等,0,2022-04-13,2022-04-08,医療法人亀井小児科,,その他の設立登記法人,愛媛県,大洲市,東大洲１７番地,,38,207,7950064,,,2022-04-08,清算の結了等,,,2015-10-05,1,,,,,カメイショウニカ,0
1311,5010001186725,登記記録の閉鎖等,0,2022-04-13,2022-04-11,株式会社ＯＫＵＳＹＳＴＥＭ,,株式会社,東京都,台東区,東上野５丁目１－５日新上野ビルＢ１Ｆ,,13,106,1100015,,,2022-04-11,合併による解散等,8120001038400,令和４年４月１日大阪市西区江戸堀１－９－１肥後橋センタービル１２階株式会社ジェイテック（8120001038400）に合併し解散,2017-10-05,1,,,,,オクシステム,0
1322,5010401098735,登記記録の閉鎖等,0,2022-04-13,2022-04-01,株式会社コアジェニック,,株式会社,東京都,港区,芝大門２丁目７番１号１０２,,13,103,1050012,,,2022-04-01,合併による解散等,8010401097404,令和４年４月１日東京都港区芝大門二丁目７番１号ハイリーフ芝大門１０２号株式会社ルビキタス（8010401097404）に合併し解散,2015-10-05,1,,,,,コアジェニック,0
1327,5010405019332,登記記録の閉鎖等,0,2022-04-13,2022-04-01,一般社団法人ＳＡ　ＰＲＯＰＥＲＴＹ　ＯＪＩＭＡ,,その他の設立登記法人,東京都,港区,虎ノ門５丁目１番４号,,13,103,1050001,,,2022-04-01,清算の結了等,,,2020-12-08,1,,,,,エスエープロパティオオジマ,0
1357,5011101076568,登記記録の閉鎖等,0,2022-04-13,2022-04-07,株式会社メディアハウスプロモーション,,株式会社,東京都,新宿区,神楽坂２丁目１７番地,,13,104,1620825,,,2022-04-07,合併による解散等,5011101021045,令和４年４月１日東京都新宿区神楽坂二丁目１７番地株式会社メディアハウスホールディングス（5011101021045）に合併し解散,2016-04-08,1,,,,,メディアハウスプロモーション,0
1381,5012301011389,登記記録の閉鎖等,0,2022-04-13,2022-04-05,株式会社７ｐｅｒ．ｒｉｓｅ,,株式会社,東京都,町田市,南大谷１７６番地,,13,209,1940031,,,2022-04-05,合併による解散等,8011101077547,令和４年４月１日東京都新宿区西新宿六丁目１０番１号新宿オークシティ日土地西新宿ビル８階株式会社ワタヤホーム（8011101077547）に合併し解散,2018-05-23,1,,,,,ナナパーセントライズ,0
1404,5021001023958,登記記録の閉鎖等,0,2022-04-13,2022-04-01,株式会社ティー・ビー・ジェイ,,株式会社,神奈川県,厚木市,岡田１丁目３番２５号,,14,212,2430021,,,2022-04-01,合併による解散等,9021001021470,令和４年４月１日神奈川県厚木市岡田一丁目３番２５号株式会社ニスコ（9021001021470）に合併し解散,2015-10-05,1,,,,,ティービージェイ,0
1438,5050005000259,登記記録の閉鎖等,0,2022-04-13,2022-04-01,水戸たばこ販売協同組合,,その他の設立登記法人,茨城県,水戸市,千波町２４６６番地,,08,201,3100851,,,2022-04-01,合併による解散等,3050005002174,令和４年４月１日茨城県水戸市千波町２４６６番地茨城たばこ販売協同組合（3050005002174）に合併し解散,2015-10-05,1,,,,,ミトタバコハンバイ,0
1445,5070001007578,登記記録の閉鎖等,0,2022-04-13,2022-04-06,株式会社大富スプリング,,株式会社,群馬県,高崎市,緑町４丁目２番１号,,10,202,3700073,,,2022-04-06,合併による解散等,6230001007387,令和４年３月３１日富山県黒部市岡４３５番地東洋ゼンマイ株式会社（6230001007387）に合併し解散,2015-10-05,1,,,,,オオトミスプリング,0
1453,5080102010835,登記記録の閉鎖等,0,2022-04-13,2022-04-11,有限会社高台産業,,有限会社,静岡県,三島市,八反畑２６番地の８,,22,206,4110817,,,2022-04-11,清算の結了等,,,2015-10-05,1,,,,,,0
1459,5100002007474,登記記録の閉鎖等,0,2022-04-13,2022-04-07,有限会社宮澤保険,,有限会社,長野県,長野市,東鶴賀町３２番地２,,20,201,3800811,,,2022-04-07,清算の結了等,,,2015-10-05,1,,,,,ミヤザワホケン,0
1512,5140001029409,登記記録の閉鎖等,0,2022-04-13,2022-04-06,株式会社グッズジャパン,,株式会社,兵庫県,芦屋市,津知町１１番３－２０３号,,28,206,6590075,,,2022-04-06,清算の結了等,,,2015-10-05,1,,,,,グッズジャパン,0
1526,5180001036302,登記記録の閉鎖等,0,2022-04-13,2022-04-05,山幸木材株式会社,,株式会社,愛知県,名古屋市中区,大須４丁目１５番２７号,,23,106,4600011,,,2022-04-05,清算の結了等,,,2015-10-05,1,,,,,ヤマコウモクザイ,0
1539,5180301005493,登記記録の閉鎖等,0,2022-04-13,2022-04-04,キングタクシー株式会社,,株式会社,愛知県,豊橋市,神野新田町字ヨノ割６９番地,,23,201,4418077,,,2022-04-04,清算の結了等,,,2015-10-05,1,,,,,キングタクシー,0
1544,5200005005226,登記記録の閉鎖等,0,2022-04-13,2022-04-11,光明寺,,その他の設立登記法人,岐阜県,養老郡養老町,鷲巣１２９９番地,,21,341,5031261,,,2022-04-11,清算の結了等,,,2015-10-05,1,,,,,コウミョウジ,0
1554,5240001016487,登記記録の閉鎖等,0,2022-04-13,2022-04-08,株式会社中国トランスポート,,株式会社,広島県,広島市中区,南吉島２丁目３番１３号,,34,101,7300826,,,2022-04-08,合併による解散等,4120001110518,令和４年４月１日大阪市平野区平野馬場二丁目２番３４号株式会社西日本トランスポート（4120001110518）に合併し解散,2015-10-05,1,,,,,チュウゴクトランスポート,0
1555,5240001032443,登記記録の閉鎖等,0,2022-04-13,2022-04-06,株式会社山口風呂製作所,,株式会社,広島県,福山市,野上町１丁目５番１号,,34,207,7200815,,,2022-04-06,清算の結了等,,,2015-10-05,1,,,,,ヤマグチフロセイサクショ,0
1557,5240001050008,登記記録の閉鎖等,0,2022-04-13,2022-04-01,さくらＢＩＭ株式会社,,株式会社,広島県,広島市西区,横川町１丁目６番１７号,,34,104,7330011,,,2022-04-01,合併による解散等,5240001009986,令和４年４月１日広島市西区横川町一丁目６番１７号広川エナス株式会社（5240001009986）に合併し解散,2016-09-29,1,,,,,サクラビーアイエム,0
1565,5260002031616,登記記録の閉鎖等,0,2022-04-13,2022-04-07,栄徳汽船有限会社,,有限会社,岡山県,備前市,日生町寒河２５３４番地,,33,211,7013202,,,2022-04-07,清算の結了等,,,2015-10-05,1,,,,,エイトクキセン,0
1566,5260005007258,登記記録の閉鎖等,0,2022-04-13,2022-04-11,医療法人松晃会,,その他の設立登記法人,岡山県,倉敷市,松島１１５２番地１９,,33,202,7010114,,,2022-04-11,清算の結了等,,,2015-10-05,1,,,,,ショウコウカイ,0
1573,5290001061751,登記記録の閉鎖等,0,2022-04-13,2022-04-08,株式会社ヤナセデライト,,株式会社,福岡県,糸島市,二丈武４９番地３,,40,230,8191616,,,2022-04-08,合併による解散等,5310001011729,令和４年４月１日長崎県南松浦郡新上五島町奈摩郷３７９番地５株式会社新上五島在宅ケアセンター（5310001011729）に合併し解散,2015-10-05,1,,,,,ヤナセデライト,0
1600,5340003001650,登記記録の閉鎖等,0,2022-04-13,2022-04-08,Ｆｅｅｌ　Ｆｒｅｅ合同会社,,合同会社,鹿児島県,鹿児島市,中山町１８６２番地１,,46,201,8910105,,,2022-04-08,清算の結了等,,,2015-10-05,1,,,,,フィールフリー,0
1606,5370001025698,登記記録の閉鎖等,0,2022-04-13,2022-04-01,株式会社アークエステート,,株式会社,宮城県,仙台市青葉区,花京院２丁目１番５号,,04,101,9800013,,,2022-04-01,合併による解散等,4370001014702,令和４年４月１日仙台市青葉区花京院二丁目１番５号株式会社ナラティブ（4370001014702）に合併し解散,2015-10-05,1,,,,,アークエステート,0
1609,5370502000547,登記記録の閉鎖等,0,2022-04-13,2022-04-01,有限会社マルナオ遠藤土建,,有限会社,宮城県,本吉郡南三陸町,志津川字大久保１９６番地３,,04,606,9860764,,,2022-04-01,清算の結了等,,,2015-10-05,1,,,,,ナルナオエンドウドケン,0
1614,5380002020292,登記記録の閉鎖等,0,2022-04-13,2022-04-06,有限会社溝井鉄筋,,有限会社,福島県,須賀川市,上小山田字八斗蒔２０５番地,,07,207,9620713,,,2022-04-06,清算の結了等,,,2015-10-05,1,,,,,ミゾイテッキン,0
1622,5420001009794,登記記録の閉鎖等,0,2022-04-13,2022-04-11,株式会社ユートピアあいのり,,株式会社,青森県,平川市,碇ヶ関西碇ヶ関山１８６番地,,02,210,0380101,,,2022-04-11,清算の結了等,,,2015-10-05,1,,,,,ユートピアアイノリ,0
1624,5420002009579,登記記録の閉鎖等,0,2022-04-13,2022-04-07,有限会社川村彫刻所,,有限会社,青森県,三戸郡五戸町,字天満１５番地７,,02,442,0391519,,,2022-04-07,清算の結了等,,,2015-10-05,1,,,,,カワムラチョウコクショ,0
1680,6010405018465,登記記録の閉鎖等,0,2022-04-13,2022-04-01,一般社団法人Ｐｉｒａｅｕｓ,,その他の設立登記法人,東京都,港区,虎ノ門５丁目１番４号,,13,103,1050001,,,2022-04-01,清算の結了等,,,2020-01-31,1,,,,,ピレウス,0
1681,6010405018762,登記記録の閉鎖等,0,2022-04-13,2022-04-01,一般社団法人Ｄｕｒｅｇｅｒｄａｍ,,その他の設立登記法人,東京都,港区,虎ノ門５丁目１番４号,,13,103,1050001,,,2022-04-01,清算の結了等,,,2020-05-21,1,,,,,ダルゲルダム,0
1682,6010405019034,登記記録の閉鎖等,0,2022-04-13,2022-04-01,一般社団法人ＵＲＦＧＤ,,その他の設立登記法人,東京都,港区,虎ノ門５丁目１番４号,,13,103,1050001,,,2022-04-01,清算の結了等,,,2020-08-31,1,,,,,ユーアールエフジーディー,0
1709,6011101076567,登記記録の閉鎖等,0,2022-04-13,2022-04-07,株式会社メディアハウスエージェンシー,,株式会社,東京都,新宿区,神楽坂２丁目１７番地,,13,104,1620825,,,2022-04-07,合併による解散等,5011101021045,令和４年４月１日東京都新宿区神楽坂二丁目１７番地株式会社メディアハウスホールディングス（5011101021045）に合併し解散,2016-04-08,1,,,,,メディアハウスエージェンシー,0
1718,6011405001188,登記記録の閉鎖等,0,2022-04-13,2022-04-11,特定非営利活動法人健康づくりセンター,,その他の設立登記法人,東京都,練馬区,向山４丁目６番５号,,13,120,1760022,,,2022-04-11,清算の結了等,,,2015-10-05,1,,,,,ケンコウヅクリセンター,0
1748,6030001064317,登記記録の閉鎖等,0,2022-04-13,2022-04-04,辰巳金網株式会社,,株式会社,埼玉県,越谷市,大字平方２２００番地１,,11,222,3430002,,,2022-04-04,清算の結了等,,,2015-10-05,1,,,,,タツミカナアミ,0
1754,6030002066840,登記記録の閉鎖等,0,2022-04-13,2022-04-05,有限会社トキ美装,,有限会社,埼玉県,和光市,下新倉３丁目２０番１９号,,11,229,3510111,,,2022-04-05,清算の結了等,,,2015-10-05,1,,,,,,0
1771,6050002010532,登記記録の閉鎖等,0,2022-04-13,2022-04-05,有限会社飯田断熱,,有限会社,茨城県,笠間市,下郷３４９９番地２,,08,216,3190202,,,2022-04-05,清算の結了等,,,2015-10-05,1,,,,,イイダダンネツ,0
1772,6060001009434,登記記録の閉鎖等,0,2022-04-13,2022-04-08,株式会社しるくらんど,,株式会社,栃木県,真岡市,田町２２４１番地,,09,209,3214325,,,2022-04-08,合併による解散等,5010001184877,令和４年４月１日東京都中央区日本橋本町一丁目６番５号ツカモト市田株式会社（5010001184877）に合併し解散,2015-10-05,1,,,,,シルクランド,0
1778,6060005000967,登記記録の閉鎖等,0,2022-04-13,2022-04-06,医療法人星小児科医院,,その他の設立登記法人,栃木県,宇都宮市,下荒針町３５８８番地２,,09,201,3210346,,,2022-04-06,清算の結了等,,,2015-10-05,1,,,,,ホシショウニカイイン,0
1779,6070002001620,登記記録の閉鎖等,0,2022-04-13,2022-04-04,有限会社北原製作所,,有限会社,群馬県,前橋市,池端町７２４番地,,10,201,3703571,,,2022-04-04,清算の結了等,,,2015-10-05,1,,,,,キタハラセイサクジョ,0
1789,6080401021375,登記記録の閉鎖等,0,2022-04-13,2022-04-06,マンドリル株式会社,,株式会社,静岡県,浜松市浜北区,上島３５８番地,,22,136,4340011,,,2022-04-06,清算の結了等,,,2016-03-16,1,,,,,マンドリル,0
1797,6110005011240,登記記録の閉鎖等,0,2022-04-13,2022-04-06,医療法人社団加藤歯科医院,,その他の設立登記法人,新潟県,長岡市,来迎寺３９３１番地,,15,202,9495411,,,2022-04-06,清算の結了等,,,2015-10-05,1,,,,,カトウシカイイン,0
1806,6120001125241,登記記録の閉鎖等,0,2022-04-13,2022-04-06,株式会社ディンユウ,,株式会社,大阪府,大阪市西区,新町２丁目５番１－７０４号,,27,106,5500013,,,2022-04-06,清算の結了等,,,2015-10-05,1,,,,,ディンユウ,0
1807,6120001149505,登記記録の閉鎖等,0,2022-04-13,2022-04-05,株式会社京阪レストラン,,株式会社,大阪府,枚方市,枚方公園町１番１号,,27,210,5730054,,,2022-04-05,清算の結了等,,,2015-10-05,1,,,,,ケイハンレストラン,0
1813,6120001199491,登記記録の閉鎖等,0,2022-04-13,2022-04-05,株式会社北陽,,株式会社,大阪府,大阪市北区,天神橋２丁目５番２８号９階,,27,127,5300041,,,2022-04-05,清算の結了等,,,2016-07-13,1,,,,,ホクヨウ,0
1829,6120901010690,登記記録の閉鎖等,0,2022-04-13,2022-04-07,関西ピー・ジー・エス株式会社,,株式会社,大阪府,高槻市,天川町４１番２号,,27,207,5690026,,,2022-04-07,清算の結了等,,,2015-10-05,1,,,,,カンサイピージーエス,0
1842,6130001047113,登記記録の閉鎖等,0,2022-04-13,2022-04-01,株式会社ＹＳオート,,株式会社,京都府,京都市山科区,西野八幡田町１０番地１,,26,110,6078351,,,2022-04-01,合併による解散等,5130001028361,令和４年４月１日京都市山科区竹鼻堂ノ前町２１番地１２株式会社ＹＳ（5130001028361）に合併し解散,2015-10-05,1,,,,,ワイエスオート,0
1848,6140001108054,登記記録の閉鎖等,0,2022-04-13,2022-04-06,株式会社ＪＭＡ,,株式会社,兵庫県,神戸市東灘区,魚崎南町２丁目１８番１６－２号,,28,101,6580025,,,2022-04-06,清算の結了等,,,2017-11-06,1,,,,,ジェーエムエー,0
1898,6280002000485,登記記録の閉鎖等,0,2022-04-13,2022-04-07,有限会社おのはら製作所,,有限会社,島根県,松江市,竹矢町４３８番地４,,32,201,6900023,,,2022-04-07,清算の結了等,,,2015-10-05,1,,,,,,0
1922,6370001044284,登記記録の閉鎖等,0,2022-04-13,2022-04-04,株式会社グラン,,株式会社,宮城県,大崎市,古川台町３番４１号アイエムビル２Ｆ,,04,215,9896163,,,2022-04-04,清算の結了等,,,2019-04-19,1,,,,,,0
1926,6380002018278,登記記録の閉鎖等,0,2022-04-13,2022-04-06,有限会社野中印刷所,,有限会社,福島県,白河市,束前町１番地８６,,07,205,9610916,,,2022-04-06,清算の結了等,,,2015-10-05,1,,,,,ノナカインサツショ,0
1927,6380003001563,登記記録の閉鎖等,0,2022-04-13,2022-04-05,合資会社吉駒商店,,合資会社,福島県,南相馬市,小高区本町１丁目３１番地,,07,212,9792124,,,2022-04-05,清算の結了等,,,2015-10-05,1,,,,,ヨシコマショウテン,0
1954,6490002001636,登記記録の閉鎖等,0,2022-04-13,2022-04-04,有限会社神田住建,,有限会社,高知県,高知市,神田７２２番地４,,39,201,7808040,,,2022-04-04,清算の結了等,,,2015-10-05,1,,,,,コウダジュウケン,0
1963,7010001005627,登記記録の閉鎖等,0,2022-04-13,2022-04-01,豊國印刷株式会社,,株式会社,東京都,文京区,目白台３丁目２９番１８号,,13,105,1120015,,,2022-04-01,合併による解散等,5010001223239,令和４年４月１日東京都文京区音羽一丁目１７番１４号株式会社ＫＰＳホールディングス（5010001223239）に合併し解散,2015-10-05,1,,,,,トヨクニインサツ,0
1979,7010401144446,登記記録の閉鎖等,0,2022-04-13,2022-04-01,株式会社プラッキー,,株式会社,東京都,港区,芝３丁目１５番１３号ＹＯＤＡビル８階,,13,103,1050014,,,2022-04-01,清算の結了等,,,2019-03-14,1,,,,,プラッキー,0
1989,7010405018828,登記記録の閉鎖等,0,2022-04-13,2022-04-01,一般社団法人Ｈａｒｍａｊａ,,その他の設立登記法人,東京都,港区,虎ノ門５丁目１番４号,,13,103,1050001,,,2022-04-01,清算の結了等,,,2020-06-15,1,,,,,ハルマジャ,0
1990,7010405019231,登記記録の閉鎖等,0,2022-04-13,2022-04-01,一般社団法人ＳＡ　ＰＲＯＰＥＲＴＹ,,その他の設立登記法人,東京都,港区,虎ノ門５丁目１番４号,,13,103,1050001,,,2022-04-01,清算の結了等,,,2020-11-02,1,,,,,エスエープロパティ,0
1991,7010405019248,登記記録の閉鎖等,0,2022-04-13,2022-04-01,一般社団法人ＳＡ　ＰＲＯＰＥＲＴＹ１,,その他の設立登記法人,東京都,港区,虎ノ門５丁目１番４号,,13,103,1050001,,,2022-04-01,清算の結了等,,,2020-11-10,1,,,,,エスエープロパティワン,0
2007,7011001030573,登記記録の閉鎖等,0,2022-04-13,2022-04-06,株式会社ツインシップ,,株式会社,東京都,多摩市,貝取１５１０番地１,,13,224,2060012,,,2022-04-06,合併による解散等,2011001034249,令和４年４月１日東京都新宿区西新宿三丁目３番１３号西新宿水間ビル６階株式会社リンクプラン（2011001034249）に合併し解散,2015-10-05,1,,,,,ツインシップ,0
2038,7011702006806,登記記録の閉鎖等,0,2022-04-13,2022-04-11,有限会社大黒屋田中商店,,有限会社,東京都,江戸川区,北小岩４丁目３９番７号,,13,123,1330051,,,2022-04-11,清算の結了等,,,2015-10-05,1,,,,,ダイコクヤタナカショウテン,0
2039,7011703001351,登記記録の閉鎖等,0,2022-04-13,2022-04-11,トレジャー・ロード合同会社,,合同会社,東京都,江戸川区,東小岩３丁目７番１８号,,13,123,1330052,,,2022-04-11,清算の結了等,,,2015-10-09,1,,,,,トレジャーロード,0
2047,7012402015799,登記記録の閉鎖等,0,2022-04-13,2022-04-07,有限会社ドッグラン,,有限会社,東京都,調布市,飛田給２丁目２番地５５,,13,208,1820036,,,2022-04-07,清算の結了等,,,2015-10-05,1,,,,,ドッグラン,0
2064,7020005007627,登記記録の閉鎖等,0,2022-04-13,2022-04-05,医療法人社団怡心会,,その他の設立登記法人,神奈川県,川崎市中原区,小杉陣屋町１丁目１７番１２号,,14,133,2110062,,,2022-04-05,清算の結了等,,,2015-10-05,1,,,,,タイシンカイ,0
2066,7021001051296,登記記録の閉鎖等,0,2022-04-13,2022-04-04,光翔建興株式会社,,株式会社,神奈川県,海老名市,門沢橋４丁目２１番１２号,,14,215,2430426,,,2022-04-04,清算の結了等,,,2015-10-05,1,,,,,コウショウケンコウ,0
2067,7021002004600,登記記録の閉鎖等,0,2022-04-13,2022-04-06,有限会社牧野青果店,,有限会社,神奈川県,藤沢市,辻堂６丁目１５番２号,,14,205,2510047,,,2022-04-06,清算の結了等,,,2015-10-05,1,,,,,マキノセイカテン,0
2069,7030001012101,登記記録の閉鎖等,0,2022-04-13,2022-04-11,株式会社マルチメディアシステム,,株式会社,埼玉県,さいたま市見沼区,深作３丁目４番７号,,11,104,3370003,,,2022-04-11,合併による解散等,1070001029493,令和４年４月１日栃木県足利市南町４２５４番地３関綜エンジニアリング株式会社（1070001029493）に合併し解散,2015-10-05,1,,,,,マルチメディアシステム,0
2070,7030001081666,登記記録の閉鎖等,0,2022-04-13,2022-04-05,株式会社フロンティア,,株式会社,埼玉県,川口市,北原台２丁目９番１７号,,11,203,3330815,,,2022-04-05,清算の結了等,,,2015-10-05,1,,,,,フロンティア,0
2073,7030002050455,登記記録の閉鎖等,0,2022-04-13,2022-04-04,有限会社ワイケービー,,有限会社,埼玉県,草加市,北谷２丁目８番１号,,11,221,3400046,,,2022-04-04,清算の結了等,,,2015-10-05,1,,,,,ワイケービー,0
2078,7040001065825,登記記録の閉鎖等,0,2022-04-13,2022-04-01,株式会社スリーエス,,株式会社,千葉県,柏市,柏６丁目１０番３２号,,12,217,2770005,,,2022-04-01,清算の結了等,,,2015-10-05,1,,,,,スリーエス,0
2080,7040001096523,登記記録の閉鎖等,0,2022-04-13,2022-04-01,株式会社足立興業,,株式会社,千葉県,市原市,菊間２９９０番地４,,12,219,2900007,,,2022-04-01,清算の結了等,,,2016-08-12,1,,,,,アダチコウギョウ,0
2085,7040002069742,登記記録の閉鎖等,0,2022-04-13,2022-03-30,有限会社小川保険企画,,有限会社,千葉県,君津市,久留里市場１８５番地の１,,12,225,2920421,,,2022-03-30,清算の結了等,,,2015-10-05,1,,,,,オガワホケンキカク,0
2090,7050005003565,登記記録の閉鎖等,0,2022-04-13,2022-04-01,石岡たばこ販売協同組合,,その他の設立登記法人,茨城県,石岡市,府中３丁目１１番２６号,,08,205,3150013,,,2022-04-01,合併による解散等,3050005002174,令和４年４月１日茨城県水戸市千波町２４６６番地茨城たばこ販売協同組合（3050005002174）に合併し解散,2015-10-05,1,,,,,イシオカタバコハンバイ,0
2091,7050005009918,登記記録の閉鎖等,0,2022-04-13,2022-04-01,下館たばこ販売協同組合,,その他の設立登記法人,茨城県,筑西市,甲８７０番地,,08,227,3080021,,,2022-04-01,合併による解散等,3050005002174,令和４年４月１日茨城県水戸市千波町２４６６番地茨城たばこ販売協同組合（3050005002174）に合併し解散,2015-10-05,1,,,,,シモダテタバコハンバイ,0
2117,7110002027404,登記記録の閉鎖等,0,2022-04-13,2022-04-01,有限会社京屋,,有限会社,新潟県,長岡市,七軒町３９４番地,,15,202,9400894,,,2022-04-01,清算の結了等,,,2015-10-05,1,,,,,キョウヤ,0
2121,7120001076054,登記記録の閉鎖等,0,2022-04-13,2022-04-05,株式会社オオシマ,,株式会社,大阪府,大阪市中央区,博労町１丁目８番１２号,,27,128,5410059,,,2022-04-05,清算の結了等,,,2015-10-05,1,,,,,オオシマ,0
2123,7120001136329,登記記録の閉鎖等,0,2022-04-13,2022-04-07,株式会社メディアハウススタッフィング,,株式会社,東京都,新宿区,神楽坂２丁目１７番地,,13,104,1620825,,,2022-04-07,合併による解散等,5011101021045,令和４年４月１日東京都新宿区神楽坂二丁目１７番地株式会社メディアハウスホールディングス（5011101021045）に合併し解散,2015-10-05,1,,,,,メディアハウススタッフィング,0
2172,7160001005158,登記記録の閉鎖等,0,2022-04-13,2022-04-11,竹田産業株式会社,,株式会社,滋賀県,甲賀市,水口町嶬峨１３５１番地の２,,25,209,5280004,,,2022-04-11,合併による解散等,9140001034405,令和４年４月１日兵庫県明石市茶園場町６番２１号明石紙工株式会社（9140001034405）に合併し解散,2015-10-05,1,,,,,タケダサンギョウ,0
2174,7160001018630,登記記録の閉鎖等,0,2022-04-13,2022-04-11,三陽マシンテクノロジー株式会社,,株式会社,滋賀県,甲賀市,甲賀町田堵野８９０番地の１,,25,209,5203426,,,2022-04-11,清算の結了等,,,2015-10-05,1,,,,,サンヨウマシンテクノロジー,0
2177,7180001017151,登記記録の閉鎖等,0,2022-04-13,2022-04-05,大栄興業株式会社,,株式会社,愛知県,名古屋市東区,東大曽根町３７番１号,,23,102,4610022,,,2022-04-05,合併による解散等,1260001002712,令和４年４月１日岡山市北区下伊福上町８番２０号三洋環境株式会社（1260001002712）に合併し解散,2015-10-05,1,,,,,ダイエイコウギョウ,0
2195,7220001006364,登記記録の閉鎖等,0,2022-04-13,2022-04-05,北陸商事株式会社,,株式会社,石川県,金沢市,増泉２丁目１６番１６号,,17,201,9218025,,,2022-04-05,合併による解散等,4220001006474,令和４年４月１日石川県金沢市古府町南６３１番地北陸ビルサービス株式会社（4220001006474）に合併し解散,2015-10-05,1,,,,,ホクリクショウジ,0
2197,7220001015687,登記記録の閉鎖等,0,2022-04-13,2022-04-06,株式会社イシミ,,株式会社,石川県,鹿島郡中能登町,西馬場マ部２２番地,,17,407,9291601,,,2022-04-06,清算の結了等,,,2015-10-05,1,,,,,イシミ,0
2201,7240001041913,登記記録の閉鎖等,0,2022-04-13,2022-04-07,株式会社柳,,株式会社,広島県,東広島市,高屋町桧山４５６番地１,,34,212,7392105,,,2022-04-07,清算の結了等,,,2015-10-05,1,,,,,ヤナギ,0
2220,7300005003424,登記記録の閉鎖等,0,2022-04-13,2022-04-01,一般財団法人田澤記念館,,その他の設立登記法人,佐賀県,鹿島市,大字高津原４３４番地,,41,207,8491311,,,2022-04-01,合併による解散等,8300005006335,令和４年４月１日佐賀県鹿島市大字納富分２７００番地１一般財団法人鹿島市民立生涯学習・文化振興財団（8300005006335）に合併し解散,2015-10-05,1,,,,,タザワキネンカン,0
2228,7340005001969,登記記録の閉鎖等,0,2022-04-13,2022-04-11,特定非営利活動法人ＮＰＯかごしま湾開発,,その他の設立登記法人,鹿児島県,鹿児島市,高麗町３９番４号,,46,201,8900051,,,2022-04-11,清算の結了等,,,2015-10-05,1,,,,,エヌピーオーカゴシマワンカイハツ,0
2254,7420005007792,登記記録の閉鎖等,0,2022-04-13,2022-04-07,農事組合法人五郷地区きのこ生産組合,,その他の設立登記法人,青森県,青森市,浪岡大字本郷字松元１１４番地１,,02,201,0381323,,,2022-04-07,清算の結了等,,,2022-03-02,1,,,,,ゴゴウチクキノコセイサンクミアイ,0
2279,8010001092334,登記記録の閉鎖等,0,2022-04-13,2022-04-01,株式会社春栄,,株式会社,東京都,文京区,音羽１丁目５番１４号,,13,105,1120013,,,2022-04-01,清算の結了等,,,2015-10-05,1,,,,,シュンエイ,0
2293,8010401127417,登記記録の閉鎖等,0,2022-04-13,2022-04-01,株式会社ＬＯＣＯＢＥＥ,,株式会社,東京都,品川区,南大井６丁目２２番７号,,13,109,1400013,,,2022-04-01,合併による解散等,3010701001012,令和４年４月１日東京都品川区南大井六丁目２２番７号株式会社ＩＣ（3010701001012）に合併し解散,2016-10-17,1,,,,,ロコビー,0
2299,8010501009655,登記記録の閉鎖等,0,2022-04-13,2022-04-11,株式会社ながい,,株式会社,東京都,台東区,上野４丁目７番８号,,13,106,1100005,,,2022-04-11,清算の結了等,,,2015-10-05,1,,,,,ナガイ,0
2329,8011401005059,登記記録の閉鎖等,0,2022-04-13,2022-04-11,日東瓦斯株式会社,,株式会社,東京都,板橋区,舟渡３丁目２４番１１号,,13,119,1740041,,,2022-04-11,合併による解散等,9030001003544,令和４年４月１日埼玉県さいたま市大宮区桜木町一丁目１１番地５株式会社サイサン（9030001003544）に合併し解散,2015-10-05,1,,,,,ニットウガス,0
2331,8011501009918,登記記録の閉鎖等,0,2022-04-13,2022-04-08,ジェフビーサービス株式会社,,株式会社,東京都,荒川区,西尾久７丁目５５番３号,,13,118,1160011,,,2022-04-08,合併による解散等,1010501004159,令和４年４月１日東京都荒川区西尾久七丁目５５番３号株式会社エヌアールイーサービス（1010501004159）に合併し解散,2015-10-05,1,,,,,ジェフビーサービス,0
2344,8013302001764,登記記録の閉鎖等,0,2022-04-13,2022-04-07,有限会社ヌーイエマタンコスメティック,,有限会社,東京都,豊島区,西池袋３丁目２９番１４号,,13,116,1710021,,,2022-04-07,清算の結了等,,,2015-10-05,1,,,,,ヌーイエマタンコスメティック,0
2348,8020001140190,登記記録の閉鎖等,0,2022-04-13,2022-04-05,株式会社ハポート,,株式会社,神奈川県,横浜市都筑区,川和町６番地４４,,14,118,2240057,,,2022-04-05,清算の結了等,,,2021-03-03,1,,,,,ハポート,0
2352,8020002063894,登記記録の閉鎖等,0,2022-04-13,2022-04-04,有限会社サンエイト技研,,有限会社,神奈川県,横浜市港北区,樽町３丁目７番１５－１３７号,,14,109,2220001,,,2022-04-04,清算の結了等,,,2015-10-05,1,,,,,サンエイトギケン,0
2359,8021001018096,登記記録の閉鎖等,0,2022-04-13,2022-04-05,株式会社エヌケイ通信,,株式会社,神奈川県,相模原市南区,相模台４丁目７番１６－３０３号,,14,153,2520321,,,2022-04-05,清算の結了等,,,2015-10-05,1,,,,,エヌケイツウシン,0
2366,8030001084206,登記記録の閉鎖等,0,2022-04-13,2022-04-08,新日本経営コンサルティング株式会社,,株式会社,東京都,豊島区,南池袋２丁目４９番７号,,13,116,1710022,,,2022-04-08,清算の結了等,,,2015-10-05,1,,,,,シンニホンケイエイコンサルティング,0
2371,8030002106520,登記記録の閉鎖等,0,2022-04-13,2022-04-05,有限会社福良建設,,有限会社,埼玉県,川口市,大字東内野４６１番地の７,,11,203,3330821,,,2022-04-05,清算の結了等,,,2015-10-05,1,,,,,フクラケンセツ,0
2375,8040001014442,登記記録の閉鎖等,0,2022-04-13,2022-04-07,株式会社コア・システムデザイン,,株式会社,千葉県,習志野市,谷津１丁目１６番１号,,12,216,2750026,,,2022-04-07,合併による解散等,5020001021311,令和４年４月１日横浜市西区みなとみらい三丁目６番３号富士通エンジニアリングテクノロジーズ株式会社（5020001021311）に合併し解散,2015-10-05,1,,,,,コアシステムデザイン,0
2380,8040002083651,登記記録の閉鎖等,0,2022-04-13,2022-04-04,有限会社飯田商事,,有限会社,千葉県,香取郡多古町,多古２７００番地,,12,347,2892241,,,2022-04-04,清算の結了等,,,2015-10-05,1,,,,,イイダショウジ,0
2383,8050001007172,登記記録の閉鎖等,0,2022-04-13,2022-04-04,株式会社エイトフーズ,,株式会社,茨城県,東茨城郡大洗町,磯浜町６７１番地の１,,08,309,3111301,,,2022-04-04,清算の結了等,,,2015-10-05,1,,,,,エイトフーズ,0
2389,8050005006369,登記記録の閉鎖等,0,2022-04-13,2022-04-01,潮来たばこ販売協同組合,,その他の設立登記法人,茨城県,潮来市,潮来１０１番地の１,,08,223,3112424,,,2022-04-01,合併による解散等,3050005002174,令和４年４月１日茨城県水戸市千波町２４６６番地茨城たばこ販売協同組合（3050005002174）に合併し解散,2015-10-05,1,,,,,イタコタバコハンバイ,0
2397,8060002024570,登記記録の閉鎖等,0,2022-04-13,2022-04-07,有限会社コウセイ企画,,有限会社,栃木県,那須塩原市,高柳５２番地９,,09,213,3292707,,,2022-04-07,清算の結了等,,,2015-10-05,1,,,,,コウセイキカク,0
2402,8080103001723,登記記録の閉鎖等,0,2022-04-13,2022-04-11,ベルフォーレ合同会社,,合同会社,静岡県,熱海市,伊豆山１１７３番地の４８５,,22,205,4130002,,,2022-04-11,清算の結了等,,,2017-09-22,1,,,,,ベルフォーレ,0
2443,8120101036122,登記記録の閉鎖等,0,2022-04-13,2022-04-05,和泉建設株式会社,,株式会社,大阪府,岸和田市,下松町５０７９番地,,27,202,5960823,,,2022-04-05,清算の結了等,,,2015-10-05,1,,,,,イズミケンセツ,0
2450,8120901005276,登記記録の閉鎖等,0,2022-04-13,2022-04-08,アイ・シー・コスモ株式会社,,株式会社,大阪府,吹田市,千里山高塚８番１－３０６号,,27,205,5650848,,,2022-04-08,清算の結了等,,,2015-10-05,1,,,,,アイシーコスモ,0
2452,8120901027865,登記記録の閉鎖等,0,2022-04-13,2022-04-11,株式会社山崎,,株式会社,東京都,台東区,上野６丁目２番１号,,13,106,1100005,,,2022-04-11,清算の結了等,,,2021-11-26,1,,,,,ヤマザキ,0
2458,8130001006686,登記記録の閉鎖等,0,2022-04-13,2022-04-05,株式会社セミテクノ,,株式会社,京都府,京都市左京区,浄土寺上馬場町４８番地,,26,103,6068416,,,2022-04-05,清算の結了等,,,2015-10-05,1,,,,,セミテクノ,0
2467,8140002029693,登記記録の閉鎖等,0,2022-04-13,2022-04-11,株式会社ポルテット,,株式会社,岐阜県,岐阜市,琴塚２丁目７番１９号,,21,201,5008222,,,2022-04-11,清算の結了等,,,2015-10-05,1,,,,,ポルテット,0
2474,8160001008705,登記記録の閉鎖等,0,2022-04-13,2022-04-08,藤田電工株式会社,,株式会社,滋賀県,彦根市,河原３丁目７番６号,,25,202,5220083,,,2022-04-08,清算の結了等,,,2015-10-05,1,,,,,フジタデンコウ,0
2476,8180001011871,登記記録の閉鎖等,0,2022-04-13,2022-04-04,環友産機株式会社,,株式会社,愛知県,名古屋市北区,中切町５丁目１番地,,23,103,4620051,,,2022-04-04,清算の結了等,,,2015-10-05,1,,,,,カンユウサンキ,0
2488,8180301018930,登記記録の閉鎖等,0,2022-04-13,2022-04-01,豊田中央タクシー株式会社,,株式会社,愛知県,豊田市,深田町１丁目１２６番地の１,,23,211,4710841,,,2022-04-01,合併による解散等,6180301019229,令和４年４月１日愛知県豊田市深田町一丁目１２６番地の１豊栄交通株式会社（6180301019229）に合併し解散,2015-10-05,1,,,,,トヨタチュウオウタクシー,0
2489,8180301027989,登記記録の閉鎖等,0,2022-04-13,2022-04-04,株式会社末延建装,,株式会社,愛知県,豊田市,伊保町百々ケ沢１１番地２,,23,211,4700374,,,2022-04-04,清算の結了等,,,2015-10-05,1,,,,,,0
2504,8240001025700,登記記録の閉鎖等,0,2022-04-13,2022-04-07,株式会社共同海運,,株式会社,広島県,呉市,中通２丁目７番１号,,34,202,7370046,,,2022-04-07,清算の結了等,,,2015-10-05,1,,,,,キョウドウカイウン,0
2514,8280003000334,登記記録の閉鎖等,0,2022-04-13,2022-04-11,合名会社丸天商店,,合名会社,島根県,大田市,大田町大田イ７３３番地３,,32,205,6940064,,,2022-04-11,清算の結了等,,,2015-10-05,1,,,,,マルテンショウテン,0
2532,8310002006345,登記記録の閉鎖等,0,2022-04-13,2022-04-05,有限会社けあーフレンド,,有限会社,長崎県,長崎市,旭町２２番８号,,42,201,8528003,,,2022-04-05,清算の結了等,,,2015-10-05,1,,,,,ケアーフレンド,0
2546,8340001000445,登記記録の閉鎖等,0,2022-04-13,2022-04-07,株式会社一光建装,,株式会社,鹿児島県,鹿児島市,千年１丁目２０番２３号,,46,201,8900001,,,2022-04-07,清算の結了等,,,2015-10-05,1,,,,,イッコウケンソウ,0
2556,8380001018616,登記記録の閉鎖等,0,2022-04-13,2022-04-06,喜多方ガス供給センター株式会社,,株式会社,福島県,喜多方市,豊川町一井字三百苅２６４番地,,07,208,9660912,,,2022-04-06,清算の結了等,,,2015-10-05,1,,,,,キタカタガスキョウキュウセンター,0
2595,9010001023180,登記記録の閉鎖等,0,2022-04-13,2022-04-01,帝国窯業株式会社,,株式会社,東京都,千代田区,大手町２丁目２番１号,,13,101,1000004,,,2022-04-01,合併による解散等,9010001008685,令和４年４月１日東京都千代田区大手町二丁目２番１号品川リフラクトリーズ株式会社（9010001008685）に合併し解散,2015-10-05,1,,,,,テイコクヨウギョウ,0
2596,9010001088091,登記記録の閉鎖等,0,2022-04-13,2022-04-05,株式会社ヒューマンリンクス,,株式会社,東京都,品川区,西五反田２丁目９番地７－９０４,,13,109,1410031,,,2022-04-05,清算の結了等,,,2015-10-05,1,,,,,ヒューマンリンクス,0
2622,9010405018909,登記記録の閉鎖等,0,2022-04-13,2022-04-01,一般社団法人Ｈｅｉｓｅｉ,,その他の設立登記法人,東京都,港区,虎ノ門５丁目１番４号,,13,103,1050001,,,2022-04-01,清算の結了等,,,2020-07-20,1,,,,,ヘイセイ,0
2646,9011301002535,登記記録の閉鎖等,0,2022-04-13,2022-04-08,株式会社互興企画,,株式会社,東京都,杉並区,荻窪５丁目２１番１３号,,13,115,1670051,,,2022-04-08,清算の結了等,,,2015-10-05,1,,,,,ゴコウキカク,0
2651,9011801012133,登記記録の閉鎖等,0,2022-04-13,2022-04-01,株式会社丸勝輸送,,株式会社,東京都,中野区,中野４丁目４番１１号,,13,114,1640001,,,2022-04-01,合併による解散等,6011201005310,令和４年４月１日東京都中野区中野四丁目４番１１号南日本運輸倉庫株式会社（6011201005310）に合併し解散,2015-10-05,1,,,,,マルカツユソウ,0
2659,9013401001227,登記記録の閉鎖等,0,2022-04-13,2022-04-07,株式会社澄川工務店,,株式会社,東京都,稲城市,向陽台１丁目２番地の３,,13,225,2060803,,,2022-04-07,合併による解散等,8010001121885,令和４年４月１日東京都千代田区内幸町二丁目２番３号株式会社スミカワＡＤＤ（8010001121885）に合併し解散,2015-10-05,1,,,,,スミカワコウムテン,0
2706,9050001012444,登記記録の閉鎖等,0,2022-04-13,2022-04-11,株式会社ハピネスメディカル,,株式会社,岩手県,盛岡市,みたけ４丁目１４番３７号,,03,201,0200122,,,2022-04-11,合併による解散等,3370001013432,令和４年４月１日仙台市太白区鈎取一丁目１番１号株式会社葵調剤（3370001013432）に合併し解散,2015-10-05,1,,,,,ハピネスメディカル,0
2707,9050001039479,登記記録の閉鎖等,0,2022-04-13,2022-04-01,株式会社フジプロテック,,株式会社,茨城県,神栖市,奥野谷８０４０番地,,08,232,3140116,,,2022-04-01,合併による解散等,6050001022297,令和４年４月１日茨城県神栖市知手中央九丁目９番７号株式会社不二産業（6050001022297）に合併し解散,2015-10-05,1,,,,,フジプロテック,0
2712,9060002013853,登記記録の閉鎖等,0,2022-04-13,2022-04-06,有限会社花月,,有限会社,栃木県,那須烏山市,金井１丁目５番１号,,09,215,3210628,,,2022-04-06,清算の結了等,,,2015-10-05,1,,,,,カゲツ,0
2714,9070001014488,登記記録の閉鎖等,0,2022-04-13,2022-04-07,株式会社キリウテクノ,,株式会社,群馬県,伊勢崎市,三室町５８４２番地,,10,204,3792235,,,2022-04-07,合併による解散等,8060001019712,令和４年４月１日栃木県足利市小俣南町２番地株式会社キリウ（8060001019712）に合併し解散,2015-10-05,1,,,,,キリウテクノ,0
2744,9120001045949,登記記録の閉鎖等,0,2022-04-13,2022-04-11,ナガセ医藥品株式会社,,株式会社,大阪府,大阪市西区,新町１丁目１番１７号,,27,106,5500013,,,2022-04-11,合併による解散等,6120901040440,令和４年４月１日大阪府摂津市三島二丁目５番１号シオノギファーマ株式会社（6120901040440）に合併し解散,2015-10-05,1,,,,,ナガセイヤクヒン,0
2746,9120001067407,登記記録の閉鎖等,0,2022-04-13,2022-04-04,株式会社デザインオフィスサラ,,株式会社,大阪府,大阪市北区,西天満５丁目１０番１２号,,27,127,5300047,,,2022-04-04,清算の結了等,,,2015-10-05,1,,,,,デザインオフィスサラ,0
2778,9130001055170,登記記録の閉鎖等,0,2022-04-13,2022-04-05,カーティライズ株式会社,,株式会社,京都府,京都市中京区,蛸薬師通烏丸西入橋弁慶町２２２番地,,26,104,6048151,,,2022-04-05,清算の結了等,,,2015-10-05,1,,,,,カーティライズ,0
2791,9150001005289,登記記録の閉鎖等,0,2022-04-13,2022-04-06,株式会社リラックスリビング,,株式会社,奈良県,生駒市,南田原町１０５１番２３,,29,209,6300135,,,2022-04-06,清算の結了等,,,2015-10-05,1,,,,,リラックスリビング,0
2846,9330003004130,登記記録の閉鎖等,0,2022-04-13,2022-04-01,合名会社愛甲商店,,合名会社,熊本県,球磨郡球磨村,大字一勝地丁１１５０番地の１,,43,513,8696403,,,2022-04-01,清算の結了等,,,2015-10-05,1,,,,,アイコウショウテン,0
2849,9340001000948,登記記録の閉鎖等,0,2022-04-13,2022-04-07,株式会社鹿児島東急ＲＥＩホテル,,株式会社,鹿児島県,鹿児島市,中央町５番地１,,46,201,8900053,,,2022-04-07,清算の結了等,,,2015-10-05,1,,,,,カゴシマトウキュウレイホテル,0
2853,9340003000582,登記記録の閉鎖等,0,2022-04-13,2022-04-11,上国料合名会社,,合名会社,鹿児島県,姶良郡湧水町,川西８９９番地,,46,452,8996104,,,2022-04-11,清算の結了等,,,2015-10-05,1,,,,,カミコクリョウ,0
2872,9390001002683,登記記録の閉鎖等,0,2022-04-13,2022-04-01,株式会社ゆとりハウステクノ,,株式会社,山形県,山形市,桜田東２丁目１１番１６号,,06,201,9902323,,,2022-04-01,合併による解散等,6390001000913,令和４年４月１日山形市桜田東二丁目１１番１６号株式会社ゆとり・祥建設（6390001000913）に合併し解散,2015-10-05,1,,,,,ユトリハウステクノ,0
2894,9460001004375,登記記録の閉鎖等,0,2022-04-13,2022-04-08,株式会社Ｆｏｏｔ　Ｃｏｍｍｕｎｉｃａｔｉｏｎ,,株式会社,北海道,釧路市,南大通１丁目３番６号サザンクロスビル３階,,01,206,0850841,,,2022-04-08,清算の結了等,,,2015-10-05,1,,,,,フットコミュニケーション,0
2903,9490002012399,登記記録の閉鎖等,0,2022-04-13,2022-04-06,有限会社上村商店,,有限会社,高知県,長岡郡大豊町,東土居１７５番地１,,39,344,7890166,,,2022-04-06,清算の結了等,,,2015-10-05,1,,,,,カミムラショウテン,0
