sequenceNumber,corporateNumber,process,correct,updateDate,changeDate,name,nameImageId,kind,prefectureName,cityName,streetNumber,addressImageId,prefectureCode,cityCode,postCode,addressOutside,addressOutsideImageId,closeDate,closeCause,successorCorporateNumber,changeCause,assignmentDate,latest,enName,enPrefectureName,enCityName,enAddressOutside,furigana,hihyoji
14,1010001226583,新規,0,2022-05-16,2022-05-16,株式会社ソアラー,,株式会社,東京都,中央区,日本橋２丁目１番３号,,13,102,1030027,,,,,,,2022-05-16,1,,,,,ソアラー,0
16,1010003037616,新規,0,2022-05-16,2022-05-16,サマーフィールド合同会社,,合同会社,東京都,中央区,晴海２丁目３－２－３９０８,,13,102,1040053,,,,,,,2022-05-16,1,,,,,サマーフィールド,0
36,1010901050876,新規,0,2022-05-16,2022-05-16,株式会社ミチコプロジェクト,,株式会社,東京都,世田谷区,世田谷４丁目１４－３２,,13,112,1540017,,,,,,,2022-05-16,1,,,,,ミチコプロジェクト,0
43,1011001147373,新規,0,2022-05-16,2022-05-16,Ｃｈｅｆ’ｓ　Ｌｉｎｋ株式会社,,株式会社,東京都,渋谷区,恵比寿西１丁目１５番１０号第６横芝ビル７階,,13,113,1500021,,,,,,,2022-05-16,1,,,,,シェフズリンク,0
44,1011001147539,新規,0,2022-05-16,2022-05-16,株式会社全機庵,,株式会社,東京都,渋谷区,幡ヶ谷２丁目１４番９号ＨＡＲＡＤＡ・Ｂｌｄ．８（７階）,,13,113,1510072,,,,,,,2022-05-16,1,,,,,ゼンキアン,0
45,1011001147547,新規,0,2022-05-16,2022-05-16,株式会社ある日,,株式会社,東京都,目黒区,八雲４丁目１１番３号シャトレ７－２０２,,13,110,1520023,,,,,,,2022-05-16,1,,,,,アルヒ,0
50,1011101098748,新規,0,2022-05-16,2022-05-16,株式会社Ａ‐ｂｒｉｄｇｅｓ,,株式会社,東京都,新宿区,西新宿３丁目３番１３号西新宿水間ビル６階,,13,104,1600023,,,,,,,2022-05-16,1,,,,,エーブリッジーズ,0
51,1011101098839,新規,0,2022-05-16,2022-05-16,株式会社Ｌａｓｓｏ,,株式会社,東京都,新宿区,神楽坂２丁目２０番地,,13,104,1620825,,,,,,,2022-05-16,1,,,,,ラッソ,0
58,1011401024230,新規,0,2022-05-16,2022-05-16,株式会社アネラ,,株式会社,東京都,板橋区,上板橋３丁目１３番１２号伊東ビル１０１号,,13,119,1740076,,,,,,,2022-05-16,1,,,,,アネラ,0
59,1011403003612,新規,0,2022-05-16,2022-05-16,合同会社ＴｏＦｕ　Ｗｏｒｋｓ,,合同会社,東京都,板橋区,南常盤台１丁目１１－６レフア南常盤台１０１号室,,13,119,1740072,,,,,,,2022-05-16,1,,,,,トーフワークス,0
64,1011501028040,新規,0,2022-05-16,2022-05-16,株式会社泰安,,株式会社,東京都,北区,滝野川７丁目２番１０－７０１号,,13,117,1140023,,,,,,,2022-05-16,1,,,,,タイアン,0
75,1012401039202,新規,0,2022-05-16,2022-05-16,ビヨンステム株式会社,,株式会社,東京都,小金井市,貫井南町１丁目２２番１９号,,13,210,1840014,,,,,,,2022-05-16,1,,,,,ビヨンステム,0
82,1013302002240,新規,0,2022-05-16,2022-05-16,有限会社川崎プロセス,,有限会社,東京都,豊島区,高田２丁目５番２３号,,13,116,1710033,,,,,,,2022-05-16,1,,,,,カワサキプロセス,0
105,1030001148231,新規,0,2022-05-16,2022-05-16,ココロ株式会社,,株式会社,埼玉県,三郷市,田中新田字中ノ割２７４番１２,,11,237,3410016,,,,,,,2022-05-16,1,,,,,ココロ,0
110,1030003019397,新規,0,2022-05-16,2022-05-16,合同会社ｆｅｅｌｆｒｅｅ,,合同会社,埼玉県,秩父市,下影森１１７９番地５,,11,207,3691871,,,,,,,2022-05-16,1,,,,,フィールフリー,0
111,1030003019414,新規,0,2022-05-16,2022-05-16,ビヨンドカルチャー合同会社,,合同会社,埼玉県,ふじみ野市,鶴ケ舞１丁目３３番１号,,11,245,3560041,,,,,,,2022-05-16,1,,,,,ビヨンドカルチャー,0
126,1040001123407,新規,0,2022-05-16,2022-05-16,株式会社新栄機工,,株式会社,千葉県,市原市,姉崎２９５５番地１サニーヒルＡ１０１,,12,219,2990111,,,,,,,2022-05-16,1,,,,,シンエイキコウ,0
138,1050001051078,新規,0,2022-05-16,2022-05-16,株式会社ＲＹＯＫＡ,,株式会社,茨城県,神栖市,知手２５８番地９,,08,232,3140115,,,,,,,2022-05-16,1,,,,,リョウカ,0
139,1050001051086,新規,0,2022-05-16,2022-05-16,株式会社シニアサポート土浦,,株式会社,茨城県,土浦市,蓮河原新町９番１２号,,08,203,3000821,,,,,,,2022-05-16,1,,,,,シニアサポートツチウラ,0
140,1050003006559,新規,0,2022-05-16,2022-05-16,合同会社にわけん,,合同会社,茨城県,鹿嶋市,大字佐田４０１番地７,,08,222,3140027,,,,,,,2022-05-16,1,,,,,ニワケン,0
149,1070001039229,新規,0,2022-05-16,2022-05-16,株式会社田舎リゾート,,株式会社,群馬県,桐生市,広沢町４丁目２４３０番地,,10,203,3760013,,,,,,,2022-05-16,1,,,,,イナカリゾート,0
159,1090001017570,新規,0,2022-05-16,2022-05-16,甲州グリーンガス株式会社,,株式会社,山梨県,南アルプス市,曲輪田７４２番地１,,19,208,4000311,,,,,,,2022-05-16,1,,,,,コウシュウグリーンガス,0
168,1120001245878,新規,0,2022-05-16,2022-05-16,株式会社手作業マーケット,,株式会社,大阪府,大阪市中央区,森ノ宮中央２丁目４番２号森ノ宮セントラルビル５階,,27,128,5400003,,,,,,,2022-05-16,1,,,,,テサギョウマーケット,0
169,1120001245894,新規,0,2022-05-16,2022-05-16,株式会社アノテテ,,株式会社,大阪府,大阪市北区,堂島浜２丁目２番２８号堂島アクシスビル３Ｆ株式会社ジーピーオンライン内,,27,127,5300004,,,,,,,2022-05-16,1,,,,,アノテテ,0
170,1120001245903,新規,0,2022-05-16,2022-05-16,株式会社ハルタテクノ,,株式会社,大阪府,大阪市鶴見区,鶴見４丁目１５番３１号,,27,124,5380053,,,,,,,2022-05-16,1,,,,,ハルタテクノ,0
171,1120003021633,新規,0,2022-05-16,2022-05-16,合同会社ＫＷＣ,,合同会社,大阪府,大阪市西淀川区,野里１丁目１３－６－８０４,,27,113,5550024,,,,,,,2022-05-16,1,,,,,ケイダブリュシー,0
183,1130003007929,新規,0,2022-05-16,2022-05-16,合同会社ＳｈｅａｒＬｉｎｅ,,合同会社,京都府,城陽市,寺田尼塚１４番地の５,,26,207,6100121,,,,,,,2022-05-16,1,,,,,シアーライン,0
186,1140001125756,新規,0,2022-05-16,2022-05-16,ＳｅｌｌｅｒＢａｓｅ株式会社,,株式会社,兵庫県,川西市,湯山台２丁目８番１１号,,28,217,6660137,,,,,,,2022-05-16,1,,,,,セラーベース,0
187,1140001126003,新規,0,2022-05-16,2022-05-16,ＯＮＥ　ＢＲＩＧＨＴ　ＪＡＰＡＮ株式会社,,株式会社,兵庫県,尼崎市,東難波町４丁目１７番２１号,,28,202,6600892,,,,,,,2022-05-16,1,,,,,ワンブライトジャパン,0
192,1140003017679,新規,0,2022-05-16,2022-05-16,ＤＡＭＮ　ＧＯＯＤ　ＪＡＰＡＮ合同会社,,合同会社,兵庫県,西宮市,柏堂町２番１０号,,28,204,6620097,,,,,,,2022-05-16,1,,,,,ダムグッドジャパン,0
193,1150005009392,新規,0,2022-05-16,2022-05-16,医療法人すぎはら婦人科,,その他の設立登記法人,奈良県,奈良市,中登美ヶ丘６丁目３番３号リコラス登美ヶ丘Ａ棟３Ｆ,,29,201,6310003,,,,,,,2022-05-16,1,,,,,スギハラフジンカ,0
196,1170003001721,新規,0,2022-05-16,2022-05-16,アイ・イー・エヌ合同会社,,合同会社,和歌山県,和歌山市,六十谷１３４６番地５０,,30,201,6408482,,,,,,,2022-05-16,1,,,,,アイイーエヌ,0
209,1180001151294,新規,0,2022-05-16,2022-05-16,ＫＩＲＡＲＹ株式会社,,株式会社,愛知県,名古屋市中区,丸の内３丁目２１番２１号,,23,106,4600002,,,,,,,2022-05-16,1,,,,,キラリ,0
210,1180001151328,新規,0,2022-05-16,2022-05-16,株式会社ＨＡＹＡＳＨＩ建築,,株式会社,愛知県,日進市,米野木町南山９７３番地１７１,,23,230,4700111,,,,,,,2022-05-16,1,,,,,ハヤシケンチク,0
211,1180001151344,新規,0,2022-05-16,2022-05-16,株式会社ＳＡＩＦ　ＩＮＴＥＲＮＡＴＩＯＮＡＬ,,株式会社,愛知県,名古屋市港区,宝神５丁目１０３１番地１,,23,111,4550832,,,,,,,2022-05-16,1,,,,,セイフインターナショナル,0
216,1190001029416,新規,0,2022-05-16,2022-05-16,株式会社ＯＭＩＭＯ,,株式会社,三重県,津市,榊原町５１０４番地,,24,201,5141251,,,,,,,2022-05-16,1,,,,,オミモ,0
230,1240001059713,新規,0,2022-05-16,2022-05-16,株式会社ＣＨＥＥＲＦＵＬＳ,,株式会社,広島県,福山市,明神町２丁目１４番１号,,34,207,7210961,,,,,,,2022-05-16,1,,,,,チアフルズ,0
236,1290001097485,新規,0,2022-05-16,2022-05-16,株式会社ＴＨＩＮＫ　ＤＯ,,株式会社,福岡県,福岡市中央区,薬院３丁目７番２７号,,40,133,8100022,,,,,,,2022-05-16,1,,,,,シンクドゥー,0
237,1290001097535,新規,0,2022-05-16,2022-05-16,株式会社Ｆ・ＬＯＧＩ,,株式会社,福岡県,福岡市東区,社領３丁目９番５号,,40,131,8120068,,,,,,,2022-05-16,1,,,,,エフロジ,0
240,1290003012491,新規,0,2022-05-16,2022-05-16,合同会社ホットブルー,,合同会社,福岡県,古賀市,新久保２丁目６－７,,40,223,8113118,,,,,,,2022-05-16,1,,,,,ホットブルー,0
241,1290003012500,新規,0,2022-05-16,2022-05-16,ＴＡＳＫＥＬ合同会社,,合同会社,福岡県,福岡市東区,美和台２丁目３６－７,,40,131,8110212,,,,,,,2022-05-16,1,,,,,タスケル,0
242,1290003012517,新規,0,2022-05-16,2022-05-16,メドギーク合同会社,,合同会社,福岡県,福岡市早良区,南庄２丁目７番６号,,40,137,8140031,,,,,,,2022-05-16,1,,,,,メドギーク,0
244,1290801028490,新規,0,2022-05-16,2022-05-16,株式会社創意,,株式会社,福岡県,北九州市小倉北区,砂津２丁目１番２号リオ・ラクーコ９０３号,,40,106,8020014,,,,,,,2022-05-16,1,,,,,ソウイ,0
246,1310003004362,新規,0,2022-05-16,2022-05-16,福田企画合同会社,,合同会社,長崎県,長崎市,滑石２丁目１５－３８,,42,201,8528061,,,,,,,2022-05-16,1,,,,,フクダキカク,0
252,1330001029748,新規,0,2022-05-16,2022-05-16,株式会社クレヤ,,株式会社,熊本県,熊本市東区,神園２丁目１番３０号サンガーデン３０５,,43,102,8618044,,,,,,,2022-05-16,1,,,,,クレヤ,0
255,1340002023550,新規,0,2022-05-16,2022-05-16,有限会社太陽,,有限会社,鹿児島県,南さつま市,加世田本町１６番地１１,,46,220,8970006,,,,,,,2022-05-16,1,,,,,タイヨウ,0
257,1350001017742,新規,0,2022-05-16,2022-05-16,株式会社マウベリック,,株式会社,宮崎県,宮崎市,清武町今泉丙２６１４番地１４ホワイトテラスＳ２１５号室,,45,201,8891602,,,,,,,2022-05-16,1,,,,,マウベリック,0
259,1360001030380,新規,0,2022-05-16,2022-05-16,ＡＬＢＡ株式会社,,株式会社,沖縄県,宮古島市,平良字下里３５６－７２パイナガマスターライト２０４,,47,214,9060013,,,,,,,2022-05-16,1,,,,,アルバ,0
260,1360001030397,新規,0,2022-05-16,2022-05-16,株式会社新里興業,,株式会社,沖縄県,島尻郡八重瀬町,字新城１７６８番地,,47,362,9010503,,,,,,,2022-05-16,1,,,,,シンザトコウギョウ,0
273,1430001086622,新規,0,2022-05-16,2022-05-16,株式会社ＫＪ　ＮＯＲＴＨ,,株式会社,北海道,札幌市西区,琴似一条２丁目６番８－８０４号,,01,107,0630811,,,,,,,2022-05-16,1,,,,,ケイジェイノース,0
284,1470003002185,新規,0,2022-05-16,2022-05-16,合同会社Ｊ＆Ｍ工業,,合同会社,香川県,丸亀市,塩屋町５丁目１３番８－４０１号外浜団地８棟,,37,202,7630065,,,,,,,2022-05-16,1,,,,,ジェイアンドエムコウギョウ,0
301,2010001226632,新規,0,2022-05-16,2022-05-16,スワッグワークス株式会社,,株式会社,東京都,千代田区,平河町１丁目６番４号,,13,101,1020093,,,,,,,2022-05-16,1,,,,,スワッグワークス,0
308,2010005034998,新規,0,2022-05-16,2022-05-16,一般社団法人日本樹木遺産協会,,その他の設立登記法人,東京都,中央区,日本橋本町３丁目３番６号ワカ末ビル７階,,13,102,1030023,,,,,,,2022-05-16,1,,,,,ニホンジュモクイサンキョウカイ,0
330,2010403027538,新規,0,2022-05-16,2022-05-16,合同会社クロノアシス,,合同会社,東京都,港区,浜松町２丁目２番１５号浜松町ダイヤビル２Ｆ,,13,103,1050013,,,,,,,2022-05-16,1,,,,,クロノアシス,0
337,2010601061149,新規,0,2022-05-16,2022-05-16,株式会社デコマスラボ,,株式会社,東京都,墨田区,江東橋４丁目２２番７号,,13,107,1300022,,,,,,,2022-05-16,1,,,,,デコマスラボ,0
339,2010603009534,新規,0,2022-05-16,2022-05-16,Ａｌｌ　Ｔｏｋｙｏ　Ｃｏｌｏｒｓ合同会社,,合同会社,東京都,江東区,豊洲６丁目５番１号,,13,108,1350061,,,,,,,2022-05-16,1,,,,,オールトウキョウカラーズ,0
344,2010901050867,新規,0,2022-05-16,2022-05-16,株式会社ＳＯＦＴＳＨＥＬＬ　ＣＬＵＢ,,株式会社,東京都,世田谷区,若林４丁目２５－１４コーナー松陰２Ｆ,,13,112,1540023,,,,,,,2022-05-16,1,,,,,ソフトシェルクラブ,0
350,2011001147356,新規,0,2022-05-16,2022-05-16,株式会社ラパンコード,,株式会社,東京都,渋谷区,代々木１丁目５－８,,13,113,1510053,,,,,,,2022-05-16,1,,,,,ラパンコード,0
351,2011001147430,新規,0,2022-05-16,2022-05-16,株式会社ヱスジ苑,,株式会社,東京都,渋谷区,神南１丁目９番４号,,13,113,1500041,,,,,,,2022-05-16,1,,,,,,0
352,2011001147513,新規,0,2022-05-16,2022-05-16,ＢＵＹＥＲＳ株式会社,,株式会社,東京都,目黒区,自由が丘３丁目６番１５号,,13,110,1520035,,,,,,,2022-05-16,1,,,,,バイヤーズ,0
353,2011001147562,新規,0,2022-05-16,2022-05-16,株式会社グレートベアーズ,,株式会社,東京都,渋谷区,広尾１丁目１番３９号,,13,113,1500012,,,,,,,2022-05-16,1,,,,,グレートベアーズ,0
365,2011701025299,新規,0,2022-05-16,2022-05-16,株式会社ＲｅＥｘｏｄｕｓ,,株式会社,東京都,江戸川区,北篠崎１丁目１番１４号１階,,13,123,1330053,,,,,,,2022-05-16,1,,,,,リエクソダス,0
377,2012803002780,新規,0,2022-05-16,2022-05-16,合同会社そらじま,,合同会社,東京都,日野市,神明４丁目２０番地の１２アルカディア３０３,,13,212,1910016,,,,,,,2022-05-16,1,,,,,ソラジマ,0
378,2013101008917,新規,0,2022-05-16,2022-05-16,株式会社竜成架建,,株式会社,東京都,あきる野市,二宮１０１７番地３,,13,228,1970814,,,,,,,2022-05-16,1,,,,,リュウセイカケン,0
398,2030001148164,新規,0,2022-05-16,2022-05-16,星空プロダクト株式会社,,株式会社,埼玉県,入間市,鍵山２丁目６番２１号,,11,225,3580004,,,,,,,2022-05-16,1,,,,,ホシゾラプロダクト,0
399,2030001148189,新規,0,2022-05-16,2022-05-16,株式会社まるっとそのまんま,,株式会社,埼玉県,狭山市,新狭山２丁目６番６６号,,11,215,3501331,,,,,,,2022-05-16,1,,,,,マルットソノマンマ,0
420,2050001051077,新規,0,2022-05-16,2022-05-16,株式会社協進,,株式会社,茨城県,潮来市,日の出６丁目１７番地２,,08,223,3112423,,,,,,,2022-05-16,1,,,,,キョウシン,0
423,2060001034873,新規,0,2022-05-16,2022-05-16,株式会社サンテックアース,,株式会社,栃木県,栃木市,川原田町３９３番地９,,09,203,3280123,,,,,,,2022-05-16,1,,,,,サンテックアース,0
434,2080405007457,新規,0,2022-05-16,2022-05-16,特定非営利活動法人耕,,その他の設立登記法人,静岡県,浜松市天竜区,神沢５５５番地,,22,137,4313643,,,,,,,2022-05-16,1,,,,,コウ,0
453,2120001245885,新規,0,2022-05-16,2022-05-16,ＳＫｓｙｓｔｅｍ株式会社,,株式会社,大阪府,大阪市中央区,南船場３丁目１１番１０号心斎橋大陽ビルＢ１Ｆ,,27,128,5420081,,,,,,,2022-05-16,1,,,,,エスケーシステム,0
456,2120003021665,新規,0,2022-05-16,2022-05-16,合同会社ＬＥＡＦ,,合同会社,大阪府,寝屋川市,南水苑町２６番１０号,,27,215,5720826,,,,,,,2022-05-16,1,,,,,リーフ,0
457,2120003021673,新規,0,2022-05-16,2022-05-16,合同会社ブライトレット,,合同会社,大阪府,大阪市東淀川区,豊新２丁目５番８－５号,,27,114,5330014,,,,,,,2022-05-16,1,,,,,ブライトレット,0
467,2130001071694,新規,0,2022-05-16,2022-05-16,株式会社サイアーライン,,株式会社,京都府,宇治市,広野町一里山３４－５,,26,204,6110031,,,,,,,2022-05-16,1,,,,,サイアーライン,0
468,2130001071744,新規,0,2022-05-16,2022-05-16,株式会社すみれ,,株式会社,京都府,京都市右京区,太秦多薮町１番地１３－２０２,,26,108,6160000,,,,,,,2022-05-16,1,,,,,スミレ,0
474,2130005016480,新規,0,2022-05-16,2022-05-16,一般社団法人負荷試験協会,,その他の設立登記法人,京都府,舞鶴市,字志高１９５７－４,,26,202,6240102,,,,,,,2022-05-16,1,,,,,フカシケンキョウカイ,0
485,2140001125986,新規,0,2022-05-16,2022-05-16,高濱工業株式会社,00126568,株式会社,兵庫県,揖保郡太子町,佐用岡９３１番地１,,28,464,6711575,,,,,,,2022-05-16,1,,,,,タカハマコウギョウ,0
486,2140001125994,新規,0,2022-05-16,2022-05-16,株式会社アピロ,,株式会社,兵庫県,芦屋市,上宮川町２番８－３０１号,,28,206,6590061,,,,,,,2022-05-16,1,,,,,アピロ,0
488,2140003017678,新規,0,2022-05-16,2022-05-16,合同会社Ｋａｎａｈｕ　Ｐｅｅｐｓ,,合同会社,兵庫県,伊丹市,山田４丁目４番２３号,,28,207,6640874,,,,,,,2022-05-16,1,,,,,カナフピープス,0
489,2140003017686,新規,0,2022-05-16,2022-05-16,合同会社リライフ,,合同会社,兵庫県,朝来市,和田山町市御堂１４３,,28,225,6695262,,,,,,,2022-05-16,1,,,,,リライフ,0
491,2150005009391,新規,0,2022-05-16,2022-05-16,医療法人ひかり会,,その他の設立登記法人,奈良県,奈良市,学園北１丁目８番８号サンライトビル５階,,29,201,6310036,,,,,,,2022-05-16,1,,,,,ヒカリカイ,0
492,2160005011082,新規,0,2022-05-16,2022-05-16,ギャラリーコート彦根管理組合法人,,その他の設立登記法人,滋賀県,彦根市,馬場２丁目６番３３号,,25,202,5220069,,,,,,,2022-05-16,1,,,,,ギャラリーコートヒコネ,0
500,2180001151203,新規,0,2022-05-16,2022-05-16,株式会社ホリエホールディングス,,株式会社,愛知県,一宮市,高田字七夕田２８番地,,23,203,4910125,,,,,,,2022-05-16,1,,,,,ホリエホールディングス,0
501,2180001151228,新規,0,2022-05-16,2022-05-16,株式会社ＣＦＣテクニカル,,株式会社,愛知県,愛知郡東郷町,大字諸輪字観音畑１９番地１,,23,302,4700151,,,,,,,2022-05-16,1,,,,,シーエフシーテクニカル,0
502,2180001151335,新規,0,2022-05-16,2022-05-16,林建築鈑金株式会社,,株式会社,愛知県,あま市,甚目寺市場２５番地２,,23,237,4901111,,,,,,,2022-05-16,1,,,,,ハヤシケンチクバンキン,0
504,2180301036228,新規,0,2022-05-16,2022-05-16,株式会社新友電工社,,株式会社,愛知県,岡崎市,細川町字山ノ神２番地２１０,,23,202,4442149,,,,,,,2022-05-16,1,,,,,シンユウデンコウシャ,0
542,2290003012474,新規,0,2022-05-16,2022-05-16,合同会社リベルタ,,合同会社,福岡県,福岡市博多区,古門戸町１０番５－３０２号,,40,132,8120029,,,,,,,2022-05-16,1,,,,,リベルタ,0
543,2290003012516,新規,0,2022-05-16,2022-05-16,合同会社ＧＫ,,合同会社,福岡県,糸島市,前原北２丁目８番７０号,,40,230,8191118,,,,,,,2022-05-16,1,,,,,ジーケー,0
548,2310002020979,新規,0,2022-05-16,2022-05-16,有限会社タケムラ,,有限会社,長崎県,東彼杵郡川棚町,百津郷４７８番地１８,,42,322,8593605,,,,,,,2022-05-16,1,,,,,タケムラ,0
556,2360003011997,新規,0,2022-05-16,2022-05-16,合同会社クランＴ,,合同会社,沖縄県,那覇市,字安謝６２０－２６,,47,201,9000003,,,,,,,2022-05-16,1,,,,,クランティ,0
565,2380001032812,新規,0,2022-05-16,2022-05-16,株式会社ＭＡＲＥ,,株式会社,福島県,伊達郡川俣町,飯坂字六枚４０番地の２,,07,308,9601401,,,,,,,2022-05-16,1,,,,,マーレ,0
566,2380003005171,新規,0,2022-05-16,2022-05-16,ＪＰ合同会社,,合同会社,福島県,いわき市,渡辺町泉田字狐塚４０番地の１,,07,204,9728331,,,,,,,2022-05-16,1,,,,,ジェイピー,0
574,2430001086596,新規,0,2022-05-16,2022-05-16,株式会社ヨシイ,,株式会社,北海道,石狩市,花川北六条５丁目１６２番地１,,01,235,0613216,,,,,,,2022-05-16,1,,,,,ヨシイ,0
575,2430001086621,新規,0,2022-05-16,2022-05-16,株式会社Ｒｅｓｄｕｃ,,株式会社,北海道,札幌市中央区,大通西１丁目１４番地２,,01,101,0600042,,,,,,,2022-05-16,1,,,,,レスダク,0
584,2470003002184,新規,0,2022-05-16,2022-05-16,合同会社くおん,,合同会社,香川県,高松市,庵治町１４０１番地,,37,201,7610130,,,,,,,2022-05-16,1,,,,,クオン,0
586,2490001010179,新規,0,2022-05-16,2022-05-16,未来ＫＮＯＷＳ株式会社,,株式会社,高知県,高岡郡日高村,本村２０９番地１,,39,410,7812164,,,,,,,2022-05-16,1,,,,,ミライノウズ,0
588,2700150108768,新規,0,2022-05-16,2022-05-16,ＲＡ　Ｊａｐａｎ　Ｓｅｇｒｅｇａｔｅｄ　Ｐｏｒｔｆｏｌｉｏ　Ｃｏｍｐａｎｙ,,外国会社等,,,,,,,,Ｃｒｉｃｋｅｔ　Ｓｑｕａｒｅ，Ｈｕｔｃｈｉｎｓ　Ｄｒｉｖｅ，ＰＯ　ＢＯＸ　２６８１，Ｇｒａｎｄ　Ｃａｙｍａｎ，ＫＹ１－１１１１,,,,,,2022-05-16,1,,,,,アールエージヤパンセグレゲイテイツドポートフオリオカンパニー,0
606,3010401167376,新規,0,2022-05-16,2022-05-16,ＮＰＭＩ‐ＬＬＨ株式会社,,株式会社,東京都,港区,元赤坂１丁目７番１８号,,13,103,1070051,,,,,,,2022-05-16,1,,,,,エヌピーエムアイエルエルエイチ,0
624,3010503006589,新規,0,2022-05-16,2022-05-16,ｃｏｉｎｎｏ合同会社,,合同会社,東京都,台東区,上野３丁目１６番２号天翔上野末広町ビル１０１０号室,,13,106,1100005,,,,,,,2022-05-16,1,,,,,コインノ,0
626,3010601061131,新規,0,2022-05-16,2022-05-16,株式会社ハイビスカス,,株式会社,東京都,江東区,平野２丁目３番２０号,,13,108,1350023,,,,,,,2022-05-16,1,,,,,ハイビスカス,0
630,3010901050866,新規,0,2022-05-16,2022-05-16,セラスト研究所株式会社,,株式会社,東京都,世田谷区,上馬２丁目３３番１号,,13,112,1540011,,,,,,,2022-05-16,1,,,,,セラストケンキュウショ,0
639,3011001147396,新規,0,2022-05-16,2022-05-16,株式会社Ｆｏｏｔｂｏｌｓｔｅｒ,,株式会社,東京都,渋谷区,神宮前６丁目２３番４号桑野ビル２階,,13,113,1500001,,,,,,,2022-05-16,1,,,,,フットボルスター,0
640,3011001147413,新規,0,2022-05-16,2022-05-16,株式会社ｌｉｍｏｎｔｏｋｙｏ,,株式会社,東京都,目黒区,下目黒４丁目２０番４７号,,13,110,1530064,,,,,,,2022-05-16,1,,,,,リモントウキョウ,0
641,3011001147421,新規,0,2022-05-16,2022-05-16,株式会社Ｓｉｐｓ‐Ｔｏｋｙｏ,,株式会社,東京都,渋谷区,神宮前６丁目２３－４桑野ビル２Ｆ,,13,113,1500001,,,,,,,2022-05-16,1,,,,,,0
642,3011001147537,新規,0,2022-05-16,2022-05-16,株式会社チェストフィールドマネジメント,,株式会社,東京都,渋谷区,道玄坂１丁目１０番８号渋谷道玄坂東急ビル２Ｆ－Ｃ,,13,113,1500043,,,,,,,2022-05-16,1,,,,,チェストフィールドマネジメント,0
648,3011103011649,新規,0,2022-05-16,2022-05-16,合同会社ＲｅＢｏｒｎ,,合同会社,東京都,新宿区,新宿２丁目１５番２５号カテリーナ御苑７０１,,13,104,1600022,,,,,,,2022-05-16,1,,,,,リボーン,0
649,3011103011748,新規,0,2022-05-16,2022-05-16,合同会社こころ,,合同会社,東京都,新宿区,西新宿３丁目３番１３号西新宿水間ビル６階,,13,104,1600023,,,,,,,2022-05-16,1,,,,,ココロ,0
652,3011301027777,新規,0,2022-05-16,2022-05-16,株式会社クーチ,,株式会社,東京都,杉並区,阿佐谷南１丁目１４番１２号パティオエルスールビル２０１,,13,115,1660004,,,,,,,2022-05-16,1,,,,,クーチ,0
658,3011501028039,新規,0,2022-05-16,2022-05-16,中正信株式会社,,株式会社,東京都,北区,浮間１丁目１番１４号リムジンビル３１３,,13,117,1150051,,,,,,,2022-05-16,1,,,,,チュウセイシン,0
661,3011603003600,新規,0,2022-05-16,2022-05-16,アイプロパティ合同会社,,合同会社,東京都,練馬区,練馬４丁目１８－２１－１２０２,,13,120,1760001,,,,,,,2022-05-16,1,,,,,アイプロパティ,0
684,3021001075968,新規,0,2022-05-16,2022-05-16,株式会社バケラッタ,,株式会社,神奈川県,鎌倉市,稲村ガ崎５丁目３－１１,,14,204,2480024,,,,,,,2022-05-16,1,,,,,バケラッタ,0
690,3030001148238,新規,0,2022-05-16,2022-05-16,株式会社ＴＹＫ,,株式会社,埼玉県,入間市,大字下藤沢９６９番地１エクセレンス斉藤Ａ－２０２,,11,225,3580011,,,,,,,2022-05-16,1,,,,,ティーワイケー,0
705,3060001034864,新規,0,2022-05-16,2022-05-16,株式会社Ａ．Ｙエンタープライズ,,株式会社,栃木県,下都賀郡野木町,大字野渡１２６番地１,,09,364,3290115,,,,,,,2022-05-16,1,,,,,エーワイエンタープライズ,0
706,3060001034872,新規,0,2022-05-16,2022-05-16,天野産業株式会社,,株式会社,栃木県,佐野市,上羽田町９８２番地２,,09,204,3270042,,,,,,,2022-05-16,1,,,,,アマノサンギョウ,0
717,3080401025800,新規,0,2022-05-16,2022-05-16,Ｂｌｕｅ　Ｅａｒｔｈ　Ｃｏｍｐａｎｙ株式会社,,株式会社,静岡県,浜松市東区,有玉西町２４１２番地の１２ウエストタウンハイツ４０２号室,,22,132,4313123,,,,,,,2022-05-16,1,,,,,ブルーアースカンパニー,0
718,3080401025809,新規,0,2022-05-16,2022-05-16,株式会社渥美テクノサービス,,株式会社,静岡県,袋井市,浅羽３６０７番地の１,,22,216,4371101,,,,,,,2022-05-16,1,,,,,アツミテクノサービス,0
720,3080405007456,新規,0,2022-05-16,2022-05-16,一般社団法人ＳｏＺｏｎｅ,,その他の設立登記法人,静岡県,浜松市中区,富塚町４０６番地の９,,22,131,4328002,,,,,,,2022-05-16,1,,,,,ソーゾーン,0
721,3090001017569,新規,0,2022-05-16,2022-05-16,株式会社エフテート,,株式会社,山梨県,甲府市,徳行４丁目６番２８号,,19,201,4000047,,,,,,,2022-05-16,1,,,,,エフテート,0
736,3120001245876,新規,0,2022-05-16,2022-05-16,株式会社ＡＩＣＡＬ,,株式会社,大阪府,大阪市中央区,備後町３丁目２番１５号,,27,128,5410051,,,,,,,2022-05-16,1,,,,,アイカル,0
739,3120003021664,新規,0,2022-05-16,2022-05-16,合同会社シンホールディングス,,合同会社,大阪府,大阪市淀川区,宮原４丁目４－２－７０９,,27,123,5320003,,,,,,,2022-05-16,1,,,,,シンホールディングス,0
740,3120003021680,新規,0,2022-05-16,2022-05-16,合同会社ウエルネスライフ,,合同会社,大阪府,大阪市中央区,南本町３丁目２番４号大泉ビル４階,,27,128,5410054,,,,,,,2022-05-16,1,,,,,ウエルネスライフ,0
750,3130001071743,新規,0,2022-05-16,2022-05-16,株式会社ガルーダジャパン,,株式会社,京都府,相楽郡南山城村,大字北大河原小字釜ノ子２９番地２５３,,26,367,6191411,,,,,,,2022-05-16,1,,,,,ガルーダジャパン,0
751,3130001071776,新規,0,2022-05-16,2022-05-16,株式会社ｄｉａｌｅｋｔｉｋｅ,,株式会社,京都府,京都市中京区,新町通三条上る町頭町１１２,,26,104,6048206,,,,,,,2022-05-16,1,,,,,ディアレクティケ,0
762,3140001125993,新規,0,2022-05-16,2022-05-16,株式会社Ｌｉｆｅ　Ｓｔｙｌｅ,,株式会社,兵庫県,明石市,二見町東二見４８８番地の２,,28,203,6740092,,,,,,,2022-05-16,1,,,,,ライフスタイル,0
763,3140001126001,新規,0,2022-05-16,2022-05-16,ｉｊ．ｄｅｓｉｇｎ株式会社,,株式会社,兵庫県,尼崎市,武庫町１丁目１９番１５号,,28,202,6610044,,,,,,,2022-05-16,1,,,,,アイジェイデザイン,0
764,3140001126018,新規,0,2022-05-16,2022-05-16,株式会社ＹＫＫ,,株式会社,兵庫県,神戸市中央区,下山手通２丁目４－９,,28,110,6500011,,,,,,,2022-05-16,1,,,,,ワイケーケー,0
768,3140003017677,新規,0,2022-05-16,2022-05-16,合同会社岩切サービス,,合同会社,兵庫県,明石市,魚住町西岡２４３９番地の９,,28,203,6740084,,,,,,,2022-05-16,1,,,,,イワキリサービス,0
769,3140003017685,新規,0,2022-05-16,2022-05-16,合同会社ＫＴＳ,,合同会社,兵庫県,神戸市垂水区,つつじが丘７丁目１７３４－７４,,28,108,6550853,,,,,,,2022-05-16,1,,,,,ケーティーエス,0
776,3160005011081,新規,0,2022-05-16,2022-05-16,特定非営利活動法人Ｅ‐Ｃｏｍｍｕｎｉｔｙ,,その他の設立登記法人,滋賀県,東近江市,躰光寺町６３８番地１ベルマルジェ２０２号室,,25,213,5211205,,,,,,,2022-05-16,1,,,,,イーコミュニティ,0
788,3180001151292,新規,0,2022-05-16,2022-05-16,株式会社インプレシオン,,株式会社,愛知県,名古屋市中区,金山１丁目７番４号,,23,106,4600022,,,,,,,2022-05-16,1,,,,,インプレシオン,0
789,3180001151301,新規,0,2022-05-16,2022-05-16,株式会社ＴＲＮＳＲ,,株式会社,愛知県,長久手市,熊田１１１１番地６,,23,238,4801144,,,,,,,2022-05-16,1,,,,,ティーアールエヌエスアール,0
807,3200001040071,新規,0,2022-05-16,2022-05-16,Ｒｙｕｓｈｏ運輸株式会社,,株式会社,岐阜県,岐阜市,宮北町２０番地ビューパレス加納城公園４０３,,21,201,5008435,,,,,,,2022-05-16,1,,,,,リュウショウウンユ,0
811,3220003003280,新規,0,2022-05-16,2022-05-16,合同会社松本林業,,合同会社,石川県,金沢市,辰巳町ロ１２０番地３,,17,201,9201303,,,,,,,2022-05-16,1,,,,,マツモトリンギョウ,0
828,3290001097434,新規,0,2022-05-16,2022-05-16,株式会社イケヤフーズ,,株式会社,福岡県,糟屋郡宇美町,貴船５丁目１９番２３号,,40,341,8112131,,,,,,,2022-05-16,1,,,,,イケヤフーズ,0
829,3290001097533,新規,0,2022-05-16,2022-05-16,株式会社豊和,,株式会社,福岡県,福岡市博多区,吉塚３丁目１２番１６号,,40,132,8120041,,,,,,,2022-05-16,1,,,,,ホウワ,0
838,3330001029746,新規,0,2022-05-16,2022-05-16,株式会社清雅,,株式会社,熊本県,熊本市東区,戸島本町４２８２番地１,,43,102,8618042,,,,,,,2022-05-16,1,,,,,セイガ,0
874,3430001086595,新規,0,2022-05-16,2022-05-16,株式会社ケーエス技建,,株式会社,北海道,札幌市豊平区,平岸六条１３丁目５－１－２２７,,01,105,0620936,,,,,,,2022-05-16,1,,,,,ケーエスギケン,0
875,3430001086612,新規,0,2022-05-16,2022-05-16,株式会社北光電設,,株式会社,北海道,苫小牧市,澄川町８丁目４番１７号,,01,213,0591271,,,,,,,2022-05-16,1,,,,,ホッコウデンセツ,0
876,3430001086629,新規,0,2022-05-16,2022-05-16,株式会社ハウェイファーム,,株式会社,北海道,沙流郡日高町,字賀張２１３番地１,,01,601,0592244,,,,,,,2022-05-16,1,,,,,ハウェイファーム,0
881,3460303000763,新規,0,2022-05-16,2022-05-16,ＮＯＲＴＨ　ＩＤＥＡ合同会社,,合同会社,北海道,北見市,北進町１丁目１１番１０号,,01,208,0900052,,,,,,,2022-05-16,1,,,,,ノースアイデア,0
889,3700150108008,新規,0,2022-05-16,2022-04-15,堺市長峰営農組合,,その他,大阪府,堺市南区,泉田中３５５７,,27,145,5900126,,,,,,,2022-04-15,1,,,,,サカイシナガミネエイノウクミアイ,0
890,3700150108370,新規,0,2022-05-16,2022-04-27,ピカソプロジェクト,,その他,山口県,山陽小野田市,大字有帆７１６番地１０,,35,216,7560038,,,,,,,2022-04-27,1,,,,,ピカソプロジエクト,0
891,3700150108676,新規,0,2022-05-16,2022-05-12,ＨＡＮ,,その他,東京都,北区,東十条５丁目６－１９,,13,117,1140001,,,,,,,2022-05-12,1,,,,,ハン,0
906,4010001226639,新規,0,2022-05-16,2022-05-16,株式会社エウサピア,,株式会社,東京都,千代田区,九段南１丁目５番６号りそな九段ビル５ＦＫＳフロア,,13,101,1020074,,,,,,,2022-05-16,1,,,,,エウサピア,0
912,4010003037621,新規,0,2022-05-16,2022-05-16,合同会社ＦＵＪＩ,,合同会社,東京都,中央区,月島４丁目１７番１―７０３号,,13,102,1040052,,,,,,,2022-05-16,1,,,,,フジ,0
913,4010101015181,新規,0,2022-05-16,2022-05-16,株式会社ビットムービーシステムズ,,株式会社,東京都,八王子市,打越町２０１４番地１９,,13,201,1920911,,,,,,,2022-05-16,1,,,,,ビットムービーシステムズ,0
926,4010401167350,新規,0,2022-05-16,2022-05-16,ＡＳＣＥ株式会社,,株式会社,東京都,港区,虎ノ門３丁目１８番６号朝日虎ノ門マンション６１４号室,,13,103,1050001,,,,,,,2022-05-16,1,,,,,エース,0
935,4010601061097,新規,0,2022-05-16,2022-05-16,株式会社ＣＯＯＬ　ＪＡＰＡＮ　ＭＥＤＩＡ,,株式会社,東京都,墨田区,立川４丁目１４－１０－２０３号,,13,107,1300023,,,,,,,2022-05-16,1,,,,,クールジャパンメディア,0
936,4010603009508,新規,0,2022-05-16,2022-05-16,ＦＩＥＲＩ合同会社,,合同会社,東京都,江東区,亀戸９丁目９－１－４０３,,13,108,1360071,,,,,,,2022-05-16,1,,,,,フィエリ,0
937,4010603009532,新規,0,2022-05-16,2022-05-16,合同会社Ｖｉｖｉｄ　Ｔｅｃｈ,,合同会社,東京都,墨田区,緑４丁目８番４－２０１号ヤマシロハイム,,13,107,1300021,,,,,,,2022-05-16,1,,,,,ビビッドテック,0
945,4010901050849,新規,0,2022-05-16,2022-05-16,株式会社トクナガ企画,,株式会社,東京都,世田谷区,北烏山１丁目５番１－３０６号,,13,112,1570061,,,,,,,2022-05-16,1,,,,,トクナガキカク,0
952,4011001147338,新規,0,2022-05-16,2022-05-16,株式会社ステラセキュリティ,,株式会社,東京都,渋谷区,道玄坂１丁目１０番８号渋谷道玄坂東急ビル２Ｆ－Ｃ,,13,113,1500043,,,,,,,2022-05-16,1,,,,,ステラセキュリティ,0
953,4011001147346,新規,0,2022-05-16,2022-05-16,株式会社こと,,株式会社,東京都,渋谷区,円山町５番５号Ｎａｖｉ渋谷Ｖ３階,,13,113,1500044,,,,,,,2022-05-16,1,,,,,,0
954,4011001147412,新規,0,2022-05-16,2022-05-16,クルーゼル株式会社,,株式会社,東京都,渋谷区,道玄坂１丁目１０番８号渋谷道玄坂東急ビル２Ｆ－Ｃ,,13,113,1500043,,,,,,,2022-05-16,1,,,,,クルーゼル,0
955,4011001147511,新規,0,2022-05-16,2022-05-16,株式会社ＳＨ４０,,株式会社,東京都,渋谷区,道玄坂１丁目１０番８号,,13,113,1500043,,,,,,,2022-05-16,1,,,,,シェルフォーティー,0
956,4011003014585,新規,0,2022-05-16,2022-05-16,合同会社ＬＩＦＯＧＥＯ,,合同会社,東京都,渋谷区,渋谷２丁目１９番地１５号宮益坂ビルディング６０９,,13,113,1500002,,,,,,,2022-05-16,1,,,,,ライフォジオ,0
960,4011101098794,新規,0,2022-05-16,2022-05-16,株式会社クエストパートナーズ,,株式会社,東京都,新宿区,四谷４丁目３３番２号,,13,104,1600004,,,,,,,2022-05-16,1,,,,,クエストパートナーズ,0
965,4011201023818,新規,0,2022-05-16,2022-05-16,株式会社ゴールデンＭ＆Ａパートナーズ,,株式会社,東京都,中野区,東中野３丁目１番２０号,,13,114,1640003,,,,,,,2022-05-16,1,,,,,ゴールデンエムアンドエーパートナーズ,0
967,4011301027776,新規,0,2022-05-16,2022-05-16,株式会社Ｅａｒｔｈ　Ｃｏｌｏｒｅｄ　Ｊａｐａｎ,,株式会社,東京都,杉並区,上荻３丁目２９番１０－６０２号荻窪パークハウス,,13,115,1670043,,,,,,,2022-05-16,1,,,,,アースカラードジャパン,0
977,4011701025297,新規,0,2022-05-16,2022-05-16,株式会社オン・エア,,株式会社,東京都,江戸川区,南葛西３丁目１８番１９－５０１号,,13,123,1340085,,,,,,,2022-05-16,1,,,,,オンエア,0
979,4011801040709,新規,0,2022-05-16,2022-05-16,株式会社ＡＮＤ　ＹＯＵ,,株式会社,東京都,足立区,西新井４丁目２４番１１号,,13,121,1230841,,,,,,,2022-05-16,1,,,,,アンドユー,0
983,4011803005081,新規,0,2022-05-16,2022-05-16,ＫＩＭ　ＫＨＡＮＨ合同会社,,合同会社,東京都,葛飾区,西水元２丁目２２番６号,,13,122,1250031,,,,,,,2022-05-16,1,,,,,キムカン,0
1004,4021001075959,新規,0,2022-05-16,2022-05-16,株式会社Ｂ‐Ｓｉｄｅ　Ｓｔａｎｄａｒｄ,,株式会社,神奈川県,鎌倉市,山ノ内８６０番地２,,14,204,2470062,,,,,,,2022-05-16,1,,,,,ビーサイドスタンダード,0
1009,4021003011706,新規,0,2022-05-16,2022-05-16,合同会社シーエル設備工業,,合同会社,神奈川県,相模原市中央区,田名１２９２番地１８,,14,152,2520244,,,,,,,2022-05-16,1,,,,,シーエルセツビコウギョウ,0
1022,4030001148154,新規,0,2022-05-16,2022-05-16,株式会社インフィニティインベストメンツ,,株式会社,埼玉県,所沢市,上新井２丁目９番地の１,,11,208,3591142,,,,,,,2022-05-16,1,,,,,インフィニティインベストメンツ,0
1023,4030001148204,新規,0,2022-05-16,2022-05-16,株式会社ＢＯＵＳＵＩ,,株式会社,埼玉県,坂戸市,鶴舞４丁目１２番１８号,,11,239,3500241,,,,,,,2022-05-16,1,,,,,ボウスイ,0
1024,4030001148212,新規,0,2022-05-16,2022-05-16,株式会社イー・ティー・エル,,株式会社,埼玉県,さいたま市北区,宮原町３丁目３０６番地６杉ビル・５－３Ｆ,,11,102,3310812,,,,,,,2022-05-16,1,,,,,イーティーエル,0
1025,4030001148220,新規,0,2022-05-16,2022-05-16,株式会社桜前,,株式会社,埼玉県,川口市,西川口１丁目３０番２０－２１０号,,11,203,3320021,,,,,,,2022-05-16,1,,,,,,0
1026,4030001148229,新規,0,2022-05-16,2022-05-16,株式会社Ｈ　Ａ　ＴＲＡＤＩＮＧ,,株式会社,埼玉県,幸手市,大字惣新田４９８番地５,,11,240,3400133,,,,,,,2022-05-16,1,,,,,エイチエートレーディング,0
1028,4030003019403,新規,0,2022-05-16,2022-05-16,合同会社ＳＵＰＵＮＩＰＰＯＮ　ＥＮＴＥＲＰＲＩＳＥＳ,,合同会社,埼玉県,加須市,麦倉１７１番地１１,,11,210,3491212,,,,,,,2022-05-16,1,,,,,スプニッポンエンタープライゼズ,0
1030,4040001123395,新規,0,2022-05-16,2022-05-16,株式会社ＡＹアトラス,,株式会社,千葉県,鎌ケ谷市,くぬぎ山２丁目１０番１２号安西アパート１号２階,,12,224,2730128,,,,,,,2022-05-16,1,,,,,エイワイアトラス,0
1044,4060001034871,新規,0,2022-05-16,2022-05-16,株式会社Ｉｃｈｉｋａｗａ,,株式会社,栃木県,鹿沼市,上殿町３２９番地２,,09,205,3220045,,,,,,,2022-05-16,1,,,,,イチカワ,0
1048,4070001039242,新規,0,2022-05-16,2022-05-16,株式会社ｉｅ,,株式会社,群馬県,太田市,高林西町５３１番地５,,10,205,3730828,,,,,,,2022-05-16,1,,,,,アイイー,0
1053,4090003002089,新規,0,2022-05-16,2022-05-16,リンクシェア合同会社,,合同会社,山梨県,甲府市,富竹２丁目１０番３０号,,19,201,4000049,,,,,,,2022-05-16,1,,,,,リンクシェア,0
1058,4100001035337,新規,0,2022-05-16,2022-05-16,株式会社ＰＥＡＲ　ＴＲＥＥ,,株式会社,長野県,上田市,古里１９９５番地５,,20,203,3860005,,,,,,,2022-05-16,1,,,,,ペアーツリー,0
1076,4120001245801,新規,0,2022-05-16,2022-05-16,株式会社ジャカコン東日本,,株式会社,大阪府,大阪市淀川区,西中島７丁目１番３号チサン第８新大阪,,27,123,5320011,,,,,,,2022-05-16,1,,,,,ジャカコンヒガシニホン,0
1077,4120001245883,新規,0,2022-05-16,2022-05-16,株式会社拓宅不動産,,株式会社,大阪府,大阪市中央区,北久宝寺町３丁目６－１本町南ガーデンシティ７階,,27,128,5410057,,,,,,,2022-05-16,1,,,,,タクイエフドウサン,0
1078,4120001245909,新規,0,2022-05-16,2022-05-16,株式会社阪成,,株式会社,大阪府,大阪市西成区,北津守４丁目４番７５－４９号,,27,122,5570061,,,,,,,2022-05-16,1,,,,,ハンセイ,0
1093,4122001035876,新規,0,2022-05-16,2022-05-16,株式会社Ｓｕｎｎｙｒｅｘ,,株式会社,大阪府,八尾市,沼４丁目２番地２,,27,212,5810036,,,,,,,2022-05-16,1,,,,,サニーレックス,0
1100,4130001071759,新規,0,2022-05-16,2022-05-16,株式会社Ｌｉｍ,,株式会社,京都府,亀岡市,東つつじケ丘都台１丁目１番１０号,,26,206,6210832,,,,,,,2022-05-16,1,,,,,リム,0
1101,4130003007926,新規,0,2022-05-16,2022-05-16,レヴィ合同会社,,合同会社,京都府,京都市北区,鷹峯木ノ畑町８９番地プレステージ北山１０３,,26,101,6038447,,,,,,,2022-05-16,1,,,,,レヴィ,0
1110,4140003017684,新規,0,2022-05-16,2022-05-16,合同会社ＳＯＡ,,合同会社,兵庫県,西宮市,屋敷町１９番４号,,28,204,6620963,,,,,,,2022-05-16,1,,,,,ソア,0
1114,4150003002677,新規,0,2022-05-16,2022-05-16,ＳＡＹＡ合同会社,,合同会社,奈良県,生駒郡安堵町,大字東安堵１４１４番地７,,29,345,6391061,,,,,,,2022-05-16,1,,,,,サヤ,0
1123,4180001151192,新規,0,2022-05-16,2022-05-16,株式会社ＦＲＩＥＮＤＳ　ＮＥＸ,,株式会社,愛知県,名古屋市港区,小碓１丁目１８４番地,,23,111,4550801,,,,,,,2022-05-16,1,,,,,フレンズネックス,0
1124,4180001151317,新規,0,2022-05-16,2022-05-16,中部ライフクリーンサービス株式会社,,株式会社,愛知県,名古屋市守山区,川北町３４０番地５,,23,113,4630098,,,,,,,2022-05-16,1,,,,,チュウブライフクリーンサービス,0
1131,4180301036226,新規,0,2022-05-16,2022-05-16,株式会社Ｑｕｑｕｌｕｓ,,株式会社,愛知県,碧南市,田尻町２丁目１２番地,,23,209,4470867,,,,,,,2022-05-16,1,,,,,ククルス,0
1138,4200001039996,新規,0,2022-05-16,2022-05-16,株式会社ストックプロダクション,,株式会社,岐阜県,大垣市,桐ケ崎町６７・２Ｆ,,21,202,5030904,,,,,,,2022-05-16,1,,,,,ストックプロダクション,0
1140,4210003001508,新規,0,2022-05-16,2022-05-16,きんとき合同会社,,合同会社,福井県,福井市,本堂町８９－６－３３９,,18,201,9188076,,,,,,,2022-05-16,1,,,,,キントキ,0
1146,4240001059776,新規,0,2022-05-16,2022-05-16,フューチャー株式会社,,株式会社,広島県,広島市西区,井口台１丁目１３番３０－６０４号,,34,104,7330844,,,,,,,2022-05-16,1,,,,,フューチャー,0
1150,4240005015395,新規,0,2022-05-16,2022-05-16,一般社団法人北広島町まちづくり会社はなえーる,,その他の設立登記法人,広島県,山県郡北広島町,有田１２３４番地,,34,369,7311533,,,,,,,2022-05-16,1,,,,,キタヒロシマチョウマチヅクリガイシャハナエール,0
1155,4250001019564,新規,0,2022-05-16,2022-05-16,株式会社三宅設備工業,,株式会社,山口県,宇部市,大字東須恵９０９番地３５,,35,202,7590206,,,,,,,2022-05-16,1,,,,,ミヤケセツビコウギョウ,0
1166,4290001016442,新規,0,2022-05-16,2022-05-16,株式会社双美,,株式会社,福岡県,福岡市博多区,麦野２丁目１６番１８号,,40,132,8120882,,,,,,,2022-05-16,1,,,,,,0
1174,4290001097540,新規,0,2022-05-16,2022-05-16,株式会社ティング,,株式会社,福岡県,福岡市中央区,赤坂１丁目７番５号,,40,133,8100042,,,,,,,2022-05-16,1,,,,,ティング,0
1184,4330001029745,新規,0,2022-05-16,2022-05-16,株式会社日本繁栄開発,,株式会社,熊本県,熊本市中央区,中央街４－２２アルバ銀座通りビル８Ｆ,,43,101,8600802,,,,,,,2022-05-16,1,,,,,ニホンハンエイカイハツ,0
1191,4360001030394,新規,0,2022-05-16,2022-05-16,株式会社ガレージアクティブ,,株式会社,沖縄県,宜野湾市,長田４丁目１４番１号,,47,205,9012212,,,,,,,2022-05-16,1,,,,,ガレージアクティブ,0
1193,4360005006655,新規,0,2022-05-16,2022-05-16,医療法人きのしたこどもクリニック,,その他の設立登記法人,沖縄県,糸満市,字真栄里２０３０番３,,47,210,9010362,,,,,,,2022-05-16,1,,,,,キノシタコドモクリニック,0
1203,4380001032810,新規,0,2022-05-16,2022-05-16,ライフウッド株式会社,,株式会社,福島県,田村郡小野町,大字飯豊字川向１５６番地,,07,522,9633521,,,,,,,2022-05-16,1,,,,,ライフウッド,0
1217,4430001086594,新規,0,2022-05-16,2022-05-16,原工業株式会社,,株式会社,北海道,苫小牧市,桜坂町１丁目６番１４号,,01,213,0530843,,,,,,,2022-05-16,1,,,,,ハラコウギョウ,0
1218,4430001086611,新規,0,2022-05-16,2022-05-16,株式会社小野寺工業,,株式会社,北海道,札幌市豊平区,月寒東二条２０丁目３番４号,,01,105,0620052,,,,,,,2022-05-16,1,,,,,オノデラコウギョウ,0
1219,4430001086636,新規,0,2022-05-16,2022-05-16,ＩＤＫ株式会社,,株式会社,北海道,札幌市豊平区,月寒東三条１８丁目１２番２３号,,01,105,0620053,,,,,,,2022-05-16,1,,,,,アイディーケー,0
1222,4430003013860,新規,0,2022-05-16,2022-05-16,合同会社しろい木,,合同会社,北海道,小樽市,銭函１丁目６―７,,01,203,0470261,,,,,,,2022-05-16,1,,,,,シロイキ,0
1223,4430003013885,新規,0,2022-05-16,2022-05-16,合同会社クロスプランニング,,合同会社,北海道,札幌市東区,北二十四条東１丁目３番３４号,,01,103,0650024,,,,,,,2022-05-16,1,,,,,クロスプランニング,0
1224,4430003013893,新規,0,2022-05-16,2022-05-16,合同会社グランドロード,,合同会社,北海道,札幌市北区,屯田九条８丁目４番２２号,,01,102,0020859,,,,,,,2022-05-16,1,,,,,グランドロード,0
1231,4490001010177,新規,0,2022-05-16,2022-05-16,株式会社谷本建築板金,,株式会社,高知県,香南市,野市町西野６７４番地１,,39,211,7815232,,,,,,,2022-05-16,1,,,,,タニモトケンチクバンキン,0
1235,4700150107818,新規,0,2022-05-16,2022-04-11,ヌトミック,,その他,東京都,世田谷区,野沢３丁目９－６－１０４,,13,112,1540003,,,,,,,2022-04-11,1,,,,,ヌトミツク,0
1249,5010001226588,新規,0,2022-05-16,2022-05-16,株式会社岡澤商店,,株式会社,東京都,千代田区,神田猿楽町１丁目３番４号アルファビル１階,,13,101,1010064,,,,,,,2022-05-16,1,,,,,オカザワショウテン,0
1250,5010001226670,新規,0,2022-05-16,2022-05-16,株式会社半径５０ｍ,,株式会社,東京都,中央区,日本橋浜町３丁目１９－４－９０３,,13,102,1030007,,,,,,,2022-05-16,1,,,,,ハンケイゴジュウメートル,0
1266,5010603009531,新規,0,2022-05-16,2022-05-16,合同会社ＫＡＳＡ,,合同会社,東京都,墨田区,文花１丁目３２番２－１００６号,,13,107,1310044,,,,,,,2022-05-16,1,,,,,カサ,0
1280,5010901050864,新規,0,2022-05-16,2022-05-16,ヴィルモガ株式会社,,株式会社,東京都,世田谷区,世田谷１丁目４１番２号,,13,112,1540017,,,,,,,2022-05-16,1,,,,,ヴィルモガ,0
1281,5010903007375,新規,0,2022-05-16,2022-05-16,ＡＪソーイング合同会社,,合同会社,東京都,世田谷区,駒沢４丁目１０番１８号,,13,112,1540012,,,,,,,2022-05-16,1,,,,,エイジェイソーイング,0
1289,5011001147411,新規,0,2022-05-16,2022-05-16,株式会社ＳＨＩＮＫ,,株式会社,東京都,渋谷区,桜丘町２３－１７シティコート桜丘４０８,,13,113,1500031,,,,,,,2022-05-16,1,,,,,シンク,0
1290,5011001147519,新規,0,2022-05-16,2022-05-16,株式会社Ｏｖｅｒｓｐｉｎ,,株式会社,東京都,渋谷区,代々木１丁目１３番４号代々木ブラウンビル２Ｆ,,13,113,1510053,,,,,,,2022-05-16,1,,,,,オーバースピン,0
1297,5011101098827,新規,0,2022-05-16,2022-05-16,株式会社アイピーコーポレーション,,株式会社,東京都,新宿区,新宿１丁目３番８号,,13,104,1600022,,,,,,,2022-05-16,1,,,,,アイピーコーポレーション,0
1303,5011503005158,新規,0,2022-05-16,2022-05-16,バウムライゼ合同会社,,合同会社,東京都,北区,堀船２丁目９番１２号,,13,117,1140004,,,,,,,2022-05-16,1,,,,,バウムライゼ,0
1318,5020001146505,新規,0,2022-05-16,2022-05-16,ＡＮＴＯＬＥ株式会社,,株式会社,神奈川県,横浜市金沢区,釜利谷西５丁目１５－３０,,14,108,2360046,,,,,,,2022-05-16,1,,,,,アントール,0
1325,5021001075917,新規,0,2022-05-16,2022-05-16,株式会社アンドフェイト,,株式会社,神奈川県,平塚市,東中原１丁目１０番３号,,14,203,2540077,,,,,,,2022-05-16,1,,,,,アンドフェイト,0
1331,5021003011696,新規,0,2022-05-16,2022-05-16,合同会社しんや,,合同会社,神奈川県,秦野市,弥生町６－１３,,14,211,2591311,,,,,,,2022-05-16,1,,,,,シンヤ,0
1336,5030001148021,新規,0,2022-05-16,2022-05-16,Ｂ＆Ｂ　Ｔｅｃｈ．Ｇｒｏｕｐ株式会社,,株式会社,埼玉県,和光市,西大和団地４番１０号１０８,,11,229,3510105,,,,,,,2022-05-16,1,,,,,ビーアンドビーテックグループ,0
1339,5030003019402,新規,0,2022-05-16,2022-05-16,レアフィールド合同会社,,合同会社,埼玉県,入間郡三芳町,大字藤久保５２６番地１,,11,324,3540041,,,,,,,2022-05-16,1,,,,,レアフィールド,0
1348,5040001123428,新規,0,2022-05-16,2022-05-16,株式会社コーケイリサーチ,,株式会社,千葉県,市川市,国府台１丁目９番５号,,12,203,2720827,,,,,,,2022-05-16,1,,,,,コーケイリサーチ,0
1355,5050001051082,新規,0,2022-05-16,2022-05-16,株式会社あかり経営,,株式会社,茨城県,下妻市,下妻乙４１５番地４,,08,210,3040067,,,,,,,2022-05-16,1,,,,,アカリケイエイ,0
1359,5060001034854,新規,0,2022-05-16,2022-05-16,株式会社巴工業,,株式会社,栃木県,下野市,国分寺１４４２番地,,09,216,3290417,,,,,,,2022-05-16,1,,,,,トモエコウギョウ,0
1367,5070001039241,新規,0,2022-05-16,2022-05-16,株式会社Ｍ　Ｑｕａｌｉｔｙ,,株式会社,群馬県,高崎市,箕郷町上芝２４０番地８,,10,202,3703104,,,,,,,2022-05-16,1,,,,,エムクオリティー,0
1371,5080101023284,新規,0,2022-05-16,2022-05-16,株式会社ラーン,,株式会社,静岡県,裾野市,佐野１１８番地の２,,22,220,4101118,,,,,,,2022-05-16,1,,,,,ラーン,0
1372,5080101023292,新規,0,2022-05-16,2022-05-16,株式会社ＰＯＰＯ,,株式会社,静岡県,富士宮市,大久保１１１番地の１,,22,207,4190314,,,,,,,2022-05-16,1,,,,,ピーオーピーオー,0
1397,5120001245825,新規,0,2022-05-16,2022-05-16,株式会社ＨＥＲＯ,,株式会社,大阪府,大阪市北区,池田町１４番１７号ヴィハーラ北天満８０３号室,,27,127,5300033,,,,,,,2022-05-16,1,,,,,ヒーロー,0
1398,5120001245908,新規,0,2022-05-16,2022-05-16,大阪川澤古美術株式会社,,株式会社,大阪府,大阪市中央区,淡路町１丁目５－１０－２０７,,27,128,5410047,,,,,,,2022-05-16,1,,,,,オオサカカワザワコビジュツ,0
1409,5122001035875,新規,0,2022-05-16,2022-05-16,株式会社Ｎ‐Ｔｅｃｈ,,株式会社,大阪府,東大阪市,柏田東町３番２６号,,27,227,5770833,,,,,,,2022-05-16,1,,,,,エヌテック,0
1412,5130003007925,新規,0,2022-05-16,2022-05-16,ｅＸＭＡＲＲＯＮＥ合同会社,,合同会社,京都府,京都市西京区,樫原久保町２６番地１１,,26,111,6158171,,,,,,,2022-05-16,1,,,,,イクスマローネ,0
1417,5140001126008,新規,0,2022-05-16,2022-05-16,株式会社ＹＢ,,株式会社,兵庫県,尼崎市,大庄西町４丁目３番１－２０２号,,28,202,6600077,,,,,,,2022-05-16,1,,,,,ワイビー,0
1418,5140001126016,新規,0,2022-05-16,2022-05-16,株式会社スクリーフ,,株式会社,兵庫県,神戸市兵庫区,下祇園町２４番７号,,28,105,6520015,,,,,,,2022-05-16,1,,,,,スクリーフ,0
1419,5140001126024,新規,0,2022-05-16,2022-05-16,株式会社フォローワーク,,株式会社,兵庫県,神戸市中央区,中山手通１丁目２２－２３藤正ファインクラフト２０３,,28,110,6500004,,,,,,,2022-05-16,1,,,,,フォローワーク,0
1425,5170001017105,新規,0,2022-05-16,2022-05-16,株式会社善明寺薬局,,株式会社,和歌山県,和歌山市,善明寺３０１番地,,30,201,6408471,,,,,,,2022-05-16,1,,,,,ゼンミョウジヤッキョク,0
1437,5180001151282,新規,0,2022-05-16,2022-05-16,株式会社ａｅｔｅｒｎａｌ,,株式会社,愛知県,犬山市,字惣作４１番地３落合第一ビル一階東,,23,215,4840869,,,,,,,2022-05-16,1,,,,,エターナル,0
1438,5180001151316,新規,0,2022-05-16,2022-05-16,ＫＳホールディングス株式会社,,株式会社,愛知県,名古屋市中区,栄２丁目１番２１号,,23,106,4600008,,,,,,,2022-05-16,1,,,,,ケイエスホールディングス,0
1449,5230001019359,新規,0,2022-05-16,2022-05-16,株式会社ＭＯＮＯＮＯＦＵ,,株式会社,富山県,射水市,中央町１４－４ミライズＩＭＩＺＵ　Ｏｆｆｉｃｅ６,,16,211,9340012,,,,,,,2022-05-16,1,,,,,モノノフ,0
1462,5250001019563,新規,0,2022-05-16,2022-05-16,山源工業株式会社,,株式会社,山口県,山口市,秋穂東１０５８番地１１,,35,203,7541101,,,,,,,2022-05-16,1,,,,,ヤマゲンコウギョウ,0
1469,5260003003911,新規,0,2022-05-16,2022-05-16,合同会社ＴＲＭ,,合同会社,岡山県,津山市,小原１０番地１２,,33,203,7080001,,,,,,,2022-05-16,1,,,,,ティーアールエム,0
1477,5290001097457,新規,0,2022-05-16,2022-05-16,株式会社ＬＯＰＥ,,株式会社,福岡県,福岡市中央区,今泉１丁目１７番２２号Ｉ－ＣＵＢＥ５０７号,,40,133,8100021,,,,,,,2022-05-16,1,,,,,ロープ,0
1478,5290001097523,新規,0,2022-05-16,2022-05-16,株式会社萬屋オフィス,,株式会社,福岡県,福岡市中央区,天神１丁目９番１７号福岡天神フコク生命ビル１５階,,40,133,8100001,,,,,,,2022-05-16,1,,,,,ヨロズヤオフィス,0
1479,5290001097548,新規,0,2022-05-16,2022-05-16,株式会社ＤＲＶＦ１号,,株式会社,福岡県,福岡市中央区,大名２丁目４番２２号,,40,133,8100041,,,,,,,2022-05-16,1,,,,,ディーアールブイエフイチゴウ,0
1490,5330001029744,新規,0,2022-05-16,2022-05-16,株式会社グローバルトレーディング,,株式会社,熊本県,熊本市南区,出仲間４丁目２３番１４号,,43,104,8620963,,,,,,,2022-05-16,1,,,,,グローバルトレーディング,0
1495,5360001030402,新規,0,2022-05-16,2022-05-16,ＩＭＡＧＩＮＥ　ＣＲＥＡＴＥ株式会社,,株式会社,沖縄県,国頭郡今帰仁村,字諸志７０５番地１,,47,306,9050426,,,,,,,2022-05-16,1,,,,,イマジンクリエイト,0
1496,5360001030410,新規,0,2022-05-16,2022-05-16,株式会社Ｋ’ｓ　ＰＬＡＮ,,株式会社,沖縄県,沖縄市,高原４丁目１７番１９号,,47,211,9042171,,,,,,,2022-05-16,1,,,,,ケーズプラン,0
1498,5360003012002,新規,0,2022-05-16,2022-05-16,合同会社ＫＵＮＩＹＯＳＨＩ　ＤＯＪＯ,,合同会社,沖縄県,中頭郡読谷村,字波平２５９番地１,,47,324,9040322,,,,,,,2022-05-16,1,,,,,クニヨシドウジョウ,0
1515,5430001086610,新規,0,2022-05-16,2022-05-16,株式会社ショウキ,,株式会社,北海道,札幌市南区,川沿三条３丁目１０番１９号,,01,106,0050803,,,,,,,2022-05-16,1,,,,,ショウキ,0
1516,5430001086627,新規,0,2022-05-16,2022-05-16,株式会社千葉工務店,,株式会社,北海道,札幌市北区,屯田十一条３丁目７番３７号リベルテ３号,,01,102,0020861,,,,,,,2022-05-16,1,,,,,チバコウムテン,0
1517,5430001086635,新規,0,2022-05-16,2022-05-16,株式会社きたまいか,,株式会社,北海道,札幌市西区,西町南２丁目３番１６号エクセレンス西町２０２号室,,01,107,0630062,,,,,,,2022-05-16,1,,,,,キタマイカ,0
1518,5430001086676,新規,0,2022-05-16,2022-05-16,株式会社アンリミテッド,,株式会社,北海道,札幌市豊平区,平岸四条１１丁目８番２１号,,01,105,0620934,,,,,,,2022-05-16,1,,,,,アンリミテッド,0
1519,5430003013892,新規,0,2022-05-16,2022-05-16,合同会社オフィス・元気,,合同会社,北海道,札幌市手稲区,富丘一条４丁目２番２７号,,01,109,0060011,,,,,,,2022-05-16,1,,,,,オフィスゲンキ,0
1520,5430003013901,新規,0,2022-05-16,2022-05-16,合同会社レラガーデン,,合同会社,北海道,札幌市北区,篠路町拓北２３－６,,01,102,0028054,,,,,,,2022-05-16,1,,,,,レラガーデン,0
1533,5700150108749,新規,0,2022-05-16,2022-05-16,ＸＬ　Ｇｒｏｕｐ　Ｐｔｙ　Ｌｔｄ,,外国会社等,大阪府,大阪市福島区,福島５丁目１６番１５号福島宮脇ビル５階,,27,103,5530003,オーストラリアニューサウスウェールズ州、シドニー、ピットストリート７４、３階、スウィート３０５,,,,,,2022-05-16,1,,,,,エクセルグループピーテイーワイエルテイーデイー,0
1545,6010001226653,新規,0,2022-05-16,2022-05-16,ＮＥＷ　ＥＮＥＲＧＹ株式会社,,株式会社,東京都,中央区,新川１丁目２５番９号,,13,102,1040033,,,,,,,2022-05-16,1,,,,,ニューエナジー,0
1550,6010003037685,新規,0,2022-05-16,2022-05-16,合同会社ルーフトップソーラー,,合同会社,東京都,千代田区,九段北３丁目２番４号,,13,101,1020073,,,,,,,2022-05-16,1,,,,,ルーフトップソーラー,0
1551,6010003037693,新規,0,2022-05-16,2022-05-16,合同会社ｓｔａｒｔ　ｎｏｗ,,合同会社,東京都,千代田区,神田猿楽町１丁目３番１号北村ビル２０１号,,13,101,1010064,,,,,,,2022-05-16,1,,,,,スタートナウ,0
1573,6010903007374,新規,0,2022-05-16,2022-05-16,Ｋｉｉｒｏ　Ｄｅｓｉｇｎ合同会社,,合同会社,東京都,世田谷区,世田谷３丁目６番１５号,,13,112,1540017,,,,,,,2022-05-16,1,,,,,キイロデザイン,0
1580,6011001147410,新規,0,2022-05-16,2022-05-16,株式会社Ａ．Ｉ．Ｃ．Ｖ,,株式会社,東京都,渋谷区,恵比寿１丁目１５番９号日宝恵比寿ビル４０３,,13,113,1500013,,,,,,,2022-05-16,1,,,,,アイシブ,0
1581,6011001147427,新規,0,2022-05-16,2022-05-16,ヌマタアンドパートナーズ株式会社,,株式会社,東京都,目黒区,青葉台４丁目４番２０号,,13,110,1530042,,,,,,,2022-05-16,1,,,,,ヌマタアンドパートナーズ,0
1582,6011001147542,新規,0,2022-05-16,2022-05-16,株式会社強電工,,株式会社,東京都,目黒区,青葉台１丁目２３番１４号,,13,110,1530042,,,,,,,2022-05-16,1,,,,,キョウデンコウ,0
1583,6011001147559,新規,0,2022-05-16,2022-05-16,株式会社デンタルテクノロジー,,株式会社,東京都,渋谷区,恵比寿１丁目３２番８号,,13,113,1500013,,,,,,,2022-05-16,1,,,,,デンタルテクノロジー,0
1585,6011003014641,新規,0,2022-05-16,2022-05-16,Ｆｕｔｕｒｅ　Ａｇｅｓ合同会社,,合同会社,東京都,渋谷区,神宮前６丁目２３番４号桑野ビル２階,,13,113,1500001,,,,,,,2022-05-16,1,,,,,フューチャーエイジス,0
1586,6011003014666,新規,0,2022-05-16,2022-05-16,ＥＮＥＮ合同会社,,合同会社,東京都,渋谷区,神宮前６丁目２３番４号桑野ビル２階,,13,113,1500001,,,,,,,2022-05-16,1,,,,,エネン,0
1590,6011101098818,新規,0,2022-05-16,2022-05-16,Ｎｏａｈ＆Ｚｏｅｙ株式会社,,株式会社,東京都,新宿区,西新宿６丁目１０番１日土地西新宿ビル８階,,13,104,1600023,,,,,,,2022-05-16,1,,,,,ノアアンドゾーイ,0
1591,6011101098834,新規,0,2022-05-16,2022-05-16,株式会社ヨシノ商事,,株式会社,東京都,新宿区,西新宿７丁目１番１１号共栄ビル４階,,13,104,1600023,,,,,,,2022-05-16,1,,,,,ヨシノショウジ,0
1603,6011501028036,新規,0,2022-05-16,2022-05-16,ＢＥＮＨＵＩ　ＧＲＯＵＰ株式会社,,株式会社,東京都,北区,浮間１丁目１番１４号リムジンビル３１１,,13,117,1150051,,,,,,,2022-05-16,1,,,,,ベンフイグループ,0
1604,6011701025304,新規,0,2022-05-16,2022-05-16,株式会社Ｋａｐｉｌｉｎａ,,株式会社,東京都,江戸川区,中葛西４丁目１－２３,,13,123,1340083,,,,,,,2022-05-16,1,,,,,カピリナ,0
1609,6012801021572,新規,0,2022-05-16,2022-05-16,株式会社アルファビズネット,,株式会社,東京都,国立市,西２丁目１５番４５号,,13,215,1860005,,,,,,,2022-05-16,1,,,,,アルファビズネット,0
1611,6012802017339,新規,0,2022-05-16,2022-05-16,臼井織物有限会社,,有限会社,東京都,昭島市,緑町５丁目５番２３号,,13,207,1960004,,,,,,,2022-05-16,1,,,,,ウスイオリモノ,0
1618,6020001146479,新規,0,2022-05-16,2022-05-16,株式会社横浜ＢＲＡＶＥ,,株式会社,神奈川県,横浜市鶴見区,生麦４丁目２５番１６－１０１号,,14,101,2300052,,,,,,,2022-05-16,1,,,,,,0
1623,6021001075973,新規,0,2022-05-16,2022-05-16,株式会社ザルームツアー,,株式会社,神奈川県,厚木市,森の里１丁目１０番６号,,14,212,2430122,,,,,,,2022-05-16,1,,,,,ザルームツアー,0
1624,6021003011687,新規,0,2022-05-16,2022-05-16,合同会社未来圏,,合同会社,神奈川県,茅ヶ崎市,浜須賀４番,,14,207,2530035,,,,,,,2022-05-16,1,,,,,ミライケン,0
1625,6021003011695,新規,0,2022-05-16,2022-05-16,ＴＨＥ　ＢＵＮ合同会社,,合同会社,神奈川県,藤沢市,片瀬海岸３丁目２４番２０号,,14,205,2510035,,,,,,,2022-05-16,1,,,,,ザブン,0
1637,6030001148202,新規,0,2022-05-16,2022-05-16,サンヴィレッジホールディングス株式会社,,株式会社,埼玉県,さいたま市大宮区,吉敷町１丁目１３５番地Ａｒａｉビル９階,,11,103,3300843,,,,,,,2022-05-16,1,,,,,サンヴィレッジホールディングス,0
1638,6030001148210,新規,0,2022-05-16,2022-05-16,株式会社サイドスリー,,株式会社,埼玉県,川口市,大字安行領根岸９０５番地２号棟３０１,,11,203,3330834,,,,,,,2022-05-16,1,,,,,サイドスリー,0
1639,6030001148219,新規,0,2022-05-16,2022-05-16,株式会社ローディーリフォーム,,株式会社,埼玉県,入間市,宮寺４１０２－１５６,,11,225,3580014,,,,,,,2022-05-16,1,,,,,ローディーリフォーム,0
1642,6030003019418,新規,0,2022-05-16,2022-05-16,合同会社Ａｃｅ,,合同会社,埼玉県,入間市,大字下藤沢５０７番地１階,,11,225,3580011,,,,,,,2022-05-16,1,,,,,エース,0
1665,6070001039216,新規,0,2022-05-16,2022-05-16,株式会社寿々成,,株式会社,群馬県,沼田市,東原新町１８３６番地４,,10,206,3780053,,,,,,,2022-05-16,1,,,,,スズナリ,0
1670,6080001024935,新規,0,2022-05-16,2022-05-16,株式会社ＯｎｅＯｎｅＮｅｔ,,株式会社,静岡県,静岡市葵区,七間町１７番地の１,,22,101,4200035,,,,,,,2022-05-16,1,,,,,ワンワンネット,0
1676,6090003002087,新規,0,2022-05-16,2022-05-16,合同会社ＺＯＹＬＯＳ,,合同会社,山梨県,中巨摩郡昭和町,河西６３２－１６,,19,384,4093851,,,,,,,2022-05-16,1,,,,,ゾイロス,0
1691,6120001245898,新規,0,2022-05-16,2022-05-16,株式会社ＪＢプロデュース,,株式会社,大阪府,大阪市淀川区,木川西２丁目２番１７号岡寺ビル３０６,,27,123,5320013,,,,,,,2022-05-16,1,,,,,ジェイビープロデュース,0
1692,6120001245907,新規,0,2022-05-16,2022-05-16,ジーアール株式会社,,株式会社,大阪府,大阪市西区,北堀江１丁目２２番２５号,,27,106,5500014,,,,,,,2022-05-16,1,,,,,ジーアール,0
1700,6120901045968,新規,0,2022-05-16,2022-05-16,ｂｂｉｃ株式会社,,株式会社,大阪府,豊中市,熊野町２丁目７番３９号,,27,203,5600014,,,,,,,2022-05-16,1,,,,,ビビック,0
1701,6120903004146,新規,0,2022-05-16,2022-05-16,ブルーバードハウジング合同会社,,合同会社,大阪府,池田市,豊島南２丁目３番１１号,,27,204,5630035,,,,,,,2022-05-16,1,,,,,ブルーバードハウジング,0
1703,6122001035874,新規,0,2022-05-16,2022-05-16,株式会社ビールーム,,株式会社,大阪府,八尾市,西山本町７丁目３番３号,,27,212,5810868,,,,,,,2022-05-16,1,,,,,ビールーム,0
1720,6140001125990,新規,0,2022-05-16,2022-05-16,三好堂株式会社,,株式会社,兵庫県,尼崎市,東難波町４丁目２番２９号,,28,202,6600892,,,,,,,2022-05-16,1,,,,,サンコウドウ,0
1725,6150001025546,新規,0,2022-05-16,2022-05-16,ＮｅＰｔ株式会社,,株式会社,奈良県,生駒市,北大和１丁目１４番地９,,29,209,6300121,,,,,,,2022-05-16,1,,,,,ネプト,0
1727,6150003002683,新規,0,2022-05-16,2022-05-16,ｅｎｔｒａ合同会社,,合同会社,奈良県,生駒郡平群町,椿台２丁目２－３,,29,342,6360943,,,,,,,2022-05-16,1,,,,,エントラ,0
1729,6160001024200,新規,0,2022-05-16,2022-05-16,ＡＳ　ＩＳ株式会社,,株式会社,滋賀県,草津市,大路１丁目４番３３号,,25,206,5250032,,,,,,,2022-05-16,1,,,,,アズイズ,0
1730,6160003002567,新規,0,2022-05-16,2022-05-16,合同会社タグチホームズ,,合同会社,滋賀県,甲賀市,甲賀町大原市場４３番地６,,25,209,5203433,,,,,,,2022-05-16,1,,,,,タグチホームズ,0
1738,6180001151232,新規,0,2022-05-16,2022-05-16,株式会社ＴＥＩＫＵ,,株式会社,愛知県,日進市,岩崎町竹ノ山１４９番地８１４,,23,230,4700131,,,,,,,2022-05-16,1,,,,,テイク,0
1739,6180001151273,新規,0,2022-05-16,2022-05-16,株式会社マイクカンパニー,,株式会社,愛知県,あま市,七宝町下田廻間４７番地,,23,237,4970012,,,,,,,2022-05-16,1,,,,,マイクカンパニー,0
1740,6180001151315,新規,0,2022-05-16,2022-05-16,株式会社ウリト,,株式会社,愛知県,稲沢市,下津北山１丁目１番地エムズシティ稲沢１３０５,,23,220,4928094,,,,,,,2022-05-16,1,,,,,ウリト,0
1741,6180001151331,新規,0,2022-05-16,2022-05-16,株式会社プラス,,株式会社,愛知県,清須市,上条１丁目３番地９,,23,233,4520944,,,,,,,2022-05-16,1,,,,,プラス,0
1757,6200003005565,新規,0,2022-05-16,2022-05-16,合同会社Ａｌｏ,,合同会社,岐阜県,岐阜市,旦島４丁目２番１５号,,21,201,5020926,,,,,,,2022-05-16,1,,,,,アロ,0
1762,6220001024846,新規,0,2022-05-16,2022-05-16,株式会社加賀エネルギー研究所,,株式会社,石川県,加賀市,黒崎町ム５４番地２,,17,206,9220565,,,,,,,2022-05-16,1,,,,,カガエネルギーケンキュウショ,0
1765,6230003001850,新規,0,2022-05-16,2022-05-16,合同会社水乃王國,,合同会社,富山県,中新川郡立山町,宮路４番地１,,16,323,9301367,,,,,,,2022-05-16,1,,,,,ミズノオウコク,0
1768,6240001059782,新規,0,2022-05-16,2022-05-16,株式会社土井サポートサービス,,株式会社,広島県,呉市,海岸４丁目８番１０号,,34,202,7370823,,,,,,,2022-05-16,1,,,,,ドイサポートサービス,0
1771,6240005015393,新規,0,2022-05-16,2022-05-16,行政書士法人福盛事務所,,その他の設立登記法人,広島県,広島市西区,南観音７丁目１３番２４号,,34,104,7330035,,,,,,,2022-05-16,1,,,,,フクモリジムショ,0
1774,6250001019562,新規,0,2022-05-16,2022-05-16,株式会社小野田興産,,株式会社,山口県,山陽小野田市,大字高畑１０２７６番地２,,35,216,7560021,,,,,,,2022-05-16,1,,,,,オノダコウサン,0
1783,6290001097514,新規,0,2022-05-16,2022-05-16,株式会社空永,,株式会社,福岡県,福岡市博多区,東那珂２丁目１４番３３号,,40,132,8120892,,,,,,,2022-05-16,1,,,,,クウエイ,0
1784,6290001097530,新規,0,2022-05-16,2022-05-16,株式会社リバティエステート,,株式会社,福岡県,福岡市東区,香椎２丁目２３番１－６０３号,,40,131,8130011,,,,,,,2022-05-16,1,,,,,リバティエステート,0
1785,6290001097547,新規,0,2022-05-16,2022-05-16,株式会社ヴィーナス,,株式会社,福岡県,福岡市博多区,中洲２丁目５番２０号,,40,132,8100801,,,,,,,2022-05-16,1,,,,,ヴィーナス,0
1787,6290003012487,新規,0,2022-05-16,2022-05-16,フラットカージャパン合同会社,,合同会社,福岡県,朝倉市,入地８５番１号,,40,228,8381315,,,,,,,2022-05-16,1,,,,,フラットカージャパン,0
1788,6290003012495,新規,0,2022-05-16,2022-05-16,合同会社ｉｋｉ　ｉｋｉ　ｓａｌｏｎスズラン,,合同会社,福岡県,太宰府市,高雄６丁目１番１６号,,40,221,8180122,,,,,,,2022-05-16,1,,,,,イキイキサロンスズラン,0
1790,6290801028528,新規,0,2022-05-16,2022-05-16,株式会社ｊＡＢＢＫＬＡＢ,,株式会社,福岡県,遠賀郡水巻町,古賀１丁目６番７号,,40,382,8070012,,,,,,,2022-05-16,1,,,,,ジャブクラブ,0
1804,6330005010518,新規,0,2022-05-16,2022-05-16,一般社団法人水俣・写真家の眼,,その他の設立登記法人,熊本県,水俣市,明神町１番１４号,,43,205,8670055,,,,,,,2022-05-16,1,,,,,ミナマタシャシンカノメ,0
1805,6340001024727,新規,0,2022-05-16,2022-05-16,野口不動産グループ株式会社,,株式会社,鹿児島県,鹿児島市,大黒町２－１３だるま屋ビル２Ｆ,,46,201,8920825,,,,,,,2022-05-16,1,,,,,ノグチフドウサングループ,0
1806,6340003003778,新規,0,2022-05-16,2022-05-16,合同会社前田,,合同会社,鹿児島県,大島郡知名町,大字瀬利覚２１１８番地６,,46,534,8919213,,,,,,,2022-05-16,1,,,,,マエダ,0
1808,6360003012001,新規,0,2022-05-16,2022-05-16,合同会社善進組,,合同会社,沖縄県,島尻郡北大東村,字港３３番地,,47,358,9013903,,,,,,,2022-05-16,1,,,,,ゼンシングミ,0
1828,6430001086626,新規,0,2022-05-16,2022-05-16,株式会社藤孝,,株式会社,北海道,札幌市北区,新川西二条２丁目１０番８号,,01,102,0010932,,,,,,,2022-05-16,1,,,,,,0
1830,6440003001458,新規,0,2022-05-16,2022-05-16,合同会社クドーペイントラボ,,合同会社,北海道,函館市,陣川町１０２番地３９,,01,202,0410833,,,,,,,2022-05-16,1,,,,,クドーペイントラボ,0
1837,6490001010175,新規,0,2022-05-16,2022-05-16,株式会社ＧＬ　ｗｏｒｋｓ,,株式会社,高知県,南国市,大＿甲１５７１番地４９,00126570,39,204,7830004,,,,,,,2022-05-16,1,,,,,ジーエルワークス,0
1842,6700150108665,新規,0,2022-05-16,2022-05-12,大の会,,その他,大阪府,大阪市中央区,伏見町２丁目２－６青山ビル２０８,,27,128,5410044,,,,,,,2022-05-12,1,,,,,ダイノカイ,0
1862,7010101015179,新規,0,2022-05-16,2022-05-16,株式会社ふたばと,,株式会社,東京都,八王子市,打越町１４７７番地,,13,201,1920911,,,,,,,2022-05-16,1,,,,,フタバト,0
1863,7010103001904,新規,0,2022-05-16,2022-05-16,ＨＡＳＥ合同会社,,合同会社,東京都,八王子市,中野上町４丁目４４番１６号,,13,201,1920041,,,,,,,2022-05-16,1,,,,,ハセ,0
1881,7010401167075,新規,0,2022-05-16,2022-05-16,株式会社Ｃｒｏｗｅ　ＡＫＨ,,株式会社,東京都,港区,浜松町２丁目２番１５号浜松町ダイヤビル２Ｆ,,13,103,1050013,,,,,,,2022-05-16,1,,,,,クローエーケーエイチ,0
1882,7010401167249,新規,0,2022-05-16,2022-05-16,株式会社トリグ,,株式会社,東京都,港区,南青山２丁目２番１５号,,13,103,1070062,,,,,,,2022-05-16,1,,,,,トリグ,0
1888,7010601061160,新規,0,2022-05-16,2022-05-16,エスケイ商事株式会社,,株式会社,東京都,墨田区,両国２丁目１７番１１号,,13,107,1300026,,,,,,,2022-05-16,1,,,,,エスケイショウジ,0
1899,7010903007357,新規,0,2022-05-16,2022-05-16,シュウセイ合同会社,,合同会社,東京都,世田谷区,世田谷１丁目４１番２号,,13,112,1540017,,,,,,,2022-05-16,1,,,,,シュウセイ,0
1905,7011001147426,新規,0,2022-05-16,2022-05-16,株式会社ふくし合格ネット,,株式会社,東京都,渋谷区,円山町５番５号Ｎａｖｉ渋谷Ｖ３階,,13,113,1500044,,,,,,,2022-05-16,1,,,,,フクシゴウカクネット,0
1907,7011003014681,新規,0,2022-05-16,2022-05-16,合同会社ｋｏｅ,,合同会社,東京都,渋谷区,代々木３丁目４６番１５号Ｓ－ＯＮＥビル５０１,,13,113,1510053,,,,,,,2022-05-16,1,,,,,コエ,0
1910,7011101098817,新規,0,2022-05-16,2022-05-16,ＴＲＩ株式会社,,株式会社,東京都,新宿区,上落合１丁目１番１５号,,13,104,1610034,,,,,,,2022-05-16,1,,,,,ティアールアイ,0
1911,7011101098841,新規,0,2022-05-16,2022-05-16,株式会社ＳＥＫＩ,,株式会社,東京都,新宿区,歌舞伎町２丁目９番１５号歌舞伎町ダイヤモンドパレス２０３,,13,104,1600021,,,,,,,2022-05-16,1,,,,,セキ,0
1915,7011503005156,新規,0,2022-05-16,2022-05-16,合同会社ＮＨＵ　Ｙ,,合同会社,東京都,北区,豊島１丁目８番８号１階,,13,117,1140003,,,,,,,2022-05-16,1,,,,,ヌイ,0
1919,7011801040714,新規,0,2022-05-16,2022-05-16,株式会社ＧＯ,,株式会社,東京都,足立区,綾瀬１丁目２７番６号,,13,121,1200005,,,,,,,2022-05-16,1,,,,,ゴー,0
1925,7013303006152,新規,0,2022-05-16,2022-05-16,都市基盤交通警備保障合同会社,,合同会社,東京都,豊島区,池袋２丁目５７番６号ＭＣオフィス池袋西口ビル２０９号室,,13,116,1710014,,,,,,,2022-05-16,1,,,,,トシキバンコウツウケイビホショウ,0
1932,7021001075980,新規,0,2022-05-16,2022-05-16,株式会社Ｎ‐ＴＲＵＳＴ,,株式会社,神奈川県,綾瀬市,小園３番地９,,14,218,2521121,,,,,,,2022-05-16,1,,,,,エヌトラスト,0
1935,7021003011686,新規,0,2022-05-16,2022-05-16,Ｒ．Ｒ．ＥＮＴＥＲＰＲＩＳＥＳ合同会社,,合同会社,神奈川県,座間市,入谷西４丁目３番２３号,,14,216,2520029,,,,,,,2022-05-16,1,,,,,アールアールエンタープライセス,0
1943,7030001148218,新規,0,2022-05-16,2022-05-16,株式会社ＫＵＲＥＳＴ,,株式会社,埼玉県,志木市,上宗岡４丁目１４番１８号,,11,228,3530001,,,,,,,2022-05-16,1,,,,,クレスト,0
1944,7030001148234,新規,0,2022-05-16,2022-05-16,株式会社ｍｉｃｈｉ,,株式会社,埼玉県,北足立郡伊奈町,中央３丁目２４２番地リビングタウン伊奈中央Ｂ１０１,,11,301,3620809,,,,,,,2022-05-16,1,,,,,ミチ,0
1945,7030001148242,新規,0,2022-05-16,2022-05-16,株式会社平塚建創,,株式会社,埼玉県,川口市,大字東内野３９４－４,,11,203,3330821,,,,,,,2022-05-16,1,,,,,ヒラツカケンソウ,0
1949,7040001123418,新規,0,2022-05-16,2022-05-16,株式会社都留緑化,,株式会社,千葉県,旭市,三川４４８１番地シーベルＡ棟,,12,215,2892714,,,,,,,2022-05-16,1,,,,,ツルリョッカ,0
1950,7040001123426,新規,0,2022-05-16,2022-05-16,株式会社ＤＯ,,株式会社,千葉県,千葉市花見川区,幕張町５丁目４１７番地１７エステ・シティ海浜幕張１－１３０１号,,12,102,2620032,,,,,,,2022-05-16,1,,,,,ドゥ,0
1959,7050001051080,新規,0,2022-05-16,2022-05-16,株式会社膳福源,,株式会社,茨城県,猿島郡境町,大字上小橋２２１番地６,,08,546,3060434,,,,,,,2022-05-16,1,,,,,ゼンフクゲン,0
1962,7060001034860,新規,0,2022-05-16,2022-05-16,ＭｘＴ株式会社,,株式会社,栃木県,宇都宮市,豊郷台２丁目４４番１３号,,09,201,3200003,,,,,,,2022-05-16,1,,,,,エムクロスティー,0
1963,7060003004069,新規,0,2022-05-16,2022-05-16,ｕｓｅｆｕｌほしの合同会社,,合同会社,栃木県,日光市,瀬尾８８１番地５,,09,206,3211264,,,,,,,2022-05-16,1,,,,,ユースフルホシノ,0
1964,7060005009982,新規,0,2022-05-16,2022-05-16,一般社団法人ＹＡＭＡ　ＡＳＯＢＩ,,その他の設立登記法人,栃木県,日光市,木和田島２９８８番地１６,,09,206,3212345,,,,,,,2022-05-16,1,,,,,ヤマアソビ,0
1977,7080403004534,新規,0,2022-05-16,2022-05-16,合同会社ＬｉｆｅＤｅｓｉｇｎＬａｂ．,,合同会社,静岡県,掛川市,上西郷１８４５番地の７９,,22,213,4360342,,,,,,,2022-05-16,1,,,,,ライフデザインラボ,0
1997,7120001245807,新規,0,2022-05-16,2022-05-16,株式会社Ｍ．Ｉ．Ｍ　ＭａｄｅＩｎＭａｒｋｅｔ,,株式会社,大阪府,大阪市西区,新町１丁目１４番３９号三恵ビル６０３号室,,27,106,5500013,,,,,,,2022-05-16,1,,,,,エムアイエムメイドインマーケット,0
1998,7120001245848,新規,0,2022-05-16,2022-05-16,株式会社エム・エー・オー,,株式会社,大阪府,大阪市中央区,博労町１丁目５番８号,,27,128,5410059,,,,,,,2022-05-16,1,,,,,エムエーオー,0
1999,7120001245872,新規,0,2022-05-16,2022-05-16,株式会社レムトリーライフ,,株式会社,大阪府,大阪市淀川区,十三東４丁目２番１５号,,27,123,5320023,,,,,,,2022-05-16,1,,,,,レムトリーライフ,0
2000,7120001245880,新規,0,2022-05-16,2022-05-16,株式会社セントライズ,,株式会社,大阪府,大阪市西区,江之子島１丁目７番３－１４０５号,,27,106,5500006,,,,,,,2022-05-16,1,,,,,セントライズ,0
2001,7120001245889,新規,0,2022-05-16,2022-05-16,株式会社ブライトホーム,,株式会社,大阪府,大阪市生野区,小路東４丁目１４番９号,,27,116,5440003,,,,,,,2022-05-16,1,,,,,ブライトホーム,0
2003,7120003021677,新規,0,2022-05-16,2022-05-16,Ｂｅｂｏｐ合同会社,,合同会社,大阪府,大阪市此花区,梅香１丁目１９番１２号ボンジュール梅香３０３号室,,27,104,5540013,,,,,,,2022-05-16,1,,,,,ビーボップ,0
2007,7120901045967,新規,0,2022-05-16,2022-05-16,株式会社ＴＲＡＣＥ‐ＣＡＲＥＥＲ,,株式会社,大阪府,吹田市,内本町１丁目１８番３０－１０３号,,27,205,5640032,,,,,,,2022-05-16,1,,,,,トレースキャリア,0
2018,7130001071780,新規,0,2022-05-16,2022-05-16,株式会社京都丹波友ファーム,,株式会社,京都府,亀岡市,篠町広田２丁目１２番１号,,26,206,6210834,,,,,,,2022-05-16,1,,,,,キョウトタンバユウファーム,0
2026,7140001125998,新規,0,2022-05-16,2022-05-16,株式会社エビス,,株式会社,兵庫県,神戸市中央区,元町通４丁目６番１１号シーコムビル２階,,28,110,6500022,,,,,,,2022-05-16,1,,,,,エビス,0
2027,7140001126006,新規,0,2022-05-16,2022-05-16,株式会社ＡＺＵ,,株式会社,兵庫県,神戸市長田区,上池田１丁目７番８号,,28,106,6530827,,,,,,,2022-05-16,1,,,,,アズ,0
2028,7140001126014,新規,0,2022-05-16,2022-05-16,酒谷工業株式会社,,株式会社,兵庫県,姫路市,網干区新在家２６４番地５５,,28,201,6711234,,,,,,,2022-05-16,1,,,,,サカタニコウギョウ,0
2033,7140003017673,新規,0,2022-05-16,2022-05-16,合同会社ＡＳＭＧ,,合同会社,兵庫県,神戸市北区,緑町５丁目１１－１０オーナーズマンション４０２,,28,109,6511221,,,,,,,2022-05-16,1,,,,,エーエスエムジー,0
2034,7140003017681,新規,0,2022-05-16,2022-05-16,こまち技術研究開発合同会社,,合同会社,兵庫県,尼崎市,金楽寺町１丁目５番１－１０４号,,28,202,6600806,,,,,,,2022-05-16,1,,,,,コマチギジュツケンキュウカイハツ,0
2036,7150001025545,新規,0,2022-05-16,2022-05-16,株式会社三寿ゴム商会,,株式会社,奈良県,御所市,１４７１番地,,29,208,6392200,,,,,,,2022-05-16,1,,,,,サントシゴムショウカイ,0
2039,7160001024199,新規,0,2022-05-16,2022-05-16,株式会社Ｋｗｏｒｋｓ,,株式会社,滋賀県,長浜市,新庄寺町３１７番地２２,,25,203,5260013,,,,,,,2022-05-16,1,,,,,ケーワークス,0
2048,7180001151314,新規,0,2022-05-16,2022-05-16,Ａｍａｉｎ　Ａｉｄ株式会社,,株式会社,愛知県,名古屋市中川区,中郷５丁目１３２番地,,23,110,4540921,,,,,,,2022-05-16,1,,,,,アメインエイド,0
2056,7180003023825,新規,0,2022-05-16,2022-05-16,合同会社ｓｉｒｉｕｓ,,合同会社,愛知県,名古屋市中川区,万場１丁目１１０５番ラビデンス岩塚西１３０２号,00126566,23,110,4540997,,,,,,,2022-05-16,1,,,,,シリウス,0
2061,7180305009340,新規,0,2022-05-16,2022-05-16,一般社団法人マイクロチップ東海,,その他の設立登記法人,愛知県,豊田市,司町３丁目２－１,,23,211,4710831,,,,,,,2022-05-16,1,,,,,マイクロチップトウカイ,0
2066,7220001024845,新規,0,2022-05-16,2022-05-16,株式会社Ｋ‐ＦＲＡＭＥ,,株式会社,石川県,野々市市,徳用３丁目８５番地,,17,212,9218842,,,,,,,2022-05-16,1,,,,,ケーフレーム,0
2068,7230001019357,新規,0,2022-05-16,2022-05-16,株式会社Ｅｔｅｒｎａｌ　Ｎｅｔ,,株式会社,富山県,富山市,堀川小泉町７９７番地１北野ハイツ３０６号,,16,201,9398081,,,,,,,2022-05-16,1,,,,,エターナルネット,0
2079,7250001019545,新規,0,2022-05-16,2022-05-16,ファーストテック株式会社,,株式会社,山口県,下関市,吉見新町１丁目２番１６号,,35,201,7596532,,,,,,,2022-05-16,1,,,,,ファーストテック,0
2086,7290001097521,新規,0,2022-05-16,2022-05-16,株式会社アイク,,株式会社,福岡県,久留米市,東櫛原町４４４番地,,40,203,8300003,,,,,,,2022-05-16,1,,,,,アイク,0
2087,7290001097546,新規,0,2022-05-16,2022-05-16,株式会社ＳＡＩ,,株式会社,福岡県,福岡市南区,平和１丁目２３－４３ライオンズマンション平和ガーデン,,40,134,8150071,,,,,,,2022-05-16,1,,,,,サイ,0
2088,7290003012486,新規,0,2022-05-16,2022-05-16,合同会社メイセイ,,合同会社,福岡県,久留米市,江戸屋敷２丁目２４番１１号,,40,203,8300059,,,,,,,2022-05-16,1,,,,,メイセイ,0
2094,7290801028535,新規,0,2022-05-16,2022-05-16,彩唯技研ホールディングス株式会社,,株式会社,福岡県,遠賀郡岡垣町,大字手野７９７番地,,40,383,8114204,,,,,,,2022-05-16,1,,,,,サイユイギケンホールディングス,0
2111,7360003012025,新規,0,2022-05-16,2022-05-16,ストリングデリバリーサービス合同会社,,合同会社,沖縄県,那覇市,上間１丁目２８番１５号,,47,201,9020073,,,,,,,2022-05-16,1,,,,,ストリングデリバリーサービス,0
2117,7370003005696,新規,0,2022-05-16,2022-05-16,合同会社ＹＭＣ,,合同会社,宮城県,栗原市,高清水松原１８番地３,,04,213,9872172,,,,,,,2022-05-16,1,,,,,ワイエムシー,0
2135,7430001086559,新規,0,2022-05-16,2022-05-16,ヴィンテージショップジャパン株式会社,,株式会社,北海道,札幌市西区,平和三条１０丁目４番１０号,,01,107,0630023,,,,,,,2022-05-16,1,,,,,ヴィンテージショップジャパン,0
2136,7430001086600,新規,0,2022-05-16,2022-05-16,株式会社鳳和総建,,株式会社,北海道,室蘭市,御前水町１丁目２２番２号,,01,205,0510002,,,,,,,2022-05-16,1,,,,,ホウワソウケン,0
2137,7430001086609,新規,0,2022-05-16,2022-05-16,株式会社ベジット,,株式会社,北海道,札幌市北区,新川西五条４丁目５番１６号,,01,102,0010935,,,,,,,2022-05-16,1,,,,,ベジット,0
2138,7430001086617,新規,0,2022-05-16,2022-05-16,金曜日株式会社,,株式会社,北海道,札幌市中央区,旭ケ丘４丁目２番１８号,,01,101,0640941,,,,,,,2022-05-16,1,,,,,キンヨウビ,0
2144,7430003013882,新規,0,2022-05-16,2022-05-16,アーヴァンエコポート合同会社,,合同会社,北海道,札幌市東区,北二十五条東２１丁目４番１０号,,01,103,0650025,,,,,,,2022-05-16,1,,,,,アーヴァンエコポート,0
2145,7430003013890,新規,0,2022-05-16,2022-05-16,合同会社マルイ長谷川漁業,,合同会社,北海道,古平郡古平町,大字丸山町３１番地,,01,406,0460102,,,,,,,2022-05-16,1,,,,,マルイハセガワギョギョウ,0
2157,7700150108689,新規,0,2022-05-16,2022-05-12,ウインクスミュージック,,その他,東京都,杉並区,高井戸西１丁目２５－１,,13,115,1680071,,,,,,,2022-05-12,1,,,,,ウインクスミユージツク,0
2165,8010001226635,新規,0,2022-05-16,2022-05-16,ＭＥＣぴあクリエイティブ株式会社,,株式会社,東京都,千代田区,大手町１丁目１番１号,,13,101,1000004,,,,,,,2022-05-16,1,,,,,メックピアクリエイティブ,0
2172,8010003037683,新規,0,2022-05-16,2022-05-16,百石合同会社,,合同会社,東京都,中央区,京橋１丁目４番１１－５０２号,,13,102,1040031,,,,,,,2022-05-16,1,,,,,モモイシ,0
2190,8010401167297,新規,0,2022-05-16,2022-05-16,株式会社倫道,,株式会社,東京都,港区,東新橋１丁目３番１０号プラスゲート汐留ビル１Ｆ,,13,103,1050021,,,,,,,2022-05-16,1,,,,,リンドウ,0
2193,8010403027656,新規,0,2022-05-16,2022-05-16,ｔ＆ｔ合同会社,,合同会社,東京都,港区,南青山２丁目２番１５号,,13,103,1070062,,,,,,,2022-05-16,1,,,,,ティーアンドティー,0
2197,8010701042662,新規,0,2022-05-16,2022-05-16,株式会社エンタープロジェクト,,株式会社,東京都,品川区,南品川２丁目１４番１５－２０１号,,13,109,1400004,,,,,,,2022-05-16,1,,,,,エンタープロジェクト,0
2200,8010901050853,新規,0,2022-05-16,2022-05-16,株式会社ポケットツール,,株式会社,東京都,世田谷区,玉川３丁目２０番２号マノア玉川第３ビル５０１号室,,13,112,1580094,,,,,,,2022-05-16,1,,,,,ポケットツール,0
2201,8010901050861,新規,0,2022-05-16,2022-05-16,株式会社アオゾラと海,,株式会社,東京都,世田谷区,池尻３丁目３番７号,,13,112,1540001,,,,,,,2022-05-16,1,,,,,アオゾラトウミ,0
2205,8011001147425,新規,0,2022-05-16,2022-05-16,株式会社Ｅｔａｎｄｕ,,株式会社,東京都,渋谷区,渋谷３丁目６番４号８０４,,13,113,1500002,,,,,,,2022-05-16,1,,,,,エタンデュ,0
2206,8011001147441,新規,0,2022-05-16,2022-05-16,デンタルＨＲ総研株式会社,,株式会社,東京都,渋谷区,神宮前６丁目２３番４号桑野ビル２階,,13,113,1500001,,,,,,,2022-05-16,1,,,,,デンタルエイチアールソウケン,0
2207,8011001147557,新規,0,2022-05-16,2022-05-16,株式会社Ｌｅ　Ｌｉｅｎ,,株式会社,東京都,渋谷区,代々木４丁目３５番９号ドゥーエ代々木５０５,,13,113,1510053,,,,,,,2022-05-16,1,,,,,ルリアン,0
2209,8011003014648,新規,0,2022-05-16,2022-05-16,ぼーるだー合同会社,,合同会社,東京都,渋谷区,道玄坂１丁目１０番８号渋谷道玄坂東急ビル２Ｆ－Ｃ,,13,113,1500043,,,,,,,2022-05-16,1,,,,,,0
2211,8011101098733,新規,0,2022-05-16,2022-05-16,株式会社ライフアシスト,,株式会社,東京都,新宿区,西新宿３丁目３番１３号,,13,104,1600023,,,,,,,2022-05-16,1,,,,,ライフアシスト,0
2212,8011101098849,新規,0,2022-05-16,2022-05-16,株式会社ＭｏｎｔａｇｅＯｒａｎｇｅ,,株式会社,東京都,新宿区,新宿１丁目３６番２号新宿第七葉山ビル３階,,13,104,1600022,,,,,,,2022-05-16,1,,,,,モンタージュオレンジ,0
2223,8011303004407,新規,0,2022-05-16,2022-05-16,合同会社オフィスＴＲＹ,,合同会社,東京都,杉並区,上井草２丁目４３－１８上井草松原マンション３０２,,13,115,1670023,,,,,,,2022-05-16,1,,,,,オフィスティーアールワイ,0
2234,8012801021579,新規,0,2022-05-16,2022-05-16,株式会社タカムラ,,株式会社,東京都,立川市,幸町４丁目５０番地の３７号,,13,202,1900002,,,,,,,2022-05-16,1,,,,,タカムラ,0
2244,8020001146519,新規,0,2022-05-16,2022-05-16,株式会社ＭＴトレーディング,,株式会社,神奈川県,横浜市戸塚区,下倉田町１８番地１ブロードスクエア戸塚４０８号,,14,110,2440815,,,,,,,2022-05-16,1,,,,,エムティートレーディング,0
2249,8021001075955,新規,0,2022-05-16,2022-05-16,株式会社ＴＡＣ,,株式会社,神奈川県,相模原市中央区,矢部４丁目９番６号,,14,152,2520232,,,,,,,2022-05-16,1,,,,,タック,0
2250,8021001075963,新規,0,2022-05-16,2022-05-16,株式会社熊井,,株式会社,神奈川県,綾瀬市,吉岡東３丁目４番１９号,,14,218,2521125,,,,,,,2022-05-16,1,,,,,クマイ,0
2251,8021005012525,新規,0,2022-05-16,2022-05-16,医療法人社団桜進会,,その他の設立登記法人,神奈川県,相模原市南区,東林間５丁目６番地１１,,14,153,2520311,,,,,,,2022-05-16,1,,,,,オウシンカイ,0
2261,8030001148191,新規,0,2022-05-16,2022-05-16,吉盛建設株式会社,,株式会社,埼玉県,川口市,青木３丁目２２番１２－３０３号,,11,203,3320031,,,,,,,2022-05-16,1,,,,,ヨシモリケンセツ,0
2262,8030001148217,新規,0,2022-05-16,2022-05-16,株式会社ミライフクリエイションズ,,株式会社,埼玉県,上尾市,原新町２２番２号,,11,219,3620016,,,,,,,2022-05-16,1,,,,,ミライフクリエイションズ,0
2263,8030001148233,新規,0,2022-05-16,2022-05-16,ＳＰＯＲＴＬＩＧＨＴ株式会社,,株式会社,埼玉県,さいたま市大宮区,下町３丁目４７番２号,,11,103,3300844,,,,,,,2022-05-16,1,,,,,スポーツライト,0
2267,8030003019408,新規,0,2022-05-16,2022-05-16,ＭＩＲＡＩ合同会社,,合同会社,埼玉県,さいたま市大宮区,桜木町２丁目４４６番地８０５号,,11,103,3300854,,,,,,,2022-05-16,1,,,,,ミライ,0
2268,8030003019416,新規,0,2022-05-16,2022-05-16,合同会社Ｔａｒｅｍｅ,,合同会社,埼玉県,ふじみ野市,上福岡５丁目５番２８号１,,11,245,3560004,,,,,,,2022-05-16,1,,,,,タレメ,0
2283,8050001051047,新規,0,2022-05-16,2022-05-16,愛サク株式会社,,株式会社,茨城県,龍ケ崎市,長山６丁目１２番地１５,,08,208,3010042,,,,,,,2022-05-16,1,,,,,アイサク,0
2292,8070001039239,新規,0,2022-05-16,2022-05-16,富成産業株式会社,,株式会社,群馬県,桐生市,広沢町４丁目１９７０番地の２３８,,10,203,3760013,,,,,,,2022-05-16,1,,,,,トミナリサンギョウ,0
2296,8080001024941,新規,0,2022-05-16,2022-05-16,株式会社はやと建材,,株式会社,静岡県,焼津市,東小川７丁目１６－７ドリームポット１０３号,,22,212,4250035,,,,,,,2022-05-16,1,,,,,ハヤトケンザイ,0
2308,8120001245764,新規,0,2022-05-16,2022-05-16,アンドロメダ製薬株式会社,,株式会社,大阪府,大阪市北区,梅田１丁目１－３大阪駅前第３ビル２９階１－１－１号室,,27,127,5300001,,,,,,,2022-05-16,1,,,,,アンドロメダセイヤク,0
2311,8120003021676,新規,0,2022-05-16,2022-05-16,合同会社ＭＥＳＡＲＩ,,合同会社,大阪府,大阪市北区,梅田１丁目１－３大阪駅前第３ビル２９階１－１－１号室,,27,127,5300001,,,,,,,2022-05-16,1,,,,,ムサリ,0
2312,8120101065575,新規,0,2022-05-16,2022-05-16,株式会社アンビ,,株式会社,大阪府,堺市西区,北条町１丁５番１６号ＫＧビル２－Ｂ,,27,144,5938302,,,,,,,2022-05-16,1,,,,,アンビ,0
2324,8130005016475,新規,0,2022-05-16,2022-05-16,税理士法人洛楽,,その他の設立登記法人,京都府,京都市東山区,五条橋東２丁目１８番地１五建ビル４階,,26,105,6050846,,,,,,,2022-05-16,1,,,,,ラクラク,0
2332,8140001125881,新規,0,2022-05-16,2022-05-16,株式会社鶴川,,株式会社,兵庫県,芦屋市,山手町２０番１７号,,28,206,6590096,,,,,,,2022-05-16,1,,,,,ツルカワ,0
2333,8140001125997,新規,0,2022-05-16,2022-05-16,株式会社Ｎｉｃｏｗａ,,株式会社,兵庫県,神戸市中央区,元町通５丁目１番２２号,,28,110,6500022,,,,,,,2022-05-16,1,,,,,ニコワ,0
2334,8140001126005,新規,0,2022-05-16,2022-05-16,アポロ株式会社,,株式会社,兵庫県,神戸市北区,北五葉４丁目８番１８号,,28,109,6511131,,,,,,,2022-05-16,1,,,,,アポロ,0
2335,8140001126013,新規,0,2022-05-16,2022-05-16,株式会社ａｏ．,,株式会社,兵庫県,三木市,緑が丘町西１丁目１１番地の４,,28,215,6730531,,,,,,,2022-05-16,1,,,,,アオ,0
2341,8150003002681,新規,0,2022-05-16,2022-05-16,合同会社Ｍ’ｓクリエイト,,合同会社,奈良県,桜井市,大字外山１６９２番地ピースハウスＩＩ－１０１号室,00126565,29,206,6330007,,,,,,,2022-05-16,1,,,,,エムズクリエイト,0
2343,8160001024198,新規,0,2022-05-16,2022-05-16,尾ノ上建設株式会社,,株式会社,滋賀県,甲賀市,甲南町新治１６６番地,,25,209,5203313,,,,,,,2022-05-16,1,,,,,オノウエケンセツ,0
2348,8180001049276,新規,0,2022-05-16,2022-05-16,株式会社昭和ホーム,,株式会社,愛知県,名古屋市千種区,春岡１丁目３１番１３号,,23,101,4640848,,,,,,,2022-05-16,1,,,,,ショウワホーム,0
2354,8180001151239,新規,0,2022-05-16,2022-05-16,ＳＨｉＫｉクリエイター株式会社,,株式会社,愛知県,名古屋市千種区,桜が丘６７番地,,23,101,4640025,,,,,,,2022-05-16,1,,,,,シキクリエイター,0
2355,8180001151296,新規,0,2022-05-16,2022-05-16,株式会社ＬＩＶ,,株式会社,愛知県,名古屋市中区,丸の内３丁目６番１１号レインボー丸の内ビル７０３,,23,106,4600002,,,,,,,2022-05-16,1,,,,,リブ,0
2356,8180001151305,新規,0,2022-05-16,2022-05-16,株式会社ＫＡＩ　ＣＯＲＰＯＲＡＴＩＯＮ,,株式会社,愛知県,名古屋市東区,葵３丁目２４番７号グランドメゾン千種３０１号,,23,102,4610004,,,,,,,2022-05-16,1,,,,,カイコーポレーション,0
2360,8180003023832,新規,0,2022-05-16,2022-05-16,ＤＴＳ合同会社,,合同会社,愛知県,海部郡蟹江町,学戸１丁目２５３,,23,425,4970050,,,,,,,2022-05-16,1,,,,,ディーティーエス,0
2383,8250001019560,新規,0,2022-05-16,2022-05-16,株式会社平田設備,,株式会社,山口県,岩国市,玖珂町４７６７番地３,,35,208,7420344,,,,,,,2022-05-16,1,,,,,ヒラタセツビ,0
2389,8290001097529,新規,0,2022-05-16,2022-05-16,株式会社ＳＯＵ,,株式会社,福岡県,福岡市博多区,御供所町１３番６１８号,,40,132,8120037,,,,,,,2022-05-16,1,,,,,エスオーユー,0
2390,8290001097537,新規,0,2022-05-16,2022-05-16,株式会社インテグラーレ,,株式会社,福岡県,福岡市中央区,大濠２丁目３番２号,,40,133,8100052,,,,,,,2022-05-16,1,,,,,インテグラーレ,0
2397,8300001012931,新規,0,2022-05-16,2022-05-16,九州バイオガスエネルギー株式会社,,株式会社,佐賀県,神埼郡吉野ヶ里町,吉田２４６９番地１,,41,327,8420031,,,,,,,2022-05-16,1,,,,,キュウシュウバイオガスエネルギー,0
2399,8300005007077,新規,0,2022-05-16,2022-05-16,特定非営利活動法人さくらさく会,,その他の設立登記法人,佐賀県,佐賀市,久保泉町大字川久保３７１３番地,,41,201,8490901,,,,,,,2022-05-16,1,,,,,サクラサクカイ,0
2423,8360001030374,新規,0,2022-05-16,2022-05-16,株式会社スプレッドワークス沖縄,,株式会社,沖縄県,浦添市,内間４丁目５番３５号,,47,208,9012121,,,,,,,2022-05-16,1,,,,,スプレッドワークスオキナワ,0
2424,8360001030399,新規,0,2022-05-16,2022-05-16,株式会社三協商会,,株式会社,沖縄県,島尻郡与那原町,字板良敷１番地,,47,348,9011301,,,,,,,2022-05-16,1,,,,,サンキョウショウカイ,0
2428,8360003012008,新規,0,2022-05-16,2022-05-16,合同会社ＭＯＲＥ,,合同会社,沖縄県,那覇市,牧志２丁目１１番２７号,,47,201,9000013,,,,,,,2022-05-16,1,,,,,モア,0
2442,8390001016890,新規,0,2022-05-16,2022-05-16,株式会社かなで,,株式会社,山形県,山形市,上桜田４丁目７番３号,,06,201,9902421,,,,,,,2022-05-16,1,,,,,カナデ,0
2454,8430001086590,新規,0,2022-05-16,2022-05-16,株式会社ＮＩＫＡ,,株式会社,北海道,札幌市中央区,南五条西３丁目１０番地グランド桂和ビル４階,,01,101,0640805,,,,,,,2022-05-16,1,,,,,ニカ,0
2458,8430003013923,新規,0,2022-05-16,2022-05-16,合同会社フナコシ工務店,,合同会社,北海道,札幌市北区,篠路八条６丁目２０番１６号,,01,102,0028028,,,,,,,2022-05-16,1,,,,,フナコシコウムテン,0
2489,9010401166967,新規,0,2022-05-16,2022-05-16,株式会社ＨａｓｈＢａｎｋ,,株式会社,東京都,港区,芝４丁目５番１０号,,13,103,1080014,,,,,,,2022-05-16,1,,,,,ハッシュバンク,0
2490,9010401167016,新規,0,2022-05-16,2022-05-16,ＡＱＵＡＺ株式会社,,株式会社,東京都,港区,元赤坂１丁目５－２０－２０７,,13,103,1070051,,,,,,,2022-05-16,1,,,,,アクアズ,0
2491,9010401167239,新規,0,2022-05-16,2022-05-16,株式会社高輪屋,00126564,株式会社,東京都,港区,高輪４丁目１８番２０号コトー高輪２０４,,13,103,1080074,,,,,,,2022-05-16,1,,,,,タカナワヤ,0
2512,9010801032959,新規,0,2022-05-16,2022-05-16,株式会社ハニーサックル,,株式会社,東京都,大田区,大森北１丁目３３番３号晴美ビル４Ｂ,,13,111,1430016,,,,,,,2022-05-16,1,,,,,ハニーサックル,0
2522,9011001147556,新規,0,2022-05-16,2022-05-16,株式会社ディーツーエフ,,株式会社,東京都,渋谷区,道玄坂２丁目２０番９号カワイビル２階,,13,113,1500043,,,,,,,2022-05-16,1,,,,,ディーツーエフ,0
2540,9013101008910,新規,0,2022-05-16,2022-05-16,株式会社ヨキ社,,株式会社,東京都,青梅市,長淵５丁目６０５－６,,13,205,1980052,,,,,,,2022-05-16,1,,,,,ヨキシャ,0
2561,9021001075946,新規,0,2022-05-16,2022-05-16,株式会社ＴＫ,,株式会社,神奈川県,横須賀市,内川１丁目６番８号,,14,201,2390836,,,,,,,2022-05-16,1,,,,,ティーケー,0
2562,9021001075954,新規,0,2022-05-16,2022-05-16,株式会社ＴＫ２,,株式会社,神奈川県,横須賀市,内川１丁目６番８号,,14,201,2390836,,,,,,,2022-05-16,1,,,,,ティーケーツー,0
2563,9021001075979,新規,0,2022-05-16,2022-05-16,株式会社中村企画,,株式会社,神奈川県,相模原市南区,上鶴間１丁目２３番１９－１０１号,,14,153,2520302,,,,,,,2022-05-16,1,,,,,ナカムラキカク,0
2566,9021003011692,新規,0,2022-05-16,2022-05-16,合同会社光電工,,合同会社,神奈川県,厚木市,山際８６３番地１ユニハイム本厚木３０７,,14,212,2430803,,,,,,,2022-05-16,1,,,,,ヒカリデンコウ,0
2567,9021003011701,新規,0,2022-05-16,2022-05-16,Ｇ．Ｂ．Ｔｒｏｔｔｉ合同会社,,合同会社,神奈川県,大和市,上草柳９丁目１２番３号,,14,213,2420029,,,,,,,2022-05-16,1,,,,,,0
2571,9030001148182,新規,0,2022-05-16,2022-05-16,株式会社リボー,,株式会社,埼玉県,さいたま市見沼区,堀崎町１１０６番地１フォルトゥナ２０６号室,,11,104,3370052,,,,,,,2022-05-16,1,,,,,リボー,0
2572,9030001148224,新規,0,2022-05-16,2022-05-16,株式会社エムホーム,,株式会社,埼玉県,熊谷市,本石１丁目８１番地マルテンビル１０２,,11,202,3600815,,,,,,,2022-05-16,1,,,,,エムホーム,0
2578,9030003019398,新規,0,2022-05-16,2022-05-16,ホームリーガル合同会社,,合同会社,埼玉県,越谷市,東柳田町２番１７号,,11,222,3430814,,,,,,,2022-05-16,1,,,,,ホームリーガル,0
2579,9030003019407,新規,0,2022-05-16,2022-05-16,ｆｏｒｗａｒｄ合同会社,,合同会社,埼玉県,川口市,西川口１丁目９－８スカイコート西川口第５、８０８号室,,11,203,3320021,,,,,,,2022-05-16,1,,,,,フォワード,0
2580,9030003019423,新規,0,2022-05-16,2022-05-16,ＭＩＤＯＲＩ　ＴＲＡＤＩＮＧ合同会社,,合同会社,埼玉県,所沢市,上新井４丁目６２番地の２２,,11,208,3591142,,,,,,,2022-05-16,1,,,,,ミドリトレーディング,0
2581,9030005020858,新規,0,2022-05-16,2022-05-16,一般社団法人埼玉県スマート創業支援,,その他の設立登記法人,埼玉県,さいたま市大宮区,宮町２丁目７３番地２ＮＫビル,,11,103,3300802,,,,,,,2022-05-16,1,,,,,サイタマケンスマートソウギョウシエン,0
2585,9040001123267,新規,0,2022-05-16,2022-05-16,株式会社ＩｍＰＡｃＴ,,株式会社,千葉県,柏市,布瀬３９０８番地５,,12,217,2701464,,,,,,,2022-05-16,1,,,,,インパクト,0
2586,9040001123408,新規,0,2022-05-16,2022-05-16,アイスブルー株式会社,,株式会社,千葉県,市原市,君塚５丁目２９番地１０,00126567,12,219,2900051,,,,,,,2022-05-16,1,,,,,アイスブルー,0
2587,9040001123416,新規,0,2022-05-16,2022-05-16,Ｚｕｌｆｉ株式会社,,株式会社,千葉県,柏市,あけぼの２丁目９番１５号ファン・Ｐ・スター１０１号室,,12,217,2770841,,,,,,,2022-05-16,1,,,,,ズルフィー,0
2588,9040001123424,新規,0,2022-05-16,2022-05-16,株式会社エム・プラス,,株式会社,千葉県,千葉市稲毛区,緑町２丁目１４－３,,12,103,2630023,,,,,,,2022-05-16,1,,,,,エムプラス,0
2599,9040005021599,新規,0,2022-05-16,2022-05-16,一般財団法人ＰＢＥＥ研究・研修センター,,その他の設立登記法人,千葉県,市川市,宮久保３丁目４番２２号,,12,203,2720822,,,,,,,2022-05-16,1,,,,,ピービーイーイーケンキュウケンシュウセンター,0
2613,9090001017571,新規,0,2022-05-16,2022-05-16,ＨＹＢＲＩＤ・ＧＲＥＥＮＳ株式会社,,株式会社,山梨県,南アルプス市,曲輪田７４２番地１,,19,208,4000311,,,,,,,2022-05-16,1,,,,,ハイブリッドグリーンズ,0
2636,9120001245862,新規,0,2022-05-16,2022-05-16,株式会社かねもり,,株式会社,大阪府,大阪市西区,京町堀２丁目２－３サイトウビル３０２,,27,106,5500003,,,,,,,2022-05-16,1,,,,,カネモリ,0
2637,9120001245879,新規,0,2022-05-16,2022-05-16,株式会社ＬＩＯ,,株式会社,大阪府,大阪市北区,芝田２丁目８－１１,,27,127,5300012,,,,,,,2022-05-16,1,,,,,リオ,0
2640,9120003021667,新規,0,2022-05-16,2022-05-16,合同会社フレーバー,,合同会社,大阪府,大阪市東住吉区,中野４丁目１２番２３号メゾン中野７０１号,,27,121,5460012,,,,,,,2022-05-16,1,,,,,フレーバー,0
2646,9122001035847,新規,0,2022-05-16,2022-05-16,株式会社ＷＥＩＲＤ　ＬＡＢＯ,,株式会社,大阪府,大東市,平野屋１丁目９番１０２号,,27,218,5740022,,,,,,,2022-05-16,1,,,,,ウィアードラボ,0
2651,9130001071779,新規,0,2022-05-16,2022-05-16,株式会社Ｏｆｆｉｃｅ黎,,株式会社,京都府,京都市北区,紫竹上芝本町９９番地,,26,101,6038423,,,,,,,2022-05-16,1,,,,,オフィスレイ,0
2660,9140001125996,新規,0,2022-05-16,2022-05-16,株式会社ｄ．ｉｎｆｉｎｉｔｙ,,株式会社,兵庫県,神戸市中央区,多聞通４丁目１番１０号,,28,110,6500015,,,,,,,2022-05-16,1,,,,,ディインフィニティ,0
2661,9140001126004,新規,0,2022-05-16,2022-05-16,株式会社ＢＩＧ　ＷＥＳＴ,,株式会社,兵庫県,加古川市,加古川町寺家町１４２番地の１,,28,210,6750066,,,,,,,2022-05-16,1,,,,,ビッグウエスト,0
2662,9140001126012,新規,0,2022-05-16,2022-05-16,株式会社ＣＳＩＬｅａｄ,,株式会社,兵庫県,加西市,北条町北条１１２１番地,,28,220,6752312,,,,,,,2022-05-16,1,,,,,シーエスアイリード,0
2664,9140003017647,新規,0,2022-05-16,2022-05-16,合同会社中村商店,,合同会社,兵庫県,明石市,大久保町大久保町４６１番地の６,,28,203,6740067,,,,,,,2022-05-16,1,,,,,ナカムラショウテン,0
2667,9150003002680,新規,0,2022-05-16,2022-05-16,合同会社ふりいすたいる,,合同会社,奈良県,大和郡山市,中城町２－２,,29,203,6391118,,,,,,,2022-05-16,1,,,,,フリイスタイル,0
2668,9150005009393,新規,0,2022-05-16,2022-05-16,医療法人はしもと歯科クリニック,,その他の設立登記法人,奈良県,奈良市,三条本町９番２１号ＪＲ奈良伝宝ビル１階・４階,,29,201,6308122,,,,,,,2022-05-16,1,,,,,ハシモトシカクリニック,0
2672,9180001151320,新規,0,2022-05-16,2022-05-16,ＦＫエステート株式会社,,株式会社,愛知県,愛西市,大井町六川北２７５番地１,,23,232,4960921,,,,,,,2022-05-16,1,,,,,エフケイエステート,0
2675,9180003023815,新規,0,2022-05-16,2022-05-16,合同会社光巧,,合同会社,愛知県,愛西市,諸桑町郷城７０番地３,,23,232,4968005,,,,,,,2022-05-16,1,,,,,ミツヒシ,0
2681,9200001040074,新規,0,2022-05-16,2022-05-16,株式会社ＭＵＲＡＳＥ設備工業,,株式会社,岐阜県,大垣市,大井２丁目５２番地１サンロイヤル大井２０１号室,,21,202,5030836,,,,,,,2022-05-16,1,,,,,ムラセセツビコウギョウ,0
2697,9240003005600,新規,0,2022-05-16,2022-05-16,ハコベル合同会社,,合同会社,広島県,福山市,水呑町１４５６,,34,207,7200832,,,,,,,2022-05-16,1,,,,,ハコベル,0
2698,9240005015399,新規,0,2022-05-16,2022-05-16,一般社団法人リカサポ,,その他の設立登記法人,広島県,三次市,十日市中１丁目６－１４,,34,209,7280012,,,,,,,2022-05-16,1,,,,,リカサポ,0
2723,9340001024732,新規,0,2022-05-16,2022-05-16,株式会社アリマ技建,,株式会社,鹿児島県,姶良市,加治木町木田３９４４番地３,,46,225,8995241,,,,,,,2022-05-16,1,,,,,アリマギケン,0
2725,9360001030398,新規,0,2022-05-16,2022-05-16,株式会社瑠璃,,株式会社,沖縄県,中頭郡北谷町,字伊平２０４８番地,,47,326,9040102,,,,,,,2022-05-16,1,,,,,ルリ,0
2726,9360001030415,新規,0,2022-05-16,2022-05-16,株式会社ＴｒｉｐＮｉｎｅ,,株式会社,沖縄県,那覇市,松山２丁目１０番１号４Ｆ,,47,201,9000032,,,,,,,2022-05-16,1,,,,,トリップナイン,0
2757,9430003013889,新規,0,2022-05-16,2022-05-16,Ｐｏｎｏ合同会社,,合同会社,北海道,虻田郡倶知安町,北七条東１丁目８番地２３,,01,400,0440007,,,,,,,2022-05-16,1,,,,,ポノ,0
2760,9450003002205,新規,0,2022-05-16,2022-05-16,合同会社オオニシ,,合同会社,北海道,旭川市,秋月三条１丁目４番２号,,01,204,0798403,,,,,,,2022-05-16,1,,,,,オオニシ,0
2766,9480003001831,新規,0,2022-05-16,2022-05-16,合同会社Ｚ＆Ｎｅｘｔ,,合同会社,徳島県,小松島市,日開野町字高須５番地の１８,,36,203,7730010,,,,,,,2022-05-16,1,,,,,ゼットアンドネクスト,0
2768,9500001024212,新規,0,2022-05-16,2022-05-16,薦田製造株式会社,,株式会社,愛媛県,四国中央市,土居町北野甲２番地１,,38,213,7990722,,,,,,,2022-05-16,1,,,,,コモダセイゾウ,0
2774,9700150108687,新規,0,2022-05-16,2022-05-12,ルロット・オーケストラ,,その他,東京都,東大和市,桜が丘４丁目２８６－１メゾンドアムール３０６号室,,13,220,2070022,,,,,,,2022-05-12,1,,,,,ルロツトオーケストラ,0
