sequenceNumber,corporateNumber,process,correct,updateDate,changeDate,name,nameImageId,kind,prefectureName,cityName,streetNumber,addressImageId,prefectureCode,cityCode,postCode,addressOutside,addressOutsideImageId,closeDate,closeCause,successorCorporateNumber,changeCause,assignmentDate,latest,enName,enPrefectureName,enCityName,enAddressOutside,furigana,hihyoji
6,1010001224967,新規,0,2022-03-07,2022-03-07,Ａｌｐｈａ　Ｓｉｅｒｒａ株式会社,,株式会社,東京都,千代田区,丸の内３丁目２番２号丸の内二重橋ビル,,13,101,1000005,,,,,,,2022-03-07,1,,,,,アルファシエラ,0
7,1010001224983,新規,0,2022-03-07,2022-03-07,株式会社フィールドジャパン,,株式会社,東京都,文京区,春日２丁目１２番５－１０１号,,13,105,1120003,,,,,,,2022-03-07,1,,,,,フィールドジャパン,0
8,1010001225008,新規,0,2022-03-07,2022-03-07,株式会社ＡＫ,,株式会社,東京都,中央区,銀座１丁目２２番１１号銀座大竹ビジデンス２階,,13,102,1040061,,,,,,,2022-03-07,1,,,,,エーケー,0
9,1010001225040,新規,0,2022-03-07,2022-03-07,株式会社榑木川,,株式会社,東京都,千代田区,九段北１丁目１３番５号ヒューリック九段ビル１２Ｆ,,13,101,1020073,,,,,,,2022-03-07,1,,,,,クレキガワ,0
10,1010001225049,新規,0,2022-03-07,2022-03-07,株式会社ＫＡＴ,,株式会社,東京都,千代田区,内神田２丁目７番２号１階,,13,101,1010047,,,,,,,2022-03-07,1,,,,,ケーエーティー,0
13,1010003037120,新規,0,2022-03-07,2022-03-07,合同会社ＡＸＩＡパートナーズ,,合同会社,東京都,中央区,日本橋室町１丁目２－６日本橋大栄ビル７階,,13,102,1030022,,,,,,,2022-03-07,1,,,,,アクシアパートナーズ,0
14,1010003037186,新規,0,2022-03-07,2022-03-07,合同会社京成稲毛駅前開発プロジェクト,,合同会社,東京都,千代田区,平河町１丁目６番１５号シルスフィア会計事務所内,,13,101,1020093,,,,,,,2022-03-07,1,,,,,ケイセイイナゲエキマエカイハツプロジェクト,0
25,1010401165844,新規,0,2022-03-07,2022-03-07,ロゴスサイエンス株式会社,,株式会社,東京都,港区,虎ノ門１丁目１－２１新虎ノ門実業会館５Ｆ,,13,103,1050001,,,,,,,2022-03-07,1,,,,,ロゴスサイエンス,0
26,1010401165976,新規,0,2022-03-07,2022-03-07,株式会社Ｌ＆Ｐ,,株式会社,東京都,港区,新橋２丁目４番５号不二ビルディング新橋１２階,,13,103,1050004,,,,,,,2022-03-07,1,,,,,エルアンドピー,0
27,1010401165984,新規,0,2022-03-07,2022-03-07,株式会社むとうマン,,株式会社,東京都,港区,北青山２丁目１２番８号ＢＩＺＳＭＡＲＴ青山３３０号室,,13,103,1070061,,,,,,,2022-03-07,1,,,,,ムトウマン,0
28,1010401166033,新規,0,2022-03-07,2022-03-07,株式会社ＡＰ７２,,株式会社,東京都,港区,虎ノ門４丁目１番２８号虎ノ門タワーズオフィス１７階,,13,103,1050001,,,,,,,2022-03-07,1,,,,,エイピーナナジュウニ,0
30,1010403027217,新規,0,2022-03-07,2022-03-07,合同会社シークスタジオ,,合同会社,東京都,港区,浜松町２丁目２番１５号,,13,103,1050013,,,,,,,2022-03-07,1,,,,,シークスタジオ,0
33,1010501048528,新規,0,2022-03-07,2022-03-07,株式会社ルーリス,,株式会社,東京都,台東区,元浅草４丁目３番７号ディアコート元浅草２０４,,13,106,1110041,,,,,,,2022-03-07,1,,,,,ルーリス,0
34,1010501048536,新規,0,2022-03-07,2022-03-07,ＭＡＹＳＳ株式会社,,株式会社,東京都,台東区,小島１丁目４番１３－３０１号,,13,106,1110056,,,,,,,2022-03-07,1,,,,,メイス,0
35,1010501048544,新規,0,2022-03-07,2022-03-07,株式会社ＨＩＲＯＫＯ　ＧＥＮＥＲＡＬ　ＧＯＯＤＳ,,株式会社,東京都,台東区,入谷２丁目３７番５号,,13,106,1100013,,,,,,,2022-03-07,1,,,,,,0
38,1010601060787,新規,0,2022-03-07,2022-03-07,株式会社ｔｏｐｉａ,,株式会社,東京都,江東区,豊洲３丁目４番１号,,13,108,1350061,,,,,,,2022-03-07,1,,,,,トピア,0
39,1010605004047,新規,0,2022-03-07,2022-03-07,一般社団法人伝統芸能三味線樂舎．ｊｐ,,その他の設立登記法人,東京都,墨田区,錦糸１丁目１４番７－７０１号,,13,107,1300013,,,,,,,2022-03-07,1,,,,,デントウゲイノウシャミセンガクシャジェーピー,0
40,1010701042339,新規,0,2022-03-07,2022-03-07,株式会社マーベラスメーカーズ,,株式会社,東京都,品川区,上大崎３丁目１番３０－９１１号,,13,109,1410021,,,,,,,2022-03-07,1,,,,,マーベラスメーカーズ,0
41,1010705003329,新規,0,2022-03-07,2022-03-07,一般社団法人保証人代行の会,,その他の設立登記法人,東京都,品川区,大井１丁目５３番１４号大井ビル５０２号,,13,109,1400014,,,,,,,2022-03-07,1,,,,,ホショウニンダイコウノカイ,0
43,1010901050455,新規,0,2022-03-07,2022-03-07,株式会社フォートワン,,株式会社,東京都,世田谷区,経堂５丁目２７番１９－１０５号,,13,112,1560052,,,,,,,2022-03-07,1,,,,,フォートワン,0
44,1010901050463,新規,0,2022-03-07,2022-03-07,株式会社ドロップイン,,株式会社,東京都,世田谷区,奥沢５丁目３６番４号,,13,112,1580083,,,,,,,2022-03-07,1,,,,,ドロップイン,0
45,1010903007206,新規,0,2022-03-07,2022-03-07,合同会社にじいろ,,合同会社,東京都,世田谷区,池尻３丁目３０番１号ＳＧタワー７０２号室,,13,112,1540001,,,,,,,2022-03-07,1,,,,,,0
55,1011001146094,新規,0,2022-03-07,2022-03-07,ハイアクティブ株式会社,,株式会社,東京都,渋谷区,本町１丁目２０番２パルムハウス初台１２０７,,13,113,1510071,,,,,,,2022-03-07,1,,,,,ハイアクティブ,0
56,1011001146111,新規,0,2022-03-07,2022-03-07,株式会社ＴＯＭＯＣＯＳ,,株式会社,東京都,渋谷区,千駄ヶ谷３丁目８－５,,13,113,1510051,,,,,,,2022-03-07,1,,,,,トモコス,0
57,1011001146128,新規,0,2022-03-07,2022-03-07,株式会社Ｃｈａｎｇｅｓ,,株式会社,東京都,目黒区,五本木１丁目８番１４号,,13,110,1530053,,,,,,,2022-03-07,1,,,,,チェンジズ,0
58,1011001146136,新規,0,2022-03-07,2022-03-07,Ｓｕｍｉｔａｃｋ株式会社,,株式会社,東京都,渋谷区,広尾５丁目４－１２大成鋼機ビル５Ｆ,,13,113,1500012,,,,,,,2022-03-07,1,,,,,スミタック,0
59,1011001146152,新規,0,2022-03-07,2022-03-07,株式会社Ｌｕｎａ,,株式会社,東京都,渋谷区,千駄ヶ谷５丁目２７番３号やまとビル８Ｆ,,13,113,1510051,,,,,,,2022-03-07,1,,,,,ルナ,0
60,1011003014308,新規,0,2022-03-07,2022-03-07,合同会社Ｐｒｅｓｅｎｔ,,合同会社,東京都,渋谷区,円山町５番５号Ｎａｖｉ渋谷Ｖ３階,00125883,13,113,1500044,,,,,,,2022-03-07,1,,,,,プレゼント,0
63,1011101098013,新規,0,2022-03-07,2022-03-07,ＭＯＴＩマネジメント株式会社,,株式会社,東京都,新宿区,西早稲田１丁目１７－５－２階,,13,104,1690051,,,,,,,2022-03-07,1,,,,,エムオーティーアイマネジメント,0
64,1011101098046,新規,0,2022-03-07,2022-03-07,株式会社ＭＯＡ,,株式会社,東京都,新宿区,西新宿３丁目３－１３西新宿水間ビル６Ｆ,,13,104,1600023,,,,,,,2022-03-07,1,,,,,モア,0
66,1011103011527,新規,0,2022-03-07,2022-03-07,ＤＳＰ合同会社,,合同会社,東京都,新宿区,百人町３丁目９番４号木村荘２０１,,13,104,1690073,,,,,,,2022-03-07,1,,,,,ディーエスピー,0
67,1011103011535,新規,0,2022-03-07,2022-03-07,合同会社向丘,,合同会社,東京都,新宿区,若宮町１７番地,,13,104,1620827,,,,,,,2022-03-07,1,,,,,ムコウガオカ,0
75,1011501027819,新規,0,2022-03-07,2022-03-07,株式会社Ｒｉｍｕｒｕ‐ｃｒｅｓｔ,,株式会社,東京都,荒川区,東日暮里２丁目３０番５号,,13,118,1160014,,,,,,,2022-03-07,1,,,,,リムルクレスト,0
79,1011803004994,新規,0,2022-03-07,2022-03-07,コンバーテクノ合同会社,,合同会社,東京都,足立区,梅島３丁目３３－６ビズコンフォート西新井１号室,,13,121,1210816,,,,,,,2022-03-07,1,,,,,コンバーテクノ,0
82,1012405004706,新規,0,2022-03-07,2022-03-07,医療法人社団府中駅前歯科,,その他の設立登記法人,東京都,府中市,寿町１丁目１番地の３三ツ木寿町ビル１階Ｂ棟,,13,206,1830056,,,,,,,2022-03-07,1,,,,,フチュウエキマエシカ,0
84,1012701016974,新規,0,2022-03-07,2022-03-07,株式会社Ｌａｋｈｅｙ　Ｉｎｔｅｒｎａｔｉｏｎａｌ,,株式会社,東京都,小平市,小川東町１丁目１８番５号コートウイスタリア２０２,,13,211,1870031,,,,,,,2022-03-07,1,,,,,ラケイインターナショナル,0
88,1013301048771,新規,0,2022-03-07,2022-03-07,株式会社ＭｅｍｅＭｏ,,株式会社,東京都,豊島区,池袋２丁目５７番６号,,13,116,1710014,,,,,,,2022-03-07,1,,,,,メメモ,0
89,1013303006075,新規,0,2022-03-07,2022-03-07,ＨａｎａＢｏｏｋ合同会社,,合同会社,東京都,豊島区,北大塚２丁目９番９号原田ビル２階,,13,116,1700004,,,,,,,2022-03-07,1,,,,,ハナブック,0
97,1020001145568,新規,0,2022-03-07,2022-03-07,株式会社和一夢工房,,株式会社,神奈川県,川崎市高津区,千年５６０番地３,,14,134,2130022,,,,,,,2022-03-07,1,,,,,ワイムコウボウ,0
99,1020003021412,新規,0,2022-03-07,2022-03-07,合同会社ＤＩＧＩＴ,,合同会社,神奈川県,川崎市高津区,下作延２丁目３４番１２－４０９号,,14,134,2130033,,,,,,,2022-03-07,1,,,,,ディグイット,0
100,1020005015404,新規,0,2022-03-07,2022-03-07,武蔵小杉税理士法人,,その他の設立登記法人,神奈川県,川崎市中原区,小杉町３丁目１５０１番地セントア武蔵小杉Ｂ棟７－３０１,,14,133,2110063,,,,,,,2022-03-07,1,,,,,ムサシコスギ,0
102,1021001075318,新規,0,2022-03-07,2022-03-07,株式会社フライフィッシュ,,株式会社,神奈川県,横須賀市,追浜町３丁目１４番地和幸ビル１階,,14,201,2370064,,,,,,,2022-03-07,1,,,,,フライフィッシュ,0
103,1021001075342,新規,0,2022-03-07,2022-03-07,株式会社Ｇｒａｐｈｉｔｅ　Ｂｌｕｅ,,株式会社,神奈川県,南足柄市,和田河原７８０番地１１,,14,217,2500112,,,,,,,2022-03-07,1,,,,,グラファイトブルー,0
104,1021001075350,新規,0,2022-03-07,2022-03-07,株式会社ＭＡ,,株式会社,神奈川県,足柄上郡松田町,松田庶子１５３５－２,,14,363,2580004,,,,,,,2022-03-07,1,,,,,エムエー,0
105,1021001075359,新規,0,2022-03-07,2022-03-07,株式会社大塚商会,,株式会社,神奈川県,相模原市中央区,田名５９５３番地４,,14,152,2520244,,,,,,,2022-03-07,1,,,,,オオツカショウカイ,0
106,1021001075383,新規,0,2022-03-07,2022-03-07,株式会社山中工務店,,株式会社,神奈川県,愛甲郡愛川町,中津４０６４－１,,14,401,2430303,,,,,,,2022-03-07,1,,,,,ヤマチュウコウムテン,0
119,1030001147134,新規,0,2022-03-07,2022-03-07,ＰＲＡ株式会社,,株式会社,埼玉県,さいたま市岩槻区,大字真福寺１３９８番地１,,11,110,3390044,,,,,,,2022-03-07,1,,,,,ピーアールエー,0
128,1030003018985,新規,0,2022-03-07,2022-03-07,合同会社ムサシ・グローバル,,合同会社,埼玉県,川越市,通町１３番地３（クリオ川越弐番館７０６号室）,,11,201,3500044,,,,,,,2022-03-07,1,,,,,ムサシグローバル,0
132,1030005020741,新規,0,2022-03-07,2022-03-07,医療法人社団春香会,,その他の設立登記法人,埼玉県,春日部市,中央８丁目８番地９,,11,214,3440067,,,,,,,2022-03-07,1,,,,,シュンコウカイ,0
135,1040001122482,新規,0,2022-03-07,2022-03-07,株式会社ＴＲＴリビング,,株式会社,千葉県,柏市,松ケ崎１２０２番地の３４,,12,217,2770835,,,,,,,2022-03-07,1,,,,,ティーアールティーリビング,0
136,1040001122532,新規,0,2022-03-07,2022-03-07,株式会社ｋｉｋｕｔａｙａ,,株式会社,千葉県,千葉市中央区,出洲港７番４１号,,12,101,2600023,,,,,,,2022-03-07,1,,,,,キクタヤ,0
140,1040003019628,新規,0,2022-03-07,2022-03-07,ＭＩＮＡ　ＴＲＡＤＩＮＧ合同会社,,合同会社,千葉県,山武市,埴谷３８１番地１８,,12,237,2891223,,,,,,,2022-03-07,1,,,,,ミナトレーディング,0
145,1050001050716,新規,0,2022-03-07,2022-03-07,泰靖工業株式会社,,株式会社,茨城県,笠間市,下郷５７３番地３,,08,216,3190202,,,,,,,2022-03-07,1,,,,,タイセイコウギョウ,0
148,1060001034610,新規,0,2022-03-07,2022-03-07,株式会社ハル都市計画,,株式会社,栃木県,宇都宮市,北一の沢町１４番１３号,,09,201,3200048,,,,,,,2022-03-07,1,,,,,ハルトシケイカク,0
153,1070001039022,新規,0,2022-03-07,2022-03-07,株式会社雫,,株式会社,群馬県,太田市,龍舞町４３５３番地１,,10,205,3730806,,,,,,,2022-03-07,1,,,,,シズク,0
161,1080401025661,新規,0,2022-03-07,2022-03-07,安陽国際株式会社,,株式会社,静岡県,浜松市中区,幸３丁目１７番１９号,,22,131,4338123,,,,,,,2022-03-07,1,,,,,アンヨウコクサイ,0
164,1090001017463,新規,0,2022-03-07,2022-03-07,株式会社Ｔ．Ｋ産業,,株式会社,山梨県,韮崎市,大草町上條東割１０５１番地１プロヴァンスリュミエールＡ－１０１,,19,207,4070036,,,,,,,2022-03-07,1,,,,,ティーケーサンギョウ,0
170,1100001035125,新規,0,2022-03-07,2022-03-07,株式会社シルバーリーフ,,株式会社,長野県,塩尻市,大字広丘吉田１１２８番地,,20,215,3990701,,,,,,,2022-03-07,1,,,,,シルバーリーフ,0
171,1100003006438,新規,0,2022-03-07,2022-03-07,合同会社ｋｉｎｏｆｕ,,合同会社,長野県,諏訪郡原村,１１０６３番地１,,20,363,3910100,,,,,,,2022-03-07,1,,,,,キノフ,0
172,1100005012830,新規,0,2022-03-07,2022-03-07,一般社団法人ありあけ舎,,その他の設立登記法人,長野県,安曇野市,穂高有明７３５２番１４,,20,220,3998301,,,,,,,2022-03-07,1,,,,,アリアケシャ,0
187,1120001244186,新規,0,2022-03-07,2022-03-07,株式会社Ｅ．ｆａｍｉｌｉａ,,株式会社,大阪府,大阪市北区,豊崎１丁目１１番１９号,,27,127,5310072,,,,,,,2022-03-07,1,,,,,イーファミリア,0
188,1120001244211,新規,0,2022-03-07,2022-03-07,株式会社ドットファイブ,,株式会社,大阪府,大阪市北区,浪花町１３－１９,,27,127,5300022,,,,,,,2022-03-07,1,,,,,ドットファイブ,0
189,1120001244269,新規,0,2022-03-07,2022-03-07,株式会社亞昇,,株式会社,大阪府,大阪市中央区,平野町３丁目１番１０－７０３号,,27,128,5410046,,,,,,,2022-03-07,1,,,,,アショウ,0
190,1120001244277,新規,0,2022-03-07,2022-03-07,株式会社ケイブラッド,,株式会社,大阪府,大阪市西成区,旭１丁目１番１１号オズレジデンス花園２０１,,27,122,5570032,,,,,,,2022-03-07,1,,,,,ケイブラッド,0
191,1120003021220,新規,0,2022-03-07,2022-03-07,合同会社思立,,合同会社,大阪府,枚方市,香里園山之手町４４番３号,,27,210,5730087,,,,,,,2022-03-07,1,,,,,シリツ,0
192,1120003021229,新規,0,2022-03-07,2022-03-07,ユーバインターオオサカ合同会社,,合同会社,大阪府,大阪市北区,松ケ枝町６―１７第七新興ビル３０８,,27,127,5300037,,,,,,,2022-03-07,1,,,,,ユーバインターオオサカ,0
193,1120005022836,新規,0,2022-03-07,2022-03-07,一般社団法人尚純会,,その他の設立登記法人,大阪府,大阪市中央区,南船場３丁目１０番１１号Ａ－ＦＬＡＧ北心斎橋４階,,27,128,5420081,,,,,,,2022-03-07,1,,,,,ショウジュンカイ,0
194,1120101065152,新規,0,2022-03-07,2022-03-07,ＡＯ株式会社,,株式会社,大阪府,羽曳野市,野６４１番地の２,,27,222,5830884,,,,,,,2022-03-07,1,,,,,エーオー,0
195,1120101065160,新規,0,2022-03-07,2022-03-07,株式会社ＨＡＴ　ＡＰＯ,,株式会社,大阪府,河内長野市,楠町東４４４番４－２０７号,,27,216,5860003,,,,,,,2022-03-07,1,,,,,ハットアポ,0
196,1120101065185,新規,0,2022-03-07,2022-03-07,株式会社ＲＡＮ,,株式会社,大阪府,羽曳野市,高鷲５丁目４２２番地の４５,,27,222,5830882,,,,,,,2022-03-07,1,,,,,ラン,0
201,1120901045691,新規,0,2022-03-07,2022-03-07,株式会社Ａ．Ｅインターナショナル,,株式会社,大阪府,吹田市,山手町４丁目３６－１グリーンハイム千里２－１００２,,27,205,5640073,,,,,,,2022-03-07,1,,,,,エイイーインターナショナル,0
213,1130001071241,新規,0,2022-03-07,2022-03-07,株式会社イーテック,,株式会社,京都府,木津川市,梅美台２丁目２５番地９,,26,214,6190215,,,,,,,2022-03-07,1,,,,,イーテック,0
214,1130001071290,新規,0,2022-03-07,2022-03-07,ＮＳＧ　Ａｕｔｏ　ＰＬＵＳ株式会社,,株式会社,京都府,舞鶴市,字大波下小字浜田２５５番地,,26,202,6250007,,,,,,,2022-03-07,1,,,,,エヌエスジーオートプラス,0
223,1140001125137,新規,0,2022-03-07,2022-03-07,株式会社Ｒｉｄｅ,,株式会社,兵庫県,高砂市,米田町古新２３９番地,,28,216,6760802,,,,,,,2022-03-07,1,,,,,ライド,0
224,1140001125145,新規,0,2022-03-07,2022-03-07,株式会社ＷＫＴ,,株式会社,兵庫県,神戸市中央区,中山手通１丁目２５番１０号,,28,110,6500004,,,,,,,2022-03-07,1,,,,,ダブルケイティー,0
228,1140003017423,新規,0,2022-03-07,2022-03-07,古川鉄工合同会社,,合同会社,兵庫県,加古川市,平岡町二俣５５１番地の１,,28,210,6750111,,,,,,,2022-03-07,1,,,,,フルカワテッコウ,0
230,1160001024015,新規,0,2022-03-07,2022-03-07,みのり農産愛荘株式会社,,株式会社,滋賀県,愛知郡愛荘町,長野１７６３番地,,25,425,5291303,,,,,,,2022-03-07,1,,,,,ミノリノウサンアイショウ,0
239,1180001150222,新規,0,2022-03-07,2022-03-07,株式会社パン・ルボア,,株式会社,愛知県,名古屋市中区,大須３丁目２７番１８号,,23,106,4600011,,,,,,,2022-03-07,1,,,,,パンルボア,0
240,1180001150288,新規,0,2022-03-07,2022-03-07,ピースホームタウン東海株式会社,,株式会社,愛知県,一宮市,三条字田畑５５番地１,,23,203,4940003,,,,,,,2022-03-07,1,,,,,ピースホームタウントウカイ,0
241,1180001150313,新規,0,2022-03-07,2022-03-07,株式会社ナゴヤスタヂオ,,株式会社,愛知県,名古屋市中川区,小本本町３丁目２３０,,23,110,4540826,,,,,,,2022-03-07,1,,,,,ナゴヤスタヂオ,0
248,1180003023566,新規,0,2022-03-07,2022-03-07,和満エステイト合同会社,,合同会社,愛知県,一宮市,高田字向畑３９番地,,23,203,4910125,,,,,,,2022-03-07,1,,,,,カズマエステイト,0
250,1180005019661,新規,0,2022-03-07,2022-03-07,医療法人糸逢会,,その他の設立登記法人,愛知県,犬山市,大字犬山字南古券１９１番地５,,23,215,4840084,,,,,,,2022-03-07,1,,,,,シオウカイ,0
253,1180303005272,新規,0,2022-03-07,2022-03-07,合同会社アンダーグランド,,合同会社,愛知県,安城市,緑町２丁目１５番地１アネックス緑町２０１,,23,212,4460055,,,,,,,2022-03-07,1,,,,,,0
258,1200001039818,新規,0,2022-03-07,2022-03-07,Ｉｎｔｅｒｎａｔｉｏｎａｌ　Ｄｅｓｉｇｎ　Ｌａｂ株式会社,,株式会社,岐阜県,揖斐郡揖斐川町,極楽寺１７９番地１,,21,401,5010605,,,,,,,2022-03-07,1,,,,,インターナショナルデザインラボ,0
260,1210001018837,新規,0,2022-03-07,2022-03-07,株式会社プラスエヌ,,株式会社,福井県,南条郡南越前町,今庄第８４号２８番地,,18,404,9190131,,,,,,,2022-03-07,1,,,,,プラスエヌ,0
269,1240001059440,新規,0,2022-03-07,2022-03-07,株式会社ＳＮＯＷ,,株式会社,広島県,東広島市,西条町御薗宇３２３７－１０,,34,212,7390024,,,,,,,2022-03-07,1,,,,,スノー,0
284,1290001096693,新規,0,2022-03-07,2022-03-07,株式会社九州キャピタル不動産,,株式会社,福岡県,福岡市東区,箱崎４丁目３番１６号,,40,131,8120053,,,,,,,2022-03-07,1,,,,,キュウシュウキャピタルフドウサン,0
285,1290001096702,新規,0,2022-03-07,2022-03-07,株式会社ＭＩＲＡＢＬＥ,,株式会社,福岡県,福岡市西区,西の丘３丁目８番９号,,40,135,8190046,,,,,,,2022-03-07,1,,,,,,0
286,1290001096710,新規,0,2022-03-07,2022-03-07,株式会社みみっとサウンド,,株式会社,福岡県,福岡市博多区,博多駅前３丁目７番３５号博多ハイテックビル５０５,,40,132,8120011,,,,,,,2022-03-07,1,,,,,ミミットサウンド,0
288,1290003012244,新規,0,2022-03-07,2022-03-07,合同会社翔建不動産,,合同会社,福岡県,福岡市博多区,西月隈１丁目６番８号,,40,132,8120857,,,,,,,2022-03-07,1,,,,,ショウケンフドウサン,0
296,1340001024558,新規,0,2022-03-07,2022-03-07,雅ホールディング株式会社,,株式会社,鹿児島県,鹿児島市,薬師１丁目２０番３号,,46,201,8900042,,,,,,,2022-03-07,1,,,,,ミヤビホールディング,0
305,1360001030075,新規,0,2022-03-07,2022-03-07,株式会社ガイヤ,,株式会社,沖縄県,名護市,大北５丁目１番６号－１０２,,47,209,9050019,,,,,,,2022-03-07,1,,,,,ガイヤ,0
316,1420003002470,新規,0,2022-03-07,2022-03-07,彩花苑合同会社,,合同会社,青森県,平川市,平田森下宮本２４番地１,,02,210,0360113,,,,,,,2022-03-07,1,,,,,サイカエン,0
319,1430001086085,新規,0,2022-03-07,2022-03-07,株式会社エバーマインド,,株式会社,北海道,石狩市,花川北三条２丁目１４６番地,,01,235,0613213,,,,,,,2022-03-07,1,,,,,エバーマインド,0
322,1430003013681,新規,0,2022-03-07,2022-03-07,合同会社３７,,合同会社,北海道,雨竜郡雨竜町,字満寿２１番地３３９,,01,436,0782600,,,,,,,2022-03-07,1,,,,,サンジュウナナ,0
323,1450005004330,新規,0,2022-03-07,2022-03-07,社会福祉法人幸生福祉会,,その他の設立登記法人,北海道,名寄市,風連町新生町１８２番１,,01,221,0980511,,,,,,,2022-03-07,1,,,,,コウセイフクシカイ,0
327,1480001011666,新規,0,2022-03-07,2022-03-07,株式会社アウル,,株式会社,徳島県,徳島市,南島田町２丁目８４番地,,36,201,7700053,,,,,,,2022-03-07,1,,,,,アウル,0
329,1500001024046,新規,0,2022-03-07,2022-03-07,株式会社ネクストスケール,,株式会社,愛媛県,宇和島市,京町３－１９,,38,203,7980052,,,,,,,2022-03-07,1,,,,,ネクストスケール,0
330,1700150107309,新規,0,2022-03-07,2022-03-07,美濃市大矢田・極楽寺土地区画整理組合,,その他,岐阜県,岐阜市,薮田南５丁目１４番１２号公益社団法人岐阜県都市整備協会内,,21,201,5008384,,,,,,,2022-03-07,1,,,,,ミノシオヤダゴクラクジトチクカクセイリクミアイ,0
341,2010001224990,新規,0,2022-03-07,2022-03-07,株式会社ＡＤＣホールディング,,株式会社,東京都,千代田区,神田鍛冶町３丁目４番地,,13,101,1010045,,,,,,,2022-03-07,1,,,,,エーディーシーホールディング,0
343,2010003037160,新規,0,2022-03-07,2022-03-07,アントレプレナー出版合同会社,,合同会社,東京都,千代田区,九段北４丁目３番２０号２０８,,13,101,1020073,,,,,,,2022-03-07,1,,,,,アントレプレナーシュッパン,0
344,2010005034692,新規,0,2022-03-07,2022-03-07,医療法人社団ＢＴＤＣ,,その他の設立登記法人,東京都,文京区,本郷３丁目１５番１号美工本郷ビル２階,,13,105,1130033,,,,,,,2022-03-07,1,,,,,ビーティーディーシー,0
355,2010503006524,新規,0,2022-03-07,2022-03-07,沼田技術合同会社,,合同会社,東京都,台東区,根岸３丁目６番３号海老原ビル７Ｆ,,13,106,1100003,,,,,,,2022-03-07,1,,,,,ヌマタギジュツ,0
358,2010601060786,新規,0,2022-03-07,2022-03-07,株式会社エフィカス,,株式会社,東京都,墨田区,業平２丁目８番８号,,13,107,1300002,,,,,,,2022-03-07,1,,,,,エフィカス,0
361,2010603009427,新規,0,2022-03-07,2022-03-07,合同会社Ｆｌｉｇｈｔ,,合同会社,東京都,墨田区,両国２丁目２－８－１００３,,13,107,1300026,,,,,,,2022-03-07,1,,,,,フライト,0
372,2010901050454,新規,0,2022-03-07,2022-03-07,株式会社ＡＴ販売,,株式会社,東京都,世田谷区,世田谷３丁目１番１－４０１号,,13,112,1540017,,,,,,,2022-03-07,1,,,,,エーティーハンバイ,0
373,2010901050462,新規,0,2022-03-07,2022-03-07,株式会社グローバルマネジメント,,株式会社,東京都,世田谷区,南烏山３丁目２３番３－１０９号,,13,112,1570062,,,,,,,2022-03-07,1,,,,,グローバルマネジメント,0
375,2010905004274,新規,0,2022-03-07,2022-03-07,医療法人社団陽梛会,,その他の設立登記法人,東京都,世田谷区,三軒茶屋１丁目３７番２号三茶５階,,13,112,1540024,,,,,,,2022-03-07,1,,,,,ヒナギカイ,0
380,2011001146102,新規,0,2022-03-07,2022-03-07,ＢＲＩＧＨＴ株式会社,,株式会社,東京都,渋谷区,神宮前６丁目２３番４号桑野ビル２階,,13,113,1500001,,,,,,,2022-03-07,1,,,,,ブライト,0
381,2011001146127,新規,0,2022-03-07,2022-03-07,株式会社ＳＡＩＮＯＮ,,株式会社,東京都,渋谷区,東１丁目２９番３号渋谷ブリッジＢ－２階,,13,113,1500011,,,,,,,2022-03-07,1,,,,,サイノン,0
382,2011001146135,新規,0,2022-03-07,2022-03-07,株式会社ＬＵＣＫＹ　ＢＯＹ,,株式会社,東京都,渋谷区,渋谷２丁目１９番１５－１４１４号,,13,113,1500002,,,,,,,2022-03-07,1,,,,,ラッキーボーイ,0
384,2011003014307,新規,0,2022-03-07,2022-03-07,合同会社いちにー,,合同会社,東京都,渋谷区,円山町５番５号,,13,113,1500044,,,,,,,2022-03-07,1,,,,,イチニー,0
385,2011003014315,新規,0,2022-03-07,2022-03-07,合同会社ｏｃｔａ,,合同会社,東京都,渋谷区,恵比寿３丁目６番１９号１０１,,13,113,1500013,,,,,,,2022-03-07,1,,,,,オクタ,0
387,2011101098029,新規,0,2022-03-07,2022-03-07,株式会社Ｄ－ｗｏｒｋｓ,,株式会社,東京都,新宿区,西新宿７丁目１９番２２号,,13,104,1600023,,,,,,,2022-03-07,1,,,,,ディーワークス,0
388,2011101098045,新規,0,2022-03-07,2022-03-07,ユジガ株式会社,,株式会社,東京都,新宿区,榎町３４－３榎町ビル５階,,13,104,1620806,,,,,,,2022-03-07,1,,,,,ユジガ,0
389,2011103011468,新規,0,2022-03-07,2022-03-07,合同会社ＢＡＴＳＵＭＡＲＵ,,合同会社,東京都,新宿区,西新宿３丁目１１番１９－１００５号,,13,104,1600023,,,,,,,2022-03-07,1,,,,,バツマル,0
392,2011401024080,新規,0,2022-03-07,2022-03-07,エステートエージェント田中株式会社,,株式会社,東京都,板橋区,成増４丁目７番６号,,13,119,1750094,,,,,,,2022-03-07,1,,,,,エステートエージェントタナカ,0
393,2011601025779,新規,0,2022-03-07,2022-03-07,株式会社かごめかんぱにー,,株式会社,東京都,練馬区,西大泉４丁目２８番１号,,13,120,1780065,,,,,,,2022-03-07,1,,,,,カゴメカンパニー,0
399,2012405004705,新規,0,2022-03-07,2022-03-07,医療法人社団ひまわり優心会,,その他の設立登記法人,東京都,府中市,美好町２丁目１０番地の３、１階,,13,206,1830045,,,,,,,2022-03-07,1,,,,,ヒマワリユウシンカイ,0
402,2012801021436,新規,0,2022-03-07,2022-03-07,株式会社ＲＡＩＳＥ,,株式会社,東京都,日野市,大坂上２丁目２４番地の１９ルピナス日野壱番館６０１,,13,212,1910061,,,,,,,2022-03-07,1,,,,,レイズ,0
405,2013301048779,新規,0,2022-03-07,2022-03-07,株式会社ティキシー,,株式会社,東京都,豊島区,池袋２丁目３６－１,,13,116,1710014,,,,,,,2022-03-07,1,,,,,ティキシー,0
412,2020001145550,新規,0,2022-03-07,2022-03-07,株式会社新井食品,,株式会社,神奈川県,川崎市宮前区,菅生ケ丘３８番４８号,,14,136,2160014,,,,,,,2022-03-07,1,,,,,アライショクヒン,0
413,2020001145559,新規,0,2022-03-07,2022-03-07,翠高圧株式会社,,株式会社,神奈川県,横浜市緑区,台村町６８６番地７,,14,113,2260014,,,,,,,2022-03-07,1,,,,,ミドリコウアツ,0
414,2020001145567,新規,0,2022-03-07,2022-03-07,株式会社ルチルワン,,株式会社,神奈川県,横浜市金沢区,能見台東１１番４－５０６号,,14,108,2360058,,,,,,,2022-03-07,1,,,,,ルチルワン,0
417,2020005015403,新規,0,2022-03-07,2022-03-07,土地家屋調査士法人ヴェルテックスプラン横浜,,その他の設立登記法人,神奈川県,横浜市港北区,大豆戸町５８９番地１英和ビル２階,,14,109,2220032,,,,,,,2022-03-07,1,,,,,ヴェルテックスプランヨコハマ,0
420,2021001075325,新規,0,2022-03-07,2022-03-07,株式会社ｐｌｕｍｅｒｉａ,,株式会社,神奈川県,座間市,南栗原４丁目５番１５号,,14,216,2520015,,,,,,,2022-03-07,1,,,,,プルメリア,0
421,2021001075358,新規,0,2022-03-07,2022-03-07,株式会社松原工務店,,株式会社,神奈川県,藤沢市,遠藤１４８３番地,,14,205,2520816,,,,,,,2022-03-07,1,,,,,マツバラコウムテン,0
424,2021003011451,新規,0,2022-03-07,2022-03-07,合同会社ＢＬＵＥ　ｃｏｍｆｏｒｔ,,合同会社,神奈川県,藤沢市,藤沢９７１番地３,,14,205,2510052,,,,,,,2022-03-07,1,,,,,ブルーコンフォート,0
430,2030001147059,新規,0,2022-03-07,2022-03-07,株式会社京建,,株式会社,埼玉県,川越市,大字松郷７４１番地７,,11,201,3500857,,,,,,,2022-03-07,1,,,,,キョウケン,0
431,2030001147083,新規,0,2022-03-07,2022-03-07,Ｙｏｕｒ　Ｂｅｓｔ　Ｃｈｏｉｃｅ株式会社,,株式会社,埼玉県,川越市,大字藤間３３６番地４,,11,201,3501142,,,,,,,2022-03-07,1,,,,,ユアベストチョイス,0
432,2030001147158,新規,0,2022-03-07,2022-03-07,株式会社ＭＹホーム,,株式会社,埼玉県,さいたま市緑区,馬場２丁目１番地１０,,11,109,3360912,,,,,,,2022-03-07,1,,,,,エムワイホーム,0
439,2030003018968,新規,0,2022-03-07,2022-03-07,合同会社ねこの手,,合同会社,埼玉県,上尾市,大字平方５０９,,11,219,3620059,,,,,,,2022-03-07,1,,,,,ネコノテ,0
440,2030003018984,新規,0,2022-03-07,2022-03-07,合同会社Ｋ＆Ｓコンサルティング,,合同会社,埼玉県,熊谷市,河原町１丁目２６プラスコート熊谷２０６号室,,11,202,3600035,,,,,,,2022-03-07,1,,,,,ケイアンドエスコンサルティング,0
448,2040003019593,新規,0,2022-03-07,2022-03-07,ＭＭＳ合同会社,,合同会社,千葉県,千葉市中央区,院内１丁目２番６号,,12,101,2600018,,,,,,,2022-03-07,1,,,,,,0
450,2050001050723,新規,0,2022-03-07,2022-03-07,株式会社秀浩園,,株式会社,茨城県,筑西市,松原２０１９番地,,08,227,3004541,,,,,,,2022-03-07,1,,,,,シュウコウエン,0
451,2050001050731,新規,0,2022-03-07,2022-03-07,株式会社ツーエー,,株式会社,茨城県,常総市,内守谷町１６５７番地１,,08,211,3030043,,,,,,,2022-03-07,1,,,,,ツーエー,0
453,2050005013024,新規,0,2022-03-07,2022-03-07,行政書士法人ひらつか事務所,,その他の設立登記法人,茨城県,牛久市,南２丁目７番地２ワールドビル２階,,08,219,3001222,,,,,,,2022-03-07,1,,,,,ヒラツカジムショ,0
457,2070001039005,新規,0,2022-03-07,2022-03-07,株式会社エム・シー・エル,,株式会社,群馬県,前橋市,昭和町２丁目２５１番地１号,,10,201,3710034,,,,,,,2022-03-07,1,,,,,エムシーエル,0
463,2080105006222,新規,0,2022-03-07,2022-03-07,一般社団法人Ｙｏｕｎｇｓｔｅｒｓ　ｏｎ　ｔｈｅ　Ａｉｒ　Ｊａｐａｎ,,その他の設立登記法人,静岡県,裾野市,須山２２５５番地の２９３６,,22,220,4101231,,,,,,,2022-03-07,1,,,,,ヤングスターズオンジエアージャパン,0
465,2080401025660,新規,0,2022-03-07,2022-03-07,株式会社ＲｅｖｏＴｅｃｈ,,株式会社,静岡県,浜松市浜北区,宮口３３９２番地,,22,136,4340004,,,,,,,2022-03-07,1,,,,,レボテック,0
466,2090001017462,新規,0,2022-03-07,2022-03-07,田口建設株式会社,,株式会社,山梨県,甲斐市,篠原４１３１番地２,,19,210,4000115,,,,,,,2022-03-07,1,,,,,タグチケンセツ,0
469,2100001035132,新規,0,2022-03-07,2022-03-07,株式会社ＡＳｔｉｍｅ,,株式会社,長野県,長野市,桜新町６６９番地１鹿北ビル２０２,,20,201,3810013,,,,,,,2022-03-07,1,,,,,アスタイム,0
470,2100003006437,新規,0,2022-03-07,2022-03-07,合同会社サングレープ,,合同会社,長野県,下伊那郡高森町,山吹４４８番地２,,20,403,3993101,,,,,,,2022-03-07,1,,,,,サングレープ,0
479,2120001244169,新規,0,2022-03-07,2022-03-07,株式会社ＣＨＯ’ＩＳ,,株式会社,大阪府,大阪市中央区,南本町４丁目５番７号,,27,128,5410054,,,,,,,2022-03-07,1,,,,,チョイス,0
480,2120001244210,新規,0,2022-03-07,2022-03-07,株式会社ＮＫ　ｍｏｖｅｍｅｎｔ,,株式会社,大阪府,大阪市生野区,田島５丁目１８番３１号,,27,116,5440011,,,,,,,2022-03-07,1,,,,,エヌケームーブメント,0
481,2120001244219,新規,0,2022-03-07,2022-03-07,株式会社ＢＥＡＵＴＥ,,株式会社,大阪府,大阪市東住吉区,矢田３丁目３番２号,,27,121,5460023,,,,,,,2022-03-07,1,,,,,ボーテ,0
482,2120001244227,新規,0,2022-03-07,2022-03-07,株式会社Ｗｈｏｌｅ　Ｎｅｗ　Ｗｏｒｌｄ,,株式会社,大阪府,大阪市鶴見区,諸口３丁目４番５１号,,27,124,5380051,,,,,,,2022-03-07,1,,,,,ホールニューワールド,0
483,2120001244243,新規,0,2022-03-07,2022-03-07,株式会社春の光,,株式会社,大阪府,大阪市北区,同心２丁目１１番５号１１０６,,27,127,5300035,,,,,,,2022-03-07,1,,,,,ハルノヒカリ,0
485,2120003021236,新規,0,2022-03-07,2022-03-07,合同会社アンジュ,,合同会社,大阪府,守口市,梶町１丁目２０番１－２０６号,,27,209,5700015,,,,,,,2022-03-07,1,,,,,アンジュ,0
487,2120101065168,新規,0,2022-03-07,2022-03-07,株式会社みなみ生花,,株式会社,大阪府,泉佐野市,上町１丁目７番５号,,27,213,5980007,,,,,,,2022-03-07,1,,,,,ミナミセイカ,0
488,2120101065176,新規,0,2022-03-07,2022-03-07,株式会社Ｈｙｄａｅｌｙｎ,,株式会社,大阪府,和泉市,はつが野３丁目４０番１２－１号,,27,219,5941106,,,,,,,2022-03-07,1,,,,,ハイデリン,0
492,2120903004059,新規,0,2022-03-07,2022-03-07,合同会社ＹＡＲＵ　ＩＮＴＥＲＮＡＴＩＯＮＡＬ,,合同会社,大阪府,茨木市,西田中町８番３１号,,27,211,5670027,,,,,,,2022-03-07,1,,,,,ヤルインターナショナル,0
495,2130001071249,新規,0,2022-03-07,2022-03-07,竹本組株式会社,,株式会社,京都府,舞鶴市,字和田１１６５番地,,26,202,6250085,,,,,,,2022-03-07,1,,,,,タケモトグミ,0
496,2130001071257,新規,0,2022-03-07,2022-03-07,株式会社蒼天舎,,株式会社,京都府,京都市中京区,式阿弥町１２２番地１,,26,104,6048261,,,,,,,2022-03-07,1,,,,,ソウテンシャ,0
497,2130001071265,新規,0,2022-03-07,2022-03-07,株式会社Ｓｉｇｏｒｕ　ｂｙ　Ｎａｒｉｙ,,株式会社,京都府,京都市南区,東九条上御霊町２９番地アーバンステージ京都駅前２０１,,26,107,6018015,,,,,,,2022-03-07,1,,,,,シゴルバイナリー,0
498,2130001071281,新規,0,2022-03-07,2022-03-07,株式会社渚興業,,株式会社,京都府,木津川市,梅美台３丁目１番地１０,,26,214,6190215,,,,,,,2022-03-07,1,,,,,ナギサコウギョウ,0
504,2140001125160,新規,0,2022-03-07,2022-03-07,株式会社宮本,,株式会社,兵庫県,芦屋市,六麓荘町１１番１１号,,28,206,6590011,,,,,,,2022-03-07,1,,,,,ミヤモト,0
509,2150001025392,新規,0,2022-03-07,2022-03-07,株式会社うえだ,,株式会社,奈良県,香芝市,瓦口２１７３,,29,210,6390225,,,,,,,2022-03-07,1,,,,,ウエダ,0
512,2170001017000,新規,0,2022-03-07,2022-03-07,株式会社北川総建,,株式会社,和歌山県,有田郡湯浅町,大字湯浅２５４４番地,,30,361,6430004,,,,,,,2022-03-07,1,,,,,キタガワソウケン,0
516,2180001150188,新規,0,2022-03-07,2022-03-07,株式会社ＣＨＡＲｉＳ,,株式会社,愛知県,名古屋市名東区,高針台３丁目６０２番地,,23,115,4650054,,,,,,,2022-03-07,1,,,,,カリス,0
517,2180001150221,新規,0,2022-03-07,2022-03-07,山崎マシナリー株式会社,,株式会社,愛知県,名古屋市中区,古渡町９番２０号,,23,106,4600025,,,,,,,2022-03-07,1,,,,,ヤマザキマシナリー,0
518,2180001150238,新規,0,2022-03-07,2022-03-07,株式会社ｌａｎｉ,,株式会社,愛知県,大府市,中央町６丁目２５番地セントロ大府２０２,,23,223,4740025,,,,,,,2022-03-07,1,,,,,ラニ,0
519,2180001150254,新規,0,2022-03-07,2022-03-07,株式会社リジューブ,,株式会社,愛知県,名古屋市昭和区,北山町３丁目１９番地の１,,23,107,4660006,,,,,,,2022-03-07,1,,,,,リジューブ,0
520,2180001150279,新規,0,2022-03-07,2022-03-07,株式会社東海建設,,株式会社,愛知県,清須市,阿原神門９１番地,,23,233,4520901,,,,,,,2022-03-07,1,,,,,トウカイケンセツ,0
521,2180001150287,新規,0,2022-03-07,2022-03-07,エクール株式会社,,株式会社,愛知県,春日井市,味美町２丁目１０８番地,,23,206,4860968,,,,,,,2022-03-07,1,,,,,エクール,0
522,2180001150295,新規,0,2022-03-07,2022-03-07,株式会社ＭＤＢ,,株式会社,愛知県,名古屋市中村区,名駅３丁目２５番９号堀内ビル２階,,23,105,4500002,,,,,,,2022-03-07,1,,,,,エムディービー,0
523,2180001150329,新規,0,2022-03-07,2022-03-07,株式会社ｋｎｏｃｋ,,株式会社,愛知県,春日井市,旭町２丁目１２番地,,23,206,4860929,,,,,,,2022-03-07,1,,,,,ノック,0
531,2180003023581,新規,0,2022-03-07,2022-03-07,合同会社翔陽,,合同会社,愛知県,一宮市,浅野字大曲り１１番地７,,23,203,4910871,,,,,,,2022-03-07,1,,,,,ショウヨウ,0
544,2200001039825,新規,0,2022-03-07,2022-03-07,株式会社Ｐｅｃｈａｐｌｕｓ,,株式会社,岐阜県,土岐市,泉町大富１６５５番地の４７,,21,212,5095132,,,,,,,2022-03-07,1,,,,,ペチャプラス,0
548,2220001024718,新規,0,2022-03-07,2022-03-07,株式会社ｓｏｕ,,株式会社,石川県,金沢市,北安江４丁目８番２２号,,17,201,9200022,,,,,,,2022-03-07,1,,,,,ソウ,0
549,2220001024726,新規,0,2022-03-07,2022-03-07,株式会社テライファーム,,株式会社,石川県,加賀市,庄町ルの１１０番地,,17,206,9220332,,,,,,,2022-03-07,1,,,,,テライファーム,0
551,2230003001813,新規,0,2022-03-07,2022-03-07,合同会社テクスチャ,,合同会社,富山県,射水市,橋下条１０４番地,,16,211,9390332,,,,,,,2022-03-07,1,,,,,テクスチャ,0
552,2230005009210,新規,0,2022-03-07,2022-03-07,農事組合法人棚田農園,,その他の設立登記法人,富山県,小矢部市,棚田２１６０番地,,16,209,9320843,,,,,,,2022-03-07,1,,,,,タナダノウエン,0
557,2240001059423,新規,0,2022-03-07,2022-03-07,株式会社明峰電業社,,株式会社,広島県,三原市,皆実１丁目２４番９号,,34,204,7230052,,,,,,,2022-03-07,1,,,,,,0
559,2250001019450,新規,0,2022-03-07,2022-03-07,株式会社サンセツ,,株式会社,山口県,周南市,大字大河内７００番地の１３５,,35,215,7450651,,,,,,,2022-03-07,1,,,,,サンセツ,0
569,2290001096676,新規,0,2022-03-07,2022-03-07,株式会社倖大,,株式会社,福岡県,柳川市,三橋町百町１６９５番地１,,40,207,8320821,,,,,,,2022-03-07,1,,,,,コウダイ,0
570,2290001096701,新規,0,2022-03-07,2022-03-07,株式会社エルミタ,,株式会社,福岡県,大牟田市,中島町１－７第７ナガノビル,,40,202,8360023,,,,,,,2022-03-07,1,,,,,エルミタ,0
571,2290001096734,新規,0,2022-03-07,2022-03-07,株式会社ハイクオリティ・コンサルティング,,株式会社,福岡県,福岡市東区,香椎照葉３丁目１番１３－１５０９号,,40,131,8130017,,,,,,,2022-03-07,1,,,,,ハイクオリティコンサルティング,0
575,2290003012227,新規,0,2022-03-07,2022-03-07,Ｍａｇｏｃｏｒｏ合同会社,,合同会社,福岡県,春日市,上白水７丁目２１－４０６号,,40,218,8160844,,,,,,,2022-03-07,1,,,,,マゴコロ,0
577,2290801028317,新規,0,2022-03-07,2022-03-07,株式会社金井金属,,株式会社,福岡県,宮若市,原田１７６４番地５,,40,226,8220112,,,,,,,2022-03-07,1,,,,,カナイキンゾク,0
585,2330001029524,新規,0,2022-03-07,2022-03-07,株式会社Ｏｒｄｏ,,株式会社,熊本県,上益城郡御船町,大字上野１６５２番地１,,43,441,8613322,,,,,,,2022-03-07,1,,,,,オールドー,0
591,2360001030082,新規,0,2022-03-07,2022-03-07,株式会社大越,,株式会社,沖縄県,沖縄市,室川２丁目１２番１５号,,47,211,9040013,,,,,,,2022-03-07,1,,,,,オオコシ,0
592,2360001030090,新規,0,2022-03-07,2022-03-07,株式会社大崎工務店,00125881,株式会社,沖縄県,石垣市,字新川１６９５番地１０６,,47,207,9070024,,,,,,,2022-03-07,1,,,,,オオサキコウムテン,0
593,2360001030099,新規,0,2022-03-07,2022-03-07,株式会社ドンコリーノ,,株式会社,沖縄県,宮古島市,平良字下里５９７番地亀川ビル１０５号,,47,214,9060013,,,,,,,2022-03-07,1,,,,,,0
594,2360005006608,新規,0,2022-03-07,2022-03-07,一般社団法人Ｄｒｅａｍ　Ｍａｅｓｔｒｏ,,その他の設立登記法人,沖縄県,名護市,大西１丁目３－１－２Ｆ,,47,209,9050018,,,,,,,2022-03-07,1,,,,,ドリームマエストロ,0
597,2370001048289,新規,0,2022-03-07,2022-03-07,株式会社Ｓｕｐｒｅｍｅ　ｌｉｆｅ,,株式会社,宮城県,仙台市泉区,高玉町１１番地の１パークシティ泉中央ウエストコート１０３,,04,105,9813116,,,,,,,2022-03-07,1,,,,,シュプリームライフ,0
602,2390001016822,新規,0,2022-03-07,2022-03-07,株式会社オーガルホールディングス,,株式会社,山形県,山形市,飯塚町字中河原１６２９番地の５,,06,201,9900845,,,,,,,2022-03-07,1,,,,,オーガルホールディングス,0
605,2420001017759,新規,0,2022-03-07,2022-03-07,株式会社岩木商事,,株式会社,青森県,北津軽郡鶴田町,大字境字花岡１１４番地３,,02,384,0383524,,,,,,,2022-03-07,1,,,,,イワキショウジ,0
608,2430001086142,新規,0,2022-03-07,2022-03-07,株式会社ＭＫグリーン農材,,株式会社,北海道,夕張郡栗山町,字北学田３３２番地５,,01,429,0691504,,,,,,,2022-03-07,1,,,,,エムケーグリーンノウザイ,0
625,2500001024053,新規,0,2022-03-07,2022-03-07,株式会社ライフプラス松山,,株式会社,愛媛県,松山市,吉藤５丁目２０番２０号Ｔｏｍｏｒｒｏｗ１０２号,,38,201,7918011,,,,,,,2022-03-07,1,,,,,ライフプラスマツヤマ,0
635,3010001225113,新規,0,2022-03-07,2022-03-07,株式会社トーウェル,,株式会社,東京都,千代田区,富士見１丁目５－１パラシオン飯田橋４０２,,13,101,1020071,,,,,,,2022-03-07,1,,,,,トーウェル,0
637,3010003037192,新規,0,2022-03-07,2022-03-07,ｍｓ－ｄｅｓｉｇｎ合同会社,,合同会社,東京都,中央区,湊２丁目１６－２３パークシティ中央湊ザ・レジデンス９０１,,13,102,1040043,,,,,,,2022-03-07,1,,,,,エムエスデザイン,0
638,3010005034683,新規,0,2022-03-07,2022-03-07,一般財団法人日蘭学術文化交流財団,,その他の設立登記法人,東京都,千代田区,大手町１丁目３番２号、２１世紀政策研究所内,,13,101,1000004,,,,,,,2022-03-07,1,,,,,ニチランガクジュツブンカコウリュウザイダン,0
639,3010101015091,新規,0,2022-03-07,2022-03-07,株式会社ＨＥＲＯ　ＴＩＥＳ,,株式会社,東京都,八王子市,打越町２００６番地３マイコート八王子北野３０４,,13,201,1920911,,,,,,,2022-03-07,1,,,,,ヒーロータイズ,0
650,3010405020770,新規,0,2022-03-07,2022-03-07,一般社団法人ボディメイクプログラム,,その他の設立登記法人,東京都,港区,赤坂６丁目１１－１３ファブリックビル４階,,13,103,1070052,,,,,,,2022-03-07,1,,,,,ボディメイクプログラム,0
663,3010601060769,新規,0,2022-03-07,2022-03-07,株式会社東京昇降機,,株式会社,東京都,江東区,亀戸３丁目２４番１２号,,13,108,1360071,,,,,,,2022-03-07,1,,,,,トウキョウショウコウキ,0
664,3010601060802,新規,0,2022-03-07,2022-03-07,株式会社ｅｉｇｈｔ,,株式会社,東京都,江東区,東砂３丁目２１番１８号,,13,108,1360074,,,,,,,2022-03-07,1,,,,,エイト,0
666,3010605004053,新規,0,2022-03-07,2022-03-07,医療法人社団Ｓｕｎｓｈｉｎｅ,,その他の設立登記法人,東京都,江東区,豊洲２丁目５番３号アーバンドック・パークシティ豊洲コートＣ棟１階,,13,108,1350061,,,,,,,2022-03-07,1,,,,,サンシャイン,0
671,3010705003327,新規,0,2022-03-07,2022-03-07,社会保険労務士法人Ｈｏｒｉｚｏｎ　Ｏｎｅ,,その他の設立登記法人,東京都,品川区,上大崎３丁目１番１号目黒セントラルスクエア１４階,,13,109,1410021,,,,,,,2022-03-07,1,,,,,ホライズンワン,0
672,3010801032790,新規,0,2022-03-07,2022-03-07,株式会社ティーエイエスホールディングス,,株式会社,東京都,大田区,上池台１丁目３４番８号,,13,111,1450064,,,,,,,2022-03-07,1,,,,,ティーエイエスホールディングス,0
674,3010805002922,新規,0,2022-03-07,2022-03-07,医療法人社団芳優会,,その他の設立登記法人,東京都,大田区,大森北１丁目１６番７号ビラ・コンフォール１階,,13,111,1430016,,,,,,,2022-03-07,1,,,,,ホウユウカイ,0
675,3010901050453,新規,0,2022-03-07,2022-03-07,燎炎株式会社,,株式会社,東京都,世田谷区,世田谷１丁目４１番２号,,13,112,1540017,,,,,,,2022-03-07,1,,,,,リョウエン,0
676,3010901050461,新規,0,2022-03-07,2022-03-07,株式会社シェール,,株式会社,東京都,世田谷区,代沢５丁目３３番２６号ピアース下北沢２０９,,13,112,1550032,,,,,,,2022-03-07,1,,,,,シェール,0
677,3010901050478,新規,0,2022-03-07,2022-03-07,イーエルライズジャパン株式会社,,株式会社,東京都,世田谷区,瀬田１丁目２番１７号,,13,112,1580095,,,,,,,2022-03-07,1,,,,,イーエルライズジャパン,0
684,3011001146118,新規,0,2022-03-07,2022-03-07,自由が丘コンサルティング株式会社,,株式会社,東京都,目黒区,自由が丘１丁目２番７号,,13,110,1520035,,,,,,,2022-03-07,1,,,,,ジユウガオカコンサルティング,0
685,3011001146134,新規,0,2022-03-07,2022-03-07,株式会社ごぜんゲームズ,,株式会社,東京都,渋谷区,道玄坂１丁目１０番８号渋谷道玄坂東急ビル２Ｆ－Ｃ,,13,113,1500043,,,,,,,2022-03-07,1,,,,,ゴゼンゲームズ,0
689,3011101097938,新規,0,2022-03-07,2022-03-07,株式会社ＫａＲａＤａＫａＲａ,,株式会社,東京都,新宿区,西新宿６丁目１２番１６号天空ＭＵＲＡ１００７号,,13,104,1600023,,,,,,,2022-03-07,1,,,,,カラダカラ,0
690,3011101097970,新規,0,2022-03-07,2022-03-07,日本首創商貿株式会社,,株式会社,東京都,新宿区,新宿１丁目５番６号１５６御苑ビル３階,,13,104,1600022,,,,,,,2022-03-07,1,,,,,ニホンシュソウショウボウ,0
703,3012801021435,新規,0,2022-03-07,2022-03-07,株式会社グレインコーヒーロースター,,株式会社,東京都,国分寺市,本町４丁目１２番１号,,13,214,1850012,,,,,,,2022-03-07,1,,,,,グレインコーヒーロースター,0
704,3012801021443,新規,0,2022-03-07,2022-03-07,卓越株式会社,,株式会社,東京都,武蔵村山市,残堀１丁目１－２,,13,223,2080034,,,,,,,2022-03-07,1,,,,,タクエツ,0
715,3020001145566,新規,0,2022-03-07,2022-03-07,株式会社トイボックス,,株式会社,神奈川県,横浜市青葉区,大場町３５番地５,,14,117,2250023,,,,,,,2022-03-07,1,,,,,トイボックス,0
718,3020003021410,新規,0,2022-03-07,2022-03-07,Ａｔｈｅｎａ合同会社,,合同会社,神奈川県,横浜市青葉区,美しが丘西１丁目１０番地３,,14,117,2250001,,,,,,,2022-03-07,1,,,,,アテーナ,0
719,3020003021419,新規,0,2022-03-07,2022-03-07,合同会社かわい,,合同会社,神奈川県,川崎市幸区,戸手４丁目９番２－１００６号,,14,132,2120005,,,,,,,2022-03-07,1,,,,,カワイ,0
720,3021001075357,新規,0,2022-03-07,2022-03-07,株式会社堀川建設,,株式会社,神奈川県,平塚市,南金目８７２番地の１,,14,203,2591201,,,,,,,2022-03-07,1,,,,,ホリカワケンセツ,0
721,3021001075365,新規,0,2022-03-07,2022-03-07,海辺不動産株式会社,,株式会社,神奈川県,相模原市南区,北里１丁目１番２号,,14,153,2520329,,,,,,,2022-03-07,1,,,,,ウミベフドウサン,0
722,3021003011459,新規,0,2022-03-07,2022-03-07,Ｔｏｍｙ’ｓ　Ｃｏｆｆｅｅ合同会社,,合同会社,神奈川県,秦野市,南矢名１丁目４番１号,,14,211,2570003,,,,,,,2022-03-07,1,,,,,トミーズコーヒー,0
730,3030001147025,新規,0,2022-03-07,2022-03-07,株式会社ｉｆ,,株式会社,埼玉県,行田市,栄町１４番６号,,11,206,3610071,,,,,,,2022-03-07,1,,,,,イフ,0
731,3030001147033,新規,0,2022-03-07,2022-03-07,株式会社Ｓｅｐｉａｇｅ,,株式会社,埼玉県,朝霞市,仲町２丁目２－３８アウステル２０１,,11,227,3510006,,,,,,,2022-03-07,1,,,,,セピアージュ,0
732,3030001147132,新規,0,2022-03-07,2022-03-07,株式会社ＷＡＫＡＢＡ,,株式会社,埼玉県,所沢市,緑町３丁目１５番５号,,11,208,3591111,,,,,,,2022-03-07,1,,,,,ワカバ,0
735,3030003018959,新規,0,2022-03-07,2022-03-07,合同会社ｉｎｆｉｎｉｔｙ,,合同会社,埼玉県,さいたま市北区,日進町２丁目４１３番地２,,11,102,3310823,,,,,,,2022-03-07,1,,,,,インフィニティ,0
737,3040001122464,新規,0,2022-03-07,2022-03-07,株式会社ｃｈｉｂａいとう薬局,,株式会社,千葉県,習志野市,谷津１丁目１７番６－６０２号,,12,216,2750026,,,,,,,2022-03-07,1,,,,,チバイトウヤッキョク,0
742,3050001050722,新規,0,2022-03-07,2022-03-07,株式会社グリーンファーム真瀬,,株式会社,茨城県,つくば市,鍋沼新田５７０番地１階,,08,220,3002663,,,,,,,2022-03-07,1,,,,,グリーンファームマセ,0
743,3050001050739,新規,0,2022-03-07,2022-03-07,株式会社茨城ビジネスソリューション,,株式会社,茨城県,ひたちなか市,松戸町３丁目３番２号,,08,221,3120016,,,,,,,2022-03-07,1,,,,,イバラキビジネスソリューション,0
746,3060001034633,新規,0,2022-03-07,2022-03-07,ＭＤＦ株式会社,,株式会社,栃木県,塩谷郡高根沢町,光陽台１丁目９番地３,,09,386,3291232,,,,,,,2022-03-07,1,,,,,エムディーエフ,0
750,3070001039012,新規,0,2022-03-07,2022-03-07,株式会社ＪＣＣ,,株式会社,群馬県,太田市,浜町６４番３－２０１号,,10,205,3730853,,,,,,,2022-03-07,1,,,,,ジェイシーシー,0
753,3070005009960,新規,0,2022-03-07,2022-03-07,一般社団法人ココロのセラピー学園,,その他の設立登記法人,群馬県,高崎市,上佐野町６３２番地２,,10,202,3700857,,,,,,,2022-03-07,1,,,,,ココロノセラピーガクエン,0
759,3080103002544,新規,0,2022-03-07,2022-03-07,スガ・マリンメカニック合同会社,,合同会社,静岡県,伊東市,富戸４５０番地の１,,22,208,4130231,,,,,,,2022-03-07,1,,,,,スガマリンメカニック,0
766,3100003006436,新規,0,2022-03-07,2022-03-07,合同会社スカイコネクト,,合同会社,長野県,安曇野市,豊科５８２４番地１,,20,220,3998205,,,,,,,2022-03-07,1,,,,,スカイコネクト,0
767,3100005012829,新規,0,2022-03-07,2022-03-07,一般社団法人ナナイロ,,その他の設立登記法人,長野県,松本市,大手１丁目３番２９号,,20,202,3900874,,,,,,,2022-03-07,1,,,,,ナナイロ,0
771,3110003004711,新規,0,2022-03-07,2022-03-07,合同会社メディカウェルネス,,合同会社,新潟県,新潟市中央区,新和２丁目１０番１３号ロイヤルガーデンコート新和Ａ棟３０６号,,15,103,9500972,,,,,,,2022-03-07,1,,,,,メディカウェルネス,0
788,3120001244242,新規,0,2022-03-07,2022-03-07,ミューン株式会社,,株式会社,大阪府,大阪市中央区,島之内１丁目７番２１号,,27,128,5420082,,,,,,,2022-03-07,1,,,,,ミューン,0
789,3120001244259,新規,0,2022-03-07,2022-03-07,株式会社進晃ホールディングス,,株式会社,大阪府,大阪市西区,川口４丁目８番２３号,,27,106,5500021,,,,,,,2022-03-07,1,,,,,シンコウホールディングス,0
790,3120001244275,新規,0,2022-03-07,2022-03-07,株式会社ユウコウ,,株式会社,大阪府,大阪市淀川区,新北野１丁目４番２２号,,27,123,5320025,,,,,,,2022-03-07,1,,,,,ユウコウ,0
792,3120003021227,新規,0,2022-03-07,2022-03-07,ニュアンスデザイン合同会社,,合同会社,大阪府,大阪市中央区,久太郎町３丁目４番２号ＷＲＡＰ／英守大阪ビル,,27,128,5410056,,,,,,,2022-03-07,1,,,,,ニュアンスデザイン,0
793,3120005022826,新規,0,2022-03-07,2022-03-07,弁護士法人ブレイス,,その他の設立登記法人,大阪府,大阪市北区,野崎町７番８号梅田パークビル９階,,27,127,5300055,,,,,,,2022-03-07,1,,,,,ブレイス,0
796,3120101065150,新規,0,2022-03-07,2022-03-07,株式会社ＳＥＯＮ,,株式会社,大阪府,堺市堺区,山本町１丁２０番地１（１２２０号）,,27,141,5900983,,,,,,,2022-03-07,1,,,,,セオン,0
797,3120101065167,新規,0,2022-03-07,2022-03-07,株式会社ハイセレクト,,株式会社,大阪府,泉北郡忠岡町,馬瀬２丁目１番６号,,27,341,5950804,,,,,,,2022-03-07,1,,,,,ハイセレクト,0
798,3120101065175,新規,0,2022-03-07,2022-03-07,株式会社Ａ．Ｌ．Ｐ,,株式会社,大阪府,堺市中区,楢葉１７０番地フェルティ・メイツ泉ヶ丘弐番館７０６号,,27,142,5998252,,,,,,,2022-03-07,1,,,,,エーエルピー,0
799,3120101065183,新規,0,2022-03-07,2022-03-07,株式会社はやし,,株式会社,大阪府,大阪狭山市,半田３丁目３６１番地の１（２１１号）,,27,231,5890011,,,,,,,2022-03-07,1,,,,,ハヤシ,0
813,3120901045681,新規,0,2022-03-07,2022-03-07,株式会社グランドエステート,,株式会社,大阪府,豊中市,庄内東町４丁目４－４,,27,203,5610831,,,,,,,2022-03-07,1,,,,,グランドエステート,0
817,3120903004058,新規,0,2022-03-07,2022-03-07,Ａ’Ｌｉｆｅ合同会社,,合同会社,大阪府,茨木市,東奈良２丁目１５番５４号,,27,211,5670861,,,,,,,2022-03-07,1,,,,,アライフ,0
832,3130001071248,新規,0,2022-03-07,2022-03-07,株式会社ミライテック,,株式会社,京都府,舞鶴市,字下安久５４３－５,,26,202,6240914,,,,,,,2022-03-07,1,,,,,ミライテック,0
833,3130001071256,新規,0,2022-03-07,2022-03-07,イーエスジャパン株式会社,,株式会社,京都府,京田辺市,草内宮ノ後２３番地,,26,211,6100311,,,,,,,2022-03-07,1,,,,,イーエスジャパン,0
834,3130001071289,新規,0,2022-03-07,2022-03-07,株式会社ＨＡＫＵＴＯ,,株式会社,京都府,福知山市,字土師１７７６番地の２０３,,26,201,6200857,,,,,,,2022-03-07,1,,,,,ハクト,0
835,3130003007761,新規,0,2022-03-07,2022-03-07,合同会社Ｌｉｖｅ　Ｌｅａｄ,,合同会社,京都府,宇治市,羽拍子町１－１０,,26,204,6110027,,,,,,,2022-03-07,1,,,,,リブリード,0
836,3130003007794,新規,0,2022-03-07,2022-03-07,合同会社リライト,,合同会社,京都府,京都市南区,上鳥羽勧進橋町１５番地,,26,107,6018112,,,,,,,2022-03-07,1,,,,,リライト,0
843,3140001125151,新規,0,2022-03-07,2022-03-07,株式会社渡瀬レッカーサービス,,株式会社,兵庫県,淡路市,斗ノ内６４番地１,,28,226,6561743,,,,,,,2022-03-07,1,,,,,ワタセレッカーサービス,0
846,3140003017421,新規,0,2022-03-07,2022-03-07,合同会社カタカムナ,,合同会社,兵庫県,神戸市東灘区,岡本１丁目１２番２６号マンション藤４０５号,,28,101,6580072,,,,,,,2022-03-07,1,,,,,カタカムナ,0
853,3180001150220,新規,0,2022-03-07,2022-03-07,株式会社幸進,,株式会社,愛知県,瀬戸市,駒前町２９１番地,,23,204,4890974,,,,,,,2022-03-07,1,,,,,コウシン,0
854,3180001150261,新規,0,2022-03-07,2022-03-07,株式会社前田通信,,株式会社,愛知県,小牧市,岩崎原１丁目２３番２号,,23,219,4850017,,,,,,,2022-03-07,1,,,,,マエダツウシン,0
855,3180001150336,新規,0,2022-03-07,2022-03-07,株式会社大東,,株式会社,愛知県,名古屋市緑区,鳴海町字中汐田１０８番地,,23,114,4580801,,,,,,,2022-03-07,1,,,,,ダイトウ,0
856,3180001150344,新規,0,2022-03-07,2022-03-07,株式会社ブライトハート,,株式会社,愛知県,名古屋市瑞穂区,駒場町５丁目１１番地フォレスティア桜山４０３,,23,108,4670807,,,,,,,2022-03-07,1,,,,,ブライトハート,0
858,3180301035996,新規,0,2022-03-07,2022-03-07,ＢＲＦ株式会社,,株式会社,愛知県,岡崎市,北野町字西山３２番地,,23,202,4440951,,,,,,,2022-03-07,1,,,,,ビーアールエフ,0
859,3180301036004,新規,0,2022-03-07,2022-03-07,株式会社ＯＡＳＩＳ　ＧＲＯＵＰ,,株式会社,愛知県,豊田市,駒新町大坂１００番地１,,23,211,4730926,,,,,,,2022-03-07,1,,,,,オアシスグループ,0
860,3180303005270,新規,0,2022-03-07,2022-03-07,合同会社スフェーン,,合同会社,愛知県,豊田市,浄水町原山３２０番地２Ｔステージ浄水駅前ルミナリータワー７０１号,,23,211,4700343,,,,,,,2022-03-07,1,,,,,スフェーン,0
861,3180305009311,新規,0,2022-03-07,2022-03-07,一般社団法人オクシモロンズ,,その他の設立登記法人,愛知県,知立市,池端２丁目３６番地,,23,225,4720025,,,,,,,2022-03-07,1,,,,,オクシモロンズ,0
862,3190003003912,新規,0,2022-03-07,2022-03-07,合同会社燕,,合同会社,三重県,伊勢市,勢田町４８番地,,24,203,5160035,,,,,,,2022-03-07,1,,,,,ツバメ,0
869,3210005010012,新規,0,2022-03-07,2022-03-07,社会福祉法人すのうどろっぷ,,その他の設立登記法人,福井県,福井市,和田東１丁目１６０６番地,,18,201,9188237,,,,,,,2022-03-07,1,,,,,スノウドロップ,0
879,3240001059430,新規,0,2022-03-07,2022-03-07,ＥＶＥＮＴＯＳホールディングス株式会社,,株式会社,広島県,広島市中区,舟入中町４番３５号,,34,101,7300842,,,,,,,2022-03-07,1,,,,,イベントスホールディングス,0
881,3260003003822,新規,0,2022-03-07,2022-03-07,合同会社ＲＥＣＲＯ,,合同会社,岡山県,倉敷市,連島町矢柄６１９５番地,,33,202,7128015,,,,,,,2022-03-07,1,,,,,レクロ,0
882,3260003003830,新規,0,2022-03-07,2022-03-07,ＬａｐｉｓＤｅｓｉｇｎ合同会社,,合同会社,岡山県,岡山市中区,西川原１丁目５番１７－１２,,33,102,7038258,,,,,,,2022-03-07,1,,,,,ラピスデザイン,0
888,3290001096618,新規,0,2022-03-07,2022-03-07,株式会社ｄｏｕｂｌｅ　ｅｓｔａｔｅ,,株式会社,福岡県,福岡市博多区,博多駅東２丁目４番３０号２０２,,40,132,8120013,,,,,,,2022-03-07,1,,,,,ダブルエステート,0
889,3290001096683,新規,0,2022-03-07,2022-03-07,株式会社ストリートトランスポーター,,株式会社,福岡県,福岡市早良区,室見３丁目８番８号,,40,137,8140015,,,,,,,2022-03-07,1,,,,,ストリートトランスポーター,0
890,3290001096700,新規,0,2022-03-07,2022-03-07,ライフデコレーション株式会社,,株式会社,福岡県,福岡市博多区,竹丘町１丁目１－２２,,40,132,8120878,,,,,,,2022-03-07,1,,,,,ライフデコレーション,0
891,3290001096709,新規,0,2022-03-07,2022-03-07,株式会社マントクラーメン,,株式会社,福岡県,朝倉市,甘木３３１番地５,,40,228,8380068,,,,,,,2022-03-07,1,,,,,マントクラーメン,0
895,3290003012234,新規,0,2022-03-07,2022-03-07,合同会社Ｔｏｔａｌ　Ａｕｔｏ　Ｒｅｐａｉｒ,,合同会社,福岡県,久留米市,三潴町高三潴３９８番地４,,40,203,8300103,,,,,,,2022-03-07,1,,,,,トータルオートリペア,0
896,3290003012242,新規,0,2022-03-07,2022-03-07,サイバーデスク合同会社,,合同会社,福岡県,久留米市,三潴町福光５５６番地１ハピネスファンファン１０２号,,40,203,8300114,,,,,,,2022-03-07,1,,,,,サイバーデスク,0
899,3290801028308,新規,0,2022-03-07,2022-03-07,株式会社いきものがかり,,株式会社,福岡県,北九州市小倉北区,魚町１丁目４番１５号地下一階,,40,106,8020006,,,,,,,2022-03-07,1,,,,,イキモノガカリ,0
900,3290801028324,新規,0,2022-03-07,2022-03-07,株式会社ドッグ愛ランド,,株式会社,福岡県,中間市,岩瀬西町２１番８号,,40,215,8090041,,,,,,,2022-03-07,1,,,,,,0
907,3310005008590,新規,0,2022-03-07,2022-03-07,医療法人仁和会,,その他の設立登記法人,長崎県,北松浦郡佐々町,口石免３６６－１,,42,391,8570352,,,,,,,2022-03-07,1,,,,,ジンワカイ,0
910,3320003003741,新規,0,2022-03-07,2022-03-07,気合楽合同会社,,合同会社,大分県,速見郡日出町,大字藤原１９９６番地２,,44,341,8791502,,,,,,,2022-03-07,1,,,,,キアラ,0
922,3360001030098,新規,0,2022-03-07,2022-03-07,株式会社ＢＲＺ,,株式会社,沖縄県,那覇市,天久２丁目２８番６号プレジャー２０２号,,47,201,9000005,,,,,,,2022-03-07,1,,,,,ビーアールゼット,0
927,3370001048288,新規,0,2022-03-07,2022-03-07,株式会社叢生,,株式会社,宮城県,名取市,美田園２丁目１番地の２－４０９号,,04,207,9811217,,,,,,,2022-03-07,1,,,,,ソウセイ,0
933,3400005008219,新規,0,2022-03-07,2022-03-07,一般社団法人新しい絆,,その他の設立登記法人,岩手県,盛岡市,東見前４地割１８番地８,,03,201,0200832,,,,,,,2022-03-07,1,,,,,アタラシイキズナ,0
937,3420003002469,新規,0,2022-03-07,2022-03-07,合同会社吉克,,合同会社,青森県,三沢市,日の出２丁目９４番地１１２３号,,02,207,0330154,,,,,,,2022-03-07,1,,,,,ヨシカツ,0
940,3440001009043,新規,0,2022-03-07,2022-03-07,株式会社ＣＫサービス,,株式会社,北海道,函館市,大森町８番１５号,,01,202,0400034,,,,,,,2022-03-07,1,,,,,シーケーサービス,0
941,3470005006422,新規,0,2022-03-07,2022-03-07,一般社団法人神舞匠,,その他の設立登記法人,香川県,高松市,香南町横井６１２－５,,37,201,7611404,,,,,,,2022-03-07,1,,,,,カムブショウ,0
946,3500001024052,新規,0,2022-03-07,2022-03-07,株式会社ＹＡＮＯ塾,,株式会社,愛媛県,松山市,湯渡町８番２０号,,38,201,7900862,,,,,,,2022-03-07,1,,,,,ヤノジュク,0
961,4010001224898,新規,0,2022-03-07,2022-03-07,株式会社ＡＺＳｔｕｄｉｏ,,株式会社,東京都,千代田区,神田多町２丁目５番地１神田リープレックスリズ４０１号,,13,101,1010046,,,,,,,2022-03-07,1,,,,,アズスタジオ,0
962,4010001224948,新規,0,2022-03-07,2022-03-07,株式会社ＹＳＫ５,,株式会社,東京都,千代田区,麹町１丁目６番地９ＤＩＫ麹町ビル,,13,101,1020083,,,,,,,2022-03-07,1,,,,,ワイエスケーファイブ,0
963,4010001224956,新規,0,2022-03-07,2022-03-07,ｒｅｖｅｒＳＡＳＰ　Ｔｈｅｒａｐｅｕｔｉｃｓ株式会社,,株式会社,東京都,文京区,本郷４丁目１番４号ＤｅｓｉｇｎＰｌａｃｅα８階,,13,105,1130033,,,,,,,2022-03-07,1,,,,,リベルサスプセラピューティクス,0
964,4010001224964,新規,0,2022-03-07,2022-03-07,株式会社アンテリジョン,,株式会社,東京都,中央区,日本橋堀留町１丁目３番１８号堀一ビル,,13,102,1030012,,,,,,,2022-03-07,1,,,,,アンテリジョン,0
965,4010001224980,新規,0,2022-03-07,2022-03-07,株式会社Ｌｉｄｓｅｃ,,株式会社,東京都,中央区,勝どき６丁目３－１ＴＨＥＴＯＫＹＯＴＯＷＥＲＳＳＥＡＴＯＷＥＲ２２１６,,13,102,1040054,,,,,,,2022-03-07,1,,,,,ライドセック,0
966,4010001224989,新規,0,2022-03-07,2022-03-07,株式会社ゼロワンブースターホールディングス,,株式会社,東京都,千代田区,有楽町１丁目１２番１号,,13,101,1000006,,,,,,,2022-03-07,1,,,,,ゼロワンブースターホールディングス,0
967,4010001224997,新規,0,2022-03-07,2022-03-07,Ｉｎｃｌｕｓｉｏｎ株式会社,,株式会社,東京都,千代田区,神田神保町１丁目８番地－３０１号ＤＪＰ内,,13,101,1010051,,,,,,,2022-03-07,1,,,,,インクルージョン,0
968,4010001225038,新規,0,2022-03-07,2022-03-07,株式会社Ｃｏ－ｔｅｄ,,株式会社,東京都,千代田区,九段南１丁目５－６りそな九段ビル５ＦＫＳフロア,,13,101,1020074,,,,,,,2022-03-07,1,,,,,コーテッド,0
971,4010003037142,新規,0,2022-03-07,2022-03-07,合同会社輝井堂,,合同会社,東京都,中央区,入船２丁目４番４号今村ビル４０１,,13,102,1040042,,,,,,,2022-03-07,1,,,,,テルイドウ,0
972,4010005034674,新規,0,2022-03-07,2022-03-07,一般社団法人遠隔手話通訳協会,,その他の設立登記法人,東京都,千代田区,紀尾井町３番３３号プリンス通ビル２階,,13,101,1020094,,,,,,,2022-03-07,1,,,,,エンカクシュワツウヤクキョウカイ,0
981,4010401165916,新規,0,2022-03-07,2022-03-07,Ｍｅｔａｔｅｃｈ株式会社,,株式会社,東京都,港区,北青山２丁目７番１３号プラセオ青山ビル３階,,13,103,1070061,,,,,,,2022-03-07,1,,,,,メタテック,0
982,4010401165998,新規,0,2022-03-07,2022-03-07,株式会社モンシーニュ,,株式会社,東京都,港区,南青山３丁目１０番４１号ジュエル青山ビル２０２号,,13,103,1070062,,,,,,,2022-03-07,1,,,,,モンシーニュ,0
985,4010403027172,新規,0,2022-03-07,2022-03-07,合同会社富士,,合同会社,東京都,港区,新橋２丁目１６番１－１０１６号,,13,103,1050004,,,,,,,2022-03-07,1,,,,,フジ,0
986,4010403027189,新規,0,2022-03-07,2022-03-07,合同会社プロアクティブアセット,,合同会社,東京都,港区,南青山２丁目２２番１４－７０２号,,13,103,1070062,,,,,,,2022-03-07,1,,,,,プロアクティブアセット,0
987,4010403027197,新規,0,2022-03-07,2022-03-07,ｔｈａｔｇａｍｅｃｏｍｐａｎｙ　Ｊａｐａｎ合同会社,,合同会社,東京都,港区,南麻布３丁目１９番２３号オーク南麻布ビル２階,,13,103,1060047,,,,,,,2022-03-07,1,,,,,ザットゲームカンパニージャパン,0
988,4010501048533,新規,0,2022-03-07,2022-03-07,株式会社エル・ユー・オー,,株式会社,東京都,台東区,根岸３丁目１２番１１号,,13,106,1100003,,,,,,,2022-03-07,1,,,,,エルユーオー,0
993,4010601060801,新規,0,2022-03-07,2022-03-07,ＡＮｊｏｕ　Ｍａｎａｇｅｍｅｎｔ　Ｃｏｎｓｕｌｔｉｎｇ株式会社,,株式会社,東京都,江東区,東雲１丁目９番４号,,13,108,1350062,,,,,,,2022-03-07,1,,,,,アンジューマネジメントコンサルティング,0
1000,4010901050485,新規,0,2022-03-07,2022-03-07,株式会社サイファンクション,,株式会社,東京都,世田谷区,世田谷２丁目２４番１号パレ・ソレイユ世田谷弐丁目３０５号室,,13,112,1540017,,,,,,,2022-03-07,1,,,,,サイファンクション,0
1002,4010903007194,新規,0,2022-03-07,2022-03-07,Ｓｕｎｎｙ　Ｐｉｃｔｕｒｅｓ合同会社,,合同会社,東京都,世田谷区,成城４丁目９番２４号,,13,112,1570066,,,,,,,2022-03-07,1,,,,,サニーピクチャーズ,0
1003,4010905004272,新規,0,2022-03-07,2022-03-07,医療法人社団咲仁,,その他の設立登記法人,東京都,世田谷区,等々力３丁目５番１１号ライオンズマンション等々力第５－１階,,13,112,1580082,,,,,,,2022-03-07,1,,,,,エミヒト,0
1006,4011001146018,新規,0,2022-03-07,2022-03-07,株式会社Ａｄ－ＯＮＥ,,株式会社,東京都,渋谷区,道玄坂１丁目２０番８号寿パークビル７階,,13,113,1500043,,,,,,,2022-03-07,1,,,,,アドワン,0
1007,4011001146100,新規,0,2022-03-07,2022-03-07,株式会社Ａｄａｍａｓ　Ｄｅｗ,,株式会社,東京都,渋谷区,恵比寿南２丁目７番１６号,,13,113,1500022,,,,,,,2022-03-07,1,,,,,アダマスデュウ,0
1008,4011001146109,新規,0,2022-03-07,2022-03-07,株式会社エクレ,,株式会社,東京都,目黒区,目黒１丁目４番１１号,,13,110,1530063,,,,,,,2022-03-07,1,,,,,エクレ,0
1009,4011001146117,新規,0,2022-03-07,2022-03-07,株式会社櫻井家,,株式会社,東京都,目黒区,柿の木坂２丁目１５番２号,,13,110,1520022,,,,,,,2022-03-07,1,,,,,サクライヤ,0
1010,4011001146125,新規,0,2022-03-07,2022-03-07,エスティーエー株式会社,,株式会社,東京都,渋谷区,渋谷２丁目１９番１５号宮益坂ビルディング６０９,,13,113,1500002,,,,,,,2022-03-07,1,,,,,エスティーエー,0
1011,4011001146133,新規,0,2022-03-07,2022-03-07,株式会社ＫＡＧＥＲＯＵ,,株式会社,東京都,渋谷区,道玄坂２丁目１９番６号ＳＱＵＡＲＥ渋谷３０９,,13,113,1500043,,,,,,,2022-03-07,1,,,,,カゲロウ,0
1014,4011003014305,新規,0,2022-03-07,2022-03-07,合同会社Ｇｏｄ　Ｊｕｌ,,合同会社,東京都,渋谷区,幡ヶ谷１丁目２４番１０号,,13,113,1510072,,,,,,,2022-03-07,1,,,,,ゴーユール,0
1015,4011003014313,新規,0,2022-03-07,2022-03-07,タイソンキャピタル２号合同会社,,合同会社,東京都,渋谷区,上原１丁目１７番１４号,,13,113,1510064,,,,,,,2022-03-07,1,,,,,タイソンキャピタルニゴウ,0
1025,4011101098019,新規,0,2022-03-07,2022-03-07,株式会社ＭＳＡ,,株式会社,東京都,新宿区,高田馬場２丁目１４番２号新陽ビル７０５,,13,104,1690075,,,,,,,2022-03-07,1,,,,,エムエスエー,0
1028,4011201023693,新規,0,2022-03-07,2022-03-07,株式会社ワールドブライト,,株式会社,東京都,中野区,本町２丁目４５番４号,,13,114,1640012,,,,,,,2022-03-07,1,,,,,ワールドブライト,0
1031,4011305002809,新規,0,2022-03-07,2022-03-07,一般社団法人Ｌｅｇａｌ　Ｉｎｉｔｉａｔｉｖｅ　ｆｏｒ　Ｓｔａｒｔｕｐｓ,,その他の設立登記法人,東京都,杉並区,下高井戸５丁目１３番３号,,13,115,1680073,,,,,,,2022-03-07,1,,,,,リーガルイニシアティブフォースタートアップス,0
1032,4011401024079,新規,0,2022-03-07,2022-03-07,山田エステート株式会社,,株式会社,東京都,板橋区,成増４丁目７番７号,,13,119,1750094,,,,,,,2022-03-07,1,,,,,ヤマダエステート,0
1043,4012801021434,新規,0,2022-03-07,2022-03-07,株式会社佐藤石材工業,,株式会社,東京都,東大和市,狭山５丁目１６２０番地の６,,13,220,2070003,,,,,,,2022-03-07,1,,,,,サトウセキザイコウギョウ,0
1044,4012803002721,新規,0,2022-03-07,2022-03-07,ＬｉＮＫ合同会社,,合同会社,東京都,立川市,砂川町３丁目３番地の２１レインツリー二番館１０１号室,,13,202,1900031,,,,,,,2022-03-07,1,,,,,リンク,0
1054,4020001145499,新規,0,2022-03-07,2022-03-07,株式会社モナ,,株式会社,神奈川県,川崎市高津区,子母口７０１番地２,,14,134,2130023,,,,,,,2022-03-07,1,,,,,モナ,0
1058,4021001075323,新規,0,2022-03-07,2022-03-07,株式会社ＴＲＣ　ｔｒａｄｉｎｇ,,株式会社,神奈川県,藤沢市,片瀬３丁目３－３７,,14,205,2510032,,,,,,,2022-03-07,1,,,,,ティーアールシートレーディング,0
1059,4021001075331,新規,0,2022-03-07,2022-03-07,株式会社ＣＲＵＩＳＥＲ,,株式会社,神奈川県,鎌倉市,常盤２４１番地３,,14,204,2480022,,,,,,,2022-03-07,1,,,,,クルーザー,0
1060,4021001075356,新規,0,2022-03-07,2022-03-07,株式会社ＭＯＲＥ　ＳＰＯＲＴＳ,,株式会社,神奈川県,厚木市,愛甲４丁目２２番３号ベルハイツ庄司ＩＩ－１０２,00125887,14,212,2430035,,,,,,,2022-03-07,1,,,,,モアスポーツ,0
1062,4021005012454,新規,0,2022-03-07,2022-03-07,一般社団法人はやしアスレチッククラブ,,その他の設立登記法人,神奈川県,厚木市,戸室２丁目２１番７－３１０号,,14,212,2430031,,,,,,,2022-03-07,1,,,,,ハヤシアスレチッククラブ,0
1066,4030001147081,新規,0,2022-03-07,2022-03-07,株式会社ＡＫＡＴＳＵＫＩ,,株式会社,埼玉県,戸田市,笹目４丁目２０番地の１３,,11,224,3350034,,,,,,,2022-03-07,1,,,,,アカツキ,0
1067,4030001147164,新規,0,2022-03-07,2022-03-07,グレイスオブジャパン株式会社,,株式会社,埼玉県,川越市,仲町１番地１４神山ビル,,11,201,3500065,,,,,,,2022-03-07,1,,,,,グレイスオブジャパン,0
1072,4030003018966,新規,0,2022-03-07,2022-03-07,合同会社ハングリーベア,,合同会社,埼玉県,川口市,大字神戸７９５番地の８,,11,203,3330832,,,,,,,2022-03-07,1,,,,,ハングリーベア,0
1073,4030003018982,新規,0,2022-03-07,2022-03-07,合同会社ｗｉｔｈ　ｆｅｅｌｉｎｇ,,合同会社,埼玉県,さいたま市南区,鹿手袋２丁目１番１０－６０４号,,11,108,3360031,,,,,,,2022-03-07,1,,,,,ウィズフィーリング,0
1074,4030005020739,新規,0,2022-03-07,2022-03-07,みらい社会保険労務士法人,,その他の設立登記法人,埼玉県,所沢市,大字北秋津１１６７番地の７,,11,208,3590038,,,,,,,2022-03-07,1,,,,,ミライ,0
1078,4040001122505,新規,0,2022-03-07,2022-03-07,株式会社Ｎｏ．３９１,,株式会社,千葉県,流山市,南流山７丁目３３番地の２１,,12,220,2700163,,,,,,,2022-03-07,1,,,,,ナンバーサンキュウイチ,0
1079,4040001122521,新規,0,2022-03-07,2022-03-07,株式会社バイタルサービス,,株式会社,千葉県,流山市,南流山１丁目１９番１号,,12,220,2700163,,,,,,,2022-03-07,1,,,,,バイタルサービス,0
1082,4040003019559,新規,0,2022-03-07,2022-03-07,合同会社ＬＩＴＴ,,合同会社,千葉県,市原市,ちはら台東７丁目１１－１１０,,12,219,2900141,,,,,,,2022-03-07,1,,,,,リット,0
1083,4040003019625,新規,0,2022-03-07,2022-03-07,Ｋ＆Ｈファクトリー合同会社,,合同会社,千葉県,成田市,中台３丁目４番地（１棟３０４号）,,12,211,2860015,,,,,,,2022-03-07,1,,,,,ケーアンドエイチファクトリー,0
1085,4050001050721,新規,0,2022-03-07,2022-03-07,株式会社ＴＡＳＵＫＩ,,株式会社,茨城県,つくば市,千現２丁目８番地３セジュール進伸Ｃ１０１号室,,08,220,3050047,,,,,,,2022-03-07,1,,,,,タスキ,0
1104,4100003006435,新規,0,2022-03-07,2022-03-07,合同会社Ｍａｒｋ－Ｎ,,合同会社,長野県,諏訪市,大字湖南６５３４番地５,,20,206,3920131,,,,,,,2022-03-07,1,,,,,マークエヌ,0
1122,4120001244175,新規,0,2022-03-07,2022-03-07,株式会社京丹後スポオカ,,株式会社,大阪府,大阪市東住吉区,今川１丁目４番２３号,,27,121,5460003,,,,,,,2022-03-07,1,,,,,キョウタンゴスポオカ,0
1123,4120001244191,新規,0,2022-03-07,2022-03-07,株式会社桔梗サービス,,株式会社,大阪府,大阪市浪速区,稲荷１丁目１２番３－８０２号,,27,111,5560023,,,,,,,2022-03-07,1,,,,,キキョウサービス,0
1124,4120001244217,新規,0,2022-03-07,2022-03-07,株式会社Ｋｅｙｐａｃｅ,,株式会社,大阪府,大阪市阿倍野区,三明町２丁目１１番２８号,,27,119,5450005,,,,,,,2022-03-07,1,,,,,キーペース,0
1125,4120001244266,新規,0,2022-03-07,2022-03-07,マルゲイチェアリングベア株式会社,,株式会社,大阪府,大阪市中央区,安土町２丁目５－５本町明大ビル４階,,27,128,5410052,,,,,,,2022-03-07,1,,,,,マルゲイチェアリングベア,0
1126,4120003021234,新規,0,2022-03-07,2022-03-07,合同会社Ｙｏｓｈｉｉ　Ｐｒｏｊｅｃｔ,,合同会社,大阪府,大阪市浪速区,敷津東２丁目１番地２４号なんばグランドマスターズタワー２０３,,27,111,5560012,,,,,,,2022-03-07,1,,,,,ヨシイプロジェクト,0
1128,4120101065166,新規,0,2022-03-07,2022-03-07,株式会社ＦＬＡＧＧＥＲＳ,,株式会社,大阪府,松原市,一津屋５丁目１８－２８,,27,217,5800003,,,,,,,2022-03-07,1,,,,,フラッガーズ,0
1129,4120101065174,新規,0,2022-03-07,2022-03-07,株式会社アーネスト,,株式会社,大阪府,泉大津市,東雲町１番２８－６０４号,,27,206,5950026,,,,,,,2022-03-07,1,,,,,アーネスト,0
1130,4120101065190,新規,0,2022-03-07,2022-03-07,株式会社鮨おおが,,株式会社,大阪府,堺市堺区,大町東１丁２番７号,,27,141,5900954,,,,,,,2022-03-07,1,,,,,スシオオガ,0
1138,4120901045689,新規,0,2022-03-07,2022-03-07,株式会社Ｎｅ－ｗｏｒｔｈ,,株式会社,大阪府,茨木市,沢良宜浜２丁目１０－３０,,27,211,5670864,,,,,,,2022-03-07,1,,,,,ニューワース,0
1139,4120903004057,新規,0,2022-03-07,2022-03-07,合同会社カネマス設備,,合同会社,大阪府,池田市,八王寺１丁目２番１０号ＣＡＳＡ八王寺,,27,204,5630037,,,,,,,2022-03-07,1,,,,,カネマスセツビ,0
1141,4122001035645,新規,0,2022-03-07,2022-03-07,株式会社Ｈ＆Ｉ,,株式会社,大阪府,東大阪市,若江東町４丁目１番６号,,27,227,5780935,,,,,,,2022-03-07,1,,,,,エイチアンドアイ,0
1142,4130001071239,新規,0,2022-03-07,2022-03-07,株式会社ギオンメディア,,株式会社,京都府,京都市下京区,朱雀宝蔵町４４番地協栄ビル２階京都朱雀スタジオ,,26,106,6008846,,,,,,,2022-03-07,1,,,,,ギオンメディア,0
1145,4130003007793,新規,0,2022-03-07,2022-03-07,合同会社マツ,,合同会社,京都府,京都市右京区,龍安寺西ノ川町２４番地２３,,26,108,6168016,,,,,,,2022-03-07,1,,,,,マツ,0
1147,4140001125150,新規,0,2022-03-07,2022-03-07,株式会社ｈａｒｍｏｎｉｏｕｓ　ｆａｍｉｌｙ,,株式会社,兵庫県,川西市,錦松台２６番１５号,,28,217,6660135,,,,,,,2022-03-07,1,,,,,ハーモニアスファミリー,0
1150,4150001025390,新規,0,2022-03-07,2022-03-07,株式会社千葉興業,,株式会社,奈良県,吉野郡十津川村,大字出谷３５３番地,,29,449,6371558,,,,,,,2022-03-07,1,,,,,チバコウギョウ,0
1161,4180001150203,新規,0,2022-03-07,2022-03-07,株式会社ウイステリア,,株式会社,愛知県,海部郡大治町,大字西條字城前田１９番地１８,,23,424,4901144,,,,,,,2022-03-07,1,,,,,ウイステリア,0
1162,4180001150236,新規,0,2022-03-07,2022-03-07,ティーエス株式会社,,株式会社,愛知県,春日井市,東野町１０丁目１４番地４コアビル３Ａ,,23,206,4860817,,,,,,,2022-03-07,1,,,,,ティーエス,0
1163,4180001150327,新規,0,2022-03-07,2022-03-07,株式会社ＣＨ　ｗｏｒｋｓ,,株式会社,愛知県,長久手市,岩作長池１９番地１,,23,238,4801103,,,,,,,2022-03-07,1,,,,,シーエイチワークス,0
1165,4180003023563,新規,0,2022-03-07,2022-03-07,合同会社ＪＵＳＴ　ＦＯＲ　ＦＵＮ,,合同会社,愛知県,清須市,西枇杷島町日之出１丁目２番,,23,233,4520034,,,,,,,2022-03-07,1,,,,,ジャストフォーファン,0
1166,4180005019667,新規,0,2022-03-07,2022-03-07,医療法人くさまみなとクリニック,,その他の設立登記法人,愛知県,名古屋市港区,油屋町３丁目５番地２,,23,111,4550815,,,,,,,2022-03-07,1,,,,,クサマミナトクリニック,0
1177,4220001024716,新規,0,2022-03-07,2022-03-07,株式会社波乱盤上,,株式会社,石川県,金沢市,木倉町２番２号,,17,201,9200988,,,,,,,2022-03-07,1,,,,,ハランバンジョウ,0
1178,4220001024724,新規,0,2022-03-07,2022-03-07,オン株式会社,,株式会社,石川県,白山市,北安田西２丁目３８番地,,17,210,9240039,,,,,,,2022-03-07,1,,,,,オン,0
1179,4220001024732,新規,0,2022-03-07,2022-03-07,株式会社ミヤファーム,,株式会社,石川県,加賀市,三木町ニ１３５番地１,,17,206,9220854,,,,,,,2022-03-07,1,,,,,ミヤファーム,0
1180,4220005008640,新規,0,2022-03-07,2022-03-07,税理士法人山内会計,,その他の設立登記法人,石川県,金沢市,西念３丁目２９番３２号,,17,201,9200024,,,,,,,2022-03-07,1,,,,,ヤマウチカイケイ,0
1185,4240001059413,新規,0,2022-03-07,2022-03-07,株式会社ＡＹＡ’ｈ,,株式会社,広島県,広島市安佐南区,長束６丁目５番２２－３号,,34,105,7310135,,,,,,,2022-03-07,1,,,,,アヤ,0
1186,4240001059421,新規,0,2022-03-07,2022-03-07,株式会社中山技研工業,,株式会社,広島県,広島市南区,南蟹屋１丁目３－３５－１１０２,,34,103,7320803,,,,,,,2022-03-07,1,,,,,ナカヤマギケンコウギョウ,0
1191,4240003005539,新規,0,2022-03-07,2022-03-07,合同会社シンナオ,,合同会社,広島県,広島市安佐南区,伴北７丁目６７番１号,,34,105,7313163,,,,,,,2022-03-07,1,,,,,シンナオ,0
1199,4290001096617,新規,0,2022-03-07,2022-03-07,株式会社Ｙａｍａｍａｎ　Ｔｒａｄｉｎｇ,,株式会社,福岡県,筑後市,大字山ノ井６６８番地１０,,40,211,8330031,,,,,,,2022-03-07,1,,,,,ヤママントレーディング,0
1200,4290001096641,新規,0,2022-03-07,2022-03-07,株式会社ゆきち設計,,株式会社,福岡県,久留米市,田主丸町長栖５６５番地１１,,40,203,8391201,,,,,,,2022-03-07,1,,,,,ユキチセッケイ,0
1201,4290001096682,新規,0,2022-03-07,2022-03-07,株式会社ＩＴＣコーポレーション,,株式会社,福岡県,福岡市南区,柏原６丁目１５番１３号,,40,134,8111353,,,,,,,2022-03-07,1,,,,,アイティーシーコーポレーション,0
1202,4290001096690,新規,0,2022-03-07,2022-03-07,株式会社ＳＴＣ,,株式会社,福岡県,八女市,津江５６８番地３,,40,210,8340024,,,,,,,2022-03-07,1,,,,,エスティーシー,0
1203,4290001096699,新規,0,2022-03-07,2022-03-07,ａｃｃｅｎｔ株式会社,,株式会社,福岡県,福岡市中央区,春吉２丁目４－１１－７０１,,40,133,8100003,,,,,,,2022-03-07,1,,,,,アクセント,0
1212,4290803004074,新規,0,2022-03-07,2022-03-07,合同会社居場所,,合同会社,福岡県,北九州市小倉北区,京町１丁目６番３６－６０１号,,40,106,8020002,,,,,,,2022-03-07,1,,,,,イバショ,0
1213,4300003001804,新規,0,2022-03-07,2022-03-07,合同会社吉博,,合同会社,佐賀県,西松浦郡有田町,原明乙２６５番地,,41,401,8494176,,,,,,,2022-03-07,1,,,,,ヨシヒロ,0
1226,4340003003730,新規,0,2022-03-07,2022-03-07,ＥＣＬＡｉＲＥＲ合同会社,,合同会社,鹿児島県,鹿児島市,小原町３４－１７,,46,201,8910111,,,,,,,2022-03-07,1,,,,,エクレレ,0
1228,4360001030072,新規,0,2022-03-07,2022-03-07,ＴＫ　ｉｎｖｅｓｔｍｅｎｔ株式会社,,株式会社,沖縄県,那覇市,松尾２丁目１２番１６号プレサンスロジェ松尾レーヴタワー１１０３号室,,47,201,9000014,,,,,,,2022-03-07,1,,,,,ティーケーインベストメント,0
1233,4380003005120,新規,0,2022-03-07,2022-03-07,Ｃｈｅａｐ　Ｃｈｉｃ　Ｂｒｅｗｉｎｇ合同会社,,合同会社,福島県,会津若松市,北会津町下野１８２番地,,07,202,9696013,,,,,,,2022-03-07,1,,,,,チープシックブリューイング,0
1235,4400001015804,新規,0,2022-03-07,2022-03-07,東北バイオエンジニアリング株式会社,,株式会社,岩手県,盛岡市,大通３丁目６番１２号,,03,201,0200022,,,,,,,2022-03-07,1,,,,,トウホクバイオエンジニアリング,0
1243,4430001086149,新規,0,2022-03-07,2022-03-07,北海道ビジネスエステート株式会社,,株式会社,北海道,札幌市北区,北三十二条西５丁目３番２８号,,01,102,0010032,,,,,,,2022-03-07,1,,,,,,0
1246,4430003013679,新規,0,2022-03-07,2022-03-07,合同会社サント建業,,合同会社,北海道,札幌市北区,新琴似十二条１１丁目７番１７号,,01,102,0010912,,,,,,,2022-03-07,1,,,,,サントケンギョウ,0
1247,4450003002184,新規,0,2022-03-07,2022-03-07,合同会社石北,,合同会社,北海道,旭川市,永山三条１９丁目３番１号,,01,204,0798413,,,,,,,2022-03-07,1,,,,,セキホク,0
1254,4700150099304,新規,0,2022-03-07,2020-06-08,田村市エゴマ振興協議会,,その他,福島県,田村市,船引町船引字馬場２４－１,,07,211,9634312,,,,,,,2020-06-08,1,,,,,タムラシエゴマシンコウキヨウギカイ,0
1265,5010001224988,新規,0,2022-03-07,2022-03-07,株式会社マクアケデザイン,,株式会社,東京都,中央区,銀座１丁目１５番７号,,13,102,1040061,,,,,,,2022-03-07,1,,,,,マクアケデザイン,0
1266,5010001225037,新規,0,2022-03-07,2022-03-07,株式会社レノプロテクト,,株式会社,東京都,中央区,日本橋２丁目１６番６号,,13,102,1030027,,,,,,,2022-03-07,1,,,,,レノプロテクト,0
1269,5010005034673,新規,0,2022-03-07,2022-03-07,一般財団法人ＪＡＣ環境動物保護財団,,その他の設立登記法人,東京都,千代田区,神田神保町１丁目１０５番地神保町三井ビルディング１４階,,13,101,1010051,,,,,,,2022-03-07,1,,,,,ジェイエイシーカンキョウドウブツホゴザイダン,0
1270,5010005034681,新規,0,2022-03-07,2022-03-07,Ｒａｉｎｂｏｗ　Ｒａｄｉ一般社団法人,,その他の設立登記法人,東京都,千代田区,丸の内３丁目１番１号東京共同会計事務所内,,13,101,1000005,,,,,,,2022-03-07,1,,,,,レインボーラディ,0
1280,5010403027213,新規,0,2022-03-07,2022-03-07,ＰＫ　ＬＥＮＤＩＮＧ　ＡＶＩＡＴＩＯＮ　ＮＯＴＥＳ　ＥＱＵＩＰＭＥＮＴ　ＳＥＲＩＥＳ　ＪＰＮ　ＳＵＢ合同会社,,合同会社,東京都,港区,虎ノ門２丁目１０番４号オークラプレステージタワー,,13,103,1050001,,,,,,,2022-03-07,1,,,,,ピーケーレンディングアビエーションノーツエクイプメントシリーズジャパンサブ,0
1281,5010403027238,新規,0,2022-03-07,2022-03-07,Ｒｕｐａ合同会社,,合同会社,東京都,港区,南麻布４丁目４番３号ＴｅｎｊｉｎＲｕｂｙＨｉｒｏｏ２０１,,13,103,1060047,,,,,,,2022-03-07,1,,,,,ルーパ,0
1283,5010405020769,新規,0,2022-03-07,2022-03-07,一般社団法人シニアビジネスネットワーク,,その他の設立登記法人,東京都,港区,赤坂３丁目４番３号赤坂ゲイトウェイビル８階（株式会社ソナエル内）,,13,103,1070052,,,,,,,2022-03-07,1,,,,,シニアビジネスネットワーク,0
1286,5010503006521,新規,0,2022-03-07,2022-03-07,合同会社ＦＶＣ,,合同会社,東京都,台東区,橋場１丁目１８－２－３０３,,13,106,1110023,,,,,,,2022-03-07,1,,,,,エフブイシー,0
1296,5010901050468,新規,0,2022-03-07,2022-03-07,株式会社クレノス,,株式会社,東京都,世田谷区,上北沢４丁目３４番１５－３０３号,,13,112,1560057,,,,,,,2022-03-07,1,,,,,クレノス,0
1297,5010901050476,新規,0,2022-03-07,2022-03-07,株式会社ＶＡＮ　ＦＵＮ,,株式会社,東京都,世田谷区,若林１丁目１番２４号サンチャ・パロス・バルデス１０１号室,,13,112,1540023,,,,,,,2022-03-07,1,,,,,ヴァンファン,0
1298,5010903007193,新規,0,2022-03-07,2022-03-07,ＯＮＥ合同会社,,合同会社,東京都,世田谷区,北烏山４丁目４番３号,,13,112,1570061,,,,,,,2022-03-07,1,,,,,ワン,0
1299,5010905004271,新規,0,2022-03-07,2022-03-07,医療法人社団成城アイリス,,その他の設立登記法人,東京都,世田谷区,成城６丁目１６番９号リズリ成城１階,,13,112,1570066,,,,,,,2022-03-07,1,,,,,セイジョウアイリス,0
1309,5011001145803,新規,0,2022-03-07,2022-03-07,株式会社ラウ,,株式会社,東京都,目黒区,中目黒３丁目１３番２２－４０９号グランドメゾン中目黒ＴＨＥＣＬＡＳＳ,,13,110,1530061,,,,,,,2022-03-07,1,,,,,ラウ,0
1310,5011001146082,新規,0,2022-03-07,2022-03-07,株式会社ＭＥＤＩＸ,,株式会社,東京都,渋谷区,南平台町１６番２８号,,13,113,1500036,,,,,,,2022-03-07,1,,,,,メディックス,0
1311,5011001146108,新規,0,2022-03-07,2022-03-07,ハルサク株式会社,,株式会社,東京都,渋谷区,笹塚１丁目５３番７笹塚サンハイツ５０１,,13,113,1510073,,,,,,,2022-03-07,1,,,,,ハルサク,0
1312,5011001146132,新規,0,2022-03-07,2022-03-07,ｍｉｔｔ　ｍａｎａｇｅｍｅｎｔ株式会社,,株式会社,東京都,渋谷区,恵比寿南３丁目１番２５号恵比寿ＩＣＥ・ＣＵＢＥ３階,,13,113,1500022,,,,,,,2022-03-07,1,,,,,ミットマネージメント,0
1315,5011003014304,新規,0,2022-03-07,2022-03-07,合同会社香文,,合同会社,東京都,渋谷区,神山町１０番２－１１０３号,,13,113,1500047,,,,,,,2022-03-07,1,,,,,コウブン,0
1320,5011101098018,新規,0,2022-03-07,2022-03-07,株式会社ＡＧＮＥＳ,,株式会社,東京都,新宿区,新宿３丁目１７番５号Ｔ＆ＴＩＩＩビル６階,00125877,13,104,1600022,,,,,,,2022-03-07,1,,,,,アグネス,0
1321,5011101098026,新規,0,2022-03-07,2022-03-07,株式会社Ｑｌｉｘ,,株式会社,東京都,新宿区,西新宿３丁目３番１３号西新宿水間ビル６階,,13,104,1600023,,,,,,,2022-03-07,1,,,,,クリックス,0
1322,5011103011531,新規,0,2022-03-07,2022-03-07,合同会社富川商事,,合同会社,東京都,新宿区,中井２丁目２９－１１,,13,104,1610035,,,,,,,2022-03-07,1,,,,,トミカワショウジ,0
1326,5011403003591,新規,0,2022-03-07,2022-03-07,合同会社ＥＶＥＲＥＳＴ,,合同会社,東京都,板橋区,東山町１３－１５パールモア新井堂６０２号,,13,119,1740073,,,,,,,2022-03-07,1,,,,,エベレスト,0
1327,5011501027823,新規,0,2022-03-07,2022-03-07,株式会社ＶＥＲＥＸ,,株式会社,東京都,北区,上中里３丁目１番１３号,,13,117,1140016,,,,,,,2022-03-07,1,,,,,ヴェレックス,0
1331,5011601025776,新規,0,2022-03-07,2022-03-07,Ｏｋａｍｕｒａ＆Ｃｏｍｐａｎｙ株式会社,,株式会社,東京都,練馬区,関町南４丁目１９番６－８１９号,,13,120,1770053,,,,,,,2022-03-07,1,,,,,オカムラアンドカンパニー,0
1332,5011603003540,新規,0,2022-03-07,2022-03-07,東京トラストマネジメント合同会社,,合同会社,東京都,練馬区,旭丘１丁目６２番２－３０１号,,13,120,1760005,,,,,,,2022-03-07,1,,,,,トウキョウトラストマネジメント,0
1336,5011801040419,新規,0,2022-03-07,2022-03-07,株式会社カラーパーク,,株式会社,東京都,足立区,西新井３丁目４番５号,,13,121,1230841,,,,,,,2022-03-07,1,,,,,カラーパーク,0
1339,5012301012908,新規,0,2022-03-07,2022-03-07,株式会社スガワラ塗装,,株式会社,東京都,町田市,小川４丁目１５番地１１,,13,209,1940003,,,,,,,2022-03-07,1,,,,,スガワラトソウ,0
1341,5012405004710,新規,0,2022-03-07,2022-03-07,医療法人社団隆医会,,その他の設立登記法人,東京都,稲城市,大丸３０５１番地の３,,13,225,2060801,,,,,,,2022-03-07,1,,,,,リュウイカイ,0
1344,5012801021433,新規,0,2022-03-07,2022-03-07,すずのき設備工業株式会社,,株式会社,東京都,日野市,南平２丁目４５番地の８,,13,212,1910041,,,,,,,2022-03-07,1,,,,,スズノキセツビコウギョウ,0
1345,5012803002720,新規,0,2022-03-07,2022-03-07,合同会社ＫＡＺＥ,,合同会社,東京都,立川市,砂川町８丁目５８番地の１レクセルプライム武蔵砂川９０１号,,13,202,1900031,,,,,,,2022-03-07,1,,,,,カゼ,0
1346,5013301048776,新規,0,2022-03-07,2022-03-07,株式会社ことのは,,株式会社,東京都,豊島区,高田２丁目１１番１１号,,13,116,1710033,,,,,,,2022-03-07,1,,,,,コトノハ,0
1347,5013303006071,新規,0,2022-03-07,2022-03-07,ＷＩＳＤＯＭ合同会社,,合同会社,東京都,豊島区,南池袋１丁目９番１８号－２２９号室,,13,116,1710022,,,,,,,2022-03-07,1,,,,,ウィスドム,0
1354,5020001145498,新規,0,2022-03-07,2022-03-07,株式会社ＬＩＦＴＯＦＦ,,株式会社,神奈川県,川崎市宮前区,潮見台７番４２号,,14,136,2160013,,,,,,,2022-03-07,1,,,,,リフトオフ,0
1355,5020001145556,新規,0,2022-03-07,2022-03-07,株式会社ブレスホーム,,株式会社,神奈川県,横浜市中区,太田町５丁目６６番地,,14,104,2310011,,,,,,,2022-03-07,1,,,,,ブレスホーム,0
1359,5020005015409,新規,0,2022-03-07,2022-03-07,つばき人事コンサルティング社会保険労務士法人,,その他の設立登記法人,神奈川県,横浜市港北区,新横浜２丁目３番１２号,,14,109,2220033,,,,,,,2022-03-07,1,,,,,ツバキジンジコンサルティング,0
1361,5021001075330,新規,0,2022-03-07,2022-03-07,株式会社Ｈ＆Ｏホールディングス,,株式会社,神奈川県,相模原市緑区,橋本台１丁目１２番１号,,14,151,2520132,,,,,,,2022-03-07,1,,,,,エイチアンドオーホールディングス,0
1362,5021001075355,新規,0,2022-03-07,2022-03-07,株式会社ＮＯＷ,,株式会社,神奈川県,横須賀市,佐原３丁目１１番１号,,14,201,2390835,,,,,,,2022-03-07,1,,,,,ナウ,0
1363,5021005012453,新規,0,2022-03-07,2022-03-07,Ｋａｓｏｋｕ社会保険労務士法人,,その他の設立登記法人,神奈川県,相模原市南区,相模大野７丁目３５番１－２２０６号,,14,153,2520303,,,,,,,2022-03-07,1,,,,,カソク,0
1369,5030001147031,新規,0,2022-03-07,2022-03-07,株式会社ティーダ,,株式会社,埼玉県,草加市,北谷１丁目２番３－３０２号,,11,221,3400046,,,,,,,2022-03-07,1,,,,,ティーダ,0
1371,5030003018973,新規,0,2022-03-07,2022-03-07,合同会社Ｅｓｐｏｉｒ,,合同会社,埼玉県,さいたま市大宮区,天沼町２丁目６２１番地１－２０１号,,11,103,3300834,,,,,,,2022-03-07,1,,,,,エスポワール,0
1377,5040001122446,新規,0,2022-03-07,2022-03-07,株式会社ひしゃくや,,株式会社,千葉県,市原市,玉前３６３番地,,12,219,2900041,,,,,,,2022-03-07,1,,,,,ヒシャクヤ,0
1378,5040001122454,新規,0,2022-03-07,2022-03-07,株式会社Ａｐｕｅｓｔｏ,,株式会社,千葉県,旭市,大間手３７５番地,,12,215,2892603,,,,,,,2022-03-07,1,,,,,アプエスト,0
1379,5040001122537,新規,0,2022-03-07,2022-03-07,株式会社ｓｃｅｅｅｎ,,株式会社,千葉県,松戸市,東松戸２丁目５番地の１ファインシティ東松戸７１９号,,12,207,2702225,,,,,,,2022-03-07,1,,,,,シーン,0
1380,5040003019624,新規,0,2022-03-07,2022-03-07,合同会社ＣｙｂｅｒＣｈｅｅｓｅＣａｋｅ,,合同会社,千葉県,四街道市,もねの里３丁目２４番地１６０号,,12,228,2840016,,,,,,,2022-03-07,1,,,,,サイバーチーズケーキ,0
1382,5050001050712,新規,0,2022-03-07,2022-03-07,株式会社旭飛薬業,,株式会社,茨城県,つくば市,吾妻２丁目５番地１,,08,220,3050031,,,,,,,2022-03-07,1,,,,,アサヒヤクギョウ,0
1399,5090003002055,新規,0,2022-03-07,2022-03-07,Ｔｒｅｅ　ｅａｒｔｈ合同会社,,合同会社,山梨県,南巨摩郡南部町,福士１７７６６番地１,,19,366,4092102,,,,,,,2022-03-07,1,,,,,ツリーアース,0
1417,5120001244166,新規,0,2022-03-07,2022-03-07,株式会社ＳＹＨＡＳ,,株式会社,大阪府,大阪市天王寺区,真法院町８番１７号,,27,109,5430041,,,,,,,2022-03-07,1,,,,,シーハズ,0
1418,5120001244182,新規,0,2022-03-07,2022-03-07,浪速技研株式会社,,株式会社,大阪府,大阪市中央区,谷町２丁目８－１大手前Ｍ２ビル,,27,128,5400012,,,,,,,2022-03-07,1,,,,,ナニワギケン,0
1419,5120001244224,新規,0,2022-03-07,2022-03-07,株式会社ＴＷＩＮＳ,,株式会社,大阪府,大阪市北区,芝田２丁目４番２号牛丸ビル１０１号,,27,127,5300012,,,,,,,2022-03-07,1,,,,,ツインズ,0
1420,5120001244240,新規,0,2022-03-07,2022-03-07,ＢＩＳＣＵＳＳホールディングス株式会社,,株式会社,大阪府,大阪市中央区,南船場１丁目１１番９号長堀安田ビル６階,,27,128,5420081,,,,,,,2022-03-07,1,,,,,ビスカスホールディングス,0
1421,5120001244265,新規,0,2022-03-07,2022-03-07,株式会社Ｂｅｓｔ　Ｐｌａｎ,,株式会社,大阪府,大阪市天王寺区,舟橋町１１番２中島ビル２０３号,,27,109,5430024,,,,,,,2022-03-07,1,,,,,ベストプラン,0
1422,5120001244281,新規,0,2022-03-07,2022-03-07,株式会社リキネット,,株式会社,大阪府,大阪市東住吉区,西今川４丁目１４番６号,,27,121,5460042,,,,,,,2022-03-07,1,,,,,リキネット,0
1423,5120001244298,新規,0,2022-03-07,2022-03-07,トウヨウキョウキュウ株式会社,,株式会社,大阪府,大阪市住吉区,大領５丁目９番５号,,27,120,5580001,,,,,,,2022-03-07,1,,,,,トウヨウキョウキュウ,0
1427,5120003021233,新規,0,2022-03-07,2022-03-07,合同会社ショートケーキ,,合同会社,大阪府,大阪市北区,豊崎３丁目１５－５ＴＫビル２Ｆ,,27,127,5310072,,,,,,,2022-03-07,1,,,,,ショートケーキ,0
1428,5120005022832,新規,0,2022-03-07,2022-03-07,一般社団法人Ｔａ　Ｓｕｐｐｏｒｔ　Ｃｅｎｔｅｒ,,その他の設立登記法人,大阪府,大阪市北区,天満橋１丁目３番８号ＡＸＩＳＬＩＦＥ東天満６０２,,27,127,5300042,,,,,,,2022-03-07,1,,,,,タサポートセンター,0
1431,5120101065149,新規,0,2022-03-07,2022-03-07,株式会社ダブルオー,,株式会社,大阪府,堺市南区,原山台５丁１３番３号,,27,145,5900132,,,,,,,2022-03-07,1,,,,,ダブルオー,0
1432,5120101065157,新規,0,2022-03-07,2022-03-07,株式会社与力,,株式会社,大阪府,泉南市,信達市場１８９７番地２Ｆ,,27,228,5900504,,,,,,,2022-03-07,1,,,,,ヨリキ,0
1433,5120101065173,新規,0,2022-03-07,2022-03-07,株式会社ダイドーテクニカル,,株式会社,大阪府,堺市西区,菱木３丁２５０３番地３,,27,144,5938315,,,,,,,2022-03-07,1,,,,,ダイドーテクニカル,0
1434,5120101065181,新規,0,2022-03-07,2022-03-07,株式会社フラム,,株式会社,大阪府,堺市堺区,北安井町１番２１号,,27,141,5900062,,,,,,,2022-03-07,1,,,,,フラム,0
1435,5120105009531,新規,0,2022-03-07,2022-03-07,特定非営利活動法人ＴＳＫスポーツクラブ,,その他の設立登記法人,大阪府,大阪狭山市,大野台１丁目１９番８号,,27,231,5890023,,,,,,,2022-03-07,1,,,,,ティエスケイスポーツクラブ,0
1438,5120901045671,新規,0,2022-03-07,2022-03-07,株式会社シズカＨＤ,,株式会社,大阪府,箕面市,船場西１丁目２番１１号,,27,220,5620036,,,,,,,2022-03-07,1,,,,,シズカエイチディー,0
1439,5120901045688,新規,0,2022-03-07,2022-03-07,株式会社レグソル,,株式会社,大阪府,吹田市,広芝町１０－８,,27,205,5640052,,,,,,,2022-03-07,1,,,,,レグソル,0
1442,5122001035644,新規,0,2022-03-07,2022-03-07,株式会社中島組工業,,株式会社,大阪府,四條畷市,雁屋北町１６番３号,,27,229,5750035,,,,,,,2022-03-07,1,,,,,ナカジマグミコウギョウ,0
1446,5130001071287,新規,0,2022-03-07,2022-03-07,株式会社ビルドブルー,,株式会社,京都府,京都市山科区,御陵大津畑町２２番地１６サンクタス京都山科５０７,,26,110,6078411,,,,,,,2022-03-07,1,,,,,ビルドブルー,0
1455,5140001125050,新規,0,2022-03-07,2022-03-07,株式会社松本工務店,,株式会社,兵庫県,西宮市,甲子園三番町４番１号,,28,204,6638173,,,,,,,2022-03-07,1,,,,,マツモトコウムテン,0
1456,5140001125125,新規,0,2022-03-07,2022-03-07,ＭＩＷ株式会社,,株式会社,兵庫県,明石市,魚住町金ケ崎巳ノ池東３８１番地,,28,203,6740071,,,,,,,2022-03-07,1,,,,,エムアイダブル,0
1462,5150001025373,新規,0,2022-03-07,2022-03-07,株式会社ＳＫＹ　ＧＡＩＮＳ,,株式会社,奈良県,大和高田市,高砂町３番８号,,29,202,6350081,,,,,,,2022-03-07,1,,,,,スカイゲインズ,0
1465,5170001017006,新規,0,2022-03-07,2022-03-07,株式会社クリーンモンスターズ,,株式会社,和歌山県,和歌山市,東鍛冶屋町２５番地バールビル４０１,,30,201,6408036,,,,,,,2022-03-07,1,,,,,クリーンモンスターズ,0
1467,5170003001692,新規,0,2022-03-07,2022-03-07,グリーンファーム合同会社,,合同会社,和歌山県,橋本市,高野口町竹尾２３３番地,,30,203,6497214,,,,,,,2022-03-07,1,,,,,グリーンファーム,0
1471,5180001150202,新規,0,2022-03-07,2022-03-07,株式会社ＦＥＲＩＥ,,株式会社,愛知県,名古屋市千種区,桜が丘１１９番地（バンベール星ヶ丘ヒルズ４０１号）,,23,101,4640025,,,,,,,2022-03-07,1,,,,,フェリエ,0
1472,5180001150210,新規,0,2022-03-07,2022-03-07,株式会社ながもり,,株式会社,愛知県,あま市,坂牧大塚１０番地,,23,237,4901115,,,,,,,2022-03-07,1,,,,,ナガモリ,0
1473,5180001150227,新規,0,2022-03-07,2022-03-07,株式会社ジーエスエヌ,,株式会社,愛知県,名古屋市中川区,松ノ木町１丁目２９番地,,23,110,4540848,,,,,,,2022-03-07,1,,,,,ジーエスエヌ,0
1474,5180001150268,新規,0,2022-03-07,2022-03-07,株式会社Ｍｗｅｌｌ,,株式会社,愛知県,名古屋市昭和区,広路町字石坂４２番地の１後藤石坂コーポ１０３号,,23,107,4660834,,,,,,,2022-03-07,1,,,,,ムーウェル,0
1475,5180001150292,新規,0,2022-03-07,2022-03-07,株式会社リバコネ,,株式会社,愛知県,名古屋市熱田区,波寄町１０番２５号,,23,109,4560003,,,,,,,2022-03-07,1,,,,,リバコネ,0
1476,5180001150326,新規,0,2022-03-07,2022-03-07,株式会社キーザック,,株式会社,愛知県,名古屋市中川区,大塩町１丁目６５番地の２,,23,110,4540863,,,,,,,2022-03-07,1,,,,,キーザック,0
1478,5180003023562,新規,0,2022-03-07,2022-03-07,合同会社ＨＯＰ　Ｏｆｆｉｃｅ,,合同会社,愛知県,大府市,長根町５丁目８４番地,,23,223,4740021,,,,,,,2022-03-07,1,,,,,エイチオーピーオフィス,0
1479,5180003023570,新規,0,2022-03-07,2022-03-07,合同会社ぬくもりの泉,,合同会社,愛知県,一宮市,苅安賀１丁目６番５号,,23,203,4910933,,,,,,,2022-03-07,1,,,,,ヌクモリノイズミ,0
1487,5190003003919,新規,0,2022-03-07,2022-03-07,ＭＳＰグリーンパワー鈴鹿合同会社,,合同会社,三重県,鈴鹿市,上野町字雫谷１０６６番１,,24,207,5130017,,,,,,,2022-03-07,1,,,,,エムエスピーグリーンパワースズカ,0
1492,5200001039789,新規,0,2022-03-07,2022-03-07,株式会社ＤＳ電設,,株式会社,岐阜県,大垣市,和合新町２丁目５番地２ハイブリッジ和合Ｂ１０１号室,,21,202,5030801,,,,,,,2022-03-07,1,,,,,ディーエスデンセツ,0
1505,5230005009208,新規,0,2022-03-07,2022-03-07,農事組合法人田伏営農組合,,その他の設立登記法人,富山県,富山市,水橋田伏２１１番地,,16,201,9390562,,,,,,,2022-03-07,1,,,,,タブセエイノウクミアイ,0
1508,5240001059437,新規,0,2022-03-07,2022-03-07,株式会社ＴＯＰＲＡＮＣＡＲ,,株式会社,広島県,東広島市,西条町御薗宇１６０５番地２,,34,212,7390024,,,,,,,2022-03-07,1,,,,,トップランカー,0
1511,5240003005538,新規,0,2022-03-07,2022-03-07,合同会社ＣＯＰＡ,,合同会社,広島県,福山市,神辺町大字川北４３６番地４,,34,207,7202123,,,,,,,2022-03-07,1,,,,,コパ,0
1512,5280003001590,新規,0,2022-03-07,2022-03-07,合同会社クレド,,合同会社,島根県,松江市,北田町６９番８,,32,201,6900883,,,,,,,2022-03-07,1,,,,,クレド,0
1519,5290001096632,新規,0,2022-03-07,2022-03-07,株式会社ＰＤＳ,,株式会社,福岡県,福岡市中央区,渡辺通５丁目１０番１８号,,40,133,8100004,,,,,,,2022-03-07,1,,,,,ピーディーエス,0
1520,5290001096657,新規,0,2022-03-07,2022-03-07,株式会社スカイホーム,,株式会社,福岡県,福津市,津屋崎５丁目２４番３１号,,40,224,8113304,,,,,,,2022-03-07,1,,,,,スカイホーム,0
1521,5290001096673,新規,0,2022-03-07,2022-03-07,株式会社ａｎｄ,,株式会社,福岡県,福岡市南区,大橋４丁目２４番４１号,,40,134,8150033,,,,,,,2022-03-07,1,,,,,アンド,0
1524,5290003012224,新規,0,2022-03-07,2022-03-07,合同会社アリオカ,,合同会社,福岡県,太宰府市,五条２丁目１番１１号,,40,221,8180125,,,,,,,2022-03-07,1,,,,,アリオカ,0
1525,5290005018574,新規,0,2022-03-07,2022-03-07,キークレア行政書士法人,,その他の設立登記法人,福岡県,福岡市中央区,桜坂１丁目１１番２３号,,40,133,8100024,,,,,,,2022-03-07,1,,,,,キークレア,0
1528,5300003001803,新規,0,2022-03-07,2022-03-07,ＷｉＬＬ合同会社,,合同会社,佐賀県,武雄市,武雄町大字武雄６７６３番地,,41,206,8430022,,,,,,,2022-03-07,1,,,,,ウィル,0
1534,5330001029505,新規,0,2022-03-07,2022-03-07,株式会社ユーエスプラン,,株式会社,熊本県,熊本市東区,東野１丁目１５番２５号１０１号室,,43,102,8612106,,,,,,,2022-03-07,1,,,,,ユーエスプラン,0
1540,5350001017623,新規,0,2022-03-07,2022-03-07,株式会社スタンビー,,株式会社,宮崎県,宮崎市,宮崎駅東２丁目３番地１２,,45,201,8800879,,,,,,,2022-03-07,1,,,,,スタンビー,0
1546,5360001030088,新規,0,2022-03-07,2022-03-07,Ｈｏｎｕ株式会社,,株式会社,沖縄県,那覇市,田原１丁目１８番地７,,47,201,9010156,,,,,,,2022-03-07,1,,,,,ホヌ,0
1549,5370001048286,新規,0,2022-03-07,2022-03-07,株式会社みちのく仙台ＦＣ,,株式会社,宮城県,仙台市青葉区,中央２丁目７番３０号角川ビルディング３階,,04,101,9800021,,,,,,,2022-03-07,1,,,,,ミチノクセンダイエフシー,0
1550,5370001048294,新規,0,2022-03-07,2022-03-07,株式会社陽飛,,株式会社,宮城県,仙台市青葉区,本町１丁目５番２８号カーニープレイス仙台駅前通６０３号室,,04,101,9800014,,,,,,,2022-03-07,1,,,,,ハルヒ,0
1552,5370005010449,新規,0,2022-03-07,2022-03-07,一般社団法人地域くらしネットワーク,,その他の設立登記法人,宮城県,名取市,大曲字藤木２１９番地,,04,207,9811216,,,,,,,2022-03-07,1,,,,,チイキクラシネットワーク,0
1563,5400001015803,新規,0,2022-03-07,2022-03-07,株式会社彩棟,,株式会社,岩手県,花巻市,東十二丁目第２３地割１６６番地４,,03,205,0250015,,,,,,,2022-03-07,1,,,,,サイトウ,0
1566,5410003003623,新規,0,2022-03-07,2022-03-07,合同会社匠創,,合同会社,秋田県,横手市,十文字町上鍋倉字西坊田野７番地３３,,05,203,0190507,,,,,,,2022-03-07,1,,,,,ショウソウ,0
1567,5420001017756,新規,0,2022-03-07,2022-03-07,株式会社５Ｈａｒｍｏｎｉｏｕｓ,,株式会社,青森県,むつ市,大字城ヶ沢字下川迎１５番地３,,02,208,0350095,,,,,,,2022-03-07,1,,,,,ファイブハーモニアス,0
1576,5440001009041,新規,0,2022-03-07,2022-03-07,株式会社ノースワンヒルズ,,株式会社,北海道,函館市,元町１２番１８号旧北海道庁函館支庁庁舎,,01,202,0400054,,,,,,,2022-03-07,1,,,,,ノースワンヒルズ,0
1582,5500001024050,新規,0,2022-03-07,2022-03-07,株式会社日本エンリード,,株式会社,愛媛県,松山市,道後今市１０番２７号,,38,201,7900845,,,,,,,2022-03-07,1,,,,,ニホンエンリード,0
1587,6010001224987,新規,0,2022-03-07,2022-03-07,株式会社キモノ・スタイル,,株式会社,東京都,中央区,銀座６丁目１４番８号銀座石井ビル４Ｆ,,13,102,1040061,,,,,,,2022-03-07,1,,,,,キモノスタイル,0
1588,6010001225011,新規,0,2022-03-07,2022-03-07,株式会社イコーゼ,,株式会社,東京都,千代田区,九段南１丁目５－６りそな九段ビル５Ｆ,,13,101,1020074,,,,,,,2022-03-07,1,,,,,イコーゼ,0
1592,6010003037165,新規,0,2022-03-07,2022-03-07,合同会社ＹＵＺＵＫＩ,,合同会社,東京都,中央区,銀座１丁目２２番１１号,,13,102,1040061,,,,,,,2022-03-07,1,,,,,ユズキ,0
1593,6010005034672,新規,0,2022-03-07,2022-03-07,一般社団法人ガーデリー・ソムリエ協会,,その他の設立登記法人,東京都,千代田区,神田多町２丁目５番地,,13,101,1010046,,,,,,,2022-03-07,1,,,,,ガーデリーソムリエキョウカイ,0
1594,6010005034680,新規,0,2022-03-07,2022-03-07,Ｄｒｅａｍ　Ｒａｄｉ一般社団法人,,その他の設立登記法人,東京都,千代田区,丸の内３丁目１番１号東京共同会計事務所内,,13,101,1000005,,,,,,,2022-03-07,1,,,,,ドリームラディ,0
1595,6010005034697,新規,0,2022-03-07,2022-03-07,一般社団法人国際スポーツ普及振興研究所,,その他の設立登記法人,東京都,中央区,新川２丁目２７番５－６０２号,,13,102,1040033,,,,,,,2022-03-07,1,,,,,コクサイスポーツフキュウシンコウケンキュウショ,0
1596,6010103001871,新規,0,2022-03-07,2022-03-07,合同会社にじのはなし,,合同会社,東京都,八王子市,上柚木１１０９番地８,,13,201,1920373,,,,,,,2022-03-07,1,,,,,ニジノハナシ,0
1599,6010401165922,新規,0,2022-03-07,2022-03-07,Ａｓｃｅｎｔｉａｌ　Ｊａｐａｎ株式会社,,株式会社,東京都,港区,虎ノ門４丁目１番１号神谷町トラストタワー２２階,,13,103,1050001,,,,,,,2022-03-07,1,,,,,アセンシャルジャパン,0
1600,6010401166004,新規,0,2022-03-07,2022-03-07,株式会社Ｓｍｉｌｅ　Ｓｍｉｌｅ１,,株式会社,東京都,港区,南青山４丁目６－２,,13,103,1070062,,,,,,,2022-03-07,1,,,,,スマイルスマイルイチ,0
1601,6010401166029,新規,0,2022-03-07,2022-03-07,株式会社ｍｏｆｕ,,株式会社,東京都,港区,南青山２丁目２番１５号ウィン青山９４２,,13,103,1070062,,,,,,,2022-03-07,1,,,,,モフ,0
1604,6010403027220,新規,0,2022-03-07,2022-03-07,マニアＬＩＮＥ合同会社,,合同会社,東京都,港区,南青山２丁目２番１５号,,13,103,1070062,,,,,,,2022-03-07,1,,,,,マニアライン,0
1608,6010601060766,新規,0,2022-03-07,2022-03-07,野田商売株式会社,,株式会社,東京都,江東区,塩浜２丁目－２４番－１０－１０１４号,,13,108,1350043,,,,,,,2022-03-07,1,,,,,ノダショウバイ,0
1610,6010701042318,新規,0,2022-03-07,2022-03-07,新光開発株式会社,,株式会社,東京都,品川区,大崎１丁目１８番１６号,,13,109,1410032,,,,,,,2022-03-07,1,,,,,シンコウカイハツ,0
1615,6010901050459,新規,0,2022-03-07,2022-03-07,株式会社コスギ,,株式会社,東京都,世田谷区,代田１丁目３４番１５号,,13,112,1550033,,,,,,,2022-03-07,1,,,,,コスギ,0
1616,6010901050467,新規,0,2022-03-07,2022-03-07,デジタルアセットベンチャーズ株式会社,,株式会社,東京都,世田谷区,三軒茶屋１丁目４１番１３号,,13,112,1540024,,,,,,,2022-03-07,1,,,,,デジタルアセットベンチャーズ,0
1622,6011001146073,新規,0,2022-03-07,2022-03-07,株式会社ＭｉｃｈｅｌｅＣａｐｉｔａｌ,,株式会社,東京都,渋谷区,広尾３丁目１－２インペリアル常盤松１０１,,13,113,1500012,,,,,,,2022-03-07,1,,,,,ミケーレキャピタル,0
1623,6011001146115,新規,0,2022-03-07,2022-03-07,株式会社モヘヤ,,株式会社,東京都,渋谷区,千駄ヶ谷３丁目７番１６－２１１号,,13,113,1510051,,,,,,,2022-03-07,1,,,,,モヘヤ,0
1624,6011001146123,新規,0,2022-03-07,2022-03-07,株式会社カルタンタン,,株式会社,東京都,渋谷区,千駄ヶ谷３丁目１４番１０号,,13,113,1510051,,,,,,,2022-03-07,1,,,,,カルタンタン,0
1625,6011001146148,新規,0,2022-03-07,2022-03-07,株式会社ＲＥＷＯＮＤＥＲ,,株式会社,東京都,渋谷区,恵比寿南３丁目１０番１４号,,13,113,1500022,,,,,,,2022-03-07,1,,,,,リワンダー,0
1626,6011003014245,新規,0,2022-03-07,2022-03-07,Ｂｅｒｇａｍｉａｎ合同会社,,合同会社,東京都,渋谷区,代々木５丁目７－５－４Ｃ,,13,113,1510053,,,,,,,2022-03-07,1,,,,,ベルガミアン,0
1627,6011003014303,新規,0,2022-03-07,2022-03-07,合同会社アトム,,合同会社,東京都,渋谷区,道玄坂２丁目１９番８号谷岡ハウスＢ号室,,13,113,1500043,,,,,,,2022-03-07,1,,,,,アトム,0
1628,6011005009474,新規,0,2022-03-07,2022-03-07,医療法人社団Ｉ　ｗｉｌｌ,,その他の設立登記法人,東京都,渋谷区,本町１丁目２番５号初台ＡＩビル２階,,13,113,1510071,,,,,,,2022-03-07,1,,,,,アイウィル,0
1633,6011101098017,新規,0,2022-03-07,2022-03-07,株式会社Ｋ　Ｈｏｌｄｉｎｇｓ,,株式会社,東京都,新宿区,西新宿６丁目１５番１－７１０号,,13,104,1600023,,,,,,,2022-03-07,1,,,,,ケーホールディングス,0
1634,6011101098033,新規,0,2022-03-07,2022-03-07,株式会社ＴｒｙＡｉｄ,,株式会社,東京都,新宿区,歌舞伎町２丁目１９番７号新田中ビル５階Ｂ,,13,104,1600021,,,,,,,2022-03-07,1,,,,,トライエイド,0
1641,6011303004334,新規,0,2022-03-07,2022-03-07,日々合同会社,,合同会社,東京都,杉並区,下井草３丁目３５番３号,,13,115,1670022,,,,,,,2022-03-07,1,,,,,ヒビ,0
1644,6011701025089,新規,0,2022-03-07,2022-03-07,株式会社ＭＩＮＤ,,株式会社,東京都,江戸川区,中葛西４丁目９番２０号,,13,123,1340083,,,,,,,2022-03-07,1,,,,,マインド,0
1653,6012805003096,新規,0,2022-03-07,2022-03-07,医療法人社団ＲＥＹ,,その他の設立登記法人,東京都,武蔵村山市,残堀２丁目１４番地の１,,13,223,2080034,,,,,,,2022-03-07,1,,,,,レイ,0
1659,6013301048759,新規,0,2022-03-07,2022-03-07,株式会社Ｖｉｖａｒｅｓｓ,,株式会社,東京都,豊島区,南池袋３丁目１５番１５－１０１号,,13,116,1710022,,,,,,,2022-03-07,1,,,,,ビバレス,0
1668,6020001145514,新規,0,2022-03-07,2022-03-07,小箱屋株式会社,,株式会社,神奈川県,川崎市多摩区,長尾６丁目９番３号,,14,135,2140023,,,,,,,2022-03-07,1,,,,,コバコヤ,0
1669,6020001145539,新規,0,2022-03-07,2022-03-07,Ｒｅｇｏｌｉｔｈ株式会社,,株式会社,神奈川県,横浜市鶴見区,上の宮１丁目１６番１５号カーサビアンカ菊名１０１号室,,14,101,2300075,,,,,,,2022-03-07,1,,,,,レゴリス,0
1670,6020001145547,新規,0,2022-03-07,2022-03-07,株式会社エスメソッド,,株式会社,神奈川県,横浜市金沢区,谷津町１０３番地９,,14,108,2360016,,,,,,,2022-03-07,1,,,,,エスメソッド,0
1671,6020001145555,新規,0,2022-03-07,2022-03-07,株式会社キーメッセージ,,株式会社,神奈川県,川崎市高津区,坂戸３丁目２番１号,,14,134,2130012,,,,,,,2022-03-07,1,,,,,キーメッセージ,0
1678,6020003021416,新規,0,2022-03-07,2022-03-07,合同会社ミナト,,合同会社,神奈川県,横浜市港北区,下田町５丁目３０番７号,,14,109,2230064,,,,,,,2022-03-07,1,,,,,ミナト,0
1683,6021001075313,新規,0,2022-03-07,2022-03-07,株式会社Ａ・Ｃ・ＭＡＧＩＣ,,株式会社,神奈川県,相模原市中央区,上溝２１６１番地２,,14,152,2520243,,,,,,,2022-03-07,1,,,,,エイシイマジック,0
1684,6021001075346,新規,0,2022-03-07,2022-03-07,株式会社Ａ・Ｅ・Ｃ,,株式会社,神奈川県,海老名市,中央１丁目１６番３１号,,14,215,2430432,,,,,,,2022-03-07,1,,,,,エーイーシー,0
1685,6021001075354,新規,0,2022-03-07,2022-03-07,株式会社テルフジ,,株式会社,神奈川県,相模原市南区,上鶴間本町１丁目３０番６号,,14,153,2520318,,,,,,,2022-03-07,1,,,,,テルフジ,0
1686,6021001075362,新規,0,2022-03-07,2022-03-07,株式会社へるすこ,,株式会社,神奈川県,藤沢市,弥勒寺２丁目２番２７－１０１号,,14,205,2510016,,,,,,,2022-03-07,1,,,,,ヘルスコ,0
1687,6021003011448,新規,0,2022-03-07,2022-03-07,合同会社ＳＥＡＳＩＤＥ,,合同会社,神奈川県,平塚市,幸町２５番２０号,,14,203,2540804,,,,,,,2022-03-07,1,,,,,シーサイド,0
1690,6030001147162,新規,0,2022-03-07,2022-03-07,株式会社といとい不動産,,株式会社,埼玉県,東松山市,日吉町１７番２９号,,11,212,3550012,,,,,,,2022-03-07,1,,,,,トイトイフドウサン,0
1692,6030003018980,新規,0,2022-03-07,2022-03-07,合同会社彩信,,合同会社,埼玉県,さいたま市西区,大字指扇４９９番地１シェーングラースＢ２０３,,11,101,3310047,,,,,,,2022-03-07,1,,,,,サイシン,0
1697,6030005020745,新規,0,2022-03-07,2022-03-07,一般社団法人ｏｃｈａｎｏｍａ,,その他の設立登記法人,埼玉県,本庄市,銀座１丁目４番６号,,11,211,3670052,,,,,,,2022-03-07,1,,,,,オチャノマ,0
1700,6040001122528,新規,0,2022-03-07,2022-03-07,株式会社北新サクマ自動車,,株式会社,千葉県,市原市,青柳３丁目２番地１１,,12,219,2990102,,,,,,,2022-03-07,1,,,,,ホクシンサクマジドウシャ,0
1702,6040003019607,新規,0,2022-03-07,2022-03-07,リフウェルビー合同会社,,合同会社,千葉県,柏市,新柏３丁目１７番－１－１０３号,,12,217,2770084,,,,,,,2022-03-07,1,,,,,リフウェルビー,0
1703,6040003019615,新規,0,2022-03-07,2022-03-07,合同会社ＢＬＵＥ　ＨＯＬＥ　ＪＡＰＡＮ,,合同会社,千葉県,船橋市,北本町２丁目４３番１－２１０号,,12,204,2730864,,,,,,,2022-03-07,1,,,,,ブルーホールジャパン,0
1704,6050001050728,新規,0,2022-03-07,2022-03-07,株式会社アビック関東事業部,,株式会社,茨城県,つくば市,二の宮２丁目１２番地の１１第一洞峰ビル３０２,,08,220,3050051,,,,,,,2022-03-07,1,,,,,アビックカントウジギョウブ,0
1706,6050003006414,新規,0,2022-03-07,2022-03-07,合同会社ＴＫマシン,,合同会社,茨城県,石岡市,国府６丁目３番５号ビバリーハイツ２０２,,08,205,3150014,,,,,,,2022-03-07,1,,,,,ティーケイマシン,0
1707,6060001034606,新規,0,2022-03-07,2022-03-07,成常メンテナンス株式会社,,株式会社,栃木県,宇都宮市,下栗１丁目２３番１３号Ｙビル１階,,09,201,3210924,,,,,,,2022-03-07,1,,,,,セイジョウメンテナンス,0
1708,6060001034639,新規,0,2022-03-07,2022-03-07,さくら不動産企画株式会社,,株式会社,栃木県,さくら市,氏家３５０１番地４７,,09,214,3291311,,,,,,,2022-03-07,1,,,,,サクラフドウサンキカク,0
1712,6070001039026,新規,0,2022-03-07,2022-03-07,ＭＵＳＵＢＩ株式会社,,株式会社,群馬県,前橋市,大渡町１丁目６番地９,,10,201,3710854,,,,,,,2022-03-07,1,,,,,ムスビ,0
1715,6080003002749,新規,0,2022-03-07,2022-03-07,合同会社Ａ,,合同会社,静岡県,焼津市,小川新町２丁目１２番１２号,,22,212,4250031,,,,,,,2022-03-07,1,,,,,エー,0
1720,6100001035112,新規,0,2022-03-07,2022-03-07,株式会社外松,,株式会社,長野県,飯田市,松尾上溝３０１４番地２,,20,205,3950811,,,,,,,2022-03-07,1,,,,,トマツ,0
1721,6100001035129,新規,0,2022-03-07,2022-03-07,Ｔ’ｓ　Ｓｔｅｌｌａｒ株式会社,,株式会社,長野県,諏訪郡原村,上里１７８９０,,20,363,3910111,,,,,,,2022-03-07,1,,,,,ティーズステラー,0
1736,6120001244198,新規,0,2022-03-07,2022-03-07,株式会社ケンエーホーム,,株式会社,大阪府,大阪市阿倍野区,三明町１丁目７番１１号,,27,119,5450005,,,,,,,2022-03-07,1,,,,,ケンエーホーム,0
1737,6120001244207,新規,0,2022-03-07,2022-03-07,株式会社シセナビ,,株式会社,大阪府,大阪市中央区,北久宝寺町４丁目３番１２号小原第５ビル２０２号,,27,128,5410057,,,,,,,2022-03-07,1,,,,,シセナビ,0
1738,6120001244256,新規,0,2022-03-07,2022-03-07,株式会社Ｄ．Ｏ．Ｔ,,株式会社,大阪府,大阪市北区,天神橋７丁目３番２号,,27,127,5310041,,,,,,,2022-03-07,1,,,,,ドット,0
1739,6120001244264,新規,0,2022-03-07,2022-03-07,ＡＫＥフューチャー株式会社,,株式会社,大阪府,大阪市東成区,大今里西３丁目１４番１７号,,27,115,5370014,,,,,,,2022-03-07,1,,,,,アケフューチャー,0
1740,6120001244280,新規,0,2022-03-07,2022-03-07,株式会社ＡＭＡＴＥＲＡＳ,,株式会社,大阪府,大阪市東住吉区,今川２丁目３番８号,,27,121,5460003,,,,,,,2022-03-07,1,,,,,アマテラス,0
1747,6120003021249,新規,0,2022-03-07,2022-03-07,合同会社北浜３００３,,合同会社,大阪府,大阪市中央区,北浜２丁目２番２１号北浜ミッドタワー３００３号,,27,128,5410041,,,,,,,2022-03-07,1,,,,,キタハマサンゼロゼロサン,0
1750,6120101065148,新規,0,2022-03-07,2022-03-07,株式会社ユニティー和,,株式会社,大阪府,堺市中区,土師町２丁１６番１０号,,27,142,5998238,,,,,,,2022-03-07,1,,,,,ユニティーワ,0
1751,6120101065164,新規,0,2022-03-07,2022-03-07,株式会社エビスカーズ,,株式会社,大阪府,岸和田市,中井町１丁目２０番１７号,,27,202,5960003,,,,,,,2022-03-07,1,,,,,エビスカーズ,0
1752,6120101065189,新規,0,2022-03-07,2022-03-07,株式会社ＳＳＫ,,株式会社,大阪府,河内長野市,大矢船北町２５－７,,27,216,5860076,,,,,,,2022-03-07,1,,,,,エスエスケー,0
1753,6120103004582,新規,0,2022-03-07,2022-03-07,合同会社ＣＨＩＬＬ,,合同会社,大阪府,泉大津市,千原町２丁目１番５号,,27,206,5950004,,,,,,,2022-03-07,1,,,,,チル,0
1754,6120105009530,新規,0,2022-03-07,2022-03-07,一般社団法人チャイルドリテラシー協会,,その他の設立登記法人,大阪府,堺市北区,金岡町１４２３番地４ビッグカーサ堺しらさぎ駅前２３１８号,,27,146,5918022,,,,,,,2022-03-07,1,,,,,チャイルドリテラシーキョウカイ,0
1758,6120901045695,新規,0,2022-03-07,2022-03-07,株式会社ミモハ,,株式会社,大阪府,高槻市,東上牧３丁目２４番１６号,,27,207,5690002,,,,,,,2022-03-07,1,,,,,ミモハ,0
1762,6122001035643,新規,0,2022-03-07,2022-03-07,株式会社エコアース,,株式会社,大阪府,東大阪市,高井田西１丁目２番３６号パスミビル２階,,27,227,5770067,,,,,,,2022-03-07,1,,,,,エコアース,0
1764,6130001071245,新規,0,2022-03-07,2022-03-07,株式会社鈴貴工業,,株式会社,京都府,京都市西京区,大原野上里南ノ町４０番地１,,26,111,6101123,,,,,,,2022-03-07,1,,,,,スズタカコウギョウ,0
1765,6130001071294,新規,0,2022-03-07,2022-03-07,株式会社ＢＬＡＳＴ,,株式会社,京都府,長岡京市,開田４丁目１－１１ハシモトビル２Ｆ,,26,209,6170826,,,,,,,2022-03-07,1,,,,,ブラスト,0
1766,6130003007791,新規,0,2022-03-07,2022-03-07,合同会社ＦＪ　ｐｒｏｊｅｃｔ,,合同会社,京都府,京都市伏見区,西柳町５５６番地３,,26,109,6128212,,,,,,,2022-03-07,1,,,,,エフジェプロジェクト,0
1777,6140003017419,新規,0,2022-03-07,2022-03-07,合同会社Ｙｕ－ＲａＲｉ,,合同会社,兵庫県,尼崎市,御園町３５番ＭＡＲＵＴＯ尼崎ビル５Ｃ号室,,28,202,6600861,,,,,,,2022-03-07,1,,,,,ユーラリ,0
1779,6150001025389,新規,0,2022-03-07,2022-03-07,株式会社Ｖサイン,,株式会社,奈良県,大和高田市,日之出町１８番１５号,,29,202,6350022,,,,,,,2022-03-07,1,,,,,ブイサイン,0
1781,6160001024035,新規,0,2022-03-07,2022-03-07,株式会社ＨＫＨ,,株式会社,滋賀県,大津市,松が丘５丁目５番１１号,,25,201,5202102,,,,,,,2022-03-07,1,,,,,エイチケイエイチ,0
1793,6180001150201,新規,0,2022-03-07,2022-03-07,美綺株式会社,,株式会社,愛知県,名古屋市中区,丸の内３丁目２０番２０号チサンマンション丸の内第３・８０２号室,,23,106,4600002,,,,,,,2022-03-07,1,,,,,ミキ,0
1794,6180001150226,新規,0,2022-03-07,2022-03-07,ＳＯＵＺＯＵ株式会社,,株式会社,愛知県,瀬戸市,西山町１丁目６０番地２６,,23,204,4890987,,,,,,,2022-03-07,1,,,,,ソウゾウ,0
1795,6180001150291,新規,0,2022-03-07,2022-03-07,株式会社岡本組,,株式会社,愛知県,名古屋市港区,善進町３丁目２４番地の５,,23,111,4550811,,,,,,,2022-03-07,1,,,,,オカモトグミ,0
1796,6180001150300,新規,0,2022-03-07,2022-03-07,Ｃｒａｆｔｏｎ　Ｂｉｏｔｅｃｈｎｏｌｏｇｙ株式会社,,株式会社,愛知県,名古屋市千種区,不老町１番国立大学法人東海国立大学機構名古屋大学インキュベーション施設,,23,101,4640814,,,,,,,2022-03-07,1,,,,,クラフトンバイオテクノロジー,0
1797,6180001150317,新規,0,2022-03-07,2022-03-07,株式会社光不動産,,株式会社,愛知県,名古屋市西区,山木２丁目９９番地の１,,23,104,4520833,,,,,,,2022-03-07,1,,,,,ヒカリフドウサン,0
1798,6180001150333,新規,0,2022-03-07,2022-03-07,株式会社リセット,,株式会社,愛知県,名古屋市名東区,梅森坂３丁目３１０９番地,,23,115,4650065,,,,,,,2022-03-07,1,,,,,リセット,0
1799,6180001150341,新規,0,2022-03-07,2022-03-07,ナミックス株式会社,,株式会社,愛知県,名古屋市天白区,池場３丁目１６０８番地,,23,116,4680055,,,,,,,2022-03-07,1,,,,,ナミックス,0
1803,6180301035985,新規,0,2022-03-07,2022-03-07,株式会社Ｈｅｒｂ,,株式会社,愛知県,豊田市,野見町３丁目５３番地,,23,211,4710812,,,,,,,2022-03-07,1,,,,,ハーブ,0
1806,6200001039821,新規,0,2022-03-07,2022-03-07,岩田インダストリー株式会社,,株式会社,岐阜県,羽島市,足近町市場８９１番地,,21,209,5016202,,,,,,,2022-03-07,1,,,,,イワタインダストリー,0
1815,6240001059436,新規,0,2022-03-07,2022-03-07,ピボット設計株式会社,,株式会社,広島県,呉市,安浦町安登西６丁目１番１号,,34,202,7372512,,,,,,,2022-03-07,1,,,,,ピボットセッケイ,0
1824,6290001096573,新規,0,2022-03-07,2022-03-07,株式会社コウセイス,,株式会社,福岡県,福岡市東区,香椎照葉６丁目４番２ザ・テラス０２棟２０１号,,40,131,8130017,,,,,,,2022-03-07,1,,,,,コウセイス,0
1825,6290001096615,新規,0,2022-03-07,2022-03-07,中間通商株式会社,,株式会社,福岡県,筑後市,大字山ノ井６６８番地１０,,40,211,8330031,,,,,,,2022-03-07,1,,,,,ナカマツウショウ,0
1826,6290001096631,新規,0,2022-03-07,2022-03-07,株式会社フェリース,,株式会社,福岡県,福岡市西区,北原１丁目２番１号,,40,135,8190379,,,,,,,2022-03-07,1,,,,,フェリース,0
1827,6290001096664,新規,0,2022-03-07,2022-03-07,株式会社ワイケイエス,,株式会社,福岡県,筑紫野市,大字吉木２４０２番地１,,40,217,8180004,,,,,,,2022-03-07,1,,,,,ワイケイエス,0
1828,6290001096689,新規,0,2022-03-07,2022-03-07,株式会社ＳＴＹＬＥ　ＷＯＲＫＳ,,株式会社,福岡県,久留米市,本山２丁目１７番１３号,,40,203,8300056,,,,,,,2022-03-07,1,,,,,スタイルワークス,0
1831,6300001012834,新規,0,2022-03-07,2022-03-07,株式会社不二,,株式会社,佐賀県,佐賀市,諸富町大字為重３９０－５,,41,201,8402102,,,,,,,2022-03-07,1,,,,,フジ,0
1832,6300003001802,新規,0,2022-03-07,2022-03-07,合同会社ＥＮＩＳＩ,,合同会社,佐賀県,小城市,牛津町牛津７４番地１６貞松団地２号,,41,208,8490303,,,,,,,2022-03-07,1,,,,,エニシ,0
1840,6340001024545,新規,0,2022-03-07,2022-03-07,株式会社ＡＮＣＨＯＲ　ＭＯＵＮＴＡＩＮ,,株式会社,鹿児島県,奄美市,笠利町大字用安１２９０番地２,,46,222,8940508,,,,,,,2022-03-07,1,,,,,アンカーマウンテン,0
1841,6340001024553,新規,0,2022-03-07,2022-03-07,株式会社ＴＳＵＲＵＤＡ,,株式会社,鹿児島県,薩摩川内市,入来町副田４７７番地１,,46,215,8951401,,,,,,,2022-03-07,1,,,,,ツルダ,0
1842,6350005006051,新規,0,2022-03-07,2022-03-07,医療法人社団押領司会,,その他の設立登記法人,宮崎県,宮崎市,大字本郷南方字榎田２５３７番地１,,45,201,8800921,,,,,,,2022-03-07,1,,,,,オウリョウジカイ,0
1843,6360001030062,新規,0,2022-03-07,2022-03-07,株式会社つなぐカンパニー,,株式会社,沖縄県,八重山郡竹富町,字小浜１４９６番地の１６４,,47,381,9071221,,,,,,,2022-03-07,1,,,,,ツナグカンパニー,0
1844,6360001030095,新規,0,2022-03-07,2022-03-07,株式会社儀部縁,,株式会社,沖縄県,名護市,字宇茂佐１９６５番地,,47,209,9050006,,,,,,,2022-03-07,1,,,,,ギブエン,0
1845,6360001030104,新規,0,2022-03-07,2022-03-07,株式会社ナカムラ産業,,株式会社,沖縄県,中頭郡中城村,字奥間６５４,,47,328,9012412,,,,,,,2022-03-07,1,,,,,ナカムラサンギョウ,0
1847,6370001048293,新規,0,2022-03-07,2022-03-07,三晴株式会社,,株式会社,宮城県,仙台市宮城野区,小田原１丁目７番２３号,,04,102,9830803,,,,,,,2022-03-07,1,,,,,ミハル,0
1848,6380001032635,新規,0,2022-03-07,2022-03-07,株式会社雅総建,,株式会社,福島県,いわき市,小川町上小川字湯ノ沢１３番地の１６,,07,204,9793124,,,,,,,2022-03-07,1,,,,,ミヤビソウケン,0
1852,6430001086089,新規,0,2022-03-07,2022-03-07,株式会社新流舎,,株式会社,北海道,札幌市中央区,南二十二条西９丁目２番２５号,,01,101,0640922,,,,,,,2022-03-07,1,,,,,シンリュウシャ,0
1853,6430001086130,新規,0,2022-03-07,2022-03-07,サカイ工業株式会社,,株式会社,北海道,札幌市北区,新琴似二条５丁目１番４０号,,01,102,0010902,,,,,,,2022-03-07,1,,,,,サカイコウギョウ,0
1854,6430001086139,新規,0,2022-03-07,2022-03-07,株式会社コウケンデザイン,,株式会社,北海道,札幌市東区,北二十八条東１丁目４－２５,,01,103,0650028,,,,,,,2022-03-07,1,,,,,コウケンデザイン,0
1858,6460103001430,新規,0,2022-03-07,2022-03-07,合同会社栄流通サービス,,合同会社,北海道,帯広市,西十九条南４丁目５番１３号,,01,207,0802469,,,,,,,2022-03-07,1,,,,,サカエリュウツウサービス,0
1866,6490001010126,新規,0,2022-03-07,2022-03-07,株式会社四国ネットホールディングス,,株式会社,高知県,吾川郡いの町,下八川甲３７３番地,,39,386,7812331,,,,,,,2022-03-07,1,,,,,シコクネットホールディングス,0
1868,6500001024041,新規,0,2022-03-07,2022-03-07,東予機設株式会社,,株式会社,愛媛県,新居浜市,田の上２丁目１６番１９号,,38,205,7920888,,,,,,,2022-03-07,1,,,,,トウヨキセツ,0
1870,6500003002788,新規,0,2022-03-07,2022-03-07,合同会社ケイズ,,合同会社,愛媛県,松山市,内浜町１７番１７号,,38,201,7918077,,,,,,,2022-03-07,1,,,,,ケイズ,0
1884,7010001225010,新規,0,2022-03-07,2022-03-07,株式会社Ｌｕｘｌｙ,,株式会社,東京都,中央区,銀座１丁目２２番１１号銀座大竹ビジデンス２階,,13,102,1040061,,,,,,,2022-03-07,1,,,,,ルクスリー,0
1885,7010001225035,新規,0,2022-03-07,2022-03-07,株式会社リンドウ,,株式会社,東京都,千代田区,六番町１３番地１ハイツ六番町５０１,,13,101,1020085,,,,,,,2022-03-07,1,,,,,リンドウ,0
1886,7010001225076,新規,0,2022-03-07,2022-03-07,株式会社軸組,,株式会社,東京都,千代田区,丸の内１丁目１番３号,,13,101,1000005,,,,,,,2022-03-07,1,,,,,ジクグミ,0
1889,7010003037164,新規,0,2022-03-07,2022-03-07,函館ホテルマネジメント合同会社,,合同会社,東京都,千代田区,霞が関３丁目２番１号,,13,101,1000013,,,,,,,2022-03-07,1,,,,,ハコダテホテルマネジメント,0
1890,7010005034671,新規,0,2022-03-07,2022-03-07,一般社団法人日本先進医療学会,,その他の設立登記法人,東京都,中央区,銀座７丁目５番５号長谷第一ビル３階,,13,102,1040061,,,,,,,2022-03-07,1,,,,,ニホンセンシンイリョウガッカイ,0
1891,7010005034696,新規,0,2022-03-07,2022-03-07,一般社団法人角川ドワンゴ大学準備会,,その他の設立登記法人,東京都,中央区,銀座４丁目１２番１５号,,13,102,1040061,,,,,,,2022-03-07,1,,,,,カドカワドワンゴダイガクジュンビカイ,0
1901,7010403027211,新規,0,2022-03-07,2022-03-07,合同会社ＪｏｈｎＤｏｅ,,合同会社,東京都,港区,東新橋１丁目６番３号ザロイヤルパークホテルアイコニック東京汐留２４Ｆ,,13,103,1050021,,,,,,,2022-03-07,1,,,,,ジョンドゥ,0
1903,7010501048539,新規,0,2022-03-07,2022-03-07,株式会社一心,,株式会社,東京都,台東区,千束４丁目１５番７号,,13,106,1110031,,,,,,,2022-03-07,1,,,,,イッシン,0
1904,7010501048547,新規,0,2022-03-07,2022-03-07,株式会社アルゴ式,,株式会社,東京都,台東区,東上野３丁目２６番１０号ファーストコート９０１,,13,106,1100015,,,,,,,2022-03-07,1,,,,,アルゴシキ,0
1906,7010601060749,新規,0,2022-03-07,2022-03-07,株式会社４ＸＩＡ,,株式会社,東京都,江東区,青海２丁目７番４号,,13,108,1350064,,,,,,,2022-03-07,1,,,,,フォクシア,0
1907,7010601060798,新規,0,2022-03-07,2022-03-07,株式会社ＣｙｂｅｒＱＬｅａｄ,,株式会社,東京都,墨田区,立川２丁目４－７,,13,107,1300023,,,,,,,2022-03-07,1,,,,,サイバーリード,0
1909,7010603009422,新規,0,2022-03-07,2022-03-07,合同会社八丸五,,合同会社,東京都,江東区,木場３丁目１０番１－８０５号,,13,108,1350042,,,,,,,2022-03-07,1,,,,,ハチマルゴ,0
1910,7010603009430,新規,0,2022-03-07,2022-03-07,合同会社まーる,,合同会社,東京都,江東区,東陽５丁目２６番５－２０１号,,13,108,1350016,,,,,,,2022-03-07,1,,,,,マール,0
1915,7010705003331,新規,0,2022-03-07,2022-03-07,社会保険労務士法人オフィスオータニ,,その他の設立登記法人,東京都,品川区,東大井４丁目８番４号,,13,109,1400011,,,,,,,2022-03-07,1,,,,,オフィスオータニ,0
1917,7010901050466,新規,0,2022-03-07,2022-03-07,株式会社Ｎｅｘｕｓ,,株式会社,東京都,世田谷区,池尻３丁目２１番１０号増田ビル３階,,13,112,1540001,,,,,,,2022-03-07,1,,,,,ネクサス,0
1919,7010903007167,新規,0,2022-03-07,2022-03-07,コリレイト合同会社,,合同会社,東京都,世田谷区,玉川３丁目２０－２マノア玉川第３内,,13,112,1580094,,,,,,,2022-03-07,1,,,,,コリレイト,0
1920,7010903007200,新規,0,2022-03-07,2022-03-07,合同会社ＱＰＯ,,合同会社,東京都,世田谷区,経堂２丁目６番１号３１１,,13,112,1560052,,,,,,,2022-03-07,1,,,,,キューピーオー,0
1926,7011001146106,新規,0,2022-03-07,2022-03-07,株式会社ｎｅｔｔｌｅ,,株式会社,東京都,目黒区,碑文谷１丁目２番１０－５０２号,,13,110,1520003,,,,,,,2022-03-07,1,,,,,ネトル,0
1927,7011001146114,新規,0,2022-03-07,2022-03-07,株式会社ＢＡＢＹＬＯＮ,,株式会社,東京都,渋谷区,広尾１丁目７番３号パインクレスト１０２号,,13,113,1500012,,,,,,,2022-03-07,1,,,,,バビロン,0
1928,7011001146130,新規,0,2022-03-07,2022-03-07,株式会社ｇｉｂｏｕｓ,,株式会社,東京都,目黒区,上目黒２丁目３０－１１－４０３,,13,110,1530051,,,,,,,2022-03-07,1,,,,,ギボウス,0
1929,7011001146139,新規,0,2022-03-07,2022-03-07,ＢＲＵＩＳＥ株式会社,,株式会社,東京都,渋谷区,神宮前３丁目２７番１４号,,13,113,1500001,,,,,,,2022-03-07,1,,,,,ブルース,0
1930,7011001146147,新規,0,2022-03-07,2022-03-07,ＴｅｃｈＳｐｏｒｔｓ株式会社,,株式会社,東京都,渋谷区,東２丁目２９番７号スペランザ恵比寿５０２号,,13,113,1500011,,,,,,,2022-03-07,1,,,,,テックスポーツ,0
1931,7011001146171,新規,0,2022-03-07,2022-03-07,ＲＡＧＳ株式会社,,株式会社,東京都,渋谷区,円山町５番５号Ｎａｖｉ渋谷Ｖ３階,,13,113,1500044,,,,,,,2022-03-07,1,,,,,ラグズ,0
1936,7011101098016,新規,0,2022-03-07,2022-03-07,株式会社Ａｘｅ　Ｈｏｌｄｉｎｇｓ,,株式会社,東京都,新宿区,西新宿６丁目１５番１－７１０号,,13,104,1600023,,,,,,,2022-03-07,1,,,,,アックスホールディングス,0
1937,7011101098032,新規,0,2022-03-07,2022-03-07,株式会社ワンダーワーカー,,株式会社,東京都,新宿区,西新宿１丁目１－６１２ｓｈｉｎｊｕｋｕ９０９,,13,104,1600023,,,,,,,2022-03-07,1,,,,,ワンダーワーカー,0
1938,7011105010166,新規,0,2022-03-07,2022-03-07,一般社団法人ルアナボディセラピー協会,,その他の設立登記法人,東京都,新宿区,神楽坂６丁目３４番地矢島ビル２Ｆ,,13,104,1620825,,,,,,,2022-03-07,1,,,,,ルアナボディセラピーキョウカイ,0
1945,7011701025096,新規,0,2022-03-07,2022-03-07,Ｏｎｅ　Ｐａｒｔｙ　Ｌｏｇｉｓｔｉｃｓ株式会社,,株式会社,東京都,江戸川区,臨海町３丁目６番１号,,13,123,1340086,,,,,,,2022-03-07,1,,,,,ワンパーティーロジスティクス,0
1954,7012705002296,新規,0,2022-03-07,2022-03-07,医療法人社団新発意,,その他の設立登記法人,東京都,清瀬市,松山２丁目１番７号クレア清瀬１０１号室,,13,221,2040022,,,,,,,2022-03-07,1,,,,,シンボチ,0
1957,7012805003095,新規,0,2022-03-07,2022-03-07,医療法人社団東京仁和会,,その他の設立登記法人,東京都,昭島市,田中町５６２番地８昭島昭和第１ビル北館１階,,13,207,1960014,,,,,,,2022-03-07,1,,,,,トウキョウジンワカイ,0
1958,7013301048774,新規,0,2022-03-07,2022-03-07,株式会社グスク,,株式会社,東京都,豊島区,東池袋１丁目４６番１３号ホリグチビル８０１号,,13,116,1700013,,,,,,,2022-03-07,1,,,,,グスク,0
1970,7020001145538,新規,0,2022-03-07,2022-03-07,株式会社ワイエープロデュース,,株式会社,神奈川県,横浜市南区,南太田１丁目２６番２０号赤木ビル１Ｆ,,14,105,2320006,,,,,,,2022-03-07,1,,,,,ワイエープロデュース,0
1971,7020005015407,新規,0,2022-03-07,2022-03-07,一般社団法人エミリケアアシスタンス,,その他の設立登記法人,神奈川県,横浜市南区,大岡２丁目１５番５号ユナイト大岡エミリアプッチ１０１号,,14,105,2320061,,,,,,,2022-03-07,1,,,,,エミリケアアシスタンス,0
1972,7021001075329,新規,0,2022-03-07,2022-03-07,株式会社エフサイズ,,株式会社,神奈川県,足柄下郡真鶴町,岩２１５番地２,,14,383,2590202,,,,,,,2022-03-07,1,,,,,エフサイズ,0
1973,7021001075345,新規,0,2022-03-07,2022-03-07,株式会社遠山信夫アトリエ,,株式会社,神奈川県,相模原市緑区,日連１３１３番地１,,14,151,2520185,,,,,,,2022-03-07,1,,,,,トオヤマノブオアトリエ,0
1974,7021001075361,新規,0,2022-03-07,2022-03-07,株式会社ＬＯＧ　ＬＩＦＥ,,株式会社,神奈川県,平塚市,明石町７－２１加瀬ビル１７４－６階,,14,203,2540042,,,,,,,2022-03-07,1,,,,,ログライフ,0
1976,7021003011447,新規,0,2022-03-07,2022-03-07,合同会社ウィングス,,合同会社,神奈川県,相模原市緑区,東橋本３丁目１９番８号パークヴェール橋本２０４,,14,151,2520144,,,,,,,2022-03-07,1,,,,,ウィングス,0
1977,7021005012451,新規,0,2022-03-07,2022-03-07,一般社団法人日本コーンホール協会,,その他の設立登記法人,神奈川県,逗子市,桜山６丁目１２番２２号,,14,208,2490005,,,,,,,2022-03-07,1,,,,,ニホンコーンホールキョウカイ,0
1981,7030001147129,新規,0,2022-03-07,2022-03-07,清栄株式会社,,株式会社,埼玉県,川口市,大字安行北谷６２０番地の３,,11,203,3340054,,,,,,,2022-03-07,1,,,,,セイエイ,0
1982,7030001147145,新規,0,2022-03-07,2022-03-07,株式会社クレソア,,株式会社,埼玉県,さいたま市北区,本郷町６２番地,,11,102,3310802,,,,,,,2022-03-07,1,,,,,クレソア,0
1983,7030001147153,新規,0,2022-03-07,2022-03-07,ＡＧＹ．アド株式会社,,株式会社,埼玉県,川口市,戸塚２丁目２１番３４－５０１号,,11,203,3330811,,,,,,,2022-03-07,1,,,,,エージーワイアド,0
1990,7040001122477,新規,0,2022-03-07,2022-03-07,株式会社アークテックラボ,,株式会社,千葉県,印西市,松崎１３５２番地５,,12,231,2701344,,,,,,,2022-03-07,1,,,,,アークテックラボ,0
1992,7040005021527,新規,0,2022-03-07,2022-03-07,一般社団法人相続・遺言手続トータルサポート,,その他の設立登記法人,千葉県,市原市,国分寺台中央７丁目１９番地２１,,12,219,2900073,,,,,,,2022-03-07,1,,,,,ソウゾクユイゴンテツヅキトータルサポート,0
1995,7050001050719,新規,0,2022-03-07,2022-03-07,株式会社山崎工業,,株式会社,茨城県,かすみがうら市,下稲吉１８１６番地４,,08,230,3150052,,,,,,,2022-03-07,1,,,,,ヤマザキコウギョウ,0
1996,7050001050727,新規,0,2022-03-07,2022-03-07,株式会社アビック管理事業部,,株式会社,茨城県,水戸市,袴塚２丁目４番４６号,,08,201,3100055,,,,,,,2022-03-07,1,,,,,アビックカンリジギョウブ,0
1997,7050001050743,新規,0,2022-03-07,2022-03-07,株式会社ＡＶＳ　ｉｎｔｅｒｎａｔｉｏｎａｌ,,株式会社,茨城県,筑西市,海老ヶ島１２３３番地１武井住宅３号,,08,227,3004517,,,,,,,2022-03-07,1,,,,,エーブイエスインターナショナル,0
2004,7060003003970,新規,0,2022-03-07,2022-03-07,合同会社本気の猿Ｌａｂｏ,,合同会社,栃木県,小山市,犬塚４丁目２１番地１５,,09,208,3230811,,,,,,,2022-03-07,1,,,,,マジザルラボ,0
2009,7080401025656,新規,0,2022-03-07,2022-03-07,ラプラスプラス株式会社,,株式会社,静岡県,浜松市東区,神立町１１０番地の４ミラクルハウス２０２号,,22,132,4300801,,,,,,,2022-03-07,1,,,,,ラプラスプラス,0
2010,7080405007436,新規,0,2022-03-07,2022-03-07,一般社団法人ウィズクリエーション,,その他の設立登記法人,静岡県,浜松市中区,泉１丁目１３番３５号,,22,131,4338124,,,,,,,2022-03-07,1,,,,,ウィズクリエーション,0
2019,7110005016767,新規,0,2022-03-07,2022-03-07,農事組合法人平井農産,,その他の設立登記法人,新潟県,柏崎市,大字平井３５７２番地,,15,205,9451353,,,,,,,2022-03-07,1,,,,,ヒライノウサン,0
2034,7120001244148,新規,0,2022-03-07,2022-03-07,久聯精機株式会社,,株式会社,大阪府,大阪市北区,梅田２丁目５番１３号桜橋第一ビル３０４号,,27,127,5300001,,,,,,,2022-03-07,1,,,,,クレンセイキ,0
2035,7120001244172,新規,0,2022-03-07,2022-03-07,ＳＯＭＥ　ＤＥＳＩＧＮＳ株式会社,,株式会社,大阪府,大阪市東淀川区,菅原２丁目２番１０４号,,27,114,5330022,,,,,,,2022-03-07,1,,,,,サムデザインズ,0
2036,7120001244180,新規,0,2022-03-07,2022-03-07,株式会社トラストワークス,,株式会社,大阪府,大阪市浪速区,幸町１丁目３番１１－１１０２号,,27,111,5560021,,,,,,,2022-03-07,1,,,,,トラストワークス,0
2037,7120001244214,新規,0,2022-03-07,2022-03-07,株式会社ＬＡＵＬＥＡ,,株式会社,大阪府,寝屋川市,香里北之町２番６号１０２,,27,215,5720080,,,,,,,2022-03-07,1,,,,,ラウレア,0
2038,7120001244222,新規,0,2022-03-07,2022-03-07,株式会社Ｍｅｉｌｌｅｕｒｅ　Ｖｉｅ,,株式会社,大阪府,交野市,藤が尾６丁目５番２３号,,27,230,5760022,,,,,,,2022-03-07,1,,,,,メーヤービー,0
2039,7120001244255,新規,0,2022-03-07,2022-03-07,株式会社キタイホールディングス,,株式会社,大阪府,大阪市鶴見区,今津北４丁目１０番１号,,27,124,5380041,,,,,,,2022-03-07,1,,,,,キタイホールディングス,0
2040,7120001244263,新規,0,2022-03-07,2022-03-07,株式会社實栄,,株式会社,大阪府,大阪市浪速区,恵美須東２丁目５番１６号,,27,111,5560002,,,,,,,2022-03-07,1,,,,,カンエイ,0
2041,7120001244288,新規,0,2022-03-07,2022-03-07,株式会社ＢＴＳ高松,,株式会社,大阪府,大阪市中央区,島之内１丁目１５番１０号,,27,128,5420082,,,,,,,2022-03-07,1,,,,,ビーティーエスタカマツ,0
2044,7120005022830,新規,0,2022-03-07,2022-03-07,一般財団法人森山財団,,その他の設立登記法人,大阪府,大阪市淀川区,西宮原１丁目８番３９号,,27,123,5320004,,,,,,,2022-03-07,1,,,,,モリヤマザイダン,0
2046,7120101065139,新規,0,2022-03-07,2022-03-07,株式会社モウリ総合企画,,株式会社,大阪府,高石市,千代田２丁目４番１５号,,27,225,5920005,,,,,,,2022-03-07,1,,,,,モウリソウゴウキカク,0
2047,7120101065147,新規,0,2022-03-07,2022-03-07,Ｄ．Ｍ．Ｒ株式会社,,株式会社,大阪府,堺市北区,百舌鳥陵南町１丁１４１番地シャーメゾン城ノ坂１０３号,,27,146,5918034,,,,,,,2022-03-07,1,,,,,ディーエムアール,0
2048,7120101065155,新規,0,2022-03-07,2022-03-07,株式会社５６,,株式会社,大阪府,河内長野市,木戸１丁目２１番１－４０２号,,27,216,5860001,,,,,,,2022-03-07,1,,,,,ゴジュウロク,0
2049,7120101065163,新規,0,2022-03-07,2022-03-07,株式会社アルサケス,,株式会社,大阪府,岸和田市,額原町１０５３番地の２,,27,202,5960822,,,,,,,2022-03-07,1,,,,,アルサケス,0
2057,7120901045694,新規,0,2022-03-07,2022-03-07,株式会社Ｒｉｔｏ　Ｊａｐａｎ,,株式会社,大阪府,茨木市,上穂積２丁目１１番２２号,,27,211,5670036,,,,,,,2022-03-07,1,,,,,リトジャパン,0
2068,7130001071252,新規,0,2022-03-07,2022-03-07,株式会社リアン,,株式会社,京都府,京都市伏見区,納所中河原１７番地４７,,26,109,6128272,,,,,,,2022-03-07,1,,,,,リアン,0
2069,7130001071277,新規,0,2022-03-07,2022-03-07,錦響商事株式会社,,株式会社,京都府,京都市伏見区,竹田七瀬川町２９番地２深草サニーハイツ４０５,,26,109,6128422,,,,,,,2022-03-07,1,,,,,キンキョウショウジ,0
2070,7130001071302,新規,0,2022-03-07,2022-03-07,株式会社ブロンズキャメル,,株式会社,京都府,京都市中京区,河原町通二条上る清水町３４１番地１１グランクール河原町二条３１６号,,26,104,6040911,,,,,,,2022-03-07,1,,,,,ブロンズキャメル,0
2075,7140003017426,新規,0,2022-03-07,2022-03-07,ＧＯＲＩＹＡＫＵ合同会社,,合同会社,兵庫県,芦屋市,大東町１５番１８号,,28,206,6590023,,,,,,,2022-03-07,1,,,,,ゴリヤク,0
2076,7140005026061,新規,0,2022-03-07,2022-03-07,一般社団法人日本管理者支援機構,,その他の設立登記法人,兵庫県,姫路市,本町１２７番地,,28,201,6700012,,,,,,,2022-03-07,1,,,,,ニホンカンリシャシエンキコウ,0
2091,7180001150233,新規,0,2022-03-07,2022-03-07,株式会社鶏福,,株式会社,愛知県,名古屋市中区,千代田２丁目１６番３５号,,23,106,4600012,,,,,,,2022-03-07,1,,,,,トリフク,0
2092,7180001150308,新規,0,2022-03-07,2022-03-07,株式会社ＤＯＮＹＡ,,株式会社,愛知県,名古屋市北区,大曽根２丁目１番４号－１１０５,,23,103,4620825,,,,,,,2022-03-07,1,,,,,ドンヤ,0
2097,7180003023552,新規,0,2022-03-07,2022-03-07,合同会社ハートテック,,合同会社,愛知県,一宮市,多加木２丁目７番１４号ドルチェ１０２号,,23,203,4910837,,,,,,,2022-03-07,1,,,,,ハートテック,0
2099,7180005019664,新規,0,2022-03-07,2022-03-07,医療法人ワタナベ皮膚科,,その他の設立登記法人,愛知県,江南市,飛高町栄３３３番地,,23,217,4838339,,,,,,,2022-03-07,1,,,,,ワタナベヒフカ,0
2102,7180301036000,新規,0,2022-03-07,2022-03-07,株式会社Ｗｉｓｔｅｒｉａ　Ｈｉ１ｌ,,株式会社,愛知県,豊田市,則定町青木４３‐５,,23,211,4442342,,,,,,,2022-03-07,1,,,,,ウィステリアヒル,0
2105,7190003003917,新規,0,2022-03-07,2022-03-07,合同会社グーテ,,合同会社,三重県,松阪市,大黒田町１４５７番地１０,,24,204,5150063,,,,,,,2022-03-07,1,,,,,グーテ,0
2109,7200001039829,新規,0,2022-03-07,2022-03-07,株式会社なかまカンパニーズ,,株式会社,岐阜県,岐阜市,門屋２６９番地１１,,21,201,5012521,,,,,,,2022-03-07,1,,,,,ナカマカンパニーズ,0
2110,7200001039837,新規,0,2022-03-07,2022-03-07,株式会社ヨシノ建設工業,,株式会社,岐阜県,瑞穂市,生津外宮東町１丁目３９番地４,,21,216,5010214,,,,,,,2022-03-07,1,,,,,ヨシノケンセツコウギョウ,0
2112,7230005009206,新規,0,2022-03-07,2022-03-07,一般社団法人日本家財査定士協会,,その他の設立登記法人,富山県,射水市,津幡江６７３番地,,16,211,9340038,,,,,,,2022-03-07,1,,,,,ニホンカザイサテイシキョウカイ,0
2114,7240001059402,新規,0,2022-03-07,2022-03-07,株式会社サンエイチ,,株式会社,広島県,広島市東区,牛田早稲田４丁目７番５４－１０４号,,34,102,7320062,,,,,,,2022-03-07,1,,,,,サンエイチ,0
2116,7240003005536,新規,0,2022-03-07,2022-03-07,ＮＴ合同会社,,合同会社,広島県,広島市中区,基町１８番１－３６１号,,34,101,7300011,,,,,,,2022-03-07,1,,,,,エヌティー,0
2123,7290001096614,新規,0,2022-03-07,2022-03-07,株式会社ティズプラス,,株式会社,福岡県,久留米市,善導寺町木塚２１４番地２５,,40,203,8390822,,,,,,,2022-03-07,1,,,,,ティズプラス,0
2124,7290001096630,新規,0,2022-03-07,2022-03-07,株式会社城南測量,,株式会社,福岡県,福岡市城南区,長尾２丁目１３番１－２０３号,,40,136,8140123,,,,,,,2022-03-07,1,,,,,ジョウナンソクリョウ,0
2125,7290001096688,新規,0,2022-03-07,2022-03-07,ＷＦＰ株式会社,,株式会社,福岡県,小郡市,美鈴が丘３丁目１０番地１号シックステージＤ２０２,,40,216,8380101,,,,,,,2022-03-07,1,,,,,ダブリューエフピー,0
2126,7290001096705,新規,0,2022-03-07,2022-03-07,Ｇ‐ｎｅｘｔ株式会社,,株式会社,福岡県,福岡市博多区,石城町５番１１－１３０８号,,40,132,8120032,,,,,,,2022-03-07,1,,,,,ジーネクスト,0
2130,7290003012214,新規,0,2022-03-07,2022-03-07,林果合同会社,,合同会社,福岡県,福岡市博多区,美野島４丁目１番２－２０２号パロスリバーコート博多弐番館,,40,132,8120017,,,,,,,2022-03-07,1,,,,,リンカ,0
2131,7290003012239,新規,0,2022-03-07,2022-03-07,合同会社Ｈ　Ｇｒｏｕｐ,,合同会社,福岡県,福岡市城南区,七隈４丁目４番２１号,,40,136,8140133,,,,,,,2022-03-07,1,,,,,エイチグループ,0
2132,7290003012247,新規,0,2022-03-07,2022-03-07,ＨＡＮ合同会社,,合同会社,福岡県,福岡市東区,筥松１丁目４番２７号,,40,131,8120061,,,,,,,2022-03-07,1,,,,,エイチエイエヌ,0
2139,7290805009531,新規,0,2022-03-07,2022-03-07,一般財団法人田川市外７カ町村共有財産,,その他の設立登記法人,福岡県,田川市,新町１８番７号,,40,206,8250016,,,,,,,2022-03-07,1,,,,,タガワシホカナナカチョウソンキョウユウザイサン,0
2141,7300001012833,新規,0,2022-03-07,2022-03-07,株式会社弌商,,株式会社,佐賀県,武雄市,武雄町大字武雄６７６３番地,,41,206,8430022,,,,,,,2022-03-07,1,,,,,イッショウ,0
2142,7300005007061,新規,0,2022-03-07,2022-03-07,一般社団法人多久市観光協会,,その他の設立登記法人,佐賀県,多久市,多久町１８３７番地１,,41,204,8460031,,,,,,,2022-03-07,1,,,,,タクシカンコウキョウカイ,0
2143,7310001017740,新規,0,2022-03-07,2022-03-07,Ｍａｎ＆Ｗｏｍａｎ　Ｃｏｍｍｕｎｉｃａｔｉｏｎ株式会社,,株式会社,長崎県,長崎市,かき道４丁目４０番１８号,,42,201,8510115,,,,,,,2022-03-07,1,,,,,マンアンドウーマンコミュニケーション,0
2144,7310003004299,新規,0,2022-03-07,2022-03-07,合同会社ムーンライト伝説,,合同会社,長崎県,大村市,大里町１１７番地７,,42,205,8560845,,,,,,,2022-03-07,1,,,,,ムーンライトデンセツ,0
2161,7360001030078,新規,0,2022-03-07,2022-03-07,ＢＳＫ株式会社,,株式会社,沖縄県,中頭郡西原町,字森川９４番地の１,,47,329,9030128,,,,,,,2022-03-07,1,,,,,ビーエスケイ,0
2162,7360001030086,新規,0,2022-03-07,2022-03-07,株式会社柚月,,株式会社,沖縄県,島尻郡南風原町,字新川１８３番地,,47,350,9011105,,,,,,,2022-03-07,1,,,,,ユヅキ,0
2163,7370001048292,新規,0,2022-03-07,2022-03-07,株式会社みみみ,,株式会社,宮城県,仙台市青葉区,栗生５丁目２２番地の３,,04,101,9893122,,,,,,,2022-03-07,1,,,,,ミミミ,0
2167,7410001013110,新規,0,2022-03-07,2022-03-07,株式会社カワムラ工業,,株式会社,秋田県,湯沢市,杉沢字森道下２１２番地３,,05,207,0120804,,,,,,,2022-03-07,1,,,,,カワムラコウギョウ,0
2169,7420001017754,新規,0,2022-03-07,2022-03-07,株式会社ＧＯ＆ＳＵ,,株式会社,青森県,弘前市,大字泉野３丁目１番地７,,02,202,0368164,,,,,,,2022-03-07,1,,,,,ゴーアンドスー,0
2170,7420003002473,新規,0,2022-03-07,2022-03-07,合同会社ＧＬＡＮＺ　ＡＮＩＭＯ,,合同会社,青森県,青森市,西滝３丁目２２番８号,,02,201,0380014,,,,,,,2022-03-07,1,,,,,グランツアニーモ,0
2175,7430001086105,新規,0,2022-03-07,2022-03-07,株式会社青山ファーム,,株式会社,北海道,夕張郡由仁町,川端２０８１番地,,01,427,0691141,,,,,,,2022-03-07,1,,,,,アオヤマファーム,0
2178,7430003013668,新規,0,2022-03-07,2022-03-07,合同会社慮る,,合同会社,北海道,岩見沢市,南町八条２丁目１番８号,,01,210,0680808,,,,,,,2022-03-07,1,,,,,オモンバカル,0
2179,7460301005050,新規,0,2022-03-07,2022-03-07,株式会社ファーム佐野,,株式会社,北海道,斜里郡清里町,字上斜里３５番地１５,,01,546,0994401,,,,,,,2022-03-07,1,,,,,ファームサノ,0
2183,7470001018987,新規,0,2022-03-07,2022-03-07,マグミット製薬株式会社,,株式会社,香川県,木田郡三木町,大字井上２８７６番地２,,37,341,7610705,,,,,,,2022-03-07,1,,,,,マグミットセイヤク,0
2184,7470003002147,新規,0,2022-03-07,2022-03-07,合同会社ＦＵＲＵ　ｍｕｓｉｃ．ｌａｂ,,合同会社,香川県,高松市,太田下町１９３９番地１スカイハイツ太田１０５号室,,37,201,7618073,,,,,,,2022-03-07,1,,,,,フルミュージックラボ,0
2186,7500001024049,新規,0,2022-03-07,2022-03-07,株式会社リンサット,,株式会社,愛媛県,西条市,朔日市６３３番地１２,,38,206,7930027,,,,,,,2022-03-07,1,,,,,リンサット,0
2191,8010001225018,新規,0,2022-03-07,2022-03-07,株式会社はやぶさ,,株式会社,東京都,中央区,日本橋堀留町１丁目１０番１号カクタビル２Ｆ,,13,102,1030012,,,,,,,2022-03-07,1,,,,,ハヤブサ,0
2194,8010005034679,新規,0,2022-03-07,2022-03-07,一般社団法人ジェミニホールディングス,,その他の設立登記法人,東京都,千代田区,丸の内３丁目１番１号東京共同会計事務所内,,13,101,1000005,,,,,,,2022-03-07,1,,,,,ジェミニホールディングス,0
2195,8010005034695,新規,0,2022-03-07,2022-03-07,一般社団法人シェアカワサキ,,その他の設立登記法人,東京都,千代田区,霞が関３丁目２番５号霞が関ビル３０階霞ヶ関国際会計事務所内,,13,101,1000013,,,,,,,2022-03-07,1,,,,,シェアカワサキ,0
2204,8010403027210,新規,0,2022-03-07,2022-03-07,合同会社Ｄａｙｔｏｎａ,,合同会社,東京都,港区,西新橋１丁目９番１号ブロドリー西新橋ビルＢ１,,13,103,1050003,,,,,,,2022-03-07,1,,,,,ディトナ,0
2205,8010403027219,新規,0,2022-03-07,2022-03-07,Ｂ＆Ｍアセットマネジメント合同会社,,合同会社,東京都,港区,虎ノ門４丁目３番１号城山トラストタワー２７階,,13,103,1050001,,,,,,,2022-03-07,1,,,,,ビーアンドエムアセットマネジメント,0
2206,8010405020766,新規,0,2022-03-07,2022-03-07,未来創造社会保険労務士法人,,その他の設立登記法人,東京都,港区,虎ノ門５丁目１１番２号オランダヒルズ森タワー１７階,,13,103,1050001,,,,,,,2022-03-07,1,,,,,ミライソウゾウ,0
2208,8010501048538,新規,0,2022-03-07,2022-03-07,株式会社ＳＳＲ－ＰＡＲＴＮＥＲＳ,,株式会社,東京都,台東区,根岸５丁目２０番１０－６０１号,,13,106,1100003,,,,,,,2022-03-07,1,,,,,エスエスアールパートナーズ,0
2209,8010601060797,新規,0,2022-03-07,2022-03-07,ＭＩＤＮＩＧＨＴＥＸＰＲＳＳ株式会社,,株式会社,東京都,江東区,森下５丁目１４番５号,,13,108,1350004,,,,,,,2022-03-07,1,,,,,ミッドナイトエクスプレス,0
2210,8010603009413,新規,0,2022-03-07,2022-03-07,ＲＥＫＬＡＩＭ合同会社,,合同会社,東京都,江東区,東砂４丁目２４番３－１４２号,,13,108,1360074,,,,,,,2022-03-07,1,,,,,リクレーム,0
2211,8010605004049,新規,0,2022-03-07,2022-03-07,一般社団法人仁誠会,,その他の設立登記法人,東京都,墨田区,錦糸３丁目４番１０号小栗ビル２階,,13,107,1300013,,,,,,,2022-03-07,1,,,,,ジンセイカイ,0
2216,8010801032786,新規,0,2022-03-07,2022-03-07,株式会社魚行,,株式会社,東京都,大田区,東海３丁目２番８号東京都中央卸売大田市場水産棟Ｇ１７,,13,111,1430001,,,,,,,2022-03-07,1,,,,,ウオコウ,0
2219,8010901050473,新規,0,2022-03-07,2022-03-07,株式会社ｔｈｉｎｋａ,,株式会社,東京都,世田谷区,太子堂１丁目１２番２７号コンフォートテラス１００５号,,13,112,1540004,,,,,,,2022-03-07,1,,,,,シンカ,0
2220,8010901050481,新規,0,2022-03-07,2022-03-07,株式会社春陽堂,,株式会社,東京都,世田谷区,上野毛４丁目３５番１２号,,13,112,1580093,,,,,,,2022-03-07,1,,,,,シュンヨウドウ,0
2222,8010903007208,新規,0,2022-03-07,2022-03-07,合同会社ＧＲＯＵＮＤＲＩＤＤＩＭ　ＭＯＵ,,合同会社,東京都,世田谷区,駒沢４丁目１７番７号,,13,112,1540012,,,,,,,2022-03-07,1,,,,,グラウンドリディムマウ,0
2228,8011001146105,新規,0,2022-03-07,2022-03-07,フロンティアエージェンシー株式会社,,株式会社,東京都,渋谷区,恵比寿４丁目２０番３号恵比寿ガーデンプレイスタワー１４階,,13,113,1500013,,,,,,,2022-03-07,1,,,,,フロンティアエージェンシー,0
2229,8011001146138,新規,0,2022-03-07,2022-03-07,株式会社ホームマップ,,株式会社,東京都,渋谷区,円山町６番７号,,13,113,1500044,,,,,,,2022-03-07,1,,,,,ホームマップ,0
2233,8011101097768,新規,0,2022-03-07,2022-03-07,開元株式会社,,株式会社,東京都,新宿区,榎町３４－３榎町ビル５Ｆ,,13,104,1620806,,,,,,,2022-03-07,1,,,,,カイゲン,0
2234,8011101097990,新規,0,2022-03-07,2022-03-07,リベライフ株式会社,,株式会社,東京都,新宿区,新宿２丁目１０－７,,13,104,1600022,,,,,,,2022-03-07,1,,,,,,0
2236,8011103011495,新規,0,2022-03-07,2022-03-07,ＥａＭコンサルティング合同会社,,合同会社,東京都,新宿区,新宿５丁目１８番２０号ルックハイツ新宿８０３号,,13,104,1600022,,,,,,,2022-03-07,1,,,,,エンターテインメントアンドメディアコンサルティング,0
2237,8011103011520,新規,0,2022-03-07,2022-03-07,合同会社モモスケ,,合同会社,東京都,新宿区,西新宿６丁目５番１号,,13,104,1600023,,,,,,,2022-03-07,1,,,,,モモスケ,0
2242,8011501027820,新規,0,2022-03-07,2022-03-07,株式会社伊藤興業,,株式会社,東京都,北区,赤羽南１丁目５番１２－９０２号ザ・パークハビオ赤羽,,13,117,1150044,,,,,,,2022-03-07,1,,,,,イトウコウギョウ,0
2244,8011505002456,新規,0,2022-03-07,2022-03-07,一般社団法人ＮＩＰＰＯＮ　ＩＳＬＡＭＩＣ　ＦＯＵＮＤＡＴＩＯＮ,,その他の設立登記法人,東京都,北区,東十条３丁目１７番９号,,13,117,1140001,,,,,,,2022-03-07,1,,,,,ニッポンイスラミックファウンディション,0
2247,8011701025095,新規,0,2022-03-07,2022-03-07,株式会社Ｄｅ－Ｒｅ　Ｔｅｃｈ,,株式会社,東京都,江戸川区,鹿骨５丁目３４番１０号,,13,123,1330073,,,,,,,2022-03-07,1,,,,,デリテック,0
2261,8020001145553,新規,0,2022-03-07,2022-03-07,株式会社Ｓｐｒｏｕｔ,,株式会社,神奈川県,川崎市多摩区,登戸１７０４番地,,14,135,2140014,,,,,,,2022-03-07,1,,,,,スプラウト,0
2266,8021001075311,新規,0,2022-03-07,2022-03-07,株式会社サンリンシャ,,株式会社,神奈川県,鎌倉市,十二所９５２－８,,14,204,2480001,,,,,,,2022-03-07,1,,,,,サンリンシャ,0
2268,8021003011446,新規,0,2022-03-07,2022-03-07,合同会社湘南マーチ,,合同会社,神奈川県,藤沢市,弥勒寺４丁目１６番１１号,,14,205,2510016,,,,,,,2022-03-07,1,,,,,ショウナンマーチ,0
2269,8021003011454,新規,0,2022-03-07,2022-03-07,合同会社ＹＲ,,合同会社,神奈川県,相模原市南区,西大沼３丁目１５番７号,,14,153,2520332,,,,,,,2022-03-07,1,,,,,ワイアール,0
2270,8021003011462,新規,0,2022-03-07,2022-03-07,合同会社三三社,,合同会社,神奈川県,中郡二宮町,二宮７３３番地の１サンファミールＡ棟１０１,,14,342,2590123,,,,,,,2022-03-07,1,,,,,ミミシャ,0
2272,8030001147144,新規,0,2022-03-07,2022-03-07,セントラル不動産管理株式会社,,株式会社,埼玉県,朝霞市,根岸台８丁目１番２１号,,11,227,3510005,,,,,,,2022-03-07,1,,,,,セントラルフドウサンカンリ,0
2273,8030001147152,新規,0,2022-03-07,2022-03-07,Ｈａｎａｂｕｋｉ株式会社,,株式会社,埼玉県,所沢市,けやき台１丁目２６番地の１,,11,208,3591118,,,,,,,2022-03-07,1,,,,,ハナブキ,0
2274,8030001147169,新規,0,2022-03-07,2022-03-07,フラワー株式会社,,株式会社,埼玉県,さいたま市大宮区,大成町１丁目８６番地,,11,103,3300852,,,,,,,2022-03-07,1,,,,,フラワー,0
2280,8030003018987,新規,0,2022-03-07,2022-03-07,ＬＹ商事合同会社,,合同会社,埼玉県,戸田市,喜沢２丁目４２番地の５４,,11,224,3350013,,,,,,,2022-03-07,1,,,,,エルワイショウジ,0
2286,8040001122385,新規,0,2022-03-07,2022-03-07,Ｓｔａｒ　Ｂｅａｒｓ株式会社,,株式会社,千葉県,市川市,新田３丁目１５番２１号,,12,203,2720035,,,,,,,2022-03-07,1,,,,,スターベアーズ,0
2287,8040001122468,新規,0,2022-03-07,2022-03-07,株式会社アイ・リペア,,株式会社,千葉県,市川市,南八幡４丁目１４番７号,,12,203,2720023,,,,,,,2022-03-07,1,,,,,アイリペア,0
2292,8050001050718,新規,0,2022-03-07,2022-03-07,株式会社ルースグラシアス,,株式会社,茨城県,取手市,戸頭１１４２番地３１,,08,217,3020034,,,,,,,2022-03-07,1,,,,,ルースグラシアス,0
2293,8050001050734,新規,0,2022-03-07,2022-03-07,株式会社Ｋ－ＷＯＲＬＤ,,株式会社,茨城県,土浦市,板谷４丁目６６７番地６１ソレイユ・Ｔ１０２号室,,08,203,3000007,,,,,,,2022-03-07,1,,,,,ケーワールド,0
2294,8050001050742,新規,0,2022-03-07,2022-03-07,株式会社ＡＬ研究所,,株式会社,茨城県,つくば市,千現２丁目１番地６,,08,220,3050047,,,,,,,2022-03-07,1,,,,,エーエルケンキュウジョ,0
2299,8050003006412,新規,0,2022-03-07,2022-03-07,合同会社タスクプラス,,合同会社,茨城県,那珂郡東海村,大字石神内宿２４２２番地５１,,08,341,3191102,,,,,,,2022-03-07,1,,,,,タスクプラス,0
2302,8070001039024,新規,0,2022-03-07,2022-03-07,株式会社まるでん加工,,株式会社,群馬県,利根郡みなかみ町,月夜野１３９８番地２,,10,449,3791313,,,,,,,2022-03-07,1,,,,,マルデンカコウ,0
2303,8070003004397,新規,0,2022-03-07,2022-03-07,合同会社ＡＦＴＥＲＷＯＲＫ　ＬＡＢ,,合同会社,群馬県,前橋市,千代田町２丁目１０－２,,10,201,3710022,,,,,,,2022-03-07,1,,,,,アフターワークラボ,0
2324,8120001244106,新規,0,2022-03-07,2022-03-07,柳井株式会社,,株式会社,大阪府,大阪市北区,梅田２丁目６－２０パシフィックマークス西梅田４階４１４,,27,127,5300001,,,,,,,2022-03-07,1,,,,,ヤナイ,0
2325,8120001244147,新規,0,2022-03-07,2022-03-07,株式会社レイ,,株式会社,大阪府,大阪市阿倍野区,天王寺町北１丁目２番２４号,,27,119,5450001,,,,,,,2022-03-07,1,,,,,レイ,0
2326,8120001244188,新規,0,2022-03-07,2022-03-07,コンビネーション株式会社,,株式会社,大阪府,大阪市阿倍野区,帝塚山１丁目８番３号,,27,119,5450037,,,,,,,2022-03-07,1,,,,,コンビネーション,0
2327,8120001244238,新規,0,2022-03-07,2022-03-07,株式会社Ｎａｕｔｔｉａ,,株式会社,大阪府,大阪市鶴見区,今津中３丁目３番２－１０１号,,27,124,5380042,,,,,,,2022-03-07,1,,,,,ナウティッア,0
2328,8120001244246,新規,0,2022-03-07,2022-03-07,ＩＤコミュニケーションズ株式会社,,株式会社,大阪府,大阪市浪速区,難波中１丁目１４番１４－４０１号,,27,111,5560011,,,,,,,2022-03-07,1,,,,,アイディーコミュニケーションズ,0
2329,8120001244254,新規,0,2022-03-07,2022-03-07,株式会社ｅｌｅｍａａ,,株式会社,大阪府,大阪市福島区,鷺洲３丁目１０番１５－８０５号,,27,103,5530002,,,,,,,2022-03-07,1,,,,,エレマ,0
2330,8120001244295,新規,0,2022-03-07,2022-03-07,ＴＭ株式会社,,株式会社,大阪府,大阪市都島区,都島南通２丁目１番３－２１１号,,27,102,5340023,,,,,,,2022-03-07,1,,,,,ティーエム,0
2331,8120001244304,新規,0,2022-03-07,2022-03-07,羽信株式会社,,株式会社,大阪府,大阪市西区,江戸堀３丁目６番２５－２０４号,,27,106,5500002,,,,,,,2022-03-07,1,,,,,ハシン,0
2332,8120003021222,新規,0,2022-03-07,2022-03-07,合同会社ＨａｌｅＬｉａ,,合同会社,大阪府,大阪市都島区,東野田町１丁目１５－１２－４０１号,,27,102,5340024,,,,,,,2022-03-07,1,,,,,ハレリア,0
2334,8120101065179,新規,0,2022-03-07,2022-03-07,株式会社イロハ,,株式会社,大阪府,泉佐野市,下瓦屋２０３番地,,27,213,5980062,,,,,,,2022-03-07,1,,,,,イロハ,0
2335,8120101065187,新規,0,2022-03-07,2022-03-07,堂北電気株式会社,,株式会社,大阪府,河内長野市,高向１４７０番地,,27,216,5860036,,,,,,,2022-03-07,1,,,,,ドウキタデンキ,0
2339,8120901045669,新規,0,2022-03-07,2022-03-07,グラップ株式会社,,株式会社,大阪府,豊中市,旭丘２番１４号,,27,203,5610865,,,,,,,2022-03-07,1,,,,,グラップ,0
2340,8120901045702,新規,0,2022-03-07,2022-03-07,株式会社ＦＳＣ,,株式会社,大阪府,茨木市,双葉町９番２１号コスモビル４階,,27,211,5670829,,,,,,,2022-03-07,1,,,,,エフエスシー,0
2342,8122001035625,新規,0,2022-03-07,2022-03-07,久保電工株式会社,,株式会社,大阪府,四條畷市,岡山東５丁目５番２４号,,27,229,5750003,,,,,,,2022-03-07,1,,,,,クボデンコウ,0
2348,8130001071251,新規,0,2022-03-07,2022-03-07,株式会社Ｇカンパニー,,株式会社,京都府,舞鶴市,森町２７番地１４,,26,202,6250061,,,,,,,2022-03-07,1,,,,,ジーカンパニー,0
2349,8130001071276,新規,0,2022-03-07,2022-03-07,株式会社Ｓｌｕｍｂｅｒ,,株式会社,京都府,京都市中京区,蟷螂山町４７３番地レジデンシャル四条蟷螂山８０５,,26,104,6048225,,,,,,,2022-03-07,1,,,,,スランバー,0
2350,8130001071301,新規,0,2022-03-07,2022-03-07,株式会社ＨＩＲＡＯＳＴＹＬＥ,,株式会社,京都府,京都市山科区,東野中井ノ上町１２番地１６ラティスヒガシノ４０４,,26,110,6078142,,,,,,,2022-03-07,1,,,,,ヒラオスタイル,0
2352,8140001125171,新規,0,2022-03-07,2022-03-07,株式会社みらいえ,,株式会社,兵庫県,宝塚市,福井町２６番２２－１Ｆ,,28,214,6650046,,,,,,,2022-03-07,1,,,,,ミライエ,0
2355,8140003017425,新規,0,2022-03-07,2022-03-07,合同会社イデアル,,合同会社,兵庫県,姫路市,南八代町１－９－５０１,,28,201,6700875,,,,,,,2022-03-07,1,,,,,イデアル,0
2356,8140005026052,新規,0,2022-03-07,2022-03-07,一般社団法人ＡＧＲＩ＆ＬＩＦｅ．,,その他の設立登記法人,兵庫県,川西市,東畦野４丁目２１番１３号Ａ－３,,28,217,6660117,,,,,,,2022-03-07,1,,,,,アグリアンドライフ,0
2360,8150003002632,新規,0,2022-03-07,2022-03-07,Ｎメディカルパートナーズ合同会社,,合同会社,奈良県,奈良市,上三条町１３番４号呉竹ビル３階,,29,201,6308228,,,,,,,2022-03-07,1,,,,,エヌメディカルパートナーズ,0
2361,8150005009378,新規,0,2022-03-07,2022-03-07,一般社団法人ＳＫＫトラスト,,その他の設立登記法人,奈良県,生駒市,北田原町１７８６番地の１,,29,209,6300142,,,,,,,2022-03-07,1,,,,,エスケイケイトラスト,0
2363,8160001024033,新規,0,2022-03-07,2022-03-07,株式会社山傳,,株式会社,滋賀県,草津市,野路８丁目１０番３８号,,25,206,5250059,,,,,,,2022-03-07,1,,,,,ヤマデン,0
2370,8180001150249,新規,0,2022-03-07,2022-03-07,ドローンコンサル株式会社,,株式会社,愛知県,小牧市,古雅４丁目１５番地５,,23,219,4850814,,,,,,,2022-03-07,1,,,,,ドローンコンサル,0
2371,8180001150281,新規,0,2022-03-07,2022-03-07,株式会社ＰＵＬＰＯ,,株式会社,愛知県,清須市,阿原宮前２０２番地,,23,233,4520901,,,,,,,2022-03-07,1,,,,,プルポ,0
2372,8180001150315,新規,0,2022-03-07,2022-03-07,株式会社櫻美装,,株式会社,愛知県,名古屋市中区,丸の内２丁目７番１９号,,23,106,4600002,,,,,,,2022-03-07,1,,,,,サクラビソウ,0
2377,8180005019663,新規,0,2022-03-07,2022-03-07,医療法人Ｈａｐｐｙ　Ｓｍｉｌｅ,,その他の設立登記法人,愛知県,稲沢市,長野７丁目１番２号リーフウォーク稲沢１１９区画,,23,220,4928142,,,,,,,2022-03-07,1,,,,,ハッピースマイル,0
2379,8180301035991,新規,0,2022-03-07,2022-03-07,株式会社ＵＬＴＲＡ　ＣＯＮＮＥＣＴＥＤ　ａｎｄ　Ｇｕｉｌｄｓ,,株式会社,愛知県,刈谷市,荒井町２丁目５番地８,,23,210,4480814,,,,,,,2022-03-07,1,,,,,ウルトラコネクティッドアンドギルドズ,0
2391,8240001059426,新規,0,2022-03-07,2022-03-07,アサヒウォーター株式会社,,株式会社,広島県,尾道市,栗原町９１５９番地１,,34,205,7220022,,,,,,,2022-03-07,1,,,,,アサヒウォーター,0
2392,8240001059434,新規,0,2022-03-07,2022-03-07,株式会社前田技研,,株式会社,広島県,広島市南区,向洋大原町２３番２５号,,34,103,7340063,,,,,,,2022-03-07,1,,,,,マエダギケン,0
2393,8240001059442,新規,0,2022-03-07,2022-03-07,株式会社ＳＨＩＮＥ　ＰＲＯＪＥＣＴ,,株式会社,広島県,広島市中区,小町９番８号中田ビル３Ｆ,,34,101,7300041,,,,,,,2022-03-07,1,,,,,シャインプロジェクト,0
2396,8240003005543,新規,0,2022-03-07,2022-03-07,合同会社増田小川,,合同会社,広島県,呉市,中通２丁目２番６号ゑり真ビル２階,,34,202,7370046,,,,,,,2022-03-07,1,,,,,マスダオガワ,0
2397,8240005015350,新規,0,2022-03-07,2022-03-07,医療法人ちかもり内科医院,,その他の設立登記法人,広島県,福山市,曙町５丁目１９－２３,,34,207,7210952,,,,,,,2022-03-07,1,,,,,チカモリナイカイイン,0
2409,8290001096662,新規,0,2022-03-07,2022-03-07,株式会社つむぎ,,株式会社,福岡県,糟屋郡粕屋町,原町１丁目３番１５号,,40,349,8112307,,,,,,,2022-03-07,1,,,,,ツムギ,0
2410,8290001096712,新規,0,2022-03-07,2022-03-07,株式会社ワイズ,,株式会社,福岡県,福岡市博多区,麦野２丁目８番２５号,,40,132,8120882,,,,,,,2022-03-07,1,,,,,ワイズ,0
2412,8290003012238,新規,0,2022-03-07,2022-03-07,合同会社フレッシュフレッシュ,,合同会社,福岡県,福岡市中央区,春吉１丁目６番１０号,,40,133,8100003,,,,,,,2022-03-07,1,,,,,フレッシュフレッシュ,0
2413,8290003012246,新規,0,2022-03-07,2022-03-07,合同会社ＲＯＣＫＥＹ,,合同会社,福岡県,福岡市南区,井尻４丁目４番９号,,40,134,8111302,,,,,,,2022-03-07,1,,,,,ラキ,0
2420,8320003003745,新規,0,2022-03-07,2022-03-07,合同会社ＩＬＡ外国語,,合同会社,大分県,大分市,府内町１丁目６番３０号,,44,201,8700021,,,,,,,2022-03-07,1,,,,,アイエルエイガイコクゴ,0
2422,8330001029519,新規,0,2022-03-07,2022-03-07,株式会社おむすび,,株式会社,熊本県,上益城郡御船町,大字木倉１１２２番地３,,43,441,8613204,,,,,,,2022-03-07,1,,,,,オムスビ,0
2425,8340001024543,新規,0,2022-03-07,2022-03-07,株式会社サンファーム堀口,,株式会社,鹿児島県,志布志市,有明町蓬原７８５番地２,00125882,46,221,8997503,,,,,,,2022-03-07,1,,,,,サンファームホリグチ,0
2428,8360001030085,新規,0,2022-03-07,2022-03-07,株式会社ＹＯＬＯ,,株式会社,沖縄県,沖縄市,高原４丁目４番２５号,,47,211,9042171,,,,,,,2022-03-07,1,,,,,ヨーロー,0
2429,8360001030093,新規,0,2022-03-07,2022-03-07,株式会社きよしン家不動産,,株式会社,沖縄県,那覇市,泊３丁目１０番地１０,,47,201,9000012,,,,,,,2022-03-07,1,,,,,キヨシンチフドウサン,0
2432,8370001048250,新規,0,2022-03-07,2022-03-07,株式会社バモス,,株式会社,宮城県,仙台市青葉区,桜ケ丘４丁目１２番２１号,,04,101,9810961,,,,,,,2022-03-07,1,,,,,バモス,0
2433,8370001048283,新規,0,2022-03-07,2022-03-07,株式会社成光,,株式会社,宮城県,石巻市,恵み野４丁目３番地１,,04,202,9860868,,,,,,,2022-03-07,1,,,,,セイコウ,0
2436,8370003005613,新規,0,2022-03-07,2022-03-07,合同会社Ｔｉｅｒｒａ,,合同会社,宮城県,東松島市,矢本字寿町２番地,,04,214,9810503,,,,,,,2022-03-07,1,,,,,ティエラ,0
2450,8430001086129,新規,0,2022-03-07,2022-03-07,株式会社Ｏｎｅ　Ｗａｙ　Ｔｉｃｋｅｔ,,株式会社,北海道,浦河郡浦河町,東町かしわ１丁目３番２０号ＫＡＳＨＩＷＡＩＩ２０５号,00125879,01,607,0570006,,,,,,,2022-03-07,1,,,,,ワンウェイチケット,0
2451,8430001086145,新規,0,2022-03-07,2022-03-07,株式会社エムズプラス札幌,,株式会社,北海道,札幌市白石区,東米里２０３６番地１０,,01,104,0030876,,,,,,,2022-03-07,1,,,,,エムズプラスサッポロ,0
2456,8430003013683,新規,0,2022-03-07,2022-03-07,合同会社きみかげ山,,合同会社,北海道,石狩郡当別町,字東裏１７５６番地１８,,01,303,0610213,,,,,,,2022-03-07,1,,,,,キミカゲヤマ,0
2471,9010001224836,新規,0,2022-03-07,2022-03-07,焼肉セルフ株式会社,,株式会社,東京都,中央区,日本橋小伝馬町１６－７,,13,102,1030001,,,,,,,2022-03-07,1,,,,,ヤキニクセルフ,0
2472,9010001224943,新規,0,2022-03-07,2022-03-07,広野ＩＧＣＣマネジメント株式会社,,株式会社,東京都,千代田区,丸の内２丁目６番１号,,13,101,1000005,,,,,,,2022-03-07,1,,,,,ヒロノアイジーシーシーマネジメント,0
2476,9010003037162,新規,0,2022-03-07,2022-03-07,合同会社アミティエ,,合同会社,東京都,文京区,千石２丁目３１番８号,,13,105,1120011,,,,,,,2022-03-07,1,,,,,アミティエ,0
2477,9010003037179,新規,0,2022-03-07,2022-03-07,合同会社ＭＨＤＦ,,合同会社,東京都,千代田区,飯田橋３丁目６－７,,13,101,1020072,,,,,,,2022-03-07,1,,,,,エムエイチディーエフ,0
2493,9010401165928,新規,0,2022-03-07,2022-03-07,カープレミア株式会社,,株式会社,東京都,港区,虎ノ門２丁目１０番４号オークラプレステージタワー,,13,103,1050001,,,,,,,2022-03-07,1,,,,,カープレミア,0
2494,9010401165993,新規,0,2022-03-07,2022-03-07,株式会社ナレスト,,株式会社,東京都,港区,浜松町２丁目２番１５号浜松町ダイヤビル２Ｆ,,13,103,1050013,,,,,,,2022-03-07,1,,,,,ナレスト,0
2495,9010403027110,新規,0,2022-03-07,2022-03-07,合同会社ｍｅｄｉｏ,,合同会社,東京都,港区,台場１丁目５－６－８０４,,13,103,1350091,,,,,,,2022-03-07,1,,,,,メディオ,0
2498,9010601060796,新規,0,2022-03-07,2022-03-07,ＳＩＤＥ　ＡＧＥＮＴ株式会社,,株式会社,東京都,江東区,豊洲６丁目２番２９－１４１１号,,13,108,1350061,,,,,,,2022-03-07,1,,,,,サイドエージェント,0
2500,9010603009420,新規,0,2022-03-07,2022-03-07,ＧＳ　Ｃｏｒｐｏｒａｔｉｏｎ合同会社,,合同会社,東京都,江東区,木場５丁目１番５号メイプルハイム木場Ｂ１１４,,13,108,1350042,,,,,,,2022-03-07,1,,,,,ジーエスコーポレーション,0
2507,9010903007207,新規,0,2022-03-07,2022-03-07,合同会社ｙｕｚｕｈａ,,合同会社,東京都,世田谷区,池尻３丁目５番１０号アルジオーネ池尻１０３号室,,13,112,1540001,,,,,,,2022-03-07,1,,,,,ユズハ,0
2512,9011001146120,新規,0,2022-03-07,2022-03-07,株式会社Ｊカラー,,株式会社,東京都,渋谷区,千駄ヶ谷２丁目２９番８号さかえビル２０６号室,,13,113,1510051,,,,,,,2022-03-07,1,,,,,ジェイカラー,0
2513,9011001146129,新規,0,2022-03-07,2022-03-07,株式会社ポリム,,株式会社,東京都,渋谷区,渋谷２丁目５番１４号ミュゼ表参道４０１,,13,113,1500002,,,,,,,2022-03-07,1,,,,,ポリム,0
2514,9011001146137,新規,0,2022-03-07,2022-03-07,株式会社アッシュアンドエー,,株式会社,東京都,渋谷区,代々木２丁目２１番１１号,,13,113,1510053,,,,,,,2022-03-07,1,,,,,アッシュアンドエー,0
2518,9011003014250,新規,0,2022-03-07,2022-03-07,合同会社ＭＡＣＯＲＵＲＵ,,合同会社,東京都,渋谷区,西原１丁目２８－７－３０１号ｍｏｄｉｅｒｈａｔａｇａｙａ,,13,113,1510066,,,,,,,2022-03-07,1,,,,,マコルル,0
2523,9011101097957,新規,0,2022-03-07,2022-03-07,株式会社甲斐,,株式会社,東京都,新宿区,西新宿４丁目３４番７号,,13,104,1600023,,,,,,,2022-03-07,1,,,,,カイ,0
2524,9011101097965,新規,0,2022-03-07,2022-03-07,株式会社ＭｅｔａＣａｒｅｅｒ,,株式会社,東京都,新宿区,下落合２丁目５番３号,,13,104,1610033,,,,,,,2022-03-07,1,,,,,メタキャリア,0
2525,9011103011552,新規,0,2022-03-07,2022-03-07,合同会社ＰＬＳ,,合同会社,東京都,新宿区,西新宿３丁目３番１３号西新宿水間ビル６階,,13,104,1600023,,,,,,,2022-03-07,1,,,,,プラス,0
2533,9011701025086,新規,0,2022-03-07,2022-03-07,株式会社Ｃ１２,,株式会社,東京都,江戸川区,篠崎町２丁目２番１号,,13,123,1330061,,,,,,,2022-03-07,1,,,,,シージュウニ,0
2548,9013301048764,新規,0,2022-03-07,2022-03-07,株式会社ドリームコラボレーション,,株式会社,東京都,豊島区,西池袋５丁目１７番１２号創業新幹線ビル７Ｆ,,13,116,1710021,,,,,,,2022-03-07,1,,,,,ドリームコラボレーション,0
2549,9013301048772,新規,0,2022-03-07,2022-03-07,株式会社エフエフ,,株式会社,東京都,豊島区,池袋２丁目１８番７号,,13,116,1710014,,,,,,,2022-03-07,1,,,,,エフエフ,0
2550,9013303006076,新規,0,2022-03-07,2022-03-07,合同会社ＨＩ　Ｐｈｉｌｏｓｏｐｈｙ,,合同会社,東京都,豊島区,東池袋１丁目１７－１１パークハイツ池袋１１０５,,13,116,1700013,,,,,,,2022-03-07,1,,,,,エイチアイフィロソフィー,0
2554,9020001145536,新規,0,2022-03-07,2022-03-07,株式会社Ｍｏｓｔｆｕｎ,,株式会社,神奈川県,横浜市港北区,篠原町１０７４番地１０５,,14,109,2220026,,,,,,,2022-03-07,1,,,,,モストファン,0
2556,9020005015405,新規,0,2022-03-07,2022-03-07,一般財団法人ＭＵＳＥ財団,,その他の設立登記法人,神奈川県,横浜市中区,住吉町２丁目２２番地松栄関内ビル２階株式会社ＡＫＩＡ　ＴＡＸ　ＣＯＮＳＵＬＴＡＮＴＳ内,,14,104,2310013,,,,,,,2022-03-07,1,,,,,ミューズザイダン,0
2559,9021001075310,新規,0,2022-03-07,2022-03-07,株式会社ＩＲＦ,,株式会社,神奈川県,相模原市緑区,下九沢２１０３番地６４,,14,151,2520134,,,,,,,2022-03-07,1,,,,,アイアールエフ,0
2560,9021001075319,新規,0,2022-03-07,2022-03-07,株式会社ラナススタイル,,株式会社,神奈川県,藤沢市,湘南台７丁目２番地の２４,,14,205,2520804,,,,,,,2022-03-07,1,,,,,ラナススタイル,0
2561,9021001075327,新規,0,2022-03-07,2022-03-07,株式会社ＣＬＩＮＴＯＮ１１１８,,株式会社,神奈川県,平塚市,紅谷町３番１０－１７０４号セレストタワー湘南平塚,,14,203,2540043,,,,,,,2022-03-07,1,,,,,クリントンイチイチイチハチ,0
2562,9021001075335,新規,0,2022-03-07,2022-03-07,ＡＨＫ株式会社,,株式会社,神奈川県,藤沢市,城南３丁目１番３３～５２６号,,14,205,2510057,,,,,,,2022-03-07,1,,,,,エーエイチケー,0
2563,9021001075343,新規,0,2022-03-07,2022-03-07,真株式会社,,株式会社,神奈川県,平塚市,河内１４０番地の２０,,14,203,2540903,,,,,,,2022-03-07,1,,,,,シン,0
2564,9021001075384,新規,0,2022-03-07,2022-03-07,株式会社ヤマト自動車,,株式会社,神奈川県,大和市,林間２丁目２０－３６広田ビル１階１０１号室,,14,213,2420003,,,,,,,2022-03-07,1,,,,,ヤマトジドウシャ,0
2566,9021003011453,新規,0,2022-03-07,2022-03-07,合同会社Ｒｅａｌｉｔｙ　Ｂｉｔｅｓ,,合同会社,神奈川県,鎌倉市,御成町四丁目６番地ウランブル鎌倉Ｃ,,14,204,2480012,,,,,,,2022-03-07,1,,,,,リアリティバイツ,0
2573,9030001147036,新規,0,2022-03-07,2022-03-07,株式会社ダイレクトシグナル,,株式会社,埼玉県,上尾市,日の出１丁目１２番１６号,,11,219,3620032,,,,,,,2022-03-07,1,,,,,ダイレクトシグナル,0
2574,9030001147077,新規,0,2022-03-07,2022-03-07,株式会社杉戸工芸,,株式会社,埼玉県,北葛飾郡杉戸町,大字下野９８０番地３,,11,464,3450044,,,,,,,2022-03-07,1,,,,,スギトコウゲイ,0
2575,9030001147135,新規,0,2022-03-07,2022-03-07,四季厨房株式会社,,株式会社,埼玉県,三郷市,栄５丁目６２番,,11,237,3410043,,,,,,,2022-03-07,1,,,,,シキチュウボウ,0
2576,9030001147168,新規,0,2022-03-07,2022-03-07,株式会社Ｓｔａｒｄｏｍ　Ｐｒｏｍｏｔｉｏｎ,,株式会社,埼玉県,さいたま市大宮区,吉敷町１丁目６４－１,,11,103,3300843,,,,,,,2022-03-07,1,,,,,スターダムプロモーション,0
2580,9030005020742,新規,0,2022-03-07,2022-03-07,社会保険労務士法人ＣＳ－Ｏｎｅ,,その他の設立登記法人,埼玉県,さいたま市浦和区,高砂２丁目６番５号,,11,107,3300063,,,,,,,2022-03-07,1,,,,,シーエスワン,0
2616,9120001244187,新規,0,2022-03-07,2022-03-07,株式会社淀屋橋・山上合同,,株式会社,大阪府,大阪市中央区,平野町４丁目２番３号オービック御堂筋ビル９階,,27,128,5410046,,,,,,,2022-03-07,1,,,,,ヨドヤバシヤマガミゴウドウ,0
2617,9120001244204,新規,0,2022-03-07,2022-03-07,デジタルみらい株式会社,,株式会社,大阪府,大阪市北区,中之島２丁目３番２２号,,27,127,5300005,,,,,,,2022-03-07,1,,,,,デジタルミライ,0
2618,9120001244286,新規,0,2022-03-07,2022-03-07,株式会社シュクラン,,株式会社,大阪府,大阪市住吉区,沢之町１丁目１番２６号２階,,27,120,5580031,,,,,,,2022-03-07,1,,,,,シュクラン,0
2619,9120001244294,新規,0,2022-03-07,2022-03-07,株式会社ｔｈｒｅｅｓ,,株式会社,大阪府,大阪市天王寺区,生玉町１－２６－７０１,,27,109,5430071,,,,,,,2022-03-07,1,,,,,スリー,0
2622,9120101065145,新規,0,2022-03-07,2022-03-07,株式会社ルーフエナジー,,株式会社,大阪府,堺市堺区,中田出井町１丁３番３３,,27,141,5900016,,,,,,,2022-03-07,1,,,,,ルーフエナジー,0
2623,9120101065153,新規,0,2022-03-07,2022-03-07,株式会社Ｆｅｅｌｉｎｇ,,株式会社,大阪府,阪南市,石田９２９番地の１,,27,232,5990221,,,,,,,2022-03-07,1,,,,,フィーリング,0
2624,9120101065178,新規,0,2022-03-07,2022-03-07,株式会社シーブリーズ,,株式会社,大阪府,和泉市,いぶき野２丁目３番６号,,27,219,5940041,,,,,,,2022-03-07,1,,,,,シーブリーズ,0
2631,9120103004596,新規,0,2022-03-07,2022-03-07,合同会社ＨＩＫＡＲＩ環境開発,,合同会社,大阪府,貝塚市,三ケ山８０１番地１,,27,208,5970101,,,,,,,2022-03-07,1,,,,,ヒカリカンキョウカイハツ,0
2639,9130001071250,新規,0,2022-03-07,2022-03-07,株式会社おなかヨロコブＦｏｏｏＤ,,株式会社,京都府,福知山市,字三俣１０４２番地の１,,26,201,6200821,,,,,,,2022-03-07,1,,,,,オナカヨロコブフード,0
2640,9130001071300,新規,0,2022-03-07,2022-03-07,ＴＹコーポレーション株式会社,,株式会社,京都府,京都市下京区,烏丸通七条下る東塩小路町７３５番地１京阪京都ビル８階,,26,106,6008216,,,,,,,2022-03-07,1,,,,,ティーワイコーポレーション,0
2642,9130005016400,新規,0,2022-03-07,2022-03-07,一般社団法人アステリズム協会,,その他の設立登記法人,京都府,長岡京市,竹の台２番地（Ｃ１－５０２）竹の台団地Ｃ１棟５０２,,26,209,6170827,,,,,,,2022-03-07,1,,,,,アステリズムキョウカイ,0
2658,9160003002507,新規,0,2022-03-07,2022-03-07,合同会社ＢＯＬ,,合同会社,滋賀県,草津市,上笠２丁目２４番１号,,25,206,5250028,,,,,,,2022-03-07,1,,,,,ビーオーエル,0
2665,9180001150198,新規,0,2022-03-07,2022-03-07,株式会社タケタカ,,株式会社,愛知県,名古屋市北区,織部町１番地の９県営織部住宅棟５０８号,,23,103,4620864,,,,,,,2022-03-07,1,,,,,タケタカ,0
2666,9180001150207,新規,0,2022-03-07,2022-03-07,Ｌｉｆｅ　Ｄｏｏｒ株式会社,,株式会社,愛知県,名古屋市中村区,則武１丁目３２番２３号,,23,105,4530014,,,,,,,2022-03-07,1,,,,,ライフドアー,0
2667,9180001150231,新規,0,2022-03-07,2022-03-07,希諾商事株式会社,,株式会社,愛知県,名古屋市西区,比良４丁目３０３番地加藤第一マンション３０１号,,23,104,4520802,,,,,,,2022-03-07,1,,,,,キダクショウジ,0
2668,9180001150256,新規,0,2022-03-07,2022-03-07,株式会社ＹＮＳホールディングス,,株式会社,愛知県,名古屋市東区,大幸３丁目３番２８号,,23,102,4610043,,,,,,,2022-03-07,1,,,,,ワイエヌエスホールディングス,0
2669,9180001150264,新規,0,2022-03-07,2022-03-07,株式会社デイズ,,株式会社,愛知県,長久手市,戸田谷１４０１番地,,23,238,4801124,,,,,,,2022-03-07,1,,,,,デイズ,0
2670,9180001150314,新規,0,2022-03-07,2022-03-07,ジャパンエアポートサービス株式会社,,株式会社,愛知県,小牧市,小木５丁目４１７番地,,23,219,4850058,,,,,,,2022-03-07,1,,,,,ジャパンエアポートサービス,0
2674,9180003023567,新規,0,2022-03-07,2022-03-07,ｔｏｔａｌ　ｂｅａｕｔｙ　ｓａｌｏｎ綺ｒｅｉ合同会社,,合同会社,愛知県,名古屋市中川区,戸田１丁目２５１４番地の４,,23,110,4540962,,,,,,,2022-03-07,1,,,,,トータルビューティーサロンキレイ,0
2675,9180003023575,新規,0,2022-03-07,2022-03-07,合同会社グラスランド,,合同会社,愛知県,日進市,藤塚６丁目３９３番地,,23,230,4700117,,,,,,,2022-03-07,1,,,,,グラスランド,0
2676,9180003023583,新規,0,2022-03-07,2022-03-07,将吾サービス合同会社,,合同会社,愛知県,名古屋市名東区,亀の井２丁目２４３番地,,23,115,4650094,,,,,,,2022-03-07,1,,,,,ショウゴサービス,0
2680,9180005019662,新規,0,2022-03-07,2022-03-07,一般社団法人エールメイト東海,,その他の設立登記法人,愛知県,名古屋市中川区,月島町１番２１号,,23,110,4540804,,,,,,,2022-03-07,1,,,,,エールメイトトウカイ,0
2684,9180301035966,新規,0,2022-03-07,2022-03-07,株式会社Ｔｎｅｘｔ,,株式会社,愛知県,豊田市,志賀町下番戸２３番地１０,,23,211,4710802,,,,,,,2022-03-07,1,,,,,ティーネクスト,0
2685,9180301035990,新規,0,2022-03-07,2022-03-07,株式会社ＷＥＳＴ,,株式会社,愛知県,西尾市,吉良町大島上１６番地４,,23,213,4440517,,,,,,,2022-03-07,1,,,,,ウェスト,0
2686,9180301035999,新規,0,2022-03-07,2022-03-07,株式会社ＳＲシステム,,株式会社,愛知県,刈谷市,小垣江町小道７３番地１,,23,210,4480813,,,,,,,2022-03-07,1,,,,,エスアールシステム,0
2692,9180303005273,新規,0,2022-03-07,2022-03-07,ＲＯＭＡＮＣＥ　ＤＡＷＮ合同会社,,合同会社,愛知県,西尾市,田貫２丁目４８,,23,213,4440302,,,,,,,2022-03-07,1,,,,,ロマンスドーン,0
2698,9200001039835,新規,0,2022-03-07,2022-03-07,株式会社ミライ工房,,株式会社,岐阜県,岐阜市,北野東２６０番地２,,21,201,5012512,,,,,,,2022-03-07,1,,,,,ミライコウボウ,0
2708,9220001024711,新規,0,2022-03-07,2022-03-07,クラージュビルディング株式会社,,株式会社,石川県,金沢市,伏見台１丁目１番１号,,17,201,9218177,,,,,,,2022-03-07,1,,,,,クラージュビルディング,0
2712,9240003005542,新規,0,2022-03-07,2022-03-07,アネシスサポート合同会社,,合同会社,広島県,広島市西区,三篠町３丁目２番１４号,,34,104,7330003,,,,,,,2022-03-07,1,,,,,アネシスサポート,0
2722,9290001096711,新規,0,2022-03-07,2022-03-07,株式会社ＤｏＮｅｘｔ,,株式会社,福岡県,福岡市南区,長丘５丁目１５番２７号,,40,134,8150075,,,,,,,2022-03-07,1,,,,,ドゥネクスト,0
2727,9290003012229,新規,0,2022-03-07,2022-03-07,ＴＦＣ合同会社,,合同会社,福岡県,福岡市東区,香椎照葉２丁目１番１号,,40,131,8130017,,,,,,,2022-03-07,1,,,,,ティーエフシー,0
2732,9290801028302,新規,0,2022-03-07,2022-03-07,株式会社石川電気,,株式会社,福岡県,京都郡みやこ町,豊津１５６０番地６,,40,625,8240121,,,,,,,2022-03-07,1,,,,,イシカワデンキ,0
2733,9290801028319,新規,0,2022-03-07,2022-03-07,株式会社友栄,,株式会社,福岡県,北九州市若松区,本町３丁目３番２３号,,40,103,8080034,,,,,,,2022-03-07,1,,,,,ユウエイ,0
2741,9330001029518,新規,0,2022-03-07,2022-03-07,弘誓株式会社,,株式会社,熊本県,人吉市,下青井町４０番地１－７０１号,,43,203,8680007,,,,,,,2022-03-07,1,,,,,グゼイ,0
2743,9330003009278,新規,0,2022-03-07,2022-03-07,合同会社ＵＲＳ,,合同会社,熊本県,熊本市中央区,水前寺２丁目２番１１－６０２号,,43,101,8620950,,,,,,,2022-03-07,1,,,,,ユーアールエス,0
2749,9370003005604,新規,0,2022-03-07,2022-03-07,合同会社アシスト,,合同会社,宮城県,仙台市青葉区,上杉４丁目５－５,,04,101,9800011,,,,,,,2022-03-07,1,,,,,アシスト,0
2753,9380001032640,新規,0,2022-03-07,2022-03-07,株式会社ＲＯＮＤＯ,,株式会社,福島県,郡山市,田村町金屋字新家８３番地１,,07,203,9630725,,,,,,,2022-03-07,1,,,,,ロンド,0
2759,9380003005116,新規,0,2022-03-07,2022-03-07,合同会社Ｊｅｎｅｒｇｅｉａ,,合同会社,福島県,いわき市,平赤井字田町１８９番地の１サンライズＫｅｉ１０２,,07,204,9793131,,,,,,,2022-03-07,1,,,,,ジェネルゲイア,0
2770,9420003002471,新規,0,2022-03-07,2022-03-07,北日本アイリス合同会社,,合同会社,青森県,八戸市,大字新井田字水溜１２番地１,,02,203,0310813,,,,,,,2022-03-07,1,,,,,キタニホンアイリス,0
2775,9430001086136,新規,0,2022-03-07,2022-03-07,アッド株式会社,,株式会社,北海道,札幌市中央区,南一条西２４丁目１番２０－１１０１号,,01,101,0640801,,,,,,,2022-03-07,1,,,,,アッド,0
2779,9440001009038,新規,0,2022-03-07,2022-03-07,株式会社青山農場,,株式会社,北海道,茅部郡森町,字駒ケ岳５００番地,,01,345,0492141,,,,,,,2022-03-07,1,,,,,アオヤマノウジョウ,0
2780,9450001013633,新規,0,2022-03-07,2022-03-07,株式会社アニマルケアふらの,,株式会社,北海道,富良野市,字学田三区,,01,229,0760035,,,,,,,2022-03-07,1,,,,,アニマルケアフラノ,0
2784,9470003002145,新規,0,2022-03-07,2022-03-07,合同会社エムズラド,,合同会社,香川県,高松市,高松町４７７番地９,,37,201,7610104,,,,,,,2022-03-07,1,,,,,エムズラド,0
2785,9490005006828,新規,0,2022-03-07,2022-03-07,ＮＰＯ法人フレイルサポート仁淀川,,その他の設立登記法人,高知県,吾川郡仁淀川町,岩丸８４３番地,,39,387,7811611,,,,,,,2022-03-07,1,,,,,フレイルサポートニヨドガワ,0
2787,9500005008467,新規,0,2022-03-07,2022-03-07,特定非営利活動法人空き家サポート伊予,,その他の設立登記法人,愛媛県,伊予市,大平甲２３０番地１,,38,210,7993131,,,,,,,2022-03-07,1,,,,,アキヤサポートイヨ,0
2788,9700150005620,新規,0,2022-03-07,2015-10-09,韓国コンテンツ振興院　日本ビジネスセンター,,その他,東京都,新宿区,四谷４丁目４－１０コリアセンタービル７階,,13,104,1600004,,,,,,,2015-10-09,1,,,,,カンコクコンテンツシンコウインニホンビジネスセンター,0
