sequenceNumber,corporateNumber,process,correct,updateDate,changeDate,name,nameImageId,kind,prefectureName,cityName,streetNumber,addressImageId,prefectureCode,cityCode,postCode,addressOutside,addressOutsideImageId,closeDate,closeCause,successorCorporateNumber,changeCause,assignmentDate,latest,enName,enPrefectureName,enCityName,enAddressOutside,furigana,hihyoji
6,1010001255384,新規,0,2025-05-28,2025-05-28,オプスナウ・ジャパン株式会社,,株式会社,東京都,中央区,日本橋３丁目９番１号日本橋三丁目スクエア１１階,,13,102,1030027,,,,,,,2025-05-28,1,,,,,オプスナウジャパン,0
8,1010003047466,新規,0,2025-05-28,2025-05-28,合同会社ロマネ,,合同会社,東京都,中央区,銀座１丁目１２番４号Ｎ＆Ｅ．ＢＬＤ．６Ｆ,,13,102,1040061,,,,,,,2025-05-28,1,,,,,ロマネ,0
9,1010003047474,新規,0,2025-05-28,2025-05-28,ＷＳ　Ｄａｔａ合同会社,,合同会社,東京都,中央区,銀座１丁目１２－４Ｎ＆ＥＢＬＤ．７階,,13,102,1040061,,,,,,,2025-05-28,1,,,,,ダブリューエスデータ,0
10,1010003047482,新規,0,2025-05-28,2025-05-28,ＥＲＩＮＵＫＩ合同会社,,合同会社,東京都,中央区,日本橋室町１丁目２－６,,13,102,1030022,,,,,,,2025-05-28,1,,,,,エリヌキ,0
13,1010101016703,新規,0,2025-05-28,2025-05-28,株式会社Ａｗｅｓｏｍｅ,,株式会社,東京都,八王子市,七国４丁目３番１０号,,13,201,1920919,,,,,,,2025-05-28,1,,,,,オーサム,0
18,1010401190553,新規,0,2025-05-28,2025-05-28,株式会社ドットヴィンチ,,株式会社,東京都,港区,北青山１丁目３番３号三橋ビル３階,,13,103,1070061,,,,,,,2025-05-28,1,,,,,ドットヴィンチ,0
19,1010403035203,新規,0,2025-05-28,2025-05-28,合同会社ＳＳＫ,,合同会社,東京都,港区,北青山１丁目３番１号アールキューブ青山３階,,13,103,1070061,,,,,,,2025-05-28,1,,,,,エスエスケー,0
22,1010603011598,新規,0,2025-05-28,2025-05-28,ｃｏｎｎｅ＆ｒｉｒｉ合同会社,,合同会社,東京都,墨田区,立川１丁目１０番２－１０１号,,13,107,1300023,,,,,,,2025-05-28,1,,,,,コニーアンドリリー,0
30,1010801036190,新規,0,2025-05-28,2025-05-28,株式会社ケーネクスト,,株式会社,東京都,大田区,南馬込４丁目４８番１０－５号,,13,111,1430025,,,,,,,2025-05-28,1,,,,,ケーネクスト,0
35,1010903009961,新規,0,2025-05-28,2025-05-28,合同会社ＴＫ,,合同会社,東京都,世田谷区,駒沢２丁目５３番９号ハウス田毎２０３,,13,112,1540012,,,,,,,2025-05-28,1,,,,,ティーケー,0
43,1011001169640,新規,0,2025-05-28,2025-05-28,株式会社ナチュラ美,,株式会社,東京都,渋谷区,東１丁目１３－１ニュー常磐松マンション６０１,,13,113,1500011,,,,,,,2025-05-28,1,,,,,ナチュラビ,0
44,1011001169707,新規,0,2025-05-28,2025-05-28,株式会社ままなまま,,株式会社,東京都,渋谷区,道玄坂１丁目１０番８号渋谷道玄坂東急ビル２Ｆ－Ｃ,,13,113,1500043,,,,,,,2025-05-28,1,,,,,ママナママ,0
45,1011001170111,新規,0,2025-05-28,2025-05-28,ｓｏｒｅｎａｒａ株式会社,,株式会社,東京都,渋谷区,道玄坂１丁目１０番８号渋谷道玄坂東急ビル２Ｆ－Ｃ,,13,113,1500043,,,,,,,2025-05-28,1,,,,,ソレナラ,0
48,1011003021551,新規,0,2025-05-28,2025-05-28,合同会社Ｍｉｃｒｏｗｅｌｌ,,合同会社,東京都,渋谷区,神南１丁目１１－４ＦＰＧリンクス神南５階,,13,113,1500041,,,,,,,2025-05-28,1,,,,,マイクロウェル,0
49,1011003021816,新規,0,2025-05-28,2025-05-28,合同会社玉井商会,,合同会社,東京都,渋谷区,千駄ヶ谷３丁目１３－５－２０５,,13,113,1510051,,,,,,,2025-05-28,1,,,,,タマイショウカイ,0
52,1011101111808,新規,0,2025-05-28,2025-05-28,株式会社４ＮＧ,,株式会社,東京都,新宿区,西新宿３丁目３番１３号西新宿水間ビル６階,,13,104,1600023,,,,,,,2025-05-28,1,,,,,フォーエヌジー,0
53,1011101111832,新規,0,2025-05-28,2025-05-28,株式会社ペブルスクエアジャパン,,株式会社,東京都,新宿区,西新宿１丁目２５番１号新宿センタービル４９階ＥＲ－３９,,13,104,1600023,,,,,,,2025-05-28,1,,,,,ペブルスクエアジャパン,0
56,1011301030601,新規,0,2025-05-28,2025-05-28,株式会社ＲｅＷｒｉｔｅ,,株式会社,東京都,杉並区,荻窪２丁目３９番１３号,,13,115,1670051,,,,,,,2025-05-28,1,,,,,,0
58,1011801046205,新規,0,2025-05-28,2025-05-28,株式会社エクレール,,株式会社,東京都,葛飾区,東新小岩４丁目９番４号,,13,122,1240023,,,,,,,2025-05-28,1,,,,,エクレール,0
59,1011801046213,新規,0,2025-05-28,2025-05-28,株式会社ａｎｇｅｌｉｃｃｏ,,株式会社,東京都,足立区,大谷田５丁目４番９号,,13,121,1200001,,,,,,,2025-05-28,1,,,,,エンゼリッコ,0
60,1011803006875,新規,0,2025-05-28,2025-05-28,合同会社ＰＲＩＳＭ,,合同会社,東京都,足立区,梅島１丁目１６番１６号,,13,121,1210816,,,,,,,2025-05-28,1,,,,,プリズム,0
66,1013301054349,新規,0,2025-05-28,2025-05-28,Ｚｈｏｎｇｚｈａｏ　Ｅｃｏ‐Ｔｅｃｈ　Ａｃａｄｅｍｙ株式会社,,株式会社,東京都,豊島区,巣鴨１丁目１７番３号子野ビル６０４,,13,116,1700002,,,,,,,2025-05-28,1,,,,,ジュンジャオエコーテックアカデミー,0
72,1020001162919,新規,0,2025-05-28,2025-05-28,Ｈｅａｒｔ　Ａｒｔ株式会社,,株式会社,神奈川県,横浜市南区,中村町２丁目１２７番地３４,,14,105,2320033,,,,,,,2025-05-28,1,,,,,ハートアート,0
80,1021001085325,新規,0,2025-05-28,2025-05-28,株式会社鈴力,,株式会社,神奈川県,三浦市,南下浦町上宮田１５２８番地５７,,14,210,2380101,,,,,,,2025-05-28,1,,,,,スズリキ,0
81,1021001085333,新規,0,2025-05-28,2025-05-28,株式会社福本工業,,株式会社,神奈川県,横須賀市,津久井２丁目６番１５号,,14,201,2390843,,,,,,,2025-05-28,1,,,,,フクモトコウギョウ,0
84,1030001166704,新規,0,2025-05-28,2025-05-28,株式会社笹原建装工業,,株式会社,埼玉県,本庄市,日の出４丁目１６番５１号,,11,211,3670022,,,,,,,2025-05-28,1,,,,,ササハラケンソウコウギョウ,0
85,1030001166712,新規,0,2025-05-28,2025-05-28,株式会社もふもふ,,株式会社,埼玉県,加須市,下高柳１１８５番地２,,11,210,3470000,,,,,,,2025-05-28,1,,,,,モフモフ,0
86,1030001166720,新規,0,2025-05-28,2025-05-28,株式会社Ｉｃｈｉｍｏ,,株式会社,埼玉県,深谷市,上柴町東４丁目１番地７,,11,218,3660051,,,,,,,2025-05-28,1,,,,,イチモ,0
92,1040001138958,新規,0,2025-05-28,2025-05-28,株式会社Ｎ２コーポレーション,,株式会社,千葉県,千葉市中央区,鵜の森町１９番地６－１０２,,12,101,2600816,,,,,,,2025-05-28,1,,,,,エヌツーコーポレーション,0
96,1040003027671,新規,0,2025-05-28,2025-05-28,ＪＸトラスト合同会社,,合同会社,千葉県,船橋市,二和東６丁目４２番１７－１０２号室,,12,204,2740805,,,,,,,2025-05-28,1,,,,,ジェイエックストラスト,0
97,1040003027688,新規,0,2025-05-28,2025-05-28,合同会社ＤＭ３１号,,合同会社,千葉県,柏市,柏４丁目５番１０号,,12,217,2770005,,,,,,,2025-05-28,1,,,,,ディーエムサンジュウイチゴウ,0
102,1070001042975,新規,0,2025-05-28,2025-05-28,株式会社ＫａｎｎａＬａｂ,,株式会社,群馬県,藤岡市,坂原２１８２,,10,209,3701404,,,,,,,2025-05-28,1,,,,,カンナラボ,0
104,1080105006512,新規,0,2025-05-28,2025-05-28,一般社団法人民俗文化協会,,その他の設立登記法人,静岡県,賀茂郡河津町,笹原８６番地の１,,22,302,4130512,,,,,,,2025-05-28,1,,,,,ミンゾクブンカキョウカイ,0
105,1090001019294,新規,0,2025-05-28,2025-05-28,株式会社美整庵,,株式会社,山梨県,都留市,田原３丁目１番２８号,,19,204,4020054,,,,,,,2025-05-28,1,,,,,ビセイアン,0
107,1100003008178,新規,0,2025-05-28,2025-05-28,Ｈ．Ｏ．Ｏ．Ｔ合同会社,,合同会社,長野県,北安曇郡小谷村,大字千国乙８０７番地３２,,20,486,3999422,,,,,,,2025-05-28,1,,,,,エイチオーオーティー,0
108,1100003008186,新規,0,2025-05-28,2025-05-28,合同会社小諸雑貨,,合同会社,長野県,小諸市,大字諸３０８番地１,,20,208,3840043,,,,,,,2025-05-28,1,,,,,コモロザッカ,0
111,1120001275990,新規,0,2025-05-28,2025-05-28,ドミ株式会社,,株式会社,大阪府,大阪市西区,京町堀２丁目１４番２２号３０４号,,27,106,5500003,,,,,,,2025-05-28,1,,,,,ドミ,0
112,1120001276163,新規,0,2025-05-28,2025-05-28,株式会社エクセルソフィア,,株式会社,大阪府,大阪市北区,西天満４丁目１１番２３号,,27,127,5300047,,,,,,,2025-05-28,1,,,,,エクセルソフィア,0
113,1120001276196,新規,0,2025-05-28,2025-05-28,株式会社Ｙ’ｓリユース,,株式会社,大阪府,大阪市西区,新町４丁目１９番１－９０３号,,27,106,5500013,,,,,,,2025-05-28,1,,,,,ワイズリユース,0
114,1120001276205,新規,0,2025-05-28,2025-05-28,興邦国際株式会社,,株式会社,大阪府,大阪市城東区,成育４丁目２９番６号－７０３号,,27,118,5360007,,,,,,,2025-05-28,1,,,,,コウホウコクサイ,0
115,1120001276213,新規,0,2025-05-28,2025-05-28,株式会社天城建設,,株式会社,大阪府,大阪市生野区,中川西２丁目１２番１８号,,27,116,5440032,,,,,,,2025-05-28,1,,,,,アマギケンセツ,0
116,1120001276287,新規,0,2025-05-28,2025-05-28,ＪＳＭＸ株式会社,,株式会社,大阪府,大阪市西成区,天下茶屋１丁目１番１６号３Ｆ,,27,122,5570014,,,,,,,2025-05-28,1,,,,,ジェイエスエムエックス,0
117,1120003029544,新規,0,2025-05-28,2025-05-28,合同会社Ａｄａｐｔ,,合同会社,大阪府,大阪市北区,錦町３－７－５０３号室,,27,127,5300034,,,,,,,2025-05-28,1,,,,,アダプト,0
118,1120003029577,新規,0,2025-05-28,2025-05-28,合同会社ＵＮＩＦＡＣＴＯＲＹ,,合同会社,大阪府,大阪市浪速区,日本橋３丁目１番６号,,27,111,5560005,,,,,,,2025-05-28,1,,,,,ユニファクトリー,0
119,1120003029585,新規,0,2025-05-28,2025-05-28,合同会社パイレーツスタント,,合同会社,大阪府,大阪市此花区,春日出中２丁目１４番１８号,,27,104,5540022,,,,,,,2025-05-28,1,,,,,パイレーツスタント,0
120,1120005024956,新規,0,2025-05-28,2025-05-28,一般財団法人たにまちファンド,,その他の設立登記法人,大阪府,大阪市中央区,谷町２丁目３－１ターネンビルＮｏ．２－４階,,27,128,5400012,,,,,,,2025-05-28,1,,,,,タニマチファンド,0
123,1120101071737,新規,0,2025-05-28,2025-05-28,株式会社ＹＮＧ,,株式会社,大阪府,藤井寺市,岡２丁目６番９号１Ｆ東,,27,226,5830027,,,,,,,2025-05-28,1,,,,,ワイエヌジー,0
124,1120101071753,新規,0,2025-05-28,2025-05-28,株式会社リプライム,,株式会社,大阪府,堺市堺区,大町西３丁２番１４号,,27,141,5900959,,,,,,,2025-05-28,1,,,,,リプライム,0
125,1120103006476,新規,0,2025-05-28,2025-05-28,合同会社ＵＹＪ,,合同会社,大阪府,堺市中区,伏尾３５７,,27,142,5998254,,,,,,,2025-05-28,1,,,,,ユーワイジェー,0
126,1120103006484,新規,0,2025-05-28,2025-05-28,合同会社ＤＡＲＡＫＥ,,合同会社,大阪府,堺市堺区,戎之町東１丁２番２８号グランド戎別館１Ｆ,,27,141,5900945,,,,,,,2025-05-28,1,,,,,ダラケ,0
133,1130001079755,新規,0,2025-05-28,2025-05-28,株式会社Ｋ・Ｅメンテナンス,,株式会社,京都府,京都市東山区,福稲下高松町１１番地１２,,26,105,6050982,,,,,,,2025-05-28,1,,,,,ケーイーメンテナンス,0
134,1130001079763,新規,0,2025-05-28,2025-05-28,株式会社ＰＬＵＳ,,株式会社,京都府,京都市北区,上賀茂壱町口町２９番地３,,26,101,6038017,,,,,,,2025-05-28,1,,,,,プラス,0
136,1130005017372,新規,0,2025-05-28,2025-05-28,特定非営利活動法人まちことラボ,,その他の設立登記法人,京都府,京田辺市,山手東２丁目３番地１Ｃ１０１０,,26,211,6100357,,,,,,,2025-05-28,1,,,,,マチコトラボ,0
138,1140001138659,新規,0,2025-05-28,2025-05-28,株式会社Ｂｒｅｎｄａ　ＳＥＴ,,株式会社,兵庫県,西宮市,甲陽園山王町一番８９－３１２号,,28,204,6620018,,,,,,,2025-05-28,1,,,,,ブレンダセット,0
139,1140001138667,新規,0,2025-05-28,2025-05-28,株式会社風嶺火山,,株式会社,兵庫県,西宮市,上大市４丁目１４番１９号,,28,204,6638003,,,,,,,2025-05-28,1,,,,,フウリンカザン,0
140,1140001138675,新規,0,2025-05-28,2025-05-28,株式会社皐,,株式会社,兵庫県,神戸市兵庫区,中道通９丁目２－１３,,28,105,6520801,,,,,,,2025-05-28,1,,,,,サツキ,0
141,1140001138683,新規,0,2025-05-28,2025-05-28,株式会社慈音一級建築士事務所,,株式会社,兵庫県,西宮市,山口町船坂１５６２番地１５,,28,204,6511423,,,,,,,2025-05-28,1,,,,,ジオンイッキュウケンチクシジムショ,0
142,1140001138691,新規,0,2025-05-28,2025-05-28,株式会社犇心,,株式会社,兵庫県,洲本市,本町４丁目３番１３号,,28,205,6560025,,,,,,,2025-05-28,1,,,,,ウシゴコロ,0
143,1140001138700,新規,0,2025-05-28,2025-05-28,株式会社Ｌａ　ｖｉｅ,,株式会社,兵庫県,尼崎市,上坂部３丁目７番１０号アミューズ日進３０１,,28,202,6610979,,,,,,,2025-05-28,1,,,,,ラヴィ,0
144,1140001138725,新規,0,2025-05-28,2025-05-28,株式会社モリゴーホールディングス,,株式会社,兵庫県,明石市,二見町南二見１０番地の２,,28,203,6740093,,,,,,,2025-05-28,1,,,,,モリゴーホールディングス,0
149,1140003022076,新規,0,2025-05-28,2025-05-28,合同会社ＳＵＮＯ,,合同会社,兵庫県,養父市,大屋町筏４６７番１,,28,222,6670322,,,,,,,2025-05-28,1,,,,,スノ,0
152,1160003003487,新規,0,2025-05-28,2025-05-28,エバーグリーン合同会社,,合同会社,滋賀県,大津市,南志賀３丁目７－２０ハイツ清井２０２,,25,201,5200011,,,,,,,2025-05-28,1,,,,,エバーグリーン,0
160,1180001166961,新規,0,2025-05-28,2025-05-28,株式会社びーこうず,,株式会社,愛知県,名古屋市千種区,内山１丁目２４番９号,,23,101,4640075,,,,,,,2025-05-28,1,,,,,ビーコウズ,0
161,1180001166986,新規,0,2025-05-28,2025-05-28,株式会社カルペディエム２ｎｄ,,株式会社,愛知県,名古屋市緑区,東神の倉３丁目７３３番地,,23,114,4580808,,,,,,,2025-05-28,1,,,,,カルペディエムセカンド,0
162,1180001166994,新規,0,2025-05-28,2025-05-28,ＲＡＹＴＥＣＨホールディングス株式会社,,株式会社,愛知県,名古屋市中区,錦３丁目１９番１７号,,23,106,4600003,,,,,,,2025-05-28,1,,,,,レイテックホールディングス,0
163,1180001167002,新規,0,2025-05-28,2025-05-28,株式会社ＮＯＢＬＥＳＳＥ,,株式会社,愛知県,名古屋市中区,栄４丁目９番１０号愛信プラザビル２階１２号室,,23,106,4600008,,,,,,,2025-05-28,1,,,,,ノブレス,0
169,1180301039842,新規,0,2025-05-28,2025-05-28,株式会社Ｇｏｄｄｅｓｓ,,株式会社,愛知県,豊橋市,曙町字宮前３７番地４,,23,201,4418151,,,,,,,2025-05-28,1,,,,,ゴッデス,0
170,1180305009692,新規,0,2025-05-28,2025-05-28,一般社団法人捜索救助犬ＨＤＳ　Ｋ９愛知,,その他の設立登記法人,愛知県,豊橋市,牛川町字西郷２３番地５１,,23,201,4400016,,,,,,,2025-05-28,1,,,,,ソウサクキュウジョケンエイチディーエスケイナインアイチ,0
173,1190001032246,新規,0,2025-05-28,2025-05-28,株式会社三重乃輝,,株式会社,三重県,伊賀市,畑村４１１番地,,24,216,5181408,,,,,,,2025-05-28,1,,,,,ミエノカガヤキ,0
174,1190003005051,新規,0,2025-05-28,2025-05-28,合同会社ｒａｂｂｉｔｚ,,合同会社,三重県,松阪市,豊原町３２４番地２０,,24,204,5150205,,,,,,,2025-05-28,1,,,,,,0
177,1200001043828,新規,0,2025-05-28,2025-05-28,株式会社Ａｒｃｈｉ,,株式会社,岐阜県,揖斐郡大野町,大字公郷１２３６番地２,,21,403,5010555,,,,,,,2025-05-28,1,,,,,アーチ,0
179,1200003006849,新規,0,2025-05-28,2025-05-28,ボルトオン合同会社,,合同会社,岐阜県,多治見市,明和町４丁目５番地の２８,,21,204,5070072,,,,,,,2025-05-28,1,,,,,,0
181,1240001065001,新規,0,2025-05-28,2025-05-28,株式会社ＣａｒｅｅｒＭｏｒｅ．,,株式会社,広島県,広島市中区,幟町１４番１４号,,34,101,7300016,,,,,,,2025-05-28,1,,,,,キャリアモア,0
184,1260001040217,新規,0,2025-05-28,2025-05-28,株式会社ＭＫ,,株式会社,岡山県,岡山市東区,東幸西１９５－７,,33,103,7048135,,,,,,,2025-05-28,1,,,,,エムケイ,0
192,1290801031577,新規,0,2025-05-28,2025-05-28,株式会社ＢＡＳＥ　Ｏ,,株式会社,福岡県,北九州市小倉南区,城野４丁目４番８号,,40,107,8020802,,,,,,,2025-05-28,1,,,,,ベースオー,0
193,1300001014199,新規,0,2025-05-28,2025-05-28,株式会社Ｊ‐Ｓｔｙｌｅ　Ｇｒｏｕｐ,,株式会社,佐賀県,三養基郡上峰町,大字堤１９０３番地１７,,41,345,8490124,,,,,,,2025-05-28,1,,,,,ジェイスタイルグループ,0
197,1350001019557,新規,0,2025-05-28,2025-05-28,株式会社ＴＡｉＧＮ,,株式会社,宮崎県,宮崎市,橘通西２丁目３番２２号リヴィエールシャン９０５号,,45,201,8800001,,,,,,,2025-05-28,1,,,,,テイン,0
199,1350005006312,新規,0,2025-05-28,2025-05-28,一般社団法人ＨＯＯＰ　ＢＡＳＥみやざき,,その他の設立登記法人,宮崎県,宮崎市,吉村町大町甲１９３５番地１３ＬａｖｉｄａｅｓｂｅｌｌａＥｓｍｅｒａｌｄａ２０３号,,45,201,8800841,,,,,,,2025-05-28,1,,,,,フープベースミヤザキ,0
204,1370001052614,新規,0,2025-05-28,2025-05-28,株式会社ワイズボディー,,株式会社,宮城県,仙台市若林区,荒浜字石場８０番地の２,,04,103,9840033,,,,,,,2025-05-28,1,,,,,ワイズボディー,0
205,1370001052630,新規,0,2025-05-28,2025-05-28,株式会社一棟翔,,株式会社,宮城県,仙台市泉区,鶴が丘３丁目１８番地の１４,,04,105,9813109,,,,,,,2025-05-28,1,,,,,イットウショウ,0
207,1370003007112,新規,0,2025-05-28,2025-05-28,合同会社ＫＯＪ,,合同会社,宮城県,黒川郡大和町,杜の丘１丁目２２番地の１,,04,421,9813628,,,,,,,2025-05-28,1,,,,,ケーオージェイ,0
211,1390003002400,新規,0,2025-05-28,2025-05-28,ＩＣＨｉＧＵ．合同会社,,合同会社,山形県,山形市,江南２丁目９番１３号,,06,201,9900863,,,,,,,2025-05-28,1,,,,,,0
220,1430001094501,新規,0,2025-05-28,2025-05-28,株式会社ワンダーパートナーズ,,株式会社,北海道,札幌市中央区,大通西６丁目１０番地４エナスクエア大通ビル７階,,01,101,0600042,,,,,,,2025-05-28,1,,,,,ワンダーパートナーズ,0
221,1430001094518,新規,0,2025-05-28,2025-05-28,ｃａｒｅ　ｐｌｕｓｐｌｕｓ　ｓｏｌｕｔｉｏｎｓ株式会社,,株式会社,北海道,札幌市東区,北二十条東１０丁目３－６－１,,01,103,0650020,,,,,,,2025-05-28,1,,,,,ケアプラスプラスソリューションズ,0
222,1430003017699,新規,0,2025-05-28,2025-05-28,合同会社コンシデレート,,合同会社,北海道,札幌市北区,拓北三条３丁目１４番６号,,01,102,0028063,,,,,,,2025-05-28,1,,,,,コンシデレート,0
223,1430003017708,新規,0,2025-05-28,2025-05-28,ミナッピー合同会社,,合同会社,北海道,札幌市手稲区,富丘四条２丁目５番１６号,,01,109,0060014,,,,,,,2025-05-28,1,,,,,ミナッピー,0
224,1450003002666,新規,0,2025-05-28,2025-05-28,ｎａｎｏｍｅｔｅｒ合同会社,,合同会社,北海道,旭川市,春光六条５丁目３番１６号プランタン・リュミエール１０２,,01,204,0700876,,,,,,,2025-05-28,1,,,,,ナノメーター,0
226,1480001012846,新規,0,2025-05-28,2025-05-28,株式会社ＯＨＷ,,株式会社,徳島県,阿南市,畭町亀崎１８番地２,,36,204,7740003,,,,,,,2025-05-28,1,,,,,オーエイチダブリュー,0
231,1500003003519,新規,0,2025-05-28,2025-05-28,卓越技研合同会社,,合同会社,愛媛県,東温市,志津川南１丁目３番地９,,38,215,7910206,,,,,,,2025-05-28,1,,,,,タクエツギケン,0
232,1500005008796,新規,0,2025-05-28,2025-05-28,一般社団法人伊予まごころの会,,その他の設立登記法人,愛媛県,新居浜市,船木甲２４３７番地の６,,38,205,7920856,,,,,,,2025-05-28,1,,,,,イヨマゴコロノカイ,0
235,1700150115435,新規,0,2025-05-28,2025-05-28,ｓｈｅｎｚｈｅｎｓｈｉｄｅｒｕｉｓｉｄｉａｎｚｉｋｅｊｉｙｏｕｘｉａｎｇｏｎｇｓｉ,,外国会社等,,,,,,,,ＣＮ，５１８０００，ｇｕａｎｇｄｏｎｇｓｈｅｎｇ，ｓｈｅｎｚｈｅｎｓｈｉ，ｌｏｎｇｇａｎｇｑｕｌｏｎｇｇａｎｇｊｉｅｄａｏｌｏｎｇｄｏｎｇｓｈｅｑｕ，ａｉｎａｎｌｕ９５ｈａｏｗｅｉｘｉｎｄａｋｅｊｉｙｕａｎ１ｄｏｎｇ３ｃｅｎｇ,,,,,,2025-05-28,1,,,,,シンセンシトクズスデンシカギユウゲンコウシ,0
236,1700150130723,新規,0,2025-05-28,2025-05-28,ｈｅｎｇｙａｎｇｙａｏｍｕｓｈａｎｇｍａｏｙｏｕｘｉａｎｇｏｎｇｓｉ,,外国会社等,,,,,,,,ｈｕｎａｎｓｈｅｎｇｈｅｎｇｙａｎｇｓｈｉｓｈｉｇｕｑｕｈｕａｎｇｓｈａｗａｎｊｉｅｄａｏｙａｎｑｉｈｕｓｈｅｑｕｅｒｌｏｕ１８３ｈａｏ,,,,,,2025-05-28,1,,,,,ホンヤンヤオムーシャンマオヨウシエンゴンスー,0
237,1700150130731,新規,0,2025-05-28,2025-05-28,ｎａｎｃｈａｎｇｓｈｉｗｕｊｉａｎｇｄｉａｎｚｉｓｈａｎｇｗｕｙｏｕｘｉａｎｇｏｎｇｓｉ,,外国会社等,,,,,,,,Ｗｕｈｕａ　Ｒｏａｄ，Ｊｉｎｇｋａｉ　Ｄｉｓｔｒｉｃｔ，Ｘｉｎｊｉａｎ　Ｄｉｓｔｒｉｃｔ　Ｕｎｉｔ　４０２，Ｂｌｏｃｋ　１７，Ｕｎｉｔ　２，Ｊｉｕｌｏｎｇ　Ｄｉｊｉｎｇｗａｎ　Ｎａｎｃｈａｎｇ　Ｊｉａｎｇｘｉ　３３００００　ＣＮ,,,,,,2025-05-28,1,,,,,ナンチャンシーウージャンディエンズーシャンウーヨウシエンゴンスー,0
242,2010001255301,新規,0,2025-05-28,2025-05-28,Ｋｏｈｏｋｕ　Ｊａｐａｎ株式会社,,株式会社,東京都,中央区,晴海５丁目１番９－１６１３号,,13,102,1040053,,,,,,,2025-05-28,1,,,,,コホクジャパン,0
243,2010001255334,新規,0,2025-05-28,2025-05-28,ＰＯＷＥＲ　Ｘ　ＳＯＬＵＴＩＯＮＳ株式会社,,株式会社,東京都,文京区,千石４丁目１４番９号,,13,105,1120011,,,,,,,2025-05-28,1,,,,,パワーエックスソリューションズ,0
244,2010001255400,新規,0,2025-05-28,2025-05-28,株式会社クリーク,,株式会社,東京都,文京区,関口１丁目１９番５号弥助ビル別館３階,,13,105,1120014,,,,,,,2025-05-28,1,,,,,クリーク,0
246,2010003047275,新規,0,2025-05-28,2025-05-28,マルコグローバルペイロールジャパンジーケー合同会社,,合同会社,東京都,千代田区,丸の内１丁目６－２新丸の内センタービルディング２１階,,13,101,1000005,,,,,,,2025-05-28,1,,,,,マルコグローバルペイロールジャパンジーケー,0
247,2010003047374,新規,0,2025-05-28,2025-05-28,合同会社マルセロ,,合同会社,東京都,千代田区,霞が関１丁目４－１日土地ビル２Ｆ,,13,101,1000013,,,,,,,2025-05-28,1,,,,,マルセロ,0
248,2010003047457,新規,0,2025-05-28,2025-05-28,Ｃａｐａｃｉｔｙ　Ｂｉｏ　Ｊａｐａｎ合同会社,,合同会社,東京都,中央区,日本橋堀留町１丁目９番１０号,,13,102,1030012,,,,,,,2025-05-28,1,,,,,キャパシティバイオジャパン,0
249,2010003047465,新規,0,2025-05-28,2025-05-28,合同会社ＪＱ　ＰＲＯＪＥＣＴ,,合同会社,東京都,中央区,新富１丁目９番６号,,13,102,1040041,,,,,,,2025-05-28,1,,,,,ジェーキュープロジェクト,0
250,2010003047481,新規,0,2025-05-28,2025-05-28,日光Ｐｌｕｓ２４合同会社２,,合同会社,東京都,千代田区,丸の内１丁目４番１号東京共同会計事務所内,,13,101,1000005,,,,,,,2025-05-28,1,,,,,ニッコウプラストゥエンティフォーニ,0
252,2010005040088,新規,0,2025-05-28,2025-05-28,一般社団法人インベスターズ,,その他の設立登記法人,東京都,千代田区,内神田１丁目１８番１１号,,13,101,1010047,,,,,,,2025-05-28,1,,,,,インベスターズ,0
253,2010005040096,新規,0,2025-05-28,2025-05-28,日光Ｐｌｕｓ２４一般社団法人,,その他の設立登記法人,東京都,千代田区,丸の内１丁目４番１号東京共同会計事務所内,,13,101,1000005,,,,,,,2025-05-28,1,,,,,ニッコウプラストゥエンティフォー,0
260,2010401190560,新規,0,2025-05-28,2025-05-28,株式会社ゆたしくみ,,株式会社,東京都,港区,西麻布４丁目１０番１３号ウエストコート４１０・２Ｆ,,13,103,1060031,,,,,,,2025-05-28,1,,,,,ユタシクミ,0
261,2010401190569,新規,0,2025-05-28,2025-05-28,株式会社フィックスダブル,,株式会社,東京都,港区,南青山３丁目１－３６,,13,103,1070062,,,,,,,2025-05-28,1,,,,,フィックスダブル,0
262,2010403035193,新規,0,2025-05-28,2025-05-28,ＺＡＺＡ合同会社,,合同会社,東京都,港区,虎ノ門５丁目３番２１号ＡＵＢＥ虎ノ門１０３号室,,13,103,1050001,,,,,,,2025-05-28,1,,,,,ザザ,0
266,2010405024442,新規,0,2025-05-28,2025-05-28,一般社団法人日本フレイル予防サービス振興会,,その他の設立登記法人,東京都,港区,虎ノ門１丁目２１番１９号東急虎ノ門ビル３Ｆ,,13,103,1050001,,,,,,,2025-05-28,1,,,,,ニホンフレイルヨボウサービスシンコウカイ,0
275,2010701047766,新規,0,2025-05-28,2025-05-28,株式会社ＬＯＶＥＮＵＳ,,株式会社,東京都,品川区,上大崎２丁目１８番１６号ヴェリテ目黒３Ｆ,,13,109,1410021,,,,,,,2025-05-28,1,,,,,ラビーナス,0
286,2011001169631,新規,0,2025-05-28,2025-05-28,株式会社モカブル,,株式会社,東京都,渋谷区,円山町５番５号Ｎａｖｉ渋谷Ｖ３階,,13,113,1500044,,,,,,,2025-05-28,1,,,,,モカブル,0
287,2011001169664,新規,0,2025-05-28,2025-05-28,株式会社ｅｃｏる,,株式会社,東京都,渋谷区,恵比寿１丁目１９番１９号恵比寿ビジネスタワー１０Ｆ,,13,113,1500013,,,,,,,2025-05-28,1,,,,,エコル,0
288,2011001170069,新規,0,2025-05-28,2025-05-28,株式会社アイノビ,,株式会社,東京都,渋谷区,道玄坂１丁目１０番８号渋谷道玄坂東急ビル２Ｆ－Ｃ,,13,113,1500043,,,,,,,2025-05-28,1,,,,,アイノビ,0
289,2011001170184,新規,0,2025-05-28,2025-05-28,株式会社承継アライアンス,,株式会社,東京都,目黒区,下目黒１丁目８番１号,,13,110,1530064,,,,,,,2025-05-28,1,,,,,ショウケイアライアンス,0
290,2011003021567,新規,0,2025-05-28,2025-05-28,合同会社Ｎｏｏｏｋ,,合同会社,東京都,渋谷区,円山町５番３号ＭＩＥＵＸ渋谷ビル８階,,13,113,1500044,,,,,,,2025-05-28,1,,,,,ヌーク,0
291,2011003021609,新規,0,2025-05-28,2025-05-28,ＴＨ　ＴＲＡＭＹ合同会社,,合同会社,東京都,渋谷区,円山町５番３号ＭＩＥＵ渋谷ビル８階,,13,113,1500044,,,,,,,2025-05-28,1,,,,,ティーエイチチャミ,0
292,2011101111831,新規,0,2025-05-28,2025-05-28,株式会社Ｌｉｎｋ２,,株式会社,東京都,新宿区,新宿１丁目３６番２号新宿第七葉山ビル９階,,13,104,1600022,,,,,,,2025-05-28,1,,,,,リンクツー,0
293,2011101111848,新規,0,2025-05-28,2025-05-28,株式会社ＣｏｃｏＭｉｒａ,,株式会社,東京都,新宿区,西新宿３丁目３－１３西新宿水間ビル６階,,13,104,1600023,,,,,,,2025-05-28,1,,,,,ココミラ,0
294,2011101111856,新規,0,2025-05-28,2025-05-28,柏木パートナーズ株式会社,,株式会社,東京都,新宿区,百人町１丁目２２番３号－６０１号,,13,104,1690073,,,,,,,2025-05-28,1,,,,,カシワギパートナーズ,0
295,2011101111914,新規,0,2025-05-28,2025-05-28,株式会社アシスト,,株式会社,東京都,新宿区,高田馬場３丁目１番５号サンパティオ高田馬場３０９号室,,13,104,1690075,,,,,,,2025-05-28,1,,,,,アシスト,0
298,2011103015956,新規,0,2025-05-28,2025-05-28,合同会社ジェイ・ジー・エヌ,,合同会社,東京都,新宿区,下宮比町１番４号,,13,104,1620822,,,,,,,2025-05-28,1,,,,,ジェイジーエヌ,0
299,2011105011441,新規,0,2025-05-28,2025-05-28,社会保険労務士法人東京おむろ人事サービス,,その他の設立登記法人,東京都,新宿区,西新宿６丁目５番１号新宿アイランドタワー２階,,13,104,1600023,,,,,,,2025-05-28,1,,,,,トウキョウオムロジンジサービス,0
301,2011203004710,新規,0,2025-05-28,2025-05-28,ＥＮＣＨＡＮＴ　ＷＯＲＫＳ合同会社,,合同会社,東京都,中野区,東中野２丁目３６番３号アヴェニール東中野１０２,,13,114,1640003,,,,,,,2025-05-28,1,,,,,エンチャントワークス,0
306,2011701028368,新規,0,2025-05-28,2025-05-28,株式会社ブライトスター,,株式会社,東京都,江戸川区,中葛西２丁目９番１７号,,13,123,1340083,,,,,,,2025-05-28,1,,,,,ブライトスター,0
309,2011801046212,新規,0,2025-05-28,2025-05-28,株式会社北総企画出版,,株式会社,東京都,葛飾区,柴又４丁目３６番３号,,13,122,1250052,,,,,,,2025-05-28,1,,,,,ホクソウキカクシュッパン,0
324,2013301054323,新規,0,2025-05-28,2025-05-28,株式会社昌浩,,株式会社,東京都,豊島区,南大塚２丁目２５番１７号１５０１号室,,13,116,1700005,,,,,,,2025-05-28,1,,,,,マサヒロ,0
325,2013301054331,新規,0,2025-05-28,2025-05-28,Ｊ．Ｃ．Ｃｒｅａｔｉｏｎ株式会社,,株式会社,東京都,豊島区,上池袋４丁目３５番１０号立川ハイツ１Ｆ,,13,116,1700012,,,,,,,2025-05-28,1,,,,,ジェーシークリエイション,0
326,2013301054356,新規,0,2025-05-28,2025-05-28,株式会社ＬＵＸＡ,,株式会社,東京都,豊島区,池袋２丁目１７番８号,,13,116,1710014,,,,,,,2025-05-28,1,,,,,ルクサ,0
330,2020001163065,新規,0,2025-05-28,2025-05-28,未来商事株式会社,,株式会社,神奈川県,川崎市川崎区,小田栄２丁目１番５－５０１号,,14,131,2100843,,,,,,,2025-05-28,1,,,,,ミライショウジ,0
331,2020001163073,新規,0,2025-05-28,2025-05-28,株式会社ＧＯＧＯ,,株式会社,神奈川県,川崎市川崎区,川中島１丁目３番５号ヒルズ川中島２０２,,14,131,2100803,,,,,,,2025-05-28,1,,,,,ゴーゴー,0
334,2020003028571,新規,0,2025-05-28,2025-05-28,ななつ星アセットマネジメント合同会社,,合同会社,神奈川県,川崎市宮前区,有馬８丁目２５番３１号,,14,136,2160003,,,,,,,2025-05-28,1,,,,,ナナツボシアセットマネジメント,0
337,2021001085349,新規,0,2025-05-28,2025-05-28,ＴＳＫ技研株式会社,,株式会社,神奈川県,足柄上郡山北町,岸５０７番地１,,14,364,2580112,,,,,,,2025-05-28,1,,,,,ティエスケイギケン,0
340,2021003016046,新規,0,2025-05-28,2025-05-28,合同会社ＲＮＬ,,合同会社,神奈川県,横須賀市,大滝町１丁目８番地,,14,201,2380008,,,,,,,2025-05-28,1,,,,,アールエヌエル,0
345,2030001166703,新規,0,2025-05-28,2025-05-28,エフ・トラスト株式会社,,株式会社,埼玉県,八潮市,大字南後谷７１９番地３メロディーハイム草加３０２号室,,11,234,3400831,,,,,,,2025-05-28,1,,,,,エフトラスト,0
346,2030001166711,新規,0,2025-05-28,2025-05-28,株式会社小嶋企画,,株式会社,埼玉県,川口市,南鳩ヶ谷８丁目９番２７号,,11,203,3340013,,,,,,,2025-05-28,1,,,,,コジマキカク,0
349,2030003026590,新規,0,2025-05-28,2025-05-28,ｓｔａｒｉａ合同会社,,合同会社,埼玉県,川口市,新井町９－１４－３０２,,11,203,3320005,,,,,,,2025-05-28,1,,,,,スタリア,0
350,2030003026839,新規,0,2025-05-28,2025-05-28,クリーンビューティーパートナー合同会社,,合同会社,埼玉県,戸田市,下前１丁目１１番２０－８６４号,,11,224,3350016,,,,,,,2025-05-28,1,,,,,クリーンビューティーパートナー,0
351,2030005022175,新規,0,2025-05-28,2025-05-28,特定非営利活動法人トリコロールスポーツクラブ,,その他の設立登記法人,埼玉県,さいたま市北区,大成町４丁目４６３番地センチュリー大成２０５,,11,102,3310815,,,,,,,2025-05-28,1,,,,,トリコロールスポーツクラブ,0
354,2040001138932,新規,0,2025-05-28,2025-05-28,こんて株式会社,,株式会社,千葉県,千葉市若葉区,都賀２丁目２２番８号壹鵠館１０１,,12,104,2640025,,,,,,,2025-05-28,1,,,,,コンテ,0
355,2040001138949,新規,0,2025-05-28,2025-05-28,株式会社ＴＫＳ,,株式会社,千葉県,千葉市中央区,出洲港１－３９－９０３,,12,101,2600023,,,,,,,2025-05-28,1,,,,,ティーケーエス,0
356,2040001138957,新規,0,2025-05-28,2025-05-28,株式会社ＷＡＮ,,株式会社,千葉県,鎌ケ谷市,中佐津間２丁目５番１３号,,12,224,2730135,,,,,,,2025-05-28,1,,,,,ワン,0
357,2040001138965,新規,0,2025-05-28,2025-05-28,プライム電機株式会社,,株式会社,千葉県,千葉市稲毛区,小中台町７６１番地７,,12,103,2630044,,,,,,,2025-05-28,1,,,,,プライムデンキ,0
361,2040003027670,新規,0,2025-05-28,2025-05-28,合同会社ＶＯＲＮＩＸ,,合同会社,千葉県,富里市,新橋３９６番地１０,,12,233,2860224,,,,,,,2025-05-28,1,,,,,ヴォルニックス,0
362,2040003027695,新規,0,2025-05-28,2025-05-28,合同会社ｓｔｅａ会計,,合同会社,千葉県,船橋市,坪井西２丁目２番２９号,,12,204,2740069,,,,,,,2025-05-28,1,,,,,ステアカイケイ,0
365,2050001056729,新規,0,2025-05-28,2025-05-28,株式会社仁徳會,,株式会社,茨城県,稲敷郡阿見町,大字吉原３５９７－３６,,08,443,3001155,,,,,,,2025-05-28,1,,,,,ジントクカイ,0
367,2050003009305,新規,0,2025-05-28,2025-05-28,合同会社コネクトシナジー,,合同会社,茨城県,ひたちなか市,大平２丁目２番１５号,,08,221,3120023,,,,,,,2025-05-28,1,,,,,コネクトシナジー,0
371,2080105006511,新規,0,2025-05-28,2025-05-28,一般社団法人今泉地区まちづくり協議会,,その他の設立登記法人,静岡県,富士市,今泉７丁目１２番３７号,,22,210,4170001,,,,,,,2025-05-28,1,,,,,イマイズミチクマチヅクリキョウギカイ,0
374,2090001019293,新規,0,2025-05-28,2025-05-28,株式会社貴光,,株式会社,山梨県,南都留郡鳴沢村,１０４５３番地６１４,,19,429,4010320,,,,,,,2025-05-28,1,,,,,キコウ,0
379,2100001038630,新規,0,2025-05-28,2025-05-28,株式会社空電,,株式会社,長野県,塩尻市,大字広丘堅石１５８番地１３,,20,215,3990705,,,,,,,2025-05-28,1,,,,,クウデン,0
382,2110005000313,新規,0,2025-05-28,2025-05-28,新潟鉄工業協同組合,,その他の設立登記法人,新潟県,新潟市,山木戸八丁目４番８号,,15,100,,,,,,,,2025-05-28,1,,,,,ニイガタテツコウギョウ,0
389,2120001276055,新規,0,2025-05-28,2025-05-28,錦和株式会社,,株式会社,大阪府,大阪市平野区,加美正覚寺１丁目５番３－３Ｃ,,27,126,5470006,,,,,,,2025-05-28,1,,,,,キンワ,0
390,2120001276063,新規,0,2025-05-28,2025-05-28,株式会社ＤＥＥＰ　ＢＬＵＥ,,株式会社,大阪府,大阪市中央区,心斎橋筋２丁目２番１０号,,27,128,5420085,,,,,,,2025-05-28,1,,,,,ディープブルー,0
391,2120001276088,新規,0,2025-05-28,2025-05-28,株式会社ブルーアース竹田,,株式会社,大阪府,大阪市生野区,巽東３丁目１２番１１－１０５号,,27,116,5440014,,,,,,,2025-05-28,1,,,,,ブルーアースタケダ,0
392,2120001276154,新規,0,2025-05-28,2025-05-28,浩瀧商事株式会社,,株式会社,大阪府,大阪市住吉区,杉本１丁目９番１６号グランビルドアビコＩＩ１０２,00139341,27,120,5580022,,,,,,,2025-05-28,1,,,,,コウロウショウジ,0
393,2120001276195,新規,0,2025-05-28,2025-05-28,株式会社Ｔａｉｓｅｉ,,株式会社,大阪府,大阪市生野区,巽西２丁目３番１３号,00139340,27,116,5440012,,,,,,,2025-05-28,1,,,,,タイセイ,0
394,2120001276212,新規,0,2025-05-28,2025-05-28,不動産販売センター株式会社,,株式会社,大阪府,大阪市北区,天満橋１丁目３番８号,,27,127,5300042,,,,,,,2025-05-28,1,,,,,フドウサンハンバイセンター,0
395,2120001276220,新規,0,2025-05-28,2025-05-28,株式会社Ｙ’ｓ建装,,株式会社,大阪府,大阪市西淀川区,中島１丁目３５番１５６－１０号,,27,113,5550041,,,,,,,2025-05-28,1,,,,,ワイズケンソウ,0
396,2120001276229,新規,0,2025-05-28,2025-05-28,ＮｅｘｔＨｅａｌｔｈ株式会社,,株式会社,大阪府,大阪市北区,豊崎３丁目１６番１６,,27,127,5310072,,,,,,,2025-05-28,1,,,,,ネクストヘルス,0
397,2120001276253,新規,0,2025-05-28,2025-05-28,株式会社ＲＯＵＴＥ　Ｔ,,株式会社,大阪府,大阪市西区,西本町２丁目５番１１号５階,,27,106,5500005,,,,,,,2025-05-28,1,,,,,ルートティー,0
398,2120003029543,新規,0,2025-05-28,2025-05-28,Ｈａ　Ｍａｙ合同会社,,合同会社,大阪府,大阪市中央区,高津３丁目１５－１２イトーピア高津２０３,,27,128,5420072,,,,,,,2025-05-28,1,,,,,ハマイ,0
401,2120101071736,新規,0,2025-05-28,2025-05-28,株式会社心和,,株式会社,大阪府,堺市堺区,大町東３丁２番２８号,,27,141,5900954,,,,,,,2025-05-28,1,,,,,シンワ,0
402,2120101071744,新規,0,2025-05-28,2025-05-28,株式会社ｗｅｓｔ,,株式会社,大阪府,堺市西区,津久野町３丁２５番２９号,,27,144,5938322,,,,,,,2025-05-28,1,,,,,ウエスト,0
403,2120101071752,新規,0,2025-05-28,2025-05-28,株式会社ＲＵＧＰＬＵＳ,,株式会社,大阪府,堺市北区,東浅香山町１丁３７２番地１３,,27,146,5918008,,,,,,,2025-05-28,1,,,,,ラグプラス,0
404,2120101071760,新規,0,2025-05-28,2025-05-28,株式会社弘佳,,株式会社,大阪府,堺市南区,御池台２丁２４番３号,,27,145,5900134,,,,,,,2025-05-28,1,,,,,ヒロカ,0
405,2120103006483,新規,0,2025-05-28,2025-05-28,合同会社ジェランド,,合同会社,大阪府,堺市東区,日置荘西町７丁１２番３,,27,143,5998114,,,,,,,2025-05-28,1,,,,,ジェランド,0
408,2120901050930,新規,0,2025-05-28,2025-05-28,ルミナス株式会社,,株式会社,大阪府,吹田市,千里山星が丘１３番１－７１５号,,27,205,5650845,,,,,,,2025-05-28,1,,,,,ルミナス,0
411,2122001039276,新規,0,2025-05-28,2025-05-28,株式会社ＢＥＡＴＬＥＳＳ,,株式会社,大阪府,八尾市,東久宝寺２丁目７番２号,,27,212,5810002,,,,,,,2025-05-28,1,,,,,ビートレス,0
413,2122003003214,新規,0,2025-05-28,2025-05-28,合同会社ＭＫ,,合同会社,大阪府,東大阪市,長堂１丁目８番３７号ヴェル・ノール布施３階,,27,227,5770056,,,,,,,2025-05-28,1,,,,,エムケー,0
415,2130001079746,新規,0,2025-05-28,2025-05-28,株式会社ＯＮＥ　ＥＩＧＨＴ,,株式会社,京都府,城陽市,寺田乾出北４２番地の７,,26,207,6100121,,,,,,,2025-05-28,1,,,,,ワンエイト,0
416,2130001079754,新規,0,2025-05-28,2025-05-28,アレン株式会社,,株式会社,京都府,京都市北区,上賀茂畔勝町５５番地９,,26,101,6038044,,,,,,,2025-05-28,1,,,,,アレン,0
417,2130001079770,新規,0,2025-05-28,2025-05-28,株式会社いえむら,,株式会社,京都府,京都市伏見区,淀際目町２１８番地,,26,109,6130915,,,,,,,2025-05-28,1,,,,,イエムラ,0
418,2130001079779,新規,0,2025-05-28,2025-05-28,株式会社バーバースマイル,,株式会社,京都府,舞鶴市,字上福井５２番地,,26,202,6240951,,,,,,,2025-05-28,1,,,,,バーバースマイル,0
419,2130005017371,新規,0,2025-05-28,2025-05-28,一般社団法人オーラルコンディショニング協会,,その他の設立登記法人,京都府,舞鶴市,字竹屋２１番地,,26,202,6240928,,,,,,,2025-05-28,1,,,,,オーラルコンディショニングキョウカイ,0
427,2140001138674,新規,0,2025-05-28,2025-05-28,株式会社ＩＳＳＨＩＮ,,株式会社,兵庫県,神戸市中央区,磯上通３丁目２番２５号,,28,110,6510086,,,,,,,2025-05-28,1,,,,,イッシン,0
428,2140001138690,新規,0,2025-05-28,2025-05-28,株式会社Ｍ‐Ｋｉｍｉｙｏ,,株式会社,兵庫県,神戸市中央区,坂口通３丁目１番１０号,,28,110,6510062,,,,,,,2025-05-28,1,,,,,エムキミヨ,0
429,2140001138708,新規,0,2025-05-28,2025-05-28,株式会社ＭＡＳＨ　ＵＰ,,株式会社,兵庫県,神戸市中央区,中山手通２丁目２４番９号中山ビル１階,,28,110,6500004,,,,,,,2025-05-28,1,,,,,マッシュアップ,0
430,2140001138716,新規,0,2025-05-28,2025-05-28,雨森林業株式会社,,株式会社,兵庫県,豊岡市,出石町寺坂７５６番地,,28,209,6680241,,,,,,,2025-05-28,1,,,,,アメモリリンギョウ,0
431,2140001138732,新規,0,2025-05-28,2025-05-28,Ｋ’ｓインターナショナル株式会社,,株式会社,兵庫県,淡路市,志筑３９６８番地２５,,28,226,6562131,,,,,,,2025-05-28,1,,,,,ケーズインターナショナル,0
435,2140003022109,新規,0,2025-05-28,2025-05-28,合同会社パートナー,,合同会社,兵庫県,たつの市,御津町岩見３７６番地,,28,229,6711331,,,,,,,2025-05-28,1,,,,,パートナー,0
436,2140003022117,新規,0,2025-05-28,2025-05-28,合同会社トモニトワ,,合同会社,兵庫県,芦屋市,平田町２番８－１０３号,,28,206,6590074,,,,,,,2025-05-28,1,,,,,トモニトワ,0
439,2160001026778,新規,0,2025-05-28,2025-05-28,ＡＳＫ株式会社,,株式会社,滋賀県,湖南市,菩提寺西３丁目９番１号,,25,211,5203248,,,,,,,2025-05-28,1,,,,,エイエスケイ,0
440,2160001026786,新規,0,2025-05-28,2025-05-28,株式会社壮栄,,株式会社,滋賀県,大津市,平津１丁目６番３６号,,25,201,5200862,,,,,,,2025-05-28,1,,,,,ソウエイ,0
445,2160003003486,新規,0,2025-05-28,2025-05-28,合同会社上屋設備,,合同会社,滋賀県,長浜市,平方町６３５番地１,,25,203,5260033,,,,,,,2025-05-28,1,,,,,カミヤセツビ,0
451,2180001166944,新規,0,2025-05-28,2025-05-28,株式会社ｔａｒｅｍａｙｕ,,株式会社,愛知県,名古屋市名東区,大針１丁目３７６番地２,,23,115,4650064,,,,,,,2025-05-28,1,,,,,タレマユ,0
452,2180001166960,新規,0,2025-05-28,2025-05-28,山田株式会社,,株式会社,愛知県,北名古屋市,高田寺東の川４６番地１,,23,234,4810011,,,,,,,2025-05-28,1,,,,,ヤマダ,0
453,2180001166977,新規,0,2025-05-28,2025-05-28,ＢＩＬＡＬ　ＡＵＴＯ　ＴＲＡＤＩＮＧ株式会社,,株式会社,愛知県,名古屋市港区,名四町７７番地華原ハイツ名港３０４号,,23,111,4550053,,,,,,,2025-05-28,1,,,,,ビラルオートトレーディング,0
454,2180001166985,新規,0,2025-05-28,2025-05-28,株式会社竹友Ｔｏｗｉｎｇ,,株式会社,愛知県,弥富市,佐古木６丁目１４０番地５,,23,235,4980006,,,,,,,2025-05-28,1,,,,,タケトモトーイング,0
455,2180001167018,新規,0,2025-05-28,2025-05-28,ユウシンホールディングス株式会社,,株式会社,愛知県,名古屋市緑区,大高町字三番割６３番地,,23,114,4598001,,,,,,,2025-05-28,1,,,,,ユウシンホールディングス,0
461,2180301039825,新規,0,2025-05-28,2025-05-28,株式会社川崎工業,00139339,株式会社,愛知県,安城市,横山町石ナ曽根１８８番地３,,23,212,4460045,,,,,,,2025-05-28,1,,,,,カワサキコウギョウ,0
462,2180301039841,新規,0,2025-05-28,2025-05-28,ＦＩＲＳＴ　ＭＯＢＩＬＩＴＹ株式会社,,株式会社,愛知県,刈谷市,半城土西町３丁目３番地３エスポワール半城土３０１号,,23,210,4480816,,,,,,,2025-05-28,1,,,,,ファーストモビリティ,0
466,2200001043819,新規,0,2025-05-28,2025-05-28,株式会社インテリア中島,,株式会社,岐阜県,下呂市,少ケ野１９１番地２,,21,220,5092205,,,,,,,2025-05-28,1,,,,,インテリアナカシマ,0
467,2200001043827,新規,0,2025-05-28,2025-05-28,株式会社はなさくＢＡＳＥ,,株式会社,岐阜県,美濃加茂市,下米田町信友４８３番地,,21,211,5050013,,,,,,,2025-05-28,1,,,,,ハナサクベース,0
468,2200001043835,新規,0,2025-05-28,2025-05-28,株式会社ゴールドヴィーナス,,株式会社,岐阜県,土岐市,土岐津町土岐口６７６番地５,,21,212,5095122,,,,,,,2025-05-28,1,,,,,ゴールドヴィーナス,0
469,2200003006848,新規,0,2025-05-28,2025-05-28,合同会社岐経園,,合同会社,岐阜県,関市,馬場出４０番地１,,21,205,5013969,,,,,,,2025-05-28,1,,,,,ギケイエン,0
471,2220001026706,新規,0,2025-05-28,2025-05-28,株式会社Ｒｅ・Ｇｅｎｅｓｉｓ,,株式会社,石川県,金沢市,久安２丁目３８０番地,,17,201,9218164,,,,,,,2025-05-28,1,,,,,リジェネシス,0
475,2240001064860,新規,0,2025-05-28,2025-05-28,とらでぃっしゅ株式会社,,株式会社,広島県,東広島市,鏡山２丁目３１３,,34,212,7390046,,,,,,,2025-05-28,1,,,,,トラディッシュ,0
476,2240001064992,新規,0,2025-05-28,2025-05-28,株式会社ｄｉｔｔｏ,,株式会社,広島県,広島市佐伯区,湯来町大字伏谷字上小伏原４３０番地１,,34,108,7380513,,,,,,,2025-05-28,1,,,,,ディトウ,0
479,2250001021167,新規,0,2025-05-28,2025-05-28,株式会社ＵＮＦ,,株式会社,山口県,下松市,南花岡７丁目１－２９,,35,207,7440027,,,,,,,2025-05-28,1,,,,,アンフ,0
481,2260003005191,新規,0,2025-05-28,2025-05-28,ＩＮＰグループ合同会社,,合同会社,岡山県,岡山市北区,富原２４３０,,33,101,7011153,,,,,,,2025-05-28,1,,,,,アイエヌピーグループ,0
490,2290005019757,新規,0,2025-05-28,2025-05-28,一般社団法人聡栄流占術運命学協会,,その他の設立登記法人,福岡県,福岡市博多区,博多駅前４丁目１１番６号第５いそのビル４０３号,,40,132,8120011,,,,,,,2025-05-28,1,,,,,ソウエイリュウセンジュツウンメイガクキョウカイ,0
499,2330001033229,新規,0,2025-05-28,2025-05-28,株式会社ＢＳ　ｐｒｏｊｅｃｔ,,株式会社,熊本県,宇城市,不知火町御領３９１番地,,43,213,8690551,,,,,,,2025-05-28,1,,,,,ビーエスプロジェクト,0
501,2350001019556,新規,0,2025-05-28,2025-05-28,たかはるグリーン株式会社,,株式会社,宮崎県,西諸県郡高原町,大字広原５４１４番地５６,,45,361,8894411,,,,,,,2025-05-28,1,,,,,タカハルグリーン,0
505,2360001035263,新規,0,2025-05-28,2025-05-28,株式会社ＳＨＩＮ,,株式会社,沖縄県,糸満市,字阿波根１５５１番地３,,47,210,9010301,,,,,,,2025-05-28,1,,,,,シン,0
506,2360001035271,新規,0,2025-05-28,2025-05-28,株式会社沖縄もとい,,株式会社,沖縄県,那覇市,西１丁目５番８西沖商マンション１Ｆ,,47,201,9000036,,,,,,,2025-05-28,1,,,,,オキナワモトイ,0
508,2360003014959,新規,0,2025-05-28,2025-05-28,合同会社悠愉樹庵,,合同会社,沖縄県,中頭郡中城村,字屋宜８２４番地１,,47,328,9012405,,,,,,,2025-05-28,1,,,,,ユウユジュアン,0
513,2390003002399,新規,0,2025-05-28,2025-05-28,合同会社ＦＥＬＩＸ,,合同会社,山形県,鶴岡市,下川字窪畑１６７,,06,203,9971117,,,,,,,2025-05-28,1,,,,,フェリックス,0
520,2420001019160,新規,0,2025-05-28,2025-05-28,株式会社青森ＦＴ牧場,,株式会社,青森県,青森市,浪岡大字吉野田字荷越沢４０番地６０,,02,201,0381344,,,,,,,2025-05-28,1,,,,,アオモリエフティーボクジョウ,0
522,2430001094500,新規,0,2025-05-28,2025-05-28,株式会社ＳｔｕｄｉｏＧｅｎ,,株式会社,北海道,江別市,萌えぎ野西１８番地の９,,01,217,0670059,,,,,,,2025-05-28,1,,,,,スタジオゲン,0
523,2430001094509,新規,0,2025-05-28,2025-05-28,株式会社メルシード,,株式会社,北海道,札幌市中央区,北十二条西１５丁目５番２３－７０６号,,01,101,0600012,,,,,,,2025-05-28,1,,,,,メルシード,0
524,2430001094525,新規,0,2025-05-28,2025-05-28,株式会社ＦＵＬＬ　ＣＯＭＭＩＴ,,株式会社,北海道,札幌市中央区,南一条西１３丁目４番４０,,01,101,0600061,,,,,,,2025-05-28,1,,,,,フルコミット,0
527,2440003001692,新規,0,2025-05-28,2025-05-28,合同会社居宅介護支援事業所清水,,合同会社,北海道,北斗市,本町５丁目４－２１,,01,236,0411201,,,,,,,2025-05-28,1,,,,,キョタクカイゴシエンジギョウショシミズ,0
528,2440005002796,新規,0,2025-05-28,2025-05-28,一般社団法人ｅ‐ＮａＫａ,,その他の設立登記法人,北海道,檜山郡上ノ国町,字新村２８番地１,,01,362,0490623,,,,,,,2025-05-28,1,,,,,イーナカ,0
529,2450003002665,新規,0,2025-05-28,2025-05-28,合同会社ＡＸＩＳ,,合同会社,北海道,旭川市,永山十条１５丁目４番１号,,01,204,0798420,,,,,,,2025-05-28,1,,,,,アクシス,0
530,2470001020725,新規,0,2025-05-28,2025-05-28,株式会社した,,株式会社,香川県,仲多度郡まんのう町,東高篠１７１０番地４,,37,406,7660013,,,,,,,2025-05-28,1,,,,,シタ,0
531,2470001020733,新規,0,2025-05-28,2025-05-28,株式会社翔来工業,,株式会社,香川県,高松市,国分寺町国分９４７番地１,,37,201,7690102,,,,,,,2025-05-28,1,,,,,ヒライコウギョウ,0
533,2480001012845,新規,0,2025-05-28,2025-05-28,株式会社Ｆａｒｍ　ｓｔｏｒｙ,,株式会社,徳島県,小松島市,江田町字大江田１７番地１,,36,203,7730014,,,,,,,2025-05-28,1,,,,,ファームストーリー,0
542,2500003003518,新規,0,2025-05-28,2025-05-28,Ｋｉｄｓ　Ｌｉｆｅ　Ｐａｒｔｎｅｒ合同会社,,合同会社,愛媛県,松山市,西長戸町９２０番地１１,,38,201,7918017,,,,,,,2025-05-28,1,,,,,,0
550,3010001254913,新規,0,2025-05-28,2025-05-28,ファイアウィードアセット株式会社,,株式会社,東京都,中央区,築地６丁目７番１１－９０２号,,13,102,1040045,,,,,,,2025-05-28,1,,,,,ファイアウィードアセット,0
551,3010001255317,新規,0,2025-05-28,2025-05-28,株式会社中小企業システムサービス,,株式会社,東京都,中央区,日本橋本町３丁目３番６号ワカ末ビル７階,,13,102,1030023,,,,,,,2025-05-28,1,,,,,チュウショウキギョウシステムサービス,0
552,3010001255366,新規,0,2025-05-28,2025-05-28,株式会社トラノスケ,,株式会社,東京都,千代田区,永田町２丁目４番７号,,13,101,1000014,,,,,,,2025-05-28,1,,,,,トラノスケ,0
553,3010001255382,新規,0,2025-05-28,2025-05-28,Ｗ４パートナーズ株式会社,,株式会社,東京都,千代田区,紀尾井町４番１号,,13,101,1020094,,,,,,,2025-05-28,1,,,,,ダブリューフォーパートナーズ,0
554,3010001255416,新規,0,2025-05-28,2025-05-28,ステラリープ株式会社,,株式会社,東京都,文京区,音羽１丁目６番３－００３号,,13,105,1120013,,,,,,,2025-05-28,1,,,,,ステラリープ,0
555,3010001255432,新規,0,2025-05-28,2025-05-28,Ｐｏｗｅｒ　Ｒｅａｌｍｓ株式会社,,株式会社,東京都,中央区,新川１丁目７番１号,,13,102,1040033,,,,,,,2025-05-28,1,,,,,パワーレルムス,0
556,3010001255449,新規,0,2025-05-28,2025-05-28,ＲＡＹクリエイティブ株式会社,,株式会社,東京都,千代田区,神田練塀町４５番地１－９０２号,,13,101,1010022,,,,,,,2025-05-28,1,,,,,アールエイワイクリエイティブ,0
560,3010003047448,新規,0,2025-05-28,2025-05-28,ホワイトファイバージャパン合同会社,,合同会社,東京都,中央区,日本橋室町４丁目３番９号,,13,102,1030022,,,,,,,2025-05-28,1,,,,,ホワイトファイバージャパン,0
561,3010003047456,新規,0,2025-05-28,2025-05-28,Ｉｍｂｒｉａ　Ｐｈａｒｍａｃｅｕｔｉｃａｌｓ　Ｊａｐａｎ合同会社,,合同会社,東京都,中央区,日本橋堀留町１丁目９番１０号,,13,102,1030012,,,,,,,2025-05-28,1,,,,,インブリアファーマシューティカルズジャパン,0
562,3010003047480,新規,0,2025-05-28,2025-05-28,日光Ｐｌｕｓ２４合同会社１,,合同会社,東京都,千代田区,丸の内１丁目４番１号東京共同会計事務所内,,13,101,1000005,,,,,,,2025-05-28,1,,,,,ニッコウプラストゥエンティフォーイチ,0
565,3010103002575,新規,0,2025-05-28,2025-05-28,合同会社高栄設備,,合同会社,東京都,八王子市,西寺方町３７０番地４６,,13,201,1920153,,,,,,,2025-05-28,1,,,,,コウエイセツビ,0
572,3010401190428,新規,0,2025-05-28,2025-05-28,株式会社ＣｏｏｌＲｉｃｈ,,株式会社,東京都,港区,南麻布１丁目１６番３－７０１号,,13,103,1060047,,,,,,,2025-05-28,1,,,,,クールリッチ,0
573,3010401190551,新規,0,2025-05-28,2025-05-28,Ａｒｋｓ　Ｊａｐａｎ株式会社,,株式会社,東京都,港区,南麻布１丁目５番３０－５０４号,,13,103,1060047,,,,,,,2025-05-28,1,,,,,アークスジャパン,0
574,3010401190592,新規,0,2025-05-28,2025-05-28,株式会社エナジープロダクション,,株式会社,東京都,港区,北青山２丁目１２番１５号Ｇ－ＦＲＯＮＴ青山５階,,13,103,1070061,,,,,,,2025-05-28,1,,,,,エナジープロダクション,0
575,3010401190626,新規,0,2025-05-28,2025-05-28,株式会社ロミッチ,,株式会社,東京都,港区,新橋５丁目２９番４号バニモパレス３階,,13,103,1050004,,,,,,,2025-05-28,1,,,,,ロミッチ,0
578,3010403035218,新規,0,2025-05-28,2025-05-28,合同会社Ａｄｄｉｃｔｉｏｎ,,合同会社,東京都,港区,北青山１丁目３番１号アールキューブ青山３階,,13,103,1070061,,,,,,,2025-05-28,1,,,,,アディクション,0
585,3010703007726,新規,0,2025-05-28,2025-05-28,合同会社Ｋ＆Ｋ,,合同会社,東京都,品川区,大井１丁目３１－１－１６０７,,13,109,1400014,,,,,,,2025-05-28,1,,,,,ケーアンドケー,0
588,3010903009943,新規,0,2025-05-28,2025-05-28,アルタヴィストアカウンティング合同会社,,合同会社,東京都,世田谷区,尾山台１丁目１５－４,,13,112,1580086,,,,,,,2025-05-28,1,,,,,アルタヴィストアカウンティング,0
589,3010903009951,新規,0,2025-05-28,2025-05-28,合同会社Ｃｕｌｔｕｒａ,,合同会社,東京都,世田谷区,太子堂５丁目３番１０号ＧＳハイム太子堂４０１,,13,112,1540004,,,,,,,2025-05-28,1,,,,,クルトゥラ,0
592,3011001169580,新規,0,2025-05-28,2025-05-28,株式会社ＷＡＮＮＩＩ,,株式会社,東京都,渋谷区,道玄坂１丁目１０番８号渋谷道玄坂東急ビル２Ｆ－Ｃ,,13,113,1500043,,,,,,,2025-05-28,1,,,,,ワンニー,0
593,3011001169606,新規,0,2025-05-28,2025-05-28,株式会社トラスト,,株式会社,東京都,渋谷区,神泉町１０番１５号アネックス神泉３０１号室,,13,113,1500045,,,,,,,2025-05-28,1,,,,,トラスト,0
594,3011001169639,新規,0,2025-05-28,2025-05-28,株式会社ＡＩＢ,,株式会社,東京都,渋谷区,道玄坂１丁目１０番８号渋谷道玄坂東急ビル２Ｆ－Ｃ,,13,113,1500043,,,,,,,2025-05-28,1,,,,,エーアイビー,0
595,3011001169787,新規,0,2025-05-28,2025-05-28,株式会社金融経済産業研究所,,株式会社,東京都,渋谷区,道玄坂１丁目１０番８号渋谷道玄坂東急ビル２Ｆ－Ｃ,,13,113,1500043,,,,,,,2025-05-28,1,,,,,キンユウケイザイサンギョウケンキュウジョ,0
596,3011001169837,新規,0,2025-05-28,2025-05-28,株式会社プラバン,,株式会社,東京都,渋谷区,道玄坂１丁目１６番６号二葉ビル８ｂ,,13,113,1500043,,,,,,,2025-05-28,1,,,,,プラバン,0
599,3011003021624,新規,0,2025-05-28,2025-05-28,Ｎ　ｉｓｍ合同会社,,合同会社,東京都,渋谷区,道玄坂１丁目１０番８号渋谷道玄坂東急ビル２ＦーＣ,,13,113,1500043,,,,,,,2025-05-28,1,,,,,ニズム,0
602,3011101111806,新規,0,2025-05-28,2025-05-28,株式会社ファイナンシャルプロテクションパートナーズ,,株式会社,東京都,新宿区,大久保１丁目２番１号天翔東新宿ビル３０１号室,,13,104,1690072,,,,,,,2025-05-28,1,,,,,ファイナンシャルプロテクションパートナーズ,0
603,3011101111830,新規,0,2025-05-28,2025-05-28,株式会社ワンアップ,,株式会社,東京都,新宿区,新宿７丁目１８番４－５０７号,,13,104,1600022,,,,,,,2025-05-28,1,,,,,ワンアップ,0
604,3011101111855,新規,0,2025-05-28,2025-05-28,株式会社フィディスゼノ,,株式会社,東京都,新宿区,新宿１丁目３６番１２号サンカテリーナ６階,,13,104,1600022,,,,,,,2025-05-28,1,,,,,フィディスゼノ,0
605,3011103015971,新規,0,2025-05-28,2025-05-28,合同会社Ｓｏｒａｔｎｅｋ,,合同会社,東京都,新宿区,西新宿３丁目３番１３号西新宿水間ビル２Ｆ,,13,104,1600023,,,,,,,2025-05-28,1,,,,,ソラトネック,0
606,3011105011432,新規,0,2025-05-28,2025-05-28,一般社団法人ヒョク・パーク・ミニストリーズ・ジャパン,,その他の設立登記法人,東京都,新宿区,西新宿３丁目３番１３号西新宿水間ビル２Ｆ,,13,104,1600023,,,,,,,2025-05-28,1,,,,,ヒョクパークミニストリーズジャパン,0
607,3011301030608,新規,0,2025-05-28,2025-05-28,ダーリントン株式会社,,株式会社,東京都,杉並区,梅里１丁目２２－２６－２０９号室,,13,115,1660011,,,,,,,2025-05-28,1,,,,,ダーリントン,0
613,3011703004250,新規,0,2025-05-28,2025-05-28,合同会社凪介,,合同会社,東京都,江戸川区,西小岩５丁目１５番１４号,,13,123,1330057,,,,,,,2025-05-28,1,,,,,ナギスケ,0
614,3011801046203,新規,0,2025-05-28,2025-05-28,そくわん株式会社,,株式会社,東京都,足立区,千住１丁目４番１号東京芸術センター１０階,,13,121,1200034,,,,,,,2025-05-28,1,,,,,ソクワン,0
616,3012401043152,新規,0,2025-05-28,2025-05-28,株式会社ＤｉｇｉｔａｌＢｅｅ,,株式会社,東京都,三鷹市,下連雀３丁目２６番６号リガーレ３０１,,13,204,1810013,,,,,,,2025-05-28,1,,,,,デジタルビー,0
622,3013301054339,新規,0,2025-05-28,2025-05-28,株式会社ＤＥＭＩＡＮ,,株式会社,東京都,豊島区,高松２丁目４５番１６－５０２号,,13,116,1710042,,,,,,,2025-05-28,1,,,,,デミアン,0
627,3020001163048,新規,0,2025-05-28,2025-05-28,株式会社ポプケ,,株式会社,神奈川県,川崎市中原区,宮内２丁目１１番７号,,14,133,2110051,,,,,,,2025-05-28,1,,,,,ポプケ,0
628,3020001163056,新規,0,2025-05-28,2025-05-28,株式会社碧心設備,,株式会社,神奈川県,横浜市瀬谷区,阿久和東３丁目３５番地８,,14,114,2460023,,,,,,,2025-05-28,1,,,,,アオシセツビ,0
629,3020001163072,新規,0,2025-05-28,2025-05-28,ＡＲＣＡＮＡ・ｉｎｔｅｒｎａｔｉｏｎａｌ株式会社,,株式会社,神奈川県,横浜市西区,北幸１丁目５番１０号ＪＰＲ横浜ビル８階,,14,103,2200004,,,,,,,2025-05-28,1,,,,,アルカナインターナショナル,0
634,3021001085364,新規,0,2025-05-28,2025-05-28,株式会社峰尾商事,,株式会社,神奈川県,綾瀬市,深谷南６丁目９番１１号,,14,218,2521106,,,,,,,2025-05-28,1,,,,,ミネオショウジ,0
637,3030001166693,新規,0,2025-05-28,2025-05-28,去病株式会社,,株式会社,埼玉県,春日部市,大沼４丁目６５－３１０,,11,214,3440038,,,,,,,2025-05-28,1,,,,,キョビョウ,0
638,3030001166710,新規,0,2025-05-28,2025-05-28,ＮＯＲＩコンサルティング株式会社,,株式会社,埼玉県,さいたま市西区,大字指扇２５４３番地２Ｆ,,11,101,3310047,,,,,,,2025-05-28,1,,,,,ノリコンサルティング,0
639,3030001166751,新規,0,2025-05-28,2025-05-28,株式会社ＳＳＩ,,株式会社,埼玉県,深谷市,北根２９５番地,,11,218,3691242,,,,,,,2025-05-28,1,,,,,エスエスアイ,0
640,3030001166768,新規,0,2025-05-28,2025-05-28,株式会社ドラリア,,株式会社,埼玉県,本庄市,児玉町入浅見７５５－１,,11,211,3670203,,,,,,,2025-05-28,1,,,,,ドラリア,0
641,3030001166784,新規,0,2025-05-28,2025-05-28,株式会社マルトク,,株式会社,埼玉県,北葛飾郡杉戸町,内田４丁目７番３０号,,11,464,3450035,,,,,,,2025-05-28,1,,,,,マルトク,0
645,3040001138741,新規,0,2025-05-28,2025-05-28,ＭＤＣテクノロジー株式会社,,株式会社,千葉県,松戸市,胡録台１２４－４プライムアセット胡録台Ｂ棟,,12,207,2710075,,,,,,,2025-05-28,1,,,,,エムディーシーテクノロジー,0
652,3040003027661,新規,0,2025-05-28,2025-05-28,合同会社ＳｅｃｏｎｄＮｏｔｅ,,合同会社,千葉県,松戸市,横須賀２丁目３番地の１９アヴァンセ・クロシェット２０２号,,12,207,2700031,,,,,,,2025-05-28,1,,,,,セカンドノート,0
653,3040003027694,新規,0,2025-05-28,2025-05-28,合同会社Ｒ４Ｒ,,合同会社,千葉県,千葉市稲毛区,長沼町７９－１７Ｇ１棟１５２７号,,12,103,2630005,,,,,,,2025-05-28,1,,,,,アールフォーアール,0
654,3050001056728,新規,0,2025-05-28,2025-05-28,株式会社ＭＣ　Ｌｉｎｋ,,株式会社,茨城県,常総市,水海道天満町４８４２番地,,08,211,3030034,,,,,,,2025-05-28,1,,,,,エムシーリンク,0
655,3050003009304,新規,0,2025-05-28,2025-05-28,合同会社いばらきトココト,,合同会社,茨城県,行方市,藤井９６番地１,,08,233,3113517,,,,,,,2025-05-28,1,,,,,イバラキトココト,0
665,3080401027937,新規,0,2025-05-28,2025-05-28,株式会社茂木建設,,株式会社,静岡県,浜松市中央区,鶴見町９１番地の２,,22,138,4350022,,,,,,,2025-05-28,1,,,,,モキケンセツ,0
666,3080405007745,新規,0,2025-05-28,2025-05-28,一般社団法人ＳｍｉｌｅＬｉｎｋスマイルリンク,,その他の設立登記法人,静岡県,袋井市,鷲巣１３２５番地の５,,22,216,4370017,,,,,,,2025-05-28,1,,,,,スマイルリンクスマイルリンク,0
667,3090001019292,新規,0,2025-05-28,2025-05-28,株式会社ＣＡＴｓ　ＥＹＥ,,株式会社,山梨県,甲府市,貢川本町７番２８号ヴィラ貢川４０１,,19,201,4000048,,,,,,,2025-05-28,1,,,,,キャッツアイ,0
668,3100001038638,新規,0,2025-05-28,2025-05-28,株式会社矢花瓦店,,株式会社,長野県,安曇野市,明科七貴４３６４番地,,20,220,3997104,,,,,,,2025-05-28,1,,,,,ヤバナカワラテン,0
669,3100003008176,新規,0,2025-05-28,2025-05-28,合同会社ＡＲＡＴＡ,,合同会社,長野県,上伊那郡箕輪町,大字東箕輪３２７８番地１６,,20,383,3994602,,,,,,,2025-05-28,1,,,,,アラタ,0
670,3100003008184,新規,0,2025-05-28,2025-05-28,合同会社ＦＡＲＭ　ｔｏ　ＬＩＦＥ,,合同会社,長野県,中野市,大字栗林６７２番地６,,20,211,3830056,,,,,,,2025-05-28,1,,,,,ファームトゥーライフ,0
672,3110001039288,新規,0,2025-05-28,2025-05-28,ＥＭＰＡＷＡ株式会社,,株式会社,新潟県,新潟市中央区,西堀前通２番町７０５番地,,15,103,9518062,,,,,,,2025-05-28,1,,,,,エンパワ,0
679,3120001276186,新規,0,2025-05-28,2025-05-28,株式会社ｅ‐ＧＩＦＴ,,株式会社,大阪府,大阪市港区,築港４丁目４番３号ＣＩＰ天保山ビル３Ｆ,,27,107,5520021,,,,,,,2025-05-28,1,,,,,イーギフト,0
680,3120001276252,新規,0,2025-05-28,2025-05-28,大聡建設株式会社,,株式会社,大阪府,大阪市東成区,東中本２丁目５番１９号,,27,115,5370021,,,,,,,2025-05-28,1,,,,,ダイソウケンセツ,0
681,3120001276260,新規,0,2025-05-28,2025-05-28,株式会社Ｌｉｖｅｒｅｓｔ,,株式会社,大阪府,大阪市都島区,東野田町２丁目４番１５号,,27,102,5340024,,,,,,,2025-05-28,1,,,,,リブレスト,0
682,3120001276269,新規,0,2025-05-28,2025-05-28,ＡＡ株式会社,,株式会社,大阪府,大阪市天王寺区,筆ケ崎町２番１０－３３０２号,,27,109,5430027,,,,,,,2025-05-28,1,,,,,エイエイ,0
686,3120003029542,新規,0,2025-05-28,2025-05-28,辰斉貿易合同会社,,合同会社,大阪府,大阪市西成区,玉出東１丁目１１番２３号,,27,122,5570043,,,,,,,2025-05-28,1,,,,,シンサイボウエキ,0
687,3120003029559,新規,0,2025-05-28,2025-05-28,ＢａｂｕＴｅａ　ａｎｄ　Ｃｏ合同会社,,合同会社,大阪府,大阪市淀川区,十三本町２丁目８番２号１階北側,,27,123,5320024,,,,,,,2025-05-28,1,,,,,バブティーアンドコー,0
688,3120003029575,新規,0,2025-05-28,2025-05-28,合同会社ＲＩＶＺ,,合同会社,大阪府,大阪市北区,豊崎５丁目７－１５多田ビル３１６号,,27,127,5310072,,,,,,,2025-05-28,1,,,,,リヴズ,0
689,3120003029583,新規,0,2025-05-28,2025-05-28,ＴＩＰフォーミー合同会社,,合同会社,大阪府,守口市,竹町７番１２号,,27,209,5700086,,,,,,,2025-05-28,1,,,,,ティーアイピーフォーミー,0
690,3120003029591,新規,0,2025-05-28,2025-05-28,合同会社いろは,,合同会社,大阪府,大阪市東住吉区,山坂１丁目１６番７号,,27,121,5460035,,,,,,,2025-05-28,1,,,,,イロハ,0
693,3120101071710,新規,0,2025-05-28,2025-05-28,株式会社Ｆｏｒ　ｙｏｕ,,株式会社,大阪府,阪南市,光陽台３丁目１２番２７号,,27,232,5990223,,,,,,,2025-05-28,1,,,,,フォーユー,0
694,3120101071743,新規,0,2025-05-28,2025-05-28,株式会社ＲＹＵＳＨ,,株式会社,大阪府,堺市西区,鳳北町６丁３４３番地５,,27,144,5938328,,,,,,,2025-05-28,1,,,,,リューシュ,0
699,3122001039275,新規,0,2025-05-28,2025-05-28,株式会社すずらん,,株式会社,大阪府,東大阪市,永和１丁目２６番２０号,,27,227,5770809,,,,,,,2025-05-28,1,,,,,スズラン,0
701,3122003003213,新規,0,2025-05-28,2025-05-28,Ｒｅｙ合同会社,,合同会社,大阪府,東大阪市,小阪１丁目１０番３５－９０６号,,27,227,5770801,,,,,,,2025-05-28,1,,,,,アールイーワイ,0
702,3130005017370,新規,0,2025-05-28,2025-05-28,一般社団法人Ｊｕ‐Ｒａｋｕ‐Ｓｏ,,その他の設立登記法人,京都府,京都市北区,中川北山町９７番地,,26,101,6010122,,,,,,,2025-05-28,1,,,,,ジュラクソウ,0
704,3140001138698,新規,0,2025-05-28,2025-05-28,株式会社悠トラフィック,,株式会社,兵庫県,姫路市,東山４８１番地７,,28,201,6728014,,,,,,,2025-05-28,1,,,,,ユウトラフィック,0
705,3140001138707,新規,0,2025-05-28,2025-05-28,ＭＡＳＨＡＲＥＱ　ＪＡＰＡＮ株式会社,,株式会社,兵庫県,川辺郡猪名川町,つつじが丘５丁目１９番地２,,28,301,6660245,,,,,,,2025-05-28,1,,,,,マサレックジャパン,0
706,3140001138715,新規,0,2025-05-28,2025-05-28,株式会社ななつ星,,株式会社,兵庫県,姫路市,立町１４番地クリスタルビル１Ｆ,,28,201,6700903,,,,,,,2025-05-28,1,,,,,ナナツボシ,0
709,3140003022108,新規,0,2025-05-28,2025-05-28,合同会社ソルとソル,,合同会社,兵庫県,淡路市,久留麻２００４番地２,,28,226,6562311,,,,,,,2025-05-28,1,,,,,ソルトソル,0
710,3140003022116,新規,0,2025-05-28,2025-05-28,合同会社ＳＭＡＲＴ　ＦＬＵＥＮＴ,,合同会社,兵庫県,伊丹市,西台３丁目９番２２号西台駅前ビル２０８－１７,,28,207,6640858,,,,,,,2025-05-28,1,,,,,スマートフルーエント,0
712,3160001026777,新規,0,2025-05-28,2025-05-28,株式会社みらい,,株式会社,滋賀県,栗東市,下鈎８４６番地１２,,25,208,5203026,,,,,,,2025-05-28,1,,,,,ミライ,0
713,3160001026793,新規,0,2025-05-28,2025-05-28,株式会社まどころ,,株式会社,滋賀県,草津市,下物町２６６番地２,,25,206,5250001,,,,,,,2025-05-28,1,,,,,マドコロ,0
715,3160003003493,新規,0,2025-05-28,2025-05-28,合同会社みやざわ農園,,合同会社,滋賀県,長浜市,高月町柏原６３０番地,,25,203,5290234,,,,,,,2025-05-28,1,,,,,ミヤザワノウエン,0
719,3180001167009,新規,0,2025-05-28,2025-05-28,株式会社Ｐｌｕｓｔｉｖｅ,,株式会社,愛知県,名古屋市千種区,千種１丁目１６番５号－２サンアベニュー千種１０２号,,23,101,4640858,,,,,,,2025-05-28,1,,,,,プラスティブ,0
720,3180001167025,新規,0,2025-05-28,2025-05-28,株式会社ＬＥＭＵＳＥ,,株式会社,愛知県,名古屋市中区,錦３丁目１２番１１号,,23,106,4600003,,,,,,,2025-05-28,1,,,,,レミューズ,0
724,3190001032244,新規,0,2025-05-28,2025-05-28,株式会社栄将,,株式会社,三重県,四日市市,白須賀１丁目１５番１６号,,24,202,5100018,,,,,,,2025-05-28,1,,,,,エイショウ,0
725,3200001043818,新規,0,2025-05-28,2025-05-28,株式会社ＢｅＷｏｒｋｓ,,株式会社,岐阜県,岐阜市,加納新本町１丁目２５番地ベルウッド１Ｆ,,21,201,5008463,,,,,,,2025-05-28,1,,,,,ビーワークス,0
728,3200003006847,新規,0,2025-05-28,2025-05-28,合同会社Ｒｅｉ　Ａｒｃａｎａ,,合同会社,岐阜県,羽島市,福寿町平方２１７番地１２,,21,209,5016257,,,,,,,2025-05-28,1,,,,,レイアルカナ,0
734,3240003007230,新規,0,2025-05-28,2025-05-28,合同会社越水法律研究所,,合同会社,広島県,広島市安佐北区,口田５丁目１番７－３号,,34,106,7391734,,,,,,,2025-05-28,1,,,,,コシミズホウリツケンキュウジョ,0
747,3290003016895,新規,0,2025-05-28,2025-05-28,合同会社ＺＥＲＯ　Ｂｅｇｉｎ,,合同会社,福岡県,福岡市博多区,博多駅前１丁目２３－２ＰａｒｋＦｒｏｎｔ博多駅前１丁目５Ｆ－Ｂ,,40,132,8120011,,,,,,,2025-05-28,1,,,,,ゼロビギン,0
756,3350001019555,新規,0,2025-05-28,2025-05-28,Ｎｏｖｕｓ株式会社,,株式会社,宮崎県,宮崎市,大工３丁目２１６番地,,45,201,8800015,,,,,,,2025-05-28,1,,,,,ノーバス,0
762,3360001035246,新規,0,2025-05-28,2025-05-28,株式会社Ｓｅａ　Ｓｈａｒｉｎｇ,,株式会社,沖縄県,宮古島市,平良字久貝４４５番地１８,,47,214,9060015,,,,,,,2025-05-28,1,,,,,シーシェアリング,0
763,3360001035262,新規,0,2025-05-28,2025-05-28,株式会社ＳＵＩ,,株式会社,沖縄県,那覇市,首里桃原町２丁目１番地２２・２０１,,47,201,9030822,,,,,,,2025-05-28,1,,,,,スイ,0
764,3360003014966,新規,0,2025-05-28,2025-05-28,合同会社ＯＫ,,合同会社,沖縄県,那覇市,松尾１丁目４－２テラスビル１階,,47,201,9000014,,,,,,,2025-05-28,1,,,,,オーケー,0
768,3370001052612,新規,0,2025-05-28,2025-05-28,株式会社東日本エクスポート,,株式会社,宮城県,富谷市,明石原川戸５０番地８,,04,216,9813326,,,,,,,2025-05-28,1,,,,,ヒガシニホンエクスポート,0
777,3380001035351,新規,0,2025-05-28,2025-05-28,株式会社ｏｆｆｉｃｅ１０ｃｔ,,株式会社,福島県,いわき市,常磐下船尾町村山１０７番６,,07,204,9728312,,,,,,,2025-05-28,1,,,,,オフィステンカラット,0
780,3380003006053,新規,0,2025-05-28,2025-05-28,合同会社地域防災連携,,合同会社,福島県,福島市,上浜町１０番７号,,07,201,9608134,,,,,,,2025-05-28,1,,,,,チイキボウサイレンケイ,0
781,3390003002398,新規,0,2025-05-28,2025-05-28,合同会社森の花び,,合同会社,山形県,酒田市,字山田２３番地の１２,,06,204,9996861,,,,,,,2025-05-28,1,,,,,モリノハナビ,0
787,3430001094516,新規,0,2025-05-28,2025-05-28,株式会社ハーティブ企画ホールディングス,,株式会社,北海道,札幌市中央区,北二条西３丁目１番２９,,01,101,0600002,,,,,,,2025-05-28,1,,,,,ハーティブキカクホールディングス,0
788,3430001094524,新規,0,2025-05-28,2025-05-28,株式会社山重矢野,,株式会社,北海道,沙流郡日高町,若葉町１丁目１０２番地,,01,601,0552309,,,,,,,2025-05-28,1,,,,,ヤマジュウヤノ,0
789,3440003001691,新規,0,2025-05-28,2025-05-28,合同会社Ｋ．Ｒ,,合同会社,北海道,函館市,昭和２丁目２４番１８号,,01,202,0410812,,,,,,,2025-05-28,1,,,,,ケーアール,0
790,3450003002664,新規,0,2025-05-28,2025-05-28,合同会社ＭＥＲＣｉ,,合同会社,北海道,旭川市,豊岡十二条１０丁目６番２２号,,01,204,0788242,,,,,,,2025-05-28,1,,,,,メルシー,0
791,3460003001054,新規,0,2025-05-28,2025-05-28,合同会社真源社,,合同会社,北海道,釧路市,鳥取大通１丁目２番１４号,,01,206,0840906,,,,,,,2025-05-28,1,,,,,シンゲンシャ,0
794,3490001011060,新規,0,2025-05-28,2025-05-28,未来創生株式会社,,株式会社,高知県,高知市,南川添１５－２・１階,,39,201,7810082,,,,,,,2025-05-28,1,,,,,ミライソウセイ,0
797,3700150130762,新規,0,2025-05-28,2025-05-28,ＳＴＡＲ　ＭＵＬＴＩ　ＣＯＲＰＯＲＡＴＩＯＮ,,外国会社等,神奈川県,厚木市,中依知３０３番地１　サンファン厚木１０２－Ａ,,14,212,2430805,スリランカ民主社会主義共和国、クリヤピティヤ、エトゥンガハコトゥワ、ヤヤロード、Ｎｏ．１１７／２,,,,,,2025-05-28,1,,,,,スタームルテイコーポレーシヨン,0
801,4010001255349,新規,0,2025-05-28,2025-05-28,株式会社ＫＷＯＫ,,株式会社,東京都,中央区,銀座７丁目１３番２０号銀座ＴＨビル９階,,13,102,1040061,,,,,,,2025-05-28,1,,,,,クォク,0
802,4010001255398,新規,0,2025-05-28,2025-05-28,株式会社Ｓｔｙｌｉｎｇ　Ｐｒｏｃｅｓｓ,,株式会社,東京都,文京区,湯島３丁目２４番１１号８Ｆ,,13,105,1130034,,,,,,,2025-05-28,1,,,,,スタイリングプロセス,0
803,4010001255407,新規,0,2025-05-28,2025-05-28,株式会社フューチャーデータ,,株式会社,東京都,千代田区,平河町１丁目３番６号,,13,101,1020093,,,,,,,2025-05-28,1,,,,,フューチャーデータ,0
804,4010001255431,新規,0,2025-05-28,2025-05-28,株式会社ＢｏｎＨｅｕｒ．,,株式会社,東京都,中央区,銀座１丁目２２番１１号銀座大竹ビジデンス２Ｆ,,13,102,1040061,,,,,,,2025-05-28,1,,,,,ボヌール,0
805,4010001255464,新規,0,2025-05-28,2025-05-28,株式会社イーストブリッジグループ,,株式会社,東京都,千代田区,神田神保町３丁目１２－３神保町スリービル８階,,13,101,1010051,,,,,,,2025-05-28,1,,,,,イーストブリッジグループ,0
809,4010003047447,新規,0,2025-05-28,2025-05-28,横浜ＭＭホテルマネジメント合同会社,,合同会社,東京都,千代田区,丸の内１丁目４番１号,,13,101,1000005,,,,,,,2025-05-28,1,,,,,ヨコハマエムエムホテルマネジメント,0
819,4010401190550,新規,0,2025-05-28,2025-05-28,株式会社Ｂｅｅ　Ｇｒｏｕｐ,,株式会社,東京都,港区,新橋５丁目８番３号代市ビルＢ１,,13,103,1050004,,,,,,,2025-05-28,1,,,,,ビーグループ,0
822,4010403035126,新規,0,2025-05-28,2025-05-28,ＣＫＧ合同会社,,合同会社,東京都,港区,六本木３丁目１８番２－１５０３号,,13,103,1060032,,,,,,,2025-05-28,1,,,,,シーケージー,0
829,4010601067367,新規,0,2025-05-28,2025-05-28,株式会社ＣｌｏｕｄＲＡＮ．ＡＩ,,株式会社,東京都,江東区,豊洲５丁目６番２９号,,13,108,1350061,,,,,,,2025-05-28,1,,,,,クラウドランエイアイ,0
830,4010603011587,新規,0,2025-05-28,2025-05-28,合同会社Ｒｅａｌ　ＫｉｎＴｓｕｇｉ,,合同会社,東京都,江東区,有明３丁目７番２６号有明フロンティアビルＢ棟９階,,13,108,1350063,,,,,,,2025-05-28,1,,,,,リアルキンツギ,0
840,4010903009950,新規,0,2025-05-28,2025-05-28,合同会社アクターネットワーク,,合同会社,東京都,世田谷区,北沢２丁目３９番６号ＣＯＳ下北沢,,13,112,1550031,,,,,,,2025-05-28,1,,,,,アクターネットワーク,0
841,4010903009959,新規,0,2025-05-28,2025-05-28,ＦＳ合同会社,,合同会社,東京都,世田谷区,代田２丁目１８番１２号ガーデニア代田１０１,,13,112,1550033,,,,,,,2025-05-28,1,,,,,エフエス,0
845,4011001169654,新規,0,2025-05-28,2025-05-28,株式会社ＮＧＣ,,株式会社,東京都,目黒区,下目黒１丁目１番１４号コノトラビル７Ｆ,,13,110,1530064,,,,,,,2025-05-28,1,,,,,エヌジーシー,0
846,4011001169695,新規,0,2025-05-28,2025-05-28,株式会社みのり屋,,株式会社,東京都,渋谷区,神宮前６丁目２３番４号桑野ビル２階,,13,113,1500001,,,,,,,2025-05-28,1,,,,,ミノリヤ,0
847,4011001170117,新規,0,2025-05-28,2025-05-28,株式会社３６０,,株式会社,東京都,渋谷区,神泉町１０番１５号アネックス神泉３０１,,13,113,1500045,,,,,,,2025-05-28,1,,,,,サンロクゼロ,0
848,4011003021607,新規,0,2025-05-28,2025-05-28,合同会社グロース企画,,合同会社,東京都,目黒区,下目黒３丁目４番３号クライムアミィ５０１,,13,110,1530064,,,,,,,2025-05-28,1,,,,,グロースキカク,0
849,4011003021631,新規,0,2025-05-28,2025-05-28,ＴＡＯＳＣＨＩＲ合同会社,,合同会社,東京都,渋谷区,本町６丁目５番３号ＬＡＰｉＳ渋谷本町３０２,,13,113,1510071,,,,,,,2025-05-28,1,,,,,タオシェア,0
851,4011101111755,新規,0,2025-05-28,2025-05-28,株式会社Ｙ７‐Ｓ‐ＲＥＧＡＬＩＡ,,株式会社,東京都,新宿区,歌舞伎町２丁目２４番７号エコロ新宿第２ビル５０１号室,,13,104,1600021,,,,,,,2025-05-28,1,,,,,ワイセブンエスレガリア,0
852,4011101111870,新規,0,2025-05-28,2025-05-28,ＰＩＣ株式会社,,株式会社,東京都,新宿区,西新宿３丁目３番１３号西新宿水間ビル６階,,13,104,1600023,,,,,,,2025-05-28,1,,,,,ピーアイシー,0
853,4011103015938,新規,0,2025-05-28,2025-05-28,ＣＡＬＣＳ合同会社,,合同会社,東京都,新宿区,西新宿３丁目３番１３号水間ビル２Ｆ,,13,104,1600023,,,,,,,2025-05-28,1,,,,,カルクス,0
855,4011105011431,新規,0,2025-05-28,2025-05-28,一般財団法人タカハタ財団,,その他の設立登記法人,東京都,新宿区,西新宿３丁目９番１２号,,13,104,1600023,,,,,,,2025-05-28,1,,,,,タカハタザイダン,0
858,4011301030607,新規,0,2025-05-28,2025-05-28,和潤株式会社,,株式会社,東京都,杉並区,梅里１丁目２２－２６－２０６号室,,13,115,1660011,,,,,,,2025-05-28,1,,,,,ワジュン,0
861,4011303005573,新規,0,2025-05-28,2025-05-28,合同会社ケイジー・パートナーズ,,合同会社,東京都,杉並区,阿佐谷北１丁目４０番２号,,13,115,1660001,,,,,,,2025-05-28,1,,,,,ケイジーパートナーズ,0
864,4011501032130,新規,0,2025-05-28,2025-05-28,ＣＩＲＣＬＥ株式会社,,株式会社,東京都,北区,王子３丁目８番９号,,13,117,1140002,,,,,,,2025-05-28,1,,,,,,0
867,4011801046202,新規,0,2025-05-28,2025-05-28,株式会社ろじこや,,株式会社,東京都,足立区,千住旭町３６－１,,13,121,1200026,,,,,,,2025-05-28,1,,,,,ロジコヤ,0
868,4011801046210,新規,0,2025-05-28,2025-05-28,株式会社松栄建設,,株式会社,東京都,足立区,江北６丁目１９番１２号,,13,121,1230872,,,,,,,2025-05-28,1,,,,,ショウエイケンセツ,0
874,4013101009707,新規,0,2025-05-28,2025-05-28,株式会社まごサポ隊,,株式会社,東京都,あきる野市,草花３６７０－２２１,,13,228,1970802,,,,,,,2025-05-28,1,,,,,マゴサポタイ,0
879,4013301054321,新規,0,2025-05-28,2025-05-28,株式会社Ｃｕｔｔｏｂａｓｅ,,株式会社,東京都,豊島区,東池袋２丁目６２番８号ＢＩＧオフィスプラザ池袋１２０６,,13,116,1700013,,,,,,,2025-05-28,1,,,,,カットバセ,0
880,4013301054346,新規,0,2025-05-28,2025-05-28,株式会社グリードユニオン,,株式会社,東京都,豊島区,東池袋１丁目３２－６河合ビル１０階,,13,116,1700013,,,,,,,2025-05-28,1,,,,,グリードユニオン,0
881,4013303007698,新規,0,2025-05-28,2025-05-28,一予合同会社,,合同会社,東京都,豊島区,池袋４丁目１４－１１－１１３ａＬＡＴＯＩＫＥＢＵＫＵＲＯ,,13,116,1710014,,,,,,,2025-05-28,1,,,,,イチヨ,0
890,4020001163030,新規,0,2025-05-28,2025-05-28,株式会社ＹＺ,,株式会社,神奈川県,横浜市都筑区,大熊町４４番地大倉山キャッスル５０８,,14,118,2240042,,,,,,,2025-05-28,1,,,,,ワイゼット,0
891,4020001163047,新規,0,2025-05-28,2025-05-28,ＡＳＴＬＹ株式会社,,株式会社,神奈川県,横浜市港北区,小机町２６００番地１６５,,14,109,2220036,,,,,,,2025-05-28,1,,,,,アストリー,0
892,4020001163055,新規,0,2025-05-28,2025-05-28,株式会社葵テクノ,,株式会社,神奈川県,川崎市中原区,宮内１丁目２１番２５－２号,,14,133,2110051,,,,,,,2025-05-28,1,,,,,アオイテクノ,0
893,4020001163088,新規,0,2025-05-28,2025-05-28,ＫＩＮＵＳＵＮ株式会社,,株式会社,神奈川県,川崎市多摩区,菅４丁目２番３４号,,14,135,2140001,,,,,,,2025-05-28,1,,,,,キヌサン,0
895,4020003028553,新規,0,2025-05-28,2025-05-28,合同会社Ｓ‐Ｌａｂ,,合同会社,神奈川県,横浜市西区,浅間町１丁目４番３号ウィザードビル４０２,,14,103,2200072,,,,,,,2025-05-28,1,,,,,エスラボ,0
896,4021001085173,新規,0,2025-05-28,2025-05-28,株式会社ＷＩＺＯＲＡ,,株式会社,神奈川県,横須賀市,汐入町２丁目２１番地４,,14,201,2380042,,,,,,,2025-05-28,1,,,,,ウィゾラ,0
897,4021001085314,新規,0,2025-05-28,2025-05-28,株式会社ＳＥＭＥＮＥ,,株式会社,神奈川県,相模原市南区,新戸１７５２番地３,,14,153,2520326,,,,,,,2025-05-28,1,,,,,セメネ,0
898,4021001085339,新規,0,2025-05-28,2025-05-28,株式会社ＤＡＩ,,株式会社,神奈川県,高座郡寒川町,一之宮７丁目４番２－５０２号,,14,321,2530111,,,,,,,2025-05-28,1,,,,,ダイ,0
899,4021001085347,新規,0,2025-05-28,2025-05-28,株式会社ＡＫ,,株式会社,神奈川県,中郡大磯町,西久保３１２番地１,,14,341,2590104,,,,,,,2025-05-28,1,,,,,エーケー,0
900,4021003016060,新規,0,2025-05-28,2025-05-28,合同会社ナミュール,,合同会社,神奈川県,相模原市南区,南台６丁目１２番４号ＭｙＳｔｙｌｅ相模台１０４号室,,14,153,2520314,,,,,,,2025-05-28,1,,,,,ナミュール,0
902,4030001166718,新規,0,2025-05-28,2025-05-28,Ｄｅｖｉｓｅ　ｆａｒｍ株式会社,,株式会社,埼玉県,川口市,飯塚１丁目２番１６号川口ホームズ１Ｆ,,11,203,3320023,,,,,,,2025-05-28,1,,,,,デバイスファーム,0
903,4030001166734,新規,0,2025-05-28,2025-05-28,株式会社三俣建設,,株式会社,埼玉県,川口市,大字赤山６４番地の１フルール２０１号,,11,203,3330825,,,,,,,2025-05-28,1,,,,,ミツマタケンセツ,0
904,4030003026837,新規,0,2025-05-28,2025-05-28,合同会社ドースコーポレーション,,合同会社,埼玉県,草加市,西町５６２番地２,,11,221,3400035,,,,,,,2025-05-28,1,,,,,ドースコーポレーション,0
905,4030003026861,新規,0,2025-05-28,2025-05-28,合同会社メカ技研,,合同会社,埼玉県,大里郡寄居町,大字三ケ山２９９番地１８,,11,408,3691223,,,,,,,2025-05-28,1,,,,,メカギケン,0
911,4040001138939,新規,0,2025-05-28,2025-05-28,株式会社テンデュース,,株式会社,千葉県,佐倉市,王子台１丁目２２－１３海佑ビル４Ｆ,,12,212,2850837,,,,,,,2025-05-28,1,,,,,テンデュース,0
912,4040001138955,新規,0,2025-05-28,2025-05-28,結グループ株式会社,,株式会社,千葉県,我孫子市,都部７８番地の２１,,12,222,2701131,,,,,,,2025-05-28,1,,,,,ユイグループ,0
916,4040005022767,新規,0,2025-05-28,2025-05-28,一般社団法人千葉県郷友会,,その他の設立登記法人,千葉県,東金市,二又２５番地,,12,213,2830004,,,,,,,2025-05-28,1,,,,,チバケンゴウユウカイ,0
923,4050001056735,新規,0,2025-05-28,2025-05-28,野口れんこん株式会社,,株式会社,茨城県,土浦市,木田余２４７３番地１,,08,203,3000026,,,,,,,2025-05-28,1,,,,,ノグチレンコン,0
924,4050003009303,新規,0,2025-05-28,2025-05-28,合同会社日立ホテルマネジメント,,合同会社,茨城県,日立市,旭町２丁目６番１３号,,08,202,3170074,,,,,,,2025-05-28,1,,,,,ヒタチホテルマネジメント,0
930,4080401027936,新規,0,2025-05-28,2025-05-28,株式会社ＡＧＯ,,株式会社,静岡県,浜松市中央区,三幸町１２０番地の２,,22,138,4338101,,,,,,,2025-05-28,1,,,,,エージーオー,0
934,4090001019291,新規,0,2025-05-28,2025-05-28,株式会社ｔｓｕ　ｍｕ　ｇｕ,,株式会社,山梨県,甲斐市,西八幡４４８３番地３,,19,210,4000117,,,,,,,2025-05-28,1,,,,,ツムグ,0
935,4100001038637,新規,0,2025-05-28,2025-05-28,株式会社ルーツ,,株式会社,長野県,上田市,真田町本原１９６７番地１０,,20,203,3862202,,,,,,,2025-05-28,1,,,,,ルーツ,0
936,4100001038645,新規,0,2025-05-28,2025-05-28,飯島ホールディングス株式会社,,株式会社,長野県,長野市,若里６丁目３番２２号,,20,201,3800928,,,,,,,2025-05-28,1,,,,,イイジマホールディングス,0
940,4100003008183,新規,0,2025-05-28,2025-05-28,ＳＫＹ合同会社,,合同会社,長野県,飯田市,上郷黒田４１００番地２０,,20,205,3950004,,,,,,,2025-05-28,1,,,,,スカイ,0
945,4120001276053,新規,0,2025-05-28,2025-05-28,山川商事株式会社,,株式会社,大阪府,大阪市東淀川区,大桐４丁目２番５９－３０２号,,27,114,5330011,,,,,,,2025-05-28,1,,,,,ヤマガワショウジ,0
946,4120001276152,新規,0,2025-05-28,2025-05-28,安能株式会社,,株式会社,大阪府,大阪市城東区,東中浜３丁目２番２３－２０１号,,27,118,5360023,,,,,,,2025-05-28,1,,,,,アンノウ,0
947,4120001276193,新規,0,2025-05-28,2025-05-28,株式会社富士陽,,株式会社,大阪府,大阪市中央区,内平野町２丁目３番１－３０７号,,27,128,5400037,,,,,,,2025-05-28,1,,,,,フジヨウ,0
948,4120001276202,新規,0,2025-05-28,2025-05-28,株式会社ＫＡＩＳＥＲ,,株式会社,大阪府,大阪市中央区,南久宝寺町４丁目５番１５号ニューライフ御堂筋本町１１０８号,,27,128,5410058,,,,,,,2025-05-28,1,,,,,カイザー,0
949,4120001276219,新規,0,2025-05-28,2025-05-28,株式会社アンティマネジメント,,株式会社,大阪府,大阪市北区,天神橋４丁目８番１２号アークビルディング３Ｆ,,27,127,5300041,,,,,,,2025-05-28,1,,,,,アンティマネジメント,0
950,4120001276243,新規,0,2025-05-28,2025-05-28,株式会社まろん,,株式会社,大阪府,大阪市浪速区,敷津西１丁目５番２０号ラフィナート７０４号,,27,111,5560015,,,,,,,2025-05-28,1,,,,,マロン,0
951,4120003029574,新規,0,2025-05-28,2025-05-28,ｓｍｉｌｅ　ａｒｃｈ合同会社,,合同会社,大阪府,大阪市北区,梅田２丁目５番１３号桜橋第一ビル３０４号,,27,127,5300001,,,,,,,2025-05-28,1,,,,,スマイルアーチ,0
954,4120101071759,新規,0,2025-05-28,2025-05-28,寝具＆レンタルマスモト株式会社,,株式会社,大阪府,堺市堺区,北三国ヶ丘町７丁４番１６号,,27,141,5900021,,,,,,,2025-05-28,1,,,,,シングアンドレンタルマスモト,0
963,4122001039258,新規,0,2025-05-28,2025-05-28,サンコートランスポート株式会社,,株式会社,大阪府,東大阪市,新庄４丁目１２番２４号,,27,227,5780963,,,,,,,2025-05-28,1,,,,,サンコートランスポート,0
964,4122001039282,新規,0,2025-05-28,2025-05-28,株式会社五光モータース,,株式会社,大阪府,東大阪市,柏田本町１５番２４号,,27,227,5770834,,,,,,,2025-05-28,1,,,,,ゴコウモータース,0
971,4130001079752,新規,0,2025-05-28,2025-05-28,株式会社Ｇｏｖｅｒｎ,,株式会社,京都府,京都市南区,東九条南山王町２９番地,,26,107,6018011,,,,,,,2025-05-28,1,,,,,ガヴァン,0
972,4130001079769,新規,0,2025-05-28,2025-05-28,株式会社西陣アート織製作所,,株式会社,京都府,京都市上京区,一観音町４２８番地とみやビルディング,,26,102,6028335,,,,,,,2025-05-28,1,,,,,ニシジンアートオリセイサクショ,0
977,4140001138689,新規,0,2025-05-28,2025-05-28,株式会社咲花,,株式会社,兵庫県,神戸市須磨区,外浜町２丁目８番１４号,,28,107,6540043,,,,,,,2025-05-28,1,,,,,サキハナ,0
978,4140001138697,新規,0,2025-05-28,2025-05-28,株式会社Ｌｉｌｙ,,株式会社,兵庫県,西宮市,仁川町６丁目８番９号,,28,204,6620811,,,,,,,2025-05-28,1,,,,,リリー,0
979,4140001138706,新規,0,2025-05-28,2025-05-28,株式会社ｉｎｔｅｒｒｅｔｅ,,株式会社,兵庫県,高砂市,曽根町２８３３番地の２５,,28,216,6760082,,,,,,,2025-05-28,1,,,,,インテレーテ,0
980,4140001138714,新規,0,2025-05-28,2025-05-28,株式会社サンリョウ,,株式会社,兵庫県,尼崎市,南七松町１丁目１４番９号,,28,202,6600053,,,,,,,2025-05-28,1,,,,,サンリョウ,0
981,4140001138730,新規,0,2025-05-28,2025-05-28,株式会社やすらぎのもり,,株式会社,兵庫県,神戸市中央区,磯辺通１丁目１番１８号カサベラ国際プラザビル７０７号室,,28,110,6510084,,,,,,,2025-05-28,1,,,,,ヤスラギノモリ,0
983,4140003022107,新規,0,2025-05-28,2025-05-28,合同会社みらいスタジオ,,合同会社,兵庫県,芦屋市,大東町１５番３－５号,,28,206,6590023,,,,,,,2025-05-28,1,,,,,,0
984,4140003022115,新規,0,2025-05-28,2025-05-28,洲本あかりの別邸合同会社,,合同会社,兵庫県,洲本市,前平６７番地,,28,205,6560044,,,,,,,2025-05-28,1,,,,,スモトアカリノベッテイ,0
991,4160001026776,新規,0,2025-05-28,2025-05-28,株式会社ゴリラホーム,,株式会社,滋賀県,大津市,鏡が浜４番１－１００４号,,25,201,5200012,,,,,,,2025-05-28,1,,,,,ゴリラホーム,0
996,4180001166942,新規,0,2025-05-28,2025-05-28,ハウストーン株式会社,,株式会社,愛知県,海部郡飛島村,竹之郷２丁目９０番地,,23,427,4901436,,,,,,,2025-05-28,1,,,,,ハウストーン,0
997,4180001166950,新規,0,2025-05-28,2025-05-28,株式会社ＦＢコンサルタンツ,,株式会社,愛知県,名古屋市中区,金山１丁目６番２号ＦＩビル４階,,23,106,4600022,,,,,,,2025-05-28,1,,,,,エフビーコンサルタンツ,0
998,4180001166975,新規,0,2025-05-28,2025-05-28,株式会社エイドワークス,,株式会社,愛知県,尾張旭市,城前町４丁目１番地１６,,23,226,4880867,,,,,,,2025-05-28,1,,,,,エイドワークス,0
999,4180001166991,新規,0,2025-05-28,2025-05-28,株式会社アクア・マリン,,株式会社,愛知県,名古屋市港区,秋葉２丁目１０６番地の１,,23,111,4550857,,,,,,,2025-05-28,1,,,,,アクアマリン,0
1000,4180001167008,新規,0,2025-05-28,2025-05-28,エフ・ケー・ケー株式会社,,株式会社,愛知県,春日井市,高森台４丁目４番地４１,,23,206,4870032,,,,,,,2025-05-28,1,,,,,エフケーケー,0
1004,4190001032251,新規,0,2025-05-28,2025-05-28,ユイ株式会社,,株式会社,三重県,桑名市,大字大福６８０番地１,,24,205,5110834,,,,,,,2025-05-28,1,,,,,ユイ,0
1008,4200001043825,新規,0,2025-05-28,2025-05-28,株式会社中田測量,,株式会社,岐阜県,郡上市,高鷲町大鷲２３５２番地１,,21,219,5015303,,,,,,,2025-05-28,1,,,,,ナカダソクリョウ,0
1009,4200001043833,新規,0,2025-05-28,2025-05-28,不動産マネジメント株式会社,,株式会社,岐阜県,岐阜市,長良西野前４番地１０,,21,201,5020067,,,,,,,2025-05-28,1,,,,,フドウサンマネジメント,0
1011,4220001026638,新規,0,2025-05-28,2025-05-28,Ａｍａｚｉｎｇ　Ｔｏｕｒ　Ｊａｐａｎ株式会社,,株式会社,石川県,金沢市,久安２丁目４９３,,17,201,9218164,,,,,,,2025-05-28,1,,,,,アメイジングツアージャパン,0
1013,4230005009480,新規,0,2025-05-28,2025-05-28,一般社団法人創八尾,,その他の設立登記法人,富山県,富山市,八尾町西町２３５０番地,,16,201,9392355,,,,,,,2025-05-28,1,,,,,ツクルヤツオ,0
1018,4250001021165,新規,0,2025-05-28,2025-05-28,株式会社伍,,株式会社,山口県,下関市,伊倉町２丁目７番１３号Ｒ,,35,201,7510864,,,,,,,2025-05-28,1,,,,,タスク,0
1019,4260001040214,新規,0,2025-05-28,2025-05-28,株式会社Ａｕｔｏ　Ａｉｄ,,株式会社,岡山県,岡山市北区,惣爪７０２番地１,,33,101,7011343,,,,,,,2025-05-28,1,,,,,オートエイド,0
1022,4280001009430,新規,0,2025-05-28,2025-05-28,株式会社ＣＫ,,株式会社,島根県,松江市,大輪町１６７番地２２,,32,201,6900882,,,,,,,2025-05-28,1,,,,,シーケー,0
1032,4290001110138,新規,0,2025-05-28,2025-05-28,ＮＯＲＩＳ株式会社,,株式会社,福岡県,福岡市中央区,大手門３丁目１０番１０－２０１号大手門パークファミリア,,40,133,8100074,,,,,,,2025-05-28,1,,,,,ノリス,0
1035,4290801031566,新規,0,2025-05-28,2025-05-28,株式会社Ｂ‐ｐｌｕｓ‐ｐａｔｉｅｎｔ,,株式会社,福岡県,豊前市,大字薬師寺７９番地１,,40,214,8280056,,,,,,,2025-05-28,1,,,,,ビープラスペイシェント,0
1038,4310001019616,新規,0,2025-05-28,2025-05-28,株式会社ＡＧＲＯＷＴＨ,,株式会社,長崎県,諫早市,森山町田尻７８９番地第２,,42,204,8540204,,,,,,,2025-05-28,1,,,,,グロー,0
1039,4320001021117,新規,0,2025-05-28,2025-05-28,愛和アセットマネジメント株式会社,,株式会社,大分県,中津市,大字宮夫１４８番地２３,,44,203,8710012,,,,,,,2025-05-28,1,,,,,アイワアセットマネジメント,0
1041,4350001019554,新規,0,2025-05-28,2025-05-28,Ｉ・Ｍ・Ｓ株式会社,,株式会社,宮崎県,宮崎市,曽師町２７番地,,45,201,8800875,,,,,,,2025-05-28,1,,,,,アイエムエス,0
1046,4360003014965,新規,0,2025-05-28,2025-05-28,ＮＯＢＵ　ＪＡＰＡＮ合同会社,,合同会社,沖縄県,浦添市,港川２丁目８番５－２０５号,,47,208,9012134,,,,,,,2025-05-28,1,,,,,ノブジャパン,0
1058,4400003003468,新規,0,2025-05-28,2025-05-28,合同会社ワクドキ,,合同会社,岩手県,盛岡市,黒石野１丁目３８番５号,,03,201,0200111,,,,,,,2025-05-28,1,,,,,ワクドキ,0
1067,4430001094498,新規,0,2025-05-28,2025-05-28,株式会社晴,,株式会社,北海道,札幌市西区,琴似二条１丁目３番３号,,01,107,0630812,,,,,,,2025-05-28,1,,,,,ハレ,0
1068,4430001094507,新規,0,2025-05-28,2025-05-28,株式会社パーム,,株式会社,北海道,北広島市,西の里東２丁目２番地１５,,01,234,0611105,,,,,,,2025-05-28,1,,,,,パーム,0
1069,4430001094515,新規,0,2025-05-28,2025-05-28,株式会社ＣＡＩＣＡ,,株式会社,北海道,札幌市南区,藤野二条８丁目１７番１４号,,01,106,0612282,,,,,,,2025-05-28,1,,,,,カイカ,0
1070,4430001094523,新規,0,2025-05-28,2025-05-28,株式会社ＦＤＧ,,株式会社,北海道,虻田郡倶知安町,字大和７０２－１,,01,400,0440061,,,,,,,2025-05-28,1,,,,,エフディージー,0
1075,4430003017705,新規,0,2025-05-28,2025-05-28,合同会社中華土間,,合同会社,北海道,札幌市中央区,南一条西５丁目１６プレジデント松井ビル１００地下１階,,01,101,0600061,,,,,,,2025-05-28,1,,,,,チュウカドマ,0
1080,4500001026304,新規,0,2025-05-28,2025-05-28,株式会社関谷,,株式会社,愛媛県,松山市,泉町２１番地６,,38,201,7900025,,,,,,,2025-05-28,1,,,,,セキヤ,0
1081,4500001026312,新規,0,2025-05-28,2025-05-28,株式会社肉文,,株式会社,愛媛県,四国中央市,金生町下分３２８番地,,38,213,7990111,,,,,,,2025-05-28,1,,,,,ニクブン,0
1082,4700150099824,新規,0,2025-05-28,2020-07-16,郡上森林マネジメント協議会,,その他,岐阜県,郡上市,八幡町稲成５２５－７,,21,219,5014223,,,,,,,2020-07-16,1,,,,,グジヨウシンリンマネジメントキヨウギカイ,0
1083,4700150115192,新規,0,2025-05-28,2023-04-07,ライオンズステージ荻窪レジデンス管理組合,,その他,東京都,杉並区,南荻窪１丁目４２番８号,,13,115,1670052,,,,,,,2023-04-07,1,,,,,ライオンズステージオギクボレジデンスカンリクミアイ,0
1084,4700150130761,新規,0,2025-05-28,2025-05-28,ＫＡＮＤＹ　ＥＮＴＥＲＰＲＩＳＥＳ,,外国会社等,神奈川県,厚木市,関口９２９－１２アクティブ石川―２０５,,14,212,2430804,スリランカ民主社会主義共和国、ＮＯ．６７９／Ｃ、マタレロード、ニーラレ、アクラナ、キャンディ,,,,,,2025-05-28,1,,,,,キヤンデイエンタープライセス,0
1088,5010001255298,新規,0,2025-05-28,2025-05-28,ＨｉｇｈＮｏｖａ　Ｓｏｌｕｔｉｏｎｓ株式会社,,株式会社,東京都,中央区,晴海３丁目１３－１ＤＥＵＸＴＯＵＲＳ４７１９号,,13,102,1040053,,,,,,,2025-05-28,1,,,,,ハイノーバソリューションズ,0
1089,5010001255315,新規,0,2025-05-28,2025-05-28,Ｔｒｉｍｏｒａ株式会社,,株式会社,東京都,中央区,銀座１丁目２２－１１銀座大竹ビジデンス２階,,13,102,1040061,,,,,,,2025-05-28,1,,,,,トリモラ,0
1090,5010001255348,新規,0,2025-05-28,2025-05-28,株式会社リクスム,,株式会社,東京都,中央区,日本橋３丁目７番７号日本橋アーバンビルヂング４Ｆ,,13,102,1030027,,,,,,,2025-05-28,1,,,,,リクスム,0
1091,5010001255356,新規,0,2025-05-28,2025-05-28,株式会社ＫＯＧＵＭＡ　ＯＦＦＩＣＥ,,株式会社,東京都,文京区,本郷１丁目３３番４号ＵＰＢＡＳＥＳＵＩＤＯＢＡＳＨＩ２０６,,13,105,1130033,,,,,,,2025-05-28,1,,,,,コグマオフィス,0
1092,5010001255372,新規,0,2025-05-28,2025-05-28,株式会社エンティーク,,株式会社,東京都,中央区,銀座１丁目２２番１１号銀座大竹ビジデンス２Ｆ,,13,102,1040061,,,,,,,2025-05-28,1,,,,,エンティーク,0
1093,5010001255406,新規,0,2025-05-28,2025-05-28,ＧＡＮＩＭＥＤＥＳＩＧＮ株式会社,,株式会社,東京都,中央区,東日本橋３丁目３番１７号,,13,102,1030004,,,,,,,2025-05-28,1,,,,,ガニメデザイン,0
1094,5010001255422,新規,0,2025-05-28,2025-05-28,ハーズヘルステクノロジーズ株式会社,,株式会社,東京都,千代田区,神田須田町２丁目３番地１２・１２ＫＡＮＤＡ,,13,101,1010041,,,,,,,2025-05-28,1,,,,,ハーズヘルステクノロジーズ,0
1095,5010001255455,新規,0,2025-05-28,2025-05-28,スターツキャリアマネジメント株式会社,,株式会社,東京都,中央区,日本橋３丁目１番８号,,13,102,1030027,,,,,,,2025-05-28,1,,,,,スターツキャリアマネジメント,0
1100,5010003047347,新規,0,2025-05-28,2025-05-28,心腸ｌａｂｏ合同会社,,合同会社,東京都,中央区,銀座１丁目１２番４号Ｎ＆Ｅ－ＢＬＤ－６Ｆ,,13,102,1040061,,,,,,,2025-05-28,1,,,,,シンチョウラボ,0
1101,5010003047462,新規,0,2025-05-28,2025-05-28,Ｔｅｋｉｎｉｋａ合同会社,,合同会社,東京都,中央区,月島３丁目２０番８－８０３号,,13,102,1040052,,,,,,,2025-05-28,1,,,,,テキニカ,0
1102,5010005040077,新規,0,2025-05-28,2025-05-28,一般社団法人再生医療評価機構,,その他の設立登記法人,東京都,千代田区,外神田４丁目１４番１号ＵＤＸビル６階,,13,101,1010021,,,,,,,2025-05-28,1,,,,,サイセイイリョウヒョウカキコウ,0
1103,5010005040085,新規,0,2025-05-28,2025-05-28,一般社団法人日本資源開発機構,,その他の設立登記法人,東京都,中央区,八丁堀２丁目３０番地１５号東海ビル３階,,13,102,1040032,,,,,,,2025-05-28,1,,,,,ニホンシゲンカイハツキコウ,0
1104,5010005040093,新規,0,2025-05-28,2025-05-28,ＳＩロジスティクスＩＩ一般社団法人,,その他の設立登記法人,東京都,千代田区,内神田１丁目３番７号４０１あすな会計事務所内,,13,101,1010047,,,,,,,2025-05-28,1,,,,,エスアイロジスティクスツー,0
1105,5010101016690,新規,0,2025-05-28,2025-05-28,ＲＩＳＩＮＧ　ｅｘｃｅｅｄ株式会社,,株式会社,東京都,八王子市,上川町３５１５番地,,13,201,1920151,,,,,,,2025-05-28,1,,,,,ライジングエクシード,0
1107,5010401190558,新規,0,2025-05-28,2025-05-28,株式会社ヒトと犬の健康工房,,株式会社,東京都,港区,南青山２丁目２番１５号ウィン青山９４２,,13,103,1070062,,,,,,,2025-05-28,1,,,,,ヒトトイヌノケンコウコウボウ,0
1108,5010401190590,新規,0,2025-05-28,2025-05-28,株式会社ｌｉｍ,,株式会社,東京都,港区,南青山７丁目１番５号＆ＣＡＬＭｍｉｎａｍｉａｏｙａｍａ１０３,,13,103,1070062,,,,,,,2025-05-28,1,,,,,リム,0
1109,5010401190599,新規,0,2025-05-28,2025-05-28,株式会社ＧＲＡＳＳＹ,,株式会社,東京都,港区,南青山４丁目１１番３号,,13,103,1070062,,,,,,,2025-05-28,1,,,,,グラッシー,0
1113,5010403035199,新規,0,2025-05-28,2025-05-28,ＮＥＸ合同会社,,合同会社,東京都,港区,新橋４丁目１４番１新橋ＡＵＮＢＬＤＧ４階,,13,103,1050004,,,,,,,2025-05-28,1,,,,,ネクス,0
1114,5010403035216,新規,0,2025-05-28,2025-05-28,合同会社ｕｎｌｉｍｉｔｅｄ,,合同会社,東京都,港区,北青山１丁目３番１号アールキューブ青山３階,,13,103,1070061,,,,,,,2025-05-28,1,,,,,アンリミテッド,0
1115,5010403035224,新規,0,2025-05-28,2025-05-28,ケダスミサ合同会社,,合同会社,東京都,港区,麻布台３丁目４番７号５０５,,13,103,1060041,,,,,,,2025-05-28,1,,,,,ケダスミサ,0
1117,5010501054126,新規,0,2025-05-28,2025-05-28,ＨＲＡ株式会社,,株式会社,東京都,台東区,台東４丁目２９番１０号さたけ第二ビル６０１,,13,106,1100016,,,,,,,2025-05-28,1,,,,,エイチアールエー,0
1123,5010703007732,新規,0,2025-05-28,2025-05-28,Ｊａｐａｎ　Ｔｏｕｒ合同会社,,合同会社,東京都,品川区,西大井２丁目１６－１４ラティエラ品川西大井１１４号室,,13,109,1400015,,,,,,,2025-05-28,1,,,,,ジャパンツアー,0
1124,5010801036187,新規,0,2025-05-28,2025-05-28,ＭＯＹＡＮＴＡＮＧ株式会社,,株式会社,東京都,大田区,大森北３丁目４番４号ＫＴ大森北ビル４階,,13,111,1430016,,,,,,,2025-05-28,1,,,,,モウイエンタアン,0
1125,5010801036195,新規,0,2025-05-28,2025-05-28,株式会社Ｈａｒａｒｉ,,株式会社,東京都,大田区,大森東２丁目３０番２０号グラース・エス・ケイ・トロワ１０１,,13,111,1430012,,,,,,,2025-05-28,1,,,,,,0
1130,5010901057430,新規,0,2025-05-28,2025-05-28,株式会社ホウンガイア,,株式会社,東京都,世田谷区,宇奈根３丁目１１番１０号,,13,112,1570068,,,,,,,2025-05-28,1,,,,,ホウンガイア,0
1131,5010903009958,新規,0,2025-05-28,2025-05-28,合同会社システム管理,,合同会社,東京都,世田谷区,池尻２丁目３７番３－４０６号,,13,112,1540001,,,,,,,2025-05-28,1,,,,,システムカンリ,0
1138,5011001169595,新規,0,2025-05-28,2025-05-28,株式会社Ｒｉｓｅ,,株式会社,東京都,渋谷区,恵比寿西２丁目８番４号ＥＸ恵比寿西ビル５階,,13,113,1500021,,,,,,,2025-05-28,1,,,,,ライズ,0
1139,5011001169604,新規,0,2025-05-28,2025-05-28,株式会社ＬＵＭＯＲＡ,,株式会社,東京都,渋谷区,桜丘町３１－１４岡三桜丘ビルＳＬＡＣＫＳＨＩＢＵＹＡ７０２,,13,113,1500031,,,,,,,2025-05-28,1,,,,,ルモラ,0
1140,5011001169645,新規,0,2025-05-28,2025-05-28,株式会社Ａｌｒｉｓ,,株式会社,東京都,渋谷区,広尾３丁目４番１８号ビバリーホームズ広尾５０２,,13,113,1500012,,,,,,,2025-05-28,1,,,,,エーアイリス,0
1142,5011003021589,新規,0,2025-05-28,2025-05-28,合同会社ＳＵＰＥＲＴＡＫＵＴＯ,,合同会社,東京都,渋谷区,円山町５番３号ＭＩＥＵＸ渋谷ビル８階,,13,113,1500044,,,,,,,2025-05-28,1,,,,,スーパータクト,0
1146,5011301030606,新規,0,2025-05-28,2025-05-28,株式会社ｈａｉｒｌｌ,,株式会社,東京都,杉並区,高円寺南４丁目５番７号,,13,115,1660003,,,,,,,2025-05-28,1,,,,,ヘアル,0
1153,5011802016970,新規,0,2025-05-28,2025-05-28,有限会社任天工学,,有限会社,東京都,足立区,千住橋戸町３５番地,,13,121,1200038,,,,,,,2025-05-28,1,,,,,ニンテンコウガク,0
1157,5012401043150,新規,0,2025-05-28,2025-05-28,株式会社ジーエルエー,,株式会社,東京都,調布市,上石原２丁目３番地３５,,13,208,1820035,,,,,,,2025-05-28,1,,,,,ジーエルエー,0
1159,5012803003751,新規,0,2025-05-28,2025-05-28,合同会社ＩＴＯ,,合同会社,東京都,国分寺市,本町２丁目７番２号ハウスアメニティ９９－８０５号室,,13,214,1850012,,,,,,,2025-05-28,1,,,,,アイティーオー,0
1161,5013101009697,新規,0,2025-05-28,2025-05-28,はる株式会社,,株式会社,東京都,福生市,大字福生１０４３番地１キョーワパレス２０１号室,,13,218,1970011,,,,,,,2025-05-28,1,,,,,ハル,0
1163,5013301054320,新規,0,2025-05-28,2025-05-28,百香株式会社,,株式会社,東京都,豊島区,東池袋１丁目３３番４－４０４号,,13,116,1700013,,,,,,,2025-05-28,1,,,,,モモカ,0
1164,5013303007689,新規,0,2025-05-28,2025-05-28,合同会社ＯＲＵＴＯ,,合同会社,東京都,豊島区,北大塚３丁目２１番１３－７０２号,,13,116,1700004,,,,,,,2025-05-28,1,,,,,オルト,0
1165,5013303007697,新規,0,2025-05-28,2025-05-28,原陽祐合同会社,,合同会社,東京都,豊島区,東池袋２丁目６２番８号ＢＩＧオフィスプラザ池袋１２０６,,13,116,1700013,,,,,,,2025-05-28,1,,,,,ハラヨウスケ,0
1169,5020001163054,新規,0,2025-05-28,2025-05-28,株式会社フルハウス,,株式会社,神奈川県,川崎市中原区,北谷町３４番地１アドバンスメゾンＫ２０３,,14,133,2110015,,,,,,,2025-05-28,1,,,,,フルハウス,0
1170,5020001163062,新規,0,2025-05-28,2025-05-28,株式会社森井電設,,株式会社,神奈川県,横浜市緑区,東本郷４丁目１１番９号,,14,113,2260002,,,,,,,2025-05-28,1,,,,,モリイデンセツ,0
1171,5020001163087,新規,0,2025-05-28,2025-05-28,株式会社ＹＳ興建,,株式会社,神奈川県,川崎市高津区,新作２丁目１５番３－１号,,14,134,2130014,,,,,,,2025-05-28,1,,,,,ワイエスコウケン,0
1179,5021001085230,新規,0,2025-05-28,2025-05-28,株式会社とらいエンターテイメント,,株式会社,神奈川県,相模原市緑区,橋本３丁目１９－２１ハピニスライフＣ－５,,14,151,2520143,,,,,,,2025-05-28,1,,,,,トライエンターテイメント,0
1180,5021001085346,新規,0,2025-05-28,2025-05-28,株式会社ＩＧＳ,,株式会社,神奈川県,足柄下郡湯河原町,中央３丁目２番地６,,14,384,2590301,,,,,,,2025-05-28,1,,,,,アイジーエス,0
1181,5021001085354,新規,0,2025-05-28,2025-05-28,株式会社ジェネラリストジャパン,,株式会社,神奈川県,相模原市南区,御園５丁目１４番３２－７号,,14,153,2520317,,,,,,,2025-05-28,1,,,,,ジェネラリストジャパン,0
1182,5021003016068,新規,0,2025-05-28,2025-05-28,ガパパワークス合同会社,,合同会社,神奈川県,茅ヶ崎市,新栄町７番５号ＣｈｉｇａｓａｋｉＢｉｚ－ｎａｚ３Ｆ,,14,207,2530044,,,,,,,2025-05-28,1,,,,,ガパパワークス,0
1186,5030001166683,新規,0,2025-05-28,2025-05-28,株式会社Ａ．Ｋ　Ｃｏｍｐａｎｙ,,株式会社,埼玉県,川口市,大字辻９２８番地の６,00139325,11,203,3340004,,,,,,,2025-05-28,1,,,,,エーケーカンパニー,0
1187,5030001166709,新規,0,2025-05-28,2025-05-28,株式会社メイクネクスト,,株式会社,埼玉県,朝霞市,岡３丁目２９番２号,,11,227,3510007,,,,,,,2025-05-28,1,,,,,メイクネクスト,0
1188,5030003026836,新規,0,2025-05-28,2025-05-28,プロビンティア合同会社,,合同会社,埼玉県,所沢市,松が丘２丁目５３番地の３８,,11,208,3591132,,,,,,,2025-05-28,1,,,,,プロビンティア,0
1189,5030003026869,新規,0,2025-05-28,2025-05-28,トーンアップ合同会社,,合同会社,埼玉県,さいたま市桜区,中島３丁目３－１４－２,,11,106,3380822,,,,,,,2025-05-28,1,,,,,トーンアップ,0
1190,5040001138938,新規,0,2025-05-28,2025-05-28,株式会社カイゼンジャパン,,株式会社,千葉県,茂原市,東部台１丁目１８番地７,,12,210,2970015,,,,,,,2025-05-28,1,,,,,カイゼンジャパン,0
1191,5040001138946,新規,0,2025-05-28,2025-05-28,株式会社トリプルウィン,,株式会社,千葉県,千葉市花見川区,検見川町１丁目５２１番地,,12,102,2620023,,,,,,,2025-05-28,1,,,,,トリプルウィン,0
1194,5040003027692,新規,0,2025-05-28,2025-05-28,合同会社ＤＭ３５号,,合同会社,千葉県,柏市,柏４丁目５番１０号,,12,217,2770005,,,,,,,2025-05-28,1,,,,,ディーエムサンジュウゴゴウ,0
1198,5050003009302,新規,0,2025-05-28,2025-05-28,合同会社ティーエムオーラボラトリー,,合同会社,茨城県,つくば市,千現２丁目１番６,,08,220,3050047,,,,,,,2025-05-28,1,,,,,ティーエムオーラボラトリー,0
1200,5060001038236,新規,0,2025-05-28,2025-05-28,株式会社ＴＫＣ,,株式会社,栃木県,那須塩原市,鍋掛１０８４番地１９８,,09,213,3250013,,,,,,,2025-05-28,1,,,,,ティーケーシー,0
1202,5060003005572,新規,0,2025-05-28,2025-05-28,合同会社バシリ,,合同会社,栃木県,宇都宮市,西の宮２丁目１３番１５号,,09,201,3200064,,,,,,,2025-05-28,1,,,,,バシリ,0
1210,5080103003334,新規,0,2025-05-28,2025-05-28,合同会社プラスワン,,合同会社,静岡県,富士市,岩淵３６９番地の９,,22,210,4213305,,,,,,,2025-05-28,1,,,,,プラスワン,0
1214,5080401027935,新規,0,2025-05-28,2025-05-28,株式会社銘示,,株式会社,静岡県,浜松市中央区,市野町９０８番地の２,,22,138,4350051,,,,,,,2025-05-28,1,,,,,シルシ,0
1218,5100001038644,新規,0,2025-05-28,2025-05-28,株式会社ＤＴＡＫ,,株式会社,長野県,長野市,若里６丁目３番２２号,,20,201,3800928,,,,,,,2025-05-28,1,,,,,ディータック,0
1220,5100003008174,新規,0,2025-05-28,2025-05-28,ＧＯＮＴＡ合同会社,,合同会社,長野県,安曇野市,三郷明盛２３９３番地５,,20,220,3998101,,,,,,,2025-05-28,1,,,,,ゴンタ,0
1221,5100003008182,新規,0,2025-05-28,2025-05-28,ＦＲＯＭ　ＳＨＩＮＳＨＵ合同会社,,合同会社,長野県,松本市,庄内１丁目５番１号,,20,202,3900828,,,,,,,2025-05-28,1,,,,,フロムシンシュウ,0
1225,5110003005773,新規,0,2025-05-28,2025-05-28,合同会社いの也,,合同会社,新潟県,長岡市,左近３丁目１５番地山口ビル１階中央,,15,202,9401161,,,,,,,2025-05-28,1,,,,,イノヤ,0
1233,5120001276176,新規,0,2025-05-28,2025-05-28,株式会社バリョサービス研究所,,株式会社,大阪府,大阪市浪速区,元町３丁目３番４号２Ｆ,,27,111,5560016,,,,,,,2025-05-28,1,,,,,バリョサービスケンキュウジョ,0
1234,5120001276192,新規,0,2025-05-28,2025-05-28,株式会社プロテック,,株式会社,大阪府,枚方市,東中振２丁目１８０２番地の１３,,27,210,5730093,,,,,,,2025-05-28,1,,,,,プロテック,0
1235,5120001276201,新規,0,2025-05-28,2025-05-28,株式会社ＲＥエナジー,,株式会社,大阪府,大阪市中央区,南久宝寺町４丁目５番１５号ニューライフ御堂筋本町１１０８号,,27,128,5410058,,,,,,,2025-05-28,1,,,,,アールイーエナジー,0
1236,5120001276218,新規,0,2025-05-28,2025-05-28,株式会社寿,,株式会社,大阪府,大阪市中央区,十二軒町１－１－３１１,,27,128,5400015,,,,,,,2025-05-28,1,,,,,コトブキ,0
1237,5120001276242,新規,0,2025-05-28,2025-05-28,ＲＭＣ株式会社,,株式会社,大阪府,大阪市北区,中津１丁目１８番１８号若杉ビル８０５号室,,27,127,5310071,,,,,,,2025-05-28,1,,,,,アールエムシー,0
1238,5120001276283,新規,0,2025-05-28,2025-05-28,Ｇｒｏｗｔｈ　ｃｏｒｐｏｒａｔｉｏｎ株式会社,,株式会社,大阪府,大阪市西区,南堀江３丁目１６番２１－４０９号,,27,106,5500015,,,,,,,2025-05-28,1,,,,,グロースコーポレーション,0
1240,5120003029499,新規,0,2025-05-28,2025-05-28,合同会社ルミナス,,合同会社,大阪府,大阪市旭区,高殿６丁目１番２３号ポスト関目１０２号室,,27,117,5350031,,,,,,,2025-05-28,1,,,,,ルミナス,0
1242,5120101071733,新規,0,2025-05-28,2025-05-28,株式会社ＲＯＹＬ,,株式会社,大阪府,堺市美原区,阿弥９番地３,,27,147,5870003,,,,,,,2025-05-28,1,,,,,ロイル,0
1244,5120905006736,新規,0,2025-05-28,2025-05-28,ＮＰＯ法人ふらっとサポートとよなか,,その他の設立登記法人,大阪府,豊中市,寺内２丁目１３番２５号,,27,203,5610872,,,,,,,2025-05-28,1,,,,,フラットサポートトヨナカ,0
1245,5122003003211,新規,0,2025-05-28,2025-05-28,みんなと合同会社,,合同会社,大阪府,柏原市,旭ケ丘２丁目４番６１号,,27,221,5820026,,,,,,,2025-05-28,1,,,,,ミンナト,0
1246,5130001079743,新規,0,2025-05-28,2025-05-28,イースト株式会社,,株式会社,京都府,京都市右京区,西院松井町６番地,,26,108,6150013,,,,,,,2025-05-28,1,,,,,イースト,0
1247,5130001079751,新規,0,2025-05-28,2025-05-28,株式会社音熊,,株式会社,京都府,京都市北区,上賀茂菖蒲園町３４番地,,26,101,6038064,,,,,,,2025-05-28,1,,,,,オトクマ,0
1255,5140001138688,新規,0,2025-05-28,2025-05-28,株式会社彩り,,株式会社,兵庫県,たつの市,神岡町大住寺１０３４番地１８,,28,229,6794108,,,,,,,2025-05-28,1,,,,,イロドリ,0
1256,5140001138696,新規,0,2025-05-28,2025-05-28,株式会社後光,,株式会社,兵庫県,加古郡稲美町,中村１８３１番地の５,,28,381,6751122,,,,,,,2025-05-28,1,,,,,ゴコウ,0
1257,5140001138705,新規,0,2025-05-28,2025-05-28,株式会社畠井工務店,,株式会社,兵庫県,丹波篠山市,今田町本荘４５８番２,,28,221,6692163,,,,,,,2025-05-28,1,,,,,ハタイコウムテン,0
1258,5140001138746,新規,0,2025-05-28,2025-05-28,ＤＡＳＨ株式会社,,株式会社,兵庫県,神戸市西区,岩岡町岩岡３００５番地,,28,111,6512401,,,,,,,2025-05-28,1,,,,,ダッシュ,0
1262,5140003022106,新規,0,2025-05-28,2025-05-28,ＳＨＥＲＭＡＮ’Ｓ　ＧＡＬＬＥＲＩＥＳ　ＪＡＰＡＮ合同会社,,合同会社,兵庫県,洲本市,上加茂５５４番地１１,,28,205,6560015,,,,,,,2025-05-28,1,,,,,シャーマンズギャラリーズジャパン,0
1263,5140003022114,新規,0,2025-05-28,2025-05-28,合同会社ＫＳ‐Ｌｉｎｋ,,合同会社,兵庫県,神戸市長田区,西代通１丁目５番８号,,28,106,6530844,,,,,,,2025-05-28,1,,,,,ケーエスシンク,0
1265,5140005027524,新規,0,2025-05-28,2025-05-28,一般社団法人ＧＲＯＷ　ＵＰ,,その他の設立登記法人,兵庫県,西宮市,櫨塚町５番１６－３０１号,,28,204,6620854,,,,,,,2025-05-28,1,,,,,グロウアップ,0
1266,5150001028153,新規,0,2025-05-28,2025-05-28,株式会社ＯＴＯ,,株式会社,奈良県,奈良市,富雄川西２丁目１７番８号,,29,201,6310077,,,,,,,2025-05-28,1,,,,,オト,0
1267,5150005009703,新規,0,2025-05-28,2025-05-28,一般社団法人ＮＡＲＡｐｒｏｊｅｃｔ,,その他の設立登記法人,奈良県,香芝市,下田西３丁目２番１号,,29,210,6390231,,,,,,,2025-05-28,1,,,,,ナラプロジェクト,0
1269,5160001026783,新規,0,2025-05-28,2025-05-28,株式会社弘林建装,,株式会社,滋賀県,大津市,坂本６丁目２９番９５号,,25,201,5200113,,,,,,,2025-05-28,1,,,,,ホウリンケンソウ,0
1272,5180001166941,新規,0,2025-05-28,2025-05-28,株式会社宛,,株式会社,愛知県,名古屋市港区,春田野１丁目６０２番地,,23,111,4550873,,,,,,,2025-05-28,1,,,,,エン,0
1273,5180001166958,新規,0,2025-05-28,2025-05-28,株式会社加藤建築設計事務所,,株式会社,愛知県,北名古屋市,西之保立石４番地,,23,234,4810033,,,,,,,2025-05-28,1,,,,,カトウケンチクセッケイジムショ,0
1274,5180001166974,新規,0,2025-05-28,2025-05-28,株式会社オールテック,,株式会社,愛知県,知多市,寺本台２丁目６番地の８,,23,224,4780003,,,,,,,2025-05-28,1,,,,,オールテック,0
1275,5180001166990,新規,0,2025-05-28,2025-05-28,株式会社中央建築設備検査,,株式会社,愛知県,名古屋市中区,松原２丁目２０番２５号,,23,106,4600017,,,,,,,2025-05-28,1,,,,,チュウオウケンチクセツビケンサ,0
1276,5180001167007,新規,0,2025-05-28,2025-05-28,株式会社プラネット,,株式会社,愛知県,東海市,大田町畑間１５７番地,,23,222,4770031,,,,,,,2025-05-28,1,,,,,プラネット,0
1277,5180003028537,新規,0,2025-05-28,2025-05-28,セドール不動産合同会社,,合同会社,愛知県,名古屋市昭和区,萩原町６丁目２３番地の２,,23,107,4660852,,,,,,,2025-05-28,1,,,,,セドールフドウサン,0
1279,5180301039830,新規,0,2025-05-28,2025-05-28,Ｋ‐ＴＥＣ株式会社,,株式会社,愛知県,豊田市,細谷町４丁目２４番地,,23,211,4710853,,,,,,,2025-05-28,1,,,,,ケイテック,0
1285,5200001043816,新規,0,2025-05-28,2025-05-28,株式会社Ｅｔｅｒｎａｌ,,株式会社,岐阜県,下呂市,野尻２８３番地,,21,220,5092313,,,,,,,2025-05-28,1,,,,,エターナル,0
1286,5200001043824,新規,0,2025-05-28,2025-05-28,花井フーズ株式会社,,株式会社,岐阜県,山県市,高富２４７８番地１,,21,215,5012105,,,,,,,2025-05-28,1,,,,,ハナイフーズ,0
1287,5200001043832,新規,0,2025-05-28,2025-05-28,株式会社ＤＩＣＴ,,株式会社,岐阜県,岐阜市,金町６丁目２１岐阜ステーションビル３０４,,21,201,5008842,,,,,,,2025-05-28,1,,,,,ディクト,0
1288,5200003006845,新規,0,2025-05-28,2025-05-28,Ｎｉｃｏ合同会社,,合同会社,岐阜県,多治見市,笠原町４０２４番地の２４３,,21,204,5070901,,,,,,,2025-05-28,1,,,,,ニコ,0
1289,5210001020178,新規,0,2025-05-28,2025-05-28,株式会社福井アグリコネクト,,株式会社,福井県,越前市,高岡町第８号３９番地５,,18,209,9150262,,,,,,,2025-05-28,1,,,,,フクイアグリコネクト,0
1290,5230001020928,新規,0,2025-05-28,2025-05-28,ピースコネクト株式会社,,株式会社,富山県,富山市,山室荒屋新町３６番地４,,16,201,9398026,,,,,,,2025-05-28,1,,,,,ピースコネクト,0
1303,5260001040221,新規,0,2025-05-28,2025-05-28,株式会社アークライズ,,株式会社,岡山県,岡山市東区,政津５７９番地２,,33,103,7048165,,,,,,,2025-05-28,1,,,,,アークライズ,0
1306,5270001009208,新規,0,2025-05-28,2025-05-28,英晴水産株式会社,,株式会社,鳥取県,岩美郡岩美町,大字大谷２１８２番地５５５,,31,302,6810073,,,,,,,2025-05-28,1,,,,,エイセイスイサン,0
1312,5290001110104,新規,0,2025-05-28,2025-05-28,ＸＰＩＡ株式会社,,株式会社,福岡県,福岡市中央区,天神２丁目２番１２号Ｔ＆Ｊビルディング７Ｆ,,40,133,8100001,,,,,,,2025-05-28,1,,,,,エックスピア,0
1313,5290001110153,新規,0,2025-05-28,2025-05-28,ＶＩＳＩＯＮＡＲＹ　ＣＲＥＡＴＩＯＮＳ株式会社,,株式会社,福岡県,福岡市早良区,荒江３丁目１１番１５－７０５号ざ・荒江,,40,137,8140021,,,,,,,2025-05-28,1,,,,,ビジョナリークリエイションズ,0
1319,5290005019754,新規,0,2025-05-28,2025-05-28,ＪＲ九州バス労働組合,,その他の設立登記法人,福岡県,福岡市博多区,堅粕２丁目２２番１号,,40,132,8120043,,,,,,,2025-05-28,1,,,,,ジェイアールキュウシュウバス,0
1320,5300005007245,新規,0,2025-05-28,2025-05-28,一般社団法人キャリア教育支援センター,,その他の設立登記法人,佐賀県,佐賀市,鬼丸町１１番１７号,,41,201,8400021,,,,,,,2025-05-28,1,,,,,キャリアキョウイクシエンセンター,0
1325,5320001021116,新規,0,2025-05-28,2025-05-28,英電気株式会社,,株式会社,大分県,大分市,牧３丁目１５番２０号,,44,201,8700924,,,,,,,2025-05-28,1,,,,,エイデンキ,0
1329,5360001035260,新規,0,2025-05-28,2025-05-28,ＡＳＣＥＮＴＲＡＬ株式会社,,株式会社,沖縄県,沖縄市,中央２丁目１７番２号宮ビル２Ｆ,,47,211,9040004,,,,,,,2025-05-28,1,,,,,アセントラル,0
1336,5370001052610,新規,0,2025-05-28,2025-05-28,株式会社古澤総業,,株式会社,宮城県,仙台市若林区,元茶畑２５番地,,04,103,9840058,,,,,,,2025-05-28,1,,,,,フルサワソウギョウ,0
1337,5370001052619,新規,0,2025-05-28,2025-05-28,Ｒｅ．１設計株式会社,,株式会社,宮城県,仙台市太白区,東中田３丁目２１番６号,,04,104,9811107,,,,,,,2025-05-28,1,,,,,リーワンセッケイ,0
1342,5380001035341,新規,0,2025-05-28,2025-05-28,株式会社ＣＭＫ,,株式会社,福島県,福島市,笹谷字桜水２７番地の１２,,07,201,9600241,,,,,,,2025-05-28,1,,,,,シーエムケー,0
1344,5390001017999,新規,0,2025-05-28,2025-05-28,オブネクスト株式会社,,株式会社,山形県,新庄市,末広町１番４４号,,06,205,9960031,,,,,,,2025-05-28,1,,,,,オブネクスト,0
1353,5430001094514,新規,0,2025-05-28,2025-05-28,株式会社といえば,,株式会社,北海道,札幌市中央区,南五条西１５丁目２－３－５０３,,01,101,0640805,,,,,,,2025-05-28,1,,,,,トイエバ,0
1354,5430001094522,新規,0,2025-05-28,2025-05-28,株式会社Ｗｈｉｔｅ　ｇｅｍ,,株式会社,北海道,札幌市中央区,南二条西５丁目３１番地１ＲＭＢｌｄ．７０１,,01,101,0600062,,,,,,,2025-05-28,1,,,,,ホワイトジェム,0
1355,5430003017704,新規,0,2025-05-28,2025-05-28,北海道プロデューサーズ合同会社,,合同会社,北海道,札幌市西区,西町北５丁目３番１－４０６号,,01,107,0630061,,,,,,,2025-05-28,1,,,,,ホッカイドウプロデューサーズ,0
1357,5470001020730,新規,0,2025-05-28,2025-05-28,株式会社クリア・スカイ・トレーディング,,株式会社,香川県,観音寺市,豊浜町箕浦甲２４５１番地１,,37,205,7691604,,,,,,,2025-05-28,1,,,,,クリアスカイトレーディング,0
1358,5490001011059,新規,0,2025-05-28,2025-05-28,ＧＯ株式会社,,株式会社,高知県,高岡郡四万十町,榊山町７番６８－３２号,,39,412,7860008,,,,,,,2025-05-28,1,,,,,ゴ,0
1360,5700150005764,新規,0,2025-05-28,2015-10-09,日本香粧品学会,,その他,東京都,新宿区,山吹町３５８－５アカデミーセンター,,13,104,1620801,,,,,,,2015-10-09,1,,,,,ニホンコウシヨウヒンガツカイ,0
1362,5700150115274,新規,0,2025-05-28,2025-05-28,ｓｕｏ　ｍｏ　ｌｅ　ｓｈｅｎ　ｚｈｅｎ　ｋｅ　ｊｉ　ｙｏｕ　ｘｉａｎ　ｇｏｎｇ　ｓｉ　,,外国会社等,,,,,,,,ＣＮ，５１８０００，ｇｕａｎｇｄｏｎｇｓｈｅｎｇ，ｓｈｅｎｚｈｅｎｓｈｉ，ｌｏｎｇｇａｎｇｑｕｂａｏｌｏｎｇｊｉｅｄａｏｌｏｎｇｄｏｎｇｓｈｅｑｕａｉｎａｎｌｕ９３ｈａｏＩｄｏｎｇ４０２,,,,,,2025-05-28,1,,,,,ソマラクシンセンカギユウゲンコウシ,0
1363,5700150130728,新規,0,2025-05-28,2025-05-28,Ｇｕｉｚｈｏｕｓｉｌｕｙｏｕｐｉｎｄｉａｎｚｉｓｈａｎｇｗｕｙｏｕｘｉａｎｇｏｎｇｓｉ,,外国会社等,,,,,,,,Ｏｆｆｉｃｅ　Ｂｕｉｌｄｉｎｇ　１００１，１０ｔｈ　Ｆｌｏｏｒ，Ｉｍｐｒｅｓｓｉｏｎ　Ｘｉｎｇｙｉ　Ｂｕｉｌｄｉｎｇ　２，Ｘｉｎｇｙｉ　Ａｖｅｎｕｅ，Ｊｕｓｈａｎ　Ｓｔｒｅｅｔ，Ｘｉｎｇｙｉ　Ｃｉｔｙ，Ｑｉａｎｘｉｎａｎ　Ｂｕｙｉ　ａｎｄ　Ｍｉａｏ　Ａｕｔｏｎｏｍｏｕｓ　Ｐｒｅｆｅｃｔｕｒｅ，Ｇｕｉｚｈｏｕ　Ｐｒｏｖｉｎｃｅ,,,,,,2025-05-28,1,,,,,グイジョウスールーヨウピンディエンズーシャンウーヨウシエンゴンスー,0
1364,5700150130760,新規,0,2025-05-28,2025-05-28,ＯＫＩＴＡ　ＴＲＡＤＥ　ＬＡＮＫＡ　ＰＶＴ　ＬＴＤ,,外国会社等,神奈川県,厚木市,下依知２丁目１３－２８第９匠優アパート１０１号室,,14,212,2430806,スリランカ民主社会主義共和国、キャンディ、アクラナテルンブガハワッタ、２８６／６／１,,,,,,2025-05-28,1,,,,,オキタトレードランカプライベートリミテツド,0
1369,6010001253862,新規,0,2025-05-28,2025-05-28,スノーヴァホールディングス株式会社,,株式会社,東京都,中央区,銀座６丁目７番１６号,,13,102,1040061,,,,,,,2025-05-28,1,,,,,スノーヴァホールディングス,0
1370,6010001255330,新規,0,2025-05-28,2025-05-28,株式会社天羽,,株式会社,東京都,中央区,築地６丁目２番１２－１０１６号,,13,102,1040045,,,,,,,2025-05-28,1,,,,,アメノハ,0
1371,6010001255339,新規,0,2025-05-28,2025-05-28,Ａｖｅｎｔａｕｒｅ株式会社,,株式会社,東京都,中央区,銀座７丁目１３番６号サガミビル２階,,13,102,1040061,,,,,,,2025-05-28,1,,,,,アヴェンチャー,0
1372,6010001255347,新規,0,2025-05-28,2025-05-28,ＩＳＡＯ株式会社,,株式会社,東京都,中央区,銀座１丁目２２番１１号２階,,13,102,1040061,,,,,,,2025-05-28,1,,,,,アイエスエーオー,0
1373,6010001255355,新規,0,2025-05-28,2025-05-28,東京未来エステート株式会社,,株式会社,東京都,中央区,入船２丁目３番７号築地エー・アイ・ユービル５階,,13,102,1040042,,,,,,,2025-05-28,1,,,,,トウキョウミライエステート,0
1374,6010001255371,新規,0,2025-05-28,2025-05-28,株式会社イーエムマネジメント,,株式会社,東京都,千代田区,九段南１丁目５番６号りそな九段ビル５階ＫＳフロア,,13,101,1020074,,,,,,,2025-05-28,1,,,,,イーエムマネジメント,0
1375,6010001255421,新規,0,2025-05-28,2025-05-28,株式会社Ｌｙｄｉａ．Ｊ,,株式会社,東京都,千代田区,九段北１丁目１２番２－１２０１号,,13,101,1020073,,,,,,,2025-05-28,1,,,,,リディアジェイ,0
1377,6010003047453,新規,0,2025-05-28,2025-05-28,ＷＥＬＬＥＣＨＯ合同会社,,合同会社,東京都,中央区,日本橋２丁目２番３号ＲＩＳＨＥビルＵＣＦ４階,,13,102,1030027,,,,,,,2025-05-28,1,,,,,ウェルエコ,0
1378,6010003047494,新規,0,2025-05-28,2025-05-28,合同会社ＹＵ１,,合同会社,東京都,千代田区,丸の内１丁目４番１号東京共同会計事務所内,,13,101,1000005,,,,,,,2025-05-28,1,,,,,ワイユーイチ,0
1384,6010005040092,新規,0,2025-05-28,2025-05-28,ＳＩロジスティクスＩ一般社団法人,,その他の設立登記法人,東京都,千代田区,内神田１丁目３番７号４０１あすな会計事務所内,,13,101,1010047,,,,,,,2025-05-28,1,,,,,エスアイロジスティクスワン,0
1385,6010005040101,新規,0,2025-05-28,2025-05-28,一般社団法人Ｓ・Ｄ・ＹＣ,,その他の設立登記法人,東京都,千代田区,丸の内１丁目４番１号東京共同会計事務所内,,13,101,1000005,,,,,,,2025-05-28,1,,,,,エスディーワイシー,0
1386,6010101016698,新規,0,2025-05-28,2025-05-28,ハーディネス株式会社,,株式会社,東京都,八王子市,並木町５－１－７０２,,13,201,1930831,,,,,,,2025-05-28,1,,,,,ハーディネス,0
1392,6010401190565,新規,0,2025-05-28,2025-05-28,株式会社フィフティースリー,,株式会社,東京都,港区,赤坂８丁目４番７号アパートメントカーム,,13,103,1070052,,,,,,,2025-05-28,1,,,,,フィフティースリー,0
1408,6010803005387,新規,0,2025-05-28,2025-05-28,合同会社ティーサービス,,合同会社,東京都,大田区,大森北３丁目３２番１２号,,13,111,1430016,,,,,,,2025-05-28,1,,,,,ティーサービス,0
1412,6010901057446,新規,0,2025-05-28,2025-05-28,株式会社ＬＩＮ　Ｎｅｓｔ,,株式会社,東京都,世田谷区,成城１丁目８番１－３０５号,,13,112,1570066,,,,,,,2025-05-28,1,,,,,リンネスト,0
1421,6011001169512,新規,0,2025-05-28,2025-05-28,株式会社ＡＴＨ,,株式会社,東京都,目黒区,自由が丘２丁目１６番１２号ＲＪ３,,13,110,1520035,,,,,,,2025-05-28,1,,,,,エーティーエイチ,0
1422,6011001169685,新規,0,2025-05-28,2025-05-28,日耀商事株式会社,,株式会社,東京都,渋谷区,道玄坂１丁目１０番８号渋谷道玄坂東急ビル２Ｆ－Ｃ,,13,113,1500043,,,,,,,2025-05-28,1,,,,,ヒヨウショウジ,0
1426,6011101111852,新規,0,2025-05-28,2025-05-28,株式会社アクセルビジネスサポート,,株式会社,東京都,新宿区,高田馬場１丁目３０番１４号コルティーレ高田馬場１Ｆ,,13,104,1690075,,,,,,,2025-05-28,1,,,,,アクセルビジネスサポート,0
1428,6011105011446,新規,0,2025-05-28,2025-05-28,ＣＯＮＤＡ社会保険労務士法人,,その他の設立登記法人,東京都,新宿区,神楽坂３丁目６神楽坂ＮＳビル２階,,13,104,1620825,,,,,,,2025-05-28,1,,,,,コンダ,0
1433,6011501032129,新規,0,2025-05-28,2025-05-28,株式会社ＣＯＬＬＥＣＴＩＶＥ,,株式会社,東京都,北区,堀船３丁目４５番１５号,,13,117,1140004,,,,,,,2025-05-28,1,,,,,コレクティブ,0
1437,6011701028372,新規,0,2025-05-28,2025-05-28,株式会社森舟トラベル,,株式会社,東京都,江戸川区,中葛西３丁目３３番６－２０６号,,13,123,1340083,,,,,,,2025-05-28,1,,,,,シンシュウトラベル,0
1438,6011703004256,新規,0,2025-05-28,2025-05-28,合同会社Ｇｉｆｔｉｎｇ　Ｌｏｖｅ　Ｗｏｒｌｄ,,合同会社,東京都,江戸川区,北小岩３丁目１１－７パストラル・ミキ３Ｄ,,13,123,1330051,,,,,,,2025-05-28,1,,,,,ギフティングラブワールド,0
1439,6011703004264,新規,0,2025-05-28,2025-05-28,合同会社ブライトネス,,合同会社,東京都,江戸川区,平井７丁目３１番１２号,,13,123,1320035,,,,,,,2025-05-28,1,,,,,ブライトネス,0
1440,6011705001895,新規,0,2025-05-28,2025-05-28,一般社団法人江戸川区文化芸術協会,,その他の設立登記法人,東京都,江戸川区,松島２丁目１６番２０号,,13,123,1320031,,,,,,,2025-05-28,1,,,,,エドガワクブンカゲイジュツキョウカイ,0
1441,6011801046209,新規,0,2025-05-28,2025-05-28,トランザ株式会社,,株式会社,東京都,足立区,谷在家１丁目３番７号,,13,121,1230863,,,,,,,2025-05-28,1,,,,,トランザ,0
1442,6011801046217,新規,0,2025-05-28,2025-05-28,スノーエレファント株式会社,,株式会社,東京都,足立区,千住緑町２丁目９番１４号,,13,121,1200044,,,,,,,2025-05-28,1,,,,,スノーエレファント,0
1444,6012403007152,新規,0,2025-05-28,2025-05-28,合同会社豊栄企画,,合同会社,東京都,武蔵野市,吉祥寺本町１丁目３３番１６号４階,,13,203,1800004,,,,,,,2025-05-28,1,,,,,ホウエイキカク,0
1447,6012803003750,新規,0,2025-05-28,2025-05-28,合同会社Ｈｏｒｓｅ５,,合同会社,東京都,国分寺市,本町２丁目７番２号ハウスアメニティ９９－８０５号室,,13,214,1850012,,,,,,,2025-05-28,1,,,,,ホースファイブ,0
1453,6020001163012,新規,0,2025-05-28,2025-05-28,中原通株式会社,,株式会社,神奈川県,川崎市中原区,小杉陣屋町２丁目９番１１号ジュネス中原１０２,,14,133,2110062,,,,,,,2025-05-28,1,,,,,ナカハラツウ,0
1454,6020001163053,新規,0,2025-05-28,2025-05-28,株式会社ＰＥＸＣＩＡ,,株式会社,神奈川県,横浜市青葉区,美しが丘２丁目１４番地７Ｔ＆ＴビルＡ,,14,117,2250002,,,,,,,2025-05-28,1,,,,,ペクシア,0
1455,6020001163061,新規,0,2025-05-28,2025-05-28,株式会社リット,,株式会社,神奈川県,横浜市保土ケ谷区,川島町１２１８番地１植村ハイツＧ棟－１,,14,106,2400045,,,,,,,2025-05-28,1,,,,,リット,0
1456,6020001163078,新規,0,2025-05-28,2025-05-28,喜流一株式会社,,株式会社,神奈川県,横浜市港北区,新吉田東１丁目７番２５号,,14,109,2230058,,,,,,,2025-05-28,1,,,,,キリュウ,0
1457,6020001163094,新規,0,2025-05-28,2025-05-28,株式会社インテリアアイケーエム,,株式会社,神奈川県,横浜市南区,六ツ川３丁目６１番地の１９第２スミナハイツ２０１,,14,105,2320066,,,,,,,2025-05-28,1,,,,,インテリアアイケーエム,0
1464,6021001085304,新規,0,2025-05-28,2025-05-28,株式会社Ｐｏｓｔ２３,,株式会社,神奈川県,厚木市,上依知２１４番地１１,,14,212,2430801,,,,,,,2025-05-28,1,,,,,ポストトゥエンティスリー,0
1465,6021001085345,新規,0,2025-05-28,2025-05-28,株式会社府川建設,,株式会社,神奈川県,小田原市,小八幡４丁目３番１１号,,14,206,2560815,,,,,,,2025-05-28,1,,,,,フカワケンセツ,0
1466,6021001085361,新規,0,2025-05-28,2025-05-28,株式会社ＳＳＣ,,株式会社,神奈川県,小田原市,栄町３丁目４番１７号相湘１１栄町ビル３０２号室,,14,206,2500011,,,,,,,2025-05-28,1,,,,,エスエスシー,0
1468,6030001166559,新規,0,2025-05-28,2025-05-28,株式会社草莽映像,,株式会社,埼玉県,新座市,東北２丁目３９－１０－６Ｆ,,11,230,3520001,,,,,,,2025-05-28,1,,,,,ソウモウエイゾウ,0
1469,6030001166699,新規,0,2025-05-28,2025-05-28,株式会社ＮｅｏＺ,,株式会社,埼玉県,川口市,南前川２丁目６番２１号,,11,203,3330846,,,,,,,2025-05-28,1,,,,,ネオゼット,0
1470,6030001166716,新規,0,2025-05-28,2025-05-28,株式会社Ｎｏｒｔｈｅｒｎ　Ｌｉｇｈｔ,,株式会社,埼玉県,さいたま市桜区,大字大久保領家４５４番地１－１０５,,11,106,3380826,,,,,,,2025-05-28,1,,,,,ノーザンライト,0
1471,6030001166740,新規,0,2025-05-28,2025-05-28,株式会社リネンデポ,,株式会社,埼玉県,川口市,大字西立野６８９,,11,203,3330813,,,,,,,2025-05-28,1,,,,,リネンデポ,0
1474,6030003026851,新規,0,2025-05-28,2025-05-28,合同会社ＣＩＥＬＩＡ　Ｇｌｏｂａｌ　Ｔｒａｄｉｎｇ,,合同会社,埼玉県,桶川市,大字加納１３番地８号,,11,231,3630001,,,,,,,2025-05-28,1,,,,,,0
1484,6040001138929,新規,0,2025-05-28,2025-05-28,株式会社サポートリンク,,株式会社,千葉県,八千代市,大和田６０１番地４,,12,221,2760045,,,,,,,2025-05-28,1,,,,,サポートリンク,0
1485,6040003027691,新規,0,2025-05-28,2025-05-28,合同会社ＤＭ３４号,,合同会社,千葉県,柏市,柏４丁目５番１０号,,12,217,2770005,,,,,,,2025-05-28,1,,,,,ディーエムサンジュウヨンゴウ,0
1488,6050001056733,新規,0,2025-05-28,2025-05-28,株式会社ｉ‐ｅｎｇ,,株式会社,茨城県,行方市,浜６４８番地２,,08,233,3113505,,,,,,,2025-05-28,1,,,,,アイエンジ,0
1496,6060001038243,新規,0,2025-05-28,2025-05-28,株式会社クイック,,株式会社,栃木県,宇都宮市,田野町３０２番地２,,09,201,3210344,,,,,,,2025-05-28,1,,,,,クイック,0
1500,6060005010347,新規,0,2025-05-28,2025-05-28,一般財団法人ヒンドゥーテンプルジャパン,,その他の設立登記法人,栃木県,足利市,小俣町２４０番地１,,09,202,3260141,,,,,,,2025-05-28,1,,,,,ヒンドゥーテンプルジャパン,0
1504,6080005007696,新規,0,2025-05-28,2025-05-28,一般社団法人アチーバストレーナー協会,,その他の設立登記法人,静岡県,藤枝市,田沼１丁目２４番８号,,22,214,4260061,,,,,,,2025-05-28,1,,,,,アチーバストレーナーキョウカイ,0
1508,6080103003333,新規,0,2025-05-28,2025-05-28,桃中軒グローバルフードマーケティング合同会社,,合同会社,静岡県,沼津市,大手町３丁目１番３号,,22,203,4100801,,,,,,,2025-05-28,1,,,,,トウチュウケングローバルマーケティング,0
1512,6090003002830,新規,0,2025-05-28,2025-05-28,ｍｏｔｔｙコンフェクト合同会社,,合同会社,山梨県,甲府市,上小河原町１１７７番地１ベルリード甲府Ａ棟,,19,201,4000044,,,,,,,2025-05-28,1,,,,,モッティーコンフェクト,0
1513,6100001038643,新規,0,2025-05-28,2025-05-28,株式会社Ｒ＆Ｍ,,株式会社,長野県,諏訪郡原村,４８３番地,,20,363,3910100,,,,,,,2025-05-28,1,,,,,アールアンドエム,0
1514,6100001038651,新規,0,2025-05-28,2025-05-28,株式会社盛よし,,株式会社,長野県,松本市,筑摩１丁目１８－７,,20,202,3900821,,,,,,,2025-05-28,1,,,,,モリヨシ,0
1532,6120001276209,新規,0,2025-05-28,2025-05-28,株式会社ＹＡＧＡＳＵＲＩ,,株式会社,大阪府,大阪市北区,梅田１丁目１３番１号,,27,127,5300001,,,,,,,2025-05-28,1,,,,,ヤガスリ,0
1533,6120001276217,新規,0,2025-05-28,2025-05-28,株式会社カムイ,,株式会社,大阪府,枚方市,出口６丁目２番１３号,,27,210,5730065,,,,,,,2025-05-28,1,,,,,カムイ,0
1534,6120001276233,新規,0,2025-05-28,2025-05-28,株式会社はじめホールディングス,,株式会社,大阪府,大阪市北区,大淀南１丁目４番１８号,,27,127,5310075,,,,,,,2025-05-28,1,,,,,ハジメホールディングス,0
1535,6120001276241,新規,0,2025-05-28,2025-05-28,Ｄｒｅａｍｌｉｎｋ株式会社,,株式会社,大阪府,大阪市港区,築港１丁目５番１号,,27,107,5520021,,,,,,,2025-05-28,1,,,,,ドリームリンク,0
1536,6120001276258,新規,0,2025-05-28,2025-05-28,ベルウェル株式会社,,株式会社,大阪府,大阪市平野区,流町３丁目８番４号,,27,126,5470032,,,,,,,2025-05-28,1,,,,,ベルウェル,0
1537,6120001276274,新規,0,2025-05-28,2025-05-28,株式会社Ｒｅｖｉｖｅ,,株式会社,大阪府,大阪市西区,北堀江１丁目１５番１１号クリック北堀江１Ｆ,,27,106,5500014,,,,,,,2025-05-28,1,,,,,リバイブ,0
1538,6120001276290,新規,0,2025-05-28,2025-05-28,株式会社ＡＰＩＸ,,株式会社,大阪府,大阪市中央区,常盤町２丁目２番２５－６０１号,,27,128,5400028,,,,,,,2025-05-28,1,,,,,エイピックス,0
1539,6120001276308,新規,0,2025-05-28,2025-05-28,志道株式会社,,株式会社,大阪府,大阪市住吉区,杉本１丁目９番１６ー２０３号,,27,120,5580022,,,,,,,2025-05-28,1,,,,,シドウ,0
1540,6120001276316,新規,0,2025-05-28,2025-05-28,株式会社ウェルビュー,,株式会社,大阪府,大阪市中央区,平野町１丁目８番８号,,27,128,5410046,,,,,,,2025-05-28,1,,,,,ウェルビュー,0
1541,6120003029572,新規,0,2025-05-28,2025-05-28,合同会社ｉｎｆｉｎｉｔｅ,,合同会社,大阪府,大阪市東淀川区,大桐１丁目１７－３,,27,114,5330011,,,,,,,2025-05-28,1,,,,,インフィニティ,0
1542,6120003029589,新規,0,2025-05-28,2025-05-28,合同会社Ｂ‐ＶＡＸ,,合同会社,大阪府,寝屋川市,国松町１２番１－１０３号,,27,215,5720016,,,,,,,2025-05-28,1,,,,,ビーヴァックス,0
1543,6120003029597,新規,0,2025-05-28,2025-05-28,合同会社ＹＡＭＡＨＡＮ,,合同会社,大阪府,大阪市東住吉区,山坂３丁目９－１８,,27,121,5460035,,,,,,,2025-05-28,1,,,,,ヤマハン,0
1544,6120003029606,新規,0,2025-05-28,2025-05-28,桜創建合同会社,,合同会社,大阪府,大阪市生野区,桃谷２丁目２５番２０号朝日プラザ桃谷パサージュ１Ｆ,,27,116,5440034,,,,,,,2025-05-28,1,,,,,サクラソウケン,0
1546,6120101071732,新規,0,2025-05-28,2025-05-28,株式会社Ｒ　ＨＩＬＬ　ＦＡＲＭ,,株式会社,大阪府,松原市,天美東２丁目１３６番地の３（１１０３号）,,27,217,5800032,,,,,,,2025-05-28,1,,,,,アールヒルファーム,0
1547,6120101071740,新規,0,2025-05-28,2025-05-28,株式会社Ｓ　ｃｏｒｅｔｅｍ,,株式会社,大阪府,和泉市,仏並町６０６番地,,27,219,5941136,,,,,,,2025-05-28,1,,,,,エスコアテム,0
1548,6120101071749,新規,0,2025-05-28,2025-05-28,株式会社火々乃一家,,株式会社,大阪府,堺市北区,中百舌鳥町５丁７９６番地２,,27,146,5918023,,,,,,,2025-05-28,1,,,,,ヒビノイッカ,0
1553,6122001039280,新規,0,2025-05-28,2025-05-28,株式会社和工務店,,株式会社,大阪府,東大阪市,東上小阪５番２１号,,27,227,5770812,,,,,,,2025-05-28,1,,,,,カズコウムテン,0
1556,6130001079750,新規,0,2025-05-28,2025-05-28,Ｂｅ・ｋｉｎｄ株式会社,,株式会社,京都府,京都市北区,上賀茂馬ノ目町４１番地の１４,,26,101,6038033,,,,,,,2025-05-28,1,,,,,ビーカインド,0
1557,6130001079767,新規,0,2025-05-28,2025-05-28,株式会社Ｆｉｅｌｄ,,株式会社,京都府,京都市山科区,御陵中内町２８,,26,110,6078414,,,,,,,2025-05-28,1,,,,,フィールド,0
1558,6130001079775,新規,0,2025-05-28,2025-05-28,株式会社パインビルド,,株式会社,京都府,京都市右京区,常盤東ノ町１６番地２２,,26,108,6168217,,,,,,,2025-05-28,1,,,,,パインビルド,0
1568,6140001138679,新規,0,2025-05-28,2025-05-28,株式会社ＫＯＢＥ　ＨＡＬＡＬ　ＦＯＯＤ,,株式会社,兵庫県,神戸市中央区,中山手通２丁目１７番３号西島ビル１階,,28,110,6500004,,,,,,,2025-05-28,1,,,,,コウベハラールフード,0
1569,6140001138687,新規,0,2025-05-28,2025-05-28,株式会社和乃家,,株式会社,兵庫県,明石市,魚住町清水１１８番地の１,,28,203,6740074,,,,,,,2025-05-28,1,,,,,ワノヤ,0
1570,6140001138704,新規,0,2025-05-28,2025-05-28,株式会社おのころ舟木,,株式会社,兵庫県,淡路市,小倉２５８番地,,28,226,6561736,,,,,,,2025-05-28,1,,,,,オノコロフナキ,0
1571,6140001138712,新規,0,2025-05-28,2025-05-28,株式会社ポートライフ,,株式会社,兵庫県,たつの市,御津町岩見２１８４番地２,,28,229,6711331,,,,,,,2025-05-28,1,,,,,ポートライフ,0
1572,6140001138737,新規,0,2025-05-28,2025-05-28,株式会社常慎,,株式会社,兵庫県,神戸市兵庫区,荒田町３丁目７２番１２号,,28,105,6520032,,,,,,,2025-05-28,1,,,,,ジョウシン,0
1573,6140003022105,新規,0,2025-05-28,2025-05-28,Ｇｕｒｅｉｔｏ合同会社,,合同会社,兵庫県,姫路市,北原２８７番地１ファミール２１－２０４,,28,201,6728002,,,,,,,2025-05-28,1,,,,,グレート,0
1574,6140003022113,新規,0,2025-05-28,2025-05-28,合同会社ＮＳ工業,,合同会社,兵庫県,神戸市長田区,鶯町１丁目２番３３号,,28,106,6530871,,,,,,,2025-05-28,1,,,,,エヌエスコウギョウ,0
1578,6140005027523,新規,0,2025-05-28,2025-05-28,特定非営利活動法人メイクユースマイル神戸,,その他の設立登記法人,兵庫県,神戸市西区,春日台５丁目４番地の１０,,28,111,6512276,,,,,,,2025-05-28,1,,,,,メイクユースマイルコウベ,0
1579,6150001028152,新規,0,2025-05-28,2025-05-28,株式会社Ｓｉｎｃｅｒｉｔｅ　Ｐｌｕｓ,,株式会社,奈良県,橿原市,五条野町１００番地の５０,,29,205,6340043,,,,,,,2025-05-28,1,,,,,サンセリテプラス,0
1580,6150001028160,新規,0,2025-05-28,2025-05-28,株式会社ｕｍｅｎｏｗａ　ｐｌａｎ,,株式会社,奈良県,橿原市,石原田町２７３番地の６,,29,205,6340014,,,,,,,2025-05-28,1,,,,,ウメノワプラン,0
1584,6160001026782,新規,0,2025-05-28,2025-05-28,株式会社ゴリラ,,株式会社,滋賀県,近江八幡市,若宮町５７３番地１,,25,204,5230034,,,,,,,2025-05-28,1,,,,,ゴリラ,0
1586,6160003003490,新規,0,2025-05-28,2025-05-28,サンクスマイル合同会社,,合同会社,滋賀県,彦根市,小泉町３１０番地１６,,25,202,5220043,,,,,,,2025-05-28,1,,,,,サンクスマイル,0
1600,6180001166940,新規,0,2025-05-28,2025-05-28,株式会社Ｙ’ｓインテグリティ・アシュア,,株式会社,愛知県,稲沢市,長束町観音寺田５８番地ミツイロイヤル長束ＩＩ－１５０１,00139324,23,220,4928167,,,,,,,2025-05-28,1,,,,,ワイズインテグリティアシュア,0
1601,6180001166949,新規,0,2025-05-28,2025-05-28,株式会社ＫｅｓｅＲａ,,株式会社,愛知県,名古屋市中村区,則武２丁目１－２加藤ビル４０３,,23,105,4530014,,,,,,,2025-05-28,1,,,,,ケセラ,0
1602,6180001166965,新規,0,2025-05-28,2025-05-28,株式会社東海クローバー,,株式会社,愛知県,稲沢市,矢合町３６５６番地,,23,220,4928342,,,,,,,2025-05-28,1,,,,,トウカイクローバー,0
1603,6180001166973,新規,0,2025-05-28,2025-05-28,株式会社明燕,,株式会社,愛知県,海部郡飛島村,竹之郷１丁目１４４番地,,23,427,4901436,,,,,,,2025-05-28,1,,,,,メイエン,0
1604,6180001167014,新規,0,2025-05-28,2025-05-28,ドリーム株式会社,,株式会社,愛知県,名古屋市北区,会所町６０番地の１,,23,103,4620061,,,,,,,2025-05-28,1,,,,,ドリーム,0
1607,6180003028528,新規,0,2025-05-28,2025-05-28,合同会社ベルブラン,,合同会社,愛知県,名古屋市守山区,新守町１０５番地の１,,23,113,4630071,,,,,,,2025-05-28,1,,,,,ベルブラン,0
1611,6180301039846,新規,0,2025-05-28,2025-05-28,株式会社ハウスジブリ,,株式会社,愛知県,岡崎市,大西町字南ケ原３８番１,,23,202,4440812,,,,,,,2025-05-28,1,,,,,ハウスジブリ,0
1619,6200001043823,新規,0,2025-05-28,2025-05-28,株式会社ＤＯＦＦＹ,,株式会社,岐阜県,海津市,海津町草場２１０番地５,,21,221,5030618,,,,,,,2025-05-28,1,,,,,ドフィー,0
1632,6260001040229,新規,0,2025-05-28,2025-05-28,株式会社Ｃ．Ｐ．Ｈ,,株式会社,岡山県,岡山市南区,南輝２丁目１番２２号,,33,104,7028023,,,,,,,2025-05-28,1,,,,,シーピーエイチ,0
1635,6270003001748,新規,0,2025-05-28,2025-05-28,合同会社福楽創建,,合同会社,鳥取県,東伯郡北栄町,田井４５２－１,,31,372,6892103,,,,,,,2025-05-28,1,,,,,フクラソウケン,0
1639,6290001110128,新規,0,2025-05-28,2025-05-28,株式会社エンシュウ,,株式会社,福岡県,福岡市南区,柏原２丁目２５番３号,,40,134,8111353,,,,,,,2025-05-28,1,,,,,エンシュウ,0
1644,6330001033233,新規,0,2025-05-28,2025-05-28,熊台株式会社,,株式会社,熊本県,熊本市中央区,水道町３－３１クレヴィータ上通り３０１号,,43,101,8600844,,,,,,,2025-05-28,1,,,,,クマタイ,0
1646,6360001035268,新規,0,2025-05-28,2025-05-28,株式会社ネスト,,株式会社,沖縄県,国頭郡今帰仁村,字今泊９６０番地,,47,306,9050428,,,,,,,2025-05-28,1,,,,,ネスト,0
1648,6370001052618,新規,0,2025-05-28,2025-05-28,横山美創株式会社,,株式会社,宮城県,仙台市泉区,山の寺１丁目２６番１９号,,04,105,9813103,,,,,,,2025-05-28,1,,,,,ヨコヤマビソウ,0
1650,6380001035349,新規,0,2025-05-28,2025-05-28,農業女子Ｌａｂ株式会社,,株式会社,福島県,伊達市,保原町大立目字東川原１３１番地２,,07,213,9600632,,,,,,,2025-05-28,1,,,,,ノウギョウジョシラボ,0
1651,6390001017998,新規,0,2025-05-28,2025-05-28,株式会社Ａｓｓｉｓｔ,,株式会社,山形県,東村山郡中山町,大字長崎４２５５番地７０,,06,302,9900401,,,,,,,2025-05-28,1,,,,,アシスト,0
1652,6390003002395,新規,0,2025-05-28,2025-05-28,合同会社石田建築,,合同会社,山形県,鶴岡市,鳥居町１１番３号,,06,203,9970023,,,,,,,2025-05-28,1,,,,,イシダケンチク,0
1659,6410003004109,新規,0,2025-05-28,2025-05-28,Ｈａｒｍｏｎｉｚｅ合同会社,,合同会社,秋田県,由利本荘市,岩城内道川字観音下１番地,,05,210,0181301,,,,,,,2025-05-28,1,,,,,ハーモナイズ,0
1662,6430001094496,新規,0,2025-05-28,2025-05-28,株式会社マグニ,,株式会社,北海道,札幌市白石区,本通１９丁目南６番１号,,01,104,0030026,,,,,,,2025-05-28,1,,,,,マグニ,0
1663,6430001094505,新規,0,2025-05-28,2025-05-28,株式会社Ｕｓａｃｈａｎ,,株式会社,北海道,札幌市白石区,栄通１４丁目２番２５－３０１号,,01,104,0030021,,,,,,,2025-05-28,1,,,,,ウサチャン,0
1664,6430001094513,新規,0,2025-05-28,2025-05-28,株式会社のぞみ,,株式会社,北海道,札幌市北区,新琴似七条１丁目３番３０号アルファヒル麻生８０２号,,01,102,0010907,,,,,,,2025-05-28,1,,,,,ノゾミ,0
1670,6700150130727,新規,0,2025-05-28,2025-05-28,Ｃｈｏｎｇｑｉｎｇａｋｅｔｉｓｉｓｈｅｎｇｍｉｎｇｋｅｘｕｅｙａｎｊｉｕｙｏｕｘｉａｎｇｏｎｇｓｉ,,外国会社等,,,,,,,,ＳＱ００９６，Ｌａｎｙｕａｎ　Ｂｕｉｌｄｉｎｇ，Ｊｉｎｙｕｎ　Ｃａｍｐｕｓ，Ｃｈｏｎｇｑｉｎｇ　Ｍｅｄｉｃａｌ　Ｕｎｉｖｅｒｓｉｔｙ，Ｎｏ．６１，Ｍｉｄｄｌｅ　Ｒｏａｄ，Ｕｎｉｖｅｒｓｉｔｙ　Ｔｏｗｎ，Ｇａｏｘｉｎ　Ｄｉｓｔｒｉｃｔ，Ｃｈｏｎｇｑｉｎｇ，Ｐ．Ｒ．Ｃｈｉｎａ,,,,,,2025-05-28,1,,,,,ジョンチンアーコーティースーションミンコーシュエイエンジューヨウシエンゴンスー,0
1674,7010001255338,新規,0,2025-05-28,2025-05-28,多元文化株式会社,,株式会社,東京都,中央区,晴海５丁目４番２号,,13,102,1040053,,,,,,,2025-05-28,1,,,,,タゲンブンカ,0
1675,7010001255370,新規,0,2025-05-28,2025-05-28,株式会社圓山,,株式会社,東京都,千代田区,一番町２０番地１ホーマットカメリア４０４号,,13,101,1020082,,,,,,,2025-05-28,1,,,,,エンザン,0
1676,7010001255453,新規,0,2025-05-28,2025-05-28,トリクミ株式会社,,株式会社,東京都,千代田区,麹町４丁目５番２０号ＫＳビル６階,,13,101,1020083,,,,,,,2025-05-28,1,,,,,トリクミ,0
1683,7010401023526,新規,0,2025-05-28,2025-05-28,ノヴァインターナショナル株式会社,,株式会社,東京都,港区,六本木３丁目１番２６号,,13,103,1060032,,,,,,,2025-05-28,1,,,,,ノバインターナショナル,0
1690,7010401190564,新規,0,2025-05-28,2025-05-28,株式会社ＢＭコネクト,,株式会社,東京都,港区,港南２丁目１６番７号品川Ｖタワー１９０６,,13,103,1080075,,,,,,,2025-05-28,1,,,,,ビーエムコネクト,0
1691,7010401190606,新規,0,2025-05-28,2025-05-28,株式会社ＨａｘＰａｒｋ,,株式会社,東京都,港区,麻布十番１丁目２番７号ラフィネ麻布十番７０１号,,13,103,1060045,,,,,,,2025-05-28,1,,,,,ハックスパーク,0
1695,7010403035239,新規,0,2025-05-28,2025-05-28,合同会社Ｓ＆Ｅイノベーションイニシアティブ,,合同会社,東京都,港区,東新橋１丁目８番１号,,13,103,1050021,,,,,,,2025-05-28,1,,,,,エスアンドイーイノベーションイニシアティブ,0
1697,7010405024413,新規,0,2025-05-28,2025-05-28,一般社団法人Ｊａｐａｎ　Ｂｅａｕｔｙ　Ｎｅｔｗｏｒｋ,,その他の設立登記法人,東京都,港区,高輪２丁目２１番１号高輪ゲートウェイＴＨＥＬＩＮＫＰＩＬＬＡＲ１ＮＯＲＴＨ６・７ＦＬｉＳＨ内,,13,103,1080074,,,,,,,2025-05-28,1,,,,,ジャパンビューティネットワーク,0
1699,7010501054132,新規,0,2025-05-28,2025-05-28,株式会社ペガサス,,株式会社,東京都,台東区,鳥越１丁目４番３号ミハマビル２階,,13,106,1110054,,,,,,,2025-05-28,1,,,,,ペガサス,0
1700,7010601067356,新規,0,2025-05-28,2025-05-28,ＮＯＶＯＣＥＰＴ株式会社,,株式会社,東京都,墨田区,東駒形４丁目１３番１７号,,13,107,1300005,,,,,,,2025-05-28,1,,,,,ノボセプト,0
1701,7010603011551,新規,0,2025-05-28,2025-05-28,ＨＫ合同会社,,合同会社,東京都,墨田区,緑２丁目１３番５号１２０５,,13,107,1300021,,,,,,,2025-05-28,1,,,,,エイチケイ,0
1702,7010801036193,新規,0,2025-05-28,2025-05-28,創栄リアリティ株式会社,,株式会社,東京都,大田区,西蒲田６丁目３３番７号,,13,111,1440051,,,,,,,2025-05-28,1,,,,,ソウエイリアリティ,0
1705,7011001169627,新規,0,2025-05-28,2025-05-28,ＷｉｔｈＵ株式会社,,株式会社,東京都,渋谷区,東３丁目９－１３－１３０１,,13,113,1500011,,,,,,,2025-05-28,1,,,,,ウィズユー,0
1706,7011001169684,新規,0,2025-05-28,2025-05-28,株式会社Ｍ’ｓ　ｉｎｖｅｓｔｍｅｎｔ,,株式会社,東京都,渋谷区,恵比寿４丁目２０番３号恵比寿ガーデンプレイスタワー１４階,,13,113,1500013,,,,,,,2025-05-28,1,,,,,エムズインベストメント,0
1710,7011003021604,新規,0,2025-05-28,2025-05-28,合同会社ＭＩＦ,,合同会社,東京都,渋谷区,恵比寿西１丁目２１番７号レジディア恵比寿ＩＩ３０４,00139323,13,113,1500021,,,,,,,2025-05-28,1,,,,,エムアイエフ,0
1711,7011101111868,新規,0,2025-05-28,2025-05-28,株式会社ブライトパス,,株式会社,東京都,新宿区,高田馬場２丁目１６番１１号高田馬場２１６ビル７階,,13,104,1690075,,,,,,,2025-05-28,1,,,,,ブライトパス,0
1712,7011101111876,新規,0,2025-05-28,2025-05-28,株式会社心ＳＹＮＣ,,株式会社,東京都,新宿区,新宿２丁目１５番２９号ＲｅｌｉｎｋＳＨＩＮＪＵＫＵ６０３号室,,13,104,1600022,,,,,,,2025-05-28,1,,,,,ココロシンク,0
1715,7011103015935,新規,0,2025-05-28,2025-05-28,合同会社ＴｅｎｄｅｒＬｉｎｋ,,合同会社,東京都,新宿区,西落合３丁目８番１０号コンフォーザ西落合１０２,,13,104,1610031,,,,,,,2025-05-28,1,,,,,テンダーリンク,0
1716,7011103015943,新規,0,2025-05-28,2025-05-28,四谷エフピーラボ合同会社,,合同会社,東京都,新宿区,四谷２丁目８番地コーポクローバ瀬尾９０３号,,13,104,1600004,,,,,,,2025-05-28,1,,,,,ヨツヤエフピーラボ,0
1717,7011105011461,新規,0,2025-05-28,2025-05-28,一般社団法人ジェイ・エイチ・ゼッド,,その他の設立登記法人,東京都,新宿区,下宮比町１番４号,,13,104,1620822,,,,,,,2025-05-28,1,,,,,ジェイエイチゼッド,0
1724,7011801046199,新規,0,2025-05-28,2025-05-28,株式会社ｔａｋｅ　ｉｅ,,株式会社,東京都,足立区,西新井５丁目２４番１０号,,13,121,1230841,,,,,,,2025-05-28,1,,,,,テイクイー,0
1729,7013101009704,新規,0,2025-05-28,2025-05-28,ミライペイント株式会社,,株式会社,東京都,青梅市,友田町５丁目４９６番地の３,,13,205,1980051,,,,,,,2025-05-28,1,,,,,ミライペイント,0
1735,7013301054302,新規,0,2025-05-28,2025-05-28,株式会社ｆｒｕｃｔｕｓ,,株式会社,東京都,豊島区,池袋本町２丁目２番１３号,,13,116,1700011,,,,,,,2025-05-28,1,,,,,フルクタス,0
1736,7013301054351,新規,0,2025-05-28,2025-05-28,株式会社ＡＮＥＸＴＹ,,株式会社,東京都,豊島区,東池袋２丁目６２番８号ＢＩＧオフィスプラザ池袋１２０６,,13,116,1700013,,,,,,,2025-05-28,1,,,,,アネクティー,0
1737,7013303007695,新規,0,2025-05-28,2025-05-28,大和ソリューション合同会社,,合同会社,東京都,豊島区,東池袋２丁目６２番８号ＢＩＧオフィスプラザ池袋１２０６,,13,116,1700013,,,,,,,2025-05-28,1,,,,,ダイワソリューション,0
1743,7020001163069,新規,0,2025-05-28,2025-05-28,株式会社菊池工務店,,株式会社,神奈川県,横浜市旭区,さちが丘１８９番地１１アイランドコアさちが丘２０１,,14,112,2410822,,,,,,,2025-05-28,1,,,,,キクチコウムテン,0
1744,7020001163102,新規,0,2025-05-28,2025-05-28,株式会社Ａｒｉｓｅ‐Ｏｎｅ,,株式会社,神奈川県,横浜市栄区,長沼町５９７番地５,,14,115,2440841,,,,,,,2025-05-28,1,,,,,アライズワン,0
1746,7020003028591,新規,0,2025-05-28,2025-05-28,合同会社マロメロファーム,,合同会社,神奈川県,横浜市神奈川区,金港町５‐１４クアドリフォリオ８階,,14,102,2210056,,,,,,,2025-05-28,1,,,,,マロメロファーム,0
1750,7021001085336,新規,0,2025-05-28,2025-05-28,ＮＤＤＳ＆Ｃ株式会社,,株式会社,神奈川県,秦野市,鶴巻２３２８番地の１３,,14,211,2570007,,,,,,,2025-05-28,1,,,,,エヌディーディーエスアンドシー,0
1751,7021001085344,新規,0,2025-05-28,2025-05-28,クラウ株式会社,,株式会社,神奈川県,相模原市中央区,上溝７丁目２４番４５号,,14,152,2520243,,,,,,,2025-05-28,1,,,,,クラウ,0
1752,7021003016058,新規,0,2025-05-28,2025-05-28,表現アートセラピー研究所合同会社,,合同会社,神奈川県,相模原市緑区,日連８３８番地１,,14,151,2520185,,,,,,,2025-05-28,1,,,,,ヒョウゲンアートセラピーケンキュウジョ,0
1763,7030001166707,新規,0,2025-05-28,2025-05-28,株式会社創明社,,株式会社,埼玉県,越谷市,大間野町４丁目１０４番地２,,11,222,3430844,,,,,,,2025-05-28,1,,,,,ソウメイシャ,0
1764,7030001166715,新規,0,2025-05-28,2025-05-28,株式会社ベイウインズ,,株式会社,埼玉県,戸田市,喜沢南１丁目４番１７－７０３号,,11,224,3350014,,,,,,,2025-05-28,1,,,,,ベイウインズ,0
1766,7030003026636,新規,0,2025-05-28,2025-05-28,ＫｎｎｎＹ合同会社,,合同会社,埼玉県,和光市,白子２丁目１５－１メゾン和光台３０７,,11,229,3510101,,,,,,,2025-05-28,1,,,,,ケニー,0
1767,7030003026842,新規,0,2025-05-28,2025-05-28,合同会社プロパティー恒産,,合同会社,埼玉県,深谷市,稲荷町１丁目３番５－２号アンフィニ０２,,11,218,3660026,,,,,,,2025-05-28,1,,,,,プロパティーコウサン,0
1768,7030003026867,新規,0,2025-05-28,2025-05-28,合同会社エルフィー,,合同会社,埼玉県,さいたま市見沼区,大字深作２２２－１,,11,104,3370003,,,,,,,2025-05-28,1,,,,,エルフィー,0
1775,7040001138936,新規,0,2025-05-28,2025-05-28,株式会社虹の里,,株式会社,千葉県,山武郡九十九里町,粟生５４７番地,,12,403,2830105,,,,,,,2025-05-28,1,,,,,ニジノサト,0
1779,7040003027690,新規,0,2025-05-28,2025-05-28,合同会社ＤＭ３３号,,合同会社,千葉県,柏市,柏４丁目５番１０号,,12,217,2770005,,,,,,,2025-05-28,1,,,,,ディーエムサンジュウサンゴウ,0
1780,7040003027716,新規,0,2025-05-28,2025-05-28,合同会社ｙａｒｄ　Ｘ,,合同会社,千葉県,木更津市,新田２丁目３―１０,,12,206,2920832,,,,,,,2025-05-28,1,,,,,ヤードエックス,0
1787,7050001056724,新規,0,2025-05-28,2025-05-28,ＤＩＭＥＮＳＩＯＮ５株式会社,,株式会社,茨城県,取手市,椚木２３８４番地５,,08,217,3001511,,,,,,,2025-05-28,1,,,,,ディメンションファイブ,0
1789,7060003005570,新規,0,2025-05-28,2025-05-28,合同会社Ｋ＆Ｋ,,合同会社,栃木県,日光市,所野１５６２番地５,,09,206,3211421,,,,,,,2025-05-28,1,,,,,ケイアンドケイ,0
1795,7090001019289,新規,0,2025-05-28,2025-05-28,株式会社小野興業,,株式会社,山梨県,甲府市,北新２丁目１５番８号クオーレ北新Ｂ‐２０２,,19,201,4000005,,,,,,,2025-05-28,1,,,,,オノコウギョウ,0
1796,7090001019297,新規,0,2025-05-28,2025-05-28,株式会社ユウタス,,株式会社,山梨県,韮崎市,藤井町北下條１７２６番地１,,19,207,4070003,,,,,,,2025-05-28,1,,,,,ユウタス,0
1798,7100001038642,新規,0,2025-05-28,2025-05-28,株式会社中部エネテック,,株式会社,長野県,松本市,征矢野１丁目３番３４号メゾンドプラティーク１０１,,20,202,3900842,,,,,,,2025-05-28,1,,,,,チュウブエネテック,0
1801,7100003008180,新規,0,2025-05-28,2025-05-28,合同会社ＯＰＴＩＲＯＮ北信,,合同会社,長野県,下高井郡木島平村,大字上木島６３番地１,,20,562,3892303,,,,,,,2025-05-28,1,,,,,オプティロンホクシン,0
1802,7100003008189,新規,0,2025-05-28,2025-05-28,合同会社Ｄｏ　Ｗｏｒｋ,,合同会社,長野県,松本市,野溝西３丁目５－８,,20,202,3990006,,,,,,,2025-05-28,1,,,,,ドウワーク,0
1809,7120001276133,新規,0,2025-05-28,2025-05-28,株式会社シティライフネット不動産,,株式会社,大阪府,守口市,滝井西町２丁目５番１４号,,27,209,5700076,,,,,,,2025-05-28,1,,,,,シティライフネットフドウサン,0
1810,7120001276166,新規,0,2025-05-28,2025-05-28,株式会社ＱＺ　Ｍｅｄｉａ,,株式会社,大阪府,大阪市北区,池田町１７－１８メッセージ天神橋池田町３０２号室,,27,127,5300033,,,,,,,2025-05-28,1,,,,,キューゼットメディア,0
1811,7120001276190,新規,0,2025-05-28,2025-05-28,株式会社サムワンズ,,株式会社,大阪府,守口市,寺方元町２丁目５－１３,,27,209,5700047,,,,,,,2025-05-28,1,,,,,サムワンズ,0
1812,7120001276199,新規,0,2025-05-28,2025-05-28,株式会社ブリッジクリエーション,,株式会社,大阪府,大阪市淀川区,新北野２丁目６－２３パークナード新北野４０３号室,,27,123,5320025,,,,,,,2025-05-28,1,,,,,ブリッジクリエーション,0
1813,7120001276208,新規,0,2025-05-28,2025-05-28,株式会社ＮｅｗＳＰＯ．ＬＩＦＥ,,株式会社,大阪府,大阪市浪速区,難波中３丁目５番１２号,,27,111,5560011,,,,,,,2025-05-28,1,,,,,ニュースポライフ,0
1814,7120001276224,新規,0,2025-05-28,2025-05-28,株式会社Ｄｒｅａｍ,,株式会社,大阪府,大阪市中央区,東心斎橋１丁目９番１９－３０７号,,27,128,5420083,,,,,,,2025-05-28,1,,,,,ドリーム,0
1815,7120001276240,新規,0,2025-05-28,2025-05-28,株式会社利商事,,株式会社,大阪府,寝屋川市,萱島南町２０番１－１００５号,,27,215,5720825,,,,,,,2025-05-28,1,,,,,リショウジ,0
1816,7120001276249,新規,0,2025-05-28,2025-05-28,株式会社トインカラー,,株式会社,大阪府,大阪市西区,九条南２丁目１３番４号,,27,106,5500025,,,,,,,2025-05-28,1,,,,,トインカラー,0
1817,7120001276265,新規,0,2025-05-28,2025-05-28,３６ＧＳ株式会社,,株式会社,大阪府,大阪市中央区,本町橋６番１９号本町第２今岡ビル５０１号室,,27,128,5400029,,,,,,,2025-05-28,1,,,,,サンロクジーエス,0
1823,7120101071748,新規,0,2025-05-28,2025-05-28,株式会社ＣＰ,,株式会社,大阪府,堺市中区,深井沢町３２８２番地,,27,142,5998236,,,,,,,2025-05-28,1,,,,,シーピー,0
1824,7120101071756,新規,0,2025-05-28,2025-05-28,株式会社リンクス,,株式会社,大阪府,大阪狭山市,狭山１丁目２３５０サンライトビル１階,,27,231,5890005,,,,,,,2025-05-28,1,,,,,リンクス,0
1828,7120901050934,新規,0,2025-05-28,2025-05-28,株式会社エスケーコーポレーション,,株式会社,大阪府,摂津市,鳥飼野々１丁目９番４－５号,,27,224,5660053,,,,,,,2025-05-28,1,,,,,エスケーコーポレーション,0
1829,7120901050942,新規,0,2025-05-28,2025-05-28,株式会社サイデア,,株式会社,大阪府,高槻市,富田町５丁目２６番１９号,,27,207,5690814,,,,,,,2025-05-28,1,,,,,サイデア,0
1830,7122001039288,新規,0,2025-05-28,2025-05-28,水岡建設株式会社,,株式会社,大阪府,東大阪市,東石切町１丁目２番３９号,,27,227,5798011,,,,,,,2025-05-28,1,,,,,ミズオカケンセツ,0
1832,7130001079782,新規,0,2025-05-28,2025-05-28,株式会社境渡,,株式会社,京都府,城陽市,寺田大谷１１４番地の２１,,26,207,6100121,,,,,,,2025-05-28,1,,,,,キョウト,0
1833,7130005017375,新規,0,2025-05-28,2025-05-28,一般社団法人マリッジカルチャー協会,,その他の設立登記法人,京都府,京都市下京区,小稲荷町８５－２Ｇｒａｎｄ－Ｋ京都駅前ビル２０１,,26,106,6008208,,,,,,,2025-05-28,1,,,,,マリッジカルテャーキョウカイ,0
1840,7140001138678,新規,0,2025-05-28,2025-05-28,株式会社ｅｇｇ,,株式会社,兵庫県,尼崎市,竹谷町３丁目８９番地４,,28,202,6600876,,,,,,,2025-05-28,1,,,,,エッグ,0
1841,7140001138694,新規,0,2025-05-28,2025-05-28,株式会社赤松商店,,株式会社,兵庫県,神戸市中央区,栄町通１丁目２番２５号,,28,110,6500023,,,,,,,2025-05-28,1,,,,,アカマツショウテン,0
1842,7140001138703,新規,0,2025-05-28,2025-05-28,盛和株式会社,,株式会社,兵庫県,宝塚市,山手台東４丁目１８番１８号,,28,214,6650887,,,,,,,2025-05-28,1,,,,,セイワ,0
1843,7140001138711,新規,0,2025-05-28,2025-05-28,株式会社三浦牧場,,株式会社,兵庫県,川西市,見野２丁目１４番２０号,,28,217,6660105,,,,,,,2025-05-28,1,,,,,ミウラボクジョウ,0
1844,7140001138736,新規,0,2025-05-28,2025-05-28,甘露株式会社,,株式会社,兵庫県,神戸市長田区,庄田町２丁目５番１１－８０１号,,28,106,6530035,,,,,,,2025-05-28,1,,,,,カンロ,0
1845,7140003022112,新規,0,2025-05-28,2025-05-28,合同会社にこ,,合同会社,兵庫県,姫路市,東今宿３丁目８番２０－７０２号,,28,201,6700056,,,,,,,2025-05-28,1,,,,,ニコ,0
1857,7180001166948,新規,0,2025-05-28,2025-05-28,株式会社ＳＫＲ,,株式会社,愛知県,瀬戸市,みずの坂２丁目５２番地,,23,204,4890909,,,,,,,2025-05-28,1,,,,,エスケーアール,0
1858,7180001166972,新規,0,2025-05-28,2025-05-28,株式会社ｆｌａｖｅｒ,,株式会社,愛知県,名古屋市中村区,名駅４丁目５番２６号３Ｆ,,23,105,4500002,,,,,,,2025-05-28,1,,,,,フレイバー,0
1859,7180001167013,新規,0,2025-05-28,2025-05-28,成和ＨＤ株式会社,,株式会社,愛知県,津島市,白浜町字平堤７７番地２,,23,208,4960016,,,,,,,2025-05-28,1,,,,,セイワホールディングス,0
1867,7180301039829,新規,0,2025-05-28,2025-05-28,ＯＣＥＡＮＳ株式会社,,株式会社,愛知県,西尾市,吉良町吉田船戸８７番地,,23,213,4440516,,,,,,,2025-05-28,1,,,,,オーシャンズ,0
1868,7180301039837,新規,0,2025-05-28,2025-05-28,株式会社ごんだホールディングス,,株式会社,愛知県,新城市,庭野字東植田３８番地の１,,23,221,4411331,,,,,,,2025-05-28,1,,,,,ゴンダホールディングス,0
1871,7180303006587,新規,0,2025-05-28,2025-05-28,合同会社Ａｉｏｓ,,合同会社,愛知県,西尾市,吉良町富好新田上川並９９番地２,,23,213,4440515,,,,,,,2025-05-28,1,,,,,アイオス,0
1874,7200001043830,新規,0,2025-05-28,2025-05-28,株式会社汝己ヲ律セヨ,,株式会社,岐阜県,高山市,三福寺町１６１０番地５,,21,203,5060807,,,,,,,2025-05-28,1,,,,,ナンジオノレヲリッセヨ,0
1875,7200001043839,新規,0,2025-05-28,2025-05-28,Ａｚａｎトレーディング株式会社,,株式会社,岐阜県,大垣市,長松町８８９番地１木下ビル２階,,21,202,5030997,,,,,,,2025-05-28,1,,,,,アザントレーディング,0
1879,7220001026701,新規,0,2025-05-28,2025-05-28,株式会社あいらいく,,株式会社,石川県,白山市,福留町２００５番地,,17,210,9240051,,,,,,,2025-05-28,1,,,,,アイライク,0
1881,7230001020926,新規,0,2025-05-28,2025-05-28,株式会社ふじ居,,株式会社,富山県,富山市,東岩瀬町９３番地,,16,201,9318358,,,,,,,2025-05-28,1,,,,,フジイ,0
1883,7240001065004,新規,0,2025-05-28,2025-05-28,株式会社ＴＫＹ,,株式会社,広島県,広島市西区,東観音町１１－６,,34,104,7330032,,,,,,,2025-05-28,1,,,,,ティーケイワイ,0
1888,7260003005187,新規,0,2025-05-28,2025-05-28,Ｒｅ合同会社,,合同会社,岡山県,津山市,高尾９１８番地,,33,203,7080876,,,,,,,2025-05-28,1,,,,,アールイー,0
1890,7280001009428,新規,0,2025-05-28,2025-05-28,イワミアートジャパン株式会社,,株式会社,島根県,益田市,遠田町３８１５番地１,,32,204,6993676,,,,,,,2025-05-28,1,,,,,イワミアートジャパン,0
1892,7280003001952,新規,0,2025-05-28,2025-05-28,合同会社ＧＯＡＴＳＩＬＫ,,合同会社,島根県,松江市,上乃木７丁目１０番８号永原ビル２階,,32,201,6900015,,,,,,,2025-05-28,1,,,,,ゴートシルク,0
1897,7290001110102,新規,0,2025-05-28,2025-05-28,株式会社田中技建,,株式会社,福岡県,朝倉市,比良松６０４番地２,,40,228,8381303,,,,,,,2025-05-28,1,,,,,タナカギケン,0
1898,7290001110110,新規,0,2025-05-28,2025-05-28,ＣｏＲｏｏｔ株式会社,,株式会社,福岡県,福岡市博多区,吉塚２丁目３－２３吉塚ＡＧビル５０３号室,,40,132,8120041,,,,,,,2025-05-28,1,,,,,コールーツ,0
1900,7290003016909,新規,0,2025-05-28,2025-05-28,合同会社Ｋ．Ｏ,,合同会社,福岡県,福岡市博多区,東平尾１丁目１６－４５－１０１,,40,132,8120853,,,,,,,2025-05-28,1,,,,,ケオウ,0
1901,7290003016917,新規,0,2025-05-28,2025-05-28,合同会社開幕,,合同会社,福岡県,福岡市早良区,原６丁目９－１７－２０５,,40,137,8140022,,,,,,,2025-05-28,1,,,,,カイマク,0
1905,7300003002287,新規,0,2025-05-28,2025-05-28,合同会社ＴＳＵＮＡＧＵ,,合同会社,佐賀県,唐津市,二タ子３丁目１０番１０号,,41,202,8470861,,,,,,,2025-05-28,1,,,,,ツナグ,0
1913,7340001027373,新規,0,2025-05-28,2025-05-28,株式会社ぼちぼちニューロ・ラボ,,株式会社,鹿児島県,鹿児島市,武１丁目１９番２７号,,46,201,8900045,,,,,,,2025-05-28,1,,,,,ボチボチニューロラボ,0
1915,7350001019551,新規,0,2025-05-28,2025-05-28,株式会社ＴＳＵＮＡＧＵ,,株式会社,宮崎県,宮崎市,佐土原町東上那珂１６７８０番地１５,,45,201,8800303,,,,,,,2025-05-28,1,,,,,ツナグ,0
1918,7360001035259,新規,0,2025-05-28,2025-05-28,株式会社あけみお不動産,,株式会社,沖縄県,名護市,字伊差川６番地,,47,209,9051152,,,,,,,2025-05-28,1,,,,,アケミオフドウサン,0
1922,7360003014962,新規,0,2025-05-28,2025-05-28,合同会社ＧＵ‐ＡＣＣＥＳＳ,,合同会社,沖縄県,宜野湾市,志真志１丁目２０番８号,,47,205,9012213,,,,,,,2025-05-28,1,,,,,ジーユーアクセス,0
1926,7370003007115,新規,0,2025-05-28,2025-05-28,合同会社Ｃｏｅｕｒ　Ｄｏｕｘ,,合同会社,宮城県,仙台市青葉区,花京院１丁目２番１５号仙台ソララプラザ３階,,04,101,9800013,,,,,,,2025-05-28,1,,,,,コールドゥ,0
1933,7390001017997,新規,0,2025-05-28,2025-05-28,株式会社ＭＫ　Ｎｉｈｏｎ　Ｔｒａｄｉｎｇ,,株式会社,山形県,鶴岡市,三瀬字宮ノ前９１－１７,,06,203,9997463,,,,,,,2025-05-28,1,,,,,エムケーニホントレーディング,0
1939,7410001014166,新規,0,2025-05-28,2025-05-28,株式会社わつなぎ,,株式会社,秋田県,仙北市,田沢湖生保内字駒ヶ岳２番地６８,,05,215,0141201,,,,,,,2025-05-28,1,,,,,ワツナギ,0
1943,7430001094495,新規,0,2025-05-28,2025-05-28,アール・カンパニー株式会社,,株式会社,北海道,石狩郡当別町,樺戸町１０８番地５,,01,303,0610218,,,,,,,2025-05-28,1,,,,,アールカンパニー,0
1944,7430001094504,新規,0,2025-05-28,2025-05-28,ＴＡＫＥ‐Ｂ株式会社,,株式会社,北海道,札幌市東区,伏古十二条４丁目２番５号,,01,103,0070872,,,,,,,2025-05-28,1,,,,,テイクビー,0
1945,7430001094512,新規,0,2025-05-28,2025-05-28,株式会社上島ＴＣＳ事務所．,,株式会社,北海道,札幌市豊平区,月寒東三条６丁目５番２３号,,01,105,0620053,,,,,,,2025-05-28,1,,,,,カミジマティーシーエスジムショ,0
1946,7430001094520,新規,0,2025-05-28,2025-05-28,株式会社ＯＨＴ,,株式会社,北海道,札幌市北区,北二十五条西１６丁目５番３２号新宅新興ビル３階,,01,102,0010025,,,,,,,2025-05-28,1,,,,,オーエイチティー,0
1947,7430003017636,新規,0,2025-05-28,2025-05-28,合同会社ＳＴｉＮ,,合同会社,北海道,札幌市中央区,南五条西６丁目９番地３ニュー桂和ビル５階,,01,101,0640805,,,,,,,2025-05-28,1,,,,,スティン,0
1948,7430003017702,新規,0,2025-05-28,2025-05-28,合同会社けんたす,,合同会社,北海道,札幌市北区,新琴似四条４丁目６番７号,,01,102,0010904,,,,,,,2025-05-28,1,,,,,ケンタス,0
1950,7470001020720,新規,0,2025-05-28,2025-05-28,まるいち製麺所株式会社,,株式会社,香川県,坂出市,府中町５１４４番地５,,37,203,7620024,,,,,,,2025-05-28,1,,,,,マルイチセイメンショ,0
1953,7700150042079,新規,0,2025-05-28,2015-10-09,名古屋西青色申告会,,その他,愛知県,名古屋市西区,花の木１丁目１０－１３,,23,104,4510062,,,,,,,2015-10-09,1,,,,,ナゴヤニシアオイロシンコクカイ,0
1954,7700150130726,新規,0,2025-05-28,2025-05-28,Ｓｕ　Ｚｈｏｕ　Ｙｏｕ　Ｓｈａｎ　Ｙｉ　Ｃｈｅｎｇ　ＥＣｏｍｍｅｒｃｅ　Ｃｏ　Ｌｔｄ,,外国会社等,,,,,,,,Ｎｏ．１８８　Ｔｏｎｇｌｉ　Ｌａｋｅ　Ｒｏａｄ，Ｗｕｊｉａｎｇ　Ｅｃｏｎｏｍｉｃ　ａｎｄ　Ｔｅｃｈｎｏｌｏｇｉｃａｌ　Ｄｅｖｅｌｏｐｍｅｎｔ　Ｚｏｎｅ（Ｔｏｎｇｌｉ　Ｔｏｗｎ），Ｓｕｚｈｏｕ，Ｊｉａｎｇｓｕ　Ｐｒｏｖｉｎｃｅ，２１５０００，Ｃｈｉｎａ,,,,,,2025-05-28,1,,,,,スージョウヨウシャンイーチョンディエンズーシャンウーヨウシエンゴンスー,0
1957,8010001255345,新規,0,2025-05-28,2025-05-28,株式会社ＴＲＡＸ　ＴＯＫＹＯ,,株式会社,東京都,中央区,銀座７丁目１３番４号田辺ビル３階,,13,102,1040061,,,,,,,2025-05-28,1,,,,,トラックストウキョウ,0
1958,8010001255394,新規,0,2025-05-28,2025-05-28,株式会社ボットウス,,株式会社,東京都,中央区,日本橋室町１丁目１１番１２号日本橋水野ビル７階,,13,102,1030022,,,,,,,2025-05-28,1,,,,,ボットウス,0
1959,8010001255403,新規,0,2025-05-28,2025-05-28,株式会社ビープラス,,株式会社,東京都,千代田区,神田東松下町３７番地２,,13,101,1010042,,,,,,,2025-05-28,1,,,,,ビープラス,0
1963,8010003047451,新規,0,2025-05-28,2025-05-28,心咲合同会社,,合同会社,東京都,中央区,銀座４丁目１０番１４ＡＣＮ銀座４ビルティング９Ｆ,,13,102,1040061,,,,,,,2025-05-28,1,,,,,コエ,0
1964,8010005040099,新規,0,2025-05-28,2025-05-28,ラトゥール一般社団法人,,その他の設立登記法人,東京都,千代田区,平河町１丁目６番１５号シルスフィア会計事務所内,,13,101,1020093,,,,,,,2025-05-28,1,,,,,ラトゥール,0
1965,8010101016696,新規,0,2025-05-28,2025-05-28,株式会社ＮａｚｕＫｉｚｕｎａ,,株式会社,東京都,八王子市,大塚２７４番地２９、２０７号,,13,201,1920352,,,,,,,2025-05-28,1,,,,,ナヅキズナ,0
1966,8010103002579,新規,0,2025-05-28,2025-05-28,合同会社アカツキ通信,,合同会社,東京都,八王子市,暁町２丁目３番１０号,,13,201,1920043,,,,,,,2025-05-28,1,,,,,アカツキツウシン,0
1970,8010401190539,新規,0,2025-05-28,2025-05-28,辰星株式会社,,株式会社,東京都,港区,六本木６丁目１０番１号六本木ヒルズ森タワー２３階,,13,103,1060032,,,,,,,2025-05-28,1,,,,,シンセイ,0
1971,8010401190555,新規,0,2025-05-28,2025-05-28,株式会社イーエヌ,,株式会社,東京都,港区,東新橋１丁目１０番２号,,13,103,1050021,,,,,,,2025-05-28,1,,,,,イーエヌ,0
1972,8010401190571,新規,0,2025-05-28,2025-05-28,Ｃｏｍｍｕ　Ｐｒｏ株式会社,,株式会社,東京都,港区,元麻布３丁目１１番６号ドム麻布４Ａ,,13,103,1060046,,,,,,,2025-05-28,1,,,,,コミュプロ,0
1977,8010403035213,新規,0,2025-05-28,2025-05-28,合同会社ｈａｉＢｏ,,合同会社,東京都,港区,南麻布２丁目１５番５号,,13,103,1060047,,,,,,,2025-05-28,1,,,,,ハイボ,0
1978,8010405024420,新規,0,2025-05-28,2025-05-28,雲取山一般社団法人,,その他の設立登記法人,東京都,港区,六本木１丁目６番１号泉ガーデンタワーＫＰＭＧ税理士法人内,,13,103,1060032,,,,,,,2025-05-28,1,,,,,クモトリヤマ,0
1983,8010601067355,新規,0,2025-05-28,2025-05-28,株式会社ＨＪホールディングス,,株式会社,東京都,江東区,辰巳３丁目１５番３号,,13,108,1350053,,,,,,,2025-05-28,1,,,,,エイチジェイホールディングス,0
1988,8010603011591,新規,0,2025-05-28,2025-05-28,合同会社Ｒｉｖｉｑｕｅ　Ｓｔｕｄｉｏ,,合同会社,東京都,江東区,有明２丁目１番３－１１０９号,,13,108,1350063,,,,,,,2025-05-28,1,,,,,リヴィークスタジオ,0
1990,8010701047777,新規,0,2025-05-28,2025-05-28,クレイン株式会社,,株式会社,東京都,品川区,東五反田３丁目１９番２号,,13,109,1410022,,,,,,,2025-05-28,1,,,,,クレイン,0
1993,8010803005410,新規,0,2025-05-28,2025-05-28,合同会社ＬＩＭ,,合同会社,東京都,大田区,東馬込１丁目１９番１号,,13,111,1430022,,,,,,,2025-05-28,1,,,,,リム,0
1994,8010901057444,新規,0,2025-05-28,2025-05-28,株式会社３６０ｃ,,株式会社,東京都,世田谷区,梅丘２丁目２１番１６号,,13,112,1540022,,,,,,,2025-05-28,1,,,,,サンロクゼロシー,0
1995,8010903009939,新規,0,2025-05-28,2025-05-28,イーミアエステート合同会社,,合同会社,東京都,世田谷区,桜丘１丁目８番１４号,,13,112,1560054,,,,,,,2025-05-28,1,,,,,イーミアエステート,0
1999,8011001169675,新規,0,2025-05-28,2025-05-28,ＷｅａｖｅＸ株式会社,,株式会社,東京都,渋谷区,道玄坂１丁目１０番８号渋谷道玄坂東急ビル２Ｆ－Ｃ,,13,113,1500043,,,,,,,2025-05-28,1,,,,,ウィーブエックス,0
2004,8011101111751,新規,0,2025-05-28,2025-05-28,東昇株式会社,,株式会社,東京都,新宿区,中井２丁目７番７号エクスクルーシヴ中井２０１号室,,13,104,1610035,,,,,,,2025-05-28,1,,,,,トウショウ,0
2005,8011101111826,新規,0,2025-05-28,2025-05-28,株式会社希つな,,株式会社,東京都,新宿区,西新宿３丁目３－１３,,13,104,1600023,,,,,,,2025-05-28,1,,,,,キツナ,0
2007,8011103015934,新規,0,2025-05-28,2025-05-28,合同会社繁冨綾,,合同会社,東京都,新宿区,南元町２０番地３ガーデンヒルズ四ツ谷迎賓の森４２０,,13,104,1600012,,,,,,,2025-05-28,1,,,,,シゲトミアヤ,0
2008,8011103015942,新規,0,2025-05-28,2025-05-28,合同会社くるみ,,合同会社,東京都,新宿区,西早稲田１丁目２３番１３号ＡＺ西早稲田３０２号室,,13,104,1690051,,,,,,,2025-05-28,1,,,,,クルミ,0
2009,8011203004713,新規,0,2025-05-28,2025-05-28,スマイルエイト合同会社,,合同会社,東京都,中野区,上高田３丁目１７番１０号メゾンドソレイユ２０１,,13,114,1640002,,,,,,,2025-05-28,1,,,,,スマイルエイト,0
2012,8011301030603,新規,0,2025-05-28,2025-05-28,芸鵬株式会社,,株式会社,東京都,杉並区,梅里２丁目２５番１３号高円寺プラザ２１２号,,13,115,1660011,,,,,,,2025-05-28,1,,,,,,0
2016,8011601028685,新規,0,2025-05-28,2025-05-28,Ｂ７株式会社,,株式会社,東京都,練馬区,大泉町３丁目８番５号,,13,120,1780062,,,,,,,2025-05-28,1,,,,,ビーセブン,0
2020,8011801046198,新規,0,2025-05-28,2025-05-28,株式会社ＺＥＮ,,株式会社,東京都,足立区,西新井５丁目３５番１６号,,13,121,1230841,,,,,,,2025-05-28,1,,,,,ゼン,0
2021,8011803006860,新規,0,2025-05-28,2025-05-28,ＣＯＬＬＩＮＳ　ＥＮＴＥＲＰＲＩＳＥ合同会社,,合同会社,東京都,葛飾区,小菅３丁目１２番８号,,13,122,1240001,,,,,,,2025-05-28,1,,,,,コリンスエンタープライズ,0
2022,8011803006877,新規,0,2025-05-28,2025-05-28,合同会社ＤＮＳ,,合同会社,東京都,足立区,竹の塚１丁目３０番２５号,,13,121,1210813,,,,,,,2025-05-28,1,,,,,ディーエヌエス,0
2023,8012401043115,新規,0,2025-05-28,2025-05-28,雲逍株式会社,,株式会社,東京都,武蔵野市,御殿山１丁目３番７号,,13,203,1800005,,,,,,,2025-05-28,1,,,,,ウンショウ,0
2024,8012401043156,新規,0,2025-05-28,2025-05-28,株式会社北財設備工業,,株式会社,東京都,府中市,若松町３丁目１５番地の２ヴィラジラーチアルファ２０１,,13,206,1830005,,,,,,,2025-05-28,1,,,,,ホクザイセツビコウギョウ,0
2025,8012803003749,新規,0,2025-05-28,2025-05-28,合同会社Ｄｉａｒｙ,,合同会社,東京都,国分寺市,本町２丁目７番２号ハウスアメニティ９９－８０５号室,,13,214,1850012,,,,,,,2025-05-28,1,,,,,ダイアリー,0
2029,8013301054375,新規,0,2025-05-28,2025-05-28,株式会社Ｕ＆Ｈ,,株式会社,東京都,豊島区,池袋２丁目５７番地６号ＭＣオフィス池袋西口１０２号室,,13,116,1710014,,,,,,,2025-05-28,1,,,,,ユーアンドエイチ,0
2033,8020001163068,新規,0,2025-05-28,2025-05-28,株式会社ＹＡＭＡＮＥ,,株式会社,神奈川県,川崎市高津区,下作延４丁目１８番２８号,,14,134,2130033,,,,,,,2025-05-28,1,,,,,,0
2035,8020002109202,新規,0,2025-05-28,2025-05-28,有限会社間門建設,,有限会社,神奈川県,横浜市中区,本牧間門３０番２７号,,14,104,2310825,,,,,,,2025-05-28,1,,,,,マカドケンセツ,0
2036,8020003028566,新規,0,2025-05-28,2025-05-28,合同会社福祉交流ラウンジ,,合同会社,神奈川県,横浜市中区,弥生町２丁目１５－１ストークタワー大通公園ＩＩＩ７０３,00139333,14,104,2310058,,,,,,,2025-05-28,1,,,,,フクシコウリュウラウンジ,0
2041,8021001085310,新規,0,2025-05-28,2025-05-28,誠策株式会社,,株式会社,神奈川県,相模原市中央区,矢部１丁目１５番２２号ライオンズマンション第６、４１１,,14,152,2520232,,,,,,,2025-05-28,1,,,,,セイサク,0
2042,8021001085327,新規,0,2025-05-28,2025-05-28,エフスタイル株式会社,,株式会社,神奈川県,茅ヶ崎市,萩園２２８５番地１ウィステリア１０１,,14,207,2530071,,,,,,,2025-05-28,1,,,,,エフスタイル,0
2043,8021001085351,新規,0,2025-05-28,2025-05-28,Ｙ’ｓ　Ｅｎｅｒｇｙ株式会社,,株式会社,神奈川県,相模原市中央区,田名４８８３番地３,,14,152,2520244,,,,,,,2025-05-28,1,,,,,ワイズエナジー,0
2045,8021003016032,新規,0,2025-05-28,2025-05-28,合同会社アップルヘッド,,合同会社,神奈川県,相模原市緑区,田名２２６９－５,,14,151,2520124,,,,,,,2025-05-28,1,,,,,アップルヘッド,0
2046,8021003016049,新規,0,2025-05-28,2025-05-28,スパークエッジ合同会社,,合同会社,神奈川県,大和市,つきみ野５丁目３番地市営つきみ野住宅１－２０４,,14,213,2420002,,,,,,,2025-05-28,1,,,,,スパークエッジ,0
2047,8021003016057,新規,0,2025-05-28,2025-05-28,Ｍ２ｆｌｏｗｓ合同会社,,合同会社,神奈川県,藤沢市,鵠沼石上１丁目５番９号メガサンエスビル６階,00139338,14,205,2510025,,,,,,,2025-05-28,1,,,,,エムツーフロウズ,0
2054,8030001166607,新規,0,2025-05-28,2025-05-28,株式会社ＳＯＫＵＳＨＩＮ,,株式会社,埼玉県,川口市,芝中田２丁目４７番８号,,11,203,3330847,,,,,,,2025-05-28,1,,,,,ソクシン,0
2055,8030001166747,新規,0,2025-05-28,2025-05-28,株式会社あかつき空調,,株式会社,埼玉県,所沢市,大字松郷７０番地の４５,,11,208,3590027,,,,,,,2025-05-28,1,,,,,アカツキクウチョウ,0
2058,8030003026841,新規,0,2025-05-28,2025-05-28,合同会社ナカノウッドワークス,,合同会社,埼玉県,春日部市,大場１１３８番地２高橋ファースト商事第二店舗２０７,,11,214,3440021,,,,,,,2025-05-28,1,,,,,ナカノウッドワークス,0
2065,8040001138836,新規,0,2025-05-28,2025-05-28,湾岸商事株式会社,,株式会社,千葉県,千葉市花見川区,長作町１３６３番地２－１０３,,12,102,2620044,,,,,,,2025-05-28,1,,,,,ワンガンショウジ,0
2066,8040001138919,新規,0,2025-05-28,2025-05-28,株式会社ＶＩＮＥ,,株式会社,千葉県,流山市,流山４丁目４０８番地２階,,12,220,2700164,,,,,,,2025-05-28,1,,,,,バイン,0
2067,8040001138935,新規,0,2025-05-28,2025-05-28,株式会社ばす家,,株式会社,千葉県,印西市,草深２５３０番地６０,,12,231,2701337,,,,,,,2025-05-28,1,,,,,バスケ,0
2068,8040001138951,新規,0,2025-05-28,2025-05-28,株式会社シマサイノス,,株式会社,千葉県,流山市,名都借２０１番地の３,,12,220,2700145,,,,,,,2025-05-28,1,,,,,シマサイノス,0
2073,8040003027681,新規,0,2025-05-28,2025-05-28,合同会社バル,,合同会社,千葉県,鎌ケ谷市,東初富４丁目３番３－７号,,12,224,2730122,,,,,,,2025-05-28,1,,,,,バル,0
2076,8060001038233,新規,0,2025-05-28,2025-05-28,株式会社あおいろ経営,,株式会社,栃木県,佐野市,大和町２５９６番地,,09,204,3270027,,,,,,,2025-05-28,1,,,,,アオイロケイエイ,0
2077,8060001038241,新規,0,2025-05-28,2025-05-28,株式会社ロダン,,株式会社,栃木県,真岡市,高勢町２丁目４５番地８,,09,209,3214341,,,,,,,2025-05-28,1,,,,,ロダン,0
2082,8080101025518,新規,0,2025-05-28,2025-05-28,株式会社ＲＥヴェルディ,,株式会社,静岡県,沼津市,青野４２１番地,,22,203,4100307,,,,,,,2025-05-28,1,,,,,アールイーヴェルディ,0
2096,8120001276198,新規,0,2025-05-28,2025-05-28,ＮＩ電気株式会社,,株式会社,大阪府,大阪市旭区,生江２丁目１３番１５号,,27,117,5350004,,,,,,,2025-05-28,1,,,,,エヌアイデンキ,0
2097,8120001276231,新規,0,2025-05-28,2025-05-28,株式会社Ｔ．Ｆ．Ｏ,,株式会社,大阪府,大阪市西成区,萩之茶屋２丁目１０番２号紅梅荘２階,,27,122,5570004,,,,,,,2025-05-28,1,,,,,ティーエフオー,0
2100,8120003029208,新規,0,2025-05-28,2025-05-28,ゆぅじん合同会社,,合同会社,大阪府,大阪市生野区,新今里６丁目３番８号,,27,116,5440001,,,,,,,2025-05-28,1,,,,,ユゥジン,0
2101,8120003029579,新規,0,2025-05-28,2025-05-28,合同会社ｓｈｏｅ　ｗｈｉｔｅ,,合同会社,大阪府,大阪市中央区,南本町４丁目２番２１号,,27,128,5410054,,,,,,,2025-05-28,1,,,,,シューホワイト,0
2102,8120003029587,新規,0,2025-05-28,2025-05-28,合同会社夢香,,合同会社,大阪府,大阪市東住吉区,桑津３丁目２４番４号,,27,121,5460041,,,,,,,2025-05-28,1,,,,,ユメカ,0
2103,8120003029620,新規,0,2025-05-28,2025-05-28,Ｃｒｏｓｔｒａ合同会社,,合同会社,大阪府,大阪市北区,梅田１丁目１‐３大阪駅前第３ビル２９階１‐１‐１号室,,27,127,5300001,,,,,,,2025-05-28,1,,,,,クロストラ,0
2104,8120101071739,新規,0,2025-05-28,2025-05-28,株式会社ネオ・リンク関西,,株式会社,大阪府,河内長野市,向野町５１１,,27,216,5860013,,,,,,,2025-05-28,1,,,,,ネオリンクカンサイ,0
2105,8120101071747,新規,0,2025-05-28,2025-05-28,株式会社リライズ,,株式会社,大阪府,堺市東区,中茶屋１番地６３,,27,143,5998128,,,,,,,2025-05-28,1,,,,,リライズ,0
2106,8120101071763,新規,0,2025-05-28,2025-05-28,ＭｉｒｏｋｕＷｏｒｋｓ株式会社,,株式会社,大阪府,堺市堺区,翁橋町１丁１番１号,,27,141,5900061,,,,,,,2025-05-28,1,,,,,ミロクワークス,0
2108,8120901050933,新規,0,2025-05-28,2025-05-28,株式会社ＦＵＬＬＥＳＴ,,株式会社,大阪府,豊中市,庄内栄町１丁目４番１号,,27,203,5610834,,,,,,,2025-05-28,1,,,,,フレスト,0
2109,8120903005687,新規,0,2025-05-28,2025-05-28,合同会社四梵住,,合同会社,大阪府,吹田市,千里丘北１番２０－１２２８号,,27,205,5650815,,,,,,,2025-05-28,1,,,,,シボンジュウ,0
2111,8122001039262,新規,0,2025-05-28,2025-05-28,株式会社リアンラポート,,株式会社,大阪府,東大阪市,西岩田４丁目６番３号,,27,227,5780947,,,,,,,2025-05-28,1,,,,,リアンラポート,0
2112,8130001079708,新規,0,2025-05-28,2025-05-28,ＪＬＡＰ株式会社,,株式会社,京都府,京都市北区,紫野中柏野町２２－３,,26,101,6038312,,,,,,,2025-05-28,1,,,,,ジェイエルエーピー,0
2113,8130001079757,新規,0,2025-05-28,2025-05-28,吉技建設株式会社,,株式会社,京都府,亀岡市,曽我部町重利矢折２７番地,,26,206,6210021,,,,,,,2025-05-28,1,,,,,ヨシギケンセツ,0
2114,8130001079765,新規,0,2025-05-28,2025-05-28,株式会社ＲＯＳＥ,,株式会社,京都府,京都市左京区,岩倉南四ノ坪町１２番地２,,26,103,6060033,,,,,,,2025-05-28,1,,,,,ロゼ,0
2115,8130001079773,新規,0,2025-05-28,2025-05-28,株式会社Ｆｕｎｐａｓｓ,,株式会社,京都府,京都市中京区,東洞院通御池下る笹屋町４４５番地日宝烏丸ビル４階,,26,104,6048187,,,,,,,2025-05-28,1,,,,,ファンパス,0
2117,8130003010496,新規,0,2025-05-28,2025-05-28,ＡＩＣ不動産合同会社,,合同会社,京都府,京都市左京区,田中玄京町３番地３,,26,103,6068201,,,,,,,2025-05-28,1,,,,,エーアイシーフドウサン,0
2118,8130005017374,新規,0,2025-05-28,2025-05-28,一般社団法人日本絵本セレクター協会,,その他の設立登記法人,京都府,京都市左京区,頭町３５１番地,,26,103,6068354,,,,,,,2025-05-28,1,,,,,ニホンエホンセレクターキョウカイ,0
2123,8140001138677,新規,0,2025-05-28,2025-05-28,株式会社ＣａｎＸ,,株式会社,兵庫県,神戸市須磨区,若木町１丁目７番１１号,,28,107,6540014,,,,,,,2025-05-28,1,,,,,キャネックス,0
2124,8140001138685,新規,0,2025-05-28,2025-05-28,株式会社エンデバーホーム,,株式会社,兵庫県,西宮市,山口町下山口５丁目１７番１３リバティービル２０１号,,28,204,6511412,,,,,,,2025-05-28,1,,,,,エンデバーホーム,0
2125,8140001138710,新規,0,2025-05-28,2025-05-28,株式会社アバウトタイム,,株式会社,兵庫県,西宮市,苦楽園四番町５番５９号,,28,204,6620088,,,,,,,2025-05-28,1,,,,,アバウトタイム,0
2126,8140001138727,新規,0,2025-05-28,2025-05-28,株式会社ＪＹＯＥＩ,,株式会社,兵庫県,尼崎市,稲葉元町３丁目１番１５号２Ｆ,,28,202,6600055,,,,,,,2025-05-28,1,,,,,ジョウエイ,0
2127,8140001138735,新規,0,2025-05-28,2025-05-28,株式会社西島商事,,株式会社,兵庫県,姫路市,家島町真浦２５１９番地,,28,201,6720101,,,,,,,2025-05-28,1,,,,,ニシジマショウジ,0
2128,8140001138743,新規,0,2025-05-28,2025-05-28,博石株式会社,,株式会社,兵庫県,神戸市兵庫区,南仲町１番５号南仲ＴＯビル３０９号室,,28,105,6520841,,,,,,,2025-05-28,1,,,,,ハクセキ,0
2130,8140003022111,新規,0,2025-05-28,2025-05-28,ＨｉｔｏＴｏｋｉ合同会社,,合同会社,兵庫県,芦屋市,親王塚町９番２２－２０１号,,28,206,6590016,,,,,,,2025-05-28,1,,,,,ヒトトキ,0
2134,8150001028159,新規,0,2025-05-28,2025-05-28,株式会社ＳＴＥ,,株式会社,奈良県,北葛城郡河合町,久美ケ丘１丁目１番地１０,,29,427,6360063,,,,,,,2025-05-28,1,,,,,エスティーイー,0
2143,8180001166939,新規,0,2025-05-28,2025-05-28,株式会社Ｆａｃｔｏｔｕｍ,,株式会社,愛知県,一宮市,多加木３丁目２番４０号ル・シエル多加木１０２号,,23,203,4910837,,,,,,,2025-05-28,1,,,,,ファクトタム,0
2144,8180001166947,新規,0,2025-05-28,2025-05-28,株式会社極東,,株式会社,愛知県,あま市,小路３丁目５番地３,,23,237,4901106,,,,,,,2025-05-28,1,,,,,キョクトウ,0
2145,8180001166955,新規,0,2025-05-28,2025-05-28,しまうま不動産株式会社,,株式会社,愛知県,名古屋市中村区,小鴨町１０６番地,,23,105,4530844,,,,,,,2025-05-28,1,,,,,シマウマフドウサン,0
2146,8180001166996,新規,0,2025-05-28,2025-05-28,中京ネクシア株式会社,,株式会社,愛知県,名古屋市北区,平安２丁目２５番２７号,,23,103,4620819,,,,,,,2025-05-28,1,,,,,チュウキョウネクシア,0
2147,8180001167020,新規,0,2025-05-28,2025-05-28,株式会社エフォートレス,,株式会社,愛知県,名古屋市天白区,土原４丁目１８８番地,,23,116,4680026,,,,,,,2025-05-28,1,,,,,エフォートレス,0
2148,8180003028526,新規,0,2025-05-28,2025-05-28,合同会社ゼットエフシー,,合同会社,愛知県,名古屋市中村区,名駅４丁目２４番５号第２森ビル４０１,,23,105,4500002,,,,,,,2025-05-28,1,,,,,ゼットエフシー,0
2149,8180003028534,新規,0,2025-05-28,2025-05-28,合同会社六児林,,合同会社,愛知県,名古屋市中区,新栄２丁目２５番４号・第２いづもビル３階・３０６号室,,23,106,4600007,,,,,,,2025-05-28,1,,,,,ムツゴバヤシ,0
2151,8180005021108,新規,0,2025-05-28,2025-05-28,一般社団法人ボーダーフリー,,その他の設立登記法人,愛知県,名古屋市中区,丸の内２丁目１番３０号丸の内オフィスフォーラム７０１,,23,106,4600002,,,,,,,2025-05-28,1,,,,,ボーダーフリー,0
2154,8180301039828,新規,0,2025-05-28,2025-05-28,株式会社リーブル,,株式会社,愛知県,豊橋市,神ノ輪町６８番地,,23,201,4418068,,,,,,,2025-05-28,1,,,,,リーブル,0
2157,8190003005037,新規,0,2025-05-28,2025-05-28,合同会社Ｉｒｏｈａｐｒｏｊｅｃｔ,,合同会社,三重県,松阪市,大黒田町８６４番地３,,24,204,5150063,,,,,,,2025-05-28,1,,,,,,0
2163,8200001043821,新規,0,2025-05-28,2025-05-28,株式会社２７ＡＵＴＯ,,株式会社,岐阜県,各務原市,鵜沼羽場町５丁目１３５番地２,,21,213,5090135,,,,,,,2025-05-28,1,,,,,ニイナナオート,0
2164,8200003006834,新規,0,2025-05-28,2025-05-28,ＤＲ　ＩＮＴＥＲＮＡＴＩＯＮＡＬ合同会社,,合同会社,岐阜県,土岐市,妻木町１２３番地,,21,212,5095301,,,,,,,2025-05-28,1,,,,,ディーアールインターナショナル,0
2165,8200003006850,新規,0,2025-05-28,2025-05-28,合同会社ぷらねくと代行,,合同会社,岐阜県,岐阜市,中屋東１０１番地１,,21,201,5012531,,,,,,,2025-05-28,1,,,,,プラネクトダイコウ,0
2166,8210001020183,新規,0,2025-05-28,2025-05-28,株式会社Ｃ‐ｙａｎ,,株式会社,福井県,福井市,板垣３丁目１５１１番地フルハウス板垣２０３号室,,18,201,9188104,,,,,,,2025-05-28,1,,,,,シーヤン,0
2168,8230001020925,新規,0,2025-05-28,2025-05-28,ＡＳＤ　ＭＯＴＯＲＳ株式会社,,株式会社,富山県,高岡市,戸出町４丁目８番４６号,,16,202,9391104,,,,,,,2025-05-28,1,,,,,エーエスディーモーターズ,0
2179,8260001040227,新規,0,2025-05-28,2025-05-28,株式会社プレミアムシート,,株式会社,岡山県,岡山市北区,柳町２丁目１１－２０,,33,101,7000904,,,,,,,2025-05-28,1,,,,,プレミアムシート,0
2189,8300003002286,新規,0,2025-05-28,2025-05-28,合同会社ｅｎｃｙ,,合同会社,佐賀県,小城市,小城町船田１５番地１,,41,208,8450011,,,,,,,2025-05-28,1,,,,,エンシー,0
2190,8320001021121,新規,0,2025-05-28,2025-05-28,株式会社ｈａｎａ　ｏｌｉ,,株式会社,大分県,大分市,大字上宗方５１９番地１コーポ宗方２０１,,44,201,8701152,,,,,,,2025-05-28,1,,,,,ハナオリ,0
2192,8330001033231,新規,0,2025-05-28,2025-05-28,株式会社湯守‐ｙｕｎｏｋａｍｉ,,株式会社,熊本県,熊本市南区,良町３丁目３番４７号,,43,104,8620969,,,,,,,2025-05-28,1,,,,,ユノカミ,0
2193,8350003004939,新規,0,2025-05-28,2025-05-28,合同会社杏カフェ,,合同会社,宮崎県,都城市,南横市町８２６９番地５,,45,202,8850092,,,,,,,2025-05-28,1,,,,,アンカフェ,0
2194,8360003014953,新規,0,2025-05-28,2025-05-28,合同会社ｍａ　ｖｉｅ,,合同会社,沖縄県,沖縄市,美原１丁目１７番７号シャトレ東３０１号室,,47,211,9042155,,,,,,,2025-05-28,1,,,,,マヴィ,0
2195,8360003014978,新規,0,2025-05-28,2025-05-28,合同会社ミディオ,,合同会社,沖縄県,宮古島市,平良字下里５７４番地４・２Ｆ,,47,214,9060013,,,,,,,2025-05-28,1,,,,,ミディオ,0
2199,8370001052608,新規,0,2025-05-28,2025-05-28,株式会社ＨＡＳＥＹＡ,,株式会社,宮城県,仙台市太白区,長町５丁目３番１－１００２号,,04,104,9820011,,,,,,,2025-05-28,1,,,,,ハセヤ,0
2200,8370001052624,新規,0,2025-05-28,2025-05-28,株式会社Ｓｔｙｌｅ　Ｏｎｅ,,株式会社,宮城県,塩竈市,白菊町３番１９号,,04,203,9850041,,,,,,,2025-05-28,1,,,,,スタイルワン,0
2203,8380003006049,新規,0,2025-05-28,2025-05-28,合同会社サンタ,,合同会社,福島県,須賀川市,和田字柏崎４５番地１ルミーナ須賀川１０５号,,07,207,9620813,,,,,,,2025-05-28,1,,,,,サンタ,0
2204,8380003006057,新規,0,2025-05-28,2025-05-28,合同会社ワイズベース,,合同会社,福島県,南相馬市,原町区大木戸字南原６４番地の１,,07,212,9750061,,,,,,,2025-05-28,1,,,,,ワイズベース,0
2215,8430001094486,新規,0,2025-05-28,2025-05-28,株式会社つむぎ商会,,株式会社,北海道,札幌市北区,屯田六条３丁目６番６号,,01,102,0020856,,,,,,,2025-05-28,1,,,,,ツムギショウカイ,0
2216,8430001094494,新規,0,2025-05-28,2025-05-28,株式会社Ｋｓ　ｃｏｎｓｔｒｕｃｔｉｏｎ,,株式会社,北海道,札幌市白石区,菊水七条２丁目３番１２－３０７号,,01,104,0030807,,,,,,,2025-05-28,1,,,,,ケーエスコンストラクション,0
2217,8430001094511,新規,0,2025-05-28,2025-05-28,ステラーマーキュリー株式会社,,株式会社,北海道,虻田郡倶知安町,北四条西３丁目３番地４,,01,400,0440054,,,,,,,2025-05-28,1,,,,,ステラーマーキュリー,0
2220,8450001014632,新規,0,2025-05-28,2025-05-28,株式会社ＡＲＴＩＳＡＮ,,株式会社,北海道,旭川市,北門町２１丁目２１６８番地７０,,01,204,0700825,,,,,,,2025-05-28,1,,,,,アルティザン,0
2227,8500003003520,新規,0,2025-05-28,2025-05-28,合同会社Ｒｅｖｏｌｖｅｘ,,合同会社,愛媛県,西条市,下島山甲７９３番地７,,38,206,7930006,,,,,,,2025-05-28,1,,,,,リボルベックス,0
2228,8700150130725,新規,0,2025-05-28,2025-05-28,Ｓｔｙｌｕｓ　Ｌｉｍｉｔｅｄ,,外国会社等,,,,,,,,２４０４，２４／Ｆ，Ｗｏｒｌｄ－Ｗｉｄｅ　Ｈｏｕｓｅ，１９　Ｄｅｓ　Ｖｏｅｕｘ　Ｒｏａｄ　Ｃｅｎｔｒａｌ，Ｃｅｎｔｒａｌ，Ｈｏｎｇ　Ｋｏｎｇ,,,,,,2025-05-28,1,,,,,シーダーラースーヨウシエンゴンスー,0
2234,9010001255369,新規,0,2025-05-28,2025-05-28,Ｂ・Ｐメンテナンス株式会社,,株式会社,東京都,千代田区,神田和泉町１番地６－１６ヤマトビル４０５,,13,101,1010024,,,,,,,2025-05-28,1,,,,,ビーピーメンテナンス,0
2236,9010003047467,新規,0,2025-05-28,2025-05-28,丸の内１ｓｔ合同会社,,合同会社,東京都,中央区,京橋２丁目１２番６号ＡＯＪ税理士法人内,,13,102,1040031,,,,,,,2025-05-28,1,,,,,マルノウチファースト,0
2239,9010005040098,新規,0,2025-05-28,2025-05-28,ラトゥール特定目的会社,,その他の設立登記法人,東京都,千代田区,平河町１丁目６番１５号シルスフィア会計事務所内,,13,101,1020093,,,,,,,2025-05-28,1,,,,,ラトゥール,0
2240,9010101016704,新規,0,2025-05-28,2025-05-28,ヤカモト電子株式会社,,株式会社,東京都,八王子市,石川町１１４５－７,,13,201,1920032,,,,,,,2025-05-28,1,,,,,ヤカモトデンシ,0
2247,9010401190488,新規,0,2025-05-28,2025-05-28,株式会社ＰＡＮＤＡＮＥＳＴ,,株式会社,東京都,港区,新橋４丁目１４番１新橋ＡＵＮＢＬＤＧ４階,,13,103,1050004,,,,,,,2025-05-28,1,,,,,パンダネスト,0
2248,9010401190538,新規,0,2025-05-28,2025-05-28,ＳＯＲＴＥ株式会社,,株式会社,東京都,港区,北青山１丁目３番１号アールキューブ青山３階,,13,103,1070061,,,,,,,2025-05-28,1,,,,,ソルテ,0
2249,9010401190554,新規,0,2025-05-28,2025-05-28,株式会社ＭＵＫ　Ｈｏｌｄｉｎｇｓ,,株式会社,東京都,港区,浜松町１丁目２９番６号浜松町セントラルビル２階,,13,103,1050013,,,,,,,2025-05-28,1,,,,,エムユーケーホールディングス,0
2250,9010401190570,新規,0,2025-05-28,2025-05-28,ａｄｖａｎｃｅｄ　ｓｔｏｒｅ株式会社,,株式会社,東京都,港区,西新橋１丁目２番９号日比谷セントラルビル１４階,,13,103,1050003,,,,,,,2025-05-28,1,,,,,アドバンストストア,0
2251,9010401190595,新規,0,2025-05-28,2025-05-28,株式会社Ｇｅｍ　Ｓｔｏｎｅ,,株式会社,東京都,港区,南青山２丁目１２番１６号石塚商事ビル３階,,13,103,1070062,,,,,,,2025-05-28,1,,,,,ジェムストーン,0
2256,9010403035204,新規,0,2025-05-28,2025-05-28,合同会社ＬＩＬＩＡＮ,,合同会社,東京都,港区,高輪４丁目２３番６－７０８号,,13,103,1080074,,,,,,,2025-05-28,1,,,,,リリアン,0
2257,9010403035212,新規,0,2025-05-28,2025-05-28,ＣＣＯ　Ｊａｐａｎ合同会社,,合同会社,東京都,港区,赤坂２丁目１２番７号赤坂二丁目ビル２階,,13,103,1070052,,,,,,,2025-05-28,1,,,,,セセオジャパン,0
2258,9010403035220,新規,0,2025-05-28,2025-05-28,ＭＣＷファシリティデザイン合同会社,,合同会社,東京都,港区,海岸２丁目５番１５号１００２,,13,103,1050022,,,,,,,2025-05-28,1,,,,,,0
2263,9010801036191,新規,0,2025-05-28,2025-05-28,株式会社ブループ,,株式会社,東京都,大田区,田園調布３丁目３－３－１０２,,13,111,1450071,,,,,,,2025-05-28,1,,,,,ブループ,0
2265,9010901057427,新規,0,2025-05-28,2025-05-28,Ｄ＆ＭＡＲ株式会社,,株式会社,東京都,世田谷区,奥沢１丁目２７番３号,,13,112,1580083,,,,,,,2025-05-28,1,,,,,ディーアンドマァー,0
2266,9010901057443,新規,0,2025-05-28,2025-05-28,株式会社Ｓｌａｙ,,株式会社,東京都,世田谷区,桜新町１丁目１２番５号エルミタージュ桜新町１０５,,13,112,1540015,,,,,,,2025-05-28,1,,,,,スレイ,0
2268,9010903009946,新規,0,2025-05-28,2025-05-28,合同会社Ｆｌｙｉｎｇ　Ｈｅａｒｔｓ,,合同会社,東京都,世田谷区,下馬３丁目１２番１号,,13,112,1540002,,,,,,,2025-05-28,1,,,,,フライングハーツ,0
2275,9011001169625,新規,0,2025-05-28,2025-05-28,株式会社イロドリ,,株式会社,東京都,渋谷区,神南１丁目１１－４ＦＰＧリンクス神南５階,,13,113,1500041,,,,,,,2025-05-28,1,,,,,イロドリ,0
2276,9011001169699,新規,0,2025-05-28,2025-05-28,株式会社Ｃｏｒｏｍｏ　ＡＩ,,株式会社,東京都,渋谷区,道玄坂１丁目１０番８号渋谷道玄坂東急ビル２Ｆ－Ｃ,,13,113,1500043,,,,,,,2025-05-28,1,,,,,コロモエイアイ,0
2277,9011001169906,新規,0,2025-05-28,2025-05-28,ランサーズ・ストラテジック・コンサルティング株式会社,,株式会社,東京都,渋谷区,渋谷３丁目１０番１３号,,13,113,1500002,,,,,,,2025-05-28,1,,,,,ランサーズストラテジックコンサルティング,0
2281,9011101111825,新規,0,2025-05-28,2025-05-28,株式会社育水会,,株式会社,東京都,新宿区,西早稲田３丁目３１番６－５０５号,,13,104,1690051,,,,,,,2025-05-28,1,,,,,イクスイカイ,0
2283,9011301030602,新規,0,2025-05-28,2025-05-28,シグマアドバイザリー株式会社,,株式会社,東京都,杉並区,高井戸東４丁目９番３号サンクレール高井戸５１１,,13,115,1680072,,,,,,,2025-05-28,1,,,,,シグマアドバイザリー,0
2291,9011801046206,新規,0,2025-05-28,2025-05-28,株式会社Ｌａｕｇｈ‐ｍａ,,株式会社,東京都,葛飾区,四つ木４丁目２３番１２－１０２号,,13,122,1240011,,,,,,,2025-05-28,1,,,,,ラフマ,0
2292,9011801046214,新規,0,2025-05-28,2025-05-28,徹卓株式会社,,株式会社,東京都,足立区,入谷９丁目２７番１７号,,13,121,1210836,,,,,,,2025-05-28,1,,,,,テツタク,0
2297,9012801023995,新規,0,2025-05-28,2025-05-28,株式会社ＦＬＯＷＥＲ,,株式会社,東京都,昭島市,拝島町１丁目８番１－７０１,,13,207,1960002,,,,,,,2025-05-28,1,,,,,フラワー,0
2303,9013301054341,新規,0,2025-05-28,2025-05-28,株式会社ＨＡＴＳＵＹＵＭＥ,,株式会社,東京都,豊島区,東池袋２丁目６２番８号ＢＩＧオフィスプラザ池袋１２０６,,13,116,1700013,,,,,,,2025-05-28,1,,,,,ハツユメ,0
2304,9013303007685,新規,0,2025-05-28,2025-05-28,ＧＮＤコンサルティング合同会社,,合同会社,東京都,豊島区,東池袋４丁目２１番１－３７０１号,,13,116,1700013,,,,,,,2025-05-28,1,,,,,ジーエヌディーコンサルティング,0
2305,9013303007693,新規,0,2025-05-28,2025-05-28,ＰＥＬＩＮＡ合同会社,,合同会社,東京都,豊島区,東池袋２丁目６２番８号ＢＩＧオフィスプラザ池袋１２０６,,13,116,1700013,,,,,,,2025-05-28,1,,,,,ペリナ,0
2308,9020001163059,新規,0,2025-05-28,2025-05-28,株式会社プロジェクト,,株式会社,神奈川県,横浜市泉区,和泉町７３１６番地４,,14,116,2450016,,,,,,,2025-05-28,1,,,,,プロジェクト,0
2309,9020001163083,新規,0,2025-05-28,2025-05-28,株式会社アイエヴ,,株式会社,神奈川県,横浜市神奈川区,金港町５－１４クアドリフォリオ８階,,14,102,2210056,,,,,,,2025-05-28,1,,,,,アイエヴ,0
2310,9020001163091,新規,0,2025-05-28,2025-05-28,株式会社ＣＬＡ,,株式会社,神奈川県,横浜市港南区,上大岡西３丁目９番１０－６０６号,,14,111,2330002,,,,,,,2025-05-28,1,,,,,シーエルエー,0
2313,9020003028573,新規,0,2025-05-28,2025-05-28,合同会社内藤,,合同会社,神奈川県,横浜市瀬谷区,本郷１丁目２５番地１３,,14,114,2460015,,,,,,,2025-05-28,1,,,,,ナイトウ,0
2314,9021001085359,新規,0,2025-05-28,2025-05-28,株式会社ＭＥＭＯＲＩ,,株式会社,神奈川県,小田原市,栄町２丁目１２番１０号ＳｑｕａｒｅＯ２－１階,,14,206,2500011,,,,,,,2025-05-28,1,,,,,メモリ,0
2318,9030001166696,新規,0,2025-05-28,2025-05-28,株式会社恒盛国際発展,,株式会社,埼玉県,川口市,並木４丁目２４番１９号,,11,203,3320034,,,,,,,2025-05-28,1,,,,,コウセイコクサイハッテン,0
2319,9030001166705,新規,0,2025-05-28,2025-05-28,株式会社グロースクリエイト,,株式会社,埼玉県,熊谷市,江南中央３丁目７番地４学ハイツ１０１,,11,202,3600114,,,,,,,2025-05-28,1,,,,,グロースクリエイト,0
2320,9030001166787,新規,0,2025-05-28,2025-05-28,株式会社エナテクト,,株式会社,埼玉県,さいたま市大宮区,桜木町２丁目３番地大宮マルイ７階,,11,103,3300854,,,,,,,2025-05-28,1,,,,,エナテクト,0
2324,9030005022177,新規,0,2025-05-28,2025-05-28,社会保険労務士法人北條事務所,,その他の設立登記法人,埼玉県,さいたま市岩槻区,南平野２丁目２３番地２,,11,110,3390051,,,,,,,2025-05-28,1,,,,,ホウジョウジムショ,0
2332,9040001138926,新規,0,2025-05-28,2025-05-28,東京国際株式会社,,株式会社,千葉県,成田市,取香５６４－１,,12,211,2860106,,,,,,,2025-05-28,1,,,,,トウキョウコクサイ,0
2333,9040001138934,新規,0,2025-05-28,2025-05-28,株式会社木更津自然農園,,株式会社,千葉県,木更津市,草敷２６８,,12,206,2920811,,,,,,,2025-05-28,1,,,,,キサラヅシゼンノウエン,0
2335,9040003027648,新規,0,2025-05-28,2025-05-28,Ｖ．Ｓ合同会社,,合同会社,千葉県,松戸市,二十世紀が丘萩町２０６番地第２コーポ喜八２０３号,,12,207,2710086,,,,,,,2025-05-28,1,,,,,ブイエス,0
2336,9040003027689,新規,0,2025-05-28,2025-05-28,合同会社ＤＭ３２号,,合同会社,千葉県,柏市,柏４丁目５番１０号,,12,217,2770005,,,,,,,2025-05-28,1,,,,,ディーエムサンジュウニゴウ,0
2337,9050001056730,新規,0,2025-05-28,2025-05-28,株式会社いわいホールディングス,,株式会社,茨城県,神栖市,奥野谷５９００番の１１,,08,232,3140116,,,,,,,2025-05-28,1,,,,,イワイホールディングス,0
2340,9050005013637,新規,0,2025-05-28,2025-05-28,特定非営利活動法人みんなのよりどころ,,その他の設立登記法人,茨城県,桜川市,御領２丁目４,,08,231,3091215,,,,,,,2025-05-28,1,,,,,ミンナノヨリドコロ,0
2342,9060001038240,新規,0,2025-05-28,2025-05-28,株式会社大成ビルド,,株式会社,栃木県,小山市,暁２丁目７番５号,,09,208,3290211,,,,,,,2025-05-28,1,,,,,タイセイビルド,0
2346,9070001042976,新規,0,2025-05-28,2025-05-28,株式会社ＫＧプロパティーズ,,株式会社,群馬県,高崎市,上中居町７３番地,,10,202,3700851,,,,,,,2025-05-28,1,,,,,ケージープロパティーズ,0
2352,9080101025517,新規,0,2025-05-28,2025-05-28,株式会社ＴＡＧ,,株式会社,静岡県,沼津市,真砂町５番地の３グランドハイツ沼津１０５,,22,203,4100861,,,,,,,2025-05-28,1,,,,,タグ,0
2357,9080403005266,新規,0,2025-05-28,2025-05-28,ことり合同会社,,合同会社,静岡県,浜松市浜名区,小松２３４０番地,,22,139,4340042,,,,,,,2025-05-28,1,,,,,コトリ,0
2358,9090001019295,新規,0,2025-05-28,2025-05-28,株式会社さとり,,株式会社,山梨県,富士吉田市,上吉田１丁目１番１５号,,19,202,4030005,,,,,,,2025-05-28,1,,,,,サトリ,0
2360,9100003008187,新規,0,2025-05-28,2025-05-28,アカシクリエイト合同会社,,合同会社,長野県,松本市,中央１丁目７－１３カネモ公園ビル３Ｆ,,20,202,3900811,,,,,,,2025-05-28,1,,,,,アカシクリエイト,0
2368,9120001276197,新規,0,2025-05-28,2025-05-28,Ｌｏｎｇ　Ｈａｓｈ株式会社,,株式会社,大阪府,大阪市西区,江之子島１丁目８－２０－４Ｃ,,27,106,5500006,,,,,,,2025-05-28,1,,,,,ロングハッシュ,0
2369,9120001276206,新規,0,2025-05-28,2025-05-28,ＫＡＮＡＴＳＵＫＩ野生戦略研究所株式会社,,株式会社,大阪府,大阪市北区,梅田１丁目１番３大阪駅前第３ビル２９階１－１－１号室,,27,127,5300001,,,,,,,2025-05-28,1,,,,,カナツキヤセイセンリャクケンキュウジョ,0
2370,9120001276222,新規,0,2025-05-28,2025-05-28,株式会社ファシリティーズ,,株式会社,大阪府,枚方市,伊加賀北町２番４３－３号,,27,210,5730036,,,,,,,2025-05-28,1,,,,,ファシリティーズ,0
2371,9120001276263,新規,0,2025-05-28,2025-05-28,株式会社ＴＡＭＯＮ　ＥＳＴＡＴＥ,,株式会社,大阪府,大阪市東成区,玉津１丁目１番１４号,,27,115,5370023,,,,,,,2025-05-28,1,,,,,タモンエステート,0
2373,9120003029603,新規,0,2025-05-28,2025-05-28,合同会社ＶＭＬ,,合同会社,大阪府,大阪市中央区,南船場３丁目２番２２号おおきに南船場ビル２０５,,27,128,5420081,,,,,,,2025-05-28,1,,,,,ブイエムエル,0
2374,9120101071746,新規,0,2025-05-28,2025-05-28,キョクトウホールディングス株式会社,,株式会社,大阪府,堺市堺区,南島町４丁１７番地,,27,141,5900904,,,,,,,2025-05-28,1,,,,,キョクトウホールディングス,0
2375,9120101071754,新規,0,2025-05-28,2025-05-28,株式会社ＳｔｕｄｉｏＲＥＩ,,株式会社,大阪府,堺市南区,宮山台４丁１４番２－１号,,27,145,5900101,,,,,,,2025-05-28,1,,,,,スタジオレイ,0
2376,9120101071762,新規,0,2025-05-28,2025-05-28,創一株式会社,,株式会社,大阪府,富田林市,須賀２丁目２７番２１号フェローズ２１・３０３号室,,27,214,5840062,,,,,,,2025-05-28,1,,,,,ソウイチ,0
2377,9120103006477,新規,0,2025-05-28,2025-05-28,合同会社田中自然農苑,,合同会社,大阪府,南河内郡太子町,大字山田８０２番地の１２,,27,381,5830992,,,,,,,2025-05-28,1,,,,,タナカシゼンノウエン,0
2381,9120903005678,新規,0,2025-05-28,2025-05-28,合同会社オールサポート,,合同会社,大阪府,吹田市,垂水町３丁目２３番２５－８０４号,,27,205,5640062,,,,,,,2025-05-28,1,,,,,オールサポート,0
2384,9130001079748,新規,0,2025-05-28,2025-05-28,株式会社京都クリエイト,,株式会社,京都府,京都市左京区,田中大堰町１８２番地,,26,103,6068202,,,,,,,2025-05-28,1,,,,,キョウトクリエイト,0
2385,9130001079756,新規,0,2025-05-28,2025-05-28,京セラメディカル株式会社,,株式会社,京都府,京都市伏見区,竹田鳥羽殿町６番地,,26,109,6128450,,,,,,,2025-05-28,1,,,,,キョウセラメディカル,0
2386,9130001079772,新規,0,2025-05-28,2025-05-28,株式会社ＯＮＲＹ,,株式会社,京都府,京都市右京区,太秦朱雀町１番地３５,,26,108,6168137,,,,,,,2025-05-28,1,,,,,オンリー,0
2387,9130003010487,新規,0,2025-05-28,2025-05-28,合同会社ＩＮＡ,,合同会社,京都府,京都市伏見区,竹田七瀬川町２９－２,,26,109,6128422,,,,,,,2025-05-28,1,,,,,アイエヌエー,0
2391,9140001138676,新規,0,2025-05-28,2025-05-28,株式会社きのとみ,,株式会社,兵庫県,西宮市,五月ケ丘１２番９号,,28,204,6620875,,,,,,,2025-05-28,1,,,,,キノトミ,0
2392,9140001138684,新規,0,2025-05-28,2025-05-28,株式会社アトリウム,,株式会社,兵庫県,相生市,菅原町９６０番地,,28,208,6780073,,,,,,,2025-05-28,1,,,,,アトリウム,0
2393,9140001138692,新規,0,2025-05-28,2025-05-28,株式会社辻商事,00139332,株式会社,兵庫県,伊丹市,池尻２丁目１５７番地,,28,207,6640027,,,,,,,2025-05-28,1,,,,,ツジショウジ,0
2394,9140001138701,新規,0,2025-05-28,2025-05-28,株式会社明石築炉,,株式会社,兵庫県,明石市,大久保町大窪２６５６番地の１,,28,203,6740051,,,,,,,2025-05-28,1,,,,,アカシチクロ,0
2395,9140001138718,新規,0,2025-05-28,2025-05-28,株式会社田中工業,,株式会社,兵庫県,姫路市,広畑区小坂１２０番地２５,,28,201,6711156,,,,,,,2025-05-28,1,,,,,タナカコウギョウ,0
2396,9140001138726,新規,0,2025-05-28,2025-05-28,株式会社モリゴーエステート,,株式会社,兵庫県,明石市,二見町南二見１０番地の２,,28,203,6740093,,,,,,,2025-05-28,1,,,,,モリゴーエステート,0
2408,9160003003488,新規,0,2025-05-28,2025-05-28,健樹合同会社,,合同会社,滋賀県,大津市,南志賀３丁目７－２０ハイツ清井２０１,,25,201,5200011,,,,,,,2025-05-28,1,,,,,ケンジュ,0
2409,9160005011415,新規,0,2025-05-28,2025-05-28,一般社団法人Ｙａｓｕ　Ｓｔｙｌｅ,,その他の設立登記法人,滋賀県,野洲市,小篠原１１６１番地の１,,25,210,5202331,,,,,,,2025-05-28,1,,,,,ヤススタイル,0
2413,9180001166913,新規,0,2025-05-28,2025-05-28,プレジア株式会社,,株式会社,愛知県,名古屋市名東区,本郷２丁目２１２－１Ｓ－ＲＥＳＩＤＥＮＣＥ本郷ＩＩ４１０,00139328,23,115,4650024,,,,,,,2025-05-28,1,,,,,プレジア,0
2414,9180001166938,新規,0,2025-05-28,2025-05-28,株式会社ＮＡＴＴＡ,,株式会社,愛知県,半田市,星崎町２丁目２０８番地の１,,23,205,4750911,,,,,,,2025-05-28,1,,,,,ナッタ,0
2415,9180001166987,新規,0,2025-05-28,2025-05-28,ＥｌｅｃｔｒｉｃＧｒｏｕｐ２株式会社,,株式会社,愛知県,名古屋市中区,錦３丁目１９番１７号,,23,106,4600003,,,,,,,2025-05-28,1,,,,,エレクトリックグループツー,0
2416,9180005021107,新規,0,2025-05-28,2025-05-28,高森台テラス団地管理組合法人,,その他の設立登記法人,愛知県,春日井市,高森台８丁目２番地２０,,23,206,4870032,,,,,,,2025-05-28,1,,,,,タカモリダイテラス,0
2417,9180301039827,新規,0,2025-05-28,2025-05-28,田中設備工業株式会社,,株式会社,愛知県,豊田市,若林東町高根下３８番地６,,23,211,4730914,,,,,,,2025-05-28,1,,,,,タナカセツビコウギョウ,0
2418,9180301039835,新規,0,2025-05-28,2025-05-28,ＴＫＭ工業株式会社,,株式会社,愛知県,豊田市,神田町２丁目２番地１６,,23,211,4710868,,,,,,,2025-05-28,1,,,,,ティーケイエムコウギョウ,0
2419,9180303006585,新規,0,2025-05-28,2025-05-28,合同会社セバラボ,,合同会社,愛知県,刈谷市,一里山町砂山１５３番地１ラフォーレカトウ２Ｃ号,,23,210,4480002,,,,,,,2025-05-28,1,,,,,セバラボ,0
2420,9190001032247,新規,0,2025-05-28,2025-05-28,Ｊａｐａｎ　Ｏｒｉｇｉｎａｌ株式会社,,株式会社,三重県,伊賀市,出後９３５番地の１,,24,216,5181407,,,,,,,2025-05-28,1,,,,,ジャパンオリジナル,0
2422,9200001043820,新規,0,2025-05-28,2025-05-28,丹海貿易株式会社,,株式会社,岐阜県,安八郡安八町,氷取５１２番地の１,,21,383,5030121,,,,,,,2025-05-28,1,,,,,タンカイボウエキ,0
2423,9200001043829,新規,0,2025-05-28,2025-05-28,株式会社Ｓ．Ｃ,,株式会社,岐阜県,岐阜市,北野西２３番地,,21,201,5012518,,,,,,,2025-05-28,1,,,,,エスシー,0
2424,9200001043837,新規,0,2025-05-28,2025-05-28,株式会社新誠興業,,株式会社,岐阜県,岐阜市,北鶉４丁目４７番地５,,21,201,5008287,,,,,,,2025-05-28,1,,,,,シンセイコウギョウ,0
2426,9200003006833,新規,0,2025-05-28,2025-05-28,ＳＩＹＡＰＡＴＨＡ　ＨＯＬＤＩＮＧＳ合同会社,,合同会社,岐阜県,土岐市,妻木町１７２１番地,,21,212,5095301,,,,,,,2025-05-28,1,,,,,シャパタホールディングス,0
2431,9220001026708,新規,0,2025-05-28,2025-05-28,株式会社ＧＯＡＴ,,株式会社,石川県,金沢市,片町２丁目２１番８号サンベル片町２Ｆ,,17,201,9200981,,,,,,,2025-05-28,1,,,,,ゴート,0
2432,9220003004042,新規,0,2025-05-28,2025-05-28,合同会社ａｋａｓａｋａ,,合同会社,石川県,金沢市,黒田１丁目２９２番地５,,17,201,9218051,,,,,,,2025-05-28,1,,,,,アカサカ,0
2435,9240001065002,新規,0,2025-05-28,2025-05-28,株式会社Ａｚ’ｃ,,株式会社,広島県,広島市南区,段原１丁目８番１－５０１号,,34,103,7320811,,,,,,,2025-05-28,1,,,,,アズシー,0
2437,9240003007225,新規,0,2025-05-28,2025-05-28,合同会社Ｌｅａｄ,,合同会社,広島県,広島市中区,大手町１丁目１番２０号相生橋ビル７階Ａ号室,,34,101,7300051,,,,,,,2025-05-28,1,,,,,リード,0
2440,9260003005185,新規,0,2025-05-28,2025-05-28,合同会社サイキ,,合同会社,岡山県,岡山市中区,＿東町１丁目６番３５号,00139327,33,102,7038247,,,,,,,2025-05-28,1,,,,,サイキ,0
2446,9290001110133,新規,0,2025-05-28,2025-05-28,株式会社フレンドリアルプロパティコンサルティング,,株式会社,福岡県,糸島市,二丈武１７５番地３,,40,230,8191616,,,,,,,2025-05-28,1,,,,,フレンドリアルプロパティコンサルティング,0
2450,9290005019759,新規,0,2025-05-28,2025-05-28,一般社団法人イロトリドリ,,その他の設立登記法人,福岡県,福津市,宮司浜３丁目１３番１１号,,40,224,8113311,,,,,,,2025-05-28,1,,,,,イロトリドリ,0
2456,9330001033222,新規,0,2025-05-28,2025-05-28,ＳＵＳＴＡＩＮＡ‐ＴＩＰＳ株式会社,,株式会社,熊本県,熊本市西区,小島９丁目１－１２,,43,103,8615287,,,,,,,2025-05-28,1,,,,,サステナティップス,0
2458,9330003011028,新規,0,2025-05-28,2025-05-28,合同会社さんかく工房,,合同会社,熊本県,宇城市,三角町戸馳７０２番地２,,43,213,8693203,,,,,,,2025-05-28,1,,,,,サンカクコウボウ,0
2463,9360001035257,新規,0,2025-05-28,2025-05-28,株式会社原防災,,株式会社,沖縄県,南城市,玉城字垣花２４５番地１６,,47,215,9010601,,,,,,,2025-05-28,1,,,,,ハラボウサイ,0
2464,9360001035273,新規,0,2025-05-28,2025-05-28,Ｓｌｏｗ＆Ｅａｓｙ株式会社,,株式会社,沖縄県,宮古島市,平良字西里２４０番地２（５階）,,47,214,9060012,,,,,,,2025-05-28,1,,,,,スローアンドイージー,0
2465,9360003014960,新規,0,2025-05-28,2025-05-28,合同会社大栄建装,,合同会社,沖縄県,国頭郡本部町,字備瀬５１８番地,,47,308,9050207,,,,,,,2025-05-28,1,,,,,ダイエイケンソウ,0
2467,9370003007113,新規,0,2025-05-28,2025-05-28,合同会社杜のやすらぎ,,合同会社,宮城県,仙台市青葉区,片平１丁目１番６－２０１号,,04,101,9800812,,,,,,,2025-05-28,1,,,,,モリノヤスラギ,0
2472,9390003002401,新規,0,2025-05-28,2025-05-28,合同会社カンタキ,,合同会社,山形県,西村山郡朝日町,大字宮宿１１８４番地１８,,06,323,9901442,,,,,,,2025-05-28,1,,,,,カンタキ,0
2473,9400001017044,新規,0,2025-05-28,2025-05-28,株式会社ＩＺＵＭＩＴＡ,,株式会社,岩手県,九戸郡野田村,大字玉川第５地割７９番地１７,,03,503,0288202,,,,,,,2025-05-28,1,,,,,イズミタ,0
2480,9430001094485,新規,0,2025-05-28,2025-05-28,株式会社Ｏｆｔｉｑｕｅ,,株式会社,北海道,札幌市北区,北二十四条西４丁目４－１５猪村ビル１階,,01,102,0010024,,,,,,,2025-05-28,1,,,,,オフティーク,0
2481,9430001094493,新規,0,2025-05-28,2025-05-28,北の都企画株式会社,,株式会社,北海道,札幌市中央区,北五条西２７丁目１番１－５０２号,,01,101,0640825,,,,,,,2025-05-28,1,,,,,キタノミヤコキカク,0
2482,9430001094510,新規,0,2025-05-28,2025-05-28,株式会社アトランティス,,株式会社,北海道,札幌市中央区,南二十条西１１丁目２番１号,,01,101,0640920,,,,,,,2025-05-28,1,,,,,アトランティス,0
2483,9430001094527,新規,0,2025-05-28,2025-05-28,風の旅国際株式会社,,株式会社,北海道,恵庭市,本町８３番地１仙年花本町ビル,,01,231,0611413,,,,,,,2025-05-28,1,,,,,カゼノタビコクサイ,0
2484,9430003017700,新規,0,2025-05-28,2025-05-28,合同会社ＳＯＬＡ,,合同会社,北海道,札幌市南区,常盤４７９－３１,,01,106,0050863,,,,,,,2025-05-28,1,,,,,ソラ,0
2487,9440001009616,新規,0,2025-05-28,2025-05-28,株式会社ＳＫＹ　ＴＥＣ,,株式会社,北海道,亀田郡七飯町,大中山１丁目４番３２号,,01,337,0411121,,,,,,,2025-05-28,1,,,,,スカイテック,0
2492,9500001026308,新規,0,2025-05-28,2025-05-28,株式会社ＡＬＫＵ,,株式会社,愛媛県,松山市,一番町１丁目１１番地６チャイクロビル２階,,38,201,7900001,,,,,,,2025-05-28,1,,,,,アルク,0
2493,9700150035485,新規,0,2025-05-28,2015-10-09,東北建設専門工事業団体連合会,,その他,宮城県,仙台市青葉区,上杉１丁目７－３０,,04,101,9800011,,,,,,,2015-10-09,1,,,,,トウホクケンセツセンモンコウジギヨウダンタイレンゴウカイ,0
2494,9700150130724,新規,0,2025-05-28,2025-05-28,Ｓｈｅｎｚｈｅｎ　Ｈｕａｍａｓｈｉ　Ｉｎｄｕｓｔｒｉａｌ　Ｃｏ．，Ｌｔｄ,,外国会社等,,,,,,,,ｌｏｎｇｈｕａｑｕｆｕｃｈｅｎｇｊｉｅｄａｏｓｉｈｅｓｈｅｑｕ　ｇｕａｎｌａｎｄａｄａｏ１２０ｈａｏｃｄｏｎｇｃ８３１５,,,,,,2025-05-28,1,,,,,シェンジェンフワーマーシーシーイエヨウシエンゴンスー,0
