sequenceNumber,corporateNumber,process,correct,updateDate,changeDate,name,nameImageId,kind,prefectureName,cityName,streetNumber,addressImageId,prefectureCode,cityCode,postCode,addressOutside,addressOutsideImageId,closeDate,closeCause,successorCorporateNumber,changeCause,assignmentDate,latest,enName,enPrefectureName,enCityName,enAddressOutside,furigana,hihyoji
15,1010001261589,新規,0,2026-01-08,2026-01-08,株式会社Ｗｅａｌｔｈ　Ｓｔｙｌｅ,,株式会社,東京都,中央区,銀座１丁目２２番１１号銀座大竹ビジデンス２Ｆ,,13,102,1040061,,,,,,,2026-01-08,1,,,,,ウェルススタイル,0
16,1010001261639,新規,0,2026-01-08,2026-01-08,株式会社ＡＬＬＹＥＮ,,株式会社,東京都,中央区,月島１丁目２番１１号,,13,102,1040052,,,,,,,2026-01-08,1,,,,,アライエン,0
17,1010001261663,新規,0,2026-01-08,2026-01-08,株式会社東京植澤,,株式会社,東京都,中央区,銀座７丁目４番７号,,13,102,1040061,,,,,,,2026-01-08,1,,,,,トウキョウウエサワ,0
18,1010001261746,新規,0,2026-01-08,2026-01-08,遠見ホールディングス株式会社,,株式会社,東京都,中央区,銀座１丁目２２番１１号銀座大竹ビジデンス２Ｆ,,13,102,1040061,,,,,,,2026-01-08,1,,,,,トオミホールディングス,0
19,1010003049850,新規,0,2026-01-08,2026-01-08,ＫＹＯ　ＥＮＥＲＧＹ４合同会社,,合同会社,東京都,中央区,京橋２丁目６番１５号ＭＣＡ京橋ビル３Ｆ,,13,102,1040031,,,,,,,2026-01-08,1,,,,,キョウエネルギーフォー,0
20,1010003049891,新規,0,2026-01-08,2026-01-08,ダントー・アルプス系統用蓄電所Ｎ合同会社,,合同会社,東京都,中央区,銀座１丁目８番１６号３階,,13,102,1040061,,,,,,,2026-01-08,1,,,,,ダントーアルプスケイトウヨウチクデンショエヌ,0
21,1010003049909,新規,0,2026-01-08,2026-01-08,ネクサスジャパン合同会社,,合同会社,東京都,千代田区,丸の内１丁目５番１号新丸の内ビルディング１０階,,13,101,1000005,,,,,,,2026-01-08,1,,,,,ネクサスジャパン,0
22,1010003049925,新規,0,2026-01-08,2026-01-08,九電みらいソーラー合同会社,,合同会社,東京都,千代田区,丸の内１丁目４番１号東京共同会計事務所内,,13,101,1000005,,,,,,,2026-01-08,1,,,,,キュウデンミライソーラー,0
24,1010005041153,新規,0,2026-01-08,2026-01-08,一般財団法人飯嶋アイング財団,,その他の設立登記法人,東京都,千代田区,大手町１丁目３番１号,,13,101,1000004,,,,,,,2026-01-08,1,,,,,イイジマアイングザイダン,0
25,1010005041161,新規,0,2026-01-08,2026-01-08,一般社団法人リグニンネットワーク,,その他の設立登記法人,東京都,文京区,湯島１丁目２番１３号,,13,105,1130034,,,,,,,2026-01-08,1,,,,,リグニンネットワーク,0
28,1010401195461,新規,0,2026-01-08,2026-01-08,株式会社Ｂｅｓｔ　Ｒｏｕｔｉｎｇ,,株式会社,東京都,港区,新橋３丁目４番１０号１階,,13,103,1050004,,,,,,,2026-01-08,1,,,,,ベストルーティング,0
29,1010401195610,新規,0,2026-01-08,2026-01-08,ＬＩＦＴＡ株式会社,,株式会社,東京都,港区,南青山２丁目４－１５,,13,103,1070062,,,,,,,2026-01-08,1,,,,,リフタ,0
31,1010403036903,新規,0,2026-01-08,2026-01-08,合同会社暮らしと文化,,合同会社,東京都,港区,虎ノ門１丁目１５番１０号名和ビル４階,,13,103,1050001,,,,,,,2026-01-08,1,,,,,クラシトブンカ,0
32,1010405025210,新規,0,2026-01-08,2026-01-08,福浦東特定目的会社,,その他の設立登記法人,東京都,港区,元赤坂１丁目１番７－１２０９号株式会社赤坂国際会計内,,13,103,1070051,,,,,,,2026-01-08,1,,,,,フクウラヒガシ,0
38,1010703008065,新規,0,2026-01-08,2026-01-08,ＥＳＳＥＮＺＡ合同会社,,合同会社,東京都,品川区,上大崎３丁目１４番４２号,,13,109,1410021,,,,,,,2026-01-08,1,,,,,エッセンツァ,0
39,1010901058762,新規,0,2026-01-08,2026-01-08,株式会社ＨＡＩＬＡ,,株式会社,東京都,世田谷区,南烏山６丁目４番２６号,,13,112,1570062,,,,,,,2026-01-08,1,,,,,ハイラ,0
41,1010905004886,新規,0,2026-01-08,2026-01-08,特定非営利活動法人アスリートキャリアプランニング,,その他の設立登記法人,東京都,世田谷区,若林２丁目７番２２号,,13,112,1540023,,,,,,,2026-01-08,1,,,,,アスリートキャリアプランニング,0
49,1011001174698,新規,0,2026-01-08,2026-01-08,Ｐｒｉｍｅ　Ｂｅａｔ株式会社,,株式会社,東京都,渋谷区,道玄坂１丁目１０番８号渋谷道玄坂東急ビル２Ｆ－Ｃ,,13,113,1500043,,,,,,,2026-01-08,1,,,,,プライムビート,0
55,1011003023267,新規,0,2026-01-08,2026-01-08,合同会社ＺＥＲＯＳＹＳＴＥＭ,,合同会社,東京都,渋谷区,道玄坂１丁目１０番８号渋谷道玄坂東急ビル２Ｆ－Ｃ,,13,113,1500043,,,,,,,2026-01-08,1,,,,,ゼロシステム,0
62,1011301031161,新規,0,2026-01-08,2026-01-08,株式会社奏功人生,,株式会社,東京都,杉並区,宮前２丁目１０番４２号－Ａ２０７,,13,115,1680081,,,,,,,2026-01-08,1,,,,,ソウコウジンセイ,0
63,1011303005816,新規,0,2026-01-08,2026-01-08,合同会社出版推進社,,合同会社,東京都,杉並区,高円寺南４丁目３７番８号,,13,115,1660003,,,,,,,2026-01-08,1,,,,,シュッパンスイシンシャ,0
64,1011401027704,新規,0,2026-01-08,2026-01-08,ＧＥＮ株式会社,,株式会社,東京都,板橋区,成増５丁目５番９号,,13,119,1750094,,,,,,,2026-01-08,1,,,,,ゲン,0
69,1011501032983,新規,0,2026-01-08,2026-01-08,薛氏アセットマネジメント株式会社,00142087,株式会社,東京都,北区,上十条２丁目２７番１－２７１７号,,13,117,1140034,,,,,,,2026-01-08,1,,,,,セツシアセットマネジメント,0
71,1011603004971,新規,0,2026-01-08,2026-01-08,合同会社ｅ‐バランス,,合同会社,東京都,練馬区,東大泉６丁目３４番４６号ブリックコーポ１０１,,13,120,1780063,,,,,,,2026-01-08,1,,,,,イーバランス,0
76,1011801047269,新規,0,2026-01-08,2026-01-08,株式会社トランスユーロジャパン,,株式会社,東京都,葛飾区,東立石１丁目２１番１４号,,13,122,1240013,,,,,,,2026-01-08,1,,,,,トランスユーロジャパン,0
77,1011801047277,新規,0,2026-01-08,2026-01-08,株式会社ＮＥＸＵＳ,,株式会社,東京都,葛飾区,東新小岩４丁目２５番８号ウイーンハイツＡ棟２０４号,,13,122,1240023,,,,,,,2026-01-08,1,,,,,ネクサス,0
78,1011801047285,新規,0,2026-01-08,2026-01-08,しもさん株式会社,,株式会社,東京都,足立区,舎人４丁目１０番２１号,,13,121,1210831,,,,,,,2026-01-08,1,,,,,シモサン,0
79,1011803007254,新規,0,2026-01-08,2026-01-08,合同会社ＴＨＡ,,合同会社,東京都,足立区,保木間１丁目２３番１１号,,13,121,1210064,,,,,,,2026-01-08,1,,,,,テイエイチエイ,0
81,1012401043988,新規,0,2026-01-08,2026-01-08,株式会社ＯＴＯＮＯＨＡＣＯ,,株式会社,東京都,小金井市,本町２丁目１２番１３号,,13,210,1840004,,,,,,,2026-01-08,1,,,,,オトノハコ,0
82,1012403007545,新規,0,2026-01-08,2026-01-08,ＳＩＳＵ合同会社,,合同会社,東京都,武蔵野市,吉祥寺北町２丁目２‐２２テナント２号室,,13,203,1800001,,,,,,,2026-01-08,1,,,,,シス,0
83,1012703003442,新規,0,2026-01-08,2026-01-08,純吉合同会社,,合同会社,東京都,西東京市,東町３丁目５－１２,,13,229,2020012,,,,,,,2026-01-08,1,,,,,ジュンキチ,0
84,1012801024456,新規,0,2026-01-08,2026-01-08,株式会社ＫＩＺＵＮＡ,,株式会社,東京都,日野市,平山６丁目８番地の２２フォレストナノ日野１０３,,13,212,1910043,,,,,,,2026-01-08,1,,,,,キズナ,0
119,1013301055545,新規,0,2026-01-08,2026-01-08,ターニングライン株式会社,,株式会社,東京都,豊島区,高田１丁目３８番１２号目白ガーデンハイツ１０７,,13,116,1710033,,,,,,,2026-01-08,1,,,,,ターニングライン,0
124,1013303008039,新規,0,2026-01-08,2026-01-08,合同会社ＳｕｎＷｏｒｌｄ,,合同会社,東京都,豊島区,高田２丁目１６番１３号シティテラス目白Ｆ１００１号,,13,116,1710033,,,,,,,2026-01-08,1,,,,,サンワールド,0
125,1013303008047,新規,0,2026-01-08,2026-01-08,合同会社リノックス,,合同会社,東京都,豊島区,東池袋２丁目６２番８号ＢＩＧオフィスプラザ池袋１２０６,,13,116,1700013,,,,,,,2026-01-08,1,,,,,リノックス,0
137,1020001166630,新規,0,2026-01-08,2026-01-08,株式会社韓美,,株式会社,神奈川県,横浜市鶴見区,矢向１丁目２０番６２－７０４号,,14,101,2300001,,,,,,,2026-01-08,1,,,,,カンミ,0
144,1020003030074,新規,0,2026-01-08,2026-01-08,合同会社コンフィデントライフ,,合同会社,神奈川県,横浜市南区,永田南１丁目２番３１－３０２号,,14,105,2320073,,,,,,,2026-01-08,1,,,,,コンフィデントライフ,0
151,1021001087172,新規,0,2026-01-08,2026-01-08,株式会社ＷＩＰ,,株式会社,神奈川県,三浦市,初声町和田２７５３番３号,,14,210,2380114,,,,,,,2026-01-08,1,,,,,ウイップ,0
154,1021003016971,新規,0,2026-01-08,2026-01-08,合同会社アポロ,,合同会社,神奈川県,小田原市,板橋７３０－４,,14,206,2500034,,,,,,,2026-01-08,1,,,,,アポロ,0
155,1021003016996,新規,0,2026-01-08,2026-01-08,合同会社もっけ,,合同会社,神奈川県,茅ヶ崎市,鶴が台１番１―５２３号オハナ茅ヶ崎,,14,207,2530003,,,,,,,2026-01-08,1,,,,,モッケ,0
156,1021003017012,新規,0,2026-01-08,2026-01-08,合同会社ＫＥＹ‐ＳＭＥ,,合同会社,神奈川県,相模原市南区,上鶴間本町５丁目２８番４３号,,14,153,2520318,,,,,,,2026-01-08,1,,,,,キーズミー,0
160,1030001170342,新規,0,2026-01-08,2026-01-08,泉商会株式会社,,株式会社,埼玉県,さいたま市岩槻区,愛宕町３番２号,,11,110,3390066,,,,,,,2026-01-08,1,,,,,イズミショウカイ,0
161,1030001170383,新規,0,2026-01-08,2026-01-08,風光藏株式会社,,株式会社,埼玉県,川口市,並木２丁目３３番１０号セルリアンハイツ６０４号,,11,203,3320034,,,,,,,2026-01-08,1,,,,,フウコウソウ,0
162,1030001170400,新規,0,2026-01-08,2026-01-08,陸雅株式会社,,株式会社,埼玉県,狭山市,中央１丁目４６番４３－２０６号,,11,215,3501308,,,,,,,2026-01-08,1,,,,,ムガ,0
163,1030001170409,新規,0,2026-01-08,2026-01-08,株式会社松吉,,株式会社,埼玉県,さいたま市見沼区,大字中川１３５番地１松澤ハイツ２０２,,11,104,3370043,,,,,,,2026-01-08,1,,,,,マツヨシ,0
164,1030001170425,新規,0,2026-01-08,2026-01-08,株式会社エドワード,,株式会社,埼玉県,越谷市,北越谷２丁目１８番３１号,,11,222,3430026,,,,,,,2026-01-08,1,,,,,エドワード,0
165,1030001170433,新規,0,2026-01-08,2026-01-08,株式会社友上,,株式会社,埼玉県,所沢市,大字北秋津６８７番地３－２０３号室,,11,208,3590038,,,,,,,2026-01-08,1,,,,,トモガミ,0
166,1030001170441,新規,0,2026-01-08,2026-01-08,六甲エデュケーション株式会社,,株式会社,埼玉県,深谷市,上柴町東３丁目４番地７,,11,218,3660051,,,,,,,2026-01-08,1,,,,,ロッコウエデュケーション,0
167,1030001170466,新規,0,2026-01-08,2026-01-08,株式会社ホワイトストーン,,株式会社,埼玉県,さいたま市岩槻区,本町４丁目２番１０号,,11,110,3390057,,,,,,,2026-01-08,1,,,,,ホワイトストーン,0
168,1030001170474,新規,0,2026-01-08,2026-01-08,株式会社Ｈｅｒ　Ｗｉｎｇ,,株式会社,埼玉県,さいたま市大宮区,桜木町２丁目３大宮マルイ７階,,11,103,3300854,,,,,,,2026-01-08,1,,,,,ハーウイング,0
169,1030003028381,新規,0,2026-01-08,2026-01-08,合同会社桐明国際総合商事,,合同会社,埼玉県,草加市,谷塚町１７２４番地１１,,11,221,3400023,,,,,,,2026-01-08,1,,,,,キリアケコクサイソウゴウショウジ,0
170,1030003028407,新規,0,2026-01-08,2026-01-08,ＰＬＵＲＥＶＯ　ＪＡＰＡＮ合同会社,,合同会社,埼玉県,秩父市,寺尾２０５０番地１７,,11,207,3680056,,,,,,,2026-01-08,1,,,,,プルレボジャパン,0
177,1040003029239,新規,0,2026-01-08,2026-01-08,合同会社アロハネイチャーファーム,,合同会社,千葉県,野田市,木間ケ瀬２７６４番地６３,,12,208,2700222,,,,,,,2026-01-08,1,,,,,アロハネイチャーファーム,0
178,1040003029263,新規,0,2026-01-08,2026-01-08,合同会社ヒロタ,,合同会社,千葉県,習志野市,実籾５丁目２２－１０,,12,216,2750002,,,,,,,2026-01-08,1,,,,,ヒロタ,0
179,1040005022984,新規,0,2026-01-08,2026-01-08,千葉中心市街地飲食店協同組合,,その他の設立登記法人,千葉県,千葉市中央区,中央３丁目１２番１２号まちづくり千葉内,,12,101,2600013,,,,,,,2026-01-08,1,,,,,,0
180,1040005022992,新規,0,2026-01-08,2026-01-08,スリーピース協同組合,,その他の設立登記法人,千葉県,浦安市,富士見４丁目１１番１０号アセント富士見１０６号,,12,227,2790043,,,,,,,2026-01-08,1,,,,,スリーピース,0
181,1040005023000,新規,0,2026-01-08,2026-01-08,一般社団法人Ｄｒａｇｏｎ　Ｔｒａｉｎｅｒｓ　Ａｃａｄｅｍｙ　Ｊａｐａｎ,,その他の設立登記法人,千葉県,千葉市中央区,登戸１丁目１番１号登戸Ｋ１ビル４階,,12,101,2600032,,,,,,,2026-01-08,1,,,,,ドラゴントレーナーズアカデミージャパン,0
187,1070001003309,新規,0,2026-01-08,2026-01-08,ヤナギサワ電材株式会社,,株式会社,群馬県,前橋市,荒牧町７２６番地１,,10,201,3710044,,,,,,,2026-01-08,1,,,,,ヤナギサワデンザイ,0
189,1080001027364,新規,0,2026-01-08,2026-01-08,ＳＴＩ株式会社,,株式会社,静岡県,静岡市駿河区,西中原２丁目７番６３－５０４号,,22,102,4228053,,,,,,,2026-01-08,1,,,,,エスティーアイ,0
194,1100001039241,新規,0,2026-01-08,2026-01-08,株式会社並木電機,,株式会社,長野県,岡谷市,湖畔２丁目１２番１５号,,20,204,3940034,,,,,,,2026-01-08,1,,,,,ナミキデンキ,0
196,1100005013432,新規,0,2026-01-08,2026-01-08,司法書士法人みのわ事務所,,その他の設立登記法人,長野県,上田市,天神４丁目２４番２１号,,20,203,3860025,,,,,,,2026-01-08,1,,,,,ミノワジムショ,0
198,1110003006024,新規,0,2026-01-08,2026-01-08,合同会社けだま,,合同会社,新潟県,新潟市江南区,沢海２丁目３番１８号,,15,104,9500205,,,,,,,2026-01-08,1,,,,,ケダマ,0
209,1120001283135,新規,0,2026-01-08,2026-01-08,ソウルジャパン株式会社,,株式会社,大阪府,大阪市此花区,梅香３丁目１１番１６号,,27,104,5540013,,,,,,,2026-01-08,1,,,,,ソウルジャパン,0
210,1120001283201,新規,0,2026-01-08,2026-01-08,株式会社ＡＲＣＥＮＩＸ,,株式会社,大阪府,大阪市中央区,谷町３丁目６－４－９階,,27,128,5400012,,,,,,,2026-01-08,1,,,,,アーセニックス,0
211,1120001283234,新規,0,2026-01-08,2026-01-08,株式会社縁,,株式会社,大阪府,大阪市北区,西天満３丁目６番２１号,,27,127,5300047,,,,,,,2026-01-08,1,,,,,ユカリ,0
212,1120003031608,新規,0,2026-01-08,2026-01-08,合同会社プロトカルチャー,,合同会社,大阪府,大阪市西成区,太子１丁目１５番３号,,27,122,5570002,,,,,,,2026-01-08,1,,,,,プロトカルチャー,0
213,1120003031632,新規,0,2026-01-08,2026-01-08,合同会社百花,,合同会社,大阪府,大阪市天王寺区,四天王寺１丁目１４番２７号１階,,27,109,5430051,,,,,,,2026-01-08,1,,,,,ヒャッカ,0
214,1120005025335,新規,0,2026-01-08,2026-01-08,一般社団法人現代気功協会,,その他の設立登記法人,大阪府,大阪市天王寺区,上本町５丁目５番６号,,27,109,5430001,,,,,,,2026-01-08,1,,,,,ゲンダイキコウキョウカイ,0
221,1130001081323,新規,0,2026-01-08,2026-01-08,株式会社茶々,,株式会社,京都府,京都市伏見区,淀木津町３５１番地,,26,109,6130911,,,,,,,2026-01-08,1,,,,,チャチャ,0
226,1130005017554,新規,0,2026-01-08,2026-01-08,税理士法人あやのこうじｄｅみのる,,その他の設立登記法人,京都府,京都市下京区,綾小路通烏丸東入竹屋之町２５２－１四条烏丸アーバンライフビル３０５,,26,106,6008090,,,,,,,2026-01-08,1,,,,,アヤノコウジデミノル,0
229,1140001141308,新規,0,2026-01-08,2026-01-08,ＣＯＳＹジャパン株式会社,,株式会社,兵庫県,神戸市中央区,八幡通３丁目２番５号,,28,110,6510085,,,,,,,2026-01-08,1,,,,,コージージャパン,0
230,1140003023041,新規,0,2026-01-08,2026-01-08,オフ合同会社,,合同会社,兵庫県,神戸市須磨区,平田町１丁目１番５号,,28,107,6540021,,,,,,,2026-01-08,1,,,,,オフ,0
243,1180001170039,新規,0,2026-01-08,2026-01-08,株式会社ＣＡＲＲＥ,,株式会社,愛知県,名古屋市中区,門前町１－３２スカイピア大須５０２,,23,106,4600018,,,,,,,2026-01-08,1,,,,,カレ,0
244,1180001170146,新規,0,2026-01-08,2026-01-08,ＬＩＶＩＬＬＡＧＥ株式会社,,株式会社,愛知県,大府市,江端町４丁目８６番地,,23,223,4740035,,,,,,,2026-01-08,1,,,,,リビレッジ,0
245,1180001170154,新規,0,2026-01-08,2026-01-08,株式会社ジャパンコラボレーション,,株式会社,愛知県,名古屋市中川区,春田１丁目１１１番地,,23,110,4540985,,,,,,,2026-01-08,1,,,,,ジャパンコラボレーション,0
247,1180301040560,新規,0,2026-01-08,2026-01-08,デンタルセラピー株式会社,,株式会社,愛知県,西尾市,永吉４丁目８３番地１,,23,213,4450870,,,,,,,2026-01-08,1,,,,,デンタルセラピー,0
248,1180303006865,新規,0,2026-01-08,2026-01-08,Ｋｉｎｄｎｅｓｓ合同会社,,合同会社,愛知県,豊田市,若宮町１丁目２８番地１ＨＡＲＡＫＸ豊田２階Ｃ,,23,211,4710026,,,,,,,2026-01-08,1,,,,,カインドネス,0
249,1190001032790,新規,0,2026-01-08,2026-01-08,株式会社パールニシオカ,,株式会社,三重県,志摩市,阿児町鵜方１２０４番地６,,24,215,5170501,,,,,,,2026-01-08,1,,,,,パールニシオカ,0
250,1190001032816,新規,0,2026-01-08,2026-01-08,つばめ薬局株式会社,,株式会社,三重県,津市,野田７７９番地１,,24,201,5140826,,,,,,,2026-01-08,1,,,,,ツバメヤッキョク,0
253,1200001044578,新規,0,2026-01-08,2026-01-08,ハイライト株式会社,,株式会社,岐阜県,飛騨市,古川町貴船町６番２６号,,21,217,5094243,,,,,,,2026-01-08,1,,,,,ハイライト,0
254,1200001044586,新規,0,2026-01-08,2026-01-08,Ａｇｏｒａ　ＡＩ株式会社,,株式会社,岐阜県,多治見市,旭ケ丘８丁目２９番地の１６５,,21,204,5070071,,,,,,,2026-01-08,1,,,,,アゴラエーアイ,0
255,1200001044594,新規,0,2026-01-08,2026-01-08,株式会社プレジール,,株式会社,岐阜県,羽島市,竹鼻町丸の内６丁目１４３番地,,21,209,5016244,,,,,,,2026-01-08,1,,,,,プレジール,0
258,1230001021228,新規,0,2026-01-08,2026-01-08,株式会社ＯＤＤ　Ｆｒａｍｅ,,株式会社,富山県,富山市,西大泉５番１５号,,16,201,9398096,,,,,,,2026-01-08,1,,,,,オッドフレーム,0
259,1230001021236,新規,0,2026-01-08,2026-01-08,株式会社箱崎工業,00142086,株式会社,富山県,富山市,犬島４丁目１０番１０号,,16,201,9318321,,,,,,,2026-01-08,1,,,,,ハコザキコウギョウ,0
262,1240003007546,新規,0,2026-01-08,2026-01-08,合同会社六禄,,合同会社,広島県,東広島市,西条町寺家７２２２番地４シャレオＣ１０１,,34,212,7390041,,,,,,,2026-01-08,1,,,,,ロクロク,0
271,1260001040869,新規,0,2026-01-08,2026-01-08,株式会社ＦＯＪ,,株式会社,岡山県,岡山市北区,下伊福本町２番１０号,,33,101,7000053,,,,,,,2026-01-08,1,,,,,エフオージェー,0
274,1260003005473,新規,0,2026-01-08,2026-01-08,合同会社岡山スチールプランニング,,合同会社,岡山県,岡山市北区,平野６２２－８ＷＯＲＫＳＰＡＣＥ平野ＩＩ２Ｊ,00142093,33,101,7010151,,,,,,,2026-01-08,1,,,,,オカヤマスチールプランニング,0
276,1280001009565,新規,0,2026-01-08,2026-01-08,株式会社ＹＴＫ,,株式会社,島根県,松江市,比津町２８１番地１２,,32,201,6900863,,,,,,,2026-01-08,1,,,,,ワイティーケー,0
279,1290001112707,新規,0,2026-01-08,2026-01-08,株式会社千茶,,株式会社,福岡県,福岡市城南区,七隈４丁目８番２０号,,40,136,8140133,,,,,,,2026-01-08,1,,,,,センチャ,0
280,1290001112715,新規,0,2026-01-08,2026-01-08,ＨＡＮＡＢＵＬＬエステート株式会社,,株式会社,福岡県,古賀市,美明１丁目１０番７号,,40,223,8113107,,,,,,,2026-01-08,1,,,,,ハナブルエステート,0
283,1290003017796,新規,0,2026-01-08,2026-01-08,合同会社タスカル,,合同会社,福岡県,福岡市中央区,天神２丁目２番１２号Ｔ＆Ｊビルディング７Ｆ,,40,133,8100001,,,,,,,2026-01-08,1,,,,,タスカル,0
284,1290003017879,新規,0,2026-01-08,2026-01-08,ＳＨＩＮＯＨＡＲＡＤＸサポート合同会社,,合同会社,福岡県,福岡市中央区,天神４丁目６番２８号いちご天神ノースビル７Ｆ,,40,133,8100001,,,,,,,2026-01-08,1,,,,,シノハラディーエックスサポート,0
287,1290801032162,新規,0,2026-01-08,2026-01-08,株式会社ラテンパウンダー,,株式会社,福岡県,北九州市小倉北区,霧ケ丘２丁目１番１－３０７号,,40,106,8020052,,,,,,,2026-01-08,1,,,,,ラテンパウンダー,0
288,1290803005249,新規,0,2026-01-08,2026-01-08,合同会社サンステップ,,合同会社,福岡県,北九州市八幡東区,春の町２丁目９番３０号,,40,108,8050050,,,,,,,2026-01-08,1,,,,,サンステップ,0
289,1300001014463,新規,0,2026-01-08,2026-01-08,株式会社里元建築,,株式会社,佐賀県,伊万里市,大川内町丙１９７８番地２,,41,205,8480026,,,,,,,2026-01-08,1,,,,,サトモトケンチク,0
290,1310001019908,新規,0,2026-01-08,2026-01-08,株式会社ＳＡＮＳＨＵ工業,,株式会社,長崎県,長崎市,江川町２９０番地,,42,201,8500992,,,,,,,2026-01-08,1,,,,,サンシュウコウギョウ,0
291,1320001021524,新規,0,2026-01-08,2026-01-08,株式会社マイテンポ,,株式会社,大分県,別府市,亀川中央町２５番１４号コーポたまき２０５,,44,202,8740021,,,,,,,2026-01-08,1,,,,,マイテンポ,0
295,1320003004865,新規,0,2026-01-08,2026-01-08,合同会社衞藤商店,00142082,合同会社,大分県,大分市,大字屋山１８００番地の５,,44,201,8700313,,,,,,,2026-01-08,1,,,,,エトウショウテン,0
299,1330003011381,新規,0,2026-01-08,2026-01-08,合同会社Ｆｏｒｚａ,,合同会社,熊本県,熊本市中央区,花畑町１０番１８号花畑プラネットビル５Ｆ,,43,101,8600806,,,,,,,2026-01-08,1,,,,,フォルザ,0
300,1340001027890,新規,0,2026-01-08,2026-01-08,株式会社薩州技建,00142081,株式会社,鹿児島県,鹿児島市,下福元町３３３１番地５,,46,201,8910144,,,,,,,2026-01-08,1,,,,,サッシュウギケン,0
301,1340005009935,新規,0,2026-01-08,2026-01-08,一般社団法人奄美の窓口,,その他の設立登記法人,鹿児島県,奄美市,名瀬大字根瀬部８６０番地,,46,222,8940048,,,,,,,2026-01-08,1,,,,,アマミノマドグチ,0
304,1360001036205,新規,0,2026-01-08,2026-01-08,ジーエフホーム株式会社,,株式会社,沖縄県,中頭郡北谷町,字桑江５７９番地２,,47,326,9040103,,,,,,,2026-01-08,1,,,,,ジーエフホーム,0
305,1360003015537,新規,0,2026-01-08,2026-01-08,合同会社南電,,合同会社,沖縄県,南城市,大里字稲嶺１３３０番地１３,,47,215,9011204,,,,,,,2026-01-08,1,,,,,ナンデン,0
312,1380003006229,新規,0,2026-01-08,2026-01-08,合同会社ＩＷＡＭＵＲＡ　ＴＥＣＨ,,合同会社,福島県,いわき市,小名浜岡小名字住ケ谷６０番地の１４,,07,204,9718151,,,,,,,2026-01-08,1,,,,,イワムラテック,0
313,1420001019384,新規,0,2026-01-08,2026-01-08,和げん株式会社,,株式会社,青森県,黒石市,大字中町２５番地１,,02,204,0360377,,,,,,,2026-01-08,1,,,,,ワゲン,0
314,1420003003221,新規,0,2026-01-08,2026-01-08,合同会社サクラパートナーズ八戸,,合同会社,青森県,八戸市,大字十六日町４番７,,02,203,0310043,,,,,,,2026-01-08,1,,,,,サクラパートナーズハチノヘ,0
315,1420005007996,新規,0,2026-01-08,2026-01-08,学校法人創匠学園,,その他の設立登記法人,青森県,青森市,大字大矢沢字野田１３４番地５,,02,201,0300123,,,,,,,2026-01-08,1,,,,,ソウショウガクエン,0
321,1430001096002,新規,0,2026-01-08,2026-01-08,株式会社ＮＩＳＥＫＯ　ＴＡＪ,,株式会社,北海道,虻田郡ニセコ町,字ニセコ４２９番地４５,,01,395,0481511,,,,,,,2026-01-08,1,,,,,ニセコタージ,0
322,1430001096010,新規,0,2026-01-08,2026-01-08,株式会社ミドルフィールド,,株式会社,北海道,札幌市中央区,南八条西１５丁目１番１７号,,01,101,0640808,,,,,,,2026-01-08,1,,,,,ミドルフィールド,0
325,1430003018482,新規,0,2026-01-08,2026-01-08,合同会社ノード,,合同会社,北海道,札幌市中央区,南二条西５丁目３１－１ＲＭＢｌｄ．７０１,,01,101,0600062,,,,,,,2026-01-08,1,,,,,ノード,0
326,1460101007797,新規,0,2026-01-08,2026-01-08,ウッドレイン株式会社,,株式会社,北海道,帯広市,西二十条南５丁目２１番２１号,,01,207,0802470,,,,,,,2026-01-08,1,,,,,ウッドレイン,0
327,1470001021039,新規,0,2026-01-08,2026-01-08,ＦＦ技建株式会社,,株式会社,香川県,高松市,国分寺町新居１７０４番地１,,37,201,7690101,,,,,,,2026-01-08,1,,,,,エフエフギケン,0
330,1490001011252,新規,0,2026-01-08,2026-01-08,株式会社ＲＵＸＩＡ,,株式会社,高知県,吾川郡いの町,波川５３７番地１,,39,386,7812128,,,,,,,2026-01-08,1,,,,,ルシア,0
346,2010001261101,新規,0,2026-01-08,2026-01-08,株式会社ＳＫＹ　ＧＴ,,株式会社,東京都,千代田区,神田須田町１丁目７番８号２Ｆ,,13,101,1010041,,,,,,,2026-01-08,1,,,,,スカイジーティー,0
347,2010001261563,新規,0,2026-01-08,2026-01-08,株式会社ＧＳＣ,,株式会社,東京都,中央区,東日本橋２丁目１５番地５号,,13,102,1030004,,,,,,,2026-01-08,1,,,,,ジーエスシー,0
348,2010001261596,新規,0,2026-01-08,2026-01-08,ＴＲＵＥＷＥＬＬホールディングス株式会社,,株式会社,東京都,千代田区,九段南１丁目６番５号,,13,101,1020074,,,,,,,2026-01-08,1,,,,,トゥルーウェルホールディングス,0
349,2010001261670,新規,0,2026-01-08,2026-01-08,株式会社ＪＡＭＳ,,株式会社,東京都,千代田区,神田神保町２丁目４４－２第二石坂ビル５階,,13,101,1010051,,,,,,,2026-01-08,1,,,,,ジャムス,0
350,2010003049858,新規,0,2026-01-08,2026-01-08,合同会社Ｓｔｒａｙ　Ｅａｒｔｈ,,合同会社,東京都,千代田区,神田須田町１丁目７番８号ＶＯＲＴ秋葉原ＩＶ２Ｆ,00142096,13,101,1010041,,,,,,,2026-01-08,1,,,,,ストレイアース,0
351,2010003049874,新規,0,2026-01-08,2026-01-08,合同会社エスハシモト,,合同会社,東京都,文京区,小石川５丁目１４番１４－２０２号,,13,105,1120002,,,,,,,2026-01-08,1,,,,,エスハシモト,0
352,2010003049890,新規,0,2026-01-08,2026-01-08,ダントー・アルプス系統用蓄電所Ｍ合同会社,,合同会社,東京都,中央区,銀座１丁目８番１６号３階,,13,102,1040061,,,,,,,2026-01-08,1,,,,,ダントーアルプスケイトウヨウチクデンショエム,0
353,2010003049916,新規,0,2026-01-08,2026-01-08,産業政策総合研究所合同会社,,合同会社,東京都,千代田区,神田神保町３丁目１１番６号神保町ビル１０階,,13,101,1010051,,,,,,,2026-01-08,1,,,,,サンギョウセイサクソウゴウケンキュウジョ,0
354,2010005041193,新規,0,2026-01-08,2026-01-08,一般社団法人ＫＲＦ１１８,,その他の設立登記法人,東京都,千代田区,内幸町２丁目１番６号,,13,101,1000011,,,,,,,2026-01-08,1,,,,,ケイアールエフヒャクジュウハチ,0
355,2010005041210,新規,0,2026-01-08,2026-01-08,一般社団法人スプリング６,,その他の設立登記法人,東京都,千代田区,丸の内１丁目４番１号東京共同会計事務所内,,13,101,1000005,,,,,,,2026-01-08,1,,,,,スプリングシックス,0
361,2010401195469,新規,0,2026-01-08,2026-01-08,株式会社クレアーヌ,,株式会社,東京都,港区,南青山３丁目１番３６号青山丸竹ビル６Ｆ,,13,103,1070062,,,,,,,2026-01-08,1,,,,,クレアーヌ,0
362,2010401195601,新規,0,2026-01-08,2026-01-08,江川株式会社,,株式会社,東京都,港区,赤坂４丁目８番１９号赤坂フロントタウン３階,,13,103,1070052,,,,,,,2026-01-08,1,,,,,エガワ,0
363,2010401195650,新規,0,2026-01-08,2026-01-08,Ｎｅｏｅｎ　Ｒｅｎｅｗａｂｌｅｓ　Ｊａｐａｎ株式会社,,株式会社,東京都,港区,海岸１丁目２番２０号汐留ビルディング３階ＣＳＣＪａｐａｎＣｏｒｐｏｒａｔｅＳｅｒｖｉｃｅｓ株式会社内,,13,103,1050022,,,,,,,2026-01-08,1,,,,,ネオエンリニューアブルズジャパン,0
365,2010405025143,新規,0,2026-01-08,2026-01-08,社会保険労務士法人ＣｏＣｏＹｅｌｌ,,その他の設立登記法人,東京都,港区,東新橋１丁目９番１号,,13,103,1050021,,,,,,,2026-01-08,1,,,,,ココエール,0
366,2010405025201,新規,0,2026-01-08,2026-01-08,Ｓｅｒａｇａｋｉ　ＡｃｑＣｏ一般社団法人,,その他の設立登記法人,東京都,港区,六本木１丁目６番１号泉ガーデンタワー１２階,,13,103,1060032,,,,,,,2026-01-08,1,,,,,セラガキアクコ,0
368,2010503008108,新規,0,2026-01-08,2026-01-08,合同会社ネクストビラ,,合同会社,東京都,台東区,上野１丁目１７番６号広小路ビル８Ｆ－Ｂ,,13,106,1100005,,,,,,,2026-01-08,1,,,,,ネクストビラ,0
369,2010503008132,新規,0,2026-01-08,2026-01-08,ＫＡＴＯＲＩ　ＤＥＶＥＬＯＰＭＥＮＴ合同会社,,合同会社,東京都,台東区,池之端１丁目１－１池之端ビル２Ｆ,,13,106,1100008,,,,,,,2026-01-08,1,,,,,カトリディベロップメント,0
370,2010505003676,新規,0,2026-01-08,2026-01-08,行政書士法人グローバルアルファ,,その他の設立登記法人,東京都,台東区,浅草橋５丁目２番３号鈴和ビル２階,,13,106,1110053,,,,,,,2026-01-08,1,,,,,グローバルアルファ,0
374,2010701048855,新規,0,2026-01-08,2026-01-08,ＭＡＮＮＩ　Ａ．Ｍ．株式会社,,株式会社,東京都,品川区,西五反田３丁目３番２号プラウドタワー目黒ＭＡＲＣ２７０８,,13,109,1410031,,,,,,,2026-01-08,1,,,,,マニエーエム,0
380,2010901058753,新規,0,2026-01-08,2026-01-08,株式会社ＴＣＫ,,株式会社,東京都,世田谷区,太子堂４丁目１８番１５号マガザン三軒茶屋２・３Ｆ－３,,13,112,1540004,,,,,,,2026-01-08,1,,,,,ティーシーケー,0
381,2010903010539,新規,0,2026-01-08,2026-01-08,合同会社ＦＩＮＣＨ,,合同会社,東京都,世田谷区,北沢３丁目３０番３号ＴＴビル３Ｆ,,13,112,1550031,,,,,,,2026-01-08,1,,,,,フィンチ,0
392,2011001174615,新規,0,2026-01-08,2026-01-08,ＡｄＭＯＴ株式会社,,株式会社,東京都,渋谷区,神南１丁目－１１－４ＦＰＧリンクス神南５階,,13,113,1500041,,,,,,,2026-01-08,1,,,,,アドモット,0
393,2011003023324,新規,0,2026-01-08,2026-01-08,合同会社ポテサラ小鉢,,合同会社,東京都,渋谷区,円山町５番３号ＭＩＥＵＸ渋谷ビル８階,,13,113,1500044,,,,,,,2026-01-08,1,,,,,ポテサラコバチ,0
398,2011101114322,新規,0,2026-01-08,2026-01-08,株式会社ＭＯＲＩ,,株式会社,東京都,新宿区,新宿２丁目１２番１３号新宿アントレサロンビル２階,,13,104,1600022,,,,,,,2026-01-08,1,,,,,モリ,0
402,2011301031160,新規,0,2026-01-08,2026-01-08,株式会社ＳＯＭＡ,,株式会社,東京都,杉並区,天沼３丁目２６番１９号,,13,115,1670032,,,,,,,2026-01-08,1,,,,,ソーマ,0
403,2011303005815,新規,0,2026-01-08,2026-01-08,合同会社ｉｉｎａ,,合同会社,東京都,杉並区,高円寺南１丁目１４番９号,,13,115,1660003,,,,,,,2026-01-08,1,,,,,イイナ,0
413,2012401043979,新規,0,2026-01-08,2026-01-08,株式会社Ｍｉｔｏｍｏ,,株式会社,東京都,稲城市,矢野口３８７番地の１矢野口ステーションサイドビル５０１,,13,225,2060812,,,,,,,2026-01-08,1,,,,,ミトモ,0
414,2012403007544,新規,0,2026-01-08,2026-01-08,合同会社Ｊ　Ｐｒｏｇｒｅｓｓホールディングス,,合同会社,東京都,三鷹市,下連雀３丁目３５番１号,,13,204,1810013,,,,,,,2026-01-08,1,,,,,ジェイプログレスホールディングス,0
415,2012801024455,新規,0,2026-01-08,2026-01-08,アズビー株式会社,,株式会社,東京都,国立市,東１丁目１番地の６０－４０８,,13,215,1860002,,,,,,,2026-01-08,1,,,,,アズビー,0
416,2012803003960,新規,0,2026-01-08,2026-01-08,合同会社ナカムラ,,合同会社,東京都,東大和市,新堀３丁目２０号２番サンハイツ東大和４０２号室,,13,220,2070012,,,,,,,2026-01-08,1,,,,,ナカムラ,0
450,2013301055544,新規,0,2026-01-08,2026-01-08,株式会社レベル,,株式会社,東京都,豊島区,南池袋２丁目２７番８号南水ビル９階,,13,116,1710022,,,,,,,2026-01-08,1,,,,,レベル,0
451,2013301055569,新規,0,2026-01-08,2026-01-08,Ｗｉｎ２ｓｔｙｌｅ株式会社,,株式会社,東京都,豊島区,巣鴨２丁目４番２－１００１号,,13,116,1700002,,,,,,,2026-01-08,1,,,,,ウィンツースタイル,0
455,2020001166480,新規,0,2026-01-08,2026-01-08,株式会社トップフロンティア,,株式会社,神奈川県,横浜市港南区,日切山１－６４－６,,14,111,2330000,,,,,,,2026-01-08,1,,,,,トップフロンティア,0
456,2020001166571,新規,0,2026-01-08,2026-01-08,株式会社プリズマリン,,株式会社,神奈川県,横浜市西区,北幸２丁目１０番４８号,,14,103,2200004,,,,,,,2026-01-08,1,,,,,プリズマリン,0
457,2020001166596,新規,0,2026-01-08,2026-01-08,株式会社ワイズ,,株式会社,神奈川県,川崎市宮前区,小台２丁目１１番地７,,14,136,2160007,,,,,,,2026-01-08,1,,,,,ワイズ,0
458,2020001166613,新規,0,2026-01-08,2026-01-08,株式会社おとなり,,株式会社,神奈川県,横浜市青葉区,もえぎ野１３番地２１もえぎ野ガーデン２０１号室,,14,117,2270044,,,,,,,2026-01-08,1,,,,,オトナリ,0
464,2021003016970,新規,0,2026-01-08,2026-01-08,合同会社タイセイ,,合同会社,神奈川県,相模原市中央区,上溝４０５２番地３号,,14,152,2520243,,,,,,,2026-01-08,1,,,,,タイセイ,0
465,2021003016995,新規,0,2026-01-08,2026-01-08,合同会社鎌倉システム工房,,合同会社,神奈川県,鎌倉市,大船５丁目１４―２８,,14,204,2470056,,,,,,,2026-01-08,1,,,,,カマクラシステムコウボウ,0
468,2030001170374,新規,0,2026-01-08,2026-01-08,株式会社ＹＵＡ,,株式会社,埼玉県,川口市,大字東本郷２０３３－１,,11,203,3340063,,,,,,,2026-01-08,1,,,,,ユア,0
469,2030001170399,新規,0,2026-01-08,2026-01-08,株式会社琉,,株式会社,埼玉県,川越市,岸町２丁目２番地３（セジュールＭ１０１号室）,,11,201,3501131,,,,,,,2026-01-08,1,,,,,リュウ,0
470,2030001170424,新規,0,2026-01-08,2026-01-08,株式会社クローバー,,株式会社,埼玉県,川越市,脇田本町１６番地５－２００３号室,,11,201,3501123,,,,,,,2026-01-08,1,,,,,クローバー,0
471,2030001170432,新規,0,2026-01-08,2026-01-08,ＳＴホールディングス株式会社,,株式会社,埼玉県,川越市,仙波町４丁目１７番地２２,,11,201,3500034,,,,,,,2026-01-08,1,,,,,エスティーホールディングス,0
472,2030001170440,新規,0,2026-01-08,2026-01-08,株式会社ＭＩＣ‐ＬＡＢＯ,,株式会社,埼玉県,さいたま市浦和区,神明２丁目７番１号,,11,107,3300065,,,,,,,2026-01-08,1,,,,,ミックラボ,0
473,2030001170457,新規,0,2026-01-08,2026-01-08,雄成建設株式会社,,株式会社,埼玉県,入間市,東町４丁目３番４９号１０,,11,225,3580002,,,,,,,2026-01-08,1,,,,,ユウセイケンセツ,0
474,2030003028372,新規,0,2026-01-08,2026-01-08,合同会社赤山,,合同会社,埼玉県,越谷市,赤山町１丁目６３番地５－２０２号,,11,222,3430807,,,,,,,2026-01-08,1,,,,,アカヤマ,0
475,2030003028389,新規,0,2026-01-08,2026-01-08,合同会社馬車馬,,合同会社,埼玉県,加須市,南大桑２８６７番地３,,11,210,3470015,,,,,,,2026-01-08,1,,,,,バシャウマ,0
476,2030003028414,新規,0,2026-01-08,2026-01-08,坪内フィールドコントロールズ合同会社,,合同会社,埼玉県,川口市,大字安行原１６６３番地の２,,11,203,3340057,,,,,,,2026-01-08,1,,,,,ツボウチフィールドコントロールズ,0
482,2040001141944,新規,0,2026-01-08,2026-01-08,ＭＡＴＨＡ　ＭＩＲＡＩ　ＪＯＢ株式会社,,株式会社,千葉県,流山市,加４丁目９番地の１イトーピア流山１１５,,12,220,2700176,,,,,,,2026-01-08,1,,,,,マータミライジョブ,0
483,2040001141977,新規,0,2026-01-08,2026-01-08,Ｒｅ．Ｅａｒｔｈ株式会社,,株式会社,千葉県,八千代市,八千代台東５丁目２５番２４－２０１号,,12,221,2760032,,,,,,,2026-01-08,1,,,,,リアース,0
485,2040003029254,新規,0,2026-01-08,2026-01-08,合同会社エム・ワークス,,合同会社,千葉県,浦安市,北栄２丁目２７番３５号,,12,227,2790002,,,,,,,2026-01-08,1,,,,,エムワークス,0
492,2070001043709,新規,0,2026-01-08,2026-01-08,株式会社三栄技術塗装工業,,株式会社,群馬県,館林市,上赤生田町４０１２番地の１４,,10,207,3740015,,,,,,,2026-01-08,1,,,,,サンエイギジュツトソウコウギョウ,0
493,2070003006250,新規,0,2026-01-08,2026-01-08,合同会社アルファランドスケープ,,合同会社,群馬県,前橋市,城東町４丁目１１－２８,,10,201,3710016,,,,,,,2026-01-08,1,,,,,アルファランドスケープ,0
498,2080101026001,新規,0,2026-01-08,2026-01-08,株式会社一級建築士事務所ＧＯ‐ＡＮ,,株式会社,静岡県,駿東郡長泉町,東野１３７番地の２２１,,22,342,4110931,,,,,,,2026-01-08,1,,,,,イッキュウケンチクシジムショゴアン,0
500,2080105006560,新規,0,2026-01-08,2026-01-08,一般社団法人ｉｃｃａ‐ｉｃｃａ,,その他の設立登記法人,静岡県,沼津市,添地町７３番地大興ビル３階－北,,22,203,4100803,,,,,,,2026-01-08,1,,,,,,0
501,2080401028366,新規,0,2026-01-08,2026-01-08,株式会社石川事務所,,株式会社,静岡県,浜松市中央区,中央３丁目１５番３１－９０４号,,22,138,4300929,,,,,,,2026-01-08,1,,,,,イシカワジムショ,0
502,2080401028374,新規,0,2026-01-08,2026-01-08,株式会社典座,,株式会社,静岡県,浜松市中央区,泉４丁目１６番２７号,,22,138,4338124,,,,,,,2026-01-08,1,,,,,テンザ,0
515,2120001283175,新規,0,2026-01-08,2026-01-08,株式会社わかふ,,株式会社,大阪府,大阪市北区,梅田１丁目２番２号大阪駅前第２ビル１２－１２,,27,127,5300001,,,,,,,2026-01-08,1,,,,,ワカフ,0
516,2120001283200,新規,0,2026-01-08,2026-01-08,株式会社エール,,株式会社,大阪府,大阪市淀川区,西中島３丁目５番１２－６０２号,,27,123,5320011,,,,,,,2026-01-08,1,,,,,エール,0
517,2120001283209,新規,0,2026-01-08,2026-01-08,和森株式会社,,株式会社,大阪府,大阪市淀川区,西中島４丁目７－１０－６０２室,,27,123,5320011,,,,,,,2026-01-08,1,,,,,ワモリ,0
518,2120001283225,新規,0,2026-01-08,2026-01-08,株式会社ｂｉｊｏｕｃｌｏ,,株式会社,大阪府,大阪市東成区,東小橋３丁目１７番１３号,,27,115,5370024,,,,,,,2026-01-08,1,,,,,ビジュクロ,0
519,2120001283233,新規,0,2026-01-08,2026-01-08,水源株式会社,,株式会社,大阪府,交野市,天野が原町２丁目２番３－１０１号,,27,230,5760034,,,,,,,2026-01-08,1,,,,,スイゲン,0
520,2120001283266,新規,0,2026-01-08,2026-01-08,株式会社Ｓｎｉ,,株式会社,大阪府,大阪市住吉区,長居４丁目１１番３－２０１号,,27,120,5580003,,,,,,,2026-01-08,1,,,,,エスエヌアイ,0
521,2120001283324,新規,0,2026-01-08,2026-01-08,株式会社Ｃｈｅｒｉｒ,,株式会社,大阪府,大阪市東成区,東小橋３丁目６番３号,,27,115,5370024,,,,,,,2026-01-08,1,,,,,シェリル,0
522,2120001283357,新規,0,2026-01-08,2026-01-08,ヨシフク株式会社,,株式会社,大阪府,大阪市西区,立売堀５丁目６番２８号,,27,106,5500012,,,,,,,2026-01-08,1,,,,,ヨシフク,0
526,2120003031581,新規,0,2026-01-08,2026-01-08,ＮｏＬａｂｅｌ合同会社,,合同会社,大阪府,大阪市北区,梅田１丁目２番２号大阪駅前第２ビル１２‐１２,,27,127,5300001,,,,,,,2026-01-08,1,,,,,ノーラベル,0
527,2120003031607,新規,0,2026-01-08,2026-01-08,合同会社灯心舎,,合同会社,大阪府,大阪市中央区,東心斎橋１丁目２番１－１９０１号,,27,128,5420083,,,,,,,2026-01-08,1,,,,,トウシンシャ,0
528,2120005025334,新規,0,2026-01-08,2026-01-08,社会保険労務士法人Ｈｕｍａｎ　Ｑｕｅｓｔ,,その他の設立登記法人,大阪府,大阪市北区,天神橋３丁目３番３号,,27,127,5300041,,,,,,,2026-01-08,1,,,,,ヒューマンクエスト,0
531,2120903006014,新規,0,2026-01-08,2026-01-08,合同会社匠ボディラボ,,合同会社,大阪府,豊中市,曽根東町３丁目２番１ベルビュー曽根１０６,,27,203,5610802,,,,,,,2026-01-08,1,,,,,タクミボディラボ,0
532,2122001040044,新規,0,2026-01-08,2026-01-08,株式会社ＷＩＮＧ‐Ｓ,,株式会社,大阪府,大東市,氷野４丁目５番４３号,,27,218,5740062,,,,,,,2026-01-08,1,,,,,ウィングス,0
535,2130001081314,新規,0,2026-01-08,2026-01-08,まことらすと株式会社,,株式会社,京都府,木津川市,城山台７丁目９－７,,26,214,6190218,,,,,,,2026-01-08,1,,,,,マコトラスト,0
536,2130001081347,新規,0,2026-01-08,2026-01-08,長瀬正史株式会社,,株式会社,京都府,城陽市,久世下大谷２１－１０８,,26,207,6100102,,,,,,,2026-01-08,1,,,,,ナガセマサヒロ,0
540,2140001141257,新規,0,2026-01-08,2026-01-08,ハイスリー・アセット株式会社,,株式会社,兵庫県,神戸市中央区,栄町通６丁目１番１８号１００２号室,,28,110,6500023,,,,,,,2026-01-08,1,,,,,ハイスリーアセット,0
541,2140001141315,新規,0,2026-01-08,2026-01-08,株式会社ＷＢＴＣ,,株式会社,兵庫県,朝来市,和田山町土田２８番地１,,28,225,6695241,,,,,,,2026-01-08,1,,,,,ダブルビーティーシー,0
544,2160001027339,新規,0,2026-01-08,2026-01-08,株式会社京近空調,,株式会社,滋賀県,守山市,大門町８３番地３,,25,207,5240052,,,,,,,2026-01-08,1,,,,,キョウチカクウチョウ,0
545,2160003003701,新規,0,2026-01-08,2026-01-08,合同会社ＯＴ企画,,合同会社,滋賀県,愛知郡愛荘町,市９３０番地,,25,425,5291313,,,,,,,2026-01-08,1,,,,,オーティーキカク,0
552,2180001170104,新規,0,2026-01-08,2026-01-08,株式会社ＭＥＤＩＰＲＯＸ,,株式会社,愛知県,名古屋市西区,那古野２丁目１４‐１なごのキャンパス,,23,104,4510042,,,,,,,2026-01-08,1,,,,,メディプロックス,0
553,2180001170120,新規,0,2026-01-08,2026-01-08,ＮＫフォレスト株式会社,,株式会社,愛知県,名古屋市西区,大野木３丁目１８７番地の７,,23,104,4520803,,,,,,,2026-01-08,1,,,,,エヌケイフォレスト,0
554,2180001170211,新規,0,2026-01-08,2026-01-08,株式会社舞雀,,株式会社,愛知県,名古屋市中川区,中郷３丁目３８５番地の２,,23,110,4540921,,,,,,,2026-01-08,1,,,,,マイスズメ,0
555,2180001170260,新規,0,2026-01-08,2026-01-08,株式会社東海陸送サービス,,株式会社,愛知県,名古屋市中村区,名駅南１丁目１１番１２号Ｋｉｎｊｉｒｏ名駅Ｍｉｎａｍｉビル１Ｆ－１７,,23,105,4500003,,,,,,,2026-01-08,1,,,,,トウカイリクソウサービス,0
557,2180003029570,新規,0,2026-01-08,2026-01-08,三栄合同会社,,合同会社,愛知県,一宮市,多加木５丁目１９番１７号,,23,203,4910837,,,,,,,2026-01-08,1,,,,,サンエイ,0
558,2180003029612,新規,0,2026-01-08,2026-01-08,ａｏ合同会社,,合同会社,愛知県,名古屋市中区,栄５丁目２６番３９号ＧＳ栄ビル３Ｆ,,23,106,4600008,,,,,,,2026-01-08,1,,,,,アオ,0
561,2200001044585,新規,0,2026-01-08,2026-01-08,株式会社山口板金,,株式会社,岐阜県,不破郡垂井町,府中３２９番地の１,,21,361,5032114,,,,,,,2026-01-08,1,,,,,ヤマグチバンキン,0
562,2200001044593,新規,0,2026-01-08,2026-01-08,株式会社ＮＥＳＴ,,株式会社,岐阜県,岐阜市,長者町１７番地７,,21,201,5008311,,,,,,,2026-01-08,1,,,,,ネスト,0
565,2220001027118,新規,0,2026-01-08,2026-01-08,株式会社Ｂｅｌｌｅ,,株式会社,石川県,金沢市,北安江３丁目１番１号プラウドシティ金沢１５０４,,17,201,9200022,,,,,,,2026-01-08,1,,,,,ベル,0
567,2230001021227,新規,0,2026-01-08,2026-01-08,株式会社竹内保険事務所,,株式会社,富山県,射水市,緑町１０番４号,,16,211,9340014,,,,,,,2026-01-08,1,,,,,タケウチホケンジムショ,0
568,2240001065990,新規,0,2026-01-08,2026-01-08,こだまホールディングス株式会社,,株式会社,広島県,神石郡神石高原町,小畠２２５８番地,,34,545,7201522,,,,,,,2026-01-08,1,,,,,コダマホールディングス,0
582,2290001112722,新規,0,2026-01-08,2026-01-08,株式会社Ｂｏｌｏｎ　Ｓｈａｒｅｅｅ,,株式会社,福岡県,福岡市中央区,警固２丁目１３－１７Ｓ－ＦＯＲＴ警固タワー１８０１,,40,133,8100023,,,,,,,2026-01-08,1,,,,,ボロンシェア,0
586,2290005019947,新規,0,2026-01-08,2026-01-08,司法書士法人つむぐ,,その他の設立登記法人,福岡県,福岡市博多区,博多駅東１丁目１３番６号－６０５号,,40,132,8120013,,,,,,,2026-01-08,1,,,,,ツムグ,0
587,2290801032153,新規,0,2026-01-08,2026-01-08,株式会社セレン,,株式会社,福岡県,遠賀郡岡垣町,大字高倉６４５,,40,383,8114234,,,,,,,2026-01-08,1,,,,,セレン,0
590,2290803005248,新規,0,2026-01-08,2026-01-08,やまなか資産管理合同会社,,合同会社,福岡県,北九州市八幡西区,穴生１丁目１２番２５－６０１号,,40,109,8060049,,,,,,,2026-01-08,1,,,,,ヤマナカシサンカンリ,0
592,2320001021523,新規,0,2026-01-08,2026-01-08,株式会社三嘉エックス,,株式会社,大分県,速見郡日出町,大字豊岡４番地の１エクセル天神１階,,44,341,8791507,,,,,,,2026-01-08,1,,,,,ミヨシエックス,0
594,2330001033897,新規,0,2026-01-08,2026-01-08,Ｍｏｉｒｅ株式会社,,株式会社,熊本県,熊本市西区,池亀町１番７号,,43,103,8600071,,,,,,,2026-01-08,1,,,,,モアレ,0
597,2340001027873,新規,0,2026-01-08,2026-01-08,株式会社フクムラ設備,,株式会社,鹿児島県,日置市,東市来町伊作田１９６９番地２,,46,216,8992203,,,,,,,2026-01-08,1,,,,,フクムラセツビ,0
599,2360001036212,新規,0,2026-01-08,2026-01-08,株式会社ヤイマランドカンパニー,,株式会社,沖縄県,石垣市,字新川３９０番地１３,,47,207,9070024,,,,,,,2026-01-08,1,,,,,ヤイマランドカンパニー,0
600,2370003007441,新規,0,2026-01-08,2026-01-08,合同会社あべのや,,合同会社,宮城県,仙台市泉区,朴沢字二階７番地の６,,04,105,9813226,,,,,,,2026-01-08,1,,,,,アベノヤ,0
605,2380003006228,新規,0,2026-01-08,2026-01-08,合同会社佐藤農園,,合同会社,福島県,相馬市,岩子字坂脇６２番地,,07,209,9760025,,,,,,,2026-01-08,1,,,,,サトウノウエン,0
607,2400003003585,新規,0,2026-01-08,2026-01-08,合同会社リンクス,,合同会社,岩手県,二戸郡一戸町,中山字大塚１２５番地２１号室,,03,524,0285133,,,,,,,2026-01-08,1,,,,,リンクス,0
610,2430001096018,新規,0,2026-01-08,2026-01-08,株式会社坂東架設,,株式会社,北海道,札幌市北区,篠路一条３丁目９番１号,,01,102,0028021,,,,,,,2026-01-08,1,,,,,バンドウカセツ,0
611,2430003018473,新規,0,2026-01-08,2026-01-08,合同会社森羅郷,,合同会社,北海道,余市郡余市町,登町２０９４番地２１,,01,408,0460002,,,,,,,2026-01-08,1,,,,,シンラゴウ,0
612,2430003018481,新規,0,2026-01-08,2026-01-08,合同会社ヒラサワ,,合同会社,北海道,札幌市豊平区,福住一条３丁目１１番１－２０１号,,01,105,0620041,,,,,,,2026-01-08,1,,,,,ヒラサワ,0
613,2430005015386,新規,0,2026-01-08,2026-01-08,一般社団法人聖腎会,,その他の設立登記法人,北海道,札幌市中央区,北二条西１９丁目１－１５０１号,,01,101,0600002,,,,,,,2026-01-08,1,,,,,セイジンカイ,0
614,2450001014828,新規,0,2026-01-08,2026-01-08,株式会社ＳＨＩＯパートナーズ,,株式会社,北海道,旭川市,宮下通１９丁目１２５７－２,,01,204,0788330,,,,,,,2026-01-08,1,,,,,シオパートナーズ,0
617,2460101007796,新規,0,2026-01-08,2026-01-08,ナカタ株式会社,,株式会社,北海道,河東郡上士幌町,字上士幌東３線２３９番地,,01,633,0801408,,,,,,,2026-01-08,1,,,,,ナカタ,0
623,2470001021046,新規,0,2026-01-08,2026-01-08,瀬戸内設備株式会社,,株式会社,香川県,高松市,上林町８１５番地１０,,37,201,7610302,,,,,,,2026-01-08,1,,,,,セトウチセツビ,0
627,2500001026710,新規,0,2026-01-08,2026-01-08,株式会社近藤建設工業,,株式会社,愛媛県,新居浜市,中筋町１丁目２番１２号,,38,205,7920841,,,,,,,2026-01-08,1,,,,,コンドウケンセツコウギョウ,0
634,3010001261587,新規,0,2026-01-08,2026-01-08,Ｓａｋｉｇａｋｅ　Ｌｉｎｋ株式会社,,株式会社,東京都,千代田区,神田須田町１丁目７番１号ウィン神田ビル４階,,13,101,1010041,,,,,,,2026-01-08,1,,,,,サキガケリンク,0
635,3010001261661,新規,0,2026-01-08,2026-01-08,株式会社Ｌｉｂｅｒａｔｉｏｎ,,株式会社,東京都,千代田区,内神田１丁目５番６号小山第二ビル２０２,,13,101,1010047,,,,,,,2026-01-08,1,,,,,リベレイション,0
636,3010001261694,新規,0,2026-01-08,2026-01-08,田中貴金属ネクスト株式会社,,株式会社,東京都,中央区,日本橋茅場町２丁目６番６号,,13,102,1030025,,,,,,,2026-01-08,1,,,,,タナカキキンゾクネクスト,0
638,3010003049849,新規,0,2026-01-08,2026-01-08,ＫＹＯ　ＥＮＥＲＧＹ３合同会社,,合同会社,東京都,中央区,京橋２丁目６番１５号ＭＣＡ京橋ビル３Ｆ,,13,102,1040031,,,,,,,2026-01-08,1,,,,,キョウエネルギースリー,0
644,3010401195600,新規,0,2026-01-08,2026-01-08,株式会社オーシャンデザイン,,株式会社,東京都,港区,新橋３丁目８番８号ル・グラシエルビル７５－２階２号室,,13,103,1050004,,,,,,,2026-01-08,1,,,,,オーシャンデザイン,0
645,3010401195625,新規,0,2026-01-08,2026-01-08,株式会社ミナト,,株式会社,東京都,港区,白金１丁目２番１－Ｅ６０６号,,13,103,1080072,,,,,,,2026-01-08,1,,,,,ミナト,0
646,3010401195708,新規,0,2026-01-08,2026-01-08,Ｓｔｒｅａｍｉｎｄ株式会社,,株式会社,東京都,港区,南青山３丁目１番３６号青山丸竹ビル６Ｆ,,13,103,1070062,,,,,,,2026-01-08,1,,,,,ストリーマインド,0
650,3010501055266,新規,0,2026-01-08,2026-01-08,株式会社Ｎａｒａｎｊｅ,,株式会社,東京都,台東区,台東１丁目３４番２－７０２号,,13,106,1100016,,,,,,,2026-01-08,1,,,,,ナランジェ,0
652,3010701048838,新規,0,2026-01-08,2026-01-08,株式会社ＭＹホールディングス,,株式会社,東京都,品川区,小山４丁目３番１２号,,13,109,1420062,,,,,,,2026-01-08,1,,,,,エムワイホールディングス,0
653,3010901058744,新規,0,2026-01-08,2026-01-08,株式会社ｙ’ｓ,,株式会社,東京都,世田谷区,松原１丁目３８番８号村山ビル３Ｆ,,13,112,1560043,,,,,,,2026-01-08,1,,,,,ワイズ,0
654,3010901058752,新規,0,2026-01-08,2026-01-08,株式会社ＬｕｘＷｅｌｌ,,株式会社,東京都,世田谷区,野沢１丁目２９番１３号,,13,112,1540003,,,,,,,2026-01-08,1,,,,,ラクスウェル,0
655,3010901058760,新規,0,2026-01-08,2026-01-08,千歳プロパティ株式会社,,株式会社,東京都,世田谷区,千歳台１丁目３３番１号,,13,112,1570071,,,,,,,2026-01-08,1,,,,,チトセプロパティ,0
660,3011001174754,新規,0,2026-01-08,2026-01-08,株式会社Ｌｙｓ　ｂｌａｎｃ．,,株式会社,東京都,渋谷区,代々木２丁目２７－１３オカダマンション２－Ｄ,,13,113,1510053,,,,,,,2026-01-08,1,,,,,リブラン,0
662,3011003023265,新規,0,2026-01-08,2026-01-08,合同会社Ｍｏｌｌｙ,,合同会社,東京都,渋谷区,道玄坂１丁目１０番８号渋谷道玄坂東急ビル２Ｆ－Ｃ,,13,113,1500043,,,,,,,2026-01-08,1,,,,,モオリー,0
663,3011003023273,新規,0,2026-01-08,2026-01-08,合同会社ＷＡＲＥＨＯＵＳＥ,,合同会社,東京都,渋谷区,道玄坂２丁目９番１０号,,13,113,1500043,,,,,,,2026-01-08,1,,,,,ウエアハウス,0
665,3011101114585,新規,0,2026-01-08,2026-01-08,株式会社白白,,株式会社,東京都,新宿区,西新宿３丁目３番１３号西新宿水間ビル６階,,13,104,1600023,,,,,,,2026-01-08,1,,,,,シラシロ,0
670,3011303005814,新規,0,2026-01-08,2026-01-08,合同会社２１ＧＲＡＭＳ,,合同会社,東京都,杉並区,阿佐谷北２丁目１２番４号－１０５,,13,115,1660001,,,,,,,2026-01-08,1,,,,,ニジュウイチグラム,0
678,3011801047275,新規,0,2026-01-08,2026-01-08,株式会社ｍｏｎｒｅｖｕ,,株式会社,東京都,足立区,足立４丁目４１番５－３０２号,,13,121,1200015,,,,,,,2026-01-08,1,,,,,モンレーヴ,0
679,3011803007236,新規,0,2026-01-08,2026-01-08,合同会社クレド,,合同会社,東京都,足立区,島根１丁目２－５アドリーム梅島１０５,,13,121,1210815,,,,,,,2026-01-08,1,,,,,クレド,0
683,3012401043986,新規,0,2026-01-08,2026-01-08,株式会社一冠,,株式会社,東京都,狛江市,元和泉３丁目３番１２号,,13,219,2010013,,,,,,,2026-01-08,1,,,,,イチカン,0
716,3020001166546,新規,0,2026-01-08,2026-01-08,株式会社元貴,,株式会社,神奈川県,川崎市高津区,末長１丁目４６－２２森下ビル１Ｆ,,14,134,2130013,,,,,,,2026-01-08,1,,,,,ゲンキ,0
720,3021001087220,新規,0,2026-01-08,2026-01-08,株式会社ＳＯＫＵＧＡＩ,,株式会社,神奈川県,相模原市緑区,向原１丁目１０番４３－２０６号,,14,151,2520104,,,,,,,2026-01-08,1,,,,,ソクガイ,0
721,3021001087229,新規,0,2026-01-08,2026-01-08,株式会社弥栄,,株式会社,神奈川県,鎌倉市,津５５４番地５,,14,204,2480032,,,,,,,2026-01-08,1,,,,,ヤサカ,0
727,3030001170274,新規,0,2026-01-08,2026-01-08,株式会社ＡＳＳＫ,,株式会社,埼玉県,さいたま市大宮区,仲町１丁目１２５番地１１・３階,,11,103,3300845,,,,,,,2026-01-08,1,,,,,アスク,0
728,3030001170316,新規,0,2026-01-08,2026-01-08,株式会社１１．５９,,株式会社,埼玉県,熊谷市,筑波１丁目１７１番地１金井ビル２階,,11,202,3600037,,,,,,,2026-01-08,1,,,,,イレブンフィフティーナイン,0
729,3030001170381,新規,0,2026-01-08,2026-01-08,株式会社ＭＳ,,株式会社,埼玉県,さいたま市北区,吉野町２丁目２６６番地２,,11,102,3310811,,,,,,,2026-01-08,1,,,,,エムエス,0
730,3030001170398,新規,0,2026-01-08,2026-01-08,株式会社Ｔｒｉｖｉｓｉｏｎ　Ｐａｒｔｎｅｒｓ,,株式会社,埼玉県,さいたま市浦和区,駒場１丁目２９－１８,,11,107,3300051,,,,,,,2026-01-08,1,,,,,トライビジョンパートナーズ,0
731,3030001170415,新規,0,2026-01-08,2026-01-08,株式会社ＫＰ,,株式会社,埼玉県,吉川市,大字上内川１３３８番地１,,11,243,3420001,,,,,,,2026-01-08,1,,,,,ケーピー,0
732,3030001170423,新規,0,2026-01-08,2026-01-08,株式会社あろラボ,,株式会社,埼玉県,さいたま市大宮区,桜木町２丁目３番地大宮マルイ７階,,11,103,3300854,,,,,,,2026-01-08,1,,,,,アロラボ,0
733,3030001170472,新規,0,2026-01-08,2026-01-08,株式会社ＺＥＬＱ,,株式会社,埼玉県,さいたま市桜区,西堀８丁目１７番１５号浦和プラザＡ３０３,,11,106,3380832,,,,,,,2026-01-08,1,,,,,ゼルク,0
735,3030003028347,新規,0,2026-01-08,2026-01-08,合同会社Ｓｉｉｐ,,合同会社,埼玉県,新座市,東北１丁目８番２号,,11,230,3520001,,,,,,,2026-01-08,1,,,,,シープ,0
736,3030003028371,新規,0,2026-01-08,2026-01-08,合同会社ＪＡＰＡＮ,,合同会社,埼玉県,所沢市,大字下富５９１番地の１,,11,208,3590001,,,,,,,2026-01-08,1,,,,,ジャパン,0
737,3030003028413,新規,0,2026-01-08,2026-01-08,合同会社Ｙ’Ｓプラン,,合同会社,埼玉県,狭山市,大字北入曽７５５番地の１ガーデンシティ狭山２－５１３,,11,215,3501315,,,,,,,2026-01-08,1,,,,,ワイズプラン,0
742,3040001142025,新規,0,2026-01-08,2026-01-08,株式会社ＦＡＣＴ,,株式会社,千葉県,千葉市中央区,新町１７番地１２,,12,101,2600028,,,,,,,2026-01-08,1,,,,,ファクト,0
748,3040003029071,新規,0,2026-01-08,2026-01-08,合同会社ラ・セレンテ,,合同会社,千葉県,市川市,新田５丁目２－２アッズーロ６０３,,12,203,2720035,,,,,,,2026-01-08,1,,,,,ラセレンテ,0
749,3040003029253,新規,0,2026-01-08,2026-01-08,ＯＮＥ　ＰＡＣ合同会社,,合同会社,千葉県,船橋市,三山１丁目１３－３－１０１,,12,204,2740072,,,,,,,2026-01-08,1,,,,,ワンパック,0
752,3050001057817,新規,0,2026-01-08,2026-01-08,株式会社蒼幸,,株式会社,茨城県,結城郡八千代町,大字東蕗田７５０番地５,,08,521,3003545,,,,,,,2026-01-08,1,,,,,ソウコウ,0
753,3050003009832,新規,0,2026-01-08,2026-01-08,合同会社Ｆ．Ｉ．Ｔ,,合同会社,茨城県,つくば市,大角豆７３７－５,,08,220,3050043,,,,,,,2026-01-08,1,,,,,エフアイティー,0
754,3050003009857,新規,0,2026-01-08,2026-01-08,合同会社櫻井塗装工業,,合同会社,茨城県,結城市,大字結城２５０６番地１,,08,207,3070001,,,,,,,2026-01-08,1,,,,,サクライトソウコウギョウ,0
759,3080001027362,新規,0,2026-01-08,2026-01-08,株式会社葉,,株式会社,静岡県,静岡市葵区,大岩本町９番３０－３０４号,,22,101,4200884,,,,,,,2026-01-08,1,,,,,ヨウ,0
763,3080401028365,新規,0,2026-01-08,2026-01-08,株式会社ｐｌｕｓ１．８,,株式会社,静岡県,浜松市中央区,積志町６４番地の３,,22,138,4313114,,,,,,,2026-01-08,1,,,,,プラスイッテンハチ,0
783,3120001283158,新規,0,2026-01-08,2026-01-08,山栄建設株式会社,,株式会社,大阪府,大阪市港区,南市岡１丁目３番１０号Ｃｌａｖｉｓみなと１０１号,,27,107,5520011,,,,,,,2026-01-08,1,,,,,サンエイケンセツ,0
784,3120001283174,新規,0,2026-01-08,2026-01-08,株式会社ＬＥＯＮＩＸ,,株式会社,大阪府,大阪市旭区,中宮１丁目１３番２０号,,27,117,5350003,,,,,,,2026-01-08,1,,,,,レオニクス,0
785,3120001283224,新規,0,2026-01-08,2026-01-08,株式会社Ｅｌｌｅｎ,,株式会社,大阪府,大阪市東成区,中道３丁目１６－２５,,27,115,5370025,,,,,,,2026-01-08,1,,,,,エレン,0
792,3120901052034,新規,0,2026-01-08,2026-01-08,株式会社佑リフォーム,,株式会社,大阪府,吹田市,豊津町１３番４５号第３暁ビル７Ｆ,,27,205,5640051,,,,,,,2026-01-08,1,,,,,ユウリフォーム,0
797,3130003011045,新規,0,2026-01-08,2026-01-08,合同会社サウス,,合同会社,京都府,綴喜郡井手町,大字井手小字北玉水３７番地の２,,26,343,6100302,,,,,,,2026-01-08,1,,,,,サウス,0
798,3130003011061,新規,0,2026-01-08,2026-01-08,合同会社はちまん電設,,合同会社,京都府,八幡市,八幡清水井２１０番地の８,,26,210,6148062,,,,,,,2026-01-08,1,,,,,ハチマンデンセツ,0
802,3140003023056,新規,0,2026-01-08,2026-01-08,Ｉ．Ｃ．Ｐ合同会社,,合同会社,兵庫県,神戸市垂水区,西舞子５丁目１－２,,28,108,6550048,,,,,,,2026-01-08,1,,,,,アイドットシードットピー,0
808,3180005021368,新規,0,2026-01-08,2026-01-08,社会保険労務士法人菊川事務所,,その他の設立登記法人,愛知県,名古屋市緑区,大高町字池之内７１番地の１,,23,114,4598001,,,,,,,2026-01-08,1,,,,,キクカワジムショ,0
809,3180005021376,新規,0,2026-01-08,2026-01-08,一般財団法人Ｂｌａｕｅ　Ｒｏｓｅｎ,,その他の設立登記法人,愛知県,名古屋市中村区,名駅５丁目２８番１号,,23,105,4500002,,,,,,,2026-01-08,1,,,,,ブラウローゼン,0
813,3190001032797,新規,0,2026-01-08,2026-01-08,株式会社コネクトファーマシー,,株式会社,三重県,四日市市,東坂部町１５０番地６０,,24,202,5120904,,,,,,,2026-01-08,1,,,,,コネクトファーマシー,0
820,3200001044584,新規,0,2026-01-08,2026-01-08,株式会社井上商会,,株式会社,岐阜県,瑞浪市,釜戸町２９６１番地の２,,21,208,5096472,,,,,,,2026-01-08,1,,,,,イノウエショウカイ,0
821,3200001044592,新規,0,2026-01-08,2026-01-08,株式会社ＥＬＥＣＴ,,株式会社,岐阜県,岐阜市,北一色４丁目６番２２号,,21,201,5008227,,,,,,,2026-01-08,1,,,,,エレクト,0
825,3210001020444,新規,0,2026-01-08,2026-01-08,株式会社ヒビノベイク,,株式会社,福井県,福井市,生部町第３号７番地,,18,201,9190314,,,,,,,2026-01-08,1,,,,,ヒビノベイク,0
828,3220001027100,新規,0,2026-01-08,2026-01-08,エムティーケー株式会社,,株式会社,石川県,加賀市,松が丘１丁目２０番地２３,,17,206,9220436,,,,,,,2026-01-08,1,,,,,エムティーケー,0
829,3230001021226,新規,0,2026-01-08,2026-01-08,株式会社Ｒｉｓｅ,,株式会社,富山県,高岡市,野村４８６番地シマビル１階,,16,202,9330014,,,,,,,2026-01-08,1,,,,,ライズ,0
830,3230001021234,新規,0,2026-01-08,2026-01-08,株式会社トラスワークス,,株式会社,富山県,砺波市,杉木１丁目９７番地,,16,208,9391355,,,,,,,2026-01-08,1,,,,,トラスワークス,0
832,3240001066022,新規,0,2026-01-08,2026-01-08,株式会社しょうきち,,株式会社,広島県,広島市中区,土橋町３番１３号,,34,101,7300854,,,,,,,2026-01-08,1,,,,,ショウキチ,0
833,3260001040867,新規,0,2026-01-08,2026-01-08,ＪＴＴＪａｐａｎ株式会社,,株式会社,岡山県,岡山市北区,表町１丁目４番５２号上之町オランダビル４階,,33,101,7000822,,,,,,,2026-01-08,1,,,,,ジェイティティジャパン,0
835,3270001009366,新規,0,2026-01-08,2026-01-08,株式会社アロマ桜,,株式会社,鳥取県,米子市,祇園町２丁目２０６番地ラフェスタ祇園５０３号,,31,202,6830047,,,,,,,2026-01-08,1,,,,,アロマサクラ,0
838,3290001112688,新規,0,2026-01-08,2026-01-08,Ｉｎｖｅｓｔａｉｒｅ株式会社,,株式会社,福岡県,福岡市城南区,別府７丁目４番３４号１階２号室,,40,136,8140104,,,,,,,2026-01-08,1,,,,,インヴェステール,0
840,3290003017902,新規,0,2026-01-08,2026-01-08,Ｇｒａｎｄ　Ｃｈｉｌｄ合同会社,,合同会社,福岡県,糟屋郡須惠町,大字植木５３５番地１０,,40,344,8112112,,,,,,,2026-01-08,1,,,,,グランドチャイルド,0
842,3290803005247,新規,0,2026-01-08,2026-01-08,合同会社杉乃樹,,合同会社,福岡県,北九州市八幡東区,八王子町１番８号,,40,108,8050000,,,,,,,2026-01-08,1,,,,,スギノキ,0
847,3310001019906,新規,0,2026-01-08,2026-01-08,株式会社一信建装,,株式会社,長崎県,諫早市,多良見町化屋８２０番地２,,42,204,8590401,,,,,,,2026-01-08,1,,,,,イッシンケンソウ,0
849,3320003004871,新規,0,2026-01-08,2026-01-08,合同会社ＧＭＸ,,合同会社,大分県,中津市,大字牛神２２０番地１ライフプラザ中津１００６号,,44,203,8710015,,,,,,,2026-01-08,1,,,,,ジーエムエックス,0
850,3330001033871,新規,0,2026-01-08,2026-01-08,株式会社城野印刷所,,株式会社,熊本県,上益城郡益城町,大字広崎１６３０番地１,,43,443,8612236,,,,,,,2026-01-08,1,,,,,ジョウノインサツショ,0
851,3330001033888,新規,0,2026-01-08,2026-01-08,株式会社Ｓ,,株式会社,熊本県,熊本市北区,梶尾町１７９０番地６,,43,105,8615512,,,,,,,2026-01-08,1,,,,,エス,0
853,3340001027864,新規,0,2026-01-08,2026-01-08,株式会社新,,株式会社,鹿児島県,奄美市,名瀬和光町３番地５,,46,222,8940007,,,,,,,2026-01-08,1,,,,,ニュウ,0
854,3340001027880,新規,0,2026-01-08,2026-01-08,株式会社ＭＩＫＡＺＵＫＩ,,株式会社,鹿児島県,鹿児島市,清和４丁目４番４３号,,46,201,8910109,,,,,,,2026-01-08,1,,,,,ミカズキ,0
855,3340001027889,新規,0,2026-01-08,2026-01-08,株式会社守護テック,,株式会社,鹿児島県,大島郡和泊町,大字後蘭９９番地,,46,533,8919132,,,,,,,2026-01-08,1,,,,,シュゴテック,0
856,3340003005059,新規,0,2026-01-08,2026-01-08,合同会社織彩,,合同会社,鹿児島県,鹿児島市,中山町２５７１番地３,,46,201,8910105,,,,,,,2026-01-08,1,,,,,シキサイ,0
859,3360001036211,新規,0,2026-01-08,2026-01-08,株式会社ｗａｌｔｄｙ,,株式会社,沖縄県,中頭郡北谷町,美浜１丁目３番地１０・１Ｆ,,47,326,9040115,,,,,,,2026-01-08,1,,,,,ウォルディー,0
860,3360001036228,新規,0,2026-01-08,2026-01-08,株式会社事業承継おきなわ,,株式会社,沖縄県,那覇市,久茂地１丁目１－１－９Ｆ,,47,201,9000015,,,,,,,2026-01-08,1,,,,,ジギョウショウケイオキナワ,0
861,3360003015535,新規,0,2026-01-08,2026-01-08,合同会社まさえ商店,,合同会社,沖縄県,八重山郡与那国町,字与那国１８３番地１,,47,382,9071801,,,,,,,2026-01-08,1,,,,,マサエショウテン,0
869,3370001053370,新規,0,2026-01-08,2026-01-08,ＲｅＢｌｏｏｍ　Ｓｔｒａｔｅｇｙ株式会社,,株式会社,宮城県,仙台市若林区,大和町４丁目１６番５－３号,,04,103,9840042,,,,,,,2026-01-08,1,,,,,リブルームストラテジー,0
873,3380003006219,新規,0,2026-01-08,2026-01-08,合同会社Ｐｅｔａｌ,,合同会社,福島県,須賀川市,北山寺町１８１番地,,07,207,9620061,,,,,,,2026-01-08,1,,,,,ペタル,0
874,3380003006227,新規,0,2026-01-08,2026-01-08,合同会社直一,,合同会社,福島県,本宮市,本宮字塩田入６０番地２,,07,214,9691153,,,,,,,2026-01-08,1,,,,,ナオイチ,0
879,3400001017272,新規,0,2026-01-08,2026-01-08,清水物産東北丸恩株式会社,,株式会社,岩手県,北上市,相去町平林１４番地４,,03,206,0240051,,,,,,,2026-01-08,1,,,,,シミズブッサントウホクマルオン,0
889,3430001096009,新規,0,2026-01-08,2026-01-08,株式会社ＴＳ工業,,株式会社,北海道,札幌市手稲区,金山一条４丁目７番８号,,01,109,0060041,,,,,,,2026-01-08,1,,,,,ティーエスコウギョウ,0
890,3430001096025,新規,0,2026-01-08,2026-01-08,株式会社モノポリー,,株式会社,北海道,札幌市手稲区,前田八条９丁目２番２０号,,01,109,0060818,,,,,,,2026-01-08,1,,,,,モノポリー,0
892,3450001014827,新規,0,2026-01-08,2026-01-08,株式会社ＢＡＳＥプランニング,,株式会社,北海道,旭川市,三条通８丁目１７０５番地４３,,01,204,0700033,,,,,,,2026-01-08,1,,,,,ベースプランニング,0
893,3450003002763,新規,0,2026-01-08,2026-01-08,合同会社クサカ,,合同会社,北海道,士別市,多寄町三十一線西２６番地,,01,220,0980475,,,,,,,2026-01-08,1,,,,,クサカ,0
897,3490005007022,新規,0,2026-01-08,2026-01-08,一般社団法人高知住まいと空き家相談センター,,その他の設立登記法人,高知県,高知市,升形１０番５号,,39,201,7800861,,,,,,,2026-01-08,1,,,,,コウチスマイトアキヤソウダンセンター,0
913,4010001261545,新規,0,2026-01-08,2026-01-08,株式会社兆人,,株式会社,東京都,中央区,銀座１丁目１２番４号Ｎ＆ＥＢＬＤ．６Ｆ,,13,102,1040061,,,,,,,2026-01-08,1,,,,,チョウジン,0
914,4010001261611,新規,0,2026-01-08,2026-01-08,株式会社真心堂,,株式会社,東京都,中央区,勝どき４丁目６番１－５１１０号,,13,102,1040054,,,,,,,2026-01-08,1,,,,,シンシンドウ,0
915,4010001261636,新規,0,2026-01-08,2026-01-08,感動と笑顔株式会社,,株式会社,東京都,千代田区,麹町１丁目６番４号,,13,101,1020083,,,,,,,2026-01-08,1,,,,,カンドウトエガオ,0
916,4010001261768,新規,0,2026-01-08,2026-01-08,株式会社Ｔｏｋｙｏｅｉｇｏ　Ｗｏｒｋｓ,,株式会社,東京都,中央区,日本橋浜町２丁目１９－３神谷ビル１階,,13,102,1030007,,,,,,,2026-01-08,1,,,,,トウキョウエイゴワークス,0
917,4010001261818,新規,0,2026-01-08,2026-01-08,株式会社ＧＯＥＮアーキテクト,,株式会社,東京都,千代田区,神田神保町３丁目１１番６号神保町ビル１０階,,13,101,1010051,,,,,,,2026-01-08,1,,,,,ゴエンアーキテクト,0
919,4010003049848,新規,0,2026-01-08,2026-01-08,ＫＹＯ　ＥＮＥＲＧＹ２合同会社,,合同会社,東京都,中央区,京橋２丁目６番１５号ＭＣＡ京橋ビル３Ｆ,,13,102,1040031,,,,,,,2026-01-08,1,,,,,キョウエネルギーツー,0
920,4010003049889,新規,0,2026-01-08,2026-01-08,ダントー・アルプス系統用蓄電所Ｌ合同会社,,合同会社,東京都,中央区,銀座１丁目８番１６号３階,,13,102,1040061,,,,,,,2026-01-08,1,,,,,ダントーアルプスケイトウヨウチクデンショエル,0
921,4010003049897,新規,0,2026-01-08,2026-01-08,Ｌｅｅ　Ｆａｍｉｌｙ　Ｊａｐａｎ　Ｈｏｌｄｉｎｇ合同会社,,合同会社,東京都,中央区,築地４丁目２番７－６０１号,,13,102,1040045,,,,,,,2026-01-08,1,,,,,リーファミリージャパンホールディング,0
922,4010003049939,新規,0,2026-01-08,2026-01-08,合同会社ユニ・ロジカ,,合同会社,東京都,中央区,日本橋２丁目１－３アーバンネット日本橋二丁目ビル１０Ｆ－１００１,,13,102,1030027,,,,,,,2026-01-08,1,,,,,ユニロジカ,0
924,4010005041175,新規,0,2026-01-08,2026-01-08,一般社団法人アジア獣医外科学専門医協会,,その他の設立登記法人,東京都,文京区,大塚３丁目３３番５－３０２号,,13,105,1120012,,,,,,,2026-01-08,1,,,,,アジアジュウイゲカガクセンモンイキョウカイ,0
926,4010105002358,新規,0,2026-01-08,2026-01-08,一般財団法人ＴＡＫＩＧＡＷＡ‐ＰＨＩＬＡＮ,,その他の設立登記法人,東京都,八王子市,子安町１丁目３番１３号,,13,201,1920904,,,,,,,2026-01-08,1,,,,,タキガワフィラン,0
934,4010501055257,新規,0,2026-01-08,2026-01-08,株式会社渡辺,,株式会社,東京都,台東区,浅草２丁目２７番５号,,13,106,1110032,,,,,,,2026-01-08,1,,,,,ワタナベ,0
939,4010701048845,新規,0,2026-01-08,2026-01-08,株式会社ＫＯＭＥＩ,,株式会社,東京都,品川区,大井１丁目２３－１カクタビル８Ｆ,,13,109,1400014,,,,,,,2026-01-08,1,,,,,コウメイ,0
940,4010701048853,新規,0,2026-01-08,2026-01-08,チケットサポート株式会社,,株式会社,東京都,品川区,小山３丁目５番２２－５０２号,,13,109,1420062,,,,,,,2026-01-08,1,,,,,チケットサポート,0
941,4010703008062,新規,0,2026-01-08,2026-01-08,合同会社夕凪,,合同会社,東京都,品川区,西五反田８丁目１０番１４－１２０８号,,13,109,1410031,,,,,,,2026-01-08,1,,,,,ユウナギ,0
942,4010703008070,新規,0,2026-01-08,2026-01-08,田端屋合同会社,,合同会社,東京都,品川区,南品川３丁目６番６号,,13,109,1400004,,,,,,,2026-01-08,1,,,,,タバタヤ,0
945,4010903010545,新規,0,2026-01-08,2026-01-08,ＵＭＩＢＡＳＥ合同会社,,合同会社,東京都,世田谷区,砧８丁目３２―３８,,13,112,1570073,,,,,,,2026-01-08,1,,,,,ウミベース,0
963,4011301031159,新規,0,2026-01-08,2026-01-08,株式会社ＧＲＡＣＥ,,株式会社,東京都,杉並区,高円寺南４丁目４１番１０号,,13,115,1660003,,,,,,,2026-01-08,1,,,,,グレイス,0
964,4011303005813,新規,0,2026-01-08,2026-01-08,合同会社Ｓｕｚｕｔｔｏ,,合同会社,東京都,杉並区,上高井戸１丁目５番２６号,,13,115,1680074,,,,,,,2026-01-08,1,,,,,スズット,0
966,4011305003088,新規,0,2026-01-08,2026-01-08,一般社団法人日本インドアドローンショー協会,,その他の設立登記法人,東京都,杉並区,成田東３丁目３２番１６号,,13,115,1660015,,,,,,,2026-01-08,1,,,,,ニホンインドアドローンショーキョウカイ,0
969,4011503006826,新規,0,2026-01-08,2026-01-08,合同会社ネクト,,合同会社,東京都,北区,赤羽１丁目７番地９赤羽第一葉山ビル４階,,13,117,1150045,,,,,,,2026-01-08,1,,,,,ネクト,0
970,4011603004969,新規,0,2026-01-08,2026-01-08,Ｏｒｂｉｓ　Ｃｏｎｓｕｌｔｉｎｇ　Ｊａｐａｎ合同会社,,合同会社,東京都,練馬区,田柄４丁目３６番１２号,,13,120,1790073,,,,,,,2026-01-08,1,,,,,オルビスコンサルティングジャパン,0
972,4011701029059,新規,0,2026-01-08,2026-01-08,株式会社Ｑｕｅ　Ｓｅｒａ,,株式会社,東京都,江戸川区,鹿骨５丁目１８番３号,,13,123,1330073,,,,,,,2026-01-08,1,,,,,ケセラ,0
973,4011703004480,新規,0,2026-01-08,2026-01-08,万里国際合同会社,,合同会社,東京都,江戸川区,北小岩５丁目４－１８,,13,123,1330051,,,,,,,2026-01-08,1,,,,,マンリコクサイ,0
974,4011803007251,新規,0,2026-01-08,2026-01-08,合同会社チクマステージアート,,合同会社,東京都,葛飾区,四つ木３丁目１４番１４号,,13,122,1240011,,,,,,,2026-01-08,1,,,,,チクマステージアート,0
978,4012401043969,新規,0,2026-01-08,2026-01-08,株式会社こたこた,,株式会社,東京都,武蔵野市,吉祥寺南町５丁目３番１２号マーガレットハイツ１０５,,13,203,1800003,,,,,,,2026-01-08,1,,,,,コタコタ,0
979,4012401043985,新規,0,2026-01-08,2026-01-08,株式会社アコリア,,株式会社,東京都,調布市,調布ケ丘２丁目１５番地１ビリアベルデ５０２,,13,208,1820021,,,,,,,2026-01-08,1,,,,,アコリア,0
980,4012403007550,新規,0,2026-01-08,2026-01-08,合同会社ルネッサンス,,合同会社,東京都,調布市,仙川町２丁目９番地４０スクエア田邊１０２,,13,208,1820002,,,,,,,2026-01-08,1,,,,,ルネッサンス,0
981,4012801024453,新規,0,2026-01-08,2026-01-08,株式会社Ａｋｓｉｄ,,株式会社,東京都,日野市,多摩平１丁目４番地の１１大彌ビル２０１号,,13,212,1910062,,,,,,,2026-01-08,1,,,,,アクシード,0
1004,4020001166504,新規,0,2026-01-08,2026-01-08,株式会社ＲｅＷＲｉｇｈｔ‐Ｌａｂ,,株式会社,神奈川県,横浜市鶴見区,上の宮１丁目３６番３号,,14,101,2300075,,,,,,,2026-01-08,1,,,,,リライトラボ,0
1005,4020001166553,新規,0,2026-01-08,2026-01-08,ＬＨＬ株式会社,,株式会社,神奈川県,川崎市川崎区,浜町１丁目４番５－５号,,14,131,2100851,,,,,,,2026-01-08,1,,,,,エルエイチエル,0
1011,4020003030063,新規,0,2026-01-08,2026-01-08,合同会社Ｒｅｂｏｒｎ,,合同会社,神奈川県,横浜市西区,南幸２丁目８番５号小室ビル２階,,14,103,2200005,,,,,,,2026-01-08,1,,,,,リボーン,0
1012,4020003030071,新規,0,2026-01-08,2026-01-08,ペルシャン合同会社,,合同会社,神奈川県,川崎市宮前区,宮崎６丁目８番地１２,,14,136,2160033,,,,,,,2026-01-08,1,,,,,ペルシャン,0
1027,4030001170364,新規,0,2026-01-08,2026-01-08,株式会社英内装,,株式会社,埼玉県,狭山市,大字堀兼１１２６番地の１０,,11,215,3501312,,,,,,,2026-01-08,1,,,,,ハナブサナイソウ,0
1028,4030001170397,新規,0,2026-01-08,2026-01-08,株式会社ラポール,,株式会社,埼玉県,春日部市,米島１１８６番地７９Ｙ・ｆｏｒｅｓｔＩＩ－１０１号室,00142080,11,214,3440115,,,,,,,2026-01-08,1,,,,,ラポール,0
1029,4030001170406,新規,0,2026-01-08,2026-01-08,愛恵スチールアーキテクト株式会社,,株式会社,埼玉県,和光市,白子１丁目１１番２０ー５０９号,,11,229,3510101,,,,,,,2026-01-08,1,,,,,アイケイスチールアーキテクト,0
1030,4030001170414,新規,0,2026-01-08,2026-01-08,ＴＲＡＤＥ　ｗｉｔｈ　ＪＡＰＡＮ株式会社,,株式会社,埼玉県,さいたま市桜区,桜田１丁目１２番１８号,,11,106,3380833,,,,,,,2026-01-08,1,,,,,トレードウィズジャパン,0
1031,4030001170430,新規,0,2026-01-08,2026-01-08,鵜野商事株式会社,,株式会社,埼玉県,さいたま市大宮区,寿能町１丁目５番地１０,,11,103,3300805,,,,,,,2026-01-08,1,,,,,ウノショウジ,0
1032,4030001170455,新規,0,2026-01-08,2026-01-08,ネクスト株式会社,,株式会社,埼玉県,さいたま市岩槻区,上里２丁目１番地４１,,11,110,3390006,,,,,,,2026-01-08,1,,,,,ネクスト,0
1033,4030001170488,新規,0,2026-01-08,2026-01-08,たかなみ株式会社,,株式会社,埼玉県,さいたま市大宮区,三橋２丁目４２５番地ライオンズガーデン大宮３０３号,,11,103,3300856,,,,,,,2026-01-08,1,,,,,タカナミ,0
1035,4030003028412,新規,0,2026-01-08,2026-01-08,合同会社ＥＭＩＴＥＣＸ,,合同会社,埼玉県,久喜市,野久喜６３３番地１ハイツゴールド１０３号,,11,232,3460002,,,,,,,2026-01-08,1,,,,,エミテックス,0
1037,4040001141967,新規,0,2026-01-08,2026-01-08,株式会社ＮＴ総業,,株式会社,千葉県,船橋市,本町４丁目４４番１号,,12,204,2730005,,,,,,,2026-01-08,1,,,,,エヌティーソウギョウ,0
1038,4040001142024,新規,0,2026-01-08,2026-01-08,株式会社ＭＫエステート,,株式会社,千葉県,四街道市,めいわ３丁目１６番２０号,,12,228,2840043,,,,,,,2026-01-08,1,,,,,エムケーエステート,0
1039,4040001142049,新規,0,2026-01-08,2026-01-08,Ｏｆｆｉｃｅ　Ｓａｎｕｋ株式会社,,株式会社,千葉県,成田市,花崎町８５６－２Ｆ,,12,211,2860033,,,,,,,2026-01-08,1,,,,,オフィスサヌック,0
1042,4040003029252,新規,0,2026-01-08,2026-01-08,合同会社ＮＡＧＯＷＡ,,合同会社,千葉県,習志野市,藤崎３丁目２２番９号,,12,216,2750017,,,,,,,2026-01-08,1,,,,,,0
1052,4060001038906,新規,0,2026-01-08,2026-01-08,株式会社ＡｎＮａ,,株式会社,栃木県,足利市,通１丁目２６７７番地１,,09,202,3260814,,,,,,,2026-01-08,1,,,,,アンナ,0
1053,4060001038914,新規,0,2026-01-08,2026-01-08,プロパ・エステート株式会社,,株式会社,栃木県,下都賀郡壬生町,表町８番５号,,09,361,3210224,,,,,,,2026-01-08,1,,,,,プロパエステート,0
1055,4060003005920,新規,0,2026-01-08,2026-01-08,Ａ‐ｋｕ‐ｓａ　ｃａｒｅ合同会社,,合同会社,栃木県,足利市,五十部町７４９番地３,,09,202,3260843,,,,,,,2026-01-08,1,,,,,アクサケア,0
1056,4070001043698,新規,0,2026-01-08,2026-01-08,株式会社ＧＲＵＩＳＴＡＲＳ,,株式会社,群馬県,高崎市,上大類町８３６番地１,,10,202,3700031,,,,,,,2026-01-08,1,,,,,,0
1058,4070003006249,新規,0,2026-01-08,2026-01-08,エクストリームライフ合同会社,,合同会社,群馬県,吾妻郡草津町,大字草津７４３番地２アドリーム草津３２３,,10,426,3771711,,,,,,,2026-01-08,1,,,,,エクストリームライフ,0
1063,4080003003625,新規,0,2026-01-08,2026-01-08,合同会社ｐｉｌａｔｅｓ　ｌａｇｏｍ,,合同会社,静岡県,静岡市葵区,宮ケ崎町２６,,22,101,4200868,,,,,,,2026-01-08,1,,,,,ピラティスラゴム,0
1067,4080103003500,新規,0,2026-01-08,2026-01-08,合同会社ＳＳＳ,,合同会社,静岡県,裾野市,佐野１４４９番地の１,,22,220,4101118,,,,,,,2026-01-08,1,,,,,エスエスエス,0
1068,4080401028364,新規,0,2026-01-08,2026-01-08,いすゞ産業株式会社,,株式会社,静岡県,浜松市浜名区,小松３３９５番地の２,,22,139,4340042,,,,,,,2026-01-08,1,,,,,イスズサンギョウ,0
1073,4100003008563,新規,0,2026-01-08,2026-01-08,合同会社ヴィレッジブリッジ,,合同会社,長野県,千曲市,大字稲荷山１４４０番地１３,,20,218,3870021,,,,,,,2026-01-08,1,,,,,ヴィレッジブリッジ,0
1075,4110001039824,新規,0,2026-01-08,2026-01-08,株式会社ＭＹＫフードビジネス,,株式会社,新潟県,新潟市中央区,女池神明１丁目１番地２,,15,103,9500943,,,,,,,2026-01-08,1,,,,,エムワイケーフードビジネス,0
1090,4120001283099,新規,0,2026-01-08,2026-01-08,トモイ自動車部品株式会社,,株式会社,大阪府,大阪市都島区,都島北通１丁目１３－１８プレアール都島Ｖ－１Ｆ倉庫,,27,102,5340014,,,,,,,2026-01-08,1,,,,,トモイジドウシャブヒン,0
1091,4120001283173,新規,0,2026-01-08,2026-01-08,株式会社Ｗ１１Ｂ,,株式会社,大阪府,大阪市中央区,平野町２丁目２番９号皿井ビル４０１号,,27,128,5410046,,,,,,,2026-01-08,1,,,,,ダブルビー,0
1092,4120001283215,新規,0,2026-01-08,2026-01-08,株式会社リーフスタジオ,,株式会社,大阪府,大阪市西成区,北開１丁目１番２１－６０４号,,27,122,5570021,,,,,,,2026-01-08,1,,,,,リーフスタジオ,0
1097,4120003031605,新規,0,2026-01-08,2026-01-08,ｏｔｔｏ合同会社,,合同会社,大阪府,大阪市東成区,神路４丁目１番２５－８０４号,,27,115,5370003,,,,,,,2026-01-08,1,,,,,オットー,0
1098,4120005025332,新規,0,2026-01-08,2026-01-08,ＷＰＰ行政書士法人,,その他の設立登記法人,大阪府,大阪市中央区,谷町４丁目５番９号,,27,128,5400012,,,,,,,2026-01-08,1,,,,,ダブルピーピー,0
1101,4120901052033,新規,0,2026-01-08,2026-01-08,株式会社ＥＳＮＡＤＩＡ,,株式会社,大阪府,豊中市,服部西町３丁目１１－１１デュープル豊中２０３号室,,27,203,5610858,,,,,,,2026-01-08,1,,,,,エスナディア,0
1102,4120901052058,新規,0,2026-01-08,2026-01-08,株式会社Ｌｏｔｕｓ,,株式会社,大阪府,池田市,新町３番１１号,,27,204,5630050,,,,,,,2026-01-08,1,,,,,ロータス,0
1103,4122001040075,新規,0,2026-01-08,2026-01-08,株式会社シモテック,,株式会社,大阪府,八尾市,泉町１丁目１２４番地の１,,27,212,5810813,,,,,,,2026-01-08,1,,,,,シモテック,0
1105,4130003011060,新規,0,2026-01-08,2026-01-08,合同会社やすきち,,合同会社,京都府,京都市東山区,八軒町４４４番地,,26,105,6050027,,,,,,,2026-01-08,1,,,,,ヤスキチ,0
1108,4140001141288,新規,0,2026-01-08,2026-01-08,株式会社トライジー,,株式会社,兵庫県,神戸市須磨区,若木町１丁目１３番９号,,28,107,6540014,,,,,,,2026-01-08,1,,,,,トライジー,0
1109,4140001141296,新規,0,2026-01-08,2026-01-08,株式会社Ｋ‐ＰＬＡＩＮＳ,,株式会社,兵庫県,神戸市垂水区,西舞子２丁目１２番５４－９２６号,,28,108,6550048,,,,,,,2026-01-08,1,,,,,ケープレインズ,0
1111,4150001028625,新規,0,2026-01-08,2026-01-08,株式会社キタモク,,株式会社,奈良県,吉野郡吉野町,大字橋屋２０２番地の１２,,29,441,6393118,,,,,,,2026-01-08,1,,,,,キタモク,0
1113,4160001027345,新規,0,2026-01-08,2026-01-08,株式会社ＭＹＳ,,株式会社,滋賀県,栗東市,下戸山１４７６－２,,25,208,5203011,,,,,,,2026-01-08,1,,,,,ミース,0
1119,4180001170110,新規,0,2026-01-08,2026-01-08,株式会社Ｍｏｔｏｎｅ　Ｊａｐａｎ,,株式会社,愛知県,名古屋市名東区,猪子石原３丁目１３０９ＣｅｒｅｓＨＩＫＩＹＡＭＡＢＡＳＥＳ７号,,23,115,4650008,,,,,,,2026-01-08,1,,,,,モートーンジャパン,0
1120,4180001170135,新規,0,2026-01-08,2026-01-08,株式会社Ａｒｐｅｇｅ,,株式会社,愛知県,尾張旭市,東印場町３丁目９番地１６,,23,226,4880830,,,,,,,2026-01-08,1,,,,,アルページュ,0
1124,4180003029560,新規,0,2026-01-08,2026-01-08,合同会社Ｔｏｔａｌｌｙ　Ｎｏｒｍａｌ　Ｇａｍｅｓ,,合同会社,愛知県,名古屋市中村区,名駅４丁目２４番５号第２森ビル４０１,,23,105,4500002,,,,,,,2026-01-08,1,,,,,トータリノーマルゲームズ,0
1126,4180301040566,新規,0,2026-01-08,2026-01-08,株式会社ＬＵＭＩＮＡ,,株式会社,愛知県,岡崎市,広幡町６番地５,,23,202,4440066,,,,,,,2026-01-08,1,,,,,ルミナ,0
1128,4180303006862,新規,0,2026-01-08,2026-01-08,合同会社Ｌｅｆ,,合同会社,愛知県,岡崎市,明大寺町字仲ケ入２３番地４０,,23,202,4440866,,,,,,,2026-01-08,1,,,,,レフ,0
1129,4190001032796,新規,0,2026-01-08,2026-01-08,株式会社ＧＩＶＥ,,株式会社,三重県,鈴鹿市,三日市１丁目１９番９号,,24,207,5130807,,,,,,,2026-01-08,1,,,,,ギブ,0
1130,4190001032805,新規,0,2026-01-08,2026-01-08,廣建築事務所株式会社,,株式会社,三重県,多気郡明和町,大字馬之上８９２番地２７,,24,442,5150332,,,,,,,2026-01-08,1,,,,,ヒロケンチクジムショ,0
1131,4190001032813,新規,0,2026-01-08,2026-01-08,株式会社Ｆｏｕｒ　ＬＩＮＫＳ,,株式会社,三重県,四日市市,大字六呂見字大工縄１１６１番地パインデュー２０２号,,24,202,5100881,,,,,,,2026-01-08,1,,,,,フォーリンクス,0
1132,4190003005321,新規,0,2026-01-08,2026-01-08,ＮｏＬａ合同会社,,合同会社,三重県,伊勢市,黒瀬町１９２４番地２,,24,203,5160018,,,,,,,2026-01-08,1,,,,,ノラ,0
1135,4200001044575,新規,0,2026-01-08,2026-01-08,株式会社リアクト,,株式会社,岐阜県,岐阜市,西川手４丁目１７番地２,,21,201,5008258,,,,,,,2026-01-08,1,,,,,リアクト,0
1136,4200001044600,新規,0,2026-01-08,2026-01-08,株式会社採用設計室,,株式会社,岐阜県,安八郡安八町,東結７１４番地,,21,383,5030112,,,,,,,2026-01-08,1,,,,,サイヨウセッケイシツ,0
1142,4230001021233,新規,0,2026-01-08,2026-01-08,株式会社ｓｏｍｅｔｈｉｎｇ　ｎｅｗ,,株式会社,富山県,高岡市,御旅屋町１０１御旅屋セリオ４Ｆ,,16,202,9330029,,,,,,,2026-01-08,1,,,,,サムシングニュー,0
1144,4250002003220,新規,0,2026-01-08,2026-01-08,有限会社チュール,,有限会社,山口県,防府市,天神２丁目６番２７号,,35,206,7470034,,,,,,,2026-01-08,1,,,,,チュール,0
1148,4260001040874,新規,0,2026-01-08,2026-01-08,株式会社健康科学評価アカデミー,,株式会社,岡山県,岡山市北区,津島中３丁目１－１岡山大学ＫＩＢＩＮＯＶＥ,,33,101,7000082,,,,,,,2026-01-08,1,,,,,ケンコウカガクヒョウカアカデミー,0
1157,4290001112670,新規,0,2026-01-08,2026-01-08,株式会社Ｄｅａｌ,,株式会社,福岡県,福岡市城南区,長尾３丁目２６番１号,,40,136,8140123,,,,,,,2026-01-08,1,,,,,ディール,0
1158,4290001112695,新規,0,2026-01-08,2026-01-08,株式会社ＳＵＮ防災,,株式会社,福岡県,福岡市東区,箱崎２丁目２７番８－１号,,40,131,8120053,,,,,,,2026-01-08,1,,,,,サンボウサイ,0
1162,4290801032135,新規,0,2026-01-08,2026-01-08,株式会社ハマノ,,株式会社,福岡県,田川市,大字伊田５０４７番地１,,40,206,8250002,,,,,,,2026-01-08,1,,,,,ハマノ,0
1164,4290805009897,新規,0,2026-01-08,2026-01-08,医療法人法乗会,,その他の設立登記法人,福岡県,北九州市小倉南区,大字横代４９７番地２６,,40,107,8020824,,,,,,,2026-01-08,1,,,,,ホウジョウカイ,0
1165,4300001014460,新規,0,2026-01-08,2026-01-08,Ｓｕｐｅｒ　Ｓｔａｒ株式会社,,株式会社,佐賀県,西松浦郡有田町,立部乙２１２１番地２,,41,401,8494153,,,,,,,2026-01-08,1,,,,,スーパースター,0
1167,4310005008887,新規,0,2026-01-08,2026-01-08,弁護士法人ＷｅｓｔＧａｔｅ法律事務所,,その他の設立登記法人,長崎県,長崎市,万才町６番３４号,,42,201,8500033,,,,,,,2026-01-08,1,,,,,ウェストゲートホウリツジムショ,0
1171,4330003011379,新規,0,2026-01-08,2026-01-08,合同会社１ｓｔ,,合同会社,熊本県,熊本市中央区,下通１丁目７番３号アルタビルＢ１Ｆ,,43,101,8600807,,,,,,,2026-01-08,1,,,,,ファースト,0
1172,4340001027888,新規,0,2026-01-08,2026-01-08,株式会社本農産,,株式会社,鹿児島県,南さつま市,加世田宮原５４５番地４,,46,220,8971124,,,,,,,2026-01-08,1,,,,,モトノウサン,0
1173,4350001019868,新規,0,2026-01-08,2026-01-08,橙山業株式会社,,株式会社,宮崎県,延岡市,古川町１１８７番地,,45,203,8820063,,,,,,,2026-01-08,1,,,,,ダイダイサンギョウ,0
1178,4360001036210,新規,0,2026-01-08,2026-01-08,Ｊ‐ＭＥＤＩＸ沖縄株式会社,,株式会社,沖縄県,那覇市,松川３丁目１７番１１－９０３号,,47,201,9020062,,,,,,,2026-01-08,1,,,,,ジェイメディックスオキナワ,0
1179,4360001036219,新規,0,2026-01-08,2026-01-08,株式会社田中工業,,株式会社,沖縄県,沖縄市,東１丁目３３番１３号ＮＥＯ・ＺＯＮＥ・ＣＬＯＶＥＲ２０６,,47,211,9042154,,,,,,,2026-01-08,1,,,,,タナカコウギョウ,0
1180,4360003015534,新規,0,2026-01-08,2026-01-08,ｎｅｃｅｓｓａｒｉ合同会社,,合同会社,沖縄県,うるま市,字兼箇段１６４３番地３,,47,213,9042241,,,,,,,2026-01-08,1,,,,,ネセサリ,0
1181,4360003015542,新規,0,2026-01-08,2026-01-08,アトム合同会社,,合同会社,沖縄県,糸満市,字糸満１２６３番地の１,,47,210,9010361,,,,,,,2026-01-08,1,,,,,アトム,0
1183,4370001053361,新規,0,2026-01-08,2026-01-08,株式会社Ｐａｒｏｌｅ,,株式会社,宮城県,仙台市泉区,将監７丁目１７番３－１号,,04,105,9813132,,,,,,,2026-01-08,1,,,,,パローレ,0
1184,4370001053378,新規,0,2026-01-08,2026-01-08,ｈｉｍｏｒｉ　ｒｅｃｏｒｄｓ株式会社,,株式会社,宮城県,仙台市青葉区,本町１丁目１４番１８号,,04,101,9800014,,,,,,,2026-01-08,1,,,,,ヒモリレコーズ,0
1190,4380003006226,新規,0,2026-01-08,2026-01-08,合同会社Ａｋｕｓｙｕ,,合同会社,福島県,福島市,宮代字植田前２１番地の１９,,07,201,9600116,,,,,,,2026-01-08,1,,,,,アクシュ,0
1194,4400003003591,新規,0,2026-01-08,2026-01-08,合同会社ＲＥＰＬＡＹ,,合同会社,岩手県,盛岡市,中央通２丁目１番２５号ピアッツァニオービル５階Ｂ,,03,201,0200021,,,,,,,2026-01-08,1,,,,,リプレイ,0
1195,4410003004192,新規,0,2026-01-08,2026-01-08,合同会社菊地ファーム,,合同会社,秋田県,潟上市,天王字上出戸１２４番地,,05,211,0100201,,,,,,,2026-01-08,1,,,,,キクチファーム,0
1205,4450001014826,新規,0,2026-01-08,2026-01-08,株式会社ファームカントリーロード,,株式会社,北海道,旭川市,東旭川町瑞穂１５７８番地の１,,01,204,0781274,,,,,,,2026-01-08,1,,,,,ファームカントリーロード,0
1206,4450003002762,新規,0,2026-01-08,2026-01-08,合同会社ブルー,,合同会社,北海道,上川郡和寒町,字大成２４番地,,01,464,0980102,,,,,,,2026-01-08,1,,,,,ブルー,0
1207,4460301005334,新規,0,2026-01-08,2026-01-08,株式会社リアライズ,,株式会社,北海道,網走郡美幌町,字稲美１４０番地６３,,01,543,0920027,,,,,,,2026-01-08,1,,,,,リアライズ,0
1212,4500001026709,新規,0,2026-01-08,2026-01-08,株式会社クリクラ愛媛,,株式会社,愛媛県,松山市,山田町乙２２５番地９,,38,201,7900831,,,,,,,2026-01-08,1,,,,,クリクラエヒメ,0
1222,5010001261528,新規,0,2026-01-08,2026-01-08,Ｒｅｇａｌｉｓ　Ｊａｐａｎ　Ｇｒｏｕｐ株式会社,,株式会社,東京都,千代田区,麹町６丁目２－１麹町サイトビル６階ＲＯＯＭＺ,,13,101,1020083,,,,,,,2026-01-08,1,,,,,レガリスジャパン,0
1223,5010001261602,新規,0,2026-01-08,2026-01-08,株式会社アイアンウッド,,株式会社,東京都,中央区,日本橋本町４丁目１３番６－６０３号,,13,102,1030023,,,,,,,2026-01-08,1,,,,,アイアンウッド,0
1224,5010001261692,新規,0,2026-01-08,2026-01-08,株式会社わかば未来創造投資,,株式会社,東京都,中央区,八丁堀３丁目２２番１３号,,13,102,1040032,,,,,,,2026-01-08,1,,,,,ワカバミライソウゾウトウシ,0
1228,5010003049847,新規,0,2026-01-08,2026-01-08,ＫＹＯ　ＥＮＥＲＧＹ１合同会社,,合同会社,東京都,中央区,京橋２丁目６番１５号ＭＣＡ京橋ビル３Ｆ,,13,102,1040031,,,,,,,2026-01-08,1,,,,,キョウエネルギーワン,0
1229,5010003049888,新規,0,2026-01-08,2026-01-08,ダントー・アルプス系統用蓄電所Ｋ合同会社,,合同会社,東京都,中央区,銀座１丁目８番１６号３階,,13,102,1040061,,,,,,,2026-01-08,1,,,,,ダントーアルプスケイトウヨウチクデンショケイ,0
1230,5010003049921,新規,0,2026-01-08,2026-01-08,プラチナリース合同会社,,合同会社,東京都,中央区,勝どき６丁目３番２－５１０８号,,13,102,1040054,,,,,,,2026-01-08,1,,,,,プラチナリース,0
1231,5010005041166,新規,0,2026-01-08,2026-01-08,一般社団法人ＫＥＲ４号,,その他の設立登記法人,東京都,中央区,京橋２丁目１２番６号ＡＯＪ税理士法人内,,13,102,1040031,,,,,,,2026-01-08,1,,,,,ケーイーアールヨンゴウ,0
1237,5010401195516,新規,0,2026-01-08,2026-01-08,ジャヌスグループ株式会社,,株式会社,東京都,港区,新橋４丁目３１番３号第３明和ビル,,13,103,1050004,,,,,,,2026-01-08,1,,,,,ジャヌスグループ,0
1238,5010401195557,新規,0,2026-01-08,2026-01-08,ＮＴＳファシリティーズ株式会社,,株式会社,東京都,港区,芝浦３丁目１６番２０号,,13,103,1080023,,,,,,,2026-01-08,1,,,,,エヌティーエスファシリティーズ,0
1239,5010401195581,新規,0,2026-01-08,2026-01-08,ＫＩＲＥＩ株式会社,,株式会社,東京都,港区,南青山７丁目１０番６－９０２号,,13,103,1070062,,,,,,,2026-01-08,1,,,,,キレイ,0
1240,5010401195623,新規,0,2026-01-08,2026-01-08,株式会社Ｂｌａｃｋ　Ｗａｔｅｒ　Ｆｉｎａｎｃｅ,,株式会社,東京都,港区,赤坂２丁目４番６号赤坂グリーンクロス６Ｆ,,13,103,1070052,,,,,,,2026-01-08,1,,,,,ブラックウォーターファイナンス,0
1241,5010403036981,新規,0,2026-01-08,2026-01-08,Ｓｅｒａｇａｋｉ　ＡｃｑＣｏ合同会社,,合同会社,東京都,港区,六本木１丁目６番１号泉ガーデンタワー１２階,,13,103,1060032,,,,,,,2026-01-08,1,,,,,セラガキアクコ,0
1252,5010503008121,新規,0,2026-01-08,2026-01-08,合同会社ＫＩＤ,,合同会社,東京都,台東区,浅草１丁目１３番５号,,13,106,1110032,,,,,,,2026-01-08,1,,,,,キッド,0
1256,5010603011999,新規,0,2026-01-08,2026-01-08,合同会社アンとルイ,,合同会社,東京都,墨田区,向島４丁目２８―３,,13,107,1310033,,,,,,,2026-01-08,1,,,,,アントルイ,0
1265,5010901058726,新規,0,2026-01-08,2026-01-08,株式会社ＴＯＮＡＲＩ,,株式会社,東京都,世田谷区,太子堂２丁目１７番５号佐藤ビル３階,,13,112,1540004,,,,,,,2026-01-08,1,,,,,トナリ,0
1266,5010901058750,新規,0,2026-01-08,2026-01-08,株式会社ＡＩムーブジャパン,,株式会社,東京都,世田谷区,下馬２丁目２１番１号,,13,112,1540002,,,,,,,2026-01-08,1,,,,,エーアイムーブジャパン,0
1270,5011001174694,新規,0,2026-01-08,2026-01-08,株式会社ＢＬＯＯＭＩＮＧ　ＣＨＡＲＭ,,株式会社,東京都,渋谷区,恵比寿１丁目１０番６号清園ビル４Ｆ,,13,113,1500013,,,,,,,2026-01-08,1,,,,,ブルーミングチャーム,0
1275,5011005011332,新規,0,2026-01-08,2026-01-08,税理士法人セブンステップス,,その他の設立登記法人,東京都,目黒区,下目黒１丁目３番２７号アセンド目黒５Ｆ,,13,110,1530064,,,,,,,2026-01-08,1,,,,,セブンステップス,0
1279,5011301031158,新規,0,2026-01-08,2026-01-08,株式会社バルブ．メカニック,,株式会社,東京都,杉並区,下井草２丁目７番１３号,,13,115,1670022,,,,,,,2026-01-08,1,,,,,バルブメカニック,0
1280,5011303005812,新規,0,2026-01-08,2026-01-08,Ｈ＆Ｉカンパニー合同会社,,合同会社,東京都,杉並区,浜田山４丁目３１－３３,,13,115,1680065,,,,,,,2026-01-08,1,,,,,エイチアンドアイカンパニー,0
1281,5011303005820,新規,0,2026-01-08,2026-01-08,Ｃｏｒｒｅｓｐｏｎｄｅｎｃｅ　Ｌａｂ合同会社,,合同会社,東京都,杉並区,浜田山１丁目１０番１４号,,13,115,1680065,,,,,,,2026-01-08,1,,,,,コレスポンデンスラボ,0
1284,5011501032971,新規,0,2026-01-08,2026-01-08,Ｂｅｙｏｎｄ　ＪＰ株式会社,,株式会社,東京都,荒川区,西日暮里２丁目２０番１号ステーションポートタワー６Ｆ,,13,118,1160013,,,,,,,2026-01-08,1,,,,,ビヨンドジェーピー,0
1288,5011801047265,新規,0,2026-01-08,2026-01-08,株式会社ＭＶＰ,,株式会社,東京都,足立区,花畑１丁目５番２号,,13,121,1210061,,,,,,,2026-01-08,1,,,,,エムブイピー,0
1289,5011801047298,新規,0,2026-01-08,2026-01-08,ミドリ株式会社,,株式会社,東京都,足立区,古千谷本町４丁目１０－１,,13,121,1210832,,,,,,,2026-01-08,1,,,,,ミドリ,0
1294,5012401043976,新規,0,2026-01-08,2026-01-08,株式会社リアン,,株式会社,東京都,武蔵野市,境２丁目２２番３０号,,13,203,1800022,,,,,,,2026-01-08,1,,,,,リアン,0
1296,5012801024452,新規,0,2026-01-08,2026-01-08,株式会社Ｂｅａｕｔｉｆｕｌ　Ｌｉｆｅ．,,株式会社,東京都,立川市,錦町１丁目３－４Ａｓａｍｉビル６Ｆ、Ａ区画,,13,202,1900022,,,,,,,2026-01-08,1,,,,,ビューティフルライフ,0
1331,5013301055566,新規,0,2026-01-08,2026-01-08,Ａｗｌ株式会社,,株式会社,東京都,豊島区,東池袋４丁目２６番１３号池袋東栄ビル９階,,13,116,1700013,,,,,,,2026-01-08,1,,,,,アウル,0
1348,5020003030079,新規,0,2026-01-08,2026-01-08,合同会社トモテック,,合同会社,神奈川県,横浜市西区,浅間町１丁目４番３号ウィザードビル４０２,,14,103,2200072,,,,,,,2026-01-08,1,,,,,トモテック,0
1349,5020003030120,新規,0,2026-01-08,2026-01-08,ＹＺエステート合同会社,,合同会社,神奈川県,川崎市多摩区,南生田７丁目７－１－２４３,,14,135,2140036,,,,,,,2026-01-08,1,,,,,ワイゼットエステート,0
1351,5021003016976,新規,0,2026-01-08,2026-01-08,合同会社ＹＡＭＡＴＯ,,合同会社,神奈川県,平塚市,南豊田３６１番地の１ローズウッドＡ,,14,203,2540084,,,,,,,2026-01-08,1,,,,,ヤマト,0
1352,5021003017000,新規,0,2026-01-08,2026-01-08,合同会社比々多ファーム,,合同会社,神奈川県,伊勢原市,串橋１９６,,14,214,2591136,,,,,,,2026-01-08,1,,,,,ヒビタファーム,0
1355,5030001170363,新規,0,2026-01-08,2026-01-08,エコサリュート株式会社,,株式会社,埼玉県,さいたま市大宮区,桜木町１丁目１９５番地１大宮ソラミチＫＯＺ４階,,11,103,3300854,,,,,,,2026-01-08,1,,,,,エコサリュート,0
1356,5030001170396,新規,0,2026-01-08,2026-01-08,彩玉保証株式会社,,株式会社,埼玉県,さいたま市緑区,東浦和５丁目１番地１,,11,109,3360926,,,,,,,2026-01-08,1,,,,,サイタマホショウ,0
1357,5030001170413,新規,0,2026-01-08,2026-01-08,アカマ図書教材株式会社,,株式会社,埼玉県,和光市,白子３丁目７番８号,,11,229,3510101,,,,,,,2026-01-08,1,,,,,アカマトショキョウザイ,0
1358,5030001170487,新規,0,2026-01-08,2026-01-08,株式会社匠泉,,株式会社,埼玉県,川口市,上青木５丁目９番３１号,,11,203,3330844,,,,,,,2026-01-08,1,,,,,ショウセン,0
1361,5030003028386,新規,0,2026-01-08,2026-01-08,合同会社ふくねこ,,合同会社,埼玉県,吉川市,栄町７７６番地４０,,11,243,3420050,,,,,,,2026-01-08,1,,,,,フクネコ,0
1368,5040003029235,新規,0,2026-01-08,2026-01-08,わいわいグループ合同会社,,合同会社,千葉県,市原市,八幡１１７９番地３２,,12,219,2900062,,,,,,,2026-01-08,1,,,,,ワイワイグループ,0
1371,5050001057815,新規,0,2026-01-08,2026-01-08,株式会社Ｌａｕｇｈ,,株式会社,茨城県,行方市,麻生３２８０－５０,,08,233,3113832,,,,,,,2026-01-08,1,,,,,ラフ,0
1372,5050001057823,新規,0,2026-01-08,2026-01-08,株式会社Ｉｄｉｂｒｏ,,株式会社,茨城県,土浦市,おおつ野６丁目１６番１１号,,08,203,3000028,,,,,,,2026-01-08,1,,,,,イディブロウ,0
1374,5050003009847,新規,0,2026-01-08,2026-01-08,合同会社ＭＡＮＯＷＡ,,合同会社,茨城県,つくば市,吾妻１丁目４番地２－１１０号,,08,220,3050031,,,,,,,2026-01-08,1,,,,,マノワ,0
1375,5050003009863,新規,0,2026-01-08,2026-01-08,ＫＹＭＩ合同会社,,合同会社,茨城県,水戸市,白梅１丁目６番６号シティハイムワタヒキ２０５号,,08,201,3100804,,,,,,,2026-01-08,1,,,,,キミ,0
1379,5070003006248,新規,0,2026-01-08,2026-01-08,合同会社ＩＡＴ,,合同会社,群馬県,太田市,上小林町１４８７番地３,,10,205,3730024,,,,,,,2026-01-08,1,,,,,アイエーティー,0
1384,5080001027360,新規,0,2026-01-08,2026-01-08,株式会社レナイゼ,,株式会社,静岡県,牧之原市,大寄５４７番地７,,22,226,4210506,,,,,,,2026-01-08,1,,,,,レナイゼ,0
1385,5080001027369,新規,0,2026-01-08,2026-01-08,ノバックス株式会社,,株式会社,静岡県,静岡市清水区,八坂北１丁目１２番１７号レジデンス山根３０２号,,22,103,4240023,,,,,,,2026-01-08,1,,,,,ノバックス,0
1386,5080003003624,新規,0,2026-01-08,2026-01-08,合同会社ＳＤＫ,,合同会社,静岡県,静岡市清水区,三保１８３０番地の１,,22,103,4240901,,,,,,,2026-01-08,1,,,,,エスディーケイ,0
1389,5080103003499,新規,0,2026-01-08,2026-01-08,合同会社Ｆｅｅｌｉｎｇ　Ｇｏｏｄ福祉総合相談事業所,,合同会社,静岡県,伊豆市,本立野３５６番地の１オー・ド・シェル修善寺１０３号,,22,222,4102414,,,,,,,2026-01-08,1,,,,,フィーリングッドフクシソウゴウソウダンジギョウショ,0
1390,5080401028355,新規,0,2026-01-08,2026-01-08,株式会社ＫＴＫ,,株式会社,静岡県,掛川市,葛川２６３番地の２,,22,213,4360074,,,,,,,2026-01-08,1,,,,,ケーティーケー,0
1391,5080401028363,新規,0,2026-01-08,2026-01-08,株式会社黒木製作所,,株式会社,静岡県,菊川市,朝日１番地の８ラ・ムール１０３,,22,224,4390017,,,,,,,2026-01-08,1,,,,,クロキセイサクショ,0
1394,5100001039254,新規,0,2026-01-08,2026-01-08,やまさと農園株式会社,,株式会社,長野県,北安曇郡小谷村,大字千国乙１４５番地１,,20,486,3999422,,,,,,,2026-01-08,1,,,,,ヤマサトノウエン,0
1397,5110001039823,新規,0,2026-01-08,2026-01-08,マルヤマグループ株式会社,,株式会社,新潟県,三条市,上須頃３０５番地１,,15,204,9550091,,,,,,,2026-01-08,1,,,,,マルヤマグループ,0
1398,5110001039831,新規,0,2026-01-08,2026-01-08,株式会社藤高,00142092,株式会社,新潟県,柏崎市,大字藤橋１２１０番地,,15,205,9451103,,,,,,,2026-01-08,1,,,,,フジタカ,0
1410,5120001283189,新規,0,2026-01-08,2026-01-08,株式会社心動,,株式会社,大阪府,大阪市生野区,田島１丁目４番３号,,27,116,5440011,,,,,,,2026-01-08,1,,,,,シンドウ,0
1411,5120001283206,新規,0,2026-01-08,2026-01-08,清川創研株式会社,,株式会社,大阪府,大阪市北区,豊崎３丁目１６番１６－５０１号,,27,127,5310072,,,,,,,2026-01-08,1,,,,,キヨカワソウケン,0
1412,5120001283214,新規,0,2026-01-08,2026-01-08,株式会社大前電気土木,,株式会社,大阪府,寝屋川市,香里南之町３６番３４－３０６号,,27,215,5720084,,,,,,,2026-01-08,1,,,,,オオマエデンキドボク,0
1413,5120001283222,新規,0,2026-01-08,2026-01-08,株式会社ＬＩＶＥＲＡ,,株式会社,大阪府,大阪市中央区,南船場１丁目３番１７号３０３号室,,27,128,5420081,,,,,,,2026-01-08,1,,,,,リヴェラ,0
1414,5120001283379,新規,0,2026-01-08,2026-01-08,心斎橋ホスピタリティマネジメント株式会社,,株式会社,大阪府,大阪市淀川区,十三本町１丁目１８番２３号,,27,123,5320024,,,,,,,2026-01-08,1,,,,,シンサイバシホスピタリティマネジメント,0
1421,5120003031612,新規,0,2026-01-08,2026-01-08,合同会社好運旺來,,合同会社,大阪府,大阪市西区,江戸堀３丁目１番１２－２０６号,,27,106,5500002,,,,,,,2026-01-08,1,,,,,コウウンオウライ,0
1424,5120901052040,新規,0,2026-01-08,2026-01-08,株式会社ＡＲＫＥＴ,,株式会社,大阪府,豊中市,上野東２丁目１４番３７号,,27,203,5600013,,,,,,,2026-01-08,1,,,,,アーケット,0
1426,5122003003434,新規,0,2026-01-08,2026-01-08,合同会社モーラ,,合同会社,大阪府,東大阪市,瓢箪山町２１番１号,,27,227,5798051,,,,,,,2026-01-08,1,,,,,モーラ,0
1436,5140001141361,新規,0,2026-01-08,2026-01-08,株式会社ＤＯＧＳ,,株式会社,兵庫県,神戸市須磨区,大黒町１丁目３番１号,,28,107,6540022,,,,,,,2026-01-08,1,,,,,ドッグス,0
1440,5160005011476,新規,0,2026-01-08,2026-01-08,弁護士法人ローイング法律事務所,,その他の設立登記法人,滋賀県,近江八幡市,出町４１７番地８出町フォーエバービル２０１,,25,204,5230892,,,,,,,2026-01-08,1,,,,,ローイングホウリツジムショ,0
1441,5170001018937,新規,0,2026-01-08,2026-01-08,株式会社グリーン,,株式会社,和歌山県,和歌山市,湊通丁南１丁目３番地１ル・シャトー真砂３－Ｄ,,30,201,6408281,,,,,,,2026-01-08,1,,,,,グリーン,0
1447,5180001170101,新規,0,2026-01-08,2026-01-08,株式会社ルークス,,株式会社,愛知県,名古屋市中村区,本陣通３丁目５４－１エテルナ本陣２０１号,,23,105,4530041,,,,,,,2026-01-08,1,,,,,ルークス,0
1448,5180001170142,新規,0,2026-01-08,2026-01-08,株式会社ＡＳＬＩＮＫ　Ｏｎｅ,,株式会社,愛知県,名古屋市中村区,名駅３丁目４‐１０アルティメイト名駅１ｓｔ２階,,23,105,4500002,,,,,,,2026-01-08,1,,,,,アスリンクワン,0
1451,5180003029568,新規,0,2026-01-08,2026-01-08,ＡＭＩＲ　ＭＯＴＯＲＳ　ＣＯＭＰＡＮＹ合同会社,,合同会社,愛知県,名古屋市緑区,境松２丁目３４０ヤマサマンション５０３号室,,23,114,4580820,,,,,,,2026-01-08,1,,,,,アミルモーターズカンパニー,0
1453,5180301040565,新規,0,2026-01-08,2026-01-08,株式会社ＤＡＴＥ,,株式会社,愛知県,豊橋市,絹田町１０番地１,,23,201,4400078,,,,,,,2026-01-08,1,,,,,デイト,0
1454,5180301040581,新規,0,2026-01-08,2026-01-08,ナカタ電気株式会社,,株式会社,愛知県,豊川市,御油町八面横２５番地１,,23,207,4410211,,,,,,,2026-01-08,1,,,,,ナカタデンキ,0
1455,5180305009755,新規,0,2026-01-08,2026-01-08,医療法人啓愛会,,その他の設立登記法人,愛知県,豊橋市,東脇１丁目８番地の１５,,23,201,4418083,,,,,,,2026-01-08,1,,,,,ケイアイカイ,0
1456,5190001032804,新規,0,2026-01-08,2026-01-08,株式会社ＺＥＲＯ　ＯＮＥ,,株式会社,三重県,松阪市,鎌田町７３５番地,,24,204,5150005,,,,,,,2026-01-08,1,,,,,ゼロワン,0
1457,5190001032812,新規,0,2026-01-08,2026-01-08,株式会社Ｈｏｕｓｅ　ｏｆ　Ｌｙｄｉａ,,株式会社,三重県,鈴鹿市,高岡台５丁目３番３２号,,24,207,5130019,,,,,,,2026-01-08,1,,,,,ハウスオブリディア,0
1459,5190003005320,新規,0,2026-01-08,2026-01-08,ＲｅＳｔｏｒｙ合同会社,,合同会社,三重県,津市,一志町小山９１９番地１,,24,201,5152514,,,,,,,2026-01-08,1,,,,,リストーリー,0
1461,5200001044574,新規,0,2026-01-08,2026-01-08,株式会社クオン,,株式会社,岐阜県,各務原市,那加野畑町２丁目７８番地２,,21,213,5040025,,,,,,,2026-01-08,1,,,,,クオン,0
1462,5200001044590,新規,0,2026-01-08,2026-01-08,株式会社ｅｎｊｉｎ,,株式会社,岐阜県,瑞穂市,馬場上光町２丁目１１番地,,21,216,5010203,,,,,,,2026-01-08,1,,,,,エンジン,0
1468,5220001027115,新規,0,2026-01-08,2026-01-08,株式会社太輝,,株式会社,石川県,白山市,八田町１１２５番地６,,17,210,9240001,,,,,,,2026-01-08,1,,,,,,0
1472,5220003004203,新規,0,2026-01-08,2026-01-08,合同会社Ｎａｄｅ,,合同会社,石川県,金沢市,泉野出町２丁目１５番２５号,,17,201,9218116,,,,,,,2026-01-08,1,,,,,ネイド,0
1477,5250003003879,新規,0,2026-01-08,2026-01-08,合同会社ｋｉｔａ,,合同会社,山口県,宇部市,大字妻崎開作１１２０番地４ＣＯＳＴＡ妻崎１０５号,,35,202,7590204,,,,,,,2026-01-08,1,,,,,キタ,0
1480,5270001009364,新規,0,2026-01-08,2026-01-08,株式会社ひのカーボン,,株式会社,鳥取県,日野郡日野町,黒坂１８４１番地１２,,31,402,6895131,,,,,,,2026-01-08,1,,,,,ヒノカーボン,0
1481,5270003001831,新規,0,2026-01-08,2026-01-08,合同会社りんごの樹,,合同会社,鳥取県,東伯郡琴浦町,大字八橋１２６番地３高松アパート２号室,,31,371,6892301,,,,,,,2026-01-08,1,,,,,リンゴノキ,0
1488,5290001112694,新規,0,2026-01-08,2026-01-08,株式会社秘密基地計画,,株式会社,福岡県,福岡市南区,皿山３丁目８番２９号,,40,134,8111365,,,,,,,2026-01-08,1,,,,,ヒミツキチケイカク,0
1489,5290001112728,新規,0,2026-01-08,2026-01-08,株式会社一,,株式会社,福岡県,大牟田市,上白川町２丁目３１番地１クワホーム上白川Ｃ棟,,40,202,8370926,,,,,,,2026-01-08,1,,,,,ハジメ,0
1494,5290005019952,新規,0,2026-01-08,2026-01-08,医療法人えつこ歯科クリニック,,その他の設立登記法人,福岡県,宗像市,田久４丁目６番７号,,40,220,8114175,,,,,,,2026-01-08,1,,,,,エツコシカクリニック,0
1495,5290005019969,新規,0,2026-01-08,2026-01-08,一般社団法人ＤＯＣｏＴＡ,,その他の設立登記法人,福岡県,古賀市,美明２丁目２５番８号,,40,223,8113107,,,,,,,2026-01-08,1,,,,,ドコタ,0
1498,5290801032134,新規,0,2026-01-08,2026-01-08,ＩＷＢ　Ｌｉｆｅ株式会社,,株式会社,福岡県,北九州市小倉北区,堺町２丁目１番１号,,40,106,8020005,,,,,,,2026-01-08,1,,,,,アイダブルビーライフ,0
1499,5290801032150,新規,0,2026-01-08,2026-01-08,株式会社Ｗｅｅｅ　Ｊａｐａｎ,,株式会社,福岡県,北九州市小倉北区,米町１丁目１番１号小倉駅前ひびきビル６階,,40,106,8020003,,,,,,,2026-01-08,1,,,,,ウィージャパン,0
1501,5290805009896,新規,0,2026-01-08,2026-01-08,一般社団法人フレイル予防サポート笑福,,その他の設立登記法人,福岡県,北九州市門司区,大里原町８番２０－６０１号,,40,101,8000038,,,,,,,2026-01-08,1,,,,,フレイルヨボウサポートエフ,0
1503,5310003005159,新規,0,2026-01-08,2026-01-08,合同会社ＳＵＥＹＡＳＵ　ＷＯＲＫＳ,,合同会社,長崎県,長崎市,みなと坂１丁目３０番１５号,,42,201,8500079,,,,,,,2026-01-08,1,,,,,スエヤスワークス,0
1510,5320001021520,新規,0,2026-01-08,2026-01-08,株式会社Ｔｅａ＆Ｒｏｏｍ,,株式会社,大分県,大分市,明野西１丁目２６番４－１００６号,,44,201,8700164,,,,,,,2026-01-08,1,,,,,ティーアンドルーム,0
1514,5340001027879,新規,0,2026-01-08,2026-01-08,ＤａｉＫｅｎ株式会社,,株式会社,鹿児島県,鹿児島市,春山町１１８２番地８,,46,201,8992704,,,,,,,2026-01-08,1,,,,,ダイケン,0
1520,5390001018213,新規,0,2026-01-08,2026-01-08,株式会社Ｌｉｅｔｒａ,,株式会社,山形県,山形市,香澄町１丁目１１－１８,,06,201,9900039,,,,,,,2026-01-08,1,,,,,リエトラ,0
1522,5400001017270,新規,0,2026-01-08,2026-01-08,株式会社花八米,,株式会社,岩手県,八幡平市,平舘第２６地割１４５番地１ととハウスＡ棟６号室,,03,214,0287405,,,,,,,2026-01-08,1,,,,,ハナハチマイ,0
1523,5400001017279,新規,0,2026-01-08,2026-01-08,ｆｕｍｏｔｏ株式会社,,株式会社,岩手県,九戸郡洋野町,種市第２３地割２５番地６８,,03,507,0287914,,,,,,,2026-01-08,1,,,,,フモト,0
1524,5410003004191,新規,0,2026-01-08,2026-01-08,合同会社ＳＨＩＮ’ｓ　ＦＡＲＭ,,合同会社,秋田県,雄勝郡羽後町,郡山字四ツ屋１２８番地,,05,463,0121113,,,,,,,2026-01-08,1,,,,,シンズファーム,0
1529,5430001096007,新規,0,2026-01-08,2026-01-08,プランニングオフィス・ケープラス株式会社,,株式会社,北海道,札幌市清田区,北野四条４丁目２８番３号,,01,110,0040864,,,,,,,2026-01-08,1,,,,,プランニングオフィスケープラス,0
1530,5430001096015,新規,0,2026-01-08,2026-01-08,吉野興業株式会社,,株式会社,北海道,札幌市白石区,中央三条３丁目５番９－１０２号,,01,104,0030013,,,,,,,2026-01-08,1,,,,,ヨシノコウギョウ,0
1531,5430001096023,新規,0,2026-01-08,2026-01-08,株式会社ＶＡＬＬＥＹ　ＷＯＲＫＳ,,株式会社,北海道,苫小牧市,明徳町１丁目３番１４号,,01,213,0591273,,,,,,,2026-01-08,1,,,,,ヴァリーワークス,0
1533,5430003018479,新規,0,2026-01-08,2026-01-08,合同会社ＩＬ,,合同会社,北海道,札幌市豊平区,平岸四条１１丁目４－２７－２０１,,01,105,0620934,,,,,,,2026-01-08,1,,,,,アイル,0
1534,5440001009735,新規,0,2026-01-08,2026-01-08,株式会社ａＭａ,,株式会社,北海道,函館市,赤川１丁目３１番４号,,01,202,0410805,,,,,,,2026-01-08,1,,,,,アマ,0
1535,5470003003048,新規,0,2026-01-08,2026-01-08,ＺＥＲＯ　ｔｏ　ＯＮＥ合同会社,,合同会社,香川県,小豆郡土庄町,甲３５８,,37,322,7614101,,,,,,,2026-01-08,1,,,,,,0
1536,5500003003655,新規,0,2026-01-08,2026-01-08,ｍｕｓｕｂｉ合同会社,,合同会社,愛媛県,松山市,千舟町５丁目３―１７―４階,,38,201,7900011,,,,,,,2026-01-08,1,,,,,ムスビ,0
1542,6010001261568,新規,0,2026-01-08,2026-01-08,株式会社堅果テクノ,,株式会社,東京都,千代田区,岩本町２丁目１７番４号泰合ビルＩＩ２０１号室,00142095,13,101,1010032,,,,,,,2026-01-08,1,,,,,ケンカテクノ,0
1543,6010001261584,新規,0,2026-01-08,2026-01-08,株式会社ＧＲＥＮＢＡＳＥ,,株式会社,東京都,中央区,日本橋室町１丁目１１番１２号日本橋水野ビル７階,,13,102,1030022,,,,,,,2026-01-08,1,,,,,グレンベース,0
1544,6010003049887,新規,0,2026-01-08,2026-01-08,ダントー・アルプス系統用蓄電所Ｊ合同会社,,合同会社,東京都,中央区,銀座１丁目８番１６号３階,,13,102,1040061,,,,,,,2026-01-08,1,,,,,ダントーアルプスケイトウヨウチクデンショジェイ,0
1545,6010003049895,新規,0,2026-01-08,2026-01-08,合同会社ＴＡＲＯＳ,,合同会社,東京都,文京区,湯島４丁目６番１１－１１０２号,,13,105,1130034,,,,,,,2026-01-08,1,,,,,タロス,0
1546,6010003049953,新規,0,2026-01-08,2026-01-08,合同会社秋山用地開発,,合同会社,東京都,中央区,日本橋本町３丁目１０番７－１１０４号,,13,102,1030023,,,,,,,2026-01-08,1,,,,,アキヤマヨウチカイハツ,0
1547,6010005041165,新規,0,2026-01-08,2026-01-08,一般社団法人ＦＲＤＤ,,その他の設立登記法人,東京都,中央区,京橋２丁目１２番６号ＡＯＪ税理士法人内,,13,102,1040031,,,,,,,2026-01-08,1,,,,,エフアールディーディー,0
1548,6010005041173,新規,0,2026-01-08,2026-01-08,一般社団法人京橋インベストメント,,その他の設立登記法人,東京都,中央区,京橋２丁目１２番６号ＡＯＪ税理士法人内,,13,102,1040031,,,,,,,2026-01-08,1,,,,,キョウバシインベストメント,0
1554,6010401195580,新規,0,2026-01-08,2026-01-08,株式会社Ｋａｎｎａ,,株式会社,東京都,港区,芝３丁目３１番２号アーバンハウス芝,,13,103,1050014,,,,,,,2026-01-08,1,,,,,カンナ,0
1556,6010503008137,新規,0,2026-01-08,2026-01-08,合同会社スイングワークス,,合同会社,東京都,台東区,浅草１丁目１３番５号,,13,106,1110032,,,,,,,2026-01-08,1,,,,,スイングワークス,0
1558,6010603012006,新規,0,2026-01-08,2026-01-08,合同会社ＡＵＲＯＲＡ　ＰＬＵＳ,,合同会社,東京都,江東区,豊洲３丁目６番８号２２０９号,,13,108,1350061,,,,,,,2026-01-08,1,,,,,オーロラプラス,0
1560,6010701048868,新規,0,2026-01-08,2026-01-08,株式会社令電,,株式会社,東京都,品川区,西五反田２丁目２４番地７号９０９シティコープ西五反田,,13,109,1410031,,,,,,,2026-01-08,1,,,,,レイデン,0
1564,6010901058741,新規,0,2026-01-08,2026-01-08,株式会社ＫＯＧＡＮＥ,,株式会社,東京都,世田谷区,駒沢２丁目６番３号,,13,112,1540012,,,,,,,2026-01-08,1,,,,,コガネ,0
1565,6010901058758,新規,0,2026-01-08,2026-01-08,株式会社ＯＬＩＶＥ,,株式会社,東京都,世田谷区,等々力６丁目１７番１７号,,13,112,1580082,,,,,,,2026-01-08,1,,,,,オリーブ,0
1566,6010903010535,新規,0,2026-01-08,2026-01-08,コスパ研究室合同会社,,合同会社,東京都,世田谷区,代沢２丁目３９番２２号,,13,112,1550032,,,,,,,2026-01-08,1,,,,,コスパケンキュウシツ,0
1573,6011001174669,新規,0,2026-01-08,2026-01-08,株式会社ティージージャパン,,株式会社,東京都,渋谷区,東３丁目１６番５号,,13,113,1500011,,,,,,,2026-01-08,1,,,,,ティージージャパン,0
1575,6011003023122,新規,0,2026-01-08,2026-01-08,合同会社ｈａｒｅｍａ,,合同会社,東京都,渋谷区,恵比寿西２丁目４番８号ウィンド恵比寿ビル８Ｆ,,13,113,1500021,,,,,,,2026-01-08,1,,,,,ハレマ,0
1578,6011103016918,新規,0,2026-01-08,2026-01-08,合同会社クリスタリーナ,,合同会社,東京都,新宿区,弁天町１０９番地、２０１,,13,104,1620851,,,,,,,2026-01-08,1,,,,,クリスタリーナ,0
1584,6011303005811,新規,0,2026-01-08,2026-01-08,合同会社Ａｖｅ,,合同会社,東京都,杉並区,永福２丁目５番１２号,,13,115,1680064,,,,,,,2026-01-08,1,,,,,エイヴ,0
1586,6011401027682,新規,0,2026-01-08,2026-01-08,ミリミリ株式会社,,株式会社,東京都,板橋区,高島平２丁目３０番１－１４０３号,,13,119,1750082,,,,,,,2026-01-08,1,,,,,ミリミリ,0
1587,6011501032987,新規,0,2026-01-08,2026-01-08,株式会社Ｌｏｃｋ．Ａ,,株式会社,東京都,北区,赤羽北３丁目２５番７号,,13,117,1150052,,,,,,,2026-01-08,1,,,,,ロックエー,0
1588,6011601029297,新規,0,2026-01-08,2026-01-08,株式会社ミライズ,,株式会社,東京都,練馬区,高野台５丁目２番１３号,,13,120,1770033,,,,,,,2026-01-08,1,,,,,ミライズ,0
1590,6011801047264,新規,0,2026-01-08,2026-01-08,株式会社Ｔｏｋｙｏ　Ｎｅｏ　Ｌｉｆｅ,,株式会社,東京都,足立区,六木４丁目１番２４号,,13,121,1210052,,,,,,,2026-01-08,1,,,,,トウキョウネオライフ,0
1593,6012401043967,新規,0,2026-01-08,2026-01-08,株式会社Ｔ．Ｌｉｎｋ,,株式会社,東京都,小金井市,梶野町１丁目２番３６号,,13,210,1840002,,,,,,,2026-01-08,1,,,,,ティーリンク,0
1594,6012403007549,新規,0,2026-01-08,2026-01-08,合同会社ユナリス,,合同会社,東京都,稲城市,若葉台１丁目２１番地Ｅ－８０３,,13,225,2060824,,,,,,,2026-01-08,1,,,,,ユナリス,0
1595,6012403007557,新規,0,2026-01-08,2026-01-08,Ｈａｌｎｏ未来合同会社,,合同会社,東京都,狛江市,中和泉３丁目９－２０,,13,219,2010012,,,,,,,2026-01-08,1,,,,,ハルノミライ,0
1596,6012701019254,新規,0,2026-01-08,2026-01-08,株式会社ヒーモリサービス,,株式会社,東京都,東村山市,青葉町１丁目１８－１２,,13,213,1890002,,,,,,,2026-01-08,1,,,,,ヒーモリサービス,0
1629,6013301055565,新規,0,2026-01-08,2026-01-08,株式会社ＷＨＩＴＥ　ＩＮＫ,,株式会社,東京都,豊島区,西池袋３丁目２５番８号,,13,116,1710021,,,,,,,2026-01-08,1,,,,,ホワイトインク,0
1635,6013303008042,新規,0,2026-01-08,2026-01-08,合同会社セッションズ,,合同会社,東京都,豊島区,南池袋１丁目１６番１５号ダイヤゲート池袋５階,,13,116,1710022,,,,,,,2026-01-08,1,,,,,セッションズ,0
1636,6013303008050,新規,0,2026-01-08,2026-01-08,合同会社ゼブラ,,合同会社,東京都,豊島区,東池袋２丁目６２番８号ＢＩＧオフィスプラザ池袋１２０６,,13,116,1700013,,,,,,,2026-01-08,1,,,,,ゼブラ,0
1643,6020001166493,新規,0,2026-01-08,2026-01-08,Ｙｕｉｔｔｏ　Ｈｏｍｅ株式会社,,株式会社,神奈川県,横浜市磯子区,中原２丁目８番２号３階,,14,107,2350036,,,,,,,2026-01-08,1,,,,,ユイットホーム,0
1644,6020001166618,新規,0,2026-01-08,2026-01-08,ＹＭＣ　ｐｅｒｓ．株式会社,,株式会社,神奈川県,横浜市金沢区,高舟台２丁目７番１３号,,14,108,2360044,,,,,,,2026-01-08,1,,,,,ワイエムシーパース,0
1650,6020003030078,新規,0,2026-01-08,2026-01-08,合同会社スリーエス,,合同会社,神奈川県,横浜市旭区,東希望が丘９６番地６,,14,112,2410826,,,,,,,2026-01-08,1,,,,,スリーエス,0
1653,6021001087168,新規,0,2026-01-08,2026-01-08,株式会社ＥＮＴＩＭＥＴＡ,,株式会社,神奈川県,藤沢市,高倉１０２７番地２８,,14,205,2520802,,,,,,,2026-01-08,1,,,,,エンティメタ,0
1661,6030001170395,新規,0,2026-01-08,2026-01-08,株式会社ＴＭマネジメント,,株式会社,埼玉県,久喜市,南栗橋５丁目３番地１０,,11,232,3491117,,,,,,,2026-01-08,1,,,,,ティーエムマネジメント,0
1662,6030001170404,新規,0,2026-01-08,2026-01-08,株式会社Ｓｐｒｕａ,,株式会社,埼玉県,所沢市,松葉町１０番５号松葉町ヘーベルハウス１０１,,11,208,3590044,,,,,,,2026-01-08,1,,,,,スプルア,0
1663,6030001170412,新規,0,2026-01-08,2026-01-08,株式会社ＳＩＯＮ,,株式会社,埼玉県,さいたま市桜区,大字大久保領家５２４番地１４,,11,106,3380826,,,,,,,2026-01-08,1,,,,,シオン,0
1664,6030001170486,新規,0,2026-01-08,2026-01-08,株式会社ｃｈｅｅｒｙ,,株式会社,埼玉県,草加市,手代３丁目５５番１６号,,11,221,3400021,,,,,,,2026-01-08,1,,,,,チアリー,0
1666,6030003028385,新規,0,2026-01-08,2026-01-08,ＢｏｎｓａｉＪａｐａｎＷｏｒｌｄ合同会社,,合同会社,埼玉県,川口市,大字木曽呂７４４番地の６,,11,203,3330831,,,,,,,2026-01-08,1,,,,,ビージェイダブル,0
1667,6030003028410,新規,0,2026-01-08,2026-01-08,合同会社ＴＨＥ　ＣＡＲＰ．,,合同会社,埼玉県,川口市,並木３丁目２１番１号重光コーポ１０２,,11,203,3320034,,,,,,,2026-01-08,1,,,,,ザカープ,0
1672,6040001142039,新規,0,2026-01-08,2026-01-08,株式会社イグラボ,,株式会社,千葉県,柏市,柏６丁目４－２４柏ビルディング５階Ｆルーム,,12,217,2770005,,,,,,,2026-01-08,1,,,,,イグラボ,0
1679,6060001038904,新規,0,2026-01-08,2026-01-08,株式会社カマヤ,,株式会社,栃木県,足利市,大前町８７４番地,,09,202,3260845,,,,,,,2026-01-08,1,,,,,カマヤ,0
1680,6060003005919,新規,0,2026-01-08,2026-01-08,合同会社Ｇｏｏｄ　Ｍｕｓｉｃ　Ｇａｒｄｅｎ,,合同会社,栃木県,宇都宮市,下田原町２８７６番地３１,,09,201,3291115,,,,,,,2026-01-08,1,,,,,グッドミュージックガーデン,0
1682,6070001043696,新規,0,2026-01-08,2026-01-08,株式会社彩園,,株式会社,群馬県,伊勢崎市,西野町３２６番地,,10,204,3792216,,,,,,,2026-01-08,1,,,,,サイエン,0
1683,6070001043705,新規,0,2026-01-08,2026-01-08,高橋レジデンス株式会社,,株式会社,群馬県,高崎市,石原町４１４０番地,,10,202,3700864,,,,,,,2026-01-08,1,,,,,タカハシレジデンス,0
1684,6070001043713,新規,0,2026-01-08,2026-01-08,株式会社ＰＲＯＵＤ,,株式会社,群馬県,前橋市,＿島町６番地１,00142085,10,201,3710817,,,,,,,2026-01-08,1,,,,,プラウド,0
1687,6080101025998,新規,0,2026-01-08,2026-01-08,株式会社ＯＳＫオフィス,,株式会社,静岡県,下田市,田牛７１８番地の１６６,,22,219,4150029,,,,,,,2026-01-08,1,,,,,オーエスケーオフィス,0
1689,6080401028354,新規,0,2026-01-08,2026-01-08,三光キャピタル株式会社,,株式会社,静岡県,浜松市中央区,上島１丁目６番１７号,,22,138,4338122,,,,,,,2026-01-08,1,,,,,サンコウキャピタル,0
1704,6120001283147,新規,0,2026-01-08,2026-01-08,株式会社ブルーアース,,株式会社,大阪府,大阪市住之江区,平林北２丁目９番７６号,,27,125,5590026,,,,,,,2026-01-08,1,,,,,ブルーアース,0
1705,6120001283196,新規,0,2026-01-08,2026-01-08,株式会社摩利支天,,株式会社,大阪府,大阪市港区,市岡元町２丁目１０番２７号,,27,107,5520002,,,,,,,2026-01-08,1,,,,,マリシテン,0
1706,6120001283205,新規,0,2026-01-08,2026-01-08,株式会社ＨＡＦ企画,,株式会社,大阪府,大阪市住吉区,墨江２丁目５番５５号,,27,120,5580043,,,,,,,2026-01-08,1,,,,,ハフキカク,0
1707,6120001283213,新規,0,2026-01-08,2026-01-08,株式会社ＫＯＤＥＮ,,株式会社,大阪府,枚方市,伊加賀緑町５番２３－１０５号,,27,210,5730067,,,,,,,2026-01-08,1,,,,,コーデン,0
1708,6120003031611,新規,0,2026-01-08,2026-01-08,ＲＴ蓄電所１号合同会社,,合同会社,大阪府,大阪市西区,北堀江１丁目２０番１５号,,27,106,5500014,,,,,,,2026-01-08,1,,,,,アールティーチクデンショイチゴウ,0
1713,6120901052097,新規,0,2026-01-08,2026-01-08,株式会社泰楽ホーム,,株式会社,大阪府,高槻市,東五百住町３丁目１８－１９マンションふじ２号館２１２号室,,27,207,5690811,,,,,,,2026-01-08,1,,,,,タイラクホーム,0
1719,6140003023061,新規,0,2026-01-08,2026-01-08,Ｗｈｉｔｅ　Ｂｌｏｏｍ合同会社,,合同会社,兵庫県,姫路市,白銀町１８日本生命姫路白銀町ビル１階ＳＹＮＴＨビジネスセンターサテライト姫路,,28,201,6700902,,,,,,,2026-01-08,1,,,,,ホワイトブルーム,0
1731,6180001170117,新規,0,2026-01-08,2026-01-08,はらざんまい株式会社,,株式会社,愛知県,名古屋市中村区,名駅３丁目６番２５号コアレジデンス１１０１号,,23,105,4500002,,,,,,,2026-01-08,1,,,,,ハラザンマイ,0
1732,6180001170125,新規,0,2026-01-08,2026-01-08,株式会社ｆａｎｓ,,株式会社,愛知県,名古屋市中区,栄２丁目２番１号広小路伏見中駒ビル２Ｆ－９,,23,106,4600008,,,,,,,2026-01-08,1,,,,,ファンズ,0
1733,6180001170133,新規,0,2026-01-08,2026-01-08,株式会社七菱商店,,株式会社,愛知県,名古屋市名東区,一社１丁目１７番地ライオンズガーデン２０１号,,23,115,4650093,,,,,,,2026-01-08,1,,,,,ナナヒシショウテン,0
1734,6180001170224,新規,0,2026-01-08,2026-01-08,ヤマダ看板株式会社,,株式会社,愛知県,知多郡武豊町,字小迎６１番地１,,23,447,4702343,,,,,,,2026-01-08,1,,,,,ヤマダカンバン,0
1737,6180003029567,新規,0,2026-01-08,2026-01-08,ＫＭＲ　ＣＯＲＰＯＲＡＴＩＯＮ合同会社,,合同会社,愛知県,津島市,喜楽町１２‐３６,,23,208,4960811,,,,,,,2026-01-08,1,,,,,ケーエムアールコーポレーション,0
1738,6180003029575,新規,0,2026-01-08,2026-01-08,合同会社ＧＷＢ．,,合同会社,愛知県,名古屋市北区,御成通１丁目７－３ピュールビル２Ｆ,,23,103,4620807,,,,,,,2026-01-08,1,,,,,ジーダブリュービー,0
1739,6180005021365,新規,0,2026-01-08,2026-01-08,特定非営利活動法人尾張西部権利擁護センター,,その他の設立登記法人,愛知県,名古屋市中村区,宮塚町５３番地の１,,23,105,4530845,,,,,,,2026-01-08,1,,,,,オワリセイブケンリヨウゴセンター,0
1740,6180005021373,新規,0,2026-01-08,2026-01-08,一般社団法人誠進和,,その他の設立登記法人,愛知県,知多郡東浦町,大字藤江字皆栄町１０８番地,,23,442,4702105,,,,,,,2026-01-08,1,,,,,セイシンワ,0
1746,6180301040556,新規,0,2026-01-08,2026-01-08,ハーベリックラボ株式会社,,株式会社,愛知県,安城市,相生町１６番１２号,,23,212,4460037,,,,,,,2026-01-08,1,,,,,ハーベリックラボ,0
1750,6190001032794,新規,0,2026-01-08,2026-01-08,株式会社まるろく製茶,,株式会社,三重県,鈴鹿市,長澤町１１５７番地,,24,207,5190314,,,,,,,2026-01-08,1,,,,,マルロクセイチャ,0
1764,6250003003878,新規,0,2026-01-08,2026-01-08,合同会社ＬＵＮＡ,,合同会社,山口県,美祢市,大嶺町東分１６９８番地９,,35,213,7592212,,,,,,,2026-01-08,1,,,,,ルナ,0
1771,6290001112685,新規,0,2026-01-08,2026-01-08,ＣＯＣＯＯＮ５株式会社,,株式会社,福岡県,福岡市博多区,博多駅前２丁目５番５号高木ビル５階,,40,132,8120011,,,,,,,2026-01-08,1,,,,,コクーンファイブ,0
1772,6290001112743,新規,0,2026-01-08,2026-01-08,株式会社ＩＮＦＩＮＹＡ,,株式会社,福岡県,大野城市,御笠川２丁目９番１６号,,40,219,8160912,,,,,,,2026-01-08,1,,,,,インフィニア,0
1776,6290801032158,新規,0,2026-01-08,2026-01-08,株式会社ＳＵＮＢＵＤＤＹ,,株式会社,福岡県,北九州市門司区,奥田１丁目１０番７号,,40,101,8000011,,,,,,,2026-01-08,1,,,,,サンバディー,0
1777,6290801032166,新規,0,2026-01-08,2026-01-08,株式会社Ｓｈｉｚｕｋｕ．ｓｅｅｄ,,株式会社,福岡県,北九州市小倉南区,高野１丁目１５番３号,,40,107,8030275,,,,,,,2026-01-08,1,,,,,シズクシード,0
1778,6300001014459,新規,0,2026-01-08,2026-01-08,株式会社エフコム,,株式会社,佐賀県,三養基郡基山町,大字園部２７７６番地９,,41,341,8410203,,,,,,,2026-01-08,1,,,,,エフコム,0
1780,6310003005166,新規,0,2026-01-08,2026-01-08,合同会社Ｍｉｒｕｓｕ,,合同会社,長崎県,長崎市,田上４丁目１番１６－１号,,42,201,8510251,,,,,,,2026-01-08,1,,,,,ミルス,0
1784,6320003004869,新規,0,2026-01-08,2026-01-08,栄勲合同会社,,合同会社,大分県,大分市,富士見が丘東４丁目６番１２号,,44,201,8701176,,,,,,,2026-01-08,1,,,,,エイクン,0
1785,6330001033893,新規,0,2026-01-08,2026-01-08,株式会社義企画,,株式会社,熊本県,熊本市北区,高平３丁目１５番２７号,,43,105,8600085,,,,,,,2026-01-08,1,,,,,ヨシキカク,0
1786,6330003011377,新規,0,2026-01-08,2026-01-08,合同会社ＳＴＥＰ,,合同会社,熊本県,熊本市中央区,花畑町１３番３号ジャスマックビル４Ｆ,,43,101,8600806,,,,,,,2026-01-08,1,,,,,ステップ,0
1787,6330003011385,新規,0,2026-01-08,2026-01-08,合同会社Ｏｒａｌ　Ｌｉｎｋ　Ｓｕｐｐｏｒｔ,,合同会社,熊本県,熊本市東区,長嶺東６丁目２２番７０号,,43,102,8618038,,,,,,,2026-01-08,1,,,,,オーラルリンクサポート,0
1792,6350001019882,新規,0,2026-01-08,2026-01-08,遊心山業株式会社,,株式会社,宮崎県,日向市,大字富高７１４７番地４７,,45,206,8830034,,,,,,,2026-01-08,1,,,,,ユウシンサンギョウ,0
1793,6360001036225,新規,0,2026-01-08,2026-01-08,株式会社沖縄エビエーション,,株式会社,沖縄県,那覇市,具志３丁目３５番９号,,47,201,9010146,,,,,,,2026-01-08,1,,,,,オキナワエビエーション,0
1795,6360003015540,新規,0,2026-01-08,2026-01-08,合同会社ＩｎｖｅｓｔＫ,,合同会社,沖縄県,那覇市,久茂地３丁目２６－３２ＹＳＣビル２０２,,47,201,9000015,,,,,,,2026-01-08,1,,,,,インベストケイ,0
1797,6370001053368,新規,0,2026-01-08,2026-01-08,株式会社サンペンタ,,株式会社,宮城県,仙台市青葉区,二日町１３番３０号鈴木ビル２階,,04,101,9800802,,,,,,,2026-01-08,1,,,,,サンペンタ,0
1802,6410003004190,新規,0,2026-01-08,2026-01-08,合同会社市健林業,,合同会社,秋田県,山本郡藤里町,矢坂字坂本５７番地１,,05,346,0183204,,,,,,,2026-01-08,1,,,,,イチケンリンギョウ,0
1805,6430001096022,新規,0,2026-01-08,2026-01-08,株式会社Ｉｒｏｎｅｔｈ,,株式会社,北海道,札幌市白石区,菊水上町四条３丁目９４番地１６ハーモニービコウ１０３号,,01,104,0030814,,,,,,,2026-01-08,1,,,,,アイロネス,0
1807,6430003018478,新規,0,2026-01-08,2026-01-08,合同会社オルタ技研,,合同会社,北海道,札幌市西区,西町北７丁目３番２５号,,01,107,0630061,,,,,,,2026-01-08,1,,,,,オルタギケン,0
1809,6430005015390,新規,0,2026-01-08,2026-01-08,一般社団法人日本マップラーニング協会,,その他の設立登記法人,北海道,札幌市厚別区,厚別東五条７丁目２番１１号,,01,108,0040005,,,,,,,2026-01-08,1,,,,,ニホンマップラーニングキョウカイ,0
1810,6440001009734,新規,0,2026-01-08,2026-01-08,株式会社藤田工業所,,株式会社,北海道,亀田郡七飯町,本町５丁目７－５,,01,337,0411111,,,,,,,2026-01-08,1,,,,,フジタコウギョウショ,0
1828,7010001261666,新規,0,2026-01-08,2026-01-08,アイロビー株式会社,,株式会社,東京都,千代田区,丸の内２丁目３番２号郵船ビル１Ｆ,,13,101,1000005,,,,,,,2026-01-08,1,,,,,アイロビー,0
1829,7010001261682,新規,0,2026-01-08,2026-01-08,株式会社ＨＯＧＵＧＵシェアサロン,,株式会社,東京都,千代田区,九段南４丁目３番４号Ｐｏｌａｒ九段２階,,13,101,1020074,,,,,,,2026-01-08,1,,,,,ホググシエアサロン,0
1832,7010003049911,新規,0,2026-01-08,2026-01-08,合同会社Ｈ．Ｏ．Ｐ．,,合同会社,東京都,千代田区,神田三崎町２丁目１９番５号,,13,101,1010061,,,,,,,2026-01-08,1,,,,,エイチドットオードットピードット,0
1833,7010003049928,新規,0,2026-01-08,2026-01-08,合同会社亀屋商店,,合同会社,東京都,中央区,日本橋２丁目１６番４号ｒｅｍｉｘ日本橋６階,,13,102,1030027,,,,,,,2026-01-08,1,,,,,カメヤショウテン,0
1837,7010401195539,新規,0,2026-01-08,2026-01-08,株式会社ＦＩＭ,,株式会社,東京都,港区,南青山２丁目２番１５号ウィン青山９４２,,13,103,1070062,,,,,,,2026-01-08,1,,,,,フィム,0
1838,7010401195646,新規,0,2026-01-08,2026-01-08,株式会社Ｗｈｏ’ｓ　Ｎｅｘｔ,,株式会社,東京都,港区,西新橋２丁目１３番１５号アヴァンセ虎ノ門２０５,,13,103,1050003,,,,,,,2026-01-08,1,,,,,フーズネクスト,0
1840,7010501055262,新規,0,2026-01-08,2026-01-08,株式会社ＳＩＬＶＡ,,株式会社,東京都,台東区,上野１丁目１１番９号イマスサニービル７階だれでもモバイル内,,13,106,1100005,,,,,,,2026-01-08,1,,,,,シルバ,0
1845,7010601068536,新規,0,2026-01-08,2026-01-08,浦松商事株式会社,,株式会社,東京都,江東区,豊洲１丁目２－２７－８０５,,13,108,1350061,,,,,,,2026-01-08,1,,,,,ウラマツショウジ,0
1851,7010701048850,新規,0,2026-01-08,2026-01-08,株式会社光属性,,株式会社,東京都,品川区,南品川４丁目７番２１号,,13,109,1400004,,,,,,,2026-01-08,1,,,,,ヒカリゾクセイ,0
1852,7010703008068,新規,0,2026-01-08,2026-01-08,美盈合同会社,,合同会社,東京都,品川区,西品川３丁目１６番８－３０３号,,13,109,1410033,,,,,,,2026-01-08,1,,,,,ミチル,0
1853,7010705003835,新規,0,2026-01-08,2026-01-08,一般財団法人対話による教育実践センター,,その他の設立登記法人,東京都,品川区,大崎１丁目６－４新大崎勧業ビルディング１８Ｆ,,13,109,1410032,,,,,,,2026-01-08,1,,,,,タイワニヨルキョウイクジッセンセンター,0
1860,7010901058740,新規,0,2026-01-08,2026-01-08,株式会社ｃｏｍ＆ｙ．,,株式会社,東京都,世田谷区,奥沢５丁目２６番２号,,13,112,1580083,,,,,,,2026-01-08,1,,,,,コムアンドワイ,0
1862,7010903010534,新規,0,2026-01-08,2026-01-08,Ｆｕｊｉｘ　Ｃｏｎｓｕｌｔｉｎｇ合同会社,,合同会社,東京都,世田谷区,桜２丁目４番１－４１４号,,13,112,1560053,,,,,,,2026-01-08,1,,,,,フジックスコンサルティング,0
1867,7011003023237,新規,0,2026-01-08,2026-01-08,Ｍｏｄｅ７合同会社,,合同会社,東京都,渋谷区,東１丁目２９番３号渋谷ブリッジＢ－５,,13,113,1500011,,,,,,,2026-01-08,1,,,,,モデルナナ,0
1868,7011003023245,新規,0,2026-01-08,2026-01-08,合同会社ＢＡＳＰ,,合同会社,東京都,渋谷区,本町３丁目４１―１４―２０２ディームス渋谷本町,,13,113,1510071,,,,,,,2026-01-08,1,,,,,バスプ,0
1869,7011005011314,新規,0,2026-01-08,2026-01-08,一般社団法人肌合,,その他の設立登記法人,東京都,渋谷区,渋谷２丁目１９番１９号,,13,113,1500002,,,,,,,2026-01-08,1,,,,,ハダアイ,0
1874,7011301031156,新規,0,2026-01-08,2026-01-08,株式会社ランドル＆カンパニー,,株式会社,東京都,杉並区,阿佐谷南１丁目３２番１４号,,13,115,1660004,,,,,,,2026-01-08,1,,,,,ランドルアンドカンパニー,0
1876,7011303005810,新規,0,2026-01-08,2026-01-08,合同会社バルコ,,合同会社,東京都,杉並区,下高井戸２丁目１０番３号プラザローヤル５、１４０３,,13,115,1680073,,,,,,,2026-01-08,1,,,,,バルコ,0
1877,7011401027707,新規,0,2026-01-08,2026-01-08,てんさい塔株式会社,,株式会社,東京都,板橋区,成増３丁目２３番１４号メイユール２Ｆ,,13,119,1750094,,,,,,,2026-01-08,1,,,,,テンサイトウ,0
1881,7011801047255,新規,0,2026-01-08,2026-01-08,株式会社ＲＥＧＥＮ　ＧＴ,,株式会社,東京都,足立区,西新井６丁目２５番１３号,,13,121,1230841,,,,,,,2026-01-08,1,,,,,リージェンジーティー,0
1882,7011801047263,新規,0,2026-01-08,2026-01-08,ナカシンホールディングス株式会社,,株式会社,東京都,足立区,六町２丁目４番２８号,,13,121,1210073,,,,,,,2026-01-08,1,,,,,ナカシンホールディングス,0
1883,7011801047271,新規,0,2026-01-08,2026-01-08,四畳半製作所株式会社,,株式会社,東京都,葛飾区,鎌倉２丁目３番６号,,13,122,1250053,,,,,,,2026-01-08,1,,,,,ヨジョウハンセイサクショ,0
1886,7012401043974,新規,0,2026-01-08,2026-01-08,株式会社扇谷測量,,株式会社,東京都,府中市,若松町２丁目７番地の７センチュリーパレス７０２,,13,206,1830005,,,,,,,2026-01-08,1,,,,,オオギヤソクリョウ,0
1887,7012401043982,新規,0,2026-01-08,2026-01-08,株式会社ＡＳＡ府中の森,,株式会社,東京都,府中市,武蔵台１丁目６番７号,,13,206,1830042,,,,,,,2026-01-08,1,,,,,アサフチュウノモリ,0
1888,7012403007556,新規,0,2026-01-08,2026-01-08,合同会社カカラ,,合同会社,東京都,調布市,富士見町２丁目１４番地１９三ツ木富士見町マンション５０２,,13,208,1820033,,,,,,,2026-01-08,1,,,,,カカラ,0
1889,7012405005203,新規,0,2026-01-08,2026-01-08,一般社団法人民間人材教育参画推進機構,,その他の設立登記法人,東京都,小金井市,貫井北町４丁目１番１号東京学芸大学金子嘉宏研究室,,13,210,1840015,,,,,,,2026-01-08,1,,,,,ミンカンジンザイキョウイクサンカクスイシンキコウ,0
1890,7012701019261,新規,0,2026-01-08,2026-01-08,株式会社ＮｅａｒＲｉｇｈｔ,,株式会社,東京都,東村山市,秋津町１丁目１８－１３,,13,213,1890001,,,,,,,2026-01-08,1,,,,,ニアーライト,0
1891,7013101009902,新規,0,2026-01-08,2026-01-08,株式会社なりき,,株式会社,東京都,青梅市,成木１丁目６２２番地３,,13,205,1980001,,,,,,,2026-01-08,1,,,,,ナリキ,0
1910,7013301055564,新規,0,2026-01-08,2026-01-08,アイビスジャパンホールディングス株式会社,,株式会社,東京都,豊島区,南大塚２丁目４５番８号,,13,116,1700005,,,,,,,2026-01-08,1,,,,,アイビスジャパンホールディングス,0
1913,7013303008025,新規,0,2026-01-08,2026-01-08,合同会社ＥＤＧＥ,,合同会社,東京都,豊島区,池袋３丁目３４番３号２Ｆ,,13,116,1710014,,,,,,,2026-01-08,1,,,,,エッジ,0
1914,7020001166534,新規,0,2026-01-08,2026-01-08,ハーム株式会社,,株式会社,神奈川県,横浜市神奈川区,片倉４丁目６番３－２０５号,,14,102,2210865,,,,,,,2026-01-08,1,,,,,ハーム,0
1915,7020001166591,新規,0,2026-01-08,2026-01-08,株式会社ネクサス設備,,株式会社,神奈川県,横浜市鶴見区,鶴見中央５丁目３‐８‐８０１,,14,101,2300051,,,,,,,2026-01-08,1,,,,,ネクサスセツビ,0
1918,7020003030085,新規,0,2026-01-08,2026-01-08,ＯＴＯＤＡＭＡ　Ｊａｐａｎ合同会社,,合同会社,神奈川県,横浜市青葉区,つつじが丘２７番地３７,,14,117,2270055,,,,,,,2026-01-08,1,,,,,オトダマジャパン,0
1921,7021003016883,新規,0,2026-01-08,2026-01-08,ＶＥＲＥＮＴＩＡ　Ｗｏｒｋｓ合同会社,,合同会社,神奈川県,茅ヶ崎市,松浪１丁目７－１５,,14,207,2530022,,,,,,,2026-01-08,1,,,,,ヴェレンティアワークス,0
1930,7030001170353,新規,0,2026-01-08,2026-01-08,ＤｅＬＬＡ　ＶＩＥＷ株式会社,,株式会社,埼玉県,さいたま市南区,太田窪５丁目１番２２号,,11,108,3360015,,,,,,,2026-01-08,1,,,,,デラビュー,0
1931,7030001170361,新規,0,2026-01-08,2026-01-08,株式会社ＶｅｒａＣｏｒｅ,,株式会社,埼玉県,さいたま市大宮区,櫛引町１丁目７１２－２,,11,103,3300851,,,,,,,2026-01-08,1,,,,,ヴェラコア,0
1932,7030001170386,新規,0,2026-01-08,2026-01-08,株式会社誠メディカル,,株式会社,埼玉県,坂戸市,大字浅羽１１８５番地,,11,239,3500238,,,,,,,2026-01-08,1,,,,,マコトメディカル,0
1933,7030001170394,新規,0,2026-01-08,2026-01-08,株式会社Ｍｔｉｍｅ,,株式会社,埼玉県,川越市,熊野町６番地５,,11,201,3501146,,,,,,,2026-01-08,1,,,,,エムタイム,0
1934,7030001170403,新規,0,2026-01-08,2026-01-08,ＨＡＦ．Ｄｅｓｉｇｎ株式会社,,株式会社,埼玉県,入間市,大字下藤沢１０４１番地３９,,11,225,3580011,,,,,,,2026-01-08,1,,,,,ハフデザイン,0
1935,7030001170411,新規,0,2026-01-08,2026-01-08,鑑定総合ケア株式会社,,株式会社,埼玉県,所沢市,大字上安松９１９番地の８,,11,208,3590025,,,,,,,2026-01-08,1,,,,,カンテイソウゴウケア,0
1936,7030001170502,新規,0,2026-01-08,2026-01-08,谷島衛生株式会社,,株式会社,埼玉県,さいたま市西区,宮前町６２４番地,,11,101,3310046,,,,,,,2026-01-08,1,,,,,タニシマエイセイ,0
1940,7030003028368,新規,0,2026-01-08,2026-01-08,合同会社わにわ,,合同会社,埼玉県,行田市,大字北河原１１７８番地３,,11,206,3610001,,,,,,,2026-01-08,1,,,,,ワニワ,0
1941,7030003028376,新規,0,2026-01-08,2026-01-08,合同会社エスグロウ,,合同会社,埼玉県,朝霞市,幸町３丁目７番３６号,,11,227,3510015,,,,,,,2026-01-08,1,,,,,エスグロウ,0
1942,7030003028384,新規,0,2026-01-08,2026-01-08,合同会社トレビア,,合同会社,埼玉県,朝霞市,宮戸４丁目２番５１－２０１号,,11,227,3510031,,,,,,,2026-01-08,1,,,,,トレビア,0
1955,7050005013746,新規,0,2026-01-08,2026-01-08,一般社団法人なかま起業カレッジ・とりで,,その他の設立登記法人,茨城県,取手市,ゆめみ野２丁目２番地３２,,08,217,3020039,,,,,,,2026-01-08,1,,,,,ナカマキギョウカレッジトレデ,0
1956,7070001043704,新規,0,2026-01-08,2026-01-08,株式会社成光工業,,株式会社,群馬県,太田市,古戸町７３７番地１,,10,205,3730826,,,,,,,2026-01-08,1,,,,,マサミツコウギョウ,0
1959,7080101025989,新規,0,2026-01-08,2026-01-08,株式会社駿河深海漁軍,,株式会社,静岡県,沼津市,下香貫島郷２６３５番地ヴィラグランドゥール１０２,,22,203,4100822,,,,,,,2026-01-08,1,,,,,スルガシンカイギョグン,0
1964,7100001039244,新規,0,2026-01-08,2026-01-08,東林商会株式会社,,株式会社,長野県,北佐久郡軽井沢町,大字長倉５８２７番地２０,,20,321,3890111,,,,,,,2026-01-08,1,,,,,トウリンショウカイ,0
1968,7110003006027,新規,0,2026-01-08,2026-01-08,ＰＳＧ合同会社,,合同会社,新潟県,南蒲原郡田上町,大字羽生田丙７８２番地１,,15,361,9591512,,,,,,,2026-01-08,1,,,,,ピーエスジー,0
1977,7120001283162,新規,0,2026-01-08,2026-01-08,株式会社ＡＴＬホールディングス,,株式会社,大阪府,大阪市中央区,南本町１丁目３番９号サンコービル船場３０６号,,27,128,5410054,,,,,,,2026-01-08,1,,,,,エーティーエルホールディングス,0
1978,7120001283170,新規,0,2026-01-08,2026-01-08,株式会社整体茶,,株式会社,大阪府,枚方市,招提元町３丁目３７番３２号,,27,210,5731133,,,,,,,2026-01-08,1,,,,,セイタイチャ,0
1979,7120001283204,新規,0,2026-01-08,2026-01-08,株式会社えがおせいさくじょ,,株式会社,大阪府,大阪市東住吉区,桑津１丁目３１番３０号松井ビル２０１号,,27,121,5460041,,,,,,,2026-01-08,1,,,,,エガオセイサクジョ,0
1980,7120001283229,新規,0,2026-01-08,2026-01-08,株式会社吉大設備,,株式会社,大阪府,大阪市大正区,平尾５丁目３番７号,,27,108,5510012,,,,,,,2026-01-08,1,,,,,ヨシダイセツビ,0
1983,7120003031627,新規,0,2026-01-08,2026-01-08,合同会社Ｓ＆Ｇ,,合同会社,大阪府,大阪市天王寺区,清水谷町１３番５－５０１号,,27,109,5430011,,,,,,,2026-01-08,1,,,,,エスアンドジ,0
1988,7120903006018,新規,0,2026-01-08,2026-01-08,Ｊ＆Ｌ合同会社,,合同会社,大阪府,高槻市,淀の原町２５番４号,,27,207,5690001,,,,,,,2026-01-08,1,,,,,ジェイアンドエル,0
2001,7170005007182,新規,0,2026-01-08,2026-01-08,司法書士法人リーガル・デザイン和歌山,,その他の設立登記法人,和歌山県,御坊市,薗２９９番地１,,30,205,6440002,,,,,,,2026-01-08,1,,,,,リーガルデザインワカヤマ,0
2007,7180001170099,新規,0,2026-01-08,2026-01-08,Ｐｌａｎ　ｔｒｅｅ株式会社,,株式会社,愛知県,名古屋市中区,正木２丁目１番１１号,,23,106,4600024,,,,,,,2026-01-08,1,,,,,プランツリー,0
2008,7180001170116,新規,0,2026-01-08,2026-01-08,株式会社シャムロック,,株式会社,愛知県,半田市,清城町１丁目１２番地の２６清城ハイツ１２Ｆ,,23,205,4750917,,,,,,,2026-01-08,1,,,,,シャムロック,0
2009,7180001170124,新規,0,2026-01-08,2026-01-08,株式会社丸昇ホールディングス,,株式会社,愛知県,海部郡蟹江町,富吉３丁目２１０番地,,23,425,4970058,,,,,,,2026-01-08,1,,,,,マルショウホールディングス,0
2012,7180003029582,新規,0,2026-01-08,2026-01-08,ＡｒｃｕｓＢｌｏｏｍ合同会社,,合同会社,愛知県,長久手市,前熊根ノ上１２８番地,,23,238,4801102,,,,,,,2026-01-08,1,,,,,アーカスブルーム,0
2013,7180301040555,新規,0,2026-01-08,2026-01-08,株式会社Ｌｅｐｕｓ　Ｃｒｅａｔｅ,,株式会社,愛知県,豊橋市,西幸町字浜池３３３番地の９豊橋サイエンスコア１０９,,23,201,4418113,,,,,,,2026-01-08,1,,,,,レプスクリエイト,0
2015,7180305009753,新規,0,2026-01-08,2026-01-08,特定非営利活動法人ケーエムティー,,その他の設立登記法人,愛知県,安城市,里町池ノ浦３７番地９石橋団地９５,,23,212,4460001,,,,,,,2026-01-08,1,,,,,ケーエムティー,0
2016,7190003005319,新規,0,2026-01-08,2026-01-08,ＰＨＵＣ　ＴＨＡＮＨ合同会社,,合同会社,三重県,松阪市,中央町６１３番地,,24,204,5150019,,,,,,,2026-01-08,1,,,,,フクタン,0
2017,7200001044572,新規,0,2026-01-08,2026-01-08,株式会社つなぎ屋,,株式会社,岐阜県,関市,平賀町５丁目５０番地１,,21,205,5013821,,,,,,,2026-01-08,1,,,,,ツナギヤ,0
2018,7200001044580,新規,0,2026-01-08,2026-01-08,日の出株式会社,,株式会社,岐阜県,瑞穂市,生津滝坪町２丁目１０番地,,21,216,5010212,,,,,,,2026-01-08,1,,,,,ヒノデ,0
2020,7200003007189,新規,0,2026-01-08,2026-01-08,ロジプロダクト合同会社,,合同会社,岐阜県,岐阜市,加納本石町３丁目７番地コワーキングスペースディライト個室１２４,,21,201,5008466,,,,,,,2026-01-08,1,,,,,ロジプロダクト,0
2022,7230001021222,新規,0,2026-01-08,2026-01-08,株式会社西井ボーリング,,株式会社,富山県,砺波市,庄川町金屋４２０８番地１７,,16,208,9320305,,,,,,,2026-01-08,1,,,,,ニシイボーリング,0
2023,7230003002559,新規,0,2026-01-08,2026-01-08,セグロバンコ合同会社,,合同会社,富山県,射水市,小島５８１番地１,,16,211,9390274,,,,,,,2026-01-08,1,,,,,セグロバンコ,0
2029,7250001021492,新規,0,2026-01-08,2026-01-08,株式会社立花企画,,株式会社,山口県,周南市,大字櫛ヶ浜２５８番地の３サンライズ山縣５０２号室,,35,215,7450805,,,,,,,2026-01-08,1,,,,,タチバナキカク,0
2031,7260003005468,新規,0,2026-01-08,2026-01-08,合同会社想紬,,合同会社,岡山県,総社市,美袋１６２７番地,,33,208,7191311,,,,,,,2026-01-08,1,,,,,ソウジュウ,0
2036,7290001112701,新規,0,2026-01-08,2026-01-08,株式会社Ｏｓａｔ,,株式会社,福岡県,春日市,原町１丁目８７番地,,40,218,8160804,,,,,,,2026-01-08,1,,,,,オーエスエーティー,0
2037,7290005019950,新規,0,2026-01-08,2026-01-08,医療法人福岡乳がん検診会,,その他の設立登記法人,福岡県,福岡市中央区,大名２丁目９番１号ヒューベスト天神６階,,40,133,8100041,,,,,,,2026-01-08,1,,,,,フクオカニュウガンケンシンカイ,0
2039,7310001019919,新規,0,2026-01-08,2026-01-08,株式会社グリーンヒル開発,,株式会社,長崎県,佐世保市,日野町２２５９番地,,42,202,8580923,,,,,,,2026-01-08,1,,,,,グリーンヒルカイハツ,0
2041,7340001027885,新規,0,2026-01-08,2026-01-08,株式会社スカイ,,株式会社,鹿児島県,薩摩川内市,平佐町１９６９番地５,,46,215,8950012,,,,,,,2026-01-08,1,,,,,スカイ,0
2042,7340003005063,新規,0,2026-01-08,2026-01-08,大石製茶合同会社,,合同会社,鹿児島県,曽於市,財部町下財部１６３７番地１,,46,217,8994103,,,,,,,2026-01-08,1,,,,,オオイシセイチャ,0
2046,7360001036190,新規,0,2026-01-08,2026-01-08,株式会社ＯＫＩＮＡ‐翁,,株式会社,沖縄県,沖縄市,上地１丁目１９番８号アパッチ２－１,,47,211,9040031,,,,,,,2026-01-08,1,,,,,オキナ,0
2048,7370001053367,新規,0,2026-01-08,2026-01-08,株式会社ＬＩＦＥ　ＣＲＥＷ,,株式会社,宮城県,仙台市泉区,八乙女１丁目４番地の１エクメーネ八乙女７０７,,04,105,9813112,,,,,,,2026-01-08,1,,,,,ライフクルー,0
2049,7370001053375,新規,0,2026-01-08,2026-01-08,株式会社舞台,,株式会社,宮城県,仙台市若林区,日辺字田中１１番地,,04,103,9840837,,,,,,,2026-01-08,1,,,,,ブタイ,0
2053,7380001035793,新規,0,2026-01-08,2026-01-08,株式会社ＹＯＳＨＩＤＡ　ｄｅｎｔａｌ　ｌａｂｏ　ｊｒ．,,株式会社,福島県,須賀川市,南上町１３１番地５０,,07,207,9620817,,,,,,,2026-01-08,1,,,,,ヨシダデンタルラボジュニア,0
2056,7400001017269,新規,0,2026-01-08,2026-01-08,株式会社ジュリアン・ホールディングス,,株式会社,岩手県,奥州市,水沢佐倉河字後樋４１番地１,,03,215,0230003,,,,,,,2026-01-08,1,,,,,ジュリアンホールデイングス,0
2063,7430001096038,新規,0,2026-01-08,2026-01-08,株式会社Ｕ　ｄｅｓｉｇｎｉＺｍ,,株式会社,北海道,札幌市白石区,本通２丁目南４番３１－１号,,01,104,0030026,,,,,,,2026-01-08,1,,,,,ユーデザニズム,0
2064,7430001096046,新規,0,2026-01-08,2026-01-08,株式会社誠和設備工業,,株式会社,北海道,岩見沢市,栗沢町北本町１９９‐３,,01,210,0680121,,,,,,,2026-01-08,1,,,,,セイワセツビコウギョウ,0
2067,7440001009741,新規,0,2026-01-08,2026-01-08,北斗市白石農園株式会社,,株式会社,北海道,北斗市,追分１７７番地,,01,236,0490101,,,,,,,2026-01-08,1,,,,,ホクトシシライシノウエン,0
2070,7470003003046,新規,0,2026-01-08,2026-01-08,合同会社ＦｅｅｌＧｏｏｄ,,合同会社,香川県,高松市,昭和町１丁目７番４－２０３号,,37,201,7600014,,,,,,,2026-01-08,1,,,,,フィールグッド,0
2074,7700150133844,新規,0,2026-01-08,2026-01-08,ＷＡＬＬＥＳ　ＰＶＴ　ＬＴＤ,,外国会社等,神奈川県,秦野市,北矢名１２５３番地１　山王ハイツ１０２,,14,211,2570006,スリランカ民主社会主義共和国、マワネラ、キリガンデニヤ、Ｎｏ．１７４,,,,,,2026-01-08,1,,,,,ウオレスプライベートリミテツド,0
2075,7700150133860,新規,0,2026-01-08,2026-01-08,オエノンホールディングス健康保険組合,,その他,千葉県,松戸市,上本郷字仲原２５０番地　オエノン松戸事務所,,12,207,2710064,,,,,,,2026-01-08,1,,,,,オエノンホールディングスケンコウホケンクミアイ,0
2084,8010001261582,新規,0,2026-01-08,2026-01-08,株式会社ＭＡＢＰ１,,株式会社,東京都,千代田区,内神田１丁目２番１５号,,13,101,1010047,,,,,,,2026-01-08,1,,,,,エムエービーピーワン,0
2085,8010001261599,新規,0,2026-01-08,2026-01-08,株式会社ＡｌｌＣｌｉｐ,,株式会社,東京都,千代田区,神田和泉町１番地６－１６ヤマトビル４０５,,13,101,1010024,,,,,,,2026-01-08,1,,,,,オールクリップ,0
2088,8010003049893,新規,0,2026-01-08,2026-01-08,合同会社ネクストランド,,合同会社,東京都,千代田区,神田神保町２丁目１０－３１ＩＷビル１Ｆ,,13,101,1010051,,,,,,,2026-01-08,1,,,,,ネクストランド,0
2089,8010003049919,新規,0,2026-01-08,2026-01-08,合同会社ＪＲＷＤファンド第１３号,,合同会社,東京都,中央区,日本橋１丁目４番１号日本橋一丁目ビルディング,,13,102,1030027,,,,,,,2026-01-08,1,,,,,ジェイアールダブリューディーファンドダイジュウサンゴウ,0
2092,8010401195455,新規,0,2026-01-08,2026-01-08,株式会社ｐｏｌｉｔｅｎｅｓｓ,,株式会社,東京都,港区,南青山３丁目１番３６号青山丸竹ビル６Ｆ,,13,103,1070062,,,,,,,2026-01-08,1,,,,,ポライトネス,0
2093,8010401195521,新規,0,2026-01-08,2026-01-08,株式会社Ｒｅｍａｉｎｉｎｇ　ｌｉｆｅ,,株式会社,東京都,港区,港南３丁目７番１０－５０２号,,13,103,1080075,,,,,,,2026-01-08,1,,,,,リメイニングライフ,0
2094,8010401195554,新規,0,2026-01-08,2026-01-08,株式会社ＳＮＫ１,,株式会社,東京都,港区,北青山１丁目３番１号アールキューブ青山３階,,13,103,1070061,,,,,,,2026-01-08,1,,,,,エスエヌケーワン,0
2095,8010401195579,新規,0,2026-01-08,2026-01-08,Ａｃｃｅｓｓ　Ｊａｐａｎ　Ｒｅａｌ　Ｅｓｔａｔｅ株式会社,,株式会社,東京都,港区,赤坂９丁目１番７号,,13,103,1070052,,,,,,,2026-01-08,1,,,,,アクセスジャパンリアルエステート,0
2096,8010401195587,新規,0,2026-01-08,2026-01-08,ＧｒｏｗＭｅ株式会社,,株式会社,東京都,港区,赤坂７丁目５－４３－３０４,,13,103,1070052,,,,,,,2026-01-08,1,,,,,グロウミー,0
2097,8010401195620,新規,0,2026-01-08,2026-01-08,３ｈｉ株式会社,,株式会社,東京都,港区,白金３丁目２３番２－５０６号,,13,103,1080072,,,,,,,2026-01-08,1,,,,,スリーハイ,0
2098,8010401195744,新規,0,2026-01-08,2026-01-08,株式会社ＴＨＥ　ＦＡＲＭ　ＯＷＮＥＲ,,株式会社,東京都,港区,芝２丁目２番１２号３階,,13,103,1050014,,,,,,,2026-01-08,1,,,,,ザファームオーナー,0
2103,8010701048750,新規,0,2026-01-08,2026-01-08,プライムシェア株式会社,,株式会社,東京都,品川区,中延２丁目３番４－２０６号,,13,109,1420053,,,,,,,2026-01-08,1,,,,,プライムシェア,0
2104,8010701048841,新規,0,2026-01-08,2026-01-08,Ｎｘｅｒａ　Ｊａｐａｎ株式会社,,株式会社,東京都,品川区,大崎１丁目１１番２号ゲートシティ大崎イーストタワー２２階,,13,109,1410032,,,,,,,2026-01-08,1,,,,,ネクゼラジャパン,0
2108,8010903010533,新規,0,2026-01-08,2026-01-08,合同会社アドバンス,,合同会社,東京都,世田谷区,粕谷１丁目６番２２号,,13,112,1570063,,,,,,,2026-01-08,1,,,,,アドバンス,0
2112,8011001174881,新規,0,2026-01-08,2026-01-08,株式会社Ｌｉｂｅｒｂｏｒａ,,株式会社,東京都,渋谷区,恵比寿西２丁目４番８号ウィンド恵比寿ビル８Ｆ,,13,113,1500021,,,,,,,2026-01-08,1,,,,,リベルボラ,0
2116,8011003023310,新規,0,2026-01-08,2026-01-08,ていと合同会社,,合同会社,東京都,目黒区,中町２丁目１６番２号,,13,110,1530065,,,,,,,2026-01-08,1,,,,,テイト,0
2123,8011103016874,新規,0,2026-01-08,2026-01-08,合同会社藤楽,,合同会社,東京都,新宿区,袋町７,,13,104,1620828,,,,,,,2026-01-08,1,,,,,トウラク,0
2126,8011301031163,新規,0,2026-01-08,2026-01-08,ステップヒルズ株式会社,,株式会社,東京都,杉並区,阿佐谷北６丁目４２番１６号,,13,115,1660001,,,,,,,2026-01-08,1,,,,,ステップヒルズ,0
2127,8011401027706,新規,0,2026-01-08,2026-01-08,株式会社ｙｏｕｆｉｎｉｔｙ,,株式会社,東京都,板橋区,板橋２丁目４７番４号,,13,119,1730004,,,,,,,2026-01-08,1,,,,,ユーフィニティ,0
2129,8011501032985,新規,0,2026-01-08,2026-01-08,株式会社ａｔａ,,株式会社,東京都,荒川区,荒川６丁目３１番７号,,13,118,1160002,,,,,,,2026-01-08,1,,,,,アタ,0
2130,8011601029295,新規,0,2026-01-08,2026-01-08,株式会社Ｃｈｉｉｉ　ｂｌｏｏｍ,,株式会社,東京都,練馬区,栄町３番１３号ＹＳビル１０１,,13,120,1760006,,,,,,,2026-01-08,1,,,,,チーブルーム,0
2131,8011603004973,新規,0,2026-01-08,2026-01-08,合同会社神本,,合同会社,東京都,練馬区,西大泉４丁目５番３１号ルネ大泉１０１号室,,13,120,1780065,,,,,,,2026-01-08,1,,,,,カンモト,0
2133,8011801047262,新規,0,2026-01-08,2026-01-08,株式会社ｄａｙ　ｏｆｆ,,株式会社,東京都,足立区,新田３丁目３５番３１号,,13,121,1230865,,,,,,,2026-01-08,1,,,,,デイオフ,0
2134,8011801047287,新規,0,2026-01-08,2026-01-08,株式会社ケイ・アイ・コーポレーション,,株式会社,東京都,足立区,弘道１丁目１７番５号,,13,121,1200013,,,,,,,2026-01-08,1,,,,,ケイアイコーポレーション,0
2139,8012403007547,新規,0,2026-01-08,2026-01-08,エニワン合同会社,,合同会社,東京都,調布市,下石原３丁目６４番２２号,,13,208,1820034,,,,,,,2026-01-08,1,,,,,エニワン,0
2175,8013301055514,新規,0,2026-01-08,2026-01-08,株式会社Ｆｌａｖｏｒｕｌｅ,,株式会社,東京都,豊島区,東池袋４丁目１番３号,,13,116,1700013,,,,,,,2026-01-08,1,,,,,フレーバール,0
2176,8013301055547,新規,0,2026-01-08,2026-01-08,東海株式会社,,株式会社,東京都,豊島区,東池袋１丁目３１番１７号ドミール池袋６０６,,13,116,1700013,,,,,,,2026-01-08,1,,,,,トウカイ,0
2178,8013303008024,新規,0,2026-01-08,2026-01-08,ノーチェ合同会社,,合同会社,東京都,豊島区,長崎１丁目２５－４,,13,116,1710051,,,,,,,2026-01-08,1,,,,,ノーチェ,0
2179,8013303008040,新規,0,2026-01-08,2026-01-08,ＳＴＡＲＦＩＥＬＤ合同会社,,合同会社,東京都,豊島区,千川１丁目１１番１４号千川ヒルズ２０５号,,13,116,1710041,,,,,,,2026-01-08,1,,,,,スターフィールド,0
2187,8020001166517,新規,0,2026-01-08,2026-01-08,株式会社エクシード,,株式会社,神奈川県,横浜市神奈川区,東神奈川２丁目４２番地１大塚ビル２０１号,,14,102,2210044,,,,,,,2026-01-08,1,,,,,エクシード,0
2188,8020001166558,新規,0,2026-01-08,2026-01-08,株式会社コーラウ,,株式会社,神奈川県,川崎市高津区,新作６丁目３番３４号,,14,134,2130014,,,,,,,2026-01-08,1,,,,,コーラウ,0
2189,8020001166632,新規,0,2026-01-08,2026-01-08,ＰｌａｙＭａｋｅｒＷｏｒｋｓ株式会社,,株式会社,神奈川県,横浜市神奈川区,栄町１５番地４オールドコースト横濱６０３号,,14,102,2210052,,,,,,,2026-01-08,1,,,,,プレイメーカーワークス,0
2191,8020003030076,新規,0,2026-01-08,2026-01-08,ＢＭ＆Ｆ合同会社,,合同会社,神奈川県,横浜市港北区,綱島東１丁目１０番４号イケモリビル１０階,,14,109,2230052,,,,,,,2026-01-08,1,,,,,ビーエムアンドエフ,0
2197,8030001170369,新規,0,2026-01-08,2026-01-08,株式会社十色,,株式会社,埼玉県,所沢市,中富南４丁目２番地セントラルハイツ２－３０１,,11,208,3590003,,,,,,,2026-01-08,1,,,,,トイロ,0
2198,8030001170377,新規,0,2026-01-08,2026-01-08,侑和産業株式会社,,株式会社,埼玉県,熊谷市,樋春１９２１,,11,202,3600112,,,,,,,2026-01-08,1,,,,,ユウワサンギョウ,0
2199,8030001170393,新規,0,2026-01-08,2026-01-08,シンク・マテリアルズ株式会社,,株式会社,埼玉県,さいたま市北区,宮原町１丁目５３３番１,,11,102,3310812,,,,,,,2026-01-08,1,,,,,シンクマテリアルズ,0
2200,8030001170402,新規,0,2026-01-08,2026-01-08,株式会社備空調,,株式会社,埼玉県,川口市,大字西立野５５５番地の５－１１３号,,11,203,3330813,,,,,,,2026-01-08,1,,,,,ビクウチョウ,0
2201,8030001170410,新規,0,2026-01-08,2026-01-08,株式会社ａｉｎｅ,,株式会社,埼玉県,川口市,北原台１丁目３番８号,,11,203,3330815,,,,,,,2026-01-08,1,,,,,アイネ,0
2202,8030001170419,新規,0,2026-01-08,2026-01-08,株式会社Ｔ．Ｐ．Ａ,,株式会社,埼玉県,吉川市,美南４丁目２８番地３６,,11,243,3420038,,,,,,,2026-01-08,1,,,,,ティーピーエー,0
2203,8030001170427,新規,0,2026-01-08,2026-01-08,株式会社マエモト,,株式会社,埼玉県,さいたま市桜区,栄和１丁目２４番１３号,,11,106,3380823,,,,,,,2026-01-08,1,,,,,マエモト,0
2204,8030001170435,新規,0,2026-01-08,2026-01-08,株式会社Ｔ‐ＮＥＸＴ,,株式会社,埼玉県,比企郡川島町,大字上伊草１７７８番地,,11,346,3500152,,,,,,,2026-01-08,1,,,,,ティーネクスト,0
2205,8030001170443,新規,0,2026-01-08,2026-01-08,株式会社ツインク,,株式会社,埼玉県,さいたま市緑区,芝原１丁目１６番地２０,,11,109,3360917,,,,,,,2026-01-08,1,,,,,ツインク,0
2206,8030001170451,新規,0,2026-01-08,2026-01-08,株式会社ＡｉＷｅｌｌｉａ,,株式会社,埼玉県,上尾市,大字上１０２２番地１０,,11,219,3620001,,,,,,,2026-01-08,1,,,,,アイウェリア,0
2207,8030001170468,新規,0,2026-01-08,2026-01-08,株式会社絢茶縁,,株式会社,埼玉県,さいたま市大宮区,桜木町１丁目３９８－１アドグレイス大宮７Ｆ,,11,103,3300854,,,,,,,2026-01-08,1,,,,,アヤチャエン,0
2208,8030001170476,新規,0,2026-01-08,2026-01-08,株式会社タナベサーベイ,,株式会社,埼玉県,さいたま市大宮区,桜木町２丁目３番地大宮マルイ７階,,11,103,3300854,,,,,,,2026-01-08,1,,,,,タナベサーベイ,0
2210,8030003028391,新規,0,2026-01-08,2026-01-08,合同会社ＹＳライフ,,合同会社,埼玉県,戸田市,喜沢２丁目３４番地の７ステイツ戸田喜沢２０４号室,,11,224,3350013,,,,,,,2026-01-08,1,,,,,ワイエスライフ,0
2211,8030003028409,新規,0,2026-01-08,2026-01-08,ＥＲＵＭＷＥＡＲ合同会社,,合同会社,埼玉県,川口市,大字安行慈林８３２番地の１９川口ビジネスセンター１Ｂ号室,,11,203,3340071,,,,,,,2026-01-08,1,,,,,エルムウェア,0
2216,8040001141947,新規,0,2026-01-08,2026-01-08,株式会社タマ電気,,株式会社,千葉県,茂原市,八千代３丁目１２番地６,,12,210,2970024,,,,,,,2026-01-08,1,,,,,タマデンキ,0
2217,8040001141971,新規,0,2026-01-08,2026-01-08,株式会社ＲＴ,,株式会社,千葉県,印西市,中央北２丁目１番地３－１０２３号,,12,231,2701350,,,,,,,2026-01-08,1,,,,,アールティ,0
2218,8040001142045,新規,0,2026-01-08,2026-01-08,ＺＸＥ株式会社,,株式会社,千葉県,流山市,おおたかの森南３丁目１０番地の１２,,12,220,2700139,,,,,,,2026-01-08,1,,,,,ゼットエックスイー,0
2223,8070001043711,新規,0,2026-01-08,2026-01-08,株式会社お助けペイメント,,株式会社,群馬県,前橋市,千代田町２丁目１０番２号,,10,201,3710022,,,,,,,2026-01-08,1,,,,,オタスケペイメント,0
2224,8070003006245,新規,0,2026-01-08,2026-01-08,ＪＰ　Ｓｕｐｐｏｒｔ合同会社,,合同会社,群馬県,太田市,内ケ島町４１３番地１８,,10,205,3730813,,,,,,,2026-01-08,1,,,,,ジェイピーサポート,0
2225,8080101026004,新規,0,2026-01-08,2026-01-08,株式会社杉山塗装工業,,株式会社,静岡県,沼津市,石川６１９番地の４０,,22,203,4100317,,,,,,,2026-01-08,1,,,,,スギヤマトソウコウギョウ,0
2226,8080401028369,新規,0,2026-01-08,2026-01-08,株式会社べるうっど,,株式会社,静岡県,磐田市,富士見町３丁目７番地１０,,22,211,4380083,,,,,,,2026-01-08,1,,,,,ベルウッド,0
2230,8100001039235,新規,0,2026-01-08,2026-01-08,株式会社Ｏｆｆ　Ｔｒａｉｌ,,株式会社,長野県,松本市,大字笹賀７４２３番地２,,20,202,3990033,,,,,,,2026-01-08,1,,,,,オフトレイル,0
2234,8100003008551,新規,0,2026-01-08,2026-01-08,ＤＨＭ合同会社,,合同会社,長野県,安曇野市,穂高有明１１３番地５,,20,220,3998301,,,,,,,2026-01-08,1,,,,,ディーエイチエム,0
2235,8120001043053,新規,0,2026-01-08,2026-01-08,株式会社ケンシキ,,株式会社,大阪府,大阪市浪速区,幸町３丁目４番２２号,,27,111,5560021,,,,,,,2026-01-08,1,,,,,ケンシキ,0
2241,8120001283203,新規,0,2026-01-08,2026-01-08,株式会社ＬＩＮＫ,,株式会社,大阪府,大阪市北区,梅田１丁目１１番４０－９２３号大阪駅前第４ビル９階,,27,127,5300001,,,,,,,2026-01-08,1,,,,,リンク,0
2248,8120003031626,新規,0,2026-01-08,2026-01-08,合同会社稲垣工務店,,合同会社,大阪府,大阪市浪速区,桜川２丁目８番２５－１０１号,,27,111,5560022,,,,,,,2026-01-08,1,,,,,イナガキコウムテン,0
2249,8120003031650,新規,0,2026-01-08,2026-01-08,合同会社本莊護事務所,,合同会社,大阪府,大阪市東淀川区,東中島１丁目１７番５－１１２７,,27,114,5330033,,,,,,,2026-01-08,1,,,,,ホンジョウマモルジムショ,0
2254,8120005025337,新規,0,2026-01-08,2026-01-08,弁護士法人ＡＢＮトラスト,,その他の設立登記法人,大阪府,大阪市阿倍野区,旭町１丁目２番７号あべのメディックスビル４１１号,,27,119,5450051,,,,,,,2026-01-08,1,,,,,エービーエヌトラスト,0
2256,8120101073033,新規,0,2026-01-08,2026-01-08,株式会社チャみトラ,,株式会社,大阪府,河内長野市,天野町３３０番地の２,,27,216,5860086,,,,,,,2026-01-08,1,,,,,チャミトラ,0
2263,8130001081333,新規,0,2026-01-08,2026-01-08,株式会社ＧＯＡＴ　ＳＵＰＰＯＲＴ,,株式会社,京都府,京都市北区,上賀茂馬ノ目町４９番地２６,,26,101,6038033,,,,,,,2026-01-08,1,,,,,ゴートサポート,0
2265,8130003011049,新規,0,2026-01-08,2026-01-08,合同会社ＡＰＯＬＬＯ　ＰＬＵＳ,,合同会社,京都府,京都市中京区,梅忠町２０番地１烏丸アネックス２－９１５,,26,104,6048136,,,,,,,2026-01-08,1,,,,,アポロプラス,0
2268,8140003023035,新規,0,2026-01-08,2026-01-08,ＪＭＭ合同会社,,合同会社,兵庫県,加古川市,加古川町大野１１９８番地,,28,210,6750061,,,,,,,2026-01-08,1,,,,,ジェイエムエム,0
2269,8140003023051,新規,0,2026-01-08,2026-01-08,合同会社Ｎｒｃｃ,,合同会社,兵庫県,神戸市東灘区,青木５丁目１３番１４－５０４号,,28,101,6580027,,,,,,,2026-01-08,1,,,,,エヌアールシーシー,0
2282,8180001170107,新規,0,2026-01-08,2026-01-08,コアトレーニングアカデミー株式会社,,株式会社,愛知県,春日井市,松新町２丁目１０２番地,,23,206,4860931,,,,,,,2026-01-08,1,,,,,コアトレーニングアカデミー,0
2283,8180001170148,新規,0,2026-01-08,2026-01-08,株式会社ＰｅａｋｙＳｔｙｌｅ,,株式会社,愛知県,名古屋市中区,錦１丁目１５－８アミティエ錦第１ビル６Ｆ,,23,106,4600003,,,,,,,2026-01-08,1,,,,,ピーキースタイル,0
2284,8180001170197,新規,0,2026-01-08,2026-01-08,株式会社スライブオン,,株式会社,愛知県,一宮市,浅野字山林７０‐１カレーハウスＣｏＣｏ壱番屋一宮浅野店,,23,203,4910871,,,,,,,2026-01-08,1,,,,,スライブオン,0
2285,8180001170214,新規,0,2026-01-08,2026-01-08,株式会社リリブ,,株式会社,愛知県,名古屋市南区,豊田４丁目７番２４号,,23,112,4570841,,,,,,,2026-01-08,1,,,,,リリブ,0
2291,8190001032792,新規,0,2026-01-08,2026-01-08,株式会社はあとリンクス,,株式会社,三重県,名張市,桔梗が丘５番町一街区１３番地,,24,208,5180625,,,,,,,2026-01-08,1,,,,,ハアトリンクス,0
2292,8190003005318,新規,0,2026-01-08,2026-01-08,Ｎｉ‐ｙｏｎ‐ｍａｒｕ　Ｓｅｋｋｅｉ合同会社,,合同会社,三重県,伊賀市,上野丸之内４９番地の１５,,24,216,5180873,,,,,,,2026-01-08,1,,,,,ニーヨンマルセッケイ,0
2293,8200001044588,新規,0,2026-01-08,2026-01-08,株式会社山田板金,,株式会社,岐阜県,山県市,中洞５０５番地４,,21,215,5012258,,,,,,,2026-01-08,1,,,,,ヤマダバンキン,0
2294,8200001044605,新規,0,2026-01-08,2026-01-08,株式会社Ｍ’ｓ,,株式会社,岐阜県,美濃加茂市,下米田町今２７０番地１,,21,211,5050015,,,,,,,2026-01-08,1,,,,,エムズ,0
2296,8200003007188,新規,0,2026-01-08,2026-01-08,合同会社藤司吉,,合同会社,岐阜県,高山市,岡本町３丁目１８番地２,,21,203,5060054,,,,,,,2026-01-08,1,,,,,フジヨシ,0
2305,8260003005475,新規,0,2026-01-08,2026-01-08,合同会社ＴＫＲ,,合同会社,岡山県,岡山市北区,伊福町３丁目２０番２０号,,33,101,7000013,,,,,,,2026-01-08,1,,,,,ティーケーアール,0
2306,8270003001829,新規,0,2026-01-08,2026-01-08,合同会社山番,,合同会社,鳥取県,日野郡日南町,福寿実１２５６番地１,,31,401,6895545,,,,,,,2026-01-08,1,,,,,ヤマバン,0
2310,8290001112691,新規,0,2026-01-08,2026-01-08,株式会社ＳＤテクノス,,株式会社,福岡県,福岡市東区,原田４丁目２４番４３－１００１号,,40,131,8120063,,,,,,,2026-01-08,1,,,,,エスディテクノス,0
2311,8290001112733,新規,0,2026-01-08,2026-01-08,株式会社Ｓａｋｕｒａ,,株式会社,福岡県,福岡市中央区,天神２丁目２番１２号Ｔ＆Ｊビルディング７Ｆ,,40,133,8100001,,,,,,,2026-01-08,1,,,,,サクラ,0
2312,8290001112782,新規,0,2026-01-08,2026-01-08,株式会社ＴｉｍｅＤｅｓｉｇｎ　Ｌａｂ,,株式会社,福岡県,福岡市中央区,天神２丁目２番１２号Ｔ＆Ｊビルディング７Ｆ,,40,133,8100001,,,,,,,2026-01-08,1,,,,,タイムデザインラボ,0
2316,8290003017872,新規,0,2026-01-08,2026-01-08,合同会社東光寺蓄電所,,合同会社,福岡県,福岡市南区,大楠１丁目５番１５号,,40,134,8150082,,,,,,,2026-01-08,1,,,,,トウコウジチクデンショ,0
2317,8290005019958,新規,0,2026-01-08,2026-01-08,一般社団法人日本サジー協会,,その他の設立登記法人,福岡県,福岡市博多区,博多駅前１丁目２３番２号ＰａｒｋＦｒｏｎｔ博多駅前一丁目５Ｆ－Ｂ,,40,132,8120011,,,,,,,2026-01-08,1,,,,,ニホンサジーキョウカイ,0
2324,8320001021518,新規,0,2026-01-08,2026-01-08,ジェイリペア株式会社,,株式会社,大分県,大分市,下郡北３丁目１８番４３号,,44,201,8700952,,,,,,,2026-01-08,1,,,,,ジェイリペア,0
2326,8330001033891,新規,0,2026-01-08,2026-01-08,株式会社サンエイ,,株式会社,熊本県,荒尾市,水野１７２５番地２８,,43,204,8640023,,,,,,,2026-01-08,1,,,,,サンエイ,0
2330,8330005011010,新規,0,2026-01-08,2026-01-08,一般社団法人くま台湾Ｎｅｏ,,その他の設立登記法人,熊本県,熊本市中央区,坪井４丁目１番３５号,,43,101,8600863,,,,,,,2026-01-08,1,,,,,クマタイワンネオ,0
2335,8360001036198,新規,0,2026-01-08,2026-01-08,株式会社ラ・ポーズ,,株式会社,沖縄県,石垣市,字石垣５２４番地９２,,47,207,9070023,,,,,,,2026-01-08,1,,,,,ラポーズ,0
2336,8360001036207,新規,0,2026-01-08,2026-01-08,朝日レッカーサービス株式会社,,株式会社,沖縄県,宜野湾市,長田４丁目１番２１－１０２号仲村店舗,,47,205,9012212,,,,,,,2026-01-08,1,,,,,アサヒレッカーサービス,0
2338,8360003015539,新規,0,2026-01-08,2026-01-08,合同会社松田まり子建築設計事務所,,合同会社,沖縄県,浦添市,安波茶１丁目３２－１３大平インタービル２階,,47,208,9012114,,,,,,,2026-01-08,1,,,,,マツダマリコケンチクセッケイジムショ,0
2339,8360005007344,新規,0,2026-01-08,2026-01-08,一般社団法人沖縄クラシック音楽友の会,,その他の設立登記法人,沖縄県,那覇市,首里石嶺町３丁目２７番地５,,47,201,9030804,,,,,,,2026-01-08,1,,,,,オキナワクラシックオンガクトモノカイ,0
2343,8370001053358,新規,0,2026-01-08,2026-01-08,マルタマグループホールディングス株式会社,,株式会社,宮城県,仙台市若林区,清水小路８番地,,04,103,9840075,,,,,,,2026-01-08,1,,,,,マルタマグループホールディングス,0
2348,8380001035792,新規,0,2026-01-08,2026-01-08,株式会社ＪＣ,,株式会社,福島県,福島市,鎌田字御仮家７３番地１,,07,201,9600102,,,,,,,2026-01-08,1,,,,,ジェイシー,0
2349,8380001035801,新規,0,2026-01-08,2026-01-08,フェイスプランニング株式会社,,株式会社,福島県,郡山市,田村町山中字日照田１９０番地の４,,07,203,9631162,,,,,,,2026-01-08,1,,,,,フェイスプランニング,0
2350,8390001018202,新規,0,2026-01-08,2026-01-08,株式会社エイト,,株式会社,山形県,上山市,新金谷５０－２,,06,207,9993102,,,,,,,2026-01-08,1,,,,,エイト,0
2355,8420001019394,新規,0,2026-01-08,2026-01-08,株式会社ＳｔｏｌｅｎＭｏｍｅｎｔｓ,,株式会社,青森県,三沢市,大町３丁目１０番２号,,02,207,0330041,,,,,,,2026-01-08,1,,,,,ストールンモーメンツ,0
2360,8430003018468,新規,0,2026-01-08,2026-01-08,合同会社ＫＡＲＡＦＵＴＯ,,合同会社,北海道,札幌市東区,北四十一条東７丁目１番３－２０２号,,01,103,0070841,,,,,,,2026-01-08,1,,,,,カラフト,0
2361,8430003018476,新規,0,2026-01-08,2026-01-08,合同会社ｍｏｒｉｔａｎｉ,,合同会社,北海道,札幌市豊平区,美園八条２丁目７番１３号,,01,105,0620008,,,,,,,2026-01-08,1,,,,,モリタニ,0
2362,8430003018484,新規,0,2026-01-08,2026-01-08,蔵合同会社,,合同会社,北海道,虻田郡ニセコ町,字近藤７４１番地３５,,01,395,0481542,,,,,,,2026-01-08,1,,,,,クラ,0
2363,8430005015389,新規,0,2026-01-08,2026-01-08,行政書士法人終活・相続支援センター札幌,,その他の設立登記法人,北海道,札幌市北区,北七条西６丁目２番５号ＮＤビル４階,,01,102,0600807,,,,,,,2026-01-08,1,,,,,シュウカツソウゾクシエンセンターサッポロ,0
2364,8440001009740,新規,0,2026-01-08,2026-01-08,株式会社ＫＭＲ３,,株式会社,北海道,函館市,柏木町４番２号,,01,202,0420942,,,,,,,2026-01-08,1,,,,,ケイエムアールサンジョウ,0
2373,8470005006673,新規,0,2026-01-08,2026-01-08,一般社団法人つながり,,その他の設立登記法人,香川県,高松市,丸の内７番２０号丸の内ファイブビル４階,,37,201,7600033,,,,,,,2026-01-08,1,,,,,ツナガリ,0
2377,8500001026705,新規,0,2026-01-08,2026-01-08,株式会社アクア設備,,株式会社,愛媛県,四国中央市,上柏町１００２番地９,,38,213,7990412,,,,,,,2026-01-08,1,,,,,アクアセツビ,0
2378,8500003003652,新規,0,2026-01-08,2026-01-08,守谷コンサルティング合同会社,,合同会社,愛媛県,四国中央市,妻鳥町１４４番地,,38,213,7990113,,,,,,,2026-01-08,1,,,,,モリヤコンサルティング,0
2385,9010001261771,新規,0,2026-01-08,2026-01-08,株式会社オシカツ,,株式会社,東京都,中央区,銀座１丁目２２番１１号銀座大竹ビジデンス２Ｆ,,13,102,1040061,,,,,,,2026-01-08,1,,,,,オシカツ,0
2389,9010003049851,新規,0,2026-01-08,2026-01-08,ＫＹＯ　ＥＮＥＲＧＹ５合同会社,,合同会社,東京都,中央区,京橋２丁目６番１５号ＭＣＡ京橋ビル３Ｆ,,13,102,1040031,,,,,,,2026-01-08,1,,,,,キョウエネルギーファイブ,0
2390,9010003049876,新規,0,2026-01-08,2026-01-08,ＴＯＳＡ医療コンサルティング合同会社,,合同会社,東京都,中央区,佃２丁目１番１－４５０３号,,13,102,1040051,,,,,,,2026-01-08,1,,,,,ティーオーエスエーイリョウコンサルティング,0
2391,9010003049892,新規,0,2026-01-08,2026-01-08,ダントー・アルプス系統用蓄電所Ｏ合同会社,,合同会社,東京都,中央区,銀座１丁目８番１６号３階,,13,102,1040061,,,,,,,2026-01-08,1,,,,,ダントーアルプスケイトウヨウチクデンショオー,0
2392,9010005041154,新規,0,2026-01-08,2026-01-08,一般財団法人サン佐藤財団,,その他の設立登記法人,東京都,千代田区,大手町１丁目３番１号,,13,101,1000004,,,,,,,2026-01-08,1,,,,,サンサトウザイダン,0
2393,9010005041162,新規,0,2026-01-08,2026-01-08,一般社団法人ＩＲＡＫＡ,,その他の設立登記法人,東京都,中央区,京橋２丁目５番２号Ａ・Ｍ京橋ビル８０３,,13,102,1040031,,,,,,,2026-01-08,1,,,,,イラカ,0
2394,9010005041204,新規,0,2026-01-08,2026-01-08,スリーエス一般社団法人,,その他の設立登記法人,東京都,千代田区,霞が関３丁目２番５号,,13,101,1000013,,,,,,,2026-01-08,1,,,,,スリーエス,0
2395,9010101017033,新規,0,2026-01-08,2026-01-08,株式会社Ｅｎｏｒａ　Ｐｒｏｄｕｃｔｉｏｎ,,株式会社,東京都,八王子市,みなみ野４丁目１６番４号,,13,201,1920916,,,,,,,2026-01-08,1,,,,,エノラプロダクション,0
2400,9010401195586,新規,0,2026-01-08,2026-01-08,未来臨床株式会社,,株式会社,東京都,港区,南青山２丁目２番１５号,,13,103,1070062,,,,,,,2026-01-08,1,,,,,ミライリンショウ,0
2401,9010403036937,新規,0,2026-01-08,2026-01-08,合同会社枝幸企画,,合同会社,東京都,港区,北青山１丁目３番１号アールキューブ青山３階,,13,103,1070061,,,,,,,2026-01-08,1,,,,,エサシキカク,0
2402,9010405025211,新規,0,2026-01-08,2026-01-08,福浦東一般社団法人,,その他の設立登記法人,東京都,港区,元赤坂１丁目１番７－１２０９号株式会社赤坂国際会計内,,13,103,1070051,,,,,,,2026-01-08,1,,,,,フクウラヒガシ,0
2403,9010501055244,新規,0,2026-01-08,2026-01-08,ＥＣＯ　ＦＩＮＥ株式会社,,株式会社,東京都,台東区,上野１丁目１７番６号広小路ビル８Ｆ－Ｂ,,13,106,1100005,,,,,,,2026-01-08,1,,,,,エコファイン,0
2404,9010701048832,新規,0,2026-01-08,2026-01-08,アローテクノ株式会社,,株式会社,東京都,品川区,東五反田２丁目９－５サウスウイング東五反田,,13,109,1410022,,,,,,,2026-01-08,1,,,,,アローテクノ,0
2410,9010901058747,新規,0,2026-01-08,2026-01-08,株式会社Ｔｓｕｄｏｉｌｙ,,株式会社,東京都,世田谷区,用賀３丁目８番２０－２０２号,,13,112,1580097,,,,,,,2026-01-08,1,,,,,ツドイリー,0
2415,9011001174856,新規,0,2026-01-08,2026-01-08,Ｅ＆Ｇデジタル株式会社,,株式会社,東京都,渋谷区,恵比寿西２丁目８番４号　ＥＸ恵比寿西ビル５階,,13,113,1500021,,,,,,,2026-01-08,1,,,,,イーアンドジーデジタル,0
2417,9011003023227,新規,0,2026-01-08,2026-01-08,ＡＫＩＹＯ．ＳＴＡＲ合同会社,,合同会社,東京都,渋谷区,道玄坂１丁目１０番８号渋谷道玄坂東急ビル２Ｆ－Ｃ,,13,113,1500043,,,,,,,2026-01-08,1,,,,,アキヨスター,0
2418,9011003023292,新規,0,2026-01-08,2026-01-08,ＡＮＣＨＯＲＳ合同会社,,合同会社,東京都,渋谷区,道玄坂１丁目１０番８号渋谷道玄坂東急ビル２Ｆ―Ｃ,,13,113,1500043,,,,,,,2026-01-08,1,,,,,アンカーズ,0
2419,9011003023334,新規,0,2026-01-08,2026-01-08,合同会社ＣＨＡＲＡＭＥＬ,,合同会社,東京都,目黒区,上目黒４丁目７番１９号,,13,110,1530051,,,,,,,2026-01-08,1,,,,,キャラメル,0
2423,9011201026881,新規,0,2026-01-08,2026-01-08,株式会社スマイルファンカンパニー,,株式会社,東京都,中野区,中野３丁目３３番１５号ＫＨＴビル１階ｓｉｘ　ｂａｒｂｅｒ　ｓｈｏｐ内,,13,114,1640001,,,,,,,2026-01-08,1,,,,,スマイルファンカンパニー,0
2424,9011203004927,新規,0,2026-01-08,2026-01-08,金剛キャピタル合同会社,,合同会社,東京都,中野区,大和町２丁目１４番８号,,13,114,1650034,,,,,,,2026-01-08,1,,,,,コンゴウキャピタル,0
2426,9011301031162,新規,0,2026-01-08,2026-01-08,株式会社ＫＩＨＡＴＩＹＡ,,株式会社,東京都,杉並区,高円寺南４丁目７番３号サンシャイン高円寺８０３号,,13,115,1660003,,,,,,,2026-01-08,1,,,,,キハチヤ,0
2429,9011501032984,新規,0,2026-01-08,2026-01-08,スカイ株式会社,,株式会社,東京都,北区,西ケ原１丁目４番３－４０１号,,13,117,1140024,,,,,,,2026-01-08,1,,,,,スカイ,0
2431,9011601029294,新規,0,2026-01-08,2026-01-08,株式会社Ｂｒｉｇｈｔ　Ｆｏｒｗａｒｄ,,株式会社,東京都,練馬区,春日町６丁目１７－２８－４０１,,13,120,1790074,,,,,,,2026-01-08,1,,,,,ブライトフォワード,0
2433,9011801047278,新規,0,2026-01-08,2026-01-08,株式会社ｌｍｕ,,株式会社,東京都,足立区,千住旭町１９番７号１Ｆ,,13,121,1200026,,,,,,,2026-01-08,1,,,,,リミュー,0
2436,9012401043980,新規,0,2026-01-08,2026-01-08,株式会社ズーテック,,株式会社,東京都,府中市,日新町５丁目２３番地の２,,13,206,1830036,,,,,,,2026-01-08,1,,,,,ズーテック,0
2437,9012401043989,新規,0,2026-01-08,2026-01-08,株式会社３２６,,株式会社,東京都,調布市,仙川町２丁目１８番地１５,,13,208,1820002,,,,,,,2026-01-08,1,,,,,サンニロク,0
2439,9012403007554,新規,0,2026-01-08,2026-01-08,Ｍｉｎｏｒｉｅ合同会社,,合同会社,東京都,府中市,若松町４丁目５１番地１号,,13,206,1830005,,,,,,,2026-01-08,1,,,,,ミノリエ,0
2441,9012801024449,新規,0,2026-01-08,2026-01-08,萬株式会社,,株式会社,東京都,国立市,矢川３丁目１番地の３、６Ｆ,,13,215,1860015,,,,,,,2026-01-08,1,,,,,ヨロズ,0
2442,9012801024457,新規,0,2026-01-08,2026-01-08,株式会社高橋興業,00142094,株式会社,東京都,昭島市,田中町３丁目１０番１４号,,13,207,1960014,,,,,,,2026-01-08,1,,,,,タカハシコウギョウ,0
2444,9013101009900,新規,0,2026-01-08,2026-01-08,株式会社ＰＯＬＡＲＩＳＳ,,株式会社,東京都,あきる野市,渕上２１１番地１、１Ｆ,,13,228,1970833,,,,,,,2026-01-08,1,,,,,ポラリス,0
2487,9020001166557,新規,0,2026-01-08,2026-01-08,株式会社ＲＳ,,株式会社,神奈川県,横浜市旭区,中白根４丁目１番２号エル・パティオ２４２号,,14,112,2410004,,,,,,,2026-01-08,1,,,,,アールエス,0
2489,9020003030059,新規,0,2026-01-08,2026-01-08,Ｓｋｙ‐Ａ合同会社,,合同会社,神奈川県,横浜市南区,堀ノ内町２丁目２４６番地１７,,14,105,2320042,,,,,,,2026-01-08,1,,,,,,0
2490,9020003030075,新規,0,2026-01-08,2026-01-08,合同会社ティラーリンク,,合同会社,神奈川県,川崎市高津区,坂戸３丁目２番１号,,14,134,2130012,,,,,,,2026-01-08,1,,,,,ティラーリンク,0
2495,9021003016997,新規,0,2026-01-08,2026-01-08,山口ケア合同会社,,合同会社,神奈川県,海老名市,社家３丁目１番４１アリビオ２―１０２号,,14,215,2430424,,,,,,,2026-01-08,1,,,,,ヤマグチケア,0
2497,9030001170384,新規,0,2026-01-08,2026-01-08,株式会社旭峰商事,,株式会社,埼玉県,川口市,並木２丁目２３番１６－１２０６号,,11,203,3320034,,,,,,,2026-01-08,1,,,,,キョクホウショウジ,0
2498,9030001170401,新規,0,2026-01-08,2026-01-08,Ｈｏｎｄａ　ＢＪ株式会社,,株式会社,埼玉県,比企郡川島町,大字出丸下郷５３番地１,,11,346,3500141,,,,,,,2026-01-08,1,,,,,ホンダビージェー,0
2499,9030001170426,新規,0,2026-01-08,2026-01-08,株式会社青乃洋菓子店,,株式会社,埼玉県,草加市,松原２丁目１番３号ＳＡＩＹＵ５ｔｈＶＩＬＬＡＧＥ１階,,11,221,3400041,,,,,,,2026-01-08,1,,,,,アオノヨウガシテン,0
2500,9030001170434,新規,0,2026-01-08,2026-01-08,株式会社ミライ,,株式会社,埼玉県,川口市,差間１丁目２番１０号武蔵野第１０ダイヤモンドマンション２０４号室,,11,203,3330816,,,,,,,2026-01-08,1,,,,,ミライ,0
2501,9030001170467,新規,0,2026-01-08,2026-01-08,鴻伝株式会社,,株式会社,埼玉県,川口市,青木２丁目８番１６号,,11,203,3320031,,,,,,,2026-01-08,1,,,,,コウデン,0
2503,9030003028374,新規,0,2026-01-08,2026-01-08,合同会社にんにんヘルスケア,,合同会社,埼玉県,さいたま市北区,宮原町４丁目３０番地２２,,11,102,3310812,,,,,,,2026-01-08,1,,,,,ニンニンヘルスケア,0
2504,9030003028382,新規,0,2026-01-08,2026-01-08,合同会社ｅｉｇｈｔ,,合同会社,埼玉県,所沢市,小手指町１丁目４２－１１メゾンドール小手指４０１,,11,208,3591141,,,,,,,2026-01-08,1,,,,,エイト,0
2505,9030003028390,新規,0,2026-01-08,2026-01-08,合同会社ブルーライン配送,,合同会社,埼玉県,鴻巣市,天神３丁目１１番４５号,,11,217,3650036,,,,,,,2026-01-08,1,,,,,ブルーラインハイソウ,0
2506,9030003028416,新規,0,2026-01-08,2026-01-08,合同会社ＭＯＶＥ　ＦＯＲＷＡＲＤ,,合同会社,埼玉県,さいたま市大宮区,三橋１丁目７３大成ビル１０３,,11,103,3300856,,,,,,,2026-01-08,1,,,,,ムーブフォワード,0
2507,9030005022383,新規,0,2026-01-08,2026-01-08,一般社団法人食育心理研究所,,その他の設立登記法人,埼玉県,狭山市,大字北入曽７４３－２１,,11,215,3501315,,,,,,,2026-01-08,1,,,,,ショクイクシンリケンキュウジョ,0
2510,9040001142044,新規,0,2026-01-08,2026-01-08,株式会社インシュアビジョン,,株式会社,千葉県,柏市,若柴１７８番地４柏の葉キャンパス１４８街区１パークシティ柏の葉キャンパスザ・ゲートタワーウェスト３階Ｖ１５８,,12,217,2770871,,,,,,,2026-01-08,1,,,,,インシュアビジョン,0
2514,9040005022977,新規,0,2026-01-08,2026-01-08,一般社団法人久保田国際学院,,その他の設立登記法人,千葉県,袖ケ浦市,久保田２２７１番地,,12,229,2990242,,,,,,,2026-01-08,1,,,,,,0
2518,9060001038918,新規,0,2026-01-08,2026-01-08,新明技工株式会社,,株式会社,栃木県,那須塩原市,豊浦１０番地５８２,,09,213,3250023,,,,,,,2026-01-08,1,,,,,シンメイギコウ,0
2521,9070001043710,新規,0,2026-01-08,2026-01-08,株式会社沢居興業,,株式会社,群馬県,佐波郡玉村町,大字板井１０１６番地１０,,10,464,3701135,,,,,,,2026-01-08,1,,,,,サワイコウギョウ,0
2525,9070003006244,新規,0,2026-01-08,2026-01-08,合同会社Ｏｆｆｉｃｅ　ＯＮＡＫＡ　ＴＥＡＴＥ,,合同会社,群馬県,吾妻郡高山村,大字中山３５７１番地１,,10,428,3770702,,,,,,,2026-01-08,1,,,,,オフィスオナカテアテ,0
2526,9080001027365,新規,0,2026-01-08,2026-01-08,株式会社静岡紙工房,,株式会社,静岡県,静岡市駿河区,下川原６丁目１番２１号,,22,102,4210113,,,,,,,2026-01-08,1,,,,,シズオカカミコウボウ,0
2527,9080101025995,新規,0,2026-01-08,2026-01-08,ティアロ株式会社,,株式会社,静岡県,富士宮市,小泉５１９番地の３０,,22,207,4180022,,,,,,,2026-01-08,1,,,,,ティアロ,0
2531,9080401028368,新規,0,2026-01-08,2026-01-08,株式会社ｂａｓｅｋ,,株式会社,静岡県,浜松市浜名区,上善地３２番地,,22,139,4340028,,,,,,,2026-01-08,1,,,,,ベースケー,0
2532,9080401028376,新規,0,2026-01-08,2026-01-08,シンテック株式会社,,株式会社,静岡県,浜松市中央区,河輪町５４番地,,22,138,4300823,,,,,,,2026-01-08,1,,,,,シンテック,0
2535,9080403005423,新規,0,2026-01-08,2026-01-08,合同会社ケアサポートひまわり,,合同会社,静岡県,湖西市,新居町中之郷１５９１番地の４ハイツウィスタリアＡ１０１,,22,221,4310301,,,,,,,2026-01-08,1,,,,,ケアサポートヒマワリ,0
2540,9100003008542,新規,0,2026-01-08,2026-01-08,合同会社ＮＡＧＡＥ　ＣＯＮＳＵＬＴＩＮＧ,,合同会社,長野県,松本市,蟻ケ崎２丁目５番１４－５号,,20,202,3900861,,,,,,,2026-01-08,1,,,,,ナガエコンサルティング,0
2541,9100003008550,新規,0,2026-01-08,2026-01-08,合同会社ＥＮＹ　Ｕｎｉｔｙ,,合同会社,長野県,松本市,中央１丁目４番４号萬ビル２Ｆ,,20,202,3900811,,,,,,,2026-01-08,1,,,,,エニーユニティー,0
2542,9100005013433,新規,0,2026-01-08,2026-01-08,一般社団法人ステラネクス,,その他の設立登記法人,長野県,諏訪市,大字中洲福島５４５２－Ａ２０３,,20,206,3920015,,,,,,,2026-01-08,1,,,,,ステラネクス,0
2545,9110003006025,新規,0,2026-01-08,2026-01-08,合同会社さぼてんＤｉｇｉＬａｂｏ,,合同会社,新潟県,柏崎市,大字中田２５４８－２,,15,205,9450113,,,,,,,2026-01-08,1,,,,,サボテンデジラボ,0
2556,9120001283111,新規,0,2026-01-08,2026-01-08,日本ＡＹＤ株式会社,,株式会社,大阪府,大阪市北区,浪花町１３－２５ＣａｓａＧｒａｎｄｅ３１１号室,,27,127,5300022,,,,,,,2026-01-08,1,,,,,ニホンアイダ,0
2557,9120001283169,新規,0,2026-01-08,2026-01-08,株式会社ＤＵＡＬＩＳ,,株式会社,大阪府,大阪市住吉区,帝塚山東２丁目３番８号,,27,120,5580054,,,,,,,2026-01-08,1,,,,,デュアリス,0
2558,9120001283219,新規,0,2026-01-08,2026-01-08,株式会社ｉｃｈｉｘｉｃｈｉ,,株式会社,大阪府,大阪市城東区,今福西２丁目６番６号,,27,118,5360004,,,,,,,2026-01-08,1,,,,,イチノイチ,0
2559,9120001283301,新規,0,2026-01-08,2026-01-08,株式会社ルモア,,株式会社,大阪府,大阪市西区,北堀江１丁目１５‐７レガーロ北堀江１００１号室,,27,106,5500014,,,,,,,2026-01-08,1,,,,,ルモア,0
2563,9120003031600,新規,0,2026-01-08,2026-01-08,合同会社Ａｍｂｅｒｌａｙ,,合同会社,大阪府,大阪市北区,梅田１丁目２番２号大阪駅前第２ビル１２－１２,,27,127,5300001,,,,,,,2026-01-08,1,,,,,アンバーレイ,0
2564,9120005025328,新規,0,2026-01-08,2026-01-08,一般社団法人ｃｏｃｏ．ｌｉｓｓ,,その他の設立登記法人,大阪府,大阪市東淀川区,東中島４丁目１番２９号Ｕ－ｒｏ新大阪７０１号,,27,114,5330033,,,,,,,2026-01-08,1,,,,,ココリス,0
2573,9130001081332,新規,0,2026-01-08,2026-01-08,ＵＡ株式会社,,株式会社,京都府,福知山市,字土９番地の１３メジロの森Ｃ棟１０８号,,26,201,6200808,,,,,,,2026-01-08,1,,,,,ユーエー,0
2576,9140001141291,新規,0,2026-01-08,2026-01-08,株式会社Ｃ．Ｅ．Ｉ,,株式会社,兵庫県,芦屋市,岩園町９番３号,,28,206,6590013,,,,,,,2026-01-08,1,,,,,シーイーアイ,0
2585,9170003002365,新規,0,2026-01-08,2026-01-08,合同会社ラビットフット,,合同会社,和歌山県,有田郡有田川町,大字野田２０９番地４,,30,366,6430031,,,,,,,2026-01-08,1,,,,,ラビットフット,0
2592,9180001170072,新規,0,2026-01-08,2026-01-08,株式会社大吉屋,,株式会社,愛知県,名古屋市中村区,日吉町１６番地の１,,23,105,4530029,,,,,,,2026-01-08,1,,,,,ダイキチヤ,0
2598,9180301040561,新規,0,2026-01-08,2026-01-08,株式会社ＧＵＹＳ,,株式会社,愛知県,安城市,日の出町７番１２号,,23,212,4460033,,,,,,,2026-01-08,1,,,,,ガイズ,0
2600,9200001044587,新規,0,2026-01-08,2026-01-08,金元商事株式会社,,株式会社,岐阜県,岐阜市,柳ケ瀬通５丁目１８番地の２第三池田ビル２Ｂ,,21,201,5008875,,,,,,,2026-01-08,1,,,,,キンゲンショウジ,0
2601,9210003001998,新規,0,2026-01-08,2026-01-08,合同会社ＭＹセラピスト,,合同会社,福井県,福井市,木田３丁目１９０５番地,,18,201,9188105,,,,,,,2026-01-08,1,,,,,マイセラピスト,0
2603,9230001021229,新規,0,2026-01-08,2026-01-08,株式会社ｅ‐メゾン,,株式会社,富山県,魚津市,六郎丸１８６番地１,,16,204,9370042,,,,,,,2026-01-08,1,,,,,イーメゾン,0
2604,9230003002557,新規,0,2026-01-08,2026-01-08,合同会社ＭＩＧＮＡＳ,,合同会社,富山県,高岡市,福岡町赤丸６５７,,16,202,9390101,,,,,,,2026-01-08,1,,,,,ミグナス,0
2608,9260001040878,新規,0,2026-01-08,2026-01-08,株式会社ＧＥＲＡ　ＧＥＲＡ,,株式会社,岡山県,倉敷市,阿知２丁目６番２４号阿知ビル２階,,33,202,7100055,,,,,,,2026-01-08,1,,,,,ゲラゲラ,0
2610,9260003005474,新規,0,2026-01-08,2026-01-08,合同会社なごみ,,合同会社,岡山県,真庭市,多田４３番地６,,33,214,7193213,,,,,,,2026-01-08,1,,,,,ナゴミ,0
2615,9280003002024,新規,0,2026-01-08,2026-01-08,合同会社エコールキャリアコンサルティング,,合同会社,島根県,松江市,石橋町１７３番地２,,32,201,6900881,,,,,,,2026-01-08,1,,,,,エコールキャリアコンサルティング,0
2625,9290003017871,新規,0,2026-01-08,2026-01-08,合同会社上西郷蓄電所,,合同会社,福岡県,福岡市南区,大楠１丁目５番１５号,,40,134,8150082,,,,,,,2026-01-08,1,,,,,カミサイゴウチクデンショ,0
2626,9290005019957,新規,0,2026-01-08,2026-01-08,一般社団法人誠和会,,その他の設立登記法人,福岡県,福岡市東区,水谷１丁目２７番１１号,,40,131,8130041,,,,,,,2026-01-08,1,,,,,セイワカイ,0
2629,9290801032147,新規,0,2026-01-08,2026-01-08,株式会社ＭＯＮＯＫＯＮＯ,,株式会社,福岡県,北九州市戸畑区,千防２丁目８番２号,,40,105,8040081,,,,,,,2026-01-08,1,,,,,モノコノ,0
2633,9320001021509,新規,0,2026-01-08,2026-01-08,デンシン不動産建設株式会社,,株式会社,大分県,大分市,向原西２丁目８番２３号２Ｆ,,44,201,8700905,,,,,,,2026-01-08,1,,,,,デンシンフドウサンケンセツ,0
2634,9320001021517,新規,0,2026-01-08,2026-01-08,株式会社みや整体院,,株式会社,大分県,大分市,今津留３丁目１３番２３号,,44,201,8700938,,,,,,,2026-01-08,1,,,,,ミヤセイタイイン,0
2635,9320003004874,新規,0,2026-01-08,2026-01-08,合同会社明日サポ,,合同会社,大分県,大分市,上田町３丁目２番１５号２階,,44,201,8700886,,,,,,,2026-01-08,1,,,,,アスサポ,0
2636,9320005010284,新規,0,2026-01-08,2026-01-08,一般社団法人大分県北オリーブの会,,その他の設立登記法人,大分県,別府市,大字鶴見４０２６番地の６５,,44,202,8740840,,,,,,,2026-01-08,1,,,,,オオイタケンホクオリーブノカイ,0
2642,9330001033890,新規,0,2026-01-08,2026-01-08,武田ボディー株式会社,,株式会社,熊本県,玉名郡南関町,大字関下１９１９番地７,,43,367,8610805,,,,,,,2026-01-08,1,,,,,タケダボディー,0
2643,9330003011382,新規,0,2026-01-08,2026-01-08,合同会社ｍｕｋｏ　ａｎｄ,,合同会社,熊本県,上益城郡御船町,大字滝川９０３－１,,43,441,8613205,,,,,,,2026-01-08,1,,,,,ムコアンド,0
2644,9340003005061,新規,0,2026-01-08,2026-01-08,合同会社ケイティー企画,,合同会社,鹿児島県,鹿児島市,石谷町２０８６番地６８,,46,201,8992701,,,,,,,2026-01-08,1,,,,,ケイティーキカク,0
2645,9350003005110,新規,0,2026-01-08,2026-01-08,合同会社ａｉｌａｎａ,,合同会社,宮崎県,北諸県郡三股町,大字樺山４６７２―１６３,,45,341,8891901,,,,,,,2026-01-08,1,,,,,アイラナ,0
2647,9360001036197,新規,0,2026-01-08,2026-01-08,株式会社ＹＡＳＵＢＯＵ,,株式会社,沖縄県,石垣市,字登野城８６９番地１,,47,207,9070004,,,,,,,2026-01-08,1,,,,,ヤスボウ,0
2648,9360001036214,新規,0,2026-01-08,2026-01-08,ＴＵＳＫＹＩ株式会社,,株式会社,沖縄県,那覇市,字国場７４番地１あきよしビル３Ｆ,,47,201,9020075,,,,,,,2026-01-08,1,,,,,タスキー,0
2649,9360001036222,新規,0,2026-01-08,2026-01-08,株式会社ＨＩＫＡＲＩ,,株式会社,沖縄県,石垣市,字真栄里２３７番地５,,47,207,9070002,,,,,,,2026-01-08,1,,,,,ヒカリ,0
2650,9360001036230,新規,0,2026-01-08,2026-01-08,バルコム株式会社,,株式会社,沖縄県,那覇市,字国場２２５番地３バルコム国場ビル１階,,47,201,9020075,,,,,,,2026-01-08,1,,,,,バルコム,0
2651,9360003015521,新規,0,2026-01-08,2026-01-08,合同会社サンライズ,,合同会社,沖縄県,名護市,大南４丁目６－２１,,47,209,9050015,,,,,,,2026-01-08,1,,,,,サンライズ,0
2652,9360005007335,新規,0,2026-01-08,2026-01-08,特定非営利活動法人あかるいみらい,,その他の設立登記法人,沖縄県,中頭郡西原町,字与那城３４９番地の１０,,47,329,9030111,,,,,,,2026-01-08,1,,,,,アカルイミライ,0
2653,9370001053365,新規,0,2026-01-08,2026-01-08,エムデン株式会社,,株式会社,宮城県,仙台市宮城野区,高砂１丁目２４番２号,,04,102,9830014,,,,,,,2026-01-08,1,,,,,エムデン,0
2654,9370001053381,新規,0,2026-01-08,2026-01-08,エーワンリード株式会社,,株式会社,宮城県,仙台市宮城野区,原町１丁目２番３０‐１０１号,,04,102,9830841,,,,,,,2026-01-08,1,,,,,エーワンリード,0
2659,9400001017275,新規,0,2026-01-08,2026-01-08,株式会社楽楽ファーム鈴木,,株式会社,岩手県,奥州市,前沢白山字繁長２５番地１,,03,215,0294202,,,,,,,2026-01-08,1,,,,,ラクラクファームスズキ,0
2661,9410003004188,新規,0,2026-01-08,2026-01-08,合同会社わたなべ農園,,合同会社,秋田県,湯沢市,森字嶽ノ下３７番地２,,05,207,0120011,,,,,,,2026-01-08,1,,,,,ワタナベノウエン,0
2665,9430001096011,新規,0,2026-01-08,2026-01-08,株式会社ハートレインボー,,株式会社,北海道,札幌市中央区,南十一条西６丁目１番３３―２０２号,,01,101,0640811,,,,,,,2026-01-08,1,,,,,ハートレインボー,0
2670,9460101007798,新規,0,2026-01-08,2026-01-08,株式会社髪悠々,,株式会社,北海道,帯広市,西五条南３９丁目３番１６号,,01,207,0800015,,,,,,,2026-01-08,1,,,,,カミユウユウ,0
2673,9480003002367,新規,0,2026-01-08,2026-01-08,Ｕ．Ｋ．ｗｏｒｋｓ合同会社,,合同会社,徳島県,板野郡藍住町,住吉字乾３８番地８,,36,403,7711267,,,,,,,2026-01-08,1,,,,,ユーケーワークス,0
2674,9480005007117,新規,0,2026-01-08,2026-01-08,労働者協同組合低栄養防止コンソーシアム徳島,,その他の設立登記法人,徳島県,阿南市,羽ノ浦町中庄原ノ内８－７,,36,204,7791101,,,,,,,2026-01-08,1,,,,,テイエイヨウボウシコンソーシアムトクシマ,0
2675,9490001011253,新規,0,2026-01-08,2026-01-08,となみ電工株式会社,,株式会社,高知県,土佐市,家俊１０２１番地１,,39,205,7811134,,,,,,,2026-01-08,1,,,,,トナミデンコウ,0
2681,9500001026712,新規,0,2026-01-08,2026-01-08,サトウ冷熱株式会社,,株式会社,愛媛県,松山市,富久町４６番地３,,38,201,7918034,,,,,,,2026-01-08,1,,,,,サトウレイネツ,0
