sequenceNumber,corporateNumber,process,correct,updateDate,changeDate,name,nameImageId,kind,prefectureName,cityName,streetNumber,addressImageId,prefectureCode,cityCode,postCode,addressOutside,addressOutsideImageId,closeDate,closeCause,successorCorporateNumber,changeCause,assignmentDate,latest,enName,enPrefectureName,enCityName,enAddressOutside,furigana,hihyoji
6,1010001222533,新規,0,2021-11-29,2021-11-29,ＡＭＴエステート株式会社,,株式会社,東京都,中央区,日本橋本町２丁目６番１号日本橋本町プラザビル２Ｆ,,13,102,1030023,,,,,,,2021-11-29,1,,,,,エーエムティーエステート,0
7,1010001222871,新規,0,2021-11-29,2021-11-29,株式会社インセンス,,株式会社,東京都,千代田区,岩本町２丁目１４番９号第二花輪ビル３０１,,13,101,1010032,,,,,,,2021-11-29,1,,,,,インセンス,0
8,1010001222913,新規,0,2021-11-29,2021-11-29,株式会社トウエイ,,株式会社,東京都,千代田区,麹町２丁目１２番５号麹町ビル２１（２Ｆ）,,13,101,1020083,,,,,,,2021-11-29,1,,,,,トウエイ,0
11,1010005034256,新規,0,2021-11-29,2021-11-29,一般社団法人全国非破壊検査協会連合会,,その他の設立登記法人,東京都,千代田区,内幸町１丁目５番２号,,13,101,1000011,,,,,,,2021-11-29,1,,,,,ゼンコクヒハカイケンサキョウカイレンゴウカイ,0
18,1010401164045,新規,0,2021-11-29,2021-11-29,株式会社ＳＯＬ,,株式会社,東京都,港区,南青山２丁目２番１５号ウィン青山９４２,,13,103,1070062,,,,,,,2021-11-29,1,,,,,エスオーエル,0
22,1010403026607,新規,0,2021-11-29,2021-11-29,合同会社巻島計畫,,合同会社,東京都,港区,南青山２丁目２番１５号,,13,103,1070062,,,,,,,2021-11-29,1,,,,,マキシマケイカク,0
29,1010701041828,新規,0,2021-11-29,2021-11-29,株式会社三重の虹,,株式会社,東京都,品川区,西五反田１丁目２６－２,,13,109,1410031,,,,,,,2021-11-29,1,,,,,ミエノニジ,0
30,1010701041852,新規,0,2021-11-29,2021-11-29,株式会社大西,,株式会社,東京都,品川区,南大井３丁目２６番６号,,13,109,1400013,,,,,,,2021-11-29,1,,,,,オオニシ,0
32,1010901049885,新規,0,2021-11-29,2021-11-29,株式会社大林宣彦事務所,,株式会社,東京都,世田谷区,瀬田５丁目２４番１７号,,13,112,1580095,,,,,,,2021-11-29,1,,,,,オオバヤシノブヒコジムショ,0
33,1010903006967,新規,0,2021-11-29,2021-11-29,ＬｉＯＮＡ合同会社,,合同会社,東京都,世田谷区,奥沢１丁目２番８－５０５号,,13,112,1580083,,,,,,,2021-11-29,1,,,,,リオナ,0
38,1011001144164,新規,0,2021-11-29,2021-11-29,株式会社ＣＨＯＵＣＨＩＮ　ｔｅｃｈｓ．,,株式会社,東京都,渋谷区,本町１丁目４２－７,,13,113,1510071,,,,,,,2021-11-29,1,,,,,チョウチンテックス,0
39,1011001144189,新規,0,2021-11-29,2021-11-29,株式会社ＡＯＤＡＩＳＨＯ,,株式会社,東京都,渋谷区,神宮前６丁目２３番４号桑野ビル２階,,13,113,1500001,,,,,,,2021-11-29,1,,,,,アオダイショウ,0
40,1011001144222,新規,0,2021-11-29,2021-11-29,株式会社タイトロープ,,株式会社,東京都,渋谷区,渋谷２丁目１９番１５号宮益坂ビルディング六百九,,13,113,1500002,,,,,,,2021-11-29,1,,,,,タイトロープ,0
45,1011005009306,新規,0,2021-11-29,2021-11-29,一般社団法人災害対策トレーニングセンター支援会,,その他の設立登記法人,東京都,目黒区,駒場４丁目６－１,,13,110,1530041,,,,,,,2021-11-29,1,,,,,サイガイタイサクトレーニングセンターシエンカイ,0
46,1011005009314,新規,0,2021-11-29,2021-11-29,一般社団法人Ｊａｐａｎ　Ｗｅｌｌｎｅｓｓ　Ｉｎｉｔｉａｔｉｖｅ　Ａｓｓｏｃｉａｔｉｏｎ,,その他の設立登記法人,東京都,渋谷区,神宮前５丁目５０番５号,,13,113,1500001,,,,,,,2021-11-29,1,,,,,ジャパンウェルネスイニシアチブアソシエーション,0
50,1011101096958,新規,0,2021-11-29,2021-11-29,維徳株式会社,,株式会社,東京都,新宿区,北新宿１丁目８－２２,,13,104,1690074,,,,,,,2021-11-29,1,,,,,イトク,0
51,1011103011213,新規,0,2021-11-29,2021-11-29,合同会社Ｇｅｎｕｉｎｅ　Ｖｉｎｅｙａｒｄ,,合同会社,東京都,新宿区,四谷１丁目１４番地２,,13,104,1600004,,,,,,,2021-11-29,1,,,,,ジェニュインヴィンヤード,0
52,1011103011221,新規,0,2021-11-29,2021-11-29,合同会社シュウトヨシマ,,合同会社,東京都,新宿区,南元町２０番地３ガーデンヒルズ四ツ谷迎賓の森６１９,,13,104,1600012,,,,,,,2021-11-29,1,,,,,シュウトヨシマ,0
53,1011301027374,新規,0,2021-11-29,2021-11-29,株式会社日本馬生,,株式会社,東京都,杉並区,井草４丁目２番１０号,,13,115,1670021,,,,,,,2021-11-29,1,,,,,,0
57,1011403003513,新規,0,2021-11-29,2021-11-29,ＩＮＹＯＵ合同会社,,合同会社,東京都,板橋区,清水町３－８,,13,119,1740053,,,,,,,2021-11-29,1,,,,,インヨウ,0
64,1011603003453,新規,0,2021-11-29,2021-11-29,ｃｃｃｍａｌｉｅ合同会社,,合同会社,東京都,練馬区,上石神井４丁目２８番１４－２３０号,,13,120,1770044,,,,,,,2021-11-29,1,,,,,シーマリー,0
72,1012401038583,新規,0,2021-11-29,2021-11-29,株式会社ＡＢＧ,,株式会社,東京都,武蔵野市,吉祥寺東町１丁目２５番２４号,,13,203,1800002,,,,,,,2021-11-29,1,,,,,エービージー,0
77,1013301048334,新規,0,2021-11-29,2021-11-29,ＫＡＵＬＩＫＥ株式会社,,株式会社,東京都,豊島区,上池袋４丁目３１番２８号,,13,116,1700012,,,,,,,2021-11-29,1,,,,,カウリケ,0
85,1020001144090,新規,0,2021-11-29,2021-11-29,株式会社友愛リフォーム,,株式会社,神奈川県,横浜市緑区,長津田３丁目３２－１３,,14,113,2260027,,,,,,,2021-11-29,1,,,,,ユウアイリフォーム,0
86,1020001144099,新規,0,2021-11-29,2021-11-29,株式会社ＫＵＫＵＲＵ,,株式会社,神奈川県,横浜市青葉区,鴨志田町５６３番地２０,,14,117,2270033,,,,,,,2021-11-29,1,,,,,ククル,0
96,1021001074567,新規,0,2021-11-29,2021-11-29,株式会社ＧＯＷＡＹＳ,,株式会社,神奈川県,厚木市,寿町１丁目７番１４号,,14,212,2430003,,,,,,,2021-11-29,1,,,,,ゴーウェイズ,0
106,1030001145550,新規,0,2021-11-29,2021-11-29,株式会社Ｒａｖｅ　Ｔｒｉｐ,,株式会社,埼玉県,深谷市,上柴町東１丁目１６番地６,,11,218,3660051,,,,,,,2021-11-29,1,,,,,レヴトリップ,0
107,1030001145583,新規,0,2021-11-29,2021-11-29,株式会社ＳｐｅｌｌＡｎｃｈｏｒ,,株式会社,埼玉県,さいたま市緑区,大字中尾１２７２番地,,11,109,3360932,,,,,,,2021-11-29,1,,,,,スペルアンカー,0
115,1040001121113,新規,0,2021-11-29,2021-11-29,株式会社Ｋ・Ｋ　ＴＲＡＤＩＮＧ,,株式会社,千葉県,野田市,柳沢８１番地の１パークホームズＣ１０２,,12,208,2780006,,,,,,,2021-11-29,1,,,,,ケイケイトレーディング,0
120,1040003019009,新規,0,2021-11-29,2021-11-29,合同会社ＪＩＮワークス,,合同会社,千葉県,浦安市,美浜１丁目１番３２５号,,12,227,2790011,,,,,,,2021-11-29,1,,,,,ジンワークス,0
121,1040003019017,新規,0,2021-11-29,2021-11-29,合同会社北総農場,,合同会社,千葉県,香取市,鳩山１８５番地３,,12,236,2890421,,,,,,,2021-11-29,1,,,,,ホクソウノウジョウ,0
122,1050001050195,新規,0,2021-11-29,2021-11-29,株式会社望月工業,,株式会社,茨城県,東茨城郡茨城町,大字常井１１７１番地,,08,302,3113112,,,,,,,2021-11-29,1,,,,,モチヅキコウギョウ,0
123,1050001050212,新規,0,2021-11-29,2021-11-29,株式会社Ｉｃｏｎｐｌｅ,,株式会社,茨城県,桜川市,真壁町原方１１６３番地２,,08,231,3004421,,,,,,,2021-11-29,1,,,,,アイコンプル,0
128,1060003003877,新規,0,2021-11-29,2021-11-29,合同会社ベリーベリーとちぎ,,合同会社,栃木県,真岡市,境９９５－１,,09,209,3214534,,,,,,,2021-11-29,1,,,,,ベリーベリートチギ,0
165,1120101064708,新規,0,2021-11-29,2021-11-29,ふたばホーム株式会社,,株式会社,大阪府,泉大津市,下之町１番９号,,27,206,5950045,,,,,,,2021-11-29,1,,,,,フタバホーム,0
166,1120103004455,新規,0,2021-11-29,2021-11-29,合同会社生進堂,,合同会社,大阪府,堺市堺区,中三国ヶ丘町２丁１番３８－２０２号,,27,141,5900022,,,,,,,2021-11-29,1,,,,,セイシンドウ,0
178,1130001070598,新規,0,2021-11-29,2021-11-29,株式会社マスターマスター,,株式会社,京都府,福知山市,和久市町２１０番地,,26,201,6200062,,,,,,,2021-11-29,1,,,,,マスターマスター,0
185,1140001123982,新規,0,2021-11-29,2021-11-29,株式会社折,,株式会社,兵庫県,姫路市,南条１丁目６９番地２Ｆ,,28,201,6700952,,,,,,,2021-11-29,1,,,,,オリ,0
188,1140003017035,新規,0,2021-11-29,2021-11-29,リノ合同会社,,合同会社,兵庫県,神戸市東灘区,御影３丁目１７番２９号,,28,101,6580047,,,,,,,2021-11-29,1,,,,,リノ,0
196,1170005006933,新規,0,2021-11-29,2021-11-29,一般社団法人ネクスト,,その他の設立登記法人,和歌山県,東牟婁郡那智勝浦町,大字浦神３２１番地２７,,30,421,6495145,,,,,,,2021-11-29,1,,,,,ネクスト,0
199,1180001148885,新規,0,2021-11-29,2021-11-29,株式会社ＴＯＭＯＳＨＩＢＩ,,株式会社,愛知県,名古屋市西区,市場木町３９２番地（セジュール緑苑２１・２０１号）,,23,104,4520805,,,,,,,2021-11-29,1,,,,,トモシビ,0
200,1180001148902,新規,0,2021-11-29,2021-11-29,株式会社Ｅ．Ｍ．Ｂ,,株式会社,愛知県,名古屋市北区,辻町１丁目７－４,,23,103,4620032,,,,,,,2021-11-29,1,,,,,イーエムビー,0
206,1180003023236,新規,0,2021-11-29,2021-11-29,Ｏｋａｄａ合同会社,,合同会社,愛知県,一宮市,大和町馬引字郷東３２番地１レセンテ馬引２０１号,,23,203,4910931,,,,,,,2021-11-29,1,,,,,オカダ,0
216,1220001024561,新規,0,2021-11-29,2021-11-29,株式会社システムデポ,,株式会社,石川県,金沢市,元菊町１７番３３号,,17,201,9200036,,,,,,,2021-11-29,1,,,,,システムデポ,0
223,1240001058987,新規,0,2021-11-29,2021-11-29,株式会社ブルーフィールド,,株式会社,広島県,広島市安佐南区,祇園５丁目４０番１６号,,34,105,7310138,,,,,,,2021-11-29,1,,,,,ブルーフィールド,0
235,1290001095571,新規,0,2021-11-29,2021-11-29,株式会社ＲＥＮＳ,,株式会社,福岡県,福岡市東区,舞松原１丁目８－１コーポ舞松原１０２,,40,131,8130042,,,,,,,2021-11-29,1,,,,,レンズ,0
236,1290003011873,新規,0,2021-11-29,2021-11-29,合同会社ＩＳＡＷＡＮ,,合同会社,福岡県,福岡市博多区,住吉１丁目６番１４号,,40,132,8120018,,,,,,,2021-11-29,1,,,,,アイサワン,0
244,1350001017437,新規,0,2021-11-29,2021-11-29,株式会社クレストブライト,,株式会社,宮崎県,宮崎市,大和町８０番地Ｇ・Ｂｒｉｇｈｔビル,,45,201,8800878,,,,,,,2021-11-29,1,,,,,クレストブライト,0
252,1420001017660,新規,0,2021-11-29,2021-11-29,株式会社ＲＢＮ,,株式会社,青森県,三沢市,大字三沢字淋代平１１６番地３１６２,,02,207,0330022,,,,,,,2021-11-29,1,,,,,アールビーエヌ,0
256,1430001085459,新規,0,2021-11-29,2021-11-29,株式会社成工社,,株式会社,北海道,札幌市北区,篠路四条６丁目８番２号,,01,102,0028024,,,,,,,2021-11-29,1,,,,,セイコウシャ,0
277,2010001222796,新規,0,2021-11-29,2021-11-29,株式会社ＳＨＯＷＪＩＭＡＲＵ,,株式会社,東京都,千代田区,神田須田町１丁目４番地６吉川ビルＢ１,,13,101,1010041,,,,,,,2021-11-29,1,,,,,ショウジマル,0
278,2010001222805,新規,0,2021-11-29,2021-11-29,システムエフ株式会社,,株式会社,東京都,文京区,白山２丁目３０番６－９０３号,,13,105,1120001,,,,,,,2021-11-29,1,,,,,システムエフ,0
279,2010003036393,新規,0,2021-11-29,2021-11-29,合同会社ＪａｋｅＢＲＡｉＮ,,合同会社,東京都,中央区,日本橋兜町１７番２号兜町第６葉山ビル４階,,13,102,1030026,,,,,,,2021-11-29,1,,,,,ジェイクブレイン,0
281,2010401163995,新規,0,2021-11-29,2021-11-29,Ｏｃｅａｎｓ株式会社,,株式会社,東京都,港区,南青山５丁目１３番２号南青山池田ビル７Ｆ,,13,103,1070062,,,,,,,2021-11-29,1,,,,,オーシャンズ,0
286,2010701041819,新規,0,2021-11-29,2021-11-29,株式会社ＫＳＥホールディングス,,株式会社,東京都,品川区,東品川４丁目１２番６号,,13,109,1400002,,,,,,,2021-11-29,1,,,,,ケーエスイーホールディングス,0
287,2010701041827,新規,0,2021-11-29,2021-11-29,サンプラスエナジー株式会社,,株式会社,東京都,品川区,南品川５丁目１１番１３号,,13,109,1400004,,,,,,,2021-11-29,1,,,,,サンプラスエナジー,0
299,2011001144139,新規,0,2021-11-29,2021-11-29,株式会社ＴＯＭ,,株式会社,東京都,渋谷区,神宮前４丁目１１番１４号,,13,113,1500001,,,,,,,2021-11-29,1,,,,,ティーオーエム,0
300,2011001144171,新規,0,2021-11-29,2021-11-29,ＤＯＴ．ＵＮＩＴＥＤ株式会社,,株式会社,東京都,渋谷区,神宮前６丁目２３番４号,,13,113,1500001,,,,,,,2021-11-29,1,,,,,ドットユナイテッド,0
301,2011001144205,新規,0,2021-11-29,2021-11-29,株式会社ＨＹＬＩＮＫＳ,,株式会社,東京都,渋谷区,富ヶ谷１丁目９－２０－３０２,,13,113,1510063,,,,,,,2021-11-29,1,,,,,エイチワイリンクス,0
302,2011001144213,新規,0,2021-11-29,2021-11-29,株式会社ＰＲＥＶＩ,,株式会社,東京都,渋谷区,松濤２丁目２番地１７ルシマン松濤２０１,,13,113,1500046,,,,,,,2021-11-29,1,,,,,プレヴィ,0
303,2011001144246,新規,0,2021-11-29,2021-11-29,株式会社プロスペリティジャパン,,株式会社,東京都,渋谷区,千駄ヶ谷３丁目５４番１５号原宿ＳＤビル４階,,13,113,1510051,,,,,,,2021-11-29,1,,,,,プロスペリティジャパン,0
304,2011001144254,新規,0,2021-11-29,2021-11-29,株式会社アグニ,,株式会社,東京都,渋谷区,東１丁目２６番２０号,,13,113,1500011,,,,,,,2021-11-29,1,,,,,アグニ,0
305,2011001144270,新規,0,2021-11-29,2021-11-29,株式会社ＳＴＡＲＫ,,株式会社,東京都,渋谷区,円山町１０－１９,,13,113,1500044,,,,,,,2021-11-29,1,,,,,スターク,0
307,2011003013770,新規,0,2021-11-29,2021-11-29,未来の電力取引合同会社,,合同会社,東京都,渋谷区,猿楽町２９番６号,,13,113,1500033,,,,,,,2021-11-29,1,,,,,ミライノデンリョクトリヒキ,0
308,2011003013787,新規,0,2021-11-29,2021-11-29,Ｇｏｏｄ　Ｐｌｕｃｋ合同会社,,合同会社,東京都,渋谷区,神南１丁目１４番１号,,13,113,1500041,,,,,,,2021-11-29,1,,,,,グッドプラック,0
311,2011201023448,新規,0,2021-11-29,2021-11-29,株式会社ｅｒａｓｍｏ,,株式会社,東京都,中野区,東中野４丁目９番１号第一元太ビルＢ１,,13,114,1640003,,,,,,,2021-11-29,1,,,,,エラスモ,0
320,2011501027520,新規,0,2021-11-29,2021-11-29,株式会社データ・フォー・デザイン,,株式会社,東京都,荒川区,東尾久６丁目１９番１６号,,13,118,1160012,,,,,,,2021-11-29,1,,,,,データフォーデザイン,0
325,2011601025564,新規,0,2021-11-29,2021-11-29,株式会社清禾,,株式会社,東京都,練馬区,中村南１丁目２９番１２－１０４号,,13,120,1760025,,,,,,,2021-11-29,1,,,,,セイカ,0
327,2011801040009,新規,0,2021-11-29,2021-11-29,株式会社ビルドキャリア,,株式会社,東京都,葛飾区,堀切５丁目７－３ふぢハイツ３０２,,13,122,1240006,,,,,,,2021-11-29,1,,,,,ビルドキャリア,0
333,2012701016791,新規,0,2021-11-29,2021-11-29,株式会社自分,,株式会社,東京都,東久留米市,幸町３丁目４番４０号,,13,222,2030052,,,,,,,2021-11-29,1,,,,,ジブン,0
334,2012801021238,新規,0,2021-11-29,2021-11-29,株式会社ＢｅｅＮａｔｕｒａｌ,,株式会社,東京都,立川市,高松町３丁目８番３号,,13,202,1900011,,,,,,,2021-11-29,1,,,,,ビーナチュラル,0
343,2021001074599,新規,0,2021-11-29,2021-11-29,ヤマダイ株式会社,,株式会社,神奈川県,平塚市,西八幡３丁目９番２６号,,14,203,2540073,,,,,,,2021-11-29,1,,,,,ヤマダイ,0
348,2021003011121,新規,0,2021-11-29,2021-11-29,合同会社エターナルインフィニティ,,合同会社,神奈川県,茅ヶ崎市,東海岸北２丁目６番４９号,,14,207,2530053,,,,,,,2021-11-29,1,,,,,エターナルインフィニティ,0
357,2030001145541,新規,0,2021-11-29,2021-11-29,株式会社ＴＮＫ,,株式会社,埼玉県,久喜市,青葉４丁目１９番地１,,11,232,3460013,,,,,,,2021-11-29,1,,,,,ティーエヌケー,0
361,2030003018398,新規,0,2021-11-29,2021-11-29,パカルクィン合同会社,,合同会社,埼玉県,所沢市,大字久米５２７番地の５,,11,208,3591131,,,,,,,2021-11-29,1,,,,,パカルクィン,0
363,2030005020641,新規,0,2021-11-29,2021-11-29,司法書士法人下田事務所,,その他の設立登記法人,埼玉県,川越市,南大塚２丁目１８番地１０,,11,201,3501162,,,,,,,2021-11-29,1,,,,,シモダジムショ,0
370,2040001121079,新規,0,2021-11-29,2021-11-29,株式会社アセット・アルファ,,株式会社,千葉県,八千代市,勝田台北１丁目３番２１－４０１号,,12,221,2760020,,,,,,,2021-11-29,1,,,,,アセットアルファ,0
375,2040005021449,新規,0,2021-11-29,2021-11-29,特定非営利活動法人ハートプロジェクト,,その他の設立登記法人,千葉県,佐倉市,臼井田９６６番２２号,,12,212,2850861,,,,,,,2021-11-29,1,,,,,ハートプロジェクト,0
377,2050001050203,新規,0,2021-11-29,2021-11-29,株式会社ＴＨＫ,,株式会社,茨城県,坂東市,岩井４２７４番地２９,,08,228,3060631,,,,,,,2021-11-29,1,,,,,ティーエイチケイ,0
389,2070003004312,新規,0,2021-11-29,2021-11-29,思金合同会社,,合同会社,群馬県,前橋市,粕川町深津１４９２番地２３,,10,201,3710215,,,,,,,2021-11-29,1,,,,,オモイカネ,0
418,2120101064707,新規,0,2021-11-29,2021-11-29,株式会社大坂塗装,,株式会社,大阪府,和泉市,室堂町８２４番地の５５（ウエリス光明池６０１号）,,27,219,5941101,,,,,,,2021-11-29,1,,,,,オオサカトソウ,0
421,2120105009484,新規,0,2021-11-29,2021-11-29,一般社団法人泉北レモンの街ストーリー,,その他の設立登記法人,大阪府,堺市南区,御池台３丁１４番１６号橋本方,,27,145,5900134,,,,,,,2021-11-29,1,,,,,センボクレモンノマチストーリー,0
425,2122001035382,新規,0,2021-11-29,2021-11-29,株式会社トヨパック,,株式会社,大阪府,八尾市,南木の本８丁目１３２番地の２,,27,212,5810042,,,,,,,2021-11-29,1,,,,,トヨパック,0
431,2140003017034,新規,0,2021-11-29,2021-11-29,合同会社ＨＥＬＰ　ＥＶＥＲ,,合同会社,兵庫県,神戸市長田区,高東町１丁目８番１１号,,28,106,6530867,,,,,,,2021-11-29,1,,,,,ヘルプエバー,0
439,2180001148892,新規,0,2021-11-29,2021-11-29,ｆｏｒｔｕｎｅ　ｃｏｍｐａｎｙ株式会社,,株式会社,愛知県,名古屋市名東区,社口２丁目１０１６番地の１,,23,115,4650013,,,,,,,2021-11-29,1,,,,,フォーチューンカンパニー,0
440,2180001148901,新規,0,2021-11-29,2021-11-29,Ｋａｓｉｃｏ株式会社,,株式会社,愛知県,名古屋市中川区,高畑５丁目６８番地ヒロミハイツ１０２号室,,23,110,4540911,,,,,,,2021-11-29,1,,,,,カシコ,0
442,2180003023235,新規,0,2021-11-29,2021-11-29,合同会社オフロードパス,,合同会社,愛知県,日進市,香久山３丁目１３０５番地,,23,230,4700134,,,,,,,2021-11-29,1,,,,,オフロードパス,0
447,2180302014265,新規,0,2021-11-29,2021-11-29,有限会社リカーショップ安井屋,,有限会社,愛知県,豊川市,稲荷通２丁目３８番地,,23,207,4420023,,,,,,,2021-11-29,1,,,,,,0
450,2200001039461,新規,0,2021-11-29,2021-11-29,株式会社ムーヴス,,株式会社,岐阜県,岐阜市,元住町３０番地,,21,201,5008179,,,,,,,2021-11-29,1,,,,,ムーヴス,0
453,2220001024560,新規,0,2021-11-29,2021-11-29,株式会社東雲,,株式会社,石川県,金沢市,鈴見台４丁目１５番５号,,17,201,9201161,,,,,,,2021-11-29,1,,,,,シノノメ,0
464,2260003003732,新規,0,2021-11-29,2021-11-29,合同会社西正屋,,合同会社,岡山県,総社市,中原７６２番地,,33,208,7191133,,,,,,,2021-11-29,1,,,,,ニシマサヤ,0
465,2270001008402,新規,0,2021-11-29,2021-11-29,フリーダム中国株式会社,,株式会社,鳥取県,鳥取市,富安１丁目４０番地,,31,201,6800845,,,,,,,2021-11-29,1,,,,,フリーダムチュウゴク,0
471,2290001095546,新規,0,2021-11-29,2021-11-29,株式会社勝建,,株式会社,福岡県,朝倉市,小田１２２９番地３,,40,228,8380051,,,,,,,2021-11-29,1,,,,,ショウケン,0
472,2290001095570,新規,0,2021-11-29,2021-11-29,Ｒｏｂｏ．ｔｏｗｎ株式会社,,株式会社,福岡県,福岡市早良区,四箇田団地内コープ四箇田７－１３,,40,137,8140176,,,,,,,2021-11-29,1,,,,,ロボタウン,0
473,2290001095579,新規,0,2021-11-29,2021-11-29,株式会社アンドコー,,株式会社,福岡県,久留米市,宮ノ陣４丁目４番２号,,40,203,8390801,,,,,,,2021-11-29,1,,,,,アンドコー,0
475,2290003011880,新規,0,2021-11-29,2021-11-29,合同会社夢コン企画,,合同会社,福岡県,太宰府市,通古賀２丁目３番２７－２０１号,,40,221,8180104,,,,,,,2021-11-29,1,,,,,ユメコンキカク,0
479,2300003001756,新規,0,2021-11-29,2021-11-29,合同会社オールド,,合同会社,佐賀県,鳥栖市,大正町７８０番地３グランド・ルー鳥栖フォセット５０２,,41,203,8410032,,,,,,,2021-11-29,1,,,,,オールド,0
480,2310001017605,新規,0,2021-11-29,2021-11-29,株式会社マリンアンドフォレスト,,株式会社,長崎県,西彼杵郡長与町,岡郷６１４番地１２,,42,307,8512121,,,,,,,2021-11-29,1,,,,,マリンアンドフォレスト,0
482,2320005009944,新規,0,2021-11-29,2021-11-29,医療法人聖祐会,,その他の設立登記法人,大分県,佐伯市,長島町１丁目４番１６号,,44,205,8760813,,,,,,,2021-11-29,1,,,,,セイユウカイ,0
490,2360003011601,新規,0,2021-11-29,2021-11-29,合同会社司クリーンサービス,,合同会社,沖縄県,那覇市,港町２丁目２番３号メゾンリベルテ港町Ａ－８０１,,47,201,9000001,,,,,,,2021-11-29,1,,,,,ツカサクリーンサービス,0
492,2370001047877,新規,0,2021-11-29,2021-11-29,株式会社アークユニオン,,株式会社,宮城県,仙台市宮城野区,福田町２丁目７番２－１号ドリームＢ２１１,,04,102,9830023,,,,,,,2021-11-29,1,,,,,アークユニオン,0
499,2430001085458,新規,0,2021-11-29,2021-11-29,株式会社ＮＯＲＴＨ１８,,株式会社,北海道,札幌市白石区,中央二条１丁目１番３３号,,01,104,0030012,,,,,,,2021-11-29,1,,,,,ノースワンエイト,0
502,2430003013400,新規,0,2021-11-29,2021-11-29,合同会社Ｈａｐｐｙ　Ｓｍｉｌｅ,,合同会社,北海道,岩見沢市,幌向南二条２丁目２０５番地２,,01,210,0690372,,,,,,,2021-11-29,1,,,,,ハッピースマイル,0
509,2700150106004,新規,0,2021-11-29,2021-11-29,ヤンセン・ファーマシューティカルズ・インク日本支店,,外国会社等,東京都,千代田区,西神田３丁目５番２号,,13,101,1010065,アメリカ合衆国ニュージャージー州タイタスヴィル、トレントン－ハーバートン・ロード１１２５,,,,,,2021-11-29,1,,,,,ヤンセンフアーマシユーテイカルズインクニホンシテン,0
514,3010003036351,新規,0,2021-11-29,2021-11-29,Ｊ．Ｐ．ＳＥＡＬｓ合同会社,,合同会社,東京都,中央区,日本橋本町３丁目３番６号,,13,102,1030023,,,,,,,2021-11-29,1,,,,,ジェーピーシールズ,0
515,3010003036426,新規,0,2021-11-29,2021-11-29,合同会社キューズエナジー,,合同会社,東京都,千代田区,丸の内３丁目１番１号東京共同会計事務所内,,13,101,1000005,,,,,,,2021-11-29,1,,,,,キューズエナジー,0
516,3010103001817,新規,0,2021-11-29,2021-11-29,カイルアセット合同会社,,合同会社,東京都,八王子市,南陽台１丁目９番４号,,13,201,1920371,,,,,,,2021-11-29,1,,,,,カイルアセット,0
521,3010401164043,新規,0,2021-11-29,2021-11-29,株式会社Ｈａｉｌｅｙ’ｓ　Ｃｌｏｓｅｔ,,株式会社,東京都,港区,南青山５丁目４番３５号たつむら青山マンション７１２,,13,103,1070062,,,,,,,2021-11-29,1,,,,,ヘイリーズクロゼット,0
528,3010701041818,新規,0,2021-11-29,2021-11-29,Ｈｅｃｔｏｃｏｒｎ株式会社,,株式会社,東京都,品川区,西五反田１丁目１番８号ＮＭＦ五反田駅前ビル,,13,109,1410031,,,,,,,2021-11-29,1,,,,,ヘクトコーン,0
536,3010901049801,新規,0,2021-11-29,2021-11-29,株式会社東龍,,株式会社,東京都,世田谷区,桜丘４丁目４番２０号,,13,112,1560054,,,,,,,2021-11-29,1,,,,,トウリュウ,0
541,3011001144138,新規,0,2021-11-29,2021-11-29,株式会社共立,,株式会社,東京都,渋谷区,上原２丁目２２番８号,,13,113,1510064,,,,,,,2021-11-29,1,,,,,キョウリツ,0
542,3011001144245,新規,0,2021-11-29,2021-11-29,株式会社えびす企画,,株式会社,東京都,渋谷区,恵比寿４丁目１１番９号クオーレエビス４０３号室,,13,113,1500013,,,,,,,2021-11-29,1,,,,,エビスキカク,0
547,3011005009320,新規,0,2021-11-29,2021-11-29,一般社団法人ひろしまハウスアートギャラリープロジェクト,,その他の設立登記法人,東京都,渋谷区,千駄ヶ谷４丁目２４番１５号,,13,113,1510051,,,,,,,2021-11-29,1,,,,,ヒロシマハウスアートギャラリープロジェクト,0
549,3011101097046,新規,0,2021-11-29,2021-11-29,株式会社佐藤商会,,株式会社,東京都,新宿区,西新宿３丁目５番１２号,,13,104,1600023,,,,,,,2021-11-29,1,,,,,サトウショウカイ,0
562,3011703003005,新規,0,2021-11-29,2021-11-29,ＨＦＭ　ＩＮＴＥＲＮＡＴＩＯＮＡＬ合同会社,,合同会社,東京都,江戸川区,西小岩１丁目１６番１４号,,13,123,1330057,,,,,,,2021-11-29,1,,,,,エイチエフエムインターナショナル,0
566,3012401008106,新規,0,2021-11-29,2021-11-29,株式会社高橋木工,00124961,株式会社,東京都,調布市,多摩川３丁目５５番地１,,13,208,1820025,,,,,,,2021-11-29,1,,,,,タカハシモッコウ,0
570,3012403005126,新規,0,2021-11-29,2021-11-29,ＴＭ合同会社,,合同会社,東京都,調布市,入間町３丁目１２番３号,,13,208,1820004,,,,,,,2021-11-29,1,,,,,ティーエム,0
574,3013301048340,新規,0,2021-11-29,2021-11-29,株式会社ＳＨＬ,,株式会社,東京都,豊島区,池袋本町４丁目３９番５－２１１号,,13,116,1700011,,,,,,,2021-11-29,1,,,,,エスエイチエル,0
585,3020003020791,新規,0,2021-11-29,2021-11-29,合同会社エムズ,,合同会社,神奈川県,横浜市南区,永楽町１丁目７－３オールウィン１０２,,14,105,2320031,,,,,,,2021-11-29,1,,,,,エムズ,0
608,3040001121152,新規,0,2021-11-29,2021-11-29,株式会社清和企画,,株式会社,千葉県,市川市,末広２丁目１０番１号,,12,203,2720121,,,,,,,2021-11-29,1,,,,,セイワキカク,0
609,3040001121169,新規,0,2021-11-29,2021-11-29,ごろうえもんのお米株式会社,,株式会社,千葉県,香取郡東庄町,今郡４８９番地,,12,349,2890619,,,,,,,2021-11-29,1,,,,,,0
616,3040003019015,新規,0,2021-11-29,2021-11-29,合同会社大木企画,,合同会社,千葉県,成田市,大栄十余三２４５番地５４５,,12,211,2870243,,,,,,,2021-11-29,1,,,,,オオキキカク,0
617,3040005021448,新規,0,2021-11-29,2021-11-29,エスイーオー協同組合,,その他の設立登記法人,千葉県,山武郡九十九里町,真亀４８８２番地,,12,403,2830114,,,,,,,2021-11-29,1,,,,,エスイーオー,0
623,3050001050210,新規,0,2021-11-29,2021-11-29,株式会社ＳＥＩＳＨＵ,,株式会社,茨城県,水戸市,元吉田町１６７７番地の４パリハイツＡ棟２０２号,,08,201,3100836,,,,,,,2021-11-29,1,,,,,セイシュウ,0
624,3050003006219,新規,0,2021-11-29,2021-11-29,合同会社ＮＤＰ,,合同会社,茨城県,古河市,けやき平１丁目１８番地２０,,08,204,3060055,,,,,,,2021-11-29,1,,,,,エヌディーピー,0
627,3060001034328,新規,0,2021-11-29,2021-11-29,株式会社クロノス,,株式会社,栃木県,宇都宮市,中里町３０９番地１,,09,201,3210414,,,,,,,2021-11-29,1,,,,,クロノス,0
628,3060003003875,新規,0,2021-11-29,2021-11-29,合同会社ＮＥＸＴ,,合同会社,栃木県,佐野市,富士見町８番４号,,09,204,3270503,,,,,,,2021-11-29,1,,,,,ネクスト,0
630,3070003004311,新規,0,2021-11-29,2021-11-29,福田合同会社,,合同会社,群馬県,伊勢崎市,連取町３２７２番地４,,10,204,3720812,,,,,,,2021-11-29,1,,,,,フクダ,0
635,3080101022940,新規,0,2021-11-29,2021-11-29,株式会社リバティアライズ,,株式会社,静岡県,熱海市,銀座町６番６号サトウ椿ビル２Ｆ,,22,205,4130013,,,,,,,2021-11-29,1,,,,,リバティアライズ,0
650,3110003004629,新規,0,2021-11-29,2021-11-29,熊谷産業合同会社,,合同会社,新潟県,燕市,吉田中町１番６号,,15,213,9590244,,,,,,,2021-11-29,1,,,,,クマガイサンギョウ,0
675,3120105009483,新規,0,2021-11-29,2021-11-29,特定非営利活動法人ＢｌｅｓｓｉｎｇＢａｓｔｉｏｎ,,その他の設立登記法人,大阪府,堺市西区,鳳東町２丁１６２番地７ルネフェリアス堺鳳１１０号,,27,144,5938324,,,,,,,2021-11-29,1,,,,,ブレッシングバスチェン,0
694,3140001123997,新規,0,2021-11-29,2021-11-29,株式会社プロメディカル,,株式会社,兵庫県,芦屋市,松ノ内町３番８－３号クレインビル芦屋４Ｆ,00124978,28,206,6590094,,,,,,,2021-11-29,1,,,,,プロメディカル,0
703,3180001148875,新規,0,2021-11-29,2021-11-29,ピープル・ビジネス・コンサルタンツ株式会社,,株式会社,愛知県,名古屋市中区,栄５丁目２６番３９号ＧＳ栄ビル３Ｆ,,23,106,4600008,,,,,,,2021-11-29,1,,,,,ピープルビジネスコンサルタンツ,0
704,3180001148891,新規,0,2021-11-29,2021-11-29,株式会社ＳｈｉｎｉｎｇＴｏｒｃｈ,,株式会社,愛知県,名古屋市西区,名駅２丁目３４番１７号セントラル名古屋１１０１号,,23,104,4510045,,,,,,,2021-11-29,1,,,,,シャイニングトーチ,0
705,3180001148900,新規,0,2021-11-29,2021-11-29,株式会社尾崎建築,,株式会社,愛知県,知多市,南粕谷２丁目４７番地の３８３,,23,224,4780024,,,,,,,2021-11-29,1,,,,,オザキケンチク,0
706,3180001148909,新規,0,2021-11-29,2021-11-29,株式会社ＴＯＰＲＡＮＫ,,株式会社,愛知県,名古屋市緑区,大高町字一番割９番地の２,,23,114,4598001,,,,,,,2021-11-29,1,,,,,トップランク,0
709,3180003023234,新規,0,2021-11-29,2021-11-29,ケアパートナーたいよう合同会社,,合同会社,愛知県,稲沢市,祖父江町森上本郷十５０番地,,23,220,4950011,,,,,,,2021-11-29,1,,,,,ケアパートナータイヨウ,0
719,3200003005386,新規,0,2021-11-29,2021-11-29,合同会社ツムギビト,,合同会社,岐阜県,揖斐郡池田町,沓井５０７,,21,404,5032401,,,,,,,2021-11-29,1,,,,,ツムギビト,0
729,3240003005382,新規,0,2021-11-29,2021-11-29,合同会社栄松,,合同会社,広島県,広島市西区,古江西町１４番４２－６０４号,,34,104,7330874,,,,,,,2021-11-29,1,,,,,エイショウ,0
734,3260001036246,新規,0,2021-11-29,2021-11-29,株式会社Ａｌｍｏｓｔ,,株式会社,岡山県,玉野市,築港１丁目２４番６号,,33,204,7060002,,,,,,,2021-11-29,1,,,,,オウルモスト,0
735,3260001036254,新規,0,2021-11-29,2021-11-29,株式会社西日本自動車,,株式会社,岡山県,笠岡市,相生１１６７－９,,33,205,7140014,,,,,,,2021-11-29,1,,,,,ニシニホンジドウシャ,0
740,3310001017604,新規,0,2021-11-29,2021-11-29,株式会社Ｓｅｖｅｎ　ｂｅｅｓ,,株式会社,長崎県,長崎市,片淵１丁目１０番２０号,,42,201,8500003,,,,,,,2021-11-29,1,,,,,セブンビーズ,0
741,3310003004220,新規,0,2021-11-29,2021-11-29,合同会社ｏｄｓエクイップ,,合同会社,長崎県,雲仙市,小浜町北本町２５番地２,,42,213,8540514,,,,,,,2021-11-29,1,,,,,オーディーエスエクイップ,0
757,3380003005063,新規,0,2021-11-29,2021-11-29,サンダンズ合同会社,,合同会社,福島県,郡山市,富久山町久保田字伊賀河原９３番地,,07,203,9638071,,,,,,,2021-11-29,1,,,,,,0
759,3420001017659,新規,0,2021-11-29,2021-11-29,株式会社カメケンアーキテクト,,株式会社,青森県,青森市,原別８丁目５番１２号,,02,201,0300921,,,,,,,2021-11-29,1,,,,,カメケンアーキテクト,0
764,3430001085457,新規,0,2021-11-29,2021-11-29,アルコジ株式会社,,株式会社,北海道,札幌市中央区,北二条東１丁目３－３サンマウンテンビル３階,,01,101,0600032,,,,,,,2021-11-29,1,,,,,アルコジ,0
766,3470001018850,新規,0,2021-11-29,2021-11-29,株式会社讃岐富士農産,,株式会社,香川県,丸亀市,綾歌町富熊１１２３番地１,,37,202,7612407,,,,,,,2021-11-29,1,,,,,サヌキフジノウサン,0
767,3480001011557,新規,0,2021-11-29,2021-11-29,株式会社徳島レンタカー,,株式会社,徳島県,徳島市,川内町宮島浜９９番地の３５,,36,201,7710115,,,,,,,2021-11-29,1,,,,,トクシマレンタカー,0
768,3700150106003,新規,0,2021-11-29,2021-11-29,白幡仲町会,,その他,神奈川県,横浜市神奈川区,白幡仲町３７－１,,14,102,2210071,,,,,,,2021-11-29,1,,,,,シラハタナカチョウカイ,0
771,4010001222844,新規,0,2021-11-29,2021-11-29,株式会社先端技術環境機構,,株式会社,東京都,千代田区,神田三崎町３丁目８番４号江戸川ビル３階,,13,101,1010061,,,,,,,2021-11-29,1,,,,,センタンギジュツカンキョウキコウ,0
772,4010001222852,新規,0,2021-11-29,2021-11-29,株式会社ミッツマネジメント,,株式会社,東京都,千代田区,岩本町２丁目９番１１－２０１号,,13,101,1010032,,,,,,,2021-11-29,1,,,,,ミッツマネジメント,0
781,4010003036391,新規,0,2021-11-29,2021-11-29,ファーストベア合同会社,,合同会社,東京都,文京区,小石川１丁目５番地１号パークコート文京小石川ザ・タワー８０４号室,,13,105,1120002,,,,,,,2021-11-29,1,,,,,ファーストベア,0
802,4010401164083,新規,0,2021-11-29,2021-11-29,株式会社ＨＥＲＯ,,株式会社,東京都,港区,麻布十番２丁目１２番４号ＡＺＡＢＵＰＡＲＫＨＡＵＳ６０１,,13,103,1060045,,,,,,,2021-11-29,1,,,,,ヒーロー,0
803,4010403026538,新規,0,2021-11-29,2021-11-29,Ｐ＆Ｓ合同会社,,合同会社,東京都,港区,南青山２丁目２－１５ＷＩＮ青山５３１,,13,103,1070062,,,,,,,2021-11-29,1,,,,,ピーアンドエス,0
804,4010403026604,新規,0,2021-11-29,2021-11-29,合同会社ＳＭＨ,,合同会社,東京都,港区,南青山１丁目９番２号大場ビルＢ１,,13,103,1070062,,,,,,,2021-11-29,1,,,,,エスエムエイチ,0
821,4011001144161,新規,0,2021-11-29,2021-11-29,株式会社ＳＥＥＤ,,株式会社,東京都,渋谷区,東３丁目２０番１号ＡｒｋＰｌａｃｅＥＢＩＳＵ４０２号室,,13,113,1500011,,,,,,,2021-11-29,1,,,,,シード,0
822,4011001144244,新規,0,2021-11-29,2021-11-29,株式会社ＥＮＩＣ,,株式会社,東京都,渋谷区,富ヶ谷１丁目１９－３三栄ビル２０１,,13,113,1510063,,,,,,,2021-11-29,1,,,,,エニック,0
823,4011001144277,新規,0,2021-11-29,2021-11-29,株式会社フレイ・コンサルティング,,株式会社,東京都,渋谷区,道玄坂１丁目１２番１号,,13,113,1500043,,,,,,,2021-11-29,1,,,,,フレイコンサルティング,0
825,4011003013769,新規,0,2021-11-29,2021-11-29,日本パワートレーディング合同会社,,合同会社,東京都,渋谷区,猿楽町２９番６号,,13,113,1500033,,,,,,,2021-11-29,1,,,,,ニホンパワートレーディング,0
829,4011103011227,新規,0,2021-11-29,2021-11-29,合同会社ＡＣＥ　ＱＵＥＥＮ,,合同会社,東京都,新宿区,大久保１丁目５番１２号,,13,104,1690072,,,,,,,2021-11-29,1,,,,,エースクイーン,0
830,4011201023446,新規,0,2021-11-29,2021-11-29,ｙｅ株式会社,,株式会社,東京都,中野区,新井２丁目１－１２モン・エトワール１階,,13,114,1650026,,,,,,,2021-11-29,1,,,,,イエ,0
833,4011605002418,新規,0,2021-11-29,2021-11-29,一般社団法人わお,,その他の設立登記法人,東京都,練馬区,豊玉北５丁目８番１７号ガーデンハウスＡ棟２,,13,120,1760012,,,,,,,2021-11-29,1,,,,,ワオ,0
838,4011803004876,新規,0,2021-11-29,2021-11-29,中晶合同会社,,合同会社,東京都,葛飾区,青戸７丁目２３番１１号,,13,122,1250062,,,,,,,2021-11-29,1,,,,,チュウショウ,0
839,4012401038580,新規,0,2021-11-29,2021-11-29,株式会社フォンターナ,,株式会社,東京都,府中市,若松町２丁目７番地の８,,13,206,1830005,,,,,,,2021-11-29,1,,,,,フォンターナ,0
856,4021001074589,新規,0,2021-11-29,2021-11-29,株式会社レロン,,株式会社,神奈川県,厚木市,岡田３丁目４番２０号,,14,212,2430021,,,,,,,2021-11-29,1,,,,,レロン,0
866,4030003018396,新規,0,2021-11-29,2021-11-29,合同会社エコ・サポート,,合同会社,埼玉県,朝霞市,根岸台６丁目２番３５号,,11,227,3510005,,,,,,,2021-11-29,1,,,,,エコサポート,0
874,4040001121119,新規,0,2021-11-29,2021-11-29,株式会社ＥＴＥＲＮＡＬＬＹ,,株式会社,千葉県,千葉市緑区,あすみが丘６丁目１６番地１,,12,105,2670066,,,,,,,2021-11-29,1,,,,,エターナリー,0
875,4040001121135,新規,0,2021-11-29,2021-11-29,株式会社海の樹,,株式会社,千葉県,習志野市,藤崎２丁目４番１７号２０５,,12,216,2750017,,,,,,,2021-11-29,1,,,,,ウミノキ,0
876,4040001121168,新規,0,2021-11-29,2021-11-29,エーエヌケーインターナショナル株式会社,,株式会社,千葉県,四街道市,和良比２５７－２２,,12,228,2840044,,,,,,,2021-11-29,1,,,,,エーエヌケーインターナショナル,0
884,4050003006192,新規,0,2021-11-29,2021-11-29,ＳＨＯＪＩｘ２合同会社,,合同会社,茨城県,日立市,弁天町３丁目６番８－１００３号,,08,202,3170072,,,,,,,2021-11-29,1,,,,,ショウジショウジ,0
885,4050003006226,新規,0,2021-11-29,2021-11-29,合同会社テラリリアス,,合同会社,茨城県,つくば市,竹園１丁目８番地２ミオカステーロつくば竹園６０１号,,08,220,3050032,,,,,,,2021-11-29,1,,,,,テラリリアス,0
895,4100001034842,新規,0,2021-11-29,2021-11-29,株式会社ＴＲＩ　Ｉｎｃ．,,株式会社,長野県,下高井郡山ノ内町,大字平穏字村下４８７９番地６,,20,561,3810401,,,,,,,2021-11-29,1,,,,,ティーアールアイインク,0
896,4100001034850,新規,0,2021-11-29,2021-11-29,株式会社あさやけ,,株式会社,長野県,諏訪市,城南１丁目２５６２番地１,,20,206,3920017,,,,,,,2021-11-29,1,,,,,アサヤケ,0
898,4100002037613,新規,0,2021-11-29,2021-11-29,有限会社吉沢ミシン電機商会,,有限会社,長野県,飯田市,知久町２丁目１１番地,,20,205,3950045,,,,,,,2021-11-29,1,,,,,ヨシザワミシンデンキショウカイ,0
903,4110001036219,新規,0,2021-11-29,2021-11-29,株式会社Ｕｎｉｔ　ＯＮＥ,,株式会社,新潟県,新潟市中央区,上大川前通３番町１２５番地藤田ビル２－Ｂ,,15,103,9518068,,,,,,,2021-11-29,1,,,,,ユニットワン,0
905,4110003004628,新規,0,2021-11-29,2021-11-29,合同会社けいあーる,,合同会社,新潟県,上越市,北城町４丁目３番７号,,15,222,9430824,,,,,,,2021-11-29,1,,,,,ケイアール,0
913,4120001083615,新規,0,2021-11-29,2021-11-29,大丸土地株式会社,,株式会社,大阪府,大阪市中央区,安堂寺町１丁目６番４号,,27,128,5420061,,,,,,,2021-11-29,1,,,,,ダイマルトチ,0
936,4130001070612,新規,0,2021-11-29,2021-11-29,社会福祉総合支援株式会社,,株式会社,京都府,長岡京市,今里４丁目１５番８号,,26,209,6170814,,,,,,,2021-11-29,1,,,,,シャカイフクシソウゴウシエン,0
941,4130005016322,新規,0,2021-11-29,2021-11-29,特定非営利活動法人ＤＥＮＴＯ,,その他の設立登記法人,京都府,京都市右京区,山ノ内宮脇町１５－１,,26,108,6150092,,,,,,,2021-11-29,1,,,,,デントウ,0
948,4140001123996,新規,0,2021-11-29,2021-11-29,Ｅ２Ｅ株式会社,,株式会社,兵庫県,神戸市中央区,山本通１丁目６番３５号,,28,110,6500003,,,,,,,2021-11-29,1,,,,,イーツーイー,0
962,4180001148890,新規,0,2021-11-29,2021-11-29,株式会社ベストウェイコンサルタント,,株式会社,愛知県,名古屋市北区,長田町１丁目８番地の３,,23,103,4620834,,,,,,,2021-11-29,1,,,,,ベストウェイコンサルタント,0
963,4180001148908,新規,0,2021-11-29,2021-11-29,株式会社マスターズ７５８,,株式会社,愛知県,名古屋市千種区,春岡１丁目６番１３号土屋ビル３０２号,,23,101,4640848,,,,,,,2021-11-29,1,,,,,マスターズナゴヤ,0
964,4180001148916,新規,0,2021-11-29,2021-11-29,杉浦電機株式会社,,株式会社,愛知県,清須市,春日振形１４番地,,23,233,4520961,,,,,,,2021-11-29,1,,,,,スギウラデンキ,0
965,4180001148924,新規,0,2021-11-29,2021-11-29,株式会社ＳｐｉｒａｌＬａｂ,,株式会社,愛知県,名古屋市中区,栄１丁目７－２８ローレルタワー名古屋栄５０２,,23,106,4600008,,,,,,,2021-11-29,1,,,,,スパイラルラボ,0
978,4210003001425,新規,0,2021-11-29,2021-11-29,合同会社ＫＲＭ,,合同会社,福井県,鯖江市,本町４丁目１番２９号,,18,207,9160026,,,,,,,2021-11-29,1,,,,,ケーアールエム,0
991,4260001036245,新規,0,2021-11-29,2021-11-29,株式会社もりおか精肉店,,株式会社,岡山県,津山市,河辺７４３番地１,,33,203,7080842,,,,,,,2021-11-29,1,,,,,モリオカセイニクテン,0
992,4260001036253,新規,0,2021-11-29,2021-11-29,株式会社光岡,,株式会社,岡山県,岡山市中区,倉富３６７番地１０,,33,102,7038264,,,,,,,2021-11-29,1,,,,,ミツオカ,0
995,4260005010997,新規,0,2021-11-29,2021-11-29,特定非営利活動法人高梁川流域の持続可能な開発・ＳＤＧｓをアートで達成する会,,その他の設立登記法人,岡山県,倉敷市,玉島１２７５番地,,33,202,7138102,,,,,,,2021-11-29,1,,,,,タカハシガワリュウイキノジゾクカノウナカイハツエスディジーイズヲアートデタッセイスルカイ,0
998,4290001095569,新規,0,2021-11-29,2021-11-29,株式会社シマゾエビレッジ,,株式会社,福岡県,福岡市東区,香椎照葉３丁目２番７－１５０７号,,40,131,8130017,,,,,,,2021-11-29,1,,,,,シマゾエビレッジ,0
999,4290003011879,新規,0,2021-11-29,2021-11-29,合同会社Ｙ’ｓ内装,,合同会社,福岡県,福岡市中央区,高砂１丁目１７番２２号ライオンズシティ高砂６０１,,40,133,8100011,,,,,,,2021-11-29,1,,,,,ワイズナイソウ,0
1006,4330001029233,新規,0,2021-11-29,2021-11-29,株式会社ぬくもり,,株式会社,熊本県,熊本市西区,八島２丁目６番９号,,43,103,8600054,,,,,,,2021-11-29,1,,,,,ヌクモリ,0
1009,4350001017434,新規,0,2021-11-29,2021-11-29,株式会社ｍｃｓ．Ｌｉｎｋ,,株式会社,宮崎県,宮崎市,小戸町１０４番地１リベラル一ツ葉１０６号,,45,201,8800857,,,,,,,2021-11-29,1,,,,,エムシーエスドットリンク,0
1013,4360001029684,新規,0,2021-11-29,2021-11-29,株式会社Ｌｕｖｋａ,,株式会社,沖縄県,沖縄市,高原７丁目１２番１４号,,47,211,9042171,,,,,,,2021-11-29,1,,,,,ルブカ,0
1025,4420001017658,新規,0,2021-11-29,2021-11-29,株式会社ニューロン,,株式会社,青森県,三沢市,古間木２丁目１８５番地３号,,02,207,0330051,,,,,,,2021-11-29,1,,,,,ニューロン,0
1034,4430001085456,新規,0,2021-11-29,2021-11-29,株式会社北土建設,,株式会社,北海道,千歳市,都６２６番２４,,01,224,0660003,,,,,,,2021-11-29,1,,,,,ホクドケンセツ,0
1035,4430001085464,新規,0,2021-11-29,2021-11-29,株式会社ＭＲフォレスト,,株式会社,北海道,札幌市中央区,南一条西１６丁目１番地３２３春野ビル３Ｆ,,01,101,0600061,,,,,,,2021-11-29,1,,,,,エムアールフォレスト,0
1036,4430003013407,新規,0,2021-11-29,2021-11-29,合同会社丸ヨ鳥谷部,,合同会社,北海道,札幌市白石区,平和通４丁目北３番２２号,,01,104,0030029,,,,,,,2021-11-29,1,,,,,マルヨトリヤベ,0
1055,5010003036390,新規,0,2021-11-29,2021-11-29,合同会社サニーオーシャン,,合同会社,東京都,中央区,晴海２丁目２番４２号,,13,102,1040053,,,,,,,2021-11-29,1,,,,,サニーオーシャン,0
1058,5010401164116,新規,0,2021-11-29,2021-11-29,株式会社Ｐａｃｉｆｉｃ　Ａｄｖｉｓｏｒｙ　Ｌｉｍｉｔｅｄ,,株式会社,東京都,港区,赤坂９丁目６番２８－２０６号,,13,103,1070052,,,,,,,2021-11-29,1,,,,,パシフィックアドバイザリーリミテッド,0
1059,5010403026603,新規,0,2021-11-29,2021-11-29,Ｚｏｖｏ　Ｓａｌｏｎｓ　Ｊａｐａｎ合同会社,,合同会社,東京都,港区,西新橋２丁目４番４号,,13,103,1050003,,,,,,,2021-11-29,1,,,,,ゾボサロンズジャパン,0
1060,5010405020471,新規,0,2021-11-29,2021-11-29,平野町オフィス一般社団法人,,その他の設立登記法人,東京都,港区,南麻布３丁目１９番２３号オーク南麻布ビル２階,,13,103,1060047,,,,,,,2021-11-29,1,,,,,ヒラノマチオフィス,0
1071,5010901049881,新規,0,2021-11-29,2021-11-29,八巻園株式会社,,株式会社,東京都,世田谷区,祖師谷４丁目１８番３号Ｃ－２,,13,112,1570072,,,,,,,2021-11-29,1,,,,,ヤマキエン,0
1074,5010903006971,新規,0,2021-11-29,2021-11-29,リナンテ合同会社,,合同会社,東京都,世田谷区,北沢３丁目２１－１コーポサンライズ２０１,,13,112,1550031,,,,,,,2021-11-29,1,,,,,リナンテ,0
1079,5011001144235,新規,0,2021-11-29,2021-11-29,株式会社ＧＬＡＮＺ,,株式会社,東京都,渋谷区,恵比寿１丁目２１番５ー１２０１号,,13,113,1500013,,,,,,,2021-11-29,1,,,,,グランツ,0
1080,5011003013768,新規,0,2021-11-29,2021-11-29,雷神エナジー合同会社,,合同会社,東京都,渋谷区,猿楽町２９番６号,,13,113,1500033,,,,,,,2021-11-29,1,,,,,ライジンエナジー,0
1082,5011101097003,新規,0,2021-11-29,2021-11-29,ＹＯＹＯ株式会社,,株式会社,東京都,新宿区,北新宿３丁目２８番７号,,13,104,1690074,,,,,,,2021-11-29,1,,,,,ヨヨ,0
1083,5011101097036,新規,0,2021-11-29,2021-11-29,永遠幸グローバルネットワーク株式会社,,株式会社,東京都,新宿区,西新宿７丁目２０番３号,,13,104,1600023,,,,,,,2021-11-29,1,,,,,トワコウグローバルネットワーク,0
1091,5011601025561,新規,0,2021-11-29,2021-11-29,日本貿易センター株式会社,,株式会社,東京都,練馬区,豊玉上２丁目２３－４アークス練馬１０５号,,13,120,1760011,,,,,,,2021-11-29,1,,,,,ニホンボウエキセンター,0
1100,5013101008781,新規,0,2021-11-29,2021-11-29,株式会社ＪＩＡＩ,,株式会社,東京都,青梅市,新町７丁目１１番地の１１ヴィレッジ霞台６号棟,,13,205,1980024,,,,,,,2021-11-29,1,,,,,ジアイ,0
1109,5020001144104,新規,0,2021-11-29,2021-11-29,大東住建株式会社,,株式会社,神奈川県,横浜市緑区,青砥町２１３番地３０１号,,14,113,2260022,,,,,,,2021-11-29,1,,,,,ダイトウジュウケン,0
1111,5020005015284,新規,0,2021-11-29,2021-11-29,一般社団法人ＩＣＴ　Ｊａｐａｎ,,その他の設立登記法人,神奈川県,横浜市中区,尾上町４丁目５７番地横浜尾上町ビルディング８階,,14,104,2310015,,,,,,,2021-11-29,1,,,,,,0
1121,5030001145571,新規,0,2021-11-29,2021-11-29,株式会社石井事務所,,株式会社,埼玉県,川越市,豊田町２丁目１２番地５,,11,201,3501110,,,,,,,2021-11-29,1,,,,,イシイジムショ,0
1125,5030003018379,新規,0,2021-11-29,2021-11-29,ＵＭＢＲＥＬＬＡ　ＧＲＯＵＰ合同会社,,合同会社,埼玉県,春日部市,備後西４丁目５－２３－３０３,,11,214,3440033,,,,,,,2021-11-29,1,,,,,アンブレラグループ,0
1126,5030003018387,新規,0,2021-11-29,2021-11-29,チェックマンプラス合同会社,,合同会社,埼玉県,越谷市,千間台西４丁目１４番地２０,,11,222,3430041,,,,,,,2021-11-29,1,,,,,チェックマンプラス,0
1134,5040001121134,新規,0,2021-11-29,2021-11-29,株式会社アンビシャス,,株式会社,千葉県,成田市,松子３７６番地７－１階,,12,211,2870234,,,,,,,2021-11-29,1,,,,,アンビシャス,0
1135,5040001121175,新規,0,2021-11-29,2021-11-29,株式会社うみうしらんど,,株式会社,千葉県,野田市,西三ケ尾４８１－３１,,12,208,2780015,,,,,,,2021-11-29,1,,,,,ウミウシランド,0
1136,5040003019013,新規,0,2021-11-29,2021-11-29,合同会社テルスリンク,,合同会社,千葉県,千葉市花見川区,朝日ケ丘４丁目１７番３号,,12,102,2620019,,,,,,,2021-11-29,1,,,,,テルスリンク,0
1137,5040003019021,新規,0,2021-11-29,2021-11-29,合同会社ＡＲＥＢＲＥ　ＣＲＯＣＨＥ,,合同会社,千葉県,市原市,瀬又８７５－８２,,12,219,2900151,,,,,,,2021-11-29,1,,,,,アルブルクロシェ,0
1152,5080405007405,新規,0,2021-11-29,2021-11-29,グローバルビジネス協同組合,,その他の設立登記法人,静岡県,浜松市中区,高丘西２丁目２番４３号,,22,131,4338118,,,,,,,2021-11-29,1,,,,,グローバルビジネス,0
1158,5110001036226,新規,0,2021-11-29,2021-11-29,株式会社ＦＡＭＡＤ,,株式会社,新潟県,長岡市,大手通１丁目５－７大手通りビル３階,,15,202,9400062,,,,,,,2021-11-29,1,,,,,ファマド,0
1179,5120001242112,新規,0,2021-11-29,2021-11-29,株式会社Ｐｒｏｃｅｌｉｆｅ,,株式会社,大阪府,大阪市北区,梅田２丁目２番２号ヒルトンプラザウエストオフィスタワー１９階,,27,127,5300001,,,,,,,2021-11-29,1,,,,,プロセライフ,0
1180,5120001242120,新規,0,2021-11-29,2021-11-29,株式会社ＮＥＸＴ　ＩＮＮＯＶＡＴＩＯＮ,,株式会社,大阪府,門真市,小路町５番１８号,,27,223,5710058,,,,,,,2021-11-29,1,,,,,ネクストイノベーション,0
1183,5120003020672,新規,0,2021-11-29,2021-11-29,合同会社Ｍｔｒｕｓｔ,,合同会社,大阪府,大阪市此花区,島屋６丁目２－８９－１７０７,,27,104,5540024,,,,,,,2021-11-29,1,,,,,エムトラスト,0
1198,5130003007603,新規,0,2021-11-29,2021-11-29,合同会社訪問看護ステーションまんまる,,合同会社,京都府,木津川市,州見台８丁目１７－１０,,26,214,6190216,,,,,,,2021-11-29,1,,,,,ホウモンカンゴステーションマンマル,0
1203,5140001123995,新規,0,2021-11-29,2021-11-29,株式会社親和,,株式会社,兵庫県,川西市,加茂２丁目１８番２４号,,28,217,6660025,,,,,,,2021-11-29,1,,,,,シンワ,0
1216,5180001148907,新規,0,2021-11-29,2021-11-29,Ｌ・Ｒ株式会社,,株式会社,愛知県,常滑市,久米字南沢４番地の１,,23,216,4790002,,,,,,,2021-11-29,1,,,,,エルアール,0
1217,5180001148915,新規,0,2021-11-29,2021-11-29,ウィンターホリック株式会社,,株式会社,愛知県,名古屋市中区,丸の内３丁目１４番６号１００１室,,23,106,4600002,,,,,,,2021-11-29,1,,,,,ウィンターホリック,0
1218,5180001148923,新規,0,2021-11-29,2021-11-29,株式会社ＨＨＯ,,株式会社,愛知県,名古屋市天白区,元八事５丁目１５８番地の４,,23,116,4680066,,,,,,,2021-11-29,1,,,,,エイチエイチオ,0
1221,5180003023208,新規,0,2021-11-29,2021-11-29,合同会社ＭＯＬＴＩＳＯＬＤＩ,,合同会社,愛知県,名古屋市東区,芳野３丁目９番３６号エスティメゾン東白壁３０４,,23,102,4610027,,,,,,,2021-11-29,1,,,,,モルティソルディ,0
1226,5180301035664,新規,0,2021-11-29,2021-11-29,株式会社ＯＨＹＡＭＡ,,株式会社,愛知県,岡崎市,滝町字河原ケ１１番地１,,23,202,4443173,,,,,,,2021-11-29,1,,,,,オオヤマ,0
1230,5190005011647,新規,0,2021-11-29,2021-11-29,一般社団法人ＡＬＯＨＡ,,その他の設立登記法人,三重県,員弁郡東員町,大字鳥取４５６番地５,,24,324,5110241,,,,,,,2021-11-29,1,,,,,アロハ,0
1239,5220003003155,新規,0,2021-11-29,2021-11-29,合同会社Ａｚｉｋｏｉ,,合同会社,石川県,金沢市,米泉町６丁目８１番地１２,,17,201,9218044,,,,,,,2021-11-29,1,,,,,アジコイ,0
1252,5260001036252,新規,0,2021-11-29,2021-11-29,株式会社妹尾美研,,株式会社,岡山県,小田郡矢掛町,里山田１９３７番地,,33,461,7141213,,,,,,,2021-11-29,1,,,,,セノオビケン,0
1262,5280001008571,新規,0,2021-11-29,2021-11-29,株式会社スマイルライフ,,株式会社,島根県,出雲市,湖陵町板津２３２番地２,,32,203,6990817,,,,,,,2021-11-29,1,,,,,スマイルライフ,0
1269,5290801028033,新規,0,2021-11-29,2021-11-29,株式会社八幡建装,,株式会社,福岡県,北九州市八幡西区,穴生３丁目２番６号,,40,109,8060049,,,,,,,2021-11-29,1,,,,,ヤハタケンソウ,0
1283,5360001029683,新規,0,2021-11-29,2021-11-29,株式会社ルピナス,,株式会社,沖縄県,豊見城市,字豊崎１番地１１６０－５０７,,47,212,9010225,,,,,,,2021-11-29,1,,,,,ルピナス,0
1284,5360001029691,新規,0,2021-11-29,2021-11-29,株式会社ファームズゼンチャン,,株式会社,沖縄県,島尻郡伊平屋村,字我喜屋２１３５番地５４,,47,359,9050703,,,,,,,2021-11-29,1,,,,,ファームズゼンチャン,0
1286,5360005006563,新規,0,2021-11-29,2021-11-29,一般社団法人Ｑラボ,,その他の設立登記法人,沖縄県,浦添市,字経塚８７５番地２、２Ｆ,,47,208,9012111,,,,,,,2021-11-29,1,,,,,キューラボ,0
1288,5370003005500,新規,0,2021-11-29,2021-11-29,ＲｅｆｉＬ合同会社,,合同会社,宮城県,仙台市青葉区,木町通１丁目１－１１朝日プラザ北一番丁２０４,,04,101,9800801,,,,,,,2021-11-29,1,,,,,レフィル,0
1290,5430001085455,新規,0,2021-11-29,2021-11-29,株式会社フォーストレージ,,株式会社,北海道,札幌市白石区,菊水元町四条１丁目２番３号,,01,104,0030824,,,,,,,2021-11-29,1,,,,,フォーストレージ,0
1292,5430005014328,新規,0,2021-11-29,2021-11-29,一般社団法人サポートシステム研究会,,その他の設立登記法人,北海道,札幌市豊平区,西岡二条１１丁目７番１６号,,01,105,0620032,,,,,,,2021-11-29,1,,,,,サポートシステムケンキュウカイ,0
1294,5450001013538,新規,0,2021-11-29,2021-11-29,株式会社Ｅｔｅｒｆｏｒｔ,,株式会社,北海道,旭川市,東光三条２丁目１番２３号,,01,204,0788343,,,,,,,2021-11-29,1,,,,,エターフォート,0
1299,5700150105390,新規,0,2021-11-29,2021-10-19,風来舎,,その他,東京都,文京区,千駄木２丁目１－２－３０３,,13,105,1130022,,,,,,,2021-10-19,1,,,,,フウライシヤ,0
1308,6010001222784,新規,0,2021-11-29,2021-11-29,株式会社ネクストエイト,,株式会社,東京都,千代田区,外神田４丁目４番２号共益外神田ビル地下１階,,13,101,1010021,,,,,,,2021-11-29,1,,,,,ネクストエイト,0
1309,6010001222792,新規,0,2021-11-29,2021-11-29,富匙株式会社,,株式会社,東京都,千代田区,大手町１丁目２番１号ＯｔｅｍａｃｈｉＯｎｅタワー６階,,13,101,1000004,,,,,,,2021-11-29,1,,,,,トミサジ,0
1310,6010001222875,新規,0,2021-11-29,2021-11-29,株式会社ＱｕａＬｉｅｒ,,株式会社,東京都,中央区,日本橋小網町１２番７号,,13,102,1030016,,,,,,,2021-11-29,1,,,,,クオリエ,0
1311,6010001222900,新規,0,2021-11-29,2021-11-29,株式会社クオリス,,株式会社,東京都,千代田区,神田司町２丁目１３番地神田第４アメレックスビルワイムビジネスプラザ神田,,13,101,1010048,,,,,,,2021-11-29,1,,,,,クオリス,0
1314,6010003036398,新規,0,2021-11-29,2021-11-29,ＭＩデンタル合同会社,,合同会社,東京都,文京区,湯島２丁目６番１３号,,13,105,1130034,,,,,,,2021-11-29,1,,,,,エムアイデンタル,0
1315,6010003036407,新規,0,2021-11-29,2021-11-29,Ｋ－Ｐａｒｔｎｅｒ合同会社,,合同会社,東京都,千代田区,飯田橋４丁目４番８号朝日ビル,,13,101,1020072,,,,,,,2021-11-29,1,,,,,ケイーパートナー,0
1322,6010401164040,新規,0,2021-11-29,2021-11-29,株式会社Ｔ２,,株式会社,東京都,港区,赤坂３丁目１１番１５号ＶＯＲＴ赤坂見附４階,,13,103,1070052,,,,,,,2021-11-29,1,,,,,ティーツー,0
1323,6010401164057,新規,0,2021-11-29,2021-11-29,株式会社子どもたちに生きる力を,,株式会社,東京都,港区,台場１丁目６番１号デックス東京ビーチサイドモール３階アドベンチャークルーズ内,,13,103,1350091,,,,,,,2021-11-29,1,,,,,コドモタチニイキルチカラヲ,0
1324,6010401164098,新規,0,2021-11-29,2021-11-29,株式会社ＮＯ　ＲＵＬＥＳ,,株式会社,東京都,港区,南青山２丁目２番１５号,,13,103,1070062,,,,,,,2021-11-29,1,,,,,ノールールズ,0
1337,6010903006970,新規,0,2021-11-29,2021-11-29,ウィンブルドン合同会社,,合同会社,東京都,世田谷区,玉川１丁目１５番３－２１０２号,,13,112,1580094,,,,,,,2021-11-29,1,,,,,ウィンブルドン,0
1339,6011001143979,新規,0,2021-11-29,2021-11-29,株式会社ＬＩＦＥ,,株式会社,東京都,渋谷区,渋谷２丁目１２番１２号三貴ビル２Ｆ,,13,113,1500002,,,,,,,2021-11-29,1,,,,,ライフ,0
1340,6011001144143,新規,0,2021-11-29,2021-11-29,株式会社ｅｎｇｉｎｅ　Ｉｎｃｕｂａｔｉｏｎ,,株式会社,東京都,渋谷区,神南１丁目２０－２第一清水ビル４Ｆ,,13,113,1500041,,,,,,,2021-11-29,1,,,,,エンジンインキュベーション,0
1341,6011001144275,新規,0,2021-11-29,2021-11-29,株式会社ＴＨＥ　ＰＯＬＩＳＨ．,,株式会社,東京都,目黒区,自由が丘２丁目１６番１２号ＬＣ１Ｆ,,13,110,1520035,,,,,,,2021-11-29,1,,,,,ザポリッシュ,0
1349,6011101097035,新規,0,2021-11-29,2021-11-29,株式会社Ｃｌｏｖｅｒ,,株式会社,東京都,新宿区,高田馬場１丁目１９番７号,,13,104,1690075,,,,,,,2021-11-29,1,,,,,クローバー,0
1350,6011103011225,新規,0,2021-11-29,2021-11-29,合同会社Ｇｌｉｔｔｅｒｓ,,合同会社,東京都,新宿区,下落合２丁目６番３号ベルゼＢ－３,,13,104,1610033,,,,,,,2021-11-29,1,,,,,グリッターズ,0
1359,6012403005123,新規,0,2021-11-29,2021-11-29,八艶合同会社,,合同会社,東京都,武蔵野市,吉祥寺北町１丁目１番１号桜井ビル２階,,13,203,1800001,,,,,,,2021-11-29,1,,,,,ハチエン,0
1362,6013301048338,新規,0,2021-11-29,2021-11-29,株式会社コレットカンパニー,,株式会社,東京都,豊島区,南大塚２丁目１８番８号,,13,116,1700005,,,,,,,2021-11-29,1,,,,,コレットカンパニー,0
1369,6020001144053,新規,0,2021-11-29,2021-11-29,康宝株式会社,,株式会社,神奈川県,横浜市青葉区,荏田西４丁目１２番地３０,,14,117,2250014,,,,,,,2021-11-29,1,,,,,コウホウ,0
1377,6020003020888,新規,0,2021-11-29,2021-11-29,ｉｄａ　ｂａｓｅ合同会社,,合同会社,神奈川県,川崎市中原区,井田２丁目２８番１－１号,,14,133,2110035,,,,,,,2021-11-29,1,,,,,イダベース,0
1382,6021001074604,新規,0,2021-11-29,2021-11-29,株式会社ＡＫＨ,,株式会社,神奈川県,鎌倉市,材木座５丁目１２－３５,,14,204,2480013,,,,,,,2021-11-29,1,,,,,エーケーエイチ,0
1396,6030001145570,新規,0,2021-11-29,2021-11-29,株式会社ＡＴＨ,,株式会社,埼玉県,さいたま市南区,文蔵３丁目３１番３号,,11,108,3360025,,,,,,,2021-11-29,1,,,,,エーティーエイチ,0
1397,6030001145579,新規,0,2021-11-29,2021-11-29,ＭＫ不動産株式会社,,株式会社,埼玉県,志木市,本町５丁目１８番２２号エルシティミカミ２０２,,11,228,3530004,,,,,,,2021-11-29,1,,,,,エムケイフドウサン,0
1403,6040001121166,新規,0,2021-11-29,2021-11-29,日生住販株式会社,,株式会社,千葉県,富里市,日吉台３丁目２４番地２岩澤ビル２０３号,,12,233,2860201,,,,,,,2021-11-29,1,,,,,ニッセイジュウハン,0
1404,6040001121174,新規,0,2021-11-29,2021-11-29,辰株式会社,,株式会社,千葉県,いすみ市,日在２６４６番地,,12,238,2980002,,,,,,,2021-11-29,1,,,,,タツミ,0
1405,6040001121182,新規,0,2021-11-29,2021-11-29,株式会社住宅修理,,株式会社,千葉県,いすみ市,岬町中原４２７９－２,,12,238,2994502,,,,,,,2021-11-29,1,,,,,ジュウタクシュウリ,0
1407,6040003019012,新規,0,2021-11-29,2021-11-29,ｎｅｗＲｉｎｇ合同会社,,合同会社,千葉県,千葉市稲毛区,小仲台７丁目３－１アクアフォレスタ・ルネ稲毛フォレスタ棟１１０５,,12,103,2630043,,,,,,,2021-11-29,1,,,,,ニューリング,0
1408,6040005021445,新規,0,2021-11-29,2021-11-29,一般社団法人マザーナース・オリーブ,,その他の設立登記法人,千葉県,船橋市,北本町１丁目１２番１－３１４号,,12,204,2730864,,,,,,,2021-11-29,1,,,,,マザーナースオリーブ,0
1413,6050003006224,新規,0,2021-11-29,2021-11-29,合同会社ＳＨ・ＡＵＴＯ・ＷＯＲＫＳ,,合同会社,茨城県,結城市,大字上山川２９４番地１４,,08,207,3070021,,,,,,,2021-11-29,1,,,,,エスエイチオートワークス,0
1420,6070001038688,新規,0,2021-11-29,2021-11-29,株式会社蓮池商事,,株式会社,群馬県,邑楽郡大泉町,西小泉１丁目２６番４号,,10,524,3700517,,,,,,,2021-11-29,1,,,,,ハスイケショウジ,0
1423,6080001024605,新規,0,2021-11-29,2021-11-29,株式会社鮪コンティニュー,,株式会社,静岡県,藤枝市,瀬戸新屋３１８番地１エム・トモコＩＩ,00124979,22,214,4260075,,,,,,,2021-11-29,1,,,,,マグロコンティニュー,0
1432,6110001036225,新規,0,2021-11-29,2021-11-29,株式会社星野合同事務所,,株式会社,新潟県,小千谷市,城内１丁目８番２０号,,15,208,9470028,,,,,,,2021-11-29,1,,,,,ホシノゴウドウジムショ,0
1441,6120001242144,新規,0,2021-11-29,2021-11-29,株式会社グッド・ファーザー,,株式会社,大阪府,大阪市北区,梅田１丁目１番３－５００大阪駅前第３ビル５階１０号,,27,127,5300001,,,,,,,2021-11-29,1,,,,,グッドファーザー,0
1445,6120003020655,新規,0,2021-11-29,2021-11-29,合同会社ダイアローグ,,合同会社,大阪府,大阪市城東区,関目４丁目１４番９－５０２号,,27,118,5360008,,,,,,,2021-11-29,1,,,,,ダイアローグ,0
1447,6120101064703,新規,0,2021-11-29,2021-11-29,株式会社ＫＩＨＯＫａ,,株式会社,大阪府,泉佐野市,高松東１丁目１０－３７泉佐野センタービルサウスコア２１、５０２号,,27,213,5980012,,,,,,,2021-11-29,1,,,,,キホカ,0
1448,6120101064711,新規,0,2021-11-29,2021-11-29,株式会社アレックス,,株式会社,大阪府,松原市,岡７丁目２６１番地の４０,,27,217,5800014,,,,,,,2021-11-29,1,,,,,アレックス,0
1450,6120901045258,新規,0,2021-11-29,2021-11-29,Ｌ＆Ｌ株式会社,,株式会社,大阪府,箕面市,小野原西４丁目３番３号,,27,220,5620032,,,,,,,2021-11-29,1,,,,,エルアンドエル,0
1456,6140001123986,新規,0,2021-11-29,2021-11-29,株式会社双志構造設計室,,株式会社,兵庫県,加古川市,加古川町平野３４３番地,,28,210,6750063,,,,,,,2021-11-29,1,,,,,ソウシコウゾウセッケイシツ,0
1457,6140001123994,新規,0,2021-11-29,2021-11-29,昇和実業株式会社,,株式会社,兵庫県,宝塚市,すみれガ丘３丁目３番２－１１８号,,28,214,6650847,,,,,,,2021-11-29,1,,,,,ショウワジツギョウ,0
1458,6140001124010,新規,0,2021-11-29,2021-11-29,株式会社三神ビル管理,,株式会社,兵庫県,神戸市北区,上津台５丁目３番２１号,,28,109,6511515,,,,,,,2021-11-29,1,,,,,サンシンビルカンリ,0
1471,6180001148880,新規,0,2021-11-29,2021-11-29,株式会社ＲＩＢＥＬＬＴＡ,,株式会社,愛知県,名古屋市北区,清水１丁目９番８号青山ビル３Ａ,,23,103,4620844,,,,,,,2021-11-29,1,,,,,リベルタ,0
1472,6180001148889,新規,0,2021-11-29,2021-11-29,株式会社Ｓｔｅｌｌａ　ｂｌｕｅ,,株式会社,愛知県,小牧市,中央５丁目２３４番地ネオハイツ小牧中央２０３号,,23,219,4850029,,,,,,,2021-11-29,1,,,,,ステラブルー,0
1473,6180003023231,新規,0,2021-11-29,2021-11-29,合同会社ＡＥＲＡ,,合同会社,愛知県,名古屋市名東区,丁田町４４番地,,23,115,4650027,,,,,,,2021-11-29,1,,,,,アエラ,0
1474,6180305009267,新規,0,2021-11-29,2021-11-29,一般社団法人しもやま里山協議会,,その他の設立登記法人,愛知県,豊田市,下山田代町峯前２番地２,,23,211,4443222,,,,,,,2021-11-29,1,,,,,シモヤマサトヤマキョウギカイ,0
1485,6230005009181,新規,0,2021-11-29,2021-11-29,一般社団法人Ｃｈｏｗａ,,その他の設立登記法人,富山県,富山市,中野新町２丁目１番１号,,16,201,9398085,,,,,,,2021-11-29,1,,,,,チョウワ,0
1487,6240001058982,新規,0,2021-11-29,2021-11-29,株式会社あい食品,,株式会社,広島県,広島市中区,吉島西１丁目２０番４号,,34,101,7300823,,,,,,,2021-11-29,1,,,,,アイショクヒン,0
1492,6240003005388,新規,0,2021-11-29,2021-11-29,ＦＩＶＥＢＯＸ合同会社,,合同会社,広島県,尾道市,高須町１３３９－２４,,34,205,7290141,,,,,,,2021-11-29,1,,,,,ファイブボックス,0
1500,6290001095542,新規,0,2021-11-29,2021-11-29,株式会社真咲工務店,,株式会社,福岡県,福岡市南区,長丘２丁目４番１８－３０１号,,40,134,8150075,,,,,,,2021-11-29,1,,,,,マサキコウムテン,0
1505,6290801028032,新規,0,2021-11-29,2021-11-29,スリーファイブ株式会社,,株式会社,福岡県,北九州市八幡西区,菅原町１番４２号２階,,40,109,8060027,,,,,,,2021-11-29,1,,,,,スリーファイブ,0
1516,6370001047873,新規,0,2021-11-29,2021-11-29,五輝塗装店株式会社,,株式会社,宮城県,仙台市太白区,中田町字寺浦３３番地の１０,,04,104,9811103,,,,,,,2021-11-29,1,,,,,ゴコウトソウテン,0
1522,6420003002409,新規,0,2021-11-29,2021-11-29,合同会社カイタック,,合同会社,青森県,八戸市,大字鮫町字鮫７５－５,,02,203,0310841,,,,,,,2021-11-29,1,,,,,カイタック,0
1524,6430001085446,新規,0,2021-11-29,2021-11-29,株式会社キャンパーズアンドアングラーズ,,株式会社,北海道,札幌市東区,北十条東１丁目１番１１号,,01,103,0650010,,,,,,,2021-11-29,1,,,,,キャンパーズアンドアングラーズ,0
1525,6430001085454,新規,0,2021-11-29,2021-11-29,株式会社ワークスワーク,,株式会社,北海道,札幌市白石区,本通３丁目北２－９本通北３ビル１Ｆ,,01,104,0030027,,,,,,,2021-11-29,1,,,,,ワークスワーク,0
1527,6430003013405,新規,0,2021-11-29,2021-11-29,合同会社ＯＭＭ,,合同会社,北海道,札幌市白石区,菊水九条４丁目１－７－４０３,,01,104,0030809,,,,,,,2021-11-29,1,,,,,オーエムエム,0
1530,6450001013537,新規,0,2021-11-29,2021-11-29,株式会社ｙｏｒｉｍｉｃｈｉ,,株式会社,北海道,旭川市,東光一条２丁目１番８号,,01,204,0788341,,,,,,,2021-11-29,1,,,,,ヨリミチ,0
1531,6462501000914,新規,0,2021-11-29,2021-11-29,株式会社粋な搾り屋,,株式会社,北海道,野付郡別海町,中西別６３番地３２,,01,691,0860345,,,,,,,2021-11-29,1,,,,,イキナシボリヤ,0
1544,7010001222899,新規,0,2021-11-29,2021-11-29,株式会社サクト・アドバイザリー,,株式会社,東京都,中央区,銀座１丁目２２番１１号銀座大竹ビジデンス２階,,13,102,1040061,,,,,,,2021-11-29,1,,,,,サクトアドバイザリー,0
1546,7010003036422,新規,0,2021-11-29,2021-11-29,合同会社ＭｏｂｉｌｅＢａｎｋ,,合同会社,東京都,文京区,小石川５丁目３９－２ライオンズマンション小石川第３、２０１室,,13,105,1120002,,,,,,,2021-11-29,1,,,,,モバイルバンク,0
1555,7010401164031,新規,0,2021-11-29,2021-11-29,株式会社清源,,株式会社,東京都,港区,西麻布３丁目１３番１５号ケイプラザＢ２,,13,103,1060031,,,,,,,2021-11-29,1,,,,,セイゲン,0
1565,7010703006014,新規,0,2021-11-29,2021-11-29,Ｇｙ－ａｒｍ合同会社,,合同会社,東京都,品川区,大井３丁目１８－１７シェトワ大井４０８,,13,109,1400014,,,,,,,2021-11-29,1,,,,,ジーアーム,0
1578,7011001144142,新規,0,2021-11-29,2021-11-29,株式会社ｍｏ’ｉｎｃ,,株式会社,東京都,渋谷区,初台１丁目４４番１０号,,13,113,1510061,,,,,,,2021-11-29,1,,,,,エムオーインク,0
1579,7011001144167,新規,0,2021-11-29,2021-11-29,株式会社ＬｉｋｅＶｉｄｅｏ,,株式会社,東京都,渋谷区,神宮前６丁目２９－４ＫＯＭＩＹＡビル６Ｆ,,13,113,1500001,,,,,,,2021-11-29,1,,,,,ライクビデオ,0
1580,7011001144175,新規,0,2021-11-29,2021-11-29,株式会社デメテル,,株式会社,東京都,渋谷区,渋谷２丁目１９－１５宮益坂ビルディング６０９,,13,113,1500002,,,,,,,2021-11-29,1,,,,,デメテル,0
1581,7011001144183,新規,0,2021-11-29,2021-11-29,株式会社浮舟,,株式会社,東京都,渋谷区,渋谷１丁目１７番６号ザ・パークハウス渋谷美竹１２０６,,13,113,1500002,,,,,,,2021-11-29,1,,,,,ウキフネ,0
1582,7011001144209,新規,0,2021-11-29,2021-11-29,ＢＩＫＥ株式会社,,株式会社,東京都,渋谷区,上原１丁目３３番３号スターステージ１０１,,13,113,1510064,,,,,,,2021-11-29,1,,,,,バイク,0
1583,7011001144299,新規,0,2021-11-29,2021-11-29,株式会社トマリギ,,株式会社,東京都,渋谷区,恵比寿３丁目３６番１３号,,13,113,1500013,,,,,,,2021-11-29,1,,,,,トマリギ,0
1585,7011003013766,新規,0,2021-11-29,2021-11-29,合同会社ｈｙｏｇｅｎ,,合同会社,東京都,渋谷区,千駄ヶ谷３丁目３０番９モデリアブリュット北参道２０４,,13,113,1510051,,,,,,,2021-11-29,1,,,,,ヒョーゲン,0
1586,7011003013774,新規,0,2021-11-29,2021-11-29,Ｂｌｅｕ合同会社,,合同会社,東京都,渋谷区,渋谷２丁目１９－１５宮益坂ビルディング６０９,,13,113,1500002,,,,,,,2021-11-29,1,,,,,ブリュー,0
1594,7011101097034,新規,0,2021-11-29,2021-11-29,株式会社ＤＲＥＷ　ＯＮＥ,,株式会社,東京都,新宿区,西新宿３丁目３番１３号６Ｆ,,13,104,1600023,,,,,,,2021-11-29,1,,,,,ドリューワン,0
1599,7011301027344,新規,0,2021-11-29,2021-11-29,株式会社ＲＯＭＡＮＣＥ　ＤＡＷＮ,,株式会社,東京都,杉並区,方南１丁目１３番８号,,13,115,1680062,,,,,,,2021-11-29,1,,,,,ロマンスドーン,0
1610,7012401038594,新規,0,2021-11-29,2021-11-29,株式会社Ｋ．ＨＡＮＤＳ．ＪＡＰＡＮ,,株式会社,東京都,稲城市,平尾１丁目３２番地の１９馬場ハイツ３０１号,,13,225,2060823,,,,,,,2021-11-29,1,,,,,ケーハンズジャパン,0
1632,7030001145561,新規,0,2021-11-29,2021-11-29,株式会社ティージーサイバーテックジャパン,,株式会社,埼玉県,さいたま市中央区,大戸５丁目２４番１２号,,11,105,3380012,,,,,,,2021-11-29,1,,,,,ティージーサイバーテックジャパン,0
1642,7040001121132,新規,0,2021-11-29,2021-11-29,株式会社ｃｈｏｃｏｎｔｅ,,株式会社,千葉県,千葉市中央区,登戸１丁目１１番２０号プラネットイン１階,,12,101,2600032,,,,,,,2021-11-29,1,,,,,チョコンテ,0
1643,7040001121165,新規,0,2021-11-29,2021-11-29,ライフサークル株式会社,,株式会社,千葉県,市川市,湊新田１丁目６番１０－３０３号,,12,203,2720132,,,,,,,2021-11-29,1,,,,,ライフサークル,0
1644,7040001121173,新規,0,2021-11-29,2021-11-29,１０４Ｆａｃｔｏｒｙ株式会社,,株式会社,千葉県,香取市,府馬３５００番地２,,12,236,2890411,,,,,,,2021-11-29,1,,,,,イチマルヨンファクトリー,0
1650,7040003019003,新規,0,2021-11-29,2021-11-29,合同会社ＮＥＯＮＯＳＵＫＥ,,合同会社,千葉県,浦安市,堀江１丁目１１番１－４０２号,,12,227,2790041,,,,,,,2021-11-29,1,,,,,ネオノスケ,0
1651,7040003019011,新規,0,2021-11-29,2021-11-29,ＭＡＭ合同会社,,合同会社,千葉県,松戸市,旭町４丁目１１４１番地の３,,12,207,2710043,,,,,,,2021-11-29,1,,,,,マム,0
1654,7050001050207,新規,0,2021-11-29,2021-11-29,株式会社エムケイワークス,,株式会社,茨城県,牛久市,上柏三丁目７０番地２,,08,219,3001200,,,,,,,2021-11-29,1,,,,,エムケイワークス,0
1657,7070001038695,新規,0,2021-11-29,2021-11-29,トップエージェント株式会社,,株式会社,群馬県,藤岡市,中９８７番地１フジビルヂング２０１,,10,209,3750005,,,,,,,2021-11-29,1,,,,,トップエージェント,0
1664,7080103002466,新規,0,2021-11-29,2021-11-29,ＪＢ　ＣＲＥＡＴＩＯＮＳ合同会社,,合同会社,静岡県,富士宮市,杉田１１３０－１トップビル２階,,22,207,4180021,,,,,,,2021-11-29,1,,,,,ジェービークリエイションズ,0
1670,7080403004419,新規,0,2021-11-29,2021-11-29,合同会社ゴロンドリーナ,,合同会社,静岡県,浜松市東区,植松町５－４トップメゾンれい３０２号室,,22,132,4300803,,,,,,,2021-11-29,1,,,,,ゴロンドリーナ,0
1671,7090001017292,新規,0,2021-11-29,2021-11-29,株式会社甲斐総合自動車,,株式会社,山梨県,甲斐市,西八幡２３０２番地５,,19,210,4000117,,,,,,,2021-11-29,1,,,,,カイソウゴウジドウシャ,0
1675,7100003006300,新規,0,2021-11-29,2021-11-29,合同会社八幡屋ドマニ,,合同会社,長野県,上田市,菅平高原１２２３番地,,20,203,3862204,,,,,,,2021-11-29,1,,,,,ヤワタヤドマニ,0
1695,7120001242110,新規,0,2021-11-29,2021-11-29,株式会社Ａｃｅ,,株式会社,大阪府,大阪市中央区,南船場３丁目２番２２号おおきに南船場ビル７０１,,27,128,5420081,,,,,,,2021-11-29,1,,,,,エース,0
1696,7120001242119,新規,0,2021-11-29,2021-11-29,株式会社エコ－ＪＯＳＡＫＡ,,株式会社,大阪府,大阪市北区,西天満５丁目１番９号大和地所南森町４階,,27,127,5300047,,,,,,,2021-11-29,1,,,,,エコジェイオオサカ,0
1699,7120003020679,新規,0,2021-11-29,2021-11-29,ヒトツカタ合同会社,,合同会社,大阪府,寝屋川市,小路北町２９番４１号,,27,215,5720865,,,,,,,2021-11-29,1,,,,,ヒトツカタ,0
1700,7120005022632,新規,0,2021-11-29,2021-11-29,一般社団法人あそび舎あかねこ,,その他の設立登記法人,大阪府,大阪市平野区,長吉長原４丁目１６番３号,,27,126,5470016,,,,,,,2021-11-29,1,,,,,アソビヤアカネコ,0
1703,7120101064710,新規,0,2021-11-29,2021-11-29,株式会社ジャック,,株式会社,大阪府,泉南郡岬町,淡輪１２７７番地,,27,366,5990301,,,,,,,2021-11-29,1,,,,,ジャック,0
1717,7140001123779,新規,0,2021-11-29,2021-11-29,株式会社Ｎｉｈｏｎｍｏｔｏ,,株式会社,兵庫県,神戸市中央区,熊内町４丁目８番１６号メゾン布引３０５号,,28,110,6510056,,,,,,,2021-11-29,1,,,,,ニホンモト,0
1718,7140001123977,新規,0,2021-11-29,2021-11-29,株式会社マツバラ電気,,株式会社,兵庫県,加古郡稲美町,六分一１２０９番地２７５,,28,381,6751112,,,,,,,2021-11-29,1,,,,,マツバラデンキ,0
1719,7140001123985,新規,0,2021-11-29,2021-11-29,株式会社ｔａｃｓ,,株式会社,兵庫県,神戸市北区,鹿の子台北町７丁目６番５号,,28,109,6511513,,,,,,,2021-11-29,1,,,,,タックス,0
1723,7140003017038,新規,0,2021-11-29,2021-11-29,合同会社フロンティア,,合同会社,兵庫県,神戸市中央区,再度筋町１１番２２号,,28,110,6500005,,,,,,,2021-11-29,1,,,,,フロンティア,0
1727,7160001023837,新規,0,2021-11-29,2021-11-29,株式会社クリーンワン,,株式会社,滋賀県,大津市,仰木の里６丁目２番２１号,,25,201,5200246,,,,,,,2021-11-29,1,,,,,クリーンワン,0
1740,7180001148888,新規,0,2021-11-29,2021-11-29,株式会社ｔａｓｋ,,株式会社,愛知県,一宮市,浅野字大西７１番地２,,23,203,4910871,,,,,,,2021-11-29,1,,,,,タスク,0
1741,7180001148896,新規,0,2021-11-29,2021-11-29,Ｂａｙｓｉｄｅ　Ｈｉｌｌｓ　Ｃｏｆｆｅｅ　Ｊａｐａｎ株式会社,,株式会社,愛知県,名古屋市西区,那古野２丁目１４－１なごのキャンパス,,23,104,4510042,,,,,,,2021-11-29,1,,,,,ベイサイドヒルズコーヒージャパン,0
1742,7180001148905,新規,0,2021-11-29,2021-11-29,ＦＡパートナー株式会社,,株式会社,愛知県,名古屋市中区,錦３丁目１９番１７号,,23,106,4600003,,,,,,,2021-11-29,1,,,,,エフエーパートナー,0
1743,7180001148913,新規,0,2021-11-29,2021-11-29,ＰＩＡＭ株式会社,,株式会社,愛知県,長久手市,蟹原１９０１番地,,23,238,4801142,,,,,,,2021-11-29,1,,,,,ピーアイエーエム,0
1745,7180003023230,新規,0,2021-11-29,2021-11-29,合同会社アルバトロス,,合同会社,愛知県,岩倉市,本町畑中１４番地１,,23,228,4820043,,,,,,,2021-11-29,1,,,,,アルバトロス,0
1746,7180003023239,新規,0,2021-11-29,2021-11-29,ジオエイト合同会社,,合同会社,愛知県,尾張旭市,南本地ケ原町１丁目８５番地５,,23,226,4880044,,,,,,,2021-11-29,1,,,,,ジオエイト,0
1758,7220001024564,新規,0,2021-11-29,2021-11-29,株式会社レインフォースネット,,株式会社,石川県,白山市,八田町１０６５番地８,,17,210,9240001,,,,,,,2021-11-29,1,,,,,レインフォースネット,0
1778,7290001095574,新規,0,2021-11-29,2021-11-29,サンエステート株式会社,,株式会社,福岡県,福岡市中央区,平和３丁目１８番１号,,40,133,8100016,,,,,,,2021-11-29,1,,,,,サンエステート,0
1781,7290003011810,新規,0,2021-11-29,2021-11-29,プロテックジャパン合同会社,,合同会社,福岡県,福岡市早良区,百道浜１丁目５番２－８０２号,,40,137,8140001,,,,,,,2021-11-29,1,,,,,プロテックジャパン,0
1788,7330001029230,新規,0,2021-11-29,2021-11-29,株式会社ポパイ熊本,,株式会社,熊本県,宇土市,三拾町４１２番地８,,43,211,8690406,,,,,,,2021-11-29,1,,,,,ポパイクマモト,0
1791,7360001029673,新規,0,2021-11-29,2021-11-29,株式会社紫光資材,,株式会社,沖縄県,那覇市,若狭１丁目２０－２０金城共同住宅２Ｆ,,47,201,9000031,,,,,,,2021-11-29,1,,,,,シコウシザイ,0
1794,7370001047872,新規,0,2021-11-29,2021-11-29,株式会社一建,,株式会社,宮城県,仙台市太白区,八木山東１丁目９番２０号,,04,104,9820802,,,,,,,2021-11-29,1,,,,,イチケン,0
1795,7370001047880,新規,0,2021-11-29,2021-11-29,株式会社ＤＣ．ＣＲＡＦＴ,,株式会社,宮城県,黒川郡大和町,吉岡字車堰９０番地,,04,421,9813621,,,,,,,2021-11-29,1,,,,,ディーシークラフト,0
1810,7430001085453,新規,0,2021-11-29,2021-11-29,株式会社マハロポノ,,株式会社,北海道,札幌市北区,新琴似十一条１１丁目２番１８号,,01,102,0010911,,,,,,,2021-11-29,1,,,,,マハロポノ,0
1811,7430001085461,新規,0,2021-11-29,2021-11-29,ネクストワン株式会社,,株式会社,北海道,札幌市中央区,南一条西５丁目１６番地プレジデント松井ビル１００　７０１Ａ,,01,101,0600061,,,,,,,2021-11-29,1,,,,,ネクストワン,0
1817,7700150104952,新規,0,2021-11-29,2021-10-04,劇団新人会,,その他,東京都,中野区,本町３丁目２０－１２第２ソイビーンハウス１０４,,13,114,1640012,,,,,,,2021-10-04,1,,,,,ゲキダンシンジンカイ,0
1825,8010001222642,新規,0,2021-11-29,2021-11-29,株式会社Ｍａｎａｇｅｔｅｃｈ,,株式会社,東京都,中央区,銀座１丁目２２番１１号銀座大竹ビジデンス２Ｆ,,13,102,1040061,,,,,,,2021-11-29,1,,,,,マネージテック,0
1826,8010001222790,新規,0,2021-11-29,2021-11-29,株式会社Ｗｉｔｈ　Ｐａｗ,,株式会社,東京都,千代田区,九段北４丁目１番３５号,,13,101,1020073,,,,,,,2021-11-29,1,,,,,ウィズパウ,0
1827,8010001222799,新規,0,2021-11-29,2021-11-29,株式会社Ｌｕｌｕ　Ｓｐａｃｅｓ,,株式会社,東京都,千代田区,九段南１丁目５番６号,,13,101,1020074,,,,,,,2021-11-29,1,,,,,ルルスペーシズ,0
1832,8010103001820,新規,0,2021-11-29,2021-11-29,ＭＩＮＨ　ＩＮＴＥＲＮＡＴＩＯＮＡＬ合同会社,,合同会社,東京都,八王子市,八日町６番４,,13,201,1920071,,,,,,,2021-11-29,1,,,,,ミンインターナショナル,0
1839,8010401164105,新規,0,2021-11-29,2021-11-29,株式会社モンタナムース,,株式会社,東京都,港区,高輪２丁目１番５１号８Ｂ,,13,103,1080074,,,,,,,2021-11-29,1,,,,,モンタナムース,0
1841,8010403026609,新規,0,2021-11-29,2021-11-29,合同会社ビューティセレクション,,合同会社,東京都,港区,麻布十番１丁目３番５号クレイン麻布３０２,,13,103,1060045,,,,,,,2021-11-29,1,,,,,ビューティセレクション,0
1845,8010701041838,新規,0,2021-11-29,2021-11-29,ＳＹＧＨＴ　Ｊａｐａｎ株式会社,,株式会社,東京都,品川区,上大崎２丁目１３番２２－１２０２号,,13,109,1410021,,,,,,,2021-11-29,1,,,,,エスワイジーエイチティ,0
1861,8011001144141,新規,0,2021-11-29,2021-11-29,株式会社あざますラボ,,株式会社,東京都,渋谷区,恵比寿西２丁目２０番８－２０９号,,13,113,1500021,,,,,,,2021-11-29,1,,,,,アザマスラボ,0
1862,8011001144158,新規,0,2021-11-29,2021-11-29,株式会社ＧｒｏｗｔｈＢｒｉｄｇｅ,,株式会社,東京都,渋谷区,神宮前６丁目２３番４号桑野ビル２階,,13,113,1500001,,,,,,,2021-11-29,1,,,,,グロースブリッジ,0
1863,8011001144232,新規,0,2021-11-29,2021-11-29,株式会社ＡＳＴ,,株式会社,東京都,渋谷区,渋谷１丁目８番５号,,13,113,1500002,,,,,,,2021-11-29,1,,,,,エーエスティー,0
1865,8011005009316,新規,0,2021-11-29,2021-11-29,一般社団法人ボディケアトレーナー協会,,その他の設立登記法人,東京都,渋谷区,本町３丁目１３番１２号渋谷本町ビル２階,,13,113,1510071,,,,,,,2021-11-29,1,,,,,ボディケアトレーナーキョウカイ,0
1867,8011101097025,新規,0,2021-11-29,2021-11-29,瑞遠株式会社,,株式会社,東京都,新宿区,百人町２丁目１２番５号寺岡ビル１０２,,13,104,1690073,,,,,,,2021-11-29,1,,,,,ズイエン,0
1869,8011103011223,新規,0,2021-11-29,2021-11-29,合同会社デジタリアン,,合同会社,東京都,新宿区,新宿３丁目１２番４号新宿Ｎタウンプラザ３０９号,,13,104,1600022,,,,,,,2021-11-29,1,,,,,デジタリアン,0
1872,8011203003707,新規,0,2021-11-29,2021-11-29,合同会社シンシア・プラネット,,合同会社,東京都,中野区,弥生町１丁目２８番３号セイユーコーポ２０２,,13,114,1640013,,,,,,,2021-11-29,1,,,,,シンシアプラネット,0
1875,8011303004233,新規,0,2021-11-29,2021-11-29,合同会社ロコヘルス,,合同会社,東京都,杉並区,西荻北４丁目１３番１１－１号,,13,115,1670042,,,,,,,2021-11-29,1,,,,,ロコヘルス,0
1879,8011501027515,新規,0,2021-11-29,2021-11-29,株式会社奕,,株式会社,東京都,北区,浮間１丁目１番１４号リムジンビル,,13,117,1150051,,,,,,,2021-11-29,1,,,,,エキ,0
1880,8011601025567,新規,0,2021-11-29,2021-11-29,株式会社緑彩園,,株式会社,東京都,練馬区,豊玉南１丁目１３番２号ライフピアモナーク２０１,,13,120,1760014,,,,,,,2021-11-29,1,,,,,リョクサイエン,0
1881,8011603003455,新規,0,2021-11-29,2021-11-29,サワ管理合同会社,,合同会社,東京都,練馬区,北町３丁目９番１１号,,13,120,1790081,,,,,,,2021-11-29,1,,,,,サワカンリ,0
1882,8011605002414,新規,0,2021-11-29,2021-11-29,一般社団法人保健師による親子ヘルス＆サポート推進協会,,その他の設立登記法人,東京都,練馬区,豊玉北５丁目１７番４号,,13,120,1760012,,,,,,,2021-11-29,1,,,,,ホケンシニヨルオヤコヘルスアンドサポートスイシンキョウカイ,0
1895,8012401038585,新規,0,2021-11-29,2021-11-29,株式会社山内工務店,,株式会社,東京都,調布市,上石原３丁目３３番地２６,,13,208,1820035,,,,,,,2021-11-29,1,,,,,ヤマウチコウムテン,0
1898,8012701016794,新規,0,2021-11-29,2021-11-29,株式会社ＫＪＭ,,株式会社,東京都,清瀬市,中清戸２丁目６３６番地８５,,13,221,2040012,,,,,,,2021-11-29,1,,,,,ケイジェイエム,0
1908,8020001144092,新規,0,2021-11-29,2021-11-29,株式会社まるふみ,,株式会社,神奈川県,横浜市港北区,新吉田東１丁目７６番１５号,,14,109,2230058,,,,,,,2021-11-29,1,,,,,マルフミ,0
1912,8021001074602,新規,0,2021-11-29,2021-11-29,株式会社六向ハウジング,,株式会社,神奈川県,愛甲郡愛川町,田代６０２番地の１,,14,401,2430306,,,,,,,2021-11-29,1,,,,,ロッコウハウジング,0
1921,8030001145478,新規,0,2021-11-29,2021-11-29,Ｋグローバル株式会社,,株式会社,埼玉県,川口市,大字木曽呂１０４０,,11,203,3330831,,,,,,,2021-11-29,1,,,,,ケイグローバル,0
1922,8030001145569,新規,0,2021-11-29,2021-11-29,株式会社スターオジョ,,株式会社,埼玉県,川口市,戸塚東２丁目１２番８号窪内マンション３０１号,,11,203,3330802,,,,,,,2021-11-29,1,,,,,スターオジョ,0
1927,8030003018392,新規,0,2021-11-29,2021-11-29,合同会社クリエイティブゴールド,,合同会社,埼玉県,さいたま市北区,奈良町３５番地１３コーポ田熊２０１,,11,102,3310822,,,,,,,2021-11-29,1,,,,,クリエイティブゴールド,0
1942,8040001121164,新規,0,2021-11-29,2021-11-29,株式会社創造建設,,株式会社,千葉県,東金市,堀上１４７－３,,12,213,2830063,,,,,,,2021-11-29,1,,,,,ソウゾウケンセツ,0
1943,8040001121180,新規,0,2021-11-29,2021-11-29,株式会社Ｋａｎｏａ,,株式会社,千葉県,柏市,亀甲台町２丁目１２番１３号アミコートソレイユ１０５,,12,217,2770031,,,,,,,2021-11-29,1,,,,,カノア,0
1947,8040005021443,新規,0,2021-11-29,2021-11-29,一般社団法人ネパール先住民族日本連盟,,その他の設立登記法人,千葉県,船橋市,宮本６丁目３５番１３号武藤ハイツ１０２号,,12,204,2730003,,,,,,,2021-11-29,1,,,,,ネパールセンジュウミンゾクニホンレンメイ,0
1951,8050005012978,新規,0,2021-11-29,2021-11-29,一般社団法人つなぐ,,その他の設立登記法人,茨城県,水戸市,南町３丁目２番３７号,,08,201,3100021,,,,,,,2021-11-29,1,,,,,ツナグ,0
1956,8060003003879,新規,0,2021-11-29,2021-11-29,合同会社のらくら凛,,合同会社,栃木県,塩谷郡塩谷町,大字風見山田４２４番地３,,09,384,3292338,,,,,,,2021-11-29,1,,,,,ノラクラリン,0
1983,8120001242019,新規,0,2021-11-29,2021-11-29,ＫＡＷ株式会社,,株式会社,大阪府,大阪市中央区,高津１丁目８番地１２号ユーロハイツ高津４０４号室,,27,128,5420072,,,,,,,2021-11-29,1,,,,,カウ,0
1984,8120001242118,新規,0,2021-11-29,2021-11-29,株式会社クローバーワーク,,株式会社,大阪府,枚方市,伊加賀西町３９番２６号,,27,210,5730066,,,,,,,2021-11-29,1,,,,,クローバーワーク,0
1987,8120005022581,新規,0,2021-11-29,2021-11-29,一般社団法人カフェのある暮らし協会,,その他の設立登記法人,大阪府,大阪市北区,豊崎２丁目４番１０号,,27,127,5310072,,,,,,,2021-11-29,1,,,,,カフェノアルクラシキョウカイ,0
1988,8120005022631,新規,0,2021-11-29,2021-11-29,一般社団法人こころのいしずえ,,その他の設立登記法人,大阪府,大阪市東成区,大今里西１丁目１７番１５－５０２号,,27,115,5370014,,,,,,,2021-11-29,1,,,,,ココロノイシズエ,0
1996,8120903003922,新規,0,2021-11-29,2021-11-29,合同会社ＥＡＲＴＨ,,合同会社,大阪府,豊中市,東豊中町４丁目１番４５－３１７号,,27,203,5600003,,,,,,,2021-11-29,1,,,,,アース,0
1999,8122001035385,新規,0,2021-11-29,2021-11-29,株式会社ｅｔｏｌｅ,,株式会社,大阪府,八尾市,龍華町１丁目２番１－９０７号,,27,212,5810069,,,,,,,2021-11-29,1,,,,,エトレ,0
2015,8140001123976,新規,0,2021-11-29,2021-11-29,ＲＫ　ｆｏｒｍ株式会社,,株式会社,兵庫県,神戸市垂水区,清水が丘１丁目２１－２２,,28,108,6550031,,,,,,,2021-11-29,1,,,,,アールケイフォーム,0
2016,8140001123984,新規,0,2021-11-29,2021-11-29,智世興産株式会社,,株式会社,兵庫県,加古川市,平岡町土山１２１６番地１,,28,210,6750104,,,,,,,2021-11-29,1,,,,,チセイコウサン,0
2017,8140001123992,新規,0,2021-11-29,2021-11-29,株式会社ユニークインターナショナル,,株式会社,兵庫県,神戸市中央区,筒井町３丁目１８番１３号,,28,110,6510071,,,,,,,2021-11-29,1,,,,,ユニークインターナショナル,0
2018,8140001124000,新規,0,2021-11-29,2021-11-29,株式会社甚左衛門,,株式会社,兵庫県,芦屋市,川西町２－３７芦屋サウザンドビル２０２号室,00124985,28,206,6590072,,,,,,,2021-11-29,1,,,,,ジンザエモン,0
2019,8140001124017,新規,0,2021-11-29,2021-11-29,株式会社万葉舎,,株式会社,兵庫県,姫路市,紺屋町２０番地藤野ビル６０１号,,28,201,6700924,,,,,,,2021-11-29,1,,,,,マンヨウシャ,0
2021,8140003017037,新規,0,2021-11-29,2021-11-29,合同会社華可,,合同会社,兵庫県,三木市,吉川町田谷２６０番地,,28,215,6731125,,,,,,,2021-11-29,1,,,,,ハナカ,0
2030,8180001148838,新規,0,2021-11-29,2021-11-29,トラスト株式会社,,株式会社,愛知県,名古屋市千種区,千種通７丁目１０１番地,,23,101,4640855,,,,,,,2021-11-29,1,,,,,トラスト,0
2031,8180001148870,新規,0,2021-11-29,2021-11-29,株式会社創彩,,株式会社,愛知県,名古屋市北区,憧旛町３丁目２１番地の５,,23,103,4620868,,,,,,,2021-11-29,1,,,,,ソア,0
2032,8180001148904,新規,0,2021-11-29,2021-11-29,株式会社ココプランニング,,株式会社,愛知県,名古屋市千種区,千代田橋２丁目７番２号,,23,101,4640011,,,,,,,2021-11-29,1,,,,,ココプランニング,0
2033,8180001148920,新規,0,2021-11-29,2021-11-29,株式会社ライフベンダー,,株式会社,愛知県,名古屋市瑞穂区,関取町６０番地タウニ―関取２０２号室,,23,108,4670058,,,,,,,2021-11-29,1,,,,,ライフベンダー,0
2035,8180003023238,新規,0,2021-11-29,2021-11-29,合同会社Ｍクリエイト,,合同会社,愛知県,津島市,城山町３丁目１１４番地,,23,208,4960862,,,,,,,2021-11-29,1,,,,,エムクリエイト,0
2040,8180005019531,新規,0,2021-11-29,2021-11-29,一般社団法人オールジャパンベースボールリーグ,,その他の設立登記法人,愛知県,名古屋市名東区,朝日が丘１番地４,,23,115,4650041,,,,,,,2021-11-29,1,,,,,オールジャパンベースボールリーグ,0
2049,8200001039456,新規,0,2021-11-29,2021-11-29,株式会社ＮＴマシナリー,,株式会社,岐阜県,海津市,南濃町境１８７番地１０,,21,221,5030534,,,,,,,2021-11-29,1,,,,,エヌティーマシナリー,0
2070,8290801028030,新規,0,2021-11-29,2021-11-29,株式会社ルーク,,株式会社,福岡県,田川郡香春町,大字高野１０１８番地８,,40,601,8221403,,,,,,,2021-11-29,1,,,,,ルーク,0
2071,8300001012725,新規,0,2021-11-29,2021-11-29,株式会社富士設備工務店,,株式会社,佐賀県,佐賀市,富士町大字上熊川１２５番地,,41,201,8400512,,,,,,,2021-11-29,1,,,,,フジセツビコウムテン,0
2077,8320001018745,新規,0,2021-11-29,2021-11-29,コンティニュー株式会社,,株式会社,大分県,中津市,大字犬丸１２４５番地の３,,44,203,8790105,,,,,,,2021-11-29,1,,,,,コンティニュー,0
2078,8320001018753,新規,0,2021-11-29,2021-11-29,株式会社トワライツ,,株式会社,大分県,大分市,日岡１丁目９番２０号,,44,201,8700914,,,,,,,2021-11-29,1,,,,,トワライツ,0
2086,8340001024295,新規,0,2021-11-29,2021-11-29,丸善工業株式会社,,株式会社,鹿児島県,日置市,伊集院町麦生田４６９番地１,,46,216,8992513,,,,,,,2021-11-29,1,,,,,マルゼンコウギョウ,0
2087,8360001029689,新規,0,2021-11-29,2021-11-29,株式会社ＭＫ沖縄アセットマネージメント,,株式会社,沖縄県,宮古島市,平良字西里２７番地,,47,214,9060012,,,,,,,2021-11-29,1,,,,,エムケーオキナワアセットマネージメント,0
2097,8390001016692,新規,0,2021-11-29,2021-11-29,株式会社ネクイス,,株式会社,山形県,米沢市,大字川井４８８９番地の２１,,06,202,9920117,,,,,,,2021-11-29,1,,,,,ネクイス,0
2105,8460101007089,新規,0,2021-11-29,2021-11-29,株式会社十牛,,株式会社,北海道,帯広市,西三条南１７丁目２番地１,,01,207,0800013,,,,,,,2021-11-29,1,,,,,ジュウギュウ,0
2129,9010001222724,新規,0,2021-11-29,2021-11-29,ＮｉｎｅＬｕｘ株式会社,,株式会社,東京都,千代田区,神田松永町１３番地ＶＯＲＴ秋葉原ＩＩ,00124983,13,101,1010023,,,,,,,2021-11-29,1,,,,,ナインルクス,0
2130,9010001222848,新規,0,2021-11-29,2021-11-29,株式会社ＮＥＷ　ＪＡＰＡＮ,,株式会社,東京都,中央区,銀座７丁目１３番６号サガミビル２Ｆ,,13,102,1040061,,,,,,,2021-11-29,1,,,,,ニュージャパン,0
2131,9010001222872,新規,0,2021-11-29,2021-11-29,Ｏｉ＆Ｔａｓ株式会社,,株式会社,東京都,中央区,日本橋３丁目２番１４号,,13,102,1030027,,,,,,,2021-11-29,1,,,,,オイアンドタス,0
2136,9010003036420,新規,0,2021-11-29,2021-11-29,ＭＭＣＣ合同会社,,合同会社,東京都,中央区,日本橋兜町１７番２号兜町第６葉山ビル４階,,13,102,1030026,,,,,,,2021-11-29,1,,,,,エムエムシーシー,0
2138,9010005034257,新規,0,2021-11-29,2021-11-29,一般社団法人日本探査協会,,その他の設立登記法人,東京都,千代田区,内幸町１丁目５番２号,,13,101,1000011,,,,,,,2021-11-29,1,,,,,ニホンタンサキョウカイ,0
2153,9010701041829,新規,0,2021-11-29,2021-11-29,株式会社シンワバネス・ホールディングス,,株式会社,東京都,品川区,西五反田７丁目２５番５号,,13,109,1410031,,,,,,,2021-11-29,1,,,,,シンワバネスホールディングス,0
2158,9010901049878,新規,0,2021-11-29,2021-11-29,ＤＡＹ　ＯＮＥ　ＩＮＮＯＶＡＴＩＯＮ株式会社,,株式会社,東京都,世田谷区,深沢８丁目１０番４号,,13,112,1580081,,,,,,,2021-11-29,1,,,,,デイワンイノベーション,0
2168,9011001144074,新規,0,2021-11-29,2021-11-29,株式会社ジャムプランニング,,株式会社,東京都,目黒区,三田２丁目７番６号目黒フラット２０３号,,13,110,1530062,,,,,,,2021-11-29,1,,,,,,0
2169,9011001144140,新規,0,2021-11-29,2021-11-29,株式会社バディホールディングス,,株式会社,東京都,渋谷区,神泉町１１番８号カネヨシビル４Ｆ,,13,113,1500045,,,,,,,2021-11-29,1,,,,,バディホールディングス,0
2170,9011001144215,新規,0,2021-11-29,2021-11-29,株式会社ＣＡ無人店舗,,株式会社,東京都,渋谷区,渋谷２丁目２４番１２号,,13,113,1500002,,,,,,,2021-11-29,1,,,,,シーエームジンテンポ,0
2171,9011001144272,新規,0,2021-11-29,2021-11-29,株式会社サクセス,,株式会社,東京都,渋谷区,神宮前４丁目２６－２８原宿Ｖ２ビル２Ｆ,,13,113,1500001,,,,,,,2021-11-29,1,,,,,サクセス,0
2172,9011001144280,新規,0,2021-11-29,2021-11-29,株式会社イノウエホールディングス,,株式会社,東京都,目黒区,緑が丘２丁目２２番１７号,,13,110,1520034,,,,,,,2021-11-29,1,,,,,イノウエホールディングス,0
2176,9011003013789,新規,0,2021-11-29,2021-11-29,合同会社ＡＭｕ　ＤＥＳＩＧＮ,,合同会社,東京都,渋谷区,神宮前６丁目２３番４号桑野ビル２階,,13,113,1500001,,,,,,,2021-11-29,1,,,,,アムデザイン,0
2177,9011005009315,新規,0,2021-11-29,2021-11-29,一般社団法人自在研究社,,その他の設立登記法人,東京都,渋谷区,代々木１丁目５９番１号オーハシビル６階,,13,113,1510053,,,,,,,2021-11-29,1,,,,,ジザイケンキュウシャ,0
2181,9011101097040,新規,0,2021-11-29,2021-11-29,東都株式会社,,株式会社,東京都,新宿区,西新宿７丁目５番６号新宿ダイカンプラザ７５６－１１０３号,,13,104,1600023,,,,,,,2021-11-29,1,,,,,トウト,0
2183,9011501027514,新規,0,2021-11-29,2021-11-29,万海株式会社,,株式会社,東京都,北区,浮間１丁目１番１４号リムジンビル３２４,,13,117,1150051,,,,,,,2021-11-29,1,,,,,マンカイ,0
2188,9011603003454,新規,0,2021-11-29,2021-11-29,合同会社ジャバ,,合同会社,東京都,練馬区,練馬２丁目３２番４号,,13,120,1760001,,,,,,,2021-11-29,1,,,,,ジャバ,0
2191,9012401038584,新規,0,2021-11-29,2021-11-29,株式会社ブローデル,,株式会社,東京都,調布市,布田２丁目１番地３ＫＳＣビル２Ｆ,,13,208,1820024,,,,,,,2021-11-29,1,,,,,ブローデル,0
2196,9013101008778,新規,0,2021-11-29,2021-11-29,株式会社テイクメディック,,株式会社,東京都,青梅市,河辺町６丁目１５－５９,,13,205,1980036,,,,,,,2021-11-29,1,,,,,テイクメディック,0
2200,9013301048343,新規,0,2021-11-29,2021-11-29,株式会社サクセス,,株式会社,東京都,豊島区,東池袋１丁目４３番１０号,,13,116,1700013,,,,,,,2021-11-29,1,,,,,サクセス,0
2202,9020001144091,新規,0,2021-11-29,2021-11-29,株式会社Ｓｈａｌｌ　ｗｅ　ｄｏｌｌ,,株式会社,神奈川県,横浜市中区,山下町２５５番地１リリファ横濱山下町２０８号室,,14,104,2310023,,,,,,,2021-11-29,1,,,,,シャルウィードール,0
2203,9020001144100,新規,0,2021-11-29,2021-11-29,株式会社オフィスさいた,,株式会社,神奈川県,横浜市金沢区,谷津町１６２番地,,14,108,2360016,,,,,,,2021-11-29,1,,,,,オフィスサイタ,0
2204,9020001144109,新規,0,2021-11-29,2021-11-29,株式会社東光,,株式会社,神奈川県,横浜市中区,山下町２０２番地東光ビル４０２,,14,104,2310023,,,,,,,2021-11-29,1,,,,,トウコウ,0
2205,9020002044555,新規,0,2021-11-29,2021-11-29,有限会社浜六材木店,,有限会社,神奈川県,横浜市中区,本牧三之谷７０番地,,14,104,2310824,,,,,,,2021-11-29,1,,,,,ハマロクザイモクテン,0
2211,9021001074601,新規,0,2021-11-29,2021-11-29,株式会社連和興業,,株式会社,神奈川県,伊勢原市,東大竹２丁目１１番地の４,,14,214,2591133,,,,,,,2021-11-29,1,,,,,レンワコウギョウ,0
2218,9030001145485,新規,0,2021-11-29,2021-11-29,株式会社ＧＴＭ,,株式会社,埼玉県,さいたま市中央区,本町西２丁目１－２９本町公園ビル１０１室,,11,105,3380004,,,,,,,2021-11-29,1,,,,,ジーティーエム,0
2226,9030003018375,新規,0,2021-11-29,2021-11-29,日本Ｊ・Ｄ合同会社,,合同会社,埼玉県,新座市,新座１丁目３番２号,,11,230,3520006,,,,,,,2021-11-29,1,,,,,ニポンジェーディー,0
2233,9040001121130,新規,0,2021-11-29,2021-11-29,株式会社オリーブ,,株式会社,千葉県,松戸市,古ケ崎４丁目３５５９番地の１,,12,207,2710068,,,,,,,2021-11-29,1,,,,,オリーブ,0
2234,9040001121163,新規,0,2021-11-29,2021-11-29,半澤工業株式会社,,株式会社,千葉県,長生郡長南町,坂本３９７１番地１,,12,427,2970122,,,,,,,2021-11-29,1,,,,,ハンザワコウギョウ,0
2240,9050003006221,新規,0,2021-11-29,2021-11-29,合同会社結,,合同会社,茨城県,鹿嶋市,大字大小志崎８１４番地１０,,08,222,3112201,,,,,,,2021-11-29,1,,,,,ユイ,0
2256,9100003006298,新規,0,2021-11-29,2021-11-29,ホシノマチテック合同会社,,合同会社,長野県,佐久市,下越２１６－１ホシノマチ団地Ｂ棟２０５,,20,217,3840414,,,,,,,2021-11-29,1,,,,,ホシノマチテック,0
2257,9110003004631,新規,0,2021-11-29,2021-11-29,合同会社山口屋,,合同会社,新潟県,加茂市,仲町３番２号,,15,209,9591351,,,,,,,2021-11-29,1,,,,,ヤマグチヤ,0
2276,9120003020677,新規,0,2021-11-29,2021-11-29,水谷商事合同会社,,合同会社,大阪府,大阪市中央区,日本橋１丁目１８番１号日本一会館３０６号,,27,128,5420073,,,,,,,2021-11-29,1,,,,,ミズタニショウジ,0
2277,9120101064709,新規,0,2021-11-29,2021-11-29,株式会社ライトアウェイ,,株式会社,大阪府,堺市南区,稲葉２丁１７９７－１,,27,145,5900156,,,,,,,2021-11-29,1,,,,,ライトアウェイ,0
2300,9140001123975,新規,0,2021-11-29,2021-11-29,株式会社ＦＩＲＳＴ　ＳＴＲＩＫＥ,,株式会社,兵庫県,尼崎市,杭瀬北新町１丁目１５番７号,,28,202,6600815,,,,,,,2021-11-29,1,,,,,ファーストストライク,0
2301,9140001123983,新規,0,2021-11-29,2021-11-29,フクイ測建株式会社,,株式会社,兵庫県,丹波市,青垣町山垣１５４７番地,,28,223,6693833,,,,,,,2021-11-29,1,,,,,フクイソッケン,0
2305,9140003017036,新規,0,2021-11-29,2021-11-29,合同会社カメリアワークス,,合同会社,兵庫県,神戸市垂水区,西舞子８丁目８番１６号,,28,108,6550048,,,,,,,2021-11-29,1,,,,,カメリアワークス,0
2309,9160001023835,新規,0,2021-11-29,2021-11-29,株式会社ＴＲＨ,,株式会社,滋賀県,近江八幡市,白鳥町４８番地５,,25,204,5230032,,,,,,,2021-11-29,1,,,,,ティーアールエイチ,0
2319,9180001148878,新規,0,2021-11-29,2021-11-29,株式会社スクエアサークルラーニング,,株式会社,愛知県,名古屋市中川区,打中２丁目１１９番地の１６,,23,110,4540927,,,,,,,2021-11-29,1,,,,,スクエアサークルラーニング,0
2320,9180001148886,新規,0,2021-11-29,2021-11-29,株式会社ツートップ,,株式会社,愛知県,稲沢市,矢合町山屋敷３３４２番地の５,,23,220,4928342,,,,,,,2021-11-29,1,,,,,ツートップ,0
2321,9180001148894,新規,0,2021-11-29,2021-11-29,株式会社ＩＣＯＲＥ,,株式会社,愛知県,名古屋市中村区,平池町４丁目６０番地の１２,,23,105,4530872,,,,,,,2021-11-29,1,,,,,イコア,0
2322,9180001148903,新規,0,2021-11-29,2021-11-29,株式会社アレン,,株式会社,愛知県,名古屋市南区,内田橋１丁目３番１９号,,23,112,4570862,,,,,,,2021-11-29,1,,,,,アレン,0
2329,9180301035669,新規,0,2021-11-29,2021-11-29,株式会社アールエクスプレス,,株式会社,愛知県,碧南市,福清水町２丁目６０番地,,23,209,4470048,,,,,,,2021-11-29,1,,,,,アールエクスプレス,0
2347,9240001058947,新規,0,2021-11-29,2021-11-29,ＪＦＢ株式会社,,株式会社,広島県,広島市中区,舟入南２丁目３番２３号,,34,101,7300847,,,,,,,2021-11-29,1,,,,,ジェイエフビー,0
2367,9300001012724,新規,0,2021-11-29,2021-11-29,株式会社くりやま農園,,株式会社,佐賀県,三養基郡上峰町,大字坊所３３７番地１カーサグリーンヒル１０１号,,41,345,8490123,,,,,,,2021-11-29,1,,,,,クリヤマノウエン,0
2373,9340001024294,新規,0,2021-11-29,2021-11-29,株式会社吉田,,株式会社,鹿児島県,鹿児島市,坂之上７丁目１３－２６クレスト吉田２０１号,,46,201,8910150,,,,,,,2021-11-29,1,,,,,ヨシダ,0
2380,9360001029696,新規,0,2021-11-29,2021-11-29,株式会社ホールディングス神谷産業,,株式会社,沖縄県,南城市,玉城字仲村渠１２５８番地１,,47,215,9010602,,,,,,,2021-11-29,1,,,,,ホールディングスカミヤサンギョウ,0
2400,9470001018853,新規,0,2021-11-29,2021-11-29,株式会社ＡＤＡ,,株式会社,香川県,木田郡三木町,大字池戸３１４８番地８,,37,341,7610701,,,,,,,2021-11-29,1,,,,,エーディーエー,0
