sequenceNumber,corporateNumber,process,correct,updateDate,changeDate,name,nameImageId,kind,prefectureName,cityName,streetNumber,addressImageId,prefectureCode,cityCode,postCode,addressOutside,addressOutsideImageId,closeDate,closeCause,successorCorporateNumber,changeCause,assignmentDate,latest,enName,enPrefectureName,enCityName,enAddressOutside,furigana,hihyoji
20,1010001222500,新規,0,2021-11-17,2021-11-17,ＪＰＡ第２２９号株式会社,,株式会社,東京都,千代田区,霞が関３丁目２番１号,,13,101,1000013,,,,,,,2021-11-17,1,,,,,ジェイピーエーダイニヒャクニジュウキュウゴウ,0
21,1010001222509,新規,0,2021-11-17,2021-11-17,ＪＰＡ第２３７号株式会社,,株式会社,東京都,千代田区,霞が関３丁目２番１号,,13,101,1000013,,,,,,,2021-11-17,1,,,,,ジェイピーエーダイニヒャクサンジュウナナゴウ,0
22,1010001222616,新規,0,2021-11-17,2021-11-17,株式会社東京ビルマネジメント,,株式会社,東京都,文京区,後楽１丁目４番１４号,,13,105,1120004,,,,,,,2021-11-17,1,,,,,トウキョウビルマネジメント,0
26,1010003036312,新規,0,2021-11-17,2021-11-17,合同会社Ｎ－Ｂｏｒｄｅｒ,,合同会社,東京都,中央区,銀座１丁目２２番１１号銀座大竹ビジデンス２階,,13,102,1040061,,,,,,,2021-11-17,1,,,,,エヌボーダー,0
27,1010003036320,新規,0,2021-11-17,2021-11-17,合同会社アノード,,合同会社,東京都,中央区,銀座１丁目１２番４号Ｎ＆ＥＢＬＤ．７階,,13,102,1040061,,,,,,,2021-11-17,1,,,,,アノード,0
28,1010005034215,新規,0,2021-11-17,2021-11-17,一般社団法人日本警備業協会,,その他の設立登記法人,東京都,千代田区,神田淡路町１丁目１番地神田クレストビル３０１,,13,101,1010063,,,,,,,2021-11-17,1,,,,,ニホンケイビギョウキョウカイ,0
29,1010005034223,新規,0,2021-11-17,2021-11-17,一般社団法人次世代ＲＰＡ・ＡＩコンソーシアム,,その他の設立登記法人,東京都,千代田区,大手町１丁目６番１号大手町ビル２階,,13,101,1000004,,,,,,,2021-11-17,1,,,,,ジセダイアールピーエーエーアイコンソーシアム,0
31,1010101014962,新規,0,2021-11-17,2021-11-17,株式会社サポリッチ,,株式会社,東京都,八王子市,台町４丁目４４－１３パレドール西八王子,,13,201,1930931,,,,,,,2021-11-17,1,,,,,サポリッチ,0
42,1010401163897,新規,0,2021-11-17,2021-11-17,芝中村株式会社,,株式会社,東京都,港区,芝４丁目３番２号,,13,103,1080014,,,,,,,2021-11-17,1,,,,,シバナカムラ,0
43,1010401163906,新規,0,2021-11-17,2021-11-17,株式会社Ｄｉｖｉｎｅ,,株式会社,東京都,港区,浜松町２丁目２番１５号浜松町ダイヤビル２Ｆ,,13,103,1050013,,,,,,,2021-11-17,1,,,,,ディヴァイン,0
44,1010401163914,新規,0,2021-11-17,2021-11-17,株式会社ユニバーサルジョイ,,株式会社,東京都,港区,赤坂１丁目５番２号,,13,103,1070052,,,,,,,2021-11-17,1,,,,,ユニバーサルジョイ,0
45,1010401163922,新規,0,2021-11-17,2021-11-17,株式会社ＴＫｃｏｎｓｕｌｔｉｎｇ,,株式会社,東京都,港区,六本木５丁目１６番５号インペリアル六本木１号館９０３号,,13,103,1060032,,,,,,,2021-11-17,1,,,,,ティーケーコンサルティング,0
49,1010403026516,新規,0,2021-11-17,2021-11-17,合同会社ＰｒｅａｋａＮｅｔｗｏｒｋｓ,,合同会社,東京都,港区,南青山２丁目２番１５号,,13,103,1070062,,,,,,,2021-11-17,1,,,,,プレアカネットワークス,0
50,1010403026532,新規,0,2021-11-17,2021-11-17,ハレルエール合同会社,,合同会社,東京都,港区,南青山２丁目２番１５号,,13,103,1070062,,,,,,,2021-11-17,1,,,,,ハレルエール,0
59,1010701041794,新規,0,2021-11-17,2021-11-17,株式会社ＹＳ．ｗｏｒｋｓ,,株式会社,東京都,品川区,西品川３丁目１６番８号ハミルトンプラザ３０５,,13,109,1410033,,,,,,,2021-11-17,1,,,,,ワイエスワークス,0
62,1010703006003,新規,0,2021-11-17,2021-11-17,合同会社ＴＲ,,合同会社,東京都,品川区,東品川３丁目１０番１－１１０６号,,13,109,1400002,,,,,,,2021-11-17,1,,,,,ティーアール,0
65,1010801032487,新規,0,2021-11-17,2021-11-17,株式会社ＳＵＭＭＵＭ　ＢＯＮＵＭ,,株式会社,東京都,大田区,南千束３丁目２７番１４－１０３号,,13,111,1450063,,,,,,,2021-11-17,1,,,,,サマムボナム,0
66,1010803003957,新規,0,2021-11-17,2021-11-17,合同会社喜々,,合同会社,東京都,大田区,上池台１丁目３２番４号,,13,111,1450064,,,,,,,2021-11-17,1,,,,,キキ,0
68,1010901049803,新規,0,2021-11-17,2021-11-17,株式会社Ｓｙｏｉｋｕ,,株式会社,東京都,世田谷区,砧８丁目１２番１６号,,13,112,1570073,,,,,,,2021-11-17,1,,,,,ショウイク,0
70,1010903006942,新規,0,2021-11-17,2021-11-17,ｈａｔｔｒｉｃｋ合同会社,,合同会社,東京都,世田谷区,新町３丁目２１－１６東急ドエルアルス３０５,,13,112,1540014,,,,,,,2021-11-17,1,,,,,ハットトリック,0
79,1011003013706,新規,0,2021-11-17,2021-11-17,合同会社ピーターポン,,合同会社,東京都,渋谷区,神宮前３丁目３３番１３号ＱｕｉｎｔｅｔＨａｒａｊｕｋｕＲ３,,13,113,1500001,,,,,,,2021-11-17,1,,,,,ピーターポン,0
80,1011003013730,新規,0,2021-11-17,2021-11-17,合同会社ＧＲＩＴ,,合同会社,東京都,渋谷区,渋谷２丁目１９番１５号宮益坂ビルディング６０９,,13,113,1500002,,,,,,,2021-11-17,1,,,,,グリット,0
89,1011501027488,新規,0,2021-11-17,2021-11-17,ＬｏｖｉｎｇＦｉｏｒｅ株式会社,,株式会社,東京都,北区,赤羽南１丁目５番７号クレアシオン赤羽ビル３０８,,13,117,1150044,,,,,,,2021-11-17,1,,,,,ラビングフィオーレ,0
95,1011701024847,新規,0,2021-11-17,2021-11-17,株式会社Ｋ’ｓ　ｂａｓｅ,,株式会社,東京都,江戸川区,東葛西５丁目１２番６号カワマンビル４０４,,13,123,1340084,,,,,,,2021-11-17,1,,,,,ケーズベース,0
99,1012401038550,新規,0,2021-11-17,2021-11-17,株式会社コトバノチカラ,,株式会社,東京都,武蔵野市,吉祥寺北町１丁目１－１桜井ビル２階,,13,203,1800001,,,,,,,2021-11-17,1,,,,,コトバノチカラ,0
100,1012403005111,新規,0,2021-11-17,2021-11-17,合同会社知識社会,,合同会社,東京都,三鷹市,井口２丁目８番８号,,13,204,1810011,,,,,,,2021-11-17,1,,,,,チシキシャカイ,0
119,1020001143927,新規,0,2021-11-17,2021-11-17,プラージュ・キャピタル株式会社,,株式会社,神奈川県,横浜市戸塚区,矢部町６３６番地１ファミール戸塚５４７号,,14,110,2440002,,,,,,,2021-11-17,1,,,,,プラージュキャピタル,0
120,1020001143935,新規,0,2021-11-17,2021-11-17,エレテックファシリティサービス株式会社,,株式会社,神奈川県,横浜市中区,山下町７４番地１,,14,104,2310023,,,,,,,2021-11-17,1,,,,,エレテックファシリティサービス,0
122,1020003020835,新規,0,2021-11-17,2021-11-17,合同会社Ｒ－Ｗｏｒｋｓ,,合同会社,神奈川県,横浜市南区,六ツ川４丁目１１５７番地６,,14,105,2320066,,,,,,,2021-11-17,1,,,,,アールワークス,0
124,1021001074492,新規,0,2021-11-17,2021-11-17,ＢＩＧ　ＤＩＰＰＥＲ株式会社,,株式会社,神奈川県,相模原市緑区,下九沢２４９１番地１トキワビル３０５,,14,151,2520134,,,,,,,2021-11-17,1,,,,,ビッグディッパー,0
125,1021001074501,新規,0,2021-11-17,2021-11-17,株式会社嘉栄,,株式会社,神奈川県,大和市,大和東２丁目９番１０号アリュール大和２０５号室,,14,213,2420017,,,,,,,2021-11-17,1,,,,,ヨシヒデ,0
126,1021003011097,新規,0,2021-11-17,2021-11-17,合同会社Ｓｏｒｒｉｄｉ　ｓｏｌｅ　ｃａｎｚｏｎｅ,,合同会社,神奈川県,相模原市南区,相模台６丁目３０番１７号,,14,153,2520321,,,,,,,2021-11-17,1,,,,,ソッリーディソーレカンツォーネ,0
132,1030001145352,新規,0,2021-11-17,2021-11-17,株式会社フジエイエンジニア,,株式会社,埼玉県,戸田市,喜沢１丁目２７番地の４ＡＺプランニング３０１号室,,11,224,3350013,,,,,,,2021-11-17,1,,,,,フジエイエンジニア,0
133,1030001145360,新規,0,2021-11-17,2021-11-17,株式会社ミラディアル,,株式会社,埼玉県,朝霞市,岡３丁目２５番６４号,,11,227,3510007,,,,,,,2021-11-17,1,,,,,ミラディアル,0
134,1030001145369,新規,0,2021-11-17,2021-11-17,株式会社東風,,株式会社,埼玉県,児玉郡神川町,大字植竹４７７番地１,,11,383,3670245,,,,,,,2021-11-17,1,,,,,コチ,0
135,1030001145385,新規,0,2021-11-17,2021-11-17,メディーヘルス株式会社,,株式会社,埼玉県,所沢市,弥生町２８９２－１８コスモスマンション新所沢１Ｆ,,11,208,3590043,,,,,,,2021-11-17,1,,,,,メディーヘルス,0
136,1030001145410,新規,0,2021-11-17,2021-11-17,株式会社ＧＤ　Ｅ－ＢＯＮＤホールディングス１号,,株式会社,埼玉県,北葛飾郡松伏町,大字築比地７９５番地１,,11,465,3430102,,,,,,,2021-11-17,1,,,,,ジーディイーボンドホールディングスイチゴウ,0
137,1030003018325,新規,0,2021-11-17,2021-11-17,ＲＥＤ　ＳＹＳＴＥＭＳ合同会社,,合同会社,埼玉県,さいたま市浦和区,仲町３丁目２番２２－３０３号,,11,107,3300062,,,,,,,2021-11-17,1,,,,,レッドシステムズ,0
147,1040001120998,新規,0,2021-11-17,2021-11-17,株式会社大原建設,,株式会社,千葉県,いすみ市,上布施４９０番地１,,12,238,2980018,,,,,,,2021-11-17,1,,,,,オオハラケンセツ,0
148,1040001121006,新規,0,2021-11-17,2021-11-17,株式会社スカイファーム企画,,株式会社,千葉県,我孫子市,湖北台３丁目１６番１５号,,12,222,2701132,,,,,,,2021-11-17,1,,,,,スカイファームキカク,0
149,1040001121039,新規,0,2021-11-17,2021-11-17,株式会社グローバルエッジプロモーション,,株式会社,千葉県,船橋市,印内町５６５番３号西船橋駅前パークホームズ１１０９号室,,12,204,2730025,,,,,,,2021-11-17,1,,,,,グローバルエッジプロモーション,0
150,1040001121047,新規,0,2021-11-17,2021-11-17,株式会社グリーンライト,,株式会社,千葉県,船橋市,三山６丁目１２番３号,,12,204,2740072,,,,,,,2021-11-17,1,,,,,グリーンライト,0
153,1040003018919,新規,0,2021-11-17,2021-11-17,合同会社千喜,,合同会社,千葉県,南房総市,千代８８番地１,,12,234,2940815,,,,,,,2021-11-17,1,,,,,センキ,0
154,1040003018943,新規,0,2021-11-17,2021-11-17,合同会社ＮＯＺＯＭＩ,,合同会社,千葉県,八千代市,村上３２５１－２－２０４,,12,221,2760028,,,,,,,2021-11-17,1,,,,,ノゾミ,0
155,1040003018951,新規,0,2021-11-17,2021-11-17,合同会社Ｌｉｆｅ　Ｃｏｎｎｅｃｔ,,合同会社,千葉県,佐倉市,南ユーカリが丘２番地１－７１９,,12,212,2850859,,,,,,,2021-11-17,1,,,,,ライフコネクト,0
158,1050001050146,新規,0,2021-11-17,2021-11-17,株式会社誠建装,,株式会社,茨城県,古河市,大山１７４０番地２７２,,08,204,3060052,,,,,,,2021-11-17,1,,,,,マコトケンソウ,0
159,1050001050154,新規,0,2021-11-17,2021-11-17,株式会社ゆうゆう農園,,株式会社,茨城県,稲敷郡河内町,生板７５２番地,,08,447,3001331,,,,,,,2021-11-17,1,,,,,ユウユウノウエン,0
161,1050003006212,新規,0,2021-11-17,2021-11-17,合同会社Ｒｙｕｕｈａｎ,,合同会社,茨城県,土浦市,中村南１丁目２２－５,,08,203,3000843,,,,,,,2021-11-17,1,,,,,リュウハン,0
166,1060001034305,新規,0,2021-11-17,2021-11-17,株式会社フロッグ,,株式会社,栃木県,足利市,山川町３８番地２８,,09,202,3260021,,,,,,,2021-11-17,1,,,,,フロッグ,0
168,1060003003869,新規,0,2021-11-17,2021-11-17,合同会社平松家,,合同会社,栃木県,小山市,西城南６丁目１５－８,,09,208,3230820,,,,,,,2021-11-17,1,,,,,ヒラマツケ,0
173,1080101022918,新規,0,2021-11-17,2021-11-17,株式会社ＭＯＮＴ　ＳＡＩＮＴ　ＦＵＪＩ,,株式会社,静岡県,富士宮市,外神４３１番地の１,,22,207,4180006,,,,,,,2021-11-17,1,,,,,モンサンフジ,0
175,1080103002455,新規,0,2021-11-17,2021-11-17,合同会社ＷＯＮＤＥＲ　ＨＩＫＥ,,合同会社,静岡県,沼津市,馬込２０７,,22,203,4100105,,,,,,,2021-11-17,1,,,,,ワンダーハイク,0
185,1110001036196,新規,0,2021-11-17,2021-11-17,Ｎカンパニー株式会社,,株式会社,新潟県,三条市,嘉坪川１丁目２０番２８－１２号,,15,204,9550056,,,,,,,2021-11-17,1,,,,,エヌカンパニー,0
186,1110003004597,新規,0,2021-11-17,2021-11-17,合同会社ＭＩＹＯＭＩＹＯ,,合同会社,新潟県,三条市,原７５２番地３,,15,204,9550158,,,,,,,2021-11-17,1,,,,,ミヨミヨ,0
200,1120001241893,新規,0,2021-11-17,2021-11-17,Ｆｉｒｓｔｍｏｏｎ株式会社,,株式会社,大阪府,枚方市,上島東町２０番４号,,27,210,5731126,,,,,,,2021-11-17,1,,,,,ファーストムーン,0
201,1120001241919,新規,0,2021-11-17,2021-11-17,株式会社ＱＵＩＣＫＥＲ,,株式会社,大阪府,大阪市中央区,内本町１丁目２番１５号谷四スクエアビル８階,,27,128,5400026,,,,,,,2021-11-17,1,,,,,クイッカー,0
204,1120003020602,新規,0,2021-11-17,2021-11-17,Ｇｒｅｅｎ　Ｒｅｐｕｂｌｉｃ合同会社,,合同会社,大阪府,大阪市北区,本庄西３丁目１０番３－１５０５号,,27,127,5310073,,,,,,,2021-11-17,1,,,,,グリーンリパブリック,0
205,1120003020610,新規,0,2021-11-17,2021-11-17,合同会社９１９,,合同会社,大阪府,大阪市城東区,今福西２丁目１３番１６－７０３号,,27,118,5360004,,,,,,,2021-11-17,1,,,,,クイック,0
209,1120101064674,新規,0,2021-11-17,2021-11-17,株式会社ムーンジェネシス,,株式会社,大阪府,堺市南区,御池台４丁２４番２６号,,27,145,5900134,,,,,,,2021-11-17,1,,,,,ムーンジェネシス,0
217,1120901045205,新規,0,2021-11-17,2021-11-17,株式会社Ｗｉｉｎｓ,,株式会社,大阪府,吹田市,清水４番７号,,27,205,5650805,,,,,,,2021-11-17,1,,,,,ウィーンズ,0
219,1120903003912,新規,0,2021-11-17,2021-11-17,合同会社Ｔ＆Ｈ,,合同会社,大阪府,吹田市,江の木町１２番５－１０１４号,,27,205,5640053,,,,,,,2021-11-17,1,,,,,ティーアンドエイチ,0
221,1122001035367,新規,0,2021-11-17,2021-11-17,株式会社ＬＩＭＥ,,株式会社,大阪府,東大阪市,東石切町２丁目５－９,,27,227,5798011,,,,,,,2021-11-17,1,,,,,ライム,0
226,1130001070540,新規,0,2021-11-17,2021-11-17,株式会社ユナイテッドハーツ,,株式会社,京都府,京都市山科区,東野中井ノ上町１２－１５ラティス東野アネックス９０４,,26,110,6078142,,,,,,,2021-11-17,1,,,,,ユナイテッドハーツ,0
227,1130001070549,新規,0,2021-11-17,2021-11-17,株式会社エデュワーク,,株式会社,京都府,京都市伏見区,醍醐南端山町１５番地５４,,26,109,6011331,,,,,,,2021-11-17,1,,,,,エデュワーク,0
228,1130001070565,新規,0,2021-11-17,2021-11-17,株式会社ＭＪ,,株式会社,京都府,京都市下京区,仏光寺通新町西入菅大臣町１７６番地,,26,106,6008444,,,,,,,2021-11-17,1,,,,,エムジェイ,0
234,1140001123859,新規,0,2021-11-17,2021-11-17,株式会社丹波グリーンファーム,,株式会社,兵庫県,丹波市,山南町和田３０４番地２,,28,223,6693157,,,,,,,2021-11-17,1,,,,,タンバグリーンファーム,0
235,1140001123867,新規,0,2021-11-17,2021-11-17,株式会社ポーレ・プルーシャ,,株式会社,兵庫県,豊岡市,神美台１２番地１,,28,209,6680831,,,,,,,2021-11-17,1,,,,,ポーレプルーシャ,0
236,1140001123875,新規,0,2021-11-17,2021-11-17,株式会社ＴＫブリッジ,,株式会社,兵庫県,神戸市東灘区,向洋町中６丁目９番地神戸ファッションマート７Ｆ,,28,101,6580032,,,,,,,2021-11-17,1,,,,,ティーケーブリッジ,0
237,1140001123891,新規,0,2021-11-17,2021-11-17,Ｍｉｃｏｔｔｏ　Ｓｔｕｄｉｏｓ株式会社,,株式会社,兵庫県,伊丹市,北野３丁目２０番地３,,28,207,6640007,,,,,,,2021-11-17,1,,,,,ミコットスタジオズ,0
238,1140001123900,新規,0,2021-11-17,2021-11-17,牧野工業株式会社,,株式会社,兵庫県,神戸市西区,南別府１丁目１１番地の６,,28,111,6512116,,,,,,,2021-11-17,1,,,,,マキノコウギョウ,0
239,1140003016986,新規,0,2021-11-17,2021-11-17,合同会社Ｌｕｍｉｃ,,合同会社,兵庫県,神戸市灘区,大石東町２丁目１番１－５０８号,,28,102,6570043,,,,,,,2021-11-17,1,,,,,ルミック,0
251,1180001148745,新規,0,2021-11-17,2021-11-17,株式会社侑神,,株式会社,愛知県,名古屋市南区,鶴田１丁目１０番２号,,23,112,4570003,,,,,,,2021-11-17,1,,,,,ユウシン,0
252,1180001148761,新規,0,2021-11-17,2021-11-17,株式会社ａｔ　ｐｌａｎ,,株式会社,愛知県,名古屋市中区,栄１丁目２４番１１号,,23,106,4600008,,,,,,,2021-11-17,1,,,,,エーティプラン,0
253,1180001148803,新規,0,2021-11-17,2021-11-17,ジャパン・デジタル・ソリューションズ株式会社,,株式会社,愛知県,名古屋市中区,錦３丁目６－１５先名古屋テレビ塔３階,,23,106,4600003,,,,,,,2021-11-17,1,,,,,ジャパンデジタルソリューションズ,0
260,1180003023194,新規,0,2021-11-17,2021-11-17,レガリーノコンサルタント合同会社,,合同会社,愛知県,愛知郡東郷町,春木台２丁目４番地,,23,302,4700161,,,,,,,2021-11-17,1,,,,,レガリーノコンサルタント,0
263,1180305009263,新規,0,2021-11-17,2021-11-17,一般社団法人ＪＡＰＡＮ　ｂｅａｕｔｙ,,その他の設立登記法人,愛知県,岡崎市,日名南町８番地９,,23,202,4440915,,,,,,,2021-11-17,1,,,,,ジャパンビューティー,0
272,1230001019098,新規,0,2021-11-17,2021-11-17,株式会社ｍａｋａｎａ　ｗｏｒｋｓ,,株式会社,富山県,射水市,小島３７３３番地２,,16,211,9390274,,,,,,,2021-11-17,1,,,,,マカナワークス,0
273,1230001019107,新規,0,2021-11-17,2021-11-17,株式会社リレイション,,株式会社,富山県,氷見市,鞍川６７１番地,,16,205,9350025,,,,,,,2021-11-17,1,,,,,リレイション,0
276,1240001058938,新規,0,2021-11-17,2021-11-17,株式会社ＲＤＦ,,株式会社,広島県,廿日市市,須賀３番１４号,,34,213,7380017,,,,,,,2021-11-17,1,,,,,アールディーエフ,0
280,1250003002942,新規,0,2021-11-17,2021-11-17,合同会社ＲＥＮ,,合同会社,山口県,防府市,大字田島５９９番地の２,,35,206,7470834,,,,,,,2021-11-17,1,,,,,レン,0
281,1260003003725,新規,0,2021-11-17,2021-11-17,みらいえファーム合同会社,,合同会社,岡山県,岡山市中区,桜橋４丁目１番１３号,,33,102,7038285,,,,,,,2021-11-17,1,,,,,ミライエファーム,0
286,1290001095423,新規,0,2021-11-17,2021-11-17,株式会社イワデン,,株式会社,福岡県,飯塚市,楽市２２１番地,,40,205,8200074,,,,,,,2021-11-17,1,,,,,イワデン,0
289,1290003011832,新規,0,2021-11-17,2021-11-17,Ａｐｐｒｅｃｉａｔｉｏｎ＆Ｐｒｏｆｉｔ合同会社,,合同会社,福岡県,久留米市,宮ノ陣４丁目２９番１１号久留米ビジネスプラザ５０９号,,40,203,8390801,,,,,,,2021-11-17,1,,,,,アプリシエイションアンドプロフィット,0
290,1290003011849,新規,0,2021-11-17,2021-11-17,合同会社小原,,合同会社,福岡県,太宰府市,朱雀４丁目１１番１４号,,40,221,8180103,,,,,,,2021-11-17,1,,,,,オハラ,0
299,1320003003660,新規,0,2021-11-17,2021-11-17,合同会社ＳＵＩＲＥＮ,,合同会社,大分県,大分市,大字小池原５２８番地の８,,44,201,8700147,,,,,,,2021-11-17,1,,,,,スイレン,0
302,1330001029186,新規,0,2021-11-17,2021-11-17,株式会社グランツ,,株式会社,熊本県,宇城市,松橋町竹崎６６６番地,,43,213,8690523,,,,,,,2021-11-17,1,,,,,グランツ,0
303,1330003009137,新規,0,2021-11-17,2021-11-17,ＴＯＧＯＷＥＬ合同会社,,合同会社,熊本県,熊本市南区,野口２丁目４番２７－２号,,43,104,8614137,,,,,,,2021-11-17,1,,,,,トゴウェル,0
308,1360001029638,新規,0,2021-11-17,2021-11-17,株式会社Ｃｏｌｏｒｅｄ　ｔｒｅｅ,,株式会社,沖縄県,豊見城市,字座安６番地１,,47,212,9010221,,,,,,,2021-11-17,1,,,,,カラードツリー,0
309,1360001029646,新規,0,2021-11-17,2021-11-17,ポシェット株式会社,,株式会社,沖縄県,那覇市,おもろまち１丁目４番１８号,,47,201,9000006,,,,,,,2021-11-17,1,,,,,ポシェット,0
311,1360005006559,新規,0,2021-11-17,2021-11-17,無限責任謝名堂負債整理組合,,その他の設立登記法人,沖縄県,島尻郡久米島町,字謝名堂,,47,361,9013107,,,,,,,2021-11-17,1,,,,,ムゲンセキニンジャナドウフサイセイリクミアイ,0
312,1370001047829,新規,0,2021-11-17,2021-11-17,株式会社ｅＲｕ,,株式会社,宮城県,仙台市青葉区,愛子中央６丁目１１番１０号,,04,101,9893128,,,,,,,2021-11-17,1,,,,,エル,0
313,1370001047845,新規,0,2021-11-17,2021-11-17,株式会社共揚会,,株式会社,宮城県,仙台市青葉区,あけぼの町１４番５号荒巻ハイツＢ２０１,,04,101,9810963,,,,,,,2021-11-17,1,,,,,キョウヨウカイ,0
326,1410001013017,新規,0,2021-11-17,2021-11-17,朝日ライジング株式会社,,株式会社,秋田県,横手市,赤坂字館ノ下８０番地１,,05,203,0130064,,,,,,,2021-11-17,1,,,,,アサヒライジング,0
334,1470003002078,新規,0,2021-11-17,2021-11-17,合同会社山下,,合同会社,香川県,高松市,桜町１丁目１５番２４号,,37,201,7600074,,,,,,,2021-11-17,1,,,,,ヤマシタ,0
339,1700150105452,新規,0,2021-11-17,2021-10-21,労働保険事務組合　中小企業総合事務協会,,その他,北海道,釧路市,宮本１丁目３番１１号,,01,206,0850833,,,,,,,2021-10-21,1,,,,,ロウドウホケンジムクミアイチユウシヨウキギヨウソウゴウジムキヨウカイ,0
347,2010001222499,新規,0,2021-11-17,2021-11-17,ＪＰＡ第２２８号株式会社,,株式会社,東京都,千代田区,霞が関３丁目２番１号,,13,101,1000013,,,,,,,2021-11-17,1,,,,,ジェイピーエーダイニヒャクニジュウハチゴウ,0
348,2010001222508,新規,0,2021-11-17,2021-11-17,ＪＰＡ第２３６号株式会社,,株式会社,東京都,千代田区,霞が関３丁目２番１号,,13,101,1000013,,,,,,,2021-11-17,1,,,,,ジェイピーエーダイニヒャクサンジュウロクゴウ,0
349,2010001222581,新規,0,2021-11-17,2021-11-17,株式会社Ｈｏｒｉｚｏｎ　Ｓｏｆｔｗａｒｅ,,株式会社,東京都,文京区,根津２丁目８番１１－２０８号,,13,105,1130031,,,,,,,2021-11-17,1,,,,,ホライゾンソフトウェア,0
350,2010001222607,新規,0,2021-11-17,2021-11-17,株式会社ＣＲＯＳＳ　ＧＡＴＥ,,株式会社,東京都,千代田区,丸の内１丁目８番３号丸の内トラストタワー本館２０階,,13,101,1000005,,,,,,,2021-11-17,1,,,,,クロスゲート,0
351,2010001222689,新規,0,2021-11-17,2021-11-17,株式会社ＳＨＩＰ第２４２号,,株式会社,東京都,千代田区,丸の内２丁目７番２号,,13,101,1000005,,,,,,,2021-11-17,1,,,,,エスエイチアイピーダイニヒャクヨンジュウニゴウ,0
354,2010003036303,新規,0,2021-11-17,2021-11-17,ＭＡＲＹ合同会社,,合同会社,東京都,中央区,佃２丁目１９番１－６０１号,,13,102,1040051,,,,,,,2021-11-17,1,,,,,メアリー,0
355,2010003036328,新規,0,2021-11-17,2021-11-17,合同会社Ｓｗａｌｌｏｗ,,合同会社,東京都,中央区,銀座１丁目６番１１号土志田ビルディング３Ｆ,,13,102,1040061,,,,,,,2021-11-17,1,,,,,スワロー,0
371,2010401163905,新規,0,2021-11-17,2021-11-17,名古屋・ホテル・オペレーションズ株式会社,,株式会社,東京都,港区,愛宕２丁目５番１号,,13,103,1050002,,,,,,,2021-11-17,1,,,,,ナゴヤホテルオペレーションズ,0
372,2010401163913,新規,0,2021-11-17,2021-11-17,ダブル・ロック・ジャパン株式会社,,株式会社,東京都,港区,芝大門２丁目１１番１６号,,13,103,1050012,,,,,,,2021-11-17,1,,,,,ダブルロックジャパン,0
375,2010405020400,新規,0,2021-11-17,2021-11-17,一般社団法人自然文化観光機構,,その他の設立登記法人,東京都,港区,虎ノ門１丁目１７番１号虎ノ門ヒルズビジネスタワー１５階,,13,103,1050001,,,,,,,2021-11-17,1,,,,,シゼンブンカカンコウキコウ,0
382,2010901049802,新規,0,2021-11-17,2021-11-17,株式会社セッテン,,株式会社,東京都,世田谷区,弦巻１丁目４６番７号,,13,112,1540016,,,,,,,2021-11-17,1,,,,,セッテン,0
383,2010903006941,新規,0,2021-11-17,2021-11-17,松田合同会社,,合同会社,東京都,世田谷区,松原３丁目２３番２５号,,13,112,1560043,,,,,,,2021-11-17,1,,,,,マツダ,0
388,2011001143974,新規,0,2021-11-17,2021-11-17,Ｄｉｇｉｔａｌ　Ｇｒａｖｉｔｙ株式会社,,株式会社,東京都,渋谷区,神南１丁目６番５号,,13,113,1500041,,,,,,,2021-11-17,1,,,,,ディジタルグラビティ,0
389,2011001144064,新規,0,2021-11-17,2021-11-17,株式会社ＥＩＧＨＴ,,株式会社,東京都,目黒区,上目黒１丁目１８番１１号フラット中目黒４０８号,,13,110,1530051,,,,,,,2021-11-17,1,,,,,エイト,0
391,2011003013705,新規,0,2021-11-17,2021-11-17,合同会社Ｐａａｎｉ,,合同会社,東京都,渋谷区,神宮前６丁目２３番４号桑野ビル２階,,13,113,1500001,,,,,,,2021-11-17,1,,,,,パーニ,0
392,2011101096924,新規,0,2021-11-17,2021-11-17,株式会社ＣＩＦＡ,,株式会社,東京都,新宿区,南元町２４番地外苑レジデンス３０５,,13,104,1600012,,,,,,,2021-11-17,1,,,,,シーファ,0
396,2011301027349,新規,0,2021-11-17,2021-11-17,株式会社樫ワークス,,株式会社,東京都,杉並区,浜田山２丁目２１番１３号,,13,115,1680065,,,,,,,2021-11-17,1,,,,,カシワークス,0
417,2012801021221,新規,0,2021-11-17,2021-11-17,株式会社Ａｒｋ,,株式会社,東京都,立川市,錦町２丁目１番２８号５階,,13,202,1900022,,,,,,,2021-11-17,1,,,,,,0
427,2020001143901,新規,0,2021-11-17,2021-11-17,シアスト株式会社,,株式会社,神奈川県,横浜市中区,西竹之丸８５番地１横浜山手パーク・ホームズ３１０号室,,14,104,2310852,,,,,,,2021-11-17,1,,,,,シアスト,0
428,2020001143926,新規,0,2021-11-17,2021-11-17,コミュニティ婚活株式会社,,株式会社,神奈川県,横浜市中区,桜木町１丁目１０１番地１クロスゲート７階,,14,104,2310062,,,,,,,2021-11-17,1,,,,,コミュニティコンカツ,0
429,2020001143934,新規,0,2021-11-17,2021-11-17,株式会社Ａｑｕａ　Ｐｒｉｓｍ,,株式会社,神奈川県,横浜市緑区,中山６丁目４番１－６０７号,,14,113,2260019,,,,,,,2021-11-17,1,,,,,アクアプリズム,0
430,2020001143942,新規,0,2021-11-17,2021-11-17,Ａ＆Ｂｅｙｏｎｄ株式会社,,株式会社,神奈川県,横浜市南区,井土ケ谷中町３６番地,,14,105,2320052,,,,,,,2021-11-17,1,,,,,エーアンドビヨンド,0
431,2020001143959,新規,0,2021-11-17,2021-11-17,株式会社べあれん,,株式会社,神奈川県,横浜市旭区,今川町２番地１６,,14,112,2410033,,,,,,,2021-11-17,1,,,,,ベアレン,0
432,2020001143983,新規,0,2021-11-17,2021-11-17,株式会社アークエステート,,株式会社,神奈川県,横浜市港北区,岸根町５４０番地４－１Ｂ,,14,109,2220034,,,,,,,2021-11-17,1,,,,,アークエステート,0
437,2020003020834,新規,0,2021-11-17,2021-11-17,合同会社佐藤伸重,,合同会社,神奈川県,横浜市都筑区,北山田６丁目２５番１号,,14,118,2240021,,,,,,,2021-11-17,1,,,,,サトウノブシゲ,0
441,2021001074491,新規,0,2021-11-17,2021-11-17,アトリエマーヴィー株式会社,,株式会社,神奈川県,横須賀市,秋谷４２６２番地２,,14,201,2400105,,,,,,,2021-11-17,1,,,,,アトリエマーヴィー,0
442,2021001074500,新規,0,2021-11-17,2021-11-17,株式会社梛,,株式会社,神奈川県,鎌倉市,七里ガ浜東４丁目２０番１１号,,14,204,2480025,,,,,,,2021-11-17,1,,,,,ナギ,0
443,2021001074509,新規,0,2021-11-17,2021-11-17,株式会社ＡＮＤ　Ｐｅｏｐｌｅ,,株式会社,神奈川県,鎌倉市,坂ノ下３番８号,,14,204,2480021,,,,,,,2021-11-17,1,,,,,アンドピープル,0
444,2021001074517,新規,0,2021-11-17,2021-11-17,株式会社イーティーエス,,株式会社,神奈川県,相模原市緑区,西橋本１丁目１６番４３号,,14,151,2520131,,,,,,,2021-11-17,1,,,,,イーティーエス,0
445,2021001074525,新規,0,2021-11-17,2021-11-17,株式会社滝沢実業,,株式会社,神奈川県,座間市,座間２丁目２８０２番地の３,,14,216,2520027,,,,,,,2021-11-17,1,,,,,タキザワジツギョウ,0
450,2021003011105,新規,0,2021-11-17,2021-11-17,リトルスクエア合同会社,,合同会社,神奈川県,横須賀市,内川新田１１０２－２ラ・キューブ１０１号,,14,201,2390837,,,,,,,2021-11-17,1,,,,,リトルスクエア,0
456,2030001145343,新規,0,2021-11-17,2021-11-17,ニコパース株式会社,,株式会社,埼玉県,坂戸市,鎌倉町１５－５７,,11,239,3500221,,,,,,,2021-11-17,1,,,,,ニコパース,0
457,2030001145351,新規,0,2021-11-17,2021-11-17,株式会社ＷＩＮＧＬＥＳ,,株式会社,埼玉県,熊谷市,間々田３８番地１,,11,202,3600243,,,,,,,2021-11-17,1,,,,,ウィングルス,0
458,2030001145368,新規,0,2021-11-17,2021-11-17,株式会社バインドワークス,,株式会社,埼玉県,深谷市,本住町７番１８号,,11,218,3660823,,,,,,,2021-11-17,1,,,,,バインドワークス,0
459,2030001145376,新規,0,2021-11-17,2021-11-17,株式会社ＴＭマネジメント,,株式会社,埼玉県,さいたま市南区,南浦和１丁目２０番１７号,,11,108,3360017,,,,,,,2021-11-17,1,,,,,ティーエムマネジメント,0
460,2030001145384,新規,0,2021-11-17,2021-11-17,株式会社エムケイ,,株式会社,埼玉県,志木市,上宗岡５丁目１４番３２号,,11,228,3530001,,,,,,,2021-11-17,1,,,,,エムケイ,0
461,2030001145401,新規,0,2021-11-17,2021-11-17,株式会社コムプロデュース,,株式会社,埼玉県,所沢市,大字下安松２９７番地の９,,11,208,3590024,,,,,,,2021-11-17,1,,,,,コムプロデュース,0
462,2030003018324,新規,0,2021-11-17,2021-11-17,合同会社ＭＡＡＴ,,合同会社,埼玉県,さいたま市見沼区,大字御蔵１１６０番地１８,,11,104,3370033,,,,,,,2021-11-17,1,,,,,マート,0
463,2030003018340,新規,0,2021-11-17,2021-11-17,合同会社ＴＥＮ－ＦＯＲ,,合同会社,埼玉県,さいたま市中央区,本町西５丁目２番２－１３１０号,,11,105,3380004,,,,,,,2021-11-17,1,,,,,テンフォー,0
467,2040001120972,新規,0,2021-11-17,2021-11-17,ＭＴＫ株式会社,,株式会社,千葉県,南房総市,白子２６９８番地１０６フラワーコースト南房丸山４０１,,12,234,2992521,,,,,,,2021-11-17,1,,,,,エムティーケー,0
468,2040001120989,新規,0,2021-11-17,2021-11-17,株式会社ＬＢＳ,,株式会社,千葉県,柏市,松葉町５丁目１５番地５,,12,217,2770827,,,,,,,2021-11-17,1,,,,,エルビーエス,0
469,2040001121013,新規,0,2021-11-17,2021-11-17,スカイアースファーム株式会社,,株式会社,千葉県,成田市,竜台３２４番地,,12,211,2860801,,,,,,,2021-11-17,1,,,,,スカイアースファーム,0
470,2040001121054,新規,0,2021-11-17,2021-11-17,株式会社Ｒｅ．Ｓ,,株式会社,千葉県,八街市,文違３０１番地３４２８,,12,230,2891104,,,,,,,2021-11-17,1,,,,,リエス,0
477,2040003018950,新規,0,2021-11-17,2021-11-17,合同会社援兵隊,,合同会社,千葉県,山武郡芝山町,新井田４４５番地４５３,,12,409,2891625,,,,,,,2021-11-17,1,,,,,エンペイタイ,0
478,2040003018959,新規,0,2021-11-17,2021-11-17,ＧＬＯＢＡＬ　ＳＱＵＡＲＥ合同会社,,合同会社,千葉県,千葉市中央区,宮崎町５３１番１９号,,12,101,2600805,,,,,,,2021-11-17,1,,,,,グローバルスクエア,0
479,2050001050145,新規,0,2021-11-17,2021-11-17,株式会社ＳＥＩＫＥＮ,,株式会社,茨城県,筑西市,桑山２４９８番地１２,,08,227,3091127,,,,,,,2021-11-17,1,,,,,セイケン,0
480,2050001050153,新規,0,2021-11-17,2021-11-17,株式会社明寧鴻興業,,株式会社,茨城県,神栖市,知手中央１０丁目１０番５号,,08,232,3140112,,,,,,,2021-11-17,1,,,,,アネコウコウギョウ,0
481,2050001050161,新規,0,2021-11-17,2021-11-17,オハナ・リハ株式会社,,株式会社,茨城県,つくば市,学園の森１丁目７番地２２,,08,220,3050816,,,,,,,2021-11-17,1,,,,,オハナリハ,0
489,2080401025479,新規,0,2021-11-17,2021-11-17,杉本美工株式会社,,株式会社,静岡県,袋井市,岡崎２９０８番地,,22,216,4371312,,,,,,,2021-11-17,1,,,,,スギモトビコウ,0
502,2120001241827,新規,0,2021-11-17,2021-11-17,株式会社ｂａｒｃａ,,株式会社,大阪府,大阪市北区,梅田１丁目１１番４号大阪駅前第４ビル９階,,27,127,5300001,,,,,,,2021-11-17,1,,,,,バルカ,0
503,2120001241868,新規,0,2021-11-17,2021-11-17,株式会社Ｓｐｉｎｎｉｎｇ,,株式会社,大阪府,大阪市北区,堂島１丁目３番４号谷安ビルＢ１,,27,127,5300003,,,,,,,2021-11-17,1,,,,,スピニング,0
504,2120001241901,新規,0,2021-11-17,2021-11-17,株式会社ＧＡＲＯ５,,株式会社,大阪府,大阪市北区,天神橋５丁目６番５号,,27,127,5300041,,,,,,,2021-11-17,1,,,,,ガロファイブ,0
505,2120001241918,新規,0,2021-11-17,2021-11-17,あおいリエゾン株式会社,,株式会社,大阪府,枚方市,走谷１丁目１４番４４－２号,,27,210,5730063,,,,,,,2021-11-17,1,,,,,アオイリエゾン,0
506,2120001241934,新規,0,2021-11-17,2021-11-17,Ｗｉｎｄ　Ｖａｎｅ国際貿易株式会社,,株式会社,大阪府,大阪市西区,南堀江３丁目１５－３－４０２号,,27,106,5500015,,,,,,,2021-11-17,1,,,,,ウインドヴァネコクサイボウエキ,0
511,2120005022612,新規,0,2021-11-17,2021-11-17,怜悧税理士法人,,その他の設立登記法人,大阪府,大阪市中央区,本町４丁目２番１２号野村不動産御堂筋本町ビル５階,,27,128,5410053,,,,,,,2021-11-17,1,,,,,レイリ,0
512,2120103004438,新規,0,2021-11-17,2021-11-17,一心合同会社,,合同会社,大阪府,岸和田市,五軒屋町１０番１０号,,27,202,5960055,,,,,,,2021-11-17,1,,,,,イッシン,0
516,2120901045204,新規,0,2021-11-17,2021-11-17,株式会社サーモテックエンジニアリング,,株式会社,大阪府,豊中市,庄内幸町１丁目５番９号,,27,203,5610833,,,,,,,2021-11-17,1,,,,,サーモテックエンジニアリング,0
517,2120901045212,新規,0,2021-11-17,2021-11-17,株式会社西健,,株式会社,大阪府,豊中市,原田元町２丁目５番２１号,,27,203,5610808,,,,,,,2021-11-17,1,,,,,ニシケン,0
518,2120903003911,新規,0,2021-11-17,2021-11-17,合同会社ａｚｚｕｒｒｏ,,合同会社,大阪府,茨木市,総持寺２丁目１１番４号,,27,211,5670801,,,,,,,2021-11-17,1,,,,,アズーロ,0
522,2122003002216,新規,0,2021-11-17,2021-11-17,合同会社らぶらいと,,合同会社,大阪府,大東市,扇町１３－９誠光ビル６０１,,27,218,5740033,,,,,,,2021-11-17,1,,,,,ラブライト,0
525,2130001070548,新規,0,2021-11-17,2021-11-17,株式会社ｌａｚｕｌｉ,,株式会社,京都府,京都市伏見区,羽束師鴨川町７３ラ・シャルール１０２号室,,26,109,6128484,,,,,,,2021-11-17,1,,,,,ラズリ,0
526,2130001070564,新規,0,2021-11-17,2021-11-17,株式会社グローバルフューチャー,,株式会社,京都府,京都市南区,吉祥院中河原里北町４６ヴィラロイヤルＹＵＫＩ２０３号室,,26,107,6018394,,,,,,,2021-11-17,1,,,,,グローバルフューチャー,0
530,2130003007589,新規,0,2021-11-17,2021-11-17,合同会社ｎａｇｉ＆飛龍,,合同会社,京都府,宮津市,字文珠４６１番地の２,,26,205,6260001,,,,,,,2021-11-17,1,,,,,ナギアンドヒリュウ,0
535,2140001123866,新規,0,2021-11-17,2021-11-17,株式会社イーグルスターエステート,,株式会社,兵庫県,神戸市東灘区,御影山手１丁目２番１０号－４０８号,,28,101,6580065,,,,,,,2021-11-17,1,,,,,イーグルスターエステート,0
536,2140001123874,新規,0,2021-11-17,2021-11-17,株式会社西岡鈑金工業,,株式会社,兵庫県,神戸市東灘区,住吉宮町６丁目１７番６号,,28,101,6580053,,,,,,,2021-11-17,1,,,,,ニシオカバンキンコウギョウ,0
537,2140003016960,新規,0,2021-11-17,2021-11-17,８３０合同会社,,合同会社,兵庫県,宝塚市,大原野字安場１８－３,,28,214,6691211,,,,,,,2021-11-17,1,,,,,バサオ,0
547,2180001148744,新規,0,2021-11-17,2021-11-17,株式会社プライムステージ,,株式会社,愛知県,名古屋市中区,丸の内３丁目２０－５オアシス日向４０５,,23,106,4600002,,,,,,,2021-11-17,1,,,,,プライムステージ,0
548,2180001148752,新規,0,2021-11-17,2021-11-17,株式会社Ｔａｓｍ,,株式会社,愛知県,名古屋市東区,泉１丁目１０番２３号グランドメゾン泉７０７号,,23,102,4610001,,,,,,,2021-11-17,1,,,,,タズム,0
549,2180001148760,新規,0,2021-11-17,2021-11-17,株式会社アイヤトラスト,,株式会社,愛知県,海部郡蟹江町,大字西之森字高粕１０４番地１６,,23,425,4970052,,,,,,,2021-11-17,1,,,,,アイヤトラスト,0
550,2180001148769,新規,0,2021-11-17,2021-11-17,歯美人ＤＩＡＲＹ株式会社,,株式会社,愛知県,名古屋市千種区,汁谷町１１番地,,23,101,4640013,,,,,,,2021-11-17,1,,,,,ハビジンダイアリー,0
551,2180001148802,新規,0,2021-11-17,2021-11-17,株式会社エー・アール・アイ,,株式会社,愛知県,長久手市,山野田１０１８番地,,23,238,4801113,,,,,,,2021-11-17,1,,,,,エーアールアイ,0
552,2180001148810,新規,0,2021-11-17,2021-11-17,株式会社ワイトレード,,株式会社,愛知県,名古屋市守山区,守山２丁目２６番２５号,,23,113,4630067,,,,,,,2021-11-17,1,,,,,ワイトレード,0
561,2180301035634,新規,0,2021-11-17,2021-11-17,株式会社ＨＡＮＧ　ＯＵＴ,,株式会社,愛知県,豊田市,高原町３丁目２３番地６,,23,211,4710069,,,,,,,2021-11-17,1,,,,,ハングアウト,0
565,2180303005164,新規,0,2021-11-17,2021-11-17,ＳＤＫ　ｂｕｉｌｄ合同会社,,合同会社,愛知県,豊田市,月見町３丁目６番地３,,23,211,4710033,,,,,,,2021-11-17,1,,,,,エスディーケービルド,0
572,2200003005379,新規,0,2021-11-17,2021-11-17,合同会社ムチュウネスト,,合同会社,岐阜県,中津川市,手賀野６９０番地の２６,,21,206,5080015,,,,,,,2021-11-17,1,,,,,ムチュウネスト,0
579,2230005009177,新規,0,2021-11-17,2021-11-17,特定非営利活動法人統合医療と未来を考える会・富山,,その他の設立登記法人,富山県,射水市,海老江５４番地,,16,211,9330233,,,,,,,2021-11-17,1,,,,,,0
589,2290001095414,新規,0,2021-11-17,2021-11-17,株式会社ＮＨＮコーポレーション,,株式会社,福岡県,宗像市,東郷５丁目８番１１号,,40,220,8113436,,,,,,,2021-11-17,1,,,,,エヌエイチエヌコーポレーション,0
590,2290001095439,新規,0,2021-11-17,2021-11-17,株式会社Ｔａｎｏｓｉｋａ,,株式会社,福岡県,大川市,大字榎津１１１番地１４,,40,212,8310004,,,,,,,2021-11-17,1,,,,,タノシカ,0
596,2290005018429,新規,0,2021-11-17,2021-11-17,一般社団法人ｍｏａｔ,,その他の設立登記法人,福岡県,糟屋郡須惠町,大字旅石８４番地２１－７０１号,,40,344,8112221,,,,,,,2021-11-17,1,,,,,モート,0
597,2290801028011,新規,0,2021-11-17,2021-11-17,株式会社ＦＩＥＬＤ．ＭＯＵＴＨ,,株式会社,福岡県,鞍手郡鞍手町,大字小牧２３３３番地６０,,40,402,8071311,,,,,,,2021-11-17,1,,,,,フィールドマウス,0
599,2290803003986,新規,0,2021-11-17,2021-11-17,合同会社ヒューマンラボＫ,,合同会社,福岡県,北九州市八幡西区,浅川日の峯１丁目３番３１号,,40,109,8070876,,,,,,,2021-11-17,1,,,,,ヒューマンラボケー,0
604,2320001018726,新規,0,2021-11-17,2021-11-17,株式会社サードコネクト,,株式会社,大分県,中津市,大字蛎瀬７７０番地,,44,203,8710007,,,,,,,2021-11-17,1,,,,,サードコネクト,0
611,2350003003970,新規,0,2021-11-17,2021-11-17,合同会社ＲＹＵＭ,,合同会社,宮崎県,宮崎市,大字田吉１２３番１号プチメゾン赤江１０５号,,45,201,8800911,,,,,,,2021-11-17,1,,,,,リューム,0
617,2360001029620,新規,0,2021-11-17,2021-11-17,株式会社花逢,,株式会社,沖縄県,宜野湾市,字我如古４０５番地１－２０１,,47,205,9012214,,,,,,,2021-11-17,1,,,,,カフウ,0
618,2360001029629,新規,0,2021-11-17,2021-11-17,アーク建設株式会社,,株式会社,沖縄県,那覇市,字真地２６番地６－１０６,,47,201,9020072,,,,,,,2021-11-17,1,,,,,,0
619,2360003011576,新規,0,2021-11-17,2021-11-17,合同会社サードプレイス,,合同会社,沖縄県,糸満市,字賀数３７番地,,47,210,9010313,,,,,,,2021-11-17,1,,,,,サードプレイス,0
623,2370001047836,新規,0,2021-11-17,2021-11-17,株式会社みずのえ造園土木,,株式会社,宮城県,仙台市青葉区,貝ケ森５丁目２番１７号,,04,101,9810942,,,,,,,2021-11-17,1,,,,,ミズノエゾウエンドボク,0
624,2370001047844,新規,0,2021-11-17,2021-11-17,株式会社ＴＨＥＣＬＯ,,株式会社,宮城県,仙台市太白区,山田上ノ台町２０番１０号,,04,104,9820815,,,,,,,2021-11-17,1,,,,,ザクロ,0
625,2370003005478,新規,0,2021-11-17,2021-11-17,アトム合同会社,,合同会社,宮城県,仙台市青葉区,本町１丁目５番２８号カーニープレイス仙台駅前通６０３号室,,04,101,9800014,,,,,,,2021-11-17,1,,,,,アトム,0
626,2380001032341,新規,0,2021-11-17,2021-11-17,株式会社ミナミ,,株式会社,福島県,田村市,船引町東部台２丁目１９１番地,,07,211,9634317,,,,,,,2021-11-17,1,,,,,ミナミ,0
632,2430001085400,新規,0,2021-11-17,2021-11-17,株式会社トキワミドリ,,株式会社,北海道,札幌市白石区,東札幌五条１丁目２番２０号,,01,104,0030005,,,,,,,2021-11-17,1,,,,,トキワミドリ,0
635,2450001013532,新規,0,2021-11-17,2021-11-17,株式会社ＴＮＣ,,株式会社,北海道,旭川市,末広二条１４丁目５番２３号,,01,204,0718132,,,,,,,2021-11-17,1,,,,,ティーエヌシー,0
640,2490002013412,新規,0,2021-11-17,2021-11-17,有限会社赤松鉄工所,,有限会社,高知県,高知市,長浜４１０８番地,,39,201,7810270,,,,,,,2021-11-17,1,,,,,,0
648,3010001222481,新規,0,2021-11-17,2021-11-17,ＳＷＩＮＧ株式会社,,株式会社,東京都,千代田区,大手町１丁目６－１大手町ビル１Ｆ・ＳＰＡＣＥＳ,,13,101,1000004,,,,,,,2021-11-17,1,,,,,スイング,0
649,3010001222498,新規,0,2021-11-17,2021-11-17,ＪＰＡ第２２７号株式会社,,株式会社,東京都,千代田区,霞が関３丁目２番１号,,13,101,1000013,,,,,,,2021-11-17,1,,,,,ジェイピーエーダイニヒャクニジュウナナゴウ,0
650,3010001222507,新規,0,2021-11-17,2021-11-17,ＪＰＡ第２３５号株式会社,,株式会社,東京都,千代田区,霞が関３丁目２番１号,,13,101,1000013,,,,,,,2021-11-17,1,,,,,ジェイピーエーダイニヒャクサンジュウゴゴウ,0
651,3010001222515,新規,0,2021-11-17,2021-11-17,ＪＰＡ第２４３号株式会社,,株式会社,東京都,千代田区,霞が関３丁目２番１号,,13,101,1000013,,,,,,,2021-11-17,1,,,,,ジェイピーエーダイニヒャクヨンジュウサンゴウ,0
652,3010001222572,新規,0,2021-11-17,2021-11-17,株式会社縁華,,株式会社,東京都,中央区,勝どき３丁目９番１２－４０２号,,13,102,1040054,,,,,,,2021-11-17,1,,,,,エンカ,0
653,3010001222606,新規,0,2021-11-17,2021-11-17,株式会社ＣＯＣＯＲＯ　ＪＡＰＡＮ,,株式会社,東京都,千代田区,神田紺屋町６番地１,,13,101,1010035,,,,,,,2021-11-17,1,,,,,ココロジャパン,0
654,3010001222630,新規,0,2021-11-17,2021-11-17,株式会社Ｂｉｚｃａ,,株式会社,東京都,千代田区,九段南１丁目５番６号りそな九段ビル５階ＫＳフロア,,13,101,1020074,,,,,,,2021-11-17,1,,,,,ビズカ,0
655,3010001222688,新規,0,2021-11-17,2021-11-17,株式会社ＳＨＩＰ第２４１号,,株式会社,東京都,千代田区,丸の内２丁目７番２号,,13,101,1000005,,,,,,,2021-11-17,1,,,,,エスエイチアイピーダイニヒャクヨンジュウイチゴウ,0
656,3010003036327,新規,0,2021-11-17,2021-11-17,合同会社Ｐｌａｔｕ,,合同会社,東京都,中央区,銀座１丁目６番１１号土志田ビルディング３Ｆ,,13,102,1040061,,,,,,,2021-11-17,1,,,,,プラトウ,0
666,3010401163771,新規,0,2021-11-17,2021-11-17,ウィージョー日本株式会社,,株式会社,東京都,港区,六本木１丁目９番１０号アークヒルズ仙石山森タワー２８Ｆベーカー＆マッケンジー法律事務所（外国法共同事業）内,,13,103,1060032,,,,,,,2021-11-17,1,,,,,ウィージョーニホン,0
667,3010401163838,新規,0,2021-11-17,2021-11-17,メジャースケール株式会社,,株式会社,東京都,港区,六本木５丁目１６番５号インペリアル六本木１１０９,,13,103,1060032,,,,,,,2021-11-17,1,,,,,メジャースケール,0
668,3010401163846,新規,0,2021-11-17,2021-11-17,株式会社ＭＯＮＡ　ＦＥＬＩＣＥ,,株式会社,東京都,港区,南麻布３丁目２０番１号麻布グリーンテラス５Ｆ,,13,103,1060047,,,,,,,2021-11-17,1,,,,,モナフェリーチェ,0
669,3010401163887,新規,0,2021-11-17,2021-11-17,株式会社Ｕｎｆｒｅｅｚｅ,,株式会社,東京都,港区,赤坂７丁目５番２７号,,13,103,1070052,,,,,,,2021-11-17,1,,,,,アンフリーズ,0
670,3010401163920,新規,0,2021-11-17,2021-11-17,株式会社カスプ,,株式会社,東京都,港区,虎ノ門４丁目１－１８－１２０２,,13,103,1050001,,,,,,,2021-11-17,1,,,,,カプス,0
671,3010403026539,新規,0,2021-11-17,2021-11-17,エドジャパン合同会社,,合同会社,東京都,港区,三田１丁目３番４０号麻布十番ＢＵＳＩＮＥＳＳＣＵＢＥ－Ｓ天翔オフィス麻布十番９階９１０号室,,13,103,1080073,,,,,,,2021-11-17,1,,,,,エドジャパン,0
672,3010403026547,新規,0,2021-11-17,2021-11-17,合同会社Ｂｉｆｒｅｅ,,合同会社,東京都,港区,南青山２丁目２－１５ウィン青山９４２,,13,103,1070062,,,,,,,2021-11-17,1,,,,,ビフリー,0
673,3010405020399,新規,0,2021-11-17,2021-11-17,一般社団法人イノベーションハブ,,その他の設立登記法人,東京都,港区,虎ノ門５丁目１１番１５号虎ノ門ＫＴビル２階,,13,103,1050001,,,,,,,2021-11-17,1,,,,,イノベーションハブ,0
675,3010601060208,新規,0,2021-11-17,2021-11-17,海豊商事株式会社,,株式会社,東京都,墨田区,横川３丁目６番７号２－Ｆ室,,13,107,1300003,,,,,,,2021-11-17,1,,,,,カイホウショウジ,0
681,3010801032493,新規,0,2021-11-17,2021-11-17,アグリーチ株式会社,,株式会社,東京都,大田区,南雪谷２丁目１２番６号南雪谷２丁目ビル２Ｆ,,13,111,1450066,,,,,,,2021-11-17,1,,,,,アグリーチ,0
682,3010803003955,新規,0,2021-11-17,2021-11-17,合同会社ｐｅａｋｙ’ｓ,,合同会社,東京都,大田区,北馬込２丁目３４番１６号,,13,111,1430021,,,,,,,2021-11-17,1,,,,,ピーキーズ,0
684,3010901049792,新規,0,2021-11-17,2021-11-17,株式会社Ｒｅ－ｔｕｍｎ,,株式会社,東京都,世田谷区,代田３丁目１０番１１号小松舎ＩＩ１０１,00124889,13,112,1550033,,,,,,,2021-11-17,1,,,,,リタム,0
697,3011001143949,新規,0,2021-11-17,2021-11-17,株式会社グロトム,,株式会社,東京都,渋谷区,道玄坂２丁目１０－１２,,13,113,1500043,,,,,,,2021-11-17,1,,,,,グロトム,0
698,3011001143973,新規,0,2021-11-17,2021-11-17,株式会社アセットスダ,,株式会社,東京都,渋谷区,代々木２丁目２９番６号,,13,113,1510053,,,,,,,2021-11-17,1,,,,,アセットスダ,0
703,3011005009295,新規,0,2021-11-17,2021-11-17,一般社団法人東京イメージコンサルタント協会,,その他の設立登記法人,東京都,目黒区,下目黒３丁目４番１５号,,13,110,1530064,,,,,,,2021-11-17,1,,,,,トウキョウイメージコンサルタントキョウカイ,0
707,3011101096816,新規,0,2021-11-17,2021-11-17,シンヨウ株式会社,,株式会社,東京都,新宿区,津久戸町１番８号,,13,104,1620821,,,,,,,2021-11-17,1,,,,,シンヨウ,0
708,3011105010046,新規,0,2021-11-17,2021-11-17,特定非営利活動法人日本吃音協会,,その他の設立登記法人,東京都,新宿区,住吉町１番１８号ＴＶＢ曙橋ビル５Ｆ,,13,104,1620065,,,,,,,2021-11-17,1,,,,,ニホンキツオンキョウカイ,0
711,3011201023422,新規,0,2021-11-17,2021-11-17,株式会社Ｄａｙｓ,,株式会社,東京都,中野区,中野５丁目６０番２号ライオンズプラザ中野１０６,,13,114,1640001,,,,,,,2021-11-17,1,,,,,デイズ,0
712,3011301027348,新規,0,2021-11-17,2021-11-17,株式会社Ｂｌｕｅ　Ｈｉｌｌｓ,,株式会社,東京都,杉並区,方南１丁目２４番３号,,13,115,1680062,,,,,,,2021-11-17,1,,,,,ブルーヒルズ,0
714,3011603003443,新規,0,2021-11-17,2021-11-17,ＫＥＳＩＴＡ合同会社,,合同会社,東京都,練馬区,西大泉４丁目１０番１９号,,13,120,1780065,,,,,,,2021-11-17,1,,,,,ケシータ,0
715,3011701024845,新規,0,2021-11-17,2021-11-17,株式会社サンユース商事,,株式会社,東京都,江戸川区,中央１丁目１６－５中里ビル１０５,,13,123,1320021,,,,,,,2021-11-17,1,,,,,サンユースショウジ,0
721,3012401038540,新規,0,2021-11-17,2021-11-17,株式会社知識,,株式会社,東京都,三鷹市,井口２丁目８番８号,,13,204,1810011,,,,,,,2021-11-17,1,,,,,チシキ,0
722,3012401038549,新規,0,2021-11-17,2021-11-17,株式会社Ｖｉｌｌａｇｅ　Ｗｏｏｄ　Ｉｎｔｅｒｉｏｒ,,株式会社,東京都,狛江市,岩戸北３丁目２２番１２号プレジール狛江１０８号室,,13,219,2010004,,,,,,,2021-11-17,1,,,,,ヴィレッジウッドインテリア,0
728,3012801021220,新規,0,2021-11-17,2021-11-17,株式会社ドロップスの木,,株式会社,東京都,昭島市,玉川町３丁目２３番１３号エルメゾンＹ２０１号,,13,207,1960034,,,,,,,2021-11-17,1,,,,,ドロップスノキ,0
730,3013103001092,新規,0,2021-11-17,2021-11-17,合同会社シキナ,,合同会社,東京都,羽村市,川崎４丁目９番１６号,,13,227,2050021,,,,,,,2021-11-17,1,,,,,シキナ,0
747,3020001143909,新規,0,2021-11-17,2021-11-17,株式会社イナウトデトックス,,株式会社,神奈川県,横浜市泉区,緑園５丁目１３番地１１－２０１号,,14,116,2450002,,,,,,,2021-11-17,1,,,,,イナウトデトックス,0
748,3020001143933,新規,0,2021-11-17,2021-11-17,株式会社ＳＫＹ,,株式会社,神奈川県,横浜市神奈川区,斎藤分町３１番４３号ネオファミーユ神大１－Ｄ,,14,102,2210811,,,,,,,2021-11-17,1,,,,,エスケイワイ,0
749,3020001143941,新規,0,2021-11-17,2021-11-17,株式会社クリアナレッジ,,株式会社,神奈川県,横浜市泉区,中田東１丁目３５番５０号,,14,116,2450013,,,,,,,2021-11-17,1,,,,,クリアナレッジ,0
750,3020001143958,新規,0,2021-11-17,2021-11-17,テックプロ株式会社,,株式会社,神奈川県,横浜市中区,桜木町１丁目１０１番地１クロスゲート７階,,14,104,2310062,,,,,,,2021-11-17,1,,,,,テックプロ,0
755,3021003011095,新規,0,2021-11-17,2021-11-17,ＢＥＴＡ合同会社,,合同会社,神奈川県,鎌倉市,大船１丁目１２番１０号湘南第５ビル,,14,204,2470056,,,,,,,2021-11-17,1,,,,,ベータ,0
757,3030001145301,新規,0,2021-11-17,2021-11-17,Ｐａｒ－Ｏｎ　ＧＯＬＦ　ＪＡＰＡＮ株式会社,,株式会社,埼玉県,川口市,金山町１２－１,,11,203,3320014,,,,,,,2021-11-17,1,,,,,パーオンゴルフジャパン,0
758,3030001145342,新規,0,2021-11-17,2021-11-17,株式会社ホーネスト,,株式会社,埼玉県,越谷市,赤山町３丁目２２１番地１,,11,222,3430807,,,,,,,2021-11-17,1,,,,,ホーネスト,0
759,3030001145350,新規,0,2021-11-17,2021-11-17,Ｐｌｕｓ　ｏｎｅ株式会社,,株式会社,埼玉県,朝霞市,膝折町２丁目３番２６－３号,,11,227,3510014,,,,,,,2021-11-17,1,,,,,プラスワン,0
760,3030001145367,新規,0,2021-11-17,2021-11-17,内村工業株式会社,,株式会社,埼玉県,八潮市,中央２丁目１８番地２２,,11,234,3400816,,,,,,,2021-11-17,1,,,,,ウチムラコウギョウ,0
761,3030001145375,新規,0,2021-11-17,2021-11-17,株式会社コンセプト,,株式会社,埼玉県,川越市,脇田町３番地１６,,11,201,3501122,,,,,,,2021-11-17,1,,,,,コンセプト,0
762,3030001145383,新規,0,2021-11-17,2021-11-17,株式会社ＦＡＩＴＨ,,株式会社,埼玉県,新座市,東北２丁目３０番７号プルミエール志木２Ｆ,,11,230,3520001,,,,,,,2021-11-17,1,,,,,フェイス,0
763,3030001145400,新規,0,2021-11-17,2021-11-17,株式会社ＴＯＭＳ‐ＳＩＧＮ,,株式会社,埼玉県,越谷市,花田６丁目２番地６,,11,222,3430015,,,,,,,2021-11-17,1,,,,,トムズサイン,0
767,3030003018315,新規,0,2021-11-17,2021-11-17,合同会社たいたいハウス,,合同会社,埼玉県,川越市,六軒町１丁目２０番地３（レーベン川越六軒町１０９号室）,,11,201,3500041,,,,,,,2021-11-17,1,,,,,タイタイハウス,0
768,3030003018323,新規,0,2021-11-17,2021-11-17,合同会社ＭＳＣ,,合同会社,埼玉県,越谷市,七左町４丁目２０７番地１,,11,222,3430851,,,,,,,2021-11-17,1,,,,,エムエスシー,0
769,3030003018331,新規,0,2021-11-17,2021-11-17,合同会社大輪商事,,合同会社,埼玉県,さいたま市緑区,東浦和４丁目３番地２７パークハイツ２０３号,,11,109,3360926,,,,,,,2021-11-17,1,,,,,オオワショウジ,0
783,3040001120971,新規,0,2021-11-17,2021-11-17,株式会社十花,,株式会社,千葉県,千葉市稲毛区,小中台町６５５－１４第四稲毛ハイツ１－１０３,,12,103,2630044,,,,,,,2021-11-17,1,,,,,ジュッカ,0
784,3040001120988,新規,0,2021-11-17,2021-11-17,株式会社飯島工業,,株式会社,千葉県,松戸市,小金原９丁目３１番地の１５,,12,207,2700021,,,,,,,2021-11-17,1,,,,,イイジマコウギョウ,0
785,3040001120996,新規,0,2021-11-17,2021-11-17,株式会社ＮａＮａ　Ｇｒｉｆｆｏｎ,,株式会社,千葉県,八千代市,八千代台東１丁目１０番２号五十嵐ビル２Ｆ,,12,221,2760032,,,,,,,2021-11-17,1,,,,,ナナグリフォン,0
786,3040001121004,新規,0,2021-11-17,2021-11-17,ＳＨＡＲＩＦＩ商会株式会社,,株式会社,千葉県,四街道市,鹿渡１０９９番地１リバーハイツ２０６号室,,12,228,2840003,,,,,,,2021-11-17,1,,,,,シャリフィショウカイ,0
787,3040001121012,新規,0,2021-11-17,2021-11-17,株式会社Ｎｍａｎｏｓ,,株式会社,千葉県,柏市,東台本町６番３２号,,12,217,2770013,,,,,,,2021-11-17,1,,,,,エヌマノス,0
788,3040001121020,新規,0,2021-11-17,2021-11-17,株式会社ＹＭ,,株式会社,千葉県,千葉市若葉区,千城台南１丁目１０番１３号,,12,104,2640003,,,,,,,2021-11-17,1,,,,,ワイエム,0
789,3040001121045,新規,0,2021-11-17,2021-11-17,株式会社ボブネ,,株式会社,千葉県,千葉市中央区,長洲１丁目１０番６号ＣＴＳビル２Ｆ,,12,101,2600854,,,,,,,2021-11-17,1,,,,,ボブネ,0
796,3040003018958,新規,0,2021-11-17,2021-11-17,合同会社デザインラボ,,合同会社,千葉県,船橋市,宮本９丁目６番１－７１９号,,12,204,2730003,,,,,,,2021-11-17,1,,,,,デザインラボ,0
802,3050001050144,新規,0,2021-11-17,2021-11-17,株式会社ＥＲＣ,,株式会社,茨城県,つくば市,島名３５９４－６,,08,220,3002655,,,,,,,2021-11-17,1,,,,,イーアールシー,0
803,3050001050169,新規,0,2021-11-17,2021-11-17,株式会社ワタショウアグリビジネス,,株式会社,茨城県,水戸市,赤塚２丁目２０２９番地６０,,08,201,3114141,,,,,,,2021-11-17,1,,,,,ワタショウアグリビジネス,0
810,3050003006202,新規,0,2021-11-17,2021-11-17,合同会社大輝,,合同会社,茨城県,下妻市,鯨１３８９番地,,08,210,3040802,,,,,,,2021-11-17,1,,,,,ダイキ,0
811,3050003006210,新規,0,2021-11-17,2021-11-17,あおぞら商会合同会社,,合同会社,茨城県,つくば市,上ノ室１９６２－６,,08,220,3050023,,,,,,,2021-11-17,1,,,,,アオゾラショウカイ,0
814,3060001034303,新規,0,2021-11-17,2021-11-17,株式会社西田建設,,株式会社,栃木県,大田原市,美原３丁目３３３０－７２シティーコーポマイアミＩ－１０１,00124888,09,210,3240047,,,,,,,2021-11-17,1,,,,,ニシダケンセツ,0
825,3070003004294,新規,0,2021-11-17,2021-11-17,ファー・イースト・トレーディング合同会社,,合同会社,群馬県,館林市,青柳町１５８７番地の１協栄マンション－３０８,,10,207,3740035,,,,,,,2021-11-17,1,,,,,ファーイーストトレーディング,0
832,3080101022916,新規,0,2021-11-17,2021-11-17,株式会社窪田軽量,,株式会社,静岡県,沼津市,市道町８番４６号,,22,203,4100866,,,,,,,2021-11-17,1,,,,,クボタケイリョウ,0
835,3110001036194,新規,0,2021-11-17,2021-11-17,株式会社横山建築,,株式会社,新潟県,長岡市,浦６７３８番地,,15,202,9495406,,,,,,,2021-11-17,1,,,,,ヨコヤマケンチク,0
838,3120001241801,新規,0,2021-11-17,2021-11-17,潤和株式会社,,株式会社,大阪府,大阪市生野区,新今里３丁目４番１７号シャトー第４今里２０６Ａ,,27,116,5440001,,,,,,,2021-11-17,1,,,,,ジュンワ,0
839,3120001241859,新規,0,2021-11-17,2021-11-17,株式会社岡田設備,,株式会社,大阪府,枚方市,出口４丁目３９番１１号塚本マンション１０１号室,00124880,27,210,5730065,,,,,,,2021-11-17,1,,,,,オカダセツビ,0
840,3120001241867,新規,0,2021-11-17,2021-11-17,株式会社ＭＩＸ　ＣＵＢＥ,,株式会社,大阪府,大阪市中央区,島之内１丁目７番２１号ＵＫ長堀ビル３０１号室,,27,128,5420082,,,,,,,2021-11-17,1,,,,,ミックスキューブ,0
841,3120001241875,新規,0,2021-11-17,2021-11-17,株式会社やさしい保険,,株式会社,大阪府,大阪市北区,梅田１丁目１番３号大阪駅前第３ビル２５階,,27,127,5300001,,,,,,,2021-11-17,1,,,,,ヤサシイホケン,0
842,3120001241883,新規,0,2021-11-17,2021-11-17,株式会社シンメイ社,,株式会社,大阪府,大阪市生野区,桃谷５丁目１１－２３,,27,116,5440034,,,,,,,2021-11-17,1,,,,,シンメイシャ,0
843,3120001241891,新規,0,2021-11-17,2021-11-17,株式会社ａｄｂｕｙｓ,,株式会社,大阪府,大阪市中央区,伏見町３丁目１番１－３０２号,,27,128,5410044,,,,,,,2021-11-17,1,,,,,アドバイス,0
844,3120001241900,新規,0,2021-11-17,2021-11-17,株式会社Ｂｕｒａｎ,,株式会社,大阪府,枚方市,東香里南町５０番６号,,27,210,5730074,,,,,,,2021-11-17,1,,,,,ブラン,0
845,3120001241909,新規,0,2021-11-17,2021-11-17,株式会社Ｔ＆Ｓ　Ｃｏｍｍｕｎｉｃａｔｉｏｎｓ,,株式会社,大阪府,大阪市浪速区,元町２丁目３番１号難波ユニオンビル東館６階,,27,111,5560016,,,,,,,2021-11-17,1,,,,,ティアンドエスコミュニケーションズ,0
853,3120003020600,新規,0,2021-11-17,2021-11-17,合同会社三協,,合同会社,大阪府,大阪市淀川区,塚本２丁目２番２３－６０７号,,27,123,5320026,,,,,,,2021-11-17,1,,,,,サンキョウ,0
854,3120005022611,新規,0,2021-11-17,2021-11-17,一般社団法人ミュージックサークルＬＡＢＯ,,その他の設立登記法人,大阪府,大阪市住吉区,大領４丁目２番１０号３Ｆ,,27,120,5580001,,,,,,,2021-11-17,1,,,,,ミュージックサークルラボ,0
856,3120101064680,新規,0,2021-11-17,2021-11-17,株式会社悠健工業,,株式会社,大阪府,堺市南区,片蔵１７９番地,,27,145,5900121,,,,,,,2021-11-17,1,,,,,ユウケンコウギョウ,0
857,3120901045194,新規,0,2021-11-17,2021-11-17,株式会社みその,,株式会社,大阪府,豊能郡豊能町,木代１２１番地の１２,,27,321,5630215,,,,,,,2021-11-17,1,,,,,ミソノ,0
858,3120901045203,新規,0,2021-11-17,2021-11-17,株式会社タナベエステート,,株式会社,大阪府,豊中市,勝部２丁目４番２４号,,27,203,5610894,,,,,,,2021-11-17,1,,,,,タナベエステート,0
859,3120901045211,新規,0,2021-11-17,2021-11-17,株式会社ＳｕｎＴｏｎｅ,,株式会社,大阪府,豊中市,上新田３丁目２番７号,,27,203,5600085,,,,,,,2021-11-17,1,,,,,サントン,0
861,3122003002215,新規,0,2021-11-17,2021-11-17,合同会社ベストライト,,合同会社,大阪府,大東市,扇町１３－９誠光ビル６０１,,27,218,5740033,,,,,,,2021-11-17,1,,,,,ベストライト,0
866,3130001070547,新規,0,2021-11-17,2021-11-17,株式会社なごみじゅん,,株式会社,京都府,京都市中京区,錦小路通西洞院西入蟷螂山町４５８番地３,,26,104,6048225,,,,,,,2021-11-17,1,,,,,ナゴミジュン,0
867,3130001070555,新規,0,2021-11-17,2021-11-17,株式会社真理香,,株式会社,京都府,京田辺市,普賢寺宇頭城２２番地の３,,26,211,6100322,,,,,,,2021-11-17,1,,,,,マリカ,0
868,3130001070563,新規,0,2021-11-17,2021-11-17,株式会社国本商店,,株式会社,京都府,京都市上京区,室町通鞍馬口下る森之木町４６２番地１,,26,102,6020011,,,,,,,2021-11-17,1,,,,,クニモトショウテン,0
869,3130003007588,新規,0,2021-11-17,2021-11-17,Ｔ．Ｐ．Ｏ．Ｓ合同会社,,合同会社,京都府,木津川市,加茂町大野内畑１８番地,,26,214,6191142,,,,,,,2021-11-17,1,,,,,ティーピーオーエス,0
873,3140001123873,新規,0,2021-11-17,2021-11-17,株式会社リセナ,,株式会社,兵庫県,神戸市垂水区,星陵台１丁目４番３号星陵台ハイツ５０４,,28,108,6550038,,,,,,,2021-11-17,1,,,,,リセナ,0
874,3140001123923,新規,0,2021-11-17,2021-11-17,株式会社中井設備,,株式会社,兵庫県,伊丹市,中野西３丁目１番地１マイシティ伊丹１－１０８号,,28,207,6640023,,,,,,,2021-11-17,1,,,,,ナカイセツビ,0
875,3140003016984,新規,0,2021-11-17,2021-11-17,合同会社Ｌｉｆｅ　Ｉｓ　Ｍｉｎｅ,,合同会社,兵庫県,川辺郡猪名川町,伏見台２丁目３番地５４,,28,301,6660262,,,,,,,2021-11-17,1,,,,,ライフイズマイン,0
876,3140003017000,新規,0,2021-11-17,2021-11-17,合同会社ＪＢＣ　ＣＯＭＰＡＮＹ,,合同会社,兵庫県,宍粟市,山崎町山田１８４－１３,,28,227,6712575,,,,,,,2021-11-17,1,,,,,ジェイビーシーカンパニー,0
878,3150001025111,新規,0,2021-11-17,2021-11-17,株式会社アセンティア・インベストメント,,株式会社,奈良県,奈良市,大宮町６丁目１番１１号,,29,201,6308115,,,,,,,2021-11-17,1,,,,,アセンティアインベストメント,0
879,3160001023824,新規,0,2021-11-17,2021-11-17,トータルサービス株式会社,,株式会社,滋賀県,大津市,仰木の里２丁目８番３号,,25,201,5200246,,,,,,,2021-11-17,1,,,,,トータルサービス,0
890,3180001148751,新規,0,2021-11-17,2021-11-17,株式会社アサガミ工業,,株式会社,愛知県,名古屋市名東区,牧の里２丁目１９１２番地,,23,115,4650068,,,,,,,2021-11-17,1,,,,,アサガミコウギョウ,0
891,3180001148792,新規,0,2021-11-17,2021-11-17,日本アルファ住宅株式会社,,株式会社,愛知県,名古屋市中区,大須２丁目９番３３号,,23,106,4600011,,,,,,,2021-11-17,1,,,,,ニホンアルファジュウタク,0
892,3180001148801,新規,0,2021-11-17,2021-11-17,ＢＬＩＮＫ株式会社,,株式会社,愛知県,名古屋市天白区,八事天道２０１アーバンハイツ八事３０２,,23,116,4680061,,,,,,,2021-11-17,1,,,,,ブリンク,0
898,3200003005378,新規,0,2021-11-17,2021-11-17,合同会社９２Ｆａｃｔｏｒｙ,,合同会社,岐阜県,羽島郡笠松町,二見町３７,,21,303,5016047,,,,,,,2021-11-17,1,,,,,キューニーファクトリー,0
905,3250005008705,新規,0,2021-11-17,2021-11-17,特定非営利活動法人にほんごコミュニティ,,その他の設立登記法人,山口県,下関市,安岡本町２丁目６番９号,,35,201,7596611,,,,,,,2021-11-17,1,,,,,ニホンゴコミュニティ,0
907,3260001036221,新規,0,2021-11-17,2021-11-17,株式会社コーデリハウジング岡山,,株式会社,岡山県,岡山市北区,本町６番３６号第一セントラルビル４Ｆ,,33,101,7000901,,,,,,,2021-11-17,1,,,,,コーデリハウジングオカヤマ,0
909,3280001008565,新規,0,2021-11-17,2021-11-17,株式会社パーパス,,株式会社,島根県,出雲市,平野町１１１３番地８,,32,203,6930065,,,,,,,2021-11-17,1,,,,,パーパス,0
917,3290001095421,新規,0,2021-11-17,2021-11-17,株式会社Ａｋｓ　Ｄｅｓｉｇｎ,,株式会社,福岡県,糟屋郡粕屋町,若宮２丁目７番７号,,40,349,8112314,,,,,,,2021-11-17,1,,,,,エーケイエスデザイン,0
918,3290001095446,新規,0,2021-11-17,2021-11-17,株式会社Ｋ．Ｅ商事,,株式会社,福岡県,糟屋郡新宮町,桜山手２丁目６番６号,,40,345,8110113,,,,,,,2021-11-17,1,,,,,ケイイーショウジ,0
922,3290003011847,新規,0,2021-11-17,2021-11-17,合同会社イリス,,合同会社,福岡県,福岡市中央区,大濠２丁目１１－３，コモダス大濠３０４号,,40,133,8100052,,,,,,,2021-11-17,1,,,,,イリス,0
936,3330001029192,新規,0,2021-11-17,2021-11-17,株式会社Ｒ．ＴＲＡＤＩＮＧ,,株式会社,熊本県,熊本市南区,並建町４０番地,,43,104,8615263,,,,,,,2021-11-17,1,,,,,アールトレーディング,0
937,3330001029201,新規,0,2021-11-17,2021-11-17,株式会社幸成龍,,株式会社,熊本県,球磨郡錦町,大字木上東１６７６番地,,43,501,8680301,,,,,,,2021-11-17,1,,,,,コウセイリュウ,0
949,3360001029644,新規,0,2021-11-17,2021-11-17,昌輝技術株式会社,,株式会社,沖縄県,沖縄市,古謝２丁目８番１号,,47,211,9042161,,,,,,,2021-11-17,1,,,,,ショウキギジュツ,0
953,3370001047843,新規,0,2021-11-17,2021-11-17,株式会社ＦＲＯＸ,,株式会社,宮城県,岩沼市,桑原１丁目５番１３号レジデンス桑原Ｂ１０２号,,04,211,9892445,,,,,,,2021-11-17,1,,,,,フロックス,0
956,3370003005477,新規,0,2021-11-17,2021-11-17,合同会社ミライエ,,合同会社,宮城県,柴田郡大河原町,大谷字盛１番地,,04,321,9891201,,,,,,,2021-11-17,1,,,,,ミライエ,0
963,3410001013015,新規,0,2021-11-17,2021-11-17,株式会社アイアンワークス,,株式会社,秋田県,横手市,外目字三ツ塚山２１番地１,,05,203,0130053,,,,,,,2021-11-17,1,,,,,アイアンワークス,0
972,3450001013531,新規,0,2021-11-17,2021-11-17,株式会社草原の碧,,株式会社,北海道,上川郡下川町,西町１４８２番地５,,01,468,0981205,,,,,,,2021-11-17,1,,,,,ソウゲンノアオ,0
973,3460001005627,新規,0,2021-11-17,2021-11-17,株式会社ＴＳＵＮＡＧＯＯＤ,,株式会社,北海道,釧路市,末広町１１丁目１番地１０クローバービル２階,,01,206,0850014,,,,,,,2021-11-17,1,,,,,ツナグー,0
977,3470001018834,新規,0,2021-11-17,2021-11-17,竹ノ心株式会社,,株式会社,香川県,観音寺市,坂本町４丁目５番５号,,37,205,7680067,,,,,,,2021-11-17,1,,,,,タケノシン,0
978,3480005006867,新規,0,2021-11-17,2021-11-17,一般社団法人日本太陽光発電事業連合会,,その他の設立登記法人,徳島県,阿南市,那賀川町原３５０番地１,,36,204,7791231,,,,,,,2021-11-17,1,,,,,ニホンタイヨウコウハツデンジギョウレンゴウカイ,0
988,4010001222497,新規,0,2021-11-17,2021-11-17,ＪＰＡ第２２６号株式会社,,株式会社,東京都,千代田区,霞が関３丁目２番１号,,13,101,1000013,,,,,,,2021-11-17,1,,,,,ジェイピーエーダイニヒャクニジュウロクゴウ,0
989,4010001222506,新規,0,2021-11-17,2021-11-17,ＪＰＡ第２３４号株式会社,,株式会社,東京都,千代田区,霞が関３丁目２番１号,,13,101,1000013,,,,,,,2021-11-17,1,,,,,ジェイピーエーダイニヒャクサンジュウヨンゴウ,0
990,4010001222514,新規,0,2021-11-17,2021-11-17,ＪＰＡ第２４２号株式会社,,株式会社,東京都,千代田区,霞が関３丁目２番１号,,13,101,1000013,,,,,,,2021-11-17,1,,,,,ジェイピーエーダイニヒャクヨンジュウニゴウ,0
991,4010001222530,新規,0,2021-11-17,2021-11-17,Ｊｕｎｏ株式会社,,株式会社,東京都,千代田区,永田町２丁目１４番２号山王グランドビル３階スリーアイズキャピタル株式会社内,,13,101,1000014,,,,,,,2021-11-17,1,,,,,ジュノ,0
992,4010001222547,新規,0,2021-11-17,2021-11-17,Ｔｏｋｙｏ　Ｃｏｌｌａｂｏｒａｔｉｖｅ株式会社,,株式会社,東京都,千代田区,麹町６丁目６番１号,,13,101,1020083,,,,,,,2021-11-17,1,,,,,トウキョウコラボティブ,0
993,4010001222571,新規,0,2021-11-17,2021-11-17,株式会社ＬｉｏｏＫｅ,,株式会社,東京都,中央区,銀座１丁目２２番１１号銀座大竹ビジデンス２階,,13,102,1040061,,,,,,,2021-11-17,1,,,,,リオーク,0
994,4010001222605,新規,0,2021-11-17,2021-11-17,株式会社ＦＭＡカンパニー,,株式会社,東京都,文京区,小石川２丁目１５番５－２０５号,,13,105,1120002,,,,,,,2021-11-17,1,,,,,エフエムエーカンパニー,0
995,4010001222687,新規,0,2021-11-17,2021-11-17,株式会社ＳＨＩＰ第２４０号,,株式会社,東京都,千代田区,丸の内２丁目７番２号,,13,101,1000005,,,,,,,2021-11-17,1,,,,,エスエイチアイピーダイニヒャクヨンジュウゴウ,0
996,4010003036318,新規,0,2021-11-17,2021-11-17,合同会社ｓｅａｍｏ,,合同会社,東京都,千代田区,平河町２丁目１４番１１号ＨＫ平河町２Ｆ,,13,101,1020093,,,,,,,2021-11-17,1,,,,,シーモ,0
1004,4010401163770,新規,0,2021-11-17,2021-11-17,レバレジーズビジネスサポート株式会社,,株式会社,東京都,港区,虎ノ門１丁目２３番２－４１１７号,,13,103,1050001,,,,,,,2021-11-17,1,,,,,レバレジーズビジネスサポート,0
1005,4010401163886,新規,0,2021-11-17,2021-11-17,株式会社Ｓｍｏｋｅ,,株式会社,東京都,港区,新橋６丁目２０番８号ＶａｒｉｏＡ号室,,13,103,1050004,,,,,,,2021-11-17,1,,,,,スモーク,0
1006,4010401163903,新規,0,2021-11-17,2021-11-17,株式会社Ｅｎｎｙ,,株式会社,東京都,港区,虎ノ門４丁目３番地１号城山トラストタワー２７階,,13,103,1050001,,,,,,,2021-11-17,1,,,,,,0
1007,4010401163911,新規,0,2021-11-17,2021-11-17,株式会社ｃｙａｎ,,株式会社,東京都,港区,南麻布２丁目２番２８号,,13,103,1060047,,,,,,,2021-11-17,1,,,,,シアン,0
1011,4010405020407,新規,0,2021-11-17,2021-11-17,一般社団法人ＴＰＬＵ,,その他の設立登記法人,東京都,港区,台場２丁目２－４,,13,103,1350091,,,,,,,2021-11-17,1,,,,,ティーピーエルユー,0
1018,4010701041791,新規,0,2021-11-17,2021-11-17,Ｂフレームカンパニー株式会社,,株式会社,東京都,品川区,西大井１丁目４番１５号,,13,109,1400015,,,,,,,2021-11-17,1,,,,,ビーフレームカンパニー,0
1027,4010901049800,新規,0,2021-11-17,2021-11-17,ＭＡ・ＤＯ株式会社,,株式会社,東京都,世田谷区,野毛２丁目２５番１６号,,13,112,1580092,,,,,,,2021-11-17,1,,,,,マド,0
1028,4010901049809,新規,0,2021-11-17,2021-11-17,豊田新規開発株式会社,,株式会社,東京都,世田谷区,池尻２丁目３７番１７－１００６号,,13,112,1540001,,,,,,,2021-11-17,1,,,,,トヨダシンキカイハツ,0
1029,4010901049817,新規,0,2021-11-17,2021-11-17,タグマネジメント株式会社,,株式会社,東京都,世田谷区,池尻２丁目４番５号,,13,112,1540001,,,,,,,2021-11-17,1,,,,,タグマネジメント,0
1034,4011001144062,新規,0,2021-11-17,2021-11-17,株式会社ＭＥ,,株式会社,東京都,目黒区,三田２丁目４番１０号,,13,110,1530062,,,,,,,2021-11-17,1,,,,,エムイー,0
1036,4011101096922,新規,0,2021-11-17,2021-11-17,株式会社Ｅｌｍｏ,,株式会社,東京都,新宿区,西新宿７丁目５番８号ＧＯＷＡ西新宿５階,,13,104,1600023,,,,,,,2021-11-17,1,,,,,エルモ,0
1039,4011201023413,新規,0,2021-11-17,2021-11-17,サードアイズ株式会社,,株式会社,東京都,中野区,本町１丁目１３番１８号,,13,114,1640012,,,,,,,2021-11-17,1,,,,,サードアイズ,0
1041,4011401023849,新規,0,2021-11-17,2021-11-17,プルージック株式会社,,株式会社,東京都,板橋区,仲町３８－３－４０３,,13,119,1730022,,,,,,,2021-11-17,1,,,,,プルージック,0
1042,4011403003502,新規,0,2021-11-17,2021-11-17,エムデジタル合同会社,,合同会社,東京都,板橋区,常盤台１丁目１－１－６０６,,13,119,1740071,,,,,,,2021-11-17,1,,,,,エムデジタル,0
1043,4011501027485,新規,0,2021-11-17,2021-11-17,Ｓ－ｓｔａｇｅ株式会社,,株式会社,東京都,荒川区,東日暮里５丁目８番２号,,13,118,1160014,,,,,,,2021-11-17,1,,,,,エスステージ,0
1045,4011705001699,新規,0,2021-11-17,2021-11-17,一般社団法人朝陽文化研究センター,,その他の設立登記法人,東京都,江戸川区,松江２丁目３１番１１号,,13,123,1320025,,,,,,,2021-11-17,1,,,,,アサヒブンカケンキュウセンター,0
1047,4011801039981,新規,0,2021-11-17,2021-11-17,株式会社綾西エステート,,株式会社,東京都,足立区,西綾瀬３丁目５番１５号２Ｆ,,13,121,1200014,,,,,,,2021-11-17,1,,,,,リョウサイエステート,0
1049,4012403005117,新規,0,2021-11-17,2021-11-17,合同会社Ｐｌａｙｆｕｌ・Ｓｏｕｎｄ,,合同会社,東京都,多摩市,貝取１丁目６０番地の２,,13,224,2060012,,,,,,,2021-11-17,1,,,,,プレイフルサウンド,0
1051,4013103001091,新規,0,2021-11-17,2021-11-17,合同会社にしたまライフパートナーズ,,合同会社,東京都,青梅市,野上町４丁目３番地１７マンションＭ＆Ｔ１０５,,13,205,1980032,,,,,,,2021-11-17,1,,,,,ニシタマライフパートナーズ,0
1056,4013301048281,新規,0,2021-11-17,2021-11-17,Ａａｒｏｈｉ株式会社,,株式会社,東京都,豊島区,南池袋３丁目１８－４８－１０５,,13,116,1710022,,,,,,,2021-11-17,1,,,,,アロヒ,0
1057,4013303005909,新規,0,2021-11-17,2021-11-17,合同会社ファクトリアル,,合同会社,東京都,豊島区,目白２丁目１８番１５号目白コンコルド１１５号,,13,116,1710031,,,,,,,2021-11-17,1,,,,,ファクトリアル,0
1066,4020001143924,新規,0,2021-11-17,2021-11-17,株式会社一陽,,株式会社,神奈川県,横浜市青葉区,柿の木台１９番地３５,,14,117,2270048,,,,,,,2021-11-17,1,,,,,イチヨウ,0
1067,4020001143932,新規,0,2021-11-17,2021-11-17,株式会社アマボウ,,株式会社,神奈川県,横浜市青葉区,奈良町２５３３番地３７ビラ玉川学園台１０８,,14,117,2270036,,,,,,,2021-11-17,1,,,,,アマボウ,0
1068,4020001143940,新規,0,2021-11-17,2021-11-17,株式会社Ｓｔｅｌｖｉｏ,,株式会社,神奈川県,横浜市中区,桜木町１丁目１番地７ヒューリックみなとみらい１０階,,14,104,2310062,,,,,,,2021-11-17,1,,,,,ステルヴィオ,0
1069,4020001143957,新規,0,2021-11-17,2021-11-17,ｂｌｕｅ＆ｖａｌｕｅ株式会社,,株式会社,神奈川県,横浜市中区,常盤町２丁目２０－５０５,,14,104,2310014,,,,,,,2021-11-17,1,,,,,ブルーアンドバリュー,0
1070,4020003020832,新規,0,2021-11-17,2021-11-17,岡樹合同会社,,合同会社,神奈川県,川崎市宮前区,西野川１丁目３－２９,,14,136,2160044,,,,,,,2021-11-17,1,,,,,オカジュ,0
1071,4020003020849,新規,0,2021-11-17,2021-11-17,合同会社Ｄａｉｌｙ　ｐｒｏｇｒｅｓｓ,,合同会社,神奈川県,川崎市麻生区,黒川５７７－１－４０２,,14,137,2150035,,,,,,,2021-11-17,1,,,,,デイリープログレス,0
1072,4020005015277,新規,0,2021-11-17,2021-11-17,一般社団法人ゆうゆうスマイルクラブ,,その他の設立登記法人,神奈川県,横浜市西区,北幸１丁目１１番１号水信ビル７階,,14,103,2200004,,,,,,,2021-11-17,1,,,,,ユウユウスマイルクラブ,0
1077,4021001074481,新規,0,2021-11-17,2021-11-17,株式会社新神空調,,株式会社,神奈川県,藤沢市,石川２丁目１番地の１セレーノ湘南５０５,,14,205,2520815,,,,,,,2021-11-17,1,,,,,アラガミクウチョウ,0
1078,4021001074498,新規,0,2021-11-17,2021-11-17,株式会社Ｋａｗａｓｅ,,株式会社,神奈川県,藤沢市,城南３丁目６番６－９１５号,,14,205,2510057,,,,,,,2021-11-17,1,,,,,カワセ,0
1079,4021001074507,新規,0,2021-11-17,2021-11-17,株式会社創船舎,,株式会社,神奈川県,横須賀市,小川町１番地ウィルローズ横須賀中央８０４,,14,201,2380004,,,,,,,2021-11-17,1,,,,,ソウセンシャ,0
1080,4021001074515,新規,0,2021-11-17,2021-11-17,株式会社ドッグフィールド,,株式会社,神奈川県,茅ヶ崎市,東海岸南６丁目３－２４－２,,14,207,2530054,,,,,,,2021-11-17,1,,,,,ドッグフィールド,0
1081,4021001074523,新規,0,2021-11-17,2021-11-17,株式会社Ｍｉｓｍ,,株式会社,神奈川県,逗子市,池子２丁目１１番４号神武寺駅前店舗１Ｆ,,14,208,2490003,,,,,,,2021-11-17,1,,,,,ミズム,0
1085,4021003011094,新規,0,2021-11-17,2021-11-17,合同会社ＭｅｒｖａＴｅｃｈ,,合同会社,神奈川県,横須賀市,汐入町５丁目３番地７,,14,201,2380042,,,,,,,2021-11-17,1,,,,,メルヴァテック,0
1089,4030001145267,新規,0,2021-11-17,2021-11-17,株式会社ＷＭアライアンス,,株式会社,埼玉県,熊谷市,中奈良１７５番地３,,11,202,3600801,,,,,,,2021-11-17,1,,,,,ダブリューエムアライアンス,0
1090,4030001145358,新規,0,2021-11-17,2021-11-17,Ｔｒｅｅａｄ埼玉株式会社,,株式会社,埼玉県,久喜市,栗原２丁目３番地１２,,11,232,3460012,,,,,,,2021-11-17,1,,,,,ツリードサイタマ,0
1091,4030001145366,新規,0,2021-11-17,2021-11-17,株式会社コンフォートフーズ,,株式会社,埼玉県,川越市,霞ケ関北１丁目２１番地１０,,11,201,3501109,,,,,,,2021-11-17,1,,,,,コンフォートフーズ,0
1092,4030001145374,新規,0,2021-11-17,2021-11-17,株式会社田中空調,,株式会社,埼玉県,さいたま市緑区,馬場１丁目２３番地２９,,11,109,3360912,,,,,,,2021-11-17,1,,,,,タナカクウチョウ,0
1093,4030001145382,新規,0,2021-11-17,2021-11-17,株式会社ｆｌｅｕｒｉｒ,,株式会社,埼玉県,八潮市,大字南川崎１６６番地９,,11,234,3400814,,,,,,,2021-11-17,1,,,,,フルリール,0
1094,4030001145390,新規,0,2021-11-17,2021-11-17,株式会社ドングリクリエイト,,株式会社,埼玉県,所沢市,上新井５丁目３２番地の１アクサスフォート所沢ウエスト,,11,208,3591142,,,,,,,2021-11-17,1,,,,,ドングリクリエイト,0
1095,4030001145408,新規,0,2021-11-17,2021-11-17,株式会社ｓｈｉｍｓｅｉｗｏｒｋｓ,,株式会社,埼玉県,新座市,道場１丁目１番１号サンハイツ道場２０２,,11,230,3520024,,,,,,,2021-11-17,1,,,,,シンセイワークス,0
1099,4040001120970,新規,0,2021-11-17,2021-11-17,クダーガマゲ株式会社,,株式会社,千葉県,成田市,はなのき台３丁目６番地２３パストラルＶＩ１０２号,00124884,12,211,2860007,,,,,,,2021-11-17,1,,,,,クダーガマゲ,0
1100,4040001120987,新規,0,2021-11-17,2021-11-17,株式会社国翠創芸,,株式会社,千葉県,千葉市稲毛区,園生町５４８番地３９,,12,103,2630051,,,,,,,2021-11-17,1,,,,,コクスイソウゲイ,0
1101,4040001120995,新規,0,2021-11-17,2021-11-17,株式会社リデナ,,株式会社,千葉県,千葉市稲毛区,轟町５丁目３番５０号,,12,103,2630021,,,,,,,2021-11-17,1,,,,,リデナ,0
1102,4040001121003,新規,0,2021-11-17,2021-11-17,クレイソフト株式会社,,株式会社,千葉県,市川市,大洲４丁目１番１２号,,12,203,2720032,,,,,,,2021-11-17,1,,,,,クレイソフト,0
1103,4040001121028,新規,0,2021-11-17,2021-11-17,株式会社ｔｅｎｓｈａｂｉ,,株式会社,千葉県,松戸市,松戸１３０７－１松戸ビル１３Ｆ,,12,207,2710092,,,,,,,2021-11-17,1,,,,,テンシャビ,0
1104,4040001121036,新規,0,2021-11-17,2021-11-17,ひやまトータルプラン株式会社,,株式会社,千葉県,松戸市,松戸１２２８番地の１松戸ステーションビル５階,,12,207,2710092,,,,,,,2021-11-17,1,,,,,ヒヤマトータルプラン,0
1105,4040001121044,新規,0,2021-11-17,2021-11-17,株式会社Ｉ．Ｋ．Ｉ　ＳＴＹＬＥ,,株式会社,千葉県,千葉市中央区,春日２丁目２６番９号,,12,101,2600033,,,,,,,2021-11-17,1,,,,,アイケーアイスタイル,0
1106,4040001121052,新規,0,2021-11-17,2021-11-17,Ｇ　ａｎｄ　Ｂ株式会社,,株式会社,千葉県,市川市,行徳駅前２丁目２１番２２－１０１５号,,12,203,2720133,,,,,,,2021-11-17,1,,,,,ジーアンドビー,0
1108,4040003018899,新規,0,2021-11-17,2021-11-17,合同会社ＭＥＸ　Ｌｉｖａ,,合同会社,千葉県,千葉市若葉区,貝塚２丁目８番５号プリムローズカレント１０１号,,12,104,2640020,,,,,,,2021-11-17,1,,,,,ミークスリーヴァ,0
1109,4040003018949,新規,0,2021-11-17,2021-11-17,合同会社ディーアンドエム,,合同会社,千葉県,白井市,桜台４丁目７番２８号,,12,232,2701412,,,,,,,2021-11-17,1,,,,,ディーアンドエム,0
1112,4050001050143,新規,0,2021-11-17,2021-11-17,株式会社Ｐ＆Ｓ,,株式会社,茨城県,守谷市,ひがし野２丁目１番地ブランズシティ守谷１８０９号室,,08,224,3020131,,,,,,,2021-11-17,1,,,,,ピーアンドエス,0
1123,4070001038657,新規,0,2021-11-17,2021-11-17,株式会社ＩＢＡＤＡＨ,,株式会社,群馬県,館林市,成島町２２２番地タツザワビル１－２Ａ,,10,207,3740055,,,,,,,2021-11-17,1,,,,,イバダ,0
1131,4090003001990,新規,0,2021-11-17,2021-11-17,合同会社ｎｏｂｌｅ,,合同会社,山梨県,甲府市,中央４丁目４番２６号藤屋ビル１階,,19,201,4000032,,,,,,,2021-11-17,1,,,,,ノーベル,0
1136,4110001036193,新規,0,2021-11-17,2021-11-17,株式会社蒼柴探偵事務所,,株式会社,新潟県,新潟市中央区,笹口１丁目１７番２１号,,15,103,9500911,,,,,,,2021-11-17,1,,,,,アオシタンテイジムショ,0
1146,4120001241858,新規,0,2021-11-17,2021-11-17,株式会社Ａ－ステージ,,株式会社,大阪府,大阪市北区,天満２丁目８番１７号６０２,,27,127,5300043,,,,,,,2021-11-17,1,,,,,エイステージ,0
1147,4120001241866,新規,0,2021-11-17,2021-11-17,株式会社フュージョン,,株式会社,大阪府,大阪市淀川区,新北野１丁目１１番２３－１１０１号,,27,123,5320025,,,,,,,2021-11-17,1,,,,,フュージョン,0
1148,4120001241874,新規,0,2021-11-17,2021-11-17,ｒの魂株式会社,,株式会社,大阪府,大阪市北区,黒崎町４番６号,,27,127,5300023,,,,,,,2021-11-17,1,,,,,アールノタマシイ,0
1149,4120001241890,新規,0,2021-11-17,2021-11-17,株式会社Ｋ’ｓお料理研究所,,株式会社,大阪府,大阪市淀川区,三国本町１丁目１１番２３－１１０５号,,27,123,5320005,,,,,,,2021-11-17,1,,,,,ケーズオリョウリケンキュウジョ,0
1150,4120001241924,新規,0,2021-11-17,2021-11-17,ＡＳＫ株式会社,,株式会社,大阪府,枚方市,大垣内町１丁目８番２０号,,27,210,5730027,,,,,,,2021-11-17,1,,,,,アスク,0
1157,4120003020608,新規,0,2021-11-17,2021-11-17,ファンズカミング合同会社,,合同会社,大阪府,大阪市港区,弁天１丁目２－１大阪ベイタワー１４Ｆ,,27,107,5520007,,,,,,,2021-11-17,1,,,,,ファンズカミング,0
1158,4120003020616,新規,0,2021-11-17,2021-11-17,合同会社ＣＯＬＯＲＳ,,合同会社,大阪府,大阪市福島区,福島６丁目１５－１０ＯＤＥＳＳＡ北梅田８０３号室,,27,103,5530003,,,,,,,2021-11-17,1,,,,,カラーズ,0
1161,4120005022610,新規,0,2021-11-17,2021-11-17,一般社団法人日本クリエーター協会,,その他の設立登記法人,大阪府,大阪市北区,西天満５丁目６番１０号,,27,127,5300047,,,,,,,2021-11-17,1,,,,,ニホンクリエーターキョウカイ,0
1164,4120101064671,新規,0,2021-11-17,2021-11-17,松山建設株式会社,,株式会社,大阪府,和泉市,春木町８６６番地の１,,27,219,5941141,,,,,,,2021-11-17,1,,,,,マツヤマケンセツ,0
1167,4120901045202,新規,0,2021-11-17,2021-11-17,株式会社Ｗ,,株式会社,大阪府,茨木市,玉島２丁目１２番１１号,,27,211,5670846,,,,,,,2021-11-17,1,,,,,ダブリュー,0
1168,4120901045210,新規,0,2021-11-17,2021-11-17,コクーン株式会社,,株式会社,大阪府,豊中市,庄内西町５丁目５番７号,,27,203,5610832,,,,,,,2021-11-17,1,,,,,コクーン,0
1169,4120901045219,新規,0,2021-11-17,2021-11-17,株式会社響ＥＳＴＡＴＥ,,株式会社,大阪府,豊中市,本町１丁目１２－２,,27,203,5600021,,,,,,,2021-11-17,1,,,,,ヒビキエステート,0
1170,4120901045227,新規,0,2021-11-17,2021-11-17,株式会社ゼロイチ,,株式会社,大阪府,豊中市,庄内東町４丁目１３番２２号１階,,27,203,5610831,,,,,,,2021-11-17,1,,,,,ゼロイチ,0
1172,4122003002214,新規,0,2021-11-17,2021-11-17,合同会社ハーモニーラブ,,合同会社,大阪府,大東市,扇町１３－９誠光ビル６０１,,27,218,5740033,,,,,,,2021-11-17,1,,,,,ハーモニーラブ,0
1177,4130001070562,新規,0,2021-11-17,2021-11-17,ＳＴ．ｂｉｚ株式会社,,株式会社,京都府,京都市左京区,北白川仕伏町２７番地,,26,103,6068283,,,,,,,2021-11-17,1,,,,,エスティービズ,0
1178,4130003007587,新規,0,2021-11-17,2021-11-17,京プラ合同会社,,合同会社,京都府,京都市伏見区,醍醐和泉町１６番地１０東陽ＢＬＤ１Ｆ,,26,109,6011351,,,,,,,2021-11-17,1,,,,,キョウプラ,0
1183,4140001123872,新規,0,2021-11-17,2021-11-17,株式会社パルデンサ,,株式会社,兵庫県,三田市,あかしあ台５丁目２２番地４,,28,219,6691323,,,,,,,2021-11-17,1,,,,,パルデンサ,0
1184,4140001123880,新規,0,2021-11-17,2021-11-17,株式会社Ｔ‐ａｃｔ,,株式会社,兵庫県,尼崎市,西長洲町３丁目１－１,,28,202,6600805,,,,,,,2021-11-17,1,,,,,ティーアクト,0
1189,4140003016983,新規,0,2021-11-17,2021-11-17,明石航測合同会社,,合同会社,兵庫県,明石市,東朝霧丘２５番２３号ＩｓｌａｎｄＰａｄｄｙ－Ｓ２０１号,,28,203,6730854,,,,,,,2021-11-17,1,,,,,アカシコウソク,0
1191,4150003002545,新規,0,2021-11-17,2021-11-17,合同会社ＵＫＡＩ,,合同会社,奈良県,吉野郡東吉野村,大字木津川５７９番地の２,,29,453,6332432,,,,,,,2021-11-17,1,,,,,ウカイ,0
1201,4180001148759,新規,0,2021-11-17,2021-11-17,株式会社ホーマ,,株式会社,愛知県,春日井市,稲口町３丁目３番地,,23,206,4860905,,,,,,,2021-11-17,1,,,,,ホーマ,0
1202,4180001148783,新規,0,2021-11-17,2021-11-17,株式会社カワムラ,,株式会社,愛知県,名古屋市港区,本宮町５丁目７番地,,23,111,4550064,,,,,,,2021-11-17,1,,,,,カワムラ,0
1203,4180001148817,新規,0,2021-11-17,2021-11-17,株式会社大和ヒューマンマネジメント,,株式会社,愛知県,一宮市,栄４丁目６番８号一宮商工会議所会館５階,,23,203,4910858,,,,,,,2021-11-17,1,,,,,ヤマトヒューマンマネジメント,0
1205,4180003023200,新規,0,2021-11-17,2021-11-17,合同会社不易流行,,合同会社,愛知県,名古屋市中区,千代田１丁目１０番６号,,23,106,4600012,,,,,,,2021-11-17,1,,,,,フエキリュウコウ,0
1206,4180003023209,新規,0,2021-11-17,2021-11-17,Ｓｏｅｌ合同会社,,合同会社,愛知県,一宮市,大赤見字辻ノ御堂３７番地,00124877,23,203,4910015,,,,,,,2021-11-17,1,,,,,ソエル,0
1207,4180005019510,新規,0,2021-11-17,2021-11-17,一般社団法人七彩のはな,,その他の設立登記法人,愛知県,名古屋市中川区,打出２丁目４３番地の３,,23,110,4540926,,,,,,,2021-11-17,1,,,,,ナナイロノハナ,0
1208,4180005019519,新規,0,2021-11-17,2021-11-17,ＮＩＵ協同組合,,その他の設立登記法人,愛知県,長久手市,西原３２番地の１,,23,238,4801183,,,,,,,2021-11-17,1,,,,,エヌアイユー,0
1212,4200001039419,新規,0,2021-11-17,2021-11-17,株式会社ＣＴＦ,,株式会社,岐阜県,可児市,みずきケ丘２丁目３０番地,,21,214,5090240,,,,,,,2021-11-17,1,,,,,シーティーエフ,0
1220,4240001058943,新規,0,2021-11-17,2021-11-17,株式会社エヌライフ,,株式会社,広島県,広島市安佐南区,長束西１丁目３番２１－１３号,,34,105,7310136,,,,,,,2021-11-17,1,,,,,エヌライフ,0
1228,4290001095412,新規,0,2021-11-17,2021-11-17,株式会社ＡＮＳＷＥＲ,,株式会社,福岡県,糟屋郡須惠町,大字植木１１１５番地１,,40,344,8112112,,,,,,,2021-11-17,1,,,,,アンサー,0
1229,4290001095437,新規,0,2021-11-17,2021-11-17,株式会社ソフィーム,,株式会社,福岡県,福岡市東区,舞松原６丁目１０番２２号,,40,131,8130042,,,,,,,2021-11-17,1,,,,,ソフィーム,0
1230,4290001095453,新規,0,2021-11-17,2021-11-17,株式会社徳智,,株式会社,福岡県,福岡市南区,和田２丁目２番３２号,,40,134,8111343,,,,,,,2021-11-17,1,,,,,トクトモ,0
1232,4290003011846,新規,0,2021-11-17,2021-11-17,合同会社ｗｏｏｄｓｕｐｐｏｒｔ,,合同会社,福岡県,福岡市中央区,小笹１丁目６番２１－２号,,40,133,8100033,,,,,,,2021-11-17,1,,,,,ウッドサポート,0
1234,4300001012712,新規,0,2021-11-17,2021-11-17,株式会社住まいの情報センター,,株式会社,佐賀県,三養基郡基山町,大字宮浦１６５番地２,,41,341,8410204,,,,,,,2021-11-17,1,,,,,スマイノジョウホウセンター,0
1240,4320001018732,新規,0,2021-11-17,2021-11-17,ＴＯＰ　ＳＥＲＶＩＣＥ株式会社,,株式会社,大分県,大分市,明野北２丁目７番３５－１０９号,,44,201,8700165,,,,,,,2021-11-17,1,,,,,トップサービス,0
1243,4330001029191,新規,0,2021-11-17,2021-11-17,株式会社ＮＯＢプラン,,株式会社,熊本県,上益城郡益城町,大字馬水５５７,,43,443,8612232,,,,,,,2021-11-17,1,,,,,ノブプラン,0
1244,4330001029200,新規,0,2021-11-17,2021-11-17,株式会社ボーダレス,,株式会社,熊本県,熊本市北区,鶴羽田４丁目１３番９号,,43,105,8615517,,,,,,,2021-11-17,1,,,,,ボーダレス,0
1247,4360001029635,新規,0,2021-11-17,2021-11-17,株式会社琉華,,株式会社,沖縄県,豊見城市,字豊崎１番地１０７４,,47,212,9010225,,,,,,,2021-11-17,1,,,,,リュウカ,0
1248,4360001029651,新規,0,2021-11-17,2021-11-17,株式会社玉城清掃,,株式会社,沖縄県,南城市,大里字大里８０７番地,,47,215,9011202,,,,,,,2021-11-17,1,,,,,タマシロセイソウ,0
1253,4370001047826,新規,0,2021-11-17,2021-11-17,株式会社ＳＥＮＤＡＩ　ｌａｂ,,株式会社,宮城県,仙台市太白区,長町２丁目４番２号,,04,104,9820011,,,,,,,2021-11-17,1,,,,,センダイラボ,0
1254,4370001047834,新規,0,2021-11-17,2021-11-17,株式会社しずく屋,,株式会社,宮城県,仙台市青葉区,東照宮１丁目１番５－８０８号,,04,101,9810908,,,,,,,2021-11-17,1,,,,,シズクヤ,0
1255,4370001047842,新規,0,2021-11-17,2021-11-17,株式会社ひなあと,,株式会社,宮城県,仙台市青葉区,芋沢字赤坂２７番地の５,,04,101,9893212,,,,,,,2021-11-17,1,,,,,ヒナアト,0
1256,4380001032348,新規,0,2021-11-17,2021-11-17,株式会社ＧＤ山口薬品１号,,株式会社,福島県,郡山市,安積２丁目６番地の１,,07,203,9630107,,,,,,,2021-11-17,1,,,,,ジーディヤマグチヤクヒンイチゴウ,0
1258,4390003001894,新規,0,2021-11-17,2021-11-17,合同会社Ｎｉｉｎａ,,合同会社,山形県,山形市,下条町１丁目４番７６号,,06,201,9900823,,,,,,,2021-11-17,1,,,,,ニーナ,0
1269,4450001013530,新規,0,2021-11-17,2021-11-17,株式会社コーヨー,,株式会社,北海道,旭川市,大町一条２丁目９番地の１２４,,01,204,0700841,,,,,,,2021-11-17,1,,,,,コーヨー,0
1274,4470001018833,新規,0,2021-11-17,2021-11-17,特技工業株式会社,,株式会社,香川県,丸亀市,原田町２２５５番地１,,37,202,7630074,,,,,,,2021-11-17,1,,,,,トクギコウギョウ,0
1278,4480003001753,新規,0,2021-11-17,2021-11-17,彦企画合同会社,,合同会社,徳島県,阿南市,新野町貞持６７番地１,,36,204,7791510,,,,,,,2021-11-17,1,,,,,ヒコキカク,0
1280,4500001023813,新規,0,2021-11-17,2021-11-17,ポノ株式会社,,株式会社,愛媛県,松山市,辻町６－２８－３,,38,201,7900063,,,,,,,2021-11-17,1,,,,,ポノ,0
1290,5010001222505,新規,0,2021-11-17,2021-11-17,ＪＰＡ第２３３号株式会社,,株式会社,東京都,千代田区,霞が関３丁目２番１号,,13,101,1000013,,,,,,,2021-11-17,1,,,,,ジェイピーエーダイニヒャクサンジュウサンゴウ,0
1291,5010001222513,新規,0,2021-11-17,2021-11-17,ＪＰＡ第２４１号株式会社,,株式会社,東京都,千代田区,霞が関３丁目２番１号,,13,101,1000013,,,,,,,2021-11-17,1,,,,,ジェイピーエーダイニヒャクヨンジュウイチゴウ,0
1292,5010001222546,新規,0,2021-11-17,2021-11-17,株式会社神山,,株式会社,東京都,文京区,小石川２丁目２４番１６号,,13,105,1120002,,,,,,,2021-11-17,1,,,,,カミヤマ,0
1293,5010001222554,新規,0,2021-11-17,2021-11-17,株式会社ＡＬＶＡＮＣＥ,,株式会社,東京都,千代田区,永田町２丁目７番９号,,13,101,1000014,,,,,,,2021-11-17,1,,,,,アルヴァンス,0
1294,5010001222595,新規,0,2021-11-17,2021-11-17,株式会社ＳＵＭＩＫＡ,,株式会社,東京都,文京区,目白台１丁目９番４号,,13,105,1120015,,,,,,,2021-11-17,1,,,,,スミカ,0
1295,5010001222604,新規,0,2021-11-17,2021-11-17,ＣＥＡ　Ｐｒｏｐｅｒｔｉｅｓ株式会社,,株式会社,東京都,千代田区,四番町３番地１０・番町ＭＫビル１０２号室,,13,101,1020081,,,,,,,2021-11-17,1,,,,,シーイーエープロパティーズ,0
1296,5010001222612,新規,0,2021-11-17,2021-11-17,Ｎプランニング株式会社,,株式会社,東京都,中央区,日本橋兜町１７番２号兜町第６葉山ビル４階,,13,102,1030026,,,,,,,2021-11-17,1,,,,,エヌプランニング,0
1297,5010001222686,新規,0,2021-11-17,2021-11-17,株式会社ＣＬＩＰ第２３０号,,株式会社,東京都,千代田区,丸の内２丁目７番２号,,13,101,1000005,,,,,,,2021-11-17,1,,,,,シーエルアイピーダイニヒャクサンジュウゴウ,0
1298,5010003036300,新規,0,2021-11-17,2021-11-17,ＴＫＲＥアドバイザリー合同会社,,合同会社,東京都,中央区,勝どき６丁目３番２－３５２２号,,13,102,1040054,,,,,,,2021-11-17,1,,,,,ティーケーアールイーアドバイザリー,0
1307,5010401163893,新規,0,2021-11-17,2021-11-17,株式会社ＨＩＶＥ,,株式会社,東京都,港区,赤坂２丁目８番１１号溜池山王葵ビル３０２,,13,103,1070052,,,,,,,2021-11-17,1,,,,,ハイヴ,0
1308,5010401163910,新規,0,2021-11-17,2021-11-17,エナジェティックデザイン株式会社,,株式会社,東京都,港区,北青山２丁目１２番８号ＢＩＺＳＭＡＲＴ青山,,13,103,1070061,,,,,,,2021-11-17,1,,,,,エナジェティックデザイン,0
1309,5010401163919,新規,0,2021-11-17,2021-11-17,Ｈａｕ’ｏｌｉ株式会社,,株式会社,東京都,港区,虎ノ門１丁目７番６号６階,,13,103,1050001,,,,,,,2021-11-17,1,,,,,ハウオリ,0
1311,5010403026520,新規,0,2021-11-17,2021-11-17,合同会社ＥＩＲＥＮＥ,,合同会社,東京都,港区,三田１丁目７番１号,,13,103,1080073,,,,,,,2021-11-17,1,,,,,エイレーネ,0
1312,5010403026537,新規,0,2021-11-17,2021-11-17,Ｌｕｃｉｄ　ｔｒａｄｉｎｇ合同会社,,合同会社,東京都,港区,麻布十番１丁目１１番１－４０２号,,13,103,1060045,,,,,,,2021-11-17,1,,,,,ルシッドトレーディング,0
1315,5010501048103,新規,0,2021-11-17,2021-11-17,和＿源国際株式会社,00124886,株式会社,東京都,台東区,台東２丁目２２番１３号小林第二ビル４階,,13,106,1100016,,,,,,,2021-11-17,1,,,,,ワコンゲンコクサイ,0
1321,5010701041790,新規,0,2021-11-17,2021-11-17,テスコム情報システム株式会社,,株式会社,東京都,品川区,南大井６丁目２２番７号,,13,109,1400013,,,,,,,2021-11-17,1,,,,,テスコムジョウホウシステム,0
1322,5010803003953,新規,0,2021-11-17,2021-11-17,合同会社ＧＥＮＳＯ,,合同会社,東京都,大田区,久が原２丁目１３番２３－５０９号,,13,111,1460085,,,,,,,2021-11-17,1,,,,,ゲンソー,0
1325,5010901049799,新規,0,2021-11-17,2021-11-17,芸夢ＹＡＭＡＭＯＴＯ株式会社,,株式会社,東京都,世田谷区,深沢４丁目３４番１９号,,13,112,1580081,,,,,,,2021-11-17,1,,,,,ゲイムヤマモト,0
1326,5010901049808,新規,0,2021-11-17,2021-11-17,株式会社ジャポニエ・ビューティー,,株式会社,東京都,世田谷区,梅丘３丁目２番１４号,,13,112,1540022,,,,,,,2021-11-17,1,,,,,ジャポニエビューティー,0
1327,5010903006939,新規,0,2021-11-17,2021-11-17,合同会社ネイバーフッド,,合同会社,東京都,世田谷区,玉川３丁目３３番８号,,13,112,1580094,,,,,,,2021-11-17,1,,,,,ネイバーフッド,0
1332,5011001143955,新規,0,2021-11-17,2021-11-17,株式会社Ｆｕｚｚｙ　ｂｌｏｏｍ,,株式会社,東京都,渋谷区,渋谷１丁目１７番６－１５０２号ザ・パークハウス渋谷美竹,,13,113,1500002,,,,,,,2021-11-17,1,,,,,ファジーブルーム,0
1333,5011005009293,新規,0,2021-11-17,2021-11-17,一般社団法人ＭＪＳＴｅＰ,,その他の設立登記法人,東京都,渋谷区,上原２丁目２０番６号ザ・コート代々木上原３０３,,13,113,1510064,,,,,,,2021-11-17,1,,,,,エムジェイステップ,0
1337,5011301027354,新規,0,2021-11-17,2021-11-17,株式会社ヒューマンラボ,,株式会社,東京都,杉並区,成田東４丁目３７番８－１００１号ハイライフ阿佐谷,,13,115,1660015,,,,,,,2021-11-17,1,,,,,ヒューマンラボ,0
1341,5011401023848,新規,0,2021-11-17,2021-11-17,株式会社裕田,,株式会社,東京都,板橋区,大山町３５番６－１０４号,,13,119,1730023,,,,,,,2021-11-17,1,,,,,ユウデン,0
1345,5011501027492,新規,0,2021-11-17,2021-11-17,株式会社Ｂｏｎｄｓ,,株式会社,東京都,北区,中里２丁目３番２号久喜第２ビル３階,,13,117,1140015,,,,,,,2021-11-17,1,,,,,ボンズ,0
1346,5011503004969,新規,0,2021-11-17,2021-11-17,ＴｒａｎＳｈｏｐ合同会社,,合同会社,東京都,北区,西が丘１丁目２９番３号,,13,117,1150056,,,,,,,2021-11-17,1,,,,,トランショップ,0
1347,5011503004977,新規,0,2021-11-17,2021-11-17,合同会社回家,,合同会社,東京都,北区,十条仲原４丁目１７番５－２０２号,,13,117,1140031,,,,,,,2021-11-17,1,,,,,フェイジア,0
1353,5011801039980,新規,0,2021-11-17,2021-11-17,株式会社北電機工業所,,株式会社,東京都,足立区,佐野１丁目８番１１号,,13,121,1210053,,,,,,,2021-11-17,1,,,,,キタデンキコウギョウショ,0
1355,5012401038547,新規,0,2021-11-17,2021-11-17,株式会社アグリコール,,株式会社,東京都,狛江市,中和泉１丁目５番３号,,13,219,2010012,,,,,,,2021-11-17,1,,,,,アグリコール,0
1360,5012801021219,新規,0,2021-11-17,2021-11-17,ＬＡＲＭＥ株式会社,,株式会社,東京都,国分寺市,本多５丁目１３－１４－２０２,,13,214,1850011,,,,,,,2021-11-17,1,,,,,ラルム,0
1364,5013103001090,新規,0,2021-11-17,2021-11-17,Ｌｕｃｋｙ　Ｓｔａｒ合同会社,,合同会社,東京都,福生市,牛浜９９番地１２,,13,218,1970024,,,,,,,2021-11-17,1,,,,,ラッキースター,0
1369,5013303005908,新規,0,2021-11-17,2021-11-17,合同会社ｓｔａｎｄｏｒｍ,,合同会社,東京都,豊島区,雑司が谷１丁目４８番８号グランフォース東池袋２０１号,,13,116,1710032,,,,,,,2021-11-17,1,,,,,スタンドーム,0
1375,5020001143915,新規,0,2021-11-17,2021-11-17,株式会社与一,,株式会社,神奈川県,横浜市中区,北仲通５丁目５７番地２ザ・タワー横浜北仲３０２６,,14,104,2310003,,,,,,,2021-11-17,1,,,,,ヨイチ,0
1376,5020001143923,新規,0,2021-11-17,2021-11-17,株式会社Ｎｅｅｄ,,株式会社,神奈川県,横浜市港北区,新横浜３丁目７番１８号日総第１８ビル,,14,109,2220033,,,,,,,2021-11-17,1,,,,,ニード,0
1377,5020001143931,新規,0,2021-11-17,2021-11-17,株式会社ガーデンヒーローズ,,株式会社,神奈川県,川崎市中原区,宮内２丁目１１番７号－２０１,,14,133,2110051,,,,,,,2021-11-17,1,,,,,ガーデンヒーローズ,0
1378,5020001143948,新規,0,2021-11-17,2021-11-17,株式会社サウガンナー,,株式会社,神奈川県,横浜市中区,桜木町１丁目１０１番地１クロスゲート７階,,14,104,2310062,,,,,,,2021-11-17,1,,,,,サウガンナー,0
1379,5020001143972,新規,0,2021-11-17,2021-11-17,株式会社プライムワークス,,株式会社,神奈川県,川崎市川崎区,宮本町３番地５電公ビル２０１,,14,131,2100004,,,,,,,2021-11-17,1,,,,,プライムワークス,0
1389,5020003020831,新規,0,2021-11-17,2021-11-17,合同会社ＮＴＤ,,合同会社,神奈川県,横浜市磯子区,森１丁目１５番１－４０２号,,14,107,2350023,,,,,,,2021-11-17,1,,,,,エヌティディ,0
1394,5021001074489,新規,0,2021-11-17,2021-11-17,アークパートナーズ株式会社,,株式会社,神奈川県,中郡大磯町,大磯６０３番地７,,14,341,2550003,,,,,,,2021-11-17,1,,,,,アークパートナーズ,0
1395,5021001074497,新規,0,2021-11-17,2021-11-17,株式会社ＳＬＡＮＤ,,株式会社,神奈川県,横須賀市,長沢３丁目７番８４号,,14,201,2390842,,,,,,,2021-11-17,1,,,,,エスランド,0
1396,5021001074514,新規,0,2021-11-17,2021-11-17,株式会社安達国際,,株式会社,神奈川県,愛甲郡愛川町,中津１４８１番地の５,,14,401,2430303,,,,,,,2021-11-17,1,,,,,アダチコクサイ,0
1397,5021001074539,新規,0,2021-11-17,2021-11-17,株式会社Ｊ３,,株式会社,神奈川県,平塚市,四之宮１丁目３番５７号,,14,203,2540014,,,,,,,2021-11-17,1,,,,,ジェイスリー,0
1403,5030001145365,新規,0,2021-11-17,2021-11-17,聖矢堂株式会社,,株式会社,埼玉県,所沢市,東狭山ケ丘１丁目７番地の１０,,11,208,3591106,,,,,,,2021-11-17,1,,,,,セイヤドウ,0
1404,5030001145373,新規,0,2021-11-17,2021-11-17,アットウィルセキュリティ株式会社,,株式会社,埼玉県,和光市,新倉１丁目５番２５号,,11,229,3510115,,,,,,,2021-11-17,1,,,,,アットウィルセキュリティ,0
1405,5030001145381,新規,0,2021-11-17,2021-11-17,株式会社ホワイトベルト,,株式会社,埼玉県,志木市,柏町５丁目１８番３６－３０１号,,11,228,3530007,,,,,,,2021-11-17,1,,,,,ホワイトベルト,0
1406,5030001145398,新規,0,2021-11-17,2021-11-17,小林商事株式会社,,株式会社,埼玉県,川口市,栄町一丁目３番９号,00124892,11,203,3320000,,,,,,,2021-11-17,1,,,,,コバヤシショウジ,0
1407,5030001145407,新規,0,2021-11-17,2021-11-17,株式会社ＫＯＪＩＲＯ．ＳＴＯＲＥＳ,,株式会社,埼玉県,さいたま市西区,大字二ツ宮５６８番地１,,11,101,3310065,,,,,,,2021-11-17,1,,,,,コジロードットストアーズ,0
1410,5030003018338,新規,0,2021-11-17,2021-11-17,合同会社ｂａｙａｓｈｉｃｏ,,合同会社,埼玉県,さいたま市桜区,道場２丁目１番１－１４１０号,,11,106,3380835,,,,,,,2021-11-17,1,,,,,バヤシコ,0
1420,5040001120994,新規,0,2021-11-17,2021-11-17,株式会社しのだ,,株式会社,千葉県,成田市,多良貝２４５番地３０７７,,12,211,2870242,,,,,,,2021-11-17,1,,,,,シノダ,0
1421,5040001121002,新規,0,2021-11-17,2021-11-17,潤徳株式会社,,株式会社,千葉県,市川市,塩焼３丁目１１－３ニューパールハイツ３０５,,12,203,2720114,,,,,,,2021-11-17,1,,,,,ジュントク,0
1422,5040001121019,新規,0,2021-11-17,2021-11-17,株式会社サードドア,,株式会社,千葉県,船橋市,西習志野２丁目２０番７号,,12,204,2740815,,,,,,,2021-11-17,1,,,,,サードドア,0
1423,5040001121043,新規,0,2021-11-17,2021-11-17,株式会社ミロク,,株式会社,千葉県,千葉市若葉区,高品町１５９２番地３,,12,104,2640024,,,,,,,2021-11-17,1,,,,,ミロク,0
1429,5040003018948,新規,0,2021-11-17,2021-11-17,合同会社Ｆｒｅｅｌｉｆｅ,,合同会社,千葉県,大網白里市,南今泉１０６０番地,,12,239,2993202,,,,,,,2021-11-17,1,,,,,フリーライフ,0
1434,5050001050142,新規,0,2021-11-17,2021-11-17,株式会社Ｒａｍｅｌｅｔ,,株式会社,茨城県,筑西市,下川島８０４番地１０,,08,227,3080855,,,,,,,2021-11-17,1,,,,,ラメレット,0
1435,5050001050150,新規,0,2021-11-17,2021-11-17,株式会社カーペインターズ,,株式会社,茨城県,石岡市,中津川１３１番地３,,08,205,3150043,,,,,,,2021-11-17,1,,,,,カーペインターズ,0
1436,5050001050159,新規,0,2021-11-17,2021-11-17,ＢＵＫＨＡＲＩ　ＭＯＴＯＲＳ株式会社,,株式会社,茨城県,下妻市,下妻丙１５９番地４,,08,210,3040061,,,,,,,2021-11-17,1,,,,,ブカリモータース,0
1437,5050001050167,新規,0,2021-11-17,2021-11-17,小山商事株式会社,,株式会社,茨城県,神栖市,大野原１丁目５番１８号,,08,232,3140144,,,,,,,2021-11-17,1,,,,,コヤマショウジ,0
1438,5050003006209,新規,0,2021-11-17,2021-11-17,アステックホームズ合同会社,,合同会社,茨城県,筑西市,丙２１４番地桧山ビル１０１,,08,227,3080031,,,,,,,2021-11-17,1,,,,,アステックホームズ,0
1442,5060005009927,新規,0,2021-11-17,2021-11-17,一般社団法人ＬＩＡＬＬスポーツクラブ,,その他の設立登記法人,栃木県,宇都宮市,砥上町３４０番地１,,09,201,3200856,,,,,,,2021-11-17,1,,,,,リオールスポーツクラブ,0
1444,5070001038656,新規,0,2021-11-17,2021-11-17,株式会社テンポ・ルバート,,株式会社,群馬県,桐生市,琴平町３番３号都ビル１Ｆ,,10,203,3760003,,,,,,,2021-11-17,1,,,,,テンポルバート,0
1454,5080003002683,新規,0,2021-11-17,2021-11-17,ＭＡＳＳＩＶＥ　ＤＹＮＡＭＩＣ合同会社,,合同会社,静岡県,静岡市葵区,瀬名５丁目４－１９,,22,101,4200911,,,,,,,2021-11-17,1,,,,,マッシブダイナミック,0
1460,5080401025476,新規,0,2021-11-17,2021-11-17,株式会社サポートスタッフィング,,株式会社,静岡県,菊川市,東横地５８３番地１,,22,224,4390022,,,,,,,2021-11-17,1,,,,,サポートスタッフィング,0
1466,5100001034817,新規,0,2021-11-17,2021-11-17,株式会社木曽ツリーワークス,,株式会社,長野県,木曽郡木曽町,新開５２３８番地１,,20,432,3970002,,,,,,,2021-11-17,1,,,,,キソツリーワークス,0
1471,5110001036192,新規,0,2021-11-17,2021-11-17,吉祥天環境研究所株式会社,,株式会社,新潟県,柏崎市,比角２丁目９番２３号２階,,15,205,9450047,,,,,,,2021-11-17,1,,,,,キチジョウテンカンキョウケンキュウジョ,0
1477,5120001241675,新規,0,2021-11-17,2021-11-17,株式会社山内商事,,株式会社,大阪府,門真市,島頭２丁目１番３９号,,27,223,5710016,,,,,,,2021-11-17,1,,,,,ヤマウチショウジ,0
1478,5120001241816,新規,0,2021-11-17,2021-11-17,株式会社ＦＥＭＴＡＩＮＡ,,株式会社,大阪府,大阪市西区,新町１丁目２１番２号,,27,106,5500013,,,,,,,2021-11-17,1,,,,,フェムティナ,0
1479,5120001241915,新規,0,2021-11-17,2021-11-17,株式会社エステートミヨシ,,株式会社,大阪府,大阪市淀川区,西宮原２丁目６番５－８３６号,,27,123,5320004,,,,,,,2021-11-17,1,,,,,エステートミヨシ,0
1480,5120001241923,新規,0,2021-11-17,2021-11-17,株式会社ＶＯＬＴＡＧＥ,,株式会社,大阪府,大阪市福島区,福島８丁目１２番１９号,,27,103,5530003,,,,,,,2021-11-17,1,,,,,ボルテージ,0
1481,5120001241931,新規,0,2021-11-17,2021-11-17,株式会社ＴＵＮＡＧＯ,,株式会社,大阪府,大阪市北区,豊崎３丁目１８番３－１９０６号,,27,127,5310072,,,,,,,2021-11-17,1,,,,,ツナゴウ,0
1485,5120003020607,新規,0,2021-11-17,2021-11-17,ＷＯＫＥＲ　ＢＥＥ合同会社,,合同会社,大阪府,大阪市中央区,農人橋２丁目１番１０号大阪建築会館３Ｆ,,27,128,5400011,,,,,,,2021-11-17,1,,,,,ワーカービー,0
1486,5120003020615,新規,0,2021-11-17,2021-11-17,Ｆｌｙｉｎｇ　Ｋｏｉ合同会社,,合同会社,大阪府,大阪市中央区,南本町２丁目１番１号,,27,128,5410054,,,,,,,2021-11-17,1,,,,,フライングコイ,0
1487,5120005022618,新規,0,2021-11-17,2021-11-17,一般社団法人Ｊａｐａｎ－Ｖｉｅｔｎａｍ　Ｅｃｏｎｏｍｉｃ　Ｄｅｖｅｌｏｐｍｅｎｔ　Ａｓｓｏｃｉａｔｉｏｎ,,その他の設立登記法人,大阪府,大阪市中央区,安土町１丁目７番２０号,,27,128,5410052,,,,,,,2021-11-17,1,,,,,ジャパンーベトナムエコノミックデベロップメントアソシエーション,0
1496,5120103004443,新規,0,2021-11-17,2021-11-17,合同会社ＺＥＮＫＡＩ,,合同会社,大阪府,泉佐野市,日根野４３４１－９,,27,213,5980021,,,,,,,2021-11-17,1,,,,,ゼンカイ,0
1498,5120901045192,新規,0,2021-11-17,2021-11-17,月詠株式会社,,株式会社,大阪府,高槻市,奈佐原４丁目９番１号,,27,207,5691041,,,,,,,2021-11-17,1,,,,,ツクヨミ,0
1499,5120901045201,新規,0,2021-11-17,2021-11-17,光明株式会社,,株式会社,大阪府,豊中市,原田南１丁目８番２８号,,27,203,5610805,,,,,,,2021-11-17,1,,,,,コウメイ,0
1500,5120901045226,新規,0,2021-11-17,2021-11-17,株式会社幸,,株式会社,大阪府,茨木市,穂積台１１番１０号,,27,211,5670044,,,,,,,2021-11-17,1,,,,,コウ,0
1501,5122001035363,新規,0,2021-11-17,2021-11-17,株式会社Ｎ　ｂｅａｕｔｅ,,株式会社,大阪府,八尾市,山本町南３丁目１番１－１００６号,,27,212,5810013,,,,,,,2021-11-17,1,,,,,エヌボーテ,0
1503,5130001070512,新規,0,2021-11-17,2021-11-17,株式会社Ｂｒｉｌｌｉａｎｔ,,株式会社,京都府,舞鶴市,字余部下８２１番地の２,,26,202,6250087,,,,,,,2021-11-17,1,,,,,ブリリアント,0
1504,5130001070553,新規,0,2021-11-17,2021-11-17,株式会社リッツ・コーポレーション,,株式会社,京都府,京都市西京区,上桂北村町２１５番地,,26,111,6158213,,,,,,,2021-11-17,1,,,,,リッツコーポレーション,0
1505,5130001070561,新規,0,2021-11-17,2021-11-17,株式会社ａｉｎａ　ｓｔｙｌｅ,,株式会社,京都府,京都市下京区,仏光寺通柳馬場東入仏光寺東町１１２番地,,26,106,6008054,,,,,,,2021-11-17,1,,,,,アイナスタイル,0
1511,5140001123905,新規,0,2021-11-17,2021-11-17,株式会社Ｋ．Ｇカンパニー,,株式会社,兵庫県,神戸市東灘区,向洋町中５丁目６番地の１,,28,101,6580032,,,,,,,2021-11-17,1,,,,,ケージーカンパニー,0
1512,5140001123913,新規,0,2021-11-17,2021-11-17,株式会社ＡＴカンパニー,,株式会社,兵庫県,明石市,大久保町八木５９０番地の３,,28,203,6740063,,,,,,,2021-11-17,1,,,,,エーティーカンパニー,0
1513,5140001123921,新規,0,2021-11-17,2021-11-17,株式会社ＦＳＦ,,株式会社,兵庫県,神戸市中央区,坂口通５丁目３番１２号,,28,110,6510062,,,,,,,2021-11-17,1,,,,,エフエスエフ,0
1516,5140005025890,新規,0,2021-11-17,2021-11-17,一般社団法人アイティーチャイルド,,その他の設立登記法人,兵庫県,明石市,大蔵谷奥９番１０号２Ｆ,,28,203,6730867,,,,,,,2021-11-17,1,,,,,アイティーチャイルド,0
1523,5160003002428,新規,0,2021-11-17,2021-11-17,合同会社風ひかり,,合同会社,滋賀県,彦根市,田附町１４４６番地,,25,202,5211134,,,,,,,2021-11-17,1,,,,,,0
1531,5180001148733,新規,0,2021-11-17,2021-11-17,株式会社ｆｏｓｓｅｔｔｅ－ａｉｍｅｒ,,株式会社,愛知県,一宮市,浅野字赤見前７２番地１,,23,203,4910871,,,,,,,2021-11-17,1,,,,,フォセットエメ,0
1532,5180001148766,新規,0,2021-11-17,2021-11-17,株式会社尾崎商店,00124879,株式会社,愛知県,名古屋市千種区,城木町２丁目４番地,,23,101,4640846,,,,,,,2021-11-17,1,,,,,オザキショウテン,0
1533,5180001148782,新規,0,2021-11-17,2021-11-17,株式会社オリエンス,,株式会社,愛知県,名古屋市中区,丸の内３丁目２３番２３号リエトコート丸の内５０９,,23,106,4600002,,,,,,,2021-11-17,1,,,,,オリエンス,0
1534,5180001148790,新規,0,2021-11-17,2021-11-17,株式会社エンシャス,,株式会社,愛知県,尾張旭市,桜ケ丘町西２２３番地,,23,226,4880857,,,,,,,2021-11-17,1,,,,,エンシャス,0
1535,5180001148799,新規,0,2021-11-17,2021-11-17,株式会社エルツー,,株式会社,愛知県,名古屋市東区,葵１丁目４番３４号,,23,102,4610004,,,,,,,2021-11-17,1,,,,,エルツー,0
1539,5180003023182,新規,0,2021-11-17,2021-11-17,合同会社ＫＳコーポレーション,,合同会社,愛知県,名古屋市天白区,保呂町１２３３,,23,116,4680041,,,,,,,2021-11-17,1,,,,,ケイエスコーポレーション,0
1540,5180003023199,新規,0,2021-11-17,2021-11-17,合同会社ＨＥＲＯＥＳ,,合同会社,愛知県,名古屋市西区,児玉３丁目２８番１４号,,23,104,4510066,,,,,,,2021-11-17,1,,,,,ヒーローズ,0
1541,5180005019518,新規,0,2021-11-17,2021-11-17,一般社団法人優美会,,その他の設立登記法人,愛知県,愛西市,日置町四反割９番地１,,23,232,4960906,,,,,,,2021-11-17,1,,,,,ユウビカイ,0
1550,5210001018701,新規,0,2021-11-17,2021-11-17,株式会社サンセリテ不動産,,株式会社,福井県,鯖江市,五郎丸町１０３番地,,18,207,9160044,,,,,,,2021-11-17,1,,,,,サンセリテフドウサン,0
1552,5220001024541,新規,0,2021-11-17,2021-11-17,株式会社ダイシーエス,,株式会社,石川県,金沢市,大河端西２丁目９４番地,,17,201,9200210,,,,,,,2021-11-17,1,,,,,,0
1555,5230001019103,新規,0,2021-11-17,2021-11-17,Ｓ‐ＳＵＰＰＯＲＴ株式会社,,株式会社,富山県,魚津市,吉島６６６番地１５,,16,204,9370041,,,,,,,2021-11-17,1,,,,,エスサポート,0
1563,5280005007446,新規,0,2021-11-17,2021-11-17,ＮＰＯ法人しまね里山研究所,,その他の設立登記法人,島根県,邑智郡美郷町,久喜原１９番地,,32,448,6961142,,,,,,,2021-11-17,1,,,,,シマネサトヤマケンキュウショ,0
1569,5290001095428,新規,0,2021-11-17,2021-11-17,株式会社ＡＺ,,株式会社,福岡県,福岡市博多区,美野島１丁目３番１８号,,40,132,8120017,,,,,,,2021-11-17,1,,,,,エーズィー,0
1570,5290001095436,新規,0,2021-11-17,2021-11-17,株式会社アイキューブドベンチャーズ,,株式会社,福岡県,福岡市中央区,天神４丁目１番３７号,,40,133,8100001,,,,,,,2021-11-17,1,,,,,アイキューブドベンチャーズ,0
1571,5290001095444,新規,0,2021-11-17,2021-11-17,株式会社Ｒｉｖａ,,株式会社,福岡県,福岡市南区,寺塚１丁目１４－１,,40,134,8150074,,,,,,,2021-11-17,1,,,,,リーヴァ,0
1572,5290001095469,新規,0,2021-11-17,2021-11-17,株式会社丸太総業,,株式会社,福岡県,嘉麻市,牛隈２６１９番地２７,,40,227,8200301,,,,,,,2021-11-17,1,,,,,マルタソウギョウ,0
1573,5290003011837,新規,0,2021-11-17,2021-11-17,ＰＴＤ合同会社,,合同会社,福岡県,久留米市,青峰２丁目５－１青峰二丁目店舗１Ｆ西号,,40,203,8390853,,,,,,,2021-11-17,1,,,,,ピーティーディ,0
1575,5290805009491,新規,0,2021-11-17,2021-11-17,一般社団法人Ｂａｃｋｃｏｕｎｔｒｙ　Ｆｌｙｉｎｇ　Ｔｅａｍ,,その他の設立登記法人,福岡県,北九州市小倉南区,空港北町２番地１５,,40,107,8000306,,,,,,,2021-11-17,1,,,,,バックカントリーフライングチーム,0
1578,5310001017585,新規,0,2021-11-17,2021-11-17,株式会社今田製陶所,,株式会社,長崎県,東彼杵郡波佐見町,湯無田郷１５９９番地,,42,323,8593702,,,,,,,2021-11-17,1,,,,,イマダセイトウショ,0
1579,5310001017593,新規,0,2021-11-17,2021-11-17,株式会社純志建築,,株式会社,長崎県,東彼杵郡川棚町,上組郷１４８８番地４５,,42,322,8593613,,,,,,,2021-11-17,1,,,,,アツシケンチク,0
1582,5320001018731,新規,0,2021-11-17,2021-11-17,株式会社大摩,,株式会社,大分県,佐伯市,宇目大字重岡１７５４番地５,,44,205,8793204,,,,,,,2021-11-17,1,,,,,ダイマ,0
1587,5330003009133,新規,0,2021-11-17,2021-11-17,アリクアンド合同会社,,合同会社,熊本県,熊本市中央区,下通１丁目８番１６号,,43,101,8600807,,,,,,,2021-11-17,1,,,,,アリクアンド,0
1596,5360001029642,新規,0,2021-11-17,2021-11-17,株式会社ノンスリップ沖縄,,株式会社,沖縄県,中頭郡読谷村,字宇座１８６１番,,47,324,9040328,,,,,,,2021-11-17,1,,,,,ノンスリップオキナワ,0
1597,5360003011581,新規,0,2021-11-17,2021-11-17,コネクトエンジニア合同会社,,合同会社,沖縄県,宮古島市,平良字西里１１１５番地６中央アパ－ト１０１,,47,214,9060012,,,,,,,2021-11-17,1,,,,,コネクトエンジニア,0
1598,5370001047833,新規,0,2021-11-17,2021-11-17,株式会社佐藤保険事務所,,株式会社,宮城県,大崎市,古川穂波８丁目１０番１６号,,04,215,9896136,,,,,,,2021-11-17,1,,,,,サトウホケンジムショ,0
1599,5370001047841,新規,0,2021-11-17,2021-11-17,株式会社私のパッチ君,,株式会社,宮城県,柴田郡大河原町,字小島２７番地９,,04,321,9891267,,,,,,,2021-11-17,1,,,,,ワタシノパッチクン,0
1600,5370003005483,新規,0,2021-11-17,2021-11-17,合同会社ＫＡＭＵＳ,,合同会社,宮城県,大崎市,古川新堀字旭町５１番地,,04,215,9896214,,,,,,,2021-11-17,1,,,,,カミュ,0
1626,6010001222479,新規,0,2021-11-17,2021-11-17,株式会社ライトパーソン,,株式会社,東京都,千代田区,九段南１丁目５番６号りそな九段ビル５Ｆ・ＫＳフロア,,13,101,1020074,,,,,,,2021-11-17,1,,,,,ライトパーソン,0
1627,6010001222495,新規,0,2021-11-17,2021-11-17,ＪＰＡ第２２５号株式会社,,株式会社,東京都,千代田区,霞が関３丁目２番１号,,13,101,1000013,,,,,,,2021-11-17,1,,,,,ジェイピーエーダイニヒャクニジュウゴゴウ,0
1628,6010001222504,新規,0,2021-11-17,2021-11-17,ＪＰＡ第２３２号株式会社,,株式会社,東京都,千代田区,霞が関３丁目２番１号,,13,101,1000013,,,,,,,2021-11-17,1,,,,,ジェイピーエーダイニヒャクサンジュウニゴウ,0
1629,6010001222512,新規,0,2021-11-17,2021-11-17,ＪＰＡ第２４０号株式会社,,株式会社,東京都,千代田区,霞が関３丁目２番１号,,13,101,1000013,,,,,,,2021-11-17,1,,,,,ジェイピーエーダイニヒャクヨンジュウゴウ,0
1630,6010001222545,新規,0,2021-11-17,2021-11-17,５Ｃｏｍｐａｎｙ株式会社,,株式会社,東京都,千代田区,神田猿楽町１丁目３番５号伊東ビル２階,,13,101,1010064,,,,,,,2021-11-17,1,,,,,ファイブカンパニー,0
1631,6010001222586,新規,0,2021-11-17,2021-11-17,株式会社ＳｏＺｏ,,株式会社,東京都,千代田区,九段南１丁目５－６,,13,101,1020074,,,,,,,2021-11-17,1,,,,,ソウゾウ,0
1632,6010001222611,新規,0,2021-11-17,2021-11-17,ペーパーレス株式会社,,株式会社,東京都,中央区,日本橋茅場町３丁目６－４－１２０２,,13,102,1030025,,,,,,,2021-11-17,1,,,,,ペーパーレス,0
1633,6010001222685,新規,0,2021-11-17,2021-11-17,株式会社ＣＬＩＰ第２２９号,,株式会社,東京都,千代田区,丸の内２丁目７番２号,,13,101,1000005,,,,,,,2021-11-17,1,,,,,シーエルアイピーダイニヒャクニジュウキュウゴウ,0
1637,6010003036282,新規,0,2021-11-17,2021-11-17,リゾロータス合同会社,,合同会社,東京都,千代田区,九段南１丁目５－６りそな九段ビル５ＦＫＳフロア,,13,101,1020074,,,,,,,2021-11-17,1,,,,,リゾロータス,0
1638,6010005034219,新規,0,2021-11-17,2021-11-17,一般社団法人日本プロゴルフ選手育成協会,,その他の設立登記法人,東京都,千代田区,神田駿河台３丁目１番８号９２９２ビル２Ｆ,,13,101,1010062,,,,,,,2021-11-17,1,,,,,ニホンプロゴルフセンシュイクセイキョウカイ,0
1645,6010401163835,新規,0,2021-11-17,2021-11-17,株式会社おぎ乃,,株式会社,東京都,港区,赤坂６丁目３番１３号一階,,13,103,1070052,,,,,,,2021-11-17,1,,,,,オギノ,0
1646,6010401163926,新規,0,2021-11-17,2021-11-17,株式会社ケイティ,,株式会社,東京都,港区,赤坂４丁目８番１９号,,13,103,1070052,,,,,,,2021-11-17,1,,,,,ケイティ,0
1647,6010403026528,新規,0,2021-11-17,2021-11-17,合同会社藤野・八木事務所,,合同会社,東京都,港区,麻布十番２丁目１番１号５０２,,13,103,1060045,,,,,,,2021-11-17,1,,,,,フジノヤギジムショ,0
1651,6010501048093,新規,0,2021-11-17,2021-11-17,株式会社ピー・エフ・シー,,株式会社,東京都,台東区,東上野１丁目２番１３号２階Ｇ室,,13,106,1100015,,,,,,,2021-11-17,1,,,,,ピーエフシー,0
1656,6010703006007,新規,0,2021-11-17,2021-11-17,合同会社ＬＩＭＩＴ,,合同会社,東京都,品川区,上大崎２丁目１３番１号グリーンビュー白金３０１号室,,13,109,1410021,,,,,,,2021-11-17,1,,,,,リミット,0
1666,6010901049807,新規,0,2021-11-17,2021-11-17,株式会社ウェルビーズ,,株式会社,東京都,世田谷区,上馬５丁目１５番１５号ＴＨＥＦＯＲＵＭ世田谷,,13,112,1540011,,,,,,,2021-11-17,1,,,,,ウェルビーズ,0
1667,6010903006938,新規,0,2021-11-17,2021-11-17,合同会社まほろ堂蒼月,,合同会社,東京都,世田谷区,宮坂１丁目３８番１９号ウィンザーパレス１０３,,13,112,1560051,,,,,,,2021-11-17,1,,,,,マホロドウソウゲツ,0
1668,6010903006946,新規,0,2021-11-17,2021-11-17,合同会社東都コンサルタント,,合同会社,東京都,世田谷区,粕谷２丁目１９番５号,,13,112,1570063,,,,,,,2021-11-17,1,,,,,トウトコンサルタント,0
1674,6011001143954,新規,0,2021-11-17,2021-11-17,ＷＶ株式会社,,株式会社,東京都,渋谷区,渋谷２丁目１９－１５宮益坂ビルディング６０９,,13,113,1500002,,,,,,,2021-11-17,1,,,,,ダブリューブイ,0
1675,6011001144044,新規,0,2021-11-17,2021-11-17,株式会社エービーシー,,株式会社,東京都,渋谷区,東２丁目２９番１２号,,13,113,1500011,,,,,,,2021-11-17,1,,,,,エービーシー,0
1681,6011005009301,新規,0,2021-11-17,2021-11-17,一般社団法人日本キンダーサッカー協会,,その他の設立登記法人,東京都,渋谷区,千駄ヶ谷３丁目３０番１号ＲＣアパートメント４０３,,13,113,1510051,,,,,,,2021-11-17,1,,,,,ニホンキンダーサッカーキョウカイ,0
1685,6011103011183,新規,0,2021-11-17,2021-11-17,ＳＨＵＣＲＥＥＭ合同会社,,合同会社,東京都,新宿区,西新宿３丁目３－１３西新宿水間ビル６Ｆ,,13,104,1600023,,,,,,,2021-11-17,1,,,,,シュークリーム,0
1686,6011105010027,新規,0,2021-11-17,2021-11-17,一般社団法人コエム,,その他の設立登記法人,東京都,新宿区,横寺町１０番地１赤堀マンション１０１,,13,104,1620831,,,,,,,2021-11-17,1,,,,,コエム,0
1688,6011301027345,新規,0,2021-11-17,2021-11-17,サフィールパートナーズ株式会社,,株式会社,東京都,杉並区,成田東５丁目１番２８号,,13,115,1660015,,,,,,,2021-11-17,1,,,,,,0
1689,6011301027353,新規,0,2021-11-17,2021-11-17,株式会社はれとも,,株式会社,東京都,杉並区,上荻２丁目１３番２３号アーグレイ２Ｃ,,13,115,1670043,,,,,,,2021-11-17,1,,,,,ハレトモ,0
1690,6011401023855,新規,0,2021-11-17,2021-11-17,ＣＨＡＮＤＲＡ株式会社,,株式会社,東京都,板橋区,氷川町３２番１号ピンクドルフィン大山１０１,,13,119,1730013,,,,,,,2021-11-17,1,,,,,チャンドラ,0
1692,6011501027491,新規,0,2021-11-17,2021-11-17,株式会社ＶＯＩＩＯ,,株式会社,東京都,荒川区,東日暮里３丁目２８番５号ＣｒｙｓｔａｌＢｕｉｌｄｉｎｇ１階,,13,118,1160014,,,,,,,2021-11-17,1,,,,,ボイオ,0
1693,6011503004976,新規,0,2021-11-17,2021-11-17,チェーロ・エ・テッラ合同会社,,合同会社,東京都,荒川区,町屋６丁目１８番１４号ジグゼ町屋６０１号室,,13,118,1160001,,,,,,,2021-11-17,1,,,,,チェーロエテッラ,0
1706,6012401038546,新規,0,2021-11-17,2021-11-17,株式会社ＴＩコンサルティング,,株式会社,東京都,三鷹市,野崎２丁目２０番８号,,13,204,1810014,,,,,,,2021-11-17,1,,,,,ティーアイコンサルティング,0
1719,6020001143922,新規,0,2021-11-17,2021-11-17,株式会社ＴＨＥ　ＮＯＲＴＨ　ＤＩＳＨ,,株式会社,神奈川県,横浜市港北区,日吉５丁目１１番３０号,,14,109,2230061,,,,,,,2021-11-17,1,,,,,ザノースディッシュ,0
1720,6020001143930,新規,0,2021-11-17,2021-11-17,株式会社ＫｏＫｏ　Ｓｏｌｕｔｉｏｎｓ,,株式会社,神奈川県,横浜市神奈川区,神大寺４丁目３３番３２－１０２号,,14,102,2210801,,,,,,,2021-11-17,1,,,,,ココソリューションズ,0
1721,6020001143939,新規,0,2021-11-17,2021-11-17,ＡＮＶＯＳ　Ａｎａｌｙｔｉｃｓ株式会社,,株式会社,神奈川県,横浜市中区,元町４丁目１６８番地１ＢＦ－７６,,14,104,2310861,,,,,,,2021-11-17,1,,,,,アンヴォスアナリティクス,0
1723,6020003020839,新規,0,2021-11-17,2021-11-17,スポテッド・フィン・パブリッシング合同会社,,合同会社,神奈川県,川崎市高津区,諏訪２丁目１０－１０ヴィクトワール多摩１０１,,14,134,2130004,,,,,,,2021-11-17,1,,,,,スポテッドフィンパブリッシング,0
1724,6020003020847,新規,0,2021-11-17,2021-11-17,芦田合同会社,,合同会社,神奈川県,横浜市中区,山下町８０番地３－１５０４号,,14,104,2310023,,,,,,,2021-11-17,1,,,,,アシダ,0
1725,6021001074513,新規,0,2021-11-17,2021-11-17,株式会社住宅工房,,株式会社,神奈川県,小田原市,成田６６６番地の１,,14,206,2500862,,,,,,,2021-11-17,1,,,,,ジュウタクコウボウ,0
1727,6021003011101,新規,0,2021-11-17,2021-11-17,ホシイモ合同会社,,合同会社,神奈川県,藤沢市,湘南台１丁目２１－３エンゼルハイムシバタ５０６,,14,205,2520804,,,,,,,2021-11-17,1,,,,,ホシイモ,0
1732,6030001145331,新規,0,2021-11-17,2021-11-17,株式会社ヒトメ,,株式会社,埼玉県,戸田市,中町１丁目６番２－３０２号室,,11,224,3350012,,,,,,,2021-11-17,1,,,,,ヒトメ,0
1733,6030001145356,新規,0,2021-11-17,2021-11-17,秋山仮設工業株式会社,,株式会社,埼玉県,深谷市,折之口３６７番地１,,11,218,3660812,,,,,,,2021-11-17,1,,,,,アキヤマカセツコウギョウ,0
1734,6030001145364,新規,0,2021-11-17,2021-11-17,株式会社開運,,株式会社,埼玉県,さいたま市大宮区,吉敷町４丁目１４２番地３,,11,103,3300843,,,,,,,2021-11-17,1,,,,,カイウン,0
1735,6030001145372,新規,0,2021-11-17,2021-11-17,株式会社ＨＲキャリア,,株式会社,埼玉県,熊谷市,中央３丁目１１０番地３,,11,202,3600018,,,,,,,2021-11-17,1,,,,,エイチアールキャリア,0
1736,6030001145389,新規,0,2021-11-17,2021-11-17,株式会社アスランド,,株式会社,埼玉県,富士見市,大字鶴馬３４６９番地２,,11,235,3540021,,,,,,,2021-11-17,1,,,,,アスランド,0
1737,6030001145397,新規,0,2021-11-17,2021-11-17,フジミス株式会社,,株式会社,埼玉県,狭山市,富士見１丁目１５番１８号,,11,215,3501306,,,,,,,2021-11-17,1,,,,,フジミス,0
1738,6030001145414,新規,0,2021-11-17,2021-11-17,株式会社翔,,株式会社,埼玉県,熊谷市,上之１１９０番地１,,11,202,3600012,,,,,,,2021-11-17,1,,,,,ショウ,0
1752,6040001121001,新規,0,2021-11-17,2021-11-17,株式会社Ｅｔｅｒｎａｌ　Ｔｗｉｌｉｇｈｔ,,株式会社,千葉県,松戸市,幸谷７８６番地の２,,12,207,2700017,,,,,,,2021-11-17,1,,,,,エターナルトワイライト,0
1753,6040001121018,新規,0,2021-11-17,2021-11-17,有明プラントサービス株式会社,,株式会社,千葉県,市原市,岩崎２丁目２１番地１,,12,219,2900047,,,,,,,2021-11-17,1,,,,,アリアケプラントサービス,0
1754,6040001121026,新規,0,2021-11-17,2021-11-17,株式会社スマイルライフ,,株式会社,千葉県,夷隅郡大多喜町,大戸５８７－１,,12,441,2980225,,,,,,,2021-11-17,1,,,,,スマイルライフ,0
1755,6040001121050,新規,0,2021-11-17,2021-11-17,株式会社Ｃａｔｂｏｙ,,株式会社,千葉県,千葉市稲毛区,園生町１３４０番地１ザ・クイーンズガーデン稲毛２０５号,,12,103,2630051,,,,,,,2021-11-17,1,,,,,キャットボーイ,0
1758,6040003018939,新規,0,2021-11-17,2021-11-17,ＰＡＳＴＩＭＥ合同会社,,合同会社,千葉県,千葉市中央区,富士見２丁目７番９号富士見ビル６０９号,,12,101,2600015,,,,,,,2021-11-17,1,,,,,パスタイム,0
1764,6050001050158,新規,0,2021-11-17,2021-11-17,株式会社ロジサポ,,株式会社,茨城県,土浦市,桜町１丁目８番１４号関鉄土浦ビルＩＩ,00124878,08,203,3000037,,,,,,,2021-11-17,1,,,,,ロジサポ,0
1765,6050001050166,新規,0,2021-11-17,2021-11-17,株式会社Ａｖａｎ　ｎｅｔ,,株式会社,茨城県,古河市,女沼８５７ソレアードＡ１０２,,08,204,3060226,,,,,,,2021-11-17,1,,,,,アヴァンネット,0
1766,6050001050174,新規,0,2021-11-17,2021-11-17,ＫＡＭＲＡＮ　ＴＲＡＤＩＮＧ株式会社,,株式会社,茨城県,坂東市,寺久１３４７番地３,,08,228,3060656,,,,,,,2021-11-17,1,,,,,カムラントレーディング,0
1769,6050003006208,新規,0,2021-11-17,2021-11-17,ソーデンコー合同会社,,合同会社,茨城県,取手市,桜が丘３丁目５番１４号,,08,217,3001525,,,,,,,2021-11-17,1,,,,,ソーデンコー,0
1770,6050005012971,新規,0,2021-11-17,2021-11-17,一般社団法人こそだての家,,その他の設立登記法人,茨城県,つくば市,みどりの南７９番地７,,08,220,3050884,,,,,,,2021-11-17,1,,,,,コソダテノイエ,0
1775,6070001038647,新規,0,2021-11-17,2021-11-17,株式会社ＥＣＯＰＡＲＡＤＥ,,株式会社,群馬県,館林市,本町１丁目１番１号,,10,207,3740024,,,,,,,2021-11-17,1,,,,,エコパレード,0
1776,6070001038655,新規,0,2021-11-17,2021-11-17,株式会社ＢＡＳＩＳ,,株式会社,群馬県,北群馬郡吉岡町,大字小倉１００番地１,,10,345,3703607,,,,,,,2021-11-17,1,,,,,ベイシス,0
1779,6080001024588,新規,0,2021-11-17,2021-11-17,株式会社ＴＯＺ,,株式会社,静岡県,静岡市葵区,沓谷１丁目１１番２０－７号,,22,101,4200816,,,,,,,2021-11-17,1,,,,,トロイオンス,0
1782,6080101022921,新規,0,2021-11-17,2021-11-17,株式会社ＩＳＯＫＩ,,株式会社,静岡県,富士市,永田町１丁目８５番地メゾン永田３０１,,22,210,4170055,,,,,,,2021-11-17,1,,,,,イソキ,0
1787,6090001017285,新規,0,2021-11-17,2021-11-17,ＡＳＰＹ株式会社,,株式会社,山梨県,甲斐市,中下条９９１番地１,,19,210,4000124,,,,,,,2021-11-17,1,,,,,アスピー,0
1788,6090003001989,新規,0,2021-11-17,2021-11-17,合同会社Ｌｉｍｏ,,合同会社,山梨県,甲府市,中央４丁目４番２６号藤屋ビル１階,,19,201,4000032,,,,,,,2021-11-17,1,,,,,リモ,0
1790,6100001034766,新規,0,2021-11-17,2021-11-17,村雲木材株式会社,,株式会社,長野県,木曽郡大桑村,大字野尻６５７番地,,20,430,3995504,,,,,,,2021-11-17,1,,,,,,0
1791,6100001034816,新規,0,2021-11-17,2021-11-17,株式会社ＳＳＫ,,株式会社,長野県,安曇野市,豊科４７４番地２,,20,220,3998205,,,,,,,2021-11-17,1,,,,,エスエスケー,0
1798,6110001036200,新規,0,2021-11-17,2021-11-17,株式会社真,,株式会社,新潟県,上越市,頸城区下中島２４１番地１,,15,222,9420155,,,,,,,2021-11-17,1,,,,,シン,0
1802,6120001241864,新規,0,2021-11-17,2021-11-17,安田信不動産株式会社,,株式会社,大阪府,大阪市中央区,南船場４丁目９番６－６０６号,,27,128,5420081,,,,,,,2021-11-17,1,,,,,ヤスダシンフドウサン,0
1803,6120001241872,新規,0,2021-11-17,2021-11-17,株式会社行義防水,,株式会社,大阪府,大阪市東淀川区,下新庄５丁目６番１６－１４０６号,,27,114,5330021,,,,,,,2021-11-17,1,,,,,ユキヨシボウスイ,0
1804,6120001241889,新規,0,2021-11-17,2021-11-17,株式会社ウィズナル,,株式会社,大阪府,大阪市北区,梅田１丁目２番２号大阪駅前第２ビル２階５－６号室,,27,127,5300001,,,,,,,2021-11-17,1,,,,,ウィズナル,0
1805,6120001241906,新規,0,2021-11-17,2021-11-17,ＧＡＫＵ＆ＤＯ株式会社,,株式会社,大阪府,大阪市港区,海岸通１丁目５番１５号,,27,107,5520022,,,,,,,2021-11-17,1,,,,,ガクアンドドゥゥ,0
1806,6120001241922,新規,0,2021-11-17,2021-11-17,株式会社ＫＯＭＡＴＳＵ,,株式会社,大阪府,大阪市中央区,上本町西１丁目５番２０号,,27,128,5420062,,,,,,,2021-11-17,1,,,,,コマツ,0
1807,6120003020606,新規,0,2021-11-17,2021-11-17,イーストオブライフ合同会社,,合同会社,大阪府,大阪市淀川区,加島３丁目１０番４１－１０１号,,27,123,5320031,,,,,,,2021-11-17,1,,,,,イーストオブライフ,0
1808,6120005022617,新規,0,2021-11-17,2021-11-17,一般社団法人国際予防医学研究協会,,その他の設立登記法人,大阪府,大阪市浪速区,湊町２丁目２番１０号,,27,111,5560017,,,,,,,2021-11-17,1,,,,,コクサイヨボウイガクケンキュウキョウカイ,0
1811,6120101064661,新規,0,2021-11-17,2021-11-17,英工業株式会社,,株式会社,大阪府,和泉市,若樫町１５８番地の１０,,27,219,5941143,,,,,,,2021-11-17,1,,,,,ハナブサコウギョウ,0
1813,6120103004442,新規,0,2021-11-17,2021-11-17,合同会社インクブルー,,合同会社,大阪府,高石市,東羽衣６丁目１番１１号,,27,225,5920003,,,,,,,2021-11-17,1,,,,,インクブルー,0
1816,6120901045200,新規,0,2021-11-17,2021-11-17,株式会社Ｙ’ｓ　ＦＡＣＴＯＲＹ,,株式会社,大阪府,茨木市,大池１丁目１３番８号,,27,211,5670826,,,,,,,2021-11-17,1,,,,,ワイズファクトリー,0
1820,6122001035354,新規,0,2021-11-17,2021-11-17,ＫＹロジスティクス株式会社,,株式会社,大阪府,東大阪市,高井田西４丁目２番５号,,27,227,5770067,,,,,,,2021-11-17,1,,,,,ケイワイロジスティクス,0
1831,6130001070552,新規,0,2021-11-17,2021-11-17,オザワＫＴ株式会社,,株式会社,京都府,京都市右京区,西院春日町２３,,26,108,6150015,,,,,,,2021-11-17,1,,,,,オザワケーティー,0
1832,6130001070560,新規,0,2021-11-17,2021-11-17,株式会社Ｇｉｎｂｏｓｉパートナー,,株式会社,京都府,京都市上京区,宮垣町９１番,,26,102,6020853,,,,,,,2021-11-17,1,,,,,ギンボシパートナー,0
1834,6130003007585,新規,0,2021-11-17,2021-11-17,Ａｍｏｕｒ　Ｂｒｉｌｌｅｒ　ＭＩＫＩ合同会社,,合同会社,京都府,京都市東山区,大和大路通五条上る東入二丁目門脇町１８２,,26,105,6050000,,,,,,,2021-11-17,1,,,,,アムールブリエミキ,0
1835,6130003007593,新規,0,2021-11-17,2021-11-17,Ｓｍｉｌｅ　ｈｅａｒｔ合同会社,,合同会社,京都府,亀岡市,千代川町小川１丁目７－１－３６,,26,206,6210041,,,,,,,2021-11-17,1,,,,,スマイルハート,0
1846,6140001123870,新規,0,2021-11-17,2021-11-17,株式会社松井電気,,株式会社,兵庫県,川西市,緑台６丁目２番地の６,,28,217,6660129,,,,,,,2021-11-17,1,,,,,,0
1847,6140001123904,新規,0,2021-11-17,2021-11-17,ムネインベスト株式会社,,株式会社,兵庫県,神戸市灘区,篠原本町３丁目２番３６号,,28,102,6570067,,,,,,,2021-11-17,1,,,,,ムネインベスト,0
1848,6140001123920,新規,0,2021-11-17,2021-11-17,株式会社Ｍホールディングス,,株式会社,兵庫県,芦屋市,船戸町５番１８－１０５号,,28,206,6590093,,,,,,,2021-11-17,1,,,,,エムホールディングス,0
1853,6140003016998,新規,0,2021-11-17,2021-11-17,合同会社檸檬,,合同会社,兵庫県,芦屋市,東芦屋町２３番１８－３０５号,00124882,28,206,6590095,,,,,,,2021-11-17,1,,,,,レモン,0
1868,6180001148815,新規,0,2021-11-17,2021-11-17,株式会社グローアップサービス,,株式会社,愛知県,春日井市,春日井町字土合２５番地５,,23,206,4860963,,,,,,,2021-11-17,1,,,,,グローアップサービス,0
1870,6180003023207,新規,0,2021-11-17,2021-11-17,合同会社香芽,,合同会社,愛知県,日進市,岩崎町岩根６番地２,,23,230,4700131,,,,,,,2021-11-17,1,,,,,カメ,0
1879,6180303005169,新規,0,2021-11-17,2021-11-17,合同会社パインアンドバンブー,,合同会社,愛知県,額田郡幸田町,大字相見字相見３８番地（５０２）,,23,501,4440117,,,,,,,2021-11-17,1,,,,,パインアンドバンブー,0
1883,6190001028867,新規,0,2021-11-17,2021-11-17,株式会社ＧＲＥＥＮ　ＭＯＮＳＴＥＲＳ,,株式会社,三重県,鈴鹿市,磯山４丁目３番２３号,,24,207,5100256,,,,,,,2021-11-17,1,,,,,グリーンモンスターズ,0
1890,6200001039425,新規,0,2021-11-17,2021-11-17,株式会社シンケン,,株式会社,岐阜県,多治見市,市之倉町１２丁目３３１番地の９３,,21,204,5070814,,,,,,,2021-11-17,1,,,,,シンケン,0
1895,6210003001423,新規,0,2021-11-17,2021-11-17,ここなっつ合同会社,,合同会社,福井県,福井市,本堂町第６７号１６番地,,18,201,9188076,,,,,,,2021-11-17,1,,,,,ココナッツ,0
1903,6280001008562,新規,0,2021-11-17,2021-11-17,株式会社相信電通,,株式会社,島根県,松江市,長海町３７６番地,,32,201,6901112,,,,,,,2021-11-17,1,,,,,ソウシンデンツウ,0
1904,6280005007445,新規,0,2021-11-17,2021-11-17,土地家屋調査士法人しまね登記測量事務所,,その他の設立登記法人,島根県,出雲市,浜町５１２番地６,,32,203,6930054,,,,,,,2021-11-17,1,,,,,シマネトウキソクリョウジムショ,0
1909,6290001095393,新規,0,2021-11-17,2021-11-17,株式会社Ｒ．ｓ,,株式会社,福岡県,福岡市博多区,博多駅南５丁目１４番２３号,,40,132,8120016,,,,,,,2021-11-17,1,,,,,アールエス,0
1910,6290001095427,新規,0,2021-11-17,2021-11-17,株式会社ＳＵＺＡＣＬＡＳＳＩＣ,,株式会社,福岡県,福岡市中央区,大名２丁目４番３８号（８０８号）,,40,133,8100041,,,,,,,2021-11-17,1,,,,,スザクラシック,0
1923,6310001017592,新規,0,2021-11-17,2021-11-17,株式会社ＮＥＡＬ,,株式会社,長崎県,南島原市,布津町甲１８８番地１,,42,214,8592111,,,,,,,2021-11-17,1,,,,,ニール,0
1927,6320003003656,新規,0,2021-11-17,2021-11-17,合同会社ＳＡＮ　ｓｔｙｌｅ,,合同会社,大分県,中津市,中央町２丁目１番９号,,44,203,8710024,,,,,,,2021-11-17,1,,,,,サンスタイル,0
1931,6330005010435,新規,0,2021-11-17,2021-11-17,農事組合法人上田尻ＡＧＲＩ,,その他の設立登記法人,熊本県,阿蘇郡産山村,大字田尻６０５番地５,,43,425,8692704,,,,,,,2021-11-17,1,,,,,カミタジリアグリ,0
1937,6360003011580,新規,0,2021-11-17,2021-11-17,合同会社ＬＩＳ,,合同会社,沖縄県,豊見城市,字長堂１４３番地１０,,47,212,9010203,,,,,,,2021-11-17,1,,,,,リス,0
1940,6370001047840,新規,0,2021-11-17,2021-11-17,ＣＯＭＲＡＤＥ株式会社,,株式会社,宮城県,名取市,高舘吉田字鹿東６９－１,,04,207,9811242,,,,,,,2021-11-17,1,,,,,カムレイド,0
1943,6380001032338,新規,0,2021-11-17,2021-11-17,株式会社恵方屋,,株式会社,福島県,福島市,飯坂町平野字栗畑２２番地の２,,07,201,9600231,,,,,,,2021-11-17,1,,,,,エホウヤ,0
1944,6380001032346,新規,0,2021-11-17,2021-11-17,株式会社サイカンパニー,,株式会社,福島県,郡山市,御前南５丁目１７８番地,,07,203,9630209,,,,,,,2021-11-17,1,,,,,サイカンパニー,0
1964,6700150105836,新規,0,2021-11-17,2021-11-17,ＡＨＡＭＥＤ＆ＳＯＮＳ　ＥＮＴＥＲＰＲＩＳＥＳ,,外国会社等,千葉県,茂原市,清水２２４０－１５清水オフィス２,,12,210,2994101,スリランカ民主社会主義共和国、パンゴラマダ、ラトコホディーガラＮｏ．２４７／２,,,,,,2021-11-17,1,,,,,アハメドアンドサンスエンタープライセス,0
1974,7010001222494,新規,0,2021-11-17,2021-11-17,ＪＰＡ第２２４号株式会社,,株式会社,東京都,千代田区,霞が関３丁目２番１号,,13,101,1000013,,,,,,,2021-11-17,1,,,,,ジェイピーエーダイニヒャクニジュウヨンゴウ,0
1975,7010001222503,新規,0,2021-11-17,2021-11-17,ＪＰＡ第２３１号株式会社,,株式会社,東京都,千代田区,霞が関３丁目２番１号,,13,101,1000013,,,,,,,2021-11-17,1,,,,,ジェイピーエーダイニヒャクサンジュウイチゴウ,0
1976,7010001222511,新規,0,2021-11-17,2021-11-17,ＪＰＡ第２３９号株式会社,,株式会社,東京都,千代田区,霞が関３丁目２番１号,,13,101,1000013,,,,,,,2021-11-17,1,,,,,ジェイピーエーダイニヒャクサンジュウキュウゴウ,0
1977,7010001222552,新規,0,2021-11-17,2021-11-17,株式会社ＥＮＲＥＩ,,株式会社,東京都,中央区,銀座１丁目１２番４号Ｎ＆ＥＢＬＤ．７階,,13,102,1040061,,,,,,,2021-11-17,1,,,,,エンレイ,0
1978,7010001222585,新規,0,2021-11-17,2021-11-17,株式会社エンカウンター,,株式会社,東京都,中央区,新富１丁目９番５号,,13,102,1040041,,,,,,,2021-11-17,1,,,,,エンカウンター,0
1979,7010001222593,新規,0,2021-11-17,2021-11-17,ＳＵＮホールディングス株式会社,,株式会社,東京都,千代田区,内幸町１丁目３番３号,,13,101,1000011,,,,,,,2021-11-17,1,,,,,サンホールディングス,0
1980,7010001222610,新規,0,2021-11-17,2021-11-17,ＰＬＵＳ　ＮＡＶＹ株式会社,,株式会社,東京都,中央区,入船１丁目５－１１,,13,102,1040042,,,,,,,2021-11-17,1,,,,,プラスネイビー,0
1981,7010001222668,新規,0,2021-11-17,2021-11-17,株式会社ＣＬＩＰ第２１２号,,株式会社,東京都,千代田区,丸の内２丁目７番２号,,13,101,1000005,,,,,,,2021-11-17,1,,,,,シーエルアイピーダイニヒャクジュウニゴウ,0
1982,7010001222684,新規,0,2021-11-17,2021-11-17,株式会社ＣＬＩＰ第２２８号,,株式会社,東京都,千代田区,丸の内２丁目７番２号,,13,101,1000005,,,,,,,2021-11-17,1,,,,,シーエルアイピーダイニヒャクニジュウハチゴウ,0
1983,7010005034218,新規,0,2021-11-17,2021-11-17,特定非営利活動法人日本家庭動物愛護協会,,その他の設立登記法人,東京都,中央区,日本橋人形町２丁目２番１号西浦本舗ビル５階,,13,102,1030013,,,,,,,2021-11-17,1,,,,,ニホンカテイドウブツアイゴキョウカイ,0
1986,7010401163818,新規,0,2021-11-17,2021-11-17,株式会社システム開発組,,株式会社,東京都,港区,北青山２丁目７－１３プラセオ青山ビル３階,,13,103,1070061,,,,,,,2021-11-17,1,,,,,システムカイハツグミ,0
1987,7010401163900,新規,0,2021-11-17,2021-11-17,ニューダイヤシステムズ株式会社,,株式会社,東京都,港区,青山二丁目２番１５号ウィン青山１２０７,,13,103,1050000,,,,,,,2021-11-17,1,,,,,ニューダイヤシステムズ,0
1988,7010401163909,新規,0,2021-11-17,2021-11-17,株式会社Ｂｅｎｎｅｔ,,株式会社,東京都,港区,南麻布２丁目１３番１８号ピアース南麻布２０８,,13,103,1060047,,,,,,,2021-11-17,1,,,,,ベネット,0
1989,7010401163917,新規,0,2021-11-17,2021-11-17,株式会社プレシード,,株式会社,東京都,港区,高輪３丁目１２番８号,,13,103,1080074,,,,,,,2021-11-17,1,,,,,プレシード,0
1991,7010403026527,新規,0,2021-11-17,2021-11-17,ＬＩＰ．合同会社,,合同会社,東京都,港区,三田５丁目１２番３号,,13,103,1080073,,,,,,,2021-11-17,1,,,,,リップドット,0
1992,7010403026543,新規,0,2021-11-17,2021-11-17,合同会社ＮｉｊｙｕＹｏｎ,,合同会社,東京都,港区,白金６丁目２１番４－４０５号,,13,103,1080072,,,,,,,2021-11-17,1,,,,,ニジュウヨン,0
1993,7010405020412,新規,0,2021-11-17,2021-11-17,名古屋・ホテル・インベストメンツ特定目的会社,,その他の設立登記法人,東京都,港区,虎ノ門３丁目２２番１０－２０１号,,13,103,1050001,,,,,,,2021-11-17,1,,,,,ナゴヤホテルインベストメンツ,0
2005,7010701041789,新規,0,2021-11-17,2021-11-17,テスコムホールディングス株式会社,,株式会社,東京都,品川区,南大井６丁目２２番７号,,13,109,1400013,,,,,,,2021-11-17,1,,,,,テスコムホールディングス,0
2009,7010901049806,新規,0,2021-11-17,2021-11-17,株式会社ＹＬＫ,,株式会社,東京都,世田谷区,北沢２丁目１０番１５－７０３号,,13,112,1550031,,,,,,,2021-11-17,1,,,,,ワイエルケー,0
2012,7010903006937,新規,0,2021-11-17,2021-11-17,合同会社野本ビル,,合同会社,東京都,世田谷区,弦巻２丁目８番１７号野本ビル４階,,13,112,1540016,,,,,,,2021-11-17,1,,,,,ノモトビル,0
2017,7011001143912,新規,0,2021-11-17,2021-11-17,株式会社ｅｍｂｅｌｅｓａ,,株式会社,東京都,渋谷区,神宮前５丁目３６番１０－５０４号,,13,113,1500001,,,,,,,2021-11-17,1,,,,,エンベレッサ,0
2018,7011001144019,新規,0,2021-11-17,2021-11-17,株式会社ｈｒｕｎｉｏｎ,,株式会社,東京都,渋谷区,神南１丁目２３番１４号リージャス渋谷公園通りビル３階,,13,113,1500041,,,,,,,2021-11-17,1,,,,,ヒュニオン,0
2019,7011001144126,新規,0,2021-11-17,2021-11-17,ＮＯＢＬＥ　ＨＩＳＴＯＲＹ株式会社,,株式会社,東京都,渋谷区,恵比寿３丁目３３番５号,,13,113,1500013,,,,,,,2021-11-17,1,,,,,ノーブルヒストリー,0
2020,7011003013717,新規,0,2021-11-17,2021-11-17,合同会社ポンデュガー,,合同会社,東京都,渋谷区,広尾５丁目２１番－１号,,13,113,1500012,,,,,,,2021-11-17,1,,,,,ポンデュガー,0
2021,7011003013725,新規,0,2021-11-17,2021-11-17,Ｓ　ＢＡＮＤＥ合同会社,,合同会社,東京都,渋谷区,千駄ヶ谷３丁目３４番５号,,13,113,1510051,,,,,,,2021-11-17,1,,,,,エスバンデ,0
2023,7011005009300,新規,0,2021-11-17,2021-11-17,一般社団法人ＨＲアセスメント協会,,その他の設立登記法人,東京都,渋谷区,渋谷２丁目１９－１５宮益坂ビルディング６０９,,13,113,1500002,,,,,,,2021-11-17,1,,,,,エイチアールアセスメントキョウカイ,0
2033,7011301027336,新規,0,2021-11-17,2021-11-17,株式会社Ｓｐａｒｃｌｅ,,株式会社,東京都,杉並区,天沼１丁目３６－１１,,13,115,1670032,,,,,,,2021-11-17,1,,,,,スパークル,0
2034,7011301027352,新規,0,2021-11-17,2021-11-17,株式会社Ｎａｍｉｏｔｏ,,株式会社,東京都,杉並区,堀ノ内３丁目１番２３号,,13,115,1660013,,,,,,,2021-11-17,1,,,,,ナミオト,0
2035,7011501027490,新規,0,2021-11-17,2021-11-17,株式会社ＤＩＮＯ,,株式会社,東京都,荒川区,東日暮里３丁目２８番５号ＣｒｙｓｔａｌＢｕｉｌｄｉｎｇ１階,,13,118,1160014,,,,,,,2021-11-17,1,,,,,ディノ,0
2052,7012401038545,新規,0,2021-11-17,2021-11-17,株式会社Ｚｅｐｈｙｒ３,,株式会社,東京都,調布市,上石原２丁目４４番地１９ベルエポック２０３,,13,208,1820035,,,,,,,2021-11-17,1,,,,,ゼファースリー,0
2056,7012801021217,新規,0,2021-11-17,2021-11-17,株式会社大神,00124883,株式会社,東京都,昭島市,昭和町２丁目７番２３－１００５号,,13,207,1960015,,,,,,,2021-11-17,1,,,,,オオガミ,0
2058,7013101008771,新規,0,2021-11-17,2021-11-17,檜原雅子株式会社,,株式会社,東京都,西多摩郡檜原村,南郷１２８２,,13,307,1900223,,,,,,,2021-11-17,1,,,,,ヒノハラマサコ,0
2061,7013301048279,新規,0,2021-11-17,2021-11-17,株式会社ブライトフューチャー,,株式会社,東京都,豊島区,長崎３丁目３番１２号,,13,116,1710051,,,,,,,2021-11-17,1,,,,,ブライトフューチャー,0
2066,7020001143946,新規,0,2021-11-17,2021-11-17,Ｓｈｉｎｋａ　ｌａｂ株式会社,,株式会社,神奈川県,横浜市磯子区,杉田３丁目２８番３４号,,14,107,2350033,,,,,,,2021-11-17,1,,,,,シンカラボ,0
2067,7020001143954,新規,0,2021-11-17,2021-11-17,株式会社ケーシー・システムズ,,株式会社,神奈川県,横浜市戸塚区,戸塚町２４１８番地２,,14,110,2440003,,,,,,,2021-11-17,1,,,,,ケーシーシステムズ,0
2068,7020001143970,新規,0,2021-11-17,2021-11-17,株式会社シードプラン,,株式会社,神奈川県,横浜市緑区,霧が丘４丁目２４番地１０,,14,113,2260016,,,,,,,2021-11-17,1,,,,,シードプラン,0
2071,7020003020813,新規,0,2021-11-17,2021-11-17,ｉＷＩＳＴＥＲＩＡ合同会社,,合同会社,神奈川県,横浜市青葉区,美しが丘１丁目１３番地１０吉村ビル１０７号,,14,117,2250002,,,,,,,2021-11-17,1,,,,,アイウィステリア,0
2073,7021001074470,新規,0,2021-11-17,2021-11-17,株式会社Ａｌｒｅｓｃｈａ,,株式会社,神奈川県,平塚市,紅谷町１３－５大真ビルＩＩ２階,00124887,14,203,2540043,,,,,,,2021-11-17,1,,,,,アルリシャ,0
2074,7021001074512,新規,0,2021-11-17,2021-11-17,株式会社バディ,,株式会社,神奈川県,大和市,柳橋２丁目４番地６,,14,213,2420022,,,,,,,2021-11-17,1,,,,,バディ,0
2075,7021001074529,新規,0,2021-11-17,2021-11-17,株式会社アメイズ,,株式会社,神奈川県,相模原市中央区,緑が丘１丁目１４番５号,,14,152,2520225,,,,,,,2021-11-17,1,,,,,アメイズ,0
2077,7021003011100,新規,0,2021-11-17,2021-11-17,ベクス合同会社,,合同会社,神奈川県,秦野市,寺山７６４番地の５,,14,211,2570023,,,,,,,2021-11-17,1,,,,,ベクス,0
2085,7030001145347,新規,0,2021-11-17,2021-11-17,東武建物管理株式会社,,株式会社,埼玉県,坂戸市,溝端町３番地１４－２階,,11,239,3500274,,,,,,,2021-11-17,1,,,,,トウブタテモノカンリ,0
2086,7030001145355,新規,0,2021-11-17,2021-11-17,株式会社ライフクレイドル,,株式会社,埼玉県,川越市,田町２０番地１４,,11,201,3501113,,,,,,,2021-11-17,1,,,,,ライフクレイドル,0
2087,7030001145363,新規,0,2021-11-17,2021-11-17,インテンションリビング株式会社,,株式会社,埼玉県,児玉郡美里町,大字甘粕７５２番地１,,11,381,3670113,,,,,,,2021-11-17,1,,,,,インテンションリビング,0
2088,7030001145371,新規,0,2021-11-17,2021-11-17,株式会社描翔,,株式会社,埼玉県,飯能市,大字永田１０２番地１吉健パレス１０２,,11,209,3570062,,,,,,,2021-11-17,1,,,,,カクショウ,0
2089,7030001145388,新規,0,2021-11-17,2021-11-17,伸英工業株式会社,,株式会社,埼玉県,富士見市,大字上南畑１１１番地２,,11,235,3540002,,,,,,,2021-11-17,1,,,,,シンエイコウギョウ,0
2091,7030003018303,新規,0,2021-11-17,2021-11-17,合同会社室ハウス,,合同会社,埼玉県,大里郡寄居町,大字牟礼９４１－５,,11,408,3691215,,,,,,,2021-11-17,1,,,,,ムロハウス,0
2100,7040001121017,新規,0,2021-11-17,2021-11-17,株式会社Ｂｅｓｔ　Ｈｏｕｓｅ,,株式会社,千葉県,いすみ市,岬町中原３８４８番地,,12,238,2994502,,,,,,,2021-11-17,1,,,,,ベストハウス,0
2101,7040001121025,新規,0,2021-11-17,2021-11-17,株式会社やぎしろ,,株式会社,千葉県,木更津市,岩根３丁目１１番３号２０１,,12,206,2920061,,,,,,,2021-11-17,1,,,,,ヤギシロ,0
2102,7040001121033,新規,0,2021-11-17,2021-11-17,Ｒｙ　Ｃｕｒｒｅｎｔ株式会社,,株式会社,千葉県,鎌ケ谷市,鎌ケ谷９丁目１０番７号,,12,224,2730105,,,,,,,2021-11-17,1,,,,,アールワイカレント,0
2103,7040001121058,新規,0,2021-11-17,2021-11-17,株式会社Ａｌｌ　ｇｅｎｒｅｓ,,株式会社,千葉県,市原市,ちはら台南１丁目７番地６,,12,219,2900142,,,,,,,2021-11-17,1,,,,,オールジャンル,0
2104,7040003018938,新規,0,2021-11-17,2021-11-17,ストーンズゲート合同会社,,合同会社,千葉県,千葉市若葉区,若松町９０２番地２ツインエルシティ千葉１番館１４０２号,,12,104,2640021,,,,,,,2021-11-17,1,,,,,ストーンズゲート,0
2105,7040003018954,新規,0,2021-11-17,2021-11-17,プラス合同会社,,合同会社,千葉県,流山市,南流山６丁目１７番地の５オアシスＧ－３０１,,12,220,2700163,,,,,,,2021-11-17,1,,,,,プラス,0
2107,7050001050132,新規,0,2021-11-17,2021-11-17,株式会社ＩＷＡＩ　ＭＯＴＯＲ,,株式会社,茨城県,坂東市,長須２９７９番地２,,08,228,3060645,,,,,,,2021-11-17,1,,,,,イワイモーター,0
2108,7050001050140,新規,0,2021-11-17,2021-11-17,インフィニティ株式会社,,株式会社,茨城県,牛久市,柏田町１６２２番地,,08,219,3001211,,,,,,,2021-11-17,1,,,,,インフィニティ,0
2109,7050001050149,新規,0,2021-11-17,2021-11-17,株式会社茨城総合保険事務所,,株式会社,茨城県,牛久市,ひたち野西３丁目３７番地１,,08,219,3001206,,,,,,,2021-11-17,1,,,,,イバラキソウゴウホケンジムショ,0
2110,7050001050173,新規,0,2021-11-17,2021-11-17,ツクバゴビ株式会社,,株式会社,茨城県,つくば市,並木２丁目９番地デュオヒルズつくば学園都市１００７号,,08,220,3050044,,,,,,,2021-11-17,1,,,,,,0
2111,7060001034308,新規,0,2021-11-17,2021-11-17,株式会社Ａｚｕｋｉ,,株式会社,栃木県,佐野市,高萩町５０６番地２,,09,204,3270821,,,,,,,2021-11-17,1,,,,,アズキ,0
2112,7070001038646,新規,0,2021-11-17,2021-11-17,株式会社ＳＯＣＩＵＳ,,株式会社,群馬県,甘楽郡甘楽町,大字上野２７７５番地３,,10,384,3702201,,,,,,,2021-11-17,1,,,,,ソシアス,0
2113,7070001038654,新規,0,2021-11-17,2021-11-17,株式会社ホテルマネジメント,,株式会社,群馬県,吾妻郡草津町,大字草津４６４番地７０７,,10,426,3771711,,,,,,,2021-11-17,1,,,,,ホテルマネジメント,0
2118,7080101022920,新規,0,2021-11-17,2021-11-17,ＢＲＡＮＣＨ株式会社,,株式会社,静岡県,伊豆の国市,立花３丁目１１番地の２,,22,225,4102303,,,,,,,2021-11-17,1,,,,,ブランチ,0
2120,7080401025474,新規,0,2021-11-17,2021-11-17,株式会社Ｌ,,株式会社,静岡県,掛川市,中央１丁目４番１５号,,22,213,4360056,,,,,,,2021-11-17,1,,,,,エル,0
2122,7090001017276,新規,0,2021-11-17,2021-11-17,ＢＭＬ株式会社,,株式会社,山梨県,大月市,笹子町黒野田１１７５番地１,,19,206,4010025,,,,,,,2021-11-17,1,,,,,ビーエムエル,0
2123,7090003001988,新規,0,2021-11-17,2021-11-17,ｈｕｇＵ合同会社,,合同会社,山梨県,甲府市,塩部４丁目１１番３－３０１号,,19,201,4000026,,,,,,,2021-11-17,1,,,,,ハグユー,0
2126,7100001034815,新規,0,2021-11-17,2021-11-17,株式会社Ｆｒｅｅ　ｔｉｍｅ,,株式会社,長野県,塩尻市,大字広丘野村１７８７番地２８,,20,215,3990702,,,,,,,2021-11-17,1,,,,,フリータイム,0
2136,7120001241863,新規,0,2021-11-17,2021-11-17,Ｔｏｉ株式会社,,株式会社,大阪府,大阪市中央区,備後町１丁目４番１６－４０２号,,27,128,5410051,,,,,,,2021-11-17,1,,,,,トイ,0
2137,7120001241871,新規,0,2021-11-17,2021-11-17,株式会社ＰＩＣＯ,,株式会社,大阪府,大阪市中央区,南船場３丁目１０番２８号,,27,128,5420081,,,,,,,2021-11-17,1,,,,,ピコ,0
2138,7120001241888,新規,0,2021-11-17,2021-11-17,株式会社光来,,株式会社,大阪府,大阪市北区,西天満３丁目２番９号,,27,127,5300047,,,,,,,2021-11-17,1,,,,,コウキ,0
2139,7120001241905,新規,0,2021-11-17,2021-11-17,株式会社ＴＯＹ’Ｓ　ＦＡＣＴＯＲＹ,,株式会社,大阪府,大阪市福島区,福島７丁目７－１３－９Ｆ,,27,103,5530003,,,,,,,2021-11-17,1,,,,,トイズファクトリー,0
2140,7120001241913,新規,0,2021-11-17,2021-11-17,Ｌｉｍｏ．ｔｒａｎｓｆｅｒ株式会社,,株式会社,大阪府,門真市,三ツ島５丁目１７番１２号,,27,223,5710015,,,,,,,2021-11-17,1,,,,,リモトランスファー,0
2142,7120003020605,新規,0,2021-11-17,2021-11-17,合同会社ｏｎｅ,,合同会社,大阪府,大阪市中央区,南船場４丁目１０番５号南船場ＳＯＨＯビル７０２,,27,128,5420081,,,,,,,2021-11-17,1,,,,,ワン,0
2143,7120005022608,新規,0,2021-11-17,2021-11-17,一般社団法人医療機器美容機器評価協会,,その他の設立登記法人,大阪府,大阪市西区,西本町１丁目３番２号ＯＴＴタワービル３階,,27,106,5500005,,,,,,,2021-11-17,1,,,,,イリョウキキビヨウキキヒョウカキョウカイ,0
2149,7120103004441,新規,0,2021-11-17,2021-11-17,合同会社クローバーコーポレーション,,合同会社,大阪府,堺市中区,深井中町１９６４番地５,,27,142,5998272,,,,,,,2021-11-17,1,,,,,クローバーコーポレーション,0
2152,7120901045199,新規,0,2021-11-17,2021-11-17,株式会社ＫＮＳ,,株式会社,大阪府,吹田市,片山町４丁目３４番２６号,,27,205,5640082,,,,,,,2021-11-17,1,,,,,ケイエヌエス,0
2153,7120901045216,新規,0,2021-11-17,2021-11-17,株式会社三省,,株式会社,大阪府,豊中市,上新田１丁目２８番千里中央パークヒルズ,,27,203,5600085,,,,,,,2021-11-17,1,,,,,サンセイ,0
2161,7130001070551,新規,0,2021-11-17,2021-11-17,株式会社三宅屋,,株式会社,京都府,京都市西京区,大枝沓掛町２６－３８０,,26,111,6101106,,,,,,,2021-11-17,1,,,,,ミヤケヤ,0
2171,7140001123861,新規,0,2021-11-17,2021-11-17,株式会社データーマイン,,株式会社,兵庫県,神戸市東灘区,深江本町３丁目２番１６号,,28,101,6580021,,,,,,,2021-11-17,1,,,,,データーマイン,0
2172,7140001123878,新規,0,2021-11-17,2021-11-17,株式会社ＳＮＣカンパニー,,株式会社,兵庫県,尼崎市,杭瀬本町１丁目８－８－２０１,,28,202,6600814,,,,,,,2021-11-17,1,,,,,エスエヌシーカンパニー,0
2173,7140003016997,新規,0,2021-11-17,2021-11-17,合同会社Ｗｏｏｌ,,合同会社,兵庫県,加古川市,尾上町養田１３３２－３,,28,210,6750025,,,,,,,2021-11-17,1,,,,,ウール,0
2177,7170003001658,新規,0,2021-11-17,2021-11-17,合同会社ニッシンマテリアル,,合同会社,和歌山県,和歌山市,野崎２３８番地６,,30,201,6408402,,,,,,,2021-11-17,1,,,,,ニッシンマテリアル,0
2182,7180001148731,新規,0,2021-11-17,2021-11-17,株式会社グリーンサービス,,株式会社,愛知県,名古屋市守山区,川上町１１３番地の３,,23,113,4630091,,,,,,,2021-11-17,1,,,,,グリーンサービス,0
2183,7180001148756,新規,0,2021-11-17,2021-11-17,アイクラフト株式会社,,株式会社,愛知県,名古屋市昭和区,楽園町１１８番地の１２,,23,107,4660822,,,,,,,2021-11-17,1,,,,,アイクラフト,0
2184,7180001148764,新規,0,2021-11-17,2021-11-17,株式会社ミカタ不動産,,株式会社,愛知県,稲沢市,六角堂東町４丁目３番地５,,23,220,4928172,,,,,,,2021-11-17,1,,,,,ミカタフドウサン,0
2185,7180001148780,新規,0,2021-11-17,2021-11-17,株式会社南茂住宅研究所,,株式会社,愛知県,名古屋市熱田区,沢上２丁目５番９号,,23,109,4560012,,,,,,,2021-11-17,1,,,,,ナンモジュウタクケンキュウショ,0
2186,7180001148789,新規,0,2021-11-17,2021-11-17,ＡＴアセット株式会社,,株式会社,愛知県,名古屋市天白区,天白町大字八事字裏山１１８番地の５,,23,116,4680071,,,,,,,2021-11-17,1,,,,,エーティーアセット,0
2187,7180001148797,新規,0,2021-11-17,2021-11-17,株式会社ｉｓ－ｉｔ,,株式会社,愛知県,春日井市,柏原二丁目８１番地,,23,206,4860000,,,,,,,2021-11-17,1,,,,,イズイット,0
2190,7180003023197,新規,0,2021-11-17,2021-11-17,ツーリバー合同会社,,合同会社,愛知県,名古屋市中区,新栄２丁目３５番３号,,23,106,4600007,,,,,,,2021-11-17,1,,,,,ツーリバー,0
2191,7180003023206,新規,0,2021-11-17,2021-11-17,合同会社フレーミー,,合同会社,愛知県,弥富市,平島町西勘助４６番地５,,23,235,4980031,,,,,,,2021-11-17,1,,,,,フレーミー,0
2199,7200001039424,新規,0,2021-11-17,2021-11-17,株式会社隆音,,株式会社,岐阜県,可児市,星見台２丁目７７番地,,21,214,5090230,,,,,,,2021-11-17,1,,,,,リュウオン,0
2201,7200002028533,新規,0,2021-11-17,2021-11-17,川信産業有限会社,,有限会社,岐阜県,各務原市,川島渡町５６５番地の１,,21,213,5016028,,,,,,,2021-11-17,1,,,,,カワノブサンギョウ,0
2209,7240001058932,新規,0,2021-11-17,2021-11-17,芸夢前川株式会社,,株式会社,広島県,広島市南区,松原町５番２号シティタワー広島１６０６号,,34,103,7320822,,,,,,,2021-11-17,1,,,,,ゲイムマエカワ,0
2212,7240003005321,新規,0,2021-11-17,2021-11-17,合同会社藤源総業,,合同会社,広島県,三原市,八幡町美生７１５,,34,204,7221515,,,,,,,2021-11-17,1,,,,,,0
2220,7280001008561,新規,0,2021-11-17,2021-11-17,株式会社齋藤商店,,株式会社,島根県,浜田市,大字浅井８６番地,,32,202,6970000,,,,,,,2021-11-17,1,,,,,サイトウショウテン,0
2223,7290001095418,新規,0,2021-11-17,2021-11-17,岡田不動産株式会社,,株式会社,福岡県,福岡市中央区,天神４丁目１番１７号,,40,133,8100001,,,,,,,2021-11-17,1,,,,,オカダフドウサン,0
2224,7290001095434,新規,0,2021-11-17,2021-11-17,株式会社ｏｎｅスレッズ,,株式会社,福岡県,福岡市西区,大字羽根戸９３番地６,,40,135,8190038,,,,,,,2021-11-17,1,,,,,ワンスレッズ,0
2227,7290003011835,新規,0,2021-11-17,2021-11-17,合同会社ＨＫオフィス,,合同会社,福岡県,久留米市,長門石２丁目２番１２－４０１号,,40,203,8300027,,,,,,,2021-11-17,1,,,,,エッチケイオフィス,0
2228,7290003011851,新規,0,2021-11-17,2021-11-17,カンビレイ合同会社,,合同会社,福岡県,朝倉市,持丸６４１番地５,,40,228,8380015,,,,,,,2021-11-17,1,,,,,カンビレイ,0
2230,7290005018432,新規,0,2021-11-17,2021-11-17,一般社団法人ＳＤＦ,,その他の設立登記法人,福岡県,福岡市中央区,大手門２丁目１番１０号アイリス税理士法人ビル２階,,40,133,8100074,,,,,,,2021-11-17,1,,,,,エスディーエフ,0
2238,7300003001751,新規,0,2021-11-17,2021-11-17,合同会社エステート佐賀,,合同会社,佐賀県,佐賀市,鍋島５丁目４番１４号,,41,201,8490937,,,,,,,2021-11-17,1,,,,,エステートサガ,0
2239,7300005007045,新規,0,2021-11-17,2021-11-17,医療法人おおたゆうこ小児科,,その他の設立登記法人,佐賀県,佐賀市,木原２丁目２３番１号,,41,201,8400015,,,,,,,2021-11-17,1,,,,,オオタユウコショウニカ,0
2241,7320001018738,新規,0,2021-11-17,2021-11-17,株式会社一也百,,株式会社,大分県,別府市,大字鉄輪７３５番地,,44,202,8740000,,,,,,,2021-11-17,1,,,,,ハナヤモモ,0
2250,7360001029640,新規,0,2021-11-17,2021-11-17,株式会社結,,株式会社,沖縄県,那覇市,首里石嶺町１丁目６２番２０フレスコア首里御殿山Ｇ３２５,,47,201,9030804,,,,,,,2021-11-17,1,,,,,ユイ,0
2253,7360003011571,新規,0,2021-11-17,2021-11-17,合同会社てーしち,,合同会社,沖縄県,浦添市,字西原４１番地６－２０１,,47,208,9012101,,,,,,,2021-11-17,1,,,,,テーシチ,0
2255,7370001047848,新規,0,2021-11-17,2021-11-17,ＡＧＩ株式会社,,株式会社,宮城県,名取市,大曲字藤木２１９番地,,04,207,9811216,,,,,,,2021-11-17,1,,,,,エージーアイ,0
2259,7400001015677,新規,0,2021-11-17,2021-11-17,株式会社フリースタイル,,株式会社,岩手県,花巻市,松園町４８２番地７,,03,205,0250066,,,,,,,2021-11-17,1,,,,,フリースタイル,0
2265,7430001085412,新規,0,2021-11-17,2021-11-17,株式会社ＭＴコーポレーション,,株式会社,北海道,札幌市東区,東苗穂二条３丁目３番２４号,,01,103,0070802,,,,,,,2021-11-17,1,,,,,エムティコーポレーション,0
2269,7470001018839,新規,0,2021-11-17,2021-11-17,株式会社Ｚｅ－ｎＧＡＲＡＧＥ,,株式会社,香川県,高松市,亀田南町７４０番地３,,37,201,7610432,,,,,,,2021-11-17,1,,,,,ゼンガレージ,0
2273,7500003002721,新規,0,2021-11-17,2021-11-17,合同会社ニトロ,,合同会社,愛媛県,松山市,桑原４丁目３－７アメニティ桑原Ｂ号,,38,201,7900911,,,,,,,2021-11-17,1,,,,,ニトロ,0
2275,7700150105439,新規,0,2021-11-17,2021-10-21,ＡＦＲＯ　ＵＲＢＡＮＩＴＹ,,その他,東京都,練馬区,南田中５丁目２３－２１,,13,120,1770035,,,,,,,2021-10-21,1,,,,,アフロアーバニテイ,0
2283,8010001222502,新規,0,2021-11-17,2021-11-17,ＪＰＡ第２３０号株式会社,,株式会社,東京都,千代田区,霞が関３丁目２番１号,,13,101,1000013,,,,,,,2021-11-17,1,,,,,ジェイピーエーダイニヒャクサンジュウゴウ,0
2284,8010001222510,新規,0,2021-11-17,2021-11-17,ＪＰＡ第２３８号株式会社,,株式会社,東京都,千代田区,霞が関３丁目２番１号,,13,101,1000013,,,,,,,2021-11-17,1,,,,,ジェイピーエーダイニヒャクサンジュウハチゴウ,0
2285,8010001222667,新規,0,2021-11-17,2021-11-17,株式会社ＣＬＩＰ第２１１号,,株式会社,東京都,千代田区,丸の内２丁目７番２号,,13,101,1000005,,,,,,,2021-11-17,1,,,,,シーエルアイピーダイニヒャクジュウイチゴウ,0
2286,8010001222683,新規,0,2021-11-17,2021-11-17,株式会社ＣＬＩＰ第２２７号,,株式会社,東京都,千代田区,丸の内２丁目７番２号,,13,101,1000005,,,,,,,2021-11-17,1,,,,,シーエルアイピーダイニヒャクニジュウナナゴウ,0
2288,8010003036297,新規,0,2021-11-17,2021-11-17,合同会社ＳＹＭカンパニー,,合同会社,東京都,文京区,本郷１丁目２９番１０－８０１号,,13,105,1130033,,,,,,,2021-11-17,1,,,,,エスワイエムカンパニー,0
2300,8010401163841,新規,0,2021-11-17,2021-11-17,株式会社スリーアール,,株式会社,東京都,港区,芝４丁目１３番２号田町フロントビル９Ｆ,,13,103,1080014,,,,,,,2021-11-17,1,,,,,スリーアール,0
2301,8010401163858,新規,0,2021-11-17,2021-11-17,ゼロバース株式会社,,株式会社,東京都,港区,白金１丁目２５番１３号アインス白金４０２,,13,103,1080072,,,,,,,2021-11-17,1,,,,,ゼロバース,0
2302,8010401163890,新規,0,2021-11-17,2021-11-17,株式会社鳳龍堂,,株式会社,東京都,港区,六本木５丁目１４番１９－２０６号,,13,103,1060032,,,,,,,2021-11-17,1,,,,,ホウリュウドウ,0
2303,8010401163908,新規,0,2021-11-17,2021-11-17,レジリエンスパートナーズ株式会社,,株式会社,東京都,港区,浜松町２丁目２－１５浜松町ダイヤビル２Ｆ,,13,103,1050013,,,,,,,2021-11-17,1,,,,,レジリエンスパートナーズ,0
2310,8010403026534,新規,0,2021-11-17,2021-11-17,ＤＡＴＡ－ＴＲＡＰ合同会社,,合同会社,東京都,港区,南青山２丁目２番１５号,,13,103,1070062,,,,,,,2021-11-17,1,,,,,データトラップ,0
2317,8010701041796,新規,0,2021-11-17,2021-11-17,株式会社よろゐや,,株式会社,東京都,品川区,大井２丁目１２番１３リトルリバーサイド１０１号,,13,109,1400014,,,,,,,2021-11-17,1,,,,,ヨロイヤ,0
2325,8010901049805,新規,0,2021-11-17,2021-11-17,株式会社アイエルエス,,株式会社,東京都,世田谷区,代田６丁目３番２号１階,,13,112,1550033,,,,,,,2021-11-17,1,,,,,アイエルエス,0
2326,8010901049813,新規,0,2021-11-17,2021-11-17,株式会社風龍,,株式会社,東京都,世田谷区,北沢２丁目１２番１０号ＳＳビル４０１,,13,112,1550031,,,,,,,2021-11-17,1,,,,,フウリュウ,0
2327,8010903006936,新規,0,2021-11-17,2021-11-17,合同会社毎日商店,,合同会社,東京都,世田谷区,大原１丁目３８番２号,,13,112,1560041,,,,,,,2021-11-17,1,,,,,マイニチショウテン,0
2338,8011001144018,新規,0,2021-11-17,2021-11-17,株式会社４Ｓ,,株式会社,東京都,渋谷区,広尾２丁目２１番１９号Ｄ棟１,,13,113,1500012,,,,,,,2021-11-17,1,,,,,フォーエス,0
2339,8011001144026,新規,0,2021-11-17,2021-11-17,株式会社ビューティータウン,,株式会社,東京都,渋谷区,恵比寿４丁目２０番３号,,13,113,1500013,,,,,,,2021-11-17,1,,,,,ビューティータウン,0
2342,8011005009299,新規,0,2021-11-17,2021-11-17,一般社団法人ビジネスプランナー協会,,その他の設立登記法人,東京都,渋谷区,恵比寿１丁目１０番６号,,13,113,1500013,,,,,,,2021-11-17,1,,,,,ビジネスプランナーキョウカイ,0
2343,8011101096927,新規,0,2021-11-17,2021-11-17,インフィニティ株式会社,,株式会社,東京都,新宿区,新宿３丁目１２番４号新宿Ｎタウンプラザ３０９号,,13,104,1600022,,,,,,,2021-11-17,1,,,,,インフィニティ,0
2346,8011103011181,新規,0,2021-11-17,2021-11-17,Ａｏｔｏｒｉ　Ｊａｐａｎ合同会社,,合同会社,東京都,新宿区,西新宿３丁目３－１３西新宿水間ビル６Ｆ,,13,104,1600023,,,,,,,2021-11-17,1,,,,,アオトリジャパン,0
2352,8011301027351,新規,0,2021-11-17,2021-11-17,株式会社Ｐｏｎｏ,,株式会社,東京都,杉並区,清水２丁目１５番６号,,13,115,1670033,,,,,,,2021-11-17,1,,,,,ポノ,0
2354,8011401023845,新規,0,2021-11-17,2021-11-17,株式会社Ｉ’ｍ　Ｆｏｒ　Ｙｏｕ,,株式会社,東京都,板橋区,東新町２丁目５６番４号,,13,119,1740074,,,,,,,2021-11-17,1,,,,,アイムフォーユー,0
2356,8011503004974,新規,0,2021-11-17,2021-11-17,Ｒｉｄｅ合同会社,,合同会社,東京都,荒川区,南千住７丁目１７番５－６０３号,,13,118,1160003,,,,,,,2021-11-17,1,,,,,リド,0
2357,8011601025550,新規,0,2021-11-17,2021-11-17,株式会社ラスギタルラス,,株式会社,東京都,練馬区,豊玉上２丁目２７番３－１０１号,,13,120,1760011,,,,,,,2021-11-17,1,,,,,ラスギタルラス,0
2364,8012403005113,新規,0,2021-11-17,2021-11-17,合同会社助左衛門,,合同会社,東京都,多摩市,愛宕１丁目６３０－１６,,13,224,2060041,,,,,,,2021-11-17,1,,,,,スケザエモン,0
2369,8013101008770,新規,0,2021-11-17,2021-11-17,東京和牛株式会社,,株式会社,東京都,あきる野市,菅生１４６０番地,,13,228,1970801,,,,,,,2021-11-17,1,,,,,トウキョウワギュウ,0
2371,8013301048286,新規,0,2021-11-17,2021-11-17,タクミインターナショナル株式会社,,株式会社,東京都,豊島区,北大塚２丁目２６番７号レートビル－２０２号,,13,116,1700004,,,,,,,2021-11-17,1,,,,,タクミインターナショナル,0
2376,8020001143953,新規,0,2021-11-17,2021-11-17,株式会社ましまろ,,株式会社,神奈川県,川崎市多摩区,生田７丁目２－１８新昭ビル２Ｆ,,14,135,2140038,,,,,,,2021-11-17,1,,,,,マシマロ,0
2377,8020003020829,新規,0,2021-11-17,2021-11-17,合同会社３Ｃソリューション,,合同会社,神奈川県,川崎市川崎区,堀之内町１２番地６,,14,131,2100003,,,,,,,2021-11-17,1,,,,,スリーシーソリューション,0
2378,8020003020845,新規,0,2021-11-17,2021-11-17,丸ばす合同会社,,合同会社,神奈川県,川崎市宮前区,平４丁目４番２１－２０５号,,14,136,2160022,,,,,,,2021-11-17,1,,,,,マルバス,0
2379,8021001074494,新規,0,2021-11-17,2021-11-17,株式会社ダブルビルド,,株式会社,神奈川県,横須賀市,金谷３丁目２番６号,,14,201,2380034,,,,,,,2021-11-17,1,,,,,ダブルビルド,0
2380,8021001074511,新規,0,2021-11-17,2021-11-17,米村畳店株式会社,,株式会社,神奈川県,鎌倉市,極楽寺１丁目４番１８号,,14,204,2480023,,,,,,,2021-11-17,1,,,,,ヨネムラタタミテン,0
2381,8021001074528,新規,0,2021-11-17,2021-11-17,株式会社ワタライ工業,,株式会社,神奈川県,綾瀬市,寺尾台１丁目８番２９号早川マンション２０２,,14,218,2521137,,,,,,,2021-11-17,1,,,,,ワタライコウギョウ,0
2384,8021003011099,新規,0,2021-11-17,2021-11-17,合同会社ソルビング,,合同会社,神奈川県,座間市,相模が丘６丁目３７番１－７号,,14,216,2520001,,,,,,,2021-11-17,1,,,,,ソルビング,0
2392,8030001145354,新規,0,2021-11-17,2021-11-17,株式会社ｆｉｎｅ,,株式会社,埼玉県,さいたま市岩槻区,大字柏崎１３８５番地３,,11,110,3390045,,,,,,,2021-11-17,1,,,,,ファイン,0
2393,8030001145387,新規,0,2021-11-17,2021-11-17,株式会社ｋａｇｉｓｈｉｐｐｏ,,株式会社,埼玉県,さいたま市緑区,松木３丁目３０番地１４,,11,109,3360918,,,,,,,2021-11-17,1,,,,,カギシッポ,0
2394,8030001145404,新規,0,2021-11-17,2021-11-17,株式会社ＭアンドＥ,,株式会社,埼玉県,さいたま市南区,南浦和１丁目２０番１７号,,11,108,3360017,,,,,,,2021-11-17,1,,,,,エムアンドイー,0
2398,8030003018319,新規,0,2021-11-17,2021-11-17,合同会社松田ＦＰコンサルティングオフィス,,合同会社,埼玉県,朝霞市,溝沼３丁目１番１号朝霞サンハイツ２１６号室,,11,227,3510023,,,,,,,2021-11-17,1,,,,,マツダエフピーコンサルティングオフィス,0
2399,8030003018327,新規,0,2021-11-17,2021-11-17,合同会社サンブリッジ,,合同会社,埼玉県,川口市,飯塚４丁目２－２０アリスト川口Ｈ号,,11,203,3320023,,,,,,,2021-11-17,1,,,,,サンブリッジ,0
2400,8030003018343,新規,0,2021-11-17,2021-11-17,合同会社スマイルペコ,,合同会社,埼玉県,川口市,並木元町７番１０号ディアコート並木元町１０１号,,11,203,3320033,,,,,,,2021-11-17,1,,,,,スマイルペコ,0
2407,8040001120991,新規,0,2021-11-17,2021-11-17,株式会社ブルーム,,株式会社,千葉県,千葉市中央区,新宿２丁目２番２号,,12,101,2600021,,,,,,,2021-11-17,1,,,,,ブルーム,0
2408,8040001121008,新規,0,2021-11-17,2021-11-17,株式会社ＲＥＬＡＩＳ,,株式会社,千葉県,千葉市中央区,新田町５番１０号わかちく千葉ビル８階,,12,101,2600027,,,,,,,2021-11-17,1,,,,,リライス,0
2409,8040001121049,新規,0,2021-11-17,2021-11-17,株式会社Ｙ２,,株式会社,千葉県,佐倉市,上座１１４２番地４,,12,212,2850854,,,,,,,2021-11-17,1,,,,,ワイツー,0
2410,8040001121057,新規,0,2021-11-17,2021-11-17,Ｂｅａｕｔｙ　Ｉｎ　Ｂａｌａｎｃｅ株式会社,,株式会社,千葉県,長生郡一宮町,東浪見６９２０番地２,,12,421,2994303,,,,,,,2021-11-17,1,,,,,ビューティーインバランス,0
2411,8040001121065,新規,0,2021-11-17,2021-11-17,株式会社Ｎ・ＣＯＭＰＡＳＳ　ＨＯＬＤＩＮＧＳ,,株式会社,千葉県,千葉市美浜区,中瀬２丁目６番地１,,12,106,2610023,,,,,,,2021-11-17,1,,,,,エヌコンパスホールディングス,0
2416,8040003018895,新規,0,2021-11-17,2021-11-17,インベストデイズ合同会社,,合同会社,千葉県,船橋市,本中山１丁目４－１０,,12,204,2730035,,,,,,,2021-11-17,1,,,,,インベストデイズ,0
2417,8040003018953,新規,0,2021-11-17,2021-11-17,合同会社キッズスマイルプラネット,,合同会社,千葉県,千葉市中央区,新田町１５－１６,,12,101,2600027,,,,,,,2021-11-17,1,,,,,キッズスマイルプラネット,0
2426,8060001034298,新規,0,2021-11-17,2021-11-17,株式会社神山,,株式会社,栃木県,鹿沼市,富岡１３３８番地,,09,205,3220006,,,,,,,2021-11-17,1,,,,,カミヤマ,0
2427,8060001034307,新規,0,2021-11-17,2021-11-17,株式会社グラティス,,株式会社,栃木県,栃木市,片柳町４丁目６番２０号,,09,203,3280053,,,,,,,2021-11-17,1,,,,,グラティス,0
2438,8070003004298,新規,0,2021-11-17,2021-11-17,合同会社Ｅ‐ｂｒｉｇｈｔ,,合同会社,群馬県,高崎市,吉井町南陽台２丁目１８番地１,,10,202,3702101,,,,,,,2021-11-17,1,,,,,イーブライト,0
2446,8100001034814,新規,0,2021-11-17,2021-11-17,株式会社ダイバーシティーズ,,株式会社,長野県,駒ヶ根市,赤穂５３４３番地,,20,210,3994117,,,,,,,2021-11-17,1,,,,,ダイバーシティーズ,0
2456,8120001241846,新規,0,2021-11-17,2021-11-17,株式会社Ｈｙｓｓｏｐ,,株式会社,大阪府,守口市,大久保町３丁目２９番２６号,,27,209,5700012,,,,,,,2021-11-17,1,,,,,ヒソップ,0
2457,8120001241870,新規,0,2021-11-17,2021-11-17,株式会社ジリリータジャパン,,株式会社,大阪府,大阪市城東区,蒲生１丁目１２番５号,,27,118,5360016,,,,,,,2021-11-17,1,,,,,ジリリータジャパン,0
2458,8120001241887,新規,0,2021-11-17,2021-11-17,ピーアンドシー株式会社,,株式会社,大阪府,大阪市淀川区,西中島４丁目２番２６号,,27,123,5320011,,,,,,,2021-11-17,1,,,,,ピーアンドシー,0
2459,8120001241912,新規,0,2021-11-17,2021-11-17,株式会社ＭＩＹＡＢＩ,,株式会社,大阪府,大阪市城東区,諏訪１丁目１０番２６号,,27,118,5360021,,,,,,,2021-11-17,1,,,,,ミヤビ,0
2460,8120001241920,新規,0,2021-11-17,2021-11-17,株式会社フロッグス,,株式会社,大阪府,大阪市住之江区,南加賀屋２丁目９番２３号,,27,125,5590015,,,,,,,2021-11-17,1,,,,,フロッグス,0
2461,8120001241929,新規,0,2021-11-17,2021-11-17,株式会社エス・エー・ビー,,株式会社,大阪府,大阪市中央区,北浜３丁目５番１９号淀屋橋ホワイトビル４１６号,,27,128,5410041,,,,,,,2021-11-17,1,,,,,エスエービー,0
2463,8120003020570,新規,0,2021-11-17,2021-11-17,合同会社ケーエスシー,,合同会社,大阪府,交野市,森南１丁目１番２－２Ａ号,,27,230,5760031,,,,,,,2021-11-17,1,,,,,ケーエスシー,0
2464,8120003020604,新規,0,2021-11-17,2021-11-17,ｆｕｌｌｍａｄｅｓ合同会社,,合同会社,大阪府,大阪市中央区,本町４丁目２－１２野村不動産御堂筋本町ビル８階,,27,128,5410053,,,,,,,2021-11-17,1,,,,,フルメイド,0
2466,8120005022607,新規,0,2021-11-17,2021-11-17,一般社団法人次世代燃料の研究・開発・促進協議会,,その他の設立登記法人,大阪府,大阪市天王寺区,上汐３丁目８番２号２０４,,27,109,5430002,,,,,,,2021-11-17,1,,,,,ジセダイネンリョウノケンキュウカイハツソクシンキョウギカイ,0
2467,8120005022615,新規,0,2021-11-17,2021-11-17,一般社団法人恩送り推進会,,その他の設立登記法人,大阪府,大阪市中央区,谷町２丁目５番５号,,27,128,5400012,,,,,,,2021-11-17,1,,,,,オンオクリスイシンカイ,0
2469,8120103004440,新規,0,2021-11-17,2021-11-17,ｂｒａｎ合同会社,,合同会社,大阪府,堺市堺区,田出井町２－４３,,27,141,5900014,,,,,,,2021-11-17,1,,,,,ブラン,0
2472,8130001070550,新規,0,2021-11-17,2021-11-17,株式会社Ｓａｚａｅ　Ｊａｐａｎ,,株式会社,京都府,京都市下京区,仏光寺通烏丸東入上柳町３３１番地タカノハスクエア４Ｆ,,26,106,6008099,,,,,,,2021-11-17,1,,,,,サザエジャパン,0
2475,8130003007591,新規,0,2021-11-17,2021-11-17,ステーブルデザインズ合同会社,,合同会社,京都府,亀岡市,南つつじケ丘桜台３丁目１８番２８号,,26,206,6210847,,,,,,,2021-11-17,1,,,,,ステーブルデザインズ,0
2483,8140001123860,新規,0,2021-11-17,2021-11-17,株式会社Ａｓｔｏｎ,,株式会社,兵庫県,たつの市,龍野町中村４０９番地,,28,229,6794126,,,,,,,2021-11-17,1,,,,,アストン,0
2484,8140001123885,新規,0,2021-11-17,2021-11-17,株式会社ＦＵＲＵＴＳＵ　ｅｓｔａｔｅ,,株式会社,兵庫県,神戸市長田区,北町２丁目１２番地の１,,28,106,6530016,,,,,,,2021-11-17,1,,,,,フルツエステート,0
2497,8180001148730,新規,0,2021-11-17,2021-11-17,株式会社ＳＴＥＬＬＡ,,株式会社,愛知県,長久手市,作田２丁目５０２番地２－３０３号,,23,238,4801153,,,,,,,2021-11-17,1,,,,,ステラ,0
2498,8180001148739,新規,0,2021-11-17,2021-11-17,ＪＡＰＡＮ　ＥＸＰＲＥＳＳＯ株式会社,,株式会社,愛知県,岩倉市,八剱町道光９番地１,,23,228,4820031,,,,,,,2021-11-17,1,,,,,ジャパンエキスプレス,0
2499,8180001148747,新規,0,2021-11-17,2021-11-17,株式会社横山建装,,株式会社,愛知県,知多郡東浦町,大字森岡字祖母懐２２番地２,,23,442,4702101,,,,,,,2021-11-17,1,,,,,ヨコヤマケンソウ,0
2500,8180001148755,新規,0,2021-11-17,2021-11-17,ＤＥＮＳＩＢＡ．ｆ株式会社,,株式会社,愛知県,名古屋市中川区,かの里３丁目６０３番地の３,,23,110,4540957,,,,,,,2021-11-17,1,,,,,デンシバエフ,0
2501,8180001148763,新規,0,2021-11-17,2021-11-17,株式会社ＮＥ東北,,株式会社,愛知県,名古屋市中川区,大当郎２丁目１１０７番地,,23,110,4540943,,,,,,,2021-11-17,1,,,,,エヌイートウホク,0
2502,8180001148771,新規,0,2021-11-17,2021-11-17,株式会社ＭＥＳＴ,,株式会社,愛知県,名古屋市緑区,滝ノ水４丁目９１６番地,,23,114,4580021,,,,,,,2021-11-17,1,,,,,メスト,0
2503,8180001148788,新規,0,2021-11-17,2021-11-17,株式会社きとうＲＥＭ,,株式会社,愛知県,日進市,赤池町村東１００番地１,,23,230,4700126,,,,,,,2021-11-17,1,,,,,キトウアールイーエム,0
2504,8180001148813,新規,0,2021-11-17,2021-11-17,株式会社ｏｎｅ,,株式会社,愛知県,名古屋市中区,栄４丁目９番１０号愛信プラザビル２階１２号室,,23,106,4600008,,,,,,,2021-11-17,1,,,,,ワン,0
2509,8180003023205,新規,0,2021-11-17,2021-11-17,合同会社リアルジョイ,,合同会社,愛知県,名古屋市緑区,大高台５１３番地,,23,114,4580000,,,,,,,2021-11-17,1,,,,,リアルジョイ,0
2519,8200001039423,新規,0,2021-11-17,2021-11-17,株式会社柳井新聞店,,株式会社,岐阜県,大垣市,赤坂町１８７番地１,,21,202,5032213,,,,,,,2021-11-17,1,,,,,ヤナイシンブンテン,0
2522,8200005013275,新規,0,2021-11-17,2021-11-17,一般社団法人両立支援マネジメント,,その他の設立登記法人,岐阜県,岐阜市,島田西町８０番地１,,21,201,5008317,,,,,,,2021-11-17,1,,,,,リョウリツシエンマネジメント,0
2524,8220001024547,新規,0,2021-11-17,2021-11-17,株式会社ロンセ,,株式会社,石川県,金沢市,浅野本町ロ１７６番地１,,17,201,9200841,,,,,,,2021-11-17,1,,,,,ロンセ,0
2527,8230001019100,新規,0,2021-11-17,2021-11-17,Ｓ‐ＤＡＳＨ株式会社,,株式会社,富山県,富山市,木場町１番１０号,,16,201,9300806,,,,,,,2021-11-17,1,,,,,エスダッシュ,0
2530,8240001058948,新規,0,2021-11-17,2021-11-17,株式会社ＡＤＳＩＤＥ,,株式会社,広島県,広島市佐伯区,石内東１丁目１１番１０号,,34,108,7315162,,,,,,,2021-11-17,1,,,,,アドサイド,0
2531,8260003003719,新規,0,2021-11-17,2021-11-17,合同会社グリーンラボハレバレ,,合同会社,岡山県,久米郡久米南町,上弓削１１２番地３,,33,663,7093612,,,,,,,2021-11-17,1,,,,,グリーンラボハレバレ,0
2532,8260003003727,新規,0,2021-11-17,2021-11-17,合同会社ストレートフラッシュ,,合同会社,岡山県,真庭市,古見１７０４番地６,,33,214,7193103,,,,,,,2021-11-17,1,,,,,ストレートフラッシュ,0
2537,8290001095417,新規,0,2021-11-17,2021-11-17,株式会社東京フードプランニング,,株式会社,福岡県,福岡市博多区,住吉２丁目９番５－１００５号,,40,132,8120018,,,,,,,2021-11-17,1,,,,,トウキョウフードプランニング,0
2538,8290001095425,新規,0,2021-11-17,2021-11-17,株式会社アリアケ,,株式会社,福岡県,福岡市西区,福重３丁目６番２２号,,40,135,8190022,,,,,,,2021-11-17,1,,,,,アリアケ,0
2539,8290001095433,新規,0,2021-11-17,2021-11-17,株式会社サークル,,株式会社,福岡県,久留米市,江戸屋敷１丁目７－２コーポ江戸屋敷２２３号,,40,203,8300059,,,,,,,2021-11-17,1,,,,,サークル,0
2540,8290001095441,新規,0,2021-11-17,2021-11-17,株式会社リベルタ企画,,株式会社,福岡県,久留米市,小森野６丁目１８番２１号,,40,203,8300001,,,,,,,2021-11-17,1,,,,,リベルタキカク,0
2542,8290801028006,新規,0,2021-11-17,2021-11-17,株式会社ｈａｎａ,,株式会社,福岡県,北九州市八幡西区,千代ケ崎１丁目２番２４号,,40,109,8070803,,,,,,,2021-11-17,1,,,,,ハナ,0
2545,8310001017582,新規,0,2021-11-17,2021-11-17,ｎｔ　Ａｄｄ　ｗｏｒｋｓ株式会社,,株式会社,長崎県,長崎市,出島町２－１１出島交流会館８階,,42,201,8500862,,,,,,,2021-11-17,1,,,,,エヌティアドワークス,0
2552,8340001024279,新規,0,2021-11-17,2021-11-17,株式会社オンリーワン,,株式会社,鹿児島県,肝属郡肝付町,前田９５７番地４３,,46,492,8931206,,,,,,,2021-11-17,1,,,,,オンリーワン,0
2557,8360003011570,新規,0,2021-11-17,2021-11-17,合同会社Ｉ’ｓ,,合同会社,沖縄県,沖縄市,山内２丁目２６番３３号,,47,211,9040034,,,,,,,2021-11-17,1,,,,,アイズ,0
2560,8360005006560,新規,0,2021-11-17,2021-11-17,一般社団法人シンカオキナワ,,その他の設立登記法人,沖縄県,那覇市,天久１丁目２１番１０号,,47,201,9000005,,,,,,,2021-11-17,1,,,,,シンカオキナワ,0
2561,8370001047839,新規,0,2021-11-17,2021-11-17,ＡＵＴＥＣＨ株式会社,,株式会社,宮城県,塩竈市,北浜４丁目１番５号,,04,203,9850003,,,,,,,2021-11-17,1,,,,,オーテック,0
2562,8370003005480,新規,0,2021-11-17,2021-11-17,こてつ合同会社,,合同会社,宮城県,大崎市,古川清水沢字下沢田３５番地４２,,04,215,9896241,,,,,,,2021-11-17,1,,,,,コテツ,0
2573,8430001085411,新規,0,2021-11-17,2021-11-17,株式会社ＮＯＶＡＳＴＡ,,株式会社,北海道,札幌市北区,屯田五条７丁目１－７１ティー・エヌビルＡ－２階,,01,102,0020855,,,,,,,2021-11-17,1,,,,,ノバスタ,0
2576,8430003013361,新規,0,2021-11-17,2021-11-17,合同会社ＴＮカンパニー,,合同会社,北海道,札幌市東区,北二十七条東９丁目３番１３号北２７条クラブハウスＢ－２０３,,01,103,0650027,,,,,,,2021-11-17,1,,,,,ティーエヌカンパニー,0
2578,8450003002156,新規,0,2021-11-17,2021-11-17,合同会社コヤナギストアー,,合同会社,北海道,旭川市,豊岡七条３丁目４番１３号,,01,204,0788237,,,,,,,2021-11-17,1,,,,,コヤナギストアー,0
2579,8462501000912,新規,0,2021-11-17,2021-11-17,株式会社クリルム,,株式会社,北海道,標津郡中標津町,東三条北１丁目６番地三条ビル２階テナントＡ,,01,692,0861043,,,,,,,2021-11-17,1,,,,,クリルム,0
2582,8480001011552,新規,0,2021-11-17,2021-11-17,株式会社ランド,,株式会社,徳島県,阿南市,領家町火屋ケ原１３９番地,,36,204,7740011,,,,,,,2021-11-17,1,,,,,ランド,0
2586,8500003002720,新規,0,2021-11-17,2021-11-17,Ｂａｒｉｔｅｃｈ合同会社,,合同会社,愛媛県,今治市,小泉４丁目２番２４号,,38,202,7940064,,,,,,,2021-11-17,1,,,,,バリテック,0
2588,8700150105842,新規,0,2021-11-17,2021-11-17,ＳＡＤＡＲ＆ＳＯＮＳ　ＰＲＩＶＡＴＥ　ＬＩＭＩＴＥＤ,,外国会社等,千葉県,茂原市,清水２２４０－１５清水オフィス－３,,12,210,2994101,スリランカ民主社会主義共和国、マタレ、キユレ、ウルパタピティヤ、４６番,,,,,,2021-11-17,1,,,,,シヤダルアンドサンスプライベートリミテツド,0
2597,9010001222427,新規,0,2021-11-17,2021-11-17,株式会社ＳＣホールディングス,,株式会社,東京都,千代田区,霞が関１丁目４番２号大同生命霞が関ビル６階,,13,101,1000013,,,,,,,2021-11-17,1,,,,,エスシーホールディングス,0
2598,9010001222609,新規,0,2021-11-17,2021-11-17,株式会社ＡＲＤＯＲ,,株式会社,東京都,千代田区,九段南１丁目５番６号りそな九段ビル５階ＫＳフロア,,13,101,1020074,,,,,,,2021-11-17,1,,,,,アルドル,0
2599,9010001222682,新規,0,2021-11-17,2021-11-17,株式会社ＣＬＩＰ第２２６号,,株式会社,東京都,千代田区,丸の内２丁目７番２号,,13,101,1000005,,,,,,,2021-11-17,1,,,,,シーエルアイピーダイニヒャクニジュウロクゴウ,0
2601,9010003036305,新規,0,2021-11-17,2021-11-17,Ｈ１合同会社,,合同会社,東京都,中央区,銀座８丁目１５番１０号,,13,102,1040061,,,,,,,2021-11-17,1,,,,,エイチワン,0
2611,9010401163840,新規,0,2021-11-17,2021-11-17,株式会社安井商事,,株式会社,東京都,港区,新橋４丁目１８番４号十合ビル１階,,13,103,1050004,,,,,,,2021-11-17,1,,,,,ヤスイショウジ,0
2612,9010401163898,新規,0,2021-11-17,2021-11-17,ｍ．株式会社,,株式会社,東京都,港区,浜松町２丁目２番１５号浜松町ダイヤビル２Ｆ,,13,103,1050013,,,,,,,2021-11-17,1,,,,,エムドット,0
2613,9010401163907,新規,0,2021-11-17,2021-11-17,株式会社ＬＩＢＥＲＴＲＩＢＥ,,株式会社,東京都,港区,元麻布３丁目１２番７－３０４号,,13,103,1060046,,,,,,,2021-11-17,1,,,,,リベルトライブ,0
2615,9010403026517,新規,0,2021-11-17,2021-11-17,ＲＭ合同会社,,合同会社,東京都,港区,芝浦２丁目１６番７号丸宗ビル１Ｆ,,13,103,1080023,,,,,,,2021-11-17,1,,,,,アールエム,0
2621,9010701041787,新規,0,2021-11-17,2021-11-17,株式会社ｂａｓｓ,,株式会社,東京都,品川区,東五反田１丁目１３番１２号いちご五反田ビル１０階１０４１号室,,13,109,1410022,,,,,,,2021-11-17,1,,,,,ベース,0
2622,9010701041795,新規,0,2021-11-17,2021-11-17,百瑞株式会社,,株式会社,東京都,品川区,西五反田２丁目１１番１５－６０３室,,13,109,1410031,,,,,,,2021-11-17,1,,,,,ヒャクズイ,0
2623,9010703006004,新規,0,2021-11-17,2021-11-17,合同会社Ｂｏｏｓｔ　Ｇａｔｅ,,合同会社,東京都,品川区,西五反田３丁目１３番２１－２１４号,,13,109,1410031,,,,,,,2021-11-17,1,,,,,ブーストゲート,0
2626,9010805002900,新規,0,2021-11-17,2021-11-17,日研グループ協同組合,,その他の設立登記法人,東京都,大田区,西蒲田７丁目８番３号,,13,111,1440051,,,,,,,2021-11-17,1,,,,,ニッケングループ,0
2629,9010901049812,新規,0,2021-11-17,2021-11-17,株式会社Ｄ＆Ｂ,,株式会社,東京都,世田谷区,豪徳寺１丁目４４番８号,,13,112,1540021,,,,,,,2021-11-17,1,,,,,ディーアンドビー,0
2638,9011001144025,新規,0,2021-11-17,2021-11-17,マツイーク株式会社,,株式会社,東京都,渋谷区,千駄ヶ谷３丁目３番３－６０４号,,13,113,1510051,,,,,,,2021-11-17,1,,,,,マツイーク,0
2639,9011001144033,新規,0,2021-11-17,2021-11-17,株式会社ｔｏｋｙｏ　ｂａｓｉｃ　ｃａｒ　ｃｌｕｂ,,株式会社,東京都,渋谷区,渋谷２丁目１９番１５号宮益坂ビルディング６０９,,13,113,1500002,,,,,,,2021-11-17,1,,,,,トウキョウベーシックカークラブ,0
2640,9011001144066,新規,0,2021-11-17,2021-11-17,株式会社Ｉｎｄｉｇｏ,,株式会社,東京都,目黒区,大橋２丁目１６番２９号－３階,,13,110,1530044,,,,,,,2021-11-17,1,,,,,インディゴ,0
2642,9011005009298,新規,0,2021-11-17,2021-11-17,一般社団法人もうひとつのおうち,,その他の設立登記法人,東京都,目黒区,八雲２丁目１番２３号八雲テラスハウス１０１,,13,110,1520023,,,,,,,2021-11-17,1,,,,,モウヒトツノオウチ,0
2649,9011201023417,新規,0,2021-11-17,2021-11-17,株式会社やなぎのかぜ,,株式会社,東京都,中野区,新井１丁目１４番２号,,13,114,1650026,,,,,,,2021-11-17,1,,,,,ヤナギノカゼ,0
2650,9011203003697,新規,0,2021-11-17,2021-11-17,合同会社美装,,合同会社,東京都,中野区,弥生町４丁目２５－１,,13,114,1640013,,,,,,,2021-11-17,1,,,,,ビソウ,0
2652,9011301027342,新規,0,2021-11-17,2021-11-17,株式会社ストライクスルー,,株式会社,東京都,杉並区,和田３丁目１３－１１,,13,115,1660012,,,,,,,2021-11-17,1,,,,,ストライクスルー,0
2653,9011301027350,新規,0,2021-11-17,2021-11-17,株式会社カンリョク,,株式会社,東京都,杉並区,和田１丁目３８番３号,,13,115,1660012,,,,,,,2021-11-17,1,,,,,カンリョク,0
2658,9011501027480,新規,0,2021-11-17,2021-11-17,株式会社ヘルスフォワード,,株式会社,東京都,北区,赤羽２丁目４番１４号蛇の目赤羽ビル５Ｃ号,,13,117,1150045,,,,,,,2021-11-17,1,,,,,ヘルスフォワード,0
2659,9011501027489,新規,0,2021-11-17,2021-11-17,株式会社ルイジ,,株式会社,東京都,北区,赤羽２丁目２０－５岡谷ビル１階,,13,117,1150045,,,,,,,2021-11-17,1,,,,,ルイジ,0
2665,9011601025541,新規,0,2021-11-17,2021-11-17,株式会社ｅＦ－ｆｏｒｉａ,,株式会社,東京都,練馬区,豊玉南３丁目１１番１９－６０４号,,13,120,1760014,,,,,,,2021-11-17,1,,,,,エフフォリア,0
2675,9012801021223,新規,0,2021-11-17,2021-11-17,株式会社リガーレ,,株式会社,東京都,立川市,柴崎町３丁目１０番６号市川ビル１０２,,13,202,1900023,,,,,,,2021-11-17,1,,,,,リガーレ,0
2680,9020001143903,新規,0,2021-11-17,2021-11-17,株式会社Ｐ．Ｓ．Ｐ．Ｃ,,株式会社,神奈川県,横浜市緑区,北八朔町１６２７ー６ヴィルヌーブＢ棟２０２,,14,113,2260021,,,,,,,2021-11-17,1,,,,,ピーエスピーシー,0
2681,9020001143928,新規,0,2021-11-17,2021-11-17,株式会社Ｇｉｚｍｏ　Ｆａｂ．,,株式会社,神奈川県,横浜市戸塚区,品濃町８８０番地５,,14,110,2440801,,,,,,,2021-11-17,1,,,,,ギズモファブ,0
2682,9020001143952,新規,0,2021-11-17,2021-11-17,株式会社西野建装,,株式会社,神奈川県,横浜市都筑区,早渕１丁目１７番１２－Ｃ３０１号,,14,118,2240025,,,,,,,2021-11-17,1,,,,,ニシノケンソウ,0
2683,9020001143969,新規,0,2021-11-17,2021-11-17,株式会社ＣＰＭ,,株式会社,神奈川県,川崎市宮前区,平２丁目７番１８号,,14,136,2160022,,,,,,,2021-11-17,1,,,,,シーピーエム,0
2686,9020003020836,新規,0,2021-11-17,2021-11-17,合同会社ｈｉｒｏｍａｒｕ,,合同会社,神奈川県,川崎市多摩区,三田３丁目１番地２・１－３０１,,14,135,2140034,,,,,,,2021-11-17,1,,,,,ヒロマル,0
2688,9021001074493,新規,0,2021-11-17,2021-11-17,株式会社ＫＷＯＲＫＳ,,株式会社,神奈川県,小田原市,入生田２０１番地１,,14,206,2500031,,,,,,,2021-11-17,1,,,,,ケイワークス,0
2689,9021001074502,新規,0,2021-11-17,2021-11-17,Ｔａｉｓｅ－Ｄｅｖｅｌｏｐｍｅｎｔ株式会社,,株式会社,神奈川県,厚木市,中町４丁目１番１３号－１Ｆ,,14,212,2430018,,,,,,,2021-11-17,1,,,,,タイセーディベロップメント,0
2690,9021001074510,新規,0,2021-11-17,2021-11-17,株式会社ＦＲＥＥ　ＬＩＦＥ,,株式会社,神奈川県,茅ヶ崎市,東海岸北４丁目６－４３,,14,207,2530053,,,,,,,2021-11-17,1,,,,,フリーライフ,0
2691,9021001074527,新規,0,2021-11-17,2021-11-17,株式会社Ｎｏｒａ　Ｓｃｉｅｎｔｉｆｉｃ,,株式会社,神奈川県,藤沢市,鵠沼松が岡１丁目１４番１１～３号,00124881,14,205,2510038,,,,,,,2021-11-17,1,,,,,ノラサイエンティフィック,0
2692,9021001074535,新規,0,2021-11-17,2021-11-17,株式会社アルキルア,,株式会社,神奈川県,藤沢市,高倉６６８番地の５青木ビル２Ｆ,,14,205,2520802,,,,,,,2021-11-17,1,,,,,アルキルア,0
2693,9021003011098,新規,0,2021-11-17,2021-11-17,ＨＯＲＩＺＯＮ＆ＣＯＭ．合同会社,,合同会社,神奈川県,鎌倉市,稲村ガ崎３丁目１５番３号,,14,204,2480024,,,,,,,2021-11-17,1,,,,,ホライゾンアンドコム,0
2694,9021003011107,新規,0,2021-11-17,2021-11-17,アート合同会社,,合同会社,神奈川県,伊勢原市,坪ノ内８０番地の８,,14,214,2591104,,,,,,,2021-11-17,1,,,,,アート,0
2702,9030001144982,新規,0,2021-11-17,2021-11-17,株式会社インテリアイ,,株式会社,埼玉県,三郷市,高州２丁目１６３－７,,11,237,3410037,,,,,,,2021-11-17,1,,,,,インテリアイ,0
2703,9030001145337,新規,0,2021-11-17,2021-11-17,ｉｉＣＡＲＥ株式会社,,株式会社,埼玉県,春日部市,一ノ割４丁目１５番７－４号,,11,214,3440031,,,,,,,2021-11-17,1,,,,,イイケア,0
2704,9030001145345,新規,0,2021-11-17,2021-11-17,株式会社健心,,株式会社,埼玉県,所沢市,東所沢２丁目６０番地の４－３０１,,11,208,3590021,,,,,,,2021-11-17,1,,,,,ケンシン,0
2705,9030001145353,新規,0,2021-11-17,2021-11-17,Ｍｏｒｅミルク株式会社,,株式会社,埼玉県,羽生市,大字下新郷２４６番地１,,11,216,3480047,,,,,,,2021-11-17,1,,,,,モアミルク,0
2706,9030001145378,新規,0,2021-11-17,2021-11-17,株式会社Ｅｘｃｅｅｄ,,株式会社,埼玉県,桶川市,大字坂田１５５８番地６４,,11,231,3630008,,,,,,,2021-11-17,1,,,,,エクシード,0
2707,9030001145403,新規,0,2021-11-17,2021-11-17,株式会社マルコ,,株式会社,埼玉県,さいたま市大宮区,櫛引町１丁目８７５番地１,,11,103,3300851,,,,,,,2021-11-17,1,,,,,マルコ,0
2708,9030001145411,新規,0,2021-11-17,2021-11-17,株式会社ＧＤ　Ｅ－ＢＯＮＤホールディングス２号,,株式会社,埼玉県,北葛飾郡松伏町,大字築比地７９５番地１,,11,465,3430102,,,,,,,2021-11-17,1,,,,,ジーディイーボンドホールディングスニゴウ,0
2710,9030003018094,新規,0,2021-11-17,2021-11-17,Ｔｒｅｓ＆Ｃｙ合同会社,,合同会社,埼玉県,川越市,かすみ野３丁目４番地２５,,11,201,3501174,,,,,,,2021-11-17,1,,,,,トゥレスアンドシー,0
2711,9030003018318,新規,0,2021-11-17,2021-11-17,ＤＥＥＰＳＯＮ合同会社,,合同会社,埼玉県,ふじみ野市,上福岡２丁目９－２７キャロット上福岡１０１号室,,11,245,3560004,,,,,,,2021-11-17,1,,,,,ディープサン,0
2712,9030003018326,新規,0,2021-11-17,2021-11-17,合同会社Ａｋｉｒａ,,合同会社,埼玉県,三郷市,さつき平１丁目５番２ー７１０号,,11,237,3410021,,,,,,,2021-11-17,1,,,,,アキラ,0
2713,9030003018334,新規,0,2021-11-17,2021-11-17,合同会社Ｄｅｉｇｏ,,合同会社,埼玉県,鴻巣市,中井７８番地２ユニキューブ中井Ｂ,,11,217,3650065,,,,,,,2021-11-17,1,,,,,デイゴ,0
2714,9030003018342,新規,0,2021-11-17,2021-11-17,合同会社ＳＰＣｈａｎｇｅ　Ｐｒｏｄｕｃｔ,,合同会社,埼玉県,さいたま市中央区,桜丘１丁目３番２３号チェリーヒル２０１,,11,105,3380005,,,,,,,2021-11-17,1,,,,,エスピーチェンジプロダクト,0
2720,9040001120974,新規,0,2021-11-17,2021-11-17,フラットエイト株式会社,,株式会社,千葉県,市川市,高谷２丁目２０番２０号,,12,203,2720013,,,,,,,2021-11-17,1,,,,,フラットエイト,0
2721,9040001120990,新規,0,2021-11-17,2021-11-17,株式会社アラジン,,株式会社,千葉県,市川市,香取１丁目４番１６号,,12,203,2720141,,,,,,,2021-11-17,1,,,,,アラジン,0
2722,9040001121031,新規,0,2021-11-17,2021-11-17,株式会社さくま建築,,株式会社,千葉県,匝瑳市,野手１０３１５番地３,,12,235,2893181,,,,,,,2021-11-17,1,,,,,サクマケンチク,0
2728,9050001050139,新規,0,2021-11-17,2021-11-17,株式会社Ｆｅｌｉｃｅ,,株式会社,茨城県,神栖市,大野原８丁目７番４５号,,08,232,3140144,,,,,,,2021-11-17,1,,,,,フェリーチェ,0
2729,9050001050155,新規,0,2021-11-17,2021-11-17,株式会社園,,株式会社,茨城県,東茨城郡城里町,大字小坂５３４番地の５,,08,310,3114316,,,,,,,2021-11-17,1,,,,,エン,0
2731,9070001038644,新規,0,2021-11-17,2021-11-17,株式会社フラップ,,株式会社,群馬県,太田市,新田下田中町７３５番地,,10,205,3700343,,,,,,,2021-11-17,1,,,,,フラップ,0
2732,9070001038652,新規,0,2021-11-17,2021-11-17,株式会社リゾネート,,株式会社,群馬県,高崎市,下佐野町６３８番地１３,,10,202,3700855,,,,,,,2021-11-17,1,,,,,リゾネート,0
2736,9080101022919,新規,0,2021-11-17,2021-11-17,インステイト株式会社,,株式会社,静岡県,沼津市,宮本２５番地の１,,22,203,4100301,,,,,,,2021-11-17,1,,,,,インステイト,0
2742,9110001036197,新規,0,2021-11-17,2021-11-17,株式会社あすたりすく,,株式会社,新潟県,新潟市西区,小針２丁目３２－１３,,15,107,9502022,,,,,,,2021-11-17,1,,,,,アスタリスク,0
2746,9110005016732,新規,0,2021-11-17,2021-11-17,一般社団法人新潟就労支援協会,,その他の設立登記法人,新潟県,新潟市中央区,南出来島１丁目１０番７号出来島第一ビル４階,,15,103,9500963,,,,,,,2021-11-17,1,,,,,ニイガタシュウロウシエンキョウカイ,0
2752,9120001241820,新規,0,2021-11-17,2021-11-17,株式会社エコラス関西総合研究所,,株式会社,大阪府,大阪市住之江区,新北島５丁目１番３３号,,27,125,5590024,,,,,,,2021-11-17,1,,,,,エコラスカンサイソウゴウケンキュウショ,0
2753,9120001241878,新規,0,2021-11-17,2021-11-17,株式会社ＳＡＭＭＹ　ＢＥＡＵＴＹ,,株式会社,大阪府,大阪市中央区,島之内２丁目１５番１６－５０６号,,27,128,5420082,,,,,,,2021-11-17,1,,,,,サミービューティー,0
2755,9120003020594,新規,0,2021-11-17,2021-11-17,ＣＨブリッジ合同会社,,合同会社,大阪府,守口市,藤田町５丁目１４番１０号,,27,209,5700014,,,,,,,2021-11-17,1,,,,,シーエイチブリッジ,0
2757,9120901045206,新規,0,2021-11-17,2021-11-17,株式会社ＫＭＣ,,株式会社,大阪府,高槻市,野見町６番３９号,,27,207,5690077,,,,,,,2021-11-17,1,,,,,ケイエムシー,0
2758,9120901045230,新規,0,2021-11-17,2021-11-17,オータムライト株式会社,,株式会社,大阪府,箕面市,森町南２丁目５番１０号,,27,220,5630258,,,,,,,2021-11-17,1,,,,,オータムライト,0
2760,9122003002218,新規,0,2021-11-17,2021-11-17,合同会社Ｒｅｂｅｌ,,合同会社,大阪府,大東市,赤井１丁目５－４ラプラス住道１０５,,27,218,5740046,,,,,,,2021-11-17,1,,,,,レブル,0
2762,9130001070558,新規,0,2021-11-17,2021-11-17,株式会社Ｗｈｉｔｅ　Ｔａｒａ,,株式会社,京都府,京都市右京区,太秦北路町１２番地４,,26,108,6168182,,,,,,,2021-11-17,1,,,,,ホワイトターラ,0
2763,9130001070566,新規,0,2021-11-17,2021-11-17,株式会社ＴＯＭ,,株式会社,京都府,京都市右京区,西京極中沢町１番地１３サンシティ西京極壱番館３１８号室,,26,108,6150815,,,,,,,2021-11-17,1,,,,,ティーオーエム,0
2766,9130003007590,新規,0,2021-11-17,2021-11-17,わゆたか合同会社,,合同会社,京都府,京都市上京区,大宮通西裏芦山寺上る三丁目竪社南半町２３９番地,00124893,26,102,6020000,,,,,,,2021-11-17,1,,,,,ワユタカ,0
2769,9140001123868,新規,0,2021-11-17,2021-11-17,株式会社島田工業,,株式会社,兵庫県,姫路市,玉手１丁目１５２番地,,28,201,6700985,,,,,,,2021-11-17,1,,,,,シマダコウギョウ,0
2770,9140001123884,新規,0,2021-11-17,2021-11-17,株式会社エスケイ,,株式会社,兵庫県,尼崎市,北大物町５番７号,,28,202,6600804,,,,,,,2021-11-17,1,,,,,エスケイ,0
2771,9140001123892,新規,0,2021-11-17,2021-11-17,株式会社ＳＡＫＩＧＡＫＥ,,株式会社,兵庫県,加古川市,加古川町溝之口５７８番１号,,28,210,6750064,,,,,,,2021-11-17,1,,,,,サキガケ,0
2772,9140001123901,新規,0,2021-11-17,2021-11-17,Ｍａｔｈａｗａｙ株式会社,,株式会社,兵庫県,神戸市灘区,篠原本町３丁目２番３６号,,28,102,6570067,,,,,,,2021-11-17,1,,,,,マザウェイ,0
2773,9140003016995,新規,0,2021-11-17,2021-11-17,合同会社Ｓｉｘｔｙ　Ｏｎｅ,,合同会社,兵庫県,神戸市中央区,御幸通８丁目１番６号神戸国際会館２２階１２０号,,28,110,6510087,,,,,,,2021-11-17,1,,,,,シックスティワン,0
2788,9180001148762,新規,0,2021-11-17,2021-11-17,株式会社Ｇｅｍｒｏｓｅ,,株式会社,愛知県,名古屋市中区,栄３丁目１５番３３号,,23,106,4600008,,,,,,,2021-11-17,1,,,,,ジェムローズ,0
2789,9180001148779,新規,0,2021-11-17,2021-11-17,株式会社ＡＩＭ,,株式会社,愛知県,愛西市,西保町石暮４４番地１５,,23,232,4960911,,,,,,,2021-11-17,1,,,,,エーアイエム,0
2790,9180001148787,新規,0,2021-11-17,2021-11-17,株式会社セント・オルガＨＤ,,株式会社,愛知県,名古屋市中川区,万場５丁目１５１２番地,,23,110,4540997,,,,,,,2021-11-17,1,,,,,セントオルガホールディングス,0
2791,9180001148804,新規,0,2021-11-17,2021-11-17,アートクリエイト株式会社,,株式会社,愛知県,春日井市,宮町字宮町１１８番地２,,23,206,4860904,,,,,,,2021-11-17,1,,,,,アートクリエイト,0
2797,9180003023204,新規,0,2021-11-17,2021-11-17,合同会社ライフエナジー,,合同会社,愛知県,名古屋市港区,入場１丁目３００４番地グランドヒルズ入場一番館５０３,,23,111,4550803,,,,,,,2021-11-17,1,,,,,ライフエナジー,0
2798,9180301035636,新規,0,2021-11-17,2021-11-17,ＣＲＥＳＴ株式会社,,株式会社,愛知県,豊川市,弥生町２丁目２８番地,,23,207,4420831,,,,,,,2021-11-17,1,,,,,クレスト,0
2799,9180305009264,新規,0,2021-11-17,2021-11-17,一般社団法人三河福祉村,,その他の設立登記法人,愛知県,額田郡幸田町,大字菱池字鷲取２９番地,,23,501,4440113,,,,,,,2021-11-17,1,,,,,ミカワフクシムラ,0
2803,9200003005380,新規,0,2021-11-17,2021-11-17,ＭＡＩ　ＬＩＮＨ合同会社,,合同会社,岐阜県,大垣市,林町７丁目７６８番地１,,21,202,5030015,,,,,,,2021-11-17,1,,,,,マイリン,0
2804,9200005013274,新規,0,2021-11-17,2021-11-17,一般社団法人愛知県就労促進協会,,その他の設立登記法人,岐阜県,中津川市,付知町７１４６－２４,,21,206,5080351,,,,,,,2021-11-17,1,,,,,アイチケンシュウロウソクシンキョウカイ,0
2806,9220001024546,新規,0,2021-11-17,2021-11-17,株式会社イクイ,,株式会社,石川県,金沢市,疋田町ロ３７番地３,,17,201,9200004,,,,,,,2021-11-17,1,,,,,イクイ,0
2809,9230001019099,新規,0,2021-11-17,2021-11-17,株式会社アサヒファーム,,株式会社,富山県,下新川郡朝日町,山王３２１番地,,16,343,9380167,,,,,,,2021-11-17,1,,,,,アサヒファーム,0
2810,9230001019108,新規,0,2021-11-17,2021-11-17,北陸インダストリ株式会社,,株式会社,富山県,魚津市,上村木１丁目１８番５号,,16,204,9370046,,,,,,,2021-11-17,1,,,,,ホクリクインダストリ,0
2815,9240001058939,新規,0,2021-11-17,2021-11-17,株式会社ＡＩＲＩＳ,,株式会社,広島県,広島市安佐北区,可部東２丁目１６番１１－４号,,34,106,7310222,,,,,,,2021-11-17,1,,,,,エアリス,0
2820,9260003003726,新規,0,2021-11-17,2021-11-17,合同会社ＱＵＥＥＮ,,合同会社,岡山県,真庭市,古見１７０４番地６,,33,214,7193103,,,,,,,2021-11-17,1,,,,,クイーン,0
2827,9290001095424,新規,0,2021-11-17,2021-11-17,株式会社ｅｘｐｏオフィス,,株式会社,福岡県,福岡市博多区,月隈２丁目１２番１３号,,40,132,8120858,,,,,,,2021-11-17,1,,,,,エキスポオフィス,0
2828,9290001095465,新規,0,2021-11-17,2021-11-17,株式会社ＧＰＪ,,株式会社,福岡県,福津市,津屋崎８丁目９番１７号,,40,224,8113304,,,,,,,2021-11-17,1,,,,,ジーピージェイ,0
2840,9330003009138,新規,0,2021-11-17,2021-11-17,合同会社４ｓ,,合同会社,熊本県,熊本市中央区,大江５丁目８番２４号,,43,101,8620971,,,,,,,2021-11-17,1,,,,,フォーエス,0
2848,9360001029639,新規,0,2021-11-17,2021-11-17,株式会社ｙｍボディー,,株式会社,沖縄県,糸満市,字真壁１１９５番地４,,47,210,9010336,,,,,,,2021-11-17,1,,,,,ワイエムボディー,0
2849,9360001029647,新規,0,2021-11-17,2021-11-17,株式会社オーシャンキャンパス,,株式会社,沖縄県,石垣市,字大川３９番地２、２０２,,47,207,9070022,,,,,,,2021-11-17,1,,,,,オーシャンキャンパス,0
2850,9360003011578,新規,0,2021-11-17,2021-11-17,合同会社ＨＩＧＡ計算センター,,合同会社,沖縄県,沖縄市,古謝津嘉山町２８番１２号,,47,211,9042166,,,,,,,2021-11-17,1,,,,,ヒガケイサンセンター,0
2856,9380001032343,新規,0,2021-11-17,2021-11-17,株式会社エムティービルド,,株式会社,福島県,いわき市,平中平窪字杉内３２番地の１５,,07,204,9708002,,,,,,,2021-11-17,1,,,,,エムティービルド,0
2860,9410003003586,新規,0,2021-11-17,2021-11-17,ピクトワールＮＦＴ合同会社,,合同会社,秋田県,横手市,神明町３番２８号,,05,203,0130046,,,,,,,2021-11-17,1,,,,,,0
2864,9430003013369,新規,0,2021-11-17,2021-11-17,合同会社マチコロ,,合同会社,北海道,札幌市中央区,宮の森二条５丁目１－７ルピナス宮の森１０１,,01,101,0640952,,,,,,,2021-11-17,1,,,,,マチコロ,0
2865,9440003001430,新規,0,2021-11-17,2021-11-17,道南水力発電合同会社,,合同会社,北海道,函館市,富岡町１丁目２番１号,,01,202,0410811,,,,,,,2021-11-17,1,,,,,ドウナンスイリョクハツデン,0
2870,9460401001237,新規,0,2021-11-17,2021-11-17,最適林業株式会社,,株式会社,北海道,根室市,昆布盛１４９番地１２,,01,223,0881784,,,,,,,2021-11-17,1,,,,,サイテキリンギョウ,0
2871,9470001018837,新規,0,2021-11-17,2021-11-17,株式会社ＳＪＫ,,株式会社,香川県,善通寺市,原田町７９６番地５,,37,204,7650032,,,,,,,2021-11-17,1,,,,,エスジェイケイ,0
2874,9470003002079,新規,0,2021-11-17,2021-11-17,合同会社ミルネージュ,,合同会社,香川県,高松市,上林町４０５番地５,,37,201,7610302,,,,,,,2021-11-17,1,,,,,ミルネージュ,0
2876,9700150105503,新規,0,2021-11-17,2021-10-26,高尾小学校区コミュニティ連絡協議会,,その他,長崎県,長崎市,高尾町４番１０号,,42,201,8528111,,,,,,,2021-10-26,1,,,,,タカオシヨウガツコウクコミユニテイレンラクキヨウギカイ,0
