sequenceNumber,corporateNumber,process,correct,updateDate,changeDate,name,nameImageId,kind,prefectureName,cityName,streetNumber,addressImageId,prefectureCode,cityCode,postCode,addressOutside,addressOutsideImageId,closeDate,closeCause,successorCorporateNumber,changeCause,assignmentDate,latest,enName,enPrefectureName,enCityName,enAddressOutside,furigana,hihyoji
9,1010001228704,新規,0,2022-08-15,2022-08-15,株式会社ＨｉＴＯＫＯＴＯ,,株式会社,東京都,千代田区,飯田橋２丁目９番４号サンパーク千代田１００１号,,13,101,1020072,,,,,,,2022-08-15,1,,,,,ヒトコト,0
10,1010001228794,新規,0,2022-08-15,2022-08-15,吉森株式会社,,株式会社,東京都,文京区,根津２丁目１４番１０号日興パレス文京プラザ２０２号室,,13,105,1130031,,,,,,,2022-08-15,1,,,,,ヨシモリ,0
11,1010003038341,新規,0,2022-08-15,2022-08-15,合同会社サポート４４号,,合同会社,東京都,千代田区,丸の内３丁目１番１号東京共同会計事務所内,,13,101,1000005,,,,,,,2022-08-15,1,,,,,サポートヨンジュウヨンゴウ,0
20,1010401169077,新規,0,2022-08-15,2022-08-15,ＩＴＩＣＩＴＹ株式会社,,株式会社,東京都,港区,海岸３丁目２番９号,,13,103,1080022,,,,,,,2022-08-15,1,,,,,アイティーアイシティ,0
21,1010401169085,新規,0,2022-08-15,2022-08-15,株式会社令和メディカルアソシエイツ,,株式会社,東京都,港区,西麻布２丁目２４番２６－４０２号,,13,103,1060031,,,,,,,2022-08-15,1,,,,,レイワメディカルアソシエイツ,0
22,1010403028215,新規,0,2022-08-15,2022-08-15,合同会社サンライズイヅモ,,合同会社,東京都,港区,南青山２丁目２番１５,,13,103,1070062,,,,,,,2022-08-15,1,,,,,サンライズイヅモ,0
23,1010403028264,新規,0,2022-08-15,2022-08-15,ＩＮＦＩＮＩＴＹ合同会社,,合同会社,東京都,港区,浜松町２丁目２番１５号浜松町ダイヤビル２Ｆ,,13,103,1050013,,,,,,,2022-08-15,1,,,,,インフィニティ,0
24,1010403028289,新規,0,2022-08-15,2022-08-15,チームネクスト合同会社,,合同会社,東京都,港区,白金３丁目２３―６フォリア白金１階,,13,103,1080072,,,,,,,2022-08-15,1,,,,,チームネクスト,0
30,1010701043072,新規,0,2022-08-15,2022-08-15,ＤＯＭＩ株式会社,,株式会社,東京都,品川区,東品川４丁目１１番３６－１６２６号,,13,109,1400002,,,,,,,2022-08-15,1,,,,,ドミ,0
38,1010805002957,新規,0,2022-08-15,2022-08-15,一般社団法人大田区教職員互助会,,その他の設立登記法人,東京都,大田区,池上３丁目２７番６号（旧池上図書館１階）,,13,111,1460082,,,,,,,2022-08-15,1,,,,,オオタクキョウショクインゴジョカイ,0
42,1010905004358,新規,0,2022-08-15,2022-08-15,一般社団法人きょうどうみんなの文化教室,,その他の設立登記法人,東京都,世田谷区,経堂４丁目３１番８号,,13,112,1560052,,,,,,,2022-08-15,1,,,,,キョウドウミンナノブンカキョウシツ,0
49,1011001149072,新規,0,2022-08-15,2022-08-15,株式会社アシスト,,株式会社,東京都,渋谷区,渋谷３丁目２８番１５号渋谷Ｓ野口ビル１０Ｆ,,13,113,1500002,,,,,,,2022-08-15,1,,,,,アシスト,0
50,1011001149188,新規,0,2022-08-15,2022-08-15,株式会社ｂｅａｕｓｉｃ,,株式会社,東京都,渋谷区,恵比寿西１丁目８番２号恵比寿ウエストパレスビル４１５,,13,113,1500021,,,,,,,2022-08-15,1,,,,,ビュージック,0
56,1011101099845,新規,0,2022-08-15,2022-08-15,株式会社ヴィクトリアビューティクイン,,株式会社,東京都,新宿区,西新宿８丁目１２番１号,,13,104,1600023,,,,,,,2022-08-15,1,,,,,ヴィクトリアビューティクイン,0
57,1011201024034,新規,0,2022-08-15,2022-08-15,全国建物損害調査協会株式会社,,株式会社,東京都,中野区,中央４丁目１番３号ボニータ新中野ビル４階,,13,114,1640011,,,,,,,2022-08-15,1,,,,,ゼンコクタテモノソンガイチョウサキョウカイ,0
66,1011801041148,新規,0,2022-08-15,2022-08-15,株式会社Ｈ＆Ｙ,,株式会社,東京都,足立区,綾瀬２丁目２３番１６号４０３,,13,121,1200005,,,,,,,2022-08-15,1,,,,,エイチアンドワイ,0
83,1020001147770,新規,0,2022-08-15,2022-08-15,株式会社ｏ＆ｏ　ｄｅｓｉｇｎ,,株式会社,神奈川県,横浜市保土ケ谷区,岡沢町２８７番地９,,14,106,2400062,,,,,,,2022-08-15,1,,,,,オーアンドオーデザイン,0
84,1020001147779,新規,0,2022-08-15,2022-08-15,株式会社悠久,,株式会社,神奈川県,横浜市南区,永楽町１丁目８番地５０１,,14,105,2320031,,,,,,,2022-08-15,1,,,,,ユク,0
96,1030001149626,新規,0,2022-08-15,2022-08-15,株式会社Ｂ　ｔｏ　Ｚ,,株式会社,埼玉県,蕨市,塚越２丁目７番６号ＴＭＳビル１Ｆ,,11,223,3350002,,,,,,,2022-08-15,1,,,,,ビートゥゼット,0
97,1030001149634,新規,0,2022-08-15,2022-08-15,株式会社ＴＡＲＥＬ,,株式会社,埼玉県,草加市,苗塚町３３２番地６,,11,221,3400036,,,,,,,2022-08-15,1,,,,,タレル,0
98,1030001149650,新規,0,2022-08-15,2022-08-15,株式会社Ｚｅｎ,,株式会社,埼玉県,戸田市,笹目２丁目１６番地の１５,,11,224,3350034,,,,,,,2022-08-15,1,,,,,ゼン,0
104,1030005020964,新規,0,2022-08-15,2022-08-15,ムサシ協同組合,,その他の設立登記法人,埼玉県,所沢市,大字荒幡８８５番地の７,,11,208,3591133,,,,,,,2022-08-15,1,,,,,ムサシ,0
113,1040001124669,新規,0,2022-08-15,2022-08-15,株式会社布留川電気,,株式会社,千葉県,山武郡九十九里町,片貝４８３番地,,12,403,2830104,,,,,,,2022-08-15,1,,,,,フルカワデンキ,0
114,1040001124677,新規,0,2022-08-15,2022-08-15,株式会社シーガル,,株式会社,千葉県,習志野市,津田沼６丁目１１番２４号,,12,216,2750016,,,,,,,2022-08-15,1,,,,,シーガル,0
115,1040001124685,新規,0,2022-08-15,2022-08-15,株式会社ＧｏｏｄＶｉｂｅｓ,,株式会社,千葉県,柏市,東上町１番１号ダイヤモンドクレスト柏２－Ｆ号室,,12,217,2770011,,,,,,,2022-08-15,1,,,,,グッドバイブス,0
122,1040003020619,新規,0,2022-08-15,2022-08-15,合同会社ｕｃ＆ｉ,,合同会社,千葉県,松戸市,常盤平３丁目３番地の４６,,12,207,2702261,,,,,,,2022-08-15,1,,,,,ユーシーアンドアイ,0
123,1040005008752,新規,0,2022-08-15,2022-08-15,医療法人社団芳世会,,その他の設立登記法人,千葉県,富津市,大堀１８３１番地,,12,226,2930001,,,,,,,2022-08-15,1,,,,,ホウセイカイ,0
147,1100001035604,新規,0,2022-08-15,2022-08-15,株式会社ｍ’ｓＦＬＡＩＲ．,,株式会社,長野県,諏訪市,大手２丁目１６番５号,,20,206,3920026,,,,,,,2022-08-15,1,,,,,エムズフレアー,0
149,1110001036873,新規,0,2022-08-15,2022-08-15,株式会社西建築事務所,,株式会社,新潟県,南魚沼市,宮村下新田２１７番地１,,15,226,9496764,,,,,,,2022-08-15,1,,,,,ニシケンチクジムショ,0
165,1120001248006,新規,0,2022-08-15,2022-08-15,禾亦株式会社,,株式会社,大阪府,大阪市天王寺区,空清町４－１１杉野ビル本館５０４号室,,27,109,5430018,,,,,,,2022-08-15,1,,,,,カエキ,0
166,1120001248088,新規,0,2022-08-15,2022-08-15,リバイブリゾート・システム株式会社,,株式会社,大阪府,大阪市淀川区,宮原４丁目１番４５号新大阪八千代ビル,,27,123,5320003,,,,,,,2022-08-15,1,,,,,リバイブリゾートシステム,0
167,1120001248105,新規,0,2022-08-15,2022-08-15,株式会社大京機工,,株式会社,大阪府,寝屋川市,点野２丁目６番９号,,27,215,5720077,,,,,,,2022-08-15,1,,,,,ダイキョウキコウ,0
168,1120001248154,新規,0,2022-08-15,2022-08-15,インテグラルメイト株式会社,,株式会社,大阪府,大阪市港区,弁天１丁目２番１号大阪ベイタワー１４Ｆ,,27,107,5520007,,,,,,,2022-08-15,1,,,,,インテグラルメイト,0
169,1120001248162,新規,0,2022-08-15,2022-08-15,株式会社ＤＲＥＡＭ　ＦＡＣＴＯＲＹ,,株式会社,大阪府,大阪市生野区,鶴橋３丁目６番４号ジュエル鶴橋１階,,27,116,5440031,,,,,,,2022-08-15,1,,,,,ドリームファクトリー,0
177,1120103004810,新規,0,2022-08-15,2022-08-15,合同会社Ｋ．ｉ．Ｃ．Ｏ．ｈｅａｒｔ,,合同会社,大阪府,堺市北区,常磐町３丁１９９番地２,,27,146,5918001,,,,,,,2022-08-15,1,,,,,キコハート,0
184,1130001072388,新規,0,2022-08-15,2022-08-15,株式会社ディライト,,株式会社,京都府,京都市右京区,西京極午塚町７４番地,,26,108,6150885,,,,,,,2022-08-15,1,,,,,ディライト,0
185,1130001072413,新規,0,2022-08-15,2022-08-15,株式会社誠商事,,株式会社,京都府,亀岡市,篠町森山先５番地５２,,26,206,6210831,,,,,,,2022-08-15,1,,,,,マコトショウジ,0
186,1130001072438,新規,0,2022-08-15,2022-08-15,ひまわり株式会社,,株式会社,京都府,京都市上京区,小川通一条上る革堂町５８１番地デトム・ワン烏丸一条１０６号,,26,102,6020943,,,,,,,2022-08-15,1,,,,,ヒマワリ,0
190,1140001127091,新規,0,2022-08-15,2022-08-15,株式会社西方堂,,株式会社,兵庫県,神戸市兵庫区,梅元町１番８号,,28,105,6520003,,,,,,,2022-08-15,1,,,,,サイホウドウ,0
191,1140001127100,新規,0,2022-08-15,2022-08-15,株式会社ＡＹＡホーム,,株式会社,兵庫県,神戸市須磨区,白川台５丁目４６番地の４,,28,107,6540103,,,,,,,2022-08-15,1,,,,,アヤホーム,0
192,1140001127117,新規,0,2022-08-15,2022-08-15,株式会社Ｓｈｉｎｙｕ,,株式会社,兵庫県,西宮市,山口町上山口２４２９番地６,,28,204,6511421,,,,,,,2022-08-15,1,,,,,シンユウ,0
193,1140005026281,新規,0,2022-08-15,2022-08-15,一般社団法人所有者不明土地利用円滑化推進協議会,,その他の設立登記法人,兵庫県,西宮市,浦風町３番６号,,28,204,6620000,,,,,,,2022-08-15,1,,,,,ショユウシャフメイトチリヨウエンカツカスイシンキョウギカイ,0
196,1170001017224,新規,0,2022-08-15,2022-08-15,株式会社カワグループ本社,,株式会社,和歌山県,有田郡広川町,大字広５０１番地の５,,30,362,6430071,,,,,,,2022-08-15,1,,,,,カワグループホンシャ,0
199,1180001152573,新規,0,2022-08-15,2022-08-15,株式会社ＳＡＮＹＯ,,株式会社,愛知県,名古屋市北区,大我麻町２２番地の１フィオーレ１０５号,,23,103,4620064,,,,,,,2022-08-15,1,,,,,サンヨー,0
200,1180001152623,新規,0,2022-08-15,2022-08-15,株式会社ＦＴｒｙ,,株式会社,愛知県,名古屋市西区,名駅２丁目３４番１７号セントラル名古屋１１０１号室,,23,104,4510045,,,,,,,2022-08-15,1,,,,,エフトライ,0
201,1180001152631,新規,0,2022-08-15,2022-08-15,株式会社ネクストドア,,株式会社,愛知県,名古屋市千種区,観月町１丁目２５番地,,23,101,4640831,,,,,,,2022-08-15,1,,,,,ネクストドア,0
204,1180003024143,新規,0,2022-08-15,2022-08-15,合同会社アドインテグリティ,,合同会社,愛知県,名古屋市緑区,左京山１５０３番地ユニロイヤル緑パーク３０３号,,23,114,4580825,,,,,,,2022-08-15,1,,,,,アドインテグリティ,0
205,1180003024151,新規,0,2022-08-15,2022-08-15,合同会社スリーエス,,合同会社,愛知県,名古屋市西区,山木２丁目２４８番地,,23,104,4520833,,,,,,,2022-08-15,1,,,,,スリーエス,0
206,1180005019884,新規,0,2022-08-15,2022-08-15,医療法人エスポワール,,その他の設立登記法人,愛知県,名古屋市名東区,牧の原３丁目３０１番地１,,23,115,4650072,,,,,,,2022-08-15,1,,,,,エスポワール,0
220,1240001060225,新規,0,2022-08-15,2022-08-15,株式会社Ｃｏｎｅｘｉｏｎ,,株式会社,広島県,広島市安佐南区,東原２丁目１番１－４－１０２号,,34,105,7310112,,,,,,,2022-08-15,1,,,,,コネクション,0
223,1250001019716,新規,0,2022-08-15,2022-08-15,株式会社ＧＡＩＮ,,株式会社,山口県,周南市,大字中須南５９９番地の２,,35,215,7450512,,,,,,,2022-08-15,1,,,,,ゲイン,0
224,1250001019724,新規,0,2022-08-15,2022-08-15,株式会社ＵＢＥ　ＭＩＲＡＩチャレンジ,,株式会社,山口県,宇部市,中央町２丁目５番１７号新光産業株式会社中央町ビル３階,,35,202,7550045,,,,,,,2022-08-15,1,,,,,ウベミライチャレンジ,0
232,1290001098525,新規,0,2022-08-15,2022-08-15,株式会社ＳＹＭ,,株式会社,福岡県,糟屋郡粕屋町,仲原３丁目２０番１号,,40,349,8112304,,,,,,,2022-08-15,1,,,,,エスワイエム,0
242,1320001019270,新規,0,2022-08-15,2022-08-15,ＭＩＡＮ　Ｉｎｔｅｒｎａｔｉｏｎａｌ株式会社,,株式会社,大分県,別府市,田の湯町３番７号４階,,44,202,8740909,,,,,,,2022-08-15,1,,,,,ミアンインターナショナル,0
250,1360003012229,新規,0,2022-08-15,2022-08-15,合同会社ＧＳボートＹＯＵ,,合同会社,沖縄県,石垣市,字大川１９８番地８シグマビル２０１号,,47,207,9070022,,,,,,,2022-08-15,1,,,,,ジーエスボートユー,0
256,1380001033043,新規,0,2022-08-15,2022-08-15,ｔｗｅｎｔｙ株式会社,,株式会社,福島県,郡山市,安積町長久保３丁目３５番地１,,07,203,9630105,,,,,,,2022-08-15,1,,,,,トゥエンティ,0
257,1380001033051,新規,0,2022-08-15,2022-08-15,株式会社伍代建設工業,,株式会社,福島県,郡山市,図景２丁目２番４号図景アーバン１０１,,07,203,9638834,,,,,,,2022-08-15,1,,,,,ゴダイケンセツコウギョウ,0
259,1400005008261,新規,0,2022-08-15,2022-08-15,医療法人上野,,その他の設立登記法人,岩手県,北上市,上野町５丁目５番地,,03,206,0240021,,,,,,,2022-08-15,1,,,,,ウエノ,0
266,1430001087298,新規,0,2022-08-15,2022-08-15,株式会社成澤建築,,株式会社,北海道,札幌市手稲区,新発寒五条３丁目８番１５号,,01,109,0060805,,,,,,,2022-08-15,1,,,,,ナリサワケンチク,0
267,1430001087307,新規,0,2022-08-15,2022-08-15,株式会社毎日が月曜日,,株式会社,北海道,札幌市豊平区,豊平三条９丁目３番１０号,,01,105,0620903,,,,,,,2022-08-15,1,,,,,マイニチガゲツヨウビ,0
269,1430003014176,新規,0,2022-08-15,2022-08-15,合同会社松井商店,,合同会社,北海道,札幌市豊平区,豊平三条１丁目１番５－６０９号,,01,105,0620903,,,,,,,2022-08-15,1,,,,,マツイショウテン,0
278,1500001024401,新規,0,2022-08-15,2022-08-15,株式会社吉宰,,株式会社,愛媛県,今治市,波方町小部甲２６７番地,,38,202,7992103,,,,,,,2022-08-15,1,,,,,キチサイ,0
282,1700150111260,新規,0,2022-08-15,2022-08-15,上海景祥食品有限公司　日本駐在員事務所,00127514,外国会社等,東京都,足立区,千住緑町１丁目２１－１０ジャパンステイ千住１０４号室,,13,121,1200044,上海市楊浦区軍工路１３００号８幢１層－１室,,,,,,2022-08-15,1,,,,,シヤンハイケイシヨウシヨクヒンユウゲンコウシニホンチユウザイイインジムシヨ,0
296,2010001228752,新規,0,2022-08-15,2022-08-15,株式会社エルスタイルホールディングス,,株式会社,東京都,中央区,銀座１丁目１５番７ＭＡＣ銀座ビル３階,,13,102,1040061,,,,,,,2022-08-15,1,,,,,エルスタイルホールディングス,0
297,2010001228760,新規,0,2022-08-15,2022-08-15,ＡＴＳ株式会社,,株式会社,東京都,千代田区,神田神保町３丁目２番地,,13,101,1010051,,,,,,,2022-08-15,1,,,,,エーティーエス,0
298,2010001228793,新規,0,2022-08-15,2022-08-15,株式会社ティーエム,,株式会社,東京都,中央区,日本橋箱崎町４１番６－１００５号,,13,102,1030015,,,,,,,2022-08-15,1,,,,,ティーエム,0
300,2010003038398,新規,0,2022-08-15,2022-08-15,神田ソーラー合同会社,,合同会社,東京都,千代田区,麹町２丁目８番地ＭＬＣ麹町ビル４階フィンポート税理士法人内,,13,101,1020083,,,,,,,2022-08-15,1,,,,,カンダソーラー,0
302,2010005035369,新規,0,2022-08-15,2022-08-15,弁護士法人アーライツ法律事務所,,その他の設立登記法人,東京都,中央区,築地３丁目９－１０築地ビル３階,,13,102,1040045,,,,,,,2022-08-15,1,,,,,,0
303,2010005035385,新規,0,2022-08-15,2022-08-15,一般社団法人グローバル教育奨学会,,その他の設立登記法人,東京都,千代田区,二番町３番地麹町スクエア１階,,13,101,1020084,,,,,,,2022-08-15,1,,,,,グローバルキョウイクショウガクカイ,0
310,2010401169076,新規,0,2022-08-15,2022-08-15,ＩＴＩ商事株式会社,,株式会社,東京都,港区,海岸３丁目２番９号,,13,103,1080022,,,,,,,2022-08-15,1,,,,,アイティーアイショウジ,0
311,2010401169084,新規,0,2022-08-15,2022-08-15,株式会社ＪＴＯＷＥＲ　Ｉｎｆｒａｓｔｒｕｃｔｕｒｅ　Ｈｏｌｄｉｎｇｓ２,,株式会社,東京都,港区,南青山２丁目２番３号,,13,103,1070062,,,,,,,2022-08-15,1,,,,,ジェイタワーインフラストラクチャーホールディングスツー,0
316,2010601061669,新規,0,2022-08-15,2022-08-15,株式会社松玉,,株式会社,東京都,墨田区,石原４丁目３番６号鳥羽田ビル１Ｆ,,13,107,1300011,,,,,,,2022-08-15,1,,,,,マツタマ,0
317,2010601061677,新規,0,2022-08-15,2022-08-15,ＦＡＣＴＯＲＹ　ＫＩＴＣＨＥＮ株式会社,,株式会社,東京都,江東区,豊洲６丁目２－３１スカイズタワー＆ガーデン１７０８,,13,108,1350061,,,,,,,2022-08-15,1,,,,,ファクトリーキッチン,0
318,2010701043071,新規,0,2022-08-15,2022-08-15,株式会社ＨＡＲＩＣＯＮＮＥＣＴ,,株式会社,東京都,品川区,北品川３丁目７番２２号７０２,,13,109,1400001,,,,,,,2022-08-15,1,,,,,ハリコネクト,0
319,2010705003402,新規,0,2022-08-15,2022-08-15,一般社団法人相続みらいサポート協会,,その他の設立登記法人,東京都,品川区,西五反田２丁目４番６－４０３号,,13,109,1410031,,,,,,,2022-08-15,1,,,,,ソウゾクミライサポートキョウカイ,0
327,2010905004357,新規,0,2022-08-15,2022-08-15,一般社団法人三枝国際技術振興会,,その他の設立登記法人,東京都,世田谷区,池尻２丁目３７番１４号,,13,112,1540001,,,,,,,2022-08-15,1,,,,,サエグサコクサイギジュツシンコウカイ,0
332,2011001149229,新規,0,2022-08-15,2022-08-15,株式会社木村,,株式会社,東京都,渋谷区,東２丁目１４番１３号,,13,113,1500011,,,,,,,2022-08-15,1,,,,,キムラ,0
333,2011001149261,新規,0,2022-08-15,2022-08-15,株式会社そら,,株式会社,東京都,目黒区,下目黒５丁目１６番１６号,,13,110,1530064,,,,,,,2022-08-15,1,,,,,ソラ,0
337,2011101099778,新規,0,2022-08-15,2022-08-15,株式会社ＢＬＵＥ,,株式会社,東京都,新宿区,揚場町１番３号,,13,104,1620824,,,,,,,2022-08-15,1,,,,,ブルー,0
338,2011101099844,新規,0,2022-08-15,2022-08-15,株式会社ビューティワールド・エンタープライセス,,株式会社,東京都,新宿区,新宿１丁目２番１号,,13,104,1600022,,,,,,,2022-08-15,1,,,,,ビューティワールドエンタープライセス,0
339,2011101099860,新規,0,2022-08-15,2022-08-15,デジサイエンス株式会社,,株式会社,東京都,新宿区,西早稲田３丁目１２番５－６０１号,,13,104,1690051,,,,,,,2022-08-15,1,,,,,デジサイエンス,0
346,2012701017204,新規,0,2022-08-15,2022-08-15,株式会社サンケア,,株式会社,東京都,西東京市,住吉町３丁目４番１９号,,13,229,2020005,,,,,,,2022-08-15,1,,,,,サンケア,0
355,2020001147654,新規,0,2022-08-15,2022-08-15,株式会社ＩｎｔｅｇｒｉｔｙＳｅｒｖｉｃｅ,,株式会社,神奈川県,川崎市高津区,二子３丁目１６－４０,,14,134,2130002,,,,,,,2022-08-15,1,,,,,インテグリティサービス,0
356,2020001147712,新規,0,2022-08-15,2022-08-15,株式会社ＷＩＮＧＳ,,株式会社,神奈川県,川崎市川崎区,堀之内町５番地１０プリズムコート１００１,,14,131,2100003,,,,,,,2022-08-15,1,,,,,,0
357,2020001147729,新規,0,2022-08-15,2022-08-15,株式会社Ａｖａｎｃｅｒ,,株式会社,神奈川県,横浜市旭区,二俣川１丁目６８番地３,,14,112,2410821,,,,,,,2022-08-15,1,,,,,アヴァンセ,0
363,2020003022244,新規,0,2022-08-15,2022-08-15,合同会社ワイ・オー,,合同会社,神奈川県,横浜市金沢区,六浦南４丁目２０番３－１１１２号,,14,108,2360038,,,,,,,2022-08-15,1,,,,,ワイオー,0
367,2021001076769,新規,0,2022-08-15,2022-08-15,株式会社藤大建設,,株式会社,神奈川県,相模原市中央区,弥栄１丁目１７番２３号ハイツココロ１０２,,14,152,2520229,,,,,,,2022-08-15,1,,,,,フジヒロケンセツ,0
378,2030001149591,新規,0,2022-08-15,2022-08-15,株式会社まるよし工務店,,株式会社,埼玉県,狭山市,広瀬台１丁目５２番２５号,,11,215,3501328,,,,,,,2022-08-15,1,,,,,マルヨシコウムテン,0
379,2030001149609,新規,0,2022-08-15,2022-08-15,株式会社エム・シー・エフ,,株式会社,埼玉県,さいたま市緑区,東浦和８丁目２１番５－１０２号,,11,109,3360926,,,,,,,2022-08-15,1,,,,,エムシーエフ,0
380,2030001149633,新規,0,2022-08-15,2022-08-15,株式会社優ＲＵＲＩ,,株式会社,埼玉県,八潮市,大字二丁目２０５番地,,11,234,3400811,,,,,,,2022-08-15,1,,,,,ユウルリ,0
381,2030001149666,新規,0,2022-08-15,2022-08-15,株式会社コンティニュー,,株式会社,埼玉県,川口市,上青木５丁目１０番１３号,,11,203,3330844,,,,,,,2022-08-15,1,,,,,コンティニュー,0
385,2030003019990,新規,0,2022-08-15,2022-08-15,ＪＣＴ合同会社,,合同会社,埼玉県,川口市,南町１丁目１３番３号,,11,203,3320026,,,,,,,2022-08-15,1,,,,,ジェイシーティー,0
390,2040001124635,新規,0,2022-08-15,2022-08-15,株式会社７ＣＩＲＣＬＥ,,株式会社,千葉県,君津市,塚原１０９番地４,,12,225,2921147,,,,,,,2022-08-15,1,,,,,セブンサークル,0
391,2040001124643,新規,0,2022-08-15,2022-08-15,株式会社ＣＩＲＣＬＥ　ｏｆ　ＦＡＭ,,株式会社,千葉県,船橋市,山手２丁目１番２１号,,12,204,2730045,,,,,,,2022-08-15,1,,,,,サークルオヴファム,0
400,2060001035178,新規,0,2022-08-15,2022-08-15,株式会社Ｌｏｃｏ　Ｂａｓｅ,,株式会社,栃木県,宇都宮市,陽南２丁目１－４５メゾン・ド・カンパーニュ１Ｆ店舗,,09,201,3200834,,,,,,,2022-08-15,1,,,,,ロコベース,0
412,2090001017735,新規,0,2022-08-15,2022-08-15,株式会社ＪＰ　Ｂｕｙｅｒｓ,,株式会社,山梨県,甲府市,古上条町５番地２,,19,201,4000051,,,,,,,2022-08-15,1,,,,,ジェピバイヤーズ,0
426,2120001248005,新規,0,2022-08-15,2022-08-15,Ｆｒａｎｋ　Ｏｎｅ株式会社,,株式会社,大阪府,大阪市都島区,東野田町４丁目５－２翠連マンション３１５号室,,27,102,5340024,,,,,,,2022-08-15,1,,,,,フランクワン,0
427,2120001248145,新規,0,2022-08-15,2022-08-15,株式会社システムデザインマネジメント,,株式会社,大阪府,大阪市城東区,鴫野西５丁目１番４－１０８号,,27,118,5360014,,,,,,,2022-08-15,1,,,,,システムデザインマネジメント,0
428,2120001248161,新規,0,2022-08-15,2022-08-15,株式会社アペルタ,,株式会社,大阪府,枚方市,黄金野２丁目９番１５号,,27,210,5731145,,,,,,,2022-08-15,1,,,,,アペルタ,0
435,2120005023131,新規,0,2022-08-15,2022-08-15,一般社団法人天照会,,その他の設立登記法人,大阪府,大阪市北区,天神橋４丁目５番２号,,27,127,5300041,,,,,,,2022-08-15,1,,,,,テンショウカイ,0
437,2120101066067,新規,0,2022-08-15,2022-08-15,株式会社Ｆ‐ＲＩＳＥ,,株式会社,大阪府,高石市,西取石８丁目３番２６号,,27,225,5920012,,,,,,,2022-08-15,1,,,,,エフライズ,0
446,2130001072305,新規,0,2022-08-15,2022-08-15,Ｍａｎａｇｉｎｇ　Ｓｐａｃｅ株式会社,,株式会社,京都府,宇治市,槙島町南落合４８－１８,,26,204,6110000,,,,,,,2022-08-15,1,,,,,マネージングスペース,0
450,2130003008125,新規,0,2022-08-15,2022-08-15,Ａｔ　Ｃｒｅａｔｉｖｅ合同会社,,合同会社,京都府,京都市中京区,壬生仙念町１８－２－１Ｆ,,26,104,6048854,,,,,,,2022-08-15,1,,,,,アットクリエイティブ,0
455,2140001127058,新規,0,2022-08-15,2022-08-15,株式会社ＳＫＯｃｏ,,株式会社,兵庫県,加古川市,野口町良野１２番地の１,,28,210,6750017,,,,,,,2022-08-15,1,,,,,エスコーコー,0
456,2140003018032,新規,0,2022-08-15,2022-08-15,Ａｔｈｐｅｇａ合同会社,,合同会社,兵庫県,神戸市西区,岩岡町岩岡７５５番地の６,,28,111,6512401,,,,,,,2022-08-15,1,,,,,アスペガ,0
466,2180001152622,新規,0,2022-08-15,2022-08-15,株式会社秀星,,株式会社,愛知県,常滑市,青海町７丁目５５番地の２,,23,216,4790004,,,,,,,2022-08-15,1,,,,,シュウセイ,0
470,2180301036541,新規,0,2022-08-15,2022-08-15,株式会社ＨＡＮＡＢＩ,,株式会社,愛知県,豊田市,竹生町４丁目６番地,,23,211,4710077,,,,,,,2022-08-15,1,,,,,ハナビ,0
472,2180305009378,新規,0,2022-08-15,2022-08-15,一般社団法人ちゃぽっと,,その他の設立登記法人,愛知県,豊田市,豊栄町９丁目９９番地５,,23,211,4701201,,,,,,,2022-08-15,1,,,,,チャポット,0
485,2220001024981,新規,0,2022-08-15,2022-08-15,株式会社カーライフ粟津,,株式会社,石川県,小松市,井口町へ３１番地,,17,203,9230316,,,,,,,2022-08-15,1,,,,,カーライフアワヅ,0
493,2250002020820,新規,0,2022-08-15,2022-08-15,有限会社アンデック,,有限会社,山口県,下関市,彦島本村町５丁目６番８号,,35,201,7500074,,,,,,,2022-08-15,1,,,,,アンデック,0
503,2290001098557,新規,0,2022-08-15,2022-08-15,ホールエナジー株式会社,,株式会社,福岡県,糟屋郡志免町,別府４丁目２０番１３号,,40,343,8112205,,,,,,,2022-08-15,1,,,,,ホールエナジー,0
504,2290001098598,新規,0,2022-08-15,2022-08-15,株式会社Ｌｅｐｒｏ,,株式会社,福岡県,福岡市博多区,博多駅前３丁目１４－１２,,40,132,8120011,,,,,,,2022-08-15,1,,,,,レプロ,0
505,2290001098615,新規,0,2022-08-15,2022-08-15,Ｂｅａｕｔｙ　Ｌｉｆｅ　Ｄｅｓｉｇｎ株式会社,,株式会社,福岡県,福岡市博多区,美野島３丁目８－１－２０２,,40,132,8120017,,,,,,,2022-08-15,1,,,,,ビューティーライフデザイン,0
507,2290003012838,新規,0,2022-08-15,2022-08-15,ＬＥＡＸ　ＬＩＦＥ合同会社,,合同会社,福岡県,福岡市中央区,天神２丁目３番１０号天神パインクレスト７１９号,,40,133,8100001,,,,,,,2022-08-15,1,,,,,リークスライフ,0
508,2290801028812,新規,0,2022-08-15,2022-08-15,なかしまドローン株式会社,,株式会社,福岡県,遠賀郡岡垣町,吉木東１丁目２４番１０号,,40,383,8114241,,,,,,,2022-08-15,1,,,,,ナカシマドローン,0
520,2350003004143,新規,0,2022-08-15,2022-08-15,合同会社ＮＫＳ,,合同会社,宮崎県,宮崎市,大字郡司分甲２２３６番地２ディアス本郷Ａ棟２０１号,,45,201,8800924,,,,,,,2022-08-15,1,,,,,エヌケーエス,0
526,2380001033050,新規,0,2022-08-15,2022-08-15,株式会社チームワーク,,株式会社,福島県,会津若松市,町北町大字上荒久田字鈴木６０番地１,,07,202,9650053,,,,,,,2022-08-15,1,,,,,チームワーク,0
529,2400003002967,新規,0,2022-08-15,2022-08-15,合同会社Ｄコミュニティ,,合同会社,岩手県,盛岡市,門１丁目１９番１９号,,03,201,0200823,,,,,,,2022-08-15,1,,,,,ディーコミュニティ,0
553,2500001024400,新規,0,2022-08-15,2022-08-15,株式会社シャルマン,,株式会社,愛媛県,新居浜市,郷３丁目１４番１３号,,38,205,7920886,,,,,,,2022-08-15,1,,,,,シャルマン,0
562,3010001228702,新規,0,2022-08-15,2022-08-15,株式会社ＯＰＳＡ,,株式会社,東京都,中央区,日本橋浜町２丁目９番１号ＳＢＴビル３階,,13,102,1030007,,,,,,,2022-08-15,1,,,,,オーピーエスエー,0
564,3010003038380,新規,0,2022-08-15,2022-08-15,合同会社Ｇｅｎｅｒｅｕｘ,,合同会社,東京都,中央区,銀座１丁目２２－１１銀座大竹ビジデンス２Ｆ,,13,102,1040061,,,,,,,2022-08-15,1,,,,,ジェネル,0
565,3010003038397,新規,0,2022-08-15,2022-08-15,秋葉原ソーラー合同会社,,合同会社,東京都,千代田区,麹町２丁目８番地ＭＬＣ麹町ビル４階フィンポート税理士法人内,,13,101,1020083,,,,,,,2022-08-15,1,,,,,アキハバラソーラー,0
567,3010005035368,新規,0,2022-08-15,2022-08-15,特定非営利活動法人北米教育ｅスポーツ連盟日本本部,,その他の設立登記法人,東京都,千代田区,外神田２丁目１４番１０号第二電波ビル９階,,13,101,1010021,,,,,,,2022-08-15,1,,,,,ホクベイキョウイクイースポーツレンメイニホンホンブ,0
568,3010005035376,新規,0,2022-08-15,2022-08-15,トーマス税理士法人,,その他の設立登記法人,東京都,中央区,日本橋大伝馬町１７番４号５階,,13,102,1030011,,,,,,,2022-08-15,1,,,,,トーマス,0
569,3010005035384,新規,0,2022-08-15,2022-08-15,一般社団法人ＮＭＮ医療研究会,,その他の設立登記法人,東京都,中央区,銀座１丁目１４番４号,,13,102,1040061,,,,,,,2022-08-15,1,,,,,エヌエムエヌイリョウケンキュウカイ,0
572,3010401169091,新規,0,2022-08-15,2022-08-15,Ｓｈａｃｋｍａｎｎ　Ｂｉｏｔｅｃｈｎｏｌｏｇｉｅｓ，Ｉｎｃ．株式会社,,株式会社,東京都,港区,南青山２丁目２番１５号,,13,103,1070062,,,,,,,2022-08-15,1,,,,,シャックマンバイオテクノロジーズインク,0
573,3010403028262,新規,0,2022-08-15,2022-08-15,合同会社リベト,,合同会社,東京都,港区,南青山２丁目２番１５号,,13,103,1070062,,,,,,,2022-08-15,1,,,,,リベト,0
574,3010403028270,新規,0,2022-08-15,2022-08-15,ＳｅｎｄＢｉｒｄ　Ｊａｐａｎ合同会社,,合同会社,東京都,港区,虎ノ門２丁目２番５号４階,,13,103,1050001,,,,,,,2022-08-15,1,,,,,センドバードジャパン,0
575,3010405021232,新規,0,2022-08-15,2022-08-15,安齋美子行政書士法人,,その他の設立登記法人,東京都,港区,港南１丁目９番３６号アレア品川ビル１３階エキスパートオフィス品川内,,13,103,1080075,,,,,,,2022-08-15,1,,,,,,0
578,3010601061651,新規,0,2022-08-15,2022-08-15,Ｂｌｕｅｓｅａ株式会社,,株式会社,東京都,江東区,東砂５丁目５番６－３０６号,,13,108,1360074,,,,,,,2022-08-15,1,,,,,ブルーシー,0
579,3010701043070,新規,0,2022-08-15,2022-08-15,株式会社Ｐａｃｉｆｉｃ　Ｍｅｔａ,,株式会社,東京都,品川区,大崎２丁目９番２－８０４号,,13,109,1410032,,,,,,,2022-08-15,1,,,,,パシフィックメタ,0
585,3010901051410,新規,0,2022-08-15,2022-08-15,株式会社フォーウェイズラボラトリー,,株式会社,東京都,世田谷区,上野毛４丁目３０番１－６０１号,,13,112,1580093,,,,,,,2022-08-15,1,,,,,フォーウェイズラボラトリー,0
594,3011003015196,新規,0,2022-08-15,2022-08-15,アーベント合同会社,,合同会社,東京都,渋谷区,渋谷２丁目１９―１５宮益坂ビルディング６０９,,13,113,1500002,,,,,,,2022-08-15,1,,,,,アーベント,0
595,3011003015205,新規,0,2022-08-15,2022-08-15,合同会社Ｄｏｕｂｌｅ‐Ｕｐ,,合同会社,東京都,渋谷区,桜丘町２３番１７号シティコート桜丘４０８,,13,113,1500031,,,,,,,2022-08-15,1,,,,,ダブルアップ,0
598,3011101099843,新規,0,2022-08-15,2022-08-15,株式会社ヴィクトリア・マーケティングアンドアソシエイツ,,株式会社,東京都,新宿区,新宿１丁目２番１号,,13,104,1600022,,,,,,,2022-08-15,1,,,,,ヴィクトリアマーケティングアンドアソシエイツ,0
601,3011301028024,新規,0,2022-08-15,2022-08-15,株式会社アソコマーシャル,,株式会社,東京都,杉並区,堀ノ内３丁目３１番１１号,,13,115,1660013,,,,,,,2022-08-15,1,,,,,アソコマーシャル,0
604,3011401024468,新規,0,2022-08-15,2022-08-15,箱根七福荘温泉ホテル株式会社,,株式会社,東京都,板橋区,上板橋３丁目１１番１１－１０２号,,13,119,1740076,,,,,,,2022-08-15,1,,,,,ハコネシチクフソウオンセンホテル,0
606,3011403003750,新規,0,2022-08-15,2022-08-15,ＮＩＣ合同会社,,合同会社,東京都,板橋区,向原２丁目１１－１６ＬａＬｕｃｅＢ１０３,,13,119,1730036,,,,,,,2022-08-15,1,,,,,エヌアイシー,0
613,3011803005181,新規,0,2022-08-15,2022-08-15,合同会社ＣＨＯＵＥＴＴＥ,,合同会社,東京都,足立区,西新井栄町２丁目８―２４マジマカシテンポ１０１,,13,121,1230843,,,,,,,2022-08-15,1,,,,,シュエット,0
616,3012803002854,新規,0,2022-08-15,2022-08-15,合同会社コンパーノ,,合同会社,東京都,東大和市,向原３丁目２番地の１３,,13,220,2070013,,,,,,,2022-08-15,1,,,,,コンパーノ,0
620,3013303006263,新規,0,2022-08-15,2022-08-15,ＤＬコーポレーション合同会社,,合同会社,東京都,豊島区,上池袋１丁目１７番２号マイハイム・アイ２０１号,,13,116,1700012,,,,,,,2022-08-15,1,,,,,ディーエルコポレーション,0
628,3020001147736,新規,0,2022-08-15,2022-08-15,株式会社弘光,,株式会社,神奈川県,川崎市中原区,井田２丁目９番８号,,14,133,2110035,,,,,,,2022-08-15,1,,,,,ヒロミツ,0
631,3021001076776,新規,0,2022-08-15,2022-08-15,株式会社チェリーブロッサム,,株式会社,神奈川県,足柄上郡松田町,寄２４９７番地２,,14,363,2580001,,,,,,,2022-08-15,1,,,,,チェリーブロッサム,0
633,3021003012036,新規,0,2022-08-15,2022-08-15,合同会社ｅｎｏ島,,合同会社,神奈川県,藤沢市,鵠沼石上１丁目７番８ビッグライズビル５階,,14,205,2510025,,,,,,,2022-08-15,1,,,,,エノシマ,0
641,3030001149599,新規,0,2022-08-15,2022-08-15,株式会社Ｔｈｅ　Ｂｕｚｚ　Ｃｒｅａｔｅ,,株式会社,埼玉県,草加市,高砂２丁目７１番１号ストーク草加一番館,,11,221,3400015,,,,,,,2022-08-15,1,,,,,ザバズクリエイト,0
642,3030001149616,新規,0,2022-08-15,2022-08-15,株式会社ＫＣＮ,,株式会社,埼玉県,越谷市,東越谷１丁目１９番地１１プランヴェール越谷１０１号,,11,222,3430023,,,,,,,2022-08-15,1,,,,,ケーシーエヌ,0
643,3030001149649,新規,0,2022-08-15,2022-08-15,株式会社レベルシックス,,株式会社,埼玉県,入間市,宮寺２３５６番地,,11,225,3580014,,,,,,,2022-08-15,1,,,,,レベルシックス,0
644,3030001149657,新規,0,2022-08-15,2022-08-15,株式会社和,,株式会社,埼玉県,比企郡滑川町,みなみ野２丁目５番地８,,11,341,3550814,,,,,,,2022-08-15,1,,,,,ナゴミ,0
654,3040001124642,新規,0,2022-08-15,2022-08-15,鈴恵寺株式会社,,株式会社,千葉県,佐倉市,中志津７丁目２３番８号,,12,212,2850843,,,,,,,2022-08-15,1,,,,,リンケイジ,0
655,3040001124700,新規,0,2022-08-15,2022-08-15,株式会社ユースパレイス,,株式会社,千葉県,船橋市,本中山２丁目２番１号,,12,204,2730035,,,,,,,2022-08-15,1,,,,,ユースパレイス,0
663,3060001035169,新規,0,2022-08-15,2022-08-15,株式会社山屋,,株式会社,栃木県,鹿沼市,御成橋町１丁目２２６３－６,,09,205,3220005,,,,,,,2022-08-15,1,,,,,ヤマヤ,0
671,3090003002148,新規,0,2022-08-15,2022-08-15,合同会社Ｓａｉ,,合同会社,山梨県,甲府市,蓬沢１丁目１０番１２号,,19,201,4000827,,,,,,,2022-08-15,1,,,,,サイ,0
674,3100001035610,新規,0,2022-08-15,2022-08-15,株式会社ＴｅｋｕＴｅｋｕ,,株式会社,長野県,安曇野市,豊科南穂高５０番地１,,20,220,3998201,,,,,,,2022-08-15,1,,,,,テクテク,0
675,3100001035619,新規,0,2022-08-15,2022-08-15,株式会社福祉環境サービス,,株式会社,長野県,大町市,大町９２１番地９,,20,212,3980002,,,,,,,2022-08-15,1,,,,,フクシカンキョウサービス,0
691,3120001248053,新規,0,2022-08-15,2022-08-15,一七株式会社,,株式会社,大阪府,大阪市淀川区,淡路五丁目５－２０マンションタカヤマ４０１,,27,123,5320000,,,,,,,2022-08-15,1,,,,,イチナナ,0
692,3120001248086,新規,0,2022-08-15,2022-08-15,株式会社Ｏｔｈｅｌｌｏ,,株式会社,大阪府,大阪市北区,梅田２丁目４番９号ブリーゼタワー１階,,27,127,5300001,,,,,,,2022-08-15,1,,,,,オセロ,0
693,3120001248144,新規,0,2022-08-15,2022-08-15,ＴＨＥ　ＴＡＩＬＯＲ株式会社,,株式会社,大阪府,大阪市淀川区,西中島３丁目１１番２６号Ａｕｒｏｒａビル新大阪６Ｆ,,27,123,5320011,,,,,,,2022-08-15,1,,,,,ザテーラー,0
694,3120001248177,新規,0,2022-08-15,2022-08-15,株式会社オーエスジャパン,,株式会社,大阪府,大阪市大正区,泉尾２丁目１５番３号サンコー第８ハイツ１０２号,,27,108,5510031,,,,,,,2022-08-15,1,,,,,オーエスジャパン,0
700,3120003022266,新規,0,2022-08-15,2022-08-15,リファクタラーニング合同会社,,合同会社,大阪府,大阪市北区,梅田１丁目１－３大阪駅前第３ビル２９階１－１－１号室,,27,127,5300001,,,,,,,2022-08-15,1,,,,,リファクタラーニング,0
701,3120003022274,新規,0,2022-08-15,2022-08-15,Ｒ・Ｋ合同会社,,合同会社,大阪府,大阪市中央区,東平１丁目４番１７号,,27,128,5420063,,,,,,,2022-08-15,1,,,,,アールケイ,0
703,3120005023122,新規,0,2022-08-15,2022-08-15,一般社団法人あゆみ会,,その他の設立登記法人,大阪府,大阪市平野区,長吉六反１丁目３番２７号,,27,126,5470012,,,,,,,2022-08-15,1,,,,,アユミカイ,0
704,3120005023139,新規,0,2022-08-15,2022-08-15,一般社団法人相続・不動産相談センター,,その他の設立登記法人,大阪府,大阪市北区,堂島２丁目１番２５号,,27,127,5300003,,,,,,,2022-08-15,1,,,,,ソウゾクフドウサンソウダンセンター,0
707,3120101066082,新規,0,2022-08-15,2022-08-15,株式会社ｉｓプラス,,株式会社,大阪府,堺市北区,長曽根町１１７９番地１０（５１１号）,,27,146,5918025,,,,,,,2022-08-15,1,,,,,アイエスプラス,0
708,3120101066090,新規,0,2022-08-15,2022-08-15,株式会社金座,,株式会社,大阪府,和泉市,葛の葉町６０番地の１１,,27,219,5940081,,,,,,,2022-08-15,1,,,,,キンザ,0
719,3130001072436,新規,0,2022-08-15,2022-08-15,ＣＡＤＡＮ株式会社,,株式会社,京都府,京都市中京区,門前町５３９,,26,104,6048306,,,,,,,2022-08-15,1,,,,,カダン,0
721,3130003008124,新規,0,2022-08-15,2022-08-15,Ｙ・シュパース合同会社,,合同会社,京都府,京都市伏見区,向島二ノ丸町２６－１６,,26,109,6128141,,,,,,,2022-08-15,1,,,,,ワイシュパース,0
722,3130003008132,新規,0,2022-08-15,2022-08-15,合同会社慶樂,,合同会社,京都府,京都市北区,衣笠北荒見町５番地２アンシェンヌ京都衣笠１０１号,,26,101,6038316,,,,,,,2022-08-15,1,,,,,ケイラク,0
727,3140001126975,新規,0,2022-08-15,2022-08-15,株式会社義心建設,,株式会社,兵庫県,神戸市兵庫区,新開地６丁目２番３－６０３号ライオンズマンション神戸第３,,28,105,6520811,,,,,,,2022-08-15,1,,,,,ギシンケンセツ,0
735,3150001025763,新規,0,2022-08-15,2022-08-15,株式会社ＴＡＸＩＡ,,株式会社,奈良県,天理市,平等坊町１０８番地１,,29,204,6320077,,,,,,,2022-08-15,1,,,,,タクシア,0
739,3170001017230,新規,0,2022-08-15,2022-08-15,株式会社ＥＮＩＡ,,株式会社,和歌山県,和歌山市,伊太祈曽５１３番地２,,30,201,6400361,,,,,,,2022-08-15,1,,,,,エニア,0
743,3180001152555,新規,0,2022-08-15,2022-08-15,株式会社３３,,株式会社,愛知県,名古屋市中区,錦３丁目２０番１４号,,23,106,4600003,,,,,,,2022-08-15,1,,,,,サーティスリー,0
744,3180001152571,新規,0,2022-08-15,2022-08-15,株式会社生楽,,株式会社,愛知県,名古屋市昭和区,鶴舞３丁目１６番２０号,,23,107,4660064,,,,,,,2022-08-15,1,,,,,キラク,0
750,3180301036540,新規,0,2022-08-15,2022-08-15,株式会社雄心,,株式会社,愛知県,豊田市,朝日町７丁目５番地１,,23,211,4710031,,,,,,,2022-08-15,1,,,,,ユウシン,0
766,3230001019484,新規,0,2022-08-15,2022-08-15,株式会社ＢＬＡＣＫ　ＧＯＬＤ,,株式会社,富山県,高岡市,姫野９２１番地８,,16,202,9340093,,,,,,,2022-08-15,1,,,,,ブラックゴールド,0
768,3240003005754,新規,0,2022-08-15,2022-08-15,堀合同会社,,合同会社,広島県,福山市,川口町１丁目１１番４１号,,34,207,7200822,,,,,,,2022-08-15,1,,,,,ホリ,0
769,3250001019722,新規,0,2022-08-15,2022-08-15,株式会社ｃｏｃｏｍｉｃ,,株式会社,山口県,岩国市,尾津町５丁目１１番１号,,35,208,7400032,,,,,,,2022-08-15,1,,,,,ココミック,0
771,3260003004011,新規,0,2022-08-15,2022-08-15,福楽合同会社,,合同会社,岡山県,岡山市中区,藤原光町１丁目９－８,,33,102,7038246,,,,,,,2022-08-15,1,,,,,フクラク,0
776,3290001098548,新規,0,2022-08-15,2022-08-15,インフラ調査測量株式会社,,株式会社,福岡県,糟屋郡宇美町,宇美６丁目１４番２８号,,40,341,8112101,,,,,,,2022-08-15,1,,,,,インフラチョウサソクリョウ,0
777,3290001098589,新規,0,2022-08-15,2022-08-15,株式会社スマートシステム,,株式会社,福岡県,久留米市,宮ノ陣５丁目１０番２０号,,40,203,8390801,,,,,,,2022-08-15,1,,,,,スマートシステム,0
778,3290001098597,新規,0,2022-08-15,2022-08-15,Ｂｌａｎｋｅｔ株式会社,,株式会社,福岡県,福岡市西区,今宿３丁目２－５５,,40,135,8190167,,,,,,,2022-08-15,1,,,,,ブランケット,0
779,3290001098614,新規,0,2022-08-15,2022-08-15,株式会社Ｂｅ‐ＢＰ,,株式会社,福岡県,福岡市博多区,銀天町２丁目１番２７号,,40,132,8120879,,,,,,,2022-08-15,1,,,,,ビーイービーピー,0
781,3290003012820,新規,0,2022-08-15,2022-08-15,合同会社ＰＯＰＯＬ,,合同会社,福岡県,福岡市中央区,今泉２丁目４－２３－３０１,,40,133,8100021,,,,,,,2022-08-15,1,,,,,ポポル,0
787,3340001024969,新規,0,2022-08-15,2022-08-15,株式会社千原工業,,株式会社,鹿児島県,鹿児島市,原良７丁目３５番１６号,,46,201,8900026,,,,,,,2022-08-15,1,,,,,チハラコウギョウ,0
788,3350001017906,新規,0,2022-08-15,2022-08-15,株式会社ケイワン,,株式会社,宮崎県,宮崎市,柳丸町１５３番地１パティオ柳丸Ｃ２－２,,45,201,8800844,,,,,,,2022-08-15,1,,,,,ケイワン,0
791,3360001030817,新規,0,2022-08-15,2022-08-15,株式会社ジャントレーディング,,株式会社,沖縄県,中頭郡中城村,字和宇慶６３１番地１,,47,328,9012416,,,,,,,2022-08-15,1,,,,,ジャントレーディング,0
792,3360001030825,新規,0,2022-08-15,2022-08-15,株式会社シャイン不動ＳＵＮ建物管理,,株式会社,沖縄県,那覇市,前島１丁目１番１４号アルヴィータ美栄橋１Ｆ,,47,201,9000016,,,,,,,2022-08-15,1,,,,,シャインフドウサンタテモノカンリ,0
793,3360003012219,新規,0,2022-08-15,2022-08-15,合同会社８,,合同会社,沖縄県,沖縄市,比屋根３丁目１４－３,,47,211,9042173,,,,,,,2022-08-15,1,,,,,エイト,0
795,3370001048924,新規,0,2022-08-15,2022-08-15,株式会社ルピナス,,株式会社,宮城県,仙台市泉区,黒松２丁目１番１５号,,04,105,9818006,,,,,,,2022-08-15,1,,,,,ルピナス,0
799,3390001016994,新規,0,2022-08-15,2022-08-15,ＥＮＰＬＡホールディングス株式会社,,株式会社,山形県,東置賜郡高畠町,大字糠野目５９１番地の２,,06,381,9992176,,,,,,,2022-08-15,1,,,,,エンプラホールディングス,0
810,3430001087255,新規,0,2022-08-15,2022-08-15,株式会社リーフマインド,,株式会社,北海道,札幌市中央区,南十三条西７丁目２番１１号,,01,101,0640913,,,,,,,2022-08-15,1,,,,,リーフマインド,0
818,3490001010252,新規,0,2022-08-15,2022-08-15,株式会社ピアホム,,株式会社,高知県,高知市,鴨部２丁目２番３９－７０６号サーパス鴨部,,39,201,7808052,,,,,,,2022-08-15,1,,,,,ピアホム,0
819,3500001024399,新規,0,2022-08-15,2022-08-15,株式会社Ｒｉｒｅ　Ｃｏ．,,株式会社,愛媛県,新居浜市,庄内町４丁目７番１１号,,38,205,7920811,,,,,,,2022-08-15,1,,,,,リルカンパニー,0
820,3700150111250,新規,0,2022-08-15,2022-08-15,Ｄｏｎｇｇｕａｎ　Ｓｈｉｔｕｏ　Ｓｕｐｐｌｙ　Ｃｈａｉｎ　Ｍａｎａｇｅｍｅｎｔ　Ｃｏ．，Ｌｔｄ．,,外国会社等,,,,,,,,Ｒｏｏｍ　２１５３，Ｎｏ．９８，Ｓｈｅｑｉｎｇ　Ｒｏａｄ，Ｎａｎｃｈｅｎｇ　Ｓｔｒｅｅｔ，Ｄｏｎｇｇｕａｎ，Ｃｈｉｎａ,,,,,,2022-08-15,1,,,,,ドオングウアンシウートウオサプライチエーンマネジメントカンパニーリミテツド,0
828,4010001228701,新規,0,2022-08-15,2022-08-15,株式会社大徳玉,,株式会社,東京都,中央区,日本橋小伝馬町１７番１５号,,13,102,1030001,,,,,,,2022-08-15,1,,,,,ダイトクギョク,0
834,4010005035383,新規,0,2022-08-15,2022-08-15,司法書士法人つばさ総合事務所,,その他の設立登記法人,東京都,中央区,日本橋本町２丁目３番１５号共同ビル新本町６階,,13,102,1030023,,,,,,,2022-08-15,1,,,,,ツバサソウゴウジムショ,0
835,4010005035433,新規,0,2022-08-15,2022-08-15,九段下ソーラーホールディングス一般社団法人,,その他の設立登記法人,東京都,千代田区,麹町２丁目８番地ＭＬＣ麹町ビル４階フィンポート税理士法人内,,13,101,1020083,,,,,,,2022-08-15,1,,,,,クダンシタソーラーホールディングス,0
842,4010401168943,新規,0,2022-08-15,2022-08-15,株式会社東京活動写真,,株式会社,東京都,港区,新橋２丁目５－６大村ビル７０３,,13,103,1050004,,,,,,,2022-08-15,1,,,,,トウキョウカツドウシャシン,0
843,4010401169025,新規,0,2022-08-15,2022-08-15,株式会社ＨＥＲＢＥＳＴ,,株式会社,東京都,港区,白金１丁目１０番３－９０４号,,13,103,1080072,,,,,,,2022-08-15,1,,,,,ハーベスト,0
844,4010401169074,新規,0,2022-08-15,2022-08-15,株式会社ＴＨＥＡＴＨＥ,,株式会社,東京都,港区,南麻布２丁目２番２８号,,13,103,1060047,,,,,,,2022-08-15,1,,,,,ジアザ,0
847,4010403028245,新規,0,2022-08-15,2022-08-15,合同会社ＹＫＢ,,合同会社,東京都,港区,南青山２丁目２番１５号,,13,103,1070062,,,,,,,2022-08-15,1,,,,,ワイケービー,0
849,4010405021231,新規,0,2022-08-15,2022-08-15,一般社団法人ＴＩＭＨＡ経済研究所,,その他の設立登記法人,東京都,港区,元赤坂１丁目２番１７号赤坂Ｋタワー２６階,,13,103,1070051,,,,,,,2022-08-15,1,,,,,ティムハケイザイケンキュウジョ,0
850,4010405021280,新規,0,2022-08-15,2022-08-15,特定目的会社カフー,,その他の設立登記法人,東京都,港区,西新橋１丁目２番９号メンターキャピタル税理士法人内,,13,103,1050003,,,,,,,2022-08-15,1,,,,,カフー,0
860,4010901051418,新規,0,2022-08-15,2022-08-15,株式会社ジョイアカリーナ,,株式会社,東京都,世田谷区,桜丘２丁目１１番２号,,13,112,1560054,,,,,,,2022-08-15,1,,,,,ジョイアカリーナ,0
864,4011001149227,新規,0,2022-08-15,2022-08-15,株式会社東京家電,,株式会社,東京都,渋谷区,東２丁目１４番１３号,,13,113,1500011,,,,,,,2022-08-15,1,,,,,トウキョウカデン,0
865,4011001149251,新規,0,2022-08-15,2022-08-15,株式会社クロムビジョン,,株式会社,東京都,渋谷区,初台２丁目１６番２０－２１１号,,13,113,1510061,,,,,,,2022-08-15,1,,,,,クロムビジョン,0
866,4011101099842,新規,0,2022-08-15,2022-08-15,株式会社トラスト・コンサルティングアンドパートナーズ,,株式会社,東京都,新宿区,新宿１丁目２番１号,,13,104,1600022,,,,,,,2022-08-15,1,,,,,トラストコンサルティングアンドパートナーズ,0
867,4011301028023,新規,0,2022-08-15,2022-08-15,株式会社サマサマコミュニケーションズ,,株式会社,東京都,杉並区,堀ノ内３丁目３１番１１号,,13,115,1660013,,,,,,,2022-08-15,1,,,,,サマサマコミュニケーションズ,0
870,4011401024467,新規,0,2022-08-15,2022-08-15,株式会社ＫＯＴＡＫＡ,,株式会社,東京都,板橋区,西台４丁目４番３１－４０９号,,13,119,1750045,,,,,,,2022-08-15,1,,,,,コタカ,0
877,4011601026180,新規,0,2022-08-15,2022-08-15,株式会社ＴＭ．Ｗｏｒｋｓ,,株式会社,東京都,練馬区,小竹町２丁目１９番６号,,13,120,1760004,,,,,,,2022-08-15,1,,,,,ティーエムワークス,0
878,4012401039538,新規,0,2022-08-15,2022-08-15,株式会社Ｋアンドカンパニー,,株式会社,東京都,武蔵野市,吉祥寺南町３丁目４－３,,13,203,1800003,,,,,,,2022-08-15,1,,,,,ケイアンドカンパニー,0
881,4012801021780,新規,0,2022-08-15,2022-08-15,ＳＡＮＡＭ株式会社,,株式会社,東京都,国分寺市,日吉町４丁目１７番地１５金子貸店舗２号室,,13,214,1850032,,,,,,,2022-08-15,1,,,,,サナム,0
888,4020001147644,新規,0,2022-08-15,2022-08-15,株式会社Ｃ＆Ｓ,,株式会社,神奈川県,横浜市瀬谷区,三ツ境２番地２６,,14,114,2460022,,,,,,,2022-08-15,1,,,,,シーアンドエス,0
889,4020001147735,新規,0,2022-08-15,2022-08-15,日立国際株式会社,,株式会社,神奈川県,川崎市中原区,井田２丁目９番８号,,14,133,2110035,,,,,,,2022-08-15,1,,,,,ヒタチコクサイ,0
897,4030001149607,新規,0,2022-08-15,2022-08-15,株式会社Ｓｗｉｔｃｈ　Ｘ,,株式会社,埼玉県,久喜市,青葉５丁目２３番地１,,11,232,3460013,,,,,,,2022-08-15,1,,,,,スイッチエックス,0
898,4030001149615,新規,0,2022-08-15,2022-08-15,ベト心株式会社,,株式会社,埼玉県,朝霞市,膝折町３丁目２番４１号,,11,227,3510014,,,,,,,2022-08-15,1,,,,,ベトシン,0
899,4030001149623,新規,0,2022-08-15,2022-08-15,株式会社高鹿工業,,株式会社,埼玉県,三郷市,後谷２４５番地１,,11,237,3410014,,,,,,,2022-08-15,1,,,,,コウロクコウギョウ,0
900,4030001149648,新規,0,2022-08-15,2022-08-15,株式会社武心,,株式会社,埼玉県,上尾市,大字地頭方５２６番地１,,11,219,3620051,,,,,,,2022-08-15,1,,,,,ブシン,0
901,4030001149664,新規,0,2022-08-15,2022-08-15,株式会社ＩＮＦＩＮＩＴＹ　ＣＡＳＣＡＤＥ,,株式会社,埼玉県,行田市,大字持田６８７番３,,11,206,3610056,,,,,,,2022-08-15,1,,,,,インフィニティカスケード,0
904,4030003019989,新規,0,2022-08-15,2022-08-15,グローバルトレーディング合同会社,,合同会社,埼玉県,越谷市,大字北後谷３７１－８,,11,222,3430854,,,,,,,2022-08-15,1,,,,,グローバルトレーディング,0
907,4040001124625,新規,0,2022-08-15,2022-08-15,株式会社花音,,株式会社,千葉県,柏市,若白毛５７２番地,,12,217,2701444,,,,,,,2022-08-15,1,,,,,カノン,0
908,4040001124633,新規,0,2022-08-15,2022-08-15,株式会社玉城建装工業,,株式会社,千葉県,市原市,青葉台４丁目１３番地１２,,12,219,2990117,,,,,,,2022-08-15,1,,,,,タマシロケンソウコウギョウ,0
909,4040001124699,新規,0,2022-08-15,2022-08-15,ＭｅｄＰｏｐ株式会社,,株式会社,千葉県,浦安市,日の出６丁目１９番４号,,12,227,2790013,,,,,,,2022-08-15,1,,,,,メドポップ,0
913,4060001035176,新規,0,2022-08-15,2022-08-15,株式会社アイダイム,,株式会社,栃木県,小山市,南乙女１丁目６－２６,,09,208,3290217,,,,,,,2022-08-15,1,,,,,アイダイム,0
916,4070001039531,新規,0,2022-08-15,2022-08-15,ナチュラルライフ株式会社,,株式会社,群馬県,渋川市,北橘町下箱田６２６番地２７,,10,208,3770061,,,,,,,2022-08-15,1,,,,,ナチュラルライフ,0
921,4080001025134,新規,0,2022-08-15,2022-08-15,株式会社ＯＮＥ　Ｄａｙｄｒｅａｍ,,株式会社,静岡県,静岡市清水区,有度本町４番４号,,22,103,4240879,,,,,,,2022-08-15,1,,,,,ワンデイドリーム,0
926,4080401026005,新規,0,2022-08-15,2022-08-15,株式会社テック２１,,株式会社,静岡県,浜松市南区,飯田町３０３番地,,22,134,4350028,,,,,,,2022-08-15,1,,,,,テックツーワン,0
927,4090001017733,新規,0,2022-08-15,2022-08-15,富士パミス株式会社,,株式会社,山梨県,南都留郡山中湖村,山中字梁尻１４６１番地８先,,19,425,4010501,,,,,,,2022-08-15,1,,,,,フジパミス,0
930,4100001035618,新規,0,2022-08-15,2022-08-15,株式会社まごのてシステム,,株式会社,長野県,長野市,差出南２丁目２６番４号,,20,201,3800948,,,,,,,2022-08-15,1,,,,,マゴノテシステム,0
945,4120001247748,新規,0,2022-08-15,2022-08-15,株式会社ＩＫ,,株式会社,大阪府,大阪市阿倍野区,阪南町５丁目３番２９号,,27,119,5450021,,,,,,,2022-08-15,1,,,,,アイケー,0
946,4120001248135,新規,0,2022-08-15,2022-08-15,Ｋ‐キャピタル株式会社,,株式会社,大阪府,大阪市北区,本庄西１丁目１番７－４４０４号,,27,127,5310073,,,,,,,2022-08-15,1,,,,,ケイキャピタル,0
947,4120001248151,新規,0,2022-08-15,2022-08-15,株式会社クライミング,,株式会社,大阪府,大阪市東淀川区,井高野１丁目２８番５８－２３号,,27,114,5330001,,,,,,,2022-08-15,1,,,,,クライミング,0
948,4120001248192,新規,0,2022-08-15,2022-08-15,株式会社ＶＬＡＢ,,株式会社,大阪府,大阪市北区,鶴野町４番１１号２Ｆ朝日プラザ梅田,,27,127,5300014,,,,,,,2022-08-15,1,,,,,ブイラボ,0
953,4120003022257,新規,0,2022-08-15,2022-08-15,合同会社ｌｅ　ｃｉｅｌ,,合同会社,大阪府,大阪市中央区,高麗橋１丁目７番７－５４０２号,,27,128,5410043,,,,,,,2022-08-15,1,,,,,ルシェル,0
954,4120003022265,新規,0,2022-08-15,2022-08-15,合同会社ＭＭＴ,,合同会社,大阪府,大阪市東淀川区,小松４丁目１６番８号グランドパレス上新庄小松マンション２０１号室,,27,114,5330004,,,,,,,2022-08-15,1,,,,,エムエムティー,0
960,4120101066057,新規,0,2022-08-15,2022-08-15,株式会社ＭＲＥＳＴ,,株式会社,大阪府,堺市中区,深井沢町３３２９番地メゾン深井１０１号,,27,142,5998236,,,,,,,2022-08-15,1,,,,,ミレスト,0
966,4130001072402,新規,0,2022-08-15,2022-08-15,株式会社すずなぎ,,株式会社,京都府,京都市伏見区,羽束師古川町６４７番地３羽束師団地２棟４０９号,,26,109,6128486,,,,,,,2022-08-15,1,,,,,スズナギ,0
967,4130001072410,新規,0,2022-08-15,2022-08-15,株式会社カハラ,,株式会社,京都府,京都市山科区,東野中井ノ上町１９番地１２,,26,110,6078142,,,,,,,2022-08-15,1,,,,,カハラ,0
969,4130003008131,新規,0,2022-08-15,2022-08-15,合同会社ＦＩＲＳＴ　ＶＡＬＬＥＹ,,合同会社,京都府,亀岡市,大井町並河３丁目１７番３号,,26,206,6210013,,,,,,,2022-08-15,1,,,,,ファーストバレイ,0
970,4130005016537,新規,0,2022-08-15,2022-08-15,一般社団法人オイコクレジット・ジャパン,,その他の設立登記法人,京都府,京都市上京区,烏丸通今出川上る岡松町２５５番２クラッパードイン内,,26,102,6020032,,,,,,,2022-08-15,1,,,,,オイコクレジットジャパン,0
974,4140001127114,新規,0,2022-08-15,2022-08-15,株式会社ＶＩＰｆｕｊｉｉ,,株式会社,兵庫県,神戸市垂水区,潮見が丘１丁目７番１２号,,28,108,6550005,,,,,,,2022-08-15,1,,,,,ヴイアイピイフジイ,0
980,4140003018030,新規,0,2022-08-15,2022-08-15,みや合同会社,,合同会社,兵庫県,神戸市北区,鈴蘭台北町８丁目４－１２,,28,109,6511111,,,,,,,2022-08-15,1,,,,,ミヤ,0
987,4170001017238,新規,0,2022-08-15,2022-08-15,カツシマ建設株式会社,,株式会社,和歌山県,東牟婁郡那智勝浦町,大字狗子ノ川７番地１,,30,421,6495313,,,,,,,2022-08-15,1,,,,,カツシマケンセツ,0
995,4180001152579,新規,0,2022-08-15,2022-08-15,株式会社寛文社,,株式会社,愛知県,名古屋市守山区,弁天が丘７０２番地,,23,113,4630027,,,,,,,2022-08-15,1,,,,,カンブンシャ,0
996,4180001152612,新規,0,2022-08-15,2022-08-15,株式会社ＡＦＤ,,株式会社,愛知県,名古屋市中区,大須３丁目６番２５号ミュプレ矢場町１１０５号室,,23,106,4600011,,,,,,,2022-08-15,1,,,,,エーエフディー,0
997,4180001152637,新規,0,2022-08-15,2022-08-15,株式会社ＧＡＭＥ　ＣＨＡＮＧＥＲ,,株式会社,愛知県,名古屋市熱田区,伝馬１丁目８番１０号（オープンレジデンシア神宮南５０２号）,,23,109,4560034,,,,,,,2022-08-15,1,,,,,ゲームチェンジャー,0
1000,4180003024149,新規,0,2022-08-15,2022-08-15,合同会社ＫＴ,,合同会社,愛知県,東海市,富木島町東山田１１８番地の３,,23,222,4760011,,,,,,,2022-08-15,1,,,,,ケイティ,0
1007,4180301036548,新規,0,2022-08-15,2022-08-15,株式会社Ｉｓｈｉｚｕｋａ　Ｊａｐａｎ　Ｋｎｉｖｅｓ,,株式会社,愛知県,西尾市,上町猿ケ坂１番地県営上町住宅５棟２０８号室,,23,213,4450894,,,,,,,2022-08-15,1,,,,,イシヅカジャパンナイフス,0
1009,4180303005419,新規,0,2022-08-15,2022-08-15,合同会社ソウルマート,,合同会社,愛知県,刈谷市,相生町３丁目９番地ｚｉｚｉビル,,23,210,4480027,,,,,,,2022-08-15,1,,,,,ソウルマート,0
1010,4180305009376,新規,0,2022-08-15,2022-08-15,一般社団法人二川リンケージ,,その他の設立登記法人,愛知県,豊橋市,二川町字中町１３１番地,,23,201,4413155,,,,,,,2022-08-15,1,,,,,フタガワリンケージ,0
1012,4190005011730,新規,0,2022-08-15,2022-08-15,一般社団法人ビーイングジャパン,,その他の設立登記法人,三重県,松阪市,駅部田町６１５番地１９,,24,204,5150045,,,,,,,2022-08-15,1,,,,,ビーイングジャパン,0
1020,4240001060230,新規,0,2022-08-15,2022-08-15,ＯＫＡＭＵ株式会社,,株式会社,広島県,広島市安佐北区,可部町綾ケ谷４１７－２,,34,106,7391700,,,,,,,2022-08-15,1,,,,,オカム,0
1022,4260003004010,新規,0,2022-08-15,2022-08-15,合同会社ナツメサクセン,,合同会社,岡山県,岡山市北区,下伊福２丁目８番４号エクレール２１‐３０３号室,,33,101,7000052,,,,,,,2022-08-15,1,,,,,ナツメサクセン,0
1030,4290001098571,新規,0,2022-08-15,2022-08-15,株式会社エージェントパートナー福岡,,株式会社,福岡県,福岡市中央区,天神１丁目９番１７号福岡天神フコク生命ビル１５Ｆ,,40,133,8100001,,,,,,,2022-08-15,1,,,,,エージェントパートナーフクオカ,0
1031,4290001098621,新規,0,2022-08-15,2022-08-15,株式会社ダイシン,,株式会社,福岡県,福岡市中央区,大名２丁目１０番４号Ｄ－８１０,,40,133,8100041,,,,,,,2022-08-15,1,,,,,ダイシン,0
1032,4290801028793,新規,0,2022-08-15,2022-08-15,福恩源株式会社,,株式会社,福岡県,田川郡川崎町,大字池尻４８１番地２,,40,605,8270002,,,,,,,2022-08-15,1,,,,,フクオンゲン,0
1046,4370005010516,新規,0,2022-08-15,2022-08-15,一般社団法人宮城県年金協会,,その他の設立登記法人,宮城県,仙台市青葉区,二日町２－１キムラオフィスビル５階,,04,101,9800802,,,,,,,2022-08-15,1,,,,,,0
1047,4380001033049,新規,0,2022-08-15,2022-08-15,株式会社ＮＡＩＬ　Ｒ,,株式会社,福島県,福島市,本町１番２０号,,07,201,9608035,,,,,,,2022-08-15,1,,,,,ネイルアール,0
1050,4400001015977,新規,0,2022-08-15,2022-08-15,株式会社ビルド遠藤グループ,,株式会社,岩手県,岩手郡葛巻町,葛巻第７地割９１番地,,03,302,0285402,,,,,,,2022-08-15,1,,,,,ビルドエンドウグループ,0
1057,4430001087295,新規,0,2022-08-15,2022-08-15,株式会社ＰＲＯＧＲＥＳＳＩＯ,,株式会社,北海道,札幌市中央区,大通西１丁目１４番地２桂和大通ビル５０,,01,101,0600042,,,,,,,2022-08-15,1,,,,,プログレッシオ,0
1062,4430005014527,新規,0,2022-08-15,2022-08-15,北海道農業會,,その他の設立登記法人,北海道,札幌市中央区,北四条西１丁目１番地,,01,101,0600004,,,,,,,2022-08-15,1,,,,,,0
1063,4440001009133,新規,0,2022-08-15,2022-08-15,株式会社明和,,株式会社,北海道,函館市,美原１丁目３６番２６号,,01,202,0410806,,,,,,,2022-08-15,1,,,,,メイワ,0
1078,5010001228700,新規,0,2022-08-15,2022-08-15,マナレコジャパン株式会社,,株式会社,東京都,中央区,日本橋３丁目９番１号日本橋三丁目スクエア２階,,13,102,1030027,,,,,,,2022-08-15,1,,,,,マナレコジャパン,0
1079,5010001228733,新規,0,2022-08-15,2022-08-15,株式会社ＦＲＹ,,株式会社,東京都,中央区,勝どき２丁目１０番１６号,,13,102,1040054,,,,,,,2022-08-15,1,,,,,エフアールワイ,0
1082,5010003038379,新規,0,2022-08-15,2022-08-15,合同会社Ｇｉｇｉ．ｇｒａｐｈｉｃｓ,,合同会社,東京都,文京区,千駄木２丁目４４番１７号,,13,105,1130022,,,,,,,2022-08-15,1,,,,,ジジドットグラフィックス,0
1083,5010003038395,新規,0,2022-08-15,2022-08-15,合同会社ＴＨ,,合同会社,東京都,中央区,日本橋浜町３丁目３番１－２８１０号,,13,102,1030007,,,,,,,2022-08-15,1,,,,,ティーエイチ,0
1085,5010005035432,新規,0,2022-08-15,2022-08-15,神田ソーラーホールディングス一般社団法人,,その他の設立登記法人,東京都,千代田区,麹町２丁目８番地ＭＬＣ麹町ビル４階フィンポート税理士法人内,,13,101,1020083,,,,,,,2022-08-15,1,,,,,カンダソーラーホールディングス,0
1095,5010401169081,新規,0,2022-08-15,2022-08-15,株式会社ｆｅａｔホールディングス,,株式会社,東京都,港区,虎ノ門４丁目３番１号,,13,103,1050001,,,,,,,2022-08-15,1,,,,,フィートホールディングス,0
1100,5010403028269,新規,0,2022-08-15,2022-08-15,合同会社ＪＴＯＷＥＲ　Ｉｎｆｒａｓｔｒｕｃｔｕｒｅ２,,合同会社,東京都,港区,南青山２丁目２番３号,,13,103,1070062,,,,,,,2022-08-15,1,,,,,ジェイタワーインフラストラクチャーツー,0
1105,5010701043069,新規,0,2022-08-15,2022-08-15,株式会社ＩＷＡＳＡＫＩ　Ａｓｓｅｔｍｅｎｔ,,株式会社,東京都,品川区,大崎２丁目９番２－８０４号,,13,109,1410032,,,,,,,2022-08-15,1,,,,,イワサキアセットメント,0
1109,5010803004258,新規,0,2022-08-15,2022-08-15,六原トラスト不動産合同会社,,合同会社,東京都,大田区,池上２丁目２１番９号,,13,111,1460082,,,,,,,2022-08-15,1,,,,,ロクハラトラストフドウサン,0
1118,5011401024466,新規,0,2022-08-15,2022-08-15,ｆｒｅｅｌｙｌｏｇｉｃ株式会社,,株式会社,東京都,板橋区,南常盤台１丁目１１番６号レフア南常盤台１０１号室,,13,119,1740072,,,,,,,2022-08-15,1,,,,,フリーリーロジック,0
1119,5011405002212,新規,0,2022-08-15,2022-08-15,一般社団法人日本名輪会,,その他の設立登記法人,東京都,板橋区,蓮根３丁目１４番２９号一般社団法人日本競輪選手会内,,13,119,1740046,,,,,,,2022-08-15,1,,,,,ニホンメイリンカイ,0
1120,5011501028359,新規,0,2022-08-15,2022-08-15,潮音株式会社,,株式会社,東京都,北区,田端新町１丁目７番１４－３１２号,,13,117,1140012,,,,,,,2022-08-15,1,,,,,チョウオン,0
1125,5012301013096,新規,0,2022-08-15,2022-08-15,株式会社ＴＯＲＣＨ　ＭＡＲＫＥＴＩＮＧ,,株式会社,東京都,町田市,能ヶ谷４丁目２３－２アンジュール鶴川２０７,,13,209,1950053,,,,,,,2022-08-15,1,,,,,トーチマーケティング,0
1142,5020001147750,新規,0,2022-08-15,2022-08-15,株式会社セナ・インターナショナル,,株式会社,神奈川県,横浜市青葉区,美しが丘４丁目５２番地８６,,14,117,2250002,,,,,,,2022-08-15,1,,,,,セナインターナショナル,0
1145,5021001076766,新規,0,2022-08-15,2022-08-15,株式会社かなえる,,株式会社,神奈川県,茅ヶ崎市,松が丘２丁目５番地３２－７号,,14,207,2530025,,,,,,,2022-08-15,1,,,,,カナエル,0
1152,5030001149622,新規,0,2022-08-15,2022-08-15,株式会社香潤,,株式会社,埼玉県,草加市,谷塚町５８０番地１,,11,221,3400023,,,,,,,2022-08-15,1,,,,,コウジュン,0
1153,5030001149647,新規,0,2022-08-15,2022-08-15,株式会社長谷川装建,,株式会社,埼玉県,吉川市,中央３丁目４３番地２３,,11,243,3420061,,,,,,,2022-08-15,1,,,,,ハセガワソウケン,0
1155,5030003019963,新規,0,2022-08-15,2022-08-15,合同会社ＭＩＮＡＷＯＲＫＳ,,合同会社,埼玉県,春日部市,増富２９５番地１１,,11,214,3440041,,,,,,,2022-08-15,1,,,,,ミナワークス,0
1156,5030003019996,新規,0,2022-08-15,2022-08-15,合同会社Ｇｏｌｄｂｅｒｇ,,合同会社,埼玉県,上尾市,柏座１丁目１０―１キャッスル上尾５０４,,11,219,3620075,,,,,,,2022-08-15,1,,,,,ゴールドバーグ,0
1160,5040001124640,新規,0,2022-08-15,2022-08-15,株式会社相基興業,,株式会社,千葉県,市川市,国分２丁目１１番１７号花神ビル２０１,,12,203,2720834,,,,,,,2022-08-15,1,,,,,ソウキコウギョウ,0
1161,5040001124649,新規,0,2022-08-15,2022-08-15,株式会社蓮堂商会,,株式会社,千葉県,柏市,北柏３丁目１３番８－５０５号,,12,217,2770832,,,,,,,2022-08-15,1,,,,,レンドウショウカイ,0
1168,5070001039530,新規,0,2022-08-15,2022-08-15,株式会社ＴｏｍｉＤｅｎ　ｌａｂｏ,,株式会社,群馬県,高崎市,中里見町１１８番地１,,10,202,3703344,,,,,,,2022-08-15,1,,,,,トミデンラボ,0
1174,5080105006277,新規,0,2022-08-15,2022-08-15,富士山国際交流協同組合,,その他の設立登記法人,静岡県,御殿場市,新橋２０３４番地,,22,215,4120043,,,,,,,2022-08-15,1,,,,,フジサンコクサイコウリュウ,0
1177,5080401026004,新規,0,2022-08-15,2022-08-15,株式会社ゆいまーる,,株式会社,静岡県,浜松市中区,木戸町６番１－３０８号プライムタウン木戸町,,22,131,4300806,,,,,,,2022-08-15,1,,,,,ユイマール,0
1180,5090001017732,新規,0,2022-08-15,2022-08-15,未来予想図株式会社,,株式会社,山梨県,甲斐市,宇津谷１８５－１,,19,210,4000108,,,,,,,2022-08-15,1,,,,,ミライヨソウズ,0
1181,5090001017740,新規,0,2022-08-15,2022-08-15,株式会社ディラネスリゾート,,株式会社,山梨県,南都留郡山中湖村,山中１４２番地,,19,425,4010501,,,,,,,2022-08-15,1,,,,,,0
1182,5100001035591,新規,0,2022-08-15,2022-08-15,株式会社セカンドフィールド,,株式会社,長野県,駒ヶ根市,下平８００番地１,,20,210,3994101,,,,,,,2022-08-15,1,,,,,セカンドフィールド,0
1183,5100001035617,新規,0,2022-08-15,2022-08-15,株式会社ＴＨＥ　ＲＩＣＨ,,株式会社,長野県,諏訪市,大手１丁目１１番３号百瀬ビル２Ｆ,,20,206,3920026,,,,,,,2022-08-15,1,,,,,ザリッチ,0
1187,5100003006657,新規,0,2022-08-15,2022-08-15,合同会社ＯＡＳＩＳ,,合同会社,長野県,駒ヶ根市,赤須町９番１５号,,20,210,3994113,,,,,,,2022-08-15,1,,,,,オアシス,0
1188,5110001036894,新規,0,2022-08-15,2022-08-15,株式会社エドゼン,,株式会社,新潟県,新潟市西蒲区,下和納３５６９番地サンシャイン２８Ａ‐１０２,,15,108,9530065,,,,,,,2022-08-15,1,,,,,エドゼン,0
1204,5120001248084,新規,0,2022-08-15,2022-08-15,株式会社三田村工業,,株式会社,大阪府,大阪市平野区,加美北９丁目１７番３号,,27,126,5470001,,,,,,,2022-08-15,1,,,,,ミタムラコウギョウ,0
1205,5120001248101,新規,0,2022-08-15,2022-08-15,株式会社ＥｌｌｅＮａ,,株式会社,大阪府,大阪市北区,堂島３丁目３番２８－１２０３号,,27,127,5300003,,,,,,,2022-08-15,1,,,,,エリーナ,0
1206,5120001248126,新規,0,2022-08-15,2022-08-15,株式会社ＭＭＭ　Ｌｉｎｇｅｒｉｅ　Ｌａｂｏ,,株式会社,大阪府,大阪市中央区,西心斎橋１丁目１０番４号,,27,128,5420086,,,,,,,2022-08-15,1,,,,,エムエムエムランジェリーラボ,0
1207,5120001248134,新規,0,2022-08-15,2022-08-15,Ｋ‐コンサルタント株式会社,,株式会社,大阪府,大阪市北区,本庄西１丁目１番７－４４０４号,,27,127,5310073,,,,,,,2022-08-15,1,,,,,ケイコンサルタント,0
1212,5120005023021,新規,0,2022-08-15,2022-08-15,一般社団法人Ｆｕｔｕｒｅ　ｏｆ　Ａｓｉａ,,その他の設立登記法人,大阪府,大阪市東住吉区,北田辺４丁目１３番９号,,27,121,5460044,,,,,,,2022-08-15,1,,,,,フューチャーオブアジア,0
1215,5120101066072,新規,0,2022-08-15,2022-08-15,株式会社ユメテック,,株式会社,大阪府,堺市中区,小阪１６９番地１,,27,142,5998276,,,,,,,2022-08-15,1,,,,,ユメテック,0
1217,5120901046307,新規,0,2022-08-15,2022-08-15,株式会社Ｆ＆ＬＣサポート,,株式会社,大阪府,吹田市,江坂町１丁目２２番２号,,27,205,5640063,,,,,,,2022-08-15,1,,,,,エフアンドエルシーサポート,0
1218,5120903004270,新規,0,2022-08-15,2022-08-15,合同会社Ｈｉｓｓｏｒｉａ,,合同会社,大阪府,摂津市,別府２丁目３２番１３号,,27,224,5660046,,,,,,,2022-08-15,1,,,,,ヒッソリア,0
1221,5122001036155,新規,0,2022-08-15,2022-08-15,株式会社九福商社,,株式会社,大阪府,八尾市,大竹７丁目１６９番地,,27,212,5810854,,,,,,,2022-08-15,1,,,,,キュウフクショウシャ,0
1229,5130001072434,新規,0,2022-08-15,2022-08-15,株式会社大海コーポレーション,,株式会社,京都府,宇治市,槇島町十八５３番地の１,,26,204,6110041,,,,,,,2022-08-15,1,,,,,タイシコーポレーション,0
1230,5130001072442,新規,0,2022-08-15,2022-08-15,株式会社ＫＮＳ,,株式会社,京都府,京都市北区,紫野下鳥田町２０－６,,26,101,6038175,,,,,,,2022-08-15,1,,,,,ケイエヌエス,0
1239,5140001127096,新規,0,2022-08-15,2022-08-15,株式会社ＳＲエステート,,株式会社,兵庫県,尼崎市,東園田町５丁目１４２番１号法界寺ビル２０１号,,28,202,6610953,,,,,,,2022-08-15,1,,,,,エスアールエステート,0
1240,5140001127113,新規,0,2022-08-15,2022-08-15,株式会社ｌａｓｔ　Ｂｅｔ,,株式会社,兵庫県,西宮市,常磐町１番３１号アットマークビル３階,,28,204,6620043,,,,,,,2022-08-15,1,,,,,ラストベット,0
1246,5160001024457,新規,0,2022-08-15,2022-08-15,株式会社高電,00127524,株式会社,滋賀県,近江八幡市,江頭町６１９番地６,,25,204,5230061,,,,,,,2022-08-15,1,,,,,コウデン,0
1247,5170001017237,新規,0,2022-08-15,2022-08-15,リハプライム和歌山株式会社,,株式会社,和歌山県,西牟婁郡白浜町,日置２１３５番地,,30,401,6492511,,,,,,,2022-08-15,1,,,,,リハプライムワカヤマ,0
1256,5180001152611,新規,0,2022-08-15,2022-08-15,株式会社シーダー,,株式会社,愛知県,名古屋市西区,花の木１丁目１３番１８号マザー花の木７０４号室,,23,104,4510062,,,,,,,2022-08-15,1,,,,,シーダー,0
1260,5180301000057,新規,0,2022-08-15,2022-08-15,株式会社アクセサリートツプ,,株式会社,愛知県,岡崎市,元能見町１１７番地,,23,202,4440063,,,,,,,2022-08-15,1,,,,,アクセサリートップ,0
1261,5180301036530,新規,0,2022-08-15,2022-08-15,株式会社エムテックス,,株式会社,愛知県,豊田市,上郷町３丁目４番地６,,23,211,4701218,,,,,,,2022-08-15,1,,,,,エムテックス,0
1278,5230003001901,新規,0,2022-08-15,2022-08-15,梵Ａｇｒｉｓｏｌ合同会社,,合同会社,富山県,富山市,呉羽町５０４４番地２,,16,201,9300138,,,,,,,2022-08-15,1,,,,,ボンアグリソル,0
1289,5290001098538,新規,0,2022-08-15,2022-08-15,株式会社ひろぴこ企画,,株式会社,福岡県,福岡市早良区,干隈６丁目８番３９－１０２号,,40,137,8140163,,,,,,,2022-08-15,1,,,,,ヒロピコキカク,0
1290,5290001098620,新規,0,2022-08-15,2022-08-15,協和マネジメント株式会社,,株式会社,福岡県,福岡市東区,名島３丁目５番１５号,,40,131,8130043,,,,,,,2022-08-15,1,,,,,キョウワマネジメント,0
1292,5290003012843,新規,0,2022-08-15,2022-08-15,聖福合同会社,,合同会社,福岡県,福岡市中央区,白金１丁目８番３－６０６号,,40,133,8100012,,,,,,,2022-08-15,1,,,,,ショウフク,0
1297,5320001019275,新規,0,2022-08-15,2022-08-15,株式会社財遊舎,,株式会社,大分県,杵築市,大田小野１６３２番地,,44,210,8790904,,,,,,,2022-08-15,1,,,,,ザイユウシャ,0
1301,5330001030025,新規,0,2022-08-15,2022-08-15,株式会社ｆｕｊｉｍｏｔｏ,,株式会社,熊本県,熊本市西区,八島町７４５番地１メルカートマンション３０１号,,43,103,8600057,,,,,,,2022-08-15,1,,,,,フジモト,0
1303,5360001030798,新規,0,2022-08-15,2022-08-15,株式会社シンリョク,,株式会社,沖縄県,豊見城市,字饒波６５番地、１Ｆ,,47,212,9010211,,,,,,,2022-08-15,1,,,,,シンリョク,0
1304,5360001030823,新規,0,2022-08-15,2022-08-15,株式会社アストライズ,,株式会社,沖縄県,島尻郡八重瀬町,字伊覇１２３番地１,,47,362,9010405,,,,,,,2022-08-15,1,,,,,アストライズ,0
1305,5370001048922,新規,0,2022-08-15,2022-08-15,株式会社ＢＴ,,株式会社,宮城県,仙台市青葉区,本町１丁目６番２３号７階,,04,101,9800014,,,,,,,2022-08-15,1,,,,,ビーティー,0
1306,5370001048939,新規,0,2022-08-15,2022-08-15,株式会社Ａｔｅｌｉｅｒ４６０,,株式会社,宮城県,仙台市太白区,長町２丁目４番２号,,04,104,9820011,,,,,,,2022-08-15,1,,,,,アトリエシロウマル,0
1307,5370001048947,新規,0,2022-08-15,2022-08-15,エアリンク株式会社,,株式会社,宮城県,仙台市青葉区,本町２丁目１７番２１号ＣＯ本町ビル３Ｆ,,04,101,9800014,,,,,,,2022-08-15,1,,,,,エアリンク,0
1312,5380001033048,新規,0,2022-08-15,2022-08-15,ロジック・ジャパン株式会社,,株式会社,福島県,郡山市,駅前２丁目３－７エリート３０・２Ｆ,,07,203,9638002,,,,,,,2022-08-15,1,,,,,ロジックジャパン,0
1324,5430001087294,新規,0,2022-08-15,2022-08-15,雅トランスポーター株式会社,,株式会社,北海道,札幌市白石区,北郷二条６丁目４－１－１０２,,01,104,0030832,,,,,,,2022-08-15,1,,,,,ミヤビトランスポーター,0
1325,5430001087303,新規,0,2022-08-15,2022-08-15,株式会社サッポロ土谷ホールディングス,,株式会社,北海道,札幌市東区,本町二条１０丁目２番３５号,,01,103,0650042,,,,,,,2022-08-15,1,,,,,サッポロツチヤホールディングス,0
1329,5440001009132,新規,0,2022-08-15,2022-08-15,株式会社ドラコニックエンターテインメント,,株式会社,北海道,函館市,昭和４丁目４９番６号,,01,202,0410812,,,,,,,2022-08-15,1,,,,,ドラコニックエンターテインメント,0
1337,5500001024397,新規,0,2022-08-15,2022-08-15,株式会社アンパサンド,,株式会社,愛媛県,松山市,土居田町６２０番地７,,38,201,7900056,,,,,,,2022-08-15,1,,,,,アンパサンド,0
1338,5700150111249,新規,0,2022-08-15,2022-08-15,Ｓｈｅｎｚｈｅｎ　Ｍｉｎｇｇｕａｎｇ　Ｉｎｔｅｒｎａｔｉｏｎａｌ　Ｆｒｅｉｇｈｔ　Ｆｏｒｗａｒｄｉｎｇ　Ｃｏ．，Ｌｔｄ．,,外国会社等,,,,,,,,Ｘｉｎｘｉｎｇ　Ｉｎｄｕｓｔｒｉａｌ　Ｐａｒｋ，Ｘｉｎｈｅ　Ｃｏｍｍｕｎｉｔｙ，Ｆｕｈａｉ　Ｓｔ，Ｂａｏａｎ　Ｄｉｓｔｒｉｃｔ，Ｓｈｅｎｚｈｅｎ，Ｃｈｉｎａ,,,,,,2022-08-15,1,,,,,シエンチエンミイングアンインターナシヨナルフレイトフオワーデイングカンパニーリミテツド,0
1346,6010001228699,新規,0,2022-08-15,2022-08-15,株式会社Ｒａｉｎｂｏｗ　ＬｉｆｅＴｅｃｈ,,株式会社,東京都,中央区,築地５丁目４番１９号,,13,102,1040045,,,,,,,2022-08-15,1,,,,,レインボーライフテック,0
1347,6010001228815,新規,0,2022-08-15,2022-08-15,Ｒａｐｉｄｕｓ株式会社,,株式会社,東京都,千代田区,麹町４丁目１番地,,13,101,1020083,,,,,,,2022-08-15,1,,,,,ラピダス,0
1348,6010001228823,新規,0,2022-08-15,2022-08-15,株式会社Ｓｔｙｌｅ　Ｃｏｌｏｒ　Ｊａｐａｎ,,株式会社,東京都,中央区,日本橋小伝馬町２１番１号ＴＨＥ・ＰＯＲＴＡＬ・Ｎｉｈｏｍｂａｓｈｉ・Ｅａｓｔ４Ｆ,,13,102,1030001,,,,,,,2022-08-15,1,,,,,スタイルカラージャパン,0
1352,6010005035373,新規,0,2022-08-15,2022-08-15,一般社団法人全国技術アジャスター協会,,その他の設立登記法人,東京都,千代田区,岩本町３丁目４番６号トナカイタワーズ２階,,13,101,1010032,,,,,,,2022-08-15,1,,,,,ゼンコクギジュツアジャスターキョウカイ,0
1353,6010005035381,新規,0,2022-08-15,2022-08-15,弁護士法人ネクサス法律事務所,,その他の設立登記法人,東京都,千代田区,内神田１丁目２番１号ＩＳＭ・Ｏｔｅｍａｃｈｉ１０階,,13,101,1010047,,,,,,,2022-08-15,1,,,,,ネクサスホウリツジムショ,0
1354,6010005035431,新規,0,2022-08-15,2022-08-15,秋葉原ソーラーホールディングス一般社団法人,,その他の設立登記法人,東京都,千代田区,麹町２丁目８番地ＭＬＣ麹町ビル４階フィンポート税理士法人内,,13,101,1020083,,,,,,,2022-08-15,1,,,,,アキハバラソーラーホールディングス,0
1365,6010401169031,新規,0,2022-08-15,2022-08-15,インペラトリス株式会社,,株式会社,東京都,港区,六本木４丁目３番１１号六本木ユニハウス４１４号室,,13,103,1060032,,,,,,,2022-08-15,1,,,,,インペラトリス,0
1366,6010401169080,新規,0,2022-08-15,2022-08-15,株式会社エネリンクホールディングス,,株式会社,東京都,港区,虎ノ門４丁目３番１号,,13,103,1050001,,,,,,,2022-08-15,1,,,,,エネリンクホールディングス,0
1370,6010503006685,新規,0,2022-08-15,2022-08-15,合同会社フリーウェイ,,合同会社,東京都,台東区,台東４丁目２９番１３－８０２号,,13,106,1100016,,,,,,,2022-08-15,1,,,,,フリーウェイ,0
1374,6010603009687,新規,0,2022-08-15,2022-08-15,Ｋ’ｓ　Ｏｈａｎａ合同会社,,合同会社,東京都,墨田区,向島３丁目３０番３号,,13,107,1310033,,,,,,,2022-08-15,1,,,,,ケイズオハナ,0
1375,6010701043068,新規,0,2022-08-15,2022-08-15,株式会社Ｈｅｗ　Ｐａｃｋｅｒ,,株式会社,東京都,品川区,西五反田２丁目４－６－４１０,,13,109,1410031,,,,,,,2022-08-15,1,,,,,ヒューパッカー,0
1376,6010703006353,新規,0,2022-08-15,2022-08-15,夏日合同会社,,合同会社,東京都,品川区,西五反田７丁目１３番５号ＤＫ五反田４階４１８号室,,13,109,1410031,,,,,,,2022-08-15,1,,,,,ナツビ,0
1386,6011001149209,新規,0,2022-08-15,2022-08-15,株式会社Ｃｉｒｆｅｃｔ　Ｔｅｃｈｎｏｌｏｇｙ,,株式会社,東京都,渋谷区,恵比寿１丁目１９番１９号,,13,113,1500013,,,,,,,2022-08-15,1,,,,,サーフェクトテクノロジー,0
1387,6011003015202,新規,0,2022-08-15,2022-08-15,ＨＡＲＬＯＷ合同会社,,合同会社,東京都,目黒区,青葉台１丁目６番１号代官山ハウス１Ｆ,,13,110,1530042,,,,,,,2022-08-15,1,,,,,ハーロウ,0
1393,6011201024038,新規,0,2022-08-15,2022-08-15,株式会社ＹＵＫＩＫＯ　ＷＡＴＡＮＡＢＥ　ＤＥＳＩＧＮ　ＯＦＦＩＣＥ,,株式会社,東京都,中野区,東中野１丁目３１番２号ワコーレ東中野ＩＩ２０１,00127521,13,114,1640003,,,,,,,2022-08-15,1,,,,,ユキコワタナベデザインオフィス,0
1395,6011401024465,新規,0,2022-08-15,2022-08-15,株式会社ｏｗｌｌｙ,,株式会社,東京都,板橋区,大谷口北町４３番４－２０５号,,13,119,1730031,,,,,,,2022-08-15,1,,,,,アウリー,0
1397,6011403003748,新規,0,2022-08-15,2022-08-15,合同会社ゼン,,合同会社,東京都,板橋区,高島平７丁目３２－１１－５０１,,13,119,1750082,,,,,,,2022-08-15,1,,,,,ゼン,0
1398,6011503005256,新規,0,2022-08-15,2022-08-15,三葉合同会社,,合同会社,東京都,荒川区,荒川３丁目６１番６号,,13,118,1160002,,,,,,,2022-08-15,1,,,,,ミツバ,0
1401,6011601026179,新規,0,2022-08-15,2022-08-15,株式会社明倫建設,,株式会社,東京都,練馬区,石神井台４丁目１４番１２号,,13,120,1770045,,,,,,,2022-08-15,1,,,,,メイリンケンセツ,0
1422,6021003012033,新規,0,2022-08-15,2022-08-15,星野屋合同会社,,合同会社,神奈川県,綾瀬市,小園１３９０番地１１,,14,218,2521121,,,,,,,2022-08-15,1,,,,,セイノヤ,0
1431,6030001149613,新規,0,2022-08-15,2022-08-15,株式会社彩の国建築研究所,,株式会社,埼玉県,さいたま市南区,南本町１丁目１４番５号,,11,108,3360018,,,,,,,2022-08-15,1,,,,,サイノクニケンチクケンキュウジョ,0
1435,6030003019970,新規,0,2022-08-15,2022-08-15,合同会社ＴＨＥ　ＴＡＣＴＩＣＡＬ　ＴＯＫＹＯ,,合同会社,埼玉県,戸田市,新曽南３丁目１２番４号,,11,224,3350026,,,,,,,2022-08-15,1,,,,,ザタクティカルトーキョー,0
1436,6040001124631,新規,0,2022-08-15,2022-08-15,クリエイティブリゾー司株式会社,,株式会社,千葉県,鎌ケ谷市,東道野辺２丁目７番２９－１０号,,12,224,2730115,,,,,,,2022-08-15,1,,,,,クリエイティブリゾージ,0
1437,6040001124672,新規,0,2022-08-15,2022-08-15,株式会社ＴＯＭＯ,,株式会社,千葉県,成田市,吉岡５６０番地１５３,,12,211,2870225,,,,,,,2022-08-15,1,,,,,トモ,0
1438,6040001124697,新規,0,2022-08-15,2022-08-15,株式会社銅和コーポレーション,,株式会社,千葉県,八千代市,八千代台西１０丁目２３番６号,,12,221,2760034,,,,,,,2022-08-15,1,,,,,ドウワコーポレーション,0
1440,6040003020606,新規,0,2022-08-15,2022-08-15,合同会社ｇｒｏｗｖｅｒ,,合同会社,千葉県,千葉市美浜区,打瀬２丁目５番地,,12,106,2610013,,,,,,,2022-08-15,1,,,,,ロヴェ,0
1441,6040003020622,新規,0,2022-08-15,2022-08-15,合同会社ニシナラ,,合同会社,千葉県,船橋市,西習志野４丁目２１番６号,,12,204,2740815,,,,,,,2022-08-15,1,,,,,ニシナラ,0
1453,6100001035608,新規,0,2022-08-15,2022-08-15,コスモ商事株式会社,,株式会社,長野県,飯田市,丸山町３丁目５６７９番地１,,20,205,3950077,,,,,,,2022-08-15,1,,,,,コスモショウジ,0
1454,6100001035616,新規,0,2022-08-15,2022-08-15,株式会社みらい＆パートナーズ,,株式会社,長野県,上伊那郡南箕輪村,字中野原８３０６番１９９０,,20,385,3994511,,,,,,,2022-08-15,1,,,,,ミライアンドパートナーズ,0
1455,6100003006656,新規,0,2022-08-15,2022-08-15,合同会社すわっこホーム,,合同会社,長野県,諏訪市,大字豊田３１０番地３,,20,206,3920016,,,,,,,2022-08-15,1,,,,,スワッコホーム,0
1465,6120001247845,新規,0,2022-08-15,2022-08-15,ＲＵＧＬＯＢＡＬ株式会社,,株式会社,大阪府,大阪市北区,万歳町３番１２－３０４号,,27,127,5300028,,,,,,,2022-08-15,1,,,,,ルグローバル,0
1466,6120001248100,新規,0,2022-08-15,2022-08-15,株式会社大手前パートナーズ,,株式会社,大阪府,大阪市中央区,石町１丁目１番１号,,27,128,5400033,,,,,,,2022-08-15,1,,,,,オオテマエパートナーズ,0
1467,6120001248141,新規,0,2022-08-15,2022-08-15,株式会社Ｄｅｓａｆｉｏ,,株式会社,大阪府,大阪市中央区,南本町１丁目５番１５号,,27,128,5410054,,,,,,,2022-08-15,1,,,,,デサフィオ,0
1468,6120001248158,新規,0,2022-08-15,2022-08-15,ＧＫトランスポート株式会社,,株式会社,大阪府,大阪市中央区,本町２丁目６番８号,,27,128,5410053,,,,,,,2022-08-15,1,,,,,ジーケートランスポート,0
1469,6120001248182,新規,0,2022-08-15,2022-08-15,株式会社ＡＩＯ産業,,株式会社,大阪府,大阪市西成区,松１丁目２番１０号２階,,27,122,5570034,,,,,,,2022-08-15,1,,,,,アイオサンギョウ,0
1478,6120101066088,新規,0,2022-08-15,2022-08-15,五つ星交通株式会社,,株式会社,大阪府,堺市中区,小阪７１番地４,,27,142,5998276,,,,,,,2022-08-15,1,,,,,イツツボシコウツウ,0
1482,6122001036138,新規,0,2022-08-15,2022-08-15,株式会社ＢｅＧＧＢ,,株式会社,大阪府,東大阪市,高井田１番１０号－２０２号室,,27,227,5770053,,,,,,,2022-08-15,1,,,,,ビィジージービー,0
1483,6122001036162,新規,0,2022-08-15,2022-08-15,ＳＹ測量株式会社,,株式会社,大阪府,東大阪市,荒本新町４番１３号,,27,227,5770022,,,,,,,2022-08-15,1,,,,,エスワイソクリョウ,0
1488,6130001072433,新規,0,2022-08-15,2022-08-15,株式会社睦工務店,,株式会社,京都府,京都市右京区,嵯峨広沢北下馬野町５番地４,,26,108,6168302,,,,,,,2022-08-15,1,,,,,ムツミコウムテン,0
1489,6130001072441,新規,0,2022-08-15,2022-08-15,株式会社Ｆ．Ｏ．Ｑ．Ｕ．Ｓ．ＫＹＯＴＯ,,株式会社,京都府,京都市左京区,松ケ崎今海道町２番地８,,26,103,6060914,,,,,,,2022-08-15,1,,,,,フォーカスキョウト,0
1498,6140001127062,新規,0,2022-08-15,2022-08-15,株式会社ダンマルシェ,,株式会社,兵庫県,明石市,硯町３丁目４番２３号,,28,203,6730028,,,,,,,2022-08-15,1,,,,,ダンマルシェ,0
1499,6140001127079,新規,0,2022-08-15,2022-08-15,ｓｏｕｋｉ株式会社,,株式会社,兵庫県,宝塚市,泉ガ丘１２番２２号,,28,214,6650851,,,,,,,2022-08-15,1,,,,,ソウキ,0
1504,6140003018029,新規,0,2022-08-15,2022-08-15,合同会社ＬＩＢ,,合同会社,兵庫県,芦屋市,公光町９番６号,,28,206,6590065,,,,,,,2022-08-15,1,,,,,リブ,0
1505,6140005026285,新規,0,2022-08-15,2022-08-15,特定非営利活動法人ＮＧＯ神戸外国人救援ネット,,その他の設立登記法人,兵庫県,神戸市中央区,中山手通１丁目２８番７号,,28,110,6500004,,,,,,,2022-08-15,1,,,,,エヌジーオーコウベガイコクジンキュウエンネット,0
1508,6160001024456,新規,0,2022-08-15,2022-08-15,株式会社大野木型,,株式会社,滋賀県,守山市,古高町２４５番地２,,25,207,5240044,,,,,,,2022-08-15,1,,,,,オオノキガタ,0
1514,6180001152560,新規,0,2022-08-15,2022-08-15,トウワトレーディング株式会社,,株式会社,愛知県,名古屋市中村区,向島町４丁目１７番地の３,,23,105,4530838,,,,,,,2022-08-15,1,,,,,トウワトレーディング,0
1515,6180001152593,新規,0,2022-08-15,2022-08-15,株式会社喫茶店から始まるまちづくり,,株式会社,愛知県,名古屋市北区,中味鋺１丁目９５２番地,,23,103,4620015,,,,,,,2022-08-15,1,,,,,キッサテンカラハジマルマチヅクリ,0
1516,6180001152602,新規,0,2022-08-15,2022-08-15,株式会社丈英メディカル,,株式会社,愛知県,名古屋市昭和区,高峯町１２３番地,,23,107,4660811,,,,,,,2022-08-15,1,,,,,ジョウエイメディカル,0
1517,6180001152635,新規,0,2022-08-15,2022-08-15,株式会社旺伸,,株式会社,愛知県,津島市,東柳原町２丁目３４番地１,,23,208,4960045,,,,,,,2022-08-15,1,,,,,オウシン,0
1518,6180001152643,新規,0,2022-08-15,2022-08-15,株式会社ＨＩＲＡＫＵ,,株式会社,愛知県,名古屋市中川区,尾頭橋３丁目１４番１１号,,23,110,4540012,,,,,,,2022-08-15,1,,,,,ヒラク,0
1522,6180005019888,新規,0,2022-08-15,2022-08-15,行政書士法人みらいへ法務事務所,,その他の設立登記法人,愛知県,一宮市,泉２丁目５番１４号Ｖｅｒｅｄｅ泉Ａ,,23,203,4910861,,,,,,,2022-08-15,1,,,,,ミライヘホウムジムショ,0
1530,6180303005425,新規,0,2022-08-15,2022-08-15,合名会社楪,,合名会社,愛知県,岡崎市,明大寺町字馬場東１６２番地５,,23,202,4440868,,,,,,,2022-08-15,1,,,,,ユズリハ,0
1531,6180305009374,新規,0,2022-08-15,2022-08-15,一般社団法人頭痛セラピー協会,,その他の設立登記法人,愛知県,蒲郡市,水竹町木船３６番地１,,23,214,4430005,,,,,,,2022-08-15,1,,,,,ズツウセラピーキョウカイ,0
1533,6190003004057,新規,0,2022-08-15,2022-08-15,合同会社フィールドセンター,,合同会社,三重県,四日市市,小杉町１２６０番地１,,24,202,5120902,,,,,,,2022-08-15,1,,,,,フィールドセンター,0
1549,6240003005751,新規,0,2022-08-15,2022-08-15,合同会社つなぐ総研,,合同会社,広島県,広島市中区,幟町７番３０号４階,,34,101,7300016,,,,,,,2022-08-15,1,,,,,ツナグソウケン,0
1551,6250001019728,新規,0,2022-08-15,2022-08-15,Ｔ．Ｍ．Ｌｉｆｅ株式会社,,株式会社,山口県,防府市,勝間２丁目３－７,,35,206,7470822,,,,,,,2022-08-15,1,,,,,ティーエムライフ,0
1555,6290001098537,新規,0,2022-08-15,2022-08-15,株式会社ドットジェイピー,,株式会社,福岡県,福岡市中央区,天神４丁目６番２８号天神ファーストビル７階,,40,133,8100001,,,,,,,2022-08-15,1,,,,,ドットジェイピー,0
1556,6290001098553,新規,0,2022-08-15,2022-08-15,株式会社パレスディー,,株式会社,福岡県,福岡市博多区,東那珂３丁目５－１９－１００２,00127523,40,132,8120892,,,,,,,2022-08-15,1,,,,,パレスディー,0
1557,6290001098561,新規,0,2022-08-15,2022-08-15,株式会社ｃａｎｏ,,株式会社,福岡県,福岡市博多区,山王１丁目１４番８号,,40,132,8120015,,,,,,,2022-08-15,1,,,,,カノ,0
1560,6290801028817,新規,0,2022-08-15,2022-08-15,株式会社九州ステップ,,株式会社,福岡県,京都郡苅田町,若久町３丁目１４－６,,40,621,8000302,,,,,,,2022-08-15,1,,,,,キュウシュウステップ,0
1565,6320003003870,新規,0,2022-08-15,2022-08-15,合同会社ヒガシ,,合同会社,大分県,大分市,大字城原１７３４の３０番地,,44,201,8700267,,,,,,,2022-08-15,1,,,,,ヒガシ,0
1571,6340001024958,新規,0,2022-08-15,2022-08-15,株式会社ＰＶＣ,,株式会社,鹿児島県,鹿児島市,田上２丁目２８番１９号,,46,201,8900034,,,,,,,2022-08-15,1,,,,,ピーブイーシー,0
1573,6350005006092,新規,0,2022-08-15,2022-08-15,特定非営利活動法人ｔｅとｔｅの会,,その他の設立登記法人,宮崎県,日向市,亀崎西２丁目８６番地落合様方,,45,206,8830068,,,,,,,2022-08-15,1,,,,,テトテノカイ,0
1576,6370001048938,新規,0,2022-08-15,2022-08-15,株式会社紡不動産,,株式会社,宮城県,仙台市青葉区,落合５丁目１５番３８号,,04,101,9893126,,,,,,,2022-08-15,1,,,,,ツムギフドウサン,0
1580,6380001033047,新規,0,2022-08-15,2022-08-15,株式会社ヒルタソウケン,,株式会社,福島県,いわき市,山田町法田５２番地の１,,07,204,9748241,,,,,,,2022-08-15,1,,,,,ヒルタソウケン,0
1582,6380005012609,新規,0,2022-08-15,2022-08-15,特定非営利活動法人ふくしま倶楽部,,その他の設立登記法人,福島県,福島市,太田町３２番８号,,07,201,9608068,,,,,,,2022-08-15,1,,,,,フクシマクラブ,0
1591,6420005007819,新規,0,2022-08-15,2022-08-15,むつ小川原モビリティ協同組合,,その他の設立登記法人,青森県,上北郡六ヶ所村,大字倉内字笹崎１０５０番地１,,02,411,0393215,,,,,,,2022-08-15,1,,,,,ムツオガワラモビリティ,0
1597,6430001087293,新規,0,2022-08-15,2022-08-15,北海道ブルワリー株式会社,,株式会社,北海道,苫小牧市,錦町２丁目２番１７号,,01,213,0530023,,,,,,,2022-08-15,1,,,,,ホッカイドウブルワリー,0
1598,6430001087310,新規,0,2022-08-15,2022-08-15,株式会社ＯＮＥ,,株式会社,北海道,札幌市南区,澄川一条３丁目２番１６号メゾンドシャルマン,,01,106,0050001,,,,,,,2022-08-15,1,,,,,ワン,0
1610,6470001019210,新規,0,2022-08-15,2022-08-15,株式会社ＴＥＲＲＡ,,株式会社,香川県,高松市,出作町４７１番地２,,37,201,7618077,,,,,,,2022-08-15,1,,,,,テラ,0
1612,6500001024396,新規,0,2022-08-15,2022-08-15,株式会社ペルルブラン,,株式会社,愛媛県,宇和島市,新町２丁目１番９号ラトゥール新町２０１,,38,203,7980035,,,,,,,2022-08-15,1,,,,,ペルルブラン,0
1614,6700150111248,新規,0,2022-08-15,2022-08-15,Ｌｅａｎｃｏｄｅ，Ｉｎｃ．,,外国会社等,,,,,,,,８５０９　１５４ｔｈ　Ａｖｅ　ＮＥ　Ｓｔｅ　１１０，Ｒｅｄｍｏｎｄ，ＷＡ　９８０５２　ＵＳＡ,,,,,,2022-08-15,1,,,,,リーンコードインク,0
1618,7010001228681,新規,0,2022-08-15,2022-08-15,ＡＬ　Ｉｎｖｅｓｔｍｅｎｔ株式会社,,株式会社,東京都,千代田区,霞が関３丁目２番５号,,13,101,1000013,,,,,,,2022-08-15,1,,,,,エーエルインベストメント,0
1619,7010001228780,新規,0,2022-08-15,2022-08-15,株式会社ベルニュース,,株式会社,東京都,中央区,日本橋久松町１１番６号,,13,102,1030005,,,,,,,2022-08-15,1,,,,,ベルニュース,0
1620,7010001228814,新規,0,2022-08-15,2022-08-15,株式会社スタジオウエスト一級建築士事務所,,株式会社,東京都,中央区,八丁堀３丁目１１番９号,,13,102,1040032,,,,,,,2022-08-15,1,,,,,スタジオウエストイッキュウケンチクシジムショ,0
1621,7010001228822,新規,0,2022-08-15,2022-08-15,株式会社Ｔａｋｅ　Ｕｒｂａｎ,,株式会社,東京都,中央区,勝どき１丁目３番１号,,13,102,1040054,,,,,,,2022-08-15,1,,,,,テイクアーバン,0
1625,7010005035397,新規,0,2022-08-15,2022-08-15,一般社団法人ＫＲＦ１０３,,その他の設立登記法人,東京都,千代田区,内幸町２丁目１番６号,,13,101,1000011,,,,,,,2022-08-15,1,,,,,ケイアールエフヒャクサン,0
1632,7010401169022,新規,0,2022-08-15,2022-08-15,トレジャーハント株式会社,,株式会社,東京都,港区,浜松町２丁目２番１５号浜松町ダイヤビル２Ｆ,,13,103,1050013,,,,,,,2022-08-15,1,,,,,トレジャーハント,0
1635,7010405021286,新規,0,2022-08-15,2022-08-15,Ｇａｒｄｅｎ　Ｈｉｌｌｓ一般社団法人,,その他の設立登記法人,東京都,港区,六本木１丁目９番１０号アークヒルズ仙石山森タワー４０階ＳａｎｎｅＧｒｏｕｐＪａｐａｎ株式会社内,,13,103,1060032,,,,,,,2022-08-15,1,,,,,ガーデンヒルズ,0
1637,7010503006684,新規,0,2022-08-15,2022-08-15,合同会社太平洋開発,,合同会社,東京都,台東区,台東４丁目２９番１３－８０２号,,13,106,1100016,,,,,,,2022-08-15,1,,,,,タイヘイヨウカイハツ,0
1642,7010601061656,新規,0,2022-08-15,2022-08-15,アリ広株式会社,,株式会社,東京都,江東区,北砂３丁目２８番１－３０３号,,13,108,1360073,,,,,,,2022-08-15,1,,,,,アリヒロ,0
1643,7010601061664,新規,0,2022-08-15,2022-08-15,豊羽ビル株式会社,,株式会社,東京都,墨田区,東駒形１丁目３番９号,,13,107,1300005,,,,,,,2022-08-15,1,,,,,トバビル,0
1644,7010601061672,新規,0,2022-08-15,2022-08-15,太陽株式会社,,株式会社,東京都,江東区,東陽２丁目４番３９号新東陽ビル４階,,13,108,1350016,,,,,,,2022-08-15,1,,,,,タイヨウ,0
1649,7010701043067,新規,0,2022-08-15,2022-08-15,株式会社デメーテル,,株式会社,東京都,品川区,西五反田１丁目２６番２号五反田サンハイツ９１１,,13,109,1410031,,,,,,,2022-08-15,1,,,,,デメーテル,0
1652,7010703006352,新規,0,2022-08-15,2022-08-15,合同会社Ｎｅｗｌｙ　Ｒｅｂｏｒｎ,,合同会社,東京都,品川区,上大崎３丁目１１番２号－１０３,,13,109,1410021,,,,,,,2022-08-15,1,,,,,ニューリーリボーン,0
1658,7010901051407,新規,0,2022-08-15,2022-08-15,ネイビーブレザー株式会社,,株式会社,東京都,世田谷区,豪徳寺１丁目２２番５号,,13,112,1540021,,,,,,,2022-08-15,1,,,,,ネイビーブレザー,0
1666,7011103012065,新規,0,2022-08-15,2022-08-15,永楽合同会社,,合同会社,東京都,新宿区,西新宿３丁目３番１３号西新宿水間ビル２Ｆ,,13,104,1600023,,,,,,,2022-08-15,1,,,,,エイラク,0
1668,7011401024464,新規,0,2022-08-15,2022-08-15,クルール株式会社,,株式会社,東京都,板橋区,舟渡２丁目５番３号レ・スタ浮間公園１０２,,13,119,1740041,,,,,,,2022-08-15,1,,,,,クルール,0
1669,7011401024472,新規,0,2022-08-15,2022-08-15,ぱれっとミュージックマネジメント株式会社,,株式会社,東京都,板橋区,蓮沼町６番１５号,,13,119,1740052,,,,,,,2022-08-15,1,,,,,パレットミュージックマネジメント,0
1671,7011403003747,新規,0,2022-08-15,2022-08-15,ｅえん合同会社,,合同会社,東京都,板橋区,高島平７丁目２９番１２－４０１号,,13,119,1750082,,,,,,,2022-08-15,1,,,,,イーエン,0
1672,7011501028381,新規,0,2022-08-15,2022-08-15,路人株式会社,,株式会社,東京都,北区,浮間１丁目１番１４号リムジンビル２０９,,13,117,1150051,,,,,,,2022-08-15,1,,,,,ロニン,0
1674,7011701025526,新規,0,2022-08-15,2022-08-15,株式会社サトカ,,株式会社,東京都,江戸川区,松江７丁目１９番２号,,13,123,1320025,,,,,,,2022-08-15,1,,,,,サトカ,0
1681,7012401039535,新規,0,2022-08-15,2022-08-15,株式会社アールコンセプト,,株式会社,東京都,府中市,府中町２丁目３－６,,13,206,1830055,,,,,,,2022-08-15,1,,,,,アールコンセプト,0
1699,7020001147749,新規,0,2022-08-15,2022-08-15,株式会社Ａ．Ｓ．ＬＩＮＥ,,株式会社,神奈川県,川崎市川崎区,四谷上町１６番３－１０２号,,14,131,2100828,,,,,,,2022-08-15,1,,,,,エーエスライン,0
1700,7020001147781,新規,0,2022-08-15,2022-08-15,株式会社日嵩建設,,株式会社,神奈川県,横浜市旭区,白根６丁目５７番１号,,14,112,2410005,,,,,,,2022-08-15,1,,,,,ニッコウケンセツ,0
1709,7030001149629,新規,0,2022-08-15,2022-08-15,株式会社Ｄ’ｓ　ＧＲａｎｄ,,株式会社,埼玉県,本庄市,児玉町吉田林３０１番地,,11,211,3670211,,,,,,,2022-08-15,1,,,,,ディーエスグランド,0
1710,7030001149653,新規,0,2022-08-15,2022-08-15,株式会社Ｅｎｓｉｎ,,株式会社,埼玉県,草加市,弁天２丁目３０番１６号,,11,221,3400004,,,,,,,2022-08-15,1,,,,,エンシン,0
1715,7040001124688,新規,0,2022-08-15,2022-08-15,株式会社国際アルバトロス,,株式会社,千葉県,白井市,木８２５－４,,12,232,2701437,,,,,,,2022-08-15,1,,,,,コクサイアルバトロス,0
1716,7040001124696,新規,0,2022-08-15,2022-08-15,株式会社マルクコーポレーション,,株式会社,千葉県,富里市,七栄６５３番地５４,,12,233,2860221,,,,,,,2022-08-15,1,,,,,マルクコーポレーション,0
1717,7040001124705,新規,0,2022-08-15,2022-08-15,株式会社Ｓａｃａｎａ,,株式会社,千葉県,船橋市,古和釜町５８９番地４１号,,12,204,2740061,,,,,,,2022-08-15,1,,,,,サカナ,0
1722,7040005021709,新規,0,2022-08-15,2022-08-15,特定非営利活動法人ふれあい広場ながれやま,,その他の設立登記法人,千葉県,流山市,向小金３丁目１４１番地の６４,,12,220,2700143,,,,,,,2022-08-15,1,,,,,フレアイヒロバナガレヤマ,0
1725,7050003006768,新規,0,2022-08-15,2022-08-15,合同会社ノア,,合同会社,茨城県,取手市,白山２丁目２３番１６号,,08,217,3020023,,,,,,,2022-08-15,1,,,,,ノア,0
1734,7080105006275,新規,0,2022-08-15,2022-08-15,一般社団法人福祉芸術支援機構,,その他の設立登記法人,静岡県,三島市,中島９４番地の１,,22,206,4110814,,,,,,,2022-08-15,1,,,,,フクシゲイジュツシエンキコウ,0
1742,7100001035615,新規,0,2022-08-15,2022-08-15,株式会社ＡｓｈＤ,,株式会社,長野県,木曽郡大桑村,大字野尻３１４０番地,,20,430,3995504,,,,,,,2022-08-15,1,,,,,アッシュディー,0
1744,7100003006655,新規,0,2022-08-15,2022-08-15,スマイルハート合同会社,,合同会社,長野県,長野市,大字鶴賀南千歳町８６０番地６懐石舎ビル１階,,20,201,3800822,,,,,,,2022-08-15,1,,,,,スマイルハート,0
1760,7120001248090,新規,0,2022-08-15,2022-08-15,株式会社ＶＩＶＡ　ＬＡ　ＶＩＤＡ　ＦＡＣＴＯＲＹ,,株式会社,大阪府,大阪市福島区,福島６丁目８番１３－８０５号,,27,103,5530003,,,,,,,2022-08-15,1,,,,,ビバラビダファクトリー,0
1761,7120001248140,新規,0,2022-08-15,2022-08-15,ＪＡＰＡＮ‐ＥＳＣＯ株式会社,,株式会社,大阪府,大阪市北区,天神橋２丁目２番１０号ハイマウントビル３０３号,,27,127,5300041,,,,,,,2022-08-15,1,,,,,ジャパンエスコ,0
1762,7120001248165,新規,0,2022-08-15,2022-08-15,裕華株式会社,,株式会社,大阪府,大阪市浪速区,敷津西２丁目８番１号,,27,111,5560015,,,,,,,2022-08-15,1,,,,,ユウカ,0
1767,7120101066054,新規,0,2022-08-15,2022-08-15,株式会社Ａｄｖｅｎｔｕｒｅ　Ｗｏｒｋｓ,,株式会社,大阪府,泉大津市,松之浜町２丁目３－７,,27,206,5950072,,,,,,,2022-08-15,1,,,,,アドベンチャーワークス,0
1769,7120901046370,新規,0,2022-08-15,2022-08-15,株式会社バースタイプ,,株式会社,大阪府,吹田市,豊津町９番２２号大同門本部ビル６Ｆ,,27,205,5640051,,,,,,,2022-08-15,1,,,,,バースタイプ,0
1779,7130001072424,新規,0,2022-08-15,2022-08-15,株式会社ネクストステージ,,株式会社,京都府,京都市下京区,七条通東洞院東入る材木町４９９番地２第１キョートビル内,,26,106,6000000,,,,,,,2022-08-15,1,,,,,ネクストステージ,0
1801,7170001017219,新規,0,2022-08-15,2022-08-15,株式会社やまやま,,株式会社,和歌山県,伊都郡かつらぎ町,大字丁ノ町１５２６番地,,30,341,6497121,,,,,,,2022-08-15,1,,,,,ヤマヤマ,0
1808,7180001152601,新規,0,2022-08-15,2022-08-15,株式会社キトウコーポレーション,,株式会社,愛知県,名古屋市中川区,西伏屋２丁目９０３番地,,23,110,4540982,,,,,,,2022-08-15,1,,,,,キトウコーポレーション,0
1815,7180301036529,新規,0,2022-08-15,2022-08-15,株式会社ふじまる弁当,,株式会社,愛知県,安城市,御幸本町８番１号,,23,212,4460032,,,,,,,2022-08-15,1,,,,,フジマルベントウ,0
1816,7180301036537,新規,0,2022-08-15,2022-08-15,株式会社ＴＫＭ,,株式会社,愛知県,刈谷市,沖野町１丁目３番地２０,,23,210,4480808,,,,,,,2022-08-15,1,,,,,ティーケイエム,0
1819,7180303005424,新規,0,2022-08-15,2022-08-15,ＧＲＯＯＶＥ　ＰＲＯＤＵＣＴＩＯＮ合同会社,,合同会社,愛知県,額田郡幸田町,大字相見字阿原８３番地,,23,501,4440117,,,,,,,2022-08-15,1,,,,,グルーヴプロダクション,0
1822,7200001040373,新規,0,2022-08-15,2022-08-15,株式会社サンデーモーニング,,株式会社,岐阜県,大垣市,問屋町１－２,,21,202,5030855,,,,,,,2022-08-15,1,,,,,サンデーモーニング,0
1826,7230001019480,新規,0,2022-08-15,2022-08-15,株式会社柴田電気商会,,株式会社,富山県,小矢部市,水島５２２番地１,,16,209,9320102,,,,,,,2022-08-15,1,,,,,シバタデンキショウカイ,0
1834,7250001019710,新規,0,2022-08-15,2022-08-15,株式会社サントー,,株式会社,山口県,下松市,潮音町２丁目２番２号,,35,207,7440074,,,,,,,2022-08-15,1,,,,,サントー,0
1835,7260001003028,新規,0,2022-08-15,2022-08-15,株式会社サンビルド,,株式会社,岡山県,岡山市北区,青江５丁目１８番２３号,,33,101,7000941,,,,,,,2022-08-15,1,,,,,,0
1838,7270001008612,新規,0,2022-08-15,2022-08-15,株式会社前田工業,,株式会社,鳥取県,鳥取市,国府町宮下２２８番地２,,31,201,6800151,,,,,,,2022-08-15,1,,,,,マエタコウギョウ,0
1844,7290001098528,新規,0,2022-08-15,2022-08-15,株式会社Ｌｉｌｙ,,株式会社,福岡県,福岡市博多区,竹丘町２丁目５番１８号,,40,132,8120878,,,,,,,2022-08-15,1,,,,,リリー,0
1845,7290001098544,新規,0,2022-08-15,2022-08-15,株式会社Ｃｏｍｐａｓｓ,,株式会社,福岡県,福岡市中央区,鳥飼３丁目７番２１号ジョイフルプラザ１０１号,,40,133,8100053,,,,,,,2022-08-15,1,,,,,コンパス,0
1846,7290001098552,新規,0,2022-08-15,2022-08-15,株式会社ＳＰＡＲＫ,,株式会社,福岡県,宗像市,田熊６丁目４番１０－２０３号,,40,220,8113431,,,,,,,2022-08-15,1,,,,,エスパーク,0
1847,7290003012825,新規,0,2022-08-15,2022-08-15,合同会社Ｒｅｇｌｅｓｓ,,合同会社,福岡県,福岡市中央区,荒津２丁目１番７－４０３号ベルメゾン西公園テラス,,40,133,8100076,,,,,,,2022-08-15,1,,,,,リグレス,0
1854,7330003009486,新規,0,2022-08-15,2022-08-15,アバックス合同会社,,合同会社,熊本県,熊本市東区,長嶺南７丁目１６番１号,,43,102,8618039,,,,,,,2022-08-15,1,,,,,アバックス,0
1857,7350003004139,新規,0,2022-08-15,2022-08-15,合同会社Ａｒｃ　Ｔｒａｄｅ　Ｊａｐａｎ,,合同会社,宮崎県,都城市,南鷹尾町１２街区２１号,,45,202,8850082,,,,,,,2022-08-15,1,,,,,アークトレードジャパン,0
1858,7350005006091,新規,0,2022-08-15,2022-08-15,特定非営利活動法人五ヶ瀬すたいる,,その他の設立登記法人,宮崎県,西臼杵郡五ヶ瀬町,大字三ヶ所２２０１番地,,45,443,8821203,,,,,,,2022-08-15,1,,,,,ゴカセスタイル,0
1865,7380001033046,新規,0,2022-08-15,2022-08-15,株式会社やまでら本店,,株式会社,福島県,会津若松市,日新町１２番２３号,,07,202,9650861,,,,,,,2022-08-15,1,,,,,ヤマデラホンテン,0
1866,7380001033054,新規,0,2022-08-15,2022-08-15,株式会社ＧＩＯ損害調査,,株式会社,福島県,福島市,瀬上町字行人堂１番地の４７,,07,201,9600101,,,,,,,2022-08-15,1,,,,,ジオソンガイチョウサ,0
1867,7380003005258,新規,0,2022-08-15,2022-08-15,合同会社Ｃｕｂｅｓ,,合同会社,福島県,福島市,渡利字沼ノ町２番地の１,,07,201,9608141,,,,,,,2022-08-15,1,,,,,キューブス,0
1872,7420001017969,新規,0,2022-08-15,2022-08-15,興要運輸株式会社,,株式会社,青森県,黒石市,大字浅瀬石字扇田４３９番地１,,02,204,0360343,,,,,,,2022-08-15,1,,,,,コウヨウウンユ,0
1883,7480003001866,新規,0,2022-08-15,2022-08-15,合同会社ＳＯＮＡＩＬ,,合同会社,徳島県,鳴門市,撫養町林崎字北殿町２９番地,,36,202,7720016,,,,,,,2022-08-15,1,,,,,ソネイル,0
1886,7700150111247,新規,0,2022-08-15,2022-08-15,ＴＰＲＩ　Ｔｅｃｈｎｏｌｏｇｉｅｓ　Ｐｒｉｖａｔｅ　Ｌｉｍｉｔｅｄ,,外国会社等,,,,,,,,インド,,,,,,2022-08-15,1,,,,,テイーピーアールアイテクノロジーズプライベートリミテツド,0
1892,8010001228706,新規,0,2022-08-15,2022-08-15,株式会社９５ｂｅｔａ,,株式会社,東京都,千代田区,有楽町１丁目２番２号東宝日比谷ビル９階,,13,101,1000006,,,,,,,2022-08-15,1,,,,,キュウゴウベータ,0
1893,8010001228722,新規,0,2022-08-15,2022-08-15,株式会社ククナ,,株式会社,東京都,中央区,日本橋人形町２丁目２３番５号－４Ｆ,,13,102,1030013,,,,,,,2022-08-15,1,,,,,ククナ,0
1894,8010001228747,新規,0,2022-08-15,2022-08-15,株式会社ａｕｔｏｆｉｔ,,株式会社,東京都,文京区,本郷５丁目２５番１８－５０１号,,13,105,1130033,,,,,,,2022-08-15,1,,,,,オートフィット,0
1895,8010001228805,新規,0,2022-08-15,2022-08-15,ＢＢｓｔａｒｔ株式会社,,株式会社,東京都,千代田区,一番町１０番地２一番町Ｍビル８階,,13,101,1020082,,,,,,,2022-08-15,1,,,,,ビービースタート,0
1899,8010005035388,新規,0,2022-08-15,2022-08-15,一般社団法人ルビィホールディングス,,その他の設立登記法人,東京都,千代田区,丸の内３丁目１番１号東京共同会計事務所内,,13,101,1000005,,,,,,,2022-08-15,1,,,,,ルビィホールディングス,0
1900,8010005035396,新規,0,2022-08-15,2022-08-15,一般社団法人ＫＲＦ１０２,,その他の設立登記法人,東京都,千代田区,内幸町２丁目１番６号,,13,101,1000011,,,,,,,2022-08-15,1,,,,,ケイアールエフヒャクニ,0
1905,8010401169021,新規,0,2022-08-15,2022-08-15,株式会社ＹＯａ・Ｋ,,株式会社,東京都,港区,高輪３丁目２５番２２号,,13,103,1080074,,,,,,,2022-08-15,1,,,,,ヨアケ,0
1906,8010401169054,新規,0,2022-08-15,2022-08-15,株式会社一期一会,,株式会社,東京都,港区,南青山２丁目３番３号パークコート青山ザ・タワー７０３,,13,103,1070062,,,,,,,2022-08-15,1,,,,,イチゴイチエ,0
1907,8010401169062,新規,0,2022-08-15,2022-08-15,株式会社サイバーセキュリティインターナショナル,,株式会社,東京都,港区,高輪２丁目１－１３,,13,103,1080074,,,,,,,2022-08-15,1,,,,,サイバーセキュリティインターナショナル,0
1908,8010401169079,新規,0,2022-08-15,2022-08-15,ファイブ・スター・パートナーズ株式会社,,株式会社,東京都,港区,南青山１丁目２０番２号乃木坂ビジネスコート３０２号室,,13,103,1070062,,,,,,,2022-08-15,1,,,,,ファイブスターパートナーズ,0
1911,8010503006683,新規,0,2022-08-15,2022-08-15,合同会社飛鳥山,,合同会社,東京都,台東区,台東４丁目２９番１３－８０２号,,13,106,1100016,,,,,,,2022-08-15,1,,,,,アスカヤマ,0
1915,8010601061663,新規,0,2022-08-15,2022-08-15,株式会社ＬＩＮＫＥＲ,,株式会社,東京都,江東区,福住１丁目５番３号,,13,108,1350032,,,,,,,2022-08-15,1,,,,,リンカー,0
1916,8010603009685,新規,0,2022-08-15,2022-08-15,合同会社ＡＫクリエイト,,合同会社,東京都,墨田区,堤通１丁目１２番１３号,,13,107,1310034,,,,,,,2022-08-15,1,,,,,エーケークリエイト,0
1917,8010801033198,新規,0,2022-08-15,2022-08-15,株式会社インデックスタイプ,,株式会社,東京都,大田区,蒲田５丁目４０番地,,13,111,1440052,,,,,,,2022-08-15,1,,,,,インデックスタイプ,0
1921,8010901051389,新規,0,2022-08-15,2022-08-15,株式会社Ａ１Ｇｒｏｗｔｈ,,株式会社,東京都,世田谷区,北沢３丁目２１番４号あぶおーぼ２０２,,13,112,1550031,,,,,,,2022-08-15,1,,,,,エイワングロース,0
1922,8010903007579,新規,0,2022-08-15,2022-08-15,合同会社ＣＨＪＭ,,合同会社,東京都,世田谷区,下馬３丁目２５番４号,,13,112,1540002,,,,,,,2022-08-15,1,,,,,クジュム,0
1935,8011101099830,新規,0,2022-08-15,2022-08-15,リスヨンジャパン株式会社,,株式会社,東京都,新宿区,新宿１丁目３６－２－３Ｆ,,13,104,1600022,,,,,,,2022-08-15,1,,,,,リスヨンジャパン,0
1936,8011101099847,新規,0,2022-08-15,2022-08-15,株式会社Ｐｏｗｅｒ　Ｄｉａｍｏｎｄ　Ｓｙｓｔｅｍｓ,,株式会社,東京都,新宿区,西早稲田１丁目２２番３号,,13,104,1690051,,,,,,,2022-08-15,1,,,,,パワーダイヤモンドシステムズ,0
1939,8011201024036,新規,0,2022-08-15,2022-08-15,プロットコンサルティング株式会社,,株式会社,東京都,中野区,中野２丁目２６番１号,,13,114,1640001,,,,,,,2022-08-15,1,,,,,プロットコンサルティング,0
1941,8011401024463,新規,0,2022-08-15,2022-08-15,株式会社ｕｌｕ,,株式会社,東京都,板橋区,舟渡１丁目１４番２３号,,13,119,1740041,,,,,,,2022-08-15,1,,,,,ウル,0
1943,8011501028389,新規,0,2022-08-15,2022-08-15,株式会社アルカンシエル,,株式会社,東京都,北区,昭和町２丁目３番２－４０５号,,13,117,1140011,,,,,,,2022-08-15,1,,,,,アルカンシエル,0
1949,8012401039534,新規,0,2022-08-15,2022-08-15,株式会社Ｓａｎｉｗａ,,株式会社,東京都,府中市,紅葉丘１丁目１９番地の２３,,13,206,1830004,,,,,,,2022-08-15,1,,,,,サニワ,0
1951,8012403005542,新規,0,2022-08-15,2022-08-15,合同会社Ｒｅ’ｍａｋｅ,,合同会社,東京都,武蔵野市,緑町１丁目２番１７号,,13,203,1800012,,,,,,,2022-08-15,1,,,,,リメイク,0
1952,8012701017207,新規,0,2022-08-15,2022-08-15,株式会社ＢＲＩＤＧＥ,,株式会社,東京都,西東京市,芝久保町１丁目１２番６６－１４０４号,,13,229,1880014,,,,,,,2022-08-15,1,,,,,ブリッジ,0
1960,8020001147665,新規,0,2022-08-15,2022-08-15,株式会社湾岸経済研究所,,株式会社,神奈川県,横浜市金沢区,能見台１丁目１６番地４,,14,108,2360057,,,,,,,2022-08-15,1,,,,,ワンガンケイザイケンキュウジョ,0
1961,8020001147715,新規,0,2022-08-15,2022-08-15,ＬＩＦＥ　ＢＡＹ株式会社,,株式会社,神奈川県,横浜市西区,霞ケ丘７７－７,,14,103,2200035,,,,,,,2022-08-15,1,,,,,ライフベイ,0
1962,8020001147723,新規,0,2022-08-15,2022-08-15,株式会社ＡＶＥＮＩＲ,,株式会社,神奈川県,横浜市南区,上大岡五丁目３番３１号ラ・ジェンヌ上大岡２０５号,,14,105,2320000,,,,,,,2022-08-15,1,,,,,アヴニール,0
1963,8020001147780,新規,0,2022-08-15,2022-08-15,株式会社ｗｈｏ,,株式会社,神奈川県,川崎市高津区,溝口２丁目７番１８号ＫＴビーンズＩ３０１,00127526,14,134,2130001,,,,,,,2022-08-15,1,,,,,フー,0
1975,8030001149578,新規,0,2022-08-15,2022-08-15,株式会社ブルーローズ・ライフ,,株式会社,埼玉県,秩父市,野坂町２丁目１２番４４号,,11,207,3680033,,,,,,,2022-08-15,1,,,,,ブルーローズライフ,0
1976,8030001149628,新規,0,2022-08-15,2022-08-15,株式会社栄健ネット,,株式会社,埼玉県,さいたま市大宮区,桜木町２丁目３番地大宮マルイ７階,,11,103,3300854,,,,,,,2022-08-15,1,,,,,エイケンネット,0
1981,8030003019944,新規,0,2022-08-15,2022-08-15,合同会社ＯＮ　ＳＹＳＴＥＭ,,合同会社,埼玉県,新座市,野火止７丁目１６番１１－２０６号,,11,230,3520011,,,,,,,2022-08-15,1,,,,,オンシステム,0
1982,8030003019993,新規,0,2022-08-15,2022-08-15,合同会社ハクワークス,,合同会社,埼玉県,熊谷市,本町１丁目２２２,,11,202,3600042,,,,,,,2022-08-15,1,,,,,ハクワークス,0
1989,8040001124638,新規,0,2022-08-15,2022-08-15,株式会社アーキプラス,,株式会社,千葉県,千葉市美浜区,磯辺１丁目４７番３号,,12,106,2610012,,,,,,,2022-08-15,1,,,,,アーキプラス,0
1993,8050001051550,新規,0,2022-08-15,2022-08-15,株式会社ＢＩＫＡＳＨ,,株式会社,茨城県,日立市,幸町１丁目１２番１号,,08,202,3170073,,,,,,,2022-08-15,1,,,,,ビカス,0
1997,8050003006767,新規,0,2022-08-15,2022-08-15,合同会社オレンダーインターナショナル,,合同会社,茨城県,稲敷市,羽賀２２６７番地１－２号棟,,08,229,3000525,,,,,,,2022-08-15,1,,,,,オレンダーインターナショナル,0
2000,8070003004587,新規,0,2022-08-15,2022-08-15,合同会社ラミテック,,合同会社,群馬県,伊勢崎市,安堀町１８９７－１ＹＳファーストハイムＣ２０２,,10,204,3720007,,,,,,,2022-08-15,1,,,,,ラミテック,0
2004,8090003002151,新規,0,2022-08-15,2022-08-15,むうむうえのき合同会社,,合同会社,山梨県,北杜市,長坂町小荒間７９７番地,,19,209,4080031,,,,,,,2022-08-15,1,,,,,,0
2005,8090005007504,新規,0,2022-08-15,2022-08-15,一般社団法人スポーツバイタライザー,,その他の設立登記法人,山梨県,甲府市,朝気２丁目１番１６号,,19,201,4000862,,,,,,,2022-08-15,1,,,,,,0
2006,8100001035614,新規,0,2022-08-15,2022-08-15,株式会社ＨＡＲＢＯＲ,,株式会社,長野県,安曇野市,穂高柏原１５６５番３号,,20,220,3998304,,,,,,,2022-08-15,1,,,,,ハーバー,0
2008,8100003006654,新規,0,2022-08-15,2022-08-15,合同会社ガレージカスガ,,合同会社,長野県,伊那市,美篶９４８１番地,,20,209,3960111,,,,,,,2022-08-15,1,,,,,ガレージカスガ,0
2009,8110005016840,新規,0,2022-08-15,2022-08-15,ＮＰＯ法人こうけん新潟,,その他の設立登記法人,新潟県,新潟市中央区,学校町通１番町１２市役所前ビル３階,,15,103,9518126,,,,,,,2022-08-15,1,,,,,コウケンニイガタ,0
2022,8120001248107,新規,0,2022-08-15,2022-08-15,株式会社アシストホビー,,株式会社,大阪府,大阪市淀川区,西中島４丁目１１番２７号,,27,123,5320011,,,,,,,2022-08-15,1,,,,,アシストホビー,0
2023,8120001248115,新規,0,2022-08-15,2022-08-15,株式会社海月,,株式会社,大阪府,大阪市西区,阿波座１丁目２番２号,,27,106,5500011,,,,,,,2022-08-15,1,,,,,ミヅキ,0
2028,8120003022237,新規,0,2022-08-15,2022-08-15,Ｕｎｄｅｒ　Ｔｈｅ　Ｄａｙ合同会社,,合同会社,大阪府,枚方市,津田西町３丁目６番３１号,,27,210,5730126,,,,,,,2022-08-15,1,,,,,アンダーザデイ,0
2029,8120003022286,新規,0,2022-08-15,2022-08-15,合同会社今井総業,,合同会社,大阪府,大阪市東住吉区,山坂１丁目１９番２２号山坂長屋Ｂ,,27,121,5460035,,,,,,,2022-08-15,1,,,,,イマイソウギョウ,0
2030,8120003022303,新規,0,2022-08-15,2022-08-15,ルミエ合同会社,,合同会社,大阪府,大阪市平野区,加美北１丁目２３番２７号２０１号室,,27,126,5470001,,,,,,,2022-08-15,1,,,,,ルミエ,0
2033,8120101066037,新規,0,2022-08-15,2022-08-15,株式会社レッドマスク,,株式会社,大阪府,堺市堺区,三宝町４丁２４２番地３,,27,141,5900906,,,,,,,2022-08-15,1,,,,,レッドマスク,0
2034,8120101066053,新規,0,2022-08-15,2022-08-15,株式会社ＶＩＸＴ,,株式会社,大阪府,岸和田市,土生町５丁目２番４号,,27,202,5960825,,,,,,,2022-08-15,1,,,,,ヴィクスト,0
2035,8120101066094,新規,0,2022-08-15,2022-08-15,株式会社Ｐｉｓｔｙ,,株式会社,大阪府,堺市西区,浜寺昭和町５丁６６３番地３－３０３号,,27,144,5928345,,,,,,,2022-08-15,1,,,,,ピスティ,0
2039,8122001036136,新規,0,2022-08-15,2022-08-15,豊大株式会社,,株式会社,大阪府,東大阪市,高井田１番１０号－４０７号室,,27,227,5770053,,,,,,,2022-08-15,1,,,,,ホウダイ,0
2040,8122001036169,新規,0,2022-08-15,2022-08-15,山工株式会社,,株式会社,大阪府,大東市,三箇６丁目１番２８号,,27,218,5740077,,,,,,,2022-08-15,1,,,,,ヤマコウ,0
2041,8130001072415,新規,0,2022-08-15,2022-08-15,株式会社雄建,,株式会社,京都府,京都市北区,大宮薬師山東町２０番地の３,,26,101,6038474,,,,,,,2022-08-15,1,,,,,ユウケン,0
2042,8130001072464,新規,0,2022-08-15,2022-08-15,株式会社Ｂｒｏｏｍｅ,,株式会社,京都府,京都市右京区,西院寿町４０番地３,,26,108,6150033,,,,,,,2022-08-15,1,,,,,ブルーム,0
2046,8130003008128,新規,0,2022-08-15,2022-08-15,合同会社Ｌ‐ＡＣＴグループ,,合同会社,京都府,京都市伏見区,深草大亀谷大山町８６－１４,,26,109,6120847,,,,,,,2022-08-15,1,,,,,ラクトグループ,0
2053,8140001127044,新規,0,2022-08-15,2022-08-15,株式会社ＡＲＥＡ,,株式会社,兵庫県,神戸市兵庫区,中道通２丁目１番１７号,,28,105,6520801,,,,,,,2022-08-15,1,,,,,エリア,0
2054,8140001127069,新規,0,2022-08-15,2022-08-15,株式会社金俊,,株式会社,兵庫県,姫路市,花田町高木３４６番地,,28,201,6710256,,,,,,,2022-08-15,1,,,,,カネトシ,0
2055,8140001127093,新規,0,2022-08-15,2022-08-15,株式会社プロフーモ,,株式会社,兵庫県,明石市,野々上３丁目１３番地の１西明石グリーンハイツ１Ｆ,,28,203,6730017,,,,,,,2022-08-15,1,,,,,プロフーモ,0
2057,8140003018027,新規,0,2022-08-15,2022-08-15,ＫＯＢＥイノベーションガレージ合同会社,,合同会社,兵庫県,神戸市中央区,御幸通８丁目１番６号神戸国際会館２２Ｆ,,28,110,6510087,,,,,,,2022-08-15,1,,,,,コーベイノベーションガレージ,0
2059,8160003002648,新規,0,2022-08-15,2022-08-15,合同会社ＴＩＧ,,合同会社,滋賀県,甲賀市,水口町新城５８５番地８,,25,209,5280007,,,,,,,2022-08-15,1,,,,,ティーアイジー,0
2065,8180001152567,新規,0,2022-08-15,2022-08-15,フジファクトリー株式会社,,株式会社,愛知県,名古屋市緑区,鳴海町字山下７３番地の１,,23,114,4580801,,,,,,,2022-08-15,1,,,,,フジファクトリー,0
2066,8180001152575,新規,0,2022-08-15,2022-08-15,株式会社冨田塗装,,株式会社,愛知県,小牧市,安田町１２１番地オフィス１２１Ａ,,23,219,4850014,,,,,,,2022-08-15,1,,,,,トミタトソウ,0
2067,8180001152583,新規,0,2022-08-15,2022-08-15,株式会社名伸サービス,,株式会社,愛知県,名古屋市中川区,荒江町１４番８号,,23,110,4540032,,,,,,,2022-08-15,1,,,,,メイシンサービス,0
2068,8180001152600,新規,0,2022-08-15,2022-08-15,辻設備株式会社,,株式会社,愛知県,津島市,杁前町４丁目２３番地１,,23,208,4960033,,,,,,,2022-08-15,1,,,,,ツジセツビ,0
2069,8180001152609,新規,0,2022-08-15,2022-08-15,マナビポップ株式会社,,株式会社,愛知県,豊明市,新栄町６丁目１８２番地,,23,229,4701154,,,,,,,2022-08-15,1,,,,,マナビポップ,0
2070,8180001152617,新規,0,2022-08-15,2022-08-15,Ｔｅｃｈｋｎｏｗ　Ｓｙｓｔｅｍｓ株式会社,,株式会社,愛知県,名古屋市中村区,名駅１丁目１番１号ＪＰタワー２１階,,23,105,4500002,,,,,,,2022-08-15,1,,,,,テクノシステムズ,0
2084,8200001040372,新規,0,2022-08-15,2022-08-15,ＮＥＷアカント株式会社,,株式会社,岐阜県,大垣市,問屋町１－２,,21,202,5030855,,,,,,,2022-08-15,1,,,,,ニューアカント,0
2091,8250003003133,新規,0,2022-08-15,2022-08-15,合同会社ＤＡＩＣＨＩ,,合同会社,山口県,山陽小野田市,大字東高泊１９１５番地２３,,35,216,7560088,,,,,,,2022-08-15,1,,,,,ダイチ,0
2097,8260001037140,新規,0,2022-08-15,2022-08-15,株式会社井上架設工業,,株式会社,岡山県,岡山市東区,城東台西１丁目９番１４号,,33,103,7090624,,,,,,,2022-08-15,1,,,,,イノウエカセツコウギョウ,0
2099,8270001008611,新規,0,2022-08-15,2022-08-15,株式会社明神電設,,株式会社,鳥取県,鳥取市,丸山町８３番地５,,31,201,6800006,,,,,,,2022-08-15,1,,,,,メイシンデンセツ,0
2102,8290001098543,新規,0,2022-08-15,2022-08-15,株式会社Ａｖｅｃ　ａｍｏｕｒ,,株式会社,福岡県,福岡市中央区,荒戸２丁目２番８号ロワールマンション大濠ＩＩ２０６号,00127520,40,133,8100062,,,,,,,2022-08-15,1,,,,,アヴェカムール,0
2103,8290001098568,新規,0,2022-08-15,2022-08-15,株式会社原賀保温,,株式会社,福岡県,糟屋郡篠栗町,大字篠栗２１４９番地５,,40,342,8112405,,,,,,,2022-08-15,1,,,,,ハラガホオン,0
2104,8290001098618,新規,0,2022-08-15,2022-08-15,株式会社八恵堂,,株式会社,福岡県,福岡市南区,横手４丁目１９－１８,,40,134,8111311,,,,,,,2022-08-15,1,,,,,ハッケイドウ,0
2105,8290801028798,新規,0,2022-08-15,2022-08-15,株式会社フロンティア,,株式会社,福岡県,遠賀郡水巻町,中央７番２０号ディアスＢＥＮ１０１号,,40,382,8070023,,,,,,,2022-08-15,1,,,,,フロンティア,0
2106,8290801028815,新規,0,2022-08-15,2022-08-15,株式会社セカンドメタル,,株式会社,福岡県,田川郡福智町,伊方４３４６番地,,40,610,8221211,,,,,,,2022-08-15,1,,,,,セカンドメタル,0
2112,8330001030030,新規,0,2022-08-15,2022-08-15,株式会社ＳＥＳＳＥＩ,,株式会社,熊本県,熊本市南区,護藤町１３３７番地,,43,104,8614117,,,,,,,2022-08-15,1,,,,,セッセイ,0
2118,8340001024964,新規,0,2022-08-15,2022-08-15,株式会社岩川建材,,株式会社,鹿児島県,鹿児島市,小山田町５８４３番地,,46,201,8911231,,,,,,,2022-08-15,1,,,,,イワガワケンザイ,0
2128,8370001048936,新規,0,2022-08-15,2022-08-15,株式会社アークシルクガーデン,,株式会社,宮城県,仙台市宮城野区,小田原１丁目１０番２５－８１２号,,04,102,9830803,,,,,,,2022-08-15,1,,,,,アークシルクガーデン,0
2129,8370001048944,新規,0,2022-08-15,2022-08-15,株式会社ＬＯＶＥ　ＡＬＬ,,株式会社,宮城県,柴田郡大河原町,字幸町１１番地８,,04,321,9891216,,,,,,,2022-08-15,1,,,,,ラヴオール,0
2133,8380001033045,新規,0,2022-08-15,2022-08-15,株式会社木幡ベース,,株式会社,福島県,二本松市,木幡字松木下９番地５,,07,210,9640203,,,,,,,2022-08-15,1,,,,,コハタベース,0
2134,8380001033053,新規,0,2022-08-15,2022-08-15,いわき梅田水産株式会社,,株式会社,福島県,いわき市,自由ケ丘７番地の６タウニィセブン２０５,,07,204,9708033,,,,,,,2022-08-15,1,,,,,イワキウメダスイサン,0
2152,8430001087300,新規,0,2022-08-15,2022-08-15,株式会社エコテクノロジー,,株式会社,北海道,小樽市,星野町２５０番地１１,,01,203,0470262,,,,,,,2022-08-15,1,,,,,エコテクノロジー,0
2153,8430001087309,新規,0,2022-08-15,2022-08-15,株式会社薩長工務店,,株式会社,北海道,札幌市東区,北四十一条東２丁目１番６－２０１号,,01,103,0070841,,,,,,,2022-08-15,1,,,,,サッチョウコウムテン,0
2158,8430003014178,新規,0,2022-08-15,2022-08-15,合同会社江別江労舎,,合同会社,北海道,江別市,文京台南町２２番地の１１,,01,217,0690835,,,,,,,2022-08-15,1,,,,,エベツコウロウシャ,0
2159,8430003014186,新規,0,2022-08-15,2022-08-15,ＪＵＧＯ合同会社,,合同会社,北海道,札幌市豊平区,月寒東三条１９丁目２番１３号ワイズムーンＡ棟,,01,105,0620053,,,,,,,2022-08-15,1,,,,,ジューゴ,0
2162,8460101007238,新規,0,2022-08-15,2022-08-15,株式会社ビーンズテック,,株式会社,北海道,上川郡清水町,御影東六条５丁目５番地１,,01,636,0890376,,,,,,,2022-08-15,1,,,,,ビーンズテック,0
2168,8500003002877,新規,0,2022-08-15,2022-08-15,合同会社武田,,合同会社,愛媛県,松山市,余戸中３丁目１０番３５号,,38,201,7900045,,,,,,,2022-08-15,1,,,,,タケダ,0
2172,9010001228705,新規,0,2022-08-15,2022-08-15,株式会社企画屋本舗,,株式会社,東京都,中央区,日本橋堀留町１丁目１番７号西田ビル４Ｆ,,13,102,1030012,,,,,,,2022-08-15,1,,,,,キカクヤホンポ,0
2173,9010001228721,新規,0,2022-08-15,2022-08-15,株式会社ＡＨＰ,,株式会社,東京都,千代田区,飯田橋４丁目５番１４号飯田橋サンポーロハイツ５０,,13,101,1020072,,,,,,,2022-08-15,1,,,,,エーエイチピー,0
2174,9010001228795,新規,0,2022-08-15,2022-08-15,株式会社ジュノエスク,,株式会社,東京都,千代田区,飯田橋１丁目８番９号,,13,101,1020072,,,,,,,2022-08-15,1,,,,,ジュノエスク,0
2175,9010001228804,新規,0,2022-08-15,2022-08-15,ＲＭＳ株式会社,,株式会社,東京都,千代田区,一番町１０番地２一番町Ｍビル６階,,13,101,1020082,,,,,,,2022-08-15,1,,,,,アールエムエス,0
2176,9010001228820,新規,0,2022-08-15,2022-08-15,全共連第２回劣後ローン流動化株式会社,,株式会社,東京都,千代田区,丸の内３丁目１番１号東京共同会計事務所内,,13,101,1000005,,,,,,,2022-08-15,1,,,,,ゼンキョウレンダイニカイレツゴローンリュウドウカ,0
2178,9010003038342,新規,0,2022-08-15,2022-08-15,合同会社ルビィ,,合同会社,東京都,千代田区,丸の内３丁目１番１号東京共同会計事務所内,,13,101,1000005,,,,,,,2022-08-15,1,,,,,ルビィ,0
2179,9010003038391,新規,0,2022-08-15,2022-08-15,アトラス合同会社,,合同会社,東京都,中央区,日本橋蛎殻町２丁目１５－９,,13,102,1030014,,,,,,,2022-08-15,1,,,,,アトラス,0
2180,9010003038400,新規,0,2022-08-15,2022-08-15,九段下ソーラー合同会社,,合同会社,東京都,千代田区,麹町２丁目８番地ＭＬＣ麹町ビル４階フィンポート税理士法人内,,13,101,1020083,,,,,,,2022-08-15,1,,,,,クダンシタソーラー,0
2182,9010005035379,新規,0,2022-08-15,2022-08-15,印西ファイブ開発一般社団法人,,その他の設立登記法人,東京都,千代田区,神田神保町１丁目１１番地さくら綜合事務所内,,13,101,1010051,,,,,,,2022-08-15,1,,,,,インザイファイブカイハツ,0
2183,9010005035387,新規,0,2022-08-15,2022-08-15,一般社団法人サポートホールディングス４４号,,その他の設立登記法人,東京都,千代田区,丸の内３丁目１番１号東京共同会計事務所内,,13,101,1000005,,,,,,,2022-08-15,1,,,,,サポートホールディングスヨンジュウヨンゴウ,0
2184,9010005035395,新規,0,2022-08-15,2022-08-15,一般社団法人ＫＲＦ１０１,,その他の設立登記法人,東京都,千代田区,内幸町２丁目１番６号,,13,101,1000011,,,,,,,2022-08-15,1,,,,,ケイアールエフヒャクイチ,0
2189,9010401169086,新規,0,2022-08-15,2022-08-15,Ａｌｆａ　Ｅｘｃｌｕｓｉｖｅ株式会社,,株式会社,東京都,港区,芝５丁目２９番２２－５０５号,,13,103,1080014,,,,,,,2022-08-15,1,,,,,アルファエクスクルーシブ,0
2198,9010403028216,新規,0,2022-08-15,2022-08-15,合同会社サムライドライバーズ,,合同会社,東京都,港区,白金台４丁目１０番１０号,,13,103,1080071,,,,,,,2022-08-15,1,,,,,サムライドライバーズ,0
2199,9010403028265,新規,0,2022-08-15,2022-08-15,Ｉｎｆｏｔｒｅｅ　Ｇｌｏｂａｌ　Ｓｏｌｕｔｉｏｎｓ合同会社,,合同会社,東京都,港区,赤坂２丁目１４番５号Ｄａｉｗａ赤坂ビル４階,,13,103,1070052,,,,,,,2022-08-15,1,,,,,インフォツリーグローバルソリューションズ,0
2206,9010701043065,新規,0,2022-08-15,2022-08-15,株式会社ＧＴＰ　Ｍｅｄｉｃａｌ,,株式会社,東京都,品川区,大崎２丁目９番２－３２０１号,,13,109,1410032,,,,,,,2022-08-15,1,,,,,ジーティーピーメディカル,0
2209,9010801033189,新規,0,2022-08-15,2022-08-15,株式会社Ｂｅ　Ｇｒｅｅｎ,,株式会社,東京都,大田区,東矢口３丁目７番３号醍醐マンション３０５,,13,111,1460094,,,,,,,2022-08-15,1,,,,,ビーグリーン,0
2210,9010801033206,新規,0,2022-08-15,2022-08-15,株式会社フォレスト,,株式会社,東京都,大田区,大森北１丁目８番１５号ラトゥールヴェルディ４０１号室,,13,111,1430016,,,,,,,2022-08-15,1,,,,,フォレスト,0
2215,9010901051396,新規,0,2022-08-15,2022-08-15,マーヴェリック株式会社,,株式会社,東京都,世田谷区,羽根木１丁目２９番２号,,13,112,1560042,,,,,,,2022-08-15,1,,,,,マーヴェリック,0
2226,9011001149148,新規,0,2022-08-15,2022-08-15,株式会社ｄｅｗａｒｓ　ｍａｎａｇｅｍｅｎｔ,,株式会社,東京都,渋谷区,道玄坂１丁目１３－５,,13,113,1500043,,,,,,,2022-08-15,1,,,,,デュワーズマネジメント,0
2230,9011103012039,新規,0,2022-08-15,2022-08-15,合同会社ＳＫクリーニング,,合同会社,東京都,新宿区,西新宿３丁目３－１３,,13,104,1600023,,,,,,,2022-08-15,1,,,,,エスケイクリーニング,0
2233,9011401024462,新規,0,2022-08-15,2022-08-15,株式会社ウィスタリア,,株式会社,東京都,板橋区,前野町６丁目３９－５,,13,119,1740063,,,,,,,2022-08-15,1,,,,,ウィスタリア,0
2247,9013301049507,新規,0,2022-08-15,2022-08-15,ヤーミージャパン株式会社,,株式会社,東京都,豊島区,東池袋３丁目１番１号サンシャイン６０、４５階,,13,116,1700013,,,,,,,2022-08-15,1,,,,,ヤーミージャパン,0
2257,9021001076770,新規,0,2022-08-15,2022-08-15,湘南クラウド株式会社,,株式会社,神奈川県,藤沢市,江の島１丁目４番１４号,,14,205,2510036,,,,,,,2022-08-15,1,,,,,ショウナンクラウド,0
2258,9021003012030,新規,0,2022-08-15,2022-08-15,Ｐｌａｎｄｏｒ　ＳＫ合同会社,,合同会社,神奈川県,相模原市中央区,緑が丘２丁目３５番１２号,,14,152,2520225,,,,,,,2022-08-15,1,,,,,プランドールエスケー,0
2260,9030001149643,新規,0,2022-08-15,2022-08-15,ＷｉｎＷｉｎ株式会社,,株式会社,埼玉県,蕨市,北町４丁目１０番１４号,,11,223,3350001,,,,,,,2022-08-15,1,,,,,,0
2261,9030001149651,新規,0,2022-08-15,2022-08-15,株式会社フォレスト,,株式会社,埼玉県,越谷市,大字大竹４５０番地,,11,222,3430034,,,,,,,2022-08-15,1,,,,,フォレスト,0
2262,9030001149684,新規,0,2022-08-15,2022-08-15,株式会社ＡｉＳＫ,,株式会社,埼玉県,越谷市,赤山町１丁目４８,,11,222,3430807,,,,,,,2022-08-15,1,,,,,アイエスケー,0
2266,9040001124678,新規,0,2022-08-15,2022-08-15,Ｌａｒｇｅｓｔ株式会社,,株式会社,千葉県,千葉市若葉区,若松町２３９２番地３,,12,104,2640021,,,,,,,2022-08-15,1,,,,,ラージスト,0
2270,9050003006758,新規,0,2022-08-15,2022-08-15,ダイヤモンドＶＡ合同会社,,合同会社,茨城県,水戸市,上水戸２丁目４番２６号上水戸ホームズＤ２０３号室,,08,201,3100041,,,,,,,2022-08-15,1,,,,,ダイヤモンドブイエイ,0
2277,9070001039535,新規,0,2022-08-15,2022-08-15,株式会社介英会,,株式会社,群馬県,前橋市,公田町６０４番地１,,10,201,3792146,,,,,,,2022-08-15,1,,,,,カイエイカイ,0
2278,9070001039551,新規,0,2022-08-15,2022-08-15,株式会社アポロ島崎,00127525,株式会社,群馬県,高崎市,中豊岡町６４番地２,,10,202,3700874,,,,,,,2022-08-15,1,,,,,アポロシマザキ,0
2280,9080003002853,新規,0,2022-08-15,2022-08-15,合同会社オリエント・トレーディング,,合同会社,静岡県,静岡市駿河区,寺田３－１０,,22,102,4210137,,,,,,,2022-08-15,1,,,,,オリエントトレーディング,0
2283,9100001035605,新規,0,2022-08-15,2022-08-15,株式会社雅,,株式会社,長野県,飯田市,上郷飯沼３１６９番地２,,20,205,3950002,,,,,,,2022-08-15,1,,,,,ミヤビ,0
2284,9100001035613,新規,0,2022-08-15,2022-08-15,株式会社福田,,株式会社,長野県,小諸市,加増２丁目７番１号,,20,208,3840061,,,,,,,2022-08-15,1,,,,,フクダ,0
2300,9120001248080,新規,0,2022-08-15,2022-08-15,遠航株式会社,,株式会社,大阪府,大阪市中央区,谷町６丁目１１番８－２０１号,,27,128,5420012,,,,,,,2022-08-15,1,,,,,エンコウ,0
2301,9120001248114,新規,0,2022-08-15,2022-08-15,株式会社ＣＯＮＮＥＣＴ,,株式会社,大阪府,大阪市西区,靱本町１丁目１３番３号,,27,106,5500004,,,,,,,2022-08-15,1,,,,,コネクト,0
2302,9120001248139,新規,0,2022-08-15,2022-08-15,株式会社Ｕ会計システム,,株式会社,大阪府,大阪市中央区,大手通１丁目３番５号,,27,128,5400021,,,,,,,2022-08-15,1,,,,,ユーカイケイシステム,0
2303,9120001248147,新規,0,2022-08-15,2022-08-15,株式会社Ｐｈｒａｓｅ,,株式会社,大阪府,大阪市中央区,材木町１番６号,,27,128,5400010,,,,,,,2022-08-15,1,,,,,フレーズ,0
2304,9120001248171,新規,0,2022-08-15,2022-08-15,株式会社Ｋａｅｄｅ・Ｍｐｓｇ,,株式会社,大阪府,寝屋川市,寿町５０番１７号,,27,215,5720029,,,,,,,2022-08-15,1,,,,,カエデエムピーエスジー,0
2310,9120003022252,新規,0,2022-08-15,2022-08-15,合同会社ＭＯ企画,,合同会社,大阪府,大阪市東淀川区,淡路３丁目２０番４７号,,27,114,5330032,,,,,,,2022-08-15,1,,,,,エムオーキカク,0
2317,9120901046369,新規,0,2022-08-15,2022-08-15,Ｒｅ‐Ｊｉｎ株式会社,,株式会社,大阪府,茨木市,中津町１６－２４,,27,211,5670824,,,,,,,2022-08-15,1,,,,,レジン,0
2322,9130001072406,新規,0,2022-08-15,2022-08-15,株式会社ＡｓＬ,,株式会社,京都府,京都市北区,西賀茂円峰１－４２,,26,101,6038806,,,,,,,2022-08-15,1,,,,,エーエスエル,0
2323,9130001072414,新規,0,2022-08-15,2022-08-15,株式会社おまめ,,株式会社,京都府,京都市上京区,堀川通今出川上る実相院町１３９番地３,,26,102,6020059,,,,,,,2022-08-15,1,,,,,オマメ,0
2324,9130001072447,新規,0,2022-08-15,2022-08-15,株式会社キョウ・クリエイト,,株式会社,京都府,京都市下京区,四条堀川西入唐津屋町５３３,,26,106,6000000,,,,,,,2022-08-15,1,,,,,キョウクリエイト,0
2337,9150001025766,新規,0,2022-08-15,2022-08-15,株式会社雨漏検査,,株式会社,奈良県,奈良市,神殿町２２０番地の１２３,,29,201,6308441,,,,,,,2022-08-15,1,,,,,アマモリケンサ,0
2338,9150003002747,新規,0,2022-08-15,2022-08-15,ｗｅｌｌ　ｕｐ合同会社,,合同会社,奈良県,北葛城郡広陵町,馬見中１丁目４番地１５－１,,29,426,6350832,,,,,,,2022-08-15,1,,,,,ウェルアップ,0
2347,9180001152599,新規,0,2022-08-15,2022-08-15,株式会社ＴＡＣマネジメント,,株式会社,愛知県,名古屋市瑞穂区,新開町２１番４号,,23,108,4670856,,,,,,,2022-08-15,1,,,,,ティーエーシーマネジメント,0
2348,9180001152608,新規,0,2022-08-15,2022-08-15,五常コンサルティング株式会社,,株式会社,愛知県,名古屋市緑区,黒沢台４丁目１６０３番地の２,,23,114,4580003,,,,,,,2022-08-15,1,,,,,ゴジョウコンサルティング,0
2349,9180001152624,新規,0,2022-08-15,2022-08-15,株式会社トキワ工業,,株式会社,愛知県,名古屋市中川区,中京南通２丁目１３番地,,23,110,4540816,,,,,,,2022-08-15,1,,,,,トキワコウギョウ,0
2350,9180001152640,新規,0,2022-08-15,2022-08-15,株式会社ネクスト,,株式会社,愛知県,春日井市,知多町２丁目９１番地１,,23,206,4860947,,,,,,,2022-08-15,1,,,,,ネクスト,0
2354,9180301036527,新規,0,2022-08-15,2022-08-15,株式会社ＫＭ　ｅｘｃｅｅｄ,,株式会社,愛知県,安城市,相生町１９番１号,,23,212,4460037,,,,,,,2022-08-15,1,,,,,ケイエムエクシード,0
2355,9180301036535,新規,0,2022-08-15,2022-08-15,株式会社大樹,,株式会社,愛知県,安城市,新田町出郷５３番地,,23,212,4460061,,,,,,,2022-08-15,1,,,,,ダイジュ,0
2357,9190001029697,新規,0,2022-08-15,2022-08-15,株式会社ハッピーマフィン,,株式会社,三重県,桑名市,北魚町３６番地,,24,205,5110024,,,,,,,2022-08-15,1,,,,,ハッピーマフィン,0
2361,9200001040371,新規,0,2022-08-15,2022-08-15,株式会社一番ジャパン,,株式会社,岐阜県,大垣市,問屋町１－２,,21,202,5030855,,,,,,,2022-08-15,1,,,,,イチバンジャパン,0
2364,9210001019043,新規,0,2022-08-15,2022-08-15,株式会社ＴｒｕｓｔＴｈｒｅｅ,,株式会社,福井県,敦賀市,三島町３７号２０番地,,18,202,9140000,,,,,,,2022-08-15,1,,,,,トラストスリー,0
2374,9290001098501,新規,0,2022-08-15,2022-08-15,株式会社ｍｉｒａｉｅｘ,,株式会社,福岡県,筑後市,大字西牟田４９８９番地４,,40,211,8330053,,,,,,,2022-08-15,1,,,,,ミライクス,0
2375,9290001098526,新規,0,2022-08-15,2022-08-15,株式会社Ｄｒｅａｍ　Ｃｒｅａｔｅ,,株式会社,福岡県,福岡市博多区,博多駅前３丁目７番３５号博多ハイテックビル５０５,,40,132,8120011,,,,,,,2022-08-15,1,,,,,ドリームクリエイト,0
2376,9290001098542,新規,0,2022-08-15,2022-08-15,株式会社インテリアシン,,株式会社,福岡県,那珂川市,片縄５丁目７番地１－１０１号,,40,231,8111201,,,,,,,2022-08-15,1,,,,,インテリアシン,0
2377,9290001098600,新規,0,2022-08-15,2022-08-15,株式会社Ｍ＆Ｍコンサルティング,,株式会社,福岡県,福岡市中央区,六本松４丁目２番６－１２０６号,,40,133,8100044,,,,,,,2022-08-15,1,,,,,エムアンドエムコンサルティング,0
2378,9290001098609,新規,0,2022-08-15,2022-08-15,株式会社エミライズ,,株式会社,福岡県,福岡市東区,下原３丁目１番４９－１０１号,,40,131,8130002,,,,,,,2022-08-15,1,,,,,エミライズ,0
2379,9290001098617,新規,0,2022-08-15,2022-08-15,株式会社ＴＡＫＥ１,,株式会社,福岡県,福岡市南区,市崎１丁目２番８号,,40,134,8150084,,,,,,,2022-08-15,1,,,,,テイクワン,0
2380,9290003012831,新規,0,2022-08-15,2022-08-15,Ｍ＆Ｍ合同会社,,合同会社,福岡県,福岡市博多区,住吉２丁目１７番２１号,,40,132,8120018,,,,,,,2022-08-15,1,,,,,エムアンドエム,0
2397,9360003012221,新規,0,2022-08-15,2022-08-15,合同会社ＰＬＡＹＰＬＡＮＥＴ,,合同会社,沖縄県,那覇市,字安里３８１番地１,,47,201,9020067,,,,,,,2022-08-15,1,,,,,プレイプラネット,0
2398,9360005006700,新規,0,2022-08-15,2022-08-15,一般社団法人ウーマンフードヘルス協会,,その他の設立登記法人,沖縄県,中頭郡北中城村,字喜舎場１４７８番地ＥＭウェルネス暮らしの発酵ライフスタイルリゾート２４４号室,,47,327,9012311,,,,,,,2022-08-15,1,,,,,ウーマンフードヘルスキョウカイ,0
2401,9370003005802,新規,0,2022-08-15,2022-08-15,合同会社シェルホ,,合同会社,宮城県,仙台市青葉区,貝ケ森１丁目５番１３号,,04,101,9810942,,,,,,,2022-08-15,1,,,,,シェルホ,0
2403,9380001005349,新規,0,2022-08-15,2022-08-15,サンテック印刷株式会社,,株式会社,福島県,郡山市,日和田町高倉字藤坦１番地の３９２,,07,203,9630531,,,,,,,2022-08-15,1,,,,,,0
2410,9410001013257,新規,0,2022-08-15,2022-08-15,株式会社ＲｅＶｉａｍ　Ｅｎｅｒｇｙ,,株式会社,秋田県,秋田市,旭北錦町３番３４号,,05,201,0100923,,,,,,,2022-08-15,1,,,,,リヴィアムエナジー,0
2411,9420001017967,新規,0,2022-08-15,2022-08-15,株式会社アップビレッジ開発,,株式会社,青森県,八戸市,根城１丁目３４番１４号,,02,203,0391166,,,,,,,2022-08-15,1,,,,,アップビレッジカイハツ,0
2423,9430001087299,新規,0,2022-08-15,2022-08-15,株式会社ノア,,株式会社,北海道,札幌市東区,伏古十二条２丁目９番２号,,01,103,0070872,,,,,,,2022-08-15,1,,,,,ノア,0
2427,9430005014530,新規,0,2022-08-15,2022-08-15,一般社団法人たいせい子どもの未来サポート,,その他の設立登記法人,北海道,札幌市豊平区,平岸五条６丁目２番２０－４０１号,,01,105,0620935,,,,,,,2022-08-15,1,,,,,タイセイコドモノミライサポート,0
