sequenceNumber,corporateNumber,process,correct,updateDate,changeDate,name,nameImageId,kind,prefectureName,cityName,streetNumber,addressImageId,prefectureCode,cityCode,postCode,addressOutside,addressOutsideImageId,closeDate,closeCause,successorCorporateNumber,changeCause,assignmentDate,latest,enName,enPrefectureName,enCityName,enAddressOutside,furigana,hihyoji
15,1010001227185,新規,0,2022-06-09,2022-06-09,ＦＢＣ株式会社,,株式会社,東京都,中央区,日本橋蛎殻町１丁目３５番８号,,13,102,1030014,,,,,,,2022-06-09,1,,,,,エフビーシー,0
21,1010005035114,新規,0,2022-06-09,2022-06-09,弁理士法人レクシード・テック,,その他の設立登記法人,東京都,千代田区,丸の内１丁目１１番１号パシフィックセンチュリープレイス丸の内１３Ｆ,,13,101,1000005,,,,,,,2022-06-09,1,,,,,レクシードテック,0
27,1010401167832,新規,0,2022-06-09,2022-06-09,ＷＥＶＥＲＳＥ　ＪＡＰＡＮ株式会社,,株式会社,東京都,港区,芝大門２丁目２番１１号泉芝大門ビル２階,,13,103,1050012,,,,,,,2022-06-09,1,,,,,,0
28,1010401167840,新規,0,2022-06-09,2022-06-09,株式会社ＴＯＴＡＬ,,株式会社,東京都,港区,浜松町２丁目２番１５号浜松町ダイヤビル２Ｆ,,13,103,1050013,,,,,,,2022-06-09,1,,,,,トータル,0
35,1010501048940,新規,0,2022-06-09,2022-06-09,喜玖株式会社,,株式会社,東京都,台東区,台東４丁目５－５－３０３,,13,106,1100016,,,,,,,2022-06-09,1,,,,,キク,0
47,1011001147860,新規,0,2022-06-09,2022-06-09,１２ＡＭ株式会社,,株式会社,東京都,渋谷区,渋谷２丁目１９－１５宮益坂ビルディング６０９,,13,113,1500002,,,,,,,2022-06-09,1,,,,,トウェルブエーエム,0
48,1011001147927,新規,0,2022-06-09,2022-06-09,三浜株式会社,,株式会社,東京都,渋谷区,恵比寿西１丁目３６番２号ザ・コノエ代官山４０２号室,,13,113,1500021,,,,,,,2022-06-09,1,,,,,ミハマ,0
49,1011001147943,新規,0,2022-06-09,2022-06-09,株式会社ソルクエスト,,株式会社,東京都,渋谷区,神宮前６丁目２３番４号桑野ビル２階,,13,113,1500001,,,,,,,2022-06-09,1,,,,,ソルクエスト,0
51,1011003014803,新規,0,2022-06-09,2022-06-09,合同会社ＭＯＣＯ　Ｓｔｕｄｉｏ,,合同会社,東京都,渋谷区,神宮前６丁目２３番４号桑野ビル２階,,13,113,1500001,,,,,,,2022-06-09,1,,,,,モコスタジオ,0
52,1011003014828,新規,0,2022-06-09,2022-06-09,合同会社ＴＢエネルギー１,,合同会社,東京都,渋谷区,渋谷２丁目２４番１２号,,13,113,1500002,,,,,,,2022-06-09,1,,,,,ティービーエネルギーイチ,0
53,1011003014836,新規,0,2022-06-09,2022-06-09,合同会社ＴＢエネルギー９,,合同会社,東京都,渋谷区,渋谷２丁目２４番１２号,,13,113,1500002,,,,,,,2022-06-09,1,,,,,ティービーエネルギーキュウ,0
57,1011101099119,新規,0,2022-06-09,2022-06-09,オルタナティブ・ポート株式会社,,株式会社,東京都,新宿区,西新宿８丁目１７番１号住友不動産新宿グランドタワー１２Ｆ,,13,104,1600023,,,,,,,2022-06-09,1,,,,,オルタナティブポート,0
58,1011101099135,新規,0,2022-06-09,2022-06-09,株式会社ＣＬＩＰソリューションズ,,株式会社,東京都,新宿区,西新宿４丁目１５番７号,,13,104,1600023,,,,,,,2022-06-09,1,,,,,クリップソリューションズ,0
60,1011201023878,新規,0,2022-06-09,2022-06-09,株式会社Ｐｒｏｇｒｅｓｓ,,株式会社,東京都,中野区,中央４丁目５３番４号,,13,114,1640011,,,,,,,2022-06-09,1,,,,,プログレス,0
62,1011203003837,新規,0,2022-06-09,2022-06-09,Ｔ．Ｏ．Ｓ合同会社,,合同会社,東京都,中野区,本町５丁目３９番１０号,,13,114,1640012,,,,,,,2022-06-09,1,,,,,,0
70,1011801040810,新規,0,2022-06-09,2022-06-09,ＳＫＫインターナショナル株式会社,,株式会社,東京都,葛飾区,金町２丁目１５番１３号,,13,122,1250042,,,,,,,2022-06-09,1,,,,,エスケイケイインターナショナル,0
71,1011801040827,新規,0,2022-06-09,2022-06-09,株式会社ＪＹ,,株式会社,東京都,足立区,関原２丁目１５番１０号,,13,121,1230852,,,,,,,2022-06-09,1,,,,,ジェイワイ,0
73,1012405004747,新規,0,2022-06-09,2022-06-09,ＮＰＯ法人バレエの輪まなび,,その他の設立登記法人,東京都,狛江市,猪方３丁目３７番１１号,,13,219,2010015,,,,,,,2022-06-09,1,,,,,バレエノワマナビ,0
83,1020001146780,新規,0,2022-06-09,2022-06-09,株式会社タケフ,,株式会社,神奈川県,横浜市鶴見区,豊岡町２９番５号,,14,101,2300062,,,,,,,2022-06-09,1,,,,,タケフ,0
84,1020001146814,新規,0,2022-06-09,2022-06-09,株式会社音角,,株式会社,神奈川県,川崎市中原区,上小田中６丁目１４番６号,,14,133,2110053,,,,,,,2022-06-09,1,,,,,オトカド,0
85,1020003021866,新規,0,2022-06-09,2022-06-09,合同会社マイソララ,,合同会社,神奈川県,横浜市旭区,若葉台２丁目２０番９０６号,,14,112,2410801,,,,,,,2022-06-09,1,,,,,マイソララ,0
89,1021001076191,新規,0,2022-06-09,2022-06-09,株式会社１ｓｔ　Ｌａｄｙ,,株式会社,神奈川県,相模原市南区,磯部１１５７番地１０スプリングパークＢ１０２,,14,153,2520327,,,,,,,2022-06-09,1,,,,,ファーストレディー,0
103,1050001051210,新規,0,2022-06-09,2022-06-09,株式会社Ｐａｘｇｒｏｕｐ,,株式会社,茨城県,つくば市,並木２丁目１４－３８,,08,220,3050044,,,,,,,2022-06-09,1,,,,,パックスグループ,0
106,1060001034949,新規,0,2022-06-09,2022-06-09,株式会社サクセスエイド,,株式会社,栃木県,足利市,利保町１丁目１５番地４,,09,202,3260006,,,,,,,2022-06-09,1,,,,,サクセスエイド,0
113,1080101023346,新規,0,2022-06-09,2022-06-09,株式会社林総業,,株式会社,静岡県,御殿場市,上小林１番地の１２,,22,215,4120002,,,,,,,2022-06-09,1,,,,,ハヤシソウギョウ,0
117,1100001035422,新規,0,2022-06-09,2022-06-09,株式会社ＴＴＴＥＮＣＨＡＮＴＥ,,株式会社,長野県,長野市,大字南長野北石堂町１１８４－２,,20,201,3800826,,,,,,,2022-06-09,1,,,,,ティーティーティーアンシャンテ,0
120,1110001036725,新規,0,2022-06-09,2022-06-09,東泰商事株式会社,,株式会社,新潟県,上越市,浦川原区菱田１１５番地１,,15,222,9420327,,,,,,,2022-06-09,1,,,,,トウタイショウジ,0
129,1120001246455,新規,0,2022-06-09,2022-06-09,株式会社Ｏｊｙｕｋａ,,株式会社,大阪府,大阪市浪速区,難波中１丁目１番１２－３０１号,,27,111,5560011,,,,,,,2022-06-09,1,,,,,オジュカ,0
130,1120001246488,新規,0,2022-06-09,2022-06-09,株式会社ベントルナート,,株式会社,大阪府,大阪市中央区,南新町１丁目４番１２号,,27,128,5400024,,,,,,,2022-06-09,1,,,,,ベントルナート,0
131,1120001246496,新規,0,2022-06-09,2022-06-09,株式会社スプラッシュ,,株式会社,大阪府,大阪市北区,梅田１丁目１番３号大阪駅前第３ビル２３０７,,27,127,5300001,,,,,,,2022-06-09,1,,,,,スプラッシュ,0
132,1120001246513,新規,0,2022-06-09,2022-06-09,株式会社Ｊ　Ｃｏｒｐｏｒａｔｉｏｎ,,株式会社,大阪府,大阪市東成区,大今里南６丁目２３番５号,,27,115,5370013,,,,,,,2022-06-09,1,,,,,ジェーコーポレーション,0
140,1120101065722,新規,0,2022-06-09,2022-06-09,株式会社スカイワークス,,株式会社,大阪府,泉佐野市,鶴原８８６番地の５,,27,213,5980071,,,,,,,2022-06-09,1,,,,,スカイワークス,0
157,1140001126275,新規,0,2022-06-09,2022-06-09,株式会社アクラス不動産販売,,株式会社,兵庫県,加西市,北条町横尾４６９番地１,,28,220,6752311,,,,,,,2022-06-09,1,,,,,アクラスフドウサンハンバイ,0
160,1140003017778,新規,0,2022-06-09,2022-06-09,おまかせ相続サポートセンター合同会社,,合同会社,兵庫県,神戸市中央区,山本通３丁目１３番５号,,28,110,6500003,,,,,,,2022-06-09,1,,,,,オマカセソウゾクサポートセンター,0
186,1190005011709,新規,0,2022-06-09,2022-06-09,農事組合法人ひらの営農,,その他の設立登記法人,三重県,津市,一身田平野５１１番地,,24,201,5140111,,,,,,,2022-06-09,1,,,,,ヒラノエイノウ,0
203,1260001036917,新規,0,2022-06-09,2022-06-09,ＳＩＲＯ株式会社,,株式会社,岡山県,岡山市北区,幸町５番２３号（２０１）,,33,101,7000903,,,,,,,2022-06-09,1,,,,,シロ,0
210,1280001008708,新規,0,2022-06-09,2022-06-09,和株式会社,,株式会社,島根県,出雲市,今市町北本町１丁目１番３号,,32,203,6930002,,,,,,,2022-06-09,1,,,,,,0
214,1290001097808,新規,0,2022-06-09,2022-06-09,諾新科技株式会社,,株式会社,福岡県,福岡市中央区,平尾１丁目１１番６号４１３室,,40,133,8100014,,,,,,,2022-06-09,1,,,,,ダクシンカギ,0
215,1290001097832,新規,0,2022-06-09,2022-06-09,株式会社ＲＩＮ,,株式会社,福岡県,福岡市中央区,大名１丁目１番３２号６階,,40,133,8100041,,,,,,,2022-06-09,1,,,,,リン,0
216,1290001097840,新規,0,2022-06-09,2022-06-09,株式会社フレイズ,,株式会社,福岡県,福岡市早良区,高取２丁目３－２３－３０７グランドメゾン藤崎,,40,137,8140011,,,,,,,2022-06-09,1,,,,,フレイズ,0
222,1290003012599,新規,0,2022-06-09,2022-06-09,福岡電気通信合同会社,,合同会社,福岡県,春日市,大谷２丁目１１５番地,,40,218,8160831,,,,,,,2022-06-09,1,,,,,フクオカデンキツウシン,0
223,1290003012608,新規,0,2022-06-09,2022-06-09,ＨＭＴ合同会社,,合同会社,福岡県,福岡市南区,塩原３丁目４番９号大藤コーポ３０２号,,40,134,8150032,,,,,,,2022-06-09,1,,,,,エイチエムティ,0
224,1290801028615,新規,0,2022-06-09,2022-06-09,株式会社Ｑｕｏｒｅ,,株式会社,福岡県,北九州市門司区,東門司１丁目１０番６号,,40,101,8010873,,,,,,,2022-06-09,1,,,,,クオレ,0
231,1300003001856,新規,0,2022-06-09,2022-06-09,合同会社優水,,合同会社,佐賀県,西松浦郡有田町,丸尾丙２６７７番地３,,41,401,8440023,,,,,,,2022-06-09,1,,,,,ユウミ,0
232,1310001017903,新規,0,2022-06-09,2022-06-09,株式会社カツユウ企画,,株式会社,長崎県,西彼杵郡時津町,浜田郷７７５番地１０,,42,308,8512102,,,,,,,2022-06-09,1,,,,,カツユウキカク,0
235,1320001019122,新規,0,2022-06-09,2022-06-09,ハヤシテック株式会社,,株式会社,大分県,大分市,大字横瀬２６２３番地,,44,201,8701173,,,,,,,2022-06-09,1,,,,,ハヤシテック,0
241,1370001048653,新規,0,2022-06-09,2022-06-09,ＭＩＲＺＡ　ＴＲＡＤＩＮＧ株式会社,,株式会社,宮城県,仙台市太白区,八木山香澄町２０番１１－１０３号,,04,104,9820831,,,,,,,2022-06-09,1,,,,,ミルザトレーディング,0
245,1430003013979,新規,0,2022-06-09,2022-06-09,合同会社Ｕｎｐａｃｋ,,合同会社,北海道,札幌市中央区,南十一条西６丁目２－１８－４０１,,01,101,0640811,,,,,,,2022-06-09,1,,,,,アンパック,0
257,2010001227192,新規,0,2022-06-09,2022-06-09,株式会社レグノフォンテ,,株式会社,東京都,千代田区,九段南２丁目３番１０号,,13,101,1020074,,,,,,,2022-06-09,1,,,,,レグノフォンテ,0
260,2010003037854,新規,0,2022-06-09,2022-06-09,合同会社ＢｉｔＧａｉｎ,,合同会社,東京都,千代田区,神田佐久間町１丁目１６番地大橋ビル５０３,,13,101,1010025,,,,,,,2022-06-09,1,,,,,ビットゲイン,0
264,2010401167880,新規,0,2022-06-09,2022-06-09,株式会社ポニーテール,,株式会社,東京都,港区,六本木６丁目４番１号ハリウッドビューティプラザ３階,,13,103,1060032,,,,,,,2022-06-09,1,,,,,ポニーテール,0
265,2010403027835,新規,0,2022-06-09,2022-06-09,ＵＩ　ＩｔａＳｅｎ合同会社,,合同会社,東京都,港区,元赤坂１丁目１番７号,,13,103,1070051,,,,,,,2022-06-09,1,,,,,ユーアイイタセン,0
274,2010801033030,新規,0,2022-06-09,2022-06-09,ＢＬＵＥ　ＦＡＣＴＯＲＹ株式会社,,株式会社,東京都,大田区,羽田２丁目４－１３,,13,111,1440043,,,,,,,2022-06-09,1,,,,,ブルーファクトリー,0
282,2011003014752,新規,0,2022-06-09,2022-06-09,合同会社ＯＴＯＢＡＣＣＯ,,合同会社,東京都,渋谷区,神宮前６丁目２３番４号桑野ビル２階,,13,113,1500001,,,,,,,2022-06-09,1,,,,,オトバコ,0
283,2011003014802,新規,0,2022-06-09,2022-06-09,合同会社Ｓｍａｌｌ　Ｈａｎｄｓ,,合同会社,東京都,渋谷区,神宮前６丁目２３番４号桑野ビル２階,,13,113,1500001,,,,,,,2022-06-09,1,,,,,スモールハンズ,0
284,2011003014827,新規,0,2022-06-09,2022-06-09,合同会社福知山アグリエナジー,,合同会社,東京都,渋谷区,渋谷２丁目２４番１２号,,13,113,1500002,,,,,,,2022-06-09,1,,,,,フクチヤマアグリエナジー,0
285,2011003014835,新規,0,2022-06-09,2022-06-09,合同会社ＴＢエネルギー８,,合同会社,東京都,渋谷区,渋谷２丁目２４番１２号,,13,113,1500002,,,,,,,2022-06-09,1,,,,,ティービーエネルギーハチ,0
294,2011101099126,新規,0,2022-06-09,2022-06-09,ＲＯＬＥ株式会社,,株式会社,東京都,新宿区,愛住町７－６－１０１,,13,104,1600005,,,,,,,2022-06-09,1,,,,,ロール,0
295,2011101099134,新規,0,2022-06-09,2022-06-09,株式会社ＭＯＴＯＲＦＩＥＴＳ,,株式会社,東京都,新宿区,歌舞伎町２丁目５番１２－８０６号,,13,104,1600021,,,,,,,2022-06-09,1,,,,,モータルフィーツ,0
296,2011101099150,新規,0,2022-06-09,2022-06-09,株式会社Ｇｒｏｗｔｈ　ｂｏｘ,,株式会社,東京都,新宿区,西新宿３丁目３番１３号西新宿水間ビル６階,,13,104,1600023,,,,,,,2022-06-09,1,,,,,グロウスボックス,0
300,2011401024287,新規,0,2022-06-09,2022-06-09,Ｌａｎｃｅ　Ｅｄｇｅ株式会社,,株式会社,東京都,板橋区,南常盤台１丁目１１－６レフア南常盤台１０１号室,,13,119,1740072,,,,,,,2022-06-09,1,,,,,ランスエッジ,0
305,2011801040826,新規,0,2022-06-09,2022-06-09,株式会社ＫＭＲ,,株式会社,東京都,足立区,花畑６丁目２６番１３－２０２号,,13,121,1210061,,,,,,,2022-06-09,1,,,,,ケイエムアール,0
312,2013301049216,新規,0,2022-06-09,2022-06-09,株式会社ＫＯＡＬＡ,,株式会社,東京都,豊島区,東池袋３丁目２０番９号４Ｆ－１０,,13,116,1700013,,,,,,,2022-06-09,1,,,,,コアラ,0
333,2021003011765,新規,0,2022-06-09,2022-06-09,ＭＡＨＡＤＥＶ合同会社,,合同会社,神奈川県,横須賀市,上町４丁目６６番地上町ホワイトハウス１０１,,14,201,2380017,,,,,,,2022-06-09,1,,,,,マハディブ,0
334,2021005012539,新規,0,2022-06-09,2022-06-09,一般社団法人国際全身咬合アカデミー,,その他の設立登記法人,神奈川県,逗子市,逗子１丁目１番３号湘南ビル逗子４Ｆ,,14,208,2490006,,,,,,,2022-06-09,1,,,,,コクサイゼンシンコウゴウアカデミー,0
343,2030001148305,新規,0,2022-06-09,2022-06-09,株式会社ジャパンライフ,,株式会社,埼玉県,草加市,新善町４３７番地１５,,11,221,3400054,,,,,,,2022-06-09,1,,,,,ジャパンライフ,0
344,2030001148602,新規,0,2022-06-09,2022-06-09,メビウスバンド株式会社,,株式会社,埼玉県,鴻巣市,神明２丁目４番３６号,,11,217,3650074,,,,,,,2022-06-09,1,,,,,メビウスバンド,0
350,2030003019561,新規,0,2022-06-09,2022-06-09,合同会社デブシフ,,合同会社,埼玉県,草加市,氷川町６０６番地３アリス草加第２・２０２,,11,221,3400034,,,,,,,2022-06-09,1,,,,,デブシフ,0
357,2040003020188,新規,0,2022-06-09,2022-06-09,ＶＩＡＲＳ合同会社,,合同会社,千葉県,木更津市,真舟２丁目３１－３,,12,206,2920802,,,,,,,2022-06-09,1,,,,,ビアルス,0
358,2050001051176,新規,0,2022-06-09,2022-06-09,株式会社増田構造計画,,株式会社,茨城県,つくば市,倉掛１１９０番地３,,08,220,3050024,,,,,,,2022-06-09,1,,,,,マスダコウゾウケイカク,0
364,2070005010003,新規,0,2022-06-09,2022-06-09,一般社団法人群馬県老人福祉施設協議会,,その他の設立登記法人,群馬県,前橋市,新前橋町１３番地１２,,10,201,3710843,,,,,,,2022-06-09,1,,,,,グンマケンロウジンフクシシセツキョウギカイ,0
374,2100001035405,新規,0,2022-06-09,2022-06-09,株式会社設備建装,,株式会社,長野県,塩尻市,大字広丘野村２０１６番地１,,20,215,3990702,,,,,,,2022-06-09,1,,,,,セツビケンソウ,0
388,2120001246479,新規,0,2022-06-09,2022-06-09,やまとＣＯＭＰＮＹ株式会社,,株式会社,大阪府,大阪市阿倍野区,昭和町２丁目１３－２１,,27,119,5450011,,,,,,,2022-06-09,1,,,,,ヤマトカンパニイ,0
397,2122001035936,新規,0,2022-06-09,2022-06-09,株式会社未来,,株式会社,大阪府,八尾市,桜ヶ丘１丁目１０番地２,,27,212,5810869,,,,,,,2022-06-09,1,,,,,ミライ,0
402,2130005016497,新規,0,2022-06-09,2022-06-09,一般社団法人カフェあずま,,その他の設立登記法人,京都府,京都市上京区,三軒町５０番地,,26,102,6028341,,,,,,,2022-06-09,1,,,,,カフェアズマ,0
408,2140001126290,新規,0,2022-06-09,2022-06-09,Ｅｎ　Ｌｅａｄ　Ｆｏｒｔｈ株式会社,,株式会社,兵庫県,神戸市中央区,相生町４丁目７番３号,,28,110,6500025,,,,,,,2022-06-09,1,,,,,エンリードフォース,0
412,2140003017744,新規,0,2022-06-09,2022-06-09,ＫＲｇａｒａｇｅ合同会社,,合同会社,兵庫県,姫路市,御立西１丁目２番１２－２号リトルフォレスト御立Ｂ１０２,,28,201,6700074,,,,,,,2022-06-09,1,,,,,ケーアールガレージ,0
419,2160003002587,新規,0,2022-06-09,2022-06-09,ａｂｅｃｅ　ｓｔｕｄｉｏ合同会社,,合同会社,滋賀県,高島市,安曇川町田中３２４４番地９２,,25,212,5201217,,,,,,,2022-06-09,1,,,,,アーベーセースタジオ,0
420,2170003001729,新規,0,2022-06-09,2022-06-09,合同会社音楽文庫,,合同会社,和歌山県,日高郡美浜町,大字和田１１５９番地の６（３１）,,30,381,6440044,,,,,,,2022-06-09,1,,,,,オンガクブンコ,0
429,2180001151681,新規,0,2022-06-09,2022-06-09,株式会社シクエイト,,株式会社,愛知県,名古屋市中村区,名駅３丁目２８－１２大名古屋ビルヂング１１階,,23,105,4500002,,,,,,,2022-06-09,1,,,,,シクエイト,0
431,2180003023912,新規,0,2022-06-09,2022-06-09,合同会社中嶋ケアサポート,,合同会社,愛知県,名古屋市瑞穂区,田辺通５丁目１３番地の２ライオンズステーションプラザ瑞穂運動場東７０１号,,23,108,4670027,,,,,,,2022-06-09,1,,,,,ナカジマケアサポート,0
434,2180303005346,新規,0,2022-06-09,2022-06-09,合同会社Ｒｉｎ’ｇｏ,,合同会社,愛知県,北設楽郡東栄町,大字奈根字加久保３４番地,,23,562,4490215,,,,,,,2022-06-09,1,,,,,リンゴー,0
437,2190001029497,新規,0,2022-06-09,2022-06-09,株式会社キッチンマインド,,株式会社,三重県,四日市市,桜新町１丁目１６７番地,,24,202,5121215,,,,,,,2022-06-09,1,,,,,キッチンマインド,0
444,2240001059902,新規,0,2022-06-09,2022-06-09,株式会社マコトエステート,,株式会社,広島県,三原市,新倉２丁目１２番１号,,34,204,7230134,,,,,,,2022-06-09,1,,,,,マコトエステート,0
446,2250003003089,新規,0,2022-06-09,2022-06-09,ｄｏｏｒｔｏｋｅｙ合同会社,,合同会社,山口県,光市,三井５丁目２０番１号,,35,210,7430052,,,,,,,2022-06-09,1,,,,,ドアトキー,0
459,2290001097831,新規,0,2022-06-09,2022-06-09,株式会社ｂｓｐ,,株式会社,福岡県,福岡市博多区,中洲２丁目２番２－１１０１号,,40,132,8100801,,,,,,,2022-06-09,1,,,,,ビーエスピー,0
461,2290003012598,新規,0,2022-06-09,2022-06-09,合同会社博多図工室,,合同会社,福岡県,福岡市博多区,博多駅前２丁目１９番１７号トーカン博多第５ビル３１２号室,,40,132,8120011,,,,,,,2022-06-09,1,,,,,ハカタズコウシツ,0
465,2300001012961,新規,0,2022-06-09,2022-06-09,株式会社ハウスナビゲート,,株式会社,佐賀県,佐賀市,若宮２丁目１２番２６号,,41,201,8490926,,,,,,,2022-06-09,1,,,,,ハウスナビゲート,0
466,2310001017902,新規,0,2022-06-09,2022-06-09,株式会社ブライトン・アイ,,株式会社,長崎県,長崎市,鶴の尾町３１番５号,,42,201,8510132,,,,,,,2022-06-09,1,,,,,ブライトンアイ,0
468,2320001019113,新規,0,2022-06-09,2022-06-09,株式会社ブランチ,,株式会社,大分県,別府市,亀川中央町１８番１５号,,44,202,8740021,,,,,,,2022-06-09,1,,,,,ブランチ,0
469,2320001019121,新規,0,2022-06-09,2022-06-09,株式会社中庸,,株式会社,大分県,大分市,浜の市１丁目３番７号,,44,201,8700002,,,,,,,2022-06-09,1,,,,,チュウヨウ,0
472,2330003009391,新規,0,2022-06-09,2022-06-09,Ｉ＆ＩＷＯＲＫＳ合同会社,,合同会社,熊本県,熊本市中央区,八王寺町４１番３３号リーブライツ２０２,,43,101,8600831,,,,,,,2022-06-09,1,,,,,アイアンドアイワークス,0
478,2360003012054,新規,0,2022-06-09,2022-06-09,合同会社ひが電工,,合同会社,沖縄県,豊見城市,字高安１０９６番地１眞マンション３０６号,,47,212,9010242,,,,,,,2022-06-09,1,,,,,ヒガデンコウ,0
483,2370001048652,新規,0,2022-06-09,2022-06-09,ジャーナルサポート株式会社,,株式会社,宮城県,富谷市,明石台１丁目２２番地１２,,04,216,9813332,,,,,,,2022-06-09,1,,,,,ジャーナルサポート,0
489,2380003005188,新規,0,2022-06-09,2022-06-09,合同会社アルゴノート,,合同会社,福島県,郡山市,田村町栃山神字荻ノ塚１０３番地,,07,203,9631245,,,,,,,2022-06-09,1,,,,,アルゴノート,0
502,2490001010204,新規,0,2022-06-09,2022-06-09,株式会社なかじ,,株式会社,高知県,吾川郡いの町,加田９６９番地,,39,386,7812133,,,,,,,2022-06-09,1,,,,,ナカジ,0
508,2700150109114,新規,0,2022-06-09,2022-05-30,みゆずメソン,,その他,埼玉県,新座市,片山１丁目１６－２１,,11,230,3520025,,,,,,,2022-05-30,1,,,,,ミユズメソン,0
509,3000020109207,新規,0,2022-06-09,2022-06-09,吾妻環境施設組合,,地方公共団体,群馬県,吾妻郡東吾妻町,大字原町１０４６番地,,10,429,3770801,,,,,,,2022-06-09,1,,,,,アガツマカンキョウシセツクミアイ,0
518,3010001227035,新規,0,2022-06-09,2022-06-09,株式会社ＦｅｒｒｏｐｔｏＣｕｒｅ,,株式会社,東京都,千代田区,富士見１丁目３番１１号富士見デュープレックスＢ’ｓ４Ｆ,,13,101,1020071,,,,,,,2022-06-09,1,,,,,フェロプトゥキュア,0
519,3010001227084,新規,0,2022-06-09,2022-06-09,株式会社ストラテジー・アドバイザーズ,,株式会社,東京都,中央区,銀座１丁目２７番８号セントラルビル７０３号,,13,102,1040061,,,,,,,2022-06-09,1,,,,,ストラテジーアドバイザーズ,0
520,3010001227200,新規,0,2022-06-09,2022-06-09,株式会社Ｇｏｌｆｉｎｇ,,株式会社,東京都,千代田区,鍛冶町１丁目９番１号第二大久保ビル地下１階,,13,101,1010044,,,,,,,2022-06-09,1,,,,,ゴルフィング,0
523,3010003037820,新規,0,2022-06-09,2022-06-09,レオン・バンク・テクノロジーズ合同会社,,合同会社,東京都,中央区,日本橋小網町１８番６号,,13,102,1030016,,,,,,,2022-06-09,1,,,,,レオンバンクテクノロジーズ,0
524,3010003037861,新規,0,2022-06-09,2022-06-09,合同会社ＷＡＢＩＳＡＢＩ,,合同会社,東京都,中央区,銀座１丁目１２番４号Ｎ＆Ｅ．ＢＬＤ．７階,,13,102,1040061,,,,,,,2022-06-09,1,,,,,ワビサビ,0
557,3011001147900,新規,0,2022-06-09,2022-06-09,株式会社ＢＭＳＮＯＴＩＦＹ,,株式会社,東京都,渋谷区,代々木５丁目１８番５－１０１号,,13,113,1510053,,,,,,,2022-06-09,1,,,,,ビーエムエスノッティファイ,0
558,3011001147990,新規,0,2022-06-09,2022-06-09,株式会社ＳＨＯＷＲＯＯＭ　ＭＥＧＵＲＯ,,株式会社,東京都,目黒区,五本木３丁目１２番１２号,,13,110,1530053,,,,,,,2022-06-09,1,,,,,ショールームメグロ,0
561,3011003014801,新規,0,2022-06-09,2022-06-09,Ｇｅｏｒａｔｅ合同会社,,合同会社,東京都,渋谷区,神宮前６丁目２３―４桑野ビル２Ｆ,,13,113,1500001,,,,,,,2022-06-09,1,,,,,ジオラテ,0
562,3011003014834,新規,0,2022-06-09,2022-06-09,合同会社ＴＢエネルギー７,,合同会社,東京都,渋谷区,渋谷２丁目２４番１２号,,13,113,1500002,,,,,,,2022-06-09,1,,,,,ティービーエネルギーシチ,0
571,3011801040825,新規,0,2022-06-09,2022-06-09,株式会社ＳＹ,,株式会社,東京都,足立区,関原２丁目１５番１０号,,13,121,1230852,,,,,,,2022-06-09,1,,,,,エスワイ,0
572,3012301013008,新規,0,2022-06-09,2022-06-09,株式会社アセットアップ,,株式会社,東京都,町田市,原町田６丁目２２番１１号,,13,209,1940013,,,,,,,2022-06-09,1,,,,,アセットアップ,0
583,3020001146820,新規,0,2022-06-09,2022-06-09,株式会社ＹＳＴ,,株式会社,神奈川県,横浜市中区,本牧町２丁目２９２番地１４,,14,104,2310806,,,,,,,2022-06-09,1,,,,,ワイエスティー,0
584,3020001146861,新規,0,2022-06-09,2022-06-09,テイシイシイ株式会社,,株式会社,神奈川県,横浜市中区,山下町１４６－６,,14,104,2310023,,,,,,,2022-06-09,1,,,,,テイシイシイ,0
588,3020003021906,新規,0,2022-06-09,2022-06-09,サイバースペース合同会社,,合同会社,神奈川県,川崎市宮前区,菅生ケ丘２０番１１号,,14,136,2160014,,,,,,,2022-06-09,1,,,,,サイバースペース,0
601,3030001148592,新規,0,2022-06-09,2022-06-09,株式会社賛光,,株式会社,埼玉県,川越市,大字鯨井１６４６番地６,,11,201,3500815,,,,,,,2022-06-09,1,,,,,サンコウ,0
607,3030003019544,新規,0,2022-06-09,2022-06-09,ブルームブロック合同会社,,合同会社,埼玉県,さいたま市南区,南浦和３丁目３６番１２―２０２号,,11,108,3360017,,,,,,,2022-06-09,1,,,,,ブルームブロック,0
614,3040001123743,新規,0,2022-06-09,2022-06-09,池田商事株式会社,,株式会社,千葉県,八街市,沖１１３７番地１,,12,230,2891126,,,,,,,2022-06-09,1,,,,,イケダショウジ,0
616,3040003020162,新規,0,2022-06-09,2022-06-09,合同会社スケさん,,合同会社,千葉県,柏市,藤心１３４番地の７,,12,217,2770034,,,,,,,2022-06-09,1,,,,,スケサン,0
617,3040003020212,新規,0,2022-06-09,2022-06-09,合同会社石塚昌幸事務所,,合同会社,千葉県,千葉市若葉区,桜木北１丁目５－５,,12,104,2640029,,,,,,,2022-06-09,1,,,,,イシヅカマサユキジムショ,0
622,3050001051209,新規,0,2022-06-09,2022-06-09,株式会社わっしょいデザイン,,株式会社,茨城県,牛久市,刈谷町２丁目２０番地,,08,219,3001235,,,,,,,2022-06-09,1,,,,,ワッショイデザイン,0
625,3060001034930,新規,0,2022-06-09,2022-06-09,株式会社Ｓｔｕｄｉｏ　Ｗｉｌｌ,,株式会社,栃木県,佐野市,仙波町１３０番地,,09,204,3270514,,,,,,,2022-06-09,1,,,,,スダジオウィル,0
627,3060005009986,新規,0,2022-06-09,2022-06-09,一般社団法人もてぎニューツーリズム,,その他の設立登記法人,栃木県,芳賀郡茂木町,大字茂木１５５番地茂木町役場商工観光課内,,09,343,3213531,,,,,,,2022-06-09,1,,,,,モテギニューツーリズム,0
632,3070005010002,新規,0,2022-06-09,2022-06-09,医療法人社団芳純会,,その他の設立登記法人,群馬県,桐生市,相生町５丁目２８４番地２１,,10,203,3760011,,,,,,,2022-06-09,1,,,,,ホウジュンカイ,0
646,3100005012886,新規,0,2022-06-09,2022-06-09,一般社団法人ミッション・ワーク長野西,,その他の設立登記法人,長野県,東御市,新張２０８７番地,,20,219,3890501,,,,,,,2022-06-09,1,,,,,ミッションワークナガノニシ,0
662,3120001246503,新規,0,2022-06-09,2022-06-09,株式会社おでんやさん,,株式会社,大阪府,大阪市東成区,中道３丁目２番２８号,,27,115,5370025,,,,,,,2022-06-09,1,,,,,オデンヤサン,0
665,3120003021854,新規,0,2022-06-09,2022-06-09,合同会社ＡＬＯ,,合同会社,大阪府,寝屋川市,萱島東３丁目１０－３９,,27,215,5720824,,,,,,,2022-06-09,1,,,,,アロー,0
670,3120903004181,新規,0,2022-06-09,2022-06-09,合同会社ＨａｒｉＲｕｒｉ,,合同会社,大阪府,豊中市,新千里南町２丁目３番３８－６０５号,,27,203,5600084,,,,,,,2022-06-09,1,,,,,ハリルリ,0
672,3122003002355,新規,0,2022-06-09,2022-06-09,合同会社ｏｎｓｉｄｅ,,合同会社,大阪府,東大阪市,荒川２丁目８番２８号布施スカイハイツ５０９,,27,227,5770843,,,,,,,2022-06-09,1,,,,,オンサイド,0
701,3150001025615,新規,0,2022-06-09,2022-06-09,株式会社丸富商店,,株式会社,奈良県,大和郡山市,西奈良口町１０番地,,29,203,6391163,,,,,,,2022-06-09,1,,,,,マルトミショウテン,0
703,3160001024269,新規,0,2022-06-09,2022-06-09,藤和興業株式会社,,株式会社,滋賀県,彦根市,広野町７２番地１,,25,202,5220238,,,,,,,2022-06-09,1,,,,,トウワコウギョウ,0
704,3160003002586,新規,0,2022-06-09,2022-06-09,合同会社Ｔｗｏ　Ｐｉｅｃｅ,,合同会社,滋賀県,東近江市,佐野町８５番地２７,,25,213,5211222,,,,,,,2022-06-09,1,,,,,ツーピース,0
711,3180003023903,新規,0,2022-06-09,2022-06-09,合同会社ニットベ,,合同会社,愛知県,名古屋市中村区,佐古前町４－２８,,23,105,4530018,,,,,,,2022-06-09,1,,,,,ニットベ,0
717,3210001018959,新規,0,2022-06-09,2022-06-09,森康建設株式会社,,株式会社,福井県,福井市,上東郷町第１６号６番地,,18,201,9102174,,,,,,,2022-06-09,1,,,,,モリヤスケンセツ,0
718,3230001019402,新規,0,2022-06-09,2022-06-09,株式会社ＥＵＲＥＫＡ,,株式会社,富山県,富山市,下新町１９番１号,,16,201,9300804,,,,,,,2022-06-09,1,,,,,ユーリカ,0
721,3250001019615,新規,0,2022-06-09,2022-06-09,株式会社ホームズスクエア,,株式会社,山口県,下関市,豊浦町大字川棚６６８０番地１,,35,201,7596301,,,,,,,2022-06-09,1,,,,,ホームズスクエア,0
724,3260001036915,新規,0,2022-06-09,2022-06-09,株式会社Ｂｒｉｌｌｉｏ,,株式会社,岡山県,赤磐市,桜が丘西６丁目１３－２０,,33,213,7090802,,,,,,,2022-06-09,1,,,,,ブリリオ,0
733,3290001097748,新規,0,2022-06-09,2022-06-09,株式会社九州ＭＥＩＪＩ,,株式会社,福岡県,福岡市博多区,金の隈１丁目３０番３号,,40,132,8120863,,,,,,,2022-06-09,1,,,,,キュウシュウメイジ,0
737,3290003012572,新規,0,2022-06-09,2022-06-09,合同会社自遊,,合同会社,福岡県,飯塚市,本町１６－１５－２０３,,40,205,8200042,,,,,,,2022-06-09,1,,,,,ジユウ,0
740,3290801028613,新規,0,2022-06-09,2022-06-09,株式会社ＫＣ,,株式会社,福岡県,直方市,知古２丁目１１番７号,,40,204,8220022,,,,,,,2022-06-09,1,,,,,ケイシー,0
750,3320001019120,新規,0,2022-06-09,2022-06-09,株式会社ＵＰＳＴ,,株式会社,大分県,大分市,金池南１丁目５番１号－６Ｆ,,44,201,8700839,,,,,,,2022-06-09,1,,,,,ユーピーエスティー,0
756,3360003012078,新規,0,2022-06-09,2022-06-09,合同会社ささ・エール,,合同会社,沖縄県,宮古島市,城辺字長間２２９８番地１２,,47,214,9060105,,,,,,,2022-06-09,1,,,,,ササエール,0
758,3370001048627,新規,0,2022-06-09,2022-06-09,ＵＧＯＱ　ＪＡＰＡＮ株式会社,,株式会社,宮城県,栗原市,志波姫堀口見渡９番地１,,04,213,9895625,,,,,,,2022-06-09,1,,,,,ウゴクジャパン,0
777,3430001086785,新規,0,2022-06-09,2022-06-09,株式会社靖乃屋,,株式会社,北海道,札幌市北区,北四十条西４丁目２番７号,,01,102,0010040,,,,,,,2022-06-09,1,,,,,セイノヤ,0
779,3430005014486,新規,0,2022-06-09,2022-06-09,特定非営利活動法人森と暮らす札幌,,その他の設立登記法人,北海道,札幌市西区,二十四軒三条２丁目４番１２－３１１号,,01,107,0630803,,,,,,,2022-06-09,1,,,,,モリトクラスサッポロ,0
786,3500001024259,新規,0,2022-06-09,2022-06-09,株式会社松寿園,,株式会社,愛媛県,四国中央市,中曽根町１２４番地の１,,38,213,7990413,,,,,,,2022-06-09,1,,,,,ショウジュエン,0
787,3700150105780,新規,0,2022-06-09,2021-11-16,スピリチュアルＴＶ,,その他,大阪府,大阪市東成区,中本１丁目９－２５－８０３,,27,115,5370022,,,,,,,2021-11-16,1,,,,,スピリチユアルテレビ,0
797,4010001226928,新規,0,2022-06-09,2022-06-09,Ｗｈｏ　Ｉ株式会社,,株式会社,東京都,中央区,新川２丁目２９－８プレシス八丁堀リバーフロント１３０１号室,,13,102,1040033,,,,,,,2022-06-09,1,,,,,フーアイ,0
798,4010001227182,新規,0,2022-06-09,2022-06-09,ＳＨＩＮＰＩ株式会社,,株式会社,東京都,文京区,千石１丁目１７番１０号,,13,105,1120011,,,,,,,2022-06-09,1,,,,,シンピ,0
799,4010001227199,新規,0,2022-06-09,2022-06-09,株式会社カヤック,,株式会社,東京都,文京区,湯島１丁目２番１２－５０４号,,13,105,1130034,,,,,,,2022-06-09,1,,,,,カヤック,0
800,4010001227240,新規,0,2022-06-09,2022-06-09,株式会社Ｎｅｘｔ　Ｈｅｒｉｔａｇｅ,,株式会社,東京都,中央区,東日本橋２丁目１１番５号,,13,102,1030004,,,,,,,2022-06-09,1,,,,,ネクストヘリテージ,0
801,4010003037828,新規,0,2022-06-09,2022-06-09,合同会社オルタナ１３,,合同会社,東京都,千代田区,丸の内３丁目１番１号東京共同会計事務所内,,13,101,1000005,,,,,,,2022-06-09,1,,,,,オルタナサーティーン,0
802,4010003037844,新規,0,2022-06-09,2022-06-09,合同会社ＣＫＨ　ｅｓｔａｔｅ,,合同会社,東京都,中央区,月島１丁目５番１号,,13,102,1040052,,,,,,,2022-06-09,1,,,,,シーケイエイチエステート,0
805,4010101015207,新規,0,2022-06-09,2022-06-09,株式会社スレッド,,株式会社,東京都,八王子市,堀之内１４０番地１１東山３３－１,,13,201,1920355,,,,,,,2022-06-09,1,,,,,スレッド,0
813,4010401167755,新規,0,2022-06-09,2022-06-09,株式会社エンザミン,,株式会社,東京都,港区,六本木１丁目６番１号泉ガーデンタワー７階,,13,103,1060032,,,,,,,2022-06-09,1,,,,,エンザミン,0
814,4010405021090,新規,0,2022-06-09,2022-06-09,一般社団法人嬉野,,その他の設立登記法人,東京都,港区,元赤坂１丁目１番８号赤坂コミュニティビル４階,,13,103,1070051,,,,,,,2022-06-09,1,,,,,ウレシノ,0
823,4010903007426,新規,0,2022-06-09,2022-06-09,合同会社アルム,,合同会社,東京都,世田谷区,上北沢５丁目３５番１号,,13,112,1560057,,,,,,,2022-06-09,1,,,,,アルム,0
835,4011001147899,新規,0,2022-06-09,2022-06-09,株式会社Ｒｉｎｇｉ,,株式会社,東京都,渋谷区,神南１丁目１１番３号,,13,113,1500041,,,,,,,2022-06-09,1,,,,,リンギ,0
836,4011001147908,新規,0,2022-06-09,2022-06-09,株式会社サンタイヨウ,,株式会社,東京都,渋谷区,円山町５番５号,,13,113,1500044,,,,,,,2022-06-09,1,,,,,サンタイヨウ,0
838,4011003014800,新規,0,2022-06-09,2022-06-09,合同会社佐駆楽,,合同会社,東京都,渋谷区,代々木１丁目５７番２－４０８号,,13,113,1510053,,,,,,,2022-06-09,1,,,,,サクラ,0
839,4011003014809,新規,0,2022-06-09,2022-06-09,ａｐｐ＆ｂｏｏｋ合同会社,,合同会社,東京都,渋谷区,渋谷２丁目１９番１５宮益坂ビルディング６０９,,13,113,1500002,,,,,,,2022-06-09,1,,,,,アップアンドブック,0
840,4011003014833,新規,0,2022-06-09,2022-06-09,合同会社ＴＢエネルギー６,,合同会社,東京都,渋谷区,渋谷２丁目２４番１２号,,13,113,1500002,,,,,,,2022-06-09,1,,,,,ティービーエネルギーロク,0
841,4011005009591,新規,0,2022-06-09,2022-06-09,一般財団法人孝道文化財団,,その他の設立登記法人,東京都,渋谷区,道玄坂２丁目１５番１号ノア道玄坂２１５号室,,13,113,1500043,,,,,,,2022-06-09,1,,,,,コウドウブンカザイダン,0
845,4011101099165,新規,0,2022-06-09,2022-06-09,株式会社政建,,株式会社,東京都,新宿区,西新宿７丁目１１番１８号７１１ビル３０１,,13,104,1600023,,,,,,,2022-06-09,1,,,,,セイケン,0
847,4011301027834,新規,0,2022-06-09,2022-06-09,サルースパートナーズ株式会社,,株式会社,東京都,杉並区,高井戸東１丁目１－２６ロイヤルコーポ高井戸３０３,,13,115,1680072,,,,,,,2022-06-09,1,,,,,サルースパートナーズ,0
848,4011301027842,新規,0,2022-06-09,2022-06-09,Ｍｉｓｓ　Ｊ株式会社,,株式会社,東京都,杉並区,高円寺北２丁目３番４号高円寺ビル４０５,,13,115,1660002,,,,,,,2022-06-09,1,,,,,ミスジェイ,0
849,4011303004435,新規,0,2022-06-09,2022-06-09,フェアリー合同会社,,合同会社,東京都,杉並区,成田東５丁目２９－２６,,13,115,1660015,,,,,,,2022-06-09,1,,,,,フェアリー,0
853,4011503005183,新規,0,2022-06-09,2022-06-09,合同会社ＢＥＬＩＥＦ　ＴＥＣ,,合同会社,東京都,荒川区,西日暮里１丁目６０番２号,,13,118,1160013,,,,,,,2022-06-09,1,,,,,ビリーフテック,0
854,4011703003160,新規,0,2022-06-09,2022-06-09,合同会社Ｐｌｕｓ　Ｈｉｇｈ,,合同会社,東京都,江戸川区,春江町２丁目１６番２０号グランデュール１０１,,13,123,1320003,,,,,,,2022-06-09,1,,,,,プラスハイ,0
858,4012403005422,新規,0,2022-06-09,2022-06-09,合同会社ｅｃｒｕ,,合同会社,東京都,府中市,府中町２丁目３－８,,13,206,1830055,,,,,,,2022-06-09,1,,,,,エクリュ,0
870,4020003021871,新規,0,2022-06-09,2022-06-09,合同会社光優,,合同会社,神奈川県,横浜市泉区,和泉中央北５丁目１３－６,,14,116,2450024,,,,,,,2022-06-09,1,,,,,コウユウ,0
871,4020003021888,新規,0,2022-06-09,2022-06-09,ＧＯＯＤＭＡＤＥ　ＣＯ．合同会社,,合同会社,神奈川県,横浜市青葉区,荏田西５丁目１３番地４,,14,117,2250014,,,,,,,2022-06-09,1,,,,,グッドメイドカンパニー,0
872,4020005015566,新規,0,2022-06-09,2022-06-09,一般社団法人Ｕｋｒａｉｎｅ　ｔｏ　Ｊａｐａｎ,,その他の設立登記法人,神奈川県,横浜市港北区,日吉７丁目２１番２４－４号,,14,109,2230061,,,,,,,2022-06-09,1,,,,,ウクライナトゥージャパン,0
884,4021005012537,新規,0,2022-06-09,2022-06-09,一般社団法人鎌倉打越山明日葉ハウス,,その他の設立登記法人,神奈川県,鎌倉市,笛田６丁目１６番５０号,,14,204,2480027,,,,,,,2022-06-09,1,,,,,,0
896,4030003019551,新規,0,2022-06-09,2022-06-09,木村サービス合同会社,,合同会社,埼玉県,越谷市,神明町２丁目３３０－３メゾン神明３号,,11,222,3430805,,,,,,,2022-06-09,1,,,,,キムラサービス,0
900,4040003020153,新規,0,2022-06-09,2022-06-09,合同会社アンディーインターナショナル,,合同会社,千葉県,白井市,冨士９３番地１４,,12,232,2701432,,,,,,,2022-06-09,1,,,,,アンディーインターナショナル,0
901,4040003020194,新規,0,2022-06-09,2022-06-09,ファミリア事業部合同会社,,合同会社,千葉県,白井市,清水口２丁目６番地１０２,,12,232,2701435,,,,,,,2022-06-09,1,,,,,ファミリアジギョウブ,0
904,4050001051208,新規,0,2022-06-09,2022-06-09,株式会社グリーン産業,,株式会社,茨城県,古河市,釈迦１８７８番地２,,08,204,3060222,,,,,,,2022-06-09,1,,,,,グリーンサンギョウ,0
906,4050005013088,新規,0,2022-06-09,2022-06-09,一般財団法人アジア動物技能協会,,その他の設立登記法人,茨城県,石岡市,貝地２丁目３５０８番地,,08,205,3150015,,,,,,,2022-06-09,1,,,,,アジアドウブツギノウキョウカイ,0
911,4080001025002,新規,0,2022-06-09,2022-06-09,株式会社ＯＮＥ,,株式会社,静岡県,島田市,道悦３丁目１８番１５号,,22,209,4270019,,,,,,,2022-06-09,1,,,,,ワン,0
914,4080101023343,新規,0,2022-06-09,2022-06-09,株式会社サン企画,,株式会社,静岡県,富士宮市,北山１５１８番地の８,,22,207,4180112,,,,,,,2022-06-09,1,,,,,サンキカク,0
919,4080103002601,新規,0,2022-06-09,2022-06-09,静浦海洋開発合同会社,,合同会社,静岡県,沼津市,志下６６９番地の７,,22,203,4100106,,,,,,,2022-06-09,1,,,,,シズウラカイヨウカイハツ,0
922,4100005012885,新規,0,2022-06-09,2022-06-09,一般社団法人ミッション・ワーク長野東,,その他の設立登記法人,長野県,小諸市,大字御影新田１７４７番地８,,20,208,3840808,,,,,,,2022-06-09,1,,,,,ミッションワークナガノヒガシ,0
942,4120001246304,新規,0,2022-06-09,2022-06-09,株式会社Ｉｎｔｙ,,株式会社,大阪府,大阪市浪速区,大国１丁目３－８ロイヤルプラザ大国２０３,,27,111,5560014,,,,,,,2022-06-09,1,,,,,インティ,0
943,4120001246493,新規,0,2022-06-09,2022-06-09,ＳＡ　Ｇｌｏｂａｌ　ｔｒａｄｉｎｇ株式会社,,株式会社,大阪府,大阪市大正区,三軒家東６丁目１１番４号,,27,108,5510002,,,,,,,2022-06-09,1,,,,,エスエーグローバルトレーディング,0
944,4120001246502,新規,0,2022-06-09,2022-06-09,株式会社みなさまの保険ホールディングス,,株式会社,大阪府,大阪市中央区,北浜３丁目１番２１号,,27,128,5410041,,,,,,,2022-06-09,1,,,,,ミナサマノホケンホールディングス,0
945,4120001246510,新規,0,2022-06-09,2022-06-09,ＶＥＲＵＳ　ＧＲＯＵＰ株式会社,,株式会社,大阪府,大阪市西成区,潮路１丁目３番１８号ＯＡＳＩＳＮＡＮＩＷＡ１階,,27,122,5570052,,,,,,,2022-06-09,1,,,,,ウィールスグループ,0
946,4120001246551,新規,0,2022-06-09,2022-06-09,兎我野町インベストメンツ株式会社,,株式会社,大阪府,大阪市鶴見区,放出東２丁目８番４－３０７号,,27,124,5380044,,,,,,,2022-06-09,1,,,,,トガノチョウインベストメンツ,0
949,4120003021845,新規,0,2022-06-09,2022-06-09,合同会社よしみ住宅,,合同会社,大阪府,寝屋川市,太秦桜が丘５番６号,,27,215,5720840,,,,,,,2022-06-09,1,,,,,ヨシミジュウタク,0
950,4120003021853,新規,0,2022-06-09,2022-06-09,合同会社Ｆｕｓｅ　Ｓｏｌｕｔｉｏｎ,,合同会社,大阪府,大阪市平野区,長吉六反２丁目５番６号４０５,,27,126,5470012,,,,,,,2022-06-09,1,,,,,ヒューズソリューション,0
952,4120901046068,新規,0,2022-06-09,2022-06-09,株式会社ＳＯＬ,,株式会社,大阪府,池田市,石橋１丁目８番１２号アゼリアタワーＢ１,,27,204,5630032,,,,,,,2022-06-09,1,,,,,ソル,0
954,4120903004180,新規,0,2022-06-09,2022-06-09,合同会社ＧＫＳコーポレーション,,合同会社,大阪府,吹田市,桃山台３丁目３番６号,,27,205,5650854,,,,,,,2022-06-09,1,,,,,ジーケーエスコーポレーション,0
968,4140001126231,新規,0,2022-06-09,2022-06-09,株式会社Ｌｕｍｉｅｒｅ,,株式会社,兵庫県,姫路市,四郷町坂元１８２番地６,,28,201,6710246,,,,,,,2022-06-09,1,,,,,ルミエル,0
969,4140001126289,新規,0,2022-06-09,2022-06-09,株式会社レイテック神戸,,株式会社,兵庫県,神戸市西区,玉津町今津６６３－４,,28,111,6512128,,,,,,,2022-06-09,1,,,,,レイテックコウベ,0
985,4180001151663,新規,0,2022-06-09,2022-06-09,Ｅｌｉｔｅ　Ｒｏｂｏｔ　Ｊａｐａｎ株式会社,,株式会社,愛知県,名古屋市中村区,名駅４丁目４番３８号愛知県産業労働センター,,23,105,4500002,,,,,,,2022-06-09,1,,,,,エリートロボットジャパン,0
995,4200001040145,新規,0,2022-06-09,2022-06-09,株式会社岐阜外装,,株式会社,岐阜県,可児市,二野１８０２番地１,,21,214,5090232,,,,,,,2022-06-09,1,,,,,ギフガイソウ,0
1000,4210001018958,新規,0,2022-06-09,2022-06-09,株式会社山下土木,,株式会社,福井県,福井市,寺前町第１号２９番地２１,,18,201,9100801,,,,,,,2022-06-09,1,,,,,ヤマシタドボク,0
1014,4260001036914,新規,0,2022-06-09,2022-06-09,株式会社アカシック,,株式会社,岡山県,備前市,吉永町岩崎２０６番地,,33,211,7090226,,,,,,,2022-06-09,1,,,,,アカシック,0
1018,4290001097838,新規,0,2022-06-09,2022-06-09,ＲＡＣＥＳ株式会社,,株式会社,福岡県,福岡市博多区,博多駅前１丁目１５番２０号ＮＭＦ博多駅前ビル２階,,40,132,8120011,,,,,,,2022-06-09,1,,,,,レイス,0
1019,4290001097846,新規,0,2022-06-09,2022-06-09,株式会社Ｉｃｉ,,株式会社,福岡県,福岡市中央区,渡辺通２丁目９番８－４０１号,,40,133,8100004,,,,,,,2022-06-09,1,,,,,イシ,0
1025,4290003012605,新規,0,2022-06-09,2022-06-09,Ｐｒｏｐｅｒｔｙ　Ａｃｔｉｖａｔｉｏｎ合同会社,,合同会社,福岡県,福岡市西区,下山門４丁目１２－２０－３０２,,40,135,8190052,,,,,,,2022-06-09,1,,,,,プロパティアクティベーション,0
1027,4290805009559,新規,0,2022-06-09,2022-06-09,一般社団法人嵐山,,その他の設立登記法人,福岡県,北九州市小倉南区,徳力５丁目１０番１２号,,40,107,8020974,,,,,,,2022-06-09,1,,,,,アラシヤマ,0
1040,4360001030519,新規,0,2022-06-09,2022-06-09,株式会社一会,,株式会社,沖縄県,浦添市,宮城２丁目２８番６－１０１号マンション志,,47,208,9012126,,,,,,,2022-06-09,1,,,,,イチエ,0
1059,4430005014485,新規,0,2022-06-09,2022-06-09,一般社団法人ＵＴＡＲＩジュニアアスリートアカデミー,,その他の設立登記法人,北海道,江別市,大麻新町２２番地の２新町ハイツ３０５,,01,217,0690863,,,,,,,2022-06-09,1,,,,,ウタリジュニアアスリートアカデミー,0
1072,4500001024266,新規,0,2022-06-09,2022-06-09,株式会社ＡＮＧＯＵ,,株式会社,愛媛県,松山市,南斎院町１００２番地１,,38,201,7918032,,,,,,,2022-06-09,1,,,,,アンゴウ,0
1075,4700150040977,新規,0,2022-06-09,2015-10-09,鶴岡市八栄島地区自治振興会,,その他,山形県,鶴岡市,八色木字西野１０２－４,,06,203,9997631,,,,,,,2015-10-09,1,,,,,ツルオカシヤエジマチクジチシンコウカイ,0
1076,4700150108576,新規,0,2022-06-09,2022-05-10,古町地区道水路委員会,,その他,長野県,小県郡長和町,古町４２４７－１,,20,350,3860603,,,,,,,2022-05-10,1,,,,,フルマチチクドウスイロイインカイ,0
1077,4700150108948,新規,0,2022-06-09,2022-05-24,フルーツ村,,その他,東京都,大田区,上池台５丁目３－６－１０５,,13,111,1450064,,,,,,,2022-05-24,1,,,,,フルーツムラ,0
1089,5010001227181,新規,0,2022-06-09,2022-06-09,高樹町トラスト株式会社,,株式会社,東京都,千代田区,霞が関３丁目２番５号,,13,101,1000013,,,,,,,2022-06-09,1,,,,,タカギチョウトラスト,0
1092,5010003037835,新規,0,2022-06-09,2022-06-09,ＧＬＯＢＡＬ合同会社,,合同会社,東京都,中央区,佃２丁目２１番６号,,13,102,1040051,,,,,,,2022-06-09,1,,,,,,0
1093,5010003037851,新規,0,2022-06-09,2022-06-09,合同会社Ｊ＆ＴＣエナジーリンク,,合同会社,東京都,千代田区,霞が関３丁目２番５号,,13,101,1000013,,,,,,,2022-06-09,1,,,,,ジェイアンドティーシーエナジーリンク,0
1108,5011001147931,新規,0,2022-06-09,2022-06-09,株式会社エンタープライスタケダ,,株式会社,東京都,目黒区,平町１丁目２５番２３号,,13,110,1520032,,,,,,,2022-06-09,1,,,,,,0
1110,5011003014832,新規,0,2022-06-09,2022-06-09,合同会社ＴＢエネルギー５,,合同会社,東京都,渋谷区,渋谷２丁目２４番１２号,,13,113,1500002,,,,,,,2022-06-09,1,,,,,ティービーエネルギーゴ,0
1119,5011301027841,新規,0,2022-06-09,2022-06-09,Ｃｈａｍｏｚｅｓ株式会社,,株式会社,東京都,杉並区,下高井戸２丁目１０番３－３Ｊ号,,13,115,1680073,,,,,,,2022-06-09,1,,,,,チャモーゼス,0
1121,5011403003682,新規,0,2022-06-09,2022-06-09,合同会社ｑｕｅｅｎＢ,,合同会社,東京都,板橋区,南常盤台１丁目１１番６号レフア南常盤台１０１,,13,119,1740072,,,,,,,2022-06-09,1,,,,,クインビー,0
1126,5011701025370,新規,0,2022-06-09,2022-06-09,前山株式会社,,株式会社,東京都,江戸川区,東葛西６丁目２３番１６－３０１号,,13,123,1340084,,,,,,,2022-06-09,1,,,,,マエヤマ,0
1128,5011801040823,新規,0,2022-06-09,2022-06-09,株式会社高常電気,,株式会社,東京都,葛飾区,亀有４丁目８番５号,,13,122,1250061,,,,,,,2022-06-09,1,,,,,タカジョウデンキ,0
1132,5012401039280,新規,0,2022-06-09,2022-06-09,株式会社ユニオン,,株式会社,東京都,調布市,飛田給１丁目３１－８ＢＩＲＴＨＩＮ－ＲＥＳＩＤＥＮＣＥ飛田給４０２,,13,208,1820036,,,,,,,2022-06-09,1,,,,,ユニオン,0
1133,5012403005421,新規,0,2022-06-09,2022-06-09,合同会社Ｗａｖｅ,,合同会社,東京都,府中市,府中町２丁目３－８,,13,206,1830055,,,,,,,2022-06-09,1,,,,,ウェイブ,0
1136,5012701017093,新規,0,2022-06-09,2022-06-09,株式会社Ａ‐Ｔｅｎｔｏ,,株式会社,東京都,小平市,鈴木町１丁目１４０番地の３,,13,211,1870011,,,,,,,2022-06-09,1,,,,,エーテント,0
1143,5020001146868,新規,0,2022-06-09,2022-06-09,株式会社ケイツーガレージ,,株式会社,神奈川県,横浜市港北区,新羽町２０８２番地,,14,109,2230057,,,,,,,2022-06-09,1,,,,,ケイツーガレージ,0
1159,5021003011770,新規,0,2022-06-09,2022-06-09,合同会社服藤家,,合同会社,神奈川県,横須賀市,上町１丁目７３,,14,201,2380017,,,,,,,2022-06-09,1,,,,,ハラフジケ,0
1162,5030001148517,新規,0,2022-06-09,2022-06-09,株式会社アウロラ工房,,株式会社,埼玉県,越谷市,東越谷１０丁目１０７番地１２,,11,222,3430023,,,,,,,2022-06-09,1,,,,,アウロラコウボウ,0
1163,5030001148599,新規,0,2022-06-09,2022-06-09,株式会社ＳＡＫＥ　ＳＬＯＧＡＮＳ,,株式会社,埼玉県,志木市,本町５丁目２４－２１ＳＨＩＫＩＳＭビル４Ｆ,,11,228,3530004,,,,,,,2022-06-09,1,,,,,サケスローガンズ,0
1164,5030001148608,新規,0,2022-06-09,2022-06-09,株式会社エディーリーグ,,株式会社,埼玉県,鴻巣市,原馬室６４３番地４,,11,217,3650043,,,,,,,2022-06-09,1,,,,,エディーリーグ,0
1166,5030003019583,新規,0,2022-06-09,2022-06-09,合同会社テイアイパートナーズ,,合同会社,埼玉県,さいたま市北区,別所町２８番地２０,,11,102,3310821,,,,,,,2022-06-09,1,,,,,テイアイパートナーズ,0
1176,5040001123790,新規,0,2022-06-09,2022-06-09,Ｅ‐ＴＲＡＤＥ株式会社,,株式会社,千葉県,八街市,八街ほ２０番地２－２０１,,12,230,2891115,,,,,,,2022-06-09,1,,,,,イートレード,0
1183,5050003006605,新規,0,2022-06-09,2022-06-09,合同会社シマケン,,合同会社,茨城県,水戸市,飯島町１１３５番地の５,,08,201,3114155,,,,,,,2022-06-09,1,,,,,シマケン,0
1188,5070003004508,新規,0,2022-06-09,2022-06-09,合同会社ＬＯＤＥＳＴＡＲ,,合同会社,群馬県,伊勢崎市,連取町３００４番地５エレンシア２０６,,10,204,3720812,,,,,,,2022-06-09,1,,,,,ロードスター,0
1190,5080001025001,新規,0,2022-06-09,2022-06-09,株式会社ハレプラス,,株式会社,静岡県,焼津市,焼津１丁目１４番２６号,,22,212,4250026,,,,,,,2022-06-09,1,,,,,ハレプラス,0
1221,5120001246501,新規,0,2022-06-09,2022-06-09,株式会社外構屋‐知,,株式会社,大阪府,大阪市生野区,巽東４丁目４番２９号,,27,116,5440014,,,,,,,2022-06-09,1,,,,,ガイコウヤトモ,0
1222,5120001246542,新規,0,2022-06-09,2022-06-09,株式会社ＩＮＩＴＩＡＬ　ＬＩＮＥ,,株式会社,大阪府,大阪市北区,梅田１丁目１－３大阪駅前第３ビル２９階１－１－１号室,,27,127,5300001,,,,,,,2022-06-09,1,,,,,イニシャルライン,0
1225,5120003021794,新規,0,2022-06-09,2022-06-09,合同会社Ａｉｓｈｏ　Ｇｒｏｕｐ,,合同会社,大阪府,大阪市住吉区,長居東４丁目１１－８,,27,120,5580004,,,,,,,2022-06-09,1,,,,,アイショウグループ,0
1226,5120003021836,新規,0,2022-06-09,2022-06-09,合同会社ＡＧＴ,,合同会社,大阪府,大阪市西区,南堀江３丁目１０番１２－８０５号,,27,106,5500015,,,,,,,2022-06-09,1,,,,,エージーティー,0
1227,5120003021844,新規,0,2022-06-09,2022-06-09,美岐合同会社,,合同会社,大阪府,大阪市城東区,野江３丁目２６番１１号ファシールみや２０２号室,,27,118,5360006,,,,,,,2022-06-09,1,,,,,ミキ,0
1232,5120901046067,新規,0,2022-06-09,2022-06-09,株式会社Ｓａｒａｈ,,株式会社,大阪府,池田市,石橋１丁目８番１２号アゼリアタワーＢ１,,27,204,5630032,,,,,,,2022-06-09,1,,,,,サラー,0
1233,5120901046075,新規,0,2022-06-09,2022-06-09,さくはな株式会社,,株式会社,大阪府,豊中市,新千里東町２丁目５番２－１２０１号,,27,203,5600082,,,,,,,2022-06-09,1,,,,,サクハナ,0
1252,5160001024267,新規,0,2022-06-09,2022-06-09,ＢＥＥＦＵＰ株式会社,,株式会社,滋賀県,栗東市,綣７丁目１番１４－７０８号,,25,208,5203031,,,,,,,2022-06-09,1,,,,,ビーフアップ,0
1255,5170001017138,新規,0,2022-06-09,2022-06-09,株式会社御坊紙の杜,,株式会社,和歌山県,御坊市,名屋町３丁目５－１,,30,205,6440005,,,,,,,2022-06-09,1,,,,,ゴボウカミノモリ,0
1269,5180301036308,新規,0,2022-06-09,2022-06-09,株式会社ＴＥＣ安城,,株式会社,愛知県,安城市,三河安城南町１丁目１５番地１０,,23,212,4460058,,,,,,,2022-06-09,1,,,,,テックアンジョウ,0
1288,5240001059908,新規,0,2022-06-09,2022-06-09,株式会社丸川工業,,株式会社,広島県,広島市東区,牛田東１丁目２５番１５号,,34,102,7320063,,,,,,,2022-06-09,1,,,,,マルカワコウギョウ,0
1296,5290001097804,新規,0,2022-06-09,2022-06-09,株式会社ＳｋｙＳｉｇｎ,,株式会社,福岡県,福岡市博多区,博多駅南１丁目１５番１号,,40,132,8120016,,,,,,,2022-06-09,1,,,,,スカイサイン,0
1298,5290003012604,新規,0,2022-06-09,2022-06-09,合同会社フロントページ,,合同会社,福岡県,福岡市東区,香椎浜３丁目３番５－２５１０号モントーレ香椎浜サーフタワーセンターコート,,40,131,8130016,,,,,,,2022-06-09,1,,,,,フロントページ,0
1303,5300001012950,新規,0,2022-06-09,2022-06-09,株式会社ツルタ工業,,株式会社,佐賀県,東松浦郡玄海町,大字今村５３７０番地,,41,387,8471441,,,,,,,2022-06-09,1,,,,,ツルタコウギョウ,0
1310,5340003003787,新規,0,2022-06-09,2022-06-09,合同会社ｉｒｏｎｏｗａ,,合同会社,鹿児島県,鹿児島市,錦江台１丁目４８番地１号,,46,201,8910145,,,,,,,2022-06-09,1,,,,,イロノワ,0
1324,5400003002948,新規,0,2022-06-09,2022-06-09,Ｓｉｄｅ　Ｕ合同会社,,合同会社,岩手県,盛岡市,菜園１丁目３－６農林会館８階,,03,201,0200024,,,,,,,2022-06-09,1,,,,,サイドユウ,0
1335,5430005014484,新規,0,2022-06-09,2022-06-09,行政書士法人Ｉ,,その他の設立登記法人,北海道,札幌市北区,北十条西１丁目４番２号,,01,102,0010010,,,,,,,2022-06-09,1,,,,,アイ,0
1347,5700150080023,新規,0,2022-06-09,2017-01-17,高度資源循環・デジタル化推進協議会,,その他,福岡県,北九州市八幡東区,平野１丁目１－１,,40,108,8050062,,,,,,,2017-01-17,1,,,,,コウドシゲンジユンカンデジタルカスイシンキヨウギカイ,0
1349,5700150103080,新規,0,2022-06-09,2021-05-07,岐阜県多”食”種連携研究会,,その他,岐阜県,岐阜市,光町２丁目４６,,21,201,5020901,,,,,,,2021-05-07,1,,,,,ギフケンタシヨクシユレンケイケンキユウカイ,0
1350,5700150108245,新規,0,2022-06-09,2022-04-22,箱根おんがくの森実行委員会,,その他,神奈川県,足柄下郡湯河原町,宮上７６８番地の１４,,14,384,2590314,,,,,,,2022-04-22,1,,,,,ハコネオンガクノモリジツコウイインカイ,0
1351,5700150108823,新規,0,2022-06-09,2022-05-18,劇団☆流星群,,その他,大阪府,大阪市西成区,玉出中１丁目１－１０－９０３,,27,122,5570044,,,,,,,2022-05-18,1,,,,,ゲキダンリユウセイグン,0
1352,5700150109342,新規,0,2022-06-09,2022-06-09,ＢＩＬＡＡＬＳ＆ＣＯＭＰＡＮＹ　ＰＲＩＶＡＴＥ　ＬＩＭＩＴＥＤ,,外国会社等,茨城県,稲敷郡河内町,源清田１６７９－１フジプラス１０１,,08,447,3001324,スリランカ民主社会主義共和国、アクラナ、マタレロード、２３０／１,,,,,,2022-06-09,1,,,,,ビラールスアンドカンパニープライベートリミテツド,0
1367,6010001227164,新規,0,2022-06-09,2022-06-09,株式会社デザインリーダーシップ,,株式会社,東京都,千代田区,麹町２丁目１０番３号,,13,101,1020083,,,,,,,2022-06-09,1,,,,,デザインリーダーシップ,0
1369,6010003037842,新規,0,2022-06-09,2022-06-09,合同会社ＬＯＦＩＲ,,合同会社,東京都,中央区,銀座１丁目１２番４号Ｎ＆Ｅ，ＢＬＤ．７階,,13,102,1040061,,,,,,,2022-06-09,1,,,,,ロフィル,0
1370,6010003037850,新規,0,2022-06-09,2022-06-09,エスエルエステート１合同会社,,合同会社,東京都,中央区,日本橋室町２丁目４番３号,,13,102,1030022,,,,,,,2022-06-09,1,,,,,エスエルエステートワン,0
1378,6010401167836,新規,0,2022-06-09,2022-06-09,株式会社ＰＬＵＭＥＡＵ,,株式会社,東京都,港区,六本木６丁目７番１０号簗場ビル４Ｆ,,13,103,1060032,,,,,,,2022-06-09,1,,,,,プリュモゥ,0
1396,6011001147823,新規,0,2022-06-09,2022-06-09,株式会社フィロクラフト,,株式会社,東京都,渋谷区,神宮前６丁目２３番４号桑野ビル２階,,13,113,1500001,,,,,,,2022-06-09,1,,,,,フィロクラフト,0
1398,6011003014807,新規,0,2022-06-09,2022-06-09,合同会社ｇｉｆｔ,,合同会社,東京都,渋谷区,恵比寿南３丁目１－１９恵比寿ライトビル５Ｆ,,13,113,1500022,,,,,,,2022-06-09,1,,,,,ギフト,0
1399,6011003014831,新規,0,2022-06-09,2022-06-09,合同会社ＴＢエネルギー４,,合同会社,東京都,渋谷区,渋谷２丁目２４番１２号,,13,113,1500002,,,,,,,2022-06-09,1,,,,,ティービーエネルギーヨン,0
1400,6011005009598,新規,0,2022-06-09,2022-06-09,一般社団法人Ｐｅａｃｅ　Ｃａｒａｖａｎ,,その他の設立登記法人,東京都,渋谷区,神宮前６丁目２３番４号桑野ビル２階,,13,113,1500001,,,,,,,2022-06-09,1,,,,,ピースキャラバン,0
1406,6011101099122,新規,0,2022-06-09,2022-06-09,株式会社ふれあい,,株式会社,東京都,新宿区,西早稲田３丁目１番６号エミール西早稲田１Ｆ,,13,104,1690051,,,,,,,2022-06-09,1,,,,,フレアイ,0
1409,6011201023881,新規,0,2022-06-09,2022-06-09,株式会社ＮＥＸＴ,,株式会社,東京都,中野区,中央１丁目３８番１号,,13,114,1640011,,,,,,,2022-06-09,1,,,,,ネクスト,0
1410,6011303004433,新規,0,2022-06-09,2022-06-09,Ｈｅｉｋａｌａ合同会社,,合同会社,東京都,杉並区,高円寺北１丁目２１番５号高円寺Ｌｏｏｐ７,,13,115,1660002,,,,,,,2022-06-09,1,,,,,ヘイカラ,0
1419,6011801040830,新規,0,2022-06-09,2022-06-09,株式会社新小岩パーキング,,株式会社,東京都,葛飾区,新小岩１丁目４９番７号,,13,122,1240024,,,,,,,2022-06-09,1,,,,,シンコイワパーキング,0
1421,6012403005420,新規,0,2022-06-09,2022-06-09,合同会社ＩＧＡ,,合同会社,東京都,府中市,府中町２丁目３－８,,13,206,1830055,,,,,,,2022-06-09,1,,,,,アイジーエー,0
1425,6020001146776,新規,0,2022-06-09,2022-06-09,みらいソリューション株式会社,,株式会社,神奈川県,横浜市戸塚区,矢部町２６番地,,14,110,2440002,,,,,,,2022-06-09,1,,,,,ミライソリューション,0
1426,6020001146859,新規,0,2022-06-09,2022-06-09,株式会社黒川たまご,,株式会社,神奈川県,川崎市麻生区,黒川１７７５番地,,14,137,2150035,,,,,,,2022-06-09,1,,,,,クロカワタマゴ,0
1427,6020001146867,新規,0,2022-06-09,2022-06-09,ブッシュイン株式会社,,株式会社,神奈川県,横浜市西区,浅間町４丁目３３４番地６,,14,103,2200072,,,,,,,2022-06-09,1,,,,,ブッシュイン,0
1435,6021003011761,新規,0,2022-06-09,2022-06-09,合同会社杜もり,,合同会社,神奈川県,相模原市南区,上鶴間本町５丁目１８番９号第２すくねハイツ１０５,,14,153,2520318,,,,,,,2022-06-09,1,,,,,モリモリ,0
1446,6030001148573,新規,0,2022-06-09,2022-06-09,株式会社意匠大工,,株式会社,埼玉県,坂戸市,大字中里２５番地,,11,239,3500252,,,,,,,2022-06-09,1,,,,,イショウダイク,0
1453,6040001123765,新規,0,2022-06-09,2022-06-09,株式会社ニューロメイト,,株式会社,千葉県,千葉市中央区,新千葉１丁目７番２号,,12,101,2600031,,,,,,,2022-06-09,1,,,,,ニューロメイト,0
1456,6040003020201,新規,0,2022-06-09,2022-06-09,合同会社ブリス,,合同会社,千葉県,船橋市,松が丘２丁目３１番７号,,12,204,2740064,,,,,,,2022-06-09,1,,,,,ブリス,0
1457,6040005021643,新規,0,2022-06-09,2022-06-09,社会福祉法人こころ,,その他の設立登記法人,千葉県,流山市,西初石３丁目３番地７,,12,220,2700121,,,,,,,2022-06-09,1,,,,,ココロ,0
1461,6050003006604,新規,0,2022-06-09,2022-06-09,合同会社ヌーベル・マリエ,,合同会社,茨城県,土浦市,桜町２丁目８番２号,,08,203,3000037,,,,,,,2022-06-09,1,,,,,ヌーベルマリエ,0
1468,6080003002815,新規,0,2022-06-09,2022-06-09,合同会社Ｙｕｕ’ｓ　Ｌａｂ,,合同会社,静岡県,静岡市葵区,安西５丁目７０番地の５,,22,101,4200011,,,,,,,2022-06-09,1,,,,,ユウズラボ,0
1475,6080401025871,新規,0,2022-06-09,2022-06-09,株式会社ディーアールプロパティ,,株式会社,静岡県,浜松市中区,幸２丁目２番３号,,22,131,4338123,,,,,,,2022-06-09,1,,,,,ディーアールプロパティ,0
1493,6120001246517,新規,0,2022-06-09,2022-06-09,株式会社ルミナス,,株式会社,大阪府,大阪市北区,鶴野町３番９ザ・梅田タワー１７１０号,,27,127,5300014,,,,,,,2022-06-09,1,,,,,ルミナス,0
1494,6120001246525,新規,0,2022-06-09,2022-06-09,株式会社ＡＮ　ＧＲＯＵＰ,,株式会社,大阪府,大阪市阿倍野区,阪南町５丁目１１－２５－１０１号,,27,119,5450021,,,,,,,2022-06-09,1,,,,,アングループ,0
1495,6120001246541,新規,0,2022-06-09,2022-06-09,東紀楽株式会社,,株式会社,大阪府,大阪市西成区,天下茶屋東２丁目１２－３,,27,122,5570011,,,,,,,2022-06-09,1,,,,,トウキラク,0
1498,6120003021835,新規,0,2022-06-09,2022-06-09,合同会社善助,,合同会社,大阪府,大阪市東淀川区,豊新３丁目１９番１６号－３０１,,27,114,5330014,,,,,,,2022-06-09,1,,,,,ゼンスケ,0
1499,6120005022988,新規,0,2022-06-09,2022-06-09,ＮＰＯ法人オクトパス・ガーデン,,その他の設立登記法人,大阪府,大阪市鶴見区,鶴見４丁目８番２号コージースクエア今福鶴見２０２号,,27,124,5380053,,,,,,,2022-06-09,1,,,,,オクトパスガーデン,0
1505,6120901046066,新規,0,2022-06-09,2022-06-09,ＫＨ株式会社,,株式会社,大阪府,吹田市,千里丘中３４番２６号,,27,205,5650812,,,,,,,2022-06-09,1,,,,,ケーエイチ,0
1513,6130001071955,新規,0,2022-06-09,2022-06-09,リヴスタイルハウス株式会社,,株式会社,京都府,向日市,寺戸町七ノ坪１４１番地,,26,208,6170002,,,,,,,2022-06-09,1,,,,,リヴスタイルハウス,0
1525,6140003017732,新規,0,2022-06-09,2022-06-09,合同会社集,,合同会社,兵庫県,明石市,朝霧南町３丁目１５番３９号,,28,203,6730870,,,,,,,2022-06-09,1,,,,,ツドイ,0
1526,6140003017749,新規,0,2022-06-09,2022-06-09,Ｓ．Ｍ．Ｔ合同会社,,合同会社,兵庫県,姫路市,豊富町豊富２６２８番地１,,28,201,6792123,,,,,,,2022-06-09,1,,,,,エスエムティー,0
1528,6140005026203,新規,0,2022-06-09,2022-06-09,農事組合法人岡東営農組合,,その他の設立登記法人,兵庫県,加古郡稲美町,岡８７１番地の１,,28,381,6751113,,,,,,,2022-06-09,1,,,,,オカヒガシエイノウクミアイ,0
1533,6160001024258,新規,0,2022-06-09,2022-06-09,株式会社森本工建,,株式会社,滋賀県,守山市,守山３丁目２４番３０－６０４号,,25,207,5240022,,,,,,,2022-06-09,1,,,,,モリモトコウケン,0
1534,6160001024266,新規,0,2022-06-09,2022-06-09,株式会社アスホホールディングス,,株式会社,滋賀県,長浜市,西上坂町３３６番地,,25,203,5260803,,,,,,,2022-06-09,1,,,,,アスホホールディングス,0
1535,6160001024274,新規,0,2022-06-09,2022-06-09,株式会社ＣＯＣＯＭＩＬ,,株式会社,滋賀県,大津市,唐橋町３－１５メイツブラン大津石山６０８,,25,201,5200851,,,,,,,2022-06-09,1,,,,,ココミル,0
1566,6240001059907,新規,0,2022-06-09,2022-06-09,一新貿易株式会社,,株式会社,広島県,広島市東区,光町２丁目７番３５－２０１号,,34,102,7320052,,,,,,,2022-06-09,1,,,,,イッシンボウエキ,0
1577,6290001097828,新規,0,2022-06-09,2022-06-09,株式会社ベストアイディア,,株式会社,福岡県,福岡市西区,姪の浜６丁目７番３号,,40,135,8190002,,,,,,,2022-06-09,1,,,,,ベストアイディア,0
1578,6290001097844,新規,0,2022-06-09,2022-06-09,株式会社福商国際,,株式会社,福岡県,福岡市博多区,博多駅東２丁目５番１９号,,40,132,8120013,,,,,,,2022-06-09,1,,,,,フクショウコクサイ,0
1579,6290001097852,新規,0,2022-06-09,2022-06-09,Ｒｏｕｔｅ６６株式会社,,株式会社,福岡県,福岡市中央区,平尾２丁目１０番５号,,40,133,8100014,,,,,,,2022-06-09,1,,,,,ルートロクロク,0
1582,6290003012594,新規,0,2022-06-09,2022-06-09,合同会社和尚,,合同会社,福岡県,糟屋郡宇美町,神武原３丁目９番地３,,40,341,8112129,,,,,,,2022-06-09,1,,,,,オショウ,0
1591,6340001024792,新規,0,2022-06-09,2022-06-09,株式会社クリーンコスモス,,株式会社,鹿児島県,鹿児島市,小野４丁目３番１９号,,46,201,8900021,,,,,,,2022-06-09,1,,,,,クリーンコスモス,0
1597,6360001030525,新規,0,2022-06-09,2022-06-09,株式会社よしなり産業,,株式会社,沖縄県,うるま市,字上江洲２２番地,,47,213,9042222,,,,,,,2022-06-09,1,,,,,ヨシナリサンギョウ,0
1601,6360003012059,新規,0,2022-06-09,2022-06-09,Ｒ３６５合同会社,,合同会社,沖縄県,宜野湾市,宜野湾３丁目１８番１号,,47,205,9012211,,,,,,,2022-06-09,1,,,,,アールサンロクゴ,0
1605,6370005010489,新規,0,2022-06-09,2022-06-09,医療法人東あおば整形外科,,その他の設立登記法人,宮城県,仙台市宮城野区,新田東１丁目９番１号,,04,102,9830039,,,,,,,2022-06-09,1,,,,,ヒガシアオバセイケイゲカ,0
1626,6470001019111,新規,0,2022-06-09,2022-06-09,株式会社モシモシ３６５,,株式会社,香川県,高松市,亀岡町１番３１号丸山ビル２Ｆ,,37,201,7600006,,,,,,,2022-06-09,1,,,,,モシモシサンビャクロクジュウゴ,0
1629,6500001024264,新規,0,2022-06-09,2022-06-09,株式会社ＤＩＭ,,株式会社,愛媛県,松山市,来住町８５１番地２６,,38,201,7911102,,,,,,,2022-06-09,1,,,,,ディーアイエム,0
1630,6500003002846,新規,0,2022-06-09,2022-06-09,合同会社辰揮,,合同会社,愛媛県,松山市,西長戸町３０５番地１,,38,201,7918017,,,,,,,2022-06-09,1,,,,,タツキ,0
1646,7010001227122,新規,0,2022-06-09,2022-06-09,株式会社ＢＵＴＣＨＡＫＥ,,株式会社,東京都,千代田区,麹町３丁目４番１号麹町三丁目Ｂ．Ｌ．Ｄ１０２,,13,101,1020083,,,,,,,2022-06-09,1,,,,,ブッチャケ,0
1647,7010003037800,新規,0,2022-06-09,2022-06-09,合同会社東雲総合研究所,,合同会社,東京都,中央区,銀座１丁目１２－４Ｎ＆ＥＢＬＤ．７階,,13,102,1040061,,,,,,,2022-06-09,1,,,,,シノノメソウゴウケンキュウジョ,0
1680,7011001147938,新規,0,2022-06-09,2022-06-09,株式会社カチカク,,株式会社,東京都,渋谷区,千駄ヶ谷５丁目２７番５号リンクスクエア新宿１６階,,13,113,1510051,,,,,,,2022-06-09,1,,,,,カチカク,0
1682,7011003014830,新規,0,2022-06-09,2022-06-09,合同会社ＴＢエネルギー３,,合同会社,東京都,渋谷区,渋谷２丁目２４番１２号,,13,113,1500002,,,,,,,2022-06-09,1,,,,,ティービーエネルギーサン,0
1689,7011103011835,新規,0,2022-06-09,2022-06-09,Ｒｉｇｈｔｌｉｎｋ合同会社,,合同会社,東京都,新宿区,榎町３４－３榎町ビル５階,,13,104,1620806,,,,,,,2022-06-09,1,,,,,ライトリンク,0
1690,7011201023872,新規,0,2022-06-09,2022-06-09,株式会社ＲＡＩＳＥ,,株式会社,東京都,中野区,中野５丁目６７番７号プラザ中野５０３,,13,114,1640001,,,,,,,2022-06-09,1,,,,,レイズ,0
1692,7011601026021,新規,0,2022-06-09,2022-06-09,株式会社ＧＡＴＴＵＳＯ,,株式会社,東京都,練馬区,東大泉２丁目３１－１３,,13,120,1780063,,,,,,,2022-06-09,1,,,,,ガットゥーゾ,0
1696,7011701025360,新規,0,2022-06-09,2022-06-09,株式会社アイマ,,株式会社,東京都,江戸川区,本一色３丁目１８番９号,,13,123,1330044,,,,,,,2022-06-09,1,,,,,アイマ,0
1699,7012801021638,新規,0,2022-06-09,2022-06-09,エムエストラスト株式会社,,株式会社,東京都,立川市,柴崎町３丁目５番１－８０４号,,13,202,1900023,,,,,,,2022-06-09,1,,,,,エムエストラスト,0
1703,7013101008937,新規,0,2022-06-09,2022-06-09,ＴＮＮ　ｔｒｉｄｅｖｉ株式会社,,株式会社,東京都,青梅市,河辺町８丁目２０番１７号,,13,205,1980036,,,,,,,2022-06-09,1,,,,,ティーエヌエヌトリデビ,0
1709,7020001146809,新規,0,2022-06-09,2022-06-09,株式会社太陽ワークス,,株式会社,神奈川県,横浜市緑区,寺山町７６１番地ロンヴェルサン１０５号,,14,113,2260013,,,,,,,2022-06-09,1,,,,,タイヨウワークス,0
1710,7020001146817,新規,0,2022-06-09,2022-06-09,ＣＨＩＫＡＲＡ株式会社,,株式会社,神奈川県,横浜市南区,榎町１丁目１－７リブハピネス横浜６０１号室,,14,105,2320044,,,,,,,2022-06-09,1,,,,,チカラ,0
1712,7020003021885,新規,0,2022-06-09,2022-06-09,合同会社シロッコ,,合同会社,神奈川県,横浜市青葉区,大場町３８２番地３８,,14,117,2250023,,,,,,,2022-06-09,1,,,,,シロッコ,0
1713,7020003021893,新規,0,2022-06-09,2022-06-09,合同会社ＭＭＧテック,,合同会社,神奈川県,横浜市鶴見区,馬場１丁目１０番２０号,,14,101,2300076,,,,,,,2022-06-09,1,,,,,エムエムジーテック,0
1723,7030001148597,新規,0,2022-06-09,2022-06-09,株式会社ディンリーマシナリージャパン,,株式会社,埼玉県,さいたま市岩槻区,大字飯塚７３４番地１,,11,110,3390031,,,,,,,2022-06-09,1,,,,,ディンリーマシナリージャパン,0
1730,7030003019532,新規,0,2022-06-09,2022-06-09,合同会社Ａｔｅｌｉｅｒ　ＫＡＴＡ,,合同会社,埼玉県,朝霞市,東弁財３丁目１５番３号,,11,227,3510022,,,,,,,2022-06-09,1,,,,,アトリエカタ,0
1731,7030003019557,新規,0,2022-06-09,2022-06-09,ＤＮＧエンタープライセス合同会社,,合同会社,埼玉県,加須市,阿良川３８９－２,,11,210,3470047,,,,,,,2022-06-09,1,,,,,ディーエヌジーエンタープライセス,0
1738,7050001051213,新規,0,2022-06-09,2022-06-09,株式会社ＳＨＩＨＯＵインキュベート,,株式会社,茨城県,下妻市,高道祖３０９番地２４,,08,210,3040031,,,,,,,2022-06-09,1,,,,,シホウインキュベート,0
1745,7080401025870,新規,0,2022-06-09,2022-06-09,ＭＳＳ株式会社,,株式会社,静岡県,浜松市東区,積志町１６８３番地,,22,132,4313114,,,,,,,2022-06-09,1,,,,,エムエスエス,0
1767,7120001246433,新規,0,2022-06-09,2022-06-09,株式会社Ｃｈｉｋｋｕｎ,,株式会社,大阪府,大阪市淀川区,塚本２丁目１７番１２号,,27,123,5320026,,,,,,,2022-06-09,1,,,,,チックン,0
1768,7120001246499,新規,0,2022-06-09,2022-06-09,ＦｏｒＬｉｎ株式会社,,株式会社,大阪府,大阪市都島区,善源寺町２丁目２番８号,,27,102,5340015,,,,,,,2022-06-09,1,,,,,フォーリン,0
1769,7120001246508,新規,0,2022-06-09,2022-06-09,株式会社Ｐｉｕｍａ,,株式会社,大阪府,大阪市北区,曾根崎２丁目８番５号,,27,127,5300057,,,,,,,2022-06-09,1,,,,,ピウマ,0
1770,7120001246540,新規,0,2022-06-09,2022-06-09,株式会社ＣＡＤＬＩＮＥ,,株式会社,大阪府,大阪市北区,梅田１丁目１番３大阪駅前第３ビル２９階１－１－１号室,,27,127,5300001,,,,,,,2022-06-09,1,,,,,キャドライン,0
1773,7120003021842,新規,0,2022-06-09,2022-06-09,合同会社アイビーユー,,合同会社,大阪府,大阪市中央区,南久宝寺町２丁目２番１－４０２号,,27,128,5410058,,,,,,,2022-06-09,1,,,,,アイビーユー,0
1779,7120901046073,新規,0,2022-06-09,2022-06-09,ネオパワーシステムズ株式会社,,株式会社,大阪府,吹田市,古江台５丁目１番２１－４２３号,,27,205,5650874,,,,,,,2022-06-09,1,,,,,ネオパワーシステムズ,0
1785,7140001126253,新規,0,2022-06-09,2022-06-09,株式会社ｅｎ,,株式会社,兵庫県,神戸市兵庫区,吉田町２丁目３０番１－１,,28,105,6520872,,,,,,,2022-06-09,1,,,,,エン,0
1786,7140003017780,新規,0,2022-06-09,2022-06-09,ＴＷＩＮ　ＡＲＴ合同会社,,合同会社,兵庫県,西宮市,与古道町２番２１号,,28,204,6620917,,,,,,,2022-06-09,1,,,,,ツインアート,0
1788,7150003002699,新規,0,2022-06-09,2022-06-09,合同会社エール,,合同会社,奈良県,葛城市,林堂２８５番地４,,29,211,6392131,,,,,,,2022-06-09,1,,,,,エール,0
1789,7160001024265,新規,0,2022-06-09,2022-06-09,株式会社ＪＫＤ,,株式会社,滋賀県,守山市,立田町４０９８番地２,,25,207,5240214,,,,,,,2022-06-09,1,,,,,ジェイケーディー,0
1798,7180003023908,新規,0,2022-06-09,2022-06-09,合同会社ワイケステート,,合同会社,愛知県,日進市,藤塚３丁目２７９番地５,,23,230,4700117,,,,,,,2022-06-09,1,,,,,ワイケステート,0
1799,7180003023916,新規,0,2022-06-09,2022-06-09,合同会社就業支援,,合同会社,愛知県,知多市,岡田字越地２５番地の４,,23,224,4780021,,,,,,,2022-06-09,1,,,,,シュウギョウシエン,0
1819,7230005009239,新規,0,2022-06-09,2022-06-09,医療法人社団しのざき小児科,,その他の設立登記法人,富山県,黒部市,三日市１０６２,,16,207,9380031,,,,,,,2022-06-09,1,,,,,シノザキショウニカ,0
1846,7290005018713,新規,0,2022-06-09,2022-06-09,一般社団法人ふるさと推進隊,,その他の設立登記法人,福岡県,大牟田市,小浜町７７番地８３,,40,202,8360034,,,,,,,2022-06-09,1,,,,,フルサトスイシンタイ,0
1854,7320001019117,新規,0,2022-06-09,2022-06-09,株式会社エイムネットサービス,,株式会社,大分県,大分市,中津留１丁目３番１５号,,44,201,8700939,,,,,,,2022-06-09,1,,,,,エイムネットサービス,0
1857,7330001029791,新規,0,2022-06-09,2022-06-09,ＫＡＳＡＮＥＲＵ株式会社,,株式会社,熊本県,阿蘇郡南小国町,大字赤馬場１８９６番地７,,43,423,8692401,,,,,,,2022-06-09,1,,,,,カサネル,0
1858,7330001029809,新規,0,2022-06-09,2022-06-09,株式会社ＫＡＬＥＩＤＯ,,株式会社,熊本県,玉名市,天水町小天３８４２番地１,,43,206,8615401,,,,,,,2022-06-09,1,,,,,カレード,0
1895,7490003001667,新規,0,2022-06-09,2022-06-09,合同会社溝渕商店,,合同会社,高知県,南国市,大＿乙１２９３番地の１,00126822,39,204,7830005,,,,,,,2022-06-09,1,,,,,ミゾブチショウテン,0
1916,8010001227162,新規,0,2022-06-09,2022-06-09,株式会社ＴＳＨ,,株式会社,東京都,千代田区,内神田３丁目１９番７号神田北口駅前ビル２階,,13,101,1010047,,,,,,,2022-06-09,1,,,,,ティーエスエイチ,0
1917,8010001227187,新規,0,2022-06-09,2022-06-09,株式会社ｗｅ　ｌａｂｏ,,株式会社,東京都,中央区,銀座２丁目８番１８号８階,,13,102,1040061,,,,,,,2022-06-09,1,,,,,ウィーラボ,0
1918,8010001227195,新規,0,2022-06-09,2022-06-09,株式会社明日葉舎,,株式会社,東京都,文京区,本郷３丁目４２番２－５０１号,,13,105,1130033,,,,,,,2022-06-09,1,,,,,アシタバシャ,0
1919,8010001227237,新規,0,2022-06-09,2022-06-09,日本千葉化工株式会社,,株式会社,東京都,中央区,東日本橋２丁目２８番５号５０８,,13,102,1030004,,,,,,,2022-06-09,1,,,,,ニホンチバカコウ,0
1921,8010003037857,新規,0,2022-06-09,2022-06-09,合同会社Ｍｏｒｒｙ　Ｉｎｃ．,,合同会社,東京都,千代田区,丸の内２丁目３番２号郵船ビルディング１階,,13,101,1000005,,,,,,,2022-06-09,1,,,,,モリーインク,0
1933,8010401167842,新規,0,2022-06-09,2022-06-09,ミラワークス株式会社,,株式会社,東京都,港区,六本木３丁目９番１１号,,13,103,1060032,,,,,,,2022-06-09,1,,,,,ミラワークス,0
1942,8010405021087,新規,0,2022-06-09,2022-06-09,ＭＦ４ＪＰＮ一般社団法人,,その他の設立登記法人,東京都,港区,虎ノ門３丁目２２番１０－２０１号,,13,103,1050001,,,,,,,2022-06-09,1,,,,,エムエフフォージェイピーエヌ,0
1943,8010501048926,新規,0,2022-06-09,2022-06-09,一心アグリテク株式会社,,株式会社,東京都,台東区,台東１丁目２９－３イースタンクロスアキバ３１５号室,,13,106,1100016,,,,,,,2022-06-09,1,,,,,イッシンアグリテク,0
1961,8011003014722,新規,0,2022-06-09,2022-06-09,合同会社Ｔｒｅｆｌｅ,,合同会社,東京都,目黒区,下目黒２丁目２３－２１－６１２,,13,110,1530064,,,,,,,2022-06-09,1,,,,,トレフル,0
1962,8011003014805,新規,0,2022-06-09,2022-06-09,合同会社アナログプラン,,合同会社,東京都,渋谷区,幡ヶ谷３丁目２０番２号,,13,113,1510072,,,,,,,2022-06-09,1,,,,,アナログプラン,0
1965,8011101099153,新規,0,2022-06-09,2022-06-09,Ｔｏｋｙｏ　ｅｓｐｏｒｔｓ株式会社,,株式会社,東京都,新宿区,百人町１丁目１５－２９－１０５,,13,104,1690073,,,,,,,2022-06-09,1,,,,,トウキョウイースポーツ,0
1966,8011103011826,新規,0,2022-06-09,2022-06-09,合同会社ＹＧＤ‐Ｓ２,,合同会社,東京都,新宿区,歌舞伎町２丁目１８－５プラーズタワー１８０５,,13,104,1600021,,,,,,,2022-06-09,1,,,,,,0
1967,8011103011834,新規,0,2022-06-09,2022-06-09,ロジスト・ストラテジー合同会社,,合同会社,東京都,新宿区,榎町３４－３榎町ビル５階,,13,104,1620806,,,,,,,2022-06-09,1,,,,,ロジストストラテジー,0
1974,8011701025368,新規,0,2022-06-09,2022-06-09,株式会社向心重量,,株式会社,東京都,江戸川区,江戸川４丁目２２番地５,,13,123,1340013,,,,,,,2022-06-09,1,,,,,コウシンジュウリョウ,0
1975,8011703003157,新規,0,2022-06-09,2022-06-09,Ｃｏｏｐｅｒａｔｏｒ合同会社,,合同会社,東京都,江戸川区,小松川１丁目２番２－３１０号,,13,123,1320034,,,,,,,2022-06-09,1,,,,,コーペレイター,0
1978,8011801040829,新規,0,2022-06-09,2022-06-09,株式会社ＫＲ,,株式会社,東京都,足立区,関原２丁目１５番１０号,,13,121,1230852,,,,,,,2022-06-09,1,,,,,ケイアール,0
1987,8012801021637,新規,0,2022-06-09,2022-06-09,株式会社ＢＲ,,株式会社,東京都,立川市,砂川町６丁目３２番地の２２,,13,202,1900031,,,,,,,2022-06-09,1,,,,,ビーアール,0
2005,8020003021884,新規,0,2022-06-09,2022-06-09,オフレコード合同会社,,合同会社,神奈川県,横浜市青葉区,つつじが丘５番地２－６０２号,,14,117,2270055,,,,,,,2022-06-09,1,,,,,オフレコード,0
2014,8030001148596,新規,0,2022-06-09,2022-06-09,株式会社咲榮,,株式会社,埼玉県,さいたま市見沼区,東大宮７丁目６７－１ダイアパレス２０９,,11,104,3370051,,,,,,,2022-06-09,1,,,,,ショウエイ,0
2015,8030001148605,新規,0,2022-06-09,2022-06-09,株式会社ＭＩＹＡＶＩ,,株式会社,埼玉県,所沢市,東狭山ケ丘１丁目３５番地の１５,,11,208,3591106,,,,,,,2022-06-09,1,,,,,ミヤビ,0
2018,8030003019556,新規,0,2022-06-09,2022-06-09,合同会社エイト,,合同会社,埼玉県,春日部市,中央１丁目９番１３Ｍ２ビル５階Ａ号室,,11,214,3440067,,,,,,,2022-06-09,1,,,,,エイト,0
2022,8040001123664,新規,0,2022-06-09,2022-06-09,株式会社ＫＦ　ＪＡＰＡＮ,,株式会社,千葉県,野田市,尾崎２５４番地石山ビル２０２,,12,208,2700235,,,,,,,2022-06-09,1,,,,,ケイエフジャパン,0
2023,8040001123771,新規,0,2022-06-09,2022-06-09,株式会社惠創業,,株式会社,千葉県,千葉市若葉区,原町９１９番地７ロイヤルパレス１０３号,,12,104,2640034,,,,,,,2022-06-09,1,,,,,メグミソウギョウ,0
2025,8040003020208,新規,0,2022-06-09,2022-06-09,合同会社Ｆｌｏｗｅｒ　Ｈｅａｖｅｎ,,合同会社,千葉県,市川市,南大野１丁目４０番１２－３０９号,,12,203,2720804,,,,,,,2022-06-09,1,,,,,フラワーヘブン,0
2026,8040003020216,新規,0,2022-06-09,2022-06-09,Ｖａｌｕｅ　Ｄｙｎａｍｉｃｓ　Ｂｒａｉｎｓ合同会社,,合同会社,千葉県,柏市,逆井２丁目３１番３４号,,12,217,2770042,,,,,,,2022-06-09,1,,,,,バリューダイナミクスブレインズ,0
2036,8050001051162,新規,0,2022-06-09,2022-06-09,白河電機工業株式会社,,株式会社,茨城県,土浦市,東真鍋町２２番２１号エミネンス光風２０１,,08,203,3000052,,,,,,,2022-06-09,1,,,,,シラカワデンキコウギョウ,0
2041,8060003004101,新規,0,2022-06-09,2022-06-09,シラズ貿易合同会社,,合同会社,栃木県,小山市,大字大行寺１１４８番地１８アンビション白鴎大前２号館２０１号室,,09,208,3230041,,,,,,,2022-06-09,1,,,,,シラズボウエキ,0
2059,8110001036727,新規,0,2022-06-09,2022-06-09,株式会社小川技建工業,,株式会社,新潟県,新潟市東区,寺山３丁目３１番８号,,15,102,9500892,,,,,,,2022-06-09,1,,,,,オガワギケンコウギョウ,0
2065,8120001246390,新規,0,2022-06-09,2022-06-09,株式会社ＣＯＮＮＥＫＴＩＯ,,株式会社,大阪府,大阪市北区,梅田２丁目５番１３号桜橋第一ビル３０４号,,27,127,5300001,,,,,,,2022-06-09,1,,,,,コネクティオ,0
2066,8120001246440,新規,0,2022-06-09,2022-06-09,株式会社てっぺん,,株式会社,大阪府,大阪市北区,本庄西１丁目６番２６号,,27,127,5310073,,,,,,,2022-06-09,1,,,,,テッペン,0
2067,8120001246449,新規,0,2022-06-09,2022-06-09,不二株式会社,,株式会社,大阪府,大阪市西成区,天神ノ森１丁目４番２号２０５室,,27,122,5570013,,,,,,,2022-06-09,1,,,,,フジ,0
2068,8120001246473,新規,0,2022-06-09,2022-06-09,栄和株式会社,,株式会社,大阪府,大阪市生野区,巽北２丁目１０番１６号,00126823,27,116,5440004,,,,,,,2022-06-09,1,,,,,エイワ,0
2069,8120001246548,新規,0,2022-06-09,2022-06-09,致合株式会社,,株式会社,大阪府,大阪市西成区,鶴見橋１丁目７番１号,,27,122,5570031,,,,,,,2022-06-09,1,,,,,チゴウ,0
2078,8122001035922,新規,0,2022-06-09,2022-06-09,株式会社イルミナール,,株式会社,大阪府,東大阪市,若江東町２丁目７番１ライオンズマンション若江東壱号館９０５号室,,27,227,5780935,,,,,,,2022-06-09,1,,,,,イルミナール,0
2079,8122001035930,新規,0,2022-06-09,2022-06-09,ｍｏｕｎｔｒｅｅ株式会社,,株式会社,大阪府,東大阪市,菱屋東３丁目２番３１号,,27,227,5780948,,,,,,,2022-06-09,1,,,,,マウントリー,0
2080,8122001035939,新規,0,2022-06-09,2022-06-09,株式会社マルヒサ,,株式会社,大阪府,東大阪市,荒川２丁目２１番６号,,27,227,5770843,,,,,,,2022-06-09,1,,,,,マルヒサ,0
2094,8160005011085,新規,0,2022-06-09,2022-06-09,特定非営利活動法人にじいろＢｉｗａｋｏ,,その他の設立登記法人,滋賀県,大津市,富士見台３２番２１号,,25,201,5200846,,,,,,,2022-06-09,1,,,,,ニジイロビワコ,0
2105,8180001151668,新規,0,2022-06-09,2022-06-09,株式会社ＸＬＩＮＫ,,株式会社,愛知県,名古屋市名東区,高社１丁目２５０番地,,23,115,4650095,,,,,,,2022-06-09,1,,,,,クロスリンク,0
2107,8180305009348,新規,0,2022-06-09,2022-06-09,一般社団法人プロセス・コンサルテーション学会,,その他の設立登記法人,愛知県,みよし市,福田町一本松１８番地４,,23,236,4700225,,,,,,,2022-06-09,1,,,,,プロセスコンサルテーションガッカイ,0
2108,8190001029500,新規,0,2022-06-09,2022-06-09,株式会社カメリア,,株式会社,三重県,津市,桜橋２丁目１７８番地,,24,201,5140003,,,,,,,2022-06-09,1,,,,,カメリア,0
2110,8190005011710,新規,0,2022-06-09,2022-06-09,一般社団法人ゆずり葉,,その他の設立登記法人,三重県,桑名市,大字和泉２４８番地１,,24,205,5110838,,,,,,,2022-06-09,1,,,,,,0
2114,8210003001520,新規,0,2022-06-09,2022-06-09,ＰａｓｔｅｌＷｏｒｋｓ合同会社,,合同会社,福井県,坂井市,丸岡町北横地第２８号２２番地,,18,210,9100374,,,,,,,2022-06-09,1,,,,,パステルワークス,0
2118,8240001059905,新規,0,2022-06-09,2022-06-09,株式会社松茸問屋あべ商店,,株式会社,広島県,世羅郡世羅町,大字西神崎９５８番地１,,34,462,7221115,,,,,,,2022-06-09,1,,,,,マツタケトンヤアベショウテン,0
2131,8270003001408,新規,0,2022-06-09,2022-06-09,合同会社結,,合同会社,鳥取県,米子市,観音寺２１１,,31,202,6830007,,,,,,,2022-06-09,1,,,,,ユイ,0
2134,8290003012592,新規,0,2022-06-09,2022-06-09,どれみ介護支援センター合同会社,,合同会社,福岡県,嘉麻市,山野１６５０番地,,40,227,8200202,,,,,,,2022-06-09,1,,,,,ドレミカイゴシエンセンター,0
2142,8330001029808,新規,0,2022-06-09,2022-06-09,パンゲア株式会社,,株式会社,熊本県,熊本市西区,池田２丁目６２番５号,,43,103,8600082,,,,,,,2022-06-09,1,,,,,パンゲア,0
2147,8340001024790,新規,0,2022-06-09,2022-06-09,株式会社ＩＳ　ＮＥＡＲ,,株式会社,鹿児島県,西之表市,東町９９番地,,46,213,8913113,,,,,,,2022-06-09,1,,,,,イズニアー,0
2154,8370003005729,新規,0,2022-06-09,2022-06-09,合同会社Ｒ＆Ｒ,,合同会社,宮城県,登米市,豊里町迫１１５番地３,,04,212,9870344,,,,,,,2022-06-09,1,,,,,アールアンドアール,0
2166,8460301005074,新規,0,2022-06-09,2022-06-09,株式会社山幸草地,,株式会社,北海道,網走郡美幌町,字栄森３８番地の１７３,,01,543,0920174,,,,,,,2022-06-09,1,,,,,サンコウソウチ,0
2167,8490003001666,新規,0,2022-06-09,2022-06-09,合同会社芸西プロジェクト,,合同会社,高知県,高知市,北本町４丁目３番２５号,,39,201,7800056,,,,,,,2022-06-09,1,,,,,ゲイセイプロジェクト,0
2171,8500005008501,新規,0,2022-06-09,2022-06-09,一般社団法人医療福祉環境研究会,,その他の設立登記法人,愛媛県,松山市,三番町２丁目８番地１３第３アークビル５階,,38,201,7900003,,,,,,,2022-06-09,1,,,,,イリョウフクシカンキョウケンキュウカイ,0
2172,8700150108688,新規,0,2022-06-09,2022-05-12,ヤマガヲク,,その他,東京都,杉並区,堀ノ内２丁目２８－９山内荘１０６,,13,115,1660013,,,,,,,2022-05-12,1,,,,,ヤマガヲク,0
2173,8700150109182,新規,0,2022-06-09,2022-06-01,オフィス哲兵,,その他,東京都,大田区,石川町２丁目２５番１０号,,13,111,1450061,,,,,,,2022-06-01,1,,,,,オフイステツペイ,0
2182,9010001227120,新規,0,2022-06-09,2022-06-09,ＰＲｅＡ株式会社,,株式会社,東京都,中央区,勝どき５丁目３番１－１６０１号,,13,102,1040054,,,,,,,2022-06-09,1,,,,,プレア,0
2189,9010003037765,新規,0,2022-06-09,2022-06-09,合同会社Ｒｅｖｅｒｅｎｔ,,合同会社,東京都,千代田区,神田須田町１丁目２番地７淡路町駅前ビル３階,,13,101,1010041,,,,,,,2022-06-09,1,,,,,リバレント,0
2190,9010003037823,新規,0,2022-06-09,2022-06-09,合同会社ＳＰＣ４,,合同会社,東京都,千代田区,平河町１丁目６番１５号シルスフィア会計事務所内,,13,101,1020093,,,,,,,2022-06-09,1,,,,,エスピーシーフォー,0
2191,9010003037848,新規,0,2022-06-09,2022-06-09,ＺＥＣ４合同会社,,合同会社,東京都,千代田区,大手町２丁目２番１号,,13,101,1000004,,,,,,,2022-06-09,1,,,,,ゼックヨン,0
2192,9010005035115,新規,0,2022-06-09,2022-06-09,大蔵省職員組合,,その他の設立登記法人,東京都,千代田区,霞が関３丁目１番１号大蔵省内,,13,101,1000013,,,,,,,2022-06-09,1,,,,,オオクラショウショクインクミアイ,0
2198,9010403027845,新規,0,2022-06-09,2022-06-09,合同会社会社ＰＡＬＡＣＥ,,合同会社,東京都,港区,芝５丁目１５番４号,,13,103,1080014,,,,,,,2022-06-09,1,,,,,パレス,0
2206,9010701042785,新規,0,2022-06-09,2022-06-09,株式会社エレファント,,株式会社,東京都,品川区,勝島１丁目３番４９号加瀬ビル１１６、７階,,13,109,1400012,,,,,,,2022-06-09,1,,,,,エレファント,0
2217,9011001147903,新規,0,2022-06-09,2022-06-09,ＭＣ　ＣＲＡＦＴＹ株式会社,,株式会社,東京都,渋谷区,神宮前６丁目２３番４号桑野ビル２階,,13,113,1500001,,,,,,,2022-06-09,1,,,,,エムシークラフティ,0
2218,9011001147928,新規,0,2022-06-09,2022-06-09,株式会社ないけんぼーいず,,株式会社,東京都,渋谷区,東１丁目１３番１号常盤松マンション７０５,,13,113,1500011,,,,,,,2022-06-09,1,,,,,ナイケンボーイズ,0
2219,9011001147936,新規,0,2022-06-09,2022-06-09,株式会社ｇｉｎｏｌａｂｏ,,株式会社,東京都,渋谷区,神宮前６丁目２３番４号桑野ビル２階,,13,113,1500001,,,,,,,2022-06-09,1,,,,,ジーノラボ,0
2220,9011001147993,新規,0,2022-06-09,2022-06-09,ＹＵＵ　ＪＡＰＡＮ　ＨＯＬＤＩＮＧＳ株式会社,,株式会社,東京都,渋谷区,恵比寿１丁目２１番１８－５０１号,,13,113,1500013,,,,,,,2022-06-09,1,,,,,ユウジャパンホールディングス,0
2224,9011003014795,新規,0,2022-06-09,2022-06-09,合同会社ＲＯＯＴＳ,,合同会社,東京都,渋谷区,神南１丁目１４－７ワイズ神南ビル２階,,13,113,1500041,,,,,,,2022-06-09,1,,,,,ルーツ,0
2225,9011003014812,新規,0,2022-06-09,2022-06-09,合同会社モテクリ,,合同会社,東京都,渋谷区,恵比寿１丁目６番９号ＴＡビル３Ｆ,,13,113,1500013,,,,,,,2022-06-09,1,,,,,モテクリ,0
2226,9011003014829,新規,0,2022-06-09,2022-06-09,合同会社ＴＢエネルギー２,,合同会社,東京都,渋谷区,渋谷２丁目２４番１２号,,13,113,1500002,,,,,,,2022-06-09,1,,,,,ティービーエネルギーニ,0
2227,9011003014837,新規,0,2022-06-09,2022-06-09,合同会社ＴＢエネルギー１０,,合同会社,東京都,渋谷区,渋谷２丁目２４番１２号,,13,113,1500002,,,,,,,2022-06-09,1,,,,,ティービーエネルギージュウ,0
2229,9011101099128,新規,0,2022-06-09,2022-06-09,ｚ２１株式会社,,株式会社,東京都,新宿区,西新宿６丁目１１番３号Ｄタワー西新宿１６Ｆ,,13,104,1600023,,,,,,,2022-06-09,1,,,,,ジートゥーワン,0
2232,9011103011833,新規,0,2022-06-09,2022-06-09,パウダーフリークス合同会社,,合同会社,東京都,新宿区,大京町３１番地御苑住宅６０１,,13,104,1600015,,,,,,,2022-06-09,1,,,,,パウダーフリークス,0
2242,9011801040828,新規,0,2022-06-09,2022-06-09,株式会社ＢＡＲＫＥＤＧＥ,,株式会社,東京都,足立区,千住旭町３７番９号モンテエストール３０２,,13,121,1200026,,,,,,,2022-06-09,1,,,,,バーケッジ,0
2247,9012403005418,新規,0,2022-06-09,2022-06-09,合同会社ｓ・ｓｐｈｅｒｅ,,合同会社,東京都,三鷹市,井の頭５丁目１６番１２号,,13,204,1810001,,,,,,,2022-06-09,1,,,,,エススフィアー,0
2251,9012801021636,新規,0,2022-06-09,2022-06-09,ＦＵＴＵＲＯ経営株式会社,,株式会社,東京都,日野市,多摩平２丁目５番地の１,,13,212,1910062,,,,,,,2022-06-09,1,,,,,フトゥーロケイエイ,0
2252,9012805003127,新規,0,2022-06-09,2022-06-09,一般社団法人ＡＲＩＣＡ,,その他の設立登記法人,東京都,国分寺市,戸倉３丁目２１番３５号,,13,214,1850003,,,,,,,2022-06-09,1,,,,,アリカ,0
2264,9020001146815,新規,0,2022-06-09,2022-06-09,株式会社マネーテーラー,,株式会社,神奈川県,川崎市幸区,北加瀬１丁目２０番２８号,,14,132,2120057,,,,,,,2022-06-09,1,,,,,マネーテーラー,0
2265,9020001146856,新規,0,2022-06-09,2022-06-09,株式会社ＹＵＫＡＩ,,株式会社,神奈川県,川崎市高津区,子母口５４番地１１８,,14,134,2130023,,,,,,,2022-06-09,1,,,,,ユカイ,0
2266,9020001146864,新規,0,2022-06-09,2022-06-09,ジャパンチャージソリューションズ株式会社,,株式会社,神奈川県,横浜市神奈川区,子安台２丁目１番８号メルビック子安台ビル,,14,102,2210012,,,,,,,2022-06-09,1,,,,,ジャパンチャージソリューションズ,0
2267,9020001146880,新規,0,2022-06-09,2022-06-09,福城商事株式会社,,株式会社,神奈川県,川崎市川崎区,港町５番１－１８１６号,,14,131,2100807,,,,,,,2022-06-09,1,,,,,フクシロショウジ,0
2270,9020003021891,新規,0,2022-06-09,2022-06-09,デジタルＢＣＭ合同会社,,合同会社,神奈川県,横浜市神奈川区,松見町１丁目３５番地の１－５０４,,14,102,2210005,,,,,,,2022-06-09,1,,,,,デジタルビーシーエム,0
2276,9021001076184,新規,0,2022-06-09,2022-06-09,ＮＥＸＴ　ＳＴＡＧＥ株式会社,,株式会社,神奈川県,横須賀市,長沢３丁目５番４号,,14,201,2390842,,,,,,,2022-06-09,1,,,,,ネクストステージ,0
2277,9021001076192,新規,0,2022-06-09,2022-06-09,ＣＥＮ株式会社,,株式会社,神奈川県,中郡二宮町,二宮１３６９番地の１八向ハイツＩＩ１０２号室,00126817,14,342,2590123,,,,,,,2022-06-09,1,,,,,シーイーエヌ,0
2289,9030003019555,新規,0,2022-06-09,2022-06-09,合同会社モリ,,合同会社,埼玉県,草加市,谷塚町１３８１番地３,,11,221,3400023,,,,,,,2022-06-09,1,,,,,モリ,0
2290,9030003019571,新規,0,2022-06-09,2022-06-09,合同会社ｆｖａｒｙ,,合同会社,埼玉県,さいたま市大宮区,大門町１丁目１４番地２階,,11,103,3300846,,,,,,,2022-06-09,1,,,,,バリー,0
2301,9040003020198,新規,0,2022-06-09,2022-06-09,合同会社アサダ企画,,合同会社,千葉県,千葉市美浜区,打瀬３丁目５番地マリンフォート３－１８０２号,,12,106,2610013,,,,,,,2022-06-09,1,,,,,アサダキカク,0
2304,9050001051211,新規,0,2022-06-09,2022-06-09,Ｐｉｍｐｎｙ株式会社,,株式会社,茨城県,つくば市,学園の森３丁目２９番地５,,08,220,3050816,,,,,,,2022-06-09,1,,,,,ピンプニー,0
2306,9060003004100,新規,0,2022-06-09,2022-06-09,合同会社ｂｅａｔ,,合同会社,栃木県,佐野市,富岡町１６９４－２,,09,204,3270844,,,,,,,2022-06-09,1,,,,,ベア,0
2311,9080401025869,新規,0,2022-06-09,2022-06-09,株式会社メディアーチ,,株式会社,静岡県,菊川市,加茂５７５８番地ＣＬＡＲＩＮＳ２０１,,22,224,4390031,,,,,,,2022-06-09,1,,,,,メディアーチ,0
2313,9090003002101,新規,0,2022-06-09,2022-06-09,合同会社ティエヌオー,,合同会社,山梨県,甲府市,緑が丘１丁目１２番９号,,19,201,4000008,,,,,,,2022-06-09,1,,,,,ティエヌオー,0
2315,9100001035423,新規,0,2022-06-09,2022-06-09,株式会社Ｓａｌｔｆａｒｍｃｏｒｐｏｒａｔｉｏｎ,,株式会社,長野県,上田市,中央３丁目１６番２６号,,20,203,3860012,,,,,,,2022-06-09,1,,,,,ソルトファームコーポレーション,0
2328,9120001246464,新規,0,2022-06-09,2022-06-09,株式会社ビーグロース,,株式会社,大阪府,大阪市中央区,内淡路町１丁目３番７号日宝内淡路ビル３階６号室,,27,128,5400038,,,,,,,2022-06-09,1,,,,,ビーグロース,0
2329,9120001246472,新規,0,2022-06-09,2022-06-09,株式会社Ｓｏ‐Ｚｏ’Ｆａｃｔｏｒｙ,,株式会社,大阪府,門真市,千石東町７番８－３号,,27,223,5710013,,,,,,,2022-06-09,1,,,,,ソーゾーファクトリー,0
2330,9120001246506,新規,0,2022-06-09,2022-06-09,悠雲株式会社,,株式会社,大阪府,大阪市浪速区,大国３丁目１１番１９号,,27,111,5560014,,,,,,,2022-06-09,1,,,,,ユウウン,0
2331,9120001246530,新規,0,2022-06-09,2022-06-09,ＪＰ‐ＰＯＷＥＲ株式会社,,株式会社,大阪府,大阪市中央区,南船場２丁目７番２６号,,27,128,5420081,,,,,,,2022-06-09,1,,,,,ジェイピーーパワー,0
2339,9120003021824,新規,0,2022-06-09,2022-06-09,合同会社カレンテクノロジーラボ,,合同会社,大阪府,寝屋川市,萱島信和町１３番１－３０２号,,27,215,5720829,,,,,,,2022-06-09,1,,,,,カレンテクノロジーラボ,0
2340,9120003021832,新規,0,2022-06-09,2022-06-09,合同会社ユーティリティケアサポート,,合同会社,大阪府,大阪市西淀川区,大和田５丁目４番１１号,,27,113,5550032,,,,,,,2022-06-09,1,,,,,ユーティリティケアサポート,0
2346,9120901046071,新規,0,2022-06-09,2022-06-09,株式会社サツミ,,株式会社,大阪府,豊中市,熊野町１丁目９番１号,,27,203,5600014,,,,,,,2022-06-09,1,,,,,サツミ,0
2353,9130003007970,新規,0,2022-06-09,2022-06-09,合同会社サイミート,,合同会社,京都府,城陽市,寺田林ノ口２２－６－１００３,,26,207,6100121,,,,,,,2022-06-09,1,,,,,サイミート,0
2364,9160001024271,新規,0,2022-06-09,2022-06-09,株式会社Ｒ．Ｔ．ＧＲＯＵＰ,,株式会社,滋賀県,大津市,荒川８４６番地,,25,201,5200513,,,,,,,2022-06-09,1,,,,,アールティーグループ,0
2371,9180003023914,新規,0,2022-06-09,2022-06-09,合同会社Ｒｏｏｓｔ　Ｍａｎａｇｅｍｅｎｔ,,合同会社,愛知県,名古屋市天白区,植田山１丁目１１１２番地,,23,116,4680001,,,,,,,2022-06-09,1,,,,,ルーストマネジメント,0
2372,9180301036312,新規,0,2022-06-09,2022-06-09,株式会社プログレス,,株式会社,愛知県,高浜市,神明町３丁目３番地５,,23,227,4441305,,,,,,,2022-06-09,1,,,,,プログレス,0
2374,9190001029499,新規,0,2022-06-09,2022-06-09,ＨＹＮ株式会社,,株式会社,三重県,四日市市,日永４丁目５番４８－１４号,,24,202,5100885,,,,,,,2022-06-09,1,,,,,エイチワイエヌ,0
2379,9200001040149,新規,0,2022-06-09,2022-06-09,株式会社ＩＮＦＩＮＩＴＹ,,株式会社,岐阜県,瑞穂市,野田新田４１３８番地３０,,21,216,5010232,,,,,,,2022-06-09,1,,,,,インフィニティ,0
2389,9250003003090,新規,0,2022-06-09,2022-06-09,合同会社トラストリード,,合同会社,山口県,山口市,小郡令和１丁目１番１号ＫＤＤＩ維新ホール１階産業交流スペースＭｅｇｒｉｂａ,,35,203,7540041,,,,,,,2022-06-09,1,,,,,トラストリード,0
2395,9280001008709,新規,0,2022-06-09,2022-06-09,株式会社太陽プランニング,,株式会社,島根県,隠岐郡隠岐の島町,池田高城３１番地１０,,32,528,6850007,,,,,,,2022-06-09,1,,,,,タイヨウプランニング,0
2400,9290001097825,新規,0,2022-06-09,2022-06-09,株式会社コスメディカ,,株式会社,福岡県,福岡市中央区,天神２丁目３－１０パインクレスト天神７１９,,40,133,8100001,,,,,,,2022-06-09,1,,,,,コスメディカ,0
2401,9290001097833,新規,0,2022-06-09,2022-06-09,金賀国際商事株式会社,,株式会社,福岡県,福岡市早良区,室見３丁目８－６モア室見１０５,,40,137,8140015,,,,,,,2022-06-09,1,,,,,キンカコクサイショウジ,0
2403,9290003012609,新規,0,2022-06-09,2022-06-09,合同会社ＴＴ,,合同会社,福岡県,福岡市中央区,清川２丁目６－１８－２Ｆ,,40,133,8100005,,,,,,,2022-06-09,1,,,,,ティーティー,0
2404,9290805009554,新規,0,2022-06-09,2022-06-09,一般社団法人相続支援プラザ北九州,,その他の設立登記法人,福岡県,北九州市小倉北区,弁天町１０番１０号,,40,106,8030856,,,,,,,2022-06-09,1,,,,,ソウゾクシエンプラザキタキュウシュウ,0
2405,9310001017904,新規,0,2022-06-09,2022-06-09,株式会社ルーク,,株式会社,長崎県,長崎市,玉園町３番７１号,,42,201,8500053,,,,,,,2022-06-09,1,,,,,ルーク,0
2418,9380001032888,新規,0,2022-06-09,2022-06-09,Ｓａｋ株式会社,,株式会社,福島県,福島市,佐倉下字前３番地,,07,201,9602154,,,,,,,2022-06-09,1,,,,,エスエーケー,0
2430,9490003001665,新規,0,2022-06-09,2022-06-09,みさとソーラー合同会社,,合同会社,高知県,高知市,葛島３丁目５番１４号,,39,201,7818121,,,,,,,2022-06-09,1,,,,,ミサトソーラー,0
2433,9700150108852,新規,0,2022-06-09,2022-05-19,ぷれりゅーど,,その他,東京都,東久留米市,浅間町３丁目３－５,,13,222,2030012,,,,,,,2022-05-19,1,,,,,プレリユード,0
2434,9700150109339,新規,0,2022-06-09,2022-06-09,ＧＯＯＤ　ＷＩＬＬ　ＥＮＴＥＲＰＲＩＳＥＳ,,外国会社等,茨城県,稲敷郡河内町,源清田１６７９－１フジプラス２０１,,08,447,3001324,スリランカ民主社会主義共和国、アクラナ、メルチェナ、５７２／１Ａ,,,,,,2022-06-09,1,,,,,グツドウイルエンタープライセス,0
