sequenceNumber,corporateNumber,process,correct,updateDate,changeDate,name,nameImageId,kind,prefectureName,cityName,streetNumber,addressImageId,prefectureCode,cityCode,postCode,addressOutside,addressOutsideImageId,closeDate,closeCause,successorCorporateNumber,changeCause,assignmentDate,latest,enName,enPrefectureName,enCityName,enAddressOutside,furigana,hihyoji
12,1010001258338,新規,0,2025-09-12,2025-09-12,株式会社縁実,,株式会社,東京都,文京区,関口１丁目４８－１リベラル長島４階,,13,105,1120014,,,,,,,2025-09-12,1,,,,,エミ,0
13,1010001258387,新規,0,2025-09-12,2025-09-12,株式会社Ｒｕｋａ,,株式会社,東京都,中央区,日本橋室町１丁目１１番１２号日本橋水野ビル７階,,13,102,1030022,,,,,,,2025-09-12,1,,,,,ルカ,0
14,1010001258429,新規,0,2025-09-12,2025-09-12,株式会社Ｒｅｎｔｈｕｎｄｅｒ,,株式会社,東京都,千代田区,内神田１丁目１８番１１－３０６号,,13,101,1010047,,,,,,,2025-09-12,1,,,,,レンサンダー,0
15,1010001258478,新規,0,2025-09-12,2025-09-12,株式会社森水商会,,株式会社,東京都,千代田区,神田多町２丁目１番地２３神田東山ビル,,13,101,1010046,,,,,,,2025-09-12,1,,,,,モリミズショウカイ,0
20,1010003048704,新規,0,2025-09-12,2025-09-12,合同会社未来の扉,,合同会社,東京都,中央区,月島１丁目５番１－３７１２号,,13,102,1040052,,,,,,,2025-09-12,1,,,,,ミライノトビラ,0
21,1010003048737,新規,0,2025-09-12,2025-09-12,Ｔｏｔｓｕ　Ｂｉｚ合同会社,,合同会社,東京都,中央区,日本橋１丁目４番１号日本橋一丁目ビルディング,,13,102,1030027,,,,,,,2025-09-12,1,,,,,トウツウビズ,0
25,1010103002651,新規,0,2025-09-12,2025-09-12,合同会社Ｔｏｐ　Ｓｔａｇｅ,,合同会社,東京都,八王子市,暁町１丁目１７番７号,,13,201,1920043,,,,,,,2025-09-12,1,,,,,トップステージ,0
32,1010401193028,新規,0,2025-09-12,2025-09-12,ＦＩＳＨ　ＴＡＮＫ株式会社,,株式会社,東京都,港区,南麻布３丁目５番１２号,,13,103,1060047,,,,,,,2025-09-12,1,,,,,フィッシュタンク,0
33,1010401193069,新規,0,2025-09-12,2025-09-12,株式会社えくぼラボ,,株式会社,東京都,港区,南青山１丁目２０番２号乃木坂ビジネスコート２１２号室、日本リージャス株式会社内,,13,103,1070062,,,,,,,2025-09-12,1,,,,,エクボラボ,0
34,1010403035970,新規,0,2025-09-12,2025-09-12,八代別邸合同会社,,合同会社,東京都,港区,赤坂４丁目８番１９号赤坂フロントタウン３階,,13,103,1070052,,,,,,,2025-09-12,1,,,,,ヤシロベッテイ,0
35,1010403035995,新規,0,2025-09-12,2025-09-12,アドバリューパートナーズ合同会社,,合同会社,東京都,港区,南青山３丁目１番３６号青山丸竹ビル６階,,13,103,1070062,,,,,,,2025-09-12,1,,,,,アドバリューパートナーズ,0
36,1010405024765,新規,0,2025-09-12,2025-09-12,一般社団法人Ｂａｉｌｕ,,その他の設立登記法人,東京都,港区,虎ノ門１丁目１番１８号ヒューリック虎ノ門ビル９階Ｌ＆Ｐ司法書士法人内,,13,103,1050001,,,,,,,2025-09-12,1,,,,,バイルー,0
39,1010601067972,新規,0,2025-09-12,2025-09-12,株式会社大和ミライ,,株式会社,東京都,江東区,青海２丁目７番４－７３７号,,13,108,1350064,,,,,,,2025-09-12,1,,,,,ヤマトミライ,0
41,1010701048253,新規,0,2025-09-12,2025-09-12,Ｖｅｒｔａｌａ株式会社,,株式会社,東京都,品川区,上大崎４丁目５番３７号,,13,109,1410021,,,,,,,2025-09-12,1,,,,,ヴェルタラ,0
42,1010701048278,新規,0,2025-09-12,2025-09-12,株式会社Ｈｏｐｅ　Ｓｑｕａｒｅ,,株式会社,東京都,品川区,東品川１丁目３番１５号ＴｈｅＰａｒｋＲｅｘＴＥＮＮＯＺ［ｔｈｅＤＯＣＫ］,,13,109,1400002,,,,,,,2025-09-12,1,,,,,ホープスクエア,0
43,1010701048286,新規,0,2025-09-12,2025-09-12,株式会社ＣＲＥＳＴ,,株式会社,東京都,品川区,東五反田４丁目１０番４号２０３,,13,109,1410022,,,,,,,2025-09-12,1,,,,,クラスト,0
44,1010705003799,新規,0,2025-09-12,2025-09-12,一般社団法人モビリス,,その他の設立登記法人,東京都,品川区,上大崎３丁目１番１号目黒セントラルスクエア１５階,,13,109,1410021,,,,,,,2025-09-12,1,,,,,モビリス,0
47,1010903010250,新規,0,2025-09-12,2025-09-12,Ｍ＆Ｄアソシエイツ合同会社,,合同会社,東京都,世田谷区,野沢１丁目１５番８号,,13,112,1540003,,,,,,,2025-09-12,1,,,,,エムアンドディアソシエイツ,0
56,1011001171951,新規,0,2025-09-12,2025-09-12,株式会社ＬＵＬＵＢＬＵＥ,,株式会社,東京都,渋谷区,道玄坂１丁目１０番８号渋谷道玄坂東急ビル２Ｆ－Ｃ,,13,113,1500043,,,,,,,2025-09-12,1,,,,,ルルブルー,0
57,1011001171968,新規,0,2025-09-12,2025-09-12,株式会社シテンカンパニー,,株式会社,東京都,目黒区,中町２丁目６番１１号,,13,110,1530065,,,,,,,2025-09-12,1,,,,,シテンカンパニー,0
58,1011001171976,新規,0,2025-09-12,2025-09-12,株式会社ＬＵＸＥ,,株式会社,東京都,渋谷区,恵比寿西２丁目４番８号ウィンド恵比寿ビル８Ｆ,,13,113,1500021,,,,,,,2025-09-12,1,,,,,リュクス,0
61,1011003022517,新規,0,2025-09-12,2025-09-12,合同会社ｈａｒｕ‐ｈａｒｕ,,合同会社,東京都,渋谷区,広尾１丁目２番地１号ヒカリビル４階,,13,113,1500012,,,,,,,2025-09-12,1,,,,,ハルハル,0
74,1011201026633,新規,0,2025-09-12,2025-09-12,株式会社ＲＥＩ,,株式会社,東京都,中野区,中央２丁目１８－２０、１Ｆ,,13,114,1640011,,,,,,,2025-09-12,1,,,,,レイ,0
77,1011301030873,新規,0,2025-09-12,2025-09-12,株式会社ニュートラル,,株式会社,東京都,杉並区,高円寺北２丁目８番１３－７０４号,,13,115,1660002,,,,,,,2025-09-12,1,,,,,ニュートラル,0
80,1011501032554,新規,0,2025-09-12,2025-09-12,株式会社Ｂｒｉｇｈｔ　Ｕｎｉｔｙ,,株式会社,東京都,荒川区,東尾久８丁目２９－１４,,13,118,1160012,,,,,,,2025-09-12,1,,,,,ブライトユニティ,0
85,1011801046725,新規,0,2025-09-12,2025-09-12,イズモシング株式会社,,株式会社,東京都,足立区,中川４丁目３３番４号亀有中川マンション２０６号室,,13,121,1200002,,,,,,,2025-09-12,1,,,,,イズモシング,0
91,1011803007072,新規,0,2025-09-12,2025-09-12,合同会社彩羽,,合同会社,東京都,足立区,弘道１丁目２７番１０号,,13,121,1200013,,,,,,,2025-09-12,1,,,,,イロハ,0
94,1012303002217,新規,0,2025-09-12,2025-09-12,合同会社Ｎｕｔｓ,,合同会社,東京都,町田市,原町田４丁目１６番７－４０２号,,13,209,1940013,,,,,,,2025-09-12,1,,,,,ナッツ,0
99,1012701019069,新規,0,2025-09-12,2025-09-12,株式会社いろは,,株式会社,東京都,東村山市,諏訪町２丁目３番地５０,,13,213,1890021,,,,,,,2025-09-12,1,,,,,イロハ,0
102,1012801024241,新規,0,2025-09-12,2025-09-12,株式会社Ｌｉｐａｌｅｔｔｅ,,株式会社,東京都,立川市,西砂町２丁目１７番地の４,,13,202,1900034,,,,,,,2025-09-12,1,,,,,リパレット,0
120,1021001086257,新規,0,2025-09-12,2025-09-12,株式会社ＯＢＬＹ,,株式会社,神奈川県,足柄上郡大井町,西大井２３２番地５,,14,362,2580017,,,,,,,2025-09-12,1,,,,,オブリー,0
121,1021001086323,新規,0,2025-09-12,2025-09-12,株式会社清蔵,,株式会社,神奈川県,小田原市,国府津３丁目１４番１５号,,14,206,2560812,,,,,,,2025-09-12,1,,,,,セイゾウ,0
124,1021003016559,新規,0,2025-09-12,2025-09-12,Ｎｅｘｔ　Ｖａｌｕｅ合同会社,,合同会社,神奈川県,厚木市,妻田西２丁目１９番２１号２１０,,14,212,2430815,,,,,,,2025-09-12,1,,,,,ネクストバリュー,0
127,1030001168626,新規,0,2025-09-12,2025-09-12,株式会社ｍｏｒｉｎｃｈｉ,,株式会社,埼玉県,熊谷市,上之４００４番地１１,,11,202,3600012,,,,,,,2025-09-12,1,,,,,モリンチ,0
128,1030001168634,新規,0,2025-09-12,2025-09-12,株式会社今井建設,,株式会社,埼玉県,三郷市,鷹野５丁目２８６番地５,,11,237,3410035,,,,,,,2025-09-12,1,,,,,イマイケンセツ,0
129,1030001168650,新規,0,2025-09-12,2025-09-12,スタートライン株式会社,,株式会社,埼玉県,川越市,南大塚４丁目７番地６（三幸アビタシオン１１９号室）,00140633,11,201,3501162,,,,,,,2025-09-12,1,,,,,スタートライン,0
131,1030003027598,新規,0,2025-09-12,2025-09-12,ＤＥ　ＳＩＬＶＡ　ＡＵＴＯ　ＴＥＣＨ合同会社,,合同会社,埼玉県,比企郡吉見町,大字田甲６９８番地１,,11,347,3550167,,,,,,,2025-09-12,1,,,,,ディシルバオートテック,0
143,1050003009561,新規,0,2025-09-12,2025-09-12,ＢＢ　ＬＩＮＩＮＧ　ＣＯ合同会社,,合同会社,茨城県,古河市,女沼１０１３番地３９,,08,204,3060226,,,,,,,2025-09-12,1,,,,,ビービーライニングコー,0
144,1050003009578,新規,0,2025-09-12,2025-09-12,合同会社Ｊ・Ｄ・Ｈ‐Ｉｎｔｅｒｎａｔｉｏｎａｌ,,合同会社,茨城県,常総市,向石下４４番地,,08,211,3002742,,,,,,,2025-09-12,1,,,,,ジェーディーエイチインターナショナル,0
149,1070001043354,新規,0,2025-09-12,2025-09-12,株式会社バックアップシステム,,株式会社,群馬県,前橋市,箱田町３８７番地１,,10,201,3710837,,,,,,,2025-09-12,1,,,,,バックアップシステム,0
154,1090003002892,新規,0,2025-09-12,2025-09-12,合同会社ダナン機械製造,,合同会社,山梨県,南アルプス市,寺部７６０番地１,,19,208,4000337,,,,,,,2025-09-12,1,,,,,ダナンキカイセイゾウ,0
161,1110005017267,新規,0,2025-09-12,2025-09-12,一般社団法人しばたまち守の会,,その他の設立登記法人,新潟県,新発田市,豊町４丁目９番１４号,,15,206,9570016,,,,,,,2025-09-12,1,,,,,シバタマチモリノカイ,0
165,1120001279141,新規,0,2025-09-12,2025-09-12,霖＿スポーツ株式会社,00140629,株式会社,大阪府,大阪市北区,西天満２丁目６番８号堂島ビルヂング６Ｆ新東京国際リーガル内,,27,127,5300047,,,,,,,2025-09-12,1,,,,,リンゴウスポーツ,0
166,1120001279521,新規,0,2025-09-12,2025-09-12,雅葉株式会社,,株式会社,大阪府,大阪市中央区,淡路町３丁目４番１－２１７号,,27,128,5410047,,,,,,,2025-09-12,1,,,,,ミヤビハ,0
167,1120001279538,新規,0,2025-09-12,2025-09-12,桜途株式会社,,株式会社,大阪府,大阪市西成区,梅南３丁目５番１０号,,27,122,5570033,,,,,,,2025-09-12,1,,,,,サクラ,0
168,1120001279579,新規,0,2025-09-12,2025-09-12,株式会社プリンセス,,株式会社,大阪府,大阪市北区,梅田１丁目１－３大阪駅前第３ビル２９階１－１－１号室,,27,127,5300001,,,,,,,2025-09-12,1,,,,,プリンセス,0
169,1120001279595,新規,0,2025-09-12,2025-09-12,方舟株式会社,,株式会社,大阪府,大阪市阿倍野区,相生通２丁目７番５号マミーハイツ２０５号,,27,119,5450033,,,,,,,2025-09-12,1,,,,,ホウシュウ,0
170,1120001279612,新規,0,2025-09-12,2025-09-12,株式会社Ｒｏｙａｌ　Ｍａｎｄａｌａｒ,,株式会社,大阪府,大阪市西成区,萩之茶屋２丁目６番４ニューかめや２２８号,,27,122,5570004,,,,,,,2025-09-12,1,,,,,ロイヤルマンダラー,0
171,1120003030493,新規,0,2025-09-12,2025-09-12,ＦＩＧＹＡ合同会社,,合同会社,大阪府,大阪市此花区,梅香１丁目１８番１９号,,27,104,5540013,,,,,,,2025-09-12,1,,,,,フィギャ,0
174,1120101072413,新規,0,2025-09-12,2025-09-12,株式会社Ｇ‐Ｈｅｒｏ　Ｃｏｍｐａｎｙ,,株式会社,大阪府,堺市中区,小阪西町３－１６－２０５号,,27,142,5998264,,,,,,,2025-09-12,1,,,,,ジーヒーローカンパニー,0
175,1120901051483,新規,0,2025-09-12,2025-09-12,Ｌｉｏｒａ株式会社,,株式会社,大阪府,高槻市,美しが丘１丁目２番１号,,27,207,5691111,,,,,,,2025-09-12,1,,,,,リオラ,0
177,1120903005842,新規,0,2025-09-12,2025-09-12,合同会社ウェルビーイング,,合同会社,大阪府,箕面市,西小路４丁目２番１１号,,27,220,5620003,,,,,,,2025-09-12,1,,,,,ウェルビーイング,0
188,1130001080399,新規,0,2025-09-12,2025-09-12,株式会社Ｍａｘｅｌｕｓ,,株式会社,京都府,八幡市,下奈良小宮１,,26,210,6148121,,,,,,,2025-09-12,1,,,,,マクセラス,0
201,1140003022571,新規,0,2025-09-12,2025-09-12,合同会社ホアンニー,,合同会社,兵庫県,尼崎市,杭瀬北新町３丁目３番１号２０３号室,,28,202,6600815,,,,,,,2025-09-12,1,,,,,ホアンニー,0
211,1180001168578,新規,0,2025-09-12,2025-09-12,株式会社フェンシー,,株式会社,愛知県,小牧市,中央５丁目１２３番地,,23,219,4850029,,,,,,,2025-09-12,1,,,,,フェンシー,0
212,1180001168594,新規,0,2025-09-12,2025-09-12,株式会社ＢｉｚＭａｔｅ,,株式会社,愛知県,名古屋市中区,三の丸１丁目１４番７号本丸ビル３０６号室,,23,106,4600001,,,,,,,2025-09-12,1,,,,,ビズメイト,0
213,1180001168603,新規,0,2025-09-12,2025-09-12,株式会社イワツキ,,株式会社,愛知県,海部郡蟹江町,学戸６丁目８番地,,23,425,4970050,,,,,,,2025-09-12,1,,,,,イワツキ,0
214,1180001168611,新規,0,2025-09-12,2025-09-12,株式会社Ｃｏｒｅ　Ｅｓｔａｔｅ,,株式会社,愛知県,名古屋市中区,金山１丁目４番４号第９タツミビル６Ｆ,,23,106,4600022,,,,,,,2025-09-12,1,,,,,コアエステート,0
215,1180001168628,新規,0,2025-09-12,2025-09-12,株式会社ビッグブリッジ,,株式会社,愛知県,名古屋市中村区,名駅南１丁目５番３２号‐５０１,,23,105,4500003,,,,,,,2025-09-12,1,,,,,ビッグブリッジ,0
230,1200001044223,新規,0,2025-09-12,2025-09-12,Ｎｅｓｔ　Ｌｉｆｅ株式会社,,株式会社,岐阜県,中津川市,千旦林１５７３番地の７３,,21,206,5099131,,,,,,,2025-09-12,1,,,,,ネストライフ,0
237,1260001040539,新規,0,2025-09-12,2025-09-12,株式会社アヤモ,,株式会社,岡山県,岡山市中区,藤原９５番地,,33,102,7038245,,,,,,,2025-09-12,1,,,,,アヤモ,0
243,1290001111361,新規,0,2025-09-12,2025-09-12,株式会社ＴＳＭ,,株式会社,福岡県,福岡市博多区,東光２丁目２－３,,40,132,8120008,,,,,,,2025-09-12,1,,,,,ティーエスエム,0
253,1320003004766,新規,0,2025-09-12,2025-09-12,合同会社すずき農園,,合同会社,大分県,杵築市,山香町大字小武３２番地３,,44,210,8791304,,,,,,,2025-09-12,1,,,,,スズキノウエン,0
254,1330001033568,新規,0,2025-09-12,2025-09-12,株式会社ｐｏｐｏｎ,,株式会社,熊本県,熊本市北区,硯川町５９７番地４,,43,105,8615524,,,,,,,2025-09-12,1,,,,,ポポン,0
261,1360001035768,新規,0,2025-09-12,2025-09-12,株式会社オートパレス,,株式会社,沖縄県,うるま市,字赤道３４５番地２,,47,213,9042245,,,,,,,2025-09-12,1,,,,,オートパレス,0
266,1370003007285,新規,0,2025-09-12,2025-09-12,合同会社ＣＵＥＲＶＯ,,合同会社,宮城県,名取市,愛島台６丁目３番地の２,,04,207,9811251,,,,,,,2025-09-12,1,,,,,クエルボ,0
267,1380001035568,新規,0,2025-09-12,2025-09-12,株式会社岩倉屋商店,,株式会社,福島県,郡山市,池ノ台２番１号,,07,203,9638875,,,,,,,2025-09-12,1,,,,,イワクラヤショウテン,0
279,1420001019269,新規,0,2025-09-12,2025-09-12,株式会社ヤマケンファーム,,株式会社,青森県,青森市,大字羽白字沢田４３４番地４,,02,201,0380058,,,,,,,2025-09-12,1,,,,,ヤマケンファーム,0
283,1430001095227,新規,0,2025-09-12,2025-09-12,辰輝株式会社,,株式会社,北海道,札幌市南区,真駒内柏丘１丁目５番１０号,,01,106,0050022,,,,,,,2025-09-12,1,,,,,タツキ,0
284,1430001095243,新規,0,2025-09-12,2025-09-12,株式会社エリオ商標管理,,株式会社,北海道,札幌市中央区,双子山１丁目４番１０号,,01,101,0640946,,,,,,,2025-09-12,1,,,,,エリオショウヒョウカンリ,0
289,1700150132166,新規,0,2025-09-12,2025-09-12,Ｓｈｅｎｚｈｅｎ　Ｇａｏｐｏｌｏ　Ｔｅｃｈｎｏｌｏｇｙ　ｃｏ．，Ｌｔｄ．,,外国会社等,,,,,,,,Ｒｏｏｍ　５２５，５ｔｈ　Ｆｌｏｏｒ，Ｂｕｉｌｄｉｎｇ　Ｂ，Ｘｉｎｔｉａｎｘｉａ　Ｂａｉｒｕｉｄａ　Ｂｕｉｌｄｉｎｇ，Ｖａｎｋｅ　Ｃｉｔｙ　Ｃｏｍｍｕｎｉｔｙ，Ｂａｎｔｉａｎ　Ｓｔｒｅｅｔ，Ｌｏｎｇｇａｎｇ　Ｄｉｓｔｒｉｃｔ，Ｓｈｅｎｚｈｅｎ,,,,,,2025-09-12,1,,,,,シェンジェンシーガオプーラーコージーヨウシエンゴンスー,0
296,2010001258436,新規,0,2025-09-12,2025-09-12,株式会社陽だまりパートナーズ,,株式会社,東京都,中央区,晴海５丁目３番１－７１８号,,13,102,1040053,,,,,,,2025-09-12,1,,,,,ヒダマリパートナーズ,0
297,2010001258444,新規,0,2025-09-12,2025-09-12,クックフォート株式会社,,株式会社,東京都,千代田区,神田淡路町２丁目１０５番地,,13,101,1010063,,,,,,,2025-09-12,1,,,,,クックフォート,0
298,2010001258452,新規,0,2025-09-12,2025-09-12,株式会社Ｈｏ・ｔｏ・Ｒｉ,,株式会社,東京都,中央区,銀座１丁目１２番４号Ｎ＆ＥＢＬＤ．６Ｆ,,13,102,1040061,,,,,,,2025-09-12,1,,,,,ホトリ,0
299,2010001258527,新規,0,2025-09-12,2025-09-12,トラスティーズマネジメント株式会社,,株式会社,東京都,千代田区,永田町２丁目１１番１号山王パークタワー５階,,13,101,1000014,,,,,,,2025-09-12,1,,,,,トラスティーズマネジメント,0
300,2010003048661,新規,0,2025-09-12,2025-09-12,合同会社ＯｐｌａＳｙｎｃ,,合同会社,東京都,中央区,日本橋室町１丁目１１番１２号日本橋水野ビル７階,,13,102,1030022,,,,,,,2025-09-12,1,,,,,オプラシンク,0
306,2010401192929,新規,0,2025-09-12,2025-09-12,一二一株式会社,,株式会社,東京都,港区,赤坂９丁目１－７赤坂レジデンシャルホテル８６７号室,,13,103,1070052,,,,,,,2025-09-12,1,,,,,ヒフヒ,0
307,2010401193068,新規,0,2025-09-12,2025-09-12,株式会社Ｆｉｎｅ,,株式会社,東京都,港区,港南２丁目１６番１号品川イーストワンタワー４階,,13,103,1080075,,,,,,,2025-09-12,1,,,,,ファイン,0
310,2010403036002,新規,0,2025-09-12,2025-09-12,合同会社ＨＥＩＬＡＮＤ　ＡＳＳＥＴ,,合同会社,東京都,港区,浜松町２丁目２番１５号浜松町ダイヤビル２Ｆ,,13,103,1050013,,,,,,,2025-09-12,1,,,,,ヘイランドアセット,0
311,2010403036043,新規,0,2025-09-12,2025-09-12,合同会社ＮＹＳ　Ａｘｉｓ,,合同会社,東京都,港区,南青山２丁目２番１５号,,13,103,1070062,,,,,,,2025-09-12,1,,,,,エヌワイエスアクシス,0
312,2010405024756,新規,0,2025-09-12,2025-09-12,一般社団法人コア・イレブン,,その他の設立登記法人,東京都,港区,芝浦１丁目１番１号,,13,103,1050023,,,,,,,2025-09-12,1,,,,,コアイレブン,0
313,2010405024764,新規,0,2025-09-12,2025-09-12,一般社団法人Ｋｒｏｓａ,,その他の設立登記法人,東京都,港区,虎ノ門１丁目１番１８号ヒューリック虎ノ門ビル９階Ｌ＆Ｐ司法書士法人内,,13,103,1050001,,,,,,,2025-09-12,1,,,,,クローサ,0
316,2010503008000,新規,0,2025-09-12,2025-09-12,合同会社木下研究所,,合同会社,東京都,台東区,浅草３丁目４０番５号メゾン・ド・サキ１０１,,13,106,1110032,,,,,,,2025-09-12,1,,,,,キノシタケンキュウジョ,0
318,2010701048277,新規,0,2025-09-12,2025-09-12,エムキューブ株式会社,,株式会社,東京都,品川区,西五反田２丁目２５番４－５Ｂ,,13,109,1410031,,,,,,,2025-09-12,1,,,,,エムキューブ,0
320,2010703007909,新規,0,2025-09-12,2025-09-12,Ｔａｋｕｍｉｉ合同会社,,合同会社,東京都,品川区,東品川４丁目１２－８品川シーサイドイーストタワー１５Ｆ,,13,109,1400002,,,,,,,2025-09-12,1,,,,,タクミー,0
325,2011001171967,新規,0,2025-09-12,2025-09-12,株式会社ＮＥＸＲＩＤＧＥ,,株式会社,東京都,渋谷区,神南１丁目１１番４号,,13,113,1500041,,,,,,,2025-09-12,1,,,,,ネクスリッジ,0
326,2011001172461,新規,0,2025-09-12,2025-09-12,ＩＥＴＴＯ株式会社,,株式会社,東京都,渋谷区,渋谷２丁目１２番４号ネクストサイト渋谷ビル５階,,13,113,1500002,,,,,,,2025-09-12,1,,,,,イエット,0
327,2011003022367,新規,0,2025-09-12,2025-09-12,Ｔａｌｅｎｔｉｅｒ　Ｔｏｋｙｏ合同会社,,合同会社,東京都,渋谷区,恵比寿４丁目２０－３恵比寿ガーデンプレイス１８階,,13,113,1500013,,,,,,,2025-09-12,1,,,,,タレンティアトウキョウ,0
334,2011101112879,新規,0,2025-09-12,2025-09-12,ＨｅａｒｔＷｉｎｎｉｎｇ株式会社,,株式会社,東京都,新宿区,西新宿３丁目３番１３号西新宿水間ビル２Ｆ,,13,104,1600023,,,,,,,2025-09-12,1,,,,,ハートウィニング,0
336,2011201026640,新規,0,2025-09-12,2025-09-12,株式会社Ｃａｒｌｍａｎ,,株式会社,東京都,中野区,新井２丁目４７番１４号サンクレアＢ棟１０６,,13,114,1650026,,,,,,,2025-09-12,1,,,,,カルマン,0
338,2011303005708,新規,0,2025-09-12,2025-09-12,立羽合同会社,,合同会社,東京都,杉並区,梅里２丁目２５番１３号高円寺プラザ２１１号－Ｅ室,,13,115,1660011,,,,,,,2025-09-12,1,,,,,タテハ,0
340,2011403004840,新規,0,2025-09-12,2025-09-12,ライジングサン合同会社,,合同会社,東京都,板橋区,熊野町１７番１１号,,13,119,1730025,,,,,,,2025-09-12,1,,,,,ライジングサン,0
341,2011703004383,新規,0,2025-09-12,2025-09-12,合同会社伊勢屋,,合同会社,東京都,江戸川区,平井６丁目１５番３号,,13,123,1320035,,,,,,,2025-09-12,1,,,,,イセヤ,0
342,2011803007063,新規,0,2025-09-12,2025-09-12,ＳｕＴＥＮＡ合同会社,,合同会社,東京都,足立区,鹿浜２丁目６番１８号,,13,121,1230864,,,,,,,2025-09-12,1,,,,,ステナ,0
347,2012801024232,新規,0,2025-09-12,2025-09-12,株式会社ＡＬＥＸ,,株式会社,東京都,国分寺市,南町３丁目９番２５号都営国分寺南町三丁目アパート２０１,,13,214,1850021,,,,,,,2025-09-12,1,,,,,アレックス,0
348,2012801024249,新規,0,2025-09-12,2025-09-12,株式会社ファインネクサス,,株式会社,東京都,東大和市,中央４丁目８５３－６グリーンビル２、２Ｆ,,13,220,2070015,,,,,,,2025-09-12,1,,,,,ファインネクサス,0
349,2012803003861,新規,0,2025-09-12,2025-09-12,Ｓａｋｕｒａ　ｉｎｔｅｒｎａｔｉｏｎａｌ合同会社,,合同会社,東京都,武蔵村山市,学園３丁目４１番地の５第３観音ビル２０２号,,13,223,2080011,,,,,,,2025-09-12,1,,,,,サクラインターナショナル,0
354,2020003029330,新規,0,2025-09-12,2025-09-12,合同会社ＢｌｕｅＳｋｙ,,合同会社,神奈川県,横浜市西区,北幸２丁目１０番４８号むつみビル３階,,14,103,2200004,,,,,,,2025-09-12,1,,,,,ブルースカイ,0
355,2020005016987,新規,0,2025-09-12,2025-09-12,社会保険労務士法人サガワＳＲ事務所,,その他の設立登記法人,神奈川県,川崎市中原区,新丸子町７４１番地２・７４１駅前ビル３階,,14,133,2110005,,,,,,,2025-09-12,1,,,,,サガワエスアールジムショ,0
357,2021001086347,新規,0,2025-09-12,2025-09-12,金龍株式会社,,株式会社,神奈川県,厚木市,長谷１３００番地９,,14,212,2430036,,,,,,,2025-09-12,1,,,,,キンリュウ,0
359,2030001168575,新規,0,2025-09-12,2025-09-12,株式会社洋工務店,,株式会社,埼玉県,志木市,柏町１丁目６番３４－２１２号,,11,228,3530007,,,,,,,2025-09-12,1,,,,,ヒロコウムテン,0
360,2030001168633,新規,0,2025-09-12,2025-09-12,エクス・エナジー株式会社,,株式会社,埼玉県,蕨市,南町１丁目１６番２４号,,11,223,3350003,,,,,,,2025-09-12,1,,,,,エクスエナジー,0
361,2030001168666,新規,0,2025-09-12,2025-09-12,株式会社テクシア,,株式会社,埼玉県,久喜市,青葉２丁目５番地９,,11,232,3460013,,,,,,,2025-09-12,1,,,,,テクシア,0
366,2030003027572,新規,0,2025-09-12,2025-09-12,ステラリス合同会社,,合同会社,埼玉県,川口市,上青木西２丁目１１番８号５１５号室,,11,203,3330845,,,,,,,2025-09-12,1,,,,,ステラリス,0
367,2030003027580,新規,0,2025-09-12,2025-09-12,合同会社ＺＩＯＮ,,合同会社,埼玉県,熊谷市,拾六間２４９アベニューＡ１０６,,11,202,3600846,,,,,,,2025-09-12,1,,,,,ジオン,0
368,2030003027606,新規,0,2025-09-12,2025-09-12,ウィンターランドブルワリー合同会社,,合同会社,埼玉県,入間郡毛呂山町,岩井東２丁目６番２,,11,326,3500467,,,,,,,2025-09-12,1,,,,,ウィンターランドブルワリー,0
369,2030003027614,新規,0,2025-09-12,2025-09-12,合同会社アグリ幸,,合同会社,埼玉県,久喜市,南栗橋１０丁目６番地１４,,11,232,3491117,,,,,,,2025-09-12,1,,,,,アグリコウ,0
370,2030003027622,新規,0,2025-09-12,2025-09-12,合同会社Ｚｉｚａｉ,,合同会社,埼玉県,戸田市,美女木東１丁目２－３オハナ北戸田ガーデニア８０２,,11,224,3350032,,,,,,,2025-09-12,1,,,,,ジザイ,0
371,2030003027630,新規,0,2025-09-12,2025-09-12,合同会社真鶴灯,,合同会社,埼玉県,越谷市,大字大道７８９番地９,,11,222,3430035,,,,,,,2025-09-12,1,,,,,マツルビ,0
378,2040001140483,新規,0,2025-09-12,2025-09-12,株式会社クレアナ,,株式会社,千葉県,船橋市,習志野台７丁目１番９－３号,,12,204,2740063,,,,,,,2025-09-12,1,,,,,クレアナ,0
381,2040003028462,新規,0,2025-09-12,2025-09-12,合同会社島村不動産,,合同会社,千葉県,市川市,大洲４丁目６番１２号コーポエノモト１０２号室,,12,203,2720032,,,,,,,2025-09-12,1,,,,,シマムラフドウサン,0
382,2040003028512,新規,0,2025-09-12,2025-09-12,ＮＮ合同会社,,合同会社,千葉県,千葉市中央区,椿森５丁目５番４号ＭＦコーポ７Ａ２０２号,,12,101,2600042,,,,,,,2025-09-12,1,,,,,エヌエヌ,0
386,2050001057280,新規,0,2025-09-12,2025-09-12,株式会社維新建設工業,,株式会社,茨城県,古河市,茶屋新田１９０番地４Ｋ＆Ｅ２－１０２号,,08,204,3060051,,,,,,,2025-09-12,1,,,,,イシンケンセツコウギョウ,0
387,2050003009560,新規,0,2025-09-12,2025-09-12,ＭＵＧＨＡＬ　ＭＯＴＯＲＳ合同会社,,合同会社,茨城県,猿島郡境町,大字志鳥９１３番地３,,08,546,3060401,,,,,,,2025-09-12,1,,,,,ムグハルモータース,0
390,2060001038560,新規,0,2025-09-12,2025-09-12,株式会社ミセキホーム,,株式会社,栃木県,佐野市,馬門町１４０８番地,,09,204,3270824,,,,,,,2025-09-12,1,,,,,ミセキホーム,0
395,2070001043353,新規,0,2025-09-12,2025-09-12,株式会社ユーモア,,株式会社,群馬県,邑楽郡千代田町,大字赤岩２１７番地の１１,,10,523,3700503,,,,,,,2025-09-12,1,,,,,ユーモア,0
400,2090001019500,新規,0,2025-09-12,2025-09-12,株式会社Ｍ,,株式会社,山梨県,甲府市,上今井町８０１番地１相川ビルＩＩ１階Ａ号室,00140640,19,201,4000845,,,,,,,2025-09-12,1,,,,,エム,0
401,2090003002891,新規,0,2025-09-12,2025-09-12,合同会社ＩＳＡＩ,,合同会社,山梨県,笛吹市,御坂町二之宮４６－３,,19,211,4060807,,,,,,,2025-09-12,1,,,,,イサイ,0
420,2120001279479,新規,0,2025-09-12,2025-09-12,いいやん株式会社,,株式会社,大阪府,大阪市西区,北堀江２丁目２－２４－７０５,,27,106,5500014,,,,,,,2025-09-12,1,,,,,イイヤン,0
421,2120001279487,新規,0,2025-09-12,2025-09-12,株式会社セレニティリンク,,株式会社,大阪府,大阪市西区,江之子島１丁目７－３奥内阿波座駅前ビル４０５号,,27,106,5500006,,,,,,,2025-09-12,1,,,,,セレニティリンク,0
422,2120001279504,新規,0,2025-09-12,2025-09-12,株式会社ＬＣ,,株式会社,大阪府,大阪市中央区,今橋３丁目２番１４号ＫＰＯビル３０１,,27,128,5410042,,,,,,,2025-09-12,1,,,,,エルシー,0
423,2120001279520,新規,0,2025-09-12,2025-09-12,株式会社ｉ　ｓｅｅ,,株式会社,大阪府,大阪市都島区,片町２丁目１１番２４号大阪シティホテル京橋２０８号室,,27,102,5340025,,,,,,,2025-09-12,1,,,,,アイシー,0
424,2120001279578,新規,0,2025-09-12,2025-09-12,株式会社ぷりお,,株式会社,大阪府,大阪市北区,梅田１丁目２番２号大阪駅前第２ビル１２－１２,,27,127,5300001,,,,,,,2025-09-12,1,,,,,プリオ,0
425,2120001279792,新規,0,2025-09-12,2025-09-12,ＺｅｎｉｔｈＤｅｓｉｇｎ株式会社,,株式会社,大阪府,大阪市天王寺区,伶人町２－３１ＳｔａｒＯｆｆｉｃｅ大阪天王寺北６０６号室,,27,109,5430061,,,,,,,2025-09-12,1,,,,,ゼニスデザイン,0
431,2120101072412,新規,0,2025-09-12,2025-09-12,陽翔グローバル株式会社,,株式会社,大阪府,泉南郡熊取町,朝代西３丁目６６８－１０１号室,,27,361,5900458,,,,,,,2025-09-12,1,,,,,ヨウショウグローバル,0
432,2120101072420,新規,0,2025-09-12,2025-09-12,株式会社ＮＩＰＰＯＨカンパニー,,株式会社,大阪府,堺市堺区,北花田口町３丁２番１０号,,27,141,5900074,,,,,,,2025-09-12,1,,,,,ニッポウカンパニー,0
433,2120101072429,新規,0,2025-09-12,2025-09-12,株式会社ＳＣ商会,,株式会社,大阪府,堺市西区,鳳東町６丁６６８番地５,,27,144,5938324,,,,,,,2025-09-12,1,,,,,エスシーショウカイ,0
438,2130001080555,新規,0,2025-09-12,2025-09-12,株式会社ＹＡＭ,,株式会社,京都府,京都市下京区,新町通松原上る御影町４６２番地の２,,26,106,6008447,,,,,,,2025-09-12,1,,,,,ワイエーエム,0
439,2130001080563,新規,0,2025-09-12,2025-09-12,株式会社ＭＵＳＵＢＩ,,株式会社,京都府,京都市下京区,高辻通室町西入繁昌町３１０番地,,26,106,6008433,,,,,,,2025-09-12,1,,,,,ムスビ,0
447,2140005027626,新規,0,2025-09-12,2025-09-12,土地家屋調査士法人藤井十章事務所,,その他の設立登記法人,兵庫県,宝塚市,川面５丁目１０番２号,,28,214,6650842,,,,,,,2025-09-12,1,,,,,フジイカズアキジムショ,0
449,2150001028395,新規,0,2025-09-12,2025-09-12,ＭＩＲＡＩ　Ｍａｋｅｒ株式会社,,株式会社,奈良県,奈良市,芝辻町４丁目６番地の３グランシャリオ１０５号,00140630,29,201,6308114,,,,,,,2025-09-12,1,,,,,ミライメイカー,0
453,2180003029034,新規,0,2025-09-12,2025-09-12,合同会社ＨＡＲＩＭＡＹＡ　ＥＮＴＥＲＰＲＩＳＥ,,合同会社,愛知県,名古屋市南区,内田橋２丁目２４番２１号サンフタミ内田橋４号室,,23,112,4570862,,,,,,,2025-09-12,1,,,,,ハリマヤエンタープライズ,0
454,2180301040196,新規,0,2025-09-12,2025-09-12,株式会社ＦＩＶＥ　ｃｒｅａｔｅ,,株式会社,愛知県,岡崎市,真伝町字吉祥２５番地１,,23,202,4443174,,,,,,,2025-09-12,1,,,,,ファイブクリエイト,0
455,2180305009725,新規,0,2025-09-12,2025-09-12,特定非営利活動法人仁,,その他の設立登記法人,愛知県,知立市,牛田１丁目８番地,,23,225,4720003,,,,,,,2025-09-12,1,,,,,ジン,0
458,2200001044222,新規,0,2025-09-12,2025-09-12,株式会社サン,,株式会社,岐阜県,各務原市,川島小網町２１４６番地４７,,21,213,5016023,,,,,,,2025-09-12,1,,,,,サン,0
459,2200001044239,新規,0,2025-09-12,2025-09-12,株式会社Ｊｏｙ　Ｌｏｏｐ,,株式会社,岐阜県,可児市,若葉台７丁目１７番地,,21,214,5090258,,,,,,,2025-09-12,1,,,,,ジョイループ,0
466,2220005008997,新規,0,2025-09-12,2025-09-12,一般社団法人みんなのまち経済圏・再生プロジェクト,,その他の設立登記法人,石川県,加賀市,若葉台１２３,,17,206,9220323,,,,,,,2025-09-12,1,,,,,,0
477,2260003005340,新規,0,2025-09-12,2025-09-12,合同会社フリーダムＣ２４,,合同会社,岡山県,津山市,小田中２２７０番地５,,33,203,7080006,,,,,,,2025-09-12,1,,,,,フリーダムシーニジュウヨン,0
478,2280001009507,新規,0,2025-09-12,2025-09-12,株式会社ｓｅｉ,,株式会社,島根県,鹿足郡津和野町,後田イ５８番地３,,32,501,6995605,,,,,,,2025-09-12,1,,,,,セイ,0
483,2290001111311,新規,0,2025-09-12,2025-09-12,株式会社ハルヒ不動産,,株式会社,福岡県,春日市,下白水北２丁目１８番地,,40,218,8160854,,,,,,,2025-09-12,1,,,,,ハルヒフドウサン,0
486,2290003017408,新規,0,2025-09-12,2025-09-12,ニャンニャン合同会社,,合同会社,福岡県,久留米市,本町１５番地２０－２０２号,,40,203,8300044,,,,,,,2025-09-12,1,,,,,ニャンニャン,0
487,2290801031857,新規,0,2025-09-12,2025-09-12,株式会社Ｄａｎｃｅ　Ｏｆｆｉｃｅ　Ｇｒｏｗ,,株式会社,福岡県,田川郡大任町,大字今任原１２３７番地,,40,608,8240511,,,,,,,2025-09-12,1,,,,,ダンスオフィスグロウ,0
488,2320003004765,新規,0,2025-09-12,2025-09-12,合同会社島灯,,合同会社,大分県,東国東郡姫島村,１５６１番地の６,,44,322,8721501,,,,,,,2025-09-12,1,,,,,シマアカリ,0
489,2330001033567,新規,0,2025-09-12,2025-09-12,株式会社ＳＧＭ,,株式会社,熊本県,熊本市南区,城南町出水７４５番地３,,43,104,8614213,,,,,,,2025-09-12,1,,,,,エスジーエム,0
498,2370003007284,新規,0,2025-09-12,2025-09-12,合同会社佐々木,,合同会社,宮城県,仙台市宮城野区,栄４丁目１０番３３号郷家ビル１ＦＣ区画,,04,102,9830011,,,,,,,2025-09-12,1,,,,,ササキ,0
501,2380001035559,新規,0,2025-09-12,2025-09-12,株式会社ＳＫＣ,,株式会社,福島県,郡山市,日和田町高倉字大口原１番地８５,,07,203,9630531,,,,,,,2025-09-12,1,,,,,エスケーシー,0
507,2420005007970,新規,0,2025-09-12,2025-09-12,土地家屋調査士法人島根合同事務所,,その他の設立登記法人,青森県,青森市,浪打１丁目３番６号,,02,201,0300961,,,,,,,2025-09-12,1,,,,,シマネゴウドウジムショ,0
510,2430001095226,新規,0,2025-09-12,2025-09-12,廣長電設株式会社,,株式会社,北海道,滝川市,南滝の川３２１番地,,01,225,0730013,,,,,,,2025-09-12,1,,,,,ヒロチョウデンセツ,0
516,2490001011160,新規,0,2025-09-12,2025-09-12,株式会社楽,,株式会社,高知県,室戸市,室戸岬町２８４６番地８,,39,202,7817101,,,,,,,2025-09-12,1,,,,,タノ,0
534,3010001258451,新規,0,2025-09-12,2025-09-12,株式会社ＯｔｔｅｒＡＩ,,株式会社,東京都,千代田区,神田和泉町１番地６－１６ヤマトビル４０５,,13,101,1010024,,,,,,,2025-09-12,1,,,,,アッターエーアイ,0
535,3010001258476,新規,0,2025-09-12,2025-09-12,株式会社Ｓａｉｌ２号,,株式会社,東京都,千代田区,紀尾井町４番１号,,13,101,1020094,,,,,,,2025-09-12,1,,,,,セイルニゴウ,0
537,3010003048636,新規,0,2025-09-12,2025-09-12,合同会社Ｒｅｍｅｄｅ　Ｌａｂ,,合同会社,東京都,中央区,日本橋室町１丁目１１番１２号日本橋水野ビル７階,,13,102,1030022,,,,,,,2025-09-12,1,,,,,レメドラボ,0
538,3010003048735,新規,0,2025-09-12,2025-09-12,Ｖｉｔａｌ　Ｓｉｇｎａｌｓ合同会社,,合同会社,東京都,中央区,日本橋３丁目９番１号日本橋三丁目スクエア１１階,,13,102,1030027,,,,,,,2025-09-12,1,,,,,バイタルシグナルズ,0
542,3010005040665,新規,0,2025-09-12,2025-09-12,ＴＯＫ１Ａ特定目的会社,,その他の設立登記法人,東京都,千代田区,丸の内１丁目４番１号東京共同会計事務所内,,13,101,1000005,,,,,,,2025-09-12,1,,,,,トックワンエー,0
545,3010401192829,新規,0,2025-09-12,2025-09-12,株式会社ＤＥＮＳＥ,,株式会社,東京都,港区,六本木７丁目１４番２号三清会館ビル３Ｆ,,13,103,1060032,,,,,,,2025-09-12,1,,,,,デンス,0
546,3010401192837,新規,0,2025-09-12,2025-09-12,株式会社佐藤企業ワールド,,株式会社,東京都,港区,芝公園３丁目４番３０号,,13,103,1050011,,,,,,,2025-09-12,1,,,,,サトウキギョウワールド,0
547,3010401192853,新規,0,2025-09-12,2025-09-12,ＯＧＯアート株式会社,,株式会社,東京都,港区,虎ノ門１丁目１６番６号虎ノ門ＲＡＰＯ－ＴＯビルＵＣＦ７０３,,13,103,1050001,,,,,,,2025-09-12,1,,,,,オージーオーアート,0
548,3010401193026,新規,0,2025-09-12,2025-09-12,ＪＤ株式会社,,株式会社,東京都,港区,南青山２丁目２番１５号ウィン青山６２２号,,13,103,1070062,,,,,,,2025-09-12,1,,,,,ジェイディ,0
549,3010401193042,新規,0,2025-09-12,2025-09-12,株式会社ＥＩＤＥＸ,,株式会社,東京都,港区,北青山１丁目３－３三橋ビル３階,,13,103,1070061,,,,,,,2025-09-12,1,,,,,エイデックス,0
550,3010401193067,新規,0,2025-09-12,2025-09-12,株式会社ニュート,,株式会社,東京都,港区,西新橋３丁目１５番１２号,,13,103,1050003,,,,,,,2025-09-12,1,,,,,ニュート,0
551,3010403036001,新規,0,2025-09-12,2025-09-12,合同会社ＥＮＮＵＩ,,合同会社,東京都,港区,浜松町２丁目２番１５号浜松町ダイヤビル２Ｆ,,13,103,1050013,,,,,,,2025-09-12,1,,,,,アンニュイ,0
554,3010501054689,新規,0,2025-09-12,2025-09-12,株式会社ＭＲ,,株式会社,東京都,台東区,日本堤２丁目８―８,,13,106,1110021,,,,,,,2025-09-12,1,,,,,エムアール,0
559,3010701048292,新規,0,2025-09-12,2025-09-12,株式会社神明不動産,,株式会社,東京都,品川区,二葉１丁目９番９号１Ｆ,,13,109,1420043,,,,,,,2025-09-12,1,,,,,シンメイフドウサン,0
560,3010703007899,新規,0,2025-09-12,2025-09-12,合同会社エクラ,,合同会社,東京都,品川区,北品川２丁目２４－７－１３０４,,13,109,1400001,,,,,,,2025-09-12,1,,,,,エクラ,0
566,3011001172386,新規,0,2025-09-12,2025-09-12,株式会社アプセス,,株式会社,東京都,目黒区,中目黒１丁目１番１７－４１５号,,13,110,1530061,,,,,,,2025-09-12,1,,,,,アプセス,0
568,3011003022515,新規,0,2025-09-12,2025-09-12,Ａｏｙａｍａ　Ｃａｐｉｔａｌ　Ｌｉｎｋ合同会社,,合同会社,東京都,渋谷区,道玄坂１丁目１０番８号渋谷道玄坂東急ビル２Ｆ―Ｃ,,13,113,1500043,,,,,,,2025-09-12,1,,,,,アオヤマキャピタルリンク,0
574,3011101113018,新規,0,2025-09-12,2025-09-12,株式会社エンナ,,株式会社,東京都,新宿区,西新宿３丁目３番１３号西新宿水間ビル２Ｆ,,13,104,1600023,,,,,,,2025-09-12,1,,,,,エンナ,0
575,3011101113067,新規,0,2025-09-12,2025-09-12,株式会社カーボニティ,,株式会社,東京都,新宿区,新小川町１番１４号,,13,104,1620814,,,,,,,2025-09-12,1,,,,,カーボニティ,0
578,3011103016367,新規,0,2025-09-12,2025-09-12,合同会社Ｅｌａｉｎｅ　ｐａｔｈ,,合同会社,東京都,新宿区,西新宿５丁目５－１－３５０７,,13,104,1600023,,,,,,,2025-09-12,1,,,,,イレインパス,0
581,3011203004817,新規,0,2025-09-12,2025-09-12,合同会社スペード,,合同会社,東京都,中野区,野方２丁目５１－１４リッチビラＳＫ１０１,,13,114,1650027,,,,,,,2025-09-12,1,,,,,スペード,0
582,3011501032552,新規,0,2025-09-12,2025-09-12,Ｍｒ．Ｌａｗ株式会社,,株式会社,東京都,北区,赤羽北２丁目１５番１－８３４号,,13,117,1150052,,,,,,,2025-09-12,1,,,,,ミスターロー,0
583,3011501032560,新規,0,2025-09-12,2025-09-12,ＬＯＨＩ株式会社,,株式会社,東京都,北区,浮間１丁目１番１４号リムジンビル２１０,,13,117,1150051,,,,,,,2025-09-12,1,,,,,ロハイ,0
584,3011501032569,新規,0,2025-09-12,2025-09-12,株式会社ＫＪシステムズ,,株式会社,東京都,荒川区,東尾久６丁目４３番６号,,13,118,1160012,,,,,,,2025-09-12,1,,,,,ケージェイシステムズ,0
585,3011503006678,新規,0,2025-09-12,2025-09-12,Ｓ‐Ｆａｍｉｌｙ合同会社,,合同会社,東京都,荒川区,東尾久２丁目４７－４メゾン薫,,13,118,1160012,,,,,,,2025-09-12,1,,,,,エスファミリー,0
587,3011701028714,新規,0,2025-09-12,2025-09-12,Ｂｉｌｌｏ　Ｇｒｏｕｐ株式会社,,株式会社,東京都,江戸川区,東小岩５丁目３７番１２号楽新ビル４階,,13,123,1330052,,,,,,,2025-09-12,1,,,,,ビログループ,0
588,3011701028722,新規,0,2025-09-12,2025-09-12,星辰数字科技株式会社,,株式会社,東京都,江戸川区,上一色３丁目８番６号平井ビル１Ｆ,,13,123,1330041,,,,,,,2025-09-12,1,,,,,セイシンスウジカギ,0
590,3011801046707,新規,0,2025-09-12,2025-09-12,星宇龍株式会社,,株式会社,東京都,葛飾区,堀切４丁目９番４号ほりぐちビル５０３号,,13,122,1240006,,,,,,,2025-09-12,1,,,,,ホシウリュウ,0
591,3012301014518,新規,0,2025-09-12,2025-09-12,株式会社ウィライズ,,株式会社,東京都,町田市,本町田１７９‐２３,,13,209,1940032,,,,,,,2025-09-12,1,,,,,ウィライズ,0
592,3012305002147,新規,0,2025-09-12,2025-09-12,一般社団法人相続不動産協会,,その他の設立登記法人,東京都,町田市,能ヶ谷１丁目５番６号,,13,209,1950053,,,,,,,2025-09-12,1,,,,,ソウゾクフドウサンキョウカイ,0
594,3012403007329,新規,0,2025-09-12,2025-09-12,Ｓ．Ｋ．Ｐ合同会社,,合同会社,東京都,狛江市,西野川２丁目１１番１号,,13,219,2010001,,,,,,,2025-09-12,1,,,,,エスケーピー,0
595,3012701019075,新規,0,2025-09-12,2025-09-12,ＤｅｌｔａＦｏｒｅｓｉｇｈｔ株式会社,,株式会社,東京都,西東京市,新町２丁目１０―２５,,13,229,2020023,,,,,,,2025-09-12,1,,,,,デルタフォーサイト,0
600,3020001164590,新規,0,2025-09-12,2025-09-12,株式会社ＴＮＫ,,株式会社,神奈川県,横浜市神奈川区,金港町５‐１４クアドリフォリオ８階,,14,102,2210056,,,,,,,2025-09-12,1,,,,,ティーエヌケー,0
601,3020001164814,新規,0,2025-09-12,2025-09-12,株式会社Ｎａｍｍａ,,株式会社,神奈川県,川崎市宮前区,東有馬３丁目１６番１ー２号,,14,136,2160002,,,,,,,2025-09-12,1,,,,,ナンマ,0
606,3020003029305,新規,0,2025-09-12,2025-09-12,合同会社インプレッションズ,,合同会社,神奈川県,横浜市西区,北幸２丁目１０番５８号むつみビル３階,,14,103,2200004,,,,,,,2025-09-12,1,,,,,インプレッションズ,0
611,3030001168574,新規,0,2025-09-12,2025-09-12,Ｓｅｋａｉｉｃｈｉ株式会社,,株式会社,埼玉県,越谷市,蒲生東町９番３５号,,11,222,3430841,,,,,,,2025-09-12,1,,,,,セカイイチ,0
612,3030001168599,新規,0,2025-09-12,2025-09-12,株式会社電光警備保障,,株式会社,埼玉県,川越市,大字古谷上３７６４番地１,,11,201,3500001,,,,,,,2025-09-12,1,,,,,デンコウケイビホショウ,0
613,3030001168624,新規,0,2025-09-12,2025-09-12,株式会社ＬＩＸ,,株式会社,埼玉県,富士見市,大字水子４５７４番地８,,11,235,3540011,,,,,,,2025-09-12,1,,,,,リックス,0
614,3030001168649,新規,0,2025-09-12,2025-09-12,株式会社ファン・アシスト・ライフ,,株式会社,埼玉県,川口市,西川口１丁目６番１７号西川口駅前扶桑ビル７階,,11,203,3320021,,,,,,,2025-09-12,1,,,,,ファンアシストライフ,0
615,3030001168657,新規,0,2025-09-12,2025-09-12,株式会社ＳＵＬＴＡＮ　ＴＲＡＤＩＮＧ,,株式会社,埼玉県,羽生市,大字下新郷字中７４５番地１,,11,216,3480047,,,,,,,2025-09-12,1,,,,,スルタントレーディング,0
616,3030001168673,新規,0,2025-09-12,2025-09-12,株式会社Ｓｐｅｃｉａｌ　Ｏｎｅ　Ａｇｅｎｃｙ,,株式会社,埼玉県,越谷市,越ヶ谷３丁目３－１６、２Ｆ,,11,222,3430813,,,,,,,2025-09-12,1,,,,,スペシャルワンエージェンシー,0
621,3030003027596,新規,0,2025-09-12,2025-09-12,Ｇｌｏｗ　Ｈｏｕｓｅ合同会社,,合同会社,埼玉県,川口市,大字安行慈林８３２番地１９川口ビジネスセンター２Ｂ,,11,203,3340071,,,,,,,2025-09-12,1,,,,,グローハウス,0
622,3030003027605,新規,0,2025-09-12,2025-09-12,キングオブコーティング合同会社,,合同会社,埼玉県,加須市,中樋遣川１９８５－７,00140631,11,210,3470008,,,,,,,2025-09-12,1,,,,,キングオブコーティング,0
629,3040001140400,新規,0,2025-09-12,2025-09-12,株式会社ユニテクノス,,株式会社,千葉県,市川市,八幡２丁目９番１５,,12,203,2720021,,,,,,,2025-09-12,1,,,,,ユニテクノス,0
630,3040001140458,新規,0,2025-09-12,2025-09-12,ＪＰ総合株式会社,,株式会社,千葉県,八千代市,緑が丘１丁目２番地２アパタワーズ八千代緑が丘１１１７号,,12,221,2760049,,,,,,,2025-09-12,1,,,,,ジェーピーソウゴウ,0
632,3040003028478,新規,0,2025-09-12,2025-09-12,翔紀合同会社,,合同会社,千葉県,千葉市中央区,富士見２丁目７－９富士見ビル６階６２３号,,12,101,2600015,,,,,,,2025-09-12,1,,,,,ショウキ,0
633,3040003028494,新規,0,2025-09-12,2025-09-12,合同会社ヌルアクシス,,合同会社,千葉県,東金市,東金８５６番地２０,,12,213,2830802,,,,,,,2025-09-12,1,,,,,ヌルアクシス,0
637,3050003009551,新規,0,2025-09-12,2025-09-12,ＶＥＲＯ９６合同会社,,合同会社,茨城県,つくば市,北中島字屋敷下３０５番地１５,,08,220,3050072,,,,,,,2025-09-12,1,,,,,ヴェロキュウジュウロク,0
642,3070001043336,新規,0,2025-09-12,2025-09-12,株式会社ＪＡＶＩＫＯジャパン,,株式会社,群馬県,伊勢崎市,中央町２１番地８,,10,204,3720042,,,,,,,2025-09-12,1,,,,,ジャビコジャパン,0
643,3070001043352,新規,0,2025-09-12,2025-09-12,株式会社ＴＲ,,株式会社,群馬県,北群馬郡榛東村,大字新井２５５４番地,,10,344,3703503,,,,,,,2025-09-12,1,,,,,ティーアール,0
644,3070003006084,新規,0,2025-09-12,2025-09-12,マウントＸ合同会社,,合同会社,群馬県,高崎市,棟高町１００２－４３,,10,202,3703521,,,,,,,2025-09-12,1,,,,,マウントエックス,0
645,3080001027131,新規,0,2025-09-12,2025-09-12,株式会社ＬＥＭＯＮＩＴＹ,,株式会社,静岡県,静岡市葵区,下１１０８番地の８,,22,101,4212108,,,,,,,2025-09-12,1,,,,,レモニティ,0
649,3080101025786,新規,0,2025-09-12,2025-09-12,株式会社伊豆海洋資源開発,,株式会社,静岡県,賀茂郡西伊豆町,宇久須４１９番地の８,,22,306,4103501,,,,,,,2025-09-12,1,,,,,イズカイヨウシゲンカイハツ,0
651,3080405007761,新規,0,2025-09-12,2025-09-12,医療法人社団はやし歯科クリニック,,その他の設立登記法人,静岡県,袋井市,旭町２丁目４番地の３８,,22,216,4370015,,,,,,,2025-09-12,1,,,,,ハヤシシカクリニック,0
653,3090003002890,新規,0,2025-09-12,2025-09-12,合同会社Ｒｅｃｒｅａ,,合同会社,山梨県,韮崎市,大草町上條東割７７８,,19,207,4070036,,,,,,,2025-09-12,1,,,,,リクレア,0
671,3120001279271,新規,0,2025-09-12,2025-09-12,株式会社Ｏｈ,,株式会社,大阪府,大阪市東成区,中本４丁目５－２６,,27,115,5370022,,,,,,,2025-09-12,1,,,,,オー,0
672,3120001279536,新規,0,2025-09-12,2025-09-12,ＷＥ　ＨＯＵＳＥ株式会社,,株式会社,大阪府,大阪市生野区,田島６丁目２番２８号４０３号室,,27,116,5440011,,,,,,,2025-09-12,1,,,,,ウイハウス,0
677,3120003030467,新規,0,2025-09-12,2025-09-12,合同会社ある,,合同会社,大阪府,大阪市北区,梅田１丁目２番２号大阪駅前第２ビル１２‐１２,,27,127,5300001,,,,,,,2025-09-12,1,,,,,アル,0
678,3120003030525,新規,0,2025-09-12,2025-09-12,合同会社メトロノーム,,合同会社,大阪府,大阪市東成区,深江南３丁目２－２２,,27,115,5370002,,,,,,,2025-09-12,1,,,,,メトロノーム,0
679,3120003030541,新規,0,2025-09-12,2025-09-12,ＮＡＩＭＡＴ　ＳＯＮＳ　ＴＲＡＤＩＮＧ合同会社,,合同会社,大阪府,枚方市,招提大谷３丁目５６－３,,27,210,5731153,,,,,,,2025-09-12,1,,,,,ナイマットサンズトレーディング,0
684,3120101072386,新規,0,2025-09-12,2025-09-12,株式会社ダルマ堂,,株式会社,大阪府,堺市堺区,竜神橋町１丁２１番地,,27,141,5900972,,,,,,,2025-09-12,1,,,,,,0
685,3120101072411,新規,0,2025-09-12,2025-09-12,生金循環株式会社,,株式会社,大阪府,堺市堺区,中瓦町１丁２－９－６０２,,27,141,5900077,,,,,,,2025-09-12,1,,,,,セイキンジュンカン,0
686,3120103006672,新規,0,2025-09-12,2025-09-12,合同会社ＲＫ,,合同会社,大阪府,富田林市,錦織中２丁目４番１５号,,27,214,5840068,,,,,,,2025-09-12,1,,,,,アールケー,0
694,3130001080554,新規,0,2025-09-12,2025-09-12,日新グループホールディングス株式会社,,株式会社,京都府,久世郡久御山町,佐山双栗３番地,,26,322,6130034,,,,,,,2025-09-12,1,,,,,ニッシングループホールディングス,0
699,3140001139993,新規,0,2025-09-12,2025-09-12,クロ建設株式会社,,株式会社,兵庫県,尼崎市,西難波町３丁目１４番８号,,28,202,6600893,,,,,,,2025-09-12,1,,,,,クロケンセツ,0
700,3140001140010,新規,0,2025-09-12,2025-09-12,天麗株式会社,,株式会社,兵庫県,神戸市中央区,楠町１丁目８番２９号１Ｆ,,28,110,6500017,,,,,,,2025-09-12,1,,,,,テンレイ,0
702,3140003022553,新規,0,2025-09-12,2025-09-12,合同会社ＳＢＨ　ｃｒｅａｔｅ,,合同会社,兵庫県,西宮市,花の峯８番２１号,,28,204,6691121,,,,,,,2025-09-12,1,,,,,エスビーエイチクリエイト,0
711,3160003003601,新規,0,2025-09-12,2025-09-12,合同会社サンセリテ,,合同会社,滋賀県,草津市,矢倉２丁目４番１３号,,25,206,5250053,,,,,,,2025-09-12,1,,,,,サンセリテ,0
716,3180001168568,新規,0,2025-09-12,2025-09-12,株式会社はるぐみ,,株式会社,愛知県,名古屋市中区,栄２丁目２番１号広小路伏見中駒ビル２Ｆ－９,,23,106,4600008,,,,,,,2025-09-12,1,,,,,ハルグミ,0
717,3180001168626,新規,0,2025-09-12,2025-09-12,株式会社れもねーど,,株式会社,愛知県,名古屋市千種区,今池３丁目１２―２１ほそぐち今池ビル４Ｆ,,23,101,4640850,,,,,,,2025-09-12,1,,,,,,0
718,3180001168634,新規,0,2025-09-12,2025-09-12,株式会社ＤＬソリューション,,株式会社,愛知県,東海市,大田町蟹田１０８３番地,,23,222,4770031,,,,,,,2025-09-12,1,,,,,ディーエルソリューション,0
721,3180301040195,新規,0,2025-09-12,2025-09-12,株式会社ＤＩＳＣＯＶＥＲ,,株式会社,愛知県,岡崎市,六名１丁目４番地３,,23,202,4440856,,,,,,,2025-09-12,1,,,,,ディスカバー,0
722,3180301040212,新規,0,2025-09-12,2025-09-12,株式会社妙美見参,,株式会社,愛知県,刈谷市,寺横町５丁目１０９番地１,,23,210,4480846,,,,,,,2025-09-12,1,,,,,タエミケンザン,0
724,3200001044238,新規,0,2025-09-12,2025-09-12,株式会社名仙建設,,株式会社,岐阜県,関市,迫間台２丁目４番７号,,21,205,5013925,,,,,,,2025-09-12,1,,,,,メイセンケンセツ,0
725,3200003007028,新規,0,2025-09-12,2025-09-12,ＡＫＨＴＡＲ　ＭＯＴＯＲＳ合同会社,,合同会社,岐阜県,岐阜市,千石町２丁目２１木村ビルＢ－２,,21,201,5008819,,,,,,,2025-09-12,1,,,,,アクターモーターズ,0
733,3270003001791,新規,0,2025-09-12,2025-09-12,合同会社悠栄,,合同会社,鳥取県,八頭郡八頭町,船岡６８０番地３,,31,329,6800471,,,,,,,2025-09-12,1,,,,,ユウエイ,0
741,3290003017349,新規,0,2025-09-12,2025-09-12,合同会社Ｓａｍｂｕｎｇ,,合同会社,福岡県,福岡市中央区,草香江１丁目３－１６,,40,133,8100045,,,,,,,2025-09-12,1,,,,,サンブン,0
745,3310003005086,新規,0,2025-09-12,2025-09-12,合同会社たいりんグループ,,合同会社,長崎県,大村市,寿古町７６５番地１,,42,205,8560801,,,,,,,2025-09-12,1,,,,,タイリングループ,0
749,3330003011215,新規,0,2025-09-12,2025-09-12,ＴＨＰ合同会社,,合同会社,熊本県,熊本市中央区,新屋敷１丁目１３番２３－３０１号,,43,101,8620975,,,,,,,2025-09-12,1,,,,,ティエイチピー,0
753,3350001019729,新規,0,2025-09-12,2025-09-12,株式会社オーシャン不動産,,株式会社,宮崎県,宮崎市,江南３丁目８番１４号,,45,201,8800944,,,,,,,2025-09-12,1,,,,,オーシャンフドウサン,0
756,3370003007283,新規,0,2025-09-12,2025-09-12,合同会社笑庵,,合同会社,宮城県,仙台市若林区,上飯田４丁目２３番３１号,,04,103,9840838,,,,,,,2025-09-12,1,,,,,エミアン,0
766,3430003018076,新規,0,2025-09-12,2025-09-12,合同会社そる,,合同会社,北海道,札幌市南区,真駒内柏丘３丁目１番３７号,,01,106,0050022,,,,,,,2025-09-12,1,,,,,ソル,0
768,3440003001709,新規,0,2025-09-12,2025-09-12,合同会社三原,,合同会社,北海道,寿都郡寿都町,字新栄町９８番地,,01,392,0480401,,,,,,,2025-09-12,1,,,,,ミハラ,0
771,3470001020889,新規,0,2025-09-12,2025-09-12,株式会社ＫＭＦａｍ,,株式会社,香川県,高松市,番町３丁目１５番８号,,37,201,7600017,,,,,,,2025-09-12,1,,,,,ケイエムファム,0
775,3480001012943,新規,0,2025-09-12,2025-09-12,Ｎホールディングス株式会社,,株式会社,徳島県,徳島市,東船場町２丁目２１番地の２阿波銀住友生命ビル３階,,36,201,7700911,,,,,,,2025-09-12,1,,,,,エヌホールディングス,0
789,4010001258112,新規,0,2025-09-12,2025-09-12,株式会社Ｓホールディングス,,株式会社,東京都,文京区,本郷４丁目８番１３号,,13,105,1130033,,,,,,,2025-09-12,1,,,,,エスホールディングス,0
790,4010001258442,新規,0,2025-09-12,2025-09-12,株式会社Ｉｎｓｐｉｒｅ１,,株式会社,東京都,千代田区,九段南１丁目５番６号りそな九段ビル５階ＫＳフロア,,13,101,1020074,,,,,,,2025-09-12,1,,,,,インスパイアワン,0
791,4010001258467,新規,0,2025-09-12,2025-09-12,株式会社ｄｓｋ,,株式会社,東京都,中央区,日本橋浜町２丁目１０－２－４０５,,13,102,1030007,,,,,,,2025-09-12,1,,,,,ディーエスケー,0
792,4010001258475,新規,0,2025-09-12,2025-09-12,山泉株式会社,,株式会社,東京都,文京区,白山１丁目６番４－２２９,,13,105,1130001,,,,,,,2025-09-12,1,,,,,サンセン,0
793,4010001258483,新規,0,2025-09-12,2025-09-12,株式会社ＰｒｉｍｅＡｃｔ,,株式会社,東京都,中央区,晴海２丁目２番４２－４１１３号,,13,102,1040053,,,,,,,2025-09-12,1,,,,,プライムアクト,0
794,4010001258491,新規,0,2025-09-12,2025-09-12,ＴＶＵ株式会社,,株式会社,東京都,中央区,銀座１丁目１２番４号Ｎ＆Ｅ・ＢＬＤ．６Ｆ,,13,102,1040061,,,,,,,2025-09-12,1,,,,,ティーブイユー,0
801,4010003048734,新規,0,2025-09-12,2025-09-12,福岡筑後蓄電合同会社,,合同会社,東京都,千代田区,神田練塀町３番地,,13,101,1010022,,,,,,,2025-09-12,1,,,,,フクオカチクゴチクデン,0
802,4010005040664,新規,0,2025-09-12,2025-09-12,ハイネ一般社団法人,,その他の設立登記法人,東京都,千代田区,永田町２丁目１７番５号,,13,101,1000014,,,,,,,2025-09-12,1,,,,,ハイネ,0
807,4010401192803,新規,0,2025-09-12,2025-09-12,株式会社知略の道,,株式会社,東京都,港区,六本木３丁目１６番１２号六本木ＫＳビル５Ｆ,,13,103,1060032,,,,,,,2025-09-12,1,,,,,チリャクノミチ,0
808,4010401192910,新規,0,2025-09-12,2025-09-12,株式会社オフィス余慶,,株式会社,東京都,港区,高輪３丁目１０－２グラスプラス高輪,,13,103,1080074,,,,,,,2025-09-12,1,,,,,オフィスヨケイ,0
813,4010403035968,新規,0,2025-09-12,2025-09-12,合同会社チャンビ,,合同会社,東京都,港区,芝４丁目４番１４号青島ビル１Ｆ,,13,103,1080014,,,,,,,2025-09-12,1,,,,,チャンビ,0
814,4010403035976,新規,0,2025-09-12,2025-09-12,合同会社Ｇｏｏｄ　Ｌｏｏｐ,,合同会社,東京都,港区,南青山３丁目１番３６号青山丸竹ビル６Ｆ,,13,103,1070062,,,,,,,2025-09-12,1,,,,,グッドループ,0
815,4010403036009,新規,0,2025-09-12,2025-09-12,合同会社赤坂会,,合同会社,東京都,港区,赤坂１丁目１番７号オリエント赤坂モートサイドビル３Ｆ,,13,103,1070052,,,,,,,2025-09-12,1,,,,,アカサカカイ,0
823,4010501054696,新規,0,2025-09-12,2025-09-12,東京嘉泰株式会社,,株式会社,東京都,台東区,清川２丁目３２－７－２０３,,13,106,1110022,,,,,,,2025-09-12,1,,,,,トウキョウカタイ,0
831,4010603011793,新規,0,2025-09-12,2025-09-12,合同会社メガダンスセンター,,合同会社,東京都,江東区,潮見１丁目１６番６号廣瀬ビル２０１,,13,108,1350052,,,,,,,2025-09-12,1,,,,,メガダンスセンター,0
834,4010701048291,新規,0,2025-09-12,2025-09-12,三港株式会社,,株式会社,東京都,品川区,東五反田２丁目２番５号,,13,109,1410022,,,,,,,2025-09-12,1,,,,,サンコウ,0
850,4011001171957,新規,0,2025-09-12,2025-09-12,株式会社らぷたす,,株式会社,東京都,渋谷区,西原３丁目２３番６号,,13,113,1510066,,,,,,,2025-09-12,1,,,,,ラプタス,0
851,4011001172039,新規,0,2025-09-12,2025-09-12,株式会社アルペジオ,,株式会社,東京都,渋谷区,道玄坂１丁目１０番８号渋谷道玄坂東急ビル２Ｆ‐Ｃ,,13,113,1500043,,,,,,,2025-09-12,1,,,,,アルペジオ,0
852,4011001172419,新規,0,2025-09-12,2025-09-12,実行機能障害株式会社,,株式会社,東京都,目黒区,下目黒１丁目１番１４号コノトラビル７Ｆ,,13,110,1530064,,,,,,,2025-09-12,1,,,,,ジッコウキノウショウガイ,0
853,4011001172476,新規,0,2025-09-12,2025-09-12,株式会社Ｊｏｅｙ　Ｌｉｇｈｔ,,株式会社,東京都,目黒区,中町２丁目４７番５－１１６号,,13,110,1530065,,,,,,,2025-09-12,1,,,,,ジョイライト,0
858,4011101113041,新規,0,2025-09-12,2025-09-12,雅創株式会社,,株式会社,東京都,新宿区,歌舞伎町２丁目２５番８号２１４室,,13,104,1600021,,,,,,,2025-09-12,1,,,,,ガソウ,0
859,4011101113132,新規,0,2025-09-12,2025-09-12,株式会社ＫＣ,,株式会社,東京都,新宿区,西新宿３丁目３番１３号西新宿水間ビル６階,,13,104,1600023,,,,,,,2025-09-12,1,,,,,ケーシー,0
860,4011101113157,新規,0,2025-09-12,2025-09-12,税理士ＦＩＮＤＥＲ株式会社,,株式会社,東京都,新宿区,西早稲田２丁目１８番３２号ＳＣＡＬＥ５０１,,13,104,1690051,,,,,,,2025-09-12,1,,,,,ゼイリシファインダー,0
861,4011103016317,新規,0,2025-09-12,2025-09-12,合同会社ＯＫＡ,,合同会社,東京都,新宿区,馬場下町６１番地パールハイツ４０２,,13,104,1620045,,,,,,,2025-09-12,1,,,,,オーケーエー,0
863,4011203004816,新規,0,2025-09-12,2025-09-12,ＶＩＥＴＮＩＨＯＮ　ＦＯＯＤ合同会社,,合同会社,東京都,中野区,中野２丁目１６－５シミズハウス２７,,13,114,1640001,,,,,,,2025-09-12,1,,,,,ヴィットニホンフード,0
864,4011403004839,新規,0,2025-09-12,2025-09-12,合同会社ＥｖｅｒｙＬｉｎｋ,,合同会社,東京都,板橋区,上板橋２丁目９－１０－５０２,,13,119,1740076,,,,,,,2025-09-12,1,,,,,エヴリーリンク,0
875,4012701019074,新規,0,2025-09-12,2025-09-12,Ｆ．Ｍ．Ｉｎｓｐｅｃｔｉｏｎ株式会社,,株式会社,東京都,清瀬市,中清戸３丁目３８６番地８,,13,221,2040012,,,,,,,2025-09-12,1,,,,,エフエムインスペクション,0
882,4020001164813,新規,0,2025-09-12,2025-09-12,株式会社座・風流堂,,株式会社,神奈川県,横浜市緑区,長津田３丁目８番１５号,,14,113,2260027,,,,,,,2025-09-12,1,,,,,ザフウリュウドウ,0
885,4021001086304,新規,0,2025-09-12,2025-09-12,株式会社ホームテリア,,株式会社,神奈川県,大和市,つきみ野１丁目１番地６５,,14,213,2420002,,,,,,,2025-09-12,1,,,,,ホームテリア,0
896,4030001168557,新規,0,2025-09-12,2025-09-12,株式会社テンペスト,,株式会社,埼玉県,さいたま市見沼区,大和田町１丁目６２９番地５サンパークハウスＩ２０１,00140632,11,104,3370053,,,,,,,2025-09-12,1,,,,,テンペスト,0
897,4030001168573,新規,0,2025-09-12,2025-09-12,株式会社ＭＫミート,,株式会社,埼玉県,川口市,東領家４丁目６番２号Ｂ棟,,11,203,3320003,,,,,,,2025-09-12,1,,,,,エムケイミート,0
898,4030001168607,新規,0,2025-09-12,2025-09-12,株式会社スタジオはなび,,株式会社,埼玉県,所沢市,くすのき台１丁目１０番地の７肥沼ビル３Ｆ,,11,208,3590037,,,,,,,2025-09-12,1,,,,,スタジオハナビ,0
899,4030001168615,新規,0,2025-09-12,2025-09-12,君承＿株式会社,00140650,株式会社,埼玉県,蕨市,中央２丁目３５番３号,,11,223,3350004,,,,,,,2025-09-12,1,,,,,クンショウイク,0
900,4030001168648,新規,0,2025-09-12,2025-09-12,Ｓｈｕｈａｎａｔａｚ株式会社,,株式会社,埼玉県,草加市,長栄１丁目８３９番地１３,,11,221,3400051,,,,,,,2025-09-12,1,,,,,スハナタズ,0
901,4030001168664,新規,0,2025-09-12,2025-09-12,株式会社陸王,,株式会社,埼玉県,熊谷市,大原４丁目２番１２号,,11,202,3600812,,,,,,,2025-09-12,1,,,,,リクオウ,0
905,4030003027587,新規,0,2025-09-12,2025-09-12,Ｔｓｕｚｕｋｉ＆Ｃｏｍｐａｎｙ合同会社,,合同会社,埼玉県,飯能市,大字双柳５７５番地１,,11,209,3570021,,,,,,,2025-09-12,1,,,,,ツヅキアンドカンパニー,0
908,4040001140449,新規,0,2025-09-12,2025-09-12,株式会社Ｎ＆Ｉ,,株式会社,千葉県,野田市,古布内１５４２番地２３,,12,208,2700221,,,,,,,2025-09-12,1,,,,,エヌアンドアイ,0
909,4040001140465,新規,0,2025-09-12,2025-09-12,株式会社アトリエルーツ,,株式会社,千葉県,八千代市,大和田新田３１２番地４０君塚ビル３階,,12,221,2760046,,,,,,,2025-09-12,1,,,,,アトリエルーツ,0
910,4040001140515,新規,0,2025-09-12,2025-09-12,株式会社川崎電気工業,,株式会社,千葉県,柏市,篠籠田１４０１番地２－２０８号,,12,217,2770862,,,,,,,2025-09-12,1,,,,,カワサキデンキコウギョウ,0
912,4040003028493,新規,0,2025-09-12,2025-09-12,合同会社ＧＣＹ,,合同会社,千葉県,白井市,西白井１丁目２５番地１６,,12,232,2701408,,,,,,,2025-09-12,1,,,,,ジーシーワイ,0
913,4040003028502,新規,0,2025-09-12,2025-09-12,有澤ネットサービス合同会社,,合同会社,千葉県,松戸市,新松戸北２丁目１７番地の１８,,12,207,2700032,,,,,,,2025-09-12,1,,,,,アリサワネットサービス,0
914,4040005022866,新規,0,2025-09-12,2025-09-12,一般社団法人千葉県総合福祉企画,,その他の設立登記法人,千葉県,八街市,八街ほ２１４番地７,,12,230,2891115,,,,,,,2025-09-12,1,,,,,チバケンソウゴウフクシキカク,0
917,4050003009559,新規,0,2025-09-12,2025-09-12,ＹＡＱＯＯＢ　ＡＵＴＯ合同会社,,合同会社,茨城県,結城市,大字結城３４５７番地８,,08,207,3070001,,,,,,,2025-09-12,1,,,,,ヤキューブオート,0
921,4070001043351,新規,0,2025-09-12,2025-09-12,株式会社ＮＥＷ　ＥＲＡ,,株式会社,群馬県,北群馬郡吉岡町,大字大久保２２８７番地１,,10,345,3703602,,,,,,,2025-09-12,1,,,,,ニューエラ,0
933,4100003008381,新規,0,2025-09-12,2025-09-12,合同会社高橋コーティング,00140641,合同会社,長野県,南佐久郡佐久穂町,大字高野町３４０番１０号,,20,309,3840613,,,,,,,2025-09-12,1,,,,,タカハシコーティング,0
940,4120001279246,新規,0,2025-09-12,2025-09-12,株式会社大阪設備ホールディングス,,株式会社,大阪府,大阪市城東区,成育１丁目３番２９号,,27,118,5360007,,,,,,,2025-09-12,1,,,,,オオサカセツビホールディングス,0
941,4120001279436,新規,0,2025-09-12,2025-09-12,株式会社ＨＯＰＥ　ＯＮＥ,,株式会社,大阪府,大阪市北区,天神橋５丁目５番１８号天五センタービル２０２号室,,27,127,5300041,,,,,,,2025-09-12,1,,,,,ホープワン,0
942,4120001279493,新規,0,2025-09-12,2025-09-12,株式会社彩宏商事,,株式会社,大阪府,大阪市平野区,瓜破東５丁目１番４３号,,27,126,5470022,,,,,,,2025-09-12,1,,,,,サイコウショウジ,0
943,4120001279502,新規,0,2025-09-12,2025-09-12,株式会社ＦＣＪ,,株式会社,大阪府,大阪市中央区,南船場３丁目３－４サカイビルディング４Ｆ,,27,128,5420081,,,,,,,2025-09-12,1,,,,,エフシージェイ,0
944,4120001279543,新規,0,2025-09-12,2025-09-12,タイザン株式会社,,株式会社,大阪府,大阪市中央区,釣鐘町１丁目５番１－１５０２号,,27,128,5400035,,,,,,,2025-09-12,1,,,,,タイザン,0
945,4120001279584,新規,0,2025-09-12,2025-09-12,叡原国際株式会社,,株式会社,大阪府,大阪市西区,新町３丁目６番３－１００４号,,27,106,5500013,,,,,,,2025-09-12,1,,,,,エイハラコクサイ,0
946,4120001279898,新規,0,2025-09-12,2025-09-12,株式会社イエコプラス,,株式会社,大阪府,大阪市中央区,瓦町３丁目４番１０号日宝御堂ビル４階,,27,128,5410048,,,,,,,2025-09-12,1,,,,,イエコプラス,0
953,4120003030524,新規,0,2025-09-12,2025-09-12,かもめ合同会社,,合同会社,大阪府,大阪市生野区,新今里５丁目４番１３号,,27,116,5440001,,,,,,,2025-09-12,1,,,,,カモメ,0
954,4120003030648,新規,0,2025-09-12,2025-09-12,丹羽債権所有合同会社,,合同会社,大阪府,大阪市西区,京町堀１丁目４番１６号,,27,106,5500003,,,,,,,2025-09-12,1,,,,,ニワサイケンショユウ,0
957,4120103006713,新規,0,2025-09-12,2025-09-12,トラストパートナーズ合同会社,,合同会社,大阪府,河内長野市,美加の台１丁目３７番１－３０５号,,27,216,5860044,,,,,,,2025-09-12,1,,,,,トラストパートナーズ,0
966,4122001039621,新規,0,2025-09-12,2025-09-12,株式会社アサヒ自動車,,株式会社,大阪府,東大阪市,新喜多１丁目６番５６号,,27,227,5770052,,,,,,,2025-09-12,1,,,,,アサヒジドウシャ,0
973,4130001080264,新規,0,2025-09-12,2025-09-12,株式会社倭文,,株式会社,京都府,与謝郡与謝野町,字三河内８５９番地５,,26,465,6292313,,,,,,,2025-09-12,1,,,,,シドリ,0
974,4130001080529,新規,0,2025-09-12,2025-09-12,株式会社三野商会,,株式会社,京都府,与謝郡伊根町,字本庄上１２３２番地,,26,463,6260405,,,,,,,2025-09-12,1,,,,,ミツノショウカイ,0
976,4130005017460,新規,0,2025-09-12,2025-09-12,一般社団法人天台大志智＿講社,00140634,その他の設立登記法人,京都府,京都市中京区,西ノ京式部町５０番地の８,,26,104,6048384,,,,,,,2025-09-12,1,,,,,テンダイタイシチギコウシャ,0
983,4160001027048,新規,0,2025-09-12,2025-09-12,ＧｒｏｗＡｌｌｉａｎｃｅ株式会社,,株式会社,滋賀県,彦根市,犬方町８３８番地２,,25,202,5220236,,,,,,,2025-09-12,1,,,,,グローアライアンス,0
990,4180001168575,新規,0,2025-09-12,2025-09-12,ＳＷＦ株式会社,,株式会社,愛知県,豊明市,沓掛町宿１５６番地,,23,229,4701109,,,,,,,2025-09-12,1,,,,,エスダブリュウエフ,0
993,4180005021219,新規,0,2025-09-12,2025-09-12,医療法人サムグレイス,,その他の設立登記法人,愛知県,名古屋市昭和区,御器所通１丁目１３番地３,,23,107,4660015,,,,,,,2025-09-12,1,,,,,サムグレイス,0
995,4180301040194,新規,0,2025-09-12,2025-09-12,株式会社平岩断熱,,株式会社,愛知県,安城市,横山町横山２３７番地１,,23,212,4460045,,,,,,,2025-09-12,1,,,,,ヒライワダンネツ,0
1010,4260003005339,新規,0,2025-09-12,2025-09-12,合同会社ＹＯＵＮＡＳ　ＴＲＡＤＩＮＧ,,合同会社,岡山県,岡山市中区,浜１丁目６番２２号メゾン司Ａ２０２,,33,102,7038256,,,,,,,2025-09-12,1,,,,,ユナストレーディング,0
1011,4270005005658,新規,0,2025-09-12,2025-09-12,一般社団法人東大山グリーンエネルギー地域振興公社,,その他の設立登記法人,鳥取県,倉吉市,関金町大鳥居１９３番地１,,31,203,6820402,,,,,,,2025-09-12,1,,,,,ヒガシダイセングリーンエネルギーチイキシンコウコウシャ,0
1016,4290001111292,新規,0,2025-09-12,2025-09-12,星葵株式会社,,株式会社,福岡県,福岡市南区,多賀１丁目４番２５－２０１号,,40,134,8150072,,,,,,,2025-09-12,1,,,,,ホシキ,0
1017,4290001111326,新規,0,2025-09-12,2025-09-12,株式会社ＯＰＩＳ,,株式会社,福岡県,福岡市中央区,渡辺通４丁目９番１８号福酒ビル４Ｆ,,40,133,8100004,,,,,,,2025-09-12,1,,,,,オピス,0
1018,4290001111350,新規,0,2025-09-12,2025-09-12,株式会社犀尊,,株式会社,福岡県,福岡市南区,平和２丁目９－７－２０４,,40,134,8150071,,,,,,,2025-09-12,1,,,,,サイソン,0
1022,4320001021331,新規,0,2025-09-12,2025-09-12,オートサロンＫワーク株式会社,,株式会社,大分県,大分市,大字下判田１９３２－５番地,,44,201,8701112,,,,,,,2025-09-12,1,,,,,オートサロンケーワーク,0
1024,4330001033573,新規,0,2025-09-12,2025-09-12,アテック・テクノ株式会社,,株式会社,熊本県,菊池郡大津町,大字引水７９０ー１ＧＬＢ大津ＩＩ－２号,00140628,43,403,8691234,,,,,,,2025-09-12,1,,,,,アテックテクノ,0
1025,4330001033581,新規,0,2025-09-12,2025-09-12,株式会社プロテクトネイチャー,,株式会社,熊本県,熊本市北区,植木町豊田５００番地２５,,43,105,8610106,,,,,,,2025-09-12,1,,,,,プロテクトネイチャー,0
1026,4330003011214,新規,0,2025-09-12,2025-09-12,合同会社くまもと援農プロジェクト,,合同会社,熊本県,下益城郡美里町,安部１７６－１,,43,348,8614714,,,,,,,2025-09-12,1,,,,,クマモトエンノウプロジェクト,0
1036,4370001053031,新規,0,2025-09-12,2025-09-12,株式会社ＣｈｉｋＡＩ,,株式会社,宮城県,仙台市青葉区,中央２丁目２番１０号仙都会館５階５２２,,04,101,9800021,,,,,,,2025-09-12,1,,,,,チカイ,0
1055,4430003018083,新規,0,2025-09-12,2025-09-12,合同会社ファームなかむら,,合同会社,北海道,芦別市,野花南町２８６７番地,,01,216,0791372,,,,,,,2025-09-12,1,,,,,ファームナカムラ,0
1064,4480001012942,新規,0,2025-09-12,2025-09-12,株式会社高橋組,00140644,株式会社,徳島県,徳島市,中島田町４丁目１２５番地の７,,36,201,7700052,,,,,,,2025-09-12,1,,,,,,0
1065,4490001011159,新規,0,2025-09-12,2025-09-12,株式会社ＳｅａＢｌｕｅ,,株式会社,高知県,室戸市,浮津２４１番地１５,,39,202,7817103,,,,,,,2025-09-12,1,,,,,シーブルー,0
1082,5010001258326,新規,0,2025-09-12,2025-09-12,株式会社ＩＭＰ,,株式会社,東京都,中央区,日本橋２丁目１６－４ｒｅｍｉｘ日本橋６Ｆ,,13,102,1030027,,,,,,,2025-09-12,1,,,,,アイエムピー,0
1083,5010001258409,新規,0,2025-09-12,2025-09-12,株式会社明日葉,,株式会社,東京都,中央区,日本橋室町１丁目１１番１２号日本橋水野ビル７階,,13,102,1030022,,,,,,,2025-09-12,1,,,,,アシタバ,0
1084,5010001258458,新規,0,2025-09-12,2025-09-12,株式会社Ｓｋｙ　Ｂｌｏｏｍ,,株式会社,東京都,千代田区,霞が関３丁目２番６号東京倶楽部ビルディング９階,,13,101,1000013,,,,,,,2025-09-12,1,,,,,スカイブルーム,0
1087,5010003048709,新規,0,2025-09-12,2025-09-12,東京令和投資合同会社,,合同会社,東京都,中央区,晴海２丁目２番４２－２５０９号,,13,102,1040053,,,,,,,2025-09-12,1,,,,,トウキョウレイワトウシ,0
1088,5010003048733,新規,0,2025-09-12,2025-09-12,Ｅｎｅｒｇｅｔｅｃｈ合同会社,,合同会社,東京都,中央区,銀座６丁目６－１銀座風月堂ビル５Ｆ,,13,102,1040061,,,,,,,2025-09-12,1,,,,,エナジェティック,0
1089,5010003048741,新規,0,2025-09-12,2025-09-12,ハイネ合同会社,,合同会社,東京都,千代田区,永田町２丁目１７番５号,,13,101,1000014,,,,,,,2025-09-12,1,,,,,ハイネ,0
1091,5010103002648,新規,0,2025-09-12,2025-09-12,Ａｔ　Ｎｏｏｎ合同会社,,合同会社,東京都,八王子市,中野町２７４５番地１パレスＮＡＫＡＮＯ２０６号室,,13,201,1920015,,,,,,,2025-09-12,1,,,,,アットヌーン,0
1098,5010401192802,新規,0,2025-09-12,2025-09-12,ＤＡＩＭＵテック株式会社,,株式会社,東京都,港区,芝５丁目２５番１号ＶＯＲＴ三田ＩＩ８階,00140646,13,103,1080014,,,,,,,2025-09-12,1,,,,,ダイムテック,0
1099,5010401192884,新規,0,2025-09-12,2025-09-12,アレゴリカ株式会社,,株式会社,東京都,港区,六本木７丁目２０－１９イナダビル３０２,,13,103,1060032,,,,,,,2025-09-12,1,,,,,アレゴリカ,0
1100,5010401193024,新規,0,2025-09-12,2025-09-12,株式会社明るい編集舎,,株式会社,東京都,港区,高輪２丁目１番１５号,,13,103,1080074,,,,,,,2025-09-12,1,,,,,アカルイヘンシュウシャ,0
1101,5010401193098,新規,0,2025-09-12,2025-09-12,サンディブルー株式会社,,株式会社,東京都,港区,南麻布２丁目１２番３号,,13,103,1060047,,,,,,,2025-09-12,1,,,,,サンディブルー,0
1102,5010401193107,新規,0,2025-09-12,2025-09-12,アップウィンド・コンサルティング株式会社,,株式会社,東京都,港区,北青山１丁目３番１号アールキューブ青山３階,,13,103,1070061,,,,,,,2025-09-12,1,,,,,アップウィンドコンサルティング,0
1110,5010601067969,新規,0,2025-09-12,2025-09-12,楽晋株式会社,,株式会社,東京都,墨田区,千歳３丁目６－５－５０９号室,,13,107,1300025,,,,,,,2025-09-12,1,,,,,ラクシン,0
1120,5011001171485,新規,0,2025-09-12,2025-09-12,ＶＩＶＯＷＡ株式会社,,株式会社,東京都,渋谷区,円山町５番５号Ｎａｖｉ渋谷Ｖ３階,,13,113,1500044,,,,,,,2025-09-12,1,,,,,ヴィヴォワ,0
1121,5011001171733,新規,0,2025-09-12,2025-09-12,株式会社ｎａｎａ　ｌａｂ．,,株式会社,東京都,渋谷区,広尾１丁目２番地１号ヒカリビル４階,,13,113,1500012,,,,,,,2025-09-12,1,,,,,ナナラボ,0
1122,5011001172376,新規,0,2025-09-12,2025-09-12,株式会社山本宣明写真事務所,,株式会社,東京都,目黒区,東が丘１丁目９番５号,,13,110,1520021,,,,,,,2025-09-12,1,,,,,ヤマモトヨシアキシャシンジムショ,0
1123,5011003022364,新規,0,2025-09-12,2025-09-12,合同会社Ａｌｃｈｅｍｙ,,合同会社,東京都,目黒区,目黒本町５丁目２２番１号,,13,110,1520002,,,,,,,2025-09-12,1,,,,,アルケミー,0
1131,5011103016299,新規,0,2025-09-12,2025-09-12,マモナク合同会社,,合同会社,東京都,新宿区,大久保１丁目２番１号東新宿オフィス４１０号,,13,104,1690072,,,,,,,2025-09-12,1,,,,,マモナク,0
1133,5011301030886,新規,0,2025-09-12,2025-09-12,医和堂株式会社,,株式会社,東京都,杉並区,西荻北５丁目１５－３－２０６号,,13,115,1670042,,,,,,,2025-09-12,1,,,,,イワドウ,0
1138,5011501032559,新規,0,2025-09-12,2025-09-12,Ｍｉｙａｂｉ　Ｌｕｘｅ　Ｊａｐａｎ株式会社,,株式会社,東京都,北区,浮間３丁目５－１５ザ・クレストリヴァシス２２４,,13,117,1150051,,,,,,,2025-09-12,1,,,,,ミヤビリュクスジャパン,0
1140,5011503006676,新規,0,2025-09-12,2025-09-12,峰合同会社,,合同会社,東京都,荒川区,東日暮里５丁目５０－５－３Ｆ,,13,118,1160014,,,,,,,2025-09-12,1,,,,,ミネ,0
1143,5011603004836,新規,0,2025-09-12,2025-09-12,合同会社ＫＫエステート,,合同会社,東京都,練馬区,東大泉６丁目３２番１６－３０５号,,13,120,1780063,,,,,,,2025-09-12,1,,,,,ケーケーエステート,0
1146,5011703004380,新規,0,2025-09-12,2025-09-12,Ｌｅｓ　Ｃｏｒｄｅｓ　Ｄｏｕｃｅｓ合同会社,,合同会社,東京都,江戸川区,西小岩５丁目１３－１３－１５９号室,,13,123,1330057,,,,,,,2025-09-12,1,,,,,レコルドドゥース,0
1151,5011803007069,新規,0,2025-09-12,2025-09-12,オフィスクロサワ合同会社,,合同会社,東京都,葛飾区,金町４丁目２２番１８号,,13,122,1250042,,,,,,,2025-09-12,1,,,,,オフィスクロサワ,0
1156,5012801024238,新規,0,2025-09-12,2025-09-12,株式会社清誠,,株式会社,東京都,昭島市,緑町５丁目１３番６号,,13,207,1960004,,,,,,,2025-09-12,1,,,,,キヨマサ,0
1158,5013101009796,新規,0,2025-09-12,2025-09-12,株式会社眞鍋電設,,株式会社,東京都,あきる野市,平沢４７８番地７８,,13,228,1970812,,,,,,,2025-09-12,1,,,,,マナベデンセツ,0
1168,5020001164804,新規,0,2025-09-12,2025-09-12,ＹＵ‐ＷＡ株式会社,,株式会社,神奈川県,川崎市多摩区,菅仙谷１丁目１０番３７－１号,,14,135,2140006,,,,,,,2025-09-12,1,,,,,ユウワ,0
1169,5020001164812,新規,0,2025-09-12,2025-09-12,Ｒｅｔｕｒｎｓ株式会社,,株式会社,神奈川県,横浜市西区,高島２丁目１９番１２号横浜スカイビル２０階,,14,103,2200011,,,,,,,2025-09-12,1,,,,,リターンズ,0
1174,5021001086220,新規,0,2025-09-12,2025-09-12,株式会社クレヤスホールディングス,,株式会社,神奈川県,足柄上郡大井町,金手８番地１５・２Ｆ,,14,362,2580018,,,,,,,2025-09-12,1,,,,,クレヤスホールディングス,0
1184,5030001168382,新規,0,2025-09-12,2025-09-12,株式会社たかせん,,株式会社,埼玉県,さいたま市南区,白幡４丁目１０番１号２０１,,11,108,3360022,,,,,,,2025-09-12,1,,,,,タカセン,0
1185,5030001168606,新規,0,2025-09-12,2025-09-12,ＯＪＨ株式会社,,株式会社,埼玉県,春日部市,大沼３丁目６１番地４,,11,214,3440038,,,,,,,2025-09-12,1,,,,,オージェイエイチ,0
1186,5030001168614,新規,0,2025-09-12,2025-09-12,株式会社美希,,株式会社,埼玉県,所沢市,小手指町２丁目１１番地の２５,,11,208,3591141,,,,,,,2025-09-12,1,,,,,ミキ,0
1194,5030003027586,新規,0,2025-09-12,2025-09-12,合同会社Ｒ,,合同会社,埼玉県,志木市,柏町２丁目１３番２１号,,11,228,3530007,,,,,,,2025-09-12,1,,,,,アール,0
1195,5030003027603,新規,0,2025-09-12,2025-09-12,合同会社ＬＡＷＩＮ,,合同会社,埼玉県,草加市,北谷３丁目２７番２４号ヴィルヌーブ２０１号,,11,221,3400046,,,,,,,2025-09-12,1,,,,,ラウィン,0
1199,5040001140472,新規,0,2025-09-12,2025-09-12,株式会社青羽ミライ,,株式会社,千葉県,山武郡芝山町,香山新田４９番地３さくら第２倉庫２０４Ａ,,12,409,2891601,,,,,,,2025-09-12,1,,,,,アオバミライ,0
1200,5040001140489,新規,0,2025-09-12,2025-09-12,株式会社ファーム高田屋,00140643,株式会社,千葉県,銚子市,野尻町１１２番地の１,,12,202,2880863,,,,,,,2025-09-12,1,,,,,ファームタカダヤ,0
1201,5040003028468,新規,0,2025-09-12,2025-09-12,合同会社マッツ,,合同会社,千葉県,松戸市,河原塚３００－４０,00140642,12,207,2702254,,,,,,,2025-09-12,1,,,,,マッツ,0
1205,5050001057294,新規,0,2025-09-12,2025-09-12,株式会社ＨＴＭ,,株式会社,茨城県,稲敷市,桑山４９９番地,,08,229,3000513,,,,,,,2025-09-12,1,,,,,エイチティーエム,0
1207,5060001038558,新規,0,2025-09-12,2025-09-12,株式会社ジャパン家,,株式会社,栃木県,大田原市,住吉町２丁目８番９号,,09,210,3240057,,,,,,,2025-09-12,1,,,,,ジャパンヤ,0
1209,5060003005738,新規,0,2025-09-12,2025-09-12,合同会社ＭＭＩ・ＥＩＷＡ,,合同会社,栃木県,宇都宮市,不動前２丁目６番７号１０２,,09,201,3200833,,,,,,,2025-09-12,1,,,,,エムエムアイエイワ,0
1211,5070001043342,新規,0,2025-09-12,2025-09-12,株式会社日本除草管理サービス,,株式会社,群馬県,北群馬郡榛東村,大字新井２７６－６,,10,344,3703503,,,,,,,2025-09-12,1,,,,,ニホンジョソウカンリサービス,0
1212,5070001043350,新規,0,2025-09-12,2025-09-12,株式会社ＡｒｃｏＳｔｅｌｌａ,,株式会社,群馬県,高崎市,中居町２丁目５－４高井ハイツ１０２,,10,202,3700852,,,,,,,2025-09-12,1,,,,,アルコステラ,0
1214,5080101025784,新規,0,2025-09-12,2025-09-12,ＴＨＩＲＡＳＡＲＡ　ＪＡＰＡＮ株式会社,,株式会社,静岡県,富士市,大淵３１３６番地５７,,22,210,4170801,,,,,,,2025-09-12,1,,,,,ティラサラジャパン,0
1234,5120001279427,新規,0,2025-09-12,2025-09-12,昌明国際貿易株式会社,,株式会社,大阪府,大阪市西区,九条南４丁目７番５号－５０１,,27,106,5500025,,,,,,,2025-09-12,1,,,,,ショウメイコクサイボウエキ,0
1235,5120001279501,新規,0,2025-09-12,2025-09-12,株式会社クラリティ,,株式会社,大阪府,大阪市中央区,南船場３丁目７－３１甲南ビル５Ｆ,,27,128,5420081,,,,,,,2025-09-12,1,,,,,クラリティ,0
1236,5120001279542,新規,0,2025-09-12,2025-09-12,全邦総合服務株式会社,,株式会社,大阪府,大阪市西成区,山王２丁目１５番１７号融得マンション２２５号,,27,122,5570001,,,,,,,2025-09-12,1,,,,,ゼンボウソウゴウフクム,0
1237,5120001279559,新規,0,2025-09-12,2025-09-12,葉月株式会社,,株式会社,大阪府,大阪市中央区,平野町２丁目５番８号平野町センチュリービル３階,,27,128,5410046,,,,,,,2025-09-12,1,,,,,ハヅキ,0
1238,5120001279848,新規,0,2025-09-12,2025-09-12,株式会社ＣＳＶ住研,,株式会社,大阪府,枚方市,岡本町１番３号,,27,210,5730031,,,,,,,2025-09-12,1,,,,,シーエスブイジュウケン,0
1241,5120003030531,新規,0,2025-09-12,2025-09-12,合同会社ＤＡＴＯ,,合同会社,大阪府,大阪市阿倍野区,文の里１丁目８番１７号ワイエスビル２Ｆ,,27,119,5450004,,,,,,,2025-09-12,1,,,,,ダート,0
1242,5120003030548,新規,0,2025-09-12,2025-09-12,８０８０日本合同会社,,合同会社,大阪府,大阪市旭区,高殿４丁目１９番２３号ＴＩハイツ２０２号室,,27,117,5350031,,,,,,,2025-09-12,1,,,,,ハチマルハチマルニホン,0
1243,5120101072418,新規,0,2025-09-12,2025-09-12,株式会社サントン電気,,株式会社,大阪府,泉南郡熊取町,野田１丁目３－２２,,27,361,5900451,,,,,,,2025-09-12,1,,,,,サントンデンキ,0
1244,5120101072434,新規,0,2025-09-12,2025-09-12,株式会社Ｓｍｉｌｏ,,株式会社,大阪府,泉大津市,我孫子２丁目４番１２号,,27,206,5950031,,,,,,,2025-09-12,1,,,,,スマイロ,0
1247,5120903005855,新規,0,2025-09-12,2025-09-12,合同会社まるまろん,,合同会社,大阪府,吹田市,長野東２９－３６,,27,205,5650816,,,,,,,2025-09-12,1,,,,,マルマロン,0
1260,5140001139901,新規,0,2025-09-12,2025-09-12,株式会社Ｑｕｚｚｉ,,株式会社,兵庫県,伊丹市,西台３丁目６－２０エーベル西台３０３号,,28,207,6640858,,,,,,,2025-09-12,1,,,,,クージ,0
1261,5140001139926,新規,0,2025-09-12,2025-09-12,ＬＬＨＬホールディングス株式会社,,株式会社,兵庫県,伊丹市,昆陽東３丁目４番９号,,28,207,6640886,,,,,,,2025-09-12,1,,,,,エルエルエイチエルホールディングス,0
1268,5170003002303,新規,0,2025-09-12,2025-09-12,合同会社Ｎｅｗ　ｄｏｏｒｓ,,合同会社,和歌山県,和歌山市,福島１５５番地１２,,30,201,6408401,,,,,,,2025-09-12,1,,,,,ニュードアーズ,0
1272,5180001168566,新規,0,2025-09-12,2025-09-12,株式会社ルーセンスモー,,株式会社,愛知県,名古屋市中区,大須３丁目３８－１２,,23,106,4600011,,,,,,,2025-09-12,1,,,,,ルーセンスモー,0
1273,5180001168582,新規,0,2025-09-12,2025-09-12,シーアイラット株式会社,,株式会社,愛知県,名古屋市中村区,名駅４丁目２４番５号,,23,105,4500002,,,,,,,2025-09-12,1,,,,,シーアイラット,0
1274,5180001168599,新規,0,2025-09-12,2025-09-12,Ｍｂ株式会社,,株式会社,愛知県,丹羽郡大口町,御供所１丁目５１０番地,,23,361,4800135,,,,,,,2025-09-12,1,,,,,エムビー,0
1275,5180001168608,新規,0,2025-09-12,2025-09-12,中京蕃地株式会社,,株式会社,愛知県,名古屋市中区,新栄１丁目２７番１０号エステムコート名古屋新栄ＶＩアートテラス３０１号室,00140639,23,106,4600007,,,,,,,2025-09-12,1,,,,,チュウキョウバンチ,0
1276,5180001168616,新規,0,2025-09-12,2025-09-12,株式会社Ａｌｉｓｗｅｌｌ　Ｃａｐｉｔａｌ　Ｐａｒｔｎｅｒｓ,,株式会社,愛知県,名古屋市中村区,名駅３丁目４‐１０アルティメイト名駅１ｓｔ２階,,23,105,4500002,,,,,,,2025-09-12,1,,,,,アリズウェルキャピタルパートナーズ,0
1277,5180003028974,新規,0,2025-09-12,2025-09-12,合同会社レガートパートナーズ,,合同会社,愛知県,名古屋市中区,上前津１丁目１４－１６プレサンス上前津グレース６０３,,23,106,4600013,,,,,,,2025-09-12,1,,,,,レガートパートナーズ,0
1278,5180003029031,新規,0,2025-09-12,2025-09-12,合同会社ｋｏｓｅｌｉｆｅ,,合同会社,愛知県,名古屋市守山区,川西２丁目２１０２番地,,23,113,4630080,,,,,,,2025-09-12,1,,,,,コーシェライフ,0
1279,5180005021218,新規,0,2025-09-12,2025-09-12,医療法人ＭＭＧ,,その他の設立登記法人,愛知県,名古屋市中区,新栄２丁目２番１号イノフィスビル２階４号室,,23,106,4600007,,,,,,,2025-09-12,1,,,,,エムエムジー,0
1280,5180303006721,新規,0,2025-09-12,2025-09-12,合同会社Ｍ・Ａ・ＴＲＡＤＩＮＧ,,合同会社,愛知県,岡崎市,田口町字深田６５番地,,23,202,4443172,,,,,,,2025-09-12,1,,,,,エムエートレーディング,0
1292,5230001021083,新規,0,2025-09-12,2025-09-12,株式会社Ｕ＆Ｋファーム,,株式会社,富山県,富山市,婦中町下坂倉１２１番地,,16,201,9392715,,,,,,,2025-09-12,1,,,,,ユーアンドケーファーム,0
1294,5260001040551,新規,0,2025-09-12,2025-09-12,ＪＯＮＡＮホールディングス株式会社,,株式会社,岡山県,高梁市,栄町１９０４番地,,33,209,7160035,,,,,,,2025-09-12,1,,,,,ジョーナンホールディングス,0
1299,5260003005338,新規,0,2025-09-12,2025-09-12,合同会社Ｂ．Ａ　ＴＲＡＤＩＮＧ,,合同会社,岡山県,岡山市中区,浜１丁目６番２２号メゾン司Ａ３０５,,33,102,7038256,,,,,,,2025-09-12,1,,,,,ビーエートレーディング,0
1306,5290001111333,新規,0,2025-09-12,2025-09-12,株式会社コンコース,,株式会社,福岡県,筑紫野市,大字立明寺３５０番地３,,40,217,8180042,,,,,,,2025-09-12,1,,,,,コンコース,0
1309,5290003017454,新規,0,2025-09-12,2025-09-12,ファンカルティヴェイターズ合同会社,,合同会社,福岡県,福岡市博多区,博多駅前１丁目２３番２号５Ｆ－Ｂ,,40,132,8120011,,,,,,,2025-09-12,1,,,,,ファンカルティヴェイターズ,0
1313,5320001021330,新規,0,2025-09-12,2025-09-12,株式会社Ｇｒｅｅｎ,,株式会社,大分県,中津市,大字三光臼木７９１番地１,,44,203,8710099,,,,,,,2025-09-12,1,,,,,グリーン,0
1314,5330001033564,新規,0,2025-09-12,2025-09-12,株式会社ＳａｉＺｅｎ,,株式会社,熊本県,阿蘇郡産山村,大字大利６３０番地,,43,425,8692702,,,,,,,2025-09-12,1,,,,,サイゼン,0
1315,5330001033572,新規,0,2025-09-12,2025-09-12,株式会社ｓｏｍ‐ｓｏｍ,,株式会社,熊本県,熊本市中央区,京町２丁目７－１７－２０３,,43,101,8600078,,,,,,,2025-09-12,1,,,,,ソムソム,0
1316,5330003011213,新規,0,2025-09-12,2025-09-12,合同会社ＮＢ,,合同会社,熊本県,熊本市中央区,新市街１番３６－２０１号,,43,101,8600803,,,,,,,2025-09-12,1,,,,,エヌビー,0
1319,5350001019727,新規,0,2025-09-12,2025-09-12,株式会社ＡＨＭＡＤ　ＭＯＴＯＲＳ,,株式会社,宮崎県,都城市,高崎町縄瀬３９７番地,,45,202,8894503,,,,,,,2025-09-12,1,,,,,アフマドモータース,0
1320,5350003005023,新規,0,2025-09-12,2025-09-12,合同会社Ｂｅｅｔｌｅ,,合同会社,宮崎県,延岡市,瀬之口町２丁目２番地７,,45,203,8820045,,,,,,,2025-09-12,1,,,,,ビートル,0
1321,5360003015228,新規,0,2025-09-12,2025-09-12,合同会社なり壱,,合同会社,沖縄県,名護市,字世冨慶４４５番地７,,47,209,9050022,,,,,,,2025-09-12,1,,,,,ナリイチ,0
1332,5390001018106,新規,0,2025-09-12,2025-09-12,株式会社ＫＰＫ　Ｃｏｒｐｏｒａｔｉｏｎ,,株式会社,山形県,東田川郡庄内町,廻館字下川前１２３番地４,,06,428,9997715,,,,,,,2025-09-12,1,,,,,,0
1347,5430001095165,新規,0,2025-09-12,2025-09-12,ＮＩＳＥＫＯ縁株式会社,,株式会社,北海道,虻田郡倶知安町,北三条東８丁目２５番地５羊蹄Ｍビレッジ,,01,400,0440003,,,,,,,2025-09-12,1,,,,,ニセコエン,0
1351,5430003018066,新規,0,2025-09-12,2025-09-12,合同会社Ｂｅ　Ｗｉｌｌ,,合同会社,北海道,札幌市中央区,南二条西５丁目３１－１ＲＭＢｌｄ．７０１,,01,101,0600062,,,,,,,2025-09-12,1,,,,,ビーウィル,0
1352,5430005015292,新規,0,2025-09-12,2025-09-12,特定非営利活動法人ＤＩＧ,,その他の設立登記法人,北海道,札幌市北区,北二十条西４丁目２番１２号レンセイカイビル１階,,01,102,0010020,,,,,,,2025-09-12,1,,,,,ディーアイジー,0
1354,5460003001069,新規,0,2025-09-12,2025-09-12,ＡＮＭ　ＴＲＡＤＩＮＧ合同会社,,合同会社,北海道,釧路市,大楽毛４丁目３番１４号ハイツデシベル１０１号室,,01,206,0840917,,,,,,,2025-09-12,1,,,,,エーエヌエムトレーディング,0
1356,5470005006651,新規,0,2025-09-12,2025-09-12,特定非営利活動法人瀬戸内活性化プロジェクト・ＫＹＯＤＯ,,その他の設立登記法人,香川県,高松市,栗林町１丁目１２番２７号,,37,201,7600073,,,,,,,2025-09-12,1,,,,,セトウチカッセイカプロジェクトキョウド,0
1361,5490005007004,新規,0,2025-09-12,2025-09-12,特定非営利活動法人自然循環ｎｅｔ花咲か家,,その他の設立登記法人,高知県,香美市,物部町大栃２６１７番地,,39,212,7814401,,,,,,,2025-09-12,1,,,,,シゼンジュンカンネットハナサカケ,0
1362,5700150132170,新規,0,2025-09-12,2025-09-12,新郷市牧野区雲創麦客商貿有限公司,,外国会社等,,,,,,,,河南省新郷市牧野区平原路６８４号華瑞逸品紫晶２号楼１単元１７０４室,,,,,,2025-09-12,1,,,,,シンゴウシボクノクウンソウバッキャクショウボウユウゲンコウシ,0
1376,6010001258218,新規,0,2025-09-12,2025-09-12,一級建築士事務所ＨＯＭプランニング株式会社,,株式会社,東京都,中央区,日本橋茅場町１丁目９番２号稲村・北辰ビル４Ｆ－１１,,13,102,1030025,,,,,,,2025-09-12,1,,,,,イッキュウケンチクシジムショホムプランニング,0
1377,6010001258291,新規,0,2025-09-12,2025-09-12,株式会社Ｓｅｋａｒｉａ,,株式会社,東京都,千代田区,丸の内２丁目７番２号ＪＰタワー１４階,,13,101,1000005,,,,,,,2025-09-12,1,,,,,セカリア,0
1378,6010001258457,新規,0,2025-09-12,2025-09-12,木葵ヘルス株式会社,,株式会社,東京都,中央区,銀座１丁目２２番１１号銀座大竹ビジデンス２Ｆ,,13,102,1040061,,,,,,,2025-09-12,1,,,,,キアオイヘルス,0
1381,6010003048732,新規,0,2025-09-12,2025-09-12,ジェイ・シー・エイチ・ツー・ホールディング合同会社,,合同会社,東京都,千代田区,丸の内１丁目４番１号東京共同会計事務所内,,13,101,1000005,,,,,,,2025-09-12,1,,,,,ジェイシーエイチツーホールディング,0
1390,6010401192850,新規,0,2025-09-12,2025-09-12,株式会社ＬｏｔｕｓＬｉｎｋ,,株式会社,東京都,港区,六本木３丁目１６番１２号六本木ＫＳビル５Ｆ,,13,103,1060032,,,,,,,2025-09-12,1,,,,,ロータスリンク,0
1391,6010401192875,新規,0,2025-09-12,2025-09-12,株式会社防災アプローチ,,株式会社,東京都,港区,赤坂６丁目１０番３３－２０４号,,13,103,1070052,,,,,,,2025-09-12,1,,,,,ボウサイアプローチ,0
1392,6010401192982,新規,0,2025-09-12,2025-09-12,株式会社Ａｃｔｉｏｎａｒｙ,,株式会社,東京都,港区,六本木３丁目１６番１２号六本木ＫＳビル,,13,103,1060032,,,,,,,2025-09-12,1,,,,,アクショナリー,0
1393,6010401193031,新規,0,2025-09-12,2025-09-12,株式会社ＰＡＬＡＣＥ,,株式会社,東京都,港区,新橋２丁目５番６号,,13,103,1050004,,,,,,,2025-09-12,1,,,,,パレス,0
1394,6010401193064,新規,0,2025-09-12,2025-09-12,株式会社ＭＫ,,株式会社,東京都,港区,西麻布１丁目１２番８号メイステージ西麻布ＩＩ３０１,00140645,13,103,1060031,,,,,,,2025-09-12,1,,,,,エムケー,0
1395,6010403036015,新規,0,2025-09-12,2025-09-12,リバティー・パートナーズ合同会社,,合同会社,東京都,港区,赤坂７丁目５ー３４,,13,103,1070052,,,,,,,2025-09-12,1,,,,,リバティーパートナーズ,0
1396,6010403036023,新規,0,2025-09-12,2025-09-12,合同会社ＲＩＳＥ　ＷＯＲＬＤ,,合同会社,東京都,港区,北青山１丁目３番１号アールキューブ青山３階,,13,103,1070061,,,,,,,2025-09-12,1,,,,,ライズワールド,0
1410,6011001171963,新規,0,2025-09-12,2025-09-12,株式会社Ｌｏｙａｌｔｙ,,株式会社,東京都,渋谷区,桜丘町２３番１７号シティコート桜丘４０４,,13,113,1500031,,,,,,,2025-09-12,1,,,,,ロイヤリティ,0
1411,6011001172326,新規,0,2025-09-12,2025-09-12,株式会社ＣＢ,,株式会社,東京都,渋谷区,恵比寿南３丁目１番１号恵比寿グリーングラス６階,,13,113,1500022,,,,,,,2025-09-12,1,,,,,シービー,0
1416,6011003022553,新規,0,2025-09-12,2025-09-12,合同会社オフィスハル,,合同会社,東京都,渋谷区,広尾１丁目２番地１号ヒカリビル４階,,13,113,1500012,,,,,,,2025-09-12,1,,,,,オフィスハル,0
1424,6011101112982,新規,0,2025-09-12,2025-09-12,株式会社ＯＧＴ人才,,株式会社,東京都,新宿区,西新宿３丁目１番３号ＭＩＴＳＵＷＡビル１０階,,13,104,1600023,,,,,,,2025-09-12,1,,,,,オージーティージンザイ,0
1426,6011201026637,新規,0,2025-09-12,2025-09-12,ＳＴＮホールディングス株式会社,,株式会社,東京都,中野区,中野３丁目２６番４号,,13,114,1640001,,,,,,,2025-09-12,1,,,,,エスティーエヌホールディングス,0
1438,6011503006683,新規,0,2025-09-12,2025-09-12,合同会社ビーチウォーカーズコレクション,,合同会社,東京都,北区,赤羽１丁目７番９号赤羽第一葉山ビル４Ｆ,,13,117,1150045,,,,,,,2025-09-12,1,,,,,ビーチウォーカーズコレクション,0
1443,6011801046687,新規,0,2025-09-12,2025-09-12,矢岡ラボ株式会社,,株式会社,東京都,足立区,千住旭町１４番１０号,,13,121,1200026,,,,,,,2025-09-12,1,,,,,ヤオカラボ,0
1444,6011801046704,新規,0,2025-09-12,2025-09-12,Ｔｉｎｙ　Ｓｅｅｄ株式会社,,株式会社,東京都,足立区,西竹の塚１丁目７－１１－１０２,,13,121,1210822,,,,,,,2025-09-12,1,,,,,タイニーシード,0
1445,6011801046729,新規,0,2025-09-12,2025-09-12,株式会社Ｌｕｍｉｎｏｕｓ,,株式会社,東京都,葛飾区,東四つ木２丁目５番１４－５０５号,,13,122,1240014,,,,,,,2025-09-12,1,,,,,ルミナス,0
1447,6012301014531,新規,0,2025-09-12,2025-09-12,株式会社コアークス,,株式会社,東京都,町田市,南町田１丁目２５番１５号,,13,209,1940005,,,,,,,2025-09-12,1,,,,,コアークス,0
1448,6012401043595,新規,0,2025-09-12,2025-09-12,株式会社ビルドアップ,,株式会社,東京都,小金井市,本町５丁目２８番４号,,13,210,1840004,,,,,,,2025-09-12,1,,,,,ビルドアップ,0
1451,6012803003866,新規,0,2025-09-12,2025-09-12,ＡａｙａｎＮＰＪ合同会社,,合同会社,東京都,昭島市,東町４丁目８番４号森脇東町店舗Ａ号室,,13,207,1960033,,,,,,,2025-09-12,1,,,,,,0
1462,6020001164720,新規,0,2025-09-12,2025-09-12,株式会社ＢＳ　ＩＮＦＩＮＩＴＹ,,株式会社,神奈川県,横浜市中区,尾上町４丁目５７番地,,14,104,2310015,,,,,,,2025-09-12,1,,,,,ビーエスインフィニティ,0
1463,6020001164745,新規,0,2025-09-12,2025-09-12,株式会社ＭＩＤ,,株式会社,神奈川県,横浜市港南区,上永谷４丁目１１番３号,,14,111,2330012,,,,,,,2025-09-12,1,,,,,ミッド,0
1464,6020001164828,新規,0,2025-09-12,2025-09-12,株式会社龍鋼,,株式会社,神奈川県,川崎市川崎区,大島３丁目１７番２ＫＡＷＡＳＯアパートメント２０１号,,14,131,2100834,,,,,,,2025-09-12,1,,,,,リュウコウ,0
1479,6030001168456,新規,0,2025-09-12,2025-09-12,株式会社クニヨシ,,株式会社,埼玉県,比企郡川島町,大字吉原１８６番地１,,11,346,3500138,,,,,,,2025-09-12,1,,,,,クニヨシ,0
1480,6030001168613,新規,0,2025-09-12,2025-09-12,株式会社心ハウス,,株式会社,埼玉県,東松山市,和泉町１番１１号シャルマンハイツイズミＡ２０２号,,11,212,3550026,,,,,,,2025-09-12,1,,,,,ココロハウス,0
1481,6030001168662,新規,0,2025-09-12,2025-09-12,Ａｎａｓ　Ｓａｑｉｂ　Ｉｎｔｅｒｎａｔｉｏｎａｌ株式会社,,株式会社,埼玉県,春日部市,赤沼７４７番地４－２０２,,11,214,3440015,,,,,,,2025-09-12,1,,,,,アナスサキブインターナショナル,0
1482,6030001168670,新規,0,2025-09-12,2025-09-12,ブルムン株式会社,,株式会社,埼玉県,草加市,西町１２５９番地１３,,11,221,3400035,,,,,,,2025-09-12,1,,,,,ブルムン,0
1483,6030001168679,新規,0,2025-09-12,2025-09-12,上村工業株式会社,,株式会社,埼玉県,草加市,瀬崎６丁目２２番１２号Ｂ１０５,,11,221,3400022,,,,,,,2025-09-12,1,,,,,カミムラコウギョウ,0
1484,6030003027544,新規,0,2025-09-12,2025-09-12,合同会社カモシカ企画,,合同会社,埼玉県,飯能市,本町１－９,,11,209,3570032,,,,,,,2025-09-12,1,,,,,カモシカキカク,0
1485,6030003027552,新規,0,2025-09-12,2025-09-12,合同会社ＳＴＭ,,合同会社,埼玉県,入間市,豊岡１丁目５番３９号長州ビル３ＦＬＩＢオフィス内Ｂ号室,,11,225,3580003,,,,,,,2025-09-12,1,,,,,エスティーエム,0
1486,6030003027577,新規,0,2025-09-12,2025-09-12,ＮＡＭＩ国際合同会社,,合同会社,埼玉県,さいたま市緑区,太田窪１丁目２番１２－１,,11,109,3360936,,,,,,,2025-09-12,1,,,,,ナミコクサイ,0
1487,6030003027619,新規,0,2025-09-12,2025-09-12,合同会社コネクトアット,,合同会社,埼玉県,志木市,上宗岡４丁目１－８,,11,228,3530001,,,,,,,2025-09-12,1,,,,,コネクトアット,0
1488,6030003027627,新規,0,2025-09-12,2025-09-12,ＪＩＳＥＫＩ　ＥＮＴＥＲＰＲＩＳＥＳ合同会社,,合同会社,埼玉県,本庄市,児玉町金屋５８８番地１,,11,211,3670216,,,,,,,2025-09-12,1,,,,,ジセキエンタープライズ,0
1492,6040001140430,新規,0,2025-09-12,2025-09-12,株式会社ＪＩＪＩ,,株式会社,千葉県,柏市,中央２丁目７番８号,,12,217,2770023,,,,,,,2025-09-12,1,,,,,ジジ,0
1493,6040001140447,新規,0,2025-09-12,2025-09-12,株式会社ＦＢＦ,,株式会社,千葉県,千葉市中央区,新千葉１丁目７番２号,,12,101,2600031,,,,,,,2025-09-12,1,,,,,エフビーエフ,0
1494,6040001140463,新規,0,2025-09-12,2025-09-12,株式会社アドバンス,,株式会社,千葉県,千葉市中央区,富士見２丁目７－９富士見ビル６０９号,,12,101,2600015,,,,,,,2025-09-12,1,,,,,アドバンス,0
1495,6040001140471,新規,0,2025-09-12,2025-09-12,株式会社ＭＭ,,株式会社,千葉県,柏市,高柳４７１－１１,,12,217,2770941,,,,,,,2025-09-12,1,,,,,エムエム,0
1498,6040003028450,新規,0,2025-09-12,2025-09-12,合同会社アコーディア,,合同会社,千葉県,船橋市,馬込町９３１番地２７,,12,204,2730851,,,,,,,2025-09-12,1,,,,,アコーディア,0
1499,6040003028459,新規,0,2025-09-12,2025-09-12,マグプラス合同会社,,合同会社,千葉県,松戸市,栄町６丁目４４５番地イーストコートＳＫ４０５号,,12,207,2710062,,,,,,,2025-09-12,1,,,,,マグプラス,0
1500,6040003028467,新規,0,2025-09-12,2025-09-12,合同会社ＨｎＧ,,合同会社,千葉県,野田市,花井２４８番地の１０,,12,208,2780026,,,,,,,2025-09-12,1,,,,,エイチアンドジー,0
1501,6040003028475,新規,0,2025-09-12,2025-09-12,合同会社ミグラーレ,,合同会社,千葉県,流山市,木１丁目２６番地の７,,12,220,2700162,,,,,,,2025-09-12,1,,,,,ミグラーレ,0
1507,6070001043333,新規,0,2025-09-12,2025-09-12,株式会社スキルゲート,,株式会社,群馬県,高崎市,飯塚町３６７番地１オリヴィエビル２階２０１号室,,10,202,3700069,,,,,,,2025-09-12,1,,,,,スキルゲート,0
1508,6070001043341,新規,0,2025-09-12,2025-09-12,株式会社Ｆｒｏｍ　Ｋ,,株式会社,群馬県,高崎市,問屋町西１丁目５番地３,,10,202,3700007,,,,,,,2025-09-12,1,,,,,フロムケー,0
1530,6120001279401,新規,0,2025-09-12,2025-09-12,礼愛フィーチャー研究所株式会社,,株式会社,大阪府,大阪市淀川区,三津屋北１丁目６－７－３０１号室,,27,123,5320032,,,,,,,2025-09-12,1,,,,,レイアイフィーチャーケンキュウショ,0
1531,6120001279418,新規,0,2025-09-12,2025-09-12,株式会社プロワークセキュリティ,,株式会社,大阪府,大阪市北区,豊崎５丁目３番２３－８０１号室,,27,127,5310072,,,,,,,2025-09-12,1,,,,,プロワークセキュリティ,0
1532,6120001279426,新規,0,2025-09-12,2025-09-12,信和工業株式会社,,株式会社,大阪府,大阪市中央区,内本町２丁目２－１４ＧＳハイム内本町３０６室,,27,128,5400026,,,,,,,2025-09-12,1,,,,,シンワコウギョウ,0
1533,6120001279467,新規,0,2025-09-12,2025-09-12,大阪サイン株式会社,,株式会社,大阪府,大阪市平野区,長吉川辺３丁目１９番１３号,,27,126,5470014,,,,,,,2025-09-12,1,,,,,オオサカサイン,0
1534,6120001279475,新規,0,2025-09-12,2025-09-12,徳致信商事株式会社,,株式会社,大阪府,大阪市東住吉区,今川８丁目５－３４常磐ビル２０３号室,,27,121,5460003,,,,,,,2025-09-12,1,,,,,トクチシンショウジ,0
1535,6120001279509,新規,0,2025-09-12,2025-09-12,株式会社ＥＳＴＩＶＡＮＴ,,株式会社,大阪府,大阪市福島区,福島７丁目１４番１９号,,27,103,5530003,,,,,,,2025-09-12,1,,,,,エスティバン,0
1536,6120001279541,新規,0,2025-09-12,2025-09-12,ＡＭＥ２９株式会社,,株式会社,大阪府,大阪市浪速区,戎本町１丁目７－２５広田ビル２０１号,,27,111,5560013,,,,,,,2025-09-12,1,,,,,エイミニジュウキュウ,0
1537,6120001279566,新規,0,2025-09-12,2025-09-12,龍吉株式会社,,株式会社,大阪府,大阪市西区,立売堀４丁目３番１６号５０９室,,27,106,5500012,,,,,,,2025-09-12,1,,,,,リュウキツ,0
1538,6120001279599,新規,0,2025-09-12,2025-09-12,株式会社ＳＴＯＮＥ不動産,,株式会社,大阪府,大阪市港区,市岡元町３丁目１３－５ウエストエリアビル４Ｆ,,27,107,5520002,,,,,,,2025-09-12,1,,,,,ストーンフドウサン,0
1539,6120001279681,新規,0,2025-09-12,2025-09-12,ＨＡＰＸ株式会社,,株式会社,大阪府,大阪市都島区,片町２丁目１番３０－６０２号,,27,102,5340025,,,,,,,2025-09-12,1,,,,,ハピックス,0
1540,6120001279707,新規,0,2025-09-12,2025-09-12,株式会社ＯＫＵＰＲＯ　Ｃｒｅａｔｉｖｅ,,株式会社,大阪府,大阪市西区,土佐堀１丁目４番６号,,27,106,5500001,,,,,,,2025-09-12,1,,,,,オクプロクリエイティブ,0
1546,6120003030547,新規,0,2025-09-12,2025-09-12,合同会社ＴＭダイレクト,,合同会社,大阪府,大阪市淀川区,塚本２丁目１２番５－２０４号,00140635,27,123,5320026,,,,,,,2025-09-12,1,,,,,ティーエムダイレクト,0
1547,6120003030662,新規,0,2025-09-12,2025-09-12,ＴＹ　Ａｖｅｎｕｅ合同会社,,合同会社,大阪府,大阪市北区,梅田１丁目２番２号,,27,127,5300001,,,,,,,2025-09-12,1,,,,,ティーワイアベニュー,0
1551,6120101072417,新規,0,2025-09-12,2025-09-12,株式会社Ａｔａｃａｍａ,,株式会社,大阪府,堺市南区,三原台１丁８番４号,,27,145,5900111,,,,,,,2025-09-12,1,,,,,アタカマ,0
1552,6120101072425,新規,0,2025-09-12,2025-09-12,西村内装株式会社,,株式会社,大阪府,和泉市,和気町１丁目２７番１０－１号,,27,219,5940073,,,,,,,2025-09-12,1,,,,,ニシムラナイソウ,0
1554,6120901051446,新規,0,2025-09-12,2025-09-12,株式会社オガタ経営,,株式会社,大阪府,豊中市,新千里東町１丁目４番１号阪急千里中央ビル８階,,27,203,5600082,,,,,,,2025-09-12,1,,,,,オガタケイエイ,0
1562,6130001080543,新規,0,2025-09-12,2025-09-12,百朗株式会社,,株式会社,京都府,京都市山科区,御陵原西町１０番地９－２０１号室,,26,110,6078424,,,,,,,2025-09-12,1,,,,,ヒャクラン,0
1563,6130001080551,新規,0,2025-09-12,2025-09-12,株式会社グローハウジング,,株式会社,京都府,京都市下京区,大宮通四条下る四条大宮町２４番地新三虎ビル３階Ｃ－２号室,,26,106,6008389,,,,,,,2025-09-12,1,,,,,グローハウジング,0
1564,6130001080576,新規,0,2025-09-12,2025-09-12,聆宇株式会社,,株式会社,京都府,京都市中京区,西ノ京車坂町５番５号,,26,104,6048405,,,,,,,2025-09-12,1,,,,,レイウ,0
1568,6130003010754,新規,0,2025-09-12,2025-09-12,Ｏｔｅｌｉｅｒ合同会社,,合同会社,京都府,京都市下京区,鶏鉾町４９３ムーンバットビル,,26,106,6008491,,,,,,,2025-09-12,1,,,,,オトリエール,0
1584,6180001168581,新規,0,2025-09-12,2025-09-12,株式会社スーツ兄弟,,株式会社,愛知県,名古屋市千種区,今池５丁目２０番３号ＰＵＬＣＨＲＡＩＭＡＩＫＥ２Ｆ,,23,101,4640850,,,,,,,2025-09-12,1,,,,,スーツキョウダイ,0
1585,6180001168598,新規,0,2025-09-12,2025-09-12,株式会社潤豊,,株式会社,愛知県,名古屋市中村区,高道町３丁目３番１５号メルベーユ１０３号室,,23,105,4530037,,,,,,,2025-09-12,1,,,,,ジュンホウ,0
1586,6180001168607,新規,0,2025-09-12,2025-09-12,株式会社ＯＮＥ,,株式会社,愛知県,名古屋市中区,新栄２丁目１３番２２号（エスリード新栄デュオ３０２号）,,23,106,4600007,,,,,,,2025-09-12,1,,,,,ワン,0
1587,6180001168615,新規,0,2025-09-12,2025-09-12,株式会社ＬＡＣ　ＨＯＮＧ,,株式会社,愛知県,名古屋市南区,元塩町１丁目９番地の７・１Ｆ,,23,112,4570823,,,,,,,2025-09-12,1,,,,,ラックホン,0
1590,6180002094091,新規,0,2025-09-12,2025-09-12,有限会社桜井商店,,有限会社,愛知県,江南市,慈光堂町北２１４番,,23,217,4838401,,,,,,,2025-09-12,1,,,,,サクライショウテン,0
1592,6180003029014,新規,0,2025-09-12,2025-09-12,ＮＳ合同会社,,合同会社,愛知県,名古屋市昭和区,円上町２７－２１メゾンニッケイ１Ｅ,,23,107,4660054,,,,,,,2025-09-12,1,,,,,エヌエス,0
1593,6180005021217,新規,0,2025-09-12,2025-09-12,一般社団法人Ｔｈｉｎｋｓ,,その他の設立登記法人,愛知県,名古屋市千種区,堀割町２丁目１０番地,,23,101,4640065,,,,,,,2025-09-12,1,,,,,シンクス,0
1594,6180301040201,新規,0,2025-09-12,2025-09-12,株式会社ｕｍａｍｉ　ｗｏｒｋｓ,,株式会社,愛知県,岡崎市,島坂町字郷東１８番地１,,23,202,4440937,,,,,,,2025-09-12,1,,,,,ウマミワークス,0
1604,6230001021074,新規,0,2025-09-12,2025-09-12,株式会社ＰｉｘＭｉｃｈｅｌａｎｇｅｌｏ,,株式会社,富山県,富山市,水橋畠等２９５,,16,201,9393521,,,,,,,2025-09-12,1,,,,,ピクスミケランジェロ,0
1605,6230001021082,新規,0,2025-09-12,2025-09-12,株式会社マリスグループ,,株式会社,富山県,射水市,鷲塚２５５番地１フロムワンビル鷲塚２階,,16,211,9390305,,,,,,,2025-09-12,1,,,,,マリスグループ,0
1611,6250003003812,新規,0,2025-09-12,2025-09-12,合同会社ＡＰＥＸ,,合同会社,山口県,宇部市,中央町１丁目１０番１８号ペガサスビル１Ｆ　Ｎо１,,35,202,7550045,,,,,,,2025-09-12,1,,,,,アペックス,0
1620,6290001111497,新規,0,2025-09-12,2025-09-12,株式会社Ｓｋｙｆａｒｏ,,株式会社,福岡県,福岡市東区,千早１丁目２９番１２号ピナクル千早２０１号室,,40,131,8130044,,,,,,,2025-09-12,1,,,,,スカイファロ,0
1627,6330001033571,新規,0,2025-09-12,2025-09-12,九田株式会社,,株式会社,熊本県,菊池郡菊陽町,大字原水字向原９６９番１１１,,43,404,8691102,,,,,,,2025-09-12,1,,,,,クタ,0
1632,6370001053054,新規,0,2025-09-12,2025-09-12,Ｂａｎｔｏ株式会社,,株式会社,宮城県,仙台市太白区,大野田３丁目４番３８号,,04,104,9820014,,,,,,,2025-09-12,1,,,,,バントー,0
1637,6420001019272,新規,0,2025-09-12,2025-09-12,株式会社慈音,,株式会社,青森県,八戸市,吹上３丁目５番３号,,02,203,0310003,,,,,,,2025-09-12,1,,,,,ジオン,0
1642,6430001095197,新規,0,2025-09-12,2025-09-12,株式会社新川創建,,株式会社,北海道,苫小牧市,新富町１丁目４番１１号,,01,213,0530805,,,,,,,2025-09-12,1,,,,,シンカワソウケン,0
1646,6430003018008,新規,0,2025-09-12,2025-09-12,ＦＵＲＮＩＳＨ　ＭＡＳＴＥＲ合同会社,,合同会社,北海道,千歳市,祝梅４８４－２８－１０２,,01,224,0660006,,,,,,,2025-09-12,1,,,,,ファーニッシュマースター,0
1647,6430003018115,新規,0,2025-09-12,2025-09-12,合同会社ＭＩＲＡＩ　ＦＯＲＧＥ,,合同会社,北海道,苫小牧市,拓勇西町５丁目９番２４号,,01,213,0591302,,,,,,,2025-09-12,1,,,,,ミライフォージ,0
1648,6450001014733,新規,0,2025-09-12,2025-09-12,株式会社ドメーヌ満吉,,株式会社,北海道,上川郡比布町,北９線十四号,,01,455,0780329,,,,,,,2025-09-12,1,,,,,ドメーヌマンキチ,0
1652,6470005006650,新規,0,2025-09-12,2025-09-12,一般社団法人香川県農業土木設計業協会,,その他の設立登記法人,香川県,高松市,上林町５１０番地１,,37,201,7610302,,,,,,,2025-09-12,1,,,,,カガワケンノウギョウドボクセッケイギョウキョウカイ,0
1671,7010001258431,新規,0,2025-09-12,2025-09-12,アジア・ラゲージホールディングス株式会社,,株式会社,東京都,千代田区,神田練塀町６８番地ムラタヤビル,,13,101,1010022,,,,,,,2025-09-12,1,,,,,アジアラゲージホールディングス,0
1672,7010001258480,新規,0,2025-09-12,2025-09-12,康正堂株式会社,,株式会社,東京都,千代田区,神田佐久間町３丁目２８星野ビル４Ｆ２１号室,,13,101,1010025,,,,,,,2025-09-12,1,,,,,コウセイドウ,0
1680,7010003048698,新規,0,2025-09-12,2025-09-12,合同会社森春臣事務所,,合同会社,東京都,千代田区,内神田２丁目９番１３号オールビル５階,,13,101,1010047,,,,,,,2025-09-12,1,,,,,モリハルオミジムショ,0
1681,7010005040661,新規,0,2025-09-12,2025-09-12,一般社団法人Ｔｏｔｓｕ　Ｂｉｚ,,その他の設立登記法人,東京都,中央区,日本橋１丁目４番１号日本橋一丁目ビルディング,,13,102,1030027,,,,,,,2025-09-12,1,,,,,トウツウビズ,0
1687,7010401192841,新規,0,2025-09-12,2025-09-12,株式会社ＭＡＤＯＫＡ,,株式会社,東京都,港区,新橋４丁目２１番８号,,13,103,1050004,,,,,,,2025-09-12,1,,,,,マドカ,0
1688,7010401192916,新規,0,2025-09-12,2025-09-12,株式会社ｄｉｖｅ,,株式会社,東京都,港区,北青山１丁目３番３号三橋ビル３階,,13,103,1070061,,,,,,,2025-09-12,1,,,,,ダイブ,0
1689,7010401192981,新規,0,2025-09-12,2025-09-12,南山キャピタル株式会社,,株式会社,東京都,港区,南麻布５丁目１番２号クラウディアビル２Ｆ,,13,103,1060047,,,,,,,2025-09-12,1,,,,,ナンザンキャピタル,0
1690,7010401193030,新規,0,2025-09-12,2025-09-12,Ｓｙｎｔｅｃｈ株式会社,,株式会社,東京都,港区,三田３丁目１番１号,,13,103,1080073,,,,,,,2025-09-12,1,,,,,シンテック,0
1691,7010403035998,新規,0,2025-09-12,2025-09-12,ＡＭパートナーズ合同会社,,合同会社,東京都,港区,北青山１丁目３番１号アールキューブ青山３階,,13,103,1070061,,,,,,,2025-09-12,1,,,,,エーエムパートナーズ,0
1692,7010405024743,新規,0,2025-09-12,2025-09-12,一般財団法人シロ財団,,その他の設立登記法人,東京都,港区,北青山３丁目６番７号青山パラシオタワー８Ｆ,,13,103,1070061,,,,,,,2025-09-12,1,,,,,シロザイダン,0
1693,7010405024768,新規,0,2025-09-12,2025-09-12,一般社団法人水納島リゾート,,その他の設立登記法人,東京都,港区,西新橋１丁目２番９号メンターキャピタル税理士法人内,,13,103,1050003,,,,,,,2025-09-12,1,,,,,ミンナジマリゾート,0
1702,7010701048272,新規,0,2025-09-12,2025-09-12,株式会社アイスレント,,株式会社,東京都,品川区,北品川１丁目１６番８号,,13,109,1400001,,,,,,,2025-09-12,1,,,,,アイスレント,0
1703,7010701048289,新規,0,2025-09-12,2025-09-12,Ａｓａｈｉ　Ｕｎｉｔｙ株式会社,,株式会社,東京都,品川区,上大崎３丁目１２番２３号ヒルトップ上大崎２０３,,13,109,1410021,,,,,,,2025-09-12,1,,,,,アサヒユニティ,0
1704,7010701048306,新規,0,2025-09-12,2025-09-12,株式会社ＩＲＯＡ,,株式会社,東京都,品川区,北品川５丁目５番１５号,,13,109,1410001,,,,,,,2025-09-12,1,,,,,イロア,0
1705,7010703007912,新規,0,2025-09-12,2025-09-12,モビリス合同会社,,合同会社,東京都,品川区,上大崎３丁目１番１号目黒セントラルスクエア１５階,,13,109,1410021,,,,,,,2025-09-12,1,,,,,モビリス,0
1711,7010903010261,新規,0,2025-09-12,2025-09-12,合同会社フルリ,,合同会社,東京都,世田谷区,赤堤４丁目４２番１９ー３０１号,,13,112,1560044,,,,,,,2025-09-12,1,,,,,フルリ,0
1717,7011001171946,新規,0,2025-09-12,2025-09-12,株式会社ＤＧＢ,,株式会社,東京都,渋谷区,恵比寿南３丁目５番７号,,13,113,1500022,,,,,,,2025-09-12,1,,,,,ディージービー,0
1718,7011001172432,新規,0,2025-09-12,2025-09-12,株式会社ＴＲＩＴＥＲＥＡ,,株式会社,東京都,渋谷区,神宮前６丁目２３－４桑野ビル２階,,13,113,1500001,,,,,,,2025-09-12,1,,,,,トリテリア,0
1720,7011101112742,新規,0,2025-09-12,2025-09-12,株式会社ＡＮＤＢ,,株式会社,東京都,新宿区,榎町７５番地７大仁ビル４０５,,13,104,1620806,,,,,,,2025-09-12,1,,,,,アンドビー,0
1721,7011101113187,新規,0,2025-09-12,2025-09-12,株式会社青二才,,株式会社,東京都,新宿区,西新宿３丁目７番３０号フロンティアグラン西新宿４０２号,,13,104,1600023,,,,,,,2025-09-12,1,,,,,アオニサイ,0
1724,7011103016289,新規,0,2025-09-12,2025-09-12,かくたす合同会社,,合同会社,東京都,新宿区,西新宿３丁目３番１３号西新宿水間ビル２Ｆ,,13,104,1600023,,,,,,,2025-09-12,1,,,,,カクタス,0
1725,7011103016347,新規,0,2025-09-12,2025-09-12,合同会社ジェイ・ジー・ティー,,合同会社,東京都,新宿区,下宮比町１番４号,,13,104,1620822,,,,,,,2025-09-12,1,,,,,ジェイジーティー,0
1729,7011203004821,新規,0,2025-09-12,2025-09-12,合同会社ヒストリエ,,合同会社,東京都,中野区,南台４丁目３３番２号,,13,114,1640014,,,,,,,2025-09-12,1,,,,,ヒストリエ,0
1732,7011303005711,新規,0,2025-09-12,2025-09-12,合同会社すずの音色,,合同会社,東京都,杉並区,和泉２丁目２６－３メゾンウエルストンＩＩ１０７,00140638,13,115,1680063,,,,,,,2025-09-12,1,,,,,スズノネイロ,0
1734,7011403004844,新規,0,2025-09-12,2025-09-12,合同会社ちひろ,,合同会社,東京都,板橋区,赤塚新町２丁目１番５－２０５号,,13,119,1750093,,,,,,,2025-09-12,1,,,,,チヒロ,0
1736,7011505002705,新規,0,2025-09-12,2025-09-12,一般社団法人ＪｉｍｏＫｉｄｓ,,その他の設立登記法人,東京都,北区,滝野川６丁目５６－１４,,13,117,1140023,,,,,,,2025-09-12,1,,,,,ジモキッズ,0
1742,7011801046728,新規,0,2025-09-12,2025-09-12,株式会社Ｒｅｔｕｒｎ,,株式会社,東京都,足立区,梅島３丁目５番１５号,,13,121,1210816,,,,,,,2025-09-12,1,,,,,リターン,0
1743,7011803007075,新規,0,2025-09-12,2025-09-12,合同会社Ｎａｐｐａ,,合同会社,東京都,葛飾区,西亀有２丁目１０番１１号ドミンゴ綾瀬１０２,,13,122,1240002,,,,,,,2025-09-12,1,,,,,ナッパー,0
1747,7012701019071,新規,0,2025-09-12,2025-09-12,Ｈａｙａｔｅ　Ｘ株式会社,,株式会社,東京都,西東京市,新町５丁目３番２号,,13,229,2020023,,,,,,,2025-09-12,1,,,,,ハヤテエクス,0
1748,7012705002478,新規,0,2025-09-12,2025-09-12,一般社団法人斎藤公子国際協会,,その他の設立登記法人,東京都,西東京市,南町５丁目３番５号サウスタウン２０１,,13,229,1880012,,,,,,,2025-09-12,1,,,,,サイトウキミココクサイキョウカイ,0
1749,7012801024236,新規,0,2025-09-12,2025-09-12,東京制作株式会社,,株式会社,東京都,立川市,錦町１丁目４番２０号ＴＳＣビル５階,,13,202,1900022,,,,,,,2025-09-12,1,,,,,トウキョウセイサク,0
1750,7012805003368,新規,0,2025-09-12,2025-09-12,一般社団法人日本科学技術推進協議会,,その他の設立登記法人,東京都,国分寺市,西町１丁目３１番地１デュオセーヌ国立４０１,,13,214,1850035,,,,,,,2025-09-12,1,,,,,ニホンカガクギジュツスイシンキョウギカイ,0
1762,7020003029400,新規,0,2025-09-12,2025-09-12,合同会社Ｎｅｋｏｏｎ,,合同会社,神奈川県,横浜市西区,北幸２丁目１０番４８号むつみビル３階,,14,103,2200004,,,,,,,2025-09-12,1,,,,,ネコーン,0
1775,7030003027592,新規,0,2025-09-12,2025-09-12,ＡＲＵＳＨＩ合同会社,,合同会社,埼玉県,和光市,下新倉１丁目６番８号グリーンヒル２０３,,11,229,3510111,,,,,,,2025-09-12,1,,,,,アルシ,0
1776,7030003027626,新規,0,2025-09-12,2025-09-12,ＮＥＷＳＴＡＲ　Ｄ＆Ｂ　ＧＲＯＵＰ合同会社,,合同会社,埼玉県,坂戸市,浅羽野３丁目２番地７ＫＩＳ亜州商会館坂戸Ａ号室,,11,239,3500237,,,,,,,2025-09-12,1,,,,,ニュースターディーアンドビーグループ,0
1777,7030005022261,新規,0,2025-09-12,2025-09-12,一般社団法人パラフィットネス,,その他の設立登記法人,埼玉県,和光市,白子３丁目２７番７５号,,11,229,3510101,,,,,,,2025-09-12,1,,,,,パラフィットネス,0
1782,7040001140347,新規,0,2025-09-12,2025-09-12,インスパーク株式会社,,株式会社,千葉県,船橋市,印内２丁目３番１５号ＴＯＰ西船橋第一３０２,,12,204,2730039,,,,,,,2025-09-12,1,,,,,インスパーク,0
1783,7040001140396,新規,0,2025-09-12,2025-09-12,グロウアドバイザリー株式会社,,株式会社,千葉県,千葉市美浜区,若葉３丁目１番地１８幕張ベイパーククロスレジデンス６１６号,,12,106,2610014,,,,,,,2025-09-12,1,,,,,グロウアドバイザリー,0
1784,7040001140405,新規,0,2025-09-12,2025-09-12,株式会社鮎川電気,,株式会社,千葉県,市原市,柏原２２５番地２,,12,219,2990105,,,,,,,2025-09-12,1,,,,,アユカワデンキ,0
1785,7040001140454,新規,0,2025-09-12,2025-09-12,株式会社三陽エステート,,株式会社,千葉県,君津市,南子安９丁目３番１０号,,12,225,2991162,,,,,,,2025-09-12,1,,,,,サンヨウエステート,0
1786,7040001140462,新規,0,2025-09-12,2025-09-12,株式会社メホール,,株式会社,千葉県,柏市,南柏１丁目１番７号グレース南柏５０３号,,12,217,2770855,,,,,,,2025-09-12,1,,,,,メホール,0
1787,7040003028458,新規,0,2025-09-12,2025-09-12,合同会社ドラフォース,,合同会社,千葉県,市原市,島野１６７７番地１和田荘６,,12,219,2900034,,,,,,,2025-09-12,1,,,,,ドラフォース,0
1788,7040003028508,新規,0,2025-09-12,2025-09-12,錦銘合同会社,,合同会社,千葉県,八千代市,萱田町字萱田道７９７番地１０－Ｍ号棟－１０１,,12,221,2760044,,,,,,,2025-09-12,1,,,,,キンメイ,0
1797,7050001057284,新規,0,2025-09-12,2025-09-12,株式会社小川農園ＲＩＺ,,株式会社,茨城県,常陸太田市,大森町１１９２番地の４,,08,212,3130021,,,,,,,2025-09-12,1,,,,,オガワノウエンリズ,0
1798,7050003009564,新規,0,2025-09-12,2025-09-12,合同会社こばるつ,,合同会社,茨城県,つくば市,梅園２丁目１番地１５　スプリングテックつくばビル４０１,,08,220,3050045,,,,,,,2025-09-12,1,,,,,コバルツ,0
1800,7060001038564,新規,0,2025-09-12,2025-09-12,株式会社ＧｌｏｗＨａｌｏ,,株式会社,栃木県,那須塩原市,西原町１番２１号,,09,213,3292755,,,,,,,2025-09-12,1,,,,,グローハロ,0
1803,7080101025782,新規,0,2025-09-12,2025-09-12,株式会社アイズカンパニー,,株式会社,静岡県,富士市,依田橋２１５番地の１,,22,210,4170002,,,,,,,2025-09-12,1,,,,,アイズカンパニー,0
1807,7090001019504,新規,0,2025-09-12,2025-09-12,株式会社Ａｓａｋｕｒａ,,株式会社,山梨県,上野原市,上野原３２８４番地、２Ｆ,,19,212,4090112,,,,,,,2025-09-12,1,,,,,アサクラ,0
1819,7120001279425,新規,0,2025-09-12,2025-09-12,株式会社大高,,株式会社,大阪府,大阪市生野区,巽西４丁目８番７号,00140647,27,116,5440012,,,,,,,2025-09-12,1,,,,,オオダカ,0
1820,7120001279458,新規,0,2025-09-12,2025-09-12,Ｈｉｋａｒｉ　Ｂｌｏｏｍ株式会社,,株式会社,大阪府,大阪市阿倍野区,西田辺町１丁目１３番２８号,,27,119,5450014,,,,,,,2025-09-12,1,,,,,ヒカリブルーム,0
1821,7120001279466,新規,0,2025-09-12,2025-09-12,マイヤージャパン株式会社,,株式会社,大阪府,大阪市住吉区,墨江２丁目５番５３号２０１号室,,27,120,5580043,,,,,,,2025-09-12,1,,,,,マイヤージャパン,0
1822,7120001279499,新規,0,2025-09-12,2025-09-12,吉兆天目株式会社,,株式会社,大阪府,大阪市西成区,橘３丁目１７番２０号１階,,27,122,5570051,,,,,,,2025-09-12,1,,,,,キッチョウテンモク,0
1823,7120001279549,新規,0,2025-09-12,2025-09-12,雨軒株式会社,,株式会社,大阪府,大阪市東住吉区,南田辺１丁目８番４３号ＵＩＩＴビル３０１号室,,27,121,5460033,,,,,,,2025-09-12,1,,,,,ウケン,0
1824,7120001279565,新規,0,2025-09-12,2025-09-12,株式会社楽途,,株式会社,大阪府,大阪市生野区,巽北１丁目２１番２９号生野ハイツ３１５,00140636,27,116,5440004,,,,,,,2025-09-12,1,,,,,ラクト,0
1825,7120001279697,新規,0,2025-09-12,2025-09-12,株式会社ＫＭＣ,,株式会社,大阪府,大阪市中央区,上町１丁目１８番１６－１９０１号,,27,128,5400005,,,,,,,2025-09-12,1,,,,,ケーエムシー,0
1828,7120005025156,新規,0,2025-09-12,2025-09-12,特定非営利活動法人うさぎりんく,,その他の設立登記法人,大阪府,大阪市住吉区,苅田３丁目１６－２１－２０１,,27,120,5580011,,,,,,,2025-09-12,1,,,,,ウサギリンク,0
1830,7120101072408,新規,0,2025-09-12,2025-09-12,株式会社希工房,,株式会社,大阪府,泉大津市,助松町３丁目１６番７号,,27,206,5950071,,,,,,,2025-09-12,1,,,,,ノゾミコウボウ,0
1832,7120903005853,新規,0,2025-09-12,2025-09-12,合同会社美登,,合同会社,大阪府,吹田市,原町４丁目３番２１号,,27,205,5640004,,,,,,,2025-09-12,1,,,,,ミト,0
1833,7122001039619,新規,0,2025-09-12,2025-09-12,株式会社ＢＲＩＧＨＴ,,株式会社,大阪府,東大阪市,中新開１丁目５－６,,27,227,5780911,,,,,,,2025-09-12,1,,,,,ブライト,0
1834,7122003003309,新規,0,2025-09-12,2025-09-12,Ａｕｌｅｒ合同会社,,合同会社,大阪府,八尾市,萱振町２丁目１２６番地の１,,27,212,5810834,,,,,,,2025-09-12,1,,,,,アウレル,0
1838,7130001080468,新規,0,2025-09-12,2025-09-12,株式会社Ｐａｎａｃｅａｋ,,株式会社,京都府,京都市中京区,御池通東洞院東入笹屋町４３６永和御池ビル６０６号,,26,104,6048187,,,,,,,2025-09-12,1,,,,,パナシーク,0
1839,7130001080542,新規,0,2025-09-12,2025-09-12,株式会社ＡＮＤ,,株式会社,京都府,福知山市,字天田１９５番地の３－１５０７号,,26,201,6200000,,,,,,,2025-09-12,1,,,,,アンド,0
1849,7140001139957,新規,0,2025-09-12,2025-09-12,株式会社ＯＴＩＵＭ,,株式会社,兵庫県,神戸市西区,桜が丘東町４丁目１２－３,,28,111,6512225,,,,,,,2025-09-12,1,,,,,オーティウム,0
1860,7180001168556,新規,0,2025-09-12,2025-09-12,株式会社モガ,,株式会社,愛知県,瀬戸市,緑町２丁目６４番地の１,,23,204,4890875,,,,,,,2025-09-12,1,,,,,モガ,0
1861,7180001168580,新規,0,2025-09-12,2025-09-12,株式会社Ｓｍｉｌｅ　Ｃｏｎｃｅｐｔ,,株式会社,愛知県,名古屋市中区,栄３丁目１１番１６号ＳＯＫ住吉ビル２Ｆ,,23,106,4600008,,,,,,,2025-09-12,1,,,,,スマイルコンセプト,0
1862,7180001168597,新規,0,2025-09-12,2025-09-12,服部カラフルデザイン事務所株式会社,,株式会社,愛知県,名古屋市緑区,南大高１丁目６１２番地,,23,114,4598016,,,,,,,2025-09-12,1,,,,,ハットリカラフルデザインジムショ,0
1863,7180001168630,新規,0,2025-09-12,2025-09-12,株式会社Ｈ．Ｓ　ａｉｒ,,株式会社,愛知県,名古屋市中村区,名駅４丁目２４番１６号広小路ガーデンアベニュー３Ｆ・４Ｆ,,23,105,4500002,,,,,,,2025-09-12,1,,,,,エイチエスエアー,0
1865,7180003029038,新規,0,2025-09-12,2025-09-12,合同会社Ｌｉｔ,,合同会社,愛知県,名古屋市守山区,新城４番１６号,,23,113,4630056,,,,,,,2025-09-12,1,,,,,リット,0
1866,7180003029046,新規,0,2025-09-12,2025-09-12,合同会社Ｍｅｉｃｏｎ,,合同会社,愛知県,名古屋市千種区,今池５丁目３３－２Ｌａｄｏｕｃｅｕｒ今池６１０,,23,101,4640850,,,,,,,2025-09-12,1,,,,,メイコン,0
1874,7200001044218,新規,0,2025-09-12,2025-09-12,株式会社藤井興業,,株式会社,岐阜県,岐阜市,鏡島１５８３番地３メゾンレポス鏡島Ａ号室,,21,201,5010111,,,,,,,2025-09-12,1,,,,,フジイコウギョウ,0
1875,7200001044242,新規,0,2025-09-12,2025-09-12,ケイズアイ株式会社,,株式会社,岐阜県,大垣市,林町５丁目３８番地,,21,202,5030015,,,,,,,2025-09-12,1,,,,,ケイズアイ,0
1876,7200003007024,新規,0,2025-09-12,2025-09-12,合同会社藍朧,,合同会社,岐阜県,多治見市,脇之島町６丁目４６番地の６,,21,204,5070826,,,,,,,2025-09-12,1,,,,,アイオボロ,0
1883,7240001065490,新規,0,2025-09-12,2025-09-12,株式会社Ａｕｔｏ　Ｄｅｔａｉｌ　Ｇａｒａｇｅ,,株式会社,広島県,東広島市,西条町田口１０２１４番地３２１,,34,212,7390036,,,,,,,2025-09-12,1,,,,,オートディテールガレージ,0
1885,7240003007400,新規,0,2025-09-12,2025-09-12,合同会社ＭＴＫ,,合同会社,広島県,福山市,明治町５番７号山陽セントラルハイツ１Ｆ,,34,207,7200807,,,,,,,2025-09-12,1,,,,,エムティーケー,0
1887,7250003003811,新規,0,2025-09-12,2025-09-12,合同会社ＳＨＩＡ　ＰＬＵＳ,,合同会社,山口県,岩国市,周東町差川１０７０－３８,,35,208,7420424,,,,,,,2025-09-12,1,,,,,シアプラス,0
1890,7260003005344,新規,0,2025-09-12,2025-09-12,合同会社クィーンズ,,合同会社,岡山県,岡山市北区,田町２丁目５－１９ファミリー田町ビル２階,,33,101,7000825,,,,,,,2025-09-12,1,,,,,クィーンズ,0
1897,7290001111323,新規,0,2025-09-12,2025-09-12,アイプラン株式会社,,株式会社,福岡県,福岡市東区,松島１丁目１０番２号フラワー松島Ｆ棟３号,,40,131,8120062,,,,,,,2025-09-12,1,,,,,アイプラン,0
1901,7290003017353,新規,0,2025-09-12,2025-09-12,ＣＮＳ合同会社,,合同会社,福岡県,太宰府市,五条６丁目５番１号Ｑｕａｄｒａｔｅ五条Ａ号室,,40,221,8180125,,,,,,,2025-09-12,1,,,,,シーエヌエス,0
1902,7290005019835,新規,0,2025-09-12,2025-09-12,特定非営利活動法人伊藤野枝の会・今宿,,その他の設立登記法人,福岡県,福岡市西区,今宿駅前１丁目１０番６号,,40,135,8190168,,,,,,,2025-09-12,1,,,,,イトウノエノカイイマジュク,0
1905,7310001019786,新規,0,2025-09-12,2025-09-12,株式会社福楼総業,,株式会社,長崎県,諫早市,川内町３７２番地３,,42,204,8540037,,,,,,,2025-09-12,1,,,,,フクロウソウギョウ,0
1909,7370001053053,新規,0,2025-09-12,2025-09-12,株式会社琉仙,,株式会社,宮城県,仙台市青葉区,本町２丁目１番８号,,04,101,9800014,,,,,,,2025-09-12,1,,,,,リュウセン,0
1915,7380003006132,新規,0,2025-09-12,2025-09-12,ＥＮＩＲＥＸ合同会社,,合同会社,福島県,福島市,北五老内町７番５号Ｉ・Ｓ・Ｍ３７－５Ａ,,07,201,9608131,,,,,,,2025-09-12,1,,,,,エニレックス,0
1916,7390001018104,新規,0,2025-09-12,2025-09-12,株式会社四平,,株式会社,山形県,鶴岡市,羽黒町玉川字玉川８０番地,,06,203,9970121,,,,,,,2025-09-12,1,,,,,シヘイ,0
1917,7390003002444,新規,0,2025-09-12,2025-09-12,合同会社ＨＩＲＯ　ＧＬＯＢＡＬ,,合同会社,山形県,山形市,大字下東山字山崎３３１９番地,,06,201,9902232,,,,,,,2025-09-12,1,,,,,ヒログローバル,0
1920,7420003003182,新規,0,2025-09-12,2025-09-12,合同会社ＴＳ,,合同会社,青森県,弘前市,大字広野２丁目２３番地３２,,02,202,0368115,,,,,,,2025-09-12,1,,,,,ティーエス,0
1926,7430001095188,新規,0,2025-09-12,2025-09-12,株式会社Ｆｒｅｅｄｏｍｃａｒｅ,,株式会社,北海道,札幌市豊平区,西岡二条１０丁目２番２号,,01,105,0620032,,,,,,,2025-09-12,1,,,,,フリーダムケア,0
1927,7430001095246,新規,0,2025-09-12,2025-09-12,株式会社マリアンナ,,株式会社,北海道,札幌市東区,北二十六条東７丁目２－２４,,01,103,0650026,,,,,,,2025-09-12,1,,,,,マリアンナ,0
1931,7430003018097,新規,0,2025-09-12,2025-09-12,合同会社ララリカ,,合同会社,北海道,樺戸郡新十津川町,字中央３０８番地１６,,01,432,0731103,,,,,,,2025-09-12,1,,,,,ララリカ,0
1937,7700150132169,新規,0,2025-09-12,2025-09-12,ノベリスコリア株式会社,,外国会社等,東京都,新宿区,新宿２丁目５番１２号ＦＯＲＥＣＡＳＴ新宿ＡＶＥＮＵＥ６階,,13,104,1600022,大韓民国慶尚北道栄州市赤西工団路２３（赤西洞）,,,,,,2025-09-12,1,,,,,ノベリスコリアカブシキガイシヤ,0
1944,8010001258348,新規,0,2025-09-12,2025-09-12,株式会社ユラニ,,株式会社,東京都,中央区,銀座１丁目１２番４号Ｎ＆Ｅ－ＢＬＤ．７階,,13,102,1040061,,,,,,,2025-09-12,1,,,,,ユラニ,0
1945,8010001258455,新規,0,2025-09-12,2025-09-12,株式会社ｓｔｕｄｉｏ　ＹＰ,,株式会社,東京都,中央区,日本橋２丁目１６－４ｒｅｍｉｘ日本橋６階,,13,102,1030027,,,,,,,2025-09-12,1,,,,,スタジオワイピー,0
1952,8010005040644,新規,0,2025-09-12,2025-09-12,一般社団法人国際ＯｎｅＨｅａｌｔｈ協会,,その他の設立登記法人,東京都,中央区,日本橋浜町３丁目４５番７号ジャコア第３ビル４階,,13,102,1030007,,,,,,,2025-09-12,1,,,,,コクサイワンヘルスキョウカイ,0
1958,8010403036021,新規,0,2025-09-12,2025-09-12,合同会社Ｃｏｕｎｔ　Ｔｕｒｆ,,合同会社,東京都,港区,虎ノ門１丁目１番１８号ヒューリック虎ノ門ビル９階Ｌ＆Ｐ司法書士法人内,,13,103,1050001,,,,,,,2025-09-12,1,,,,,カウントターフ,0
1959,8010601067974,新規,0,2025-09-12,2025-09-12,東瑜株式会社,,株式会社,東京都,墨田区,江東橋４丁目３１－７－２０２室,,13,107,1300022,,,,,,,2025-09-12,1,,,,,トウユ,0
1967,8011001171953,新規,0,2025-09-12,2025-09-12,株式会社ＯｐｅｎＥｎｄ,,株式会社,東京都,渋谷区,本町３丁目５番２号メイクスデザイン渋谷本町７０２,,13,113,1510071,,,,,,,2025-09-12,1,,,,,オープンエンド,0
1968,8011001172464,新規,0,2025-09-12,2025-09-12,ＵＬＴＲＡＰＬＡＮＥＴ株式会社,,株式会社,東京都,渋谷区,道玄坂１丁目１０番８号２ＦーＣ,,13,113,1500043,,,,,,,2025-09-12,1,,,,,ウルトラプラネット,0
1981,8011101113236,新規,0,2025-09-12,2025-09-12,株式会社ビジネスパートナーズＪ＆Ｃ,,株式会社,東京都,新宿区,北新宿４丁目２８番１０号新氷五番館,,13,104,1690074,,,,,,,2025-09-12,1,,,,,ビジネスパートナーズジェイアンドシー,0
1984,8011105011584,新規,0,2025-09-12,2025-09-12,一般社団法人日本子ども学会,,その他の設立登記法人,東京都,新宿区,山吹町３５８番地５,,13,104,1620801,,,,,,,2025-09-12,1,,,,,ニホンコドモガッカイ,0
1987,8011203004820,新規,0,2025-09-12,2025-09-12,Ｍｉｒａｉ　Ｖｅｎｔｕｒｅｓ合同会社,,合同会社,東京都,中野区,本町５丁目１２番８号ハイムジョイ２０１,,13,114,1640012,,,,,,,2025-09-12,1,,,,,ミライベンチャーズ,0
1989,8011401027391,新規,0,2025-09-12,2025-09-12,株式会社ＣｏｎＱｕｅｓｔ,,株式会社,東京都,板橋区,栄町１１－１２Ｆ,,13,119,1730015,,,,,,,2025-09-12,1,,,,,コンクエスト,0
1990,8011503006681,新規,0,2025-09-12,2025-09-12,合同会社ＣＡＮＤＯＲ,,合同会社,東京都,北区,田端新町３丁目１４－４ＮＯＺＡＫＩビル３０２,,13,117,1140012,,,,,,,2025-09-12,1,,,,,キャンダー,0
1994,8011701028701,新規,0,2025-09-12,2025-09-12,九諾興業株式会社,,株式会社,東京都,江戸川区,平井５丁目４４番６号２階４０１,,13,123,1320035,,,,,,,2025-09-12,1,,,,,キュウダクコウギョウ,0
1996,8011703004361,新規,0,2025-09-12,2025-09-12,合同会社ＬＵＣＫ　ＳＨＯＷ,,合同会社,東京都,江戸川区,船堀５丁目１１番１ー３０７号サンライトパレス船堀,,13,123,1340091,,,,,,,2025-09-12,1,,,,,ラクショー,0
2004,8011801046710,新規,0,2025-09-12,2025-09-12,株式会社Ｍｉｒａｉ　Ｃｏｎｎｅｃｔ,,株式会社,東京都,足立区,千住旭町１－７１０１,,13,121,1200026,,,,,,,2025-09-12,1,,,,,ミライコネクト,0
2005,8011801046727,新規,0,2025-09-12,2025-09-12,Ｚｅｖｉｔｏ株式会社,,株式会社,東京都,葛飾区,東金町２丁目１１番１号１Ｆ－Ａ,,13,122,1250041,,,,,,,2025-09-12,1,,,,,ゼビト,0
2006,8011803007074,新規,0,2025-09-12,2025-09-12,合同会社ＦＲＥＥＭＡＮ　ＬＡＢＯ,,合同会社,東京都,足立区,綾瀬４丁目３１番１０－１０１号,,13,121,1200005,,,,,,,2025-09-12,1,,,,,フリーマンラボ,0
2010,8012801024227,新規,0,2025-09-12,2025-09-12,大沢株式会社,,株式会社,東京都,東大和市,向原６丁目９４４番地２７モンシャトー東大和１０１,,13,220,2070013,,,,,,,2025-09-12,1,,,,,オオサワ,0
2011,8012801024243,新規,0,2025-09-12,2025-09-12,株式会社ＭＩＩＫＥ,,株式会社,東京都,武蔵村山市,大南５丁目８番地の２５,,13,223,2080013,,,,,,,2025-09-12,1,,,,,ミイケ,0
2012,8012803003864,新規,0,2025-09-12,2025-09-12,ＶＮＬｉｎｅ合同会社,,合同会社,東京都,武蔵村山市,伊奈平４丁目１１番地の３伊奈平ビル４０２号,,13,223,2080023,,,,,,,2025-09-12,1,,,,,ヴィーエヌライン,0
2027,8020001164743,新規,0,2025-09-12,2025-09-12,株式会社ＩＭＴ商司,,株式会社,神奈川県,横浜市金沢区,福浦１丁目３番地２１,,14,108,2360004,,,,,,,2025-09-12,1,,,,,アイエムティーショウジ,0
2030,8020003029333,新規,0,2025-09-12,2025-09-12,小谷冉合同会社,,合同会社,神奈川県,横浜市南区,高根町１丁目４－４０ＫＹＳオフィス２ＦＡ０１１,,14,105,2320022,,,,,,,2025-09-12,1,,,,,コタニゼン,0
2031,8020003029366,新規,0,2025-09-12,2025-09-12,合同会社あきワン,,合同会社,神奈川県,川崎市中原区,中丸子１３５番地１－５０６,,14,133,2110012,,,,,,,2025-09-12,1,,,,,アキワン,0
2032,8020005016981,新規,0,2025-09-12,2025-09-12,一般社団法人先端美容栄養協会,,その他の設立登記法人,神奈川県,横浜市西区,北幸２丁目１番２２号,,14,103,2200004,,,,,,,2025-09-12,1,,,,,センタンビヨウエイヨウキョウカイ,0
2046,8030001168578,新規,0,2025-09-12,2025-09-12,コーユーフォームズ株式会社,,株式会社,埼玉県,草加市,青柳３丁目２１番３号,,11,221,3400002,,,,,,,2025-09-12,1,,,,,コーユーフォームズ,0
2047,8030001168603,新規,0,2025-09-12,2025-09-12,株式会社ベジゲート,,株式会社,埼玉県,熊谷市,小泉８００番地４,,11,202,3600122,,,,,,,2025-09-12,1,,,,,ベジゲート,0
2048,8030001168628,新規,0,2025-09-12,2025-09-12,株式会社ＨＩＮＡＴＡ,,株式会社,埼玉県,さいたま市西区,大字指扇３２０７番地１９,,11,101,3310047,,,,,,,2025-09-12,1,,,,,ヒナタ,0
2049,8030001168660,新規,0,2025-09-12,2025-09-12,株式会社デライト・コンサルティング,,株式会社,埼玉県,新座市,栗原６丁目９－７,,11,230,3520035,,,,,,,2025-09-12,1,,,,,デライトコンサルティング,0
2054,8030003027591,新規,0,2025-09-12,2025-09-12,渋谷メディカル合同会社,,合同会社,埼玉県,朝霞市,東弁財３丁目１３番２３号,,11,227,3510022,,,,,,,2025-09-12,1,,,,,シブヤメディカル,0
2055,8030003027625,新規,0,2025-09-12,2025-09-12,合同会社明康,,合同会社,埼玉県,さいたま市南区,根岸３丁目１１番１３号コトー・ヴァンベール１０３,,11,108,3360024,,,,,,,2025-09-12,1,,,,,メイコウ,0
2059,8040001140478,新規,0,2025-09-12,2025-09-12,株式会社樹,,株式会社,千葉県,千葉市花見川区,三角町４８７番地７４,,12,102,2620011,,,,,,,2025-09-12,1,,,,,タツキ,0
2070,8070001043348,新規,0,2025-09-12,2025-09-12,株式会社クレトホールディングス,,株式会社,群馬県,桐生市,相生町１丁目３０３番地７,,10,203,3760011,,,,,,,2025-09-12,1,,,,,クレトホールディングス,0
2073,8080003003555,新規,0,2025-09-12,2025-09-12,合同会社てるらいふ,,合同会社,静岡県,静岡市駿河区,小鹿１６３０番地の３４,,22,102,4228021,,,,,,,2025-09-12,1,,,,,テルライフ,0
2082,8100001038939,新規,0,2025-09-12,2025-09-12,野村物産株式会社,,株式会社,長野県,安曇野市,豊科南穂高６４５３番地１,,20,220,3998201,,,,,,,2025-09-12,1,,,,,ノムラブッサン,0
2085,8100003008386,新規,0,2025-09-12,2025-09-12,合同会社ＤＸ４ＴＥＭＰＬＥＳ,,合同会社,長野県,塩尻市,大字広丘野村７９３番地１,,20,215,3990702,,,,,,,2025-09-12,1,,,,,ディーエックスフォーテンプルズ,0
2105,8120001279564,新規,0,2025-09-12,2025-09-12,株式会社ＣＨ,,株式会社,大阪府,大阪市生野区,新今里２丁目８番２２号第一シャトー３０５号室,,27,116,5440001,,,,,,,2025-09-12,1,,,,,シーエイチ,0
2106,8120001279589,新規,0,2025-09-12,2025-09-12,株式会社米立,,株式会社,大阪府,大阪市北区,梅田１丁目２－２大阪駅前第２ビル２Ｆ,,27,127,5300001,,,,,,,2025-09-12,1,,,,,ミリ,0
2107,8120001279655,新規,0,2025-09-12,2025-09-12,株式会社シェアリング,,株式会社,大阪府,大阪市浪速区,敷津西１丁目３－２３－１１０１,,27,111,5560015,,,,,,,2025-09-12,1,,,,,シェアリング,0
2108,8120001279705,新規,0,2025-09-12,2025-09-12,匯元方株式会社,,株式会社,大阪府,大阪市北区,菅栄町１０番１１号中央住建天六ビル６０１号室,,27,127,5300031,,,,,,,2025-09-12,1,,,,,カイゲンホウ,0
2109,8120001279845,新規,0,2025-09-12,2025-09-12,安瑞株式会社,,株式会社,大阪府,大阪市北区,長柄中２丁目５番３０号,,27,127,5310062,,,,,,,2025-09-12,1,,,,,アンズイ,0
2113,8120003030405,新規,0,2025-09-12,2025-09-12,合同会社ライムライト,,合同会社,大阪府,枚方市,長尾家具町２丁目１１番５３号,,27,210,5730102,,,,,,,2025-09-12,1,,,,,ライムライト,0
2117,8120101072423,新規,0,2025-09-12,2025-09-12,株式会社松吉商事,,株式会社,大阪府,堺市堺区,大仙中町８番２４号,,27,141,5900801,,,,,,,2025-09-12,1,,,,,ショウキチショウジ,0
2119,8120103006701,新規,0,2025-09-12,2025-09-12,合同会社Ｓｔｒｉｏｎ,,合同会社,大阪府,堺市北区,百舌鳥赤畑町４丁３０６番地１,,27,146,5918037,,,,,,,2025-09-12,1,,,,,ストリオン,0
2120,8120901051493,新規,0,2025-09-12,2025-09-12,ＴＫパートナー株式会社,,株式会社,大阪府,吹田市,岸部中４丁目７番２２号,,27,205,5640002,,,,,,,2025-09-12,1,,,,,ティーケーパートナー,0
2122,8122001039691,新規,0,2025-09-12,2025-09-12,株式会社ことのは,,株式会社,大阪府,八尾市,明美町２丁目３番２１号ストークマンション１０８号,,27,212,5810087,,,,,,,2025-09-12,1,,,,,コトノハ,0
2128,8130001080467,新規,0,2025-09-12,2025-09-12,株式会社オールプラン,,株式会社,京都府,京都市伏見区,北端町６５番地セントアミュー１Ｆ,,26,109,6128372,,,,,,,2025-09-12,1,,,,,オールプラン,0
2129,8130001080517,新規,0,2025-09-12,2025-09-12,プリンシプルアセットマネジメント株式会社,,株式会社,京都府,京都市南区,西九条比永城町１０４番地,,26,107,6018437,,,,,,,2025-09-12,1,,,,,プリンシプルアセットマネジメント,0
2132,8130003010769,新規,0,2025-09-12,2025-09-12,合同会社ホンダ,,合同会社,京都府,城陽市,寺田宮ノ谷８９番地の２５,,26,207,6100121,,,,,,,2025-09-12,1,,,,,ホンダ,0
2140,8140001139989,新規,0,2025-09-12,2025-09-12,株式会社ヨツバ,,株式会社,兵庫県,姫路市,楠町８４番地,,28,201,6700826,,,,,,,2025-09-12,1,,,,,ヨツバ,0
2142,8140003022573,新規,0,2025-09-12,2025-09-12,ＨＯＲＩＺＯＮ合同会社,,合同会社,兵庫県,神戸市兵庫区,新開地４丁目６番１５号川崎ビル４０１,,28,105,6520811,,,,,,,2025-09-12,1,,,,,ホリゾン,0
2145,8160001027052,新規,0,2025-09-12,2025-09-12,株式会社Ｇｒｏｗｔｈ　ｓｔｅｐ,,株式会社,滋賀県,大津市,里３丁目６番３６号,,25,201,5202276,,,,,,,2025-09-12,1,,,,,グロースステップ,0
2149,8170003002300,新規,0,2025-09-12,2025-09-12,合同会社ＭＩＴＡＳ,,合同会社,和歌山県,和歌山市,西浜１６６０－２３０,,30,201,6410036,,,,,,,2025-09-12,1,,,,,ミタス,0
2150,8180001168605,新規,0,2025-09-12,2025-09-12,株式会社みらいホーム,,株式会社,愛知県,江南市,宮後町王塚７２番地,,23,217,4838044,,,,,,,2025-09-12,1,,,,,ミライホーム,0
2151,8180001168621,新規,0,2025-09-12,2025-09-12,株式会社エストアール,,株式会社,愛知県,名古屋市東区,芳野３丁目２番２１号,,23,102,4610027,,,,,,,2025-09-12,1,,,,,エストアール,0
2157,8180301040190,新規,0,2025-09-12,2025-09-12,平和協商株式会社,,株式会社,愛知県,蒲郡市,三谷町八舗９番地２,,23,214,4430021,,,,,,,2025-09-12,1,,,,,ヘイワキョウショウ,0
2174,8240001065449,新規,0,2025-09-12,2025-09-12,株式会社Ｌｉｌｙ,,株式会社,広島県,広島市安佐南区,安東５丁目１４番２５号,,34,105,7310153,,,,,,,2025-09-12,1,,,,,リリー,0
2177,8260001040549,新規,0,2025-09-12,2025-09-12,株式会社ファイブスターコーポレーション,,株式会社,岡山県,岡山市中区,関３９番地５,,33,102,7038232,,,,,,,2025-09-12,1,,,,,ファイブスターコーポレーション,0
2178,8260005011521,新規,0,2025-09-12,2025-09-12,弁護士法人宮崎法律事務所,00140637,その他の設立登記法人,岡山県,岡山市北区,富田町１丁目８番１号,,33,101,7000816,,,,,,,2025-09-12,1,,,,,ミヤザキホウリツジムショ,0
2184,8290001111297,新規,0,2025-09-12,2025-09-12,株式会社仲ホールディングス,,株式会社,福岡県,飯塚市,中５１３番地１００,,40,205,8200065,,,,,,,2025-09-12,1,,,,,ナカホールディングス,0
2185,8290001111339,新規,0,2025-09-12,2025-09-12,グローバルリン株式会社,,株式会社,福岡県,福岡市南区,多賀１丁目４番２５号多賀荘１０１号,,40,134,8150072,,,,,,,2025-09-12,1,,,,,グローバルリン,0
2191,8320001021336,新規,0,2025-09-12,2025-09-12,ＯＳＨＤ株式会社,,株式会社,大分県,大分市,三佐６丁目２番５号,,44,201,8700108,,,,,,,2025-09-12,1,,,,,オーエスエイチディー,0
2198,8330001033578,新規,0,2025-09-12,2025-09-12,株式会社ワイズワークス,,株式会社,熊本県,熊本市北区,梶尾町１３６４番地２,,43,105,8615512,,,,,,,2025-09-12,1,,,,,ワイズワークス,0
2199,8340001027653,新規,0,2025-09-12,2025-09-12,ＮＩＣＯＮ株式会社,,株式会社,鹿児島県,姶良市,蒲生町上久徳１１７９番地１,,46,225,8995302,,,,,,,2025-09-12,1,,,,,ニコン,0
2203,8350005006330,新規,0,2025-09-12,2025-09-12,医療法人ＨＡＬ,,その他の設立登記法人,宮崎県,日向市,鶴町３丁目５９番,,45,206,8830052,,,,,,,2025-09-12,1,,,,,ハル,0
2205,8360001035778,新規,0,2025-09-12,2025-09-12,松君株式会社,,株式会社,沖縄県,中頭郡北谷町,字宮城１番地３９１,,47,326,9040113,,,,,,,2025-09-12,1,,,,,マツキミ,0
2209,8370001053044,新規,0,2025-09-12,2025-09-12,株式会社まるちーず,,株式会社,宮城県,加美郡加美町,字北寺宿２番地４,,04,445,9814331,,,,,,,2025-09-12,1,,,,,マルチーズ,0
2210,8370003007270,新規,0,2025-09-12,2025-09-12,合同会社ＳＥＡＳＯＮＥＲｓ,,合同会社,宮城県,宮城郡松島町,高城字町２番地の６,,04,401,9810215,,,,,,,2025-09-12,1,,,,,シーズナーズ,0
2217,8420001019270,新規,0,2025-09-12,2025-09-12,株式会社ボトムアップ,,株式会社,青森県,青森市,篠田１丁目８番５号,,02,201,0380011,,,,,,,2025-09-12,1,,,,,ボトムアップ,0
2223,8430001095245,新規,0,2025-09-12,2025-09-12,株式会社ＴＫＬＡＮＤ,,株式会社,北海道,札幌市中央区,南一条東２丁目１番地２,,01,101,0600051,,,,,,,2025-09-12,1,,,,,ティーケーランド,0
2229,8480001012947,新規,0,2025-09-12,2025-09-12,株式会社タコグラフ,,株式会社,徳島県,徳島市,津田浜之町２番２３号,,36,201,7708005,,,,,,,2025-09-12,1,,,,,タコグラフ,0
2231,8700150132135,新規,0,2025-09-12,2025-09-10,全国ロボット・地域連携ネットワーク,,その他,東京都,新宿区,高田馬場１丁目３１－１８高田馬場センタービル１２階,,13,104,1690075,,,,,,,2025-09-10,1,,,,,ゼンコクロボツトチイキレンケイネツトワーク,0
2232,8700150132168,新規,0,2025-09-12,2025-09-12,ＳＡＡＭＳＨＡ　ＴＥＣＨＮＯＬＯＧＩＥＳ　ＰＲＩＶＡＴＥ　ＬＩＭＩＴＥＤ,,外国会社等,東京都,江戸川区,西葛西３丁目１０－２９－２０１,,13,123,1340088,４１１０５７，ＢＬＤＧ　Ｂ　ＯＦＦＩＣＥ　２２３　ＳＵＲＡＴＷＡＬＡ　ＭＡＲＫ　ＰＬＡＺＺＯ，Ｓ　ＮＯ　２７，ＭＵＬＳＨＩ　ＩＮＦＯＴＥＣＨ　ＰＡＲＫ　ＰＵＮＥ　ＣＩＴＹ，ＩＮＤＩＡ,,,,,,2025-09-12,1,,,,,サームシヤテクノロジーズプライベートリミテツド,0
2257,9010401192872,新規,0,2025-09-12,2025-09-12,株式会社ＳＵＮＳＴＡＲ,,株式会社,東京都,港区,六本木２丁目３番２号ＶＯＲＴ六本木１丁目１３階,,13,103,1060032,,,,,,,2025-09-12,1,,,,,サンスター,0
2258,9010401192930,新規,0,2025-09-12,2025-09-12,株式会社佐々木地所,,株式会社,東京都,港区,芝浦４丁目４番２７－３３４号,,13,103,1080023,,,,,,,2025-09-12,1,,,,,ササキジショ,0
2259,9010401192988,新規,0,2025-09-12,2025-09-12,イーマートジャパン株式会社,,株式会社,東京都,港区,虎ノ門１丁目１６－６虎ノ門ラポート４階,,13,103,1050001,,,,,,,2025-09-12,1,,,,,イーマートジャパン,0
2260,9010401193029,新規,0,2025-09-12,2025-09-12,株式会社ＣｏＣｈｏ,,株式会社,東京都,港区,六本木７丁目４番８号ＴＫＧビル４Ｆ,,13,103,1060032,,,,,,,2025-09-12,1,,,,,コチョ,0
2262,9010403035971,新規,0,2025-09-12,2025-09-12,つくば中央ロジスティクス合同会社,,合同会社,東京都,港区,六本木１丁目６番１号泉ガーデンタワー,,13,103,1060032,,,,,,,2025-09-12,1,,,,,ツクバチュウオウロジスティクス,0
2263,9010403036020,新規,0,2025-09-12,2025-09-12,合同会社Ｐｏｎｄｅｒ,,合同会社,東京都,港区,虎ノ門１丁目１番１８号ヒューリック虎ノ門ビル９階Ｌ＆Ｐ司法書士法人内,,13,103,1050001,,,,,,,2025-09-12,1,,,,,ポンダー,0
2264,9010405024741,新規,0,2025-09-12,2025-09-12,つくば中央ロジスティクス一般社団法人,,その他の設立登記法人,東京都,港区,六本木１丁目６番１号泉ガーデンタワー,,13,103,1060032,,,,,,,2025-09-12,1,,,,,ツクバチュウオウロジスティクス,0
2270,9010905004838,新規,0,2025-09-12,2025-09-12,医療法人社団オルソメディ,,その他の設立登記法人,東京都,世田谷区,赤堤５丁目３０番１５号しもたかいどメディカルタウン２階,,13,112,1560044,,,,,,,2025-09-12,1,,,,,オルソメディ,0
2274,9011001171589,新規,0,2025-09-12,2025-09-12,株式会社Ｌｕｎｕａ,,株式会社,東京都,渋谷区,渋谷１丁目１９―１８青山パークタワー３１３,,13,113,1500002,,,,,,,2025-09-12,1,,,,,ルヌア,0
2275,9011001172298,新規,0,2025-09-12,2025-09-12,株式会社あいずみちのく,,株式会社,東京都,渋谷区,神宮前６丁目２３－７木村屋ビル４Ｆ,,13,113,1500001,,,,,,,2025-09-12,1,,,,,アイズミチノク,0
2276,9011001172315,新規,0,2025-09-12,2025-09-12,ディーピングソース・ジャパン株式会社,,株式会社,東京都,渋谷区,神南１丁目１２番１４号,,13,113,1500041,,,,,,,2025-09-12,1,,,,,ディーピングソースジャパン,0
2277,9011003022286,新規,0,2025-09-12,2025-09-12,合同会社ＩＣＥ　ＣＵＬＴＵＲＥ,,合同会社,東京都,渋谷区,恵比寿西２丁目８番４号ＥＸ恵比寿西ビル５階,,13,113,1500021,,,,,,,2025-09-12,1,,,,,アイスカルチャー,0
2280,9011101113045,新規,0,2025-09-12,2025-09-12,株式会社Ｒ＆Ｄ・２ｎｄ,,株式会社,東京都,新宿区,新宿２丁目１１番２号カーサ・ヴェルデ３０２号室,,13,104,1600022,,,,,,,2025-09-12,1,,,,,アールアンドディーセカンド,0
2285,9011205002706,新規,0,2025-09-12,2025-09-12,医療法人社団健香会,,その他の設立登記法人,東京都,中野区,東中野１丁目５５番４号ＯＳｍｅｌｉａ３階,,13,114,1640003,,,,,,,2025-09-12,1,,,,,ケンコウカイ,0
2287,9011401027382,新規,0,2025-09-12,2025-09-12,株式会社ＬＳＧ,,株式会社,東京都,板橋区,板橋２丁目６２－８－３０７,,13,119,1730004,,,,,,,2025-09-12,1,,,,,エルエスジー,0
2288,9011401027399,新規,0,2025-09-12,2025-09-12,株式会社ライズキャピタル,,株式会社,東京都,板橋区,幸町４１番１２号,,13,119,1730034,,,,,,,2025-09-12,1,,,,,ライズキャピタル,0
2290,9011501032555,新規,0,2025-09-12,2025-09-12,ミノアカ株式会社,,株式会社,東京都,北区,滝野川５丁目４１番１号,,13,117,1140023,,,,,,,2025-09-12,1,,,,,ミノアカ,0
2291,9011503006680,新規,0,2025-09-12,2025-09-12,ＺＩＮ　ＷＯＲＬＤ合同会社,,合同会社,東京都,荒川区,西日暮里１丁目４番２３号,,13,118,1160013,,,,,,,2025-09-12,1,,,,,ジンワールド,0
2294,9011701028717,新規,0,2025-09-12,2025-09-12,ＹＵＥＳＯＮＧ株式会社,,株式会社,東京都,江戸川区,東小岩４丁目１３番１１号,,13,123,1330052,,,,,,,2025-09-12,1,,,,,ユウソン,0
2297,9011801046726,新規,0,2025-09-12,2025-09-12,佳徳競売東京株式会社,,株式会社,東京都,足立区,皿沼３丁目１７－５,,13,121,1230862,,,,,,,2025-09-12,1,,,,,カトクケイバイトウキョウ,0
2298,9011803007073,新規,0,2025-09-12,2025-09-12,合同会社野宮,,合同会社,東京都,葛飾区,柴又１丁目４３番１４号,,13,122,1250052,,,,,,,2025-09-12,1,,,,,ノミヤ,0
2306,9021001086290,新規,0,2025-09-12,2025-09-12,株式会社クアトロアール,,株式会社,神奈川県,秦野市,萩が丘３番２２,,14,211,2591325,,,,,,,2025-09-12,1,,,,,クアトロアール,0
2307,9021001086308,新規,0,2025-09-12,2025-09-12,株式会社夢の扉,,株式会社,神奈川県,相模原市中央区,清新２丁目１４番８号,,14,152,2520216,,,,,,,2025-09-12,1,,,,,ユメノトビラ,0
2314,9030001168569,新規,0,2025-09-12,2025-09-12,Ｓｕｍｍｅｒ　Ｓｅａ株式会社,,株式会社,埼玉県,入間市,宮寺２０８２番地６,,11,225,3580014,,,,,,,2025-09-12,1,,,,,サマーシー,0
2315,9030001168585,新規,0,2025-09-12,2025-09-12,株式会社ナイト,,株式会社,埼玉県,蕨市,南町２丁目２９番１２号,,11,223,3350003,,,,,,,2025-09-12,1,,,,,ナイト,0
2316,9030001168610,新規,0,2025-09-12,2025-09-12,建匠テクノス株式会社,,株式会社,埼玉県,八潮市,八潮７丁目３８番５－２０２号,,11,234,3400815,,,,,,,2025-09-12,1,,,,,ケンショウテクノス,0
2317,9030001168651,新規,0,2025-09-12,2025-09-12,株式会社ヴァイブラント,,株式会社,埼玉県,ふじみ野市,鶴ケ岡１丁目１７番１０号－１０３,,11,245,3560045,,,,,,,2025-09-12,1,,,,,ヴァイブラント,0
2322,9030003027541,新規,0,2025-09-12,2025-09-12,こはく合同会社,,合同会社,埼玉県,富士見市,大字水子４８９７番地４５,,11,235,3540011,,,,,,,2025-09-12,1,,,,,コハク,0
2323,9030003027574,新規,0,2025-09-12,2025-09-12,栄和合同会社,,合同会社,埼玉県,戸田市,笹目３丁目１番地の３０,,11,224,3350034,,,,,,,2025-09-12,1,,,,,エイワ,0
2324,9030003027590,新規,0,2025-09-12,2025-09-12,ＥＶＥＲ　ＮＯＯＮ合同会社,,合同会社,埼玉県,さいたま市浦和区,常盤９丁目１７－１５鮎マンション５０２,,11,107,3300061,,,,,,,2025-09-12,1,,,,,エバーヌーン,0
2325,9030003027599,新規,0,2025-09-12,2025-09-12,プレモ合同会社,,合同会社,埼玉県,所沢市,大字下富１１８９番地の３０,,11,208,3590001,,,,,,,2025-09-12,1,,,,,プレモ,0
2326,9030003027608,新規,0,2025-09-12,2025-09-12,合同会社ＨＬＣ,,合同会社,埼玉県,川口市,鳩ヶ谷本町４丁目１２番５号,,11,203,3340002,,,,,,,2025-09-12,1,,,,,エイチエルシー,0
2327,9030003027624,新規,0,2025-09-12,2025-09-12,ＨＡＹＯ合同会社,,合同会社,埼玉県,上尾市,上町１丁目２番２６号Ｃ２Ｆ,,11,219,3620037,,,,,,,2025-09-12,1,,,,,ハヨ,0
2332,9040001140452,新規,0,2025-09-12,2025-09-12,株式会社ガレージ３８,,株式会社,千葉県,銚子市,垣根町１丁目９９番地の３,,12,202,2880835,,,,,,,2025-09-12,1,,,,,ガレージミヤ,0
2333,9040001140469,新規,0,2025-09-12,2025-09-12,株式会社ｎｏｂｉ,,株式会社,千葉県,松戸市,大金平５丁目３６５番地の８,,12,207,2700006,,,,,,,2025-09-12,1,,,,,ノビ,0
2334,9040003028464,新規,0,2025-09-12,2025-09-12,ＪＡＨＡＮ　ＴＲＡＤＩＮＧ合同会社,,合同会社,千葉県,八街市,山田台１７７番地３－２,,12,230,2891124,,,,,,,2025-09-12,1,,,,,ジャハントレーディング,0
2335,9040003028506,新規,0,2025-09-12,2025-09-12,合同会社とらいあんふぁん,,合同会社,千葉県,市原市,国分寺台中央７丁目１２番地５２,,12,219,2900073,,,,,,,2025-09-12,1,,,,,トライアンファン,0
2337,9050001057183,新規,0,2025-09-12,2025-09-12,ＲＥＮＳＥＩ‐Ｘ株式会社,,株式会社,茨城県,下妻市,下妻乙１３２６番地１,,08,210,3040067,,,,,,,2025-09-12,1,,,,,レンセイエックス,0
2343,9070001043347,新規,0,2025-09-12,2025-09-12,株式会社フラックスコア,,株式会社,群馬県,伊勢崎市,昭和町１６４５‐１１ルミエールＩＩ４Ｉ号室,,10,204,3720014,,,,,,,2025-09-12,1,,,,,フラックスコア,0
2344,9070003006079,新規,0,2025-09-12,2025-09-12,合同会社Ｔｒａｖｅｌ　Ｔｏ　Ｂｕｙ　Ｉｎｔｅｒｎａｔｉｏｎａｌ,,合同会社,群馬県,高崎市,小八木町２０３８番地７第一ヨシダサンハイツ２０２号,,10,202,3700071,,,,,,,2025-09-12,1,,,,,トラベルトゥーバイインターナショナル,0
2349,9080101025780,新規,0,2025-09-12,2025-09-12,株式会社石原マネージメント,,株式会社,静岡県,富士市,今泉２８０９番地の１８ア・ラ・モードメゾンＡ－１０１号,,22,210,4170001,,,,,,,2025-09-12,1,,,,,イシハラマネージメント,0
2352,9080403005349,新規,0,2025-09-12,2025-09-12,Ｎｉｐｐｏｎ　Ｃｏｌｌｅｃｔｉｏｎ合同会社,,合同会社,静岡県,湖西市,白須賀字宿南３６２５番地３,,22,221,4310451,,,,,,,2025-09-12,1,,,,,ニッポンコレクション,0
2355,9100001038954,新規,0,2025-09-12,2025-09-12,株式会社ＴＥＲＲＡＬＩＮＫ,,株式会社,長野県,松本市,中央３丁目７番３１号井垣屋テナントＧ号室,,20,202,3900811,,,,,,,2025-09-12,1,,,,,テラリンク,0
2357,9100003008385,新規,0,2025-09-12,2025-09-12,エステート合同会社,,合同会社,長野県,松本市,大字笹賀７６００番地１４,,20,202,3990033,,,,,,,2025-09-12,1,,,,,エステート,0
2366,9120001279497,新規,0,2025-09-12,2025-09-12,株式会社佐々木塗装,,株式会社,大阪府,大阪市東住吉区,公園南矢田３丁目１８番３０号,,27,121,5460024,,,,,,,2025-09-12,1,,,,,ササキトソウ,0
2367,9120001279539,新規,0,2025-09-12,2025-09-12,株式会社ＫＴ　ＡＳＳＥＴ,,株式会社,大阪府,大阪市中央区,上本町西２丁目１－１１－９０１,,27,128,5420062,,,,,,,2025-09-12,1,,,,,ケーティーアセット,0
2368,9120001279547,新規,0,2025-09-12,2025-09-12,祝錦株式会社,,株式会社,大阪府,大阪市西成区,山王２丁目２番２０号永益山王ハイツ２－２０２号,,27,122,5570001,,,,,,,2025-09-12,1,,,,,シュクキン,0
2369,9120001279588,新規,0,2025-09-12,2025-09-12,Ｔ＆Ｒ株式会社,,株式会社,大阪府,大阪市西区,南堀江４丁目３１番５号,,27,106,5500015,,,,,,,2025-09-12,1,,,,,ティーアンドアール,0
2370,9120001279605,新規,0,2025-09-12,2025-09-12,成宇株式会社,,株式会社,大阪府,大阪市東住吉区,田辺１丁目１番６号,,27,121,5460031,,,,,,,2025-09-12,1,,,,,セイウ,0
2371,9120001279687,新規,0,2025-09-12,2025-09-12,株式会社Ａｍｅｒｉｏ,,株式会社,大阪府,大阪市北区,梅田２丁目２番２号ヒルトンプラザウエストオフィスタワー１９階,,27,127,5300001,,,,,,,2025-09-12,1,,,,,アメリオ,0
2373,9120003030494,新規,0,2025-09-12,2025-09-12,鳳凰合同会社,,合同会社,大阪府,大阪市住吉区,遠里小野３丁目３番２５号ロイヤル遠里小野１０２号室,,27,120,5580032,,,,,,,2025-09-12,1,,,,,ホウオウ,0
2375,9120101072414,新規,0,2025-09-12,2025-09-12,ＬＬ　ＯＮＥ株式会社,,株式会社,大阪府,泉南郡熊取町,山の手台１丁目２０番８号,,27,361,5900452,,,,,,,2025-09-12,1,,,,,エルエルワン,0
2376,9120101072422,新規,0,2025-09-12,2025-09-12,株式会社ｓｈｉｎｅ,,株式会社,大阪府,藤井寺市,岡１丁目１５番２８号,,27,226,5830027,,,,,,,2025-09-12,1,,,,,シャイン,0
2377,9120101072430,新規,0,2025-09-12,2025-09-12,株式会社柴田美建,,株式会社,大阪府,泉大津市,池浦町１丁目１２番７－５号,,27,206,5950024,,,,,,,2025-09-12,1,,,,,シバタビケン,0
2391,9130003010792,新規,0,2025-09-12,2025-09-12,Ａｓｉａ　Ｍａｒｔ合同会社,,合同会社,京都府,八幡市,八幡月夜田７番地１－１０１,,26,210,6148047,,,,,,,2025-09-12,1,,,,,アジアマート,0
2392,9130005017456,新規,0,2025-09-12,2025-09-12,よさの作事組協同組合,,その他の設立登記法人,京都府,与謝郡与謝野町,字男山２６５番地,,26,465,6292261,,,,,,,2025-09-12,1,,,,,ヨサノサクジグミ,0
2404,9140005027628,新規,0,2025-09-12,2025-09-12,特定非営利活動法人丹波まちづくりプロジェクト,,その他の設立登記法人,兵庫県,丹波市,氷上町北油良１５６番地,,28,223,6693653,,,,,,,2025-09-12,1,,,,,タンバマチヅクリプロジェクト,0
2407,9180001168579,新規,0,2025-09-12,2025-09-12,株式会社Ｐｅｃａｌｌ,,株式会社,愛知県,名古屋市守山区,大字上志段味字東谷２１０９番地の２５９,,23,113,4630001,,,,,,,2025-09-12,1,,,,,ピカル,0
2408,9180001168612,新規,0,2025-09-12,2025-09-12,株式会社アセンドホールディングス,,株式会社,愛知県,名古屋市中区,丸の内２丁目１９番２９号,,23,106,4600002,,,,,,,2025-09-12,1,,,,,アセンドホールディングス,0
2409,9180001168629,新規,0,2025-09-12,2025-09-12,株式会社ＬＥＣ,,株式会社,愛知県,名古屋市中区,新栄２丁目４番５号東和パークビル４０１号,,23,106,4600007,,,,,,,2025-09-12,1,,,,,レック,0
2415,9200003007030,新規,0,2025-09-12,2025-09-12,ＭＨ　ＩＮＴＥＲＮＡＴＩＯＮＡＬ合同会社,,合同会社,岐阜県,岐阜市,黒野９９番地１ぐりむぎほく１号室,,21,201,5011131,,,,,,,2025-09-12,1,,,,,エムエイチインターナショナル,0
2418,9220003004117,新規,0,2025-09-12,2025-09-12,合同会社癒者乃手,,合同会社,石川県,金沢市,小立野２丁目１４番５,,17,201,9200942,,,,,,,2025-09-12,1,,,,,,0
2423,9260001040548,新規,0,2025-09-12,2025-09-12,株式会社ＭｉＲＩＳＥ,,株式会社,岡山県,岡山市南区,妹尾３９８９番地１０,,33,104,7010205,,,,,,,2025-09-12,1,,,,,ミライズ,0
2426,9260003005342,新規,0,2025-09-12,2025-09-12,合同会社中国経絡整体院,,合同会社,岡山県,美作市,稲穂１４５番地,,33,215,7070051,,,,,,,2025-09-12,1,,,,,チュウゴクケイラクセイタイイン,0
2430,9290001111305,新規,0,2025-09-12,2025-09-12,株式会社ココテラリウム,,株式会社,福岡県,福岡市中央区,高砂２丁目１番４号,,40,133,8100011,,,,,,,2025-09-12,1,,,,,ココテラリウム,0
2431,9290001111321,新規,0,2025-09-12,2025-09-12,ユレスタ株式会社,,株式会社,福岡県,福岡市早良区,百道浜１丁目３番１３－８０７号,,40,137,8140001,,,,,,,2025-09-12,1,,,,,ユレスタ,0
2432,9290003017450,新規,0,2025-09-12,2025-09-12,日光合同会社,,合同会社,福岡県,福岡市博多区,吉塚１丁目２２－８サンシャイン吉塚１０２号,,40,132,8120041,,,,,,,2025-09-12,1,,,,,ニッコウ,0
2435,9300003002335,新規,0,2025-09-12,2025-09-12,合同会社Ｐｉｎｏ,,合同会社,佐賀県,鳥栖市,本鳥栖町２９６番地６,,41,203,8410026,,,,,,,2025-09-12,1,,,,,ピーノ,0
2436,9310001019784,新規,0,2025-09-12,2025-09-12,株式会社トレースレード,,株式会社,長崎県,長崎市,大黒町１０番１０号ＫｏＫｏＲｏビル６１３３号室,,42,201,8500057,,,,,,,2025-09-12,1,,,,,トレースレード,0
2438,9330001033569,新規,0,2025-09-12,2025-09-12,小林株式会社,,株式会社,熊本県,八代市,海士江町２７２０番２,,43,202,8660893,,,,,,,2025-09-12,1,,,,,コバヤシ,0
2440,9340001027652,新規,0,2025-09-12,2025-09-12,株式会社彩嘉フード,,株式会社,鹿児島県,南さつま市,加世田高橋２０７７番地６,,46,220,8971123,,,,,,,2025-09-12,1,,,,,サイカフード,0
2441,9360001035777,新規,0,2025-09-12,2025-09-12,株式会社ＯＳＧ,,株式会社,沖縄県,浦添市,字港川４０４番地,,47,208,9012134,,,,,,,2025-09-12,1,,,,,オーエスジー,0
2445,9370001053051,新規,0,2025-09-12,2025-09-12,株式会社照絹,,株式会社,宮城県,宮城郡利府町,花園２丁目２０番地４,,04,406,9810132,,,,,,,2025-09-12,1,,,,,ショウケイ,0
2450,9370003007286,新規,0,2025-09-12,2025-09-12,合同会社さくら商會,,合同会社,宮城県,仙台市泉区,松陵１丁目９番地の３,,04,105,9813108,,,,,,,2025-09-12,1,,,,,サクラショウカイ,0
2457,9420001019253,新規,0,2025-09-12,2025-09-12,株式会社カラン,,株式会社,青森県,八戸市,河原木１番３号,,02,203,0391161,,,,,,,2025-09-12,1,,,,,カラン,0
2463,9430003018104,新規,0,2025-09-12,2025-09-12,合同会社徳治,,合同会社,北海道,札幌市白石区,川北三条１丁目９番３２号レッドルーフ川北５号,,01,104,0030853,,,,,,,2025-09-12,1,,,,,トクジ,0
2464,9440001009681,新規,0,2025-09-12,2025-09-12,株式会社コバ建,,株式会社,北海道,二海郡八雲町,熊石平町１６０番地,,01,346,0430403,,,,,,,2025-09-12,1,,,,,コバケン,0
2469,9490001011162,新規,0,2025-09-12,2025-09-12,ベルヴィアーノ株式会社,,株式会社,高知県,高知市,新本町１丁目１０番２２号,,39,201,7800062,,,,,,,2025-09-12,1,,,,,ベルヴィアーノ,0
2470,9700150132167,新規,0,2025-09-12,2025-09-12,ｙｏｎｇｋａｎｇｓｈｉ　ｈａｉｌｉｈｏｎｇｃｈｅｎｇ　ｇｏｎｇｍａｏ　ｙｏｕｘｉａｎ　ｇｏｎｇｓｉ,,外国会社等,,,,,,,,Ｎｏ．８０　Ｙｕｅｇｕｉ　Ｓｏｕｔｈ　Ｒｏａｄ，Ｘｉｃｈｅｎｇ　Ｓｔｒｅｅｔ，Ｙｏｎｇｋａｎｇ　Ｃｉｔｙ，Ｚｈｅｊｉａｎｇ　Ｐｒｏｖｉｎｃｅ，Ｃｈｉｎａ,,,,,,2025-09-12,1,,,,,ヨンカンシーハイリーホンチョンゴンマオヨウシエンゴンスー,0
