sequenceNumber,corporateNumber,process,correct,updateDate,changeDate,name,nameImageId,kind,prefectureName,cityName,streetNumber,addressImageId,prefectureCode,cityCode,postCode,addressOutside,addressOutsideImageId,closeDate,closeCause,successorCorporateNumber,changeCause,assignmentDate,latest,enName,enPrefectureName,enCityName,enAddressOutside,furigana,hihyoji
2,1010001062401,登記記録の閉鎖等,0,2025-07-04,2025-06-11,日本紐釦株式会社,,株式会社,東京都,中央区,日本橋横山町５番８号,,13,102,1030003,,,2025-06-11,清算の結了等,,,2015-10-05,1,,,,,ニホンチュウコウ,0
48,1011601027132,登記記録の閉鎖等,0,2025-07-04,2025-06-25,株式会社さいとうコンシェルジュ,,株式会社,東京都,練馬区,桜台５丁目４４番１８号,,13,120,1760002,,,2025-06-25,清算の結了等,,,2023-09-22,1,,,,,サイトウコンシェルジュ,0
50,1012301009791,登記記録の閉鎖等,0,2025-07-04,2025-06-26,株式会社ウィリアムマーシャル,,株式会社,神奈川県,横浜市保土ケ谷区,法泉２丁目６番１９号,,14,106,2400032,,,2025-06-26,清算の結了等,,,2015-10-05,1,,,,,ウィリアムマーシャル,0
80,1030001081944,登記記録の閉鎖等,0,2025-07-04,2025-06-27,株式会社黒田工業,,株式会社,埼玉県,川口市,上青木３丁目１０番２２号,,11,203,3330844,,,2025-06-27,清算の結了等,,,2015-10-05,1,,,,,クロダコウギョウ,0
81,1030001095903,登記記録の閉鎖等,0,2025-07-04,2025-06-27,株式会社ブレーンズ,,株式会社,埼玉県,さいたま市浦和区,高砂１丁目２番１－１１０号,,11,107,3300063,,,2025-06-27,清算の結了等,,,2015-10-05,1,,,,,ブレーンズ,0
93,1040001071721,登記記録の閉鎖等,0,2025-07-04,2025-06-17,株式会社ヤマトリビルト,,株式会社,千葉県,野田市,木間ケ瀬４８８２番地１,,12,208,2700222,,,2025-06-17,清算の結了等,,,2015-10-05,1,,,,,ヤマトリビルト,0
117,1090001002374,登記記録の閉鎖等,0,2025-07-04,2025-06-30,株式会社山交友の会,,株式会社,山梨県,甲府市,丸の内２丁目１４番１３号２階,,19,201,4000031,,,2025-06-30,清算の結了等,,,2015-10-05,1,,,,,ヤマコウトモノカイ,0
121,1100001006134,登記記録の閉鎖等,0,2025-07-04,2025-07-01,株式会社コック・フーズ,,株式会社,長野県,千曲市,大字屋代１２６９番地,,20,218,3870007,,,2025-07-01,合併による解散等,8100001009849,令和７年７月１日長野県上田市下塩尻９５０番地信州ハム株式会社（8100001009849）に合併し解散,2015-10-05,1,,,,,コックフーズ,0
125,1110005003102,登記記録の閉鎖等,0,2025-07-04,2025-06-19,ＮＰＯ法人新潟都市づくり２１,,その他の設立登記法人,新潟県,新潟市中央区,南笹口１丁目８番６３号第２駅南ハイツ５０９号,,15,103,9500912,,,2025-06-19,清算の結了等,,,2015-10-05,1,,,,,ニイガタマチヅクリニジュウイチ,0
156,1140001077989,登記記録の閉鎖等,0,2025-07-04,2025-06-26,伊丹くれたけビル株式会社,,株式会社,兵庫県,伊丹市,西台１丁目５番２１号,,28,207,6640858,,,2025-06-26,清算の結了等,,,2015-10-05,1,,,,,イタミクレタケ,0
182,1180301023474,登記記録の閉鎖等,0,2025-07-04,2025-06-18,イタクラファインテック株式会社,,株式会社,愛知県,西尾市,つくしが丘４丁目２番４号,,23,213,4450014,,,2025-06-18,清算の結了等,,,2015-10-05,1,,,,,イタクラファインテック,0
187,1190002017782,登記記録の閉鎖等,0,2025-07-04,2025-06-26,中村電気土木有限会社,,有限会社,三重県,員弁郡東員町,大字大木２５６０番地,,24,324,5110244,,,2025-06-26,清算の結了等,,,2024-10-03,1,,,,,ナカムラデンキドボク,0
202,1260002014896,登記記録の閉鎖等,0,2025-07-04,2025-06-20,有限会社双伸電工,,有限会社,岡山県,赤磐市,奥吉原１５３番地,,33,213,7090713,,,2025-06-20,清算の結了等,,,2015-10-05,1,,,,,ソウシンデンコウ,0
211,1290001079748,登記記録の閉鎖等,0,2025-07-04,2025-06-23,ｏｍｏｒｏｉ株式会社,,株式会社,福岡県,久留米市,東町３９－２７　３０２号,,40,203,8300032,,,2025-06-23,清算の結了等,,,2017-11-24,1,,,,,オモロイ,0
213,1290002054171,登記記録の閉鎖等,0,2025-07-04,2025-06-20,有限会社吉本家具研装,,有限会社,福岡県,大川市,大字上白垣８３番地の１,,40,212,8310012,,,2025-06-20,清算の結了等,,,2015-10-05,1,,,,,ヨシモトカグケンソウ,0
227,1360002012568,登記記録の閉鎖等,0,2025-07-04,2025-06-25,有限会社安弘,,有限会社,沖縄県,沖縄市,園田３丁目７番２６号,,47,211,9040022,,,2025-06-25,清算の結了等,,,2015-10-05,1,,,,,ヤスヒロ,0
239,1400005008039,登記記録の閉鎖等,0,2025-07-04,2025-06-18,特定非営利活動法人たきざわ元村,,その他の設立登記法人,岩手県,滝沢市,穴口２２４番２７,,03,216,0200633,,,2025-06-18,清算の結了等,,,2020-02-26,1,,,,,タキザワモトムラ,0
242,1420001013593,登記記録の閉鎖等,0,2025-07-04,2025-06-23,株式会社さくら工業,,株式会社,青森県,むつ市,大字田名部字品ノ木３４番地５３,,02,208,0350021,,,2025-06-23,清算の結了等,,,2015-10-05,1,,,,,サクラコウギョウ,0
247,1430005003862,登記記録の閉鎖等,0,2025-07-04,2025-06-24,特定非営利活動法人マイストリート,,その他の設立登記法人,北海道,札幌市豊平区,中の島一条２丁目２番１５号ＮＩＰＰＯ札幌ビル内,,01,105,0620921,,,2025-06-24,清算の結了等,,,2015-10-05,1,,,,,マイストリート,0
254,2010001132046,登記記録の閉鎖等,0,2025-07-04,2025-06-17,株式会社ＤＣＪ,,株式会社,東京都,中央区,日本橋本町２丁目８番６号,,13,102,1030023,,,2025-06-17,清算の結了等,,,2015-10-05,1,,,,,ディーシージェー,0
266,2010401162915,登記記録の閉鎖等,0,2025-07-04,2025-07-02,マフテックグループ株式会社,,株式会社,東京都,千代田区,丸の内１丁目６番５号,,13,101,1000005,,,2025-07-02,合併による解散等,2010401162881,令和７年６月３０日東京都港区虎ノ門二丁目１０番４号オークラプレステージタワーマフテックグループ株式会社（2010401162881）に合併し解散,2021-09-28,1,,,,,マフテックグループ,0
276,2010701046339,登記記録の閉鎖等,0,2025-07-04,2025-06-06,エクシブパートナーズ株式会社,,株式会社,東京都,目黒区,自由が丘２丁目１６番１２号ＲＪ３,,13,110,1520035,,,2025-06-06,清算の結了等,,,2024-08-01,1,,,,,エクシブパートナーズ,0
279,2010801003504,登記記録の閉鎖等,0,2025-07-04,2025-06-06,株式会社ＴＡＫＥ　ＯＦＦ７,,株式会社,東京都,渋谷区,渋谷１丁目１番１６号,,13,113,1500002,,,2025-06-06,清算の結了等,,,2015-10-05,1,,,,,テイクオフセブン,0
338,2030001040560,登記記録の閉鎖等,0,2025-07-04,2025-06-09,株式会社オクトパスアーミー,,株式会社,東京都,渋谷区,神宮前３丁目３２番１号,,13,113,1500001,,,2025-06-09,清算の結了等,,,2015-10-05,1,,,,,オクトパスアーミー,0
362,2080101019806,登記記録の閉鎖等,0,2025-07-04,2025-06-27,株式会社丸川,,株式会社,静岡県,富士市,今泉２丁目１２番５－９号,,22,210,4170001,,,2025-06-27,清算の結了等,,,2017-05-18,1,,,,,,0
366,2100001026916,登記記録の閉鎖等,0,2025-07-04,2025-07-01,株式会社ヨーシャボックス,,株式会社,長野県,岡谷市,天竜町２丁目４番１号,,20,204,3940035,,,2025-07-01,清算の結了等,,,2015-10-05,1,,,,,ヨーシャボックス,0
372,2120001110148,登記記録の閉鎖等,0,2025-07-04,2025-06-27,喜連住宅株式会社,,株式会社,大阪府,大阪市平野区,喜連５丁目１番４０号,,27,126,5470027,,,2025-06-27,清算の結了等,,,2015-10-05,1,,,,,キレジュウタク,0
389,2140001063212,登記記録の閉鎖等,0,2025-07-04,2025-06-30,株式会社ナショナルコーポレーション,,株式会社,兵庫県,姫路市,飾磨区阿成鹿古３３６番地２,,28,201,6728038,,,2025-06-30,清算の結了等,,,2015-10-05,1,,,,,,0
390,2140001069176,登記記録の閉鎖等,0,2025-07-04,2025-06-30,誠宏建設株式会社,,株式会社,兵庫県,西宮市,上甲子園３丁目２番１２号,,28,204,6638114,,,2025-06-30,清算の結了等,,,2015-10-05,1,,,,,セイコウケンセツ,0
394,2140002022547,登記記録の閉鎖等,0,2025-07-04,2025-06-30,アットライン有限会社,,有限会社,兵庫県,神戸市中央区,磯上通４丁目１番３２－４０３号,,28,110,6510086,,,2025-06-30,清算の結了等,,,2015-10-05,1,,,,,アットライン,0
414,2180302017020,登記記録の閉鎖等,0,2025-07-04,2025-06-26,有限会社ナカネ鋼機,,有限会社,愛知県,安城市,宇頭茶屋町大浜屋敷１３番地,,23,212,4460005,,,2025-06-26,清算の結了等,,,2015-10-05,1,,,,,ナカネコウキ,0
417,2200001002353,登記記録の閉鎖等,0,2025-07-04,2025-06-30,澤商機器株式会社,,株式会社,岐阜県,岐阜市,野一色７丁目５番１９号,,21,201,5008226,,,2025-06-30,清算の結了等,,,2015-10-05,1,,,,,サワショウキキ,0
439,2270001002421,登記記録の閉鎖等,0,2025-07-04,2025-06-30,やず市場株式会社,,株式会社,鳥取県,八頭郡八頭町,宮谷２４９番地３,,31,329,6800463,,,2025-06-30,合併による解散等,3270001001133,令和７年６月３０日鳥取市徳尾１８９番地１グレース株式会社（3270001001133）に合併し解散,2015-10-05,1,,,,,ヤズイチバ,0
446,2290001069896,登記記録の閉鎖等,0,2025-07-04,2025-06-23,株式会社エクセレント,,株式会社,福岡県,筑後市,大字長崎３４９番地１,,40,211,8330042,,,2025-06-23,清算の結了等,,,2015-10-05,1,,,,,エクセレント,0
458,2300002010270,登記記録の閉鎖等,0,2025-07-04,2025-06-30,有限会社木崎商店,00095415,有限会社,佐賀県,唐津市,鏡新開２６番地,,41,202,8470028,,,2025-06-30,清算の結了等,,,2015-10-05,1,,,,,キサキショウテン,0
459,2310001013620,登記記録の閉鎖等,0,2025-07-04,2025-06-27,株式会社鎗分電機工業,,株式会社,長崎県,佐世保市,若竹台町３３７番地,,42,202,8593204,,,2025-06-27,清算の結了等,,,2015-10-05,1,,,,,ヤリワケデンキコウギョウ,0
470,2340003002338,登記記録の閉鎖等,0,2025-07-04,2025-06-25,シンボルフードサービス南九州合同会社,,合同会社,鹿児島県,鹿児島市,下伊敷１丁目５０番３０号徳重ビル２階,,46,201,8900005,,,2025-06-25,清算の結了等,,,2017-05-17,1,,,,,シンボルフードサービスミナミキュウシュウ,0
479,2370001024983,登記記録の閉鎖等,0,2025-07-04,2025-06-20,株式会社ＳＹＤ,,株式会社,宮城県,仙台市泉区,住吉台東４丁目１９番地の３,,04,105,9813222,,,2025-06-20,清算の結了等,,,2015-10-05,1,,,,,エスワイディ,0
500,2470002000643,登記記録の閉鎖等,0,2025-07-04,2025-06-30,有限会社安全タクシー,,有限会社,香川県,高松市,勅使町２４番地１１,,37,201,7618058,,,2025-06-30,清算の結了等,,,2015-10-05,1,,,,,アンゼンタクシー,0
504,3010001124067,登記記録の閉鎖等,0,2025-07-04,2025-07-02,ギンザＢＢ株式会社,,株式会社,東京都,中央区,銀座１丁目２２番１１号,,13,102,1040061,,,2025-07-02,合併による解散等,9010001139019,令和７年６月２０日長野市大字安茂里５２６番地６３株式会社ティースリー（9010001139019）に合併し解散,2015-10-05,1,,,,,,0
529,3011001136119,登記記録の閉鎖等,0,2025-07-04,2025-06-09,株式会社オンスイート,,株式会社,東京都,渋谷区,上原１丁目３６番１５号,,13,113,1510064,,,2025-06-09,清算の結了等,,,2020-10-05,1,,,,,オンスイート,0
535,3011003018199,登記記録の閉鎖等,0,2025-07-04,2025-06-06,合同会社アガスティア愛の家,,合同会社,東京都,渋谷区,富ヶ谷２丁目２６番１６号１０１号室,,13,113,1510063,,,2025-06-06,清算の結了等,,,2024-01-04,1,,,,,アガスティアアイノイエ,0
543,3011502007017,登記記録の閉鎖等,0,2025-07-04,2025-06-30,有限会社イズモ企画,,有限会社,東京都,荒川区,東尾久３丁目３番１０－５０２号中野マンション,,13,118,1160012,,,2025-06-30,清算の結了等,,,2015-10-05,1,,,,,イズモキカク,0
556,3012403002610,登記記録の閉鎖等,0,2025-07-04,2025-06-27,合同会社日本パルフォン社,,合同会社,東京都,府中市,新町３丁目３０番地の５４,,13,206,1830052,,,2025-06-27,清算の結了等,,,2016-01-13,1,,,,,ニホンパルフォンシャ,0
560,3013301002223,登記記録の閉鎖等,0,2025-07-04,2025-06-24,カクシン電機株式会社,,株式会社,東京都,豊島区,南大塚２丁目３２番４号,00066810,13,116,1700005,,,2025-06-24,清算の結了等,,,2015-10-05,1,,,,,カクシンデンキ,0
572,3020005015492,登記記録の閉鎖等,0,2025-07-04,2025-06-30,一般社団法人日本カウンセリング協会,,その他の設立登記法人,神奈川県,横浜市港南区,港南６丁目１８番１４号,,14,111,2330003,,,2025-06-30,清算の結了等,,,2022-04-14,1,,,,,ニホンカウンセリングキョウカイ,0
574,3021001034981,登記記録の閉鎖等,0,2025-07-04,2025-06-18,株式会社ビラ・クリーン,,株式会社,神奈川県,足柄下郡湯河原町,吉浜１９２１番地の６３,,14,384,2590312,,,2025-06-18,清算の結了等,,,2015-10-05,1,,,,,ビラクリーン,0
577,3021002054236,登記記録の閉鎖等,0,2025-07-04,2025-06-30,有限会社セルフケア,,有限会社,神奈川県,小田原市,鴨宮３４２番６,,14,206,2500874,,,2025-06-30,清算の結了等,,,2015-10-05,1,,,,,セルフケア,0
599,3040002029353,登記記録の閉鎖等,0,2025-07-04,2025-06-18,有限会社写真スタジオヒロタ,,有限会社,千葉県,八千代市,ゆりのき台５丁目１番１号イーグル八千代１階,,12,221,2760042,,,2025-06-18,清算の結了等,,,2015-10-05,1,,,,,シャシンスタジオヒロタ,0
602,3050001046943,登記記録の閉鎖等,0,2025-07-04,2025-06-27,株式会社Ｎメンテナンス,,株式会社,茨城県,水戸市,けやき台３丁目６番地の１スカイヒルズ２０１号室,,08,201,3100842,,,2025-06-27,清算の結了等,,,2019-12-20,1,,,,,エヌメンテナンス,0
621,3110001032292,登記記録の閉鎖等,0,2025-07-04,2025-06-19,傳建設株式会社,,株式会社,新潟県,新潟市北区,大迎７５２番地８,,15,101,9503364,,,2025-06-19,清算の結了等,,,2017-04-13,1,,,,,デンケンセツ,0
657,3150001023726,登記記録の閉鎖等,0,2025-07-04,2025-07-01,株式会社あづま,,株式会社,奈良県,奈良市,東九条町１２７番地の１,,29,201,6308144,,,2025-07-01,合併による解散等,1150001016038,令和７年７月１日奈良県吉野郡吉野町大字新子３１７番地株式会社桶谷ホールディングス（1150001016038）に合併し解散,2020-05-08,1,,,,,アヅマ,0
669,3180005019429,登記記録の閉鎖等,0,2025-07-04,2025-06-25,東海エンタープライズ協同組合,,その他の設立登記法人,岐阜県,岐阜市,八代１丁目１３番地１０,,21,201,5020812,,,2025-06-25,清算の結了等,,,2021-09-09,1,,,,,トウカイエンタープライズ,0
670,3180005020089,登記記録の閉鎖等,0,2025-07-04,2025-06-25,特定非営利活動法人アイビー,,その他の設立登記法人,愛知県,名古屋市守山区,森孝東２丁目８１４番地森孝西住宅１棟１００２号,,23,113,4630033,,,2025-06-25,清算の結了等,,,2023-01-26,1,,,,,アイビー,0
672,3190002010026,登記記録の閉鎖等,0,2025-07-04,2025-06-25,有限会社ラ・セーヌ・コーポレーション,,有限会社,三重県,伊勢市,一之木５丁目６番２２号,,24,203,5160071,,,2025-06-25,清算の結了等,,,2015-10-05,1,,,,,ラセーヌコーポレーション,0
698,3290001007070,登記記録の閉鎖等,0,2025-07-04,2025-06-20,株式会社紀祥建設,,株式会社,福岡県,福岡市中央区,六本松１丁目４番２０号,,40,133,8100044,,,2025-06-20,清算の結了等,,,2015-10-05,1,,,,,キショウケンセツ,0
705,3290002048642,登記記録の閉鎖等,0,2025-07-04,2025-06-23,觀光商事有限会社,,有限会社,福岡県,久留米市,六ツ門町２番地の７,,40,203,8300031,,,2025-06-23,清算の結了等,,,2015-10-05,1,,,,,カンコウショウジ,0
709,3300001006153,登記記録の閉鎖等,0,2025-07-04,2025-06-30,株式会社協和銘木,,株式会社,佐賀県,鳥栖市,松原町１７６０番地,,41,203,8410027,,,2025-06-30,清算の結了等,,,2015-10-05,1,,,,,キョウワメイボク,0
716,3340003002337,登記記録の閉鎖等,0,2025-07-04,2025-06-25,シンボルフードサービス宮崎合同会社,,合同会社,鹿児島県,鹿児島市,下伊敷１丁目５０番３０号徳重ビル２階,,46,201,8900005,,,2025-06-25,清算の結了等,,,2017-05-17,1,,,,,シンボルフードサービスミヤザキ,0
727,3370002006724,登記記録の閉鎖等,0,2025-07-04,2025-06-23,有限会社伊藤架設,,有限会社,宮城県,仙台市宮城野区,原町４丁目８番１－５０５号,,04,102,9830841,,,2025-06-23,清算の結了等,,,2015-10-05,1,,,,,イトウカセツ,0
728,3370002015709,登記記録の閉鎖等,0,2025-07-04,2025-06-24,有限会社アスキット,,有限会社,宮城県,仙台市泉区,北中山２丁目２０番地の１２,,04,105,9813215,,,2025-06-24,清算の結了等,,,2015-10-05,1,,,,,アスキット,0
738,3400002004146,登記記録の閉鎖等,0,2025-07-04,2025-06-19,有限会社アパートメントストア,,有限会社,岩手県,滝沢市,野沢６２番地８７,,03,216,0200622,,,2025-06-19,清算の結了等,,,2015-10-05,1,,,,,アパートメントストア,0
745,3420001013229,登記記録の閉鎖等,0,2025-07-04,2025-06-25,株式会社ＳＫライフ,,株式会社,青森県,つがる市,木造善積藤田１８番地１,,02,209,0383271,,,2025-06-25,清算の結了等,,,2015-10-05,1,,,,,,0
756,3450002007227,登記記録の閉鎖等,0,2025-07-04,2025-06-27,有限会社プラスウィン,,有限会社,北海道,旭川市,春光一条７丁目１番５号,,01,204,0700871,,,2025-06-27,清算の結了等,,,2015-10-05,1,,,,,プラスウィン,0
762,4010001070748,登記記録の閉鎖等,0,2025-07-04,2025-06-11,株式会社インターワン,,株式会社,東京都,文京区,本郷４丁目１７番８号,,13,105,1130033,,,2025-06-11,清算の結了等,,,2015-10-05,1,,,,,インターワン,0
766,4010001255209,登記記録の閉鎖等,0,2025-07-04,2025-06-30,アクティヴホールディングス２株式会社,,株式会社,東京都,千代田区,平河町２丁目１６番９号永田町グラスゲート６階ＡＣＡ株式会社内,,13,101,1020093,,,2025-06-30,合併による解散等,3010001250771,令和７年６月３０日東京都千代田区平河町二丁目１６番９号永田町グラスゲート６階ＡＣＡ株式会社内アクティヴホールディングス株式会社（3010001250771）に合併し解散,2025-05-21,1,,,,,アクティヴホールディングスツー,0
769,4010003034230,登記記録の閉鎖等,0,2025-07-04,2025-06-17,合同会社ウリィジップ２,,合同会社,東京都,千代田区,丸の内１丁目４番１号東京共同会計事務所内,,13,101,1000005,,,2025-06-17,清算の結了等,,,2021-02-24,1,,,,,ウリィジップツー,0
778,4010401079884,登記記録の閉鎖等,0,2025-07-04,2025-06-30,株式会社プロスパーコーポレーション,,株式会社,東京都,足立区,東和４丁目１番１５号,,13,121,1200003,,,2025-06-30,清算の結了等,,,2015-10-05,1,,,,,プロスパーコーポレーション,0
781,4010401172573,登記記録の閉鎖等,0,2025-07-04,2025-06-17,ゴールドマイン株式会社,,株式会社,東京都,港区,赤坂９丁目１番７号,,13,103,1070052,,,2025-06-17,清算の結了等,,,2023-02-16,1,,,,,ゴールドマイン,0
790,4010602010227,登記記録の閉鎖等,0,2025-07-04,2025-06-27,有限会社川田印刷所,,有限会社,東京都,墨田区,東向島２丁目２５番９号,,13,107,1310032,,,2025-06-27,清算の結了等,,,2015-10-05,1,,,,,,0
792,4010605002477,登記記録の閉鎖等,0,2025-07-04,2025-06-24,特定非営利活動法人すみだの江戸検定委員会,,その他の設立登記法人,東京都,墨田区,緑２丁目５番６号株式会社盛栄堂印刷所,,13,107,1300021,,,2025-06-24,清算の結了等,,,2015-10-05,1,,,,,スミダノエドケンテイイインカイ,0
806,4011001138007,登記記録の閉鎖等,0,2025-07-04,2025-05-30,株式会社ＣｌａｓｓＢｌｕｅ,,株式会社,東京都,渋谷区,円山町６番７号,,13,113,1500044,,,2025-05-30,清算の結了等,,,2021-01-15,1,,,,,クラスブルー,0
808,4011001159102,登記記録の閉鎖等,0,2025-07-04,2025-06-06,株式会社ブロックト,,株式会社,東京都,渋谷区,神南１丁目２３番１０号４Ｆ・ＭＡＧＮＥＴｂｙＳＨＩＢＵＹＡ１０９,,13,113,1500041,,,2025-06-06,清算の結了等,,,2023-12-27,1,,,,,ブロックト,0
819,4011101080686,登記記録の閉鎖等,0,2025-07-04,2025-05-30,株式会社ダイコウ,,株式会社,東京都,渋谷区,桜丘町４－１４ＶＯＲＴ渋谷桜丘ビル５Ｆ,,13,113,1500031,,,2025-05-30,清算の結了等,,,2017-05-31,1,,,,,ダイコウ,0
820,4011101098935,登記記録の閉鎖等,0,2025-07-04,2025-06-27,ＡＴＯＸＩＯＳ株式会社,,株式会社,東京都,江東区,東砂８丁目１９番４号,,13,108,1360074,,,2025-06-27,清算の結了等,,,2022-05-25,1,,,,,アトシオス,0
851,4012801022309,登記記録の閉鎖等,0,2025-07-04,2025-06-24,株式会社アズアーキテクト,,株式会社,東京都,立川市,錦町４丁目４番２号,,13,202,1900022,,,2025-06-24,清算の結了等,,,2023-04-27,1,,,,,アズアーキテクト,0
869,4021001001072,登記記録の閉鎖等,0,2025-07-04,2025-06-30,柴田工業株式会社湘南店,,株式会社,神奈川県,南足柄市,和田河原２４６番地２,,14,217,2500112,,,2025-06-30,清算の結了等,,,2015-10-05,1,,,,,シバタコウギョウショウナンテン,0
874,4021002063780,登記記録の閉鎖等,0,2025-07-04,2025-06-27,有限会社木村茂商店,,有限会社,神奈川県,横須賀市,汐入町３丁目７６番地,,14,201,2380042,,,2025-06-27,清算の結了等,,,2015-10-05,1,,,,,キムラシゲルショウテン,0
892,4030002030195,登記記録の閉鎖等,0,2025-07-04,2025-06-25,有限会社千葉工業,,有限会社,埼玉県,所沢市,東所沢２丁目２７番地の１３,,11,208,3590021,,,2025-06-25,清算の結了等,,,2015-10-05,1,,,,,チバコウギョウ,0
893,4030002038098,登記記録の閉鎖等,0,2025-07-04,2025-06-27,有限会社埼伸工業,,有限会社,埼玉県,さいたま市岩槻区,大字金重９４番地４,,11,110,3390075,,,2025-06-27,清算の結了等,,,2015-10-05,1,,,,,サイシンコウギョウ,0
894,4030002044105,登記記録の閉鎖等,0,2025-07-04,2025-06-30,有限会社小城商店,,有限会社,埼玉県,草加市,松江６丁目８番３号,,11,221,3400013,,,2025-06-30,清算の結了等,,,2015-10-05,1,,,,,コシロショウテン,0
901,4040002039665,登記記録の閉鎖等,0,2025-07-04,2025-06-19,有限会社保田建工,,有限会社,千葉県,市川市,妙典２丁目７番１１号,,12,203,2720111,,,2025-06-19,清算の結了等,,,2015-10-05,1,,,,,,0
912,4080002012981,登記記録の閉鎖等,0,2025-07-04,2025-06-20,有限会社磯部塗装,,有限会社,静岡県,静岡市清水区,蒲原中２６１番地の２,,22,103,4213213,,,2025-06-20,清算の結了等,,,2015-10-05,1,,,,,イソベトソウ,0
916,4100001010190,登記記録の閉鎖等,0,2025-07-04,2025-07-01,日無工芸株式会社,,株式会社,長野県,上田市,踏入２丁目１０番１９号,,20,203,3860017,,,2025-07-01,合併による解散等,1100001002587,令和７年７月１日長野市稲里町１１６３番地長野日本無線マニュファクチャリング株式会社（1100001002587）に合併し解散,2015-10-05,1,,,,,ニチムコウゲイ,0
917,4100001023754,登記記録の閉鎖等,0,2025-07-04,2025-06-30,株式会社江都家,,株式会社,長野県,長野市,大字風間５２５番地１,,20,201,3810023,,,2025-06-30,清算の結了等,,,2015-10-05,1,,,,,エドヤ,0
920,4110001027746,登記記録の閉鎖等,0,2025-07-04,2025-06-18,株式会社サン・ビ佐渡,,株式会社,新潟県,佐渡市,秋津８７番地,,15,224,9520021,,,2025-06-18,清算の結了等,,,2015-10-05,1,,,,,サンビサド,0
950,4180001068180,登記記録の閉鎖等,0,2025-07-04,2025-06-20,株式会社コンサテック,,株式会社,愛知県,長久手市,久保山１７０５番地８,,23,238,4801151,,,2025-06-20,清算の結了等,,,2015-10-05,1,,,,,コンサテック,0
1004,4340003002336,登記記録の閉鎖等,0,2025-07-04,2025-06-25,シンボルフードサービス薩摩合同会社,00110215,合同会社,鹿児島県,鹿児島市,下伊敷１丁目５０番３０号徳重ビル２階,,46,201,8900005,,,2025-06-25,清算の結了等,,,2017-05-17,1,,,,,シンボルフードサービスサツマ,0
1010,4370501000284,登記記録の閉鎖等,0,2025-07-04,2025-06-23,株式会社菅原製材所,,株式会社,宮城県,気仙沼市,本吉町津谷松岡２４番地２,,04,205,9880308,,,2025-06-23,清算の結了等,,,2015-10-05,1,,,,,スガワラセイザイショ,0
1011,4390001006103,登記記録の閉鎖等,0,2025-07-04,2025-06-23,株式会社エメニクスオオイ,,株式会社,山形県,酒田市,浜田１丁目９番３０号,,06,204,9980031,,,2025-06-23,清算の結了等,,,2015-10-05,1,,,,,エメニクスオオイ,0
1024,4460101003777,登記記録の閉鎖等,0,2025-07-04,2025-06-30,株式会社ヒューマンリンクス,,株式会社,北海道,帯広市,西十五条南１２丁目１番地４５,,01,207,0800025,,,2025-06-30,清算の結了等,,,2015-10-05,1,,,,,ヒューマンリンクス,0
1025,4460102006960,登記記録の閉鎖等,0,2025-07-04,2025-06-30,有限会社栄農場,,有限会社,北海道,河西郡中札内村,東一条南２丁目１４番地,,01,638,0891341,,,2025-06-30,清算の結了等,,,2015-10-05,1,,,,,サカエノウジョウ,0
1061,5010405021552,登記記録の閉鎖等,0,2025-07-04,2025-06-16,ＲＢソーラーアテネホールディングス一般社団法人,,その他の設立登記法人,東京都,港区,虎ノ門３丁目２２番１０－２０１号,,13,103,1050001,,,2025-06-16,清算の結了等,,,2022-11-07,1,,,,,アールビーソーラーアテネホールディングス,0
1072,5011001028339,登記記録の閉鎖等,0,2025-07-04,2025-06-09,株式会社オールアンドオール,,株式会社,東京都,渋谷区,幡ヶ谷３丁目５５番５号,,13,113,1510072,,,2025-06-09,清算の結了等,,,2015-10-05,1,,,,,,0
1118,5021002031274,登記記録の閉鎖等,0,2025-07-04,2025-07-01,有限会社かない動物病院,,有限会社,神奈川県,厚木市,妻田北１丁目６番１１号,,14,212,2430812,,,2025-07-01,清算の結了等,,,2015-10-05,1,,,,,カナイドウブツビョウイン,0
1135,5040001078928,登記記録の閉鎖等,0,2025-07-04,2025-06-18,株式会社エムズ,,株式会社,千葉県,船橋市,南本町２８番２１号,,12,204,2730004,,,2025-06-18,清算の結了等,,,2015-10-05,1,,,,,エムズ,0
1141,5040002033106,登記記録の閉鎖等,0,2025-07-04,2025-06-18,大野設計有限会社,,有限会社,千葉県,市川市,相之川２丁目１３番１２号,,12,203,2720143,,,2025-06-18,清算の結了等,,,2015-10-05,1,,,,,オオノセッケイ,0
1156,5090002004390,登記記録の閉鎖等,0,2025-07-04,2025-07-01,有限会社田島農場,,有限会社,山梨県,中央市,西新居３３１番地の２,,19,214,4093802,,,2025-07-01,清算の結了等,,,2015-10-05,1,,,,,タジマノウジョウ,0
1169,5120002080511,登記記録の閉鎖等,0,2025-07-04,2025-06-25,有限会社當瀬電機,,有限会社,大阪府,門真市,岸和田３丁目３０番１９号,,27,223,5710002,,,2025-06-25,清算の結了等,,,2015-10-05,1,,,,,トウセデンキ,0
1183,5140002059768,登記記録の閉鎖等,0,2025-07-04,2025-06-30,株式会社東城建設,,株式会社,兵庫県,西宮市,森下町９番２２－１０５号,,28,204,6620846,,,2025-06-30,合併による解散等,3140001067798,令和７年６月３０日兵庫県西宮市中前田町３番４号株式会社アスタカ（3140001067798）に合併し解散,2015-10-05,1,,,,,トウジョウケンセツ,0
1255,5340003002335,登記記録の閉鎖等,0,2025-07-04,2025-06-25,シンボルフードサービス大隅合同会社,,合同会社,鹿児島県,鹿児島市,下伊敷１丁目５０番３０号徳重ビル２階,,46,201,8900005,,,2025-06-25,清算の結了等,,,2017-05-17,1,,,,,シンボルフードサービスオオスミ,0
1265,5390003001489,登記記録の閉鎖等,0,2025-07-04,2025-06-20,アピーネ合同会社,,合同会社,山形県,西村山郡朝日町,大字宮宿３０５番地の１,,06,323,9901442,,,2025-06-20,清算の結了等,,,2017-12-25,1,,,,,アピーネ,0
1282,5490005002095,登記記録の閉鎖等,0,2025-07-04,2025-06-30,奥屋内生産森林組合,,その他の設立登記法人,高知県,四万十市,西土佐奥屋内９０１番地１,,39,210,7871326,,,2025-06-30,清算の結了等,,,2015-10-05,1,,,,,オクヤナイ,0
1287,6010001239325,登記記録の閉鎖等,0,2025-07-04,2025-06-13,ＺｅｒｏＥｍｉｓｓｉｏｎｓ株式会社,,株式会社,東京都,中央区,日本橋室町１丁目２番６号日本橋大栄ビル７階,,13,102,1030022,,,2025-06-13,清算の結了等,,,2023-10-20,1,,,,,ゼロエミッション,0
1288,6010002043172,登記記録の閉鎖等,0,2025-07-04,2025-07-02,有限会社広畑大津キャピタル,,有限会社,東京都,千代田区,丸の内１丁目４番１号東京共同会計事務所内,,13,101,1000005,,,2025-07-02,合併による解散等,8010401055238,令和７年７月１日東京都港区赤坂一丁目８番１号日鉄興和不動産株式会社（8010401055238）に合併し解散,2015-10-05,1,,,,,ヒロハタオオツキャピタル,0
1289,6010003034229,登記記録の閉鎖等,0,2025-07-04,2025-06-17,合同会社ウリィジップ１,,合同会社,東京都,千代田区,丸の内１丁目４番１号東京共同会計事務所内,,13,101,1000005,,,2025-06-17,清算の結了等,,,2021-02-24,1,,,,,ウリィジップワン,0
1296,6010401025416,登記記録の閉鎖等,0,2025-07-04,2025-06-16,平松興業株式会社,,株式会社,東京都,港区,新橋５丁目１０番８号,,13,103,1050004,,,2025-06-16,清算の結了等,,,2015-10-05,1,,,,,ヒラマツコウギョウ,0
1307,6010603009448,登記記録の閉鎖等,0,2025-07-04,2025-06-27,ブライテック合同会社,,合同会社,東京都,墨田区,東墨田１丁目７番４号,,13,107,1310042,,,2025-06-27,清算の結了等,,,2022-03-22,1,,,,,ブライテック,0
1332,6011401011083,登記記録の閉鎖等,0,2025-07-04,2025-06-26,株式会社ＵＮＯ－ＰＬＡＮ,,株式会社,東京都,板橋区,徳丸２丁目２４番７号,,13,119,1750083,,,2025-06-26,清算の結了等,,,2015-10-05,1,,,,,ウノープラン,0
1399,6100002031515,登記記録の閉鎖等,0,2025-07-04,2025-06-30,有限会社茶小泉,,有限会社,長野県,岡谷市,中央町１丁目１０番１２号,,20,204,3940027,,,2025-06-30,清算の結了等,,,2015-10-05,1,,,,,チャコイズミ,0
1400,6100002038270,登記記録の閉鎖等,0,2025-07-04,2025-06-30,有限会社筒井薬局,,有限会社,長野県,下伊那郡高森町,下市田２８５７番地１４,,20,403,3993103,,,2025-06-30,清算の結了等,,,2015-10-05,1,,,,,ツツイヤッキョク,0
1416,6120003023212,登記記録の閉鎖等,0,2025-07-04,2025-06-19,ラヴィロマンチック合同会社,,合同会社,大阪府,大阪市北区,中之島３丁目１番８号,,27,127,5300005,,,2025-06-19,清算の結了等,,,2023-01-12,1,,,,,ラヴィロマンチック,0
1425,6120901040151,登記記録の閉鎖等,0,2025-07-04,2025-07-01,株式会社ファンリノベ,,株式会社,大阪府,吹田市,江坂町１丁目２３番３２号２Ｆ,,27,205,5640063,,,2025-07-01,合併による解散等,5120901025392,令和７年７月１日大阪府豊中市穂積一丁目３番７号株式会社ファンカンパニー（5120901025392）に合併し解散,2018-07-18,1,,,,,ファンリノベ,0
1435,6140002037888,登記記録の閉鎖等,0,2025-07-04,2025-06-30,有限会社ミオ,,有限会社,兵庫県,加古川市,平岡町新在家１０３６番地の３,,28,210,6750101,,,2025-06-30,清算の結了等,,,2015-10-05,1,,,,,,0
1447,6180001140540,登記記録の閉鎖等,0,2025-07-04,2025-06-30,株式会社ＲＩＳＥ,,株式会社,長野県,長野市,大字富竹字弘誓１６２番地１,,20,201,3810006,,,2025-06-30,清算の結了等,,,2020-03-25,1,,,,,ライズ,0
1464,6240001032384,登記記録の閉鎖等,0,2025-07-04,2025-06-26,株式会社元木地所,,株式会社,広島県,福山市,北吉津町２丁目５番７号,,34,207,7200073,,,2025-06-26,清算の結了等,,,2015-10-05,1,,,,,モトキジショ,0
1471,6260001025337,登記記録の閉鎖等,0,2025-07-04,2025-06-20,すばる工業株式会社,,株式会社,岡山県,岡山市北区,建部町小倉８２２番地,,33,101,7093124,,,2025-06-20,清算の結了等,,,2015-10-05,1,,,,,スバルコウギョウ,0
1521,6500005005657,登記記録の閉鎖等,0,2025-07-04,2025-06-27,医療法人壬生川耳鼻咽喉科,,その他の設立登記法人,愛媛県,西条市,円海寺１８番３,,38,206,7991344,,,2025-06-27,清算の結了等,,,2015-10-05,1,,,,,ニュウガワジビインコウカ,0
1525,7010001168226,登記記録の閉鎖等,0,2025-07-04,2025-06-30,株式会社ヴァレリー,,株式会社,山梨県,中巨摩郡昭和町,築地新居７６１番地６,,19,384,4093853,,,2025-06-30,清算の結了等,,,2015-10-05,1,,,,,ヴァレリー,0
1531,7010003036570,登記記録の閉鎖等,0,2025-07-04,2025-06-30,合同会社ＳＫ　ｂｒａｎｄ,,合同会社,東京都,千代田区,神田錦町２丁目７番地ワールドレジデンス大手町６０１号,,13,101,1010054,,,2025-06-30,清算の結了等,,,2021-12-15,1,,,,,エスケーブランド,0
1532,7010003038047,登記記録の閉鎖等,0,2025-07-04,2025-07-01,ＴＧ＆Ｍａｎａｇｅｍｅｎｔ合同会社,,合同会社,東京都,中央区,勝どき６丁目３番２－５２１８号,,13,102,1040054,,,2025-07-01,合併による解散等,8010003032544,令和７年７月１日東京都中央区勝どき六丁目３番２－５２１８号ＴＧ　＆　Ｃｏｍｐａｎｙ合同会社（8010003032544）に合併し解散,2022-07-13,1,,,,,ティージーアンドマネジメント,0
1538,7010401126031,登記記録の閉鎖等,0,2025-07-04,2025-06-26,ジマテック株式会社,,株式会社,東京都,品川区,西五反田７丁目２２番１７号ＴＯＣビル１１Ｆ４１号,,13,109,1410031,,,2025-06-26,清算の結了等,,,2016-07-28,1,,,,,ジマテック,0
1545,7010601009135,登記記録の閉鎖等,0,2025-07-04,2025-06-25,株式会社アルビレオ,,株式会社,東京都,墨田区,緑３丁目１２番１０号,,13,107,1300021,,,2025-06-25,清算の結了等,,,2015-10-05,1,,,,,アルビレオ,0
1577,7011103011389,登記記録の閉鎖等,0,2025-07-04,2025-06-11,合同会社ｐｏｕｐｅｅ　ｐａｒｆａｉｔｅ,,合同会社,東京都,新宿区,新宿６丁目２８番１０号シルバーマンション８０２,,13,104,1600022,,,2025-06-11,清算の結了等,,,2022-01-21,1,,,,,パピーパルフェ,0
1621,7040001025250,登記記録の閉鎖等,0,2025-07-04,2025-06-18,株式会社ワイエムクリエイト,,株式会社,千葉県,船橋市,前貝塚町５４５番地,,12,204,2730042,,,2025-06-18,清算の結了等,,,2015-10-05,1,,,,,ワイエムクリエイト,0
1626,7040002081656,登記記録の閉鎖等,0,2025-07-04,2025-06-18,有限会社晶樹,,有限会社,千葉県,茂原市,高師２３４番地７,,12,210,2970029,,,2025-06-18,清算の結了等,,,2015-10-05,1,,,,,マサキ,0
1650,7080402017727,登記記録の閉鎖等,0,2025-07-04,2025-06-30,有限会社松下建工,,有限会社,静岡県,掛川市,上西郷４８５番地の５,,22,213,4360342,,,2025-06-30,清算の結了等,,,2015-10-05,1,,,,,マツシタケンコウ,0
1653,7080403004195,登記記録の閉鎖等,0,2025-07-04,2025-06-27,ＰＥＴＩＴ合同会社,,合同会社,静岡県,浜松市中央区,曳馬５丁目１番５号,,22,138,4300901,,,2025-06-27,清算の結了等,,,2021-02-05,1,,,,,ペティット,0
1656,7100002030739,登記記録の閉鎖等,0,2025-07-04,2025-06-30,有限会社キクチデンシ,,有限会社,長野県,諏訪郡原村,１５０６２番地ロ,,20,363,3910100,,,2025-06-30,清算の結了等,,,2015-10-05,1,,,,,キクチデンシ,0
1658,7110001020302,登記記録の閉鎖等,0,2025-07-04,2025-06-19,株式会社若嶋組,,株式会社,新潟県,妙高市,白山町２丁目１４番３号,,15,217,9440047,,,2025-06-19,清算の結了等,,,2015-10-05,1,,,,,ワカシマグミ,0
1662,7110002016084,登記記録の閉鎖等,0,2025-07-04,2025-06-18,有限会社荒井園,,有限会社,新潟県,胎内市,西条９２番地７,,15,227,9592658,,,2025-06-18,清算の結了等,,,2015-10-05,1,,,,,アライエン,0
1691,7140005025559,登記記録の閉鎖等,0,2025-07-04,2025-06-25,一般社団法人オリジナルプレイ・ジャパン,,その他の設立登記法人,兵庫県,淡路市,山田甲４８５番地,,28,226,6561553,,,2025-06-25,清算の結了等,,,2021-03-15,1,,,,,オリジナルプレイジャパン,0
1721,7210002002958,登記記録の閉鎖等,0,2025-07-04,2025-06-25,有限会社日ノ出タクシー,,有限会社,福井県,福井市,二の宮３丁目１番１３号,,18,201,9100015,,,2025-06-25,清算の結了等,,,2015-10-05,1,,,,,ヒノデタクシー,0
1722,7220001014318,登記記録の閉鎖等,0,2025-07-04,2025-07-01,株式会社中日本石油市場,,株式会社,石川県,金沢市,弥勒町カ１８番地,,17,201,9203115,,,2025-07-01,合併による解散等,4220001002110,令和７年７月１日石川県金沢市吉原町ハ３９番地ケイ・エス株式会社（4220001002110）に合併し解散,2015-10-05,1,,,,,ナカニホンセキユシジョウ,0
1733,7270005003774,登記記録の閉鎖等,0,2025-07-04,2025-07-03,医療法人社団石田内科循環器科医院,,その他の設立登記法人,鳥取県,米子市,夜見町１７５８番地１,,31,202,6830851,,,2025-07-03,清算の結了等,,,2015-10-05,1,,,,,イシダナイカジュンカンキカイイン,0
1737,7290001073910,登記記録の閉鎖等,0,2025-07-04,2025-06-18,フラガリア物産株式会社,,株式会社,岩手県,盛岡市,本宮１丁目３２番１７号,,03,201,0200866,,,2025-06-18,清算の結了等,,,2016-05-11,1,,,,,フラガリアブッサン,0
1738,7290001075064,登記記録の閉鎖等,0,2025-07-04,2025-06-24,Ｇｅａｌｉｎｇ株式会社,,株式会社,福岡県,福岡市博多区,博多駅前３丁目９番１号,,40,132,8120011,,,2025-06-24,清算の結了等,,,2016-09-05,1,,,,,ジーリング,0
1739,7290001079866,登記記録の閉鎖等,0,2025-07-04,2025-06-20,株式会社花咲建工,,株式会社,福岡県,福岡市西区,戸切２丁目１１－２５,,40,135,8190032,,,2025-06-20,清算の結了等,,,2017-12-06,1,,,,,ハナサキケンコウ,0
1748,7340001005016,登記記録の閉鎖等,0,2025-07-04,2025-06-25,株式会社Ｊ・Ｍ・Ｃ,,株式会社,鹿児島県,鹿児島市,坂之上３丁目２２番１０号,,46,201,8910150,,,2025-06-25,清算の結了等,,,2015-10-05,1,,,,,ジェイエムシー,0
1758,7400601000112,登記記録の閉鎖等,0,2025-07-04,2025-06-17,株式会社共和通信機,,株式会社,岩手県,奥州市,水沢字桜屋敷５７８番地,,03,215,0230865,,,2025-06-17,清算の結了等,,,2015-10-05,1,,,,,キョウワツウシンキ,0
1825,8011001054927,登記記録の閉鎖等,0,2025-07-04,2025-07-02,株式会社エムワイエヌ,,株式会社,東京都,世田谷区,岡本１丁目２８番３号－５,,13,112,1570076,,,2025-07-02,清算の結了等,,,2015-10-05,1,,,,,エムワイエヌ,0
1848,8012703003007,登記記録の閉鎖等,0,2025-07-04,2025-06-17,ＧＫ合同会社,,合同会社,千葉県,松戸市,新松戸７丁目１７８番ルミネオータム１０８,,12,207,2700034,,,2025-06-17,清算の結了等,,,2024-05-31,1,,,,,ジーケー,0
1849,8012805001271,登記記録の閉鎖等,0,2025-07-04,2025-06-25,特定非営利活動法人東京社会学インスティチュート,,その他の設立登記法人,東京都,東大和市,高木２丁目１８７番地の４,,13,220,2070005,,,2025-06-25,清算の結了等,,,2015-10-05,1,,,,,トウキョウシャカイガクインスティチュート,0
1874,8021001069338,登記記録の閉鎖等,0,2025-07-04,2025-07-01,株式会社衣の然生薬研究社,,株式会社,神奈川県,秦野市,鶴巻南１丁目２３番２０号,,14,211,2570002,,,2025-07-01,清算の結了等,,,2020-02-18,1,,,,,イノゼンセイヤクケンキュウシャ,0
1896,8040001137788,登記記録の閉鎖等,0,2025-07-04,2025-06-02,ＵＳロイヤル株式会社,,株式会社,千葉県,千葉市中央区,中央３丁目８番８号,,12,101,2600013,,,2025-06-02,合併による解散等,8040001008923,令和７年６月１日千葉市美浜区ひび野一丁目８番地ロイヤルリース株式会社（8040001008923）に合併し解散,2025-03-14,1,,,,,ユーエスロイヤルロイヤル,0
1927,8120001176646,登記記録の閉鎖等,0,2025-07-04,2025-06-20,株式会社ＳＥＬ,,株式会社,福岡県,福岡市中央区,小笹３丁目５番１９号,,40,133,8100033,,,2025-06-20,清算の結了等,,,2015-10-05,1,,,,,エスイーエル,0
1947,8140001092049,登記記録の閉鎖等,0,2025-07-04,2025-06-30,シンセイユニット株式会社,,株式会社,兵庫県,尼崎市,西長洲町２丁目１４番１１号,,28,202,6600805,,,2025-06-30,清算の結了等,,,2015-10-05,1,,,,,,0
1957,8160005001210,登記記録の閉鎖等,0,2025-07-04,2025-06-24,日印大乗仏教会,,その他の設立登記法人,滋賀県,大津市,苗鹿２丁目３０番２０号,,25,201,5200102,,,2025-06-24,清算の結了等,,,2015-10-05,1,,,,,ニチインダイジョウブッキョウカイ,0
1966,8180302022915,登記記録の閉鎖等,0,2025-07-04,2025-06-27,有限会社豊田建物管理センター,,有限会社,愛知県,豊田市,越戸町梅盛９９番地３８,,23,211,4700332,,,2025-06-27,清算の結了等,,,2015-10-05,1,,,,,トヨタタテモノカンリセンター,0
1975,8210001002710,登記記録の閉鎖等,0,2025-07-04,2025-06-25,株式会社畑中酒店,,株式会社,福井県,福井市,二の宮３丁目１番１３号,,18,201,9100015,,,2025-06-25,清算の結了等,,,2015-10-05,1,,,,,ハタナカサケテン,0
1983,8240003004289,登記記録の閉鎖等,0,2025-07-04,2025-06-30,合同会社エムエスサポート,,合同会社,広島県,安芸郡海田町,南大正町２番１７号,,34,304,7360042,,,2025-06-30,清算の結了等,,,2019-06-24,1,,,,,エムエスサポート,0
1997,8290001020713,登記記録の閉鎖等,0,2025-07-04,2025-06-10,ウィンプロモーション株式会社,,株式会社,福岡県,福岡市中央区,大名１丁目３番３２号４Ｆ,,40,133,8100041,,,2025-06-10,清算の結了等,,,2015-10-05,1,,,,,ウィンプロモーション,0
1999,8290001053382,登記記録の閉鎖等,0,2025-07-04,2025-06-23,株式会社島松,,株式会社,福岡県,柳川市,高島１９１２番地,,40,207,8320002,,,2025-06-23,清算の結了等,,,2015-10-05,1,,,,,シママツ,0
2001,8300001007188,登記記録の閉鎖等,0,2025-07-04,2025-06-30,株式会社コメ福,,株式会社,佐賀県,唐津市,熊原町３１７９番地５,,41,202,8470817,,,2025-06-30,清算の結了等,,,2015-10-05,1,,,,,コメフク,0
2027,8380002010803,登記記録の閉鎖等,0,2025-07-04,2025-06-23,有限会社泰陽楼,,有限会社,福島県,郡山市,香久池１丁目５番２５号,,07,203,9638833,,,2025-06-23,清算の結了等,,,2015-10-05,1,,,,,,0
2040,8450001007545,登記記録の閉鎖等,0,2025-07-04,2025-06-30,株式会社金井農機,,株式会社,北海道,士別市,西二条１２丁目２８８番地４,,01,220,0950022,,,2025-06-30,清算の結了等,,,2015-10-05,1,,,,,カナイノウキ,0
2043,8480002015676,登記記録の閉鎖等,0,2025-07-04,2025-06-26,有限会社田建設,,有限会社,徳島県,三好郡東みよし町,加茂３４０６番地２,,36,489,7794701,,,2025-06-26,清算の結了等,,,2015-10-05,1,,,,,デンケンセツ,0
2064,9010405017919,登記記録の閉鎖等,0,2025-07-04,2025-06-13,一般社団法人ペガサス,,その他の設立登記法人,東京都,港区,元赤坂１丁目１番８号株式会社赤坂国際会計内,,13,103,1070051,,,2025-06-13,清算の結了等,,,2019-08-01,1,,,,,ペガサス,0
2071,9010701038817,登記記録の閉鎖等,0,2025-07-04,2025-06-26,株式会社ＥＮＢＡＮ,,株式会社,東京都,品川区,平塚２丁目１番１４号,,13,109,1420051,,,2025-06-26,清算の結了等,,,2020-02-03,1,,,,,エンバン,0
2075,9010901040416,登記記録の閉鎖等,0,2025-07-04,2025-07-02,レンクリエイト株式会社,,株式会社,東京都,世田谷区,三軒茶屋１丁目１６番８号コルティーレ世田谷１０２,,13,112,1540024,,,2025-07-02,清算の結了等,,,2017-07-05,1,,,,,レンクリエイト,0
2082,9011001158306,登記記録の閉鎖等,0,2025-07-04,2025-06-05,株式会社ＡＮＮＡ　ＭＡＲＩＡ,,株式会社,東京都,渋谷区,上原３丁目２８番１号Ｂ２０２,,13,113,1510064,,,2025-06-05,清算の結了等,,,2023-11-20,1,,,,,アンナマリア,0
2107,9011805001636,登記記録の閉鎖等,0,2025-07-04,2025-06-30,一般社団法人北都読売会,,その他の設立登記法人,東京都,北区,堀船４丁目２番１号読売新聞東京北工場１Ｆ,,13,117,1140004,,,2025-06-30,清算の結了等,,,2015-10-05,1,,,,,ホクトヨミウリカイ,0
2111,9012703000085,登記記録の閉鎖等,0,2025-07-04,2025-06-27,合資会社シースリー,,合資会社,東京都,西東京市,泉町３丁目９番２３号,,13,229,2020011,,,2025-06-27,清算の結了等,,,2015-10-05,1,,,,,,0
2123,9020002014946,登記記録の閉鎖等,0,2025-07-04,2025-06-30,有限会社徳江興産,,有限会社,神奈川県,横浜市青葉区,千草台３１番地２０,,14,117,2270051,,,2025-06-30,清算の結了等,,,2015-10-05,1,,,,,トクエコウサン,0
2131,9021001082026,登記記録の閉鎖等,0,2025-07-04,2025-07-01,株式会社Ｃｉｄ　Ｈａｚｅ,,株式会社,神奈川県,藤沢市,亀井野５２９番地の１７,,14,205,2520813,,,2025-07-01,清算の結了等,,,2024-04-23,1,,,,,シドヘイズ,0
2137,9030001069098,登記記録の閉鎖等,0,2025-07-04,2025-06-27,株式会社彩礼,,株式会社,埼玉県,鶴ヶ島市,脚折町５丁目２６番３号,,11,241,3502211,,,2025-06-27,清算の結了等,,,2015-10-05,1,,,,,サイレイ,0
2156,9050005010915,登記記録の閉鎖等,0,2025-07-04,2025-06-20,特定非営利活動法人Ｐｌａｎｔｅｒ’ｓ,,その他の設立登記法人,茨城県,つくば市,松代３丁目６番１３ＭＳサニーレジデンス１０４号,,08,220,3050035,,,2025-06-20,清算の結了等,,,2015-10-05,1,,,,,,0
2160,9060001025973,登記記録の閉鎖等,0,2025-07-04,2025-06-26,株式会社栃想,,株式会社,栃木県,宇都宮市,白沢町２０２１番地３,,09,201,3291102,,,2025-06-26,清算の結了等,,,2015-10-05,1,,,,,トソウ,0
2164,9070003003539,登記記録の閉鎖等,0,2025-07-04,2025-06-18,神保興業合同会社,,合同会社,群馬県,北群馬郡吉岡町,大字上野田１３２９番地２１６,,10,345,3703606,,,2025-06-18,清算の結了等,,,2019-08-22,1,,,,,ジンボコウギョウ,0
2169,9090001004594,登記記録の閉鎖等,0,2025-07-04,2025-06-26,株式会社保坂建設,,株式会社,山梨県,甲斐市,竜地６３７２番地,,19,210,4000100,,,2025-06-26,清算の結了等,,,2015-10-05,1,,,,,ホサカケンセツ,0
2198,9122002002813,登記記録の閉鎖等,0,2025-07-04,2025-06-24,有限会社大成鉄鋼,,有限会社,大阪府,東大阪市,高井田本通４丁目５番１７号,,27,227,5770066,,,2025-06-24,清算の結了等,,,2015-10-05,1,,,,,タイセイテッコウ,0
2204,9130003004349,登記記録の閉鎖等,0,2025-07-04,2025-06-20,合同会社六次産業,,合同会社,東京都,豊島区,長崎２丁目２９－７リヴェール大橋１０１,,13,116,1710051,,,2025-06-20,清算の結了等,,,2015-10-05,1,,,,,ロクジサンギョウ,0
2238,9180302026007,登記記録の閉鎖等,0,2025-07-04,2025-06-27,有限会社鈴香ライン,,有限会社,愛知県,豊田市,小渡町間ケ島７番地の２,,23,211,4442846,,,2025-06-27,清算の結了等,,,2015-10-05,1,,,,,スズカライン,0
2253,9240002030211,登記記録の閉鎖等,0,2025-07-04,2025-06-30,有限会社中国ユニティ,,有限会社,広島県,三次市,十日市中４丁目１１番７号,,34,209,7280012,,,2025-06-30,清算の結了等,,,2015-10-05,1,,,,,チュウゴクユニティ,0
2260,9260001035408,登記記録の閉鎖等,0,2025-07-04,2025-06-20,ときわファミリー株式会社,,株式会社,岡山県,倉敷市,水島西常盤町８番８号,,33,202,7128059,,,2025-06-20,清算の結了等,,,2021-04-06,1,,,,,トキワファミリー,0
2279,9300002008399,登記記録の閉鎖等,0,2025-07-04,2025-06-30,有限会社三愛開発,,有限会社,佐賀県,西松浦郡有田町,丸尾丙２００１番地,,41,401,8440023,,,2025-06-30,清算の結了等,,,2015-10-05,1,,,,,サンアイカイハツ,0
2282,9320002004041,登記記録の閉鎖等,0,2025-07-04,2025-06-30,トランスパック有限会社,,有限会社,大分県,大分市,東野台１丁目８番地,,44,201,8700867,,,2025-06-30,清算の結了等,,,2015-10-05,1,,,,,トランスパック,0
2308,9430005006263,登記記録の閉鎖等,0,2025-07-04,2025-06-23,特定非営利活動法人珪藻くらし創造委員会,,その他の設立登記法人,北海道,札幌市北区,北十三条西８丁目北海道大学大学院工学研究院環境システム工学研究室,,01,102,0600813,,,2025-06-23,清算の結了等,,,2015-10-05,1,,,,,ケイソウクラシソウゾウイインカイ,0
