sequenceNumber,corporateNumber,process,correct,updateDate,changeDate,name,nameImageId,kind,prefectureName,cityName,streetNumber,addressImageId,prefectureCode,cityCode,postCode,addressOutside,addressOutsideImageId,closeDate,closeCause,successorCorporateNumber,changeCause,assignmentDate,latest,enName,enPrefectureName,enCityName,enAddressOutside,furigana,hihyoji
11,1010001235741,新規,0,2023-06-02,2023-06-02,株式会社Ｋ‐Ｏｎｉ,,株式会社,東京都,中央区,日本橋室町１丁目１１番１２号日本橋水野ビル７階,,13,102,1030022,,,,,,,2023-06-02,1,,,,,コニー,0
12,1010001235816,新規,0,2023-06-02,2023-06-02,株式会社テナント開発,,株式会社,東京都,中央区,銀座１丁目１２番４号Ｎ＆ＥＢＬＤ．６階,,13,102,1040061,,,,,,,2023-06-02,1,,,,,テナントカイハツ,0
13,1010003040743,新規,0,2023-06-02,2023-06-02,チャチャント合同会社,,合同会社,東京都,千代田区,神田和泉町１番地６の１６ヤマトビル４０５,,13,101,1010024,,,,,,,2023-06-02,1,,,,,チャチャント,0
14,1010003040751,新規,0,2023-06-02,2023-06-02,合同会社ＳＫＪ,,合同会社,東京都,千代田区,一番町４－５－５０８,,13,101,1020082,,,,,,,2023-06-02,1,,,,,エスケージェー,0
16,1010005036764,新規,0,2023-06-02,2023-06-02,一般財団法人日韓未来文化財団,,その他の設立登記法人,東京都,中央区,京橋２丁目８番１号八重洲中央ビル４階,,13,102,1040031,,,,,,,2023-06-02,1,,,,,ニッカンミライブンカザイダン,0
21,1010405022141,新規,0,2023-06-02,2023-06-02,一般社団法人モノマネ協会,,その他の設立登記法人,東京都,港区,浜松町１丁目１０番８号野田ビル２階,,13,103,1050013,,,,,,,2023-06-02,1,,,,,モノマネキョウカイ,0
42,1011001154700,新規,0,2023-06-02,2023-06-02,株式会社ＢＵＧＭＡＮＩＡ,,株式会社,東京都,渋谷区,神宮前６丁目２３番４号桑野ビル２階,,13,113,1500001,,,,,,,2023-06-02,1,,,,,バグマニア,0
43,1011001154808,新規,0,2023-06-02,2023-06-02,株式会社Ｓｃｒｉｐｔｉｏｎ,,株式会社,東京都,目黒区,青葉台１丁目２７番１号青葉台Ａハウス２０３号,,13,110,1530042,,,,,,,2023-06-02,1,,,,,スクリプション,0
57,1011805003276,新規,0,2023-06-02,2023-06-02,一般社団法人フィクトセクシュアル協会,,その他の設立登記法人,東京都,足立区,入谷４丁目４番６号,,13,121,1210836,,,,,,,2023-06-02,1,,,,,フィクトセクシュアルキョウカイ,0
60,1012403006002,新規,0,2023-06-02,2023-06-02,小春日和日本語教育學園合同会社,,合同会社,東京都,多摩市,鶴牧６丁目１番地１－１０４号,,13,224,2060034,,,,,,,2023-06-02,1,,,,,コハルビヨリニホンゴキョウイクガクエン,0
61,1012801022402,新規,0,2023-06-02,2023-06-02,株式会社ナインリニエッジ,,株式会社,東京都,日野市,南平４丁目４３番地の１サウスヒル南平２０１,,13,212,1910041,,,,,,,2023-06-02,1,,,,,ナインリニエッジ,0
62,1013103001235,新規,0,2023-06-02,2023-06-02,合同会社エド,,合同会社,東京都,西多摩郡日の出町,大字大久野８９８番地１サンライズ六番館１０１号室,,13,305,1900181,,,,,,,2023-06-02,1,,,,,エド,0
64,1013301050851,新規,0,2023-06-02,2023-06-02,株式会社大関,,株式会社,東京都,豊島区,巣鴨２丁目１３－７巣鴨ダイヤエステーツ２０６,,13,116,1700002,,,,,,,2023-06-02,1,,,,,オオゼキ,0
73,1020001151839,新規,0,2023-06-02,2023-06-02,Ｌｅｓ　Ｂｌｅｕｅｔｓ　Ｊａｐｏｎ株式会社,,株式会社,神奈川県,横浜市青葉区,荏田西１丁目１２番地３４－６０１号,,14,117,2250014,,,,,,,2023-06-02,1,,,,,レブルエジャポン,0
74,1020001151847,新規,0,2023-06-02,2023-06-02,株式会社豊康,,株式会社,神奈川県,横浜市保土ケ谷区,新井町４１２番地３－１０２号,,14,106,2400053,,,,,,,2023-06-02,1,,,,,トヨヤス,0
75,1020001151863,新規,0,2023-06-02,2023-06-02,株式会社ＴＵＮＡ,,株式会社,神奈川県,横浜市西区,浅間台１２５番地２０,,14,103,2200071,,,,,,,2023-06-02,1,,,,,ツナ,0
76,1020003023986,新規,0,2023-06-02,2023-06-02,合同会社ｄｉｔ,,合同会社,神奈川県,横浜市港北区,日吉５丁目６番２４号クレール日吉３０２,,14,109,2230061,,,,,,,2023-06-02,1,,,,,ディット,0
79,1021001079178,新規,0,2023-06-02,2023-06-02,株式会社ＧＦ,,株式会社,神奈川県,大和市,深見２０１７番地１２,,14,213,2420011,,,,,,,2023-06-02,1,,,,,ジーエフ,0
83,1021005012829,新規,0,2023-06-02,2023-06-02,一般社団法人災害．特殊原状回復協会,,その他の設立登記法人,神奈川県,海老名市,柏ケ谷６００番地の５（１－５０８）,,14,215,2430402,,,,,,,2023-06-02,1,,,,,サイガイトクシュゲンジョウカイフクキョウカイ,0
95,1040001128612,新規,0,2023-06-02,2023-06-02,みらい共創株式会社,,株式会社,千葉県,船橋市,本町５丁目９番１１－１０９号,,12,204,2730005,,,,,,,2023-06-02,1,,,,,ミライキョウソウ,0
98,1040003022706,新規,0,2023-06-02,2023-06-02,合同会社ネクストイノベーション,,合同会社,千葉県,千葉市中央区,宮崎町４７番地１ライオンズマンション蘇我３－５０５号,,12,101,2600805,,,,,,,2023-06-02,1,,,,,ネクストイノベーション,0
105,1050003007540,新規,0,2023-06-02,2023-06-02,合同会社タヌキノ猫パンチ,,合同会社,茨城県,ひたちなか市,松戸町３丁目４－３ヒルズ光１０５号室,,08,221,3120016,,,,,,,2023-06-02,1,,,,,タヌキノネコパンチ,0
108,1060001036037,新規,0,2023-06-02,2023-06-02,株式会社ＬＩＶＥ,,株式会社,栃木県,河内郡上三川町,大字多功１７１０番地１,,09,301,3290524,,,,,,,2023-06-02,1,,,,,ライブ,0
114,1070003004957,新規,0,2023-06-02,2023-06-02,合同会社児童環境保健・総合教育開発センター,,合同会社,群馬県,伊勢崎市,除ケ町１３３番地７,,10,204,3720832,,,,,,,2023-06-02,1,,,,,ジドウカンキョウホケンソウゴウキョウイクカイハツセンター,0
123,1080003002992,新規,0,2023-06-02,2023-06-02,Ｓｋｙ合同会社,,合同会社,静岡県,静岡市駿河区,富士見台１丁目１１番２３号,,22,102,4228026,,,,,,,2023-06-02,1,,,,,スカイ,0
127,1080403004795,新規,0,2023-06-02,2023-06-02,合同会社ひろさわ,,合同会社,静岡県,浜松市中区,佐鳴台１丁目７番４４号,,22,131,4328021,,,,,,,2023-06-02,1,,,,,ヒロサワ,0
141,1110003005067,新規,0,2023-06-02,2023-06-02,力達合同会社,,合同会社,新潟県,新潟市中央区,万代２丁目１番１号,,15,103,9500088,,,,,,,2023-06-02,1,,,,,リーダ,0
157,1120001255365,新規,0,2023-06-02,2023-06-02,株式会社ＴＳＳ,,株式会社,大阪府,大阪市旭区,中宮４丁目３番１１－３０３号,,27,117,5350003,,,,,,,2023-06-02,1,,,,,ティーエスエス,0
158,1120001255373,新規,0,2023-06-02,2023-06-02,株式会社比嘉工業所,,株式会社,大阪府,大阪市大正区,北恩加島１丁目９番７号,,27,108,5510033,,,,,,,2023-06-02,1,,,,,ヒガコウギョウショ,0
163,1120003024207,新規,0,2023-06-02,2023-06-02,ＯｙａＴＳＵ合同会社,,合同会社,大阪府,大阪市中央区,内本町２丁目３－８－９０６,,27,128,5400026,,,,,,,2023-06-02,1,,,,,オヤツ,0
171,1120903004670,新規,0,2023-06-02,2023-06-02,合同会社岩崎不動産,,合同会社,大阪府,高槻市,真上町５丁目５－５,,27,207,5691121,,,,,,,2023-06-02,1,,,,,イワサキフドウサン,0
176,1130003008761,新規,0,2023-06-02,2023-06-02,サイワークス合同会社,,合同会社,京都府,京都市左京区,浄土寺西田町４番地３,,26,103,6068417,,,,,,,2023-06-02,1,,,,,サイワークス,0
185,1140001130343,新規,0,2023-06-02,2023-06-02,株式会社ＯＮＥ’Ｓ,,株式会社,兵庫県,神戸市中央区,磯上通８丁目１番２９号カサベラビルＣ＆Ｍ４０３号室,,28,110,6510086,,,,,,,2023-06-02,1,,,,,ワンス,0
186,1140001130368,新規,0,2023-06-02,2023-06-02,株式会社山宏,,株式会社,兵庫県,小野市,市場町４３２番地,,28,218,6751327,,,,,,,2023-06-02,1,,,,,ヤマヒロ,0
202,1200001041360,新規,0,2023-06-02,2023-06-02,株式会社中川組,,株式会社,岐阜県,大垣市,馬の瀬町１３１４番地２,,21,202,5030842,,,,,,,2023-06-02,1,,,,,ナカガワグミ,0
208,1230001019858,新規,0,2023-06-02,2023-06-02,Ｔ・メンテナンス株式会社,,株式会社,富山県,富山市,中田１丁目１番２０号,,16,201,9318453,,,,,,,2023-06-02,1,,,,,ティーメンテナンス,0
213,1240001061586,新規,0,2023-06-02,2023-06-02,あしだがわ建設不動産株式会社,,株式会社,広島県,福山市,瀬戸町大字長和７７０番地,,34,207,7200836,,,,,,,2023-06-02,1,,,,,アシダガワケンセツフドウサン,0
214,1240005015588,新規,0,2023-06-02,2023-06-02,社会保険労務士法人山口事務所,,その他の設立登記法人,広島県,広島市中区,千田町１丁目４番１５号,,34,101,7300052,,,,,,,2023-06-02,1,,,,,ヤマグチジムショ,0
216,1260001037997,新規,0,2023-06-02,2023-06-02,株式会社石井技建工業,,株式会社,岡山県,岡山市北区,加茂１２３４番地１,,33,101,7011342,,,,,,,2023-06-02,1,,,,,イシイギケンコウギョウ,0
220,1290001101775,新規,0,2023-06-02,2023-06-02,株式会社ＷＯＲＫ　ＯＵＴ,,株式会社,福岡県,飯塚市,柏の森１３番地６９,,40,205,8200011,,,,,,,2023-06-02,1,,,,,ワークアウト,0
224,1290003013985,新規,0,2023-06-02,2023-06-02,合同会社４５１,,合同会社,福岡県,福岡市中央区,天神２丁目２番１２号,,40,133,8100001,,,,,,,2023-06-02,1,,,,,ヨンゴーイチ,0
227,1290803004424,新規,0,2023-06-02,2023-06-02,合同会社ウルスカ,,合同会社,福岡県,築上郡築上町,大字椎田１６８２番地１イオメール椎田１Ｆ,,40,647,8290301,,,,,,,2023-06-02,1,,,,,ウルスカ,0
229,1310005008683,新規,0,2023-06-02,2023-06-02,特定非営利活動法人ながさき村,,その他の設立登記法人,長崎県,長崎市,京泊３丁目２７－１２,,42,201,8512211,,,,,,,2023-06-02,1,,,,,ナガサキムラ,0
231,1330003009863,新規,0,2023-06-02,2023-06-02,合同会社昭和建材,,合同会社,熊本県,八代市,通町６番５６号,,43,202,8660856,,,,,,,2023-06-02,1,,,,,ショウワケンザイ,0
234,1340001025614,新規,0,2023-06-02,2023-06-02,株式会社山下電工,,株式会社,鹿児島県,鹿児島市,吉野町４１９７－１３,,46,201,8920871,,,,,,,2023-06-02,1,,,,,,0
235,1340001025622,新規,0,2023-06-02,2023-06-02,株式会社サポート修繕,,株式会社,鹿児島県,鹿児島市,南新町５番１号,,46,201,8900085,,,,,,,2023-06-02,1,,,,,サポートシュウゼン,0
237,1340003004137,新規,0,2023-06-02,2023-06-02,合同会社ＲｅＩ,,合同会社,鹿児島県,鹿児島市,中央町１６番１０号スカイビル３階,,46,201,8900053,,,,,,,2023-06-02,1,,,,,レイ,0
242,1350001018377,新規,0,2023-06-02,2023-06-02,株式会社ＣＦ大久保,,株式会社,宮崎県,小林市,野尻町東麓５７９番地１０３,,45,205,8860212,,,,,,,2023-06-02,1,,,,,シイエフオオクボ,0
243,1350003004367,新規,0,2023-06-02,2023-06-02,合同会社ＳＡフーズ,,合同会社,宮崎県,東臼杵郡門川町,中須４丁目２９番地,,45,421,8890612,,,,,,,2023-06-02,1,,,,,エスエーフーズ,0
249,1370001050015,新規,0,2023-06-02,2023-06-02,株式会社タスクエンタープライズ,,株式会社,宮城県,仙台市太白区,富沢西４丁目１９番地の２１ガーデンコート富沢テラスハウス６,,04,104,9820037,,,,,,,2023-06-02,1,,,,,タスクエンタープライズ,0
250,1370001050023,新規,0,2023-06-02,2023-06-02,ソウワＩｎｃ株式会社,,株式会社,宮城県,石巻市,門脇字青葉西９６番地,,04,202,9860853,,,,,,,2023-06-02,1,,,,,ソウワアイエヌシー,0
252,1370003006155,新規,0,2023-06-02,2023-06-02,合同会社ＰＥＳＯ,,合同会社,宮城県,多賀城市,新田字北関合２４,,04,209,9850854,,,,,,,2023-06-02,1,,,,,ペソ,0
258,1380001033737,新規,0,2023-06-02,2023-06-02,株式会社凛華,,株式会社,福島県,郡山市,中町１６－３ＳＴ中町マンション１階１０７号室,,07,203,9638004,,,,,,,2023-06-02,1,,,,,リンカ,0
260,1400003003090,新規,0,2023-06-02,2023-06-02,合同会社ＭＡＺＥ,,合同会社,岩手県,盛岡市,東新庄１丁目４番１３－３０１号,,03,201,0200805,,,,,,,2023-06-02,1,,,,,メイズ,0
261,1410001013495,新規,0,2023-06-02,2023-06-02,株式会社ライスプランニング,,株式会社,秋田県,秋田市,保戸野鉄砲町９番５８号サンステージ秋田店舗６号,,05,201,0100913,,,,,,,2023-06-02,1,,,,,ライスプランニング,0
263,1420001018279,新規,0,2023-06-02,2023-06-02,株式会社ルートビジョン,,株式会社,青森県,東津軽郡平内町,大字小湊字新道４６番地２１,,02,301,0393321,,,,,,,2023-06-02,1,,,,,ルートビジョン,0
265,1430001089220,新規,0,2023-06-02,2023-06-02,株式会社ニセコ風土,,株式会社,北海道,虻田郡ニセコ町,字曽我８８８番地１６,,01,395,0481522,,,,,,,2023-06-02,1,,,,,ニセコフウド,0
266,1430001089253,新規,0,2023-06-02,2023-06-02,株式会社ブリュット,,株式会社,北海道,札幌市北区,百合が原８丁目１６番７号,,01,102,0028081,,,,,,,2023-06-02,1,,,,,ブリュット,0
267,1430003015100,新規,0,2023-06-02,2023-06-02,合同会社Ｌａｐｌａｃｅ,,合同会社,北海道,札幌市中央区,南十四条西８丁目５番５０号クリオ行啓通弐番館１Ｆ,,01,101,0640914,,,,,,,2023-06-02,1,,,,,ラプラス,0
268,1440001009268,新規,0,2023-06-02,2023-06-02,ＬＩＢｓ　Ｃｏｎｎｅｃｔ株式会社,,株式会社,北海道,函館市,吉川町３番３０号,,01,202,0400077,,,,,,,2023-06-02,1,,,,,リブスコネクト,0
277,1700150069326,新規,0,2023-06-02,2016-01-12,コーポ学園前管理組合,,その他,奈良県,奈良市,中山町西４丁目５３５－４８９,,29,201,6310013,,,,,,,2016-01-12,1,,,,,コーポガクエンマエカンリクミアイ,0
280,1700150116805,新規,0,2023-06-02,2023-06-02,Ｓｈｅｎｚｈｅｎ　ＳＵＭＷＩＮ　ｅ－ｃｏｍｍｅｒｃｅ　ｃｏ．，ｌｔｄ,,外国会社等,,,,,,,,Ｎｏ．２９０　Ｊｉｈｕａ　Ｒｏａｄ，Ｓｈｕｉｄｉａｎ　Ｃｏｍｍｕｎｉｔｙ，Ｊｉｈｕａ　Ｓｔｒｅｅｔ，Ｌｏｎｇｇａｎｇ　Ｄｉｓｔｒｉｃｔ，Ｓｈｅｎｚｈｅｎ　３０４　５１８０００ＣＮ,,,,,,2023-06-02,1,,,,,シンセンサムウィンイーコマースカンパニーリミテッド,0
281,1700150116854,新規,0,2023-06-02,2023-06-02,Ｓｈｅｎ　Ｚｈｅｎ　Ｓｈｉ　Ｐａｎｇ　Ｎｉｕ　Ｋｅ　Ｊｉ　Ｙｏｕ　Ｘｉａｎ　Ｇｏｎｇ　Ｓｉ,,外国会社等,,,,,,,,Ｒｏｏｍ　８１１，６１４　Ｂｌｄｇ，Ｂａｇｕａ　１ｔｈ　Ｒｏａｄ　Ｙｕａｎｌｉｎｇ　Ｓｔｒｅｅｔ，Ｆｕｔｉａｎ　Ｓｈｅｎｚｈｅｎ　Ｇｕａｎｇｄｏｎｇ　ＣＮ,,,,,,2023-06-02,1,,,,,シンセンシパンニュケジユウゲンコウシ,0
293,2010001235658,新規,0,2023-06-02,2023-06-02,株式会社Ｃｌｅａ,,株式会社,東京都,中央区,勝どき５丁目１番２０号,,13,102,1040054,,,,,,,2023-06-02,1,,,,,クレア,0
294,2010001235757,新規,0,2023-06-02,2023-06-02,株式会社ハレラボ,,株式会社,東京都,中央区,銀座１丁目１２番４号Ｎ＆ＥＢＬＤ．６Ｆ,,13,102,1040061,,,,,,,2023-06-02,1,,,,,ハレラボ,0
297,2010003040701,新規,0,2023-06-02,2023-06-02,合同会社ＣＲＡＳ東京,,合同会社,東京都,千代田区,神田司町２丁目７福禄ビル５階,,13,101,1010048,,,,,,,2023-06-02,1,,,,,クラーストウキョウ,0
298,2010003040726,新規,0,2023-06-02,2023-06-02,ＨＡＬ合同会社,,合同会社,東京都,文京区,小石川１丁目５－１－１３０８,,13,105,1120002,,,,,,,2023-06-02,1,,,,,ハル,0
299,2010003040742,新規,0,2023-06-02,2023-06-02,合同会社ｍｉｋｋｅ,,合同会社,東京都,中央区,日本橋室町１丁目１１番１２号日本橋水野ビル７階,,13,102,1030022,,,,,,,2023-06-02,1,,,,,ミッケ,0
311,2010403030260,新規,0,2023-06-02,2023-06-02,ハイブライトジャパン合同会社,,合同会社,東京都,港区,南青山２丁目２番１５号,,13,103,1070062,,,,,,,2023-06-02,1,,,,,バイブライトジャパン,0
323,2010703006720,新規,0,2023-06-02,2023-06-02,Ｂ‐ＬＩＳＴ合同会社,,合同会社,東京都,品川区,西五反田１丁目２６番２号五反田サンハイツ９１１,,13,109,1410031,,,,,,,2023-06-02,1,,,,,ビーリスト,0
334,2011001154757,新規,0,2023-06-02,2023-06-02,株式会社ランクルー,,株式会社,東京都,渋谷区,渋谷２丁目９番１１号インテリックス青山通りビル５Ｆ,,13,113,1500002,,,,,,,2023-06-02,1,,,,,ランクルー,0
335,2011001154831,新規,0,2023-06-02,2023-06-02,株式会社ＬＩＰＯＴ,,株式会社,東京都,目黒区,大橋１丁目５番１号,,13,110,1530044,,,,,,,2023-06-02,1,,,,,リポット,0
338,2011101103085,新規,0,2023-06-02,2023-06-02,株式会社Ｈａｓｓｙ＆Ｃｏ,,株式会社,東京都,新宿区,西新宿３丁目３番１３号西新宿水間ビル６階,,13,104,1600023,,,,,,,2023-06-02,1,,,,,ハッシーアンドコー,0
345,2011303004783,新規,0,2023-06-02,2023-06-02,合同会社さた生活研究所,,合同会社,東京都,杉並区,和田１丁目５７番Ｎ－７０９号,,13,115,1660012,,,,,,,2023-06-02,1,,,,,サタセイカツケンキュウジョ,0
348,2011403004007,新規,0,2023-06-02,2023-06-02,ａｎｄ　Ｆｒｅｅ合同会社,,合同会社,東京都,板橋区,双葉町２－１２長崎屋ビル３０１,,13,119,1730011,,,,,,,2023-06-02,1,,,,,アンドフリー,0
351,2011803005661,新規,0,2023-06-02,2023-06-02,合同会社ｐａｌｅｔｔｅ,,合同会社,東京都,葛飾区,東水元５丁目４０番１７号,,13,122,1250033,,,,,,,2023-06-02,1,,,,,パレット,0
352,2012401040588,新規,0,2023-06-02,2023-06-02,株式会社三本商事,,株式会社,東京都,武蔵野市,中町１丁目２５－７スカイコート三鷹１０３室,,13,203,1800006,,,,,,,2023-06-02,1,,,,,ミツモトショウジ,0
362,2020001151838,新規,0,2023-06-02,2023-06-02,株式会社ドラゴンセブン,,株式会社,神奈川県,川崎市多摩区,中野島２丁目１３番２－１０４号,,14,135,2140012,,,,,,,2023-06-02,1,,,,,ドラゴンセブン,0
365,2020003023977,新規,0,2023-06-02,2023-06-02,ウィンクス合同会社,,合同会社,神奈川県,川崎市麻生区,虹ケ丘１丁目１５番１４号,,14,137,2150015,,,,,,,2023-06-02,1,,,,,ウィンクス,0
366,2020003024001,新規,0,2023-06-02,2023-06-02,リハブインダストリージャパン合同会社,,合同会社,神奈川県,横浜市神奈川区,片倉２丁目１８番２０号,,14,102,2210865,,,,,,,2023-06-02,1,,,,,リハブインダストリージャパン,0
367,2020005016021,新規,0,2023-06-02,2023-06-02,特定非営利活動法人空飛ぶ自転車,,その他の設立登記法人,神奈川県,横浜市南区,大岡２丁目２２番５－４０３号,,14,105,2320061,,,,,,,2023-06-02,1,,,,,ソラトブジテンシャ,0
374,2030001154187,新規,0,2023-06-02,2023-06-02,株式会社ＹＫマネジメント,,株式会社,埼玉県,さいたま市南区,沼影２丁目３番８号マ・メゾン寿７０２,,11,108,3360027,,,,,,,2023-06-02,1,,,,,ワイケイマネジメント,0
389,2040001128603,新規,0,2023-06-02,2023-06-02,株式会社ソレイユＫ,,株式会社,千葉県,市川市,香取１丁目３番１３号,,12,203,2720141,,,,,,,2023-06-02,1,,,,,ソレイユケイ,0
390,2040001128611,新規,0,2023-06-02,2023-06-02,森宇工業株式会社,,株式会社,千葉県,八街市,八街へ２０２番地８,,12,230,2891113,,,,,,,2023-06-02,1,,,,,シンウコウギョウ,0
408,2080003002991,新規,0,2023-06-02,2023-06-02,合同会社すてきな仲間,,合同会社,静岡県,静岡市葵区,昭府１丁目２０番３３号,,22,101,4200871,,,,,,,2023-06-02,1,,,,,ステキナナカマ,0
416,2080403004794,新規,0,2023-06-02,2023-06-02,盛原商店合同会社,,合同会社,静岡県,浜松市中区,高丘北１丁目１番１－１１０３号アーバンシティ浜松高丘,,22,131,4338119,,,,,,,2023-06-02,1,,,,,セイゲンショウテン,0
422,2090001018147,新規,0,2023-06-02,2023-06-02,株式会社ＡＩＢ,,株式会社,山梨県,甲府市,大里町６８０番地３,,19,201,4000053,,,,,,,2023-06-02,1,,,,,エーアイビー,0
425,2100001036460,新規,0,2023-06-02,2023-06-02,株式会社天竜峡新聞店,,株式会社,長野県,飯田市,龍江２２７１番地１,,20,205,3992221,,,,,,,2023-06-02,1,,,,,テンリュウキョウシンブンテン,0
437,2120001255364,新規,0,2023-06-02,2023-06-02,佐藤薬品株式会社,,株式会社,大阪府,大阪市住吉区,南住吉１丁目６番２４号,,27,120,5580041,,,,,,,2023-06-02,1,,,,,サトウヤクヒン,0
441,2120003024206,新規,0,2023-06-02,2023-06-02,ＲＡＩＮＢＯＷ合同会社,,合同会社,大阪府,大阪市淀川区,十三東３丁目１１番１１号２０１号室,,27,123,5320023,,,,,,,2023-06-02,1,,,,,レインボー,0
442,2120003024214,新規,0,2023-06-02,2023-06-02,アソビズ合同会社,,合同会社,大阪府,大阪市中央区,南船場４丁目１０番５号南船場ＳＯＨＯビル７０２,,27,128,5420081,,,,,,,2023-06-02,1,,,,,アソビズ,0
448,2120901047596,新規,0,2023-06-02,2023-06-02,株式会社楓庵,,株式会社,大阪府,吹田市,片山町３丁目１３番２号,,27,205,5640082,,,,,,,2023-06-02,1,,,,,カエデアン,0
462,2140003019154,新規,0,2023-06-02,2023-06-02,ＤＡＲＩＵＳ合同会社,,合同会社,兵庫県,神戸市長田区,五番町８丁目６番地,,28,106,6530003,,,,,,,2023-06-02,1,,,,,ダリアス,0
488,2220001025435,新規,0,2023-06-02,2023-06-02,株式会社ＣＡＣＬ,,株式会社,石川県,金沢市,錦町（元大桑）ミ９番地１５,,17,201,9200952,,,,,,,2023-06-02,1,,,,,カクル,0
489,2230001019857,新規,0,2023-06-02,2023-06-02,株式会社高橋テクノ,,株式会社,富山県,富山市,婦中町小長沢１９４０番地,,16,201,9392601,,,,,,,2023-06-02,1,,,,,タカハシテクノ,0
493,2240001061610,新規,0,2023-06-02,2023-06-02,株式会社ガチャレン,,株式会社,広島県,広島市南区,出島２丁目１３－４１,,34,103,7340013,,,,,,,2023-06-02,1,,,,,,0
495,2240005015587,新規,0,2023-06-02,2023-06-02,一般社団法人安芸情報システム研究所,,その他の設立登記法人,広島県,東広島市,八本松町吉川３７７番地９,,34,212,7390152,,,,,,,2023-06-02,1,,,,,アキジョウホウシステムケンキュウジョ,0
499,2260001037996,新規,0,2023-06-02,2023-06-02,株式会社Ｏｎｅ　ｕｎｉｔｙ,,株式会社,岡山県,岡山市北区,清輝橋２丁目２番４号,,33,101,7000861,,,,,,,2023-06-02,1,,,,,ワンユニティー,0
506,2290001101717,新規,0,2023-06-02,2023-06-02,株式会社ＤＲＥＡＭ,,株式会社,福岡県,福岡市中央区,西中洲１０番３号,,40,133,8100002,,,,,,,2023-06-02,1,,,,,ドリーム,0
507,2290001101733,新規,0,2023-06-02,2023-06-02,株式会社富元,,株式会社,福岡県,大野城市,乙金２丁目１６番２８号,,40,219,8160902,,,,,,,2023-06-02,1,,,,,トミモト,0
508,2290001101741,新規,0,2023-06-02,2023-06-02,株式会社金子造園,,株式会社,福岡県,筑紫野市,大字吉木９０８番地２,,40,217,8180004,,,,,,,2023-06-02,1,,,,,カネコゾウエン,0
509,2290001101774,新規,0,2023-06-02,2023-06-02,Ｅｌｏｎ株式会社,,株式会社,福岡県,福岡市博多区,中洲２丁目３番１号中洲Ｆビル８階,,40,132,8100801,,,,,,,2023-06-02,1,,,,,イーロン,0
511,2290003013968,新規,0,2023-06-02,2023-06-02,合同会社フルモノリノベ,,合同会社,福岡県,久留米市,山本町耳納８６０－１,,40,203,8390826,,,,,,,2023-06-02,1,,,,,フルモノリノベ,0
512,2290003013984,新規,0,2023-06-02,2023-06-02,Ｍ＆Ｋ合同会社,,合同会社,福岡県,福岡市早良区,百道３丁目１０番５７－７１０号,,40,137,8140006,,,,,,,2023-06-02,1,,,,,エムアンドケー,0
520,2330003009870,新規,0,2023-06-02,2023-06-02,合同会社山村自動車,,合同会社,熊本県,球磨郡錦町,大字木上北１６４番地,,43,501,8680301,,,,,,,2023-06-02,1,,,,,ヤマムラジドウシャ,0
524,2340001025613,新規,0,2023-06-02,2023-06-02,株式会社喜真工業,,株式会社,鹿児島県,鹿屋市,寿４丁目９番１９号レジデンス寿２０３号,,46,203,8930014,,,,,,,2023-06-02,1,,,,,,0
529,2360001032104,新規,0,2023-06-02,2023-06-02,株式会社リノプラス不動産,,株式会社,沖縄県,糸満市,西崎６丁目１６番３号ＳＴＥＰビル１０２号,,47,210,9010305,,,,,,,2023-06-02,1,,,,,リノプラスフドウサン,0
538,2380003005469,新規,0,2023-06-02,2023-06-02,合同会社ｓｔａｎｄａｒｄ,,合同会社,福島県,石川郡石川町,字当町４９番地の３,,07,501,9637857,,,,,,,2023-06-02,1,,,,,スタンダード,0
541,2410003003808,新規,0,2023-06-02,2023-06-02,合同会社ｎａｇｉ,,合同会社,秋田県,潟上市,天王字長沼６４番地４６,,05,211,0100101,,,,,,,2023-06-02,1,,,,,ナギ,0
544,2440001009267,新規,0,2023-06-02,2023-06-02,株式会社大函工業,,株式会社,北海道,函館市,日乃出町２２番３１号,,01,202,0400022,,,,,,,2023-06-02,1,,,,,ダイカンコウギョウ,0
549,2700150116804,新規,0,2023-06-02,2023-06-02,ｓｈｅｎｚｈｅｎ　ｆｕｌｅｇａｏｑｉｎｇｋｅｊｉ　ｙｏｕｘｉａｎｇｏｎｇｓｉ,,外国会社等,,,,,,,,Ｎｏ．５２６，Ｂｕｉｌｄｉｎｇ　Ｂ，Ｈｕａｍｅｉｊｕ　Ｂｕｓｉｎｅｓｓ　Ｃｅｎｔｅｒ，８２　Ｈａｉｙｕ　Ｃｏｍｍｕｎｉｔｙ，Ｘｉｎａｎ　Ｓｔｒｅｅｔ　Ｂａｏａｎ　Ｄｉｓｔｒｉｃｔ，Ｓｈｅｎｚｈｅｎ，Ｇｕａｎｇｄｏｎｇ　５１８１０１ＣＮ,,,,,,2023-06-02,1,,,,,シンセンフレガアオチンケジヨウシェンゴンスー,0
550,2700150116853,新規,0,2023-06-02,2023-06-02,ｓｈｅｎｚｈｅｎｓｈｉ　ｘｉｄｏｎｇｓｈｕｏｋｅｊｉ　ｙｏｕｘｉａｎｇｏｎｇｓｉ,,外国会社等,,,,,,,,ｌｏｎｇｇａｎｇ　ｄｉｓｔｒｉｃｔ　６０３Ｙ　ｏｆ　Ｓｉｘｔｈ　Ｆｌｏｏｒ，ｘｕｙｕａｎ　ｂｕｉｌｄｉｎｇ，ｎｏ．５００３　ｏｆ　ＳＨＥＮＺＨＥＮ　ＧＵＡＮＧＤＯＮＧ,,,,,,2023-06-02,1,,,,,シンセンシシドンスォウケジユウゲンコウシ,0
551,2700150116861,新規,0,2023-06-02,2023-06-02,Ｄｏｎｇｇｕａｎ　Ｅ－Ｍａｘ　Ｅ－ｃｏｍｍｅｒｃｅ　Ｃｏｍｐａｎｙ　Ｌｉｍｉｔｅｄ,,外国会社等,,,,,,,,ｃｈａｎｇｐｉｎｇｚｈｅｎ　ｍｕｌｕｎ　ｃｈｕａｎｇｙｅｙｉｌｕ　３７ｈａｏ　３ｄｏｎｇ　１０７ｓｈｉ　ｄｏｎｇｕａｎｓｈｉ　ｇｕａｎｇｄｏｎｓｈｅｎｇ　ＣＮ,,,,,,2023-06-02,1,,,,,ドングゥアンイーマックスイーコマースカンパニーリミテッド,0
562,3010001235789,新規,0,2023-06-02,2023-06-02,株式会社リ・ライアンス,,株式会社,東京都,千代田区,神田佐久間町１丁目１４第２東ビル３０３,,13,101,1010025,,,,,,,2023-06-02,1,,,,,リライアンス,0
563,3010001235822,新規,0,2023-06-02,2023-06-02,Ｇｒａｎｄ　Ｇａｔｅ　Ｄｅｖｅｌｏｐｍｅｎｔ株式会社,,株式会社,東京都,千代田区,麹町４丁目８番地１ＴＨＥ－ＭＯＣＫ－ＵＰ３１１,,13,101,1020083,,,,,,,2023-06-02,1,,,,,グランドゲートディベロップメント,0
583,3010403030160,新規,0,2023-06-02,2023-06-02,ｓｐａｃｅ　Ｕｎ合同会社,,合同会社,東京都,港区,六本木７丁目７－７トライセブンロッポンギ８Ｆ,,13,103,1060032,,,,,,,2023-06-02,1,,,,,スペースアン,0
589,3010601063128,新規,0,2023-06-02,2023-06-02,株式会社ＨＹ,,株式会社,東京都,墨田区,菊川３丁目６番６－１２０７号藤和菊川ホームズ,,13,107,1300024,,,,,,,2023-06-02,1,,,,,エイチワイ,0
590,3010601063202,新規,0,2023-06-02,2023-06-02,株式会社インカムコミット,,株式会社,東京都,墨田区,東向島５丁目３番３号東向島ステーションプラザ３０７,,13,107,1310032,,,,,,,2023-06-02,1,,,,,インカムコミット,0
598,3010901053142,新規,0,2023-06-02,2023-06-02,ボルブコンサルティング株式会社,,株式会社,東京都,世田谷区,玉川３丁目２０番２号マノア玉川第３ビル５０１号室,,13,112,1580094,,,,,,,2023-06-02,1,,,,,ボルブコンサルティング,0
599,3010901053175,新規,0,2023-06-02,2023-06-02,Ｒａｎａ株式会社,,株式会社,東京都,世田谷区,玉川台２丁目３８番１６号グランドール用賀Ｂ３０７号室,,13,112,1580096,,,,,,,2023-06-02,1,,,,,ラーナ,0
600,3010903008202,新規,0,2023-06-02,2023-06-02,合同会社鬼龍,,合同会社,東京都,世田谷区,上北沢４丁目２８－７レオパレスデュマン２－２０３,,13,112,1560057,,,,,,,2023-06-02,1,,,,,キリュウ,0
603,3011001154616,新規,0,2023-06-02,2023-06-02,株式会社ＦｒｅＥａｓｅ,,株式会社,東京都,渋谷区,渋谷２丁目１９ー１５宮益坂ビルディング６０９,,13,113,1500002,,,,,,,2023-06-02,1,,,,,フリーイーズ,0
604,3011001154806,新規,0,2023-06-02,2023-06-02,ＵＰＤＡＴＥ株式会社,,株式会社,東京都,渋谷区,渋谷２丁目１９－１５宮益坂ビルディング６０９,,13,113,1500002,,,,,,,2023-06-02,1,,,,,アップデート,0
608,3011101103076,新規,0,2023-06-02,2023-06-02,株式会社ＯＸＹ,,株式会社,東京都,新宿区,大久保１丁目１２番４号ＡＳＳ第二ビル５階,,13,104,1690072,,,,,,,2023-06-02,1,,,,,オキシー,0
609,3011101103084,新規,0,2023-06-02,2023-06-02,株式会社ＢＯＸ,,株式会社,東京都,新宿区,新宿６丁目６番２号グレースカレン２０３,,13,104,1600022,,,,,,,2023-06-02,1,,,,,ボックス,0
610,3011101103092,新規,0,2023-06-02,2023-06-02,株式会社リバーウエスト,,株式会社,東京都,新宿区,新宿５丁目７番８号ランザン５ビル５階,,13,104,1600022,,,,,,,2023-06-02,1,,,,,リバーウエスト,0
611,3011101103101,新規,0,2023-06-02,2023-06-02,株式会社イールドホールディングス,,株式会社,東京都,新宿区,西新宿４丁目３２番４号ハイネスロフティ３階Ｂ３,,13,104,1600023,,,,,,,2023-06-02,1,,,,,イールドホールディングス,0
621,3011703003483,新規,0,2023-06-02,2023-06-02,合同会社にしたに,,合同会社,東京都,江戸川区,南篠崎町２丁目４５番１６号,,13,123,1330065,,,,,,,2023-06-02,1,,,,,ニシタニ,0
625,3011803005669,新規,0,2023-06-02,2023-06-02,スマートバジェット合同会社,,合同会社,東京都,葛飾区,東新小岩３丁目３番６号,,13,122,1240023,,,,,,,2023-06-02,1,,,,,スマートバジェット,0
627,3012401040587,新規,0,2023-06-02,2023-06-02,株式会社フィールドインテクノロジー,,株式会社,東京都,多摩市,落合１丁目４６番１号ココリア多摩センター７階,,13,224,2060033,,,,,,,2023-06-02,1,,,,,フィールドインテクノロジー,0
628,3012403006000,新規,0,2023-06-02,2023-06-02,合同会社エンハンスバリューソリューション,,合同会社,東京都,三鷹市,野崎２丁目６番２３号,,13,204,1810014,,,,,,,2023-06-02,1,,,,,エンハンスバリューソリューション,0
629,3012403006009,新規,0,2023-06-02,2023-06-02,合同会社ＥＳ,,合同会社,東京都,武蔵野市,吉祥寺南町１丁目５番９号くまもとビル２階Ｂ,,13,203,1800003,,,,,,,2023-06-02,1,,,,,イーエス,0
631,3012703002723,新規,0,2023-06-02,2023-06-02,合同会社ワンダーワークス,,合同会社,東京都,西東京市,芝久保町５丁目５番１０号,,13,229,1880014,,,,,,,2023-06-02,1,,,,,ワンダーワークス,0
640,3020001151804,新規,0,2023-06-02,2023-06-02,株式会社アクティスライフ,,株式会社,神奈川県,横浜市都筑区,茅ケ崎東４丁目６番２号３階,,14,118,2240033,,,,,,,2023-06-02,1,,,,,アクティスライフ,0
641,3020001151837,新規,0,2023-06-02,2023-06-02,株式会社衛門,,株式会社,神奈川県,川崎市幸区,塚越３丁目３６９－１,,14,132,2120024,,,,,,,2023-06-02,1,,,,,エモン,0
642,3020001151845,新規,0,2023-06-02,2023-06-02,エイエルウ株式会社,,株式会社,神奈川県,横浜市南区,宿町１丁目１６－１ルモン横浜蒔田公園６０４号,,14,105,2320017,,,,,,,2023-06-02,1,,,,,エイエルウ,0
644,3020003023976,新規,0,2023-06-02,2023-06-02,フォンツアンドテック合同会社,,合同会社,神奈川県,横浜市港北区,鳥山町６１４番地ライフレビュー新横浜ウエスト４０３,,14,109,2220035,,,,,,,2023-06-02,1,,,,,フォンツアンドテック,0
657,3040001128619,新規,0,2023-06-02,2023-06-02,株式会社弘昇工業,,株式会社,千葉県,千葉市稲毛区,天台４丁目１２－１藤和千草台コープＡ棟４０２号,,12,103,2630016,,,,,,,2023-06-02,1,,,,,コウショウコウギョウ,0
658,3040001128635,新規,0,2023-06-02,2023-06-02,株式会社Ｏｎｅｎｅｓｓ,,株式会社,千葉県,千葉市若葉区,貝塚町２２５番地１,,12,104,2640023,,,,,,,2023-06-02,1,,,,,ワンネス,0
662,3040003022704,新規,0,2023-06-02,2023-06-02,長弘合同会社,,合同会社,千葉県,千葉市美浜区,高浜４丁目２番２棟２０４号,,12,106,2610003,,,,,,,2023-06-02,1,,,,,チョウコウ,0
673,3060001036035,新規,0,2023-06-02,2023-06-02,株式会社ＴＭシステム,,株式会社,栃木県,那須塩原市,方京１丁目１０－６ファミーユ３０２,,09,213,3293156,,,,,,,2023-06-02,1,,,,,ティーエムシステム,0
695,3120001255306,新規,0,2023-06-02,2023-06-02,株式会社ＶＲ　ＯＳＡＫＡ,,株式会社,大阪府,大阪市北区,曾根崎１丁目５番２３号,,27,127,5300057,,,,,,,2023-06-02,1,,,,,ブイアールオオサカ,0
696,3120001255405,新規,0,2023-06-02,2023-06-02,ＴＡＣＴ　ＰＬＡＮ株式会社,,株式会社,大阪府,大阪市東淀川区,東中島１丁目１７－５－８１８,,27,114,5330033,,,,,,,2023-06-02,1,,,,,タクトプラン,0
698,3120003024196,新規,0,2023-06-02,2023-06-02,大吉合同会社,,合同会社,大阪府,大阪市住吉区,住吉１丁目４番８号,,27,120,5580045,,,,,,,2023-06-02,1,,,,,ダイキチ,0
699,3120003024205,新規,0,2023-06-02,2023-06-02,合同会社Ｄ・ｉｎｆｉｎｉｔｙ,,合同会社,大阪府,大阪市北区,梅田２丁目５番１３号桜橋第一ビル３０４号,,27,127,5300001,,,,,,,2023-06-02,1,,,,,ディーインフィニティ,0
701,3120101067626,新規,0,2023-06-02,2023-06-02,株式会社ハイエイト・ウェアー,,株式会社,大阪府,堺市西区,鳳西町３丁８番地８－１Ｆ,,27,144,5938326,,,,,,,2023-06-02,1,,,,,ハイエイトウェアー,0
702,3120101067634,新規,0,2023-06-02,2023-06-02,株式会社藤管システム,,株式会社,大阪府,松原市,高見の里４丁目１１番１７号,,27,217,5800021,,,,,,,2023-06-02,1,,,,,フジカンシステム,0
705,3120901047587,新規,0,2023-06-02,2023-06-02,株式会社Ｃ２Ｆａｃｔｏｒｙ,,株式会社,大阪府,箕面市,新稲７丁目７番１７号の２,,27,220,5620005,,,,,,,2023-06-02,1,,,,,シーツーファクトリー,0
722,3140001130341,新規,0,2023-06-02,2023-06-02,株式会社Ｍａｉｓｏｎ　ＫａｓｕＹａ,,株式会社,兵庫県,養父市,養父市場字町並２５４番,,28,222,6670112,,,,,,,2023-06-02,1,,,,,メゾンカスヤ,0
727,3180001156507,新規,0,2023-06-02,2023-06-02,株式会社ミライブレイズ,,株式会社,愛知県,名古屋市中村区,名駅４丁目２４番５号第２森ビル４０１,,23,105,4500002,,,,,,,2023-06-02,1,,,,,ミライブレイズ,0
730,3180301037431,新規,0,2023-06-02,2023-06-02,株式会社鈴屋,,株式会社,愛知県,西尾市,寺津町飛越４６番地１,,23,213,4440324,,,,,,,2023-06-02,1,,,,,スズヤ,0
734,3200001041359,新規,0,2023-06-02,2023-06-02,株式会社良建工業,,株式会社,岐阜県,瑞穂市,古橋１７３４番地１,,21,216,5010322,,,,,,,2023-06-02,1,,,,,ヨシケンコウギョウ,0
755,3290001101699,新規,0,2023-06-02,2023-06-02,株式会社ｉｚｈ,,株式会社,福岡県,福岡市博多区,博多駅前１丁目２３番１号ＰａｒｋＦｒｏｎｔ博多駅前一丁目５Ｆ－Ｂ,,40,132,8120011,,,,,,,2023-06-02,1,,,,,イズハ,0
756,3290001101740,新規,0,2023-06-02,2023-06-02,株式会社Ｆｕｌｌ．,,株式会社,福岡県,福岡市中央区,天神２丁目２番１２号７Ｆ,,40,133,8100001,,,,,,,2023-06-02,1,,,,,フルドット,0
757,3290001101749,新規,0,2023-06-02,2023-06-02,株式会社華麟グループ,,株式会社,福岡県,福津市,渡６４１番地,,40,224,8113307,,,,,,,2023-06-02,1,,,,,カリングループ,0
758,3290001101773,新規,0,2023-06-02,2023-06-02,株式会社オニソウ,,株式会社,福岡県,飯塚市,枝国５９０番地２,,40,205,8200081,,,,,,,2023-06-02,1,,,,,オニソウ,0
774,3330001030902,新規,0,2023-06-02,2023-06-02,株式会社七海工業,,株式会社,熊本県,熊本市東区,戸島１丁目１１番４１－１号,,43,102,8618041,,,,,,,2023-06-02,1,,,,,ナナミコウギョウ,0
776,3340001025612,新規,0,2023-06-02,2023-06-02,株式会社ＥＦＩコーポレーション,,株式会社,鹿児島県,鹿児島市,上之園町２５番地３６光健ボイスビル,,46,201,8900052,,,,,,,2023-06-02,1,,,,,イーエフアイコーポレーション,0
777,3340001025620,新規,0,2023-06-02,2023-06-02,株式会社フクショクフーズ,,株式会社,鹿児島県,鹿児島市,千日町２番１５号白鹿ビル２Ｆ,,46,201,8920843,,,,,,,2023-06-02,1,,,,,フクショクフーズ,0
783,3370001050005,新規,0,2023-06-02,2023-06-02,株式会社ＮＫ工業,,株式会社,宮城県,登米市,迫町森字花島１２６番地,,04,212,9870512,,,,,,,2023-06-02,1,,,,,エヌケーコウギョウ,0
788,3390001017266,新規,0,2023-06-02,2023-06-02,株式会社ライフガーデンＫ,,株式会社,山形県,山形市,大字青野５１１番地３,,06,201,9902222,,,,,,,2023-06-02,1,,,,,ライフガーデンケー,0
790,3390003002101,新規,0,2023-06-02,2023-06-02,合同会社Ｃｉｒｃｕｌａｒ　Ｔｈａｎｋｓ,,合同会社,山形県,米沢市,窪田町窪田３８３番地の１４,,06,202,9920003,,,,,,,2023-06-02,1,,,,,サーキュラーサンクス,0
791,3400003003089,新規,0,2023-06-02,2023-06-02,合同会社ＰｌａｙＴｈｅＬｉｆｅ,,合同会社,岩手県,北上市,青柳町２丁目４番１７号,,03,206,0240031,,,,,,,2023-06-02,1,,,,,プレイザライフ,0
804,3490001010491,新規,0,2023-06-02,2023-06-02,株式会社パックス高知,,株式会社,高知県,高知市,朝倉己１１０５番地１,,39,201,7808066,,,,,,,2023-06-02,1,,,,,パックスコウチ,0
807,3500003003046,新規,0,2023-06-02,2023-06-02,Ｐｅａｃｈ．ｐｉｔ合同会社,,合同会社,愛媛県,松山市,勝岡町２８１,,38,201,7992661,,,,,,,2023-06-02,1,,,,,ピーチピット,0
810,3700150116803,新規,0,2023-06-02,2023-06-02,Ｓｈｅｎｚｈｅｎ　Ｍｉｎｓｈｕｎｄａ　Ｔｅｃｈ．Ｃｏ．，ＬＴＤ,,外国会社等,,,,,,,,Ｋｅｙｕａｎ　１４Ｂ１０３　Ｈｕｄｏｎｇ　Ｒｄ　Ｂｕ　ｊｉ　Ｌｏｎｇｇａｎｇ　Ｄｉｓｔｒｉｃｔ　Ｓｈｅｎｚｈｅｎ　Ｇｕａｎｇｄｏｎｇ　５１８０００ＣＮ,,,,,,2023-06-02,1,,,,,シンセンミンシュンダテックカンパニーリミテッド,0
811,3700150116852,新規,0,2023-06-02,2023-06-02,Ｈｕ　Ｂｅｉ　Ｘｉａｏ　Ｌａｎ　Ｚｈｕ　Ｓｈａｎｇ　Ｍａｏ　Ｙｏｕ　Ｘｉａｎ　Ｇｏｎｇ　Ｓｉ,,外国会社等,,,,,,,,Ｆｅｎｇ　Ｈｕａｎｇ　Ｌｕ　１２４　Ｈａｏ　Ｙａｎｇ　Ｇｕａｎｇ　Ｘｉｎ　Ｃｈｅｎｇ　７－３－３０５Ｓｈｉ　Ｘｉａｏ　Ｇａｎ　Ｓｈｉ　Ａｎ　Ｌｕ　Ｓｈｉ　Ｈｕ　Ｂｅｉ　Ｓｈｅｎｇ,,,,,,2023-06-02,1,,,,,フベイシャオランズシャンマオユウゲンコウシ,0
812,3700150116860,新規,0,2023-06-02,2023-06-02,Ｇｕａｎｇｚｈｏｕ　ＳａｎｗｕＲｅｎ　Ｔｒａｄｉｎｇ　Ｃｏ．，ＬＴＤ,,外国会社等,,,,,,,,ｎａｎｓｈａｑｕ　ｆｅｎｇｚｅｄｏｎｇｌｕ　１０６ｈａｏ　ｇｕａｎｇｚｈｏｕ　ｇｕａｎｇｄｏｎｇｓｈｅｎｇ　ＣＮ,,,,,,2023-06-02,1,,,,,グゥアンゾォウサンウレントゥレイディングカンパニーリミテッド,0
821,4010001235730,新規,0,2023-06-02,2023-06-02,株式会社武明,,株式会社,東京都,文京区,本駒込１丁目１－１４ＨＯＮＫＯＭＡＰ．ＢＳｉｄｅ１階,,13,105,1130021,,,,,,,2023-06-02,1,,,,,タケアキ,0
822,4010001235755,新規,0,2023-06-02,2023-06-02,株式会社ＬＩＢＲＡ,,株式会社,東京都,千代田区,麹町２丁目２番２２号,,13,101,1020083,,,,,,,2023-06-02,1,,,,,リブラ,0
823,4010001235763,新規,0,2023-06-02,2023-06-02,株式会社日本不動産,,株式会社,東京都,千代田区,隼町３番１１号,,13,101,1020092,,,,,,,2023-06-02,1,,,,,ニホンフドウサン,0
827,4010003040749,新規,0,2023-06-02,2023-06-02,合同会社菖蒲プロパティ,,合同会社,東京都,千代田区,丸の内３丁目１番１号東京共同会計事務所内,,13,101,1000005,,,,,,,2023-06-02,1,,,,,ショウブプロパティ,0
829,4010005036761,新規,0,2023-06-02,2023-06-02,特定目的会社ＧＲＥＥＮ,,その他の設立登記法人,東京都,千代田区,丸の内３丁目１番１号東京共同会計事務所内,,13,101,1000005,,,,,,,2023-06-02,1,,,,,グリーン,0
840,4010403030242,新規,0,2023-06-02,2023-06-02,合同会社あさま,,合同会社,東京都,港区,虎ノ門２丁目１０番４号オークラプレステージタワー,,13,103,1050001,,,,,,,2023-06-02,1,,,,,アサマ,0
847,4010801034010,新規,0,2023-06-02,2023-06-02,エニタイム株式会社,,株式会社,東京都,大田区,南六郷１丁目３４番３号,,13,111,1440045,,,,,,,2023-06-02,1,,,,,エニタイム,0
850,4010901053158,新規,0,2023-06-02,2023-06-02,株式会社Ｍ＆Ａフロムエス,,株式会社,東京都,世田谷区,上祖師谷３丁目１８－１７,,13,112,1570065,,,,,,,2023-06-02,1,,,,,エムアンドエーフロムエス,0
854,4011001154714,新規,0,2023-06-02,2023-06-02,ｉｋｋａ株式会社,,株式会社,東京都,渋谷区,道玄坂１丁目１０番８号渋谷道玄坂東急ビル２Ｆ－Ｃ,,13,113,1500043,,,,,,,2023-06-02,1,,,,,,0
855,4011003016895,新規,0,2023-06-02,2023-06-02,たねのとなり合同会社,,合同会社,東京都,渋谷区,道玄坂１丁目１０番８号渋谷道玄坂東急ビル２Ｆ－Ｃ,,13,113,1500043,,,,,,,2023-06-02,1,,,,,タネノトナリ,0
858,4011101103075,新規,0,2023-06-02,2023-06-02,アスエル警備保障株式会社,,株式会社,東京都,新宿区,新宿１丁目３－８ＹＫＢ新宿御苑２０１号,,13,104,1600022,,,,,,,2023-06-02,1,,,,,アスエルケイビホショウ,0
867,4011603003938,新規,0,2023-06-02,2023-06-02,ＶｏｒａＣｉｔｙ合同会社,,合同会社,東京都,練馬区,土支田３丁目１４－１６,,13,120,1790076,,,,,,,2023-06-02,1,,,,,ボラシティ,0
868,4011701026287,新規,0,2023-06-02,2023-06-02,株式会社ＲＥＡＣＴ,,株式会社,東京都,江戸川区,江戸川１丁目４６番１７号,,13,123,1320013,,,,,,,2023-06-02,1,,,,,リアクト,0
874,4012701017680,新規,0,2023-06-02,2023-06-02,株式会社ハギケン,,株式会社,東京都,小平市,喜平町１丁目５番地１８号リヴィエール一橋学園１０５号室,,13,211,1870044,,,,,,,2023-06-02,1,,,,,,0
875,4012801022399,新規,0,2023-06-02,2023-06-02,株式会社サダリシステム,,株式会社,東京都,日野市,南平３丁目１４番地の２６,,13,212,1910041,,,,,,,2023-06-02,1,,,,,サダリシステム,0
882,4020001151828,新規,0,2023-06-02,2023-06-02,株式会社ＲＨ企画,,株式会社,神奈川県,横浜市西区,浅間町１丁目４番３号ウィザードビル４０２,,14,103,2200072,,,,,,,2023-06-02,1,,,,,アールエイチキカク,0
883,4020001151844,新規,0,2023-06-02,2023-06-02,株式会社ＪａＬａ,,株式会社,神奈川県,川崎市中原区,市ノ坪４４９番地３シティタワー武蔵小杉５１１０,,14,133,2110016,,,,,,,2023-06-02,1,,,,,ジャラ,0
921,4040001128601,新規,0,2023-06-02,2023-06-02,株式会社北田内装,,株式会社,千葉県,八街市,八街ほ６７２番地２,,12,230,2891115,,,,,,,2023-06-02,1,,,,,キタダナイソウ,0
930,4060005010101,新規,0,2023-06-02,2023-06-02,一般社団法人栃木県ｅスポーツ連合,,その他の設立登記法人,栃木県,小山市,三峯１丁目１０番２１号,,09,208,3230821,,,,,,,2023-06-02,1,,,,,トチギケンイースポーツレンゴウ,0
935,4070005010133,新規,0,2023-06-02,2023-06-02,一般社団法人群馬サステナビリティ協会,,その他の設立登記法人,群馬県,前橋市,天川大島町１２０３番地１金井ビル２Ｆ,,10,201,3792154,,,,,,,2023-06-02,1,,,,,グンマサステナビリティキョウカイ,0
936,4080001025646,新規,0,2023-06-02,2023-06-02,株式会社Ｎ．Ａ．モータース,,株式会社,静岡県,焼津市,下小杉９７０番地の１,,22,212,4210202,,,,,,,2023-06-02,1,,,,,エヌエーモータース,0
939,4080401026509,新規,0,2023-06-02,2023-06-02,株式会社Ｒ＆Ｃｏｍｐａｎｙ,,株式会社,静岡県,磐田市,北島８５番地２,,22,211,4380064,,,,,,,2023-06-02,1,,,,,アールアンドカンパニー,0
959,4120001255420,新規,0,2023-06-02,2023-06-02,株式会社ＳＯＲＡ,,株式会社,大阪府,大阪市北区,本庄東３丁目２番１７－６０７号,,27,127,5310074,,,,,,,2023-06-02,1,,,,,ソラ,0
964,4120003024195,新規,0,2023-06-02,2023-06-02,合同会社ＩＴＴＥＫＩ,,合同会社,大阪府,交野市,神宮寺１丁目３０番１０号,,27,230,5760062,,,,,,,2023-06-02,1,,,,,イッテキ,0
980,4130003008759,新規,0,2023-06-02,2023-06-02,Ｋｙｏｔｏ　Ｅｔｈｉｃａｌ　Ｍａｒｋｅｔ合同会社,,合同会社,京都府,京都市下京区,朱雀宝蔵町４４番地協栄ビル２階京都朱雀スタジオ,,26,106,6008846,,,,,,,2023-06-02,1,,,,,キョウトエシカルマーケット,0
981,4130005016784,新規,0,2023-06-02,2023-06-02,特定非営利活動法人みんなの後見きょうと,,その他の設立登記法人,京都府,京都市右京区,嵯峨野有栖川町４０番地９１,,26,108,6168316,,,,,,,2023-06-02,1,,,,,ミンナノコウケンキョウト,0
985,4140003019152,新規,0,2023-06-02,2023-06-02,合同会社ＳＥＡ　ＰＬＡＮ,,合同会社,兵庫県,神戸市灘区,森後町１丁目３番１９号リトルブラザーズ六甲ビス４Ｄ－１７,,28,102,6570028,,,,,,,2023-06-02,1,,,,,シープラン,0
986,4140003019160,新規,0,2023-06-02,2023-06-02,合同会社ｓａｉクリエイト,,合同会社,兵庫県,神戸市兵庫区,浜崎通１番２８－６０２,,28,105,6520807,,,,,,,2023-06-02,1,,,,,サイクリエイト,0
987,4140005026642,新規,0,2023-06-02,2023-06-02,一般社団法人全国ＰＴＡ・育友会活動支援協議会,,その他の設立登記法人,兵庫県,神戸市中央区,江戸町９４番地２,,28,110,6500033,,,,,,,2023-06-02,1,,,,,ゼンコクピーティーエーイクユウカイカツドウシエンキョウギカイ,0
998,4190001030453,新規,0,2023-06-02,2023-06-02,株式会社ぴゅっほ,,株式会社,三重県,多気郡明和町,大字大淀甲１７５番地,,24,442,5150302,,,,,,,2023-06-02,1,,,,,ピュッホ,0
1008,4230001019855,新規,0,2023-06-02,2023-06-02,丸竹工業株式会社,,株式会社,富山県,下新川郡入善町,青島７７４番地,,16,342,9390624,,,,,,,2023-06-02,1,,,,,マルタケコウギョウ,0
1012,4240001061600,新規,0,2023-06-02,2023-06-02,株式会社ｍａｇｋｎｏｔ,,株式会社,広島県,広島市佐伯区,三宅３丁目２４番３９号,,34,108,7315143,,,,,,,2023-06-02,1,,,,,マグノット,0
1013,4240001061609,新規,0,2023-06-02,2023-06-02,株式会社ＧＴ‐Ｍ,,株式会社,広島県,広島市安佐北区,上深川町９７４番地１,,34,106,7391752,,,,,,,2023-06-02,1,,,,,ジーティエム,0
1015,4240003006157,新規,0,2023-06-02,2023-06-02,合同会社ユカリ・ＨＫコーポレーション,,合同会社,広島県,広島市西区,新庄町１８－１１レックスハイツ新庄１０１号,,34,104,7330801,,,,,,,2023-06-02,1,,,,,ユカリエイチケイコーポレーション,0
1030,4290001101715,新規,0,2023-06-02,2023-06-02,株式会社ＪＳ　Ｂｒｉｄｇｅ　Ｆｕｋｕｏｋａ,,株式会社,福岡県,福岡市博多区,板付１丁目５－１０,,40,132,8120888,,,,,,,2023-06-02,1,,,,,ジェイエスブリッジフクオカ,0
1031,4290001101748,新規,0,2023-06-02,2023-06-02,株式会社久留米スマイル地所,,株式会社,福岡県,久留米市,御井旗崎１丁目１番２０号,,40,203,8390841,,,,,,,2023-06-02,1,,,,,クルメスマイルジショ,0
1034,4290801029569,新規,0,2023-06-02,2023-06-02,株式会社Ｈｉｇｈｆｉｖｅ,,株式会社,福岡県,北九州市八幡西区,永犬丸西町２丁目２０番１３号,,40,109,8070852,,,,,,,2023-06-02,1,,,,,ハイファイブ,0
1035,4310003004582,新規,0,2023-06-02,2023-06-02,合同会社なないろ,,合同会社,長崎県,長崎市,上戸町２丁目９番１８－１号,,42,201,8500953,,,,,,,2023-06-02,1,,,,,ナナイロ,0
1041,4350003004364,新規,0,2023-06-02,2023-06-02,合同会社ハラケイ,,合同会社,宮崎県,宮崎市,清水３丁目５番６号ヴェレッザ清水３０５号,,45,201,8800021,,,,,,,2023-06-02,1,,,,,ハラケイ,0
1043,4360003013018,新規,0,2023-06-02,2023-06-02,ヤマニハ不動産合同会社,,合同会社,沖縄県,中頭郡北谷町,字吉原１０５５番地３８,,47,326,9040105,,,,,,,2023-06-02,1,,,,,ヤマニハフドウサン,0
1049,4380001033734,新規,0,2023-06-02,2023-06-02,東升株式会社,,株式会社,福島県,福島市,瀬上町字薬師前１８番地の２２,,07,201,9600101,,,,,,,2023-06-02,1,,,,,トウショウ,0
1069,4700150116802,新規,0,2023-06-02,2023-06-02,バイオクリスト　ファーマシューティカルズ駐在員事務所,,外国会社等,東京都,港区,虎ノ門５丁目１－４東都ビル２階,,13,103,1050001,４５０５　Ｅｍｐｅｒｏｒ　Ｂｌｖｄ，Ｓｕｉｔｅ　２００，Ｄｕｒｈａｍ，Ｎｏｒｔｈ　Ｃａｒｏｌｉｎａ　２７７０３　ＵＳＡ,,,,,,2023-06-02,1,,,,,バイオクリストフアーマシユーテイカルズチユウザイインジムシヨ,0
1070,4700150116851,新規,0,2023-06-02,2023-06-02,Ｓｈｅｎｚｈｅｎ　ＦｕＣａｉＤａ　Ｍａｏ　Ｙｉ　Ｙｏｕ　Ｘｉａｎ　Ｇｏｎｇ　Ｓｉ,,外国会社等,,,,,,,,ＲＭ１０３　Ｎｏ．９　Ｂｕｉｌｄｉｎｇ　Ｚｈｏｎｇｄｉａｎ　Ｄａｙｕａｎ　３５　Ｈａｏ　Ｈｕａｆａ　Ｎａｎ　Ｌｕ　Ｙｕａｎｘｉ　Ｓｈｅｑｕ　Ｎａｎｙｕａｎ　ｊｉｅｄａｏ　Ｆｕｔｉａｎ　Ｑｕ　Ｓｈｅｎｚｈｅｎ　Ｇｕａｎｇｄｏｎｇ　ＣＮ,,,,,,2023-06-02,1,,,,,シンセンフチァイダマオイユウゲンコウシ,0
1077,5010001235746,新規,0,2023-06-02,2023-06-02,株式会社天神ランド,,株式会社,東京都,中央区,銀座７丁目１０番８号第五太陽ビル６階今井関口法律事務所内,,13,102,1040061,,,,,,,2023-06-02,1,,,,,テンジンランド,0
1078,5010001235804,新規,0,2023-06-02,2023-06-02,株式会社Ｈｏｌｏｃｙ,,株式会社,東京都,千代田区,神田三崎町３丁目４番４号,,13,101,1010061,,,,,,,2023-06-02,1,,,,,ホロシー,0
1082,5010003040764,新規,0,2023-06-02,2023-06-02,陶氏合同会社,,合同会社,東京都,千代田区,外神田４丁目１４番２－２２０７号,,13,101,1010021,,,,,,,2023-06-02,1,,,,,トウシ,0
1095,5010405022170,新規,0,2023-06-02,2023-06-02,一般社団法人自然北陸北関東,,その他の設立登記法人,東京都,港区,西新橋１丁目２番９号メンターキャピタル税理士法人内,,13,103,1050003,,,,,,,2023-06-02,1,,,,,シゼンホクリクキタカントウ,0
1102,5010803004563,新規,0,2023-06-02,2023-06-02,Ｃｕｌａｃｃｉｎｏ合同会社,,合同会社,東京都,大田区,羽田６丁目２０－４,,13,111,1440043,,,,,,,2023-06-02,1,,,,,クラッチーノ,0
1115,5011201024682,新規,0,2023-06-02,2023-06-02,Ｓｏｕｔｈ　Ｈｉｌｌｓ　Ｃｏｍｐａｎｙ株式会社,,株式会社,東京都,中野区,南台３丁目３５番１１号,,13,114,1640014,,,,,,,2023-06-02,1,,,,,サウスヒルズカンパニー,0
1121,5011501029365,新規,0,2023-06-02,2023-06-02,日本藤久製薬株式会社,,株式会社,東京都,荒川区,南千住３丁目２７－２浅草ビル,,13,118,1160003,,,,,,,2023-06-02,1,,,,,ニッポンフジヒサセイヤク,0
1124,5011701026286,新規,0,2023-06-02,2023-06-02,株式会社ＬｉｎＫ,,株式会社,東京都,江戸川区,北葛西１丁目２番２２号,,13,123,1340081,,,,,,,2023-06-02,1,,,,,リンク,0
1127,5011801042497,新規,0,2023-06-02,2023-06-02,株式会社Ｖｉｏｌａ,,株式会社,東京都,足立区,佐野１丁目３３番１７号リバフォーレ１０３号室,,13,121,1210053,,,,,,,2023-06-02,1,,,,,ビオラ,0
1128,5011801042506,新規,0,2023-06-02,2023-06-02,株式会社大,,株式会社,東京都,葛飾区,堀切８丁目３番１８号,,13,122,1240006,,,,,,,2023-06-02,1,,,,,ダイ,0
1140,5012703002721,新規,0,2023-06-02,2023-06-02,合同会社そら,,合同会社,東京都,清瀬市,中清戸１丁目５４２－１,,13,221,2040012,,,,,,,2023-06-02,1,,,,,ソラ,0
1148,5020001151843,新規,0,2023-06-02,2023-06-02,株式会社フィカス,,株式会社,神奈川県,横浜市青葉区,美しが丘２丁目２５番地１,,14,117,2250002,,,,,,,2023-06-02,1,,,,,フィカス,0
1149,5020003023966,新規,0,2023-06-02,2023-06-02,合同会社Ｖ‐Ｅｄｇｅ,,合同会社,神奈川県,横浜市青葉区,たちばな台２丁目１１番７１号,,14,117,2270046,,,,,,,2023-06-02,1,,,,,ヴイエッジ,0
1154,5030001154143,新規,0,2023-06-02,2023-06-02,株式会社アミエタ,,株式会社,埼玉県,本庄市,けや木２丁目４番９号,,11,211,3670042,,,,,,,2023-06-02,1,,,,,アミエタ,0
1155,5030001154192,新規,0,2023-06-02,2023-06-02,株式会社エイワデザイン,,株式会社,埼玉県,熊谷市,代７２８番地１,,11,202,3600804,,,,,,,2023-06-02,1,,,,,エイワデザイン,0
1156,5030001154226,新規,0,2023-06-02,2023-06-02,株式会社ＥＸａｒｔｓ,,株式会社,埼玉県,さいたま市桜区,大字白鍬６６５番地５,,11,106,3380811,,,,,,,2023-06-02,1,,,,,エクステリアアーツ,0
1160,5030003021861,新規,0,2023-06-02,2023-06-02,Ｒ・Ｋ合同会社,,合同会社,埼玉県,入間郡三芳町,大字上富１５４４番地５０,,11,324,3540045,,,,,,,2023-06-02,1,,,,,アールケー,0
1161,5030003021878,新規,0,2023-06-02,2023-06-02,合同会社ＳｐａｃｅＮａｐ,,合同会社,埼玉県,さいたま市西区,大字指扇１２１０番地９サンハイツ大久保Ｚ２０２,,11,101,3310047,,,,,,,2023-06-02,1,,,,,スペースナップ,0
1165,5040001128567,新規,0,2023-06-02,2023-06-02,ＳＩテクノス株式会社,,株式会社,千葉県,いすみ市,岬町井沢６５９番地８,,12,238,2994615,,,,,,,2023-06-02,1,,,,,エスアイテクノス,0
1166,5040001128591,新規,0,2023-06-02,2023-06-02,株式会社ＢＥＧＥ,,株式会社,千葉県,船橋市,前原西２丁目１３番３号第一辰巳ビル５階,,12,204,2740825,,,,,,,2023-06-02,1,,,,,ベッジ,0
1168,5040003022719,新規,0,2023-06-02,2023-06-02,合同会社ＳＡＮＰＯＨ,,合同会社,千葉県,市川市,市川南４丁目１２番２号,,12,203,2720033,,,,,,,2023-06-02,1,,,,,サンポー,0
1171,5050005013260,新規,0,2023-06-02,2023-06-02,一般社団法人神栖シティスポーツクラブ,,その他の設立登記法人,茨城県,神栖市,萩原字寺ノ内６８０番３,,08,232,3140122,,,,,,,2023-06-02,1,,,,,カミスシティスポーツクラブ,0
1174,5080001025645,新規,0,2023-06-02,2023-06-02,富士マイクロテック株式会社,,株式会社,静岡県,静岡市駿河区,新川２丁目１番４０－６０５号,,22,102,4228064,,,,,,,2023-06-02,1,,,,,フジマイクロテック,0
1177,5080101024043,新規,0,2023-06-02,2023-06-02,イマヲイキル株式会社,,株式会社,静岡県,伊豆の国市,南條１９６番１高野コーポ１階Ｂ号室,,22,225,4102114,,,,,,,2023-06-02,1,,,,,イマヲイキル,0
1179,5080401026508,新規,0,2023-06-02,2023-06-02,株式会社大西工業,,株式会社,静岡県,袋井市,宇刈１７９番地の１,,22,216,4370121,,,,,,,2023-06-02,1,,,,,オオニシコウギョウ,0
1191,5120001255171,新規,0,2023-06-02,2023-06-02,株式会社ｓｏ‐ｓｏ,,株式会社,大阪府,大阪市中央区,東心斎橋１丁目１６－１７おおきにキニキニビル４Ｆ,,27,128,5420083,,,,,,,2023-06-02,1,,,,,ソーソー,0
1192,5120001255279,新規,0,2023-06-02,2023-06-02,健元株式会社,,株式会社,大阪府,大阪市住吉区,万代東１丁目３－２２－１１０号,,27,120,5580056,,,,,,,2023-06-02,1,,,,,ケンゲン,0
1193,5120001255312,新規,0,2023-06-02,2023-06-02,株式会社Ｄｉｎａｓ,,株式会社,大阪府,大阪市中央区,難波５丁目１番６０号なんばスカイオ２７Ｆ,,27,128,5420076,,,,,,,2023-06-02,1,,,,,ディナス,0
1194,5120001255353,新規,0,2023-06-02,2023-06-02,株式会社Ｒｅｇａｘｉａ,,株式会社,大阪府,大阪市平野区,平野東３丁目５番２０号,,27,126,5470043,,,,,,,2023-06-02,1,,,,,レガシア,0
1195,5120001255394,新規,0,2023-06-02,2023-06-02,株式会社レガラボ製菓,,株式会社,大阪府,大阪市福島区,福島５丁目１７番３２号,,27,103,5530003,,,,,,,2023-06-02,1,,,,,レガラボセイカ,0
1200,5120101067624,新規,0,2023-06-02,2023-06-02,株式会社青木建設,,株式会社,大阪府,和泉市,唐国町１丁目１１番１２－５０５号,,27,219,5941151,,,,,,,2023-06-02,1,,,,,アオキケンセツ,0
1206,5120903004659,新規,0,2023-06-02,2023-06-02,ＳＡＣ合同会社,,合同会社,大阪府,豊中市,夕日丘２丁目１３番１８の１号,,27,203,5610864,,,,,,,2023-06-02,1,,,,,エスエーシー,0
1210,5130001074447,新規,0,2023-06-02,2023-06-02,Ｎｅｔｓｕｊｏ株式会社,,株式会社,京都府,京都市下京区,平居町５５番地１,,26,106,6008118,,,,,,,2023-06-02,1,,,,,ネツジョウ,0
1212,5130003008758,新規,0,2023-06-02,2023-06-02,合同会社ＩＮＥＶＩＴ,,合同会社,京都府,京都市左京区,浄土寺西田町１００－１６ボンズカーサ銀閣寺道西１０２号室,,26,103,6068417,,,,,,,2023-06-02,1,,,,,イネビット,0
1219,5140003019151,新規,0,2023-06-02,2023-06-02,合同会社Ａｒｉｓｅ,,合同会社,兵庫県,神戸市西区,玉津町高津橋２６６番地の１セザール第２西神戸３０６号,,28,111,6512122,,,,,,,2023-06-02,1,,,,,アライズ,0
1231,5180005020236,新規,0,2023-06-02,2023-06-02,一般社団法人日本腸セラピー協会,,その他の設立登記法人,愛知県,名古屋市千種区,朝岡町３丁目１９番地,,23,101,4640811,,,,,,,2023-06-02,1,,,,,ニホンチョウセラピーキョウカイ,0
1234,5180303005731,新規,0,2023-06-02,2023-06-02,合同会社リ・ブルーム,,合同会社,愛知県,豊橋市,西幸町字浜池３３３‐９豊橋サイエンスコア１０９,,23,201,4418113,,,,,,,2023-06-02,1,,,,,リブルーム,0
1236,5190001030460,新規,0,2023-06-02,2023-06-02,株式会社エム・エヌ・ボディーワークス,,株式会社,三重県,松阪市,鎌田町４０３番地２１,,24,204,5150005,,,,,,,2023-06-02,1,,,,,エムエヌボディーワークス,0
1240,5230001019862,新規,0,2023-06-02,2023-06-02,株式会社南海建設,,株式会社,富山県,富山市,奥井町２４番５号,,16,201,9300846,,,,,,,2023-06-02,1,,,,,ナンカイケンセツ,0
1245,5240001061590,新規,0,2023-06-02,2023-06-02,トラストテクノ株式会社,,株式会社,広島県,廿日市市,四季が丘上２番地６,,34,213,7380038,,,,,,,2023-06-02,1,,,,,トラストテクノ,0
1246,5240001061599,新規,0,2023-06-02,2023-06-02,株式会社アサホームクリーン,,株式会社,広島県,広島市安佐北区,三入東１丁目３４番２８号,,34,106,7310212,,,,,,,2023-06-02,1,,,,,アサホームクリーン,0
1247,5240001061608,新規,0,2023-06-02,2023-06-02,株式会社ＧｒｅｅｎＮｏｔｅ,,株式会社,広島県,広島市南区,西蟹屋３丁目３番４号,,34,103,7320804,,,,,,,2023-06-02,1,,,,,グリーンノート,0
1248,5250001020091,新規,0,2023-06-02,2023-06-02,株式会社ＵＴＩ,,株式会社,山口県,宇部市,常盤台２丁目８番２－１０２号,,35,202,7550097,,,,,,,2023-06-02,1,,,,,ユウティアイ,0
1261,5270001008787,新規,0,2023-06-02,2023-06-02,株式会社コトブキ,,株式会社,鳥取県,日野郡江府町,大字俣野１６５２番地,,31,403,6894414,,,,,,,2023-06-02,1,,,,,コトブキ,0
1267,5290001101722,新規,0,2023-06-02,2023-06-02,株式会社Ｔｅａｒ　Ｍｏｏｎ,,株式会社,福岡県,福岡市中央区,天神２丁目２番１２号Ｔ＆Ｊビルディング７Ｆ,,40,133,8100001,,,,,,,2023-06-02,1,,,,,ティアムーン,0
1268,5290001101730,新規,0,2023-06-02,2023-06-02,路寛株式会社,,株式会社,福岡県,福岡市早良区,曙２丁目８番１号,,40,137,8140004,,,,,,,2023-06-02,1,,,,,ロカン,0
1269,5290001101739,新規,0,2023-06-02,2023-06-02,株式会社ＺＯＮＯ．ｍＦＡＣＴＯＲＹ,,株式会社,福岡県,福岡市南区,大楠３丁目１４番３４号高宮センターヴィレッジ２００号,,40,134,8150082,,,,,,,2023-06-02,1,,,,,ゾノエムファクトリー,0
1270,5290001101755,新規,0,2023-06-02,2023-06-02,株式会社高取工務店,,株式会社,福岡県,福津市,光陽台２丁目１７番地の２,,40,224,8113223,,,,,,,2023-06-02,1,,,,,タカトリコウムテン,0
1271,5290001101763,新規,0,2023-06-02,2023-06-02,株式会社天道,,株式会社,福岡県,大牟田市,藤田町２６９番地１,,40,202,8360074,,,,,,,2023-06-02,1,,,,,テンドウ,0
1272,5290003013981,新規,0,2023-06-02,2023-06-02,ＹＨＹコンサルティング合同会社,,合同会社,福岡県,福岡市城南区,七隈１丁目７番１１－３０３号,,40,136,8140133,,,,,,,2023-06-02,1,,,,,ワイエイチワイコンサルティング,0
1274,5290801029568,新規,0,2023-06-02,2023-06-02,株式会社ｐｏｎｏｐｉｐｉ,,株式会社,福岡県,北九州市小倉北区,香春口１丁目１５番８号４Ｆ,,40,106,8020084,,,,,,,2023-06-02,1,,,,,ポノピピ,0
1277,5310001018451,新規,0,2023-06-02,2023-06-02,株式会社Ｅｉｊｉ,,株式会社,長崎県,長崎市,石神町１４番６２－７０１号,,42,201,8528126,,,,,,,2023-06-02,1,,,,,エイジ,0
1282,5330001030917,新規,0,2023-06-02,2023-06-02,株式会社ティーアール工業,,株式会社,熊本県,熊本市南区,八幡６丁目７番３９号,,43,104,8614113,,,,,,,2023-06-02,1,,,,,ティーアールコウギョウ,0
1286,5360003013017,新規,0,2023-06-02,2023-06-02,合同会社雄妃Ｔｒｙ,,合同会社,沖縄県,糸満市,字真栄里２０２３番地の２西平アパートＣ号,,47,210,9010362,,,,,,,2023-06-02,1,,,,,ユウヒトライ,0
1297,5380001033733,新規,0,2023-06-02,2023-06-02,株式会社ＢＵＬＬＥＴ,,株式会社,福島県,郡山市,富久山町福原字中田１１番地３,,07,203,9638061,,,,,,,2023-06-02,1,,,,,ビュレット,0
1300,5380005012717,新規,0,2023-06-02,2023-06-02,特定非営利活動法人日本語スピーチ協会,,その他の設立登記法人,福島県,双葉郡広野町,広洋台２丁目１番地２１,,07,541,9790407,,,,,,,2023-06-02,1,,,,,ニホンゴスピーチキョウカイ,0
1317,5500001024967,新規,0,2023-06-02,2023-06-02,ＣＨ工業株式会社,,株式会社,愛媛県,四国中央市,川之江町２３３３番地４,,38,213,7990101,,,,,,,2023-06-02,1,,,,,,0
1319,5500003003044,新規,0,2023-06-02,2023-06-02,合同会社泰然,,合同会社,愛媛県,松山市,美沢１丁目１番２３号石田２ビル３０１号,,38,201,7918022,,,,,,,2023-06-02,1,,,,,タイゼン,0
1326,5700150108963,新規,0,2023-06-02,2022-05-24,富士見学区まちづくり協議会,,その他,滋賀県,大津市,園山２丁目１５－３３富士見支所内,,25,201,5200842,,,,,,,2022-05-24,1,,,,,フジミガツクマチヅクリキヨウギカイ,0
1328,5700150116850,新規,0,2023-06-02,2023-06-02,ｓｈｅｎ　ｚｈｅｎ　ｓｈｉ　ｘｕｎ　ｌｅｉ　ｋｅ　ｊｉ　ｙｏｕ　ｘｉａｎ　ｇｏｎｇ　ｓｉ,,外国会社等,,,,,,,,ｓｈｅｎｚｈｅｎｓｈｉ　ｌｏｎｇｇａｎｇｑｕ　ｂａｏｌｏｎｇｊｉｅｄａｏ　ｔｏｎｇｘｉｎｓｈｅｑｕ　ｚｈｏｎｇｊｕｎｌａｎｗａｎ　ｃｕｉｌｉｎｇｈｕａｙｕａｎ　１ｑｉ　１１　１２ｄｏｎｇ　１１－４０１　ｓｈｅｎｚｈｅｎ　ｇｕａｎｇｄｏｎｇ　ＣＮ,,,,,,2023-06-02,1,,,,,シンセンシシュンレイケジユウゲンコウシ,0
1329,5700150116859,新規,0,2023-06-02,2023-06-02,ｓｈａｎｇｈａｉ　ｂｅｉｑｉｎｋｅｊｉ　ｙｏｕｘｉａｎｇｏｎｇｓｉ,,外国会社等,,,,,,,,ｃｈｅｎｇｑｉａｏｚｈｅｎｑｉａｏｓｏｎｇｌｕ４９２ｈａｏｙｉｃｅｎｇ２２ｑｕ６６ｓｈｉ　ｃｈｏｎｇｍｉｎｇｘｉａｎ　ｓｈａｎｇｈａｉｓｈｉ　ｃｈｉｎａ,,,,,,2023-06-02,1,,,,,シャンハイベイチンケジユウゲンコウシ,0
1347,6010003040672,新規,0,2023-06-02,2023-06-02,Ｏｕｔｃｏｍｅ　Ｃｒａｆｔｓｍａｎ　Ｉｎｃ合同会社,,合同会社,東京都,千代田区,九段南１丁目５－６りそな九段ビル５階,,13,101,1020074,,,,,,,2023-06-02,1,,,,,アウトカムクラフツマンインク,0
1370,6010403030216,新規,0,2023-06-02,2023-06-02,合同会社ＢＯＯＫＥＲＳ,,合同会社,東京都,港区,南青山２丁目２‐１５ＷＩＮ青山５３１,,13,103,1070062,,,,,,,2023-06-02,1,,,,,ブッカーズ,0
1377,6010601063190,新規,0,2023-06-02,2023-06-02,株式会社アーティストマージ,,株式会社,東京都,江東区,永代２丁目３１－１５,,13,108,1350034,,,,,,,2023-06-02,1,,,,,アーティストマージ,0
1384,6010901053123,新規,0,2023-06-02,2023-06-02,森コンサルティング株式会社,,株式会社,東京都,世田谷区,野沢３丁目２７番６号,,13,112,1540003,,,,,,,2023-06-02,1,,,,,モリコンサルティング,0
1385,6010901053148,新規,0,2023-06-02,2023-06-02,株式会社ＭＡＹ,,株式会社,東京都,世田谷区,駒沢５丁目５番１１号トウセン駒沢マンション３０１,,13,112,1540012,,,,,,,2023-06-02,1,,,,,メイ,0
1392,6011101103081,新規,0,2023-06-02,2023-06-02,株式会社ＭＯＤＥＬ　ＧＲＯＵＰ,,株式会社,東京都,新宿区,新宿２丁目１２番２号,,13,104,1600022,,,,,,,2023-06-02,1,,,,,モデルグループ,0
1404,6011701026269,新規,0,2023-06-02,2023-06-02,株式会社ＣＲＥＡＴＩＶＥ　ＦＯＵＮＤ,,株式会社,東京都,江戸川区,一之江２丁目１６－１０,,13,123,1320024,,,,,,,2023-06-02,1,,,,,クリエイティブファウンド,0
1405,6011701026285,新規,0,2023-06-02,2023-06-02,ソゾヤ株式会社,,株式会社,東京都,江戸川区,南葛西５丁目４番５－８０２号,,13,123,1340085,,,,,,,2023-06-02,1,,,,,ソゾヤ,0
1409,6011801042496,新規,0,2023-06-02,2023-06-02,株式会社ファースト,,株式会社,東京都,足立区,谷在家３丁目２６番５号,,13,121,1230863,,,,,,,2023-06-02,1,,,,,ファースト,0
1416,6012403006006,新規,0,2023-06-02,2023-06-02,合同会社ＦＴｏｐｓ,,合同会社,東京都,稲城市,向陽台６丁目１２番地アルボの丘４‐１００７号,,13,225,2060803,,,,,,,2023-06-02,1,,,,,エフティーオプス,0
1425,6020001151834,新規,0,2023-06-02,2023-06-02,株式会社セレスティアル,,株式会社,神奈川県,川崎市宮前区,有馬４丁目１８－１３－１,,14,136,2160003,,,,,,,2023-06-02,1,,,,,セレスティアル,0
1430,6020003023973,新規,0,2023-06-02,2023-06-02,Ｋｔｙｈ　Ｅｎｔｅｒｔａｉｎｍｅｎｔ合同会社,,合同会社,神奈川県,横浜市西区,北幸２丁目１０番地２８むつみビル３Ｆ,,14,103,2200004,,,,,,,2023-06-02,1,,,,,キースエンターテイメント,0
1431,6020005016018,新規,0,2023-06-02,2023-06-02,一般社団法人サポートネット,,その他の設立登記法人,神奈川県,横浜市戸塚区,汲沢７丁目４番３０号,,14,110,2450061,,,,,,,2023-06-02,1,,,,,サポートネット,0
1448,6040001128599,新規,0,2023-06-02,2023-06-02,株式会社鈴木土建,,株式会社,千葉県,館山市,稲１９９番地の１,,12,205,2940012,,,,,,,2023-06-02,1,,,,,スズキドケン,0
1454,6040003022726,新規,0,2023-06-02,2023-06-02,合同会社のぶし,,合同会社,千葉県,松戸市,根本２３０番地の６,,12,207,2710077,,,,,,,2023-06-02,1,,,,,ノブシ,0
1467,6080001025644,新規,0,2023-06-02,2023-06-02,株式会社ＡＳＣＥＮＤＩＮＧ,,株式会社,静岡県,静岡市駿河区,馬渕１丁目１０番７－４０１号,,22,102,4228063,,,,,,,2023-06-02,1,,,,,アセンディング,0
1473,6110003005070,新規,0,2023-06-02,2023-06-02,合同会社つばさ産業医オフィス,,合同会社,新潟県,新潟市中央区,天神１丁目１番地プラーカ３ＨＵＢＳＴＡＴＩＯＮＫＥＮＴＯ,,15,103,9500917,,,,,,,2023-06-02,1,,,,,ツバササンギョウイオフィス,0
1480,6120001255311,新規,0,2023-06-02,2023-06-02,株式会社和心,,株式会社,大阪府,大阪市東住吉区,鷹合２丁目３番２５号,,27,121,5460014,,,,,,,2023-06-02,1,,,,,カンナ,0
1481,6120001255352,新規,0,2023-06-02,2023-06-02,株式会社ＶｉＴ,,株式会社,大阪府,大阪市北区,梅田１丁目２番２号大阪駅前第２ビル１２－１２,,27,127,5300001,,,,,,,2023-06-02,1,,,,,ヴィット,0
1482,6120001255377,新規,0,2023-06-02,2023-06-02,株式会社マトリックス,,株式会社,大阪府,大阪市港区,海岸通２丁目５番１４－３０２号,,27,107,5520022,,,,,,,2023-06-02,1,,,,,マトリックス,0
1483,6120001255402,新規,0,2023-06-02,2023-06-02,ソランテック株式会社,,株式会社,大阪府,大阪市中央区,平野町４丁目６番１６号,,27,128,5410046,,,,,,,2023-06-02,1,,,,,ソランテック,0
1486,6120003024169,新規,0,2023-06-02,2023-06-02,プールブ合同会社,,合同会社,大阪府,大阪市淀川区,西中島４丁目４番２５－１０１１号,,27,123,5320011,,,,,,,2023-06-02,1,,,,,プールブ,0
1487,6120003024193,新規,0,2023-06-02,2023-06-02,合同会社音の和,,合同会社,大阪府,大阪市都島区,高倉町３丁目１４番２０－１４０２号,,27,102,5340011,,,,,,,2023-06-02,1,,,,,オトノワ,0
1488,6120003024202,新規,0,2023-06-02,2023-06-02,合同会社十皿,,合同会社,大阪府,大阪市北区,西天満２丁目７番２６号徳矢ビル１Ｆ,,27,127,5300047,,,,,,,2023-06-02,1,,,,,トサラ,0
1489,6120103005250,新規,0,2023-06-02,2023-06-02,合同会社ＣａｌｃＳｕｐｐｏｒｔ,,合同会社,大阪府,羽曳野市,恵我之荘１丁目１１番９号,,27,222,5830886,,,,,,,2023-06-02,1,,,,,カルクサポート,0
1501,6140001130347,新規,0,2023-06-02,2023-06-02,株式会社さくらパック,,株式会社,兵庫県,姫路市,楠町１２６,,28,201,6700826,,,,,,,2023-06-02,1,,,,,サクラパック,0
1519,6180303005730,新規,0,2023-06-02,2023-06-02,合同会社Ｇｅａｒ．ｋ,,合同会社,愛知県,岡崎市,土井町字池田甲７番地２１,,23,202,4440204,,,,,,,2023-06-02,1,,,,,ガアク,0
1524,6190003004338,新規,0,2023-06-02,2023-06-02,ｍ＆ｎ合同会社,,合同会社,三重県,桑名市,大字安永二丁目１１６１番地２,,24,205,5110839,,,,,,,2023-06-02,1,,,,,エムアンドエヌ,0
1531,6200001041356,新規,0,2023-06-02,2023-06-02,株式会社Ｉ．Ｋ．Ｕ　ＴＲＡＤＩＮＧ,,株式会社,岐阜県,養老郡養老町,大巻５４２番地１,,21,341,5031275,,,,,,,2023-06-02,1,,,,,アイケーユートレーディング,0
1537,6230001019861,新規,0,2023-06-02,2023-06-02,ＹＮＳ　ｐｌｕｓ株式会社,,株式会社,富山県,滑川市,上小泉２０１６番地１,,16,206,9360053,,,,,,,2023-06-02,1,,,,,ワイエヌエスプラス,0
1542,6260001037992,新規,0,2023-06-02,2023-06-02,株式会社翔飛建設,,株式会社,岡山県,総社市,福井２０６６番地３,,33,208,7191115,,,,,,,2023-06-02,1,,,,,ショウビケンセツ,0
1543,6260003004322,新規,0,2023-06-02,2023-06-02,合同会社ＳＣＥＮＥ,,合同会社,岡山県,岡山市東区,東平島１０２９番地６,,33,103,7090631,,,,,,,2023-06-02,1,,,,,シーン,0
1546,6290001101713,新規,0,2023-06-02,2023-06-02,株式会社タケタ,,株式会社,福岡県,福岡市南区,塩原４丁目２０番１３－２０１号,,40,134,8150032,,,,,,,2023-06-02,1,,,,,タケタ,0
1547,6290001101721,新規,0,2023-06-02,2023-06-02,株式会社Ｕｐ　Ｖｉｌｌａｇｅ　Ｅｘｐ,,株式会社,福岡県,福岡市博多区,金の隈３丁目２番３－６１０号,,40,132,8120863,,,,,,,2023-06-02,1,,,,,アップヴィレッジイーエックスピー,0
1548,6290001101746,新規,0,2023-06-02,2023-06-02,株式会社松幸商店,,株式会社,福岡県,福岡市南区,鶴田２丁目２２番８号,,40,134,8111352,,,,,,,2023-06-02,1,,,,,マツユキショウテン,0
1550,6290003013980,新規,0,2023-06-02,2023-06-02,合同会社ＰＩＥＣＥ,,合同会社,福岡県,小郡市,小郡４１８番地１－Ｅ１０２号,,40,216,8380141,,,,,,,2023-06-02,1,,,,,ピース,0
1551,6290801029567,新規,0,2023-06-02,2023-06-02,株式会社林塗装工業,,株式会社,福岡県,北九州市八幡西区,本城３丁目１９番３５号,,40,109,8070801,,,,,,,2023-06-02,1,,,,,ハヤシトソウコウギョウ,0
1559,6330001030908,新規,0,2023-06-02,2023-06-02,株式会社Ｎｅｘｔ　Ｗｏｒｋｓ,,株式会社,熊本県,熊本市東区,八反田３丁目１５番２０号北原店舗１階Ｅ,,43,102,8618034,,,,,,,2023-06-02,1,,,,,ネクストワークス,0
1563,6340001025618,新規,0,2023-06-02,2023-06-02,株式会社鹿児島修繕作業所,,株式会社,鹿児島県,鹿児島市,上之園町２４番地２７,,46,201,8900052,,,,,,,2023-06-02,1,,,,,カゴシマシュウゼンサギョウショ,0
1566,6340003004140,新規,0,2023-06-02,2023-06-02,合同会社ウェーブ,,合同会社,鹿児島県,鹿児島市,春山町１１７６番地４,,46,201,8992704,,,,,,,2023-06-02,1,,,,,ウェーブ,0
1567,6350003004362,新規,0,2023-06-02,2023-06-02,合同会社万事屋谷ちゃん,,合同会社,宮崎県,宮崎市,下原町３３２番地２アルファスマート青葉北ＩＩ３０６号,00130697,45,201,8800843,,,,,,,2023-06-02,1,,,,,ヨロズヤタニチャン,0
1568,6360003013016,新規,0,2023-06-02,2023-06-02,合同会社Ｌｉｆｅ　Ｊｏｕｒｎｅｙ,,合同会社,沖縄県,沖縄市,美里２丁目１－１２,,47,211,9042153,,,,,,,2023-06-02,1,,,,,ライフジャーニー,0
1573,6370001050019,新規,0,2023-06-02,2023-06-02,株式会社杜王,,株式会社,宮城県,仙台市太白区,富沢西１丁目１９番地の１杜王ビル６０１,,04,104,9820037,,,,,,,2023-06-02,1,,,,,モリオウ,0
1578,6380001033732,新規,0,2023-06-02,2023-06-02,株式会社ＺＥＥＤ,,株式会社,福島県,郡山市,安積町成田字田向４５番地の２４５,,07,203,9630112,,,,,,,2023-06-02,1,,,,,ジード,0
1586,6430003015095,新規,0,2023-06-02,2023-06-02,合同会社キャリア・トーチ,,合同会社,北海道,札幌市中央区,南十九条西９丁目２－１３,,01,101,0640919,,,,,,,2023-06-02,1,,,,,キャリアトーチ,0
1591,6470005006510,新規,0,2023-06-02,2023-06-02,一般社団法人ポレポレ,,その他の設立登記法人,香川県,さぬき市,寒川町神前３６５１番地１,,37,206,7692323,,,,,,,2023-06-02,1,,,,,ポレポレ,0
1596,6500001024958,新規,0,2023-06-02,2023-06-02,株式会社西建,,株式会社,愛媛県,松山市,森松町７１４番地１３,,38,201,7911113,,,,,,,2023-06-02,1,,,,,ニシケン,0
1604,6700150115959,新規,0,2023-06-02,2023-05-09,所沢環境市民の会,,その他,埼玉県,所沢市,小手指南１丁目２５－１２９栗田様方,,11,208,3591146,,,,,,,2023-05-09,1,,,,,トコロザワカンキヨウシミンノカイ,0
1605,6700150116759,新規,0,2023-06-02,2023-05-31,Ｎ７プロジェクト,,その他,佐賀県,唐津市,七山白木１００６－４,,41,202,8471108,,,,,,,2023-05-31,1,,,,,エヌナナプロジエクト,0
1606,6700150116809,新規,0,2023-06-02,2023-06-02,新宮町三代土地区画整理組合,,その他,福岡県,糟屋郡新宮町,大字三代４４３番地１,,40,345,8110111,,,,,,,2023-06-02,1,,,,,シングウマチミシロトチクカクセイリクミアイ,0
1607,6700150116858,新規,0,2023-06-02,2023-06-02,ｘｉ　ａｎ　ｈｕｏ　ｓｉ　ｊｉａｏ　ｙｕ　ｋｅ　ｊｉ　ｙｏｕ　ｘｉａｎ　ｇｏｎｇ　ｓｉ,,外国会社等,,,,,,,,ｙａｎ　ｔａ　ｑｕ　ｇａｏ　ｘｉｎ　ｌｕ　２５　ｈａｏ　ｒｕｉ　ｘｉｎ　ｄａ　ｓｈａ　１　ｚｈｕａｎｇ　１　ｄａｎ　ｙｕａｎ１０４０２　ｓｈｉ　Ｘｉ　ａｎ　Ｓｈａｎ　ｘｉ　ＣＮ,,,,,,2023-06-02,1,,,,,シアンホゥオシジャオユケジユウゲンコウシ,0
1617,7010005036767,新規,0,2023-06-02,2023-06-02,特定目的会社枚方商業施設開発,,その他の設立登記法人,東京都,中央区,日本橋１丁目４番１号日本橋一丁目ビルディング,,13,102,1030027,,,,,,,2023-06-02,1,,,,,ヒラカタショウギョウシセツカイハツ,0
1619,7010101015666,新規,0,2023-06-02,2023-06-02,株式会社ＹＯＹＯＦＯ,,株式会社,東京都,八王子市,東町十丁目３番ＷＡＤＡビルディング１０７,,13,201,1920082,,,,,,,2023-06-02,1,,,,,ヨーヨフォ,0
1636,7010403030207,新規,0,2023-06-02,2023-06-02,フェアネスリアルティ合同会社,,合同会社,東京都,港区,虎ノ門１丁目３番１号,,13,103,1050001,,,,,,,2023-06-02,1,,,,,フェアネスリアルティ,0
1638,7010405022152,新規,0,2023-06-02,2023-06-02,一般社団法人にじいろソリューション,,その他の設立登記法人,東京都,港区,南青山２丁目２番１５号,,13,103,1070062,,,,,,,2023-06-02,1,,,,,ニジイロソリューション,0
1639,7010405022160,新規,0,2023-06-02,2023-06-02,一般社団法人Ｓｍｉｌｅ　Ａｓｉａ　Ｊａｐａｎ,,その他の設立登記法人,東京都,港区,新橋６丁目７番９号新橋アイランドビル３階事務センター内,,13,103,1050004,,,,,,,2023-06-02,1,,,,,スマイルアジアジャパン,0
1642,7010503007022,新規,0,2023-06-02,2023-06-02,合同会社Ｅａｒｔｈ　Ｕｎｉｏｎ,,合同会社,東京都,台東区,蔵前４丁目３３番４号ＬｉｔｔｌｅＦｉｅｌｄ蔵前２０２,,13,106,1110051,,,,,,,2023-06-02,1,,,,,アースユニオン,0
1646,7010601063198,新規,0,2023-06-02,2023-06-02,株式会社ラクスルファクトリー,,株式会社,東京都,江東区,枝川１丁目１０番２４号,,13,108,1350051,,,,,,,2023-06-02,1,,,,,ラクスルファクトリー,0
1649,7010701044346,新規,0,2023-06-02,2023-06-02,株式会社クラウドパートナー,,株式会社,東京都,品川区,平塚２丁目１８－１０－５０１,,13,109,1420051,,,,,,,2023-06-02,1,,,,,クラウドパートナー,0
1650,7010801034008,新規,0,2023-06-02,2023-06-02,コネクトウィンウィン株式会社,,株式会社,東京都,大田区,田園調布本町３８番１号,,13,111,1450072,,,,,,,2023-06-02,1,,,,,コネクトウィンウィン,0
1654,7010903008207,新規,0,2023-06-02,2023-06-02,合同会社バーニーズ,,合同会社,東京都,世田谷区,太子堂３丁目５番１３号ルブラン三軒茶屋１０１,,13,112,1540004,,,,,,,2023-06-02,1,,,,,バーニーズ,0
1659,7011001154802,新規,0,2023-06-02,2023-06-02,株式会社ＣｒｅｓｃｅｎＤｏ,,株式会社,東京都,渋谷区,道玄坂１丁目１０番８号渋谷道玄坂東急ビル２Ｆ－Ｃ,,13,113,1500043,,,,,,,2023-06-02,1,,,,,クレッシェンド,0
1660,7011001154827,新規,0,2023-06-02,2023-06-02,株式会社シーラリアルティ,,株式会社,東京都,渋谷区,広尾１丁目１番３９号,,13,113,1500012,,,,,,,2023-06-02,1,,,,,シーラリアルティ,0
1665,7011103013105,新規,0,2023-06-02,2023-06-02,石田合同会社,,合同会社,東京都,新宿区,上落合３丁目１５－１６－３０１,,13,104,1610034,,,,,,,2023-06-02,1,,,,,イシダ,0
1666,7011203004094,新規,0,2023-06-02,2023-06-02,ＳＡＴＵＲＤＡＹＳ合同会社,,合同会社,東京都,中野区,野方１丁目３－９,,13,114,1650027,,,,,,,2023-06-02,1,,,,,サタデイズ,0
1673,7011701026284,新規,0,2023-06-02,2023-06-02,株式会社ＦＡＴＥＣＨ,,株式会社,東京都,江戸川区,一之江２丁目５番４－１０２号,,13,123,1320024,,,,,,,2023-06-02,1,,,,,フェイテック,0
1676,7011801042479,新規,0,2023-06-02,2023-06-02,ＡｒｔＩｎｔｅｌ株式会社,,株式会社,東京都,足立区,竹の塚１丁目１３－１３－２０３号室,,13,121,1210813,,,,,,,2023-06-02,1,,,,,アートインテル,0
1680,7012801022396,新規,0,2023-06-02,2023-06-02,Ｓａｒｋ株式会社,,株式会社,東京都,昭島市,松原町５丁目９番１０号,,13,207,1960003,,,,,,,2023-06-02,1,,,,,サーク,0
1681,7012803003089,新規,0,2023-06-02,2023-06-02,ＧｉｔＭ合同会社,,合同会社,東京都,国分寺市,西元町２丁目１１―２２クラシックス国分寺３Ｆ,,13,214,1850023,,,,,,,2023-06-02,1,,,,,ジーアイティーエム,0
1686,7020001151825,新規,0,2023-06-02,2023-06-02,セントラル株式会社,,株式会社,神奈川県,横浜市南区,蒔田町字三度台１０１８番地１５ワコーレロイヤルヒルズ横浜蒔田９１４号室,,14,105,2320043,,,,,,,2023-06-02,1,,,,,セントラル,0
1688,7020003023972,新規,0,2023-06-02,2023-06-02,三羊合同会社,,合同会社,神奈川県,横浜市神奈川区,菅田町２４７１番地７,,14,102,2210864,,,,,,,2023-06-02,1,,,,,サンヨウ,0
1691,7021003013146,新規,0,2023-06-02,2023-06-02,シーブリーズ合同会社,,合同会社,神奈川県,鎌倉市,由比ガ浜２丁目１９番３２号,,14,204,2480014,,,,,,,2023-06-02,1,,,,,シーブリーズ,0
1699,7030001154083,新規,0,2023-06-02,2023-06-02,零光株式会社,,株式会社,埼玉県,さいたま市見沼区,深作３丁目３６番地３７,,11,104,3370003,,,,,,,2023-06-02,1,,,,,レイコウ,0
1700,7030001154199,新規,0,2023-06-02,2023-06-02,株式会社ＣＡＴ‐ＬＩＮＥ,,株式会社,埼玉県,八潮市,緑町１丁目８番地１７,,11,234,3400808,,,,,,,2023-06-02,1,,,,,キャットライン,0
1708,7030003021868,新規,0,2023-06-02,2023-06-02,合同会社植松工業,,合同会社,埼玉県,所沢市,東所沢和田２丁目１５番地の１２メゾン東所沢１０５,,11,208,3590023,,,,,,,2023-06-02,1,,,,,ウエマツコウギョウ,0
1713,7040001128598,新規,0,2023-06-02,2023-06-02,４ＳＪ株式会社,,株式会社,千葉県,千葉市稲毛区,園生町１００７番地１,,12,103,2630051,,,,,,,2023-06-02,1,,,,,フォーエスジェイ,0
1719,7040003022717,新規,0,2023-06-02,2023-06-02,トリモートメディカル合同会社,,合同会社,千葉県,千葉市美浜区,磯辺３丁目１０番６号,,12,106,2610012,,,,,,,2023-06-02,1,,,,,トリモートメディカル,0
1720,7040003022725,新規,0,2023-06-02,2023-06-02,ＡＪ　ＭＯＴＯＲＳ合同会社,,合同会社,千葉県,山武市,松尾町借毛本郷２３００番地１ＳｕｃｃｅｓｓＬａｎｄＮｏ．３,00130704,12,237,2891537,,,,,,,2023-06-02,1,,,,,エイジェイモータース,0
1736,7080401026506,新規,0,2023-06-02,2023-06-02,株式会社松下造園,,株式会社,静岡県,袋井市,下山梨１５２８番地の１,,22,216,4370123,,,,,,,2023-06-02,1,,,,,マツシタゾウエン,0
1737,7100001036464,新規,0,2023-06-02,2023-06-02,株式会社坂田商事,,株式会社,長野県,大町市,平１０４０番地６,,20,212,3980001,,,,,,,2023-06-02,1,,,,,サカタショウジ,0
1739,7100003007042,新規,0,2023-06-02,2023-06-02,合同会社晴空,,合同会社,長野県,安曇野市,豊科４４６９番地,,20,220,3998205,,,,,,,2023-06-02,1,,,,,セイラ,0
1745,7120001255194,新規,0,2023-06-02,2023-06-02,株式会社Ａｄｖａｎｃｅ　Ｂｌｏｏｍ,,株式会社,大阪府,大阪市西区,南堀江１丁目２５番地１２号ＲＥ－０１５－４０１,,27,106,5500015,,,,,,,2023-06-02,1,,,,,アドバンスブルーム,0
1746,7120001255310,新規,0,2023-06-02,2023-06-02,株式会社羽室商会,,株式会社,大阪府,大阪市鶴見区,今津中３丁目３番２－２１５号,,27,124,5380042,,,,,,,2023-06-02,1,,,,,ハムロショウカイ,0
1747,7120001255319,新規,0,2023-06-02,2023-06-02,株式会社都留屋ＨＤ,,株式会社,大阪府,大阪市平野区,瓜破西１丁目８番５１号,,27,126,5470025,,,,,,,2023-06-02,1,,,,,ツルヤホールディングス,0
1748,7120001255368,新規,0,2023-06-02,2023-06-02,株式会社食の錦美和堂,,株式会社,大阪府,大阪市住之江区,東加賀屋１丁目３番４０号舞昆御殿２階,,27,125,5590012,,,,,,,2023-06-02,1,,,,,ショクノニシキビワドウ,0
1749,7120001255376,新規,0,2023-06-02,2023-06-02,株式会社三進電気工業,,株式会社,大阪府,門真市,三ツ島６丁目２４番３４－１０３号,,27,223,5710015,,,,,,,2023-06-02,1,,,,,サンシンデンキコウギョウ,0
1750,7120001255392,新規,0,2023-06-02,2023-06-02,ＳＴＭＩ株式会社,,株式会社,大阪府,大阪市浪速区,元町１丁目１０番６号堤ビル３階,,27,111,5560016,,,,,,,2023-06-02,1,,,,,エスティーエムアイ,0
1751,7120001255434,新規,0,2023-06-02,2023-06-02,イングスホーム株式会社,,株式会社,大阪府,大阪市西区,新町１丁目２番１３号,,27,106,5500013,,,,,,,2023-06-02,1,,,,,イングスホーム,0
1755,7120905006461,新規,0,2023-06-02,2023-06-02,一般社団法人ＧＲＥＥＮ　ＢＯＸ　ＣＬＵＢ,,その他の設立登記法人,大阪府,吹田市,藤白台３丁目５番１－１０８号,,27,205,5650873,,,,,,,2023-06-02,1,,,,,グリーンボックスクラブ,0
1756,7122003002599,新規,0,2023-06-02,2023-06-02,ＳＡＷＡＫＥＮ合同会社,,合同会社,大阪府,四條畷市,西中野３丁目１番３１－６０３号,,27,229,5750055,,,,,,,2023-06-02,1,,,,,サワケン,0
1767,7130001074420,新規,0,2023-06-02,2023-06-02,株式会社Ｔａｅｙｏｕｎｇ,,株式会社,京都府,京都市右京区,西院西三蔵町１５番地２アソシエビル２０１号,,26,108,6150027,,,,,,,2023-06-02,1,,,,,テヨン,0
1771,7140001130387,新規,0,2023-06-02,2023-06-02,玉井工業株式会社,,株式会社,兵庫県,姫路市,広畑区高浜町１丁目２９番地,,28,201,6711153,,,,,,,2023-06-02,1,,,,,タマイコウギョウ,0
1786,7180001156511,新規,0,2023-06-02,2023-06-02,株式会社林商事,,株式会社,愛知県,名古屋市中川区,万場２丁目２１７番地,,23,110,4540997,,,,,,,2023-06-02,1,,,,,ハヤシショウジ,0
1787,7180001156536,新規,0,2023-06-02,2023-06-02,株式会社ＭＥＳＳＯ,,株式会社,愛知県,名古屋市天白区,八事山１２８番地,,23,116,4680077,,,,,,,2023-06-02,1,,,,,メッソ,0
1793,7180301037436,新規,0,2023-06-02,2023-06-02,ＪＫ株式会社,,株式会社,愛知県,豊田市,美山町３丁目１５番地アバンギャルド５０２号,,23,211,4710849,,,,,,,2023-06-02,1,,,,,ジェイケイ,0
1796,7200001041355,新規,0,2023-06-02,2023-06-02,株式会社ミタメタル,,株式会社,岐阜県,本巣市,随原字朝稲８７番地１,,21,218,5010416,,,,,,,2023-06-02,1,,,,,ミタメタル,0
1798,7200003005977,新規,0,2023-06-02,2023-06-02,合同会社ゆみカンパニー,,合同会社,岐阜県,揖斐郡池田町,八幡２４５９番地の２,,21,404,5032426,,,,,,,2023-06-02,1,,,,,ユミカンパニー,0
1801,7220003003525,新規,0,2023-06-02,2023-06-02,居宅介護支援事業所あゆみ合同会社,,合同会社,石川県,白山市,新成１丁目２２９番地,,17,210,9240020,,,,,,,2023-06-02,1,,,,,キョタクカイゴシエンジギョウショアユミ,0
1805,7240001061597,新規,0,2023-06-02,2023-06-02,デルマルコーポレーション株式会社,,株式会社,広島県,福山市,松浜町４丁目３番４３号（２０５号）,,34,207,7200802,,,,,,,2023-06-02,1,,,,,,0
1811,7260001037991,新規,0,2023-06-02,2023-06-02,株式会社にじいろｅａｒｔｈ,,株式会社,岡山県,井原市,神代町１５３,,33,207,7150002,,,,,,,2023-06-02,1,,,,,ニジイロアース,0
1819,7290001101729,新規,0,2023-06-02,2023-06-02,株式会社いつぼし,,株式会社,福岡県,福岡市中央区,天神３丁目１６番１９号,,40,133,8100001,,,,,,,2023-06-02,1,,,,,イツボシ,0
1820,7290001101745,新規,0,2023-06-02,2023-06-02,株式会社ふくぐら,,株式会社,福岡県,福岡市早良区,原６丁目２９－４３－５０２,,40,137,8140022,,,,,,,2023-06-02,1,,,,,フクグラ,0
1824,7290801029566,新規,0,2023-06-02,2023-06-02,株式会社ＲＳ商事,,株式会社,福岡県,北九州市若松区,大字蜑住１５０８番地３,,40,103,8080122,,,,,,,2023-06-02,1,,,,,アールエスショウジ,0
1831,7340001025617,新規,0,2023-06-02,2023-06-02,ＫＲＭ　ｓｅｒｖｉｃｅ株式会社,,株式会社,鹿児島県,鹿児島市,下荒田３丁目７番１２号,,46,201,8900056,,,,,,,2023-06-02,1,,,,,ケイアールエムサービス,0
1838,7360003013015,新規,0,2023-06-02,2023-06-02,合同会社サザンオールストア,,合同会社,沖縄県,糸満市,西崎２丁目１８番８号,,47,210,9010305,,,,,,,2023-06-02,1,,,,,サザンオールストア,0
1840,7370001050018,新規,0,2023-06-02,2023-06-02,株式会社タイム,,株式会社,宮城県,仙台市青葉区,昭和町３－５５－１０２,,04,101,9810913,,,,,,,2023-06-02,1,,,,,タイム,0
1844,7380001033731,新規,0,2023-06-02,2023-06-02,株式会社興栄産業,,株式会社,福島県,郡山市,安積町荒井字麦清水６５,,07,203,9630111,,,,,,,2023-06-02,1,,,,,コウエイサンギョウ,0
1848,7430001089256,新規,0,2023-06-02,2023-06-02,株式会社ライフツウー,,株式会社,北海道,札幌市白石区,南郷通６丁目南７－２５－２０３,,01,104,0030022,,,,,,,2023-06-02,1,,,,,ライフツウ,0
1853,7450001014006,新規,0,2023-06-02,2023-06-02,株式会社ウエストサイド,,株式会社,北海道,旭川市,新富二条２丁目４番１６号,,01,204,0700002,,,,,,,2023-06-02,1,,,,,ウエストサイド,0
1856,7460101007387,新規,0,2023-06-02,2023-06-02,株式会社ＲａｉｓｅＰＬＡＮ,,株式会社,北海道,中川郡幕別町,寿町１１７番地,,01,643,0890605,,,,,,,2023-06-02,1,,,,,ライズプラン,0
1857,7480001012114,新規,0,2023-06-02,2023-06-02,株式会社阿北キャンバス,,株式会社,徳島県,阿波市,土成町吉田字風呂屋敷２９番地７,,36,206,7711507,,,,,,,2023-06-02,1,,,,,アホクキャンバス,0
1860,7500001024965,新規,0,2023-06-02,2023-06-02,株式会社留ヶ奈路産業,,株式会社,愛媛県,松山市,東野６丁目１番２５号,,38,201,7900903,,,,,,,2023-06-02,1,,,,,,0
1861,7500001024973,新規,0,2023-06-02,2023-06-02,株式会社Ｋ,,株式会社,愛媛県,松山市,星岡１丁目２９番７号,,38,201,7900922,,,,,,,2023-06-02,1,,,,,,0
1867,7700150115751,新規,0,2023-06-02,2023-04-26,藤島商工業納品事業委員会,,その他,山形県,鶴岡市,藤島字笹花３３－１,,06,203,9997601,,,,,,,2023-04-26,1,,,,,フジシマシヨウコウギヨウノウヒンジギヨウイインカイ,0
1868,7700150116320,新規,0,2023-06-02,2023-05-19,飯田橋スクエアビル管理組合,,その他,東京都,新宿区,高田馬場２丁目１４番２号,,13,104,1690075,,,,,,,2023-05-19,1,,,,,イイダバシスクエアビルカンリクミアイ,0
1869,7700150116849,新規,0,2023-06-02,2023-06-02,ｎｉｎｇｂｏ　ｋｅｘｕｓｈａｎｇｍａｏ　ｙｏｕｘｉａｎｇｏｎｇｓｉ,,外国会社等,,,,,,,,ｃｈａｎｇｘｉｎｇｌｕ６８９ｎｏｎｇ２１ｈａｏ１０ｚｈｕａｎｇ１１２ｓｈｉｔｕｏｇｕａｎ３０２１ｎｉｎｇｂｏ　Ｚｈｅｊｉａｎｇ　ＣＮ,,,,,,2023-06-02,1,,,,,ニンボケシュシャンマオユウゲンコウシ,0
1870,7700150116857,新規,0,2023-06-02,2023-06-02,ＸｕＣｈａｎｇ　ＪｉｅＬｉｎＳｈａｎｇＭａｏ　ＹｏｕＸｉａｎＧｏｎｇＳｉ,,外国会社等,,,,,,,,ｊｉａｎａｎｑｕＪｉａｎｇｌｉｊｉｚｈｅｎｇａｎｇｓｈｅｎｃｕｎ６ｚｕ　ｘｕｃｈａｎｇｓｈｉ　ｈｅｎａｎｓｈｅｎｇ　ＣＮ,,,,,,2023-06-02,1,,,,,シュチャンジエリンシャンマオユウゲンコウシ,0
1879,8010001235727,新規,0,2023-06-02,2023-06-02,Ｌｉｖｅｗｉｒｅ　Ｊａｐａｎ株式会社,,株式会社,東京都,千代田区,六番町６番２０－２０６,,13,101,1020085,,,,,,,2023-06-02,1,,,,,ライブワイヤジャパン,0
1880,8010003040737,新規,0,2023-06-02,2023-06-02,合同会社フロントドア,,合同会社,東京都,千代田区,飯田橋３丁目４番３号エレガンス飯田橋６０３,,13,101,1020072,,,,,,,2023-06-02,1,,,,,フロントドア,0
1881,8010003040745,新規,0,2023-06-02,2023-06-02,合同会社Ｋｏｍａｒｚ,,合同会社,東京都,千代田区,神田和泉町１番地６－１６ヤマトビル４０５,,13,101,1010024,,,,,,,2023-06-02,1,,,,,コマーズ,0
1883,8010101015665,新規,0,2023-06-02,2023-06-02,株式会社トレジャームーン,,株式会社,東京都,八王子市,千人町２丁目３－１６プラザ西八王子３Ｆ,,13,201,1930835,,,,,,,2023-06-02,1,,,,,トレジャームーン,0
1903,8010803004569,新規,0,2023-06-02,2023-06-02,ティーフォニクス合同会社,,合同会社,東京都,大田区,西蒲田７丁目４番４号小山第二ビル６Ｆ,,13,111,1440051,,,,,,,2023-06-02,1,,,,,ティーフォニクス,0
1908,8011003016925,新規,0,2023-06-02,2023-06-02,ベインズコンサルティング合同会社,,合同会社,東京都,渋谷区,道玄坂１丁目１０番８号渋谷道玄坂東急ビル２Ｆ－Ｃ,,13,113,1500043,,,,,,,2023-06-02,1,,,,,ベインズコンサルティング,0
1909,8011003016933,新規,0,2023-06-02,2023-06-02,合同会社ＫＡＭＩＡ,,合同会社,東京都,目黒区,碑文谷１丁目２６番１８－１０２号碑文谷ヒルズサレジオ通り,,13,110,1520003,,,,,,,2023-06-02,1,,,,,カミア,0
1910,8011005010091,新規,0,2023-06-02,2023-06-02,一般社団法人韓国コスメインフルエンサー協会,,その他の設立登記法人,東京都,渋谷区,円山町５－５,,13,113,1500044,,,,,,,2023-06-02,1,,,,,カンコクコスメインフルエンサーキョウカイ,0
1913,8011101103121,新規,0,2023-06-02,2023-06-02,ＮＯＺＯＭＩ株式会社,,株式会社,東京都,新宿区,西新宿７丁目７番７号ハイライフ西新宿４０７号室,,13,104,1600023,,,,,,,2023-06-02,1,,,,,ノゾミ,0
1919,8011501029288,新規,0,2023-06-02,2023-06-02,日本熊治精工株式会社,,株式会社,東京都,荒川区,南千住３丁目２７－２浅草ビル５０８,,13,118,1160003,,,,,,,2023-06-02,1,,,,,ニッポンクマジセイコウ,0
1921,8011701026283,新規,0,2023-06-02,2023-06-02,株式会社献山,,株式会社,東京都,江戸川区,江戸川２丁目１０番５－２０３号,,13,123,1320013,,,,,,,2023-06-02,1,,,,,ケンザン,0
1935,8020001151774,新規,0,2023-06-02,2023-06-02,株式会社旭ペイント,,株式会社,神奈川県,横浜市鶴見区,栄町通１丁目７番地１９,,14,101,2300038,,,,,,,2023-06-02,1,,,,,アサヒペイント,0
1936,8020001151857,新規,0,2023-06-02,2023-06-02,株式会社柊,,株式会社,神奈川県,川崎市中原区,上平間５６１番地３Ｆ,,14,133,2110013,,,,,,,2023-06-02,1,,,,,ヒイラギ,0
1937,8020001151865,新規,0,2023-06-02,2023-06-02,株式会社ＢｎＫジャパン,,株式会社,神奈川県,横浜市西区,北幸１丁目１１番１号水信ビル７階,,14,103,2200004,,,,,,,2023-06-02,1,,,,,ビーアンドケージャパン,0
1938,8020001151881,新規,0,2023-06-02,2023-06-02,株式会社一誠,,株式会社,神奈川県,横浜市南区,平楽４７番地,,14,105,2320035,,,,,,,2023-06-02,1,,,,,イッセイ,0
1940,8020003023988,新規,0,2023-06-02,2023-06-02,合同会社エージェントアルファ,,合同会社,神奈川県,横浜市西区,赤門町２丁目２３,,14,103,2200034,,,,,,,2023-06-02,1,,,,,エージェントアルファ,0
1941,8020003023996,新規,0,2023-06-02,2023-06-02,合同会社ｗａｌｋＲｉｓｅ,,合同会社,神奈川県,横浜市神奈川区,西大口１３０番地８１,,14,102,2210004,,,,,,,2023-06-02,1,,,,,ウォークライズ,0
1942,8021001079205,新規,0,2023-06-02,2023-06-02,株式会社Ｄｒｏｐ,,株式会社,神奈川県,厚木市,鳶尾２丁目５番１０号,,14,212,2430204,,,,,,,2023-06-02,1,,,,,ドロップ,0
1961,8040001128597,新規,0,2023-06-02,2023-06-02,キーマスターズ株式会社,,株式会社,千葉県,印西市,平賀１１９１番地４,,12,231,2701605,,,,,,,2023-06-02,1,,,,,キーマスターズ,0
1965,8040003022716,新規,0,2023-06-02,2023-06-02,合同会社ＳＴＡＹ　ＧＯＬＤ,,合同会社,千葉県,松戸市,上本郷９０４番地６・２０１号,,12,207,2710064,,,,,,,2023-06-02,1,,,,,ステイゴールド,0
1972,8050005013274,新規,0,2023-06-02,2023-06-02,一般社団法人Ｗｉｔｈ　Ｌｅａｆ,,その他の設立登記法人,茨城県,北茨城市,中郷町松井１１３番地の５３,,08,215,3191557,,,,,,,2023-06-02,1,,,,,ウィズリーフ,0
1975,8080001025642,新規,0,2023-06-02,2023-06-02,株式会社アールシーテクノ,,株式会社,静岡県,静岡市清水区,原４５４番地の４,,22,103,4240113,,,,,,,2023-06-02,1,,,,,アールシーテクノ,0
1988,8120001255318,新規,0,2023-06-02,2023-06-02,コウセイコウ株式会社,,株式会社,大阪府,大阪市城東区,今福東１丁目１４番１８号今福グランドハイツ１２１３室,,27,118,5360002,,,,,,,2023-06-02,1,,,,,コウセイコウ,0
1989,8120001255326,新規,0,2023-06-02,2023-06-02,ワンドラゴンサービス株式会社,,株式会社,大阪府,大阪市港区,南市岡３丁目６番５９号,,27,107,5520011,,,,,,,2023-06-02,1,,,,,ワンドラゴンサービス,0
1990,8120001255367,新規,0,2023-06-02,2023-06-02,ソラクル株式会社,,株式会社,大阪府,大阪市北区,梅田１丁目１番３,,27,127,5300001,,,,,,,2023-06-02,1,,,,,ソラクル,0
1991,8120001255391,新規,0,2023-06-02,2023-06-02,株式会社ＮＩＮＥ,,株式会社,大阪府,大阪市旭区,高殿７丁目５－１７,,27,117,5350031,,,,,,,2023-06-02,1,,,,,ナイン,0
1992,8120001255400,新規,0,2023-06-02,2023-06-02,株式会社サラ・プロパティ,,株式会社,大阪府,大阪市中央区,伏見町２丁目１番１号三井住友銀行高麗橋ビル,,27,128,5410044,,,,,,,2023-06-02,1,,,,,サラプロパティ,0
1993,8120001255417,新規,0,2023-06-02,2023-06-02,株式会社栄光企画,,株式会社,大阪府,大阪市鶴見区,横堤１丁目１２番１３－３１０号,,27,124,5380052,,,,,,,2023-06-02,1,,,,,エイコウキカク,0
2000,8120005023646,新規,0,2023-06-02,2023-06-02,行政書士法人紀州法務綜合,,その他の設立登記法人,大阪府,大阪市淀川区,宮原２丁目１番１７号新大阪第２ＹＳビル７０５号,,27,123,5320003,,,,,,,2023-06-02,1,,,,,キシュウホウムソウゴウ,0
2001,8120005023662,新規,0,2023-06-02,2023-06-02,一般社団法人ｍｏｒｉｍｏｔｏ音楽堂,,その他の設立登記法人,大阪府,大阪市城東区,中央３丁目７－１８シャルマンコーポ野江２号館１１８,,27,118,5360005,,,,,,,2023-06-02,1,,,,,モリモトオンガクドウ,0
2014,8130001074428,新規,0,2023-06-02,2023-06-02,株式会社ラッセル,,株式会社,京都府,京都市東山区,本町１５丁目７５５番地１５,,26,105,6050981,,,,,,,2023-06-02,1,,,,,ラッセル,0
2019,8140001130345,新規,0,2023-06-02,2023-06-02,株式会社ライズリアルエステート,,株式会社,兵庫県,明石市,東朝霧丘１６番９号,,28,203,6730854,,,,,,,2023-06-02,1,,,,,ライズリアルエステート,0
2022,8140003019132,新規,0,2023-06-02,2023-06-02,合同会社地域文化研究所,,合同会社,兵庫県,豊岡市,戸牧９－６,,28,209,6680065,,,,,,,2023-06-02,1,,,,,チイキブンカケンキュウショ,0
2040,8220001003303,新規,0,2023-06-02,2023-06-02,新谷物産株式会社,,株式会社,石川県,金沢市,入江２丁目１２８番地,,17,201,9218011,,,,,,,2023-06-02,1,,,,,シンタニブッサン,0
2045,8220003003524,新規,0,2023-06-02,2023-06-02,ＬＦＶ合同会社,,合同会社,石川県,金沢市,堀川町２３番地３６号,,17,201,9200847,,,,,,,2023-06-02,1,,,,,エルエフブイ,0
2048,8230003002021,新規,0,2023-06-02,2023-06-02,合同会社ＡＺ　ＬＩＮＥ,,合同会社,富山県,高岡市,国吉１７４番地１,,16,202,9330968,,,,,,,2023-06-02,1,,,,,エーゼットライン,0
2057,8290001101728,新規,0,2023-06-02,2023-06-02,株式会社ファストリアルティ,,株式会社,福岡県,古賀市,薬王寺９５,,40,223,8113124,,,,,,,2023-06-02,1,,,,,ファストリアルティ,0
2058,8290001101744,新規,0,2023-06-02,2023-06-02,株式会社ノアサービス,,株式会社,福岡県,福岡市東区,松島３丁目２番１９号,,40,131,8130062,,,,,,,2023-06-02,1,,,,,ノアサービス,0
2059,8290001101752,新規,0,2023-06-02,2023-06-02,株式会社ブートビート,,株式会社,福岡県,福岡市博多区,博多駅前１丁目２３番１号,,40,132,8120011,,,,,,,2023-06-02,1,,,,,ブートビート,0
2060,8290001101777,新規,0,2023-06-02,2023-06-02,株式会社ｇｕｉｌｔ　ｆｒｅｅ　ｃｏｍｐａｎｙ,,株式会社,福岡県,福岡市中央区,天神３丁目５－２９テンサンビル３Ａ,,40,133,8100001,,,,,,,2023-06-02,1,,,,,ギルトフリーカンパニー,0
2063,8290003013979,新規,0,2023-06-02,2023-06-02,三和アセットパートナーズ合同会社,,合同会社,福岡県,福岡市博多区,博多駅南１丁目６番９号,,40,132,8120016,,,,,,,2023-06-02,1,,,,,サンワアセットパートナーズ,0
2064,8290003013987,新規,0,2023-06-02,2023-06-02,合同会社ホリスケ,,合同会社,福岡県,福岡市南区,大橋３丁目２３番５２－１０１号,,40,134,8150033,,,,,,,2023-06-02,1,,,,,ホリスケ,0
2065,8290801029573,新規,0,2023-06-02,2023-06-02,ノア・ドット・ビー株式会社,,株式会社,福岡県,北九州市門司区,吉志６丁目１２番３１号,,40,101,8000114,,,,,,,2023-06-02,1,,,,,ノアドットビー,0
2070,8330001030906,新規,0,2023-06-02,2023-06-02,風土屋株式会社,,株式会社,熊本県,菊池郡菊陽町,杉並台２丁目１２番１７号,,43,404,8691110,,,,,,,2023-06-02,1,,,,,フウドヤ,0
2073,8340001001229,新規,0,2023-06-02,2023-06-02,かわくぼ綜業株式会社,,株式会社,鹿児島県,鹿児島市,新屋敷町１６番８１１号,,46,201,8920838,,,,,,,2023-06-02,1,,,,,カワクボソウギョウ,0
2077,8340003004139,新規,0,2023-06-02,2023-06-02,ＨＫｃｏｍｐａｎｙ合同会社,,合同会社,鹿児島県,鹿屋市,横山町１９３３番地２,,46,203,8930046,,,,,,,2023-06-02,1,,,,,エイチケーカンパニー,0
2083,8360003013014,新規,0,2023-06-02,2023-06-02,合同会社白洋,,合同会社,沖縄県,宜野湾市,志真志４丁目８番１４号,,47,205,9012213,,,,,,,2023-06-02,1,,,,,ハクヨウ,0
2084,8370001050025,新規,0,2023-06-02,2023-06-02,ビッグ株式会社,,株式会社,宮城県,仙台市太白区,山田本町２４番１－１３号,,04,104,9820816,,,,,,,2023-06-02,1,,,,,ビッグ,0
2093,8380003005471,新規,0,2023-06-02,2023-06-02,イノベーションヴィスタ合同会社,,合同会社,福島県,郡山市,八山田６丁目２２７番地,,07,203,9638052,,,,,,,2023-06-02,1,,,,,イノベーションヴィスタ,0
2094,8400001016261,新規,0,2023-06-02,2023-06-02,株式会社日本エスコ東北販売,,株式会社,岩手県,盛岡市,三ツ割１丁目９番８号ＳＲビル２０２,,03,201,0200011,,,,,,,2023-06-02,1,,,,,,0
2096,8410001013497,新規,0,2023-06-02,2023-06-02,ハタケン株式会社,,株式会社,秋田県,秋田市,御野場６丁目２番９号,,05,201,0101424,,,,,,,2023-06-02,1,,,,,ハタケン,0
2102,8420003002737,新規,0,2023-06-02,2023-06-02,合同会社オフィス・モードキー,,合同会社,青森県,青森市,篠田２丁目２１番９号ポレスター篠田５０１号,,02,201,0380011,,,,,,,2023-06-02,1,,,,,オフィスモードキー,0
2106,8450001014005,新規,0,2023-06-02,2023-06-02,颯和設備工業株式会社,,株式会社,北海道,旭川市,東光十二条３丁目７番１４号,,01,204,0788352,,,,,,,2023-06-02,1,,,,,ソウワセツビコウギョウ,0
2110,8470001019638,新規,0,2023-06-02,2023-06-02,株式会社アベヤマ,,株式会社,香川県,高松市,末広町７番地１２,,37,201,7600060,,,,,,,2023-06-02,1,,,,,アベヤマ,0
2114,8500001024956,新規,0,2023-06-02,2023-06-02,株式会社アオイ,,株式会社,愛媛県,松山市,久万ノ台４４９番地４,,38,201,7918016,,,,,,,2023-06-02,1,,,,,アオイ,0
2115,8500001024964,新規,0,2023-06-02,2023-06-02,株式会社ＫＬＯＴＨＯ計画,,株式会社,愛媛県,松山市,天山２丁目８－２９,,38,201,7900951,,,,,,,2023-06-02,1,,,,,,0
2121,8700150116006,新規,0,2023-06-02,2023-05-10,沖縄県地質調査業協会,,その他,沖縄県,中頭郡西原町,字森川１４３番地２森川アパート１０６号室,,47,329,9030128,,,,,,,2023-05-10,1,,,,,オキナワケンチシツチヨウサギヨウキヨウカイ,0
2122,8700150116179,新規,0,2023-06-02,2023-05-15,かわい野草茶研究グループ,,その他,岐阜県,飛騨市,河合町保木林６３番地,,21,217,5094305,,,,,,,2023-05-15,1,,,,,カワイヤソウチヤケンキユウグループ,0
2123,8700150116848,新規,0,2023-06-02,2023-06-02,Ｓｈｅｎｚｈｅｎｓｈｉ　Ｌｉｕｔｉａｎｋｅｊｉ　Ｙｏｕｘｉａｎｇｏｎｇｓｉ,,外国会社等,,,,,,,,Ｂａｏａｎｑｕ　Ｘｉｘｉａｎｇｊｉｅｄａｏ　Ｈｅｘｉｓａｎｆａｎｇ　９０　Ｈａｏ　Ｓｈｅｎｚｈｅｎ　Ｇｕａｎｇｄｏｎｇ　ＣＮ,,,,,,2023-06-02,1,,,,,シンセンシリュテェンケジユウゲンコウシ,0
2124,8700150116856,新規,0,2023-06-02,2023-06-02,ｓｈｅｎｚｈｅｎ　Ｑｉｓｈｅｎｇ　Ｍｏｕｌｄ　Ｐｌａｓｔｉｃ　Ｃｏ．，Ｌｔｄ,,外国会社等,,,,,,,,Ｗｅｓｔ　ｓｅｐａｒａｔｏｒ，１ｓｔ　Ｆｌｏｏｒ，Ｂｕｉｌｄｉｎｇ　Ｂ，Ｈｕａｘｉｎｒｕｉ　Ｉｎｄｕｓｔｒｉａｌ　Ｚｏｎｅ，Ｘｉｎｗｅｉ　Ｖｉｌｌａｇｅ，Ｄａｌａｎｇ　ｓｔｒｅｅｔ　Ｓｈｅｎｚｈｅｎ　Ｇｕａｎｇｄｏｎｇ,,,,,,2023-06-02,1,,,,,シェンゼェンチシェンモウルドプラスティックカンパニーリミテッド,0
2141,9010003040744,新規,0,2023-06-02,2023-06-02,エナジーフロー合同会社,,合同会社,東京都,中央区,日本橋人形町２丁目１３番９号,,13,102,1030013,,,,,,,2023-06-02,1,,,,,エナジーフロー,0
2142,9010005036765,新規,0,2023-06-02,2023-06-02,一般社団法人国際児童栄養振興会,,その他の設立登記法人,東京都,中央区,日本橋中洲５番１－３２１号,,13,102,1030008,,,,,,,2023-06-02,1,,,,,コクサイジドウエイヨウシンコウカイ,0
2150,9010403030114,新規,0,2023-06-02,2023-06-02,ｉＦｌｏｗ合同会社,,合同会社,東京都,港区,新橋４丁目３１番３号,,13,103,1050004,,,,,,,2023-06-02,1,,,,,アイフロウ,0
2156,9010601063205,新規,0,2023-06-02,2023-06-02,株式会社ＵＰＬＯＴＵＳ,,株式会社,東京都,江東区,森下１丁目１３番５号ＫＨＩＢＬＤＧ１階,,13,108,1350004,,,,,,,2023-06-02,1,,,,,アプロータス,0
2162,9010701044344,新規,0,2023-06-02,2023-06-02,株式会社ＳＡＭＵＲＡＩマーケティング,,株式会社,東京都,品川区,西品川１丁目２－１大崎ガーデンレジデンス２３０７,,13,109,1410033,,,,,,,2023-06-02,1,,,,,サムライマーケティング,0
2164,9010801034006,新規,0,2023-06-02,2023-06-02,株式会社ｅ‐ｔｅｎｋｉ,,株式会社,東京都,大田区,矢口１丁目４番１号,,13,111,1460093,,,,,,,2023-06-02,1,,,,,イーテンキ,0
2168,9010901053153,新規,0,2023-06-02,2023-06-02,株式会社ｓｙｎｅｒｇｅｅｅ,,株式会社,東京都,世田谷区,代沢４丁目４０－１０－Ｅ,,13,112,1550032,,,,,,,2023-06-02,1,,,,,シナジー,0
2181,9011101103079,新規,0,2023-06-02,2023-06-02,株式会社Ａｐｉｒｏ,,株式会社,東京都,新宿区,新宿６丁目２７番２８－２０２号,,13,104,1600022,,,,,,,2023-06-02,1,,,,,アピロ,0
2182,9011101103112,新規,0,2023-06-02,2023-06-02,株式会社ＡＴＣ,,株式会社,東京都,新宿区,高田馬場３丁目２５番２号,,13,104,1690075,,,,,,,2023-06-02,1,,,,,エイティーシー,0
2187,9011301028753,新規,0,2023-06-02,2023-06-02,株式会社ＣＦＯ　Ｒｏｏｍ,,株式会社,東京都,杉並区,南荻窪３丁目６番１１号,,13,115,1670052,,,,,,,2023-06-02,1,,,,,シーエフオールーム,0
2190,9011501029353,新規,0,2023-06-02,2023-06-02,ウインウイン株式会社,,株式会社,東京都,荒川区,西日暮里３丁目６－１４－６０６号室,,13,118,1160013,,,,,,,2023-06-02,1,,,,,ウインウイン,0
2195,9012403006011,新規,0,2023-06-02,2023-06-02,合同会社ウェル,,合同会社,東京都,武蔵野市,境南町２丁目２８－２４－３０５,,13,203,1800023,,,,,,,2023-06-02,1,,,,,ウェル,0
2200,9012801022394,新規,0,2023-06-02,2023-06-02,黒野不動産株式会社,,株式会社,東京都,立川市,富士見町１丁目２１番３号,,13,202,1900013,,,,,,,2023-06-02,1,,,,,クロノフドウサン,0
2201,9013103001236,新規,0,2023-06-02,2023-06-02,インテリア秋本合同会社,,合同会社,東京都,青梅市,長淵２丁目６７７番地の１４,,13,205,1980052,,,,,,,2023-06-02,1,,,,,インテリアアキモト,0
2207,9013301050852,新規,0,2023-06-02,2023-06-02,株式会社ＧＲＯＷＴＨ　ＴＥＣＨ,,株式会社,東京都,豊島区,南長崎５丁目３３番２号ラ・メゾン長崎ＸＩ３階,00130698,13,116,1710052,,,,,,,2023-06-02,1,,,,,グローステック,0
2217,9020003023979,新規,0,2023-06-02,2023-06-02,合同会社ＭＹＳＴＡＲ,,合同会社,神奈川県,川崎市高津区,下作延２丁目３６番５－３０２号エステート梶ケ谷,,14,134,2130033,,,,,,,2023-06-02,1,,,,,マイスター,0
2223,9021001079204,新規,0,2023-06-02,2023-06-02,株式会社夢限,,株式会社,神奈川県,厚木市,鳶尾２丁目５番１０号,,14,212,2430204,,,,,,,2023-06-02,1,,,,,ムゲン,0
2224,9021001079212,新規,0,2023-06-02,2023-06-02,株式会社ピースカンパニー,,株式会社,神奈川県,三浦郡葉山町,長柄６８３番地の１２,,14,301,2400113,,,,,,,2023-06-02,1,,,,,ピースカンパニー,0
2238,9030005021286,新規,0,2023-06-02,2023-06-02,一般社団法人日本ピュアリフィケーション協会,,その他の設立登記法人,埼玉県,さいたま市浦和区,東仲町１５－８グリーンスクエア６０２,,11,107,3300056,,,,,,,2023-06-02,1,,,,,ニホンピュアリフィケーションキョウカイ,0
2244,9040001128613,新規,0,2023-06-02,2023-06-02,株式会社ＬＰフロア,,株式会社,千葉県,浦安市,堀江１丁目２２番２５－２０１号リバーサイドＫＥＩ,,12,227,2790041,,,,,,,2023-06-02,1,,,,,エルピーフロア,0
2258,9070001040492,新規,0,2023-06-02,2023-06-02,株式会社シルキーラボ,,株式会社,群馬県,前橋市,駒形町１１３２番地１,,10,201,3792122,,,,,,,2023-06-02,1,,,,,シルキーラボ,0
2264,9080001025641,新規,0,2023-06-02,2023-06-02,株式会社宮原組,,株式会社,静岡県,静岡市葵区,桜町１丁目１８番４０号セジュールさくら２０１号,,22,101,4200945,,,,,,,2023-06-02,1,,,,,ミヤハラグミ,0
2271,9090001018149,新規,0,2023-06-02,2023-06-02,株式会社ＹＭＳ,,株式会社,山梨県,甲府市,千塚３丁目４番１９号ＧＡ甲府第４－７,,19,201,4000074,,,,,,,2023-06-02,1,,,,,ワイエムエス,0
2285,9120001255325,新規,0,2023-06-02,2023-06-02,株式会社ライズライフ,,株式会社,大阪府,大阪市北区,西天満４丁目１２番２号オオシマビル３階,,27,127,5300047,,,,,,,2023-06-02,1,,,,,ライズライフ,0
2286,9120001255358,新規,0,2023-06-02,2023-06-02,Ｊ＆Ｍ　Ｃｏｒｐｏｒａｔｉｏｎ株式会社,,株式会社,大阪府,大阪市淀川区,西宮原１丁目８－２４新大阪第３ドイビル６Ｆ,,27,123,5320004,,,,,,,2023-06-02,1,,,,,ジェイアンドエムコーポレーション,0
2287,9120001255366,新規,0,2023-06-02,2023-06-02,株式会社大土居城養宜館,,株式会社,大阪府,大阪市住之江区,東加賀屋１丁目３番４０号舞昆御殿２階,,27,125,5590012,,,,,,,2023-06-02,1,,,,,オドイジョウヨウギカン,0
2288,9120001255382,新規,0,2023-06-02,2023-06-02,フォーワン株式会社,,株式会社,大阪府,大阪市浪速区,元町２丁目３番２９号難波ユニオンビル５階,,27,111,5560016,,,,,,,2023-06-02,1,,,,,フォーワン,0
2289,9120001255408,新規,0,2023-06-02,2023-06-02,株式会社ＭＣＣサービス,,株式会社,大阪府,大阪市城東区,蒲生１丁目８番３７号,,27,118,5360016,,,,,,,2023-06-02,1,,,,,エムシーシーサービス,0
2290,9120001255416,新規,0,2023-06-02,2023-06-02,株式会社ＦＩＶＥＴＥＮ,,株式会社,大阪府,大阪市西区,北堀江１丁目１７番１８号２０３,,27,106,5500014,,,,,,,2023-06-02,1,,,,,ファイブテン,0
2292,9120005023645,新規,0,2023-06-02,2023-06-02,一般社団法人遺言友の会,,その他の設立登記法人,大阪府,大阪市淀川区,宮原２丁目１番１７号新大阪第２ＹＳビル７階,,27,123,5320003,,,,,,,2023-06-02,1,,,,,ユイゴントモノカイ,0
2304,9130001074419,新規,0,2023-06-02,2023-06-02,金水木商事株式会社,,株式会社,京都府,綾部市,黒谷町一ノセ１０番地１,,26,203,6230108,,,,,,,2023-06-02,1,,,,,キンスイモクショウジ,0
2313,9140001130377,新規,0,2023-06-02,2023-06-02,株式会社まさやフードシステム,,株式会社,兵庫県,西宮市,松原町９番２号,,28,204,6620912,,,,,,,2023-06-02,1,,,,,マサヤフードシステム,0
2317,9150001026450,新規,0,2023-06-02,2023-06-02,株式会社ｓｄｎＤａｔａｈｏｕｓｅ,,株式会社,奈良県,奈良市,大安寺７丁目５番７号,,29,201,6308133,,,,,,,2023-06-02,1,,,,,エスディエヌデータハウス,0
2333,9180301037442,新規,0,2023-06-02,2023-06-02,株式会社ＥｉＷＡＭＥＴＡＬ,,株式会社,愛知県,岡崎市,洞町字八王子１７番地１,,23,202,4440008,,,,,,,2023-06-02,1,,,,,エイワメタル,0
2340,9200003005975,新規,0,2023-06-02,2023-06-02,合同会社Ａｆｆｏｒｄａｂｌｅ　Ｆｉｎｄｓ　Ｆｒｏｍ　Ｊａｐａｎ,,合同会社,岐阜県,恵那市,大井町２０１７番地９５,,21,210,5097201,,,,,,,2023-06-02,1,,,,,アフォーダブルファインズフロムジャパン,0
2348,9220003003523,新規,0,2023-06-02,2023-06-02,合同会社セキノ設備,,合同会社,石川県,羽咋郡宝達志水町,柳瀬チ１９９,,17,386,9291411,,,,,,,2023-06-02,1,,,,,セキノセツビ,0
2355,9240003006160,新規,0,2023-06-02,2023-06-02,合同会社ハウジング,,合同会社,広島県,広島市南区,大須賀町１２－３,,34,103,7320821,,,,,,,2023-06-02,1,,,,,ハウジング,0
2358,9290001101743,新規,0,2023-06-02,2023-06-02,株式会社洒落,,株式会社,福岡県,久留米市,御井町１８５９－２－２Ｆ,,40,203,8390851,,,,,,,2023-06-02,1,,,,,シャレ,0
2359,9290001101768,新規,0,2023-06-02,2023-06-02,株式会社パートナーズ,,株式会社,福岡県,福岡市東区,箱崎６丁目２番８号コーポかわしまＩＩ２０１,00130703,40,131,8120053,,,,,,,2023-06-02,1,,,,,パートナーズ,0
2360,9290001101776,新規,0,2023-06-02,2023-06-02,株式会社ＣＮＫ,,株式会社,福岡県,福岡市博多区,麦野５丁目２番１－３０１号,,40,132,8120882,,,,,,,2023-06-02,1,,,,,シーエヌケー,0
2362,9290003013978,新規,0,2023-06-02,2023-06-02,合同会社ココロフューチャー,,合同会社,福岡県,福岡市南区,清水１丁目６番２１号,,40,134,8150031,,,,,,,2023-06-02,1,,,,,ココロフューチャー,0
2363,9290003013986,新規,0,2023-06-02,2023-06-02,合同会社いしばし整骨院,,合同会社,福岡県,久留米市,諏訪野町２６１９江崎第７ビル１階Ｄ,,40,203,8300037,,,,,,,2023-06-02,1,,,,,イシバシセイコツイン,0
2369,9290801029572,新規,0,2023-06-02,2023-06-02,株式会社さくら墓苑,,株式会社,福岡県,遠賀郡水巻町,吉田南５丁目１４２番地,,40,382,8070048,,,,,,,2023-06-02,1,,,,,サクラボエン,0
2372,9330001030896,新規,0,2023-06-02,2023-06-02,株式会社みらい,,株式会社,熊本県,熊本市中央区,中央街８番２４号,,43,101,8600802,,,,,,,2023-06-02,1,,,,,ミライ,0
2374,9330003009864,新規,0,2023-06-02,2023-06-02,合同会社ＬＩＦＥ,,合同会社,熊本県,水俣市,古賀町２丁目６番１６号,,43,205,8670066,,,,,,,2023-06-02,1,,,,,ライフ,0
2383,9390001017269,新規,0,2023-06-02,2023-06-02,株式会社つなぐ,,株式会社,山形県,天童市,大字寺津６５番地６,,06,210,9940073,,,,,,,2023-06-02,1,,,,,ツナグ,0
2384,9400001016269,新規,0,2023-06-02,2023-06-02,株式会社ＤＡＮＮＹ,,株式会社,岩手県,盛岡市,中央通１丁目７番１６号日の出ビル２階,,03,201,0200021,,,,,,,2023-06-02,1,,,,,ダニー,0
2385,9400005008337,新規,0,2023-06-02,2023-06-02,一般社団法人よこた共和国,,その他の設立登記法人,岩手県,陸前高田市,横田町字志田実３番地１１,,03,210,0292202,,,,,,,2023-06-02,1,,,,,ヨコタキョウワコク,0
2387,9410001013496,新規,0,2023-06-02,2023-06-02,グランツサービス株式会社,,株式会社,秋田県,秋田市,八橋大畑１丁目３番１０号,,05,201,0100962,,,,,,,2023-06-02,1,,,,,グランツサービス,0
2401,9470001019637,新規,0,2023-06-02,2023-06-02,秀星株式会社,,株式会社,香川県,観音寺市,大野原町内野々２８３番地１,,37,205,7691622,,,,,,,2023-06-02,1,,,,,シュウセイ,0
2403,9500001024955,新規,0,2023-06-02,2023-06-02,株式会社ＧＲＡＮＴ,,株式会社,愛媛県,松山市,保免西１丁目７番１５号ハイカムール保免３０５号,,38,201,7900043,,,,,,,2023-06-02,1,,,,,グラント,0
2410,9700150116839,新規,0,2023-06-02,2023-06-02,二条油小路町内会,,その他,京都府,京都市中京区,二条油小路町２６５番地,,26,104,6040051,,,,,,,2023-06-02,1,,,,,ニジヨウアブラノコウジチヨウナイカイ,0
2411,9700150116847,新規,0,2023-06-02,2023-06-02,Ｆｕｊｉａｎ　Ｙｉｎｘｉｎｇ　Ｉｎｖｅｓｔｍｅｎｔ　Ｃｏ．，Ｌｔｄ．,,外国会社等,,,,,,,,Ｆｅｎｇｚｅ　Ｄｉｓｔｒｉｃｔ　Ｒｏｏｍ　８０５，８ｔｈ　Ｆｌｏｏｒ，Ｊｉｎｄｉ　Ｂｕｉｌｄｉｎｇ，Ｆｅｎｇｚｅ　Ｓｔｒｅｅｔ，Ｑｕａｎｚｈｏｕ　Ｆｕｊｉａｎ,,,,,,2023-06-02,1,,,,,フジェンインシンインヴェストメントカンパニーリミテッド,0
2412,9700150116855,新規,0,2023-06-02,2023-06-02,ｊｉｎｙｕｎｘｉａｎ　ｚｉｍｉｎｇ　ｄｉａｎｚｉｓｈａｎｇｗｕ　ｙｏｕｘｉａｎｇｏｎｇｓｉ,,外国会社等,,,,,,,,ｚｈｅｊｉａｎｇｓｈｅｎｇ　ｌｉｓｈｕｉｓｈｉ　ｊｉｎｙｕｎｘｉａｎ　ｈｕｚｈｅｎｚｈｅｎ　ｈａｏｘｉｃｕｎ　ｄｏｎｇｆａｎｇｈｏｎｇ２ｚｈｕａｎｇ　３ｄａｎｙｕａｎ　５０１ｓｈｉ,,,,,,2023-06-02,1,,,,,ジンユンシェンジミンデンシシャンウユウゲンコウシ,0
