sequenceNumber,corporateNumber,process,correct,updateDate,changeDate,name,nameImageId,kind,prefectureName,cityName,streetNumber,addressImageId,prefectureCode,cityCode,postCode,addressOutside,addressOutsideImageId,closeDate,closeCause,successorCorporateNumber,changeCause,assignmentDate,latest,enName,enPrefectureName,enCityName,enAddressOutside,furigana,hihyoji
1,1010001024806,登記記録の閉鎖等,0,2023-10-27,2023-10-17,株式会社ワンワールド,,株式会社,東京都,千代田区,内神田１丁目８番１１号,,13,101,1010047,,,2023-10-17,清算の結了等,,,2015-10-05,1,,,,,ワンワールド,0
4,1010001050686,登記記録の閉鎖等,0,2023-10-27,2023-10-26,株式会社ツシマ,,株式会社,東京都,台東区,浅草４丁目１９番６号ルジェンテ浅草アベニュー４０３号室,,13,106,1110032,,,2023-10-26,清算の結了等,,,2015-10-05,1,,,,,ツシマ,0
6,1010001166904,登記記録の閉鎖等,0,2023-10-27,2023-10-16,株式会社ミライズ,,株式会社,東京都,千代田区,平河町１丁目７番地１７,,13,101,1020093,,,2023-10-16,清算の結了等,,,2015-10-05,1,,,,,ミライズ,0
8,1010002002348,登記記録の閉鎖等,0,2023-10-27,2023-10-25,有限会社コンサルタント朋友,,有限会社,東京都,板橋区,中台１丁目３５番１０号,,13,119,1740064,,,2023-10-25,清算の結了等,,,2015-10-05,1,,,,,コンサルタントホウユウ,0
9,1010002036800,登記記録の閉鎖等,0,2023-10-27,2023-10-13,有限会社酒房長谷川,,有限会社,千葉県,船橋市,西船４丁目９番１６号,,12,204,2730031,,,2023-10-13,清算の結了等,,,2015-10-05,1,,,,,シュボウハセガワ,0
17,1010403023372,登記記録の閉鎖等,0,2023-10-27,2023-10-18,合同会社ＢＯＯＴＯＸ,,合同会社,東京都,港区,六本木３丁目１３番４号プチビル３Ｆ,,13,103,1060032,,,2023-10-18,清算の結了等,,,2020-07-29,1,,,,,ブートックス,0
21,1010502017894,登記記録の閉鎖等,0,2023-10-27,2023-10-25,有限会社オンリーワンオリジナル,,有限会社,東京都,台東区,浅草橋２丁目６番８－７０５号,,13,106,1110053,,,2023-10-25,清算の結了等,,,2015-10-05,1,,,,,オンリーワンオリジナル,0
31,1010802000484,登記記録の閉鎖等,0,2023-10-27,2023-10-25,有限会社アスクエンジニアリングサービス,,有限会社,東京都,大田区,山王３丁目１１番２号,,13,111,1430023,,,2023-10-25,清算の結了等,,,2015-10-05,1,,,,,アスクエンジニアリングサービス,0
41,1011101008483,登記記録の閉鎖等,0,2023-10-27,2023-10-24,株式会社シーエス・ルーム,,株式会社,東京都,調布市,多摩川５丁目４番地１－７２５,,13,208,1820025,,,2023-10-24,清算の結了等,,,2015-10-05,1,,,,,シーエスルーム,0
67,1012402013131,登記記録の閉鎖等,0,2023-10-27,2023-10-25,有限会社扇屋,,有限会社,東京都,狛江市,東和泉１丁目１９番１号,,13,219,2010014,,,2023-10-25,清算の結了等,,,2015-10-05,1,,,,,オウギヤ,0
82,1020001078181,登記記録の閉鎖等,0,2023-10-27,2023-10-25,株式会社ＴＳトランスポート,,株式会社,神奈川県,川崎市川崎区,塩浜３丁目２４番４号,,14,131,2100826,,,2023-10-25,合併による解散等,6010001040914,令和５年１０月１日東京都中央区日本橋浜町一丁目２番１号京極運輸商事株式会社（6010001040914）に合併し解散,2015-10-05,1,,,,,ティーエストランスポート,0
85,1020001126452,登記記録の閉鎖等,0,2023-10-27,2023-10-16,前田工業株式会社,,株式会社,神奈川県,横浜市緑区,十日市場町９０１番地１ミヨシビル１階１０１,,14,113,2260025,,,2023-10-16,清算の結了等,,,2018-05-28,1,,,,,マエダコウギョウ,0
92,1020002008781,登記記録の閉鎖等,0,2023-10-27,2023-10-17,有限会社平野電気工業所,,有限会社,神奈川県,横浜市金沢区,並木３丁目１１番２－２０４号,,14,108,2360005,,,2023-10-17,清算の結了等,,,2015-10-05,1,,,,,,0
104,1021002051409,登記記録の閉鎖等,0,2023-10-27,2023-10-18,有限会社香川商店,,有限会社,神奈川県,小田原市,中町１丁目１５番６号,,14,206,2500005,,,2023-10-18,清算の結了等,,,2015-10-05,1,,,,,カガワショウテン,0
115,1030002083873,登記記録の閉鎖等,0,2023-10-27,2023-10-16,有限会社ノバ商会,,有限会社,埼玉県,鴻巣市,筑波１丁目７番１５号,,11,217,3690114,,,2023-10-16,清算の結了等,,,2015-10-05,1,,,,,ノバショウカイ,0
116,1030002092230,登記記録の閉鎖等,0,2023-10-27,2023-10-13,有限会社加藤工業所,,有限会社,埼玉県,坂戸市,大字戸口３０５番地２,,11,239,3500276,,,2023-10-13,清算の結了等,,,2015-10-05,1,,,,,カトウコウギョウショ,0
117,1030002097964,登記記録の閉鎖等,0,2023-10-27,2023-10-16,有限会社三光製作所,,有限会社,埼玉県,比企郡ときがわ町,大字田中５３３番地の７,,11,349,3550357,,,2023-10-16,清算の結了等,,,2015-10-05,1,,,,,サンコウセイサクショ,0
121,1030005008646,登記記録の閉鎖等,0,2023-10-27,2023-10-13,特定非営利活動法人グループやさしい家,,その他の設立登記法人,埼玉県,川越市,六軒町１丁目３番地５,,11,201,3500041,,,2023-10-13,清算の結了等,,,2015-10-05,1,,,,,グループヤサシイイエ,0
122,1040001071135,登記記録の閉鎖等,0,2023-10-27,2023-10-13,株式会社岡友,,株式会社,千葉県,野田市,中野台１９７番地,,12,208,2780035,,,2023-10-13,清算の結了等,,,2015-10-05,1,,,,,オカトモ,0
132,1060002001378,登記記録の閉鎖等,0,2023-10-27,2023-10-20,有限会社稲葉装飾,,有限会社,栃木県,宇都宮市,宝木町２丁目１１０９番地４,,09,201,3200061,,,2023-10-20,清算の結了等,,,2015-10-05,1,,,,,イナバソウショク,0
133,1070002026754,登記記録の閉鎖等,0,2023-10-27,2023-10-24,有限会社ビデオサウンドエイワ,,有限会社,群馬県,北群馬郡吉岡町,大字北下１１５１番地１,,10,345,3703605,,,2023-10-24,清算の結了等,,,2015-10-05,1,,,,,ビデオサウンドエイワ,0
134,1070002032050,登記記録の閉鎖等,0,2023-10-27,2023-10-23,有限会社光進,,有限会社,群馬県,太田市,龍舞町５１０７番地,,10,205,3730806,,,2023-10-23,合併による解散等,9070001022557,令和５年１０月７日群馬県太田市龍舞町５１０７番地株式会社小江戸観光（9070001022557）に合併し解散,2015-10-05,1,,,,,コウシン,0
142,1100002022304,登記記録の閉鎖等,0,2023-10-27,2023-10-17,有限会社ガリバージャパン,,有限会社,長野県,東筑摩郡山形村,７６７４番地１７,,20,450,3901301,,,2023-10-17,清算の結了等,,,2015-10-05,1,,,,,ガリバージャパン,0
143,1100002022766,登記記録の閉鎖等,0,2023-10-27,2023-10-17,有限会社なぎさ薬局,,有限会社,長野県,松本市,渚２丁目９番１１号,,20,202,3900841,,,2023-10-17,清算の結了等,,,2015-10-05,1,,,,,ナギサヤッキョク,0
150,1120001110917,登記記録の閉鎖等,0,2023-10-27,2023-10-24,センターロジ株式会社,,株式会社,大阪府,大阪市東成区,深江北３丁目４番８号,,27,115,5370001,,,2023-10-24,清算の結了等,,,2015-10-05,1,,,,,センターロジ,0
185,1180001007876,登記記録の閉鎖等,0,2023-10-27,2023-10-24,株式会社伊藤印刷所,,株式会社,愛知県,名古屋市昭和区,鶴舞３丁目１３番１６号,,23,107,4660064,,,2023-10-24,清算の結了等,,,2015-10-05,1,,,,,イトウインサツジョ,0
193,1180001126271,登記記録の閉鎖等,0,2023-10-27,2023-10-25,株式会社フィールドア,,株式会社,愛知県,名古屋市東区,矢田１丁目５番地１,,23,102,4610040,,,2023-10-25,清算の結了等,,,2017-01-30,1,,,,,フィールドア,0
196,1180002052500,登記記録の閉鎖等,0,2023-10-27,2023-10-24,有限会社ユニテック,,有限会社,愛知県,春日井市,下条町２丁目３番地９,,23,206,4860923,,,2023-10-24,清算の結了等,,,2015-10-05,1,,,,,ユニテック,0
214,1240002030375,登記記録の閉鎖等,0,2023-10-27,2023-10-19,有限会社まえはら,,有限会社,広島県,三次市,江田川之内町５６５番地の６,,34,209,7296215,,,2023-10-19,清算の結了等,,,2015-10-05,1,,,,,マエハラ,0
242,1310001015080,登記記録の閉鎖等,0,2023-10-27,2023-10-25,株式会社ＲＩＶ,,株式会社,長崎県,東彼杵郡川棚町,栄町４８番地１,,42,322,8593608,,,2023-10-25,清算の結了等,,,2017-08-14,1,,,,,,0
244,1310002015294,登記記録の閉鎖等,0,2023-10-27,2023-10-24,有限会社タカミ産業,,有限会社,長崎県,諫早市,貝津町８９８番地,,42,204,8540063,,,2023-10-24,清算の結了等,,,2015-10-05,1,,,,,,0
267,1420002014112,登記記録の閉鎖等,0,2023-10-27,2023-10-23,有限会社富士観光,,有限会社,青森県,弘前市,大字馬屋町３番地,,02,202,0368357,,,2023-10-23,清算の結了等,,,2015-10-05,1,,,,,フジカンコウ,0
271,1430005006312,登記記録の閉鎖等,0,2023-10-27,2023-10-16,特定非営利活動法人あじさい亭,,その他の設立登記法人,北海道,江別市,大麻東町１５番地の１６,,01,217,0690852,,,2023-10-16,清算の結了等,,,2015-10-05,1,,,,,アジサイテイ,0
276,1480001003606,登記記録の閉鎖等,0,2023-10-27,2023-10-23,株式会社トヨタワールド,,株式会社,徳島県,徳島市,国府町和田字居内４２番地,,36,201,7793121,,,2023-10-23,清算の結了等,,,2015-10-05,1,,,,,トヨタワールド,0
277,1480001009586,登記記録の閉鎖等,0,2023-10-27,2023-10-26,フレンド・Ｆ株式会社,,株式会社,徳島県,小松島市,江田町字腰前２１５番地の１,,36,203,7730014,,,2023-10-26,清算の結了等,,,2016-03-25,1,,,,,フレンドエフ,0
297,2010501040913,登記記録の閉鎖等,0,2023-10-27,2023-10-26,株式会社ステラ,,株式会社,東京都,台東区,寿３丁目１８番２－８０２号,,13,106,1110042,,,2023-10-26,清算の結了等,,,2017-04-19,1,,,,,ステラ,0
307,2010703003800,登記記録の閉鎖等,0,2023-10-27,2023-10-25,合同会社メルシー,,合同会社,東京都,品川区,東品川４丁目１３番２４号,,13,109,1400002,,,2023-10-25,清算の結了等,,,2017-09-04,1,,,,,メルシー,0
308,2010801019500,登記記録の閉鎖等,0,2023-10-27,2023-10-24,株式会社テッサー,,株式会社,東京都,大田区,千鳥２丁目１８番６号,,13,111,1460083,,,2023-10-24,清算の結了等,,,2015-10-05,1,,,,,テッサー,0
323,2011101050542,登記記録の閉鎖等,0,2023-10-27,2023-10-25,株式会社ＳＷＩＴＣＨ,,株式会社,東京都,新宿区,西新宿５丁目１３番２号,,13,104,1600023,,,2023-10-25,清算の結了等,,,2015-10-05,1,,,,,スイッチ,0
359,2020002005225,登記記録の閉鎖等,0,2023-10-27,2023-10-16,有限会社リステック,,有限会社,神奈川県,横浜市緑区,青砥町１５７番地の１,,14,113,2260022,,,2023-10-16,清算の結了等,,,2015-10-05,1,,,,,リステック,0
367,2021001064286,登記記録の閉鎖等,0,2023-10-27,2023-10-20,株式会社アクイスト,,株式会社,神奈川県,秦野市,曽屋１８番地の３３,,14,211,2570031,,,2023-10-20,清算の結了等,,,2018-03-02,1,,,,,,0
371,2021002047001,登記記録の閉鎖等,0,2023-10-27,2023-10-23,有限会社宮城工業,,有限会社,神奈川県,綾瀬市,吉岡東４丁目１２番４６号,,14,218,2521125,,,2023-10-23,清算の結了等,,,2015-10-05,1,,,,,ミヤギコウギョウ,0
381,2030003019223,登記記録の閉鎖等,0,2023-10-27,2023-10-11,合同会社銚子風力発電所,,合同会社,埼玉県,さいたま市岩槻区,西町５丁目５番１６号,,11,110,3390067,,,2023-10-11,清算の結了等,,,2022-04-14,1,,,,,チョウシフウリョクハツデンショ,0
384,2040001042886,登記記録の閉鎖等,0,2023-10-27,2023-10-13,サン建株式会社,,株式会社,千葉県,成田市,久住中央２丁目１３番地５,,12,211,2860819,,,2023-10-13,清算の結了等,,,2015-10-05,1,,,,,サンケン,0
405,2070002022422,登記記録の閉鎖等,0,2023-10-27,2023-10-23,有限会社青木住設,,有限会社,群馬県,桐生市,広沢町５丁目１９６９番地１,,10,203,3760013,,,2023-10-23,清算の結了等,,,2015-10-05,1,,,,,アオキジュウセツ,0
416,2100001019457,登記記録の閉鎖等,0,2023-10-27,2023-10-16,株式会社草間商会,,株式会社,長野県,岡谷市,東銀座１丁目９番１５号,,20,204,3940023,,,2023-10-16,清算の結了等,,,2023-10-04,1,,,,,クサマショウカイ,0
421,2120001088574,登記記録の閉鎖等,0,2023-10-27,2023-10-17,藤村大和生命ビル株式会社,,株式会社,大阪府,大阪市中央区,伏見町４丁目２番１４号,,27,128,5410044,,,2023-10-17,清算の結了等,,,2015-10-05,1,,,,,フジムラヤマトセイメイビル,0
422,2120001124412,登記記録の閉鎖等,0,2023-10-27,2023-10-18,ティガ株式会社,,株式会社,大阪府,大阪市中央区,高津１丁目１０番２０号,,27,128,5420072,,,2023-10-18,清算の結了等,,,2015-10-05,1,,,,,,0
437,2120101045351,登記記録の閉鎖等,0,2023-10-27,2023-10-17,フィッツヘアー株式会社,,株式会社,大阪府,貝塚市,中９５８番地,,27,208,5970003,,,2023-10-17,清算の結了等,,,2015-10-05,1,,,,,フィッツヘアー,0
440,2120901017913,登記記録の閉鎖等,0,2023-10-27,2023-10-26,株式会社ルチル,,株式会社,大阪府,吹田市,千里丘下２番８号,,27,205,5650813,,,2023-10-26,清算の結了等,,,2015-10-05,1,,,,,ルチル,0
476,2180001157373,登記記録の閉鎖等,0,2023-10-27,2023-10-17,株式会社はるひメディカルホールディングス,,株式会社,愛知県,北名古屋市,熊之庄古井７１番地２,,23,234,4810006,,,2023-10-17,合併による解散等,3180001148009,令和５年１０月１７日愛知県北名古屋市熊之庄古井７１番地２株式会社はるひメディカルサービス（3180001148009）に合併し解散,2023-08-02,1,,,,,ハルヒメディカルホールディングス,0
481,2180002049776,登記記録の閉鎖等,0,2023-10-27,2023-10-23,有限会社大和テクニカルシステム,,有限会社,愛知県,名古屋市天白区,梅が丘３丁目１０１番地,,23,116,4680004,,,2023-10-23,清算の結了等,,,2015-10-05,1,,,,,ダイワテクニカルシステム,0
482,2180002073108,登記記録の閉鎖等,0,2023-10-27,2023-10-24,有限会社ラ・モードあき,,有限会社,愛知県,尾張旭市,東名西町１丁目８番地,,23,226,4880844,,,2023-10-24,清算の結了等,,,2015-10-05,1,,,,,ラモードアキ,0
530,2370002005280,登記記録の閉鎖等,0,2023-10-27,2023-10-16,有限会社新友塗装工業,,有限会社,宮城県,仙台市若林区,沖野７丁目１８番２０号,,04,103,9840831,,,2023-10-16,清算の結了等,,,2015-10-05,1,,,,,シンユウトソウコウギョウ,0
533,2380002005197,登記記録の閉鎖等,0,2023-10-27,2023-10-23,紺野食品有限会社,,有限会社,福島県,伊達郡桑折町,大字南半田字内城２７番地の３,,07,301,9691641,,,2023-10-23,清算の結了等,,,2015-10-05,1,,,,,コンノショクヒン,0
543,2470001001733,登記記録の閉鎖等,0,2023-10-27,2023-10-25,サンパーツ株式会社,,株式会社,香川県,高松市,香西北町１０９番地２４,,37,201,7618011,,,2023-10-25,清算の結了等,,,2015-10-05,1,,,,,サンパーツ,0
564,3010002005084,登記記録の閉鎖等,0,2023-10-27,2023-10-16,有限会社富士製本,,有限会社,東京都,文京区,本駒込３丁目３７番３号,,13,105,1130021,,,2023-10-16,清算の結了等,,,2015-10-05,1,,,,,フジセイホン,0
615,3013301043580,登記記録の閉鎖等,0,2023-10-27,2023-09-19,ＡＤＳ株式会社,,株式会社,東京都,港区,六本木７丁目３－１３トラスティ六本木ビル７階,,13,103,1060032,,,2023-09-19,清算の結了等,,,2019-03-13,1,,,,,エーディーエス,0
624,3020001051178,登記記録の閉鎖等,0,2023-10-27,2023-10-11,福原工業株式会社,,株式会社,神奈川県,横浜市旭区,今宿南町５９番地,,14,112,2410034,,,2023-10-11,清算の結了等,,,2015-10-05,1,,,,,フクハラコウギョウ,0
653,3021003010601,登記記録の閉鎖等,0,2023-10-27,2023-10-23,合同会社ケーティス,,合同会社,神奈川県,相模原市南区,鵜野森１丁目２－１２－４０３,,14,153,2520301,,,2023-10-23,清算の結了等,,,2021-06-15,1,,,,,ケーティス,0
694,3110001014068,登記記録の閉鎖等,0,2023-10-27,2023-10-24,源造刃物株式会社,,株式会社,新潟県,三条市,金子新田丙６４６番地６,,15,204,9550814,,,2023-10-24,清算の結了等,,,2015-10-05,1,,,,,ゲンゾウハモノ,0
697,3110001031947,登記記録の閉鎖等,0,2023-10-27,2023-10-26,株式会社リ・コネクト,,株式会社,東京都,渋谷区,恵比寿２丁目２８番１０号,,13,113,1500013,,,2023-10-26,清算の結了等,,,2016-11-18,1,,,,,リコネクト,0
719,3122001012884,登記記録の閉鎖等,0,2023-10-27,2023-10-20,株式会社あすなろ保険事務所,,株式会社,大阪府,東大阪市,今米１丁目２番４８号松栄ビル,,27,227,5780903,,,2023-10-20,清算の結了等,,,2015-10-05,1,,,,,アスナロホケンジムショ,0
722,3130001033264,登記記録の閉鎖等,0,2023-10-27,2023-10-11,株式会社若山塗装工業,,株式会社,京都府,宇治市,木幡平尾２８番地の９７２,,26,204,6110002,,,2023-10-11,清算の結了等,,,2015-10-05,1,,,,,ワカヤマトソコウギョウ,0
748,3160001020565,登記記録の閉鎖等,0,2023-10-27,2023-10-24,株式会社ＴＴ,,株式会社,滋賀県,栗東市,下鈎８４２番地１,,25,208,5203026,,,2023-10-24,清算の結了等,,,2017-11-13,1,,,,,ティーティー,0
755,3180002034703,登記記録の閉鎖等,0,2023-10-27,2023-10-23,櫻屋興産有限会社,,有限会社,愛知県,名古屋市中川区,愛知町１０番２号,,23,110,4540807,,,2023-10-23,清算の結了等,,,2015-10-05,1,,,,,サクラヤコウサン,0
760,3180302006823,登記記録の閉鎖等,0,2023-10-27,2023-10-17,有限会社大山木工,,有限会社,愛知県,豊橋市,大山町字東大山１３８番地,,23,201,4418071,,,2023-10-17,清算の結了等,,,2015-10-05,1,,,,,オオヤマモッコウ,0
764,3200003005394,登記記録の閉鎖等,0,2023-10-27,2023-10-26,合同会社オレンジがーねっと,,合同会社,岐阜県,可児市,土田字西小池４４９７番地１,,21,214,5090206,,,2023-10-26,清算の結了等,,,2021-12-10,1,,,,,,0
767,3220002009790,登記記録の閉鎖等,0,2023-10-27,2023-10-24,有限会社金沢財務管理,,有限会社,石川県,かほく市,内日角ハ５３番地,,17,209,9291126,,,2023-10-24,清算の結了等,,,2015-10-05,1,,,,,カナザワザイムカンリ,0
778,3280002001156,登記記録の閉鎖等,0,2023-10-27,2023-10-26,有限会社ショーヨー写場,,有限会社,島根県,松江市,上乃木３丁目２０番１３号,,32,201,6900015,,,2023-10-26,清算の結了等,,,2015-10-05,1,,,,,ショーヨーシャジョウ,0
779,3290001017697,登記記録の閉鎖等,0,2023-10-27,2023-10-13,株式会社昭光社,,株式会社,福岡県,福岡市中央区,荒戸３丁目６番２９号,,40,133,8100062,,,2023-10-13,清算の結了等,,,2015-10-05,1,,,,,ショウコウシャ,0
787,3290802019272,登記記録の閉鎖等,0,2023-10-27,2023-10-26,有限会社ドーカイ,,有限会社,福岡県,北九州市若松区,上原町６番２０号,,40,103,8080015,,,2023-10-26,清算の結了等,,,2015-10-05,1,,,,,ドーカイ,0
806,3380002023140,登記記録の閉鎖等,0,2023-10-27,2023-10-20,有限会社カワグチ,,有限会社,福島県,いわき市,平泉崎字辻道５０番地の５,00083874,07,204,9700112,,,2023-10-20,清算の結了等,,,2015-10-05,1,,,,,カワグチ,0
813,3430001041393,登記記録の閉鎖等,0,2023-10-27,2023-10-16,朝日ジョブネット株式会社,,株式会社,北海道,札幌市北区,北二十三条西４丁目２番３号,,01,102,0010023,,,2023-10-16,清算の結了等,,,2015-10-05,1,,,,,アサヒジョブネット,0
818,3430002016667,登記記録の閉鎖等,0,2023-10-27,2023-10-16,有限会社ヒラタ機械製作所,,有限会社,北海道,札幌市厚別区,厚別東三条７丁目１３番２１号,,01,108,0040003,,,2023-10-16,清算の結了等,,,2015-10-05,1,,,,,,0
820,3460001003969,登記記録の閉鎖等,0,2023-10-27,2023-10-16,株式会社オー・エム・プランニング,,株式会社,東京都,渋谷区,恵比寿１丁目２４番１５号フェラールビル７階,,13,113,1500013,,,2023-10-16,清算の結了等,,,2016-09-14,1,,,,,,0
836,4010002028134,登記記録の閉鎖等,0,2023-10-27,2023-10-17,有限会社ニュース,,有限会社,東京都,中央区,東日本橋２丁目２７番７号東京装粧会館４階４０３号,,13,102,1030004,,,2023-10-17,清算の結了等,,,2015-10-05,1,,,,,,0
838,4010005031738,登記記録の閉鎖等,0,2023-10-27,2023-10-23,一般社団法人ＡＣＳ,,その他の設立登記法人,東京都,千代田区,有楽町２丁目１０番１号１００２,,13,101,1000006,,,2023-10-23,清算の結了等,,,2020-04-22,1,,,,,エーシーエス,0
842,4010401069943,登記記録の閉鎖等,0,2023-10-27,2023-10-23,株式会社ニフコトレーディング,,株式会社,神奈川県,横須賀市,光の丘５番３号（株）ニフコ内,,14,201,2390847,,,2023-10-23,清算の結了等,,,2015-10-05,1,,,,,ニフコトレーディング,0
848,4010403013065,登記記録の閉鎖等,0,2023-10-27,2023-10-18,合同会社出版最前線,,合同会社,東京都,港区,新橋２丁目８－１６石田ビル４階,,13,103,1050004,,,2023-10-18,清算の結了等,,,2015-10-05,1,,,,,シュッパンサイゼンセン,0
850,4010403024896,登記記録の閉鎖等,0,2023-10-27,2023-10-19,ＲＢソーラーイースト合同会社,,合同会社,東京都,港区,虎ノ門３丁目２２番１０－２０１号,,13,103,1050001,,,2023-10-19,清算の結了等,,,2021-03-15,1,,,,,アールビーソーラーイースト,0
854,4010502021324,登記記録の閉鎖等,0,2023-10-27,2023-10-25,有限会社中央メディカルサポート,,有限会社,東京都,台東区,根岸３丁目４番１３号,,13,106,1100003,,,2023-10-25,清算の結了等,,,2015-10-05,1,,,,,,0
855,4010601008222,登記記録の閉鎖等,0,2023-10-27,2023-10-18,株式会社前山建材,,株式会社,東京都,江東区,深川２丁目５番１－９０５号,,13,108,1350033,,,2023-10-18,清算の結了等,,,2023-05-19,1,,,,,,0
861,4011001124790,登記記録の閉鎖等,0,2023-10-27,2023-10-18,株式会社ＳＩＢＭ,,株式会社,東京都,港区,麻布十番１丁目２番７－７０１号,,13,103,1060045,,,2023-10-18,清算の結了等,,,2018-10-19,1,,,,,エスアイビーエム,0
871,4011103008388,登記記録の閉鎖等,0,2023-10-27,2023-10-26,ＲＥＭＯＬｉＮＯ合同会社,,合同会社,東京都,新宿区,矢来町４番地,,13,104,1620805,,,2023-10-26,清算の結了等,,,2018-11-21,1,,,,,レモリーノ,0
872,4011201002904,登記記録の閉鎖等,0,2023-10-27,2023-10-26,株式会社創進設備,,株式会社,東京都,中野区,上高田１丁目３５番１号,,13,114,1640002,,,2023-10-26,清算の結了等,,,2015-10-05,1,,,,,ソウシンセツビ,0
893,4013401002163,登記記録の閉鎖等,0,2023-10-27,2023-10-25,株式会社ワークハウス,,株式会社,東京都,稲城市,矢野口２２６８番地の１ニュークレセントビル１階,,13,225,2060812,,,2023-10-25,清算の結了等,,,2015-10-05,1,,,,,ワークハウス,0
903,4020002041111,登記記録の閉鎖等,0,2023-10-27,2023-10-16,有限会社あらき,,有限会社,神奈川県,横浜市中区,福富町仲通３８番地,,14,104,2310043,,,2023-10-16,清算の結了等,,,2015-10-05,1,,,,,アラキ,0
904,4020002090240,登記記録の閉鎖等,0,2023-10-27,2023-10-16,有限会社佐々木電設,,有限会社,神奈川県,川崎市宮前区,宮崎１７０番地１２,,14,136,2160033,,,2023-10-16,清算の結了等,,,2015-10-05,1,,,,,ササキデンセツ,0
911,4021002011442,登記記録の閉鎖等,0,2023-10-27,2023-10-19,有限会社田中製作所,,有限会社,神奈川県,茅ヶ崎市,甘沼６１０番の１,,14,207,2530004,,,2023-10-19,清算の結了等,,,2015-10-05,1,,,,,タナカセイサクショ,0
927,4030001127042,登記記録の閉鎖等,0,2023-10-27,2023-10-16,株式会社Ｂａｓｉｓ,,株式会社,埼玉県,さいたま市大宮区,堀の内町３丁目４６９番地３５,,11,103,3300804,,,2023-10-16,清算の結了等,,,2018-08-16,1,,,,,ベーシス,0
939,4040001088052,登記記録の閉鎖等,0,2023-10-27,2023-10-13,株式会社東日本特殊,,株式会社,千葉県,千葉市中央区,都町２丁目５番,,12,101,2600001,,,2023-10-13,清算の結了等,,,2015-10-05,1,,,,,ヒガシニホントクシュ,0
942,4040002043758,登記記録の閉鎖等,0,2023-10-27,2023-10-13,有限会社ジャパン・オフサルミック・コンサルタンツ,,有限会社,千葉県,市川市,八幡４丁目４番７号,,12,203,2720021,,,2023-10-13,清算の結了等,,,2015-10-05,1,,,,,ジャパンオフサルミックコンサルタンツ,0
955,4070002014319,登記記録の閉鎖等,0,2023-10-27,2023-10-19,無垢スタイル建築設計株式会社高崎,,株式会社,群馬県,高崎市,福島町８０２番地４,,10,202,3703523,,,2023-10-19,合併による解散等,1030001009771,令和５年１０月１日埼玉県さいたま市西区三橋五丁目６３５番地無垢スタイル建築設計株式会社（1030001009771）に合併し解散,2015-10-05,1,,,,,,0
965,4120001232510,登記記録の閉鎖等,0,2023-10-27,2023-10-19,株式会社ＮＩＴＹ,,株式会社,大阪府,大阪市西区,西本町１丁目７番２１号ニシモトビル７０１号,,27,106,5500005,,,2023-10-19,清算の結了等,,,2020-10-19,1,,,,,ニティ,0
995,4140001079917,登記記録の閉鎖等,0,2023-10-27,2023-10-23,日本医療機器株式会社,,株式会社,兵庫県,川西市,湯山台２丁目１９番地の１０,,28,217,6660137,,,2023-10-23,清算の結了等,,,2015-10-05,1,,,,,ニホンイリョウキキ,0
1002,4150001002398,登記記録の閉鎖等,0,2023-10-27,2023-10-25,名豊株式会社,,株式会社,大阪府,大阪市中央区,南本町２丁目６番５号ファースト船場ビル,,27,128,5410054,,,2023-10-25,清算の結了等,,,2015-10-05,1,,,,,メイホウ,0
1035,4220001012142,登記記録の閉鎖等,0,2023-10-27,2023-10-25,武田撚糸株式会社,,株式会社,石川県,小松市,矢田町ヨ１番地,,17,203,9230975,,,2023-10-25,清算の結了等,,,2015-10-05,1,,,,,タケダネンシ,0
1037,4240002039273,登記記録の閉鎖等,0,2023-10-27,2023-10-17,池田設備工業有限会社,,有限会社,広島県,福山市,春日池１６番５号,,34,207,7210917,,,2023-10-17,清算の結了等,,,2015-10-05,1,,,,,イケダセツビコウギョウ,0
1038,4240002048992,登記記録の閉鎖等,0,2023-10-27,2023-10-24,有限会社土井電機制御,,有限会社,広島県,安芸郡海田町,昭和中町１０番１２号,,34,304,7360064,,,2023-10-24,清算の結了等,,,2015-10-05,1,,,,,ドイデンキセイギョ,0
1040,4240003004706,登記記録の閉鎖等,0,2023-10-27,2023-10-20,合同会社ｌｅｙｌａ,,合同会社,広島県,広島市中区,幟町１３番１５号,,34,101,7300016,,,2023-10-20,清算の結了等,,,2020-06-16,1,,,,,レイラ,0
1050,4260002009679,登記記録の閉鎖等,0,2023-10-27,2023-10-26,有限会社ミチウエ電気工事,,有限会社,岡山県,岡山市中区,倉富４９５番地の１１,,33,102,7038264,,,2023-10-26,清算の結了等,,,2015-10-05,1,,,,,ミチウエデンキコウジ,0
1051,4260002026988,登記記録の閉鎖等,0,2023-10-27,2023-10-25,有限会社小川鉄工所,,有限会社,岡山県,高梁市,備中町東油野３７４３番地の４,,33,209,7160321,,,2023-10-25,清算の結了等,,,2015-10-05,1,,,,,,0
1063,4290002040805,登記記録の閉鎖等,0,2023-10-27,2023-10-16,有限会社櫻住建,,有限会社,福岡県,春日市,桜ヶ丘３丁目１７番地,,40,218,8160872,,,2023-10-16,清算の結了等,,,2015-10-05,1,,,,,サクラジュウケン,0
1103,4430002010917,登記記録の閉鎖等,0,2023-10-27,2023-10-16,有限会社誠武器販,,有限会社,北海道,札幌市白石区,東札幌五条４丁目６番５号,,01,104,0030005,,,2023-10-16,清算の結了等,,,2015-10-05,1,,,,,セイブキハン,0
1121,5010001194422,登記記録の閉鎖等,0,2023-10-27,2023-10-17,株式会社シェアグリ,,株式会社,東京都,千代田区,平河町２丁目５番３号,,13,101,1020093,,,2023-10-17,清算の結了等,,,2018-08-28,1,,,,,シェアグリ,0
1128,5010401118419,登記記録の閉鎖等,0,2023-10-27,2023-10-23,株式会社Ｌｕｋｉｒａプロモーション,,株式会社,東京都,東村山市,諏訪町２丁目３番地５０,,13,213,1890021,,,2023-10-23,清算の結了等,,,2015-10-05,1,,,,,ルキラプロモーション,0
1155,5011101055357,登記記録の閉鎖等,0,2023-10-27,2023-10-26,株式会社ｃｙｃｌｅ　ｄｅｓｉｇｎ,,株式会社,東京都,新宿区,矢来町４番地,,13,104,1620805,,,2023-10-26,清算の結了等,,,2015-10-05,1,,,,,サイクルデザイン,0
1166,5011701012872,登記記録の閉鎖等,0,2023-10-27,2023-10-20,株式会社セキュア・ソリューション,,株式会社,東京都,江戸川区,南小岩５丁目９番５号,,13,123,1330056,,,2023-10-20,清算の結了等,,,2015-10-05,1,,,,,セキュアソリューション,0
1200,5020003020823,登記記録の閉鎖等,0,2023-10-27,2023-10-16,合同会社アドスター,,合同会社,神奈川県,横浜市西区,北幸１丁目１－８エキニア横浜５階ＨａｍａＰｏｒｔ内,,14,103,2200004,,,2023-10-16,清算の結了等,,,2021-11-22,1,,,,,アドスター,0
1227,5040001066338,登記記録の閉鎖等,0,2023-10-27,2023-10-12,株式会社ハマジマ,,株式会社,千葉県,柏市,戸張１１７１番地,,12,217,2770008,,,2023-10-12,清算の結了等,,,2015-10-05,1,,,,,ハマジマ,0
1241,5080002002263,登記記録の閉鎖等,0,2023-10-27,2023-10-26,有限会社桜寿し,,有限会社,静岡県,静岡市葵区,横田町４番１３号,,22,101,4200835,,,2023-10-26,清算の結了等,,,2015-10-05,1,,,,,サクラズシ,0
1242,5080102020231,登記記録の閉鎖等,0,2023-10-27,2023-10-25,有限会社テンゴ,,有限会社,静岡県,伊東市,川奈１２２６番地の３１,,22,208,4140044,,,2023-10-25,清算の結了等,,,2015-10-05,1,,,,,テンゴ,0
1276,5120901020567,登記記録の閉鎖等,0,2023-10-27,2023-10-23,株式会社ジャックス,,株式会社,大阪府,箕面市,粟生間谷西２丁目６番１７－４０８号,,27,220,5620023,,,2023-10-23,清算の結了等,,,2015-10-05,1,,,,,ジャックス,0
1283,5140001072689,登記記録の閉鎖等,0,2023-10-27,2023-10-24,株式会社イシックス,,株式会社,兵庫県,西宮市,宮前町８番３２号,,28,204,6620947,,,2023-10-24,清算の結了等,,,2015-10-05,1,,,,,イシックス,0
1305,5180002085331,登記記録の閉鎖等,0,2023-10-27,2023-10-23,有限会社加藤発條製作所,,有限会社,愛知県,知多郡東浦町,大字石浜字障戸１６番地,,23,442,4702103,,,2023-10-23,清算の結了等,,,2015-10-05,1,,,,,カトウハツジョウセイサクショ,0
1329,5260001031658,登記記録の閉鎖等,0,2023-10-27,2023-10-23,株式会社ＳＩＮ,,株式会社,岡山県,津山市,野介代７９７番地８,,33,203,7080821,,,2023-10-23,清算の結了等,,,2018-01-25,1,,,,,シン,0
1341,5290801029106,登記記録の閉鎖等,0,2023-10-27,2023-10-24,Ｆｕｔｕｒｅ　ｃｒｅａｔｉｖｅ株式会社,,株式会社,福岡県,中間市,上蓮花寺１丁目２番１号,,40,215,8090013,,,2023-10-24,清算の結了等,,,2022-12-07,1,,,,,フューチャークリエイティブ,0
1356,5380001000015,登記記録の閉鎖等,0,2023-10-27,2023-10-23,アイ・エヌ・エイ株式会社,,株式会社,福島県,福島市,大森字丑子内１１１番地の１,,07,201,9601101,,,2023-10-23,清算の結了等,,,2015-10-05,1,,,,,アイエヌエイ,0
1361,5390002006068,登記記録の閉鎖等,0,2023-10-27,2023-10-25,有限会社オートショップあづま,,有限会社,山形県,上山市,石曽根字村頭１３３０番地の２,,06,207,9993244,,,2023-10-25,清算の結了等,,,2015-10-05,1,,,,,オートショップアヅマ,0
1365,5420001001487,登記記録の閉鎖等,0,2023-10-27,2023-10-24,東部食品株式会社,,株式会社,青森県,青森市,浪打１丁目２番１７号,,02,201,0300961,,,2023-10-24,清算の結了等,,,2015-10-05,1,,,,,トウブショクヒン,0
1367,5430001077238,登記記録の閉鎖等,0,2023-10-27,2023-10-16,株式会社ＳＵＮＦＬＡＫＥ,,株式会社,北海道,札幌市中央区,円山西町５丁目１１番３号,,01,101,0640944,,,2023-10-16,清算の結了等,,,2018-08-23,1,,,,,サンフレーク,0
1374,5440001008150,登記記録の閉鎖等,0,2023-10-27,2023-10-25,株式会社ルーセント企画,,株式会社,北海道,北斗市,七重浜４丁目２４番９号,,01,236,0490111,,,2023-10-25,清算の結了等,,,2017-07-24,1,,,,,ルーセントキカク,0
1380,5470003002405,登記記録の閉鎖等,0,2023-10-27,2023-10-24,合同会社横山,,合同会社,香川県,観音寺市,村黒町２３０番地１県営常磐団地２９棟０４号,,37,205,7680013,,,2023-10-24,清算の結了等,,,2023-04-25,1,,,,,ヨコヤマ,0
1382,5480001007909,登記記録の閉鎖等,0,2023-10-27,2023-10-23,株式会社三紅メディカル,,株式会社,徳島県,徳島市,津田海岸町８番２４号,,36,201,7708001,,,2023-10-23,清算の結了等,,,2015-10-05,1,,,,,サンコウメディカル,0
1443,6011402005745,登記記録の閉鎖等,0,2023-10-27,2023-10-24,有限会社段々畑,,有限会社,東京都,板橋区,上板橋２丁目１番２号,,13,119,1740076,,,2023-10-24,清算の結了等,,,2015-10-05,1,,,,,ダンダンバタケ,0
1449,6011601013598,登記記録の閉鎖等,0,2023-10-27,2023-10-23,株式会社ＨＭＫ,,株式会社,東京都,練馬区,豊玉北５丁目１３番１０号,,13,120,1760012,,,2023-10-23,清算の結了等,,,2015-10-05,1,,,,,エイチエムケイ,0
1464,6012802007240,登記記録の閉鎖等,0,2023-10-27,2023-10-19,有限会社ツカ住宅設備,,有限会社,東京都,武蔵村山市,中央１丁目７３番地の８,,13,223,2080003,,,2023-10-19,清算の結了等,,,2015-10-05,1,,,,,ツカジュウタクセツビ,0
1465,6013102007195,登記記録の閉鎖等,0,2023-10-27,2023-10-24,綜合建物建設有限会社,,有限会社,東京都,青梅市,新町１丁目２２番地の１３,,13,205,1980024,,,2023-10-24,清算の結了等,,,2015-10-05,1,,,,,,0
1470,6013402001708,登記記録の閉鎖等,0,2023-10-27,2023-10-23,有限会社アールシー設計,,有限会社,東京都,多摩市,愛宕１丁目６３０番地９,,13,224,2060041,,,2023-10-23,清算の結了等,,,2015-10-05,1,,,,,アールシーセッケイ,0
1485,6021001065149,登記記録の閉鎖等,0,2023-10-27,2023-10-20,株式会社彬工業,,株式会社,神奈川県,藤沢市,藤沢５丁目３番６号,,14,205,2510052,,,2023-10-20,清算の結了等,,,2018-07-04,1,,,,,アキラコウギョウ,0
1486,6021001066428,登記記録の閉鎖等,0,2023-10-27,2023-10-24,株式会社Ｓｕｇａｒ　Ｗｏｒｋｓ,,株式会社,神奈川県,横須賀市,安浦町２丁目３３番１号ザ・タワーハウス１０４号,,14,201,2380012,,,2023-10-24,清算の結了等,,,2019-01-21,1,,,,,シュガーワークス,0
1487,6021001069273,登記記録の閉鎖等,0,2023-10-27,2023-10-23,Ｙ’ｓ　ｈｏｍｅ株式会社,,株式会社,神奈川県,座間市,栗原中央４丁目１３番５号,,14,216,2520014,,,2023-10-23,清算の結了等,,,2020-02-10,1,,,,,ワイズホーム,0
1491,6021002063746,登記記録の閉鎖等,0,2023-10-27,2023-10-19,有限会社北之原商会,,有限会社,神奈川県,横須賀市,森崎４丁目１９番６４号,,14,201,2380023,,,2023-10-19,清算の結了等,,,2015-10-05,1,,,,,キタノハラショウカイ,0
1523,6080101015504,登記記録の閉鎖等,0,2023-10-27,2023-10-26,さくらメンテナンス株式会社,,株式会社,静岡県,富士市,御幸町３番１６号,,22,210,4170041,,,2023-10-26,清算の結了等,,,2015-10-05,1,,,,,サクラメンテナンス,0
1544,6120001211215,登記記録の閉鎖等,0,2023-10-27,2023-10-26,株式会社仁,,株式会社,大分県,別府市,北浜１丁目１５番１４号シーサイドフジヨシビル１階３号室,,44,202,8740920,,,2023-10-26,清算の結了等,,,2018-02-13,1,,,,,ジン,0
1555,6120002057632,登記記録の閉鎖等,0,2023-10-27,2023-10-24,有限会社ＣＲＥＡＴＩＯＮ　ＰＥＯＰＬＥ,,有限会社,大阪府,大阪市西成区,天下茶屋３丁目２０番１号,,27,122,5570014,,,2023-10-24,清算の結了等,,,2015-10-05,1,,,,,クリエイションピープル,0
1585,6150001018558,登記記録の閉鎖等,0,2023-10-27,2023-10-25,株式会社ネットワークサポート,,株式会社,大阪府,大阪市西区,西本町３丁目１－４３西本町ソーラービル６階,,27,106,5500005,,,2023-10-25,清算の結了等,,,2015-10-05,1,,,,,ネットワークサポート,0
1593,6180001010421,登記記録の閉鎖等,0,2023-10-27,2023-10-23,株式会社清龍社,,株式会社,愛知県,名古屋市緑区,篠の風３丁目９９番地の２,,23,114,4580015,,,2023-10-23,清算の結了等,,,2015-10-05,1,,,,,セイリュウシャ,0
1606,6180002066982,登記記録の閉鎖等,0,2023-10-27,2023-10-20,有限会社長谷川薬局,,有限会社,愛知県,春日井市,大手町２丁目８番地の６,,23,206,4860807,,,2023-10-20,清算の結了等,,,2015-10-05,1,,,,,ハセガワヤッキョク,0
1608,6180301000015,登記記録の閉鎖等,0,2023-10-27,2023-10-17,株式会社アイオス,,株式会社,愛知県,岡崎市,稲熊町字後田２６番１３,,23,202,4440071,,,2023-10-17,清算の結了等,,,2015-10-05,1,,,,,アイオス,0
1615,6180303003940,登記記録の閉鎖等,0,2023-10-27,2023-10-02,トレーニングファイター合同会社,,合同会社,愛知県,豊橋市,中岩田３丁目１４番地２４,,23,201,4400832,,,2023-10-02,合併による解散等,3180301026401,令和５年１０月１日愛知県豊橋市向山町字伝馬５番地１株式会社かわすみ事務所（3180301026401）に合併し解散,2017-10-18,1,,,,,トレーニングファイター,0
1623,6220002002355,登記記録の閉鎖等,0,2023-10-27,2023-10-26,有限会社黒川商店,,有限会社,石川県,金沢市,西念４丁目１２番１４号,,17,201,9200024,,,2023-10-26,清算の結了等,,,2015-10-05,1,,,,,クロカワショウテン,0
1624,6220002012635,登記記録の閉鎖等,0,2023-10-27,2023-10-25,有限会社とぎや,,有限会社,石川県,加賀市,大聖寺北片原町４５番地,,17,206,9220064,,,2023-10-25,清算の結了等,,,2015-10-05,1,,,,,トギヤ,0
1632,6240002048792,登記記録の閉鎖等,0,2023-10-27,2023-10-23,有限会社山本鉄工所,,有限会社,広島県,呉市,吉浦東本町２丁目１３番７号,,34,202,7370852,,,2023-10-23,清算の結了等,,,2015-10-05,1,,,,,ヤマモトテッコウショ,0
1664,6320002019777,登記記録の閉鎖等,0,2023-10-27,2023-10-25,有限会社河野不動産鑑定事務所,,有限会社,大分県,日田市,上城内町１番３５号,,44,204,8770003,,,2023-10-25,清算の結了等,,,2015-10-05,1,,,,,カワノフドウサンカンテイジムショ,0
1670,6360001000172,登記記録の閉鎖等,0,2023-10-27,2023-10-23,株式会社グランルージュ,,株式会社,沖縄県,浦添市,勢理客１丁目１７番１７号,,47,208,9012122,,,2023-10-23,清算の結了等,,,2015-10-05,1,,,,,グランルージュ,0
1678,6370003005747,登記記録の閉鎖等,0,2023-10-27,2023-10-23,ＫｅｅＭｅｅＯｏｏ合同会社,,合同会社,宮城県,仙台市若林区,新寺４丁目７番１０号４０３,,04,103,9840051,,,2023-10-23,清算の結了等,,,2022-06-28,1,,,,,キーミーオー,0
1689,6390002008138,登記記録の閉鎖等,0,2023-10-27,2023-09-20,有限会社ワジマ空調設備,,有限会社,山形県,酒田市,大宮町３丁目１７番１６号,,06,204,9980824,,,2023-09-20,清算の結了等,,,2015-10-05,1,,,,,,0
1692,6410005004874,登記記録の閉鎖等,0,2023-10-27,2023-10-23,農事組合法人フィットファーム雲然,,その他の設立登記法人,秋田県,仙北市,角館町雲然碇１８０番地,,05,215,0140341,,,2023-10-23,清算の結了等,,,2015-10-05,1,,,,,フィットファームクモシカリ,0
1699,6450002008098,登記記録の閉鎖等,0,2023-10-27,2023-10-20,秋月介護サービス有限会社,,有限会社,北海道,旭川市,流通団地三条４丁目２７番５号,,01,204,0798443,,,2023-10-20,清算の結了等,,,2015-10-05,1,,,,,アキツキカイゴサービス,0
1710,7010001084539,登記記録の閉鎖等,0,2023-10-27,2023-10-13,株式会社マイクロリンクステクノロジー,,株式会社,東京都,港区,西新橋３丁目４番２号,,13,103,1050003,,,2023-10-13,清算の結了等,,,2015-10-05,1,,,,,マイクロリンクステクノロジー,0
1713,7010001113743,登記記録の閉鎖等,0,2023-10-27,2023-10-17,ＭＯＲＥ　Ｍｅｄｉｃａｌ株式会社,,株式会社,東京都,中央区,日本橋久松町１０番１０号,,13,102,1030005,,,2023-10-17,清算の結了等,,,2015-10-05,1,,,,,モアメディカル,0
1721,7010003031183,登記記録の閉鎖等,0,2023-10-27,2023-10-17,ＢＬＵＥＤＧＥ合同会社,,合同会社,東京都,中央区,日本橋３丁目２番１４号新槇町ビル別館第一１階,,13,102,1030027,,,2023-10-17,清算の結了等,,,2019-12-02,1,,,,,ブルーエッジ,0
1736,7010403025173,登記記録の閉鎖等,0,2023-10-27,2023-09-28,ＳＯＵＳＥＩ　ＷＯＲＫＳ合同会社,,合同会社,東京都,港区,南青山２丁目２番１５号,,13,103,1070062,,,2023-09-28,清算の結了等,,,2021-04-19,1,,,,,ソウセイワークス,0
1738,7010501040669,登記記録の閉鎖等,0,2023-10-27,2023-10-13,株式会社ジェーキンス,,株式会社,千葉県,船橋市,本町２丁目１３番７号ウインズ船橋３０１号室,,12,204,2730005,,,2023-10-13,清算の結了等,,,2017-02-21,1,,,,,ジェーキンス,0
1745,7010602019018,登記記録の閉鎖等,0,2023-10-27,2023-10-23,有限会社ツイングロース,,有限会社,東京都,江東区,扇橋１丁目２１番１２号,,13,108,1350011,,,2023-10-23,清算の結了等,,,2015-10-05,1,,,,,ツイングロース,0
1772,7011102004492,登記記録の閉鎖等,0,2023-10-27,2023-10-24,有限会社恒進プルーフ,,有限会社,東京都,新宿区,山吹町３４０番地瀬谷ビル,,13,104,1620801,,,2023-10-24,清算の結了等,,,2015-10-05,1,,,,,コウシンプルーフ,0
1782,7011702002086,登記記録の閉鎖等,0,2023-10-27,2023-10-24,有限会社エミス,,有限会社,東京都,江戸川区,北葛西５丁目１８番３－７０９号,,13,123,1340081,,,2023-10-24,清算の結了等,,,2015-10-05,1,,,,,エミス,0
1783,7011702009008,登記記録の閉鎖等,0,2023-10-27,2023-10-24,有限会社ノービル製作所,,有限会社,東京都,江戸川区,春江町３丁目２２番１７号,,13,123,1320003,,,2023-10-24,清算の結了等,,,2015-10-05,1,,,,,ノービルセイサクショ,0
1787,7012702001986,登記記録の閉鎖等,0,2023-10-27,2023-10-23,有限会社横田通工,,有限会社,栃木県,足利市,毛野新町３丁目５５番地,,09,202,3260016,,,2023-10-23,清算の結了等,,,2015-10-05,1,,,,,ヨコタツウコウ,0
1789,7013301031615,登記記録の閉鎖等,0,2023-10-27,2023-10-13,株式会社キュー,,株式会社,東京都,中央区,銀座２丁目５番８号ＧＭ－Ｇビル７階,,13,102,1040061,,,2023-10-13,合併による解散等,7011001036331,令和５年１０月１日東京都中央区日本橋堀留町一丁目１０番１３号株式会社ドリームフィールズ（7011001036331）に合併し解散,2015-10-05,1,,,,,キュー,0
1793,7020001021458,登記記録の閉鎖等,0,2023-10-27,2023-10-16,株式会社ヒカリ,,株式会社,神奈川県,横浜市神奈川区,栄町６番１号ヨコハマポートサイドロア参番館１０５,,14,102,2210052,,,2023-10-16,清算の結了等,,,2015-10-05,1,,,,,ヒカリ,0
1805,7020002059258,登記記録の閉鎖等,0,2023-10-27,2023-10-16,有限会社キノシタ,,有限会社,神奈川県,横浜市戸塚区,深谷町字笹山１２３５番地１,,14,110,2450067,,,2023-10-16,清算の結了等,,,2015-10-05,1,,,,,キノシタ,0
1813,7021001071369,登記記録の閉鎖等,0,2023-10-27,2023-10-24,株式会社ＫＯＳＨＩＮグループ,,株式会社,神奈川県,藤沢市,藤沢５７１番地の７フジビル,,14,205,2510052,,,2023-10-24,清算の結了等,,,2020-11-17,1,,,,,コーシングループ,0
1819,7021003000012,登記記録の閉鎖等,0,2023-10-27,2023-10-20,合名会社近藤牧場,,合名会社,神奈川県,藤沢市,川名２丁目６番１０号,,14,205,2510015,,,2023-10-20,清算の結了等,,,2015-10-05,1,,,,,コンドウボクジョウ,0
1822,7030001042206,登記記録の閉鎖等,0,2023-10-27,2023-10-06,東埼玉三菱自動車販売株式会社,,株式会社,埼玉県,桶川市,大字坂田１６９３番地,,11,231,3630008,,,2023-10-06,清算の結了等,,,2015-10-05,1,,,,,,0
1830,7030002055446,登記記録の閉鎖等,0,2023-10-27,2023-10-17,伊藤木材有限会社,,有限会社,埼玉県,桶川市,大字川田谷３２４８番地の２,,11,231,3630027,,,2023-10-17,清算の結了等,,,2015-10-05,1,,,,,イトウモクザイ,0
1849,7060001026899,登記記録の閉鎖等,0,2023-10-27,2023-10-23,株式会社ひかりコーポレーション,,株式会社,栃木県,足利市,葉鹿町２丁目３０番地２,,09,202,3260143,,,2023-10-23,清算の結了等,,,2015-10-05,1,,,,,ヒカリコーポレーション,0
1852,7060002006165,登記記録の閉鎖等,0,2023-10-27,2023-10-20,有限会社手塚システムサポート,,有限会社,栃木県,宇都宮市,富士見が丘３丁目６番４号,,09,201,3200011,,,2023-10-20,清算の結了等,,,2015-10-05,1,,,,,テツカシステムサポート,0
1880,7120101035067,登記記録の閉鎖等,0,2023-10-27,2023-10-24,株式会社カナトン,,株式会社,大阪府,富田林市,大字佐備６６７－３,,27,214,5840052,,,2023-10-24,清算の結了等,,,2015-10-05,1,,,,,カナトン,0
1911,7180301005277,登記記録の閉鎖等,0,2023-10-27,2023-10-23,株式会社大番,,株式会社,愛知県,豊川市,千歳通３丁目２７番地１,,23,207,4420888,,,2023-10-23,清算の結了等,,,2015-10-05,1,,,,,オオバン,0
1917,7200002007124,登記記録の閉鎖等,0,2023-10-27,2023-10-26,有限会社ＷｏｒｌｄＫ古美術翁堂,,有限会社,岐阜県,各務原市,蘇原青雲町４丁目１番地８８,,21,213,5040843,,,2023-10-26,清算の結了等,,,2015-10-05,1,,,,,ワールドケイコビジュツオキナドウ,0
1919,7220001024341,登記記録の閉鎖等,0,2023-10-27,2023-10-26,ＳＴＯＫＫ株式会社,,株式会社,石川県,金沢市,森山１丁目２番１号,,17,201,9200843,,,2023-10-26,清算の結了等,,,2021-08-06,1,,,,,ストック,0
1930,7240003004728,登記記録の閉鎖等,0,2023-10-27,2023-10-20,合同会社ｅｌｔｏｎ,,合同会社,広島県,広島市中区,幟町１３番１５号,,34,101,7300016,,,2023-10-20,清算の結了等,,,2020-07-06,1,,,,,エルトン,0
1940,7280002011746,登記記録の閉鎖等,0,2023-10-27,2023-10-26,株式会社東條工芸,,株式会社,島根県,仁多郡奥出雲町,八川５８番地１,,32,343,6991811,,,2023-10-26,清算の結了等,,,2015-10-05,1,,,,,トウジョウコウゲイ,0
1966,7370001015136,登記記録の閉鎖等,0,2023-10-27,2023-10-20,株式会社プラン,,株式会社,宮城県,仙台市若林区,南材木町９２番地の２,,04,103,9840805,,,2023-10-20,清算の結了等,,,2015-10-05,1,,,,,プラン,0
1971,7380002006959,登記記録の閉鎖等,0,2023-10-27,2023-10-19,有限会社松原商事,,有限会社,福島県,福島市,宮代字植田前３４番地の６スリーズメゾン２０２号室,,07,201,9600116,,,2023-10-19,清算の結了等,,,2015-10-05,1,,,,,マツバラショウジ,0
1988,7470002003872,登記記録の閉鎖等,0,2023-10-27,2023-10-25,有限会社ズーム,,有限会社,香川県,高松市,下田井町１３０番地１７,,37,201,7610313,,,2023-10-25,清算の結了等,,,2015-10-05,1,,,,,ズーム,0
2003,8010001160974,登記記録の閉鎖等,0,2023-10-27,2023-10-17,株式会社キシンホールディングス,,株式会社,東京都,千代田区,神田小川町１丁目７番地小川町メセナビル３階,,13,101,1010052,,,2023-10-17,清算の結了等,,,2015-10-05,1,,,,,キシンホールディングス,0
2015,8010401152679,登記記録の閉鎖等,0,2023-10-27,2023-10-18,株式会社Ｔａｓｔｅ　Ｌｏｃａｌ,,株式会社,東京都,港区,六本木３丁目３番１５号麻布台ＴＳタワー８Ｆ,,13,103,1060032,,,2023-10-18,清算の結了等,,,2020-05-13,1,,,,,テイストローカル,0
2026,8010501039099,登記記録の閉鎖等,0,2023-10-27,2023-10-25,キャラワングローバルマネジメント株式会社,,株式会社,東京都,台東区,上野３丁目１７番２号,,13,106,1100005,,,2023-10-25,清算の結了等,,,2016-02-05,1,,,,,キャラワングローバルマネジメント,0
2029,8010602027721,登記記録の閉鎖等,0,2023-10-27,2023-10-25,有限会社マル金商店,,有限会社,東京都,江東区,大島４丁目８番１５号,,13,108,1360072,,,2023-10-25,清算の結了等,,,2015-10-05,1,,,,,マルキンショウテン,0
2035,8010802002615,登記記録の閉鎖等,0,2023-10-27,2023-10-25,有限会社大森彫刻,,有限会社,東京都,大田区,西蒲田１丁目１６番１０号,,13,111,1440051,,,2023-10-25,清算の結了等,,,2015-10-05,1,,,,,オオモリチョウコク,0
2036,8010802014354,登記記録の閉鎖等,0,2023-10-27,2023-10-24,有限会社武藏屋履物店,,有限会社,東京都,大田区,萩中２丁目８番１号,,13,111,1440047,,,2023-10-24,清算の結了等,,,2015-10-05,1,,,,,ムサシヤハキモノテン,0
2056,8011101080633,登記記録の閉鎖等,0,2023-10-27,2023-10-24,ＭＩリンク株式会社,,株式会社,東京都,新宿区,新宿２丁目１２番１３号新宿アントレサロンビル２階,,13,104,1600022,,,2023-10-24,清算の結了等,,,2017-05-24,1,,,,,エムアイリンク,0
2060,8011701002796,登記記録の閉鎖等,0,2023-10-27,2023-10-23,宏起木工株式会社,,株式会社,東京都,江戸川区,平井７丁目１８番１８号,,13,123,1320035,,,2023-10-23,清算の結了等,,,2015-10-05,1,,,,,ヒロオキモッコウ,0
2069,8012401011195,登記記録の閉鎖等,0,2023-10-27,2023-10-24,株式会社栄デンキストアー,,株式会社,東京都,武蔵野市,境３丁目２番１号,,13,203,1800022,,,2023-10-24,清算の結了等,,,2015-10-05,1,,,,,サカエデンキストアー,0
2077,8012403005121,登記記録の閉鎖等,0,2023-10-27,2023-10-13,ＦＪ．Ｇｒａｔｉｔｕｄｅ合同会社,,合同会社,東京都,府中市,緑町２丁目１１番地,,13,206,1830006,,,2023-10-13,清算の結了等,,,2021-11-22,1,,,,,エフジェイグラティテュード,0
2080,8013105001004,登記記録の閉鎖等,0,2023-10-27,2023-10-23,神道大教天聖神社,,その他の設立登記法人,東京都,西多摩郡奥多摩町,氷川９１８番地,,13,308,1980212,,,2023-10-23,清算の結了等,,,2015-10-05,1,,,,,,0
2104,8021001048993,登記記録の閉鎖等,0,2023-10-27,2023-10-23,株式会社エム・フロンティア,,株式会社,神奈川県,逗子市,逗子７丁目１番３９号,,14,208,2490006,,,2023-10-23,清算の結了等,,,2015-10-05,1,,,,,エムフロンティア,0
2117,8030001046619,登記記録の閉鎖等,0,2023-10-27,2023-10-11,株式会社伊藤建設,,株式会社,埼玉県,和光市,中央２丁目３番３３号,,11,229,3510113,,,2023-10-11,清算の結了等,,,2015-10-05,1,,,,,イトウケンセツ,0
2137,8040002101264,登記記録の閉鎖等,0,2023-10-27,2023-10-05,有限会社和光商事,,有限会社,千葉県,鴨川市,天津１７４番地８,,12,223,2995503,,,2023-10-05,清算の結了等,,,2015-10-05,1,,,,,ワコウショウジ,0
2147,8070002001239,登記記録の閉鎖等,0,2023-10-27,2023-10-24,オブチ工業有限会社,,有限会社,群馬県,前橋市,富士見町原之郷１０７１番地の４,,10,201,3710116,,,2023-10-24,清算の結了等,,,2015-10-05,1,,,,,オブチコウギョウ,0
2169,8120001236367,登記記録の閉鎖等,0,2023-10-27,2023-10-24,株式会社モンスターエージェンシー,,株式会社,大阪府,大阪市北区,西天満４丁目１０番５号,,27,127,5300047,,,2023-10-24,清算の結了等,,,2021-04-02,1,,,,,モンスターエージェンシー,0
2182,8130002027054,登記記録の閉鎖等,0,2023-10-27,2023-10-13,有限会社陽気屋,,有限会社,京都府,宇治市,木幡御蔵山４５－７,,26,204,6110002,,,2023-10-13,清算の結了等,,,2015-10-05,1,,,,,ヨウキヤ,0
2215,8180003017545,登記記録の閉鎖等,0,2023-10-27,2023-10-24,合同会社神明製作所,,合同会社,愛知県,一宮市,北神明町３丁目３番地２,,23,203,4910069,,,2023-10-24,清算の結了等,,,2016-12-05,1,,,,,シンメイセイサクショ,0
2221,8180302015621,登記記録の閉鎖等,0,2023-10-27,2023-10-18,有限会社近松鉄工所,,有限会社,愛知県,蒲郡市,豊岡町下長根６５番・６６番合併地,,23,214,4430011,,,2023-10-18,清算の結了等,,,2015-10-05,1,,,,,チカマツテッコウショ,0
2225,8190002011671,登記記録の閉鎖等,0,2023-10-27,2023-10-25,有限会社まるげん,,有限会社,三重県,志摩市,大王町船越３４８番地２４,,24,215,5170604,,,2023-10-25,清算の結了等,,,2015-10-05,1,,,,,マルゲン,0
2228,8200001037583,登記記録の閉鎖等,0,2023-10-27,2023-10-24,Ｍｉｒａｉ　Ｐｏｒｔ下切株式会社,,株式会社,岐阜県,高山市,下切町１２５８番地１,,21,203,5060041,,,2023-10-24,清算の結了等,,,2020-07-06,1,,,,,ミライポートシモギリ,0
2229,8200001040661,登記記録の閉鎖等,0,2023-10-27,2023-10-24,くにしま商事株式会社,,株式会社,岐阜県,岐阜市,古市場５１１番地２,,21,201,5011121,,,2023-10-24,清算の結了等,,,2022-11-08,1,,,,,クニシマショウジ,0
2237,8260001036340,登記記録の閉鎖等,0,2023-10-27,2023-10-26,株式会社くらしき中央コンサルティング,,株式会社,岡山県,倉敷市,沖新町７９番地７,,33,202,7100837,,,2023-10-26,清算の結了等,,,2021-12-24,1,,,,,クラシキチュウオウコンサルティング,0
2256,8330001021665,登記記録の閉鎖等,0,2023-10-27,2023-10-19,セラーエージェント株式会社,,株式会社,熊本県,熊本市中央区,水前寺２丁目１５番６号,,43,101,8620950,,,2023-10-19,清算の結了等,,,2015-10-05,1,,,,,セラーエージェント,0
2260,8340002013909,登記記録の閉鎖等,0,2023-10-27,2023-10-25,有限会社東海不動産,,有限会社,鹿児島県,霧島市,国分府中４７番地４,,46,218,8994345,,,2023-10-25,清算の結了等,,,2015-10-05,1,,,,,トウカイフドウサン,0
2263,8340005002405,登記記録の閉鎖等,0,2023-10-27,2023-10-24,姶良鮮魚協同組合,,その他の設立登記法人,鹿児島県,霧島市,隼人町眞孝７８１番地,,46,218,8994300,,,2023-10-24,清算の結了等,,,2015-10-05,1,,,,,アイラセンギョ,0
2272,8370001011381,登記記録の閉鎖等,0,2023-10-27,2023-10-24,東北ディーシーエス株式会社,,株式会社,宮城県,仙台市青葉区,中央２丁目２番１号,,04,101,9800021,,,2023-10-24,合併による解散等,1010701016549,令和５年１０月１日東京都品川区東品川四丁目１２番２号三菱総研ＤＣＳ株式会社（1010701016549）に合併し解散,2015-10-05,1,,,,,,0
2284,8390005007317,登記記録の閉鎖等,0,2023-10-27,2023-10-25,神社財団松岬会,,その他の設立登記法人,山形県,米沢市,丸の内１丁目４番１３号,,06,202,9920052,,,2023-10-25,清算の結了等,,,2016-05-17,1,,,,,マツガサキカイ,0
2299,8440001008412,登記記録の閉鎖等,0,2023-10-27,2023-10-20,公明殖産株式会社,,株式会社,北海道,函館市,東雲町１９番７号,,01,202,0400036,,,2023-10-20,清算の結了等,,,2018-11-05,1,,,,,コウメイショクサン,0
2303,8500001005477,登記記録の閉鎖等,0,2023-10-27,2023-10-25,株式会社南海デリカ,,株式会社,愛媛県,大洲市,徳森２２３１番地１５,,38,207,7950061,,,2023-10-25,清算の結了等,,,2015-10-05,1,,,,,ナンカイデリカ,0
2304,9010001003645,登記記録の閉鎖等,0,2023-10-27,2023-10-17,清水商事株式会社,,株式会社,東京都,文京区,本郷３丁目３２番３号,,13,105,1130033,,,2023-10-17,清算の結了等,,,2015-10-05,1,,,,,シミズショウジ,0
2320,9010005016874,登記記録の閉鎖等,0,2023-10-27,2023-10-23,特定非営利活動法人日本パスツール協会,,その他の設立登記法人,東京都,中央区,銀座６丁目３番２号ギャラリーセンタービル２階,,13,102,1040061,,,2023-10-23,清算の結了等,,,2015-10-05,1,,,,,ニホンパスツールキョウカイ,0
2332,9010403021815,登記記録の閉鎖等,0,2023-10-27,2023-10-18,合同会社ゼストリーシング,,合同会社,東京都,港区,六本木６丁目１０番１号六本木ヒルズ森タワー,,13,103,1060032,,,2023-10-18,清算の結了等,,,2019-11-15,1,,,,,ゼストリーシング,0
2337,9010601002906,登記記録の閉鎖等,0,2023-10-27,2023-10-17,三協鋼材株式会社,,株式会社,東京都,江東区,東砂３丁目１８番５号,,13,108,1360074,,,2023-10-17,清算の結了等,,,2015-10-05,1,,,,,サンキョウコウザイ,0
2338,9010602019890,登記記録の閉鎖等,0,2023-10-27,2023-10-23,有限会社大館,,有限会社,東京都,墨田区,横川２丁目１４番２号,,13,107,1300003,,,2023-10-23,清算の結了等,,,2015-10-05,1,,,,,オオダテ,0
2367,9011601012127,登記記録の閉鎖等,0,2023-10-27,2023-10-24,株式会社アンナクラリス,,株式会社,東京都,練馬区,旭丘２丁目１８番５号,,13,120,1760005,,,2023-10-24,清算の結了等,,,2015-10-05,1,,,,,アンナクラリス,0
2368,9011601017381,登記記録の閉鎖等,0,2023-10-27,2023-10-23,株式会社常和ジェット建設,,株式会社,東京都,練馬区,豊玉南１丁目１２番１２号,,13,120,1760014,,,2023-10-23,清算の結了等,,,2015-10-05,1,,,,,ジョウワジェットケンセツ,0
2375,9011801007001,登記記録の閉鎖等,0,2023-10-27,2023-10-24,株式会社鎌倉商店,00056980,株式会社,東京都,足立区,千住橋戸町５０番地,,13,121,1200038,,,2023-10-24,清算の結了等,,,2015-10-05,1,,,,,カマクラショウテン,0
2376,9011802014013,登記記録の閉鎖等,0,2023-10-27,2023-10-24,有限会社ショーエイ,,有限会社,東京都,足立区,柳原１丁目３１番１７号,,13,121,1200022,,,2023-10-24,清算の結了等,,,2015-10-05,1,,,,,ショーエイ,0
2385,9020001096060,登記記録の閉鎖等,0,2023-10-27,2023-10-17,アイカテック株式会社,,株式会社,神奈川県,横浜市旭区,上白根２丁目１番２０号,,14,112,2410002,,,2023-10-17,清算の結了等,,,2015-10-05,1,,,,,アイカテック,0
2405,9021002070293,登記記録の閉鎖等,0,2023-10-27,2023-10-23,有限会社アンザイ商会,,有限会社,神奈川県,横須賀市,上町１丁目７２番地,,14,201,2380017,,,2023-10-23,清算の結了等,,,2015-10-05,1,,,,,アンザイショウカイ,0
2419,9040001108573,登記記録の閉鎖等,0,2023-10-27,2023-10-13,株式会社ｉｘｃｏ,,株式会社,千葉県,八千代市,高津８５０－１５３,,12,221,2760036,,,2023-10-13,清算の結了等,,,2019-04-01,1,,,,,イクスコ,0
2424,9050001010134,登記記録の閉鎖等,0,2023-10-27,2023-10-19,株式会社栗山商店,,株式会社,茨城県,かすみがうら市,柏崎９２５番地,,08,230,3000201,,,2023-10-19,清算の結了等,,,2015-10-05,1,,,,,クリヤマショウテン,0
2436,9100001032214,登記記録の閉鎖等,0,2023-10-27,2023-10-16,桜新町不動産株式会社,,株式会社,長野県,長野市,桜新町７９２番地１４,,20,201,3810013,,,2023-10-16,清算の結了等,,,2019-05-20,1,,,,,サクラシンマチフドウサン,0
2444,9120001124868,登記記録の閉鎖等,0,2023-10-27,2023-10-25,株式会社ＧＭ＆Ａ,,株式会社,大阪府,大阪市北区,芝田２丁目２番１７号,,27,127,5300012,,,2023-10-25,清算の結了等,,,2015-10-05,1,,,,,ジーエムアンドエー,0
2466,9130001054940,登記記録の閉鎖等,0,2023-10-27,2023-10-12,株式会社京都エアード,,株式会社,京都府,京都市下京区,材木町４９９－２第一キョートビル８０２号室,,26,106,6008146,,,2023-10-12,清算の結了等,,,2015-10-05,1,,,,,キョウトエアード,0
2479,9140003013051,登記記録の閉鎖等,0,2023-10-27,2023-10-20,株式会社エクシア,,株式会社,兵庫県,川西市,加茂６丁目８５番地の９,,28,217,6660025,,,2023-10-20,清算の結了等,,,2018-06-06,1,,,,,エクシア,0
2487,9180001106968,登記記録の閉鎖等,0,2023-10-27,2023-10-25,アポロホーム株式会社,,株式会社,愛知県,尾張旭市,東本地ケ原町２丁目１３７番地,,23,226,4880033,,,2023-10-25,清算の結了等,,,2015-10-05,1,,,,,アポロホーム,0
2490,9180001138672,登記記録の閉鎖等,0,2023-10-27,2023-10-25,ｂｅｌｌａ株式会社,,株式会社,愛知県,名古屋市瑞穂区,白龍町１丁目８３番地,,23,108,4670826,,,2023-10-25,清算の結了等,,,2019-11-06,1,,,,,ベラ,0
2491,9180001149323,登記記録の閉鎖等,0,2023-10-27,2023-10-24,リソナンス株式会社,,株式会社,愛知県,名古屋市名東区,にじが丘１丁目１２番地の２－７０８号,,23,115,4650078,,,2023-10-24,清算の結了等,,,2022-01-05,1,,,,,リソナンス,0
2495,9180002048813,登記記録の閉鎖等,0,2023-10-27,2023-10-25,有限会社ヒューマンウイッシュ,,有限会社,愛知県,名古屋市北区,稚児宮通１丁目３１番地,,23,103,4620038,,,2023-10-25,清算の結了等,,,2015-10-05,1,,,,,ヒューマンウイッシュ,0
2498,9180301023871,登記記録の閉鎖等,0,2023-10-27,2023-10-17,株式会社西尾ラヂエーター都築,,株式会社,愛知県,西尾市,戸ケ崎４丁目３番地１１,,23,213,4450075,,,2023-10-17,清算の結了等,,,2015-10-05,1,,,,,ニシオラヂエーターツヅキ,0
2507,9200001037582,登記記録の閉鎖等,0,2023-10-27,2023-10-24,Ｍｉｒａｉ　Ｐｏｒｔ飛騨株式会社,,株式会社,岐阜県,高山市,下切町１２５８番地１,,21,203,5060041,,,2023-10-24,清算の結了等,,,2020-07-06,1,,,,,ミライポートヒダ,0
2537,9340002013593,登記記録の閉鎖等,0,2023-10-27,2023-10-25,有限会社九州金属,,有限会社,鹿児島県,霧島市,国分府中４１番地２,,46,218,8994345,,,2023-10-25,清算の結了等,,,2015-10-05,1,,,,,キュウシュウキンゾク,0
2538,9340002017198,登記記録の閉鎖等,0,2023-10-27,2023-10-26,有限会社吉村薬局,00099466,有限会社,鹿児島県,薩摩川内市,横馬場町９番２６号,,46,215,8950023,,,2023-10-26,清算の結了等,,,2015-10-05,1,,,,,ヨシムラヤッキョク,0
2552,9380002013276,登記記録の閉鎖等,0,2023-10-27,2023-10-19,有限会社レジデンス五百淵,,有限会社,福島県,郡山市,字山崎３０４番地,,07,203,9638841,,,2023-10-19,合併による解散等,8380001008666,令和５年１０月１日福島県郡山市字山崎３０４番地株式会社三瓶地所（8380001008666）に合併し解散,2015-10-05,1,,,,,レジデンスゴヒャクブチ,0
2554,9390002013770,登記記録の閉鎖等,0,2023-10-27,2023-10-25,有限会社ＣＬＡＰ,,有限会社,山形県,米沢市,大字長手１７６２番地,,06,202,9920113,,,2023-10-25,清算の結了等,,,2015-10-05,1,,,,,クラップ,0
2558,9430001071294,登記記録の閉鎖等,0,2023-10-27,2023-10-16,株式会社イニム,,株式会社,北海道,札幌市中央区,大通西５丁目１１番地大五ビル６階,,01,101,0600042,,,2023-10-16,清算の結了等,,,2016-04-07,1,,,,,イニム,0
2561,9430003002421,登記記録の閉鎖等,0,2023-10-27,2023-10-17,ケアサポートなごみ合同会社,,合同会社,北海道,札幌市白石区,栄通６丁目１６番２号,,01,104,0030021,,,2023-10-17,清算の結了等,,,2015-10-05,1,,,,,ケアサポートナゴミ,0
2565,9470001013202,登記記録の閉鎖等,0,2023-10-27,2023-10-17,株式会社ＴＡＫＡＧＩ,,株式会社,香川県,丸亀市,郡家町２０４７番地１,,37,202,7630093,,,2023-10-17,合併による解散等,2470001008349,令和５年１０月１７日香川県丸亀市郡家町２０４７番地１高木組株式会社（2470001008349）に合併し解散,2015-10-05,1,,,,,タカギ,0
