sequenceNumber,corporateNumber,process,correct,updateDate,changeDate,name,nameImageId,kind,prefectureName,cityName,streetNumber,addressImageId,prefectureCode,cityCode,postCode,addressOutside,addressOutsideImageId,closeDate,closeCause,successorCorporateNumber,changeCause,assignmentDate,latest,enName,enPrefectureName,enCityName,enAddressOutside,furigana,hihyoji
10,1010001238100,新規,0,2023-09-01,2023-09-01,ＮＹＣＩ７株式会社,,株式会社,東京都,中央区,新川１丁目６番１１号,,13,102,1040033,,,,,,,2023-09-01,1,,,,,エヌワイシーアイセブン,0
20,1010401176742,新規,0,2023-09-01,2023-09-01,ソルト・グループ株式会社,,株式会社,東京都,港区,西麻布１丁目１０番２号,,13,103,1060031,,,,,,,2023-09-01,1,,,,,ソルトグループ,0
21,1010401176858,新規,0,2023-09-01,2023-09-01,株式会社Ｎｏｈｓ,,株式会社,東京都,港区,芝浦３丁目３番６号東京工業大学キャンパス・イノベーションセンターＩＮＤＥＳＴ,,13,103,1080023,,,,,,,2023-09-01,1,,,,,ノース,0
22,1010401176882,新規,0,2023-09-01,2023-09-01,株式会社Ｓｕｇａｒ　Ｎｅｗ,,株式会社,東京都,港区,南青山４丁目１番１５号ベルテ南青山８０２,,13,103,1070062,,,,,,,2023-09-01,1,,,,,シュガーニュー,0
23,1010401176890,新規,0,2023-09-01,2023-09-01,株式会社Ｓｈａｍａｎｉｃ　ｃｏｒ,,株式会社,東京都,港区,南青山５丁目６番地９号サウス青山－４０４,,13,103,1070062,,,,,,,2023-09-01,1,,,,,シャーマニックコル,0
25,1010405022380,新規,0,2023-09-01,2023-09-01,特定非営利活動法人ソーシャルアート市場,,その他の設立登記法人,東京都,港区,芝浦４丁目２番２３号東京ベイサイド４０７,,13,103,1080023,,,,,,,2023-09-01,1,,,,,ソーシャルアートイチバ,0
26,1010405022406,新規,0,2023-09-01,2023-09-01,一般社団法人ＳＤＬ,,その他の設立登記法人,東京都,港区,芝大門２丁目１２番３号,,13,103,1050012,,,,,,,2023-09-01,1,,,,,エスディーエル,0
29,1010703006845,新規,0,2023-09-01,2023-09-01,サックス・インダストリーズ合同会社,,合同会社,東京都,品川区,上大崎３丁目５番２号,,13,109,1410021,,,,,,,2023-09-01,1,,,,,サックスインダストリーズ,0
32,1010803004658,新規,0,2023-09-01,2023-09-01,合同会社歩,,合同会社,東京都,大田区,上池台１丁目１番６号,,13,111,1450064,,,,,,,2023-09-01,1,,,,,アユム,0
40,1011005010197,新規,0,2023-09-01,2023-09-01,医療法人社団ｔｏｒｃｈ　ｃｌｉｎｉｃ,,その他の設立登記法人,東京都,渋谷区,恵比寿４丁目３番１４号恵比寿ＳＳビル８階,,13,113,1500013,,,,,,,2023-09-01,1,,,,,トーチクリニック,0
43,1011101104183,新規,0,2023-09-01,2023-09-01,株式会社ＮＢＣソリューションズ,,株式会社,東京都,新宿区,高田馬場１丁目４番１５号,,13,104,1690075,,,,,,,2023-09-01,1,,,,,エヌビーシーソリューションズ,0
53,1011501029716,新規,0,2023-09-01,2023-09-01,株式会社明和塾,,株式会社,東京都,荒川区,西日暮里６丁目３７番１号ＢＩＺｃｏｍｆｏｒｔ西日暮里１Ｆ－９号室,,13,118,1160013,,,,,,,2023-09-01,1,,,,,メイワジュク,0
56,1011805003292,新規,0,2023-09-01,2023-09-01,特定非営利活動法人リビング・オール・トゥギャザー,,その他の設立登記法人,東京都,葛飾区,西新小岩３丁目２６番１５－１０６号,,13,122,1240025,,,,,,,2023-09-01,1,,,,,,0
70,1020001153265,新規,0,2023-09-01,2023-09-01,株式会社ｄＥＬＵＸｅ,,株式会社,神奈川県,横浜市磯子区,栗木２丁目２番５－１０１号,,14,107,2350041,,,,,,,2023-09-01,1,,,,,デラックス,0
71,1021001080061,新規,0,2023-09-01,2023-09-01,Ｄドライブ株式会社,,株式会社,神奈川県,相模原市南区,上鶴間１丁目１２番３３号,,14,153,2520302,,,,,,,2023-09-01,1,,,,,ディードライブ,0
74,1021003013523,新規,0,2023-09-01,2023-09-01,合同会社ＧＲＡＣＥ,,合同会社,神奈川県,小田原市,国府津２７０９番１号ラフィネステージ国府津６０６号室,,14,206,2560812,,,,,,,2023-09-01,1,,,,,グレース,0
78,1030001155533,新規,0,2023-09-01,2023-09-01,株式会社シーマスアノーズ,,株式会社,埼玉県,川越市,今成４丁目８番２３号,,11,201,3501105,,,,,,,2023-09-01,1,,,,,シーマスアノーズ,0
79,1030001155558,新規,0,2023-09-01,2023-09-01,株式会社アップライジング,,株式会社,埼玉県,志木市,本町５丁目２５番６号ＮＫ志木ビル５階,,11,228,3530004,,,,,,,2023-09-01,1,,,,,アップライジング,0
80,1030001155566,新規,0,2023-09-01,2023-09-01,スカイアンドカンパニー株式会社,,株式会社,埼玉県,さいたま市南区,沼影１丁目１１－２Ａ８０５,,11,108,3360027,,,,,,,2023-09-01,1,,,,,スカイアンドカンパニー,0
81,1030001155599,新規,0,2023-09-01,2023-09-01,株式会社熊谷鋼業,,株式会社,埼玉県,吉川市,大字平沼５番地３６,,11,243,3420056,,,,,,,2023-09-01,1,,,,,クマガイコウギョウ,0
82,1030001155657,新規,0,2023-09-01,2023-09-01,ＲＥＰＵＴＡＴＩＯＮ株式会社,,株式会社,埼玉県,川口市,西川口１丁目３３番８号千山閣ビル３Ｆ,,11,203,3320021,,,,,,,2023-09-01,1,,,,,リピュテイション,0
83,1030001155681,新規,0,2023-09-01,2023-09-01,ｃａｙｅｎｎｅ株式会社,,株式会社,埼玉県,川越市,大字大中居４２２番地６,,11,201,3500021,,,,,,,2023-09-01,1,,,,,カイエン,0
84,1030001155698,新規,0,2023-09-01,2023-09-01,株式会社タイシン電設,,株式会社,埼玉県,三郷市,彦成３丁目９番７－３０１号,,11,237,3410003,,,,,,,2023-09-01,1,,,,,タイシンデンセツ,0
85,1030001155839,新規,0,2023-09-01,2023-09-01,株式会社塗得,,株式会社,埼玉県,熊谷市,久保島８０３番地１プレシャスマイン２階,,11,202,3600831,,,,,,,2023-09-01,1,,,,,ヌットク,0
87,1030003022392,新規,0,2023-09-01,2023-09-01,ビーナスファーム合同会社,,合同会社,埼玉県,熊谷市,飯塚１８６０番地,,11,202,3600231,,,,,,,2023-09-01,1,,,,,ビーナスファーム,0
88,1030003022450,新規,0,2023-09-01,2023-09-01,ＦＢＩ合同会社,,合同会社,埼玉県,春日部市,米島１１８６番地７５,,11,214,3440115,,,,,,,2023-09-01,1,,,,,エフビーアイ,0
101,1040003023209,新規,0,2023-09-01,2023-09-01,合同会社ヒューアン,,合同会社,千葉県,山武郡横芝光町,横芝１３５０－１０横芝駅前ビル２階,,12,410,2891732,,,,,,,2023-09-01,1,,,,,ヒューアン,0
102,1040003023225,新規,0,2023-09-01,2023-09-01,合同会社エイト,,合同会社,千葉県,茂原市,高師６２０番地９,,12,210,2970029,,,,,,,2023-09-01,1,,,,,エイト,0
107,1080005007560,新規,0,2023-09-01,2023-09-01,特定非営利活動法人あんしんサポート,,その他の設立登記法人,静岡県,焼津市,本中根４８５番地の１,,22,212,4250063,,,,,,,2023-09-01,1,,,,,アンシンサポート,0
115,1120001257650,新規,0,2023-09-01,2023-09-01,ドキドキ株式会社,,株式会社,大阪府,大阪市中央区,東平２丁目２－１０大麺ビル２０３,,27,128,5420063,,,,,,,2023-09-01,1,,,,,ドキドキ,0
116,1120001257700,新規,0,2023-09-01,2023-09-01,日進株式会社,,株式会社,大阪府,大阪市住吉区,杉本町二丁目１４番２６号,,27,120,5580000,,,,,,,2023-09-01,1,,,,,ニッシン,0
117,1120001257741,新規,0,2023-09-01,2023-09-01,株式会社にょっき,,株式会社,大阪府,大阪市福島区,玉川２丁目１３番２６－２０６号,,27,103,5530004,,,,,,,2023-09-01,1,,,,,ニョッキ,0
120,1120003024792,新規,0,2023-09-01,2023-09-01,合同会社ＡＮＩＳＡ,,合同会社,大阪府,大阪市西区,北堀江１丁目１６番２６－５０１号,,27,106,5500014,,,,,,,2023-09-01,1,,,,,アニサ,0
125,1120901048001,新規,0,2023-09-01,2023-09-01,株式会社ねじ,,株式会社,大阪府,池田市,五月丘２丁目７番１２－４０４号,,27,204,5630029,,,,,,,2023-09-01,1,,,,,ネジ,0
127,1120903004811,新規,0,2023-09-01,2023-09-01,ＢＯＤＹ　ＴＵＮＩＮＧ塚池合同会社,,合同会社,大阪府,三島郡島本町,水無瀬２丁目１７番２号,,27,301,6180014,,,,,,,2023-09-01,1,,,,,ボディチューニングツカイケ,0
131,1130001075119,新規,0,2023-09-01,2023-09-01,株式会社ＯＨＡＳＨＩ,,株式会社,京都府,京都市左京区,浄土寺東田町５３番地,,26,103,6068411,,,,,,,2023-09-01,1,,,,,オハシ,0
132,1140001131399,新規,0,2023-09-01,2023-09-01,株式会社アルケミスト,,株式会社,兵庫県,神戸市灘区,篠原中町５丁目１０番１７号ワコーレ篠原中町１０５,,28,102,6570066,,,,,,,2023-09-01,1,,,,,アルケミスト,0
133,1140001131408,新規,0,2023-09-01,2023-09-01,株式会社北川興産,,株式会社,兵庫県,姫路市,広畑区才６２９番地２,,28,201,6711104,,,,,,,2023-09-01,1,,,,,キタガワコウサン,0
150,1180301037755,新規,0,2023-09-01,2023-09-01,根本商事株式会社,,株式会社,愛知県,豊田市,花沢町下羽根３番地５,,23,211,4443231,,,,,,,2023-09-01,1,,,,,,0
169,1280001009029,新規,0,2023-09-01,2023-09-01,株式会社Ｓｅａ‐Ｎｏｉｓｅ,,株式会社,島根県,松江市,美保関町片江５２７－３,,32,201,6901315,,,,,,,2023-09-01,1,,,,,シーノイズ,0
176,1290801029836,新規,0,2023-09-01,2023-09-01,株式会社塗りよし,,株式会社,福岡県,中間市,中尾３丁目３－１６,,40,215,8090032,,,,,,,2023-09-01,1,,,,,ヌリヨシ,0
177,1300001013440,新規,0,2023-09-01,2023-09-01,株式会社波岡工業,,株式会社,佐賀県,伊万里市,二里町八谷搦１２０４番地１ネオス伊万里ザ・スクエア２０１号,,41,205,8480031,,,,,,,2023-09-01,1,,,,,ナミオカコウギョウ,0
178,1310001018587,新規,0,2023-09-01,2023-09-01,株式会社総経サポート,,株式会社,長崎県,長崎市,鶴見台１丁目１９番２号,,42,201,8500984,,,,,,,2023-09-01,1,,,,,ソウケイサポート,0
179,1320001019972,新規,0,2023-09-01,2023-09-01,株式会社ＯＶＥＲＨＯＬＩＣ,,株式会社,大分県,玖珠郡玖珠町,大字戸畑６番地の１,,44,462,8794331,,,,,,,2023-09-01,1,,,,,オーバーホリック,0
197,1420001018378,新規,0,2023-09-01,2023-09-01,株式会社ブルーファーム,,株式会社,青森県,青森市,西大野２丁目９番地４,,02,201,0300856,,,,,,,2023-09-01,1,,,,,ブルーファーム,0
199,1420003002784,新規,0,2023-09-01,2023-09-01,合同会社ザ・サンアンドムーン,,合同会社,青森県,八戸市,柏崎２丁目７番２０号ＭｅＤａｕｔｚ２０４,,02,203,0310081,,,,,,,2023-09-01,1,,,,,ザサンアンドムーン,0
205,1430001089864,新規,0,2023-09-01,2023-09-01,株式会社ユニクラフト,,株式会社,北海道,札幌市中央区,南一条西７丁目１２－２大通公園ウエストビル３階,,01,101,0600061,,,,,,,2023-09-01,1,,,,,ユニクラフト,0
209,1430002054322,新規,0,2023-09-01,2023-09-01,有限会社光研社アド．スタジオ,,有限会社,北海道,小樽市,色内２丁目１１番１３号,,01,203,0470031,,,,,,,2023-09-01,1,,,,,コウケンシャアドスタジオ,0
218,1700150119667,新規,0,2023-09-01,2023-09-01,ｓｈｅｎｚｈｅｎｓｈｉｊｉａｌｅｘｉｎｋｅｊｉｙｏｕｘｉａｎｇｏｎｇｓｉ,,外国会社等,,,,,,,,ｓｈｅｎｚｈｅｎｓｈｉｇｕａｎｇｍｉｎｇｑｕｇｏｎｇｍｉｎｇｊｉｅｄａｏｓｈａｎｇｃｕｎｓｈｅｑｕ　ｇｕａｎｃｈｅｎｇｄｉｔａｎｃｈａｎｙｅｙｕａｎＤｄｏｎｇ２０１Ａｑｕ　ｓｈｅｎｚｈｅｎｓｈｉ　ｇｕａｎｇｄｏｎｇｓｈｅｎｇ　５１８０００　ＣＮ,,,,,,2023-09-01,1,,,,,シェンジェンシージャーラーシンコージーヨウシエンゴンスー,0
219,1700150119675,新規,0,2023-09-01,2023-09-01,Ｔａｉｙｕａｎ　Ｑｉａｎ　Ｃｈｉｘｉ　ｎｅｔｗｏｒｋ　ｔｅｃｈｎｏｌｏｇｙ　Ｃｏ．，　ＬＴＤ　　　　,,外国会社等,,,,,,,,Ｒｏｏｍ　５１０，５ｔｈ　Ｆｌｏｏｒ，Ｈａｎｇｙｕａｎ　Ｂｕｉｌｄｉｎｇ，Ｎｏ．２６，Ｑｉａｎｘｉａｎ　Ｎｏｒｔｈ　Ｓｔｒｅｅｔ，Ｗｕｃｈｅｎｇ　Ｓｔｒｅｅｔ，Ｘｉａｏｄｉａｎ　Ｄｉｓｔｒｉｃｔ，Ｔａｉｙｕａｎ　Ｃｉｔｙ，Ｓｈａｎｘｉ　Ｐｒｏｖｉｎｃｅ　　　　,,,,,,2023-09-01,1,,,,,タイユエンチエンチーシーワンルオコージーヨウシエンゴンスー,0
220,1700150119683,新規,0,2023-09-01,2023-09-01,Ｓｈｅｎｚｈｅｎ　Ａｍｂｅｒｗｉｓｅｒ　Ｔｅｃｈｎｏｌｏｇｙ　Ｃｏ．，Ｌｔｄ,,外国会社等,,,,,,,,Ｒｏｏｍ　２０１，Ｂｌｏｃｋ　Ａ，Ｎｏ．１，Ｑｉａｎｗａｎ　１ｓｔ　Ｒｏａｄ，Ｑｉａｎｈａｉ　Ｓｈｅｎｚｈｅｎ－ＨＫ　Ｍｏｄｅｒｎ　Ｓｅｒｖｉｃｅ　Ｉｎｄｕｓｔｒｙ　Ｃｏｏｐｅｒａｔｉｏｎ　Ｚｏｎｅ，Ｓｈｅｎｚｈｅｎ，Ｇｕａｎｇｄｏｎｇ,,,,,,2023-09-01,1,,,,,シェンジェンフーポージートンコージーヨウシエンゴンスー,0
221,1700150119691,新規,0,2023-09-01,2023-09-01,ＳＨＥＮ　ＺＨＥＮ　ＳＨＩ　ＳＩ　ＫＡＮ　ＰＵ　ＫＥ　Ｊｌ　ＹＯＵ　ＸＩＡＮ　ＧＯＮＧ　ＳＩ,,外国会社等,,,,,,,,ｇｕａｎｌａｎｊｉｅｄａｏｊｕｔａｎｇｓｈｅｑｕｊｕｌｉｎｇｘｉｎｃｕｎｙｉｊｉａｇｏｎｇｙｅｙｕａｎ　３＃　ｊｕｌｉｎｇ　ｘｉｎ　ｃｕｎ　ｙｉ　ｊｉａ　ｇｏｎｇ　ｙｅ　ｙｕａｎ　３＃ｃｈａｎｇｆａｎｇ１－３ｃｅｎｇ　Ｓｈｅｎｚｈｅｎ　Ｇｕａｎｇｄｏｎｇ,,,,,,2023-09-01,1,,,,,シンセンシシカンプカギユウゲンコウシ,0
222,1700150119709,新規,0,2023-09-01,2023-09-01,ＷＥＩＦＡＮＧ　ＫＡＩＳＨＥＮ　ＩＮＴＥＲＮＡＴＩＯＮＡＬ　ＴＲＡＤＥ　ＣＯ．，ＬＴＤ,,外国会社等,,,,,,,,Ｎ０．２６００　Ｗｅｎｈｕａ　Ｓｏｕｔｈ　Ｒｏａｄ　Ｋｕｉｗｅｎ　Ｄｉｓｔｒｉｃｔ　ＷｅｉＦａｎｇ　Ｃｉｔｙ，ＳｈａｎＤｏｎｇ,,,,,,2023-09-01,1,,,,,ウェイファンカイショングオジーマオイーヨウシエンゴンスー,0
234,2010003041559,新規,0,2023-09-01,2023-09-01,合同会社ＡＬＥＲＯ７２,,合同会社,東京都,千代田区,神田錦町１丁目２１番１号,,13,101,1010054,,,,,,,2023-09-01,1,,,,,アレーロセブンティーツー,0
236,2010101015786,新規,0,2023-09-01,2023-09-01,株式会社空とロックンロール,,株式会社,東京都,八王子市,椚田町１２１４番地１めじろ台ハイム４０５号,,13,201,1930942,,,,,,,2023-09-01,1,,,,,ソラトロックンロール,0
246,2010401176857,新規,0,2023-09-01,2023-09-01,株式会社トリニティサン,,株式会社,東京都,港区,南青山５丁目１７番２号,,13,103,1070062,,,,,,,2023-09-01,1,,,,,トリニティサン,0
247,2010401176873,新規,0,2023-09-01,2023-09-01,株式会社ＨＹマネージメント,,株式会社,東京都,港区,赤坂６丁目５番３８号ファミールグラン赤坂６０５号,,13,103,1070052,,,,,,,2023-09-01,1,,,,,エイチワイマネージメント,0
248,2010401176881,新規,0,2023-09-01,2023-09-01,株式会社ＦａＤｒｅ,,株式会社,東京都,港区,南青山４丁目１番１５号ベルテ南青山８０２,,13,103,1070062,,,,,,,2023-09-01,1,,,,,ファドレ,0
249,2010401176923,新規,0,2023-09-01,2023-09-01,Ｔｒａｎｓｒｅｐｏｒｔ　Ｊａｐａｎ株式会社,,株式会社,東京都,港区,元麻布３丁目１番６号,,13,103,1060046,,,,,,,2023-09-01,1,,,,,トランスレポートジャパン,0
252,2010405022462,新規,0,2023-09-01,2023-09-01,医療法人社団しらかば会,,その他の設立登記法人,東京都,港区,芝浦４丁目１２番３９号ロジックビル三階,,13,103,1080023,,,,,,,2023-09-01,1,,,,,シラカバカイ,0
261,2011001156687,新規,0,2023-09-01,2023-09-01,リッツ株式会社,,株式会社,東京都,渋谷区,西原１丁目３６番９号,,13,113,1510066,,,,,,,2023-09-01,1,,,,,リッツ,0
267,2011201024883,新規,0,2023-09-01,2023-09-01,株式会社ＺＩＲＹＵ,,株式会社,東京都,中野区,弥生町４丁目６番１１号,,13,114,1640013,,,,,,,2023-09-01,1,,,,,ジリュウ,0
277,2011801042962,新規,0,2023-09-01,2023-09-01,株式会社大源,,株式会社,東京都,足立区,保木間１丁目１１－７アイデイパレス保木間１階,,13,121,1210064,,,,,,,2023-09-01,1,,,,,ダイゲン,0
281,2013301051287,新規,0,2023-09-01,2023-09-01,株式会社ＰＯＮＮＡ　ＭＩＥ,,株式会社,東京都,豊島区,北大塚２丁目２９番３号グリーンピア大塚３０１号,,13,116,1700004,,,,,,,2023-09-01,1,,,,,ポンナミー,0
289,2020001153264,新規,0,2023-09-01,2023-09-01,永興株式会社,,株式会社,神奈川県,横浜市中区,吉浜町２番地３６ＢＣＣビル２０３,,14,104,2310024,,,,,,,2023-09-01,1,,,,,エイコウ,0
298,2021001080060,新規,0,2023-09-01,2023-09-01,株式会社アドキズ,,株式会社,神奈川県,相模原市緑区,橋本４丁目２０番６号,,14,151,2520143,,,,,,,2023-09-01,1,,,,,アドキズ,0
306,2030001155573,新規,0,2023-09-01,2023-09-01,ＦＩＬ株式会社,,株式会社,埼玉県,川口市,南町１丁目１１番２２号,,11,203,3320026,,,,,,,2023-09-01,1,,,,,フィル,0
307,2030001155581,新規,0,2023-09-01,2023-09-01,株式会社コスモグラフ,,株式会社,埼玉県,ふじみ野市,桜ケ丘１丁目３４番２１号,,11,245,3560059,,,,,,,2023-09-01,1,,,,,コスモグラフ,0
308,2030001155623,新規,0,2023-09-01,2023-09-01,株式会社ＢＯＲＡＮ,,株式会社,埼玉県,川口市,大字道合２８７番地の７,,11,203,3330835,,,,,,,2023-09-01,1,,,,,ボラン,0
309,2030001155664,新規,0,2023-09-01,2023-09-01,株式会社Ｆ１　Ｂｙ　Ｊａｐａｎ,,株式会社,埼玉県,所沢市,並木８丁目７番地３－２０４,,11,208,3590042,,,,,,,2023-09-01,1,,,,,エフワンバイジャパン,0
314,2030003022490,新規,0,2023-09-01,2023-09-01,オプキャット合同会社,,合同会社,埼玉県,越谷市,レイクタウン９丁目１番地２８Ｎ２０５,,11,222,3430828,,,,,,,2023-09-01,1,,,,,オプキャット,0
316,2030005021375,新規,0,2023-09-01,2023-09-01,一般社団法人個人事業協栄組合,,その他の設立登記法人,埼玉県,草加市,氷川町２１０４番地３,,11,221,3400034,,,,,,,2023-09-01,1,,,,,コジンジギョウキョウエイクミアイ,0
324,2040001129741,新規,0,2023-09-01,2023-09-01,株式会社プリュームハウス,,株式会社,千葉県,船橋市,旭町３丁目１８番２１号,,12,204,2730041,,,,,,,2023-09-01,1,,,,,プリュームハウス,0
326,2040003023182,新規,0,2023-09-01,2023-09-01,中日国際合同会社,,合同会社,千葉県,市川市,北方町４丁目１７３４番地１－２０１室,,12,203,2720811,,,,,,,2023-09-01,1,,,,,チュウニチコクサイ,0
331,2060001036283,新規,0,2023-09-01,2023-09-01,株式会社サクラマーケティング,,株式会社,栃木県,鹿沼市,下沢１１１１,,09,205,3220256,,,,,,,2023-09-01,1,,,,,サクラマーケティング,0
335,2080401026691,新規,0,2023-09-01,2023-09-01,株式会社ケイヨウ産業,,株式会社,静岡県,磐田市,新開９５２番地,,22,211,4380113,,,,,,,2023-09-01,1,,,,,ケイヨウサンギョウ,0
337,2090001018304,新規,0,2023-09-01,2023-09-01,株式会社ネクスエスト,,株式会社,山梨県,中巨摩郡昭和町,紙漉阿原２３０４,,19,384,4093861,,,,,,,2023-09-01,1,,,,,ネクスエスト,0
344,2110005016986,新規,0,2023-09-01,2023-09-01,特定非営利活動法人キャリーグレース,,その他の設立登記法人,新潟県,妙高市,白山町２丁目１２番３２号,,15,217,9440047,,,,,,,2023-09-01,1,,,,,キャリーグレース,0
351,2120001257699,新規,0,2023-09-01,2023-09-01,Ｄ・Ｂ・Ｈ株式会社,,株式会社,大阪府,守口市,梶町４丁目２３番１９号,,27,209,5700015,,,,,,,2023-09-01,1,,,,,ディービーエイチ,0
352,2120001257732,新規,0,2023-09-01,2023-09-01,伊藤株式会社,,株式会社,大阪府,大阪市中央区,南船場１丁目３番１７号永都ビル大阪長堀,,27,128,5420081,,,,,,,2023-09-01,1,,,,,イトウ,0
353,2120001257740,新規,0,2023-09-01,2023-09-01,株式会社ワンハネ,,株式会社,大阪府,枚方市,町楠葉２丁目２３番２０号,,27,210,5731106,,,,,,,2023-09-01,1,,,,,ワンハネ,0
354,2120001257757,新規,0,2023-09-01,2023-09-01,ｅｉｇｈｔ株式会社,,株式会社,大阪府,大阪市西区,阿波座１丁目１３番１３号,,27,106,5500011,,,,,,,2023-09-01,1,,,,,エイト,0
355,2120001257765,新規,0,2023-09-01,2023-09-01,伊山後株式会社,,株式会社,大阪府,大阪市城東区,中浜１丁目１４番１号,,27,118,5360024,,,,,,,2023-09-01,1,,,,,イサンゴ,0
356,2120001257773,新規,0,2023-09-01,2023-09-01,株式会社Ｅｐｉｃ,,株式会社,大阪府,大阪市鶴見区,緑１丁目１５番３３号あさひマンション１０１．１０２号室,,27,124,5380054,,,,,,,2023-09-01,1,,,,,エピック,0
361,2120003024817,新規,0,2023-09-01,2023-09-01,マミーゴールドコンサルティング合同会社,,合同会社,大阪府,大阪市中央区,内淡路町３丁目２番１５－１１０１号,,27,128,5400038,,,,,,,2023-09-01,1,,,,,マミーゴールドコンサルティング,0
362,2120003024825,新規,0,2023-09-01,2023-09-01,合同会社サークライズ,,合同会社,大阪府,守口市,金田町１丁目２０番６号,,27,209,5700011,,,,,,,2023-09-01,1,,,,,サークライズ,0
364,2120101068121,新規,0,2023-09-01,2023-09-01,株式会社Ｉｎｃｏｃｏｏｎ,,株式会社,大阪府,堺市堺区,七条通２－２０,,27,141,5900042,,,,,,,2023-09-01,1,,,,,インコクーン,0
365,2120103005403,新規,0,2023-09-01,2023-09-01,合同会社マックスデザインオフィス,,合同会社,大阪府,堺市堺区,竜神橋町２丁３番１号,,27,141,5900972,,,,,,,2023-09-01,1,,,,,マックスデザインオフィス,0
372,2130001075051,新規,0,2023-09-01,2023-09-01,株式会社Ｋａｉ,,株式会社,京都府,京都市山科区,御陵中内町４１－１０－３０１,,26,110,6078414,,,,,,,2023-09-01,1,,,,,カイ,0
375,2140001131398,新規,0,2023-09-01,2023-09-01,株式会社ＮＥＭＥＡ,,株式会社,兵庫県,宝塚市,山手台西２丁目１３番２号,,28,214,6650886,,,,,,,2023-09-01,1,,,,,ネメア,0
376,2140001131407,新規,0,2023-09-01,2023-09-01,株式会社ジョブハウス,,株式会社,兵庫県,伊丹市,北本町２丁目１４番地アローマ伊丹１１０２号,,28,207,6640836,,,,,,,2023-09-01,1,,,,,ジョブハウス,0
377,2140001131423,新規,0,2023-09-01,2023-09-01,株式会社ｕｎｎ,,株式会社,兵庫県,宝塚市,清荒神４丁目１６番１１号,,28,214,6650836,,,,,,,2023-09-01,1,,,,,ウン,0
385,2160003002975,新規,0,2023-09-01,2023-09-01,合同会社楽,,合同会社,滋賀県,大津市,日吉台３丁目６番１号,,25,201,5200112,,,,,,,2023-09-01,1,,,,,ガク,0
392,2180003025677,新規,0,2023-09-01,2023-09-01,合同会社ＤＥＶＡ,,合同会社,愛知県,東海市,大田町的場４０番地３,,23,222,4770031,,,,,,,2023-09-01,1,,,,,デーヴァ,0
399,2200003006063,新規,0,2023-09-01,2023-09-01,合同会社アイエスメックＪＰ,,合同会社,岐阜県,関市,下有知４２４０番地,,21,205,5013217,,,,,,,2023-09-01,1,,,,,アイエスメックジェーピー,0
401,2220003003579,新規,0,2023-09-01,2023-09-01,ｍａｒｒｉａｇｅ合同会社,,合同会社,石川県,金沢市,みどり１丁目１４９番地１,,17,201,9200373,,,,,,,2023-09-01,1,,,,,マリッジ,0
408,2250005008854,新規,0,2023-09-01,2023-09-01,一般財団法人貨幣博物館,,その他の設立登記法人,山口県,萩市,大字椿東３０００番地の５萩ロイヤルインテリジェントホテルビル３Ｆ,,35,204,7580011,,,,,,,2023-09-01,1,,,,,カヘイハクブツカン,0
409,2260001038268,新規,0,2023-09-01,2023-09-01,宇野株式会社,,株式会社,岡山県,岡山市北区,表町２丁目３番１８号,,33,101,7000822,,,,,,,2023-09-01,1,,,,,ウノ,0
417,2290001102822,新規,0,2023-09-01,2023-09-01,株式会社伯舟観光,,株式会社,福岡県,柳川市,西浜武１１１６番地２,,40,207,8320081,,,,,,,2023-09-01,1,,,,,ハクシュウカンコウ,0
418,2290001102830,新規,0,2023-09-01,2023-09-01,株式会社シナジー,,株式会社,福岡県,福岡市中央区,大名２丁目１０番８－１００９号,,40,133,8100041,,,,,,,2023-09-01,1,,,,,シナジー,0
426,2310003004634,新規,0,2023-09-01,2023-09-01,Ｒ．Ｓ．コネクト合同会社,,合同会社,長崎県,諫早市,多良見町化屋３２７番地８６,,42,204,8590401,,,,,,,2023-09-01,1,,,,,アールエスコネクト,0
439,2420003002783,新規,0,2023-09-01,2023-09-01,合同会社まちの下宿屋,,合同会社,青森県,青森市,幸畑３丁目１１番２９号,,02,201,0300943,,,,,,,2023-09-01,1,,,,,マチノゲシュクヤ,0
443,2430001089855,新規,0,2023-09-01,2023-09-01,株式会社オセアンフーズ,,株式会社,北海道,札幌市中央区,宮の森二条６丁目４番１号,,01,101,0640952,,,,,,,2023-09-01,1,,,,,オセアンフーズ,0
444,2430001089863,新規,0,2023-09-01,2023-09-01,株式会社ＥＸＣＥＬＬＥＮＴ,,株式会社,北海道,札幌市中央区,南二条西１丁目５番地丸大ビル６Ｆ,,01,101,0600062,,,,,,,2023-09-01,1,,,,,エクセレント,0
445,2430001089871,新規,0,2023-09-01,2023-09-01,株式会社ＳＮ,,株式会社,北海道,札幌市中央区,南十一条西９丁目１番２５－３０１号,,01,101,0640811,,,,,,,2023-09-01,1,,,,,エスエヌ,0
451,2430003015388,新規,0,2023-09-01,2023-09-01,合同会社Ｂｉｇｇｉｅ,,合同会社,北海道,札幌市白石区,菊水六条２丁目９番２８号,,01,104,0030806,,,,,,,2023-09-01,1,,,,,ビギー,0
452,2440001009309,新規,0,2023-09-01,2023-09-01,株式会社ハチャム,,株式会社,北海道,檜山郡厚沢部町,緑町７２番地の１,,01,363,0431112,,,,,,,2023-09-01,1,,,,,,0
455,2470001019783,新規,0,2023-09-01,2023-09-01,ＳＴＥＶＥ　ＳＴＵＤＩＯ株式会社,,株式会社,香川県,丸亀市,西本町２丁目３番１２号,,37,202,7630047,,,,,,,2023-09-01,1,,,,,スティーブスタジオ,0
459,2700150119666,新規,0,2023-09-01,2023-09-01,ｓｈｅｎｚｈｅｎｓｈｉ　ｗａｎｓｈｅｎｇｘｉｎｇｙｉ　ｋｅｊｉ　ｙｏｕ　ｘｉａｎ　ｇｏｎｇ　ｓｉ,,外国会社等,,,,,,,,Ｒｏｏｍ　６０６，Ｆ　Ｂｕｉｌｄｉｎｇ，Ｄｅｂａｏｌｉ　ｇｏｎｇ　ｙｅ　ｑｕ　ｊｉｈｕａ　ｒｏａｄ，ｂｕｊｉ　ｓｔｒｅｅｔ，ｌｏｎｇｇａｎｇ　ｄｉｓｔｒｉｃｔ　ｓｈｅｎｚｈｅｎ　ｇｕａｇｎｄｏｎｇ　５１８１１６　ＣＮ,,,,,,2023-09-01,1,,,,,シェンジェンシーワンションシンイーコージーヨウシエンゴンスー,0
460,2700150119674,新規,0,2023-09-01,2023-09-01,Ｇｕａｎｇｚｈｏｕ　Ｚｅｒｏ　Ｃｕｌｔｕｒｅ　Ｌｔｄ．　　　　　　,,外国会社等,,,,,,,,Ｘ１３０１－Ａ０１２２５９，Ｂｌｄｇ．１，１０６　Ｅａｓｔ　Ｆｅｎｇｚｅ　Ｒｄ．，Ｎａｎｓｈａ　Ｄｉｓｔ．，Ｇｕａｎｇｚｈｏｕ，Ｇｕａｎｇｄｏｎｇ，ＣＮ　　　　,,,,,,2023-09-01,1,,,,,グワンジョウリンハオシーグワンシージュエウェンフワーチュワンメイヨウシエンゴンスー,0
461,2700150119682,新規,0,2023-09-01,2023-09-01,ｓｈｅｎｚｈｅｎｓｈｉ　ｆｅｉｄａｌｅ　ｍａｏｙｉｙｏｕｘｉａｎｇｏｎｇｓｉ,,外国会社等,,,,,,,,ｂａｏａｎｑｕ　ｘｉｎａｎｊｉｅｄａｏ　ｈａｉｙｕｓｈｅｑｕ　Ｎ１５ｑｕ　ｘｉｎｇｆｕｈａｉａｎｈｕａｙｕａｎ　８ｄｏｎｇ　Ａ　ｚｕｏ２４Ｂ　ｓｈｅｎｚｈｅｎ　ｇｕａｎｇｄｏｎｇ　５１８０００　ＣＮ,,,,,,2023-09-01,1,,,,,シェンジェンシーフェイダーラーマオイーヨウシエンゴンスー,0
462,2700150119690,新規,0,2023-09-01,2023-09-01,ｄｏｎｇｇｕａｎｓｈｉｘｉｎｙｉｎｇｃａｉｋｅｊｉｙｏｕｘｉａｎｇｏｎｇｓｉ,,外国会社等,,,,,,,,Ｒｏｏｍ　３０１．Ｂｕｉｌｄｉｎｇ　２２．Ｎｏ．３１．Ｚｈａｎｇｌｕｏ　Ｘｉｃｈｅｎｇ　Ｒｏａｄ，Ｚｈａｎｇｍｕｔｏｕ　Ｔｏｗｎ　Ｄｏｎｇｇｕａｎ　ｃｉｔｙ　Ｇｕａｎｇｄｏｎｇ　Ｐｒｏｖｉｎｃｅ,,,,,,2023-09-01,1,,,,,トウカンシシンエイサイカギユウゲンコウシ,0
472,3010003041558,新規,0,2023-09-01,2023-09-01,合同会社ＡＬＥＲＯ７１,,合同会社,東京都,千代田区,神田錦町１丁目２１番１号,,13,101,1010054,,,,,,,2023-09-01,1,,,,,アレーロセブンティーワン,0
479,3010401176856,新規,0,2023-09-01,2023-09-01,Ｅｘｔｒａ　Ｂａｓｉｃ株式会社,,株式会社,東京都,港区,南青山３丁目３番３号,,13,103,1070062,,,,,,,2023-09-01,1,,,,,エクストラベイシック,0
480,3010401176880,新規,0,2023-09-01,2023-09-01,株式会社ＶＡＮＣＯＯＬ,,株式会社,東京都,港区,南青山４丁目１番１５号ベルテ南青山８０２,,13,103,1070062,,,,,,,2023-09-01,1,,,,,ヴァンクール,0
484,3010503007141,新規,0,2023-09-01,2023-09-01,トリミングサービス合同会社,,合同会社,東京都,台東区,台東１丁目９番４号松浦ビル５Ｆ,,13,106,1100016,,,,,,,2023-09-01,1,,,,,トリミングサービス,0
487,3010601063706,新規,0,2023-09-01,2023-09-01,株式会社ＧＬＯＷ,,株式会社,東京都,墨田区,八広４丁目２３番５－３０１号オリンポス八広,,13,107,1310041,,,,,,,2023-09-01,1,,,,,グロウ,0
492,3010801034283,新規,0,2023-09-01,2023-09-01,株式会社ＡＣＯＣＯＤ,,株式会社,東京都,大田区,西蒲田７丁目６３－８第二青木ビル３Ｆ,,13,111,1440051,,,,,,,2023-09-01,1,,,,,アココダ,0
493,3010903008417,新規,0,2023-09-01,2023-09-01,ＥＮＦＩＥＬＤ合同会社,,合同会社,東京都,世田谷区,野毛２丁目１０番５号,,13,112,1580092,,,,,,,2023-09-01,1,,,,,エンフィールド,0
501,3011001156694,新規,0,2023-09-01,2023-09-01,ｔｏｉ　ｅｔ株式会社,,株式会社,東京都,目黒区,自由が丘２丁目１３－３自由が丘エスビル２Ｆ,,13,110,1520035,,,,,,,2023-09-01,1,,,,,トワイエ,0
506,3011003017465,新規,0,2023-09-01,2023-09-01,Ｔ．Ｓ　ｃｏｍｐａｎｙ合同会社,,合同会社,東京都,渋谷区,桜丘町２３番１７号シティコート桜丘４０８,,13,113,1500031,,,,,,,2023-09-01,1,,,,,ティーエスカンパニー,0
512,3011101104173,新規,0,2023-09-01,2023-09-01,ＢｌａｃｋＰｒｉｎｃｅ株式会社,,株式会社,東京都,新宿区,歌舞伎町１丁目１１号３番金嶋第１０ビル３階,,13,104,1600021,,,,,,,2023-09-01,1,,,,,ブラックプリンス,0
515,3011201024882,新規,0,2023-09-01,2023-09-01,株式会社ＴａｂｌｅＧＯ,,株式会社,東京都,中野区,若宮２丁目３６番地７号,,13,114,1650033,,,,,,,2023-09-01,1,,,,,テーブルゴー,0
520,3011501029714,新規,0,2023-09-01,2023-09-01,浩揚興業株式会社,,株式会社,東京都,北区,中里２丁目１１番１０号,,13,117,1140015,,,,,,,2023-09-01,1,,,,,コウヨウコウギョウ,0
526,3011801042961,新規,0,2023-09-01,2023-09-01,無限株式会社,,株式会社,東京都,葛飾区,立石８丁目４０番１０－５０３号トーア立石マンション,,13,122,1240012,,,,,,,2023-09-01,1,,,,,ムゲン,0
529,3012401040934,新規,0,2023-09-01,2023-09-01,ヨーケー株式会社,,株式会社,東京都,武蔵野市,境南町２丁目３－１４グローリア初穂武蔵境１１０９号室,,13,203,1800023,,,,,,,2023-09-01,1,,,,,ヨーケー,0
538,3020001153247,新規,0,2023-09-01,2023-09-01,株式会社Ｈｅａｒｔｓ,,株式会社,神奈川県,横浜市西区,浜松町２番５号３Ｆ－Ｂ,,14,103,2200055,,,,,,,2023-09-01,1,,,,,ハーツ,0
539,3020001153263,新規,0,2023-09-01,2023-09-01,正和株式会社,,株式会社,神奈川県,横浜市中区,山下町１５１番地１１アートビル,,14,104,2310023,,,,,,,2023-09-01,1,,,,,ショウワ,0
550,3030001155341,新規,0,2023-09-01,2023-09-01,株式会社Ｉｌｔｉｓ,,株式会社,埼玉県,さいたま市西区,大字指扇２５３番地１－２０５,,11,101,3310047,,,,,,,2023-09-01,1,,,,,イルティス,0
551,3030001155564,新規,0,2023-09-01,2023-09-01,三意誠株式会社,,株式会社,埼玉県,草加市,八幡町７３９－１,,11,221,3400006,,,,,,,2023-09-01,1,,,,,ミツイセイ,0
552,3030001155614,新規,0,2023-09-01,2023-09-01,株式会社ジーデザイン,,株式会社,埼玉県,戸田市,中町１丁目５番地の４３,,11,224,3350012,,,,,,,2023-09-01,1,,,,,ジーデザイン,0
553,3030001155688,新規,0,2023-09-01,2023-09-01,株式会社４３２,,株式会社,埼玉県,所沢市,北有楽町２４－１０－３０４,,11,208,3591114,,,,,,,2023-09-01,1,,,,,ヨンサンニ,0
554,3030001155721,新規,0,2023-09-01,2023-09-01,ＧＲＡＮＤＥ　ＩＮＴＥＲＮＡＴＩＯＮＡＬ株式会社,,株式会社,埼玉県,行田市,本丸１９番４８号,,11,206,3610052,,,,,,,2023-09-01,1,,,,,グランデインターナショナル,0
563,3040001129880,新規,0,2023-09-01,2023-09-01,株式会社Ｋ‐ＴＥＮ,,株式会社,千葉県,松戸市,日暮１丁目３番地の１０中山ビル３Ｆ,,12,207,2702253,,,,,,,2023-09-01,1,,,,,ケーテン,0
575,3070003005078,新規,0,2023-09-01,2023-09-01,今別風力宮本合同会社,,合同会社,群馬県,前橋市,上泉町１５５４番地３,,10,201,3710007,,,,,,,2023-09-01,1,,,,,,0
592,3120001257649,新規,0,2023-09-01,2023-09-01,ＬＣ株式会社,,株式会社,大阪府,大阪市生野区,巽北１丁目１番１号１Ｆ－Ａ,00131733,27,116,5440004,,,,,,,2023-09-01,1,,,,,エルシー,0
593,3120001257715,新規,0,2023-09-01,2023-09-01,瀛睿株式会社,00131732,株式会社,大阪府,大阪市港区,田中１丁目１３－５,,27,107,5520005,,,,,,,2023-09-01,1,,,,,ワイスティン,0
594,3120001257748,新規,0,2023-09-01,2023-09-01,友福株式会社,,株式会社,大阪府,大阪市港区,池島１丁目３番１０号,,27,107,5520015,,,,,,,2023-09-01,1,,,,,トモフク,0
598,3120003024824,新規,0,2023-09-01,2023-09-01,骨易合同会社,,合同会社,大阪府,大阪市東住吉区,今林２丁目１０番１４－３０３号,,27,121,5460001,,,,,,,2023-09-01,1,,,,,コツイ,0
604,3122001037329,新規,0,2023-09-01,2023-09-01,株式会社柳本地所,,株式会社,大阪府,四條畷市,蔀屋本町１番１７号,,27,229,5750042,,,,,,,2023-09-01,1,,,,,ヤナギモトジショ,0
606,3122003002652,新規,0,2023-09-01,2023-09-01,合同会社ＧＧふぁーむ,,合同会社,大阪府,東大阪市,中鴻池町２丁目５番１３号,,27,227,5780975,,,,,,,2023-09-01,1,,,,,ジージーファーム,0
609,3130001075059,新規,0,2023-09-01,2023-09-01,Ｙ＆Ｈ株式会社,,株式会社,京都府,京都市伏見区,深草西浦町７丁目１９Ｂ３０４,,26,109,6120029,,,,,,,2023-09-01,1,,,,,ワイアンドエイチ,0
610,3130001075067,新規,0,2023-09-01,2023-09-01,株式会社ＰＶＹ　Ｂｌｕｅ．,,株式会社,京都府,京都市中京区,烏丸通三条上る場之町５９２番地メディナ烏丸御池１２０３号室,,26,104,6048172,,,,,,,2023-09-01,1,,,,,ピーヴィーブルー,0
617,3140001131406,新規,0,2023-09-01,2023-09-01,ＭＡＳＡＫＩ　Ｃｏｒｐｏｒａｔｉｏｎ株式会社,,株式会社,兵庫県,芦屋市,松ノ内町３番１４号チェリービュウ芦屋川５１４,00131742,28,206,6590094,,,,,,,2023-09-01,1,,,,,マサキコーポレーション,0
618,3140001131414,新規,0,2023-09-01,2023-09-01,株式会社Ｍｅｄｉｃａｌ　ｋｉｎｇ,,株式会社,兵庫県,尼崎市,水堂町１丁目１番６号,,28,202,6610026,,,,,,,2023-09-01,1,,,,,メディカルキング,0
623,3160001025300,新規,0,2023-09-01,2023-09-01,クリスタルエンジニアリング株式会社,,株式会社,滋賀県,栗東市,小野７０番地１０５,,25,208,5203016,,,,,,,2023-09-01,1,,,,,クリスタルエンジニアリング,0
638,3220003003578,新規,0,2023-09-01,2023-09-01,ＴＡＳＯＧＡＲＥ合同会社,,合同会社,石川県,小松市,蛭川町８１,,17,203,9230011,,,,,,,2023-09-01,1,,,,,タソガレ,0
640,3230003002075,新規,0,2023-09-01,2023-09-01,合同会社そしじ屋,,合同会社,富山県,富山市,豊田本町４丁目５番１４号,,16,201,9318312,,,,,,,2023-09-01,1,,,,,ソシジヤ,0
653,3290001102846,新規,0,2023-09-01,2023-09-01,株式会社アール・イー,,株式会社,福岡県,福岡市城南区,堤１丁目１３番１－４０５号,,40,136,8140151,,,,,,,2023-09-01,1,,,,,アールイー,0
660,3310003004633,新規,0,2023-09-01,2023-09-01,合同会社Ｍ＆Ｓ,,合同会社,長崎県,長崎市,万才町３番２９号ティハイツ３０２号,,42,201,8500033,,,,,,,2023-09-01,1,,,,,エムアンドエス,0
664,3330003009952,新規,0,2023-09-01,2023-09-01,合同会社Ｈｉｒｏ’ｓ　Ｕｎｉｔ,,合同会社,熊本県,熊本市中央区,紺屋今町３番１４号,,43,101,8600012,,,,,,,2023-09-01,1,,,,,ヒロズユニット,0
670,3340001025868,新規,0,2023-09-01,2023-09-01,ＷＡＳＳＥ株式会社,,株式会社,鹿児島県,鹿児島市,中山町９１８番地５,,46,201,8910105,,,,,,,2023-09-01,1,,,,,ワッセ,0
672,3340003004234,新規,0,2023-09-01,2023-09-01,シーアイオー合同会社,,合同会社,鹿児島県,鹿児島市,東千石町４番３３号,,46,201,8920842,,,,,,,2023-09-01,1,,,,,シーアイオー,0
690,3430001089854,新規,0,2023-09-01,2023-09-01,株式会社ＮＯＢＢＹ,,株式会社,北海道,札幌市中央区,北四条西４丁目１－７,,01,101,0600004,,,,,,,2023-09-01,1,,,,,ノビー,0
691,3430001089870,新規,0,2023-09-01,2023-09-01,株式会社タチバナ,,株式会社,北海道,札幌市手稲区,手稲本町一条３丁目５番１号ワコービル１階,,01,109,0060021,,,,,,,2023-09-01,1,,,,,タチバナ,0
698,3490001010574,新規,0,2023-09-01,2023-09-01,株式会社ＶＩＳＩＯＮＥＣＴ,,株式会社,高知県,高知市,上町２丁目２番１１号,,39,201,7800901,,,,,,,2023-09-01,1,,,,,,0
701,3700150119665,新規,0,2023-09-01,2023-09-01,Ｓｈａａｎｘｉ　Ｓｕ　Ｋａｎ　ｃｏｃｏｏｎ　ｔｒａｄｉｎｇ　Ｃｏ．，ＬＴＤ,,外国会社等,,,,,,,,Ｎｏ．４１３，Ｂｅｉｄｕｎａｎ　Ｓｔｒｅｅｔ，Ｂｅｉｄｕ　Ｓｔｒｅｅｔ，Ａｉｒｐｏｒｔ　Ｎｅｗ　Ｃｉｔｙ，Ｘｉｘｉａｎ　Ｎｅｗ　Ｄｉｓｔｒｉｃｔ，Ｓｈａａｎｘｉ　Ｐｒｏｖｉｎｃｅ,,,,,,2023-09-01,1,,,,,シャンシースーナオカンジエンシャンマオヨウシエンゴンスー,0
702,3700150119673,新規,0,2023-09-01,2023-09-01,ｓｈｅｎｚｈｅｎｓｈｉ　Ｋｅｙｉｄｅ　Ｄｉａｎｚｉ　Ｙｏｕｘｉａｎ　Ｇｏｎｇｓｉ,,外国会社等,,,,,,,,Ｂａｏａｎｑｕ　Ｘｉｘｉａｎｇｊｉｅｄａｏ　ｊｉｕｗｅｉｓｈｅｑｕ　Ｊｉｕｗｅｉｘｉａｎｇｅ　Ｙｕｅｇｉ　Ｙｏｕｘｉａｎ　Ｇｏｎｇｓｉ　ｙｉｎｘｉａｎｇｌｏｕ　６０１　Ｓｈｅｎｚｈｅｎ　Ｇｕａｎｇｄｏｎｇ　５１８１００　ＣＮ,,,,,,2023-09-01,1,,,,,シェンジェンシーコーイーダーディエンズーヨウシエンゴンスー,0
703,3700150119681,新規,0,2023-09-01,2023-09-01,Ｓｈｅｎｚｈｅｎ　Ｈｕｉｌｅｊｉａ　Ｔｒａｄｉｎｇ　Ｃｏ．，Ｌｔｄ．,,外国会社等,,,,,,,,ｇｕａｎｇｄｏｎｇｓｈｅｎｇ　ｓｈｅｎｚｈｅｎｓｈｉ　ｂａｏａｎｑｕｘｉｘｉａｎｇｊｉｅｄａｏ　ｌｉｕｔａｎｇｓｈｅｑｕ　ｊｉａｎａｎｅｒｌｕ３１ｈａｏ３０２,,,,,,2023-09-01,1,,,,,シェンジェンシーフイラージャーマオイーヨウシエンゴンスー,0
708,4010001237818,新規,0,2023-09-01,2023-09-01,株式会社Ｎｅｔ　Ｆａｃｔｏｒｙ,,株式会社,東京都,中央区,八重洲２丁目１番１号ＹＡＮＭＡＲＴＯＫＹＯ１２階,,13,102,1040028,,,,,,,2023-09-01,1,,,,,ネットファクトリー,0
713,4010003041516,新規,0,2023-09-01,2023-09-01,合同会社ＭＪＨ,,合同会社,東京都,文京区,西片１丁目１７番１－１４０２号,,13,105,1130024,,,,,,,2023-09-01,1,,,,,エムジェイエイチ,0
714,4010003041557,新規,0,2023-09-01,2023-09-01,合同会社７Ｃｏｎｎｅｃｔ,,合同会社,東京都,中央区,銀座１丁目１２番４号Ｎ＆ＥＢＬＤ．６Ｆ,,13,102,1040061,,,,,,,2023-09-01,1,,,,,セブンコネクト,0
717,4010005037198,新規,0,2023-09-01,2023-09-01,一般社団法人ＲＯ,,その他の設立登記法人,東京都,中央区,日本橋１丁目４番１号日本橋一丁目ビルディング,,13,102,1030027,,,,,,,2023-09-01,1,,,,,アールオー,0
727,4010403030787,新規,0,2023-09-01,2023-09-01,合同会社カーボンフリー,,合同会社,東京都,港区,高輪２丁目１４番地１７号ビル品川ビジネスセンター９１０グレイス高輪,,13,103,1080074,,,,,,,2023-09-01,1,,,,,カーボンフリー,0
728,4010403030837,新規,0,2023-09-01,2023-09-01,ＥＳＲサンフラワー合同会社,,合同会社,東京都,港区,浜松町１丁目２０番１０号ライオネス浜松町５０６号室,,13,103,1050013,,,,,,,2023-09-01,1,,,,,イーエスアールサンフラワー,0
729,4010403030845,新規,0,2023-09-01,2023-09-01,合同会社ＨＤ,,合同会社,東京都,港区,六本木４丁目１２番６号内田ビル１０１,,13,103,1060032,,,,,,,2023-09-01,1,,,,,エイチディー,0
730,4010501050976,新規,0,2023-09-01,2023-09-01,株式会社ＭＩＫ,,株式会社,東京都,台東区,上野２丁目４番２号エクセル上野２号館－３Ｂ,,13,106,1100005,,,,,,,2023-09-01,1,,,,,エムアイケー,0
734,4010601063705,新規,0,2023-09-01,2023-09-01,博大株式会社,,株式会社,東京都,江東区,亀戸９丁目６番１９号,,13,108,1360071,,,,,,,2023-09-01,1,,,,,ハクダイ,0
736,4010701044786,新規,0,2023-09-01,2023-09-01,株式会社マイズ,,株式会社,東京都,品川区,勝島１丁目３番４９号,,13,109,1400012,,,,,,,2023-09-01,1,,,,,マイズ,0
741,4010901053736,新規,0,2023-09-01,2023-09-01,九歌株式会社,,株式会社,東京都,世田谷区,桜２丁目７番２７号サクラハイツ１０１号室,,13,112,1560053,,,,,,,2023-09-01,1,,,,,キュウカ,0
749,4011001156685,新規,0,2023-09-01,2023-09-01,株式会社ＫＳ,,株式会社,東京都,渋谷区,渋谷３丁目１－８オーベル渋谷３０１,,13,113,1500002,,,,,,,2023-09-01,1,,,,,ケーエス,0
750,4011001156693,新規,0,2023-09-01,2023-09-01,株式会社ディー・チーム,,株式会社,東京都,渋谷区,渋谷２丁目１４番１３号岡崎ビル８Ｆ,,13,113,1500002,,,,,,,2023-09-01,1,,,,,ディーチーム,0
754,4011101104148,新規,0,2023-09-01,2023-09-01,ｋｏｋｏｎｏＥ　Ｋｉｔｃｈｅｎ株式会社,,株式会社,東京都,新宿区,西新宿７丁目３－１０、２１山京ビル２０１,,13,104,1600023,,,,,,,2023-09-01,1,,,,,ココノエキッチン,0
755,4011101104189,新規,0,2023-09-01,2023-09-01,株式会社エルフルーム,,株式会社,東京都,新宿区,西新宿６丁目１５番１号セントラルパークタワー・ラ・トゥール新宿２２０１,,13,104,1600023,,,,,,,2023-09-01,1,,,,,エルフルーム,0
756,4011101104197,新規,0,2023-09-01,2023-09-01,株式会社エトテトラ,,株式会社,東京都,新宿区,百人町３丁目１０－１１フラワーコーポ２０２,,13,104,1690073,,,,,,,2023-09-01,1,,,,,エトテトラ,0
759,4011501029713,新規,0,2023-09-01,2023-09-01,株式会社プランタンアセット,,株式会社,東京都,北区,赤羽南１丁目１０番３－１２１１号,,13,117,1150044,,,,,,,2023-09-01,1,,,,,プランタンアセット,0
761,4011801042969,新規,0,2023-09-01,2023-09-01,株式会社Ａ＆Ｓ,,株式会社,東京都,葛飾区,新小岩１丁目３５番５号ＤＲホームズ新小岩２０３号,,13,122,1240024,,,,,,,2023-09-01,1,,,,,エーアンドエス,0
765,4012405004892,新規,0,2023-09-01,2023-09-01,一般社団法人水木しげる記念館管理運営共同事業体,,その他の設立登記法人,東京都,調布市,布田１丁目３２番地５－５０５,,13,208,1820024,,,,,,,2023-09-01,1,,,,,ミズキシゲルキネンカンカンリウンエイキョウドウジギョウタイ,0
766,4012701017813,新規,0,2023-09-01,2023-09-01,株式会社民,,株式会社,東京都,東村山市,栄町３丁目２番地２,,13,213,1890013,,,,,,,2023-09-01,1,,,,,タミ,0
780,4021003013520,新規,0,2023-09-01,2023-09-01,合同会社Ｌａｐｉｓ　Ｔｈｒｅｅ,,合同会社,神奈川県,海老名市,扇町１４番４－７１０号,,14,215,2430436,,,,,,,2023-09-01,1,,,,,ラピススリー,0
784,4030001155530,新規,0,2023-09-01,2023-09-01,ＪＭＳ株式会社,,株式会社,埼玉県,川口市,青木５丁目１０番４６号,,11,203,3320031,,,,,,,2023-09-01,1,,,,,ジェイエムエス,0
785,4030001155563,新規,0,2023-09-01,2023-09-01,株式会社ＦＩＲＥ総合研究所,,株式会社,埼玉県,久喜市,菖蒲町菖蒲３３８番地４,,11,232,3460106,,,,,,,2023-09-01,1,,,,,ファイアソウゴウケンキュウショ,0
786,4030001155571,新規,0,2023-09-01,2023-09-01,株式会社ＫＫ自動車興業,,株式会社,埼玉県,川口市,前川２丁目２１番１８号本橋ハイツ２０２号,,11,203,3330842,,,,,,,2023-09-01,1,,,,,ケーケージドウシャコウギョウ,0
787,4030001155588,新規,0,2023-09-01,2023-09-01,株式会社彩善工業,,株式会社,埼玉県,上尾市,大字中新井字北原３４７番地２,,11,219,3620052,,,,,,,2023-09-01,1,,,,,サイゼンコウギョウ,0
788,4030001155605,新規,0,2023-09-01,2023-09-01,株式会社高野工業,00131734,株式会社,埼玉県,さいたま市緑区,馬場１丁目３３番地１,,11,109,3360912,,,,,,,2023-09-01,1,,,,,タカノコウギョウ,0
789,4030001155613,新規,0,2023-09-01,2023-09-01,株式会社ＯＤＭ,,株式会社,埼玉県,ふじみ野市,亀久保１６２１番地１,,11,245,3560051,,,,,,,2023-09-01,1,,,,,オーディーエム,0
790,4030001155687,新規,0,2023-09-01,2023-09-01,株式会社ＫＡＮＳＡＮ,,株式会社,埼玉県,川口市,大字石神９３９番地２,,11,203,3330823,,,,,,,2023-09-01,1,,,,,カンサン,0
792,4030003022431,新規,0,2023-09-01,2023-09-01,合同会社Ｇｅｎｉｅ,,合同会社,埼玉県,飯能市,八幡町２４番１０－４号,,11,209,3570033,,,,,,,2023-09-01,1,,,,,ジーニー,0
800,4040001129888,新規,0,2023-09-01,2023-09-01,アトーリブ雲株式会社,,株式会社,千葉県,千葉市花見川区,浪花町９４３－８,,12,102,2620024,,,,,,,2023-09-01,1,,,,,アトーリブクモ,0
815,4080101024184,新規,0,2023-09-01,2023-09-01,株式会社石津サービス,,株式会社,静岡県,富士市,伝法１１１５番地の１,,22,210,4170061,,,,,,,2023-09-01,1,,,,,イシヅサービス,0
830,4120003024815,新規,0,2023-09-01,2023-09-01,ＲＥＧＡＲＯ合同会社,,合同会社,大阪府,大阪市淀川区,加島３丁目中５番４－２０５号,,27,123,5320031,,,,,,,2023-09-01,1,,,,,レガロ,0
831,4120003024823,新規,0,2023-09-01,2023-09-01,合同会社ル・メニル,,合同会社,大阪府,大阪市中央区,久太郎町１丁目７番１１号,,27,128,5410056,,,,,,,2023-09-01,1,,,,,ルメニル,0
836,4120901047999,新規,0,2023-09-01,2023-09-01,株式会社ＶＥＣＴｉｌｌ,,株式会社,大阪府,吹田市,千里山西４丁目３７番１－６０８号,,27,205,5650851,,,,,,,2023-09-01,1,,,,,ベクティル,0
847,4140001131405,新規,0,2023-09-01,2023-09-01,ゴリ株式会社,,株式会社,兵庫県,高砂市,阿弥陀町魚橋１０７６番地の４,,28,216,6760822,,,,,,,2023-09-01,1,,,,,ゴリ,0
848,4140001131413,新規,0,2023-09-01,2023-09-01,あかつき防水株式会社,,株式会社,兵庫県,揖保郡太子町,鵤２６０番地６,,28,464,6711561,,,,,,,2023-09-01,1,,,,,アカツキボウスイ,0
880,4290001102829,新規,0,2023-09-01,2023-09-01,株式会社ＲｅＡＮＤ,,株式会社,福岡県,朝倉市,甘木１７８５－１－２０１,,40,228,8380068,,,,,,,2023-09-01,1,,,,,リアンド,0
881,4290001102837,新規,0,2023-09-01,2023-09-01,株式会社天晴,,株式会社,福岡県,福岡市早良区,西新７丁目２番２９‐７０１号,,40,137,8140002,,,,,,,2023-09-01,1,,,,,アッパレ,0
887,4290801029833,新規,0,2023-09-01,2023-09-01,ワイティック株式会社,,株式会社,福岡県,北九州市小倉南区,沼緑町２丁目９番６号,,40,107,8000207,,,,,,,2023-09-01,1,,,,,ワイティック,0
892,4310001018576,新規,0,2023-09-01,2023-09-01,株式会社有縁,00131729,株式会社,長崎県,島原市,新田町６０７番地６,,42,203,8550043,,,,,,,2023-09-01,1,,,,,ユウエン,0
893,4310005008706,新規,0,2023-09-01,2023-09-01,一般社団法人推し巡り協会,,その他の設立登記法人,長崎県,長崎市,出島町２番１１号,,42,201,8500862,,,,,,,2023-09-01,1,,,,,オシメグリキョウカイ,0
895,4330001031197,新規,0,2023-09-01,2023-09-01,株式会社Ｓｍａｒｔ,,株式会社,熊本県,熊本市東区,栄町４番１号,,43,102,8620904,,,,,,,2023-09-01,1,,,,,スマート,0
896,4330001031206,新規,0,2023-09-01,2023-09-01,株式会社永光,,株式会社,熊本県,八代郡氷川町,鹿島１０４７番地,,43,468,8694815,,,,,,,2023-09-01,1,,,,,エイコウ,0
906,4360003013249,新規,0,2023-09-01,2023-09-01,合同会社ｅｓｐｏｉｒ,,合同会社,沖縄県,那覇市,牧志２丁目１７番２７－４０１号,,47,201,9000013,,,,,,,2023-09-01,1,,,,,エスポワール,0
918,4430001089878,新規,0,2023-09-01,2023-09-01,光伸株式会社,,株式会社,北海道,札幌市手稲区,新発寒六条８丁目３番１３号,,01,109,0060806,,,,,,,2023-09-01,1,,,,,コウシン,0
925,4470001019781,新規,0,2023-09-01,2023-09-01,株式会社Ｎ・Ｋ興産,,株式会社,香川県,高松市,瀬戸内町３０番７３号,,37,201,7600012,,,,,,,2023-09-01,1,,,,,エヌケーコウサン,0
928,4700150119672,新規,0,2023-09-01,2023-09-01,ｆｏｓｈａｎｓｈｉｓａｉｍｉｙａｍａｏｙｉｙｏｕｘｉａｎｇｏｎｇｓｉ　　　　,,外国会社等,,,,,,,,ｃｈａｎｃｈｅｎｇｑｕｎａｎｚｈｕａｎｇｚｈｅｎｊｉｈｕａｘｉｌｕ７８ｈａｏ　ｆｏｓｈａｎｇｕｏｊｉｔａｏｃｉｗｅｉｙｕｃｈｅｎｇｎｅｉＡｑｕ２ｚｕｏ９１１ｈａｏｐｕ　ｆｏｓｈａｎｇｕａｎｇｄｏｎｇ　５２８０００　ＣＮ,,,,,,2023-09-01,1,,,,,フォーシャンシーサイミーヤーマオイーヨウシエンゴンスー,0
929,4700150119680,新規,0,2023-09-01,2023-09-01,Ｓｈｅｎｚｈｅｎ　ＫＨＤ　Ｔｅｃｈｎｏｌｏｇｙ　Ｃｏ．，Ｌｔｄ．,,外国会社等,,,,,,,,Ｚｈａｎｇｋｅｎｇ　Ｃｏｍｍｕｎｉｔｙ，Ｍｉｎｚｈｉ　Ｓｔｒｅｅｔ，Ｌｏｎｇｈｕａ　Ｄｉｓｔｒｉｃｔ　Ｎｏ．５Ｂ３，５Ｂ５，５Ｂ６，Ｂｕｉｌｄｉｎｇ　Ｅ，Ｑｉｎｇｃｈｕａｎｇ　Ｃｉｔｙ　Ｓｈｅｎｚｈｅｎ　Ｇｕａｎｇｄｏｎｇ　５１８０００　ＣＮ,,,,,,2023-09-01,1,,,,,シェンジェンシーカイホンダーコージーヨウシエンゴンスー,0
930,4700150119689,新規,0,2023-09-01,2023-09-01,ＢＥＬＩＶＥＩＮ　ＩＮＣ,,外国会社等,,,,,,,,１８２６１　Ｅ　ＧＡＬＥ　ＡＶＥ　ＳＴＥＤ，ＣＩＴＹ　ＯＦ　ＩＮＤＵＳＴＲＹ，ＣＡ,,,,,,2023-09-01,1,,,,,ビリブインインコーポレーテッド,0
937,5010001238088,新規,0,2023-09-01,2023-09-01,株式会社Ｈ．Ｋ　ＬＡＮＤ,,株式会社,東京都,中央区,新川２丁目８番６－７０１号,,13,102,1040033,,,,,,,2023-09-01,1,,,,,エイチケイランド,0
938,5010003041564,新規,0,2023-09-01,2023-09-01,南伊勢太陽光発電所合同会社,,合同会社,東京都,千代田区,丸の内１丁目８番２号鉄鋼ビルディング４階,,13,101,1000005,,,,,,,2023-09-01,1,,,,,ミナミイセタイヨウコウハツデンショ,0
946,5010401176879,新規,0,2023-09-01,2023-09-01,株式会社Ｆ．ＴＭＳ,,株式会社,東京都,港区,南青山４丁目１番１５号ベルテ南青山８０２,,13,103,1070062,,,,,,,2023-09-01,1,,,,,エフトーマス,0
949,5010403030844,新規,0,2023-09-01,2023-09-01,合同会社ＫＡＰＴ　Ｉｎｃ．,,合同会社,東京都,港区,南青山３丁目１番３６号青山丸竹ビル６Ｆ,,13,103,1070062,,,,,,,2023-09-01,1,,,,,キャプトインク,0
952,5010601063695,新規,0,2023-09-01,2023-09-01,Ｌｅｖｅｌ５株式会社,,株式会社,東京都,墨田区,江東橋４丁目１３番６号,,13,107,1300022,,,,,,,2023-09-01,1,,,,,レベルファイブ,0
953,5010601063704,新規,0,2023-09-01,2023-09-01,春日地区土地開発株式会社,,株式会社,東京都,江東区,潮見２丁目３番９号,,13,108,1350052,,,,,,,2023-09-01,1,,,,,カスガチクトチカイハツ,0
954,5010603010332,新規,0,2023-09-01,2023-09-01,合同会社ｃｈｉｄａｔｔｅ,,合同会社,東京都,江東区,森下２丁目１０番６号,,13,108,1350004,,,,,,,2023-09-01,1,,,,,チダッテ,0
956,5010701044769,新規,0,2023-09-01,2023-09-01,東陽化学株式会社,,株式会社,東京都,品川区,東大井１丁目１４番２４－５０３号,,13,109,1400011,,,,,,,2023-09-01,1,,,,,トウヨウカガク,0
971,5011103013412,新規,0,2023-09-01,2023-09-01,京都システム合同会社,,合同会社,東京都,新宿区,片町６番地１０―１０１,,13,104,1600001,,,,,,,2023-09-01,1,,,,,キョウトシステム,0
972,5011103013429,新規,0,2023-09-01,2023-09-01,合同会社ＦＯＲＹ,,合同会社,東京都,新宿区,西新宿３丁目３番１３号西新宿水間ビル２Ｆ,,13,104,1600023,,,,,,,2023-09-01,1,,,,,フォーワイ,0
976,5011401025415,新規,0,2023-09-01,2023-09-01,株式会社Ｌｅｖｉ,,株式会社,東京都,板橋区,大谷口北町３２－１－２０５,,13,119,1730031,,,,,,,2023-09-01,1,,,,,ラヴィ,0
980,5011701026559,新規,0,2023-09-01,2023-09-01,株式会社小倉組,,株式会社,東京都,江戸川区,江戸川２丁目３１番３１号,,13,123,1320013,,,,,,,2023-09-01,1,,,,,オグラグミ,0
983,5011801042976,新規,0,2023-09-01,2023-09-01,株式会社ファイブエス,,株式会社,東京都,葛飾区,金町４丁目７番４号,,13,122,1250042,,,,,,,2023-09-01,1,,,,,ファイブエス,0
992,5020001153237,新規,0,2023-09-01,2023-09-01,俊和株式会社,,株式会社,神奈川県,横浜市中区,弥生町４丁目３９番１号ライオンズマンション横浜大通り公園第弍１０２号室,,14,104,2310058,,,,,,,2023-09-01,1,,,,,シュンワ,0
993,5020001153253,新規,0,2023-09-01,2023-09-01,一宇ホールディングス株式会社,,株式会社,神奈川県,横浜市青葉区,青葉台２丁目６番地１第６ケンシュウビル５Ｆ,,14,117,2270062,,,,,,,2023-09-01,1,,,,,イチウホールディングス,0
994,5020001153261,新規,0,2023-09-01,2023-09-01,株式会社貝塚コーポレーション,,株式会社,神奈川県,横浜市都筑区,茅ケ崎東２丁目１２番８号,,14,118,2240033,,,,,,,2023-09-01,1,,,,,カイヅカコーポレーション,0
1004,5021001080066,新規,0,2023-09-01,2023-09-01,株式会社ＭｕｎｃｈＣｏｍｐａｎｙ,,株式会社,神奈川県,平塚市,出縄４５３番地の１２,,14,203,2540915,,,,,,,2023-09-01,1,,,,,マンチカンパニー,0
1012,5030001155661,新規,0,2023-09-01,2023-09-01,株式会社ニプラス,,株式会社,埼玉県,春日部市,南中曽根４２０番地４,,11,214,3440048,,,,,,,2023-09-01,1,,,,,ニプラス,0
1013,5030001155703,新規,0,2023-09-01,2023-09-01,株式会社ＺＴＫコーポレーション,,株式会社,埼玉県,川口市,芝３丁目１番２４号メゾンハピー１０１号室,,11,203,3330866,,,,,,,2023-09-01,1,,,,,ゼットティーケイコーポレーション,0
1014,5030001155711,新規,0,2023-09-01,2023-09-01,株式会社グローバルコマースインフォメーション,,株式会社,埼玉県,鴻巣市,赤見台２丁目２番６－４０４号駅前プラザ,,11,217,3650064,,,,,,,2023-09-01,1,,,,,グローバルコマースインフォメーション,0
1016,5030003022389,新規,0,2023-09-01,2023-09-01,咲合同会社,,合同会社,埼玉県,川口市,栄町１丁目４番２１号カーサデルマーレ４０５,,11,203,3320017,,,,,,,2023-09-01,1,,,,,サク,0
1017,5030003022397,新規,0,2023-09-01,2023-09-01,合同会社大利百,,合同会社,埼玉県,加須市,上崎２６３６番地１３,,11,210,3470125,,,,,,,2023-09-01,1,,,,,トモリモ,0
1024,5040001129887,新規,0,2023-09-01,2023-09-01,株式会社グリーンクランプ,,株式会社,千葉県,浦安市,今川２丁目１１番２０－１号,,12,227,2790022,,,,,,,2023-09-01,1,,,,,グリーンクランプ,0
1029,5040003023213,新規,0,2023-09-01,2023-09-01,合同会社ＫＮＯＴ　ＯＦ　ＢＲＯＴＨＥＲＳ,,合同会社,千葉県,流山市,大字木４６２番地の４（木Ｂ６６街区６）,,12,220,2700162,,,,,,,2023-09-01,1,,,,,ノットオブブラザーズ,0
1041,5090003002377,新規,0,2023-09-01,2023-09-01,ＭＧＬ合同会社,,合同会社,山梨県,中巨摩郡昭和町,西条５４６ハピネス国母１０１,,19,384,4093866,,,,,,,2023-09-01,1,,,,,エムジーエル,0
1050,5110001037810,新規,0,2023-09-01,2023-09-01,株式会社ＥＣＥＴホールディングス,,株式会社,新潟県,新潟市西区,小針台１番１号マルサンビル２階,,15,107,9502012,,,,,,,2023-09-01,1,,,,,エセットホールディングス,0
1051,5110002004124,新規,0,2023-09-01,2023-09-01,有限会社中央保温工業,,有限会社,新潟県,新潟市,太夫浜１８１９番地７,,15,201,9503112,,,,,,,2023-09-01,1,,,,,チュウオウホオンコウギョウ,0
1060,5120001257787,新規,0,2023-09-01,2023-09-01,株式会社ＡＸＩＳ,,株式会社,大阪府,大阪市西淀川区,姫島２丁目３－２リヴィエール姫島１０１号室,,27,113,5550033,,,,,,,2023-09-01,1,,,,,アクシス,0
1069,5120003024822,新規,0,2023-09-01,2023-09-01,合同会社Ｄ＆Ｙ,,合同会社,大阪府,大阪市住之江区,粉浜２丁目１０番７号,,27,125,5590001,,,,,,,2023-09-01,1,,,,,ディーアンドワイ,0
1073,5120903004816,新規,0,2023-09-01,2023-09-01,合同会社Ｂ＆Ｊ,,合同会社,大阪府,高槻市,上牧北駅前町１３番２８－１０１号,,27,207,5690005,,,,,,,2023-09-01,1,,,,,ビーアンドジェイ,0
1076,5130001075065,新規,0,2023-09-01,2023-09-01,株式会社ＨＹＰＥＲＢＯＬＡ,,株式会社,京都府,京都市中京区,一蓮社町３００番地パームビル３０６号室,,26,104,6048146,,,,,,,2023-09-01,1,,,,,ハイパーボラー,0
1077,5130001075098,新規,0,2023-09-01,2023-09-01,Ｏ５　Ｔｅａ　Ｊａｐａｎ株式会社,,株式会社,京都府,京都市左京区,下鴨宮崎町１１９番地１号,,26,103,6060802,,,,,,,2023-09-01,1,,,,,オーファイブティージャパン,0
1081,5140001131395,新規,0,2023-09-01,2023-09-01,高井金属工業株式会社,,株式会社,兵庫県,加西市,若井町２８６７番地の１,,28,220,6752456,,,,,,,2023-09-01,1,,,,,タカイキンゾクコウギョウ,0
1082,5140005026724,新規,0,2023-09-01,2023-09-01,一般社団法人ＯＸＢＲＩＤＧＥ,,その他の設立登記法人,兵庫県,芦屋市,三条南町５番１１号,,28,206,6590086,,,,,,,2023-09-01,1,,,,,オックスブリッジ,0
1085,5160001025298,新規,0,2023-09-01,2023-09-01,株式会社ｍｕｓｕｂｕ,,株式会社,滋賀県,草津市,野路１丁目１５番１５－４０７号,,25,206,5250059,,,,,,,2023-09-01,1,,,,,ムスブ,0
1094,5180001157817,新規,0,2023-09-01,2023-09-01,株式会社ＷＩＮＧ,,株式会社,愛知県,西春日井郡豊山町,大字青山１８４１番地,,23,342,4800201,,,,,,,2023-09-01,1,,,,,ウイング,0
1095,5180003025682,新規,0,2023-09-01,2023-09-01,合同会社ｓｕｉ,,合同会社,愛知県,名古屋市西区,名塚町１丁目３４エルシュトラーセ２０２,,23,104,4510081,,,,,,,2023-09-01,1,,,,,スイ,0
1108,5260001038265,新規,0,2023-09-01,2023-09-01,株式会社Ｂｉｇ　Ｆｌｙ,,株式会社,岡山県,岡山市東区,金田４４９－２,,33,103,7048196,,,,,,,2023-09-01,1,,,,,ビッグフライ,0
1114,5290003014294,新規,0,2023-09-01,2023-09-01,合同会社Ｋａｔｙ,,合同会社,福岡県,福岡市中央区,天神３丁目７番９－１２０８号,,40,133,8100001,,,,,,,2023-09-01,1,,,,,ケイティー,0
1121,5330001031213,新規,0,2023-09-01,2023-09-01,株式会社Ｂｒｉｇｈｔ,,株式会社,熊本県,熊本市東区,沼山津２丁目３番８号,,43,102,8612102,,,,,,,2023-09-01,1,,,,,ブライト,0
1124,5330005010691,新規,0,2023-09-01,2023-09-01,医療法人翔陽会,,その他の設立登記法人,熊本県,熊本市北区,龍田１丁目１５－８,,43,105,8618006,,,,,,,2023-09-01,1,,,,,ショウヨウカイ,0
1126,5340003004232,新規,0,2023-09-01,2023-09-01,合同会社ＤｔｈｅＦ．ｔｏｉ,,合同会社,鹿児島県,鹿児島市,下荒田４丁目３４番２３号,,46,201,8900056,,,,,,,2023-09-01,1,,,,,ディザエフトイ,0
1128,5350001018539,新規,0,2023-09-01,2023-09-01,株式会社Ａｄｖａｎｃｅ,,株式会社,宮崎県,宮崎市,源藤町堤下５２１番地１セジュールＴＩ－Ｂ棟１０２号,,45,201,8800927,,,,,,,2023-09-01,1,,,,,アドバンス,0
1133,5360005006902,新規,0,2023-09-01,2023-09-01,特定非営利活動法人Ｍｉｒａｉ　Ｋａｎａｉ,,その他の設立登記法人,沖縄県,うるま市,字安慶名１０３２－１番地,,47,213,9042214,,,,,,,2023-09-01,1,,,,,ミライカナイ,0
1154,5500003003093,新規,0,2023-09-01,2023-09-01,合同会社企画百貨,,合同会社,愛媛県,今治市,大西町山之内甲５１６―２,,38,202,7992207,,,,,,,2023-09-01,1,,,,,キカクヒャッカ,0
1155,5700150119671,新規,0,2023-09-01,2023-09-01,ｎａｎｊｉｎｇ　ｌｉｚｈｉｂａｏ　ｄｉａｎｚｉ　ｓｈａｎｇｗｕ　ｙｏｕｘｉａｎ　ｇｏｎｇｓｉ,,外国会社等,,,,,,,,Ｎａｎｊｉｎｇｓｈｉ　Ｊｉａｎｇｂｅｉｘｉｎｑｕ　Ｄａｃｈａｎｇｊｉｅｄａｏ　Ｘｉｎｇｄａｌｕ　８８Ｈａｏ　３２６Ｓｈｉ　Ｎａｎｊｉｎｇ　Ｊｉａｎｇｓｕ,,,,,,2023-09-01,1,,,,,ナンジンリージーバオディエンズーシャンウーヨウシエンゴンスー,0
1156,5700150119688,新規,0,2023-09-01,2023-09-01,ＪＡＤＥＮＳ（ＨＫ）ＣＯＭＰＡＮＹ　ＬＩＭＩＴＥＤ,,外国会社等,,,,,,,,２／Ｆ　ＢＩＬＬＩＯＮ　ＴＲＡＤＥ　ＣＥＮＴＲＥ，３１　ＨＵＮＧ　ＴＯ　ＲＯＡＤ，ＫＷＵＮ　ＴＯＮＧ，ＫＬ，ＨＫ,,,,,,2023-09-01,1,,,,,アイトウシホンコンユウゲンコウシ,0
1175,6010003041563,新規,0,2023-09-01,2023-09-01,磐梯１．２太陽光発電所合同会社,,合同会社,東京都,千代田区,丸の内１丁目８番２号鉄鋼ビルディング４階,,13,101,1000005,,,,,,,2023-09-01,1,,,,,バンダイワンツータイヨウコウハツデンショ,0
1177,6010005037196,新規,0,2023-09-01,2023-09-01,一般社団法人資源循環推進協議会,,その他の設立登記法人,東京都,千代田区,有楽町１丁目２番２号東宝日比谷ビル１５階,,13,101,1000006,,,,,,,2023-09-01,1,,,,,シゲンジュンカンスイシンキョウギカイ,0
1179,6010101015799,新規,0,2023-09-01,2023-09-01,株式会社ＤＩＹＡＮＮＡ　ＩＮＴＥＲＮＡＴＩＯＮＡＬ,,株式会社,東京都,八王子市,明神町２丁目２番８号八王子スカイマンション１０２,,13,201,1920046,,,,,,,2023-09-01,1,,,,,ディヤナインターナショナル,0
1184,6010401176936,新規,0,2023-09-01,2023-09-01,ＥＪＩホールディング株式会社,,株式会社,東京都,港区,芝浦３丁目５番３９号,,13,103,1080023,,,,,,,2023-09-01,1,,,,,イージェイアイホールディング,0
1186,6010405022401,新規,0,2023-09-01,2023-09-01,一般社団法人スギ花粉撲滅センター,,その他の設立登記法人,東京都,港区,新橋５丁目１２番１号霞月町ビル４Ｆ,,13,103,1050004,,,,,,,2023-09-01,1,,,,,スギカフンボクメツセンター,0
1190,6010701044776,新規,0,2023-09-01,2023-09-01,株式会社ＤＲＩＰ,,株式会社,東京都,品川区,小山台１丁目１４－２４,,13,109,1420061,,,,,,,2023-09-01,1,,,,,ドリップ,0
1191,6010703006840,新規,0,2023-09-01,2023-09-01,合同会社ユニオントラスト,,合同会社,東京都,品川区,西五反田１丁目１１ー１アイオス五反田９１１号室,,13,109,1410031,,,,,,,2023-09-01,1,,,,,ユニオントラスト,0
1193,6010803004661,新規,0,2023-09-01,2023-09-01,合同会社謙虚,,合同会社,東京都,大田区,山王２丁目５番６号,,13,111,1430023,,,,,,,2023-09-01,1,,,,,ケンキョ,0
1195,6010901053742,新規,0,2023-09-01,2023-09-01,株式会社ＳＡＫＥ　ＦＲＯＮＴＩＥＲ,,株式会社,東京都,世田谷区,太子堂３丁目３７番１－Ｃ１２０３号,,13,112,1540004,,,,,,,2023-09-01,1,,,,,サケフロンティア,0
1200,6011001156691,新規,0,2023-09-01,2023-09-01,サンライズ株式会社,,株式会社,東京都,渋谷区,恵比寿南３丁目１０番６号ミヤケホームズ２０１,,13,113,1500022,,,,,,,2023-09-01,1,,,,,サンライズ,0
1204,6011101104195,新規,0,2023-09-01,2023-09-01,株式会社Ｔｒｉｎｉｔｙ,,株式会社,東京都,新宿区,西新宿７丁目７番３３号新銘ビル４階,,13,104,1600023,,,,,,,2023-09-01,1,,,,,トリニティ,0
1206,6011103013436,新規,0,2023-09-01,2023-09-01,Ａｎｎｅｐｌａｃｅ合同会社,,合同会社,東京都,新宿区,下落合１丁目１４番７号,,13,104,1610033,,,,,,,2023-09-01,1,,,,,アンネプレイス,0
1212,6011501029703,新規,0,2023-09-01,2023-09-01,楽楽株式会社,,株式会社,東京都,荒川区,荒川１丁目５１番６号,,13,118,1160002,,,,,,,2023-09-01,1,,,,,ラクラク,0
1219,6011801042967,新規,0,2023-09-01,2023-09-01,株式会社コプロス,,株式会社,東京都,足立区,東保木間２丁目１６番１５号,,13,121,1210063,,,,,,,2023-09-01,1,,,,,コプロス,0
1221,6012803003172,新規,0,2023-09-01,2023-09-01,合同会社インフィニティジャパン,,合同会社,東京都,東大和市,蔵敷３丁目７９９番地芝中住宅イ１２－２０４号,,13,220,2070032,,,,,,,2023-09-01,1,,,,,インフィニティジャパン,0
1232,6020001153153,新規,0,2023-09-01,2023-09-01,大王株式会社,,株式会社,神奈川県,横浜市鶴見区,市場上町１０－５１－１１４,,14,101,2300021,,,,,,,2023-09-01,1,,,,,ダイオウ,0
1233,6020001153236,新規,0,2023-09-01,2023-09-01,ＲＵＢＹ　ＣＵＲＲＡＮＴ株式会社,,株式会社,神奈川県,川崎市中原区,小杉町３丁目６番地４,,14,133,2110063,,,,,,,2023-09-01,1,,,,,ルビイクラント,0
1238,6021003013519,新規,0,2023-09-01,2023-09-01,合同会社山陽集団,,合同会社,神奈川県,相模原市中央区,上溝２２８７番地２,,14,152,2520243,,,,,,,2023-09-01,1,,,,,サンヨウシュウダン,0
1246,6030001155545,新規,0,2023-09-01,2023-09-01,株式会社ＴＥＬＭＥ,,株式会社,埼玉県,さいたま市北区,日進町３丁目７６３番地１１,,11,102,3310823,,,,,,,2023-09-01,1,,,,,テルミー,0
1247,6030001155660,新規,0,2023-09-01,2023-09-01,株式会社ベクトルジャパン,,株式会社,埼玉県,入間市,大字上藤沢６２５番地３,,11,225,3580013,,,,,,,2023-09-01,1,,,,,ベクトルジャパン,0
1248,6030001155669,新規,0,2023-09-01,2023-09-01,株式会社Ｄ’ｓ　ｏｎｅ,,株式会社,埼玉県,川口市,柳崎４丁目２８番８号ファミーユ３－２０３号室,,11,203,3330861,,,,,,,2023-09-01,1,,,,,ディーズワン,0
1252,6030003022438,新規,0,2023-09-01,2023-09-01,合同会社みさき,,合同会社,埼玉県,入間市,大字野田７１４番地６,,11,225,3580054,,,,,,,2023-09-01,1,,,,,ミサキ,0
1267,6040001129878,新規,0,2023-09-01,2023-09-01,株式会社Ｏｆｆｉｃｅ　Ｍａｓｕｍｉ,,株式会社,千葉県,千葉市中央区,青葉町１２７６番地１,,12,101,2600852,,,,,,,2023-09-01,1,,,,,オフィスマスミ,0
1268,6040001129886,新規,0,2023-09-01,2023-09-01,株式会社ペリステライト,,株式会社,千葉県,流山市,駒木９５番地の１１シャルム駒木２０１,,12,220,2700132,,,,,,,2023-09-01,1,,,,,ペリステライト,0
1271,6040003023212,新規,0,2023-09-01,2023-09-01,ＪＵＮＡＳＨ合同会社,,合同会社,千葉県,佐倉市,上座１４３２番地２３,,12,212,2850854,,,,,,,2023-09-01,1,,,,,ジュナッシュ,0
1272,6040003023220,新規,0,2023-09-01,2023-09-01,合同会社Ｆｒｉｌｕｆｔｓｌｉｖ,,合同会社,千葉県,我孫子市,下ケ戸４３９,,12,222,2701138,,,,,,,2023-09-01,1,,,,,フリルフスリフ,0
1276,6050001053342,新規,0,2023-09-01,2023-09-01,＿興工業株式会社,00131740,株式会社,茨城県,小美玉市,与沢１５５２－８１,,08,236,3113416,,,,,,,2023-09-01,1,,,,,ジンコウコウギョウ,0
1277,6050001053367,新規,0,2023-09-01,2023-09-01,一株式会社,,株式会社,茨城県,結城市,大字結城１８５６番地１,,08,207,3070001,,,,,,,2023-09-01,1,,,,,ハジメ,0
1278,6050001053375,新規,0,2023-09-01,2023-09-01,株式会社Ｎａｎｏ　Ｃｈｅｍｉｘ,,株式会社,茨城県,つくば市,大字上河原崎下河原崎入会地番外４番地４８（高山Ｄ２５街区１０）,,08,220,3002661,,,,,,,2023-09-01,1,,,,,ナノケミックス,0
1283,6060001036296,新規,0,2023-09-01,2023-09-01,ＺＡＲ　ＪＡＰＡＮ　ＴＲＡＤＩＮＧ株式会社,,株式会社,栃木県,下都賀郡野木町,大字潤島７６７番地１８,,09,364,3290102,,,,,,,2023-09-01,1,,,,,ザールジャパントレーディング,0
1292,6080401026688,新規,0,2023-09-01,2023-09-01,ＳＢＭメディカル株式会社,,株式会社,静岡県,浜松市東区,中田町９５番地パークサイド中田２０３号,,22,132,4350057,,,,,,,2023-09-01,1,,,,,エスビーエムメディカル,0
1294,6080403004857,新規,0,2023-09-01,2023-09-01,合同会社カーライル,,合同会社,静岡県,磐田市,二之宮１３１５番地１レインボーほんま３Ｆたんぽぽ,,22,211,4380074,,,,,,,2023-09-01,1,,,,,カーライル,0
1303,6120001257654,新規,0,2023-09-01,2023-09-01,東雲株式会社,,株式会社,大阪府,大阪市東住吉区,鷹合４丁目２１番１６号１Ｆ－Ｂ,,27,121,5460014,,,,,,,2023-09-01,1,,,,,トウウン,0
1304,6120001257662,新規,0,2023-09-01,2023-09-01,株式会社フレスカ,,株式会社,大阪府,大阪市中央区,上汐２丁目４番６号,,27,128,5420064,,,,,,,2023-09-01,1,,,,,フレスカ,0
1305,6120001257720,新規,0,2023-09-01,2023-09-01,株式会社３ｉｐｒｏｊｅｃｔ,,株式会社,大阪府,大阪市北区,大淀中４丁目１５番１２号,,27,127,5310076,,,,,,,2023-09-01,1,,,,,サンアイプロジェクト,0
1306,6120001257737,新規,0,2023-09-01,2023-09-01,株式会社鳥蔵,,株式会社,大阪府,大阪市城東区,鴫野東１丁目７番５号,,27,118,5360013,,,,,,,2023-09-01,1,,,,,トリクラ,0
1307,6120001257753,新規,0,2023-09-01,2023-09-01,株式会社美尽,,株式会社,大阪府,大阪市港区,南市岡３丁目１１番２３－１００２号,,27,107,5520011,,,,,,,2023-09-01,1,,,,,ビジン,0
1308,6120001257761,新規,0,2023-09-01,2023-09-01,株式会社ナレッジリスキリング,,株式会社,大阪府,大阪市北区,梅田１丁目１番３号大阪駅前第３ビル２９階１－１－１号室,,27,127,5300001,,,,,,,2023-09-01,1,,,,,ナレッジリスキリング,0
1311,6120003024813,新規,0,2023-09-01,2023-09-01,合同会社ＩＤＴ,,合同会社,大阪府,大阪市浪速区,恵美須西２丁目８番７号ビジタル恵美須２－２０１号,,27,111,5560003,,,,,,,2023-09-01,1,,,,,アイディティ,0
1316,6120903004815,新規,0,2023-09-01,2023-09-01,藤工業合同会社,,合同会社,大阪府,吹田市,南金田２丁目２２番１９号,,27,205,5640044,,,,,,,2023-09-01,1,,,,,フジコウギョウ,0
1318,6130001075064,新規,0,2023-09-01,2023-09-01,株式会社ＴＡＲ,,株式会社,京都府,京都市西京区,御陵北山町１１番地,,26,111,6158253,,,,,,,2023-09-01,1,,,,,ティーエーアール,0
1319,6130001075122,新規,0,2023-09-01,2023-09-01,株式会社ティーズアセット,,株式会社,京都府,宇治市,木幡西中４４番地の１８,,26,204,6110002,,,,,,,2023-09-01,1,,,,,ティーズアセット,0
1323,6130003008939,新規,0,2023-09-01,2023-09-01,合同会社じあんボーイズ,,合同会社,京都府,京都市中京区,堺町通三条下る道祐町１３５－１すずしろの舗,,26,104,6048118,,,,,,,2023-09-01,1,,,,,ジアンボーイズ,0
1327,6140001131394,新規,0,2023-09-01,2023-09-01,株式会社ＬＩＧ,,株式会社,兵庫県,西宮市,松園町５番２５－３０１号,,28,204,6620053,,,,,,,2023-09-01,1,,,,,リグ,0
1328,6140001131403,新規,0,2023-09-01,2023-09-01,株式会社バイプレ,,株式会社,兵庫県,神戸市中央区,多聞通２丁目１番７号,,28,110,6500015,,,,,,,2023-09-01,1,,,,,バイプレ,0
1329,6140001131411,新規,0,2023-09-01,2023-09-01,株式会社明石不動産売却センターｅ‐ｈｏｍｅ,,株式会社,兵庫県,明石市,西明石北町３丁目３番８号,,28,203,6730018,,,,,,,2023-09-01,1,,,,,アカシフドウサンバイキャクセンターイーホーム,0
1335,6140003019489,新規,0,2023-09-01,2023-09-01,合同会社クインフィールド,,合同会社,兵庫県,明石市,小久保１丁目１３番地の９誠光ハイツ２０５号,,28,203,6730005,,,,,,,2023-09-01,1,,,,,クインフィールド,0
1339,6180001157816,新規,0,2023-09-01,2023-09-01,株式会社ＤＥＤＥＴ,,株式会社,愛知県,日進市,赤池５丁目１３０２グランドメゾン丸根２Ｃ,,23,230,4700125,,,,,,,2023-09-01,1,,,,,デデト,0
1360,6260001038264,新規,0,2023-09-01,2023-09-01,株式会社創互,,株式会社,岡山県,岡山市南区,浦安南町８３番地４,,33,104,7028024,,,,,,,2023-09-01,1,,,,,ソウゴ,0
1366,6290001102827,新規,0,2023-09-01,2023-09-01,ＥＩＳＨＯＵ株式会社,,株式会社,福岡県,福津市,西福間４丁目１３番２３号,,40,224,8113219,,,,,,,2023-09-01,1,,,,,エイショウ,0
1367,6290001102835,新規,0,2023-09-01,2023-09-01,株式会社子供の居場所研究所,,株式会社,福岡県,福岡市早良区,西新５丁目１５番１３号西ビル２Ｆ－Ｃ号,,40,137,8140002,,,,,,,2023-09-01,1,,,,,コドモノイバショケンキュウジョ,0
1371,6290003014302,新規,0,2023-09-01,2023-09-01,合同会社Ａ＆Ｓ　ＣＯＭＰＡＮＹ,,合同会社,福岡県,福岡市東区,松島２丁目６番２４－１０４号,,40,131,8120062,,,,,,,2023-09-01,1,,,,,エーアンドエスカンパニー,0
1375,6290801029823,新規,0,2023-09-01,2023-09-01,株式会社喜楽,00131741,株式会社,福岡県,北九州市小倉南区,富士見２丁目２番３号,,40,107,8020801,,,,,,,2023-09-01,1,,,,,キラク,0
1390,6350001018538,新規,0,2023-09-01,2023-09-01,株式会社Ｂｒｅｅｚｅ,,株式会社,宮崎県,宮崎市,源藤町堤下５２１番地１セジュールＴＩ－Ｂ棟１０２号,,45,201,8800927,,,,,,,2023-09-01,1,,,,,ブリーズ,0
1392,6350003004429,新規,0,2023-09-01,2023-09-01,リバー合同会社,,合同会社,宮崎県,宮崎市,平和が丘北町２５番地２,,45,201,8800046,,,,,,,2023-09-01,1,,,,,リバー,0
1394,6360005006901,新規,0,2023-09-01,2023-09-01,一般社団法人沖縄観光ＤＸ推進機構,,その他の設立登記法人,沖縄県,うるま市,字州崎１４－２７タップホスピタリティラボ沖縄３階,,47,213,9042234,,,,,,,2023-09-01,1,,,,,オキナワカンコウディーエックススイシンキコウ,0
1399,6390001017362,新規,0,2023-09-01,2023-09-01,つづきアセットパートナーズ株式会社,,株式会社,山形県,山形市,錦町２番１９号,,06,201,9900056,,,,,,,2023-09-01,1,,,,,ツヅキアセットパートナーズ,0
1407,6430001089868,新規,0,2023-09-01,2023-09-01,株式会社國信装蹄所,,株式会社,北海道,沙流郡日高町,富川北５丁目５番８号,,01,601,0550001,,,,,,,2023-09-01,1,,,,,クニノブソウテイジョ,0
1408,6440003001540,新規,0,2023-09-01,2023-09-01,ｌｉａｎ・ｍｅｒｃｉ・ｓｕｇａｒ合同会社,,合同会社,北海道,函館市,深堀町４１番１３号,,01,202,0420941,,,,,,,2023-09-01,1,,,,,リアンメルシーシュガー,0
1411,6480001012197,新規,0,2023-09-01,2023-09-01,株式会社スマート機器サポート,,株式会社,徳島県,徳島市,中昭和町１丁目３山一興業ビル４Ｆ,,36,201,7700943,,,,,,,2023-09-01,1,,,,,スマートキキサポート,0
1414,6700150056864,新規,0,2023-09-01,2015-10-09,コンソ－シアムＧＥＮＫＩ,,その他,愛媛県,松山市,道後公園１番地４,,38,201,7900857,,,,,,,2015-10-09,1,,,,,コンソーシアムゲンキ,0
1416,6700150119670,新規,0,2023-09-01,2023-09-01,ｓｈｅｎｚｈｅｎｓｈｉｙｕｚｈｉｍａｉｍａｏｙｉｙｏｕｘｉａｎｇｏｎｇｓｉ,,外国会社等,,,,,,,,ｓｈｅｎｚｈｅｎｓｈｉｂａｏａｎｑｕｘｉｘｉａｎｇｊｉｅｄａｏｙａｎｔｉａｎｓｈｅｑｕ　ｙａｎｔｉａｎｘｉｎｙｉｃｕｎ３０ｈａｏ３０３　ｓｈｅｎｚｈｅｎｓｈｉ　ｇｕａｎｇｄｏｎｇｓｈｅｎｇ　５１８０００　ＣＮ,,,,,,2023-09-01,1,,,,,シェンジェンシーイージーマイマオイーヨウシエンゴンスー,0
1417,6700150119679,新規,0,2023-09-01,2023-09-01,ＹＩＳＡＶＥ　ＴＥＣＨＮＯＬＯＧＹ（ＨＫ）ＬＩＭＩＴＥＤ,,外国会社等,,,,,,,,ＦＬＡＴ　４－Ａ　Ｇ／Ｆ　ＩＮＴＥＲＮＡＴＩＯＮＡＬ　ＰＬＡＺＡ　２０　ＳＨＥＵＮＧ　ＹＵＥＴ　ＲＤ　ＫＯＷＬＯＯＮ　ＢＡＹ　ＫＬＮ　ＨＯＮＧ　ＫＯＮＧ,,,,,,2023-09-01,1,,,,,イーツンコージーシャンガンヨウシエンゴンスー,0
1418,6700150119687,新規,0,2023-09-01,2023-09-01,ｑｕａｎｚｈｏｕｓｈｉｍｉｎｇｇｕａｎｇｄｉａｎｚｉｓｈａｎｇｗｕｙｏｕｘｉａｎｇｏｎｇｓｉ,,外国会社等,,,,,,,,ｙｏｎｇｃｈｕｎｘｉａｎｓｈｉｇｕｚｈｅｎｔａｏｘｉｎｇｓｈｅｑｕ　４６６ｈａｏ　ｑｕａｎｚｈｏｕｓｈｉ　ｆｕｊｉａｎｓｈｅｎｇ,,,,,,2023-09-01,1,,,,,センシュウシメイコウデンシショウムユウゲンコウシ,0
1419,6700150119695,新規,0,2023-09-01,2023-09-01,近畿おかやま会,,その他,大阪府,大阪市中央区,今橋３丁目２－２０洪庵日生ビル２階,,27,128,5410042,,,,,,,2023-09-01,1,,,,,キンキオカヤマカイ,0
1431,7010003041505,新規,0,2023-09-01,2023-09-01,ハイロー合同会社,,合同会社,東京都,中央区,京橋３丁目１番１号１４階,,13,102,1040031,,,,,,,2023-09-01,1,,,,,ハイロー,0
1432,7010003041554,新規,0,2023-09-01,2023-09-01,岩一合同会社,,合同会社,東京都,中央区,日本橋１丁目４番１号日本橋一丁目ビルディング,,13,102,1030027,,,,,,,2023-09-01,1,,,,,イワイチ,0
1435,7010005037195,新規,0,2023-09-01,2023-09-01,一般社団法人ＤＯインベストメント,,その他の設立登記法人,東京都,千代田区,丸の内３丁目１番１号東京共同会計事務所内,,13,101,1000005,,,,,,,2023-09-01,1,,,,,ディーオーインベストメント,0
1449,7010401176869,新規,0,2023-09-01,2023-09-01,Ｑｒｅａ８ｉｖ株式会社,,株式会社,東京都,港区,北青山３丁目５番１７－９０１号,,13,103,1070061,,,,,,,2023-09-01,1,,,,,クリエイティブ,0
1451,7010403030834,新規,0,2023-09-01,2023-09-01,合同会社Ｂｅｎ　Ａｌｉ,,合同会社,東京都,港区,虎ノ門５丁目１番４号,,13,103,1050001,,,,,,,2023-09-01,1,,,,,ベンアリ,0
1452,7010403030850,新規,0,2023-09-01,2023-09-01,ｂｏｎｉｔａ合同会社,,合同会社,東京都,港区,南青山３丁目１番３６号青山丸竹ビル６Ｆ,,13,103,1070062,,,,,,,2023-09-01,1,,,,,ボニタ,0
1454,7010405022383,新規,0,2023-09-01,2023-09-01,一般社団法人日本メイルテック協会,,その他の設立登記法人,東京都,港区,高輪４丁目２３番６号ハイホーム高輪７０８,,13,103,1080074,,,,,,,2023-09-01,1,,,,,ニホンメイルテックキョウカイ,0
1455,7010405022409,新規,0,2023-09-01,2023-09-01,一般財団法人穴見加代財団,,その他の設立登記法人,東京都,港区,赤坂２丁目２２番２１号,,13,103,1070052,,,,,,,2023-09-01,1,,,,,アナミカヨザイダン,0
1461,7010803004660,新規,0,2023-09-01,2023-09-01,ＥＸＰＯＲＴ　ＪＡＰＡＮ合同会社,,合同会社,東京都,大田区,仲六郷１丁目５３番７号グランヒルズ蒲田２０２,,13,111,1440055,,,,,,,2023-09-01,1,,,,,エクスポートジャパン,0
1467,7010901053733,新規,0,2023-09-01,2023-09-01,Ｓｐｉｆｆｙ株式会社,,株式会社,東京都,世田谷区,代沢４丁目４０－１０－Ｅ,,13,112,1550032,,,,,,,2023-09-01,1,,,,,スピフィー,0
1468,7010901053741,新規,0,2023-09-01,2023-09-01,株式会社伸榮ホールディングス,,株式会社,東京都,世田谷区,宇奈根１丁目６番１号,,13,112,1570068,,,,,,,2023-09-01,1,,,,,シンエイホールディングス,0
1474,7011001156435,新規,0,2023-09-01,2023-09-01,株式会社スクエア,,株式会社,東京都,渋谷区,笹塚２丁目４３番１４号,,13,113,1510073,,,,,,,2023-09-01,1,,,,,スクエア,0
1475,7011001156690,新規,0,2023-09-01,2023-09-01,健康日常株式会社,,株式会社,東京都,渋谷区,渋谷２丁目２番３号ルカビルＩＩ２Ｆ,00131731,13,113,1500002,,,,,,,2023-09-01,1,,,,,ケンコウニチジョウ,0
1478,7011101104137,新規,0,2023-09-01,2023-09-01,株式会社ＦＥＲＮＡＶＡＬ,,株式会社,東京都,新宿区,西新宿３丁目３番１３号２Ｆ,,13,104,1600023,,,,,,,2023-09-01,1,,,,,フェルナベイル,0
1479,7011101104203,新規,0,2023-09-01,2023-09-01,株式会社ＪＭビューティー,,株式会社,東京都,新宿区,大久保２丁目３２番３号リスボンビル３Ｃ号室,,13,104,1690072,,,,,,,2023-09-01,1,,,,,ジェイエムビューティー,0
1481,7011103013410,新規,0,2023-09-01,2023-09-01,合同会社みきおハウス,,合同会社,東京都,新宿区,西新宿４丁目１３－７－３０１,,13,104,1600023,,,,,,,2023-09-01,1,,,,,ミキオハウス,0
1482,7011103013435,新規,0,2023-09-01,2023-09-01,合同会社Ｌｉｂｅｒｔｙ,,合同会社,東京都,新宿区,歌舞伎町２丁目２番２１－１０４号,,13,104,1600021,,,,,,,2023-09-01,1,,,,,リバティ,0
1488,7011303004894,新規,0,2023-09-01,2023-09-01,合盛合同会社,,合同会社,東京都,杉並区,上井草３丁目３２番５号ＭＹビル１階,,13,115,1670023,,,,,,,2023-09-01,1,,,,,ゴウモリ,0
1496,7011701026557,新規,0,2023-09-01,2023-09-01,株式会社Ｍ　Ｍａｎａｇｅｍｅｎｔ,,株式会社,東京都,江戸川区,篠崎町７丁目７番７号１Ｆ,,13,123,1330061,,,,,,,2023-09-01,1,,,,,エムマネージメント,0
1498,7011801042974,新規,0,2023-09-01,2023-09-01,株式会社Ｇｏｌｄｅｎ　Ａｇｅ,,株式会社,東京都,足立区,足立１丁目１２－１２足立メディカルモール９階,,13,121,1200015,,,,,,,2023-09-01,1,,,,,ゴールデンエイジ,0
1502,7012803003171,新規,0,2023-09-01,2023-09-01,合同会社青空,,合同会社,東京都,昭島市,玉川町４丁目２番８－１０１号,,13,207,1960034,,,,,,,2023-09-01,1,,,,,アオゾラ,0
1504,7013301051290,新規,0,2023-09-01,2023-09-01,株式会社ハニートップ,,株式会社,東京都,豊島区,高松２丁目１０番８号,,13,116,1710042,,,,,,,2023-09-01,1,,,,,ハニートップ,0
1511,7020001153169,新規,0,2023-09-01,2023-09-01,株式会社Ｌｅｆｔｙ,,株式会社,神奈川県,川崎市宮前区,菅生ケ丘２６番２７号,,14,136,2160014,,,,,,,2023-09-01,1,,,,,レフティー,0
1516,7021001080064,新規,0,2023-09-01,2023-09-01,株式会社イーズビート,,株式会社,神奈川県,大和市,中央林間５丁目１６番１６号,,14,213,2420007,,,,,,,2023-09-01,1,,,,,イーズビート,0
1519,7030001155593,新規,0,2023-09-01,2023-09-01,株式会社スピンズ,,株式会社,埼玉県,川口市,大字安行原２５３６番地の１１,,11,203,3340057,,,,,,,2023-09-01,1,,,,,スピンズ,0
1520,7030001155684,新規,0,2023-09-01,2023-09-01,株式会社ブルーム,,株式会社,埼玉県,さいたま市北区,吉野町２丁目４３番地１,,11,102,3310811,,,,,,,2023-09-01,1,,,,,ブルーム,0
1522,7030003022429,新規,0,2023-09-01,2023-09-01,合同会社オーエンズ,,合同会社,埼玉県,越谷市,赤山町４丁目１４番８号,,11,222,3430807,,,,,,,2023-09-01,1,,,,,オーエンズ,0
1530,7040001129877,新規,0,2023-09-01,2023-09-01,株式会社Ｍｙ　Ｃｏｍｐａｎｙ,,株式会社,千葉県,佐倉市,神門３９０番地１,,12,212,2850803,,,,,,,2023-09-01,1,,,,,マイカンパニー,0
1531,7040003023203,新規,0,2023-09-01,2023-09-01,合同会社Ｖｅｒｏｃｉｔｙ,,合同会社,千葉県,千葉市中央区,新宿２丁目７番３３号,,12,101,2600021,,,,,,,2023-09-01,1,,,,,ヴェロシティ,0
1532,7040005022104,新規,0,2023-09-01,2023-09-01,一般社団法人Ｌｉｔｔｌｅ　Ｆｌｏｗｅｒ,,その他の設立登記法人,千葉県,野田市,柳沢８４番地,,12,208,2780006,,,,,,,2023-09-01,1,,,,,,0
1539,7080401026695,新規,0,2023-09-01,2023-09-01,株式会社Ｏｋａｎｏ　Ｇｒａｐｅ　Ｇａｒｄｅｎ,,株式会社,静岡県,浜松市北区,都田町８８１８番地の２,,22,135,4312102,,,,,,,2023-09-01,1,,,,,オカノグレープガーデン,0
1551,7120001257728,新規,0,2023-09-01,2023-09-01,佳慧商事株式会社,,株式会社,大阪府,大阪市浪速区,恵美須東３丁目２番９号,,27,111,5560002,,,,,,,2023-09-01,1,,,,,カケイショウジ,0
1553,7120003024795,新規,0,2023-09-01,2023-09-01,合同会社ＳＵＮ　ＴＲＥＥ　ＦＩＥＬＤ,,合同会社,大阪府,大阪市中央区,高麗橋１丁目７番７号２１０７号室,,27,128,5410043,,,,,,,2023-09-01,1,,,,,サンツリーフィールド,0
1554,7120003024820,新規,0,2023-09-01,2023-09-01,ＴＴＦコンサルティング合同会社,,合同会社,大阪府,交野市,星田西３丁目２２番２号,,27,230,5760015,,,,,,,2023-09-01,1,,,,,ティティエフコンサルティング,0
1566,7140001131393,新規,0,2023-09-01,2023-09-01,株式会社上喜,,株式会社,兵庫県,神戸市兵庫区,荒田町４丁目１９－６,,28,105,6520032,,,,,,,2023-09-01,1,,,,,ジョウギ,0
1567,7140001131410,新規,0,2023-09-01,2023-09-01,株式会社スターエージェント,,株式会社,兵庫県,神戸市中央区,北本町通４丁目２－１０ダイドーメゾン三宮東１０２号室,,28,110,6510075,,,,,,,2023-09-01,1,,,,,スターエージェント,0
1572,7140003019488,新規,0,2023-09-01,2023-09-01,合同会社コムトア,,合同会社,兵庫県,神戸市東灘区,御影中町１丁目７番１２号,,28,101,6580054,,,,,,,2023-09-01,1,,,,,コムトア,0
1578,7170003001914,新規,0,2023-09-01,2023-09-01,合同会社紀怜原木,,合同会社,和歌山県,西牟婁郡上富田町,南紀の台２０―３３,,30,404,6492106,,,,,,,2023-09-01,1,,,,,キレイゲンボク,0
1581,7180001157831,新規,0,2023-09-01,2023-09-01,株式会社スマトナ,,株式会社,愛知県,名古屋市中区,新栄１丁目３１番２１号,,23,106,4600007,,,,,,,2023-09-01,1,,,,,スマトナ,0
1590,7220001025579,新規,0,2023-09-01,2023-09-01,株式会社ＪＴＳキャピタル,,株式会社,石川県,金沢市,泉本町７丁目３番地１,,17,201,9218042,,,,,,,2023-09-01,1,,,,,ジェイティエスキャピタル,0
1592,7230001019992,新規,0,2023-09-01,2023-09-01,株式会社リッチフィールド,,株式会社,富山県,下新川郡入善町,一宿８６７番地,,16,342,9390636,,,,,,,2023-09-01,1,,,,,リッチフィールド,0
1596,7240001062050,新規,0,2023-09-01,2023-09-01,Ｒｍ株式会社,,株式会社,広島県,広島市南区,宇品西５丁目１１番１号９１６号室,,34,103,7340014,,,,,,,2023-09-01,1,,,,,アールエム,0
1597,7240003006278,新規,0,2023-09-01,2023-09-01,ＳＯＲＡ合同会社,,合同会社,広島県,広島市東区,牛田旭２丁目５番１０－２０２号,,34,102,7320067,,,,,,,2023-09-01,1,,,,,ソラ,0
1599,7260001038263,新規,0,2023-09-01,2023-09-01,Ｋ‐ＨＯＬＤＩＮＧＳ株式会社,,株式会社,岡山県,岡山市南区,浦安南町１６番地５,,33,104,7028024,,,,,,,2023-09-01,1,,,,,ケイホールディングス,0
1600,7270003001557,新規,0,2023-09-01,2023-09-01,合同会社ハクセキレイ,,合同会社,鳥取県,境港市,明治町３８番地５（Ａ２０５）,,31,204,6840022,,,,,,,2023-09-01,1,,,,,ハクセキレイ,0
1605,7290001102818,新規,0,2023-09-01,2023-09-01,株式会社メイトプラス,,株式会社,福岡県,久留米市,津福今町５８３番地,,40,203,8300061,,,,,,,2023-09-01,1,,,,,メイトプラス,0
1607,7290003014292,新規,0,2023-09-01,2023-09-01,合同会社Ｌａｕｇｈ,,合同会社,福岡県,福岡市南区,大橋１丁目１－１７サンシャインひがし大橋６０３,,40,134,8150033,,,,,,,2023-09-01,1,,,,,ラフ,0
1608,7290003014301,新規,0,2023-09-01,2023-09-01,合同会社ｓｈｉｐｐｏ,,合同会社,福岡県,福岡市博多区,吉塚本町９番１１－９１２号パピヨンシティオ２１ステーションアベニュー１１号棟,,40,132,8120046,,,,,,,2023-09-01,1,,,,,シッポ,0
1612,7360001032487,新規,0,2023-09-01,2023-09-01,株式会社読谷ベース,,株式会社,沖縄県,中頭郡読谷村,字喜名２７６番地１,,47,324,9040302,,,,,,,2023-09-01,1,,,,,ヨミタンベース,0
1620,7380003005555,新規,0,2023-09-01,2023-09-01,合同会社りえぞん,,合同会社,福島県,郡山市,大槻町字弥八池南１１番地の１４プリマヴェーラ大槻Ｂ１０２号,,07,203,9630201,,,,,,,2023-09-01,1,,,,,リエゾン,0
1626,7430001089867,新規,0,2023-09-01,2023-09-01,タシュタンコンサルティング株式会社,,株式会社,北海道,札幌市南区,澄川六条３丁目２番５－６１１号,,01,106,0050006,,,,,,,2023-09-01,1,,,,,タシュタンコンサルティング,0
1628,7430003015383,新規,0,2023-09-01,2023-09-01,合同会社Ｓ‐ＴＥＣ,,合同会社,北海道,札幌市東区,北二十条東１８丁目５番７号シャーメゾンＲ１０１号,,01,103,0650020,,,,,,,2023-09-01,1,,,,,エステック,0
1629,7430003015391,新規,0,2023-09-01,2023-09-01,ルポルキッチン合同会社,,合同会社,北海道,札幌市白石区,北郷五条３丁目１２番１８－５０８号,,01,104,0030835,,,,,,,2023-09-01,1,,,,,ルポルキッチン,0
1631,7480001012196,新規,0,2023-09-01,2023-09-01,株式会社Ｕ‐Ｒｉｎｇ,,株式会社,徳島県,徳島市,中昭和町１丁目３山一興業ビル４Ｆ,,36,201,7700943,,,,,,,2023-09-01,1,,,,,ユーリング,0
1632,7480003002014,新規,0,2023-09-01,2023-09-01,ＣＯＭＡＲＡＮ合同会社,,合同会社,徳島県,徳島市,北沖洲３丁目９－１０ハイツ阿部Ｉ４０３,,36,201,7700872,,,,,,,2023-09-01,1,,,,,コマラン,0
1638,7700150119678,新規,0,2023-09-01,2023-09-01,Ｗｅｉｆａｎｇ　Ａｌｔａｉ　Ｅ－ｃｏｍｍｅｒｃｅ　Ｃｏ．，Ｌｔｄ,,外国会社等,,,,,,,,Ｅａｓｔ　ｅｎｄ　ｏｆ　１ｓｔ　Ｆｌｏｏｒ，Ｏｆｆｉｃｅ　Ｂｕｉｌｄｉｎｇ，Ｎｏ．３９９，Ｙｕｑｕａｎ　Ｓｏｕｔｈ　Ｌａｎｅ，Ｙｕｑｉｎｇ　Ｃｏｍｍｕｎｉｔｙ，Ｘｉｎｃｈｅｎｇ　Ｓｔｒｅｅｔ，Ｗｅｉｆａｎｇ　Ｈｉｇｈ－ｔｅｃｈ　Ｚｏｎｅ，Ｓｈａｎｄｏｎｇ　Ｐｒｏｖｉｎｃｅ,,,,,,2023-09-01,1,,,,,ウェイファンアーアータイディエンズーシャンウーヨウシエンゴンスー,0
1639,7700150119686,新規,0,2023-09-01,2023-09-01,ｓｈｅｎｚｈｅｎｓｈｉｒｏｎｇｔｕｏｋｅｊｉｃｈｕａｎｇｘｉｎｙｏｕｘｉａｎｇｏｎｇｓｉ,,外国会社等,,,,,,,,ｌｏｎｇｇａｎｇｑｕ　ｐｉｎｇｈｕｊｉｅｄａｏ　ｈｅｈｕａｓｈｅｑｕ　ｆｕａｎｄａｄａｏ　８ｈａｏｈａｉｙｕａｎｃｈｕａｎｇｘｉｎｚｈｏｎｇｘｉｎ　１６０５　ｓｈｅｎｚｈｅｎｓｈｉ　ｇｕａｎｇｄｏｎｇｓｈｅｎｇ,,,,,,2023-09-01,1,,,,,シェンジェンシーロントゥオコージーチュワンシンヨウシエンゴンスー,0
1640,7700150119694,新規,0,2023-09-01,2023-09-01,ｓｈｅｎｚｈｅｎｓｈｉｄｅｑｉｔｏｕｚｉｚｉｘｕｎｙｏｕｘｉａｎｇｏｎｇｓｉ,,外国会社等,,,,,,,,ｆｕｔｉａｎｑｕｆｕｔｉａｎｊｉｅｄａｏｇａｎｇｘｉａｓｈｅｑｕｊｉｎｔｉａｎｌｕ３０３８ｈａｏ　ｘｉａｎｄａｉｇｕｏｊｉ１９０１ａ１　Ｓｈｅｎｚｈｅｎｓｈｉ　Ｇｕａｎｇｄｏｎｇｓｈｅｎｇ,,,,,,2023-09-01,1,,,,,シンセンシトクケイトウシシジュンユウゲンコウシ,0
1645,8010001238110,新規,0,2023-09-01,2023-09-01,株式会社エイム,,株式会社,東京都,中央区,日本橋室町１丁目１１番１２号日本橋水野ビル７階,,13,102,1030022,,,,,,,2023-09-01,1,,,,,エイム,0
1647,8010003041339,新規,0,2023-09-01,2023-09-01,合同会社楓花,,合同会社,東京都,中央区,銀座１丁目１２－４Ｎ＆ＥＢＬＤ．７Ｆ,,13,102,1040061,,,,,,,2023-09-01,1,,,,,フウカ,0
1648,8010003041553,新規,0,2023-09-01,2023-09-01,Ｖｉｖｉｄ　ＷＤ合同会社,,合同会社,東京都,千代田区,霞が関３丁目２番６号東京倶楽部ビルディング１１階,,13,101,1000013,,,,,,,2023-09-01,1,,,,,ヴィヴィッドダブリューディー,0
1649,8010003041561,新規,0,2023-09-01,2023-09-01,合同会社ＡＬＥＲＯ７４,,合同会社,東京都,千代田区,神田錦町１丁目２１番１号,,13,101,1010054,,,,,,,2023-09-01,1,,,,,アレーロセブンティーフォー,0
1651,8010005037194,新規,0,2023-09-01,2023-09-01,医療法人社団五日向会,,その他の設立登記法人,東京都,文京区,小日向２丁目１９番９号トワベール小日向１０１号室,,13,105,1120006,,,,,,,2023-09-01,1,,,,,ゴヒナタカイ,0
1656,8010401176876,新規,0,2023-09-01,2023-09-01,株式会社Ｏｆｆｉｃｅ　ｐｑ,,株式会社,東京都,港区,六本木７丁目４番１号研音ビル,,13,103,1060032,,,,,,,2023-09-01,1,,,,,オフィスピーキュー,0
1659,8010405022465,新規,0,2023-09-01,2023-09-01,ＥＳＲサンフラワー１一般社団法人,,その他の設立登記法人,東京都,港区,浜松町１丁目２０番１０号ライオネス浜松町５０６号室,,13,103,1050013,,,,,,,2023-09-01,1,,,,,イーエスアールサンフラワーイチ,0
1661,8010601063692,新規,0,2023-09-01,2023-09-01,株式会社コイズミ,,株式会社,東京都,墨田区,江東橋３丁目６番９号若水マンション３０１,,13,107,1300022,,,,,,,2023-09-01,1,,,,,コイズミ,0
1672,8011101104177,新規,0,2023-09-01,2023-09-01,ＲＣ株式会社,,株式会社,東京都,新宿区,西新宿５丁目１番１号,,13,104,1600023,,,,,,,2023-09-01,1,,,,,アールシー,0
1676,8011103013434,新規,0,2023-09-01,2023-09-01,合同会社Ｓｔｏｎｅ　Ｗｅｌｌ,,合同会社,東京都,新宿区,高田馬場２丁目１４番２号,,13,104,1690075,,,,,,,2023-09-01,1,,,,,ストーンウェル,0
1679,8011301028977,新規,0,2023-09-01,2023-09-01,株式会社哲建築工房,,株式会社,東京都,杉並区,善福寺３丁目１２番１０号,,13,115,1670041,,,,,,,2023-09-01,1,,,,,テツケンチクコウボウ,0
1681,8011303004893,新規,0,2023-09-01,2023-09-01,合同会社ＧＲＥＥＤ,,合同会社,東京都,杉並区,和田２丁目１６番２号プリマ杉並和田弐番館１０３,,13,115,1660012,,,,,,,2023-09-01,1,,,,,グリード,0
1682,8011305002929,新規,0,2023-09-01,2023-09-01,医療法人社団義裕会,,その他の設立登記法人,東京都,杉並区,方南２丁目１４番１号シティテラス杉並方南町Ｎ２階,,13,115,1680062,,,,,,,2023-09-01,1,,,,,ギユウカイ,0
1685,8011403004100,新規,0,2023-09-01,2023-09-01,合同会社とみちゃんず,,合同会社,東京都,板橋区,南常盤台１丁目１１－６レフア南常盤台１０１号室,,13,119,1740072,,,,,,,2023-09-01,1,,,,,トミチャンズ,0
1689,8012401040938,新規,0,2023-09-01,2023-09-01,株式会社ＡＮＺＡＩ　Ｇｌｏｂａｌ　Ｃｏｍｍｕｎｉｃａｔｉｏｎｓ,,株式会社,東京都,武蔵野市,吉祥寺東町２丁目３２番３号,,13,203,1800002,,,,,,,2023-09-01,1,,,,,アンザイグローバルコミュニケーションズ,0
1702,8020001153036,新規,0,2023-09-01,2023-09-01,株式会社齋藤建築ｗｏｏｄ．Ｄｅｓｉｇｎｈｏｍｅ,,株式会社,神奈川県,横浜市南区,六ツ川２丁目１５６－１２,,14,105,2320066,,,,,,,2023-09-01,1,,,,,サイトウケンチクウッドデザインホーム,0
1703,8020001153176,新規,0,2023-09-01,2023-09-01,宏利株式会社,,株式会社,神奈川県,横浜市南区,山谷７２番地１ハイマート横浜５０５,,14,105,2320036,,,,,,,2023-09-01,1,,,,,,0
1704,8020001153250,新規,0,2023-09-01,2023-09-01,株式会社四葉建築,,株式会社,神奈川県,横浜市鶴見区,馬場２丁目５番４０－１号,,14,101,2300076,,,,,,,2023-09-01,1,,,,,ヨツバケンチク,0
1706,8020005016107,新規,0,2023-09-01,2023-09-01,ＮＰＯ法人グリーンアジア,,その他の設立登記法人,神奈川県,横浜市青葉区,美しが丘１丁目１３番地１０吉村ビル１０７号,,14,117,2250002,,,,,,,2023-09-01,1,,,,,グリーンアジア,0
1708,8021001080063,新規,0,2023-09-01,2023-09-01,Ｔｓｕｍｕｇｉ株式会社,,株式会社,神奈川県,逗子市,桜山８丁目１６番９号,,14,208,2490005,,,,,,,2023-09-01,1,,,,,ツムギ,0
1712,8030001155568,新規,0,2023-09-01,2023-09-01,ＳＥＮＧＥＲ株式会社,,株式会社,埼玉県,草加市,花栗１丁目４番４５号,,11,221,3400044,,,,,,,2023-09-01,1,,,,,センゲル,0
1713,8030001155576,新規,0,2023-09-01,2023-09-01,株式会社逸見建設,,株式会社,埼玉県,大里郡寄居町,大字鉢形１０７１番地２,,11,408,3691224,,,,,,,2023-09-01,1,,,,,ヘンミケンセツ,0
1714,8030001155584,新規,0,2023-09-01,2023-09-01,株式会社コーワビルシステム,,株式会社,埼玉県,春日部市,大枝８４６番地１,,11,214,3440023,,,,,,,2023-09-01,1,,,,,コーワビルシステム,0
1715,8030001155675,新規,0,2023-09-01,2023-09-01,株式会社加藤管理,,株式会社,埼玉県,南埼玉郡宮代町,本田３丁目６番１８号,,11,442,3450827,,,,,,,2023-09-01,1,,,,,カトウカンリ,0
1716,8030001155683,新規,0,2023-09-01,2023-09-01,風和日麗株式会社,,株式会社,埼玉県,春日部市,南３丁目３番１２号２０１号室,,11,214,3440064,,,,,,,2023-09-01,1,,,,,フウワヒヨリ,0
1717,8030003022394,新規,0,2023-09-01,2023-09-01,合同会社ハピネス,,合同会社,埼玉県,入間市,大字仏子６０３番地１入間リバーサイド３１－６０５,,11,225,3580053,,,,,,,2023-09-01,1,,,,,ハピネス,0
1720,8030005021378,新規,0,2023-09-01,2023-09-01,一般社団法人ある,,その他の設立登記法人,埼玉県,志木市,館２丁目１番１－５０６号,,11,228,3530006,,,,,,,2023-09-01,1,,,,,アル,0
1727,8040001129892,新規,0,2023-09-01,2023-09-01,株式会社陽だまり,,株式会社,千葉県,鎌ケ谷市,粟野７７２番地４,,12,224,2730132,,,,,,,2023-09-01,1,,,,,ヒダマリ,0
1729,8040003023152,新規,0,2023-09-01,2023-09-01,合同会社Ｍｅｅｔ,,合同会社,千葉県,千葉市稲毛区,稲毛東３丁目５－５メゾンドワールド１０３号室,,12,103,2630031,,,,,,,2023-09-01,1,,,,,ミート,0
1733,8050003007765,新規,0,2023-09-01,2023-09-01,ＲＳ　ＩＮＴＥＲＮＡＴＩＯＮＡＬ合同会社,,合同会社,茨城県,結城市,大字上成２７番地９－１階,,08,207,3070045,,,,,,,2023-09-01,1,,,,,アールエスインターナショナル,0
1760,8120001257751,新規,0,2023-09-01,2023-09-01,株式会社ＧＩＧＳ　Ｒｉｄｅ,,株式会社,大阪府,枚方市,宮之阪３丁目２３－７－２,,27,210,5730022,,,,,,,2023-09-01,1,,,,,ギグスライド,0
1761,8120001257784,新規,0,2023-09-01,2023-09-01,六谷管理株式会社,,株式会社,大阪府,大阪市北区,西天満３丁目８番１３－１０３号,,27,127,5300047,,,,,,,2023-09-01,1,,,,,ロクタニカンリ,0
1767,8120103005397,新規,0,2023-09-01,2023-09-01,合同会社レナメンテナンス,,合同会社,大阪府,堺市北区,東浅香山町３丁１４５－１浅香山住宅１４－５０６,,27,146,5918008,,,,,,,2023-09-01,1,,,,,レナメンテナンス,0
1770,8120903004805,新規,0,2023-09-01,2023-09-01,合同会社ＳｙｓｔｅｍＯｎｅ,,合同会社,大阪府,高槻市,上土室１丁目１２番８－２０４号,,27,207,5691044,,,,,,,2023-09-01,1,,,,,システムワン,0
1780,8130003008937,新規,0,2023-09-01,2023-09-01,合同会社ワンラフ,,合同会社,京都府,京都市左京区,下鴨北茶ノ木町２４番地５,,26,103,6060844,,,,,,,2023-09-01,1,,,,,ワンラフ,0
1781,8130005016863,新規,0,2023-09-01,2023-09-01,一般社団法人むすひ米道,,その他の設立登記法人,京都府,京都市左京区,吉田橘町３３番地２,,26,103,6068303,,,,,,,2023-09-01,1,,,,,ムスヒコメドウ,0
1787,8140001131401,新規,0,2023-09-01,2023-09-01,株式会社あ華眞,,株式会社,兵庫県,神戸市中央区,元町通２丁目５番２号,,28,110,6500022,,,,,,,2023-09-01,1,,,,,アカシン,0
1794,8140005026721,新規,0,2023-09-01,2023-09-01,一般社団法人ひょうご縮充デザインＬａｂ,,その他の設立登記法人,兵庫県,丹波市,山南町井原３６６番地２,,28,223,6693143,,,,,,,2023-09-01,1,,,,,ヒョウゴシュクジュウデザインラボ,0
1795,8150001026682,新規,0,2023-09-01,2023-09-01,株式会社ＣＬ,,株式会社,奈良県,橿原市,中曽司町１８５－７,,29,205,6340845,,,,,,,2023-09-01,1,,,,,シーエル,0
1797,8160001025295,新規,0,2023-09-01,2023-09-01,株式会社琵琶湖Ｃ＆Ｓ,,株式会社,滋賀県,大津市,別保１丁目１５番３８号,,25,201,5200835,,,,,,,2023-09-01,1,,,,,ビワコシーアンドエス,0
1798,8160001025304,新規,0,2023-09-01,2023-09-01,株式会社ルミエール,,株式会社,滋賀県,大津市,一里山３丁目２１－１８,,25,201,5202153,,,,,,,2023-09-01,1,,,,,ルミエール,0
1804,8180001157797,新規,0,2023-09-01,2023-09-01,いらっしゃいませ株式会社,,株式会社,愛知県,名古屋市昭和区,檀溪通４丁目１４番地,,23,107,4660842,,,,,,,2023-09-01,1,,,,,イラッシャイマセ,0
1805,8180001157814,新規,0,2023-09-01,2023-09-01,智譜株式会社,,株式会社,愛知県,名古屋市天白区,八幡山１２０８メゾン八事３０６号,,23,116,4680074,,,,,,,2023-09-01,1,,,,,チプ,0
1819,8210005010107,新規,0,2023-09-01,2023-09-01,行政書士法人アインクラッド,,その他の設立登記法人,福井県,鯖江市,新横江１丁目５番２９号,,18,207,9160042,,,,,,,2023-09-01,1,,,,,アインクラッド,0
1831,8290001102800,新規,0,2023-09-01,2023-09-01,株式会社シルヴェストリス,,株式会社,福岡県,福岡市博多区,神屋町５番９－１００２号ルネッサンス２１博多,,40,132,8120022,,,,,,,2023-09-01,1,,,,,シルヴェストリス,0
1832,8290001102825,新規,0,2023-09-01,2023-09-01,株式会社リード・レジリエンス,,株式会社,福岡県,福岡市中央区,高砂１丁目１番２５号ニューガイアオフィス天神１１０７,,40,133,8100011,,,,,,,2023-09-01,1,,,,,リードレジリエンス,0
1833,8290001102833,新規,0,2023-09-01,2023-09-01,株式会社ＨＡＫＵ,,株式会社,福岡県,福岡市博多区,博多駅前３丁目１６番１０号興産ビル三階,,40,132,8120011,,,,,,,2023-09-01,1,,,,,ハク,0
1846,8330003009956,新規,0,2023-09-01,2023-09-01,合同会社ほぐし処西田,,合同会社,熊本県,八代市,豊原下町３３９５番地,,43,202,8660065,,,,,,,2023-09-01,1,,,,,ホグシドコロニシダ,0
1851,8360003013253,新規,0,2023-09-01,2023-09-01,アイビー不動産合同会社,,合同会社,沖縄県,那覇市,字安謝６２０－４丘マンション２０２,,47,201,9000003,,,,,,,2023-09-01,1,,,,,アイビーフドウサン,0
1868,8430001089858,新規,0,2023-09-01,2023-09-01,株式会社Ｌ．Ｓ．Ａ,,株式会社,北海道,札幌市西区,八軒八条東５丁目５番１４号,,01,107,0630868,,,,,,,2023-09-01,1,,,,,エルエスエー,0
1869,8430001089874,新規,0,2023-09-01,2023-09-01,株式会社Ｇｒｉｎ,,株式会社,北海道,札幌市白石区,栄通１６丁目２－３プレジデント１６　１０１号室,,01,104,0030021,,,,,,,2023-09-01,1,,,,,グリン,0
1877,8700150119669,新規,0,2023-09-01,2023-09-01,ｓｈｅｎｚｈｅｎｓｈｉｈａｉｂｅｎｌｅｍａｏｙｉｙｏｕｘｉａｎｇｏｎｇｓｉ,,外国会社等,,,,,,,,ｓｈｅｎｚｈｅｎｓｈｉｂａｏａｎｑｕｓｈｉｙａｎｊｉｅｄａｏｓｈａｎｇｗｕｓｈｅｑｕ　ｙｕａｎｊｉｎｇｃｕｎｂｅｉｈｕａｎｌｕ２－２ｈａｏ４０４　ｓｈｅｎｚｈｅｎｓｈｉ　ｇｕａｎｇｄｏｎｇｓｈｅｎｇ　５１８０００　ＣＮ,,,,,,2023-09-01,1,,,,,シェンジェンシーハイベンラーマオイーヨウシエンゴンスー,0
1878,8700150119677,新規,0,2023-09-01,2023-09-01,Ｚｈｉｊｉａｎｇ　Ｃｉｔｙ　Ｃｈａｉ　Ｎｏｎｇ　ｔｒａｄｉｎｇ　Ｃｏ．，ＬＴＤ　　　　,,外国会社等,,,,,,,,Ｎｏ．１３４，Ｇｒｏｕｐ　５，Ｂａｉｊｉａｇａｎｇ　Ｖｉｌｌａｇｅ，Ｍａｊｉａｄｉａｎ　Ｓｔｒｅｅｔ，Ｚｈｉｊｉａｎｇ　Ｃｉｔｙ，Ｙｉｃｈａｎｇ　Ｃｉｔｙ，Ｈｕｂｅｉ　Ｐｒｏｖｉｎｃｅ　（ｓｅｌｆ－ｄｅｃｌａｒａｔｉｏｎ）　　　　,,,,,,2023-09-01,1,,,,,ジージャンシーチャイノンシャンマオヨウシエンゴンスー,0
1879,8700150119685,新規,0,2023-09-01,2023-09-01,Ｓｈｅｎｚｈｅｎ　ＳｉＫａｉＲｕｉ　Ｅ－ｃｏｍｍｅｒｃｅ　Ｃｏ．，Ｌｔｄ．,,外国会社等,,,,,,,,ｎａｎｓｈａｎｑｕｘｉｌｉｊｉｅｄａｏｋｅｊｉｙｕａｎｂｅｉｑｕ　ｘｉｎｘｉｌｕ７ｈａｏｌａｎｇｕａｎｇｋｅｊｉｙｕａｎＡ５０３　ｓｈｅｎｚｈｅｎｓｈｉ　ｇｕａｎｇｄｏｎｇｓｈｅｎｇ,,,,,,2023-09-01,1,,,,,シェンジェンシースーカイルイディエンズーシャンウーヨウシエンゴンスー,0
1880,8700150119693,新規,0,2023-09-01,2023-09-01,ＣｈａｎｇＳｈａ　ＴｏｎｇＬｕ　Ｅ－Ｃｏｍｍｅｒｃｅ　Ｌｔｄ,,外国会社等,,,,,,,,Ｒｏｏｍ　１１１２，Ｏｕｂｏ　Ｍａｎｓｉｏｎ，Ｎｏ．２４８　Ｄｏｎｇｆｅｎｇ　Ｒｄ，ＣｈａｎｇＳｈａ　Ｈｕｎａｎ,,,,,,2023-09-01,1,,,,,チョウサツウリクデンシショウムユウゲンコウシ,0
1888,9010001237920,新規,0,2023-09-01,2023-09-01,株式会社イナミ・ウェルネス,,株式会社,東京都,文京区,本郷３丁目２４番２号,,13,105,1130033,,,,,,,2023-09-01,1,,,,,イナミウェルネス,0
1891,9010003041560,新規,0,2023-09-01,2023-09-01,合同会社ＡＬＥＲＯ７３,,合同会社,東京都,千代田区,神田錦町１丁目２１番１号,,13,101,1010054,,,,,,,2023-09-01,1,,,,,アレーロセブンティースリー,0
1896,9010405022407,新規,0,2023-09-01,2023-09-01,弁護士法人ＡＳＣＯＰＥ＆ｐａｒｔｎｅｒｓ,,その他の設立登記法人,東京都,港区,三田１丁目４番２８号三田国際ビル２６階,,13,103,1080073,,,,,,,2023-09-01,1,,,,,アスコープアンドパートナーズ,0
1898,9010601063691,新規,0,2023-09-01,2023-09-01,株式会社ＣＡ,,株式会社,東京都,墨田区,江東橋３丁目６番９号若水マンション３０１,,13,107,1300022,,,,,,,2023-09-01,1,,,,,シーエー,0
1899,9010603010329,新規,0,2023-09-01,2023-09-01,合同会社山惣資産企画,,合同会社,東京都,墨田区,菊川３丁目２１番６－７０６号,,13,107,1300024,,,,,,,2023-09-01,1,,,,,ヤマソウシサンキカク,0
1900,9010701044781,新規,0,2023-09-01,2023-09-01,株式会社ビジサマ,,株式会社,東京都,品川区,南品川５丁目１６－７Ｕ－ｍａｋｅ南品川１Ｆ,,13,109,1400004,,,,,,,2023-09-01,1,,,,,ビジサマ,0
1902,9010803004659,新規,0,2023-09-01,2023-09-01,東京アセットソリューションズ合同会社,,合同会社,東京都,大田区,山王２丁目５番６号,,13,111,1430023,,,,,,,2023-09-01,1,,,,,トウキョウアセットソリューションズ,0
1921,9011101104184,新規,0,2023-09-01,2023-09-01,株式会社ＵＮＩＯＮ　Ｅｎｔｅｒｔａｉｎｍｅｎｔ,,株式会社,東京都,新宿区,新宿２丁目８番３号ＡＯＩＨＯＵＳＥＳＨＩＮＪＵＫＵビル６階,,13,104,1600022,,,,,,,2023-09-01,1,,,,,ユニオンエンターテイメント,0
1926,9011501029700,新規,0,2023-09-01,2023-09-01,ミカタ株式会社,,株式会社,東京都,北区,上中里１丁目１４－１５,,13,117,1140016,,,,,,,2023-09-01,1,,,,,ミカタ,0
1929,9011701026555,新規,0,2023-09-01,2023-09-01,株式会社鈴木制作所,,株式会社,東京都,江戸川区,南葛西３丁目５番７－７０２号,,13,123,1340085,,,,,,,2023-09-01,1,,,,,スズキセイサクショ,0
1931,9011801042956,新規,0,2023-09-01,2023-09-01,株式会社ＧＡＯＮＣＥＬＬ,,株式会社,東京都,葛飾区,新小岩２丁目５番１４号ｓｔｕｄｉｏＬ１０１,,13,122,1240024,,,,,,,2023-09-01,1,,,,,ガオンセル,0
1932,9011801042964,新規,0,2023-09-01,2023-09-01,株式会社Ｐｒｅｃｉｏｕｓ　Ｏｎｅ,,株式会社,東京都,足立区,花畑３丁目１９－６フレグランスＶ－２０５,,13,121,1210061,,,,,,,2023-09-01,1,,,,,プレシャスワン,0
1939,9012801022601,新規,0,2023-09-01,2023-09-01,Ｌａｐｉｓ　Ｌａｚｕｌｉ株式会社,,株式会社,東京都,日野市,旭が丘６丁目１０番１９号,,13,212,1910065,,,,,,,2023-09-01,1,,,,,ラピスラズリ,0
1955,9021001080062,新規,0,2023-09-01,2023-09-01,株式会社クロスウェイズ,,株式会社,神奈川県,足柄上郡松田町,神山１５４番地１１,,14,363,2580002,,,,,,,2023-09-01,1,,,,,クロスウェイズ,0
1956,9021003013524,新規,0,2023-09-01,2023-09-01,合同会社Ｐｅｏｎｙ,,合同会社,神奈川県,小田原市,扇町１丁目４１番１１－３０２号ロワール市川,,14,206,2500001,,,,,,,2023-09-01,1,,,,,ピオニー,0
1960,9030001155534,新規,0,2023-09-01,2023-09-01,株式会社エミール,,株式会社,埼玉県,川口市,上青木６丁目３９番１５号,,11,203,3330844,,,,,,,2023-09-01,1,,,,,エミール,0
1961,9030001155542,新規,0,2023-09-01,2023-09-01,仁合株式会社,,株式会社,埼玉県,新座市,新座１丁目３－２,,11,230,3520006,,,,,,,2023-09-01,1,,,,,ジンゴ,0
1962,9030001155575,新規,0,2023-09-01,2023-09-01,齊藤建設工業株式会社,,株式会社,埼玉県,熊谷市,小曽根１０４２番地３５,,11,202,3600017,,,,,,,2023-09-01,1,,,,,サイトウケンセツコウギョウ,0
1963,9030001155583,新規,0,2023-09-01,2023-09-01,アジアインベストメント株式会社,,株式会社,埼玉県,秩父市,栃谷１０５番地６,,11,207,3680002,,,,,,,2023-09-01,1,,,,,アジアインベストメント,0
1964,9030001155609,新規,0,2023-09-01,2023-09-01,株式会社ＦＡＭＳＳ,,株式会社,埼玉県,川越市,脇田新町１２番地１７喜和ビル３Ｆ,,11,201,3501121,,,,,,,2023-09-01,1,,,,,ファムス,0
1972,9040001129875,新規,0,2023-09-01,2023-09-01,株式会社フロンティア,,株式会社,千葉県,印西市,武西学園台３丁目１１番地７７,,12,231,2701355,,,,,,,2023-09-01,1,,,,,フロンティア,0
1976,9040003023218,新規,0,2023-09-01,2023-09-01,ＭＵＢＡＲＩＫ　ＴＲＡＤＩＮＧ合同会社,,合同会社,千葉県,我孫子市,都１７番地１桜井ハイツ１０２号,,12,222,2701102,,,,,,,2023-09-01,1,,,,,ムバリックトレーディング,0
1978,9050001053372,新規,0,2023-09-01,2023-09-01,アクセスレンタリース茨城株式会社,,株式会社,茨城県,水戸市,千波町１９５１番地,,08,201,3100851,,,,,,,2023-09-01,1,,,,,アクセスレンタリースイバラキ,0
1984,9070003005072,新規,0,2023-09-01,2023-09-01,合同会社グローバルマーケティングサポート,,合同会社,群馬県,高崎市,吉井町多比良３０６５－１０,,10,202,3702115,,,,,,,2023-09-01,1,,,,,グローバルマーケティングサポート,0
1989,9100003007164,新規,0,2023-09-01,2023-09-01,合同会社イリス,,合同会社,長野県,上田市,漆戸２５番地,,20,203,3860006,,,,,,,2023-09-01,1,,,,,イリス,0
2005,9120001257651,新規,0,2023-09-01,2023-09-01,十全十美株式会社,,株式会社,大阪府,大阪市生野区,巽北１丁目１番１号１Ｆ－Ｆ,00131730,27,116,5440004,,,,,,,2023-09-01,1,,,,,ジュウゼンジュウビ,0
2006,9120001257759,新規,0,2023-09-01,2023-09-01,株式会社ＧＯＡＴ,,株式会社,大阪府,大阪市中央区,南船場４丁目１４番１号南船場ＢＲＩＣＫ６０４,,27,128,5420081,,,,,,,2023-09-01,1,,,,,ゴート,0
2007,9120001257767,新規,0,2023-09-01,2023-09-01,株式会社ＡＲＫ,,株式会社,大阪府,大阪市浪速区,元町３丁目２番４号１Ｆ,,27,111,5560016,,,,,,,2023-09-01,1,,,,,エアールケー,0
2015,9120101068123,新規,0,2023-09-01,2023-09-01,ＳＴ不動産販売株式会社,,株式会社,大阪府,堺市西区,鳳西町３丁９番１０号１階,,27,144,5938326,,,,,,,2023-09-01,1,,,,,エスティーフドウサンハンバイ,0
2018,9120905006518,新規,0,2023-09-01,2023-09-01,一般社団法人ソアレ,,その他の設立登記法人,大阪府,豊中市,豊南町西２丁目１５番２号,,27,203,5610816,,,,,,,2023-09-01,1,,,,,ソアレ,0
2020,9122001037323,新規,0,2023-09-01,2023-09-01,株式会社オーサムフード,,株式会社,大阪府,東大阪市,稲田本町３丁目２０番６号,,27,227,5770007,,,,,,,2023-09-01,1,,,,,オーサムフード,0
2021,9130001075061,新規,0,2023-09-01,2023-09-01,株式会社京有,,株式会社,京都府,宇治市,伊勢田町浮面３１番地の２４,,26,204,6110043,,,,,,,2023-09-01,1,,,,,キョウユウ,0
2028,9140001131425,新規,0,2023-09-01,2023-09-01,株式会社ｖｉｚｃｏｎｓｕｌｔ,,株式会社,兵庫県,姫路市,南町６３番地ミツワビル,,28,201,6700912,,,,,,,2023-09-01,1,,,,,ビズコンサルト,0
2040,9180001157805,新規,0,2023-09-01,2023-09-01,株式会社Ｋｅｙ　Ｎｅｘｕｓ,,株式会社,愛知県,名古屋市中区,松原２丁目１０番７号萬楽庵ビル５階,,23,106,4600017,,,,,,,2023-09-01,1,,,,,キーネクサス,0
2041,9180001157813,新規,0,2023-09-01,2023-09-01,株式会社三三,,株式会社,愛知県,尾張旭市,大久手町一の曾３０番,,23,226,4880000,,,,,,,2023-09-01,1,,,,,サンサン,0
2048,9190003004426,新規,0,2023-09-01,2023-09-01,Ｂｅｌｌｐｉｎｅ合同会社,,合同会社,三重県,伊賀市,中友田６５５番地２ＡＴＡＡＴＡ・ＲＥＳＯＲＴ内,,24,216,5181304,,,,,,,2023-09-01,1,,,,,ベルパイン,0
2054,9230001019990,新規,0,2023-09-01,2023-09-01,サバンナらいおん堂株式会社,,株式会社,富山県,魚津市,仏田３７００番地２７,,16,204,9370061,,,,,,,2023-09-01,1,,,,,サバンナライオンドウ,0
2065,9290001102824,新規,0,2023-09-01,2023-09-01,株式会社ｐｉｃｈｅｒｒｙ,,株式会社,福岡県,福岡市中央区,天神４丁目６番２８号天神ファーストビル７階,,40,133,8100001,,,,,,,2023-09-01,1,,,,,ピチェリー,0
2066,9290001102832,新規,0,2023-09-01,2023-09-01,株式会社ＹＴ,,株式会社,福岡県,朝倉市,菩提寺５７７番地２,,40,228,8380061,,,,,,,2023-09-01,1,,,,,ワイティ,0
2092,9460303000799,新規,0,2023-09-01,2023-09-01,合同会社アービンサポート,,合同会社,北海道,北見市,春光町７丁目７番２６‐２０１号,,01,208,0900801,,,,,,,2023-09-01,1,,,,,アービンサポート,0
2095,9700150119668,新規,0,2023-09-01,2023-09-01,ｓｈｅｎｚｈｅｎｓｈｉｃｉｙｕａｎｓｕｄｉａｎｚｉｋｅｊｉｙｏｕｘｉａｎｇｏｎｇｓｉ,,外国会社等,,,,,,,,ｈｕａｑｉａｎｇｂｅｉｊｉｅｄａｏ　ｇｕｏｇｕａｎｓｈｕｍａｃｈｅｎｇｙｉｌｏｕ　Ａ０２１　ｓｈｅｎｚｈｅｎ　ｇｕａｎｇｄｏｎｇ　５１８０３１　ＣＮ,,,,,,2023-09-01,1,,,,,シェンジェンシーツーユエンスーディエンズーコージーヨウシエンゴンスー,0
2096,9700150119676,新規,0,2023-09-01,2023-09-01,Ｔａｉｙｕａｎ　Ｊｕｅｏｕｌｅ　ｔｒａｄｉｎｇ　Ｃｏ．，ＬＴＤ　　　　,,外国会社等,,,,,,,,Ｒｏｏｍ　１３０５，Ｕｎｉｔ　１，Ｂｕｉｌｄｉｎｇ　Ａ，Ｊｉｎｚｅ　Ｈｕａｆｕ，Ｒｏａｄ　３９，Ｘｉｙｕａｎ　Ｓｏｕｔｈ　Ｒｏａｄ，Ｗａｎｂｏｌｉｎ　Ｄｉｓｔｒｉｃｔ，Ｔａｉｙｕａｎ　Ｃｉｔｙ，Ｓｈａｎｘｉ　Ｐｒｏｖｉｎｃｅ　　　　,,,,,,2023-09-01,1,,,,,タイユエンシージュエオウラーマオイーヨウシエンゴンスー,0
2097,9700150119684,新規,0,2023-09-01,2023-09-01,ｓｈｅｎ　ｚｈｅｎ　ｘｕｎ　ｌｅ　ｆｅｉ　ｍａｏ　ｙｉ　ｙｏｕ　ｘｉａｎ　ｇｏｎｇ　ｓｉ,,外国会社等,,,,,,,,ｎａｎｓｈａｎｊｉｅｄａｏ　ｎａｎｘｉｎｌｕ　ｘｉａｎｇｎａｎｈａｉｄｅｄａｓｈａＡｚｕｏ５０１－Ｂ１４１　ｓｈｅｎｚｈｅｎｓｈｉｎａｎｓｈａｎｑｕ　ｇｕａｎｇｄｏｎｇｓｈｅｎｇ　５１８０００　ＣＮ,,,,,,2023-09-01,1,,,,,シェンジェンシンラーフェイマオイーヨウシエンゴンスー,0
2098,9700150119692,新規,0,2023-09-01,2023-09-01,ｓｈｅｎｚｈｅｎｓｈｉｋｅｗａｎｇｄａｚｈｉｌｅｎｇｓｈｅｂｅｉｙｏｕｘｉａｎｇｏｎｇｓｉ　　　,,外国会社等,,,,,,,,ｇｕａｎｇｍｉｎｇｘｉｎｑｕｇｏｎｇｍｉｎｇｊｉｅｄａｏ　ｊｉａｎｇｓｈｉｓｈｅｑｕｘｉｎｗｅｉｘｉｎｃｕｎｌｉｕｐａｉ１１ｄｏｎｇ１０３ｓｈｉ　ｓｈｅｎｚｈｅｎｓｈｉ　ｇｕａｎｇｄｏｎｇｓｈｅｎｇ,,,,,,2023-09-01,1,,,,,シンセンシカオウタツセイレイセツビユウゲンコウシ,0
