sequenceNumber,corporateNumber,process,correct,updateDate,changeDate,name,nameImageId,kind,prefectureName,cityName,streetNumber,addressImageId,prefectureCode,cityCode,postCode,addressOutside,addressOutsideImageId,closeDate,closeCause,successorCorporateNumber,changeCause,assignmentDate,latest,enName,enPrefectureName,enCityName,enAddressOutside,furigana,hihyoji
6,1010001223597,登記記録の閉鎖等,0,2023-10-18,2023-10-13,パンとエスプレッソと株式会社,,株式会社,東京都,千代田区,丸の内２丁目７番２号,,13,101,1000005,,,2023-10-13,合併による解散等,9011001140214,令和５年９月３０日東京都渋谷区神宮前三丁目９番３号株式会社パンとエスプレッソと東京（9011001140214）に合併し解散,2022-01-06,1,,,,,,0
58,1011002004771,登記記録の閉鎖等,0,2023-10-18,2023-10-13,有限会社サンワ歯科技研,,有限会社,東京都,渋谷区,千駄ヶ谷４丁目２１番２号,,13,113,1510051,,,2023-10-13,清算の結了等,,,2015-10-05,1,,,,,サンワシカギケン,0
60,1011005003036,登記記録の閉鎖等,0,2023-10-18,2023-10-12,特定非営利活動法人学習環境デザイン工房,,その他の設立登記法人,東京都,渋谷区,渋谷２丁目１４番６号,,13,113,1500002,,,2023-10-12,清算の結了等,,,2015-10-05,1,,,,,ガクシュウカンキョウデザインコウボウ,0
64,1011101086174,登記記録の閉鎖等,0,2023-10-18,2023-10-13,株式会社Ｃｏｎｎｅｃｔｉｖｅ　Ｃｏｌｌｅｃｔｉｖｅ,,株式会社,東京都,新宿区,西新宿５丁目７番３号,,13,104,1600023,,,2023-10-13,清算の結了等,,,2018-12-05,1,,,,,コネクティブコレクティブ,0
66,1011105008158,登記記録の閉鎖等,0,2023-10-18,2023-10-12,一般社団法人ＭＨ,,その他の設立登記法人,東京都,新宿区,神楽坂２丁目１７番地,,13,104,1620825,,,2023-10-12,清算の結了等,,,2018-01-19,1,,,,,エムエイチ,0
70,1011502011417,登記記録の閉鎖等,0,2023-10-18,2023-10-10,有限会社宮部製本所,,有限会社,東京都,荒川区,東尾久４丁目１２番９号,,13,118,1160012,,,2023-10-10,清算の結了等,,,2015-10-05,1,,,,,ミヤベセイホンジョ,0
74,1011702003924,登記記録の閉鎖等,0,2023-10-18,2023-10-11,有限会社玄海寿し,,有限会社,東京都,江戸川区,東小岩４丁目８番９号,,13,123,1330052,,,2023-10-11,清算の結了等,,,2015-10-05,1,,,,,ゲンカイズシ,0
94,1020002100415,登記記録の閉鎖等,0,2023-10-18,2023-10-05,大和古谷建設有限会社,,有限会社,神奈川県,川崎市多摩区,中野島６丁目２７番５－１０５号,,14,135,2140012,,,2023-10-05,清算の結了等,,,2015-10-05,1,,,,,ヤマトフルタニケンセツ,0
112,1030002083254,登記記録の閉鎖等,0,2023-10-18,2023-10-02,有限会社呉設計事務所,,有限会社,埼玉県,鴻巣市,松原４丁目５番４５号,,11,217,3650042,,,2023-10-02,清算の結了等,,,2015-10-05,1,,,,,クレセッケイジムショ,0
115,1040001056111,登記記録の閉鎖等,0,2023-10-18,2023-10-02,瀬戸内フードソリューション株式会社,,株式会社,千葉県,市原市,光風台５丁目１３０番地,,12,219,2900255,,,2023-10-02,清算の結了等,,,2015-10-05,1,,,,,,0
123,1040002095199,登記記録の閉鎖等,0,2023-10-18,2023-10-02,株式会社グランシア,,株式会社,千葉県,柏市,加賀３丁目２５番９号,,12,217,2770051,,,2023-10-02,合併による解散等,4040001028578,令和５年１０月１日千葉県市川市行徳駅前二丁目１６番５号第一吉ビル４階株式会社アスユー（4040001028578）に合併し解散,2015-10-05,1,,,,,グランシア,0
127,1040005008983,登記記録の閉鎖等,0,2023-10-18,2023-10-02,農事組合法人みずき会,,その他の設立登記法人,千葉県,袖ケ浦市,川原井１５７２番地,,12,229,2990201,,,2023-10-02,清算の結了等,,,2015-10-05,1,,,,,ミズキカイ,0
135,1060002016260,登記記録の閉鎖等,0,2023-10-18,2023-10-10,有限会社ゆたか,,有限会社,栃木県,日光市,鬼怒川温泉滝６２０番地イ号,,09,206,3212526,,,2023-10-10,清算の結了等,,,2015-10-05,1,,,,,ユタカ,0
154,1120001053595,登記記録の閉鎖等,0,2023-10-18,2023-10-12,株式会社アステクノ,,株式会社,大阪府,大阪市東淀川区,大桐１丁目８番１１号,,27,114,5330011,,,2023-10-12,清算の結了等,,,2015-10-05,1,,,,,アステクノ,0
176,1120902011668,登記記録の閉鎖等,0,2023-10-18,2023-10-04,有限会社わたもと,,有限会社,大阪府,高槻市,上土室３丁目１７番Ｅ０３－３０２号,,27,207,5691044,,,2023-10-04,清算の結了等,,,2015-10-05,1,,,,,ワタモト,0
210,1180001091739,登記記録の閉鎖等,0,2023-10-18,2023-10-11,株式会社シンセイホーム,,株式会社,愛知県,半田市,長根町１丁目１２２番地,,23,205,4750074,,,2023-10-11,清算の結了等,,,2015-10-05,1,,,,,シンセイホーム,0
223,1180302026963,登記記録の閉鎖等,0,2023-10-18,2023-10-04,有限会社マモル,,有限会社,愛知県,知立市,南陽２丁目１５７番地３,,23,225,4720004,,,2023-10-04,清算の結了等,,,2015-10-05,1,,,,,マモル,0
244,1260002003585,登記記録の閉鎖等,0,2023-10-18,2023-10-17,有限会社小池屋,,有限会社,岡山県,岡山市南区,妹尾２９３番地,,33,104,7010205,,,2023-10-17,清算の結了等,,,2015-10-05,1,,,,,コイケヤ,0
249,1290002053009,登記記録の閉鎖等,0,2023-10-18,2023-10-03,有限会社ウッドメイク,,有限会社,福岡県,柳川市,間６９４番地の３,,40,207,8320088,,,2023-10-03,清算の結了等,,,2015-10-05,1,,,,,ウッドメイク,0
255,1300001010834,登記記録の閉鎖等,0,2023-10-18,2023-10-11,ＳＫドリーム株式会社,,株式会社,佐賀県,佐賀市,白山２丁目７番１号エスプラッツ白山１２１０,,41,201,8400826,,,2023-10-11,清算の結了等,,,2017-05-17,1,,,,,エスケイドリーム,0
267,1330001026885,登記記録の閉鎖等,0,2023-10-18,2023-10-10,株式会社エネルギーファームくまもと,,株式会社,熊本県,熊本市北区,大窪１丁目８番５号,,43,105,8600083,,,2023-10-10,清算の結了等,,,2019-10-28,1,,,,,エネルギーファームクマモト,0
286,1390003001526,登記記録の閉鎖等,0,2023-10-18,2023-10-13,合同会社カリーナバレエアカデミー,,合同会社,山形県,東根市,さくらんぼ駅前３丁目９番１２号,,06,211,9993720,,,2023-10-13,清算の結了等,,,2018-06-29,1,,,,,カリーナバレエアカデミー,0
292,1430001072226,登記記録の閉鎖等,0,2023-10-18,2023-10-02,ドリーム開発株式会社,,株式会社,北海道,樺戸郡新十津川町,字中央８６番地１７７,,01,432,0731103,,,2023-10-02,合併による解散等,6430002053451,令和５年１０月１日北海道樺戸郡新十津川町字中央８６番地１７７株式会社ジャパンシステム（6430002053451）に合併し解散,2016-08-26,1,,,,,ドリームカイハツ,0
293,1430001084972,登記記録の閉鎖等,0,2023-10-18,2023-10-02,Ｒｏｓｓｏ　ｉｔａｌｉａ株式会社,,株式会社,北海道,札幌市中央区,南八条西１４丁目２番３４号,,01,101,0640808,,,2023-10-02,清算の結了等,,,2021-09-14,1,,,,,ロッソイタリア,0
312,2010001141906,登記記録の閉鎖等,0,2023-10-18,2023-10-12,旭工業株式会社,,株式会社,東京都,青梅市,末広町２丁目９番地３,,13,205,1980025,,,2023-10-12,合併による解散等,5012801004470,令和５年１０月１日東京都立川市錦町一丁目８番７号株式会社日阪プロダクツ（5012801004470）に合併し解散,2015-10-05,1,,,,,アサヒコウギョウ,0
325,2010401055739,登記記録の閉鎖等,0,2023-10-18,2023-10-05,インドスエズ・エアファイナンス・アジア株式会社,,株式会社,東京都,港区,東新橋１丁目９番２号,,13,103,1050021,,,2023-10-05,清算の結了等,,,2015-10-05,1,,,,,インドスエズエアファイナンスアジア,0
344,2010701026126,登記記録の閉鎖等,0,2023-10-18,2023-10-16,スーパーストリーム株式会社,,株式会社,東京都,品川区,東品川２丁目４番１１号,,13,109,1400002,,,2023-10-16,合併による解散等,6010701025982,令和５年１０月１日東京都港区港南二丁目１６番６号キヤノンＩＴソリューションズ株式会社（6010701025982）に合併し解散,2015-10-05,1,,,,,スーパーストリーム,0
348,2010801000385,登記記録の閉鎖等,0,2023-10-18,2023-10-16,株式会社アジアケルメツト製作所,,株式会社,東京都,大田区,矢口３丁目２９番１号,,13,111,1460093,,,2023-10-16,合併による解散等,1180001012595,令和５年１０月１日名古屋市中区栄二丁目３番１号名古屋広小路ビルヂング１３階大同メタル工業株式会社（1180001012595）に合併し解散,2015-10-05,1,,,,,アジアケルメットセイサクショ,0
350,2010903003229,登記記録の閉鎖等,0,2023-10-18,2023-10-11,スノーラボ合同会社,,合同会社,東京都,世田谷区,太子堂３丁目３３番４号,,13,112,1540004,,,2023-10-11,清算の結了等,,,2016-07-21,1,,,,,スノーラボ,0
369,2011101021048,登記記録の閉鎖等,0,2023-10-18,2023-10-16,株式会社メディアビジョン,,株式会社,東京都,新宿区,住吉町８番２５号,,13,104,1620065,,,2023-10-16,清算の結了等,,,2015-10-05,1,,,,,メディアビジョン,0
373,2011102017689,登記記録の閉鎖等,0,2023-10-18,2023-10-16,有限会社メガロマニア,,有限会社,東京都,新宿区,弁天町２番地,,13,104,1620851,,,2023-10-16,清算の結了等,,,2015-10-05,1,,,,,メガロマニア,0
382,2011801023987,登記記録の閉鎖等,0,2023-10-18,2023-10-03,株式会社エムエムプラス,,株式会社,埼玉県,久喜市,栗橋東２丁目３番７－７号,,11,232,3491103,,,2023-10-03,清算の結了等,,,2015-10-05,1,,,,,エムエムプラス,0
386,2012403005259,登記記録の閉鎖等,0,2023-10-18,2023-10-12,ＬａｉＹｏ合同会社,,合同会社,東京都,調布市,布田６丁目１７番地３２,,13,208,1820024,,,2023-10-12,清算の結了等,,,2022-03-02,1,,,,,ライヨ,0
387,2012701017179,登記記録の閉鎖等,0,2023-10-18,2023-10-16,株式会社ＲＥＨＡＲＩ‐ＬＡＢＯ,,株式会社,東京都,東村山市,久米川町５丁目２９－５２,,13,213,1890003,,,2023-10-16,清算の結了等,,,2022-08-09,1,,,,,リハリラボ,0
399,2020001111981,登記記録の閉鎖等,0,2023-10-18,2023-10-16,株式会社ＰＡＳ,,株式会社,東京都,調布市,深大寺東町６丁目３３番１６号,,13,208,1820012,,,2023-10-16,清算の結了等,,,2015-10-05,1,,,,,,0
408,2020002019555,登記記録の閉鎖等,0,2023-10-18,2023-10-04,有限会社萩原企業,,有限会社,神奈川県,横浜市港南区,日野中央２丁目１４番５号,,14,111,2340053,,,2023-10-04,清算の結了等,,,2015-10-05,1,,,,,ハギワラキギョウ,0
412,2020003017161,登記記録の閉鎖等,0,2023-10-18,2023-10-04,合同会社ＣＧＴ,,合同会社,神奈川県,横浜市神奈川区,大口仲町４６０－８ガーデン妙蓮寺３０１,,14,102,2210003,,,2023-10-04,清算の結了等,,,2020-01-14,1,,,,,シージーティー,0
423,2030001074047,登記記録の閉鎖等,0,2023-10-18,2023-09-28,ヱビスプリント株式会社,,株式会社,埼玉県,川口市,元郷３丁目４番１７号,,11,203,3320011,,,2023-09-28,清算の結了等,,,2015-10-05,1,,,,,エビスプリント,0
426,2030001123968,登記記録の閉鎖等,0,2023-10-18,2023-10-02,株式会社Ｋスポーツ,,株式会社,埼玉県,久喜市,鷲宮３丁目１４番１２号,,11,232,3400217,,,2023-10-02,合併による解散等,5030001114171,令和５年１０月１日埼玉県久喜市桜田一丁目５番１－９０１株式会社Ｋ・Ｋスポーツ（5030001114171）に合併し解散,2018-01-24,1,,,,,ケイスポーツ,0
435,2030002076488,登記記録の閉鎖等,0,2023-10-18,2023-09-28,幸伸ハウス有限会社,,有限会社,埼玉県,ふじみ野市,旭１丁目４番２３－１０５号,,11,245,3560055,,,2023-09-28,清算の結了等,,,2015-10-05,1,,,,,コウシンハウス,0
446,2040001116343,登記記録の閉鎖等,0,2023-10-18,2023-09-29,株式会社アイビーデイズ,,株式会社,千葉県,柏市,若柴２７７番地７中央１６３街区１,,12,217,2770871,,,2023-09-29,合併による解散等,7040001119267,令和５年９月１日千葉県柏市柏一丁目１番２０号スカイプラザ８階株式会社ＣＡＲＴＯＮ（7040001119267）に合併し解散,2020-12-18,1,,,,,アイビーデイズ,0
458,2060001001675,登記記録の閉鎖等,0,2023-10-18,2023-10-10,小島商産株式会社,,株式会社,栃木県,宇都宮市,鐺山町３５１番地１,,09,201,3213235,,,2023-10-10,清算の結了等,,,2015-10-05,1,,,,,コジマショウサン,0
463,2060002006624,登記記録の閉鎖等,0,2023-10-18,2023-10-10,有限会社丼くん,,有限会社,栃木県,宇都宮市,鐺山町３５１番地１,,09,201,3213235,,,2023-10-10,清算の結了等,,,2015-10-05,1,,,,,ドンブリクン,0
473,2080002017149,登記記録の閉鎖等,0,2023-10-18,2023-10-16,有限会社みの松,,有限会社,静岡県,焼津市,石津港町４８番地の７,,22,212,4250042,,,2023-10-16,清算の結了等,,,2015-10-05,1,,,,,ミノマツ,0
482,2120001032771,登記記録の閉鎖等,0,2023-10-18,2023-10-04,阪口電化株式会社,,株式会社,大阪府,大阪市住吉区,遠里小野１丁目１２番１９号,,27,120,5580032,,,2023-10-04,清算の結了等,,,2015-10-05,1,,,,,サカグチデンカ,0
487,2120001156265,登記記録の閉鎖等,0,2023-10-18,2023-10-12,株式会社寺田組,,株式会社,大阪府,守口市,藤田町６丁目１６番２号,,27,209,5700014,,,2023-10-12,清算の結了等,,,2015-10-05,1,,,,,テラダグミ,0
504,2120101027416,登記記録の閉鎖等,0,2023-10-18,2023-10-13,株式会社ニッセイ,,株式会社,大阪府,松原市,三宅中５丁目１５番２５号,,27,217,5800046,,,2023-10-13,清算の結了等,,,2015-10-05,1,,,,,ニッセイ,0
512,2130001006196,登記記録の閉鎖等,0,2023-10-18,2023-10-03,株式会社北白川住研,,株式会社,京都府,京都市左京区,聖護院山王町４３番地２パレステート日生１１３号,,26,103,6068392,,,2023-10-03,清算の結了等,,,2015-10-05,1,,,,,キタシラカワジュウケン,0
514,2130001058361,登記記録の閉鎖等,0,2023-10-18,2023-10-02,泰明ホールディング株式会社,,株式会社,京都府,京都市中京区,烏丸通錦小路上る手洗水町６７０番地,,26,104,6048152,,,2023-10-02,合併による解散等,1130001049915,令和５年１０月１日京都市中京区烏丸通錦小路上ル手洗水町６７０番地株式会社京都フクトクビル（1130001049915）に合併し解散,2016-10-05,1,,,,,タイメイホールディング,0
548,2180003025058,登記記録の閉鎖等,0,2023-10-18,2023-10-12,クラシタイヤー合同会社,,合同会社,愛知県,名古屋市東区,代官町３５番２６号,,23,102,4610002,,,2023-10-12,清算の結了等,,,2023-04-07,1,,,,,クラシタイヤー,0
549,2180005006741,登記記録の閉鎖等,0,2023-10-18,2023-09-28,特定非営利活動法人名古屋トルコ日本協会,,その他の設立登記法人,愛知県,名古屋市西区,菊井２丁目１２－３２,,23,104,4510044,,,2023-09-28,清算の結了等,,,2015-10-05,1,,,,,ナゴヤトルコニホンキョウカイ,0
552,2180302007211,登記記録の閉鎖等,0,2023-10-18,2023-10-04,有限会社清川,,有限会社,愛知県,豊橋市,植田町字大池６０番地の３５,,23,201,4418134,,,2023-10-04,清算の結了等,,,2015-10-05,1,,,,,キヨカワ,0
554,2190002017963,登記記録の閉鎖等,0,2023-10-18,2023-10-13,有限会社川崎建設,00076079,有限会社,三重県,いなべ市,大安町南金井６２８番地の８,,24,214,5110283,,,2023-10-13,清算の結了等,,,2015-10-05,1,,,,,カワサキケンセツ,0
572,2260002010283,登記記録の閉鎖等,0,2023-10-18,2023-10-17,有限会社ヤマデン,,有限会社,岡山県,岡山市中区,浜３丁目６番２６号,,33,102,7038256,,,2023-10-17,清算の結了等,,,2015-10-05,1,,,,,ヤマデン,0
586,2310002005229,登記記録の閉鎖等,0,2023-10-18,2023-10-16,有限会社松永塗装工業,,有限会社,長崎県,長崎市,かき道３丁目６番８号,,42,201,8510115,,,2023-10-16,清算の結了等,,,2015-10-05,1,,,,,マツナガトソウコウギョウ,0
603,2360002003327,登記記録の閉鎖等,0,2023-10-18,2023-10-11,有限会社南風,,有限会社,沖縄県,那覇市,字真地２９９番地の１８,,47,201,9020072,,,2023-10-11,清算の結了等,,,2015-10-05,1,,,,,,0
604,2360002012385,登記記録の閉鎖等,0,2023-10-18,2023-10-12,有限会社丸和重工,,有限会社,沖縄県,沖縄市,比屋根２丁目１０番３－３０４号,,47,211,9042173,,,2023-10-12,清算の結了等,,,2015-10-05,1,,,,,,0
606,2370002003185,登記記録の閉鎖等,0,2023-10-18,2023-10-11,有限会社鈴吉,,有限会社,宮城県,仙台市太白区,中田３丁目１番４０号,,04,104,9811104,,,2023-10-11,清算の結了等,,,2015-10-05,1,,,,,スズヨシ,0
609,2390001010057,登記記録の閉鎖等,0,2023-10-18,2023-10-16,羽生田織物株式会社,,株式会社,山形県,米沢市,花沢町１丁目９番４５号,,06,202,9920022,,,2023-10-16,清算の結了等,,,2015-10-05,1,,,,,ハニュウダオリモノ,0
610,2390002002912,登記記録の閉鎖等,0,2023-10-18,2023-10-13,有限会社山市高橋工務店,00084857,有限会社,山形県,山形市,相生町６番１０号,,06,201,9900055,,,2023-10-13,清算の結了等,,,2015-10-05,1,,,,,ヤマイチタカハシコウムテン,0
615,2420002014111,登記記録の閉鎖等,0,2023-10-18,2023-10-13,有限会社藤田,,有限会社,青森県,弘前市,大字松木平字富永１番地１３号,,02,202,0368126,,,2023-10-13,清算の結了等,,,2015-10-05,1,,,,,フジタ,0
616,2420003001439,登記記録の閉鎖等,0,2023-10-18,2023-10-13,合同会社かさこ,,合同会社,青森県,弘前市,大字小友字神原４５３番地１,,02,202,0383613,,,2023-10-13,清算の結了等,,,2015-10-05,1,,,,,カサコ,0
617,2430001001646,登記記録の閉鎖等,0,2023-10-18,2023-10-03,株式会社一楽堂齋藤表具店,00088178,株式会社,北海道,札幌市中央区,南二十条西７丁目１番６号,,01,101,0640920,,,2023-10-03,清算の結了等,,,2015-10-05,1,,,,,イチラクドウサイトウヒョウグテン,0
620,2440002002790,登記記録の閉鎖等,0,2023-10-18,2023-10-16,有限会社塚本商店,00090377,有限会社,北海道,函館市,中道２丁目４９番２０号,,01,202,0410853,,,2023-10-16,清算の結了等,,,2015-10-05,1,,,,,ツカモトショウテン,0
624,2490005006495,登記記録の閉鎖等,0,2023-10-18,2023-10-05,一般社団法人高知県環境工法研究会,,その他の設立登記法人,高知県,高知市,長浜１６０９番地１,,39,201,7810270,,,2023-10-05,清算の結了等,,,2016-09-16,1,,,,,コウチケンカンキョウコウホウケンキュウカイ,0
636,3010001209660,登記記録の閉鎖等,0,2023-10-18,2023-10-05,Ｇｒａｎｄ　Ｃｈａｌｌｅｎｇｅ　Ｄｉｇｉｔａｌ株式会社,,株式会社,東京都,中央区,銀座５丁目１５番８号,,13,102,1040061,,,2023-10-05,清算の結了等,,,2020-05-15,1,,,,,グランドチャレンジデジタル,0
645,3010005033280,登記記録の閉鎖等,0,2023-10-18,2023-10-13,イータ特定目的会社,,その他の設立登記法人,東京都,千代田区,丸の内３丁目１番１号東京共同会計事務所内,,13,101,1000005,,,2023-10-13,清算の結了等,,,2021-04-26,1,,,,,イータ,0
648,3010102001743,登記記録の閉鎖等,0,2023-10-18,2023-10-10,有限会社和興業,,有限会社,東京都,八王子市,上壱分方町３１５番地１,,13,201,1930811,,,2023-10-10,清算の結了等,,,2015-10-05,1,,,,,ワコウギョウ,0
661,3010403027561,登記記録の閉鎖等,0,2023-10-18,2023-10-02,合同会社Ｃｒｏｓｓ　Ｅｄｇｅ,,合同会社,東京都,港区,芝３丁目１２番４号パークタワー芝公園１４０４,,13,103,1050014,,,2023-10-02,清算の結了等,,,2022-04-26,1,,,,,クロスエッジ,0
664,3010405019540,登記記録の閉鎖等,0,2023-10-18,2023-10-05,一般社団法人エンターテイメント・トランスフォーメーション協会,,その他の設立登記法人,東京都,港区,赤坂８丁目１１番２６号,,13,103,1070052,,,2023-10-05,清算の結了等,,,2021-03-04,1,,,,,エンターテイメントトランスフォーメーションキョウカイ,0
674,3010901016693,登記記録の閉鎖等,0,2023-10-18,2023-10-10,マルキ株式会社,,株式会社,東京都,世田谷区,北沢４丁目１６番２号,,13,112,1550031,,,2023-10-10,清算の結了等,,,2015-10-05,1,,,,,マルキ,0
677,3011001055293,登記記録の閉鎖等,0,2023-10-18,2023-10-11,株式会社Ｂｉｊｏｕ　Ｒ．Ｉ,,株式会社,東京都,渋谷区,鉢山町１１－１アレンツ代官山２０２,,13,113,1500035,,,2023-10-11,清算の結了等,,,2015-10-05,1,,,,,ビジューアールアイ,0
696,3011301017357,登記記録の閉鎖等,0,2023-10-18,2023-10-10,株式会社航友,,株式会社,東京都,杉並区,久我山２丁目１０番１２号,,13,115,1680082,,,2023-10-10,清算の結了等,,,2015-10-05,1,,,,,コウユウ,0
703,3012401037559,登記記録の閉鎖等,0,2023-10-18,2023-10-16,栗電サービス株式会社,,株式会社,東京都,狛江市,中和泉１丁目２１番１４号,,13,219,2010012,,,2023-10-16,清算の結了等,,,2021-02-25,1,,,,,クリデンサービス,0
714,3020002019273,登記記録の閉鎖等,0,2023-10-18,2023-10-05,有限会社マキ興業,,有限会社,神奈川県,横浜市金沢区,柴町３６７番地の１柴団地１棟３０２号,,14,108,2360012,,,2023-10-05,清算の結了等,,,2015-10-05,1,,,,,マキコウギョウ,0
717,3021001002674,登記記録の閉鎖等,0,2023-10-18,2023-10-10,株式会社齋田商事,,株式会社,神奈川県,藤沢市,稲荷５２０番地,,14,205,2510862,,,2023-10-10,清算の結了等,,,2015-10-05,1,,,,,サイダショウジ,0
722,3021002048287,登記記録の閉鎖等,0,2023-10-18,2023-10-10,有限会社ビーエムシー,,有限会社,神奈川県,座間市,相模が丘１丁目７番３－１号,,14,216,2520001,,,2023-10-10,清算の結了等,,,2015-10-05,1,,,,,ビーエムシー,0
732,3030002022680,登記記録の閉鎖等,0,2023-10-18,2023-10-02,有限会社リバーライズシステム,,有限会社,埼玉県,さいたま市岩槻区,大字岩槻５３７７番地４,,11,110,3390061,,,2023-10-02,清算の結了等,,,2015-10-05,1,,,,,リバーライズシステム,0
734,3030002081842,登記記録の閉鎖等,0,2023-10-18,2023-09-29,株式会社福松運輸,,株式会社,埼玉県,本庄市,東台１丁目３番３０号,,11,211,3670021,,,2023-09-29,清算の結了等,,,2015-10-05,1,,,,,フクマツウンユ,0
756,3060002008272,登記記録の閉鎖等,0,2023-10-18,2023-10-12,有限会社マルエス繊維商会,,有限会社,栃木県,宇都宮市,大通り２丁目３番２２号,,09,201,3200811,,,2023-10-12,清算の結了等,,,2015-10-05,1,,,,,マルエスセンイショウカイ,0
757,3060002009568,登記記録の閉鎖等,0,2023-10-18,2023-10-11,渡辺石材工業有限会社,,有限会社,栃木県,宇都宮市,駒生町２９２３番地,,09,201,3200065,,,2023-10-11,清算の結了等,,,2015-10-05,1,,,,,ワタナベセキザイコウギョウ,0
764,3080401012055,登記記録の閉鎖等,0,2023-10-18,2023-10-16,株式会社セッター,,株式会社,静岡県,浜松市東区,有玉北町１０６０番地の６,,22,132,4313121,,,2023-10-16,清算の結了等,,,2015-10-05,1,,,,,セッター,0
770,3100001023516,登記記録の閉鎖等,0,2023-10-18,2023-10-11,株式会社シムノン,,株式会社,長野県,飯田市,三日市場１４３５番地１,,20,205,3950155,,,2023-10-11,合併による解散等,6100001022382,令和５年１０月１日長野県飯田市三日市場２１１１番地株式会社キンポーメルテック（6100001022382）に合併し解散,2015-10-05,1,,,,,シムノン,0
777,3120001070845,登記記録の閉鎖等,0,2023-10-18,2023-10-12,株式会社美上繊維,,株式会社,大阪府,大阪市北区,中津３丁目２８番２１号,,27,127,5310071,,,2023-10-12,清算の結了等,,,2015-10-05,1,,,,,,0
780,3120001095082,登記記録の閉鎖等,0,2023-10-18,2023-10-12,株式会社イークスリネット,,株式会社,大阪府,大阪市東淀川区,大桐１丁目８番１１号,,27,114,5330011,,,2023-10-12,清算の結了等,,,2015-10-05,1,,,,,イークスリネット,0
805,3130005006076,登記記録の閉鎖等,0,2023-10-18,2023-10-02,特定非営利活動法人むつみの家,,その他の設立登記法人,京都府,京都市北区,小山初音町５６番地,,26,101,6038172,,,2023-10-02,清算の結了等,,,2015-10-05,1,,,,,ムツミノイエ,0
811,3160001000278,登記記録の閉鎖等,0,2023-10-18,2023-10-16,株式会社エフ・ツー,,株式会社,滋賀県,大津市,錦織１丁目７番３１号,,25,201,5200027,,,2023-10-16,清算の結了等,,,2015-10-05,1,,,,,エフツー,0
830,3180002035494,登記記録の閉鎖等,0,2023-10-18,2023-10-16,有限会社玉木工務店,,有限会社,愛知県,名古屋市名東区,社が丘４丁目７０３番地,,23,115,4650051,,,2023-10-16,清算の結了等,,,2015-10-05,1,,,,,タマキコウムテン,0
835,3180003020685,登記記録の閉鎖等,0,2023-10-18,2023-10-11,合同会社キタオカ,,合同会社,愛知県,名古屋市西区,名駅２丁目３４－１７セントラル名古屋１１０１,,23,104,4510045,,,2023-10-11,清算の結了等,,,2019-12-27,1,,,,,キタオカ,0
846,3210002012309,登記記録の閉鎖等,0,2023-10-18,2023-10-10,有限会社米田呉服店,,有限会社,福井県,丹生郡越前町,大王丸第２３号１番地,,18,423,9160222,,,2023-10-10,清算の結了等,,,2015-10-05,1,,,,,ヨネダゴフクテン,0
847,3210005008460,登記記録の閉鎖等,0,2023-10-18,2023-10-04,下根来生産森林組合,,その他の設立登記法人,福井県,小浜市,下根来第５７号８番地,,18,204,9170246,,,2023-10-04,清算の結了等,,,2015-10-05,1,,,,,シモネゴリ,0
855,3240001056460,登記記録の閉鎖等,0,2023-10-18,2023-10-04,株式会社スリーサム,,株式会社,広島県,福山市,津之郷町大字津之郷４８３番地１１,,34,207,7200841,,,2023-10-04,清算の結了等,,,2020-08-13,1,,,,,スリーサム,0
873,3310002014170,登記記録の閉鎖等,0,2023-10-18,2023-10-12,有限会社グリーン長崎,,有限会社,長崎県,西海市,大瀬戸町雪浦下郷１２７７番地,,42,212,8572326,,,2023-10-12,清算の結了等,,,2015-10-05,1,,,,,グリーンナガサキ,0
882,3340002000011,登記記録の閉鎖等,0,2023-10-18,2023-10-16,有限会社桜洲建設,,有限会社,鹿児島県,鹿児島市,桜島赤生原町１８３番地,,46,201,8911417,,,2023-10-16,清算の結了等,,,2015-10-05,1,,,,,オウシュウケンセツ,0
885,3350005003943,登記記録の閉鎖等,0,2023-10-18,2023-10-10,特定非営利活動法人高城歴史文化のまちづくりフォーラム,,その他の設立登記法人,宮崎県,都城市,高城町高城２８５７番地,,45,202,8851201,,,2023-10-10,清算の結了等,,,2015-10-05,1,,,,,タカジョウレキシブンカノマチヅクリフォーラム,0
890,3360003012359,登記記録の閉鎖等,0,2023-10-18,2023-09-27,ナッツ合同会社,,合同会社,沖縄県,中頭郡北谷町,字北前２５５番地（稲嶺アパートＩＩ２階）,00128078,47,326,9040117,,,2023-09-27,清算の結了等,,,2022-10-11,1,,,,,ナッツ,0
895,3370002014017,登記記録の閉鎖等,0,2023-10-18,2023-10-12,有限会社ユウケイ商事,,有限会社,宮城県,亘理郡山元町,小平字北２０番地４,,04,362,9892205,,,2023-10-12,清算の結了等,,,2015-10-05,1,,,,,,0
898,3380002020749,登記記録の閉鎖等,0,2023-10-18,2023-10-06,有限会社永成建設,,有限会社,福島県,岩瀬郡天栄村,大字飯豊字大山６番地２６,,07,344,9620512,,,2023-10-06,清算の結了等,,,2015-10-05,1,,,,,エイセイケンセツ,0
902,3410002006868,登記記録の閉鎖等,0,2023-10-18,2023-10-06,有限会社フロンティアファーム,,有限会社,秋田県,由利本荘市,烏川字岩館４０番地,,05,210,0150085,,,2023-10-06,清算の結了等,,,2015-10-05,1,,,,,フロンティアファーム,0
926,4010001219048,登記記録の閉鎖等,0,2023-10-18,2023-10-06,いつもコマース株式会社,,株式会社,東京都,千代田区,有楽町１丁目１２番１号新有楽町ビル,,13,101,1000006,,,2023-10-06,合併による解散等,4010401074282,令和５年１０月１日東京都千代田区有楽町一丁目１２番１号新有楽町ビル株式会社いつも（4010401074282）に合併し解散,2021-06-18,1,,,,,イツモコマース,0
927,4010001224832,登記記録の閉鎖等,0,2023-10-18,2023-10-13,株式会社あまみちゃんプロジェクト,,株式会社,東京都,大田区,千鳥３丁目１４番１２号カーサチドリ１０１,,13,111,1460083,,,2023-10-13,合併による解散等,1010001223036,令和５年１０月１日東京都千代田区九段南１－５－６りそな九段ビル５ＦＫＳフロアＦＯＮＴＥＣ　Ｓｏｌｕｔｉｏｎ株式会社（1010001223036）に合併し解散,2022-02-28,1,,,,,アマミチャンプロジェクト,0
950,4010403022999,登記記録の閉鎖等,0,2023-10-18,2023-10-05,合同会社Ｆｌｙｉｎｇ　Ｆｉｆｔｅｅｎ,,合同会社,東京都,港区,虎ノ門５丁目１番４号,,13,103,1050001,,,2023-10-05,清算の結了等,,,2020-05-21,1,,,,,フライングフィフティーン,0
965,4011001133206,登記記録の閉鎖等,0,2023-10-18,2023-10-13,株式会社スタジアムエクスペリメント,,株式会社,東京都,渋谷区,猿楽町１７番１０号代官山アートビレッジ３階,,13,113,1500033,,,2023-10-13,清算の結了等,,,2020-04-09,1,,,,,スタジアムエクスペリメント,0
979,4011502004475,登記記録の閉鎖等,0,2023-10-18,2023-10-10,有限会社にんじん,,有限会社,東京都,北区,上十条２丁目７番１４号,,13,117,1140034,,,2023-10-10,清算の結了等,,,2015-10-05,1,,,,,ニンジン,0
984,4011801017368,登記記録の閉鎖等,0,2023-10-18,2023-10-10,株式会社ピーアンドエム,,株式会社,北海道,札幌市北区,あいの里二条６丁目３番１－２００２号,,01,102,0028072,,,2023-10-10,清算の結了等,,,2015-10-05,1,,,,,,0
989,4011802018175,登記記録の閉鎖等,0,2023-10-18,2023-10-13,有限会社プロテック,,有限会社,東京都,足立区,綾瀬３丁目１４番６号,,13,121,1200005,,,2023-10-13,清算の結了等,,,2015-10-05,1,,,,,プロテック,0
991,4012301001011,登記記録の閉鎖等,0,2023-10-18,2023-10-12,相模化成工業株式会社,,株式会社,東京都,町田市,旭町３丁目３番１５号,,13,209,1940023,,,2023-10-12,合併による解散等,2010001125512,令和５年１０月１日東京都千代田区神田神保町二丁目３６番地１アクティブファーマ株式会社（2010001125512）に合併し解散,2015-10-05,1,,,,,サガミカセイコウギョウ,0
994,4013102001019,登記記録の閉鎖等,0,2023-10-18,2023-10-16,有限会社オオノ建設,,有限会社,東京都,羽村市,緑ヶ丘１丁目２０番地の１０,,13,227,2050003,,,2023-10-16,清算の結了等,,,2015-10-05,1,,,,,オオノケンセツ,0
1012,4021001042653,登記記録の閉鎖等,0,2023-10-18,2023-10-10,皐月建商株式会社,,株式会社,神奈川県,横須賀市,衣笠町２７番２号,,14,201,2380025,,,2023-10-10,清算の結了等,,,2015-10-05,1,,,,,サツキケンショウ,0
1015,4021001059136,登記記録の閉鎖等,0,2023-10-18,2023-10-10,株式会社軽マインズ,,株式会社,神奈川県,茅ヶ崎市,菱沼２丁目６番２２号,,14,207,2530011,,,2023-10-10,清算の結了等,,,2016-04-22,1,,,,,,0
1030,4040001074028,登記記録の閉鎖等,0,2023-10-18,2023-10-02,株式会社関口工務店,,株式会社,千葉県,安房郡鋸南町,保田３９２番地,,12,463,2991902,,,2023-10-02,清算の結了等,,,2015-10-05,1,,,,,セキグチコウムテン,0
1038,4040002055316,登記記録の閉鎖等,0,2023-10-18,2023-10-02,有限会社誠友情報システム,,有限会社,千葉県,成田市,御所の内１番地８,,12,211,2860137,,,2023-10-02,清算の結了等,,,2015-10-05,1,,,,,セイユウジョウホウシステム,0
1039,4040002063260,登記記録の閉鎖等,0,2023-10-18,2023-10-02,有限会社幸栄建材,,有限会社,千葉県,八街市,八街い２００番地の５,,12,230,2891143,,,2023-10-02,清算の結了等,,,2015-10-05,1,,,,,コウエイケンザイ,0
1066,4080401016971,登記記録の閉鎖等,0,2023-10-18,2023-10-16,株式会社ＬＩＮＫ,,株式会社,静岡県,磐田市,森下３５番地５,,22,211,4380834,,,2023-10-16,清算の結了等,,,2015-10-05,1,,,,,リンク,0
1070,4110001028372,登記記録の閉鎖等,0,2023-10-18,2023-10-13,株式会社新潟ワールド美容,,株式会社,新潟県,小千谷市,東栄１丁目６番２５号,,15,208,9470004,,,2023-10-13,清算の結了等,,,2015-10-05,1,,,,,ニイガタワールドビヨウ,0
1078,4120001183638,登記記録の閉鎖等,0,2023-10-18,2023-09-27,株式会社谷口,,株式会社,大阪府,大阪市住吉区,杉本２丁目１番５４号１０４号,,27,120,5580022,,,2023-09-27,清算の結了等,,,2015-10-05,1,,,,,タニグチ,0
1088,4120101024527,登記記録の閉鎖等,0,2023-10-18,2023-10-12,株式会社なかむら,,株式会社,大阪府,堺市北区,金岡町２３９４番地６,,27,146,5918022,,,2023-10-12,清算の結了等,,,2015-10-05,1,,,,,ナカムラ,0
1095,4120902014255,登記記録の閉鎖等,0,2023-10-18,2023-10-13,有限会社ハーフムーン,,有限会社,大阪府,豊中市,緑丘３丁目２６番８号,,27,203,5600002,,,2023-10-13,清算の結了等,,,2015-10-05,1,,,,,ハーフムーン,0
1096,4120903002688,登記記録の閉鎖等,0,2023-10-18,2023-10-03,Ｌｏｃａｌ　Ｐｌａｎ合同会社,,合同会社,大阪府,高槻市,桜ケ丘北町２０番４号,,27,207,5690817,,,2023-10-03,清算の結了等,,,2018-12-20,1,,,,,ローカルプラン,0
1109,4140005020298,登記記録の閉鎖等,0,2023-10-18,2023-10-12,一般財団法人一庫ダム湖周辺環境整備センター,,その他の設立登記法人,兵庫県,川西市,中央町１２番１号,,28,217,6660016,,,2023-10-12,清算の結了等,,,2015-10-05,1,,,,,ヒトクラダムコシュウヘンカンキョウセイビセンター,0
1110,4150001008767,登記記録の閉鎖等,0,2023-10-18,2023-10-16,株式会社ユアーサポート,,株式会社,奈良県,奈良市,東九条町２９７番地の２８,,29,201,6308144,,,2023-10-16,清算の結了等,,,2015-10-05,1,,,,,ユアーサポート,0
1111,4160001022453,登記記録の閉鎖等,0,2023-10-18,2023-10-12,株式会社マキノパークホテル,,株式会社,滋賀県,高島市,マキノ町高木浜２丁目１番５号,,25,212,5201813,,,2023-10-12,合併による解散等,4160001012297,令和５年１０月１日兵庫県養父市丹戸８９６番地の２株式会社マックアース（4160001012297）に合併し解散,2020-04-24,1,,,,,マキノパークホテル,0
1114,4180001017410,登記記録の閉鎖等,0,2023-10-18,2023-10-10,テクノエキスプレス株式会社,,株式会社,愛知県,名古屋市熱田区,沢上１丁目３番１４号,,23,109,4560012,,,2023-10-10,清算の結了等,,,2015-10-05,1,,,,,テクノエキスプレス,0
1124,4180002042127,登記記録の閉鎖等,0,2023-10-18,2023-10-11,有限会社小原工業,,有限会社,愛知県,名古屋市南区,豊田１丁目３５番１３号,,23,112,4570841,,,2023-10-11,清算の結了等,,,2015-10-05,1,,,,,コハラコウギョウ,0
1133,4180005009692,登記記録の閉鎖等,0,2023-10-18,2023-10-12,一宮市人形町二丁目商店街振興組合,,その他の設立登記法人,愛知県,一宮市,本町３丁目５番２０号,,23,203,4910859,,,2023-10-12,清算の結了等,,,2015-10-05,1,,,,,イチノミヤシニンギョウチョウニチョウメ,0
1136,4180301025476,登記記録の閉鎖等,0,2023-10-18,2023-10-04,株式会社サンライズファーム豊田,,株式会社,愛知県,豊田市,御作町西川１２０９番地,,23,211,4700424,,,2023-10-04,清算の結了等,,,2015-10-05,1,,,,,サンライズファームトヨタ,0
1138,4190002017193,登記記録の閉鎖等,0,2023-10-18,2023-10-13,三重通商有限会社,,有限会社,三重県,桑名市,大字西別所字倉持１８３番の３,,24,205,5110851,,,2023-10-13,清算の結了等,,,2015-10-05,1,,,,,ミエツウショウ,0
1146,4240001023633,登記記録の閉鎖等,0,2023-10-18,2023-10-02,株式会社セカンドライン,,株式会社,広島県,広島市佐伯区,五日市港２丁目３番１１号,,34,108,7315161,,,2023-10-02,合併による解散等,3240001061527,令和５年１０月１日広島市佐伯区五日市港二丁目３番１１号株式会社ともに．（3240001061527）に合併し解散,2015-10-05,1,,,,,セカンドライン,0
1153,4270002000249,登記記録の閉鎖等,0,2023-10-18,2023-10-12,有限会社梅乃井,00004286,有限会社,鳥取県,鳥取市,元魚町１丁目２１５番地,,31,201,6800034,,,2023-10-12,清算の結了等,,,2015-10-05,1,,,,,ウメノイ,0
1171,4310001015524,登記記録の閉鎖等,0,2023-10-18,2023-10-11,株式会社アシスト,,株式会社,長崎県,長崎市,大手２丁目８番１４号,,42,201,8528127,,,2023-10-11,清算の結了等,,,2018-05-07,1,,,,,アシスト,0
1174,4320002015316,登記記録の閉鎖等,0,2023-10-18,2023-10-17,有限会社谷林総合建設,,有限会社,大分県,杵築市,大字南杵築１８７６番地の２,,44,210,8730002,,,2023-10-17,清算の結了等,,,2015-10-05,1,,,,,タニバヤシソウゴウケンセツ,0
1175,4340002006107,登記記録の閉鎖等,0,2023-10-18,2023-10-02,有限会社谷山無線サービス,,有限会社,鹿児島県,鹿児島市,明和３丁目１６番９号,,46,201,8900024,,,2023-10-02,合併による解散等,8340002005096,令和５年１０月１日鹿児島市唐湊一丁目１番１５号株式会社白尾建設（8340002005096）に合併し解散,2015-10-05,1,,,,,タニヤマムセンサービス,0
1180,4360003009759,登記記録の閉鎖等,0,2023-10-18,2023-10-12,合同会社アンリュウ,,合同会社,沖縄県,沖縄市,比屋根３丁目１番５号,,47,211,9042173,,,2023-10-12,清算の結了等,,,2019-09-19,1,,,,,アンリュウ,0
1185,4370002001377,登記記録の閉鎖等,0,2023-10-18,2023-10-11,有限会社ドライシステム,,有限会社,宮城県,仙台市泉区,高森５丁目３０番地の７,,04,105,9813203,,,2023-10-11,清算の結了等,,,2015-10-05,1,,,,,ドライシステム,0
1219,5010002003499,登記記録の閉鎖等,0,2023-10-18,2023-10-02,有限会社ソニツク,,有限会社,埼玉県,新座市,畑中１丁目２１番６号,,11,230,3520012,,,2023-10-02,合併による解散等,3010701016290,令和５年１０月１日埼玉県新座市畑中一丁目２２番１７号株式会社大観社（3010701016290）に合併し解散,2015-10-05,1,,,,,ソニツク,0
1222,5010005028221,登記記録の閉鎖等,0,2023-10-18,2023-10-13,一般社団法人スカイル,,その他の設立登記法人,東京都,千代田区,丸の内３丁目１番１号東京共同会計事務所内,,13,101,1000005,,,2023-10-13,清算の結了等,,,2018-03-08,1,,,,,スカイル,0
1226,5010101014117,登記記録の閉鎖等,0,2023-10-18,2023-10-06,日創株式会社,,株式会社,東京都,八王子市,館町５４１番地２,,13,201,1930944,,,2023-10-06,清算の結了等,,,2020-03-30,1,,,,,ニッソウ,0
1230,5010401097514,登記記録の閉鎖等,0,2023-10-18,2023-10-05,株式会社勝デザインオフィス,,株式会社,東京都,港区,赤坂８丁目４番７号,,13,103,1070052,,,2023-10-05,清算の結了等,,,2015-10-05,1,,,,,カツデザインオフィス,0
1232,5010401166681,登記記録の閉鎖等,0,2023-10-18,2023-10-05,株式会社リペアン・リフォーム,,株式会社,東京都,港区,六本木５丁目１３番１２号,,13,103,1060032,,,2023-10-05,清算の結了等,,,2022-04-05,1,,,,,リペアンリフォーム,0
1237,5010403021579,登記記録の閉鎖等,0,2023-10-18,2023-10-03,半夏留学合同会社,,合同会社,東京都,港区,芝大門１丁目６－５,,13,103,1050012,,,2023-10-03,清算の結了等,,,2019-10-09,1,,,,,バンシャリュウガク,0
1249,5010703004300,登記記録の閉鎖等,0,2023-10-18,2023-10-12,合同会社スミカテック,,合同会社,東京都,葛飾区,四つ木１丁目３９番５号ガーデンコート四ツ木,,13,122,1240011,,,2023-10-12,合併による解散等,4010403019310,令和５年１０月１日東京都港区芝五丁目２７番３号ＭＢＣ合同会社シバレジデンス（4010403019310）に合併し解散,2018-06-13,1,,,,,スミカテック,0
1264,5011002036670,登記記録の閉鎖等,0,2023-10-18,2023-10-13,有限会社黒豚振興エージェンシー,,有限会社,東京都,渋谷区,元代々木町５４番１号東京セントラル代々木,,13,113,1510062,,,2023-10-13,清算の結了等,,,2015-10-05,1,,,,,クロブタシンコウエージェンシー,0
1266,5011101035706,登記記録の閉鎖等,0,2023-10-18,2023-10-04,株式会社キャリアチャンネル,,株式会社,東京都,八王子市,久保山町２丁目３０番地１５,,13,201,1920023,,,2023-10-04,清算の結了等,,,2015-10-05,1,,,,,キャリアチャンネル,0
1275,5011401016208,登記記録の閉鎖等,0,2023-10-18,2023-10-12,株式会社来知,,株式会社,東京都,豊島区,長崎４丁目１５番１２－１０１号,,13,116,1710051,,,2023-10-12,清算の結了等,,,2015-10-05,1,,,,,ライチ,0
1279,5011601016131,登記記録の閉鎖等,0,2023-10-18,2023-10-10,中澤産業株式会社,,株式会社,東京都,練馬区,大泉学園町４丁目１３番８号,,13,120,1780061,,,2023-10-10,清算の結了等,,,2015-10-05,1,,,,,ナカザワサンギョウ,0
1283,5011601025462,登記記録の閉鎖等,0,2023-10-18,2023-10-10,株式会社ファーストホームサービス,,株式会社,東京都,練馬区,豊玉中４丁目１４番１７号,,13,120,1760013,,,2023-10-10,合併による解散等,4011601005977,令和５年１０月１０日東京都練馬区豊玉中四丁目１４番１７号株式会社ファーストライフ（4011601005977）に合併し解散,2021-10-14,1,,,,,ファーストホームサービス,0
1304,5021001011822,登記記録の閉鎖等,0,2023-10-18,2023-10-10,協興食品株式会社,,株式会社,神奈川県,相模原市南区,古淵２丁目１６－１５－４０８,,14,153,2520344,,,2023-10-10,清算の結了等,,,2015-10-05,1,,,,,キョウコウショクヒン,0
1305,5021001043188,登記記録の閉鎖等,0,2023-10-18,2023-10-10,株式会社ブリーズウェイ,,株式会社,神奈川県,横須賀市,上町４丁目４９番地イエローハウス,,14,201,2380017,,,2023-10-10,清算の結了等,,,2015-10-05,1,,,,,ブリーズウェイ,0
1312,5021002025136,登記記録の閉鎖等,0,2023-10-18,2023-10-10,有限会社山本商店,,有限会社,神奈川県,相模原市南区,新戸２４３５番地イ号,,14,153,2520326,,,2023-10-10,清算の結了等,,,2015-10-05,1,,,,,ヤマモトショウテン,0
1339,5030002003613,登記記録の閉鎖等,0,2023-10-18,2023-10-06,有限会社上総屋,,有限会社,兵庫県,神戸市中央区,栄町通４丁目４番５－４０４号,,28,110,6500023,,,2023-10-06,清算の結了等,,,2015-10-05,1,,,,,カズサヤ,0
1379,5090001013649,登記記録の閉鎖等,0,2023-10-18,2023-10-12,株式会社八光地産,,株式会社,山梨県,甲府市,中央２丁目４番２号,,19,201,4000032,,,2023-10-12,清算の結了等,,,2015-10-05,1,,,,,ハッコウチサン,0
1402,5122001033664,登記記録の閉鎖等,0,2023-10-18,2023-10-13,株式会社ＡＮＴ’Ｓ,,株式会社,大阪府,八尾市,太子堂１丁目４番２６号,,27,212,5810063,,,2023-10-13,清算の結了等,,,2020-05-12,1,,,,,アンツ,0
1416,5140002043425,登記記録の閉鎖等,0,2023-10-18,2023-10-12,有限会社リュウズプラネット,,有限会社,兵庫県,尼崎市,大庄西町２丁目１６番１９号,,28,202,6600077,,,2023-10-12,清算の結了等,,,2015-10-05,1,,,,,リュウズプラネット,0
1419,5140005002923,登記記録の閉鎖等,0,2023-10-18,2023-10-16,新甲南協同組合,,その他の設立登記法人,兵庫県,神戸市東灘区,甲南町３丁目６番１２号,,28,101,6580084,,,2023-10-16,清算の結了等,,,2015-10-05,1,,,,,シンコウナン,0
1424,5160001022452,登記記録の閉鎖等,0,2023-10-18,2023-10-12,株式会社箱館山,,株式会社,滋賀県,高島市,今津町日置前４２０１番地４,,25,212,5201655,,,2023-10-12,合併による解散等,4160001012297,令和５年１０月１日兵庫県養父市丹戸８９６番地の２株式会社マックアース（4160001012297）に合併し解散,2020-04-24,1,,,,,ハコダテヤマ,0
1430,5180001043018,登記記録の閉鎖等,0,2023-10-18,2023-10-16,株式会社スーパーボギープランニング,,株式会社,愛知県,名古屋市千種区,見附町１丁目３番地４,,23,101,4640817,,,2023-10-16,清算の結了等,,,2015-10-05,1,,,,,スーパーボギープランニング,0
1431,5180001051581,登記記録の閉鎖等,0,2023-10-18,2023-10-13,株式会社セディナ債権回収,,株式会社,愛知県,名古屋市中区,丸の内２丁目２０番２５号,,23,106,4600002,,,2023-10-13,合併による解散等,5010001132002,令和５年１０月１日東京都江東区豊洲二丁目２番３１号アビリオ債権回収株式会社（5010001132002）に合併し解散,2015-10-05,1,,,,,セディナサイケンカイシュウ,0
1434,5180001126029,登記記録の閉鎖等,0,2023-10-18,2023-10-06,エクセル不動産管理株式会社,,株式会社,愛知県,名古屋市天白区,塩釜口２丁目３０１番地,,23,116,4680073,,,2023-10-06,清算の結了等,,,2016-12-26,1,,,,,エクセルフドウサンカンリ,0
1436,5180001142744,登記記録の閉鎖等,0,2023-10-18,2023-10-10,美濃企画株式会社,,株式会社,愛知県,一宮市,平島１丁目６番５号,,23,203,4910833,,,2023-10-10,清算の結了等,,,2020-09-08,1,,,,,ミノキカク,0
1445,5180301033569,登記記録の閉鎖等,0,2023-10-18,2023-10-04,株式会社ＴａｋＫ．ｉｎｃ,,株式会社,愛知県,刈谷市,松栄町１丁目６番地１３,,23,210,4480806,,,2023-10-04,清算の結了等,,,2020-04-06,1,,,,,タックインコーポレーテッド,0
1453,5190002010453,登記記録の閉鎖等,0,2023-10-18,2023-10-10,有限会社カクマン,,有限会社,三重県,鳥羽市,安楽島町１９４番地の１４,,24,211,5170021,,,2023-10-10,清算の結了等,,,2015-10-05,1,,,,,カクマン,0
1484,5320002020884,登記記録の閉鎖等,0,2023-10-18,2023-10-16,有限会社友食,,有限会社,大分県,中津市,１１４６番地,,44,203,8710099,,,2023-10-16,清算の結了等,,,2015-10-05,1,,,,,トモショク,0
1503,5370001019997,登記記録の閉鎖等,0,2023-10-18,2023-10-12,株式会社千葉義人デザイン事務所,,株式会社,宮城県,仙台市宮城野区,宮城野３丁目６番１５－５０２号,,04,102,9830045,,,2023-10-12,清算の結了等,,,2015-10-05,1,,,,,チバヨシトデザインジムショ,0
1509,5380002015045,登記記録の閉鎖等,0,2023-10-18,2023-10-10,有限会社大伸薬品,,有限会社,福島県,田村郡小野町,大字夏井字夏井７３番地３,,07,522,9633312,,,2023-10-10,清算の結了等,,,2015-10-05,1,,,,,ダイシンヤクヒン,0
1512,5400001007486,登記記録の閉鎖等,0,2023-10-18,2023-10-11,株式会社きらら調剤薬局,,株式会社,岩手県,釜石市,甲子町第１０地割１５９番地８４,,03,211,0260055,,,2023-10-11,合併による解散等,7430001069398,令和５年１０月１日札幌市白石区東札幌五条二丁目４番３０号株式会社アインファーマシーズ（7430001069398）に合併し解散,2015-10-05,1,,,,,キララチョウザイヤッキョク,0
1519,5450002003587,登記記録の閉鎖等,0,2023-10-18,2023-10-12,有限会社谷本保険総合事務所,,有限会社,北海道,旭川市,台場四条１丁目３番５号,,01,204,0708074,,,2023-10-12,清算の結了等,,,2015-10-05,1,,,,,タニモトホケンソウゴウジムショ,0
1528,6010001035336,登記記録の閉鎖等,0,2023-10-18,2023-10-10,アイデアビューロー株式会社,,株式会社,東京都,豊島区,西池袋１丁目１１番１号,,13,116,1710021,,,2023-10-10,合併による解散等,3013301014169,令和５年１０月１日東京都豊島区西池袋一丁目１１番１号株式会社テンダ（3013301014169）に合併し解散,2015-10-05,1,,,,,アイデアビューロー,0
1538,6010001226810,登記記録の閉鎖等,0,2023-10-18,2023-10-05,Ｇｒａｎｄ　Ｃｈａｌｌｅｎｇｅ　Ｅｄｕｃａｔｉｏｎ株式会社,,株式会社,東京都,中央区,銀座５丁目１５番８号,,13,102,1040061,,,2023-10-05,清算の結了等,,,2022-05-26,1,,,,,グランドチャレンジエデュケーション,0
1546,6010002016153,登記記録の閉鎖等,0,2023-10-18,2023-10-10,有限会社青柳総本舗,,有限会社,東京都,渋谷区,恵比寿南２丁目３１番３号,,13,113,1500022,,,2023-10-10,清算の結了等,,,2015-10-05,1,,,,,アオヤギソウホンポ,0
1553,6010102005618,登記記録の閉鎖等,0,2023-10-18,2023-10-06,有限会社番場商店,,有限会社,東京都,八王子市,散田町５丁目４番１０号,,13,201,1930832,,,2023-10-06,清算の結了等,,,2015-10-05,1,,,,,バンバショウテン,0
1557,6010401048301,登記記録の閉鎖等,0,2023-10-18,2023-10-05,株式会社ミッション,,株式会社,東京都,港区,赤坂７丁目１０番６号,,13,103,1070052,,,2023-10-05,清算の結了等,,,2015-10-05,1,,,,,ミッション,0
1572,6010701018202,登記記録の閉鎖等,0,2023-10-18,2023-10-10,株式会社ケイ・ピー・アイ・ファクトリー,,株式会社,神奈川県,鎌倉市,由比ガ浜２丁目１３番３－５０６号,,14,204,2480014,,,2023-10-10,清算の結了等,,,2015-10-05,1,,,,,ケイピーアイファクトリー,0
1583,6011001040771,登記記録の閉鎖等,0,2023-10-18,2023-10-16,ビーピーティ株式会社,,株式会社,東京都,渋谷区,代々木２丁目１９番１２号福与ビル４Ｂ,,13,113,1510053,,,2023-10-16,清算の結了等,,,2015-10-05,1,,,,,ビーピーティ,0
1585,6011001048856,登記記録の閉鎖等,0,2023-10-18,2023-10-11,株式会社伊東設計工房,,株式会社,東京都,渋谷区,本町１丁目３０番１６－２０３号,,13,113,1510071,,,2023-10-11,清算の結了等,,,2015-10-05,1,,,,,イトウセッケイコウボウ,0
1600,6011101050919,登記記録の閉鎖等,0,2023-10-18,2023-10-16,株式会社ＪＢ,,株式会社,東京都,中野区,東中野４丁目４－３－３０２号,,13,114,1640003,,,2023-10-16,清算の結了等,,,2015-10-05,1,,,,,ジェイビー,0
1602,6011101078142,登記記録の閉鎖等,0,2023-10-18,2023-10-13,株式会社アスモフードサービス中日本,,株式会社,東京都,新宿区,西新宿２丁目４番１号,,13,104,1600023,,,2023-10-13,合併による解散等,1011101066449,令和５年１０月１日東京都新宿区西新宿二丁目４番１号株式会社アスモフードサービス（1011101066449）に合併し解散,2016-09-06,1,,,,,アスモフードサービスナカニホン,0
1622,6011701007005,登記記録の閉鎖等,0,2023-10-18,2023-10-11,古川設備株式会社,,株式会社,東京都,江戸川区,東小岩５丁目１７番７号,,13,123,1330052,,,2023-10-11,清算の結了等,,,2015-10-05,1,,,,,フルカワセツビ,0
1634,6013301049617,登記記録の閉鎖等,0,2023-10-18,2023-10-16,株式会社ＰＬＵＭ,,株式会社,東京都,新宿区,市谷砂土原町２丁目７田中保全ビル５階,,13,104,1620842,,,2023-10-16,清算の結了等,,,2022-09-07,1,,,,,プラム,0
1638,6020001043916,登記記録の閉鎖等,0,2023-10-18,2023-10-05,株式会社志村製作所,,株式会社,神奈川県,横浜市鶴見区,岸谷１丁目２８番１６号,,14,101,2300078,,,2023-10-05,清算の結了等,,,2015-10-05,1,,,,,シムラセイサクショ,0
1673,6040001030433,登記記録の閉鎖等,0,2023-10-18,2023-10-02,都設備株式会社,,株式会社,千葉県,浦安市,堀江５丁目１８番２２号,,12,227,2790041,,,2023-10-02,清算の結了等,,,2015-10-05,1,,,,,ミヤコセツビ,0
1675,6040001035622,登記記録の閉鎖等,0,2023-10-18,2023-09-29,株式会社ＪＲＣコーポレーション,,株式会社,埼玉県,三郷市,高州４丁目１０１番地４,,11,237,3410037,,,2023-09-29,清算の結了等,,,2015-10-05,1,,,,,ジェイアールシーコーポレーション,0
1676,6040001069439,登記記録の閉鎖等,0,2023-10-18,2023-10-02,株式会社ブルーシーチャータリング,,株式会社,千葉県,柏市,松ケ崎３４１番地の４０,,12,217,2770835,,,2023-10-02,清算の結了等,,,2015-10-05,1,,,,,ブルーシーチャータリング,0
1679,6040001120531,登記記録の閉鎖等,0,2023-10-18,2023-10-02,株式会社田久保食堂,,株式会社,千葉県,船橋市,市場１丁目８番１号,,12,204,2730001,,,2023-10-02,合併による解散等,3040001077188,令和５年１０月１日千葉県船橋市北本町一丁目４番４号丸伸ビル１０１株式会社ｕｎＬＯＣ（3040001077188）に合併し解散,2021-10-11,1,,,,,タクボショクドウ,0
1681,6040002097307,登記記録の閉鎖等,0,2023-10-18,2023-10-02,有限会社テルミック,,有限会社,千葉県,野田市,七光台２２７番地の１,,12,208,2780051,,,2023-10-02,清算の結了等,,,2015-10-05,1,,,,,テルミック,0
1684,6040005019497,登記記録の閉鎖等,0,2023-10-18,2023-10-03,特定非営利活動法人Ｃｏｄｅ　ｆｏｒ　Ｃｈｉｂａ,,その他の設立登記法人,千葉県,千葉市美浜区,若葉３丁目１番地１８幕張ベイパーククロスレジデンスＳ２－１,,12,106,2610014,,,2023-10-03,清算の結了等,,,2017-04-24,1,,,,,コードフォーチバ,0
1692,6060001013816,登記記録の閉鎖等,0,2023-10-18,2023-10-12,那須建工株式会社,,株式会社,栃木県,那須塩原市,西大和７番３７号,,09,213,3292754,,,2023-10-12,清算の結了等,,,2015-10-05,1,,,,,ナスケンコウ,0
1699,6070001020266,登記記録の閉鎖等,0,2023-10-18,2023-10-13,山一産業株式会社,,株式会社,群馬県,太田市,茂木町７４９番地,,10,205,3730809,,,2023-10-13,清算の結了等,,,2023-10-04,1,,,,,ヤマイチサンギョウ,0
1723,6120001056833,登記記録の閉鎖等,0,2023-10-18,2023-10-13,株式会社調鑑研究所,,株式会社,大阪府,大阪市中央区,島之内１丁目１５番３０号大一ビル,,27,128,5420082,,,2023-10-13,清算の結了等,,,2015-10-05,1,,,,,チョウカンケンキュウショ,0
1734,6120002060231,登記記録の閉鎖等,0,2023-10-18,2023-10-13,有限会社こだまリース,,有限会社,大阪府,大阪市東成区,玉津２丁目１８番１６号,,27,115,5370023,,,2023-10-13,清算の結了等,,,2015-10-05,1,,,,,コダマリース,0
1766,6140001075947,登記記録の閉鎖等,0,2023-10-18,2023-10-13,明成工業株式会社,,株式会社,兵庫県,多可郡多可町,中区天田字西田２１７番地の１６,,28,365,6791115,,,2023-10-13,清算の結了等,,,2015-10-05,1,,,,,メイセイコウギョウ,0
1767,6140001098717,登記記録の閉鎖等,0,2023-10-18,2023-10-10,アルマ電子株式会社,,株式会社,兵庫県,尼崎市,西本町６丁目３７番地ハイツフォーティーセブン１０１号室,,28,202,6600874,,,2023-10-10,清算の結了等,,,2015-10-05,1,,,,,アルマデンシ,0
1770,6140002015794,登記記録の閉鎖等,0,2023-10-18,2023-10-12,有限会社ふる里,,有限会社,兵庫県,神戸市中央区,下山手通７丁目１１番４号,,28,110,6500011,,,2023-10-12,清算の結了等,,,2015-10-05,1,,,,,フルサト,0
1779,6160002004928,登記記録の閉鎖等,0,2023-10-18,2023-10-12,有限会社戸田ハウジング,,有限会社,滋賀県,大津市,衣川１丁目１番１７号,,25,201,5200244,,,2023-10-12,清算の結了等,,,2015-10-05,1,,,,,トダハウジング,0
1789,6180001114189,登記記録の閉鎖等,0,2023-10-18,2023-10-16,株式会社らーく,,株式会社,愛知県,海部郡蟹江町,錦２丁目１１９番地１,,23,425,4970054,,,2023-10-16,清算の結了等,,,2015-10-05,1,,,,,ラーク,0
1792,6180001136134,登記記録の閉鎖等,0,2023-10-18,2023-10-16,株式会社ＳＩＧＭＡ,,株式会社,愛知県,あま市,森６丁目１３番地６,,23,237,4901107,,,2023-10-16,清算の結了等,,,2019-04-10,1,,,,,シグマ,0
1795,6180002011897,登記記録の閉鎖等,0,2023-10-18,2023-10-16,高木商事有限会社,,有限会社,愛知県,名古屋市北区,六が池町２３６番地,,23,103,4620002,,,2023-10-16,清算の結了等,,,2015-10-05,1,,,,,タカギショウジ,0
1797,6180302003041,登記記録の閉鎖等,0,2023-10-18,2023-10-04,有限会社明繊,,有限会社,愛知県,岡崎市,戸崎町字東山１０番地２４,,23,202,4440840,,,2023-10-04,清算の結了等,,,2015-10-05,1,,,,,メイセン,0
1805,6200005010183,登記記録の閉鎖等,0,2023-10-18,2023-09-20,特定非営利活動法人奥飛騨・ゆう２１,,その他の設立登記法人,岐阜県,高山市,奥飛騨温泉郷一重ヶ根１７５７番地の１,00081167,21,203,5061432,,,2023-09-20,清算の結了等,,,2015-10-05,1,,,,,,0
1809,6240001018193,登記記録の閉鎖等,0,2023-10-18,2023-10-12,株式会社増岡マテリアルズ＆リノベーション,,株式会社,広島県,広島市中区,鶴見町４番２５号,,34,101,7300045,,,2023-10-12,合併による解散等,1010001097034,令和５年１０月１日東京都千代田区丸の内一丁目８番２号増岡商事株式会社（1010001097034）に合併し解散,2015-10-05,1,,,,,マスオカマテリアルズアンドリノベーション,0
1842,6370802001525,登記記録の閉鎖等,0,2023-10-18,2023-10-12,有限会社ちひろ金型製作所,,有限会社,宮城県,亘理郡山元町,大平字清水３７番地の４,,04,362,9892206,,,2023-10-12,清算の結了等,,,2015-10-05,1,,,,,チヒロカナガタセイサクショ,0
1854,6430002008983,登記記録の閉鎖等,0,2023-10-18,2023-10-02,有限会社シンエー企画,,有限会社,北海道,札幌市中央区,双子山２丁目１番２４号,,01,101,0640946,,,2023-10-02,清算の結了等,,,2015-10-05,1,,,,,シンエーキカク,0
1857,6430005005425,登記記録の閉鎖等,0,2023-10-18,2023-10-02,一般社団法人マンション修繕協会,,その他の設立登記法人,北海道,札幌市南区,南沢六条３丁目１３番２０号,,01,106,0050826,,,2023-10-02,清算の結了等,,,2015-10-05,1,,,,,マンションシュウゼンキョウカイ,0
1864,6500001003573,登記記録の閉鎖等,0,2023-10-18,2023-10-16,株式会社文宝堂,,株式会社,愛媛県,松山市,歩行町１丁目１３番地８,,38,201,7900801,,,2023-10-16,清算の結了等,,,2015-10-05,1,,,,,ブンポウドウ,0
1885,7010101006789,登記記録の閉鎖等,0,2023-10-18,2023-10-06,株式会社医療サポート秋桜,,株式会社,東京都,八王子市,中野町２１３６番地の１,,13,201,1920015,,,2023-10-06,清算の結了等,,,2015-10-05,1,,,,,イリョウサポートコスモス,0
1888,7010101013323,登記記録の閉鎖等,0,2023-10-18,2023-10-10,株式会社クリアエイト,,株式会社,東京都,八王子市,小門町７７番５号,,13,201,1920054,,,2023-10-10,清算の結了等,,,2018-06-06,1,,,,,クリアエイト,0
1890,7010401016843,登記記録の閉鎖等,0,2023-10-18,2023-10-02,株式会社ダイヤモンド・アスレティックス,,株式会社,東京都,港区,白金台５丁目６番９号ウインドベース白金３０７,,13,103,1080071,,,2023-10-02,清算の結了等,,,2015-10-05,1,,,,,ダイヤモンドアスレティックス,0
1891,7010401094550,登記記録の閉鎖等,0,2023-10-18,2023-10-05,カムイ・キャピタル株式会社,,株式会社,東京都,中央区,日本橋茅場町２丁目１２番１０号ＰＭＯＥＸ日本橋茅場町４階,,13,102,1030025,,,2023-10-05,清算の結了等,,,2015-10-05,1,,,,,カムイキャピタル,0
1906,7010405012418,登記記録の閉鎖等,0,2023-10-18,2023-10-02,一般社団法人夢を育てる大学校,,その他の設立登記法人,東京都,港区,南青山２丁目２番１５号ウィン青山９４２,,13,103,1070062,,,2023-10-02,清算の結了等,,,2015-10-05,1,,,,,ユメヲソダテルダイガッコウ,0
1933,7011101078141,登記記録の閉鎖等,0,2023-10-18,2023-10-13,株式会社アスモフードサービス首都圏,,株式会社,東京都,新宿区,西新宿２丁目４番１号,,13,104,1600023,,,2023-10-13,合併による解散等,1011101066449,令和５年１０月１日東京都新宿区西新宿二丁目４番１号株式会社アスモフードサービス（1011101066449）に合併し解散,2016-09-06,1,,,,,アスモフードサービスシュトケン,0
1947,7011801014206,登記記録の閉鎖等,0,2023-10-18,2023-10-13,株式会社コーエイ電気,,株式会社,東京都,葛飾区,西亀有１丁目３１番１号,,13,122,1240002,,,2023-10-13,清算の結了等,,,2015-10-05,1,,,,,コーエイデンキ,0
1963,7020001068697,登記記録の閉鎖等,0,2023-10-18,2023-10-05,ワタトー商事株式会社,,株式会社,神奈川県,川崎市宮前区,鷺沼４丁目１番２９号,,14,136,2160004,,,2023-10-05,清算の結了等,,,2015-10-05,1,,,,,ワタトーショウジ,0
1969,7020002010807,登記記録の閉鎖等,0,2023-10-18,2023-10-04,有限会社室岡畜産,,有限会社,神奈川県,横浜市磯子区,森３丁目１４番３６号,,14,107,2350023,,,2023-10-04,清算の結了等,,,2015-10-05,1,,,,,ムロオカチクサン,0
1974,7021001030275,登記記録の閉鎖等,0,2023-10-18,2023-10-10,株式会社エフォート,,株式会社,神奈川県,海老名市,社家３丁目１２番２７号,,14,215,2430424,,,2023-10-10,清算の結了等,,,2015-10-05,1,,,,,エフォート,0
1985,7021002059082,登記記録の閉鎖等,0,2023-10-18,2023-10-10,有限会社西野工務店,,有限会社,神奈川県,秦野市,鶴巻南１丁目３１番１０号,,14,211,2570002,,,2023-10-10,清算の結了等,,,2015-10-05,1,,,,,ニシノコウムテン,0
1989,7030001041281,登記記録の閉鎖等,0,2023-10-18,2023-09-28,株式会社額販,,株式会社,埼玉県,上尾市,向山２丁目１８番地１,,11,219,3620045,,,2023-09-28,清算の結了等,,,2015-10-05,1,,,,,ガクハン,0
2012,7040002031603,登記記録の閉鎖等,0,2023-10-18,2023-10-16,有限会社羽澤メディック,,有限会社,千葉県,船橋市,葛飾町２丁目３８８番地２,,12,204,2730032,,,2023-10-16,合併による解散等,1010401099299,令和５年１０月１日東京都港区南麻布五丁目１４番４－４０５号株式会社セレネ（1010401099299）に合併し解散,2015-10-05,1,,,,,ハザワメディック,0
2035,7080402009154,登記記録の閉鎖等,0,2023-10-18,2023-10-16,有限会社石塚製作所,,有限会社,静岡県,湖西市,鷲津２３４１番地の１,,22,221,4310431,,,2023-10-16,清算の結了等,,,2015-10-05,1,,,,,イシヅカセイサクショ,0
2036,7080403002513,登記記録の閉鎖等,0,2023-10-18,2023-10-13,合資会社高橋酒店,,合資会社,静岡県,磐田市,中泉１３５１番地,,22,211,4380078,,,2023-10-13,清算の結了等,,,2015-10-05,1,,,,,タカハシサケテン,0
2048,7120001152499,登記記録の閉鎖等,0,2023-10-18,2023-10-12,株式会社クリーンライフ,,株式会社,大阪府,寝屋川市,木田町１９番２６号,,27,215,5720836,,,2023-10-12,清算の結了等,,,2015-10-05,1,,,,,クリーンライフ,0
2057,7120002010251,登記記録の閉鎖等,0,2023-10-18,2023-10-12,有限会社本田木工所,,有限会社,大阪府,大阪市生野区,巽南５丁目１４番１０号,00030391,27,116,5440015,,,2023-10-12,清算の結了等,,,2015-10-05,1,,,,,ホンダモッコウショ,0
2063,7120005010686,登記記録の閉鎖等,0,2023-10-18,2023-10-10,特定非営利活動法人近畿水の塾,,その他の設立登記法人,大阪府,大阪市北区,天神橋２丁目１－４６－６０２,,27,127,5300041,,,2023-10-10,清算の結了等,,,2015-10-05,1,,,,,,0
2073,7122001005595,登記記録の閉鎖等,0,2023-10-18,2023-10-11,株式会社二虎,,株式会社,大阪府,東大阪市,高井田西１丁目４番４号,,27,227,5770067,,,2023-10-11,清算の結了等,,,2015-10-05,1,,,,,ニコ,0
2075,7122001036260,登記記録の閉鎖等,0,2023-10-18,2023-09-22,株式会社ＳＲＧ,,株式会社,東京都,渋谷区,道玄坂１丁目１０番８号渋谷道玄坂東急ビル２Ｆ－Ｃ,,13,113,1500043,,,2023-09-22,清算の結了等,,,2022-09-28,1,,,,,エスアールジー,0
2081,7130001043524,登記記録の閉鎖等,0,2023-10-18,2023-10-12,株式会社デジタル．クリエイト．エム,,株式会社,京都府,舞鶴市,字余部上４５０番地,,26,202,6250083,,,2023-10-12,合併による解散等,6130001043649,令和５年１０月１日京都府舞鶴市字和田１０６７番地の２株式会社舞鶴計器（6130001043649）に合併し解散,2015-10-05,1,,,,,デジタルクリエイトエム,0
2090,7140001094335,登記記録の閉鎖等,0,2023-10-18,2023-10-11,株式会社新日本旅行企画,,株式会社,兵庫県,豊岡市,寿町１０番２７号,,28,209,6680024,,,2023-10-11,清算の結了等,,,2015-10-05,1,,,,,シンニホンリョコウキカク,0
2093,7140002049701,登記記録の閉鎖等,0,2023-10-18,2023-10-11,有限会社テクノワークス・ヤザワ,,有限会社,兵庫県,姫路市,林田町林谷５８９番地の１２,,28,201,6794221,,,2023-10-11,清算の結了等,,,2015-10-05,1,,,,,テクノワークスヤザワ,0
2094,7140003014588,登記記録の閉鎖等,0,2023-10-18,2023-10-13,合同会社ユミー企画,,合同会社,兵庫県,加古川市,東神吉町砂部３５４番地の１２２,,28,210,6750056,,,2023-10-13,清算の結了等,,,2020-01-14,1,,,,,ユミーキカク,0
2098,7180001000207,登記記録の閉鎖等,0,2023-10-18,2023-10-12,株式会社大島工業所,,株式会社,愛知県,名古屋市守山区,小幡千代田５番７号,,23,113,4630053,,,2023-10-12,清算の結了等,,,2015-10-05,1,,,,,オオシマコウギョウショ,0
2104,7180001132165,登記記録の閉鎖等,0,2023-10-18,2023-10-16,株式会社エムプラス,,株式会社,愛知県,名古屋市西区,又穂町２丁目１９番地,,23,104,4510014,,,2023-10-16,清算の結了等,,,2018-05-07,1,,,,,エムプラス,0
2107,7180002028734,登記記録の閉鎖等,0,2023-10-18,2023-10-16,有限会社ばっかす,,有限会社,愛知県,名古屋市中村区,名駅４丁目９番８号センチュリー豊田ビルディング,,23,105,4500002,,,2023-10-16,清算の結了等,,,2015-10-05,1,,,,,バッカス,0
2112,7180003013388,登記記録の閉鎖等,0,2023-10-18,2023-10-12,カスガ住宅合同会社,,合同会社,愛知県,半田市,花園町３丁目３番地の１０,,23,205,4750833,,,2023-10-12,清算の結了等,,,2015-10-05,1,,,,,カスガジュウタク,0
2123,7210002010845,登記記録の閉鎖等,0,2023-10-18,2023-10-06,有限会社和幸,,有限会社,福井県,敦賀市,新和町２丁目３３番３号,,18,202,9140122,,,2023-10-06,清算の結了等,,,2015-10-05,1,,,,,ワコウ,0
2124,7210005005999,登記記録の閉鎖等,0,2023-10-18,2023-10-11,特定非営利活動法人奥越ＥＭ環境浄化の会,,その他の設立登記法人,福井県,大野市,高砂町１５番１０号,,18,205,9120055,,,2023-10-11,清算の結了等,,,2015-10-05,1,,,,,オクエツイーエムカンキョウジョウカノカイ,0
2131,7250001003318,登記記録の閉鎖等,0,2023-10-18,2023-10-12,株式会社末永理化学,,株式会社,山口県,宇部市,大字善和５９１番地の７,,35,202,7590134,,,2023-10-12,合併による解散等,1330001018362,令和５年１０月１日熊本県荒尾市高浜１９７８番地株式会社旭製作所（1330001018362）に合併し解散,2015-10-05,1,,,,,スエナガリカガク,0
2150,7310002016543,登記記録の閉鎖等,0,2023-10-18,2023-10-12,有限会社小浜総業,,有限会社,長崎県,雲仙市,小浜町山畑９８７番地１,,42,213,8540502,,,2023-10-12,清算の結了等,,,2015-10-05,1,,,,,オバマソウギョウ,0
2168,7360003002604,登記記録の閉鎖等,0,2023-10-18,2023-10-12,イニシャルエイジ合同会社,,合同会社,沖縄県,島尻郡南風原町,字本部４２１番地の１７Ｂ─１８,,47,350,9011112,,,2023-10-12,清算の結了等,,,2015-10-05,1,,,,,イニシャルエイジ,0
2170,7370002003949,登記記録の閉鎖等,0,2023-10-18,2023-10-11,有限会社三戸部内装,,有限会社,宮城県,仙台市太白区,東郡山２丁目１２番１６号,,04,104,9820006,,,2023-10-11,清算の結了等,,,2015-10-05,1,,,,,ミトベナイソウ,0
2173,7390001011793,登記記録の閉鎖等,0,2023-10-18,2023-10-10,三共設備工業株式会社,,株式会社,山形県,寒河江市,大字柴橋字下鎌９７６番地の１,,06,206,9910063,,,2023-10-10,合併による解散等,7390001011694,令和５年１０月１日山形県寒河江市高田三丁目１３０番地の１株式会社アイテック山形（7390001011694）に合併し解散,2015-10-05,1,,,,,サンキョウセツビコウギョウ,0
2191,7460101004129,登記記録の閉鎖等,0,2023-10-18,2023-10-13,株式会社さくらホーム,,株式会社,北海道,帯広市,西一条南２６丁目１１番地,,01,207,0800011,,,2023-10-13,清算の結了等,,,2015-10-05,1,,,,,サクラホーム,0
2212,8010003031595,登記記録の閉鎖等,0,2023-10-18,2023-10-06,合同会社ＡＬＥＲＯ５４,,合同会社,東京都,千代田区,神田錦町１丁目２１番１号,,13,101,1010054,,,2023-10-06,清算の結了等,,,2020-02-07,1,,,,,アレーロフィフティーフォー,0
2223,8010401044199,登記記録の閉鎖等,0,2023-10-18,2023-10-02,株式会社さ・く・ら,,株式会社,東京都,港区,高輪４丁目２２番１号フィールド高輪３階,,13,103,1080074,,,2023-10-02,清算の結了等,,,2015-10-05,1,,,,,サクラ,0
2238,8010602007319,登記記録の閉鎖等,0,2023-10-18,2023-10-10,有限会社日の出屋,,有限会社,東京都,江東区,扇橋２丁目２１番２号,,13,108,1350011,,,2023-10-10,清算の結了等,,,2015-10-05,1,,,,,ヒノデヤ,0
2252,8011001047600,登記記録の閉鎖等,0,2023-10-18,2023-10-16,株式会社ＴＡＯＳ,,株式会社,東京都,渋谷区,恵比寿３丁目１０番１０号,,13,113,1500013,,,2023-10-16,清算の結了等,,,2015-10-05,1,,,,,,0
2259,8011101089014,登記記録の閉鎖等,0,2023-10-18,2023-10-16,株式会社エディック,,株式会社,東京都,新宿区,百人町２丁目４番５－５０５号,,13,104,1690073,,,2023-10-16,清算の結了等,,,2019-09-24,1,,,,,エディック,0
2260,8011101089996,登記記録の閉鎖等,0,2023-10-18,2023-10-16,株式会社ＴＲＨ,,株式会社,東京都,新宿区,北新宿３丁目２８番５号,,13,104,1690074,,,2023-10-16,清算の結了等,,,2020-01-07,1,,,,,ティーアールエイチ,0
2284,8012701000162,登記記録の閉鎖等,0,2023-10-18,2023-10-12,株式会社大塚油司,,株式会社,東京都,小平市,天神町４丁目２９番３号,,13,211,1870004,,,2023-10-12,合併による解散等,9020001020367,令和５年１０月１日横浜市港北区篠原町１２００番地三和エナジー株式会社（9020001020367）に合併し解散,2015-10-05,1,,,,,オオツカユシ,0
2291,8020001006912,登記記録の閉鎖等,0,2023-10-18,2023-10-05,株式会社横浜山田商会,,株式会社,神奈川県,横浜市金沢区,能見台通２１番１９号,,14,108,2360053,,,2023-10-05,清算の結了等,,,2015-10-05,1,,,,,ヨコハマヤマダショウカイ,0
2299,8030001065528,登記記録の閉鎖等,0,2023-10-18,2023-09-29,株式会社久慈,,株式会社,埼玉県,吉川市,中野１８３番地１,,11,243,3420042,,,2023-09-29,清算の結了等,,,2015-10-05,1,,,,,クジ,0
2323,8070002014983,登記記録の閉鎖等,0,2023-10-18,2023-10-12,有限会社中島アルミ,,有限会社,群馬県,安中市,松井田町五料６４８番地,,10,211,3790302,,,2023-10-12,清算の結了等,,,2015-10-05,1,,,,,ナカジマアルミ,0
2335,8090002012606,登記記録の閉鎖等,0,2023-10-18,2023-10-12,有限会社満州屋,,有限会社,山梨県,富士吉田市,上吉田東１丁目１０番６７号,,19,202,4030032,,,2023-10-12,清算の結了等,,,2015-10-05,1,,,,,マンシュウヤ,0
2342,8120001231145,登記記録の閉鎖等,0,2023-10-18,2023-10-12,株式会社ｅａｃｈ　Ｂｒａｎｄ,,株式会社,兵庫県,神戸市中央区,山本通２丁目９－１９北野メディウム邸,,28,110,6500003,,,2023-10-12,清算の結了等,,,2020-08-19,1,,,,,イーチブランド,0
2366,8130002032161,登記記録の閉鎖等,0,2023-10-18,2023-10-02,有限会社ムクボ文明堂,,有限会社,京都府,宮津市,字本町１０１５番地,,26,205,6260018,,,2023-10-02,清算の結了等,,,2015-10-05,1,,,,,ムクボブンメイドウ,0
2373,8140001003807,登記記録の閉鎖等,0,2023-10-18,2023-10-13,西日本綜合設備株式会社,,株式会社,兵庫県,神戸市灘区,灘南通１丁目２番７号,,28,102,6570841,,,2023-10-13,合併による解散等,3120001062578,令和５年１０月１日大阪市北区中之島三丁目３番２３号興産管理サービス・西日本株式会社（3120001062578）に合併し解散,2015-10-05,1,,,,,ニシニホンソウゴウセツビ,0
2374,8140001048637,登記記録の閉鎖等,0,2023-10-18,2023-10-12,源長株式会社,,株式会社,大阪府,大阪市西淀川区,佃３丁目１０番８号,,27,113,5550001,,,2023-10-12,清算の結了等,,,2015-10-05,1,,,,,ゲンチョウ,0
2391,8180001078192,登記記録の閉鎖等,0,2023-10-18,2023-10-16,株式会社ハーリス,,株式会社,愛知県,小牧市,新町２丁目２４６番地,,23,219,4850013,,,2023-10-16,清算の結了等,,,2015-10-05,1,,,,,ハーリス,0
2409,8180002075998,登記記録の閉鎖等,0,2023-10-18,2023-10-13,有限会社小沢工業所,,有限会社,愛知県,一宮市,萩原町朝宮字神明前２４番地,,23,203,4910354,,,2023-10-13,清算の結了等,,,2015-10-05,1,,,,,コザワコウギョウショ,0
2419,8190003002884,登記記録の閉鎖等,0,2023-10-18,2023-10-16,Ｆ－ＢＯＸ合同会社,,合同会社,三重県,鈴鹿市,稲生町７９４４番地の１２,,24,207,5100201,,,2023-10-16,清算の結了等,,,2018-04-10,1,,,,,エフボックス,0
2446,8330001020196,登記記録の閉鎖等,0,2023-10-18,2023-10-06,株式会社ジニアス,,株式会社,熊本県,熊本市東区,上南部２丁目１番１００号,,43,102,8618010,,,2023-10-06,合併による解散等,1330001005906,令和５年１０月１日熊本市東区上南部二丁目１番１００号サン・クエスト株式会社（1330001005906）に合併し解散,2015-10-05,1,,,,,ジニアス,0
2469,8390002015231,登記記録の閉鎖等,0,2023-10-18,2023-10-16,有限会社いいで旅館,,有限会社,山形県,西置賜郡飯豊町,大字椿４４９４番地,,06,403,9990604,,,2023-10-16,清算の結了等,,,2015-10-05,1,,,,,,0
2473,8410002011582,登記記録の閉鎖等,0,2023-10-18,2023-10-06,有限会社田村薬局,,有限会社,秋田県,大仙市,大曲通町２番３３号,,05,212,0140027,,,2023-10-06,清算の結了等,,,2015-10-05,1,,,,,タムラヤッキョク,0
2480,8470002018011,登記記録の閉鎖等,0,2023-10-18,2023-10-12,有限会社植田精肉店,,有限会社,香川県,さぬき市,津田町津田１１５７番地６,,37,206,7692401,,,2023-10-12,清算の結了等,,,2015-10-05,1,,,,,ウエタセイニクテン,0
2487,9010001048203,登記記録の閉鎖等,0,2023-10-18,2023-10-05,株式会社正和,,株式会社,東京都,中央区,新川１丁目２番１２号,,13,102,1040033,,,2023-10-05,合併による解散等,8010001040045,令和５年１０月１日東京都中央区新川一丁目２番１２号金山印刷株式会社（8010001040045）に合併し解散,2015-10-05,1,,,,,セイワ,0
2497,9010005019803,登記記録の閉鎖等,0,2023-10-18,2023-10-13,山佐産業２００２ＨＫ一般社団法人,,その他の設立登記法人,東京都,千代田区,丸の内３丁目１番１号東京共同会計事務所内,,13,101,1000005,,,2023-10-13,清算の結了等,,,2015-10-05,1,,,,,ヤマササンギョウニセンニエイチケイ,0
2498,9010005028440,登記記録の閉鎖等,0,2023-10-18,2023-10-12,特定非営利活動法人Ｎｏｄｅ,,その他の設立登記法人,東京都,中央区,日本橋兜町１７番２号兜町第６葉山ビル４階,,13,102,1030026,,,2023-10-12,清算の結了等,,,2018-04-23,1,,,,,ノード,0
2528,9010901043294,登記記録の閉鎖等,0,2023-10-18,2023-10-10,株式会社ＢＥＬＬＳ＆ＷＥＬＬＳ,,株式会社,東京都,世田谷区,玉川４丁目２５番５号,,13,112,1580094,,,2023-10-10,清算の結了等,,,2018-12-13,1,,,,,ベルズアンドウェルズ,0
2535,9011001129372,登記記録の閉鎖等,0,2023-10-18,2023-10-11,株式会社Ｇｒａｎｄ　ｐｅｃｈｅ,,株式会社,東京都,目黒区,東山１丁目８番６－６０４号,,13,110,1530043,,,2023-10-11,清算の結了等,,,2019-08-07,1,,,,,グランペシェ,0
2545,9011101024770,登記記録の閉鎖等,0,2023-10-18,2023-10-13,株式会社トーハン・インターメディア,,株式会社,東京都,新宿区,東五軒町６番２４号,,13,104,1620813,,,2023-10-13,合併による解散等,3011101014587,令和５年１０月１日東京都新宿区東五軒町６番２４号株式会社トーハン（3011101014587）に合併し解散,2015-10-05,1,,,,,トーハンインターメディア,0
2556,9011401012137,登記記録の閉鎖等,0,2023-10-18,2023-10-10,株式会社トゥティン,,株式会社,神奈川県,横須賀市,ハイランド１丁目３１番７号,,14,201,2390833,,,2023-10-10,清算の結了等,,,2015-10-05,1,,,,,トゥティン,0
2588,9020001053334,登記記録の閉鎖等,0,2023-10-18,2023-10-02,株式会社ＰＲスタッフ,,株式会社,神奈川県,横浜市旭区,東希望が丘２番地４７,,14,112,2410826,,,2023-10-02,清算の結了等,,,2015-10-05,1,,,,,ピーアールスタッフ,0
2590,9020001121719,登記記録の閉鎖等,0,2023-10-18,2023-10-04,株式会社ＢＳＢ通訳,,株式会社,神奈川県,横浜市中区,尾上町６丁目８７－１,,14,104,2310015,,,2023-10-04,清算の結了等,,,2017-06-13,1,,,,,ビーエスビーツウヤク,0
2593,9020002014021,登記記録の閉鎖等,0,2023-10-18,2023-10-06,有限会社北川酒店,,有限会社,神奈川県,横浜市青葉区,美しが丘３丁目１９番地１,,14,117,2250002,,,2023-10-06,清算の結了等,,,2015-10-05,1,,,,,キタガワサケテン,0
2598,9020005012716,登記記録の閉鎖等,0,2023-10-18,2023-09-29,特定非営利活動法人有機活性技術振興会,,その他の設立登記法人,神奈川県,横浜市緑区,竹山３丁目２番地２竹山団地３２１２棟１２４５号,,14,113,2260005,,,2023-09-29,清算の結了等,,,2016-07-26,1,,,,,ユウキカッセイギジュツシンコウカイ,0
2606,9021002057704,登記記録の閉鎖等,0,2023-10-18,2023-10-10,有限会社弘文堂印刷,,有限会社,神奈川県,平塚市,幸町１番５号,,14,203,2540804,,,2023-10-10,清算の結了等,,,2015-10-05,1,,,,,,0
2613,9030002101388,登記記録の閉鎖等,0,2023-10-18,2023-10-05,有限会社ＧＡＲＩ,,有限会社,東京都,新宿区,西新宿１丁目２６番２号新宿野村ビル３２階,,13,104,1600023,,,2023-10-05,清算の結了等,,,2015-10-05,1,,,,,ガリ,0
2623,9040001107286,登記記録の閉鎖等,0,2023-10-18,2023-09-29,株式会社ＧＥＮＯＷＯＲＴＨ,,株式会社,千葉県,流山市,おおたかの森北１丁目５番地の４クロシェットおおたかの森２階,,12,220,2700119,,,2023-09-29,合併による解散等,7040001119267,令和５年９月１日千葉県柏市柏一丁目１番２０号スカイプラザ８階株式会社ＣＡＲＴＯＮ（7040001119267）に合併し解散,2018-12-13,1,,,,,ジェノワース,0
2641,9060002023233,登記記録の閉鎖等,0,2023-10-18,2023-10-12,有限会社人見畳工業所,,有限会社,栃木県,那須郡那須町,大字高久甲４５５番地６,,09,407,3250001,,,2023-10-12,清算の結了等,,,2015-10-05,1,,,,,ヒトミタタミコウギョウショ,0
2642,9070002030757,登記記録の閉鎖等,0,2023-10-18,2023-10-12,有限会社富士技研,,有限会社,群馬県,邑楽郡大泉町,富士３丁目１番１４号,,10,524,3700522,,,2023-10-12,清算の結了等,,,2015-10-05,1,,,,,フジギケン,0
2654,9120001017320,登記記録の閉鎖等,0,2023-10-18,2023-10-13,株式会社クニモト工業,,株式会社,大阪府,大阪市生野区,巽西４丁目５番６４号,00027309,27,116,5440012,,,2023-10-13,清算の結了等,,,2015-10-05,1,,,,,クニモトコウギョウ,0
2655,9120001081928,登記記録の閉鎖等,0,2023-10-18,2023-10-11,株式会社新栄,,株式会社,大阪府,大阪市東淀川区,井高野１丁目３４番２６号,,27,114,5330001,,,2023-10-11,清算の結了等,,,2015-10-05,1,,,,,シンエイ,0
2671,9120902020868,登記記録の閉鎖等,0,2023-10-18,2023-10-10,ユタカ運輸有限会社,,有限会社,大阪府,豊中市,走井２丁目２番２３号,,27,203,5610891,,,2023-10-10,清算の結了等,,,2015-10-05,1,,,,,ユタカウンユ,0
2673,9122002014189,登記記録の閉鎖等,0,2023-10-18,2023-10-10,有限会社高岡芳清堂,00034865,有限会社,大阪府,八尾市,美園町４丁目３０番地の２,,27,212,5810818,,,2023-10-10,清算の結了等,,,2015-10-05,1,,,,,タカオカホウセイドウ,0
2675,9130001047746,登記記録の閉鎖等,0,2023-10-18,2023-10-02,京都紅葉株式会社,,株式会社,京都府,京都市中京区,車屋町通二条下る仁王門突抜町３２５番地,,26,104,6040841,,,2023-10-02,合併による解散等,2130001050608,令和５年１０月１日京都市中京区車屋町通二条下ル仁王門突抜町３２５番地サンラッキーサービス株式会社（2130001050608）に合併し解散,2015-10-05,1,,,,,キョウトコウヨウ,0
2677,9140001127811,登記記録の閉鎖等,0,2023-10-18,2023-10-12,Ｃｏｄａｗａｒｉ株式会社,,株式会社,兵庫県,神戸市中央区,山本通２丁目９番１９号北野メディウム邸,,28,110,6500003,,,2023-10-12,清算の結了等,,,2022-11-01,1,,,,,コダワリ,0
2688,9160005003230,登記記録の閉鎖等,0,2023-10-18,2023-10-16,医療法人社団松原耳鼻咽喉科医院,,その他の設立登記法人,滋賀県,長浜市,地福寺町１番１１号,,25,203,5260036,,,2023-10-16,清算の結了等,,,2015-10-05,1,,,,,マツバラジビインコウカイイン,0
2690,9160005009748,登記記録の閉鎖等,0,2023-10-18,2023-10-16,近江上宮会,,その他の設立登記法人,滋賀県,東近江市,垣見町７７８番地,,25,213,5211221,,,2023-10-16,清算の結了等,,,2015-10-05,1,,,,,,0
2695,9180001110557,登記記録の閉鎖等,0,2023-10-18,2023-10-12,株式会社Ｓａｎｋｉ　Ｍ＆Ｄ,,株式会社,愛知県,名古屋市港区,木場町８番地１２２,,23,111,4550021,,,2023-10-12,清算の結了等,,,2015-10-05,1,,,,,サンキエムアンドディー,0
2698,9180001122503,登記記録の閉鎖等,0,2023-10-18,2023-10-11,フジプラントテクノ株式会社,,株式会社,東京都,渋谷区,広尾１丁目１番３５－６１０号,,13,113,1500012,,,2023-10-11,清算の結了等,,,2016-03-14,1,,,,,フジプラントテクノ,0
2710,9190001027214,登記記録の閉鎖等,0,2023-10-18,2023-10-13,ゴールドエステイト株式会社,,株式会社,愛知県,名古屋市中村区,名駅３丁目１１番２２号,,23,105,4500002,,,2023-10-13,合併による解散等,2180001112551,令和５年１０月１３日名古屋市中村区名駅三丁目１１番２２号ゴールドトラスト株式会社（2180001112551）に合併し解散,2020-03-27,1,,,,,ゴールドエステイト,0
2726,9260005004350,登記記録の閉鎖等,0,2023-10-18,2023-10-13,医療法人おさき歯科,,その他の設立登記法人,岡山県,倉敷市,児島田の口４丁目１１番１号,,33,202,7110903,,,2023-10-13,清算の結了等,,,2015-10-05,1,,,,,オサキシカ,0
2737,9290003010397,登記記録の閉鎖等,0,2023-10-18,2023-10-03,合同会社ＡＩ　Ａｓｓｏｃｉａｔｅ,,合同会社,福岡県,福岡市中央区,天神３丁目１０番３０号１階,,40,133,8100001,,,2023-10-03,清算の結了等,,,2020-09-10,1,,,,,エイアイアソシエイツ,0
2743,9310002006641,登記記録の閉鎖等,0,2023-10-18,2023-10-16,有限会社丸和コンストラクション,,有限会社,長崎県,長崎市,網場町４９１番地,,42,201,8510123,,,2023-10-16,清算の結了等,,,2015-10-05,1,,,,,マルワコンストラクション,0
2746,9320001019726,登記記録の閉鎖等,0,2023-10-18,2023-10-17,株式会社Ｂ‐ＦＬＡＴ,,株式会社,大分県,大分市,都町３丁目６番３８号,,44,201,8700034,,,2023-10-17,清算の結了等,,,2023-04-27,1,,,,,ビーフラット,0
2763,9370802002264,登記記録の閉鎖等,0,2023-10-18,2023-10-13,有限会社青葉興産,,有限会社,宮城県,名取市,ゆりが丘１丁目９番地の１６,,04,207,9811245,,,2023-10-13,清算の結了等,,,2015-10-05,1,,,,,,0
2764,9380002002502,登記記録の閉鎖等,0,2023-10-18,2023-10-11,有限会社トム企画,,有限会社,福島県,福島市,渡利字七社宮２６番地の２メゾンパレス２０５,,07,201,9608141,,,2023-10-11,清算の結了等,,,2015-10-05,1,,,,,トムキカク,0
2768,9400001001188,登記記録の閉鎖等,0,2023-10-18,2023-10-13,中川石油株式会社,,株式会社,岩手県,盛岡市,本宮６丁目４番７号,,03,201,0200866,,,2023-10-13,合併による解散等,2010001126403,令和５年１０月２日東京都中央区新富一丁目１８番８号出光リテール販売株式会社（2010001126403）に合併し解散,2015-10-05,1,,,,,ナカガワセキユ,0
2777,9430002061889,登記記録の閉鎖等,0,2023-10-18,2023-10-02,有限会社ミヤシタ,,有限会社,北海道,日高郡新ひだか町,静内青柳町２丁目８番１０号,,01,610,0560019,,,2023-10-02,清算の結了等,,,2015-10-05,1,,,,,ミヤシタ,0
2784,9490002003489,登記記録の閉鎖等,0,2023-10-18,2023-10-16,有限会社デリンベイク,,有限会社,高知県,高知市,はりまや町１丁目９番３号,,39,201,7800822,,,2023-10-16,清算の結了等,,,2015-10-05,1,,,,,デリンベイク,0
