sequenceNumber,corporateNumber,process,correct,updateDate,changeDate,name,nameImageId,kind,prefectureName,cityName,streetNumber,addressImageId,prefectureCode,cityCode,postCode,addressOutside,addressOutsideImageId,closeDate,closeCause,successorCorporateNumber,changeCause,assignmentDate,latest,enName,enPrefectureName,enCityName,enAddressOutside,furigana,hihyoji
5,1010001226071,新規,0,2022-04-27,2022-04-27,株式会社上海技術取引所,,株式会社,東京都,文京区,本郷４丁目１番７号５Ｆ,,13,105,1130033,,,,,,,2022-04-27,1,,,,,シャンハイギジュツトリヒキジョ,0
9,1010401166719,新規,0,2022-04-27,2022-04-27,ＺｏｎＥｘｐｅｒｔ株式会社,,株式会社,東京都,港区,浜松町２丁目２番１５号浜松町ダイヤビル２Ｆ,,13,103,1050013,,,,,,,2022-04-27,1,,,,,ゾンエキスパート,0
16,1010601061050,新規,0,2022-04-27,2022-04-27,Ｈｉｇｈ　Ｗｅａｌｔｈ　Ｆａｍｉｌｙ　Ｏｆｆｉｃｅ株式会社,,株式会社,東京都,江東区,豊洲５丁目１番１３号ブランズタワー豊洲４７０９号室,,13,108,1350061,,,,,,,2022-04-27,1,,,,,ハイウェルスファミリーオフィス,0
17,1010605004071,新規,0,2022-04-27,2022-04-27,ジャパン・タテヤマ特定目的会社,,その他の設立登記法人,東京都,江東区,亀戸６丁目５６番１５号,,13,108,1360071,,,,,,,2022-04-27,1,,,,,ジャパンタテヤマ,0
21,1010703006201,新規,0,2022-04-27,2022-04-27,合同会社桝の匠,,合同会社,東京都,品川区,南品川５丁目１１番４８－１０５号,,13,109,1400004,,,,,,,2022-04-27,1,,,,,マスノタクミ,0
24,1010905004291,新規,0,2022-04-27,2022-04-27,特定非営利活動法人教育格差是正協会,,その他の設立登記法人,東京都,世田谷区,中町５丁目１０番２９号,,13,112,1580091,,,,,,,2022-04-27,1,,,,,キョウイクカクサゼセイキョウカイ,0
31,1011001147175,新規,0,2022-04-27,2022-04-27,ＫＴＴホールディングス株式会社,,株式会社,東京都,渋谷区,西原２丁目９番６号,,13,113,1510066,,,,,,,2022-04-27,1,,,,,ケイティティホールディングス,0
32,1011001147225,新規,0,2022-04-27,2022-04-27,株式会社ＣＯＬＤＬＩＮＥ,,株式会社,東京都,渋谷区,恵比寿西２丁目２０番８号パーフェクトルーム２０３,,13,113,1500021,,,,,,,2022-04-27,1,,,,,コールドライン,0
33,1011001147233,新規,0,2022-04-27,2022-04-27,株式会社西川事務所,,株式会社,東京都,渋谷区,西原３丁目３７番３号,,13,113,1510066,,,,,,,2022-04-27,1,,,,,サイカワジムショ,0
41,1011201023795,新規,0,2022-04-27,2022-04-27,株式会社おにぎり本舗,,株式会社,東京都,中野区,東中野５丁目１１番８号メゾン小滝台Ｂ１,,13,114,1640003,,,,,,,2022-04-27,1,,,,,オニギリホンポ,0
54,1011701025267,新規,0,2022-04-27,2022-04-27,凌沁科技東京株式会社,,株式会社,東京都,江戸川区,南小岩５丁目１９番２０号シルク小岩２０３室,,13,123,1330056,,,,,,,2022-04-27,1,,,,,リョウシンカギトウキョウ,0
59,1011801040637,新規,0,2022-04-27,2022-04-27,株式会社ＵＮＯ,,株式会社,東京都,足立区,扇１丁目３１番１９号,,13,121,1230873,,,,,,,2022-04-27,1,,,,,ウーノ,0
60,1012303001664,新規,0,2022-04-27,2022-04-27,ユースフル合同会社,,合同会社,東京都,町田市,南町田１丁目３８番３４号,,13,209,1940005,,,,,,,2022-04-27,1,,,,,ユースフル,0
68,1013301049027,新規,0,2022-04-27,2022-04-27,株式会社アイ・エヌ・ジー,,株式会社,東京都,豊島区,東池袋４丁目２１番１－４６０７号,,13,116,1700013,,,,,,,2022-04-27,1,,,,,アイエヌジー,0
84,1020001146277,新規,0,2022-04-27,2022-04-27,キンジロウ株式会社,,株式会社,神奈川県,川崎市多摩区,生田７丁目１４番２０号,,14,135,2140038,,,,,,,2022-04-27,1,,,,,キンジロウ,0
86,1020003021701,新規,0,2022-04-27,2022-04-27,合同会社潮,,合同会社,神奈川県,川崎市宮前区,西野川１丁目２番４０号,,14,136,2160044,,,,,,,2022-04-27,1,,,,,ウシオ,0
89,1021001075796,新規,0,2022-04-27,2022-04-27,株式会社湘南ランドスケープ,,株式会社,神奈川県,中郡大磯町,西久保２３７番地,,14,341,2590104,,,,,,,2022-04-27,1,,,,,,0
95,1030001147943,新規,0,2022-04-27,2022-04-27,株式会社３６９ＢＯＳＡＴＳＵＤＯ,,株式会社,埼玉県,川口市,青木１丁目１５番５－１１４号,,11,203,3320031,,,,,,,2022-04-27,1,,,,,ミロクボサツドウ,0
120,1060001034809,新規,0,2022-04-27,2022-04-27,株式会社ＢｕｎＴ,,株式会社,栃木県,佐野市,犬伏中町２２７５番地２８,,09,204,3270805,,,,,,,2022-04-27,1,,,,,バント,0
121,1070001039187,新規,0,2022-04-27,2022-04-27,祥楔工業株式会社,,株式会社,群馬県,高崎市,保渡田町２２４６番地１,,10,202,3703533,,,,,,,2022-04-27,1,,,,,ショウセツコウギョウ,0
137,1110003004746,新規,0,2022-04-27,2022-04-27,合同会社紬,,合同会社,新潟県,上越市,木田２丁目７番１７号,,15,222,9430805,,,,,,,2022-04-27,1,,,,,ツムギ,0
152,1120001245507,新規,0,2022-04-27,2022-04-27,株式会社谷建工業,,株式会社,大阪府,大阪市平野区,喜連西１丁目１７番２７号,,27,126,5470026,,,,,,,2022-04-27,1,,,,,タニケンコウギョウ,0
153,1120001245523,新規,0,2022-04-27,2022-04-27,中通急便株式会社,,株式会社,大阪府,大阪市中央区,博労町３丁目１－８チサンマンション心斎橋２番館９０６号室,,27,128,5410059,,,,,,,2022-04-27,1,,,,,チュウツウキュウビン,0
154,1120001245531,新規,0,2022-04-27,2022-04-27,株式会社ＲＩＳＥ,,株式会社,大阪府,大阪市阿倍野区,阪南町１丁目１１番１３－３０６号,,27,119,5450021,,,,,,,2022-04-27,1,,,,,ライズ,0
161,1120005022927,新規,0,2022-04-27,2022-04-27,一般社団法人ウインク,,その他の設立登記法人,大阪府,大阪市淀川区,宮原５丁目１番２８号新大阪八千代ビル別館７階Ｆ号,,27,123,5320003,,,,,,,2022-04-27,1,,,,,ウインク,0
170,1122001035813,新規,0,2022-04-27,2022-04-27,株式会社無双,,株式会社,大阪府,大東市,新田中町５－３０,,27,218,5740056,,,,,,,2022-04-27,1,,,,,ムソウ,0
171,1122003002324,新規,0,2022-04-27,2022-04-27,フェリエ合同会社,,合同会社,大阪府,東大阪市,東山町９番２２号,,27,227,5798027,,,,,,,2022-04-27,1,,,,,フェリエ,0
177,1130001071654,新規,0,2022-04-27,2022-04-27,株式会社日本都市開発,,株式会社,京都府,京都市上京区,桝形通寺町東入三栄町５６番地３,,26,102,6020826,,,,,,,2022-04-27,1,,,,,ニホントシカイハツ,0
178,1130003007904,新規,0,2022-04-27,2022-04-27,合同会社ＡＬＡＳＫＡ,,合同会社,京都府,京都市中京区,壬生下溝町３５番地奥田ビル２Ｆ,,26,104,6048832,,,,,,,2022-04-27,1,,,,,アラスカ,0
190,1140001125632,新規,0,2022-04-27,2022-04-27,ＤＡＲＵＭＡ株式会社,,株式会社,兵庫県,神戸市兵庫区,福原町１１－１８,,28,105,6520036,,,,,,,2022-04-27,1,,,,,ダルマ,0
191,1140001125780,新規,0,2022-04-27,2022-04-27,はりまフーズ株式会社,,株式会社,兵庫県,姫路市,北条口３丁目９２番地,,28,201,6700935,,,,,,,2022-04-27,1,,,,,ハリマフーズ,0
192,1140001125822,新規,0,2022-04-27,2022-04-27,株式会社ＬＩＴ,,株式会社,兵庫県,芦屋市,浜芦屋町９番２号－竹内ハイツ２０２,00126428,28,206,6590054,,,,,,,2022-04-27,1,,,,,リット,0
198,1140003017605,新規,0,2022-04-27,2022-04-27,合同会社Ｂｏｎｄホールディングス,,合同会社,兵庫県,神戸市兵庫区,湊町３丁目１－２６平和ビル３０２,,28,105,6520812,,,,,,,2022-04-27,1,,,,,ボンドホールディングス,0
215,1180001151088,新規,0,2022-04-27,2022-04-27,株式会社ＴＴＴ,,株式会社,愛知県,名古屋市中区,新栄１丁目１６番５号,,23,106,4600007,,,,,,,2022-04-27,1,,,,,ティーティーティー,0
216,1180001151105,新規,0,2022-04-27,2022-04-27,福支商会株式会社,,株式会社,愛知県,清須市,春日西須ケ畑１０８番地１,,23,233,4520961,,,,,,,2022-04-27,1,,,,,フクシショウカイ,0
217,1180001151113,新規,0,2022-04-27,2022-04-27,株式会社アルファＬＥＹ,,株式会社,愛知県,北名古屋市,熊之庄新宮１０４番地,,23,234,4810006,,,,,,,2022-04-27,1,,,,,アルファレイ,0
221,1180301036170,新規,0,2022-04-27,2022-04-27,株式会社Ａ＆Ｄ安城,,株式会社,愛知県,安城市,相生町９番２号アルデア１Ｆ,,23,212,4460037,,,,,,,2022-04-27,1,,,,,エーアンドディーアンジョウ,0
226,1190001029358,新規,0,2022-04-27,2022-04-27,株式会社カレイドスコープ,,株式会社,三重県,員弁郡東員町,大字六把野新田７２１番地,,24,324,5110242,,,,,,,2022-04-27,1,,,,,カレイドスコープ,0
227,1190001029366,新規,0,2022-04-27,2022-04-27,株式会社ショウエン,,株式会社,三重県,伊賀市,上野忍町２５２０番地の５,,24,216,5180854,,,,,,,2022-04-27,1,,,,,ショウエン,0
249,1240001059671,新規,0,2022-04-27,2022-04-27,株式会社山寛工務店,,株式会社,広島県,福山市,水呑町３５０６番地１０,,34,207,7200832,,,,,,,2022-04-27,1,,,,,ヤマヒロコウムテン,0
250,1240003005599,新規,0,2022-04-27,2022-04-27,合同会社青,,合同会社,広島県,安芸高田市,美土里町生田８８７,,34,214,7310703,,,,,,,2022-04-27,1,,,,,アオ,0
257,1270001008502,新規,0,2022-04-27,2022-04-27,株式会社Ｓｅｅｄｓ,,株式会社,鳥取県,倉吉市,上井１９５番地１０,,31,203,6820021,,,,,,,2022-04-27,1,,,,,シーズ,0
267,1290001097337,新規,0,2022-04-27,2022-04-27,株式会社Ａｓｓｅｍｂｌｅ　ＢＣ,,株式会社,福岡県,久留米市,朝妻町１３番２８号１階,,40,203,8390843,,,,,,,2022-04-27,1,,,,,アッセンブルビーシー,0
268,1290001097353,新規,0,2022-04-27,2022-04-27,ＥＬＦ株式会社,,株式会社,福岡県,春日市,春日原南町４丁目１３番８－１０１号,,40,218,8160803,,,,,,,2022-04-27,1,,,,,エルフ,0
275,1290003012442,新規,0,2022-04-27,2022-04-27,合同会社ドメイン,,合同会社,福岡県,福岡市博多区,博多駅南５丁目４－１,,40,132,8120016,,,,,,,2022-04-27,1,,,,,ドメイン,0
282,1310003004346,新規,0,2022-04-27,2022-04-27,合同会社ＨａｐｐｙＳｕｐｐｏｒｔ,,合同会社,長崎県,長崎市,かき道３丁目３番８号,,42,201,8510115,,,,,,,2022-04-27,1,,,,,ハッピーサポート,0
283,1320001019031,新規,0,2022-04-27,2022-04-27,株式会社オクノ,,株式会社,大分県,宇佐市,大字吉松１２６番地の２,,44,211,8790441,,,,,,,2022-04-27,1,,,,,オクノ,0
286,1320003003792,新規,0,2022-04-27,2022-04-27,合同会社オフィスアキヨシ,,合同会社,大分県,大分市,ふじが丘南２丁目１１番４号,,44,201,8701183,,,,,,,2022-04-27,1,,,,,オフィスアキヨシ,0
294,1360003011973,新規,0,2022-04-27,2022-04-27,サウザンドウィンターズ合同会社,,合同会社,沖縄県,石垣市,字真栄里２０４番地５シャインホーム壱３－Ｂ,,47,207,9070002,,,,,,,2022-04-27,1,,,,,サウザンドウィンターズ,0
297,1370001048488,新規,0,2022-04-27,2022-04-27,株式会社リースワーク,,株式会社,宮城県,仙台市太白区,東中田４丁目１番３号,,04,104,9811107,,,,,,,2022-04-27,1,,,,,リースワーク,0
298,1370001048505,新規,0,2022-04-27,2022-04-27,株式会社ファインドミー,,株式会社,宮城県,柴田郡大河原町,金ケ瀬字土手下６０番地１,,04,321,9891224,,,,,,,2022-04-27,1,,,,,ファインドミー,0
300,1370003005669,新規,0,2022-04-27,2022-04-27,合同会社ＭＴパートナーズ,,合同会社,宮城県,仙台市青葉区,春日町１０番２３号２階Ｄ号室,,04,101,9800821,,,,,,,2022-04-27,1,,,,,エムティーパートナーズ,0
305,1380001032771,新規,0,2022-04-27,2022-04-27,株式会社ｇｏｏｄ　ｆｉｅｌｄ,,株式会社,福島県,郡山市,巳六段２１０番地,,07,203,9630119,,,,,,,2022-04-27,1,,,,,グッドフィールド,0
314,1460101007186,新規,0,2022-04-27,2022-04-27,立成工業株式会社,,株式会社,北海道,広尾郡広尾町,並木通西３丁目７２番地５,,01,642,0892623,,,,,,,2022-04-27,1,,,,,リッセイコウギョウ,0
317,1480001011716,新規,0,2022-04-27,2022-04-27,株式会社ｒｅｔｉｓｈ,,株式会社,徳島県,吉野川市,鴨島町鴨島字西郷２８０昌栄ビル１Ｆ,,36,205,7760010,,,,,,,2022-04-27,1,,,,,レティッシュ,0
320,1700150107671,新規,0,2022-04-27,2022-04-05,京都・粋女Ｐｒｏｊｅｃｔ,,その他,京都府,京都市西京区,嵐山東一川町１４－１２,,26,111,6160002,,,,,,,2022-04-05,1,,,,,キヨウトイキジヨプロジエクト,0
321,1700150108397,新規,0,2022-04-27,2022-04-27,ＨＡＬＩＫ　ＲＩＣＥ　ＭＩＬＬ,,外国会社等,千葉県,八街市,東吉田字和田７２５オフィスＮｏ．９,,12,230,2891114,スリランカ民主社会主義共和国、ポロンナルワ、サーキュラーロード,,,,,,2022-04-27,1,,,,,ハリクライスミル,0
325,2010001225972,新規,0,2022-04-27,2022-04-27,株式会社Ｔａｖｉａ,,株式会社,東京都,千代田区,東神田１丁目１５－９,,13,101,1010031,,,,,,,2022-04-27,1,,,,,タビヤ,0
326,2010001226186,新規,0,2022-04-27,2022-04-27,株式会社ｆｕｔｕｒｅ　ｓａｍｐｌｅ,,株式会社,東京都,中央区,日本橋本町１丁目６－１５,,13,102,1030023,,,,,,,2022-04-27,1,,,,,フューチャーサンプル,0
328,2010005034949,新規,0,2022-04-27,2022-04-27,一般社団法人ＴＴＥ避難民支援協会,,その他の設立登記法人,東京都,中央区,日本橋兜町１４番１０号兜ビル８Ｆ,,13,102,1030026,,,,,,,2022-04-27,1,,,,,ティーティーイーヒナンミンシエンキョウカイ,0
329,2010103001900,新規,0,2022-04-27,2022-04-27,合同会社八歩,,合同会社,東京都,八王子市,元本郷町３丁目２番４号,,13,201,1920051,,,,,,,2022-04-27,1,,,,,ハチホ,0
330,2010105002161,新規,0,2022-04-27,2022-04-27,一般財団法人新井加四郎・正子記念幼少年情操教育振興財団,,その他の設立登記法人,東京都,八王子市,めじろ台４丁目２０番地２,,13,201,1930833,,,,,,,2022-04-27,1,,,,,アライカシロウマサコキネンヨウショウネンジョウソウキョウイクシンコウザイダン,0
339,2010401167030,新規,0,2022-04-27,2022-04-27,株式会社ＢＥＹＯＮＤ　ＡＧＥ,,株式会社,東京都,港区,南青山２丁目２番１５号,,13,103,1070062,,,,,,,2022-04-27,1,,,,,ビヨンドエイジ,0
343,2010601061000,新規,0,2022-04-27,2022-04-27,株式会社ラシーン,,株式会社,東京都,江東区,大島３丁目８番７－６１３号,,13,108,1360072,,,,,,,2022-04-27,1,,,,,ラシーン,0
347,2010605004070,新規,0,2022-04-27,2022-04-27,特定非営利活動法人あなたのＳＯＧＩＥ,,その他の設立登記法人,東京都,墨田区,京島３丁目４９番１７号,,13,107,1310046,,,,,,,2022-04-27,1,,,,,アナタノソジー,0
348,2010801004601,新規,0,2022-04-27,2022-04-27,株式会社三信組,,株式会社,東京都,大田区,南久が原２丁目１１番２号,,13,111,1460084,,,,,,,2022-04-27,1,,,,,サンシンクミ,0
356,2010901050768,新規,0,2022-04-27,2022-04-27,株式会社ＣＡＬＹ,,株式会社,東京都,世田谷区,太子堂２丁目１７番５号佐藤ビル３Ｆ,,13,112,1540004,,,,,,,2022-04-27,1,,,,,キャリー,0
364,2011001147190,新規,0,2022-04-27,2022-04-27,株式会社ＵＡＫ,,株式会社,東京都,渋谷区,道玄坂１丁目１５番１０号,,13,113,1500043,,,,,,,2022-04-27,1,,,,,ユーエーケー,0
365,2011001147224,新規,0,2022-04-27,2022-04-27,株式会社ＣＲＥＡＴＯＲＳ　ＤＩＮＩＮＧ　ＣＯＮＣＥＰＴ,,株式会社,東京都,渋谷区,恵比寿南３丁目１番１号８Ｆ,,13,113,1500022,,,,,,,2022-04-27,1,,,,,クリエイターズダイニングコンセプト,0
366,2011001147249,新規,0,2022-04-27,2022-04-27,株式会社Ｆ　Ｓｑｕａｒｅ　Ｃｏｎｓｕｌｔｉｎｇ,,株式会社,東京都,目黒区,中目黒３丁目６番１号千陽アポロンビル４Ｆ,,13,110,1530061,,,,,,,2022-04-27,1,,,,,エフスクエアコンサルティング,0
370,2011003014612,新規,0,2022-04-27,2022-04-27,ｍａｒｅ　ｉｎｔｅｒｎｏ合同会社,,合同会社,東京都,渋谷区,神宮前６丁目２３番４号桑野ビル２階,,13,113,1500001,,,,,,,2022-04-27,1,,,,,マーレインテルノ,0
377,2011303004395,新規,0,2022-04-27,2022-04-27,合同会社ＴＡＬＫＩＮＧ　ＢＯＸ,,合同会社,東京都,杉並区,高円寺北３丁目３５番３０号高北コーポ,,13,115,1660002,,,,,,,2022-04-27,1,,,,,トーキングボックス,0
392,2011801040652,新規,0,2022-04-27,2022-04-27,株式会社ヒガシ,,株式会社,東京都,足立区,六町４丁目９番５号,,13,121,1210073,,,,,,,2022-04-27,1,,,,,ヒガシ,0
393,2011805003168,新規,0,2022-04-27,2022-04-27,一般社団法人ＫＡＳＫＩ　ＰＯＫＨＡＲＡ　ＳＡＭＡＪ　ＪＡＰＡＮ,,その他の設立登記法人,東京都,葛飾区,奥戸９丁目２番１２号,,13,122,1240022,,,,,,,2022-04-27,1,,,,,カスキポカラサマズジャパン,0
394,2012403005341,新規,0,2022-04-27,2022-04-27,合同会社はやぶさ,,合同会社,東京都,多摩市,永山３丁目１８番地の１ヴェレーナ多摩永山ザ・シーズンズ４０８号室,,13,224,2060025,,,,,,,2022-04-27,1,,,,,ハヤブサ,0
410,2020001146276,新規,0,2022-04-27,2022-04-27,ツカサホーム株式会社,,株式会社,神奈川県,横浜市泉区,下和泉４丁目１７番２９号,,14,116,2450021,,,,,,,2022-04-27,1,,,,,ツカサホーム,0
418,2020005015510,新規,0,2022-04-27,2022-04-27,特定非営利活動法人蒔田倶楽部,,その他の設立登記法人,神奈川県,横浜市南区,榎町１丁目１０番２号,,14,105,2320044,,,,,,,2022-04-27,1,,,,,マイタクラブ,0
425,2021001075804,新規,0,2022-04-27,2022-04-27,株式会社久留住設,,株式会社,神奈川県,秦野市,千村４丁目１４番１４号,,14,211,2591324,,,,,,,2022-04-27,1,,,,,ヒサドメジュウセツ,0
426,2021001075812,新規,0,2022-04-27,2022-04-27,ＳＴＯＲＣ株式会社,,株式会社,神奈川県,茅ヶ崎市,松が丘２丁目２番２６号ベルビュー松が丘１０５,,14,207,2530025,,,,,,,2022-04-27,1,,,,,ストーク,0
427,2021001075820,新規,0,2022-04-27,2022-04-27,株式会社緑創園,,株式会社,神奈川県,相模原市中央区,相模原４丁目７番１０号エスプラザマンション１００３,,14,152,2520231,,,,,,,2022-04-27,1,,,,,リョクソウエン,0
445,2030001147918,新規,0,2022-04-27,2022-04-27,大道商事株式会社,,株式会社,埼玉県,川口市,大字赤井１０８０－９,,11,203,3340073,,,,,,,2022-04-27,1,,,,,ダイミチショウジ,0
446,2030001147926,新規,0,2022-04-27,2022-04-27,株式会社Ｉｔｏ　Ｅｎｔｅｒｐｒｉｓｅ,,株式会社,埼玉県,さいたま市北区,宮原町１丁目８５６－３ガーデンアクシス４１８,,11,102,3310812,,,,,,,2022-04-27,1,,,,,イトーエンタープライズ,0
447,2030001147950,新規,0,2022-04-27,2022-04-27,株式会社巧明工業,,株式会社,埼玉県,草加市,青柳２丁目２７番４５号,,11,221,3400002,,,,,,,2022-04-27,1,,,,,コウメイコウギョウ,0
448,2030003019314,新規,0,2022-04-27,2022-04-27,合同会社ａｉｍ,,合同会社,埼玉県,越谷市,宮本町３丁目２１番地１－２０５,,11,222,3430806,,,,,,,2022-04-27,1,,,,,エイム,0
449,2030003019322,新規,0,2022-04-27,2022-04-27,合同会社Ｒｅ．ハウジング,,合同会社,埼玉県,さいたま市大宮区,桜木町２丁目３番地,,11,103,3300854,,,,,,,2022-04-27,1,,,,,リハウジング,0
459,2040001123133,新規,0,2022-04-27,2022-04-27,株式会社小西商店,,株式会社,千葉県,大網白里市,仏島１８番地１グリーンヴィラ杜１０７号室,,12,239,2993237,,,,,,,2022-04-27,1,,,,,コニシショウテン,0
460,2040001123158,新規,0,2022-04-27,2022-04-27,株式会社アルフェラッツ,,株式会社,千葉県,千葉市花見川区,幕張本郷４丁目１０番１７号,,12,102,2620033,,,,,,,2022-04-27,1,,,,,アルフェラッツ,0
461,2040001123174,新規,0,2022-04-27,2022-04-27,株式会社ホームプロテクト,,株式会社,千葉県,千葉市中央区,中央３丁目１５番４号美波屋ビル４Ｆ,,12,101,2600013,,,,,,,2022-04-27,1,,,,,ホームプロテクト,0
462,2040001123190,新規,0,2022-04-27,2022-04-27,株式会社みらいのＭＩＲＡＩ,,株式会社,千葉県,市原市,草刈６７０番地の２,,12,219,2900001,,,,,,,2022-04-27,1,,,,,,0
475,2050001050962,新規,0,2022-04-27,2022-04-27,株式会社ヒロベジファーム,,株式会社,茨城県,筑西市,門井５０番地,,08,227,3091107,,,,,,,2022-04-27,1,,,,,ヒロベジファーム,0
476,2050001051003,新規,0,2022-04-27,2022-04-27,ＳＡＭＰＵＲＡＮ　ＴＲＡＤＩＮＧ株式会社,,株式会社,茨城県,坂東市,菅谷５４番地２,,08,228,3060505,,,,,,,2022-04-27,1,,,,,サンプーラントレーディング,0
478,2050003006533,新規,0,2022-04-27,2022-04-27,合同会社さくら,,合同会社,茨城県,つくば市,作谷１２４６番地,,08,220,3004204,,,,,,,2022-04-27,1,,,,,サクラ,0
482,2070001039178,新規,0,2022-04-27,2022-04-27,株式会社将栄,,株式会社,群馬県,佐波郡玉村町,大字下新田５９１番地１,,10,464,3701132,,,,,,,2022-04-27,1,,,,,ショウエイ,0
483,2070001039186,新規,0,2022-04-27,2022-04-27,株式会社エイチデン,,株式会社,群馬県,前橋市,上泉町１５８７番地３,,10,201,3710007,,,,,,,2022-04-27,1,,,,,エイチデン,0
485,2080403004530,新規,0,2022-04-27,2022-04-27,それいゆ合同会社,,合同会社,静岡県,菊川市,加茂３０７３番地の２,,22,224,4390031,,,,,,,2022-04-27,1,,,,,ソレイユ,0
503,2120001245514,新規,0,2022-04-27,2022-04-27,株式会社Ｐｅｔｎｅｒ,,株式会社,大阪府,枚方市,車塚１丁目１番１号６階１１号室,,27,210,5731159,,,,,,,2022-04-27,1,,,,,ペットナー,0
504,2120001245539,新規,0,2022-04-27,2022-04-27,株式会社アール電工,,株式会社,大阪府,守口市,南寺方北通２丁目５番１２号,,27,209,5700046,,,,,,,2022-04-27,1,,,,,アールデンコウ,0
508,2120003021582,新規,0,2022-04-27,2022-04-27,合同会社Ｔビーイング,,合同会社,大阪府,守口市,大日町４丁目１３番２８号,,27,209,5700003,,,,,,,2022-04-27,1,,,,,ティービーイング,0
525,2122001035812,新規,0,2022-04-27,2022-04-27,株式会社アイマーク工芸,,株式会社,大阪府,東大阪市,楠根２丁目８番５号,,27,227,5770006,,,,,,,2022-04-27,1,,,,,アイマークコウゲイ,0
532,2130001071653,新規,0,2022-04-27,2022-04-27,株式会社オフィス原田,,株式会社,京都府,京都市西京区,大枝中山町２番地４０７,,26,111,6101104,,,,,,,2022-04-27,1,,,,,オフィスハラダ,0
533,2130001071661,新規,0,2022-04-27,2022-04-27,株式会社マークス,,株式会社,京都府,京都市左京区,岩倉中町３０１番地ゴールデンガーデン岩倉３０２,,26,103,6060025,,,,,,,2022-04-27,1,,,,,マークス,0
542,2140001125739,新規,0,2022-04-27,2022-04-27,株式会社美彩,,株式会社,兵庫県,神戸市灘区,下河原通４丁目２番１号日井ビル１Ｆ,,28,102,6570045,,,,,,,2022-04-27,1,,,,,ミヤ,0
543,2140001125747,新規,0,2022-04-27,2022-04-27,株式会社アズイズライフ,,株式会社,兵庫県,神戸市東灘区,本山中町４丁目１６番１９－２０５号,,28,101,6580016,,,,,,,2022-04-27,1,,,,,アズイズライフ,0
545,2140003017604,新規,0,2022-04-27,2022-04-27,合同会社ＹＭＦＫ,,合同会社,兵庫県,明石市,中朝霧丘４番１８号,,28,203,6730855,,,,,,,2022-04-27,1,,,,,ワイエムエフケイ,0
550,2160001024154,新規,0,2022-04-27,2022-04-27,ＲＴＡ株式会社,,株式会社,滋賀県,大津市,春日町１番５－６０５号,,25,201,5200055,,,,,,,2022-04-27,1,,,,,アールティーエー,0
553,2170005006957,新規,0,2022-04-27,2022-04-27,一般社団法人紀州体験交流ゆめ倶楽部,,その他の設立登記法人,和歌山県,日高郡日高川町,大字和佐１０３０番地９０,,30,392,6491443,,,,,,,2022-04-27,1,,,,,キシュウタイケンコウリュウユメクラブ,0
565,2180001151062,新規,0,2022-04-27,2022-04-27,株式会社ＭＲ工業,,株式会社,愛知県,津島市,橘町５丁目９２番地５,,23,208,4960038,,,,,,,2022-04-27,1,,,,,エムアールコウギョウ,0
566,2180001151087,新規,0,2022-04-27,2022-04-27,カイダ株式会社,,株式会社,愛知県,名古屋市天白区,植田山５丁目１５０２番地の４,,23,116,4680001,,,,,,,2022-04-27,1,,,,,カイダ,0
567,2180001151104,新規,0,2022-04-27,2022-04-27,株式会社川口,,株式会社,愛知県,あま市,森７丁目１５番地２２,,23,237,4901107,,,,,,,2022-04-27,1,,,,,カワグチ,0
576,2180301036178,新規,0,2022-04-27,2022-04-27,株式会社文藝フルーツ,,株式会社,愛知県,豊川市,市田町西赤早稲７０番地の１ネクステージ早稲Ｂ棟２０１号,,23,207,4420862,,,,,,,2022-04-27,1,,,,,,0
591,2230003001846,新規,0,2022-04-27,2022-04-27,ＧＩＶＩＮＧ　ＷＩＳＤＯＭ合同会社,,合同会社,富山県,小矢部市,矢水町３８０番地,,16,209,9320121,,,,,,,2022-04-27,1,,,,,,0
595,2240001059670,新規,0,2022-04-27,2022-04-27,株式会社荒海大工店,,株式会社,広島県,福山市,春日町浦上２４６８番地１８,,34,207,7210902,,,,,,,2022-04-27,1,,,,,アラウミダイクテン,0
597,2240003005598,新規,0,2022-04-27,2022-04-27,合同会社西村,,合同会社,広島県,広島市西区,三滝本町１丁目９番３２－１４０１号,,34,104,7330802,,,,,,,2022-04-27,1,,,,,ニシムラ,0
600,2250001019533,新規,0,2022-04-27,2022-04-27,ＭＯジョイント株式会社,,株式会社,山口県,宇部市,東見初町１番５号,,35,202,7550009,,,,,,,2022-04-27,1,,,,,エムオージョイント,0
602,2250003003056,新規,0,2022-04-27,2022-04-27,Ｆｏｒｃｅ　Ｃｏｒｅ合同会社,,合同会社,山口県,岩国市,旭町２丁目５番２７－１２号,,35,208,7400024,,,,,,,2022-04-27,1,,,,,フォースコア,0
605,2260005011080,新規,0,2022-04-27,2022-04-27,一般社団法人ＬＬＥアカデメイア,,その他の設立登記法人,岡山県,岡山市北区,平山９５７番地１３３,,33,101,7011332,,,,,,,2022-04-27,1,,,,,エルエルイーアカデメイア,0
615,2290001097352,新規,0,2022-04-27,2022-04-27,株式会社つくし,,株式会社,福岡県,福岡市博多区,博多駅南５丁目２９番１０号,,40,132,8120016,,,,,,,2022-04-27,1,,,,,ツクシ,0
616,2290001097360,新規,0,2022-04-27,2022-04-27,株式会社山口エステート,,株式会社,福岡県,福岡市南区,若久６丁目３９番１４号,,40,134,8150042,,,,,,,2022-04-27,1,,,,,ヤマグチエステート,0
630,2330003009342,新規,0,2022-04-27,2022-04-27,合同会社一凛,,合同会社,熊本県,八代市,井上町６９９番地７,,43,202,8660825,,,,,,,2022-04-27,1,,,,,イチリン,0
632,2340001024680,新規,0,2022-04-27,2022-04-27,株式会社Ｒｙｏｈｅｉ,,株式会社,鹿児島県,姶良市,東餅田１４４８番地１,,46,225,8995421,,,,,,,2022-04-27,1,,,,,リョーヘイ,0
633,2360001030306,新規,0,2022-04-27,2022-04-27,株式会社ユウキ土建興業,,株式会社,沖縄県,宜野湾市,野嵩２丁目２６番１号,,47,205,9012203,,,,,,,2022-04-27,1,,,,,ユウキドケンコウギョウ,0
637,2360003011972,新規,0,2022-04-27,2022-04-27,合同会社心から,,合同会社,沖縄県,那覇市,首里石嶺町４丁目１７３番地４０,,47,201,9030804,,,,,,,2022-04-27,1,,,,,ココカラ,0
641,2370001048504,新規,0,2022-04-27,2022-04-27,株式会社エスデンキ,,株式会社,宮城県,石巻市,鹿又字新八幡前３０番地２,,04,202,9861111,,,,,,,2022-04-27,1,,,,,エスデンキ,0
646,2380001032770,新規,0,2022-04-27,2022-04-27,株式会社南桑フロンティア,,株式会社,福島県,伊達市,伏黒字北屋敷４９番地１,,07,213,9600501,,,,,,,2022-04-27,1,,,,,ナンソウフロンティア,0
648,2390003001954,新規,0,2022-04-27,2022-04-27,合同会社チェリー,,合同会社,山形県,山形市,本町１丁目２番４号,,06,201,9900043,,,,,,,2022-04-27,1,,,,,チェリー,0
653,2420001017817,新規,0,2022-04-27,2022-04-27,株式会社とりぷるくらうん,,株式会社,青森県,つがる市,森田町大館勝山１０９番地３号,,02,209,0382818,,,,,,,2022-04-27,1,,,,,トリプルクラウン,0
661,2430005014454,新規,0,2022-04-27,2022-04-27,一般社団法人北海道みらい創造社,,その他の設立登記法人,北海道,札幌市中央区,大通西２６丁目２番１０号－７０６,,01,101,0640820,,,,,,,2022-04-27,1,,,,,ホッカイドウミライソウゾウシャ,0
667,2700150104858,新規,0,2022-04-27,2021-09-27,ＯＫＯ　Ａｒｔｓ,,その他,東京都,八王子市,石川町２９６６－５,,13,201,1920032,,,,,,,2021-09-27,1,,,,,オーケーオーアーツ,0
668,2700150107935,新規,0,2022-04-27,2022-04-13,滋賀学区まちづくり協議会,,その他,滋賀県,大津市,南志賀１丁目８－３２,,25,201,5200011,,,,,,,2022-04-13,1,,,,,シガガツクマチヅクリキヨウギカイ,0
669,2700150108280,新規,0,2022-04-27,2022-04-22,お笑いサタケ道場,,その他,大阪府,高槻市,赤大路町５２－２,,27,207,5691146,,,,,,,2022-04-22,1,,,,,オワライサタケドウジヨウ,0
681,3010001226227,新規,0,2022-04-27,2022-04-27,株式会社ＣｏＮｅｘｔ,,株式会社,東京都,中央区,日本橋兜町５－１兜町第１平和ビル３階,,13,102,1030026,,,,,,,2022-04-27,1,,,,,コネクト,0
686,3010005034907,新規,0,2022-04-27,2022-04-27,一般社団法人言靈やまと語協会,,その他の設立登記法人,東京都,千代田区,丸の内１丁目６－２新丸の内センタービルディング２０階,,13,101,1000005,,,,,,,2022-04-27,1,,,,,ゲンレイヤマトゴキョウカイ,0
696,3010403027504,新規,0,2022-04-27,2022-04-27,ＢＣディレクション合同会社,,合同会社,東京都,港区,南青山２丁目２－１５,,13,103,1070062,,,,,,,2022-04-27,1,,,,,ビーシーディレクション,0
700,3010501048757,新規,0,2022-04-27,2022-04-27,日落大道株式会社,,株式会社,東京都,台東区,上野３丁目１１番５号,,13,106,1100005,,,,,,,2022-04-27,1,,,,,ニチラクダイドウ,0
710,3010901050783,新規,0,2022-04-27,2022-04-27,株式会社ＳＹＭｐｒｏｄｕｃｔｓ,,株式会社,東京都,世田谷区,赤堤１丁目３６番１０号第１須賀ビル３０２,,13,112,1560044,,,,,,,2022-04-27,1,,,,,エスワイエムプロダクツ,0
712,3010902027640,新規,0,2022-04-27,2022-04-27,有限会社財豊,,有限会社,東京都,世田谷区,桜丘２丁目２８番１６号,,13,112,1560054,,,,,,,2022-04-27,1,,,,,ザイホウ,0
713,3010903007344,新規,0,2022-04-27,2022-04-27,ＷＦＷサービシーズ合同会社,,合同会社,東京都,世田谷区,奥沢２丁目３３番７号－１,,13,112,1580083,,,,,,,2022-04-27,1,,,,,ダブリュエフダブリュサービシーズ,0
724,3011101098663,新規,0,2022-04-27,2022-04-27,株式会社めいめい,,株式会社,東京都,新宿区,須賀町８番地６８,,13,104,1600018,,,,,,,2022-04-27,1,,,,,メイメイ,0
734,3011701025265,新規,0,2022-04-27,2022-04-27,ＪＨマネージメント株式会社,,株式会社,東京都,江戸川区,江戸川２丁目３３番７号,,13,123,1320013,,,,,,,2022-04-27,1,,,,,ジェイエイチマネージメント,0
736,3011801040651,新規,0,2022-04-27,2022-04-27,株式会社Ｆａｃｅ　Ｙｏｕｒ　Ｌｉｆｅ,,株式会社,東京都,足立区,梅田７丁目２６番１０－２０１号ベルシード梅島ブランシュ,,13,121,1230851,,,,,,,2022-04-27,1,,,,,フェイスユアライフ,0
746,3012801021534,新規,0,2022-04-27,2022-04-27,株式会社ミタカ工業,,株式会社,東京都,日野市,高幡１０２１番地の１サンヴェール３０３,,13,212,1910031,,,,,,,2022-04-27,1,,,,,ミタカコウギョウ,0
753,3013301049025,新規,0,2022-04-27,2022-04-27,株式会社ｋｕｒｋｋｕ　ａｌｔｅｒｎａｔｉｖｅ,,株式会社,東京都,豊島区,目白２丁目１７番１９号－２,,13,116,1710031,,,,,,,2022-04-27,1,,,,,クルックオルタナティブ,0
758,3013303006131,新規,0,2022-04-27,2022-04-27,ＷｉｔｈＤｒｅａｍ合同会社,,合同会社,東京都,豊島区,南長崎６丁目１６番１０号ＰＡＴＯＮＡ１６１０、３０１号,,13,116,1710052,,,,,,,2022-04-27,1,,,,,ウィズドリーム,0
764,3020001146317,新規,0,2022-04-27,2022-04-27,Ｍｉｒｒｏｒ株式会社,,株式会社,神奈川県,川崎市高津区,諏訪１丁目１－４,,14,134,2130004,,,,,,,2022-04-27,1,,,,,ミラー,0
777,3021001075778,新規,0,2022-04-27,2022-04-27,昭志工業株式会社,,株式会社,神奈川県,相模原市中央区,田名２２４６－３,,14,152,2520244,,,,,,,2022-04-27,1,,,,,ショウシコウギョウ,0
781,3021003011640,新規,0,2022-04-27,2022-04-27,合同会社フィルマリンク,,合同会社,神奈川県,平塚市,長持４２７番地の１０,,14,203,2591217,,,,,,,2022-04-27,1,,,,,フィルマリンク,0
782,3021003011649,新規,0,2022-04-27,2022-04-27,合同会社コーラルシー,,合同会社,神奈川県,藤沢市,鵠沼松が岡１丁目１５番２５号,,14,205,2510038,,,,,,,2022-04-27,1,,,,,コーラルシー,0
787,3030001147834,新規,0,2022-04-27,2022-04-27,株式会社ジェステックリサーチ,,株式会社,埼玉県,さいたま市見沼区,東大宮４丁目１番４号トライフォース２Ｆ－Ａ,,11,104,3370051,,,,,,,2022-04-27,1,,,,,ジェステックリサーチ,0
792,3030005020847,新規,0,2022-04-27,2022-04-27,一般社団法人インシュアランスプランナー連合会,,その他の設立登記法人,埼玉県,さいたま市岩槻区,上野１丁目２番地１１,,11,110,3390073,,,,,,,2022-04-27,1,,,,,インシュアランスプランナーレンゴウカイ,0
800,3040001123198,新規,0,2022-04-27,2022-04-27,株式会社ベルゼル,,株式会社,千葉県,船橋市,本郷町６４９番１ＪＬＢグランエクリュ西船橋２０８号室,,12,204,2730033,,,,,,,2022-04-27,1,,,,,ベルゼル,0
808,3050001051002,新規,0,2022-04-27,2022-04-27,ＨＡＭＺＡ　ＴＲＡＤＩＮＧ株式会社,,株式会社,茨城県,下妻市,桐ケ瀬９８番地,,08,210,3040073,,,,,,,2022-04-27,1,,,,,ハムザトレーディング,0
809,3050001051010,新規,0,2022-04-27,2022-04-27,楽柏美商貿株式会社,,株式会社,茨城県,稲敷市,下太田４５７１番地,,08,229,3001424,,,,,,,2022-04-27,1,,,,,ラクハクビショウボウ,0
822,3070001039177,新規,0,2022-04-27,2022-04-27,株式会社桐生音協,,株式会社,群馬県,桐生市,堤町２丁目８番３０号つつみハイツ１０２号,,10,203,3760042,,,,,,,2022-04-27,1,,,,,キリュウオンキョウ,0
823,3080005007451,新規,0,2022-04-27,2022-04-27,一般社団法人しずおか民家活用推進協会,,その他の設立登記法人,静岡県,静岡市清水区,下野西４番５号,,22,103,4240012,,,,,,,2022-04-27,1,,,,,シズオカミンカカツヨウスイシンキョウカイ,0
824,3080401025775,新規,0,2022-04-27,2022-04-27,おひさまファーム株式会社,,株式会社,静岡県,湖西市,新所原３丁目２番２号２階,,22,221,4310424,,,,,,,2022-04-27,1,,,,,オヒサマファーム,0
828,3100003006519,新規,0,2022-04-27,2022-04-27,ＫＲＡＣＥ合同会社,,合同会社,長野県,飯田市,羽場町２丁目１番１０,,20,205,3950063,,,,,,,2022-04-27,1,,,,,クレイス,0
850,3120001245380,新規,0,2022-04-27,2022-04-27,神原建設工業株式会社,,株式会社,大阪府,枚方市,伊加賀東町５－３１,,27,210,5730058,,,,,,,2022-04-27,1,,,,,カンバラケンセツコウギョウ,0
851,3120001245455,新規,0,2022-04-27,2022-04-27,Ｅ‐ＨＯＭＥ不動産販売株式会社,,株式会社,大阪府,大阪市淀川区,西宮原３丁目２番１号,,27,123,5320004,,,,,,,2022-04-27,1,,,,,イーホームフドウサンハンバイ,0
852,3120001245521,新規,0,2022-04-27,2022-04-27,合気株式会社,,株式会社,大阪府,大阪市平野区,瓜破２丁目１－５０アビタシオン２３,,27,126,5470024,,,,,,,2022-04-27,1,,,,,アイキ,0
858,3120003021549,新規,0,2022-04-27,2022-04-27,文成合同会社,,合同会社,大阪府,大阪市北区,長柄東２丁目１－２４サザナミプラザ第一６０９号,,27,127,5310063,,,,,,,2022-04-27,1,,,,,ブンセイ,0
859,3120003021581,新規,0,2022-04-27,2022-04-27,合同会社Ｔｕｎｇ　Ｏｋｕｎｏ,,合同会社,大阪府,大阪市生野区,生野東４丁目１番４６号,,27,116,5440025,,,,,,,2022-04-27,1,,,,,トゥンオクノ,0
866,3120901045896,新規,0,2022-04-27,2022-04-27,ａ‐ｃａｒｇｏ株式会社,,株式会社,大阪府,豊中市,春日町５丁目１１番１２号,,27,203,5600052,,,,,,,2022-04-27,1,,,,,エーカーゴ,0
876,3122001035803,新規,0,2022-04-27,2022-04-27,株式会社Ｐａｙ　ｉｔ　Ｆｏｒｗａｒｄ,,株式会社,大阪府,八尾市,安中町２丁目６－９清水ビル３Ｆ,,27,212,5810085,,,,,,,2022-04-27,1,,,,,ペイフォワード,0
879,3130001071636,新規,0,2022-04-27,2022-04-27,株式会社ＦＡＣＴＯ　ＧＲＯＵＰ,,株式会社,京都府,宇治市,小倉町神楽田３３番地の８千歳ビル３０４号,,26,204,6110042,,,,,,,2022-04-27,1,,,,,ファクトグループ,0
886,3140001125754,新規,0,2022-04-27,2022-04-27,株式会社輝ほーむ,,株式会社,兵庫県,姫路市,東延末４丁目１０３－２,,28,201,6700965,,,,,,,2022-04-27,1,,,,,テルホーム,0
889,3140003017611,新規,0,2022-04-27,2022-04-27,合同会社モン・シャトン,,合同会社,兵庫県,西宮市,和上町１－６マルシェ西宮１０４,,28,204,6620971,,,,,,,2022-04-27,1,,,,,モンシャトン,0
907,3180001151086,新規,0,2022-04-27,2022-04-27,株式会社アジネ,,株式会社,愛知県,弥富市,鍋田町六野１７９番地１,,23,235,4980068,,,,,,,2022-04-27,1,,,,,アジネ,0
911,3180003023770,新規,0,2022-04-27,2022-04-27,住専合同会社,,合同会社,愛知県,名古屋市千種区,内山３丁目９番２３号,,23,101,4640075,,,,,,,2022-04-27,1,,,,,ジュウセン,0
913,3180301036169,新規,0,2022-04-27,2022-04-27,株式会社リライコーポレーション,,株式会社,愛知県,刈谷市,宝町７丁目４９番地２,,23,210,4480847,,,,,,,2022-04-27,1,,,,,リライコーポレーション,0
915,3190001029364,新規,0,2022-04-27,2022-04-27,株式会社エイチエスシー,,株式会社,三重県,四日市市,西日野町４４５０番地１,,24,202,5100943,,,,,,,2022-04-27,1,,,,,エイチエスシー,0
916,3190003003961,新規,0,2022-04-27,2022-04-27,合同会社愛・たま心,,合同会社,三重県,津市,河芸町千里ヶ丘８番地１,,24,201,5100302,,,,,,,2022-04-27,1,,,,,アイタマゴコロ,0
922,3230003001845,新規,0,2022-04-27,2022-04-27,合同会社秀経営企画,,合同会社,富山県,中新川郡立山町,利田６６８番地７,,16,323,9300275,,,,,,,2022-04-27,1,,,,,,0
927,3240001059678,新規,0,2022-04-27,2022-04-27,株式会社かじたに,,株式会社,広島県,広島市東区,牛田新町３丁目５４番２号,,34,102,7320068,,,,,,,2022-04-27,1,,,,,カジタニ,0
933,3250003003055,新規,0,2022-04-27,2022-04-27,合同会社Ｔ・ｆｕｒｎａｃｅ,,合同会社,山口県,宇部市,東小羽山町３丁目５番１号,,35,202,7550082,,,,,,,2022-04-27,1,,,,,,0
946,3290001097327,新規,0,2022-04-27,2022-04-27,株式会社ｆｒｅｅｓ,,株式会社,福岡県,福岡市中央区,今泉１丁目１２番８号天神ＱＲビル,,40,133,8100021,,,,,,,2022-04-27,1,,,,,フリース,0
947,3290001097343,新規,0,2022-04-27,2022-04-27,貴京創建株式会社,,株式会社,福岡県,福岡市東区,松島５丁目１５番６号,,40,131,8130062,,,,,,,2022-04-27,1,,,,,キキョウソウケン,0
948,3290003012457,新規,0,2022-04-27,2022-04-27,ＵＭＭＹ合同会社,,合同会社,福岡県,福岡市中央区,赤坂１丁目２番１－７０８号,,40,133,8100042,,,,,,,2022-04-27,1,,,,,ユーミー,0
949,3290801028480,新規,0,2022-04-27,2022-04-27,株式会社ＧＲＥＥＮ・ＷＯＲＫＳ,,株式会社,福岡県,行橋市,東大橋３丁目１番１０号,,40,213,8240002,,,,,,,2022-04-27,1,,,,,,0
950,3290803004117,新規,0,2022-04-27,2022-04-27,ＴＨ合同会社,,合同会社,福岡県,北九州市小倉北区,黄金１丁目１３番８,,40,106,8020071,,,,,,,2022-04-27,1,,,,,ティーエイチ,0
951,3300005007073,新規,0,2022-04-27,2022-04-27,特定非営利活動法人ノビトワークス,,その他の設立登記法人,佐賀県,鳥栖市,原古賀町８２０番地２９,,41,203,8410071,,,,,,,2022-04-27,1,,,,,ノビトワークス,0
955,3320003003790,新規,0,2022-04-27,2022-04-27,合同会社ｓｔｙｌｅ,,合同会社,大分県,大分市,高城西町１７－２,,44,201,8700154,,,,,,,2022-04-27,1,,,,,スタイル,0
961,3360001030313,新規,0,2022-04-27,2022-04-27,ＣＬＥＡＮ　ＴＥＣＨ株式会社,,株式会社,沖縄県,那覇市,首里石嶺町２丁目１６０－１,,47,201,9030804,,,,,,,2022-04-27,1,,,,,クリーンテック,0
962,3360001030321,新規,0,2022-04-27,2022-04-27,ＩＮＡＳＡ株式会社,,株式会社,沖縄県,沖縄市,美里仲原町３０番１号コーポエルソール３Ｆ,,47,211,9042156,,,,,,,2022-04-27,1,,,,,イナサ,0
967,3370001048511,新規,0,2022-04-27,2022-04-27,株式会社ｉｔｔｏ,,株式会社,宮城県,仙台市太白区,四郎丸字昭和前１ーＢ,,04,104,9811101,,,,,,,2022-04-27,1,,,,,イット,0
981,3420001017816,新規,0,2022-04-27,2022-04-27,もすマート株式会社,,株式会社,青森県,三沢市,東岡三沢３丁目４１－３４０,,02,207,0330024,,,,,,,2022-04-27,1,,,,,モスマート,0
996,3470003002175,新規,0,2022-04-27,2022-04-27,合同会社藤澤興業,,合同会社,香川県,丸亀市,川西町北２０３４番地２サイレントハイツ２０５号,,37,202,7630091,,,,,,,2022-04-27,1,,,,,フジサワコウギョウ,0
1004,3700150105525,新規,0,2022-04-27,2021-10-27,Ｏｂｉｈｉｒｏ　Ｍａｌｌｅｔ　ｇＡＮＧ,,その他,北海道,河東郡音更町,ひびき野西町１丁目６－８,,01,631,0800163,,,,,,,2021-10-27,1,,,,,オビヒロマレツトギヤング,0
1005,3700150107975,新規,0,2022-04-27,2022-04-14,オイスターズ,,その他,愛知県,名古屋市守山区,向台１丁目１９０３－４０４,,23,113,4630036,,,,,,,2022-04-14,1,,,,,オイスターズ,0
1012,4010001226143,新規,0,2022-04-27,2022-04-27,株式会社Ｃｏｓｒｉｕｍ　Ｊａｐａｎ,,株式会社,東京都,千代田区,富士見２丁目１２番１４号２Ｆ,,13,101,1020071,,,,,,,2022-04-27,1,,,,,コスリウムジャパン,0
1021,4010401166848,新規,0,2022-04-27,2022-04-27,株式会社タイズ,,株式会社,東京都,港区,南青山２丁目２番１５号,,13,103,1070062,,,,,,,2022-04-27,1,,,,,タイズ,0
1022,4010401167061,新規,0,2022-04-27,2022-04-27,ＳＫＹ　ＡＲＴ　ＤＥＦＥＮＳＥ　ＪＡＰＡＮ株式会社,,株式会社,東京都,港区,高輪４丁目１４番１－７０９号,,13,103,1080074,,,,,,,2022-04-27,1,,,,,スカイアートディフェンスジャパン,0
1023,4010401167144,新規,0,2022-04-27,2022-04-27,ＧＣＪＧ２５株式会社,,株式会社,東京都,港区,元赤坂１丁目１番８号株式会社赤坂国際会計内,,13,103,1070051,,,,,,,2022-04-27,1,,,,,ジーシージェイジートゥエンティーファイブ,0
1043,4010903007310,新規,0,2022-04-27,2022-04-27,合同会社Ｗｅｌｌｅｎ,,合同会社,東京都,世田谷区,奥沢６丁目２８－１７－１０１,,13,112,1580083,,,,,,,2022-04-27,1,,,,,ウェレン,0
1044,4010905004306,新規,0,2022-04-27,2022-04-27,一般社団法人ドゥーラ教育協議会,,その他の設立登記法人,東京都,世田谷区,桜丘４丁目１６番２１号,,13,112,1560054,,,,,,,2022-04-27,1,,,,,ドゥーラキョウイクキョウギカイ,0
1050,4011001147189,新規,0,2022-04-27,2022-04-27,株式会社Ｔｒａｓｉａ,,株式会社,東京都,渋谷区,円山町５番５号渋谷橋本ビル９階,,13,113,1500044,,,,,,,2022-04-27,1,,,,,トラシア,0
1051,4011001147230,新規,0,2022-04-27,2022-04-27,ｓｈｉｆｔ＆ｃｏ株式会社,,株式会社,東京都,渋谷区,渋谷２丁目１９－１５宮益坂ビルディング６０９,,13,113,1500002,,,,,,,2022-04-27,1,,,,,,0
1052,4011003014577,新規,0,2022-04-27,2022-04-27,合同会社Ｈ＆Ｂ,,合同会社,東京都,渋谷区,円山町５番５号Ｎａｖｉ渋谷Ｖ３階,,13,113,1500044,,,,,,,2022-04-27,1,,,,,エッチアンドビー,0
1057,4011101098662,新規,0,2022-04-27,2022-04-27,ＭＩＭＵ株式会社,,株式会社,東京都,新宿区,大久保１丁目１５番１８,,13,104,1690072,,,,,,,2022-04-27,1,,,,,ミム,0
1058,4011105010243,新規,0,2022-04-27,2022-04-27,一般社団法人日本ＮＦＴツーリズム協会,,その他の設立登記法人,東京都,新宿区,高田馬場３丁目２５番２７号,,13,104,1690075,,,,,,,2022-04-27,1,,,,,ニホンエヌエフティーツーリズムキョウカイ,0
1059,4011203003801,新規,0,2022-04-27,2022-04-27,ＮＯＸＴＡ合同会社,,合同会社,東京都,中野区,中野５丁目５２番１５号Ｂ１Ｆ－４０,,13,114,1640001,,,,,,,2022-04-27,1,,,,,ノクスタ,0
1067,4011801040650,新規,0,2022-04-27,2022-04-27,Ｇ‐Ｔｅｃｈ株式会社,,株式会社,東京都,葛飾区,東立石４丁目２９－１２－２０９,,13,122,1240013,,,,,,,2022-04-27,1,,,,,ジーテック,0
1081,4013301049024,新規,0,2022-04-27,2022-04-27,株式会社桜煌,,株式会社,東京都,豊島区,要町１丁目２番９号,,13,116,1710043,,,,,,,2022-04-27,1,,,,,サクラコウ,0
1082,4013301049032,新規,0,2022-04-27,2022-04-27,株式会社ＳＩＧＮ,,株式会社,東京都,豊島区,南長崎１丁目１７番１３号メッツエステート７０２号,,13,116,1710052,,,,,,,2022-04-27,1,,,,,サイン,0
1083,4013303006139,新規,0,2022-04-27,2022-04-27,合同会社エスト,,合同会社,東京都,豊島区,南池袋１丁目１９－１４－７Ｆ,,13,116,1710022,,,,,,,2022-04-27,1,,,,,エスト,0
1095,4020001146290,新規,0,2022-04-27,2022-04-27,株式会社アールケーＬａｂ,,株式会社,神奈川県,川崎市宮前区,馬絹３丁目１３番２３－２０２号グリーンアレイ鷺沼,,14,136,2160035,,,,,,,2022-04-27,1,,,,,,0
1096,4020001146299,新規,0,2022-04-27,2022-04-27,株式会社プロフェッショナルワーカーズゴルフ,,株式会社,神奈川県,川崎市川崎区,浜町３丁目７番２１号浜町ビル２０１,,14,131,2100851,,,,,,,2022-04-27,1,,,,,プロフェッショナルワーカーズゴルフ,0
1104,4021001075835,新規,0,2022-04-27,2022-04-27,五常株式会社,,株式会社,神奈川県,厚木市,愛甲２丁目８番１－６１１号,,14,212,2430035,,,,,,,2022-04-27,1,,,,,ゴジョウ,0
1114,4030001147890,新規,0,2022-04-27,2022-04-27,株式会社ステップス,,株式会社,埼玉県,さいたま市見沼区,春野４丁目３３番地１３,,11,104,3370002,,,,,,,2022-04-27,1,,,,,ステップス,0
1115,4030001147916,新規,0,2022-04-27,2022-04-27,株式会社オブリ不動産,,株式会社,埼玉県,和光市,新倉１丁目２番４２号,,11,229,3510115,,,,,,,2022-04-27,1,,,,,オブリフドウサン,0
1116,4030001147957,新規,0,2022-04-27,2022-04-27,株式会社アーユー不動産,,株式会社,埼玉県,さいたま市大宮区,土手町２丁目１番１号２０５号室,,11,103,3300801,,,,,,,2022-04-27,1,,,,,アーユーフドウサン,0
1128,4040001123172,新規,0,2022-04-27,2022-04-27,株式会社ｍｅｔｅｏ,,株式会社,千葉県,野田市,西三ケ尾７６番地,,12,208,2780015,,,,,,,2022-04-27,1,,,,,メテオ,0
1129,4040001123180,新規,0,2022-04-27,2022-04-27,株式会社ＥＬＡ,,株式会社,千葉県,松戸市,緑ケ丘１丁目１３番地ジュネパレス松戸第１６－１０４号,,12,207,2710074,,,,,,,2022-04-27,1,,,,,イーエルエー,0
1130,4040001123189,新規,0,2022-04-27,2022-04-27,株式会社ジャパンプラントサービス,,株式会社,千葉県,千葉市中央区,富士見２丁目７番９号富士見ビル６０９号,,12,101,2600015,,,,,,,2022-04-27,1,,,,,ジャパンプラントサービス,0
1131,4040001123197,新規,0,2022-04-27,2022-04-27,株式会社ガーデンハンズ,,株式会社,千葉県,柏市,大井１４６番地７６,,12,217,2770902,,,,,,,2022-04-27,1,,,,,ガーデンハンズ,0
1139,4050001050993,新規,0,2022-04-27,2022-04-27,エディフィシオマネジメント株式会社,,株式会社,茨城県,取手市,双葉３丁目１２番１５号,,08,217,3001501,,,,,,,2022-04-27,1,,,,,エディフィシオマネジメント,0
1140,4050001051001,新規,0,2022-04-27,2022-04-27,株式会社Ｎａｋａｇｕｃｈｉ,,株式会社,茨城県,稲敷郡美浦村,大字興津１２９８番地９,,08,442,3000425,,,,,,,2022-04-27,1,,,,,ナカグチ,0
1141,4050001051018,新規,0,2022-04-27,2022-04-27,ＳＥＮＵＭＩ　ＡＵＴＯ　ＨＯＬＤＩＮＧＳ株式会社,,株式会社,茨城県,稲敷郡阿見町,大字青宿７３９－３８,,08,443,3000301,,,,,,,2022-04-27,1,,,,,セヌミオートホールディングス,0
1142,4050003006515,新規,0,2022-04-27,2022-04-27,合同会社Ｌｉｆｅ　Ｅｍｐｏｗｅｒｍｅｎｔ,,合同会社,茨城県,筑西市,山崎５８７－４,,08,227,3080865,,,,,,,2022-04-27,1,,,,,ライフエンパワーメント,0
1143,4050003006531,新規,0,2022-04-27,2022-04-27,シノケンオフィス合同会社,,合同会社,茨城県,鹿嶋市,大字角折１３０７番地２９,,08,222,3112212,,,,,,,2022-04-27,1,,,,,シノケンオフィス,0
1146,4060001034797,新規,0,2022-04-27,2022-04-27,ＳＯＮＩ株式会社,,株式会社,栃木県,栃木市,岩舟町新里１３０３－２－２２号,,09,203,3294316,,,,,,,2022-04-27,1,,,,,ソニー,0
1147,4060003004055,新規,0,2022-04-27,2022-04-27,合同会社メトロ計画,,合同会社,栃木県,宇都宮市,南一の沢町１番２９号,,09,201,3200044,,,,,,,2022-04-27,1,,,,,メトロケイカク,0
1148,4070001039176,新規,0,2022-04-27,2022-04-27,株式会社パーキンス,,株式会社,群馬県,高崎市,吉井町神保１２００番地２１,,10,202,3702123,,,,,,,2022-04-27,1,,,,,パーキンス,0
1153,4080403004529,新規,0,2022-04-27,2022-04-27,ＨＴ　ＮＨＡＴ　ＴＵ合同会社,,合同会社,静岡県,湖西市,新所５０５６番地の４,,22,221,4310421,,,,,,,2022-04-27,1,,,,,エイチティーニャットトゥ,0
1178,4120001245520,新規,0,2022-04-27,2022-04-27,潮＿国際株式会社,00126418,株式会社,大阪府,大阪市天王寺区,空堀町１１番７号,,27,109,5430012,,,,,,,2022-04-27,1,,,,,チョウシンコクサイ,0
1194,4130001071651,新規,0,2022-04-27,2022-04-27,株式会社ＫｏｃｏＫａｒａ,,株式会社,京都府,京都市東山区,小松町５７０－５－１０４,,26,105,6050811,,,,,,,2022-04-27,1,,,,,ココカラ,0
1196,4130005016462,新規,0,2022-04-27,2022-04-27,一般社団法人イベント・イノベーション,,その他の設立登記法人,京都府,京都市中京区,松ケ枝町４５２番地４スーパーグランドビル３Ｆ,,26,104,6048034,,,,,,,2022-04-27,1,,,,,イベントイノベーション,0
1201,4140001125761,新規,0,2022-04-27,2022-04-27,株式会社ホーム・リノ,,株式会社,兵庫県,神戸市垂水区,塩屋町１丁目５番１１－４０１号,,28,108,6550872,,,,,,,2022-04-27,1,,,,,ホームリノ,0
1215,4180001151077,新規,0,2022-04-27,2022-04-27,株式会社ＲＥＡＬＷＯＲＫＳ,,株式会社,愛知県,名古屋市千種区,今池３丁目１６番１２号,,23,101,4640850,,,,,,,2022-04-27,1,,,,,リアルワークス,0
1216,4180001151093,新規,0,2022-04-27,2022-04-27,株式会社ＹＲＫ,,株式会社,愛知県,名古屋市東区,芳野１丁目１８番７号,,23,102,4610027,,,,,,,2022-04-27,1,,,,,ワイアールケイ,0
1219,4180003023745,新規,0,2022-04-27,2022-04-27,合同会社Ｓｍｉｌｅｓｈｉｐ,,合同会社,愛知県,瀬戸市,八幡台６丁目１９番地,,23,204,4890861,,,,,,,2022-04-27,1,,,,,スマイルシップ,0
1222,4190003003969,新規,0,2022-04-27,2022-04-27,合同会社みつば,,合同会社,三重県,亀山市,みずほ台１４番地４１７,,24,210,5190105,,,,,,,2022-04-27,1,,,,,ミツバ,0
1225,4200001040013,新規,0,2022-04-27,2022-04-27,株式会社ＵＭＡＲ　ＴＲＡＤＩＮＧ,,株式会社,岐阜県,美濃加茂市,加茂野町今泉１５４７番地２４コーポモナリザ２０５号室,,21,211,5050052,,,,,,,2022-04-27,1,,,,,ウマルトレーディング,0
1226,4220003003271,新規,0,2022-04-27,2022-04-27,スマートライフコーディネータースピッツ合同会社,,合同会社,石川県,金沢市,広岡２丁目２‐３３,,17,201,9200031,,,,,,,2022-04-27,1,,,,,スマートライフコーディネータースピッツ,0
1231,4240001059677,新規,0,2022-04-27,2022-04-27,株式会社エース,,株式会社,広島県,呉市,中通４丁目１０番２－３０１号,,34,202,7370046,,,,,,,2022-04-27,1,,,,,エース,0
1234,4250003003054,新規,0,2022-04-27,2022-04-27,ＡＬＦＩＮＥ製薬合同会社,,合同会社,山口県,宇部市,新天町１丁目２番３８号,,35,202,7550029,,,,,,,2022-04-27,1,,,,,アルフィーネセイヤク,0
1236,4260001036798,新規,0,2022-04-27,2022-04-27,株式会社藤正,,株式会社,岡山県,笠岡市,富岡８８番地１７,,33,205,7140092,,,,,,,2022-04-27,1,,,,,フジショウ,0
1237,4260005011079,新規,0,2022-04-27,2022-04-27,一般社団法人岡山県ブレイキンカルチャー協会,,その他の設立登記法人,岡山県,岡山市北区,北長瀬本町１６番２－２号,,33,101,7000961,,,,,,,2022-04-27,1,,,,,オカヤマケンブレイキンカルチャーキョウカイ,0
1260,4330003009340,新規,0,2022-04-27,2022-04-27,ヒーローズ合同会社,,合同会社,熊本県,玉名郡長洲町,大字宮野字古城１２７４番地６,,43,368,8690101,,,,,,,2022-04-27,1,,,,,ヒーローズ,0
1263,4340003003763,新規,0,2022-04-27,2022-04-27,合同会社愛翔ファーム,,合同会社,鹿児島県,日置市,伊集院町郡１番地２９第１コーポ大八１０２,,46,216,8992504,,,,,,,2022-04-27,1,,,,,アイショウファーム,0
1268,4350001017715,新規,0,2022-04-27,2022-04-27,ＤＯＯＲ株式会社,,株式会社,宮崎県,宮崎市,昭和町２１番地,,45,201,8800874,,,,,,,2022-04-27,1,,,,,ドア,0
1271,4360001030304,新規,0,2022-04-27,2022-04-27,株式会社田畑工業,,株式会社,沖縄県,沖縄市,園田１丁目１６番８号照屋ビル１Ｆ,,47,211,9040022,,,,,,,2022-04-27,1,,,,,タバタコウギョウ,0
1272,4360001030320,新規,0,2022-04-27,2022-04-27,株式会社松宮オートサービス準備会社,,株式会社,沖縄県,豊見城市,字与根６番地５,,47,212,9010224,,,,,,,2022-04-27,1,,,,,マツミヤオートサービスジュンビガイシャ,0
1273,4360001030345,新規,0,2022-04-27,2022-04-27,株式会社Ｈａｎｇｏｕｔ,,株式会社,沖縄県,那覇市,おもろまち４丁目１７番９号ＴＮビル３Ｆ,,47,201,9000006,,,,,,,2022-04-27,1,,,,,ハングアウト,0
1275,4370001048493,新規,0,2022-04-27,2022-04-27,樋建株式会社,00126419,株式会社,宮城県,仙台市太白区,茂庭字人来田東３番地の８ソレイユエスト１０１,,04,104,9820251,,,,,,,2022-04-27,1,,,,,トウケン,0
1276,4370001048502,新規,0,2022-04-27,2022-04-27,株式会社トウエイフーズ,,株式会社,宮城県,仙台市泉区,市名坂字町１００番地３,,04,105,9813117,,,,,,,2022-04-27,1,,,,,トウエイフーズ,0
1278,4380001032769,新規,0,2022-04-27,2022-04-27,株式会社Ｕ３,,株式会社,福島県,福島市,南矢野目字中屋敷６２番地の９,,07,201,9600112,,,,,,,2022-04-27,1,,,,,ユースリー,0
1279,4380003005161,新規,0,2022-04-27,2022-04-27,合同会社平島,,合同会社,福島県,いわき市,平下平窪字屋越５１番地１２号,,07,204,9708003,,,,,,,2022-04-27,1,,,,,ヒラシマ,0
1285,4420001017815,新規,0,2022-04-27,2022-04-27,株式会社Ａ‐Ｒｕｎ,,株式会社,青森県,青森市,大字新城字平岡２３１番地８,,02,201,0380042,,,,,,,2022-04-27,1,,,,,アラン,0
1286,4420001017823,新規,0,2022-04-27,2022-04-27,株式会社セトル,,株式会社,青森県,八戸市,類家２丁目７番４４号,,02,203,0310001,,,,,,,2022-04-27,1,,,,,セトル,0
1291,4430005014460,新規,0,2022-04-27,2022-04-27,特定非営利活動法人札幌成年後見センター,,その他の設立登記法人,北海道,札幌市豊平区,平岸三条８丁目９番２３－４０８号,,01,105,0620933,,,,,,,2022-04-27,1,,,,,サッポロセイネンコウケンセンター,0
1302,4700150005451,新規,0,2022-04-27,2015-10-09,士友会,,その他,東京都,港区,新橋６丁目１９－１５東京美術倶楽部内,,13,103,1050004,,,,,,,2015-10-09,1,,,,,シユウカイ,0
1303,4700150024930,新規,0,2022-04-27,2015-10-09,宮原学童保育所,,その他,大阪府,大阪市淀川区,西三国２丁目６－７,,27,123,5320006,,,,,,,2015-10-09,1,,,,,ミヤハラガクドウホイクシヨ,0
1306,4700150106919,新規,0,2022-04-27,2022-02-04,南あわじ市歴史を活かしたまちづくり実行委員会,,その他,兵庫県,南あわじ市,市善光寺２２－１,,28,224,6560472,,,,,,,2022-02-04,1,,,,,ミナミアワジシレキシヲイカシタマチヅクリジツコウイインカイ,0
1307,4700150107925,新規,0,2022-04-27,2022-04-13,宏声会,,その他,東京都,国分寺市,本多３丁目８－１４,,13,214,1850011,,,,,,,2022-04-13,1,,,,,コウセイカイ,0
1308,4700150108403,新規,0,2022-04-27,2022-04-27,ＦＵＪＩ　ＬＡＮＫＡ　ＩＭＰＯＲＴ　ＥＸＰＯＲＴ　ＰＶＴ　ＬＴＤ．,,外国会社等,千葉県,富里市,立沢７３２－Ａ３,,12,233,2860214,スリランカ民主社会主義共和国、キャンディ、ディ・エス・セナナヤケストリート、Ｎｏ．４７／１０,,,,,,2022-04-27,1,,,,,フジランカーインポートエキスポートピーヴイテイエルテイデイ,0
1318,5010001225672,新規,0,2022-04-27,2022-04-27,株式会社ｃｌｅａ．ｃｃ,,株式会社,東京都,中央区,銀座６丁目１３－１６Ｗａｌｌビル５０１,,13,102,1040061,,,,,,,2022-04-27,1,,,,,クレア,0
1319,5010001226092,新規,0,2022-04-27,2022-04-27,株式会社ヒューマンドリームプランニング,,株式会社,東京都,中央区,晴海３丁目１３番１号,,13,102,1040053,,,,,,,2022-04-27,1,,,,,ヒューマンドリームプランニング,0
1320,5010001226142,新規,0,2022-04-27,2022-04-27,株式会社ｅｍｍｙ,,株式会社,東京都,文京区,本郷５丁目１－１１ＫＩＩＨＯＵＳＥ２０２,,13,105,1130033,,,,,,,2022-04-27,1,,,,,エミー,0
1321,5010001226167,新規,0,2022-04-27,2022-04-27,ティッセンクルップ・ウーデ・ジャパン株式会社,,株式会社,東京都,中央区,日本橋茅場町１丁目１３番１２号,,13,102,1030025,,,,,,,2022-04-27,1,,,,,ティッセンクルップウーデジャパン,0
1322,5010001226183,新規,0,2022-04-27,2022-04-27,株式会社ＣＥＥＤＡ,,株式会社,東京都,千代田区,九段南１丁目５番６号りそな九段ビル５階ＫＳフロア,,13,101,1020074,,,,,,,2022-04-27,1,,,,,シーダ,0
1324,5010003037538,新規,0,2022-04-27,2022-04-27,合同会社デッカード,,合同会社,東京都,中央区,銀座１丁目１２－４Ｎ＆Ｅ・ＢＬＤ．７階,,13,102,1040061,,,,,,,2022-04-27,1,,,,,デッカード,0
1325,5010005034946,新規,0,2022-04-27,2022-04-27,一般社団法人ジュゴンキャピタル,,その他の設立登記法人,東京都,千代田区,丸の内３丁目１番１号東京共同会計事務所内,,13,101,1000005,,,,,,,2022-04-27,1,,,,,ジュゴンキャピタル,0
1341,5010501048763,新規,0,2022-04-27,2022-04-27,ＡＪジャパン株式会社,,株式会社,東京都,台東区,上野５丁目１５番１４号,,13,106,1100005,,,,,,,2022-04-27,1,,,,,エイジェイジャパン,0
1344,5010601061030,新規,0,2022-04-27,2022-04-27,株式会社アップドラフト,,株式会社,東京都,江東区,東陽５丁目２９番１６－１０７号,,13,108,1350016,,,,,,,2022-04-27,1,,,,,アップドラフト,0
1347,5010901050757,新規,0,2022-04-27,2022-04-27,株式会社ＦＡＭＵ,,株式会社,東京都,世田谷区,下馬２丁目１４－９,,13,112,1540002,,,,,,,2022-04-27,1,,,,,ファム,0
1357,5011001147188,新規,0,2022-04-27,2022-04-27,株式会社Ｖｅｒｍｉｌｉｏｎ　Ｃａｐｉｔａｌ　Ｖｉｌｌａｇｅ,,株式会社,東京都,目黒区,碑文谷６丁目８番１４号,,13,110,1520003,,,,,,,2022-04-27,1,,,,,ヴァーミリオンキャピタルヴィレッジ,0
1362,5011103011705,新規,0,2022-04-27,2022-04-27,つくばＤＣ合同会社,,合同会社,東京都,新宿区,西新宿７丁目１番７号,,13,104,1600023,,,,,,,2022-04-27,1,,,,,ツクバディシー,0
1366,5011301027742,新規,0,2022-04-27,2022-04-27,株式会社Ｔａｋｋ　Ｔａｂｌｅ,,株式会社,東京都,杉並区,荻窪５丁目１０番２２号ＭＯＭＯ００２,,13,115,1670051,,,,,,,2022-04-27,1,,,,,タックテーブル,0
1371,5011501027996,新規,0,2022-04-27,2022-04-27,株式会社田中外装,,株式会社,東京都,荒川区,南千住１丁目２０番３号関方,,13,118,1160003,,,,,,,2022-04-27,1,,,,,タナカガイソウ,0
1374,5011601025917,新規,0,2022-04-27,2022-04-27,株式会社佐野ホーム,,株式会社,東京都,練馬区,桜台２丁目４３番３号,,13,120,1760002,,,,,,,2022-04-27,1,,,,,サノホーム,0
1378,5011801040658,新規,0,2022-04-27,2022-04-27,豊世株式会社,,株式会社,東京都,葛飾区,水元４丁目３番８－４０５号クレスト水元,,13,122,1250032,,,,,,,2022-04-27,1,,,,,トヨセ,0
1379,5012305002005,新規,0,2022-04-27,2022-04-27,一般社団法人町田まちづくり研究会,,その他の設立登記法人,東京都,町田市,原町田４丁目１９番６－７０１号,,13,209,1940013,,,,,,,2022-04-27,1,,,,,マチダマチヅクリケンキュウカイ,0
1391,5013301048999,新規,0,2022-04-27,2022-04-27,株式会社リューズ,,株式会社,東京都,豊島区,池袋２丁目５３番３号２０３,,13,116,1710014,,,,,,,2022-04-27,1,,,,,リューズ,0
1402,5020003021623,新規,0,2022-04-27,2022-04-27,Ｓｔｒａｗｂｅｒｒｙ合同会社,,合同会社,神奈川県,川崎市高津区,諏訪２丁目１３番２号モルトべーネ・Ｆ,,14,134,2130004,,,,,,,2022-04-27,1,,,,,ストロベリー,0
1403,5020003021706,新規,0,2022-04-27,2022-04-27,合同会社ＦＥＬＩＣＥ,,合同会社,神奈川県,横浜市中区,桜木町２丁目２番地港陽ビル３階,,14,104,2310062,,,,,,,2022-04-27,1,,,,,フェリーチェ,0
1411,5030001147948,新規,0,2022-04-27,2022-04-27,株式会社三石四海,,株式会社,埼玉県,川口市,上青木１丁目２３番３６－５０６号,,11,203,3330844,,,,,,,2022-04-27,1,,,,,ミツイシシカイ,0
1415,5040001123163,新規,0,2022-04-27,2022-04-27,株式会社全マーケティング,,株式会社,千葉県,匝瑳市,東小笹３６２番地１,,12,235,2892121,,,,,,,2022-04-27,1,,,,,ゼンマーケティング,0
1416,5040001123188,新規,0,2022-04-27,2022-04-27,株式会社ＷＡ,,株式会社,千葉県,船橋市,前原西１丁目３－２４,,12,204,2740825,,,,,,,2022-04-27,1,,,,,ワ,0
1417,5040001123196,新規,0,2022-04-27,2022-04-27,Ｅｌｙｓｉａｎ株式会社,,株式会社,千葉県,松戸市,幸谷７６４番地の７,,12,207,2700017,,,,,,,2022-04-27,1,,,,,エーリュシオン,0
1421,5040003019938,新規,0,2022-04-27,2022-04-27,ＴＡＭＡ合同会社,,合同会社,千葉県,市川市,相之川１丁目２０番１９号３０２,,12,203,2720143,,,,,,,2022-04-27,1,,,,,タマ,0
1422,5040003019946,新規,0,2022-04-27,2022-04-27,三泰製造所合同会社,,合同会社,千葉県,市川市,大野町１丁目３８３－１４,,12,203,2720805,,,,,,,2022-04-27,1,,,,,ミツヤスセイゾウショ,0
1423,5040003019954,新規,0,2022-04-27,2022-04-27,ＺＥＲＯ‐ＯＮＥ合同会社,,合同会社,千葉県,千葉市美浜区,中瀬１丁目３番地幕張テクノガーデンＣＢ棟３階ＭＢＰ,,12,106,2610023,,,,,,,2022-04-27,1,,,,,ゼロワン,0
1431,5060001034755,新規,0,2022-04-27,2022-04-27,株式会社ＳＥＴ　ＵＰ　ＪＡＰＡＮ,,株式会社,栃木県,小山市,駅東通り１丁目２－４５プレミスト小山ステーションレジデンス１５０６号,,09,208,3230022,,,,,,,2022-04-27,1,,,,,セットアップジャパン,0
1432,5060001034813,新規,0,2022-04-27,2022-04-27,ナノエムテクノロジー株式会社,,株式会社,栃木県,小山市,大字雨ケ谷７９１番地１６,,09,208,3230826,,,,,,,2022-04-27,1,,,,,ナノエムテクノロジー,0
1435,5070001039175,新規,0,2022-04-27,2022-04-27,森谷農園株式会社,,株式会社,群馬県,藤岡市,中大塚５２６番地,,10,209,3750053,,,,,,,2022-04-27,1,,,,,モリヤノウエン,0
1437,5080003002790,新規,0,2022-04-27,2022-04-27,合同会社ＢＵＬＫＰＬＡＮ,,合同会社,静岡県,静岡市駿河区,下島１３２－２フォーラム４５、１階,,22,102,4228037,,,,,,,2022-04-27,1,,,,,バルクプラン,0
1442,5080403004528,新規,0,2022-04-27,2022-04-27,合同会社ｌｕｐｕｓ,,合同会社,静岡県,掛川市,成滝１４７番地の２,,22,213,4360085,,,,,,,2022-04-27,1,,,,,ルプス,0
1443,5090001017542,新規,0,2022-04-27,2022-04-27,株式会社グリーン,,株式会社,山梨県,南都留郡忍野村,忍草２４２７番地１４,,19,424,4010511,,,,,,,2022-04-27,1,,,,,,0
1445,5090005007481,新規,0,2022-04-27,2022-04-27,一般社団法人国際金継ぎ師協会,,その他の設立登記法人,山梨県,山梨市,上石森２５番地の３,,19,205,4050014,,,,,,,2022-04-27,1,,,,,コクサイキンツギシキョウカイ,0
1451,5100003006517,新規,0,2022-04-27,2022-04-27,ＡＦＢＬ合同会社,,合同会社,長野県,北佐久郡軽井沢町,大字長倉２３５４番地７,,20,321,3890111,,,,,,,2022-04-27,1,,,,,エーエフビーエル,0
1453,5110001036622,新規,0,2022-04-27,2022-04-27,株式会社コマテック,,株式会社,新潟県,新潟市南区,西萱場１０８７番地１４,,15,106,9501303,,,,,,,2022-04-27,1,,,,,コマテック,0
1473,5120001245511,新規,0,2022-04-27,2022-04-27,株式会社ｔＥｂ,,株式会社,大阪府,大阪市中央区,西心斎橋１丁目８番４号,,27,128,5420086,,,,,,,2022-04-27,1,,,,,テブ,0
1493,5130001071634,新規,0,2022-04-27,2022-04-27,株式会社節道,,株式会社,京都府,京都市中京区,道祐町１３５―１,,26,104,6048118,,,,,,,2022-04-27,1,,,,,ブシドウ,0
1494,5130001071659,新規,0,2022-04-27,2022-04-27,英華株式会社,,株式会社,京都府,京都市伏見区,深草東瓦町２３－１１・１Ｆ,,26,109,6120821,,,,,,,2022-04-27,1,,,,,エイカ,0
1495,5130003007909,新規,0,2022-04-27,2022-04-27,合同会社ライコン,,合同会社,京都府,京都市山科区,西野広見町４６番地１０ライフメンテナンス清水２Ｆ,,26,110,6078348,,,,,,,2022-04-27,1,,,,,ライコン,0
1499,5140005026154,新規,0,2022-04-27,2022-04-27,一般社団法人ＡＲＴＬＡＢＯ,,その他の設立登記法人,兵庫県,神戸市西区,井吹台北町２丁目４番地の６,,28,111,6512244,,,,,,,2022-04-27,1,,,,,アートラボ,0
1507,5180001151002,新規,0,2022-04-27,2022-04-27,ＭＩＲＡＩＥホーム株式会社,,株式会社,愛知県,名古屋市東区,代官町４０番１５号Ｌ　ｂｕｉｌｄｉｎｇ　Ｄａｉｋａｎｃｈｏ８Ｆ,,23,102,4610002,,,,,,,2022-04-27,1,,,,,ミライエホーム,0
1508,5180001151092,新規,0,2022-04-27,2022-04-27,エム・ランディック株式会社,,株式会社,愛知県,一宮市,佐千原字郷前３２番地１,,23,203,4910124,,,,,,,2022-04-27,1,,,,,エムランディック,0
1509,5180001151101,新規,0,2022-04-27,2022-04-27,株式会社タマテック,,株式会社,愛知県,名古屋市中川区,吉津１丁目１５１７番地の２,,23,110,4540981,,,,,,,2022-04-27,1,,,,,タマテック,0
1512,5180003023769,新規,0,2022-04-27,2022-04-27,合同会社Ｐｈａｓｅ,,合同会社,愛知県,名古屋市西区,児玉２丁目１３番１号,,23,104,4510066,,,,,,,2022-04-27,1,,,,,フェイズ,0
1525,5240001059684,新規,0,2022-04-27,2022-04-27,株式会社ＴＲＳ,,株式会社,広島県,廿日市市,宮内１丁目１１番２号,,34,213,7380034,,,,,,,2022-04-27,1,,,,,ティーアールエス,0
1538,5290001097242,新規,0,2022-04-27,2022-04-27,株式会社ＭＡＲＩＳＳ,,株式会社,福岡県,福岡市中央区,大名２丁目２－２後藤ビル４０７,,40,133,8100041,,,,,,,2022-04-27,1,,,,,マリス,0
1546,5320003003789,新規,0,2022-04-27,2022-04-27,合同会社フューチャーＣ,,合同会社,大分県,大分市,金池町５丁目３番３号,,44,201,8700026,,,,,,,2022-04-27,1,,,,,フューチャーシー,0
1547,5320005009990,新規,0,2022-04-27,2022-04-27,一般社団法人おふぃすＨＩＹｏＣｏ,,その他の設立登記法人,大分県,杵築市,大字守江３１５８番地１,,44,210,8730033,,,,,,,2022-04-27,1,,,,,オフィスヒヨコ,0
1548,5330001029678,新規,0,2022-04-27,2022-04-27,イエッテ株式会社,,株式会社,熊本県,熊本市中央区,水道町８－１よねはくビル１０２,,43,101,8600844,,,,,,,2022-04-27,1,,,,,イエッテ,0
1549,5340001024686,新規,0,2022-04-27,2022-04-27,株式会社サンエイ工業,,株式会社,鹿児島県,指宿市,西方４８８５番地５ライラックハイツ２０１,,46,210,8910311,,,,,,,2022-04-27,1,,,,,サンエイコウギョウ,0
1554,5360001030328,新規,0,2022-04-27,2022-04-27,株式会社アクロスオリエンタル,,株式会社,沖縄県,那覇市,久茂地１丁目１番１号９階,,47,201,9000015,,,,,,,2022-04-27,1,,,,,アクロスオリエンタル,0
1558,5370001048492,新規,0,2022-04-27,2022-04-27,株式会社ＢＩＧ　ＴＯＷＮ,,株式会社,宮城県,仙台市青葉区,霊屋下１番１号アカデメイアおたまや１０５,,04,101,9800814,,,,,,,2022-04-27,1,,,,,ビッグタウン,0
1566,5380001032768,新規,0,2022-04-27,2022-04-27,プライムオートガレージ株式会社,,株式会社,福島県,南相馬市,鹿島区上栃窪字瀬ノ沢２０－１,,07,212,9792462,,,,,,,2022-04-27,1,,,,,プライムオートガレージ,0
1576,5430001086552,新規,0,2022-04-27,2022-04-27,株式会社ノースレオパード,,株式会社,北海道,札幌市中央区,南十一条西２３丁目２番１－６０７号,,01,101,0640811,,,,,,,2022-04-27,1,,,,,ノースレオパード,0
1591,5700150104814,新規,0,2022-04-27,2021-09-21,グッチーズ・フリースクール,,その他,埼玉県,川越市,岸町１丁目２５－５３増田第２ハイツ３０１,,11,201,3501131,,,,,,,2021-09-21,1,,,,,グツチーズフリースクール,0
1592,5700150107387,新規,0,2022-04-27,2022-03-14,Ｈｕｇ　Ｍｅ,,その他,東京都,足立区,竹の塚７丁目８－５,,13,121,1210813,,,,,,,2022-03-14,1,,,,,ハグミ,0
1593,5700150108393,新規,0,2022-04-27,2022-04-27,ＨＥＹＩＮＺ　ＬＡＮＫＡ　ＣＯＭＰＡＮＹ,,外国会社等,千葉県,八街市,東吉田７２５番地オフィス８号,,12,230,2891114,スリランカ民主社会主義共和国、ハンデッサ、アンバラポラ、Ｂ、２２５,,,,,,2022-04-27,1,,,,,ヘインツランカカンパニー,0
1598,6010001226141,新規,0,2022-04-27,2022-04-27,株式会社Ｑｕｅｃｔｏ,,株式会社,東京都,千代田区,岩本町３丁目８番８号,,13,101,1010032,,,,,,,2022-04-27,1,,,,,クエクト,0
1599,6010001226182,新規,0,2022-04-27,2022-04-27,Ｂｕｚｚ株式会社,,株式会社,東京都,千代田区,麹町２丁目１０－３－３０３,,13,101,1020083,,,,,,,2022-04-27,1,,,,,バズ,0
1600,6010001226199,新規,0,2022-04-27,2022-04-27,株式会社ＦＥＲＮＡ,,株式会社,東京都,千代田区,神田佐久間河岸７０番地第二田中ビル５階５６号,,13,101,1010026,,,,,,,2022-04-27,1,,,,,フェルナ,0
1601,6010001226240,新規,0,2022-04-27,2022-04-27,株式会社銀座Ｃ．Ｃ,,株式会社,東京都,中央区,銀座８丁目４番２５もりくまビル４階Ａ室,,13,102,1040061,,,,,,,2022-04-27,1,,,,,ギンザシーシー,0
1603,6010003037553,新規,0,2022-04-27,2022-04-27,ワンマイルトウキョウ合同会社,,合同会社,東京都,中央区,京橋１丁目１－５,,13,102,1040031,,,,,,,2022-04-27,1,,,,,ワンマイルトウキョウ,0
1604,6010003037561,新規,0,2022-04-27,2022-04-27,ユーラピス合同会社,,合同会社,東京都,中央区,銀座１丁目２２番１１号,,13,102,1040061,,,,,,,2022-04-27,1,,,,,ユーラピス,0
1605,6010005034945,新規,0,2022-04-27,2022-04-27,一般社団法人ライチョウホールディングス,,その他の設立登記法人,東京都,千代田区,丸の内３丁目１番１号東京共同会計事務所内,,13,101,1000005,,,,,,,2022-04-27,1,,,,,ライチョウホールディングス,0
1616,6010403027583,新規,0,2022-04-27,2022-04-27,ｉｂｏｓｓ　Ｊａｐａｎ合同会社,,合同会社,東京都,港区,虎ノ門１丁目１７番１号虎ノ門ヒルズビジネスタワー１５階,,13,103,1050001,,,,,,,2022-04-27,1,,,,,アイボスジャパン,0
1617,6010405020925,新規,0,2022-04-27,2022-04-27,一般社団法人脳トレ協会,,その他の設立登記法人,東京都,港区,東新橋２丁目１０番１０－１０１７号,,13,103,1050021,,,,,,,2022-04-27,1,,,,,ノウトレキョウカイ,0
1624,6010603009506,新規,0,2022-04-27,2022-04-27,ＺＥｉＮ合同会社,,合同会社,東京都,江東区,東陽５丁目２－５－１０１号,,13,108,1350016,,,,,,,2022-04-27,1,,,,,ゼイン,0
1625,6010701042565,新規,0,2022-04-27,2022-04-27,株式会社コントリ,,株式会社,東京都,品川区,西五反田７丁目５－７,,13,109,1410031,,,,,,,2022-04-27,1,,,,,コントリ,0
1626,6010703006213,新規,0,2022-04-27,2022-04-27,合同会社ＫＵＷＡＫＡＫＵ,,合同会社,東京都,品川区,大崎３丁目５番８－４０１号,,13,109,1410032,,,,,,,2022-04-27,1,,,,,クワカク,0
1628,6010901050772,新規,0,2022-04-27,2022-04-27,Ｈｕｍａｎ　Ｐｕｒｉｔｙ株式会社,,株式会社,東京都,世田谷区,駒沢５丁目１７番１３号Ａ,,13,112,1540012,,,,,,,2022-04-27,1,,,,,ヒューマンピュアリティ,0
1633,6011001147154,新規,0,2022-04-27,2022-04-27,株式会社ＥＮ．ｓｔｕｄｉｏ,,株式会社,東京都,渋谷区,道玄坂１丁目１０番８号,,13,113,1500043,,,,,,,2022-04-27,1,,,,,エンスタジオ,0
1634,6011001147220,新規,0,2022-04-27,2022-04-27,パワーワンストップ株式会社,,株式会社,東京都,渋谷区,神宮前６丁目２３番４号桑野ビル２階,,13,113,1500001,,,,,,,2022-04-27,1,,,,,パワーワンストップ,0
1635,6011001147253,新規,0,2022-04-27,2022-04-27,株式会社ウィズプラス,,株式会社,東京都,目黒区,目黒１丁目４番１６号目黒Ｇビル７階,,13,110,1530063,,,,,,,2022-04-27,1,,,,,ウィズプラス,0
1637,6011003014609,新規,0,2022-04-27,2022-04-27,ＺＩＬＣＨ合同会社,,合同会社,東京都,渋谷区,道玄坂１丁目１０番８号渋谷道玄坂東急ビル２Ｆ－Ｃ,,13,113,1500043,,,,,,,2022-04-27,1,,,,,,0
1642,6011101098660,新規,0,2022-04-27,2022-04-27,株式会社ＨＳＥ　ＯＮＥ,,株式会社,東京都,新宿区,西新宿６丁目１２番４号,,13,104,1600023,,,,,,,2022-04-27,1,,,,,エイチエスイーワン,0
1643,6011103011687,新規,0,2022-04-27,2022-04-27,合同会社ＶＡＮ　ｄｅ　ＣＯＳＭＩＣＡ,,合同会社,東京都,新宿区,四谷１丁目１９番地１６第一上野ビル７階,,13,104,1600004,,,,,,,2022-04-27,1,,,,,ヴァンデコスミカ,0
1644,6011103011704,新規,0,2022-04-27,2022-04-27,ＲＡＳ合同会社,,合同会社,東京都,新宿区,四谷４丁目３２番８号ＹＫＢサニービル６階,,13,104,1600004,,,,,,,2022-04-27,1,,,,,アールエーエス,0
1646,6011201023790,新規,0,2022-04-27,2022-04-27,株式会社ファーイーストジャパン,,株式会社,東京都,中野区,本町４丁目８番６号ソフィアラック２０２,,13,114,1640012,,,,,,,2022-04-27,1,,,,,ファーイーストジャパン,0
1660,6012301012972,新規,0,2022-04-27,2022-04-27,株式会社ダイレクトメッセンジャー,,株式会社,東京都,町田市,成瀬が丘２丁目１番地１,,13,209,1940011,,,,,,,2022-04-27,1,,,,,ダイレクトメッセンジャー,0
1665,6013305003339,新規,0,2022-04-27,2022-04-27,一般社団法人ミュージックライフ・スタイリング協会,,その他の設立登記法人,東京都,豊島区,池袋２丁目３６番１号,,13,116,1710014,,,,,,,2022-04-27,1,,,,,ミュージックライフスタイリングキョウカイ,0
1673,6020001146157,新規,0,2022-04-27,2022-04-27,株式会社プハト,,株式会社,神奈川県,川崎市高津区,諏訪１丁目２３番１８－３０３号,,14,134,2130004,,,,,,,2022-04-27,1,,,,,プハト,0
1674,6020001146297,新規,0,2022-04-27,2022-04-27,ＨＭＡ株式会社,,株式会社,神奈川県,横浜市戸塚区,俣野町２５０番地,,14,110,2450066,,,,,,,2022-04-27,1,,,,,エイチエムエー,0
1687,6021003011646,新規,0,2022-04-27,2022-04-27,合同会社トミー,,合同会社,神奈川県,小田原市,千代７４番地,,14,206,2500215,,,,,,,2022-04-27,1,,,,,トミー,0
1698,6030001147930,新規,0,2022-04-27,2022-04-27,株式会社グリーンバンブー,,株式会社,埼玉県,さいたま市南区,文蔵３丁目３０番１号寿々喜マンション２０２,,11,108,3360025,,,,,,,2022-04-27,1,,,,,グリーンバンブー,0
1699,6030001147947,新規,0,2022-04-27,2022-04-27,丸和運輸機関分割準備株式会社,,株式会社,埼玉県,吉川市,旭７番地１,,11,243,3420008,,,,,,,2022-04-27,1,,,,,マルワウンユキカンブンカツジュンビ,0
1712,6050001051016,新規,0,2022-04-27,2022-04-27,株式会社ＮＡオート,,株式会社,茨城県,稲敷郡阿見町,大字福田４１７－１,,08,443,3001156,,,,,,,2022-04-27,1,,,,,エヌエーオート,0
1720,6070001039182,新規,0,2022-04-27,2022-04-27,株式会社Ｐｏｌｉｔｅ,,株式会社,群馬県,前橋市,大胡町５５７番地,,10,201,3710223,,,,,,,2022-04-27,1,,,,,ポライト,0
1722,6070003004473,新規,0,2022-04-27,2022-04-27,合同会社ＫＲ,,合同会社,群馬県,高崎市,石原町２０４８ベルヴュー高崎Ｃ１０３,,10,202,3700864,,,,,,,2022-04-27,1,,,,,ケーアール,0
1748,6120001245510,新規,0,2022-04-27,2022-04-27,株式会社香里不動産,,株式会社,大阪府,枚方市,出口３丁目１番３０－５０８号,,27,210,5730065,,,,,,,2022-04-27,1,,,,,コウリフドウサン,0
1749,6120001245535,新規,0,2022-04-27,2022-04-27,ＡＴＴＥＮＤ　ＴＩＭＥ株式会社,,株式会社,大阪府,大阪市中央区,淡路町３丁目５－７,,27,128,5410047,,,,,,,2022-04-27,1,,,,,アテンドタイム,0
1755,6120005022930,新規,0,2022-04-27,2022-04-27,特定非営利活動法人こどもミライアート,,その他の設立登記法人,大阪府,枚方市,東香里２丁目２６番１５号,,27,210,5730075,,,,,,,2022-04-27,1,,,,,コドモミライアート,0
1758,6120103004673,新規,0,2022-04-27,2022-04-27,合同会社ＣＨＩＫＵＢＡ,,合同会社,大阪府,泉北郡忠岡町,馬瀬２丁目１６番１６－２号,,27,341,5950804,,,,,,,2022-04-27,1,,,,,チクバ,0
1761,6120901045893,新規,0,2022-04-27,2022-04-27,株式会社ＦＫＳ,,株式会社,大阪府,豊中市,原田元町１丁目１５番３０号,,27,203,5610808,,,,,,,2022-04-27,1,,,,,エフケーエス,0
1762,6120903004121,新規,0,2022-04-27,2022-04-27,合同会社ｖｏｌａｎｔｅ,,合同会社,大阪府,吹田市,江坂町２丁目１番８－２１８号,,27,205,5640063,,,,,,,2022-04-27,1,,,,,ボランチ,0
1774,6130003007908,新規,0,2022-04-27,2022-04-27,ＫＭＮ合同会社,,合同会社,京都府,京都市中京区,三条通高倉東入桝屋町６０番地グラビスコート三条堺町１００２号,,26,104,6048111,,,,,,,2022-04-27,1,,,,,ケーエムエヌ,0
1781,6140001125784,新規,0,2022-04-27,2022-04-27,株式会社アイエスハウズ,,株式会社,兵庫県,神戸市東灘区,深江南町１丁目７番９－１号,,28,101,6580022,,,,,,,2022-04-27,1,,,,,アイエスハウズ,0
1782,6140001125792,新規,0,2022-04-27,2022-04-27,株式会社田中工業,,株式会社,兵庫県,加古川市,志方町原８７０番地,,28,210,6750335,,,,,,,2022-04-27,1,,,,,タナカコウギョウ,0
1783,6140001125818,新規,0,2022-04-27,2022-04-27,株式会社フラップサービス,,株式会社,兵庫県,西宮市,下葭原町３番８－１０５号,,28,204,6620956,,,,,,,2022-04-27,1,,,,,フラップサービス,0
1786,6140003017583,新規,0,2022-04-27,2022-04-27,合同会社セカンドライフ研究所,,合同会社,兵庫県,佐用郡佐用町,多賀１０１０番地,,28,501,6795201,,,,,,,2022-04-27,1,,,,,セカンドライフケンキュウジョ,0
1787,6140003017625,新規,0,2022-04-27,2022-04-27,合同会社ヒトトミライ,,合同会社,兵庫県,西宮市,一ケ谷町１番３９号,,28,204,6620873,,,,,,,2022-04-27,1,,,,,ヒトトミライ,0
1795,6180001151067,新規,0,2022-04-27,2022-04-27,株式会社ガッポキムシン,,株式会社,愛知県,名古屋市中村区,黄金通１丁目１４－２カーサアクティス４０７号,,23,105,4530804,,,,,,,2022-04-27,1,,,,,ガッポキムシン,0
1796,6180001151091,新規,0,2022-04-27,2022-04-27,株式会社力建,,株式会社,愛知県,名古屋市中川区,富田町大字千音寺字南島３５３７番地の２,,23,110,4540971,,,,,,,2022-04-27,1,,,,,リッケン,0
1802,6200005013343,新規,0,2022-04-27,2022-04-27,特定非営利活動法人岐阜ａｉネットワーク,,その他の設立登記法人,岐阜県,大垣市,今宿６丁目５２－１６ソフトピアジャパンドリームコア２１２号,,21,202,5030807,,,,,,,2022-04-27,1,,,,,ギフアイネットワーク,0
1809,6220001024821,新規,0,2022-04-27,2022-04-27,株式会社ｂｌｕｅ　ｒｉｐｐｌｅｓ,,株式会社,石川県,白山市,河合町チ１０２番地,,17,210,9202373,,,,,,,2022-04-27,1,,,,,ブルーリップルズ,0
1818,6240001059683,新規,0,2022-04-27,2022-04-27,マイカーブ株式会社,,株式会社,広島県,広島市中区,舟入本町１８番２３号１階,,34,101,7300843,,,,,,,2022-04-27,1,,,,,マイカーブ,0
1819,6240005015360,新規,0,2022-04-27,2022-04-27,祇園開拓農業協同組合,,その他の設立登記法人,広島県,広島市安佐南区,祇園町大字長束１６０番地の２,,34,105,,,,,,,,2022-04-27,1,,,,,ギオンカイタク,0
1827,6270003001401,新規,0,2022-04-27,2022-04-27,合同会社ＭｉＲｉｃ　ｃｏ．,,合同会社,鳥取県,鳥取市,玄好町４２１番地２,,31,201,6800024,,,,,,,2022-04-27,1,,,,,ミリックシーオー,0
1836,6290001097340,新規,0,2022-04-27,2022-04-27,株式会社Ｇｌｏｂａｌ　ｌａｂｏ　ＫＡＫＥＨＡＳＨＩ,,株式会社,福岡県,福岡市西区,今津４６１７番地,,40,135,8190165,,,,,,,2022-04-27,1,,,,,グローバルラボカケハシ,0
1837,6290001097357,新規,0,2022-04-27,2022-04-27,株式会社イスト,,株式会社,福岡県,福岡市博多区,博多駅前３丁目７番１号葵ビル５０１,,40,132,8120011,,,,,,,2022-04-27,1,,,,,イスト,0
1838,6290001097365,新規,0,2022-04-27,2022-04-27,株式会社ＤＡＩＩＣＨＩ　ＬＴＤ．,,株式会社,福岡県,古賀市,筵内７１９番地１,,40,223,8113121,,,,,,,2022-04-27,1,,,,,ダイイチエルティーディー,0
1848,6320001019035,新規,0,2022-04-27,2022-04-27,株式会社此本不動産鑑定,,株式会社,大分県,別府市,北浜２丁目６番１０号,,44,202,8740920,,,,,,,2022-04-27,1,,,,,コノモトフドウサンカンテイ,0
1856,6350001017713,新規,0,2022-04-27,2022-04-27,サンクスマイル株式会社,,株式会社,宮崎県,都城市,郡元４丁目２３番地４,,45,202,8850018,,,,,,,2022-04-27,1,,,,,サンクスマイル,0
1857,6360001030310,新規,0,2022-04-27,2022-04-27,株式会社アセットプラン,,株式会社,沖縄県,沖縄市,桃原２丁目１１－４７,,47,211,9042164,,,,,,,2022-04-27,1,,,,,アセットプラン,0
1858,6360001030319,新規,0,2022-04-27,2022-04-27,株式会社トラベルレンタカー準備会社,,株式会社,沖縄県,豊見城市,字瀬長３番地２,,47,212,9010233,,,,,,,2022-04-27,1,,,,,トラベルレンタカージュンビガイシャ,0
1863,6370001048500,新規,0,2022-04-27,2022-04-27,株式会社ＤａｔｅＣｏｍｐａｎｙ,,株式会社,宮城県,仙台市太白区,泉崎１丁目３２番３号ロイヤルヒルズ泉崎４０１,,04,104,9820031,,,,,,,2022-04-27,1,,,,,デイトカンパニー,0
1864,6380001032767,新規,0,2022-04-27,2022-04-27,株式会社インカレッジ,,株式会社,福島県,郡山市,大槻町字原田北１番地の５,,07,203,9630201,,,,,,,2022-04-27,1,,,,,インカレッジ,0
1865,6380001032775,新規,0,2022-04-27,2022-04-27,株式会社ＴＭ工業,,株式会社,福島県,双葉郡川内村,大字上川内字十八窪１２９番地の１０地域振興住宅十八窪住宅１０３,,07,544,9791201,,,,,,,2022-04-27,1,,,,,,0
1870,6390001016876,新規,0,2022-04-27,2022-04-27,株式会社ペイフォワード,,株式会社,山形県,南陽市,赤湯２９３８番地の６,,06,213,9992211,,,,,,,2022-04-27,1,,,,,ペイフォワード,0
1877,6420001017813,新規,0,2022-04-27,2022-04-27,株式会社ＩＣＴサポート,,株式会社,青森県,青森市,新町２丁目８番１号,,02,201,0300801,,,,,,,2022-04-27,1,,,,,アイシーティーサポート,0
1878,6420001017821,新規,0,2022-04-27,2022-04-27,株式会社ＦｅｅｌＨｏｍｅ’ｓ,,株式会社,青森県,青森市,中央１丁目２６－１１,,02,201,0300822,,,,,,,2022-04-27,1,,,,,フィールホームズ,0
1893,6450003002199,新規,0,2022-04-27,2022-04-27,ＨＤ商流合同会社,,合同会社,北海道,旭川市,一条通５丁目７６番地,,01,204,0700031,,,,,,,2022-04-27,1,,,,,エイチディショウリュウ,0
1897,6500001024181,新規,0,2022-04-27,2022-04-27,株式会社ＥＱ＆ＣＯＬＯＲＳ,,株式会社,愛媛県,松山市,道後町２丁目３番４号,,38,201,7900843,,,,,,,2022-04-27,1,,,,,エクアンドカラーズ,0
1904,6700150108401,新規,0,2022-04-27,2022-04-27,ウエスト・ストリート・グロース・イーイー・エイチケー・リミテッド,,外国会社等,東京都,港区,六本木６丁目１０番１号六本木ヒルズ森タワー,,13,103,1060032,中華人民共和国香港特別行政区コーズウェイベイ、３３ハイサンアベニュー、リーガーデンワン１９階１９０１,,,,,,2022-04-27,1,,,,,ウエストストリートグロースイーイーエイチケーリミテツド,0
1912,7010003037560,新規,0,2022-04-27,2022-04-27,合同会社エステイトコア,,合同会社,東京都,中央区,銀座４丁目２番１号銀座教会堂ビル８階,,13,102,1040061,,,,,,,2022-04-27,1,,,,,エステイトコア,0
1914,7010005034944,新規,0,2022-04-27,2022-04-27,Ａｋｉｒａ一般社団法人,,その他の設立登記法人,東京都,千代田区,丸の内３丁目１番１号東京共同会計事務所内,,13,101,1000005,,,,,,,2022-04-27,1,,,,,アキラ,0
1915,7010101015154,新規,0,2022-04-27,2022-04-27,株式会社ＩＭＧ,,株式会社,東京都,八王子市,みなみ野３丁目１１番１２号,,13,201,1920916,,,,,,,2022-04-27,1,,,,,,0
1927,7010405020932,新規,0,2022-04-27,2022-04-27,一般社団法人日本夕陽を観てチルアウト協会,,その他の設立登記法人,東京都,港区,南青山２丁目２番１５号,,13,103,1070062,,,,,,,2022-04-27,1,,,,,ニホンユウヒヲミテチルアウトキョウカイ,0
1931,7010603009513,新規,0,2022-04-27,2022-04-27,合同会社ジーテン・ジャパン,,合同会社,東京都,江東区,亀戸６丁目５６番１５号,,13,108,1360071,,,,,,,2022-04-27,1,,,,,ジーテンジャパン,0
1941,7010901050771,新規,0,2022-04-27,2022-04-27,株式会社Ｌａ　ｄｅｅｓｓｅ,,株式会社,東京都,世田谷区,玉川３丁目１５番５号フェリス玉川３０５,,13,112,1580094,,,,,,,2022-04-27,1,,,,,ラデエス,0
1951,7011001146907,新規,0,2022-04-27,2022-04-27,株式会社オルトデザインオフィス,,株式会社,東京都,渋谷区,円山町５番５号Ｎａｖｉ渋谷Ｖ３階,,13,113,1500044,,,,,,,2022-04-27,1,,,,,オルトデザインオフィス,0
1971,7011703003125,新規,0,2022-04-27,2022-04-27,合同会社ＷＩＮＤ,,合同会社,東京都,江戸川区,東小松川３丁目１９番地９号,,13,123,1320033,,,,,,,2022-04-27,1,,,,,ウインド,0
1973,7011803005062,新規,0,2022-04-27,2022-04-27,合同会社ＹＯＳＨＩ,,合同会社,東京都,葛飾区,小菅４丁目２１番２２号,,13,122,1240001,,,,,,,2022-04-27,1,,,,,ヨシ,0
1986,7020001146305,新規,0,2022-04-27,2022-04-27,株式会社ダイムコーポレーション,,株式会社,神奈川県,横浜市中区,常盤町４丁目４７番地２０２,,14,104,2310014,,,,,,,2022-04-27,1,,,,,ダイムコーポレーション,0
1987,7020001146313,新規,0,2022-04-27,2022-04-27,株式会社アルバライズ,,株式会社,神奈川県,横浜市南区,高砂町２丁目２５番地４,,14,105,2320025,,,,,,,2022-04-27,1,,,,,アルバライズ,0
2001,7021001075799,新規,0,2022-04-27,2022-04-27,株式会社ＲｅＷｏｒｋ,,株式会社,神奈川県,横須賀市,光の丘８番３号ＹＲＰベンチャー棟３０９,,14,201,2390847,,,,,,,2022-04-27,1,,,,,リワーク,0
2002,7021001075824,新規,0,2022-04-27,2022-04-27,株式会社ＹＨＹ,,株式会社,神奈川県,平塚市,宝町６－１６シルフィード平塚Ｉ－５０２,00126427,14,203,2540034,,,,,,,2022-04-27,1,,,,,ワイエイチワイ,0
2014,7030001147814,新規,0,2022-04-27,2022-04-27,株式会社フルコーホールディングス,,株式会社,埼玉県,三郷市,三郷１丁目４番地１ＫＴＴ２ビル３Ｆ,,11,237,3410024,,,,,,,2022-04-27,1,,,,,フルコーホールディングス,0
2015,7030001147946,新規,0,2022-04-27,2022-04-27,株式会社橋本製作所,,株式会社,埼玉県,南埼玉郡宮代町,和戸３丁目１１番２０号,,11,442,3450836,,,,,,,2022-04-27,1,,,,,ハシモトセイサクショ,0
2029,7040003019936,新規,0,2022-04-27,2022-04-27,合同会社ｌｉｆｅｅ,,合同会社,千葉県,柏市,旭町４丁目１１－８レグレス１０１号室,,12,217,2770852,,,,,,,2022-04-27,1,,,,,ライフィー,0
2030,7040005021576,新規,0,2022-04-27,2022-04-27,一般社団法人ＭＥＲＩＡ,,その他の設立登記法人,千葉県,勝浦市,興津久保山台１８１５番地１０,,12,218,2995246,,,,,,,2022-04-27,1,,,,,メリア,0
2031,7050003006504,新規,0,2022-04-27,2022-04-27,合同会社大有商事,,合同会社,茨城県,猿島郡境町,大字大歩３２６番地５,,08,546,3060415,,,,,,,2022-04-27,1,,,,,ダイユウショウジ,0
2032,7050003006529,新規,0,2022-04-27,2022-04-27,合同会社ＫＥＮソリューションズ,,合同会社,茨城県,水戸市,備前町６番３８号,,08,201,3100024,,,,,,,2022-04-27,1,,,,,ケンソリューションズ,0
2034,7050005013069,新規,0,2022-04-27,2022-04-27,一般社団法人ＲＯＣＡＮＡ東方文化教育学会,,その他の設立登記法人,茨城県,取手市,東４丁目２番１４号,,08,217,3020005,,,,,,,2022-04-27,1,,,,,ルシャナトウホウブンカキョウイクガッカイ,0
2060,7120001245385,新規,0,2022-04-27,2022-04-27,アークジャパン株式会社,,株式会社,大阪府,大阪市北区,紅梅町１番７号久幸ビル２Ｆ２０１,,27,127,5300038,,,,,,,2022-04-27,1,,,,,アークジャパン,0
2061,7120001245501,新規,0,2022-04-27,2022-04-27,株式会社Ｊ．Ｉ．Ｌ工房,,株式会社,大阪府,大阪市浪速区,難波中３丁目１６番１１号,,27,111,5560011,,,,,,,2022-04-27,1,,,,,ジルコウボウ,0
2068,7120101065460,新規,0,2022-04-27,2022-04-27,株式会社エヌガーデン,,株式会社,大阪府,泉佐野市,日根野３２５４－１,,27,213,5980021,,,,,,,2022-04-27,1,,,,,エヌガーデン,0
2074,7122001035790,新規,0,2022-04-27,2022-04-27,株式会社ＫＩＣ,,株式会社,大阪府,柏原市,田辺１丁目１６番１８号チェールアルコ１０２号,,27,221,5820024,,,,,,,2022-04-27,1,,,,,ケイアイシー,0
2075,7122001035816,新規,0,2022-04-27,2022-04-27,株式会社ＰＡＲＡＧＯＮ,,株式会社,大阪府,東大阪市,客坊町４番９号,,27,227,5798043,,,,,,,2022-04-27,1,,,,,パラゴン,0
2084,7130001071624,新規,0,2022-04-27,2022-04-27,株式会社ｐｒｏｐａｇｅ,,株式会社,京都府,京都市山科区,竹鼻地蔵寺南町６番地竹鼻ハイツ２０８,,26,110,6078088,,,,,,,2022-04-27,1,,,,,プロページ,0
2085,7130001071649,新規,0,2022-04-27,2022-04-27,ダイゴメディカル株式会社,,株式会社,京都府,京都市伏見区,醍醐合場町２７番地２９２階,,26,109,6011347,,,,,,,2022-04-27,1,,,,,ダイゴメディカル,0
2109,7180001151009,新規,0,2022-04-27,2022-04-27,株式会社サザンウィンド,,株式会社,愛知県,名古屋市中区,千代田１丁目１２番１７号,,23,106,4600012,,,,,,,2022-04-27,1,,,,,サザンウィンド,0
2110,7180001151066,新規,0,2022-04-27,2022-04-27,株式会社ＣＩＮＮＡＢＡＲ,,株式会社,愛知県,春日井市,杁ケ島町１６番地４,,23,206,4860921,,,,,,,2022-04-27,1,,,,,シナバー,0
2111,7180001151082,新規,0,2022-04-27,2022-04-27,株式会社アルティメイト,,株式会社,愛知県,名古屋市昭和区,福江２丁目９番２８号ファミリアーレ白金２０４号,,23,107,4660059,,,,,,,2022-04-27,1,,,,,アルティメイト,0
2115,7180303005309,新規,0,2022-04-27,2022-04-27,合同会社Ｊ．Ｋ．カンパニー,,合同会社,愛知県,西尾市,馬場町３－１,,23,213,4450841,,,,,,,2022-04-27,1,,,,,ジエイケイカンパニー,0
2119,7200003005548,新規,0,2022-04-27,2022-04-27,合同会社ｓｔａｒｔ‐ｕｐ,,合同会社,岐阜県,岐阜市,上川手４７４番地６,,21,201,5008245,,,,,,,2022-04-27,1,,,,,スタートアップ,0
2120,7210001018906,新規,0,2022-04-27,2022-04-27,株式会社ヘッジサポート,,株式会社,福井県,福井市,板垣３丁目１５０１番地,,18,201,9188104,,,,,,,2022-04-27,1,,,,,ヘッジサポート,0
2154,7290001097348,新規,0,2022-04-27,2022-04-27,株式会社Ｂｅｎｌｙ,,株式会社,福岡県,福岡市早良区,早良７丁目２５番３号,,40,137,8111122,,,,,,,2022-04-27,1,,,,,ベンリー,0
2155,7290001097356,新規,0,2022-04-27,2022-04-27,株式会社二丈ケアサービス,,株式会社,福岡県,糸島市,二丈深江１０３６番地４７玄海ウエストコーストカーサ深江Ｗ－７０２号,,40,230,8191601,,,,,,,2022-04-27,1,,,,,ニジョウケアサービス,0
2156,7290001097364,新規,0,2022-04-27,2022-04-27,株式会社プログレス,,株式会社,福岡県,那珂川市,後野１丁目５番２８号,,40,231,8111241,,,,,,,2022-04-27,1,,,,,プログレス,0
2157,7290001097372,新規,0,2022-04-27,2022-04-27,株式会社ＦＡＩＲ　ＰＬＡＹ,,株式会社,福岡県,大牟田市,山上町３番地エスポワール山上弐番館２０３号,,40,202,8360833,,,,,,,2022-04-27,1,,,,,フェアプレイ,0
2162,7300001012908,新規,0,2022-04-27,2022-04-27,株式会社Ａ＆Ｔ,,株式会社,佐賀県,藤津郡太良町,大字大浦丁１４４１番地,,41,441,8491612,,,,,,,2022-04-27,1,,,,,エイアンドティー,0
2168,7320001019034,新規,0,2022-04-27,2022-04-27,エスリアン株式会社,,株式会社,大分県,大分市,大字葛木１００１番地の１５,,44,201,8700133,,,,,,,2022-04-27,1,,,,,エスリアン,0
2169,7330001029676,新規,0,2022-04-27,2022-04-27,Ｃｏｌｅｒｅ株式会社,,株式会社,熊本県,球磨郡多良木町,大字奥野８１３番地,,43,505,8680504,,,,,,,2022-04-27,1,,,,,コレル,0
2173,7340001024684,新規,0,2022-04-27,2022-04-27,株式会社あずま工業,,株式会社,鹿児島県,鹿屋市,新栄町４番１９号,,46,203,8930063,,,,,,,2022-04-27,1,,,,,アズマコウギョウ,0
2176,7360003011984,新規,0,2022-04-27,2022-04-27,合同会社Ｓ‐ｒｏｏｍ,,合同会社,沖縄県,浦添市,前田１丁目１３番２号・Ｂ１階,,47,208,9012102,,,,,,,2022-04-27,1,,,,,エスルーム,0
2179,7370001048499,新規,0,2022-04-27,2022-04-27,株式会社大閃,,株式会社,宮城県,名取市,みどり台３丁目１６番地の１４,,04,207,9811247,,,,,,,2022-04-27,1,,,,,ダイセン,0
2184,7380001032766,新規,0,2022-04-27,2022-04-27,株式会社フォルトゥナ,,株式会社,福島県,南相馬市,原町区日の出町２１６番１,,07,212,9750038,,,,,,,2022-04-27,1,,,,,フォルトゥナ,0
2191,7410005006465,新規,0,2022-04-27,2022-04-27,無限責任荒処負債整理組合,,その他の設立登記法人,秋田県,横手市,平鹿町醍醐字荒処１８５番地の２,,05,203,0130102,,,,,,,2022-04-27,1,,,,,,0
2193,7420001017820,新規,0,2022-04-27,2022-04-27,株式会社丸美農園,,株式会社,青森県,三戸郡田子町,大字石亀字石亀６７番地の１,,02,443,0390312,,,,,,,2022-04-27,1,,,,,マルミノウエン,0
2194,7420003002498,新規,0,2022-04-27,2022-04-27,合同会社紫種,,合同会社,青森県,八戸市,大字田面木字山道下タ５－３ミニョンミュゲｂ棟１０２号室,,02,203,0391104,,,,,,,2022-04-27,1,,,,,シグサ,0
2199,7460301005059,新規,0,2022-04-27,2022-04-27,株式会社プラス,,株式会社,北海道,北見市,北進町５丁目１５番３５号アトリア５－１０２号,,01,208,0900052,,,,,,,2022-04-27,1,,,,,プラス,0
2202,7490001010166,新規,0,2022-04-27,2022-04-27,株式会社ｃｏｎｆｅｅ,,株式会社,高知県,高知市,城山町２１３番地４,,39,201,7808037,,,,,,,2022-04-27,1,,,,,コンフィ,0
2209,7700150107807,新規,0,2022-04-27,2022-04-11,杭瀬第八団地管理組合,,その他,兵庫県,尼崎市,今福１丁目１番３１号,,28,202,6600812,,,,,,,2022-04-11,1,,,,,クイセダイハチダンチカンリクミアイ,0
2210,7700150107856,新規,0,2022-04-27,2022-04-12,フラメンコと日本の伝統芸能の会,,その他,石川県,羽咋郡志賀町,高浜町ク３０の３番地,,17,384,9250141,,,,,,,2022-04-12,1,,,,,フラメンコトニホンノデントウゲイノウノカイ,0
2211,7700150108029,新規,0,2022-04-27,2022-04-15,イッキ飲み防止連絡協議会,,その他,東京都,中央区,日本橋蛎殻町１丁目２－７－１Ｆ,,13,102,1030014,,,,,,,2022-04-15,1,,,,,イツキノミボウシレンラクキヨウギカイ,0
2212,7700150108391,新規,0,2022-04-27,2022-04-27,ＳＡＭＡＮ　ＴＲＡＮＳＰＯＲＴ　ＳＥＲＶＩＣＥ,,外国会社等,千葉県,長生郡長南町,豊原２８００,,12,427,2970133,スリランカ民主社会主義共和国、ディコヤ、カセリー、サマンパヤ、Ｎｏ．２５,,,,,,2022-04-27,1,,,,,サマントランスポートサービス,0
2213,7700150108400,新規,0,2022-04-27,2022-04-27,ＥＭＡＮ　ＳＥＲＶＩＣＥ　ＳＰＡ,,外国会社等,千葉県,八街市,東吉田字和田７２５オフィスＮｏ．１０,,12,230,2891114,スリランカ民主社会主義共和国、マハイヤワ、カツガストタロード、Ｎｏ．３１８／Ａ,,,,,,2022-04-27,1,,,,,イーマンサービススパ,0
2228,8010401166927,新規,0,2022-04-27,2022-04-27,Ｓｍａｒｔｓｈｅｅｔ　Ｊａｐａｎ株式会社,,株式会社,東京都,港区,元麻布３丁目１番６号,,13,103,1060046,,,,,,,2022-04-27,1,,,,,スマートシートジャパン,0
2229,8010401167058,新規,0,2022-04-27,2022-04-27,株式会社ＨＡＲＵ,,株式会社,東京都,港区,麻布十番１丁目２番７号ラフィネ麻布十番７０１号室,,13,103,1060045,,,,,,,2022-04-27,1,,,,,ハル,0
2232,8010505003308,新規,0,2022-04-27,2022-04-27,一般社団法人ムトー８６,,その他の設立登記法人,東京都,台東区,浅草１丁目３０番６号,,13,106,1110032,,,,,,,2022-04-27,1,,,,,ムトーハチジュウロク,0
2238,8010601060995,新規,0,2022-04-27,2022-04-27,ブルーゴールド株式会社,,株式会社,東京都,墨田区,文花１丁目３４番１１－２０９号,,13,107,1310044,,,,,,,2022-04-27,1,,,,,ブルーゴールド,0
2242,8010801032902,新規,0,2022-04-27,2022-04-27,株式会社Ｋ‐エイト,,株式会社,東京都,大田区,大森東２丁目４番１６号ファミリーハウス１０５,,13,111,1430012,,,,,,,2022-04-27,1,,,,,ケイエイト,0
2243,8010801032910,新規,0,2022-04-27,2022-04-27,株式会社マックスジョブサポート,,株式会社,東京都,大田区,蒲田５丁目２６番８号,,13,111,1440052,,,,,,,2022-04-27,1,,,,,マックスジョブサポート,0
2249,8011001147185,新規,0,2022-04-27,2022-04-27,株式会社プラネタ,,株式会社,東京都,渋谷区,恵比寿１丁目２０番２２号,,13,113,1500013,,,,,,,2022-04-27,1,,,,,プラネタ,0
2250,8011001147235,新規,0,2022-04-27,2022-04-27,株式会社イロドリパーク,,株式会社,東京都,目黒区,目黒２丁目１１番９－６０１号,,13,110,1530063,,,,,,,2022-04-27,1,,,,,イロドリパーク,0
2251,8011001147243,新規,0,2022-04-27,2022-04-27,株式会社アマテラス,,株式会社,東京都,渋谷区,神宮前６丁目５番６号サンポウ綜合ビル８０２,,13,113,1500001,,,,,,,2022-04-27,1,,,,,アマテラス,0
2262,8011101098667,新規,0,2022-04-27,2022-04-27,住野精工株式会社,,株式会社,東京都,新宿区,百人町２丁目１番４５号赤煉瓦２２１,,13,104,1690073,,,,,,,2022-04-27,1,,,,,スミノセイコウ,0
2276,8012403005336,新規,0,2022-04-27,2022-04-27,合同会社Ｈｉｇｈ　Ｌｉｆｅ,,合同会社,東京都,調布市,若葉町２丁目２７番１２号ワールドパレス上祖師谷プレイシズ３０３号室,,13,208,1820003,,,,,,,2022-04-27,1,,,,,ハイライフ,0
2287,8013303006135,新規,0,2022-04-27,2022-04-27,合同会社和,,合同会社,東京都,豊島区,東池袋２丁目６２番８号ＢＩＧオフィスプラザ池袋１１０２,,13,116,1700013,,,,,,,2022-04-27,1,,,,,ナゴミ,0
2298,8020001146089,新規,0,2022-04-27,2022-04-27,株式会社ＡＣＥ,,株式会社,神奈川県,川崎市中原区,下小田中３丁目２１番４号ボー・ラヴィルＩＩ１０３,00126417,14,133,2110041,,,,,,,2022-04-27,1,,,,,エース,0
2299,8020001146270,新規,0,2022-04-27,2022-04-27,株式会社Ｔｉｅ‐ｓ,,株式会社,神奈川県,横浜市中区,桜木町１丁目１番地７ヒューリックみなとみらい１０階,,14,104,2310062,,,,,,,2022-04-27,1,,,,,タイズ,0
2300,8020001146287,新規,0,2022-04-27,2022-04-27,株式会社恵修緑化,,株式会社,神奈川県,横浜市港北区,小机町２７４番地１１ヒルトップＵ２０３,,14,109,2220036,,,,,,,2022-04-27,1,,,,,ケイシュウリョッカ,0
2301,8020001146304,新規,0,2022-04-27,2022-04-27,泰華株式会社,,株式会社,神奈川県,川崎市川崎区,砂子２丁目８番地１シャンボール互恵ビル１０１４,,14,131,2100006,,,,,,,2022-04-27,1,,,,,タイハナ,0
2316,8021003011636,新規,0,2022-04-27,2022-04-27,合同会社共栄車輌サービス,,合同会社,神奈川県,海老名市,本郷３９９９番地３,,14,215,2430417,,,,,,,2022-04-27,1,,,,,キョウエイシャリョウサービス,0
2327,8030003019127,新規,0,2022-04-27,2022-04-27,合同会社ＨＡＫＵ,,合同会社,埼玉県,さいたま市浦和区,皇山町２５－５,,11,107,3300045,,,,,,,2022-04-27,1,,,,,ハク,0
2334,8040001123160,新規,0,2022-04-27,2022-04-27,Ｂｏｎｄｓ　Ｔｅｎｎｉｓ　Ａｃａｄｅｍｙ株式会社,,株式会社,千葉県,千葉市稲毛区,園生町４６８番地６８１,,12,103,2630051,,,,,,,2022-04-27,1,,,,,ボンズテニスアカデミー,0
2335,8040001123193,新規,0,2022-04-27,2022-04-27,株式会社レグスシステム,,株式会社,千葉県,柏市,柏１丁目４－５,,12,217,2770005,,,,,,,2022-04-27,1,,,,,レグスシステム,0
2338,8040003019927,新規,0,2022-04-27,2022-04-27,合同会社ブルーデイジー,,合同会社,千葉県,印西市,小倉台１丁目１番地ＭＷ棟１０６号,,12,231,2701356,,,,,,,2022-04-27,1,,,,,ブルーデイジー,0
2343,8060001034810,新規,0,2022-04-27,2022-04-27,粕尾元気株式会社,,株式会社,栃木県,鹿沼市,下粕尾１５４１番地３,,09,205,3220421,,,,,,,2022-04-27,1,,,,,カスオゲンキ,0
2379,8120001245442,新規,0,2022-04-27,2022-04-27,株式会社Ｍｏｎｄｅ,,株式会社,大阪府,大阪市阿倍野区,阿倍野筋１丁目１－４３あべのハルカス３１階,,27,119,5450052,,,,,,,2022-04-27,1,,,,,モンド,0
2380,8120001245525,新規,0,2022-04-27,2022-04-27,株式会社イシバシナガラアーキテクツ,,株式会社,大阪府,大阪市阿倍野区,阪南町１丁目４番１７号,,27,119,5450021,,,,,,,2022-04-27,1,,,,,イシバシナガラアーキテクツ,0
2381,8120001245533,新規,0,2022-04-27,2022-04-27,アジア旅行株式会社,,株式会社,大阪府,大阪市西区,西本町２丁目５番１９－２０４号,,27,106,5500005,,,,,,,2022-04-27,1,,,,,アジアリョコウ,0
2392,8120003021552,新規,0,2022-04-27,2022-04-27,合同会社クラサポ,,合同会社,大阪府,大阪市福島区,福島２丁目７番地２４号Ｎａｎｅｉ福島ビル７Ｆ,,27,103,5530003,,,,,,,2022-04-27,1,,,,,クラサポ,0
2406,8130003007906,新規,0,2022-04-27,2022-04-27,合同会社ＭＨ,,合同会社,京都府,京都市伏見区,向島二ノ丸町１５１番地３０・３－Ｅ棟３１２号,,26,109,6128141,,,,,,,2022-04-27,1,,,,,エムエイチ,0
2408,8130005016459,新規,0,2022-04-27,2022-04-27,協同組合ナショナルネクスト,,その他の設立登記法人,京都府,京都市山科区,竹鼻竹ノ街道町８１番地１７,,26,110,6078080,,,,,,,2022-04-27,1,,,,,ナショナルネクスト,0
2416,8140001125790,新規,0,2022-04-27,2022-04-27,株式会社ＮｉＬ,,株式会社,兵庫県,芦屋市,呉川町３－２グレース芦屋３０１号室,,28,206,6590051,,,,,,,2022-04-27,1,,,,,ニル,0
2422,8140003017631,新規,0,2022-04-27,2022-04-27,合同会社ＭＯ,,合同会社,兵庫県,加東市,上滝野６５３番地の４,,28,228,6790211,,,,,,,2022-04-27,1,,,,,エムオー,0
2423,8150001025494,新規,0,2022-04-27,2022-04-27,株式会社クレスト,,株式会社,奈良県,奈良市,南京終町７丁目５６７番地の８,,29,201,6308141,,,,,,,2022-04-27,1,,,,,クレスト,0
2439,8180001151032,新規,0,2022-04-27,2022-04-27,大洋通商株式会社,,株式会社,愛知県,名古屋市熱田区,二番１丁目１１番５号ＵＭビル１階,,23,109,4560052,,,,,,,2022-04-27,1,,,,,タイヨウツウショウ,0
2440,8180001151081,新規,0,2022-04-27,2022-04-27,株式会社ブレア,,株式会社,愛知県,名古屋市西区,名駅２丁目５番４号,,23,104,4510045,,,,,,,2022-04-27,1,,,,,ブレア,0
2442,8180003023758,新規,0,2022-04-27,2022-04-27,合同会社ＤＴ,,合同会社,愛知県,丹羽郡扶桑町,大字柏森字辻田７２９番地２Ｆ,,23,362,4800103,,,,,,,2022-04-27,1,,,,,ディーティー,0
2445,8180303005316,新規,0,2022-04-27,2022-04-27,合同会社ＬｏＣｏＮ,,合同会社,愛知県,豊川市,八幡町黒仏１０５番地の２,,23,207,4420857,,,,,,,2022-04-27,1,,,,,ロコン,0
2449,8190003003965,新規,0,2022-04-27,2022-04-27,合同会社裕弓社,,合同会社,三重県,桑名市,大字赤須賀１８１７番地１０７,,24,205,5110033,,,,,,,2022-04-27,1,,,,,ユウキュウシャ,0
2468,8240001059665,新規,0,2022-04-27,2022-04-27,谷口建設工業株式会社,,株式会社,広島県,庄原市,宮内町１５２１番地,,34,210,7270007,,,,,,,2022-04-27,1,,,,,タニグチケンセツコウギョウ,0
2469,8240001059681,新規,0,2022-04-27,2022-04-27,株式会社ＡＭＡＩ　ＭＡＮＧＯ,,株式会社,広島県,福山市,伏見町２番９号,,34,207,7200062,,,,,,,2022-04-27,1,,,,,アマイマンゴー,0
2473,8250001019536,新規,0,2022-04-27,2022-04-27,株式会社ＥＳＳＥＹ,,株式会社,山口県,防府市,栄町２丁目８－１０,,35,206,7470035,,,,,,,2022-04-27,1,,,,,エッセイ,0
2476,8280001008684,新規,0,2022-04-27,2022-04-27,丸福不動産株式会社,,株式会社,島根県,松江市,大輪町３９３番地１６,,32,201,6900882,,,,,,,2022-04-27,1,,,,,マルフクフドウサン,0
2484,8290001097339,新規,0,2022-04-27,2022-04-27,株式会社Ｆ‐ＣＲＥＷ,,株式会社,福岡県,みやま市,高田町飯江２７７番地１,,40,229,8350134,,,,,,,2022-04-27,1,,,,,エフクルー,0
2488,8290003012444,新規,0,2022-04-27,2022-04-27,合同会社エムトリニティ,,合同会社,福岡県,八女市,鵜池４５－１,,40,210,8340055,,,,,,,2022-04-27,1,,,,,エムトリニティ,0
2492,8290803004112,新規,0,2022-04-27,2022-04-27,コスモス商会合同会社,,合同会社,福岡県,行橋市,大字二塚２３８番地１,,40,213,8240067,,,,,,,2022-04-27,1,,,,,コスモスショウカイ,0
2495,8320003003794,新規,0,2022-04-27,2022-04-27,合同会社ＳＡＺＡＲＥ,,合同会社,大分県,豊後高田市,新地１０６４－１,,44,209,8790627,,,,,,,2022-04-27,1,,,,,サザレ,0
2496,8330001029667,新規,0,2022-04-27,2022-04-27,ＦａｉｒＬｉｆｅ株式会社,,株式会社,熊本県,熊本市南区,近見８丁目４－８０,,43,104,8614101,,,,,,,2022-04-27,1,,,,,フェアライフ,0
2506,8370001048498,新規,0,2022-04-27,2022-04-27,株式会社エス・クランツ,,株式会社,宮城県,仙台市太白区,郡山字原田３番地の４,,04,104,9820003,,,,,,,2022-04-27,1,,,,,エスクランツ,0
2509,8370003005670,新規,0,2022-04-27,2022-04-27,合同会社モアナ,,合同会社,宮城県,富谷市,大清水２丁目１９番地１２,,04,216,9813329,,,,,,,2022-04-27,1,,,,,モアナ,0
2518,8380003005166,新規,0,2022-04-27,2022-04-27,合同会社さきがけエナジー,,合同会社,福島県,郡山市,字賀庄１１番地の１５,,07,203,9638844,,,,,,,2022-04-27,1,,,,,サキガケエナジー,0
2529,8420003002506,新規,0,2022-04-27,2022-04-27,合同会社エスポワール,,合同会社,青森県,青森市,松森１丁目１４－１２アルファマンション１０１,,02,201,0300965,,,,,,,2022-04-27,1,,,,,エスポワール,0
2539,8430003013873,新規,0,2022-04-27,2022-04-27,合同会社ｄｉｇ,,合同会社,北海道,札幌市中央区,南七条西２丁目２番地,,01,101,0640807,,,,,,,2022-04-27,1,,,,,ディグ,0
2547,8700150107797,新規,0,2022-04-27,2022-04-11,秩父地域森林林業活性化協議会,,その他,埼玉県,秩父市,熊木町８－１５秩父市環境部内,,11,207,3680032,,,,,,,2022-04-11,1,,,,,チチブチイキシンリンリンギヨウカツセイカキヨウギカイ,0
2548,8700150108399,新規,0,2022-04-27,2022-04-27,ＬＩＢＥＲＴＹ　ＣＡＲ　ＳＡＬＥ,,外国会社等,千葉県,八街市,東吉田字和田７２５オフィスＮｏ．１１,,12,230,2891114,スリランカ民主社会主義共和国、キャンディ、カツガストタロード、Ｎｏ．２８４,,,,,,2022-04-27,1,,,,,リバテイカーセール,0
2556,9010001226196,新規,0,2022-04-27,2022-04-27,株式会社ＳＤＧｓ　Ｇｌｏｂａｌ　Ｒｅｓｅａｒｃｈ,,株式会社,東京都,千代田区,有楽町１丁目１２番１号,,13,101,1000006,,,,,,,2022-04-27,1,,,,,エスディージーズグローバルリサーチ,0
2560,9010003037559,新規,0,2022-04-27,2022-04-27,ギャラクシー・ピンクテンプル合同会社,,合同会社,東京都,中央区,銀座１丁目２２番１１号銀座大竹ビジデンス２階,,13,102,1040061,,,,,,,2022-04-27,1,,,,,ギャラクシーピンクテンプル,0
2567,9010401167049,新規,0,2022-04-27,2022-04-27,エフセキュア株式会社,,株式会社,東京都,港区,新橋２丁目２番９号ＫＤＸ新橋ビル２階,,13,103,1050004,,,,,,,2022-04-27,1,,,,,エフセキュア,0
2570,9010501048768,新規,0,2022-04-27,2022-04-27,株式会社リンジン,,株式会社,東京都,台東区,上野６丁目８番１９号,,13,106,1100005,,,,,,,2022-04-27,1,,,,,リンジン,0
2572,9010605004072,新規,0,2022-04-27,2022-04-27,ジャパン・シオミ特定目的会社,,その他の設立登記法人,東京都,江東区,亀戸６丁目５６番１５号,,13,108,1360071,,,,,,,2022-04-27,1,,,,,ジャパンシオミ,0
2579,9010901050778,新規,0,2022-04-27,2022-04-27,株式会社Ｓａｙ,,株式会社,東京都,世田谷区,桜丘４丁目１９番１５号,,13,112,1560054,,,,,,,2022-04-27,1,,,,,セイ,0
2582,9010903007314,新規,0,2022-04-27,2022-04-27,合同会社プロダクション・ジェイ,,合同会社,東京都,世田谷区,大原１丁目１６番６号グラシア・フィス世田谷１０７,,13,112,1560041,,,,,,,2022-04-27,1,,,,,プロダクションジェイ,0
2591,9011001147176,新規,0,2022-04-27,2022-04-27,株式会社ｓａｌｉｚｅ,,株式会社,東京都,目黒区,青葉台４丁目４－１番地ライオンズマンション目黒タウンハウス２０３号,,13,110,1530042,,,,,,,2022-04-27,1,,,,,サライズ,0
2592,9011001147201,新規,0,2022-04-27,2022-04-27,株式会社Ｃａｐｉｔａｌ　Ｍａｎａｇｅｍｅｎｔ,,株式会社,東京都,渋谷区,道玄坂１丁目１０番８号,,13,113,1500043,,,,,,,2022-04-27,1,,,,,キャピタルマネジメント,0
2593,9011001147234,新規,0,2022-04-27,2022-04-27,株式会社ブルーペッパージャパン,,株式会社,東京都,渋谷区,神宮前６丁目１８－３神宮前Ｓビル８Ｆ,,13,113,1500001,,,,,,,2022-04-27,1,,,,,ブルーペッパージャパン,0
2602,9011301027747,新規,0,2022-04-27,2022-04-27,株式会社スタジオだんごむし,,株式会社,東京都,杉並区,阿佐谷南３丁目１－２３東神阿佐ヶ谷ビル４階,,13,115,1660004,,,,,,,2022-04-27,1,,,,,スタジオダンゴムシ,0
2606,9011403003646,新規,0,2022-04-27,2022-04-27,ＨＹＳＳ＆ＣＯＭＰＡＮＹ合同会社,,合同会社,東京都,板橋区,赤塚３丁目６－２セントヒルズ１０２,,13,119,1750092,,,,,,,2022-04-27,1,,,,,エーチワイーエスエスアンドカンパニー,0
2611,9011701025268,新規,0,2022-04-27,2022-04-27,三豊サポート株式会社,,株式会社,東京都,江戸川区,平井１丁目９番１５号ＣｏｍｆｏｒｔＨｉｒａｉ３０１,,13,123,1320035,,,,,,,2022-04-27,1,,,,,ミトヨサポート,0
2613,9011801040654,新規,0,2022-04-27,2022-04-27,株式会社雷守警備,,株式会社,東京都,足立区,鹿浜４丁目２３番２号,,13,121,1230864,,,,,,,2022-04-27,1,,,,,ライモンケイビ,0
2624,9012401039062,新規,0,2022-04-27,2022-04-27,株式会社ＴｒｕｅＬｉｆｅ,,株式会社,東京都,多摩市,関戸４丁目１１番地の７,,13,224,2060011,,,,,,,2022-04-27,1,,,,,トゥルーライフ,0
2625,9012401039137,新規,0,2022-04-27,2022-04-27,株式会社いいところ,,株式会社,東京都,多摩市,鶴牧２丁目６番地の１サンライフ２０２,,13,224,2060034,,,,,,,2022-04-27,1,,,,,イイトコロ,0
2642,9020001146220,新規,0,2022-04-27,2022-04-27,株式会社ＴＫＳ,,株式会社,神奈川県,横浜市金沢区,鳥浜町２ー２０,,14,108,2360002,,,,,,,2022-04-27,1,,,,,ティーケーエス,0
2643,9020001146294,新規,0,2022-04-27,2022-04-27,株式会社ｃｈｉｎｇ,,株式会社,神奈川県,川崎市麻生区,万福寺１丁目１５番６号第１白凰ビル１Ｆ,,14,137,2150004,,,,,,,2022-04-27,1,,,,,チング,0
2644,9020001146311,新規,0,2022-04-27,2022-04-27,株式会社Ｄ＆ＰＪＡＰＡＮ　ＧＲＯＵＰ,,株式会社,神奈川県,横浜市鶴見区,佃野町３４番３号大村ビル３０１号室,,14,101,2300061,,,,,,,2022-04-27,1,,,,,ディーアンドピージャパングループ,0
2652,9021003011635,新規,0,2022-04-27,2022-04-27,合同会社共栄自工,,合同会社,神奈川県,海老名市,大谷南５丁目９番５号,,14,215,2430418,,,,,,,2022-04-27,1,,,,,キョウエイジコウ,0
2653,9021003011643,新規,0,2022-04-27,2022-04-27,Ａｗｅｓｏｍｅ　Ｗｈｅｅｌ　Ｄｅｓｉｇｎｓ．合同会社,,合同会社,神奈川県,三浦市,南下浦町上宮田３２５７番地２池田ビル２Ｆ,,14,210,2380101,,,,,,,2022-04-27,1,,,,,オーサムウィールデザインズ,0
2664,9030001147928,新規,0,2022-04-27,2022-04-27,株式会社ハル,,株式会社,埼玉県,南埼玉郡宮代町,本田２丁目４番１２号,,11,442,3450827,,,,,,,2022-04-27,1,,,,,ハル,0
2665,9030001147952,新規,0,2022-04-27,2022-04-27,株式会社Ｌｉｅｎ　Ｂｕｉｌｄ,,株式会社,埼玉県,富士見市,東みずほ台１丁目６－６メゾンドヴェール３０１,,11,235,3540015,,,,,,,2022-04-27,1,,,,,リアンビルド,0
2667,9030003019324,新規,0,2022-04-27,2022-04-27,合同会社Ｍｅｄｉｃａｌ　Ｗｉｓｈ,,合同会社,埼玉県,さいたま市北区,本郷町１５３５番地３,,11,102,3310802,,,,,,,2022-04-27,1,,,,,メディカルウィッシュ,0
2671,9040001123184,新規,0,2022-04-27,2022-04-27,株式会社タレントサクセス,,株式会社,千葉県,市川市,北国分３丁目２１番２２号,,12,203,2720836,,,,,,,2022-04-27,1,,,,,タレントサクセス,0
2672,9040001123192,新規,0,2022-04-27,2022-04-27,株式会社明星,,株式会社,千葉県,鎌ケ谷市,鎌ケ谷１丁目９番３３－３号,,12,224,2730105,,,,,,,2022-04-27,1,,,,,アカリ,0
2684,9050003006527,新規,0,2022-04-27,2022-04-27,合同会社ＩＩＤＡ,,合同会社,茨城県,牛久市,田宮町３２番地２,,08,219,3001236,,,,,,,2022-04-27,1,,,,,イイダ,0
2692,9100001035290,新規,0,2022-04-27,2022-04-27,スカディ株式会社,,株式会社,長野県,北安曇郡白馬村,大字北城３０２０－６,,20,485,3999301,,,,,,,2022-04-27,1,,,,,スカディ,0
2698,9110001036619,新規,0,2022-04-27,2022-04-27,古嶋建築株式会社,,株式会社,新潟県,上越市,柿崎区下条７４９番地１,,15,222,9493251,,,,,,,2022-04-27,1,,,,,フルシマケンチク,0
2729,9120001245499,新規,0,2022-04-27,2022-04-27,株式会社ＭＩＲＡＰ　ＡＳＳＥＴ　ＭＡＮＡＧＥＭＥＮＴ,,株式会社,大阪府,大阪市中央区,内久宝寺町４丁目１番７号グランドメゾン上町台レジデンスタワー２９０７号室,,27,128,5400013,,,,,,,2022-04-27,1,,,,,ミラップアセットマネジメント,0
2730,9120001245508,新規,0,2022-04-27,2022-04-27,株式会社タカミリフォーム,,株式会社,大阪府,大阪市東住吉区,住道矢田６丁目１５番１８号,,27,121,5460022,,,,,,,2022-04-27,1,,,,,タカミリフォーム,0
2731,9120001245516,新規,0,2022-04-27,2022-04-27,株式会社イノセンス,,株式会社,大阪府,大阪市住之江区,柴谷２丁目１－２６,,27,125,5590021,,,,,,,2022-04-27,1,,,,,イノセンス,0
2732,9120001245524,新規,0,2022-04-27,2022-04-27,株式会社ＫｅｖＳ,,株式会社,大阪府,大阪市西成区,潮路１丁目８番３６号,,27,122,5570052,,,,,,,2022-04-27,1,,,,,ケーズ,0
2733,9120001245540,新規,0,2022-04-27,2022-04-27,メジャークラフトホールディングス株式会社,,株式会社,大阪府,大阪市中央区,久太郎町２丁目６番１０号,,27,128,5410056,,,,,,,2022-04-27,1,,,,,メジャークラフトホールディングス,0
2747,9122001035814,新規,0,2022-04-27,2022-04-27,株式会社Ａ‐ｔｙｐｅ,,株式会社,大阪府,東大阪市,吉田１丁目１２番２４号,,27,227,5780924,,,,,,,2022-04-27,1,,,,,エータイプ,0
2749,9130001071655,新規,0,2022-04-27,2022-04-27,株式会社伊藤商会,,株式会社,京都府,京都市北区,紫竹上梅ノ木町４９番地,,26,101,6038179,,,,,,,2022-04-27,1,,,,,イトウショウカイ,0
2750,9130003007905,新規,0,2022-04-27,2022-04-27,マウンテンリバー合同会社,,合同会社,京都府,宇治市,折居台２丁目１－１４,,26,204,6110023,,,,,,,2022-04-27,1,,,,,マウンテンリバー,0
2766,9140001125798,新規,0,2022-04-27,2022-04-27,イザナギミート株式会社,,株式会社,兵庫県,淡路市,郡家１１６番地２,,28,226,6561511,,,,,,,2022-04-27,1,,,,,イザナギミート,0
2773,9140003017614,新規,0,2022-04-27,2022-04-27,合同会社ＯＶＥＲ　ＲＥＶエンジニアリング,,合同会社,兵庫県,神崎郡福崎町,高岡１２９９,,28,443,6792217,,,,,,,2022-04-27,1,,,,,オーバーレブエンジニアリング,0
2777,9160001024156,新規,0,2022-04-27,2022-04-27,株式会社メープルリゾート,,株式会社,滋賀県,大津市,荒川７１５番地の１,,25,201,5200513,,,,,,,2022-04-27,1,,,,,メープルリゾート,0
2784,9180001151080,新規,0,2022-04-27,2022-04-27,株式会社サトウ商会,,株式会社,愛知県,弥富市,亀ケ地１丁目２５番地２,,23,235,4901424,,,,,,,2022-04-27,1,,,,,サトウショウカイ,0
2785,9180001151089,新規,0,2022-04-27,2022-04-27,株式会社ＥＳＴＡＴＥ,,株式会社,愛知県,長久手市,岩作中縄手４６番地４,,23,238,4801103,,,,,,,2022-04-27,1,,,,,エステート,0
2786,9180001151097,新規,0,2022-04-27,2022-04-27,Ｌｅｇａｍｅ株式会社,,株式会社,愛知県,小牧市,大字岩崎１３４５番地３１,,23,219,4850011,,,,,,,2022-04-27,1,,,,,レガーメ,0
2795,9180301036171,新規,0,2022-04-27,2022-04-27,株式会社ＩＣＤ‐ＬＡＢ,,株式会社,愛知県,豊橋市,広小路３丁目５７番地,,23,201,4400881,,,,,,,2022-04-27,1,,,,,アイシーディーラボ,0
2812,9240001059648,新規,0,2022-04-27,2022-04-27,株式会社Ｐｌｕｍｅｒｉａ,,株式会社,広島県,竹原市,田万里町２８６８－１,,34,203,7250001,,,,,,,2022-04-27,1,,,,,プルメリア,0
2831,9290003012451,新規,0,2022-04-27,2022-04-27,合同会社リムズ,,合同会社,福岡県,福岡市南区,柏原４丁目３８番１４号,,40,134,8111353,,,,,,,2022-04-27,1,,,,,リムズ,0
2835,9300001012897,新規,0,2022-04-27,2022-04-27,株式会社２２４,,株式会社,佐賀県,嬉野市,嬉野町大字下野甲７２９番地２,,41,209,8430302,,,,,,,2022-04-27,1,,,,,ニーニーヨン,0
2836,9300001012906,新規,0,2022-04-27,2022-04-27,株式会社ＷＩＤＥ,,株式会社,佐賀県,鹿島市,大字高津原２５９０－５,,41,207,8491311,,,,,,,2022-04-27,1,,,,,ワイド,0
2840,9320001019040,新規,0,2022-04-27,2022-04-27,株式会社樋口商会,,株式会社,大分県,大分市,明野南２丁目２２番１ー５０１号,,44,201,8700163,,,,,,,2022-04-27,1,,,,,ヒグチショウカイ,0
2843,9320003003793,新規,0,2022-04-27,2022-04-27,合同会社ＨＥＡＲＴＥＰ,,合同会社,大分県,大分市,寿町１１番１８－６０１号,,44,201,8700036,,,,,,,2022-04-27,1,,,,,ハーテップ,0
2844,9340001024682,新規,0,2022-04-27,2022-04-27,株式会社ＯＮ　ＦＬＥＥＫ,,株式会社,鹿児島県,鹿児島市,山之口町７番２号ＴＭ１９ビル４Ｆ,,46,201,8920844,,,,,,,2022-04-27,1,,,,,オンフリーク,0
2847,9340005009449,新規,0,2022-04-27,2022-04-27,一般社団法人奄美の森と川と海岸を守る会,,その他の設立登記法人,鹿児島県,大島郡瀬戸内町,大字嘉徳８９番地,,46,525,8941515,,,,,,,2022-04-27,1,,,,,アマミノモリトカワトカイガンヲマモルカイ,0
2850,9360001030308,新規,0,2022-04-27,2022-04-27,株式会社Ｊｏｙ＆Ｄａｙ,,株式会社,沖縄県,浦添市,宮城３丁目１８番９－４０２号ディアコートＩＨＡ,,47,208,9012126,,,,,,,2022-04-27,1,,,,,ジョイアンドデイ,0
2851,9360001030332,新規,0,2022-04-27,2022-04-27,ＡＳＡＨＩ株式会社,,株式会社,沖縄県,中頭郡北谷町,字宮城１番地４１３,,47,326,9040113,,,,,,,2022-04-27,1,,,,,アサヒ,0
2853,9360003011974,新規,0,2022-04-27,2022-04-27,合同会社ＮＡＧＡＴＯ,,合同会社,沖縄県,那覇市,字安謝４番地米須アパート３０１,,47,201,9000003,,,,,,,2022-04-27,1,,,,,ナガト,0
2856,9370001048497,新規,0,2022-04-27,2022-04-27,Ｙマーケティング株式会社,,株式会社,宮城県,仙台市青葉区,堤通雨宮町２番２１号クラッセ雨宮ビル４階,,04,101,9810914,,,,,,,2022-04-27,1,,,,,ワイマーケティング,0
2857,9370001048506,新規,0,2022-04-27,2022-04-27,ＹＴＲ株式会社,,株式会社,宮城県,柴田郡川崎町,大字支倉字宮脇東４９番地２,,04,324,9891507,,,,,,,2022-04-27,1,,,,,ワイティーアール,0
2861,9380001032772,新規,0,2022-04-27,2022-04-27,株式会社Ｚａｙｉｎ８,,株式会社,福島県,会津若松市,東栄町６番３４号メゾン桜ヶ丘３０３,,07,202,9650872,,,,,,,2022-04-27,1,,,,,ザインエイト,0
2867,9420001017819,新規,0,2022-04-27,2022-04-27,株式会社エコフレンドリージャパン,,株式会社,青森県,黒石市,大字中川字篠村５１番地１,,02,204,0360345,,,,,,,2022-04-27,1,,,,,エコフレンドリージャパン,0
2873,9460401001245,新規,0,2022-04-27,2022-04-27,最適ボーリング株式会社,,株式会社,北海道,根室市,東梅１１５番地１,,01,223,0860074,,,,,,,2022-04-27,1,,,,,サイテキボーリング,0
2882,9490005006844,新規,0,2022-04-27,2022-04-27,一般社団法人セカンド・ストーリー,,その他の設立登記法人,高知県,南国市,大＿甲１３３９番地１４山中ハイツＩＶ３Ｆ,00126416,39,204,7830004,,,,,,,2022-04-27,1,,,,,セカンドストーリー,0
2886,9700150107739,新規,0,2022-04-27,2022-04-08,めぞん家劇場運営委員会,,その他,東京都,足立区,千住旭町３４－１０,,13,121,1200026,,,,,,,2022-04-08,1,,,,,メゾンイエゲキジヨウウンエイイインカイ,0
