sequenceNumber,corporateNumber,process,correct,updateDate,changeDate,name,nameImageId,kind,prefectureName,cityName,streetNumber,addressImageId,prefectureCode,cityCode,postCode,addressOutside,addressOutsideImageId,closeDate,closeCause,successorCorporateNumber,changeCause,assignmentDate,latest,enName,enPrefectureName,enCityName,enAddressOutside,furigana,hihyoji
18,1010003037070,登記記録の閉鎖等,0,2023-07-10,2023-06-30,須磨エクイップメント合同会社,,合同会社,東京都,千代田区,丸の内３丁目１番１号東京共同会計事務所内,,13,101,1000005,,,2023-06-30,清算の結了等,,,2022-02-25,1,,,,,スマエクイップメント,0
52,1010901006060,登記記録の閉鎖等,0,2023-07-10,2023-07-04,杉山管工株式会社,,株式会社,東京都,世田谷区,三軒茶屋２丁目２８番１７号,,13,112,1540024,,,2023-07-04,清算の結了等,,,2015-10-05,1,,,,,スギヤマカンコウ,0
59,1010905002857,登記記録の閉鎖等,0,2023-07-10,2023-07-05,ＮＰＯ法人スポーツ映像利用普及協会,,その他の設立登記法人,東京都,世田谷区,下馬３丁目３１番２０号,,13,112,1540002,,,2023-07-05,清算の結了等,,,2015-10-05,1,,,,,スポーツエイゾウリヨウフキュウキョウカイ,0
80,1011402010386,登記記録の閉鎖等,0,2023-07-10,2023-07-05,有限会社関企画,,有限会社,東京都,板橋区,前野町２丁目２６番４－３０６号,,13,119,1740063,,,2023-07-05,清算の結了等,,,2015-10-05,1,,,,,セキキカク,0
94,1013301039820,登記記録の閉鎖等,0,2023-07-10,2023-06-20,株式会社富永インターナショナル,,株式会社,埼玉県,戸田市,下前２丁目９番２１－３０２号,,11,224,3350016,,,2023-06-20,清算の結了等,,,2016-12-13,1,,,,,トミナガインターナショナル,0
96,1013402000136,登記記録の閉鎖等,0,2023-07-10,2023-07-03,有限会社アルベールアソシエイツ,,有限会社,東京都,日野市,旭が丘２丁目４３番地の１１,,13,212,1910065,,,2023-07-03,清算の結了等,,,2015-10-05,1,,,,,アルベールアソシエイツ,0
114,1020002070303,登記記録の閉鎖等,0,2023-07-10,2023-06-30,有限会社横浜友進,,有限会社,神奈川県,横浜市金沢区,六浦東２丁目１２番２３号,,14,108,2360037,,,2023-06-30,清算の結了等,,,2015-10-05,1,,,,,,0
125,1040001075185,登記記録の閉鎖等,0,2023-07-10,2023-06-22,山三道路株式会社,,株式会社,千葉県,夷隅郡大多喜町,船子３１１番地３,,12,441,2980204,,,2023-06-22,清算の結了等,,,2015-10-05,1,,,,,ヤマサンドウロ,0
127,1040001094334,登記記録の閉鎖等,0,2023-07-10,2023-07-03,株式会社ＴＫＦ,,株式会社,宮城県,名取市,那智が丘５丁目１３番地の２１,,04,207,9811244,,,2023-07-03,清算の結了等,,,2016-03-07,1,,,,,,0
159,1120001014481,登記記録の閉鎖等,0,2023-07-10,2023-07-03,桶谷石鹸株式会社,,株式会社,大阪府,大阪市城東区,関目６丁目９番２６号,,27,118,5360008,,,2023-07-03,清算の結了等,,,2015-10-05,1,,,,,オケタニセッケン,0
178,1120102019990,登記記録の閉鎖等,0,2023-07-10,2023-07-04,有限会社地望,,有限会社,大阪府,河内長野市,天野町９０６番地の１６１,,27,216,5860086,,,2023-07-04,清算の結了等,,,2015-10-05,1,,,,,チボウ,0
180,1120901009630,登記記録の閉鎖等,0,2023-07-10,2023-07-04,タハシ産業株式会社,,株式会社,大阪府,摂津市,一津屋１丁目３番１３号,,27,224,5660043,,,2023-07-04,清算の結了等,,,2015-10-05,1,,,,,タハシサンギョウ,0
181,1120901016841,登記記録の閉鎖等,0,2023-07-10,2023-07-04,ガレージカーエクセレント株式会社,,株式会社,大阪府,高槻市,北大樋町４番１号,00033455,27,207,5690041,,,2023-07-04,清算の結了等,,,2015-10-05,1,,,,,,0
190,1140001049600,登記記録の閉鎖等,0,2023-07-10,2023-07-03,大興陸運株式会社,,株式会社,兵庫県,尼崎市,東初島町２番地の３７,,28,202,6600832,,,2023-07-03,清算の結了等,,,2015-10-05,1,,,,,ダイコウリクウン,0
197,1140002027860,登記記録の閉鎖等,0,2023-07-10,2023-07-03,有限会社エレベート,,有限会社,兵庫県,神戸市東灘区,住吉山手６丁目９番１７号,,28,101,6580063,,,2023-07-03,清算の結了等,,,2015-10-05,1,,,,,エレベート,0
204,1170001006573,登記記録の閉鎖等,0,2023-07-10,2023-07-05,株式会社藤本安一商店,,株式会社,和歌山県,和歌山市,岩橋６０８番地の３,,30,201,6408301,,,2023-07-05,清算の結了等,,,2015-10-05,1,,,,,,0
216,1180001047947,登記記録の閉鎖等,0,2023-07-10,2023-07-03,株式会社水谷建設,,株式会社,愛知県,名古屋市熱田区,一番２丁目１９番１７号,,23,109,4560053,,,2023-07-03,清算の結了等,,,2015-10-05,1,,,,,ミズタニケンセツ,0
220,1180001067920,登記記録の閉鎖等,0,2023-07-10,2023-07-03,橋本理化株式会社,,株式会社,愛知県,名古屋市中区,栄１丁目２９番２１号,,23,106,4600008,,,2023-07-03,合併による解散等,3180001038696,令和５年７月１日名古屋市中区栄一丁目２９番２１号東邦アストリー株式会社（3180001038696）に合併し解散,2015-10-05,1,,,,,ハシモトリカ,0
231,1180005016394,登記記録の閉鎖等,0,2023-07-10,2023-07-03,かわもと行政書士法人,,その他の設立登記法人,愛知県,春日井市,西山町１５８９番地２,,23,206,4860803,,,2023-07-03,清算の結了等,,,2015-10-05,1,,,,,カワモト,0
242,1220002015394,登記記録の閉鎖等,0,2023-07-10,2023-07-04,有限会社ＢＳプロダクツ,,有限会社,石川県,金沢市,高柳町チ１７２番地,,17,201,9200005,,,2023-07-04,清算の結了等,,,2015-10-05,1,,,,,ビーエスプロダクツ,0
244,1230001019651,登記記録の閉鎖等,0,2023-07-10,2023-07-05,株式会社北陸醗酵ホールディングス,,株式会社,富山県,魚津市,本江２１９２番地７,,16,204,9370805,,,2023-07-05,清算の結了等,,,2023-01-10,1,,,,,ホクリクハッコウホールディングス,0
249,1240002051842,登記記録の閉鎖等,0,2023-07-10,2023-07-04,有限会社新谷パック,,有限会社,広島県,尾道市,長江２丁目１５番３２号,,34,205,7220046,,,2023-07-04,清算の結了等,,,2015-10-05,1,,,,,シンタニパック,0
254,1260003002537,登記記録の閉鎖等,0,2023-07-10,2023-07-03,合同会社ＡＲＢ,,合同会社,岡山県,岡山市北区,奉還町２丁目９番１６号,,33,101,7000026,,,2023-07-03,清算の結了等,,,2018-05-09,1,,,,,エーアールビー,0
284,1370005003984,登記記録の閉鎖等,0,2023-07-10,2023-07-03,プロ・フィット税理士法人,,その他の設立登記法人,宮城県,仙台市若林区,清水小路５番地６エステート五ツ橋８０２号室,,04,103,9840075,,,2023-07-03,清算の結了等,,,2015-10-05,1,,,,,プロフィット,0
288,1380002026649,登記記録の閉鎖等,0,2023-07-10,2023-07-04,有限会社ヨコタ,,有限会社,福島県,いわき市,内郷御厩町４丁目２６番地の７,00084008,07,204,9738402,,,2023-07-04,清算の結了等,,,2015-10-05,1,,,,,ヨコタ,0
304,1500002014186,登記記録の閉鎖等,0,2023-07-10,2023-07-05,有限会社三機商会,,有限会社,愛媛県,西条市,喜多川７５８番地の３,,38,206,7930042,,,2023-07-05,清算の結了等,,,2015-10-05,1,,,,,サンキショウカイ,0
316,2010001205405,登記記録の閉鎖等,0,2023-07-10,2023-06-30,新業ＨＤ株式会社,,株式会社,東京都,千代田区,九段南４丁目８番３０号,,13,101,1020074,,,2023-06-30,合併による解散等,9010401084616,令和５年６月３０日東京都千代田区九段南四丁目８番３０号新業株式会社（9010401084616）に合併し解散,2019-11-20,1,,,,,シンギョウエイチディー,0
345,2010601012110,登記記録の閉鎖等,0,2023-07-10,2023-06-29,千代田不動産株式会社,,株式会社,東京都,墨田区,京島２丁目２０番１０号,,13,107,1310046,,,2023-06-29,清算の結了等,,,2015-10-05,1,,,,,チヨダフドウサン,0
361,2011001129098,登記記録の閉鎖等,0,2023-07-10,2023-07-03,Ｓｔａｒｒｙ株式会社,,株式会社,東京都,目黒区,目黒本町３丁目１３番２号,,13,110,1520002,,,2023-07-03,清算の結了等,,,2019-07-18,1,,,,,スターリー,0
372,2011103003589,登記記録の閉鎖等,0,2023-07-10,2023-07-05,合同会社ＴＡＩＬＡＮＤ,,合同会社,東京都,新宿区,矢来町３７番地,,13,104,1620805,,,2023-07-05,清算の結了等,,,2015-10-05,1,,,,,タイランド,0
380,2011401023413,登記記録の閉鎖等,0,2023-07-10,2023-07-04,地域促進株式会社,,株式会社,東京都,板橋区,成増３丁目３１番６号,,13,119,1750094,,,2023-07-04,清算の結了等,,,2021-05-31,1,,,,,チイキソクシン,0
383,2011402004783,登記記録の閉鎖等,0,2023-07-10,2023-07-06,有限会社シラトリ,,有限会社,東京都,板橋区,板橋１丁目１２番６号,,13,119,1730004,,,2023-07-06,清算の結了等,,,2015-10-05,1,,,,,シラトリ,0
385,2011501005121,登記記録の閉鎖等,0,2023-07-10,2023-07-03,株式会社旭建築設計事務所,,株式会社,東京都,荒川区,東日暮里５丁目４８番２号,,13,118,1160014,,,2023-07-03,合併による解散等,5011501005300,令和５年７月１日東京都荒川区東日暮里五丁目４８番５号ＡＤＥＫＡ総合設備株式会社（5011501005300）に合併し解散,2015-10-05,1,,,,,アサヒケンチクセッケイジムショ,0
418,2030001127283,登記記録の閉鎖等,0,2023-07-10,2023-07-05,ｉＣＤＧ株式会社,,株式会社,東京都,台東区,松が谷２丁目１５番８号,,13,106,1110036,,,2023-07-05,清算の結了等,,,2018-09-07,1,,,,,アイシーディージー,0
421,2040001061176,登記記録の閉鎖等,0,2023-07-10,2023-06-21,株式会社ヘイワ,,株式会社,千葉県,匝瑳市,上谷中２１８１番地,,12,235,2892114,,,2023-06-21,清算の結了等,,,2015-10-05,1,,,,,ヘイワ,0
425,2040001102599,登記記録の閉鎖等,0,2023-07-10,2023-06-20,株式会社神代商店,,株式会社,千葉県,銚子市,前宿町７７９番地の１,,12,202,2880031,,,2023-06-20,清算の結了等,,,2017-11-30,1,,,,,ジンダイショウテン,0
439,2070001008711,登記記録の閉鎖等,0,2023-07-10,2023-07-06,株式会社木家新,,株式会社,群馬県,高崎市,飯塚町１１５０番地,,10,202,3700069,,,2023-07-06,合併による解散等,6070001008716,令和５年７月１日群馬県高崎市飯塚町１１５０番地株式会社吉貞（6070001008716）に合併し解散,2015-10-05,1,,,,,キヤシン,0
458,2120001235085,登記記録の閉鎖等,0,2023-07-10,2023-07-05,株式会社Ｌａ　Ｂｅｌｌｅ　Ｔｅｒｒｅ,,株式会社,大阪府,枚方市,長尾元町５丁目８番地１ＮＳビル４０２号室,,27,210,5730163,,,2023-07-05,清算の結了等,,,2021-02-08,1,,,,,ラベルテール,0
467,2120101026624,登記記録の閉鎖等,0,2023-07-10,2023-07-05,タテック株式会社,,株式会社,大阪府,大阪狭山市,半田３丁目１７９０番地の３中島ビル１Ｆ,,27,231,5890011,,,2023-07-05,清算の結了等,,,2015-10-05,1,,,,,タテック,0
478,2130001031698,登記記録の閉鎖等,0,2023-07-10,2023-06-30,株式会社青井製本紙工,,株式会社,京都府,京都市中京区,西ノ京冷泉町１２０番地２,,26,104,6048481,,,2023-06-30,清算の結了等,,,2015-10-05,1,,,,,アオイセイホンシコウ,0
480,2130001064335,登記記録の閉鎖等,0,2023-07-10,2023-06-26,長野工業株式会社,,株式会社,京都府,舞鶴市,田中町１５番地２９,,26,202,6250024,,,2023-06-26,清算の結了等,,,2019-04-16,1,,,,,,0
500,2160001020723,登記記録の閉鎖等,0,2023-07-10,2023-06-30,株式会社ＰＲＯＪＥＣＴ　ＺＥＲＯ,,株式会社,滋賀県,高島市,今津町梅原１１８７番地６,,25,212,5201654,,,2023-06-30,清算の結了等,,,2018-02-05,1,,,,,プロジェクトゼロ,0
502,2160001024872,登記記録の閉鎖等,0,2023-07-10,2023-07-03,株式会社キタガワフーズ,,株式会社,滋賀県,守山市,三宅町６０１番地の１,,25,207,5240051,,,2023-07-03,清算の結了等,,,2023-03-07,1,,,,,キタガワフーズ,0
506,2180001128151,登記記録の閉鎖等,0,2023-07-10,2023-07-03,株式会社松本地所,,株式会社,愛知県,名古屋市中村区,京田町１丁目３６番地の１,,23,105,4530816,,,2023-07-03,清算の結了等,,,2017-06-06,1,,,,,マツモトジショ,0
523,2220005002967,登記記録の閉鎖等,0,2023-07-10,2023-07-03,協同組合美川商店連盟,,その他の設立登記法人,石川県,白山市,美川浜町タ１３９番地,,17,210,9290233,,,2023-07-03,清算の結了等,,,2015-10-05,1,,,,,ミカワショウテンレンメイ,0
526,2240001024162,登記記録の閉鎖等,0,2023-07-10,2023-07-03,株式会社藤山印刷,,株式会社,広島県,広島市西区,中広町１丁目１５番３号,,34,104,7330012,,,2023-07-03,清算の結了等,,,2015-10-05,1,,,,,フジヤマインサツ,0
527,2240001034764,登記記録の閉鎖等,0,2023-07-10,2023-07-04,株式会社松本製缶,,株式会社,広島県,東広島市,西条町吉行１５６１番地５,,34,212,7390002,,,2023-07-04,清算の結了等,,,2015-10-05,1,,,,,マツモトセイカン,0
535,2290001087659,登記記録の閉鎖等,0,2023-07-10,2023-06-30,株式会社ＲＳＳ,,株式会社,福岡県,春日市,千歳町３丁目４６番地,,40,218,8160805,,,2023-06-30,清算の結了等,,,2020-01-09,1,,,,,アールエスエス,0
537,2290002004976,登記記録の閉鎖等,0,2023-07-10,2023-06-30,有限会社シーニック,,有限会社,福岡県,福岡市東区,筥松３丁目１５番１０号,,40,131,8120061,,,2023-06-30,清算の結了等,,,2015-10-05,1,,,,,シーニック,0
539,2290002008960,登記記録の閉鎖等,0,2023-07-10,2023-06-30,有限会社正喜,,有限会社,福岡県,福岡市早良区,原２丁目１番１７号,,40,137,8140022,,,2023-06-30,清算の結了等,,,2015-10-05,1,,,,,マサキ,0
557,2360002009407,登記記録の閉鎖等,0,2023-07-10,2023-06-30,有限会社ミリキ,,有限会社,沖縄県,糸満市,字糸満２２１番地,,47,210,9010361,,,2023-06-30,清算の結了等,,,2015-10-05,1,,,,,ミリキ,0
562,2380002000157,登記記録の閉鎖等,0,2023-07-10,2023-06-30,有限会社安斎塗装店,,有限会社,福島県,福島市,泉字長滝前６番地,,07,201,9608253,,,2023-06-30,清算の結了等,,,2015-10-05,1,,,,,アンザイトソウテン,0
575,2430001080797,登記記録の閉鎖等,0,2023-07-10,2023-07-03,株式会社ライフ・グリーン・ホーム,,株式会社,北海道,千歳市,みどり台北１丁目３－７未来ビル１階,,01,224,0660083,,,2023-07-03,清算の結了等,,,2020-01-31,1,,,,,ライフグリーンホーム,0
583,2470002004660,登記記録の閉鎖等,0,2023-07-10,2023-06-30,有限会社ツクダ,,有限会社,香川県,高松市,一宮町５６８番地,,37,201,7618084,,,2023-06-30,清算の結了等,,,2015-10-05,1,,,,,ツクダ,0
588,2500001019284,登記記録の閉鎖等,0,2023-07-10,2023-07-05,株式会社ライズ,,株式会社,愛媛県,今治市,拝志４番４１号,,38,202,7991504,,,2023-07-05,清算の結了等,,,2015-10-05,1,,,,,ライズ,0
608,3010001149576,登記記録の閉鎖等,0,2023-07-10,2023-06-30,山佐ＴＫ８リース株式会社,,株式会社,東京都,千代田区,丸の内３丁目１番１号東京共同会計事務所内,,13,101,1000005,,,2023-06-30,清算の結了等,,,2015-10-05,1,,,,,ヤマサティーケイハチリース,0
625,3010401151371,登記記録の閉鎖等,0,2023-07-10,2023-06-26,株式会社Ｈｏｒｓｅ　Ｈｏｌｄｉｎｇｓ,,株式会社,東京都,港区,南青山１丁目３番１－６１２号,,13,103,1070062,,,2023-06-26,清算の結了等,,,2020-03-04,1,,,,,ホースホールディングス,0
643,3010701025234,登記記録の閉鎖等,0,2023-07-10,2023-07-05,株式会社夢プロエンジ,,株式会社,東京都,港区,東新橋２丁目１４番１号,,13,103,1050021,,,2023-07-05,合併による解散等,3010401146636,令和５年７月１日東京都港区東新橋二丁目１４番１号株式会社ビーネックステクノロジーズ（3010401146636）に合併し解散,2015-10-05,1,,,,,ユメプロエンジ,0
649,3010802002784,登記記録の閉鎖等,0,2023-07-10,2023-07-04,有限会社オートカーズファクトリー,,有限会社,東京都,大田区,大森南５丁目１番１２－５０５号,,13,111,1430013,,,2023-07-04,清算の結了等,,,2015-10-05,1,,,,,オートカーズファクトリー,0
663,3011101016559,登記記録の閉鎖等,0,2023-07-10,2023-07-06,日本邸宅株式会社,,株式会社,東京都,新宿区,箪笥町３番地,,13,104,1620833,,,2023-07-06,清算の結了等,,,2015-10-05,1,,,,,ニホンテイタク,0
664,3011101051804,登記記録の閉鎖等,0,2023-07-10,2023-07-06,株式会社オールック,,株式会社,東京都,新宿区,西早稲田２丁目４－１６エスユービル３階,,13,104,1690051,,,2023-07-06,清算の結了等,,,2015-10-05,1,,,,,オールック,0
675,3011401022397,登記記録の閉鎖等,0,2023-07-10,2023-07-04,エンゼル管理株式会社,,株式会社,東京都,板橋区,成増３丁目３１番６号ＫＲＫ成増２０１号,,13,119,1750094,,,2023-07-04,清算の結了等,,,2020-02-14,1,,,,,エンゼルカンリ,0
684,3011502010920,登記記録の閉鎖等,0,2023-07-10,2023-07-03,有限会社フラット,,有限会社,東京都,荒川区,荒川４丁目４番２－７０１号,,13,118,1160002,,,2023-07-03,清算の結了等,,,2015-10-05,1,,,,,フラット,0
688,3011602006315,登記記録の閉鎖等,0,2023-07-10,2023-07-03,有限会社タケダ内装,,有限会社,東京都,練馬区,桜台１丁目４７番１号,,13,120,1760002,,,2023-07-03,清算の結了等,,,2015-10-05,1,,,,,タケダナイソウ,0
696,3012301005780,登記記録の閉鎖等,0,2023-07-10,2023-06-26,サン・メディカルサイエンス株式会社,,株式会社,東京都,町田市,大蔵町２９４１番地５,,13,209,1950062,,,2023-06-26,清算の結了等,,,2015-10-05,1,,,,,,0
700,3013101001276,登記記録の閉鎖等,0,2023-07-10,2023-07-04,株式会社Ｋ－Ｍｏｔｉｏｎ,,株式会社,東京都,あきる野市,草花３４２７番地１,,13,228,1970802,,,2023-07-04,清算の結了等,,,2015-10-05,1,,,,,ケーモーション,0
707,3020001081794,登記記録の閉鎖等,0,2023-07-10,2023-07-05,株式会社ベイトランスポート,,株式会社,神奈川県,川崎市川崎区,白石町７番６号,,14,131,2100857,,,2023-07-05,合併による解散等,9020001074264,令和５年７月１日千葉県市川市福栄四丁目３番１７号ビューテックローリー株式会社（9020001074264）に合併し解散,2015-10-05,1,,,,,ベイトランスポート,0
715,3020002068139,登記記録の閉鎖等,0,2023-07-10,2023-06-28,有限会社シー・アンド・エフ,,有限会社,神奈川県,横浜市保土ケ谷区,仏向西７番３２号,,14,106,2400046,,,2023-06-28,清算の結了等,,,2015-10-05,1,,,,,シーアンドエフ,0
721,3021001001156,登記記録の閉鎖等,0,2023-07-10,2023-06-30,株式会社鈴木工務店,,株式会社,神奈川県,藤沢市,石川５丁目１１番地の３,,14,205,2520815,,,2023-06-30,清算の結了等,,,2015-10-05,1,,,,,,0
725,3030001077858,登記記録の閉鎖等,0,2023-07-10,2023-06-30,リコーヒートトリートメント株式会社,,株式会社,神奈川県,横浜市中区,山手町１６６番地１ペルシェール山手３０３号,,14,104,2310862,,,2023-06-30,清算の結了等,,,2015-10-05,1,,,,,リコーヒートトリートメント,0
738,3040003001451,登記記録の閉鎖等,0,2023-07-10,2023-06-16,合資会社リペア,,合資会社,千葉県,市川市,北方町４丁目２０１４番地１２,,12,203,2720811,,,2023-06-16,清算の結了等,,,2015-10-05,1,,,,,リペア,0
744,3050002002722,登記記録の閉鎖等,0,2023-07-10,2023-07-03,有限会社檜山洋服店,,有限会社,茨城県,水戸市,大町２丁目３番７号,,08,201,3100062,,,2023-07-03,清算の結了等,,,2015-10-05,1,,,,,ヒヤマヨウフクテン,0
745,3060001028759,登記記録の閉鎖等,0,2023-07-10,2023-06-29,Ｉｃｈｉｋａ株式会社,,株式会社,栃木県,宇都宮市,西川田町１０００番地２１,,09,201,3210151,,,2023-06-29,清算の結了等,,,2016-10-31,1,,,,,イチカ,0
768,3120001007475,登記記録の閉鎖等,0,2023-07-10,2023-07-03,小松商事株式会社,,株式会社,大阪府,大阪市都島区,片町１丁目５番４号,,27,102,5340025,,,2023-07-03,合併による解散等,9120001007511,令和５年７月１日大阪市都島区片町一丁目５番４号栄運輸工業株式会社（9120001007511）に合併し解散,2015-10-05,1,,,,,コマツショウジ,0
770,3120001024999,登記記録の閉鎖等,0,2023-07-10,2023-07-03,株式会社菱川,,株式会社,大阪府,大阪市天王寺区,清水谷町１２番１５号,,27,109,5430011,,,2023-07-03,清算の結了等,,,2015-10-05,1,,,,,ヒシカワ,0
806,3140001097746,登記記録の閉鎖等,0,2023-07-10,2023-07-04,株式会社ビスポークスタイル,,株式会社,兵庫県,神戸市西区,狩場台１丁目２５番地の１２,,28,111,6512272,,,2023-07-04,清算の結了等,,,2015-10-05,1,,,,,ビスポークスタイル,0
843,3190002005026,登記記録の閉鎖等,0,2023-07-10,2023-06-30,宇城設備有限会社,,有限会社,三重県,熊野市,有馬町１３３５番地の３,,24,212,5194325,,,2023-06-30,清算の結了等,,,2015-10-05,1,,,,,ウシロセツビ,0
847,3220001007382,登記記録の閉鎖等,0,2023-07-10,2023-07-03,株式会社吉井工作所,,株式会社,石川県,金沢市,尾張町１丁目２番２０号,,17,201,9200902,,,2023-07-03,合併による解散等,8220001007386,令和５年７月１日石川県金沢市尾張町一丁目１０番３０号株式会社吉井商店（8220001007386）に合併し解散,2015-10-05,1,,,,,ヨシイコウサクショ,0
858,3250002013880,登記記録の閉鎖等,0,2023-07-10,2023-06-28,有限会社油谷塗装工業,,有限会社,山口県,長門市,油谷蔵小田１６１１番地,,35,211,7594501,,,2023-06-28,清算の結了等,,,2015-10-05,1,,,,,ユヤトソウコウギョウ,0
859,3260001009219,登記記録の閉鎖等,0,2023-07-10,2023-07-03,株式会社バンテック,,株式会社,岡山県,岡山市北区,厚生町１丁目１１番９号,,33,101,7000985,,,2023-07-03,清算の結了等,,,2015-10-05,1,,,,,バンテック,0
867,3310001005996,登記記録の閉鎖等,0,2023-07-10,2023-07-03,増本産業株式会社,,株式会社,長崎県,佐世保市,松浦町２番２９号,,42,202,8570052,,,2023-07-03,合併による解散等,2310001005997,令和５年７月１日長崎県佐世保市松浦町２番２９号増本石油株式会社（2310001005997）に合併し解散,2015-10-05,1,,,,,マスモトサンギョウ,0
878,3360001016254,登記記録の閉鎖等,0,2023-07-10,2023-06-30,株式会社フォルム,,株式会社,沖縄県,沖縄市,南桃原３丁目１９番１号,,47,211,9040035,,,2023-06-30,清算の結了等,,,2015-10-05,1,,,,,,0
907,4010001149575,登記記録の閉鎖等,0,2023-07-10,2023-06-30,山佐ＴＫ７リース株式会社,,株式会社,東京都,千代田区,丸の内３丁目１番１号東京共同会計事務所内,,13,101,1000005,,,2023-06-30,清算の結了等,,,2015-10-05,1,,,,,ヤマサティーケイシチリース,0
908,4010001156588,登記記録の閉鎖等,0,2023-07-10,2023-06-30,株式会社良い食品,,株式会社,東京都,中央区,日本橋馬喰町１丁目７番３号,,13,102,1030002,,,2023-06-30,清算の結了等,,,2015-10-05,1,,,,,ヨイショクヒン,0
916,4010002022863,登記記録の閉鎖等,0,2023-07-10,2023-06-28,ＷＤＢ臨床研究株式会社,,株式会社,東京都,中央区,晴海１丁目８番１１号,,13,102,1040053,,,2023-06-28,合併による解散等,9010001139654,令和５年６月１５日東京都中央区晴海一丁目８番１１号ＷＤＢココ株式会社（9010001139654）に合併し解散,2015-10-05,1,,,,,ダブリューディービーリンショウケンキュウ,0
921,4010005029220,登記記録の閉鎖等,0,2023-07-10,2023-07-03,一般社団法人仮想通貨実務家協会,,その他の設立登記法人,東京都,中央区,日本橋堀留町１丁目１０番１１号井門堀留ビル３階,,13,102,1030012,,,2023-07-03,清算の結了等,,,2018-10-18,1,,,,,カソウツウカジツムカキョウカイ,0
938,4010403018956,登記記録の閉鎖等,0,2023-07-10,2023-06-26,ブルーレンディング合同会社,,合同会社,東京都,港区,虎ノ門３丁目２２番１０－２０１号,,13,103,1050001,,,2023-06-26,清算の結了等,,,2018-07-18,1,,,,,ブルーレンディング,0
942,4010501040408,登記記録の閉鎖等,0,2023-07-10,2023-06-30,株式会社ＷｏｒｋＤｉｖｅ,,株式会社,東京都,千代田区,岩本町２丁目２－４,,13,101,1010032,,,2023-06-30,清算の結了等,,,2016-12-21,1,,,,,ワークダイブ,0
973,4011301025796,登記記録の閉鎖等,0,2023-07-10,2023-06-26,株式会社Ｂｏｎｊｏｕｒ,,株式会社,東京都,杉並区,高円寺南２丁目４３番１２号,,13,115,1660003,,,2023-06-26,清算の結了等,,,2020-03-27,1,,,,,ボンジュール,0
977,4011401022479,登記記録の閉鎖等,0,2023-07-10,2023-07-04,エコロジカルネットワークス株式会社,,株式会社,東京都,板橋区,成増３丁目３１番６号ＫＲＫ成増２階,,13,119,1750094,,,2023-07-04,清算の結了等,,,2020-03-27,1,,,,,エコロジカルネットワークス,0
992,4013301011495,登記記録の閉鎖等,0,2023-07-10,2023-06-29,株式会社フアイブニット,,株式会社,東京都,中央区,日本橋浜町１丁目１１番３－３０３号,,13,102,1030007,,,2023-06-29,清算の結了等,,,2015-10-05,1,,,,,フアイブニット,0
1006,4020003018307,登記記録の閉鎖等,0,2023-07-10,2023-06-30,ソラ・アセットマネジメント合同会社,,合同会社,神奈川県,横浜市金沢区,洲崎町五丁目２９ー５０４号,,14,108,2360028,,,2023-06-30,合併による解散等,9020003018467,令和５年６月３０日神奈川県横浜市金沢区洲崎町五丁目２９－５０４号ケイ・アセットマネジメント合同会社（9020003018467）に合併し解散,2020-08-11,1,,,,,ソラアセットマネジメント,0
1016,4040001097945,登記記録の閉鎖等,0,2023-07-10,2023-06-29,株式会社プラナ,,株式会社,東京都,中央区,銀座１丁目２２番１１号銀座大竹ビジデンス２階,,13,102,1040061,,,2023-06-29,清算の結了等,,,2016-12-14,1,,,,,プラナ,0
1020,4040002040862,登記記録の閉鎖等,0,2023-07-10,2023-06-21,有限会社斉藤工建,,有限会社,千葉県,市川市,福栄２丁目１番１－１２４号サニーハウス行徳,,12,203,2720137,,,2023-06-21,清算の結了等,,,2015-10-05,1,,,,,サイトウコウケン,0
1022,4040002061009,登記記録の閉鎖等,0,2023-07-10,2023-06-20,センサク有限会社,,有限会社,千葉県,佐倉市,上志津１１１７番地４,,12,212,2850846,,,2023-06-20,清算の結了等,,,2015-10-05,1,,,,,センサク,0
1031,4070001009071,登記記録の閉鎖等,0,2023-07-10,2023-07-03,藤田水道受託株式会社,,株式会社,群馬県,高崎市,飯塚町１１７４番地５,,10,202,3700069,,,2023-07-03,合併による解散等,8070001008243,令和５年７月１日群馬県高崎市飯塚町１１７４番地５藤田テクノ株式会社（8070001008243）に合併し解散,2015-10-05,1,,,,,フジタスイドウジュタク,0
1045,4100002010330,登記記録の閉鎖等,0,2023-07-10,2023-07-03,有限会社井出宅建,,有限会社,長野県,佐久市,新子田９５１番地,,20,217,3850007,,,2023-07-03,清算の結了等,,,2015-10-05,1,,,,,イデタッケン,0
1050,4100002032317,登記記録の閉鎖等,0,2023-07-10,2023-06-30,有限会社アシスト設備,,有限会社,長野県,岡谷市,神明町３丁目１８番１１号,,20,204,3940004,,,2023-06-30,清算の結了等,,,2015-10-05,1,,,,,アシストセツビ,0
1062,4120001204311,登記記録の閉鎖等,0,2023-07-10,2023-07-03,ＵＮＣＨＩ　ＰＲＯＤＵＣＥ株式会社,,株式会社,大阪府,大阪市淀川区,西中島５丁目７番２５－１００４号,,27,123,5320011,,,2023-07-03,合併による解散等,9120001181141,令和５年７月１日大阪市淀川区西中島五丁目７番２５－１００４号ｕｎｃｈｉ株式会社（9120001181141）に合併し解散,2017-03-13,1,,,,,ウンチプロデュース,0
1096,4140001033444,登記記録の閉鎖等,0,2023-07-10,2023-06-30,株式会社Ｅ－Ｇｉｎ,,株式会社,兵庫県,神戸市長田区,川西通３丁目２８番,,28,106,6530834,,,2023-06-30,清算の結了等,,,2015-10-05,1,,,,,,0
1119,4170001002826,登記記録の閉鎖等,0,2023-07-10,2023-07-05,株式会社フィスコ,,株式会社,和歌山県,和歌山市,岩橋６０８番地の３,,30,201,6408301,,,2023-07-05,清算の結了等,,,2015-10-05,1,,,,,フィスコ,0
1123,4180001056672,登記記録の閉鎖等,0,2023-07-10,2023-07-03,株式会社三光,,株式会社,愛知県,名古屋市昭和区,向山町３丁目１０番地,,23,107,4660829,,,2023-07-03,清算の結了等,,,2015-10-05,1,,,,,サンコウ,0
1163,4280002000768,登記記録の閉鎖等,0,2023-07-10,2023-06-29,有限会社香蘭,,有限会社,島根県,出雲市,斐川町上直江１３０６番地１,,32,203,6990624,,,2023-06-29,清算の結了等,,,2015-10-05,1,,,,,コウラン,0
1164,4290001012581,登記記録の閉鎖等,0,2023-07-10,2023-06-30,株式会社ツースリー,,株式会社,福岡県,福岡市西区,橋本１丁目５番１０号,,40,135,8190031,,,2023-06-30,清算の結了等,,,2015-10-05,1,,,,,ツースリー,0
1178,4350002001833,登記記録の閉鎖等,0,2023-07-10,2023-06-30,三栄メディカル宮崎販売有限会社,,有限会社,宮崎県,宮崎市,田野町甲４７０３番地１,,45,201,8891701,,,2023-06-30,清算の結了等,,,2015-10-05,1,,,,,サンエイメディカルミヤザキハンバイ,0
1200,4470002015474,登記記録の閉鎖等,0,2023-07-10,2023-06-30,有限会社山下商店,,有限会社,香川県,坂出市,川津町４９２１番地４,,37,203,7620025,,,2023-06-30,清算の結了等,,,2015-10-05,1,,,,,ヤマシタショウテン,0
1207,4500005007861,登記記録の閉鎖等,0,2023-07-10,2023-07-06,一般社団法人トータルフィットネス,,その他の設立登記法人,愛媛県,伊予郡松前町,大字大間１９３番地３,,38,401,7913143,,,2023-07-06,清算の結了等,,,2017-04-05,1,,,,,トータルフィットネス,0
1214,5010001052547,登記記録の閉鎖等,0,2023-07-10,2023-06-30,株式会社トライ,,株式会社,神奈川県,小田原市,城山１丁目１２番１号,,14,206,2500045,,,2023-06-30,清算の結了等,,,2015-10-05,1,,,,,トライ,0
1226,5010002029866,登記記録の閉鎖等,0,2023-07-10,2023-06-30,有限会社ケイ・プラン,,有限会社,東京都,中央区,勝どき２丁目１８番１号レイメイスカイレジテル１０４８,,13,102,1040054,,,2023-06-30,清算の結了等,,,2015-10-05,1,,,,,ケイプラン,0
1229,5010005023552,登記記録の閉鎖等,0,2023-07-10,2023-07-03,アセット・ツー特定目的会社,,その他の設立登記法人,東京都,中央区,日本橋１丁目４番１号,,13,102,1030027,,,2023-07-03,清算の結了等,,,2015-10-05,1,,,,,アセットツー,0
1266,5011102013768,登記記録の閉鎖等,0,2023-07-10,2023-07-04,有限会社ワールドツアーズジャパン,,有限会社,東京都,東村山市,諏訪町１丁目２３番２,,13,213,1890021,,,2023-07-04,清算の結了等,,,2015-10-05,1,,,,,ワールドツアーズジャパン,0
1270,5011203001795,登記記録の閉鎖等,0,2023-07-10,2023-06-29,合同会社エイチツー・リンク,,合同会社,神奈川県,川崎市多摩区,三田１丁目１６番地２３,,14,135,2140034,,,2023-06-29,清算の結了等,,,2015-10-05,1,,,,,エイチツーリンク,0
1293,5013303006096,登記記録の閉鎖等,0,2023-07-10,2023-06-30,合同会社ライベリー,,合同会社,東京都,豊島区,東池袋１丁目３４番５号いちご東池袋ビル６階,,13,116,1700013,,,2023-06-30,清算の結了等,,,2022-03-25,1,,,,,ライベリー,0
1295,5020001115641,登記記録の閉鎖等,0,2023-07-10,2023-06-30,株式会社プロセスイノベーションコンサルティング,,株式会社,神奈川県,横浜市中区,尾上町６丁目８７番地１ダイムラービル６Ｆ,,14,104,2310015,,,2023-06-30,清算の結了等,,,2016-04-08,1,,,,,プロセスイノベーションコンサルティング,0
1311,5021001037859,登記記録の閉鎖等,0,2023-07-10,2023-07-03,トータルサービス株式会社,,株式会社,神奈川県,平塚市,平塚２丁目１５番７号,,14,203,2540052,,,2023-07-03,清算の結了等,,,2015-10-05,1,,,,,トータルサービス,0
1312,5021001062337,登記記録の閉鎖等,0,2023-07-10,2023-06-22,株式会社Ａｃｃｅｓｓ　Ｅｎｔｅｒｐｒｉｓｅ,,株式会社,千葉県,大網白里市,大網３６０７番地,,12,239,2993251,,,2023-06-22,清算の結了等,,,2017-06-07,1,,,,,アクセスエンタープライズ,0
1315,5021002057930,登記記録の閉鎖等,0,2023-07-10,2023-06-30,有限会社佐々木鈑金工業,,有限会社,神奈川県,平塚市,大神２５９３番地の１０,,14,203,2540012,,,2023-06-30,清算の結了等,,,2015-10-05,1,,,,,ササキバンキンコウギョウ,0
1318,5030001075967,登記記録の閉鎖等,0,2023-07-10,2023-06-20,田丸興業株式会社,,株式会社,埼玉県,川口市,西川口６丁目２番９号,,11,203,3320021,,,2023-06-20,清算の結了等,,,2015-10-05,1,,,,,タマルコウギョウ,0
1326,5040001010799,登記記録の閉鎖等,0,2023-07-10,2023-06-21,株式会社白樺・池上介護センター,,株式会社,千葉県,千葉市花見川区,花見川７番１９棟１０２号,,12,102,2620046,,,2023-06-21,清算の結了等,,,2015-10-05,1,,,,,シラカバイケガミカイゴセンター,0
1360,5100002010321,登記記録の閉鎖等,0,2023-07-10,2023-07-03,有限会社市村商会,,有限会社,長野県,佐久市,中込２９２０番地,,20,217,3850051,,,2023-07-03,清算の結了等,,,2015-10-05,1,,,,,イチムラショウカイ,0
1364,5120001054986,登記記録の閉鎖等,0,2023-07-10,2023-06-30,株式会社クリエート,,株式会社,大阪府,大阪市淀川区,西中島４丁目７番２０号,,27,123,5320011,,,2023-06-30,清算の結了等,,,2015-10-05,1,,,,,クリエート,0
1367,5120001115623,登記記録の閉鎖等,0,2023-07-10,2023-07-05,株式会社住まいのシステムセンター,,株式会社,大阪府,大阪市都島区,友渕町１丁目３番１９－２０１号,,27,102,5340016,,,2023-07-05,清算の結了等,,,2015-10-05,1,,,,,スマイノシステムセンター,0
1384,5120003012587,登記記録の閉鎖等,0,2023-07-10,2023-07-05,合同会社サンライズテクニカル,,合同会社,大阪府,大阪市北区,同心２丁目５番２３号,,27,127,5300035,,,2023-07-05,清算の結了等,,,2017-03-14,1,,,,,サンライズテクニカル,0
1425,5160002005225,登記記録の閉鎖等,0,2023-07-10,2023-07-03,有限会社プラスワン,,有限会社,滋賀県,湖南市,サイドタウン４丁目１５番１９号,,25,211,5203244,,,2023-07-03,清算の結了等,,,2015-10-05,1,,,,,プラスワン,0
1449,5200001018611,登記記録の閉鎖等,0,2023-07-10,2023-07-03,株式会社ハウジングイースト,,株式会社,愛知県,名古屋市千種区,富士見台２丁目１０番地３,,23,101,4640015,,,2023-07-03,合併による解散等,7180002038493,令和５年７月１日名古屋市千種区富士見台二丁目１０番地の３株式会社フジイースト（7180002038493）に合併し解散,2015-10-05,1,,,,,ハウジングイースト,0
1450,5200002013768,登記記録の閉鎖等,0,2023-07-10,2023-06-30,有限会社林建設,,有限会社,岐阜県,不破郡垂井町,府中１８５８番地,,21,361,5032114,,,2023-06-30,清算の結了等,,,2015-10-05,1,,,,,ハヤシケンセツ,0
1454,5220001019847,登記記録の閉鎖等,0,2023-07-10,2023-07-03,株式会社光植栽研究所,,株式会社,石川県,小松市,おびし町１５７番地,,17,203,9230314,,,2023-07-03,清算の結了等,,,2015-10-05,1,,,,,ヒカリショクサイケンキュウショ,0
1472,5290002011417,登記記録の閉鎖等,0,2023-07-10,2023-06-30,有限会社セーフティワン,,有限会社,福岡県,福岡市中央区,笹丘３丁目１８番２２号,,40,133,8100034,,,2023-06-30,清算の結了等,,,2015-10-05,1,,,,,セーフティワン,0
1490,5370002017166,登記記録の閉鎖等,0,2023-07-10,2023-07-03,有限会社アサヒメンテ,,有限会社,宮城県,仙台市青葉区,春日町５番１０号スズキビル２０１号室,,04,101,9800821,,,2023-07-03,清算の結了等,,,2015-10-05,1,,,,,アサヒメンテ,0
1498,5390003000887,登記記録の閉鎖等,0,2023-07-10,2023-06-30,合同会社Ｋ・ＣＲＯＷＮ,,合同会社,山形県,米沢市,中田町１１４１番地の３４,,06,202,9920011,,,2023-06-30,清算の結了等,,,2015-10-05,1,,,,,ケエクラウン,0
1500,5400502000659,登記記録の閉鎖等,0,2023-07-10,2023-06-26,有限会社ミトヤ,,有限会社,岩手県,一関市,萩荘字金ケ崎１８番地１,,03,209,0210902,,,2023-06-26,清算の結了等,,,2015-10-05,1,,,,,ミトヤ,0
1510,5430001078228,登記記録の閉鎖等,0,2023-07-10,2023-07-03,株式会社奥村塗創,,株式会社,北海道,札幌市東区,伏古十条１丁目１５番８号,,01,103,0070870,,,2023-07-03,清算の結了等,,,2019-01-31,1,,,,,オクムラトソウ,0
1511,5430002004125,登記記録の閉鎖等,0,2023-07-10,2023-06-30,有限会社岡田利二商店,,有限会社,北海道,札幌市西区,山の手一条１丁目４番２４号,,01,107,0630001,,,2023-06-30,清算の結了等,,,2015-10-05,1,,,,,オカダトシジショウテン,0
1512,5430002055580,登記記録の閉鎖等,0,2023-07-10,2023-06-22,有限会社山野,,有限会社,北海道,小樽市,色内２丁目１３番１５号,,01,203,0470031,,,2023-06-22,清算の結了等,,,2015-10-05,1,,,,,ヤマノ,0
1540,6010002027332,登記記録の閉鎖等,0,2023-07-10,2023-06-30,有限会社エーストミー,,有限会社,東京都,文京区,関口１丁目１番６号,,13,105,1120014,,,2023-06-30,合併による解散等,7010001120806,令和５年６月３０日東京都文京区関口一丁目１番６号株式会社新星産業（7010001120806）に合併し解散,2015-10-05,1,,,,,エーストミー,0
1542,6010003027950,登記記録の閉鎖等,0,2023-07-10,2023-06-30,大阪北浜合同会社,,合同会社,東京都,千代田区,平河町１丁目６番１５号シルスフィア会計事務所内,,13,101,1020093,,,2023-06-30,清算の結了等,,,2018-07-24,1,,,,,オオサカキタハマ,0
1547,6010401029458,登記記録の閉鎖等,0,2023-07-10,2023-06-23,株式会社メランジ,,株式会社,東京都,港区,南青山５丁目８番３号エクボ南青山ビル３階,,13,103,1070062,,,2023-06-23,清算の結了等,,,2015-10-05,1,,,,,メランジ,0
1561,6010503006198,登記記録の閉鎖等,0,2023-07-10,2023-06-26,Ｔｈｅ　Ｂｏｕｑｓ　Ｃｏｍｐａｎｙ合同会社,,合同会社,東京都,港区,元麻布３丁目１番６号,,13,103,1060046,,,2023-06-26,清算の結了等,,,2021-03-16,1,,,,,ザブークスカンパニー,0
1568,6010602032797,登記記録の閉鎖等,0,2023-07-10,2023-07-03,有限会社アルページュ音楽事務所,,有限会社,東京都,墨田区,太平４丁目１番１－２０１７号,,13,107,1300012,,,2023-07-03,清算の結了等,,,2015-10-05,1,,,,,アルページュオンガクジムショ,0
1583,6011003010896,登記記録の閉鎖等,0,2023-07-10,2023-06-30,ｈｏｇｅｈｏｇｅ合同会社,,合同会社,東京都,江東区,豊洲５丁目１－１３－２２０４号,,13,108,1350061,,,2023-06-30,清算の結了等,,,2020-02-20,1,,,,,ホゲホゲ,0
1596,6011303004169,登記記録の閉鎖等,0,2023-07-10,2023-07-03,合同会社サンビレッジ,,合同会社,東京都,江東区,有明２丁目１番２－２１１７号,,13,108,1350063,,,2023-07-03,清算の結了等,,,2021-09-10,1,,,,,サンビレッジ,0
1606,6011802011731,登記記録の閉鎖等,0,2023-07-10,2023-07-04,有限会社北村商事,,有限会社,東京都,足立区,千住旭町４３番１３号,,13,121,1200026,,,2023-07-04,清算の結了等,,,2015-10-05,1,,,,,キタムラショウジ,0
1610,6012401023390,登記記録の閉鎖等,0,2023-07-10,2023-07-03,株式会社義風堂々,,株式会社,東京都,武蔵野市,吉祥寺南町１丁目９番９号吉祥寺じぞうビル,,13,203,1800003,,,2023-07-03,合併による解散等,2012401013445,令和５年７月１日東京都武蔵野市吉祥寺南町一丁目９番９号吉祥寺じぞうビル株式会社コアミックス（2012401013445）に合併し解散,2015-10-05,1,,,,,ギフウドウドウ,0
1624,6020001005197,登記記録の閉鎖等,0,2023-07-10,2023-07-03,株式会社スウエツテイ,,株式会社,神奈川県,横浜市旭区,東希望が丘１３３番地の１希望が丘第３コーポラスＡ棟２０４号,,14,112,2410826,,,2023-07-03,清算の結了等,,,2015-10-05,1,,,,,スウエツテイ,0
1637,6020002088456,登記記録の閉鎖等,0,2023-07-10,2023-06-30,有限会社岡田工機,,有限会社,神奈川県,川崎市高津区,坂戸３丁目３番１－８２０号,,14,134,2130012,,,2023-06-30,清算の結了等,,,2015-10-05,1,,,,,オカダコウキ,0
1638,6020002094248,登記記録の閉鎖等,0,2023-07-10,2023-06-29,有限会社クリーンサイクル,,有限会社,神奈川県,川崎市麻生区,黒川２０５８番地,,14,137,2150035,,,2023-06-29,清算の結了等,,,2015-10-05,1,,,,,クリーンサイクル,0
1662,6040002041289,登記記録の閉鎖等,0,2023-07-10,2023-06-20,有限会社ドゥテック,,有限会社,千葉県,浦安市,堀江５丁目２番２９号,,12,227,2790041,,,2023-06-20,清算の結了等,,,2015-10-05,1,,,,,ドゥテック,0
1663,6040002064505,登記記録の閉鎖等,0,2023-07-10,2023-06-21,有限会社イルピーノ,,有限会社,千葉県,佐倉市,江原新田１１２番地１,,12,212,2850823,,,2023-06-21,清算の結了等,,,2015-10-05,1,,,,,イルピーノ,0
1684,6080002011098,登記記録の閉鎖等,0,2023-07-10,2023-07-04,有限会社双葉電機,,有限会社,静岡県,静岡市清水区,長崎南町９番２号,,22,103,4240068,,,2023-07-04,清算の結了等,,,2015-10-05,1,,,,,フタバデンキ,0
1687,6090002007616,登記記録の閉鎖等,0,2023-07-10,2023-07-04,有限会社東香園,,有限会社,山梨県,南アルプス市,十日市場１８２８番地１,,19,208,4000336,,,2023-07-04,清算の結了等,,,2015-10-05,1,,,,,トウコウエン,0
1693,6120001034293,登記記録の閉鎖等,0,2023-07-10,2023-07-04,株式会社井上保商店,,株式会社,大阪府,大阪市福島区,野田１丁目１番８６号大阪市中央卸売市場内,,27,103,5530005,,,2023-07-04,清算の結了等,,,2015-10-05,1,,,,,イノウエタモツショウテン,0
1694,6120001048599,登記記録の閉鎖等,0,2023-07-10,2023-07-03,株式会社ワダモ,,株式会社,大阪府,大阪市西区,西本町１丁目１３番３６号,,27,106,5500005,,,2023-07-03,清算の結了等,,,2015-10-05,1,,,,,ワダモ,0
1697,6120001100723,登記記録の閉鎖等,0,2023-07-10,2023-07-03,株式会社オー・シー・アイ,,株式会社,大阪府,大阪市生野区,巽西３丁目３番２号,00028749,27,116,5440012,,,2023-07-03,合併による解散等,2120001142950,令和５年７月１日大阪市北区東天満一丁目３番８号ＵＬＴＩＭ東天満９Ｆ株式会社ＵＬＴＩ－Ｍｅｄｉｃａｌ（2120001142950）に合併し解散,2015-10-05,1,,,,,オーシーアイ,0
1699,6120001137162,登記記録の閉鎖等,0,2023-07-10,2023-07-03,株式会社タカクラ,,株式会社,大阪府,枚方市,東藤田町２番７号,,27,210,5730044,,,2023-07-03,清算の結了等,,,2015-10-05,1,,,,,タカクラ,0
1709,6120002005153,登記記録の閉鎖等,0,2023-07-10,2023-07-03,有限会社イースト,,有限会社,大阪府,大阪市東住吉区,今林２丁目１３番２２号,,27,121,5460001,,,2023-07-03,清算の結了等,,,2015-10-05,1,,,,,イースト,0
1725,6120902012967,登記記録の閉鎖等,0,2023-07-10,2023-07-04,株式会社エムエーシー,,株式会社,大阪府,吹田市,高城町１６番４号,,27,205,5640024,,,2023-07-04,清算の結了等,,,2015-10-05,1,,,,,エムエーシー,0
1746,6140002041196,登記記録の閉鎖等,0,2023-07-10,2023-07-03,有限会社島川塾,,有限会社,兵庫県,尼崎市,武庫之荘２丁目１３番１８号,,28,202,6610035,,,2023-07-03,清算の結了等,,,2015-10-05,1,,,,,シマカワジュク,0
1779,6180003022951,登記記録の閉鎖等,0,2023-07-10,2023-07-03,合同会社サーチワールド,,合同会社,岐阜県,本巣郡北方町,朝日町２丁目３９番地レジデンス北方２０２号,,21,421,5010424,,,2023-07-03,清算の結了等,,,2021-09-14,1,,,,,サーチワールド,0
1845,6390002009383,登記記録の閉鎖等,0,2023-07-10,2023-06-30,有限会社佐藤土木,,有限会社,山形県,鶴岡市,下川字龍花崎３６番地の３５６,,06,203,9971117,,,2023-06-30,清算の結了等,,,2015-10-05,1,,,,,サトウドボク,0
1848,6410002012822,登記記録の閉鎖等,0,2023-07-10,2023-06-30,有限会社カクノダテ住器,,有限会社,秋田県,仙北市,角館町川原町後１１番地６,,05,215,0140358,,,2023-06-30,清算の結了等,,,2015-10-05,1,,,,,カクノダテジュウキ,0
1855,6450002000187,登記記録の閉鎖等,0,2023-07-10,2023-07-03,有限会社ありこま,,有限会社,北海道,旭川市,東光三条６丁目４番２１号,,01,204,0788343,,,2023-07-03,清算の結了等,,,2015-10-05,1,,,,,アリコマ,0
1862,6500002015485,登記記録の閉鎖等,0,2023-07-10,2023-07-05,有限会社環境安全衛生研究所,,有限会社,愛媛県,西条市,下島山甲２００３番地９０,,38,206,7930006,,,2023-07-05,清算の結了等,,,2015-10-05,1,,,,,カンキョウアンゼンエイセイケンキュウショ,0
1864,7010001029956,登記記録の閉鎖等,0,2023-07-10,2023-06-30,株式会社俣野,,株式会社,東京都,千代田区,岩本町２丁目７番６号,,13,101,1010032,,,2023-06-30,清算の結了等,,,2015-10-05,1,,,,,マタノ,0
1866,7010001111796,登記記録の閉鎖等,0,2023-07-10,2023-07-03,株式会社ティラミスホールディングス,,株式会社,東京都,墨田区,押上２丁目１８番１２号,,13,107,1310045,,,2023-07-03,清算の結了等,,,2015-10-05,1,,,,,ティラミスホールディングス,0
1905,7010702013110,登記記録の閉鎖等,0,2023-07-10,2023-07-06,有限会社梅林企画,,有限会社,東京都,品川区,旗の台５丁目１０番６号,,13,109,1420064,,,2023-07-06,清算の結了等,,,2015-10-05,1,,,,,バイリンキカク,0
1913,7011001136437,登記記録の閉鎖等,0,2023-07-10,2023-07-03,ＵＮＣＨＩ　ＦＲＡＮＣＨＩＳＥ株式会社,,株式会社,大阪府,大阪市淀川区,西中島５丁目７番２５－１００４号,,27,123,5320011,,,2023-07-03,合併による解散等,9120001181141,令和５年７月１日大阪市淀川区西中島五丁目７番２５－１００４号ｕｎｃｈｉ株式会社（9120001181141）に合併し解散,2020-10-16,1,,,,,ウンチフランチャイズ,0
1914,7011001139200,登記記録の閉鎖等,0,2023-07-10,2023-07-05,株式会社カルマン,,株式会社,東京都,渋谷区,神宮前６丁目２３番４号桑野ビル２階,,13,113,1500001,,,2023-07-05,清算の結了等,,,2021-03-19,1,,,,,カルマン,0
1933,7011802019906,登記記録の閉鎖等,0,2023-07-10,2023-07-04,有限会社山根畜産,,有限会社,東京都,足立区,扇３丁目１５番６号,,13,121,1230873,,,2023-07-04,清算の結了等,,,2015-10-05,1,,,,,ヤマネチクサン,0
1945,7020001092318,登記記録の閉鎖等,0,2023-07-10,2023-06-30,株式会社コーワ,,株式会社,神奈川県,横浜市鶴見区,矢向１丁目２０－７２－１０２,,14,101,2300001,,,2023-06-30,清算の結了等,,,2015-10-05,1,,,,,コーワ,0
1962,7021002035562,登記記録の閉鎖等,0,2023-07-10,2023-06-30,有限会社マスダ,,有限会社,神奈川県,伊勢原市,岡崎４９４１番地の４,,14,214,2591135,,,2023-06-30,清算の結了等,,,2015-10-05,1,,,,,,0
1999,7070001010332,登記記録の閉鎖等,0,2023-07-10,2023-07-03,和光工業株式会社,,株式会社,群馬県,高崎市,新町１８２３番地,,10,202,3701301,,,2023-07-03,合併による解散等,5070001008741,令和５年７月１日群馬県高崎市上並榎町４１７番地和光工業株式会社（5070001008741）に合併し解散,2015-10-05,1,,,,,ワコウコウギョウ,0
2004,7080001021741,登記記録の閉鎖等,0,2023-07-10,2023-07-03,株式会社ＥＲ,,株式会社,静岡県,島田市,三ッ合町１３４１番地の８,,22,209,4270036,,,2023-07-03,合併による解散等,6080001022798,令和５年７月１日静岡県島田市三ッ合町１３４１番地の８株式会社クリーントライ（6080001022798）に合併し解散,2017-08-03,1,,,,,イーアール,0
2032,7120101025753,登記記録の閉鎖等,0,2023-07-10,2023-07-03,株式会社マツモト,,株式会社,大阪府,松原市,天美東８丁目９番３号,,27,217,5800032,,,2023-07-03,清算の結了等,,,2015-10-05,1,,,,,マツモト,0
2058,7140002016073,登記記録の閉鎖等,0,2023-07-10,2023-07-04,有限会社三浦工業,,有限会社,兵庫県,神戸市中央区,八雲通１丁目１番１５号,,28,110,6510078,,,2023-07-04,清算の結了等,,,2015-10-05,1,,,,,ミウラコウギョウ,0
2065,7140005004240,登記記録の閉鎖等,0,2023-07-10,2023-06-29,一般財団法人ひょうご情報教育機構,,その他の設立登記法人,兵庫県,神戸市中央区,港島南町７丁目１番２８,,28,110,6500047,,,2023-06-29,清算の結了等,,,2015-10-05,1,,,,,ヒョウゴジョウホウキョウイクキコウ,0
2091,7220002012064,登記記録の閉鎖等,0,2023-07-10,2023-07-04,有限会社アライエ,,有限会社,石川県,加賀市,山代温泉幸町６７番地,,17,206,9220255,,,2023-07-04,清算の結了等,,,2015-10-05,1,,,,,アライエ,0
2097,7240002051738,登記記録の閉鎖等,0,2023-07-10,2023-07-04,有限会社米徳,00001688,有限会社,広島県,尾道市,久保１丁目１２番５号,,34,205,7220045,,,2023-07-04,清算の結了等,,,2015-10-05,1,,,,,ヨネトク,0
2101,7260002018462,登記記録の閉鎖等,0,2023-07-10,2023-07-04,有限会社佐藤テック,,有限会社,岡山県,倉敷市,串田９４５番地,,33,202,7100141,,,2023-07-04,清算の結了等,,,2015-10-05,1,,,,,サトウテック,0
2112,7320005005377,登記記録の閉鎖等,0,2023-07-10,2023-07-03,医療法人豊海歯科医院,,その他の設立登記法人,大分県,佐伯市,大手町３丁目８番１号,,44,205,8760831,,,2023-07-03,清算の結了等,,,2015-10-05,1,,,,,ホウカイシカイイン,0
2128,7380001025448,登記記録の閉鎖等,0,2023-07-10,2023-07-03,株式会社カイセイ,,株式会社,福島県,郡山市,喜久田町字菖蒲池１３番地の４,,07,203,9630551,,,2023-07-03,清算の結了等,,,2015-10-05,1,,,,,カイセイ,0
2129,7380003001777,登記記録の閉鎖等,0,2023-07-10,2023-06-30,合資会社千葉書店,,合資会社,福島県,大沼郡会津美里町,字高田甲２７８８番地,,07,447,9696264,,,2023-06-30,清算の結了等,,,2015-10-05,1,,,,,チバショテン,0
2136,7430001051249,登記記録の閉鎖等,0,2023-07-10,2023-07-03,株式会社ミオタ,,株式会社,北海道,小樽市,オタモイ３丁目１４番２号,,01,203,0482671,,,2023-07-03,清算の結了等,,,2015-10-05,1,,,,,ミオタ,0
2139,7430001062312,登記記録の閉鎖等,0,2023-07-10,2023-06-20,株式会社グラフィット,,株式会社,北海道,札幌市北区,篠路二条４丁目７番２２号,,01,102,0028022,,,2023-06-20,清算の結了等,,,2015-10-05,1,,,,,グラフィット,0
2142,7450002010607,登記記録の閉鎖等,0,2023-07-10,2023-06-30,有限会社丸越村上呉服店,,有限会社,北海道,枝幸郡枝幸町,歌登西町１２１番地,,01,514,0985206,,,2023-06-30,清算の結了等,,,2015-10-05,1,,,,,マルコシムラカミゴフクテン,0
2146,7480005002788,登記記録の閉鎖等,0,2023-07-10,2023-06-30,美郷村漁業協同組合,,その他の設立登記法人,徳島県,吉野川市,美郷字川俣７番地の１,,36,205,7793503,,,2023-06-30,清算の結了等,,,2015-10-05,1,,,,,ミサトソン,0
2153,7500002008067,登記記録の閉鎖等,0,2023-07-10,2023-07-06,有限会社永嵩測量設計,,有限会社,愛媛県,伊予市,上野１２１４番地６,,38,210,7993103,,,2023-07-06,清算の結了等,,,2015-10-05,1,,,,,エイコウソクリョウセッケイ,0
2172,8010003036314,登記記録の閉鎖等,0,2023-07-10,2023-07-03,合同会社ＳＬＣプロパティ,,合同会社,宮城県,仙台市若林区,六丁の目西町８－１斎喜センタービル２階,,04,103,9840011,,,2023-07-03,合併による解散等,5430003014148,令和５年６月１４日札幌市中央区南一条西八丁目１４番地３札幌第二スカイビル５階株式会社ＹＳＲ（5430003014148）に合併し解散,2021-11-24,1,,,,,,0
2186,8010403018705,登記記録の閉鎖等,0,2023-07-10,2023-06-26,ブルーレンディング柏合同会社,,合同会社,東京都,港区,虎ノ門３丁目２２番１０－２０１号,,13,103,1050001,,,2023-06-26,清算の結了等,,,2018-06-01,1,,,,,ブルーレンディングカシワ,0
2241,8012702000756,登記記録の閉鎖等,0,2023-07-10,2023-07-03,有限会社近藤牛乳店,,有限会社,東京都,小平市,学園西町１丁目２１番１５号,,13,211,1870045,,,2023-07-03,清算の結了等,,,2015-10-05,1,,,,,コンドウギュウニュウテン,0
2246,8020001064547,登記記録の閉鎖等,0,2023-07-10,2023-06-30,株式会社日昇電子,,株式会社,神奈川県,川崎市多摩区,宿河原４丁目２０番４号,,14,135,2140021,,,2023-06-30,清算の結了等,,,2015-10-05,1,,,,,ニッショウデンシ,0
2266,8021002067720,登記記録の閉鎖等,0,2023-07-10,2023-06-30,有限会社吉田安太郎商店,,有限会社,神奈川県,横須賀市,浦賀７丁目１２番１号,,14,201,2390822,,,2023-06-30,清算の結了等,,,2015-10-05,1,,,,,ヨシダヤスタロウショウテン,0
2280,8050002028630,登記記録の閉鎖等,0,2023-07-10,2023-06-30,有限会社平松工業,,有限会社,茨城県,潮来市,上戸１５９５番地,,08,223,3112435,,,2023-06-30,清算の結了等,,,2015-10-05,1,,,,,ヒラマツコウギョウ,0
2295,8110001005095,登記記録の閉鎖等,0,2023-07-10,2023-07-04,株式会社パパまるハウス,,株式会社,新潟県,新潟市中央区,湖南１番地２,,15,103,9501151,,,2023-07-04,合併による解散等,2030001032649,令和５年７月１日東京都千代田区丸の内一丁目８番３号丸の内トラストタワー本館株式会社ヒノキヤグループ（2030001032649）に合併し解散,2015-10-05,1,,,,,パパマルハウス,0
2301,8120001047302,登記記録の閉鎖等,0,2023-07-10,2023-07-03,株式会社ホクデン,,株式会社,大阪府,大阪市中央区,北久宝寺町４丁目３番５号,,27,128,5410057,,,2023-07-03,清算の結了等,,,2015-10-05,1,,,,,ホクデン,0
2318,8120002000128,登記記録の閉鎖等,0,2023-07-10,2023-06-30,有限会社エムエフジィ,,有限会社,兵庫県,神戸市東灘区,西岡本２丁目７番４号,,28,101,6580073,,,2023-06-30,清算の結了等,,,2015-10-05,1,,,,,エムエフジィ,0
2320,8120002069353,登記記録の閉鎖等,0,2023-07-10,2023-07-04,有限会社オールウェル,,有限会社,大阪府,大阪市東住吉区,桑津３丁目１４番７号,,27,121,5460041,,,2023-07-04,清算の結了等,,,2015-10-05,1,,,,,オールウェル,0
2333,8120901018162,登記記録の閉鎖等,0,2023-07-10,2023-07-03,株式会社カラークリエイト,,株式会社,大阪府,大阪市北区,中津６丁目７番２２号,,27,127,5310071,,,2023-07-03,合併による解散等,3120001112746,令和５年７月１日大阪市中央区平野町三丁目１番２号株式会社ノットコーポレーション（3120001112746）に合併し解散,2015-10-05,1,,,,,カラークリエイト,0
2334,8120901030134,登記記録の閉鎖等,0,2023-07-10,2023-07-04,株式会社製造部,,株式会社,大阪府,豊中市,新千里南町２丁目５番３号,,27,203,5600084,,,2023-07-04,清算の結了等,,,2015-10-05,1,,,,,セイゾウブ,0
2362,8140002058098,登記記録の閉鎖等,0,2023-07-10,2023-06-30,株式会社キューブイノベーション,,株式会社,兵庫県,西宮市,西宮浜３丁目２９番,,28,204,6620934,,,2023-06-30,合併による解散等,1140001070820,令和５年６月３０日兵庫県西宮市西宮浜三丁目２９番株式会社レックス（1140001070820）に合併し解散,2015-10-05,1,,,,,キューブイノベーション,0
2394,8240002034246,登記記録の閉鎖等,0,2023-07-10,2023-07-04,有限会社実沢組,,有限会社,広島県,呉市,広古新開３丁目２－１－２０１号,,34,202,7370112,,,2023-07-04,清算の結了等,,,2015-10-05,1,,,,,ミサワグミ,0
2406,8320001005470,登記記録の閉鎖等,0,2023-07-10,2023-07-03,株式会社空色,,株式会社,大分県,別府市,大字鶴見１９５１番地の９８,,44,202,8740840,,,2023-07-03,清算の結了等,,,2015-10-05,1,,,,,,0
2417,8370002009615,登記記録の閉鎖等,0,2023-07-10,2023-06-30,有限会社イズミ工業,,有限会社,宮城県,仙台市青葉区,荒巻中央９番１６号,,04,101,9810964,,,2023-06-30,清算の結了等,,,2015-10-05,1,,,,,イズミコウギョウ,0
2442,8430001030367,登記記録の閉鎖等,0,2023-07-10,2023-07-03,株式会社ヨコハマタイヤサービス北海道,,株式会社,北海道,札幌市白石区,平和通１７丁目南１番１３号,,01,104,0030028,,,2023-07-03,合併による解散等,3430001030306,令和５年７月１日札幌市白石区米里二条二丁目２番１号株式会社ヨコハマタイヤリテール北海道（3430001030306）に合併し解散,2015-10-05,1,,,,,ヨコハマタイヤサービスホッカイドウ,0
2443,8430001056668,登記記録の閉鎖等,0,2023-07-10,2023-06-26,株式会社黒田パン,,株式会社,北海道,室蘭市,母恋北町１丁目４番２０号,,01,205,0510004,,,2023-06-26,清算の結了等,,,2015-10-05,1,,,,,クロダパン,0
2463,8500002000931,登記記録の閉鎖等,0,2023-07-10,2023-07-05,有限会社石井メディカルサービス,,有限会社,愛媛県,松山市,東石井６丁目１番３７号,,38,201,7900932,,,2023-07-05,清算の結了等,,,2015-10-05,1,,,,,イシイメディカルサービス,0
2509,9010703006672,登記記録の閉鎖等,0,2023-07-10,2023-06-28,合同会社クラージュ,,合同会社,東京都,品川区,勝島１丁目３番７－８１７号,,13,109,1400012,,,2023-06-28,清算の結了等,,,2023-04-24,1,,,,,クラージュ,0
2538,9011802017932,登記記録の閉鎖等,0,2023-07-10,2023-07-05,有限会社ファミリープロ,,有限会社,東京都,足立区,辰沼２丁目１７番１３－４０４号,,13,121,1210054,,,2023-07-05,清算の結了等,,,2015-10-05,1,,,,,ファミリープロ,0
2548,9020001070998,登記記録の閉鎖等,0,2023-07-10,2023-06-29,昭電設備株式会社,,株式会社,神奈川県,川崎市幸区,塚越３丁目４７０番地３,,14,132,2120024,,,2023-06-29,清算の結了等,,,2015-10-05,1,,,,,ショウデンセツビ,0
2556,9020001098081,登記記録の閉鎖等,0,2023-07-10,2023-06-29,株式会社キュービック・ウィン,,株式会社,東京都,中央区,八丁堀４丁目１番３号,,13,102,1040032,,,2023-06-29,清算の結了等,,,2015-10-05,1,,,,,キュービックウィン,0
2566,9020002076409,登記記録の閉鎖等,0,2023-07-10,2023-06-22,有限会社エムズスペース,,有限会社,神奈川県,横浜市中区,宮川町３丁目７７番地さくらビル５０３,,14,104,2310065,,,2023-06-22,清算の結了等,,,2015-10-05,1,,,,,エムズスペース,0
2568,9021002042061,登記記録の閉鎖等,0,2023-07-10,2023-06-30,有限会社英工業所,,有限会社,神奈川県,大和市,下鶴間１９００番地の４２,,14,213,2420001,,,2023-06-30,清算の結了等,,,2015-10-05,1,,,,,ハナブサコウギョウショ,0
2582,9040001070435,登記記録の閉鎖等,0,2023-07-10,2023-06-22,青葉通商株式会社,,株式会社,千葉県,柏市,旭町５丁目１番２７号２階,,12,217,2770852,,,2023-06-22,清算の結了等,,,2015-10-05,1,,,,,アオバツウショウ,0
2583,9040001078593,登記記録の閉鎖等,0,2023-07-10,2023-06-22,株式会社寿々家コーポレーション,,株式会社,千葉県,千葉市緑区,誉田町１丁目３２６番地１,,12,105,2660005,,,2023-06-22,清算の結了等,,,2015-10-05,1,,,,,スズヤコーポレーション,0
2586,9040002004020,登記記録の閉鎖等,0,2023-07-10,2023-06-21,有限会社工栄ボーリング,,有限会社,千葉県,千葉市稲毛区,稲毛東６丁目１０番１棟８１１号,,12,103,2630031,,,2023-06-21,清算の結了等,,,2015-10-05,1,,,,,コウエイボーリング,0
2597,9080003001376,登記記録の閉鎖等,0,2023-07-10,2023-07-04,合資会社遊人,,合資会社,静岡県,牧之原市,地頭方９２５番地の２,,22,226,4210532,,,2023-07-04,清算の結了等,,,2015-10-05,1,,,,,ユウト,0
2599,9080102010641,登記記録の閉鎖等,0,2023-07-10,2023-07-03,有限会社スペースワン,,有限会社,静岡県,三島市,徳倉８０２番地の１,,22,206,4110044,,,2023-07-03,清算の結了等,,,2015-10-05,1,,,,,スペースワン,0
2601,9080403002759,登記記録の閉鎖等,0,2023-07-10,2023-07-03,合同会社Ｔ．Ｈ．Ｙ,,合同会社,静岡県,浜松市東区,天王町８３１番地,,22,132,4350052,,,2023-07-03,清算の結了等,,,2015-10-05,1,,,,,ティエイチワイ,0
2610,9100002018682,登記記録の閉鎖等,0,2023-07-10,2023-06-30,有限会社古酒屋,,有限会社,長野県,下高井郡山ノ内町,大字夜間瀬１３６３番地,,20,561,3810405,,,2023-06-30,清算の結了等,,,2015-10-05,1,,,,,フルザカヤ,0
2611,9100002018773,登記記録の閉鎖等,0,2023-07-10,2023-06-30,夜間瀬林産有限会社,,有限会社,長野県,下高井郡山ノ内町,大字夜間瀬１３６３番地,,20,561,3810405,,,2023-06-30,清算の結了等,,,2015-10-05,1,,,,,ヨマセリンサン,0
2622,9120001215147,登記記録の閉鎖等,0,2023-07-10,2023-06-29,ｅｐｒｉｎｔ　Ｊａｐａｎ株式会社,,株式会社,大阪府,大阪市中央区,瓦町１丁目４－６－７階Ｃ,,27,128,5410048,,,2023-06-29,清算の結了等,,,2018-08-06,1,,,,,イープリントジャパン,0
2631,9120101000606,登記記録の閉鎖等,0,2023-07-10,2023-07-06,株式会社クリーニングのアンデルセン,,株式会社,大阪府,堺市西区,浜寺昭和町２丁１６５番地,,27,144,5928345,,,2023-07-06,清算の結了等,,,2015-10-05,1,,,,,クリーニングノアンデルセン,0
2641,9120901039199,登記記録の閉鎖等,0,2023-07-10,2023-07-03,株式会社マイキカク,,株式会社,大阪府,豊中市,玉井町３丁目１番２９号,,27,203,5600026,,,2023-07-03,清算の結了等,,,2017-11-13,1,,,,,マイキカク,0
2673,9160001017647,登記記録の閉鎖等,0,2023-07-10,2023-07-03,株式会社コーセイテクニカル,,株式会社,滋賀県,甲賀市,甲南町希望ケ丘本町８丁目４２０番地６２,,25,209,5203332,,,2023-07-03,清算の結了等,,,2015-10-05,1,,,,,コーセイテクニカル,0
2677,9180001003637,登記記録の閉鎖等,0,2023-07-10,2023-07-03,大村商事株式会社,,株式会社,愛知県,名古屋市千種区,若水３丁目９番９号,,23,101,4640071,,,2023-07-03,合併による解散等,9180001042049,令和５年７月３日名古屋市中区栄三丁目２３番２４号株式会社ＷＡＫＯＷ（9180001042049）に合併し解散,2015-10-05,1,,,,,オオムラショウジ,0
2678,9180001011937,登記記録の閉鎖等,0,2023-07-10,2023-07-03,共栄株式会社,,株式会社,愛知県,名古屋市北区,平安２丁目２２番６号,,23,103,4620819,,,2023-07-03,清算の結了等,,,2015-10-05,1,,,,,キョウエイ,0
2689,9180002027296,登記記録の閉鎖等,0,2023-07-10,2023-07-03,有限会社大羽商店,,有限会社,愛知県,名古屋市中村区,上ノ宮町１丁目３番地,,23,105,4530043,,,2023-07-03,清算の結了等,,,2015-10-05,1,,,,,オオバショウテン,0
2690,9180002060578,登記記録の閉鎖等,0,2023-07-10,2023-07-03,有限会社パサージュ,,有限会社,愛知県,名古屋市名東区,一社２丁目６番地サニーヴェイル一社４０１号室,,23,115,4650093,,,2023-07-03,清算の結了等,,,2015-10-05,1,,,,,パサージュ,0
2691,9180002066757,登記記録の閉鎖等,0,2023-07-10,2023-07-03,有限会社東洋綜合管理,,有限会社,愛知県,春日井市,上田楽町２８０１番地,,23,206,4860801,,,2023-07-03,清算の結了等,,,2015-10-05,1,,,,,トウヨウソウゴウカンリ,0
2698,9180302021305,登記記録の閉鎖等,0,2023-07-10,2023-07-06,有限会社アライブ,,有限会社,愛知県,豊田市,東梅坪町６丁目４番地１,,23,211,4710071,,,2023-07-06,清算の結了等,,,2015-10-05,1,,,,,,0
2699,9190001016290,登記記録の閉鎖等,0,2023-07-10,2023-06-30,マル五食品株式会社,,株式会社,三重県,四日市市,河原田町字伊倉７１２番地,,24,202,5100874,,,2023-06-30,清算の結了等,,,2015-10-05,1,,,,,マルゴショクヒン,0
2700,9190001027387,登記記録の閉鎖等,0,2023-07-10,2023-06-29,株式会社おすし,,株式会社,三重県,松阪市,曽原町２６６番地１,,24,204,5152112,,,2023-06-29,清算の結了等,,,2020-05-25,1,,,,,オスシ,0
2722,9260005005159,登記記録の閉鎖等,0,2023-07-10,2023-07-03,医療法人社団國司会國司内科医院,,その他の設立登記法人,岡山県,井原市,西江原町１７９７番地の１,,33,207,7150006,,,2023-07-03,清算の結了等,,,2015-10-05,1,,,,,クニシカイクニシナイカイイン,0
2725,9290001058166,登記記録の閉鎖等,0,2023-07-10,2023-07-07,株式会社ＬＣＳエステート,,株式会社,福岡県,福岡市中央区,春吉２丁目４番１１号,,40,133,8100003,,,2023-07-07,合併による解散等,5350001002187,令和５年７月１日宮崎市橘通東三丁目８番２１号株式会社レジャークリエイトホールディングス（5350001002187）に合併し解散,2015-10-05,1,,,,,エルシーエスエステート,0
2750,9380001025677,登記記録の閉鎖等,0,2023-07-10,2023-07-04,株式会社ＳＮＭ,,株式会社,福島県,郡山市,緑町３番９号,,07,203,9638023,,,2023-07-04,清算の結了等,,,2015-10-05,1,,,,,エスエヌエム,0
2751,9390002009785,登記記録の閉鎖等,0,2023-07-10,2023-06-30,有限会社丸谷商店,,有限会社,山形県,鶴岡市,本町２丁目１５番２６号,,06,203,9970034,,,2023-06-30,清算の結了等,,,2015-10-05,1,,,,,マルヤショウテン,0
2772,9470002009380,登記記録の閉鎖等,0,2023-07-10,2023-06-30,川西自動車有限会社,,有限会社,香川県,高松市,香川町大野１４１８番地４,,37,201,7611701,,,2023-06-30,清算の結了等,,,2015-10-05,1,,,,,カワニシジドウシャ,0
