sequenceNumber,corporateNumber,process,correct,updateDate,changeDate,name,nameImageId,kind,prefectureName,cityName,streetNumber,addressImageId,prefectureCode,cityCode,postCode,addressOutside,addressOutsideImageId,closeDate,closeCause,successorCorporateNumber,changeCause,assignmentDate,latest,enName,enPrefectureName,enCityName,enAddressOutside,furigana,hihyoji
8,1010001187891,登記記録の閉鎖等,0,2021-10-04,2021-09-27,株式会社ｉ－ＡＵＴＯインフォメーション,,株式会社,東京都,中央区,新川１丁目３番２１号,,13,102,1040033,,,2021-09-27,清算の結了等,,,2017-11-27,1,,,,,アイオートインフォメーション,0
21,1010401139848,登記記録の閉鎖等,0,2021-10-04,2021-09-21,Ｔｒｉａｎｇｌｅ　Ｍ株式会社,,株式会社,東京都,港区,海岸１丁目７番１号,,13,103,1050022,,,2021-09-21,清算の結了等,,,2018-07-30,1,,,,,トライアングルエム,0
22,1010401144988,登記記録の閉鎖等,0,2021-10-04,2021-09-21,ｃｏｎｅｃｔ．ｐｌｕｓ株式会社,,株式会社,東京都,港区,海岸１丁目７番１号,,13,103,1050022,,,2021-09-21,清算の結了等,,,2019-04-12,1,,,,,コネクトプラス,0
52,1011103004472,登記記録の閉鎖等,0,2021-10-04,2021-09-28,株式会社オリーブガーデン,,株式会社,東京都,世田谷区,南烏山１丁目２５番１号,,13,112,1570062,,,2021-09-28,清算の結了等,,,2015-10-05,1,,,,,オリーブガーデン,0
55,1011301000281,登記記録の閉鎖等,0,2021-10-04,2021-09-27,浅野一郎建設株式会社,,株式会社,東京都,杉並区,今川４丁目２３番５号,,13,115,1670035,,,2021-09-27,清算の結了等,,,2015-10-05,1,,,,,アサノイチロウケンセツ,0
99,1040005014791,登記記録の閉鎖等,0,2021-10-04,2021-09-21,ＮＰＯ法人学区安全サポートクラブ,,その他の設立登記法人,千葉県,野田市,なみき３丁目６番地２,,12,208,2700229,,,2021-09-21,清算の結了等,,,2015-10-05,1,,,,,ガックアンゼンサポートクラブ,0
101,1050002007574,登記記録の閉鎖等,0,2021-10-04,2021-09-28,有限会社リカーショップハセガワ,,有限会社,茨城県,水戸市,中央１丁目３番３１号,,08,201,3100805,,,2021-09-28,清算の結了等,,,2015-10-05,1,,,,,リカーショップハセガワ,0
102,1050002023472,登記記録の閉鎖等,0,2021-10-04,2021-09-24,有限会社ライデックス,,有限会社,茨城県,つくば市,要元弥平太字本沢１３７－３,,08,220,3002622,,,2021-09-24,清算の結了等,,,2015-10-05,1,,,,,,0
115,1080002015236,登記記録の閉鎖等,0,2021-10-04,2021-09-30,有限会社広川工業所,,有限会社,静岡県,牧之原市,坂部３１９２番地の２,,22,226,4210412,,,2021-09-30,清算の結了等,,,2015-10-05,1,,,,,ヒロカワコウギョウショ,0
116,1080101016853,登記記録の閉鎖等,0,2021-10-04,2021-09-28,株式会社ＭＢＫ,,株式会社,静岡県,熱海市,和田町２番４号,,22,205,4130024,,,2021-09-28,清算の結了等,,,2015-10-05,1,,,,,エムビーケー,0
125,1090002010392,登記記録の閉鎖等,0,2021-10-04,2021-09-27,有限会社中野建設,,有限会社,山梨県,都留市,小野２１７番地の３,,19,204,4020024,,,2021-09-27,清算の結了等,,,2015-10-05,1,,,,,ナカノケンセツ,0
127,1100001030976,登記記録の閉鎖等,0,2021-10-04,2021-09-30,株式会社りんごの湯,,株式会社,長野県,長野市,豊野町石４１７番地,,20,201,3891106,,,2021-09-30,清算の結了等,,,2018-02-14,1,,,,,リンゴノユ,0
178,1140002012185,登記記録の閉鎖等,0,2021-10-04,2021-09-28,有限会社松井商店,,有限会社,兵庫県,神戸市兵庫区,笠松通７丁目２番１４号,,28,105,6520864,,,2021-09-28,清算の結了等,,,2015-10-05,1,,,,,マツイショウテン,0
190,1170002007331,登記記録の閉鎖等,0,2021-10-04,2021-10-01,有限会社高よしパークホテル,,有限会社,和歌山県,有田市,千田１４５７番地,,30,204,6490313,,,2021-10-01,清算の結了等,,,2015-10-05,1,,,,,,0
203,1180002012677,登記記録の閉鎖等,0,2021-10-04,2021-09-29,有限会社マルホ電工社,,有限会社,愛知県,名古屋市北区,水草町１丁目１１番地の６,,23,103,4620042,,,2021-09-29,清算の結了等,,,2015-10-05,1,,,,,,0
230,1240002036364,登記記録の閉鎖等,0,2021-10-04,2021-09-30,有限会社いわみ,,有限会社,広島県,廿日市市,下平良４７２－１０,,34,213,7380023,,,2021-09-30,清算の結了等,,,2015-10-05,1,,,,,イワミ,0
232,1240002037602,登記記録の閉鎖等,0,2021-10-04,2021-09-30,有限会社階川商店,,有限会社,広島県,大竹市,本町１丁目１番２４号,,34,211,7390613,,,2021-09-30,清算の結了等,,,2015-10-05,1,,,,,カイカワショウテン,0
249,1290001067216,登記記録の閉鎖等,0,2021-10-04,2021-09-16,株式会社ヘルス＆トータルライフ,,株式会社,福岡県,福岡市中央区,薬院１丁目５番１１号薬院ヒルズビル３Ａ,,40,133,8100022,,,2021-09-16,清算の結了等,,,2015-10-05,1,,,,,ヘルスアンドトータルライフ,0
253,1290002003533,登記記録の閉鎖等,0,2021-10-04,2021-09-10,有限会社フロンテイア,,有限会社,福岡県,福岡市南区,鶴田１丁目９番１号,,40,134,8111352,,,2021-09-10,清算の結了等,,,2015-10-05,1,,,,,フロンティア,0
259,1310002013364,登記記録の閉鎖等,0,2021-10-04,2021-09-30,有限会社廣澤工務店,,有限会社,長崎県,西海市,西海町太田和郷８０６番地,,42,212,8513505,,,2021-09-30,清算の結了等,,,2015-10-05,1,,,,,ヒロサワコウムテン,0
270,1340005006940,登記記録の閉鎖等,0,2021-10-04,2021-09-28,天理教紀九隅分教会,,その他の設立登記法人,鹿児島県,鹿屋市,札元１丁目３番２６号,,46,203,8930013,,,2021-09-28,合併による解散等,3190005003514,令和３年９月１７日三重県熊野市飛鳥町小阪６５１番地天理教飛鳥分教会（3190005003514）に合併し解散,2015-10-05,1,,,,,,0
277,1360005004174,登記記録の閉鎖等,0,2021-10-04,2021-09-28,医療法人清恵会,,その他の設立登記法人,沖縄県,南城市,大里字稲嶺１９９５番地,,47,215,9011204,,,2021-09-28,清算の結了等,,,2015-10-05,1,,,,,セイケイカイ,0
305,1430002054792,登記記録の閉鎖等,0,2021-10-04,2021-09-27,有限会社海石榴,,有限会社,北海道,小樽市,築港３番３号,,01,203,0470008,,,2021-09-27,清算の結了等,,,2015-10-05,1,,,,,ツバキ,0
314,1470001008523,登記記録の閉鎖等,0,2021-10-04,2021-09-28,株式会社岩井工務店,,株式会社,香川県,丸亀市,飯山町東坂元２４７０番地１パレス来夢来人Ｂ１０３号,,37,202,7620081,,,2021-09-28,清算の結了等,,,2015-10-05,1,,,,,イワイコウムテン,0
341,2010005025485,登記記録の閉鎖等,0,2021-10-04,2021-09-27,ＯＣ＆Ａｓｓｏｃｉａｔｅｓ税理士法人,,その他の設立登記法人,東京都,千代田区,紀尾井町３－１２紀尾井町ビル,,13,101,1020094,,,2021-09-27,清算の結了等,,,2016-06-24,1,OC & Associates Tax Co.,Tokyo,"Kioicho Building 17F 3-12 Kioicho, Chiyoda ku",,オーシーアンドアソシエイツ,0
342,2010005026087,登記記録の閉鎖等,0,2021-10-04,2021-09-28,一般社団法人ＫＳＤ２,,その他の設立登記法人,東京都,千代田区,内幸町２丁目１番６号,,13,101,1000011,,,2021-09-28,清算の結了等,,,2016-12-07,1,,,,,ケイエスディツー,0
412,2020002022798,登記記録の閉鎖等,0,2021-10-04,2021-09-29,有限会社ヨシダ印刷,,有限会社,神奈川県,横浜市旭区,左近山１２９６番地の４左近山団地５街区１４棟３０２号,,14,112,2410831,,,2021-09-29,清算の結了等,,,2015-10-05,1,,,,,ヨシダインサツ,0
416,2021001040774,登記記録の閉鎖等,0,2021-10-04,2021-09-29,株式会社道栄物産,,株式会社,神奈川県,横須賀市,長井１丁目１６番７号,,14,201,2380316,,,2021-09-29,清算の結了等,,,2015-10-05,1,,,,,ドウエイブッサン,0
451,2080001005377,登記記録の閉鎖等,0,2021-10-04,2021-09-30,株式会社やまき園,,株式会社,静岡県,静岡市葵区,宮ケ崎町９番地,,22,101,4200868,,,2021-09-30,清算の結了等,,,2015-10-05,1,,,,,ヤマキエン,0
465,2120001040650,登記記録の閉鎖等,0,2021-10-04,2021-09-27,株式会社日本の香本舗,,株式会社,大阪府,大阪市浪速区,敷津東３丁目３番２３号,,27,111,5560012,,,2021-09-27,清算の結了等,,,2015-10-05,1,,,,,ニホンノカオリホンポ,0
467,2120001122242,登記記録の閉鎖等,0,2021-10-04,2021-09-28,株式会社アリエ＆カンパニー,,株式会社,大阪府,大阪市淀川区,西宮原２丁目５番４６－５１８号,,27,123,5320004,,,2021-09-28,清算の結了等,,,2015-10-05,1,,,,,アリエアンドカンパニー,0
482,2120101032135,登記記録の閉鎖等,0,2021-10-04,2021-09-29,株式会社茂久商事,,株式会社,大阪府,羽曳野市,野々上３丁目６番３２号,,27,222,5830871,,,2021-09-29,清算の結了等,,,2015-10-05,1,,,,,シゲヒサショウジ,0
510,2180001069701,登記記録の閉鎖等,0,2021-10-04,2021-09-29,株式会社ＴＫプロテック,,株式会社,愛知県,豊明市,沓掛町八幡前７７番地４１,,23,229,4701101,,,2021-09-29,清算の結了等,,,2015-10-05,1,,,,,ティーケープロテック,0
515,2180001134554,登記記録の閉鎖等,0,2021-10-04,2021-09-30,株式会社Ｙ’ｓ　Ｆａｃｔｏｒｙ,,株式会社,愛知県,愛知郡東郷町,清水２丁目４番地１,,23,302,4700165,,,2021-09-30,清算の結了等,,,2018-12-12,1,,,,,ワイズファクトリー,0
517,2180002032617,登記記録の閉鎖等,0,2021-10-04,2021-09-30,有限会社ふきゅうしゃ,,有限会社,愛知県,名古屋市中区,栄５丁目７番１４号,,23,106,4600008,,,2021-09-30,清算の結了等,,,2015-10-05,1,,,,,フキュウシャ,0
519,2180003008797,登記記録の閉鎖等,0,2021-10-04,2021-09-30,合資会社イナータス・コア・コスギ,,合資会社,愛知県,名古屋市名東区,天神下１４７番地,,23,115,4650009,,,2021-09-30,清算の結了等,,,2015-10-05,1,,,,,イナータスコアコスギ,0
520,2180003014382,登記記録の閉鎖等,0,2021-10-04,2021-09-29,合同会社岩松海苔店,,合同会社,愛知県,名古屋市東区,泉３丁目１７番９号服部ビル１階,,23,102,4610001,,,2021-09-29,清算の結了等,,,2015-10-05,1,,,,,イワマツノリテン,0
523,2180005009447,登記記録の閉鎖等,0,2021-10-04,2021-09-24,特定非営利活動法人わたぼうし,,その他の設立登記法人,愛知県,丹羽郡大口町,大御堂１丁目２０６番地,,23,361,4800138,,,2021-09-24,清算の結了等,,,2015-10-05,1,,,,,ワタボウシ,0
540,2240001011912,登記記録の閉鎖等,0,2021-10-04,2021-09-30,興永興産株式会社,,株式会社,広島県,広島市南区,出島１丁目３４番６１号,,34,103,7340013,,,2021-09-30,合併による解散等,1240001003167,令和３年９月３０日広島市南区出島一丁目３４番６１号興永鋼材株式会社（1240001003167）に合併し解散,2015-10-05,1,,,,,コウエイコウサン,0
546,2240001058466,登記記録の閉鎖等,0,2021-10-04,2021-10-01,共栄キャピタル株式会社,,株式会社,広島県,広島市西区,南観音４丁目１０番２２号,,34,104,7330035,,,2021-10-01,合併による解散等,5240001022477,令和３年１０月１日広島市西区南観音四丁目１１番３号共栄興産株式会社（5240001022477）に合併し解散,2021-08-20,1,,,,,キョウエイキャピタル,0
563,2290001037432,登記記録の閉鎖等,0,2021-10-04,2021-09-14,株式会社フクザキ設備,,株式会社,福岡県,古賀市,谷山９２４番地１５,,40,223,8113125,,,2021-09-14,清算の結了等,,,2015-10-05,1,,,,,フクザキセツビ,0
575,2290802014027,登記記録の閉鎖等,0,2021-10-04,2021-09-27,有限会社高口商会,,有限会社,福岡県,北九州市八幡西区,浅川日の峯１丁目７番１１号,,40,109,8070876,,,2021-09-27,清算の結了等,,,2015-10-05,1,,,,,タカグチショウカイ,0
582,2310002016944,登記記録の閉鎖等,0,2021-10-04,2021-09-30,有限会社アスカ,,有限会社,長崎県,大村市,諏訪２丁目５９７番地１１,,42,205,8560024,,,2021-09-30,清算の結了等,,,2015-10-05,1,,,,,アスカ,0
603,2410002002026,登記記録の閉鎖等,0,2021-10-04,2021-09-30,有限会社松栄工業,,有限会社,秋田県,秋田市,外旭川八柳２丁目６番１号,,05,201,0100803,,,2021-09-30,清算の結了等,,,2015-10-05,1,,,,,ショウエイコウギョウ,0
604,2420001005037,登記記録の閉鎖等,0,2021-10-04,2021-09-28,株式会社フォー・テクノ,,株式会社,青森県,青森市,金沢４丁目１６番３６号,,02,201,0300853,,,2021-09-28,清算の結了等,,,2015-10-05,1,,,,,フォーテクノ,0
628,3010001202194,登記記録の閉鎖等,0,2021-10-04,2021-10-01,株式会社共立フーズビジネス,,株式会社,東京都,文京区,湯島３丁目２－１２御茶ノ水天神ビル２階,,13,105,1130034,,,2021-10-01,合併による解散等,1010001014419,令和３年１０月１日東京都文京区湯島３－２－１２御茶ノ水天神ビル２階株式会社共立フーズサービス（1010001014419）に合併し解散,2019-07-04,1,,,,,キョウリツフーズビジネス,0
631,3010401044311,登記記録の閉鎖等,0,2021-10-04,2021-09-21,株式会社アルティナ,,株式会社,東京都,港区,麻布十番３丁目９番７号,,13,103,1060045,,,2021-09-21,清算の結了等,,,2015-10-05,1,,,,,アルティナ,0
633,3010401084885,登記記録の閉鎖等,0,2021-10-04,2021-10-01,セージ・オートモーティブ・インテリア株式会社,,株式会社,東京都,品川区,西五反田８丁目１番１４号,,13,109,1410031,,,2021-10-01,合併による解散等,3010401151058,令和３年１０月１日東京都品川区西五反田八丁目１番１４号セージ・寿屋・オートモーティブ・インテリア株式会社（3010401151058）に合併し解散,2015-10-05,1,,,,,セージオートモーティブインテリア,0
645,3010405014797,登記記録の閉鎖等,0,2021-10-04,2021-09-21,一般社団法人Ｋｏａｊｉｒｏ,,その他の設立登記法人,東京都,港区,虎ノ門５丁目１番４号,,13,103,1050001,,,2021-09-21,清算の結了等,,,2016-05-11,1,,,,,コアジロー,0
654,3010901037665,登記記録の閉鎖等,0,2021-10-04,2021-09-28,株式会社柳川商事,,株式会社,東京都,豊島区,駒込１丁目１４番７号,,13,116,1700003,,,2021-09-28,清算の結了等,,,2016-02-26,1,,,,,ヤナガワショウジ,0
687,3012801001635,登記記録の閉鎖等,0,2021-10-04,2021-09-17,株式会社名曲堂,,株式会社,東京都,立川市,栄町２丁目３番地の７,,13,202,1900003,,,2021-09-17,清算の結了等,,,2015-10-05,1,,,,,メイキョクドウ,0
694,3020001104662,登記記録の閉鎖等,0,2021-10-04,2021-09-14,株式会社エムズジャパン,,株式会社,神奈川県,横浜市泉区,和泉町６６１６番地３,,14,116,2450016,,,2021-09-14,合併による解散等,9020002069817,令和３年９月１日横浜市泉区上飯田町２５０番地の４株式会社原岡設備工業（9020002069817）に合併し解散,2015-10-05,1,,,,,エムズジャパン,0
712,3021001032382,登記記録の閉鎖等,0,2021-10-04,2021-09-29,株式会社エムエーシー・システム,,株式会社,神奈川県,小田原市,千代１７８番地の３,,14,206,2500215,,,2021-09-29,清算の結了等,,,2015-10-05,1,,,,,エムエーシーシステム,0
748,3080001003875,登記記録の閉鎖等,0,2021-10-04,2021-10-01,株式会社中日本コンサルタント,,株式会社,静岡県,静岡市駿河区,下川原１丁目８番１８号,,22,102,4210113,,,2021-10-01,合併による解散等,4080001002133,令和３年１０月１日静岡市葵区若松町４１番地の１昭和設計株式会社（4080001002133）に合併し解散,2015-10-05,1,,,,,ナカニホンコンサルタント,0
756,3080402017813,登記記録の閉鎖等,0,2021-10-04,2021-09-30,有限会社アースライフ,,有限会社,静岡県,掛川市,上西郷１６０４番地の２,,22,213,4360342,,,2021-09-30,清算の結了等,,,2015-10-05,1,,,,,アースライフ,0
766,3110005005591,登記記録の閉鎖等,0,2021-10-04,2021-09-28,日通新潟関連事業協同組合,,その他の設立登記法人,新潟県,三条市,猪子場新田１０７２番地,,15,204,9591151,,,2021-09-28,清算の結了等,,,2015-10-05,1,,,,,ニッツウニイガタカンレン,0
770,3120001052843,登記記録の閉鎖等,0,2021-10-04,2021-09-27,プログレス株式会社,,株式会社,大阪府,大阪市東淀川区,菅原６丁目１５番２３号,,27,114,5330022,,,2021-09-27,清算の結了等,,,2015-10-05,1,,,,,プログレス,0
772,3120001229879,登記記録の閉鎖等,0,2021-10-04,2021-09-28,株式会社イグゼ,,株式会社,大阪府,大阪市北区,堂山町１６番１－６０１号,,27,127,5300027,,,2021-09-28,清算の結了等,,,2020-06-23,1,,,,,イグゼ,0
795,3122002013469,登記記録の閉鎖等,0,2021-10-04,2021-10-01,有限会社苅屋紙工,,有限会社,大阪府,八尾市,神武町１番１５号,,27,212,5810067,,,2021-10-01,清算の結了等,,,2015-10-05,1,,,,,カリヤシコウ,0
797,3130001005024,登記記録の閉鎖等,0,2021-10-04,2021-09-29,株式会社ダイセンコーポレーション,,株式会社,京都府,京都市中京区,西ノ京御輿岡町２番地６,,26,104,6048451,,,2021-09-29,清算の結了等,,,2015-10-05,1,,,,,ダイセンコーポレーション,0
830,3150002009402,登記記録の閉鎖等,0,2021-10-04,2021-09-27,有限会社真美一,,有限会社,奈良県,香芝市,五位堂３丁目４５５番地,,29,210,6390226,,,2021-09-27,清算の結了等,,,2015-10-05,1,,,,,マミイチ,0
841,3180001012081,登記記録の閉鎖等,0,2021-10-04,2021-09-27,弘洋転写株式会社,,株式会社,愛知県,名古屋市北区,長田町４丁目７２番地,,23,103,4620834,,,2021-09-27,清算の結了等,,,2015-10-05,1,,,,,コウヨウテンシャ,0
844,3180001031180,登記記録の閉鎖等,0,2021-10-04,2021-09-29,株式会社高橋直次郎商店,,株式会社,愛知県,名古屋市西区,名駅３丁目７番１６号,,23,104,4510045,,,2021-09-29,清算の結了等,,,2015-10-05,1,,,,,タカハシナオジロウショウテン,0
845,3180001032443,登記記録の閉鎖等,0,2021-10-04,2021-09-28,株式会社フォルムデザイン,,株式会社,愛知県,瀬戸市,山手町２７１番地１,,23,204,4890989,,,2021-09-28,清算の結了等,,,2015-10-05,1,,,,,フォルムデザイン,0
848,3180001090739,登記記録の閉鎖等,0,2021-10-04,2021-09-30,ＨＹエンタープライズ株式会社,,株式会社,愛知県,名古屋市東区,筒井２丁目１２番４３号メゾン・ド・マルキーズ３１１号,,23,102,4610003,,,2021-09-30,清算の結了等,,,2015-10-05,1,,,,,エイチワイエンタープライズ,0
850,3180001126237,登記記録の閉鎖等,0,2021-10-04,2021-09-28,株式会社Ａｆｅｓｉａ,,株式会社,東京都,豊島区,東池袋３丁目１１－９三島ビル３階,,13,116,1700013,,,2021-09-28,清算の結了等,,,2017-01-18,1,,,,,,0
858,3180005002509,登記記録の閉鎖等,0,2021-10-04,2021-09-30,医療法人重和会名駅内科,,その他の設立登記法人,愛知県,名古屋市中村区,名駅１丁目１番４号ＪＲセントラルタワーズ１９階,,23,105,4500002,,,2021-09-30,清算の結了等,,,2015-10-05,1,,,,,,0
862,3180301015957,登記記録の閉鎖等,0,2021-10-04,2021-09-30,新川キネマ株式会社,,株式会社,愛知県,碧南市,千福町３丁目９６番地,,23,209,4470056,,,2021-09-30,清算の結了等,,,2015-10-05,1,,,,,シンカワキネマ,0
864,3180301032564,登記記録の閉鎖等,0,2021-10-04,2021-10-01,株式会社ないつ,,株式会社,愛知県,安城市,住吉町３丁目１番地１６,,23,212,4460072,,,2021-10-01,清算の結了等,,,2019-05-10,1,,,,,ナイツ,0
870,3190002007071,登記記録の閉鎖等,0,2021-10-04,2021-09-29,株式会社ＭＴＣ,,株式会社,大阪府,大阪市中央区,道修町１丁目６番７号北浜ＭＩＤビル９階,,27,128,5410045,,,2021-09-29,清算の結了等,,,2015-10-05,1,,,,,,0
880,3200003004421,登記記録の閉鎖等,0,2021-10-04,2021-10-01,西濃設備メンテナンス合同会社,,合同会社,岐阜県,瑞穂市,只越１２１１番地２,,21,216,5010221,,,2021-10-01,清算の結了等,,,2019-03-05,1,,,,,セイノウセツビメンテナンス,0
886,3240001028154,登記記録の閉鎖等,0,2021-10-04,2021-09-30,株式会社森貞ボーリング工業,,株式会社,広島県,廿日市市,宮内３２３番地,,34,213,7380034,,,2021-09-30,清算の結了等,,,2015-10-05,1,,,,,モリサダボーリングコウギョウ,0
895,3250001015333,登記記録の閉鎖等,0,2021-10-04,2021-10-01,株式会社えんどらん,,株式会社,山口県,宇部市,大字東須恵１１２８番地２,,35,202,7590206,,,2021-10-01,清算の結了等,,,2015-10-05,1,,,,,エンドラン,0
907,3290001056349,登記記録の閉鎖等,0,2021-10-04,2021-09-13,株式会社大樹,,株式会社,福岡県,宗像市,天平台１８番地９,,40,220,8113407,,,2021-09-13,清算の結了等,,,2015-10-05,1,,,,,ダイキ,0
921,3300002005625,登記記録の閉鎖等,0,2021-10-04,2021-09-29,有限会社芝居小屋鵜池,,有限会社,佐賀県,佐賀市,諸富町大字大堂１９４７番地２,,41,201,8402101,,,2021-09-29,清算の結了等,,,2015-10-05,1,,,,,シバイゴヤウイケ,0
935,3360001009753,登記記録の閉鎖等,0,2021-10-04,2021-08-11,株式会社ドリーム・アーツ沖縄,,株式会社,沖縄県,那覇市,前島３丁目２５番１号,,47,201,9000016,,,2021-08-11,合併による解散等,9011001040835,令和３年７月１日東京都渋谷区恵比寿四丁目２０番３号株式会社ドリーム・アーツ（9011001040835）に合併し解散,2015-10-05,1,,,,,ドリームアーツオキナワ,0
936,3360002020461,登記記録の閉鎖等,0,2021-10-04,2021-09-27,有限会社仲間土建,,有限会社,沖縄県,国頭郡宜野座村,字漢那１６２７番地,,47,313,9041304,,,2021-09-27,清算の結了等,,,2015-10-05,1,,,,,ナカマドケン,0
949,3400502000322,登記記録の閉鎖等,0,2021-10-04,2021-09-30,有限会社ササキベンド,,有限会社,岩手県,一関市,滝沢字駒場１４９番地２１,,03,209,0290132,,,2021-09-30,清算の結了等,,,2015-10-05,1,,,,,ササキベンド,0
950,3420001010812,登記記録の閉鎖等,0,2021-10-04,2021-09-29,株式会社ファラオ,,株式会社,青森県,弘前市,大字田茂木町８６番地２,,02,202,0368055,,,2021-09-29,清算の結了等,,,2015-10-05,1,,,,,ファラオ,0
953,3430001017039,登記記録の閉鎖等,0,2021-10-04,2021-09-27,株式会社森池商店,,株式会社,北海道,札幌市中央区,南十一条西１３丁目２番２３－３０２号,,01,101,0640811,,,2021-09-27,清算の結了等,,,2015-10-05,1,,,,,モリイケショウテン,0
969,3480001007679,登記記録の閉鎖等,0,2021-10-04,2021-09-27,株式会社油屋甚七,,株式会社,徳島県,美馬市,穴吹町穴吹字市ノ下１００番地６,,36,207,7770005,,,2021-09-27,清算の結了等,,,2015-10-05,1,,,,,アブラヤジンシチ,0
989,4010002031765,登記記録の閉鎖等,0,2021-10-04,2021-09-24,有限会社エムエスアイ,,有限会社,東京都,中央区,八丁堀３丁目２０番５号,,13,102,1040032,,,2021-09-24,清算の結了等,,,2015-10-05,1,,,,,エムエスアイ,0
993,4010401115111,登記記録の閉鎖等,0,2021-10-04,2021-09-29,ＪＡＰＡＮ　ＣＡＰＩＴＡＬ株式会社,,株式会社,東京都,千代田区,神田小川町３丁目１１番地２,,13,101,1010052,,,2021-09-29,清算の結了等,,,2015-10-05,1,,,,,ジャパンキャピタル,0
1030,4011303000112,登記記録の閉鎖等,0,2021-10-04,2021-09-15,合資会社寿司富,,合資会社,東京都,杉並区,阿佐谷北２丁目２１番３号,,13,115,1660001,,,2021-09-15,清算の結了等,,,2015-10-05,1,,,,,スシトミ,0
1041,4012402012519,登記記録の閉鎖等,0,2021-10-04,2021-09-24,有限会社マエストリア,,有限会社,東京都,調布市,入間町１丁目３７番４６号,,13,208,1820004,,,2021-09-24,清算の結了等,,,2015-10-05,1,,,,,マエストリア,0
1092,4080001012388,登記記録の閉鎖等,0,2021-10-04,2021-09-30,株式会社エムケイプランニング,,株式会社,静岡県,静岡市駿河区,曲金６丁目４番１６－１２０１号,,22,102,4228006,,,2021-09-30,清算の結了等,,,2015-10-05,1,,,,,,0
1102,4100002005883,登記記録の閉鎖等,0,2021-10-04,2021-09-29,有限会社ナンバボーリング,,有限会社,長野県,上水内郡飯綱町,大字豊野１８４７番地,,20,590,3891212,,,2021-09-29,清算の結了等,,,2015-10-05,1,,,,,ナンバボーリング,0
1109,4120001068211,登記記録の閉鎖等,0,2021-10-04,2021-09-29,中川印刷株式会社,,株式会社,大阪府,大阪市北区,鶴野町３番１７号,,27,127,5300014,,,2021-09-29,清算の結了等,,,2015-10-05,1,,,,,,0
1122,4120101047924,登記記録の閉鎖等,0,2021-10-04,2021-09-29,株式会社アイリス,,株式会社,大阪府,泉佐野市,上瓦屋５８１番１,,27,213,5980001,,,2021-09-29,清算の結了等,,,2015-10-05,1,,,,,アイリス,0
1168,4180002063255,登記記録の閉鎖等,0,2021-10-04,2021-09-28,有限会社荒木産業,,有限会社,愛知県,長久手市,井堀３１９番地,,23,238,4801143,,,2021-09-28,清算の結了等,,,2015-10-05,1,,,,,アラキサンギョウ,0
1183,4200003005047,登記記録の閉鎖等,0,2021-10-04,2021-09-27,合同会社Ｌｉ－ａｃｔ,,合同会社,岐阜県,可児市,広見４丁目４０番地ライオンズマンション１０２号,,21,214,5090214,,,2021-09-27,清算の結了等,,,2021-01-04,1,,,,,リアクト,0
1188,4240001012355,登記記録の閉鎖等,0,2021-10-04,2021-09-30,ワールドクリエイト株式会社,,株式会社,広島県,広島市南区,東雲１丁目６番１１号,,34,103,7340022,,,2021-09-30,清算の結了等,,,2015-10-05,1,,,,,ワールドクリエイト,0
1211,4290001090438,登記記録の閉鎖等,0,2021-10-04,2021-09-16,株式会社ＢＭＳＧ,,株式会社,福岡県,福岡市博多区,東那珂２丁目６番３０号,,40,132,8120892,,,2021-09-16,清算の結了等,,,2020-10-12,1,,,,,ビーエムエスジー,0
1227,4320002002446,登記記録の閉鎖等,0,2021-10-04,2021-09-30,有限会社栗林木工,,有限会社,大分県,大分市,青崎２丁目４番４８号,,44,201,8700278,,,2021-09-30,清算の結了等,,,2015-10-05,1,,,,,クリバヤシモッコウ,0
1237,4350002011238,登記記録の閉鎖等,0,2021-10-04,2021-09-28,有限会社南九州機械製作所,,有限会社,宮崎県,東臼杵郡門川町,大字加草５６６番地５,,45,421,8890603,,,2021-09-28,清算の結了等,,,2015-10-05,1,,,,,ミナミキュウシュウキカイセイサクショ,0
1247,4390001014997,登記記録の閉鎖等,0,2021-10-04,2021-09-28,Ｊ・ファクトリー株式会社,,株式会社,山形県,東村山郡中山町,大字長崎字中原１０４０－１,,06,302,9900401,,,2021-09-28,清算の結了等,,,2017-07-18,1,,,,,ジェイファクトリー,0
1254,4420002008441,登記記録の閉鎖等,0,2021-10-04,2021-09-27,有限会社バイタル温泉柏崎,,有限会社,青森県,八戸市,柏崎６丁目５番１３号,,02,203,0310081,,,2021-09-27,清算の結了等,,,2015-10-05,1,,,,,バイタルオンセンカシワザキ,0
1265,4450001009009,登記記録の閉鎖等,0,2021-10-04,2021-09-30,丸菱石油株式会社,,株式会社,北海道,留萌市,旭町３丁目２番３２号,,01,212,0770043,,,2021-09-30,清算の結了等,,,2015-10-05,1,,,,,マルビシセキユ,0
1269,4470001010303,登記記録の閉鎖等,0,2021-10-04,2021-09-30,磯崎食品株式会社,,株式会社,香川県,三豊市,豊中町笠田竹田９２２番地の１,,37,208,7691503,,,2021-09-30,清算の結了等,,,2015-10-05,1,,,,,イソザキショクヒン,0
1271,4470002012224,登記記録の閉鎖等,0,2021-10-04,2021-09-30,有限会社豊輝工業所,,有限会社,香川県,丸亀市,郡家町４０６番地７,,37,202,7630093,,,2021-09-30,清算の結了等,,,2015-10-05,1,,,,,ホウキコウギョウショ,0
1292,5010005024377,登記記録の閉鎖等,0,2021-10-04,2021-09-29,一般社団法人ラッピング教育振興協会,,その他の設立登記法人,東京都,中央区,日本橋浜町２丁目３３番２号,,13,102,1030007,,,2021-09-29,清算の結了等,,,2015-10-05,1,,,,,ラッピングキョウイクシンコウキョウカイ,0
1301,5010501032651,登記記録の閉鎖等,0,2021-10-04,2021-09-24,株式会社イーディーオー,,株式会社,東京都,台東区,上野１丁目１０番９号,,13,106,1100005,,,2021-09-24,清算の結了等,,,2015-10-05,1,,,,,イーディーオー,0
1305,5010601036445,登記記録の閉鎖等,0,2021-10-04,2021-09-27,株式会社本多建設,,株式会社,東京都,江戸川区,東小岩６丁目２８番５号,,13,123,1330052,,,2021-09-27,清算の結了等,,,2015-10-05,1,,,,,ホンダケンセツ,0
1316,5010902017359,登記記録の閉鎖等,0,2021-10-04,2021-09-28,有限会社ケイ・ワイインターナショナル,,有限会社,東京都,世田谷区,代沢４丁目２１番６号,,13,112,1550032,,,2021-09-28,清算の結了等,,,2015-10-05,1,,,,,ケイワイインターナショナル,0
1359,5013301031022,登記記録の閉鎖等,0,2021-10-04,2021-09-28,株式会社トレコミュ,,株式会社,東京都,豊島区,南池袋１丁目１１番１９－２０８号,,13,116,1710022,,,2021-09-28,清算の結了等,,,2015-10-05,1,,,,,トレコミュ,0
1366,5020001059293,登記記録の閉鎖等,0,2021-10-04,2021-10-01,株式会社リレーション,,株式会社,東京都,渋谷区,道玄坂１丁目１５番３号,,13,113,1500043,,,2021-10-01,清算の結了等,,,2015-10-05,1,,,,,リレーション,0
1382,5030001083739,登記記録の閉鎖等,0,2021-10-04,2021-09-21,株式会社イデア関東,,株式会社,埼玉県,川口市,中青木５丁目１３番３－３１０号,,11,203,3320032,,,2021-09-21,清算の結了等,,,2015-10-05,1,,,,,イデアカントウ,0
1384,5030002005213,登記記録の閉鎖等,0,2021-10-04,2021-09-21,有限会社ゴトウ薬局,,有限会社,埼玉県,さいたま市大宮区,桜木町４丁目７４１番地,,11,103,3300854,,,2021-09-21,清算の結了等,,,2015-10-05,1,,,,,ゴトウヤッキョク,0
1411,5080101015141,登記記録の閉鎖等,0,2021-10-04,2021-09-27,株式会社大信,,株式会社,静岡県,富士市,本町９番１７号岩山ビル１Ｆ,,22,210,4160914,,,2021-09-27,清算の結了等,,,2015-10-05,1,,,,,ダイシン,0
1420,5100002025740,登記記録の閉鎖等,0,2021-10-04,2021-09-30,有限会社Ｐｒｏｓｐｅｃｔ　Ｃｏｍｐａｎｙ,,有限会社,長野県,松本市,中央３丁目２番５号６０２号,,20,202,3900811,,,2021-09-30,清算の結了等,,,2015-10-05,1,,,,,プロスペクトカンパニー,0
1422,5110001001799,登記記録の閉鎖等,0,2021-10-04,2021-09-28,株式会社クワバラ,,株式会社,新潟県,新潟市中央区,出来島１丁目１番１９号,,15,103,9500962,,,2021-09-28,合併による解散等,6010501000962,令和３年９月２１日東京都台東区台東二丁目２３番７号ヘンリーシャインジャパンイースト株式会社（6010501000962）に合併し解散,2015-10-05,1,,,,,クワバラ,0
1449,5122001008823,登記記録の閉鎖等,0,2021-10-04,2021-09-30,株式会社酒匂鉄工所,,株式会社,大阪府,四條畷市,清滝中町１３番４４号,,27,229,5750061,,,2021-09-30,清算の結了等,,,2015-10-05,1,,,,,サコウテッコウショ,0
1456,5130001040218,登記記録の閉鎖等,0,2021-10-04,2021-09-29,株式会社クリエイトアップ,,株式会社,京都府,亀岡市,東つつじケ丘曙台４丁目２０番６号,,26,206,6210833,,,2021-09-29,清算の結了等,,,2015-10-05,1,,,,,クリエイトアップ,0
1467,5130005005340,登記記録の閉鎖等,0,2021-10-04,2021-09-30,特定非営利活動法人ＮＰＯ京都の文化を映像で記録する会,,その他の設立登記法人,京都府,京都市右京区,太秦多藪町４３番地,,26,108,6168167,,,2021-09-30,清算の結了等,,,2015-10-05,1,,,,,エヌピーオーキョウトノブンカヲエイゾウデキロクスルカイ,0
1469,5140001027908,登記記録の閉鎖等,0,2021-10-04,2021-10-01,株式会社大商観光,,株式会社,兵庫県,神戸市中央区,栄町通３丁目６番７号大栄ビル,,28,110,6500023,,,2021-10-01,清算の結了等,,,2015-10-05,1,,,,,ダイショウカンコウ,0
1470,5140001061386,登記記録の閉鎖等,0,2021-10-04,2021-09-28,株式会社藤徳食品,,株式会社,兵庫県,姫路市,駅前町２１０番地,,28,201,6700927,,,2021-09-28,清算の結了等,,,2015-10-05,1,,,,,,0
1501,5190001019677,登記記録の閉鎖等,0,2021-10-04,2021-09-30,株式会社雄誠,,株式会社,三重県,北牟婁郡紀北町,長島２０２０番地７１,,24,543,5193205,,,2021-09-30,清算の結了等,,,2015-10-05,1,,,,,ユウセイ,0
1503,5200001017753,登記記録の閉鎖等,0,2021-10-04,2021-09-30,丸金機械工業株式会社,,株式会社,岐阜県,可児市,皐ケ丘７丁目５４番地,,21,214,5090236,,,2021-09-30,清算の結了等,,,2015-10-05,1,,,,,マルカネキカイコウギョウ,0
1519,5240002044883,登記記録の閉鎖等,0,2021-10-04,2021-09-30,有限会社エル・シード,,有限会社,広島県,福山市,加茂町下加茂１２０番地,,34,207,7210000,,,2021-09-30,清算の結了等,,,2015-10-05,1,,,,,エルシード,0
1531,5290001053063,登記記録の閉鎖等,0,2021-10-04,2021-09-16,天満撚糸株式会社,,株式会社,福岡県,三潴郡大木町,大字筏溝７３０番地の２,,40,522,8300425,,,2021-09-16,清算の結了等,,,2015-10-05,1,,,,,テンマンネンシ,0
1550,5330003002922,登記記録の閉鎖等,0,2021-10-04,2021-09-29,諏訪醤油合資会社,00098171,合資会社,熊本県,宇土市,新町３丁目４６番地,,43,211,8690444,,,2021-09-29,清算の結了等,,,2015-10-05,1,,,,,スワショウユ,0
1569,5430001016261,登記記録の閉鎖等,0,2021-10-04,2021-10-01,株式会社松和,,株式会社,北海道,札幌市中央区,大通西６丁目１０番地,,01,101,0600042,,,2021-10-01,合併による解散等,6430001020436,令和３年１０月１日札幌市中央区大通西六丁目１０番地株式会社サツヤ（6430001020436）に合併し解散,2015-10-05,1,,,,,シヨウワ,0
1610,6010405010934,登記記録の閉鎖等,0,2021-10-04,2021-08-25,特定非営利活動法人スポーツ教育支援協会,,その他の設立登記法人,東京都,港区,港南２丁目１２番２８－４０２号,,13,103,1080075,,,2021-08-25,清算の結了等,,,2015-10-05,1,,,,,スポーツキョウイクシエンキョウカイ,0
1622,6010801013466,登記記録の閉鎖等,0,2021-10-04,2021-09-27,株式会社イマウラ企画,,株式会社,東京都,大田区,大森中１丁目７番１９号大森パールメゾン３０２,,13,111,1430014,,,2021-09-27,清算の結了等,,,2015-10-05,1,,,,,イマウラキカク,0
1632,6011001138203,登記記録の閉鎖等,0,2021-10-04,2021-09-13,株式会社Ｂｅａｕｔｙ　Ｌａｂ　Ｊａｐａｎ,,株式会社,東京都,渋谷区,代々木１丁目３２番１２号,,13,113,1510053,,,2021-09-13,清算の結了等,,,2021-01-29,1,,,,,ビューティーラボジャパン,0
1642,6011302004343,登記記録の閉鎖等,0,2021-10-04,2021-09-28,有限会社新栄サービス,,有限会社,東京都,杉並区,阿佐谷北６丁目２２番１４号,,13,115,1660001,,,2021-09-28,清算の結了等,,,2015-10-05,1,,,,,シンエイサービス,0
1666,6020001132231,登記記録の閉鎖等,0,2021-10-04,2021-09-29,システムウイ株式会社,,株式会社,神奈川県,横浜市青葉区,榎が丘８番地３コスモ青葉台イーストヒルズ３０７号,,14,117,2270063,,,2021-09-29,清算の結了等,,,2019-08-05,1,,,,,システムウイ,0
1668,6020002076048,登記記録の閉鎖等,0,2021-10-04,2021-09-30,有限会社横浜ＡＰＩＳ,,有限会社,神奈川県,横浜市青葉区,鴨志田町８１３番地１２,,14,117,2270033,,,2021-09-30,清算の結了等,,,2015-10-05,1,,,,,ヨコハマアピス,0
1671,6020005012495,登記記録の閉鎖等,0,2021-10-04,2021-09-29,超電導センシング技術研究組合,,その他の設立登記法人,神奈川県,横浜市港北区,箕輪町２丁目１１番１９号,,14,109,2230051,,,2021-09-29,清算の結了等,,,2016-03-02,1,,,,,チョウデンドウセンシング,0
1677,6021002009253,登記記録の閉鎖等,0,2021-10-04,2021-09-30,有限会社青木造園建設,,有限会社,神奈川県,高座郡寒川町,宮山３４６７番地,,14,321,2530106,,,2021-09-30,清算の結了等,,,2015-10-05,1,,,,,アオキゾウエンケンセツ,0
1683,6040001039805,登記記録の閉鎖等,0,2021-10-04,2021-09-24,株式会社楽天,,株式会社,千葉県,松戸市,八ケ崎６丁目４８番地２３,,12,207,2700023,,,2021-09-24,清算の結了等,,,2015-10-05,1,,,,,ラクテン,0
1706,6070002024539,登記記録の閉鎖等,0,2021-10-04,2021-09-28,有限会社フオーワアド,,有限会社,群馬県,みどり市,東町神戸２８番地,,10,212,3760304,,,2021-09-28,清算の結了等,,,2015-10-05,1,,,,,フオーワアド,0
1714,6090001014035,登記記録の閉鎖等,0,2021-10-04,2021-09-27,株式会社ｏｆｆｉｃｅ５５,,株式会社,山梨県,甲府市,国母１丁目１７番２７号ＡＳＴストリートビル,,19,201,4000043,,,2021-09-27,清算の結了等,,,2015-10-05,1,,,,,,0
1722,6110001018215,登記記録の閉鎖等,0,2021-10-04,2021-09-28,株式会社フタバ,,株式会社,新潟県,村上市,府屋４３９番地５,,15,212,9593907,,,2021-09-28,合併による解散等,8110001018246,令和３年９月２８日新潟県村上市府屋３８５番地８株式会社松山組（8110001018246）に合併し解散,2015-10-05,1,,,,,フタバ,0
1723,6110001019881,登記記録の閉鎖等,0,2021-10-04,2021-09-28,ファーストファーム株式会社,,株式会社,新潟県,上越市,浦川原区熊沢９３２番地３,,15,222,9420321,,,2021-09-28,清算の結了等,,,2015-10-05,1,,,,,ファーストファーム,0
1727,6120001039532,登記記録の閉鎖等,0,2021-10-04,2021-09-27,株式会社海苔の極,,株式会社,大阪府,大阪市浪速区,敷津東３丁目３番２３号,,27,111,5560012,,,2021-09-27,清算の結了等,,,2015-10-05,1,,,,,ノリノキワミ,0
1739,6120005013640,登記記録の閉鎖等,0,2021-10-04,2021-09-30,一般社団法人日本音楽ヘルパー協会,,その他の設立登記法人,大阪府,寝屋川市,東大利町４番８号,,27,215,5720042,,,2021-09-30,清算の結了等,,,2015-10-05,1,,,,,ニホンオンガクヘルパーキョウカイ,0
1746,6120905000036,登記記録の閉鎖等,0,2021-10-04,2021-10-01,西法寺,,その他の設立登記法人,大阪府,茨木市,中村町９番８号,,27,211,5670822,,,2021-10-01,清算の結了等,,,2015-10-05,1,,,,,サイホウジ,0
1752,6130001038459,登記記録の閉鎖等,0,2021-10-04,2021-09-30,杉山鉄工株式会社,,株式会社,京都府,城陽市,寺田新池２３番地の６,,26,207,6100121,,,2021-09-30,清算の結了等,,,2015-10-05,1,,,,,スギヤマテッコウ,0
1769,6140005010826,登記記録の閉鎖等,0,2021-10-04,2021-10-01,一般社団法人ライフサポート,,その他の設立登記法人,兵庫県,神戸市灘区,烏帽子町２丁目３番２７－４０１号,,28,102,6570042,,,2021-10-01,清算の結了等,,,2015-10-05,1,,,,,ライフサポート,0
1789,6180002002896,登記記録の閉鎖等,0,2021-10-04,2021-09-30,有限会社発明,,有限会社,愛知県,名古屋市名東区,上社１丁目１８１３番地の２,,23,115,4650025,,,2021-09-30,清算の結了等,,,2015-10-05,1,,,,,ハツメイ,0
1795,6180005009609,登記記録の閉鎖等,0,2021-10-04,2021-09-30,一宮市馬引商工発展協同組合,,その他の設立登記法人,愛知県,一宮市,大和町馬引１７２６番地の２,,23,203,4910931,,,2021-09-30,清算の結了等,,,2015-10-05,1,,,,,イチノミヤシマビキショウコウハッテン,0
1796,6180005017834,登記記録の閉鎖等,0,2021-10-04,2021-09-30,一般社団法人守破離,,その他の設立登記法人,愛知県,名古屋市中村区,日ノ宮町５丁目２９番地,,23,105,4530823,,,2021-09-30,清算の結了等,,,2018-06-27,1,,,,,シュハリ,0
1810,6220001003858,登記記録の閉鎖等,0,2021-10-04,2021-09-30,大成ハウジング株式会社,,株式会社,石川県,金沢市,米泉町１丁目２７番地,,17,201,9218044,,,2021-09-30,清算の結了等,,,2015-10-05,1,,,,,タイセイハウジング,0
1823,6260002026326,登記記録の閉鎖等,0,2021-10-04,2021-09-30,株式会社あんしんライフ,,株式会社,岡山県,浅口市,鴨方町六条院中５１８８番地９,,33,216,7190252,,,2021-09-30,清算の結了等,,,2015-10-05,1,,,,,アンシンライフ,0
1830,6290001008603,登記記録の閉鎖等,0,2021-10-04,2021-09-13,株式会社ＤＨＦライフ,,株式会社,福岡県,福岡市博多区,東比恵３丁目１２番１６号,,40,132,8120007,,,2021-09-13,清算の結了等,,,2015-10-05,1,,,,,ディーエイチエフライフ,0
1866,6400002007410,登記記録の閉鎖等,0,2021-10-04,2021-09-30,有限会社鍛治屋敷左官工業,,有限会社,岩手県,岩手郡岩手町,大字江刈内第２６地割３７番地,,03,303,0284303,,,2021-09-30,清算の結了等,,,2015-10-05,1,,,,,カジヤシキサカンコウギョウ,0
1868,6420002009652,登記記録の閉鎖等,0,2021-10-04,2021-09-24,有限会社高橋カメラ店,00087642,有限会社,青森県,三戸郡五戸町,字横丁３番地４,,02,442,0391559,,,2021-09-24,清算の結了等,,,2015-10-05,1,,,,,タカハシカメラテン,0
1871,6430001010750,登記記録の閉鎖等,0,2021-10-04,2021-09-27,株式会社テーアンドエイチ・ホームビルダー,,株式会社,北海道,札幌市中央区,南二十二条西１５丁目２番２０号１０２,,01,101,0640922,,,2021-09-27,清算の結了等,,,2015-10-05,1,,,,,テーアンドエイチホームビルダー,0
1877,6430001062949,登記記録の閉鎖等,0,2021-10-04,2021-09-27,藤原自動車工業株式会社,,株式会社,北海道,札幌市北区,篠路八条６丁目１４番１６号,,01,102,0028028,,,2021-09-27,清算の結了等,,,2015-10-05,1,,,,,フジワラジドウシャコウギョウ,0
1925,7010403021148,登記記録の閉鎖等,0,2021-10-04,2021-09-21,セルクル合同会社,,合同会社,東京都,港区,赤坂１丁目５番１３号祥文堂ビル３階,,13,103,1070052,,,2021-09-21,清算の結了等,,,2019-07-26,1,,,,,セルクル,0
1933,7010802015774,登記記録の閉鎖等,0,2021-10-04,2021-09-24,有限会社ロボテック,,有限会社,東京都,大田区,中央２丁目３番１６号,,13,111,1430024,,,2021-09-24,清算の結了等,,,2015-10-05,1,,,,,ロボテック,0
1936,7010901015386,登記記録の閉鎖等,0,2021-10-04,2021-09-30,株式会社フェアプレイ,,株式会社,東京都,世田谷区,駒沢４丁目１１番１０－２０５号,,13,112,1540012,,,2021-09-30,合併による解散等,5010401097274,令和３年９月１日東京都渋谷区元代々木町３０番１３号株式会社ロコンド（5010401097274）に合併し解散,2015-10-05,1,,,,,フェアプレイ,0
1953,7011005007626,登記記録の閉鎖等,0,2021-10-04,2021-09-14,一般社団法人逆算手帳活用協会,,その他の設立登記法人,東京都,渋谷区,渋谷３丁目１番９号Ｙａｚａｗａビル４階,,13,113,1500002,,,2021-09-14,清算の結了等,,,2018-04-09,1,,,,,ギャクサンテチョウカツヨウキョウカイ,0
1955,7011101020037,登記記録の閉鎖等,0,2021-10-04,2021-09-24,株式会社益田屋,,株式会社,東京都,新宿区,百人町２丁目２０番１７号,,13,104,1690073,,,2021-09-24,清算の結了等,,,2015-10-05,1,,,,,,0
1960,7011401005200,登記記録の閉鎖等,0,2021-10-04,2021-09-30,株式会社白恒舎,,株式会社,東京都,板橋区,常盤台４丁目７番１１号,,13,119,1740071,,,2021-09-30,清算の結了等,,,2015-10-05,1,,,,,,0
1980,7020001082871,登記記録の閉鎖等,0,2021-10-04,2021-09-29,株式会社ブロードマリン,,株式会社,神奈川県,川崎市川崎区,浜町１丁目９番１０号,,14,131,2100851,,,2021-09-29,清算の結了等,,,2015-10-05,1,,,,,ブロードマリン,0
2019,7120001004171,登記記録の閉鎖等,0,2021-10-04,2021-09-30,株式会社ピンク洋品店,,株式会社,大阪府,大阪市西成区,天下茶屋２丁目７番１４号,,27,122,5570014,,,2021-09-30,清算の結了等,,,2015-10-05,1,,,,,ピンクヨウヒンテン,0
2020,7120001015326,登記記録の閉鎖等,0,2021-10-04,2021-09-30,株式会社デイラボ,,株式会社,神奈川県,川崎市高津区,末長１丁目２３番８－５０７号,,14,134,2130013,,,2021-09-30,清算の結了等,,,2015-10-05,1,,,,,デイラボ,0
2023,7120001037279,登記記録の閉鎖等,0,2021-10-04,2021-09-27,磯のり株式会社,,株式会社,大阪府,大阪市浪速区,敷津東３丁目３番２３号,,27,111,5560012,,,2021-09-27,清算の結了等,,,2015-10-05,1,,,,,イソノリ,0
2037,7120002023617,登記記録の閉鎖等,0,2021-10-04,2021-09-30,歌島石油有限会社,,有限会社,大阪府,大阪市西淀川区,千舟３丁目２番２号,,27,113,5550013,,,2021-09-30,清算の結了等,,,2015-10-05,1,,,,,ウタジマセキユ,0
2101,7180001062701,登記記録の閉鎖等,0,2021-10-04,2021-09-30,株式会社Ｄｉｒｅｔｔｏ,,株式会社,愛知県,名古屋市名東区,神里２丁目１３１番地の２,,23,115,4650082,,,2021-09-30,清算の結了等,,,2015-10-05,1,,,,,,0
2122,7180302010409,登記記録の閉鎖等,0,2021-10-04,2021-10-01,吉田土建有限会社,,有限会社,愛知県,豊橋市,植田町字池下７０番地の２,,23,201,4418134,,,2021-10-01,清算の結了等,,,2015-10-05,1,,,,,ヨシダドケン,0
2124,7180305000687,登記記録の閉鎖等,0,2021-10-04,2021-08-17,天理教岡崎分教会,,その他の設立登記法人,愛知県,岡崎市,福寿町１３６番地１,,23,202,4440056,,,2021-08-17,合併による解散等,3080405003645,令和３年８月１６日静岡県浜松市北区細江町気賀７４７６番地の１の２天理教引佐分教会（3080405003645）に合併し解散,2015-10-05,1,,,,,,0
2125,7190001005147,登記記録の閉鎖等,0,2021-10-04,2021-09-30,創建作業株式会社,,株式会社,三重県,鈴鹿市,住吉町７２６５番地の５,,24,207,5130825,,,2021-09-30,清算の結了等,,,2015-10-05,1,,,,,ソウケンサギョウ,0
2129,7200001007182,登記記録の閉鎖等,0,2021-10-04,2021-10-01,株式会社ジェームス岐阜,,株式会社,岐阜県,各務原市,小佐野町１丁目１８番,,21,213,5040942,,,2021-10-01,合併による解散等,6200001003744,令和３年１０月１日岐阜市六条大溝四丁目１番３号トヨタカローラ岐阜株式会社（6200001003744）に合併し解散,2015-10-05,1,,,,,ジェームスギフ,0
2136,7220001013419,登記記録の閉鎖等,0,2021-10-04,2021-09-29,株式会社マルコ,,株式会社,石川県,加賀市,小菅波町１丁目１３０番地,,17,206,9220424,,,2021-09-29,清算の結了等,,,2015-10-05,1,,,,,マルコ,0
2177,7290003009549,登記記録の閉鎖等,0,2021-10-04,2021-09-13,Ｂｏｈｏｋｉｄｓ合同会社,,合同会社,福岡県,福岡市早良区,南庄１丁目５番２１－１０６号,,40,137,8140031,,,2021-09-13,清算の結了等,,,2019-12-03,1,,,,,ボホキッズ,0
2183,7310002009266,登記記録の閉鎖等,0,2021-10-04,2021-10-01,有限会社うちだファミリー,,有限会社,長崎県,佐世保市,城山町２番１８号,,42,202,8570033,,,2021-10-01,清算の結了等,,,2015-10-05,1,,,,,ウチダファミリー,0
2185,7310002017450,登記記録の閉鎖等,0,2021-10-04,2021-09-29,有限会社長崎書店,,有限会社,長崎県,大村市,西大村本町３９０番地１,,42,205,8560813,,,2021-09-29,清算の結了等,,,2015-10-05,1,,,,,ナガサキショテン,0
2191,7340001009644,登記記録の閉鎖等,0,2021-10-04,2021-09-28,株式会社樹工業,,株式会社,鹿児島県,霧島市,隼人町住吉２６０７番地２,,46,218,8995101,,,2021-09-28,清算の結了等,,,2015-10-05,1,,,,,,0
2193,7340002010601,登記記録の閉鎖等,0,2021-10-04,2021-09-17,有限会社和大,,有限会社,鹿児島県,鹿児島市,明和２丁目１４番１４号,,46,201,8900024,,,2021-09-17,清算の結了等,,,2015-10-05,1,,,,,ワダイ,0
2201,7370001016910,登記記録の閉鎖等,0,2021-10-04,2021-09-22,株式会社ＨＡＬ　ＰＬＡＮＮＩＮＧ,,株式会社,宮城県,仙台市青葉区,中央４丁目４番４号,,04,101,9800021,,,2021-09-22,清算の結了等,,,2015-10-05,1,,,,,ハルプランニング,0
2223,7450001008899,登記記録の閉鎖等,0,2021-10-04,2021-10-01,株式会社堺組,,株式会社,北海道,留萌市,塩見町３６９番地の２９,,01,212,0770002,,,2021-10-01,清算の結了等,,,2015-10-05,1,,,,,サカイクミ,0
2230,7470002019431,登記記録の閉鎖等,0,2021-10-04,2021-09-28,有限会社オリーブの里小豆島,,有限会社,香川県,小豆郡小豆島町,馬木甲８５３番地８,,37,324,7614426,,,2021-09-28,清算の結了等,,,2015-10-05,1,,,,,オリーブノサトショウドシマ,0
2232,7470005002533,登記記録の閉鎖等,0,2021-10-04,2021-09-30,香川県中央コンクリートブロック協業組合,,その他の設立登記法人,香川県,丸亀市,郡家町２９３７番地の１,,37,202,7630093,,,2021-09-30,清算の結了等,,,2015-10-05,1,,,,,カガワケンチュウオウコンクリートブロック,0
2247,8010002013578,登記記録の閉鎖等,0,2021-10-04,2021-09-24,有限会社萩原商会,,有限会社,東京都,千代田区,飯田橋２丁目８番４号,,13,101,1020072,,,2021-09-24,清算の結了等,,,2015-10-05,1,,,,,ハギワラショウカイ,0
2252,8010401109398,登記記録の閉鎖等,0,2021-10-04,2021-09-21,ＭＳアーデル株式会社,,株式会社,東京都,港区,浜松町２丁目１番１２号,,13,103,1050013,,,2021-09-21,清算の結了等,,,2015-10-05,1,,,,,エムエスアーデル,0
2254,8010401117293,登記記録の閉鎖等,0,2021-10-04,2021-09-21,Ｊｅｔ　Ａｓｉａ　Ｊａｐａｎ株式会社,,株式会社,東京都,港区,南麻布３丁目１９番２３号オーク南麻布ビル２階,,13,103,1060047,,,2021-09-21,清算の結了等,,,2015-10-05,1,,,,,ジェットアジアジャパン,0
2269,8011001120654,登記記録の閉鎖等,0,2021-10-04,2021-09-10,株式会社ＩＮＳＴＯＲＥ　ＬＡＢＯ,,株式会社,東京都,渋谷区,渋谷２丁目１２番１９号,,13,113,1500002,,,2021-09-10,合併による解散等,4011001068947,令和３年８月３０日東京都渋谷区渋谷二丁目１２番１９号株式会社ｉｍｐａｃｔ　ｃｏｎｎｅｃｔ（4011001068947）に合併し解散,2018-02-19,1,,,,,インストレラボ,0
2270,8011001121529,登記記録の閉鎖等,0,2021-10-04,2021-08-30,株式会社ピスケス,,株式会社,東京都,渋谷区,広尾１丁目１番３９号恵比寿プライムスクエアタワー４Ｆ,,13,113,1500012,,,2021-08-30,清算の結了等,,,2018-04-10,1,,,,,ピスケス,0
2301,8012402000189,登記記録の閉鎖等,0,2021-10-04,2021-09-27,有限会社あんみマネジメント,,有限会社,東京都,府中市,宮町１丁目３４番地の１４,,13,206,1830023,,,2021-09-27,清算の結了等,,,2015-10-05,1,,,,,アンミマネジメント,0
2323,8021001036585,登記記録の閉鎖等,0,2021-10-04,2021-09-29,株式会社サンキ,,株式会社,神奈川県,平塚市,宝町５番１７号,,14,203,2540034,,,2021-09-29,清算の結了等,,,2015-10-05,1,,,,,サンキ,0
2330,8030001046882,登記記録の閉鎖等,0,2021-10-04,2021-09-28,株式会社ヤマトプロセシング,,株式会社,東京都,練馬区,大泉学園町６丁目２番６号,,13,120,1780061,,,2021-09-28,合併による解散等,6030001046876,令和３年８月２０日埼玉県朝霞市膝折町一丁目１４番１６号株式会社大和伸管所（6030001046876）に合併し解散,2015-10-05,1,,,,,ヤマトプロセシング,0
2358,8070002007467,登記記録の閉鎖等,0,2021-10-04,2021-09-30,有限会社テルサシェアードサービス,,有限会社,群馬県,前橋市,東善町乙３２１番地,,10,201,3792132,,,2021-09-30,清算の結了等,,,2015-10-05,1,,,,,テルサシェアードサービス,0
2367,8080402009285,登記記録の閉鎖等,0,2021-10-04,2021-09-30,有限会社サントー,,有限会社,静岡県,湖西市,入出７３９番地の１,,22,221,4310411,,,2021-09-30,清算の結了等,,,2015-10-05,1,,,,,サントー,0
2376,8100005007907,登記記録の閉鎖等,0,2021-10-04,2021-09-28,諏訪地方商工事業協同組合,,その他の設立登記法人,長野県,諏訪市,上川３丁目２２５８番地,,20,206,3920021,,,2021-09-28,清算の結了等,,,2015-10-05,1,,,,,スワチホウショウコウ,0
2391,8120001216385,登記記録の閉鎖等,0,2021-10-04,2021-09-22,ティアラベル株式会社,,株式会社,大阪府,大阪市中央区,難波１丁目４番３号,,27,128,5420076,,,2021-09-22,合併による解散等,9120001198887,令和３年９月２２日大阪市東成区大今里南一丁目２２番１５号エクセルコート今里１Ｆ株式会社フォレストドラッグ（9120001198887）に合併し解散,2018-10-04,1,,,,,ティアラベル,0
2428,8160005008214,登記記録の閉鎖等,0,2021-10-04,2021-09-30,御嶽教近江教会,,その他の設立登記法人,滋賀県,草津市,草津４丁目６番１５号,,25,206,5250034,,,2021-09-30,清算の結了等,,,2015-10-05,1,,,,,オンタケキョウオウミキョウカイ,0
2450,8200001020069,登記記録の閉鎖等,0,2021-10-04,2021-10-01,岐関運輸株式会社,,株式会社,岐阜県,関市,上白金８９２番地３,,21,205,5013947,,,2021-10-01,清算の結了等,,,2015-10-05,1,,,,,ギセキウンユ,0
2454,8230001005959,登記記録の閉鎖等,0,2021-10-04,2021-09-30,アイバックトラスト株式会社,,株式会社,富山県,富山市,大町１７４番地１,,16,201,9398073,,,2021-09-30,清算の結了等,,,2015-10-05,1,,,,,アイバックトラスト,0
2456,8230002005883,登記記録の閉鎖等,0,2021-10-04,2021-09-24,有限会社ひらい,,有限会社,富山県,中新川郡上市町,上中町３５番地,,16,322,9300333,,,2021-09-24,清算の結了等,,,2015-10-05,1,,,,,ヒライ,0
2471,8280002010929,登記記録の閉鎖等,0,2021-10-04,2021-09-29,有限会社シオカワ,,有限会社,京都府,宇治市,小倉町南浦１５番地の２８,,26,204,6110042,,,2021-09-29,清算の結了等,,,2015-10-05,1,,,,,シオカワ,0
2500,8340005006884,登記記録の閉鎖等,0,2021-10-04,2021-09-17,松寿院,,その他の設立登記法人,鹿児島県,鹿屋市,西原１丁目８番２３号,,46,203,8930064,,,2021-09-17,清算の結了等,,,2015-10-05,1,,,,,ショウジュイン,0
2516,8390003000331,登記記録の閉鎖等,0,2021-10-04,2021-09-14,合資会社サポートハウス・ファミリー,,合資会社,山形県,天童市,老野森３丁目２４番７－１０１号ロイヤルヒルズ老野森,,06,210,9940013,,,2021-09-14,清算の結了等,,,2015-10-05,1,,,,,サポートハウスファミリー,0
2530,8450005003037,登記記録の閉鎖等,0,2021-10-04,2021-09-30,特定非営利活動法人北限の里遠別,,その他の設立登記法人,北海道,天塩郡遠別町,字北浜１５４番地３,,01,486,0983541,,,2021-09-30,清算の結了等,,,2015-10-05,1,,,,,ホクゲンノサトエンベツ,0
2548,9010001188676,登記記録の閉鎖等,0,2021-10-04,2021-09-22,株式会社ハク,,株式会社,東京都,中央区,京橋２丁目１７番３号,,13,102,1040031,,,2021-09-22,清算の結了等,,,2018-01-22,1,,,,,ハク,0
2554,9010401123514,登記記録の閉鎖等,0,2021-10-04,2021-09-21,Ｔｒｉａｎｇｌｅ　Ｇ株式会社,,株式会社,東京都,港区,海岸１丁目７番１号,,13,103,1050022,,,2021-09-21,清算の結了等,,,2016-03-08,1,,,,,トライアングルジー,0
2559,9010601038289,登記記録の閉鎖等,0,2021-10-04,2021-09-16,株式会社テック,,株式会社,東京都,江東区,猿江１丁目１５番５号,,13,108,1350003,,,2021-09-16,清算の結了等,,,2015-10-05,1,,,,,テック,0
2563,9010701028578,登記記録の閉鎖等,0,2021-10-04,2021-09-13,不動産事業再生支援株式会社,,株式会社,福岡県,福岡市中央区,唐人町３丁目２番５１号,,40,133,8100063,,,2021-09-13,清算の結了等,,,2015-10-05,1,,,,,フドウサンジギョウサイセイシエン,0
2566,9010802001228,登記記録の閉鎖等,0,2021-10-04,2021-09-27,有限会社石原エンタープライズ,,有限会社,東京都,大田区,蒲田５丁目２４番４号,,13,111,1440052,,,2021-09-27,清算の結了等,,,2015-10-05,1,,,,,イシハラエンタープライズ,0
2569,9011001046329,登記記録の閉鎖等,0,2021-10-04,2021-10-01,株式会社エムセックインターナショナル,,株式会社,東京都,渋谷区,渋谷２丁目８番７号青山宮野ビル２階,,13,113,1500002,,,2021-10-01,清算の結了等,,,2015-10-05,1,,,,,エムセックインターナショナル,0
2592,9011502004355,登記記録の閉鎖等,0,2021-10-04,2021-09-29,有限会社中島製作所,,有限会社,東京都,北区,豊島８丁目３番１６号,,13,117,1140003,,,2021-09-29,清算の結了等,,,2015-10-05,1,,,,,,0
2597,9011702000897,登記記録の閉鎖等,0,2021-10-04,2021-09-24,石井電機工業有限会社,,有限会社,東京都,江戸川区,船堀２丁目３番２号,,13,123,1340091,,,2021-09-24,清算の結了等,,,2015-10-05,1,,,,,,0
2643,9040003016601,登記記録の閉鎖等,0,2021-10-04,2021-09-27,かたどる合同会社,,合同会社,千葉県,流山市,おおたかの森北１丁目１６番地の２,,12,220,2700119,,,2021-09-27,清算の結了等,,,2020-12-10,1,,,,,カタドル,0
2649,9070005006226,登記記録の閉鎖等,0,2021-10-04,2021-08-13,天理教市野井分教会,00026113,その他の設立登記法人,群馬県,太田市,新田市町６８番地,,10,205,3700304,,,2021-08-13,合併による解散等,5060005005141,令和３年７月２６日栃木県下都賀郡野木町大字友沼４７０１番地天理教生井分教会（5060005005141）に合併し解散,2015-10-05,1,,,,,,0
2652,9080401012215,登記記録の閉鎖等,0,2021-10-04,2021-09-30,ＫＡＴＯＨ　ＭＡＮＡＧＥＭＥＮＴ株式会社,,株式会社,静岡県,浜松市中区,富塚町１５１１番地の２,00079657,22,131,4328002,,,2021-09-30,清算の結了等,,,2015-10-05,1,,,,,カトウマネージメント,0
2654,9080402009581,登記記録の閉鎖等,0,2021-10-04,2021-09-30,有限会社伊藤木工所,,有限会社,静岡県,湖西市,新居町新居１７１９番地の２,,22,221,4310302,,,2021-09-30,清算の結了等,,,2015-10-05,1,,,,,イトウモッコウジョ,0
2671,9120001024226,登記記録の閉鎖等,0,2021-10-04,2021-09-30,株式会社大福建設,00027847,株式会社,大阪府,大阪市天王寺区,国分町１３番８号,,27,109,5430044,,,2021-09-30,清算の結了等,,,2015-10-05,1,,,,,ダイフクケンセツ,0
2688,9120101008005,登記記録の閉鎖等,0,2021-10-04,2021-09-30,株式会社ワイテック,,株式会社,大阪府,堺市堺区,浅香山町２丁７番１４号,,27,141,5900012,,,2021-09-30,清算の結了等,,,2015-10-05,1,,,,,ワイテック,0
2689,9120101027624,登記記録の閉鎖等,0,2021-10-04,2021-09-30,株式会社ＫＴＳエンジニアリング,,株式会社,大阪府,大阪狭山市,半田３丁目３６１番地の１,,27,231,5890011,,,2021-09-30,清算の結了等,,,2015-10-05,1,,,,,,0
2703,9140001040741,登記記録の閉鎖等,0,2021-10-04,2021-09-28,株式会社いきいき,,株式会社,兵庫県,相生市,旭４丁目３番１２号,,28,208,6780031,,,2021-09-28,清算の結了等,,,2015-10-05,1,,,,,イキイキ,0
2706,9140001119404,登記記録の閉鎖等,0,2021-10-04,2021-09-28,豊源株式会社,,株式会社,兵庫県,神戸市垂水区,名谷町字丸尾６７８番地の１８,,28,108,6550852,,,2021-09-28,清算の結了等,,,2020-11-19,1,,,,,ホウゲン,0
2714,9140005001310,登記記録の閉鎖等,0,2021-10-04,2021-08-17,天理教西代分教会,,その他の設立登記法人,兵庫県,神戸市垂水区,塩屋町４丁目４番３号,,28,108,6550872,,,2021-08-17,合併による解散等,9140005007852,令和３年８月１７日兵庫県相生市本郷町１０番１４号天理教那波分教会（9140005007852）に合併し解散,2015-10-05,1,,,,,テンリキョウニシダイブンキョウカイ,0
2736,9180301009978,登記記録の閉鎖等,0,2021-10-04,2021-09-30,タカハシ石油株式会社,,株式会社,愛知県,豊川市,篠束町東宮５番地,,23,207,4410102,,,2021-09-30,清算の結了等,,,2015-10-05,1,,,,,タカハシセキユ,0
2761,9260001000345,登記記録の閉鎖等,0,2021-10-04,2021-09-29,株式会社アビリティー,,株式会社,岡山県,岡山市北区,今保１６８番地４,,33,101,7010145,,,2021-09-29,清算の結了等,,,2015-10-05,1,,,,,アビリティー,0
2774,9290001052623,登記記録の閉鎖等,0,2021-10-04,2021-09-14,株式会社石橋建設,,株式会社,福岡県,大川市,大字三丸２０６９番地,,40,212,8310026,,,2021-09-14,清算の結了等,,,2015-10-05,1,,,,,イシバシケンセツ,0
2802,9380001025297,登記記録の閉鎖等,0,2021-10-04,2021-09-28,富岡復興株式会社,,株式会社,福島県,双葉郡富岡町,大字本岡字上本町５７８番地,,07,543,9791151,,,2021-09-28,清算の結了等,,,2015-10-05,1,,,,,トミオカフッコウ,0
2803,9390001013920,登記記録の閉鎖等,0,2021-10-04,2021-09-24,愛と義観光株式会社,,株式会社,山形県,米沢市,松が岬１丁目１番１４号,,06,202,9920053,,,2021-09-24,清算の結了等,,,2015-10-05,1,,,,,アイトギカンコウ,0
2805,9420003001597,登記記録の閉鎖等,0,2021-10-04,2021-09-28,合同会社ＡＩ＆Ｌ蓼,,合同会社,青森県,黒石市,作場町９１－１,,02,204,0360382,,,2021-09-28,清算の結了等,,,2016-07-06,1,,,,,アイアンドエルタテ,0
2814,9470002001775,登記記録の閉鎖等,0,2021-10-04,2021-09-30,有限会社オリーブ住宅センター,,有限会社,香川県,高松市,太田上町８１１番地１,,37,201,7618074,,,2021-09-30,清算の結了等,,,2015-10-05,1,,,,,オリーブジュウタクセンター,0
2817,9480002004001,登記記録の閉鎖等,0,2021-10-04,2021-09-27,有限会社豊年堂製菓,,有限会社,徳島県,徳島市,蔵本元町２丁目６９番地,,36,201,7700041,,,2021-09-27,清算の結了等,,,2015-10-05,1,,,,,ホウネンドウセイカ,0
2823,9500005000647,登記記録の閉鎖等,0,2021-10-04,2021-10-01,医療法人社団桐山医院,,その他の設立登記法人,愛媛県,松山市,高岡町８７７番地,,38,201,7918036,,,2021-10-01,清算の結了等,,,2015-10-05,1,,,,,キリヤマイイン,0
