sequenceNumber,corporateNumber,process,correct,updateDate,changeDate,name,nameImageId,kind,prefectureName,cityName,streetNumber,addressImageId,prefectureCode,cityCode,postCode,addressOutside,addressOutsideImageId,closeDate,closeCause,successorCorporateNumber,changeCause,assignmentDate,latest,enName,enPrefectureName,enCityName,enAddressOutside,furigana,hihyoji
81,1013202002786,登記記録の閉鎖等,0,2025-07-15,2025-06-16,有限会社栄住宅社,,有限会社,東京都,目黒区,平町１丁目２６番１７－４０１号,,13,110,1520032,,,2025-06-16,清算の結了等,,,2015-10-05,1,,,,,サカエジュウタクシャ,0
83,1020001005482,登記記録の閉鎖等,0,2025-07-15,2025-07-11,パシフィック通工株式会社,,株式会社,神奈川県,横浜市旭区,白根３丁目１６番１７号,,14,112,2410005,,,2025-07-11,合併による解散等,6010901013861,令和７年７月１日東京都世田谷区船橋六丁目６番１０号株式会社東京ファシリティサービス（6010901013861）に合併し解散,2015-10-05,1,,,,,パシフィックツウコウ,0
85,1020001036726,登記記録の閉鎖等,0,2025-07-15,2025-07-01,株式会社ベスコ,,株式会社,東京都,豊島区,池袋２丁目４３番１号,,13,116,1710014,,,2025-07-01,合併による解散等,2013301019714,令和７年７月１日東京都豊島区池袋二丁目４３番１号株式会社パワーエッジ（2013301019714）に合併し解散,2015-10-05,1,,,,,ベスコ,0
99,1021002053867,登記記録の閉鎖等,0,2025-07-15,2025-07-09,有限会社エフ．ファクトリィー,,有限会社,神奈川県,足柄上郡大井町,金子８５８番地１５,,14,362,2580019,,,2025-07-09,清算の結了等,,,2015-10-05,1,,,,,エフファクトリィー,0
107,1030002102831,登記記録の閉鎖等,0,2025-07-15,2025-07-03,有限会社三英自動車,,有限会社,埼玉県,川口市,東領家４丁目１９番１８号,,11,203,3320003,,,2025-07-03,清算の結了等,,,2015-10-05,1,,,,,サンエイジドウシャ,0
108,1030002117879,登記記録の閉鎖等,0,2025-07-15,2025-07-07,有限会社スペース三千,,有限会社,埼玉県,行田市,長野４丁目４番３号,,11,206,3610023,,,2025-07-07,清算の結了等,,,2015-10-05,1,,,,,,0
109,1030002118935,登記記録の閉鎖等,0,2025-07-15,2025-07-04,龍前ビルサービス有限会社,,有限会社,埼玉県,熊谷市,上之２８８２番地１－２階,,11,202,3600012,,,2025-07-04,清算の結了等,,,2015-10-05,1,,,,,リュウマエビルサービス,0
111,1030003024629,登記記録の閉鎖等,0,2025-07-15,2025-06-19,合同会社ＦＭ,,合同会社,東京都,千代田区,富士見２丁目１２番１６号富士見フラワーハイホーム５０４号室,,13,101,1020071,,,2025-06-19,清算の結了等,,,2024-07-19,1,,,,,エフエム,0
113,1040001030074,登記記録の閉鎖等,0,2025-07-15,2025-07-09,ヤサト鋼機株式会社,,株式会社,千葉県,浦安市,港２７番地,,12,227,2790024,,,2025-07-09,合併による解散等,3010601009312,令和７年７月１日東京都墨田区江東橋五丁目２番２０号碓井鋼材株式会社（3010601009312）に合併し解散,2015-10-05,1,,,,,ヤサトコウキ,0
126,1090002012851,登記記録の閉鎖等,0,2025-07-15,2025-06-30,有限会社ラーチ,,有限会社,山梨県,南都留郡富士河口湖町,船津３０３５番地,,19,430,4010301,,,2025-06-30,清算の結了等,,,2015-10-05,1,,,,,ラーチ,0
135,1120001122391,登記記録の閉鎖等,0,2025-07-15,2025-07-10,株式会社アロートラストシステムズ,,株式会社,大阪府,大阪市西区,江戸堀２丁目１番１号,,27,106,5500002,,,2025-07-10,合併による解散等,3011101060004,令和７年７月１日東京都港区東新橋二丁目１４番１号株式会社オープンアップシステム（3011101060004）に合併し解散,2015-10-05,1,,,,,アロートラストシステムズ,0
149,1120005008307,登記記録の閉鎖等,0,2025-07-15,2025-07-07,大阪建設労働組合阿倍野,,その他の設立登記法人,大阪府,大阪市阿倍野区,昭和町１丁目３番１２号,,27,119,5450011,,,2025-07-07,清算の結了等,,,2015-10-05,1,,,,,,0
150,1120101027986,登記記録の閉鎖等,0,2025-07-15,2025-07-04,株式会社ジューク．ＭＪＫ,,株式会社,大阪府,堺市南区,晴美台２丁１９番２号,,27,145,5900113,,,2025-07-04,清算の結了等,,,2015-10-05,1,,,,,ジュークエムジェイケイ,0
176,1180001035712,登記記録の閉鎖等,0,2025-07-15,2025-06-30,建設コンサルタントカナヤマ株式会社,,株式会社,愛知県,名古屋市中区,正木４丁目１０番１５号,,23,106,4600024,,,2025-06-30,清算の結了等,,,2015-10-05,1,,,,,ケンセツコンサルタントカナヤマ,0
177,1180001108633,登記記録の閉鎖等,0,2025-07-15,2025-06-30,株式会社ＭＡＳＴＥＲ　ＰＩＥＣＥ,,株式会社,愛知県,名古屋市西区,則武新町４丁目４番１９,,23,104,4510051,,,2025-06-30,清算の結了等,,,2015-10-05,1,,,,,マスターピース,0
183,1180002017065,登記記録の閉鎖等,0,2025-07-15,2025-06-30,有限会社山田商事,,有限会社,愛知県,名古屋市東区,葵３丁目１９番７号,,23,102,4610004,,,2025-06-30,清算の結了等,,,2015-10-05,1,,,,,ヤマダショウジ,0
190,1230001013200,登記記録の閉鎖等,0,2025-07-15,2025-07-07,株式会社プロフィット,,株式会社,富山県,射水市,南太閤山２丁目８番地,,16,211,9390364,,,2025-07-07,清算の結了等,,,2015-10-05,1,,,,,プロフィット,0
191,1240001001419,登記記録の閉鎖等,0,2025-07-15,2025-07-01,株式会社エヌ・アールコーポレーション,,株式会社,広島県,広島市安佐南区,相田１丁目１５番２１号,,34,105,7310141,,,2025-07-01,合併による解散等,3240001024681,令和７年６月３０日広島市安佐南区相田一丁目１５番２１号株式会社新川（3240001024681）に合併し解散,2015-10-05,1,,,,,エヌアールコーポレーション,0
213,1310005001366,登記記録の閉鎖等,0,2025-07-15,2025-07-07,医療法人社団山田内科医院,,その他の設立登記法人,長崎県,長崎市,岩川町３番１号,,42,201,8528106,,,2025-07-07,清算の結了等,,,2015-10-05,1,,,,,ヤマダナイカイイン,0
215,1330001012704,登記記録の閉鎖等,0,2025-07-15,2025-07-02,株式会社コーリン開発,,株式会社,熊本県,宇城市,松橋町松橋１０２２番地４,,43,213,8690502,,,2025-07-02,清算の結了等,,,2015-10-05,1,,,,,コーリンカイハツ,0
228,1380003001997,登記記録の閉鎖等,0,2025-07-15,2025-06-27,酒井建設合資会社,,合資会社,福島県,南会津郡只見町,大字只見字新町２１８１番地６,,07,367,9680421,,,2025-06-27,清算の結了等,,,2015-10-05,1,,,,,サカイケンセツ,0
231,1410001007324,登記記録の閉鎖等,0,2025-07-15,2025-07-10,白神工業株式会社,,株式会社,秋田県,山本郡八峰町,峰浜沼田字明神長根３０番地１,,05,349,0182509,,,2025-07-10,清算の結了等,,,2015-10-05,1,,,,,シラカミコウギョウ,0
264,2010402001675,登記記録の閉鎖等,0,2025-07-15,2025-07-07,有限会社宇恵事務所,,有限会社,東京都,大田区,東蒲田１丁目９番５号,,13,111,1440031,,,2025-07-07,清算の結了等,,,2015-10-05,1,,,,,ウエジムショ,0
271,2010405015747,登記記録の閉鎖等,0,2025-07-15,2025-06-25,ＫＲＤ塗師屋町開発特定目的会社,,その他の設立登記法人,東京都,港区,元赤坂１丁目１番７号,,13,103,1070051,,,2025-06-25,清算の結了等,,,2017-05-16,1,,,,,ケイアールディヌシヤチョウカイハツ,0
272,2010501007292,登記記録の閉鎖等,0,2025-07-15,2025-06-27,田中産業株式会社,,株式会社,東京都,台東区,上野６丁目１２番１７号,,13,106,1100005,,,2025-06-27,清算の結了等,,,2015-10-05,1,,,,,タナカサンギョウ,0
305,2011201011428,登記記録の閉鎖等,0,2025-07-15,2025-07-10,株式会社イーグルケミカル,,株式会社,東京都,中野区,沼袋１丁目１９番９号,,13,114,1650025,,,2025-07-10,合併による解散等,2010801016051,令和７年７月１日東京都大田区東糀谷一丁目２１番４号ＭＳビル１Ｆ株式会社イーグルスペース（2010801016051）に合併し解散,2015-10-05,1,,,,,,0
312,2011501012613,登記記録の閉鎖等,0,2025-07-15,2025-07-14,株式会社グリーンバレー,,株式会社,東京都,豊島区,巣鴨４丁目１２番３号,,13,116,1700002,,,2025-07-14,清算の結了等,,,2015-10-05,1,,,,,グリーンバレー,0
325,2013301031000,登記記録の閉鎖等,0,2025-07-15,2025-07-01,クリエーション株式会社,,株式会社,東京都,豊島区,池袋２丁目４２番３号,,13,116,1710014,,,2025-07-01,合併による解散等,4013301030999,令和７年７月１日東京都豊島区池袋二丁目４２番３号Ｆ．Ｉ．Ｖ株式会社（4013301030999）に合併し解散,2015-10-05,1,,,,,クリエーション,0
330,2020001004574,登記記録の閉鎖等,0,2025-07-15,2025-06-25,株式会社村野住宅販売,,株式会社,神奈川県,横浜市金沢区,釜利谷西１丁目７番８号,,14,108,2360046,,,2025-06-25,清算の結了等,,,2015-10-05,1,,,,,ムラノジュウタクハンバイ,0
337,2020002094301,登記記録の閉鎖等,0,2025-07-15,2025-07-03,有限会社小松屋造園,,有限会社,神奈川県,川崎市麻生区,東百合丘２丁目２５番３号,,14,137,2150012,,,2025-07-03,清算の結了等,,,2015-10-05,1,,,,,コマツヤゾウエン,0
341,2021001077478,登記記録の閉鎖等,0,2025-07-15,2025-07-02,株式会社ａ‐ｐｌａｎ,,株式会社,神奈川県,相模原市中央区,大野台３丁目１番１７号,,14,152,2520251,,,2025-07-02,清算の結了等,,,2022-11-16,1,,,,,エープラン,0
345,2021002056794,登記記録の閉鎖等,0,2025-07-15,2025-07-09,有限会社伊東鉄工,,有限会社,神奈川県,平塚市,東真土４丁目８番２４号,,14,203,2540018,,,2025-07-09,清算の結了等,,,2015-10-05,1,,,,,イトウテッコウ,0
359,2030002108167,登記記録の閉鎖等,0,2025-07-15,2025-07-07,有限会社横田建材店,,有限会社,埼玉県,川口市,西川口５丁目７番９号,,11,203,3320021,,,2025-07-07,清算の結了等,,,2015-10-05,1,,,,,ヨコタケンザイテン,0
360,2030003021377,登記記録の閉鎖等,0,2025-07-15,2025-07-07,合同会社はないろ,,合同会社,埼玉県,川口市,大字東内野５２６番地の１７,,11,203,3330821,,,2025-07-07,清算の結了等,,,2023-03-15,1,,,,,ハナイロ,0
363,2030005015303,登記記録の閉鎖等,0,2025-07-15,2025-07-04,両神山両神神社,,その他の設立登記法人,埼玉県,秩父郡小鹿野町,両神薄６７８５番地,,11,365,3680201,,,2025-07-04,合併による解散等,6030005015225,令和７年２月２０日埼玉県秩父郡小鹿野町小鹿野１４３２番地小鹿神社（6030005015225）に合併し解散,2015-10-05,1,,,,,リョウカミサンリョウカミジンジャ,0
422,2130005003529,登記記録の閉鎖等,0,2025-07-15,2025-07-10,京都日吉製陶協同組合,,その他の設立登記法人,京都府,京都市東山区,今熊野南日吉町４４番地１,,26,105,6050953,,,2025-07-10,清算の結了等,,,2015-10-05,1,,,,,キョウトヒヨシセイトウ,0
446,2180002025331,登記記録の閉鎖等,0,2025-07-15,2025-06-30,有限会社上薗電気工事,,有限会社,愛知県,名古屋市天白区,久方１丁目１４８番地,,23,116,4680034,,,2025-06-30,清算の結了等,,,2015-10-05,1,,,,,ウエゾノデンキコウジ,0
449,2180002071598,登記記録の閉鎖等,0,2025-07-15,2025-07-01,有限会社大沢塗工店,,有限会社,愛知県,瀬戸市,白山町２丁目２１番地,,23,204,4890876,,,2025-07-01,清算の結了等,,,2015-10-05,1,,,,,オオサワトコウテン,0
461,2220002012754,登記記録の閉鎖等,0,2025-07-15,2025-07-01,株式会社光パックス石川,,株式会社,石川県,加賀市,南郷町弐６番地６,,17,206,9220821,,,2025-07-01,合併による解散等,6220001026578,令和７年７月１日石川県加賀市南郷町弐６番地６株式会社光パックス石川（6220001026578）に合併し解散,2015-10-05,1,,,,,ヒカリパックスイシカワ,0
477,2290001038496,登記記録の閉鎖等,0,2025-07-15,2025-06-30,株式会社ハウス技建産業,,株式会社,福岡県,糟屋郡粕屋町,酒殿２丁目１７番１９号,,40,349,8112303,,,2025-06-30,清算の結了等,,,2015-10-05,1,,,,,ハウスギケンサンギョウ,0
478,2290001072660,登記記録の閉鎖等,0,2025-07-15,2025-06-30,リハウス総合設備株式会社,,株式会社,福岡県,福岡市博多区,博多駅前３丁目２８番４号,,40,132,8120011,,,2025-06-30,清算の結了等,,,2016-01-27,1,,,,,リハウスソウゴウセツビ,0
485,2330001027247,登記記録の閉鎖等,0,2025-07-15,2025-07-02,株式会社ＢＯＵＱＵＥＴ,,株式会社,熊本県,上益城郡益城町,大字宮園５９９番地１,,43,443,8612241,,,2025-07-02,清算の結了等,,,2020-03-04,1,,,,,ブーケ,0
496,2350003002650,登記記録の閉鎖等,0,2025-07-15,2025-06-30,合同会社Ｆａｃｅ　ｔｏ　Ｆａｃｅ,,合同会社,宮崎県,東諸県郡綾町,大字入野１２０７番地,,45,383,8801301,,,2025-06-30,清算の結了等,,,2016-02-10,1,,,,,フエイスツウフエイス,0
515,2430001068347,登記記録の閉鎖等,0,2025-07-15,2025-07-01,株式会社アーセナル,,株式会社,北海道,札幌市中央区,南七条東１丁目１番地２－１２０３,,01,101,0600057,,,2025-07-01,合併による解散等,8430001073408,令和７年７月１日札幌市中央区南七条東一丁目１番地２－１２０３株式会社バイエルン（8430001073408）に合併し解散,2015-10-05,1,,,,,アーセナル,0
551,3010405008782,登記記録の閉鎖等,0,2025-07-15,2025-07-01,一般財団法人インド経済研究所,,その他の設立登記法人,東京都,大田区,山王３丁目３２番１号,,13,111,1430023,,,2025-07-01,清算の結了等,,,2015-10-05,1,,,,,インドケイザイケンキュウジョ,0
597,3012401030803,登記記録の閉鎖等,0,2025-07-15,2025-07-02,株式会社イワオ企画,,株式会社,東京都,武蔵野市,中町１丁目２２番７－３０２号,,13,203,1800006,,,2025-07-02,清算の結了等,,,2015-12-03,1,,,,,イワオキカク,0
603,3013302020075,登記記録の閉鎖等,0,2025-07-15,2025-07-14,有限会社ブロードリバー,,有限会社,東京都,豊島区,池袋４丁目２５番６号,,13,116,1710014,,,2025-07-14,清算の結了等,,,2015-10-05,1,,,,,ブロードリバー,0
608,3020001047754,登記記録の閉鎖等,0,2025-07-15,2025-06-13,株式会社エアリー,,株式会社,東京都,渋谷区,幡ヶ谷３丁目３９番１２号渋谷ウェストビル１階,,13,113,1510072,,,2025-06-13,清算の結了等,,,2015-10-05,1,,,,,エアリー,0
613,3020002071992,登記記録の閉鎖等,0,2025-07-15,2025-07-03,有限会社古賀精工,,有限会社,神奈川県,横浜市瀬谷区,宮沢４丁目１９番地３,,14,114,2460038,,,2025-07-03,清算の結了等,,,2015-10-05,1,,,,,コガセイコウ,0
633,3030001143593,登記記録の閉鎖等,0,2025-07-15,2025-07-07,株式会社Ｍ．Ｒｏａｄ,,株式会社,埼玉県,北本市,山中２丁目２７番地,,11,233,3640004,,,2025-07-07,清算の結了等,,,2021-08-03,1,,,,,エムロード,0
647,3040003019782,登記記録の閉鎖等,0,2025-07-15,2025-07-07,株式会社ＡＢＩＬＩＴＹ．Ｌａｂｏ,,株式会社,東京都,足立区,竹の塚６丁目９番７号オークビル４階４０５,,13,121,1210813,,,2025-07-07,清算の結了等,,,2022-03-30,1,,,,,アビリティラボ,0
656,3070001037536,登記記録の閉鎖等,0,2025-07-15,2025-07-01,関東リフト株式会社,,株式会社,群馬県,高崎市,小八木町１０９４番地４,,10,202,3700071,,,2025-07-01,合併による解散等,9070001036581,令和７年７月１日群馬県高崎市井野町３５３番地５高崎管理株式会社（9070001036581）に合併し解散,2020-12-25,1,,,,,カントウリフト,0
682,3120103005542,登記記録の閉鎖等,0,2025-07-15,2025-07-04,合同会社サンヨ,,合同会社,大阪府,泉佐野市,長滝２１２２番地３,,27,213,5980034,,,2025-07-04,清算の結了等,,,2023-11-21,1,,,,,サンヨ,0
722,3180001154188,登記記録の閉鎖等,0,2025-07-15,2025-06-30,株式会社ＭＡＩＣＥ,,株式会社,愛知県,名古屋市中村区,名駅３丁目４番１０号アルティメイト名駅１ｓｔ２階,,23,105,4500002,,,2025-06-30,清算の結了等,,,2022-12-15,1,,,,,メイス,0
726,3180002005588,登記記録の閉鎖等,0,2025-07-15,2025-07-01,有限会社リーワード,,有限会社,愛知県,名古屋市千種区,池下１丁目３番８号,,23,101,4640067,,,2025-07-01,清算の結了等,,,2015-10-05,1,,,,,リーワード,0
728,3180002081200,登記記録の閉鎖等,0,2025-07-15,2025-07-01,有限会社ピュア,,有限会社,愛知県,稲沢市,赤池山中町２８番,,23,220,4928007,,,2025-07-01,清算の結了等,,,2015-10-05,1,,,,,ピュア,0
744,3230002013949,登記記録の閉鎖等,0,2025-07-15,2025-07-09,有限会社加藤組,,有限会社,富山県,射水市,戸破１７５１番地,,16,211,9390351,,,2025-07-09,清算の結了等,,,2015-10-05,1,,,,,カトウグミ,0
764,3290802015701,登記記録の閉鎖等,0,2025-07-15,2025-07-08,有限会社リテック,,有限会社,福岡県,北九州市八幡西区,永犬丸南町１丁目７番３号,,40,109,8070845,,,2025-07-08,清算の結了等,,,2015-10-05,1,,,,,リテック,0
774,3370001044956,登記記録の閉鎖等,0,2025-07-15,2025-06-16,アピロ株式会社,,株式会社,宮城県,石巻市,あゆみ野２丁目１４番地５,,04,202,9860850,,,2025-06-16,清算の結了等,,,2019-10-17,1,,,,,アピロ,0
775,3370001050269,登記記録の閉鎖等,0,2025-07-15,2025-06-25,株式会社ディーアール・ジャパン,,株式会社,東京都,中央区,銀座３丁目１３番１７号辰中ビル６階,,13,102,1040061,,,2025-06-25,清算の結了等,,,2023-08-09,1,,,,,ディーアールジャパン,0
781,3380002016103,登記記録の閉鎖等,0,2025-07-15,2025-06-26,有限会社五十嵐物商,,有限会社,福島県,二本松市,向作田３番地２９,,07,210,9640801,,,2025-06-26,清算の結了等,,,2015-10-05,1,,,,,イガラシブッショウ,0
783,3400001004725,登記記録の閉鎖等,0,2025-07-15,2025-07-10,ベル盛岡株式会社,,株式会社,岩手県,盛岡市,本宮６丁目７番３５号,,03,201,0200866,,,2025-07-10,合併による解散等,9380001007709,令和７年６月３０日福島県郡山市開成三丁目６番１５号アルファクラブ東北株式会社（9380001007709）に合併し解散,2015-10-05,1,,,,,ベルモリオカ,0
792,3430001085060,登記記録の閉鎖等,0,2025-07-15,2025-07-07,株式会社グラフィックラボ,,株式会社,北海道,札幌市中央区,南三条西５丁目１番地１,,01,101,0600063,,,2025-07-07,合併による解散等,3430001065987,令和７年７月１日札幌市中央区南三条西五丁目１番地１ノルベサ４Ｆ株式会社イクスグラフィック（3430001065987）に合併し解散,2021-10-01,1,,,,,グラフィックラボ,0
800,3450002003077,登記記録の閉鎖等,0,2025-07-15,2025-07-08,有限会社鈴木建築事務所,00090693,有限会社,北海道,旭川市,旭町一条１０丁目６８９番地の１６,,01,204,0700831,,,2025-07-08,清算の結了等,,,2015-10-05,1,,,,,スズキケンチクジムショ,0
801,3450002012862,登記記録の閉鎖等,0,2025-07-15,2025-07-08,有限会社旭工業,,有限会社,北海道,紋別郡雄武町,字雄武２２７番地の５,,01,563,0981702,,,2025-07-08,清算の結了等,,,2015-10-05,1,,,,,アサヒコウギョウ,0
805,3480001002333,登記記録の閉鎖等,0,2025-07-15,2025-07-07,株式会社元木鉄工所,,株式会社,徳島県,徳島市,南矢三町１丁目６番３４号,,36,201,7700005,,,2025-07-07,清算の結了等,,,2015-10-05,1,,,,,モトキテッコウショ,0
827,4010401013240,登記記録の閉鎖等,0,2025-07-15,2025-06-27,株式会社シスプラン,,株式会社,東京都,台東区,鳥越１丁目４番３号,,13,106,1110054,,,2025-06-27,清算の結了等,,,2015-10-05,1,,,,,シスプラン,0
834,4010502022462,登記記録の閉鎖等,0,2025-07-15,2025-07-01,有限会社シンアンドシン,,有限会社,東京都,豊島区,西池袋２丁目２５番１６号,,13,116,1710021,,,2025-07-01,清算の結了等,,,2015-10-05,1,,,,,シンアンドシン,0
842,4010902024323,登記記録の閉鎖等,0,2025-07-15,2025-07-14,株式会社ベリッシモ,,株式会社,東京都,世田谷区,玉川田園調布２丁目５番７号クニドス田園調布４Ｆ,,13,112,1580085,,,2025-07-14,清算の結了等,,,2015-10-05,1,,,,,,0
847,4011003017720,登記記録の閉鎖等,0,2025-07-15,2025-06-17,Ｉｎｆｉｎｉｔｙ合同会社,,合同会社,東京都,渋谷区,神宮前６丁目２３番４号桑野ビル２Ｆ,,13,113,1500001,,,2025-06-17,清算の結了等,,,2023-10-18,1,,,,,インフィニティ,0
852,4011202000386,登記記録の閉鎖等,0,2025-07-15,2025-07-09,アポロ有限会社,,有限会社,東京都,中野区,上高田３丁目３８番７号,,13,114,1640002,,,2025-07-09,清算の結了等,,,2015-10-05,1,,,,,,0
869,4011802006642,登記記録の閉鎖等,0,2025-07-15,2025-07-09,有限会社ふじや百貨店,,有限会社,東京都,葛飾区,新小岩４丁目１１番９号,,13,122,1240024,,,2025-07-09,清算の結了等,,,2015-10-05,1,,,,,フジヤヒャッカテン,0
876,4013301027979,登記記録の閉鎖等,0,2025-07-15,2025-07-01,サードプランニング株式会社,,株式会社,東京都,豊島区,池袋２丁目４２番３号,,13,116,1710014,,,2025-07-01,合併による解散等,8013301028370,令和７年７月１日東京都豊島区池袋二丁目４２番３号パラウェイ株式会社（8013301028370）に合併し解散,2015-10-05,1,,,,,サードプランニング,0
885,4020001044569,登記記録の閉鎖等,0,2025-07-15,2025-07-08,株式会社福田営研,,株式会社,神奈川県,横浜市磯子区,汐見台１丁目３番地１グランドステージ磯子４０３号,,14,107,2350022,,,2025-07-08,清算の結了等,,,2015-10-05,1,,,,,フクダエイケン,0
904,4030001103448,登記記録の閉鎖等,0,2025-07-15,2025-07-07,株式会社ＳＲＣ,,株式会社,埼玉県,富士見市,関沢１丁目７番１５号,,11,235,3540025,,,2025-07-07,清算の結了等,,,2015-10-05,1,,,,,エスアールシー,0
914,4030002098670,登記記録の閉鎖等,0,2025-07-15,2025-07-04,有限会社上野屋酒店,,有限会社,埼玉県,川口市,桜町４丁目３番１２号,,11,203,3340001,,,2025-07-04,清算の結了等,,,2015-10-05,1,,,,,ウエノヤサケテン,0
915,4030002117843,登記記録の閉鎖等,0,2025-07-15,2025-07-04,有限会社シンプソンシステムエンジニアリング,,有限会社,埼玉県,行田市,壱里山町１番３１号,,11,206,3610046,,,2025-07-04,清算の結了等,,,2015-10-05,1,,,,,シンプソンシステムエンジニアリング,0
918,4040001009586,登記記録の閉鎖等,0,2025-07-15,2025-07-01,富士タクシー株式会社,,株式会社,千葉県,千葉市中央区,出洲港１４番６号,,12,101,2600023,,,2025-07-01,合併による解散等,1040001007295,令和７年７月１日千葉市中央区南町三丁目１０番１号三ツ矢タクシー株式会社（1040001007295）に合併し解散,2015-10-05,1,,,,,フジタクシー,0
942,4100002032424,登記記録の閉鎖等,0,2025-07-15,2025-07-08,有限会社アイ・シー・エヌ,,有限会社,長野県,伊那市,中央４９０９番地,,20,209,3960015,,,2025-07-08,清算の結了等,,,2015-10-05,1,,,,,アイシーエヌ,0
959,4120005005540,登記記録の閉鎖等,0,2025-07-15,2025-07-03,医療法人フジイ内科クリニック,,その他の設立登記法人,大阪府,大阪市西区,九条１丁目１３番１１号,,27,106,5500027,,,2025-07-03,清算の結了等,,,2015-10-05,1,,,,,フジイナイカクリニック,0
985,4150002011415,登記記録の閉鎖等,0,2025-07-15,2025-07-11,有限会社とわ,,有限会社,奈良県,吉野郡吉野町,大字楢井４７９番地,00043625,29,441,6393445,,,2025-07-11,清算の結了等,,,2015-10-05,1,,,,,トワ,0
988,4180001004326,登記記録の閉鎖等,0,2025-07-15,2025-06-30,菅化学株式会社,,株式会社,愛知県,名古屋市千種区,千種１丁目１６番１７号,,23,101,4640858,,,2025-06-30,清算の結了等,,,2015-10-05,1,,,,,スガカガク,0
998,4180002056176,登記記録の閉鎖等,0,2025-07-15,2025-07-01,有限会社スコットインターナショナル,,有限会社,愛知県,名古屋市中川区,十一番町２丁目１番地,,23,110,4540056,,,2025-07-01,清算の結了等,,,2015-10-05,1,,,,,スコットインターナショナル,0
999,4180002059906,登記記録の閉鎖等,0,2025-07-15,2025-06-30,有限会社発塗里,,有限会社,愛知県,名古屋市緑区,鳥澄２丁目１１０１番地コーポニュートリスミ２０１号,,23,114,4580025,,,2025-06-30,清算の結了等,,,2015-10-05,1,,,,,ハットリ,0
1002,4180303005096,登記記録の閉鎖等,0,2025-07-15,2025-06-30,シーブイデブ合同会社,,合同会社,愛知県,安城市,今池町２丁目１番１号コープ野村Ｃ－９０５,,23,212,4460071,,,2025-06-30,清算の結了等,,,2021-09-07,1,,,,,シーブイデブ,0
1004,4190001018572,登記記録の閉鎖等,0,2025-07-15,2025-07-02,株式会社Ｓ・Ｔコンサルティングオフィッス,,株式会社,三重県,四日市市,赤堀２丁目１０番９号,,24,202,5100826,,,2025-07-02,清算の結了等,,,2015-10-05,1,,,,,エスティコンサルティングオフィッス,0
1008,4190002023968,登記記録の閉鎖等,0,2025-07-15,2025-07-03,有限会社ホクセイ,,有限会社,三重県,三重郡菰野町,大字田光２３２８番地１,,24,341,5101324,,,2025-07-03,清算の結了等,,,2015-10-05,1,,,,,ホクセイ,0
1018,4240001022833,登記記録の閉鎖等,0,2025-07-15,2025-07-01,株式会社新川西条本店,,株式会社,広島県,東広島市,西条昭和町１４番１号,,34,212,7390014,,,2025-07-01,合併による解散等,3240001024681,令和７年６月３０日広島市安佐南区相田一丁目１５番２１号株式会社新川（3240001024681）に合併し解散,2015-10-05,1,,,,,シンカワサイジョウホンテン,0
1028,4290001035979,登記記録の閉鎖等,0,2025-07-15,2025-06-30,株式会社建栄測量設計,,株式会社,福岡県,那珂川市,片縄西１丁目３番８号,,40,231,8111202,,,2025-06-30,清算の結了等,,,2015-10-05,1,,,,,ケンエイソクリョウセッケイ,0
1044,4310005001322,登記記録の閉鎖等,0,2025-07-15,2025-07-07,医療法人林田歯科医院,,その他の設立登記法人,長崎県,長崎市,矢上町３番２８号,,42,201,8510133,,,2025-07-07,清算の結了等,,,2015-10-05,1,,,,,ハヤシダシカイイン,0
1064,4390001002705,登記記録の閉鎖等,0,2025-07-15,2025-07-10,株式会社サンエー,,株式会社,山形県,山形市,鋳物町３６番地,,06,201,9902351,,,2025-07-10,合併による解散等,3020001074914,令和７年７月１日川崎市川崎区桜本二丁目４４番１号理研アルマイト工業株式会社（3020001074914）に合併し解散,2015-10-05,1,,,,,サンエー,0
1074,4430001069277,登記記録の閉鎖等,0,2025-07-15,2025-07-01,株式会社アストン,,株式会社,北海道,札幌市中央区,南六条東２丁目７－１－６０２,,01,101,0600056,,,2025-07-01,合併による解散等,8430001073408,令和７年７月１日札幌市中央区南七条東一丁目１番地２－１２０３株式会社バイエルン（8430001073408）に合併し解散,2015-10-05,1,,,,,アストン,0
1082,4470002008065,登記記録の閉鎖等,0,2025-07-15,2025-07-04,有限会社正光,,有限会社,香川県,高松市,高松町１６８番地５,,37,201,7610104,,,2025-07-04,清算の結了等,,,2015-10-05,1,,,,,セイコウ,0
1115,5010403019210,登記記録の閉鎖等,0,2025-07-15,2025-06-30,合同会社ＧＲＥＥＮＷＥＬＬ,,合同会社,東京都,港区,北青山１丁目３番１号アールキューブ青山３階,,13,103,1070061,,,2025-06-30,合併による解散等,2010403030822,令和７年６月３０日東京都港区白金六丁目１６番２５－１３０５号合同会社ＣＲＥＥＲ（2010403030822）に合併し解散,2018-08-29,1,,,,,グリーンウェル,0
1117,5010405009969,登記記録の閉鎖等,0,2025-07-15,2025-07-03,一般社団法人リキッドブルー,,その他の設立登記法人,東京都,港区,西新橋２丁目１９番４号,,13,103,1050003,,,2025-07-03,清算の結了等,,,2015-10-05,1,,,,,リキッドブルー,0
1123,5010601057301,登記記録の閉鎖等,0,2025-07-15,2025-06-26,株式会社キツネパパ,,株式会社,東京都,港区,白金６丁目５番７号芝白金ビル１０６号,,13,103,1080072,,,2025-06-26,清算の結了等,,,2020-05-11,1,,,,,キツネパパ,0
1129,5010702007139,登記記録の閉鎖等,0,2025-07-15,2025-07-04,有限会社藤義工務店,,有限会社,東京都,品川区,旗の台５丁目２４番２号,,13,109,1420064,,,2025-07-04,清算の結了等,,,2015-10-05,1,,,,,フジヨシ,0
1130,5010801003360,登記記録の閉鎖等,0,2025-07-15,2025-07-03,株式会社クレンコ,,株式会社,東京都,大田区,中央８丁目２２番１３号,,13,111,1430024,,,2025-07-03,清算の結了等,,,2015-10-05,1,,,,,クレンコ,0
1131,5010802005975,登記記録の閉鎖等,0,2025-07-15,2025-07-03,有限会社サカクラ金型,,有限会社,東京都,大田区,南六郷３丁目２２番１４号,,13,111,1440045,,,2025-07-03,清算の結了等,,,2015-10-05,1,,,,,サカクラカナガタ,0
1134,5011001064813,登記記録の閉鎖等,0,2025-07-15,2025-07-09,株式会社スターガン,,株式会社,東京都,中野区,本町２丁目２９番１２号,,13,114,1640012,,,2025-07-09,清算の結了等,,,2015-10-05,1,,,,,スターガン,0
1139,5011002022175,登記記録の閉鎖等,0,2025-07-15,2025-07-11,エターナルイメージ有限会社,,有限会社,東京都,世田谷区,中町２丁目３番９号,,13,112,1580091,,,2025-07-11,清算の結了等,,,2015-10-05,1,,,,,エターナルイメージ,0
1156,5013302008077,登記記録の閉鎖等,0,2025-07-15,2025-07-01,有限会社パール興業,,有限会社,東京都,豊島区,池袋２丁目３０番１６号,,13,116,1710014,,,2025-07-01,合併による解散等,8013301007440,令和７年７月１日東京都豊島区池袋二丁目３０番１６号中日産業株式会社（8013301007440）に合併し解散,2015-10-05,1,,,,,パールコウギョウ,0
1158,5020001034619,登記記録の閉鎖等,0,2025-07-15,2025-07-01,株式会社ＳＫＧ,,株式会社,神奈川県,横浜市中区,本牧十二天３番１０号,,14,104,2310803,,,2025-07-01,合併による解散等,9020001028492,令和７年７月１日神奈川県横浜市中区本牧十二天３番１０号株式会社ＳＫＧトランスポート（9020001028492）に合併し解散,2015-10-05,1,,,,,エスケージー,0
1174,5030001081742,登記記録の閉鎖等,0,2025-07-15,2025-07-07,株式会社ゲッツエンジニアリング,,株式会社,埼玉県,川口市,領家２丁目２７番１４号ハーベスト柿の木４０７,,11,203,3320004,,,2025-07-07,清算の結了等,,,2015-10-05,1,,,,,ゲッツエンジニアリング,0
1179,5030003026670,登記記録の閉鎖等,0,2025-07-15,2025-07-04,合同会社かるむケア,,合同会社,埼玉県,熊谷市,今井９３９番地１０,,11,202,3600005,,,2025-07-04,清算の結了等,,,2025-05-01,1,,,,,カルムケア,0
1201,5080105005361,登記記録の閉鎖等,0,2025-07-15,2025-07-02,特定非営利活動法人豆游義塾,,その他の設立登記法人,静岡県,賀茂郡河津町,峰５３９番地,,22,302,4130511,,,2025-07-02,清算の結了等,,,2015-10-05,1,,,,,トウユウギジュク,0
1203,5100002007202,登記記録の閉鎖等,0,2025-07-15,2025-07-09,有限会社バウビオハウス,,有限会社,長野県,長野市,中条住良木８４００番地８,,20,201,3813205,,,2025-07-09,清算の結了等,,,2015-10-05,1,,,,,バウビオハウス,0
1243,5140001067929,登記記録の閉鎖等,0,2025-07-15,2025-07-01,株式会社イクサムトータルプランニング,,株式会社,兵庫県,西宮市,甲子園浦風町１１番３号,,28,204,6638165,,,2025-07-01,合併による解散等,3140001069448,令和７年７月１日兵庫県西宮市甲子園浦風町１１番３号株式会社タワヨシ（3140001069448）に合併し解散,2015-10-05,1,,,,,イクサムトータルプランニング,0
1244,5140001089997,登記記録の閉鎖等,0,2025-07-15,2025-07-04,株式会社チューニング,,株式会社,兵庫県,神戸市長田区,長者町３番７号,,28,106,6530866,,,2025-07-04,清算の結了等,,,2015-10-05,1,,,,,チューニング,0
1261,5170001005241,登記記録の閉鎖等,0,2025-07-15,2025-07-10,小林自動機開発株式会社,,株式会社,和歌山県,和歌山市,宇須２丁目３番９号,,30,201,6410043,,,2025-07-10,清算の結了等,,,2015-10-05,1,,,,,,0
1263,5180001027986,登記記録の閉鎖等,0,2025-07-15,2025-06-30,株式会社近喜,,株式会社,愛知県,名古屋市緑区,境松１丁目７０４番地,,23,114,4580820,,,2025-06-30,清算の結了等,,,2015-10-05,1,,,,,コンキ,0
1266,5180001084342,登記記録の閉鎖等,0,2025-07-15,2025-06-30,日本グラスセン株式会社,,株式会社,愛知県,一宮市,起字河田揚２２番地,,23,203,4940006,,,2025-06-30,清算の結了等,,,2015-10-05,1,,,,,ニホングラスセン,0
1268,5180001142273,登記記録の閉鎖等,0,2025-07-15,2025-07-01,株式会社佐々木工務店,,株式会社,愛知県,大府市,東新町４丁目４３０番地,,23,223,4740073,,,2025-07-01,清算の結了等,,,2020-08-07,1,,,,,ササキコウムテン,0
1270,5180001155960,登記記録の閉鎖等,0,2025-07-15,2025-06-30,ＲＩＳＥ株式会社,,株式会社,愛知県,小牧市,大字久保一色２９３２番地７,,23,219,4850003,,,2025-06-30,清算の結了等,,,2023-04-24,1,,,,,ライズ,0
1274,5180301037181,登記記録の閉鎖等,0,2025-07-15,2025-07-14,株式会社アルファ,,株式会社,愛知県,豊川市,大崎町小林１７６番地の２,,23,207,4420007,,,2025-07-14,清算の結了等,,,2023-03-14,1,,,,,アルファ,0
1281,5210001002093,登記記録の閉鎖等,0,2025-07-15,2025-07-11,千代田商亊株式会社,,株式会社,福井県,福井市,本堂町４３字１番地５,,18,201,9188076,,,2025-07-11,清算の結了等,,,2015-10-05,1,,,,,チヨダショウジ,0
1283,5210002009047,登記記録の閉鎖等,0,2025-07-15,2025-07-08,有限会社佐藤建工,,有限会社,福井県,福井市,片粕町第６１号５番地,,18,201,9103603,,,2025-07-08,清算の結了等,,,2015-10-05,1,,,,,サトウケンコウ,0
1291,5240001008666,登記記録の閉鎖等,0,2025-07-15,2025-07-01,株式会社ニュートライ,,株式会社,広島県,広島市中区,立町６番４号,,34,101,7300032,,,2025-07-01,合併による解散等,3240001024681,令和７年６月３０日広島市安佐南区相田一丁目１５番２１号株式会社新川（3240001024681）に合併し解散,2015-10-05,1,,,,,ニュートライ,0
1295,5250001017204,登記記録の閉鎖等,0,2025-07-15,2025-07-01,株式会社データ・キュービック,,株式会社,山口県,下関市,竹崎町４丁目２番３６号,,35,201,7500025,,,2025-07-01,合併による解散等,3250001016050,令和７年７月１日山口県下関市竹崎町四丁目７番２４号株式会社ＹＭＦＧグロースパートナーズ（3250001016050）に合併し解散,2018-06-27,1,,,,,データキュービック,0
1308,5290001002978,登記記録の閉鎖等,0,2025-07-15,2025-06-30,株式会社九銘協,,株式会社,福岡県,福岡市東区,箱崎ふ頭４丁目４番１３号,,40,131,8120051,,,2025-06-30,清算の結了等,,,2015-10-05,1,,,,,キュウメイキョウ,0
1318,5300001013206,登記記録の閉鎖等,0,2025-07-15,2025-07-07,良和建設株式会社,,株式会社,佐賀県,佐賀市,嘉瀬町大字十五１３１７番地１,,41,201,8400863,,,2025-07-07,清算の結了等,,,2023-01-30,1,,,,,リョウワケンセツ,0
1320,5300002001614,登記記録の閉鎖等,0,2025-07-15,2025-07-10,有限会社ユニットｐｌｕｓ．,,有限会社,佐賀県,佐賀市,鍋島４丁目３番１２号,,41,201,8490937,,,2025-07-10,清算の結了等,,,2015-10-05,1,,,,,ユニットプラス,0
1331,5340001015883,登記記録の閉鎖等,0,2025-07-15,2025-07-01,株式会社彩雲,,株式会社,鹿児島県,鹿児島市,石谷町３５８７番地６,,46,201,8992701,,,2025-07-01,清算の結了等,,,2015-10-05,1,,,,,サイウン,0
1340,5360001029824,登記記録の閉鎖等,0,2025-07-15,2025-07-01,波之屋不動産株式会社,,株式会社,沖縄県,国頭郡恩納村,字名嘉真２２８８番地８０ハレアネラ１０３号室,,47,311,9040401,,,2025-07-01,清算の結了等,,,2021-12-28,1,,,,,,0
1349,5430002029196,登記記録の閉鎖等,0,2025-07-15,2025-07-01,有限会社ピージークラフト,,有限会社,北海道,札幌市東区,北二十四条東７丁目２番３号,,01,103,0650024,,,2025-07-01,清算の結了等,,,2015-10-05,1,,,,,ピージークラフト,0
1352,5470001003677,登記記録の閉鎖等,0,2025-07-15,2025-07-07,株式会社プランニング・アート,,株式会社,香川県,高松市,檀紙町２０７３番地１,,37,201,7618041,,,2025-07-07,清算の結了等,,,2015-10-05,1,,,,,プランニングアート,0
1364,6010001012715,登記記録の閉鎖等,0,2025-07-15,2025-07-07,株式会社エポックワールド,,株式会社,埼玉県,越谷市,赤山町２丁目１３５番地,,11,222,3430807,,,2025-07-07,清算の結了等,,,2015-10-05,1,,,,,エポックワールド,0
1373,6010003041175,登記記録の閉鎖等,0,2025-07-15,2025-06-19,ラーヒルジャパン合同会社,,合同会社,東京都,千代田区,丸の内３丁目２番２号丸の内二重橋ビル２階,,13,101,1000005,,,2025-06-19,清算の結了等,,,2023-07-26,1,,,,,ラーヒルジャパン,0
1377,6010401061007,登記記録の閉鎖等,0,2025-07-15,2025-07-01,株式会社インド経済フォーラム,,株式会社,東京都,大田区,山王３丁目３２番１号,,13,111,1430023,,,2025-07-01,清算の結了等,,,2015-10-05,1,,,,,インドケイザイフォーラム,0
1396,6010802014273,登記記録の閉鎖等,0,2025-07-15,2025-07-07,有限会社宮田不動産,,有限会社,東京都,大田区,東雪谷２丁目８番３号,,13,111,1450065,,,2025-07-07,清算の結了等,,,2015-10-05,1,,,,,ミヤタフドウサン,0
1402,6011001132791,登記記録の閉鎖等,0,2025-07-15,2025-07-04,株式会社ゼロワン,,株式会社,東京都,渋谷区,渋谷３丁目１番８号,,13,113,1500002,,,2025-07-04,合併による解散等,6010901034511,令和７年７月１日東京都渋谷区渋谷三丁目１番８号アスクレピオス製薬株式会社（6010901034511）に合併し解散,2020-03-09,1,,,,,ゼロワン,0
1431,6011802009916,登記記録の閉鎖等,0,2025-07-15,2025-07-04,有限会社今組,,有限会社,埼玉県,吉川市,美南１丁目１６番１５号,,11,243,3420038,,,2025-07-04,清算の結了等,,,2015-10-05,1,,,,,コングミ,0
1439,6020001000058,登記記録の閉鎖等,0,2025-07-15,2025-07-03,株式会社エイダイ,,株式会社,神奈川県,横浜市栄区,元大橋１丁目３８番８号,,14,115,2470011,,,2025-07-03,清算の結了等,,,2015-10-05,1,,,,,エイダイ,0
1442,6020001080819,登記記録の閉鎖等,0,2025-07-15,2025-07-03,株式会社光明印刷,,株式会社,神奈川県,川崎市幸区,塚越４丁目３４５番地３,,14,132,2120024,,,2025-07-03,清算の結了等,,,2015-10-05,1,,,,,コウメイインサツ,0
1445,6020002044467,登記記録の閉鎖等,0,2025-07-15,2025-07-03,有限会社ヴァレ,,有限会社,神奈川県,横浜市泉区,領家２丁目１番地９,,14,116,2450004,,,2025-07-03,清算の結了等,,,2015-10-05,1,,,,,ヴァレ,0
1453,6030001021152,登記記録の閉鎖等,0,2025-07-15,2025-07-04,日本シルバーケア株式会社,,株式会社,埼玉県,蕨市,南町３丁目２９番１１号,,11,223,3350003,,,2025-07-04,清算の結了等,,,2015-10-05,1,,,,,ニホンシルバーケア,0
1462,6030002047766,登記記録の閉鎖等,0,2025-07-15,2025-07-03,有限会社古川工業,,有限会社,埼玉県,八潮市,大字鶴ケ曽根１５６４番地１０,,11,234,3400802,,,2025-07-03,清算の結了等,,,2015-10-05,1,,,,,フルカワコウギョウ,0
1467,6040001065363,登記記録の閉鎖等,0,2025-07-15,2025-07-11,カタオカプラセス株式会社,,株式会社,千葉県,柏市,逆井４３１番地の１０,,12,217,2770042,,,2025-07-11,合併による解散等,2010601007011,令和７年７月１日東京都江東区亀戸六丁目１番１０号株式会社リングストン（2010601007011）に合併し解散,2015-10-05,1,,,,,カタオカプラセス,0
1503,6120102021430,登記記録の閉鎖等,0,2025-07-15,2025-07-07,有限会社西安商店,,有限会社,大阪府,岸和田市,北町１０番１１号,,27,202,5960056,,,2025-07-07,清算の結了等,,,2015-10-05,1,,,,,,0
1510,6130002028715,登記記録の閉鎖等,0,2025-07-15,2025-07-03,有限会社カモテック南丹,,有限会社,京都府,南丹市,園部町横田温井５６番地,,26,213,6220051,,,2025-07-03,清算の結了等,,,2015-10-05,1,,,,,カモテックナンタン,0
1512,6140001002430,登記記録の閉鎖等,0,2025-07-15,2025-07-04,株式会社フラスター,,株式会社,兵庫県,神戸市中央区,浜辺通６丁目１番１－１０２０号,,28,110,6510083,,,2025-07-04,清算の結了等,,,2015-10-05,1,,,,,フラスター,0
1515,6140001059644,登記記録の閉鎖等,0,2025-07-15,2025-07-07,妹尾印刷株式会社,,株式会社,兵庫県,姫路市,西今宿１丁目２番２０号,,28,201,6700061,,,2025-07-07,清算の結了等,,,2015-10-05,1,,,,,セノオインサツ,0
1536,6170002006329,登記記録の閉鎖等,0,2025-07-15,2025-07-11,有限会社信和商事,,有限会社,和歌山県,海南市,井田２５番地,,30,202,6420021,,,2025-07-11,清算の結了等,,,2015-10-05,1,,,,,シンワショウジ,0
1537,6180001024438,登記記録の閉鎖等,0,2025-07-15,2025-06-30,株式会社ヤマイチ製作所,,株式会社,愛知県,名古屋市天白区,井の森町６６番地,,23,116,4680047,,,2025-06-30,清算の結了等,,,2015-10-05,1,,,,,ヤマイチセイサクショ,0
1542,6180001139888,登記記録の閉鎖等,0,2025-07-15,2025-06-30,株式会社テック司,,株式会社,愛知県,豊明市,栄町殿ノ山２８番地３２,,23,229,4701161,,,2025-06-30,清算の結了等,,,2020-01-30,1,,,,,テックツカサ,0
1551,6180002073616,登記記録の閉鎖等,0,2025-07-15,2025-06-30,有限会社ケアサービスながさき,,有限会社,愛知県,瀬戸市,緑町１丁目１９番地,,23,204,4890875,,,2025-06-30,清算の結了等,,,2015-10-05,1,,,,,ケアサービスナガサキ,0
1553,6180005016258,登記記録の閉鎖等,0,2025-07-15,2025-07-02,一般社団法人不動産相談センター,,その他の設立登記法人,愛知県,名古屋市千種区,徳川山町３丁目３番２号,,23,101,4640031,,,2025-07-02,清算の結了等,,,2015-10-05,1,,,,,フドウサンソウダンセンター,0
1564,6240002007518,登記記録の閉鎖等,0,2025-07-15,2025-07-01,有限会社シンセイ,,有限会社,広島県,広島市佐伯区,楽々園４丁目７番１０号,,34,108,7315136,,,2025-07-01,合併による解散等,3240001024681,令和７年６月３０日広島市安佐南区相田一丁目１５番２１号株式会社新川（3240001024681）に合併し解散,2015-10-05,1,,,,,シンセイ,0
1566,6250001017822,登記記録の閉鎖等,0,2025-07-15,2025-07-01,株式会社ＹＭキャリア,,株式会社,山口県,下関市,竹崎町４丁目２番３６号,,35,201,7500025,,,2025-07-01,合併による解散等,3250001016050,令和７年７月１日山口県下関市竹崎町四丁目７番２４号株式会社ＹＭＦＧグロースパートナーズ（3250001016050）に合併し解散,2019-07-24,1,,,,,ワイエムキャリア,0
1584,6290805001043,登記記録の閉鎖等,0,2025-07-15,2025-07-01,医療法人マリアの会,,その他の設立登記法人,福岡県,北九州市戸畑区,夜宮２丁目９番２６号,,40,105,8040042,,,2025-07-01,清算の結了等,,,2015-10-05,1,,,,,マリアノカイ,0
1587,6300002006232,登記記録の閉鎖等,0,2025-07-15,2025-07-09,有限会社秀豊工芸,,有限会社,佐賀県,嬉野市,嬉野町大字不動山甲６番地,,41,209,8430305,,,2025-07-09,清算の結了等,,,2015-10-05,1,,,,,シュウホウコウゲイ,0
1600,6430001074176,登記記録の閉鎖等,0,2025-07-15,2025-07-01,アイコンサルタント株式会社,,株式会社,北海道,札幌市白石区,米里二条２丁目３番２１号,,01,104,0030872,,,2025-07-01,合併による解散等,8430001058458,令和７年７月１日札幌市白石区米里二条二丁目３番２１号株式会社札幌工業検査（8430001058458）に合併し解散,2017-05-30,1,,,,,アイコンサルタント,0
1612,6460102001118,登記記録の閉鎖等,0,2025-07-15,2025-07-08,株式会社後藤商会,,株式会社,北海道,河西郡芽室町,東芽室北１線８番地,,01,637,0820004,,,2025-07-08,合併による解散等,1430001082464,令和７年７月１日札幌市西区発寒十五条十三丁目３番４０号株式会社北海道ＢＰセンター（1430001082464）に合併し解散,2015-10-05,1,,,,,ゴトウショウカイ,0
1615,6500002008712,登記記録の閉鎖等,0,2025-07-15,2025-07-07,有限会社リトルマーメイド・マサキ,,有限会社,愛媛県,伊予郡松前町,大字筒井３１６番地,,38,401,7913120,,,2025-07-07,清算の結了等,,,2015-10-05,1,,,,,リトルマーメイドマサキ,0
1627,7010403014580,登記記録の閉鎖等,0,2025-07-15,2025-06-27,イワケン合同会社,,合同会社,東京都,港区,赤坂６丁目１０番６号,,13,103,1070052,,,2025-06-27,清算の結了等,,,2016-03-17,1,,,,,イワケン,0
1645,7010801031624,登記記録の閉鎖等,0,2025-07-15,2025-07-04,株式会社ＤＵＣＮＥＴ,,株式会社,東京都,大田区,新蒲田１丁目１７番２５号富士通ソリューションスクエア内,,13,111,1440054,,,2025-07-04,清算の結了等,,,2021-02-01,1,,,,,ディーユーシーネット,0
1648,7010901042100,登記記録の閉鎖等,0,2025-07-15,2025-07-03,イングリッシュブートキャンプ株式会社,,株式会社,東京都,世田谷区,玉川３丁目１５番１６号金原ビル４Ｆ,,13,112,1580094,,,2025-07-03,合併による解散等,4010901028713,令和７年６月２７日東京都世田谷区玉川二丁目１４番７号グローバルアストロラインズ株式会社（4010901028713）に合併し解散,2018-05-21,1,,,,,イングリッシュブートキャンプ,0
1651,7010903005856,登記記録の閉鎖等,0,2025-07-15,2025-07-11,合同会社城南プロパティーズ,,合同会社,東京都,港区,元赤坂１丁目１番７－１００６号,,13,103,1070051,,,2025-07-11,合併による解散等,9010401121220,令和７年７月１日東京都世田谷区玉川三丁目１５番１２－２０８号株式会社グリーン・キャピタル（9010401121220）に合併し解散,2020-07-30,1,,,,,ジョウナンプロパティーズ,0
1652,7011001021853,登記記録の閉鎖等,0,2025-07-15,2025-06-16,株式会社保谷住宅設備,,株式会社,東京都,渋谷区,笹塚２丁目２７番５号,,13,113,1510073,,,2025-06-16,清算の結了等,,,2025-05-07,1,,,,,ホウヤジュウタクセツビ,0
1654,7011001043798,登記記録の閉鎖等,0,2025-07-15,2025-07-09,株式会社スフィアフレーム,,株式会社,東京都,中野区,本町２丁目２９番１２号,,13,114,1640012,,,2025-07-09,清算の結了等,,,2015-10-05,1,,,,,スフィアフレーム,0
1657,7011001132790,登記記録の閉鎖等,0,2025-07-15,2025-07-04,ネクスト製薬株式会社,,株式会社,東京都,渋谷区,渋谷３丁目１番８号,,13,113,1500002,,,2025-07-04,合併による解散等,6010901034511,令和７年７月１日東京都渋谷区渋谷三丁目１番８号アスクレピオス製薬株式会社（6010901034511）に合併し解散,2020-03-09,1,,,,,ネクストセイヤク,0
1661,7011101002976,登記記録の閉鎖等,0,2025-07-15,2025-07-14,株式会社エスエヌコーポレーション,,株式会社,東京都,世田谷区,南烏山４丁目２３番８号,,13,112,1570062,,,2025-07-14,清算の結了等,,,2015-10-05,1,,,,,エスエヌコーポレーション,0
1664,7011101097430,登記記録の閉鎖等,0,2025-07-15,2025-06-19,株式会社ＮＥＲＡ,,株式会社,東京都,新宿区,西新宿７丁目７番２５号３Ｆ,,13,104,1600023,,,2025-06-19,清算の結了等,,,2022-01-11,1,,,,,ネラ,0
1666,7011102000005,登記記録の閉鎖等,0,2025-07-15,2025-07-02,有限会社アイ・エー・ジェイ,,有限会社,東京都,中央区,新川２丁目１３番８号,,13,102,1040033,,,2025-07-02,合併による解散等,7010001063088,令和７年７月１日東京都中央区新川二丁目１３番８号株式会社三ツ和（7010001063088）に合併し解散,2015-10-05,1,,,,,アイエージェイ,0
1672,7011601001577,登記記録の閉鎖等,0,2025-07-15,2025-07-01,株式会社関東デリカフーズ,,株式会社,東京都,練馬区,高野台１丁目１２番１８号,,13,120,1770033,,,2025-07-01,合併による解散等,9011601011302,令和７年７月１日東京都練馬区高野台一丁目１２番１８号株式会社丸金（9011601011302）に合併し解散,2015-10-05,1,,,,,カントウデリカフーズ,0
1678,7012801001219,登記記録の閉鎖等,0,2025-07-15,2025-07-01,株式会社ナカムラ電器,,株式会社,東京都,立川市,栄町６丁目１６番地の１,,13,202,1900003,,,2025-07-01,清算の結了等,,,2015-10-05,1,,,,,ナカムラデンキ,0
1682,7013301045268,登記記録の閉鎖等,0,2025-07-15,2025-07-14,株式会社東京賃貸,,株式会社,東京都,豊島区,南大塚３丁目１１番９号増原ビル３階,,13,116,1700005,,,2025-07-14,清算の結了等,,,2020-02-28,1,,,,,トウキョウチンタイ,0
1686,7013302001823,登記記録の閉鎖等,0,2025-07-15,2025-07-01,有限会社エコデザイン,,有限会社,東京都,豊島区,巣鴨４丁目５番１０号,,13,116,1700002,,,2025-07-01,清算の結了等,,,2015-10-05,1,,,,,エコデザイン,0
1689,7020002006986,登記記録の閉鎖等,0,2025-07-15,2025-07-07,有限会社三ツ星工業,,有限会社,神奈川県,横浜市緑区,上山２丁目３７番１８号,,14,113,2260012,,,2025-07-07,清算の結了等,,,2015-10-05,1,,,,,ミツボシコウギョウ,0
1690,7020002088257,登記記録の閉鎖等,0,2025-07-15,2025-07-07,有限会社アドプス,,有限会社,神奈川県,川崎市高津区,下作延６丁目７番２２号,,14,134,2130033,,,2025-07-07,清算の結了等,,,2015-10-05,1,,,,,アドプス,0
1697,7021003011629,登記記録の閉鎖等,0,2025-07-15,2025-06-30,合同会社ＡＮＪ,,合同会社,神奈川県,相模原市中央区,由野台１丁目１番７号,,14,152,2520222,,,2025-06-30,清算の結了等,,,2022-05-02,1,,,,,エーエヌジェイ,0
1723,7060001021611,登記記録の閉鎖等,0,2025-07-15,2025-07-03,株式会社フジガエメディカル,,株式会社,栃木県,小山市,大字羽川４０番地１３,,09,208,3230012,,,2025-07-03,清算の結了等,,,2015-10-05,1,,,,,フジガエメディカル,0
1739,7090001017788,登記記録の閉鎖等,0,2025-07-15,2025-06-18,Ｐｅｔ　Ａｄｏｒａｂｌｅ株式会社,,株式会社,山梨県,甲府市,中央５丁目６－２１,,19,201,4000032,,,2025-06-18,清算の結了等,,,2022-09-28,1,,,,,ペットアドラブル,0
1750,7120001233943,登記記録の閉鎖等,0,2025-07-15,2025-07-08,株式会社ＤＫＦ,,株式会社,兵庫県,西宮市,満池谷町８－３１－３０４,,28,204,6620031,,,2025-07-08,清算の結了等,,,2020-12-18,1,,,,,ディーケーエフ,0
1762,7120101007264,登記記録の閉鎖等,0,2025-07-15,2025-07-01,株式会社モトキ商会,,株式会社,大阪府,堺市堺区,出島浜通５番１８号,,27,141,5900832,,,2025-07-01,清算の結了等,,,2015-10-05,1,,,,,モトキショウカイ,0
1776,7140001129264,登記記録の閉鎖等,0,2025-07-15,2025-07-03,株式会社ＹＢＳＫ,,株式会社,兵庫県,丹波篠山市,住吉台６９－３,,28,221,6692231,,,2025-07-03,清算の結了等,,,2023-03-08,1,,,,,ワイビーエスケー,0
1788,7170001010149,登記記録の閉鎖等,0,2025-07-15,2025-07-10,株式会社日高観光,,株式会社,和歌山県,御坊市,湯川町丸山２０番地の１,,30,205,6440013,,,2025-07-10,清算の結了等,,,2015-10-05,1,,,,,ヒダカカンコウ,0
1792,7180001097169,登記記録の閉鎖等,0,2025-07-15,2025-06-30,杉本建築サービス株式会社,,株式会社,愛知県,名古屋市中区,正木４丁目１０番１５号,,23,106,4600024,,,2025-06-30,清算の結了等,,,2015-10-05,1,,,,,スギモトケンチクサービス,0
1793,7180001112547,登記記録の閉鎖等,0,2025-07-15,2025-06-30,株式会社コンティニュー,,株式会社,愛知県,大府市,梶田町２丁目８８番地の１,,23,223,4740071,,,2025-06-30,合併による解散等,7180002084678,令和７年６月３０日愛知県大府市追分町一丁目２０４番地株式会社オーツーファニチャー（7180002084678）に合併し解散,2015-10-05,1,,,,,コンティニュー,0
1813,7190003003248,登記記録の閉鎖等,0,2025-07-15,2025-07-01,合同会社ＳＴＲＡＩＮＳ,,合同会社,三重県,多気郡多気町,丹生１７１８番地１,,24,441,5192211,,,2025-07-01,合併による解散等,5190001011840,令和７年７月１日三重県多気郡多気町丹生１３３２番地の２株式会社地域資源バンクＮＩＵ（5190001011840）に合併し解散,2019-12-09,1,,,,,ストレインズ,0
1821,7230002007922,登記記録の閉鎖等,0,2025-07-15,2025-07-04,有限会社よねや,,有限会社,富山県,魚津市,中央通り２丁目６番９号,,16,204,9370055,,,2025-07-04,清算の結了等,,,2015-10-05,1,,,,,,0
1825,7240002007509,登記記録の閉鎖等,0,2025-07-15,2025-07-01,有限会社シンカワジユエリー,,有限会社,広島県,広島市安佐北区,可部３丁目８番３６号,,34,106,7310221,,,2025-07-01,合併による解散等,3240001024681,令和７年６月３０日広島市安佐南区相田一丁目１５番２１号株式会社新川（3240001024681）に合併し解散,2015-10-05,1,,,,,シンカワジユエリー,0
1828,7250001004290,登記記録の閉鎖等,0,2025-07-15,2025-07-07,山陽火薬株式会社,,株式会社,山口県,美祢市,伊佐町伊佐４８７０番地,,35,213,7592222,,,2025-07-07,清算の結了等,,,2015-10-05,1,,,,,サンヨウカヤク,0
1834,7290001080948,登記記録の閉鎖等,0,2025-07-15,2025-06-30,株式会社ＥＴＰ,,株式会社,福岡県,福岡市博多区,博多駅前３丁目２８番４号,,40,132,8120011,,,2025-06-30,清算の結了等,,,2018-04-20,1,,,,,,0
1838,7290002044076,登記記録の閉鎖等,0,2025-07-15,2025-06-30,有限会社ミネ装工,,有限会社,福岡県,朝倉郡筑前町,依井５２７番地,,40,447,8380813,,,2025-06-30,清算の結了等,,,2015-10-05,1,,,,,ミネソウコウ,0
1857,7330001015783,登記記録の閉鎖等,0,2025-07-15,2025-07-01,株式会社サンタ不動産,,株式会社,熊本県,熊本市南区,江越２丁目４番７号,,43,104,8600834,,,2025-07-01,合併による解散等,5330001002180,令和７年７月１日熊本市南区馬渡二丁目１２番３５号株式会社シアーズホーム（5330001002180）に合併し解散,2015-10-05,1,,,,,サンタフドウサン,0
1870,7430001069274,登記記録の閉鎖等,0,2025-07-15,2025-07-01,株式会社ストーク,,株式会社,北海道,札幌市中央区,南六条東２丁目７－１－６０２,,01,101,0600056,,,2025-07-01,合併による解散等,8430001073408,令和７年７月１日札幌市中央区南七条東一丁目１番地２－１２０３株式会社バイエルン（8430001073408）に合併し解散,2015-10-05,1,,,,,ストーク,0
1880,7470002004375,登記記録の閉鎖等,0,2025-07-15,2025-07-04,有限会社高野屋,,有限会社,香川県,高松市,楠上町２丁目３番７－７０９号アルファパーク栗林駅南,,37,201,7600075,,,2025-07-04,清算の結了等,,,2015-10-05,1,,,,,タカノヤ,0
1906,8010405017944,登記記録の閉鎖等,0,2025-07-15,2025-06-26,一般社団法人Ａ．Ｐ．１０,,その他の設立登記法人,東京都,港区,元赤坂１丁目１番８号赤坂コミュニティビル４階,,13,103,1070051,,,2025-06-26,清算の結了等,,,2019-08-07,1,,,,,エーピーテン,0
1923,8011001020268,登記記録の閉鎖等,0,2025-07-15,2025-06-17,株式会社フイルムフェイス,,株式会社,東京都,渋谷区,桜丘町１３番１０号,,13,113,1500031,,,2025-06-17,清算の結了等,,,2015-10-05,1,,,,,フイルムフェイス,0
1924,8011001021646,登記記録の閉鎖等,0,2025-07-15,2025-06-13,北進エンジニアリング株式会社,,株式会社,東京都,渋谷区,松濤１丁目２８番６号,,13,113,1500046,,,2025-06-13,清算の結了等,,,2015-10-05,1,,,,,ホクシンエンジニアリング,0
1925,8011001123145,登記記録の閉鎖等,0,2025-07-15,2025-07-04,株式会社アクア,,株式会社,東京都,渋谷区,渋谷３丁目１番８号,,13,113,1500002,,,2025-07-04,合併による解散等,6010901034511,令和７年７月１日東京都渋谷区渋谷三丁目１番８号アスクレピオス製薬株式会社（6010901034511）に合併し解散,2018-07-06,1,,,,,アクア,0
1938,8011102010481,登記記録の閉鎖等,0,2025-07-15,2025-06-20,有限会社ビー・エス・シー・,,有限会社,東京都,新宿区,新宿１丁目２４番７号ルネ御苑プラザ１２１７号室,,13,104,1600022,,,2025-06-20,清算の結了等,,,2015-10-05,1,,,,,ビーエスシー,0
1939,8011103007527,登記記録の閉鎖等,0,2025-07-15,2025-06-23,合同会社オイスターズ,,合同会社,東京都,新宿区,新宿１丁目３６番２号新宿第七葉山ビル３階,,13,104,1600022,,,2025-06-23,清算の結了等,,,2017-12-12,1,,,,,オイスターズ,0
1944,8011401017079,登記記録の閉鎖等,0,2025-07-15,2025-07-09,株式会社今川編集工房,,株式会社,東京都,板橋区,弥生町６１番６－４０７号,,13,119,1730021,,,2025-07-09,清算の結了等,,,2015-10-05,1,,,,,イマガワヘンシュウコウボウ,0
1957,8012401030815,登記記録の閉鎖等,0,2025-07-15,2025-07-02,株式会社スペースクローバー,,株式会社,東京都,小金井市,緑町１丁目６番５０号,,13,210,1840003,,,2025-07-02,清算の結了等,,,2015-12-04,1,,,,,スペースクローバー,0
1963,8013301005989,登記記録の閉鎖等,0,2025-07-15,2025-07-14,シンワ技研株式会社,,株式会社,東京都,豊島区,東池袋２丁目１７番２号,,13,116,1700013,,,2025-07-14,清算の結了等,,,2015-10-05,1,,,,,シンワギケン,0
1966,8013301047684,登記記録の閉鎖等,0,2025-07-15,2025-07-01,株式会社ＨＲ　ＰＲＩＭＥ,,株式会社,東京都,豊島区,池袋２丁目４３番１号,,13,116,1710014,,,2025-07-01,合併による解散等,2013301019714,令和７年７月１日東京都豊島区池袋二丁目４３番１号株式会社パワーエッジ（2013301019714）に合併し解散,2021-07-05,1,,,,,エイチアールプライム,0
1968,8020001029252,登記記録の閉鎖等,0,2025-07-15,2025-07-07,山本工業株式会社,,株式会社,神奈川県,横浜市中区,万代町２丁目４番地の５,,14,104,2310031,,,2025-07-07,清算の結了等,,,2025-06-26,1,,,,,ヤマモトコウギョウ,0
1974,8020002104822,登記記録の閉鎖等,0,2025-07-15,2025-07-09,アバックス有限会社,,有限会社,神奈川県,川崎市高津区,久地４丁目２４番５号,,14,134,2130032,,,2025-07-09,合併による解散等,7350001013612,令和７年７月１日宮崎市大字芳士６０７番地株式会社ドリームブロッサム（7350001013612）に合併し解散,2015-10-05,1,,,,,アバックス,0
1975,8020003020845,登記記録の閉鎖等,0,2025-07-15,2025-07-07,丸ばす合同会社,,合同会社,神奈川県,川崎市宮前区,平４丁目４番２１－２０５号,,14,136,2160022,,,2025-07-07,清算の結了等,,,2021-11-17,1,,,,,マルバス,0
1977,8021001013403,登記記録の閉鎖等,0,2025-07-15,2025-07-02,ナカエンタープライズ株式会社,,株式会社,東京都,中央区,新川２丁目１３番８号,,13,102,1040033,,,2025-07-02,合併による解散等,7010001063088,令和７年７月１日東京都中央区新川二丁目１３番８号株式会社三ツ和（7010001063088）に合併し解散,2015-10-05,1,,,,,ナカエンタープライズ,0
1985,8030001086648,登記記録の閉鎖等,0,2025-07-15,2025-07-07,株式会社リアルホーム,,株式会社,埼玉県,深谷市,国済寺５７番地,,11,218,3660033,,,2025-07-07,清算の結了等,,,2015-10-05,1,,,,,リアルホーム,0
1987,8030002000707,登記記録の閉鎖等,0,2025-07-15,2025-07-04,有限会社安清商亊,,有限会社,埼玉県,さいたま市北区,日進町１丁目７１５番地,,11,102,3310823,,,2025-07-04,清算の結了等,,,2015-10-05,1,,,,,アンセイショウジ,0
1988,8030002025183,登記記録の閉鎖等,0,2025-07-15,2025-07-07,有限会社根本印刷,,有限会社,埼玉県,戸田市,笹目８丁目８番地の１０,,11,224,3350034,,,2025-07-07,清算の結了等,,,2015-10-05,1,,,,,ネモトインサツ,0
1989,8030002060858,登記記録の閉鎖等,0,2025-07-15,2025-07-04,有限会社小野沢鈑金,,有限会社,埼玉県,新座市,大和田３丁目４番６号,,11,230,3520004,,,2025-07-04,清算の結了等,,,2015-10-05,1,,,,,オノザワバンキン,0
2017,8080101006170,登記記録の閉鎖等,0,2025-07-15,2025-07-07,株式会社フジカラーフォトセンター,,株式会社,静岡県,三島市,中島１９９番地の１,,22,206,4110814,,,2025-07-07,清算の結了等,,,2015-10-05,1,,,,,フジカラーフォトセンター,0
2028,8100005012502,登記記録の閉鎖等,0,2025-07-15,2025-07-04,特定非営利活動法人ライフワーク・レインボー,,その他の設立登記法人,長野県,上水内郡信濃町,大字穂波１４４６番地,,20,583,3891314,,,2025-07-04,清算の結了等,,,2019-12-24,1,,,,,ライフワークレインボー,0
2033,8120001114507,登記記録の閉鎖等,0,2025-07-15,2025-07-03,株式会社ＨＡＲＥＲＵ,,株式会社,東京都,江東区,豊洲５丁目６番２９－１７３４号,,13,108,1350061,,,2025-07-03,清算の結了等,,,2015-10-05,1,,,,,ハレル,0
2078,8150001019934,登記記録の閉鎖等,0,2025-07-15,2025-07-14,株式会社晃貴,,株式会社,奈良県,五條市,岡町５１７番地の１,,29,207,6370092,,,2025-07-14,清算の結了等,,,2015-10-05,1,,,,,コウキ,0
2083,8180001058005,登記記録の閉鎖等,0,2025-07-15,2025-07-01,株式会社エヌティートレーディング,,株式会社,愛知県,名古屋市北区,若葉通５丁目６番地,,23,103,4620854,,,2025-07-01,清算の結了等,,,2015-10-05,1,,,,,エヌティートレーディング,0
2084,8180001073607,登記記録の閉鎖等,0,2025-07-15,2025-06-30,株式会社アイワ,,株式会社,愛知県,春日井市,細木町２丁目６番地,,23,206,4860937,,,2025-06-30,清算の結了等,,,2015-10-05,1,,,,,アイワ,0
2085,8180001084406,登記記録の閉鎖等,0,2025-07-15,2025-07-01,丸五毛織株式会社,,株式会社,愛知県,一宮市,小信中島字郷北２１番地,,23,203,4940007,,,2025-07-01,清算の結了等,,,2015-10-05,1,,,,,マルゴケオリ,0
2087,8180001098892,登記記録の閉鎖等,0,2025-07-15,2025-07-01,株式会社後藤商会,,株式会社,愛知県,名古屋市北区,田幡２丁目３番２号,,23,103,4620843,,,2025-07-01,清算の結了等,,,2015-10-05,1,,,,,ゴトウショウカイ,0
2094,8180002031885,登記記録の閉鎖等,0,2025-07-15,2025-07-01,有限会社デザインワークス・ハムロ,,有限会社,愛知県,名古屋市天白区,植田１丁目６０５番地,,23,116,4680051,,,2025-07-01,清算の結了等,,,2015-10-05,1,,,,,デザインワークスハムロ,0
2097,8180003025176,登記記録の閉鎖等,0,2025-07-15,2025-06-30,合同会社ＡＷＥＳＯＭＥ　ＪＡＰＡＮ,,合同会社,愛知県,名古屋市東区,矢田２丁目１５番７号モアグレース大曽根東２０３号,,23,102,4610040,,,2025-06-30,清算の結了等,,,2023-05-08,1,,,,,オウサムジャパン,0
2098,8180005017675,登記記録の閉鎖等,0,2025-07-15,2025-06-30,社会保険労務士法人Ａ＆Ｊ,,その他の設立登記法人,愛知県,名古屋市中区,栄２丁目２番２３号アーク白川公園ビルディング本館０７０１,,23,106,4600008,,,2025-06-30,清算の結了等,,,2018-02-09,1,,,,,エーアンドジェイ,0
2105,8210001000937,登記記録の閉鎖等,0,2025-07-15,2025-07-11,株式会社技研設計,,株式会社,福井県,福井市,舞屋町第６号３番地１,,18,201,9188024,,,2025-07-11,合併による解散等,8021001034028,令和７年６月３０日横浜市西区久保町５番２０号株式会社技研コンサルタント（8021001034028）に合併し解散,2015-10-05,1,,,,,ギケンセッケイ,0
2108,8240002003845,登記記録の閉鎖等,0,2025-07-15,2025-07-01,有限会社カシワテクノ,,有限会社,広島県,広島市安佐北区,安佐町大字久地字戸崎１２２０番,,34,106,7313362,,,2025-07-01,合併による解散等,6240001062019,令和７年７月１日広島市中区大手町二丁目８番４号ＦＬＹＩＮＧ　ＳＯＵＴＨ　ＧＲＯＵＰ株式会社（6240001062019）に合併し解散,2015-10-05,1,,,,,カシワテクノ,0
2109,8250005004831,登記記録の閉鎖等,0,2025-07-15,2025-07-07,医療法人社団山本内科胃腸科,,その他の設立登記法人,山口県,萩市,大字椿東４１６２番地,,35,204,7580011,,,2025-07-07,清算の結了等,,,2015-10-05,1,,,,,ヤマモトナイカイチョウカ,0
2120,8290001045306,登記記録の閉鎖等,0,2025-07-15,2025-07-01,株式会社佐久間組,,株式会社,福岡県,嘉麻市,飯田２１２番地の１,,40,227,8200501,,,2025-07-01,清算の結了等,,,2015-10-05,1,,,,,サクマグミ,0
2137,8340005002702,登記記録の閉鎖等,0,2025-07-15,2025-06-30,医療法人有仁会,,その他の設立登記法人,鹿児島県,伊佐市,大口里２９２７番地,,46,224,8952511,,,2025-06-30,清算の結了等,,,2015-10-05,1,,,,,ユウジンカイ,0
2139,8350002016472,登記記録の閉鎖等,0,2025-07-15,2025-07-01,有限会社宇賀村タクシー,,有限会社,宮崎県,日南市,大堂津３丁目１１番９号,,45,204,8893141,,,2025-07-01,清算の結了等,,,2015-10-05,1,,,,,ウガムラタクシー,0
2143,8370002019969,登記記録の閉鎖等,0,2025-07-15,2025-06-30,有限会社カトーカメラ,,有限会社,宮城県,黒川郡大和町,吉岡字中町２２番地,,04,421,9813621,,,2025-06-30,清算の結了等,,,2015-10-05,1,,,,,カトーカメラ,0
2151,8430001069026,登記記録の閉鎖等,0,2025-07-15,2025-07-01,株式会社レスター,,株式会社,北海道,札幌市中央区,南六条東２丁目７－１－６０２,,01,101,0600056,,,2025-07-01,合併による解散等,8430001073408,令和７年７月１日札幌市中央区南七条東一丁目１番地２－１２０３株式会社バイエルン（8430001073408）に合併し解散,2015-10-05,1,,,,,レスター,0
2174,9010001174544,登記記録の閉鎖等,0,2025-07-15,2025-06-19,ＣＥキャピタル株式会社,,株式会社,東京都,中央区,銀座１丁目１５番７－５０５号,,13,102,1040061,,,2025-06-19,清算の結了等,,,2016-03-29,1,,,,,シーイーキャピタル,0
2176,9010001210951,登記記録の閉鎖等,0,2025-07-15,2025-07-03,株式会社ｏｎｅ’ｓ,,株式会社,東京都,江戸川区,松島２丁目２６－５クローバー６番館１０１,,13,123,1320031,,,2025-07-03,清算の結了等,,,2020-07-13,1,,,,,ワンズ,0
2194,9010401027137,登記記録の閉鎖等,0,2025-07-15,2025-06-26,ペンタマリン株式会社,,株式会社,東京都,港区,浜松町１丁目１２番４号,,13,103,1050013,,,2025-06-26,清算の結了等,,,2015-10-05,1,,,,,ペンタマリン,0
2195,9010401052738,登記記録の閉鎖等,0,2025-07-15,2025-06-25,株式会社公用船舶検査規律整備機構,,株式会社,東京都,港区,虎ノ門１丁目１５番１０号,,13,103,1050001,,,2025-06-25,清算の結了等,,,2015-10-05,1,,,,,コウヨウセンパクケンサキリツセイビキコウ,0
2211,9010903006225,登記記録の閉鎖等,0,2025-07-15,2025-07-11,合同会社大野力デザイン研究所,,合同会社,東京都,世田谷区,等々力７丁目１６番７－１０５号,,13,112,1580082,,,2025-07-11,清算の結了等,,,2021-01-27,1,,,,,オオノチカラデザインケンキュウジョ,0
2213,9011001027246,登記記録の閉鎖等,0,2025-07-15,2025-07-14,株式会社ウィルコ,,株式会社,東京都,世田谷区,代田２丁目３６－１５ＢＯＮＵＳＴＲＡＣＫＬＯＵＮＧＥ,,13,112,1550033,,,2025-07-14,清算の結了等,,,2015-10-05,1,,,,,ウィルコ,0
2225,9011301016972,登記記録の閉鎖等,0,2025-07-15,2025-07-02,株式会社プロモビス,,株式会社,東京都,杉並区,堀ノ内２丁目１１番２１号,,13,115,1660013,,,2025-07-02,清算の結了等,,,2015-10-05,1,,,,,プロモビス,0
2231,9011601019832,登記記録の閉鎖等,0,2025-07-15,2025-07-01,株式会社Ｔｈｒｅｅ　Ｋ　Ｃｏｌｏｒｓ,,株式会社,東京都,練馬区,中村１丁目１６番１６号,,13,120,1760024,,,2025-07-01,合併による解散等,2011601012208,令和７年７月１日東京都練馬区中村一丁目１６番１６号株式会社イズムデザインコンサルタント（2011601012208）に合併し解散,2015-10-05,1,,,,,スリーケーカラーズ,0
2242,9013301026828,登記記録の閉鎖等,0,2025-07-15,2025-07-01,株式会社パートナーズ,,株式会社,東京都,豊島区,東池袋１丁目３４番５号,,13,116,1700013,,,2025-07-01,清算の結了等,,,2015-10-05,1,,,,,パートナーズ,0
2243,9013301038633,登記記録の閉鎖等,0,2025-07-15,2025-07-11,株式会社中央メンテナンス,,株式会社,東京都,豊島区,南長崎２丁目１０番５－２０１号,,13,116,1710052,,,2025-07-11,合併による解散等,1011301013226,令和７年７月１日東京都世田谷区深沢三丁目２０番１号グラウンドユース株式会社（1011301013226）に合併し解散,2016-04-12,1,,,,,チュウオウメンテナンス,0
2258,9020005008862,登記記録の閉鎖等,0,2025-07-15,2025-07-04,特定非営利活動法人ほあーがんサポートネットワーク,,その他の設立登記法人,神奈川県,川崎市宮前区,平２丁目１２番５－３０５号センチュリータウン,,14,136,2160022,,,2025-07-04,清算の結了等,,,2015-10-05,1,,,,,ホアーガンサポートネットワーク,0
2260,9021001060493,登記記録の閉鎖等,0,2025-07-15,2025-07-14,株式会社Ｋコンサルタント,,株式会社,東京都,世田谷区,桜上水２丁目７番１５号,,13,112,1560045,,,2025-07-14,清算の結了等,,,2016-10-24,1,,,,,ケイコンサルタント,0
2274,9030001124043,登記記録の閉鎖等,0,2025-07-15,2025-07-07,株式会社ＦＭＮ,,株式会社,埼玉県,さいたま市見沼区,大字風渡野６７６－８,,11,104,3370017,,,2025-07-07,清算の結了等,,,2018-01-25,1,,,,,エフエムエヌ,0
2297,9070001041094,登記記録の閉鎖等,0,2025-07-15,2025-07-01,株式会社ＫＡＧＡＲＩＢＩ,,株式会社,群馬県,高崎市,高関町４０５番地６,,10,202,3700043,,,2025-07-01,合併による解散等,3070001027644,令和７年７月１日群馬県高崎市高関町４０５番地６株式会社総医経パートナー（3070001027644）に合併し解散,2023-11-21,1,,,,,カガリビ,0
2298,9070002019313,登記記録の閉鎖等,0,2025-07-15,2025-07-03,有限会社タガヤ工業,,有限会社,群馬県,伊勢崎市,下道寺町４１８番地５,,10,204,3720843,,,2025-07-03,清算の結了等,,,2015-10-05,1,,,,,タガヤコウギョウ,0
2300,9080002017183,登記記録の閉鎖等,0,2025-07-15,2025-07-01,有限会社池ちゃん家・ドリームケア,,有限会社,静岡県,焼津市,五ケ堀之内５３０番地の３,,22,212,4250077,,,2025-07-01,合併による解散等,4080001009954,令和７年７月１日静岡市葵区上伝馬３２番９号株式会社フォーユー（4080001009954）に合併し解散,2015-10-05,1,,,,,イケチャンチドリームケア,0
2301,9080103000773,登記記録の閉鎖等,0,2025-07-15,2025-07-07,合資会社白糸莊,,合資会社,静岡県,富士宮市,山宮９７０番地の５,,22,207,4180111,,,2025-07-07,清算の結了等,,,2015-10-05,1,,,,,シライトソウ,0
2304,9080401012982,登記記録の閉鎖等,0,2025-07-15,2025-07-01,株式会社鈴木工芸所,,株式会社,静岡県,浜松市中央区,金折町１４１７番地の８,,22,138,4350026,,,2025-07-01,合併による解散等,2080401002437,令和７年７月１日静岡県浜松市中央区金折町１４１７番地の８株式会社鈴木ホールディングス（2080401002437）に合併し解散,2015-10-05,1,,,,,スズキコウゲイショ,0
2310,9110001036049,登記記録の閉鎖等,0,2025-07-15,2025-06-30,株式会社岩村管財,,株式会社,新潟県,新発田市,大手町４丁目３番２１号,,15,206,9570052,,,2025-06-30,合併による解散等,6110001035714,令和７年６月３０日新潟県新発田市大手町四丁目３番２１号下越不動産株式会社（6110001035714）に合併し解散,2021-09-17,1,,,,,イワムラカンザイ,0
2313,9120001143868,登記記録の閉鎖等,0,2025-07-15,2025-07-02,株式会社イーナリンク,,株式会社,大阪府,大阪市中央区,農人橋１丁目４番３１号,,27,128,5400011,,,2025-07-02,清算の結了等,,,2015-10-05,1,,,,,イーナリンク,0
2336,9130002010240,登記記録の閉鎖等,0,2025-07-15,2025-07-02,有限会社まゆ,,有限会社,京都府,京都市東山区,八坂新地末吉町９５番地,,26,105,6050085,,,2025-07-02,清算の結了等,,,2015-10-05,1,,,,,マユ,0
2347,9150001016988,登記記録の閉鎖等,0,2025-07-15,2025-07-11,株式会社ユーデザイン,,株式会社,奈良県,奈良市,左京２丁目２－２２７（１５－２０２）,,29,201,6310801,,,2025-07-11,清算の結了等,,,2015-10-05,1,,,,,ユーデザイン,0
2355,9180001103800,登記記録の閉鎖等,0,2025-07-15,2025-06-30,株式会社カネイチ,,株式会社,愛知県,西春日井郡豊山町,大字豊場字冨士２３番地,,23,342,4800202,,,2025-06-30,清算の結了等,,,2015-10-05,1,,,,,カネイチ,0
2374,9200005004026,登記記録の閉鎖等,0,2025-07-15,2025-07-04,一般社団法人晴活情報館,,その他の設立登記法人,岐阜県,各務原市,蘇原中央町３丁目１６５番地,,21,213,5040813,,,2025-07-04,清算の結了等,,,2015-10-05,1,,,,,セイカツジョウホウカン,0
2378,9250001013240,登記記録の閉鎖等,0,2025-07-15,2025-07-01,ワイエムコンサルティング株式会社,,株式会社,山口県,下関市,竹崎町４丁目７番２４号,,35,201,7500025,,,2025-07-01,合併による解散等,3250001016050,令和７年７月１日山口県下関市竹崎町四丁目７番２４号株式会社ＹＭＦＧグロースパートナーズ（3250001016050）に合併し解散,2015-10-05,1,,,,,ワイエムコンサルティング,0
2401,9290802007461,登記記録の閉鎖等,0,2025-07-15,2025-07-11,有限会社涼システム,,有限会社,福岡県,北九州市小倉南区,長行西５丁目２番１０号,,40,107,8030272,,,2025-07-11,清算の結了等,,,2015-10-05,1,,,,,リョウシステム,0
2405,9340002007620,登記記録の閉鎖等,0,2025-07-15,2025-07-10,有限会社白塔,,有限会社,鹿児島県,鹿児島市,西坂元町７０番１号,,46,201,8920863,,,2025-07-10,清算の結了等,,,2015-10-05,1,,,,,ハクトウ,0
2406,9340002009055,登記記録の閉鎖等,0,2025-07-15,2025-07-07,株式会社マルセイ,,株式会社,鹿児島県,鹿児島市,伊敷台４丁目３０番２２号,,46,201,8900007,,,2025-07-07,清算の結了等,,,2015-10-05,1,,,,,マルセイ,0
2408,9350001004097,登記記録の閉鎖等,0,2025-07-15,2025-07-01,宮崎食品サービス株式会社,,株式会社,宮崎県,宮崎市,佐土原町上田島１７７６番地,,45,201,8800301,,,2025-07-01,清算の結了等,,,2015-10-05,1,,,,,ミヤザキショクヒンサービス,0
2421,9390001014126,登記記録の閉鎖等,0,2025-07-15,2025-06-30,山形バイオマスエネルギー株式会社,,株式会社,山形県,上山市,金谷字下河原１５８３番地２,,06,207,9993103,,,2025-06-30,清算の結了等,,,2015-10-05,1,,,,,ヤマガタバイオマスエネルギー,0
2430,9430001043368,登記記録の閉鎖等,0,2025-07-15,2025-06-27,田畑電設株式会社,,株式会社,北海道,江別市,見晴台５番地の１５,,01,217,0670042,,,2025-06-27,清算の結了等,,,2015-10-05,1,,,,,タバタデンセツ,0
