sequenceNumber,corporateNumber,process,correct,updateDate,changeDate,name,nameImageId,kind,prefectureName,cityName,streetNumber,addressImageId,prefectureCode,cityCode,postCode,addressOutside,addressOutsideImageId,closeDate,closeCause,successorCorporateNumber,changeCause,assignmentDate,latest,enName,enPrefectureName,enCityName,enAddressOutside,furigana,hihyoji
10,1010002036949,登記記録の閉鎖等,0,2023-08-15,2023-08-03,有限会社ディーキャストピーアール,,有限会社,東京都,中央区,日本橋箱崎町４４番５号Ｂ７１１,,13,102,1030015,,,2023-08-03,清算の結了等,,,2015-10-05,1,,,,,,0
32,1011001124018,登記記録の閉鎖等,0,2023-08-15,2023-08-01,Ｓａｉｚｅｎ　Ｔｒａｄｉｎｇ株式会社,,株式会社,東京都,渋谷区,道玄坂１丁目９番１号梅山ビル５階,,13,113,1500043,,,2023-08-01,合併による解散等,7240001046111,令和５年８月１日東京都渋谷区道玄坂一丁目９番１号梅山ビル５階株式会社Ｓａｉｚｅｎ（7240001046111）に合併し解散,2018-09-04,1,,,,,サイゼントレーディング,0
66,1013302021496,登記記録の閉鎖等,0,2023-08-15,2023-08-07,有限会社アートプランニング,,有限会社,東京都,豊島区,西巣鴨１丁目３５番１０号,,13,116,1700001,,,2023-08-07,清算の結了等,,,2015-10-05,1,,,,,アートプランニング,0
68,1020001089229,登記記録の閉鎖等,0,2023-08-15,2023-08-01,株式会社スカイメディカル,,株式会社,神奈川県,川崎市中原区,木月１丁目３０番２９号,,14,133,2110025,,,2023-08-01,合併による解散等,4020001087196,令和５年８月１日横浜市磯子区杉田一丁目１５番３１号株式会社あおぞら整骨院（4020001087196）に合併し解散,2015-10-05,1,,,,,スカイメディカル,0
98,1040003015668,登記記録の閉鎖等,0,2023-08-15,2023-07-20,フジリンク合同会社,,合同会社,千葉県,柏市,若柴６番地４０５,,12,217,2770871,,,2023-07-20,清算の結了等,,,2020-07-07,1,,,,,フジリンク,0
102,1050001014530,登記記録の閉鎖等,0,2023-08-15,2023-08-04,株式会社トトモモ薬局,,株式会社,茨城県,坂東市,岩井１１５９番地４,,08,228,3060631,,,2023-08-04,清算の結了等,,,2015-10-05,1,,,,,トトモモヤッキョク,0
103,1050002033315,登記記録の閉鎖等,0,2023-08-15,2023-08-07,有限会社塚本ストアー,,有限会社,茨城県,龍ケ崎市,２８１６番地１,,08,208,3010000,,,2023-08-07,清算の結了等,,,2015-10-05,1,,,,,ツカモトストアー,0
137,1140001079341,登記記録の閉鎖等,0,2023-08-15,2023-08-04,三幾工業株式会社,,株式会社,兵庫県,川西市,栄根１丁目５番２０号,,28,217,6660021,,,2023-08-04,清算の結了等,,,2015-10-05,1,,,,,サンキコウギョウ,0
142,1160001015047,登記記録の閉鎖等,0,2023-08-15,2023-08-08,株式会社ＳＥＡＶＥＮ,,株式会社,滋賀県,大津市,国分１丁目１５番５３号,,25,201,5200844,,,2023-08-08,清算の結了等,,,2015-10-05,1,,,,,シーブン,0
160,1190002002215,登記記録の閉鎖等,0,2023-08-15,2023-07-31,三香開発有限会社,,有限会社,三重県,津市,香良洲町１７６０番地,,24,201,5140315,,,2023-07-31,清算の結了等,,,2015-10-05,1,,,,,サンカカイハツ,0
162,1200002008160,登記記録の閉鎖等,0,2023-08-15,2023-08-10,有限会社藤平製本所,,有限会社,岐阜県,各務原市,成清町７丁目１８番地,,21,213,5040935,,,2023-08-10,清算の結了等,,,2015-10-05,1,,,,,フジヒラセイホンジョ,0
173,1250003002414,登記記録の閉鎖等,0,2023-08-15,2023-08-02,マリー合同会社,,合同会社,山口県,周南市,新宿通６丁目１－４１,,35,215,7450056,,,2023-08-02,清算の結了等,,,2019-04-10,1,,,,,マリー,0
181,1270002008204,登記記録の閉鎖等,0,2023-08-15,2023-08-03,有限会社安達商事,,有限会社,鳥取県,西伯郡伯耆町,溝口２８０番地,,31,390,6894201,,,2023-08-03,清算の結了等,,,2015-10-05,1,,,,,アダチショウジ,0
182,1270002010077,登記記録の閉鎖等,0,2023-08-15,2023-08-04,里田医薬品有限会社,,有限会社,鳥取県,倉吉市,上井６４番地１５,,31,203,6820021,,,2023-08-04,清算の結了等,,,2015-10-05,1,,,,,サトダイヤクヒン,0
223,1480001005800,登記記録の閉鎖等,0,2023-08-15,2023-08-14,株式会社ナルト工芸,,株式会社,徳島県,板野郡北島町,北村字鍋井２番地の１４,,36,402,7710201,,,2023-08-14,清算の結了等,,,2015-10-05,1,,,,,,0
224,1480002015757,登記記録の閉鎖等,0,2023-08-15,2023-08-10,有限会社日浦酒店,,有限会社,徳島県,三好市,池田町マチ２３８８番地,,36,208,7780002,,,2023-08-10,清算の結了等,,,2015-10-05,1,,,,,ヒウラサケテン,0
247,2010001225972,登記記録の閉鎖等,0,2023-08-15,2023-08-03,株式会社Ｔａｖｉａ,,株式会社,東京都,千代田区,東神田１丁目１５－９,,13,101,1010031,,,2023-08-03,清算の結了等,,,2022-04-27,1,,,,,タビヤ,0
293,2011301007540,登記記録の閉鎖等,0,2023-08-15,2023-08-10,ワカバ運輸株式会社,,株式会社,東京都,足立区,東伊興１丁目７番１５号,,13,121,1210801,,,2023-08-10,清算の結了等,,,2015-10-05,1,,,,,ワカバウンユ,0
296,2011603003824,登記記録の閉鎖等,0,2023-08-15,2023-08-08,合同会社犀角独歩,,合同会社,東京都,練馬区,大泉学園町４丁目３０番９号,,13,120,1780061,,,2023-08-08,清算の結了等,,,2023-02-14,1,,,,,サイカクドクホ,0
313,2020001044141,登記記録の閉鎖等,0,2023-08-15,2023-08-09,株式会社ティ・エム・リサーチ,,株式会社,神奈川県,横浜市中区,山下町５１－１読売横浜ビル６Ｆ,,14,104,2310023,,,2023-08-09,合併による解散等,9012801004343,令和５年８月１日東京都渋谷区恵比寿三丁目１番７号株式会社フローベル（9012801004343）に合併し解散,2015-10-05,1,,,,,ティエムリサーチ,0
314,2020001058769,登記記録の閉鎖等,0,2023-08-15,2023-08-01,株式会社中山あおぞら,,株式会社,神奈川県,横浜市緑区,台村町２９２番地,,14,113,2260014,,,2023-08-01,合併による解散等,4020001087196,令和５年８月１日横浜市磯子区杉田一丁目１５番３１号株式会社あおぞら整骨院（4020001087196）に合併し解散,2015-10-05,1,,,,,ナカヤマアオゾラ,0
329,2021001015867,登記記録の閉鎖等,0,2023-08-15,2023-08-08,株式会社不二設備,,株式会社,神奈川県,相模原市南区,磯部１１５４番地１３,,14,153,2520327,,,2023-08-08,清算の結了等,,,2015-10-05,1,,,,,フジセツビ,0
330,2021001024827,登記記録の閉鎖等,0,2023-08-15,2023-08-10,鳶将興業株式会社,,株式会社,神奈川県,秦野市,鶴巻南３丁目１８番５号,,14,211,2570002,,,2023-08-10,清算の結了等,,,2015-10-05,1,,,,,,0
331,2021001056804,登記記録の閉鎖等,0,2023-08-15,2023-08-08,株式会社ヨシモト企画,,株式会社,神奈川県,高座郡寒川町,一之宮３丁目３５番１３号,,14,321,2530111,,,2023-08-08,清算の結了等,,,2015-10-05,1,,,,,ヨシモトキカク,0
344,2040001009456,登記記録の閉鎖等,0,2023-08-15,2023-08-08,株式会社グラファックスインターナショナルコーポレーション,,株式会社,千葉県,千葉市美浜区,中瀬１丁目９番１号幕張ロボットＦＡセンター１２階,,12,106,2610023,,,2023-08-08,合併による解散等,1030001006109,令和５年７月１日埼玉県さいたま市見沼区大字蓮沼１０５８番地の２株式会社トランス・グローバル・エージェンシー（1030001006109）に合併し解散,2015-10-05,1,,,,,グラファックスインターナショナルコーポレーション,0
346,2040001054386,登記記録の閉鎖等,0,2023-08-15,2023-08-09,株式会社中島ホーム,,株式会社,千葉県,千葉市中央区,中央２丁目９番８号,,12,101,2600013,,,2023-08-09,合併による解散等,6140001048523,令和５年８月１日大阪市中央区北浜二丁目６番１８号株式会社レゾンディレクション（6140001048523）に合併し解散,2015-10-05,1,,,,,ナカジマホーム,0
349,2040002034247,登記記録の閉鎖等,0,2023-08-15,2023-07-19,有限会社サツキ・ファーラー,,有限会社,千葉県,市川市,曽谷５丁目１４番２０号,,12,203,2720832,,,2023-07-19,清算の結了等,,,2015-10-05,1,,,,,サツキファーラー,0
355,2080001009114,登記記録の閉鎖等,0,2023-08-15,2023-08-10,株式会社北海グループ,,株式会社,静岡県,静岡市清水区,中之郷２丁目１０番１９号,,22,103,4240888,,,2023-08-10,清算の結了等,,,2015-10-05,1,,,,,ホッカイグループ,0
371,2110002002304,登記記録の閉鎖等,0,2023-08-15,2023-07-21,有限会社コーシン薬品,,有限会社,新潟県,新潟市東区,幸栄３丁目１０番２２号,,15,102,9500022,,,2023-07-21,清算の結了等,,,2015-10-05,1,,,,,コーシンヤクヒン,0
386,2120005020649,登記記録の閉鎖等,0,2023-08-15,2023-06-30,ウィル社会保険労務士法人,,その他の設立登記法人,大阪府,大阪市中央区,北久宝寺町２丁目２番１３号,,27,128,5410057,,,2023-06-30,合併による解散等,1120005022860,令和５年６月３０日大阪市中央区北久宝寺町二丁目２番１３号エーピーエス社会保険労務士法人（1120005022860）に合併し解散,2019-01-17,1,,,,,ウィル,0
388,2120101056266,登記記録の閉鎖等,0,2023-08-15,2023-08-09,創光石油株式会社,,株式会社,大阪府,岸和田市,極楽寺町６９８－４,,27,202,5960832,,,2023-08-09,清算の結了等,,,2017-04-03,1,,,,,ソウコウセキユ,0
396,2130001059285,登記記録の閉鎖等,0,2023-08-15,2023-07-24,株式会社服部工業,,株式会社,京都府,舞鶴市,字公文名小字城ケ鼻９０番地２,,26,202,6240821,,,2023-07-24,清算の結了等,,,2017-03-07,1,,,,,ハットリコウギョウ,0
423,2180002020992,登記記録の閉鎖等,0,2023-08-15,2023-08-10,有限会社葵産業,,有限会社,愛知県,名古屋市天白区,野並２丁目４４０番地,,23,116,4680045,,,2023-08-10,清算の結了等,,,2015-10-05,1,,,,,アオイサンギョウ,0
424,2180002037450,登記記録の閉鎖等,0,2023-08-15,2023-08-10,有限会社工藤建築設計室,,有限会社,愛知県,名古屋市千種区,茶屋が坂１丁目１７番１０号,,23,101,4640092,,,2023-08-10,清算の結了等,,,2015-10-05,1,,,,,クドウケンチクセッケイシツ,0
426,2180002068529,登記記録の閉鎖等,0,2023-08-15,2023-08-09,有限会社井上商事,,有限会社,愛知県,小牧市,大字北外山１９６２番地の６４,,23,219,4850023,,,2023-08-09,清算の結了等,,,2015-10-05,1,,,,,イノウエショウジ,0
427,2180003019497,登記記録の閉鎖等,0,2023-08-15,2023-08-10,合同会社ユーノス,,合同会社,愛知県,名古屋市南区,大同町５丁目３０番地,,23,112,4570811,,,2023-08-10,合併による解散等,4180001015793,令和５年８月１０日名古屋市南区大同町五丁目３０番地株式会社ユーノスファミール（4180001015793）に合併し解散,2018-12-06,1,,,,,ユーノス,0
432,2190001024713,登記記録の閉鎖等,0,2023-08-15,2023-08-03,ＡＣＴ　ＭＡＮＡＧＥＭＥＮＴ株式会社,,株式会社,三重県,四日市市,鵜の森２丁目４番１９号,,24,202,5100074,,,2023-08-03,清算の結了等,,,2017-06-08,1,,,,,アクトマネージメント,0
437,2210002011088,登記記録の閉鎖等,0,2023-08-15,2023-08-09,有限会社双葉興業,,有限会社,福井県,三方上中郡若狭町,田井第１１９号７番地,,18,501,9191462,,,2023-08-09,清算の結了等,,,2015-10-05,1,,,,,フタバコウギョウ,0
471,2350002011768,登記記録の閉鎖等,0,2023-08-15,2023-08-01,有限会社上田商店,,有限会社,宮崎県,延岡市,川島町３９２３番地１１,,45,203,8820017,,,2023-08-01,清算の結了等,,,2015-10-05,1,,,,,ウエダショウテン,0
494,2500001000847,登記記録の閉鎖等,0,2023-08-15,2023-08-09,株式会社愛媛メディカルラボラトリー,00007295,株式会社,愛媛県,松山市,余戸西６丁目１番４号,,38,201,7900046,,,2023-08-09,合併による解散等,7011001019237,令和５年８月１日東京都渋谷区千駄ケ谷五丁目２１番３号株式会社ビー・エム・エル（7011001019237）に合併し解散,2015-10-05,1,,,,,エヒメメディカルラボラトリー,0
502,3010001075203,登記記録の閉鎖等,0,2023-08-15,2023-07-20,アキュートロジック株式会社,,株式会社,東京都,港区,西新橋２丁目８番６号住友不動産日比谷ビル９階,,13,103,1050003,,,2023-07-20,清算の結了等,,,2015-10-05,1,,,,,アキュートロジック,0
517,3010401127652,登記記録の閉鎖等,0,2023-08-15,2023-07-20,株式会社エヌ・エイチ・シー・シックスティーン,,株式会社,東京都,港区,西新橋２丁目８番６号,,13,103,1050003,,,2023-07-20,清算の結了等,,,2016-10-20,1,,,,,エヌエイチシーシックスティーン,0
519,3010401133031,登記記録の閉鎖等,0,2023-08-15,2023-07-20,ＳＢＩプライム証券株式会社,,株式会社,東京都,港区,六本木３丁目１番１号,,13,103,1060032,,,2023-07-20,合併による解散等,2010001048052,令和５年７月１日東京都港区六本木一丁目６番１号株式会社ＳＢＩネオトレード証券（2010001048052）に合併し解散,2017-08-09,1,,,,,エスビーアイプライムショウケン,0
522,3010402008950,登記記録の閉鎖等,0,2023-08-15,2023-07-18,有限会社とんかつ鈴木,,有限会社,東京都,港区,白金６丁目２２番１８号,,13,103,1080072,,,2023-07-18,清算の結了等,,,2015-10-05,1,,,,,トンカツスズキ,0
523,3010501049078,登記記録の閉鎖等,0,2023-08-15,2023-08-09,株式会社ｎａｎｃｏ,,株式会社,東京都,台東区,上野１丁目３番７号,,13,106,1100005,,,2023-08-09,清算の結了等,,,2022-07-08,1,nanco Inc.,Tokyo,"1-3-7,Ueno, Taito ku",,ナンコ,0
562,3011602022709,登記記録の閉鎖等,0,2023-08-15,2023-08-08,有限会社本倉工業,,有限会社,東京都,練馬区,西大泉６丁目２１番１号,,13,120,1780065,,,2023-08-08,清算の結了等,,,2015-10-05,1,,,,,モトクラコウギョウ,0
576,3020001057076,登記記録の閉鎖等,0,2023-08-15,2023-08-01,株式会社上大岡あおぞら,,株式会社,神奈川県,横浜市港南区,上大岡西１丁目１９番１号,,14,111,2330002,,,2023-08-01,合併による解散等,4020001087196,令和５年８月１日横浜市磯子区杉田一丁目１５番３１号株式会社あおぞら整骨院（4020001087196）に合併し解散,2015-10-05,1,,,,,カミオオオカアオゾラ,0
591,3021001017144,登記記録の閉鎖等,0,2023-08-15,2023-08-09,株式会社阿部運輸,,株式会社,神奈川県,相模原市南区,相武台団地１丁目６番７－１２号,,14,153,2520323,,,2023-08-09,清算の結了等,,,2015-10-05,1,,,,,アベウンユ,0
594,3021001058774,登記記録の閉鎖等,0,2023-08-15,2023-08-10,岡株式会社,,株式会社,神奈川県,相模原市南区,上鶴間本町３丁目１８番２７号アカデミーグローリア初穂町田合同ビル８１２号室,,14,153,2520318,,,2023-08-10,清算の結了等,,,2016-03-16,1,,,,,,0
621,3060001025079,登記記録の閉鎖等,0,2023-08-15,2023-07-31,株式会社Ｉｅ　Ｐｌａｎ,,株式会社,栃木県,宇都宮市,元今泉８丁目１番地１,,09,201,3210954,,,2023-07-31,清算の結了等,,,2015-10-05,1,,,,,イエプラン,0
624,3070001017892,登記記録の閉鎖等,0,2023-08-15,2023-08-09,東日本クリーンサービス株式会社,,株式会社,群馬県,渋川市,有馬２４９４番地１７１,,10,208,3770005,,,2023-08-09,清算の結了等,,,2015-10-05,1,,,,,ヒガシニホンクリーンサービス,0
629,3070002004782,登記記録の閉鎖等,0,2023-08-15,2023-08-09,豊和興業有限会社,,有限会社,群馬県,前橋市,千代田町５丁目１４番７号,,10,201,3710022,,,2023-08-09,清算の結了等,,,2015-10-05,1,,,,,ホウワコウギョウ,0
633,3100001023722,登記記録の閉鎖等,0,2023-08-15,2023-08-07,ライテックス株式会社,,株式会社,長野県,下伊那郡松川町,上片桐４２７８番地２０,,20,402,3993301,,,2023-08-07,清算の結了等,,,2015-10-05,1,,,,,ライテックス,0
639,3110005006607,登記記録の閉鎖等,0,2023-08-15,2023-08-04,特定非営利活動法人にいがた里山研究会,,その他の設立登記法人,新潟県,三条市,南四日町１丁目７番９号,,15,204,9550852,,,2023-08-04,清算の結了等,,,2015-10-05,1,,,,,ニイガタサトヤマケンキュウカイ,0
645,3120001222941,登記記録の閉鎖等,0,2023-08-15,2023-08-07,株式会社ＢｅＯＮＥｐａｒｔ,,株式会社,大阪府,大阪市西区,南堀江１丁目１４番２６号,,27,106,5500015,,,2023-08-07,合併による解散等,1120001087528,令和５年８月１日大阪市中央区南船場四丁目１２番２１号株式会社バルニバービ（1120001087528）に合併し解散,2019-08-14,1,,,,,ビーワンパート,0
654,3120101036779,登記記録の閉鎖等,0,2023-08-15,2023-08-10,株式会社サンレディー,,株式会社,大阪府,岸和田市,土生町８丁目２４番８号,,27,202,5960825,,,2023-08-10,清算の結了等,,,2015-10-05,1,,,,,サンレディー,0
669,3160001015383,登記記録の閉鎖等,0,2023-08-15,2023-08-09,株式会社督永,,株式会社,滋賀県,守山市,水保町６７４番地,,25,207,5240102,,,2023-08-09,清算の結了等,,,2015-10-05,1,,,,,トクナガ,0
671,3160002000475,登記記録の閉鎖等,0,2023-08-15,2023-08-14,川村商事有限会社,,有限会社,滋賀県,大津市,栄町２０番１５号,,25,201,5200855,,,2023-08-14,清算の結了等,,,2015-10-05,1,,,,,カワムラシヨウジ,0
682,3180002089482,登記記録の閉鎖等,0,2023-08-15,2023-08-08,有限会社フジエイ,,有限会社,愛知県,津島市,古川町１丁目７９番地２,,23,208,4960043,,,2023-08-08,清算の結了等,,,2015-10-05,1,,,,,フジエイ,0
685,3180301022895,登記記録の閉鎖等,0,2023-08-15,2023-08-02,株式会社大栄鉄工所,,株式会社,愛知県,西尾市,羽塚町西新田２６番地１,,23,213,4440316,,,2023-08-02,清算の結了等,,,2015-10-05,1,,,,,ダイエイテッコウジョ,0
704,3250002020266,登記記録の閉鎖等,0,2023-08-15,2023-08-02,有限会社三機工業所,,有限会社,山口県,大島郡周防大島町,大字小松開作６０番地の６,,35,305,7422105,,,2023-08-02,清算の結了等,,,2015-10-05,1,,,,,サンキコウギョウショ,0
743,3460102000849,登記記録の閉鎖等,0,2023-08-15,2023-08-10,有限会社共和メンテナンス,,有限会社,北海道,河東郡音更町,雄飛が丘北区１番地１０３,,01,631,0800331,,,2023-08-10,清算の結了等,,,2015-10-05,1,,,,,キョウワメンテナンス,0
763,4010001201889,登記記録の閉鎖等,0,2023-08-15,2023-07-05,株式会社ＷＨＩ　Ｈｏｌｄｉｎｇｓ,,株式会社,東京都,港区,赤坂１丁目１２番３２号,,13,103,1070052,,,2023-07-05,合併による解散等,7010001201886,令和５年６月１日東京都千代田区丸の内一丁目１番１号パレスビル５階株式会社ＢＣＪ‐３５（7010001201886）に合併し解散,2019-06-25,1,,,,,ダブリューエイチアイホールディングス,0
774,4010401118717,登記記録の閉鎖等,0,2023-08-15,2023-07-20,株式会社エヌ・エイチ・シー・サーティーン,,株式会社,東京都,港区,西新橋２丁目８番６号,,13,103,1050003,,,2023-07-20,清算の結了等,,,2015-10-05,1,,,,,エヌエイチシーサーティーン,0
810,4011203002704,登記記録の閉鎖等,0,2023-08-15,2023-08-09,ＴｒａｉｎＴｒａｉｎＲｅｃｏｒｄｓ合同会社,,合同会社,東京都,中野区,中野４丁目１番１号中野サンプラザ９Ｆ,,13,114,1640001,,,2023-08-09,清算の結了等,,,2018-01-23,1,,,,,,0
820,4011601015159,登記記録の閉鎖等,0,2023-08-15,2023-08-08,イー・アシスト株式会社,,株式会社,東京都,練馬区,大泉学園町８丁目３２番１０号,,13,120,1780061,,,2023-08-08,清算の結了等,,,2015-10-05,1,,,,,イーアシスト,0
823,4012401015893,登記記録の閉鎖等,0,2023-08-15,2023-08-14,株式会社立花商事,,株式会社,東京都,府中市,西府町３丁目１５番地の６無双マンション２０７,,13,206,1830031,,,2023-08-14,清算の結了等,,,2015-10-05,1,,,,,タチバナショウジ,0
845,4030001015214,登記記録の閉鎖等,0,2023-08-15,2023-07-14,あんしん少額短期保険株式会社,,株式会社,埼玉県,さいたま市大宮区,桜木町４丁目２６１番地,,11,103,3300854,,,2023-07-14,合併による解散等,7010001115649,令和５年７月１日東京都港区六本木三丁目２番１号株式会社ＤＭＭ少額短期保険（7010001115649）に合併し解散,2015-10-05,1,,,,,アンシンショウガクタンキホケン,0
857,4040002086468,登記記録の閉鎖等,0,2023-08-15,2023-07-20,有限会社古川コンクリート工業所,,有限会社,千葉県,山武郡横芝光町,横芝９９５番地６,,12,410,2891732,,,2023-07-20,合併による解散等,7040001057426,令和５年７月２０日千葉県山武郡九十九里町片貝４０２５番地三洋コンクリート工業株式会社（7040001057426）に合併し解散,2015-10-05,1,,,,,フルカワコンクリートコウギョウショ,0
863,4070002002728,登記記録の閉鎖等,0,2023-08-15,2023-08-08,有限会社カーサ・ミーア,,有限会社,群馬県,渋川市,石原５６番地３,,10,208,3770007,,,2023-08-08,清算の結了等,,,2015-10-05,1,,,,,カーサミーア,0
864,4080001015655,登記記録の閉鎖等,0,2023-08-15,2023-08-10,株式会社インフォネット,,株式会社,静岡県,焼津市,方ノ上１９２番地の３,,22,212,4250005,,,2023-08-10,清算の結了等,,,2015-10-05,1,,,,,インフォネット,0
870,4110001026293,登記記録の閉鎖等,0,2023-08-15,2023-08-07,株式会社国際自動車整備,,株式会社,新潟県,南魚沼市,川窪１２０６番地,,15,226,9496603,,,2023-08-07,清算の結了等,,,2015-10-05,1,,,,,コクサイジドウシャセイビ,0
894,4160001020465,登記記録の閉鎖等,0,2023-08-15,2023-07-24,株式会社関西小野寺商事,,株式会社,大阪府,大阪市淀川区,西中島４丁目２番２６号天神第一ビル４０４,,27,123,5320011,,,2023-07-24,合併による解散等,8050001014953,令和５年６月１日茨城県猿島郡境町大字浦向５８８番地１株式会社小野寺商事（8050001014953）に合併し解散,2017-09-19,1,,,,,カンサイオノデラショウジ,0
951,4370101001385,登記記録の閉鎖等,0,2023-08-15,2023-08-03,株式会社平間組,,株式会社,宮城県,白石市,白鳥２丁目１４番地,,04,206,9890734,,,2023-08-03,清算の結了等,,,2015-10-05,1,,,,,ヒラマグミ,0
953,4380001028107,登記記録の閉鎖等,0,2023-08-15,2023-08-08,株式会社アイネットコープ東北,,株式会社,福島県,郡山市,鶴見坦２丁目１２番１５号,,07,203,9638861,,,2023-08-08,清算の結了等,,,2017-05-16,1,,,,,アイネットコープトウホク,0
964,4430001063833,登記記録の閉鎖等,0,2023-08-15,2023-07-25,大栄マテリアル株式会社,,株式会社,北海道,北広島市,大曲光３丁目２番地１１,,01,234,0611277,,,2023-07-25,清算の結了等,,,2015-10-05,1,,,,,ダイエイマテリアル,0
970,4440003000098,登記記録の閉鎖等,0,2023-08-15,2023-08-09,音羽町財産保全合名会社,,合名会社,北海道,函館市,若松町３番１２号,,01,202,0400063,,,2023-08-09,清算の結了等,,,2015-10-05,1,,,,,オトワチョウザイサンホゼン,0
971,4460302004608,登記記録の閉鎖等,0,2023-08-15,2023-08-10,有限会社わたなベ,,有限会社,北海道,網走市,南六条西１丁目７番地,,01,211,0930016,,,2023-08-10,清算の結了等,,,2015-10-05,1,,,,,ワタナベ,0
1000,5010401065545,登記記録の閉鎖等,0,2023-08-15,2023-08-07,株式会社クリエイティブライフ研究所,,株式会社,長野県,北佐久郡軽井沢町,大字長倉２９３９番地１１,,20,321,3890111,,,2023-08-07,清算の結了等,,,2015-10-05,1,,,,,クリエイティブライフケンキュウショ,0
1001,5010401144811,登記記録の閉鎖等,0,2023-08-15,2023-07-18,Ｍａｒｋｅｔ　Ｆｌａｇｓ株式会社,,株式会社,東京都,港区,南麻布４丁目１０番２号ホーマット・アンバサダー３５０,,13,103,1060047,,,2023-07-18,清算の結了等,,,2019-04-09,1,,,,,マーケットフラッグス,0
1008,5010403027411,登記記録の閉鎖等,0,2023-08-15,2023-07-18,合同会社エムファンド,,合同会社,東京都,港区,虎ノ門４丁目３番１号,,13,103,1050001,,,2023-07-18,清算の結了等,,,2022-04-08,1,,,,,エムファンド,0
1012,5010501008429,登記記録の閉鎖等,0,2023-08-15,2023-08-10,株式会社ティーディーイー,,株式会社,東京都,台東区,東上野１丁目２６番２号,,13,106,1100015,,,2023-08-10,清算の結了等,,,2015-10-05,1,,,,,ティーディーイー,0
1013,5010501021324,登記記録の閉鎖等,0,2023-08-15,2023-08-04,株式会社ティー・アール・エフ,,株式会社,東京都,台東区,台東２丁目７番１２号プレール・ドゥーク秋葉原２０１号,,13,106,1100016,,,2023-08-04,合併による解散等,9010501002287,令和５年８月１日東京都台東区台東二丁目７番１２号プレール・ドゥーク秋葉原２０１号株式会社レオ（9010501002287）に合併し解散,2015-10-05,1,,,,,ティーアールエフ,0
1019,5010602017477,登記記録の閉鎖等,0,2023-08-15,2023-08-07,有限会社門倉商店,,有限会社,東京都,墨田区,東向島５丁目３７番９号,,13,107,1310032,,,2023-08-07,清算の結了等,,,2015-10-05,1,,,,,カドクラショウテン,0
1043,5011301021150,登記記録の閉鎖等,0,2023-08-15,2023-07-03,株式会社ｉｒｏｄｏｒｉ,,株式会社,埼玉県,川口市,江戸袋１丁目５番２１号,,11,203,3340075,,,2023-07-03,合併による解散等,1011301016914,令和５年１月１日埼玉県川口市江戸袋一丁目５番２１号株式会社デリカ（1011301016914）に合併し解散,2015-10-05,1,,,,,イロドリ,0
1045,5011302015218,登記記録の閉鎖等,0,2023-08-15,2023-08-01,有限会社ＤＦ．Ｆａｎｔａｓｙ,,有限会社,神奈川県,川崎市川崎区,砂子２丁目５番地２１第３９東京ビル１階,,14,131,2100006,,,2023-08-01,合併による解散等,9011202007798,令和５年８月１日川崎市川崎区駅前本町３番地３ムラタヤビル５階株式会社藏人（9011202007798）に合併し解散,2015-10-05,1,,,,,ディーエフファンタジー,0
1049,5011501022725,登記記録の閉鎖等,0,2023-08-15,2023-08-08,株式会社グレースハウス,,株式会社,東京都,荒川区,東日暮里１丁目６－９東出ビル,,13,118,1160014,,,2023-08-08,清算の結了等,,,2017-06-08,1,,,,,グレースハウス,0
1061,5020001051036,登記記録の閉鎖等,0,2023-08-15,2023-08-01,株式会社能見台あおぞら,,株式会社,神奈川県,横浜市金沢区,能見台通７番２４号,,14,108,2360053,,,2023-08-01,合併による解散等,4020001087196,令和５年８月１日横浜市磯子区杉田一丁目１５番３１号株式会社あおぞら整骨院（4020001087196）に合併し解散,2015-10-05,1,,,,,ノウケンダイアオゾラ,0
1068,5020002025996,登記記録の閉鎖等,0,2023-08-15,2023-08-01,金子相互有限会社,,有限会社,神奈川県,横浜市神奈川区,六角橋１丁目３１番１５号,,14,102,2210802,,,2023-08-01,清算の結了等,,,2015-10-05,1,,,,,,0
1069,5020002056802,登記記録の閉鎖等,0,2023-08-15,2023-08-01,有限会社エンバーグシステム,,有限会社,神奈川県,横浜市中区,山下町２番地産業貿易センター地下１階,,14,104,2310023,,,2023-08-01,清算の結了等,,,2015-10-05,1,,,,,エンバーグシステム,0
1102,5040002030383,登記記録の閉鎖等,0,2023-08-15,2023-07-20,有限会社ヤヒコ建設,,有限会社,千葉県,船橋市,大穴北３丁目２５番３３号,,12,204,2740068,,,2023-07-20,清算の結了等,,,2015-10-05,1,,,,,ヤヒコケンセツ,0
1104,5040002065867,登記記録の閉鎖等,0,2023-08-15,2023-07-19,有限会社アトミックアイ,,有限会社,千葉県,木更津市,江川５番地６,,12,206,2920063,,,2023-07-19,清算の結了等,,,2015-10-05,1,,,,,アトミックアイ,0
1110,5060001000914,登記記録の閉鎖等,0,2023-08-15,2023-07-31,株式会社Ｉｅ　Ｐｌａｎ建築事務所,,株式会社,栃木県,宇都宮市,元今泉８丁目１番地１,,09,201,3210954,,,2023-07-31,清算の結了等,,,2015-10-05,1,,,,,イエプランケンチクジムショ,0
1114,5070001035323,登記記録の閉鎖等,0,2023-08-15,2023-08-09,株式会社ＯｎＤｅｃｏ,,株式会社,群馬県,前橋市,問屋町２丁目１３－６,,10,201,3710855,,,2023-08-09,清算の結了等,,,2018-12-12,1,,,,,オンデコ,0
1120,5080002015653,登記記録の閉鎖等,0,2023-08-15,2023-08-10,有限会社オノダ電気,,有限会社,静岡県,焼津市,焼津５丁目１１番２８号,,22,212,4250026,,,2023-08-10,清算の結了等,,,2015-10-05,1,,,,,オノダデンキ,0
1126,5100002016137,登記記録の閉鎖等,0,2023-08-15,2023-08-03,美ヶ原高原バス有限会社,,有限会社,長野県,小県郡長和町,和田１５３１番地２,,20,350,3860701,,,2023-08-03,清算の結了等,,,2015-10-05,1,,,,,ウツクシガハラコウゲンバス,0
1127,5120001167870,登記記録の閉鎖等,0,2023-08-15,2023-08-10,株式会社産有,,株式会社,大阪府,泉大津市,曽根町２丁目１番３６号,,27,206,5950011,,,2023-08-10,清算の結了等,,,2015-10-05,1,,,,,サンユウ,0
1130,5120003022850,登記記録の閉鎖等,0,2023-08-15,2023-08-01,Ｒｅｇｕｉｌｄ合同会社,,合同会社,大阪府,大阪市浪速区,戎本町１丁目４－１６トゥリオーニＥＢＩＳＵ１００１,,27,111,5560013,,,2023-08-01,清算の結了等,,,2022-11-24,1,,,,,リギルド,0
1134,5120901014651,登記記録の閉鎖等,0,2023-08-15,2023-08-03,株式会社ＤＡＢＯ’Ｚ　Ｃｏｒｐｏｒａｔｉｏｎ,,株式会社,大阪府,吹田市,長野東１８番８－５０４号,,27,205,5650816,,,2023-08-03,清算の結了等,,,2015-10-05,1,,,,,ダボーズコーポレーション,0
1161,5180302021242,登記記録の閉鎖等,0,2023-08-15,2023-08-02,有限会社アンクル・トム,,有限会社,愛知県,豊田市,百々町１丁目１４３番地,,23,211,4710008,,,2023-08-02,清算の結了等,,,2015-10-05,1,,,,,アンクルトム,0
1165,5230001019004,登記記録の閉鎖等,0,2023-08-15,2023-07-25,株式会社Ｔｈｅ　Ｍａｋｅｒ,,株式会社,富山県,富山市,高屋敷１６０番地６,,16,201,9398036,,,2023-07-25,清算の結了等,,,2021-10-01,1,,,,,ザメーカー,0
1173,5250002015685,登記記録の閉鎖等,0,2023-08-15,2023-08-02,有限会社駒屋,,有限会社,山口県,下松市,駅南１丁目６番３号,,35,207,7440007,,,2023-08-02,清算の結了等,,,2015-10-05,1,,,,,コマヤ,0
1185,5290802016771,登記記録の閉鎖等,0,2023-08-15,2023-08-10,有限会社和コム,,有限会社,福岡県,遠賀郡岡垣町,野間南１１番５号,,40,383,8114239,,,2023-08-10,清算の結了等,,,2015-10-05,1,,,,,ワコム,0
1186,5290805008907,登記記録の閉鎖等,0,2023-08-15,2023-08-07,農事組合法人うじもり,,その他の設立登記法人,福岡県,遠賀郡岡垣町,大字山田９３２番地,,40,383,8114221,,,2023-08-07,清算の結了等,,,2016-10-07,1,,,,,ウジモリ,0
1217,5500001014381,登記記録の閉鎖等,0,2023-08-15,2023-07-21,ダイコク化成株式会社,,株式会社,愛媛県,四国中央市,中曽根町１５９３番地,,38,213,7990413,,,2023-07-21,合併による解散等,5410001008987,令和５年７月１日秋田県横手市平鹿町醍醐字釜ノ川西２２８番地丸三化成株式会社（5410001008987）に合併し解散,2015-10-05,1,,,,,ダイコクカセイ,0
1225,6010001204485,登記記録の閉鎖等,0,2023-08-15,2023-08-03,株式会社いなきん,,株式会社,東京都,中央区,日本橋人形町２丁目１４番１３号,,13,102,1030013,,,2023-08-03,清算の結了等,,,2019-10-04,1,,,,,イナキン,0
1231,6010101003894,登記記録の閉鎖等,0,2023-08-15,2023-08-07,株式会社つくばとうふ,,株式会社,茨城県,下妻市,加養３８０２番地,,08,210,3040048,,,2023-08-07,清算の結了等,,,2015-10-05,1,,,,,ツクバトウフ,0
1232,6010102001798,登記記録の閉鎖等,0,2023-08-15,2023-08-14,有限会社加藤ファクトリー,,有限会社,東京都,八王子市,戸吹町４９２番地,,13,201,1920001,,,2023-08-14,清算の結了等,,,2015-10-05,1,,,,,カトウファクトリー,0
1236,6010401145949,登記記録の閉鎖等,0,2023-08-15,2023-08-09,株式会社ＳＡ‐ＬＬ,,株式会社,東京都,千代田区,紀尾井町４番１号,,13,101,1020094,,,2023-08-09,合併による解散等,6180001101212,令和５年８月１日名古屋市守山区幸心三丁目１２０２番地株式会社Ｗｅｌｆａｒｅすずらん（6180001101212）に合併し解散,2019-05-31,1,,,,,エスエーエルエル,0
1262,6011501003220,登記記録の閉鎖等,0,2023-08-15,2023-08-08,株式会社東書エステート,,株式会社,東京都,北区,堀船２丁目１７番１号,,13,117,1140004,,,2023-08-08,清算の結了等,,,2015-10-05,1,,,,,トウショエステート,0
1277,6020001051035,登記記録の閉鎖等,0,2023-08-15,2023-08-01,株式会社二俣川あおぞら,,株式会社,神奈川県,横浜市旭区,二俣川２丁目６１番地,,14,112,2410821,,,2023-08-01,合併による解散等,4020001087196,令和５年８月１日横浜市磯子区杉田一丁目１５番３１号株式会社あおぞら整骨院（4020001087196）に合併し解散,2015-10-05,1,,,,,フタマガワアオゾラ,0
1292,6020002087037,登記記録の閉鎖等,0,2023-08-15,2023-08-01,有限会社高津宮前民商会館,,有限会社,神奈川県,川崎市宮前区,初山２丁目２４番６号,,14,136,2160026,,,2023-08-01,清算の結了等,,,2015-10-05,1,,,,,タカツミヤマエミンショウカイカン,0
1299,6021001004511,登記記録の閉鎖等,0,2023-08-15,2023-08-10,株式会社ヨシノハイドリック,,株式会社,神奈川県,藤沢市,用田１５２２番地の４,,14,205,2520821,,,2023-08-10,清算の結了等,,,2015-10-05,1,,,,,ヨシノハイドリック,0
1300,6021001044763,登記記録の閉鎖等,0,2023-08-15,2023-08-09,株式会社鳥居,,株式会社,神奈川県,鎌倉市,台４丁目５番５０－２号,,14,204,2470061,,,2023-08-09,清算の結了等,,,2015-10-05,1,,,,,トリイ,0
1301,6021002009600,登記記録の閉鎖等,0,2023-08-15,2023-07-31,有限会社湘南レンタ・リース,,有限会社,神奈川県,高座郡寒川町,田端１２６６番地の１,,14,321,2530114,,,2023-07-31,清算の結了等,,,2015-10-05,1,,,,,ショウナンレンタリース,0
1330,6080101012022,登記記録の閉鎖等,0,2023-08-15,2023-08-08,株式会社アクト,,株式会社,静岡県,富士宮市,小泉１８６１番地の３,,22,207,4180022,,,2023-08-08,清算の結了等,,,2015-10-05,1,,,,,アクト,0
1336,6100005007586,登記記録の閉鎖等,0,2023-08-15,2023-08-03,木曽清美会企業組合,,その他の設立登記法人,長野県,木曽郡上松町,緑町３丁目３３番地,,20,422,3995606,,,2023-08-03,清算の結了等,,,2015-10-05,1,,,,,キソセイビカイ,0
1350,6120901022083,登記記録の閉鎖等,0,2023-08-15,2023-08-03,株式会社あゆみ,,株式会社,大阪府,箕面市,西小路２丁目９番２９号箕面メイプル１０１号,,27,220,5620003,,,2023-08-03,清算の結了等,,,2015-10-05,1,,,,,アユミ,0
1351,6120901037874,登記記録の閉鎖等,0,2023-08-15,2023-08-03,株式会社関西ＦＲＯＮＴＩＥＲ,,株式会社,大阪府,摂津市,鳥飼野々３丁目２５番６号,,27,224,5660053,,,2023-08-03,清算の結了等,,,2017-01-10,1,,,,,カンサイフロンティア,0
1366,6140002002470,登記記録の閉鎖等,0,2023-08-15,2023-07-31,有限会社村上哲郎豆腐商店,,有限会社,兵庫県,芦屋市,大桝町５番８号,,28,206,6590066,,,2023-07-31,清算の結了等,,,2015-10-05,1,,,,,ムラカミテツロウトウフショウテン,0
1372,6180001131093,登記記録の閉鎖等,0,2023-08-15,2023-08-08,株式会社はからめ認知研究所,,株式会社,愛知県,名古屋市中村区,名駅１丁目１番１号,,23,105,4500002,,,2023-08-08,合併による解散等,8140001109018,令和５年８月１日神戸市中央区港島南町七丁目２番地の６株式会社ビオラボ（8140001109018）に合併し解散,2018-02-14,1,,,,,ハカラメニンチケンキュウショ,0
1383,6190002023297,登記記録の閉鎖等,0,2023-08-15,2023-08-03,有限会社松橋商事,,有限会社,三重県,四日市市,前田町２１番１号,,24,202,5100893,,,2023-08-03,清算の結了等,,,2015-10-05,1,,,,,マツハシショウジ,0
1402,6250002010883,登記記録の閉鎖等,0,2023-08-15,2023-08-02,有限会社萌生,,有限会社,山口県,下関市,今浦町１２番３号,,35,201,7500064,,,2023-08-02,清算の結了等,,,2015-10-05,1,,,,,ホウセイ,0
1423,6290002008271,登記記録の閉鎖等,0,2023-08-15,2023-08-01,有限会社写真屋くまさん,,有限会社,福岡県,福岡市早良区,四箇６丁目２３番２０号,,40,137,8111103,,,2023-08-01,清算の結了等,,,2015-10-05,1,,,,,シャシンヤクマサン,0
1441,6360005005143,登記記録の閉鎖等,0,2023-08-15,2023-08-09,一般社団法人沖縄の海,,その他の設立登記法人,沖縄県,糸満市,西崎１丁目４－１１,,47,210,9010305,,,2023-08-09,清算の結了等,,,2015-10-05,1,,,,,オキナワノウミ,0
1444,6410001001982,登記記録の閉鎖等,0,2023-08-15,2023-08-03,株式会社中屋儀右衛門,,株式会社,秋田県,秋田市,楢山登町１１番４０－２号,,05,201,0100021,,,2023-08-03,清算の結了等,,,2015-10-05,1,,,,,ナカヤギエモン,0
1451,6430005008568,登記記録の閉鎖等,0,2023-08-15,2023-07-21,農事組合法人ベーシックファーム,,その他の設立登記法人,北海道,岩内郡共和町,梨野舞納２２６番地３,,01,401,0450031,,,2023-07-21,清算の結了等,,,2015-10-05,1,,,,,ベーシックファーム,0
1476,7010401145948,登記記録の閉鎖等,0,2023-08-15,2023-08-09,株式会社ＳＡ‐Ｌ,,株式会社,東京都,千代田区,紀尾井町４番１号,,13,101,1020094,,,2023-08-09,合併による解散等,6180001101212,令和５年８月１日名古屋市守山区幸心三丁目１２０２番地株式会社Ｗｅｌｆａｒｅすずらん（6180001101212）に合併し解散,2019-05-31,1,,,,,エスエーエル,0
1490,7010702000141,登記記録の閉鎖等,0,2023-08-15,2023-08-08,有限会社青葉,,有限会社,東京都,品川区,豊町３丁目２番１１号,,13,109,1420042,,,2023-08-08,清算の結了等,,,2015-10-05,1,,,,,アオバ,0
1503,7011301007511,登記記録の閉鎖等,0,2023-08-15,2023-08-07,ワールド・サービス株式会社,,株式会社,東京都,杉並区,浜田山１丁目１６番１１号,,13,115,1680065,,,2023-08-07,清算の結了等,,,2015-10-05,1,,,,,ワールドサービス,0
1522,7012702002209,登記記録の閉鎖等,0,2023-08-15,2023-08-10,有限会社飯野クリーニング,,有限会社,東京都,東村山市,萩山町１丁目２２番地７,,13,213,1890012,,,2023-08-10,清算の結了等,,,2015-10-05,1,,,,,イイノクリーニング,0
1525,7020001051034,登記記録の閉鎖等,0,2023-08-15,2023-08-01,株式会社和田町あおぞら,,株式会社,神奈川県,横浜市保土ケ谷区,星川３丁目７番１６号,,14,106,2400006,,,2023-08-01,合併による解散等,4020001087196,令和５年８月１日横浜市磯子区杉田一丁目１５番３１号株式会社あおぞら整骨院（4020001087196）に合併し解散,2015-10-05,1,,,,,ワダマチアオゾラ,0
1527,7020001101821,登記記録の閉鎖等,0,2023-08-15,2023-08-01,株式会社オオタベジ,,株式会社,神奈川県,川崎市宮前区,宮崎３丁目１０番地１３プラネスーペリア宮崎台２１１,,14,136,2160033,,,2023-08-01,清算の結了等,,,2015-10-05,1,,,,,オオタベジ,0
1539,7021001026843,登記記録の閉鎖等,0,2023-08-15,2023-08-09,三康印刷株式会社,,株式会社,神奈川県,海老名市,本郷１７２０番地の１,,14,215,2430417,,,2023-08-09,清算の結了等,,,2015-10-05,1,,,,,サンコウインサツ,0
1561,7040005014010,登記記録の閉鎖等,0,2023-08-15,2023-07-19,特定非営利活動法人エヌピーオー支援センターちば,,その他の設立登記法人,千葉県,野田市,中根１９３,,12,208,2780031,,,2023-07-19,清算の結了等,,,2015-10-05,1,,,,,エヌピーオーシエンセンターチバ,0
1570,7060002018409,登記記録の閉鎖等,0,2023-08-15,2023-07-31,有限会社樹林,,有限会社,栃木県,芳賀郡市貝町,大字続谷５７番地,,09,344,3213404,,,2023-07-31,清算の結了等,,,2015-10-05,1,,,,,ジュリン,0
1587,7100005012412,登記記録の閉鎖等,0,2023-08-15,2023-08-03,特定非営利活動法人スポーツメイト,,その他の設立登記法人,長野県,上伊那郡南箕輪村,１６１４番地３,,20,385,3994511,,,2023-08-03,清算の結了等,,,2019-06-05,1,,,,,スポーツメイト,0
1605,7120902007578,登記記録の閉鎖等,0,2023-08-15,2023-08-03,有限会社古川オペレーション,,有限会社,大阪府,吹田市,片山町１丁目１５番１号幸楽マンション,,27,205,5640082,,,2023-08-03,清算の結了等,,,2015-10-05,1,,,,,フルカワオペレーション,0
1611,7140001048068,登記記録の閉鎖等,0,2023-08-15,2023-08-07,オーレス・ジャパン株式会社,,株式会社,兵庫県,尼崎市,武庫の里２丁目２６番２２号,,28,202,6610041,,,2023-08-07,清算の結了等,,,2015-10-05,1,,,,,オーレスジャパン,0
1616,7180001069523,登記記録の閉鎖等,0,2023-08-15,2023-08-07,メジャー・アプライアンス株式会社,,株式会社,愛知県,豊明市,西川町島原１４番地７,,23,229,4701121,,,2023-08-07,清算の結了等,,,2015-10-05,1,,,,,メジャーアプライアンス,0
1625,7180002073144,登記記録の閉鎖等,0,2023-08-15,2023-08-10,有限会社美富士,,有限会社,愛知県,瀬戸市,坂上町４４１番地の６,,23,204,4890977,,,2023-08-10,清算の結了等,,,2015-10-05,1,,,,,ミフジ,0
1631,7180303000177,登記記録の閉鎖等,0,2023-08-15,2023-08-02,合資会社栄屋,,合資会社,愛知県,岡崎市,本宿町字東木竹３６番地,,23,202,4443505,,,2023-08-02,清算の結了等,,,2015-10-05,1,,,,,サカエヤ,0
1633,7190001026523,登記記録の閉鎖等,0,2023-08-15,2023-08-03,新生商事株式会社,,株式会社,三重県,津市,丸之内２９番４号クアトロビル,,24,201,5140033,,,2023-08-03,清算の結了等,,,2019-06-25,1,,,,,シンセイショウジ,0
1641,7210001007017,登記記録の閉鎖等,0,2023-08-15,2023-08-09,川中工業株式会社,,株式会社,福井県,坂井市,坂井町御油田第８号５８番地,,18,210,9190504,,,2023-08-09,清算の結了等,,,2015-10-05,1,,,,,カワナカコウギョウ,0
1662,7290002044308,登記記録の閉鎖等,0,2023-08-15,2023-07-18,有限会社坂田商事,,有限会社,福岡県,嘉麻市,飯田５０４番地の１,,40,227,8200501,,,2023-07-18,清算の結了等,,,2015-10-05,1,,,,,サカタショウジ,0
1667,7320005000477,登記記録の閉鎖等,0,2023-08-15,2023-06-30,社会福祉法人大分県遺族会,,その他の設立登記法人,大分県,大分市,南春日町４番３１号,,44,201,8700815,,,2023-06-30,合併による解散等,4320005000513,令和５年６月３０日大分市大字横瀬１０５０番地社会福祉法人新樹会（4320005000513）に合併し解散,2015-10-05,1,,,,,オオイタケンイゾクカイ,0
1673,7350002005286,登記記録の閉鎖等,0,2023-08-15,2023-08-03,有限会社漁福丸水産,,有限会社,宮崎県,宮崎市,大字内海５８６５番地１,,45,201,8892301,,,2023-08-03,清算の結了等,,,2015-10-05,1,,,,,リョウフクマルスイサン,0
1674,7360001011301,登記記録の閉鎖等,0,2023-08-15,2023-08-04,株式会社美栄第一交通,,株式会社,沖縄県,浦添市,内間５丁目４番７号,,47,208,9012121,,,2023-08-04,合併による解散等,9360003003162,令和５年８月１日沖縄県浦添市港川二丁目２５番３号株式会社てだこ第一交通（9360003003162）に合併し解散,2015-10-05,1,,,,,ミエダイイチコウツウ,0
1678,7380002012998,登記記録の閉鎖等,0,2023-08-15,2023-08-08,有限会社ヨシダ自動車鈑金塗装,,有限会社,福島県,郡山市,田村町上行合字北古川５１番地の６,,07,203,9630724,,,2023-08-08,清算の結了等,,,2015-10-05,1,,,,,ヨシダジドウシャバンキントソウ,0
1680,7410001011122,登記記録の閉鎖等,0,2023-08-15,2023-08-01,株式会社花市,,株式会社,秋田県,にかほ市,金浦字下谷地５０番地２,,05,214,0180311,,,2023-08-01,清算の結了等,,,2016-03-14,1,,,,,ハナイチ,0
1681,7420001014306,登記記録の閉鎖等,0,2023-08-15,2023-08-03,株式会社ミヨシプラス,,株式会社,青森県,三戸郡新郷村,大字戸来字長峯４７番地１,,02,450,0391801,,,2023-08-03,清算の結了等,,,2015-10-05,1,,,,,,0
1713,8010401072134,登記記録の閉鎖等,0,2023-08-15,2023-08-03,ＫＴＤＭ株式会社,,株式会社,東京都,中央区,日本橋本町３丁目１番１号,,13,102,1030023,,,2023-08-03,清算の結了等,,,2015-10-05,1,,,,,ケイティーディーエム,0
1760,8020001032066,登記記録の閉鎖等,0,2023-08-15,2023-08-01,株式会社マスダ計測,,株式会社,神奈川県,横浜市中区,滝之上１２６番地パーク・ハイム山手の杜５１１,,14,104,2310837,,,2023-08-01,清算の結了等,,,2015-10-05,1,,,,,マスダケイソク,0
1762,8020001051033,登記記録の閉鎖等,0,2023-08-15,2023-08-01,株式会社蒔田あおぞら,,株式会社,神奈川県,横浜市南区,宮元町２丁目２９番地１,,14,105,2320016,,,2023-08-01,合併による解散等,4020001087196,令和５年８月１日横浜市磯子区杉田一丁目１５番３１号株式会社あおぞら整骨院（4020001087196）に合併し解散,2015-10-05,1,,,,,マイタアオゾラ,0
1788,8040001039241,登記記録の閉鎖等,0,2023-08-15,2023-07-20,さくら建設株式会社,,株式会社,千葉県,流山市,前ケ崎６９９番地の１コスモ北小金５０１,,12,220,2700144,,,2023-07-20,清算の結了等,,,2015-10-05,1,,,,,サクラケンセツ,0
1789,8040001056336,登記記録の閉鎖等,0,2023-08-15,2023-08-09,ハウス・エージェント株式会社,,株式会社,千葉県,千葉市中央区,中央２丁目９番８号,,12,101,2600013,,,2023-08-09,合併による解散等,6140001048523,令和５年８月１日大阪市中央区北浜二丁目６番１８号株式会社レゾンディレクション（6140001048523）に合併し解散,2015-10-05,1,,,,,ハウスエージェント,0
1806,8100003002422,登記記録の閉鎖等,0,2023-08-15,2023-08-07,王滝かなぶん合同会社,,合同会社,長野県,木曽郡王滝村,４５０１番地１,,20,429,3970201,,,2023-08-07,清算の結了等,,,2015-10-05,1,,,,,オウタキカナブン,0
1830,8130002016387,登記記録の閉鎖等,0,2023-08-15,2023-07-26,有限会社佐々木電機,,有限会社,京都府,京都市中京区,丸太町通油小路西入丸太町３３番地の２,,26,104,6040077,,,2023-07-26,清算の結了等,,,2015-10-05,1,,,,,ササキデンキ,0
1831,8130002021296,登記記録の閉鎖等,0,2023-08-15,2023-08-14,有限会社イワタ技研,,有限会社,京都府,京都市北区,西賀茂蟹ケ坂町１１３番地１,,26,101,6038805,,,2023-08-14,清算の結了等,,,2015-10-05,1,,,,,イワタギケン,0
1832,8130002027665,登記記録の閉鎖等,0,2023-08-15,2023-07-26,有限会社コーユーハウジング,,有限会社,京都府,宇治市,小倉町山際５６番地山一ビル１階,,26,204,6110042,,,2023-07-26,清算の結了等,,,2015-10-05,1,,,,,コーユーハウジング,0
1855,8200002027798,登記記録の閉鎖等,0,2023-08-15,2023-08-09,有限会社郡上企画,,有限会社,岐阜県,郡上市,高鷲町ひるがの４６７０番地４７１,,21,219,5015301,,,2023-08-09,清算の結了等,,,2015-10-05,1,,,,,グジョウキカク,0
1859,8230003001725,登記記録の閉鎖等,0,2023-08-15,2023-08-02,合同会社電通サカイ,,合同会社,富山県,砺波市,鷹栖２０２０番地,,16,208,9391335,,,2023-08-02,清算の結了等,,,2021-09-13,1,,,,,デンツウサカイ,0
1884,8290801000484,登記記録の閉鎖等,0,2023-08-15,2023-08-09,株式会社岡林写真機店,,株式会社,福岡県,北九州市小倉北区,京町１丁目３番１０号,,40,106,8020002,,,2023-08-09,清算の結了等,,,2015-10-05,1,,,,,オカバヤシシャシンキテン,0
1929,8430001073969,登記記録の閉鎖等,0,2023-08-15,2023-08-07,株式会社サキナデザインストア,,株式会社,北海道,札幌市中央区,南一条西１２丁目４番地,,01,101,0600061,,,2023-08-07,合併による解散等,6120001047089,令和５年８月１日東京都新宿区西新宿六丁目１４－１新宿グリーンタワービル１５階株式会社フヨウサキナ（6120001047089）に合併し解散,2017-05-08,1,,,,,サキナデザインストア,0
1950,9010001152450,登記記録の閉鎖等,0,2023-08-15,2023-08-07,株式会社Ｈ＆Ｅ,,株式会社,東京都,世田谷区,池尻３丁目２－３,,13,112,1540001,,,2023-08-07,清算の結了等,,,2015-10-05,1,,,,,エイチアンドイー,0
1959,9010002053706,登記記録の閉鎖等,0,2023-08-15,2023-08-03,有限会社トータルヘルス教育ネットワーク,,有限会社,東京都,中央区,日本橋箱崎町２５番６号,,13,102,1030015,,,2023-08-03,清算の結了等,,,2015-10-05,1,,,,,トータルヘルスキョウイクネットワーク,0
1965,9010401069971,登記記録の閉鎖等,0,2023-08-15,2023-07-20,株式会社ハートフル,,株式会社,千葉県,船橋市,駿河台１丁目２７番１号,,12,204,2730862,,,2023-07-20,合併による解散等,9040001105307,令和５年７月２０日千葉県船橋市駿河台一丁目２７番１号Ｈ＆Ｃホールディングス株式会社（9040001105307）に合併し解散,2015-10-05,1,,,,,ハートフル,0
1970,9010403020313,登記記録の閉鎖等,0,2023-08-15,2023-08-03,池尻４丁目プロジェクト合同会社,,合同会社,東京都,千代田区,丸の内２丁目３番２号,,13,101,1000005,,,2023-08-03,清算の結了等,,,2019-03-12,1,,,,,イケジリヨンチョウメプロジェクト,0
2016,9013201014148,登記記録の閉鎖等,0,2023-08-15,2023-08-03,株式会社トータルケア・マッサージ,,株式会社,東京都,目黒区,洗足１丁目５番１号,,13,110,1520012,,,2023-08-03,清算の結了等,,,2015-10-05,1,,,,,トータルケアマッサージ,0
2022,9020001085831,登記記録の閉鎖等,0,2023-08-15,2023-08-01,株式会社綱島あおぞら,,株式会社,神奈川県,横浜市港北区,綱島東１丁目７番９号,,14,109,2230052,,,2023-08-01,合併による解散等,4020001087196,令和５年８月１日横浜市磯子区杉田一丁目１５番３１号株式会社あおぞら整骨院（4020001087196）に合併し解散,2015-10-05,1,,,,,ツナシマアオゾラ,0
2065,9060001010059,登記記録の閉鎖等,0,2023-08-15,2023-07-31,薬師堂株式会社,,株式会社,栃木県,芳賀郡芳賀町,大字祖母井７６５番地,,09,345,3213304,,,2023-07-31,清算の結了等,,,2015-10-05,1,,,,,ヤクシドウ,0
2095,9120003010892,登記記録の閉鎖等,0,2023-08-15,2023-08-08,合同会社エムエムオプティクス,,合同会社,大阪府,寝屋川市,美井町１５－１５,,27,215,5720007,,,2023-08-08,清算の結了等,,,2015-10-05,1,,,,,エムエムオプティクス,0
2098,9120901016677,登記記録の閉鎖等,0,2023-08-15,2023-08-03,株式会社ＭＢＲ,,株式会社,大阪府,豊中市,刀根山５丁目１番１号,,27,203,5600045,,,2023-08-03,清算の結了等,,,2015-10-05,1,,,,,エムビーアール,0
2105,9140001079276,登記記録の閉鎖等,0,2023-08-15,2023-08-07,株式会社北上,,株式会社,兵庫県,川西市,小戸３丁目１０番７号,,28,217,6660014,,,2023-08-07,清算の結了等,,,2015-10-05,1,,,,,キタガミ,0
2119,9180002077234,登記記録の閉鎖等,0,2023-08-15,2023-08-10,有限会社のぶ屋,,有限会社,愛知県,一宮市,千秋町佐野字工高前４９番地,,23,203,4910804,,,2023-08-10,清算の結了等,,,2015-10-05,1,,,,,ノブヤ,0
2150,9280002005787,登記記録の閉鎖等,0,2023-08-15,2023-08-07,有限会社とんき,,有限会社,島根県,出雲市,今市町１２６６番地２,,32,203,6930001,,,2023-08-07,清算の結了等,,,2015-10-05,1,,,,,トンキ,0
2160,9330002019996,登記記録の閉鎖等,0,2023-08-15,2023-07-21,有限会社亀川建設,,有限会社,熊本県,上益城郡益城町,大字惣領１４９６番地２,,43,443,8612233,,,2023-07-21,清算の結了等,,,2015-10-05,1,,,,,,0
2172,9370002011487,登記記録の閉鎖等,0,2023-08-15,2023-08-04,有限会社シャルマン,,有限会社,宮城県,仙台市青葉区,通町２丁目６番２５号,,04,101,9810915,,,2023-08-04,清算の結了等,,,2015-10-05,1,,,,,シャルマン,0
2186,9450001008294,登記記録の閉鎖等,0,2023-08-15,2023-08-10,株式会社北方現代社,,株式会社,北海道,稚内市,港３丁目１番１０号,,01,214,0970021,,,2023-08-10,清算の結了等,,,2015-10-05,1,,,,,ホッポウゲンダイシャ,0
2191,9480005004824,登記記録の閉鎖等,0,2023-08-15,2023-07-19,八幡神社,,その他の設立登記法人,徳島県,那賀郡那賀町,拝宮字徳ヶ谷１番地,,36,368,7715518,,,2023-07-19,合併による解散等,1480005004823,令和５年７月１９日徳島県那賀郡那賀町拝宮字白人谷１番地八幡神社（1480005004823）に合併し解散,2015-10-05,1,,,,,ハチマンジンジャ,0
