sequenceNumber,corporateNumber,process,correct,updateDate,changeDate,name,nameImageId,kind,prefectureName,cityName,streetNumber,addressImageId,prefectureCode,cityCode,postCode,addressOutside,addressOutsideImageId,closeDate,closeCause,successorCorporateNumber,changeCause,assignmentDate,latest,enName,enPrefectureName,enCityName,enAddressOutside,furigana,hihyoji
10,1010005032136,登記記録の閉鎖等,0,2022-01-19,2022-01-14,一般社団法人ハートグリーン,,その他の設立登記法人,東京都,文京区,本郷４丁目１６番７号,,13,105,1130033,,,2022-01-14,清算の結了等,,,2020-08-18,1,,,,,ハートグリーン,0
18,1010401137620,登記記録の閉鎖等,0,2022-01-19,2022-01-07,株式会社カドークオーラ,,株式会社,東京都,港区,白金台４丁目７番４号,,13,103,1080071,,,2022-01-07,合併による解散等,3010401094018,令和３年１２月３０日東京都港区白金台４－２－１１株式会社カドー（3010401094018）に合併し解散,2018-04-06,1,,,,,カドークオーラ,0
46,1011401020915,登記記録の閉鎖等,0,2022-01-19,2022-01-14,株式会社ＹＵＨＷＡ,,株式会社,東京都,板橋区,清水町９番６号,,13,119,1740053,,,2022-01-14,清算の結了等,,,2018-04-05,1,,,,,ユウワ,0
53,1011702001060,登記記録の閉鎖等,0,2022-01-19,2022-01-11,有限会社伊東精機,,有限会社,東京都,千代田区,神田和泉町１番地１３の１３鈴木ビル２Ｆ,,13,101,1010024,,,2022-01-11,清算の結了等,,,2015-10-05,1,,,,,イトウセイキ,0
58,1012301000981,登記記録の閉鎖等,0,2022-01-19,2022-01-11,三誠工業株式会社,,株式会社,東京都,町田市,南町田３丁目２１番１７号,,13,209,1940005,,,2022-01-11,清算の結了等,,,2015-10-05,1,,,,,サンセイコウギョウ,0
66,1012702013343,登記記録の閉鎖等,0,2022-01-19,2022-01-14,有限会社上野工業所,,有限会社,東京都,練馬区,関町南４丁目１番１４号,,13,120,1770053,,,2022-01-14,清算の結了等,,,2015-10-05,1,,,,,ウエノコウギョウショ,0
68,1012802003244,登記記録の閉鎖等,0,2022-01-19,2022-01-17,有限会社昭和藥局,,有限会社,東京都,昭島市,朝日町３丁目１８番１１号,,13,207,1960025,,,2022-01-17,清算の結了等,,,2015-10-05,1,,,,,ショウワヤッキョク,0
73,1020001137672,登記記録の閉鎖等,0,2022-01-19,2022-01-13,株式会社ＡＮＤ　ＳＨＩＥＬＤ,,株式会社,神奈川県,鎌倉市,由比ガ浜２丁目２番３７号,,14,204,2480014,,,2022-01-13,合併による解散等,8020001032470,令和４年１月１日神奈川県鎌倉市由比ガ浜二丁目２番３７号株式会社テラ（8020001032470）に合併し解散,2020-09-14,1,,,,,アンドシールド,0
108,1040002024430,登記記録の閉鎖等,0,2022-01-19,2022-01-12,有限会社ヌ・エール,,有限会社,千葉県,船橋市,湊町２丁目１１番１６号,,12,204,2730011,,,2022-01-12,清算の結了等,,,2015-10-05,1,,,,,ヌエール,0
116,1050001004928,登記記録の閉鎖等,0,2022-01-19,2022-01-17,株式会社テイ・エム・アール,,株式会社,茨城県,那珂市,平野１８００番地の４３１,,08,226,3192104,,,2022-01-17,登記官による閉鎖,,,2015-10-05,1,,,,,,0
117,1050001005562,登記記録の閉鎖等,0,2022-01-19,2022-01-17,インターサポートテクノロジー株式会社,,株式会社,茨城県,水戸市,双葉台２丁目３９番地の８,,08,201,3114145,,,2022-01-17,登記官による閉鎖,,,2015-10-05,1,,,,,,0
118,1050001009480,登記記録の閉鎖等,0,2022-01-19,2022-01-17,株式会社土浦住建,,株式会社,茨城県,土浦市,真鍋２丁目７番３号,,08,203,3000051,,,2022-01-17,登記官による閉鎖,,,2015-10-05,1,,,,,,0
119,1050001015875,登記記録の閉鎖等,0,2022-01-19,2022-01-17,株式会社つくばワークステーション,,株式会社,茨城県,つくば市,花畑３丁目７番地７,,08,220,3003261,,,2022-01-17,登記官による閉鎖,,,2015-10-05,1,,,,,,0
120,1050001022640,登記記録の閉鎖等,0,2022-01-19,2022-01-17,株式会社ミヨマイスター,,株式会社,茨城県,神栖市,神栖１丁目１４番７号,,08,232,3140143,,,2022-01-17,登記官による閉鎖,,,2015-10-05,1,,,,,,0
121,1050001024042,登記記録の閉鎖等,0,2022-01-19,2022-01-17,トキワ情報システム株式会社,,株式会社,茨城県,高萩市,高浜町３丁目６１番地,,08,214,3180013,,,2022-01-17,登記官による閉鎖,,,2015-10-05,1,,,,,,0
122,1050001024240,登記記録の閉鎖等,0,2022-01-19,2022-01-17,大成株式会社,,株式会社,茨城県,北茨城市,磯原町大塚１５０８番地,,08,215,3191546,,,2022-01-17,登記官による閉鎖,,,2015-10-05,1,,,,,,0
123,1050001025338,登記記録の閉鎖等,0,2022-01-19,2022-01-17,株式会社根津商店,,株式会社,茨城県,龍ケ崎市,大徳町１８３番地,,08,208,3010816,,,2022-01-17,登記官による閉鎖,,,2015-10-05,1,,,,,,0
124,1050001025395,登記記録の閉鎖等,0,2022-01-19,2022-01-17,株式会社夢職人,,株式会社,茨城県,龍ケ崎市,愛戸町４９番地３,,08,208,3010838,,,2022-01-17,登記官による閉鎖,,,2015-10-05,1,,,,,,0
127,1050002002955,登記記録の閉鎖等,0,2022-01-19,2022-01-17,有限会社水戸大塚屋,00022570,有限会社,茨城県,水戸市,柵町１丁目１番１３号,,08,201,3100802,,,2022-01-17,登記官による閉鎖,,,2015-10-05,1,,,,,,0
128,1050002006188,登記記録の閉鎖等,0,2022-01-19,2022-01-17,有限会社モリカワ,,有限会社,茨城県,那珂市,菅谷１５６８番地１,,08,226,3110105,,,2022-01-17,登記官による閉鎖,,,2015-10-05,1,,,,,,0
129,1050002014298,登記記録の閉鎖等,0,2022-01-19,2022-01-17,有限会社ラミントン,,有限会社,茨城県,かすみがうら市,稲吉東３丁目１５番１５号,,08,230,3150053,,,2022-01-17,登記官による閉鎖,,,2015-10-05,1,,,,,,0
130,1050002020131,登記記録の閉鎖等,0,2022-01-19,2022-01-17,有限会社船木,,有限会社,茨城県,坂東市,桐木６４７番地１６,,08,228,3060636,,,2022-01-17,登記官による閉鎖,,,2015-10-05,1,,,,,,0
131,1050002023695,登記記録の閉鎖等,0,2022-01-19,2022-01-17,有限会社秋栄内装,,有限会社,茨城県,古河市,大山１５０４番地,,08,204,3060052,,,2022-01-17,登記官による閉鎖,,,2015-10-05,1,,,,,,0
132,1050002024982,登記記録の閉鎖等,0,2022-01-19,2022-01-17,有限会社リック,,有限会社,茨城県,古河市,下辺見５２５番地１,,08,204,3060235,,,2022-01-17,登記官による閉鎖,,,2015-10-05,1,,,,,,0
133,1050002029271,登記記録の閉鎖等,0,2022-01-19,2022-01-17,有限会社暁建築企画,,有限会社,茨城県,鉾田市,常磐１６３５番地２５,,08,234,3111427,,,2022-01-17,登記官による閉鎖,,,2015-10-05,1,,,,,,0
134,1050002036697,登記記録の閉鎖等,0,2022-01-19,2022-01-17,有限会社酒のたにむら,,有限会社,茨城県,取手市,野々井１０１３番地の５,,08,217,3020032,,,2022-01-17,登記官による閉鎖,,,2015-10-05,1,,,,,,0
136,1050003000529,登記記録の閉鎖等,0,2022-01-19,2022-01-17,合資会社パワークリエイション,,合資会社,茨城県,水戸市,千波町２４８６番地の１,,08,201,3100851,,,2022-01-17,登記官による閉鎖,,,2015-10-05,1,,,,,,0
139,1050003001015,登記記録の閉鎖等,0,2022-01-19,2022-01-17,ＭＡＷＡＮ　ＴＲＡＤＩＮＧ合同会社,,合同会社,茨城県,石岡市,南台３丁目１９番１号南台コーポＡ１０１号室,,08,205,3150035,,,2022-01-17,登記官による閉鎖,,,2015-10-05,1,,,,,,0
141,1050005005749,登記記録の閉鎖等,0,2022-01-19,2022-01-17,特定非営利活動法人犯罪被害者支援の会アピュイ,,その他の設立登記法人,茨城県,古河市,本町２丁目５番２５号,,08,204,3060023,,,2022-01-17,登記官による閉鎖,,,2015-10-05,1,,,,,,0
142,1050005006045,登記記録の閉鎖等,0,2022-01-19,2022-01-17,特定非営利活動法人ゼロ・ワンの郷,,その他の設立登記法人,茨城県,神栖市,横瀬１２番地,,08,232,3140113,,,2022-01-17,登記官による閉鎖,,,2015-10-05,1,,,,,,0
143,1050005007266,登記記録の閉鎖等,0,2022-01-19,2022-01-17,企業組合こころ介護サービス事業所,,その他の設立登記法人,茨城県,日立市,大和田町５１８番地１,,08,202,3191234,,,2022-01-17,登記官による閉鎖,,,2015-10-05,1,,,,,,0
144,1050005009725,登記記録の閉鎖等,0,2022-01-19,2022-01-17,特定非営利活動法人常総ふれあいプラザ,,その他の設立登記法人,茨城県,常総市,水海道栄町２６５８番地,,08,211,3030024,,,2022-01-17,登記官による閉鎖,,,2015-10-05,1,,,,,,0
146,1060002003416,登記記録の閉鎖等,0,2022-01-19,2022-01-12,有限会社暮しのストア新井,,有限会社,栃木県,宇都宮市,西川田５丁目５番１４号,,09,201,3210152,,,2022-01-12,清算の結了等,,,2015-10-05,1,,,,,クラシノストアアライ,0
149,1080001014841,登記記録の閉鎖等,0,2022-01-19,2022-01-19,株式会社サンレイシステム,,株式会社,静岡県,焼津市,惣右衛門１５番地の２,,22,212,4250065,,,2022-01-19,登記官による閉鎖,,,2015-10-05,1,,,,,,0
150,1080001017340,登記記録の閉鎖等,0,2022-01-19,2022-01-19,株式会社サンプラン,,株式会社,静岡県,藤枝市,駅前２丁目５番２号,,22,214,4260034,,,2022-01-19,登記官による閉鎖,,,2015-10-05,1,,,,,,0
151,1080001017506,登記記録の閉鎖等,0,2022-01-19,2022-01-19,株式会社ＨＳ,,株式会社,静岡県,藤枝市,高岡３丁目１９番１３号,,22,214,4260062,,,2022-01-19,登記官による閉鎖,,,2015-10-05,1,,,,,,0
153,1080001018438,登記記録の閉鎖等,0,2022-01-19,2022-01-17,株式会社サクリ,,株式会社,静岡県,静岡市葵区,相生町６番２２号,,22,101,4200838,,,2022-01-17,清算の結了等,,,2015-10-05,1,,,,,サクリ,0
155,1080002010195,登記記録の閉鎖等,0,2022-01-19,2022-01-19,有限会社清水ガラス,,有限会社,静岡県,静岡市清水区,中矢部町１６番２８号,,22,103,4240854,,,2022-01-19,登記官による閉鎖,,,2015-10-05,1,,,,,,0
156,1080002011020,登記記録の閉鎖等,0,2022-01-19,2022-01-19,有限会社藤建装,,有限会社,静岡県,静岡市清水区,長崎新田１６７番地の３,,22,103,4240064,,,2022-01-19,登記官による閉鎖,,,2015-10-05,1,,,,,,0
157,1080002015954,登記記録の閉鎖等,0,2022-01-19,2022-01-19,有限会社成慶塾,,有限会社,静岡県,焼津市,西小川２丁目４番地の９,,22,212,4250036,,,2022-01-19,登記官による閉鎖,,,2015-10-05,1,,,,,,0
159,1080101001624,登記記録の閉鎖等,0,2022-01-19,2022-01-19,株式会社フクヤマ精機,,株式会社,静岡県,沼津市,柳町３番２１号,,22,203,4100043,,,2022-01-19,登記官による閉鎖,,,2015-10-05,1,,,,,,0
160,1080101005617,登記記録の閉鎖等,0,2022-01-19,2022-01-19,株式会社サングロー,,株式会社,静岡県,三島市,緑町５番２１号,,22,206,4110848,,,2022-01-19,登記官による閉鎖,,,2015-10-05,1,,,,,,0
161,1080101008743,登記記録の閉鎖等,0,2022-01-19,2022-01-19,株式会社シンワ,,株式会社,静岡県,富士市,伝法９８８番地の１７,,22,210,4170061,,,2022-01-19,登記官による閉鎖,,,2015-10-05,1,,,,,,0
162,1080101009345,登記記録の閉鎖等,0,2022-01-19,2022-01-19,ヒノデ電子株式会社,,株式会社,静岡県,富士市,神谷９６番地の４０,,22,210,4170821,,,2022-01-19,登記官による閉鎖,,,2015-10-05,1,,,,,,0
163,1080101009436,登記記録の閉鎖等,0,2022-01-19,2022-01-19,富士総業株式会社,,株式会社,静岡県,富士市,厚原２４番地の１,,22,210,4190201,,,2022-01-19,登記官による閉鎖,,,2015-10-05,1,,,,,,0
164,1080101012613,登記記録の閉鎖等,0,2022-01-19,2022-01-19,大神建設株式会社,,株式会社,静岡県,熱海市,泉１０１番地,,22,205,4130001,,,2022-01-19,登記官による閉鎖,,,2015-10-05,1,,,,,,0
165,1080101013157,登記記録の閉鎖等,0,2022-01-19,2022-01-19,トータルカーサービス株式会社アオシマ,,株式会社,静岡県,伊東市,広野１丁目２番９号,,22,208,4140038,,,2022-01-19,登記官による閉鎖,,,2015-10-05,1,,,,,,0
166,1080102000955,登記記録の閉鎖等,0,2022-01-19,2022-01-19,有限会社カレン,,有限会社,静岡県,沼津市,共栄町１７番地の２,,22,203,4100064,,,2022-01-19,登記官による閉鎖,,,2015-10-05,1,,,,,,0
167,1080102003644,登記記録の閉鎖等,0,2022-01-19,2022-01-19,有限会社山口工貿,,有限会社,静岡県,沼津市,西間門５５５番地,,22,203,4100871,,,2022-01-19,登記官による閉鎖,,,2015-10-05,1,,,,,,0
168,1080102004279,登記記録の閉鎖等,0,2022-01-19,2022-01-19,有限会社伸栄鉄工,,有限会社,静岡県,裾野市,久根５９１番地,,22,220,4101111,,,2022-01-19,登記官による閉鎖,,,2015-10-05,1,,,,,,0
169,1080102004691,登記記録の閉鎖等,0,2022-01-19,2022-01-19,有限会社エイッチティ二一キャム工房,,有限会社,静岡県,沼津市,下河原町１５１番地の３,,22,203,4100841,,,2022-01-19,登記官による閉鎖,,,2015-10-05,1,,,,,,0
170,1080102006738,登記記録の閉鎖等,0,2022-01-19,2022-01-19,有限会社長田左官工業,,有限会社,静岡県,御殿場市,御殿場３１８番地の４,,22,215,4120028,,,2022-01-19,登記官による閉鎖,,,2015-10-05,1,,,,,,0
171,1080102007447,登記記録の閉鎖等,0,2022-01-19,2022-01-19,有限会社ファクト企画,,有限会社,静岡県,御殿場市,萩原７７９番地の２３,,22,215,4120042,,,2022-01-19,登記官による閉鎖,,,2015-10-05,1,,,,,,0
172,1080102007793,登記記録の閉鎖等,0,2022-01-19,2022-01-19,有限会社ア・ローズ,,有限会社,静岡県,御殿場市,板妻８１番地の１－Ｂ,,22,215,4120048,,,2022-01-19,登記官による閉鎖,,,2015-10-05,1,,,,,,0
173,1080102010475,登記記録の閉鎖等,0,2022-01-19,2022-01-19,有限会社正栄商事,,有限会社,静岡県,駿東郡長泉町,下土狩１１９４番地の１０,,22,342,4110943,,,2022-01-19,登記官による閉鎖,,,2017-01-04,1,,,,,,0
174,1080102010491,登記記録の閉鎖等,0,2022-01-19,2022-01-19,有限会社昇丸設備工業所,,有限会社,静岡県,駿東郡清水町,柿田３７３番地の２,,22,341,4110904,,,2022-01-19,登記官による閉鎖,,,2015-10-05,1,,,,,,0
175,1080102010558,登記記録の閉鎖等,0,2022-01-19,2022-01-18,杉本養豚有限会社,,有限会社,静岡県,三島市,川原ケ谷山田８２６番地,,22,206,4110022,,,2022-01-18,清算の結了等,,,2015-10-05,1,,,,,スギモトヨウトン,0
176,1080102013899,登記記録の閉鎖等,0,2022-01-19,2022-01-19,有限会社コバヤシ,,有限会社,静岡県,富士市,伝法１１４７番地の３,,22,210,4170061,,,2022-01-19,登記官による閉鎖,,,2015-10-05,1,,,,,,0
177,1080102015573,登記記録の閉鎖等,0,2022-01-19,2022-01-19,有限会社明星不動産,,有限会社,静岡県,富士市,水戸島１７７番地の１,,22,210,4160921,,,2022-01-19,登記官による閉鎖,,,2015-10-05,1,,,,,,0
178,1080102018097,登記記録の閉鎖等,0,2022-01-19,2022-01-19,有限会社伊勢浪水産,,有限会社,静岡県,熱海市,上多賀５２５番地の１７,,22,205,4130101,,,2022-01-19,登記官による閉鎖,,,2015-10-05,1,,,,,,0
179,1080102022322,登記記録の閉鎖等,0,2022-01-19,2022-01-19,有限会社翠山,,有限会社,静岡県,駿東郡小山町,下小林１１３番地,,22,344,4101324,,,2022-01-19,登記官による閉鎖,,,2016-08-25,1,,,,,,0
180,1080103000005,登記記録の閉鎖等,0,2022-01-19,2022-01-19,合資会社アイアイ,,合資会社,静岡県,沼津市,大手町３丁目５番２３号,,22,203,4100801,,,2022-01-19,登記官による閉鎖,,,2015-10-05,1,,,,,,0
182,1080401015786,登記記録の閉鎖等,0,2022-01-19,2022-01-19,株式会社協和,,株式会社,静岡県,磐田市,国府台６０番地の２２,,22,211,4380077,,,2022-01-19,登記官による閉鎖,,,2015-10-05,1,,,,,,0
184,1080402006223,登記記録の閉鎖等,0,2022-01-19,2022-01-19,浜松予備校有限会社,,有限会社,静岡県,浜松市中区,天神町１４番２１号,,22,131,4300808,,,2022-01-19,登記官による閉鎖,,,2015-10-05,1,,,,,,0
185,1080402010712,登記記録の閉鎖等,0,2022-01-19,2022-01-19,有限会社ウェルライフ,,有限会社,静岡県,浜松市中区,小豆餅１丁目３３番５号,,22,131,4338113,,,2022-01-19,登記官による閉鎖,,,2015-10-05,1,,,,,,0
186,1080402021354,登記記録の閉鎖等,0,2022-01-19,2022-01-19,有限会社エス・エス・ディー,,有限会社,静岡県,磐田市,掛塚１８４０番地１,,22,211,4380234,,,2022-01-19,登記官による閉鎖,,,2015-10-05,1,,,,,,0
187,1090001009436,登記記録の閉鎖等,0,2022-01-19,2022-01-13,株式会社甲信,,株式会社,山梨県,甲州市,勝沼町菱山１２１０番地１,,19,213,4091302,,,2022-01-13,清算の結了等,,,2015-10-05,1,,,,,コウシン,0
197,1120001225418,登記記録の閉鎖等,0,2022-01-19,2022-01-14,株式会社ネムリ,,株式会社,大阪府,大阪市中央区,鎗屋町１丁目１番１号,,27,128,5400027,,,2022-01-14,清算の結了等,,,2019-11-29,1,,,,,ネムリ,0
206,1120003016682,登記記録の閉鎖等,0,2022-01-19,2022-01-14,合同会社セカンド,,合同会社,大阪府,大阪市中央区,今橋２丁目５番８号,,27,128,5410042,,,2022-01-14,清算の結了等,,,2019-12-11,1,,,,,セカンド,0
214,1120102005925,登記記録の閉鎖等,0,2022-01-19,2022-01-13,有限会社谷サイクル工業,,有限会社,大阪府,堺市東区,草尾３５３番地の３８,,27,143,5998127,,,2022-01-13,清算の結了等,,,2021-06-22,1,,,,,タニサイクルコウギョウ,0
215,1120102017078,登記記録の閉鎖等,0,2022-01-19,2022-01-13,有限会社ヘイス,,有限会社,大阪府,富田林市,昭和町１丁目１９０９番地１号,,27,214,5840092,,,2022-01-13,清算の結了等,,,2015-10-05,1,,,,,ヘイス,0
221,1130001000308,登記記録の閉鎖等,0,2022-01-19,2022-01-13,エービーエス株式会社,,株式会社,京都府,京都市右京区,西院西田町２６番地,,26,108,6150055,,,2022-01-13,清算の結了等,,,2015-10-05,1,,,,,エービーエス,0
227,1140001055838,登記記録の閉鎖等,0,2022-01-19,2022-01-13,株式会社尾畑本店,,株式会社,兵庫県,豊岡市,千代田町８番２７号,,28,209,6680032,,,2022-01-13,清算の結了等,,,2015-10-05,1,,,,,,0
243,1180001018312,登記記録の閉鎖等,0,2022-01-19,2022-01-19,株式会社大海,,株式会社,愛知県,名古屋市西区,大野木４丁目６番２,,23,104,4520803,,,2022-01-19,登記官による閉鎖,,,2015-10-05,1,,,,,,0
244,1180001020994,登記記録の閉鎖等,0,2022-01-19,2022-01-19,株式会社水野鉄工所,,株式会社,愛知県,名古屋市中川区,百船町１９番６号,,23,110,4540801,,,2022-01-19,登記官による閉鎖,,,2015-10-05,1,,,,,,0
245,1180001057095,登記記録の閉鎖等,0,2022-01-19,2022-01-19,株式会社創巧伎建,,株式会社,愛知県,名古屋市中村区,中村町２丁目９７番地,,23,105,4530053,,,2022-01-19,登記官による閉鎖,,,2015-10-05,1,,,,,,0
246,1180001067747,登記記録の閉鎖等,0,2022-01-19,2022-01-19,株式会社ごまだんご,,株式会社,愛知県,日進市,岩崎台１丁目１２３９番地,,23,230,4700135,,,2022-01-19,登記官による閉鎖,,,2015-10-05,1,,,,,,0
247,1180001073407,登記記録の閉鎖等,0,2022-01-19,2022-01-19,株式会社ＴＲＵＳＴ　ＭＵＳＩＣ,,株式会社,愛知県,名古屋市中川区,伏屋５丁目３０１番地,,23,110,4540996,,,2022-01-19,登記官による閉鎖,,,2015-10-05,1,,,,,,0
248,1180001074850,登記記録の閉鎖等,0,2022-01-19,2022-01-19,富士工業株式会社,,株式会社,愛知県,春日井市,前並町１丁目５番地の１５,,23,206,4860903,,,2022-01-19,登記官による閉鎖,,,2015-10-05,1,,,,,,0
249,1180001077738,登記記録の閉鎖等,0,2022-01-19,2022-01-19,Ｓ．Ｔ．Ｋ．Ｊａｐａｎ株式会社,,株式会社,愛知県,小牧市,大字大草字深洞２０５９番地１,,23,219,4850802,,,2022-01-19,登記官による閉鎖,,,2015-10-05,1,,,,,,0
250,1180001085410,登記記録の閉鎖等,0,2022-01-19,2022-01-19,株式会社Ｂ－マシン,,株式会社,愛知県,一宮市,千秋町町屋字西鎌田１５番地１,,23,203,4910813,,,2022-01-19,登記官による閉鎖,,,2015-10-05,1,,,,,,0
252,1180001096473,登記記録の閉鎖等,0,2022-01-19,2022-01-19,セントラル自動車商事株式会社,,株式会社,愛知県,津島市,宮川町２丁目３６番地,,23,208,4960853,,,2022-01-19,登記官による閉鎖,,,2015-10-05,1,,,,,,0
253,1180001102487,登記記録の閉鎖等,0,2022-01-19,2022-01-19,株式会社Ｋ・Ｉ・Ｓ,,株式会社,愛知県,名古屋市昭和区,白金３丁目４番２７号,,23,107,4660058,,,2022-01-19,登記官による閉鎖,,,2015-10-05,1,,,,,,0
257,1180001130208,登記記録の閉鎖等,0,2022-01-19,2022-01-13,株式会社ＳＰＲＯＵＴＵＲＥ,,株式会社,愛知県,名古屋市名東区,照が丘１８２,,23,115,4650042,,,2022-01-13,清算の結了等,,,2017-11-22,1,,,,,,0
258,1180001142748,登記記録の閉鎖等,0,2022-01-19,2022-01-14,Ｂ・Ｈ・Ｊ株式会社,,株式会社,愛知県,名古屋市千種区,千種２丁目２３番６号,,23,101,4640858,,,2022-01-14,清算の結了等,,,2020-09-07,1,,,,,ビーエイチジェイ,0
261,1180002017957,登記記録の閉鎖等,0,2022-01-19,2022-01-19,有限会社黄金商事,,有限会社,愛知県,名古屋市中川区,東起町１丁目７３番地の１,,23,110,4540935,,,2022-01-19,登記官による閉鎖,,,2015-10-05,1,,,,,,0
262,1180002019607,登記記録の閉鎖等,0,2022-01-19,2022-01-19,有限会社明和紙業,,有限会社,愛知県,名古屋市中川区,伏屋５丁目９０８番地,,23,110,4540996,,,2022-01-19,登記官による閉鎖,,,2015-10-05,1,,,,,,0
263,1180002021587,登記記録の閉鎖等,0,2022-01-19,2022-01-19,有限会社松栄電子テクノロジー,,有限会社,愛知県,名古屋市天白区,植田山５丁目１７０１番地,,23,116,4680001,,,2022-01-19,登記官による閉鎖,,,2015-10-05,1,,,,,,0
264,1180002025456,登記記録の閉鎖等,0,2022-01-19,2022-01-19,有限会社桶狭間学習塾,,有限会社,愛知県,名古屋市緑区,有松町大字桶狭間字生山１番第１４８番地,,23,114,4580912,,,2022-01-19,登記官による閉鎖,,,2015-10-05,1,,,,,,0
265,1180002027279,登記記録の閉鎖等,0,2022-01-19,2022-01-19,有限会社大島工務店,,有限会社,愛知県,名古屋市中村区,郷前町１丁目２番地,,23,105,4530808,,,2022-01-19,登記官による閉鎖,,,2015-10-05,1,,,,,,0
266,1180002032337,登記記録の閉鎖等,0,2022-01-19,2022-01-19,有限会社ネフェルティティ,,有限会社,愛知県,名古屋市千種区,覚王山通８丁目７０番地の１,,23,101,4640841,,,2022-01-19,登記官による閉鎖,,,2015-10-05,1,,,,,,0
267,1180002045677,登記記録の閉鎖等,0,2022-01-19,2022-01-19,有限会社クリエイトインターナショナル,,有限会社,愛知県,名古屋市熱田区,横田１丁目１１番６号,,23,109,4560022,,,2022-01-19,登記官による閉鎖,,,2015-10-05,1,,,,,,0
268,1180002061666,登記記録の閉鎖等,0,2022-01-19,2022-01-19,有限会社旭更生衛生社,,有限会社,愛知県,日進市,北新町殿ケ池上５６４番地,,23,230,4700103,,,2022-01-19,登記官による閉鎖,,,2015-10-05,1,,,,,,0
269,1180002063019,登記記録の閉鎖等,0,2022-01-19,2022-01-19,有限会社新盛物流企画,,有限会社,愛知県,日進市,岩崎町芦廻間９４番地５グローリアス日進岩崎台１０７,00073275,23,230,4700131,,,2022-01-19,登記官による閉鎖,,,2015-10-05,1,,,,,,0
270,1180002065766,登記記録の閉鎖等,0,2022-01-19,2022-01-19,有限会社協立金型製作所,,有限会社,愛知県,春日井市,高山町２丁目１２番地の１８,,23,206,4860912,,,2022-01-19,登記官による閉鎖,,,2015-10-05,1,,,,,,0
271,1180002069503,登記記録の閉鎖等,0,2022-01-19,2022-01-19,有限会社テックマン,,有限会社,愛知県,小牧市,大字北外山２７３５番地の２,,23,219,4850023,,,2022-01-19,登記官による閉鎖,,,2015-10-05,1,,,,,,0
272,1180002081111,登記記録の閉鎖等,0,2022-01-19,2022-01-19,有限会社ミヤケ建設,,有限会社,愛知県,稲沢市,平和町下三宅郷内４３３番地,,23,220,4901312,,,2022-01-19,登記官による閉鎖,,,2015-10-05,1,,,,,,0
273,1180002082316,登記記録の閉鎖等,0,2022-01-19,2022-01-19,アベ有限会社,,有限会社,愛知県,岩倉市,大市場町郷廻４０９番地１,,23,228,4820002,,,2022-01-19,登記官による閉鎖,,,2015-10-05,1,,,,,,0
274,1180002087942,登記記録の閉鎖等,0,2022-01-19,2022-01-19,有限会社阪野建工,,有限会社,愛知県,東海市,富木島町外面１３番地の１５,,23,222,4760011,,,2022-01-19,登記官による閉鎖,,,2015-10-05,1,,,,,,0
275,1180002089872,登記記録の閉鎖等,0,2022-01-19,2022-01-19,有限会社豊友産業,,有限会社,愛知県,海部郡蟹江町,学戸６丁目２２８番地,,23,425,4970050,,,2022-01-19,登記官による閉鎖,,,2015-10-05,1,,,,,,0
277,1180003004616,登記記録の閉鎖等,0,2022-01-19,2022-01-19,合資会社水谷商事,,合資会社,愛知県,名古屋市中村区,太閤通５丁目２２番地,,23,105,4530811,,,2022-01-19,登記官による閉鎖,,,2015-10-05,1,,,,,,0
278,1180003009887,登記記録の閉鎖等,0,2022-01-19,2022-01-19,合同会社華の帆商事,,合同会社,愛知県,名古屋市昭和区,山手通４丁目１八事本町団地１－１０３,,23,107,4660815,,,2022-01-19,登記官による閉鎖,,,2015-10-05,1,,,,,,0
279,1180003012453,登記記録の閉鎖等,0,2022-01-19,2022-01-19,合名会社長谷徳産業,,合名会社,愛知県,江南市,東野町新田東３番地,,23,217,4838428,,,2022-01-19,登記官による閉鎖,,,2015-10-05,1,,,,,,0
280,1180005006338,登記記録の閉鎖等,0,2022-01-19,2022-01-19,特定非営利活動法人チームボクナナ,,その他の設立登記法人,愛知県,名古屋市熱田区,波寄町１０番１号２Ｆ,,23,109,4560003,,,2022-01-19,登記官による閉鎖,,,2015-10-05,1,,,,,,0
281,1180005006800,登記記録の閉鎖等,0,2022-01-19,2022-01-19,特定非営利活動法人ＥＮ,,その他の設立登記法人,愛知県,名古屋市港区,福田２丁目１０１８番地の１,,23,111,4550887,,,2022-01-19,登記官による閉鎖,,,2015-10-05,1,,,,,,0
282,1180005008276,登記記録の閉鎖等,0,2022-01-19,2022-01-19,協同組合ローマンズ,,その他の設立登記法人,愛知県,春日井市,白山町４丁目１０番地７,,23,206,4870034,,,2022-01-19,登記官による閉鎖,,,2015-10-05,1,,,,,,0
283,1180005008367,登記記録の閉鎖等,0,2022-01-19,2022-01-19,特定非営利活動法人社会問題援護会,,その他の設立登記法人,愛知県,春日井市,大手町３丁目７番５号,,23,206,4860807,,,2022-01-19,登記官による閉鎖,,,2015-10-05,1,,,,,,0
290,1200001002453,登記記録の閉鎖等,0,2022-01-19,2022-01-18,株式会社鹿野電機,,株式会社,岐阜県,岐阜市,本町１丁目１２番地,,21,201,5008034,,,2022-01-18,登記官による閉鎖,,,2015-10-05,1,,,,,,0
293,1200001012808,登記記録の閉鎖等,0,2022-01-19,2022-01-18,慶株式会社,,株式会社,岐阜県,岐阜市,長良２丁目３５番地,,21,201,5020081,,,2022-01-18,登記官による閉鎖,,,2015-10-05,1,,,,,,0
294,1200001015166,登記記録の閉鎖等,0,2022-01-19,2022-01-18,株式会社フジレーザー,,株式会社,岐阜県,不破郡垂井町,表佐４８６１番地の１,,21,361,5032122,,,2022-01-18,登記官による閉鎖,,,2015-10-05,1,,,,,,0
296,1200001021536,登記記録の閉鎖等,0,2022-01-19,2022-01-18,株式会社マツミ松原陶器,,株式会社,岐阜県,土岐市,下石町角田１６１２番地の１,,21,212,5095202,,,2022-01-18,登記官による閉鎖,,,2015-10-05,1,,,,,,0
299,1200002001982,登記記録の閉鎖等,0,2022-01-19,2022-01-18,有限会社サン紙工,,有限会社,岐阜県,岐阜市,加納鷹匠町１９番地９,,21,201,5008274,,,2022-01-18,登記官による閉鎖,,,2015-10-05,1,,,,,,0
300,1200002002840,登記記録の閉鎖等,0,2022-01-19,2022-01-18,高畑土地有限会社,,有限会社,岐阜県,岐阜市,芥見長山１丁目３００番地,,21,201,5013132,,,2022-01-18,登記官による閉鎖,,,2016-08-31,1,,,,,,0
302,1200002010505,登記記録の閉鎖等,0,2022-01-19,2022-01-18,有限会社上村商店,,有限会社,岐阜県,羽島郡岐南町,野中５丁目１６番地,,21,302,5016004,,,2022-01-18,清算の結了等,,,2015-10-05,1,,,,,ウエムラショウテン,0
303,1200002025536,登記記録の閉鎖等,0,2022-01-19,2022-01-18,有限会社高山スバル,,有限会社,岐阜県,高山市,松本町４６番地の１,,21,203,5060808,,,2022-01-18,登記官による閉鎖,,,2015-10-05,1,,,,,,0
304,1200002026930,登記記録の閉鎖等,0,2022-01-19,2022-01-18,有限会社流葉銀嶺荘,,有限会社,岐阜県,飛騨市,神岡町船津１９９５番地,,21,217,5061161,,,2022-01-18,登記官による閉鎖,,,2015-10-05,1,,,,,,0
305,1200003000868,登記記録の閉鎖等,0,2022-01-19,2022-01-18,合資会社山辻木材店,,合資会社,岐阜県,岐阜市,長良西野前４番地の１,,21,201,5020067,,,2022-01-18,登記官による閉鎖,,,2015-10-05,1,,,,,,0
306,1200005002912,登記記録の閉鎖等,0,2022-01-19,2022-01-18,一般社団法人御製倫理教化会,,その他の設立登記法人,岐阜県,岐阜市,清本町６丁目１０番地,,21,201,5008351,,,2022-01-18,登記官による閉鎖,,,2015-10-05,1,,,,,,0
307,1200005006293,登記記録の閉鎖等,0,2022-01-19,2022-01-18,淨光寺,,その他の設立登記法人,岐阜県,揖斐郡池田町,下東野３９２番地,,21,404,5032414,,,2022-01-18,登記官による閉鎖,,,2015-10-05,1,,,,,,0
318,1240002021250,登記記録の閉鎖等,0,2022-01-19,2022-01-14,イーワイ経営センター有限会社,,有限会社,広島県,広島市西区,三篠町２丁目９番２４号畑中ビル１０１号,,34,104,7330003,,,2022-01-14,清算の結了等,,,2015-10-05,1,,,,,イーワイケイエイセンター,0
320,1240002037379,登記記録の閉鎖等,0,2022-01-19,2022-01-18,有限会社ケンテックスジャパン,,有限会社,広島県,廿日市市,宮園６丁目１番地２,,34,213,7380035,,,2022-01-18,清算の結了等,,,2015-10-05,1,,,,,ケンテックスジャパン,0
328,1290001047093,登記記録の閉鎖等,0,2022-01-19,2022-01-13,株式会社ＫＳＢ,,株式会社,福岡県,福岡市西区,石丸２丁目４１－７－４０５,,40,135,8190025,,,2022-01-13,清算の結了等,,,2015-10-05,1,,,,,ケイエスビー,0
346,1320001010592,登記記録の閉鎖等,0,2022-01-19,2022-01-19,株式会社日田共立銀行,,株式会社,大分県,日田市,大字隈１０８番地,,44,204,8770000,,,2022-01-19,登記官による閉鎖,,,2015-10-05,1,,,,,,0
349,1320002006739,登記記録の閉鎖等,0,2022-01-19,2022-01-19,有限会社雅工業,,有限会社,大分県,大分市,大字関園１１７番地の３２,,44,201,8700115,,,2022-01-19,登記官による閉鎖,,,2015-10-05,1,,,,,,0
350,1320002014519,登記記録の閉鎖等,0,2022-01-19,2022-01-19,有限会社田中工務店,,有限会社,大分県,豊後高田市,大岩屋４９８番地,,44,209,8721102,,,2022-01-19,登記官による閉鎖,,,2015-10-05,1,,,,,,0
351,1320002017612,登記記録の閉鎖等,0,2022-01-19,2022-01-19,有限会社ロワーズ,,有限会社,大分県,佐伯市,直川大字赤木２番地の４,,44,205,8793101,,,2022-01-19,登記官による閉鎖,,,2015-10-05,1,,,,,,0
368,1360005003894,登記記録の閉鎖等,0,2022-01-19,2022-01-13,農事組合法人ニーマ農園,,その他の設立登記法人,沖縄県,宮古島市,平良字狩俣１１６３番地,,47,214,9060002,,,2022-01-13,清算の結了等,,,2015-10-05,1,,,,,ニーマノウエン,0
374,1370002005389,登記記録の閉鎖等,0,2022-01-19,2022-01-17,有限会社仙盛倉庫,,有限会社,宮城県,仙台市若林区,卸町東１丁目１番５５号,,04,103,9840002,,,2022-01-17,清算の結了等,,,2015-10-05,1,,,,,センセイソウコ,0
391,1410001001772,登記記録の閉鎖等,0,2022-01-19,2022-01-18,株式会社テイーワイ企画,,株式会社,秋田県,秋田市,泉中央４丁目２番８号ＴＫビル２階,,05,201,0100917,,,2022-01-18,登記官による閉鎖,,,2015-10-05,1,,,,,,0
392,1410001004627,登記記録の閉鎖等,0,2022-01-19,2022-01-18,株式会社ＫＡＰ,,株式会社,秋田県,秋田市,泉馬場１５番１０号,,05,201,0100815,,,2022-01-18,登記官による閉鎖,,,2015-10-05,1,,,,,,0
394,1410002000212,登記記録の閉鎖等,0,2022-01-19,2022-01-18,有限会社アビィロードスタジオ,,有限会社,秋田県,秋田市,広面字野添１２５番地の６,,05,201,0100041,,,2022-01-18,登記官による閉鎖,,,2015-10-05,1,,,,,,0
395,1410002003066,登記記録の閉鎖等,0,2022-01-19,2022-01-18,有限会社ピーロップ,,有限会社,秋田県,秋田市,外旭川八柳２丁目６番２３号,,05,201,0100803,,,2022-01-18,登記官による閉鎖,,,2015-10-05,1,,,,,,0
396,1410002007348,登記記録の閉鎖等,0,2022-01-19,2022-01-18,有限会社梨の木台ゴルフセンター,,有限会社,秋田県,にかほ市,象潟町小滝字尻高森４番地１,,05,214,0180153,,,2022-01-18,登記官による閉鎖,,,2015-10-05,1,,,,,,0
398,1420003001150,登記記録の閉鎖等,0,2022-01-19,2022-01-04,合同会社マルヌシフレッシュ,,合同会社,青森県,八戸市,湊高台４丁目６番１３号,,02,203,0310823,,,2022-01-04,合併による解散等,2420001006588,令和４年１月１日青森県八戸市白銀二丁目５番地１株式会社マルヌシ（2420001006588）に合併し解散,2015-10-05,1,,,,,マルヌシフレッシュ,0
401,1430001077035,登記記録の閉鎖等,0,2022-01-19,2022-01-14,株式会社Ｍａｔｔ　Ｂｒａｉｎ,,株式会社,石川県,金沢市,出雲町イ４５５番地,,17,201,9200056,,,2022-01-14,清算の結了等,,,2018-07-23,1,,,,,マットブレイン,0
412,1460005000411,登記記録の閉鎖等,0,2022-01-19,2022-01-18,医療法人社団美濃歯科医院,,その他の設立登記法人,北海道,釧路市,芦野１丁目８番１号,00091157,01,206,0850061,,,2022-01-18,清算の結了等,,,2015-10-05,1,,,,,ミノシカイイン,0
422,2010001014574,登記記録の閉鎖等,0,2022-01-19,2022-01-14,紀鉄管財株式会社,,株式会社,東京都,中央区,日本橋箱崎町１番７号,,13,102,1030015,,,2022-01-14,清算の結了等,,,2015-10-05,1,,,,,キテツカンザイ,0
423,2010001023567,登記記録の閉鎖等,0,2022-01-19,2022-01-06,株式会社テクノバイオ,,株式会社,東京都,千代田区,外神田１丁目８番２号第３電波ビル,,13,101,1010021,,,2022-01-06,清算の結了等,,,2015-10-05,1,,,,,テクノバイオ,0
425,2010001097479,登記記録の閉鎖等,0,2022-01-19,2022-01-14,岡三オンライン証券株式会社,,株式会社,東京都,中央区,銀座３丁目９番７号トレランス銀座ビルディング３階,,13,102,1040061,,,2022-01-14,合併による解散等,5010001082560,令和４年１月１日東京都中央区日本橋一丁目１７番６号岡三証券株式会社（5010001082560）に合併し解散,2015-10-05,1,,,,,オカサンオンラインショウケン,0
430,2010001178758,登記記録の閉鎖等,0,2022-01-19,2022-01-13,株式会社マイナビダイレクト,,株式会社,東京都,千代田区,一ツ橋１丁目１番１号,,13,101,1000003,,,2022-01-13,合併による解散等,3010001029968,令和４年１月１日東京都千代田区一ツ橋一丁目１番１号株式会社マイナビ（3010001029968）に合併し解散,2016-10-07,1,,,,,マイナビダイレクト,0
435,2010001218134,登記記録の閉鎖等,0,2022-01-19,2022-01-14,株式会社Ｗｅ’ｌｌ－Ｂｅｉｎｇ　Ｈｏｕｓｅ,,株式会社,東京都,文京区,西片１丁目７番１２号,,13,105,1130024,,,2022-01-14,清算の結了等,,,2021-05-19,1,,,,,ウェルビーイングハウス,0
445,2010401070325,登記記録の閉鎖等,0,2022-01-19,2022-01-07,ＰＣＩテクノ株式会社,,株式会社,東京都,港区,虎ノ門１丁目２１番１９号,,13,103,1050001,,,2022-01-07,合併による解散等,4010601043384,令和４年１月１日東京都港区虎ノ門一丁目２１番１９号ＰＣＩソリューションズ株式会社（4010601043384）に合併し解散,2015-10-05,1,,,,,ピーシーアイテクノ,0
457,2010601044442,登記記録の閉鎖等,0,2022-01-19,2022-01-07,イナキア株式会社,,株式会社,東京都,江東区,常盤２丁目１番１１号,,13,108,1350006,,,2022-01-07,清算の結了等,,,2015-10-05,1,,,,,イナキア,0
464,2010902024960,登記記録の閉鎖等,0,2022-01-19,2022-01-12,有限会社ピーツーウェーブ,,有限会社,東京都,江戸川区,下篠崎町４－１２,,13,123,1330064,,,2022-01-12,清算の結了等,,,2015-10-05,1,,,,,ピーツーウエーブ,0
498,2020001068628,登記記録の閉鎖等,0,2022-01-19,2022-01-17,山高企業株式会社,,株式会社,神奈川県,川崎市宮前区,有馬１丁目７番１号,,14,136,2160003,,,2022-01-17,清算の結了等,,,2015-10-05,1,,,,,ヤマタカキギョウ,0
500,2020001091225,登記記録の閉鎖等,0,2022-01-19,2022-01-13,株式会社エバラＣＪフレッシュフーズ,,株式会社,東京都,港区,西新橋２丁目７番４号,,13,103,1050003,,,2022-01-13,合併による解散等,5010401146849,令和４年１月１日東京都港区西新橋二丁目７番４号ＣＪ　ＦＯＯＤＳ　ＪＡＰＡＮ株式会社（5010401146849）に合併し解散,2015-10-05,1,,,,,エバラシージェイフレッシュフーズ,0
536,2040001107672,登記記録の閉鎖等,0,2022-01-19,2022-01-11,株式会社ＹＰＢ,,株式会社,千葉県,千葉市稲毛区,轟町４丁目４番２２－１号,,12,103,2630021,,,2022-01-11,清算の結了等,,,2019-01-18,1,,,,,ワイピービー,0
542,2050001004407,登記記録の閉鎖等,0,2022-01-19,2022-01-17,川津商事株式会社,,株式会社,茨城県,水戸市,千波町７７７番地,,08,201,3100851,,,2022-01-17,登記官による閉鎖,,,2017-01-24,1,,,,,,0
543,2050001020817,登記記録の閉鎖等,0,2022-01-19,2022-01-17,株式会社三沢,,株式会社,茨城県,神栖市,知手中央５丁目１１番１２号,,08,232,3140112,,,2022-01-17,登記官による閉鎖,,,2015-10-05,1,,,,,,0
544,2050001024438,登記記録の閉鎖等,0,2022-01-19,2022-01-17,株式会社光凛コーポレーション,,株式会社,茨城県,日立市,桜川町４丁目４番８号,,08,202,3160002,,,2022-01-17,登記官による閉鎖,,,2015-10-05,1,,,,,,0
545,2050001024693,登記記録の閉鎖等,0,2022-01-19,2022-01-17,株式会社日本マイクロチューブ,,株式会社,茨城県,日立市,多賀町４丁目５番１５号,,08,202,3160003,,,2022-01-17,登記官による閉鎖,,,2015-10-05,1,,,,,,0
546,2050001029115,登記記録の閉鎖等,0,2022-01-19,2022-01-17,株式会社中建興業,,株式会社,茨城県,取手市,井野２丁目４番２９号,,08,217,3020011,,,2022-01-17,登記官による閉鎖,,,2015-10-05,1,,,,,,0
547,2050001031194,登記記録の閉鎖等,0,2022-01-19,2022-01-17,株式会社筑波嶺,,株式会社,茨城県,牛久市,上柏田１丁目３８番地１１,,08,219,3001232,,,2022-01-17,登記官による閉鎖,,,2015-10-05,1,,,,,,0
549,2050002002327,登記記録の閉鎖等,0,2022-01-19,2022-01-17,有限会社トップラン,,有限会社,茨城県,水戸市,小吹町２２９７番地の１３,,08,201,3100914,,,2022-01-17,登記官による閉鎖,,,2015-10-05,1,,,,,,0
550,2050002003597,登記記録の閉鎖等,0,2022-01-19,2022-01-17,有限会社レンタルセンター,,有限会社,茨城県,水戸市,千波町２０６７番地の４,,08,201,3100851,,,2022-01-17,登記官による閉鎖,,,2015-10-05,1,,,,,,0
551,2050002009594,登記記録の閉鎖等,0,2022-01-19,2022-01-17,有限会社オフィスとも,,有限会社,茨城県,ひたちなか市,大字稲田３５９番地の３,,08,221,3120061,,,2022-01-17,登記官による閉鎖,,,2015-10-05,1,,,,,,0
552,2050002010494,登記記録の閉鎖等,0,2022-01-19,2022-01-17,有限会社ルピナス,,有限会社,茨城県,笠間市,旭町２２８番地１９,,08,216,3091717,,,2022-01-17,登記官による閉鎖,,,2015-10-05,1,,,,,,0
553,2050002020667,登記記録の閉鎖等,0,2022-01-19,2022-01-17,有限会社アトリエエム,,有限会社,茨城県,つくば市,大１０７１番地,,08,220,3050016,,,2022-01-17,登記官による閉鎖,,,2015-10-05,1,,,,,,0
554,2050002023620,登記記録の閉鎖等,0,2022-01-19,2022-01-17,有限会社都商事,,有限会社,茨城県,つくば市,桜３丁目１８番１号,,08,220,3050003,,,2022-01-17,登記官による閉鎖,,,2015-10-05,1,,,,,,0
556,2050002028867,登記記録の閉鎖等,0,2022-01-19,2022-01-17,有限会社茂木酒店,,有限会社,茨城県,行方市,小高１９２３番地,,08,233,3113804,,,2022-01-17,登記官による閉鎖,,,2015-10-05,1,,,,,,0
557,2050002028875,登記記録の閉鎖等,0,2022-01-19,2022-01-17,有限会社ロックメイト,,有限会社,茨城県,潮来市,日の出４丁目１０番地１２,,08,223,3112423,,,2022-01-17,登記官による閉鎖,,,2015-10-05,1,,,,,,0
558,2050002030889,登記記録の閉鎖等,0,2022-01-19,2022-01-17,田所運送有限会社,,有限会社,茨城県,日立市,久慈町２丁目３４番３号,,08,202,3191222,,,2022-01-17,登記官による閉鎖,,,2015-10-05,1,,,,,,0
559,2050002031004,登記記録の閉鎖等,0,2022-01-19,2022-01-17,有限会社東邦通商,00023086,有限会社,茨城県,日立市,鹿島町１丁目２番１３号,,08,202,3170071,,,2022-01-17,登記官による閉鎖,,,2015-10-05,1,,,,,,0
560,2050003001815,登記記録の閉鎖等,0,2022-01-19,2022-01-17,合同会社ＹＥＤ,,合同会社,茨城県,稲敷市,阿波７９５番地,,08,229,3000621,,,2022-01-17,登記官による閉鎖,,,2015-10-05,1,,,,,,0
567,2080001004263,登記記録の閉鎖等,0,2022-01-19,2022-01-19,株式会社浜賑,,株式会社,静岡県,静岡市駿河区,豊田２丁目９番８号,,22,102,4228027,,,2022-01-19,登記官による閉鎖,,,2015-10-05,1,,,,,,0
571,2080001010451,登記記録の閉鎖等,0,2022-01-19,2022-01-19,東海住販株式会社,,株式会社,静岡県,静岡市駿河区,桃園町８番５号,,22,102,4210114,,,2022-01-19,登記官による閉鎖,,,2015-10-05,1,,,,,,0
572,2080001012720,登記記録の閉鎖等,0,2022-01-19,2022-01-19,株式会社エフザリテール,,株式会社,静岡県,静岡市清水区,相生町９番２５号,,22,103,4240821,,,2022-01-19,登記官による閉鎖,,,2015-10-05,1,,,,,,0
575,2080002007042,登記記録の閉鎖等,0,2022-01-19,2022-01-19,有限会社殿岡工建コンストラクト,,有限会社,静岡県,静岡市葵区,竜南１丁目６番１４号,,22,101,4200804,,,2022-01-19,登記官による閉鎖,,,2015-10-05,1,,,,,,0
576,2080002009187,登記記録の閉鎖等,0,2022-01-19,2022-01-19,イーズィーイングリッシュ有限会社,,有限会社,静岡県,静岡市清水区,中矢部町１６番２４号,,22,103,4240854,,,2022-01-19,登記官による閉鎖,,,2015-10-05,1,,,,,,0
577,2080002011250,登記記録の閉鎖等,0,2022-01-19,2022-01-19,有限会社丸徳,,有限会社,静岡県,静岡市清水区,鳥坂１３１０番地,,22,103,4240067,,,2022-01-19,登記官による閉鎖,,,2015-10-05,1,,,,,,0
579,2080003001267,登記記録の閉鎖等,0,2022-01-19,2022-01-19,合同会社モエギ,,合同会社,静岡県,静岡市葵区,大岩町１３番３１号,,22,101,4200885,,,2022-01-19,登記官による閉鎖,,,2015-10-05,1,,,,,,0
580,2080101004915,登記記録の閉鎖等,0,2022-01-19,2022-01-19,株式会社山田家旅館,,株式会社,静岡県,伊豆の国市,長岡１０７６番地の１,,22,225,4102211,,,2022-01-19,登記官による閉鎖,,,2015-10-05,1,,,,,,0
581,2080101009220,登記記録の閉鎖等,0,2022-01-19,2022-01-19,南駿急送株式会社,,株式会社,静岡県,富士市,富士岡６１８番地の１１,,22,210,4170841,,,2022-01-19,登記官による閉鎖,,,2015-10-05,1,,,,,,0
582,2080101010013,登記記録の閉鎖等,0,2022-01-19,2022-01-19,畠山運輸倉庫株式会社,,株式会社,静岡県,富士市,久沢１７３番地,,22,210,4190202,,,2022-01-19,登記官による閉鎖,,,2015-10-05,1,,,,,,0
584,2080105001454,登記記録の閉鎖等,0,2022-01-19,2022-01-19,静岡県岳麓寒天販賣農業協同組合連合會,,その他の設立登記法人,静岡県,御殿場市,二枚橋２５１番地の２,,22,215,4120021,,,2022-01-19,登記官による閉鎖,,,2015-10-05,1,,,,,,0
585,2080401009952,登記記録の閉鎖等,0,2022-01-19,2022-01-19,株式会社シルバーチェック,,株式会社,静岡県,浜松市中区,住吉１丁目２６番１３号,,22,131,4300906,,,2022-01-19,登記官による閉鎖,,,2015-10-05,1,,,,,,0
586,2080402001330,登記記録の閉鎖等,0,2022-01-19,2022-01-19,有限会社エスマート,,有限会社,静岡県,浜松市中区,西浅田２丁目６番１９号,,22,131,4328045,,,2022-01-19,登記官による閉鎖,,,2015-10-05,1,,,,,,0
587,2080402005744,登記記録の閉鎖等,0,2022-01-19,2022-01-19,有限会社中村興産,,有限会社,静岡県,浜松市中区,新津町２６６番地,,22,131,4300911,,,2022-01-19,登記官による閉鎖,,,2015-10-05,1,,,,,,0
588,2080402019975,登記記録の閉鎖等,0,2022-01-19,2022-01-19,有限会社みのや酒店,,有限会社,静岡県,磐田市,城之崎４丁目９番地の２０,,22,211,4380084,,,2022-01-19,登記官による閉鎖,,,2015-10-05,1,,,,,,0
589,2080402021007,登記記録の閉鎖等,0,2022-01-19,2022-01-17,花輪マネジメントサポート有限会社,,有限会社,静岡県,磐田市,中野１番地の１７５,,22,211,4380053,,,2022-01-17,清算の結了等,,,2015-10-05,1,,,,,ハナワマネジメントサポート,0
590,2080403002328,登記記録の閉鎖等,0,2022-01-19,2022-01-19,合資会社サード,,合資会社,静岡県,浜松市東区,上西町３７番地の１,,22,132,4350048,,,2022-01-19,登記官による閉鎖,,,2015-10-05,1,,,,,,0
591,2080403002352,登記記録の閉鎖等,0,2022-01-19,2022-01-19,合同会社ＰＯＰ,,合同会社,静岡県,浜松市浜北区,西美薗２２０２番地の３,,22,136,4340033,,,2022-01-19,登記官による閉鎖,,,2015-10-05,1,,,,,,0
594,2080405005700,登記記録の閉鎖等,0,2022-01-19,2022-01-19,農事組合法人豊岡茶業組合,,その他の設立登記法人,静岡県,磐田市,敷地７７７番地３,,22,211,4380106,,,2022-01-19,登記官による閉鎖,,,2015-10-05,1,,,,,,0
598,2110001033507,登記記録の閉鎖等,0,2022-01-19,2022-01-17,株式会社ブルース,,株式会社,埼玉県,さいたま市見沼区,東大宮４丁目６１番地５３,,11,104,3370051,,,2022-01-17,清算の結了等,,,2018-09-11,1,,,,,ブルース,0
657,2180001009120,登記記録の閉鎖等,0,2022-01-19,2022-01-19,野村建築株式会社,,株式会社,愛知県,稲沢市,奥田町田畑６４２７番地,,23,220,4928233,,,2022-01-19,登記官による閉鎖,,,2015-10-05,1,,,,,,0
658,2180001012157,登記記録の閉鎖等,0,2022-01-19,2022-01-19,株式会社三榮リフォーム,,株式会社,愛知県,名古屋市中村区,宿跡町２丁目１１番地の１,,23,105,4530067,,,2022-01-19,登記官による閉鎖,,,2015-10-05,1,,,,,,0
659,2180001013394,登記記録の閉鎖等,0,2022-01-19,2022-01-19,株式会社平和警備,,株式会社,愛知県,名古屋市北区,清水４丁目１５番１号日宝黒川ビル３０５号,,23,103,4620844,,,2022-01-19,登記官による閉鎖,,,2015-10-05,1,,,,,,0
660,2180001019771,登記記録の閉鎖等,0,2022-01-19,2022-01-19,株式会社杉野塗装店,,株式会社,愛知県,名古屋市中川区,法華西町５丁目３８番地,,23,110,4540937,,,2022-01-19,登記官による閉鎖,,,2015-10-05,1,,,,,,0
661,2180001020614,登記記録の閉鎖等,0,2022-01-19,2022-01-19,株式会社ハセバ,,株式会社,愛知県,名古屋市中川区,本前田町１４１番地の２,,23,110,4540914,,,2022-01-19,登記官による閉鎖,,,2015-10-05,1,,,,,,0
663,2180001030200,登記記録の閉鎖等,0,2022-01-19,2022-01-19,株式会社ゴールドクレジット,,株式会社,愛知県,名古屋市南区,堤町４丁目７１番地の１１,,23,112,4570844,,,2022-01-19,登記官による閉鎖,,,2015-10-05,1,,,,,,0
664,2180001037179,登記記録の閉鎖等,0,2022-01-19,2022-01-19,株式会社スポーツ産業研究所,,株式会社,愛知県,名古屋市中区,錦２丁目１６番１０号中野ビル,,23,106,4600003,,,2022-01-19,登記官による閉鎖,,,2015-10-05,1,,,,,,0
665,2180001038978,登記記録の閉鎖等,0,2022-01-19,2022-01-19,株式会社名古屋珈琲サービス,,株式会社,愛知県,名古屋市中区,富士見町１６番６号,,23,106,4600014,,,2022-01-19,登記官による閉鎖,,,2015-10-05,1,,,,,,0
666,2180001060239,登記記録の閉鎖等,0,2022-01-19,2022-01-19,株式会社ガネーシャ,,株式会社,愛知県,名古屋市中村区,太閤１丁目２１番２０号,,23,105,4530801,,,2022-01-19,登記官による閉鎖,,,2015-10-05,1,,,,,,0
667,2180001062301,登記記録の閉鎖等,0,2022-01-19,2022-01-12,株式会社ローグ,,株式会社,愛知県,名古屋市千種区,今池３丁目３７番７号,,23,101,4640850,,,2022-01-12,清算の結了等,,,2015-10-05,1,,,,,ローグ,0
668,2180001066483,登記記録の閉鎖等,0,2022-01-19,2022-01-19,株式会社デオデイト,,株式会社,愛知県,名古屋市東区,泉１丁目１４番１号,,23,102,4610001,,,2022-01-19,登記官による閉鎖,,,2015-10-05,1,,,,,,0
669,2180001069247,登記記録の閉鎖等,0,2022-01-19,2022-01-19,三信商事株式会社,,株式会社,愛知県,名古屋市中区,栄２丁目１番１２号,,23,106,4600008,,,2022-01-19,登記官による閉鎖,,,2015-10-05,1,,,,,,0
670,2180001071137,登記記録の閉鎖等,0,2022-01-19,2022-01-19,株式会社パークエージェント,,株式会社,愛知県,名古屋市中村区,名駅４丁目６番２３号第三堀内ビル９Ｆ,,23,105,4500002,,,2022-01-19,登記官による閉鎖,,,2015-10-05,1,,,,,,0
671,2180001075591,登記記録の閉鎖等,0,2022-01-19,2022-01-19,株式会社ウエルエナジー,,株式会社,愛知県,小牧市,小木南３丁目４３４番地,,23,219,4850056,,,2022-01-19,登記官による閉鎖,,,2015-10-05,1,,,,,,0
673,2180001082522,登記記録の閉鎖等,0,2022-01-19,2022-01-19,株式会社ゴヨーサービス,,株式会社,愛知県,一宮市,猿海道２丁目６番２０号,,23,203,4910838,,,2022-01-19,登記官による閉鎖,,,2015-10-05,1,,,,,,0
674,2180001089658,登記記録の閉鎖等,0,2022-01-19,2022-01-19,株式会社ＭＩＳＡＴＯ　ＡＤ　ＷＥＢ,,株式会社,愛知県,名古屋市中区,栄２丁目１番１２号ダイアパレス伏見１０１１,,23,106,4600008,,,2022-01-19,登記官による閉鎖,,,2015-10-05,1,,,,,,0
675,2180001095887,登記記録の閉鎖等,0,2022-01-19,2022-01-19,重野株式会社,,株式会社,愛知県,半田市,美原町２丁目２４番地,,23,205,4750073,,,2022-01-19,登記官による閉鎖,,,2015-10-05,1,,,,,,0
676,2180001100507,登記記録の閉鎖等,0,2022-01-19,2022-01-19,株式会社こどもひろば,,株式会社,愛知県,小牧市,中央３丁目２２６番地,,23,219,4850029,,,2022-01-19,登記官による閉鎖,,,2015-10-05,1,,,,,,0
681,2180001122204,登記記録の閉鎖等,0,2022-01-19,2022-01-19,近直毛織株式会社,,株式会社,愛知県,一宮市,起字西生出１１番地,,23,203,4940006,,,2022-01-19,登記官による閉鎖,,,2016-02-25,1,,,,,,0
688,2180002021719,登記記録の閉鎖等,0,2022-01-19,2022-01-19,有限会社ダイシン,,有限会社,愛知県,名古屋市天白区,植田西２丁目５０１番地,,23,116,4680058,,,2022-01-19,登記官による閉鎖,,,2015-10-05,1,,,,,,0
689,2180002036634,登記記録の閉鎖等,0,2022-01-19,2022-01-19,有限会社塩田屋,,有限会社,愛知県,名古屋市西区,名駅２丁目８番１１号,,23,104,4510045,,,2022-01-19,登記官による閉鎖,,,2015-10-05,1,,,,,,0
690,2180002039372,登記記録の閉鎖等,0,2022-01-19,2022-01-19,有限会社城西建創,,有限会社,愛知県,名古屋市西区,長先町３３４番地の１,,23,104,4520838,,,2022-01-19,登記官による閉鎖,,,2015-10-05,1,,,,,,0
693,2180002044414,登記記録の閉鎖等,0,2022-01-19,2022-01-19,有限会社ライフアップ,,有限会社,愛知県,名古屋市昭和区,塩付通６丁目３９番地の１,,23,107,4660022,,,2022-01-19,登記官による閉鎖,,,2015-10-05,1,,,,,,0
695,2180002080384,登記記録の閉鎖等,0,2022-01-19,2022-01-19,有限会社井ノ上工務店,,有限会社,愛知県,稲沢市,増田西町１４４番地増田雇用団３－１０４,,23,220,4928429,,,2022-01-19,登記官による閉鎖,,,2015-10-05,1,,,,,,0
697,2180002092413,登記記録の閉鎖等,0,2022-01-19,2022-01-17,有限会社ブルタコ,,有限会社,愛知県,あま市,七宝町川部出屋敷８９番地,,23,237,4970013,,,2022-01-17,清算の結了等,,,2015-10-05,1,,,,,ブルタコ,0
698,2180003013863,登記記録の閉鎖等,0,2022-01-19,2022-01-19,Ｇ．ＬＩＦＥ合同会社,,合同会社,愛知県,愛西市,草平町佐屋川新田６番地４１,,23,232,4968015,,,2022-01-19,登記官による閉鎖,,,2015-10-05,1,,,,,,0
700,2180005011304,登記記録の閉鎖等,0,2022-01-19,2022-01-19,特定非営利活動法人ＦａｍｉｌｙＣａｒｅ陽だまり,,その他の設立登記法人,愛知県,江南市,力長町社宮司５６番地,,23,217,4838105,,,2022-01-19,登記官による閉鎖,,,2015-10-05,1,,,,,,0
712,2200001004093,登記記録の閉鎖等,0,2022-01-19,2022-01-18,ニユーモード三佳株式会社,,株式会社,岐阜県,岐阜市,住田町２丁目２０番地,,21,201,5008843,,,2022-01-18,登記官による閉鎖,,,2015-10-05,1,,,,,,0
713,2200001006668,登記記録の閉鎖等,0,2022-01-19,2022-01-18,丸正ホーム株式会社,,株式会社,岐阜県,山県市,岩佐１４７２番地,,21,215,5012259,,,2022-01-18,登記官による閉鎖,,,2015-10-05,1,,,,,,0
714,2200001007451,登記記録の閉鎖等,0,2022-01-19,2022-01-18,七宝建設株式会社,,株式会社,岐阜県,各務原市,鵜沼宝積寺町５丁目１４１番地,,21,213,5090123,,,2022-01-18,登記官による閉鎖,,,2015-10-05,1,,,,,,0
715,2200001013763,登記記録の閉鎖等,0,2022-01-19,2022-01-18,株式会社スリーエス,,株式会社,岐阜県,大垣市,南切石町２丁目２７番地の３,,21,202,5030925,,,2022-01-18,登記官による閉鎖,,,2015-10-05,1,,,,,,0
716,2200001016353,登記記録の閉鎖等,0,2022-01-19,2022-01-18,株式会社ラブルームワン,,株式会社,岐阜県,大垣市,川口２丁目３０２番地３,,21,202,5030941,,,2022-01-18,登記官による閉鎖,,,2015-10-05,1,,,,,,0
717,2200001024439,登記記録の閉鎖等,0,2022-01-19,2022-01-18,東濃産業株式会社,,株式会社,岐阜県,恵那市,大井町２６９３番地８２,,21,210,5097201,,,2022-01-18,登記官による閉鎖,,,2015-10-05,1,,,,,,0
718,2200002000942,登記記録の閉鎖等,0,2022-01-19,2022-01-18,有限会社開楽亭,,有限会社,岐阜県,岐阜市,若宮町５丁目７番地,,21,201,5008828,,,2022-01-18,登記官による閉鎖,,,2015-10-05,1,,,,,,0
719,2200002006139,登記記録の閉鎖等,0,2022-01-19,2022-01-18,有限会社エフ．シー．ピー,,有限会社,岐阜県,岐阜市,野一色７丁目１３番８号,,21,201,5008226,,,2022-01-18,登記官による閉鎖,,,2015-10-05,1,,,,,,0
720,2200002008829,登記記録の閉鎖等,0,2022-01-19,2022-01-18,有限会社坂井田住設,,有限会社,岐阜県,岐阜市,柳津町高桑３丁目１７８番地,,21,201,5016122,,,2022-01-18,登記官による閉鎖,,,2015-10-05,1,,,,,,0
721,2200002014942,登記記録の閉鎖等,0,2022-01-19,2022-01-18,有限会社ＦＰＤＯＤＯ,,有限会社,岐阜県,大垣市,郭町１丁目７４番地,,21,202,5030887,,,2022-01-18,登記官による閉鎖,,,2015-10-05,1,,,,,,0
722,2200002021484,登記記録の閉鎖等,0,2022-01-19,2022-01-18,有限会社野村エステート,,有限会社,岐阜県,土岐市,下石町４７１番地の１,,21,212,5095202,,,2022-01-18,登記官による閉鎖,,,2015-10-05,1,,,,,,0
726,2220002012218,登記記録の閉鎖等,0,2022-01-19,2022-01-14,有限会社加賀山代紀鉄ホテル,,有限会社,東京都,中央区,日本橋箱崎町１番７号,,13,102,1030015,,,2022-01-14,清算の結了等,,,2015-10-05,1,,,,,カガヤマシロキテツホテル,0
727,2220002013703,登記記録の閉鎖等,0,2022-01-19,2022-01-14,有限会社ガブス,,有限会社,石川県,七尾市,万行２丁目６６番地,,17,202,9260017,,,2022-01-14,清算の結了等,,,2015-10-05,1,,,,,ガブス,0
737,2240002033245,登記記録の閉鎖等,0,2022-01-19,2022-01-18,有限会社高橋工作所,00001114,有限会社,広島県,呉市,広多賀谷３丁目５番２号,,34,202,7370134,,,2022-01-18,合併による解散等,8240001026161,令和４年１月１８日広島県呉市広多賀谷三丁目８番２号株式会社第一テック（8240001026161）に合併し解散,2015-10-05,1,,,,,タカハシコウサクショ,0
738,2250001004873,登記記録の閉鎖等,0,2022-01-19,2022-01-17,株式会社ＧＬＯ－ＷＩＮＧ,,株式会社,山口県,美祢市,美東町大田５６８３番地１,,35,213,7540211,,,2022-01-17,清算の結了等,,,2015-10-05,1,,,,,グロウイング,0
744,2290001060236,登記記録の閉鎖等,0,2022-01-19,2022-01-13,株式会社Ｅ・スマイル,,株式会社,福岡県,福津市,福間南２丁目６番１５号,,40,224,8113212,,,2022-01-13,清算の結了等,,,2015-10-05,1,,,,,イースマイル,0
751,2290002039048,登記記録の閉鎖等,0,2022-01-19,2022-01-14,有限会社クレスト,,有限会社,福岡県,筑紫野市,二日市北２丁目３番３－６１１号,,40,217,8180056,,,2022-01-14,清算の結了等,,,2015-10-05,1,,,,,クレスト,0
755,2290002055672,登記記録の閉鎖等,0,2022-01-19,2022-01-04,有限会社平湯,,有限会社,福岡県,大牟田市,小浜町１丁目４番地２,,40,202,8360034,,,2022-01-04,合併による解散等,6290002055181,令和４年１月１日福岡県大牟田市小浜町一丁目４番地の２株式会社国土不動産（6290002055181）に合併し解散,2015-10-05,1,,,,,ヒラユ,0
763,2290802009035,登記記録の閉鎖等,0,2022-01-19,2022-01-12,有限会社アイ・シー・シー,,有限会社,福岡県,北九州市門司区,下二十町４番２１号,,40,101,8000028,,,2022-01-12,清算の結了等,,,2015-10-05,1,,,,,アイシーシー,0
768,2320001007233,登記記録の閉鎖等,0,2022-01-19,2022-01-19,株式会社エムワールド,,株式会社,大分県,別府市,駅前町１２番１２号,,44,202,8740935,,,2022-01-19,登記官による閉鎖,,,2015-10-05,1,,,,,,0
769,2320001007712,登記記録の閉鎖等,0,2022-01-19,2022-01-19,堀之内建設株式会社,,株式会社,大分県,宇佐市,大字法鏡寺２８９番地の３,,44,211,8790454,,,2022-01-19,登記官による閉鎖,,,2015-10-05,1,,,,,,0
770,2320001009007,登記記録の閉鎖等,0,2022-01-19,2022-01-19,第一ビル管理株式会社,,株式会社,大分県,佐伯市,向島１丁目６番９号,,44,205,8760844,,,2022-01-19,登記官による閉鎖,,,2015-10-05,1,,,,,,0
772,2320001015392,登記記録の閉鎖等,0,2022-01-19,2022-01-19,太陽ハウス建設株式会社,,株式会社,大分県,大分市,大字古国府１１７４番地の１,,44,201,8700844,,,2022-01-19,登記官による閉鎖,,,2017-01-19,1,,,,,,0
773,2320002002927,登記記録の閉鎖等,0,2022-01-19,2022-01-19,有限会社さかもと,,有限会社,大分県,大分市,大字野津原１５６８番地の５,,44,201,8701203,,,2022-01-19,登記官による閉鎖,,,2015-10-05,1,,,,,,0
774,2320002003850,登記記録の閉鎖等,0,2022-01-19,2022-01-19,有限会社センテイ大分,,有限会社,大分県,大分市,大字神崎１７７２番地２,,44,201,8700100,,,2022-01-19,登記官による閉鎖,,,2015-10-05,1,,,,,,0
775,2320002013131,登記記録の閉鎖等,0,2022-01-19,2022-01-17,有限会社オフィスさくた,,有限会社,大分県,別府市,大字南立石１７３７番地の７,,44,202,8740000,,,2022-01-17,清算の結了等,,,2015-10-05,1,,,,,オフィスサクタ,0
776,2320002020375,登記記録の閉鎖等,0,2022-01-19,2022-01-19,有限会社アートつねなり,,有限会社,大分県,中津市,中央町１丁目７番４９号,,44,203,8710024,,,2022-01-19,登記官による閉鎖,,,2015-10-05,1,,,,,,0
777,2320002020978,登記記録の閉鎖等,0,2022-01-19,2022-01-19,有限会社日興パーツ,,有限会社,大分県,中津市,中殿町３丁目３２番地９,,44,203,8710030,,,2022-01-19,登記官による閉鎖,,,2015-10-05,1,,,,,,0
778,2320003001242,登記記録の閉鎖等,0,2022-01-19,2022-01-19,合資会社江藤石材,,合資会社,大分県,日田市,淡窓１丁目１番１０号,,44,204,8770012,,,2022-01-19,登記官による閉鎖,,,2015-10-05,1,,,,,,0
779,2320005006223,登記記録の閉鎖等,0,2022-01-19,2022-01-19,犬飼水道消費生活協同組合,,その他の設立登記法人,大分県,豊後大野市,犬飼町犬飼１０番地,,44,212,8797301,,,2022-01-19,登記官による閉鎖,,,2015-10-05,1,,,,,,0
780,2320205000026,登記記録の閉鎖等,0,2022-01-19,2022-01-19,協同組合うすき生物科学研究所,,その他の設立登記法人,大分県,臼杵市,大字前田２３０７番地の２,,44,206,8750061,,,2022-01-19,登記官による閉鎖,,,2015-10-05,1,,,,,,0
791,2370001045237,登記記録の閉鎖等,0,2022-01-19,2022-01-17,株式会社ＲＥＡＬ１,,株式会社,宮城県,仙台市青葉区,本町１丁目５番２８－６０３号,,04,101,9800014,,,2022-01-17,清算の結了等,,,2020-01-09,1,,,,,リアルワン,0
797,2380001014851,登記記録の閉鎖等,0,2022-01-19,2022-01-14,株式会社いわきエコリサイクルセンター,,株式会社,福島県,いわき市,小名浜大原字曲淵１２１番地の１,,07,204,9718111,,,2022-01-14,清算の結了等,,,2015-10-05,1,,,,,,0
804,2410001004048,登記記録の閉鎖等,0,2022-01-19,2022-01-18,株式会社かねさ水産,,株式会社,秋田県,男鹿市,北浦北浦字五輪野１２番地の３,,05,206,0100683,,,2022-01-18,登記官による閉鎖,,,2015-10-05,1,,,,,,0
805,2410002002265,登記記録の閉鎖等,0,2022-01-19,2022-01-18,有限会社総合商事,,有限会社,秋田県,秋田市,広面字長沼７番地３４,,05,201,0100041,,,2022-01-18,登記官による閉鎖,,,2015-10-05,1,,,,,,0
806,2410002010945,登記記録の閉鎖等,0,2022-01-19,2022-01-18,有限会社齋藤商事,,有限会社,秋田県,山本郡藤里町,藤琴字鳥谷場１２２番地１,,05,346,0183201,,,2022-01-18,登記官による閉鎖,,,2015-10-05,1,,,,,,0
807,2410003000887,登記記録の閉鎖等,0,2022-01-19,2022-01-18,合資会社ハタノ工業,,合資会社,秋田県,男鹿市,船越字一向２０７番地の９６,,05,206,0100341,,,2022-01-18,登記官による閉鎖,,,2015-10-05,1,,,,,,0
858,3010602016737,登記記録の閉鎖等,0,2022-01-19,2022-01-12,有限会社半田美容マツサージ研究所,,有限会社,東京都,墨田区,江東橋４丁目２７番１４号,,13,107,1300022,,,2022-01-12,清算の結了等,,,2015-10-05,1,,,,,,0
866,3011001049650,登記記録の閉鎖等,0,2022-01-19,2021-12-27,株式会社サンキャピタル,,株式会社,東京都,渋谷区,神宮前６丁目１９番２０号,,13,113,1500001,,,2021-12-27,合併による解散等,7011001001599,令和３年１２月２４日東京都渋谷区神宮前六丁目１９番２０号株式会社荒井商店（7011001001599）に合併し解散,2015-10-05,1,,,,,サンキャピタル,0
871,3011002012104,登記記録の閉鎖等,0,2022-01-19,2022-01-13,有限会社マネジメントトゥー,,有限会社,東京都,渋谷区,恵比寿４丁目２７番７号ＳＨＩＢＡＴＡＢＬＤＩＩＩ２Ｆ,00120653,13,113,1500013,,,2022-01-13,清算の結了等,,,2015-10-05,1,,,,,マネジメントトゥー,0
876,3011101020610,登記記録の閉鎖等,0,2022-01-19,2022-01-12,三ツ矢商亊株式会社,,株式会社,東京都,新宿区,新宿３丁目３１番５号,,13,104,1600022,,,2022-01-12,清算の結了等,,,2015-10-05,1,,,,,ミツヤショウジ,0
883,3011401022042,登記記録の閉鎖等,0,2022-01-19,2022-01-14,ＡＲＡＮＹＡ株式会社,,株式会社,東京都,荒川区,南千住１丁目４５番８号,,13,118,1160003,,,2022-01-14,清算の結了等,,,2019-08-22,1,,,,,アランヤ,0
895,3012301008197,登記記録の閉鎖等,0,2022-01-19,2022-01-11,株式会社キープ・ウィルヒューマンリソース,,株式会社,東京都,町田市,原町田６丁目９番８号８Ｆ,,13,209,1940013,,,2022-01-11,合併による解散等,9021001018756,令和４年１月１日東京都町田市原町田六丁目９番８号４Ｆ株式会社キープ・ウィルダイニング（9021001018756）に合併し解散,2015-10-05,1,,,,,キープウィルヒューマンリソース,0
912,3020001001612,登記記録の閉鎖等,0,2022-01-19,2022-01-12,株式会社エヌエスティー,,株式会社,神奈川県,横浜市瀬谷区,瀬谷５丁目３８番地の３,,14,114,2460031,,,2022-01-12,清算の結了等,,,2015-10-05,1,,,,,エヌエスティー,0
922,3020001130733,登記記録の閉鎖等,0,2022-01-19,2022-01-17,株式会社ＯＢＯＢＯＸ,,株式会社,神奈川県,川崎市川崎区,田町１丁目７番２号,,14,131,2100822,,,2022-01-17,清算の結了等,,,2019-04-16,1,,,,,オボボックス,0
929,3021002038503,登記記録の閉鎖等,0,2022-01-19,2022-01-14,有限会社秦野園芸,,有限会社,神奈川県,秦野市,落合２７９番地,,14,211,2570025,,,2022-01-14,清算の結了等,,,2015-10-05,1,,,,,ハダノエンゲイ,0
930,3021002060110,登記記録の閉鎖等,0,2022-01-19,2022-01-14,有限会社横内牧場,,有限会社,神奈川県,平塚市,田村３１２３番地,,14,203,2540013,,,2022-01-14,清算の結了等,,,2015-10-05,1,,,,,,0
934,3030001089390,登記記録の閉鎖等,0,2022-01-19,2022-01-17,三伸電気株式会社,,株式会社,埼玉県,飯能市,大字新光８２番地,,11,209,3570022,,,2022-01-17,清算の結了等,,,2015-10-05,1,,,,,サンシンデンキ,0
955,3050001000090,登記記録の閉鎖等,0,2022-01-19,2022-01-17,青柳電機株式会社,,株式会社,茨城県,水戸市,青柳町４３７７番地の２,,08,201,3100004,,,2022-01-17,登記官による閉鎖,,,2015-10-05,1,,,,,,0
957,3050001007796,登記記録の閉鎖等,0,2022-01-19,2022-01-17,株式会社伊藤水産,,株式会社,茨城県,東茨城郡大洗町,磯浜町８６８番地の２,,08,309,3111301,,,2022-01-17,登記官による閉鎖,,,2015-10-05,1,,,,,,0
958,3050001008472,登記記録の閉鎖等,0,2022-01-19,2022-01-17,株式会社笹沼建材,,株式会社,茨城県,水戸市,元吉田町１４８６番地の７,,08,201,3100836,,,2022-01-17,登記官による閉鎖,,,2015-10-05,1,,,,,,0
961,3050001015790,登記記録の閉鎖等,0,2022-01-19,2022-01-17,株式会社タカスズ,,株式会社,茨城県,つくば市,高須賀１７１番地,,08,220,3002665,,,2022-01-17,登記官による閉鎖,,,2015-10-05,1,,,,,,0
962,3050001025261,登記記録の閉鎖等,0,2022-01-19,2022-01-17,新興電設株式会社,,株式会社,茨城県,龍ケ崎市,貝原塚町３０８４番地の２,,08,208,3010856,,,2022-01-17,登記官による閉鎖,,,2015-10-05,1,,,,,,0
963,3050001026631,登記記録の閉鎖等,0,2022-01-19,2022-01-17,株式会社米屋工務店,,株式会社,茨城県,常陸太田市,町田町７番地,,08,212,3130213,,,2022-01-17,登記官による閉鎖,,,2015-10-05,1,,,,,,0
964,3050001029213,登記記録の閉鎖等,0,2022-01-19,2022-01-17,株式会社フジテクノ,,株式会社,茨城県,牛久市,南５丁目４０番地１３,,08,219,3001222,,,2022-01-17,登記官による閉鎖,,,2015-10-05,1,,,,,,0
965,3050002009742,登記記録の閉鎖等,0,2022-01-19,2022-01-17,有限会社大洗木工,,有限会社,茨城県,東茨城郡大洗町,磯浜町４１６３番地の２,,08,309,3111301,,,2022-01-17,登記官による閉鎖,,,2015-10-05,1,,,,,,0
966,3050002017415,登記記録の閉鎖等,0,2022-01-19,2022-01-17,有限会社生井工業,,有限会社,茨城県,結城郡八千代町,大字水口４０１番地,,08,521,3003564,,,2022-01-17,登記官による閉鎖,,,2015-10-05,1,,,,,,0
970,3050002029071,登記記録の閉鎖等,0,2022-01-19,2022-01-17,有限会社霞ケ浦生態系研究所,,有限会社,茨城県,行方市,濱６６１番地１,,08,233,3113800,,,2022-01-17,登記官による閉鎖,,,2015-10-05,1,,,,,,0
971,3050002038394,登記記録の閉鎖等,0,2022-01-19,2022-01-17,有限会社松山,,有限会社,茨城県,守谷市,百合ケ丘１丁目２０５０番地の３２３,,08,224,3020110,,,2022-01-17,登記官による閉鎖,,,2015-10-05,1,,,,,,0
972,3050002039302,登記記録の閉鎖等,0,2022-01-19,2022-01-17,有限会社エムエスコーポレーション,,有限会社,茨城県,つくばみらい市,筒戸２１８９番地の１,,08,235,3002435,,,2022-01-17,登記官による閉鎖,,,2015-10-05,1,,,,,,0
973,3050003000683,登記記録の閉鎖等,0,2022-01-19,2022-01-17,合資会社林屋商店,,合資会社,茨城県,笠間市,笠間１３６１番地,,08,216,3091611,,,2022-01-17,登記官による閉鎖,,,2015-10-05,1,,,,,,0
975,3050005002463,登記記録の閉鎖等,0,2022-01-19,2022-01-17,特定非営利活動法人茨城県食育協会,00023577,その他の設立登記法人,茨城県,ひたちなか市,大字足崎１４００番地２３,,08,221,3120003,,,2022-01-17,登記官による閉鎖,,,2015-10-05,1,,,,,,0
976,3050005003503,登記記録の閉鎖等,0,2022-01-19,2022-01-17,特定非営利活動法人土浦環境保全の会,,その他の設立登記法人,茨城県,土浦市,乙戸５２４番地２５,,08,203,3000844,,,2022-01-17,登記官による閉鎖,,,2015-10-05,1,,,,,,0
977,3060001014180,登記記録の閉鎖等,0,2022-01-19,2022-01-12,株式会社川鍋設計,,株式会社,栃木県,小山市,八幡町２丁目１１番２号サーパス八幡町３０１号,,09,208,3230031,,,2022-01-12,清算の結了等,,,2015-10-05,1,,,,,カワナベセッケイ,0
982,3080001011176,登記記録の閉鎖等,0,2022-01-19,2022-01-19,株式会社一藤企画,,株式会社,静岡県,静岡市葵区,常磐町２丁目２番地の１ライブネットアオバビル７０１号,,22,101,4200034,,,2022-01-19,登記官による閉鎖,,,2015-10-05,1,,,,,,0
983,3080002005292,登記記録の閉鎖等,0,2022-01-19,2022-01-19,有限会社ホットライン,,有限会社,静岡県,静岡市葵区,紺屋町１２番地の４,,22,101,4200852,,,2022-01-19,登記官による閉鎖,,,2015-10-05,1,,,,,,0
984,3080002007149,登記記録の閉鎖等,0,2022-01-19,2022-01-19,有限会社玉駿河,,有限会社,静岡県,静岡市駿河区,さつき町３番１０－１０３号,,22,102,4228078,,,2022-01-19,登記官による閉鎖,,,2015-10-05,1,,,,,,0
985,3080002013989,登記記録の閉鎖等,0,2022-01-19,2022-01-19,有限会社社森商店,,有限会社,静岡県,島田市,伊太１２９６番地の２,,22,209,4270034,,,2022-01-19,登記官による閉鎖,,,2015-10-05,1,,,,,,0
986,3080002015119,登記記録の閉鎖等,0,2022-01-19,2022-01-19,有限会社小林石油,,有限会社,静岡県,牧之原市,細江１２２４番地の１,,22,226,4210421,,,2022-01-19,登記官による閉鎖,,,2015-10-05,1,,,,,,0
987,3080002018757,登記記録の閉鎖等,0,2022-01-19,2022-01-19,有限会社牧田商店,,有限会社,静岡県,静岡市駿河区,中田１丁目１２番２２号,,22,102,4228041,,,2022-01-19,登記官による閉鎖,,,2017-01-12,1,,,,,,0
988,3080101012165,登記記録の閉鎖等,0,2022-01-19,2022-01-19,株式会社中上フードサービス,,株式会社,静岡県,富士宮市,東町３０番５号ＰＢＣ富士宮９０３号,,22,207,4180077,,,2022-01-19,登記官による閉鎖,,,2015-10-05,1,,,,,,0
989,3080101018971,登記記録の閉鎖等,0,2022-01-19,2022-01-19,すいらん荘温泉企業株式会社,,株式会社,静岡県,伊東市,八幡野字平松１１８０番地,,22,208,4130232,,,2022-01-19,登記官による閉鎖,,,2016-03-25,1,,,,,,0
992,3080102012981,登記記録の閉鎖等,0,2022-01-19,2022-01-19,有限会社アールコンツェ,,有限会社,静岡県,三島市,旭ヶ丘４１番１７号,,22,206,4110020,,,2022-01-19,登記官による閉鎖,,,2015-10-05,1,,,,,,0
993,3080401011932,登記記録の閉鎖等,0,2022-01-19,2022-01-19,株式会社共和,,株式会社,静岡県,浜松市北区,三ヶ日町都筑３１０３番地１,,22,135,4311402,,,2022-01-19,登記官による閉鎖,,,2015-10-05,1,,,,,,0
994,3080401012328,登記記録の閉鎖等,0,2022-01-19,2022-01-19,酵素健康開発株式会社,,株式会社,静岡県,浜松市南区,飯田町１５６７番地の３,,22,134,4350028,,,2022-01-19,登記官による閉鎖,,,2015-10-05,1,,,,,,0
995,3080401014349,登記記録の閉鎖等,0,2022-01-19,2022-01-19,株式会社志季,,株式会社,静岡県,掛川市,上西郷１９７９番地の３,,22,213,4360342,,,2022-01-19,登記官による閉鎖,,,2015-10-05,1,,,,,,0
997,3080402006535,登記記録の閉鎖等,0,2022-01-19,2022-01-19,浜本運輸有限会社,,有限会社,静岡県,浜松市中区,西丘町２５８番地,,22,131,4338116,,,2022-01-19,登記官による閉鎖,,,2015-10-05,1,,,,,,0
999,3080402010611,登記記録の閉鎖等,0,2022-01-19,2022-01-19,有限会社サカエ製麺,00068442,有限会社,静岡県,浜松市南区,恩地町２３４番地の１,,22,134,4300814,,,2022-01-19,登記官による閉鎖,,,2015-10-05,1,,,,,,0
1000,3080405000394,登記記録の閉鎖等,0,2022-01-19,2022-01-19,農事組合法人浜松漬物生産組合,,その他の設立登記法人,静岡県,浜松市西区,湖東町５８８４番地,,22,133,4311103,,,2022-01-19,登記官による閉鎖,,,2015-10-05,1,,,,,,0
1022,3120001136019,登記記録の閉鎖等,0,2022-01-19,2022-01-13,株式会社カスタマーズディライト,,株式会社,大阪府,大阪市西区,江戸堀１丁目６番１７－２９０８号Ｎ．Ｙ．タワー２９階,,27,106,5500002,,,2022-01-13,清算の結了等,,,2015-10-05,1,,,,,カスタマーズディライト,0
1053,3160001021943,登記記録の閉鎖等,0,2022-01-19,2022-01-14,株式会社高島銀行,,株式会社,滋賀県,高島市,安曇川町五番領第７５番地,,25,212,5201213,,,2022-01-14,清算の結了等,,,2019-09-20,1,,,,,タカシマギンコウ,0
1056,3180001002801,登記記録の閉鎖等,0,2022-01-19,2022-01-19,株式会社ビトーク,,株式会社,愛知県,名古屋市名東区,神里１丁目１０２番地,,23,115,4650082,,,2022-01-19,登記官による閉鎖,,,2015-10-05,1,,,,,,0
1058,3180001024639,登記記録の閉鎖等,0,2022-01-19,2022-01-19,株式会社アスモ,,株式会社,愛知県,名古屋市西区,新道１丁目１２番７号,,23,104,4510043,,,2022-01-19,登記官による閉鎖,,,2015-10-05,1,,,,,,0
1059,3180001026180,登記記録の閉鎖等,0,2022-01-19,2022-01-19,株式会社中部珈琲商会,,株式会社,愛知県,名古屋市西区,木前町１７２番地,,23,104,4520834,,,2022-01-19,登記官による閉鎖,,,2015-10-05,1,,,,,,0
1060,3180001028532,登記記録の閉鎖等,0,2022-01-19,2022-01-19,株式会社東海ブラザー,,株式会社,愛知県,名古屋市千種区,今池１丁目５番６号,,23,101,4640850,,,2022-01-19,登記官による閉鎖,,,2015-10-05,1,,,,,,0
1061,3180001051740,登記記録の閉鎖等,0,2022-01-19,2022-01-19,株式会社ミースクチュール,,株式会社,愛知県,名古屋市中区,栄３丁目４番５号,,23,106,4600008,,,2022-01-19,登記官による閉鎖,,,2015-10-05,1,,,,,,0
1062,3180001056525,登記記録の閉鎖等,0,2022-01-19,2022-01-19,尾高開発株式会社,,株式会社,愛知県,名古屋市中村区,名駅４丁目２番１２号富士ビル２階,,23,105,4500002,,,2022-01-19,登記官による閉鎖,,,2015-10-05,1,,,,,,0
1065,3180001064726,登記記録の閉鎖等,0,2022-01-19,2022-01-19,株式会社グリーンフィールド,,株式会社,愛知県,名古屋市緑区,有松南１００１番地,,23,114,4598004,,,2022-01-19,登記官による閉鎖,,,2015-10-05,1,,,,,,0
1066,3180001073165,登記記録の閉鎖等,0,2022-01-19,2022-01-19,株式会社ＧＯＬＤＥＮ,,株式会社,愛知県,名古屋市昭和区,元宮町３丁目８１番地,,23,107,4660851,,,2022-01-19,登記官による閉鎖,,,2015-10-05,1,,,,,,0
1067,3180001085409,登記記録の閉鎖等,0,2022-01-19,2022-01-19,株式会社Ａ－プラスチック,,株式会社,愛知県,一宮市,浅野字佐吾山２２番地,,23,203,4910871,,,2022-01-19,登記官による閉鎖,,,2015-10-05,1,,,,,,0
1068,3180001086472,登記記録の閉鎖等,0,2022-01-19,2022-01-19,Ｆｌｅｘｉｂｉｌｉｔｙ株式会社,,株式会社,愛知県,一宮市,泉１丁目１５番２号,,23,203,4910861,,,2022-01-19,登記官による閉鎖,,,2015-10-05,1,,,,,,0
1069,3180001088502,登記記録の閉鎖等,0,2022-01-19,2022-01-19,株式会社サノ企画,,株式会社,愛知県,名古屋市中川区,戸田ゆたか１丁目２２２２番地,,23,110,4540966,,,2022-01-19,登記官による閉鎖,,,2015-10-05,1,,,,,,0
1071,3180001122203,登記記録の閉鎖等,0,2022-01-19,2022-01-19,富士商事株式会社,,株式会社,愛知県,小牧市,大字小牧２５１５番地,,23,219,4850041,,,2022-01-19,登記官による閉鎖,,,2016-02-23,1,,,,,,0
1080,3180002019613,登記記録の閉鎖等,0,2022-01-19,2022-01-19,有限会社めん処喜八,,有限会社,愛知県,名古屋市中川区,服部５丁目１５０４番地,,23,110,4540976,,,2022-01-19,登記官による閉鎖,,,2015-10-05,1,,,,,,0
1082,3180002033829,登記記録の閉鎖等,0,2022-01-19,2022-01-19,有限会社ジー・トータル設計,,有限会社,愛知県,名古屋市千種区,高見１丁目１９番２号,,23,101,4640073,,,2022-01-19,登記官による閉鎖,,,2015-10-05,1,,,,,,0
1083,3180002043662,登記記録の閉鎖等,0,2022-01-19,2022-01-19,有限会社内藤建設,,有限会社,愛知県,名古屋市天白区,平針３丁目８０１番地の５,,23,116,4680011,,,2022-01-19,登記官による閉鎖,,,2015-10-05,1,,,,,,0
1084,3180002045304,登記記録の閉鎖等,0,2022-01-19,2022-01-19,有限会社ティーエム・シー名古屋,,有限会社,愛知県,名古屋市天白区,島田黒石６１１番地,,23,116,4680028,,,2022-01-19,登記官による閉鎖,,,2015-10-05,1,,,,,,0
1085,3180002055716,登記記録の閉鎖等,0,2022-01-19,2022-01-19,有限会社ハマショー,,有限会社,愛知県,名古屋市守山区,向台２丁目６０２番地,,23,113,4630036,,,2022-01-19,登記官による閉鎖,,,2015-10-05,1,,,,,,0
1087,3180002080615,登記記録の閉鎖等,0,2022-01-19,2022-01-19,グッドジョブ有限会社,,有限会社,愛知県,稲沢市,田代２丁目３番１５号,,23,220,4928455,,,2022-01-19,登記官による閉鎖,,,2015-10-05,1,,,,,,0
1088,3180002083675,登記記録の閉鎖等,0,2022-01-19,2022-01-13,有限会社司商事,,有限会社,愛知県,半田市,大高町２丁目２番地の１,,23,205,4750015,,,2022-01-13,清算の結了等,,,2015-10-05,1,,,,,ツカサショウジ,0
1089,3180002087346,登記記録の閉鎖等,0,2022-01-19,2022-01-19,ＭＡＮＤＯＫＯ有限会社,,有限会社,愛知県,半田市,住吉町１丁目４６番地,,23,205,4750862,,,2022-01-19,登記官による閉鎖,,,2015-10-05,1,,,,,,0
1092,3180002090408,登記記録の閉鎖等,0,2022-01-19,2022-01-19,有限会社桜井電気工事,,有限会社,愛知県,愛西市,町方町彦作堤外１番地の５５,,23,232,4968014,,,2022-01-19,登記官による閉鎖,,,2015-10-05,1,,,,,,0
1094,3180003000027,登記記録の閉鎖等,0,2022-01-19,2022-01-19,合資会社岡昌,,合資会社,愛知県,名古屋市守山区,藪田町９０９番地,,23,113,4630026,,,2022-01-19,登記官による閉鎖,,,2015-10-05,1,,,,,,0
1095,3180003000571,登記記録の閉鎖等,0,2022-01-19,2022-01-19,合資会社港鉄工所,00073692,合資会社,愛知県,名古屋市港区,木場町３番地,,23,111,4550021,,,2022-01-19,登記官による閉鎖,,,2015-10-05,1,,,,,,0
1096,3180003003095,登記記録の閉鎖等,0,2022-01-19,2022-01-19,合資会社安藤メリヤス,,合資会社,愛知県,名古屋市西区,那古野２丁目２５番１６号,,23,104,4510042,,,2022-01-19,登記官による閉鎖,,,2015-10-05,1,,,,,,0
1097,3180003013953,登記記録の閉鎖等,0,2022-01-19,2022-01-19,ワンセレクト合同会社,,合同会社,愛知県,名古屋市西区,枇杷島５丁目６番６号,,23,104,4510053,,,2022-01-19,登記官による閉鎖,,,2015-10-05,1,,,,,,0
1099,3180005009099,登記記録の閉鎖等,0,2022-01-19,2022-01-19,特定非営利活動法人地域市民メディアおわりあさひ,,その他の設立登記法人,愛知県,尾張旭市,南原山町赤土１８１番地正和荘１０４号,,23,226,4880066,,,2022-01-19,登記官による閉鎖,,,2015-10-05,1,,,,,,0
1104,3200001000620,登記記録の閉鎖等,0,2022-01-19,2022-01-18,株式会社エスバイシー,,株式会社,岐阜県,岐阜市,東駒爪町１５番地,,21,201,5008168,,,2022-01-18,登記官による閉鎖,,,2015-10-05,1,,,,,,0
1107,3200001013201,登記記録の閉鎖等,0,2022-01-19,2022-01-18,株式会社伊藤工業所,,株式会社,岐阜県,大垣市,赤坂新田１丁目１１５番地,,21,202,5032214,,,2022-01-18,登記官による閉鎖,,,2015-10-05,1,,,,,,0
1108,3200001014851,登記記録の閉鎖等,0,2022-01-19,2022-01-18,株式会社フジツカ,,株式会社,岐阜県,不破郡垂井町,表佐５１９９番地,,21,361,5032122,,,2022-01-18,登記官による閉鎖,,,2015-10-05,1,,,,,,0
1109,3200001018927,登記記録の閉鎖等,0,2022-01-19,2022-01-18,株式会社アッシュ・ドゥーブレ,,株式会社,岐阜県,関市,千疋北１丁目１２１４番地の９,,21,205,5013953,,,2022-01-18,登記官による閉鎖,,,2015-10-05,1,,,,,,0
1110,3200002012128,登記記録の閉鎖等,0,2022-01-19,2022-01-18,有限会社ゆめ,,有限会社,岐阜県,羽島市,竹鼻町狐穴１１９６番地,,21,209,5016232,,,2022-01-18,登記官による閉鎖,,,2015-10-05,1,,,,,,0
1111,3200002012615,登記記録の閉鎖等,0,2022-01-19,2022-01-18,有限会社ラビータエヴェッラ,,有限会社,岐阜県,大垣市,南頬町１丁目７０番地,00081014,21,202,5030864,,,2022-01-18,登記官による閉鎖,,,2015-10-05,1,,,,,,0
1112,3200002013778,登記記録の閉鎖等,0,2022-01-19,2022-01-18,有限会社フジツカ商事,,有限会社,岐阜県,不破郡垂井町,表佐８２３番地の５,,21,361,5032122,,,2022-01-18,登記官による閉鎖,,,2015-10-05,1,,,,,,0
1113,3200002013902,登記記録の閉鎖等,0,2022-01-19,2022-01-18,カネマス有限会社,,有限会社,岐阜県,養老郡養老町,高田１４９番地,,21,341,5031314,,,2022-01-18,登記官による閉鎖,,,2015-10-05,1,,,,,,0
1114,3200002015477,登記記録の閉鎖等,0,2022-01-19,2022-01-18,三松運輸有限会社,,有限会社,岐阜県,揖斐郡池田町,六之井１５９８番地の１,,21,404,5032425,,,2022-01-18,登記官による閉鎖,,,2015-10-05,1,,,,,,0
1115,3200002022093,登記記録の閉鎖等,0,2022-01-19,2022-01-18,有限会社長原組,,有限会社,岐阜県,瑞浪市,稲津町小里２０７６番地の１２,,21,208,5096103,,,2022-01-18,登記官による閉鎖,,,2015-10-05,1,,,,,,0
1116,3200002025534,登記記録の閉鎖等,0,2022-01-19,2022-01-18,高山ショッピングローン有限会社,,有限会社,岐阜県,高山市,名田町６丁目１８番地,,21,203,5060021,,,2022-01-18,登記官による閉鎖,,,2015-10-05,1,,,,,,0
1117,3200002027357,登記記録の閉鎖等,0,2022-01-19,2022-01-18,有限会社古田技建,,有限会社,岐阜県,下呂市,野尻１４８６番地の２,,21,220,5092313,,,2022-01-18,登記官による閉鎖,,,2015-10-05,1,,,,,,0
1119,3200005009674,登記記録の閉鎖等,0,2022-01-19,2022-01-18,高山チケツト販売協同組合,,その他の設立登記法人,岐阜県,高山市,名田町６丁目１８番地,,21,203,5060021,,,2022-01-18,登記官による閉鎖,,,2015-10-05,1,,,,,,0
1123,3240001008429,登記記録の閉鎖等,0,2022-01-19,2022-01-13,ニッタテクノ株式会社,,株式会社,広島県,広島市中区,国泰寺町２丁目２番５号,,34,101,7300042,,,2022-01-13,合併による解散等,7140001015885,令和４年１月１日神戸市長田区西尻池町三丁目１番２３号ニッタテクノソリューションズ株式会社（7140001015885）に合併し解散,2015-10-05,1,,,,,ニッタテクノ,0
1144,3290005017033,登記記録の閉鎖等,0,2022-01-19,2022-01-17,一般社団法人新日本農業倶楽部,,その他の設立登記法人,福岡県,福岡市早良区,西新１丁目９番２３号,,40,137,8140002,,,2022-01-17,清算の結了等,,,2018-11-02,1,,,,,シンニホンノウギョウクラブ,0
1150,3320001009625,登記記録の閉鎖等,0,2022-01-19,2022-01-19,株式会社みえせん,,株式会社,大分県,豊後大野市,三重町市場１３００番地,,44,212,8797131,,,2022-01-19,登記官による閉鎖,,,2015-10-05,1,,,,,,0
1151,3320002002546,登記記録の閉鎖等,0,2022-01-19,2022-01-19,有限会社興栄設計,,有限会社,大分県,大分市,西鶴崎３丁目１番１２号,,44,201,8700105,,,2022-01-19,登記官による閉鎖,,,2015-10-05,1,,,,,,0
1152,3320002005854,登記記録の閉鎖等,0,2022-01-19,2022-01-19,有限会社藤好建設,,有限会社,大分県,大分市,大字常行４７８番地,,44,201,8700116,,,2022-01-19,登記官による閉鎖,,,2015-10-05,1,,,,,,0
1153,3320002009715,登記記録の閉鎖等,0,2022-01-19,2022-01-19,有限会社ナイトウ呉服店,,有限会社,大分県,大分市,大字佐賀関２２０６番地,,44,201,8792201,,,2022-01-19,登記官による閉鎖,,,2015-10-05,1,,,,,,0
1154,3320002011646,登記記録の閉鎖等,0,2022-01-19,2022-01-19,有限会社スヤマ商会,,有限会社,大分県,別府市,秋葉町１番２号,,44,202,8740937,,,2022-01-19,登記官による閉鎖,,,2015-10-05,1,,,,,,0
1155,3320002021364,登記記録の閉鎖等,0,2022-01-19,2022-01-19,豊前開発有限会社,,有限会社,大分県,中津市,耶馬溪町大字柿坂２８９番地の２６,,44,203,8710405,,,2022-01-19,登記官による閉鎖,,,2015-10-05,1,,,,,,0
1156,3320005003252,登記記録の閉鎖等,0,2022-01-19,2022-01-19,財団法人金屋保育園,,その他の設立登記法人,大分県,宇佐市,大字金屋８９６番地,,44,211,8720021,,,2022-01-19,登記官による閉鎖,,,2015-10-05,1,,,,,,0
1164,3340005003408,登記記録の閉鎖等,0,2022-01-19,2022-01-14,医療法人松尾医院,,その他の設立登記法人,鹿児島県,薩摩川内市,東郷町斧渕３１４番地,,46,215,8951106,,,2022-01-14,清算の結了等,,,2015-10-05,1,,,,,マツオイイン,0
1174,3400502000669,登記記録の閉鎖等,0,2022-01-19,2022-01-18,有限会社睦メディカルマネージメント,,有限会社,岩手県,一関市,三関字仲田３２番地３,,03,209,0210821,,,2022-01-18,清算の結了等,,,2015-10-05,1,,,,,ムツメデイカルマネージメント,0
1175,3410001006290,登記記録の閉鎖等,0,2022-01-19,2022-01-18,株式会社日本バイオシステム,,株式会社,秋田県,北秋田市,大町２番８号,,05,213,0183324,,,2022-01-18,登記官による閉鎖,,,2015-10-05,1,,,,,,0
1176,3410001007545,登記記録の閉鎖等,0,2022-01-19,2022-01-18,株式会社モードハウス,,株式会社,秋田県,能代市,鰄渕字古川反３番地７,00086411,05,202,0160121,,,2022-01-18,登記官による閉鎖,,,2015-10-05,1,,,,,,0
1177,3410002003254,登記記録の閉鎖等,0,2022-01-19,2022-01-18,有限会社ブティックアルバム,,有限会社,秋田県,秋田市,千秋矢留町３番３３号,,05,201,0100877,,,2022-01-18,登記官による閉鎖,,,2015-10-05,1,,,,,,0
1178,3410002003320,登記記録の閉鎖等,0,2022-01-19,2022-01-18,有限会社ヘアドクター,,有限会社,秋田県,秋田市,中通２丁目５番１１号スターツ中央ビル３階,,05,201,0100001,,,2022-01-18,登記官による閉鎖,,,2015-10-05,1,,,,,,0
1179,3410002003907,登記記録の閉鎖等,0,2022-01-19,2022-01-18,有限会社ワールドスポーツショップ,,有限会社,秋田県,秋田市,大町２丁目４番２１号,,05,201,0100921,,,2022-01-18,登記官による閉鎖,,,2015-10-05,1,,,,,,0
1180,3410002003948,登記記録の閉鎖等,0,2022-01-19,2022-01-18,有限会社渡吉呉服店,,有限会社,秋田県,秋田市,旭南２丁目３番１０号,,05,201,0100925,,,2022-01-18,登記官による閉鎖,,,2015-10-05,1,,,,,,0
1181,3410002006281,登記記録の閉鎖等,0,2022-01-19,2022-01-18,船川商事有限会社,,有限会社,秋田県,男鹿市,船川港船川字新浜町３５番地,,05,206,0100511,,,2022-01-18,登記官による閉鎖,,,2015-10-05,1,,,,,,0
1182,3410002010837,登記記録の閉鎖等,0,2022-01-19,2022-01-18,有限会社グリーンヨンマル,,有限会社,秋田県,山本郡三種町,鹿渡字泉沢屋敷後２０番地,,05,348,0182104,,,2022-01-18,登記官による閉鎖,,,2015-10-05,1,,,,,,0
1183,3410003001892,登記記録の閉鎖等,0,2022-01-19,2022-01-18,合同会社オフセンター・ダイアログ,,合同会社,秋田県,能代市,字坊ケ崎１１９番地３,,05,202,0160169,,,2022-01-18,登記官による閉鎖,,,2015-10-05,1,,,,,,0
1184,3410005005941,登記記録の閉鎖等,0,2022-01-19,2022-01-18,荒古屋農事實行組合,,その他の設立登記法人,秋田県,にかほ市,,,05,214,0180400,,,2022-01-18,登記官による閉鎖,,,2015-10-05,1,,,,,,0
1192,3470002001079,登記記録の閉鎖等,0,2022-01-19,2022-01-18,有限会社イハラ電気,,有限会社,香川県,高松市,藤塚町１丁目３番４号,,37,201,7600071,,,2022-01-18,清算の結了等,,,2015-10-05,1,,,,,イハラデンキ,0
1196,3480001004528,登記記録の閉鎖等,0,2022-01-19,2022-01-17,八洋電機株式会社,,株式会社,徳島県,吉野川市,山川町諏訪３１４番地,,36,205,7793403,,,2022-01-17,清算の結了等,,,2015-10-05,1,,,,,ハチヨウデンキ,0
1198,3500001010795,登記記録の閉鎖等,0,2022-01-19,2022-01-12,株式会社みついし,,株式会社,愛媛県,新居浜市,萩生８１９番地の１,,38,205,7920050,,,2022-01-12,清算の結了等,,,2015-10-05,1,,,,,ミツイシ,0
1199,3500002021206,登記記録の閉鎖等,0,2022-01-19,2022-01-17,有限会社タカハシ・フォト・スタジオ,,有限会社,愛媛県,四国中央市,中曽根町３４０番地５,,38,213,7990413,,,2022-01-17,清算の結了等,,,2015-10-05,1,,,,,タカハシフォトスタジオ,0
1202,4010001088815,登記記録の閉鎖等,0,2022-01-19,2022-01-11,日本橋菓房株式会社,,株式会社,東京都,中央区,日本橋１丁目２番６号,,13,102,1030027,,,2022-01-11,合併による解散等,9010001043063,令和３年１２月３１日東京都中央区日本橋一丁目１番１号国分グループ本社株式会社（9010001043063）に合併し解散,2015-10-05,1,,,,,ニホンバシカボウ,0
1219,4010005027447,登記記録の閉鎖等,0,2022-01-19,2022-01-11,Ａ３ＪＰ堂島浜一般社団法人,,その他の設立登記法人,東京都,港区,赤坂２丁目１５番１６号赤坂ふく源ビル４階,,13,103,1070052,,,2022-01-11,清算の結了等,,,2017-09-12,1,,,,,エースリージェイピードウジマハマ,0
1227,4010401112182,登記記録の閉鎖等,0,2022-01-19,2022-01-07,株式会社ＩＳＩＤエンジニアリング,,株式会社,東京都,港区,港南２丁目１７番１号,,13,103,1080075,,,2022-01-07,合併による解散等,7010401053829,令和４年１月１日東京都港区港南二丁目１７番１号株式会社電通国際情報サービス（7010401053829）に合併し解散,2015-10-05,1,,,,,アイエスアイディエンジニアリング,0
1242,4010701037575,登記記録の閉鎖等,0,2022-01-19,2022-01-04,株式会社家価値サポート,,株式会社,東京都,品川区,上大崎２丁目２４番９号,,13,109,1410021,,,2022-01-04,合併による解散等,8010401064032,令和４年１月１日東京都品川区上大崎二丁目２４番９号ハイアス・アンド・カンパニー株式会社（8010401064032）に合併し解散,2019-05-23,1,,,,,ハイアスアンドカンパニー,0
1259,4011005005780,登記記録の閉鎖等,0,2022-01-19,2021-12-27,一般社団法人クラウドソーシング協会,,その他の設立登記法人,東京都,渋谷区,恵比寿４丁目２０番３号,,13,113,1500013,,,2021-12-27,清算の結了等,,,2015-10-05,1,,,,,クラウドソーシングキョウカイ,0
1260,4011101056728,登記記録の閉鎖等,0,2022-01-19,2022-01-14,株式会社ネットＩＯ開発,,株式会社,東京都,羽村市,五ノ神１丁目２番１号サカヤビル３０３,,13,227,2050011,,,2022-01-14,清算の結了等,,,2015-10-05,1,,,,,ネットアイオーカイハツ,0
1266,4011303003387,登記記録の閉鎖等,0,2022-01-19,2022-01-13,アカウントサービス合同会社,,合同会社,東京都,杉並区,高円寺南４丁目７番３サンシャイン高円寺８０３号,,13,115,1660003,,,2022-01-13,清算の結了等,,,2019-07-30,1,,,,,アカウントサービス,0
1276,4011801030420,登記記録の閉鎖等,0,2022-01-19,2022-01-14,エム・ケー・ホーム株式会社,,株式会社,静岡県,伊東市,富戸１３１７番地の４９８４,,22,208,4130231,,,2022-01-14,清算の結了等,,,2015-10-05,1,,,,,エムケーホーム,0
1286,4020001130419,登記記録の閉鎖等,0,2022-01-19,2022-01-14,株式会社ベジレクト牧之原,,株式会社,神奈川県,川崎市幸区,南幸町３丁目１２６番地１,,14,132,2120016,,,2022-01-14,清算の結了等,,,2019-03-26,1,,,,,ベジレクトマキノハラ,0
1293,4021001022556,登記記録の閉鎖等,0,2022-01-19,2022-01-12,渋沢不動産株式会社,,株式会社,神奈川県,秦野市,堀西１５５１番地の４,,14,211,2591331,,,2022-01-12,清算の結了等,,,2015-10-05,1,,,,,シブサワフドウサン,0
1312,4040001057057,登記記録の閉鎖等,0,2022-01-19,2022-01-12,株式会社ジャパン・ライン,,株式会社,東京都,墨田区,両国４丁目３７番２号,,13,107,1300026,,,2022-01-12,清算の結了等,,,2015-10-05,1,,,,,ジャパンライン,0
1317,4040002085503,登記記録の閉鎖等,0,2022-01-19,2022-01-12,坂尾不動産有限会社,,有限会社,千葉県,銚子市,笠上町５８２７番地,,12,202,2880004,,,2022-01-12,清算の結了等,,,2015-10-05,1,,,,,サカオフドウサン,0
1318,4040005002356,登記記録の閉鎖等,0,2022-01-19,2022-01-11,一般社団法人ＴＡＰＡアジア日本支部,,その他の設立登記法人,千葉県,千葉市花見川区,幕張町６丁目８５番地,,12,102,2620032,,,2022-01-11,清算の結了等,,,2015-10-05,1,,,,,タパアジアニホンシブ,0
1319,4050001007580,登記記録の閉鎖等,0,2022-01-19,2022-01-17,株式会社関根商店,,株式会社,茨城県,東茨城郡大洗町,磯浜町８６８番地,,08,309,3111301,,,2022-01-17,登記官による閉鎖,,,2015-10-05,1,,,,,,0
1320,4050001009908,登記記録の閉鎖等,0,2022-01-19,2022-01-17,株式会社糸賀工務店,,株式会社,茨城県,稲敷郡阿見町,大字吉原１５０３番地,,08,443,3001155,,,2022-01-17,登記官による閉鎖,,,2015-10-05,1,,,,,,0
1321,4050001009957,登記記録の閉鎖等,0,2022-01-19,2022-01-17,株式会社昭和建工,,株式会社,茨城県,稲敷郡阿見町,岡崎３丁目２０番地１５,,08,443,3000335,,,2022-01-17,登記官による閉鎖,,,2015-10-05,1,,,,,,0
1322,4050001010089,登記記録の閉鎖等,0,2022-01-19,2022-01-17,株式会社ドルフオートサービス,,株式会社,茨城県,土浦市,大畑１４７９番地の３,,08,203,3004111,,,2022-01-17,登記官による閉鎖,,,2015-10-05,1,,,,,,0
1323,4050001011392,登記記録の閉鎖等,0,2022-01-19,2022-01-17,茨城木材建設株式会社,00022045,株式会社,茨城県,小美玉市,竹原６３０番地,,08,236,3190113,,,2022-01-17,登記官による閉鎖,,,2015-10-05,1,,,,,,0
1324,4050001012390,登記記録の閉鎖等,0,2022-01-19,2022-01-17,株式会社ＳＨＩＮプランニング,,株式会社,茨城県,土浦市,荒川沖東２丁目４番１号江戸川クラシコビル２Ｆ,,08,203,3000871,,,2022-01-17,登記官による閉鎖,,,2015-10-05,1,,,,,,0
1325,4050001015749,登記記録の閉鎖等,0,2022-01-19,2022-01-17,大恵商事株式会社,,株式会社,茨城県,つくば市,稲荷前１３番地１０,,08,220,3050061,,,2022-01-17,登記官による閉鎖,,,2015-10-05,1,,,,,,0
1326,4050001022200,登記記録の閉鎖等,0,2022-01-19,2022-01-17,株式会社エクスポートリサイクル２１,,株式会社,茨城県,神栖市,太田３５７２番地１,,08,232,3140254,,,2022-01-17,登記官による閉鎖,,,2015-10-05,1,,,,,,0
1327,4050001023198,登記記録の閉鎖等,0,2022-01-19,2022-01-17,株式会社佐藤機械工業所,,株式会社,茨城県,日立市,石名坂町２丁目４３番４号,,08,202,3191225,,,2022-01-17,登記官による閉鎖,,,2015-10-05,1,,,,,,0
1328,4050001027546,登記記録の閉鎖等,0,2022-01-19,2022-01-17,株式会社中央不動産研究所,,株式会社,茨城県,取手市,新町１丁目６番１号９０６号,,08,217,3020024,,,2022-01-17,登記官による閉鎖,,,2015-10-05,1,,,,,,0
1331,4050002008082,登記記録の閉鎖等,0,2022-01-19,2022-01-17,有限会社インテリア・ワクイ,,有限会社,茨城県,ひたちなか市,大字足崎１２５９番地の５,,08,221,3120003,,,2022-01-17,登記官による閉鎖,,,2015-10-05,1,,,,,,0
1332,4050002014840,登記記録の閉鎖等,0,2022-01-19,2022-01-12,有限会社オートリペアスズキ,,有限会社,茨城県,小美玉市,中延８２３番地,,08,236,3113422,,,2022-01-12,清算の結了等,,,2015-10-05,1,,,,,オートリペアスズキ,0
1333,4050002015293,登記記録の閉鎖等,0,2022-01-19,2022-01-17,有限会社サンワ電気システムサービス,,有限会社,茨城県,小美玉市,外之内４１３番地,,08,236,3113414,,,2022-01-17,登記官による閉鎖,,,2015-10-05,1,,,,,,0
1334,4050002021036,登記記録の閉鎖等,0,2022-01-19,2022-01-17,有限会社学園地所,,有限会社,茨城県,つくば市,天久保２丁目１５番地の７,,08,220,3050005,,,2022-01-17,登記官による閉鎖,,,2015-10-05,1,,,,,,0
1335,4050002021416,登記記録の閉鎖等,0,2022-01-19,2022-01-17,有限会社シルエット,,有限会社,茨城県,つくば市,上横場２１４３番地,,08,220,3050854,,,2022-01-17,登記官による閉鎖,,,2015-10-05,1,,,,,,0
1336,4050002022406,登記記録の閉鎖等,0,2022-01-19,2022-01-17,有限会社ビッグ竹園,,有限会社,茨城県,つくば市,金田１７９８番地１,,08,220,3050018,,,2022-01-17,登記官による閉鎖,,,2015-10-05,1,,,,,,0
1337,4050002024385,登記記録の閉鎖等,0,2022-01-19,2022-01-17,有限会社アイランド・ストーン,,有限会社,茨城県,古河市,下大野１４４３番４,,08,204,3060204,,,2022-01-17,登記官による閉鎖,,,2015-10-05,1,,,,,,0
1338,4050002030276,登記記録の閉鎖等,0,2022-01-19,2022-01-17,有限会社小田倉工業所,,有限会社,茨城県,日立市,神峰町４丁目２番４号,,08,202,3170064,,,2022-01-17,登記官による閉鎖,,,2015-10-05,1,,,,,,0
1339,4050003001169,登記記録の閉鎖等,0,2022-01-19,2022-01-17,合同会社スロウハート,,合同会社,茨城県,つくば市,竹園２丁目６番地１０、１０３号,,08,220,3050032,,,2022-01-17,登記官による閉鎖,,,2015-10-05,1,,,,,,0
1340,4050005002792,登記記録の閉鎖等,0,2022-01-19,2022-01-17,特定非営利活動法人ライフガードあんしん,,その他の設立登記法人,茨城県,水戸市,袴塚１丁目５番４４号,,08,201,3100055,,,2022-01-17,登記官による閉鎖,,,2015-10-05,1,,,,,,0
1347,4070001028930,登記記録の閉鎖等,0,2022-01-19,2022-01-17,株式会社関東リョーワ,,株式会社,群馬県,前橋市,亀里町４８８番地１,,10,201,3792147,,,2022-01-17,清算の結了等,,,2015-10-05,1,,,,,カントウリョーワ,0
1352,4080001012479,登記記録の閉鎖等,0,2022-01-19,2022-01-19,株式会社リネアタラーラ工業,,株式会社,静岡県,静岡市葵区,長沼６２２番地,,22,101,4200813,,,2022-01-19,登記官による閉鎖,,,2015-10-05,1,,,,,,0
1356,4080005003945,登記記録の閉鎖等,0,2022-01-19,2022-01-19,特定非営利活動法人日本建築セミナー,,その他の設立登記法人,静岡県,静岡市葵区,鷹匠２丁目２５－２２,,22,101,4200839,,,2022-01-19,登記官による閉鎖,,,2015-10-05,1,,,,,,0
1357,4080101005168,登記記録の閉鎖等,0,2022-01-19,2022-01-19,株式会社パシフィック・リース＆パートナーズ,,株式会社,静岡県,伊豆の国市,原木１３７番地の２,,22,225,4102124,,,2022-01-19,登記官による閉鎖,,,2015-10-05,1,,,,,,0
1358,4080101008889,登記記録の閉鎖等,0,2022-01-19,2022-01-19,株式会社大旺,,株式会社,静岡県,富士市,高島町２６番地の３,,22,210,4170048,,,2022-01-19,登記官による閉鎖,,,2015-10-05,1,,,,,,0
1359,4080101010804,登記記録の閉鎖等,0,2022-01-19,2022-01-19,メディカル・ケア・サービス株式会社,,株式会社,静岡県,富士市,久沢１７３番地,,22,210,4190202,,,2022-01-19,登記官による閉鎖,,,2015-10-05,1,,,,,,0
1360,4080101011042,登記記録の閉鎖等,0,2022-01-19,2022-01-19,株式会社ウッデンライフ,,株式会社,静岡県,富士市,津田町８８番地,,22,210,4170035,,,2022-01-19,登記官による閉鎖,,,2015-10-05,1,,,,,,0
1361,4080101015258,登記記録の閉鎖等,0,2022-01-19,2022-01-19,株式会社あんふぁんて,,株式会社,静岡県,田方郡函南町,仁田４７６番地の１４,,22,325,4190114,,,2022-01-19,登記官による閉鎖,,,2015-10-05,1,,,,,,0
1362,4080101015522,登記記録の閉鎖等,0,2022-01-19,2022-01-19,株式会社ハザード技研,,株式会社,静岡県,三島市,長伏５５８番地エンゼルハイム長伏３１１,,22,206,4110824,,,2022-01-19,登記官による閉鎖,,,2015-10-05,1,,,,,,0
1364,4080102000523,登記記録の閉鎖等,0,2022-01-19,2022-01-19,有限会社エイティーシステムズ,,有限会社,静岡県,沼津市,三園町１１番８号ステージ花１階,,22,203,4100833,,,2022-01-19,登記官による閉鎖,,,2015-10-05,1,,,,,,0
1365,4080102003906,登記記録の閉鎖等,0,2022-01-19,2022-01-19,有限会社ルックグットフィールグット,,有限会社,静岡県,沼津市,今沢４６０番地の４２,,22,203,4100875,,,2022-01-19,登記官による閉鎖,,,2015-10-05,1,,,,,,0
1366,4080102006842,登記記録の閉鎖等,0,2022-01-19,2022-01-19,有限会社共和牛乳,,有限会社,静岡県,駿東郡小山町,菅沼９２８番地,,22,344,4101312,,,2022-01-19,登記官による閉鎖,,,2015-10-05,1,,,,,,0
1368,4080102011132,登記記録の閉鎖等,0,2022-01-19,2022-01-19,有限会社東海ティーズ,,有限会社,静岡県,三島市,加屋町２番４０号,,22,206,4110845,,,2022-01-19,登記官による閉鎖,,,2015-10-05,1,,,,,,0
1369,4080102016932,登記記録の閉鎖等,0,2022-01-19,2022-01-19,有限会社泰平電工,,有限会社,静岡県,富士宮市,宮原７４９番地の３,,22,207,4180005,,,2022-01-19,登記官による閉鎖,,,2015-10-05,1,,,,,,0
1370,4080102020793,登記記録の閉鎖等,0,2022-01-19,2022-01-19,有限会社スターリングエステート,,有限会社,静岡県,伊東市,猪戸１丁目８番８号,,22,208,4140004,,,2022-01-19,登記官による閉鎖,,,2015-10-05,1,,,,,,0
1371,4080102021916,登記記録の閉鎖等,0,2022-01-19,2022-01-19,有限会社花吉丸水産,,有限会社,静岡県,賀茂郡西伊豆町,田子１５４９番地の３,,22,306,4103515,,,2022-01-19,登記官による閉鎖,,,2015-10-05,1,,,,,,0
1372,4080102021965,登記記録の閉鎖等,0,2022-01-19,2022-01-19,有限会社窪田運送,,有限会社,静岡県,賀茂郡西伊豆町,仁科１８１５番地の２,,22,306,4103514,,,2022-01-19,登記官による閉鎖,,,2015-10-05,1,,,,,,0
1373,4080105003671,登記記録の閉鎖等,0,2022-01-19,2022-01-19,特定非営利活動法人ふじのみや電脳伝拡クラブ,,その他の設立登記法人,静岡県,富士宮市,野中６０８番地の１,,22,207,4180039,,,2022-01-19,登記官による閉鎖,,,2015-10-05,1,,,,,,0
1374,4080401009785,登記記録の閉鎖等,0,2022-01-19,2022-01-19,ＸＥＰＯ株式会社,,株式会社,静岡県,浜松市中区,蜆塚３丁目９番２７号,00079619,22,131,4328018,,,2022-01-19,登記官による閉鎖,,,2015-10-05,1,,,,,,0
1375,4080401012640,登記記録の閉鎖等,0,2022-01-19,2022-01-19,株式会社ＨＥＡＲＴ,,株式会社,静岡県,浜松市中区,東伊場１丁目８番２－３０８号,,22,131,4328036,,,2022-01-19,登記官による閉鎖,,,2015-10-05,1,,,,,,0
1377,4080402001196,登記記録の閉鎖等,0,2022-01-19,2022-01-19,有限会社エイチ・エスエンタープライズ,,有限会社,静岡県,浜松市中区,泉２丁目１４番１号,,22,131,4338124,,,2022-01-19,登記官による閉鎖,,,2015-10-05,1,,,,,,0
1379,4080402009586,登記記録の閉鎖等,0,2022-01-19,2022-01-19,有限会社魚賢,,有限会社,静岡県,湖西市,新居町新居３３７９番地の１４,,22,221,4310302,,,2022-01-19,登記官による閉鎖,,,2015-10-05,1,,,,,,0
1380,4080402009850,登記記録の閉鎖等,0,2022-01-19,2022-01-19,有限会社なか鮮,,有限会社,静岡県,浜松市西区,雄踏町宇布見９３３４番地の２,,22,133,4310102,,,2022-01-19,登記官による閉鎖,,,2015-10-05,1,,,,,,0
1381,4080402014561,登記記録の閉鎖等,0,2022-01-19,2022-01-19,有限会社ＦＩＥＬＤ,,有限会社,静岡県,浜松市西区,入野町８８３３番地の３,,22,133,4328061,,,2022-01-19,登記官による閉鎖,,,2015-10-05,1,,,,,,0
1383,4080405000484,登記記録の閉鎖等,0,2022-01-19,2022-01-19,中部環境計画協同組合,,その他の設立登記法人,静岡県,浜松市中区,栄町１２８番地の２,,22,131,4328025,,,2022-01-19,登記官による閉鎖,,,2015-10-05,1,,,,,,0
1384,4080405006028,登記記録の閉鎖等,0,2022-01-19,2022-01-19,社団法人報徳遠譲社第二分社川会下社,,その他の設立登記法人,静岡県,袋井市,川会３２６番地の１,,22,216,4370002,,,2022-01-19,登記官による閉鎖,,,2015-10-05,1,,,,,,0
1403,4120003016688,登記記録の閉鎖等,0,2022-01-19,2022-01-14,合同会社クローザー,,合同会社,大阪府,大阪市中央区,今橋２丁目５番８号,,27,128,5410042,,,2022-01-14,清算の結了等,,,2019-12-11,1,,,,,クローザー,0
1407,4120101002953,登記記録の閉鎖等,0,2022-01-19,2022-01-14,佐野機工株式会社,,株式会社,大阪府,堺市西区,浜寺石津町東３丁２番２０号,,27,144,5928335,,,2022-01-14,清算の結了等,,,2015-10-05,1,,,,,サノキコウ,0
1423,4140001070314,登記記録の閉鎖等,0,2022-01-19,2022-01-13,株式会社北甲コーポレーション,,株式会社,兵庫県,西宮市,山口町下山口１丁目９番,,28,204,6511412,,,2022-01-13,清算の結了等,,,2015-10-05,1,,,,,,0
1434,4150001007348,登記記録の閉鎖等,0,2022-01-19,2022-01-17,新高垣製缶株式会社,,株式会社,奈良県,天理市,永原町５５番地,,29,204,6320061,,,2022-01-17,清算の結了等,,,2015-10-05,1,,,,,シンタカガキセイカン,0
1439,4180001009366,登記記録の閉鎖等,0,2022-01-19,2022-01-19,株式会社松林組,,株式会社,愛知県,名古屋市昭和区,福江２丁目１番３１号,,23,107,4660059,,,2022-01-19,登記官による閉鎖,,,2015-10-05,1,,,,,,0
1440,4180001022518,登記記録の閉鎖等,0,2022-01-19,2022-01-19,ニード・ジャパン株式会社,,株式会社,愛知県,名古屋市熱田区,沢上２丁目１０番１号,,23,109,4560012,,,2022-01-19,登記官による閉鎖,,,2015-10-05,1,,,,,,0
1441,4180001029620,登記記録の閉鎖等,0,2022-01-19,2022-01-19,エッチアンドエス株式会社,,株式会社,愛知県,名古屋市名東区,西里町５丁目５５番地の２６,,23,115,4650084,,,2022-01-19,登記官による閉鎖,,,2015-10-05,1,,,,,,0
1442,4180001042631,登記記録の閉鎖等,0,2022-01-19,2022-01-19,株式会社太田工務店,,株式会社,愛知県,名古屋市中村区,則武２丁目１０番１８号,,23,105,4530014,,,2022-01-19,登記官による閉鎖,,,2015-10-05,1,,,,,,0
1443,4180001060088,登記記録の閉鎖等,0,2022-01-19,2022-01-19,世潤株式会社,,株式会社,愛知県,名古屋市中区,丸の内３丁目７番９号丸の内チサンマンションビル１０２号,,23,106,4600002,,,2022-01-19,登記官による閉鎖,,,2015-10-05,1,,,,,,0
1444,4180001069352,登記記録の閉鎖等,0,2022-01-19,2022-01-19,株式会社角野製作所,,株式会社,愛知県,豊明市,栄町三ツ池下３４番地２,,23,229,4701161,,,2022-01-19,登記官による閉鎖,,,2015-10-05,1,,,,,,0
1445,4180001070715,登記記録の閉鎖等,0,2022-01-19,2022-01-19,新日本化学工業株式会社,,株式会社,愛知県,名古屋市千種区,清住町２丁目３１番地の２５,,23,101,4640034,,,2022-01-19,登記官による閉鎖,,,2015-10-05,1,,,,,,0
1446,4180001074559,登記記録の閉鎖等,0,2022-01-19,2022-01-19,株式会社東海ブラザープロジェクト,,株式会社,愛知県,春日井市,鳥居松町６丁目５３番地,,23,206,4860844,,,2022-01-19,登記官による閉鎖,,,2015-10-05,1,,,,,,0
1447,4180001078056,登記記録の閉鎖等,0,2022-01-19,2022-01-19,株式会社名治,,株式会社,愛知県,小牧市,元町１丁目１１３番地の１,,23,219,4850072,,,2022-01-19,登記官による閉鎖,,,2015-10-05,1,,,,,,0
1451,4180001088071,登記記録の閉鎖等,0,2022-01-19,2022-01-19,株式会社ＦＤ,,株式会社,愛知県,江南市,東野町東神田１８１番地,,23,217,4838432,,,2022-01-19,登記官による閉鎖,,,2015-10-05,1,,,,,,0
1452,4180001089945,登記記録の閉鎖等,0,2022-01-19,2022-01-19,株式会社買い取り本舗,,株式会社,愛知県,名古屋市中区,金山２丁目１６番２２号,,23,106,4600022,,,2022-01-19,登記官による閉鎖,,,2015-10-05,1,,,,,,0
1453,4180001096875,登記記録の閉鎖等,0,2022-01-19,2022-01-19,ブルーシオンコーポレーション株式会社,,株式会社,愛知県,あま市,中萱津足川４番地小関ハイツ２Ｆ,,23,237,4901113,,,2022-01-19,登記官による閉鎖,,,2015-10-05,1,,,,,,0
1454,4180001100257,登記記録の閉鎖等,0,2022-01-19,2022-01-19,ＮＫＫ　ＩＮＴＥＲＮＡＴＩＯＮＡＬ株式会社,,株式会社,愛知県,名古屋市南区,本星崎町字廻間１０１４番地,,23,112,4570056,,,2022-01-19,登記官による閉鎖,,,2015-10-05,1,,,,,,0
1460,4180002000308,登記記録の閉鎖等,0,2022-01-19,2022-01-19,有限会社岡崎工業,,有限会社,愛知県,名古屋市守山区,元郷２丁目１１５番地,,23,113,4630025,,,2022-01-19,登記官による閉鎖,,,2015-10-05,1,,,,,,0
1461,4180002005199,登記記録の閉鎖等,0,2022-01-19,2022-01-19,有限会社クリタ,,有限会社,愛知県,名古屋市千種区,千代田橋２丁目５番６－５０４号,,23,101,4640011,,,2022-01-19,登記官による閉鎖,,,2015-10-05,1,,,,,,0
1463,4180002016709,登記記録の閉鎖等,0,2022-01-19,2022-01-19,有限会社ファイナル,,有限会社,愛知県,名古屋市東区,徳川１丁目５１５番地,,23,102,4610025,,,2022-01-19,登記官による閉鎖,,,2015-10-05,1,,,,,,0
1464,4180002018886,登記記録の閉鎖等,0,2022-01-19,2022-01-19,有限会社ナカムラ電機,,有限会社,愛知県,名古屋市中川区,乗越町３丁目１９番地,,23,110,4540813,,,2022-01-19,登記官による閉鎖,,,2015-10-05,1,,,,,,0
1465,4180002032813,登記記録の閉鎖等,0,2022-01-19,2022-01-19,有限会社ホットスタッフ,,有限会社,愛知県,名古屋市西区,花の木３丁目１６番地２８清光ビル花の木５階,,23,104,4510062,,,2022-01-19,登記官による閉鎖,,,2015-10-05,1,,,,,,0
1466,4180002038307,登記記録の閉鎖等,0,2022-01-19,2022-01-19,有限会社トムズ,,有限会社,愛知県,名古屋市緑区,有松三丁山７１１番地,,23,114,4580902,,,2022-01-19,登記官による閉鎖,,,2015-10-05,1,,,,,,0
1467,4180002040097,登記記録の閉鎖等,0,2022-01-19,2022-01-19,有限会社味匠庵,,有限会社,愛知県,名古屋市天白区,塩釜口２丁目１５０１番地,,23,116,4680073,,,2022-01-19,登記官による閉鎖,,,2015-10-05,1,,,,,,0
1468,4180002061473,登記記録の閉鎖等,0,2022-01-19,2022-01-19,有限会社シグマ,,有限会社,愛知県,名古屋市中村区,沖田町３８９番地,,23,105,4530825,,,2022-01-19,登記官による閉鎖,,,2015-10-05,1,,,,,,0
1469,4180002061556,登記記録の閉鎖等,0,2022-01-19,2022-01-19,有限会社ピーエス・ワン,,有限会社,愛知県,名古屋市西区,上名古屋３丁目２３番１６号,,23,104,4510025,,,2022-01-19,登記官による閉鎖,,,2015-10-05,1,,,,,,0
1470,4180002062315,登記記録の閉鎖等,0,2022-01-19,2022-01-19,有限会社ラボテック,,有限会社,愛知県,日進市,岩崎町北高上７７番地の１,00073266,23,230,4700131,,,2022-01-19,登記官による閉鎖,,,2015-10-05,1,,,,,,0
1471,4180002063908,登記記録の閉鎖等,0,2022-01-19,2022-01-19,有限会社大橋工作所,,有限会社,愛知県,豊明市,沓掛町東本郷１０１番地,,23,229,4701101,,,2022-01-19,登記官による閉鎖,,,2015-10-05,1,,,,,,0
1472,4180002066209,登記記録の閉鎖等,0,2022-01-19,2022-01-19,有限会社篠原工業,,有限会社,愛知県,春日井市,明知町庄ノ田６１７番地８,,23,206,4800303,,,2022-01-19,登記官による閉鎖,,,2015-10-05,1,,,,,,0
1473,4180002067264,登記記録の閉鎖等,0,2022-01-19,2022-01-19,有限会社本田商店,,有限会社,愛知県,春日井市,堀ノ内町北１丁目５４番地,,23,206,4860828,,,2022-01-19,登記官による閉鎖,,,2015-10-05,1,,,,,,0
1474,4180002071308,登記記録の閉鎖等,0,2022-01-19,2022-01-19,有限会社サムクリエイト,,有限会社,愛知県,小牧市,常普請１丁目１７７番地,,23,219,4850044,,,2022-01-19,登記官による閉鎖,,,2015-10-05,1,,,,,,0
1475,4180002080424,登記記録の閉鎖等,0,2022-01-19,2022-01-19,有限会社鵜飼商店,,有限会社,愛知県,稲沢市,駅前２丁目７番７－１０１号,,23,220,4928143,,,2022-01-19,登記官による閉鎖,,,2015-10-05,1,,,,,,0
1476,4180002082998,登記記録の閉鎖等,0,2022-01-19,2022-01-19,有限会社ソウルビート,,有限会社,愛知県,名古屋市西区,名駅２丁目２６番１１号,,23,104,4510045,,,2022-01-19,登記官による閉鎖,,,2015-10-05,1,,,,,,0
1477,4180002083807,登記記録の閉鎖等,0,2022-01-19,2022-01-19,有限会社半田ヤスダ,,有限会社,愛知県,半田市,岩滑高山町５丁目１０６番地の４,,23,205,4750962,,,2022-01-19,登記官による閉鎖,,,2015-10-05,1,,,,,,0
1478,4180002089903,登記記録の閉鎖等,0,2022-01-19,2022-01-19,有限会社伊藤冷熱サービス,,有限会社,愛知県,弥富市,富島１丁目４１番地,,23,235,4980058,,,2022-01-19,登記官による閉鎖,,,2015-10-05,1,,,,,,0
1479,4180002090316,登記記録の閉鎖等,0,2022-01-19,2022-01-19,有限会社日比野製作所,,有限会社,愛知県,愛西市,日置町髭田１５４番４,,23,232,4960906,,,2022-01-19,登記官による閉鎖,,,2015-10-05,1,,,,,,0
1480,4180003001701,登記記録の閉鎖等,0,2022-01-19,2022-01-19,合資会社横井鉄工所,00073736,合資会社,愛知県,名古屋市北区,彩紅橋通２丁目１７番地,,23,103,4620818,,,2022-01-19,登記官による閉鎖,,,2015-10-05,1,,,,,,0
1481,4180003002336,登記記録の閉鎖等,0,2022-01-19,2022-01-19,合資会社芝金,,合資会社,愛知県,名古屋市東区,泉３丁目６番８号,,23,102,4610001,,,2022-01-19,登記官による閉鎖,,,2015-10-05,1,,,,,,0
1482,4180003016939,登記記録の閉鎖等,0,2022-01-19,2022-01-19,水野三合名会社,,合名会社,愛知県,名古屋市中区,錦２丁目７番４号,,23,106,4600003,,,2022-01-19,登記官による閉鎖,,,2016-03-11,1,,,,,,0
1484,4180005008001,登記記録の閉鎖等,0,2022-01-19,2022-01-19,一般社団法人おわり土地建物総合相互会,,その他の設立登記法人,愛知県,名古屋市北区,楠味鋺５丁目７１９番地春日ハイツ１０１号室,,23,103,4620014,,,2022-01-19,登記官による閉鎖,,,2015-10-05,1,,,,,,0
1488,4190001001479,登記記録の閉鎖等,0,2022-01-19,2022-01-18,株式会社ふかた,,株式会社,三重県,津市,一志町日置１３３番地,,24,201,5152503,,,2022-01-18,清算の結了等,,,2015-10-05,1,,,,,,0
1495,4200001005676,登記記録の閉鎖等,0,2022-01-19,2022-01-18,株式会社ユービック,,株式会社,岐阜県,岐阜市,金園町３丁目２２番地,,21,201,5008113,,,2022-01-18,登記官による閉鎖,,,2015-10-05,1,,,,,,0
1496,4200001008423,登記記録の閉鎖等,0,2022-01-19,2022-01-18,コモン建設株式会社,,株式会社,岐阜県,岐阜市,コモンヒルズ北山３６４５番地４３,,21,201,5013117,,,2022-01-18,登記官による閉鎖,,,2015-10-05,1,,,,,,0
1497,4200001018323,登記記録の閉鎖等,0,2022-01-19,2022-01-18,株式会社エミール,,株式会社,岐阜県,可児市,今渡１５７０番地の１０,,21,214,5090207,,,2022-01-18,登記官による閉鎖,,,2015-10-05,1,,,,,,0
1498,4200001021277,登記記録の閉鎖等,0,2022-01-19,2022-01-18,株式会社クラフトネッツ,,株式会社,岐阜県,土岐市,妻木町２０３３番地の１,,21,212,5095301,,,2022-01-18,登記官による閉鎖,,,2015-10-05,1,,,,,,0
1499,4200001022721,登記記録の閉鎖等,0,2022-01-19,2022-01-18,株式会社朝日新聞多治見販売,,株式会社,岐阜県,多治見市,小泉町８丁目１０３番地,,21,204,5070073,,,2022-01-18,登記官による閉鎖,,,2015-10-05,1,,,,,,0
1500,4200002003613,登記記録の閉鎖等,0,2022-01-19,2022-01-18,則武高橋不動産有限会社,00076846,有限会社,岐阜県,岐阜市,則武中２丁目２２番２号,,21,201,5020932,,,2022-01-18,登記官による閉鎖,,,2015-10-05,1,,,,,,0
1501,4200002011698,登記記録の閉鎖等,0,2022-01-19,2022-01-18,有限会社トップス,,有限会社,岐阜県,羽島郡笠松町,円城寺５２５番地,,21,303,5016035,,,2022-01-18,登記官による閉鎖,,,2015-10-05,1,,,,,,0
1503,4200002019122,登記記録の閉鎖等,0,2022-01-19,2022-01-18,有限会社邦徳金属,,有限会社,岐阜県,美濃市,安毛６４５番地の１,,21,207,5013717,,,2022-01-18,登記官による閉鎖,,,2015-10-05,1,,,,,,0
1504,4200002020749,登記記録の閉鎖等,0,2022-01-19,2022-01-18,有限会社丸藤建設,,有限会社,岐阜県,多治見市,市之倉町１１丁目１９９番地の６３,,21,204,5070814,,,2022-01-18,登記官による閉鎖,,,2015-10-05,1,,,,,,0
1505,4200002023776,登記記録の閉鎖等,0,2022-01-19,2022-01-18,有限会社木村石油,,有限会社,岐阜県,恵那市,大井町１２０７番地の６,,21,210,5097201,,,2022-01-18,登記官による閉鎖,,,2015-10-05,1,,,,,,0
1508,4200005003916,登記記録の閉鎖等,0,2022-01-19,2022-01-18,一般社団法人ワールドオリベ・デザインフォーラム,,その他の設立登記法人,岐阜県,岐阜市,薮田南５丁目１４番５３号,,21,201,5008384,,,2022-01-18,登記官による閉鎖,,,2015-10-05,1,,,,,,0
1534,4290001033272,登記記録の閉鎖等,0,2022-01-19,2022-01-13,株式会社日新技建,,株式会社,福岡県,福岡市西区,横浜２丁目３１番３号,,40,135,8190166,,,2022-01-13,清算の結了等,,,2015-10-05,1,,,,,ニッシンギケン,0
1546,4320001008295,登記記録の閉鎖等,0,2022-01-19,2022-01-19,株式会社東豊不動産,,株式会社,大分県,国東市,国東町鶴川２８番地,,44,214,8730503,,,2022-01-19,登記官による閉鎖,,,2015-10-05,1,,,,,,0
1547,4320001011274,登記記録の閉鎖等,0,2022-01-19,2022-01-19,ウエスタン商事株式会社,,株式会社,大分県,中津市,大字上如水５６２番地１,,44,203,8710004,,,2022-01-19,登記官による閉鎖,,,2015-10-05,1,,,,,,0
1548,4320002002867,登記記録の閉鎖等,0,2022-01-19,2022-01-19,財津酒造有限会社,,有限会社,大分県,大分市,千代町４丁目１番１号,,44,201,8700033,,,2022-01-19,登記官による閉鎖,,,2015-10-05,1,,,,,,0
1549,4320002011752,登記記録の閉鎖等,0,2022-01-19,2022-01-19,有限会社大和,,有限会社,大分県,別府市,石垣西３丁目９番３８号,,44,202,8740910,,,2022-01-19,登記官による閉鎖,,,2015-10-05,1,,,,,,0
1551,4320005000050,登記記録の閉鎖等,0,2022-01-19,2022-01-19,社団法人大分県あん摩マッサージ指圧師会,,その他の設立登記法人,大分県,大分市,大手町２丁目３番３４号,,44,201,8700022,,,2022-01-19,登記官による閉鎖,,,2015-10-05,1,,,,,,0
1552,4320005003631,登記記録の閉鎖等,0,2022-01-19,2022-01-19,農事組合法人且尾養蚕機械化組合,,その他の設立登記法人,大分県,宇佐市,安心院町下毛２１１５番地,,44,211,8720521,,,2022-01-19,登記官による閉鎖,,,2015-10-05,1,,,,,,0
1584,4410001001068,登記記録の閉鎖等,0,2022-01-19,2022-01-18,興亜物産株式会社,,株式会社,秋田県,秋田市,泉中央６丁目４番２７号,,05,201,0100917,,,2022-01-18,登記官による閉鎖,,,2015-10-05,1,,,,,,0
1585,4410001002223,登記記録の閉鎖等,0,2022-01-19,2022-01-18,株式会社藤光,,株式会社,秋田県,秋田市,寺内児桜１丁目２番２１号,,05,201,0110909,,,2022-01-18,登記官による閉鎖,,,2015-10-05,1,,,,,,0
1586,4410002007898,登記記録の閉鎖等,0,2022-01-19,2022-01-18,有限会社しばた,,有限会社,秋田県,湯沢市,川連町字大舘清水川１４９番地の２,,05,207,0120105,,,2022-01-18,登記官による閉鎖,,,2015-10-05,1,,,,,,0
1587,4410002011009,登記記録の閉鎖等,0,2022-01-19,2022-01-18,有限会社ヘリクス,,有限会社,秋田県,能代市,河戸川字下大須賀７３番地,,05,202,0160171,,,2022-01-18,登記官による閉鎖,,,2015-10-05,1,,,,,,0
1588,4420002017715,登記記録の閉鎖等,0,2022-01-19,2022-01-14,有限会社白ゆり美容室,,有限会社,青森県,三沢市,大町２丁目４番９号,,02,207,0330041,,,2022-01-14,清算の結了等,,,2015-10-05,1,,,,,シラユリビヨウシツ,0
1600,5010001051383,登記記録の閉鎖等,0,2022-01-19,2022-01-14,東群製本株式会社,,株式会社,東京都,中央区,日本橋浜町３丁目４５番３号,,13,102,1030007,,,2022-01-14,清算の結了等,,,2015-10-05,1,,,,,トウグンセイホン,0
1620,5010401160619,登記記録の閉鎖等,0,2022-01-19,2022-01-07,株式会社Ｓｔａｒｔｕｐ　Ｐａｙｍｅｎｔ,,株式会社,東京都,港区,赤坂４丁目１５番１号,,13,103,1070052,,,2022-01-07,清算の結了等,,,2021-06-07,1,,,,,スタートアップペイメント,0
1622,5010501000220,登記記録の閉鎖等,0,2022-01-19,2022-01-12,芦澤産業株式会社,,株式会社,茨城県,牛久市,田宮町３６６番地２７,,08,219,3001236,,,2022-01-12,清算の結了等,,,2015-10-05,1,,,,,アシザワサンギョウ,0
1643,5011301002704,登記記録の閉鎖等,0,2022-01-19,2022-01-13,株式会社佐藤善工務店,,株式会社,東京都,杉並区,高円寺北２丁目２９番１５号,,13,115,1660002,,,2022-01-13,清算の結了等,,,2015-10-05,1,,,,,サトウゼンコウムテン,0
1647,5011501023434,登記記録の閉鎖等,0,2022-01-19,2022-01-17,日本長興能源株式会社,,株式会社,東京都,北区,西が丘１丁目３７番８－６０１号,,13,117,1150056,,,2022-01-17,清算の結了等,,,2018-02-09,1,"Japan Evergreen Energy Co.,Ltd.",Kanagawa,"4-3-14,Sagamihara, Chuo ku Sagamihara shi",,ニホンチョウコウノウゲン,0
1664,5013301030024,登記記録の閉鎖等,0,2022-01-19,2022-01-14,ＳＯＰＨＹＳ株式会社,,株式会社,東京都,千代田区,大手町２丁目６番１号,,13,101,1000004,,,2022-01-14,清算の結了等,,,2015-10-05,1,,,,,ソフィス,0
1697,5040001052081,登記記録の閉鎖等,0,2022-01-19,2022-01-12,株式会社東京ベイサイドリゾート,,株式会社,千葉県,君津市,川俣旧川俣３４６番地２,,12,225,2920524,,,2022-01-12,清算の結了等,,,2015-10-05,1,,,,,トウキョウベイサイドリゾート,0
1698,5040001064878,登記記録の閉鎖等,0,2022-01-19,2022-01-12,三吉バルブ株式会社,,株式会社,千葉県,千葉市美浜区,中瀬１丁目１０番１,,12,106,2610023,,,2022-01-12,合併による解散等,2040001001644,令和４年１月１日千葉市美浜区中瀬一丁目１０番１株式会社キッツ（2040001001644）に合併し解散,2015-10-05,1,,,,,ミヨシバルブ,0
1707,5040002072327,登記記録の閉鎖等,0,2022-01-19,2022-01-06,有限会社板倉春畝堂,,有限会社,千葉県,千葉市中央区,浜野町１０１７番地６,,12,101,2600824,,,2022-01-06,清算の結了等,,,2015-10-05,1,,,,,イタクラシュンポドウ,0
1711,5050001000163,登記記録の閉鎖等,0,2022-01-19,2022-01-17,茨城義研工業株式会社,,株式会社,茨城県,水戸市,見和１丁目３３１番地の２２,,08,201,3100911,,,2022-01-17,登記官による閉鎖,,,2015-10-05,1,,,,,,0
1712,5050001001120,登記記録の閉鎖等,0,2022-01-19,2022-01-17,株式会社サン・メディカル,,株式会社,茨城県,水戸市,河和田３丁目２３７９番地,,08,201,3114152,,,2022-01-17,登記官による閉鎖,,,2015-10-05,1,,,,,,0
1713,5050001010831,登記記録の閉鎖等,0,2022-01-19,2022-01-17,株式会社ドライバーサービス,,株式会社,茨城県,かすみがうら市,上佐谷８１０番地の３,,08,230,3150065,,,2022-01-17,登記官による閉鎖,,,2015-10-05,1,,,,,,0
1714,5050001018338,登記記録の閉鎖等,0,2022-01-19,2022-01-17,株式会社ギンゲツ,,株式会社,茨城県,古河市,中央町２丁目１番５号,,08,204,3060033,,,2022-01-17,登記官による閉鎖,,,2015-10-05,1,,,,,,0
1715,5050001018635,登記記録の閉鎖等,0,2022-01-19,2022-01-17,関東エンジニアリング株式会社,,株式会社,茨城県,古河市,下大野１７５８番地,,08,204,3060204,,,2022-01-17,登記官による閉鎖,,,2015-10-05,1,,,,,,0
1717,5050001024393,登記記録の閉鎖等,0,2022-01-19,2022-01-17,日立リーファー株式会社,,株式会社,茨城県,日立市,留町２４３５番地の６日立港木材ビル,,08,202,3191231,,,2022-01-17,登記官による閉鎖,,,2015-10-05,1,,,,,,0
1718,5050001027297,登記記録の閉鎖等,0,2022-01-19,2022-01-17,大和田林業株式会社,,株式会社,茨城県,石岡市,府中４丁目５番１１号,,08,205,3150013,,,2022-01-17,登記官による閉鎖,,,2015-10-05,1,,,,,,0
1719,5050001027470,登記記録の閉鎖等,0,2022-01-19,2022-01-17,三愛工業株式会社,,株式会社,茨城県,取手市,取手甲１７９２番地の３,,08,217,3020004,,,2022-01-17,登記官による閉鎖,,,2015-10-05,1,,,,,,0
1725,5050002001169,登記記録の閉鎖等,0,2022-01-19,2022-01-17,有限会社グリーン城東,,有限会社,茨城県,水戸市,城東３丁目１番１９号,,08,201,3100012,,,2022-01-17,登記官による閉鎖,,,2015-10-05,1,,,,,,0
1726,5050002011507,登記記録の閉鎖等,0,2022-01-19,2022-01-17,有限会社サカイ造形,,有限会社,茨城県,土浦市,木田余東台３丁目２番２５号,,08,203,3000027,,,2022-01-17,登記官による閉鎖,,,2015-10-05,1,,,,,,0
1727,5050002012868,登記記録の閉鎖等,0,2022-01-19,2022-01-17,有限会社安本競走馬診療所,,有限会社,茨城県,稲敷郡阿見町,住吉２丁目１９番地３,,08,443,3001158,,,2022-01-17,登記官による閉鎖,,,2015-10-05,1,,,,,,0
1728,5050002015714,登記記録の閉鎖等,0,2022-01-19,2022-01-17,成井商事有限会社,,有限会社,茨城県,石岡市,東成井２２８５番地の６０,,08,205,3150122,,,2022-01-17,登記官による閉鎖,,,2015-10-05,1,,,,,,0
1729,5050002017495,登記記録の閉鎖等,0,2022-01-19,2022-01-11,有限会社やまと,,有限会社,茨城県,結城郡八千代町,大字菅谷５９４番地５,,08,521,3003572,,,2022-01-11,清算の結了等,,,2015-10-05,1,,,,,ヤマト,0
1730,5050002018576,登記記録の閉鎖等,0,2022-01-19,2022-01-17,有限会社中村工業所,,有限会社,茨城県,猿島郡境町,９６３番地の６,,08,546,3060433,,,2022-01-17,登記官による閉鎖,,,2015-10-05,1,,,,,,0
1731,5050002029771,登記記録の閉鎖等,0,2022-01-19,2022-01-17,有限会社今井製作所,,有限会社,茨城県,鉾田市,紅葉７０５番地１,,08,234,3111537,,,2022-01-17,登記官による閉鎖,,,2015-10-05,1,,,,,,0
1732,5050002032593,登記記録の閉鎖等,0,2022-01-19,2022-01-17,有限会社東日本環境素材センター,,有限会社,茨城県,北茨城市,磯原町豊田１１９７番地,,08,215,3191543,,,2022-01-17,登記官による閉鎖,,,2015-10-05,1,,,,,,0
1733,5050002037089,登記記録の閉鎖等,0,2022-01-19,2022-01-17,有限会社とんぼ玉,,有限会社,茨城県,守谷市,松ケ丘４丁目３番地７,,08,224,3020127,,,2022-01-17,登記官による閉鎖,,,2015-10-05,1,,,,,,0
1734,5050002042155,登記記録の閉鎖等,0,2022-01-19,2022-01-17,有限会社シモダテ内装,,有限会社,茨城県,筑西市,玉戸１５番地,,08,227,3080847,,,2022-01-17,登記官による閉鎖,,,2015-10-05,1,,,,,,0
1735,5050003001390,登記記録の閉鎖等,0,2022-01-19,2022-01-17,田山合名会社,,合名会社,茨城県,鉾田市,鉾田１５５５番地,,08,234,3111517,,,2022-01-17,登記官による閉鎖,,,2015-10-05,1,,,,,,0
1737,5060001023205,登記記録の閉鎖等,0,2022-01-19,2022-01-12,株式会社エーケービー,,株式会社,栃木県,宇都宮市,針ヶ谷町４７０番地ジーエム不動産ビル１０１,,09,201,3210147,,,2022-01-12,清算の結了等,,,2015-10-05,1,,,,,エーケービー,0
1746,5080002002718,登記記録の閉鎖等,0,2022-01-19,2022-01-19,有限会社秀プランニング,,有限会社,静岡県,静岡市葵区,平和３丁目１８番１５号,,22,101,4200876,,,2022-01-19,登記官による閉鎖,,,2015-10-05,1,,,,,,0
1747,5080002002750,登記記録の閉鎖等,0,2022-01-19,2022-01-19,有限会社ジャカム東海,,有限会社,静岡県,静岡市駿河区,中田本町３８番２２号,,22,102,4228043,,,2022-01-19,登記官による閉鎖,,,2015-10-05,1,,,,,,0
1748,5080002014977,登記記録の閉鎖等,0,2022-01-19,2022-01-19,有限会社フォーサイト,,有限会社,静岡県,牧之原市,汐見台１６番地の５,,22,226,4210527,,,2022-01-19,登記官による閉鎖,,,2015-10-05,1,,,,,,0
1749,5080002017377,登記記録の閉鎖等,0,2022-01-19,2022-01-19,オレンジ酒販有限会社,,有限会社,静岡県,藤枝市,高岡２丁目１番５号,,22,214,4260062,,,2022-01-19,登記官による閉鎖,,,2015-10-05,1,,,,,,0
1750,5080005004174,登記記録の閉鎖等,0,2022-01-19,2022-01-19,特定非営利活動法人バイリンガルラボ静岡,,その他の設立登記法人,静岡県,静岡市葵区,伝馬町１８番８号アミイチビル,,22,101,4200858,,,2022-01-19,登記官による閉鎖,,,2015-10-05,1,,,,,,0
1751,5080101007246,登記記録の閉鎖等,0,2022-01-19,2022-01-19,株式会社源,,株式会社,静岡県,沼津市,大手町３丁目４番１１号Ｋビル３階,,22,203,4100801,,,2022-01-19,登記官による閉鎖,,,2015-10-05,1,,,,,,0
1752,5080101007510,登記記録の閉鎖等,0,2022-01-19,2022-01-19,株式会社エリス,,株式会社,静岡県,沼津市,高島町１９番２号,,22,203,4100056,,,2022-01-19,登記官による閉鎖,,,2015-10-05,1,,,,,,0
1753,5080101007849,登記記録の閉鎖等,0,2022-01-19,2022-01-19,鴻銘株式会社,,株式会社,静岡県,沼津市,大岡２１９７－１,,22,203,4100022,,,2022-01-19,登記官による閉鎖,,,2015-10-05,1,,,,,,0
1754,5080101007980,登記記録の閉鎖等,0,2022-01-19,2022-01-19,株式会社ゼロプラス,,株式会社,静岡県,沼津市,足高尾上２８８番地の５,,22,203,4100001,,,2022-01-19,登記官による閉鎖,,,2015-10-05,1,,,,,,0
1755,5080101010794,登記記録の閉鎖等,0,2022-01-19,2022-01-19,富士ヒノデ株式会社,,株式会社,静岡県,富士市,神谷９６番地の４０,,22,210,4170821,,,2022-01-19,登記官による閉鎖,,,2015-10-05,1,,,,,,0
1756,5080101019183,登記記録の閉鎖等,0,2022-01-19,2022-01-19,渡眞住宅株式会社,,株式会社,静岡県,下田市,吉佐美８６８番地の３,,22,219,4150028,,,2022-01-19,登記官による閉鎖,,,2016-06-20,1,,,,,,0
1757,5080102006115,登記記録の閉鎖等,0,2022-01-19,2022-01-19,有限会社ケイアンドケイ,,有限会社,静岡県,沼津市,八幡町１５番地,,22,203,4100881,,,2022-01-19,登記官による閉鎖,,,2015-10-05,1,,,,,,0
1759,5080102015652,登記記録の閉鎖等,0,2022-01-19,2022-01-19,有限会社フォレスト,,有限会社,静岡県,富士市,本町１４番地の２７,,22,210,4160914,,,2022-01-19,登記官による閉鎖,,,2015-10-05,1,,,,,,0
1760,5080102017475,登記記録の閉鎖等,0,2022-01-19,2022-01-19,有限会社ワールド計装,,有限会社,静岡県,富士宮市,宮原４４１番地の１５,,22,207,4180005,,,2022-01-19,登記官による閉鎖,,,2015-10-05,1,,,,,,0
1761,5080105001229,登記記録の閉鎖等,0,2022-01-19,2022-01-19,社団法人塚原公栄会,,その他の設立登記法人,静岡県,御殿場市,塚原８５９番地の２,00079447,22,215,4120017,,,2022-01-19,登記官による閉鎖,,,2015-10-05,1,,,,,,0
1763,5080401010429,登記記録の閉鎖等,0,2022-01-19,2022-01-19,東海通商株式会社,,株式会社,静岡県,浜松市浜北区,尾野１３３３番地の１,,22,136,4340002,,,2022-01-19,登記官による閉鎖,,,2015-10-05,1,,,,,,0
1764,5080401010809,登記記録の閉鎖等,0,2022-01-19,2022-01-19,金本建設株式会社,,株式会社,静岡県,浜松市天竜区,春野町気田５０２番地,,22,137,4370605,,,2022-01-19,登記官による閉鎖,,,2015-10-05,1,,,,,,0
1765,5080401011229,登記記録の閉鎖等,0,2022-01-19,2022-01-19,株式会社Ｍ’ｚカンパニー,,株式会社,静岡県,浜松市中区,高丘東１丁目６番５６号,,22,131,4338117,,,2022-01-19,登記官による閉鎖,,,2015-10-05,1,,,,,,0
1766,5080401013992,登記記録の閉鎖等,0,2022-01-19,2022-01-19,株式会社シーフードランナー,,株式会社,静岡県,浜松市南区,芳川町２３５番地,,22,134,4300813,,,2022-01-19,登記官による閉鎖,,,2015-10-05,1,,,,,,0
1768,5080402001658,登記記録の閉鎖等,0,2022-01-19,2022-01-19,有限会社オートサービススギモト,,有限会社,静岡県,浜松市東区,笠井町１５０６番地の１,,22,132,4313107,,,2022-01-19,登記官による閉鎖,,,2015-10-05,1,,,,,,0
1769,5080402007663,登記記録の閉鎖等,0,2022-01-19,2022-01-19,有限会社丸好第二坂田織物,,有限会社,静岡県,浜松市南区,東若林町７１０番地の１５,,22,134,4328052,,,2022-01-19,登記官による閉鎖,,,2015-10-05,1,,,,,,0
1770,5080402019519,登記記録の閉鎖等,0,2022-01-19,2022-01-19,有限会社木船土木,,有限会社,静岡県,磐田市,中泉１５２８番地の１８,,22,211,4380078,,,2022-01-19,登記官による閉鎖,,,2015-10-05,1,,,,,,0
1771,5080405003486,登記記録の閉鎖等,0,2022-01-19,2022-01-19,農事組合法人梅指畜産,,その他の設立登記法人,静岡県,浜松市北区,三ヶ日町岡本字梅指４３２番地,,22,135,4311415,,,2022-01-19,登記官による閉鎖,,,2015-10-05,1,,,,,,0
1772,5080405003692,登記記録の閉鎖等,0,2022-01-19,2022-01-19,社団法人天竜青年会議所,,その他の設立登記法人,静岡県,浜松市天竜区,二俣町阿蔵１１４番地の２,,22,137,4313311,,,2022-01-19,登記官による閉鎖,,,2015-10-05,1,,,,,,0
1774,5090005000049,登記記録の閉鎖等,0,2022-01-19,2022-01-13,医療法人松陽会,,その他の設立登記法人,山梨県,甲府市,青沼１丁目１４番１３号,,19,201,4000867,,,2022-01-13,清算の結了等,,,2015-10-05,1,,,,,ショウヨウカイ,0
1779,5100002028842,登記記録の閉鎖等,0,2022-01-19,2022-01-17,株式会社フェリーチェ,,株式会社,長野県,諏訪市,湖岸通り４丁目９番９号マンション諏訪湖１０２,,20,206,3920027,,,2022-01-17,清算の結了等,,,2015-10-05,1,,,,,フェリーチェ,0
1790,5120003016687,登記記録の閉鎖等,0,2022-01-19,2022-01-14,合同会社ライト,,合同会社,大阪府,大阪市中央区,今橋２丁目５番８号,,27,128,5410042,,,2022-01-14,清算の結了等,,,2019-12-11,1,,,,,ライト,0
1797,5120102011795,登記記録の閉鎖等,0,2022-01-19,2022-01-14,有限会社ＫＡＮＳＡＩ　ＣＹＣＬＥ　ＮＥＴＷＯＲＫ,,有限会社,大阪府,堺市堺区,竜神橋町２丁３番１－６０２号,,27,141,5900972,,,2022-01-14,清算の結了等,,,2015-10-05,1,,,,,カンサイサイクルネットワーク,0
1810,5130001061478,登記記録の閉鎖等,0,2022-01-19,2022-01-14,株式会社プレビス,,株式会社,東京都,江戸川区,臨海町４丁目２番２号,,13,123,1340086,,,2022-01-14,清算の結了等,,,2018-02-07,1,,,,,プレビス,0
1817,5140001075246,登記記録の閉鎖等,0,2022-01-19,2022-01-13,株式会社朝井機料店,,株式会社,兵庫県,西脇市,西脇３３８番地の７,,28,213,6770015,,,2022-01-13,清算の結了等,,,2015-10-05,1,,,,,アサイキリョウテン,0
1822,5140002002372,登記記録の閉鎖等,0,2022-01-19,2022-01-13,有限会社松美屋,,有限会社,兵庫県,神戸市東灘区,本庄町１丁目１３番２２－７０５号,,28,101,6580012,,,2022-01-13,清算の結了等,,,2015-10-05,1,,,,,マツミヤ,0
1838,5180001010744,登記記録の閉鎖等,0,2022-01-19,2022-01-19,中日本商事株式会社,,株式会社,愛知県,名古屋市瑞穂区,大喜新町２丁目１２番地,,23,108,4670868,,,2022-01-19,登記官による閉鎖,,,2015-10-05,1,,,,,,0
1839,5180001031674,登記記録の閉鎖等,0,2022-01-19,2022-01-19,株式会社トーセン,,株式会社,愛知県,名古屋市中村区,名駅４丁目２番２５号,,23,105,4500002,,,2022-01-19,登記官による閉鎖,,,2015-10-05,1,,,,,,0
1840,5180001037226,登記記録の閉鎖等,0,2022-01-19,2022-01-19,株式会社西部,,株式会社,愛知県,名古屋市中区,富士見町６番１５号,,23,106,4600014,,,2022-01-19,登記官による閉鎖,,,2015-10-05,1,,,,,,0
1841,5180001071448,登記記録の閉鎖等,0,2022-01-19,2022-01-19,株式会社ブロードシティー,,株式会社,愛知県,名古屋市緑区,鳴海町字下中１９番地,,23,114,4580801,,,2022-01-19,登記官による閉鎖,,,2015-10-05,1,,,,,,0
1842,5180001075432,登記記録の閉鎖等,0,2022-01-19,2022-01-19,株式会社ビクトリアホームズ,,株式会社,愛知県,春日井市,松本町２丁目６番地８,,23,206,4870027,,,2022-01-19,登記官による閉鎖,,,2015-10-05,1,,,,,,0
1843,5180001088806,登記記録の閉鎖等,0,2022-01-19,2022-01-19,ローズマジック株式会社,,株式会社,愛知県,名古屋市東区,泉３丁目１７番１０号,,23,102,4610001,,,2022-01-19,登記官による閉鎖,,,2015-10-05,1,,,,,,0
1844,5180001091875,登記記録の閉鎖等,0,2022-01-19,2022-01-19,株式会社鳥居商店,,株式会社,愛知県,半田市,亀崎町８丁目１５７番地,,23,205,4750023,,,2022-01-19,登記官による閉鎖,,,2015-10-05,1,,,,,,0
1846,5180001094077,登記記録の閉鎖等,0,2022-01-19,2022-01-19,株式会社ガッツＣｏｒｐｏｒａｔｉｏｎ,,株式会社,愛知県,知多郡美浜町,新栄１丁目４番地４,,23,446,4703234,,,2022-01-19,登記官による閉鎖,,,2015-10-05,1,,,,,,0
1852,5180001131342,登記記録の閉鎖等,0,2022-01-19,2022-01-17,株式会社マイセルフ,,株式会社,愛知県,名古屋市東区,泉１丁目１８番４号,,23,102,4610001,,,2022-01-17,清算の結了等,,,2018-02-27,1,,,,,マイセルフ,0
1857,5180002018588,登記記録の閉鎖等,0,2022-01-19,2022-01-19,有限会社タマヤ,,有限会社,愛知県,名古屋市中川区,野田１丁目４５５番地,,23,110,4540912,,,2022-01-19,登記官による閉鎖,,,2015-10-05,1,,,,,,0
1858,5180002025923,登記記録の閉鎖等,0,2022-01-19,2022-01-19,鈴木工業有限会社,,有限会社,愛知県,名古屋市緑区,曽根２丁目２５３番地,,23,114,4580035,,,2022-01-19,登記官による閉鎖,,,2015-10-05,1,,,,,,0
1859,5180002027052,登記記録の閉鎖等,0,2022-01-19,2022-01-19,有限会社飯田鋳造所,,有限会社,愛知県,名古屋市中村区,日比津町４丁目１８番１９号,,23,105,4530061,,,2022-01-19,登記官による閉鎖,,,2015-10-05,1,,,,,,0
1860,5180002030485,登記記録の閉鎖等,0,2022-01-19,2022-01-19,有限会社北村孝昭広告事務所,,有限会社,愛知県,名古屋市中川区,八田町１５０２番地,,23,110,4540877,,,2022-01-19,登記官による閉鎖,,,2015-10-05,1,,,,,,0
1861,5180002035609,登記記録の閉鎖等,0,2022-01-19,2022-01-19,有限会社セントラルコーポレーション,,有限会社,愛知県,名古屋市昭和区,楽園町１２番地の１,,23,107,4660822,,,2022-01-19,登記官による閉鎖,,,2015-10-05,1,,,,,,0
1862,5180002038479,登記記録の閉鎖等,0,2022-01-19,2022-01-19,有限会社ビッグワン,,有限会社,愛知県,名古屋市南区,前浜通３丁目２３番地,,23,112,4570058,,,2022-01-19,登記官による閉鎖,,,2015-10-05,1,,,,,,0
1863,5180002058428,登記記録の閉鎖等,0,2022-01-19,2022-01-19,有限会社十,,有限会社,愛知県,名古屋市中区,錦２丁目１８番５号,,23,106,4600003,,,2022-01-19,登記官による閉鎖,,,2015-10-05,1,,,,,,0
1864,5180002059657,登記記録の閉鎖等,0,2022-01-19,2022-01-19,龍有限会社,,有限会社,愛知県,名古屋市南区,港東通１丁目１５番地,,23,112,4570834,,,2022-01-19,登記官による閉鎖,,,2015-10-05,1,,,,,,0
1865,5180002070886,登記記録の閉鎖等,0,2022-01-19,2022-01-19,有限会社人材のひおき,,有限会社,愛知県,小牧市,大字北外山７１０番地の３,,23,219,4850023,,,2022-01-19,登記官による閉鎖,,,2015-10-05,1,,,,,,0
1866,5180002089316,登記記録の閉鎖等,0,2022-01-19,2022-01-19,鈴新毛織有限会社,,有限会社,愛知県,津島市,江川町１丁目１０７番地,,23,208,4960867,,,2022-01-19,登記官による閉鎖,,,2015-10-05,1,,,,,,0
1867,5180002091172,登記記録の閉鎖等,0,2022-01-19,2022-01-19,有限会社Ｆ．Ｉ．Ｎ．Ｅ．,,有限会社,愛知県,海部郡蟹江町,本町８丁目２７番地,,23,425,4970034,,,2022-01-19,登記官による閉鎖,,,2015-10-05,1,,,,,,0
1868,5180002091940,登記記録の閉鎖等,0,2022-01-19,2022-01-19,有限会社エス・イー・シー,,有限会社,愛知県,海部郡大治町,大字三本木字村部１１３番地,,23,424,4901142,,,2022-01-19,登記官による閉鎖,,,2015-10-05,1,,,,,,0
1870,5180003004166,登記記録の閉鎖等,0,2022-01-19,2022-01-19,合資会社まる芳,,合資会社,愛知県,名古屋市緑区,鳴海町字作町２８番地,,23,114,4580801,,,2022-01-19,登記官による閉鎖,,,2015-10-05,1,,,,,,0
1872,5180003018637,登記記録の閉鎖等,0,2022-01-19,2022-01-14,合同会社オンリンド,,合同会社,愛知県,あま市,下萱津九反田２番地４,,23,237,4901114,,,2022-01-14,清算の結了等,,,2018-01-22,1,,,,,オンリンド,0
1884,5200001004388,登記記録の閉鎖等,0,2022-01-19,2022-01-18,株式会社ヒューマントライ,,株式会社,岐阜県,岐阜市,粟野西１丁目４８８番地の１,,21,201,5020006,,,2022-01-18,登記官による閉鎖,,,2015-10-05,1,,,,,,0
1885,5200001009288,登記記録の閉鎖等,0,2022-01-19,2022-01-18,株式会社Ａｌｉｖｅ,,株式会社,岐阜県,岐阜市,八代３丁目１８番地１４,,21,201,5020812,,,2022-01-18,登記官による閉鎖,,,2015-10-05,1,,,,,,0
1886,5200001017415,登記記録の閉鎖等,0,2022-01-19,2022-01-17,旭精密工業株式会社,,株式会社,岐阜県,加茂郡八百津町,伊岐津志字瀧之上２４４番地の１,,21,505,5050303,,,2022-01-17,清算の結了等,,,2015-10-05,1,,,,,アサヒセイミツコウギョウ,0
1888,5200002000304,登記記録の閉鎖等,0,2022-01-19,2022-01-18,有限会社イカリ縫製,,有限会社,岐阜県,岐阜市,本町４丁目３番地,,21,201,5008034,,,2022-01-18,登記官による閉鎖,,,2015-10-05,1,,,,,,0
1889,5200002002275,登記記録の閉鎖等,0,2022-01-19,2022-01-18,有限会社シブヤ建設,,有限会社,岐阜県,岐阜市,加納村松町１丁目７番地,,21,201,5008458,,,2022-01-18,登記官による閉鎖,,,2015-10-05,1,,,,,,0
1890,5200002009403,登記記録の閉鎖等,0,2022-01-19,2022-01-18,有限会社キウチ,,有限会社,岐阜県,瑞穂市,十九条４３２番地の１,,21,216,5010235,,,2022-01-18,登記官による閉鎖,,,2015-10-05,1,,,,,,0
1891,5200002011350,登記記録の閉鎖等,0,2022-01-19,2022-01-18,有限会社横枕縫製,,有限会社,岐阜県,羽島郡岐南町,三宅１丁目２５番地,,21,302,5016002,,,2022-01-18,登記官による閉鎖,,,2015-10-05,1,,,,,,0
1898,5220001022000,登記記録の閉鎖等,0,2022-01-19,2022-01-14,株式会社ムービーアンドモバイル,,株式会社,石川県,金沢市,示野中町２丁目６４番地,,17,201,9200058,,,2022-01-14,清算の結了等,,,2017-12-05,1,,,,,ムービーアンドモバイル,0
1899,5220002003429,登記記録の閉鎖等,0,2022-01-19,2022-01-13,有限会社ゼロ会,,有限会社,石川県,金沢市,春日町３番３号ロイヤルシャトー夢香山４０３号,,17,201,9200817,,,2022-01-13,清算の結了等,,,2015-10-05,1,,,,,ゼロカイ,0
1901,5240001043085,登記記録の閉鎖等,0,2022-01-19,2022-01-17,サングリーン株式会社,,株式会社,広島県,福山市,神辺町字西中条１４６６番地,,34,207,7202103,,,2022-01-17,清算の結了等,,,2015-10-05,1,,,,,サングリーン,0
1925,5320001008872,登記記録の閉鎖等,0,2022-01-19,2022-01-19,岡村産興株式会社,,株式会社,大分県,佐伯市,西浜２番４１号,,44,205,8760822,,,2022-01-19,登記官による閉鎖,,,2015-10-05,1,,,,,,0
1927,5320002011603,登記記録の閉鎖等,0,2022-01-19,2022-01-19,昭和自動車整備有限会社,,有限会社,大分県,別府市,亀川浜田町９９１番地の１２５,,44,202,8740014,,,2022-01-19,登記官による閉鎖,,,2015-10-05,1,,,,,,0
1928,5320002016701,登記記録の閉鎖等,0,2022-01-19,2022-01-19,佐伯燃料販売有限会社,,有限会社,大分県,佐伯市,上灘区９７７８番地の８,00096927,44,205,8760022,,,2022-01-19,登記官による閉鎖,,,2015-10-05,1,,,,,,0
1929,5320002016783,登記記録の閉鎖等,0,2022-01-19,2022-01-19,伸和運輸有限会社,,有限会社,大分県,佐伯市,大字上岡１５１２番地の１,,44,205,8760045,,,2022-01-19,登記官による閉鎖,,,2015-10-05,1,,,,,,0
1930,5320002017641,登記記録の閉鎖等,0,2022-01-19,2022-01-19,有限会社いしはら,,有限会社,大分県,佐伯市,鶴谷町１丁目２番８号,,44,205,8760811,,,2022-01-19,登記官による閉鎖,,,2015-10-05,1,,,,,,0
1933,5320005000099,登記記録の閉鎖等,0,2022-01-19,2022-01-19,社団法人大分県鍼灸師会,,その他の設立登記法人,大分県,大分市,大手町２丁目３番３４号,,44,201,8700022,,,2022-01-19,登記官による閉鎖,,,2015-10-05,1,,,,,,0
1934,5320202000546,登記記録の閉鎖等,0,2022-01-19,2022-01-19,有限会社江藤建設,,有限会社,大分県,津久見市,大字津久見３００番地の３,,44,207,8792421,,,2022-01-19,登記官による閉鎖,,,2015-10-05,1,,,,,,0
1945,5380001017166,登記記録の閉鎖等,0,2022-01-19,2022-01-17,会津富士加工株式会社,,株式会社,福島県,会津若松市,町北町大字上荒久田字宮下１５番地１,,07,202,9650053,,,2022-01-17,清算の結了等,,,2015-10-05,1,,,,,アイヅフジカコウ,0
1958,5410001005316,登記記録の閉鎖等,0,2022-01-19,2022-01-18,株式会社かじ川,,株式会社,秋田県,にかほ市,象潟町字浜畑１番地,,05,214,0180117,,,2022-01-18,登記官による閉鎖,,,2015-10-05,1,,,,,,0
1959,5410002012831,登記記録の閉鎖等,0,2022-01-19,2022-01-18,有限会社スズケン電設,,有限会社,秋田県,仙北市,角館町雲然上町屋１５８番地１０,,05,215,0140341,,,2022-01-18,登記官による閉鎖,,,2015-10-05,1,,,,,,0
1960,5410002013680,登記記録の閉鎖等,0,2022-01-19,2022-01-18,ＥＲＭワールド有限会社,,有限会社,秋田県,横手市,大森町字大中島５７８番地,,05,203,0130514,,,2022-01-18,登記官による閉鎖,,,2015-10-05,1,,,,,,0
1961,5410002014035,登記記録の閉鎖等,0,2022-01-19,2022-01-18,有限会社斉藤建材塗装店,,有限会社,秋田県,南秋田郡五城目町,字上町４２番地,,05,361,0181705,,,2022-01-18,登記官による閉鎖,,,2016-08-03,1,,,,,,0
1962,5420001005059,登記記録の閉鎖等,0,2022-01-19,2022-01-17,環境美装株式会社,,株式会社,青森県,青森市,大字金浜字稲田６６番地１６,,02,201,0300145,,,2022-01-17,清算の結了等,,,2015-10-05,1,,,,,カンキョウビソウ,0
1963,5430001024025,登記記録の閉鎖等,0,2022-01-19,2022-01-14,株式会社クー・インターナショナル札幌,,株式会社,北海道,札幌市中央区,南一条西６丁目１１番地,,01,101,0600061,,,2022-01-14,合併による解散等,4010401010205,令和４年１月１日東京都港区赤坂一丁目１２番３２号コスメテックスローランド株式会社（4010401010205）に合併し解散,2015-10-05,1,,,,,クーインターナショナルサッポロ,0
1978,5500003001980,登記記録の閉鎖等,0,2022-01-19,2022-01-12,合同会社山本工業,,合同会社,愛媛県,松山市,須賀町４番２５号,,38,201,7918052,,,2022-01-12,清算の結了等,,,2017-09-06,1,,,,,ヤマモトコウギョウ,0
1995,6010003021978,登記記録の閉鎖等,0,2022-01-19,2022-01-07,日本インサイト合同会社,,合同会社,東京都,中央区,勝どき６丁目７番３－１４０２号,,13,102,1040054,,,2022-01-07,清算の結了等,,,2015-10-05,1,,,,,ニホンインサイト,0
2006,6010401019681,登記記録の閉鎖等,0,2022-01-19,2022-01-07,株式会社戸田事務所,,株式会社,東京都,港区,南青山６丁目７番８号,,13,103,1070062,,,2022-01-07,清算の結了等,,,2015-10-05,1,,,,,トダジムショ,0
2007,6010401075394,登記記録の閉鎖等,0,2022-01-19,2022-01-04,日本ＡＴＭヒューマン・ソリューション株式会社,,株式会社,東京都,港区,浜松町１丁目３０番５号,,13,103,1050013,,,2022-01-04,合併による解散等,6010401099261,令和４年１月１日東京都港区浜松町一丁目３０番５号日本エイ・ティー・エム株式会社（6010401099261）に合併し解散,2015-10-05,1,,,,,ニホンエイティーエムヒューマンソリューション,0
2024,6010801013838,登記記録の閉鎖等,0,2022-01-19,2022-01-14,株式会社フックエンタープライズ,,株式会社,神奈川県,横浜市港北区,菊名２丁目１８番２４号妙蓮寺壱番館３０３,,14,109,2220011,,,2022-01-14,清算の結了等,,,2015-10-05,1,,,,,フックエンタープライズ,0
2030,6011001002854,登記記録の閉鎖等,0,2022-01-19,2022-01-04,宇井工業株式会社,,株式会社,東京都,渋谷区,本町５丁目２０番８号,,13,113,1510071,,,2022-01-04,清算の結了等,,,2015-10-05,1,,,,,ウイコウギョウ,0
2033,6011001135126,登記記録の閉鎖等,0,2022-01-19,2022-01-14,株式会社Ｍｏｔｏｒｅｎ　Ｍｅｇｕｒｏ,,株式会社,東京都,港区,東麻布１丁目１０番１１号,,13,103,1060044,,,2022-01-14,合併による解散等,5010001009126,令和４年１月１日東京都千代田区神田美土代町３番地株式会社阿部モータース（5010001009126）に合併し解散,2020-08-12,1,,,,,モトーレンメグロ,0
2055,6011602002575,登記記録の閉鎖等,0,2022-01-19,2022-01-13,有限会社加藤改善相談室,,有限会社,東京都,練馬区,西大泉３丁目１５番１６号,,13,120,1780065,,,2022-01-13,清算の結了等,,,2015-10-05,1,,,,,カトウカイゼンソウダンシツ,0
2091,6030003015680,登記記録の閉鎖等,0,2022-01-19,2022-01-17,合同会社創生１０,,合同会社,埼玉県,本庄市,日の出３丁目５番４号２Ｆ,,11,211,3670022,,,2022-01-17,清算の結了等,,,2020-08-06,1,,,,,ソウセイイチゼロ,0
2101,6050001006449,登記記録の閉鎖等,0,2022-01-19,2022-01-17,株式会社石のヨネカワ,,株式会社,茨城県,水戸市,見川２丁目２２番２号１０３号,,08,201,3100912,,,2022-01-17,登記官による閉鎖,,,2015-10-05,1,,,,,,0
2102,6050001007075,登記記録の閉鎖等,0,2022-01-19,2022-01-17,松井電気株式会社,,株式会社,茨城県,ひたちなか市,大平１丁目４番２３号,,08,221,3120023,,,2022-01-17,登記官による閉鎖,,,2015-10-05,1,,,,,,0
2103,6050001010145,登記記録の閉鎖等,0,2022-01-19,2022-01-17,株式会社シシクラフーズ,,株式会社,茨城県,かすみがうら市,宍倉６１４７番地の３９,,08,230,3000121,,,2022-01-17,登記官による閉鎖,,,2015-10-05,1,,,,,,0
2104,6050001011201,登記記録の閉鎖等,0,2022-01-19,2022-01-17,株式会社クノソウケン,,株式会社,茨城県,土浦市,千束町９番１３号メゾンパル２０１,,08,203,3000046,,,2022-01-17,登記官による閉鎖,,,2015-10-05,1,,,,,,0
2107,6050002000211,登記記録の閉鎖等,0,2022-01-19,2022-01-17,有限会社茨城高層ビル計画,00022509,有限会社,茨城県,水戸市,堀町５０５番地の１,,08,201,3100903,,,2022-01-17,登記官による閉鎖,,,2015-10-05,1,,,,,,0
2108,6050002007537,登記記録の閉鎖等,0,2022-01-19,2022-01-17,有限会社松木,,有限会社,茨城県,那珂郡東海村,大字舟石川６１１番地５,,08,341,3191111,,,2022-01-17,登記官による閉鎖,,,2015-10-05,1,,,,,,0
2109,6050002008394,登記記録の閉鎖等,0,2022-01-19,2022-01-17,有限会社コスモフーズ,,有限会社,茨城県,ひたちなか市,大字高野３２７７番地２,,08,221,3120002,,,2022-01-17,登記官による閉鎖,,,2015-10-05,1,,,,,,0
2110,6050002018757,登記記録の閉鎖等,0,2022-01-19,2022-01-17,有限会社カントー,,有限会社,茨城県,坂東市,逆井１３４４番地,,08,228,3060501,,,2022-01-17,登記官による閉鎖,,,2015-10-05,1,,,,,,0
2111,6050002019920,登記記録の閉鎖等,0,2022-01-19,2022-01-17,有限会社清水,,有限会社,茨城県,坂東市,辺田５５４番地の３,,08,228,3060632,,,2022-01-17,登記官による閉鎖,,,2015-10-05,1,,,,,,0
2114,6050002023063,登記記録の閉鎖等,0,2022-01-19,2022-01-17,有限会社清水機工,,有限会社,茨城県,つくば市,樋の沢１６８４番地の２３,00022928,08,220,3001242,,,2022-01-17,登記官による閉鎖,,,2015-10-05,1,,,,,,0
2115,6050002023402,登記記録の閉鎖等,0,2022-01-19,2022-01-17,有限会社介護サービスかねこ,,有限会社,茨城県,つくば市,高見原３丁目４番地７,,08,220,3001252,,,2022-01-17,登記官による閉鎖,,,2015-10-05,1,,,,,,0
2117,6050002029052,登記記録の閉鎖等,0,2022-01-19,2022-01-05,有限会社ナカダテ,,有限会社,茨城県,行方市,玉造甲６７４２番地３,,08,233,3113512,,,2022-01-05,清算の結了等,,,2015-10-05,1,,,,,ナカダテ,0
2118,6050002030002,登記記録の閉鎖等,0,2022-01-19,2022-01-17,有限会社日の出屋,,有限会社,茨城県,鉾田市,滝浜６２１番地７５,,08,234,3111423,,,2022-01-17,登記官による閉鎖,,,2015-10-05,1,,,,,,0
2119,6050002033657,登記記録の閉鎖等,0,2022-01-19,2022-01-17,三光印刷有限会社,,有限会社,茨城県,北相馬郡利根町,大字布川２５９７番地,,08,564,3001622,,,2022-01-17,登記官による閉鎖,,,2015-10-05,1,,,,,,0
2120,6050002034168,登記記録の閉鎖等,0,2022-01-19,2022-01-17,有限会社糸賀百貨店,,有限会社,茨城県,稲敷市,市崎１６０１番地の１,,08,229,3000612,,,2022-01-17,登記官による閉鎖,,,2015-10-05,1,,,,,,0
2121,6050002038714,登記記録の閉鎖等,0,2022-01-19,2022-01-17,有限会社家基建業,,有限会社,茨城県,守谷市,百合ケ丘１丁目２０５０番地の３２３,,08,224,3020110,,,2022-01-17,登記官による閉鎖,,,2015-10-05,1,,,,,,0
2122,6050002041214,登記記録の閉鎖等,0,2022-01-19,2022-01-17,有限会社ウハラビニール,,有限会社,茨城県,常総市,新石下３３５番地,,08,211,3002706,,,2022-01-17,登記官による閉鎖,,,2015-10-05,1,,,,,,0
2123,6050002044753,登記記録の閉鎖等,0,2022-01-19,2022-01-17,有限会社高鈴運輸,,有限会社,茨城県,結城市,大字結城１１４８９番地の２,,08,207,3070001,,,2022-01-17,登記官による閉鎖,,,2015-10-05,1,,,,,,0
2124,6050003001893,登記記録の閉鎖等,0,2022-01-19,2022-01-17,合資会社シャンティー,,合資会社,茨城県,守谷市,薬師台７丁目１４番地２,,08,224,3020105,,,2022-01-17,登記官による閉鎖,,,2015-10-05,1,,,,,,0
2131,6070001027674,登記記録の閉鎖等,0,2022-01-19,2022-01-17,株式会社ラディアント,,株式会社,群馬県,前橋市,富士見町小沢４８２番地５,,10,201,3710115,,,2022-01-17,清算の結了等,,,2015-10-05,1,,,,,ラディアント,0
2135,6080002013350,登記記録の閉鎖等,0,2022-01-19,2022-01-19,有限会社シダユウガ,,有限会社,静岡県,静岡市清水区,由比７０４番地の３,,22,103,4213103,,,2022-01-19,登記官による閉鎖,,,2015-10-05,1,,,,,,0
2136,6080002014316,登記記録の閉鎖等,0,2022-01-19,2022-01-19,有限会社千頭木材,,有限会社,静岡県,榛原郡川根本町,千頭９８５番地の４,,22,429,4280411,,,2022-01-19,登記官による閉鎖,,,2016-03-11,1,,,,,,0
2140,6080101012591,登記記録の閉鎖等,0,2022-01-19,2022-01-19,伊豆山漁業株式会社,,株式会社,静岡県,熱海市,網代１００番地の７,,22,205,4130103,,,2022-01-19,登記官による閉鎖,,,2015-10-05,1,,,,,,0
2141,6080101012641,登記記録の閉鎖等,0,2022-01-19,2022-01-19,株式会社かねうみ丸,,株式会社,静岡県,熱海市,網代１００番地の７,,22,205,4130103,,,2022-01-19,登記官による閉鎖,,,2015-10-05,1,,,,,,0
2142,6080101014092,登記記録の閉鎖等,0,2022-01-19,2022-01-19,株式会社オリエンタルコーポレーション,,株式会社,静岡県,伊東市,猪戸１丁目８番８号,,22,208,4140004,,,2022-01-19,登記官による閉鎖,,,2015-10-05,1,,,,,,0
2145,6080102001775,登記記録の閉鎖等,0,2022-01-19,2022-01-19,有限会社親和不動産,,有限会社,静岡県,沼津市,大岡１９７２番地の６,,22,203,4100022,,,2022-01-19,登記官による閉鎖,,,2015-10-05,1,,,,,,0
2147,6080102020338,登記記録の閉鎖等,0,2022-01-19,2022-01-19,有限会社浜崎浩建築・都市設計事務所,00068079,有限会社,静岡県,伊東市,宇佐美１８０４番地の７,,22,208,4140001,,,2022-01-19,登記官による閉鎖,,,2015-10-05,1,,,,,,0
2149,6080401002549,登記記録の閉鎖等,0,2022-01-19,2022-01-19,鈴真土建株式会社,,株式会社,静岡県,浜松市南区,三和町６００番地,,22,134,4350038,,,2022-01-19,登記官による閉鎖,,,2015-10-05,1,,,,,,0
2151,6080401003514,登記記録の閉鎖等,0,2022-01-19,2022-01-19,遠江産業株式会社,,株式会社,静岡県,浜松市中区,中島２丁目１４番３号,,22,131,4300856,,,2022-01-19,登記官による閉鎖,,,2015-10-05,1,,,,,,0
2152,6080401003704,登記記録の閉鎖等,0,2022-01-19,2022-01-19,株式会社ナガタビルド,,株式会社,静岡県,浜松市中区,鹿谷町４０番１２号,,22,131,4328014,,,2022-01-19,登記官による閉鎖,,,2015-10-05,1,,,,,,0
2153,6080401004495,登記記録の閉鎖等,0,2022-01-19,2022-01-19,株式会社ビオラ田町,,株式会社,静岡県,浜松市中区,田町２２３番地の２１,,22,131,4300944,,,2022-01-19,登記官による閉鎖,,,2015-10-05,1,,,,,,0
2154,6080401004834,登記記録の閉鎖等,0,2022-01-19,2022-01-19,豊榮工機株式会社,,株式会社,静岡県,浜松市東区,丸塚町１３６番地の１,00079575,22,132,4350046,,,2022-01-19,登記官による閉鎖,,,2015-10-05,1,,,,,,0
2156,6080401012275,登記記録の閉鎖等,0,2022-01-19,2022-01-19,株式会社Ｔ．Ｉ．Ｎ．プランニング,,株式会社,静岡県,湖西市,新居町内山３４番地,,22,221,4310304,,,2022-01-19,登記官による閉鎖,,,2015-10-05,1,,,,,,0
2157,6080402002382,登記記録の閉鎖等,0,2022-01-19,2022-01-19,有限会社北見石油,,有限会社,静岡県,浜松市中区,上島１丁目２４番３号,,22,131,4338122,,,2022-01-19,登記官による閉鎖,,,2015-10-05,1,,,,,,0
2158,6080402002457,登記記録の閉鎖等,0,2022-01-19,2022-01-19,有限会社玖伸,,有限会社,静岡県,浜松市中区,常盤町１４３番地の２,,22,131,4300917,,,2022-01-19,登記官による閉鎖,,,2015-10-05,1,,,,,,0
2159,6080402004874,登記記録の閉鎖等,0,2022-01-19,2022-01-19,有限会社タツキ鉄工所,,有限会社,静岡県,浜松市南区,白羽町９８１番地,,22,134,4300846,,,2022-01-19,登記官による閉鎖,,,2015-10-05,1,,,,,,0
2160,6080402005971,登記記録の閉鎖等,0,2022-01-19,2022-01-19,有限会社ニュートラルカンパニー,,有限会社,静岡県,浜松市中区,利町３１０番地の１,,22,131,4300937,,,2022-01-19,登記官による閉鎖,,,2015-10-05,1,,,,,,0
2162,6080405005721,登記記録の閉鎖等,0,2022-01-19,2022-01-19,特定非営利活動法人マンマタッチ,,その他の設立登記法人,静岡県,磐田市,蛭池２２６番地８,,22,211,4371207,,,2022-01-19,登記官による閉鎖,,,2015-10-05,1,,,,,,0
2174,6120001201629,登記記録の閉鎖等,0,2022-01-19,2022-01-13,株式会社ＦＲＥＥＸ,,株式会社,大阪府,大阪市北区,西天満６丁目２番１４号４Ｆ,,27,127,5300047,,,2022-01-13,清算の結了等,,,2016-11-01,1,,,,,,0
2198,6120902011416,登記記録の閉鎖等,0,2022-01-19,2022-01-13,有限会社ミノリ建築工務,,有限会社,大阪府,茨木市,山手台６丁目１９番５号,,27,211,5670009,,,2022-01-13,清算の結了等,,,2015-10-05,1,,,,,ミノリケンチクコウム,0
2205,6130001040092,登記記録の閉鎖等,0,2022-01-19,2022-01-17,株式会社中井商事,,株式会社,京都府,八幡市,男山吉井２番地３４,,26,210,6148363,,,2022-01-17,合併による解散等,4120001153475,令和４年１月４日大阪府枚方市養父元町５番４０号中央商事株式会社（4120001153475）に合併し解散,2015-10-05,1,,,,,,0
2210,6130003003956,登記記録の閉鎖等,0,2022-01-19,2022-01-13,ジャパンコラボホールディングス合同会社,,合同会社,京都府,京都市西京区,桂市ノ前町３６番地２３セレジェイラ２０１,,26,111,6158026,,,2022-01-13,清算の結了等,,,2015-10-05,1,,,,,ジャパンコラボホールディングス,0
2219,6140002021842,登記記録の閉鎖等,0,2022-01-19,2022-01-13,有限会社エッセイ・グループ,,有限会社,兵庫県,神戸市長田区,北町１丁目５４番地高速長田ステーションビル２Ｆ,,28,106,6530016,,,2022-01-13,清算の結了等,,,2015-10-05,1,,,,,,0
2221,6140003004623,登記記録の閉鎖等,0,2022-01-19,2022-01-11,合資会社ヒロ,,合資会社,兵庫県,芦屋市,平田北町３番１６－１号１０１,,28,206,6590073,,,2022-01-11,清算の結了等,,,2015-10-05,1,,,,,ヒロ,0
2222,6140003008376,登記記録の閉鎖等,0,2022-01-19,2022-01-13,合同会社ｃｏｃｏｒｏ,,合同会社,兵庫県,宝塚市,星の荘３番１０号,,28,214,6650866,,,2022-01-13,清算の結了等,,,2015-10-05,1,,,,,ココロ,0
2224,6180001017409,登記記録の閉鎖等,0,2022-01-19,2022-01-19,株式会社中部第一,,株式会社,愛知県,名古屋市瑞穂区,田辺通２丁目１１番地の１コーポタナベ５Ｄ,,23,108,4670027,,,2022-01-19,登記官による閉鎖,,,2015-10-05,1,,,,,,0
2225,6180001021179,登記記録の閉鎖等,0,2022-01-19,2022-01-19,やなせ株式会社,,株式会社,愛知県,名古屋市中川区,愛知町８番８号,,23,110,4540807,,,2022-01-19,登記官による閉鎖,,,2015-10-05,1,,,,,,0
2226,6180001023910,登記記録の閉鎖等,0,2022-01-19,2022-01-19,株式会社司商事,,株式会社,愛知県,名古屋市天白区,植田１丁目１２０８番地,,23,116,4680051,,,2022-01-19,登記官による閉鎖,,,2016-05-27,1,,,,,,0
2228,6180001057256,登記記録の閉鎖等,0,2022-01-19,2022-01-19,サンフレックス株式会社,,株式会社,愛知県,名古屋市西区,新木町４７番地,,23,104,4520836,,,2022-01-19,登記官による閉鎖,,,2015-10-05,1,,,,,,0
2229,6180001066059,登記記録の閉鎖等,0,2022-01-19,2022-01-19,株式会社ＮＫＳ,,株式会社,愛知県,名古屋市中区,丸の内３丁目５番１６号ＬＭ１４Ｆ,,23,106,4600002,,,2022-01-19,登記官による閉鎖,,,2015-10-05,1,,,,,,0
2230,6180001068501,登記記録の閉鎖等,0,2022-01-19,2022-01-19,株式会社ジーピース,,株式会社,愛知県,名古屋市天白区,植田西１丁目８０３番地,,23,116,4680058,,,2022-01-19,登記官による閉鎖,,,2015-10-05,1,,,,,,0
2231,6180001070242,登記記録の閉鎖等,0,2022-01-19,2022-01-19,株式会社ワークビズコーポレーション,,株式会社,愛知県,名古屋市東区,東桜２丁目９番３４号成田ビル１Ｆ,,23,102,4610005,,,2022-01-19,登記官による閉鎖,,,2015-10-05,1,,,,,,0
2232,6180001071744,登記記録の閉鎖等,0,2022-01-19,2022-01-19,株式会社名北,,株式会社,愛知県,北名古屋市,久地野北浦２４番地,,23,234,4810012,,,2022-01-19,登記官による閉鎖,,,2015-10-05,1,,,,,,0
2233,6180001078979,登記記録の閉鎖等,0,2022-01-19,2022-01-14,瀬戸理化陶業株式会社,,株式会社,愛知県,瀬戸市,元町１丁目１２番地,,23,204,4890046,,,2022-01-14,清算の結了等,,,2015-10-05,1,,,,,セトリカトウギョウ,0
2234,6180001079705,登記記録の閉鎖等,0,2022-01-19,2022-01-19,無限写真株式会社,,株式会社,愛知県,尾張旭市,緑町緑ケ丘２６番地の２,,23,226,4880822,,,2022-01-19,登記官による閉鎖,,,2015-10-05,1,,,,,,0
2235,6180001085397,登記記録の閉鎖等,0,2022-01-19,2022-01-19,株式会社ＴＳＰ,,株式会社,愛知県,一宮市,時之島字堂山１番地２２,,23,203,4910002,,,2022-01-19,登記官による閉鎖,,,2015-10-05,1,,,,,,0
2236,6180001087229,登記記録の閉鎖等,0,2022-01-19,2022-01-19,株式会社ビーサポート,,株式会社,愛知県,一宮市,浅野字天神１２番地,,23,203,4910871,,,2022-01-19,登記官による閉鎖,,,2015-10-05,1,,,,,,0
2237,6180001092212,登記記録の閉鎖等,0,2022-01-19,2022-01-19,昭和建設工業株式会社,,株式会社,愛知県,知多郡武豊町,大字冨貴字南側４８番地,,23,447,4702531,,,2022-01-19,登記官による閉鎖,,,2015-10-05,1,,,,,,0
2239,6180001098531,登記記録の閉鎖等,0,2022-01-19,2022-01-19,東名交易株式会社,,株式会社,愛知県,あま市,篠田一之沢６９番地,,23,237,4901211,,,2022-01-19,登記官による閉鎖,,,2015-10-05,1,,,,,,0
2241,6180002035616,登記記録の閉鎖等,0,2022-01-19,2022-01-19,有限会社日相工務店,,有限会社,愛知県,名古屋市千種区,猫洞通３丁目２１番地,,23,101,4640032,,,2022-01-19,登記官による閉鎖,,,2015-10-05,1,,,,,,0
2242,6180002038817,登記記録の閉鎖等,0,2022-01-19,2022-01-19,有限会社ソフテック,,有限会社,愛知県,名古屋市中川区,一色新町３丁目８０２番地,,23,110,4540946,,,2022-01-19,登記官による閉鎖,,,2015-10-05,1,,,,,,0
2243,6180002049153,登記記録の閉鎖等,0,2022-01-19,2022-01-19,有限会社東海工舎,,有限会社,愛知県,名古屋市名東区,牧の里１丁目８１４番地,,23,115,4650068,,,2022-01-19,登記官による閉鎖,,,2015-10-05,1,,,,,,0
2244,6180002053155,登記記録の閉鎖等,0,2022-01-19,2022-01-19,有限会社光和システム,,有限会社,愛知県,清須市,西枇杷島町下新６１番地,,23,233,4520023,,,2022-01-19,登記官による閉鎖,,,2015-10-05,1,,,,,,0
2246,6180002062379,登記記録の閉鎖等,0,2022-01-19,2022-01-19,有限会社竹内設計事務所,,有限会社,愛知県,日進市,藤枝町奥廻間１１９２番地の５２,,23,230,4700112,,,2022-01-19,登記官による閉鎖,,,2015-10-05,1,,,,,,0
2247,6180002063220,登記記録の閉鎖等,0,2022-01-19,2022-01-19,有限会社ＥＺ・リーシング,,有限会社,愛知県,日進市,米野木町南山９１９番地４,,23,230,4700111,,,2022-01-19,登記官による閉鎖,,,2015-10-05,1,,,,,,0
2248,6180002067213,登記記録の閉鎖等,0,2022-01-19,2022-01-19,有限会社フレックス,,有限会社,愛知県,春日井市,東野新町１丁目５番地の２２,,23,206,4860816,,,2022-01-19,登記官による閉鎖,,,2015-10-05,1,,,,,,0
2249,6180002067592,登記記録の閉鎖等,0,2022-01-19,2022-01-19,有限会社やかた六左衛門,,有限会社,愛知県,春日井市,美濃町２丁目４１番地,,23,206,4860917,,,2022-01-19,登記官による閉鎖,,,2015-10-05,1,,,,,,0
2250,6180002070563,登記記録の閉鎖等,0,2022-01-19,2022-01-19,有限会社卓栄商事,,有限会社,愛知県,小牧市,大字大草字大野５７８６番地の２５,,23,219,4850802,,,2022-01-19,登記官による閉鎖,,,2015-10-05,1,,,,,,0
2251,6180002071702,登記記録の閉鎖等,0,2022-01-19,2022-01-19,有限会社国代輸送,,有限会社,愛知県,瀬戸市,さつき台５丁目３３番地,,23,204,4890982,,,2022-01-19,登記官による閉鎖,,,2015-10-05,1,,,,,,0
2252,6180002076998,登記記録の閉鎖等,0,2022-01-19,2022-01-19,トーカイ工業有限会社,,有限会社,愛知県,一宮市,時之島字的場４５番地の１,,23,203,4910002,,,2022-01-19,登記官による閉鎖,,,2015-10-05,1,,,,,,0
2253,6180002090173,登記記録の閉鎖等,0,2022-01-19,2022-01-19,有限会社丸庄建材,,有限会社,愛知県,弥富市,鯏浦町上本田１９７番地の１,,23,235,4980021,,,2022-01-19,登記官による閉鎖,,,2015-10-05,1,,,,,,0
2254,6180003007663,登記記録の閉鎖等,0,2022-01-19,2022-01-19,合資会社渡辺商店,,合資会社,愛知県,名古屋市西区,浄心２丁目３番６号,,23,104,4510061,,,2022-01-19,登記官による閉鎖,,,2016-09-30,1,,,,,,0
2255,6180003012630,登記記録の閉鎖等,0,2022-01-19,2022-01-19,合同会社ＣＡＮ,,合同会社,愛知県,名古屋市中区,新栄１丁目４１番１６号,,23,106,4600007,,,2022-01-19,登記官による閉鎖,,,2015-10-05,1,,,,,,0
2256,6180005005896,登記記録の閉鎖等,0,2022-01-19,2022-01-19,ＮＰＯ法人ＩＴ教育・就職支援センター,,その他の設立登記法人,愛知県,名古屋市西区,名駅２丁目３４番１７号セントラル名古屋３０３号,,23,104,4510045,,,2022-01-19,登記官による閉鎖,,,2015-10-05,1,,,,,,0
2261,6190001023059,登記記録の閉鎖等,0,2022-01-19,2022-01-18,株式会社いすず和合,,株式会社,三重県,伊勢市,神久２丁目６番５号,,24,203,5160017,,,2022-01-18,清算の結了等,,,2015-10-05,1,,,,,イスズワゴウ,0
2264,6200001006805,登記記録の閉鎖等,0,2022-01-19,2022-01-18,アールデイシステム株式会社,,株式会社,岐阜県,各務原市,蘇原希望町１丁目４番地の４,,21,213,5040829,,,2022-01-18,登記官による閉鎖,,,2015-10-05,1,,,,,,0
2265,6200001008644,登記記録の閉鎖等,0,2022-01-19,2022-01-18,株式会社ＴＡＫＡＵＲＡ,,株式会社,岐阜県,岐阜市,椿洞４３８番地３,,21,201,5020801,,,2022-01-18,登記官による閉鎖,,,2015-10-05,1,,,,,,0
2266,6200001012183,登記記録の閉鎖等,0,2022-01-19,2022-01-18,マリックインターナショナル株式会社,,株式会社,岐阜県,羽島市,足近町４丁目４２５番地２,,21,209,5016207,,,2022-01-18,登記官による閉鎖,,,2015-10-05,1,,,,,,0
2267,6200001012398,登記記録の閉鎖等,0,2022-01-19,2022-01-18,株式会社未来,,株式会社,岐阜県,羽島郡岐南町,上印食９丁目６０番地１,,21,302,5016001,,,2022-01-18,登記官による閉鎖,,,2015-10-05,1,,,,,,0
2268,6200001017918,登記記録の閉鎖等,0,2022-01-19,2022-01-18,株式会社大協建設,,株式会社,岐阜県,可児市,瀬田１１９３番地の２,,21,214,5090213,,,2022-01-18,登記官による閉鎖,,,2015-10-05,1,,,,,,0
2269,6200001018148,登記記録の閉鎖等,0,2022-01-19,2022-01-18,シンテック株式会社,,株式会社,岐阜県,可児市,緑ケ丘５丁目６２番地の１,,21,214,5090231,,,2022-01-18,登記官による閉鎖,,,2015-10-05,1,,,,,,0
2270,6200001032768,登記記録の閉鎖等,0,2022-01-19,2022-01-18,株式会社ＷＥＢＬＯＧＩ,,株式会社,岐阜県,羽島市,竹鼻町２４９９番地１８,,21,209,5016241,,,2022-01-18,清算の結了等,,,2016-04-20,1,,,,,ウエブロジ,0
2271,6200002021266,登記記録の閉鎖等,0,2022-01-19,2022-01-18,有限会社シーズ,,有限会社,岐阜県,土岐市,下石町３０４番地,,21,212,5095202,,,2022-01-18,登記官による閉鎖,,,2015-10-05,1,,,,,,0
2272,6200002027420,登記記録の閉鎖等,0,2022-01-19,2022-01-18,有限会社やまびこ,,有限会社,岐阜県,下呂市,小坂町落合国有林６６イ林小班,,21,220,5093111,,,2022-01-18,登記官による閉鎖,,,2015-10-05,1,,,,,,0
2273,6200003001663,登記記録の閉鎖等,0,2022-01-19,2022-01-18,合資会社高木商店,00077204,合資会社,岐阜県,大垣市,船町４丁目４２番地,,21,202,5030923,,,2022-01-18,登記官による閉鎖,,,2015-10-05,1,,,,,,0
2274,6200005002866,登記記録の閉鎖等,0,2022-01-19,2022-01-18,特定非営利活動法人ぎふママネット,,その他の設立登記法人,岐阜県,岐阜市,長良福光２６５８番地,,21,201,5020817,,,2022-01-18,登記官による閉鎖,,,2015-10-05,1,,,,,,0
2287,6260002029411,登記記録の閉鎖等,0,2022-01-19,2022-01-12,有限会社政安工務店,,有限会社,岡山県,津山市,坪井上１２２０番地の６,,33,203,7094605,,,2022-01-12,清算の結了等,,,2015-10-05,1,,,,,マサヤスコウムテン,0
2306,6320001008921,登記記録の閉鎖等,0,2022-01-19,2022-01-19,株式会社ゲンヨーカメラ,,株式会社,大分県,佐伯市,常盤東町４番８号,,44,205,8760851,,,2022-01-19,登記官による閉鎖,,,2015-10-05,1,,,,,,0
2307,6320001009011,登記記録の閉鎖等,0,2022-01-19,2022-01-19,アマスイ株式会社,,株式会社,大分県,佐伯市,蒲江大字蒲江浦４５００番地の１６,,44,205,8762401,,,2022-01-19,登記官による閉鎖,,,2015-10-05,1,,,,,,0
2308,6320001010167,登記記録の閉鎖等,0,2022-01-19,2022-01-19,株式会社日田スレート建材,,株式会社,大分県,日田市,大字北豆田１７３３番地の１３,,44,204,8770000,,,2022-01-19,登記官による閉鎖,,,2015-10-05,1,,,,,,0
2310,6320002007658,登記記録の閉鎖等,0,2022-01-19,2022-01-19,有限会社エル・コーポレーション,,有限会社,大分県,大分市,中島西１丁目６番１７－１３０７,,44,201,8700047,,,2022-01-19,登記官による閉鎖,,,2015-10-05,1,,,,,,0
2311,6320002007666,登記記録の閉鎖等,0,2022-01-19,2022-01-19,大進エクステリア有限会社,,有限会社,大分県,大分市,大字八幡１５５８番地の１,,44,201,8700100,,,2022-01-19,登記官による閉鎖,,,2015-10-05,1,,,,,,0
2313,6320002011263,登記記録の閉鎖等,0,2022-01-19,2022-01-19,有限会社喜龍荘,,有限会社,大分県,別府市,大字鉄輪１０２６番地の８,,44,202,8740000,,,2022-01-19,登記官による閉鎖,,,2015-10-05,1,,,,,,0
2314,6320002013912,登記記録の閉鎖等,0,2022-01-19,2022-01-19,有限会社サイガン運輸,,有限会社,大分県,宇佐市,大字高砂新田２７２番地の４,,44,211,8720046,,,2022-01-19,登記官による閉鎖,,,2015-10-05,1,,,,,,0
2315,6320002021279,登記記録の閉鎖等,0,2022-01-19,2022-01-19,有限会社渡辺酒店,,有限会社,大分県,中津市,大字島田３３番地の１,,44,203,8710033,,,2022-01-19,登記官による閉鎖,,,2015-10-05,1,,,,,,0
2317,6320005001385,登記記録の閉鎖等,0,2022-01-19,2022-01-19,大分県トラック事業協同組合連合会,,その他の設立登記法人,大分県,大分市,高城南町１０番２３号,,44,201,8700155,,,2022-01-19,登記官による閉鎖,,,2015-10-05,1,,,,,,0
2318,6320005002747,登記記録の閉鎖等,0,2022-01-19,2022-01-19,別府市旅客自動車事業協同組合,,その他の設立登記法人,大分県,別府市,立田町５番５号,,44,202,8740939,,,2022-01-19,登記官による閉鎖,,,2015-10-05,1,,,,,,0
2319,6320005003324,登記記録の閉鎖等,0,2022-01-19,2022-01-19,農事組合法人下乙女すいか生産組合,,その他の設立登記法人,大分県,宇佐市,大字下乙女１４１４番地,,44,211,8790302,,,2022-01-19,登記官による閉鎖,,,2015-10-05,1,,,,,,0
2320,6320005005394,登記記録の閉鎖等,0,2022-01-19,2022-01-19,農事組合法人長田共同養豚場,,その他の設立登記法人,大分県,佐伯市,蒲江大字蒲江浦３４２９番地,,44,205,8762401,,,2022-01-19,登記官による閉鎖,,,2015-10-05,1,,,,,,0
2339,6390005006881,登記記録の閉鎖等,0,2022-01-19,2022-01-14,ケミコン山形労働組合米沢支部,,その他の設立登記法人,山形県,東置賜郡川西町,大字上小松２４６５番地,,06,382,9990121,,,2022-01-14,清算の結了等,,,2015-10-05,1,,,,,ケミコンヤマガタヨネザワシブ,0
2341,6400002001462,登記記録の閉鎖等,0,2022-01-19,2022-01-18,有限会社佐初重機,,有限会社,岩手県,盛岡市,浅岸１丁目２番１０号,,03,201,0200801,,,2022-01-18,清算の結了等,,,2015-10-05,1,,,,,サハツジュウキ,0
2343,6410001000472,登記記録の閉鎖等,0,2022-01-19,2022-01-18,秋田ドラム工業株式会社,,株式会社,秋田県,秋田市,土崎港北７丁目１番８号,,05,201,0110941,,,2022-01-18,登記官による閉鎖,,,2015-10-05,1,,,,,,0
2345,6410002000967,登記記録の閉鎖等,0,2022-01-19,2022-01-18,有限会社岡部圧送,,有限会社,秋田県,秋田市,雄和新波字新町６９番地,,05,201,0101341,,,2022-01-18,登記官による閉鎖,,,2015-10-05,1,,,,,,0
2346,6410002003136,登記記録の閉鎖等,0,2022-01-19,2022-01-18,有限会社ファイアプロテクションズサービス,,有限会社,秋田県,秋田市,御野場６丁目５番９号,,05,201,0101424,,,2022-01-18,登記官による閉鎖,,,2015-10-05,1,,,,,,0
2347,6410002003251,登記記録の閉鎖等,0,2022-01-19,2022-01-18,有限会社藤原塗装店,00086576,有限会社,秋田県,秋田市,牛島西３丁目１８番１６号,,05,201,0100063,,,2022-01-18,登記官による閉鎖,,,2015-10-05,1,,,,,,0
2348,6410002005628,登記記録の閉鎖等,0,2022-01-19,2022-01-18,有限会社佐光建設,,有限会社,秋田県,潟上市,天王字二田１８０番地５,,05,211,0100201,,,2022-01-18,登記官による閉鎖,,,2015-10-05,1,,,,,,0
2349,6410002011279,登記記録の閉鎖等,0,2022-01-19,2022-01-18,太田米穀有限会社,,有限会社,秋田県,大仙市,太田町横沢字泥窪９４番地,,05,212,0191601,,,2022-01-18,登記官による閉鎖,,,2015-10-05,1,,,,,,0
2350,6410003001213,登記記録の閉鎖等,0,2022-01-19,2022-01-18,合同会社箱舟の聖母社,,合同会社,秋田県,湯沢市,三梨町字清水小屋１４,,05,207,0120106,,,2022-01-18,登記官による閉鎖,,,2015-10-05,1,,,,,,0
2352,6410005000378,登記記録の閉鎖等,0,2022-01-19,2022-01-18,社団法人女米木同栄会,,その他の設立登記法人,秋田県,秋田市,雄和女米木字猫沢１９５番地の１,,05,201,0101233,,,2022-01-18,登記官による閉鎖,,,2015-10-05,1,,,,,,0
2357,6470002009895,登記記録の閉鎖等,0,2022-01-19,2022-01-18,海老野電気保安有限会社,,有限会社,香川県,高松市,国分寺町国分１３０８番地,,37,201,7690102,,,2022-01-18,清算の結了等,,,2015-10-05,1,,,,,エビノデンキホアン,0
2373,7010001214780,登記記録の閉鎖等,0,2022-01-19,2022-01-07,株式会社ＣＨＣＰ－ＨＮ,,株式会社,東京都,中央区,八重洲２丁目５番１２号,,13,102,1040028,,,2022-01-07,合併による解散等,7120001241764,令和３年１２月２３日大阪市北区堂島浜一丁目４番４号アクア堂島東館株式会社ＣＨＣＰ－ＨＮ２（7120001241764）に合併し解散,2021-01-06,1,,,,,シーエイチシーピーエイチエヌ,0
2397,7010601041996,登記記録の閉鎖等,0,2022-01-19,2022-01-13,株式会社コアシス,,株式会社,東京都,江戸川区,東葛西９丁目３番２号,,13,123,1340084,,,2022-01-13,清算の結了等,,,2015-10-05,1,,,,,コアシス,0
2401,7010801018679,登記記録の閉鎖等,0,2022-01-19,2022-01-12,株式会社Ａ－ＥＳＴＡＢＬＩＳＨ,,株式会社,東京都,大田区,南千束２丁目３２番７号,,13,111,1450063,,,2022-01-12,清算の結了等,,,2015-10-05,1,,,,,エイエスタブリッシュ,0
2408,7011001064745,登記記録の閉鎖等,0,2022-01-19,2022-01-12,株式会社ガイアスタイル,,株式会社,東京都,豊島区,南池袋１丁目８番１号,,13,116,1710022,,,2022-01-12,清算の結了等,,,2015-10-05,1,,,,,ガイアスタイル,0
2418,7011003007677,登記記録の閉鎖等,0,2022-01-19,2021-12-27,レナトス合同会社,,合同会社,東京都,目黒区,中目黒１丁目１０番２２－４０８号,,13,110,1530061,,,2021-12-27,合併による解散等,1011001120363,令和３年１２月２３日東京都目黒区中目黒一丁目１０番２２－４０８号中目黒ハイツ株式会社レナトスマネジメント（1011001120363）に合併し解散,2017-05-16,1,,,,,レナトス,0
2419,7011003009293,登記記録の閉鎖等,0,2022-01-19,2021-12-23,合同会社ＳＳＥＮＳＥ,,合同会社,東京都,渋谷区,本町３丁目２２番１号松本ビルＢ１Ｆ,,13,113,1510071,,,2021-12-23,清算の結了等,,,2018-10-23,1,,,,,エッセンス,0
2425,7011101082408,登記記録の閉鎖等,0,2022-01-19,2022-01-04,株式会社ＶＩＴＡ,,株式会社,東京都,渋谷区,代々木４丁目３０－５フェニックス西参道タワー３０１号室,,13,113,1510053,,,2022-01-04,清算の結了等,,,2017-11-27,1,,,,,ウィータ,0
2426,7011301006752,登記記録の閉鎖等,0,2022-01-19,2022-01-13,丸京商事株式会社,,株式会社,東京都,杉並区,下井草３丁目３８番１５号,,13,115,1670022,,,2022-01-13,清算の結了等,,,2015-10-05,1,,,,,マルキョウショウジ,0
2462,7020002066650,登記記録の閉鎖等,0,2022-01-19,2022-01-17,有限会社広伸工業,,有限会社,神奈川県,横浜市鶴見区,駒岡５丁目２番２１－３０１号,,14,101,2300071,,,2022-01-17,清算の結了等,,,2015-10-05,1,,,,,コウシンコウギョウ,0
2473,7030001002622,登記記録の閉鎖等,0,2022-01-19,2022-01-17,株式会社光輝,,株式会社,埼玉県,さいたま市南区,南本町１丁目１０番１号,,11,108,3360018,,,2022-01-17,清算の結了等,,,2015-10-05,1,,,,,コウキ,0
2474,7030001011185,登記記録の閉鎖等,0,2022-01-19,2022-01-14,ＫＩＫコミュニケーションズ株式会社,,株式会社,埼玉県,さいたま市浦和区,元町２丁目２６番４号,,11,107,3300073,,,2022-01-14,清算の結了等,,,2015-10-05,1,,,,,ケーアイケーコミュニケーションズ,0
2477,7030001128203,登記記録の閉鎖等,0,2022-01-19,2022-01-17,くらんど株式会社,,株式会社,埼玉県,川口市,元郷２丁目１５番２－７０３号,,11,203,3320011,,,2022-01-17,清算の結了等,,,2018-11-13,1,,,,,クランド,0
2487,7030003016042,登記記録の閉鎖等,0,2022-01-19,2022-01-13,合同会社Ｆｕｎ　Ｗｏｒｋｓ,,合同会社,埼玉県,所沢市,大字上安松２０番地の８６ブリージョイニシオ１０１,,11,208,3590025,,,2022-01-13,清算の結了等,,,2020-10-14,1,,,,,ファンワークス,0
2501,7050001004749,登記記録の閉鎖等,0,2022-01-19,2022-01-17,株式会社日立マシンテクノロジー,,株式会社,茨城県,那珂市,菅谷４７５７番地,,08,226,3110105,,,2022-01-17,登記官による閉鎖,,,2015-10-05,1,,,,,,0
2502,7050001006530,登記記録の閉鎖等,0,2022-01-19,2022-01-17,株式会社スターシップ２１,,株式会社,茨城県,水戸市,大串町５５０番地の５,,08,201,3111115,,,2022-01-17,登記官による閉鎖,,,2015-10-05,1,,,,,,0
2503,7050001009707,登記記録の閉鎖等,0,2022-01-19,2022-01-17,株式会社ビ・エル・シ,,株式会社,茨城県,土浦市,木田余西台１０番２９号,,08,203,3000056,,,2022-01-17,登記官による閉鎖,,,2015-10-05,1,,,,,,0
2504,7050001012768,登記記録の閉鎖等,0,2022-01-19,2022-01-17,株式会社花宴,,株式会社,茨城県,土浦市,城北町１７番２１号,,08,203,3000042,,,2022-01-17,登記官による閉鎖,,,2015-10-05,1,,,,,,0
2505,7050001014780,登記記録の閉鎖等,0,2022-01-19,2022-01-17,株式会社ティエムエクステリア,,株式会社,茨城県,坂東市,幸田６番地３,,08,228,3060606,,,2022-01-17,登記官による閉鎖,,,2015-10-05,1,,,,,,0
2506,7050001015639,登記記録の閉鎖等,0,2022-01-19,2022-01-17,株式会社酒井建設工業,,株式会社,茨城県,つくば市,花室２９５番地の１,,08,220,3050025,,,2022-01-17,登記官による閉鎖,,,2015-10-05,1,,,,,,0
2507,7050001019524,登記記録の閉鎖等,0,2022-01-19,2022-01-17,株式会社アイケイカップ,,株式会社,茨城県,古河市,諸川６９８番地１,,08,204,3060126,,,2022-01-17,登記官による閉鎖,,,2015-10-05,1,,,,,,0
2508,7050001022453,登記記録の閉鎖等,0,2022-01-19,2022-01-17,株式会社内山緑地建設,,株式会社,茨城県,行方市,青沼８６１番地１１,,08,233,3113831,,,2022-01-17,登記官による閉鎖,,,2015-10-05,1,,,,,,0
2509,7050001026173,登記記録の閉鎖等,0,2022-01-19,2022-01-17,株式会社大聖,,株式会社,茨城県,北相馬郡利根町,大字布川６１８番地１９０,,08,564,3001622,,,2022-01-17,登記官による閉鎖,,,2015-10-05,1,,,,,,0
2511,7050001032279,登記記録の閉鎖等,0,2022-01-19,2022-01-17,株式会社シンエイ,,株式会社,茨城県,桜川市,西小塙１０４２番地,,08,231,3091451,,,2022-01-17,登記官による閉鎖,,,2015-10-05,1,,,,,,0
2514,7050002004046,登記記録の閉鎖等,0,2022-01-19,2022-01-17,有限会社平井商事,,有限会社,茨城県,水戸市,鯉淵町１８４２番地１,,08,201,3190323,,,2022-01-17,登記官による閉鎖,,,2015-10-05,1,,,,,,0
2515,7050002008006,登記記録の閉鎖等,0,2022-01-19,2022-01-17,有限会社アストロ企画,,有限会社,茨城県,ひたちなか市,勝田泉町１４番地の１,,08,221,3120046,,,2022-01-17,登記官による閉鎖,,,2015-10-05,1,,,,,,0
2516,7050002008708,登記記録の閉鎖等,0,2022-01-19,2022-01-17,有限会社東勝不動産,,有限会社,茨城県,ひたちなか市,大字高野２３２４番地,,08,221,3120002,,,2022-01-17,登記官による閉鎖,,,2015-10-05,1,,,,,,0
2517,7050002011538,登記記録の閉鎖等,0,2022-01-19,2022-01-17,有限会社サン光,,有限会社,茨城県,土浦市,並木３丁目９番２号,,08,203,3000061,,,2022-01-17,登記官による閉鎖,,,2015-10-05,1,,,,,,0
2519,7050002018839,登記記録の閉鎖等,0,2022-01-19,2022-01-17,染谷建設有限会社,,有限会社,茨城県,坂東市,生子５５１番地の２,,08,228,3060504,,,2022-01-17,登記官による閉鎖,,,2015-10-05,1,,,,,,0
2522,7050002029142,登記記録の閉鎖等,0,2022-01-19,2022-01-17,有限会社森作いちご園,,有限会社,茨城県,行方市,谷島１６０番地,,08,233,3113504,,,2022-01-17,登記官による閉鎖,,,2015-10-05,1,,,,,,0
2523,7050002030141,登記記録の閉鎖等,0,2022-01-19,2022-01-17,有限会社泉商事,,有限会社,茨城県,日立市,幸町１丁目５番１４号,,08,202,3170073,,,2022-01-17,登記官による閉鎖,,,2015-10-05,1,,,,,,0
2524,7050002033929,登記記録の閉鎖等,0,2022-01-19,2022-01-17,有限会社北澤工務店,,有限会社,茨城県,稲敷市,稲波２２９番地,,08,229,3000503,,,2022-01-17,登記官による閉鎖,,,2015-10-05,1,,,,,,0
2525,7050002034951,登記記録の閉鎖等,0,2022-01-19,2022-01-17,有限会社メイン通商,,有限会社,茨城県,稲敷市,浮島４９７９番地,,08,229,3000641,,,2022-01-17,登記官による閉鎖,,,2015-10-05,1,,,,,,0
2526,7050002035124,登記記録の閉鎖等,0,2022-01-19,2022-01-13,有限会社高橋電機商会,,有限会社,茨城県,常陸太田市,小目町１１２２番地の１１,,08,212,3130033,,,2022-01-13,清算の結了等,,,2015-10-05,1,,,,,タカハシデンキショウカイ,0
2527,7050002037624,登記記録の閉鎖等,0,2022-01-19,2022-01-17,有限会社確実園園芸場,,有限会社,茨城県,牛久市,田宮２丁目５１番地３５,,08,219,3001237,,,2022-01-17,登記官による閉鎖,,,2015-10-05,1,,,,,,0
2528,7050002041469,登記記録の閉鎖等,0,2022-01-19,2022-01-17,渡辺縫製有限会社,,有限会社,茨城県,常総市,蔵持４０６番地,,08,211,3002722,,,2022-01-17,登記官による閉鎖,,,2015-10-05,1,,,,,,0
2529,7050002043028,登記記録の閉鎖等,0,2022-01-19,2022-01-17,丸福化成有限会社,,有限会社,茨城県,筑西市,門井５６４番地の１,,08,227,3091107,,,2022-01-17,登記官による閉鎖,,,2015-10-05,1,,,,,,0
2530,7050005009587,登記記録の閉鎖等,0,2022-01-19,2022-01-17,特定非営利活動法人エマージェンシー・レスキュー・ユニット,,その他の設立登記法人,茨城県,常総市,大塚戸町１７０３番地の１,,08,211,3030045,,,2022-01-17,登記官による閉鎖,,,2015-10-05,1,,,,,,0
2532,7080001009398,登記記録の閉鎖等,0,2022-01-19,2022-01-19,株式会社らいみん,,株式会社,静岡県,静岡市清水区,袖師町５３８番地の１,,22,103,4240037,,,2022-01-19,登記官による閉鎖,,,2015-10-05,1,,,,,,0
2533,7080001009927,登記記録の閉鎖等,0,2022-01-19,2022-01-19,株式会社トモヨシ,,株式会社,静岡県,静岡市葵区,追手町４５番地の９,,22,101,4200853,,,2022-01-19,登記官による閉鎖,,,2015-10-05,1,,,,,,0
2534,7080001011338,登記記録の閉鎖等,0,2022-01-19,2022-01-19,株式会社信栄建設,,株式会社,静岡県,静岡市葵区,瀬名川２丁目１４番４８号,,22,101,4200913,,,2022-01-19,登記官による閉鎖,,,2015-10-05,1,,,,,,0
2535,7080001017871,登記記録の閉鎖等,0,2022-01-19,2022-01-19,東海小松販売株式会社,,株式会社,静岡県,島田市,井口１２１１番地,,22,209,4270104,,,2022-01-19,登記官による閉鎖,,,2015-10-05,1,,,,,,0
2536,7080002000678,登記記録の閉鎖等,0,2022-01-19,2022-01-19,有限会社岩本印刷,,有限会社,静岡県,静岡市葵区,中ノ郷字不動沢２２９番地,,22,101,4212111,,,2022-01-19,登記官による閉鎖,,,2015-10-05,1,,,,,,0
2537,7080002005487,登記記録の閉鎖等,0,2022-01-19,2022-01-19,有限会社丸栄紙業,,有限会社,静岡県,静岡市駿河区,稲川１丁目６番７－４０１号,,22,102,4228062,,,2022-01-19,登記官による閉鎖,,,2015-10-05,1,,,,,,0
2538,7080002010702,登記記録の閉鎖等,0,2022-01-19,2022-01-19,有限会社テクノウーノ,,有限会社,静岡県,静岡市清水区,広瀬２６８番地の１,,22,103,4240102,,,2022-01-19,登記官による閉鎖,,,2015-10-05,1,,,,,,0
2539,7080002012806,登記記録の閉鎖等,0,2022-01-19,2022-01-19,有限会社ラ・ミュール,,有限会社,静岡県,静岡市駿河区,南安倍３丁目６番５２号,,22,102,4228054,,,2022-01-19,登記官による閉鎖,,,2015-10-05,1,,,,,,0
2540,7080003001270,登記記録の閉鎖等,0,2022-01-19,2022-01-19,合同会社環境工房,,合同会社,静岡県,静岡市駿河区,豊原町９番３１－３０１号,,22,102,4228071,,,2022-01-19,登記官による閉鎖,,,2015-10-05,1,,,,,,0
2541,7080101000356,登記記録の閉鎖等,0,2022-01-19,2022-01-19,株式会社小野建材興業,,株式会社,静岡県,沼津市,大岡３５５３番地の３３,,22,203,4100022,,,2022-01-19,登記官による閉鎖,,,2015-10-05,1,,,,,,0
2542,7080101008317,登記記録の閉鎖等,0,2022-01-19,2022-01-19,環境企画エンジニアリング株式会社,,株式会社,静岡県,富士市,富士岡２７８番地の１,,22,210,4170841,,,2022-01-19,登記官による閉鎖,,,2015-10-05,1,,,,,,0
2543,7080101012194,登記記録の閉鎖等,0,2022-01-19,2022-01-19,株式会社ＫＳコレクション,,株式会社,静岡県,富士宮市,中央町７番１５号,,22,207,4180065,,,2022-01-19,登記官による閉鎖,,,2015-10-05,1,,,,,,0
2544,7080101012500,登記記録の閉鎖等,0,2022-01-19,2022-01-19,赤根漁業株式会社,,株式会社,静岡県,熱海市,網代１００番地の７,,22,205,4130103,,,2022-01-19,登記官による閉鎖,,,2015-10-05,1,,,,,,0
2545,7080101013102,登記記録の閉鎖等,0,2022-01-19,2022-01-19,株式会社テンダーファイブ,,株式会社,静岡県,熱海市,伊豆山字東谷７３９,,22,205,4130002,,,2022-01-19,登記官による閉鎖,,,2015-10-05,1,,,,,,0
2546,7080102001618,登記記録の閉鎖等,0,2022-01-19,2022-01-19,有限会社渡辺鉄筋工業所,,有限会社,静岡県,沼津市,西沢田５５７番地の４,,22,203,4100007,,,2022-01-19,登記官による閉鎖,,,2015-10-05,1,,,,,,0
2547,7080102002582,登記記録の閉鎖等,0,2022-01-19,2022-01-19,有限会社鳶野田組,,有限会社,静岡県,沼津市,岡一色７３２番地の３,,22,203,4100012,,,2022-01-19,登記官による閉鎖,,,2015-10-05,1,,,,,,0
2548,7080102004166,登記記録の閉鎖等,0,2022-01-19,2022-01-19,有限会社小澤製作所,,有限会社,静岡県,裾野市,深良２８１６番地の５,,22,220,4101102,,,2022-01-19,登記官による閉鎖,,,2015-10-05,1,,,,,,0
2549,7080102008076,登記記録の閉鎖等,0,2022-01-19,2022-01-19,有限会社ゑびな寿し,,有限会社,静岡県,伊豆の国市,田京１６７番地の１,,22,225,4102315,,,2022-01-19,登記官による閉鎖,,,2015-10-05,1,,,,,,0
2551,7080102010932,登記記録の閉鎖等,0,2022-01-19,2022-01-19,有限会社地産,,有限会社,静岡県,三島市,富田町７番８号,,22,206,4110836,,,2022-01-19,登記官による閉鎖,,,2015-10-05,1,,,,,,0
2552,7080102011253,登記記録の閉鎖等,0,2022-01-19,2022-01-19,有限会社二村製作所,,有限会社,静岡県,駿東郡長泉町,上土狩５１８番地の１,,22,342,4110941,,,2022-01-19,登記官による閉鎖,,,2015-10-05,1,,,,,,0
2553,7080102018348,登記記録の閉鎖等,0,2022-01-19,2022-01-19,有限会社ゼウスカンパニー,,有限会社,静岡県,熱海市,中央町１０番７号,,22,205,4130015,,,2022-01-19,登記官による閉鎖,,,2015-10-05,1,,,,,,0
2554,7080102018686,登記記録の閉鎖等,0,2022-01-19,2022-01-19,有限会社守屋商店,,有限会社,静岡県,熱海市,銀座町１３番２号,,22,205,4130013,,,2022-01-19,登記官による閉鎖,,,2015-10-05,1,,,,,,0
2555,7080102021104,登記記録の閉鎖等,0,2022-01-19,2022-01-19,有限会社ハマオカ,,有限会社,静岡県,下田市,二丁目１２番１号,,22,219,4150022,,,2022-01-19,登記官による閉鎖,,,2015-10-05,1,,,,,,0
2556,7080102021335,登記記録の閉鎖等,0,2022-01-19,2022-01-19,有限会社瑞香,,有限会社,静岡県,賀茂郡東伊豆町,稲取１８４３番地の２,,22,301,4130411,,,2022-01-19,登記官による閉鎖,,,2015-10-05,1,,,,,,0
2557,7080105004329,登記記録の閉鎖等,0,2022-01-19,2022-01-19,医療法人社団祥和会,,その他の設立登記法人,静岡県,下田市,西本郷１丁目５番２号,,22,219,4150036,,,2022-01-19,登記官による閉鎖,,,2015-10-05,1,,,,,,0
2558,7080401004107,登記記録の閉鎖等,0,2022-01-19,2022-01-19,浜松商工株式会社,,株式会社,静岡県,浜松市東区,安新町２２３番地の３,,22,132,4350005,,,2022-01-19,登記官による閉鎖,,,2015-10-05,1,,,,,,0
2559,7080401017034,登記記録の閉鎖等,0,2022-01-19,2022-01-19,セレップ通信株式会社,,株式会社,静岡県,磐田市,匂坂上１５０番地,,22,211,4380005,,,2022-01-19,登記官による閉鎖,,,2015-10-05,1,,,,,,0
2560,7080402004725,登記記録の閉鎖等,0,2022-01-19,2022-01-19,有限会社竹下オートサービス,,有限会社,静岡県,浜松市南区,飯田町２１０番地の１,,22,134,4350028,,,2022-01-19,登記官による閉鎖,,,2015-10-05,1,,,,,,0
2562,7080402007835,登記記録の閉鎖等,0,2022-01-19,2022-01-19,有限会社マルニ袴田商店,,有限会社,静岡県,浜松市中区,西伊場町７４番１６号,,22,131,4328038,,,2022-01-19,登記官による閉鎖,,,2015-10-05,1,,,,,,0
2563,7080402019260,登記記録の閉鎖等,0,2022-01-19,2022-01-19,有限会社関根商会,,有限会社,静岡県,菊川市,半済２５５１番地の１,,22,224,4390019,,,2022-01-19,登記官による閉鎖,,,2015-10-05,1,,,,,,0
2564,7080402019343,登記記録の閉鎖等,0,2022-01-19,2022-01-19,有限会社アルコ,,有限会社,静岡県,磐田市,西貝塚３６７７番地の１０,,22,211,4380026,,,2022-01-19,登記官による閉鎖,,,2015-10-05,1,,,,,,0
2577,7120001178800,登記記録の閉鎖等,0,2022-01-19,2022-01-13,株式会社イマジネーション,,株式会社,大阪府,堺市堺区,向陵西町４丁９番２０号,,27,141,5900026,,,2022-01-13,清算の結了等,,,2015-10-05,1,,,,,イマジネーション,0
2585,7120003012008,登記記録の閉鎖等,0,2022-01-19,2022-01-13,シルバーストーン合同会社,,合同会社,大阪府,大阪市北区,梅田２丁目５番１３号桜橋第一ビル３０４号,,27,127,5300001,,,2022-01-13,合併による解散等,3040003010171,令和４年１月１日千葉市中央区富士見二丁目７番９号富士見ビル６０９号ロードスター株式会社（3040003010171）に合併し解散,2016-09-13,1,,,,,,0
2597,7130005006642,登記記録の閉鎖等,0,2022-01-19,2022-01-13,特定非営利活動法人ＴＭＪ研究所,,その他の設立登記法人,京都府,宇治市,伊勢田町蔭田１－１１７,,26,204,6110043,,,2022-01-13,清算の結了等,,,2015-10-05,1,,,,,,0
2607,7140002034868,登記記録の閉鎖等,0,2022-01-19,2022-01-12,有限会社アクセルライフ,,有限会社,兵庫県,丹波篠山市,見内９９番地,,28,221,6692121,,,2022-01-12,清算の結了等,,,2015-10-05,1,,,,,アクセルライフ,0
2615,7170001014091,登記記録の閉鎖等,0,2022-01-19,2022-01-17,株式会社釈迦戸左官,00105414,株式会社,和歌山県,田辺市,中万呂５９番地の３,,30,206,6460003,,,2022-01-17,清算の結了等,,,2016-01-05,1,,,,,シャカトサカン,0
2618,7180001003317,登記記録の閉鎖等,0,2022-01-19,2022-01-19,アジア観光開発株式会社,,株式会社,愛知県,名古屋市千種区,内山１丁目１８番１３号,,23,101,4640075,,,2022-01-19,登記官による閉鎖,,,2016-05-12,1,,,,,,0
2619,7180001021590,登記記録の閉鎖等,0,2022-01-19,2022-01-19,株式会社エグゼ,,株式会社,愛知県,名古屋市熱田区,桜田町９番２３号,,23,109,4560004,,,2022-01-19,登記官による閉鎖,,,2015-10-05,1,,,,,,0
2621,7180001060275,登記記録の閉鎖等,0,2022-01-19,2022-01-19,株式会社豊通商事,,株式会社,愛知県,名古屋市熱田区,神戸町８０１番地,,23,109,4560043,,,2022-01-19,登記官による閉鎖,,,2015-10-05,1,,,,,,0
2622,7180001065852,登記記録の閉鎖等,0,2022-01-19,2022-01-19,株式会社エヌケーアール,,株式会社,愛知県,名古屋市緑区,有松三丁山５０８番地,,23,114,4580902,,,2022-01-19,登記官による閉鎖,,,2015-10-05,1,,,,,,0
2623,7180001069283,登記記録の閉鎖等,0,2022-01-19,2022-01-19,岡工建設株式会社,,株式会社,愛知県,豊明市,新田町吉池１９番地の２０,,23,229,4701116,,,2022-01-19,登記官による閉鎖,,,2015-10-05,1,,,,,,0
2624,7180001071669,登記記録の閉鎖等,0,2022-01-19,2022-01-19,いるか保険相談室株式会社,,株式会社,愛知県,名古屋市千種区,猪高町大字猪子石字猪々道９３番地５,,23,101,4640012,,,2022-01-19,登記官による閉鎖,,,2015-10-05,1,,,,,,0
2626,7180001085818,登記記録の閉鎖等,0,2022-01-19,2022-01-19,株式会社栄アルミニューム製作所,,株式会社,愛知県,稲沢市,長束町沙弥３９番地,,23,220,4928167,,,2022-01-19,登記官による閉鎖,,,2015-10-05,1,,,,,,0
2627,7180001090768,登記記録の閉鎖等,0,2022-01-19,2022-01-19,株式会社サンセブン,,株式会社,愛知県,名古屋市瑞穂区,白龍町３丁目６８番地の２,,23,108,4670826,,,2022-01-19,登記官による閉鎖,,,2015-10-05,1,,,,,,0
2628,7180001099867,登記記録の閉鎖等,0,2022-01-19,2022-01-19,コミュニティーラジオサービス株式会社,,株式会社,愛知県,名古屋市中区,栄１丁目１４番１５号,,23,106,4600008,,,2022-01-19,登記官による閉鎖,,,2015-10-05,1,,,,,,0
2630,7180002008158,登記記録の閉鎖等,0,2022-01-19,2022-01-19,有限会社昭和天満堂書店,,有限会社,愛知県,名古屋市昭和区,安田通１丁目１０番地,,23,107,4660857,,,2022-01-19,登記官による閉鎖,,,2015-10-05,1,,,,,,0
2631,7180002012408,登記記録の閉鎖等,0,2022-01-19,2022-01-19,有限会社ヒロタカエンジニアリング,,有限会社,愛知県,名古屋市北区,水切町５丁目８４番地７,,23,103,4620833,,,2022-01-19,登記官による閉鎖,,,2015-10-05,1,,,,,,0
2634,7180002039723,登記記録の閉鎖等,0,2022-01-19,2022-01-19,有限会社正和総合警備保障,,有限会社,愛知県,名古屋市中村区,則武１丁目１３番９号,,23,105,4530014,,,2022-01-19,登記官による閉鎖,,,2015-10-05,1,,,,,,0
2635,7180002045201,登記記録の閉鎖等,0,2022-01-19,2022-01-19,有限会社アイメンタルスクール,,有限会社,愛知県,名古屋市東区,泉１丁目２２番２６号成田久屋ビル４階,,23,102,4610001,,,2022-01-19,登記官による閉鎖,,,2015-10-05,1,,,,,,0
2636,7180002053559,登記記録の閉鎖等,0,2022-01-19,2022-01-19,有限会社チャンプスプロ,,有限会社,愛知県,名古屋市千種区,仲田１丁目５番１６号,,23,101,4640074,,,2022-01-19,登記官による閉鎖,,,2015-10-05,1,,,,,,0
2637,7180002059003,登記記録の閉鎖等,0,2022-01-19,2022-01-19,有限会社藤原新聞舗,,有限会社,愛知県,名古屋市天白区,元八事１丁目１９３番地,,23,116,4680066,,,2022-01-19,登記官による閉鎖,,,2015-10-05,1,,,,,,0
2638,7180002062923,登記記録の閉鎖等,0,2022-01-19,2022-01-19,有限会社成和重機,,有限会社,愛知県,愛知郡東郷町,大字春木字中ノ杁８１２番地４６,,23,302,4700162,,,2022-01-19,登記官による閉鎖,,,2015-10-05,1,,,,,,0
2639,7180002063772,登記記録の閉鎖等,0,2022-01-19,2022-01-19,有限会社アイテック,,有限会社,愛知県,名古屋市東区,泉３丁目１７番１０号,,23,102,4610001,,,2022-01-19,登記官による閉鎖,,,2015-10-05,1,,,,,,0
2640,7180002068714,登記記録の閉鎖等,0,2022-01-19,2022-01-19,有限会社大草工業所,,有限会社,愛知県,小牧市,大字大草１２０３番地,,23,219,4850802,,,2022-01-19,登記官による閉鎖,,,2015-10-05,1,,,,,,0
2641,7180002069547,登記記録の閉鎖等,0,2022-01-19,2022-01-19,有限会社中部エコライフ,,有限会社,愛知県,小牧市,篠岡１丁目４５番地,,23,219,4850815,,,2022-01-19,登記官による閉鎖,,,2015-10-05,1,,,,,,0
2642,7180002072352,登記記録の閉鎖等,0,2022-01-19,2022-01-19,有限会社ミフジ,,有限会社,愛知県,瀬戸市,ひまわり台４丁目２１番地,,23,204,4890981,,,2022-01-19,登記官による閉鎖,,,2015-10-05,1,,,,,,0
2643,7180002073986,登記記録の閉鎖等,0,2022-01-19,2022-01-19,有限会社ミニヨン,,有限会社,愛知県,瀬戸市,一里塚町２０番地の５,,23,204,4890836,,,2022-01-19,登記官による閉鎖,,,2015-10-05,1,,,,,,0
2644,7180002077054,登記記録の閉鎖等,0,2022-01-19,2022-01-19,有限会社トカラ興業,,有限会社,愛知県,一宮市,浅井町大日比野字南若栗４０番地,,23,203,4910105,,,2022-01-19,登記官による閉鎖,,,2015-10-05,1,,,,,,0
2645,7180002092383,登記記録の閉鎖等,0,2022-01-19,2022-01-19,有限会社ナガイ工業,,有限会社,愛知県,あま市,七宝町下之森河原３６番地,,23,237,4970006,,,2022-01-19,登記官による閉鎖,,,2015-10-05,1,,,,,,0
2646,7180003008900,登記記録の閉鎖等,0,2022-01-19,2022-01-19,合資会社ラグジュアリー,,合資会社,愛知県,名古屋市中区,栄３丁目３１番８号,,23,106,4600008,,,2022-01-19,登記官による閉鎖,,,2015-10-05,1,,,,,,0
2647,7180003008982,登記記録の閉鎖等,0,2022-01-19,2022-01-19,合資会社ウエルディング加治,,合資会社,愛知県,名古屋市南区,本城町２丁目３９番地３,,23,112,4570053,,,2022-01-19,登記官による閉鎖,,,2015-10-05,1,,,,,,0
2657,7200001009402,登記記録の閉鎖等,0,2022-01-19,2022-01-18,藤田興業株式会社,,株式会社,岐阜県,岐阜市,元町２丁目１９番地ハイツ元町７－Ｂ,,21,201,5008185,,,2022-01-18,登記官による閉鎖,,,2015-10-05,1,,,,,,0
2658,7200001018254,登記記録の閉鎖等,0,2022-01-19,2022-01-18,太洋技研工業株式会社,,株式会社,岐阜県,加茂郡坂祝町,取組字砂田７２７番地の１,,21,501,5050075,,,2022-01-18,登記官による閉鎖,,,2016-08-09,1,,,,,,0
2660,7200002003437,登記記録の閉鎖等,0,2022-01-19,2022-01-18,有限会社那須板金,,有限会社,岐阜県,岐阜市,高田４丁目１７番１１号,,21,201,5008224,,,2022-01-18,登記官による閉鎖,,,2015-10-05,1,,,,,,0
2661,7200002013832,登記記録の閉鎖等,0,2022-01-19,2022-01-18,有限会社シマオカ,,有限会社,岐阜県,大垣市,上石津町牧田２５７９番地４３,,21,202,5031602,,,2022-01-18,登記官による閉鎖,,,2015-10-05,1,,,,,,0
2662,7200002017767,登記記録の閉鎖等,0,2022-01-19,2022-01-18,有限会社ハウジング渡辺,,有限会社,岐阜県,美濃加茂市,蜂屋町伊瀬４７７番地１２,,21,211,5050006,,,2022-01-18,登記官による閉鎖,,,2015-10-05,1,,,,,,0
2664,7200005005827,登記記録の閉鎖等,0,2022-01-19,2022-01-18,ソーイング・ワン協同組合,,その他の設立登記法人,岐阜県,揖斐郡大野町,大字黒野２２６７番地の８９,,21,403,5010521,,,2022-01-18,登記官による閉鎖,,,2015-10-05,1,,,,,,0
2680,7270001008397,登記記録の閉鎖等,0,2022-01-19,2022-01-13,株式会社リトルペアーズ,,株式会社,鳥取県,米子市,米原６丁目１番１１号,,31,202,6830804,,,2022-01-13,清算の結了等,,,2021-11-26,1,,,,,リトルペアーズ,0
2690,7290001083471,登記記録の閉鎖等,0,2022-01-19,2022-01-13,株式会社正峰,,株式会社,福岡県,久留米市,国分町１２９４番地５　１１７号,,40,203,8390863,,,2022-01-13,清算の結了等,,,2018-11-28,1,,,,,セイホウ,0
2700,7300002006314,登記記録の閉鎖等,0,2022-01-19,2022-01-17,有限会社ホワイト急便嬉野,,有限会社,佐賀県,嬉野市,嬉野町大字下野字参本松丙２１７番地１,,41,209,8430302,,,2022-01-17,清算の結了等,,,2015-10-05,1,,,,,,0
2701,7310001006090,登記記録の閉鎖等,0,2022-01-19,2022-01-18,株式会社森工業プラント,,株式会社,長崎県,佐世保市,松川町１８番１号,,42,202,8570804,,,2022-01-18,清算の結了等,,,2015-10-05,1,,,,,モリコウギョウプラント,0
2703,7320001000365,登記記録の閉鎖等,0,2022-01-19,2022-01-19,株式会社アイ・エム・シイ,,株式会社,大分県,大分市,今津留１丁目１０番５号,,44,201,8700938,,,2022-01-19,登記官による閉鎖,,,2015-10-05,1,,,,,,0
2704,7320001003863,登記記録の閉鎖等,0,2022-01-19,2022-01-19,千装株式会社,,株式会社,大分県,大分市,大字牧９９番地の３,,44,201,8700152,,,2022-01-19,登記官による閉鎖,,,2016-08-01,1,,,,,,0
2706,7320002001354,登記記録の閉鎖等,0,2022-01-19,2022-01-19,有限会社エヌアンドエイチ,,有限会社,大分県,大分市,中島西１丁目５番３号,,44,201,8700047,,,2022-01-19,登記官による閉鎖,,,2015-10-05,1,,,,,,0
2707,7320002006452,登記記録の閉鎖等,0,2022-01-19,2022-01-19,有限会社丸井設計測量,,有限会社,大分県,大分市,高城新町１３番４号マルイビル内２階－Ｂ,,44,201,8700156,,,2022-01-19,登記官による閉鎖,,,2015-10-05,1,,,,,,0
2708,7320003001221,登記記録の閉鎖等,0,2022-01-19,2022-01-19,合名会社ヤマニ靜壽堂,00097073,合名会社,大分県,日田市,隈２丁目１番２０号,,44,204,8770044,,,2022-01-19,登記官による閉鎖,,,2015-10-05,1,,,,,,0
2712,7320005003629,登記記録の閉鎖等,0,2022-01-19,2022-01-19,農事組合法人安部農場,,その他の設立登記法人,大分県,宇佐市,安心院町古川２７２番地,,44,211,8720655,,,2022-01-19,登記官による閉鎖,,,2015-10-05,1,,,,,,0
2713,7320005004437,登記記録の閉鎖等,0,2022-01-19,2022-01-19,大分県開拓農業協同組合,,その他の設立登記法人,大分県,杵築市,大字八坂１８７０番地１,,44,210,8730015,,,2022-01-19,登記官による閉鎖,,,2015-10-05,1,,,,,,0
2717,7340003002507,登記記録の閉鎖等,0,2022-01-19,2022-01-13,合同会社湯新,,合同会社,鹿児島県,霧島市,牧園町三体堂１８２４番地４１,,46,218,8996502,,,2022-01-13,合併による解散等,5120101057856,令和４年１月１日大阪府岸和田市土生町二丁目１６番２６号エナジーアース株式会社（5120101057856）に合併し解散,2018-01-19,1,,,,,,0
2736,7410001000224,登記記録の閉鎖等,0,2022-01-19,2022-01-18,株式会社秋田健康センター,,株式会社,秋田県,秋田市,山王沼田町３番２７号,,05,201,0100954,,,2022-01-18,登記官による閉鎖,,,2015-10-05,1,,,,,,0
2737,7410001004365,登記記録の閉鎖等,0,2022-01-19,2022-01-18,成田輸送株式会社,,株式会社,秋田県,潟上市,天王字追分西５２番地６,,05,211,0100101,,,2022-01-18,登記官による閉鎖,,,2015-10-05,1,,,,,,0
2738,7410001008754,登記記録の閉鎖等,0,2022-01-19,2022-01-18,株式会社ぶなしずく,,株式会社,秋田県,大仙市,協和船岡字東兵衛屋敷９１番地,,05,212,0192401,,,2022-01-18,登記官による閉鎖,,,2015-10-05,1,,,,,,0
2739,7410002009495,登記記録の閉鎖等,0,2022-01-19,2022-01-18,有限会社ファッション・ケー,,有限会社,秋田県,北秋田市,鷹巣字愛宕下４０番地１７,,05,213,0183331,,,2022-01-18,登記官による閉鎖,,,2015-10-05,1,,,,,,0
2740,7410002009859,登記記録の閉鎖等,0,2022-01-19,2022-01-18,有限会社沼峰商店,,有限会社,秋田県,鹿角市,花輪字堰向１０２番地,,05,209,0185201,,,2022-01-18,登記官による閉鎖,,,2015-10-05,1,,,,,,0
2742,7410003002367,登記記録の閉鎖等,0,2022-01-19,2022-01-18,合資会社みうら,,合資会社,秋田県,仙北市,角館町雲然山崎１４２番地の１７,,05,215,0140341,,,2022-01-18,登記官による閉鎖,,,2015-10-05,1,,,,,,0
2744,7410005004857,登記記録の閉鎖等,0,2022-01-19,2022-01-18,特定非営利活動法人北域環境エネルギー開発センター,,その他の設立登記法人,秋田県,仙北市,角館町竹原町１３番地１,,05,215,0140328,,,2022-01-18,登記官による閉鎖,,,2015-10-05,1,,,,,,0
2768,8010001173126,登記記録の閉鎖等,0,2022-01-19,2022-01-17,サントリービバレッジソリューション株式会社,,株式会社,東京都,港区,芝浦３丁目１番１号,,13,103,1080023,,,2022-01-17,合併による解散等,6012401010323,令和４年１月１日東京都新宿区荒木町１３番地４サントリービバレッジサービス株式会社（6012401010323）に合併し解散,2016-02-02,1,,,,,サントリービバレッジソリューション,0
2788,8010403019686,登記記録の閉鎖等,0,2022-01-19,2022-01-14,合同会社ふふ,,合同会社,大阪府,大阪市中央区,今橋２丁目５番８号,,27,128,5410042,,,2022-01-14,清算の結了等,,,2018-11-15,1,,,,,フフ,0
2792,8010603006757,登記記録の閉鎖等,0,2022-01-19,2022-01-12,合同会社ｒｅｎｃｏｎｔｒｅ,,合同会社,東京都,江東区,豊洲６丁目２番１１号,,13,108,1350061,,,2022-01-12,清算の結了等,,,2017-05-22,1,,,,,ランコントル,0
2807,8011101022940,登記記録の閉鎖等,0,2022-01-19,2021-12-28,日拓インベストメント株式会社,,株式会社,東京都,渋谷区,南平台町１６番１７号,,13,113,1500036,,,2021-12-28,清算の結了等,,,2015-10-05,1,,,,,ニッタクインベストメント,0
2835,8020002038871,登記記録の閉鎖等,0,2022-01-19,2022-01-07,有限会社大明,,有限会社,神奈川県,横浜市鶴見区,岸谷２丁目１８番４号,,14,101,2300078,,,2022-01-07,清算の結了等,,,2015-10-05,1,,,,,ダイメイ,0
2847,8030001038574,登記記録の閉鎖等,0,2022-01-19,2022-01-14,株式会社木下建設,,株式会社,埼玉県,三郷市,幸房９３２番地６,,11,237,3410026,,,2022-01-14,清算の結了等,,,2015-10-05,1,,,,,キノシタケンセツ,0
2855,8030002011316,登記記録の閉鎖等,0,2022-01-19,2022-01-17,有限会社ビックイン,,有限会社,埼玉県,さいたま市見沼区,深作２丁目２１番地４,,11,104,3370003,,,2022-01-17,清算の結了等,,,2015-10-05,1,,,,,ビックイン,0
2874,8040002035867,登記記録の閉鎖等,0,2022-01-19,2022-01-12,有限会社ノア・ビジネス,,有限会社,千葉県,市川市,原木２２９０番地の６,,12,203,2720004,,,2022-01-12,清算の結了等,,,2015-10-05,1,,,,,ノアビジネス,0
2879,8050001004376,登記記録の閉鎖等,0,2022-01-19,2022-01-17,株式会社亀宗本社,,株式会社,茨城県,水戸市,南町２丁目４番３５号,,08,201,3100021,,,2022-01-17,登記官による閉鎖,,,2016-06-24,1,,,,,,0
2880,8050001007602,登記記録の閉鎖等,0,2022-01-19,2022-01-17,関東木工株式会社,,株式会社,茨城県,ひたちなか市,大字津田２７１２番地１１,,08,221,3120032,,,2022-01-17,登記官による閉鎖,,,2015-10-05,1,,,,,,0
2881,8050001008162,登記記録の閉鎖等,0,2022-01-19,2022-01-17,株式会社ピンタック,,株式会社,茨城県,笠間市,吉岡４７番地の５,,08,216,3190203,,,2022-01-17,登記官による閉鎖,,,2015-10-05,1,,,,,,0
2883,8050001021834,登記記録の閉鎖等,0,2022-01-19,2022-01-17,株式会社柏伊呉服店,,株式会社,茨城県,鉾田市,鉾田１５３９番地の２,,08,234,3111517,,,2022-01-17,登記官による閉鎖,,,2015-10-05,1,,,,,,0
2884,8050001045511,登記記録の閉鎖等,0,2022-01-19,2022-01-13,株式会社ＫＯＬＬＥＣＴ,,株式会社,茨城県,神栖市,大野原４丁目７番１号,,08,232,3140144,,,2022-01-13,清算の結了等,,,2019-01-29,1,,,,,コレクト,0
2887,8050002002156,登記記録の閉鎖等,0,2022-01-19,2022-01-17,有限会社チャイルドベアー,,有限会社,茨城県,水戸市,河和田１丁目１８４３番地の５,,08,201,3114152,,,2022-01-17,登記官による閉鎖,,,2015-10-05,1,,,,,,0
2888,8050002004383,登記記録の閉鎖等,0,2022-01-19,2022-01-17,有限会社ユウ・ツーリスト,,有限会社,茨城県,水戸市,笠原町１５５１番地の２,,08,201,3100852,,,2022-01-17,登記官による閉鎖,,,2015-10-05,1,,,,,,0
2889,8050002008021,登記記録の閉鎖等,0,2022-01-19,2022-01-17,有限会社アドフォックス,,有限会社,茨城県,ひたちなか市,東石川２丁目１３番１２号（グランドールオーヤマＡ４０１）,,08,221,3120052,,,2022-01-17,登記官による閉鎖,,,2015-10-05,1,,,,,,0
2891,8050002009481,登記記録の閉鎖等,0,2022-01-19,2022-01-17,有限会社ヨネナガ電器,,有限会社,茨城県,東茨城郡大洗町,磯浜町５２６０番地１,,08,309,3111301,,,2022-01-17,登記官による閉鎖,,,2015-10-05,1,,,,,,0
2893,8050002023318,登記記録の閉鎖等,0,2022-01-19,2022-01-17,有限会社大倖,,有限会社,茨城県,つくば市,東新井２番地１,,08,220,3050033,,,2022-01-17,登記官による閉鎖,,,2015-10-05,1,,,,,,0
2894,8050002026254,登記記録の閉鎖等,0,2022-01-19,2022-01-17,有限会社イズミプランニング,,有限会社,茨城県,鹿嶋市,大字小山１１２１番地５１,,08,222,3112222,,,2022-01-17,登記官による閉鎖,,,2015-10-05,1,,,,,,0
2895,8050002029686,登記記録の閉鎖等,0,2022-01-19,2022-01-17,有限会社山藤,,有限会社,茨城県,鉾田市,沢尻５９６番地８,,08,234,3111404,,,2022-01-17,登記官による閉鎖,,,2015-10-05,1,,,,,,0
2896,8050002031411,登記記録の閉鎖等,0,2022-01-19,2022-01-17,有限会社益子ドライ工場,,有限会社,茨城県,日立市,鹿島町１丁目１番９号,,08,202,3170071,,,2022-01-17,登記官による閉鎖,,,2015-10-05,1,,,,,,0
2897,8050002032161,登記記録の閉鎖等,0,2022-01-19,2022-01-17,有限会社塚本商事,,有限会社,茨城県,高萩市,東本町２丁目１１番地,,08,214,3180014,,,2022-01-17,登記官による閉鎖,,,2015-10-05,1,,,,,,0
2898,8050002036195,登記記録の閉鎖等,0,2022-01-19,2022-01-17,有限会社岩崎商事,,有限会社,茨城県,取手市,新町５丁目１５番９号,,08,217,3020024,,,2022-01-17,登記官による閉鎖,,,2015-10-05,1,,,,,,0
2899,8050002039966,登記記録の閉鎖等,0,2022-01-19,2022-01-17,有限会社まるたけ急送,,有限会社,茨城県,常総市,豊岡町乙１１９２番地の１,,08,211,3030041,,,2022-01-17,登記官による閉鎖,,,2015-10-05,1,,,,,,0
2901,8050005002772,登記記録の閉鎖等,0,2022-01-19,2022-01-17,特定非営利活動法人笠間再生クラブ,,その他の設立登記法人,茨城県,笠間市,平町９０６番地１,,08,216,3091722,,,2022-01-17,登記官による閉鎖,,,2015-10-05,1,,,,,,0
2903,8050005010107,登記記録の閉鎖等,0,2022-01-19,2022-01-17,特定非営利活動法人エイム,,その他の設立登記法人,茨城県,筑西市,樋口３２０番地,,08,227,3080001,,,2022-01-17,登記官による閉鎖,,,2015-10-05,1,,,,,,0
2908,8080001012599,登記記録の閉鎖等,0,2022-01-19,2022-01-19,株式会社オフィストモ,,株式会社,静岡県,静岡市清水区,上２丁目６番２５号,,22,103,4240827,,,2022-01-19,登記官による閉鎖,,,2015-10-05,1,,,,,,0
2910,8080001017615,登記記録の閉鎖等,0,2022-01-19,2022-01-19,美山木材株式会社,,株式会社,静岡県,静岡市清水区,千歳町８番２２号,,22,103,4240828,,,2022-01-19,登記官による閉鎖,,,2015-10-05,1,,,,,,0
2911,8080001017747,登記記録の閉鎖等,0,2022-01-19,2022-01-19,株式会社太陽,,株式会社,静岡県,島田市,阪本１３２９番地の２６,,22,209,4270111,,,2022-01-19,登記官による閉鎖,,,2015-10-05,1,,,,,,0
2913,8080002003721,登記記録の閉鎖等,0,2022-01-19,2022-01-19,有限会社宝エイド,,有限会社,静岡県,静岡市葵区,籠上１９番３５号,,22,101,4200873,,,2022-01-19,登記官による閉鎖,,,2015-10-05,1,,,,,,0
2914,8080002004645,登記記録の閉鎖等,0,2022-01-19,2022-01-19,有限会社橋本硝子,,有限会社,静岡県,静岡市葵区,田町４丁目６８番地,,22,101,4200068,,,2022-01-19,登記官による閉鎖,,,2015-10-05,1,,,,,,0
2915,8080002005354,登記記録の閉鎖等,0,2022-01-19,2022-01-19,有限会社牧野グリーン,,有限会社,静岡県,静岡市葵区,松富２丁目２番６１号,,22,101,4200941,,,2022-01-19,登記官による閉鎖,,,2015-10-05,1,,,,,,0
2916,8080002015213,登記記録の閉鎖等,0,2022-01-19,2022-01-19,有限会社ナカジマ,,有限会社,静岡県,牧之原市,切山１３８９番地,,22,226,4210401,,,2022-01-19,登記官による閉鎖,,,2015-10-05,1,,,,,,0
2918,8080003000073,登記記録の閉鎖等,0,2022-01-19,2022-01-19,合資会社クックジョイ,,合資会社,静岡県,静岡市駿河区,北丸子２丁目３３番１７号－１０,,22,102,4210106,,,2022-01-19,登記官による閉鎖,,,2015-10-05,1,,,,,,0
2919,8080003001105,登記記録の閉鎖等,0,2022-01-19,2022-01-19,合資会社すしの一二三,,合資会社,静岡県,静岡市清水区,江尻町１４番７６号,,22,103,4240818,,,2022-01-19,登記官による閉鎖,,,2015-10-05,1,,,,,,0
2921,8080005003009,登記記録の閉鎖等,0,2022-01-19,2022-01-19,静岡木ねじ工業協同組合,,その他の設立登記法人,静岡県,静岡市清水区,興津中町１７７番地,,22,103,4240204,,,2022-01-19,登記官による閉鎖,,,2015-10-05,1,,,,,,0
2922,8080101001808,登記記録の閉鎖等,0,2022-01-19,2022-01-19,株式会社マルカ,,株式会社,静岡県,沼津市,庄栄町７番１５号,,22,203,4100047,,,2022-01-19,登記官による閉鎖,,,2015-10-05,1,,,,,,0
2924,8080101015948,登記記録の閉鎖等,0,2022-01-19,2022-01-19,株式会社ＳＵＮ・ＳＥＴ,,株式会社,静岡県,沼津市,中沢田３８５番地ＢＭビル３０１,,22,203,4100006,,,2022-01-19,登記官による閉鎖,,,2015-10-05,1,,,,,,0
2925,8080101019305,登記記録の閉鎖等,0,2022-01-19,2022-01-19,株式会社鈴竹食堂,,株式会社,静岡県,沼津市,西島町２番３８号,,22,203,4100835,,,2022-01-19,登記官による閉鎖,,,2016-08-22,1,,,,,,0
2927,8080102000511,登記記録の閉鎖等,0,2022-01-19,2022-01-19,栄光学院有限会社,,有限会社,静岡県,沼津市,三枚橋町１１番１２号,,22,203,4100037,,,2022-01-19,登記官による閉鎖,,,2015-10-05,1,,,,,,0
2928,8080102003027,登記記録の閉鎖等,0,2022-01-19,2022-01-19,有限会社平沼荘,,有限会社,静岡県,沼津市,平沼５２７番地の４,,22,203,4100318,,,2022-01-19,登記官による閉鎖,,,2015-10-05,1,,,,,,0
2929,8080102004000,登記記録の閉鎖等,0,2022-01-19,2022-01-19,有限会社綾平商店,,有限会社,静岡県,沼津市,多比３７３番地の１,,22,203,4100101,,,2022-01-19,登記官による閉鎖,,,2015-10-05,1,,,,,,0
2931,8080102006905,登記記録の閉鎖等,0,2022-01-19,2022-01-19,有限会社小春商事,,有限会社,静岡県,御殿場市,茱萸沢１３９１番地の５,,22,215,4120041,,,2022-01-19,登記官による閉鎖,,,2015-10-05,1,,,,,,0
2932,8080102021268,登記記録の閉鎖等,0,2022-01-19,2022-01-19,有限会社栄山商事,,有限会社,静岡県,賀茂郡東伊豆町,稲取２２番地の１,,22,301,4130411,,,2022-01-19,登記官による閉鎖,,,2015-10-05,1,,,,,,0
2933,8080401015326,登記記録の閉鎖等,0,2022-01-19,2022-01-19,株式会社東亜設計,,株式会社,静岡県,掛川市,横須賀２３４番地,,22,213,4371301,,,2022-01-19,登記官による閉鎖,,,2015-10-05,1,,,,,,0
2934,8080401016035,登記記録の閉鎖等,0,2022-01-19,2022-01-19,株式会社山内組,,株式会社,静岡県,磐田市,中泉２０３９番地,,22,211,4380078,,,2022-01-19,登記官による閉鎖,,,2015-10-05,1,,,,,,0
2935,8080402000351,登記記録の閉鎖等,0,2022-01-19,2022-01-19,有限会社浅野商会,,有限会社,静岡県,浜松市中区,肴町３１６番地の４７,,22,131,4300932,,,2022-01-19,登記官による閉鎖,,,2015-10-05,1,,,,,,0
2936,8080402000913,登記記録の閉鎖等,0,2022-01-19,2022-01-19,有限会社一龍包装資材,,有限会社,静岡県,浜松市南区,新貝町２３９番地の１,,22,134,4350023,,,2022-01-19,登記官による閉鎖,,,2015-10-05,1,,,,,,0
2937,8080402001259,登記記録の閉鎖等,0,2022-01-19,2022-01-19,有限会社エス・イー・ティー,,有限会社,静岡県,浜松市西区,舞阪町浜田５２９番地,,22,133,4310213,,,2022-01-19,登記官による閉鎖,,,2015-10-05,1,,,,,,0
2939,8080402006027,登記記録の閉鎖等,0,2022-01-19,2022-01-19,有限会社野沢石油,,有限会社,静岡県,浜松市北区,初生町７９８番地,,22,135,4338112,,,2022-01-19,登記官による閉鎖,,,2015-10-05,1,,,,,,0
2940,8080402014599,登記記録の閉鎖等,0,2022-01-19,2022-01-19,栄進工業有限会社,,有限会社,静岡県,浜松市浜北区,宮口８６７番地の３,,22,136,4340004,,,2022-01-19,登記官による閉鎖,,,2015-10-05,1,,,,,,0
2941,8080402017577,登記記録の閉鎖等,0,2022-01-19,2022-01-17,有限会社中吉建設,,有限会社,静岡県,掛川市,上垂木１２９４番地,,22,213,4360221,,,2022-01-17,清算の結了等,,,2015-10-05,1,,,,,ナカヨシケンセツ,0
2942,8080402018055,登記記録の閉鎖等,0,2022-01-19,2022-01-19,有限会社待安住宅,,有限会社,静岡県,掛川市,大渕１０３８７畚地の１,,22,213,4371302,,,2022-01-19,登記官による閉鎖,,,2015-10-05,1,,,,,,0
2943,8080402019185,登記記録の閉鎖等,0,2022-01-19,2022-01-19,有限会社本店金寿司,,有限会社,静岡県,御前崎市,池新田２９６１番地の１５,,22,223,4371612,,,2022-01-19,登記官による閉鎖,,,2015-10-05,1,,,,,,0
2944,8080403002454,登記記録の閉鎖等,0,2022-01-19,2022-01-19,合資会社アクレ,,合資会社,静岡県,御前崎市,比木４５１８番地,,22,223,4371602,,,2022-01-19,登記官による閉鎖,,,2015-10-05,1,,,,,,0
2947,8110001012315,登記記録の閉鎖等,0,2022-01-19,2022-01-14,五十嵐株式会社,,株式会社,新潟県,五泉市,吉沢２丁目５番７号,,15,218,9591824,,,2022-01-14,清算の結了等,,,2015-10-05,1,,,,,イガラシ,0
2949,8110001028526,登記記録の閉鎖等,0,2022-01-19,2022-01-13,株式会社ＰＥＧ,,株式会社,新潟県,新潟市中央区,古町通６番町９６９番地５,,15,103,9518063,,,2022-01-13,清算の結了等,,,2015-10-05,1,,,,,ピーイージー,0
2952,8110002028343,登記記録の閉鎖等,0,2022-01-19,2022-01-13,有限会社土田清治商店,,有限会社,新潟県,長岡市,殿町３丁目４番地７,,15,202,9400064,,,2022-01-13,清算の結了等,,,2015-10-05,1,,,,,ツチダセイジショウテン,0
2979,8120901044893,登記記録の閉鎖等,0,2022-01-19,2022-01-17,玻璃と霧株式会社,,株式会社,大阪府,豊中市,蛍池中町４－４－１０沢マンション３０１号室,,27,203,5600000,,,2022-01-17,清算の結了等,,,2021-09-14,1,,,,,ハリトキリ,0
2984,8130001048596,登記記録の閉鎖等,0,2022-01-19,2022-01-11,株式会社ＭＩＴＳＵＢＡ,,株式会社,京都府,京都市左京区,岩倉忠在地町３６２番地１,,26,103,6060021,,,2022-01-11,清算の結了等,,,2015-10-05,1,,,,,ミツバ,0
2989,8140001033218,登記記録の閉鎖等,0,2022-01-19,2022-01-12,株式会社アティーナ,,株式会社,兵庫県,神戸市須磨区,東落合３丁目５番２７号,,28,107,6540152,,,2022-01-12,清算の結了等,,,2015-10-05,1,,,,,アティーナ,0
3004,8160001007285,登記記録の閉鎖等,0,2022-01-19,2022-01-17,株式会社日輪,,株式会社,滋賀県,長浜市,湖北町山本２８２６番地,,25,203,5290354,,,2022-01-17,清算の結了等,,,2015-10-05,1,,,,,ニチワ,0
3010,8180001010106,登記記録の閉鎖等,0,2022-01-19,2022-01-19,株式会社いちよし,,株式会社,愛知県,名古屋市瑞穂区,陽明町１丁目２４番地の３,,23,108,4670026,,,2022-01-19,登記官による閉鎖,,,2015-10-05,1,,,,,,0
3012,8180001025252,登記記録の閉鎖等,0,2022-01-19,2022-01-19,株式会社協和,,株式会社,愛知県,名古屋市西区,栄生１丁目３０番２０号,,23,104,4510052,,,2022-01-19,登記官による閉鎖,,,2015-10-05,1,,,,,,0
3013,8180001028404,登記記録の閉鎖等,0,2022-01-19,2022-01-19,株式会社高橋大理石店,,株式会社,愛知県,名古屋市緑区,神沢１丁目２１７番地,,23,114,4580014,,,2022-01-19,登記官による閉鎖,,,2016-02-03,1,,,,,,0
3014,8180001032843,登記記録の閉鎖等,0,2022-01-19,2022-01-14,マルナ淡水魚株式会社,,株式会社,愛知県,名古屋市中村区,名駅４丁目１７番４号,,23,105,4500002,,,2022-01-14,清算の結了等,,,2015-10-05,1,,,,,マルナタンスイギョ,0
3017,8180001038007,登記記録の閉鎖等,0,2022-01-19,2022-01-19,株式会社中央ファクター,,株式会社,愛知県,名古屋市中区,丸の内３丁目７番９号,,23,106,4600002,,,2022-01-19,登記官による閉鎖,,,2015-10-05,1,,,,,,0
3018,8180001041720,登記記録の閉鎖等,0,2022-01-19,2022-01-19,株式会社ユニクラオート,,株式会社,愛知県,名古屋市中区,三の丸１丁目１４番７号本丸ビル４階名古屋中央法律事務所内,,23,106,4600001,,,2022-01-19,登記官による閉鎖,,,2015-10-05,1,,,,,,0
3019,8180001061999,登記記録の閉鎖等,0,2022-01-19,2022-01-19,株式会社田中,,株式会社,愛知県,名古屋市守山区,元郷１丁目７０１番地,,23,113,4630025,,,2022-01-19,登記官による閉鎖,,,2015-10-05,1,,,,,,0
3020,8180001073953,登記記録の閉鎖等,0,2022-01-19,2022-01-19,神戸建設株式会社,,株式会社,愛知県,春日井市,大留町５丁目２４番地の８,,23,206,4870024,,,2022-01-19,登記官による閉鎖,,,2015-10-05,1,,,,,,0
3021,8180001077748,登記記録の閉鎖等,0,2022-01-19,2022-01-19,株式会社サンユー,,株式会社,愛知県,小牧市,大字北外山２４１８番地６,,23,219,4850023,,,2022-01-19,登記官による閉鎖,,,2015-10-05,1,,,,,,0
3022,8180001091303,登記記録の閉鎖等,0,2022-01-19,2022-01-19,株式会社フライト,,株式会社,愛知県,名古屋市東区,泉１丁目２１の５,,23,102,4610001,,,2022-01-19,登記官による閉鎖,,,2015-10-05,1,,,,,,0
3023,8180001098620,登記記録の閉鎖等,0,2022-01-19,2022-01-19,株式会社サクラ管工,,株式会社,愛知県,愛西市,山路町荒山６６番地,,23,232,4960942,,,2022-01-19,登記官による閉鎖,,,2015-10-05,1,,,,,,0
3024,8180001100658,登記記録の閉鎖等,0,2022-01-19,2022-01-19,株式会社Ｔ＆Ｋ,,株式会社,愛知県,名古屋市中区,栄１丁目１７番１３号,,23,106,4600008,,,2022-01-19,登記官による閉鎖,,,2015-10-05,1,,,,,,0
3028,8180002018123,登記記録の閉鎖等,0,2022-01-19,2022-01-19,有限会社山商,,有限会社,愛知県,名古屋市緑区,古鳴海２丁目８２番地,,23,114,4580047,,,2022-01-19,登記官による閉鎖,,,2015-10-05,1,,,,,,0
3029,8180002021044,登記記録の閉鎖等,0,2022-01-19,2022-01-19,有限会社東設備工業,,有限会社,愛知県,名古屋市天白区,鴻の巣１丁目５０４番地,,23,116,4680003,,,2022-01-19,登記官による閉鎖,,,2015-10-05,1,,,,,,0
3030,8180002025697,登記記録の閉鎖等,0,2022-01-19,2022-01-19,有限会社小林組,,有限会社,愛知県,名古屋市緑区,大高町字元屋敷６番地,,23,114,4598001,,,2022-01-19,登記官による閉鎖,,,2017-01-05,1,,,,,,0
3031,8180002048525,登記記録の閉鎖等,0,2022-01-19,2022-01-19,加那貿易有限会社,,有限会社,愛知県,名古屋市天白区,高坂町９３番地,,23,116,4680025,,,2022-01-19,登記官による閉鎖,,,2015-10-05,1,,,,,,0
3033,8180002061164,登記記録の閉鎖等,0,2022-01-19,2022-01-19,有限会社ＭＯＲＩＹＡＭＡ－ＥＳＰＩＮＯＺＡ－ＣＯＲＰＯＲＡＴＩＯＮ,,有限会社,愛知県,名古屋市中区,千代田２丁目２０番１号,,23,106,4600012,,,2022-01-19,登記官による閉鎖,,,2015-10-05,1,,,,,,0
3034,8180002070025,登記記録の閉鎖等,0,2022-01-19,2022-01-19,有限会社宮藤塗装,,有限会社,愛知県,小牧市,小木東２丁目１００番地,,23,219,4850059,,,2022-01-19,登記官による閉鎖,,,2015-10-05,1,,,,,,0
3035,8180002071394,登記記録の閉鎖等,0,2022-01-19,2022-01-19,有限会社ケイモア,,有限会社,愛知県,春日井市,下原町１７６７番地１,,23,206,4860819,,,2022-01-19,登記官による閉鎖,,,2015-10-05,1,,,,,,0
3037,8180002088273,登記記録の閉鎖等,0,2022-01-19,2022-01-19,有限会社シンセイ技建,,有限会社,愛知県,知多市,八幡字東大平地４番地の４,,23,224,4780001,,,2022-01-19,登記官による閉鎖,,,2015-10-05,1,,,,,,0
3038,8180002091921,登記記録の閉鎖等,0,2022-01-19,2022-01-19,有限会社石岡精工,,有限会社,愛知県,海部郡大治町,大字三本木字西之川１７５番地,,23,424,4901142,,,2022-01-19,登記官による閉鎖,,,2015-10-05,1,,,,,,0
3039,8180003002984,登記記録の閉鎖等,0,2022-01-19,2022-01-19,合資会社三輪鋸加工所,,合資会社,愛知県,名古屋市熱田区,二番２丁目８番１６号,,23,109,4560052,,,2022-01-19,登記官による閉鎖,,,2015-10-05,1,,,,,,0
3040,8180003009435,登記記録の閉鎖等,0,2022-01-19,2022-01-19,合同会社平川通信,,合同会社,愛知県,名古屋市緑区,鳴海町字姥子山２００番地,,23,114,4580828,,,2022-01-19,登記官による閉鎖,,,2015-10-05,1,,,,,,0
3041,8180003009641,登記記録の閉鎖等,0,2022-01-19,2022-01-19,合資会社メディアパーク,,合資会社,愛知県,名古屋市中村区,鳥居西通１丁目２６番地２,,23,105,4530054,,,2022-01-19,登記官による閉鎖,,,2015-10-05,1,,,,,,0
3042,8180003012546,登記記録の閉鎖等,0,2022-01-19,2022-01-19,合同会社アーダミ,,合同会社,愛知県,瀬戸市,窯町５０８番地の１,,23,204,4801219,,,2022-01-19,登記官による閉鎖,,,2015-10-05,1,,,,,,0
3045,8180005010952,登記記録の閉鎖等,0,2022-01-19,2022-01-19,特定非営利活動法人アジアの地雷・不発弾被害を伝える会,,その他の設立登記法人,愛知県,一宮市,木曽川町黒田字往還西南ノ切１４１番地,,23,203,4930001,,,2022-01-19,登記官による閉鎖,,,2015-10-05,1,,,,,,0
3048,8180301035380,登記記録の閉鎖等,0,2022-01-19,2022-01-13,株式会社マーメイド,,株式会社,愛知県,豊橋市,明海町３番地５３,,23,201,4418074,,,2022-01-13,清算の結了等,,,2021-09-28,1,,,,,マーメイド,0
3054,8200001003949,登記記録の閉鎖等,0,2022-01-19,2022-01-18,株式会社成原ビル,,株式会社,岐阜県,岐阜市,宇佐２丁目１番１号,,21,201,5008368,,,2022-01-18,登記官による閉鎖,,,2015-10-05,1,,,,,,0
3055,8200001005193,登記記録の閉鎖等,0,2022-01-19,2022-01-18,株式会社みき,,株式会社,岐阜県,岐阜市,長良３丁目２番地,,21,201,5020081,,,2022-01-18,登記官による閉鎖,,,2015-10-05,1,,,,,,0
3056,8200001017197,登記記録の閉鎖等,0,2022-01-19,2022-01-18,中濃窯業株式会社,,株式会社,岐阜県,美濃加茂市,本郷町９丁目１８番３７号,,21,211,5050027,,,2022-01-18,登記官による閉鎖,,,2015-10-05,1,,,,,,0
3058,8200001018864,登記記録の閉鎖等,0,2022-01-19,2022-01-18,株式会社Ｂトレンド,,株式会社,岐阜県,可児市,広見１６４９番地１,,21,214,5090214,,,2022-01-18,登記官による閉鎖,,,2015-10-05,1,,,,,,0
3061,8200002000714,登記記録の閉鎖等,0,2022-01-19,2022-01-18,有限会社エムプランニング,,有限会社,岐阜県,岐阜市,加納本町６丁目２３番地,,21,201,5008474,,,2022-01-18,登記官による閉鎖,,,2015-10-05,1,,,,,,0
3062,8200002000788,登記記録の閉鎖等,0,2022-01-19,2022-01-18,有限会社大西企画,,有限会社,岐阜県,岐阜市,加納三笠町２丁目１９番地,,21,201,5008467,,,2022-01-18,登記官による閉鎖,,,2015-10-05,1,,,,,,0
3063,8200002003510,登記記録の閉鎖等,0,2022-01-19,2022-01-18,日産建設有限会社,,有限会社,岐阜県,岐阜市,福光南町２番１３号,,21,201,5020815,,,2022-01-18,登記官による閉鎖,,,2015-10-05,1,,,,,,0
3064,8200002012429,登記記録の閉鎖等,0,2022-01-19,2022-01-18,有限会社大垣観光,,有限会社,岐阜県,大垣市,安井町７丁目５番地の２,,21,202,5030837,,,2022-01-18,登記官による閉鎖,,,2016-12-14,1,,,,,,0
3065,8200002018310,登記記録の閉鎖等,0,2022-01-19,2022-01-18,有限会社オフイスケイ,,有限会社,岐阜県,可児市,広見４丁目９番地セピアコート可児Ａ－１０１,,21,214,5090214,,,2022-01-18,登記官による閉鎖,,,2015-10-05,1,,,,,,0
3066,8200002024787,登記記録の閉鎖等,0,2022-01-19,2022-01-18,心情治療院有限会社,,有限会社,岐阜県,中津川市,八幡町３番６７号,,21,206,5080043,,,2022-01-18,登記官による閉鎖,,,2015-10-05,1,,,,,,0
3067,8200002026057,登記記録の閉鎖等,0,2022-01-19,2022-01-18,有限会社もんぶらん観光,,有限会社,岐阜県,高山市,緑ケ丘町１丁目２５番地の２,,21,203,5060056,,,2022-01-18,登記官による閉鎖,,,2015-10-05,1,,,,,,0
3079,8290001072382,登記記録の閉鎖等,0,2022-01-19,2022-01-13,Ｂｅｌｄｅｌｉｃｅ株式会社,,株式会社,福岡県,福岡市博多区,築港本町１３番６号,,40,132,8120021,,,2022-01-13,清算の結了等,,,2015-12-25,1,,,,,ベルデリース,0
3099,8320001004167,登記記録の閉鎖等,0,2022-01-19,2022-01-19,平成建設株式会社,,株式会社,大分県,大分市,末広町２丁目１０番２２号,,44,201,8700027,,,2022-01-19,登記官による閉鎖,,,2015-10-05,1,,,,,,0
3100,8320001006452,登記記録の閉鎖等,0,2022-01-19,2022-01-19,株式会社日政建設,,株式会社,大分県,別府市,船小路町２７番地,,44,202,8740922,,,2022-01-19,登記官による閉鎖,,,2015-10-05,1,,,,,,0
3101,8320001006964,登記記録の閉鎖等,0,2022-01-19,2022-01-19,泉都土地建物株式会社,,株式会社,大分県,別府市,大字南石垣１５１８番地の１０５,,44,202,8740000,,,2022-01-19,登記官による閉鎖,,,2015-10-05,1,,,,,,0
3104,8320002002731,登記記録の閉鎖等,0,2022-01-19,2022-01-19,有限会社近藤電設,,有限会社,大分県,大分市,大字片島１０１３番地の１,,44,201,8700943,,,2022-01-19,登記官による閉鎖,,,2015-10-05,1,,,,,,0
3105,8320002008745,登記記録の閉鎖等,0,2022-01-19,2022-01-19,有限会社ビリーフ,,有限会社,大分県,大分市,都町２丁目６番１６号第２尾野ビル,,44,201,8700034,,,2022-01-19,登記官による閉鎖,,,2015-10-05,1,,,,,,0
3106,8320002009776,登記記録の閉鎖等,0,2022-01-19,2022-01-19,有限会社浜田建設,,有限会社,大分県,大分市,大字上宗方６１２番地の６２,,44,201,8701152,,,2022-01-19,登記官による閉鎖,,,2015-10-05,1,,,,,,0
3108,8320005002340,登記記録の閉鎖等,0,2022-01-19,2022-01-19,大分事業サポート協同組合,,その他の設立登記法人,大分県,大分市,新貝７番２９号,,44,201,8700911,,,2022-01-19,登記官による閉鎖,,,2015-10-05,1,,,,,,0
3109,8320005003256,登記記録の閉鎖等,0,2022-01-19,2022-01-19,財団法人高森保育園,,その他の設立登記法人,大分県,宇佐市,大字高森１０４８番地の１,,44,211,8720101,,,2022-01-19,登記官による閉鎖,,,2015-10-05,1,,,,,,0
3110,8320005007505,登記記録の閉鎖等,0,2022-01-19,2022-01-19,日田情報通信協同組合,,その他の設立登記法人,大分県,日田市,中城町３番５７号,,44,204,8770011,,,2022-01-19,登記官による閉鎖,,,2015-10-05,1,,,,,,0
3111,8320005007967,登記記録の閉鎖等,0,2022-01-19,2022-01-19,農事組合法人鎌城北部酪農共同農場,,その他の設立登記法人,大分県,中津市,耶馬溪町大字金吉５１７４番地３２９,,44,203,8710432,,,2022-01-19,登記官による閉鎖,,,2015-10-05,1,,,,,,0
3116,8360002000401,登記記録の閉鎖等,0,2022-01-19,2022-01-13,有限会社至技研,,有限会社,沖縄県,那覇市,首里石嶺町２丁目３６番地の１マザキ首里２号館３０１号室,,47,201,9030804,,,2022-01-13,清算の結了等,,,2015-10-05,1,,,,,イタルギケン,0
3118,8370001043078,登記記録の閉鎖等,0,2022-01-19,2022-01-14,株式会社ＵＹＰ,,株式会社,宮城県,仙台市青葉区,一番町２丁目６番１６号,,04,101,9800811,,,2022-01-14,清算の結了等,,,2018-05-24,1,,,,,,0
3133,8410001004521,登記記録の閉鎖等,0,2022-01-19,2022-01-18,株式会社千乃恵,,株式会社,秋田県,秋田市,仁井田字大野１７４番地３,,05,201,0101423,,,2022-01-18,登記官による閉鎖,,,2015-10-05,1,,,,,,0
3134,8410001007631,登記記録の閉鎖等,0,2022-01-19,2022-01-18,株式会社タカ鉄工,,株式会社,秋田県,能代市,磐字杉沢野６７番地１,,05,202,0160017,,,2022-01-18,登記官による閉鎖,,,2015-10-05,1,,,,,,0
3135,8410002009445,登記記録の閉鎖等,0,2022-01-19,2022-01-18,有限会社鷹巣観光苑,,有限会社,秋田県,北秋田市,脇神字石ノ巻岱３９５番地,,05,213,0183454,,,2022-01-18,登記官による閉鎖,,,2015-10-05,1,,,,,,0
3136,8410003002928,登記記録の閉鎖等,0,2022-01-19,2022-01-18,冨木合名会社,,合名会社,秋田県,仙北市,田沢湖小松字羽根ヶ台２２３番地の１１,,05,215,0141115,,,2022-01-18,登記官による閉鎖,,,2015-10-05,1,,,,,,0
3147,8470002014464,登記記録の閉鎖等,0,2022-01-19,2022-01-17,有限会社山下工務店,,有限会社,香川県,丸亀市,土器町西８丁目２８６番地,,37,202,7630081,,,2022-01-17,清算の結了等,,,2015-10-05,1,,,,,ヤマシタコウムテン,0
3150,8470005003299,登記記録の閉鎖等,0,2022-01-19,2022-01-18,香川中央液化石油ガス保安事業協同組合,,その他の設立登記法人,香川県,丸亀市,綾歌町岡田西１９２１番地,,37,202,7612403,,,2022-01-18,清算の結了等,,,2015-10-05,1,,,,,カガワチュウオウエキカセキユガスホアン,0
3164,9010001137773,登記記録の閉鎖等,0,2022-01-19,2022-01-12,株式会社日本エコルート,,株式会社,東京都,中央区,日本橋小伝馬町１６番８号,,13,102,1030001,,,2022-01-12,清算の結了等,,,2015-10-05,1,,,,,ニホンエコルート,0
3181,9010005007205,登記記録の閉鎖等,0,2022-01-19,2022-01-14,特定非営利活動法人プロネット２１,,その他の設立登記法人,東京都,千代田区,麹町４丁目２番地,,13,101,1020083,,,2022-01-14,清算の結了等,,,2015-10-05,1,,,,,プロネットニジュウイチ,0
3182,9010005032070,登記記録の閉鎖等,0,2022-01-19,2022-01-14,税理士法人天星,,その他の設立登記法人,東京都,千代田区,三番町７番地１３,,13,101,1020075,,,2022-01-14,清算の結了等,,,2020-07-29,1,,,,,テンセイ,0
3185,9010101003000,登記記録の閉鎖等,0,2022-01-19,2022-01-17,ニット工業株式会社,,株式会社,東京都,八王子市,東浅川町５６０番地の１,,13,201,1930834,,,2022-01-17,清算の結了等,,,2015-10-05,1,,,,,ニットコウギョウ,0
3187,9010401083262,登記記録の閉鎖等,0,2022-01-19,2022-01-17,ラピード株式会社,,株式会社,神奈川県,横浜市西区,みなとみらい４丁目７番１－１００８号,,14,103,2200012,,,2022-01-17,清算の結了等,,,2015-10-05,1,,,,,ラピード,0
3201,9011001041742,登記記録の閉鎖等,0,2022-01-19,2021-12-13,ヴィビットインタラクティヴ株式会社,,株式会社,東京都,港区,三田３丁目１３番１６号,,13,103,1080073,,,2021-12-13,合併による解散等,1010401052638,令和３年１２月９日東京都港区三田三丁目１３番１６号株式会社シャノン（1010401052638）に合併し解散,2015-10-05,1,,,,,ヴィビットインタラクティヴ,0
3204,9011001061641,登記記録の閉鎖等,0,2022-01-19,2022-01-14,株式会社ネットアソシエイツ,,株式会社,東京都,千代田区,麹町３丁目３番麹町スクエアビル６Ｆ,,13,101,1020083,,,2022-01-14,清算の結了等,,,2015-10-05,1,,,,,ネットアソシエイツ,0
3253,9020001088751,登記記録の閉鎖等,0,2022-01-19,2022-01-14,株式会社全創,,株式会社,神奈川県,川崎市宮前区,土橋３丁目１６番地１０,,14,136,2160005,,,2022-01-14,清算の結了等,,,2015-10-05,1,,,,,ゼンソウ,0
3257,9021001014656,登記記録の閉鎖等,0,2022-01-19,2022-01-14,サクサプロアシスト株式会社,,株式会社,神奈川県,相模原市中央区,宮下３丁目１４番１５号,,14,152,2520212,,,2022-01-14,合併による解散等,1390001009967,令和４年１月４日山形県米沢市八幡原四丁目３１４６番地の１３サクサテクノ株式会社（1390001009967）に合併し解散,2015-10-05,1,,,,,サクサプロアシスト,0
3281,9040001025026,登記記録の閉鎖等,0,2022-01-19,2022-01-11,株式会社Ａｌｃｈｅｍｉｓｔ,,株式会社,千葉県,千葉市中央区,本町１丁目６番５号,,12,101,2600012,,,2022-01-11,清算の結了等,,,2015-10-05,1,,,,,アルケミスト,0
3286,9040002058421,登記記録の閉鎖等,0,2022-01-19,2022-01-12,有限会社吉岡装美,,有限会社,千葉県,印西市,小林北５丁目６番地１４,,12,231,2701313,,,2022-01-12,清算の結了等,,,2015-10-05,1,,,,,ヨシオカソウビ,0
3291,9050001001959,登記記録の閉鎖等,0,2022-01-19,2022-01-17,日本国土産業株式会社,,株式会社,茨城県,水戸市,酒門町西割４４８２番地１０,,08,201,3100841,,,2022-01-17,登記官による閉鎖,,,2015-10-05,1,,,,,,0
3292,9050001007782,登記記録の閉鎖等,0,2022-01-19,2022-01-17,マル寛水産株式会社,,株式会社,茨城県,東茨城郡大洗町,磯浜町８６６番地の１,,08,309,3111301,,,2022-01-17,登記官による閉鎖,,,2015-10-05,1,,,,,,0
3293,9050001008533,登記記録の閉鎖等,0,2022-01-19,2022-01-17,株式会社エムワイ企画,,株式会社,茨城県,ひたちなか市,大字東石川３３７８番地１６,,08,221,3120052,,,2022-01-17,登記官による閉鎖,,,2015-10-05,1,,,,,,0
3296,9050001025669,登記記録の閉鎖等,0,2022-01-19,2022-01-17,株式会社トーホー,,株式会社,茨城県,稲敷市,西代３０３番地の４,,08,229,3000726,,,2022-01-17,登記官による閉鎖,,,2015-10-05,1,,,,,,0
3297,9050001030438,登記記録の閉鎖等,0,2022-01-19,2022-01-17,ＧＨインターナショナル株式会社,,株式会社,茨城県,守谷市,松ケ丘６丁目１９番地１４,,08,224,3020127,,,2022-01-17,登記官による閉鎖,,,2015-10-05,1,,,,,,0
3303,9050002004250,登記記録の閉鎖等,0,2022-01-19,2022-01-17,有限会社アーヘーアーヘー,,有限会社,茨城県,水戸市,姫子２丁目３５２番地１７,,08,201,3114151,,,2022-01-17,登記官による閉鎖,,,2015-10-05,1,,,,,,0
3304,9050002009729,登記記録の閉鎖等,0,2022-01-19,2022-01-17,有限会社寛兵衛商店飯岡屋,,有限会社,茨城県,東茨城郡大洗町,磯浜町８６６番地２,,08,309,3111301,,,2022-01-17,登記官による閉鎖,,,2015-10-05,1,,,,,,0
3305,9050002011973,登記記録の閉鎖等,0,2022-01-19,2022-01-17,有限会社トップ衣料縫製工業,,有限会社,茨城県,土浦市,烏山４丁目１９２２番地の４,,08,203,3000836,,,2022-01-17,登記官による閉鎖,,,2015-10-05,1,,,,,,0
3306,9050002012311,登記記録の閉鎖等,0,2022-01-19,2022-01-17,有限会社三村青写真,,有限会社,茨城県,土浦市,大手町２番５号,,08,203,3000044,,,2022-01-17,登記官による閉鎖,,,2015-10-05,1,,,,,,0
3307,9050002012419,登記記録の閉鎖等,0,2022-01-19,2022-01-17,有限会社ユニオンハウジング,,有限会社,茨城県,土浦市,富士崎１丁目１６番３号,,08,203,3000813,,,2022-01-17,登記官による閉鎖,,,2015-10-05,1,,,,,,0
3308,9050002020421,登記記録の閉鎖等,0,2022-01-19,2022-01-17,有限会社ウイズ,,有限会社,茨城県,坂東市,弓田２５２４番地１,,08,228,3060607,,,2022-01-17,登記官による閉鎖,,,2015-10-05,1,,,,,,0
3309,9050002024694,登記記録の閉鎖等,0,2022-01-19,2022-01-17,有限会社たいこ茶屋,,有限会社,茨城県,古河市,上辺見２６０１番地,,08,204,3060234,,,2022-01-17,登記官による閉鎖,,,2015-10-05,1,,,,,,0
3310,9050002028786,登記記録の閉鎖等,0,2022-01-19,2022-01-17,有限会社高橋産業,,有限会社,茨城県,行方市,根小屋２３０番地１,,08,233,3113825,,,2022-01-17,登記官による閉鎖,,,2015-10-05,1,,,,,,0
3311,9050002031906,登記記録の閉鎖等,0,2022-01-19,2022-01-17,有限会社大同不動産,,有限会社,茨城県,日立市,東多賀町４丁目１０番２８号,,08,202,3160004,,,2022-01-17,登記官による閉鎖,,,2015-10-05,1,,,,,,0
3312,9050002032631,登記記録の閉鎖等,0,2022-01-19,2022-01-17,丸重運送有限会社,,有限会社,茨城県,北茨城市,関南町仁井田３番地の１,,08,215,3191713,,,2022-01-17,登記官による閉鎖,,,2015-10-05,1,,,,,,0
3313,9050003002030,登記記録の閉鎖等,0,2022-01-19,2022-01-17,合資会社下館商會,,合資会社,茨城県,筑西市,丙２０６番地,,08,227,3080031,,,2022-01-17,登記官による閉鎖,,,2015-10-05,1,,,,,,0
3315,9060001029529,登記記録の閉鎖等,0,2022-01-19,2022-01-11,ケイアイネットリアルティ２ｎｄ株式会社,,株式会社,栃木県,宇都宮市,西川田町５０番地１,,09,201,3210151,,,2022-01-11,合併による解散等,5070001033624,令和４年１月１日群馬県高崎市上中居町１７２７番地ケイアイネットリアルティ株式会社（5070001033624）に合併し解散,2017-06-22,1,,,,,ケイアイネットリアルティセカンド,0
3317,9060002021823,登記記録の閉鎖等,0,2022-01-19,2022-01-11,有限会社愛月堂本舗,,有限会社,栃木県,那須塩原市,大原間１５５番地２,,09,213,3293153,,,2022-01-11,合併による解散等,1180002078529,令和４年１月１日愛知県一宮市木曽川町黒田字北宿三の切８６番地の１株式会社オリジナルあい（1180002078529）に合併し解散,2015-10-05,1,,,,,アイゲツドウホンポ,0
3321,9070002013968,登記記録の閉鎖等,0,2022-01-19,2022-01-17,有限会社ヒラバヤシ,,有限会社,群馬県,高崎市,引間町２１４番地１,,10,202,3703517,,,2022-01-17,清算の結了等,,,2015-10-05,1,,,,,ヒラバヤシ,0
3325,9080001011674,登記記録の閉鎖等,0,2022-01-19,2022-01-19,株式会社山下ケース,,株式会社,静岡県,静岡市駿河区,中島４６番地の５６,,22,102,4228046,,,2022-01-19,登記官による閉鎖,,,2015-10-05,1,,,,,,0
3326,9080001012078,登記記録の閉鎖等,0,2022-01-19,2022-01-19,株式会社ビトコーポレーション,,株式会社,静岡県,静岡市葵区,両替町２丁目４番地の１０,,22,101,4200032,,,2022-01-19,登記官による閉鎖,,,2015-10-05,1,,,,,,0
3328,9080002004297,登記記録の閉鎖等,0,2022-01-19,2022-01-19,有限会社ながくら装木,,有限会社,静岡県,静岡市葵区,安倍口新田４５８番地の１１,,22,101,4212114,,,2022-01-19,登記官による閉鎖,,,2015-10-05,1,,,,,,0
3329,9080002012886,登記記録の閉鎖等,0,2022-01-19,2022-01-19,有限会社ミック,,有限会社,静岡県,静岡市葵区,北沼上９２５番地,,22,101,4200901,,,2022-01-19,登記官による閉鎖,,,2015-10-05,1,,,,,,0
3331,9080005000681,登記記録の閉鎖等,0,2022-01-19,2022-01-19,社団法人静岡県魚市場協会,,その他の設立登記法人,静岡県,静岡市葵区,流通センター１番１号魚市静岡魚市（株）内,,22,101,4200922,,,2022-01-19,登記官による閉鎖,,,2015-10-05,1,,,,,,0
3332,9080005004352,登記記録の閉鎖等,0,2022-01-19,2022-01-19,すんぷ行政書士法人,,その他の設立登記法人,静岡県,静岡市葵区,東草深町１４番７号,,22,101,4200865,,,2022-01-19,登記官による閉鎖,,,2015-10-05,1,,,,,,0
3333,9080005006043,登記記録の閉鎖等,0,2022-01-19,2022-01-19,特定非営利活動法人志太生ゴミ堆肥研究会,,その他の設立登記法人,静岡県,藤枝市,瀬戸ノ谷１２８３７番地の１,,22,214,4260131,,,2022-01-19,登記官による閉鎖,,,2015-10-05,1,,,,,,0
3334,9080101002004,登記記録の閉鎖等,0,2022-01-19,2022-01-19,株式会社ワコスジャパン,,株式会社,静岡県,沼津市,岡宮８９０番地の１,,22,203,4100011,,,2022-01-19,登記官による閉鎖,,,2015-10-05,1,,,,,,0
3335,9080101009148,登記記録の閉鎖等,0,2022-01-19,2022-01-19,東邦商事株式会社,,株式会社,静岡県,富士市,依田橋町９番４６号,,22,210,4170003,,,2022-01-19,登記官による閉鎖,,,2017-01-30,1,,,,,,0
3336,9080101011095,登記記録の閉鎖等,0,2022-01-19,2022-01-19,株式会社アンソニー,,株式会社,静岡県,富士市,富士町８番１号栄ビル２階,,22,210,4160915,,,2022-01-19,登記官による閉鎖,,,2015-10-05,1,,,,,,0
3337,9080101013001,登記記録の閉鎖等,0,2022-01-19,2022-01-19,株式会社玉進楼,,株式会社,静岡県,熱海市,小嵐町１４番８号,,22,205,4130029,,,2022-01-19,登記官による閉鎖,,,2015-10-05,1,,,,,,0
3340,9080102006805,登記記録の閉鎖等,0,2022-01-19,2022-01-19,有限会社カメラの光堂,,有限会社,静岡県,御殿場市,川島田６４４番地,,22,215,4120045,,,2022-01-19,登記官による閉鎖,,,2015-10-05,1,,,,,,0
3341,9080102014394,登記記録の閉鎖等,0,2022-01-19,2022-01-19,有限会社高野食品,,有限会社,静岡県,富士市,松岡１７３番地,,22,210,4160909,,,2022-01-19,登記官による閉鎖,,,2015-10-05,1,,,,,,0
3342,9080102015426,登記記録の閉鎖等,0,2022-01-19,2022-01-19,渡辺産業有限会社,,有限会社,静岡県,富士市,平垣町６番３２号,,22,210,4160918,,,2022-01-19,登記官による閉鎖,,,2015-10-05,1,,,,,,0
3343,9080102020789,登記記録の閉鎖等,0,2022-01-19,2022-01-19,有限会社チェリー,,有限会社,静岡県,熱海市,咲見町４番２１－６１５号,,22,205,4130019,,,2022-01-19,登記官による閉鎖,,,2015-10-05,1,,,,,,0
3344,9080105001456,登記記録の閉鎖等,0,2022-01-19,2022-01-19,北駿種苗農業協同組合,,その他の設立登記法人,静岡県,御殿場市,萩原６７５番地の１,,22,215,4120042,,,2022-01-19,登記官による閉鎖,,,2015-10-05,1,,,,,,0
3345,9080401000137,登記記録の閉鎖等,0,2022-01-19,2022-01-19,株式会社アクテイー・ケイ,,株式会社,静岡県,浜松市中区,高丘北１丁目３６番１３号,,22,131,4338119,,,2022-01-19,登記官による閉鎖,,,2015-10-05,1,,,,,,0
3346,9080401004484,登記記録の閉鎖等,0,2022-01-19,2022-01-19,株式会社ビーエム,,株式会社,静岡県,浜松市西区,志都呂町３００番地の３３５,,22,133,4328066,,,2022-01-19,登記官による閉鎖,,,2015-10-05,1,,,,,,0
3347,9080401011027,登記記録の閉鎖等,0,2022-01-19,2022-01-19,株式会社エヌテック,,株式会社,静岡県,浜松市西区,入野町１６１０１番地の５,,22,133,4328061,,,2022-01-19,登記官による閉鎖,,,2015-10-05,1,,,,,,0
3348,9080402001753,登記記録の閉鎖等,0,2022-01-19,2022-01-19,有限会社小笠原商店,,有限会社,静岡県,浜松市中区,中央３丁目２番７号,,22,131,4300929,,,2022-01-19,登記官による閉鎖,,,2015-10-05,1,,,,,,0
3349,9080402005671,登記記録の閉鎖等,0,2022-01-19,2022-01-19,有限会社中川熔接,,有限会社,静岡県,浜松市中区,佐鳴台６丁目１７番１号,,22,131,4328021,,,2022-01-19,登記官による閉鎖,,,2015-10-05,1,,,,,,0
3350,9080402008435,登記記録の閉鎖等,0,2022-01-19,2022-01-19,有限会社山表内装,,有限会社,静岡県,浜松市南区,松島町１７４番地,,22,134,4300834,,,2022-01-19,登記官による閉鎖,,,2015-10-05,1,,,,,,0
3351,9080402013880,登記記録の閉鎖等,0,2022-01-19,2022-01-19,有限会社ＨＣＲカンパニー,,有限会社,静岡県,浜松市中区,富塚町３２８番地,00080126,22,131,4328002,,,2022-01-19,登記官による閉鎖,,,2015-10-05,1,,,,,,0
3352,9080402021644,登記記録の閉鎖等,0,2022-01-19,2022-01-19,有限会社タウンホテル松乃,,有限会社,静岡県,袋井市,高尾町６番地の１,,22,216,4370027,,,2022-01-19,登記官による閉鎖,,,2015-10-05,1,,,,,,0
3361,9120001167628,登記記録の閉鎖等,0,2022-01-19,2022-01-13,株式会社ＪＹＵＮＣＡＮ,,株式会社,大阪府,大阪市中央区,南本町３丁目４番７号,,27,128,5410054,,,2022-01-13,清算の結了等,,,2015-10-05,1,,,,,,0
3371,9120003016683,登記記録の閉鎖等,0,2022-01-19,2022-01-14,合同会社サード,,合同会社,大阪府,大阪市中央区,今橋２丁目５番８号,,27,128,5410042,,,2022-01-14,清算の結了等,,,2019-12-11,1,,,,,サード,0
3376,9120101056301,登記記録の閉鎖等,0,2022-01-19,2022-01-12,エア・ウォーター・マニュファクチュアリング株式会社,,株式会社,大阪府,堺市西区,築港新町２丁６番４０,,27,144,5928331,,,2022-01-12,合併による解散等,4120101009957,令和４年１月１日大阪府堺市西区築港新町二丁６番４０エア・ウォーター・プラントエンジニアリング株式会社（4120101009957）に合併し解散,2017-04-11,1,,,,,エアウォーターマニュファクチュアリング,0
3379,9122001026103,登記記録の閉鎖等,0,2022-01-19,2022-01-17,株式会社Ｈ,,株式会社,大阪府,東大阪市,角田２丁目９番３９号,,27,227,5780912,,,2022-01-17,清算の結了等,,,2015-10-05,1,,,,,,0
3406,9180001000709,登記記録の閉鎖等,0,2022-01-19,2022-01-19,不二プランニング株式会社,,株式会社,愛知県,名古屋市昭和区,天神町１丁目１７番地,,23,107,4660032,,,2022-01-19,登記官による閉鎖,,,2015-10-05,1,,,,,,0
3407,9180001012183,登記記録の閉鎖等,0,2022-01-19,2022-01-19,三協工業株式会社,,株式会社,愛知県,名古屋市北区,東長田町３丁目３２番地,,23,103,4620827,,,2022-01-19,登記官による閉鎖,,,2015-10-05,1,,,,,,0
3408,9180001018668,登記記録の閉鎖等,0,2022-01-19,2022-01-19,株式会社若原商店,,株式会社,愛知県,名古屋市東区,出来町１丁目９番１号,,23,102,4610032,,,2022-01-19,登記官による閉鎖,,,2015-10-05,1,,,,,,0
3409,9180001031514,登記記録の閉鎖等,0,2022-01-19,2022-01-19,トーカイエレクトロニクス株式会社,,株式会社,愛知県,名古屋市中村区,則武１丁目１番１号,,23,105,4530014,,,2022-01-19,登記官による閉鎖,,,2015-10-05,1,,,,,,0
3410,9180001036166,登記記録の閉鎖等,0,2022-01-19,2022-01-19,株式会社三和住建,,株式会社,愛知県,名古屋市中区,千代田５丁目２１番１号,,23,106,4600012,,,2022-01-19,登記官による閉鎖,,,2015-10-05,1,,,,,,0
3411,9180001056627,登記記録の閉鎖等,0,2022-01-19,2022-01-19,オーシャンエイト株式会社,,株式会社,愛知県,名古屋市東区,葵３丁目２４番２号,,23,102,4610004,,,2022-01-19,登記官による閉鎖,,,2015-10-05,1,,,,,,0
3412,9180001058350,登記記録の閉鎖等,0,2022-01-19,2022-01-19,アクキャル株式会社,,株式会社,愛知県,名古屋市中区,丸の内２丁目１４番３２号ライオンズシティ丸の内１３０２号,,23,106,4600002,,,2022-01-19,登記官による閉鎖,,,2015-10-05,1,,,,,,0
3413,9180001061908,登記記録の閉鎖等,0,2022-01-19,2022-01-19,ザ・ショップ株式会社,,株式会社,愛知県,名古屋市千種区,井上町７８番地,,23,101,4640026,,,2022-01-19,登記官による閉鎖,,,2015-10-05,1,,,,,,0
3415,9180001064324,登記記録の閉鎖等,0,2022-01-19,2022-01-19,株式会社ＣＡＯ,,株式会社,愛知県,名古屋市中区,栄２丁目５番１７号,,23,106,4600008,,,2022-01-19,登記官による閉鎖,,,2015-10-05,1,,,,,,0
3416,9180001064398,登記記録の閉鎖等,0,2022-01-19,2022-01-19,オークラ産業株式会社,,株式会社,愛知県,名古屋市中村区,名駅４丁目３番１０号,,23,105,4500002,,,2022-01-19,登記官による閉鎖,,,2015-10-05,1,,,,,,0
3417,9180001065396,登記記録の閉鎖等,0,2022-01-19,2022-01-19,株式会社政和,,株式会社,愛知県,名古屋市緑区,兵庫１丁目４３１番地,,23,114,4580802,,,2022-01-19,登記官による閉鎖,,,2015-10-05,1,,,,,,0
3418,9180001066551,登記記録の閉鎖等,0,2022-01-19,2022-01-14,株式会社Ｇｏｆｕｎ,,株式会社,愛知県,名古屋市東区,徳川１丁目９０１番地,,23,102,4610025,,,2022-01-14,合併による解散等,2180002039447,令和３年１２月３１日名古屋市名東区香流一丁目１５１１番地株式会社ＮＡＴｉＯＮ．（2180002039447）に合併し解散,2015-10-05,1,,,,,ゴーファン,0
3419,9180001070743,登記記録の閉鎖等,0,2022-01-19,2022-01-19,株式会社Ａ　ｓｐｅｅｄ,,株式会社,愛知県,名古屋市東区,葵１丁目１６番１３号,,23,102,4610004,,,2022-01-19,登記官による閉鎖,,,2015-10-05,1,,,,,,0
3420,9180001077846,登記記録の閉鎖等,0,2022-01-19,2022-01-19,株式会社Ｍ＆Ｉ　ＴＲＡＮＳＰＯＲＴ,,株式会社,愛知県,春日井市,高山町２丁目３１番地１,,23,206,4860912,,,2022-01-19,登記官による閉鎖,,,2015-10-05,1,,,,,,0
3421,9180001080486,登記記録の閉鎖等,0,2022-01-19,2022-01-19,株式会社サクセス,,株式会社,愛知県,瀬戸市,西松山町４丁目１番地ライオンズマンション新瀬戸Ｂ－１－１６,,23,204,4890912,,,2022-01-19,登記官による閉鎖,,,2015-10-05,1,,,,,,0
3422,9180001086434,登記記録の閉鎖等,0,2022-01-19,2022-01-19,株式会社ケイプラン,,株式会社,愛知県,一宮市,平島１丁目１５番１－９０１号,,23,203,4910833,,,2022-01-19,登記官による閉鎖,,,2015-10-05,1,,,,,,0
3423,9180001087333,登記記録の閉鎖等,0,2022-01-19,2022-01-19,株式会社愛北設備サービス,,株式会社,愛知県,江南市,木賀東町新塚４５番地,,23,217,4838164,,,2022-01-19,登記官による閉鎖,,,2015-10-05,1,,,,,,0
3425,9180001089437,登記記録の閉鎖等,0,2022-01-19,2022-01-19,株式会社Ａ．ｐｌｕｓ,,株式会社,愛知県,名古屋市中区,新栄２丁目４番５号東和パークビル９Ｆ,,23,106,4600007,,,2022-01-19,登記官による閉鎖,,,2015-10-05,1,,,,,,0
3426,9180001090056,登記記録の閉鎖等,0,2022-01-19,2022-01-19,アイネット株式会社,,株式会社,愛知県,名古屋市緑区,神の倉２丁目４２７番地,,23,114,4580812,,,2022-01-19,登記官による閉鎖,,,2015-10-05,1,,,,,,0
3427,9180001099329,登記記録の閉鎖等,0,2022-01-19,2022-01-19,ＫＮテック株式会社,,株式会社,愛知県,愛西市,山路町東野方４３番地１,,23,232,4960942,,,2022-01-19,登記官による閉鎖,,,2015-10-05,1,,,,,,0
3428,9180001099510,登記記録の閉鎖等,0,2022-01-19,2022-01-19,株式会社シェレフ,,株式会社,愛知県,あま市,七宝町川部出屋敷１４番地,,23,237,4970013,,,2022-01-19,登記官による閉鎖,,,2015-10-05,1,,,,,,0
3430,9180001115721,登記記録の閉鎖等,0,2022-01-19,2022-01-13,株式会社幸豊,,株式会社,愛知県,名古屋市中村区,宿跡町２丁目８０番地,,23,105,4530067,,,2022-01-13,清算の結了等,,,2015-10-05,1,,,,,,0
3436,9180002005467,登記記録の閉鎖等,0,2022-01-19,2022-01-19,有限会社モモタ電機,,有限会社,愛知県,名古屋市千種区,光が丘２丁目１４番１９号,,23,101,4640006,,,2022-01-19,登記官による閉鎖,,,2015-10-05,1,,,,,,0
3437,9180002014047,登記記録の閉鎖等,0,2022-01-19,2022-01-19,有限会社センダ企画,,有限会社,愛知県,名古屋市南区,豊１丁目１８番１６号,,23,112,4570863,,,2022-01-19,登記官による閉鎖,,,2015-10-05,1,,,,,,0
3438,9180002017842,登記記録の閉鎖等,0,2022-01-19,2022-01-19,有限会社木村商会,,有限会社,愛知県,名古屋市中川区,服部２丁目３１０番地,,23,110,4540976,,,2022-01-19,登記官による閉鎖,,,2015-10-05,1,,,,,,0
3439,9180002018824,登記記録の閉鎖等,0,2022-01-19,2022-01-19,有限会社中一工業,,有限会社,愛知県,名古屋市中川区,高畑５丁目６８番地,,23,110,4540911,,,2022-01-19,登記官による閉鎖,,,2015-10-05,1,,,,,,0
3440,9180002040927,登記記録の閉鎖等,0,2022-01-19,2022-01-19,有限会社後藤石油,,有限会社,愛知県,北名古屋市,中之郷諏訪２５番地,,23,234,4810045,,,2022-01-19,登記官による閉鎖,,,2015-10-05,1,,,,,,0
3441,9180002061948,登記記録の閉鎖等,0,2022-01-19,2022-01-19,有限会社石原自動車,,有限会社,愛知県,日進市,米野木町北山１番地の３９,,23,230,4700111,,,2022-01-19,登記官による閉鎖,,,2015-10-05,1,,,,,,0
3442,9180002063366,登記記録の閉鎖等,0,2022-01-19,2022-01-19,有限会社スタジオウィ,,有限会社,愛知県,長久手市,山越８２５番地,,23,238,4801111,,,2022-01-19,登記官による閉鎖,,,2015-10-05,1,,,,,,0
3443,9180002069066,登記記録の閉鎖等,0,2022-01-19,2022-01-19,有限会社佐藤商事,,有限会社,愛知県,小牧市,小木東２丁目２３６番地,,23,219,4850059,,,2022-01-19,登記官による閉鎖,,,2015-10-05,1,,,,,,0
3444,9180002069421,登記記録の閉鎖等,0,2022-01-19,2022-01-19,大幸工業有限会社,,有限会社,愛知県,小牧市,小牧４丁目５８９番地,,23,219,4850041,,,2022-01-19,登記官による閉鎖,,,2015-10-05,1,,,,,,0
3445,9180002074834,登記記録の閉鎖等,0,2022-01-19,2022-01-19,有限会社こきりこ,,有限会社,愛知県,犬山市,上坂町４丁目１６８番地,,23,215,4840059,,,2022-01-19,登記官による閉鎖,,,2015-10-05,1,,,,,,0
3447,9180002080551,登記記録の閉鎖等,0,2022-01-19,2022-01-19,有限会社カムイン,,有限会社,愛知県,稲沢市,井之口大坪町８０番地の２,,23,220,4928164,,,2022-01-19,登記官による閉鎖,,,2015-10-05,1,,,,,,0
3448,9180002082770,登記記録の閉鎖等,0,2022-01-19,2022-01-19,有限会社フィールドエンジニア,,有限会社,愛知県,江南市,高屋町清水１３７番地の７,,23,217,4838061,,,2022-01-19,登記官による閉鎖,,,2015-10-05,1,,,,,,0
3449,9180002091532,登記記録の閉鎖等,0,2022-01-19,2022-01-19,共栄工業有限会社,,有限会社,愛知県,あま市,甚目寺山王４番地,,23,237,4901111,,,2022-01-19,登記官による閉鎖,,,2015-10-05,1,,,,,,0
3450,9180003012520,登記記録の閉鎖等,0,2022-01-19,2022-01-19,合同会社ケイティエヌズコーポレーション,,合同会社,愛知県,名古屋市中村区,高道町６丁目２番１８号,,23,105,4530037,,,2022-01-19,登記官による閉鎖,,,2015-10-05,1,,,,,,0
3451,9180003013477,登記記録の閉鎖等,0,2022-01-19,2022-01-19,合名会社魚良商店,,合名会社,愛知県,津島市,天王通り５丁目９番地,,23,208,4960807,,,2022-01-19,登記官による閉鎖,,,2015-10-05,1,,,,,,0
3453,9180005006999,登記記録の閉鎖等,0,2022-01-19,2022-01-19,特定非営利活動法人日本住宅環境検査機構,,その他の設立登記法人,愛知県,名古屋市北区,柳原１丁目１４番２２号,,23,103,4620845,,,2022-01-19,登記官による閉鎖,,,2015-10-05,1,,,,,,0
3464,9200001006645,登記記録の閉鎖等,0,2022-01-19,2022-01-18,株式会社原田建設,,株式会社,岐阜県,山県市,西深瀬９７５番地の１,,21,215,5012112,,,2022-01-18,登記官による閉鎖,,,2015-10-05,1,,,,,,0
3466,9200002002841,登記記録の閉鎖等,0,2022-01-19,2022-01-18,有限会社タカハラ,,有限会社,岐阜県,岐阜市,早田大通１丁目３０番地,,21,201,5020902,,,2022-01-18,登記官による閉鎖,,,2015-10-05,1,,,,,,0
3468,9200002007510,登記記録の閉鎖等,0,2022-01-19,2022-01-18,有限会社Ｉｓｍ,,有限会社,岐阜県,各務原市,鵜沼古市場町４丁目１９９番地の１,,21,213,5090133,,,2022-01-18,登記官による閉鎖,,,2015-10-05,1,,,,,,0
3469,9200002009606,登記記録の閉鎖等,0,2022-01-19,2022-01-18,有限会社玉置鉄工所,,有限会社,岐阜県,本巣市,神海９８６番地,,21,218,5011235,,,2022-01-18,登記官による閉鎖,,,2015-10-05,1,,,,,,0
3470,9200002011784,登記記録の閉鎖等,0,2022-01-19,2022-01-18,有限会社リョウワケイビサービス,,有限会社,岐阜県,羽島市,足近町１丁目９６番地の１,,21,209,5016207,,,2022-01-18,登記官による閉鎖,,,2015-10-05,1,,,,,,0
3471,9200002013368,登記記録の閉鎖等,0,2022-01-19,2022-01-18,有限会社石田タイル店,,有限会社,岐阜県,安八郡安八町,氷取１１０番地,,21,383,5030121,,,2022-01-18,登記官による閉鎖,,,2015-10-05,1,,,,,,0
3472,9200002018128,登記記録の閉鎖等,0,2022-01-19,2022-01-18,有限会社優羽,,有限会社,岐阜県,可児市,中恵土１６６８番地,,21,214,5090202,,,2022-01-18,登記官による閉鎖,,,2015-10-05,1,,,,,,0
3473,9200002018706,登記記録の閉鎖等,0,2022-01-19,2022-01-18,有限会社桜井浩刃物製作所,,有限会社,岐阜県,関市,稲河町１番１０号,,21,205,5013913,,,2022-01-18,登記官による閉鎖,,,2015-10-05,1,,,,,,0
3474,9200002018986,登記記録の閉鎖等,0,2022-01-19,2022-01-18,西部木工有限会社,,有限会社,岐阜県,関市,下之保９２５番地の２,,21,205,5013521,,,2022-01-18,登記官による閉鎖,,,2015-10-05,1,,,,,,0
3479,9240001028891,登記記録の閉鎖等,0,2022-01-19,2022-01-17,リード株式会社,,株式会社,広島県,廿日市市,下平良４５１番地６,,34,213,7380023,,,2022-01-17,清算の結了等,,,2015-10-05,1,,,,,リード,0
3485,9260002008825,登記記録の閉鎖等,0,2022-01-19,2022-01-17,有限会社ぶっかけ亭さいとう,,有限会社,岡山県,岡山市北区,田町１丁目２番７号,,33,101,7000825,,,2022-01-17,清算の結了等,,,2015-10-05,1,,,,,ブッカケテイサイトウ,0
3506,9300001008391,登記記録の閉鎖等,0,2022-01-19,2022-01-14,志岐多久倉庫株式会社,,株式会社,佐賀県,鳥栖市,元町１９２８－１ルネスミトウ２０１,,41,203,8410051,,,2022-01-14,清算の結了等,,,2015-10-05,1,,,,,シキタクソウコ,0
3511,9320001000636,登記記録の閉鎖等,0,2022-01-19,2022-01-19,株式会社エツチ・シー・エム化工,,株式会社,大分県,大分市,大字千歳１８２９番地の２８,,44,201,8700132,,,2022-01-19,登記官による閉鎖,,,2015-10-05,1,,,,,,0
3512,9320001005726,登記記録の閉鎖等,0,2022-01-19,2022-01-19,株式会社ＨＭＫ,,株式会社,大分県,大分市,高砂町１番３０－１００３号,,44,201,8700029,,,2022-01-19,登記官による閉鎖,,,2015-10-05,1,,,,,,0
3515,9320002008744,登記記録の閉鎖等,0,2022-01-19,2022-01-19,有限会社アフターユー,,有限会社,大分県,大分市,都町３丁目１番３０号尾崎ビル１階,,44,201,8700034,,,2022-01-19,登記官による閉鎖,,,2015-10-05,1,,,,,,0
3516,9320002009230,登記記録の閉鎖等,0,2022-01-19,2022-01-19,三立産業有限会社,,有限会社,大分県,大分市,大字北１０２６の４番地,,44,201,8700100,,,2022-01-19,登記官による閉鎖,,,2016-02-25,1,,,,,,0
3518,9320002013224,登記記録の閉鎖等,0,2022-01-19,2022-01-19,有限会社園田クレーン工業,,有限会社,大分県,別府市,大字南立石１００８番地の８,,44,202,8740000,,,2022-01-19,登記官による閉鎖,,,2015-10-05,1,,,,,,0
3519,9320002013819,登記記録の閉鎖等,0,2022-01-19,2022-01-19,有限会社辛嶋板金,,有限会社,大分県,宇佐市,大字上高５５５番地の２,,44,211,8790313,,,2022-01-19,登記官による閉鎖,,,2015-10-05,1,,,,,,0
3520,9320002014560,登記記録の閉鎖等,0,2022-01-19,2022-01-19,有限会社早田衣料,,有限会社,大分県,豊後高田市,呉崎５２０番地,,44,209,8790608,,,2022-01-19,登記官による閉鎖,,,2015-10-05,1,,,,,,0
3521,9320002015212,登記記録の閉鎖等,0,2022-01-19,2022-01-19,サンワ住研有限会社,,有限会社,大分県,国東市,安岐町山浦５３３番地,,44,214,8730206,,,2022-01-19,登記官による閉鎖,,,2015-10-05,1,,,,,,0
3522,9320002016879,登記記録の閉鎖等,0,2022-01-19,2022-01-19,成栄建設有限会社,,有限会社,大分県,佐伯市,上浦大字浅海井浦３５３８番地１,,44,205,8792601,,,2022-01-19,登記官による閉鎖,,,2015-10-05,1,,,,,,0
3523,9320002018842,登記記録の閉鎖等,0,2022-01-19,2022-01-19,有限会社しいば新建材,,有限会社,大分県,日田市,本庄町７３番地の１,,44,204,8770046,,,2022-01-19,登記官による閉鎖,,,2015-10-05,1,,,,,,0
3524,9320005002315,登記記録の閉鎖等,0,2022-01-19,2022-01-19,農事組合法人おおいた麦倶楽部,,その他の設立登記法人,大分県,大分市,大字羽屋６００番地の１０,,44,201,8700854,,,2022-01-19,登記官による閉鎖,,,2015-10-05,1,,,,,,0
3525,9320005003247,登記記録の閉鎖等,0,2022-01-19,2022-01-19,財団法人粟島愛児園,,その他の設立登記法人,大分県,宇佐市,大字長洲３７４６番地,,44,211,8720001,,,2022-01-19,登記官による閉鎖,,,2015-10-05,1,,,,,,0
3526,9320005004278,登記記録の閉鎖等,0,2022-01-19,2022-01-19,農事組合法人アグリフューチャーカンパニー,,その他の設立登記法人,大分県,宇佐市,院内町斎藤９７７番地の１,,44,211,8720341,,,2022-01-19,登記官による閉鎖,,,2015-10-05,1,,,,,,0
3527,9320005005895,登記記録の閉鎖等,0,2022-01-19,2022-01-19,農事組合法人荒牧牧場,,その他の設立登記法人,大分県,竹田市,大字飛田川１３５５番地,,44,208,8780026,,,2022-01-19,登記官による閉鎖,,,2015-10-05,1,,,,,,0
3531,9350001005244,登記記録の閉鎖等,0,2022-01-19,2022-01-12,株式会社福岡ソノリク昂進輸送,,株式会社,鹿児島県,鹿児島市,南栄３丁目２５番２,,46,201,8910122,,,2022-01-12,合併による解散等,7300001006901,令和４年１月１日佐賀県鳥栖市姫方町１６６０番地株式会社福岡ソノリク（7300001006901）に合併し解散,2015-10-05,1,,,,,フクオカソノリクコウシンユソウ,0
3534,9370001004681,登記記録の閉鎖等,0,2022-01-19,2022-01-14,株式会社井上興業,,株式会社,宮城県,仙台市宮城野区,鉄砲町東４番地の６－８０２号,,04,102,9830867,,,2022-01-14,清算の結了等,,,2015-10-05,1,,,,,イノウエコウギョウ,0
3546,9410001002086,登記記録の閉鎖等,0,2022-01-19,2022-01-18,株式会社ニユーフオト北日本,,株式会社,秋田県,秋田市,川尻町字大川反２３３番地８４,,05,201,0100941,,,2022-01-18,登記官による閉鎖,,,2015-10-05,1,,,,,,0
3549,9410002010179,登記記録の閉鎖等,0,2022-01-19,2022-01-18,有限会社カークラフトタルガ,,有限会社,秋田県,能代市,字昇平岱３０番地の１８,,05,202,0160871,,,2022-01-18,登記官による閉鎖,,,2015-10-05,1,,,,,,0
3550,9410002011953,登記記録の閉鎖等,0,2022-01-19,2022-01-18,有限会社サン技研,,有限会社,秋田県,大仙市,大曲日の出町１丁目６番２３号,,05,212,0140063,,,2022-01-18,登記官による閉鎖,,,2015-10-05,1,,,,,,0
3551,9410002013198,登記記録の閉鎖等,0,2022-01-19,2022-01-18,有限会社ホテルてるい,,有限会社,秋田県,横手市,前郷一番町７番２０号,,05,203,0130038,,,2022-01-18,登記官による閉鎖,,,2015-10-05,1,,,,,,0
3553,9430001077036,登記記録の閉鎖等,0,2022-01-19,2022-01-14,株式会社Ｉｓｈｉｚｕｅ,,株式会社,石川県,金沢市,出雲町イ４５５番地,,17,201,9200056,,,2022-01-14,清算の結了等,,,2018-07-23,1,,,,,イシズエ,0
