sequenceNumber,corporateNumber,process,correct,updateDate,changeDate,name,nameImageId,kind,prefectureName,cityName,streetNumber,addressImageId,prefectureCode,cityCode,postCode,addressOutside,addressOutsideImageId,closeDate,closeCause,successorCorporateNumber,changeCause,assignmentDate,latest,enName,enPrefectureName,enCityName,enAddressOutside,furigana,hihyoji
11,1010001235287,新規,0,2023-05-15,2023-05-15,ＧｌｏｂａｌＣｉｔｙ株式会社,,株式会社,東京都,中央区,銀座１丁目２２番１１号銀座大竹ビジデンス２Ｆ,,13,102,1040061,,,,,,,2023-05-15,1,,,,,グローバルシティ,0
12,1010003040578,新規,0,2023-05-15,2023-05-15,合同会社ＨＡＮＤＳ＆Ｉ,,合同会社,東京都,千代田区,西神田１丁目３－６,,13,101,1010065,,,,,,,2023-05-15,1,,,,,ハンズアンドアイ,0
14,1010005036649,新規,0,2023-05-15,2023-05-15,中区海岸通デベロップメント一般社団法人,,その他の設立登記法人,東京都,中央区,日本橋１丁目４番１号日本橋一丁目ビルディング,,13,102,1030027,,,,,,,2023-05-15,1,,,,,ナカクカイガンドオリデベロップメント,0
22,1010401174309,新規,0,2023-05-15,2023-05-15,株式会社Ｎ’ｓコーポレーション,,株式会社,東京都,港区,三田５丁目２番２２号,,13,103,1080073,,,,,,,2023-05-15,1,,,,,エヌズコーポレーション,0
23,1010401174325,新規,0,2023-05-15,2023-05-15,株式会社芽,,株式会社,東京都,港区,浜松町２丁目２番１５号浜松町ダイヤビル２階,,13,103,1050013,,,,,,,2023-05-15,1,,,,,メ,0
24,1010401174341,新規,0,2023-05-15,2023-05-15,株式会社皇光,,株式会社,東京都,港区,海岸３丁目１３番１－１１０６号,,13,103,1080022,,,,,,,2023-05-15,1,,,,,オウコウ,0
25,1010401174382,新規,0,2023-05-15,2023-05-15,株式会社ＤＡＯ,,株式会社,東京都,港区,南青山３丁目１番３６号青山丸竹ビル６Ｆ,,13,103,1070062,,,,,,,2023-05-15,1,,,,,ダオ,0
26,1010401174390,新規,0,2023-05-15,2023-05-15,株式会社Ａｓｕｋａ　Ｐｒｏｆｅｓｓｉｏｎａｌｓ,,株式会社,東京都,港区,赤坂２丁目５番８号,,13,103,1070052,,,,,,,2023-05-15,1,,,,,アスカプロフェッショナルズ,0
29,1010405022083,新規,0,2023-05-15,2023-05-15,医療法人社団ＳＴＤＣ,,その他の設立登記法人,東京都,港区,高輪１丁目３番１４号田村高輪ビル５階,,13,103,1080074,,,,,,,2023-05-15,1,,,,,エスティーディーシー,0
30,1010405022117,新規,0,2023-05-15,2023-05-15,ＮＧＹホールディング一般社団法人,,その他の設立登記法人,東京都,港区,元赤坂１丁目１番７号,,13,103,1070051,,,,,,,2023-05-15,1,,,,,エヌジーワイホールディング,0
31,1010405022133,新規,0,2023-05-15,2023-05-15,福岡小郡特定目的会社,,その他の設立登記法人,東京都,港区,元赤坂１丁目１番８号株式会社赤坂国際会計内,,13,103,1070051,,,,,,,2023-05-15,1,,,,,フクオカオゴオリ,0
32,1010501050434,新規,0,2023-05-15,2023-05-15,株式会社イヴォルヴ,,株式会社,東京都,台東区,台東４丁目２７番４－４０１号,,13,106,1100016,,,,,,,2023-05-15,1,,,,,イヴォルヴ,0
34,1010601063088,新規,0,2023-05-15,2023-05-15,マウントアイル株式会社,,株式会社,東京都,江東区,北砂６丁目１番４号,,13,108,1360073,,,,,,,2023-05-15,1,,,,,マウントアイル,0
36,1010701044244,新規,0,2023-05-15,2023-05-15,ＬＮＡ　Ｊａｐａｎ株式会社,,株式会社,東京都,品川区,豊町６丁目２９番７号,,13,109,1420042,,,,,,,2023-05-15,1,,,,,エルエヌエージャパン,0
43,1010901053037,新規,0,2023-05-15,2023-05-15,株式会社真理河,,株式会社,東京都,世田谷区,用賀１丁目１３番１５号３Ｆ,,13,112,1580097,,,,,,,2023-05-15,1,,,,,マリハ,0
44,1010901053053,新規,0,2023-05-15,2023-05-15,株式会社ＭＬ‐ＰＲＯＪＥＣＴ,,株式会社,東京都,世田谷区,代田６丁目３番６号秀楽園１０５,,13,112,1550033,,,,,,,2023-05-15,1,,,,,エムエルプロジェクト,0
48,1010903008162,新規,0,2023-05-15,2023-05-15,合同会社ＦＯＲＧＥ,,合同会社,東京都,世田谷区,深沢２丁目１－３－５１１,,13,112,1580081,,,,,,,2023-05-15,1,,,,,フォージ,0
51,1011001154378,新規,0,2023-05-15,2023-05-15,株式会社茶々那,,株式会社,東京都,渋谷区,神宮前６丁目２５番８号神宮前コーポラス６０４,,13,113,1500001,,,,,,,2023-05-15,1,,,,,チャチャナ,0
52,1011001154411,新規,0,2023-05-15,2023-05-15,ＣＥＮＯＮ株式会社,,株式会社,東京都,目黒区,五本木１丁目４５番６号,,13,110,1530053,,,,,,,2023-05-15,1,,,,,セノン,0
53,1011003016808,新規,0,2023-05-15,2023-05-15,そてつキャピタル合同会社,,合同会社,東京都,渋谷区,道玄坂１丁目１０番８号渋谷道玄坂東急ビル２Ｆ－Ｃ,,13,113,1500043,,,,,,,2023-05-15,1,,,,,ソテツキャピタル,0
55,1011101102831,新規,0,2023-05-15,2023-05-15,株式会社ウルトチ,,株式会社,東京都,新宿区,四谷３丁目１番地１９ミカドビル３Ｆ,,13,104,1600004,,,,,,,2023-05-15,1,,,,,ウルトチ,0
56,1011101102848,新規,0,2023-05-15,2023-05-15,株式会社ＰＥＡＫ　ｏｆ　ＰＥＡＫＳ,,株式会社,東京都,新宿区,西早稲田１丁目２３番８号,,13,104,1690051,,,,,,,2023-05-15,1,,,,,ピークオブピークス,0
57,1011101102864,新規,0,2023-05-15,2023-05-15,株式会社ｌｏｃａ,,株式会社,東京都,新宿区,新宿１丁目３６番２号新宿第七葉山ビル３階,,13,104,1600022,,,,,,,2023-05-15,1,,,,,ロカ,0
68,1011703003469,新規,0,2023-05-15,2023-05-15,合同会社ｃｏｎｔｉｎｕｏ,,合同会社,東京都,江戸川区,南葛西４丁目７番４号,,13,123,1340085,,,,,,,2023-05-15,1,,,,,コンティヌオ,0
72,1011803005654,新規,0,2023-05-15,2023-05-15,合同会社エピックデータ,,合同会社,東京都,葛飾区,立石１丁目１５号１０番Ｃ’ｅｓｔｕｎｏ３０１,,13,122,1240012,,,,,,,2023-05-15,1,,,,,エピックデータ,0
77,1012701017650,新規,0,2023-05-15,2023-05-15,株式会社籠屋,,株式会社,東京都,小平市,回田町２６４番地の４,,13,211,1870013,,,,,,,2023-05-15,1,,,,,カゴヤ,0
78,1012801022344,新規,0,2023-05-15,2023-05-15,フィールトラベル株式会社,,株式会社,東京都,日野市,新町２丁目８番地の３４,,13,212,1910002,,,,,,,2023-05-15,1,,,,,フィールトラベル,0
85,1013301050785,新規,0,2023-05-15,2023-05-15,株式会社アスライク,,株式会社,東京都,豊島区,雑司が谷３丁目４番－１－９０５,,13,116,1710032,,,,,,,2023-05-15,1,,,,,アスライク,0
87,1013303006629,新規,0,2023-05-15,2023-05-15,合同会社ユー・アール・エー,,合同会社,東京都,豊島区,南長崎２丁目６番８号,,13,116,1710052,,,,,,,2023-05-15,1,,,,,ユーアールエー,0
95,1020001151541,新規,0,2023-05-15,2023-05-15,株式会社ＤＲＥＡＭ　ＣＯＭＥ　ＷＯＲＫＳ,,株式会社,神奈川県,川崎市多摩区,菅馬場１丁目１６番６－２号,,14,135,2140004,,,,,,,2023-05-15,1,,,,,ドリームカムワークス,0
96,1020001151558,新規,0,2023-05-15,2023-05-15,株式会社ＩＫＫＡＫＵ,,株式会社,神奈川県,横浜市港北区,綱島西２丁目９番５－２０９号,,14,109,2230053,,,,,,,2023-05-15,1,,,,,イッカク,0
97,1020001151574,新規,0,2023-05-15,2023-05-15,Ｍ＆Ｕ株式会社,,株式会社,神奈川県,横浜市西区,宮崎町５６番地１,,14,103,2200031,,,,,,,2023-05-15,1,,,,,エムアンドユー,0
98,1020001151582,新規,0,2023-05-15,2023-05-15,リオナ株式会社,,株式会社,神奈川県,横浜市都筑区,あゆみが丘１３番９号ロイヤルヒルズあゆみが丘Ｇ－１,,14,118,2240016,,,,,,,2023-05-15,1,,,,,リオナ,0
99,1020001151590,新規,0,2023-05-15,2023-05-15,株式会社巽プロ,,株式会社,神奈川県,横浜市都筑区,仲町台１丁目２１番１号,,14,118,2240041,,,,,,,2023-05-15,1,,,,,タツミプロ,0
100,1020001151599,新規,0,2023-05-15,2023-05-15,アトリエコ株式会社,,株式会社,神奈川県,横浜市港北区,菊名５丁目１２－１２,,14,109,2220011,,,,,,,2023-05-15,1,,,,,アトリエコ,0
112,1021001079013,新規,0,2023-05-15,2023-05-15,Ｉ．Ｋ．Ｄ株式会社,,株式会社,神奈川県,伊勢原市,三ノ宮８８１－５,,14,214,2591103,,,,,,,2023-05-15,1,,,,,アイケーディー,0
113,1021001079021,新規,0,2023-05-15,2023-05-15,株式会社ティエラ,,株式会社,神奈川県,海老名市,社家３丁目５番１８号,,14,215,2430424,,,,,,,2023-05-15,1,,,,,ティエラ,0
114,1021001079038,新規,0,2023-05-15,2023-05-15,株式会社ＨＹパートナーズ,,株式会社,神奈川県,綾瀬市,深谷中１丁目１４番１８号,,14,218,2521107,,,,,,,2023-05-15,1,,,,,エイチワイパートナーズ,0
125,1030001153801,新規,0,2023-05-15,2023-05-15,ファーストアクション株式会社,,株式会社,埼玉県,さいたま市北区,櫛引町２丁目５９２－１１,,11,102,3310825,,,,,,,2023-05-15,1,,,,,ファーストアクション,0
126,1030001153842,新規,0,2023-05-15,2023-05-15,株式会社博文,,株式会社,埼玉県,さいたま市大宮区,三橋２丁目５３９番地３,,11,103,3300856,,,,,,,2023-05-15,1,,,,,ハクブン,0
127,1030001153891,新規,0,2023-05-15,2023-05-15,株式会社ＬＪ,,株式会社,埼玉県,草加市,高砂２丁目２１番３４号,,11,221,3400015,,,,,,,2023-05-15,1,,,,,エルジェイ,0
128,1030001153909,新規,0,2023-05-15,2023-05-15,クマノミファーマシー株式会社,,株式会社,埼玉県,川口市,東川口４丁目２５番２４号,,11,203,3330801,,,,,,,2023-05-15,1,,,,,クマノミファーマシー,0
129,1030001153933,新規,0,2023-05-15,2023-05-15,株式会社Ｌｉｎｋ　Ｇｒｏｕｐ,,株式会社,埼玉県,草加市,氷川町２１３１番地６号,,11,221,3400034,,,,,,,2023-05-15,1,,,,,リンクグループ,0
134,1030003021733,新規,0,2023-05-15,2023-05-15,Ｐｏｎｏ．Ｈｏｕｓｅ合同会社,,合同会社,埼玉県,所沢市,くすのき台１丁目１３番地の２ガーデンシティ所沢２階,,11,208,3590037,,,,,,,2023-05-15,1,,,,,ポノハウス,0
135,1030005021252,新規,0,2023-05-15,2023-05-15,一般財団法人ＥｍＰａｔｈ,,その他の設立登記法人,埼玉県,久喜市,河原井町１９番地,,11,232,3460028,,,,,,,2023-05-15,1,,,,,エンパス,0
141,1040001128372,新規,0,2023-05-15,2023-05-15,株式会社アイガレット,,株式会社,千葉県,船橋市,西習志野２丁目３番２０号,,12,204,2740815,,,,,,,2023-05-15,1,,,,,アイガレット,0
142,1040001128380,新規,0,2023-05-15,2023-05-15,株式会社デザインディスティニー,,株式会社,千葉県,白井市,平塚１５１５番地,,12,232,2701402,,,,,,,2023-05-15,1,,,,,デザインディスティニー,0
143,1040001128389,新規,0,2023-05-15,2023-05-15,スフィア株式会社,,株式会社,千葉県,松戸市,根本１４１番地の４,,12,207,2710077,,,,,,,2023-05-15,1,,,,,スフィア,0
144,1040001128397,新規,0,2023-05-15,2023-05-15,株式会社ＥＮＩＸＩＡ,,株式会社,千葉県,茂原市,八幡原７６６番地１２,,12,210,2970054,,,,,,,2023-05-15,1,,,,,エニシア,0
145,1040001128414,新規,0,2023-05-15,2023-05-15,株式会社日本福旅,,株式会社,千葉県,白井市,桜台４丁目３番１２号２Ｆ,,12,232,2701412,,,,,,,2023-05-15,1,,,,,ニホンフクタビ,0
152,1050003007508,新規,0,2023-05-15,2023-05-15,合同会社花盛,,合同会社,茨城県,那珂郡東海村,東海１丁目１６番２号ｇｕｐｌｕｓ１０１,,08,341,3191117,,,,,,,2023-05-15,1,,,,,ハナモリ,0
155,1060001036004,新規,0,2023-05-15,2023-05-15,かわにしコーチング・パートナー株式会社,,株式会社,栃木県,宇都宮市,上戸祭町３０１１番地１３,,09,201,3200051,,,,,,,2023-05-15,1,,,,,カワニシコーチングパートナー,0
158,1070001040442,新規,0,2023-05-15,2023-05-15,寿機工株式会社,,株式会社,群馬県,太田市,大原町１０６番地２２,,10,205,3792304,,,,,,,2023-05-15,1,,,,,コトブキキコウ,0
160,1080101023998,新規,0,2023-05-15,2023-05-15,株式会社長谷川,,株式会社,静岡県,富士市,弥生１１番地の１,,22,210,4170064,,,,,,,2023-05-15,1,,,,,ハセガワ,0
163,1080401026486,新規,0,2023-05-15,2023-05-15,株式会社ＡｒＧａｔｅ,,株式会社,静岡県,浜松市東区,有玉南町１８６７－１,,22,132,4313122,,,,,,,2023-05-15,1,,,,,アルゲート,0
177,1120001254730,新規,0,2023-05-15,2023-05-15,春日屋株式会社,,株式会社,大阪府,大阪市西成区,北津守４丁目７番１０号,,27,122,5570061,,,,,,,2023-05-15,1,,,,,カスガヤ,0
178,1120001254838,新規,0,2023-05-15,2023-05-15,株式会社エオストレ,,株式会社,大阪府,大阪市北区,梅田１丁目１－３大阪駅前第３ビル２３０７,,27,127,5300001,,,,,,,2023-05-15,1,,,,,エオストレ,0
179,1120001254854,新規,0,2023-05-15,2023-05-15,株式会社笑福ブランド,,株式会社,大阪府,大阪市西区,京町堀１丁目１１番７号京旺ビル４階Ｂ号室,,27,106,5500003,,,,,,,2023-05-15,1,,,,,エフブランド,0
180,1120001254870,新規,0,2023-05-15,2023-05-15,株式会社ＬＡＴＣ,,株式会社,大阪府,大阪市中央区,久太郎町１丁目５番３１号,,27,128,5410056,,,,,,,2023-05-15,1,,,,,エルエーティーシー,0
181,1120001254879,新規,0,2023-05-15,2023-05-15,株式会社Ｚｅｃｌｉｄ,,株式会社,大阪府,大阪市西区,本田２丁目８－１９,,27,106,5500022,,,,,,,2023-05-15,1,,,,,ゼクリッド,0
186,1120003024066,新規,0,2023-05-15,2023-05-15,合同会社Ｓｔｕｄｉｏ　Ｈａｐｐｙ　Ｈｕｓｋｙ,,合同会社,大阪府,大阪市中央区,糸屋町１丁目３番４号２０１号室,,27,128,5400022,,,,,,,2023-05-15,1,,,,,スタジオハッピーハスキー,0
187,1120003024074,新規,0,2023-05-15,2023-05-15,合同会社オリーブ,,合同会社,大阪府,寝屋川市,点野５丁目３番１２号,,27,215,5720077,,,,,,,2023-05-15,1,,,,,オリーブ,0
188,1120003024082,新規,0,2023-05-15,2023-05-15,合同会社うきうき堂,,合同会社,大阪府,大阪市住吉区,大領２丁目２番２６号ハイツ大領３０３,,27,120,5580001,,,,,,,2023-05-15,1,,,,,ウキウキドウ,0
189,1120901047523,新規,0,2023-05-15,2023-05-15,株式会社Ｗｈｉｔｅ　Ｃａｒｅ　Ａｇｅｎｃｙ,,株式会社,大阪府,豊中市,刀根山５丁目３番Ａ１－２３号,,27,203,5600045,,,,,,,2023-05-15,1,,,,,ホワイトケアエージェンシー,0
190,1120903004638,新規,0,2023-05-15,2023-05-15,合同会社ＭＫソリューションズ,,合同会社,大阪府,箕面市,粟生間谷西３丁目２番６－５０４号,,27,220,5620023,,,,,,,2023-05-15,1,,,,,エムケイソリューションズ,0
192,1122001036968,新規,0,2023-05-15,2023-05-15,株式会社スパークル,,株式会社,大阪府,大東市,御供田２丁目９番６号,,27,218,5740025,,,,,,,2023-05-15,1,,,,,スパークル,0
197,1130001074302,新規,0,2023-05-15,2023-05-15,株式会社西源,,株式会社,京都府,京都市上京区,笹屋町通千本東入笹屋町３丁目６１４番地,,26,102,6028453,,,,,,,2023-05-15,1,,,,,ニシゲン,0
210,1140001130137,新規,0,2023-05-15,2023-05-15,株式会社四季,,株式会社,兵庫県,相生市,陸本町１番１７号,,28,208,6780007,,,,,,,2023-05-15,1,,,,,シキ,0
211,1140001130161,新規,0,2023-05-15,2023-05-15,株式会社中山設備工業,,株式会社,兵庫県,神戸市灘区,灘北通４丁目５番４号,,28,102,6570835,,,,,,,2023-05-15,1,,,,,ナカヤマセツビコウギョウ,0
212,1140001130178,新規,0,2023-05-15,2023-05-15,スカイシーハウス株式会社,,株式会社,兵庫県,神戸市中央区,元町通３丁目１７番４号,,28,110,6500022,,,,,,,2023-05-15,1,,,,,スカイシーハウス,0
213,1140001130203,新規,0,2023-05-15,2023-05-15,フジタ技建株式会社,,株式会社,兵庫県,尼崎市,小中島３丁目１－３,,28,202,6610972,,,,,,,2023-05-15,1,,,,,フジタギケン,0
217,1140003019031,新規,0,2023-05-15,2023-05-15,合同会社マリーズ,,合同会社,兵庫県,宝塚市,逆瀬台５丁目１－３,,28,214,6650024,,,,,,,2023-05-15,1,,,,,マリーズ,0
220,1150001026400,新規,0,2023-05-15,2023-05-15,株式会社フォレストビルド,,株式会社,奈良県,奈良市,三条大路１丁目１０番４３号ＦＯＲＥＳＴＳＱＵＡＲＥ８Ｆ,,29,201,6308013,,,,,,,2023-05-15,1,,,,,フォレストビルド,0
223,1160001025038,新規,0,2023-05-15,2023-05-15,株式会社シーセブン,,株式会社,滋賀県,米原市,堂谷１２５７番地,,25,214,5210213,,,,,,,2023-05-15,1,,,,,シーセブン,0
230,1180001156252,新規,0,2023-05-15,2023-05-15,株式会社Ｋ’ｓサプライ,,株式会社,愛知県,名古屋市北区,楠２丁目７１１番地,,23,103,4620012,,,,,,,2023-05-15,1,,,,,ケーズサプライ,0
231,1180001156260,新規,0,2023-05-15,2023-05-15,株式会社ＡｌｌＴｈａｎｋｓ,,株式会社,愛知県,名古屋市緑区,桶狭間切戸９２０番地,,23,114,4580922,,,,,,,2023-05-15,1,,,,,オールサンクス,0
232,1180001156285,新規,0,2023-05-15,2023-05-15,株式会社ＩＫＴサポート,,株式会社,愛知県,春日井市,石尾台３丁目５番地７,,23,206,4870006,,,,,,,2023-05-15,1,,,,,アイケイティーサポート,0
233,1180001156319,新規,0,2023-05-15,2023-05-15,円満株式会社,,株式会社,愛知県,名古屋市千種区,今池５丁目１２番５号,,23,101,4640850,,,,,,,2023-05-15,1,,,,,エンマン,0
234,1180001156335,新規,0,2023-05-15,2023-05-15,株式会社ＬａＬａ‐Ａｎｇｅ,,株式会社,愛知県,名古屋市東区,東桜１丁目１０番２９号パークサイドビル栄８Ｃ,,23,102,4610005,,,,,,,2023-05-15,1,,,,,ララアンジェ,0
236,1180003025216,新規,0,2023-05-15,2023-05-15,合同会社Ｔｏｍｏｒｒｏｗ,,合同会社,愛知県,名古屋市西区,名駅２丁目３４番１７号セントラル名古屋１１０１号,,23,104,4510045,,,,,,,2023-05-15,1,,,,,トゥモロー,0
237,1180003025224,新規,0,2023-05-15,2023-05-15,合同会社エンクリエイト,,合同会社,愛知県,名古屋市東区,橦木町１丁目２９番地の１（パーク・ホームズ橦木町５０３号）,,23,102,4610014,,,,,,,2023-05-15,1,,,,,エンクリエイト,0
238,1180003025232,新規,0,2023-05-15,2023-05-15,合同会社ＥＮＩＳＨＩ,,合同会社,愛知県,北名古屋市,九之坪天下地１５８,,23,234,4810041,,,,,,,2023-05-15,1,,,,,エニシ,0
240,1180301037383,新規,0,2023-05-15,2023-05-15,株式会社プラスワンＲｅテラス,,株式会社,愛知県,岡崎市,井ノ口新町１２番地７－１０２,,23,202,4442132,,,,,,,2023-05-15,1,,,,,プラスワンリテラス,0
241,1180305009478,新規,0,2023-05-15,2023-05-15,医療法人Ｄ＆Ｃ,,その他の設立登記法人,愛知県,豊川市,萩山町３丁目２０番地の８,,23,207,4420879,,,,,,,2023-05-15,1,,,,,ディーアンドシー,0
246,1210001019315,新規,0,2023-05-15,2023-05-15,株式会社ＳＭＣ,,株式会社,福井県,福井市,日之出１丁目８番２５－５０４号室,,18,201,9100859,,,,,,,2023-05-15,1,,,,,エスエムシー,0
248,1240001061512,新規,0,2023-05-15,2023-05-15,株式会社Ｂ．ＲＩコーポレーション,,株式会社,広島県,広島市中区,鉄砲町４番１６－４０１号,,34,101,7300017,,,,,,,2023-05-15,1,,,,,ビードットアールアイコーポレーション,0
254,1240003006135,新規,0,2023-05-15,2023-05-15,合同会社マリエッタ,,合同会社,広島県,福山市,新市町金丸３７３－１,,34,207,7210000,,,,,,,2023-05-15,1,,,,,マリエッタ,0
255,1240003006143,新規,0,2023-05-15,2023-05-15,合同会社きたむら,,合同会社,広島県,福山市,瀬戸町大字長和１５３６番地１,,34,207,7200836,,,,,,,2023-05-15,1,,,,,キタムラ,0
256,1250001020095,新規,0,2023-05-15,2023-05-15,株式会社Ａ　ｂｒｅａｋ’ｓ,,株式会社,山口県,山口市,湯田温泉４丁目１－７,,35,203,7530056,,,,,,,2023-05-15,1,,,,,アブレイクス,0
259,1260001037956,新規,0,2023-05-15,2023-05-15,株式会社ＲＩＳＥ,,株式会社,岡山県,岡山市北区,尾上２３１番地１プレジールコスモスＢ棟１０２,,33,101,7011212,,,,,,,2023-05-15,1,,,,,,0
265,1290001101528,新規,0,2023-05-15,2023-05-15,株式会社ＳＨＩＮ‐ＥＩ,,株式会社,福岡県,福岡市博多区,博多駅南１丁目１５番２２号,,40,132,8120016,,,,,,,2023-05-15,1,,,,,シンエイ,0
266,1290001101544,新規,0,2023-05-15,2023-05-15,創健株式会社,,株式会社,福岡県,筑紫野市,紫１丁目８番１－１１１２号,,40,217,8180061,,,,,,,2023-05-15,1,,,,,ソウケン,0
267,1290001101552,新規,0,2023-05-15,2023-05-15,株式会社ｃｉｒｃｌｅ,,株式会社,福岡県,福岡市博多区,東那珂１丁目１４番２４－１１１０号ファーネスト博多レヴィア,,40,132,8120892,,,,,,,2023-05-15,1,,,,,サークル,0
268,1290001101560,新規,0,2023-05-15,2023-05-15,伊都地所株式会社,,株式会社,福岡県,糸島市,泊１２９３番地１,,40,230,8191111,,,,,,,2023-05-15,1,,,,,イトジショ,0
271,1290801029522,新規,0,2023-05-15,2023-05-15,株式会社ＢａｎｋｓＲｏｗ,,株式会社,福岡県,北九州市戸畑区,沖台１丁目６番３３号,,40,105,8040064,,,,,,,2023-05-15,1,,,,,バンクスロウ,0
276,1310001018414,新規,0,2023-05-15,2023-05-15,株式会社ｎｏｒｍａｌ,,株式会社,長崎県,東彼杵郡波佐見町,岳辺田郷４４５番地,,42,323,8593722,,,,,,,2023-05-15,1,,,,,ノーマル,0
280,1320001019758,新規,0,2023-05-15,2023-05-15,株式会社松岡林業,,株式会社,大分県,玖珠郡玖珠町,大字大隈１５４１番地の４,,44,462,8794414,,,,,,,2023-05-15,1,,,,,マツオカリンギョウ,0
281,1320001019774,新規,0,2023-05-15,2023-05-15,オカベ電工株式会社,,株式会社,大分県,大分市,大字小池原１０２８番地の６,,44,201,8700147,,,,,,,2023-05-15,1,,,,,オカベデンコウ,0
288,1350001018352,新規,0,2023-05-15,2023-05-15,株式会社カゼミチ,,株式会社,宮崎県,都城市,平江町３９号１番地３,,45,202,8850021,,,,,,,2023-05-15,1,,,,,カゼミチ,0
289,1360001031998,新規,0,2023-05-15,2023-05-15,Ｕ．Ｂ　ｍｏｒｅ株式会社,,株式会社,沖縄県,浦添市,仲西３丁目９番６号,,47,208,9012125,,,,,,,2023-05-15,1,,,,,ユービーモア,0
307,1430001089113,新規,0,2023-05-15,2023-05-15,ＧＳＯ　Ｈｏｌｄｉｎｇｓ株式会社,,株式会社,北海道,札幌市中央区,南二条西１０丁目１０００番地７二条パークビル５階,,01,101,0600062,,,,,,,2023-05-15,1,,,,,ジーエスオーホールディングス,0
309,1430003015059,新規,0,2023-05-15,2023-05-15,ＯＤ　ＥＬＥＣＴＲＯ合同会社,,合同会社,北海道,札幌市南区,澄川六条５丁目４番６号,,01,106,0050006,,,,,,,2023-05-15,1,,,,,オーディエレクトロ,0
314,1450001013987,新規,0,2023-05-15,2023-05-15,株式会社ろくぶる,,株式会社,北海道,旭川市,東光六条６丁目５番２８号,,01,204,0788346,,,,,,,2023-05-15,1,,,,,ロクブル,0
315,1450002011321,新規,0,2023-05-15,2023-05-15,有限会社ふじわら,,有限会社,北海道,天塩郡豊富町,字上サロベツ２５４３番地１,,01,516,0984100,,,,,,,2023-05-15,1,,,,,,0
317,1460101007384,新規,0,2023-05-15,2023-05-15,株式会社セイリンホールディングス,,株式会社,北海道,帯広市,西二十条北２丁目２７番地,,01,207,0802460,,,,,,,2023-05-15,1,,,,,セイリンホールディングス,0
318,1470001019611,新規,0,2023-05-15,2023-05-15,株式会社サンエステート,,株式会社,香川県,高松市,林町２２１７番地１５,,37,201,7610301,,,,,,,2023-05-15,1,,,,,サンエステート,0
325,1700150116193,新規,0,2023-05-15,2023-05-15,Ｓｈｅｎｚｈｅｎｓｈｉ　ｃｈｕａｎｇｌｉ　ｊｉａｃｈｅｎｇ　ｋｅｊｉ　ｙｏｕｘｉａｎｇｏｎｇｓｉ,,外国会社等,,,,,,,,Ｈｕａｎｇｄｕ　Ｓｑｕａｒｅ，Ｎｏ．３００８　Ｙｉｔｉａｎ　Ｒｏａｄ，Ｈｕａｎｇｇａｎｇ　Ｃｏｍｍｕｎｉｔｙ　１６１６Ｘ４　Ｂｕｉｌｄｉｎｇ　Ｃ　Ｓｈｅｎｚｈｅｎ　Ｇｕａｎｇｄｏｎｇ　ＣＮ,,,,,,2023-05-15,1,,,,,シェンゼェンシチャンリジャチェンケジユウゲンコウシ,0
326,1700150116202,新規,0,2023-05-15,2023-05-15,Ｌｉａｎｙｕｎｇａｎｇ　ＣｈａｏｃｈｅｎｇＳｏｆｔｗａｒｅ　Ｄｅｖｅｌｏｐｍｅｎｔ　Ｃｏ．，Ｌｔｄ,,外国会社等,,,,,,,,Ｎｏ．５２０－１，Ｂｕｉｌｄｉｎｇ　３，Ｎｏ．１７，Ｈｕａｇｕｏｓｈａｎ　Ａｖｅｎｕｅ，Ｈａｉｚｈｏｕ　Ｄｉｓｔｒｉｃｔ，Ｌｉａｎｙｕｎｇａｎｇ　Ｃｉｔｙ，Ｊｉａｎｇｓｕ　Ｐｒｏｖｉｎｃｅ,,,,,,2023-05-15,1,,,,,レンユンガンチャオチェンソフトウェアディベロップメントカンパニーリミテッド,0
327,1700150116210,新規,0,2023-05-15,2023-05-15,Ｙｉｗｕ　Ｋｅｙｉｈａｎｇ　Ｔｒａｄｉｎｇ　Ｃｏ．，Ｌｔｄ,,外国会社等,,,,,,,,Ｒｏｏｍ　２０１，Ｕｎｉｔ　１，Ｂｕｉｌｄｉｎｇ　１５，Ｘｉｕｈｅ　Ｃｏｍｍｕｎｉｔｙ，Ｂｅｉｙｕａｎ　Ｓｔｒｅｅｔ，Ｙｉｗｕ　Ｃｉｔｙ，Ｊｉｎｈｕａ　Ｃｉｔｙ，Ｃｈｉｎａ（Ｚｈｅｊｉａｎｇ）Ｐｉｌｏｔ　Ｆｒｅｅ　Ｔｒａｄｅ　Ｚｏｎｅ,,,,,,2023-05-15,1,,,,,イーウーコーイーハンマオイーヨウシエンゴンスー,0
337,2010001235286,新規,0,2023-05-15,2023-05-15,ＡＶＡＴＡＣＫ株式会社,,株式会社,東京都,千代田区,丸の内１丁目８番３号トラストタワー本館２０階,,13,101,1000005,,,,,,,2023-05-15,1,,,,,アバタック,0
338,2010001235294,新規,0,2023-05-15,2023-05-15,株式会社オレンジ,,株式会社,東京都,文京区,湯島３丁目１３番５号鶴文舎ビル３階,,13,105,1130034,,,,,,,2023-05-15,1,,,,,オレンジ,0
344,2010005036672,新規,0,2023-05-15,2023-05-15,一般社団法人枚方商業施設開発,,その他の設立登記法人,東京都,中央区,日本橋１丁目４番１号日本橋一丁目ビルディング,,13,102,1030027,,,,,,,2023-05-15,1,,,,,ヒラカタショウギョウシセツカイハツ,0
345,2010103002139,新規,0,2023-05-15,2023-05-15,ＰＡＮＤＥＹ合同会社,,合同会社,東京都,八王子市,明神町２丁目２番８八王子スカイマンション１０２,,13,201,1920046,,,,,,,2023-05-15,1,,,,,パンデイ,0
350,2010401174217,新規,0,2023-05-15,2023-05-15,ＢＬＩＮＫ株式会社,,株式会社,東京都,港区,南青山３丁目１－３６－青山丸竹ビル６Ｆ,,13,103,1070062,,,,,,,2023-05-15,1,,,,,ブリンク,0
351,2010401174324,新規,0,2023-05-15,2023-05-15,株式会社Ａｃｔ　Ｐｒｉｃｅｓ,,株式会社,東京都,港区,南青山３丁目１番３６号青山丸竹ビル６Ｆ,,13,103,1070062,,,,,,,2023-05-15,1,,,,,アクトプライス,0
352,2010401174349,新規,0,2023-05-15,2023-05-15,株式会社ＡＮＮＡＰＵＲＮＡ,,株式会社,東京都,港区,三田２丁目３番３４－４０８号,,13,103,1080073,,,,,,,2023-05-15,1,,,,,アンナプルナ,0
356,2010403030079,新規,0,2023-05-15,2023-05-15,Ｗｏｍａｎ　Ｌｉｆｅ　Ｓｈａｎｔｉｈ合同会社,,合同会社,東京都,港区,虎ノ門１丁目１６番６号,,13,103,1050001,,,,,,,2023-05-15,1,,,,,ウーマンライフシャンティ,0
358,2010405022082,新規,0,2023-05-15,2023-05-15,一般社団法人ＰＲＯＤＵＣＥ　ＴＨＩＮＫＩＮＧ　ＬＡＢ,,その他の設立登記法人,東京都,港区,麻布十番２丁目２０番７号麻布十番高木ビル,00130499,13,103,1060045,,,,,,,2023-05-15,1,,,,,プロデュースシンキングラボ,0
367,2010601063087,新規,0,2023-05-15,2023-05-15,株式会社ＯＩＰＣ,,株式会社,東京都,墨田区,横網２丁目４番１３号ＲＯＯＭＣＵＢＥ１階,,13,107,1300015,,,,,,,2023-05-15,1,,,,,オーアイピーシー,0
368,2010603010153,新規,0,2023-05-15,2023-05-15,英太郎ゼミナール合同会社,,合同会社,東京都,江東区,大島３丁目８番７－４０９号,,13,108,1360072,,,,,,,2023-05-15,1,,,,,エイタロウゼミナール,0
376,2010801033947,新規,0,2023-05-15,2023-05-15,株式会社ハウオリライフ,,株式会社,東京都,大田区,南蒲田２丁目１１番２２号,,13,111,1440035,,,,,,,2023-05-15,1,,,,,ハウオリライフ,0
381,2010901053003,新規,0,2023-05-15,2023-05-15,株式会社ＷｉｚＡＩ,,株式会社,東京都,世田谷区,上祖師谷４丁目８番８号,,13,112,1570065,,,,,,,2023-05-15,1,,,,,ウィズエーアイ,0
382,2010901053036,新規,0,2023-05-15,2023-05-15,株式会社Ｌｉｕｕ,,株式会社,東京都,世田谷区,世田谷３丁目６番１４－４０４号,,13,112,1540017,,,,,,,2023-05-15,1,,,,,リウ,0
383,2010901053044,新規,0,2023-05-15,2023-05-15,サンコーポレーション株式会社,,株式会社,東京都,世田谷区,等々力５丁目４番２号,,13,112,1580082,,,,,,,2023-05-15,1,,,,,サンコーポレーション,0
389,2011003016815,新規,0,2023-05-15,2023-05-15,ウインズラボ合同会社,,合同会社,東京都,渋谷区,道玄坂１丁目１０番８号渋谷道玄坂東急ビル２Ｆ－Ｃ,,13,113,1500043,,,,,,,2023-05-15,1,,,,,ウインズラボ,0
391,2011101102839,新規,0,2023-05-15,2023-05-15,株式会社Ｃｏ‐Ｃｒｅａｔｉｏｎ‐ＴＥＡＭ,,株式会社,東京都,新宿区,西新宿１丁目２５番１号新宿センタービル３階,,13,104,1600023,,,,,,,2023-05-15,1,,,,,コクリエーションチーム,0
398,2011603003923,新規,0,2023-05-15,2023-05-15,合同会社ＸＬＸ,,合同会社,東京都,練馬区,氷川台２丁目２５番１６号,,13,120,1790084,,,,,,,2023-05-15,1,,,,,シルシ,0
401,2011803005637,新規,0,2023-05-15,2023-05-15,合同会社ｋｏｃｏｒｏｎｅ,,合同会社,東京都,葛飾区,青戸５丁目２０‐２３,,13,122,1250062,,,,,,,2023-05-15,1,,,,,ココロネ,0
402,2011803005645,新規,0,2023-05-15,2023-05-15,ＳｈｕＴｅｃ合同会社,,合同会社,東京都,足立区,神明３丁目２５番１４号,,13,121,1210051,,,,,,,2023-05-15,1,,,,,シュウテック,0
406,2013101009171,新規,0,2023-05-15,2023-05-15,株式会社ロワゾブルー,,株式会社,東京都,あきる野市,切欠１９４０番地,,13,228,1970824,,,,,,,2023-05-15,1,,,,,ロワゾブルー,0
418,2020001151549,新規,0,2023-05-15,2023-05-15,ｉ・テクノロジー株式会社,,株式会社,神奈川県,横浜市港北区,新横浜３丁目１９番地５,,14,109,2220033,,,,,,,2023-05-15,1,,,,,アイテクノロジー,0
419,2020001151573,新規,0,2023-05-15,2023-05-15,株式会社８ｅｍｍｙ,,株式会社,神奈川県,川崎市川崎区,小田栄２丁目１番８－１７０８号,,14,131,2100843,,,,,,,2023-05-15,1,,,,,エイトエミー,0
420,2020001151598,新規,0,2023-05-15,2023-05-15,株式会社ユイ,,株式会社,神奈川県,横浜市都筑区,仲町台１丁目７番地１８号ビュロー仲町台３０４,,14,118,2240041,,,,,,,2023-05-15,1,,,,,ユイ,0
421,2020001151615,新規,0,2023-05-15,2023-05-15,ホクシン建設株式会社,,株式会社,神奈川県,横浜市旭区,南本宿町１２２番地２６,,14,112,2410833,,,,,,,2023-05-15,1,,,,,ホクシンケンセツ,0
429,2020003023903,新規,0,2023-05-15,2023-05-15,合同会社ＥＳＳＥＮＣＥ,,合同会社,神奈川県,川崎市宮前区,有馬６丁目１４番２号エメラルドハイツ１００,,14,136,2160003,,,,,,,2023-05-15,1,,,,,エッセンス,0
434,2021001079020,新規,0,2023-05-15,2023-05-15,株式会社ドリームハウス,,株式会社,神奈川県,秦野市,名古木４０３番地の２－２０５,,14,211,2570024,,,,,,,2023-05-15,1,,,,,ドリームハウス,0
435,2021001079029,新規,0,2023-05-15,2023-05-15,株式会社ｇｒｏｗ．,,株式会社,神奈川県,相模原市中央区,中央４丁目１２番６号,,14,152,2520239,,,,,,,2023-05-15,1,,,,,グロー,0
439,2021003013076,新規,0,2023-05-15,2023-05-15,合同会社Ａｌｋｕ,,合同会社,神奈川県,逗子市,逗子１丁目６－２７－４０２,,14,208,2490006,,,,,,,2023-05-15,1,,,,,アルク,0
452,2030001153809,新規,0,2023-05-15,2023-05-15,株式会社ベストワン,,株式会社,埼玉県,川口市,大字辻１５３８番地の１,00130497,11,203,3340004,,,,,,,2023-05-15,1,,,,,ベストワン,0
453,2030001153825,新規,0,2023-05-15,2023-05-15,森月株式会社,,株式会社,埼玉県,川越市,大字藤間８５５－３０トップ藤間１０１室,,11,201,3501142,,,,,,,2023-05-15,1,,,,,モリツキ,0
454,2030001153866,新規,0,2023-05-15,2023-05-15,株式会社代電気,,株式会社,埼玉県,坂戸市,大字紺屋５０７番地１２,,11,239,3500204,,,,,,,2023-05-15,1,,,,,ダイデンキ,0
455,2030001153874,新規,0,2023-05-15,2023-05-15,株式会社ｔｏｔ,,株式会社,埼玉県,さいたま市浦和区,常盤１丁目２番１９－２０２号,,11,107,3300061,,,,,,,2023-05-15,1,,,,,ティーオーティー,0
456,2030001153882,新規,0,2023-05-15,2023-05-15,株式会社Ｆｉｇｈｔ　ｆｏｒ　ｔｈｅ　Ｆｕｔｕｒｅ,,株式会社,埼玉県,朝霞市,泉水１丁目２－１０,,11,227,3510024,,,,,,,2023-05-15,1,,,,,ファイトフォーザフューチャー,0
457,2030001153890,新規,0,2023-05-15,2023-05-15,Ｊクリエイト・ネクサスエンジニアリング株式会社,,株式会社,埼玉県,さいたま市岩槻区,大字笹久保１６５６,,11,110,3390034,,,,,,,2023-05-15,1,,,,,ジェイクリエイトネクサスエンジニアリング,0
458,2030001153916,新規,0,2023-05-15,2023-05-15,株式会社隆史工業,,株式会社,埼玉県,川口市,江戸袋１丁目１３番１３号,,11,203,3340075,,,,,,,2023-05-15,1,,,,,タカシコウギョウ,0
467,2040001128371,新規,0,2023-05-15,2023-05-15,株式会社ＪＯＩＮＳ,,株式会社,千葉県,浦安市,堀江６丁目４番１４号ルナパーク（２０２）,,12,227,2790041,,,,,,,2023-05-15,1,,,,,ジョインズ,0
469,2040003022597,新規,0,2023-05-15,2023-05-15,合同会社マルコ,,合同会社,千葉県,市川市,行徳駅前４丁目１３番４号,,12,203,2720133,,,,,,,2023-05-15,1,,,,,マルコ,0
470,2040003022606,新規,0,2023-05-15,2023-05-15,合同会社ディーオーアイ,,合同会社,千葉県,船橋市,東中山１丁目１７番１２－３号,,12,204,2730036,,,,,,,2023-05-15,1,,,,,ディーオーアイ,0
471,2050003007507,新規,0,2023-05-15,2023-05-15,合同会社華桜,,合同会社,茨城県,那珂郡東海村,東海１丁目１６番２号ｇｕｐｌｕｓ１０１,,08,341,3191117,,,,,,,2023-05-15,1,,,,,カオウ,0
472,2060001035995,新規,0,2023-05-15,2023-05-15,株式会社入江林産,,株式会社,栃木県,宇都宮市,徳次郎町１７９３番地,,09,201,3212116,,,,,,,2023-05-15,1,,,,,イリエリンサン,0
478,2070001040375,新規,0,2023-05-15,2023-05-15,ダオリサイクル株式会社,,株式会社,群馬県,伊勢崎市,間野谷町９０番地１,,10,204,3792201,,,,,,,2023-05-15,1,,,,,,0
500,2120001254663,新規,0,2023-05-15,2023-05-15,ＡＤＶＡＮＣＥ株式会社,,株式会社,大阪府,大阪市北区,大淀中２丁目１番３０－２０７号,,27,127,5310076,,,,,,,2023-05-15,1,,,,,アドバンス,0
501,2120001254812,新規,0,2023-05-15,2023-05-15,ジャパン・シェルフィッシュ株式会社,,株式会社,大阪府,大阪市北区,中津３丁目１０番４号,,27,127,5310071,,,,,,,2023-05-15,1,,,,,ジャパンシェルフィッシュ,0
502,2120001254837,新規,0,2023-05-15,2023-05-15,Ｃｈａｍｐｉｏｎ　Ｒｕｎ国際商事株式会社,,株式会社,大阪府,大阪市生野区,巽北１丁目２番１０号コーポ有楽１－１７号室,00130493,27,116,5440004,,,,,,,2023-05-15,1,,,,,チャンピオンランコクサイショウジ,0
503,2120001254845,新規,0,2023-05-15,2023-05-15,株式会社ＬＹＮＸ　ＴＩＰＳ,,株式会社,大阪府,寝屋川市,池田本町１９番９号,,27,215,5720030,,,,,,,2023-05-15,1,,,,,リンクスティップス,0
504,2120001254886,新規,0,2023-05-15,2023-05-15,株式会社Ｔ．Ｋ．Ｔｅｃｈ,,株式会社,大阪府,大阪市北区,天満４丁目３番１２号,,27,127,5300043,,,,,,,2023-05-15,1,,,,,ティーケーテック,0
506,2120003024040,新規,0,2023-05-15,2023-05-15,ＨＯＡＮＧ　ＮＧＵＹＥＮ合同会社,,合同会社,大阪府,大阪市生野区,新今里３丁目５番１１号１Ｆ,,27,116,5440001,,,,,,,2023-05-15,1,,,,,ホアングェン,0
507,2120003024057,新規,0,2023-05-15,2023-05-15,合同会社枚方協栄自動車,,合同会社,大阪府,枚方市,村野高見台１０番７号,,27,210,5730014,,,,,,,2023-05-15,1,,,,,ヒラカタキョウエイジドウシャ,0
508,2120003024065,新規,0,2023-05-15,2023-05-15,合同会社小野変圧器設計事務所,,合同会社,大阪府,大阪市城東区,今福東２丁目１５番２３－５０６号,,27,118,5360002,,,,,,,2023-05-15,1,,,,,オノヘンアツキセッケイジムショ,0
511,2120101067536,新規,0,2023-05-15,2023-05-15,株式会社ＬＹＫＫＥ,,株式会社,大阪府,堺市堺区,北三国ヶ丘町１丁２番１１－４号,,27,141,5900021,,,,,,,2023-05-15,1,,,,,リュッケ,0
512,2120903004629,新規,0,2023-05-15,2023-05-15,合同会社Ｓｐｒｏｕｔ,,合同会社,大阪府,豊中市,長興寺北３丁目１４番１６号,,27,203,5610875,,,,,,,2023-05-15,1,,,,,スプラウト,0
513,2120903004637,新規,0,2023-05-15,2023-05-15,吹田まちづくり合同会社,,合同会社,大阪府,吹田市,内本町２丁目２番５号,,27,205,5640032,,,,,,,2023-05-15,1,,,,,スイタマチヅクリ,0
516,2122001036967,新規,0,2023-05-15,2023-05-15,株式会社ＡＲＫ‐Ｃ,,株式会社,大阪府,東大阪市,森河内西１丁目３２番１２号,,27,227,5770061,,,,,,,2023-05-15,1,,,,,アークシー,0
525,2140001130152,新規,0,2023-05-15,2023-05-15,株式会社ＤｅｖｅＸ,,株式会社,兵庫県,加東市,河高１１９２番地３－１０１,,28,228,6790221,,,,,,,2023-05-15,1,,,,,デベエックス,0
526,2140001130185,新規,0,2023-05-15,2023-05-15,ファーストラスト株式会社,,株式会社,兵庫県,川西市,虫生２０４番地の２,,28,217,6660141,,,,,,,2023-05-15,1,,,,,ファーストラスト,0
527,2140001130202,新規,0,2023-05-15,2023-05-15,ｉＭＯソリューションズ株式会社,,株式会社,兵庫県,姫路市,相野１６８番地,,28,201,6712232,,,,,,,2023-05-15,1,,,,,アイエムオーソリューションズ,0
528,2140001130210,新規,0,2023-05-15,2023-05-15,株式会社Ｓｈｉｒｏｍａｌｉ,,株式会社,兵庫県,尼崎市,次屋１丁目２０番２号,,28,202,6610965,,,,,,,2023-05-15,1,,,,,シロマリ,0
531,2140002067311,新規,0,2023-05-15,2023-05-15,有限会社兵庫建物,,有限会社,兵庫県,宝塚市,小林１丁目８番２０号,,28,214,6650034,,,,,,,2023-05-15,1,,,,,ヒョウゴタテモノ,0
533,2160001025037,新規,0,2023-05-15,2023-05-15,株式会社ＰＥＡ,,株式会社,滋賀県,大津市,南郷２丁目２２番３０号,,25,201,5200865,,,,,,,2023-05-15,1,,,,,ペア,0
535,2160003002876,新規,0,2023-05-15,2023-05-15,合同会社あずまや,,合同会社,滋賀県,守山市,幸津川町１１７３番地,,25,207,5240215,,,,,,,2023-05-15,1,,,,,アズマヤ,0
537,2170003001869,新規,0,2023-05-15,2023-05-15,合同会社スマイル福祉事務所,,合同会社,和歌山県,有田市,糸我町西９８３,,30,204,6490422,,,,,,,2023-05-15,1,,,,,スマイルフクシジムショ,0
545,2180001156243,新規,0,2023-05-15,2023-05-15,株式会社豊藤工業,,株式会社,愛知県,名古屋市緑区,浦里５丁目３１８番地,,23,114,4580847,,,,,,,2023-05-15,1,,,,,トヨフジコウギョウ,0
546,2180001156276,新規,0,2023-05-15,2023-05-15,株式会社ＺＥＲＯＮ,,株式会社,愛知県,名古屋市中区,栄３丁目２番３号名古屋日興證券ビル４階,,23,106,4600008,,,,,,,2023-05-15,1,,,,,ゼロン,0
547,2180001156284,新規,0,2023-05-15,2023-05-15,株式会社アレス,,株式会社,愛知県,名古屋市名東区,香坂１１２番地の１,,23,115,4650007,,,,,,,2023-05-15,1,,,,,アレス,0
548,2180001156292,新規,0,2023-05-15,2023-05-15,株式会社ミットオークジャパン,,株式会社,愛知県,名古屋市中区,栄１丁目８番３３号地下１階,,23,106,4600008,,,,,,,2023-05-15,1,,,,,ミットオークジャパン,0
549,2180001156301,新規,0,2023-05-15,2023-05-15,株式会社エスタス,,株式会社,愛知県,名古屋市中区,丸の内１丁目２－９長尾ビル２Ｆ,,23,106,4600002,,,,,,,2023-05-15,1,,,,,エスタス,0
550,2180001156318,新規,0,2023-05-15,2023-05-15,株式会社尾関興業,,株式会社,愛知県,愛西市,西川端町中東山８２番地,,23,232,4968019,,,,,,,2023-05-15,1,,,,,オゼキコウギョウ,0
551,2180003025223,新規,0,2023-05-15,2023-05-15,合同会社ＬＩＮＯＡ,,合同会社,愛知県,津島市,橘町１丁目８３番地ニュー津島ハイツＢ棟１１３号,,23,208,4960038,,,,,,,2023-05-15,1,,,,,リノア,0
552,2180003025231,新規,0,2023-05-15,2023-05-15,ＫｉｅＴｏ合同会社,,合同会社,愛知県,名古屋市北区,八代町２丁目１０番地の２,,23,103,4620043,,,,,,,2023-05-15,1,,,,,キイト,0
556,2180301037390,新規,0,2023-05-15,2023-05-15,Ｐａｒｋｉｎｇ　ＬＩｏＴ株式会社,,株式会社,愛知県,安城市,朝日町２５番３号,,23,212,4460031,,,,,,,2023-05-15,1,,,,,パーキングライオット,0
558,2200001041293,新規,0,2023-05-15,2023-05-15,ＧｒｏｗＲｅ’ａ株式会社,,株式会社,岐阜県,岐阜市,宇佐南４丁目９番１１,,21,201,5008367,,,,,,,2023-05-15,1,,,,,グローリア,0
561,2210001019314,新規,0,2023-05-15,2023-05-15,伊豆の空株式会社,,株式会社,福井県,鯖江市,日の出町２－１－４０１,,18,207,9160053,,,,,,,2023-05-15,1,,,,,イズノソラ,0
567,2240001061511,新規,0,2023-05-15,2023-05-15,株式会社ＳＥＫＩＹＡ,,株式会社,広島県,広島市東区,福田２丁目９９番地１フィオーレＢ２０１,,34,102,7320029,,,,,,,2023-05-15,1,,,,,セキヤ,0
568,2240001061528,新規,0,2023-05-15,2023-05-15,株式会社ブランケット,,株式会社,広島県,広島市南区,的場町２丁目６－３－４０２,,34,103,7320824,,,,,,,2023-05-15,1,,,,,ブランケット,0
569,2250001020086,新規,0,2023-05-15,2023-05-15,ピスタチオ・デザイン株式会社,,株式会社,山口県,周南市,大字櫛ヶ浜４９８番地の２,,35,215,7450805,,,,,,,2023-05-15,1,,,,,ピスタチオデザイン,0
570,2250001020094,新規,0,2023-05-15,2023-05-15,株式会社大山電気工事,,株式会社,山口県,岩国市,室の木町４丁目７６番１６号,,35,208,7400021,,,,,,,2023-05-15,1,,,,,オオヤマデンキコウジ,0
572,2250003003270,新規,0,2023-05-15,2023-05-15,合同会社Ｋ＆Ｔ,,合同会社,山口県,下関市,川中本町２丁目１番２号,,35,201,7510859,,,,,,,2023-05-15,1,,,,,ケイアンドティ,0
579,2290001101460,新規,0,2023-05-15,2023-05-15,株式会社ときめき,,株式会社,福岡県,福岡市南区,清水２丁目８番２２号,,40,134,8150031,,,,,,,2023-05-15,1,,,,,トキメキ,0
580,2290001101502,新規,0,2023-05-15,2023-05-15,株式会社東福,,株式会社,福岡県,福岡市博多区,博多駅前１丁目２３番１号ＰａｒｋＦｒｏｎｔ博多駅前一丁目５Ｆ－Ｂ,,40,132,8120011,,,,,,,2023-05-15,1,,,,,トウフク,0
581,2290001101543,新規,0,2023-05-15,2023-05-15,株式会社Ｓ　ＧＲＯＵＰ　ＨＯＬＤＩＮＧＳ,,株式会社,福岡県,福岡市博多区,住吉５丁目５－１５－２Ｆ,,40,132,8120018,,,,,,,2023-05-15,1,,,,,エスグループホールディングス,0
582,2290001101551,新規,0,2023-05-15,2023-05-15,株式会社スーパーノーマル,,株式会社,福岡県,福岡市博多区,東光１丁目３番１１－８０１号やますえ東光ビル,,40,132,8120008,,,,,,,2023-05-15,1,,,,,スーパーノーマル,0
593,2330003009846,新規,0,2023-05-15,2023-05-15,アデリス合同会社,,合同会社,熊本県,熊本市中央区,水道町６番３－３０６号,,43,101,8600844,,,,,,,2023-05-15,1,,,,,アデリス,0
594,2340003004128,新規,0,2023-05-15,2023-05-15,南薩シャッター合同会社,00130491,合同会社,鹿児島県,鹿児島市,紫原７丁目１０番２０号ＬＵＴＡＮ紫原１０２号,,46,201,8900082,,,,,,,2023-05-15,1,,,,,ナンサツシャッター,0
596,2360001032013,新規,0,2023-05-15,2023-05-15,株式会社ＭＫリアルエステート,,株式会社,沖縄県,宮古島市,上野字宮国４３７番地７３,,47,214,9060203,,,,,,,2023-05-15,1,,,,,エムケーリアルエステート,0
615,2430001089087,新規,0,2023-05-15,2023-05-15,株式会社フォーシーズン札幌,,株式会社,北海道,札幌市中央区,北二条西３丁目１番地１８第２５桂和ビル４Ｆ,,01,101,0600002,,,,,,,2023-05-15,1,,,,,フォーシーズンサッポロ,0
616,2430001089129,新規,0,2023-05-15,2023-05-15,株式会社アスカムネットワークス,,株式会社,北海道,札幌市中央区,南二条西１２丁目３２４番地１１,,01,101,0600062,,,,,,,2023-05-15,1,,,,,アスカムネットワークス,0
620,2430003015017,新規,0,2023-05-15,2023-05-15,合同会社ＴＦ　Ｑｒｅａｔｅ,,合同会社,北海道,札幌市白石区,菊水八条１丁目５番１号,,01,104,0030808,,,,,,,2023-05-15,1,,,,,ティーエフクリエイト,0
622,2430005014710,新規,0,2023-05-15,2023-05-15,弁護士法人レクスペラ法律事務所,,その他の設立登記法人,北海道,札幌市中央区,南三条西１０丁目南三条スクエアビル８階,,01,101,0600063,,,,,,,2023-05-15,1,,,,,レクスペラホウリツジムショ,0
624,2460101007383,新規,0,2023-05-15,2023-05-15,株式会社Ｓｕｎｌｉｇｈｔ　Ｆｉｅｌｄ,,株式会社,北海道,帯広市,東九条南８丁目１番地３１,,01,207,0800809,,,,,,,2023-05-15,1,,,,,サンライトフィールド,0
629,2700150116192,新規,0,2023-05-15,2023-05-15,ＳｈｅｎＺｈｅｎＳｈｉ　ＳｈｕｎＷｅｉＴｏｎｇＸｕｎＪｉＳｈｕ　ＹｏｕＸｉａｎＧｏｎｇＳｉ,,外国会社等,,,,,,,,ＬｏｎｇＨｕａＱｕＤａＬａｎｇＪｉｅＤａｏＧａｏＦｅｎｇＳｈｅＱｕ　ＳａｎＨｅＬｕ１Ｈａｏ５Ｄｏｎｇ４１３　ＳｈｅｎＺｈｅｎＳｈｉ　ＧｕａｎｇＤｏｎｇＳｈｅｎｇ,,,,,,2023-05-15,1,,,,,シンセンシスンウェイトンスゥンジスユウゲンコウシ,0
630,2700150116201,新規,0,2023-05-15,2023-05-15,Ｌｉａｎｙｕｎｇａｎｇ　Ｃｈｉｈａｉ　Ｎｅｔｗｏｒｋ　Ｔｅｃｈｎｏｌｏｇｙ　Ｃｏ．，Ｌｔｄ,,外国会社等,,,,,,,,Ｎｏ．５１８－１，Ｂｕｉｌｄｉｎｇ　３，Ｎｏ．１７，Ｈｕａｇｕｏｓｈａｎ　Ａｖｅｎｕｅ，Ｈａｉｚｈｏｕ　Ｄｉｓｔｒｉｃｔ，Ｌｉａｎｙｕｎｇａｎｇ　Ｃｉｔｙ,,,,,,2023-05-15,1,,,,,レンユンガンチハイネットワークテクノロジーカンパニーリミテッド,0
645,3010001234618,新規,0,2023-05-15,2023-05-15,ＭＫ国際メディカル株式会社,,株式会社,東京都,中央区,銀座４丁目１３番８号岩藤ビル５階,,13,102,1040061,,,,,,,2023-05-15,1,,,,,エムケイコクサイメディカル,0
646,3010001235277,新規,0,2023-05-15,2023-05-15,ＬＩＳＴＡ　ＦＥＬＩＺ株式会社,,株式会社,東京都,中央区,銀座３丁目４番１号大倉別館５階,,13,102,1040061,,,,,,,2023-05-15,1,,,,,リスタフェリス,0
647,3010001235285,新規,0,2023-05-15,2023-05-15,株式会社Ｗｈｉｔｅ　Ｐａｒｔｎｅｒｓ,,株式会社,東京都,文京区,白山４丁目２１番２号,,13,105,1120001,,,,,,,2023-05-15,1,,,,,ホワイトパートナーズ,0
656,3010401174323,新規,0,2023-05-15,2023-05-15,ＡＡＡＩＴ株式会社,,株式会社,東京都,港区,西麻布３丁目３番２号メディケア３３２－２階,,13,103,1060031,,,,,,,2023-05-15,1,,,,,トリプルエーアイティー,0
657,3010401174356,新規,0,2023-05-15,2023-05-15,株式会社サロクル,,株式会社,東京都,港区,南青山３丁目１番３号スプライン青山東急ビル６階,,13,103,1070062,,,,,,,2023-05-15,1,,,,,サロクル,0
659,3010403030061,新規,0,2023-05-15,2023-05-15,ＮＧＹインベストメント合同会社,,合同会社,東京都,港区,元赤坂１丁目１番７号,,13,103,1070051,,,,,,,2023-05-15,1,,,,,エヌジーワイインベストメント,0
660,3010403030094,新規,0,2023-05-15,2023-05-15,ＭＶＰ　Ｇｌｏｂａｌ合同会社,,合同会社,東京都,港区,南麻布１丁目４番３号パークアクシス麻布仙台坂６０１,,13,103,1060047,,,,,,,2023-05-15,1,,,,,エムブイピーグローバル,0
661,3010405022073,新規,0,2023-05-15,2023-05-15,一般社団法人美の会,,その他の設立登記法人,東京都,港区,赤坂６丁目６番３号,,13,103,1070052,,,,,,,2023-05-15,1,,,,,ビノカイ,0
663,3010501050440,新規,0,2023-05-15,2023-05-15,株式会社ＳＡＮＳＨＩＮ,,株式会社,東京都,台東区,千束４丁目２３番５,,13,106,1110031,,,,,,,2023-05-15,1,,,,,サンシン,0
668,3010601063103,新規,0,2023-05-15,2023-05-15,株式会社ＥＮ　ＧＬＵＳＴ,,株式会社,東京都,江東区,有明１丁目１番１７－３１１５号,,13,108,1350063,,,,,,,2023-05-15,1,,,,,エングラスト,0
676,3010803004540,新規,0,2023-05-15,2023-05-15,合同会社エイト,,合同会社,東京都,大田区,大森東１丁目２４番７号,,13,111,1430012,,,,,,,2023-05-15,1,,,,,エイト,0
677,3010901053043,新規,0,2023-05-15,2023-05-15,株式会社ＨＡＮＡＭＡＲＲＹ,,株式会社,東京都,世田谷区,経堂２丁目２番１０号ＰＬＵＭＢＯＸ８・２階,,13,112,1560052,,,,,,,2023-05-15,1,,,,,ハナマリィー,0
678,3010901053051,新規,0,2023-05-15,2023-05-15,日々株式会社,,株式会社,東京都,世田谷区,代田５丁目３４番１７－１０３号,,13,112,1550033,,,,,,,2023-05-15,1,,,,,ヒビ,0
687,3011003016806,新規,0,2023-05-15,2023-05-15,合同会社コネクト,,合同会社,東京都,渋谷区,道玄坂１丁目１０番８号渋谷道玄坂東急ビル２Ｆ－Ｃ,,13,113,1500043,,,,,,,2023-05-15,1,,,,,コネクト,0
688,3011003016830,新規,0,2023-05-15,2023-05-15,合同会社ＭＭ,,合同会社,東京都,渋谷区,東１丁目２番２０－２２０３号ラ・トゥール渋谷,,13,113,1500011,,,,,,,2023-05-15,1,,,,,,0
691,3011101102813,新規,0,2023-05-15,2023-05-15,ブグラー株式会社,,株式会社,東京都,新宿区,西新宿４丁目７番５号,,13,104,1600023,,,,,,,2023-05-15,1,,,,,ブグラー,0
692,3011101102870,新規,0,2023-05-15,2023-05-15,株式会社Ｌａｐｌａｃｅ,,株式会社,東京都,新宿区,新宿１丁目３６番１２号,,13,104,1600022,,,,,,,2023-05-15,1,,,,,ラプラス,0
694,3011201024635,新規,0,2023-05-15,2023-05-15,株式会社フォレスト,,株式会社,東京都,中野区,中野５丁目１８番１号,,13,114,1640001,,,,,,,2023-05-15,1,,,,,フォレスト,0
703,3011501029284,新規,0,2023-05-15,2023-05-15,株式会社Ｂｌｏｏｍ　Ｗａｖｅ,,株式会社,東京都,荒川区,西日暮里２丁目４９－１０エスタシオン辻山１１０２室,,13,118,1160013,,,,,,,2023-05-15,1,,,,,ブルームウェイブ,0
705,3011503005597,新規,0,2023-05-15,2023-05-15,合同会社山際,,合同会社,東京都,荒川区,南千住３丁目４１番６－９０８号,,13,118,1160003,,,,,,,2023-05-15,1,,,,,ヤマギワ,0
706,3011503005606,新規,0,2023-05-15,2023-05-15,合同会社ＨＹ,,合同会社,東京都,北区,浮間２丁目１０番２７号,,13,117,1150051,,,,,,,2023-05-15,1,,,,,エッチワイ,0
708,3011601026818,新規,0,2023-05-15,2023-05-15,株式会社Ｏインターナショナル,,株式会社,東京都,練馬区,高野台５丁目２番１０－２０２号,,13,120,1770033,,,,,,,2023-05-15,1,,,,,オーインターナショナル,0
709,3011603003922,新規,0,2023-05-15,2023-05-15,ベルファイン合同会社,,合同会社,東京都,練馬区,大泉町６丁目２２番７―２０４号,,13,120,1780062,,,,,,,2023-05-15,1,,,,,ベルファイン,0
710,3011705001782,新規,0,2023-05-15,2023-05-15,社会福祉法人自靖会,,その他の設立登記法人,東京都,江戸川区,鹿骨４丁目８０番１,,13,123,1330073,,,,,,,2023-05-15,1,,,,,ジセイカイ,0
713,3011803005652,新規,0,2023-05-15,2023-05-15,ティエムシステム合同会社,,合同会社,東京都,葛飾区,小菅１丁目２６番６号,,13,122,1240001,,,,,,,2023-05-15,1,,,,,ティエムシステム,0
718,3012801022350,新規,0,2023-05-15,2023-05-15,漢方薬延年堂商事株式会社,,株式会社,東京都,立川市,柏町５丁目３番地の１３９,,13,202,1900004,,,,,,,2023-05-15,1,,,,,カンポウヤクエンネンドウショウジ,0
719,3012805003198,新規,0,2023-05-15,2023-05-15,一般社団法人Ｃｏ,,その他の設立登記法人,東京都,国立市,東１丁目２０番地の１２ＹＭＣＡ一橋寮,,13,215,1860002,,,,,,,2023-05-15,1,,,,,コー,0
720,3013101009170,新規,0,2023-05-15,2023-05-15,株式会社ケイ・コム,,株式会社,東京都,あきる野市,原小宮１丁目５番地８,,13,228,1970811,,,,,,,2023-05-15,1,,,,,ケイコム,0
723,3013305003473,新規,0,2023-05-15,2023-05-15,税理士法人Ｌｉｅｎ　Ｆｏｒｔ,,その他の設立登記法人,東京都,豊島区,東池袋５丁目７番４号マーブル東池袋５階,,13,116,1700013,,,,,,,2023-05-15,1,,,,,リアンフォール,0
732,3020001151556,新規,0,2023-05-15,2023-05-15,株式会社アッシュスタジオ,,株式会社,神奈川県,横浜市中区,海岸通５丁目２５番地２,,14,104,2310002,,,,,,,2023-05-15,1,,,,,アッシュスタジオ,0
733,3020001151589,新規,0,2023-05-15,2023-05-15,株式会社ＩＮＴＥＣＨＳ,,株式会社,神奈川県,横浜市神奈川区,菅田町２１０８番地４号２階,,14,102,2210864,,,,,,,2023-05-15,1,,,,,インテックス,0
734,3020001151606,新規,0,2023-05-15,2023-05-15,株式会社ＫＴ　Ｌａｎｄｓ,,株式会社,神奈川県,川崎市高津区,末長３丁目２８番９－７０３号パークホームズ武蔵新城ツインソリッド,,14,134,2130013,,,,,,,2023-05-15,1,,,,,ケイティランズ,0
736,3020003023869,新規,0,2023-05-15,2023-05-15,合同会社ｍｉｃｕｎｉ,,合同会社,神奈川県,横浜市鶴見区,駒岡３丁目１１－５,,14,101,2300071,,,,,,,2023-05-15,1,,,,,ミクニ,0
737,3020003023902,新規,0,2023-05-15,2023-05-15,合同会社渡邊商会,,合同会社,神奈川県,横浜市金沢区,釜利谷東２丁目１６番１３－１０２号,,14,108,2360042,,,,,,,2023-05-15,1,,,,,ワタナベショウカイ,0
742,3021001079028,新規,0,2023-05-15,2023-05-15,株式会社Ｍａｍ’ｓカンパニー,,株式会社,神奈川県,海老名市,下今泉１丁目１４番１２－１号,,14,215,2430435,,,,,,,2023-05-15,1,,,,,マムズカンパニー,0
743,3021001079036,新規,0,2023-05-15,2023-05-15,株式会社本田電設工業,,株式会社,神奈川県,南足柄市,竹松８２９,,14,217,2500111,,,,,,,2023-05-15,1,,,,,ホンダデンセツコウギョウ,0
744,3021001079052,新規,0,2023-05-15,2023-05-15,ＲＥＡＭ株式会社,,株式会社,神奈川県,大和市,中央林間西５丁目４番１３号,,14,213,2420008,,,,,,,2023-05-15,1,,,,,リーム,0
750,3021003013075,新規,0,2023-05-15,2023-05-15,合同会社Ｌｏｖｅ　ｉｔ,,合同会社,神奈川県,藤沢市,片瀬３丁目１番３６号,,14,205,2510032,,,,,,,2023-05-15,1,,,,,ラビット,0
751,3021003013091,新規,0,2023-05-15,2023-05-15,合同会社ＭＵ２,,合同会社,神奈川県,横須賀市,追浜東町２丁目３番地１ザ・パークハウス追浜Ｄ―７１６,,14,201,2370063,,,,,,,2023-05-15,1,,,,,エムユーツー,0
757,3030001153857,新規,0,2023-05-15,2023-05-15,株式会社ＫＳＲ,,株式会社,埼玉県,三郷市,采女１丁目９８番地１,,11,237,3410011,,,,,,,2023-05-15,1,,,,,ケーエスアール,0
758,3030001153881,新規,0,2023-05-15,2023-05-15,株式会社佐藤留美商店,,株式会社,埼玉県,越谷市,大字袋山６０２番１２号ふくろうの郷Ａ,,11,222,3430032,,,,,,,2023-05-15,1,,,,,サトウルミショウテン,0
759,3030001153898,新規,0,2023-05-15,2023-05-15,株式会社芥,,株式会社,埼玉県,さいたま市中央区,下落合３丁目８番１８号,,11,105,3380002,,,,,,,2023-05-15,1,,,,,アクタ,0
760,3030001153907,新規,0,2023-05-15,2023-05-15,ＳＵＺＡＫＵ　ＪＡＰＡＮホールディングス株式会社,,株式会社,埼玉県,さいたま市南区,大字太田窪３５０６番地１１輝龍ビル１Ｆ,,11,108,3360015,,,,,,,2023-05-15,1,,,,,スザクジャパンホールディングス,0
761,3030001153923,新規,0,2023-05-15,2023-05-15,株式会社ｔｏ　ｆｏｒ＆ｔｏ,,株式会社,埼玉県,所沢市,東新井町７５２番地４,,11,208,3590034,,,,,,,2023-05-15,1,,,,,トゥフォーアンドトゥ,0
765,3030003021756,新規,0,2023-05-15,2023-05-15,合同会社ニュープラン,,合同会社,埼玉県,南埼玉郡宮代町,東姫宮１丁目１５番１３号プリシェット２０３号,,11,442,3450813,,,,,,,2023-05-15,1,,,,,ニュープラン,0
770,3040001128370,新規,0,2023-05-15,2023-05-15,株式会社オフィス・ステージ,,株式会社,千葉県,山武郡九十九里町,小関２２８８番地,,12,403,2830102,,,,,,,2023-05-15,1,,,,,オフィスステージ,0
771,3040001128387,新規,0,2023-05-15,2023-05-15,株式会社ＺＥＲＯ,,株式会社,千葉県,東金市,田間２３９９番地１４エルビート東金２０３,,12,213,2830005,,,,,,,2023-05-15,1,,,,,ゼロ,0
772,3040001128420,新規,0,2023-05-15,2023-05-15,株式会社ＡＩＲ,,株式会社,千葉県,柏市,光ケ丘団地５番１８－２１０号,,12,217,2770062,,,,,,,2023-05-15,1,,,,,エアー,0
774,3040003022613,新規,0,2023-05-15,2023-05-15,イコール合同会社,,合同会社,千葉県,八千代市,八千代台南３丁目２５番４３号,,12,221,2760033,,,,,,,2023-05-15,1,,,,,イコール,0
777,3050003007506,新規,0,2023-05-15,2023-05-15,合同会社桃花,,合同会社,茨城県,那珂郡東海村,東海１丁目１６番２号ｇｕｐｌｕｓ１０１,,08,341,3191117,,,,,,,2023-05-15,1,,,,,トウカ,0
780,3060001035978,新規,0,2023-05-15,2023-05-15,株式会社ｗａｎｔ,,株式会社,栃木県,下都賀郡野木町,大字野渡２２６番地１,,09,364,3290115,,,,,,,2023-05-15,1,,,,,ウォント,0
784,3070001040440,新規,0,2023-05-15,2023-05-15,株式会社ＫＮデザイン,,株式会社,群馬県,みどり市,笠懸町鹿９２番地３２,,10,212,3792313,,,,,,,2023-05-15,1,,,,,ケイエヌデザイン,0
794,3100003007013,新規,0,2023-05-15,2023-05-15,合同会社オフィス３６９,,合同会社,長野県,北佐久郡御代田町,大字御代田３９０６番地７,,20,323,3890206,,,,,,,2023-05-15,1,,,,,オフィスサンロクキュウ,0
806,3120001254828,新規,0,2023-05-15,2023-05-15,株式会社プラス・ワンステップ,,株式会社,大阪府,大阪市福島区,福島１丁目２番２５号,,27,103,5530003,,,,,,,2023-05-15,1,,,,,プラスワンステップ,0
807,3120001254836,新規,0,2023-05-15,2023-05-15,ＹＳ防水株式会社,,株式会社,大阪府,枚方市,宗谷２丁目２３番８号,,27,210,5730113,,,,,,,2023-05-15,1,,,,,ワイエスボウスイ,0
808,3120001254852,新規,0,2023-05-15,2023-05-15,株式会社ＡＪＥＴ,,株式会社,大阪府,大阪市淀川区,木川西３丁目５番２０号,,27,123,5320013,,,,,,,2023-05-15,1,,,,,エージェット,0
809,3120001254860,新規,0,2023-05-15,2023-05-15,株式会社Ｌｉ‐ｒｉｇｈｔ,,株式会社,大阪府,大阪市浪速区,難波中３丁目３番１０号ナンバ清水ビル４階,,27,111,5560011,,,,,,,2023-05-15,1,,,,,リライト,0
810,3120001254869,新規,0,2023-05-15,2023-05-15,株式会社ｎｉｃｏ,,株式会社,大阪府,大阪市城東区,中央１丁目７番２９号,,27,118,5360005,,,,,,,2023-05-15,1,,,,,ニコ,0
811,3120001254893,新規,0,2023-05-15,2023-05-15,株式会社ぽると,,株式会社,大阪府,大阪市北区,豊崎１丁目９番５－１号,,27,127,5310072,,,,,,,2023-05-15,1,,,,,ポルト,0
812,3120003024056,新規,0,2023-05-15,2023-05-15,合同会社Ｒｅｖｉｖｅ,,合同会社,大阪府,大阪市天王寺区,小橋町１２番２－３１４号,,27,109,5430028,,,,,,,2023-05-15,1,,,,,リバイブ,0
813,3120003024064,新規,0,2023-05-15,2023-05-15,合同会社おもびよ,,合同会社,大阪府,大阪市北区,梅田１丁目２番２号大阪駅前第２ビル１２－１２,,27,127,5300001,,,,,,,2023-05-15,1,,,,,オモビヨ,0
814,3120003024080,新規,0,2023-05-15,2023-05-15,合同会社ハヤブサポート,,合同会社,大阪府,大阪市鶴見区,放出東２丁目２０－１６,,27,124,5380044,,,,,,,2023-05-15,1,,,,,ハヤブサポート,0
816,3120103005212,新規,0,2023-05-15,2023-05-15,合同会社ワイユーテック,,合同会社,大阪府,堺市堺区,南向陽町１丁１番３２－１１０２号,,27,141,5900073,,,,,,,2023-05-15,1,,,,,ワイユーテック,0
817,3120901047513,新規,0,2023-05-15,2023-05-15,ハルサンズジャパン株式会社,,株式会社,大阪府,吹田市,青山台２丁目１３番４号,,27,205,5650875,,,,,,,2023-05-15,1,,,,,ハルサンズジャパン,0
819,3122001036966,新規,0,2023-05-15,2023-05-15,株式会社ＯＮＥＳＴＡＲ,,株式会社,大阪府,柏原市,法善寺２丁目１５番４８－４０１号,,27,221,5820005,,,,,,,2023-05-15,1,,,,,ワンスター,0
820,3130001074309,新規,0,2023-05-15,2023-05-15,株式会社コアリンク,,株式会社,京都府,京都市左京区,吉田泉殿町６３番地,,26,103,6068301,,,,,,,2023-05-15,1,,,,,コアリンク,0
822,3130003008719,新規,0,2023-05-15,2023-05-15,合同会社Ｐｏｉｅｔｉｃａ,,合同会社,京都府,京都市左京区,一乗寺清水町１６－２ソレイユダイサン２０１号室,,26,103,6068125,,,,,,,2023-05-15,1,,,,,ポイエティカ,0
825,3140001130135,新規,0,2023-05-15,2023-05-15,株式会社ＺＥＳＴ,,株式会社,兵庫県,尼崎市,三反田町３丁目６番２３－４０７号,,28,202,6610024,,,,,,,2023-05-15,1,,,,,ゼスト,0
826,3140001130151,新規,0,2023-05-15,2023-05-15,株式会社ＡＧ工業,,株式会社,兵庫県,姫路市,大寿台１丁目１番７号,,28,201,6700898,,,,,,,2023-05-15,1,,,,,エージーコウギョウ,0
827,3140001130184,新規,0,2023-05-15,2023-05-15,株式会社湊ｍｅａｔ,,株式会社,兵庫県,神戸市兵庫区,荒田町１丁目１３番８号,,28,105,6520032,,,,,,,2023-05-15,1,,,,,ミナトミート,0
832,3140003019079,新規,0,2023-05-15,2023-05-15,合同会社ＳＫＲ,,合同会社,兵庫県,宝塚市,宝梅２丁目６番８９－５０７号,,28,214,6650013,,,,,,,2023-05-15,1,,,,,エスケーアール,0
833,3140003019095,新規,0,2023-05-15,2023-05-15,ラストチャンス合同会社,,合同会社,兵庫県,尼崎市,北大物町１７番１５号,,28,202,6600804,,,,,,,2023-05-15,1,,,,,ラストチャンス,0
842,3180001156250,新規,0,2023-05-15,2023-05-15,株式会社愛信総建,,株式会社,愛知県,春日井市,外之原町字酉手２７６５番地１,,23,206,4870002,,,,,,,2023-05-15,1,,,,,アイシンソウケン,0
843,3180001156267,新規,0,2023-05-15,2023-05-15,株式会社Ｖｉｚｚ　Ｒｅｖｅｉｌ,,株式会社,愛知県,海部郡蟹江町,大字西之森字長瀬下６５番地１１,,23,425,4970052,,,,,,,2023-05-15,1,,,,,ヴィズレヴェイユ,0
844,3180001156275,新規,0,2023-05-15,2023-05-15,株式会社ＩＷＳＰ,,株式会社,愛知県,一宮市,三条字ヱグロ１４番地１,,23,203,4940003,,,,,,,2023-05-15,1,,,,,アイダブリューエスピー,0
845,3180001156300,新規,0,2023-05-15,2023-05-15,株式会社サポート善,,株式会社,愛知県,名古屋市中区,正木４丁目８－８メゾン金山２０７,,23,106,4600024,,,,,,,2023-05-15,1,,,,,サポートゼン,0
846,3180001156309,新規,0,2023-05-15,2023-05-15,ラビットジャパン株式会社,,株式会社,愛知県,名古屋市中村区,名駅４丁目２４番５号第２森ビル４０１,,23,105,4500002,,,,,,,2023-05-15,1,,,,,ラビットジャパン,0
847,3180001156317,新規,0,2023-05-15,2023-05-15,株式会社松岡ビルホールディングカンパニー,,株式会社,愛知県,名古屋市天白区,原３丁目５０７番地,,23,116,4680015,,,,,,,2023-05-15,1,,,,,マツオカビルホールディングカンパニー,0
848,3180001156325,新規,0,2023-05-15,2023-05-15,ＴＹ３１７Ｍｅｄｉａ株式会社,,株式会社,愛知県,名古屋市中区,栄３丁目１１番５号栄マンションＮ棟９０１号,,23,106,4600008,,,,,,,2023-05-15,1,,,,,ティーワイサンイチナナメディア,0
854,3180003025214,新規,0,2023-05-15,2023-05-15,Ｔｅｌｅｓｃｏ合同会社,,合同会社,愛知県,名古屋市中村区,名駅４丁目２４番５号第２森ビル４０１,,23,105,4500002,,,,,,,2023-05-15,1,,,,,テレスコ,0
855,3180003025230,新規,0,2023-05-15,2023-05-15,ＢｏｌｄＶｅｎｔｕｒｅｓ合同会社,,合同会社,愛知県,名古屋市東区,矢田２丁目４番３８号,,23,102,4610040,,,,,,,2023-05-15,1,,,,,ボールドベンチャーズ,0
861,3220005008757,新規,0,2023-05-15,2023-05-15,一般社団法人つなぐラボ,,その他の設立登記法人,石川県,金沢市,小立野１丁目１７番２３号,,17,201,9200942,,,,,,,2023-05-15,1,,,,,ツナグラボ,0
865,3240001061452,新規,0,2023-05-15,2023-05-15,えん株式会社,,株式会社,広島県,東広島市,西条岡町４番８号,,34,212,7390016,,,,,,,2023-05-15,1,,,,,エン,0
866,3240001061527,新規,0,2023-05-15,2023-05-15,株式会社ともに．,,株式会社,広島県,広島市佐伯区,五日市港２丁目３番１１号,,34,108,7315161,,,,,,,2023-05-15,1,,,,,トモニ,0
870,3240003006141,新規,0,2023-05-15,2023-05-15,Ｎｅｕｔｒａｌ合同会社,,合同会社,広島県,福山市,山手町２丁目５番２５号,,34,207,7200092,,,,,,,2023-05-15,1,,,,,ニュートラル,0
873,3250001020085,新規,0,2023-05-15,2023-05-15,株式会社ＵＢＥ　ＣＯＬ,,株式会社,山口県,宇部市,南小串２丁目２番７－３０７号,,35,202,7550046,,,,,,,2023-05-15,1,,,,,ウベカレ,0
878,3260001037938,新規,0,2023-05-15,2023-05-15,川端自動制御株式会社,,株式会社,岡山県,岡山市北区,佐山１３９９番地１,,33,101,7011205,,,,,,,2023-05-15,1,,,,,カワバタジドウセイギョ,0
879,3260001037954,新規,0,2023-05-15,2023-05-15,株式会社ＢＯＳ,,株式会社,岡山県,岡山市北区,京町１２番１５号ソレイユ京町４０１,,33,101,7000838,,,,,,,2023-05-15,1,,,,,ビーオーエス,0
885,3290001101550,新規,0,2023-05-15,2023-05-15,株式会社エイトロック,,株式会社,福岡県,福岡市東区,筥松２丁目２０番２号,,40,131,8120061,,,,,,,2023-05-15,1,,,,,エイトロック,0
888,3290003013918,新規,0,2023-05-15,2023-05-15,ＳＫ商事合同会社,,合同会社,福岡県,飯塚市,勢田１８０９番地１,,40,205,8201111,,,,,,,2023-05-15,1,,,,,エスケイショウジ,0
889,3290801029520,新規,0,2023-05-15,2023-05-15,株式会社テンバー,,株式会社,福岡県,北九州市小倉北区,魚町３丁目３番１２号１Ｆ－１,,40,106,8020006,,,,,,,2023-05-15,1,,,,,テンバー,0
894,3310003004575,新規,0,2023-05-15,2023-05-15,合同会社万事屋桔梗,,合同会社,長崎県,長崎市,西山２丁目７番１４号４０３号,,42,201,8500001,,,,,,,2023-05-15,1,,,,,ヨロズヤキキョウ,0
897,3330001030869,新規,0,2023-05-15,2023-05-15,株式会社Ｎａｋａｎｉｓｈｉ　Ｃｏｒｐｏｒａｔｉｏｎ,,株式会社,熊本県,熊本市中央区,大江本町９番６号,,43,101,8620973,,,,,,,2023-05-15,1,,,,,ナカニシコーポレーション,0
902,3350001018359,新規,0,2023-05-15,2023-05-15,株式会社九州建創,,株式会社,宮崎県,宮崎市,下北方町下郷６０２２番１９号,,45,201,8800035,,,,,,,2023-05-15,1,,,,,キュウシュウケンソウ,0
907,3360001031996,新規,0,2023-05-15,2023-05-15,株式会社仲座,,株式会社,沖縄県,浦添市,当山１丁目１０番１６号仲座アパート２０２号室,,47,208,9012104,,,,,,,2023-05-15,1,,,,,ナカザ,0
911,3360003012937,新規,0,2023-05-15,2023-05-15,合同会社Ｂｅａｕｔｙ　Ｈｅａｌｔｈ　Ｃｒｅａｔｉｏｎ,,合同会社,沖縄県,那覇市,銘苅１丁目３番４１号レゼル・アッシュ３－Ｂ,,47,201,9000004,,,,,,,2023-05-15,1,,,,,ビューティーヘルスクリエーション,0
912,3360003012961,新規,0,2023-05-15,2023-05-15,合同会社ゑびす,,合同会社,沖縄県,那覇市,字宇栄原７４３番地,,47,201,9010153,,,,,,,2023-05-15,1,,,,,エビス,0
913,3370003006129,新規,0,2023-05-15,2023-05-15,合同会社ＧｉｇａＤａｔ,,合同会社,宮城県,仙台市泉区,加茂３丁目１０番地の１１,,04,105,9813122,,,,,,,2023-05-15,1,,,,,ギガダット,0
914,3380001033677,新規,0,2023-05-15,2023-05-15,ピュアロンホールディングス株式会社,,株式会社,福島県,いわき市,好間工業団地１番３７,,07,204,9701144,,,,,,,2023-05-15,1,,,,,ピュアロンホールディングス,0
920,3410003003798,新規,0,2023-05-15,2023-05-15,合同会社Ａｌｌ　ｇｏｏｄ,,合同会社,秋田県,秋田市,山王５丁目９番２号,,05,201,0100951,,,,,,,2023-05-15,1,,,,,オールグッド,0
926,3430001089045,新規,0,2023-05-15,2023-05-15,株式会社Ｋｌｅｖｅｒ　Ｔｒａｎｓｐｏｒｔ,,株式会社,北海道,石狩市,樽川五条２丁目５４番地,,01,235,0613255,,,,,,,2023-05-15,1,,,,,クレバートランスポート,0
927,3430001089061,新規,0,2023-05-15,2023-05-15,株式会社タクマ企画,,株式会社,北海道,札幌市中央区,北四条西２５丁目１番２０－４０１号,,01,101,0640824,,,,,,,2023-05-15,1,,,,,タクマキカク,0
928,3430003015024,新規,0,2023-05-15,2023-05-15,合同会社ＬＥＯＮ,,合同会社,北海道,札幌市豊平区,平岸四条８丁目３番１５－２０２号,,01,105,0620934,,,,,,,2023-05-15,1,,,,,レオン,0
930,3460303000796,新規,0,2023-05-15,2023-05-15,合同会社ＢＦＦ,,合同会社,北海道,網走市,字潮見１４４番地,,01,211,0930042,,,,,,,2023-05-15,1,,,,,ビーエフエフ,0
934,3700150116191,新規,0,2023-05-15,2023-05-15,Ｓｈｅｎｚｈｅｎｓｈｉ　Ｌｉｗｅｉｙａ　Ｋｅｊｉ　Ｙｏｕｘｉａｎ　Ｇｏｎｇｓｉ,,外国会社等,,,,,,,,Ｍｉｎｑｉａｎｇ　ｃｏｍｍｕｎｉｔｙ，，Ｍｉｎｚｈｉ　ｓｔｒｅｅｔ，Ｌｏｎｇｈｕａ　Ｄｉｓｔｒｉｃｔ，６０１　Ｓｈｕｉｗｅｉ　ｃｏｍｍｅｒｃｉａｌ　ｂｕｉｌｄｉｎｇ，Ｓｈｅｎｚｈｅｎ　Ｇｕａｎｇｄｏｎｇ,,,,,,2023-05-15,1,,,,,シンセンシリウェイヤケジユウゲンコウシ,0
935,3700150116200,新規,0,2023-05-15,2023-05-15,Ｘｉａｍｅｎ　Ａｉ　Ｂａｉ　Ｓｈｉ　Ｋｅ　Ｔｒａｄｉｎｇ　Ｌｉｍｉｔｅｄ　Ｃｏｍｐａｎｙ,,外国会社等,,,,,,,,Ｘｉａｎｇｐｉｎｇ　Ｓｔｒｅｅｔ　Ｆｅｎｇｘｉａｎｇ　ｘｉａｏｑｕ　ｓａｎｌｉ　Ｎｏ．６１　Ｔｏｎｇａｎ　Ｄｉｓｔｒｉｃｔ　Ｘｉａｍｅｎ　Ｆｕｊｉａｎ,,,,,,2023-05-15,1,,,,,シャメンアイバイシケトゥレイディングリミテッドカンパニー,0
936,3700150116209,新規,0,2023-05-15,2023-05-15,ｙｉ　ｗｕ　ｓｈｉ　ｃｈｕａｎｇ　ｂａｎｇ　ｍａｏ　ｙｉ　ｙｏｕ　ｘｉａｎ　ｇｏｎｇ　ｓｉ,,外国会社等,,,,,,,,ｆｕ　ｔｉａｎ　ｙｉ　ｑｕ　１９　ｄｏｎｇ　６　ｈａｏ　４０１　ｓｈｉ　ｙｉ　ｗｕ　ｓｈｉ　ｚｈｅ　ｊｉａｎｇ　ｓｈｅｎｇ　ＣＮ,,,,,,2023-05-15,1,,,,,イウシツゥアンバンマオイユウゲンコウシ,0
947,4010001235284,新規,0,2023-05-15,2023-05-15,ＳｏｕｎｄＳｍａｒｔ株式会社,,株式会社,東京都,中央区,八重洲２丁目１１番７号５Ｆ,,13,102,1040028,,,,,,,2023-05-15,1,,,,,サウンドスマート,0
952,4010003040583,新規,0,2023-05-15,2023-05-15,合同会社Ｂａｊａｕ,,合同会社,東京都,中央区,銀座１丁目１２番４号Ｎ＆ＥＢＬＤ．６Ｆ,,13,102,1040061,,,,,,,2023-05-15,1,,,,,バジャウ,0
966,4010401174322,新規,0,2023-05-15,2023-05-15,株式会社Ｎｉｃｏｐ,,株式会社,東京都,港区,浜松町２丁目２番１５号浜松町ダイヤビル２Ｆ,,13,103,1050013,,,,,,,2023-05-15,1,,,,,ニコップ,0
967,4010401174339,新規,0,2023-05-15,2023-05-15,Ｓｕｐｅｒｎｏｖａ株式会社,,株式会社,東京都,港区,麻布十番１丁目２番７号ラフィネ麻布十番７０１号室,,13,103,1060045,,,,,,,2023-05-15,1,,,,,スーパーノヴァ,0
968,4010401174347,新規,0,2023-05-15,2023-05-15,ＮＩＮＥ　ＳＴＯＲＩＥＳ株式会社,,株式会社,東京都,港区,三田２丁目７番１－１８１３号,,13,103,1080073,,,,,,,2023-05-15,1,,,,,ナインストーリーズ,0
969,4010401174355,新規,0,2023-05-15,2023-05-15,株式会社ＦＯＲＳＡＬＬ,,株式会社,東京都,港区,新橋３丁目１８番７号,,13,103,1050004,,,,,,,2023-05-15,1,,,,,フォーズオール,0
970,4010401174363,新規,0,2023-05-15,2023-05-15,株式会社オフィスＫ,,株式会社,東京都,港区,浜松町２丁目２番１５号浜松町ダイヤビル２Ｆ,,13,103,1050013,,,,,,,2023-05-15,1,,,,,オフィスケイ,0
974,4010403030069,新規,0,2023-05-15,2023-05-15,昇侍合同会社,,合同会社,東京都,港区,南青山３丁目１番３６号青山丸竹ビル６Ｆ,,13,103,1070062,,,,,,,2023-05-15,1,,,,,ショウジ,0
975,4010403030093,新規,0,2023-05-15,2023-05-15,合同会社空希,,合同会社,東京都,港区,港南２丁目１６番４号品川グランドセントラルタワー８Ｆ,,13,103,1080075,,,,,,,2023-05-15,1,,,,,ソラキ,0
977,4010405022072,新規,0,2023-05-15,2023-05-15,一般社団法人夢追舎,,その他の設立登記法人,東京都,港区,港南２丁目１５番１号,,13,103,1080075,,,,,,,2023-05-15,1,,,,,ユメオイシャ,0
978,4010405022089,新規,0,2023-05-15,2023-05-15,一般財団法人始動Ｎｅｘｔ　Ｉｎｎｏｖａｔｏｒ,,その他の設立登記法人,東京都,港区,虎ノ門１丁目１７番１号虎ノ門ヒルズビジネスタワー４階ＡＲＣＨ内,,13,103,1050001,,,,,,,2023-05-15,1,,,,,シドウネクストイノベーター,0
980,4010501006409,新規,0,2023-05-15,2023-05-15,株式会社スワロー商会,,株式会社,東京都,台東区,台東４丁目２９番１５号,,13,106,1100016,,,,,,,2023-05-15,1,,,,,,0
985,4010603010151,新規,0,2023-05-15,2023-05-15,合同会社バンドメ,,合同会社,東京都,墨田区,八広６丁目６番１０号,,13,107,1310041,,,,,,,2023-05-15,1,,,,,バンドメ,0
993,4010801033929,新規,0,2023-05-15,2023-05-15,ＴＡＮＡＫＡ工業株式会社,,株式会社,東京都,大田区,西蒲田１丁目１６番１６号,,13,111,1440051,,,,,,,2023-05-15,1,,,,,タナカコウギョウ,0
994,4010801033945,新規,0,2023-05-15,2023-05-15,株式会社Ｇｒｏｗ　ｄｉｎｉｎｇ,,株式会社,東京都,大田区,大森北１丁目１３番１４号リハナ２－１階,,13,111,1430016,,,,,,,2023-05-15,1,,,,,グローダイニング,0
999,4010901053001,新規,0,2023-05-15,2023-05-15,株式会社ＬＵＭＩＣＩＡ,,株式会社,東京都,世田谷区,上馬４丁目４１番１号フィーロ世田谷２０５,,13,112,1540011,,,,,,,2023-05-15,1,,,,,ルミシア,0
1000,4010901053034,新規,0,2023-05-15,2023-05-15,株式会社るしえる,,株式会社,東京都,世田谷区,奥沢８丁目１６番５号,,13,112,1580083,,,,,,,2023-05-15,1,,,,,ルシエル,0
1001,4010901053042,新規,0,2023-05-15,2023-05-15,株式会社鑑,,株式会社,東京都,世田谷区,世田谷３丁目１２番１１号松風ビル３階,,13,112,1540017,,,,,,,2023-05-15,1,,,,,カガミ,0
1007,4011001154219,新規,0,2023-05-15,2023-05-15,株式会社スマートトーブ,,株式会社,東京都,渋谷区,道玄坂１丁目１０番８号渋谷道玄坂東急ビル２Ｆ－Ｃ,,13,113,1500043,,,,,,,2023-05-15,1,,,,,スマートトーブ,0
1008,4011001154417,新規,0,2023-05-15,2023-05-15,株式会社生樂堂,,株式会社,東京都,渋谷区,道玄坂１丁目１０番８号渋谷道玄坂東急ビル２Ｆ－Ｃ,,13,113,1500043,,,,,,,2023-05-15,1,,,,,セイガクドウ,0
1009,4011001154433,新規,0,2023-05-15,2023-05-15,株式会社ＭＯＢ,,株式会社,東京都,渋谷区,千駄ヶ谷５丁目１２番１３号ウエストサイド新宿御苑２０９号室,,13,113,1510051,,,,,,,2023-05-15,1,,,,,エムオービー,0
1015,4011101102812,新規,0,2023-05-15,2023-05-15,株式会社グリーンクルー,,株式会社,東京都,新宿区,新宿２丁目１２番１３号新宿アントレサロンビル２階,,13,104,1600022,,,,,,,2023-05-15,1,,,,,グリーンクルー,0
1022,4011601026809,新規,0,2023-05-15,2023-05-15,株式会社菅事務所,,株式会社,東京都,練馬区,羽沢１丁目３番１４号,,13,120,1760003,,,,,,,2023-05-15,1,,,,,スガジムショ,0
1024,4011701026238,新規,0,2023-05-15,2023-05-15,株式会社Ｎａｍｅｒａｋａ,,株式会社,東京都,江戸川区,船堀４丁目５－５－３０２,,13,123,1340091,,,,,,,2023-05-15,1,,,,,ナメラカ,0
1028,4011801042366,新規,0,2023-05-15,2023-05-15,株式会社ＳＨＯＮＥＮ,,株式会社,東京都,足立区,青井６丁目２０－１５－１００１,,13,121,1210012,,,,,,,2023-05-15,1,,,,,ショウネン,0
1029,4011801042390,新規,0,2023-05-15,2023-05-15,株式会社邦久工務店,,株式会社,東京都,足立区,西保木間２丁目２－２２－５０６,,13,121,1210812,,,,,,,2023-05-15,1,,,,,クニヒサコウムテン,0
1031,4011803005651,新規,0,2023-05-15,2023-05-15,合同会社音彩,,合同会社,東京都,葛飾区,白鳥１丁目２番９号白鳥１丁目ハウス１０４,,13,122,1250063,,,,,,,2023-05-15,1,,,,,ネイロ,0
1043,4020001151547,新規,0,2023-05-15,2023-05-15,株式会社ハリー,,株式会社,神奈川県,横浜市港北区,大豆戸町４０８番地２５,,14,109,2220032,,,,,,,2023-05-15,1,,,,,ハリー,0
1044,4020001151563,新規,0,2023-05-15,2023-05-15,株式会社Ｒａｄｉａｎｔ,,株式会社,神奈川県,横浜市都筑区,桜並木４番２５号,,14,118,2240046,,,,,,,2023-05-15,1,,,,,ラディアント,0
1045,4020001151588,新規,0,2023-05-15,2023-05-15,株式会社国際心理科学研究所,,株式会社,神奈川県,川崎市麻生区,上麻生５丁目２１番３８号,,14,137,2150021,,,,,,,2023-05-15,1,,,,,コクサイシンリカガクケンキュウジョ,0
1046,4020001151596,新規,0,2023-05-15,2023-05-15,株式会社ＰＯＮＯ　ＮＯＡ,,株式会社,神奈川県,横浜市鶴見区,生麦３丁目６－２９－４０３,,14,101,2300052,,,,,,,2023-05-15,1,,,,,ポノノア,0
1047,4020001151605,新規,0,2023-05-15,2023-05-15,株式会社ｋｉｍａｍａ,,株式会社,神奈川県,横浜市西区,浅間町１丁目４番３号ウィザードビル４０２,,14,103,2200072,,,,,,,2023-05-15,1,,,,,キママ,0
1050,4020003023918,新規,0,2023-05-15,2023-05-15,合同会社ＧＯＡＴ　Ｕｎｄｅｒｗａｔｅｒ　Ｓｅｒｖｉｃｅ,,合同会社,神奈川県,横浜市港北区,日吉７丁目８番１７号ライフレビュー日吉１０１,,14,109,2230061,,,,,,,2023-05-15,1,,,,,ゴートアンダーウォーターサービス,0
1058,4021001079027,新規,0,2023-05-15,2023-05-15,株式会社ｔｈｅ．ｄａｙｓ,,株式会社,神奈川県,藤沢市,石川６丁目１番地の３０,,14,205,2520815,,,,,,,2023-05-15,1,,,,,ザデイズ,0
1062,4021003013082,新規,0,2023-05-15,2023-05-15,宮大工養成塾神奈川校合同会社,,合同会社,神奈川県,愛甲郡愛川町,半原２８１４番地,,14,401,2430307,,,,,,,2023-05-15,1,,,,,ミヤダイクヨウセイジュクカナガワコウ,0
1063,4021003013090,新規,0,2023-05-15,2023-05-15,イド合同会社,,合同会社,神奈川県,鎌倉市,長谷５丁目１―８,,14,204,2480016,,,,,,,2023-05-15,1,,,,,イド,0
1075,4030001153773,新規,0,2023-05-15,2023-05-15,株式会社ＨＩＭＡＲＩ,,株式会社,埼玉県,さいたま市南区,別所６丁目１７番８－７０８号,,11,108,3360021,,,,,,,2023-05-15,1,,,,,ヒマリ,0
1076,4030001153848,新規,0,2023-05-15,2023-05-15,株式会社ネットワークス,,株式会社,埼玉県,さいたま市浦和区,大東３丁目４－１１－３Ｆ,,11,107,3300043,,,,,,,2023-05-15,1,,,,,ネットワークス,0
1077,4030001153856,新規,0,2023-05-15,2023-05-15,株式会社とらすと,,株式会社,埼玉県,さいたま市大宮区,宮町１丁目４８番地ＴＲＮ大宮７Ｆ,,11,103,3300802,,,,,,,2023-05-15,1,,,,,トラスト,0
1078,4030001153889,新規,0,2023-05-15,2023-05-15,株式会社萬和,,株式会社,埼玉県,川口市,芝富士２丁目７番３０－４０４号,,11,203,3330854,,,,,,,2023-05-15,1,,,,,マンワ,0
1079,4030001153897,新規,0,2023-05-15,2023-05-15,株式会社タラッサ,,株式会社,埼玉県,所沢市,東町８番７号,,11,208,3591116,,,,,,,2023-05-15,1,,,,,タラッサ,0
1080,4030001153922,新規,0,2023-05-15,2023-05-15,株式会社ＬＳＮ,,株式会社,埼玉県,川口市,大字石神５０６番地の７,,11,203,3330823,,,,,,,2023-05-15,1,,,,,エルエスエヌ,0
1082,4030003021747,新規,0,2023-05-15,2023-05-15,ラピスアシスト合同会社,,合同会社,埼玉県,北葛飾郡杉戸町,内田２丁目１３番８－５０３号,,11,464,3450035,,,,,,,2023-05-15,1,,,,,ラピスアシスト,0
1083,4030003021763,新規,0,2023-05-15,2023-05-15,合同会社あさみＬａｂ,,合同会社,埼玉県,さいたま市北区,東大成町１丁目４２７番地２,,11,102,3310814,,,,,,,2023-05-15,1,,,,,アサミラボ,0
1086,4040001128378,新規,0,2023-05-15,2023-05-15,株式会社ＢＡＳＥ９３,,株式会社,千葉県,八千代市,八千代台南１丁目２８番１４号,,12,221,2760033,,,,,,,2023-05-15,1,,,,,ベースキュウジュウサン,0
1087,4040001128386,新規,0,2023-05-15,2023-05-15,株式会社カノウ,,株式会社,千葉県,香取郡神崎町,郡１３０７番地１リッチはあとＩＩ２０１号室,00130490,12,342,2890202,,,,,,,2023-05-15,1,,,,,カノウ,0
1099,4080405007546,新規,0,2023-05-15,2023-05-15,一般社団法人ｆｕｎｂａｎｋ,,その他の設立登記法人,静岡県,浜松市中区,砂山町１１０２番地ブライトタウン浜松ザ・フロント１１０１号室,,22,131,4300926,,,,,,,2023-05-15,1,,,,,ファンバンク,0
1118,4120001254777,新規,0,2023-05-15,2023-05-15,株式会社マスコミ・メディア,,株式会社,大阪府,大阪市生野区,巽北１丁目２１番２９号７Ｆ,,27,116,5440004,,,,,,,2023-05-15,1,,,,,マスコミメディア,0
1119,4120001254802,新規,0,2023-05-15,2023-05-15,株式会社ネクストラボ,,株式会社,大阪府,大阪市西区,境川２丁目３番２０号,,27,106,5500024,,,,,,,2023-05-15,1,,,,,ネクストラボ,0
1120,4120001254835,新規,0,2023-05-15,2023-05-15,わだち不動産株式会社,,株式会社,大阪府,大阪市中央区,南本町２丁目３番１２号ＥＤＧＥ本町３Ｆ,,27,128,5410054,,,,,,,2023-05-15,1,,,,,ワダチフドウサン,0
1121,4120001254876,新規,0,2023-05-15,2023-05-15,株式会社エールズ,,株式会社,大阪府,大阪市城東区,中央２丁目１４番Ａ－５０５号,,27,118,5360005,,,,,,,2023-05-15,1,,,,,エールズ,0
1122,4120001254884,新規,0,2023-05-15,2023-05-15,株式会社Ｎ’ｓ　Ｇａｍｅ,,株式会社,大阪府,大阪市淀川区,新高４丁目３番２３号,,27,123,5320033,,,,,,,2023-05-15,1,,,,,エヌズゲーム,0
1123,4120001254892,新規,0,2023-05-15,2023-05-15,ＳＶＣ総研株式会社,,株式会社,大阪府,大阪市北区,豊崎３丁目１５番４号,,27,127,5310072,,,,,,,2023-05-15,1,,,,,エスブイシーソウケン,0
1127,4120003024039,新規,0,2023-05-15,2023-05-15,合同会社Ｂ．Ａ．Ｌ,,合同会社,大阪府,大阪市北区,天神西町６－５,,27,127,5300045,,,,,,,2023-05-15,1,,,,,ビーエーエル,0
1128,4120003024071,新規,0,2023-05-15,2023-05-15,合同会社徳進工業,,合同会社,大阪府,大阪市生野区,巽北４丁目３番３２－９０１号,00130486,27,116,5440004,,,,,,,2023-05-15,1,,,,,トクシンコウギョウ,0
1138,4122001036949,新規,0,2023-05-15,2023-05-15,株式会社ｍｉｎｄ,,株式会社,大阪府,八尾市,柏村町４丁目２９７番地の１２,,27,212,5810022,,,,,,,2023-05-15,1,,,,,マインド,0
1144,4130001074316,新規,0,2023-05-15,2023-05-15,株式会社ＧＯＣＨＩＳＯＵ,,株式会社,京都府,京都市西京区,松尾木ノ曽町３９番地,,26,111,6158281,,,,,,,2023-05-15,1,,,,,ゴチソウ,0
1145,4130001074324,新規,0,2023-05-15,2023-05-15,株式会社ＫＳＡ,,株式会社,京都府,京都市南区,唐橋川久保町３７－７－１０２,,26,107,6018451,,,,,,,2023-05-15,1,,,,,ケイエスエー,0
1153,4140001130142,新規,0,2023-05-15,2023-05-15,株式会社リーブル商会,,株式会社,兵庫県,宝塚市,宝松苑１２番２７号,,28,214,6650016,,,,,,,2023-05-15,1,,,,,リーブルショウカイ,0
1154,4140001130167,新規,0,2023-05-15,2023-05-15,株式会社Ａｊａ,,株式会社,兵庫県,西宮市,安井町５番３１－２０６号,,28,204,6620045,,,,,,,2023-05-15,1,,,,,エイジャ,0
1155,4140001130209,新規,0,2023-05-15,2023-05-15,コクドオールイン株式会社,,株式会社,兵庫県,西宮市,山口町上山口２丁目１３番２０号,,28,204,6511421,,,,,,,2023-05-15,1,,,,,コクドオールイン,0
1162,4140003019086,新規,0,2023-05-15,2023-05-15,合同会社Ｋｅｙ　Ｏｐｅｒａｔｉｏｎ,,合同会社,兵庫県,西宮市,甲子園口４丁目７番２－３０１号,,28,204,6638113,,,,,,,2023-05-15,1,,,,,キーオペレーション,0
1165,4150001026397,新規,0,2023-05-15,2023-05-15,ＳＴＡＲ．Ｔ株式会社,,株式会社,奈良県,香芝市,逢坂２丁目６４１番地３,00130503,29,210,6390251,,,,,,,2023-05-15,1,,,,,スタート,0
1175,4180001156241,新規,0,2023-05-15,2023-05-15,金風株式会社,,株式会社,愛知県,海部郡大治町,大字砂子字村東１９番地の１,,23,424,4901143,,,,,,,2023-05-15,1,,,,,キンフウ,0
1176,4180001156282,新規,0,2023-05-15,2023-05-15,ＫＭ設備株式会社,,株式会社,愛知県,あま市,七宝町鷹居１丁目７６番地１,,23,237,4970014,,,,,,,2023-05-15,1,,,,,ケーエムセツビ,0
1177,4180001156290,新規,0,2023-05-15,2023-05-15,株式会社ｅ‐ｌｉｎｅ,,株式会社,愛知県,一宮市,三条字郷東藤４３番地１,,23,203,4940003,,,,,,,2023-05-15,1,,,,,イーライン,0
1178,4180001156299,新規,0,2023-05-15,2023-05-15,株式会社愛福,,株式会社,愛知県,名古屋市北区,清水２丁目１番１１号,,23,103,4620844,,,,,,,2023-05-15,1,,,,,アイフク,0
1179,4180001156316,新規,0,2023-05-15,2023-05-15,株式会社大照,,株式会社,愛知県,名古屋市中村区,長筬町４丁目２２番地の１,,23,105,4530839,,,,,,,2023-05-15,1,,,,,ダイショウ,0
1180,4180001156324,新規,0,2023-05-15,2023-05-15,株式会社ヘブンリーガーデン,,株式会社,愛知県,春日井市,高蔵寺町２丁目２８番地１,,23,206,4870013,,,,,,,2023-05-15,1,,,,,ヘブンリーガーデン,0
1183,4180303005699,新規,0,2023-05-15,2023-05-15,ＭＳＡＫＡＩ合同会社,,合同会社,愛知県,額田郡幸田町,大字菱池字荒田５１番地４,,23,501,4440113,,,,,,,2023-05-15,1,,,,,エムサカイ,0
1186,4200001041300,新規,0,2023-05-15,2023-05-15,桔梗屋株式会社,,株式会社,岐阜県,可児市,広見８７６番地８,,21,214,5090214,,,,,,,2023-05-15,1,,,,,キキョウヤ,0
1190,4200003005955,新規,0,2023-05-15,2023-05-15,合同会社ＮＲ,,合同会社,岐阜県,多治見市,小名田町西ケ洞１番地の１０９,,21,204,5070007,,,,,,,2023-05-15,1,,,,,エヌアール,0
1192,4210003001648,新規,0,2023-05-15,2023-05-15,合同会社ＫＴ繊維,,合同会社,福井県,坂井市,春江町境元町３番地４,,18,210,9190434,,,,,,,2023-05-15,1,,,,,ケーティーセンイ,0
1195,4240001061501,新規,0,2023-05-15,2023-05-15,株式会社Ｌｉｌｌｙ,,株式会社,広島県,広島市西区,己斐上２丁目６６番８号,,34,104,7330815,,,,,,,2023-05-15,1,,,,,リリィ,0
1196,4240001061526,新規,0,2023-05-15,2023-05-15,株式会社ＪＵＮ,,株式会社,広島県,広島市安佐南区,川内６丁目５番８‐２号,,34,105,7310102,,,,,,,2023-05-15,1,,,,,ジュン,0
1198,4250001020084,新規,0,2023-05-15,2023-05-15,柳井きんぎょ株式会社,,株式会社,山口県,柳井市,中央３丁目５番５号,,35,212,7420035,,,,,,,2023-05-15,1,,,,,ヤナイキンギョ,0
1199,4250003003269,新規,0,2023-05-15,2023-05-15,合同会社縁,,合同会社,山口県,下関市,長府豊城町９番３４号,,35,201,7520943,,,,,,,2023-05-15,1,,,,,エン,0
1202,4260001037953,新規,0,2023-05-15,2023-05-15,株式会社ＢＬＵＥ　ＡＵＴＯ,,株式会社,岡山県,岡山市中区,神下６０１番地７,,33,102,7038225,,,,,,,2023-05-15,1,,,,,ブルーオート,0
1207,4290001101384,新規,0,2023-05-15,2023-05-15,株式会社ユニティノバ,,株式会社,福岡県,福岡市博多区,博多駅南１丁目１２番３－１１１３号,,40,132,8120016,,,,,,,2023-05-15,1,,,,,ユニティノバ,0
1208,4290001101401,新規,0,2023-05-15,2023-05-15,株式会社白梅堂,,株式会社,福岡県,太宰府市,宰府３丁目２番６２号,,40,221,8180117,,,,,,,2023-05-15,1,,,,,シラウメドウ,0
1209,4290001101558,新規,0,2023-05-15,2023-05-15,株式会社ＢＰコンサルティング,,株式会社,福岡県,福岡市中央区,梅光園３丁目５－１－４０５,,40,133,8100035,,,,,,,2023-05-15,1,,,,,ビーピーコンサルティング,0
1215,4290003013917,新規,0,2023-05-15,2023-05-15,合同会社Ｄｒａｇｏｎ　ｂｏｙ,,合同会社,福岡県,古賀市,青柳１１４４番地２３,,40,223,8113134,,,,,,,2023-05-15,1,,,,,ドラゴンボーイ,0
1222,4320001019763,新規,0,2023-05-15,2023-05-15,縁株式会社,00130485,株式会社,大分県,大分市,大字三芳６４８番地の１４,,44,201,8700030,,,,,,,2023-05-15,1,,,,,エニシ,0
1227,4330001030868,新規,0,2023-05-15,2023-05-15,株式会社鳳凰,,株式会社,熊本県,熊本市南区,海路口町１７６６番地,,43,104,8614124,,,,,,,2023-05-15,1,,,,,ホウオウ,0
1234,4360003012936,新規,0,2023-05-15,2023-05-15,合同会社琉Ｑオートサービス,,合同会社,沖縄県,那覇市,銘苅１丁目３番４１号レゼル・アッシュ３－Ｂ,,47,201,9000004,,,,,,,2023-05-15,1,,,,,リュウキューオートサービス,0
1235,4360003012944,新規,0,2023-05-15,2023-05-15,合同会社オーランジュ,,合同会社,沖縄県,那覇市,若狭１丁目１１－１４スカイピア若狭１００１,,47,201,9000031,,,,,,,2023-05-15,1,,,,,オーランジュ,0
1236,4370001049938,新規,0,2023-05-15,2023-05-15,株式会社ツナカワ装建,,株式会社,宮城県,亘理郡山元町,坂元字上平１７番地,,04,362,9892111,,,,,,,2023-05-15,1,,,,,ツナカワソウケン,0
1237,4370003006136,新規,0,2023-05-15,2023-05-15,合同会社ＷＡＣＯ　ＣＲＥＡＴＥ,,合同会社,宮城県,仙台市青葉区,北目町４―７ＨＳＧビル内,,04,101,9800023,,,,,,,2023-05-15,1,,,,,ワコクリエイト,0
1245,4390003002091,新規,0,2023-05-15,2023-05-15,合同会社蜂庵,,合同会社,山形県,米沢市,大字下新田２７７番地,,06,202,9920111,,,,,,,2023-05-15,1,,,,,ハチアン,0
1255,4430001089036,新規,0,2023-05-15,2023-05-15,株式会社ＫＩＹＡＩ,,株式会社,北海道,札幌市中央区,北五条西１１丁目１５番地４ＢＹＹＡＲＤ,,01,101,0600005,,,,,,,2023-05-15,1,,,,,キヤイ,0
1256,4430001089052,新規,0,2023-05-15,2023-05-15,株式会社ケーズワーク,,株式会社,北海道,札幌市南区,川沿十二条５丁目４番１６号,,01,106,0050812,,,,,,,2023-05-15,1,,,,,ケーズワーク,0
1264,4450003002333,新規,0,2023-05-15,2023-05-15,合同会社ＲｅｐｒｏＮ,,合同会社,北海道,紋別郡雄武町,字幌内２２８番地,,01,563,0981821,,,,,,,2023-05-15,1,,,,,リプロン,0
1266,4700150116174,新規,0,2023-05-15,2023-05-15,Ｂｉｌｌｉｏｎａｉｒｅ　Ｇａｍｅｓ　Ｌｉｍｉｔｅｄ,,外国会社等,,,,,,,,２８ｔｈ　Ｏｃｔｏｂｅｒ　Ｓｔｒｅｅｔ，Ｎｏ．３３１　Ｋａｎｉｋａ　Ｅｎａｅｒｉｏｓ，Ｌｉｄｏ　Ｈｏｕｓｅ，Ｂｌｏｃｋ　１，Ｏｆｆｉｃｅ　７６２，３１０６　Ｌｉｍａｓｓｏｌ，Ｃｙｐｒｕｓ,,,,,,2023-05-15,1,,,,,ビリオネアゲームズリミテツド,0
1267,4700150116190,新規,0,2023-05-15,2023-05-15,ｓｈｅｎｚｈｅｎｓｈｉ　ｍｅｉｓｉｋｕｆｕｓｈｉ　ｙｏｕｘｉａｎｇｏｎｇｓｉ,,外国会社等,,,,,,,,ｎａｎ　ｓｈａｎ　ｑｕ，ｎａｎ　ｓｈａｎ　ｊｉｅ　ｄａｏ，ｎａｎ　ｓｈａｎ　ｓｈｅ　ｑｕ，ｎａｎ　ｘｉｎ　ｌｕ，ｙａｎｇ　ｇｕａｎｇ　ｋｅ　ｃｈｕａｎｇ　ｚｈｏｎｇ　ｘｉｎ，ｅｒ　ｑｉ，Ａ　ｚｕｏ　６０１，ｓｈｅｎ　ｚｈｅｎ　ｓｈｉ，ｇｕａｎｇ　ｄｏｎｇ　ｓｈｅｎｇ,,,,,,2023-05-15,1,,,,,シンセンシメイシクフシユウゲンコウシ,0
1268,4700150116199,新規,0,2023-05-15,2023-05-15,Ｄｏｎｇｇｕａｎ　Ｓｐａｒｋ　Ｅｌｅｃｔｒｏｎｉｃ　Ｔｅｃｈｎｏｌｏｇｙ　Ｃｏ．，Ｌｔｄ．,,外国会社等,,,,,,,,Ｇｕａｎｇｄｏｎｇｓｈｅｎｇ　ｄｏｎｇｇｕａｎｓｈｉ　ｈｕｍｅｎｚｈｅｎ　ｈｕａｉｄｅｄａｂｕｌｕ　８ｈａｏ　３ｄｏｎｇ　３０１ｓｈｉ,,,,,,2023-05-15,1,,,,,ドングァンスパークイレクトゥロニックテクノロジーカンパニーリミテッド,0
1269,4700150116208,新規,0,2023-05-15,2023-05-15,Ｈｕｉｚｈｏｕｓｈｉ　ｂａｉｙｉｋｅｊｉ　ｙｏｕｘｉａｎｇｏｎｇｓｉ,,外国会社等,,,,,,,,Ｂ－１，４ｔｈ　ｆｌｏｏｒ　Ｗｅｓｔ　Ｃｈｅｎｊｉａｎｇ　Ｓｔｒｅｅｔ，Ｙｕａｎｈｕｉ　Ａｖｅｎｕｅ　５，Ｚｈｏｎｇｋａｉｇａｏｘｉｎ　Ｄｉｓｔｒｉｃｔ，Ｈｕｉｚｈｏｕ　Ｃｉｔｙ，Ｇｕａｎｇｄｏｎｇ　Ｐｒｏｖｉｎｃｅ　ＣＮ,,,,,,2023-05-15,1,,,,,ホゥイゾォウシバイイケジユウゲンコウシ,0
1276,5010001235218,新規,0,2023-05-15,2023-05-15,株式会社スペシャルワン,,株式会社,東京都,文京区,関口１丁目５番１０号,,13,105,1120014,,,,,,,2023-05-15,1,,,,,スペシャルワン,0
1277,5010001235234,新規,0,2023-05-15,2023-05-15,ビービージェイ株式会社,,株式会社,東京都,中央区,日本橋茅場町２丁目７番６号,,13,102,1030025,,,,,,,2023-05-15,1,,,,,ビービージェイ,0
1278,5010001235283,新規,0,2023-05-15,2023-05-15,株式会社クラウドテクノロジー,,株式会社,東京都,中央区,銀座６丁目１３番１６号銀座ＷａｌｌビルＵＣＦ５階,,13,102,1040061,,,,,,,2023-05-15,1,,,,,クラウドテクノロジー,0
1279,5010001235291,新規,0,2023-05-15,2023-05-15,株式会社ＰＲＯＮＡＬ,,株式会社,東京都,中央区,新川２丁目１６番１０－７０２号,,13,102,1040033,,,,,,,2023-05-15,1,,,,,プロナル,0
1289,5010401174206,新規,0,2023-05-15,2023-05-15,株式会社ＭＡＳＳＡＫＩ,,株式会社,東京都,港区,浜松町２丁目２番１５号浜松町ダイヤビル２Ｆ,,13,103,1050013,,,,,,,2023-05-15,1,,,,,マッサキ,0
1290,5010401174296,新規,0,2023-05-15,2023-05-15,株式会社ドルフィン・バリュー・アップ１０号,,株式会社,東京都,港区,芝公園１丁目１番１号住友不動産御成門タワー７階,,13,103,1050011,,,,,,,2023-05-15,1,,,,,ドルフィンバリューアップジュウゴウ,0
1291,5010401174305,新規,0,2023-05-15,2023-05-15,Ｐｕｒｅ　Ｃｒａｆｔｓ株式会社,,株式会社,東京都,港区,元麻布３丁目１番６号,,13,103,1060046,,,,,,,2023-05-15,1,,,,,ピュアクラフツ,0
1292,5010401174313,新規,0,2023-05-15,2023-05-15,株式会社ＥｎｌｏｏｐＡｄ,,株式会社,東京都,港区,赤坂９丁目２番９号カルム赤坂３１８号室,,13,103,1070052,,,,,,,2023-05-15,1,,,,,エンループアド,0
1293,5010401174321,新規,0,2023-05-15,2023-05-15,ＯＪＩ　Ｍｅｄｉａ株式会社,,株式会社,東京都,港区,白金３丁目２１番３号,,13,103,1080072,,,,,,,2023-05-15,1,,,,,オジメディア,0
1294,5010401174338,新規,0,2023-05-15,2023-05-15,株式会社ＳＡＮＴＯ,,株式会社,東京都,港区,白金６丁目５番６号フェリス白金２０１,,13,103,1080072,,,,,,,2023-05-15,1,,,,,サント,0
1295,5010401174362,新規,0,2023-05-15,2023-05-15,株式会社ダイヤモンドＬｉｆｅ,,株式会社,東京都,港区,浜松町２丁目２番１５号浜松町ダイヤビル２Ｆ,,13,103,1050013,,,,,,,2023-05-15,1,,,,,ダイヤモンドライフ,0
1296,5010401174379,新規,0,2023-05-15,2023-05-15,株式会社Ａｔｅｃｈ,,株式会社,東京都,港区,北青山２丁目７番１３号プラセオ青山ビル３階,,13,103,1070061,,,,,,,2023-05-15,1,,,,,エーテック,0
1297,5010401174387,新規,0,2023-05-15,2023-05-15,株式会社ＮＯＡ,,株式会社,東京都,港区,芝公園１丁目３番１２号クローバー芝公園２Ｆ,,13,103,1050011,,,,,,,2023-05-15,1,,,,,ノア,0
1300,5010403030092,新規,0,2023-05-15,2023-05-15,合同会社ペンギン,,合同会社,東京都,港区,赤坂６丁目５番１０号,,13,103,1070052,,,,,,,2023-05-15,1,,,,,ペンギン,0
1305,5010603010150,新規,0,2023-05-15,2023-05-15,合同会社石政,,合同会社,東京都,墨田区,本所１丁目２０番１号アイビー・レジデンスＩＩ１０２号室,00130489,13,107,1300004,,,,,,,2023-05-15,1,,,,,イシマサ,0
1310,5010801033952,新規,0,2023-05-15,2023-05-15,株式会社順幸,,株式会社,東京都,大田区,羽田旭町１３番１号,,13,111,1440042,,,,,,,2023-05-15,1,,,,,ジュンコウ,0
1316,5010903008159,新規,0,2023-05-15,2023-05-15,合同会社ＦＹＦｉｅｌｄ,,合同会社,東京都,世田谷区,若林１丁目２０番６号,,13,112,1540023,,,,,,,2023-05-15,1,,,,,エフワイフィールド,0
1317,5010903008167,新規,0,2023-05-15,2023-05-15,合同会社ＯｐｅｎＦｌａｔ,,合同会社,東京都,世田谷区,祖師谷１丁目３５－１２,,13,112,1570072,,,,,,,2023-05-15,1,,,,,オープンフラット,0
1322,5011001154399,新規,0,2023-05-15,2023-05-15,フォレストサイド株式会社,,株式会社,東京都,渋谷区,道玄坂１丁目１０番８号渋谷道玄坂東急ビル２Ｆ－Ｃ,,13,113,1500043,,,,,,,2023-05-15,1,,,,,フォレストサイド,0
1323,5011001154432,新規,0,2023-05-15,2023-05-15,株式会社アセットファイン,,株式会社,東京都,渋谷区,渋谷１丁目１番６－８０４号,,13,113,1500002,,,,,,,2023-05-15,1,,,,,アセットファイン,0
1324,5011003016696,新規,0,2023-05-15,2023-05-15,ＰＹＶＩＯ合同会社,,合同会社,東京都,目黒区,目黒本町６丁目５番９号,,13,110,1520002,,,,,,,2023-05-15,1,,,,,パイヴィオ,0
1325,5011005010053,新規,0,2023-05-15,2023-05-15,一般社団法人蘇州大学日本事務所,,その他の設立登記法人,東京都,渋谷区,千駄ヶ谷３丁目１３番２２号,,13,113,1510051,,,,,,,2023-05-15,1,,,,,ソシュウダイガクニホンジムショ,0
1329,5011101102852,新規,0,2023-05-15,2023-05-15,株式会社創合,,株式会社,東京都,新宿区,西新宿３丁目３番１３号西新宿水間ビル６階,,13,104,1600023,,,,,,,2023-05-15,1,,,,,ソウゴウ,0
1330,5011101102860,新規,0,2023-05-15,2023-05-15,桂建材株式会社,,株式会社,東京都,新宿区,新宿１丁目２番１号１Ｆ,,13,104,1600022,,,,,,,2023-05-15,1,,,,,カツラケンザイ,0
1331,5011101102877,新規,0,2023-05-15,2023-05-15,株式会社よりそい不動産,,株式会社,東京都,新宿区,西新宿７丁目１８番１３号,,13,104,1600023,,,,,,,2023-05-15,1,,,,,ヨリソイフドウサン,0
1341,5011701026237,新規,0,2023-05-15,2023-05-15,株式会社Ｒａｙｍｍａ,,株式会社,東京都,江戸川区,南小岩６丁目７－１４,,13,123,1330056,,,,,,,2023-05-15,1,,,,,レイマ,0
1343,5011801042349,新規,0,2023-05-15,2023-05-15,株式会社ＲＡＩＫＡＺＥ,,株式会社,東京都,足立区,神明南１丁目８番９号,,13,121,1210057,,,,,,,2023-05-15,1,,,,,ライカゼ,0
1348,5013101009169,新規,0,2023-05-15,2023-05-15,株式会社Ｉｒｏｈａ,,株式会社,東京都,あきる野市,入野３５番地１,,13,228,1900161,,,,,,,2023-05-15,1,,,,,イロハ,0
1353,5013301050749,新規,0,2023-05-15,2023-05-15,株式会社フードクリエーションズ,,株式会社,東京都,豊島区,北大塚２丁目１０番９号鈴木ビル２Ｆ,,13,116,1700004,,,,,,,2023-05-15,1,,,,,フードクリエーションズ,0
1367,5020001151546,新規,0,2023-05-15,2023-05-15,株式会社Ｆ＆Ｂ,,株式会社,神奈川県,横浜市鶴見区,矢向４丁目３０番２７号,,14,101,2300001,,,,,,,2023-05-15,1,,,,,エフアンドビー,0
1368,5020001151587,新規,0,2023-05-15,2023-05-15,アーシエンスコンサルティング株式会社,,株式会社,神奈川県,横浜市中区,千歳町１番地２横浜ＴＨビル８０５号室,,14,104,2310035,,,,,,,2023-05-15,1,,,,,アーシエンスコンサルティング,0
1375,5020003023909,新規,0,2023-05-15,2023-05-15,Ｍｉｄｎｉｇｈｔ　Ｅｘｐｒｅｓｓ合同会社,,合同会社,神奈川県,横浜市西区,北幸１丁目１１番１号水信ビル７階,,14,103,2200004,,,,,,,2023-05-15,1,,,,,ミッドナイトエクスプレス,0
1376,5020005015994,新規,0,2023-05-15,2023-05-15,社会保険労務士法人阿部事務所,,その他の設立登記法人,神奈川県,横浜市中区,本町４丁目４３Ａ－ＰＬＡＣＥ馬車道８階,,14,104,2310005,,,,,,,2023-05-15,1,,,,,,0
1382,5021001078944,新規,0,2023-05-15,2023-05-15,株式会社ＭＦ校閲サービス,,株式会社,神奈川県,相模原市南区,東林間４丁目３６番１０号ガーデンＳ６号室,,14,153,2520311,,,,,,,2023-05-15,1,,,,,エムエフコウエツサービス,0
1383,5021001079018,新規,0,2023-05-15,2023-05-15,株式会社湯浅住設,,株式会社,神奈川県,相模原市中央区,田名３５８２番地２８,,14,152,2520244,,,,,,,2023-05-15,1,,,,,ユアサジュウセツ,0
1384,5021001079026,新規,0,2023-05-15,2023-05-15,カーボンフリーシステム株式会社,,株式会社,神奈川県,藤沢市,鵠沼石上１丁目８－９,,14,205,2510025,,,,,,,2023-05-15,1,,,,,カーボンフリーシステム,0
1385,5021001079034,新規,0,2023-05-15,2023-05-15,株式会社ｔｅａｍＡ．Ｃ．Ｅ．ｗｏｒｋｓ,,株式会社,神奈川県,中郡二宮町,川匂１６番地の１,,14,342,2590125,,,,,,,2023-05-15,1,,,,,チームエーシーイーワークス,0
1386,5021001079042,新規,0,2023-05-15,2023-05-15,株式会社テクノス,,株式会社,神奈川県,平塚市,御殿３丁目７番１３－３号,,14,203,2540061,,,,,,,2023-05-15,1,,,,,テクノス,0
1387,5021001079059,新規,0,2023-05-15,2023-05-15,ヤマトエンジニア株式会社,,株式会社,神奈川県,大和市,福田１５３４番地１,,14,213,2420024,,,,,,,2023-05-15,1,,,,,ヤマトエンジニア,0
1388,5021003013057,新規,0,2023-05-15,2023-05-15,合同会社正周投資,,合同会社,神奈川県,南足柄市,班目１２９８番７号,,14,217,2500101,,,,,,,2023-05-15,1,,,,,マサチカトウシ,0
1399,5030001153814,新規,0,2023-05-15,2023-05-15,株式会社ユウ,,株式会社,埼玉県,上尾市,大字上野２４５番地２,,11,219,3620058,,,,,,,2023-05-15,1,,,,,ユウ,0
1400,5030001153855,新規,0,2023-05-15,2023-05-15,株式会社ＪＫＦ,,株式会社,埼玉県,久喜市,本町４丁目２番４８号,,11,232,3460005,,,,,,,2023-05-15,1,,,,,ジェーケーエフ,0
1401,5030001153871,新規,0,2023-05-15,2023-05-15,株式会社プログレッシャー,,株式会社,埼玉県,さいたま市北区,日進町３丁目３９４番地１４,,11,102,3310823,,,,,,,2023-05-15,1,,,,,プログレッシャー,0
1402,5030001153888,新規,0,2023-05-15,2023-05-15,株式会社丸善,,株式会社,埼玉県,桶川市,大字加納４０３番地の１,,11,231,3630001,,,,,,,2023-05-15,1,,,,,マルゼン,0
1403,5030001153938,新規,0,2023-05-15,2023-05-15,株式会社ＩＯＲＩ,,株式会社,埼玉県,久喜市,久喜中央１丁目４番７号,,11,232,3460003,,,,,,,2023-05-15,1,,,,,イオリ,0
1406,5030003021754,新規,0,2023-05-15,2023-05-15,合同会社ラクエン,,合同会社,埼玉県,川口市,芝富士１丁目１４－１５ＦＬＡＰＷＡＲＡＢＩ１０３号室,,11,203,3330854,,,,,,,2023-05-15,1,,,,,ラクエン,0
1411,5040001128385,新規,0,2023-05-15,2023-05-15,Ｒｅｄｉｌｌ株式会社,,株式会社,千葉県,習志野市,鷺沼３丁目２０番６号習志野鷺沼ウェルズ２１－Ｂ号室,,12,216,2750014,,,,,,,2023-05-15,1,,,,,リディル,0
1412,5040001128393,新規,0,2023-05-15,2023-05-15,株式会社カラーズドットライン,,株式会社,千葉県,浦安市,今川３丁目２番２６号,,12,227,2790022,,,,,,,2023-05-15,1,,,,,カラーズドットライン,0
1413,5040001128435,新規,0,2023-05-15,2023-05-15,株式会社ブルームアップ,,株式会社,千葉県,柏市,十余二３１３－２８８,,12,217,2770872,,,,,,,2023-05-15,1,,,,,ブルームアップ,0
1416,5040003022603,新規,0,2023-05-15,2023-05-15,合同会社ウッズベル,,合同会社,千葉県,千葉市花見川区,幕張町５丁目３５７番地１ライオンズクオーレ幕張マークスフォート１１３号,,12,102,2620032,,,,,,,2023-05-15,1,,,,,ウッズベル,0
1417,5040003022611,新規,0,2023-05-15,2023-05-15,合同会社Ｆｅｌｉｘ,,合同会社,千葉県,千葉市花見川区,畑町２０８５番地９,,12,102,2620018,,,,,,,2023-05-15,1,,,,,フェリクス,0
1425,5050005013269,新規,0,2023-05-15,2023-05-15,特定非営利活動法人たけのこ,,その他の設立登記法人,茨城県,高萩市,本町３丁目１００番地,,08,214,3180033,,,,,,,2023-05-15,1,,,,,タケノコ,0
1427,5060001035992,新規,0,2023-05-15,2023-05-15,株式会社ＹＴ企画,,株式会社,栃木県,河内郡上三川町,しらさぎ１丁目４３番地１,,09,301,3290618,,,,,,,2023-05-15,1,,,,,ワイティーキカク,0
1428,5070001040439,新規,0,2023-05-15,2023-05-15,グランシェフ株式会社,,株式会社,群馬県,桐生市,相生町１丁目６１番地の４,,10,203,3760011,,,,,,,2023-05-15,1,,,,,グランシェフ,0
1429,5070001040447,新規,0,2023-05-15,2023-05-15,株式会社ＬＡＩＬＩＮＧ,,株式会社,群馬県,渋川市,渋川１８２７番地２５、３Ｆ,,10,208,3770008,,,,,,,2023-05-15,1,,,,,ライリング,0
1430,5070001040455,新規,0,2023-05-15,2023-05-15,マルショウ工業株式会社,,株式会社,群馬県,高崎市,吉井町矢田３８番地３,,10,202,3702106,,,,,,,2023-05-15,1,,,,,マルショウコウギョウ,0
1432,5070003004945,新規,0,2023-05-15,2023-05-15,手話る楓合同会社,,合同会社,群馬県,前橋市,富士見町時沢２９７４番地９,,10,201,3710104,,,,,,,2023-05-15,1,,,,,シュワルカエデ,0
1437,5080405007545,新規,0,2023-05-15,2023-05-15,浜松市エコサンド協同組合,,その他の設立登記法人,静岡県,浜松市北区,大原町４４５番地の１,,22,135,4338102,,,,,,,2023-05-15,1,,,,,ハママツシエコサンド,0
1439,5100001036409,新規,0,2023-05-15,2023-05-15,Ｈａｒｍｏｎｙ　Ｇｉｆｔ株式会社,,株式会社,長野県,上田市,富士山３４３４番地３,,20,203,3861212,,,,,,,2023-05-15,1,,,,,ハーモニーギフト,0
1440,5100003007011,新規,0,2023-05-15,2023-05-15,合同会社Ｂ．Ｏネクスト,,合同会社,長野県,諏訪市,高島１丁目１２番９－２号,,20,206,3920022,,,,,,,2023-05-15,1,,,,,ビーオーネクスト,0
1450,5120001254826,新規,0,2023-05-15,2023-05-15,Ｇ．Ｇｒｏｕｐ株式会社,,株式会社,大阪府,大阪市港区,池島３丁目１１番１号３１０号室,,27,107,5520015,,,,,,,2023-05-15,1,,,,,ジーグループ,0
1451,5120001254834,新規,0,2023-05-15,2023-05-15,Ｓ‐ＢＬＤＧ株式会社,,株式会社,大阪府,大阪市城東区,関目６丁目１３番１８号２０１,,27,118,5360008,,,,,,,2023-05-15,1,,,,,エスビルディング,0
1452,5120001254850,新規,0,2023-05-15,2023-05-15,彩プランニング株式会社,,株式会社,大阪府,寝屋川市,香里本通町２０番１０号,,27,215,5720082,,,,,,,2023-05-15,1,,,,,イロドリプランニング,0
1453,5120001254859,新規,0,2023-05-15,2023-05-15,株式会社Ｎａｖｉ,,株式会社,大阪府,大阪市中央区,瓦町３丁目１番３－９０７号,,27,128,5410048,,,,,,,2023-05-15,1,,,,,ナヴィ,0
1454,5120001254875,新規,0,2023-05-15,2023-05-15,Ｉ．Ｉ．Ｃｏｎｎｅｃｔ株式会社,,株式会社,大阪府,大阪市浪速区,恵美須東１丁目６番４号サンシャイン池商３０２号,,27,111,5560002,,,,,,,2023-05-15,1,,,,,アイアイコネクト,0
1455,5120001254883,新規,0,2023-05-15,2023-05-15,＿縁株式会社,00130495,株式会社,大阪府,大阪市西成区,長橋１丁目５番２７－１０２号,,27,122,5570025,,,,,,,2023-05-15,1,,,,,キンエン,0
1461,5120003024054,新規,0,2023-05-15,2023-05-15,親子Ｓｍｉｌｅ合同会社,,合同会社,大阪府,大阪市生野区,巽西１丁目８番１号ロート製薬株式会社内,00130494,27,116,5440012,,,,,,,2023-05-15,1,,,,,オヤコスマイル,0
1465,5120103005219,新規,0,2023-05-15,2023-05-15,Ｎ合同会社,,合同会社,大阪府,大阪狭山市,東池尻２丁目１２４５－４０２,,27,231,5890004,,,,,,,2023-05-15,1,,,,,エヌ,0
1467,5120901047511,新規,0,2023-05-15,2023-05-15,みこと工業株式会社,,株式会社,大阪府,摂津市,鳥飼銘木町５番２６号,,27,224,5660063,,,,,,,2023-05-15,1,,,,,ミコトコウギョウ,0
1468,5120903004634,新規,0,2023-05-15,2023-05-15,合同会社Ｎｅｘｔ９０,,合同会社,大阪府,豊中市,新千里南町２丁目４番４号,,27,203,5600084,,,,,,,2023-05-15,1,,,,,ネクストナインティ,0
1471,5130001074315,新規,0,2023-05-15,2023-05-15,株式会社ＨＫＣ,,株式会社,京都府,亀岡市,畑野町広野権現５番地２４,,26,206,6210262,,,,,,,2023-05-15,1,,,,,エイチケーシー,0
1482,5140003019077,新規,0,2023-05-15,2023-05-15,合同会社ＳＡＫＵＲＡインフルブルーム,,合同会社,兵庫県,神戸市中央区,磯上通５丁目１番１３号,,28,110,6510086,,,,,,,2023-05-15,1,,,,,サクラインフルブルーム,0
1483,5140003019093,新規,0,2023-05-15,2023-05-15,合同会社メリット,,合同会社,兵庫県,神戸市西区,神出町小束野５１番地の４９,,28,111,6512304,,,,,,,2023-05-15,1,,,,,メリット,0
1485,5140005026617,新規,0,2023-05-15,2023-05-15,一般社団法人エフェクチュアルアートシンキング研究所,,その他の設立登記法人,兵庫県,神戸市東灘区,岡本１丁目４番２８号マサニ岡本ビル３Ａ,,28,101,6580072,,,,,,,2023-05-15,1,,,,,エフェクチュアルアートシンキングケンキュウジョ,0
1486,5150001026396,新規,0,2023-05-15,2023-05-15,ドライチ株式会社,,株式会社,奈良県,奈良市,西木辻町１２１番地２－５０１号,00130484,29,201,6308325,,,,,,,2023-05-15,1,,,,,ドライチ,0
1489,5170001017591,新規,0,2023-05-15,2023-05-15,株式会社日本陸養,,株式会社,和歌山県,和歌山市,田野３３８番地５,,30,201,6410061,,,,,,,2023-05-15,1,,,,,ニホンリクヨウ,0
1495,5180001156224,新規,0,2023-05-15,2023-05-15,株式会社ＦＬＡＧＳコンサルティング,,株式会社,愛知県,名古屋市東区,東桜２丁目３番１４号,,23,102,4610005,,,,,,,2023-05-15,1,,,,,フラッグスコンサルティング,0
1496,5180001156257,新規,0,2023-05-15,2023-05-15,株式会社ＳＩＬＢＥＲ,,株式会社,愛知県,名古屋市中区,松原２丁目１９番３５号ポルタニグラ大須９０３号,,23,106,4600017,,,,,,,2023-05-15,1,,,,,シルバー,0
1497,5180001156273,新規,0,2023-05-15,2023-05-15,遠藤工業株式会社,,株式会社,愛知県,名古屋市瑞穂区,内浜町６番３号,,23,108,4670853,,,,,,,2023-05-15,1,,,,,エンドウコウギョウ,0
1498,5180001156298,新規,0,2023-05-15,2023-05-15,株式会社Ｏｒｅｎｏ工業,,株式会社,愛知県,長久手市,北浦２５１８番地１７７,,23,238,4801301,,,,,,,2023-05-15,1,,,,,オレノコウギョウ,0
1499,5180001156323,新規,0,2023-05-15,2023-05-15,株式会社ＰＯＮＯＬＡＩＴＯ,,株式会社,愛知県,名古屋市千種区,楠元町２丁目６０番地の２ｔｈｅＬＯＦＴ３Ｄ,,23,101,4640037,,,,,,,2023-05-15,1,,,,,ポノライト,0
1502,5180003025220,新規,0,2023-05-15,2023-05-15,合同会社スタートライン,,合同会社,愛知県,名古屋市瑞穂区,雁道町１丁目１６番地アメニティ雁道４０１号,,23,108,4670877,,,,,,,2023-05-15,1,,,,,スタートライン,0
1505,5190003004322,新規,0,2023-05-15,2023-05-15,ＶＲＩＫＳＨＡ合同会社,,合同会社,三重県,多気郡多気町,相可１５６１－１テナント大安１０２,,24,441,5192181,,,,,,,2023-05-15,1,,,,,ヴリクシャ,0
1508,5200003005946,新規,0,2023-05-15,2023-05-15,そうぎ屋曽根合同会社,,合同会社,岐阜県,多治見市,池田町５丁目２８５番地の１,,21,204,5070048,,,,,,,2023-05-15,1,,,,,ソウギヤソネ,0
1509,5200003005954,新規,0,2023-05-15,2023-05-15,合同会社七菜,,合同会社,岐阜県,瑞穂市,宝江１８３番地２,,21,216,5010233,,,,,,,2023-05-15,1,,,,,ナナ,0
1512,5240001061459,新規,0,2023-05-15,2023-05-15,ＹＯＵＥＩＣＨＩ電工株式会社,,株式会社,広島県,尾道市,平原２丁目６番２０号,,34,205,7220018,,,,,,,2023-05-15,1,,,,,ヨウエイチデンコウ,0
1513,5240001061500,新規,0,2023-05-15,2023-05-15,株式会社Ａｍｉｙａ,,株式会社,広島県,広島市西区,己斐上２丁目６６番８号,,34,104,7330815,,,,,,,2023-05-15,1,,,,,アミヤ,0
1514,5240001061517,新規,0,2023-05-15,2023-05-15,株式会社ＮＳＴ工業,,株式会社,広島県,三次市,廻神町１９３９番地１,,34,209,7296213,,,,,,,2023-05-15,1,,,,,エヌエスティーコウギョウ,0
1515,5240001061525,新規,0,2023-05-15,2023-05-15,株式会社健幸テック,,株式会社,広島県,広島市佐伯区,湯来町大字伏谷２１番地２６１,,34,108,7380513,,,,,,,2023-05-15,1,,,,,ケンコウテック,0
1520,5260001037952,新規,0,2023-05-15,2023-05-15,株式会社ネクストアイム,,株式会社,岡山県,岡山市北区,蕃山町５番１号中西ビル２Ｆ,,33,101,7000818,,,,,,,2023-05-15,1,,,,,ネクストアイム,0
1531,5290001101532,新規,0,2023-05-15,2023-05-15,株式会社大原装飾,,株式会社,福岡県,福岡市早良区,飯倉３丁目４２番１２号,,40,137,8140161,,,,,,,2023-05-15,1,,,,,オオハラソウショク,0
1543,5310003004573,新規,0,2023-05-15,2023-05-15,合同会社プラウド,,合同会社,長崎県,西彼杵郡時津町,元村郷１０７０－５,,42,308,8512103,,,,,,,2023-05-15,1,,,,,プラウド,0
1544,5320001019770,新規,0,2023-05-15,2023-05-15,株式会社スカイリンク,,株式会社,大分県,別府市,駅前本町７番５号,,44,202,8740934,,,,,,,2023-05-15,1,,,,,スカイリンク,0
1545,5320003004077,新規,0,2023-05-15,2023-05-15,高田商店合同会社,00130492,合同会社,大分県,由布市,湯布院町川上３０３７番地１,,44,213,8795102,,,,,,,2023-05-15,1,,,,,タカダショウテン,0
1548,5350001018357,新規,0,2023-05-15,2023-05-15,株式会社日高空調,00130498,株式会社,宮崎県,宮崎市,大字広原１３３２番地１,,45,201,8800125,,,,,,,2023-05-15,1,,,,,ヒダカクウチョウ,0
1554,5360001031986,新規,0,2023-05-15,2023-05-15,株式会社ぱすてる,,株式会社,沖縄県,沖縄市,東１丁目３１－１,,47,211,9042154,,,,,,,2023-05-15,1,,,,,パステル,0
1556,5360003012943,新規,0,2023-05-15,2023-05-15,合同会社ハートフルまち,,合同会社,沖縄県,那覇市,辻１丁目１５番１－２１１号,00130502,47,201,9000037,,,,,,,2023-05-15,1,,,,,ハートフルマチ,0
1557,5360003012951,新規,0,2023-05-15,2023-05-15,金城合同会社,,合同会社,沖縄県,沖縄市,越来１丁目１番１０号,,47,211,9040001,,,,,,,2023-05-15,1,,,,,キンジョウ,0
1563,5370003006127,新規,0,2023-05-15,2023-05-15,合同会社森農林,,合同会社,宮城県,岩沼市,志賀字下塩ノ入１２６番地,,04,211,9892465,,,,,,,2023-05-15,1,,,,,モリノウリン,0
1564,5380001033691,新規,0,2023-05-15,2023-05-15,株式会社ｂｉｂｉｔｔｏ,,株式会社,福島県,郡山市,堤２丁目１２番地,,07,203,9630205,,,,,,,2023-05-15,1,,,,,ビビット,0
1573,5430001089084,新規,0,2023-05-15,2023-05-15,上村電気工事株式会社,,株式会社,北海道,札幌市清田区,北野四条３丁目７番２０号,,01,110,0040864,,,,,,,2023-05-15,1,,,,,ウエムラデンキコウジ,0
1575,5430003015014,新規,0,2023-05-15,2023-05-15,合同会社ｆｉｎｅ,,合同会社,北海道,札幌市西区,発寒十二条５丁目６番２号,,01,107,0630832,,,,,,,2023-05-15,1,,,,,ファイン,0
1580,5470003002421,新規,0,2023-05-15,2023-05-15,合同会社ＧＲＩＴ,,合同会社,香川県,三豊市,高瀬町下勝間１６２１番地１,,37,208,7670011,,,,,,,2023-05-15,1,,,,,グリット,0
1585,5700150116198,新規,0,2023-05-15,2023-05-15,Ｓｈｅｎ　Ｚｈｅｎ　Ｓｈｉ　Ｚｕｏ　Ｘｉ　Ｍａｏ　Ｙｉ　Ｙｏｕ　Ｘｉａｎ　Ｇｏｎｇ　Ｓｉ,,外国会社等,,,,,,,,９Ｄ，Ｕｎｉｔ　１，Ｂｕｉｌｄｉｎｇ　１０ｔｈ，Ｚｈｏｎｇｈａｉ　Ｙｉｒｕｉ　Ｓｈａｎｊｕ，Ｂｕｌｏｎｇ　Ｒｄ，Ｂｕｊｉ，Ｌｏｎｇｇａｎｇ　Ｄｉｓｔｒｉｃｔ　Ｓｈｅｎｚｈｅｎ　Ｇｕａｎｇｄｏｎｇ,,,,,,2023-05-15,1,,,,,シンセンシゾシマオイユウゲンコウシ,0
1586,5700150116207,新規,0,2023-05-15,2023-05-15,Ｈａｎｇｚｈｏｕ　ｗｅｉｊｉｗａｎｇｌｕｏｋｅｊｉｙｏｕｘｉａｎｇｏｎｇｓｉ,,外国会社等,,,,,,,,ＧＯＮＧＳＨＵＱＵ　ＷＡＮＤＡＳＨＡＮＧＹＥＺＨＯＮＧＸＩＮ　４ＤＯＮＧ３ＤＡＮＹＵＡＮ　１４１０,,,,,,2023-05-15,1,,,,,ハンゾォウウェイジワンロケジユウゲンコウシ,0
1587,5700150116215,新規,0,2023-05-15,2023-05-15,ｓｈｅｎｚｈｅｎｓｈｉｙｕｒｕｉｇｕｏｊｉｍａｏｙｉｙｏｕｘｉａｎｇｏｎｇｓｉ,,外国会社等,,,,,,,,ＧｕａｎｇｄｏｎｇＳｈｅｎｚｈｅｎｆｕｔｉａｎｑｕｈｕａｑｉａｎｇｂｅｉｊｉｅｄａｏｌｉｃｕｎｓｈｅｑｕｈｕａｆａｂｅｉｌｕｓａｎｇｄａｙａｙｕａｎ３ｃｅｎｇＡ０７－０８－００５,,,,,,2023-05-15,1,,,,,シェンジェンシーイールイグオジーマオイーヨウシエンゴンスー,0
1596,6010001235175,新規,0,2023-05-15,2023-05-15,一丸グループ株式会社,,株式会社,東京都,千代田区,岩本町３丁目１０番１２号２０１号室,,13,101,1010032,,,,,,,2023-05-15,1,,,,,イチマルグループ,0
1597,6010001235241,新規,0,2023-05-15,2023-05-15,株式会社ＨＡＰＰＹ　ＲＩＳＥ,,株式会社,東京都,中央区,銀座１丁目２２番１１号銀座大竹ビジデンス２Ｆ,,13,102,1040061,,,,,,,2023-05-15,1,,,,,ハッピーライズ,0
1598,6010001235282,新規,0,2023-05-15,2023-05-15,Ｊａｐａｎ　Ｇａｔｅｓ株式会社,,株式会社,東京都,中央区,銀座６丁目１３番１６号銀座ＷａｌｌビルＵＣＦ５階,,13,102,1040061,,,,,,,2023-05-15,1,,,,,ジャパンゲーツ,0
1599,6010001235299,新規,0,2023-05-15,2023-05-15,ＥＳＲＥＥ　Ｅｎｅｒｇｙ株式会社,,株式会社,東京都,千代田区,九段南１丁目５番６号りそな九段ビル５Ｆ,,13,101,1020074,,,,,,,2023-05-15,1,,,,,エスリーエナジー,0
1608,6010005036644,新規,0,2023-05-15,2023-05-15,行政書士法人未来計画,,その他の設立登記法人,東京都,中央区,新川２丁目２１番１０号,,13,102,1040033,,,,,,,2023-05-15,1,,,,,ミライケイカク,0
1609,6010005036669,新規,0,2023-05-15,2023-05-15,一般社団法人聴松の会,,その他の設立登記法人,東京都,中央区,日本橋１丁目２番５号,,13,102,1030027,,,,,,,2023-05-15,1,,,,,チョウショウノカイ,0
1610,6010103002135,新規,0,2023-05-15,2023-05-15,ＵＰＴＯ合同会社,,合同会社,東京都,八王子市,上川町３４６１番地１号,,13,201,1920151,,,,,,,2023-05-15,1,,,,,アップトゥ,0
1619,6010401174320,新規,0,2023-05-15,2023-05-15,グロースフォース株式会社,,株式会社,東京都,港区,赤坂４丁目１３番８号赤坂パレスマンション１－Ａ,,13,103,1070052,,,,,,,2023-05-15,1,,,,,グロースフォース,0
1620,6010401174386,新規,0,2023-05-15,2023-05-15,株式会社ｐｏｕｒ　ｍｏｉ,,株式会社,東京都,港区,三田５丁目３番８号ファインレジデンス４１３,,13,103,1080073,,,,,,,2023-05-15,1,,,,,プフモア,0
1621,6010403030091,新規,0,2023-05-15,2023-05-15,城口インターナショナル合同会社,,合同会社,東京都,港区,港南２丁目５番３号,,13,103,1080075,,,,,,,2023-05-15,1,,,,,キグチインターナショナル,0
1622,6010405022137,新規,0,2023-05-15,2023-05-15,脱炭素産業熱システム技術研究組合,,その他の設立登記法人,東京都,港区,芝大門１丁目４番９号,,13,103,1050012,,,,,,,2023-05-15,1,,,,,ダツタンソサンギョウネツシステム,0
1626,6010601063083,新規,0,2023-05-15,2023-05-15,スタディ株式会社,,株式会社,東京都,江東区,平野１丁目１番１０号小宮ビル１階,,13,108,1350023,,,,,,,2023-05-15,1,,,,,スタディ,0
1638,6010903008166,新規,0,2023-05-15,2023-05-15,合同会社ＥＮＩＦ,,合同会社,東京都,世田谷区,北沢５丁目２６－１ＴＫＩＩ１０１,00130487,13,112,1550031,,,,,,,2023-05-15,1,,,,,エニフ,0
1641,6011001154407,新規,0,2023-05-15,2023-05-15,株式会社ビーチブック,,株式会社,東京都,渋谷区,道玄坂１丁目１０番８号渋谷道玄坂東急ビル２Ｆ―Ｃ,,13,113,1500043,,,,,,,2023-05-15,1,,,,,ビーチブック,0
1649,6011005010069,新規,0,2023-05-15,2023-05-15,医療法人社団創英会,,その他の設立登記法人,東京都,目黒区,上目黒１丁目７番８号アペルト中目黒２階,,13,110,1530051,,,,,,,2023-05-15,1,,,,,ソウエイカイ,0
1657,6011201024632,新規,0,2023-05-15,2023-05-15,株式会社Ｌｉｌｙ,,株式会社,東京都,中野区,南台４丁目２０－１０グランヒーロー１０１,,13,114,1640014,,,,,,,2023-05-15,1,,,,,リリー,0
1661,6011401025133,新規,0,2023-05-15,2023-05-15,株式会社東洋堂,,株式会社,東京都,板橋区,大谷口２丁目２２－１０,,13,119,1730035,,,,,,,2023-05-15,1,,,,,トウヨウドウ,0
1664,6011503005603,新規,0,2023-05-15,2023-05-15,合同会社ＨＥＡＤＳ,,合同会社,東京都,北区,上中里１丁目４１番３号,,13,117,1140016,,,,,,,2023-05-15,1,,,,,ヘッズ,0
1670,6011803005641,新規,0,2023-05-15,2023-05-15,ＡＵＴＯ　ＴＥＣＨＮＯ　ＪＡＰＡＮ合同会社,,合同会社,東京都,足立区,綾瀬６丁目６番２号メゾンスド―１０２,,13,121,1200005,,,,,,,2023-05-15,1,,,,,オートテクノジャパン,0
1676,6012803003081,新規,0,2023-05-15,2023-05-15,合同会社ＣＲＥＥＤ,,合同会社,東京都,立川市,錦町１丁目２番８号３Ｆ,,13,202,1900022,,,,,,,2023-05-15,1,,,,,クリード,0
1677,6013101009168,新規,0,2023-05-15,2023-05-15,株式会社ＴＲＩＶＥ,,株式会社,東京都,青梅市,新町４丁目２９番地の３コトブキマンション２１０,,13,205,1980024,,,,,,,2023-05-15,1,,,,,トライブ,0
1685,6020001151545,新規,0,2023-05-15,2023-05-15,株式会社Ｋ２ＮＹ,,株式会社,神奈川県,横浜市神奈川区,台町１４番地２３オープンレジデンシア横浜台町４０５号,,14,102,2210834,,,,,,,2023-05-15,1,,,,,ケイツーエヌワイ,0
1686,6020001151553,新規,0,2023-05-15,2023-05-15,株式会社ハイコート,,株式会社,神奈川県,横浜市旭区,下川井町２１９３番１５,,14,112,2410806,,,,,,,2023-05-15,1,,,,,ハイコート,0
1687,6020001151561,新規,0,2023-05-15,2023-05-15,株式会社ＭＡＰＬＥ　Ｄｅｓｉｇｎ,,株式会社,神奈川県,川崎市高津区,千年新町９番地１８,,14,134,2130021,,,,,,,2023-05-15,1,,,,,メイプルデザイン,0
1688,6020001151578,新規,0,2023-05-15,2023-05-15,株式会社Ｂｅｓｓｉｃ,,株式会社,神奈川県,横浜市港北区,高田東２丁目３５番３－１号,,14,109,2230065,,,,,,,2023-05-15,1,,,,,ベシック,0
1689,6020001151586,新規,0,2023-05-15,2023-05-15,株式会社陽葵,,株式会社,神奈川県,横浜市中区,太田町４丁目４９番地,,14,104,2310011,,,,,,,2023-05-15,1,,,,,ヒマリ,0
1690,6020001151603,新規,0,2023-05-15,2023-05-15,株式会社ｎｉｎａ,,株式会社,神奈川県,横浜市保土ケ谷区,和田１丁目１８番１２号,,14,106,2400065,,,,,,,2023-05-15,1,,,,,ニーナ,0
1696,6020003023899,新規,0,2023-05-15,2023-05-15,ＹＬ　Ｍｕｌｂｅｒｒｙ合同会社,,合同会社,神奈川県,横浜市西区,高島２丁目７番２－３２１２号,,14,103,2200011,,,,,,,2023-05-15,1,,,,,ワイエルマルベリー,0
1697,6020003023908,新規,0,2023-05-15,2023-05-15,ＤｉａｍｏｎｄＲｕｓｈ　Ｊａｐａｎ合同会社,,合同会社,神奈川県,川崎市川崎区,駅前本町１１番地２川崎フロンティアビル４階,,14,131,2100007,,,,,,,2023-05-15,1,,,,,ダイヤモンドラッシュジャパン,0
1703,6021001079009,新規,0,2023-05-15,2023-05-15,日越コンサルタンツ株式会社,,株式会社,神奈川県,相模原市緑区,下九沢１９５８番地９,,14,151,2520134,,,,,,,2023-05-15,1,,,,,ニチエツコンサルタンツ,0
1704,6021001079017,新規,0,2023-05-15,2023-05-15,株式会社ＤＥＳＩＧＮ　ＰＬＡＣＥ森本庭苑舎,,株式会社,神奈川県,足柄下郡箱根町,仙石原４４４番地エスポワール仙石原１０１号,,14,382,2500631,,,,,,,2023-05-15,1,,,,,デザインプレイスモリモトテイエンシャ,0
1705,6021001079033,新規,0,2023-05-15,2023-05-15,株式会社和田企画,,株式会社,神奈川県,相模原市緑区,下九沢１５００番地６,,14,151,2520134,,,,,,,2023-05-15,1,,,,,ワダキカク,0
1706,6021001079058,新規,0,2023-05-15,2023-05-15,株式会社ラッキー・ハッピー,,株式会社,神奈川県,大和市,中央林間４丁目２８番２４号２０２,,14,213,2420007,,,,,,,2023-05-15,1,,,,,ラッキーハッピー,0
1710,6021003013080,新規,0,2023-05-15,2023-05-15,山田商業合同会社,,合同会社,神奈川県,秦野市,富士見町６－６－２,,14,211,2570057,,,,,,,2023-05-15,1,,,,,ヤマダショウギョウ,0
1720,6030001153838,新規,0,2023-05-15,2023-05-15,純辰舎株式会社,,株式会社,埼玉県,川口市,川口１丁目１番２号,,11,203,3320015,,,,,,,2023-05-15,1,,,,,ジュンシンシャ,0
1721,6030001153854,新規,0,2023-05-15,2023-05-15,株式会社ＫＤＪ,,株式会社,埼玉県,所沢市,東新井町２５３番地山二ビル,,11,208,3590034,,,,,,,2023-05-15,1,,,,,ケーディージェイ,0
1722,6030001153870,新規,0,2023-05-15,2023-05-15,株式会社フレックス,,株式会社,埼玉県,春日部市,大場３８５番地７,,11,214,3440021,,,,,,,2023-05-15,1,,,,,フレックス,0
1723,6030001153887,新規,0,2023-05-15,2023-05-15,株式会社サンメモリー,,株式会社,埼玉県,和光市,下新倉３丁目１１番１８号,,11,229,3510111,,,,,,,2023-05-15,1,,,,,サンメモリー,0
1728,6030003021745,新規,0,2023-05-15,2023-05-15,合同会社比優特,,合同会社,埼玉県,富士見市,針ケ谷１丁目３５番地７ドミール針ケ谷２０２,,11,235,3540017,,,,,,,2023-05-15,1,,,,,ビユートク,0
1729,6030003021753,新規,0,2023-05-15,2023-05-15,ウィステリアカンパニー合同会社,,合同会社,埼玉県,川口市,川口１丁目１番２－１１０５号シティコート川口,,11,203,3320015,,,,,,,2023-05-15,1,,,,,ウィステリアカンパニー,0
1730,6030003021761,新規,0,2023-05-15,2023-05-15,合同会社ＭＵＫＹＵ,,合同会社,埼玉県,さいたま市大宮区,天沼町２丁目９０３番地２,,11,103,3300834,,,,,,,2023-05-15,1,,,,,ムキュウ,0
1734,6040001128368,新規,0,2023-05-15,2023-05-15,株式会社ｔｓｕｎａｇｉ,,株式会社,千葉県,八街市,八街ほ３３１番地１１,,12,230,2891115,,,,,,,2023-05-15,1,,,,,ツナギ,0
1735,6040001128376,新規,0,2023-05-15,2023-05-15,株式会社スタジオ木花,,株式会社,千葉県,流山市,おおたかの森東４丁目２５番地の６,,12,220,2700138,,,,,,,2023-05-15,1,,,,,スタジオコノハナ,0
1736,6040001128384,新規,0,2023-05-15,2023-05-15,株式会社小林オート,,株式会社,千葉県,成田市,竜台３５６ー１,,12,211,2860801,,,,,,,2023-05-15,1,,,,,コバヤシオート,0
1737,6040001128418,新規,0,2023-05-15,2023-05-15,株式会社加寿園,,株式会社,千葉県,銚子市,八木町４２６１番地,,12,202,2880822,,,,,,,2023-05-15,1,,,,,カジュエン,0
1738,6040003022602,新規,0,2023-05-15,2023-05-15,合同会社セレクトホーム,,合同会社,千葉県,船橋市,駿河台１丁目７番２３号,,12,204,2730862,,,,,,,2023-05-15,1,,,,,セレクトホーム,0
1739,6040003022610,新規,0,2023-05-15,2023-05-15,ＴＲＹＤＥＮＴ合同会社,,合同会社,千葉県,市原市,山木４６番地３０,,12,219,2900005,,,,,,,2023-05-15,1,,,,,トライデント,0
1742,6050005013268,新規,0,2023-05-15,2023-05-15,ＰＩＣ事業協同組合,,その他の設立登記法人,茨城県,神栖市,息栖２７６６番地５,,08,232,3140133,,,,,,,2023-05-15,1,,,,,ピィーアイシー,0
1746,6060003004549,新規,0,2023-05-15,2023-05-15,Ｃｏｍｍｕｈ　Ｄｅｓｉｇｎ合同会社,,合同会社,栃木県,宇都宮市,錦１丁目１１９８番地１サーパス錦５１２号,,09,201,3210967,,,,,,,2023-05-15,1,,,,,コミュデザイン,0
1755,6080401026473,新規,0,2023-05-15,2023-05-15,株式会社美源,,株式会社,静岡県,磐田市,福田７８０番地２,,22,211,4371203,,,,,,,2023-05-15,1,,,,,ビゲン,0
1762,6100001036399,新規,0,2023-05-15,2023-05-15,株式会社ＯＮＥ　ＧＩＥＫ,,株式会社,長野県,長野市,大字徳間７２７番地１９フロンティア徳間Ａ１０１,,20,201,3810041,,,,,,,2023-05-15,1,,,,,ワンジーク,0
1771,6120001254825,新規,0,2023-05-15,2023-05-15,株式会社エイトワン,,株式会社,大阪府,大阪市淀川区,西中島６丁目８番８号花原第８ビル４０１号,,27,123,5320011,,,,,,,2023-05-15,1,,,,,エイトワン,0
1772,6120001254882,新規,0,2023-05-15,2023-05-15,株式会社ＰＬＵＳ　ＩＴＴ,,株式会社,大阪府,大阪市北区,梅田２丁目２番２号ヒルトンプラザウエストオフィスタワー１９階,,27,127,5300001,,,,,,,2023-05-15,1,,,,,プラスイット,0
1773,6120001254890,新規,0,2023-05-15,2023-05-15,株式会社ＴＳＵＮＡＧＵコーポレーション,,株式会社,大阪府,大阪市都島区,片町１丁目９－２６－２０２,,27,102,5340025,,,,,,,2023-05-15,1,,,,,ツナグコーポレーション,0
1774,6120001254908,新規,0,2023-05-15,2023-05-15,株式会社リンクアンドレバレッジ,,株式会社,大阪府,大阪市浪速区,日本橋５丁目１２番３号６Ｆ,,27,111,5560005,,,,,,,2023-05-15,1,,,,,リンクアンドレバレッジ,0
1776,6120003024053,新規,0,2023-05-15,2023-05-15,合同会社こども偏食少食ネットワーク協会,,合同会社,大阪府,大阪市北区,大深町３番１号グランフロント大阪タワーＢ２９階ロート製薬株式会社内,,27,127,5300011,,,,,,,2023-05-15,1,,,,,コドモヘンショクショウショクネットワークキョウカイ,0
1777,6120005023615,新規,0,2023-05-15,2023-05-15,一般社団法人ＯＭＯＲＯＩＳＵＭＩＫＡ,,その他の設立登記法人,大阪府,大阪市西成区,萩之茶屋３丁目６番２２号,,27,122,5570004,,,,,,,2023-05-15,1,,,,,オモロイスミカ,0
1779,6120101067524,新規,0,2023-05-15,2023-05-15,株式会社裕信電設,,株式会社,大阪府,羽曳野市,西浦４丁目８０６番地の３,,27,222,5830861,,,,,,,2023-05-15,1,,,,,ユウシンデンセツ,0
1780,6120101067532,新規,0,2023-05-15,2023-05-15,株式会社ＡＬＵ,,株式会社,大阪府,堺市北区,奥本町１丁１７０番地５,,27,146,5918007,,,,,,,2023-05-15,1,,,,,アル,0
1782,6120901047510,新規,0,2023-05-15,2023-05-15,Ｌｕｃｈｉａ株式会社,,株式会社,大阪府,高槻市,月見町１６番２３号,,27,207,5691122,,,,,,,2023-05-15,1,,,,,ルシア,0
1787,6130001074297,新規,0,2023-05-15,2023-05-15,株式会社ＡＳＴＡＣＴ,,株式会社,京都府,京都市伏見区,石田大山町１番地３ハヤシビル５０１,,26,109,6011433,,,,,,,2023-05-15,1,,,,,アスタクト,0
1788,6130001074306,新規,0,2023-05-15,2023-05-15,易善株式会社,,株式会社,京都府,京都市南区,東九条東山王町２１番地１,,26,107,6018004,,,,,,,2023-05-15,1,,,,,エキゼン,0
1793,6140001130082,新規,0,2023-05-15,2023-05-15,株式会社正晃,,株式会社,兵庫県,尼崎市,東園田町２丁目７６番地の１・１０６号,,28,202,6610953,,,,,,,2023-05-15,1,,,,,セイコウ,0
1794,6140001130165,新規,0,2023-05-15,2023-05-15,株式会社アイテック,,株式会社,兵庫県,姫路市,仁豊野４４４番地,,28,201,6700801,,,,,,,2023-05-15,1,,,,,アイテック,0
1799,6170001017608,新規,0,2023-05-15,2023-05-15,株式会社ＫＩＭＥ,,株式会社,和歌山県,御坊市,湯川町丸山８８９番地１,,30,205,6440013,,,,,,,2023-05-15,1,,,,,カイム,0
1805,6180001156256,新規,0,2023-05-15,2023-05-15,ＷＩＬＬＣ株式会社,,株式会社,愛知県,名古屋市中区,丸の内２丁目１７番３号,,23,106,4600002,,,,,,,2023-05-15,1,,,,,ウィルク,0
1806,6180001156272,新規,0,2023-05-15,2023-05-15,株式会社Ｒａｐｉｄｅ　Ｍｏｔｏｒｓ,,株式会社,愛知県,清須市,須ケ口６８番地,,23,233,4520905,,,,,,,2023-05-15,1,,,,,ラピードモータース,0
1807,6180001156280,新規,0,2023-05-15,2023-05-15,株式会社天命プロファイリング研究所,,株式会社,愛知県,名古屋市千種区,茶屋が坂１丁目７番４号ラポール茶屋ヶ坂１０２号,,23,101,4640092,,,,,,,2023-05-15,1,,,,,テンメイプロファイリングケンキュウショ,0
1808,6180001156306,新規,0,2023-05-15,2023-05-15,株式会社旭,,株式会社,愛知県,名古屋市熱田区,一番３丁目６番７号（メゾンアルモニーＢ９０３号）,,23,109,4560053,,,,,,,2023-05-15,1,,,,,アサヒ,0
1816,6200001041315,新規,0,2023-05-15,2023-05-15,株式会社Ｍ＆Ｈ,,株式会社,岐阜県,岐阜市,手力町２３番２号,,21,201,5008236,,,,,,,2023-05-15,1,,,,,エムアンドエイチ,0
1817,6210003001646,新規,0,2023-05-15,2023-05-15,ＩＦＡＣ合同会社,,合同会社,福井県,福井市,高木中央１丁目２５０１番地,,18,201,9100804,,,,,,,2023-05-15,1,,,,,アイエフエーシー,0
1820,6240001061508,新規,0,2023-05-15,2023-05-15,緑心株式会社,,株式会社,広島県,呉市,焼山本庄４丁目４番４号,,34,202,7370912,,,,,,,2023-05-15,1,,,,,リョクシン,0
1821,6240001061516,新規,0,2023-05-15,2023-05-15,株式会社ＳＰＷ,,株式会社,広島県,東広島市,西条町西条東８４７番地８,,34,212,7390042,,,,,,,2023-05-15,1,,,,,エスピーダブル,0
1822,6240001061524,新規,0,2023-05-15,2023-05-15,株式会社ｂｅｔ　ｂｏｏｔｓ,,株式会社,広島県,広島市中区,橋本町７番２６号,,34,101,7300015,,,,,,,2023-05-15,1,,,,,ベットブーツ,0
1825,6250001020090,新規,0,2023-05-15,2023-05-15,株式会社定山,,株式会社,山口県,周南市,築港町５番１３号,,35,215,7450025,,,,,,,2023-05-15,1,,,,,サダヤマ,0
1827,6270003001517,新規,0,2023-05-15,2023-05-15,合同会社優翔,,合同会社,鳥取県,日野郡日野町,舟場２４１番地２,,31,402,6894505,,,,,,,2023-05-15,1,,,,,ユウショウ,0
1835,6290001101531,新規,0,2023-05-15,2023-05-15,株式会社インテリア小野,,株式会社,福岡県,福岡市城南区,堤２丁目４番１１－１０５号,,40,136,8140151,,,,,,,2023-05-15,1,,,,,インテリアオノ,0
1836,6290001101556,新規,0,2023-05-15,2023-05-15,株式会社ロコプラス,,株式会社,福岡県,福岡市東区,若宮５丁目１番２９号,,40,131,8130036,,,,,,,2023-05-15,1,,,,,ロコプラス,0
1839,6290801029526,新規,0,2023-05-15,2023-05-15,たっちあっぷ株式会社,,株式会社,福岡県,行橋市,大橋１丁目６番６号,,40,213,8240003,,,,,,,2023-05-15,1,,,,,タッチアップ,0
1840,6290803004411,新規,0,2023-05-15,2023-05-15,合同会社優凛,,合同会社,福岡県,遠賀郡岡垣町,海老津駅前８番１号,,40,383,8114236,,,,,,,2023-05-15,1,,,,,ユウリン,0
1845,6330001030866,新規,0,2023-05-15,2023-05-15,株式会社アバンセ不動産,,株式会社,熊本県,菊池市,西寺１８３４番地２,,43,210,8611323,,,,,,,2023-05-15,1,,,,,アバンセフドウサン,0
1849,6350005006159,新規,0,2023-05-15,2023-05-15,一般社団法人飲食店イメージアップ研究所,,その他の設立登記法人,宮崎県,宮崎市,旭１丁目８番１５号ＪＯＢビル２階Ｂ号,,45,201,8800803,,,,,,,2023-05-15,1,,,,,インショクテンイメージアップケンキュウジョ,0
1854,6370001049944,新規,0,2023-05-15,2023-05-15,株式会社ＮＭ,,株式会社,宮城県,仙台市太白区,郡山８丁目６番５９号ファミーユ仙台郡山２０３,,04,104,9820003,,,,,,,2023-05-15,1,,,,,エヌエム,0
1857,6380001033690,新規,0,2023-05-15,2023-05-15,株式会社Ｃｅｌｉｏｎｅ,,株式会社,福島県,いわき市,小名浜大原六反田町２番地の１,,07,204,9718111,,,,,,,2023-05-15,1,,,,,セリオーネ,0
1867,6400005008331,新規,0,2023-05-15,2023-05-15,農事組合法人大平ファーム,,その他の設立登記法人,岩手県,一関市,千厩町奥玉字川崎３番地,,03,209,0291111,,,,,,,2023-05-15,1,,,,,オオダイラファーム,0
1868,6410003003795,新規,0,2023-05-15,2023-05-15,北のくらし研究所合同会社,,合同会社,秋田県,仙北郡美郷町,六郷字上町２１番地,,05,434,0191404,,,,,,,2023-05-15,1,,,,,キタノクラシケンキュウショ,0
1872,6430001089050,新規,0,2023-05-15,2023-05-15,伊深基礎工業株式会社,,株式会社,北海道,恵庭市,有明町２丁目６番９号,,01,231,0611431,,,,,,,2023-05-15,1,,,,,イブカキソコウギョウ,0
1873,6430001089083,新規,0,2023-05-15,2023-05-15,株式会社三祐建工,,株式会社,北海道,札幌市白石区,菊水元町六条４丁目４番１４号,,01,104,0030826,,,,,,,2023-05-15,1,,,,,サンユウケンコウ,0
1875,6430003015046,新規,0,2023-05-15,2023-05-15,合同会社Ｔｅｎ,,合同会社,北海道,札幌市豊平区,西岡四条１丁目５番１３－６０２号,,01,105,0620034,,,,,,,2023-05-15,1,,,,,テン,0
1877,6450001013982,新規,0,2023-05-15,2023-05-15,株式会社ａｎｄ‐ａｎｄ,,株式会社,北海道,上川郡東川町,西町５丁目５番地１５号,,01,458,0711425,,,,,,,2023-05-15,1,,,,,アンドアンド,0
1882,6470001019615,新規,0,2023-05-15,2023-05-15,株式会社メタルアップ,,株式会社,香川県,高松市,由良町９５５番地９,,37,201,7610441,,,,,,,2023-05-15,1,,,,,メタルアップ,0
1885,6490003001775,新規,0,2023-05-15,2023-05-15,合同会社ＫＲ,,合同会社,高知県,土佐市,塚地４３６番地２,,39,205,7811153,,,,,,,2023-05-15,1,,,,,ケーアール,0
1887,6700150116189,新規,0,2023-05-15,2023-05-15,ｈａｎｇｚｈｏｕｘｉａｎｇｈｕｉｋｅｊｉｙｏｕｘｉａｎｇｏｎｇｓｉ,,外国会社等,,,,,,,,ｃｈａｎｇｓｈｅｎｇｌｕ５８ｈａｏ３０８ｓｈｉｈａｎｇｚｈｏｕｓｈｉｓｈａｎｇｃｈｅｎｇｑｕ　ｚｈｅｊｉａｎｇｓｈｅｎｇ,,,,,,2023-05-15,1,,,,,コウシユウシヨウキテテクノロジーユウゲンコウシ,0
1888,6700150116197,新規,0,2023-05-15,2023-05-15,Ｆｕｚｈｏｕ　１６９　Ｎｅｔｗｏｒｋ　Ｔｅｃｈｎｏｌｏｇｙ　Ｃｏ．,,外国会社等,,,,,,,,ｃｈａｕｎｇｘｉｎｌｏｕｈｏｕｄｏｎｇ４ｃｈｅｎｇ２＃４Ｆ－０３０５　ｍａｗｅｉｑｕｍａｗｅｉｚｈｅｎｋｕａｉａｎｌｕ８ｈａｏ　ＦｕＺｈｏｕＳｈｉ　ＦｕＪｉａｎＳｈｅｎｇ　ＣＨＩＮＡ,,,,,,2023-05-15,1,,,,,フーヂョウイチロクキューネットワークテクノロジーカンパニー,0
1889,6700150116206,新規,0,2023-05-15,2023-05-15,ｓｈｅｎ　ｚｈｅｎ　ｓｈｉ　ｔｕｏ　ｓｉ　ｍａ　ｋｅ　ｊｉ　Ｃｏ．，Ｌｔｄ．,,外国会社等,,,,,,,,Ｓａｎｈｅ　Ｏｖｅｒｓｅａｓ　Ｈｕａｑｉａｏ　Ｎｅｗ　Ｖｉｌｌａｇｅ，Ｔｏｎｇｓｈｅｎｇ　Ｃｏｍｍｕｎｉｔｙ，Ｄａ　Ｒｏｏｍ　７４９，７ｔｈ　ｆｌｏｏｒ，Ｎｏ．１１　Ｓｈｅｎｚｈｅｎ　ｇｕａｎｇｄｏｎｇ,,,,,,2023-05-15,1,,,,,シンセンシトォウシマケジカンパニーリミテッド,0
1890,6700150116214,新規,0,2023-05-15,2023-05-15,Ｚｈｅｊｉａｎｇ　Ｊｉｅｋｅｂａｑｉａｏ　Ｘｉｅｙｅ　Ｙｏｕｘｉａｎ　Ｇｏｎｇｓｉ,,外国会社等,,,,,,,,Ｒｕｉｘｉａｎｇ　Ｒｏａｄ　Ｎｏ．１１００　Ｔｈｉｒｄ　Ｆｌｏｏｒ　Ｒｕｉａｎ　Ｚｈｅｊｉａｎｇ　３２５２００　ＣＮ,,,,,,2023-05-15,1,,,,,ジョージャンジエコーバーチャオシエイエヨウシエンゴンスー,0
1909,7010001235273,新規,0,2023-05-15,2023-05-15,株式会社ＳＨＩＲＯ,,株式会社,東京都,千代田区,九段南４丁目５番１２号,,13,101,1020074,,,,,,,2023-05-15,1,,,,,シロ,0
1914,7010003040580,新規,0,2023-05-15,2023-05-15,ＳＥＩＴＡ　ＭＡＲＵＩ合同会社,,合同会社,東京都,中央区,新富２丁目７番７－４０３号,,13,102,1040041,,,,,,,2023-05-15,1,,,,,セイタマルイ,0
1925,7010401174352,新規,0,2023-05-15,2023-05-15,株式会社ｎｉｃｏ,,株式会社,東京都,港区,北青山３丁目１番６号３１６青山４０５号室,,13,103,1070061,,,,,,,2023-05-15,1,,,,,ニコ,0
1926,7010401174377,新規,0,2023-05-15,2023-05-15,株式会社ＴＡＩＬＯＲ＆ＣＵＴＴＥＲ,,株式会社,東京都,港区,南青山６丁目７番１３号,,13,103,1070062,,,,,,,2023-05-15,1,,,,,テーラーアンドカッター,0
1929,7010403030090,新規,0,2023-05-15,2023-05-15,ＮＪグリーンパワー合同会社,,合同会社,東京都,港区,芝浦３丁目４番１号,,13,103,1080023,,,,,,,2023-05-15,1,,,,,エヌジェイグリーンパワー,0
1935,7010501050437,新規,0,2023-05-15,2023-05-15,株式会社ＫＡＶＶＡ,,株式会社,東京都,台東区,浅草７丁目６番１号石川工務店第２ビル,,13,106,1110032,,,,,,,2023-05-15,1,,,,,カヴァ,0
1936,7010601063099,新規,0,2023-05-15,2023-05-15,著物株式会社,,株式会社,東京都,江東区,亀戸５丁目２５－９金沐荘２０１,,13,108,1360071,,,,,,,2023-05-15,1,,,,,チョブツ,0
1939,7010603010132,新規,0,2023-05-15,2023-05-15,カワセミアンドパートナーズ合同会社,,合同会社,東京都,江東区,富岡１丁目２６番１５号,,13,108,1350047,,,,,,,2023-05-15,1,,,,,カワセミアンドパートナーズ,0
1940,7010701044247,新規,0,2023-05-15,2023-05-15,株式会社キトラル,,株式会社,東京都,品川区,西五反田３丁目１５番６号,,13,109,1410031,,,,,,,2023-05-15,1,,,,,キトラル,0
1946,7010901053023,新規,0,2023-05-15,2023-05-15,株式会社ＰＯＳＴＳ,,株式会社,東京都,世田谷区,北沢３丁目２７番１０号,,13,112,1550031,,,,,,,2023-05-15,1,,,,,ポスツ,0
1947,7010901053031,新規,0,2023-05-15,2023-05-15,グラッドライフワーク株式会社,,株式会社,東京都,世田谷区,奥沢５丁目９番６号グレイスベル自由が丘１０５号室,,13,112,1580083,,,,,,,2023-05-15,1,,,,,グラッドライフワーク,0
1956,7011001154265,新規,0,2023-05-15,2023-05-15,株式会社ユーテック,,株式会社,東京都,渋谷区,初台２丁目４－２０－３１３,,13,113,1510061,,,,,,,2023-05-15,1,,,,,ユーテック,0
1957,7011001154397,新規,0,2023-05-15,2023-05-15,株式会社ＭＶｉｂｅｓ,,株式会社,東京都,渋谷区,広尾５丁目４番１６号,,13,113,1500012,,,,,,,2023-05-15,1,,,,,エムバイブス,0
1958,7011001154422,新規,0,2023-05-15,2023-05-15,ＡＩマーケティング株式会社,,株式会社,東京都,渋谷区,渋谷２丁目１９番１５－６０９号宮益坂ビルディング,,13,113,1500002,,,,,,,2023-05-15,1,,,,,エーアイマーケティング,0
1963,7011101102867,新規,0,2023-05-15,2023-05-15,ＣＫＫ株式会社,,株式会社,東京都,新宿区,南元町１７－２３－２０１,,13,104,1600012,,,,,,,2023-05-15,1,,,,,シーケーケー,0
1965,7011301028689,新規,0,2023-05-15,2023-05-15,株式会社ユクス,,株式会社,東京都,杉並区,阿佐谷北５丁目４５番１５号,,13,115,1660001,,,,,,,2023-05-15,1,,,,,ユクス,0
1969,7011501029272,新規,0,2023-05-15,2023-05-15,ＭＫ株式会社,,株式会社,東京都,荒川区,南千住８丁目９番２－９０４号,,13,118,1160003,,,,,,,2023-05-15,1,,,,,エムケイ,0
1970,7011501029280,新規,0,2023-05-15,2023-05-15,株式会社フトコロ,,株式会社,東京都,北区,田端４丁目５番１１号,,13,117,1140014,,,,,,,2023-05-15,1,,,,,フトコロ,0
1974,7011503005602,新規,0,2023-05-15,2023-05-15,合同会社ＢＡＮＩＹＡ,,合同会社,東京都,北区,中十条２丁目２番６号セントラルＡハイツ２０７号,,13,117,1140032,,,,,,,2023-05-15,1,,,,,,0
1975,7011601026814,新規,0,2023-05-15,2023-05-15,株式会社ＩＣＨＩＬＩ,,株式会社,東京都,練馬区,春日町５丁目２９番３１号,,13,120,1790074,,,,,,,2023-05-15,1,,,,,イチリ,0
1977,7011701026235,新規,0,2023-05-15,2023-05-15,隆誠商事株式会社,,株式会社,東京都,江戸川区,東葛西５丁目１番１４第７片田ビル４０１号,,13,123,1340084,,,,,,,2023-05-15,1,,,,,リュウセイショウジ,0
1982,7012703002703,新規,0,2023-05-15,2023-05-15,合同会社Ｏｃｔａｖｉａ,,合同会社,東京都,東久留米市,学園町２丁目１３番８号,,13,222,2030021,,,,,,,2023-05-15,1,,,,,,0
1983,7012801022347,新規,0,2023-05-15,2023-05-15,株式会社ＹＫＣＬＥＡＮ,,株式会社,東京都,武蔵村山市,学園１丁目１１７番地の９,,13,223,2080011,,,,,,,2023-05-15,1,,,,,ワイケイクリーン,0
1984,7012803003080,新規,0,2023-05-15,2023-05-15,中森合同会社,,合同会社,東京都,国分寺市,東元町３丁目１２番２７号,,13,214,1850022,,,,,,,2023-05-15,1,,,,,ナカモリ,0
1985,7013101009167,新規,0,2023-05-15,2023-05-15,株式会社かすがい,,株式会社,東京都,青梅市,東青梅３丁目１２番地の７・１Ｆ,,13,205,1980042,,,,,,,2023-05-15,1,,,,,カスガイ,0
1999,7020001151528,新規,0,2023-05-15,2023-05-15,株式会社デイジー,,株式会社,神奈川県,横浜市港北区,新吉田東８丁目３９番３７号,,14,109,2230058,,,,,,,2023-05-15,1,,,,,デイジー,0
2000,7020001151560,新規,0,2023-05-15,2023-05-15,株式会社Ｌｅｋｕｔｏ,,株式会社,神奈川県,川崎市高津区,千年９２５番地１プランドール新城１階,,14,134,2130022,,,,,,,2023-05-15,1,,,,,レクト,0
2001,7020001151577,新規,0,2023-05-15,2023-05-15,株式会社峰農園,,株式会社,神奈川県,横浜市瀬谷区,本郷３丁目５９－５,,14,114,2460015,,,,,,,2023-05-15,1,,,,,ミネノウエン,0
2002,7020001151585,新規,0,2023-05-15,2023-05-15,株式会社ＳｔｏＳ,,株式会社,神奈川県,横浜市南区,中島町４丁目７２番地,,14,105,2320055,,,,,,,2023-05-15,1,,,,,エストゥーエス,0
2003,7020001151593,新規,0,2023-05-15,2023-05-15,株式会社ＴＡＫＥ　ＯＦＦ,,株式会社,神奈川県,横浜市港南区,上永谷６丁目１番１号サルビアビル３０２号室,,14,111,2330012,,,,,,,2023-05-15,1,,,,,テイクオフ,0
2004,7020001151602,新規,0,2023-05-15,2023-05-15,株式会社ＭａｒｕｔｔｏＬａｂ,,株式会社,神奈川県,横浜市西区,北幸２丁目１０番２８号むつみビル３Ｆ,,14,103,2200004,,,,,,,2023-05-15,1,,,,,マルットラボ,0
2006,7020003023898,新規,0,2023-05-15,2023-05-15,合同会社ＫＮ企画,,合同会社,神奈川県,川崎市幸区,南加瀬１丁目１３番１５－５０７号,,14,132,2120055,,,,,,,2023-05-15,1,,,,,ケーエヌキカク,0
2007,7020003023907,新規,0,2023-05-15,2023-05-15,合同会社湘南ギルトフリースイーツ,,合同会社,神奈川県,横浜市栄区,元大橋２丁目３１番１３号,,14,115,2470011,,,,,,,2023-05-15,1,,,,,ショウナンギルトフリースイーツ,0
2008,7020003023923,新規,0,2023-05-15,2023-05-15,ワンダーアセットマネジメント合同会社,,合同会社,神奈川県,川崎市高津区,梶ケ谷６丁目１１番地７８,,14,134,2130015,,,,,,,2023-05-15,1,,,,,ワンダーアセットマネジメント,0
2009,7020005015992,新規,0,2023-05-15,2023-05-15,ひろた税理士法人,,その他の設立登記法人,神奈川県,横浜市港南区,丸山台１丁目４番８－２０１号,,14,111,2330013,,,,,,,2023-05-15,1,,,,,ヒロタ,0
2012,7021001079016,新規,0,2023-05-15,2023-05-15,株式会社ケフアン,,株式会社,神奈川県,相模原市南区,東林間５丁目１番８号プリューデンスヒロイ４０３,,14,153,2520311,,,,,,,2023-05-15,1,,,,,ケフアン,0
2013,7021001079040,新規,0,2023-05-15,2023-05-15,株式会社ＯＮ　ＡＩＲ,,株式会社,神奈川県,相模原市緑区,橋本３丁目３１番６号ハタノ第３ビル４階,,14,151,2520143,,,,,,,2023-05-15,1,,,,,オンエアー,0
2014,7021001079049,新規,0,2023-05-15,2023-05-15,株式会社ｓｙｍｂｏｌｅａｄ,,株式会社,神奈川県,鎌倉市,長谷２丁目７番２９号,,14,204,2480016,,,,,,,2023-05-15,1,,,,,シンボリード,0
2015,7021001079057,新規,0,2023-05-15,2023-05-15,株式会社ＭＩＫＡＤＯ,,株式会社,神奈川県,鎌倉市,西御門２丁目８番４号,,14,204,2480004,,,,,,,2023-05-15,1,,,,,ミカド,0
2017,7021005012815,新規,0,2023-05-15,2023-05-15,一般社団法人無限未来研究所,,その他の設立登記法人,神奈川県,茅ヶ崎市,浜見平１４番２－７０１号,,14,207,2530062,,,,,,,2023-05-15,1,,,,,ムゲンミライケンキュウジョ,0
2023,7030001153688,新規,0,2023-05-15,2023-05-15,株式会社丸湛建設,,株式会社,埼玉県,吉川市,高久２丁目１番地３,,11,243,3420035,,,,,,,2023-05-15,1,,,,,マルキヨケンセツ,0
2024,7030001153829,新規,0,2023-05-15,2023-05-15,萬麗株式会社,,株式会社,埼玉県,上尾市,大字畔吉６０９番地,,11,219,3620065,,,,,,,2023-05-15,1,,,,,マンレイ,0
2025,7030001153878,新規,0,2023-05-15,2023-05-15,株式会社ニッシン企画,,株式会社,埼玉県,上尾市,二ツ宮１１２３番地１,,11,219,3620017,,,,,,,2023-05-15,1,,,,,ニッシンキカク,0
2026,7030001153903,新規,0,2023-05-15,2023-05-15,Ｆｒｅｅｄｏｍ株式会社,,株式会社,埼玉県,深谷市,東方３６６４番地５,,11,218,3660041,,,,,,,2023-05-15,1,,,,,フリーダム,0
2027,7030001153911,新規,0,2023-05-15,2023-05-15,株式会社早稲田英才塾,,株式会社,埼玉県,八潮市,大字西袋６７７－６－１０１号室,,11,234,3400833,,,,,,,2023-05-15,1,,,,,ワセダエイサイジュク,0
2034,7030003021752,新規,0,2023-05-15,2023-05-15,合同会社ＭＩＹＡＢＩ,,合同会社,埼玉県,春日部市,八丁目３５５番地５,,11,214,3440006,,,,,,,2023-05-15,1,,,,,ミヤビ,0
2035,7030003021760,新規,0,2023-05-15,2023-05-15,錦繍合同会社,,合同会社,埼玉県,川口市,上青木西１丁目８番１０－７号,,11,203,3330845,,,,,,,2023-05-15,1,,,,,キンシュウ,0
2038,7040001128367,新規,0,2023-05-15,2023-05-15,株式会社Ｍ’ｓ,,株式会社,千葉県,柏市,高柳４７２番地１３高柳飯島ビルＢ棟１階１０１号室,,12,217,2770941,,,,,,,2023-05-15,1,,,,,エムズ,0
2039,7040001128375,新規,0,2023-05-15,2023-05-15,株式会社ＳＮＯＷ,,株式会社,千葉県,習志野市,秋津４丁目９番８号,,12,216,2750025,,,,,,,2023-05-15,1,,,,,スノウ,0
2040,7040001128383,新規,0,2023-05-15,2023-05-15,株式会社ワークス・ラボ,,株式会社,千葉県,船橋市,湊町２丁目１２番１２号ＴＯビル６０,,12,204,2730011,,,,,,,2023-05-15,1,,,,,ワークスラボ,0
2041,7040001128417,新規,0,2023-05-15,2023-05-15,株式会社Ｓｍａｌｌ　Ｂｅａｃｈ　Ｆａｒｍ,,株式会社,千葉県,銚子市,小浜町１７８６番地,,12,202,2880821,,,,,,,2023-05-15,1,,,,,スモールビーチファーム,0
2042,7040001128425,新規,0,2023-05-15,2023-05-15,株式会社Ｆｅｌｉｚ,,株式会社,千葉県,柏市,篠籠田１３７２番地７６,,12,217,2770862,,,,,,,2023-05-15,1,,,,,フェリース,0
2048,7050003007510,新規,0,2023-05-15,2023-05-15,合同会社華楽,,合同会社,茨城県,那珂郡東海村,東海１丁目１６番２号ｇｕｐｌｕｓ１０１,,08,341,3191117,,,,,,,2023-05-15,1,,,,,カラク,0
2050,7050005013267,新規,0,2023-05-15,2023-05-15,一般社団法人青葉組茨城団,,その他の設立登記法人,茨城県,久慈郡大子町,大字上岡１２８１番地,,08,364,3193531,,,,,,,2023-05-15,1,,,,,,0
2056,7070001040445,新規,0,2023-05-15,2023-05-15,株式会社極東機工,,株式会社,群馬県,高崎市,中泉町２７１番地５,,10,202,3703524,,,,,,,2023-05-15,1,,,,,キョクトウキコウ,0
2058,7070003004943,新規,0,2023-05-15,2023-05-15,合同会社木下,,合同会社,群馬県,太田市,新井町２２１番地２,,10,205,3730852,,,,,,,2023-05-15,1,,,,,キノシタ,0
2059,7080101024000,新規,0,2023-05-15,2023-05-15,株式会社Ｒ‐ｔｅｃｈ,,株式会社,静岡県,富士市,中里２８９番地の２２,,22,210,4170826,,,,,,,2023-05-15,1,,,,,アールテック,0
2061,7080103002805,新規,0,2023-05-15,2023-05-15,合同会社ＦＩＥＬＤ,,合同会社,静岡県,富士市,神谷１５８番地の４,,22,210,4170821,,,,,,,2023-05-15,1,,,,,フィールド,0
2063,7100001007242,新規,0,2023-05-15,2023-05-15,三恵建設株式会社,,株式会社,長野県,佐久市,中込２丁目２９番地１２,,20,217,3850051,,,,,,,2023-05-15,1,,,,,サンケイケンセツ,0
2076,7120001254824,新規,0,2023-05-15,2023-05-15,フライス株式会社,,株式会社,大阪府,大阪市城東区,鴫野東２丁目２２番１７号,,27,118,5360013,,,,,,,2023-05-15,1,,,,,フライス,0
2077,7120001254840,新規,0,2023-05-15,2023-05-15,株式会社ｄ‐ｄｅｓｉｇｎ,,株式会社,大阪府,大阪市生野区,田島６丁目６番９号,,27,116,5440011,,,,,,,2023-05-15,1,,,,,ディーデザイン,0
2078,7120001254857,新規,0,2023-05-15,2023-05-15,株式会社心ノ美医療,,株式会社,大阪府,大阪市阿倍野区,旭町１丁目２番７号あべのメディックス３０２号室,,27,119,5450051,,,,,,,2023-05-15,1,,,,,ココロノビイリョウ,0
2079,7120001254865,新規,0,2023-05-15,2023-05-15,株式会社みらぴか,,株式会社,大阪府,大阪市北区,梅田１丁目２番２号大阪駅前第２ビル１２－１２,,27,127,5300001,,,,,,,2023-05-15,1,,,,,ミラピカ,0
2080,7120001254915,新規,0,2023-05-15,2023-05-15,株式会社藤田設備,,株式会社,大阪府,守口市,金田町１丁目７０番５号,,27,209,5700011,,,,,,,2023-05-15,1,,,,,,0
2083,7120003024060,新規,0,2023-05-15,2023-05-15,合同会社Ｃｏｃｏ．Ｅａｓｅ,,合同会社,大阪府,大阪市北区,梅田１丁目２番２号,,27,127,5300001,,,,,,,2023-05-15,1,,,,,ココイーズ,0
2084,7120003024077,新規,0,2023-05-15,2023-05-15,合同会社Ｓｔｕｄｉｏ　Ａｒｔ,,合同会社,大阪府,大阪市城東区,鴫野西１丁目１３－４,,27,118,5360014,,,,,,,2023-05-15,1,,,,,スタジオアート,0
2085,7120005023614,新規,0,2023-05-15,2023-05-15,一般社団法人ブライダルスキルアップ協会,,その他の設立登記法人,大阪府,大阪市北区,南森町１丁目３番２９号ＭＳＴ南森町７階,,27,127,5300054,,,,,,,2023-05-15,1,,,,,ブライダルスキルアップキョウカイ,0
2100,7140001044380,新規,0,2023-05-15,2023-05-15,株式会社ＩＡＣ,,株式会社,兵庫県,加古郡播磨町,二子３８４番地の１,,28,382,6750162,,,,,,,2023-05-15,1,,,,,アイエイシー,0
2106,7140001130148,新規,0,2023-05-15,2023-05-15,三矢建設工業株式会社,,株式会社,兵庫県,神戸市東灘区,深江本町３丁目１番１０号イルマーレ壱番館１０２号室,,28,101,6580021,,,,,,,2023-05-15,1,,,,,ミツヤケンセツコウギョウ,0
2107,7140001130189,新規,0,2023-05-15,2023-05-15,株式会社ｓａｃｈｉｍａｓｕ,,株式会社,兵庫県,尼崎市,小中島１丁目２１番９号ルナビル園田２０１,,28,202,6610972,,,,,,,2023-05-15,1,,,,,サチマス,0
2112,7140003019091,新規,0,2023-05-15,2023-05-15,合同会社アイユー,,合同会社,兵庫県,神戸市東灘区,御影３丁目２番１１号３２,,28,101,6580047,,,,,,,2023-05-15,1,,,,,アイユー,0
2123,7180001156255,新規,0,2023-05-15,2023-05-15,株式会社名和塗装,,株式会社,愛知県,名古屋市緑区,高根山１丁目９２７番地,,23,114,4598013,,,,,,,2023-05-15,1,,,,,ナワトソウ,0
2124,7180001156271,新規,0,2023-05-15,2023-05-15,株式会社フラットバンク,,株式会社,愛知県,名古屋市西区,名駅２丁目１６番９号,,23,104,4510045,,,,,,,2023-05-15,1,,,,,フラットバンク,0
2125,7180001156288,新規,0,2023-05-15,2023-05-15,株式会社末広工業,,株式会社,愛知県,一宮市,末広２丁目２３番１３号,,23,203,4910918,,,,,,,2023-05-15,1,,,,,スエヒロコウギョウ,0
2126,7180001156305,新規,0,2023-05-15,2023-05-15,株式会社Ｐｒｏｔｏｔｙｐｅ　Ｃｉｔｙ　ｌａｂ,,株式会社,愛知県,名古屋市中区,金山１丁目１４番６号トキワビル８階,,23,106,4600022,,,,,,,2023-05-15,1,,,,,プロトタイプシティラボ,0
2127,7180003025219,新規,0,2023-05-15,2023-05-15,合同会社ＨＥＡＲＴＳ,,合同会社,愛知県,江南市,東野町烏森７－３,,23,217,4838417,,,,,,,2023-05-15,1,,,,,ハーツ,0
2129,7180301037386,新規,0,2023-05-15,2023-05-15,株式会社ヘルスケアマネジメント,,株式会社,愛知県,岡崎市,欠町字金谷１０番地１,,23,202,4440011,,,,,,,2023-05-15,1,,,,,ヘルスケアマネジメント,0
2132,7240001061515,新規,0,2023-05-15,2023-05-15,株式会社ヒトシオ,,株式会社,広島県,広島市中区,国泰寺町１丁目９番２７－３０８号,,34,101,7300042,,,,,,,2023-05-15,1,,,,,ヒトシオ,0
2133,7240001061523,新規,0,2023-05-15,2023-05-15,株式会社ネオ,,株式会社,広島県,広島市東区,東蟹屋町７番３５－１１０３号,,34,102,7320055,,,,,,,2023-05-15,1,,,,,ネオ,0
2134,7240001061531,新規,0,2023-05-15,2023-05-15,株式会社多伽羅,,株式会社,広島県,広島市東区,戸坂出江１丁目２番２５－２０３号,,34,102,7320016,,,,,,,2023-05-15,1,,,,,タガラ,0
2138,7240003006146,新規,0,2023-05-15,2023-05-15,広島かさねや合同会社,,合同会社,広島県,広島市南区,仁保新町１丁目３番１９－１０１号,,34,103,7340024,,,,,,,2023-05-15,1,,,,,ヒロシマカサネヤ,0
2141,7260001037950,新規,0,2023-05-15,2023-05-15,株式会社ＵＮＯ建設工業,,株式会社,岡山県,岡山市中区,長岡２６４番地１カーサヴィオラ１－２０２,,33,102,7038221,,,,,,,2023-05-15,1,,,,,ウノケンセツコウギョウ,0
2144,7260003004305,新規,0,2023-05-15,2023-05-15,合同会社ＡＭＰ,,合同会社,岡山県,岡山市中区,海吉２１１３番地２７,,33,102,7038261,,,,,,,2023-05-15,1,,,,,エーエムピー,0
2146,7270003001524,新規,0,2023-05-15,2023-05-15,ＦＵＪＩ合同会社,,合同会社,鳥取県,米子市,上福原１３６２番地８,,31,202,6830004,,,,,,,2023-05-15,1,,,,,,0
2154,7290001101415,新規,0,2023-05-15,2023-05-15,株式会社ＫＡＷＡＭＯＴＯ,,株式会社,福岡県,福岡市南区,大橋１丁目３番１８－９０９号,,40,134,8150033,,,,,,,2023-05-15,1,,,,,カワモト,0
2156,7290801029533,新規,0,2023-05-15,2023-05-15,ブランエナジー株式会社,,株式会社,福岡県,北九州市八幡東区,松尾町３番９号,,40,108,8050032,,,,,,,2023-05-15,1,,,,,ブランエナジー,0
2159,7310001018417,新規,0,2023-05-15,2023-05-15,ＨＡＶＥ　ＴＥＣＨ株式会社,,株式会社,長崎県,長崎市,戸石町６７７－４,,42,201,8510113,,,,,,,2023-05-15,1,,,,,,0
2160,7330001030849,新規,0,2023-05-15,2023-05-15,株式会社Ｙ．ｓｔｙｌｅ,,株式会社,熊本県,熊本市北区,龍田町弓削一丁目１４－３７グリーンヒル武蔵１０２,,43,105,8618002,,,,,,,2023-05-15,1,,,,,ワイスタイル,0
2161,7330001030865,新規,0,2023-05-15,2023-05-15,株式会社船津内装,,株式会社,熊本県,阿蘇郡西原村,大字小森３６５４番地３,,43,432,8612402,,,,,,,2023-05-15,1,,,,,フナツナイソウ,0
2166,7360001032017,新規,0,2023-05-15,2023-05-15,株式会社ＳＹＣ,,株式会社,沖縄県,那覇市,楚辺１丁目１番３７号,,47,201,9000023,,,,,,,2023-05-15,1,,,,,エスワイシー,0
2172,7370001049943,新規,0,2023-05-15,2023-05-15,株式会社Ａｒｎｋ　Ｔｒｕｓｔ,,株式会社,宮城県,仙台市青葉区,愛子中央３丁目１４番２５号,,04,101,9893128,,,,,,,2023-05-15,1,,,,,アーンクトラスト,0
2181,7390005009009,新規,0,2023-05-15,2023-05-15,一般社団法人ふぁーむなかつがわ,,その他の設立登記法人,山形県,西置賜郡飯豊町,大字上原４２９番地,,06,403,9990427,,,,,,,2023-05-15,1,,,,,ファームナカツガワ,0
2184,7410001013473,新規,0,2023-05-15,2023-05-15,株式会社Ｓ＆Ｋあきた,,株式会社,秋田県,大仙市,花館字間倉１５７番地６,,05,212,0140001,,,,,,,2023-05-15,1,,,,,エスアンドケーアキタ,0
2186,7420001018265,新規,0,2023-05-15,2023-05-15,株式会社板柳ケアプランセンター,,株式会社,青森県,北津軽郡板柳町,大字赤田字松下７番地３,,02,381,0383683,,,,,,,2023-05-15,1,,,,,イタヤナギケアプランセンター,0
2195,7460003000952,新規,0,2023-05-15,2023-05-15,あかり電気合同会社,,合同会社,北海道,釧路市,愛国東３丁目８番２７号,,01,206,0850058,,,,,,,2023-05-15,1,,,,,アカリデンキ,0
2197,7700150116196,新規,0,2023-05-15,2023-05-15,ｇｕａｎｇｚｈｏｕｓｈｉ　ｚｈｏｎｇｇｕｏｑｉ　ｋｅｊｉ　ｙｏｕｘｉａｎｇｏｎｇｓｉ,,外国会社等,,,,,,,,ｇｕａｎｇｄｏｎｇｓｈｅｎｇｇｕａｎｇｚｈｏｕｓｈｉｎａｎｓｈａｑｕｊｉｎｌｉｎｇｎａｎｌｕ４１２ｈａｏｚｉｂｉａｎｅｒｄｏｎｇ３５０－３５１ｆａｎｇＫ０９１（ｊｉｎｘｉａｎｂａｎｇｏｎｇ）,,,,,,2023-05-15,1,,,,,グアンヂョウシヂョングオチケジユウゲンコウシ,0
2198,7700150116205,新規,0,2023-05-15,2023-05-15,Ｊｉｎｇｊｉｎｇ　Ｔｅｃｈｎｏｌｏｇｙ（Ｂｅｉｊｉｎｇ）Ｃｏ．，Ｌｔｄ．,,外国会社等,,,,,,,,Ｒｏｏｍ　６１６，６ｔｈ　Ｆｌｏｏｒ，Ｎｅｗ　Ｍａｔｅｒｉａｌｓ　Ｐｉｏｎｅｅｒｉｎｇ　Ｂｕｉｌｄｉｎｇ，Ｎｏ．７　Ｂｅｉｊｉｎｇ　Ｈａｉｄｉａｎ　ｄｉｓｔｒｉｃｔ　ＣＮ,,,,,,2023-05-15,1,,,,,ジンジンテクノロジーベイジンカンパニーリミテッド,0
2199,7700150116213,新規,0,2023-05-15,2023-05-15,Ｓｈｅｎｚｈｅｎｓｈｉ　Ｊｉｙｉ　Ｙｉｎｇｘｉａｎｇ　Ｃｏ．，Ｌｔｄ,,外国会社等,,,,,,,,５Ｆ５Ａ１２－１，Ｓｈｅｎｚｈｏｕ　Ｃｏｍｐｕｔｅｒ　Ｂｕｉｌｄｉｎｇ，Ｊｕｌｉ　Ｆｕｒｅｎ　Ａｖｅｎｕｅ　Ｖａｎｋｅ　Ｃｉｔｙ　Ｃｏｍｍｕｎｉｔｙ，Ｂａｎｔｉａｎ　Ｓｔｒｅｅｔ，Ｌｏｎｇｇａｎｇ　Ｓｈｅｎｚｈｅｎ　Ｇｕａｎｇｄｏｎｇ　５１８１２９　ＣＮ,,,,,,2023-05-15,1,,,,,シェンジェンシージーイーインシャンコージーヨウシエンゴンスー,0
2218,8010001235099,新規,0,2023-05-15,2023-05-15,株式会社Ｔｈｉｒｄｖｅｒｓｅ,,株式会社,東京都,千代田区,神田錦町２丁目２番地１ＫＡＮＤＡＳＱＵＡＲＥ,,13,101,1010054,,,,,,,2023-05-15,1,,,,,サードバース,0
2219,8010001235297,新規,0,2023-05-15,2023-05-15,Ｑｒｅｅｔｅ株式会社,,株式会社,東京都,中央区,銀座１丁目１２番４号Ｎ＆ＥＢＬＤ．７階,,13,102,1040061,,,,,,,2023-05-15,1,,,,,クリート,0
2222,8010003040605,新規,0,2023-05-15,2023-05-15,合同会社ＭＯＲＥ　ＱＵＥＳＴ,,合同会社,東京都,中央区,銀座１丁目１２―４Ｎ＆ＥＢＬＤ．６Ｆ,,13,102,1040061,,,,,,,2023-05-15,1,,,,,モアクエスト,0
2229,8010401174252,新規,0,2023-05-15,2023-05-15,株式会社Ｌｕｌｌｙ,,株式会社,東京都,港区,海岸３丁目２番１５－１１０４号,,13,103,1080022,,,,,,,2023-05-15,1,,,,,ルーリィ,0
2230,8010401174269,新規,0,2023-05-15,2023-05-15,株式会社テラ不動産,,株式会社,東京都,港区,高輪４丁目５番１０号,,13,103,1080074,,,,,,,2023-05-15,1,,,,,テラフドウサン,0
2231,8010401174277,新規,0,2023-05-15,2023-05-15,株式会社凰,,株式会社,東京都,港区,西麻布２丁目２５－１４,,13,103,1060031,,,,,,,2023-05-15,1,,,,,オオトリ,0
2232,8010401174302,新規,0,2023-05-15,2023-05-15,株式会社Ｂプラン,,株式会社,東京都,港区,新橋２丁目８番１５号,,13,103,1050004,,,,,,,2023-05-15,1,,,,,ビープラン,0
2233,8010401174310,新規,0,2023-05-15,2023-05-15,株式会社いぶし銀,,株式会社,東京都,港区,赤坂５丁目１番４号,,13,103,1070052,,,,,,,2023-05-15,1,,,,,イブシギン,0
2234,8010401174327,新規,0,2023-05-15,2023-05-15,株式会社チャネルブリッジ,,株式会社,東京都,港区,赤坂８丁目４番１４号青山タワープレイス８階,,13,103,1070052,,,,,,,2023-05-15,1,,,,,チャネルブリッジ,0
2235,8010401174343,新規,0,2023-05-15,2023-05-15,株式会社ＴＲＩＡ,,株式会社,東京都,港区,浜松町２丁目２番１５号浜松町ダイヤビル２Ｆ,,13,103,1050013,,,,,,,2023-05-15,1,,,,,トライア,0
2236,8010401174351,新規,0,2023-05-15,2023-05-15,ミヤビマリーン株式会社,,株式会社,東京都,港区,新橋５丁目１２番１１号,,13,103,1050004,,,,,,,2023-05-15,1,,,,,ミヤビマリーン,0
2237,8010401174392,新規,0,2023-05-15,2023-05-15,Ｌｉｎｇｌｅｘ株式会社,,株式会社,東京都,港区,南青山３丁目１番３６号青山丸竹ビル６Ｆ,,13,103,1070062,,,,,,,2023-05-15,1,,,,,リングレックス,0
2239,8010403029776,新規,0,2023-05-15,2023-05-15,ＳＨＩＲＡＦＵ合同会社,,合同会社,東京都,港区,南青山２丁目２‐１５ＷｉｎＡｏｙａｍａビルＵＣＦ６Ｆ,,13,103,1070062,,,,,,,2023-05-15,1,,,,,シラフ,0
2240,8010403030081,新規,0,2023-05-15,2023-05-15,ＡＲＫＳ合同会社,,合同会社,東京都,港区,南麻布２丁目９‐６‐１０１,,13,103,1060047,,,,,,,2023-05-15,1,,,,,アークス,0
2243,8010405022077,新規,0,2023-05-15,2023-05-15,一般社団法人タイルカーペット防災備蓄協会,,その他の設立登記法人,東京都,港区,高輪２丁目１５番３４号,,13,103,1080074,,,,,,,2023-05-15,1,,,,,タイルカーペットボウサイビチクキョウカイ,0
2255,8010701044238,新規,0,2023-05-15,2023-05-15,株式会社東宏,,株式会社,東京都,品川区,西五反田１丁目２６番２号,,13,109,1410031,,,,,,,2023-05-15,1,,,,,トウコウ,0
2260,8010901053022,新規,0,2023-05-15,2023-05-15,株式会社ネスト,,株式会社,東京都,世田谷区,上馬３丁目１０番５号,,13,112,1540011,,,,,,,2023-05-15,1,,,,,ネスト,0
2272,8011001154330,新規,0,2023-05-15,2023-05-15,株式会社Ｖａｎｉｓｈ,,株式会社,東京都,渋谷区,猿楽町９番２号レ・ミストラル代官山３Ｆ,,13,113,1500033,,,,,,,2023-05-15,1,,,,,バニッシュ,0
2273,8011001154396,新規,0,2023-05-15,2023-05-15,株式会社ｋａｒｏｎ,,株式会社,東京都,渋谷区,恵比寿西１丁目１０番１４号Ｂａｒｂｉｚｏｎ８８・１階,,13,113,1500021,,,,,,,2023-05-15,1,,,,,カロン,0
2274,8011001154405,新規,0,2023-05-15,2023-05-15,株式会社リムリック,,株式会社,東京都,渋谷区,道玄坂１丁目１０番８号渋谷道玄坂東急ビル２Ｆ－Ｃ,,13,113,1500043,,,,,,,2023-05-15,1,,,,,リムリック,0
2275,8011001154413,新規,0,2023-05-15,2023-05-15,Ｔｈｅ　Ｂｒｅａｋｆａｓｔ　Ｃｌｕｂ株式会社,,株式会社,東京都,渋谷区,道玄坂１丁目１０番８号渋谷道玄坂東急ビル２Ｆ－Ｃ,,13,113,1500043,,,,,,,2023-05-15,1,,,,,ブレックファストクラブ,0
2283,8011101102783,新規,0,2023-05-15,2023-05-15,株式会社フライトゥゲザー,,株式会社,東京都,新宿区,高田馬場４丁目９－１１－４０５号室,,13,104,1690075,,,,,,,2023-05-15,1,,,,,フライトゥゲザー,0
2284,8011201024630,新規,0,2023-05-15,2023-05-15,エスティージー株式会社,,株式会社,東京都,中野区,中野４丁目１０－２,,13,114,1640001,,,,,,,2023-05-15,1,,,,,エスティージー,0
2291,8011503005601,新規,0,2023-05-15,2023-05-15,合同会社かめきち,,合同会社,東京都,荒川区,東尾久１丁目３０番１８号,,13,118,1160012,,,,,,,2023-05-15,1,,,,,カメキチ,0
2292,8011601026813,新規,0,2023-05-15,2023-05-15,株式会社ヒロガル,,株式会社,東京都,練馬区,中村２丁目１番９号ライオンズマンション中村橋第二２０５,,13,120,1760024,,,,,,,2023-05-15,1,,,,,ヒロガル,0
2298,8011701026226,新規,0,2023-05-15,2023-05-15,ＨＵＭＡＮ　Ｘ株式会社,,株式会社,東京都,江戸川区,東小松川２丁目３２番１１－５０３号,,13,123,1320033,,,,,,,2023-05-15,1,,,,,ヒューマンエックス,0
2301,8011801042387,新規,0,2023-05-15,2023-05-15,株式会社博三,,株式会社,東京都,足立区,保木間３丁目８番１１号,,13,121,1210064,,,,,,,2023-05-15,1,,,,,ハクサン,0
2302,8011801042395,新規,0,2023-05-15,2023-05-15,ランド・エス株式会社,,株式会社,東京都,足立区,綾瀬３丁目１５番１７－５０４号,,13,121,1200005,,,,,,,2023-05-15,1,,,,,ランドエス,0
2305,8012701017652,新規,0,2023-05-15,2023-05-15,株式会社Ｃａｉｓｓａ,,株式会社,東京都,東久留米市,南沢１丁目５番１１号,,13,222,2030023,,,,,,,2023-05-15,1,,,,,カイサ,0
2306,8012703002693,新規,0,2023-05-15,2023-05-15,合同会社黒猫,,合同会社,東京都,西東京市,富士町２丁目１番４号,,13,229,2020014,,,,,,,2023-05-15,1,,,,,クロネコ,0
2308,8013303006622,新規,0,2023-05-15,2023-05-15,稲田企画合同会社,,合同会社,東京都,豊島区,千早３丁目９番１４号,,13,116,1710044,,,,,,,2023-05-15,1,,,,,イナダキカク,0
2315,8020001151543,新規,0,2023-05-15,2023-05-15,株式会社グラース,,株式会社,神奈川県,横浜市青葉区,藤が丘２丁目３番地１桂ビル１０１,,14,117,2270043,,,,,,,2023-05-15,1,,,,,グラース,0
2316,8020001151551,新規,0,2023-05-15,2023-05-15,Ｉｎｔｅｒ‐Ｂｒａｉｎｓ　Ｅｎｇｌｉｓｈ株式会社,,株式会社,神奈川県,川崎市中原区,小杉町３丁目１５０１番地２プラウドタワー武蔵小杉２３１０,,14,133,2110063,,,,,,,2023-05-15,1,,,,,インターブレインズイングリッシュ,0
2317,8020001151576,新規,0,2023-05-15,2023-05-15,スリーピース株式会社,,株式会社,神奈川県,横浜市都筑区,牛久保西２丁目２３番１号,,14,118,2240015,,,,,,,2023-05-15,1,,,,,スリーピース,0
2318,8020001151592,新規,0,2023-05-15,2023-05-15,株式会社Ｍａｎｕｅｌ,,株式会社,神奈川県,横浜市戸塚区,上矢部町１４番地１モア・ステージ戸塚１２０号,,14,110,2450053,,,,,,,2023-05-15,1,,,,,マニュエル,0
2323,8020003023914,新規,0,2023-05-15,2023-05-15,合同会社山口建設,,合同会社,神奈川県,横浜市保土ケ谷区,和田２丁目２３－１０,,14,106,2400065,,,,,,,2023-05-15,1,,,,,,0
2327,8021001079023,新規,0,2023-05-15,2023-05-15,株式会社ダイフクプラス,,株式会社,神奈川県,相模原市中央区,東淵野辺３丁目７番１４－６０９号,,14,152,2520203,,,,,,,2023-05-15,1,,,,,ダイフクプラス,0
2328,8021001079056,新規,0,2023-05-15,2023-05-15,Ｊｏｙｉｆｙ株式会社,,株式会社,神奈川県,藤沢市,辻堂新町１丁目２番２３－４０６号,,14,205,2510042,,,,,,,2023-05-15,1,,,,,ジョイファイ,0
2338,8030001153646,新規,0,2023-05-15,2023-05-15,ＳＫコンサルティング株式会社,,株式会社,埼玉県,川口市,並木２丁目３番９号,,11,203,3320034,,,,,,,2023-05-15,1,,,,,エスケーコンサルティング,0
2339,8030001153803,新規,0,2023-05-15,2023-05-15,ＹＯＳＨＩ国際株式会社,,株式会社,埼玉県,三郷市,早稲田２丁目２６番地２３,,11,237,3410018,,,,,,,2023-05-15,1,,,,,ヨシコクサイ,0
2340,8030001153877,新規,0,2023-05-15,2023-05-15,株式会社いしわた,,株式会社,埼玉県,加須市,北下新井７１０番地４,,11,210,3491134,,,,,,,2023-05-15,1,,,,,イシワタ,0
2341,8030001153893,新規,0,2023-05-15,2023-05-15,株式会社美来,,株式会社,埼玉県,新座市,馬場１丁目１番４３号,,11,230,3520016,,,,,,,2023-05-15,1,,,,,ミライ,0
2342,8030001153927,新規,0,2023-05-15,2023-05-15,株式会社Ｔ‐ＡＣＥ,,株式会社,埼玉県,さいたま市大宮区,桜木町１丁目２６６番地３シンワＫＩビル２階,,11,103,3300854,,,,,,,2023-05-15,1,,,,,ティーエース,0
2344,8030003021685,新規,0,2023-05-15,2023-05-15,ＤＥＬＩＣＡＣＹ商事合同会社,,合同会社,埼玉県,蕨市,南町１丁目１９番２号－２０３号,,11,223,3350003,,,,,,,2023-05-15,1,,,,,デリカシーショウジ,0
2357,8040001128341,新規,0,2023-05-15,2023-05-15,株式会社Ｒ‐Ｅｄｇｅ,,株式会社,千葉県,千葉市稲毛区,黒砂２丁目１４番８号,,12,103,2630042,,,,,,,2023-05-15,1,,,,,アールエッジ,0
2358,8040001128374,新規,0,2023-05-15,2023-05-15,株式会社フラックス,,株式会社,千葉県,流山市,大字東深井７８番地の２,,12,220,2700101,,,,,,,2023-05-15,1,,,,,フラックス,0
2359,8040001128382,新規,0,2023-05-15,2023-05-15,株式会社ＬＥＢＥＮ,,株式会社,千葉県,千葉市美浜区,真砂２丁目１５番３号－４１０号室,,12,106,2610011,,,,,,,2023-05-15,1,,,,,レーベン,0
2360,8040001128408,新規,0,2023-05-15,2023-05-15,サンライズ興産株式会社,,株式会社,千葉県,千葉市稲毛区,作草部町５５９番地４ＰＯＰＴＯＷＮウィズ千葉公園３１３号,,12,103,2630014,,,,,,,2023-05-15,1,,,,,サンライズコウサン,0
2361,8040001128416,新規,0,2023-05-15,2023-05-15,株式会社Ｍｅａｎｔ,,株式会社,千葉県,浦安市,明海２丁目５番１－４２９号,,12,227,2790014,,,,,,,2023-05-15,1,,,,,メント,0
2362,8040003022583,新規,0,2023-05-15,2023-05-15,合同会社ひとはた,,合同会社,千葉県,千葉市稲毛区,園生町１２２番地２,,12,103,2630051,,,,,,,2023-05-15,1,,,,,ヒトハタ,0
2363,8040003022617,新規,0,2023-05-15,2023-05-15,合同会社北川左官,,合同会社,千葉県,松戸市,小金きよしケ丘４丁目８番地の３,,12,207,2700013,,,,,,,2023-05-15,1,,,,,キタガワサカン,0
2366,8050001052805,新規,0,2023-05-15,2023-05-15,株式会社山利,,株式会社,茨城県,神栖市,知手中央５丁目１０番５号,,08,232,3140112,,,,,,,2023-05-15,1,,,,,ヤマリ,0
2367,8050005013266,新規,0,2023-05-15,2023-05-15,一般社団法人関東ドローンＳ．Ａ．Ａ,,その他の設立登記法人,茨城県,古河市,谷貝６１６番地６,,08,204,3060113,,,,,,,2023-05-15,1,,,,,カントウドローンエスエーエー,0
2369,8060001035981,新規,0,2023-05-15,2023-05-15,株式会社Ｌｉｉｉｌｙ　Ａｓｉａ,,株式会社,栃木県,那須郡那須町,大字寺子丙１,,09,407,3293222,,,,,,,2023-05-15,1,,,,,リリーアジア,0
2373,8070001040444,新規,0,2023-05-15,2023-05-15,株式会社サクラス建築設計,,株式会社,群馬県,太田市,藪塚町１３６３番地３,,10,205,3792301,,,,,,,2023-05-15,1,,,,,サクラスケンチクセッケイ,0
2380,8090003002317,新規,0,2023-05-15,2023-05-15,合同会社やまなしエネルギー,,合同会社,山梨県,甲斐市,竜王新町１０４１番地８,,19,210,4000111,,,,,,,2023-05-15,1,,,,,ヤマナシエネルギー,0
2395,8120001254815,新規,0,2023-05-15,2023-05-15,株式会社ＤＡＳＨ,,株式会社,大阪府,大阪市東成区,神路２丁目３番８号,,27,115,5370003,,,,,,,2023-05-15,1,,,,,ダッシュ,0
2396,8120001254823,新規,0,2023-05-15,2023-05-15,株式会社茅乃弥,,株式会社,大阪府,大阪市中央区,内淡路町１丁目３番７号日宝内淡路ビル３０２,,27,128,5400038,,,,,,,2023-05-15,1,,,,,カヤノヤ,0
2397,8120001254831,新規,0,2023-05-15,2023-05-15,株式会社ｔｓｕ‐ｃｕ‐ｓｈｉ,,株式会社,大阪府,大阪市東淀川区,上新庄３丁目１９－５７キャニスコート上新庄４０７号室,,27,114,5330006,,,,,,,2023-05-15,1,,,,,ツクシ,0
2398,8120001254856,新規,0,2023-05-15,2023-05-15,株式会社マミゴールド,,株式会社,大阪府,大阪市中央区,西心斎橋１丁目１０番４号エースビル２階,,27,128,5420086,,,,,,,2023-05-15,1,,,,,マミゴールド,0
2399,8120001254864,新規,0,2023-05-15,2023-05-15,ＦＩＤＩＡ株式会社,,株式会社,大阪府,大阪市北区,大深町３番１号グランフロント大阪北館６階,,27,127,5300011,,,,,,,2023-05-15,1,,,,,フィディア,0
2400,8120001254872,新規,0,2023-05-15,2023-05-15,株式会社スマイルリング,,株式会社,大阪府,守口市,梅園町７－１３,,27,209,5700066,,,,,,,2023-05-15,1,,,,,スマイルリング,0
2402,8120003024010,新規,0,2023-05-15,2023-05-15,合同会社アミカル,,合同会社,大阪府,大阪市中央区,備後町３丁目１番２号－２ＦＧ,,27,128,5410051,,,,,,,2023-05-15,1,,,,,アミカル,0
2403,8120003024084,新規,0,2023-05-15,2023-05-15,合同会社ＢｍＣ,,合同会社,大阪府,大阪市都島区,高倉町３丁目２番２８号,,27,102,5340011,,,,,,,2023-05-15,1,,,,,ビーエムシー,0
2410,8120901047509,新規,0,2023-05-15,2023-05-15,株式会社テイクルーツ,,株式会社,大阪府,吹田市,山田東１丁目２３番１７号,,27,205,5650821,,,,,,,2023-05-15,1,,,,,テイクルーツ,0
2412,8120903004631,新規,0,2023-05-15,2023-05-15,ＭＤＭ管理合同会社,,合同会社,大阪府,茨木市,新堂３丁目１１番１８号,,27,211,5670835,,,,,,,2023-05-15,1,,,,,エムディーエムカンリ,0
2419,8130001074295,新規,0,2023-05-15,2023-05-15,クリエイト株式会社,,株式会社,京都府,京都市中京区,西ノ京星池町１１９番地,,26,104,6048416,,,,,,,2023-05-15,1,,,,,クリエイト,0
2420,8130001074304,新規,0,2023-05-15,2023-05-15,株式会社Ｅｎｕｎｃｉａ,,株式会社,京都府,京丹後市,大宮町奥大野５２１番地,,26,212,6292531,,,,,,,2023-05-15,1,,,,,エナンシア,0
2425,8140001130147,新規,0,2023-05-15,2023-05-15,株式会社Ｕｎｆａｋｅ　Ｄｅｓｉｇｎ,,株式会社,兵庫県,神戸市中央区,琴ノ緒町５丁目３番５－６０８号,,28,110,6510094,,,,,,,2023-05-15,1,,,,,アンフェイクデザイン,0
2426,8140001130163,新規,0,2023-05-15,2023-05-15,株式会社出雲バイオマス発電,,株式会社,兵庫県,姫路市,伊伝居６番地１,,28,201,6700871,,,,,,,2023-05-15,1,,,,,イズモバイオマスハツデン,0
2427,8140001130196,新規,0,2023-05-15,2023-05-15,株式会社ＥＣＬＡＴ,,株式会社,兵庫県,加古川市,野口町二屋３３６番地の１,,28,210,6750013,,,,,,,2023-05-15,1,,,,,エクラ,0
2428,8150001026402,新規,0,2023-05-15,2023-05-15,株式会社ＲＡＫＵＳＵＩ,,株式会社,奈良県,奈良市,奈良阪町２４２０,,29,201,6308104,,,,,,,2023-05-15,1,,,,,ラクスイ,0
2429,8160001025048,新規,0,2023-05-15,2023-05-15,株式会社ＰＨＭ,,株式会社,滋賀県,蒲生郡竜王町,大字山之上６６５番地１,,25,384,5202531,,,,,,,2023-05-15,1,,,,,ピーエイチエム,0
2430,8160003002879,新規,0,2023-05-15,2023-05-15,ブレスイン合同会社,,合同会社,滋賀県,大津市,本宮２丁目３－６－１０３,,25,201,5200804,,,,,,,2023-05-15,1,,,,,ブレスイン,0
2434,8180001033164,新規,0,2023-05-15,2023-05-15,株式会社守陽建設,,株式会社,愛知県,名古屋市中村区,名駅３丁目９番２０号,,23,105,4500002,,,,,,,2023-05-15,1,,,,,モリヨウケンセツ,0
2436,8180001156246,新規,0,2023-05-15,2023-05-15,株式会社ファースト,,株式会社,愛知県,稲沢市,山口宮前町７７番地,,23,220,4928345,,,,,,,2023-05-15,1,,,,,ファースト,0
2437,8180001156254,新規,0,2023-05-15,2023-05-15,株式会社ＲｅＧｏＬｉｔｈ,,株式会社,愛知県,名古屋市昭和区,広見町６丁目６７番地の３,,23,107,4660046,,,,,,,2023-05-15,1,,,,,レゴリス,0
2438,8180001156262,新規,0,2023-05-15,2023-05-15,株式会社ホアロハ,,株式会社,愛知県,名古屋市中区,上前津２丁目５番２５号２００３号室,,23,106,4600013,,,,,,,2023-05-15,1,,,,,ホアロハ,0
2439,8180001156270,新規,0,2023-05-15,2023-05-15,株式会社Ｌ．Ｔ．Ｄ,,株式会社,愛知県,一宮市,伝法寺１１丁目６番地４,,23,203,4910828,,,,,,,2023-05-15,1,,,,,エルティーディー,0
2440,8180001156279,新規,0,2023-05-15,2023-05-15,株式会社モリヨ,,株式会社,愛知県,清須市,西堀江７２１番地１ＲａｄＩＡｎｃｅ須ヶ口１０３,,23,233,4520917,,,,,,,2023-05-15,1,,,,,モリヨ,0
2441,8180001156287,新規,0,2023-05-15,2023-05-15,株式会社Ｂｒｏｗｎ　Ｈｏｌｄｉｎｇｓ,,株式会社,愛知県,名古屋市中村区,名駅４丁目２４番５号,,23,105,4500002,,,,,,,2023-05-15,1,,,,,ブラウンホールディングス,0
2442,8180001156295,新規,0,2023-05-15,2023-05-15,株式会社木立,,株式会社,愛知県,春日井市,白山町３丁目９番地２,,23,206,4870034,,,,,,,2023-05-15,1,,,,,コダチ,0
2443,8180001156304,新規,0,2023-05-15,2023-05-15,株式会社田中製作所,,株式会社,愛知県,名古屋市北区,山田北町１丁目６０番地,,23,103,4620811,,,,,,,2023-05-15,1,,,,,タナカセイサクショ,0
2444,8180001156337,新規,0,2023-05-15,2023-05-15,株式会社ＫＯＧＡＮＥ,,株式会社,愛知県,名古屋市中区,新栄町３丁目８番地今川ビル３Ｆ,,23,106,4600004,,,,,,,2023-05-15,1,,,,,コガネ,0
2446,8180003025110,新規,0,2023-05-15,2023-05-15,宮城サービス合同会社,,合同会社,愛知県,名古屋市名東区,梅森坂西２丁目８２３番地,,23,115,4650066,,,,,,,2023-05-15,1,,,,,ミヤシロサービス,0
2453,8190003004311,新規,0,2023-05-15,2023-05-15,合同会社ひだまりの森,,合同会社,三重県,伊勢市,辻久留２丁目２ー５２,,24,203,5160066,,,,,,,2023-05-15,1,,,,,ヒダマリノモリ,0
2455,8210001019317,新規,0,2023-05-15,2023-05-15,株式会社山口塗装店,,株式会社,福井県,福井市,高柳町第８号４番地３６,,18,201,9100803,,,,,,,2023-05-15,1,,,,,ヤマグチトソウテン,0
2460,8240001061497,新規,0,2023-05-15,2023-05-15,ポーター株式会社,,株式会社,広島県,広島市南区,堀越１丁目１１番１７号,,34,103,7340052,,,,,,,2023-05-15,1,,,,,ポーター,0
2461,8240001061522,新規,0,2023-05-15,2023-05-15,大光テック株式会社,,株式会社,広島県,福山市,幕山台８丁目１０番７号,,34,207,7210913,,,,,,,2023-05-15,1,,,,,ダイコウテック,0
2466,8260003004295,新規,0,2023-05-15,2023-05-15,合同会社ＴＫＲＩＳＥ,,合同会社,岡山県,倉敷市,浜町１丁目１１番４０号セレッソ浜町Ｂ,,33,202,7100062,,,,,,,2023-05-15,1,,,,,ティーケーライズ,0
2477,8290001101414,新規,0,2023-05-15,2023-05-15,株式会社トランドール,,株式会社,福岡県,福岡市東区,松島１丁目１４番３４号,,40,131,8120062,,,,,,,2023-05-15,1,,,,,トランドール,0
2478,8290001101521,新規,0,2023-05-15,2023-05-15,ＴＨＲＥＥ　Ｌ　ＵＮＩＯＮ株式会社,,株式会社,福岡県,福岡市東区,馬出６丁目１番２２－６０３号,,40,131,8120054,,,,,,,2023-05-15,1,,,,,スリーエルユニオン,0
2479,8290001101546,新規,0,2023-05-15,2023-05-15,株式会社優輝,,株式会社,福岡県,久留米市,山本町豊田２１９番地,,40,203,8390827,,,,,,,2023-05-15,1,,,,,ユウキ,0
2480,8290001101554,新規,0,2023-05-15,2023-05-15,株式会社Ｒｅｗａｒｄ,,株式会社,福岡県,古賀市,久保１２５１番地４９,,40,223,8113115,,,,,,,2023-05-15,1,,,,,,0
2481,8290003013830,新規,0,2023-05-15,2023-05-15,ＧＨカンパニー合同会社,,合同会社,福岡県,福岡市博多区,吉塚１丁目２２番３６号１パークサイドＹ１０１号室,,40,132,8120041,,,,,,,2023-05-15,1,,,,,ジーエイチカンパニー,0
2483,8290801029532,新規,0,2023-05-15,2023-05-15,株式会社遠藤工業,,株式会社,福岡県,北九州市小倉北区,熊谷５丁目１番４号,,40,106,8030864,,,,,,,2023-05-15,1,,,,,エンドウコウギョウ,0
2490,8330005010664,新規,0,2023-05-15,2023-05-15,龍眼山弘法寺,,その他の設立登記法人,熊本県,玉名市,岩崎３７５番地２１,,43,206,8650016,,,,,,,2023-05-15,1,,,,,リュウガンザンコウボウジ,0
2493,8350003004352,新規,0,2023-05-15,2023-05-15,合同会社リ・パーチェ,,合同会社,宮崎県,都城市,甲斐元町２８街区２８号,,45,202,8850074,,,,,,,2023-05-15,1,,,,,リパーチェ,0
2496,8360001032008,新規,0,2023-05-15,2023-05-15,株式会社ねこはな,,株式会社,沖縄県,豊見城市,宜保２丁目５－２－４０１,,47,212,9010244,,,,,,,2023-05-15,1,,,,,ネコハナ,0
2497,8360001032016,新規,0,2023-05-15,2023-05-15,株式会社堅城建設,,株式会社,沖縄県,島尻郡八重瀬町,字富盛６１６番地１,,47,362,9010402,,,,,,,2023-05-15,1,,,,,ケンジョウケンセツ,0
2498,8360003012957,新規,0,2023-05-15,2023-05-15,合同会社タフ理化学工業所,,合同会社,沖縄県,南城市,大里字古堅３９番地,,47,215,9011207,,,,,,,2023-05-15,1,,,,,タフリカガクコウギョウショ,0
2508,8420001018264,新規,0,2023-05-15,2023-05-15,株式会社Ｂ．ｐｌｕｓ,,株式会社,青森県,青森市,大字石江字岡部１２６番地９,,02,201,0380003,,,,,,,2023-05-15,1,,,,,ビプラス,0
2513,8430001089098,新規,0,2023-05-15,2023-05-15,株式会社ｃｒｅａｔｅ　Ｋ,,株式会社,北海道,苫小牧市,有珠の沢町２丁目８番５号,,01,213,0530842,,,,,,,2023-05-15,1,,,,,クリエイトケイ,0
2514,8430003015011,新規,0,2023-05-15,2023-05-15,ＤＩＶＩＮＥ　ＷＩＳＨ合同会社,,合同会社,北海道,苫小牧市,明野新町１丁目１８番１７号コーポアーバン２Ｆ－１号室,,01,213,0530054,,,,,,,2023-05-15,1,,,,,ディヴァインウィッシュ,0
2516,8430005014713,新規,0,2023-05-15,2023-05-15,一般社団法人苫小牧タウンマネジメント,,その他の設立登記法人,北海道,苫小牧市,汐見町１丁目１番１４号２階,,01,213,0530012,,,,,,,2023-05-15,1,,,,,トマコマイタウンマネジメント,0
2518,8460301005149,新規,0,2023-05-15,2023-05-15,株式会社千秀,,株式会社,北海道,北見市,とん田西町３０５番地１４,,01,208,0900834,,,,,,,2023-05-15,1,,,,,センシュウ,0
2521,8480005006961,新規,0,2023-05-15,2023-05-15,社会福祉法人コープ自然派ともに,,その他の設立登記法人,徳島県,板野郡板野町,川端字八反田１３番３,,36,404,7790102,,,,,,,2023-05-15,1,,,,,コープシゼンハトモニ,0
2522,8490003001773,新規,0,2023-05-15,2023-05-15,合同会社タビーコンセイエ,,合同会社,高知県,高知市,横浜７４０番地,,39,201,7810240,,,,,,,2023-05-15,1,,,,,タビーコンセイエ,0
2524,8500001024923,新規,0,2023-05-15,2023-05-15,Ｈｉｇｈ　Ｂｒｉｄｇｅ株式会社,,株式会社,愛媛県,西条市,古川甲２０２番地２,,38,206,7930044,,,,,,,2023-05-15,1,,,,,ハイブリッジ,0
2526,8700150116187,新規,0,2023-05-15,2023-05-15,Ｂｅｌｌ　Ｒａｎｃｈ　Ｌｉｍｉｔｅｄ,,外国会社等,,,,,,,,トルトーラロードタウン、英国領ヴァージン諸島,,,,,,2023-05-15,1,,,,,ベルランチリミテツド,0
2527,8700150116195,新規,0,2023-05-15,2023-05-15,ＣｈａｎｇＳｈａ　ＫａＸｉａＥｒＨｕａＺｈｕａｎｇＰｉｎＭａｏＹｉ　ＹｏｕＸｉａｎＺｅＲｅｎＧｏｎｇＳｉ,,外国会社等,,,,,,,,ＴｉａｎＸｉｎＱｕ　ＺｈｏｎｇＹｉＥｒＬｕ１６８Ｈａｏ　ＺｈｏｎｇＸｉｎＷｅｎＨｕａＧｕａｎｇＣｈａｎｇ１３Ｄｏｎｇ１１１９Ｆａｎｇ　ＣｈａｎｇＳｈａ　ＨｕＮａｎ,,,,,,2023-05-15,1,,,,,チャンシャカシャエホァズァンピンマオイユウゲンコウシ,0
2528,8700150116204,新規,0,2023-05-15,2023-05-15,Ｓｈｅｎｚｈｅｎ　Ｘｉｈａｉ　Ｉｎｔｅｒｎｅｔ　Ｃｏ．，Ｌｔｄ．,,外国会社等,,,,,,,,Ｐｉｎｇｈｕ　Ｓｔｒ．，Ｌｏｎｇｇａｎｇ　Ｄｉｓｔｒｉｃｔ　３Ｆｌｏｏｒ，Ｂ　Ｂｌｄ，Ｎｏ．３７，Ｔｏｎｇｆｕ　Ｒｄ，Ｈｅｈｕａ　Ｃｏｍｍｕｎｉｔｙ　Ｓｈｅｎｚｈｅｎ　Ｇｕａｎｇｄｏｎｇ　ＣＮ,,,,,,2023-05-15,1,,,,,シンセンシハイインターネットカンパニーリミテッド,0
2529,8700150116212,新規,0,2023-05-15,2023-05-15,Ｓｈｅｎｚｈｅｎｙｉｑｉａｎｍｉｋｅｊｉｙｏｕｘｉａｎｇｏｎｇｓｉ,,外国会社等,,,,,,,,Ｓｈａｎｇｆｅｎ　Ｃｏｍｍｕｎｉｔｙ，Ｍｉｎｚｈｉ　Ｓｔｒｅｅｔ，Ｌｏｎｇｈｕａ　Ｄｉｓｔｒｉｃｔ　２０５，Ｎｏ．１　Ｂａｉｌｉｙｕａｎ　Ｂｕｓｉｎｅｓｓ　Ｂｕｉｌｄｉｎｇ，Ｚｈｏｎｇｈｕａｎ　Ｒｏａｄ　Ｓｈｅｎｚｈｅｎ　Ｇｕａｎｇｄｏｎｇ　５１８０００　ＣＮ,,,,,,2023-05-15,1,,,,,シェンジェンイーチエンミーコージーヨウシエンゴンスー,0
2535,9010001235288,新規,0,2023-05-15,2023-05-15,株式会社クオリアテーラリング,,株式会社,東京都,中央区,銀座１丁目１２－４Ｎ＆ＥＢＬＤ．７階,,13,102,1040061,,,,,,,2023-05-15,1,,,,,クオリアテーラリング,0
2540,9010103002140,新規,0,2023-05-15,2023-05-15,合同会社さくらハウス,,合同会社,東京都,八王子市,小門町３番地１０,,13,201,1920054,,,,,,,2023-05-15,1,,,,,サクラハウス,0
2549,9010401174160,新規,0,2023-05-15,2023-05-15,ＰＯＷＡＦＲＥＥ株式会社,,株式会社,東京都,港区,南青山２丁目１２番１５号南青山２丁目ビル５階,,13,103,1070062,,,,,,,2023-05-15,1,,,,,パワフリー,0
2550,9010401174284,新規,0,2023-05-15,2023-05-15,株式会社ナツメスマート,,株式会社,東京都,港区,港南２丁目１５－１品川インターシティＡ棟２８階,,13,103,1080075,,,,,,,2023-05-15,1,,,,,ナツメスマート,0
2551,9010401174342,新規,0,2023-05-15,2023-05-15,ＥＮＧＷＥ　ＪＡＰＡＮ株式会社,,株式会社,東京都,港区,浜松町１丁目２７－１７三和ビル４階,,13,103,1050013,,,,,,,2023-05-15,1,,,,,エングウェイジャパン,0
2554,9010403029668,新規,0,2023-05-15,2023-05-15,合同会社ＯＭＷパートナーズ,,合同会社,東京都,港区,赤坂９丁目６番２８－１００２号麻布総合会計事務所内,,13,103,1070052,,,,,,,2023-05-15,1,,,,,,0
2555,9010403030097,新規,0,2023-05-15,2023-05-15,マムート・アドバイザーズ合同会社,,合同会社,東京都,港区,虎ノ門３丁目１４番１－２７０２号,,13,103,1050001,,,,,,,2023-05-15,1,,,,,マムートアドバイザーズ,0
2566,9010901053054,新規,0,2023-05-15,2023-05-15,株式会社Ｆｏｒｗａｒｄ　Ｅｄｇｅ,,株式会社,東京都,世田谷区,桜丘３丁目９番２３号,,13,112,1560054,,,,,,,2023-05-15,1,,,,,フォワードエッジ,0
2569,9011001154387,新規,0,2023-05-15,2023-05-15,株式会社ロカ,,株式会社,東京都,渋谷区,神宮前６丁目２３番４号桑野ビル２階,,13,113,1500001,,,,,,,2023-05-15,1,,,,,ロカ,0
2571,9011003016817,新規,0,2023-05-15,2023-05-15,ＶｅｙｏｎＤ　ＰｒｏＶｉｎｇ合同会社,,合同会社,東京都,渋谷区,道玄坂１丁目１０番８号渋谷道玄坂東急ビル２Ｆ－Ｃ,,13,113,1500043,,,,,,,2023-05-15,1,,,,,ヴィヨンドプルーヴィング,0
2572,9011005010066,新規,0,2023-05-15,2023-05-15,特定非営利活動法人ハミングバード,,その他の設立登記法人,東京都,渋谷区,千駄ヶ谷４丁目２０番１号神宮北参道プレックス７階,,13,113,1510051,,,,,,,2023-05-15,1,,,,,ハミングバード,0
2576,9011101102840,新規,0,2023-05-15,2023-05-15,株式会社ＶＲＳＴホールディングス,,株式会社,東京都,新宿区,箪笥町３４ＶＯＲＴ神楽坂Ｉ８Ｆ,00130482,13,104,1620833,,,,,,,2023-05-15,1,,,,,ブイアールエスティホールディングス,0
2577,9011101102865,新規,0,2023-05-15,2023-05-15,ＹＭＳＰ株式会社,,株式会社,東京都,新宿区,新宿４丁目１番１９号,,13,104,1600022,,,,,,,2023-05-15,1,,,,,ワイエムエスピー,0
2588,9011701026225,新規,0,2023-05-15,2023-05-15,株式会社中村電設,,株式会社,東京都,江戸川区,江戸川６丁目１０番地６９中里荘２０１,,13,123,1340013,,,,,,,2023-05-15,1,,,,,ナカムラデンセツ,0
2589,9011801042378,新規,0,2023-05-15,2023-05-15,株式会社Ｒｅｂｉｒｔｈ,,株式会社,東京都,葛飾区,金町３丁目１９番２号,,13,122,1250042,,,,,,,2023-05-15,1,,,,,リバース,0
2590,9011801042394,新規,0,2023-05-15,2023-05-15,株式会社やまでん,,株式会社,東京都,葛飾区,東堀切３丁目２１番３号,,13,122,1240004,,,,,,,2023-05-15,1,,,,,ヤマデン,0
2591,9011803005647,新規,0,2023-05-15,2023-05-15,合同会社ＰＲＯＴＥＣＴ，ＬＩＦＥ,,合同会社,東京都,葛飾区,東水元２丁目３４番５号,,13,122,1250033,,,,,,,2023-05-15,1,,,,,プロテクトライフ,0
2593,9012303001822,新規,0,2023-05-15,2023-05-15,合同会社ＴＡＰｎｉｎｅ,,合同会社,東京都,町田市,高ヶ坂３丁目３６番Ｂ２－２５号,,13,209,1940014,,,,,,,2023-05-15,1,,,,,タップナイン,0
2613,9020001151542,新規,0,2023-05-15,2023-05-15,株式会社ｐａｒｔｓＡ,,株式会社,神奈川県,川崎市川崎区,本町２丁目１２番地３,,14,131,2100001,,,,,,,2023-05-15,1,,,,,パースエイ,0
2614,9020001151550,新規,0,2023-05-15,2023-05-15,株式会社リラフォース,,株式会社,神奈川県,横浜市保土ケ谷区,保土ケ谷町１丁目６１番地レナジア横浜保土ヶ谷４０２号,,14,106,2400021,,,,,,,2023-05-15,1,,,,,リラフォース,0
2615,9020001151559,新規,0,2023-05-15,2023-05-15,株式会社ジェイティーネット,,株式会社,神奈川県,川崎市宮前区,鷺沼１丁目１２番地３－５０１,,14,136,2160004,,,,,,,2023-05-15,1,,,,,ジェイティーネット,0
2616,9020001151567,新規,0,2023-05-15,2023-05-15,株式会社ＷＥＥＫ,,株式会社,神奈川県,横浜市保土ケ谷区,天王町１丁目１番地１０第一アカネビル４Ｆ,,14,106,2400003,,,,,,,2023-05-15,1,,,,,ウィーク,0
2617,9020001151591,新規,0,2023-05-15,2023-05-15,株式会社神易館,,株式会社,神奈川県,川崎市中原区,中丸子１３番地１７ザ・コスギタワー１４０１,,14,133,2110012,,,,,,,2023-05-15,1,,,,,シンエキカン,0
2626,9021001079022,新規,0,2023-05-15,2023-05-15,株式会社杉野事務所,,株式会社,神奈川県,足柄上郡大井町,上大井３５１番地９,,14,362,2580016,,,,,,,2023-05-15,1,,,,,スギノジムショ,0
2627,9021001079030,新規,0,2023-05-15,2023-05-15,株式会社ＡＲＴＥＭＥＮＳＡ,,株式会社,神奈川県,平塚市,袖ケ浜６番１－２０５号,,14,203,2540813,,,,,,,2023-05-15,1,,,,,アルテメンサ,0
2628,9021001079039,新規,0,2023-05-15,2023-05-15,株式会社ＥＸ‐ＮＥＯ,,株式会社,神奈川県,相模原市南区,大野台５丁目１９番１０号,,14,153,2520331,,,,,,,2023-05-15,1,,,,,イーエックスネオ,0
2630,9021005012813,新規,0,2023-05-15,2023-05-15,一般社団法人藤沢起業家支援まちづくり協会,,その他の設立登記法人,神奈川県,藤沢市,南藤沢８番７号ビッグリバービル５Ｆ,,14,205,2510055,,,,,,,2023-05-15,1,,,,,フジサワキギョウカシエンマチヅクリキョウカイ,0
2643,9030001153513,新規,0,2023-05-15,2023-05-15,株式会社ＨＯＲＴＥＣＨ,,株式会社,埼玉県,さいたま市大宮区,宮町４丁目１１４番１号２０５号室,,11,103,3300802,,,,,,,2023-05-15,1,,,,,ホラテック,0
2644,9030001153802,新規,0,2023-05-15,2023-05-15,ＦＪＭ株式会社,,株式会社,埼玉県,越谷市,神明町２丁目１６１番地８,,11,222,3430805,,,,,,,2023-05-15,1,,,,,エフジェイエム,0
2645,9030001153827,新規,0,2023-05-15,2023-05-15,山本株式会社,,株式会社,埼玉県,川口市,西川口１丁目１６番１５－２０３号室,,11,203,3320021,,,,,,,2023-05-15,1,,,,,ヤマモト,0
2646,9030001153851,新規,0,2023-05-15,2023-05-15,株式会社ヴァンベール所沢,,株式会社,埼玉県,所沢市,大字北秋津６８９番地,,11,208,3590038,,,,,,,2023-05-15,1,,,,,ヴァンベールトコロザワ,0
2647,9030001153868,新規,0,2023-05-15,2023-05-15,株式会社グリーンファーム彩,,株式会社,埼玉県,上尾市,大字領家１３３７番地,,11,219,3620066,,,,,,,2023-05-15,1,,,,,グリーンファームアヤ,0
2648,9030001153926,新規,0,2023-05-15,2023-05-15,株式会社ベルツリー,,株式会社,埼玉県,越谷市,蒲生南町１８番５号,,11,222,3430833,,,,,,,2023-05-15,1,,,,,ベルツリー,0
2656,9030003021759,新規,0,2023-05-15,2023-05-15,Ｒｅｖｅｌｏｕｓ合同会社,,合同会社,埼玉県,熊谷市,筑波１丁目１３６番地エンドービル４０６,,11,202,3600037,,,,,,,2023-05-15,1,,,,,リベラス,0
2665,9040001128365,新規,0,2023-05-15,2023-05-15,中嶋伐採株式会社,,株式会社,千葉県,旭市,西足洗３２５１番地,,12,215,2892515,,,,,,,2023-05-15,1,,,,,ナカジマバッサイ,0
2666,9040001128373,新規,0,2023-05-15,2023-05-15,株式会社ティエラ,,株式会社,千葉県,佐倉市,大蛇町２２５番地１,,12,212,2850043,,,,,,,2023-05-15,1,,,,,ティエラ,0
2670,9040003022608,新規,0,2023-05-15,2023-05-15,合同会社シライ,,合同会社,千葉県,富里市,日吉台６丁目１７番地７,,12,233,2860201,,,,,,,2023-05-15,1,,,,,シライ,0
2671,9050003007509,新規,0,2023-05-15,2023-05-15,合同会社舞華,,合同会社,茨城県,那珂郡東海村,東海１丁目１６番２号ｇｕｐｌｕｓ１０１,,08,341,3191117,,,,,,,2023-05-15,1,,,,,,0
2673,9060001036005,新規,0,2023-05-15,2023-05-15,ファイナンシャルパートナーズ株式会社,,株式会社,栃木県,宇都宮市,豊郷台３丁目１９番地７,,09,201,3200003,,,,,,,2023-05-15,1,,,,,ファイナンシャルパートナーズ,0
2676,9070001040419,新規,0,2023-05-15,2023-05-15,株式会社ＢＥＮ,,株式会社,群馬県,太田市,東長岡町５１３番地２６ウイングＩＩ１０１号室,00130488,10,205,3730812,,,,,,,2023-05-15,1,,,,,ベン,0
2677,9070001040443,新規,0,2023-05-15,2023-05-15,株式会社ＮＡＧＵＭＯ,,株式会社,群馬県,太田市,新田大根町１０８４番地３,,10,205,3700347,,,,,,,2023-05-15,1,,,,,ナグモ,0
2678,9070001040451,新規,0,2023-05-15,2023-05-15,株式会社カンダテクノ,,株式会社,群馬県,館林市,足次町３３６番地の２,,10,207,3740073,,,,,,,2023-05-15,1,,,,,カンダテクノ,0
2680,9080003002977,新規,0,2023-05-15,2023-05-15,合同会社ワイルドストロベリー,,合同会社,静岡県,焼津市,相川１０６１番地１,,22,212,4210216,,,,,,,2023-05-15,1,,,,,ワイルドストロベリー,0
2688,9100001036405,新規,0,2023-05-15,2023-05-15,ＭＪサポート株式会社,,株式会社,長野県,松本市,大字島内３４８７番地８,,20,202,3900851,,,,,,,2023-05-15,1,,,,,エムジェーサポート,0
2689,9100001036413,新規,0,2023-05-15,2023-05-15,Ｌｉｔｔｌｅ　Ｐｏｗｅｒ株式会社,,株式会社,長野県,諏訪郡富士見町,落合１００１７番地２,,20,362,3990214,,,,,,,2023-05-15,1,,,,,リトルパワー,0
2707,9120001254599,新規,0,2023-05-15,2023-05-15,Ｋｎｉｇｈｔｓｂｒｉｄｇｅ株式会社,,株式会社,大阪府,大阪市中央区,東心斎橋１丁目３番５－３０７号,,27,128,5420083,,,,,,,2023-05-15,1,,,,,ナイツブリッジ,0
2708,9120001254814,新規,0,2023-05-15,2023-05-15,株式会社アクセス,,株式会社,大阪府,大阪市北区,与力町４－１,,27,127,5300036,,,,,,,2023-05-15,1,,,,,アクセス,0
2709,9120001254839,新規,0,2023-05-15,2023-05-15,株式会社フォートラスト,,株式会社,大阪府,大阪市浪速区,敷津東２丁目１番２４－１２０１号,,27,111,5560012,,,,,,,2023-05-15,1,,,,,フォートラスト,0
2710,9120001254855,新規,0,2023-05-15,2023-05-15,株式会社ライトバルブ,,株式会社,大阪府,大阪市阿倍野区,播磨町１丁目１６番２０号,,27,119,5450022,,,,,,,2023-05-15,1,,,,,ライトバルブ,0
2711,9120001254863,新規,0,2023-05-15,2023-05-15,株式会社東川産業,,株式会社,大阪府,大阪市大正区,南恩加島４丁目４番５３号,,27,108,5510021,,,,,,,2023-05-15,1,,,,,ヒガシカワサンギョウ,0
2714,9120003024050,新規,0,2023-05-15,2023-05-15,合同会社海叶,,合同会社,大阪府,門真市,新橋町７番５号,,27,223,5710048,,,,,,,2023-05-15,1,,,,,カイト,0
2715,9120003024083,新規,0,2023-05-15,2023-05-15,合同会社ＫＯＨＡＷＡＴＡ,,合同会社,大阪府,大阪市北区,梅田１丁目２番２号大阪駅前第２ビル１２－１２,,27,127,5300001,,,,,,,2023-05-15,1,,,,,コハワタ,0
2716,9120005023604,新規,0,2023-05-15,2023-05-15,一般社団法人日本新生児看護学会,,その他の設立登記法人,大阪府,大阪市中央区,南船場４丁目１０番５号南船場ＳＯＨＯビル７０２,,27,128,5420081,,,,,,,2023-05-15,1,,,,,ニホンシンセイジカンゴガッカイ,0
2726,9120901047490,新規,0,2023-05-15,2023-05-15,ＨＥＸＩＮ株式会社,,株式会社,大阪府,高槻市,郡家新町１番４３号１Ｂ室,,27,207,5691136,,,,,,,2023-05-15,1,,,,,ヘクシン,0
2727,9120903004630,新規,0,2023-05-15,2023-05-15,合同会社近江樹芸,,合同会社,大阪府,高槻市,西冠１丁目２５番１１号,,27,207,5690055,,,,,,,2023-05-15,1,,,,,オウミジュゲイ,0
2730,9122003002580,新規,0,2023-05-15,2023-05-15,三傑合同会社,,合同会社,大阪府,東大阪市,南四条町５番５号日乃出荘１階北３号室,,27,227,5798054,,,,,,,2023-05-15,1,,,,,サンケツ,0
2739,9140001130138,新規,0,2023-05-15,2023-05-15,播州メタル株式会社,,株式会社,兵庫県,加古郡稲美町,国岡５丁目５８番地の５,,28,381,6751115,,,,,,,2023-05-15,1,,,,,バンシュウメタル,0
2740,9140001130154,新規,0,2023-05-15,2023-05-15,株式会社ハスキーリノベーション,,株式会社,兵庫県,三田市,学園５丁目１４番地４,,28,219,6691337,,,,,,,2023-05-15,1,,,,,ハスキーリノベーション,0
2741,9140001130162,新規,0,2023-05-15,2023-05-15,株式会社ＴＩＥＲＲＡ,,株式会社,兵庫県,神戸市中央区,北長狭通３丁目１２番１６号ミワボシビル１Ｆ,,28,110,6500012,,,,,,,2023-05-15,1,,,,,ティエーラ,0
2742,9140001130170,新規,0,2023-05-15,2023-05-15,株式会社Ｌ’ＥＣＬＡＴ,,株式会社,兵庫県,神戸市中央区,加納町４丁目７番１１号パレド北野坂４０６号,,28,110,6500001,,,,,,,2023-05-15,1,,,,,レクラ,0
2745,9140003019081,新規,0,2023-05-15,2023-05-15,合同会社イーワンスクエア,,合同会社,兵庫県,高砂市,伊保崎２丁目６－２１,,28,216,6760076,,,,,,,2023-05-15,1,,,,,イーワンスクエア,0
2748,9160001025039,新規,0,2023-05-15,2023-05-15,株式会社一二三,,株式会社,滋賀県,犬上郡豊郷町,大字八町９７８番地,,25,441,5291162,,,,,,,2023-05-15,1,,,,,ヒフミ,0
2753,9180001156245,新規,0,2023-05-15,2023-05-15,株式会社Ｋ’ｓ　Ｉｎｎｏｖａｔｉｏｎ,,株式会社,愛知県,春日井市,東野町８丁目１２番地１２,,23,206,4860817,,,,,,,2023-05-15,1,,,,,ケーズイノベーション,0
2754,9180001156253,新規,0,2023-05-15,2023-05-15,株式会社ＳＧ２＆Ｙ,,株式会社,愛知県,名古屋市中村区,名駅３丁目２８番１２号,,23,105,4500002,,,,,,,2023-05-15,1,,,,,エスジーツーアンドワイ,0
2755,9180001156261,新規,0,2023-05-15,2023-05-15,ワン株式会社,,株式会社,愛知県,名古屋市中区,大須３丁目１２番２６号グランドメゾン大須ザ・タワー３０４号,,23,106,4600011,,,,,,,2023-05-15,1,,,,,ワン,0
2756,9180001156286,新規,0,2023-05-15,2023-05-15,株式会社ＫＯＨＴＲＵＳＴ,,株式会社,愛知県,名古屋市天白区,横町６０１番地,,23,116,4680054,,,,,,,2023-05-15,1,,,,,コートラスト,0
2757,9180001156294,新規,0,2023-05-15,2023-05-15,伊東設備株式会社,,株式会社,愛知県,日進市,梅森台１丁目１２１番地,,23,230,4700133,,,,,,,2023-05-15,1,,,,,イトウセツビ,0
2758,9180001156303,新規,0,2023-05-15,2023-05-15,株式会社Ｌｅｇａｃｉａ,,株式会社,愛知県,名古屋市中区,栄３丁目３５番３４号栄タワーヒルズ１５０２号,,23,106,4600008,,,,,,,2023-05-15,1,,,,,レガーチア,0
2759,9180003025225,新規,0,2023-05-15,2023-05-15,合同会社行燈,,合同会社,愛知県,一宮市,森本１丁目２－２１タウニー菱川,,23,203,4910831,,,,,,,2023-05-15,1,,,,,アンドン,0
2761,9180305009479,新規,0,2023-05-15,2023-05-15,社会保険労務士法人シモムラパートナーズ,,その他の設立登記法人,愛知県,安城市,神明町８番地１５,,23,212,4460000,,,,,,,2023-05-15,1,,,,,シモムラパートナーズ,0
2768,9210001019316,新規,0,2023-05-15,2023-05-15,株式会社Ｍ．Ｙ．,,株式会社,福井県,福井市,渕１丁目２２０８番地セレッソＢ１０３号室,,18,201,9188026,,,,,,,2023-05-15,1,,,,,エムワイ,0
2772,9240001061505,新規,0,2023-05-15,2023-05-15,水川商事株式会社,,株式会社,広島県,庄原市,高町２５５１番地１,,34,210,7295811,,,,,,,2023-05-15,1,,,,,ミズカワショウジ,0
2773,9240001061513,新規,0,2023-05-15,2023-05-15,株式会社垣秀,,株式会社,広島県,広島市安佐北区,可部東２丁目３４番２１号,,34,106,7310222,,,,,,,2023-05-15,1,,,,,カキヒデ,0
2776,9250001020096,新規,0,2023-05-15,2023-05-15,株式会社山崎水産,00130483,株式会社,山口県,長門市,油谷後畑３７１３番地２,,35,211,7594711,,,,,,,2023-05-15,1,,,,,ヤマザキスイサン,0
2777,9260001037940,新規,0,2023-05-15,2023-05-15,株式会社ギャラリーＢｏａ,,株式会社,岡山県,岡山市中区,高島新屋敷３６７番地６,,33,102,7038241,,,,,,,2023-05-15,1,,,,,ギャラリーボア,0
2778,9260001037949,新規,0,2023-05-15,2023-05-15,株式会社ひとつきファーム,,株式会社,岡山県,久米郡久米南町,南庄３６３８番地１,,33,663,7093604,,,,,,,2023-05-15,1,,,,,ヒトツキファーム,0
2780,9270001008775,新規,0,2023-05-15,2023-05-15,株式会社歩産業,,株式会社,鳥取県,東伯郡湯梨浜町,大字はわい温泉４２２番地１,,31,370,6820715,,,,,,,2023-05-15,1,,,,,アユミサンギョウ,0
2787,9290001101512,新規,0,2023-05-15,2023-05-15,プログホープ株式会社,,株式会社,福岡県,福岡市中央区,天神２丁目３番１０号,,40,133,8100001,,,,,,,2023-05-15,1,,,,,プログホープ,0
2788,9290001101545,新規,0,2023-05-15,2023-05-15,フタバリノベイト株式会社,,株式会社,福岡県,福岡市博多区,月隈２丁目５番３５－７号,,40,132,8120858,,,,,,,2023-05-15,1,,,,,フタバリノベイト,0
2792,9290003013862,新規,0,2023-05-15,2023-05-15,森林美化バイオマス合同会社,,合同会社,福岡県,福岡市早良区,百道浜２丁目４番２７号ＡＩビル６Ｆ,,40,137,8140001,,,,,,,2023-05-15,1,,,,,シンリンビカバイオマス,0
2793,9290003013912,新規,0,2023-05-15,2023-05-15,合同会社薬院浄水企画,,合同会社,福岡県,福岡市中央区,薬院４丁目５番３０－２０２号,,40,133,8100022,,,,,,,2023-05-15,1,,,,,ヤクインジョウスイキカク,0
2796,9310001018415,新規,0,2023-05-15,2023-05-15,株式会社長崎オールクリエイト,,株式会社,長崎県,長崎市,小浦町７１４番地２,,42,201,8500067,,,,,,,2023-05-15,1,,,,,ナガサキオールクリエイト,0
2800,9320003004081,新規,0,2023-05-15,2023-05-15,合同会社オフィス百,,合同会社,大分県,別府市,亀川四の湯町１８番３８号オレンジ２０２号,,44,202,8740025,,,,,,,2023-05-15,1,,,,,オフィスモモ,0
2807,9340001025581,新規,0,2023-05-15,2023-05-15,株式会社ＡＲＫ,,株式会社,鹿児島県,霧島市,隼人町姫城６２７番地３,,46,218,8995111,,,,,,,2023-05-15,1,,,,,アルク,0
2810,9350003004351,新規,0,2023-05-15,2023-05-15,合同会社Ｌｉｅｎ,,合同会社,宮崎県,都城市,郡元町２９５２番地８,,45,202,8850013,,,,,,,2023-05-15,1,,,,,リアン,0
2812,9360001032007,新規,0,2023-05-15,2023-05-15,株式会社美ら晴ホーム,,株式会社,沖縄県,石垣市,字真栄里３７５番地７,,47,207,9070002,,,,,,,2023-05-15,1,,,,,チュラハルホーム,0
2813,9360001032015,新規,0,2023-05-15,2023-05-15,株式会社わかまつ,,株式会社,沖縄県,那覇市,辻１丁目５番１５号,00130496,47,201,9000037,,,,,,,2023-05-15,1,,,,,ワカマツ,0
2814,9360001032023,新規,0,2023-05-15,2023-05-15,オーライ沖縄株式会社,,株式会社,沖縄県,豊見城市,字座安３３４番地,,47,212,9010221,,,,,,,2023-05-15,1,,,,,オーライオキナワ,0
2816,9360003012956,新規,0,2023-05-15,2023-05-15,合同会社ＣＡＳＥ　ｏｎｅ,,合同会社,沖縄県,浦添市,内間４丁目１８番８号下地アパート３０２号,,47,208,9012121,,,,,,,2023-05-15,1,,,,,ケースワン,0
2824,9390003002095,新規,0,2023-05-15,2023-05-15,合同会社宇野医学教育教材研究所,,合同会社,山形県,鶴岡市,桜新町９番４６号,,06,203,9970861,,,,,,,2023-05-15,1,,,,,ウノイガクキョウイクキョウザイケンキュウショ,0
2834,9420001018263,新規,0,2023-05-15,2023-05-15,峯榮興産株式会社,,株式会社,青森県,八戸市,大字田面木字外久保１０番地１４,,02,203,0391104,,,,,,,2023-05-15,1,,,,,ホウエイコウサン,0
2837,9430001089048,新規,0,2023-05-15,2023-05-15,株式会社Ｇｉｖｉｎａ,,株式会社,北海道,小樽市,花園３丁目２番９号３階,,01,203,0470024,,,,,,,2023-05-15,1,,,,,ギヴィーナ,0
2839,9450001013988,新規,0,2023-05-15,2023-05-15,株式会社ＯＺＡＷＡ,,株式会社,北海道,富良野市,字南布礼別１０６２番地１,,01,229,0760174,,,,,,,2023-05-15,1,,,,,オザワ,0
2840,9460101007385,新規,0,2023-05-15,2023-05-15,株式会社ＦＴバイオパワー,,株式会社,北海道,帯広市,清川町東２線８０番地１,,01,207,0802104,,,,,,,2023-05-15,1,,,,,エフティーバイオパワー,0
2841,9460301005148,新規,0,2023-05-15,2023-05-15,株式会社タシホーム,,株式会社,北海道,網走郡美幌町,字東町２丁目１１番地の１１,,01,543,0920011,,,,,,,2023-05-15,1,,,,,タシホーム,0
2844,9470001019612,新規,0,2023-05-15,2023-05-15,株式会社ＫＯＫＩ　ＢＲＥＷＩＮＧ　ＭＩＴＯＹＯ,,株式会社,香川県,三豊市,仁尾町仁尾丁１９８番地１,,37,208,7691407,,,,,,,2023-05-15,1,,,,,コーキブリューイングミトヨ,0
2847,9700150116194,新規,0,2023-05-15,2023-05-15,ｓｈｅｎｚｈｅｎｓｈｉ　ｌｉｄｏｎｇｃｈｅｎｄｉａｎｚｉｓｈａｎｇｗｕ　ｙｏｕｘｉａｎｇｏｎｇｓｉ,,外国会社等,,,,,,,,ｄａｌａｎｇｊｉｅｄａｏｇａｏｆｅｎｇｓｈｅｑｕｓａｎｈｅｌｕ　１ｈａｏ　ｚｈｉｈｕｉｙｕｎｇｕ　Ｃｄｏｎｇ　３１２　Ｓｈｅｎｚｈｅｎｓｈｉ　Ｇｕａｎｇｄｏｎｇｓｈｅｎｇ,,,,,,2023-05-15,1,,,,,シンセンシリドンチェンデンジシャンウユウゲンコウシ,0
2848,9700150116203,新規,0,2023-05-15,2023-05-15,Ｓｕｚｈｏｕ　Ｄｅｊｕｎ　Ｃｌｏｔｈｉｎｇ　ＬＴＤ,,外国会社等,,,,,,,,７－１，Ｘｉｎｓｈｉ　Ｒｏａｄ，Ｘｉｎｊｉａ　Ｉｎｄｕｓｔｒｉａｌ　Ｐａｒｋ　Ｓｕｚｈｏｕ　Ｊｉａｎｇｓｕ　ＣＮ,,,,,,2023-05-15,1,,,,,スーヂョウデジュンクロウジングリミテッド,0
2849,9700150116211,新規,0,2023-05-15,2023-05-15,ＹＩＣＨＡＮＧＳＨＩＲＯＮＧＲＵＮＹＵＥＦＥＩＭＡＯＹＩＹＯＵＸＩＡＮＧＯＮＧＳＩ,,外国会社等,,,,,,,,ＹＵＹＡＮＧＢＡＮＳＨＩＣＨＵＣＨＡＮＧＢＡＮＬＵ１２２ＨＡＯ　ＤＡＮＧＹＡＮＧＳＨＩ　ＨＵＢＥＩＳＨＥＮＧ　４４３０００　ＣＮ,,,,,,2023-05-15,1,,,,,イーチャンシーロンルンユエフェイマオイーヨウシエンゴンスー,0
