sequenceNumber,corporateNumber,process,correct,updateDate,changeDate,name,nameImageId,kind,prefectureName,cityName,streetNumber,addressImageId,prefectureCode,cityCode,postCode,addressOutside,addressOutsideImageId,closeDate,closeCause,successorCorporateNumber,changeCause,assignmentDate,latest,enName,enPrefectureName,enCityName,enAddressOutside,furigana,hihyoji
12,1010001228464,新規,0,2022-08-02,2022-08-02,ＴＲＤ５株式会社,,株式会社,東京都,千代田区,神田猿楽町２丁目５番８号,,13,101,1010064,,,,,,,2022-08-02,1,,,,,ティーアールディーファイブ,0
27,1010401168789,新規,0,2022-08-02,2022-08-02,株式会社ワンメディカ,,株式会社,東京都,港区,北青山２丁目９番５号,,13,103,1070061,,,,,,,2022-08-02,1,,,,,ワンメディカ,0
28,1010401168797,新規,0,2022-08-02,2022-08-02,Ｓｈｉｎｉｎｇ　Ｒｉｎｇ株式会社,,株式会社,東京都,港区,南青山５丁目１０－１二葉ビル５階,,13,103,1070062,,,,,,,2022-08-02,1,,,,,シャイニングリング,0
29,1010401168888,新規,0,2022-08-02,2022-08-02,株式会社ＺＩＳＥＤＡＩ,,株式会社,東京都,港区,北青山２丁目７番９号,,13,103,1070061,,,,,,,2022-08-02,1,,,,,ジセダイ,0
35,1010701043023,新規,0,2022-08-02,2022-08-02,株式会社Ｔプランニング,,株式会社,東京都,品川区,東五反田３丁目６番１７号,,13,109,1410022,,,,,,,2022-08-02,1,,,,,ティープランニング,0
36,1010701043031,新規,0,2022-08-02,2022-08-02,株式会社ロアキャピタル,,株式会社,東京都,品川区,東大井１丁目１１番２５号,,13,109,1400011,,,,,,,2022-08-02,1,,,,,ロアキャピタル,0
37,1010703006341,新規,0,2022-08-02,2022-08-02,合同会社ゼットン,,合同会社,東京都,品川区,東五反田３丁目１０－２０,,13,109,1410022,,,,,,,2022-08-02,1,,,,,ゼットン,0
40,1010705003394,新規,0,2022-08-02,2022-08-02,一般社団法人三栄,,その他の設立登記法人,東京都,品川区,戸越６丁目８番２０号,,13,109,1420041,,,,,,,2022-08-02,1,,,,,サンエイ,0
53,1011001148958,新規,0,2022-08-02,2022-08-02,株式会社ユニコーン,,株式会社,東京都,渋谷区,上原２丁目２８番８号４Ｂ,,13,113,1510064,,,,,,,2022-08-02,1,,,,,ユニコーン,0
54,1011001148974,新規,0,2022-08-02,2022-08-02,ＵＫＩＵＫＩ　ＰＲＯＪＥＣＴ株式会社,,株式会社,東京都,渋谷区,神宮前６丁目２３番４号,,13,113,1500001,,,,,,,2022-08-02,1,,,,,ウキウキプロジェクト,0
56,1011003015116,新規,0,2022-08-02,2022-08-02,合同会社ＦｉｎＳ,,合同会社,東京都,渋谷区,恵比寿１丁目２３番１５－２０４号,,13,113,1500013,,,,,,,2022-08-02,1,,,,,フィンス,0
57,1011005009669,新規,0,2022-08-02,2022-08-02,一般社団法人全国子ども支援協議会星のエール,,その他の設立登記法人,東京都,渋谷区,道玄坂２丁目１８番１１号サンモール道玄坂２２８号,,13,113,1500043,,,,,,,2022-08-02,1,,,,,ゼンコクコドモシエンキョウギカイホシノエール,0
60,1011201024001,新規,0,2022-08-02,2022-08-02,株式会社食彩ＢＡＳＥＬＡＢ,,株式会社,東京都,中野区,大和町３丁目３９番４号グローリオ高円寺３０５,,13,114,1650034,,,,,,,2022-08-02,1,,,,,ショクサイベースラボ,0
66,1011501028338,新規,0,2022-08-02,2022-08-02,愛慕医美＆Ａｍｕｎｉ　Ｂｅａｕｔｙ株式会社,,株式会社,東京都,荒川区,南千住３丁目２７－２浅草ビル５０８号室,,13,118,1160003,,,,,,,2022-08-02,1,,,,,アイボイビアンドアミュニビューティー,0
67,1011501028354,新規,0,2022-08-02,2022-08-02,東京龍銀株式会社,,株式会社,東京都,荒川区,東尾久５丁目１番１－１００３号,,13,118,1160012,,,,,,,2022-08-02,1,,,,,トウキョウリュウギン,0
75,1011801041081,新規,0,2022-08-02,2022-08-02,株式会社カズ・ワールド,,株式会社,東京都,足立区,保木間４丁目４０番１１号,,13,121,1210064,,,,,,,2022-08-02,1,,,,,カズワールド,0
77,1012303001706,新規,0,2022-08-02,2022-08-02,合同会社スマイルホーム,,合同会社,東京都,町田市,金井ヶ丘４丁目４０番７号,,13,209,1950076,,,,,,,2022-08-02,1,,,,,スマイルホーム,0
81,1012703002502,新規,0,2022-08-02,2022-08-02,家興合同会社,,合同会社,東京都,東久留米市,下里２丁目１３番５号,,13,222,2030043,,,,,,,2022-08-02,1,,,,,ヤオキ,0
94,1020001147531,新規,0,2022-08-02,2022-08-02,株式会社ソアスト,,株式会社,神奈川県,横浜市中区,花咲町１丁目４８番地３ロゼ桜木町内,,14,104,2310063,,,,,,,2022-08-02,1,,,,,ソアスト,0
95,1020001147572,新規,0,2022-08-02,2022-08-02,株式会社三友塗装,,株式会社,神奈川県,川崎市麻生区,片平２丁目６番８号１０６号室,,14,137,2150023,,,,,,,2022-08-02,1,,,,,サンユウトソウ,0
96,1020001147580,新規,0,2022-08-02,2022-08-02,株式会社ＫＴＫコーポレーション,,株式会社,神奈川県,横浜市青葉区,美しが丘１丁目１１番,,14,117,2250002,,,,,,,2022-08-02,1,,,,,ケーティーケーコーポレーション,0
97,1020001147597,新規,0,2022-08-02,2022-08-02,株式会社庵や,,株式会社,神奈川県,横浜市青葉区,大場町１７４番地２２１,,14,117,2250023,,,,,,,2022-08-02,1,,,,,イオリヤ,0
101,1020003022195,新規,0,2022-08-02,2022-08-02,信貴コンサルティング合同会社,,合同会社,神奈川県,横浜市青葉区,大場町３５９－１３,,14,117,2250023,,,,,,,2022-08-02,1,,,,,シンキコンサルティング,0
102,1020003022204,新規,0,2022-08-02,2022-08-02,合同会社マルス,,合同会社,神奈川県,横浜市青葉区,美しが丘４丁目２７－２０,,14,117,2250002,,,,,,,2022-08-02,1,,,,,マルス,0
103,1021001076613,新規,0,2022-08-02,2022-08-02,株式会社ｓｉｎｓａ,,株式会社,神奈川県,綾瀬市,上土棚中２丁目１４－９６－１０１,,14,218,2521113,,,,,,,2022-08-02,1,,,,,シンサ,0
104,1021001076638,新規,0,2022-08-02,2022-08-02,阪栄ホールディングス株式会社,,株式会社,神奈川県,綾瀬市,寺尾本町１丁目４番１５号,,14,218,2521133,,,,,,,2022-08-02,1,,,,,ハンエイホールディングス,0
118,1030001149469,新規,0,2022-08-02,2022-08-02,株式会社ステップワーク,,株式会社,埼玉県,所沢市,大字山口１６５番地の５オークヴィラ１号館２０１号,,11,208,3591145,,,,,,,2022-08-02,1,,,,,ステップワーク,0
122,1030003019892,新規,0,2022-08-02,2022-08-02,ミシット合同会社,,合同会社,埼玉県,深谷市,岡２６２４番地９号鎌田ビル２階,,11,218,3690201,,,,,,,2022-08-02,1,,,,,ミシット,0
137,1040001124487,新規,0,2022-08-02,2022-08-02,株式会社ＧＯ,,株式会社,千葉県,柏市,柏１丁目７番１号ライオンズタワー柏７０３号室,,12,217,2770005,,,,,,,2022-08-02,1,,,,,ゴー,0
138,1040001124495,新規,0,2022-08-02,2022-08-02,株式会社オフィスナナ,,株式会社,千葉県,千葉市中央区,祐光２丁目１１番１２号,,12,101,2600007,,,,,,,2022-08-02,1,,,,,オフィスナナ,0
146,1050003006732,新規,0,2022-08-02,2022-08-02,合同会社ファンラボ,,合同会社,茨城県,水戸市,宮町１丁目２－４ＭＹＭビル３Ｆ,,08,201,3100015,,,,,,,2022-08-02,1,,,,,ファンラボ,0
148,1060001035138,新規,0,2022-08-02,2022-08-02,株式会社古峰商事,,株式会社,栃木県,鹿沼市,草久３０２７番地,,09,205,3220101,,,,,,,2022-08-02,1,,,,,フルミネショウジ,0
154,1080001025104,新規,0,2022-08-02,2022-08-02,株式会社Ｓｕｎ　Ｊｏｚｅｎ,,株式会社,静岡県,焼津市,中新田２５１番地の３,,22,212,4250068,,,,,,,2022-08-02,1,,,,,サンジョーゼン,0
155,1080001025112,新規,0,2022-08-02,2022-08-02,株式会社岸端板金,,株式会社,静岡県,榛原郡吉田町,住吉５１８２番地の４,,22,424,4210301,,,,,,,2022-08-02,1,,,,,キシバタバンキン,0
156,1080003002844,新規,0,2022-08-02,2022-08-02,合同会社オプティマル,,合同会社,静岡県,静岡市駿河区,小鹿９７２番地６,,22,102,4228021,,,,,,,2022-08-02,1,,,,,オプティマル,0
166,1100003006644,新規,0,2022-08-02,2022-08-02,合同会社アイビー,,合同会社,長野県,上伊那郡箕輪町,大字中箕輪９５４０－１,,20,383,3994601,,,,,,,2022-08-02,1,,,,,アイビー,0
172,1120001247791,新規,0,2022-08-02,2022-08-02,株式会社ＨＳＥ　Ｇｌｏｂａｌ,,株式会社,大阪府,大阪市中央区,島之内２丁目１１番５－６０２号,,27,128,5420082,,,,,,,2022-08-02,1,,,,,エイチエスイーグローバル,0
173,1120001247800,新規,0,2022-08-02,2022-08-02,ヘルプキーマン株式会社,,株式会社,大阪府,寝屋川市,黒原旭町８番３号,,27,215,5720057,,,,,,,2022-08-02,1,,,,,ヘルプキーマン,0
174,1120001247890,新規,0,2022-08-02,2022-08-02,国土企画建設株式会社,,株式会社,大阪府,大阪市中央区,博労町４丁目４番１１号,,27,128,5410059,,,,,,,2022-08-02,1,,,,,コクドキカクケンセツ,0
179,1120005023108,新規,0,2022-08-02,2022-08-02,行政書士法人いろは,,その他の設立登記法人,大阪府,大阪市淀川区,西中島３丁目１８番９－７０５号,,27,123,5320011,,,,,,,2022-08-02,1,,,,,イロハ,0
180,1120005023124,新規,0,2022-08-02,2022-08-02,一般社団法人アートでピースｄｅえじゃないか事務局,,その他の設立登記法人,大阪府,大阪市天王寺区,味原町６番２５号,,27,109,5430023,,,,,,,2022-08-02,1,,,,,アートデピースデエジャナイカジムキョク,0
183,1120901046310,新規,0,2022-08-02,2022-08-02,株式会社ｓｎｏｗ　ｆｒｉｅｎｄ,,株式会社,大阪府,高槻市,真上町６丁目９番１号藤和コアティ高槻ハイタウンＢ棟３０５,,27,207,5691121,,,,,,,2022-08-02,1,,,,,スノーフレンド,0
184,1120901046319,新規,0,2022-08-02,2022-08-02,株式会社ＳＳＳサービス,,株式会社,大阪府,箕面市,小野原東４丁目１１番１３号,,27,220,5620031,,,,,,,2022-08-02,1,,,,,スリーエスサービス,0
185,1120901046327,新規,0,2022-08-02,2022-08-02,株式会社スモール,,株式会社,大阪府,高槻市,真上町４丁目４番４５号,,27,207,5691121,,,,,,,2022-08-02,1,,,,,スモール,0
187,1130001072330,新規,0,2022-08-02,2022-08-02,株式会社エイジェーホテルマネジメント,,株式会社,京都府,京都市下京区,烏丸通五条下る大坂町４００番地三善ビル７階,,26,106,6008177,,,,,,,2022-08-02,1,,,,,エイジェーホテルマネジメント,0
198,1140001126928,新規,0,2022-08-02,2022-08-02,株式会社ｓｌａｓｈ,,株式会社,兵庫県,神戸市中央区,海岸通６丁目１番１３－３５０３号,,28,110,6500024,,,,,,,2022-08-02,1,,,,,スラッシュ,0
199,1140001126936,新規,0,2022-08-02,2022-08-02,株式会社長野工業,,株式会社,兵庫県,明石市,二見町福里１５２番地の１０,,28,203,6740091,,,,,,,2022-08-02,1,,,,,ナガノコウギョウ,0
203,1140003017976,新規,0,2022-08-02,2022-08-02,合同会社ＡＫＡＮＥ,,合同会社,兵庫県,神戸市東灘区,田中町２丁目１５番１３－４０３号,,28,101,6580081,,,,,,,2022-08-02,1,,,,,アカネ,0
204,1140003017984,新規,0,2022-08-02,2022-08-02,合同会社シーフィールド,,合同会社,兵庫県,神戸市北区,谷上南町９番２２号,,28,109,6511244,,,,,,,2022-08-02,1,,,,,シーフィールド,0
208,1160001024411,新規,0,2022-08-02,2022-08-02,株式会社中江農産,,株式会社,滋賀県,近江八幡市,大中町５０番地,,25,204,5230802,,,,,,,2022-08-02,1,,,,,ナカエノウサン,0
217,1180001152400,新規,0,2022-08-02,2022-08-02,株式会社あいどころ,,株式会社,愛知県,名古屋市千種区,今池４丁目８番８号,,23,101,4640850,,,,,,,2022-08-02,1,,,,,アイドコロ,0
221,1180005019876,新規,0,2022-08-02,2022-08-02,一般社団法人クリーンライフ西日本協会,,その他の設立登記法人,愛知県,一宮市,八幡２丁目９番１０号,,23,203,4910903,,,,,,,2022-08-02,1,,,,,クリーンライフニシニホンキョウカイ,0
226,1190001029655,新規,0,2022-08-02,2022-08-02,株式会社さかいや,,株式会社,三重県,四日市市,桜町１３３番地２,,24,202,5121211,,,,,,,2022-08-02,1,,,,,サカイヤ,0
236,1220001024966,新規,0,2022-08-02,2022-08-02,株式会社ミライ・エステート,,株式会社,石川県,白山市,相木町７番地,,17,210,9240022,,,,,,,2022-08-02,1,,,,,ミライエステート,0
245,1240001060150,新規,0,2022-08-02,2022-08-02,Ｓ．Ｇ．Ｃｏｍｍｉｔｍｅｎｔ株式会社,,株式会社,広島県,広島市西区,商工センター１丁目６番４０号,,34,104,7330833,,,,,,,2022-08-02,1,,,,,エスジーコミットメント,0
246,1240001060159,新規,0,2022-08-02,2022-08-02,長谷川企画株式会社,,株式会社,広島県,廿日市市,宮内１２７１番地１,,34,213,7380034,,,,,,,2022-08-02,1,,,,,ハセガワキカク,0
258,1270001008601,新規,0,2022-08-02,2022-08-02,株式会社ＧＬＤ‐ＬＡＢ．,,株式会社,鳥取県,鳥取市,若葉台南１丁目５番５号,,31,201,6891112,,,,,,,2022-08-02,1,,,,,ジーエルディーラボ,0
269,1290001098095,新規,0,2022-08-02,2022-08-02,株式会社イート糸島,,株式会社,福岡県,糸島市,前原駅南２丁目９番２２－９０９号,,40,230,8191138,,,,,,,2022-08-02,1,,,,,イートイトシマ,0
270,1290001098418,新規,0,2022-08-02,2022-08-02,株式会社ＳＥＮＫＡＩフーズ,,株式会社,福岡県,福岡市博多区,博多駅前３丁目７番３５－６０７号博多ハイテックビル,,40,132,8120011,,,,,,,2022-08-02,1,,,,,センカイフーズ,0
273,1290801028788,新規,0,2022-08-02,2022-08-02,株式会社イレクション,,株式会社,福岡県,北九州市小倉北区,神岳２丁目７番２０－３号,,40,106,8020045,,,,,,,2022-08-02,1,,,,,イレクション,0
276,1310001017969,新規,0,2022-08-02,2022-08-02,肉のふじた株式会社,,株式会社,長崎県,大村市,協和町６８１番地４,,42,205,8560820,,,,,,,2022-08-02,1,,,,,ニクノフジタ,0
278,1310003004420,新規,0,2022-08-02,2022-08-02,合同会社海洋教育訓練所,,合同会社,長崎県,長崎市,上戸石町１５５４番地,,42,201,8510111,,,,,,,2022-08-02,1,,,,,カイヨウキョウイククンレンショ,0
280,1330001029995,新規,0,2022-08-02,2022-08-02,株式会社ＭＩＫ,,株式会社,熊本県,熊本市中央区,手取本町四丁目１５番みどりやトーキビル地下１階,,43,101,8600808,,,,,,,2022-08-02,1,,,,,エムアイケー,0
287,1360001030752,新規,0,2022-08-02,2022-08-02,株式会社ほっと食品,,株式会社,沖縄県,島尻郡与那原町,字与那原１０６２番地の１,,47,348,9011303,,,,,,,2022-08-02,1,,,,,ホットショクヒン,0
288,1360003012195,新規,0,2022-08-02,2022-08-02,合同会社赤嶺,,合同会社,沖縄県,那覇市,字小禄１６６２番地泉マンション３０１,,47,201,9010152,,,,,,,2022-08-02,1,,,,,アカミネ,0
296,1370003005792,新規,0,2022-08-02,2022-08-02,合同会社くじら,,合同会社,宮城県,仙台市青葉区,五橋１丁目４番３０号４Ａ,,04,101,9800022,,,,,,,2022-08-02,1,,,,,クジラ,0
302,1380001033019,新規,0,2022-08-02,2022-08-02,株式会社ラ・リノ,,株式会社,福島県,郡山市,富田町字池向７１番地１,,07,203,9638041,,,,,,,2022-08-02,1,,,,,ラリノ,0
314,1430001087199,新規,0,2022-08-02,2022-08-02,株式会社ＡＤＥＸ,,株式会社,北海道,登別市,登別温泉町１０９番地Ｂ１０２,,01,230,0590551,,,,,,,2022-08-02,1,,,,,アデックス,0
327,1500001024368,新規,0,2022-08-02,2022-08-02,株式会社光洋,,株式会社,愛媛県,南宇和郡愛南町,御荘菊川２３６５番地,,38,506,7984101,,,,,,,2022-08-02,1,,,,,コウヨウ,0
340,2010003038225,新規,0,2022-08-02,2022-08-02,ＧＦＧ合同会社,,合同会社,東京都,中央区,勝どき１丁目３番１－２１０４号,,13,102,1040054,,,,,,,2022-08-02,1,,,,,ジーエフジー,0
350,2010401168788,新規,0,2022-08-02,2022-08-02,株式会社Ｋ＆ＡＪ,,株式会社,東京都,港区,西新橋３丁目５番２号,,13,103,1050003,,,,,,,2022-08-02,1,,,,,ケーアンドエージェイ,0
351,2010401168854,新規,0,2022-08-02,2022-08-02,株式会社ＪＩＤＡＩ,,株式会社,東京都,港区,高輪３丁目１２番８号,,13,103,1080074,,,,,,,2022-08-02,1,,,,,ジダイ,0
352,2010401168862,新規,0,2022-08-02,2022-08-02,ディーズエナジーパートナー株式会社,,株式会社,東京都,港区,芝２丁目２９番１０号,,13,103,1050014,,,,,,,2022-08-02,1,,,,,ディーズエナジーパートナー,0
355,2010403028180,新規,0,2022-08-02,2022-08-02,ＬａｇｏＶｅｒｄｅ．ＲＥＳＩＤＥＮＣＥ．０３合同会社,,合同会社,東京都,港区,芝２丁目２７番８号ＶＯＲＴ芝公園７Ｆ,,13,103,1050014,,,,,,,2022-08-02,1,,,,,ラゴヴェルデレジデンスゼロスリー,0
356,2010405021191,新規,0,2022-08-02,2022-08-02,一般社団法人クオリティ・コントロール・アソシエイツ,,その他の設立登記法人,東京都,港区,台場１丁目３番４－３００９号,,13,103,1350091,,,,,,,2022-08-02,1,,,,,クオリティコントロールアソシエイツ,0
360,2010601061594,新規,0,2022-08-02,2022-08-02,株式会社ＬＩＢＥＲＡＴＥ,,株式会社,東京都,江東区,越中島３丁目６番３－９０５号,,13,108,1350044,,,,,,,2022-08-02,1,,,,,リベレイト,0
362,2010703006340,新規,0,2022-08-02,2022-08-02,合同会社イヅコ,,合同会社,東京都,品川区,小山４丁目４番２２号武蔵小山ビルｐｒｉｍｅＳ,,13,109,1420062,,,,,,,2022-08-02,1,,,,,イヅコ,0
367,2010801033162,新規,0,2022-08-02,2022-08-02,株式会社Ｙ．Ｇ．Ｓ,,株式会社,東京都,大田区,池上６丁目１番２１号ＣＳ池上ビル３Ｆ,,13,111,1460082,,,,,,,2022-08-02,1,,,,,ワイジーエス,0
368,2010801033170,新規,0,2022-08-02,2022-08-02,株式会社ＰＯＩ,,株式会社,東京都,大田区,大森北２丁目４－１４－１２０４,,13,111,1430016,,,,,,,2022-08-02,1,,,,,ポイ,0
371,2010905004349,新規,0,2022-08-02,2022-08-02,一般社団法人みらい価値創造支援協会,,その他の設立登記法人,東京都,世田谷区,池尻４丁目８番２５－５０８号,,13,112,1540001,,,,,,,2022-08-02,1,,,,,ミライカチソウゾウシエンキョウカイ,0
373,2011001148973,新規,0,2022-08-02,2022-08-02,株式会社Ｒｅｌｙ‐ｂｅａｕｔｅ,,株式会社,東京都,渋谷区,神宮前１丁目１番１－５０４号,,13,113,1500001,,,,,,,2022-08-02,1,,,,,レリーボーテ,0
376,2011003015131,新規,0,2022-08-02,2022-08-02,Ｓｎｏｗ３５合同会社,,合同会社,東京都,目黒区,碑文谷６丁目１番４号,,13,110,1520003,,,,,,,2022-08-02,1,,,,,スノースリーファイブ,0
380,2011101099712,新規,0,2022-08-02,2022-08-02,株式会社Ｃｒａｚｙ　Ｃｏｍｍｉｔ,,株式会社,東京都,新宿区,西新宿３丁目３番１３号西新宿水間ビル６Ｆ,,13,104,1600023,,,,,,,2022-08-02,1,,,,,クレイジーコミット,0
384,2011501028337,新規,0,2022-08-02,2022-08-02,トンダ株式会社,,株式会社,東京都,荒川区,南千住３丁目２７－２浅草ビルＨ号室,,13,118,1160003,,,,,,,2022-08-02,1,,,,,トンダ,0
389,2011603003667,新規,0,2022-08-02,2022-08-02,合同会社ポラリス,,合同会社,東京都,練馬区,錦１丁目２１番２１号,,13,120,1790082,,,,,,,2022-08-02,1,,,,,ポラリス,0
404,2013101008982,新規,0,2022-08-02,2022-08-02,ＲＥＡＬ　ＭＩＲＡＣＬＥ株式会社,,株式会社,東京都,青梅市,河辺町８丁目１８番地の１２ー２０２,,13,205,1980036,,,,,,,2022-08-02,1,,,,,リアルミラクル,0
420,2021001076620,新規,0,2022-08-02,2022-08-02,株式会社ＨａｌｅＡｎｅｌａ,,株式会社,神奈川県,藤沢市,弥勒寺３丁目１２番１６号～３号,,14,205,2510016,,,,,,,2022-08-02,1,,,,,ハレアネラ,0
421,2021001076629,新規,0,2022-08-02,2022-08-02,株式会社ピュア・サポート,,株式会社,神奈川県,相模原市中央区,千代田１丁目８番２２－１０１号,,14,152,2520237,,,,,,,2022-08-02,1,,,,,ピュアサポート,0
422,2021001076645,新規,0,2022-08-02,2022-08-02,ＥＮＮＥ株式会社,,株式会社,神奈川県,小田原市,栄町４丁目４番２９号,,14,206,2500011,,,,,,,2022-08-02,1,,,,,エンネ,0
423,2021001076653,新規,0,2022-08-02,2022-08-02,株式会社トータルサポート,,株式会社,神奈川県,大和市,福田５丁目２４番地９,,14,213,2420024,,,,,,,2022-08-02,1,,,,,トータルサポート,0
428,2030001149476,新規,0,2022-08-02,2022-08-02,株式会社ＳＬホールディングス,,株式会社,埼玉県,三郷市,栄３丁目６６番地７,,11,237,3410043,,,,,,,2022-08-02,1,,,,,エスエルホールディングス,0
429,2030001149492,新規,0,2022-08-02,2022-08-02,株式会社ＳＧＳ,,株式会社,埼玉県,川口市,大字榛松７６６番地の１,,11,203,3340062,,,,,,,2022-08-02,1,,,,,エスジーエス,0
436,2040001124511,新規,0,2022-08-02,2022-08-02,株式会社ボンティフル,,株式会社,千葉県,浦安市,海楽２丁目９番２６号,,12,227,2790003,,,,,,,2022-08-02,1,,,,,ボンティフル,0
437,2040003020535,新規,0,2022-08-02,2022-08-02,合同会社クランプル,,合同会社,千葉県,鎌ケ谷市,道野辺中央４丁目１６番１８号,,12,224,2730113,,,,,,,2022-08-02,1,,,,,クランプル,0
440,2040005021688,新規,0,2022-08-02,2022-08-02,一般社団法人リレーショナルヘルス・ネットワーク,,その他の設立登記法人,千葉県,松戸市,千駄堀１４８９番地,,12,207,2702252,,,,,,,2022-08-02,1,,,,,リレーショナルヘルスネットワーク,0
452,2080101023460,新規,0,2022-08-02,2022-08-02,株式会社ＭＥＬ,,株式会社,静岡県,駿東郡清水町,徳倉２７０６番地,,22,341,4110917,,,,,,,2022-08-02,1,,,,,エムイーエル,0
453,2080103002628,新規,0,2022-08-02,2022-08-02,合同会社よしまる,,合同会社,静岡県,伊豆市,八木沢１２９４番地の１,,22,222,4103303,,,,,,,2022-08-02,1,,,,,ヨシマル,0
464,2120001247857,新規,0,2022-08-02,2022-08-02,株式会社Ｐｉｅｃｅ　ｏｆ　ｃａｋｅ,,株式会社,大阪府,大阪市大正区,三軒家東１丁目２０番１１号４０３,,27,108,5510002,,,,,,,2022-08-02,1,,,,,ピースオブケイク,0
465,2120001247881,新規,0,2022-08-02,2022-08-02,株式会社ネクスト．Ｔ．フード,,株式会社,大阪府,大阪市都島区,都島本通４丁目５番８号,,27,102,5340021,,,,,,,2022-08-02,1,,,,,ネクストティーフード,0
468,2120101065985,新規,0,2022-08-02,2022-08-02,うめ産業株式会社,,株式会社,大阪府,松原市,小川５丁目２－２２,,27,217,5800002,,,,,,,2022-08-02,1,,,,,ウメサンギョウ,0
473,2122003002389,新規,0,2022-08-02,2022-08-02,合同会社スマイルドッグ,,合同会社,大阪府,東大阪市,若江西新町１丁目５番２６号,,27,227,5780944,,,,,,,2022-08-02,1,,,,,スマイルドッグ,0
477,2140001126919,新規,0,2022-08-02,2022-08-02,株式会社ひいらぎ,,株式会社,兵庫県,尼崎市,南武庫之荘３丁目８番１－３０３号,,28,202,6610033,,,,,,,2022-08-02,1,,,,,ヒイラギ,0
478,2140001126927,新規,0,2022-08-02,2022-08-02,ゼフ株式会社,,株式会社,兵庫県,尼崎市,東園田町３丁目１８番地の１ハイツアザレア１０３号,,28,202,6610953,,,,,,,2022-08-02,1,,,,,ゼフ,0
479,2140001126951,新規,0,2022-08-02,2022-08-02,株式会社かたづけ本舗こすも,,株式会社,兵庫県,神戸市兵庫区,下沢通８丁目４番３３－９０２号,,28,105,6520047,,,,,,,2022-08-02,1,,,,,カタヅケホンポコスモ,0
488,2140003017950,新規,0,2022-08-02,2022-08-02,Ｍａｉｓｏｎ　ｄｅ　Ｎｏａｈｒ合同会社,,合同会社,兵庫県,たつの市,誉田町内山４３番地３,,28,229,6794131,,,,,,,2022-08-02,1,,,,,メゾンドノアール,0
489,2140003017983,新規,0,2022-08-02,2022-08-02,合同会社前商,,合同会社,兵庫県,神戸市北区,若葉台３丁目７番１４号,,28,109,6511143,,,,,,,2022-08-02,1,,,,,マエショウ,0
495,2160001024410,新規,0,2022-08-02,2022-08-02,株式会社ＴＨＩＲＴＹ　ＳＩＸ,,株式会社,滋賀県,草津市,野路東１丁目１－１立命館大学ＢＫＣインキュベータ３０５号,,25,206,5250058,,,,,,,2022-08-02,1,,,,,サーティシックス,0
496,2160001024419,新規,0,2022-08-02,2022-08-02,株式会社一,,株式会社,滋賀県,野洲市,比江１０１８番地８,,25,210,5202434,,,,,,,2022-08-02,1,,,,,ヒト,0
506,2180001152382,新規,0,2022-08-02,2022-08-02,株式会社ＹＵＳＡ企画事務所,,株式会社,愛知県,名古屋市中村区,名駅２丁目４５番１４号東進名駅ビル４Ｆ,,23,105,4500002,,,,,,,2022-08-02,1,,,,,ユサキカクジムショ,0
507,2180001152408,新規,0,2022-08-02,2022-08-02,株式会社ウェルスプラス,,株式会社,愛知県,名古屋市港区,明正１丁目８２番地,,23,111,4550806,,,,,,,2022-08-02,1,,,,,ウェルスプラス,0
510,2180003024101,新規,0,2022-08-02,2022-08-02,合同会社ＷＯＲＴＨ　ＭＡＮＮＥＲＳ,,合同会社,愛知県,名古屋市港区,港栄４丁目８番２２号,,23,111,4550015,,,,,,,2022-08-02,1,,,,,ワースマナー,0
511,2180005019875,新規,0,2022-08-02,2022-08-02,一般社団法人松栄,,その他の設立登記法人,愛知県,名古屋市南区,要町３丁目１７番地,,23,112,4570802,,,,,,,2022-08-02,1,,,,,ショウエイ,0
515,2200005013371,新規,0,2022-08-02,2022-08-02,一般社団法人関ヶ原ＤＭＯ,,その他の設立登記法人,岐阜県,不破郡関ケ原町,大字関ケ原３４４１番地の１１１,,21,362,5031501,,,,,,,2022-08-02,1,,,,,セキガハラディーエムオー,0
517,2210003001542,新規,0,2022-08-02,2022-08-02,ＬＩＯＮ　Ｅｎｔｅｒｐｒｉｓｅ合同会社,,合同会社,福井県,福井市,問屋町１丁目１２４番地ラフォーレ北野２０１,,18,201,9188231,,,,,,,2022-08-02,1,,,,,ライオンエンタープライズ,0
519,2220001024965,新規,0,2022-08-02,2022-08-02,株式会社ティエヌエム,,株式会社,石川県,金沢市,もりの里１丁目１５４番地,,17,201,9201167,,,,,,,2022-08-02,1,,,,,ティエヌエム,0
522,2230001019469,新規,0,2022-08-02,2022-08-02,株式会社肉の立山,,株式会社,富山県,中新川郡立山町,米沢３６番地１,,16,323,9303265,,,,,,,2022-08-02,1,,,,,ニクノタテヤマ,0
529,2250003003122,新規,0,2022-08-02,2022-08-02,合同会社うべ電工,,合同会社,山口県,宇部市,大字西岐波１１３８－５,,35,202,7550151,,,,,,,2022-08-02,1,,,,,ウベデンコウ,0
534,2290001098383,新規,0,2022-08-02,2022-08-02,松方再生資源株式会社,,株式会社,福岡県,福岡市東区,箱崎ふ頭５丁目１番３３号,,40,131,8120051,,,,,,,2022-08-02,1,,,,,マツカタサイセイシゲン,0
535,2290001098425,新規,0,2022-08-02,2022-08-02,株式会社峯照,,株式会社,福岡県,糸島市,二丈上深江１０３５番地,,40,230,8191621,,,,,,,2022-08-02,1,,,,,ミネテラ,0
538,2290005018767,新規,0,2022-08-02,2022-08-02,一般社団法人心優会,,その他の設立登記法人,福岡県,飯塚市,平塚３９６番地－１,,40,205,8200702,,,,,,,2022-08-02,1,,,,,シンユウカイ,0
539,2290801028787,新規,0,2022-08-02,2022-08-02,株式会社ＮＡＯ,,株式会社,福岡県,北九州市八幡西区,岸の浦１丁目１３番３３号,,40,109,8060034,,,,,,,2022-08-02,1,,,,,ナオ,0
544,2330001029978,新規,0,2022-08-02,2022-08-02,ＩＫＥＤＡ株式会社,,株式会社,熊本県,上益城郡御船町,大字辺田見２０３番地５,,43,441,8613206,,,,,,,2022-08-02,1,,,,,イケダ,0
546,2340001024937,新規,0,2022-08-02,2022-08-02,宮薗防災株式会社,,株式会社,鹿児島県,鹿児島市,岡之原町１１３１番地２,,46,201,8911201,,,,,,,2022-08-02,1,,,,,ミヤゾノボウサイ,0
550,2350003004135,新規,0,2022-08-02,2022-08-02,合同会社友和,,合同会社,宮崎県,都城市,南横市町３９９３番地４４,,45,202,8850092,,,,,,,2022-08-02,1,,,,,ユウワ,0
551,2360003012194,新規,0,2022-08-02,2022-08-02,合同会社石垣プロジェクト１,,合同会社,沖縄県,石垣市,美崎町４番地１２トーヨーミサキビル３階,,47,207,9070012,,,,,,,2022-08-02,1,,,,,イシガキプロジェクトワン,0
552,2360003012203,新規,0,2022-08-02,2022-08-02,合同会社コンパス,,合同会社,沖縄県,島尻郡南風原町,字宮平４３２番地５,,47,350,9011104,,,,,,,2022-08-02,1,,,,,コンパス,0
569,2460101007227,新規,0,2022-08-02,2022-08-02,株式会社横山農園,,株式会社,北海道,中川郡幕別町,字新和１６２番地の９１４,,01,643,0890627,,,,,,,2022-08-02,1,,,,,ヨコヤマノウエン,0
574,2500001024367,新規,0,2022-08-02,2022-08-02,株式会社Ｈｇｒｏｕｐ,,株式会社,愛媛県,松山市,三町３丁目８番１７号,,38,201,7900914,,,,,,,2022-08-02,1,,,,,エイチグループ,0
607,3010401168597,新規,0,2022-08-02,2022-08-02,ＮＥＸＴＯＮ　ＧＬＯＢＡＬ株式会社,,株式会社,東京都,港区,三田１丁目３－４０－２０１号室,,13,103,1080073,,,,,,,2022-08-02,1,,,,,ネクストングローバル,0
608,3010401168770,新規,0,2022-08-02,2022-08-02,Ｂｌｕｅ　Ｃｒｅａ株式会社,,株式会社,東京都,港区,南青山２丁目２２番１４号フォンテ青山３０３,,13,103,1070062,,,,,,,2022-08-02,1,,,,,ブルークリア,0
609,3010401168829,新規,0,2022-08-02,2022-08-02,ＳｔａｒＤｉｒｅｃｔｏｒｙ株式会社,,株式会社,東京都,港区,六本木２丁目２番２号,,13,103,1060032,,,,,,,2022-08-02,1,,,,,スターディレクトリー,0
613,3010601061585,新規,0,2022-08-02,2022-08-02,株式会社吉祥,,株式会社,東京都,墨田区,向島４丁目２７番８－２０２号,,13,107,1310033,,,,,,,2022-08-02,1,,,,,キッショウ,0
614,3010601061593,新規,0,2022-08-02,2022-08-02,安善株式会社,,株式会社,東京都,江東区,東砂５丁目５番６号Ｋビル２０１号室,,13,108,1360074,,,,,,,2022-08-02,1,,,,,アンゼン,0
617,3010701043021,新規,0,2022-08-02,2022-08-02,株式会社上野技術研究所,,株式会社,東京都,品川区,平塚１丁目７番１８号メゾンド星山２０２,,13,109,1420051,,,,,,,2022-08-02,1,,,,,ウエノギジュツケンキュウショ,0
618,3010803004251,新規,0,2022-08-02,2022-08-02,Ｍａｔｓｕ合同会社,,合同会社,東京都,大田区,山王３丁目１３－１３,,13,111,1430023,,,,,,,2022-08-02,1,,,,,マツ,0
623,3010905004348,新規,0,2022-08-02,2022-08-02,税理士法人ＵＮＮＡＭＥＤＳＥＲＶＩＣＥ,,その他の設立登記法人,東京都,世田谷区,太子堂３丁目３０番４－２０４号,,13,112,1540004,,,,,,,2022-08-02,1,,,,,アンネームドサービス,0
630,3011003015080,新規,0,2022-08-02,2022-08-02,合同会社Ｆｒｅｅ　ｗａｙ,,合同会社,東京都,渋谷区,道玄坂１丁目１０番８号渋谷道玄坂東急ビル２Ｆ－Ｃ,,13,113,1500043,,,,,,,2022-08-02,1,,,,,フリーウェイ,0
631,3011003015130,新規,0,2022-08-02,2022-08-02,Ｍｉｄｏｒｉ　Ｖｅｎｔｕｒｅｓ合同会社,,合同会社,東京都,渋谷区,恵比寿１丁目１９番１５号ウノサワ東急ビル３階,,13,113,1500013,,,,,,,2022-08-02,1,,,,,ミドリベンチャーズ,0
632,3011003015139,新規,0,2022-08-02,2022-08-02,ＹＵＭＥＴＯＭＯ合同会社,,合同会社,東京都,渋谷区,神宮前６丁目２３番４号桑野ビル２階,,13,113,1500001,,,,,,,2022-08-02,1,,,,,ユメトモ,0
638,3011101099752,新規,0,2022-08-02,2022-08-02,株式会社ｚｚｚｇｏｏ,,株式会社,東京都,新宿区,西新宿３丁目３番１３号西新宿水間ビル６Ｆ,,13,104,1600023,,,,,,,2022-08-02,1,,,,,グーグー,0
639,3011301027991,新規,0,2022-08-02,2022-08-02,株式会社Ｔｒｉｋｏｎ　Ｇｒａｐｈｉｃｓ,,株式会社,東京都,杉並区,井草１丁目１６番３号,,13,115,1670021,,,,,,,2022-08-02,1,,,,,トリコングラフィックス,0
640,3011403003734,新規,0,2022-08-02,2022-08-02,龍誠商貿合同会社,,合同会社,東京都,板橋区,小茂根４丁目２２－１９グランシェル２０４,,13,119,1730037,,,,,,,2022-08-02,1,,,,,リュウセイショウボウ,0
647,3011601026149,新規,0,2022-08-02,2022-08-02,株式会社ｔｒｉｎｉｔｙ,,株式会社,東京都,練馬区,田柄４丁目３５－２０,,13,120,1790073,,,,,,,2022-08-02,1,,,,,トリニティ,0
649,3011603003666,新規,0,2022-08-02,2022-08-02,合同会社ＧＧＧ３,,合同会社,東京都,練馬区,練馬１丁目２０番８号日建練馬ビル２Ｆ,,13,120,1760001,,,,,,,2022-08-02,1,,,,,トリプルジー,0
650,3011703003211,新規,0,2022-08-02,2022-08-02,ＥＡＲＴＨ　ＣＯＲＰＯＲＡＴＩＯＮ合同会社,,合同会社,東京都,江戸川区,松江１丁目３番３号,,13,123,1320025,,,,,,,2022-08-02,1,,,,,アースコーポレーション,0
651,3012401039480,新規,0,2022-08-02,2022-08-02,株式会社トランセンド,,株式会社,東京都,武蔵野市,桜堤３丁目２３番３号グランパルク武蔵野１０３,,13,203,1800021,,,,,,,2022-08-02,1,,,,,トランセンド,0
654,3012801021757,新規,0,2022-08-02,2022-08-02,多摩中央テクノ株式会社,,株式会社,東京都,武蔵村山市,中央１丁目７番地の５,,13,223,2080003,,,,,,,2022-08-02,1,,,,,タマチュウオウテクノ,0
660,3013303006247,新規,0,2022-08-02,2022-08-02,合同会社Ｌｉｂｒａｆｔ,,合同会社,東京都,豊島区,南池袋３丁目２３番８号,,13,116,1710022,,,,,,,2022-08-02,1,,,,,リブラフト,0
663,3020001147579,新規,0,2022-08-02,2022-08-02,株式会社ＲＥＯ,,株式会社,神奈川県,横浜市港北区,新横浜１丁目１４番地２０光正第２ビル８０１号室,,14,109,2220033,,,,,,,2022-08-02,1,,,,,レオ,0
664,3020001147587,新規,0,2022-08-02,2022-08-02,調和電工株式会社,,株式会社,神奈川県,横浜市鶴見区,仲通３丁目８１番地１９メゾン・ド・ノン２０２号,,14,101,2300042,,,,,,,2022-08-02,1,,,,,チョウワデンコウ,0
668,3020003022193,新規,0,2022-08-02,2022-08-02,翔信電工合同会社,,合同会社,神奈川県,川崎市麻生区,下麻生２丁目３８番１１号,,14,137,2150022,,,,,,,2022-08-02,1,,,,,ショウシンデンコウ,0
669,3021001076636,新規,0,2022-08-02,2022-08-02,ＰＳＹＣＬＥ　ＤＩＳＴＲＩＢＵＴＩＮＧ株式会社,,株式会社,神奈川県,相模原市中央区,田名４９４４番地１,,14,152,2520244,,,,,,,2022-08-02,1,,,,,サイクルディストリビューティング,0
670,3021001076644,新規,0,2022-08-02,2022-08-02,株式会社ＫＩＭＩＥＩ,,株式会社,神奈川県,三浦市,城山町９番１８号,,14,210,2380235,,,,,,,2022-08-02,1,,,,,キミエイ,0
678,3030001149459,新規,0,2022-08-02,2022-08-02,株式会社未来へつなぐ,,株式会社,埼玉県,白岡市,千駄野１１０１番地２,,11,246,3490215,,,,,,,2022-08-02,1,,,,,ミライヘツナグ,0
679,3030001149483,新規,0,2022-08-02,2022-08-02,株式会社ひといき,,株式会社,埼玉県,蕨市,錦町１丁目９番１号プランドールＪＩＮ３０１号,,11,223,3350005,,,,,,,2022-08-02,1,,,,,ヒトイキ,0
689,3040001124485,新規,0,2022-08-02,2022-08-02,ＥＶネットワーク株式会社,,株式会社,千葉県,船橋市,南三咲２丁目２５番１５号,,12,204,2740813,,,,,,,2022-08-02,1,,,,,イーブイネットワーク,0
690,3040003020534,新規,0,2022-08-02,2022-08-02,合同会社ＡＬＢＡＬＩＺＥ,,合同会社,千葉県,千葉市中央区,新千葉１丁目７－２ペリエ＋ｐｌｕｓビル０５号室,,12,101,2600031,,,,,,,2022-08-02,1,,,,,アルバライズ,0
691,3050001051480,新規,0,2022-08-02,2022-08-02,株式会社筑波非連続情報技術研究所,,株式会社,茨城県,つくば市,みどりの南５４－１１,,08,220,3050884,,,,,,,2022-08-02,1,,,,,ツクバヒレンゾクジョウホウギジュツケンキュウジョ,0
695,3060001035136,新規,0,2022-08-02,2022-08-02,株式会社ＫＫＳ,,株式会社,栃木県,那須塩原市,接骨木４４３番地地方競馬教養センターＡ棟,,09,213,3292807,,,,,,,2022-08-02,1,,,,,ケイケイエス,0
704,3080001025110,新規,0,2022-08-02,2022-08-02,株式会社Ｙ．Ｔ．Ｓ,,株式会社,静岡県,焼津市,三右衛門新田６番地の１,,22,212,4250046,,,,,,,2022-08-02,1,,,,,ワイティーエス,0
711,3080401025981,新規,0,2022-08-02,2022-08-02,株式会社アネシスサカイ,,株式会社,静岡県,浜松市東区,上西町１３０９番地の２,,22,132,4350048,,,,,,,2022-08-02,1,,,,,アネシスサカイ,0
732,3120001247815,新規,0,2022-08-02,2022-08-02,株式会社サンテックホールディングス,,株式会社,大阪府,枚方市,南中振１丁目１番２８号,,27,210,5730094,,,,,,,2022-08-02,1,,,,,サンテックホールディングス,0
733,3120001247831,新規,0,2022-08-02,2022-08-02,株式会社わんぱく・エンタテイメント,,株式会社,大阪府,枚方市,伊加賀西町２番１－１５０５号リバティパーク枚方Ａ棟,,27,210,5730066,,,,,,,2022-08-02,1,,,,,ワンパクエンタテイメント,0
737,3120101065992,新規,0,2022-08-02,2022-08-02,株式会社Ｆｏｒｅｓｉｇｈｔ　Ｏｎｅ,,株式会社,大阪府,岸和田市,三田町２６３番地エスト・エトワールＢ棟１０１号,,27,202,5960808,,,,,,,2022-08-02,1,,,,,フォアサイトワン,0
738,3120101066000,新規,0,2022-08-02,2022-08-02,株式会社ＳＡＹ＆Ｃｏ,,株式会社,大阪府,岸和田市,吉井町３丁目１６番１６号,,27,202,5960002,,,,,,,2022-08-02,1,,,,,セイアンドコー,0
739,3120101066009,新規,0,2022-08-02,2022-08-02,株式会社はたまお,,株式会社,大阪府,堺市中区,深井畑山町２５００番地,,27,142,5998248,,,,,,,2022-08-02,1,,,,,ハタマオ,0
743,3120901046317,新規,0,2022-08-02,2022-08-02,株式会社ＳＮＳクリエイト,,株式会社,大阪府,茨木市,真砂２丁目１６番４３－２０１号,,27,211,5670851,,,,,,,2022-08-02,1,,,,,エスエヌエスクリエイト,0
749,3130001072270,新規,0,2022-08-02,2022-08-02,株式会社ＴＳＵＹＡＮＡ,,株式会社,京都府,京都市中京区,聚楽廻東町３２番地５イロハプラス二条２０１,,26,104,6048404,,,,,,,2022-08-02,1,,,,,ツヤナ,0
750,3130001072361,新規,0,2022-08-02,2022-08-02,秀林茶荘株式会社,,株式会社,京都府,京都市南区,西九条針小路町７７番地,,26,107,6018422,,,,,,,2022-08-02,1,,,,,シュウリンチャソウ,0
751,3130003008099,新規,0,2022-08-02,2022-08-02,マテリアル合同会社,,合同会社,京都府,宇治市,神明石塚３９番地の７４,,26,204,6110025,,,,,,,2022-08-02,1,,,,,マテリアル,0
754,3140001126918,新規,0,2022-08-02,2022-08-02,ＰＡＬ．レンタリース株式会社,,株式会社,兵庫県,川西市,清和台東２丁目４番地の２８,,28,217,6660142,,,,,,,2022-08-02,1,,,,,パルドットレンタリース,0
755,3140001126926,新規,0,2022-08-02,2022-08-02,株式会社コンドウ建設,,株式会社,兵庫県,丹波市,春日町国領１９０８番地,,28,223,6694273,,,,,,,2022-08-02,1,,,,,コンドウケンセツ,0
756,3140001126934,新規,0,2022-08-02,2022-08-02,株式会社戸越測量事務所,,株式会社,兵庫県,川西市,南花屋敷４丁目８番９号,,28,217,6660026,,,,,,,2022-08-02,1,,,,,トゴエソクリョウジムショ,0
757,3140001126950,新規,0,2022-08-02,2022-08-02,株式会社ＮＥＭＵＩ,,株式会社,兵庫県,神戸市長田区,久保町６丁目１番１号アスタくにづか４番館東棟２階２０２区画６号室,,28,106,6530041,,,,,,,2022-08-02,1,,,,,ネムイ,0
776,3180001152373,新規,0,2022-08-02,2022-08-02,株式会社ｗｉｌｌ’ｓ,,株式会社,愛知県,名古屋市中区,金山１丁目１１番１０号金山ハイホーム８１２号,,23,106,4600022,,,,,,,2022-08-02,1,,,,,ウィルズ,0
777,3180001152398,新規,0,2022-08-02,2022-08-02,株式会社フェイスリサーチ,,株式会社,愛知県,名古屋市中区,丸の内２丁目１５番１２号４階,,23,106,4600002,,,,,,,2022-08-02,1,,,,,フェイスリサーチ,0
778,3180001152407,新規,0,2022-08-02,2022-08-02,株式会社八咲不動産,,株式会社,愛知県,名古屋市緑区,浦里１丁目１６０番地,,23,114,4580847,,,,,,,2022-08-02,1,,,,,ヤサキフドウサン,0
791,3200001040328,新規,0,2022-08-02,2022-08-02,株式会社阪本ポンプ工営,,株式会社,岐阜県,岐阜市,蔵前５丁目３番地４,,21,201,5008233,,,,,,,2022-08-02,1,,,,,サカモトポンプコウエイ,0
792,3200001040336,新規,0,2022-08-02,2022-08-02,株式会社東友,,株式会社,岐阜県,揖斐郡揖斐川町,白樫古屋敷３１０番２８,,21,401,5010635,,,,,,,2022-08-02,1,,,,,トウユウ,0
807,3240001060140,新規,0,2022-08-02,2022-08-02,ＧＥＩＨＯＫＵ　ＥＳＴ株式会社,,株式会社,広島県,三次市,十日市南１丁目４番５号,,34,209,7280014,,,,,,,2022-08-02,1,,,,,ゲイホクエスト,0
808,3240001060165,新規,0,2022-08-02,2022-08-02,ビズクル株式会社,,株式会社,広島県,安芸郡熊野町,萩原７丁目９番３５号,,34,307,7314213,,,,,,,2022-08-02,1,,,,,ビズクル,0
809,3240001060173,新規,0,2022-08-02,2022-08-02,株式会社テクニクス,,株式会社,広島県,広島市南区,宇品海岸１丁目１０番２３号空久保ビル１０２号,,34,103,7340011,,,,,,,2022-08-02,1,,,,,テクニクス,0
817,3260001037095,新規,0,2022-08-02,2022-08-02,株式会社エステート・サカイ,,株式会社,岡山県,倉敷市,鶴形１丁目２番１５号,,33,202,7100056,,,,,,,2022-08-02,1,,,,,エステートサカイ,0
819,3260005011121,新規,0,2022-08-02,2022-08-02,医療法人社団蒼人会,,その他の設立登記法人,岡山県,倉敷市,水江１１８６番地３,,33,202,7100802,,,,,,,2022-08-02,1,,,,,シャダンソウジンカイ,0
823,3290001098432,新規,0,2022-08-02,2022-08-02,株式会社もんどりあん,,株式会社,福岡県,糟屋郡粕屋町,戸原西４丁目７番２３号,,40,349,8112319,,,,,,,2022-08-02,1,,,,,モンドリアン,0
824,3290001098449,新規,0,2022-08-02,2022-08-02,株式会社ＴＡＳ．ＭＡ,,株式会社,福岡県,福岡市早良区,百道浜１丁目５番１－５０１号シーサイドももちイーストステージ１号棟,,40,137,8140001,,,,,,,2022-08-02,1,,,,,タスエムエー,0
825,3290003012804,新規,0,2022-08-02,2022-08-02,プラスエックス合同会社,,合同会社,福岡県,福岡市南区,向野２丁目７番１４号２０２号,,40,134,8150035,,,,,,,2022-08-02,1,,,,,プラスエックス,0
830,3310001017967,新規,0,2022-08-02,2022-08-02,株式会社大島瓦店,,株式会社,長崎県,佐世保市,天神４丁目２３３５番地,,42,202,8571174,,,,,,,2022-08-02,1,,,,,オオシマカワラテン,0
832,3310003004419,新規,0,2022-08-02,2022-08-02,合同会社心来,,合同会社,長崎県,長崎市,若竹町３４－２２,,42,201,8528047,,,,,,,2022-08-02,1,,,,,ミライ,0
836,3340001024928,新規,0,2022-08-02,2022-08-02,株式会社灯晃社,,株式会社,鹿児島県,霧島市,国分下井６６６番地３１,,46,218,8994463,,,,,,,2022-08-02,1,,,,,トウコウシャ,0
837,3340001024936,新規,0,2022-08-02,2022-08-02,株式会社ＴＯＴＡＬクリーニングＤｒｅａｍ,,株式会社,鹿児島県,鹿児島市,紫原３丁目４３番１１－１０８号,,46,201,8900082,,,,,,,2022-08-02,1,,,,,トータルクリーニングドリーム,0
840,3350003004134,新規,0,2022-08-02,2022-08-02,合同会社もりなが,,合同会社,宮崎県,宮崎市,希望ケ丘４丁目１３番５０号,,45,201,8800923,,,,,,,2022-08-02,1,,,,,モリナガ,0
841,3350005006087,新規,0,2022-08-02,2022-08-02,一般社団法人日南新選組,,その他の設立登記法人,宮崎県,日南市,南郷町中村甲２６６１番地,,45,204,8893202,,,,,,,2022-08-02,1,,,,,ニチナンシンセングミ,0
842,3360001030759,新規,0,2022-08-02,2022-08-02,株式会社ヒネエル,,株式会社,沖縄県,沖縄市,中央１丁目１０番３号,,47,211,9040004,,,,,,,2022-08-02,1,,,,,ヒネエル,0
843,3360003012193,新規,0,2022-08-02,2022-08-02,合同会社ＰＯＳＴ,,合同会社,沖縄県,中頭郡北谷町,字北前４１６番地２Ｆ,,47,326,9040117,,,,,,,2022-08-02,1,,,,,ポスト,0
844,3360003012202,新規,0,2022-08-02,2022-08-02,合同会社ほのぼの,,合同会社,沖縄県,石垣市,字新川１４番地１,,47,207,9070024,,,,,,,2022-08-02,1,,,,,ホノボノ,0
863,3440003001477,新規,0,2022-08-02,2022-08-02,合同会社グローバルメンテナンス,,合同会社,北海道,北斗市,本町２丁目１番１１号,,01,236,0411201,,,,,,,2022-08-02,1,,,,,,0
864,3450001013762,新規,0,2022-08-02,2022-08-02,株式会社親康電設,,株式会社,北海道,旭川市,南二条通２３丁目１９７５番地４６６,,01,204,0788332,,,,,,,2022-08-02,1,,,,,シンコウデンセツ,0
866,3460301005087,新規,0,2022-08-02,2022-08-02,株式会社ＭＫ　ＮＥＸＴ,,株式会社,北海道,北見市,寿町２丁目１番２０号,,01,208,0900065,,,,,,,2022-08-02,1,,,,,エムケーネクスト,0
884,4010003038306,新規,0,2022-08-02,2022-08-02,合同会社ワンダフルビューティー,,合同会社,東京都,中央区,日本橋３丁目２番１４号新槇町ビル別館第一２階,,13,102,1030027,,,,,,,2022-08-02,1,,,,,ワンダフルビューティー,0
900,4010401168786,新規,0,2022-08-02,2022-08-02,株式会社ＤｅＦｉｍａｎｓ,,株式会社,東京都,港区,東麻布１丁目１４番５－５０３号,,13,103,1060044,,,,,,,2022-08-02,1,,,,,ディファイマンズ,0
906,4010601061592,新規,0,2022-08-02,2022-08-02,株式会社創木,,株式会社,東京都,江東区,東砂５丁目５番６号Ｋビル２０５号室,,13,108,1360074,,,,,,,2022-08-02,1,,,,,ハツキ,0
912,4010701043012,新規,0,2022-08-02,2022-08-02,株式会社シマダ建装,,株式会社,東京都,品川区,戸越５丁目１８番１１号宮前ビル３Ｆ,,13,109,1420041,,,,,,,2022-08-02,1,,,,,シマダケンソウ,0
913,4010801033169,新規,0,2022-08-02,2022-08-02,株式会社モノマネ,,株式会社,東京都,大田区,南六郷３丁目１０－１６六郷ＢＡＳＥ２２３号室,,13,111,1440045,,,,,,,2022-08-02,1,,,,,モノマネ,0
915,4010901051335,新規,0,2022-08-02,2022-08-02,株式会社ポストアナトミー,,株式会社,東京都,世田谷区,等々力２丁目３３番１３号２Ｆ,,13,112,1580082,,,,,,,2022-08-02,1,,,,,ポストアナトミー,0
916,4010903007558,新規,0,2022-08-02,2022-08-02,合同会社ＧＲＩ,,合同会社,東京都,世田谷区,玉川３丁目３９番３０－５０１号,,13,112,1580094,,,,,,,2022-08-02,1,,,,,ジーアールアイ,0
921,4011001148963,新規,0,2022-08-02,2022-08-02,タルヤ株式会社,,株式会社,東京都,渋谷区,道玄坂２丁目２０番６号,,13,113,1500043,,,,,,,2022-08-02,1,,,,,タルヤ,0
933,4011101099727,新規,0,2022-08-02,2022-08-02,日本情報技術産業株式会社,,株式会社,東京都,新宿区,西新宿３丁目３番１３号西新宿水間ビル２Ｆ,,13,104,1600023,,,,,,,2022-08-02,1,,,,,ニホンジョウホウギジュツサンギョウ,0
934,4011101099735,新規,0,2022-08-02,2022-08-02,ＢＩＺＡＲＱ　ＡＤＶＩＳＯＲＹ株式会社,,株式会社,東京都,新宿区,新宿５丁目１５番２号池与ビル５０３,,13,104,1600022,,,,,,,2022-08-02,1,,,,,ビズアークアドバイザリー,0
935,4011201023999,新規,0,2022-08-02,2022-08-02,株式会社スリーバー,,株式会社,東京都,中野区,上高田１丁目２番４３号,,13,114,1640002,,,,,,,2022-08-02,1,,,,,スリーバー,0
946,4011703003210,新規,0,2022-08-02,2022-08-02,合同会社インサイト,,合同会社,東京都,江戸川区,一之江３丁目１３番３号,,13,123,1320024,,,,,,,2022-08-02,1,,,,,インサイト,0
948,4012403005513,新規,0,2022-08-02,2022-08-02,合同会社六畳,,合同会社,東京都,武蔵野市,吉祥寺本町１丁目１３番２号,,13,203,1800004,,,,,,,2022-08-02,1,,,,,ロクジョウ,0
950,4012801021756,新規,0,2022-08-02,2022-08-02,株式会社積彩,,株式会社,東京都,国分寺市,並木町１丁目３番地６４,,13,214,1850005,,,,,,,2022-08-02,1,,,,,セキサイ,0
952,4013101008989,新規,0,2022-08-02,2022-08-02,株式会社ＧＩＮＺＡ,,株式会社,東京都,福生市,大字福生８８０番地３９ウィズビル１階,,13,218,1970011,,,,,,,2022-08-02,1,,,,,,0
961,4020001147520,新規,0,2022-08-02,2022-08-02,ＹＫ　ＧＲＯＵＰ株式会社,,株式会社,神奈川県,横浜市港北区,新横浜１丁目１４番６号,,14,109,2220033,,,,,,,2022-08-02,1,,,,,ワイケイグループ,0
962,4020001147561,新規,0,2022-08-02,2022-08-02,株式会社Ｒｅｇｏｌｉｔｈ　Ｃｌｏｖｅｒ,,株式会社,神奈川県,横浜市戸塚区,平戸３丁目１２番２号,,14,110,2440802,,,,,,,2022-08-02,1,,,,,リゴリスクローバー,0
970,4020003022151,新規,0,2022-08-02,2022-08-02,ＭｏｌｄＴｅｃｓ合同会社,,合同会社,神奈川県,横浜市港北区,新横浜２丁目１５番１０号ＹＳビルディング２階,,14,109,2220033,,,,,,,2022-08-02,1,,,,,モールドテクス,0
973,4021001076635,新規,0,2022-08-02,2022-08-02,株式会社緑晃,,株式会社,神奈川県,座間市,栗原１２０４番地,,14,216,2520013,,,,,,,2022-08-02,1,,,,,リョクコウ,0
974,4021001076651,新規,0,2022-08-02,2022-08-02,株式会社ＭＡＮＪＩ,,株式会社,神奈川県,三浦郡葉山町,下山口１９６５番地の７,,14,301,2400116,,,,,,,2022-08-02,1,,,,,マンジ,0
979,4021003011994,新規,0,2022-08-02,2022-08-02,合同会社Ｌｅ　Ｂｅａｕ　Ｃａｄｅａｕ　Ｗ,,合同会社,神奈川県,藤沢市,弥勒寺３丁目２５番３号,,14,205,2510016,,,,,,,2022-08-02,1,,,,,ルボーカドードゥブルヴェ,0
980,4021005012578,新規,0,2022-08-02,2022-08-02,一般社団法人大倉倶楽部・山月,,その他の設立登記法人,神奈川県,小田原市,板橋９１３番地,,14,206,2500034,,,,,,,2022-08-02,1,,,,,オオクラクラブサンゲツ,0
986,4030001149441,新規,0,2022-08-02,2022-08-02,泉和産業株式会社,,株式会社,埼玉県,川口市,川口５丁目１１番１５号クレアホームズ川口パークブライト２０３号室,,11,203,3320015,,,,,,,2022-08-02,1,,,,,センワサンギョウ,0
1003,4040003020533,新規,0,2022-08-02,2022-08-02,デンタルワークマン合同会社,,合同会社,千葉県,市川市,中国分３丁目１９番３０号,,12,203,2720835,,,,,,,2022-08-02,1,,,,,デンタルワークマン,0
1009,4060005010002,新規,0,2022-08-02,2022-08-02,一般社団法人日本隕石協会,,その他の設立登記法人,栃木県,足利市,葉鹿町１丁目２８番地３ＭＳＵビル２階,,09,202,3260143,,,,,,,2022-08-02,1,,,,,ニホンインセキキョウカイ,0
1022,4080401025980,新規,0,2022-08-02,2022-08-02,株式会社ＲＩＴＺ,,株式会社,静岡県,浜松市北区,引佐町伊平６５１番地の１,,22,135,4312205,,,,,,,2022-08-02,1,,,,,リッツ,0
1028,4100003006633,新規,0,2022-08-02,2022-08-02,信州発芽工房合同会社,,合同会社,長野県,小県郡長和町,古町３７－３,,20,350,3860603,,,,,,,2022-08-02,1,,,,,シンシュウハツガコウボウ,0
1040,4120001247599,新規,0,2022-08-02,2022-08-02,株式会社エム．アイネット,,株式会社,大阪府,寝屋川市,清水町４６番１号,,27,215,5720044,,,,,,,2022-08-02,1,,,,,エムアイネット,0
1041,4120001247698,新規,0,2022-08-02,2022-08-02,ＪＰＣＡＭ株式会社,,株式会社,大阪府,大阪市港区,八幡屋４丁目１－３ベイサイドハイツＩＩ４０１号室,00127393,27,107,5520014,,,,,,,2022-08-02,1,,,,,ジェイピーシーエム,0
1042,4120001247839,新規,0,2022-08-02,2022-08-02,Ｍサポート株式会社,,株式会社,大阪府,大阪市大正区,南恩加島６丁目１２－９,,27,108,5510021,,,,,,,2022-08-02,1,,,,,エムサポート,0
1045,4120003022174,新規,0,2022-08-02,2022-08-02,合同会社エンメタータ,,合同会社,大阪府,大阪市西区,新町１丁目３１番６号,,27,106,5500013,,,,,,,2022-08-02,1,,,,,エンメタータ,0
1050,4120101065991,新規,0,2022-08-02,2022-08-02,藤原介護ステーション株式会社,00127389,株式会社,大阪府,岸和田市,上松町３０６１番地,,27,202,5960827,,,,,,,2022-08-02,1,,,,,フジハラカイゴステーション,0
1052,4120901046316,新規,0,2022-08-02,2022-08-02,大阪大学フォーサイト株式会社,,株式会社,大阪府,吹田市,山田丘２番８号,,27,205,5650871,,,,,,,2022-08-02,1,,,,,オオサカダイガクフォーサイト,0
1054,4122001036115,新規,0,2022-08-02,2022-08-02,株式会社ティースリィラボ,,株式会社,大阪府,東大阪市,楠根２丁目１０番２１号,,27,227,5770006,,,,,,,2022-08-02,1,,,,,ティースリィラボ,0
1068,4140001126909,新規,0,2022-08-02,2022-08-02,大植株式会社,,株式会社,兵庫県,明石市,本町１丁目２番３３号興生ビル４Ｆ,,28,203,6730892,,,,,,,2022-08-02,1,,,,,オオウエ,0
1069,4140001126933,新規,0,2022-08-02,2022-08-02,株式会社ライオンズゲート,,株式会社,兵庫県,尼崎市,西昆陽１丁目２１番１１号,,28,202,6610047,,,,,,,2022-08-02,1,,,,,ライオンズゲート,0
1070,4140001126941,新規,0,2022-08-02,2022-08-02,株式会社夢あそび,,株式会社,兵庫県,神戸市中央区,野崎通４丁目４番１２号,,28,110,6510054,,,,,,,2022-08-02,1,,,,,ユメアソビ,0
1072,4140003017981,新規,0,2022-08-02,2022-08-02,合同会社ＢＩＯｔｒｉｌｏｇｙ,,合同会社,兵庫県,神戸市中央区,東川崎町１丁目５番９－３００７号,,28,110,6500044,,,,,,,2022-08-02,1,,,,,バイオトリロジー,0
1075,4160001024409,新規,0,2022-08-02,2022-08-02,株式会社ライフクリエイト,,株式会社,滋賀県,栗東市,高野３２０番地２,,25,208,5203045,,,,,,,2022-08-02,1,,,,,ライフクリエイト,0
1091,4180003024099,新規,0,2022-08-02,2022-08-02,合同会社ケームサービス,,合同会社,愛知県,春日井市,桃山町２丁目３９７番地１,,23,206,4860802,,,,,,,2022-08-02,1,,,,,ケームサービス,0
1104,4200003005633,新規,0,2022-08-02,2022-08-02,合同会社ＦＰ　ＯＮＥ,,合同会社,岐阜県,可児市,皐ケ丘５丁目４０番地,,21,214,5090236,,,,,,,2022-08-02,1,,,,,エフピーワン,0
1111,4230001019467,新規,0,2022-08-02,2022-08-02,富山新薬株式会社,,株式会社,富山県,富山市,中島２丁目７番２７号,,16,201,9300801,,,,,,,2022-08-02,1,,,,,トヤマシンヤク,0
1116,4240003005737,新規,0,2022-08-02,2022-08-02,合同会社ＹＫ,,合同会社,広島県,福山市,城興ケ丘２５番２１号,,34,207,7210929,,,,,,,2022-08-02,1,,,,,ワイケー,0
1119,4250001019696,新規,0,2022-08-02,2022-08-02,株式会社エクラ,,株式会社,山口県,下関市,山の田中央町２番１号,,35,201,7510837,,,,,,,2022-08-02,1,,,,,エクラ,0
1121,4260001037094,新規,0,2022-08-02,2022-08-02,株式会社ＢＯＫＵ,,株式会社,岡山県,倉敷市,茶屋町１７０６番地,,33,202,7101101,,,,,,,2022-08-02,1,,,,,ボク,0
1130,4290003012786,新規,0,2022-08-02,2022-08-02,合同会社３９,,合同会社,福岡県,福岡市西区,太郎丸２丁目５－１１,,40,135,8190384,,,,,,,2022-08-02,1,,,,,サンキュー,0
1131,4290003012794,新規,0,2022-08-02,2022-08-02,Ａｌｏｈａ　Ａｉｎａ合同会社,,合同会社,福岡県,福岡市西区,豊浜２丁目１８番５号,,40,135,8190014,,,,,,,2022-08-02,1,,,,,アロハアーイナ,0
1134,4320001019251,新規,0,2022-08-02,2022-08-02,株式会社相棒舎,,株式会社,大分県,由布市,湯布院町川上１１８８番地２５,,44,213,8795102,,,,,,,2022-08-02,1,,,,,アイボウシャ,0
1137,4330001029984,新規,0,2022-08-02,2022-08-02,株式会社ＬＯＬ　ＣＲＥＡＴＩＯＮ,,株式会社,熊本県,熊本市中央区,水前寺公園２８番４５プラッツＳ１０３号,,43,101,8620956,,,,,,,2022-08-02,1,,,,,エルオーエルクリエーション,0
1138,4330003009472,新規,0,2022-08-02,2022-08-02,合同会社丸山ハイランド,,合同会社,熊本県,上益城郡山都町,下名連石新２９番地６６,,43,447,8613503,,,,,,,2022-08-02,1,,,,,マルヤマハイランド,0
1141,4340001024935,新規,0,2022-08-02,2022-08-02,株式会社吉野早崎屋,00127386,株式会社,鹿児島県,鹿児島市,吉野町３０４２番地１０,,46,201,8920871,,,,,,,2022-08-02,1,,,,,ヨシノハヤサキヤ,0
1146,4350003004133,新規,0,2022-08-02,2022-08-02,ココファニチャー合同会社,,合同会社,宮崎県,日向市,本町８０３６番地,,45,206,8830045,,,,,,,2022-08-02,1,,,,,ココファニチャー,0
1149,4360001030758,新規,0,2022-08-02,2022-08-02,株式会社ラビタル,,株式会社,沖縄県,中頭郡西原町,字内間８５番地の５,,47,329,9030121,,,,,,,2022-08-02,1,,,,,ラビタル,0
1150,4360001030766,新規,0,2022-08-02,2022-08-02,株式会社崎原産業,,株式会社,沖縄県,中頭郡北谷町,字玉上１４４番地１,,47,326,9040106,,,,,,,2022-08-02,1,,,,,サキハラサンギョウ,0
1152,4360003012201,新規,0,2022-08-02,2022-08-02,合同会社ＯｎｅＦｌａｇ,,合同会社,沖縄県,那覇市,銘苅１丁目１０－２１－４０３センチュリーヒルズ新都心,,47,201,9000004,,,,,,,2022-08-02,1,,,,,ワンフラッグ,0
1167,4400003002965,新規,0,2022-08-02,2022-08-02,１９３ｔｒｅｅ合同会社,,合同会社,岩手県,紫波郡矢巾町,大字北郡山第１２地割９６番地３,,03,322,0283608,,,,,,,2022-08-02,1,,,,,イチキュウサンツリー,0
1176,4450003002234,新規,0,2022-08-02,2022-08-02,合同会社ＳＴＥＰ　ＢＹ　ＳＴＥＰ,,合同会社,北海道,旭川市,神居五条１０丁目２番９号エポックカムイ２０２号室,,01,204,0708015,,,,,,,2022-08-02,1,,,,,ステップバイステップ,0
1180,4480001011812,新規,0,2022-08-02,2022-08-02,株式会社白桃農園,,株式会社,徳島県,名西郡神山町,神領字本上角１７３番地,,36,342,7713310,,,,,,,2022-08-02,1,,,,,シラモモノウエン,0
1199,5010001228394,新規,0,2022-08-02,2022-08-02,エラスムス海運株式会社,,株式会社,東京都,中央区,日本橋浜町２丁目５８番４－８０２号,,13,102,1030007,,,,,,,2022-08-02,1,,,,,エラスムスカイウン,0
1208,5010003038164,新規,0,2022-08-02,2022-08-02,合同会社里山マーケティング事務所,,合同会社,東京都,中央区,銀座１丁目２２番１１号銀座大竹ビジデンス２階,,13,102,1040061,,,,,,,2022-08-02,1,,,,,サトヤママーケティングジムショ,0
1209,5010003038296,新規,0,2022-08-02,2022-08-02,合同会社オマカセカンパニー,,合同会社,東京都,中央区,八丁堀３丁目７番４号,,13,102,1040032,,,,,,,2022-08-02,1,,,,,オマカセカンパニー,0
1210,5010003038305,新規,0,2022-08-02,2022-08-02,Ｅｄｇｅ技研合同会社,,合同会社,東京都,中央区,銀座１丁目１２番４号Ｎ＆ＥＢＬＤ．７階,,13,102,1040061,,,,,,,2022-08-02,1,,,,,エッジギケン,0
1211,5010003038313,新規,0,2022-08-02,2022-08-02,Ｎｅｗｂｉｅ合同会社,,合同会社,東京都,中央区,銀座７丁目１３番６号サガミビル２階,,13,102,1040061,,,,,,,2022-08-02,1,,,,,ニュービー,0
1219,5010401168785,新規,0,2022-08-02,2022-08-02,株式会社ｅｎ’ｓ,,株式会社,東京都,港区,浜松町２丁目２番１５号浜松町ダイヤビル２階,,13,103,1050013,,,,,,,2022-08-02,1,,,,,エンズ,0
1223,5010403028129,新規,0,2022-08-02,2022-08-02,Ｒｅｎａｌ　Ｃａｒｅ　Ｓｏｌｕｔｉｏｎｓ　Ｊａｐａｎ合同会社,,合同会社,東京都,港区,港南１丁目２番７０号,,13,103,1080075,,,,,,,2022-08-02,1,,,,,リーナルケアソリューションズジャパン,0
1224,5010403028178,新規,0,2022-08-02,2022-08-02,ＥＳＲ３４合同会社,,合同会社,東京都,港区,浜松町１丁目２０番１０号ライオネス浜松町５０６号室,,13,103,1050013,,,,,,,2022-08-02,1,,,,,イーエスアールサンジュウヨン,0
1227,5010405021247,新規,0,2022-08-02,2022-08-02,タワー・ストリート特定目的会社,,その他の設立登記法人,東京都,港区,愛宕２丁目５番１号,,13,103,1050002,,,,,,,2022-08-02,1,,,,,タワーストリート,0
1244,5011001148946,新規,0,2022-08-02,2022-08-02,株式会社Ｍ’ｓｕｎｆｌｏｗｅｒ,,株式会社,東京都,渋谷区,恵比寿１丁目８番３号,,13,113,1500013,,,,,,,2022-08-02,1,,,,,エムサンフラワー,0
1245,5011001148962,新規,0,2022-08-02,2022-08-02,株式会社Ｓｉｎ．,,株式会社,東京都,渋谷区,神宮前６丁目２３番４号桑野ビル２階,,13,113,1500001,,,,,,,2022-08-02,1,,,,,シン,0
1249,5011101099742,新規,0,2022-08-02,2022-08-02,株式会社ＳａｍＣｏｍ,,株式会社,東京都,新宿区,新宿１丁目２３番１２号ガーデンフラット６０２,,13,104,1600022,,,,,,,2022-08-02,1,,,,,サムコム,0
1255,5011701025503,新規,0,2022-08-02,2022-08-02,株式会社ジャック,,株式会社,東京都,江戸川区,松島３丁目６番１９号,,13,123,1320031,,,,,,,2022-08-02,1,,,,,ジャック,0
1257,5011801041078,新規,0,2022-08-02,2022-08-02,株式会社ｎｅｃｃｏ,,株式会社,東京都,足立区,伊興本町１丁目８番１号,,13,121,1210807,,,,,,,2022-08-02,1,,,,,ネッコ,0
1258,5011801041086,新規,0,2022-08-02,2022-08-02,遠山商事株式会社,,株式会社,東京都,足立区,梅田７丁目９番１２号梅田カトレアハイツ２０１号室,,13,121,1230851,,,,,,,2022-08-02,1,,,,,トオヤマショウジ,0
1261,5012305002021,新規,0,2022-08-02,2022-08-02,一般社団法人ＣＯＺＩＥＳＴ,,その他の設立登記法人,東京都,町田市,図師町３３６番地７,,13,209,1940203,,,,,,,2022-08-02,1,,,,,コージエスト,0
1262,5012401039479,新規,0,2022-08-02,2022-08-02,小泉機器ホールディングス株式会社,,株式会社,東京都,府中市,分梅町４丁目２番地の４,,13,206,1830033,,,,,,,2022-08-02,1,,,,,コイズミキキホールディングス,0
1265,5012801021763,新規,0,2022-08-02,2022-08-02,株式会社アンク,,株式会社,東京都,国分寺市,西恋ヶ窪１丁目７番地４０,,13,214,1850013,,,,,,,2022-08-02,1,,,,,アンク,0
1268,5013301049452,新規,0,2022-08-02,2022-08-02,株式会社ダイナ引越センター,,株式会社,東京都,豊島区,南長崎２丁目２４番１０号,,13,116,1710052,,,,,,,2022-08-02,1,,,,,ダイナヒッコシセンター,0
1269,5013301049460,新規,0,2022-08-02,2022-08-02,琥珀株式会社,,株式会社,東京都,豊島区,高田３丁目３番２２－１０３号,,13,116,1710033,,,,,,,2022-08-02,1,,,,,コハク,0
1277,5020001147593,新規,0,2022-08-02,2022-08-02,クロノス株式会社,,株式会社,神奈川県,川崎市麻生区,高石４丁目１６番２１－４０３号,,14,137,2150003,,,,,,,2022-08-02,1,,,,,クロノス,0
1279,5020003022183,新規,0,2022-08-02,2022-08-02,合同会社ＤＥＣＥＮＴ　Ｊ＆Ｂ,,合同会社,神奈川県,横浜市緑区,鴨居６丁目８番１７号,,14,113,2260003,,,,,,,2022-08-02,1,,,,,ディーセントジェイアンドビー,0
1284,5020005015615,新規,0,2022-08-02,2022-08-02,一般社団法人春の会,,その他の設立登記法人,神奈川県,横浜市中区,日本大通１８番地ＫＲＣビルディング７Ｆ,,14,104,2310021,,,,,,,2022-08-02,1,,,,,ハルノカイ,0
1292,5021001076634,新規,0,2022-08-02,2022-08-02,株式会社シーアールキッチン,,株式会社,神奈川県,相模原市中央区,田名４３２４番地１,,14,152,2520244,,,,,,,2022-08-02,1,,,,,シーアールキッチン,0
1294,5030001149465,新規,0,2022-08-02,2022-08-02,株式会社Ｃｌａｆ,,株式会社,埼玉県,さいたま市見沼区,大字新堤１８－３グランドベル２０１,,11,104,3370013,,,,,,,2022-08-02,1,,,,,クラフ,0
1306,5040003020532,新規,0,2022-08-02,2022-08-02,Ｓ．Ｈ．ＡＵＴＯ　ＴＲＡＤＩＮＧ合同会社,,合同会社,千葉県,東金市,上布田５３８番地１,,12,213,2830834,,,,,,,2022-08-02,1,,,,,エスエイチオートトレーディング,0
1307,5040003020540,新規,0,2022-08-02,2022-08-02,ＰＳＮ　ＩＮＴＥＲＮＡＴＩＯＮＡＬ合同会社,,合同会社,千葉県,白井市,復１４５７番地の３、１６号ハイツ２０２号室,,12,232,2701422,,,,,,,2022-08-02,1,,,,,ピーエスエヌインターナショナル,0
1317,5070003004573,新規,0,2022-08-02,2022-08-02,合同会社ＮＳエンジニアリング,,合同会社,群馬県,藤岡市,立石新田３７５番地１ウィンブルドン２１,,10,209,3750003,,,,,,,2022-08-02,1,,,,,エヌエスエンジニアリング,0
1321,5080403004593,新規,0,2022-08-02,2022-08-02,合同会社丸富,,合同会社,静岡県,磐田市,中泉３０３８番地２,,22,211,4380078,,,,,,,2022-08-02,1,,,,,マルトミ,0
1323,5100001035567,新規,0,2022-08-02,2022-08-02,シガキーピングサービス株式会社,,株式会社,長野県,下高井郡山ノ内町,大字平穏２２７７小石屋旅館内,,20,561,3810401,,,,,,,2022-08-02,1,,,,,シガキーピングサービス,0
1326,5100003006640,新規,0,2022-08-02,2022-08-02,合同会社木ｔｏ木,,合同会社,長野県,下伊那郡喬木村,６０４番地,,20,415,3951100,,,,,,,2022-08-02,1,,,,,キトキ,0
1340,5120001247846,新規,0,2022-08-02,2022-08-02,株式会社ＭＯＴＯＦＵ,,株式会社,大阪府,大阪市中央区,久太郎町４丁目１番３号大阪センタービル６階１７９号室,,27,128,5410056,,,,,,,2022-08-02,1,,,,,モトフ,0
1341,5120001247854,新規,0,2022-08-02,2022-08-02,株式会社Ｂ．Ｗ．Ｇ,,株式会社,大阪府,大阪市北区,本庄東２丁目２－２５クリエイト天八ビル３階,,27,127,5310074,,,,,,,2022-08-02,1,,,,,ビーダブリュジー,0
1342,5120001247862,新規,0,2022-08-02,2022-08-02,浪速ミート株式会社,,株式会社,大阪府,大阪市浪速区,元町３丁目１０番９号,,27,111,5560016,,,,,,,2022-08-02,1,,,,,ナニワミート,0
1344,5120003022140,新規,0,2022-08-02,2022-08-02,合同会社凪の河,,合同会社,大阪府,枚方市,香里園山之手町２－１６－４０３,,27,210,5730087,,,,,,,2022-08-02,1,,,,,ナギノカワ,0
1345,5120003022198,新規,0,2022-08-02,2022-08-02,大玉合同会社,,合同会社,大阪府,大阪市城東区,鴫野西１丁目３番１７号,,27,118,5360014,,,,,,,2022-08-02,1,,,,,オオタマ,0
1346,5120005023104,新規,0,2022-08-02,2022-08-02,特定非営利活動法人ハッピーライフ,,その他の設立登記法人,大阪府,寝屋川市,香里北之町２番６号,,27,215,5720080,,,,,,,2022-08-02,1,,,,,ハッピーライフ,0
1350,5120101066007,新規,0,2022-08-02,2022-08-02,株式会社福士重量,,株式会社,大阪府,和泉市,王子町３丁目８－２０パールコート１０３,,27,219,5940004,,,,,,,2022-08-02,1,,,,,フクシジュウリョウ,0
1360,5130003008089,新規,0,2022-08-02,2022-08-02,合同会社ＴＥＮＳＴＡＲ,,合同会社,京都府,綴喜郡宇治田原町,大字岩山小字畠田７０番地－１号,,26,344,6100261,,,,,,,2022-08-02,1,,,,,テンスター,0
1364,5140001126924,新規,0,2022-08-02,2022-08-02,株式会社アグリアソシエ,,株式会社,兵庫県,三田市,大川瀬１７８番地,,28,219,6691349,,,,,,,2022-08-02,1,,,,,アグリアソシエ,0
1365,5140001126949,新規,0,2022-08-02,2022-08-02,株式会社アウィス,,株式会社,兵庫県,神戸市中央区,御幸通８丁目１－６神戸国際会館２２階,,28,110,6510087,,,,,,,2022-08-02,1,,,,,アウィス,0
1366,5140001126957,新規,0,2022-08-02,2022-08-02,株式会社ほけんの輪,,株式会社,兵庫県,尼崎市,武庫之荘１丁目３２番７－１０１号,,28,202,6610035,,,,,,,2022-08-02,1,,,,,ホケンノワ,0
1369,5140003017931,新規,0,2022-08-02,2022-08-02,合同会社月虹,,合同会社,兵庫県,神戸市中央区,磯上通８丁目１－２９カサベラビルＣ＆Ｍ４０３号室,,28,110,6510086,,,,,,,2022-08-02,1,,,,,ゲッコウ,0
1370,5140003017980,新規,0,2022-08-02,2022-08-02,合同会社みのり,,合同会社,兵庫県,神戸市長田区,西丸山町２丁目１番１３号,,28,106,6530874,,,,,,,2022-08-02,1,,,,,ミノリ,0
1373,5150001025729,新規,0,2022-08-02,2022-08-02,株式会社桝谷モータース,,株式会社,奈良県,桜井市,大字粟殿４７２番地の２,,29,206,6330062,,,,,,,2022-08-02,1,,,,,マスタニモータース,0
1378,5160001024408,新規,0,2022-08-02,2022-08-02,株式会社烏山建設,,株式会社,滋賀県,大津市,比叡平２丁目１４番２１号,,25,201,5200016,,,,,,,2022-08-02,1,,,,,カラスヤマケンセツ,0
1394,5180001152388,新規,0,2022-08-02,2022-08-02,ＭＴ　Ｇｏｄｅｒｅ株式会社,,株式会社,愛知県,江南市,天王町駒野１３７番地,,23,217,4838114,,,,,,,2022-08-02,1,,,,,エムティーゴデーレ,0
1395,5180001152413,新規,0,2022-08-02,2022-08-02,株式会社ＲＥＭＳ,,株式会社,愛知県,名古屋市天白区,池場２丁目２８０５番地の２,,23,116,4680055,,,,,,,2022-08-02,1,,,,,レムス,0
1396,5180001152421,新規,0,2022-08-02,2022-08-02,株式会社ＷＡＮ　ａｎｄ　ＯＮＬＹ,,株式会社,愛知県,名古屋市千種区,東山元町３丁目７０番地,,23,101,4640804,,,,,,,2022-08-02,1,,,,,ワンアンドオンリー,0
1399,5180003024098,新規,0,2022-08-02,2022-08-02,しらかべ労働衛生コンサル合同会社,,合同会社,愛知県,名古屋市東区,白壁２丁目４０１番地,,23,102,4610011,,,,,,,2022-08-02,1,,,,,シラカベロウドウエイセイコンサル,0
1400,5180005019872,新規,0,2022-08-02,2022-08-02,一般社団法人野球のチカラ,,その他の設立登記法人,愛知県,一宮市,明地字藤之棚１２４番地,,23,203,4940012,,,,,,,2022-08-02,1,,,,,ヤキュウノチカラ,0
1405,5200001040334,新規,0,2022-08-02,2022-08-02,株式会社Ｈ‐ｔｅｃ,,株式会社,岐阜県,関市,下之保２７６８番地１,,21,205,5013521,,,,,,,2022-08-02,1,,,,,エイチテック,0
1407,5230005009249,新規,0,2022-08-02,2022-08-02,一般社団法人ＫＵドローンマップ開拓機構,,その他の設立登記法人,富山県,黒部市,北新２０３番地１４,,16,207,9380036,,,,,,,2022-08-02,1,,,,,ケーユードローンマップカイタクキコウ,0
1409,5240003005736,新規,0,2022-08-02,2022-08-02,Ｄｅｌｔａ　Ｆｒｅｎｉ　Ｊａｐａｎ合同会社,,合同会社,広島県,広島市西区,庚午中２丁目１６番１－１０２号,,34,104,7330822,,,,,,,2022-08-02,1,,,,,デルタフレーニジャパン,0
1414,5260001037093,新規,0,2022-08-02,2022-08-02,株式会社コンサル,,株式会社,岡山県,岡山市中区,浜２丁目５番１１号Ｎ・Ｏ桜道１０２号,,33,102,7038256,,,,,,,2022-08-02,1,,,,,コンサル,0
1418,5270005005525,新規,0,2022-08-02,2022-08-02,一般社団法人マクアケ,,その他の設立登記法人,鳥取県,東伯郡琴浦町,大字徳万９２番地５,,31,371,6892303,,,,,,,2022-08-02,1,,,,,マクアケ,0
1419,5280003001632,新規,0,2022-08-02,2022-08-02,合同会社アスマキナ,,合同会社,島根県,雲南市,三刀屋町三刀屋１２３０－２５,,32,209,6902404,,,,,,,2022-08-02,1,,,,,アスマキナ,0
1428,5290003012793,新規,0,2022-08-02,2022-08-02,グリーン・プラネット合同会社,,合同会社,福岡県,宗像市,栄町６番地１１－５０１号,,40,220,8114173,,,,,,,2022-08-02,1,,,,,グリーンプラネット,0
1429,5290801028776,新規,0,2022-08-02,2022-08-02,株式会社ＣＲＥＡ　ＳＴＹＬＥ,,株式会社,福岡県,北九州市若松区,大字頓田１８４番地５（サンライズアリタＢ２０１）,,40,103,8080112,,,,,,,2022-08-02,1,,,,,クリエスタイル,0
1431,5320001019250,新規,0,2022-08-02,2022-08-02,株式会社Ｇ　ＣＬＡＳ,,株式会社,大分県,別府市,朝見３丁目１８番３号,,44,202,8740812,,,,,,,2022-08-02,1,,,,,ジークラス,0
1439,5330001029983,新規,0,2022-08-02,2022-08-02,株式会社平建工務店,,株式会社,熊本県,球磨郡山江村,大字山田乙２３９７番地,,43,512,8680092,,,,,,,2022-08-02,1,,,,,ヒラケンコウムテン,0
1441,5340001024942,新規,0,2022-08-02,2022-08-02,株式会社だるまカンパニー,,株式会社,鹿児島県,鹿児島市,千日町１３番２４号ニューニシノビル１階,,46,201,8920843,,,,,,,2022-08-02,1,,,,,ダルマカンパニー,0
1448,5360001030749,新規,0,2022-08-02,2022-08-02,株式会社ビステラ,,株式会社,沖縄県,那覇市,久米２丁目３番１５号ＣＯＩ那覇ビル５階,,47,201,9000033,,,,,,,2022-08-02,1,,,,,ビステラ,0
1449,5360003012200,新規,0,2022-08-02,2022-08-02,合同会社みなもと,,合同会社,沖縄県,浦添市,仲間３丁目１８番１号,,47,208,9012103,,,,,,,2022-08-02,1,,,,,ミナモト,0
1453,5370001048872,新規,0,2022-08-02,2022-08-02,安藤興業株式会社,,株式会社,宮城県,仙台市太白区,あすと長町４丁目２番５８－２０７号,,04,104,9820007,,,,,,,2022-08-02,1,,,,,アンドウコウギョウ,0
1461,5400005008258,新規,0,2022-08-02,2022-08-02,一般社団法人信成会,,その他の設立登記法人,岩手県,紫波郡矢巾町,大字煙山第２地割１３１番地,,03,322,0283623,,,,,,,2022-08-02,1,,,,,シンセイカイ,0
1466,5430001087179,新規,0,2022-08-02,2022-08-02,株式会社ＢｏｏｍＡＣＥ,,株式会社,北海道,札幌市中央区,南六条西６丁目７番地１第６旭観光ビル３階ＳＴＲＯＮＧＥＲ内,,01,101,0640806,,,,,,,2022-08-02,1,,,,,ブームエース,0
1467,5430001087245,新規,0,2022-08-02,2022-08-02,株式会社堀井工業,,株式会社,北海道,小樽市,銭函５丁目５２番地１,,01,203,0613271,,,,,,,2022-08-02,1,,,,,ホリイコウギョウ,0
1471,5440005002728,新規,0,2022-08-02,2022-08-02,一般社団法人ＡＶＥＮＤＡ,,その他の設立登記法人,北海道,函館市,堀川町１７番３号,,01,202,0400025,,,,,,,2022-08-02,1,,,,,,0
1476,5470001019194,新規,0,2022-08-02,2022-08-02,株式会社ＦＵＫＵＲＥＫＯ,,株式会社,香川県,さぬき市,津田町津田１４０２番地２３,,37,206,7692401,,,,,,,2022-08-02,1,,,,,フクレコ,0
1478,5470003002223,新規,0,2022-08-02,2022-08-02,合同会社Ｗａｎ’ｓ　Ｈｏｍｅ,,合同会社,香川県,さぬき市,造田宮西８７７番地３,,37,206,7692311,,,,,,,2022-08-02,1,,,,,ワンズホーム,0
1513,6010005035349,新規,0,2022-08-02,2022-08-02,一般社団法人ＫＳＦＲ３,,その他の設立登記法人,東京都,千代田区,内幸町２丁目１番６号,,13,101,1000011,,,,,,,2022-08-02,1,,,,,ケイエスエフアールスリー,0
1522,6010401168660,新規,0,2022-08-02,2022-08-02,ライトハウス株式会社,,株式会社,東京都,港区,北青山２丁目１２番８号,,13,103,1070061,,,,,,,2022-08-02,1,,,,,ライトハウス,0
1531,6010803004249,新規,0,2022-08-02,2022-08-02,ＩＴＢＩ合同会社,,合同会社,東京都,大田区,下丸子２丁目３２番１４号,,13,111,1460092,,,,,,,2022-08-02,1,,,,,アイティービーアイ,0
1534,6010901051333,新規,0,2022-08-02,2022-08-02,株式会社Ｔｒｕｓｔｗｏｒｔｈｙ,,株式会社,東京都,世田谷区,上馬４丁目３２番１４オーベル上馬３０４号,,13,112,1540011,,,,,,,2022-08-02,1,,,,,トラストワーシー,0
1540,6011001148202,新規,0,2022-08-02,2022-08-02,株式会社リソナティ,,株式会社,東京都,渋谷区,代々木２丁目２３番１－２４１号,,13,113,1510053,,,,,,,2022-08-02,1,,,,,リソナティ,0
1541,6011001148945,新規,0,2022-08-02,2022-08-02,有恒コーポレーション株式会社,,株式会社,東京都,目黒区,下目黒２丁目１９番６号,,13,110,1530064,,,,,,,2022-08-02,1,,,,,ユウコウコーポレーション,0
1544,6011003015144,新規,0,2022-08-02,2022-08-02,合同会社Ｐｏｒｔ　Ｌｉｂｅｒｏ,,合同会社,東京都,目黒区,目黒本町５丁目１３番２号,,13,110,1520002,,,,,,,2022-08-02,1,,,,,ポートリベロ,0
1548,6011101099741,新規,0,2022-08-02,2022-08-02,宮濱国際貿易株式会社,,株式会社,東京都,新宿区,北新宿１丁目１－１０,,13,104,1690074,,,,,,,2022-08-02,1,,,,,ミヤハマコクサイボウエキ,0
1552,6011103012025,新規,0,2022-08-02,2022-08-02,合同会社ｄｉｇｉｍａ,,合同会社,東京都,新宿区,西新宿３丁目３番１３号,,13,104,1600023,,,,,,,2022-08-02,1,,,,,デジマ,0
1553,6011103012033,新規,0,2022-08-02,2022-08-02,ＣＭＯＮ　ＪＡＰＡＮ合同会社,,合同会社,東京都,新宿区,西新宿３丁目３番１３号西新宿水間ビル２Ｆ,,13,104,1600023,,,,,,,2022-08-02,1,,,,,シーモンジャパン,0
1555,6011105010340,新規,0,2022-08-02,2022-08-02,一般社団法人臨床検査室連携支援会,,その他の設立登記法人,東京都,新宿区,信濃町３５番地,,13,104,1600016,,,,,,,2022-08-02,1,,,,,リンショウケンサシツレンケイシエンカイ,0
1557,6011201023997,新規,0,2022-08-02,2022-08-02,株式会社ＫＯＭＰＩＳ,,株式会社,東京都,中野区,新井２丁目５１番１２号,,13,114,1650026,,,,,,,2022-08-02,1,,,,,コンピス,0
1564,6011601026146,新規,0,2022-08-02,2022-08-02,スフォルゼスト株式会社,,株式会社,東京都,練馬区,東大泉３丁目６６番１６号大泉ガーデン３０１号室,,13,120,1780063,,,,,,,2022-08-02,1,,,,,スフォルゼスト,0
1565,6011701025502,新規,0,2022-08-02,2022-08-02,株式会社クイーン,,株式会社,東京都,江戸川区,松島３丁目６番１９号,,13,123,1320031,,,,,,,2022-08-02,1,,,,,クイーン,0
1571,6012701017175,新規,0,2022-08-02,2022-08-02,株式会社トラスト,,株式会社,東京都,西東京市,東町５丁目８番９号,,13,229,2020012,,,,,,,2022-08-02,1,,,,,トラスト,0
1574,6013101008987,新規,0,2022-08-02,2022-08-02,株式会社増田電気設備,,株式会社,東京都,青梅市,畑中３丁目９７２番地の３,,13,205,1980061,,,,,,,2022-08-02,1,,,,,マスダデンキセツビ,0
1576,6013301049451,新規,0,2022-08-02,2022-08-02,ＩＮＦＩＣＴ株式会社,,株式会社,東京都,豊島区,南池袋１丁目１６番１５号ダイヤゲート池袋５Ｆ,,13,116,1710022,,,,,,,2022-08-02,1,,,,,インフィクト,0
1589,6021001076633,新規,0,2022-08-02,2022-08-02,株式会社ＵＺＩＴＥＣＨ,,株式会社,神奈川県,横須賀市,大矢部２丁目１１番７号,,14,201,2380024,,,,,,,2022-08-02,1,,,,,ウジテック,0
1594,6030001149456,新規,0,2022-08-02,2022-08-02,株式会社インターモーダ,,株式会社,埼玉県,白岡市,小久喜９４６番地,,11,246,3490217,,,,,,,2022-08-02,1,,,,,インターモーダ,0
1595,6030001149480,新規,0,2022-08-02,2022-08-02,株式会社ワイアール,,株式会社,埼玉県,さいたま市南区,鹿手袋５丁目１番１２号,,11,108,3360031,,,,,,,2022-08-02,1,,,,,ワイアール,0
1611,6040001124490,新規,0,2022-08-02,2022-08-02,株式会社ＬＩＶＥＬＹ,,株式会社,千葉県,浦安市,高洲５丁目１番Ｃ－１８０５号,,12,227,2790023,,,,,,,2022-08-02,1,,,,,ライブリー,0
1617,6040003020531,新規,0,2022-08-02,2022-08-02,合同会社アルコ建設,,合同会社,千葉県,柏市,中央１丁目４番１７号,,12,217,2770023,,,,,,,2022-08-02,1,,,,,アルコケンセツ,0
1626,6060001035125,新規,0,2022-08-02,2022-08-02,株式会社シェノンテック,,株式会社,栃木県,栃木市,片柳町２丁目５５番１３号,,09,203,3280053,,,,,,,2022-08-02,1,,,,,シェノンテック,0
1630,6060003004169,新規,0,2022-08-02,2022-08-02,合同会社ＥＨＨＯ,,合同会社,栃木県,那須郡那須町,大字高久乙２２５３番地１３,,09,407,3250303,,,,,,,2022-08-02,1,,,,,エッホ,0
1634,6080403004592,新規,0,2022-08-02,2022-08-02,合同会社グリーンオフィス,,合同会社,静岡県,浜松市中区,田町２２３－２１ビオラ田町３階,,22,131,4300944,,,,,,,2022-08-02,1,,,,,グリーンオフィス,0
1637,6100001035566,新規,0,2022-08-02,2022-08-02,ＫＵＲＹ株式会社,,株式会社,長野県,塩尻市,大字広丘吉田５１２番地２７,,20,215,3990701,,,,,,,2022-08-02,1,,,,,クリー,0
1650,6120001247795,新規,0,2022-08-02,2022-08-02,Ｓｍａｒｔ　Ｂｏｘ株式会社,,株式会社,大阪府,大阪市東住吉区,駒川１丁目１４番２４号,,27,121,5460043,,,,,,,2022-08-02,1,,,,,スマートボックス,0
1651,6120101065998,新規,0,2022-08-02,2022-08-02,株式会社桜管理,,株式会社,大阪府,富田林市,桜井町１丁目１８番９号,,27,214,5840013,,,,,,,2022-08-02,1,,,,,サクラカンリ,0
1653,6120901046330,新規,0,2022-08-02,2022-08-02,株式会社ノース・クーリエ,,株式会社,大阪府,茨木市,桑田町１８番６号,,27,211,5670841,,,,,,,2022-08-02,1,,,,,ノースクーリエ,0
1660,6122001036113,新規,0,2022-08-02,2022-08-02,株式会社さくら堂,,株式会社,大阪府,東大阪市,鴻池元町３番１１－２０３号,,27,227,5780974,,,,,,,2022-08-02,1,,,,,サクラドウ,0
1662,6130001072318,新規,0,2022-08-02,2022-08-02,株式会社ＩＦＡｉｎｓｕｒａｎｃｅ,,株式会社,京都府,京都市中京区,槌屋町８４－２,00127388,26,104,6040061,,,,,,,2022-08-02,1,,,,,アイエフエーインシュアランス,0
1663,6130001072334,新規,0,2022-08-02,2022-08-02,株式会社進藤工業,,株式会社,京都府,京都市山科区,東野森野町１０番地２サンルシエル山科森野町２０１号,,26,110,6078147,,,,,,,2022-08-02,1,,,,,シンドウコウギョウ,0
1664,6130001072359,新規,0,2022-08-02,2022-08-02,沼津カンパニー株式会社,,株式会社,京都府,京都市伏見区,深草西浦町８丁目１１３番地西陣ビル２階,,26,109,6120029,,,,,,,2022-08-02,1,,,,,ヌマズカンパニー,0
1671,6140001126923,新規,0,2022-08-02,2022-08-02,ゆずきレンタカーリース株式会社,,株式会社,兵庫県,姫路市,広畑区西蒲田５４６番地１９,,28,201,6711107,,,,,,,2022-08-02,1,,,,,ユズキレンタカーリース,0
1676,6160003002641,新規,0,2022-08-02,2022-08-02,大和露合同会社,,合同会社,滋賀県,東近江市,宮川町４４０番地,,25,213,5291551,,,,,,,2022-08-02,1,,,,,ダイワロ,0
1689,6180001152379,新規,0,2022-08-02,2022-08-02,株式会社Ｆｉｒｓｔ　Ｓｔｅｐ,,株式会社,愛知県,名古屋市西区,名駅２丁目３４番１７セントラル名古屋１１０１号,,23,104,4510045,,,,,,,2022-08-02,1,,,,,ファーストステップ,0
1701,6200001040333,新規,0,2022-08-02,2022-08-02,サンワイズ産業株式会社,,株式会社,岐阜県,美濃加茂市,下米田町西脇１２４８番地２,,21,211,5050018,,,,,,,2022-08-02,1,,,,,サンワイズサンギョウ,0
1708,6220003003336,新規,0,2022-08-02,2022-08-02,ＳＨＩＮＹ　ＥＳＳＥＮＣＥ合同会社,,合同会社,石川県,鳳珠郡穴水町,字岩車１１‐３５‐６,,17,461,9270007,,,,,,,2022-08-02,1,,,,,シャイニーエッセンス,0
1711,6240001060154,新規,0,2022-08-02,2022-08-02,株式会社ＢＵＲＮＩＮＧ　ＭＡＮ,,株式会社,広島県,広島市安佐南区,中筋１丁目２０番５－５０９号,,34,105,7310122,,,,,,,2022-08-02,1,,,,,バーニングマン,0
1716,6260003004000,新規,0,2022-08-02,2022-08-02,合同会社００８,,合同会社,岡山県,岡山市中区,西川原３３７番地１コンチェルトＡ３０２,,33,102,7038258,,,,,,,2022-08-02,1,,,,,ダブルオーエイト,0
1717,6270001008605,新規,0,2022-08-02,2022-08-02,株式会社河口工業,,株式会社,鳥取県,鳥取市,気高町奥沢見１０８番地,,31,201,6890211,,,,,,,2022-08-02,1,,,,,カワグチコウギョウ,0
1720,6280005007494,新規,0,2022-08-02,2022-08-02,一般社団法人エンター,,その他の設立登記法人,島根県,雲南市,木次町里方３０番地２,,32,209,6991311,,,,,,,2022-08-02,1,,,,,エンター,0
1728,6290001098454,新規,0,2022-08-02,2022-08-02,株式会社ＭＡＲＩＮ,,株式会社,福岡県,福岡市城南区,松山２丁目５番１３－３０２号,,40,136,8140131,,,,,,,2022-08-02,1,,,,,マリン,0
1733,6330001029982,新規,0,2022-08-02,2022-08-02,株式会社ＤＩＡＧＲＡＭＳ,,株式会社,熊本県,熊本市西区,城山下代２丁目４番１号,,43,103,8600066,,,,,,,2022-08-02,1,,,,,ダイアグラムス,0
1738,6340001024933,新規,0,2022-08-02,2022-08-02,スッゲー株式会社,,株式会社,鹿児島県,鹿児島市,武１丁目２６番７号２階,,46,201,8900045,,,,,,,2022-08-02,1,,,,,スッゲー,0
1739,6350001017878,新規,0,2022-08-02,2022-08-02,ＡＸＩＳ株式会社,,株式会社,宮崎県,宮崎市,田代町２４５番地ファーストライフＩＩ１０５号,00127392,45,201,8800855,,,,,,,2022-08-02,1,,,,,アクシス,0
1741,6360003012199,新規,0,2022-08-02,2022-08-02,合同会社オフィスＮＥＯ,,合同会社,沖縄県,沖縄市,比屋根３丁目１６番２号,,47,211,9042173,,,,,,,2022-08-02,1,,,,,オフィスネオ,0
1747,6390005008969,新規,0,2022-08-02,2022-08-02,協同組合ｓｏｕｌ‐ｌｉｇｈｔ‐ｃｏｏｐｅｒａｔｉｖｅ,,その他の設立登記法人,山形県,最上郡金山町,大字金山大柳２６６番地１４,,06,361,9995402,,,,,,,2022-08-02,1,,,,,ソウルライトコーペレイティブ,0
1759,6470001019185,新規,0,2022-08-02,2022-08-02,コスモ農緑株式会社,,株式会社,香川県,丸亀市,中府町３丁目１番１号,,37,202,7630033,,,,,,,2022-08-02,1,,,,,コスモノウリョク,0
1767,6500003002870,新規,0,2022-08-02,2022-08-02,合同会社Ｎｓ,,合同会社,愛媛県,松山市,針田町３番地の４,,38,201,7900055,,,,,,,2022-08-02,1,,,,,ナルズ,0
1782,7010001228442,新規,0,2022-08-02,2022-08-02,株式会社ａｌｉｍ,,株式会社,東京都,中央区,銀座３丁目１１番１９号,,13,102,1040061,,,,,,,2022-08-02,1,,,,,アリム,0
1783,7010001228533,新規,0,2022-08-02,2022-08-02,株式会社キュアセル,,株式会社,東京都,中央区,日本橋堀留町１丁目９番１０号,,13,102,1030012,,,,,,,2022-08-02,1,,,,,キュアセル,0
1784,7010003038303,新規,0,2022-08-02,2022-08-02,合同会社ＲＥＸＡＲＴＥ,,合同会社,東京都,千代田区,飯田橋２丁目１８番１－２１０号,,13,101,1020072,,,,,,,2022-08-02,1,,,,,レキサルト,0
1785,7010003038311,新規,0,2022-08-02,2022-08-02,アゼリアワークス合同会社,,合同会社,東京都,中央区,日本橋浜町３丁目７番１０号,,13,102,1030007,,,,,,,2022-08-02,1,,,,,アゼリアワークス,0
1795,7010401168767,新規,0,2022-08-02,2022-08-02,株式会社ＳＥＥＢＯＸ　ＪＡＰＡＮ,,株式会社,東京都,港区,元赤坂１丁目２番７号赤坂Ｋタワー,,13,103,1070051,,,,,,,2022-08-02,1,,,,,シーボックスジャパン,0
1796,7010401168775,新規,0,2022-08-02,2022-08-02,株式会社Ａｇｅｎｔ　Ｏｎｅ,,株式会社,東京都,港区,南麻布３丁目９番１４号,,13,103,1060047,,,,,,,2022-08-02,1,,,,,エージェントワン,0
1797,7010403028176,新規,0,2022-08-02,2022-08-02,アジアディールハブジャパン合同会社,,合同会社,東京都,港区,赤坂２丁目１４番５号Ｄａｉｗａ赤坂ビル７階,,13,103,1070052,,,,,,,2022-08-02,1,,,,,アジアディールハブジャパン,0
1803,7010601061581,新規,0,2022-08-02,2022-08-02,株式会社Ｎｅｘｓｕｓｏｎｅ,,株式会社,東京都,江東区,青海２丁目７番４号ｔｈｅＳＯＨＯ１１０６号室,,13,108,1350064,,,,,,,2022-08-02,1,,,,,ネクサスワン,0
1805,7010801033166,新規,0,2022-08-02,2022-08-02,Ｅ‐Ｐｏｗｅｒメンテナンス株式会社,,株式会社,東京都,大田区,多摩川２丁目２１番２４号東京電業社ビル１Ｆ,,13,111,1460095,,,,,,,2022-08-02,1,,,,,イーパワーメンテナンス,0
1806,7010901051332,新規,0,2022-08-02,2022-08-02,アクセラ株式会社,,株式会社,東京都,世田谷区,下馬６丁目１９－１２－１０１,,13,112,1540002,,,,,,,2022-08-02,1,,,,,アクセラ,0
1807,7010901051340,新規,0,2022-08-02,2022-08-02,株式会社Ｓコンサル,,株式会社,東京都,世田谷区,弦巻２丁目３３番２０－２０９号,,13,112,1540016,,,,,,,2022-08-02,1,,,,,エスコンサル,0
1808,7010901051349,新規,0,2022-08-02,2022-08-02,株式会社ＹＳＫ,,株式会社,東京都,世田谷区,東玉川１丁目１番９号Ｙ’ｓフラット１０１,,13,112,1580084,,,,,,,2022-08-02,1,,,,,ワイエスケー,0
1810,7010903007555,新規,0,2022-08-02,2022-08-02,ＬＥＯＮ合同会社,,合同会社,東京都,世田谷区,下馬１丁目３２番１７号浅川方,,13,112,1540002,,,,,,,2022-08-02,1,,,,,レオン,0
1817,7011001148960,新規,0,2022-08-02,2022-08-02,株式会社ｗａｎｄｅｒｏｕｔ,,株式会社,東京都,渋谷区,恵比寿西１丁目３０番１０号,,13,113,1500021,,,,,,,2022-08-02,1,,,,,ワンダラウト,0
1818,7011003015119,新規,0,2022-08-02,2022-08-02,ＭＧＫ　Ｔｒａｎｓｃｅｎｄｅｎｃ合同会社,,合同会社,東京都,渋谷区,神宮前６丁目２３番４号桑野ビル２階,,13,113,1500001,,,,,,,2022-08-02,1,,,,,エムジーケートランセンデンス,0
1819,7011003015143,新規,0,2022-08-02,2022-08-02,合同会社アベニールイモビリエ,,合同会社,東京都,渋谷区,代々木２丁目１６番１４号,,13,113,1510053,,,,,,,2022-08-02,1,,,,,アベニールイモビリエ,0
1824,7011103012032,新規,0,2022-08-02,2022-08-02,Ｂｉｇｗｅｌｌｈｅｍｐ合同会社,,合同会社,東京都,新宿区,西新宿３丁目３番１３号西新宿水間ビル６階,,13,104,1600023,,,,,,,2022-08-02,1,,,,,ビッグウエルヘンプ,0
1826,7011201024004,新規,0,2022-08-02,2022-08-02,株式会社テクノネットワーク,,株式会社,東京都,中野区,若宮１丁目２９番４号,,13,114,1650033,,,,,,,2022-08-02,1,,,,,テクノネットワーク,0
1833,7011601026137,新規,0,2022-08-02,2022-08-02,雨野未来株式会社,,株式会社,東京都,練馬区,錦１丁目２５番２５,,13,120,1790082,,,,,,,2022-08-02,1,,,,,アメノミライ,0
1834,7011601026145,新規,0,2022-08-02,2022-08-02,株式会社ＭＤエース,,株式会社,東京都,練馬区,桜台１丁目７番７シルバービル４０２号室,,13,120,1760002,,,,,,,2022-08-02,1,,,,,エムディエース,0
1835,7011601026153,新規,0,2022-08-02,2022-08-02,照井塗装株式会社,,株式会社,東京都,練馬区,大泉町２丁目３２番１６号,,13,120,1780062,,,,,,,2022-08-02,1,,,,,テルイトソウ,0
1841,7011703003208,新規,0,2022-08-02,2022-08-02,合同会社レックスフォード,,合同会社,東京都,江戸川区,東葛西６丁目４番３号,,13,123,1340084,,,,,,,2022-08-02,1,,,,,レックスフォード,0
1853,7012701017182,新規,0,2022-08-02,2022-08-02,ＴＨＥ　ＲＩＣＥ株式会社,,株式会社,東京都,東村山市,本町２丁目１７番地７,,13,213,1890014,,,,,,,2022-08-02,1,,,,,,0
1857,7012805003137,新規,0,2022-08-02,2022-08-02,一般社団法人ひかりのほうへ,,その他の設立登記法人,東京都,日野市,東平山２丁目１８番地の４０,,13,212,1910054,,,,,,,2022-08-02,1,,,,,ヒカリノホウヘ,0
1858,7013301049442,新規,0,2022-08-02,2022-08-02,協和商事株式会社,,株式会社,東京都,豊島区,池袋２丁目６８番１０－２０９号,,13,116,1710014,,,,,,,2022-08-02,1,,,,,キョウワショウジ,0
1870,7020001147583,新規,0,2022-08-02,2022-08-02,株式会社オフィスＧ,,株式会社,神奈川県,横浜市神奈川区,鶴屋町２丁目２４番地１谷川ビルディング本館地下１階,,14,102,2210835,,,,,,,2022-08-02,1,,,,,オフィスジー,0
1872,7020003022207,新規,0,2022-08-02,2022-08-02,合同会社花菜屋,,合同会社,神奈川県,横浜市都筑区,荏田南５丁目７番３号,,14,118,2240007,,,,,,,2022-08-02,1,,,,,ハナヤ,0
1876,7021001076632,新規,0,2022-08-02,2022-08-02,株式会社箱舟猫兎,,株式会社,神奈川県,厚木市,緑ケ丘２丁目１４番８－１号,,14,212,2430041,,,,,,,2022-08-02,1,,,,,ハコブネネコウサギ,0
1877,7021001076649,新規,0,2022-08-02,2022-08-02,ＧＷＣ株式会社,,株式会社,神奈川県,茅ヶ崎市,赤松町３－１７－３０３号チサンハイム辻堂,,14,207,2530013,,,,,,,2022-08-02,1,,,,,ジーダブルシー,0
1878,7021005012575,新規,0,2022-08-02,2022-08-02,一般社団法人日本インドネシア連合会,,その他の設立登記法人,神奈川県,大和市,深見２２００番地７,,14,213,2420011,,,,,,,2022-08-02,1,,,,,ニホンインドネシアレンゴウカイ,0
1894,7040001124498,新規,0,2022-08-02,2022-08-02,株式会社ＰＩＴＴＩ,,株式会社,千葉県,柏市,若柴１７３番地８柏の葉キャンパス１５１街区Ｃ－１００３,,12,217,2770871,,,,,,,2022-08-02,1,,,,,ピッティ,0
1899,7050001051477,新規,0,2022-08-02,2022-08-02,常陽グリーンエナジー株式会社,,株式会社,茨城県,水戸市,南町２丁目５番５号,,08,201,3100021,,,,,,,2022-08-02,1,,,,,ジョウヨウグリーンエナジー,0
1904,7080401025978,新規,0,2022-08-02,2022-08-02,リハプライム静岡株式会社,,株式会社,静岡県,御前崎市,御前崎８０番地の７,,22,223,4371621,,,,,,,2022-08-02,1,,,,,リハプライムシズオカ,0
1915,7110001036851,新規,0,2022-08-02,2022-08-02,株式会社あまむすび,,株式会社,新潟県,新潟市中央区,紫竹山６丁目３番５号,,15,103,9500914,,,,,,,2022-08-02,1,,,,,アマムスビ,0
1925,7120001247852,新規,0,2022-08-02,2022-08-02,株式会社ｉ　ｓＯｉｌ,,株式会社,大阪府,大阪市中央区,南船場３丁目２番２２号,,27,128,5420081,,,,,,,2022-08-02,1,,,,,アイソイル,0
1927,7120003022188,新規,0,2022-08-02,2022-08-02,ｎｉｉｊｉｉ合同会社,,合同会社,大阪府,大阪市東住吉区,住道矢田８丁目１１番８号,,27,121,5460022,,,,,,,2022-08-02,1,,,,,ニージー,0
1929,7120101065989,新規,0,2022-08-02,2022-08-02,株式会社ＡｒｔＴｒａｃｔｉｏｎ,,株式会社,大阪府,堺市堺区,南半町東１丁１番１３号,,27,141,5900966,,,,,,,2022-08-02,1,,,,,アートラクション,0
1930,7120101065997,新規,0,2022-08-02,2022-08-02,株式会社ｆｉｎｅｓｓｅ　ｏｎｅ,,株式会社,大阪府,藤井寺市,沢田２丁目５番３３号,,27,226,5830011,,,,,,,2022-08-02,1,,,,,フィネスワン,0
1931,7120101066005,新規,0,2022-08-02,2022-08-02,株式会社アイカ,,株式会社,大阪府,和泉市,黒鳥町２丁目１番１８号,,27,219,5940022,,,,,,,2022-08-02,1,,,,,アイカ,0
1932,7120101066013,新規,0,2022-08-02,2022-08-02,株式会社大興業,,株式会社,大阪府,大阪狭山市,大野台７丁目２２番１３号,,27,231,5890023,,,,,,,2022-08-02,1,,,,,ダイコウギョウ,0
1936,7120901046313,新規,0,2022-08-02,2022-08-02,ベルフォース株式会社,,株式会社,大阪府,吹田市,南吹田３丁目９番１４号,,27,205,5640043,,,,,,,2022-08-02,1,,,,,ベルフォース,0
1941,7122001036112,新規,0,2022-08-02,2022-08-02,株式会社ＨＡＮ‐ＴＨＥＭ,,株式会社,大阪府,東大阪市,新池島町３丁目２番１８号,,27,227,5798065,,,,,,,2022-08-02,1,,,,,アンセム,0
1944,7130001072309,新規,0,2022-08-02,2022-08-02,株式会社Ｂａｓｉｎ,,株式会社,京都府,福知山市,字長田２７５６番地の３,,26,201,6200000,,,,,,,2022-08-02,1,,,,,ベイスン,0
1951,7140001126906,新規,0,2022-08-02,2022-08-02,克成建設株式会社,,株式会社,兵庫県,姫路市,夢前町神種９８番地１,,28,201,6712105,,,,,,,2022-08-02,1,,,,,カツナリケンセツ,0
1952,7140001126922,新規,0,2022-08-02,2022-08-02,株式会社大有林,,株式会社,兵庫県,明石市,樽屋町１５番１７号２０２,,28,203,6730898,,,,,,,2022-08-02,1,,,,,ダイユウリン,0
1953,7140001126930,新規,0,2022-08-02,2022-08-02,株式会社田中モータース,,株式会社,兵庫県,神戸市北区,藤原台北町３丁目１５番２３号,,28,109,6511301,,,,,,,2022-08-02,1,,,,,タナカモータース,0
1954,7140003017979,新規,0,2022-08-02,2022-08-02,合同会社ＴＯ　ＹＯＵ,,合同会社,兵庫県,揖保郡太子町,福地４５３番地１,,28,464,6711534,,,,,,,2022-08-02,1,,,,,トゥユー,0
1955,7140003017987,新規,0,2022-08-02,2022-08-02,友和産業合同会社,,合同会社,兵庫県,加西市,東笠原町３８６－１,,28,220,6752212,,,,,,,2022-08-02,1,,,,,ユウワサンギョウ,0
1960,7160003002640,新規,0,2022-08-02,2022-08-02,合同会社吉善,,合同会社,滋賀県,草津市,大路１丁目１－１エルティ９３２－４階草津ＳＯＨＯビジネスオフィス内１区画,,25,206,5250032,,,,,,,2022-08-02,1,,,,,ヨシゼン,0
1963,7170003001757,新規,0,2022-08-02,2022-08-02,合同会社すみれ,,合同会社,和歌山県,和歌山市,築港２丁目５番地１２,,30,201,6408287,,,,,,,2022-08-02,1,,,,,スミレ,0
1969,7180001152337,新規,0,2022-08-02,2022-08-02,ＧＳＤ株式会社,,株式会社,愛知県,日進市,梅森町上松３５１番地３,,23,230,4700132,,,,,,,2022-08-02,1,,,,,ジーエスディー,0
1970,7180001152386,新規,0,2022-08-02,2022-08-02,株式会社アルトラスト,,株式会社,愛知県,名古屋市港区,油屋町４丁目１４番地の１,,23,111,4550815,,,,,,,2022-08-02,1,,,,,アルトラスト,0
1971,7180001152403,新規,0,2022-08-02,2022-08-02,株式会社ｋｅｙ,,株式会社,愛知県,名古屋市中川区,十番町３丁目１７番地,,23,110,4540055,,,,,,,2022-08-02,1,,,,,キー,0
1976,7190001029658,新規,0,2022-08-02,2022-08-02,株式会社日本ハイネス四日市,,株式会社,三重県,四日市市,三滝台１丁目１２番地１１,,24,202,5120933,,,,,,,2022-08-02,1,,,,,ニホンハイネスヨッカイチ,0
1980,7200001040332,新規,0,2022-08-02,2022-08-02,株式会社美濃ベース,,株式会社,岐阜県,美濃市,東市場町２９９３番地の６,,21,207,5013731,,,,,,,2022-08-02,1,,,,,ミノベース,0
1987,7220003003335,新規,0,2022-08-02,2022-08-02,合同会社めらや,,合同会社,石川県,野々市市,扇が丘２９番１６号,,17,212,9218812,,,,,,,2022-08-02,1,,,,,メラヤ,0
1995,7240001060145,新規,0,2022-08-02,2022-08-02,株式会社森田ジャパン,,株式会社,広島県,福山市,大門町３丁目１６番１４号,,34,207,7210926,,,,,,,2022-08-02,1,,,,,モリタジャパン,0
1996,7240001060153,新規,0,2022-08-02,2022-08-02,ＡＮＡＬＹＺＥＲ株式会社,,株式会社,広島県,東広島市,鏡山３丁目１３番６０号,,34,212,7390046,,,,,,,2022-08-02,1,,,,,アナライザー,0
1997,7240003005742,新規,0,2022-08-02,2022-08-02,合同会社Ｃ．ＲＩＺＥ,,合同会社,広島県,東広島市,西条町下三永２８６８番２号,,34,212,7390023,,,,,,,2022-08-02,1,,,,,シーライズ,0
2009,7290005018762,新規,0,2022-08-02,2022-08-02,パナソニックｉ‐ＰＲＯセンシングソリューションズ労働組合,,その他の設立登記法人,福岡県,福岡市博多区,美野島４丁目１番６２号パナソニックｉ‐ＰＲＯセンシングソリューションズ株式会社内,,40,132,8120017,,,,,,,2022-08-02,1,,,,,パナソニックアイプロセンシングソリューションズ,0
2011,7290801028774,新規,0,2022-08-02,2022-08-02,株式会社アイエムビー,,株式会社,福岡県,京都郡苅田町,大字与原１７０４番地１０７号,,40,621,8000323,,,,,,,2022-08-02,1,,,,,アイエムビー,0
2014,7300003001867,新規,0,2022-08-02,2022-08-02,合同会社ＡＰＡＣＨＥ,,合同会社,佐賀県,唐津市,鏡１７６０番地２,,41,202,8470022,,,,,,,2022-08-02,1,,,,,アパッチ,0
2015,7310001017971,新規,0,2022-08-02,2022-08-02,株式会社ＣＭファシリティーズ,,株式会社,長崎県,長崎市,田中町５７３番地３,,42,201,8510134,,,,,,,2022-08-02,1,,,,,シーエムファシリティーズ,0
2021,7340001024932,新規,0,2022-08-02,2022-08-02,株式会社凪,,株式会社,鹿児島県,鹿児島市,東坂元４丁目９番１４号,,46,201,8920861,,,,,,,2022-08-02,1,,,,,ナギ,0
2022,7340001024940,新規,0,2022-08-02,2022-08-02,株式会社ＷＡＲＰ,,株式会社,鹿児島県,鹿児島市,中央町５－１６トーカンマンション中央町２０３号,,46,201,8900053,,,,,,,2022-08-02,1,,,,,ワープ,0
2025,7350001017877,新規,0,2022-08-02,2022-08-02,龍順産業株式会社,,株式会社,宮崎県,宮崎市,佐土原町下田島字天神中須７６００番２,,45,201,8800211,,,,,,,2022-08-02,1,,,,,リュウジュンサンギョウ,0
2026,7360001030755,新規,0,2022-08-02,2022-08-02,株式会社那覇直葬センター,,株式会社,沖縄県,那覇市,曙１丁目１４番４号,,47,201,9000002,,,,,,,2022-08-02,1,,,,,ナハチョクソウセンター,0
2027,7360003012198,新規,0,2022-08-02,2022-08-02,合同会社進龍電気,,合同会社,沖縄県,宮古島市,平良字下里７３２番地６,,47,214,9060013,,,,,,,2022-08-02,1,,,,,シンリュウデンキ,0
2029,7370001048879,新規,0,2022-08-02,2022-08-02,株式会社ナガヒロ,,株式会社,宮城県,名取市,増田７丁目３番２３号Ａ－８,,04,207,9811224,,,,,,,2022-08-02,1,,,,,ナガヒロ,0
2032,7380001033021,新規,0,2022-08-02,2022-08-02,株式会社ラニット,,株式会社,福島県,伊達郡川俣町,大字鶴沢字馬場８番地の１,,07,308,9601406,,,,,,,2022-08-02,1,,,,,ラニット,0
2041,7470001019192,新規,0,2022-08-02,2022-08-02,株式会社喜和味,,株式会社,香川県,観音寺市,観音寺町甲３０１８番地１,,37,205,7680060,,,,,,,2022-08-02,1,,,,,キワミ,0
2070,8010401168799,新規,0,2022-08-02,2022-08-02,株式会社フェイス・コーチング,,株式会社,東京都,港区,南青山２丁目２番１５号ＷＩＮ青山５３１,,13,103,1070062,,,,,,,2022-08-02,1,,,,,フェイスコーチング,0
2072,8010403028019,新規,0,2022-08-02,2022-08-02,ＹＬＩＦＩＸ合同会社,,合同会社,東京都,港区,元麻布３丁目１－３６,,13,103,1060046,,,,,,,2022-08-02,1,,,,,ワイリフィックス,0
2073,8010403028175,新規,0,2022-08-02,2022-08-02,ブルーライン企画合同会社,,合同会社,東京都,港区,虎ノ門１丁目１７番１号虎ノ門ヒルズビジネスタワー１５階ＣＩＣＴｏｋｙｏ,,13,103,1050001,,,,,,,2022-08-02,1,,,,,ブルーラインキカク,0
2085,8010803004247,新規,0,2022-08-02,2022-08-02,合同会社鮨１００年,,合同会社,東京都,大田区,久が原１丁目１０番１０号ラヴィール,,13,111,1460085,,,,,,,2022-08-02,1,,,,,スシヒャクネン,0
2086,8010901051331,新規,0,2022-08-02,2022-08-02,株式会社ＲＡＩＮＢＯＷ,,株式会社,東京都,世田谷区,池尻３丁目３０番２号,,13,112,1540001,,,,,,,2022-08-02,1,,,,,レインボー,0
2091,8011001148919,新規,0,2022-08-02,2022-08-02,株式会社ＡｑｕａＸ,,株式会社,東京都,渋谷区,広尾５丁目２３番５号長谷部第１ビル１階,,13,113,1500012,,,,,,,2022-08-02,1,,,,,アクアエックス,0
2094,8011101099731,新規,0,2022-08-02,2022-08-02,株式会社ＣＩＲＣＬＥ,,株式会社,東京都,新宿区,歌舞伎町２丁目１７番４号コリンズビル３７Ｂ１,,13,104,1600021,,,,,,,2022-08-02,1,,,,,サークル,0
2096,8011103012031,新規,0,2022-08-02,2022-08-02,合同会社ＥＳＳＥＮＴＩＡＬ,,合同会社,東京都,新宿区,大久保３丁目８－３ラトゥール新宿ガーデン２４１６,,13,104,1690072,,,,,,,2022-08-02,1,,,,,エッセンシャル,0
2099,8011301027995,新規,0,2022-08-02,2022-08-02,株式会社クロガネ,,株式会社,東京都,杉並区,清水１丁目１－８－１０３号室,,13,115,1670033,,,,,,,2022-08-02,1,,,,,クロガネ,0
2103,8011501028331,新規,0,2022-08-02,2022-08-02,ＹＬＣ総合サービス株式会社,,株式会社,東京都,北区,田端１丁目５－４,,13,117,1140014,,,,,,,2022-08-02,1,,,,,ワイエルシーソウゴウサービス,0
2111,8012401039476,新規,0,2022-08-02,2022-08-02,株式会社トトノイ,,株式会社,東京都,武蔵野市,吉祥寺本町４丁目２６番３号ドルミローナ吉祥寺２０１,,13,203,1800004,,,,,,,2022-08-02,1,,,,,トトノイ,0
2114,8012701017173,新規,0,2022-08-02,2022-08-02,株式会社ブレードワークス,,株式会社,東京都,東村山市,萩山町１丁目７番地７,,13,213,1890012,,,,,,,2022-08-02,1,,,,,ブレードワークス,0
2120,8020001147517,新規,0,2022-08-02,2022-08-02,株式会社ワッサイ,,株式会社,神奈川県,川崎市川崎区,浅田４丁目１１番１５－１号,,14,131,2100847,,,,,,,2022-08-02,1,,,,,ワッサイ,0
2121,8020001147574,新規,0,2022-08-02,2022-08-02,株式会社Ｃａｅｌｕｍ,,株式会社,神奈川県,横浜市栄区,中野町１２８番地,,14,115,2470015,,,,,,,2022-08-02,1,,,,,カエルム,0
2129,8021001076631,新規,0,2022-08-02,2022-08-02,株式会社エイワイ,,株式会社,神奈川県,相模原市南区,旭町２番４号,,14,153,2520304,,,,,,,2022-08-02,1,,,,,エイワイ,0
2152,8040005021690,新規,0,2022-08-02,2022-08-02,一般社団法人令和政治社会問題研究所,,その他の設立登記法人,千葉県,松戸市,古ケ崎２丁目３２６６番地の１,,12,207,2710068,,,,,,,2022-08-02,1,,,,,レイワセイジシャカイモンダイケンキュウジョ,0
2156,8070001039486,新規,0,2022-08-02,2022-08-02,ダイナム総合サービス株式会社,,株式会社,群馬県,前橋市,上長磯町２４７番地１,,10,201,3792165,,,,,,,2022-08-02,1,,,,,ダイナムソウゴウサービス,0
2158,8070003004570,新規,0,2022-08-02,2022-08-02,合同会社ｔｎ．,,合同会社,群馬県,高崎市,上並榎町１１１７番地５ＰＩＳＴＥ１０１,,10,202,3700801,,,,,,,2022-08-02,1,,,,,ティーエヌ,0
2161,8080101023455,新規,0,2022-08-02,2022-08-02,株式会社湯海ホールディングス,,株式会社,静岡県,伊豆市,土肥６７０番地の２,,22,222,4103302,,,,,,,2022-08-02,1,,,,,ユカイホールディングス,0
2164,8080401025977,新規,0,2022-08-02,2022-08-02,ＯＲＧＡＮＩＣ　ＧＲＥＥＮ　ＴＥＡ　ＬＩＦＥ株式会社,,株式会社,静岡県,浜松市中区,常盤町１３８番地の８ローレルコート常盤２０３号,,22,131,4300917,,,,,,,2022-08-02,1,,,,,オーガニックグリーンティーライフ,0
2167,8100001035564,新規,0,2022-08-02,2022-08-02,ゲノム研究所株式会社,,株式会社,長野県,佐久市,猿久保８７３番地１０－６０５,,20,217,3850011,,,,,,,2022-08-02,1,,,,,ゲノムケンキュウショ,0
2168,8100001035572,新規,0,2022-08-02,2022-08-02,株式会社ｓｌｏｅｓ,,株式会社,長野県,小諸市,八幡町２丁目５番１３号３０７,,20,208,3840016,,,,,,,2022-08-02,1,,,,,スロウス,0
2187,8120001247793,新規,0,2022-08-02,2022-08-02,株式会社アークウェオニー,,株式会社,大阪府,大阪市中央区,南船場２丁目３番４号日宝長堀ビル６０７号,,27,128,5420081,,,,,,,2022-08-02,1,,,,,アークウェオニー,0
2188,8120001247851,新規,0,2022-08-02,2022-08-02,株式会社ＭＥＡＴＳ,,株式会社,大阪府,大阪市此花区,梅香３丁目２９－２,,27,104,5540013,,,,,,,2022-08-02,1,,,,,ミーツ,0
2204,8120101065996,新規,0,2022-08-02,2022-08-02,株式会社アイル,,株式会社,大阪府,堺市中区,東山８３１番地６,,27,142,5998247,,,,,,,2022-08-02,1,,,,,アイル,0
2205,8120101066012,新規,0,2022-08-02,2022-08-02,司耀電子株式会社,,株式会社,大阪府,大阪狭山市,山本北１３４９－１,,27,231,5890035,,,,,,,2022-08-02,1,,,,,シヨウデンシ,0
2206,8120103004795,新規,0,2022-08-02,2022-08-02,Ｒ　Ｓｔｙｌｅ合同会社,,合同会社,大阪府,松原市,北新町３丁目９番１９号,,27,217,5800025,,,,,,,2022-08-02,1,,,,,アールスタイル,0
2213,8130001072316,新規,0,2022-08-02,2022-08-02,株式会社ＴＢＫメディカルマネジメント,,株式会社,京都府,京都市下京区,五条通室町東入醍醐町２６８番地リーガル京都烏丸五条通り１１０２号室,,26,106,6008106,,,,,,,2022-08-02,1,,,,,ティービーケーメディカルマネジメント,0
2215,8130003008094,新規,0,2022-08-02,2022-08-02,合同会社すごす,,合同会社,京都府,京都市南区,東九条東岩本町１８,,26,107,6018006,,,,,,,2022-08-02,1,,,,,スゴス,0
2216,8140001126905,新規,0,2022-08-02,2022-08-02,たかた株式会社,,株式会社,兵庫県,三田市,相生町１０－２,,28,219,6691526,,,,,,,2022-08-02,1,,,,,タカタ,0
2217,8140001126921,新規,0,2022-08-02,2022-08-02,株式会社シンクパース,,株式会社,兵庫県,三田市,すずかけ台３丁目４番地２－２番館３０７号,,28,219,6691322,,,,,,,2022-08-02,1,,,,,シンクパース,0
2218,8140001126946,新規,0,2022-08-02,2022-08-02,株式会社コンティニューキャリア,,株式会社,兵庫県,明石市,人丸町５番１３号,,28,203,6730877,,,,,,,2022-08-02,1,,,,,コンティニューキャリア,0
2221,8140003017978,新規,0,2022-08-02,2022-08-02,合同会社川上アセットマネジメント,,合同会社,兵庫県,神戸市須磨区,白川台３丁目６６番地の２,,28,107,6540103,,,,,,,2022-08-02,1,,,,,カワカミアセットマネジメント,0
2235,8170003001756,新規,0,2022-08-02,2022-08-02,合同会社夢の華,,合同会社,和歌山県,和歌山市,和歌浦東２丁目４番１６号,,30,201,6410021,,,,,,,2022-08-02,1,,,,,ユメノハナ,0
2243,8180001152393,新規,0,2022-08-02,2022-08-02,株式会社かのう建築,,株式会社,愛知県,知多市,南巽が丘１丁目１４番地の１,00127387,23,224,4780013,,,,,,,2022-08-02,1,,,,,カノウケンチク,0
2251,8190001029657,新規,0,2022-08-02,2022-08-02,株式会社ユウキロジ,,株式会社,三重県,松阪市,肥留町７８４番地２,,24,204,5152105,,,,,,,2022-08-02,1,,,,,ユウキロジ,0
2260,8220001024968,新規,0,2022-08-02,2022-08-02,株式会社Ｔ１,,株式会社,石川県,金沢市,駅西新町１丁目３９番１０号,,17,201,9200027,,,,,,,2022-08-02,1,,,,,ティーワン,0
2263,8230001019471,新規,0,2022-08-02,2022-08-02,株式会社ＳＩＧＮＡＬ,,株式会社,富山県,富山市,婦中町下轡田６８８番地１４シャーメゾン下轡田１０２号,,16,201,9392716,,,,,,,2022-08-02,1,,,,,シグナル,0
2267,8240001060169,新規,0,2022-08-02,2022-08-02,株式会社ジョイントタイヤサービス,,株式会社,広島県,広島市南区,皆実町４丁目６番１２－２号,,34,103,7340007,,,,,,,2022-08-02,1,,,,,ジョイントタイヤサービス,0
2273,8250001019692,新規,0,2022-08-02,2022-08-02,すこやか防府株式会社,,株式会社,山口県,防府市,大字新田２５４番地の２,,35,206,7470825,,,,,,,2022-08-02,1,,,,,スコヤカホウフ,0
2280,8260003003999,新規,0,2022-08-02,2022-08-02,フォレストグループ合同会社,,合同会社,岡山県,岡山市北区,内山下１丁目１４番５号２０５,,33,101,7000824,,,,,,,2022-08-02,1,,,,,フォレストグループ,0
2281,8270001008603,新規,0,2022-08-02,2022-08-02,株式会社松助,,株式会社,鳥取県,西伯郡伯耆町,久古２２０７番地１,,31,390,6894105,,,,,,,2022-08-02,1,,,,,,0
2286,8290001098444,新規,0,2022-08-02,2022-08-02,福岡リビングライフ株式会社,,株式会社,福岡県,福岡市西区,周船寺３丁目７番２２－６０１号サーパス周船寺,,40,135,8190373,,,,,,,2022-08-02,1,,,,,フクオカリビングライフ,0
2291,8310003004422,新規,0,2022-08-02,2022-08-02,合同会社信歩,,合同会社,長崎県,長崎市,平山台１丁目５番３号,,42,201,8500996,,,,,,,2022-08-02,1,,,,,シンポ,0
2295,8340001024931,新規,0,2022-08-02,2022-08-02,株式会社睦,,株式会社,鹿児島県,志布志市,志布志町田之浦２０７２番地,,46,221,8997212,,,,,,,2022-08-02,1,,,,,ムツミ,0
2297,8360001030762,新規,0,2022-08-02,2022-08-02,株式会社ＧＩＮＯＺＡ,,株式会社,沖縄県,那覇市,おもろまち４丁目１６番５号サンライズＧＩＮＯＺＡ７階,,47,201,9000006,,,,,,,2022-08-02,1,,,,,ギノザ,0
2299,8360003012197,新規,0,2022-08-02,2022-08-02,合同会社大政興業,,合同会社,沖縄県,中頭郡北中城村,字和仁屋１４２番地,,47,327,9012312,,,,,,,2022-08-02,1,,,,,オオマサコウギョウ,0
2304,8370001048861,新規,0,2022-08-02,2022-08-02,株式会社エターナル,,株式会社,宮城県,仙台市青葉区,中央１丁目２番地３仙台マークワン１９Ｆ,,04,101,9800021,,,,,,,2022-08-02,1,,,,,エターナル,0
2305,8370001048878,新規,0,2022-08-02,2022-08-02,株式会社Ｆａｉｃｅ,,株式会社,宮城県,名取市,小山１丁目５番１３号サニースクウェア小山２０１号,,04,207,9811233,,,,,,,2022-08-02,1,,,,,フェイス,0
2314,8430001087176,新規,0,2022-08-02,2022-08-02,株式会社かりゆしファーム,,株式会社,北海道,浦河郡浦河町,字東栄５８８番地の９,,01,607,0593461,,,,,,,2022-08-02,1,,,,,カリユシファーム,0
2316,8430003014145,新規,0,2022-08-02,2022-08-02,合同会社ゆうせつ札幌,,合同会社,北海道,札幌市北区,拓北四条１丁目５番８号,,01,102,0028064,,,,,,,2022-08-02,1,,,,,ユウセツサッポロ,0
2322,8450001013758,新規,0,2022-08-02,2022-08-02,株式会社ＹＵ‐ｍｅ,,株式会社,北海道,上川郡剣淵町,東町７９番地,,01,465,0980341,,,,,,,2022-08-02,1,,,,,,0
2323,8460001005721,新規,0,2022-08-02,2022-08-02,株式会社ＣＲ．ｒｉｄｅ,,株式会社,北海道,釧路市,星が浦北３丁目３番５号,,01,206,0840911,,,,,,,2022-08-02,1,,,,,シーアールライド,0
2344,9010001228424,新規,0,2022-08-02,2022-08-02,株式会社Ｆｌｙｂｙ,,株式会社,東京都,中央区,銀座１丁目１２－４Ｎ＆ＥＢＬＤ．７階,,13,102,1040061,,,,,,,2022-08-02,1,,,,,フライバイ,0
2345,9010001228465,新規,0,2022-08-02,2022-08-02,株式会社プレミア・ブライトコネクト,,株式会社,東京都,千代田区,麹町２丁目４番地１,,13,101,1020083,,,,,,,2022-08-02,1,,,,,プレミアブライトコネクト,0
2346,9010001228473,新規,0,2022-08-02,2022-08-02,株式会社セブン・ジェイ・デジタル・パートナーズ,,株式会社,東京都,千代田区,有楽町１丁目７番１号,,13,101,1000006,,,,,,,2022-08-02,1,,,,,セブンジェイデジタルパートナーズ,0
2358,9010401168773,新規,0,2022-08-02,2022-08-02,株式会社スイッチ,,株式会社,東京都,港区,西麻布４丁目２－６菱和パレス西麻布２０８号,,13,103,1060031,,,,,,,2022-08-02,1,,,,,スイッチ,0
2362,9010701043024,新規,0,2022-08-02,2022-08-02,チカラ企画株式会社,,株式会社,東京都,品川区,西五反田４丁目１８－５大村ビル２Ｆ,,13,109,1410031,,,,,,,2022-08-02,1,,,,,チカラキカク,0
2366,9010803004221,新規,0,2022-08-02,2022-08-02,合同会社ＤＥＥＰ,,合同会社,東京都,大田区,蒲田４丁目４７番６Ｔｒｕｍｐｔｏｗｅｒ９０５,,13,111,1440052,,,,,,,2022-08-02,1,,,,,ディープ,0
2372,9011001148926,新規,0,2022-08-02,2022-08-02,マーヴェリックス・ベンチャーズ株式会社,,株式会社,東京都,渋谷区,渋谷２丁目１０番２号渋谷２丁目ビル２Ｆ,,13,113,1500002,,,,,,,2022-08-02,1,,,,,マーヴェリックスベンチャーズ,0
2378,9011401024446,新規,0,2022-08-02,2022-08-02,株式会社ｙｏｕｒｃｏｍｍｅｒｃｅ,,株式会社,東京都,板橋区,南常盤台１丁目１１番地６号レフア南常盤台１０１号室,,13,119,1740072,,,,,,,2022-08-02,1,,,,,ユアコマース,0
2382,9011501028347,新規,0,2022-08-02,2022-08-02,株式会社エモーション,,株式会社,東京都,北区,赤羽北２丁目３１番１６号アクトピア北赤羽壱番館１１８－Ｂ号,,13,117,1150052,,,,,,,2022-08-02,1,,,,,エモーション,0
2384,9011601026151,新規,0,2022-08-02,2022-08-02,株式会社Ｒ‐Ｃｏｎｓｕｌｔｉｎｇ,,株式会社,東京都,練馬区,東大泉３丁目３６－１５,,13,120,1780063,,,,,,,2022-08-02,1,,,,,アールコンサルティング,0
2386,9011801041082,新規,0,2022-08-02,2022-08-02,株式会社皐月,,株式会社,東京都,足立区,綾瀬７丁目２２番７号ブラウンパレス第２、４０５,,13,121,1200005,,,,,,,2022-08-02,1,,,,,コウゲツ,0
2389,9012403005525,新規,0,2022-08-02,2022-08-02,よろずやねっと合同会社,,合同会社,東京都,小金井市,東町１丁目４０番１１号,,13,210,1840011,,,,,,,2022-08-02,1,,,,,ヨロズヤネット,0
2396,9013103001153,新規,0,2022-08-02,2022-08-02,ｍａｎｕａｌ合同会社,,合同会社,東京都,青梅市,新町９丁目３番地の１－Ａ１０２,,13,205,1980024,,,,,,,2022-08-02,1,,,,,マニュアル,0
2407,9020001147441,新規,0,2022-08-02,2022-08-02,株式会社ウッドビー,,株式会社,神奈川県,川崎市高津区,二子４丁目１３－１５和光マンション１０１号室,,14,134,2130002,,,,,,,2022-08-02,1,,,,,ウッドビー,0
2412,9020003022205,新規,0,2022-08-02,2022-08-02,ＫＹＣＣ合同会社,,合同会社,神奈川県,川崎市麻生区,上麻生１丁目１５番１２－３０３号,,14,137,2150021,,,,,,,2022-08-02,1,,,,,ケーワイシーシー,0
2413,9020005015611,新規,0,2022-08-02,2022-08-02,ファーストクラス子安駅管理組合法人,,その他の設立登記法人,神奈川県,横浜市神奈川区,子安通１丁目３番地４,,14,102,2210021,,,,,,,2022-08-02,1,,,,,ファーストクラスコヤスエキ,0
2417,9021003011998,新規,0,2022-08-02,2022-08-02,合同会社Ｒｅ　ｃｒａ　ｔｕｃｌｅ,,合同会社,神奈川県,愛甲郡愛川町,中津３２４番地１,,14,401,2430303,,,,,,,2022-08-02,1,,,,,リクラトゥクル,0
2426,9030003019893,新規,0,2022-08-02,2022-08-02,合同会社ＮＦＴ　Ａｒｔ　Ｃｒｅａｔｏｒｓ,,合同会社,埼玉県,戸田市,下前２丁目５番１２－２０３号,,11,224,3350016,,,,,,,2022-08-02,1,,,,,エヌエフティークリエイターズ,0
2434,9040001124496,新規,0,2022-08-02,2022-08-02,株式会社スワーク,,株式会社,千葉県,印旛郡栄町,安食２１６４－３,,12,329,2701516,,,,,,,2022-08-02,1,,,,,スワーク,0
2435,9040003020537,新規,0,2022-08-02,2022-08-02,ＭＨ・ＴＲＡＤＩＮＧ合同会社,,合同会社,千葉県,印西市,小林２４９１番地１天壇荘２０１号,,12,231,2701318,,,,,,,2022-08-02,1,,,,,エムエイチトレーディング,0
2440,9060001035130,新規,0,2022-08-02,2022-08-02,Ａｄ‐Ｒｏｂｉｎ株式会社,,株式会社,栃木県,宇都宮市,海道町１９５番地４,,09,201,3210971,,,,,,,2022-08-02,1,,,,,アドロビン,0
2449,9070001039493,新規,0,2022-08-02,2022-08-02,株式会社ヨシミズ,,株式会社,群馬県,前橋市,南町３丁目５０番地２－２階Ｄ,,10,201,3710805,,,,,,,2022-08-02,1,,,,,ヨシミズ,0
2454,9080001025105,新規,0,2022-08-02,2022-08-02,株式会社Ｓｕｉｋａ　ｃｈａｎ,,株式会社,静岡県,静岡市駿河区,中島３１７５番地の２,,22,102,4228046,,,,,,,2022-08-02,1,,,,,スイカチャン,0
2455,9080003002845,新規,0,2022-08-02,2022-08-02,ＷＨＩＲＬＷＩＮＤ合同会社,,合同会社,静岡県,静岡市駿河区,池田６６５番地の２ＭＥＬＡＮＺＡＮＡ３０５,,22,102,4228005,,,,,,,2022-08-02,1,,,,,ワールウインド,0
2462,9100001035571,新規,0,2022-08-02,2022-08-02,コモロノ株式会社,,株式会社,長野県,小諸市,八幡町２丁目５番１３号３０７,,20,208,3840016,,,,,,,2022-08-02,1,,,,,コモロノ,0
2475,9120001247842,新規,0,2022-08-02,2022-08-02,株式会社ｚｅｒｏ‐ＯＮＥ,,株式会社,大阪府,大阪市中央区,東心斎橋２丁目８番３号日宝笠屋町会館２階,,27,128,5420083,,,,,,,2022-08-02,1,,,,,ゼロワン,0
2479,9120003022194,新規,0,2022-08-02,2022-08-02,合同会社まなじゅうざ,,合同会社,大阪府,大阪市東住吉区,西今川３丁目１４番１号,,27,121,5460042,,,,,,,2022-08-02,1,,,,,マナジュウザ,0
2481,9120101065987,新規,0,2022-08-02,2022-08-02,株式会社ＡＬＬ　ＡＣＣＥＰＴ,,株式会社,大阪府,堺市堺区,南三国ヶ丘町３丁２番１９－２０３号,,27,141,5900023,,,,,,,2022-08-02,1,,,,,オールアクセプト,0
2482,9120101066003,新規,0,2022-08-02,2022-08-02,ＷＯＮＤＥＲＦＵＬ　ＷＯＲＬＤ株式会社,,株式会社,大阪府,羽曳野市,大黒３５０番地の６,,27,222,5830847,,,,,,,2022-08-02,1,,,,,ワンダフルワールド,0
2488,9140001126945,新規,0,2022-08-02,2022-08-02,株式会社ネクストロジアイ,,株式会社,兵庫県,神戸市中央区,神仙寺通４丁目７－９－２,,28,110,6510051,,,,,,,2022-08-02,1,,,,,ネクストロジアイ,0
2489,9140001126953,新規,0,2022-08-02,2022-08-02,株式会社サヴァイヴ,,株式会社,兵庫県,丹波市,春日町野村２５６１番地,,28,223,6694132,,,,,,,2022-08-02,1,,,,,サヴァイヴ,0
2492,9140003017977,新規,0,2022-08-02,2022-08-02,合同会社Ｐ＆Ｉ,,合同会社,兵庫県,神戸市北区,日の峰５丁目１０番地４―７０３,,28,109,6511233,,,,,,,2022-08-02,1,,,,,ピーアンドアイ,0
2493,9140003017985,新規,0,2022-08-02,2022-08-02,合同会社トゥイ・シン,,合同会社,兵庫県,丹波市,柏原町柏原３６２番地,,28,223,6693309,,,,,,,2022-08-02,1,,,,,トゥイシン,0
2495,9160001024412,新規,0,2022-08-02,2022-08-02,株式会社ケイアイ,,株式会社,滋賀県,長浜市,新庄中町１８７番地４,,25,203,5260012,,,,,,,2022-08-02,1,,,,,ケイアイ,0
2514,9190001029656,新規,0,2022-08-02,2022-08-02,株式会社伊賀芙蓉,,株式会社,三重県,伊賀市,上野茅町２７０６番地,,24,216,5180838,,,,,,,2022-08-02,1,,,,,イガフヨウ,0
2521,9210003001544,新規,0,2022-08-02,2022-08-02,合同会社ＮａｖｉＰｅｎ,,合同会社,福井県,敦賀市,昭和町２丁目１５番１０号,,18,202,9140812,,,,,,,2022-08-02,1,,,,,ナビペン,0
2523,9220001024967,新規,0,2022-08-02,2022-08-02,株式会社Ｔ・ｄｅｎｓｅｔｓｕ,,株式会社,石川県,能美市,大浜町亥１６番地２,,17,211,9290122,,,,,,,2022-08-02,1,,,,,ティーデンセツ,0
2527,9240003005740,新規,0,2022-08-02,2022-08-02,広島竹林合同会社,,合同会社,広島県,広島市西区,南観音２丁目１－４２,,34,104,7330035,,,,,,,2022-08-02,1,,,,,ヒロシマタケバヤシ,0
2530,9250001019691,新規,0,2022-08-02,2022-08-02,株式会社ＡＩＯ,,株式会社,山口県,山口市,秋穂東６４８番地１３７,,35,203,7541101,,,,,,,2022-08-02,1,,,,,アイオ,0
2532,9260001037098,新規,0,2022-08-02,2022-08-02,株式会社ＳＢＭ,,株式会社,岡山県,岡山市南区,新保１１３８番地１５,,33,104,7000945,,,,,,,2022-08-02,1,,,,,エスビーエム,0
2542,9290001098419,新規,0,2022-08-02,2022-08-02,株式会社新川商事,,株式会社,福岡県,飯塚市,佐與１２１７番地,,40,205,8201113,,,,,,,2022-08-02,1,,,,,シンカワショウジ,0
2543,9290001098443,新規,0,2022-08-02,2022-08-02,株式会社ディーパレッタ,,株式会社,福岡県,福岡市博多区,下呉服町３番２３－１４０５号,,40,132,8120034,,,,,,,2022-08-02,1,,,,,ディーパレッタ,0
2548,9290801028772,新規,0,2022-08-02,2022-08-02,株式会社詠悠,,株式会社,福岡県,北九州市八幡西区,幸神２丁目１番２１号,,40,109,8060055,,,,,,,2022-08-02,1,,,,,エイユウ,0
2551,9310003004421,新規,0,2022-08-02,2022-08-02,合同会社ＷＯＶ,,合同会社,長崎県,佐世保市,栄町３－１５　２Ｆ,,42,202,8570054,,,,,,,2022-08-02,1,,,,,ダブルオーファイブ,0
2556,9330001029996,新規,0,2022-08-02,2022-08-02,株式会社Ｃ．サイカ,,株式会社,熊本県,熊本市北区,植木町清水３８１０番地,,43,105,8610103,,,,,,,2022-08-02,1,,,,,シーサイカ,0
2563,9360001030753,新規,0,2022-08-02,2022-08-02,株式会社美らの家,,株式会社,沖縄県,那覇市,古波蔵１丁目３２番１２号カスティーロパレス１階,,47,201,9000024,,,,,,,2022-08-02,1,,,,,チュラノイエ,0
2565,9360003012196,新規,0,2022-08-02,2022-08-02,合同会社オールブルー,,合同会社,沖縄県,那覇市,字真地３４５番地１ティダ・コートＢ－２０１,,47,201,9020072,,,,,,,2022-08-02,1,,,,,オールブルー,0
2568,9370003005793,新規,0,2022-08-02,2022-08-02,合同会社奥友,,合同会社,宮城県,大崎市,古川福沼２丁目４番５３号,,04,215,9896105,,,,,,,2022-08-02,1,,,,,オクトモ,0
2571,9380001033028,新規,0,2022-08-02,2022-08-02,株式会社Ｔ・ＴＥＸ,,株式会社,福島県,福島市,渡利字柳小路５０番地の７,,07,201,9608141,,,,,,,2022-08-02,1,,,,,ティーテックス,0
2575,9400001015956,新規,0,2022-08-02,2022-08-02,株式会社樹の里,,株式会社,岩手県,花巻市,高木第１８地割４番地１,,03,205,0250016,,,,,,,2022-08-02,1,,,,,キノサト,0
2580,9430001087175,新規,0,2022-08-02,2022-08-02,株式会社丸達水産,,株式会社,北海道,室蘭市,東町３丁目１番１２号,,01,205,0500083,,,,,,,2022-08-02,1,,,,,マルタツスイサン,0
2584,9430003014144,新規,0,2022-08-02,2022-08-02,合同会社Ｌｉｅｎ,,合同会社,北海道,札幌市中央区,南六条西３丁目６番２２号,,01,101,0640806,,,,,,,2022-08-02,1,,,,,リアン,0
2585,9430003014152,新規,0,2022-08-02,2022-08-02,合同会社ＡＮＥＬＬＯ,,合同会社,北海道,札幌市東区,北十二条東５丁目１番３５号,,01,103,0650012,,,,,,,2022-08-02,1,,,,,アネッロ,0
2588,9460101007229,新規,0,2022-08-02,2022-08-02,株式会社アグリ・プロ,,株式会社,北海道,河東郡音更町,字東和東１線３３番地,,01,631,0800151,,,,,,,2022-08-02,1,,,,,アグリプロ,0
2589,9470001019190,新規,0,2022-08-02,2022-08-02,株式会社Ｗ,,株式会社,香川県,高松市,多賀町２丁目１番１３号市川ビル３階,,37,201,7600063,,,,,,,2022-08-02,1,,,,,ダブリュー,0
