sequenceNumber,corporateNumber,process,correct,updateDate,changeDate,name,nameImageId,kind,prefectureName,cityName,streetNumber,addressImageId,prefectureCode,cityCode,postCode,addressOutside,addressOutsideImageId,closeDate,closeCause,successorCorporateNumber,changeCause,assignmentDate,latest,enName,enPrefectureName,enCityName,enAddressOutside,furigana,hihyoji
34,1010801008025,登記記録の閉鎖等,0,2022-08-26,2022-08-22,株式会社東亜,,株式会社,東京都,大田区,東六郷３丁目２５番７号,,13,111,1440046,,,2022-08-22,清算の結了等,,,2015-10-05,1,,,,,トウア,0
69,1011702005128,登記記録の閉鎖等,0,2022-08-26,2022-08-24,有限会社三洋シール,,有限会社,東京都,江戸川区,東瑞江２丁目４８番地,,13,123,1320014,,,2022-08-24,清算の結了等,,,2015-10-05,1,,,,,サンヨウシール,0
105,1040002040568,登記記録の閉鎖等,0,2022-08-26,2022-08-16,有限会社尾頭工務店,,有限会社,千葉県,浦安市,当代島２丁目１４番４０号,,12,227,2790001,,,2022-08-16,清算の結了等,,,2015-10-05,1,,,,,オガシラコウムテン,0
106,1040002055418,登記記録の閉鎖等,0,2022-08-26,2022-08-18,有限会社鶴田川魚店,00020316,有限会社,千葉県,成田市,長沼１０５８番地,,12,211,2860804,,,2022-08-18,清算の結了等,,,2015-10-05,1,,,,,ツルタカワウテン,0
138,1120001188029,登記記録の閉鎖等,0,2022-08-26,2022-08-24,株式会社グローバル企画,,株式会社,大阪府,大阪市中央区,宗右衛門町４番１０号,,27,128,5420084,,,2022-08-24,清算の結了等,,,2015-10-05,1,,,,,グローバルキカク,0
139,1120001191833,登記記録の閉鎖等,0,2022-08-26,2022-08-24,株式会社アスカ,,株式会社,大阪府,大阪市平野区,瓜破東８丁目８番１０号,,27,126,5470022,,,2022-08-24,清算の結了等,,,2015-10-05,1,,,,,,0
143,1120002026914,登記記録の閉鎖等,0,2022-08-26,2022-08-22,有限会社ケイ興業,,有限会社,大阪府,大阪市住吉区,帝塚山中１丁目９番２３号,,27,120,5580053,,,2022-08-22,合併による解散等,9120001055386,令和４年８月２０日大阪市住吉区帝塚山中一丁目９番２３号株式会社サザンクロス（9120001055386）に合併し解散,2015-10-05,1,,,,,ケイコウギョウ,0
156,1130001017962,登記記録の閉鎖等,0,2022-08-26,2022-08-23,株式会社武内伊助本店,,株式会社,京都府,京都市下京区,松原通烏丸東入因幡堂町６８６番地,,26,106,6008415,,,2022-08-23,清算の結了等,,,2015-10-05,1,,,,,タケウチイスケホンテン,0
164,1140001011717,登記記録の閉鎖等,0,2022-08-26,2022-08-24,株式会社渡辺智郎商店,,株式会社,兵庫県,神戸市中央区,八雲通４丁目２番８号,,28,110,6510078,,,2022-08-24,清算の結了等,,,2015-10-05,1,,,,,ワタナベチロウショウテン,0
172,1140002059342,登記記録の閉鎖等,0,2022-08-26,2022-08-23,有限会社山橋,,有限会社,兵庫県,西宮市,城ケ堀町３番２４号,,28,204,6620856,,,2022-08-23,清算の結了等,,,2015-10-05,1,,,,,ヤマハシ,0
188,1200001011586,登記記録の閉鎖等,0,2022-08-26,2022-08-25,株式会社名岐木材センター,,株式会社,岐阜県,羽島郡岐南町,伏屋９丁目７０番地,,21,302,5016006,,,2022-08-25,清算の結了等,,,2015-10-05,1,,,,,メイギモクザイセンター,0
217,1320001006459,登記記録の閉鎖等,0,2022-08-26,2022-08-24,株式会社日本山人参研究所,,株式会社,大分県,別府市,中島町１３番２２号,,44,202,8740901,,,2022-08-24,清算の結了等,,,2015-10-05,1,,,,,ニホンヤマニンジンケンキュウショ,0
223,1350001007735,登記記録の閉鎖等,0,2022-08-26,2022-08-25,株式会社かわの産業,,株式会社,宮崎県,宮崎市,大塚町横立１４０３番地４２,,45,201,8800951,,,2022-08-25,清算の結了等,,,2015-10-05,1,,,,,カワノサンギョウ,0
228,1360001007676,登記記録の閉鎖等,0,2022-08-26,2022-08-12,株式会社ビーエイチ商事,,株式会社,沖縄県,うるま市,字栄野比９３番地の７,,47,213,9042205,,,2022-08-12,清算の結了等,,,2015-10-05,1,,,,,ビーエイチショウジ,0
244,1420002011431,登記記録の閉鎖等,0,2022-08-26,2022-08-24,有限会社山本スポーツ,,有限会社,青森県,五所川原市,字本町２番地２,,02,205,0370071,,,2022-08-24,清算の結了等,,,2015-10-05,1,,,,,,0
249,1430005007500,登記記録の閉鎖等,0,2022-08-26,2022-08-19,特定非営利活動法人ふれあいつつじの会,,その他の設立登記法人,北海道,樺戸郡新十津川町,字花月２０３番地３０,,01,432,0731105,,,2022-08-19,清算の結了等,,,2015-10-05,1,,,,,フレアイツツジノカイ,0
254,1460302000527,登記記録の閉鎖等,0,2022-08-26,2022-08-25,有限会社北見福祉機器販売,,有限会社,北海道,北見市,山下町４丁目４番１３号,,01,208,0900037,,,2022-08-25,清算の結了等,,,2015-10-05,1,,,,,キタミフクシキキハンバイ,0
282,2010401134831,登記記録の閉鎖等,0,2022-08-26,2022-08-16,株式会社ｈｅｄｇｅ,,株式会社,東京都,港区,浜松町２丁目２番１５号ダイヤビル２階,,13,103,1050013,,,2022-08-16,清算の結了等,,,2017-11-07,1,,,,,ヘッジ,0
297,2010802020498,登記記録の閉鎖等,0,2022-08-26,2022-08-18,有限会社キメラ,,有限会社,東京都,大田区,南雪谷２丁目１２番５－７０７号,,13,111,1450066,,,2022-08-18,清算の結了等,,,2015-10-05,1,,,,,キメラ,0
303,2010902002520,登記記録の閉鎖等,0,2022-08-26,2022-08-19,株式会社エス・ティ・オー,,株式会社,東京都,世田谷区,下馬１丁目３１番７号,,13,112,1540002,,,2022-08-19,清算の結了等,,,2015-10-05,1,,,,,エスティオー,0
313,2011001063413,登記記録の閉鎖等,0,2022-08-26,2022-08-24,株式会社アイランドインターナショナル,,株式会社,東京都,三鷹市,下連雀４丁目１６番３９－１０４号,,13,204,1810013,,,2022-08-24,清算の結了等,,,2015-10-05,1,,,,,アイランドインターナショナル,0
333,2011801016677,登記記録の閉鎖等,0,2022-08-26,2022-08-24,株式会社ＥＣＯ・ＲＢＥ,,株式会社,東京都,足立区,扇１丁目５５番１０号,,13,121,1230873,,,2022-08-24,清算の結了等,,,2015-10-05,1,,,,,,0
342,2020001140023,登記記録の閉鎖等,0,2022-08-26,2022-08-23,株式会社ＳＫＣＦ,,株式会社,神奈川県,横浜市鶴見区,小野町１０,,14,101,2300046,,,2022-08-23,清算の結了等,,,2021-02-18,1,,,,,エスケーシーエフ,0
345,2020003019752,登記記録の閉鎖等,0,2022-08-26,2022-08-22,合同会社静和種苗園,,合同会社,神奈川県,川崎市中原区,下小田中１丁目３１番１０号,,14,133,2110041,,,2022-08-22,清算の結了等,,,2021-05-12,1,,,,,セイワシュビョウエン,0
347,2021001022913,登記記録の閉鎖等,0,2022-08-26,2022-08-24,株式会社ティー・エー・エス,,株式会社,神奈川県,秦野市,尾尻９３２番地の１２,,14,211,2570011,,,2022-08-24,清算の結了等,,,2015-10-05,1,,,,,ティーエーエス,0
349,2021001066984,登記記録の閉鎖等,0,2022-08-26,2022-08-23,株式会社幸,,株式会社,神奈川県,足柄下郡真鶴町,真鶴４３７番地の１１,,14,383,2590201,,,2022-08-23,清算の結了等,,,2019-04-09,1,,,,,ユキ,0
352,2021002067924,登記記録の閉鎖等,0,2022-08-26,2022-08-24,有限会社アート商会,,有限会社,神奈川県,逗子市,小坪７丁目２番１６－２０７号,,14,208,2490008,,,2022-08-24,清算の結了等,,,2015-10-05,1,,,,,アートショウカイ,0
353,2030001013418,登記記録の閉鎖等,0,2022-08-26,2022-08-16,株式会社エティックス,,株式会社,埼玉県,さいたま市浦和区,北浦和３丁目２２番１２号,,11,107,3300074,,,2022-08-16,清算の結了等,,,2015-10-05,1,,,,,エティックス,0
362,2040002046498,登記記録の閉鎖等,0,2022-08-26,2022-08-18,有限会社信和,,有限会社,千葉県,松戸市,稔台６０６番地２４,,12,207,2702231,,,2022-08-18,清算の結了等,,,2015-10-05,1,,,,,シンワ,0
382,2120001002576,登記記録の閉鎖等,0,2022-08-26,2022-08-25,株式会社松本電機,,株式会社,大阪府,大阪市鶴見区,今津中３丁目７番７号,,27,124,5380042,,,2022-08-25,清算の結了等,,,2015-10-05,1,,,,,マツモトデンキ,0
402,2122002012736,登記記録の閉鎖等,0,2022-08-26,2022-08-18,有限会社ティーアイオー,,有限会社,大阪府,大東市,三住町２番１９号,,27,218,5740027,,,2022-08-18,清算の結了等,,,2015-10-05,1,,,,,ティーアイオー,0
409,2130005012736,登記記録の閉鎖等,0,2022-08-26,2022-08-18,特定非営利活動法人由良の戸千軒長者の館,,その他の設立登記法人,京都府,宮津市,字由良７６２番地,,26,205,6260071,,,2022-08-18,清算の結了等,,,2015-10-05,1,,,,,ユラノトセンゲンチョウジャノヤカタ,0
411,2140001064103,登記記録の閉鎖等,0,2022-08-26,2022-08-23,株式会社信和テック,,株式会社,兵庫県,姫路市,安富町長野２０３番地の１,,28,201,6712421,,,2022-08-23,清算の結了等,,,2015-10-05,1,,,,,シンワテック,0
434,2180002014714,登記記録の閉鎖等,0,2022-08-26,2022-08-22,宝生青写真工業有限会社,,有限会社,愛知県,名古屋市南区,宝生町１丁目１５番地の１,,23,112,4570828,,,2022-08-22,清算の結了等,,,2015-10-05,1,,,,,ホウセイアオシャシンコウギョウ,0
438,2200003002236,登記記録の閉鎖等,0,2022-08-26,2022-08-25,合資会社ＢＲＡＩＮＳ,,合資会社,岐阜県,関市,桜本町２丁目１８番地４,,21,205,5013232,,,2022-08-25,清算の結了等,,,2015-10-05,1,,,,,ブレインズ,0
445,2230002014469,登記記録の閉鎖等,0,2022-08-26,2022-08-25,有限会社新湊創建,,有限会社,富山県,射水市,本町３丁目１７番２４号,,16,211,9340011,,,2022-08-25,清算の結了等,,,2015-10-05,1,,,,,シンミナトソウケン,0
451,2270001000672,登記記録の閉鎖等,0,2022-08-26,2022-08-23,株式会社福和商店,,株式会社,鳥取県,鳥取市,湖山町東４丁目５番地,,31,201,6800942,,,2022-08-23,清算の結了等,,,2015-10-05,1,,,,,フクワショウテン,0
485,2410001004304,登記記録の閉鎖等,0,2022-08-26,2022-08-24,株式会社秋田原木市場,,株式会社,秋田県,秋田市,川尻町字大川反２３２番地の７,,05,201,0100941,,,2022-08-24,清算の結了等,,,2015-10-05,1,,,,,アキタゲンボクイチバ,0
487,2410002008007,登記記録の閉鎖等,0,2022-08-26,2022-08-24,有限会社山神屋,,有限会社,秋田県,雄勝郡羽後町,西馬音内字本町１１９番地,,05,463,0121131,,,2022-08-24,清算の結了等,,,2015-10-05,1,,,,,ヤマカミヤ,0
503,3010001168601,登記記録の閉鎖等,0,2022-08-26,2022-08-18,光陽ヒューマンサポート株式会社,,株式会社,東京都,中央区,東日本橋１丁目５番６号,,13,102,1030004,,,2022-08-18,清算の結了等,,,2015-10-05,1,,,,,コウヨウヒューマンサポート,0
538,3010901016446,登記記録の閉鎖等,0,2022-08-26,2022-08-22,株式会社ボン・ラボーロ,,株式会社,東京都,世田谷区,野沢３丁目１０番１４号,,13,112,1540003,,,2022-08-22,清算の結了等,,,2015-10-05,1,,,,,ボンラボーロ,0
552,3011103004982,登記記録の閉鎖等,0,2022-08-26,2022-08-23,ＧＧパートナーズ合同会社,,合同会社,東京都,新宿区,住吉町４番１号,,13,104,1620065,,,2022-08-23,清算の結了等,,,2015-10-05,1,,,,,ジージーパートナーズ,0
556,3011801015091,登記記録の閉鎖等,0,2022-08-26,2022-08-24,株式会社マエダ,,株式会社,東京都,足立区,堀之内２丁目７番１３号,,13,121,1230874,,,2022-08-24,清算の結了等,,,2015-10-05,1,,,,,,0
557,3011801024332,登記記録の閉鎖等,0,2022-08-26,2022-08-24,株式会社ワイズワークス,,株式会社,東京都,足立区,関原１丁目１２番４号,,13,121,1230852,,,2022-08-24,清算の結了等,,,2015-10-05,1,,,,,,0
565,3012701004291,登記記録の閉鎖等,0,2022-08-26,2022-08-25,株式会社野島,,株式会社,東京都,東久留米市,氷川台２丁目３７番７号,,13,222,2030004,,,2022-08-25,清算の結了等,,,2015-10-05,1,,,,,ノジマ,0
568,3013301008492,登記記録の閉鎖等,0,2022-08-26,2022-08-23,東南製薬株式会社,,株式会社,東京都,豊島区,池袋３丁目３２番１号,,13,116,1710014,,,2022-08-23,清算の結了等,,,2015-10-05,1,,,,,トウナンセイヤク,0
587,3020002105759,登記記録の閉鎖等,0,2022-08-26,2022-08-23,有限会社ニシ企画,,有限会社,神奈川県,川崎市幸区,戸手本町２丁目２４３番地１,,14,132,2120023,,,2022-08-23,清算の結了等,,,2015-10-05,1,,,,,,0
594,3030001062728,登記記録の閉鎖等,0,2022-08-26,2022-08-04,日本テクノ総合企画株式会社,,株式会社,埼玉県,鴻巣市,本町３丁目６番２８号,,11,217,3650038,,,2022-08-04,清算の結了等,,,2015-10-05,1,,,,,ニホンテクノソウゴウキカク,0
601,3030002056225,登記記録の閉鎖等,0,2022-08-26,2022-08-05,有限会社和久津富士薬品,,有限会社,埼玉県,桶川市,西２丁目７番５６号,,11,231,3630017,,,2022-08-05,清算の結了等,,,2015-10-05,1,,,,,ワクツフジヤクヒン,0
608,3040005001672,登記記録の閉鎖等,0,2022-08-26,2022-08-19,特定非営利活動法人日中友好千葉県緑化協力委員会,,その他の設立登記法人,千葉県,千葉市中央区,新宿１丁目５番８号中村会計ビル３階千葉県日中友好協会内,,12,101,2600021,,,2022-08-19,清算の結了等,,,2015-10-05,1,,,,,,0
624,3120001069838,登記記録の閉鎖等,0,2022-08-26,2022-08-25,藤建物株式会社,,株式会社,大阪府,大阪市北区,西天満５丁目１１番４号,,27,127,5300047,,,2022-08-25,清算の結了等,,,2015-10-05,1,,,,,フジタテモノ,0
625,3120001118033,登記記録の閉鎖等,0,2022-08-26,2022-08-25,東新産業株式会社,,株式会社,大阪府,大阪市中央区,谷町７丁目１番３９－１０１号,,27,128,5420012,,,2022-08-25,清算の結了等,,,2015-10-05,1,,,,,,0
645,3120102028395,登記記録の閉鎖等,0,2022-08-26,2022-08-25,有限会社淡路産業,,有限会社,大阪府,泉大津市,曽根町２丁目１０番２１号,,27,206,5950011,,,2022-08-25,清算の結了等,,,2015-10-05,1,,,,,アワジサンギョウ,0
649,3130001029048,登記記録の閉鎖等,0,2022-08-26,2022-08-12,株式会社ＭＡＹＡ,,株式会社,京都府,京都市山科区,勧修寺縄手町２８番地,,26,110,6078215,,,2022-08-12,清算の結了等,,,2015-10-05,1,,,,,メイヤー,0
656,3140001041365,登記記録の閉鎖等,0,2022-08-26,2022-08-23,株式会社安田工務店,,株式会社,兵庫県,丹波市,氷上町賀茂１０５０番地,,28,223,6693631,,,2022-08-23,清算の結了等,,,2015-10-05,1,,,,,ヤスダコウムテン,0
670,3180302011484,登記記録の閉鎖等,0,2022-08-26,2022-08-23,有限会社成巧通商,,有限会社,愛知県,豊橋市,絹田町６８番地５,,23,201,4400078,,,2022-08-23,清算の結了等,,,2015-10-05,1,,,,,セイコウツウショウ,0
678,3200002006674,登記記録の閉鎖等,0,2022-08-26,2022-08-24,有限会社Ｇ－Ｓｕｐｐｏｒｔ,,有限会社,岐阜県,岐阜市,木ノ本町２丁目８番地,,21,201,5008867,,,2022-08-24,清算の結了等,,,2015-10-05,1,,,,,ジーサポート,0
692,3260005001213,登記記録の閉鎖等,0,2022-08-26,2022-08-23,協同組合枡本,,その他の設立登記法人,岡山県,岡山市北区,本町１０番２２号,,33,101,7000901,,,2022-08-23,清算の結了等,,,2015-10-05,1,,,,,マスモト,0
707,3350002013623,登記記録の閉鎖等,0,2022-08-26,2022-08-23,有限会社ひむか警備保障,,有限会社,宮崎県,延岡市,出北６丁目３１８５番地３,,45,203,8820856,,,2022-08-23,清算の結了等,,,2015-10-05,1,,,,,ヒムカケイビホショウ,0
709,3360003010197,登記記録の閉鎖等,0,2022-08-26,2022-08-18,岳原合同会社,,合同会社,沖縄県,那覇市,首里山川町２丁目６９番地,,47,201,9030825,,,2022-08-18,清算の結了等,,,2020-04-07,1,,,,,オカハラ,0
711,3370002008919,登記記録の閉鎖等,0,2022-08-26,2022-08-19,有限会社ユーキ工業,,有限会社,宮城県,仙台市宮城野区,蒲生字南城道田５番地の８４,,04,102,9830002,,,2022-08-19,清算の結了等,,,2015-10-05,1,,,,,ユーキコウギョウ,0
717,3380002007944,登記記録の閉鎖等,0,2022-08-26,2022-08-22,有限会社乾メディカル,,有限会社,福島県,郡山市,八山田３丁目６８番地,,07,203,9638052,,,2022-08-22,清算の結了等,,,2015-10-05,1,,,,,イヌイメディカル,0
757,4010601016233,登記記録の閉鎖等,0,2022-08-26,2022-08-19,モルケミカル株式会社,,株式会社,東京都,墨田区,江東橋５丁目９番８－２０５号,,13,107,1300022,,,2022-08-19,清算の結了等,,,2015-10-05,1,,,,,,0
770,4010801023401,登記記録の閉鎖等,0,2022-08-26,2022-08-18,株式会社グランマルク,,株式会社,東京都,大田区,東矢口２丁目９番５号,,13,111,1460094,,,2022-08-18,清算の結了等,,,2015-10-05,1,,,,,,0
800,4012402015760,登記記録の閉鎖等,0,2022-08-26,2022-08-24,有限会社Ｐｒｏ　Ｔｅｃｈ,,有限会社,東京都,狛江市,岩戸北１丁目１１番８号,,13,219,2010004,,,2022-08-24,清算の結了等,,,2015-10-05,1,,,,,プロテック,0
804,4013202006875,登記記録の閉鎖等,0,2022-08-26,2022-08-08,有限会社若葉,,有限会社,東京都,目黒区,青葉台１丁目２４番６号,,13,110,1530042,,,2022-08-08,清算の結了等,,,2015-10-05,1,,,,,ワカバ,0
816,4020002082956,登記記録の閉鎖等,0,2022-08-26,2022-08-22,有限会社石井青果,,有限会社,神奈川県,川崎市中原区,上新城２丁目６番１７号,,14,133,2110045,,,2022-08-22,清算の結了等,,,2015-10-05,1,,,,,イシイセイカ,0
820,4021001015840,登記記録の閉鎖等,0,2022-08-26,2022-08-23,株式会社エルスタービジュー,,株式会社,神奈川県,相模原市南区,北里１丁目９番６号,,14,153,2520329,,,2022-08-23,清算の結了等,,,2015-10-05,1,,,,,エルスタービジュー,0
822,4021005002158,登記記録の閉鎖等,0,2022-08-26,2022-08-24,特定非営利活動法人暮らしいきいきサポートの会かながわ,,その他の設立登記法人,神奈川県,鎌倉市,大船１丁目１４番２４号,,14,204,2470056,,,2022-08-24,清算の結了等,,,2015-10-05,1,,,,,クラシイキイキサポートノカイカナガワ,0
827,4030001126317,登記記録の閉鎖等,0,2022-08-26,2022-08-17,株式会社ＳＴＹＬＥ　ＡＩＤＥ,,株式会社,埼玉県,所沢市,大字山口２８８番地の１,,11,208,3591145,,,2022-08-17,清算の結了等,,,2018-06-25,1,,,,,スタイルエード,0
843,4050001043097,登記記録の閉鎖等,0,2022-08-26,2022-08-23,株式会社ＴＢＴサービス,,株式会社,茨城県,水戸市,百合が丘町１０番地の１００,,08,201,3111134,,,2022-08-23,清算の結了等,,,2017-07-20,1,,,,,ティービーティーサービス,0
851,4080401013721,登記記録の閉鎖等,0,2022-08-26,2022-08-24,株式会社プラスブライト,,株式会社,静岡県,浜松市東区,豊西町１９３９番地の１,,22,132,4313102,,,2022-08-24,清算の結了等,,,2015-10-05,1,,,,,プラスブライト,0
852,4090005002871,登記記録の閉鎖等,0,2022-08-26,2022-08-25,特定非営利活動法人こるだ,,その他の設立登記法人,山梨県,甲斐市,大下条２７３番地８,,19,210,4000126,,,2022-08-25,清算の結了等,,,2015-10-05,1,,,,,コルダ,0
873,4120003009080,登記記録の閉鎖等,0,2022-08-26,2022-08-23,合同会社阿蘇小国ひかりの丘プロジェクト,,合同会社,大阪府,大阪市天王寺区,玉造元町２番３２－２０３号,,27,109,5430014,,,2022-08-23,清算の結了等,,,2015-10-05,1,,,,,アソヒカリノモリプロジェクト,0
874,4120101008546,登記記録の閉鎖等,0,2022-08-26,2022-08-25,株式会社山尾本店,,株式会社,大阪府,堺市西区,浜寺石津町東１丁２番８号,,27,144,5928335,,,2022-08-25,清算の結了等,,,2015-10-05,1,,,,,ヤマオホンテン,0
898,4180001082495,登記記録の閉鎖等,0,2022-08-26,2022-08-23,株式会社後藤鑑定事務所,,株式会社,愛知県,一宮市,今伊勢町本神戸字高野池３３番地の１,,23,203,4910053,,,2022-08-23,清算の結了等,,,2015-10-05,1,,,,,ゴトウカンテイジムショ,0
936,4300001005807,登記記録の閉鎖等,0,2022-08-26,2022-08-19,株式会社森商会,,株式会社,佐賀県,西松浦郡有田町,南原甲７９３番地,,41,401,8440027,,,2022-08-19,清算の結了等,,,2015-10-05,1,,,,,モリショウカイ,0
973,5010001095224,登記記録の閉鎖等,0,2022-08-26,2022-08-17,株式会社亜細亜管財,,株式会社,東京都,千代田区,紀尾井町３番６号,,13,101,1020094,,,2022-08-17,清算の結了等,,,2015-10-05,1,,,,,アジアカンザイ,0
974,5010001116277,登記記録の閉鎖等,0,2022-08-26,2022-08-17,株式会社太平洋土木,,株式会社,東京都,千代田区,紀尾井町３番６号,,13,101,1020094,,,2022-08-17,清算の結了等,,,2015-10-05,1,,,,,タイヘイヨウドボク,0
992,5010602020134,登記記録の閉鎖等,0,2022-08-26,2022-08-24,有限会社ケイ・エム・日光,,有限会社,東京都,墨田区,墨田３丁目２７番１３号,,13,107,1310031,,,2022-08-24,清算の結了等,,,2015-10-05,1,,,,,ケイエムニッコウ,0
999,5010802016221,登記記録の閉鎖等,0,2022-08-26,2022-08-19,トラベル・ゲッツ有限会社,,有限会社,東京都,大田区,蒲田２丁目５番２号ラフィネモナミ,,13,111,1440052,,,2022-08-19,清算の結了等,,,2015-10-05,1,,,,,トラベルゲッツ,0
1027,5011502011479,登記記録の閉鎖等,0,2022-08-26,2022-08-23,有限会社明美印刷,,有限会社,東京都,荒川区,町屋６丁目３２番７号,,13,118,1160001,,,2022-08-23,清算の結了等,,,2015-10-05,1,,,,,メイビインサツ,0
1034,5012402005158,登記記録の閉鎖等,0,2022-08-26,2022-08-25,有限会社大惠,,有限会社,東京都,小金井市,本町５丁目１３番１－７０１号,,13,210,1840004,,,2022-08-25,清算の結了等,,,2015-10-05,1,,,,,ダイケイ,0
1055,5020002069548,登記記録の閉鎖等,0,2022-08-26,2022-08-19,有限会社リット,,有限会社,神奈川県,横浜市保土ケ谷区,上星川３丁目２１番２－７０８号,,14,106,2400042,,,2022-08-19,清算の結了等,,,2015-10-05,1,,,,,リット,0
1109,5120001070075,登記記録の閉鎖等,0,2022-08-26,2022-08-25,株式会社ＴＳインターナショナル,,株式会社,大阪府,大阪市中央区,谷町７丁目１番３９－１０１号,,27,128,5420012,,,2022-08-25,清算の結了等,,,2015-10-05,1,,,,,,0
1139,5150001017890,登記記録の閉鎖等,0,2022-08-26,2022-08-25,吉村工業株式会社,00083374,株式会社,東京都,江戸川区,中葛西５丁目４１番８号,,13,123,1340083,,,2022-08-25,清算の結了等,,,2015-10-05,1,,,,,ヨシムラコウギョウ,0
1148,5180003016021,登記記録の閉鎖等,0,2022-08-26,2022-08-22,合資会社一心,,合資会社,愛知県,名古屋市天白区,島田１丁目８０１番地ライオンズマンション島田橋公園９０１号,,23,116,4680056,,,2022-08-22,清算の結了等,,,2015-10-05,1,,,,,イッシン,0
1162,5230001006613,登記記録の閉鎖等,0,2022-08-26,2022-08-24,株式会社立山ケアーネットサービス,,株式会社,富山県,中新川郡立山町,道源寺１０１０番地３,,16,323,9300241,,,2022-08-24,清算の結了等,,,2015-10-05,1,,,,,タテヤマケアーネットサービス,0
1163,5240002047647,登記記録の閉鎖等,0,2022-08-26,2022-08-22,有限会社せと,,有限会社,広島県,福山市,赤坂町大字早戸７２９５番地１０７,,34,207,7200844,,,2022-08-22,清算の結了等,,,2015-10-05,1,,,,,セト,0
1185,5300002010978,登記記録の閉鎖等,0,2022-08-26,2022-08-24,有限会社カタヤマ,,有限会社,佐賀県,東松浦郡玄海町,大字今村６５５２番地１,,41,387,8471441,,,2022-08-24,清算の結了等,,,2015-10-05,1,,,,,カタヤマ,0
1186,5300005005587,登記記録の閉鎖等,0,2022-08-26,2022-08-04,特定非営利活動法人レインボー七つの島連絡会議,,その他の設立登記法人,佐賀県,唐津市,高島５１９番地５,,41,202,8470027,,,2022-08-04,清算の結了等,,,2015-10-05,1,,,,,レインボーナナツノシマレンラクカイギ,0
1237,6010003031515,登記記録の閉鎖等,0,2022-08-26,2022-08-09,合同会社ＴＫＪ,,合同会社,東京都,中央区,八重洲１丁目８番１７号,,13,102,1030028,,,2022-08-09,清算の結了等,,,2020-01-29,1,,,,,ティーケージェー,0
1243,6010401109012,登記記録の閉鎖等,0,2022-08-26,2022-08-18,株式会社電通デジタル・ネットワークス,,株式会社,東京都,中央区,築地１丁目１３番１号,,13,102,1040045,,,2022-08-18,清算の結了等,,,2015-10-05,1,,,,,デンツウデジタルネットワークス,0
1255,6010602022690,登記記録の閉鎖等,0,2022-08-26,2022-08-22,有限会社ワイエス・コミュニケーション,,有限会社,東京都,江東区,東陽５丁目２３番６－８０４号,,13,108,1350016,,,2022-08-22,清算の結了等,,,2015-10-05,1,,,,,ワイエスコミュニケーション,0
1292,6011102017438,登記記録の閉鎖等,0,2022-08-26,2022-08-24,東日本水産有限会社,,有限会社,東京都,新宿区,大久保２丁目３１番１６号なまず家ビル,,13,104,1690072,,,2022-08-24,清算の結了等,,,2015-10-05,1,,,,,ヒガシニホンスイサン,0
1297,6011502008474,登記記録の閉鎖等,0,2022-08-26,2022-08-23,有限会社駒形商店,,有限会社,東京都,荒川区,東日暮里４丁目３５番５号,,13,118,1160014,,,2022-08-23,清算の結了等,,,2015-10-05,1,,,,,コマガタショウテン,0
1315,6020002017456,登記記録の閉鎖等,0,2022-08-26,2022-08-23,有限会社ベストカルチャー,,有限会社,神奈川県,横浜市西区,高島２丁目１１番２号,,14,103,2200011,,,2022-08-23,清算の結了等,,,2015-10-05,1,,,,,ベストカルチャー,0
1331,6030005019515,登記記録の閉鎖等,0,2022-08-26,2022-08-17,一般社団法人地域ブランド推進協会,,その他の設立登記法人,埼玉県,川口市,西川口６丁目１５番６－４０４号,,11,203,3320021,,,2022-08-17,清算の結了等,,,2019-07-01,1,,,,,チイキブランドスイシンキョウカイ,0
1334,6040001117230,登記記録の閉鎖等,0,2022-08-26,2022-08-19,株式会社富士商,,株式会社,千葉県,四街道市,和良比２２６番地３,,12,228,2840044,,,2022-08-19,清算の結了等,,,2021-02-26,1,,,,,フジショウ,0
1338,6040002039696,登記記録の閉鎖等,0,2022-08-26,2022-08-18,有限会社ｙａｍａ３３,,有限会社,千葉県,市川市,真間２丁目４番１号,,12,203,2720826,,,2022-08-18,清算の結了等,,,2015-10-05,1,,,,,ヤマサンサン,0
1344,6050001020276,登記記録の閉鎖等,0,2022-08-26,2022-08-24,大晃不動産株式会社,,株式会社,茨城県,鹿嶋市,宮中３丁目６番２１号,,08,222,3140031,,,2022-08-24,清算の結了等,,,2015-10-05,1,,,,,ダイコウフドウサン,0
1357,6080102016567,登記記録の閉鎖等,0,2022-08-26,2022-08-22,有限会社影山商店,,有限会社,静岡県,富士宮市,上井出７０１番地の１,,22,207,4180103,,,2022-08-22,清算の結了等,,,2015-10-05,1,,,,,カゲヤマショウテン,0
1358,6080401011632,登記記録の閉鎖等,0,2022-08-26,2022-08-24,株式会社ＴＭ電機開発,,株式会社,静岡県,浜松市南区,本郷町３１０８番地の１,,22,134,4300812,,,2022-08-24,清算の結了等,,,2015-10-05,1,,,,,ティーエムデンキカイハツ,0
1359,6080401017571,登記記録の閉鎖等,0,2022-08-26,2022-08-23,株式会社ＲＩＶＥＲＳＯＮ,,株式会社,静岡県,袋井市,松原９３２番地,,22,216,4371117,,,2022-08-23,清算の結了等,,,2015-10-05,1,,,,,リバーソン,0
1372,6120001151931,登記記録の閉鎖等,0,2022-08-26,2022-08-23,株式会社クラシン,,株式会社,大阪府,寝屋川市,石津元町７番８号,,27,215,5720025,,,2022-08-23,清算の結了等,,,2015-10-05,1,,,,,クラシン,0
1374,6120001218821,登記記録の閉鎖等,0,2022-08-26,2022-08-25,株式会社ＩＭＰＡＣＴｏｒ,,株式会社,大阪府,大阪市平野区,西脇２丁目１１番２１号,,27,126,5470035,,,2022-08-25,清算の結了等,,,2019-02-04,1,,,,,,0
1383,6120002045249,登記記録の閉鎖等,0,2022-08-26,2022-08-25,有限会社シムシム,,有限会社,大阪府,大阪市天王寺区,勝山１丁目７番１２号,,27,109,5430043,,,2022-08-25,清算の結了等,,,2015-10-05,1,,,,,シムシム,0
1402,6140002065864,登記記録の閉鎖等,0,2022-08-26,2022-08-10,有限会社紫光プランニング,,有限会社,兵庫県,川西市,小戸２丁目３番４号日光ビル２階,,28,217,6660014,,,2022-08-10,清算の結了等,,,2015-10-05,1,,,,,シコウプランニング,0
1429,6240001040239,登記記録の閉鎖等,0,2022-08-26,2022-08-22,小林工業株式会社,,株式会社,広島県,三原市,駒ケ原町２０８番地,,34,204,7230006,,,2022-08-22,清算の結了等,,,2015-10-05,1,,,,,コバヤシコウギョウ,0
1456,6330002008192,登記記録の閉鎖等,0,2022-08-26,2022-08-22,有限会社パーフエクトルーム,,有限会社,熊本県,熊本市中央区,新町３丁目７番１９号,,43,101,8600004,,,2022-08-22,清算の結了等,,,2015-10-05,1,,,,,パーフェクトルーム,0
1477,6410002013606,登記記録の閉鎖等,0,2022-08-26,2022-08-22,有限会社照井企画,,有限会社,秋田県,横手市,鍛冶町４番２号,,05,203,0130031,,,2022-08-22,清算の結了等,,,2015-10-05,1,,,,,テルイキカク,0
1490,7010001128642,登記記録の閉鎖等,0,2022-08-26,2022-08-01,株式会社プレスト,,株式会社,東京都,港区,西新橋３丁目１６番１１号,,13,103,1050003,,,2022-08-01,清算の結了等,,,2015-10-05,1,,,,,プレスト,0
1494,7010001221240,登記記録の閉鎖等,0,2022-08-26,2022-08-18,盈運株式会社,,株式会社,東京都,中央区,東日本橋２丁目２８番５号５０８,,13,102,1030004,,,2022-08-18,清算の結了等,,,2021-09-22,1,,,,,エイウン,0
1505,7010502011719,登記記録の閉鎖等,0,2022-08-26,2022-08-23,有限会社山崎鉄工所,,有限会社,東京都,台東区,浅草２丁目３２番１０号,,13,106,1110032,,,2022-08-23,清算の結了等,,,2015-10-05,1,,,,,ヤマザキテッコウショ,0
1507,7010701021403,登記記録の閉鎖等,0,2022-08-26,2022-08-18,恒達商事株式会社,,株式会社,東京都,大田区,東蒲田２丁目６番２３号,,13,111,1440031,,,2022-08-18,清算の結了等,,,2015-10-05,1,,,,,,0
1519,7011001109789,登記記録の閉鎖等,0,2022-08-26,2022-08-25,株式会社リナプスホールディングス,,株式会社,東京都,渋谷区,広尾１丁目１番２０号,,13,113,1500012,,,2022-08-25,清算の結了等,,,2016-03-03,1,,,,,,0
1524,7011003005251,登記記録の閉鎖等,0,2022-08-26,2022-08-18,エラボ合同会社,,合同会社,東京都,千代田区,麹町４丁目８番地１,,13,101,1020083,,,2022-08-18,清算の結了等,,,2015-10-05,1,,,,,エラボ,0
1541,7012802002315,登記記録の閉鎖等,0,2022-08-26,2022-08-05,有限会社メイ企画,,有限会社,東京都,立川市,錦町６丁目９番２３号ハイコーポ立川３０２,,13,202,1900022,,,2022-08-05,清算の結了等,,,2015-10-05,1,,,,,メイキカク,0
1546,7020001004529,登記記録の閉鎖等,0,2022-08-26,2022-08-23,株式会社港技術,,株式会社,神奈川県,横浜市港南区,上大岡東３丁目５番６号,,14,111,2330001,,,2022-08-23,清算の結了等,,,2015-10-05,1,,,,,ミナトギジュツ,0
1551,7020001112744,登記記録の閉鎖等,0,2022-08-26,2022-08-24,株式会社テクノアール,,株式会社,神奈川県,横浜市中区,翁町２丁目７－１０－２０９号,,14,104,2310028,,,2022-08-24,清算の結了等,,,2015-10-05,1,,,,,テクノアール,0
1554,7020002091351,登記記録の閉鎖等,0,2022-08-26,2022-08-22,有限会社アイエフシー,,有限会社,神奈川県,川崎市多摩区,宿河原４丁目２１番２１号,,14,135,2140021,,,2022-08-22,清算の結了等,,,2015-10-05,1,,,,,アイエフシー,0
1555,7020002105879,登記記録の閉鎖等,0,2022-08-26,2022-08-23,エースセキュリティサービス有限会社,,有限会社,神奈川県,川崎市高津区,二子５丁目１１番２号,,14,134,2130002,,,2022-08-23,清算の結了等,,,2015-10-05,1,,,,,エースセキュリティサービス,0
1567,7030002016836,登記記録の閉鎖等,0,2022-08-26,2022-08-18,有限会社後藤建築事務所,,有限会社,埼玉県,さいたま市緑区,原山２丁目２番９号,,11,109,3360931,,,2022-08-18,清算の結了等,,,2015-10-05,1,,,,,ゴトウケンチクジムショ,0
1574,7040002002728,登記記録の閉鎖等,0,2022-08-26,2022-08-17,有限会社笠井工務店,,有限会社,千葉県,千葉市稲毛区,宮野木町１６５２番地４９,,12,103,2630054,,,2022-08-17,清算の結了等,,,2015-10-05,1,,,,,カサイコウムテン,0
1613,7120902012520,登記記録の閉鎖等,0,2022-08-26,2022-08-23,有限会社ヤマヒロホーム,,有限会社,大阪府,摂津市,鳥飼銘木町１９番７号,,27,224,5660063,,,2022-08-23,清算の結了等,,,2015-10-05,1,,,,,ヤマヒロホーム,0
1625,7140001027798,登記記録の閉鎖等,0,2022-08-26,2022-08-24,株式会社摂津屋,,株式会社,兵庫県,芦屋市,打出小槌町９番８－２０１号,00039333,28,206,6590028,,,2022-08-24,清算の結了等,,,2015-10-05,1,,,,,セッツヤ,0
1647,7210003001406,登記記録の閉鎖等,0,2022-08-26,2022-08-23,合同会社ＮｅｘｔＤｒａｆｔ,,合同会社,福井県,坂井市,春江町為国幸１番地７,,18,210,9190435,,,2022-08-23,清算の結了等,,,2021-09-01,1,,,,,ネクストドラフト,0
1652,7230002005604,登記記録の閉鎖等,0,2022-08-26,2022-08-23,有限会社メッドサポート,,有限会社,富山県,富山市,蛯町２番１９号,,16,201,9300027,,,2022-08-23,清算の結了等,,,2015-10-05,1,,,,,メッドサポート,0
1663,7260002001831,登記記録の閉鎖等,0,2022-08-26,2022-08-25,有限会社岡山標記製作所,,有限会社,岡山県,岡山市北区,錦町８番２３号,,33,101,7000902,,,2022-08-25,清算の結了等,,,2015-10-05,1,,,,,オカヤマヒョウキセイサクジョ,0
1678,7360003008618,登記記録の閉鎖等,0,2022-08-26,2022-08-19,合同会社ムイガー,,合同会社,沖縄県,宮古島市,城辺字友利１５８６番地２,,47,214,9060107,,,2022-08-19,清算の結了等,,,2018-01-30,1,,,,,ムイガー,0
1689,7370005002287,登記記録の閉鎖等,0,2022-08-26,2022-08-22,特定非営利活動法人あいの実,,その他の設立登記法人,宮城県,仙台市泉区,実沢字中山北１００番地の２,,04,105,9813217,,,2022-08-22,清算の結了等,,,2015-10-05,1,,,,,アイノミ,0
1690,7370601000248,登記記録の閉鎖等,0,2022-08-26,2022-08-23,株式会社ことぶき整備,,株式会社,宮城県,宮城郡七ヶ浜町,湊浜字砂山１１番１号,,04,404,9850813,,,2022-08-23,清算の結了等,,,2015-10-05,1,,,,,コトブキセイビ,0
1692,7400002013151,登記記録の閉鎖等,0,2022-08-26,2022-08-24,有限会社グリーンワールド,,有限会社,岩手県,九戸郡洋野町,帯島第８地割４２番地,,03,507,0288804,,,2022-08-24,清算の結了等,,,2015-10-05,1,,,,,グリーンワールド,0
1693,7410001009918,登記記録の閉鎖等,0,2022-08-26,2022-08-23,株式会社アグレス,,株式会社,秋田県,能代市,住吉町２番２１号,,05,202,0160824,,,2022-08-23,清算の結了等,,,2015-10-05,1,,,,,アグレス,0
1702,7462502000870,登記記録の閉鎖等,0,2022-08-26,2022-08-23,有限会社よろづ呉服店,,有限会社,北海道,標津郡中標津町,東一条南１丁目３番地,,01,692,0861001,,,2022-08-23,清算の結了等,,,2015-10-05,1,,,,,ヨロヅゴフクテン,0
1714,8010002032990,登記記録の閉鎖等,0,2022-08-26,2022-08-25,有限会社ネクス,,有限会社,東京都,あきる野市,二宮１４０４番地１,,13,228,1970814,,,2022-08-25,清算の結了等,,,2015-10-05,1,,,,,ネクス,0
1737,8010501039520,登記記録の閉鎖等,0,2022-08-26,2022-08-25,ａｗａｋｅ株式会社,,株式会社,東京都,台東区,台東１丁目１１番４号,,13,106,1100016,,,2022-08-25,清算の結了等,,,2016-05-11,1,,,,,,0
1738,8010502011734,登記記録の閉鎖等,0,2022-08-26,2022-08-25,山崎板金加工業有限会社,00051332,有限会社,東京都,台東区,台東４丁目２４番１号,,13,106,1100016,,,2022-08-25,清算の結了等,,,2015-10-05,1,,,,,ヤマザキバンキンカコウギョウ,0
1765,8011005005224,登記記録の閉鎖等,0,2022-08-26,2022-08-23,税理士法人キュアノスサポート,,その他の設立登記法人,東京都,渋谷区,神南１丁目１３番８－４０２号パークアヴェニュー神南,,13,113,1500041,,,2022-08-23,合併による解散等,6010005034796,令和４年８月１日東京都千代田区神田須田町一丁目８番７号神田前原ビル２階税理士法人山崎会計事務所（6010005034796）に合併し解散,2015-10-05,1,,,,,キュアノスサポート,0
1770,8011101088949,登記記録の閉鎖等,0,2022-08-26,2022-08-25,株式会社イエローワークス,,株式会社,東京都,渋谷区,千駄ヶ谷３丁目５３番１７号原宿グリーンハイツ５０６号室,,13,113,1510051,,,2022-08-25,清算の結了等,,,2019-09-17,1,,,,,,0
1785,8012702010276,登記記録の閉鎖等,0,2022-08-26,2022-08-25,ミヤガワリース有限会社,,有限会社,東京都,小平市,天神町４丁目１３番１５号,,13,211,1870004,,,2022-08-25,清算の結了等,,,2015-10-05,1,,,,,,0
1817,8030005008540,登記記録の閉鎖等,0,2022-08-26,2022-08-17,医療法人フラテ会,,その他の設立登記法人,埼玉県,川越市,稲荷町１８番地６プリミエール田辺１階,,11,201,3501144,,,2022-08-17,清算の結了等,,,2015-10-05,1,,,,,フラテカイ,0
1818,8040001003783,登記記録の閉鎖等,0,2022-08-26,2022-08-17,株式会社セントラル科学サービス,,株式会社,千葉県,船橋市,本町５丁目４番５－３００３号,,12,204,2730005,,,2022-08-17,清算の結了等,,,2015-10-05,1,,,,,セントラルカガクサービス,0
1819,8040001065279,登記記録の閉鎖等,0,2022-08-26,2022-08-19,株式会社エポックアレーテ,,株式会社,千葉県,柏市,増尾２丁目１０番２号,,12,217,2770033,,,2022-08-19,清算の結了等,,,2015-10-05,1,,,,,エポックアレーテ,0
1826,8040002021644,登記記録の閉鎖等,0,2022-08-26,2022-08-19,有限会社喜容舎,,有限会社,千葉県,船橋市,旭町１丁目２２番１７号,,12,204,2730041,,,2022-08-19,清算の結了等,,,2015-10-05,1,,,,,キヨウシャ,0
1841,8100001021325,登記記録の閉鎖等,0,2022-08-26,2022-08-18,株式会社南信スズキマイカーセンター,,株式会社,長野県,駒ヶ根市,北町２８番２１号,,20,210,3994111,,,2022-08-18,清算の結了等,,,2015-10-05,1,,,,,,0
1845,8120001160253,登記記録の閉鎖等,0,2022-08-26,2022-08-25,株式会社蚊口建装,,株式会社,大阪府,守口市,大久保町２丁目１番４号,,27,209,5700012,,,2022-08-25,清算の結了等,,,2015-10-05,1,,,,,,0
1854,8122002012292,登記記録の閉鎖等,0,2022-08-26,2022-08-24,有限会社ユニット・タナカ,,有限会社,大阪府,四條畷市,南野６丁目５番１３号,,27,229,5750021,,,2022-08-24,清算の結了等,,,2015-10-05,1,,,,,ユニットタナカ,0
1865,8140001041427,登記記録の閉鎖等,0,2022-08-26,2022-08-23,株式会社丹波ふるさと村,,株式会社,兵庫県,丹波市,春日町松森９３０番地の２,,28,223,6694264,,,2022-08-23,清算の結了等,,,2015-10-05,1,,,,,タンバフルサトムラ,0
1870,8140002034826,登記記録の閉鎖等,0,2022-08-26,2022-08-23,有限会社ケアステーションこころ,,有限会社,兵庫県,丹波市,春日町棚原１９２０番地,,28,223,6694274,,,2022-08-23,清算の結了等,,,2015-10-05,1,,,,,ケアステーションココロ,0
1873,8160001021542,登記記録の閉鎖等,0,2022-08-26,2022-08-25,株式会社Ｌｕｃｅｎｔ,,株式会社,滋賀県,大津市,本堅田５丁目１５番２号,,25,201,5200242,,,2022-08-25,清算の結了等,,,2019-03-19,1,,,,,ルーセント,0
1874,8180001074448,登記記録の閉鎖等,0,2022-08-26,2022-08-22,中央建設株式会社,,株式会社,愛知県,春日井市,東山町２３１１番地の７８,,23,206,4860811,,,2022-08-22,清算の結了等,,,2015-10-05,1,,,,,,0
1894,8190001010848,登記記録の閉鎖等,0,2022-08-26,2022-08-25,エレサービス株式会社,,株式会社,三重県,多気郡明和町,大字有爾中１１５５番地１,,24,442,5150316,,,2022-08-25,清算の結了等,,,2015-10-05,1,,,,,エレサービス,0
1896,8190002005459,登記記録の閉鎖等,0,2022-08-26,2022-08-24,有限会社鈴木建築,,有限会社,三重県,尾鷲市,矢浜１丁目１０番３３号,,24,209,5193671,,,2022-08-24,清算の結了等,,,2015-10-05,1,,,,,,0
1911,8240001039948,登記記録の閉鎖等,0,2022-08-26,2022-08-24,本郷酒造株式会社,,株式会社,広島県,三原市,本郷南６丁目２４番２７号,,34,204,7290417,,,2022-08-24,清算の結了等,,,2015-10-05,1,,,,,ホンゴウシュゾウ,0
1915,8260001003150,登記記録の閉鎖等,0,2022-08-26,2022-08-25,株式会社シーエムシー,,株式会社,岡山県,岡山市北区,大内田８１２番地,,33,101,7010165,,,2022-08-25,清算の結了等,,,2015-10-05,1,,,,,シーエムシー,0
1920,8270005002172,登記記録の閉鎖等,0,2022-08-26,2022-08-23,協同組合岩美町環境事業公社,,その他の設立登記法人,鳥取県,岩美郡岩美町,大字高山６２番地１,,31,302,6810061,,,2022-08-23,清算の結了等,,,2015-10-05,1,,,,,イワミチョウカンキョウジギョウコウシャ,0
1946,8380002004425,登記記録の閉鎖等,0,2022-08-26,2022-08-23,有限会社エフ・ジーエス,,有限会社,福島県,福島市,伏拝字畑田２８番地の１,,07,201,9608154,,,2022-08-23,清算の結了等,,,2015-10-05,1,,,,,,0
1948,8400002000941,登記記録の閉鎖等,0,2022-08-26,2022-08-25,有限会社きただ産業,,有限会社,岩手県,盛岡市,南大通２丁目６番１５号,,03,201,0200874,,,2022-08-25,清算の結了等,,,2015-10-05,1,,,,,キタダサンギョウ,0
1958,9010001018404,登記記録の閉鎖等,0,2022-08-26,2022-08-22,株式会社新講社,,株式会社,東京都,千代田区,飯田橋４丁目４番９号,,13,101,1020072,,,2022-08-22,清算の結了等,,,2015-10-05,1,,,,,シンコウシャ,0
1960,9010001065207,登記記録の閉鎖等,0,2022-08-26,2022-08-18,株式会社アクティブハウス,,株式会社,東京都,千代田区,九段南４丁目２番９－６０２号,,13,101,1020074,,,2022-08-18,清算の結了等,,,2015-10-05,1,,,,,アクティブハウス,0
1973,9010003033665,登記記録の閉鎖等,0,2022-08-26,2022-08-19,ＳＮＺプロパティーズ合同会社,,合同会社,東京都,千代田区,九段南３丁目７番７号成和綜合会計事務所内,,13,101,1020074,,,2022-08-19,清算の結了等,,,2020-12-03,1,,,,,エスエヌゼットプロパティーズ,0
1988,9010505001979,登記記録の閉鎖等,0,2022-08-26,2022-08-24,特定非営利活動法人きぼうの木,,その他の設立登記法人,東京都,台東区,根岸５丁目６番４－２０２号根岸朝日マンション,,13,106,1100003,,,2022-08-24,清算の結了等,,,2015-10-05,1,,,,,キボウノキ,0
1995,9011001052070,登記記録の閉鎖等,0,2022-08-26,2022-08-04,株式会社ネオ・クラシカ,,株式会社,東京都,渋谷区,桜丘町２０番１号,,13,113,1500031,,,2022-08-04,清算の結了等,,,2015-10-05,1,,,,,ネオクラシカ,0
2023,9012401023264,登記記録の閉鎖等,0,2022-08-26,2022-08-23,サウンド・ダ・マスタ株式会社,,株式会社,東京都,武蔵野市,西久保３丁目２１番１３号,,13,203,1800013,,,2022-08-23,清算の結了等,,,2015-10-05,1,,,,,サウンドダマスタ,0
2041,9020002106495,登記記録の閉鎖等,0,2022-08-26,2022-08-22,有限会社シータス,,有限会社,神奈川県,横浜市青葉区,あざみ野４丁目４番地１３－１０５号,,14,117,2250011,,,2022-08-22,清算の結了等,,,2015-10-05,1,,,,,シータス,0
2049,9021002064543,登記記録の閉鎖等,0,2022-08-26,2022-08-23,有限会社幸商事,,有限会社,神奈川県,横須賀市,湘南鷹取２丁目１２番９号,,14,201,2370066,,,2022-08-23,清算の結了等,,,2015-10-05,1,,,,,ミユキショウジ,0
2050,9030001009038,登記記録の閉鎖等,0,2022-08-26,2022-08-01,株式会社アルファアシスト,,株式会社,埼玉県,さいたま市北区,吉野町２丁目２７０番地の４,,11,102,3310811,,,2022-08-01,清算の結了等,,,2015-10-05,1,,,,,アルファアシスト,0
2052,9030001063596,登記記録の閉鎖等,0,2022-08-26,2022-08-16,井上株式会社,,株式会社,埼玉県,越谷市,東柳田町９番１６号,,11,222,3430814,,,2022-08-16,清算の結了等,,,2015-10-05,1,,,,,イノウエ,0
2061,9030002083081,登記記録の閉鎖等,0,2022-08-26,2022-08-16,有限会社アーマ・デザイン,,有限会社,埼玉県,北本市,深井６丁目９３番地１コスモ鴻巣４０９号,,11,233,3640001,,,2022-08-16,清算の結了等,,,2015-10-05,1,,,,,アーマデザイン,0
2087,9080002005519,登記記録の閉鎖等,0,2022-08-26,2022-08-25,有限会社丸海金属工業所,,有限会社,静岡県,静岡市葵区,田町５丁目２２番地の３,,22,101,4200068,,,2022-08-25,清算の結了等,,,2015-10-05,1,,,,,マルウミキンゾクコウギョウショ,0
2089,9080401018781,登記記録の閉鎖等,0,2022-08-26,2022-08-24,株式会社シンワ,,株式会社,静岡県,浜松市西区,雄踏町山崎５７６２番地,,22,133,4310101,,,2022-08-24,清算の結了等,,,2015-10-05,1,,,,,シンワ,0
2094,9100002035133,登記記録の閉鎖等,0,2022-08-26,2022-08-16,有限会社岡ガラス店,,有限会社,長野県,上伊那郡辰野町,大字辰野１７０６番地,,20,382,3990421,,,2022-08-16,清算の結了等,,,2015-10-05,1,,,,,オカガラステン,0
2097,9110002003188,登記記録の閉鎖等,0,2022-08-26,2022-08-23,有限会社島垣自動車,,有限会社,新潟県,新潟市中央区,三和町５番１２号,,15,103,9500081,,,2022-08-23,清算の結了等,,,2015-10-05,1,,,,,シマガキジドウシャ,0
2117,9120002065467,登記記録の閉鎖等,0,2022-08-26,2022-08-25,有限会社ＨＩＧＡ,,有限会社,大阪府,大阪市大正区,南恩加島５丁目９番１２号,,27,108,5510021,,,2022-08-25,清算の結了等,,,2015-10-05,1,,,,,ヒガ,0
2147,9140003011798,登記記録の閉鎖等,0,2022-08-26,2022-08-23,合同会社オアシス,,合同会社,兵庫県,神戸市中央区,琴ノ緒町５丁目２番２号,,28,110,6510094,,,2022-08-23,清算の結了等,,,2016-12-19,1,,,,,オアシス,0
2158,9180003021967,登記記録の閉鎖等,0,2022-08-26,2022-08-23,合同会社常楽,,合同会社,愛知県,常滑市,白山町３丁目１０１番地,,23,216,4790824,,,2022-08-23,清算の結了等,,,2021-01-04,1,,,,,トコラク,0
2167,9230001014463,登記記録の閉鎖等,0,2022-08-26,2022-08-25,アレックスオートＪ株式会社,,株式会社,富山県,富山市,富岡町５０５番地２,,16,201,9300928,,,2022-08-25,清算の結了等,,,2015-10-05,1,,,,,アレックスオートジェイ,0
2168,9230001016864,登記記録の閉鎖等,0,2022-08-26,2022-08-24,株式会社ステレオタイプホールディングス,,株式会社,富山県,富山市,桜町１丁目６番１６号,,16,201,9300003,,,2022-08-24,清算の結了等,,,2017-03-03,1,,,,,ステレオタイプホールディングス,0
2172,9260001011490,登記記録の閉鎖等,0,2022-08-26,2022-08-24,株式会社岡山ビジネスメンタル研究所,,株式会社,岡山県,岡山市北区,本町２番５号,,33,101,7000901,,,2022-08-24,清算の結了等,,,2015-10-05,1,,,,,オカヤマビジネスメンタルケンキュウショ,0
2193,9370001008674,登記記録の閉鎖等,0,2022-08-26,2022-08-22,株式会社寿々力,,株式会社,宮城県,仙台市青葉区,国分町１丁目１番１７号,,04,101,9800803,,,2022-08-22,清算の結了等,,,2015-10-05,1,,,,,スズリキ,0
2200,9370802000672,登記記録の閉鎖等,0,2022-08-26,2022-08-22,有限会社森田加工所,,有限会社,宮城県,名取市,上余田字千刈田２６２番地,,04,207,9811222,,,2022-08-22,清算の結了等,,,2015-10-05,1,,,,,モリタカコウジョ,0
2205,9380002009068,登記記録の閉鎖等,0,2022-08-26,2022-08-22,有限会社ケーエヌ,,有限会社,福島県,郡山市,大槻町字林ノ北１９番地２,,07,203,9630201,,,2022-08-22,清算の結了等,,,2015-10-05,1,,,,,ケーエヌ,0
