sequenceNumber,corporateNumber,process,correct,updateDate,changeDate,name,nameImageId,kind,prefectureName,cityName,streetNumber,addressImageId,prefectureCode,cityCode,postCode,addressOutside,addressOutsideImageId,closeDate,closeCause,successorCorporateNumber,changeCause,assignmentDate,latest,enName,enPrefectureName,enCityName,enAddressOutside,furigana,hihyoji
13,1010103002263,新規,0,2023-12-04,2023-12-04,響羽田合同会社,,合同会社,東京都,八王子市,片倉町９１１－７２,,13,201,1920914,,,,,,,2023-12-04,1,,,,,キョウハタ,0
15,1010403031458,新規,0,2023-12-04,2023-12-04,合同会社フリーゼ,,合同会社,東京都,港区,南麻布１丁目２７番２０号カーサ麻布ル・グラン,,13,103,1060047,,,,,,,2023-12-04,1,,,,,フリーゼ,0
19,1010603010492,新規,0,2023-12-04,2023-12-04,ダリアリオ合同会社,,合同会社,東京都,墨田区,菊川３丁目６番６,,13,107,1300024,,,,,,,2023-12-04,1,,,,,ダリアリオ,0
24,1010901054274,新規,0,2023-12-04,2023-12-04,株式会社グランスター,,株式会社,東京都,世田谷区,北沢１丁目３７番６号,,13,112,1550031,,,,,,,2023-12-04,1,,,,,グランスター,0
26,1010903008625,新規,0,2023-12-04,2023-12-04,文喜国際合同会社,,合同会社,東京都,世田谷区,用賀２丁目３５番１１－４０７号,,13,112,1580097,,,,,,,2023-12-04,1,,,,,フミキコクサイ,0
37,1011001158569,新規,0,2023-12-04,2023-12-04,株式会社ｉＦＬＥＸ,,株式会社,東京都,目黒区,目黒２丁目１１番１５－１６０４号シティハウス目黒ザ・グランド,,13,110,1530063,,,,,,,2023-12-04,1,,,,,アイフレックス,0
43,1011801043433,新規,0,2023-12-04,2023-12-04,株式会社ルイスファンプレイス,,株式会社,東京都,葛飾区,奥戸２丁目４１番１号,,13,122,1240022,,,,,,,2023-12-04,1,,,,,ルイスファンプレイス,0
44,1011801043441,新規,0,2023-12-04,2023-12-04,サンワローラン販売株式会社,,株式会社,東京都,葛飾区,東立石２丁目５番６号,,13,122,1240013,,,,,,,2023-12-04,1,,,,,サンワローランハンバイ,0
47,1012701017980,新規,0,2023-12-04,2023-12-04,株式会社ＬＥＡＬＥ,,株式会社,東京都,西東京市,南町４丁目１１番１１号グリーンベル南町４０２号,,13,229,1880012,,,,,,,2023-12-04,1,,,,,レアーレ,0
53,1020001154742,新規,0,2023-12-04,2023-12-04,株式会社アントレプレナー,,株式会社,神奈川県,横浜市青葉区,鴨志田町５５９番地１４,,14,117,2270033,,,,,,,2023-12-04,1,,,,,アントレプレナー,0
54,1020003025108,新規,0,2023-12-04,2023-12-04,合同会社Ｕｎｉｔｅｄ　Ｒｅｐａｉｒｓ,,合同会社,神奈川県,横浜市南区,大岡１丁目１－２５－２１０,,14,105,2320061,,,,,,,2023-12-04,1,,,,,ユナイテッドリペアーズ,0
55,1020003025116,新規,0,2023-12-04,2023-12-04,合同会社ｏｒａｗａｋｕ,,合同会社,神奈川県,横浜市神奈川区,金港町８番地１ドゥーエ横浜駅前４０５号室,,14,102,2210056,,,,,,,2023-12-04,1,,,,,,0
56,1020005016204,新規,0,2023-12-04,2023-12-04,医療法人愛看会,,その他の設立登記法人,神奈川県,横浜市南区,六ツ川１丁目２１０番地１－２Ｆ,,14,105,2320066,,,,,,,2023-12-04,1,,,,,アイミカイ,0
58,1021001080870,新規,0,2023-12-04,2023-12-04,Ｊａｐａｎ　Ａｄｖｅｎｔｕｒｅｓ株式会社,,株式会社,神奈川県,三浦郡葉山町,一色１７２３－１,,14,301,2400111,,,,,,,2023-12-04,1,,,,,ジャパンアドベンチャーズ,0
72,1030001157463,新規,0,2023-12-04,2023-12-04,株式会社ＴＫデザイン,,株式会社,埼玉県,三郷市,早稲田２丁目１７番１５号,,11,237,3410018,,,,,,,2023-12-04,1,,,,,ティーケーデザイン,0
85,1050001053891,新規,0,2023-12-04,2023-12-04,株式会社ＢＡＲＫＡＴ　ＴＲＡＤＩＮＧ,,株式会社,茨城県,筑西市,布川１０１７番５０－Ａ,,08,227,3080846,,,,,,,2023-12-04,1,,,,,バルカットトレーディング,0
102,1080101024377,新規,0,2023-12-04,2023-12-04,アルトユー株式会社,,株式会社,静岡県,沼津市,大岡１０４１番地の１ストークハウスみなもと２０２,,22,203,4100022,,,,,,,2023-12-04,1,,,,,アルトユー,0
105,1080401026874,新規,0,2023-12-04,2023-12-04,株式会社義和,,株式会社,静岡県,浜松市西区,和地町１１６０－３,,22,133,4311115,,,,,,,2023-12-04,1,,,,,ヨシカズ,0
125,1120001260266,新規,0,2023-12-04,2023-12-04,日昇株式会社,,株式会社,大阪府,大阪市旭区,高殿７丁目３番４－３０７号,,27,117,5350031,,,,,,,2023-12-04,1,,,,,ニッショウ,0
126,1120001260308,新規,0,2023-12-04,2023-12-04,株式会社Ｍ＆Ａ,,株式会社,大阪府,大阪市天王寺区,大道１丁目１１－２２,,27,109,5430052,,,,,,,2023-12-04,1,,,,,,0
127,1120001260316,新規,0,2023-12-04,2023-12-04,株式会社リーボン,,株式会社,大阪府,大阪市浪速区,敷津西２丁目７番５号ハイツフルネス松井４Ｂ,,27,111,5560015,,,,,,,2023-12-04,1,,,,,リーボン,0
139,1120101068618,新規,0,2023-12-04,2023-12-04,カンタツホールディングス株式会社,,株式会社,大阪府,堺市堺区,匠町１番地,,27,141,5900908,,,,,,,2023-12-04,1,,,,,カンタツホールディングス,0
140,1120103005560,新規,0,2023-12-04,2023-12-04,合同会社ＲｅｅｖｅＳｕｐｐｏｒｔ,,合同会社,大阪府,堺市美原区,黒山８７８番地６,,27,147,5870002,,,,,,,2023-12-04,1,,,,,リーブサポート,0
141,1120105009790,新規,0,2023-12-04,2023-12-04,一般社団法人ＭｅＡＴ,,その他の設立登記法人,大阪府,松原市,天美北５丁目８番１１号,,27,217,5800031,,,,,,,2023-12-04,1,,,,,ミート,0
147,1130001075837,新規,0,2023-12-04,2023-12-04,株式会社エミー不動産,,株式会社,京都府,京都市中京区,御幸町通蛸薬師下る船屋町３６７番地ロイヤルプラザ御幸町２０４,,26,104,6048051,,,,,,,2023-12-04,1,,,,,エミーフドウサン,0
148,1130003009173,新規,0,2023-12-04,2023-12-04,合同会社和楽,,合同会社,京都府,綴喜郡宇治田原町,大字岩山小字山下２番地の１,,26,344,6100261,,,,,,,2023-12-04,1,,,,,ワラク,0
150,1140005026819,新規,0,2023-12-04,2023-12-04,一般社団法人人権精神ネット,,その他の設立登記法人,兵庫県,尼崎市,立花町４丁目５番１－３０３号,,28,202,6610025,,,,,,,2023-12-04,1,,,,,ジンケンセイシンネット,0
151,1150001026904,新規,0,2023-12-04,2023-12-04,株式会社シルバーブレット,,株式会社,奈良県,磯城郡田原本町,大字八尾６２７番地の１３,,29,363,6360311,,,,,,,2023-12-04,1,,,,,シルバーブレット,0
152,1150001026912,新規,0,2023-12-04,2023-12-04,株式会社ＩＣＨＩＨＡＣＨＩ,,株式会社,奈良県,奈良市,富雄北１丁目１８番Ａ－３０４号,,29,201,6310076,,,,,,,2023-12-04,1,,,,,イチハチ,0
153,1150001026920,新規,0,2023-12-04,2023-12-04,株式会社Ｏｒｔ,,株式会社,奈良県,大和郡山市,南郡山町３０番地３、ジャルス郡山１階,,29,203,6391007,,,,,,,2023-12-04,1,,,,,オルト,0
154,1150003003133,新規,0,2023-12-04,2023-12-04,榊原アセットマネジメント合同会社,,合同会社,奈良県,生駒郡斑鳩町,服部２丁目１８番３号,,29,344,6360131,,,,,,,2023-12-04,1,,,,,サカキバラアセットマネジメント,0
160,1160001025533,新規,0,2023-12-04,2023-12-04,ミライリンク株式会社,,株式会社,滋賀県,甲賀市,甲南町希望ケ丘３丁目４番地１４,,25,209,5203333,,,,,,,2023-12-04,1,,,,,ミライリンク,0
161,1160001025541,新規,0,2023-12-04,2023-12-04,株式会社ターコイズ,,株式会社,滋賀県,大津市,下阪本２丁目３番３２号,,25,201,5200105,,,,,,,2023-12-04,1,,,,,ターコイズ,0
167,1180001159115,新規,0,2023-12-04,2023-12-04,ＩＳＳＣＰ株式会社,,株式会社,愛知県,半田市,瑞穂町４丁目１番地の９,,23,205,4750828,,,,,,,2023-12-04,1,,,,,アイエスエスシイピイ,0
168,1180001159148,新規,0,2023-12-04,2023-12-04,ＲＥＳＴ　ＰＲＯＰＥＲＴＹ株式会社,,株式会社,愛知県,名古屋市千種区,今池１丁目２番５号,,23,101,4640850,,,,,,,2023-12-04,1,,,,,レストプロパティ,0
169,1180001159164,新規,0,2023-12-04,2023-12-04,株式会社桜咲学園,,株式会社,愛知県,名古屋市中村区,北浦町３４番地２,,23,105,4530824,,,,,,,2023-12-04,1,,,,,サクラザキガクエン,0
174,1180003026073,新規,0,2023-12-04,2023-12-04,合同会社酒匂,,合同会社,愛知県,名古屋市中川区,澄池町９番１２号,,23,110,4540806,,,,,,,2023-12-04,1,,,,,サコウ,0
175,1180301038076,新規,0,2023-12-04,2023-12-04,株式会社恵絆,,株式会社,愛知県,豊橋市,東脇４丁目１５番地２ピュアライフ東脇１００４,,23,201,4418083,,,,,,,2023-12-04,1,,,,,エバン,0
176,1180301038084,新規,0,2023-12-04,2023-12-04,株式会社イレイズ,,株式会社,愛知県,豊田市,本新町４丁目３９番地,,23,211,4710046,,,,,,,2023-12-04,1,,,,,イレイズ,0
177,1190001030927,新規,0,2023-12-04,2023-12-04,株式会社純志,,株式会社,三重県,三重郡菰野町,大字大強原３４９０番地３,,24,341,5101222,,,,,,,2023-12-04,1,,,,,ジュンシ,0
178,1190001030935,新規,0,2023-12-04,2023-12-04,株式会社テラストラスト,,株式会社,三重県,亀山市,長明寺町５１７番地の１ハーベスト２０５号,,24,210,5190214,,,,,,,2023-12-04,1,,,,,テラストラスト,0
182,1200001041939,新規,0,2023-12-04,2023-12-04,ＨＫＦみらい株式会社,,株式会社,岐阜県,岐阜市,南鶉３丁目３９８番地,,21,201,5008285,,,,,,,2023-12-04,1,,,,,エイチケイエフミライ,0
206,1290001103887,新規,0,2023-12-04,2023-12-04,株式会社ＥＢＯＬ,,株式会社,福岡県,福岡市博多区,綱場町６番１５号,,40,132,8120024,,,,,,,2023-12-04,1,,,,,イーボル,0
207,1290001103920,新規,0,2023-12-04,2023-12-04,株式会社ＲＩＴＴＡ,,株式会社,福岡県,福岡市中央区,天神２丁目１１番１号福岡ＰＡＲＣＯ新館５Ｆ　Ｔｈｅ　Ｃｏｍｐａｎｙ内,,40,133,8100001,,,,,,,2023-12-04,1,,,,,リッタ,0
222,1360003013524,新規,0,2023-12-04,2023-12-04,合同会社ｅｎｉｍｏ企画,,合同会社,沖縄県,中頭郡西原町,字内間２７８番地１,,47,329,9030121,,,,,,,2023-12-04,1,,,,,エニモキカク,0
224,1370001050675,新規,0,2023-12-04,2023-12-04,株式会社ヒロセ,,株式会社,宮城県,仙台市青葉区,堤町２丁目９番５０号熊谷アパート１Ｆ,,04,101,9810912,,,,,,,2023-12-04,1,,,,,ヒロセ,0
226,1410001013660,新規,0,2023-12-04,2023-12-04,株式会社小野琢也建築事務所,00132864,株式会社,秋田県,秋田市,東通館ノ越１３番７号,,05,201,0100006,,,,,,,2023-12-04,1,,,,,オノタクヤケンチクジムショ,0
231,1430003015711,新規,0,2023-12-04,2023-12-04,合同会社創研,,合同会社,北海道,札幌市南区,川沿二条６丁目３番１号,,01,106,0050802,,,,,,,2023-12-04,1,,,,,ソウケン,0
242,1500001025333,新規,0,2023-12-04,2023-12-04,株式会社笑丸,,株式会社,愛媛県,西予市,明浜町俵津３番耕地１４０番地７,,38,214,7970111,,,,,,,2023-12-04,1,,,,,ニコマル,0
243,1700150122506,新規,0,2023-12-04,2023-12-04,Ｎｉｎｇｂｏ　Ｙｕｈｅｎｇ　ｓｈａｎｇｍａｏ　ｙｏｕｘｉａｎｇｏｎｇｓｉ,,外国会社等,,,,,,,,ｚｈｅｎｇｈａｉｑｕ　ｌｕｏｔｕｏｊｉｅｄａｏ　ｈｕｉｊｉｎｌｕ　１８ｈａｏ５３１ｓｈｉｎｉｎｇｂｏｓｈｉｚｈｅｊｉａｎｇｓｈｅｎｇ３１５２０２ＣＮ,,,,,,2023-12-04,1,,,,,ニンボーイーホンシャンマオヨウシエンゴンスー,0
245,2010001240443,新規,0,2023-12-04,2023-12-04,株式会社ＦＣＤ,,株式会社,東京都,中央区,日本橋箱崎町３２番９号猪子ビル１階,,13,102,1030015,,,,,,,2023-12-04,1,,,,,エフシーディー,0
246,2010001240484,新規,0,2023-12-04,2023-12-04,伊那国際ゴルフクラブ株式会社,,株式会社,東京都,千代田区,大手町１丁目７番２号,,13,101,1000004,,,,,,,2023-12-04,1,,,,,イナコクサイゴルフクラブ,0
255,2010403031481,新規,0,2023-12-04,2023-12-04,合同会社Ｓｐｉｒａｌ　Ｇａｌａｘｙ,,合同会社,東京都,港区,北青山１丁目３番１号アールキューブ青山３階,,13,103,1070061,,,,,,,2023-12-04,1,,,,,スパイラルギャラクシー,0
257,2010503007225,新規,0,2023-12-04,2023-12-04,合同会社Ｍａｇｎｏｌｉａ,,合同会社,東京都,台東区,西浅草３丁目２２－３－３４０６,,13,106,1110035,,,,,,,2023-12-04,1,,,,,マグノリア,0
258,2010601064242,新規,0,2023-12-04,2023-12-04,株式会社ＢＮＧ,,株式会社,東京都,墨田区,立川１丁目１１番３号ＡＬＩＫＡ森下Ｉ９０１,,13,107,1300023,,,,,,,2023-12-04,1,,,,,ビーエヌジー,0
269,2011001158535,新規,0,2023-12-04,2023-12-04,フィンクルート株式会社,,株式会社,東京都,渋谷区,桜丘町７－３ベラコート渋谷２０３,,13,113,1500031,,,,,,,2023-12-04,1,,,,,フィンクルート,0
270,2011005010295,新規,0,2023-12-04,2023-12-04,一般社団法人誠美会,,その他の設立登記法人,東京都,渋谷区,道玄坂２丁目２７番２号２階,,13,113,1500043,,,,,,,2023-12-04,1,,,,,セイビカイ,0
282,2011801043432,新規,0,2023-12-04,2023-12-04,株式会社ＢＳＭ,,株式会社,東京都,葛飾区,高砂７丁目１５番３号,,13,122,1250054,,,,,,,2023-12-04,1,,,,,ビーエスエム,0
283,2011803005967,新規,0,2023-12-04,2023-12-04,Ｂｒｉｇｈｔ　Ｒｏａｄ合同会社,,合同会社,東京都,足立区,扇３丁目２番５－６０３号,,13,121,1230873,,,,,,,2023-12-04,1,,,,,ブライトロード,0
286,2012703002864,新規,0,2023-12-04,2023-12-04,合同会社ＳＢＣ,,合同会社,東京都,東久留米市,東本町１番７号ジンドービル５番館,,13,222,2030014,,,,,,,2023-12-04,1,,,,,エスビーシー,0
288,2012801022797,新規,0,2023-12-04,2023-12-04,株式会社ツキソウ,,株式会社,東京都,立川市,上砂町１丁目１１番地２６－２０７,,13,202,1900032,,,,,,,2023-12-04,1,,,,,ツキソウ,0
291,2013301051717,新規,0,2023-12-04,2023-12-04,株式会社ＺＥＮＢ　ＤＩＮＩＮＧ,,株式会社,東京都,豊島区,池袋２丁目４０番１３号,,13,116,1710014,,,,,,,2023-12-04,1,,,,,ゼンブダイニング,0
295,2020001154733,新規,0,2023-12-04,2023-12-04,株式会社よし田,,株式会社,神奈川県,横浜市磯子区,森１丁目１５番１２号第２磯子ハイツ１１０９号,,14,107,2350023,,,,,,,2023-12-04,1,,,,,ヨシダ,0
296,2020003025107,新規,0,2023-12-04,2023-12-04,合同会社ＴＯＫＩＺＯ,,合同会社,神奈川県,横浜市旭区,白根２丁目９番１－８０５号,,14,112,2410005,,,,,,,2023-12-04,1,,,,,トキゾー,0
297,2020005016203,新規,0,2023-12-04,2023-12-04,医療法人社団瑞葉会,,その他の設立登記法人,神奈川県,川崎市多摩区,登戸２４２７番地５メディカルプレイスタナカ３階・４階,,14,135,2140014,,,,,,,2023-12-04,1,,,,,ズイヨウカイ,0
299,2021001080878,新規,0,2023-12-04,2023-12-04,株式会社ケウ,,株式会社,神奈川県,小田原市,上新田１４番地の６,,14,206,2500877,,,,,,,2023-12-04,1,,,,,ケウ,0
301,2021003013852,新規,0,2023-12-04,2023-12-04,合同会社Ｄ‐Ｋｉｔｃｈｅｎ’ｓ,,合同会社,神奈川県,綾瀬市,深谷中１丁目２０番１３号コンソラーレ２０１,,14,218,2521107,,,,,,,2023-12-04,1,,,,,ディーキッチンズ,0
302,2021003013860,新規,0,2023-12-04,2023-12-04,合同会社エイトブリッジ,,合同会社,神奈川県,座間市,緑ケ丘５丁目５－３,,14,216,2520021,,,,,,,2023-12-04,1,,,,,エイトブリッジ,0
303,2021003013877,新規,0,2023-12-04,2023-12-04,ＫＦＴエステート合同会社,,合同会社,神奈川県,逗子市,新宿４丁目８番２１号,,14,208,2490007,,,,,,,2023-12-04,1,,,,,ケイエフティーエステート,0
305,2030001157479,新規,0,2023-12-04,2023-12-04,株式会社ＳＡＫＵＤＥＮ,,株式会社,埼玉県,朝霞市,溝沼３丁目１番２２号,,11,227,3510023,,,,,,,2023-12-04,1,,,,,サクデン,0
309,2030003023134,新規,0,2023-12-04,2023-12-04,合同会社リノップ,,合同会社,埼玉県,さいたま市岩槻区,本町３丁目３番８号ケイズグランド・パークＣ,,11,110,3390057,,,,,,,2023-12-04,1,,,,,リノップ,0
316,2040001130336,新規,0,2023-12-04,2023-12-04,ＣＷＶ株式会社,,株式会社,千葉県,茂原市,本納２２５３－２,,12,210,2994114,,,,,,,2023-12-04,1,,,,,シーダブリュブイ,0
325,2050001053908,新規,0,2023-12-04,2023-12-04,株式会社太平,,株式会社,茨城県,水戸市,平須町４９７番地,,08,201,3100853,,,,,,,2023-12-04,1,,,,,タヘイ,0
330,2060001036597,新規,0,2023-12-04,2023-12-04,株式会社宅造,,株式会社,栃木県,宇都宮市,下川俣町２０９番地２５１,,09,201,3210972,,,,,,,2023-12-04,1,,,,,タクゾウ,0
331,2060003004825,新規,0,2023-12-04,2023-12-04,合同会社ヴェリタス,,合同会社,栃木県,佐野市,戸奈良町１５７３番地２,,09,204,3270323,,,,,,,2023-12-04,1,,,,,ヴェリタス,0
334,2070001041134,新規,0,2023-12-04,2023-12-04,ＡＭ　ＴＲＡＤＩＮＧ株式会社,,株式会社,群馬県,伊勢崎市,平和町１８番１６号ヴィラコーポヤナイ１０６,,10,204,3720041,,,,,,,2023-12-04,1,,,,,エーエムトレーディング,0
335,2070003005178,新規,0,2023-12-04,2023-12-04,合同会社Ｒｉｖｅｒ　ｉｓｌａｎｄ．ｙ,,合同会社,群馬県,前橋市,青梨子町１４８９番地５,,10,201,3703573,,,,,,,2023-12-04,1,,,,,リバーアイランドワイ,0
337,2080401026873,新規,0,2023-12-04,2023-12-04,ＴＥＡ　ＥＮＥＲＧＹ株式会社,,株式会社,静岡県,浜松市西区,入野町９１５７番地の７松本ビル２階,,22,133,4328061,,,,,,,2023-12-04,1,,,,,ティーエナジー,0
342,2090003002438,新規,0,2023-12-04,2023-12-04,リジェネス北杜電源開発合同会社,,合同会社,山梨県,北杜市,小淵沢町５９９９番地,,19,209,4080044,,,,,,,2023-12-04,1,,,,,,0
344,2110001038010,新規,0,2023-12-04,2023-12-04,株式会社Ｄｅｓｉｇｎｅｒ’ｓ　Ｗｏｒｋｓ,,株式会社,新潟県,新潟市東区,中山６丁目１０番１５号,,15,102,9500861,,,,,,,2023-12-04,1,,,,,デザイナーズワークス,0
357,2120001260281,新規,0,2023-12-04,2023-12-04,おもてなしリンクス株式会社,,株式会社,大阪府,大阪市北区,梅田１丁目２番２号大阪駅前第２ビル１２－１２,,27,127,5300001,,,,,,,2023-12-04,1,,,,,オモテナシリンクス,0
358,2120001260315,新規,0,2023-12-04,2023-12-04,日本杉本特殊医療食品株式会社,,株式会社,大阪府,大阪市淀川区,西中島５丁目７－１７ビジネスウィップ第二新大阪７０１室,,27,123,5320011,,,,,,,2023-12-04,1,,,,,ニホンスギモトトクシュイリョウショクヒン,0
359,2120001260323,新規,0,2023-12-04,2023-12-04,株式会社ＯＭＯＩＯ,,株式会社,大阪府,大阪市西区,新町１丁目７－９ＴＡＭＴＡＭ四ツ橋ビル３階,,27,106,5500013,,,,,,,2023-12-04,1,,,,,オモイヲ,0
363,2120003025435,新規,0,2023-12-04,2023-12-04,ＨＹＤ合同会社,,合同会社,大阪府,寝屋川市,成田町１９番１０－１０１号,,27,215,5720004,,,,,,,2023-12-04,1,,,,,エイチワイディ,0
365,2120101068625,新規,0,2023-12-04,2023-12-04,Ｃ・Ｒ株式会社,,株式会社,大阪府,堺市中区,新家町６８５番地１,,27,142,5998232,,,,,,,2023-12-04,1,,,,,シーアール,0
368,2122001037619,新規,0,2023-12-04,2023-12-04,株式会社ＴＩＯ環境開発,,株式会社,大阪府,東大阪市,弥生町２番５３号,,27,227,5798026,,,,,,,2023-12-04,1,,,,,ティーアイオーカンキョウカイハツ,0
374,2130003009172,新規,0,2023-12-04,2023-12-04,合同会社ｔｏＮ,,合同会社,京都府,京都市中京区,錦小路通室町西入天神山町２９０－１,,26,104,6048221,,,,,,,2023-12-04,1,,,,,トゥーン,0
380,2150003003132,新規,0,2023-12-04,2023-12-04,合同会社Ｋａｍｅｋｕｍａ,,合同会社,奈良県,橿原市,土橋町２８３番地Ｂ－２０１,,29,205,6340844,,,,,,,2023-12-04,1,,,,,カメクマ,0
384,2170001017909,新規,0,2023-12-04,2023-12-04,株式会社三好コマースマーケティング,,株式会社,和歌山県,海南市,岡田２９１番地１,,30,202,6420012,,,,,,,2023-12-04,1,,,,,ミヨシコマースマーケティング,0
387,2180001158999,新規,0,2023-12-04,2023-12-04,株式会社ＬＬＴ,,株式会社,愛知県,名古屋市中川区,吉津３丁目２００３番地,,23,110,4540981,,,,,,,2023-12-04,1,,,,,エルエルティ,0
388,2180001159147,新規,0,2023-12-04,2023-12-04,株式会社ＩＢパートナー,,株式会社,愛知県,名古屋市名東区,藤が丘１３２番地マーサ藤が丘１Ｆ,,23,115,4650032,,,,,,,2023-12-04,1,,,,,アイビーパートナー,0
392,2190001030934,新規,0,2023-12-04,2023-12-04,株式会社キャンドル,,株式会社,三重県,桑名市,大字東方１０７番地１,,24,205,5110811,,,,,,,2023-12-04,1,,,,,キャンドル,0
393,2200001041946,新規,0,2023-12-04,2023-12-04,株式会社ＷＨＩＴＥＴＥＲＲＡＣＥ,,株式会社,岐阜県,岐阜市,本郷町５丁目１９番地２号,,21,201,5008302,,,,,,,2023-12-04,1,,,,,ホワイトテラス,0
397,2240001062501,新規,0,2023-12-04,2023-12-04,株式会社Ｋアセット,,株式会社,広島県,広島市安芸区,矢野西１丁目１番１６－１２０２号,,34,107,7360085,,,,,,,2023-12-04,1,,,,,ケイアセット,0
399,2250001020417,新規,0,2023-12-04,2023-12-04,株式会社ブレスクシステム,,株式会社,山口県,山口市,大内矢田北２丁目１番１２号,,35,203,7530221,,,,,,,2023-12-04,1,,,,,ブレスクシステム,0
409,2290001103928,新規,0,2023-12-04,2023-12-04,株式会社ＡＩＲＡＮＤ,,株式会社,福岡県,福岡市中央区,渡辺通２丁目８番１号フェリス薬院１０２号,,40,133,8100004,,,,,,,2023-12-04,1,,,,,アイランド,0
412,2290003014685,新規,0,2023-12-04,2023-12-04,合同会社トーラスサーティースリー,,合同会社,福岡県,福岡市西区,今宿東３丁目１７‐３,,40,135,8190161,,,,,,,2023-12-04,1,,,,,トーラスサーティースリー,0
417,2290801030099,新規,0,2023-12-04,2023-12-04,株式会社Ｋ‐Ｂｏａｒｄ,,株式会社,福岡県,北九州市小倉北区,宇佐町２丁目１０番１号,,40,106,8020016,,,,,,,2023-12-04,1,,,,,ケーボード,0
432,2360001032888,新規,0,2023-12-04,2023-12-04,株式会社ハルノコ,,株式会社,沖縄県,豊見城市,字豊見城１０８番地２,,47,212,9010241,,,,,,,2023-12-04,1,,,,,ハルノコ,0
443,2430001090508,新規,0,2023-12-04,2023-12-04,株式会社Ｐｒｏｍｎｉｕｍ,,株式会社,北海道,札幌市中央区,南八条西１２丁目２－１０,,01,101,0640808,,,,,,,2023-12-04,1,,,,,プロムニウム,0
444,2430003015693,新規,0,2023-12-04,2023-12-04,合同会社リルプラス,,合同会社,北海道,札幌市白石区,菊水五条１丁目５番６－３０５号,,01,104,0030805,,,,,,,2023-12-04,1,,,,,リルプラス,0
450,2480001012309,新規,0,2023-12-04,2023-12-04,株式会社ＧｏＣａＧｏ,,株式会社,徳島県,板野郡藍住町,富吉字須崎３６番地１３,,36,403,7711231,,,,,,,2023-12-04,1,,,,,ゴカゴ,0
461,3010003042358,新規,0,2023-12-04,2023-12-04,合同会社ファクルタス,,合同会社,東京都,千代田区,神田和泉町１番地６－１６ヤマトビル４０５,,13,101,1010024,,,,,,,2023-12-04,1,,,,,ファクルタス,0
463,3010103002261,新規,0,2023-12-04,2023-12-04,百事博合同会社,,合同会社,東京都,八王子市,子安町１丁目４８番９号２０２号室,,13,201,1920904,,,,,,,2023-12-04,1,,,,,ヒャクジハク,0
465,3010401178893,新規,0,2023-12-04,2023-12-04,株式会社ザイマックス分割準備会社,,株式会社,東京都,港区,赤坂１丁目１番１号,,13,103,1070052,,,,,,,2023-12-04,1,,,,,ザイマックスブンカツジュンビガイシャ,0
468,3010405022750,新規,0,2023-12-04,2023-12-04,行政書士法人ＥＯＳ,,その他の設立登記法人,東京都,港区,西新橋１丁目１番１号日比谷フォートタワー１６Ｆ,,13,103,1050003,,,,,,,2023-12-04,1,,,,,イーオーエス,0
477,3010905004546,新規,0,2023-12-04,2023-12-04,一般社団法人インクルーシブ・ソサエティ,,その他の設立登記法人,東京都,世田谷区,砧７丁目５番１３号,,13,112,1570073,,,,,,,2023-12-04,1,,,,,インクルーシブソサエティ,0
479,3011001158476,新規,0,2023-12-04,2023-12-04,ＳＮＯＷ　ＦＥＡＳＴ　ＣＯＲＰＯＲＡＴＩＯＮ株式会社,,株式会社,東京都,渋谷区,代々木１丁目２５番５号,,13,113,1510053,,,,,,,2023-12-04,1,,,,,スノーフィーストコーポレーション,0
481,3011003018026,新規,0,2023-12-04,2023-12-04,合同会社ＯＴコンサルティング,,合同会社,東京都,渋谷区,千駄ヶ谷２丁目２８番３号,,13,113,1510051,,,,,,,2023-12-04,1,,,,,オーティーコンサルティング,0
486,3011401025656,新規,0,2023-12-04,2023-12-04,株式会社矢野屋,,株式会社,東京都,板橋区,志村１丁目１０番４号,,13,119,1740056,,,,,,,2023-12-04,1,,,,,ヤノヤ,0
489,3011803005966,新規,0,2023-12-04,2023-12-04,合同会社ＫＩＫＵＣＨＩ,,合同会社,東京都,葛飾区,高砂２丁目１－２６リバーサイドフジ１０５号室,,13,122,1250054,,,,,,,2023-12-04,1,,,,,キクチ,0
493,3012801022788,新規,0,2023-12-04,2023-12-04,株式会社ＨＲＭ,,株式会社,東京都,昭島市,松原町４丁目７番１５号,,13,207,1960003,,,,,,,2023-12-04,1,,,,,エイチアールエム,0
497,3013301051716,新規,0,2023-12-04,2023-12-04,Ｐｌｕｓ未来株式会社,,株式会社,東京都,豊島区,西巣鴨１丁目１５番１２号,,13,116,1700001,,,,,,,2023-12-04,1,,,,,プラスミライ,0
498,3013303006899,新規,0,2023-12-04,2023-12-04,合同会社マップス,,合同会社,東京都,豊島区,南長崎５丁目８番１０号－３０２号,,13,116,1710052,,,,,,,2023-12-04,1,,,,,マップス,0
506,3020001154732,新規,0,2023-12-04,2023-12-04,Ｓ．Ｓ．Ｅｎｔｅｒｐｒｉｓｅ株式会社,,株式会社,神奈川県,横浜市西区,浅間町１丁目４番３号ウィザードビル４０２,,14,103,2200072,,,,,,,2023-12-04,1,,,,,エスエスエンタープライズ,0
507,3020001154740,新規,0,2023-12-04,2023-12-04,株式会社ちいさなゆりかご,,株式会社,神奈川県,横浜市中区,本牧町２丁目３２３番,,14,104,2310806,,,,,,,2023-12-04,1,,,,,チイサナユリカゴ,0
512,3020003025106,新規,0,2023-12-04,2023-12-04,合同会社ＦＵＪＩＨＡＲＡ,,合同会社,神奈川県,川崎市宮前区,神木本町２丁目３番７－４０２号メゾン元泉,,14,136,2160031,,,,,,,2023-12-04,1,,,,,フジハラ,0
513,3020005016202,新規,0,2023-12-04,2023-12-04,一般社団法人ヨコハマビルダーズ,,その他の設立登記法人,神奈川県,横浜市瀬谷区,三ツ境１０９番地３つどいパレス３０５,,14,114,2460022,,,,,,,2023-12-04,1,,,,,ヨコハマビルダーズ,0
516,3021001080877,新規,0,2023-12-04,2023-12-04,株式会社リュシオル,,株式会社,神奈川県,小田原市,上新田１４番地の６,,14,206,2500877,,,,,,,2023-12-04,1,,,,,リュシオル,0
517,3021003013868,新規,0,2023-12-04,2023-12-04,合同会社Ｋｚ　ｂｒｉｄｇｅ,,合同会社,神奈川県,相模原市中央区,下九沢１０９０－１セントエルモ橋本南６０４,,14,152,2520254,,,,,,,2023-12-04,1,,,,,ケイズブリッジ,0
521,3030001157387,新規,0,2023-12-04,2023-12-04,株式会社Ｌｕｄｅｒｅ,,株式会社,埼玉県,狭山市,富士見１丁目２９番２８号１２,,11,215,3501306,,,,,,,2023-12-04,1,,,,,ルーデレ,0
524,3030003023100,新規,0,2023-12-04,2023-12-04,合同会社いなり,,合同会社,埼玉県,入間市,扇台４丁目４番８号,,11,225,3580023,,,,,,,2023-12-04,1,,,,,イナリ,0
525,3030003023133,新規,0,2023-12-04,2023-12-04,Ｅ＆Ｅ　Ｎｉｐｐｏｎ合同会社,,合同会社,埼玉県,草加市,八幡町９２５番地３シティハイム中村第７コーポ１０３号,,11,221,3400006,,,,,,,2023-12-04,1,,,,,イーアンドイーニッポン,0
527,3040001131168,新規,0,2023-12-04,2023-12-04,株式会社二木エステートオートガレージ,,株式会社,千葉県,松戸市,二ツ木７３７番地,,12,207,2700027,,,,,,,2023-12-04,1,,,,,ニキエステートオートガレージ,0
533,3040003023834,新規,0,2023-12-04,2023-12-04,加林商事合同会社,,合同会社,千葉県,松戸市,馬橋１８２７番地の１－１０５号室,,12,207,2710051,,,,,,,2023-12-04,1,,,,,カリンショウジ,0
540,3050003007984,新規,0,2023-12-04,2023-12-04,ＨＡＭＤＡＮ商会合同会社,,合同会社,茨城県,坂東市,寺久１２５３－９,,08,228,3060656,,,,,,,2023-12-04,1,,,,,ハムダンショウカイ,0
541,3060003004824,新規,0,2023-12-04,2023-12-04,合同会社リベルシオ,,合同会社,栃木県,日光市,森友１０８１番地１１,,09,206,3212335,,,,,,,2023-12-04,1,,,,,リベルシオ,0
544,3070001041141,新規,0,2023-12-04,2023-12-04,株式会社Ｒｅ　ｗｒｉｔｅ,,株式会社,群馬県,太田市,新野町１１６７番地１,,10,205,3730032,,,,,,,2023-12-04,1,,,,,,0
551,3080401026864,新規,0,2023-12-04,2023-12-04,いやさかホールディングス株式会社,,株式会社,静岡県,浜松市西区,平松町１１１番地,,22,133,4311203,,,,,,,2023-12-04,1,,,,,イヤサカホールディングス,0
552,3080401026872,新規,0,2023-12-04,2023-12-04,株式会社ひとむすび,,株式会社,静岡県,浜松市中区,菅原町１３番１７－７０６号ディアレストいなんば,,22,131,4328041,,,,,,,2023-12-04,1,,,,,ヒトムスビ,0
556,3090001018443,新規,0,2023-12-04,2023-12-04,やまなし未来インベストメント株式会社,,株式会社,山梨県,甲府市,丸の内１丁目２０番８号,,19,201,4000031,,,,,,,2023-12-04,1,,,,,ヤマナシミライインベストメント,0
570,3120001260289,新規,0,2023-12-04,2023-12-04,株式会社晴晴,,株式会社,大阪府,大阪市阿倍野区,晴明通１６番１８号,,27,119,5450032,,,,,,,2023-12-04,1,,,,,ハレハレ,0
572,3120003025434,新規,0,2023-12-04,2023-12-04,ＦＺ合同会社,,合同会社,大阪府,大阪市旭区,赤川３丁目４番１１号１階,,27,117,5350005,,,,,,,2023-12-04,1,,,,,エフゼット,0
574,3120101068649,新規,0,2023-12-04,2023-12-04,株式会社ガレージランド,,株式会社,大阪府,和泉市,内田町１丁目８番５３号,,27,219,5941156,,,,,,,2023-12-04,1,,,,,ガレージランド,0
575,3120103005559,新規,0,2023-12-04,2023-12-04,合同会社ｃｌｏｓｓ,,合同会社,大阪府,堺市堺区,寺地町西１丁２番１６号,,27,141,5900961,,,,,,,2023-12-04,1,,,,,クロス,0
577,3120105009789,新規,0,2023-12-04,2023-12-04,一般社団法人ＤＲＥＡＭ,,その他の設立登記法人,大阪府,阪南市,箱作３３４－８－１０３号,,27,232,5990232,,,,,,,2023-12-04,1,,,,,ドリーム,0
579,3120901048429,新規,0,2023-12-04,2023-12-04,株式会社ラブピース,,株式会社,大阪府,豊中市,大黒町１丁目１３番１２号,,27,203,5610827,,,,,,,2023-12-04,1,,,,,ラブピース,0
581,3122001037626,新規,0,2023-12-04,2023-12-04,株式会社ＢＭＳ,,株式会社,大阪府,東大阪市,新庄１丁目４番６号,,27,227,5780963,,,,,,,2023-12-04,1,,,,,ビーエムエス,0
587,3150003003131,新規,0,2023-12-04,2023-12-04,合同会社リバーアップ,,合同会社,奈良県,大和高田市,大字出１５０番地５,,29,202,6350043,,,,,,,2023-12-04,1,,,,,リバーアップ,0
588,3170001017908,新規,0,2023-12-04,2023-12-04,株式会社アイザック,,株式会社,和歌山県,和歌山市,十二番丁１９番地ライオンズマンション和歌山９０４,,30,201,6408158,,,,,,,2023-12-04,1,,,,,アイザック,0
593,3180001159146,新規,0,2023-12-04,2023-12-04,株式会社ｔｗｏ‐ｔｏｎｅ,,株式会社,愛知県,一宮市,印田通２丁目５番地,,23,203,4910865,,,,,,,2023-12-04,1,,,,,ツートーン,0
597,3180003026071,新規,0,2023-12-04,2023-12-04,合同会社バイトアシス,,合同会社,愛知県,名古屋市中村区,名駅４丁目２４番５号第２森ビル４０１,,23,105,4500002,,,,,,,2023-12-04,1,,,,,バイトアシス,0
607,3220001025715,新規,0,2023-12-04,2023-12-04,株式会社Ｓｔｒｕｇｇｌｅ,,株式会社,石川県,金沢市,保古３丁目１３１番地（１００号）,,17,201,9218052,,,,,,,2023-12-04,1,,,,,ストラグル,0
616,3240001062509,新規,0,2023-12-04,2023-12-04,株式会社Ｒ２ＣＲＥＡＴＥ,,株式会社,広島県,広島市西区,中広町２丁目２２番２１号,,34,104,7330012,,,,,,,2023-12-04,1,,,,,アールツークリエイト,0
622,3290001103869,新規,0,2023-12-04,2023-12-04,株式会社Ａｍｅｒｉｓ,,株式会社,福岡県,福岡市中央区,桜坂１丁目３－２第一信和ビル４階,,40,133,8100024,,,,,,,2023-12-04,1,,,,,アメリス,0
623,3290001103893,新規,0,2023-12-04,2023-12-04,株式会社日と雫の暮らし,,株式会社,福岡県,福岡市中央区,大名２丁目２番１号２Ｆ,,40,133,8100041,,,,,,,2023-12-04,1,,,,,ヒトシズクノクラシ,0
626,3290803004554,新規,0,2023-12-04,2023-12-04,合同会社ｒａｂｂｉｔｆｉｓｈ,,合同会社,福岡県,北九州市小倉北区,米町１丁目１－１,,40,106,8020003,,,,,,,2023-12-04,1,,,,,ラビットフィッシュ,0
634,3320001020169,新規,0,2023-12-04,2023-12-04,エクセルジー株式会社,,株式会社,大分県,大分市,大字上宗方１９８７番地,,44,201,8701152,,,,,,,2023-12-04,1,,,,,エクセルジー,0
639,3320003004244,新規,0,2023-12-04,2023-12-04,合同会社ファリナム,,合同会社,大分県,別府市,石垣東７丁目６－３３ボヌール石垣Ｂ１０２号,,44,202,8740919,,,,,,,2023-12-04,1,,,,,ファリナム,0
646,3340001026107,新規,0,2023-12-04,2023-12-04,株式会社ｗｉｌｂｅｒｒｙ,,株式会社,鹿児島県,鹿児島市,加治屋町５番１２号２０１,,46,201,8920846,,,,,,,2023-12-04,1,,,,,ウィルベリー,0
655,3360003013522,新規,0,2023-12-04,2023-12-04,ＳＧ　Ｇｌｏｂａｌ合同会社,,合同会社,沖縄県,沖縄市,上地１丁目１６番１２号１Ｆ,,47,211,9040031,,,,,,,2023-12-04,1,,,,,エスジーグローバル,0
656,3370001050681,新規,0,2023-12-04,2023-12-04,株式会社ＤＣＣ,,株式会社,宮城県,仙台市泉区,北中山４丁目３２番地の１６,,04,105,9813215,,,,,,,2023-12-04,1,,,,,ディーシーシー,0
660,3390003002167,新規,0,2023-12-04,2023-12-04,合同会社ｇｉｋｅｎ,,合同会社,山形県,米沢市,桜木町２番８０号,,06,202,9920017,,,,,,,2023-12-04,1,,,,,ギケン,0
666,3430001090548,新規,0,2023-12-04,2023-12-04,日本投資移民センター株式会社,,株式会社,北海道,札幌市中央区,北四条東１丁目３番１－１８０７号,,01,101,0600034,,,,,,,2023-12-04,1,,,,,ニホントウシイミンセンター,0
667,3430001090556,新規,0,2023-12-04,2023-12-04,株式会社ＭＩＹＡＢＩ,,株式会社,北海道,札幌市北区,北三十三条西４丁目１番７－２０１号,,01,102,0010033,,,,,,,2023-12-04,1,,,,,ミヤビ,0
668,3430001090564,新規,0,2023-12-04,2023-12-04,若林サッシ株式会社,,株式会社,北海道,札幌市白石区,栄通２丁目２番５－１００５号,,01,104,0030021,,,,,,,2023-12-04,1,,,,,ワカバヤシサッシ,0
669,3430003015701,新規,0,2023-12-04,2023-12-04,合同会社ＴＴＴＴ,,合同会社,北海道,札幌市西区,山の手三条７丁目３番１０号,,01,107,0630003,,,,,,,2023-12-04,1,,,,,ティーティーティーティー,0
671,3460401001259,新規,0,2023-12-04,2023-12-04,株式会社浅草軒,,株式会社,北海道,根室市,梅ケ枝町３丁目２３番地,,01,223,0870052,,,,,,,2023-12-04,1,,,,,アサクサケン,0
673,3480001012308,新規,0,2023-12-04,2023-12-04,株式会社鳴門クリーン,,株式会社,徳島県,鳴門市,撫養町立岩字原田１３番地３,,36,202,7720017,,,,,,,2023-12-04,1,,,,,ナルトクリーン,0
691,4010001240466,新規,0,2023-12-04,2023-12-04,ｃｒｏｓｓｍａｒｔ株式会社,,株式会社,東京都,中央区,銀座１丁目２２番１１号銀座大竹ビジデンス２Ｆ,,13,102,1040061,,,,,,,2023-12-04,1,,,,,クロスマート,0
697,4010005037561,新規,0,2023-12-04,2023-12-04,一般社団法人Ｔｈｅ　Ｐｅａｋ　Ｓｅｒｉｅｓ,,その他の設立登記法人,東京都,千代田区,四番町４番地９新東京国際リーガル内,,13,101,1020081,,,,,,,2023-12-04,1,,,,,ザピークシリーズ,0
698,4010005037594,新規,0,2023-12-04,2023-12-04,一般社団法人日本臨床プレシジョンメディシン研究会,,その他の設立登記法人,東京都,中央区,京橋３丁目３番１３号,,13,102,1040031,,,,,,,2023-12-04,1,,,,,ニホンリンショウプレシジョンメディシンケンキュウカイ,0
706,4010401178835,新規,0,2023-12-04,2023-12-04,ＯＧＶ株式会社,,株式会社,東京都,港区,麻布台３丁目１番６号飯倉片町アネックス５Ｆ,,13,103,1060041,,,,,,,2023-12-04,1,,,,,オージーブイ,0
709,4010403031463,新規,0,2023-12-04,2023-12-04,Ａｍｕｎ　ＳＰＶ合同会社,,合同会社,東京都,港区,六本木１丁目１０番３－９０１号スウェーデン大使館ビル内,,13,103,1060032,,,,,,,2023-12-04,1,,,,,アムンエスピーブイ,0
711,4010501051454,新規,0,2023-12-04,2023-12-04,株式会社ＮＯＡ,,株式会社,東京都,台東区,上野６丁目８－１９,,13,106,1100005,,,,,,,2023-12-04,1,,,,,ノア,0
713,4010601064240,新規,0,2023-12-04,2023-12-04,株式会社２１４,,株式会社,東京都,江東区,豊洲６丁目３番１号,,13,108,1350061,,,,,,,2023-12-04,1,,,,,ニイイチヨン,0
716,4010603010498,新規,0,2023-12-04,2023-12-04,合同会社ミニッツコーポレーション,,合同会社,東京都,江東区,住吉２丁目６番７号アジロビル４Ｆ,,13,108,1350002,,,,,,,2023-12-04,1,,,,,ミニッツコーポレーション,0
719,4010901054263,新規,0,2023-12-04,2023-12-04,株式会社ＹＭ,,株式会社,東京都,世田谷区,等々力８丁目２１番１７号,,13,112,1580082,,,,,,,2023-12-04,1,,,,,ワイエム,0
722,4011001158582,新規,0,2023-12-04,2023-12-04,株式会社タンネ,,株式会社,東京都,渋谷区,南平台町１７番１１０３号,,13,113,1500036,,,,,,,2023-12-04,1,,,,,タンネ,0
723,4011001158590,新規,0,2023-12-04,2023-12-04,株式会社ＨＹ＆Ｅ,,株式会社,東京都,渋谷区,猿楽町１０番１号,,13,113,1500033,,,,,,,2023-12-04,1,,,,,エイチワイアンドイー,0
730,4011103013801,新規,0,2023-12-04,2023-12-04,合同会社ＬｉｎＮｏａ,,合同会社,東京都,新宿区,西新宿３丁目３番１３号西新宿水間ビル６階,,13,104,1600023,,,,,,,2023-12-04,1,,,,,リンノア,0
734,4011701026824,新規,0,2023-12-04,2023-12-04,アキラ商事株式会社,,株式会社,東京都,江戸川区,西小岩５丁目４－１１三田西小岩ガーデン４０２,,13,123,1330057,,,,,,,2023-12-04,1,,,,,アキラショウジ,0
756,4021001080876,新規,0,2023-12-04,2023-12-04,株式会社ひらもと装飾,,株式会社,神奈川県,相模原市緑区,鳥屋２４５６番地,,14,151,2520155,,,,,,,2023-12-04,1,,,,,ヒラモトソウショク,0
757,4021001080884,新規,0,2023-12-04,2023-12-04,株式会社森板金サービス,,株式会社,神奈川県,相模原市南区,南台５丁目６番１７号太子堂１０３,,14,153,2520314,,,,,,,2023-12-04,1,,,,,モリバンキンサービス,0
758,4021003013859,新規,0,2023-12-04,2023-12-04,合同会社ＲｉＴＡ,,合同会社,神奈川県,藤沢市,辻堂４丁目９番２７号,,14,205,2510047,,,,,,,2023-12-04,1,,,,,リタ,0
766,4030001157452,新規,0,2023-12-04,2023-12-04,株式会社ｆｏｒｍｕｌａ,,株式会社,埼玉県,熊谷市,久下２丁目３,,11,202,3600026,,,,,,,2023-12-04,1,,,,,フォーミュラ,0
767,4030001157469,新規,0,2023-12-04,2023-12-04,株式会社Ｋ’ＳＴＹＬＥ,,株式会社,埼玉県,草加市,稲荷６丁目１４番１７－１号,,11,221,3400003,,,,,,,2023-12-04,1,,,,,ケースタイル,0
776,4040001131183,新規,0,2023-12-04,2023-12-04,株式会社ＳＨＯ,,株式会社,千葉県,市原市,山田橋１丁目１番地９,,12,219,2900021,,,,,,,2023-12-04,1,,,,,エスエイチオー,0
777,4040001131217,新規,0,2023-12-04,2023-12-04,株式会社健康な空間,,株式会社,千葉県,山武郡九十九里町,西野１８５０番地１,,12,403,2830116,,,,,,,2023-12-04,1,,,,,ケンコウナクウカン,0
784,4040003023841,新規,0,2023-12-04,2023-12-04,合同会社ＦＳナイン,,合同会社,千葉県,旭市,ニの６１１８番地８,,12,215,2892504,,,,,,,2023-12-04,1,,,,,エフエスナイン,0
785,4050001053872,新規,0,2023-12-04,2023-12-04,株式会社ＭＳ　ＴＲＡＤＩＮＧ,,株式会社,茨城県,古河市,尾崎２８１７番地２,,08,204,3060101,,,,,,,2023-12-04,1,,,,,エムエストレーディング,0
786,4050003007983,新規,0,2023-12-04,2023-12-04,合同会社ＴＣＳおむすび,,合同会社,茨城県,牛久市,さくら台２丁目１５－１５フェニックス柏田１０１,,08,219,3001217,,,,,,,2023-12-04,1,,,,,トータルケアサービスオムスビ,0
787,4060001036595,新規,0,2023-12-04,2023-12-04,株式会社ＤＥＬ　ＬＩＫＡ,,株式会社,栃木県,宇都宮市,宮山田町６５４番地１,,09,201,3210411,,,,,,,2023-12-04,1,,,,,デルリカ,0
790,4080401026863,新規,0,2023-12-04,2023-12-04,株式会社プレザン,,株式会社,静岡県,浜松市東区,西塚町３２２番地の１１,,22,132,4350044,,,,,,,2023-12-04,1,,,,,プレザン,0
791,4080401026871,新規,0,2023-12-04,2023-12-04,株式会社ｂａｒｎａｃｌｅａ,,株式会社,静岡県,浜松市浜北区,尾野１９９１番地の２,,22,136,4340002,,,,,,,2023-12-04,1,,,,,バーナクリア,0
792,4080403004917,新規,0,2023-12-04,2023-12-04,合同会社Ｂラボ,,合同会社,静岡県,袋井市,上山梨２２２番地,,22,216,4370125,,,,,,,2023-12-04,1,,,,,ビーラボ,0
794,4090001018442,新規,0,2023-12-04,2023-12-04,株式会社フォレストワークス,,株式会社,山梨県,南都留郡鳴沢村,１０４４５番地５０１,,19,429,4010320,,,,,,,2023-12-04,1,,,,,フォレストワークス,0
797,4100001037003,新規,0,2023-12-04,2023-12-04,Ｈａｐｐｏ　Ｂｉｌｌｉｋｅｎ株式会社,,株式会社,長野県,北安曇郡白馬村,大字北城９４６４－４０１,,20,485,3999301,,,,,,,2023-12-04,1,,,,,ハッポビリケン,0
799,4100003007292,新規,0,2023-12-04,2023-12-04,合同会社クニッツアンドリベルズ,,合同会社,長野県,下伊那郡高森町,山吹１９０２－１,,20,403,3993101,,,,,,,2023-12-04,1,,,,,クニッツアンドリベルズ,0
812,4120001260214,新規,0,2023-12-04,2023-12-04,初航自動設備制作株式会社,,株式会社,大阪府,大阪市阿倍野区,王子町３丁目５番１３号,,27,119,5450023,,,,,,,2023-12-04,1,,,,,ショコウジドウセツビセイサク,0
813,4120001260288,新規,0,2023-12-04,2023-12-04,ＫｅｙＴｅｃｈ株式会社,,株式会社,大阪府,大阪市東住吉区,北田辺４丁目３－２０,,27,121,5460044,,,,,,,2023-12-04,1,,,,,キーテック,0
817,4120101068623,新規,0,2023-12-04,2023-12-04,株式会社ＮＩＫＡ,,株式会社,大阪府,河内長野市,千代田南町４番８号,,27,216,5860018,,,,,,,2023-12-04,1,,,,,ニカ,0
819,4120901048428,新規,0,2023-12-04,2023-12-04,ＫーＶＡＮＳ株式会社,,株式会社,大阪府,高槻市,牧田町１５－１－５２２,,27,207,5690855,,,,,,,2023-12-04,1,,,,,ケーバンズ,0
821,4122001037591,新規,0,2023-12-04,2023-12-04,株式会社Ｆ．Ｙ．Ｇ,,株式会社,大阪府,八尾市,跡部本町３丁目２番２７号,,27,212,5810064,,,,,,,2023-12-04,1,,,,,エフワイジー,0
824,4140001132519,新規,0,2023-12-04,2023-12-04,株式会社Ｂｅｓｔｉｅａｔ,,株式会社,兵庫県,神戸市灘区,水道筋６丁目１番３号,,28,102,6570831,,,,,,,2023-12-04,1,,,,,ベスティート,0
825,4140003019870,新規,0,2023-12-04,2023-12-04,合同会社エール,,合同会社,兵庫県,宝塚市,今里町２４番２９号,,28,214,6650862,,,,,,,2023-12-04,1,,,,,エール,0
826,4140003019879,新規,0,2023-12-04,2023-12-04,合同会社ｃｏｒｅｔｏ,,合同会社,兵庫県,神戸市東灘区,岡本７丁目１４－５,,28,101,6580072,,,,,,,2023-12-04,1,,,,,コレト,0
828,4140005026824,新規,0,2023-12-04,2023-12-04,一般社団法人医療用ブタ開発機構,,その他の設立登記法人,兵庫県,神戸市中央区,楠町７丁目５－２神戸大学大学院医学研究科肝胆膵外科学内,,28,110,6500017,,,,,,,2023-12-04,1,,,,,イリョウヨウブタカイハツキコウ,0
829,4150003003130,新規,0,2023-12-04,2023-12-04,美食計画合同会社,,合同会社,奈良県,奈良市,八条４丁目６３８番地１Ｍｏｋｕｌａｂ,,29,201,6308145,,,,,,,2023-12-04,1,,,,,ビショクケイカク,0
837,4180001159137,新規,0,2023-12-04,2023-12-04,Ｇｏｌｄ　Ｍｏｕｎｔａｉｎ小牧株式会社,,株式会社,愛知県,小牧市,大字村中１３６８番地１ＶＩＬＬＡＮＯＶＡＫＯＭＡＫＩ２階,,23,219,4850082,,,,,,,2023-12-04,1,,,,,ゴールドマウンテンコマキ,0
838,4180001159161,新規,0,2023-12-04,2023-12-04,株式会社Ｂｉｇ　Ｄｉｐｐｅｒ,,株式会社,愛知県,名古屋市中川区,野田２丁目４２７番地（キャトルセゾン野田１０１号）,,23,110,4540912,,,,,,,2023-12-04,1,,,,,ビッグディッパー,0
839,4180003026062,新規,0,2023-12-04,2023-12-04,合同会社吉,,合同会社,愛知県,名古屋市西区,中小田井５丁目３００番地（丸協ビル１－５０５号）,,23,104,4520822,,,,,,,2023-12-04,1,,,,,ヨシ,0
842,4180303005922,新規,0,2023-12-04,2023-12-04,合同会社ＳＫＹ　ＢＬＵＥ,,合同会社,愛知県,額田郡幸田町,大字大草字前田７７番地,,23,501,4440103,,,,,,,2023-12-04,1,,,,,スカイブルー,0
844,4190001030932,新規,0,2023-12-04,2023-12-04,株式会社ケイテック,,株式会社,三重県,亀山市,本町４丁目１１番５号,,24,210,5190116,,,,,,,2023-12-04,1,,,,,ケイテック,0
845,4190003004521,新規,0,2023-12-04,2023-12-04,ＢｅｅＶａｌｌｅｙＪａｐａｎ合同会社,,合同会社,三重県,伊賀市,西高倉１０８５番地,,24,216,5180025,,,,,,,2023-12-04,1,,,,,ビーバレージャパン,0
847,4200001041944,新規,0,2023-12-04,2023-12-04,株式会社ナカジマ不動産,,株式会社,岐阜県,羽島郡笠松町,江川５０番地１ラ・カーサ・フェリーチェ３Ｃ,,21,303,5016032,,,,,,,2023-12-04,1,,,,,ナカジマフドウサン,0
850,4240001062482,新規,0,2023-12-04,2023-12-04,株式会社キリンのマークのウエスギ,,株式会社,広島県,福山市,延広町５番１４号,,34,207,7200064,,,,,,,2023-12-04,1,,,,,キリンノマークノウエスギ,0
864,4290801030056,新規,0,2023-12-04,2023-12-04,ｕｍｉｃａｆｅ株式会社,,株式会社,福岡県,北九州市八幡西区,浅川２丁目１３番３３号トレアマーレ１０２号室,,40,109,8070872,,,,,,,2023-12-04,1,,,,,ウミカフェ,0
866,4320003004243,新規,0,2023-12-04,2023-12-04,合同会社笑楽,,合同会社,大分県,別府市,大字鶴見１７６５番地の２ガーデンヒルズ松本ＩＩ２０１,00132865,44,202,8740840,,,,,,,2023-12-04,1,,,,,ワラク,0
875,4330005010726,新規,0,2023-12-04,2023-12-04,宗教法人熊本東聖書キリスト教会,,その他の設立登記法人,熊本県,上益城郡益城町,大字安永７３１－３,,43,443,8612231,,,,,,,2023-12-04,1,,,,,クマモトヒガシセイショキリストキョウカイ,0
877,4340001026114,新規,0,2023-12-04,2023-12-04,株式会社キワキ木材,,株式会社,鹿児島県,鹿児島市,東開町３番地７５,,46,201,8910115,,,,,,,2023-12-04,1,,,,,キワキモクザイ,0
881,4360001032878,新規,0,2023-12-04,2023-12-04,株式会社沖縄電源開発,,株式会社,沖縄県,糸満市,西崎６丁目１４番１０号エレガントスタイルＳ２－Ａ,,47,210,9010305,,,,,,,2023-12-04,1,,,,,オキナワデンゲンカイハツ,0
882,4360001032886,新規,0,2023-12-04,2023-12-04,ＰＬＵＳハビット７株式会社,,株式会社,沖縄県,糸満市,字糸満１４４６番地の６,,47,210,9010361,,,,,,,2023-12-04,1,,,,,プラスハビットセブン,0
884,4370001050672,新規,0,2023-12-04,2023-12-04,グランド自動車株式会社,,株式会社,宮城県,仙台市若林区,六丁の目元町３番２３号,,04,103,9840014,,,,,,,2023-12-04,1,,,,,グランドジドウシャ,0
885,4370001050689,新規,0,2023-12-04,2023-12-04,Ｃ．Ｂ．ＴＲＵＳＴ株式会社,,株式会社,宮城県,遠田郡美里町,二郷字佐野七号１０番地４,,04,505,9894206,,,,,,,2023-12-04,1,,,,,シービートラスト,0
890,4380001034162,新規,0,2023-12-04,2023-12-04,株式会社にじいろファルマ,,株式会社,福島県,郡山市,富久山町久保田字久保田２０３,,07,203,9638071,,,,,,,2023-12-04,1,,,,,ニジイロファルマ,0
899,4430003015709,新規,0,2023-12-04,2023-12-04,合同会社ＳＡＮＲＩＴＳＵ,,合同会社,北海道,札幌市白石区,川北２３０１番地１,,01,104,0030859,,,,,,,2023-12-04,1,,,,,サンリツ,0
905,4460301005185,新規,0,2023-12-04,2023-12-04,トレンドリサーチ株式会社,,株式会社,北海道,網走市,南五条西１丁目８番地,,01,211,0930015,,,,,,,2023-12-04,1,,,,,トレンドリサーチ,0
907,4470003002521,新規,0,2023-12-04,2023-12-04,合同会社ＴＭＭＳ,,合同会社,香川県,高松市,木太町２３６８番地４,,37,201,7600080,,,,,,,2023-12-04,1,,,,,ティーエムエムエス,0
910,4500001025339,新規,0,2023-12-04,2023-12-04,株式会社のどか荘暮らしの設計室,,株式会社,愛媛県,西条市,実報寺甲２５２番地２,,38,206,7991317,,,,,,,2023-12-04,1,,,,,ノドカソウクラシノセッケイシツ,0
917,5010001240481,新規,0,2023-12-04,2023-12-04,サンサンエネルギー株式会社,,株式会社,東京都,千代田区,霞が関３丁目２番５号,,13,101,1000013,,,,,,,2023-12-04,1,,,,,サンサンエネルギー,0
922,5010401178842,新規,0,2023-12-04,2023-12-04,株式会社ＨＹＯ‐ＤＯＲＵ,,株式会社,東京都,港区,東麻布１丁目１３番２号ライオンズマンション麻布７０２号,,13,103,1060044,,,,,,,2023-12-04,1,,,,,ヒョードル,0
923,5010401178859,新規,0,2023-12-04,2023-12-04,タジー株式会社,,株式会社,東京都,港区,南青山３丁目１番３６号,,13,103,1070062,,,,,,,2023-12-04,1,,,,,タジー,0
924,5010401178867,新規,0,2023-12-04,2023-12-04,株式会社ｓｕｂケッサイ,,株式会社,東京都,港区,北青山２丁目７番２０号猪瀬ビル２Ｆ,,13,103,1070061,,,,,,,2023-12-04,1,,,,,エスユービーケッサイ,0
925,5010405022749,新規,0,2023-12-04,2023-12-04,一般社団法人サイバー空間総合研究所,,その他の設立登記法人,東京都,港区,北青山１丁目４番５号,,13,103,1070061,,,,,,,2023-12-04,1,,,,,サイバークウカンソウゴウケンキュウジョ,0
930,5010901054279,新規,0,2023-12-04,2023-12-04,株式会社ＶＡＺ　ＬＡＢＯ,,株式会社,東京都,世田谷区,駒沢４丁目２３－１８Ｎо１００８,,13,112,1540012,,,,,,,2023-12-04,1,,,,,バズラボ,0
947,5011401025654,新規,0,2023-12-04,2023-12-04,株式会社Ｔ’ｓ　ｗｏｒｋｓ,,株式会社,東京都,板橋区,双葉町９番４号,,13,119,1730011,,,,,,,2023-12-04,1,,,,,ティーズワークス,0
954,5011701026807,新規,0,2023-12-04,2023-12-04,株式会社３２,,株式会社,東京都,江戸川区,本一色２丁目２３番２１号,,13,123,1330044,,,,,,,2023-12-04,1,,,,,サーティーツー,0
955,5011801043438,新規,0,2023-12-04,2023-12-04,楽の夢株式会社,,株式会社,東京都,葛飾区,東新小岩２丁目２８番１号,,13,122,1240023,,,,,,,2023-12-04,1,,,,,ラクノユメ,0
958,5012401041294,新規,0,2023-12-04,2023-12-04,株式会社ｇｈｏｓｔ,,株式会社,東京都,武蔵野市,吉祥寺本町１丁目２６番１号ＪＫ吉祥寺ビル１０２,,13,203,1800004,,,,,,,2023-12-04,1,,,,,ゴースト,0
964,5020001154656,新規,0,2023-12-04,2023-12-04,ＯＥＭ３株式会社,,株式会社,神奈川県,横浜市戸塚区,秋葉町５６１番地１シティテラス横濱戸塚１５６号,,14,110,2450052,,,,,,,2023-12-04,1,,,,,オーイーエムスリー,0
966,5021001080875,新規,0,2023-12-04,2023-12-04,株式会社ＮｙｏＮｙｏ,,株式会社,神奈川県,厚木市,戸室３丁目１０－２９コーポ寺ヶ丘Ａ２０２,,14,212,2430031,,,,,,,2023-12-04,1,,,,,ニョニョ,0
967,5021001080883,新規,0,2023-12-04,2023-12-04,富澤株式会社,,株式会社,神奈川県,足柄下郡箱根町,宮城野６３４－１,,14,382,2500401,,,,,,,2023-12-04,1,,,,,トミザワ,0
969,5021003013866,新規,0,2023-12-04,2023-12-04,プロウスリブ合同会社,,合同会社,神奈川県,大和市,つきみ野５丁目１０番地７,,14,213,2420002,,,,,,,2023-12-04,1,,,,,プロウスリブ,0
975,5030001157237,新規,0,2023-12-04,2023-12-04,ＡＵＴＯ　ＣＬＩＣＫ株式会社,,株式会社,埼玉県,春日部市,新川３３１－２,,11,214,3440003,,,,,,,2023-12-04,1,,,,,オートクリック,0
976,5030001157451,新規,0,2023-12-04,2023-12-04,株式会社武翔,,株式会社,埼玉県,新座市,馬場２丁目２番１号グリーンハイツ小池３０２号室,,11,230,3520016,,,,,,,2023-12-04,1,,,,,ブショウ,0
995,5050001053896,新規,0,2023-12-04,2023-12-04,株式会社アナガタ,,株式会社,茨城県,つくば市,学園の森１丁目２５番地２０,,08,220,3050816,,,,,,,2023-12-04,1,,,,,アナガタ,0
998,5050003007982,新規,0,2023-12-04,2023-12-04,合同会社Ｎｅｗ　Ｒｉｃｈ,,合同会社,茨城県,水戸市,酒門町４２２７番地の３ファウンダーＡ棟１０２号,,08,201,3100841,,,,,,,2023-12-04,1,,,,,ニューリッチ,0
1001,5060003004822,新規,0,2023-12-04,2023-12-04,ＦＯＯＲＥ合同会社,,合同会社,栃木県,下都賀郡壬生町,あけぼの町１５番１１号,,09,361,3210206,,,,,,,2023-12-04,1,,,,,フーレ,0
1011,5080401026870,新規,0,2023-12-04,2023-12-04,Ａｎｃｈｏｒ株式会社,,株式会社,静岡県,浜松市中区,富塚町２９１番地の４,,22,131,4328002,,,,,,,2023-12-04,1,,,,,アンカー,0
1017,5100003007291,新規,0,2023-12-04,2023-12-04,おだるま合同会社,,合同会社,長野県,東筑摩郡生坂村,３３１０－８,,20,448,3997201,,,,,,,2023-12-04,1,,,,,オダルマ,0
1019,5110001038008,新規,0,2023-12-04,2023-12-04,株式会社テラスエンジニア,,株式会社,新潟県,新潟市中央区,上所１丁目１番２４号Ｎビル３階Ｃ－２,,15,103,9500994,,,,,,,2023-12-04,1,,,,,テラスエンジニア,0
1029,5120001260287,新規,0,2023-12-04,2023-12-04,株式会社センチュリオン,,株式会社,大阪府,大阪市北区,天神橋６丁目５－２４ＧＡＺＥＬＬＥＲＩＯ．６ＥＡＳＴ８０１号室,,27,127,5300041,,,,,,,2023-12-04,1,,,,,センチュリオン,0
1033,5120003025440,新規,0,2023-12-04,2023-12-04,合同会社Ｐ‐ＬＩＮＥ,,合同会社,大阪府,大阪市東淀川区,東中島１丁目１３番３－２０４号,,27,114,5330033,,,,,,,2023-12-04,1,,,,,ピーライン,0
1034,5120005024028,新規,0,2023-12-04,2023-12-04,一般社団法人日中国際文化教育交流協会,,その他の設立登記法人,大阪府,大阪市浪速区,元町１丁目１番２０号新賑橋ビル,,27,111,5560016,,,,,,,2023-12-04,1,,,,,ニッチュウコクサイブンカキョウイクコウリュウキョウカイ,0
1041,5122001037616,新規,0,2023-12-04,2023-12-04,株式会社ＳｕｎＲｉｓｅ,,株式会社,大阪府,八尾市,龍華町１丁目４番２－３７１３号,,27,212,5810069,,,,,,,2023-12-04,1,,,,,サンライズ,0
1043,5130001075841,新規,0,2023-12-04,2023-12-04,株式会社ＡＥＬＬＡ,,株式会社,京都府,京都市伏見区,下鳥羽広長町２１７番地,,26,109,6128473,,,,,,,2023-12-04,1,,,,,アエラ,0
1046,5140003019878,新規,0,2023-12-04,2023-12-04,合同会社ウェルスモ,,合同会社,兵庫県,西宮市,若松町５番３号,,28,204,6620035,,,,,,,2023-12-04,1,,,,,ウェルスモ,0
1053,5180001159103,新規,0,2023-12-04,2023-12-04,株式会社エスティファーム,,株式会社,愛知県,半田市,幸町１丁目３０番地,,23,205,4750814,,,,,,,2023-12-04,1,,,,,エスティファーム,0
1054,5180001159177,新規,0,2023-12-04,2023-12-04,株式会社ＮＥＷＳ,,株式会社,愛知県,名古屋市中区,新栄１丁目１６番２号,,23,106,4600007,,,,,,,2023-12-04,1,,,,,ニュース,0
1059,5190001030923,新規,0,2023-12-04,2023-12-04,ＹＵ　ＤＲＩＬＬ株式会社,,株式会社,三重県,松阪市,久保町４９２番地１カーサ・オリージャＢ棟１０１,,24,204,5150044,,,,,,,2023-12-04,1,,,,,ユードリル,0
1068,5250001020414,新規,0,2023-12-04,2023-12-04,株式会社ティティデザインスタジオ,,株式会社,山口県,防府市,大字田島２３５５番地の３,,35,206,7470834,,,,,,,2023-12-04,1,,,,,ティティデザインスタジオ,0
1074,5290003014682,新規,0,2023-12-04,2023-12-04,合同会社Ｉｔｏ　ｗｏｒｋｓ,,合同会社,福岡県,福津市,津屋崎７丁目２４番４号シーサイドヒルズＨＫＩＶ２０１号,00132862,40,224,8113304,,,,,,,2023-12-04,1,,,,,イトウワークス,0
1077,5290801030105,新規,0,2023-12-04,2023-12-04,株式会社ｂｏｎｈｅｕｒ,,株式会社,福岡県,直方市,大字感田２１３０番地１サンスカイコーポ２０１号,,40,204,8220001,,,,,,,2023-12-04,1,,,,,ボヌール,0
1081,5330001031535,新規,0,2023-12-04,2023-12-04,エムアイエー株式会社,,株式会社,熊本県,熊本市北区,植木町小野５６９番地,,43,105,8610125,,,,,,,2023-12-04,1,,,,,エムアイエー,0
1082,5330003010108,新規,0,2023-12-04,2023-12-04,リコナーズ合同会社,,合同会社,熊本県,熊本市東区,長嶺南７丁目１０番６２号,,43,102,8618039,,,,,,,2023-12-04,1,,,,,リコナーズ,0
1104,5500001025338,新規,0,2023-12-04,2023-12-04,株式会社Ａｌｐｈａｂｅｔ,,株式会社,愛媛県,松山市,道後町２丁目１２番１号,,38,201,7900843,,,,,,,2023-12-04,1,,,,,,0
1111,6010001240464,新規,0,2023-12-04,2023-12-04,株式会社同文書院インターナショナル,,株式会社,東京都,文京区,小石川５丁目２４番３号,,13,105,1120002,,,,,,,2023-12-04,1,,,,,ドウブンショインインターナショナル,0
1112,6010001240489,新規,0,2023-12-04,2023-12-04,株式会社ＡＦ．ＣＯＭＰＡＮＹ,,株式会社,東京都,中央区,京橋２丁目１２番２号ＮＥＷＳＸ１０階,,13,102,1040031,,,,,,,2023-12-04,1,,,,,エーエフカンパニー,0
1113,6010003042339,新規,0,2023-12-04,2023-12-04,ＬＰインベストメンツ合同会社,,合同会社,東京都,千代田区,神田錦町３丁目７番２号東京堂錦町ビル７Ｆ,,13,101,1010054,,,,,,,2023-12-04,1,,,,,エルピーインベストメンツ,0
1119,6010403031494,新規,0,2023-12-04,2023-12-04,Ｓｏｕｐ合同会社,,合同会社,東京都,港区,南青山３丁目１番３６号青山丸竹ビル６Ｆ,,13,103,1070062,,,,,,,2023-12-04,1,,,,,スープ,0
1127,6010901054278,新規,0,2023-12-04,2023-12-04,黒沢商店株式会社,,株式会社,東京都,世田谷区,深沢６丁目３０番１６号,,13,112,1580081,,,,,,,2023-12-04,1,,,,,クロサワショウテン,0
1130,6011001158589,新規,0,2023-12-04,2023-12-04,株式会社ＥＣ　Ｌａｂｏｒａｔｏｒｙ,,株式会社,東京都,渋谷区,幡ヶ谷３丁目３７番１８－２０１号ザ・パークハウス渋谷笹塚,,13,113,1510072,,,,,,,2023-12-04,1,,,,,イーシーラボラトリー,0
1135,6011103013799,新規,0,2023-12-04,2023-12-04,合同会社マルマケ,,合同会社,東京都,新宿区,新宿２丁目１２番１３号新宿アントレサロンビル２階,,13,104,1600022,,,,,,,2023-12-04,1,,,,,マルマケ,0
1136,6011301029218,新規,0,2023-12-04,2023-12-04,株式会社Ｅ‐スペース,,株式会社,東京都,杉並区,下井草５丁目２２番１６グラントゥルース井荻６０４号,,13,115,1670022,,,,,,,2023-12-04,1,,,,,イースペース,0
1137,6011303004986,新規,0,2023-12-04,2023-12-04,高山発展合同会社,,合同会社,東京都,杉並区,高円寺南２丁目２－１３アンビエンス高円寺３階Ｅ号室,,13,115,1660003,,,,,,,2023-12-04,1,,,,,コウザンハッテン,0
1139,6011403004192,新規,0,2023-12-04,2023-12-04,合同会社ＱＵＥＳＴ,,合同会社,東京都,板橋区,上板橋３丁目２５－８,,13,119,1740076,,,,,,,2023-12-04,1,,,,,クエスト,0
1142,6011701026806,新規,0,2023-12-04,2023-12-04,株式会社ｂｉａｓ,,株式会社,東京都,江戸川区,南葛西４丁目－１３番－２１エスポワールＩＩ西野３０３号,00132868,13,123,1340085,,,,,,,2023-12-04,1,,,,,バイアス,0
1143,6011801043437,新規,0,2023-12-04,2023-12-04,ＩＮＥ株式会社,,株式会社,東京都,葛飾区,小菅２丁目１３番２１号,,13,122,1240001,,,,,,,2023-12-04,1,,,,,イネ,0
1155,6012803003247,新規,0,2023-12-04,2023-12-04,プラット合同会社,,合同会社,東京都,国立市,西２丁目１番２１号,,13,215,1860005,,,,,,,2023-12-04,1,,,,,プラット,0
1163,6020001154746,新規,0,2023-12-04,2023-12-04,株式会社勝運,,株式会社,神奈川県,横浜市西区,西平沼町１－７興和ビル１Ｆ,,14,103,2200024,,,,,,,2023-12-04,1,,,,,カツウン,0
1166,6020003025111,新規,0,2023-12-04,2023-12-04,合同会社Ｋｏｉｚｕｍｉ,,合同会社,神奈川県,川崎市中原区,木月住吉町３０番３４号ＰＬＡＩＮＩＩＩ１０１,00132861,14,133,2110021,,,,,,,2023-12-04,1,,,,,コイズミ,0
1172,6021001080866,新規,0,2023-12-04,2023-12-04,株式会社Ｍａｖｅｎ　Ａｒｋ,,株式会社,神奈川県,平塚市,山下１丁目１２番３－１０１号,,14,203,2540911,,,,,,,2023-12-04,1,,,,,メイヴンアーク,0
1175,6021003013865,新規,0,2023-12-04,2023-12-04,１９２５合同会社,,合同会社,神奈川県,中郡大磯町,大磯９９０番地岡部ビル１階,,14,341,2550003,,,,,,,2023-12-04,1,,,,,イチキュウニーゴー,0
1181,6030001157500,新規,0,2023-12-04,2023-12-04,ＰＲパートナーズ株式会社,,株式会社,埼玉県,狭山市,中央１丁目９番２２号,,11,215,3501308,,,,,,,2023-12-04,1,,,,,ピーアールパートナーズ,0
1185,6040001131181,新規,0,2023-12-04,2023-12-04,株式会社うえだの木,,株式会社,千葉県,東金市,田間３丁目４１番地１２,,12,213,2830005,,,,,,,2023-12-04,1,,,,,ウエダノキ,0
1186,6040001131198,新規,0,2023-12-04,2023-12-04,株式会社Ｔｕｒｔｌｅ　Ａｄｖｅｎｔｕｒｅ,,株式会社,千葉県,船橋市,宮本３丁目７－６,,12,204,2730003,,,,,,,2023-12-04,1,,,,,タートルアドベンチャー,0
1193,6050005013359,新規,0,2023-12-04,2023-12-04,日本労働組合総連合会茨城県連合会,,その他の設立登記法人,茨城県,水戸市,梅香２丁目１－３９茨城県労働福祉会館,,08,201,3100022,,,,,,,2023-12-04,1,,,,,ニホンロウドウクミアイソウレンゴウカイイバラキケンレンゴウカイ,0
1194,6060001036593,新規,0,2023-12-04,2023-12-04,株式会社フリージア,,株式会社,栃木県,真岡市,並木町１丁目６番９号,,09,209,3214361,,,,,,,2023-12-04,1,,,,,フリージア,0
1199,6080001026007,新規,0,2023-12-04,2023-12-04,マスダＨＤ株式会社,,株式会社,静岡県,島田市,中溝町２５３０番地の１,,22,209,4270047,,,,,,,2023-12-04,1,,,,,マスダホールディングス,0
1202,6080401026861,新規,0,2023-12-04,2023-12-04,株式会社コス建,,株式会社,静岡県,浜松市東区,天王町１９１２番地の３,,22,132,4350052,,,,,,,2023-12-04,1,,,,,コスケン,0
1212,6110003005228,新規,0,2023-12-04,2023-12-04,合同会社Ｅｌｅｖａｔｅ　Ｓｔｙｌｅ,,合同会社,新潟県,長岡市,南町１丁目９‐６コーポ信濃１０５,,15,202,9400081,,,,,,,2023-12-04,1,,,,,エレベイトスタイル,0
1224,6120001260303,新規,0,2023-12-04,2023-12-04,株式会社ＳＩＲ,,株式会社,大阪府,大阪市東成区,神路２丁目５番９号,,27,115,5370003,,,,,,,2023-12-04,1,,,,,エスアイアール,0
1225,6120001260328,新規,0,2023-12-04,2023-12-04,俊成株式会社,,株式会社,大阪府,大阪市東淀川区,瑞光４丁目２－２１プレアール瑞光４０３号室,,27,114,5330005,,,,,,,2023-12-04,1,,,,,シュンセイ,0
1228,6120003025431,新規,0,2023-12-04,2023-12-04,合同会社ジー・エヌ・アール,,合同会社,大阪府,大阪市北区,西天満４丁目１４番３号,,27,127,5300047,,,,,,,2023-12-04,1,,,,,ジーエヌアール,0
1231,6120103005564,新規,0,2023-12-04,2023-12-04,合同会社ファースト,,合同会社,大阪府,泉大津市,東助松町１丁目５番１９号,,27,206,5950006,,,,,,,2023-12-04,1,,,,,ファースト,0
1238,6140001132533,新規,0,2023-12-04,2023-12-04,シトラスファクトリー株式会社,,株式会社,兵庫県,豊岡市,若松町６番４３号Ｅ号室,,28,209,6680027,,,,,,,2023-12-04,1,,,,,シトラスファクトリー,0
1240,6140003019860,新規,0,2023-12-04,2023-12-04,合同会社Ｍｅｅｔｓ,,合同会社,兵庫県,西宮市,甲陽園本庄町６番２５－５２３号,,28,204,6620015,,,,,,,2023-12-04,1,,,,,ミーツ,0
1242,6150001026908,新規,0,2023-12-04,2023-12-04,株式会社アシスト,,株式会社,奈良県,北葛城郡王寺町,本町５丁目３番１５号,,29,425,6360012,,,,,,,2023-12-04,1,,,,,アシスト,0
1243,6160001025545,新規,0,2023-12-04,2023-12-04,澤村エンジニアリング株式会社,,株式会社,滋賀県,東近江市,北花沢町６６９,,25,213,5270111,,,,,,,2023-12-04,1,,,,,サワムラエンジニアリング,0
1250,6170001017905,新規,0,2023-12-04,2023-12-04,株式会社ハーブカンパニー,,株式会社,和歌山県,橋本市,東家４丁目８番２１号,,30,203,6480072,,,,,,,2023-12-04,1,,,,,ハーブカンパニー,0
1256,6190001030930,新規,0,2023-12-04,2023-12-04,株式会社Ｅ‐ＯＮＥ,,株式会社,三重県,津市,観音寺町５５０番地２８,,24,201,5140062,,,,,,,2023-12-04,1,,,,,イーワン,0
1258,6200001041942,新規,0,2023-12-04,2023-12-04,ＳＥＩＲＡ株式会社,,株式会社,岐阜県,岐阜市,霞町１６番地エクセレント３３－１０５号,,21,201,5008186,,,,,,,2023-12-04,1,,,,,セイラ,0
1280,6290003014681,新規,0,2023-12-04,2023-12-04,えそらアソシエイツ合同会社,,合同会社,福岡県,福岡市博多区,上呉服町３番４号,,40,132,8120036,,,,,,,2023-12-04,1,,,,,,0
1281,6290801030087,新規,0,2023-12-04,2023-12-04,株式会社Ｇホールディングス,,株式会社,福岡県,北九州市小倉南区,湯川２丁目４番２号,,40,107,8000257,,,,,,,2023-12-04,1,,,,,ジーホールディングス,0
1282,6290801030095,新規,0,2023-12-04,2023-12-04,株式会社みなさまのおかげです,,株式会社,福岡県,直方市,大字頓野３９６８番地１２,,40,204,8220002,,,,,,,2023-12-04,1,,,,,ミナサマノオカゲデス,0
1283,6310001018731,新規,0,2023-12-04,2023-12-04,株式会社大浦マシナリー,,株式会社,長崎県,長崎市,元船町９番１８号長崎ＢｉｚＰＯＲＴ２Ｆ,,42,201,8500035,,,,,,,2023-12-04,1,,,,,オオウラマシナリー,0
1286,6320003004241,新規,0,2023-12-04,2023-12-04,合同会社ハヤシ企画,,合同会社,大分県,由布市,挾間町小野１７３番地１,,44,213,8795522,,,,,,,2023-12-04,1,,,,,,0
1287,6320005010114,新規,0,2023-12-04,2023-12-04,一般社団法人全国ドローンプロフェッショナル協会,,その他の設立登記法人,大分県,由布市,挾間町北方２２３番地１,,44,213,8795518,,,,,,,2023-12-04,1,,,,,ゼンコクドローンプロフェッショナルキョウカイ,0
1288,6330001031534,新規,0,2023-12-04,2023-12-04,ＬＥＧＯ　Ｆｌａｓｈ株式会社,,株式会社,熊本県,熊本市中央区,坪井６丁目５番５－１０２号,,43,101,8600863,,,,,,,2023-12-04,1,,,,,レゴフラッシュ,0
1294,6350003004511,新規,0,2023-12-04,2023-12-04,あさひグランツ合同会社,,合同会社,宮崎県,宮崎市,清武町あさひ１丁目４７－３,,45,201,8891609,,,,,,,2023-12-04,1,,,,,アサヒグランツ,0
1295,6360001032892,新規,0,2023-12-04,2023-12-04,株式会社ししべこ,,株式会社,沖縄県,名護市,字為又１０５－１,,47,209,9050005,,,,,,,2023-12-04,1,,,,,シシベコ,0
1300,6370001050687,新規,0,2023-12-04,2023-12-04,株式会社Ｗｉｎｇｎｅｓｓ,,株式会社,宮城県,仙台市泉区,みずほ台３－１－１０２,,04,105,9813125,,,,,,,2023-12-04,1,,,,,ウィングネス,0
1312,6430001090561,新規,0,2023-12-04,2023-12-04,アウトシャイン株式会社,,株式会社,北海道,札幌市中央区,南十九条西１４丁目２番２７－７０３号,,01,101,0640919,,,,,,,2023-12-04,1,,,,,アウトシャイン,0
1320,6480005006996,新規,0,2023-12-04,2023-12-04,一般社団法人鳴門屋ファーム,,その他の設立登記法人,徳島県,鳴門市,撫養町大桑島字北ノ浜６６番地３鳴門屋ビル４Ｆ,,36,202,7720011,,,,,,,2023-12-04,1,,,,,ナルトヤファーム,0
1327,7010001240455,新規,0,2023-12-04,2023-12-04,株式会社Ｆｉｎｔｅｃｈ　ｅｄｇｅ,,株式会社,東京都,千代田区,神田錦町２丁目２番地１，１１Ｆ，ＷｅＷｏｒｋ，ＫＡＮＤＡ，ＳＱＵＡＲＥ，１１－１０１,,13,101,1010054,,,,,,,2023-12-04,1,,,,,フィンテックエッジ,0
1328,7010001240488,新規,0,2023-12-04,2023-12-04,株式会社楽希ライフ,,株式会社,東京都,文京区,千駄木３丁目２２番１１－７０４号,,13,105,1130022,,,,,,,2023-12-04,1,,,,,ラッキライフ,0
1331,7010003042346,新規,0,2023-12-04,2023-12-04,合同会社花沢,,合同会社,東京都,中央区,銀座１丁目５番２西勢ビル３階Ａ号室,,13,102,1040061,,,,,,,2023-12-04,1,,,,,ハナザワ,0
1332,7010003042354,新規,0,2023-12-04,2023-12-04,合同会社ＴｅａｒｙＨａｎｄ　Ｓｔｕｄｉｏ,,合同会社,東京都,中央区,銀座１丁目２２番１１号銀座大竹ビジデンス２Ｆ,,13,102,1040061,,,,,,,2023-12-04,1,,,,,ティアリーハンドスタジオ,0
1339,7010401178857,新規,0,2023-12-04,2023-12-04,株式会社ディーフェイズ,,株式会社,東京都,港区,高輪１丁目２番６－２０３号,,13,103,1080074,,,,,,,2023-12-04,1,,,,,ディーフェイズ,0
1340,7010401178898,新規,0,2023-12-04,2023-12-04,Ｃｏｐｅｎｈ．ＤＣ株式会社,,株式会社,東京都,港区,南青山３丁目１－３６青山丸竹ビル６Ｆ,,13,103,1070062,,,,,,,2023-12-04,1,,,,,コペンディーシー,0
1341,7010403031444,新規,0,2023-12-04,2023-12-04,合同会社Ｋｌｅｉｎ,,合同会社,東京都,港区,赤坂７丁目５番１５号赤坂協栄マンション３０３号,,13,103,1070052,,,,,,,2023-12-04,1,,,,,クライン,0
1342,7010403031452,新規,0,2023-12-04,2023-12-04,合同会社ＹＯＩＣＨＩ　ＯＨＭＡＥ,,合同会社,東京都,港区,白金３丁目１２番５号アパートメントクロ白金高輪４０１,,13,103,1080072,,,,,,,2023-12-04,1,,,,,ヨウイチオオマエ,0
1343,7010405022747,新規,0,2023-12-04,2023-12-04,スマートモビリティインフラ技術研究組合,,その他の設立登記法人,東京都,港区,港南２丁目３番１３号,,13,103,1080075,,,,,,,2023-12-04,1,,,,,スマートモビリティインフラ,0
1346,7010701045212,新規,0,2023-12-04,2023-12-04,株式会社ＴＥＮ,,株式会社,東京都,品川区,東五反田１丁目１９番１１号,,13,109,1410022,,,,,,,2023-12-04,1,,,,,テン,0
1347,7010801034536,新規,0,2023-12-04,2023-12-04,株式会社ロングピース,,株式会社,東京都,大田区,東雪谷２丁目３２番１３号１０２,,13,111,1450065,,,,,,,2023-12-04,1,,,,,ロングピース,0
1350,7010903008628,新規,0,2023-12-04,2023-12-04,合同会社ネクストステップ,,合同会社,東京都,世田谷区,給田３丁目３１番２０号オンコ千歳烏山２０４,,13,112,1570064,,,,,,,2023-12-04,1,,,,,ネクストステップ,0
1351,7010905004542,新規,0,2023-12-04,2023-12-04,一般社団法人Ｅｖｅｒｙｂｅｉｎｇ,,その他の設立登記法人,東京都,世田谷区,等々力２丁目１８番１５号,,13,112,1580082,,,,,,,2023-12-04,1,,,,,エブリビーイング,0
1352,7011001158571,新規,0,2023-12-04,2023-12-04,株式会社ｃｙｎｃｅ,,株式会社,東京都,渋谷区,渋谷２丁目１０番６号,,13,113,1500002,,,,,,,2023-12-04,1,,,,,シンス,0
1353,7011001158588,新規,0,2023-12-04,2023-12-04,タクスフィア株式会社,,株式会社,東京都,渋谷区,渋谷２丁目１９－１５宮益坂ビルディング６０９,,13,113,1500002,,,,,,,2023-12-04,1,,,,,タクスフィア,0
1356,7011003018014,新規,0,2023-12-04,2023-12-04,ＢＴＯテクノロジー合同会社,,合同会社,東京都,目黒区,中目黒１丁目４番１３－４０９号ＡＩＦＬＡＴＮＡＫＡＭＥＧＵＲＯ,,13,110,1530061,,,,,,,2023-12-04,1,,,,,,0
1357,7011003018030,新規,0,2023-12-04,2023-12-04,合同会社ＨＩＫ,,合同会社,東京都,渋谷区,本町６丁目３９番１１号,,13,113,1510071,,,,,,,2023-12-04,1,,,,,ハイク,0
1359,7011101105267,新規,0,2023-12-04,2023-12-04,Ｓｔｅｌｌａ　Ｃｈｉａｖｅ株式会社,,株式会社,東京都,新宿区,新宿５丁目１８番２０号ルックハイツ新宿８０３号,,13,104,1600022,,,,,,,2023-12-04,1,,,,,ステラキアーベェ,0
1360,7011101105333,新規,0,2023-12-04,2023-12-04,協友株式会社,,株式会社,東京都,新宿区,北町４１番地,,13,104,1620834,,,,,,,2023-12-04,1,,,,,キョウユウ,0
1361,7011103013749,新規,0,2023-12-04,2023-12-04,合同会社ｃｒｅａｔｉｏｎ,,合同会社,東京都,新宿区,西新宿３丁目３番１３号西新宿水間ビル２Ｆ,,13,104,1600023,,,,,,,2023-12-04,1,,,,,クリエーション,0
1362,7011103013815,新規,0,2023-12-04,2023-12-04,合同会社ナミプロダクション,,合同会社,東京都,新宿区,西新宿３丁目３番１３号西新宿水間ビル６階,,13,104,1600023,,,,,,,2023-12-04,1,,,,,ナミプロダクション,0
1364,7011301029225,新規,0,2023-12-04,2023-12-04,ＢＡＯ株式会社,,株式会社,東京都,杉並区,西荻南２丁目２０番８号山田ビル３０２,,13,115,1670053,,,,,,,2023-12-04,1,,,,,バオ,0
1366,7011303004985,新規,0,2023-12-04,2023-12-04,合同会社Ｗｈｉｔｅ　Ｌａｂｅｌ　Ｐｒｏｊｅｃｔｓ,,合同会社,東京都,杉並区,西荻北２丁目１８番１３号,,13,115,1670042,,,,,,,2023-12-04,1,,,,,ホワイトレーベルプロジェクツ,0
1367,7011501030073,新規,0,2023-12-04,2023-12-04,ＨＦＺ　Ｉｎｖｅｓｔｍｅｎｔ株式会社,,株式会社,東京都,北区,浮間１丁目１４－３ユーコート赤羽,,13,117,1150051,,,,,,,2023-12-04,1,,,,,エッチエフゼットインベストメント,0
1369,7011801043436,新規,0,2023-12-04,2023-12-04,株式会社Ｔ２Ｋ,,株式会社,東京都,足立区,綾瀬４丁目１６番３号エトウァール２０５,,13,121,1200005,,,,,,,2023-12-04,1,,,,,テイクツー,0
1371,7012403006302,新規,0,2023-12-04,2023-12-04,合同会社スイートボイス,,合同会社,東京都,府中市,白糸台２丁目４３番地の２２シルクパレス府中１０３,,13,206,1830011,,,,,,,2023-12-04,1,,,,,スイートボイス,0
1373,7012803003246,新規,0,2023-12-04,2023-12-04,Ｓｉｎ合同会社,,合同会社,東京都,国分寺市,南町２丁目１６番１３号２階,,13,214,1850021,,,,,,,2023-12-04,1,,,,,シン,0
1382,7020001154720,新規,0,2023-12-04,2023-12-04,七福建設株式会社,,株式会社,神奈川県,横浜市中区,鷺山１０６番地矢島ハイツ２－Ａ号室,,14,104,2310848,,,,,,,2023-12-04,1,,,,,シチフクケンセツ,0
1384,7020003025110,新規,0,2023-12-04,2023-12-04,合同会社ウエストＲ,,合同会社,神奈川県,横浜市旭区,中沢１丁目１４番１９号,,14,112,2410814,,,,,,,2023-12-04,1,,,,,ウエストアール,0
1390,7021003013880,新規,0,2023-12-04,2023-12-04,ｌｕｖ合同会社,,合同会社,神奈川県,相模原市中央区,上溝５８９―１７スターライトヒルズ２０１,,14,152,2520243,,,,,,,2023-12-04,1,,,,,ラブ,0
1391,7021005012955,新規,0,2023-12-04,2023-12-04,医療法人社団長明会,,その他の設立登記法人,神奈川県,藤沢市,藤沢１１５番地エフ・ティービル藤沢７階,,14,205,2510052,,,,,,,2023-12-04,1,,,,,チョウメイカイ,0
1402,7030001157466,新規,0,2023-12-04,2023-12-04,株式会社ＷＥＤＤＩＮ,,株式会社,埼玉県,春日部市,大沼６丁目１３７－１－２０３,,11,214,3440038,,,,,,,2023-12-04,1,,,,,ウェディン,0
1411,7040003023839,新規,0,2023-12-04,2023-12-04,ＡＮ　ＦＵＴＵＲＥ合同会社,,合同会社,千葉県,松戸市,根木内３３３番地の１７,,12,207,2700011,,,,,,,2023-12-04,1,,,,,アンフューチャー,0
1416,7050003007980,新規,0,2023-12-04,2023-12-04,ＢＯＤＹ　ＣＲＡＦＴ合同会社,,合同会社,茨城県,坂東市,生子２１２２番地３,,08,228,3060504,,,,,,,2023-12-04,1,,,,,ボディクラフト,0
1425,7070001041121,新規,0,2023-12-04,2023-12-04,株式会社ＳＴＭ　ＴＲＵＳＴ,,株式会社,群馬県,館林市,小桑原町７６５番地１５ハイツイシカワ８９－２０３,,10,207,3740037,,,,,,,2023-12-04,1,,,,,エスティーエムトラスト,0
1426,7070001041138,新規,0,2023-12-04,2023-12-04,タケル工業株式会社,,株式会社,群馬県,みどり市,笠懸町西鹿田５９８番地１,,10,212,3792314,,,,,,,2023-12-04,1,,,,,,0
1431,7080401026869,新規,0,2023-12-04,2023-12-04,株式会社はまゆうの杜,,株式会社,静岡県,浜松市中区,板屋町１１１番地の２,,22,131,4300928,,,,,,,2023-12-04,1,,,,,ハマユウノモリ,0
1447,7120001260343,新規,0,2023-12-04,2023-12-04,株式会社ビズリンク・コンサルティング,,株式会社,大阪府,大阪市北区,豊崎３丁目４番１４号,,27,127,5310072,,,,,,,2023-12-04,1,,,,,ビズリンクコンサルティング,0
1451,7120003025397,新規,0,2023-12-04,2023-12-04,木銘合同会社,,合同会社,大阪府,大阪市西成区,玉出東１丁目７番２３号１０１室,,27,122,5570043,,,,,,,2023-12-04,1,,,,,キメイ,0
1458,7120101068629,新規,0,2023-12-04,2023-12-04,Ｓｏｐｈｉｌａ株式会社,,株式会社,大阪府,松原市,阿保７丁目７番２７－２０３号,,27,217,5800043,,,,,,,2023-12-04,1,,,,,ソフィラ,0
1459,7120101068637,新規,0,2023-12-04,2023-12-04,株式会社サン・クオリティー,,株式会社,大阪府,和泉市,いぶき野３丁目５番６－２０６号,,27,219,5940041,,,,,,,2023-12-04,1,,,,,サンクオリティー,0
1465,7130001075848,新規,0,2023-12-04,2023-12-04,株式会社吉田喜,,株式会社,京都府,京都市左京区,岩倉三宅町４０３番地７,,26,103,6060022,,,,,,,2023-12-04,1,,,,,ヨシダキ,0
1467,7140003019868,新規,0,2023-12-04,2023-12-04,ＮＫ　ｓｐｏｔ合同会社,,合同会社,兵庫県,神戸市兵庫区,大開通２丁目３番２９号ワコーレグランフィス神戸４０２,,28,105,6520803,,,,,,,2023-12-04,1,,,,,エヌケースポット,0
1468,7140003019876,新規,0,2023-12-04,2023-12-04,合同会社黒猫屋,,合同会社,兵庫県,神戸市中央区,港島中町６丁目２番地の１神戸パークシティ１号棟８０７号,,28,110,6500046,,,,,,,2023-12-04,1,,,,,クロネコヤ,0
1470,7150001026907,新規,0,2023-12-04,2023-12-04,株式会社ＳＫＹＦＡＣＥ,,株式会社,奈良県,北葛城郡広陵町,大字大野５番地７,,29,426,6350803,,,,,,,2023-12-04,1,,,,,スカイフェイス,0
1474,7150003003128,新規,0,2023-12-04,2023-12-04,晩晴合同会社,,合同会社,奈良県,生駒郡三郷町,勢野北５丁目７－３４,,29,343,6360815,,,,,,,2023-12-04,1,,,,,バンセイ,0
1476,7160005011251,新規,0,2023-12-04,2023-12-04,特定非営利活動法人結,,その他の設立登記法人,滋賀県,草津市,北大萱町５９０,,25,206,5250016,,,,,,,2023-12-04,1,,,,,ユイ,0
1480,7180001159134,新規,0,2023-12-04,2023-12-04,株式会社Ｒｉｃｈ　Ｐｌａｎ,,株式会社,愛知県,名古屋市中区,栄２丁目２－１広小路伏見中駒ビル６階６Ｅ,,23,106,4600008,,,,,,,2023-12-04,1,,,,,リッチプラン,0
1481,7180001159167,新規,0,2023-12-04,2023-12-04,株式会社ＭＧサービス,,株式会社,愛知県,名古屋市港区,築地町７番地の２,,23,111,4550045,,,,,,,2023-12-04,1,,,,,エムジーサービス,0
1482,7180003026068,新規,0,2023-12-04,2023-12-04,合同会社ハピメド,,合同会社,愛知県,名古屋市昭和区,山脇町１丁目３番地サンマンションドゥーシェ山脇４０２号,,23,107,4660063,,,,,,,2023-12-04,1,,,,,ハピメド,0
1485,7180301038087,新規,0,2023-12-04,2023-12-04,株式会社ハマダ,,株式会社,愛知県,みよし市,三好町善休１３番地,,23,236,4700224,,,,,,,2023-12-04,1,,,,,ハマダ,0
1492,7230003002113,新規,0,2023-12-04,2023-12-04,合同会社あいぼう,,合同会社,富山県,射水市,下条７１９番地,,16,211,9390252,,,,,,,2023-12-04,1,,,,,アイボウ,0
1496,7250001020412,新規,0,2023-12-04,2023-12-04,株式会社オガタ,,株式会社,山口県,山陽小野田市,中央３丁目６番３０号,,35,216,7560824,,,,,,,2023-12-04,1,,,,,オガタ,0
1499,7280001009080,新規,0,2023-12-04,2023-12-04,ＹＳＨクリエイティブワークス株式会社,,株式会社,島根県,出雲市,小伊津町１５４９番地,,32,203,6910052,,,,,,,2023-12-04,1,,,,,ワイエスエイチクリエイティブワークス,0
1506,7290801030094,新規,0,2023-12-04,2023-12-04,株式会社一心工業,,株式会社,福岡県,行橋市,大字道場寺７３７番地１,,40,213,8240026,,,,,,,2023-12-04,1,,,,,イッシンコウギョウ,0
1510,7330001031525,新規,0,2023-12-04,2023-12-04,株式会社ｓｉｓｏｕ,,株式会社,熊本県,熊本市中央区,草葉町２－３３Ａ＆Ｍビル１階,,43,101,8600843,,,,,,,2023-12-04,1,,,,,シソウ,0
1517,7340005009681,新規,0,2023-12-04,2023-12-04,一般社団法人エスポワール,,その他の設立登記法人,鹿児島県,鹿児島市,谷山中央２丁目６８１－６６,,46,201,8910141,,,,,,,2023-12-04,1,,,,,エスポワール,0
1522,7370001050678,新規,0,2023-12-04,2023-12-04,ニューウィステリア株式会社,,株式会社,宮城県,岩沼市,相の原３丁目１番３３号,,04,211,9892431,,,,,,,2023-12-04,1,,,,,ニューウィステリア,0
1533,7400001016469,新規,0,2023-12-04,2023-12-04,株式会社Ｒｅ‐ＥＡＲＴＨ,,株式会社,岩手県,陸前高田市,横田町字志田実３番地１,,03,210,0292202,,,,,,,2023-12-04,1,,,,,リアース,0
1537,7430003015714,新規,0,2023-12-04,2023-12-04,合同会社ブルジュジャパン,,合同会社,北海道,札幌市白石区,東米里２１９７番地１１９,,01,104,0030876,,,,,,,2023-12-04,1,,,,,ブルジュジャパン,0
1557,8010001240355,新規,0,2023-12-04,2023-12-04,株式会社イケオジ,,株式会社,東京都,中央区,日本橋兜町１７番２号兜町第６葉山ビル３Ｆ,,13,102,1030026,,,,,,,2023-12-04,1,,,,,イケオジ,0
1571,8010401178732,新規,0,2023-12-04,2023-12-04,株式会社Ｒａｙ,,株式会社,東京都,港区,高輪１丁目２３番２３－３５０２号,,13,103,1080074,,,,,,,2023-12-04,1,,,,,レイ,0
1572,8010401178864,新規,0,2023-12-04,2023-12-04,株式会社ｓｕｂコンサルティング,,株式会社,東京都,港区,北青山２丁目７番２０号猪瀬ビル２Ｆ,,13,103,1070061,,,,,,,2023-12-04,1,,,,,エスユービーコンサルティング,0
1573,8010401178897,新規,0,2023-12-04,2023-12-04,ナインス株式会社,,株式会社,東京都,港区,虎ノ門１－１０－５ＫＤＸ虎ノ門一丁目ビル１１Ｆ,,13,103,1050000,,,,,,,2023-12-04,1,,,,,ナインス,0
1574,8010403031476,新規,0,2023-12-04,2023-12-04,合同会社バテリア江別,,合同会社,東京都,港区,虎ノ門１丁目２番８号リニューアブル・ジャパン株式会社内,,13,103,1050001,,,,,,,2023-12-04,1,,,,,バテリアエベツ,0
1577,8010601064245,新規,0,2023-12-04,2023-12-04,株式会社協進社,,株式会社,東京都,墨田区,本所１丁目１７番１０号,,13,107,1300004,,,,,,,2023-12-04,1,,,,,キョウシンシャ,0
1578,8010605004263,新規,0,2023-12-04,2023-12-04,一般社団法人報徳,,その他の設立登記法人,東京都,墨田区,亀沢２丁目１１番１２－８１２号,,13,107,1300014,,,,,,,2023-12-04,1,,,,,ホウトク,0
1582,8010801034551,新規,0,2023-12-04,2023-12-04,Ｄ‐ＳＴＡＲ．ＪＡＰＡＮ株式会社,,株式会社,東京都,大田区,蒲田３丁目１７－１６伊藤ビル２階,,13,111,1440052,,,,,,,2023-12-04,1,,,,,ディースタージャパン,0
1590,8011001158587,新規,0,2023-12-04,2023-12-04,株式会社フレジエ,,株式会社,東京都,渋谷区,道玄坂１丁目１０番８号渋谷道玄坂東急ビル２Ｆ－Ｃ,,13,113,1500043,,,,,,,2023-12-04,1,,,,,フレジエ,0
1592,8011003018038,新規,0,2023-12-04,2023-12-04,ＬＡＺＹ合同会社,,合同会社,東京都,目黒区,東山３丁目２２番１６－１１０号ザ・コートガーデン目黒東山,,13,110,1530043,,,,,,,2023-12-04,1,,,,,レイジー,0
1595,8011105010875,新規,0,2023-12-04,2023-12-04,一般社団法人ＡＪＮＥ,,その他の設立登記法人,東京都,新宿区,百人町４丁目５番地２号,,13,104,1690073,,,,,,,2023-12-04,1,,,,,エージェーエヌイー,0
1597,8011403004190,新規,0,2023-12-04,2023-12-04,合同会社ＦＡＭ,,合同会社,東京都,板橋区,相生町１２－１２－６０９,,13,119,1740044,,,,,,,2023-12-04,1,,,,,ファム,0
1600,8011701026820,新規,0,2023-12-04,2023-12-04,歓喜株式会社,,株式会社,東京都,江戸川区,春江町５丁目５番１３号,,13,123,1340003,,,,,,,2023-12-04,1,,,,,カンキ,0
1601,8011703003677,新規,0,2023-12-04,2023-12-04,合同会社Ｍｅｉｙｏ　ｍａｒｔｅｃｈ,,合同会社,東京都,江戸川区,南葛西２丁目１８番９号メゾンドフェリーチェ２０５,,13,123,1340085,,,,,,,2023-12-04,1,,,,,メイヨマーテック,0
1602,8011801043435,新規,0,2023-12-04,2023-12-04,株式会社ＴＡＫＥ　ＩＴ　ＥＡＳＹ,,株式会社,東京都,葛飾区,東立石３丁目２４－１３,,13,122,1240013,,,,,,,2023-12-04,1,,,,,テイクイットイージー,0
1605,8012701017982,新規,0,2023-12-04,2023-12-04,思維造物株式会社,,株式会社,東京都,東村山市,野口町３丁目５０番地４１号,,13,213,1890022,,,,,,,2023-12-04,1,,,,,シイゾウブツ,0
1609,8013101009298,新規,0,2023-12-04,2023-12-04,株式会社ミンクルトーキョー,,株式会社,東京都,福生市,大字熊川１０６８番地２６東京ハイツＰ－９号,,13,218,1970003,,,,,,,2023-12-04,1,,,,,ミンクルトーキョー,0
1622,8021001080864,新規,0,2023-12-04,2023-12-04,伯森株式会社,,株式会社,神奈川県,茅ヶ崎市,芹沢２７番地１,,14,207,2530008,,,,,,,2023-12-04,1,,,,,ボーソン,0
1625,8021003013863,新規,0,2023-12-04,2023-12-04,合同会社ＢＯＦ,,合同会社,神奈川県,藤沢市,鵠沼海岸２丁目１５番１５号,,14,205,2510037,,,,,,,2023-12-04,1,,,,,ビーオーエフ,0
1631,8030001157465,新規,0,2023-12-04,2023-12-04,株式会社ＴＫ不動産,,株式会社,埼玉県,三郷市,早稲田２丁目１７番１５号,,11,237,3410018,,,,,,,2023-12-04,1,,,,,ティーケーフドウサン,0
1632,8030001157481,新規,0,2023-12-04,2023-12-04,運達通国際株式会社,,株式会社,埼玉県,川口市,西川口１丁目３０番２０－１０９号,,11,203,3320021,,,,,,,2023-12-04,1,,,,,ウンタチツウコクサイ,0
1633,8030001157523,新規,0,2023-12-04,2023-12-04,株式会社ＨＭＨコーポレーション,,株式会社,埼玉県,川口市,安行出羽２丁目７番１５号,,11,203,3340052,,,,,,,2023-12-04,1,,,,,エイチエムエイチコーポレーション,0
1654,8060001036591,新規,0,2023-12-04,2023-12-04,ＺＭ　ＴＲＡＤＩＮＧ株式会社,,株式会社,栃木県,宇都宮市,針ケ谷１丁目２８番９号,,09,201,3210137,,,,,,,2023-12-04,1,,,,,ゼッドエムトレーディング,0
1656,8070001041120,新規,0,2023-12-04,2023-12-04,ＲＰＴＭ　Ｊａｐａｎ株式会社,,株式会社,群馬県,甘楽郡下仁田町,大字西野牧１２１５４番地３１５,,10,382,3702627,,,,,,,2023-12-04,1,,,,,アールピーティーエムジャパン,0
1657,8070001041145,新規,0,2023-12-04,2023-12-04,株式会社ＬＯＯＫ　ＧＡＲＡＧＥ,,株式会社,群馬県,北群馬郡榛東村,大字新井２１６１番地１,,10,344,3703503,,,,,,,2023-12-04,1,,,,,ルックガレージ,0
1665,8080103002936,新規,0,2023-12-04,2023-12-04,Ｌ＆Ｐ合同会社,,合同会社,静岡県,富士宮市,山宮２２３０－１,,22,207,4180111,,,,,,,2023-12-04,1,,,,,エルアンドピー,0
1667,8100001036983,新規,0,2023-12-04,2023-12-04,株式会社フジミッション,,株式会社,長野県,諏訪郡富士見町,富士見とちの木４１６５,,20,362,3990211,,,,,,,2023-12-04,1,,,,,フジミッション,0
1668,8100003007289,新規,0,2023-12-04,2023-12-04,合同会社レジェンド,,合同会社,長野県,小諸市,大字八満３４５番地１アピテりんごの森２０２,,20,208,3840051,,,,,,,2023-12-04,1,,,,,レジェンド,0
1670,8110003005226,新規,0,2023-12-04,2023-12-04,合同会社ＷＨＩＴＥ　ＬＩＮＥ,,合同会社,新潟県,糸魚川市,上刈５丁目７－１６,,15,216,9410064,,,,,,,2023-12-04,1,,,,,ホワイトライン,0
1682,8120001260219,新規,0,2023-12-04,2023-12-04,株式会社Ｒｏｍａｎｚｏ,,株式会社,大阪府,大阪市阿倍野区,松崎町２丁目１０番２２号コーシンビル２階北４号室,,27,119,5450053,,,,,,,2023-12-04,1,,,,,ロマンゾ,0
1683,8120001260318,新規,0,2023-12-04,2023-12-04,株式会社ＭＯＲＧＥＮ,,株式会社,大阪府,大阪市北区,堂島１丁目５番４号,,27,127,5300003,,,,,,,2023-12-04,1,,,,,モーゲン,0
1684,8120001260334,新規,0,2023-12-04,2023-12-04,株式会社愛田,,株式会社,大阪府,大阪市東淀川区,相川２丁目１２番１７－２０１号,,27,114,5330007,,,,,,,2023-12-04,1,,,,,アイダ,0
1693,8120901048432,新規,0,2023-12-04,2023-12-04,株式会社ＭＣＤ,,株式会社,大阪府,吹田市,岸部南１丁目１９番１０号,,27,205,5640011,,,,,,,2023-12-04,1,,,,,エムシーディー,0
1698,8130001075839,新規,0,2023-12-04,2023-12-04,株式会社ＭＯＫＴ,,株式会社,京都府,長岡京市,東神足２丁目１１番８号ジュノア神足２０２,,26,209,6170832,,,,,,,2023-12-04,1,,,,,エムオケイティー,0
1707,8140001132523,新規,0,2023-12-04,2023-12-04,株式会社ＴＹ,,株式会社,兵庫県,神戸市中央区,下山手通７丁目３番１１号,,28,110,6500011,,,,,,,2023-12-04,1,,,,,ティーワイ,0
1708,8140001132548,新規,0,2023-12-04,2023-12-04,株式会社Ｊｏｕｒｎｅｙｓ　Ｐａｒｔｎｅｒ,,株式会社,兵庫県,加古郡稲美町,和田３７２番地６,,28,381,6751125,,,,,,,2023-12-04,1,,,,,ジャーニーズパートナー,0
1709,8140001132556,新規,0,2023-12-04,2023-12-04,プロデジ株式会社,,株式会社,兵庫県,西宮市,甲陽園本庄町６番４１号,,28,204,6620015,,,,,,,2023-12-04,1,,,,,プロデジ,0
1710,8140003019875,新規,0,2023-12-04,2023-12-04,Ｍｅｄｉｃａｌ　ｓｕｐｐｏｒｔ　ｏｎｅ合同会社,,合同会社,兵庫県,神戸市東灘区,岡本３丁目１１番３０号,,28,101,6580072,,,,,,,2023-12-04,1,,,,,メディカルサポートワン,0
1712,8150001026914,新規,0,2023-12-04,2023-12-04,株式会社ＨＯＰＥ,,株式会社,奈良県,奈良市,菅野台１６番１５－１号,,29,201,6310043,,,,,,,2023-12-04,1,,,,,ホープ,0
1713,8160001025543,新規,0,2023-12-04,2023-12-04,株式会社プラス産業,,株式会社,滋賀県,大津市,穴太１丁目１番１８号,,25,201,5200114,,,,,,,2023-12-04,1,,,,,プラスサンギョウ,0
1717,8160005011250,新規,0,2023-12-04,2023-12-04,水口キリスト福音教会,,その他の設立登記法人,滋賀県,甲賀市,水口町古城が丘４番３１号,,25,209,5280073,,,,,,,2023-12-04,1,,,,,ミナクチキリストフクインキョウカイ,0
1724,8180001159133,新規,0,2023-12-04,2023-12-04,エイアイビュー株式会社,,株式会社,愛知県,小牧市,大字北外山１８２４番地２,,23,219,4850023,,,,,,,2023-12-04,1,,,,,エイアイビュー,0
1725,8180001159141,新規,0,2023-12-04,2023-12-04,株式会社ＪＩＭＯＴＯ不動産,,株式会社,愛知県,日進市,赤池町西組６６番地３,,23,230,4700126,,,,,,,2023-12-04,1,,,,,ジモトフドウサン,0
1736,8220001025719,新規,0,2023-12-04,2023-12-04,株式会社ブルカンパニー,,株式会社,石川県,白山市,松本町８６２番地１,,17,210,9240057,,,,,,,2023-12-04,1,,,,,ブルカンパニー,0
1740,8240001062487,新規,0,2023-12-04,2023-12-04,ＩＮＶＯＬＶＥ株式会社,,株式会社,広島県,尾道市,瀬戸田町沢９６番地４,,34,205,7222413,,,,,,,2023-12-04,1,,,,,インボルブ,0
1747,8270001008883,新規,0,2023-12-04,2023-12-04,Ｊ．Ｏ．Ｔ株式会社,,株式会社,鳥取県,日野郡日南町,湯河４３０番地,,31,401,6895226,,,,,,,2023-12-04,1,,,,,ジェイオーティー,0
1749,8290001103906,新規,0,2023-12-04,2023-12-04,株式会社ＫＨ,,株式会社,福岡県,福岡市南区,大楠１丁目７番１６号,,40,134,8150082,,,,,,,2023-12-04,1,,,,,ケーエイチ,0
1758,8340003004320,新規,0,2023-12-04,2023-12-04,合同会社ＬＩＦＥ　ＰＥＡＣＥ,,合同会社,鹿児島県,鹿児島市,常盤２丁目１番２号,,46,201,8900047,,,,,,,2023-12-04,1,,,,,ライフピース,0
1766,8390003002170,新規,0,2023-12-04,2023-12-04,ＯＭＤ合同会社,,合同会社,山形県,山形市,大字青野字鷺ケ森１３０４―２９,,06,201,9902222,,,,,,,2023-12-04,1,,,,,オーエムディー,0
1767,8400001016476,新規,0,2023-12-04,2023-12-04,株式会社ヨシオ工務店,,株式会社,岩手県,北上市,村崎野１４地割４５３番地４７,,03,206,0240004,,,,,,,2023-12-04,1,,,,,ヨシオコウムテン,0
1777,8450001014161,新規,0,2023-12-04,2023-12-04,株式会社龍空,,株式会社,北海道,上川郡東川町,西町８丁目２５番地６８,,01,458,0711425,,,,,,,2023-12-04,1,,,,,リュウクウ,0
1778,8450003002412,新規,0,2023-12-04,2023-12-04,合同会社ふくしケア,,合同会社,北海道,上川郡当麻町,三条西３丁目１番１２１号,,01,454,0781303,,,,,,,2023-12-04,1,,,,,フクシケア,0
1779,8500001025335,新規,0,2023-12-04,2023-12-04,株式会社片岡カメラ,00132863,株式会社,愛媛県,今治市,米屋町１丁目１番地３０,,38,202,7940021,,,,,,,2023-12-04,1,,,,,カタオカカメラ,0
1785,9010001240461,新規,0,2023-12-04,2023-12-04,株式会社ｒｏｃａ,,株式会社,東京都,文京区,本郷６丁目２５番１４号,,13,105,1130033,,,,,,,2023-12-04,1,,,,,ロカ,0
1786,9010001240511,新規,0,2023-12-04,2023-12-04,株式会社Ｐｒｏｇｔｉｃｅ,,株式会社,東京都,中央区,銀座１丁目１２番４号Ｎ＆ＥＢＬＤ．６Ｆ,,13,102,1040061,,,,,,,2023-12-04,1,,,,,プログティス,0
1788,9010003042352,新規,0,2023-12-04,2023-12-04,ＮＯＵＨＡＵＳ　ＪＡＰＡＮ合同会社,,合同会社,東京都,千代田区,三番町５番地１１－１４０２号,,13,101,1020075,,,,,,,2023-12-04,1,,,,,ヌーハスジャパン,0
1792,9010401178847,新規,0,2023-12-04,2023-12-04,株式会社ＫＳＰコンサルティング,,株式会社,東京都,港区,浜松町１丁目２番１号Ｎｏ．Ｒ浜松町４Ｆ,,13,103,1050013,,,,,,,2023-12-04,1,,,,,ケイエスピーコンサルティング,0
1793,9010401178863,新規,0,2023-12-04,2023-12-04,株式会社ＲＩＮＧＯ　Ｒｅｃｏｒｄｓ　Ｊａｐａｎ,,株式会社,東京都,港区,白金６丁目９番８号,,13,103,1080072,,,,,,,2023-12-04,1,,,,,リンゴレコーズジャパン,0
1796,9010403031467,新規,0,2023-12-04,2023-12-04,ＳＥプランニング合同会社,,合同会社,東京都,港区,港南３丁目７番１０－５０８号,,13,103,1080075,,,,,,,2023-12-04,1,,,,,エスイープランニング,0
1797,9010403031475,新規,0,2023-12-04,2023-12-04,合同会社バテリア余市,,合同会社,東京都,港区,虎ノ門１丁目２番８号リニューアブル・ジャパン株式会社内,,13,103,1050001,,,,,,,2023-12-04,1,,,,,バテリアヨイチ,0
1805,9010603010493,新規,0,2023-12-04,2023-12-04,Ａｒｋ　Ｓｔｕｄｉｏｓ合同会社,,合同会社,東京都,墨田区,立花２丁目２５番８号松美荘１６号室,,13,107,1310043,,,,,,,2023-12-04,1,,,,,アークスタジオ,0
1809,9010801034567,新規,0,2023-12-04,2023-12-04,株式会社ｂａｎｓｏｕ,,株式会社,東京都,大田区,西蒲田６丁目２－１７パティーナ蒲田２０１,,13,111,1440051,,,,,,,2023-12-04,1,,,,,バンソウ,0
1813,9010903008626,新規,0,2023-12-04,2023-12-04,Ｍａｔｉｃ合同会社,,合同会社,東京都,世田谷区,太子堂４丁目７番３号アトラス三軒茶屋１３０２,,13,112,1540004,,,,,,,2023-12-04,1,,,,,マティック,0
1816,9011001158520,新規,0,2023-12-04,2023-12-04,ソーシャルシフト株式会社,,株式会社,東京都,渋谷区,道玄坂２丁目２５番１２号道玄坂通５階,,13,113,1500043,,,,,,,2023-12-04,1,,,,,ソーシャルシフト,0
1817,9011001158586,新規,0,2023-12-04,2023-12-04,ＬＥＲＰ株式会社,,株式会社,東京都,渋谷区,上原１丁目３－９,,13,113,1510064,,,,,,,2023-12-04,1,,,,,ラープ,0
1819,9011003018037,新規,0,2023-12-04,2023-12-04,たらこプロダクション合同会社,,合同会社,東京都,渋谷区,神宮前６丁目２３－４桑野ビル２階,,13,113,1500001,,,,,,,2023-12-04,1,,,,,タラコプロダクション,0
1828,9011301029223,新規,0,2023-12-04,2023-12-04,株式会社Ｂｕｌａｎｃａ,,株式会社,東京都,杉並区,西荻南３丁目６番２号ことビル３ＦｒｏｏｍＢ,,13,115,1670053,,,,,,,2023-12-04,1,,,,,ブランカ,0
1829,9011303004983,新規,0,2023-12-04,2023-12-04,ＳＡＭＪＨＡＮＡ合同会社,,合同会社,東京都,杉並区,高円寺南５丁目３５番１６－１０２号,,13,115,1660003,,,,,,,2023-12-04,1,,,,,サムザナ,0
1832,9011505002595,新規,0,2023-12-04,2023-12-04,税理士法人ＵＢ,,その他の設立登記法人,東京都,北区,田端新町１丁目２２番１４号,,13,117,1140012,,,,,,,2023-12-04,1,,,,,ユービー,0
1833,9011603004155,新規,0,2023-12-04,2023-12-04,合同会社羽田,,合同会社,東京都,練馬区,北町２丁目１７番１６号しまのビル３０５,,13,120,1790081,,,,,,,2023-12-04,1,,,,,ハネダ,0
1838,9012803003244,新規,0,2023-12-04,2023-12-04,合同会社ＫＡＭ,,合同会社,東京都,国分寺市,光町３丁目２５番地３３,,13,214,1850034,,,,,,,2023-12-04,1,,,,,カム,0
1849,9020001154710,新規,0,2023-12-04,2023-12-04,報国紫峰株式会社,,株式会社,神奈川県,川崎市幸区,小向西町４丁目８６番地５,,14,132,2120004,,,,,,,2023-12-04,1,,,,,ホウコクシホウ,0
1851,9020005016205,新規,0,2023-12-04,2023-12-04,医療法人磐桜会,,その他の設立登記法人,神奈川県,横浜市中区,野毛町３丁目１６０番地４ちぇるる野毛２階,,14,104,2310064,,,,,,,2023-12-04,1,,,,,バンオウカイ,0
1856,9021003013805,新規,0,2023-12-04,2023-12-04,合同会社ｔｅｒｉｏｓ．,,合同会社,神奈川県,伊勢原市,伊勢原３丁目３２番３３号ガーデニアヒルズＩ２０５号,00132860,14,214,2591131,,,,,,,2023-12-04,1,,,,,テリオス,0
1857,9021005012953,新規,0,2023-12-04,2023-12-04,医療法人豊和会,,その他の設立登記法人,神奈川県,平塚市,八重咲町１９番２３号ココス八重咲１階１０１号室,,14,203,2540811,,,,,,,2023-12-04,1,,,,,ホウワカイ,0
1864,9030001157464,新規,0,2023-12-04,2023-12-04,株式会社ＴＫ建設,,株式会社,埼玉県,三郷市,早稲田２丁目１７番１５号,,11,237,3410018,,,,,,,2023-12-04,1,,,,,ティーケーケンセツ,0
1870,9040001131179,新規,0,2023-12-04,2023-12-04,株式会社柏倉工務店,,株式会社,千葉県,市川市,国分２丁目３番２０号,,12,203,2720834,,,,,,,2023-12-04,1,,,,,カシワクラコウムテン,0
1875,9040003023837,新規,0,2023-12-04,2023-12-04,合同会社ミネルヴァ,,合同会社,千葉県,柏市,柏３丁目６番３号丸柏ビル３階,,12,217,2770005,,,,,,,2023-12-04,1,,,,,ミネルヴァ,0
1878,9050001053892,新規,0,2023-12-04,2023-12-04,株式会社ＹＲＥ,,株式会社,茨城県,つくば市,研究学園２丁目２２－４,,08,220,3050817,,,,,,,2023-12-04,1,,,,,ワイアールイー,0
1880,9060001036566,新規,0,2023-12-04,2023-12-04,那須あかつき食品株式会社,,株式会社,栃木県,那須塩原市,関谷１６８９番地１,,09,213,3292801,,,,,,,2023-12-04,1,,,,,ナスアカツキショクヒン,0
1895,9100003007288,新規,0,2023-12-04,2023-12-04,合同会社ＭＧＫ,,合同会社,長野県,伊那市,東春近２０１番地３,,20,209,3994432,,,,,,,2023-12-04,1,,,,,エムジーケー,0
1897,9110003005225,新規,0,2023-12-04,2023-12-04,合同会社Ｔｈｒｉｃｅ,,合同会社,新潟県,長岡市,来迎寺１６８９番地１１,,15,202,9495411,,,,,,,2023-12-04,1,,,,,スライス,0
1905,9120001260267,新規,0,2023-12-04,2023-12-04,株式会社セタリア,,株式会社,大阪府,大阪市西区,九条２丁目１６番５号,,27,106,5500027,,,,,,,2023-12-04,1,,,,,セタリア,0
1906,9120001260275,新規,0,2023-12-04,2023-12-04,株式会社ＷＩＤＥ　ＬＩＮＫ,,株式会社,大阪府,守口市,菊水通２丁目１０番１－２０５号,,27,209,5700032,,,,,,,2023-12-04,1,,,,,ワイドリンク,0
1907,9120001260283,新規,0,2023-12-04,2023-12-04,Ｊ’ｓコーポレーション株式会社,,株式会社,大阪府,大阪市天王寺区,堀越町６番１１－７０５号,,27,109,5430056,,,,,,,2023-12-04,1,,,,,ジェイズコーポレーション,0
1908,9120001260309,新規,0,2023-12-04,2023-12-04,株式会社コーエイ,,株式会社,大阪府,枚方市,堂山２丁目１０番３号,,27,210,5730007,,,,,,,2023-12-04,1,,,,,コーエイ,0
1909,9120001260333,新規,0,2023-12-04,2023-12-04,１８Ｐｌｕｓ株式会社,,株式会社,大阪府,大阪市北区,梅田１丁目２番２号大阪駅前第２ビル１２－１２,,27,127,5300001,,,,,,,2023-12-04,1,,,,,エイティーンプラス,0
1912,9120003025437,新規,0,2023-12-04,2023-12-04,合同会社Ｐｅａｃｅｆｕｌ　Ｄｉａｒｙ,,合同会社,大阪府,大阪市西淀川区,野里２丁目２４番１３号,,27,113,5550024,,,,,,,2023-12-04,1,,,,,,0
1913,9120005024024,新規,0,2023-12-04,2023-12-04,ＮＰＯ法人日本トレイルランサーキット協議会,,その他の設立登記法人,大阪府,大阪市阿倍野区,西田辺町２丁目６－２１－３２２,,27,119,5450014,,,,,,,2023-12-04,1,,,,,ニホントレイルランサーキットキョウギカイ,0
1916,9120103005561,新規,0,2023-12-04,2023-12-04,合同会社颯,,合同会社,大阪府,南河内郡太子町,大字山田６３２－１,,27,381,5830992,,,,,,,2023-12-04,1,,,,,ハヤテ,0
1917,9120105009791,新規,0,2023-12-04,2023-12-04,一般社団法人ＣａｒｅＯｆｆｉｃｅＮａｇａｔａ,,その他の設立登記法人,大阪府,堺市中区,楢葉３３番地４,,27,142,5998252,,,,,,,2023-12-04,1,,,,,ケアオフィスナガタ,0
1918,9120901048423,新規,0,2023-12-04,2023-12-04,株式会社Ｓｑｕａｒｅ　Ｃｌｕｂ,,株式会社,大阪府,茨木市,南安威１丁目２－２３,,27,211,5670007,,,,,,,2023-12-04,1,,,,,スクエアクラブ,0
1927,9140001132456,新規,0,2023-12-04,2023-12-04,株式会社Ｃｏｒｒｅｃｔ　Ｂｒｉｇｈｔ,,株式会社,兵庫県,神戸市北区,有野町有野２０８５番地,,28,109,6511312,,,,,,,2023-12-04,1,,,,,コレクトブライト,0
1928,9140001132530,新規,0,2023-12-04,2023-12-04,株式会社加藤工務店,,株式会社,兵庫県,尼崎市,北大物町９番５号,,28,202,6600804,,,,,,,2023-12-04,1,,,,,カトウコウムテン,0
1929,9140001132547,新規,0,2023-12-04,2023-12-04,株式会社ＮＥＷ　ＨＯＬＩＤＡＹ,,株式会社,兵庫県,神戸市北区,星和台６丁目７－１３,,28,109,6511121,,,,,,,2023-12-04,1,,,,,ニューホリデー,0
1933,9150001026905,新規,0,2023-12-04,2023-12-04,朱雀株式会社,,株式会社,奈良県,橿原市,醍醐町２９３番地３森田マンション１Ｆ東,,29,205,6340072,,,,,,,2023-12-04,1,,,,,スザク,0
1939,9170001017910,新規,0,2023-12-04,2023-12-04,株式会社エコエイド,,株式会社,和歌山県,岩出市,中迫５４９番地の１１,,30,209,6496215,,,,,,,2023-12-04,1,,,,,エコエイド,0
1943,9180001159140,新規,0,2023-12-04,2023-12-04,株式会社ｃｏｎｎｅｃｔｕｒｅ,,株式会社,愛知県,名古屋市中村区,則武２丁目３番２号,,23,105,4530014,,,,,,,2023-12-04,1,,,,,コネクチュア,0
1949,9190001030928,新規,0,2023-12-04,2023-12-04,株式会社ＰＬＡＹ４ＢＡＣＫＳ,,株式会社,三重県,四日市市,広永町１３６６番地１,,24,202,5128061,,,,,,,2023-12-04,1,,,,,プレイフォーバックス,0
1956,9220001025718,新規,0,2023-12-04,2023-12-04,株式会社ｂｒｉｌｌａｎｔｅ,,株式会社,石川県,野々市市,押野３丁目１５９番地１,,17,212,9218802,,,,,,,2023-12-04,1,,,,,ブリランテ,0
1962,9240001062494,新規,0,2023-12-04,2023-12-04,株式会社ＪＡＮＯＨ,,株式会社,広島県,広島市安芸区,上瀬野２丁目１５－１９,,34,107,7390301,,,,,,,2023-12-04,1,,,,,ジャノー,0
1963,9240001062503,新規,0,2023-12-04,2023-12-04,株式会社Ｗ,,株式会社,広島県,広島市中区,加古町１番１２－５０２号,,34,101,7300812,,,,,,,2023-12-04,1,,,,,ダブリュー,0
1972,9270001008882,新規,0,2023-12-04,2023-12-04,株式会社サンマートホールディングス,,株式会社,鳥取県,鳥取市,湖山町東２丁目１３３番地,,31,201,6800942,,,,,,,2023-12-04,1,,,,,サンマートホールディングス,0
1981,9290001103855,新規,0,2023-12-04,2023-12-04,ＯＮＥ　ＷＯＲＬＤ株式会社,,株式会社,福岡県,福岡市中央区,渡辺通５丁目１４番１２号南天神ビル３Ｆ,,40,133,8100004,,,,,,,2023-12-04,1,,,,,ワンワールド,0
1982,9290001103863,新規,0,2023-12-04,2023-12-04,株式会社ドクターズリクルートメント,,株式会社,福岡県,大野城市,筒井３丁目５番３７号,,40,219,8160931,,,,,,,2023-12-04,1,,,,,ドクターズリクルートメント,0
1983,9290001103913,新規,0,2023-12-04,2023-12-04,株式会社リブウェル,,株式会社,福岡県,太宰府市,朱雀２丁目２２番２号ストーンビレッヂＢ棟２０３,,40,221,8180103,,,,,,,2023-12-04,1,,,,,リブウェル,0
1987,9290801030092,新規,0,2023-12-04,2023-12-04,株式会社ＳＥＡＭＬＥＳＳ,,株式会社,福岡県,北九州市戸畑区,一枝１丁目２番１２－２０６号,,40,105,8040021,,,,,,,2023-12-04,1,,,,,シームレス,0
1988,9290801030101,新規,0,2023-12-04,2023-12-04,株式会社心玖,,株式会社,福岡県,北九州市八幡東区,春の町５丁目１番２７－３０６号,,40,108,8050050,,,,,,,2023-12-04,1,,,,,シンキ,0
1993,9320001020171,新規,0,2023-12-04,2023-12-04,株式会社Ｐｏｌｉｔｅ,,株式会社,大分県,杵築市,大字守江２１１３番地６,,44,210,8730033,,,,,,,2023-12-04,1,,,,,ポライト,0
2004,9360003013525,新規,0,2023-12-04,2023-12-04,合同会社五月技研,,合同会社,沖縄県,うるま市,字西原１０４番地１,,47,213,9042204,,,,,,,2023-12-04,1,,,,,サツキギケン,0
2017,9430001090567,新規,0,2023-12-04,2023-12-04,株式会社楽祥,,株式会社,北海道,札幌市西区,西野二条４丁目１番１号,,01,107,0630032,,,,,,,2023-12-04,1,,,,,ラクショウ,0
2021,9430003015662,新規,0,2023-12-04,2023-12-04,合同会社サンライズ,,合同会社,北海道,札幌市中央区,南八条西１丁目２－４－２０８,,01,101,0640808,,,,,,,2023-12-04,1,,,,,サンライズ,0
2034,9480003002053,新規,0,2023-12-04,2023-12-04,エンフリー合同会社,,合同会社,徳島県,板野郡松茂町,中喜来字中瀬中ノ越４番地１４,,36,401,7710212,,,,,,,2023-12-04,1,,,,,エンフリー,0
2036,9490001010651,新規,0,2023-12-04,2023-12-04,株式会社桃山企画,,株式会社,高知県,高知市,南金田３番５８－１号ラテール南金田２Ｆ東,,39,201,7810074,,,,,,,2023-12-04,1,,,,,モモヤマキカク,0
2037,9500001025334,新規,0,2023-12-04,2023-12-04,株式会社ＫＯＹＡＪＩ,,株式会社,愛媛県,四国中央市,上柏町８２８番地６,,38,213,7990412,,,,,,,2023-12-04,1,,,,,コヤジ,0
2040,9700150122135,新規,0,2023-12-04,2023-12-04,広州波米設計有限公司,,外国会社等,,,,,,,,中国広東省広州市南沙区豊沢東路１０６号（自編１号楼）Ｘ１３０１―Ｈ５３０３（集群注冊）（ＪＭ）,,,,,,2023-12-04,1,,,,,コウシユウハベイセツケイユウゲンコウシ,0
