sequenceNumber,corporateNumber,process,correct,updateDate,changeDate,name,nameImageId,kind,prefectureName,cityName,streetNumber,addressImageId,prefectureCode,cityCode,postCode,addressOutside,addressOutsideImageId,closeDate,closeCause,successorCorporateNumber,changeCause,assignmentDate,latest,enName,enPrefectureName,enCityName,enAddressOutside,furigana,hihyoji
8,1010001220215,新規,0,2021-08-10,2021-08-10,株式会社ミツウロコヴォイジャーズ分割準備会社,,株式会社,東京都,中央区,京橋３丁目１番１号,,13,102,1040031,,,,,,,2021-08-10,1,,,,,ミツウロコヴォイジャーズブンカツジュンビ,0
9,1010001220223,新規,0,2021-08-10,2021-08-10,株式会社ケイインテリジェンスマネージメント,,株式会社,東京都,中央区,日本橋室町１丁目１３番７号,,13,102,1030022,,,,,,,2021-08-10,1,,,,,ケイインテリジェンスマネージメント,0
10,1010001220330,新規,0,2021-08-10,2021-08-10,清水建設不動産投資顧問株式会社,,株式会社,東京都,中央区,京橋２丁目１６番１号,,13,102,1040031,,,,,,,2021-08-10,1,,,,,シミズケンセツフドウサントウシコモン,0
13,1010005033753,新規,0,2021-08-10,2021-08-10,Ｎａｓｈ特定目的会社,,その他の設立登記法人,東京都,中央区,銀座１丁目６番１１号アースタックス税理士法人内,,13,102,1040061,,,,,,,2021-08-10,1,,,,,ナッシュ,0
20,1010405020054,新規,0,2021-08-10,2021-08-10,特定非営利活動法人ネイソクの会,,その他の設立登記法人,東京都,港区,芝大門２丁目１２番５号モンテベルデ芝大門４Ｆ,,13,103,1050012,,,,,,,2021-08-10,1,,,,,ネイソクノカイ,0
32,1010801032223,新規,0,2021-08-10,2021-08-10,インテグラルコード株式会社,,株式会社,東京都,大田区,南千束２丁目６番１６－１０１号,,13,111,1450063,,,,,,,2021-08-10,1,,,,,インテグラルコード,0
34,1010901049241,新規,0,2021-08-10,2021-08-10,株式会社ＡＸＥ　ＣＯＮＳＵＬＴＩＮＧ,,株式会社,東京都,世田谷区,深沢６丁目９－１－３０１,,13,112,1580081,,,,,,,2021-08-10,1,,,,,アックスコンサルティング,0
63,1012301012655,新規,0,2021-08-10,2021-08-10,グローバル・テック・プラン株式会社,,株式会社,東京都,町田市,玉川学園３丁目３２番１５号,,13,209,1940041,,,,,,,2021-08-10,1,,,,,グローバルテックプラン,0
64,1012401038170,新規,0,2021-08-10,2021-08-10,株式会社玉井企画,,株式会社,東京都,稲城市,大丸８８３番地,,13,225,2060801,,,,,,,2021-08-10,1,,,,,タマイキカク,0
76,1020001142516,新規,0,2021-08-10,2021-08-10,株式会社プラス,,株式会社,神奈川県,横浜市旭区,桐が作１１８１番地１８,,14,112,2410832,,,,,,,2021-08-10,1,,,,,プラス,0
77,1020001142549,新規,0,2021-08-10,2021-08-10,ハナタカラ株式会社,,株式会社,神奈川県,横浜市西区,みなとみらい６丁目３番４－２３０５号,,14,103,2200012,,,,,,,2021-08-10,1,,,,,ハナタカラ,0
84,1020003020298,新規,0,2021-08-10,2021-08-10,合同会社Ａｄｖａｎｃｉａｌ,,合同会社,神奈川県,川崎市川崎区,南町２番地１秋山クリスタルビル３０２,,14,131,2100015,,,,,,,2021-08-10,1,,,,,アドバンシャル,0
85,1020003020307,新規,0,2021-08-10,2021-08-10,合同会社ｆ．ｓｔｙｌｅ,,合同会社,神奈川県,横浜市鶴見区,鶴見中央４丁目３２番１１号,,14,101,2300051,,,,,,,2021-08-10,1,,,,,エフスタイル,0
89,1021001073602,新規,0,2021-08-10,2021-08-10,株式会社エバーホールディングス,,株式会社,神奈川県,茅ヶ崎市,東海岸南１丁目１番１号,,14,207,2530054,,,,,,,2021-08-10,1,,,,,エバーホールディングス,0
90,1021001073643,新規,0,2021-08-10,2021-08-10,ｂｅ　ｙｏｕｒｓｅｌｆ株式会社,,株式会社,神奈川県,厚木市,上荻野８９５番地２アスカⅢ１０２,00123877,14,212,2430201,,,,,,,2021-08-10,1,,,,,ビーユアセルフ,0
91,1021001073651,新規,0,2021-08-10,2021-08-10,株式会社Ｗｉｌｌ　Ｓｙｓｔｅｍ,,株式会社,神奈川県,藤沢市,辻堂１丁目９番３号ＳｈｏｎａｎＥｍｉｎｅｎｃｅ３階,00123892,14,205,2510047,,,,,,,2021-08-10,1,,,,,ウィルシステム,0
99,1030001143620,新規,0,2021-08-10,2021-08-10,株式会社ゴールデンツリー流通,,株式会社,埼玉県,川越市,大字藤間１６３番地４ストークマンション川越４０１号室,,11,201,3501142,,,,,,,2021-08-10,1,,,,,ゴールデンツリーリュウツウ,0
100,1030001143736,新規,0,2021-08-10,2021-08-10,クロームテック株式会社,,株式会社,埼玉県,さいたま市見沼区,大字中川１０１７番地６０,,11,104,3370043,,,,,,,2021-08-10,1,,,,,クロームテック,0
106,1030003017723,新規,0,2021-08-10,2021-08-10,合同会社デー,,合同会社,埼玉県,児玉郡上里町,大字堤３６５番地２,,11,385,3690313,,,,,,,2021-08-10,1,,,,,デー,0
113,1040001119628,新規,0,2021-08-10,2021-08-10,株式会社ＹＺ,,株式会社,千葉県,流山市,西初石４丁目１１８－３２,,12,220,2700121,,,,,,,2021-08-10,1,,,,,ワイジー,0
114,1040001119636,新規,0,2021-08-10,2021-08-10,株式会社妃建設,,株式会社,千葉県,茂原市,東郷２２０７番地,,12,210,2970017,,,,,,,2021-08-10,1,,,,,キサキケンセツ,0
115,1040001119644,新規,0,2021-08-10,2021-08-10,ルミノ不動産株式会社,,株式会社,千葉県,松戸市,五香２丁目１番地１ＲＭビル３階,,12,207,2702213,,,,,,,2021-08-10,1,,,,,ルミノフドウサン,0
116,1040001119652,新規,0,2021-08-10,2021-08-10,株式会社サカモト塗装工房,,株式会社,千葉県,印西市,船尾１２５８番地４,,12,231,2701345,,,,,,,2021-08-10,1,,,,,サカモトトソウコウボウ,0
117,1040001119660,新規,0,2021-08-10,2021-08-10,株式会社ＭＩＲＵ,,株式会社,千葉県,浦安市,明海３丁目２－１,,12,227,2790014,,,,,,,2021-08-10,1,,,,,ミル,0
118,1040001119669,新規,0,2021-08-10,2021-08-10,株式会社ＣＲＥＳＴ,,株式会社,千葉県,市川市,日之出２１番１－店舗４（ソフトタウン行徳Ｃ棟）,,12,203,2720135,,,,,,,2021-08-10,1,,,,,クレスト,0
119,1040001119702,新規,0,2021-08-10,2021-08-10,株式会社グリップ,,株式会社,千葉県,八街市,八街ほ９６９番地１３８,,12,230,2891115,,,,,,,2021-08-10,1,,,,,グリップ,0
121,1040003018290,新規,0,2021-08-10,2021-08-10,合同会社ｓｔｅｎｃｅ,,合同会社,千葉県,船橋市,丸山３丁目５１番４６号,,12,204,2730048,,,,,,,2021-08-10,1,,,,,ステンス,0
123,1060001033967,新規,0,2021-08-10,2021-08-10,株式会社マネーランニング,,株式会社,栃木県,宇都宮市,五代１丁目１１番１９号,,09,201,3210135,,,,,,,2021-08-10,1,,,,,マネーランニング,0
128,1080001024378,新規,0,2021-08-10,2021-08-10,株式会社Ｆｌｉｋ,,株式会社,静岡県,静岡市清水区,北脇３５４番地の１,,22,103,4240052,,,,,,,2021-08-10,1,,,,,フリック,0
129,1080105006165,新規,0,2021-08-10,2021-08-10,一般社団法人Ｇ．Ｆ．マネジメント裾野,,その他の設立登記法人,静岡県,裾野市,水窪７２番地,,22,220,4101124,,,,,,,2021-08-10,1,,,,,ジーエフマネジメントスソノ,0
146,1120001239632,新規,0,2021-08-10,2021-08-10,株式会社おはぎ経営,,株式会社,大阪府,大阪市中央区,久太郎町４丁目２番１０号大西ビルディング６Ｆ,,27,128,5410056,,,,,,,2021-08-10,1,,,,,オハギケイエイ,0
147,1120001239640,新規,0,2021-08-10,2021-08-10,株式会社ＥＡＲＴＨ２８,,株式会社,大阪府,枚方市,出口２丁目２９番１－８３４号,,27,210,5730065,,,,,,,2021-08-10,1,,,,,アースニハ,0
149,1120003019966,新規,0,2021-08-10,2021-08-10,合同会社ＶＩＶＩＤ　ＨＯＵＲ,,合同会社,大阪府,大阪市北区,豊崎３丁目１５番５号ＴＫビル２階,,27,127,5310072,,,,,,,2021-08-10,1,,,,,ビビッドアワー,0
150,1120003019999,新規,0,2021-08-10,2021-08-10,合同会社Ｔ．Ｋマシナリー,,合同会社,大阪府,大阪市住吉区,我孫子東２丁目８番１６－４０５号,,27,120,5580013,,,,,,,2021-08-10,1,,,,,ティケイマシナリー,0
152,1120901044743,新規,0,2021-08-10,2021-08-10,株式会社ＭａｎａＴｈｉ,,株式会社,大阪府,箕面市,西小路２丁目８番１５号（２０１号）,,27,220,5620003,,,,,,,2021-08-10,1,,,,,マナティ,0
157,1122001035061,新規,0,2021-08-10,2021-08-10,アールテック８１株式会社,,株式会社,大阪府,八尾市,八尾木５丁目１２７番地１,,27,212,5810027,,,,,,,2021-08-10,1,,,,,アールテックハチジュウイチ,0
161,1130001069888,新規,0,2021-08-10,2021-08-10,株式会社ワイズ,,株式会社,京都府,京都市南区,吉祥院宮ノ東町１４番地,,26,107,6018305,,,,,,,2021-08-10,1,,,,,ワイズ,0
162,1130001069896,新規,0,2021-08-10,2021-08-10,株式会社ＥＬＡＩ,,株式会社,京都府,八幡市,男山香呂６番地－Ａ２９－３０４,,26,210,6148377,,,,,,,2021-08-10,1,,,,,エライ,0
166,1130003007409,新規,0,2021-08-10,2021-08-10,合同会社ＨＵＢ,,合同会社,京都府,京都市東山区,大和大路通三条下る三丁目弁財天町８－２,,26,105,6050000,,,,,,,2021-08-10,1,,,,,,0
172,1140001122547,新規,0,2021-08-10,2021-08-10,株式会社笑るーむ,,株式会社,兵庫県,川西市,笹部１丁目６番１号,,28,217,6660104,,,,,,,2021-08-10,1,,,,,ショウルーム,0
173,1140001122605,新規,0,2021-08-10,2021-08-10,株式会社ＴＥＴ,,株式会社,兵庫県,高砂市,荒井町東本町２１番４号,,28,216,6760017,,,,,,,2021-08-10,1,,,,,テット,0
174,1140001122638,新規,0,2021-08-10,2021-08-10,株式会社ケイツープランニング,,株式会社,兵庫県,神戸市北区,鈴蘭台東町５丁目２－２３グリーンハイツ鈴蘭１００号,,28,109,6511112,,,,,,,2021-08-10,1,,,,,ケイツープランニング,0
178,1140003016615,新規,0,2021-08-10,2021-08-10,Ｌａｖａｋｉ　Ｃｏｒｐｏｒａｔｉｏｎ合同会社,,合同会社,兵庫県,神戸市東灘区,向洋町中５丁目１５番地１０１７号,,28,101,6580032,,,,,,,2021-08-10,1,,,,,ラヴァキコーポレーション,0
180,1140005025770,新規,0,2021-08-10,2021-08-10,一般社団法人日本アート振興協会,,その他の設立登記法人,兵庫県,神戸市垂水区,本多聞２丁目４番２６号,,28,108,6550006,,,,,,,2021-08-10,1,,,,,,0
181,1140005025779,新規,0,2021-08-10,2021-08-10,一般社団法人永井興産,,その他の設立登記法人,兵庫県,小野市,栄町２５６番地,,28,218,6751312,,,,,,,2021-08-10,1,,,,,ナガイコウサン,0
185,1150003002449,新規,0,2021-08-10,2021-08-10,合同会社ＯＮＴ,,合同会社,奈良県,大和郡山市,筒井町５４２番地７,,29,203,6391123,,,,,,,2021-08-10,1,,,,,オーエヌティー,0
187,1170003001614,新規,0,2021-08-10,2021-08-10,ＡＯＫ＆ｉ合同会社,,合同会社,和歌山県,和歌山市,北中島１丁目９－２０,,30,201,6410008,,,,,,,2021-08-10,1,,,,,エーオーケーアンドアイ,0
203,1180001147326,新規,0,2021-08-10,2021-08-10,株式会社テンポダッシュ,,株式会社,愛知県,名古屋市中村区,牛田通２丁目９番地の２,,23,105,4530853,,,,,,,2021-08-10,1,,,,,テンポダッシュ,0
204,1180001147383,新規,0,2021-08-10,2021-08-10,エフ・ティーサービス株式会社,,株式会社,愛知県,常滑市,金山字前田１０３番地,,23,216,4790003,,,,,,,2021-08-10,1,,,,,エフティーサービス,0
205,1180001147391,新規,0,2021-08-10,2021-08-10,株式会社なごみ警備保障,,株式会社,愛知県,名古屋市千種区,千種通５丁目２０番１ウイング大久手１Ｆ,,23,101,4640855,,,,,,,2021-08-10,1,,,,,ナゴミケイビホショウ,0
214,1180301035263,新規,0,2021-08-10,2021-08-10,株式会社ｍｓ‐ｃａｓｔｌｅ,,株式会社,愛知県,安城市,住吉町２丁目３‐３１コレクション安城住吉１０１,,23,212,4460072,,,,,,,2021-08-10,1,,,,,,0
224,1220001024347,新規,0,2021-08-10,2021-08-10,株式会社ＳＫＩ,,株式会社,石川県,金沢市,湊２丁目１２０番地１９,,17,201,9200211,,,,,,,2021-08-10,1,,,,,エスケイアイ,0
225,1220001024355,新規,0,2021-08-10,2021-08-10,株式会社ホームリユース北陸,,株式会社,石川県,白山市,青葉台２丁目２０１番地,,17,210,9240819,,,,,,,2021-08-10,1,,,,,ホームリユースホクリク,0
252,1290001094094,新規,0,2021-08-10,2021-08-10,株式会社ＡＬＬ　ＩＮ,,株式会社,福岡県,福岡市中央区,平尾４丁目４番２－６０１号,,40,133,8100014,,,,,,,2021-08-10,1,,,,,オールイン,0
253,1290001094111,新規,0,2021-08-10,2021-08-10,株式会社Ｌａｇｏｏｎ,,株式会社,福岡県,宗像市,石丸３丁目４番１号,,40,220,8114147,,,,,,,2021-08-10,1,,,,,ラグーン,0
254,1290001094152,新規,0,2021-08-10,2021-08-10,株式会社ｃｏｍａｍ関東,,株式会社,福岡県,福岡市中央区,赤坂１丁目１３番８号,,40,133,8100042,,,,,,,2021-08-10,1,,,,,コマムカントウ,0
258,1290003011485,新規,0,2021-08-10,2021-08-10,合同会社エムアンドエムズ,,合同会社,福岡県,福岡市中央区,今泉２丁目１番２８－８０９号,,40,133,8100021,,,,,,,2021-08-10,1,,,,,エムアンドエムズ,0
259,1290005018314,新規,0,2021-08-10,2021-08-10,一般社団法人日本男性器学会,,その他の設立登記法人,福岡県,福岡市博多区,博多駅前４丁目４番２０号船津ビル１階,,40,132,8120011,,,,,,,2021-08-10,1,,,,,ニホンダンセイキガッカイ,0
260,1290801027674,新規,0,2021-08-10,2021-08-10,ＣＮＲ　ＴＲＡＤＩＮＧ株式会社,,株式会社,福岡県,田川市,桜町１６－６９,,40,206,8260021,,,,,,,2021-08-10,1,,,,,シーエヌアールトレーディング,0
261,1290801027682,新規,0,2021-08-10,2021-08-10,株式会社慎尚,,株式会社,福岡県,北九州市小倉北区,足原１丁目３番７号,,40,106,8020043,,,,,,,2021-08-10,1,,,,,シンショウ,0
262,1290801027690,新規,0,2021-08-10,2021-08-10,株式会社ｔｏｂｉｒａ,,株式会社,福岡県,北九州市若松区,塩屋２丁目１４番７号,,40,103,8080131,,,,,,,2021-08-10,1,,,,,トビラ,0
264,1310001017399,新規,0,2021-08-10,2021-08-10,株式会社メイクス,,株式会社,長崎県,長崎市,城山町１８番９号,,42,201,8528021,,,,,,,2021-08-10,1,,,,,メイクス,0
269,1320003003594,新規,0,2021-08-10,2021-08-10,合同会社牧電機,,合同会社,大分県,大分市,原新町１２番１４号,,44,201,8700912,,,,,,,2021-08-10,1,,,,,マキデンキ,0
276,1340003003519,新規,0,2021-08-10,2021-08-10,合同会社ベル賃貸研究所,,合同会社,鹿児島県,姶良市,蒲生町米丸６１３番地,,46,225,8995308,,,,,,,2021-08-10,1,,,,,ベルチンタイケンキュウショ,0
282,1350003003906,新規,0,2021-08-10,2021-08-10,合同会社作物ライフ,,合同会社,宮崎県,都城市,今町７６９４番地４,,45,202,8850064,,,,,,,2021-08-10,1,,,,,サクモツライフ,0
286,1360001029167,新規,0,2021-08-10,2021-08-10,株式会社まあれ,,株式会社,沖縄県,那覇市,上之屋１丁目１６番３０号,,47,201,9000011,,,,,,,2021-08-10,1,,,,,マアレ,0
293,1370003005347,新規,0,2021-08-10,2021-08-10,ＰＲＯＸＩＭＡ合同会社,,合同会社,宮城県,仙台市青葉区,上杉３丁目５番５－９０３号,,04,101,9800011,,,,,,,2021-08-10,1,,,,,,0
300,1380001032086,新規,0,2021-08-10,2021-08-10,株式会社フジ防熱,,株式会社,福島県,福島市,下鳥渡字大平南１番地の４,,07,201,9601106,,,,,,,2021-08-10,1,,,,,フジボウネツ,0
301,1380001032094,新規,0,2021-08-10,2021-08-10,株式会社斎藤機械サービス,,株式会社,福島県,安達郡大玉村,大山字大作田１０番地２,,07,322,9691301,,,,,,,2021-08-10,1,,,,,サイトウキカイサービス,0
303,1380005012464,新規,0,2021-08-10,2021-08-10,特定非営利活動法人絆だて,,その他の設立登記法人,福島県,伊達市,伏黒字沖屋敷１９番地２,,07,213,9600501,,,,,,,2021-08-10,1,,,,,,0
305,1390001016559,新規,0,2021-08-10,2021-08-10,株式会社むらおこし,,株式会社,山形県,尾花沢市,大字鶴巻田６１２番地,,06,212,9994337,,,,,,,2021-08-10,1,,,,,ムラオコシ,0
318,1430001084683,新規,0,2021-08-10,2021-08-10,ＧＢＰ株式会社,,株式会社,北海道,札幌市北区,北十条西２丁目９番地１,,01,102,0010010,,,,,,,2021-08-10,1,,,,,ジービーピー,0
334,2010001220123,新規,0,2021-08-10,2021-08-10,株式会社Ｎｅｘｔ,,株式会社,東京都,中央区,勝どき６丁目３番２号ＴＨＥ・ＴＯＫＹＯ・ＴＯＷＥＲＳ・ＭＩＤ・ＴＯＷＥＲ２５２７,,13,102,1040054,,,,,,,2021-08-10,1,,,,,ネクスト,0
335,2010001220156,新規,0,2021-08-10,2021-08-10,株式会社Ｉ’ｍ　Ｈｅｒｅ,,株式会社,東京都,中央区,湊１丁目３番４－２０１号,,13,102,1040043,,,,,,,2021-08-10,1,,,,,アイムヒアー,0
336,2010001220239,新規,0,2021-08-10,2021-08-10,株式会社コムテック,,株式会社,東京都,文京区,水道２丁目３番２０号,,13,105,1120005,,,,,,,2021-08-10,1,,,,,コムテック,0
337,2010003035577,新規,0,2021-08-10,2021-08-10,合同会社フジタサポート,,合同会社,東京都,中央区,銀座１丁目２２番１１号銀座大竹ビジデンス２階,,13,102,1040061,,,,,,,2021-08-10,1,,,,,フジタサポート,0
352,2010401161958,新規,0,2021-08-10,2021-08-10,株式会社反省Ｈｏｌｄｉｎｇｓ,,株式会社,東京都,港区,海岸３丁目８－５プレールドゥーク東京ベイⅢ２０１号室,00123894,13,103,1080022,,,,,,,2021-08-10,1,,,,,ハンセイホールディングス,0
353,2010403025871,新規,0,2021-08-10,2021-08-10,オープンｉＴ日本合同会社,,合同会社,東京都,港区,赤坂２丁目２３番１号アークヒルズ・フロントタワーＩｎＣｏｎｔｒｏｌ内,,13,103,1070052,,,,,,,2021-08-10,1,,,,,オープンアイティーニホン,0
355,2010501047611,新規,0,2021-08-10,2021-08-10,Ｋｉｒａｒａ株式会社,,株式会社,東京都,台東区,下谷１丁目６番９号７Ｂ,,13,106,1100004,,,,,,,2021-08-10,1,,,,,キララ,0
358,2010601059762,新規,0,2021-08-10,2021-08-10,株式会社レガリス,,株式会社,東京都,墨田区,押上３丁目３０番１０号３Ｆ,,13,107,1310045,,,,,,,2021-08-10,1,,,,,レガリス,0
361,2010603009088,新規,0,2021-08-10,2021-08-10,合同会社Ｇｏｏｄ　Ｈａｂｉｔ,,合同会社,東京都,江東区,塩浜１丁目６番８－１２０２号,,13,108,1350043,,,,,,,2021-08-10,1,,,,,グッドハビット,0
365,2010703005879,新規,0,2021-08-10,2021-08-10,合同会社イマカコミライ,,合同会社,東京都,品川区,西品川１丁目１－１住友不動産大崎ガーデンタワー９階,,13,109,1410033,,,,,,,2021-08-10,1,,,,,イマカコミライ,0
374,2011001142167,新規,0,2021-08-10,2021-08-10,株式会社ＰＵＴＣＨＵ,,株式会社,東京都,渋谷区,恵比寿１丁目１９－１９恵比寿ビジネスタワー４Ｆ,,13,113,1500013,,,,,,,2021-08-10,1,,,,,プッチュ,0
375,2011003013218,新規,0,2021-08-10,2021-08-10,Ｈ．Ｋ．Ｄｅｓｉｇｎ合同会社,,合同会社,東京都,渋谷区,渋谷２丁目１９番１５号宮益坂ビルディング６０９号,,13,113,1500002,,,,,,,2021-08-10,1,,,,,エイチケイデザイン,0
388,2011301027092,新規,0,2021-08-10,2021-08-10,株式会社なんば,,株式会社,東京都,杉並区,松ノ木２丁目１番１７号,,13,115,1660014,,,,,,,2021-08-10,1,,,,,ナンバ,0
397,2012401038161,新規,0,2021-08-10,2021-08-10,株式会社センチメンタルバリュー,,株式会社,東京都,調布市,上石原３丁目５９番地４１,,13,208,1820035,,,,,,,2021-08-10,1,,,,,センチメンタルバリュー,0
398,2012401038178,新規,0,2021-08-10,2021-08-10,株式会社ＢＹＴＥ,,株式会社,東京都,府中市,若松町４丁目４９番地の１リベラル若松２０１,,13,206,1830005,,,,,,,2021-08-10,1,,,,,バイト,0
399,2012801021007,新規,0,2021-08-10,2021-08-10,株式会社リビングベース,,株式会社,東京都,日野市,平山３丁目１５番地の３,,13,212,1910043,,,,,,,2021-08-10,1,,,,,,0
424,2020003020297,新規,0,2021-08-10,2021-08-10,Ｍ．Ｇ．Ｓ　ｇｒｏｕｐ合同会社,,合同会社,神奈川県,横浜市都筑区,東山田町１６８５番地３,,14,118,2240024,,,,,,,2021-08-10,1,,,,,エムジーエスグループ,0
425,2020005015163,新規,0,2021-08-10,2021-08-10,税理士法人大門,,その他の設立登記法人,神奈川県,横浜市中区,本町４丁目３６番地朝日生命横浜本町ビル８階,,14,104,2310005,,,,,,,2021-08-10,1,,,,,ダイモン,0
435,2021003010775,新規,0,2021-08-10,2021-08-10,Ａ　ＧＲＯＵＰ合同会社,,合同会社,神奈川県,藤沢市,鵠沼花沢町１２番３号,,14,205,2510023,,,,,,,2021-08-10,1,,,,,エーグループ,0
436,2021003010783,新規,0,2021-08-10,2021-08-10,合同会社ＢＡＮＧＫＯＫ　ＷＥＬＬＮＥＳＳ,,合同会社,神奈川県,横須賀市,本町３丁目１１番地Ｕ’ｓビルディング２階,,14,201,2380041,,,,,,,2021-08-10,1,,,,,バンコクウェルネス,0
441,2030001143685,新規,0,2021-08-10,2021-08-10,株式会社ライフベース,,株式会社,埼玉県,川口市,朝日４丁目１番２５号,,11,203,3320001,,,,,,,2021-08-10,1,,,,,ライフベース,0
442,2030001143693,新規,0,2021-08-10,2021-08-10,株式会社エアーコネクト,,株式会社,埼玉県,さいたま市南区,南浦和３丁目２９番１３号,,11,108,3360017,,,,,,,2021-08-10,1,,,,,エアーコネクト,0
443,2030001143735,新規,0,2021-08-10,2021-08-10,Ｙ＆Ｙ　Ｍｕｓｉｃ株式会社,,株式会社,埼玉県,さいたま市浦和区,仲町２丁目１６番５号浦和ＣＳＢビル６階,,11,107,3300062,,,,,,,2021-08-10,1,,,,,ワイアンドワイミュージック,0
444,2030001143751,新規,0,2021-08-10,2021-08-10,Ｍ＆Ｏグループ株式会社,,株式会社,埼玉県,さいたま市大宮区,仲町３丁目３６番地１コンフォリア大宮１６０１,,11,103,3300845,,,,,,,2021-08-10,1,,,,,エムアンドオーグループ,0
449,2040001119627,新規,0,2021-08-10,2021-08-10,株式会社Ｓ．Ｔサービス,,株式会社,千葉県,市原市,うるいど南２丁目３番地４グレイスメゾンＣ１０１,,12,219,2900170,,,,,,,2021-08-10,1,,,,,エスティーサービス,0
450,2040001119668,新規,0,2021-08-10,2021-08-10,株式会社陽美装,,株式会社,千葉県,野田市,春日町２３番地の２９,,12,208,2780052,,,,,,,2021-08-10,1,,,,,ヒナタビソウ,0
451,2040001119676,新規,0,2021-08-10,2021-08-10,株式会社Ｒａｉｎｂｏｗ　Ｌｉｖｉｎｇ,,株式会社,千葉県,富里市,七栄６４９番地５３,,12,233,2860221,,,,,,,2021-08-10,1,,,,,レインボーリビング,0
452,2040001119684,新規,0,2021-08-10,2021-08-10,株式会社ＬＡＩＳ建機,,株式会社,千葉県,山武郡芝山町,小池１００９番地２グランドールＢ１０１,,12,409,2891624,,,,,,,2021-08-10,1,,,,,ライスケンキ,0
455,2040003018273,新規,0,2021-08-10,2021-08-10,なかしょう合同会社,,合同会社,千葉県,千葉市中央区,松波３丁目１１番３－２１１号,,12,101,2600044,,,,,,,2021-08-10,1,,,,,ナカショウ,0
456,2040003018298,新規,0,2021-08-10,2021-08-10,合同会社アンビジュ,,合同会社,千葉県,市原市,勝間８９０番地,,12,219,2900174,,,,,,,2021-08-10,1,,,,,アンビジュ,0
458,2050001049682,新規,0,2021-08-10,2021-08-10,株式会社セカンド,,株式会社,茨城県,常陸太田市,内田町３０７３番地の６,,08,212,3130037,,,,,,,2021-08-10,1,,,,,セカンド,0
468,2080001024377,新規,0,2021-08-10,2021-08-10,株式会社カレラ,,株式会社,静岡県,静岡市駿河区,池田６５７番地の３,,22,102,4228005,,,,,,,2021-08-10,1,,,,,カレラ,0
483,2110003004547,新規,0,2021-08-10,2021-08-10,合同会社かけはし,,合同会社,新潟県,長岡市,宮関４丁目１番１３号,,15,202,9402021,,,,,,,2021-08-10,1,,,,,カケハシ,0
493,2120001239532,新規,0,2021-08-10,2021-08-10,株式会社ポトス,,株式会社,大阪府,大阪市中央区,道修町１丁目６番７号,,27,128,5410045,,,,,,,2021-08-10,1,,,,,ポトス,0
494,2120001239598,新規,0,2021-08-10,2021-08-10,株式会社ディクセル,,株式会社,大阪府,大阪市中央区,南久宝寺町２丁目１番２号竹田ビル７０３,,27,128,5410058,,,,,,,2021-08-10,1,,,,,ディクセル,0
500,2120003019981,新規,0,2021-08-10,2021-08-10,合同会社クアドリフォリオ,,合同会社,大阪府,大阪市中央区,常盤町１丁目３番１８号,,27,128,5400028,,,,,,,2021-08-10,1,,,,,クアドリフォリオ,0
501,2120005022430,新規,0,2021-08-10,2021-08-10,弁護士法人ＪＰＳ,,その他の設立登記法人,大阪府,大阪市中央区,今橋１丁目１番３号ＩＭＡＢＡＳＨＩ、ＧＡＴＥ、ＰＬＡＣＥ８階,,27,128,5410042,,,,,,,2021-08-10,1,,,,,ジェイピーエス,0
517,2130003007416,新規,0,2021-08-10,2021-08-10,合同会社帝国食堂,,合同会社,京都府,京都市中京区,西ノ京三条坊町２番地２サンハイツ西ノ京３０８,,26,104,6048435,,,,,,,2021-08-10,1,,,,,テイコクショクドウ,0
524,2140001122562,新規,0,2021-08-10,2021-08-10,株式会社明工業,,株式会社,兵庫県,姫路市,白鳥台３丁目３３番１６号,,28,201,6712245,,,,,,,2021-08-10,1,,,,,アキコウギョウ,0
525,2140001122587,新規,0,2021-08-10,2021-08-10,株式会社阪神工作所,,株式会社,兵庫県,神戸市西区,見津が丘２丁目１番地６,,28,111,6512228,,,,,,,2021-08-10,1,,,,,ハンシンコウサクショ,0
526,2140001122629,新規,0,2021-08-10,2021-08-10,株式会社ジャパンコネクト,,株式会社,兵庫県,神戸市中央区,布引町２丁目１番７号,,28,110,6510097,,,,,,,2021-08-10,1,,,,,ジャパンコネクト,0
528,2140005025778,新規,0,2021-08-10,2021-08-10,一般社団法人まつい,,その他の設立登記法人,兵庫県,小野市,中谷町５２０番地,,28,218,6751304,,,,,,,2021-08-10,1,,,,,マツイ,0
529,2150001024849,新規,0,2021-08-10,2021-08-10,株式会社花保鉄工,,株式会社,奈良県,五條市,二見７丁目５番４０号,,29,207,6370071,,,,,,,2021-08-10,1,,,,,ハナヤステッコウ,0
530,2150003002448,新規,0,2021-08-10,2021-08-10,合同会社アンカー商会,,合同会社,奈良県,奈良市,西九条町２丁目３番地の１７,,29,201,6308453,,,,,,,2021-08-10,1,,,,,アンカーショウカイ,0
540,2180001147325,新規,0,2021-08-10,2021-08-10,株式会社戸川工業,,株式会社,愛知県,名古屋市緑区,鳥澄１丁目３０５番地,,23,114,4580025,,,,,,,2021-08-10,1,,,,,トガワコウギョウ,0
541,2180001147390,新規,0,2021-08-10,2021-08-10,東洋産業株式会社,,株式会社,愛知県,名古屋市千種区,千種通５丁目２０番地１ウイング大久手２Ｆ,,23,101,4640855,,,,,,,2021-08-10,1,,,,,トウヨウサンギョウ,0
546,2180301035221,新規,0,2021-08-10,2021-08-10,株式会社シアラー,,株式会社,愛知県,豊川市,松風町４６番地（２Ｆ－Ｃ）,,23,207,4420871,,,,,,,2021-08-10,1,,,,,シアラー,0
547,2180301035262,新規,0,2021-08-10,2021-08-10,株式会社リバーライフエステート,,株式会社,愛知県,岡崎市,美合町字池下１番地１９,,23,202,4440802,,,,,,,2021-08-10,1,,,,,リバーライフエステート,0
563,2220001024346,新規,0,2021-08-10,2021-08-10,イノヴィスジャパン株式会社,,株式会社,石川県,金沢市,武蔵町５番３６号浅地ビル４階,,17,201,9200855,,,,,,,2021-08-10,1,,,,,イノヴィスジャパン,0
564,2220003003091,新規,0,2021-08-10,2021-08-10,ＫＩＤＯ合同会社,,合同会社,石川県,加賀市,大聖寺荒町３５番地１,,17,206,9220034,,,,,,,2021-08-10,1,,,,,キド,0
565,2220003003100,新規,0,2021-08-10,2021-08-10,合同会社テック通信システム,,合同会社,石川県,かほく市,宇野気ヌ２５５番地３,,17,209,9291125,,,,,,,2021-08-10,1,,,,,テックツウシンシステム,0
576,2240001058425,新規,0,2021-08-10,2021-08-10,株式会社さくらトレジャー,,株式会社,広島県,広島市南区,出島１丁目１６番３号,,34,103,7340013,,,,,,,2021-08-10,1,,,,,サクラトレジャー,0
579,2240003005235,新規,0,2021-08-10,2021-08-10,合同会社Ｒａｉｎｂｏｗ,,合同会社,広島県,広島市安芸区,瀬野西２丁目２４－１８,,34,107,7390313,,,,,,,2021-08-10,1,,,,,レインボー,0
580,2240003005243,新規,0,2021-08-10,2021-08-10,ジム合同会社,,合同会社,広島県,大竹市,玖波８丁目２番２７号,,34,211,7390651,,,,,,,2021-08-10,1,,,,,ジム,0
591,2290001094085,新規,0,2021-08-10,2021-08-10,株式会社フォワード,,株式会社,福岡県,飯塚市,東徳前６番１８号ＫＭビル２０１号,,40,205,8200032,,,,,,,2021-08-10,1,,,,,フォワード,0
592,2290001094093,新規,0,2021-08-10,2021-08-10,株式会社ハヤト工業,,株式会社,福岡県,福津市,内殿８１１番地の１,,40,224,8113205,,,,,,,2021-08-10,1,,,,,ハヤトコウギョウ,0
593,2290001094102,新規,0,2021-08-10,2021-08-10,株式会社ＲＩＯ　ＳＡＮＤＥＲ,,株式会社,福岡県,福岡市博多区,冷泉町１番３号エクセレンス祇園４０５号,,40,132,8120039,,,,,,,2021-08-10,1,,,,,リオサンダー,0
594,2290001094110,新規,0,2021-08-10,2021-08-10,株式会社ｇｏｏｐａｒ,,株式会社,福岡県,福岡市中央区,天神１丁目９番１７号福岡天神フコク生命ビル１５階,,40,133,8100001,,,,,,,2021-08-10,1,,,,,グーパー,0
596,2290003011484,新規,0,2021-08-10,2021-08-10,合同会社エステートカラツ,,合同会社,福岡県,福岡市中央区,今泉２丁目１番２８－８０９号,,40,133,8100021,,,,,,,2021-08-10,1,,,,,エステートカラツ,0
597,2290005018321,新規,0,2021-08-10,2021-08-10,アンド有限責任監査法人,,その他の設立登記法人,福岡県,福岡市博多区,祇園町６－４３,,40,132,8120038,,,,,,,2021-08-10,1,,,,,アンド,0
599,2290801027681,新規,0,2021-08-10,2021-08-10,株式会社安藤トレーディング,,株式会社,福岡県,宮若市,龍徳１７６９番地１,,40,226,8230001,,,,,,,2021-08-10,1,,,,,アンドウトレーディング,0
608,2320005009911,新規,0,2021-08-10,2021-08-10,一般社団法人ＯＩＴＡ　ＣＲＥＡＴＩＶＥ　ＰＲＯＤＵＣＴＩＯＮ,,その他の設立登記法人,大分県,大分市,府内町３丁目４番２０号大分恒和ビル４階,,44,201,8700021,,,,,,,2021-08-10,1,,,,,オオイタクリエイティブプロダクション,0
621,2370001047464,新規,0,2021-08-10,2021-08-10,株式会社Ｐｕｎｋｓ　Ｆａｒｍｅｒ,,株式会社,宮城県,仙台市若林区,荒井南２９－８,,04,103,9840039,,,,,,,2021-08-10,1,,,,,,0
640,2430003012996,新規,0,2021-08-10,2021-08-10,合同会社さっぽろ海産仕入センター,,合同会社,北海道,札幌市中央区,南五条西３丁目１０番地ニューすすきのビル６階,,01,101,0640805,,,,,,,2021-08-10,1,,,,,サッポロカイサンシイレセンター,0
642,2460101007045,新規,0,2021-08-10,2021-08-10,株式会社ＳＡＹＡＫＡ　ＩＮＴＥＲＮＡＴＩＯＮＡＬ,,株式会社,北海道,河東郡音更町,木野西通１９丁目３４番地２１,,01,631,0800302,,,,,,,2021-08-10,1,,,,,サヤカインターナショナル,0
643,2500001023617,新規,0,2021-08-10,2021-08-10,株式会社ｈａｓｈｉｍｏｔｏ,,株式会社,愛媛県,松山市,堀江町甲８６５番地１,,38,201,7992651,,,,,,,2021-08-10,1,,,,,ハシモト,0
659,3010001220213,新規,0,2021-08-10,2021-08-10,株式会社ソルペンナ,,株式会社,東京都,中央区,入船１丁目４番９号ＡＪＩＴＯ５０２号,,13,102,1040042,,,,,,,2021-08-10,1,,,,,ソルペンナ,0
660,3010001220238,新規,0,2021-08-10,2021-08-10,株式会社文化と創造,,株式会社,東京都,千代田区,神田三崎町３丁目２番１３号,,13,101,1010061,,,,,,,2021-08-10,1,,,,,ブンカトソウゾウ,0
661,3010001220262,新規,0,2021-08-10,2021-08-10,ＴＲＩＡＮＧＬＥ　ＣＯＲＰＯＲＡＴＩＯＮ株式会社,,株式会社,東京都,中央区,銀座１丁目２２番１１号銀座大竹ビジデンス２階,,13,102,1040061,,,,,,,2021-08-10,1,,,,,トライアングルコーポレーション,0
662,3010001220329,新規,0,2021-08-10,2021-08-10,ＴＡファイナンステクノロジー株式会社,,株式会社,東京都,千代田区,岩本町３丁目１１番８号,,13,101,1010032,,,,,,,2021-08-10,1,,,,,ティーエーファイナンステクノロジー,0
664,3010003035527,新規,0,2021-08-10,2021-08-10,合同会社ＳＵＲＦ,,合同会社,東京都,千代田区,神田紺屋町６番地１,,13,101,1010035,,,,,,,2021-08-10,1,,,,,サーフ,0
665,3010003035543,新規,0,2021-08-10,2021-08-10,名古屋市中川区プロジェクト合同会社,,合同会社,東京都,千代田区,丸の内３丁目３番１号新東京ビル６０２,,13,101,1000005,,,,,,,2021-08-10,1,,,,,,0
668,3010101014787,新規,0,2021-08-10,2021-08-10,株式会社モンド,,株式会社,東京都,八王子市,南大沢１丁目９番地１－１－１０５,,13,201,1920364,,,,,,,2021-08-10,1,,,,,モンド,0
681,3010403025747,新規,0,2021-08-10,2021-08-10,Ｌｅｔ’ｓ　Ｂｅ　Ｈａｐｐｙ合同会社,,合同会社,東京都,港区,南青山２丁目２番１５号,,13,103,1070062,,,,,,,2021-08-10,1,,,,,,0
682,3010403025846,新規,0,2021-08-10,2021-08-10,合同会社Ｙ　ＪＡＰＡＮ,,合同会社,東京都,港区,南青山４丁目２番１２－５１０号,,13,103,1070062,,,,,,,2021-08-10,1,,,,,ワイジャパン,0
687,3010405020110,新規,0,2021-08-10,2021-08-10,一般社団法人コンドホテルルスツ,,その他の設立登記法人,東京都,港区,元赤坂１丁目１番７号,,13,103,1070051,,,,,,,2021-08-10,1,,,,,コンドホテルルスツ,0
694,3010603009087,新規,0,2021-08-10,2021-08-10,合同会社鎌田商店,,合同会社,東京都,江東区,亀戸１丁目５番７号,,13,108,1360071,,,,,,,2021-08-10,1,,,,,カマタショウテン,0
695,3010701041347,新規,0,2021-08-10,2021-08-10,Ｍｏｕｎｔａｉｎ　Ｓｔａｒ　Ｈｏｌｄｉｎｇｓ株式会社,,株式会社,東京都,品川区,東五反田５丁目４番６号,,13,109,1410022,,,,,,,2021-08-10,1,,,,,マウンテンスターホールディングス,0
706,3010903006718,新規,0,2021-08-10,2021-08-10,合同会社ＳＥＮＳＥ　ｅｎｄｌｅｓｓ,,合同会社,東京都,世田谷区,砧４丁目８－８ＧｒａｎＤｕｏ祖師谷Ⅱ２０４,00123893,13,112,1570073,,,,,,,2021-08-10,1,,,,,センスエンドレス,0
717,3011303004122,新規,0,2021-08-10,2021-08-10,合同会社幸運,,合同会社,東京都,杉並区,阿佐谷南２丁目２１番４号,,13,115,1660004,,,,,,,2021-08-10,1,,,,,コウウン,0
725,3011503004855,新規,0,2021-08-10,2021-08-10,合同会社ハートフルマヨ,,合同会社,東京都,北区,豊島１丁目２４番６－２０２号,,13,117,1140003,,,,,,,2021-08-10,1,,,,,ハートフルマヨ,0
729,3011701024622,新規,0,2021-08-10,2021-08-10,株式会社Ｔ－ＦＡＣＴＯＲＹ,,株式会社,東京都,江戸川区,松島１丁目７番４号,,13,123,1320031,,,,,,,2021-08-10,1,,,,,ティーファクトリー,0
731,3011801039520,新規,0,2021-08-10,2021-08-10,株式会社ＫＯ－ＹＡ,,株式会社,東京都,足立区,西新井７丁目１４番２２号,,13,121,1230841,,,,,,,2021-08-10,1,,,,,コーヤ,0
732,3011801039553,新規,0,2021-08-10,2021-08-10,株式会社Ｌｅｂｌｏｎ　Ａｓｓｅｔ　Ｍａｎａｇｅｍｅｎｔ,,株式会社,東京都,葛飾区,東堀切２丁目２番１７号,,13,122,1240004,,,,,,,2021-08-10,1,,,,,レブロンアセットマネジメント,0
733,3011803004737,新規,0,2021-08-10,2021-08-10,合同会社オカリ,,合同会社,東京都,葛飾区,柴又３丁目１１－１２,,13,122,1250052,,,,,,,2021-08-10,1,,,,,オカリ,0
741,3012401038169,新規,0,2021-08-10,2021-08-10,株式会社ｇｅｍｉｎｉ　Ｇｒｏｕｐ,,株式会社,東京都,武蔵野市,吉祥寺本町１丁目３２番９号,,13,203,1800004,,,,,,,2021-08-10,1,,,,,ジェミニグループ,0
742,3012401038177,新規,0,2021-08-10,2021-08-10,株式会社Ｓ．ｐｌａｎｎｉｎｇ,,株式会社,東京都,府中市,栄町２丁目２４番地の１７,,13,206,1830051,,,,,,,2021-08-10,1,,,,,エスプランニング,0
744,3012703002285,新規,0,2021-08-10,2021-08-10,Ｍｕｓｋ合同会社,,合同会社,東京都,小平市,花小金井１丁目１６番１４号,,13,211,1870002,,,,,,,2021-08-10,1,,,,,マスク,0
745,3012801021014,新規,0,2021-08-10,2021-08-10,株式会社ＡＦＲＯ,,株式会社,東京都,国立市,富士見台１丁目１２番７号,,13,215,1860003,,,,,,,2021-08-10,1,,,,,アフロ,0
768,3021001073641,新規,0,2021-08-10,2021-08-10,株式会社ｃｈａｎ＆ｍｅ,,株式会社,神奈川県,大和市,林間２丁目１番１１号,,14,213,2420003,,,,,,,2021-08-10,1,,,,,チャンアンドミー,0
769,3021003010782,新規,0,2021-08-10,2021-08-10,合同会社ワルキューレ,,合同会社,神奈川県,高座郡寒川町,宮山１３０１番地２,,14,321,2530106,,,,,,,2021-08-10,1,,,,,ワルキューレ,0
778,3030001143643,新規,0,2021-08-10,2021-08-10,株式会社尾崎工業,,株式会社,埼玉県,白岡市,小久喜１１６０番地１６斉藤ビル４Ｆ,,11,246,3490217,,,,,,,2021-08-10,1,,,,,オザキコウギョウ,0
779,3030001143726,新規,0,2021-08-10,2021-08-10,グローバルタイガーホールディングス株式会社,,株式会社,埼玉県,春日部市,永沼１６５番地１,,11,214,3440123,,,,,,,2021-08-10,1,,,,,グローバルタイガーホールディングス,0
780,3030001143759,新規,0,2021-08-10,2021-08-10,株式会社レクス,,株式会社,埼玉県,上尾市,大字小泉３５番地５１,,11,219,3620063,,,,,,,2021-08-10,1,,,,,レクス,0
781,3030001143775,新規,0,2021-08-10,2021-08-10,Ｅｒｅｎ株式会社,,株式会社,埼玉県,さいたま市緑区,大字大門２６３９－１０４,,11,109,3360963,,,,,,,2021-08-10,1,,,,,エレン,0
792,3040001119642,新規,0,2021-08-10,2021-08-10,高木工業株式会社,00123881,株式会社,千葉県,市原市,青葉台５丁目５番地４,,12,219,2990117,,,,,,,2021-08-10,1,,,,,タカギコウギョウ,0
793,3040001119650,新規,0,2021-08-10,2021-08-10,株式会社ｍｏｎｉｋａ,,株式会社,千葉県,柏市,明原２丁目８番２２号,,12,217,2770843,,,,,,,2021-08-10,1,,,,,モニカ,0
794,3040001119659,新規,0,2021-08-10,2021-08-10,株式会社ハタノ,,株式会社,千葉県,船橋市,旭町２丁目１３番３号,,12,204,2730041,,,,,,,2021-08-10,1,,,,,ハタノ,0
795,3040001119667,新規,0,2021-08-10,2021-08-10,株式会社ブリエパートナーズ,,株式会社,千葉県,松戸市,上矢切３４８番地の２６,,12,207,2710094,,,,,,,2021-08-10,1,,,,,ブリエパートナーズ,0
796,3040001119691,新規,0,2021-08-10,2021-08-10,株式会社なごみ,,株式会社,千葉県,流山市,野々下６丁目６１３番地の８２,,12,220,2700135,,,,,,,2021-08-10,1,,,,,ナゴミ,0
797,3040001119709,新規,0,2021-08-10,2021-08-10,株式会社ウイングレット,,株式会社,千葉県,市川市,八幡６丁目６番１０号,,12,203,2720021,,,,,,,2021-08-10,1,,,,,ウイングレット,0
798,3040001119741,新規,0,2021-08-10,2021-08-10,大晴不動産株式会社,,株式会社,千葉県,野田市,宮崎４８番地の１サンビレッジＮ＆Ａ壱番館１０７号室,,12,208,2780005,,,,,,,2021-08-10,1,,,,,タイセイフドウサン,0
802,3040003018256,新規,0,2021-08-10,2021-08-10,タケダ合同会社,,合同会社,千葉県,船橋市,本町５丁目１５番８号３０２,,12,204,2730005,,,,,,,2021-08-10,1,,,,,タケダ,0
803,3040003018264,新規,0,2021-08-10,2021-08-10,合同会社ａｆｆｉｎｉｔｙ,,合同会社,千葉県,船橋市,浜町１丁目６番ファミリータウン５棟１１３号,,12,204,2730012,,,,,,,2021-08-10,1,,,,,アフィニティ,0
804,3040003018272,新規,0,2021-08-10,2021-08-10,合同会社遊び庭,,合同会社,千葉県,船橋市,田喜野井１丁目２番１号,,12,204,2740073,,,,,,,2021-08-10,1,,,,,アシビナァ,0
809,3060003003776,新規,0,2021-08-10,2021-08-10,合同会社Ｓ・Ｍ・Ｎ　ＥＮＴＥＲＰＲＩＳＥＳ,,合同会社,栃木県,佐野市,高萩町４２９番地１若葉ハイツ１０１,,09,204,3270821,,,,,,,2021-08-10,1,,,,,エスエムエヌエンタープライセス,0
811,3080001024376,新規,0,2021-08-10,2021-08-10,株式会社パナシェドール,,株式会社,静岡県,焼津市,祢宜島４０８番地の４,,22,212,4250045,,,,,,,2021-08-10,1,,,,,パナシェドール,0
817,3090005007426,新規,0,2021-08-10,2021-08-10,税理士法人おしまち会計社,,その他の設立登記法人,山梨県,富士吉田市,上吉田５丁目６番１４号,,19,202,4030005,,,,,,,2021-08-10,1,,,,,オシマチカイケイシャ,0
843,3120001239597,新規,0,2021-08-10,2021-08-10,日商ヨドガワトレーディング株式会社,,株式会社,大阪府,大阪市住吉区,長居東４丁目１５番２０－２０３号,,27,120,5580004,,,,,,,2021-08-10,1,,,,,ニッショウヨドガワトレーディング,0
844,3120001239622,新規,0,2021-08-10,2021-08-10,株式会社ＰＲＡＹＥＲＤ,,株式会社,大阪府,大阪市中央区,備後町３丁目１番２号,,27,128,5410051,,,,,,,2021-08-10,1,,,,,プレイヤード,0
845,3120001239647,新規,0,2021-08-10,2021-08-10,株式会社アースウイング,,株式会社,大阪府,大阪市中央区,瓦町４丁目３番１４号,,27,128,5410048,,,,,,,2021-08-10,1,,,,,アースウイング,0
852,3120003019980,新規,0,2021-08-10,2021-08-10,伊澤キャピタルパートナーズ合同会社,,合同会社,大阪府,大阪市住吉区,長居東２丁目１３番１２号,,27,120,5580004,,,,,,,2021-08-10,1,,,,,イザワキャピタルパートナーズ,0
853,3120003019997,新規,0,2021-08-10,2021-08-10,合同会社ＵＰ,,合同会社,大阪府,交野市,私部西１丁目２７番１号,,27,230,5760041,,,,,,,2021-08-10,1,,,,,アップ,0
856,3120101064094,新規,0,2021-08-10,2021-08-10,ＭＩＴＡＳ株式会社,,株式会社,大阪府,和泉市,室堂町１１０３番地の１８０,,27,219,5941101,,,,,,,2021-08-10,1,,,,,ミタス,0
864,3122003002149,新規,0,2021-08-10,2021-08-10,合同会社ＢｌａｎｋＭａｐ,,合同会社,大阪府,八尾市,東本町３丁目２－２９,,27,212,5810004,,,,,,,2021-08-10,1,,,,,ブランクマップ,0
866,3130001069878,新規,0,2021-08-10,2021-08-10,プライムロード株式会社,,株式会社,京都府,京都市下京区,四条通烏丸東入ル長刀鉾町８京都三井ビルディング５階,,26,106,6000000,,,,,,,2021-08-10,1,,,,,プライムロード,0
867,3130001069894,新規,0,2021-08-10,2021-08-10,フォロフライ株式会社,,株式会社,京都府,京都市左京区,吉田本町３６番地１京都大学国際科学イノベーション棟,,26,103,6068317,,,,,,,2021-08-10,1,,,,,フォロフライ,0
882,3150001024848,新規,0,2021-08-10,2021-08-10,株式会社ＡＳＵＫＡ．ＰＧ８,,株式会社,奈良県,生駒郡三郷町,勢野北５丁目７番１７号,,29,343,6360815,,,,,,,2021-08-10,1,,,,,アスカピージーエイト,0
885,3160001023527,新規,0,2021-08-10,2021-08-10,株式会社真咲雄,,株式会社,滋賀県,草津市,穴村町２５０番地６,,25,206,5250012,,,,,,,2021-08-10,1,,,,,マサオ,0
886,3160001023535,新規,0,2021-08-10,2021-08-10,株式会社ニルグラフ,,株式会社,滋賀県,彦根市,後三条町６０８番地１２,,25,202,5220086,,,,,,,2021-08-10,1,,,,,ニルグラフ,0
887,3160001023551,新規,0,2021-08-10,2021-08-10,心優輸送株式会社,,株式会社,滋賀県,長浜市,木之本町黒田２９５番地４,,25,203,5290426,,,,,,,2021-08-10,1,,,,,シンユウユソウ,0
890,3180001147290,新規,0,2021-08-10,2021-08-10,株式会社アルタイルジャパン,,株式会社,愛知県,名古屋市中村区,太閤３丁目１番１８号名古屋ＫＳビル６Ｆ,,23,105,4530801,,,,,,,2021-08-10,1,,,,,アルタイルジャパン,0
891,3180001147381,新規,0,2021-08-10,2021-08-10,Ｔ．Ｉ．販売株式会社,,株式会社,愛知県,名古屋市東区,徳川町２００９,,23,102,4610023,,,,,,,2021-08-10,1,,,,,ティーアイハンバイ,0
898,3180301035261,新規,0,2021-08-10,2021-08-10,株式会社シンセイ建築,,株式会社,愛知県,岡崎市,上地１丁目２番地８,,23,202,4440823,,,,,,,2021-08-10,1,,,,,シンセイケンチク,0
905,3190001028597,新規,0,2021-08-10,2021-08-10,株式会社Ｂ．Ｗ　ＬＥＡＰＳ,,株式会社,三重県,四日市市,楠町南五味塚１４５番地１シダーフィールド４０６,,24,202,5100104,,,,,,,2021-08-10,1,,,,,ビーダブリューリープス,0
909,3200001038999,新規,0,2021-08-10,2021-08-10,株式会社Ｙ．Ｅ．Ｓ．ａｎｄ　Ｕ,,株式会社,岐阜県,瑞穂市,七崎８４１番地４,,21,216,5010301,,,,,,,2021-08-10,1,,,,,ワイイーエスアンドユー,0
910,3200005013239,新規,0,2021-08-10,2021-08-10,エホバの証人の岐阜県山県市山県会衆,,その他の設立登記法人,岐阜県,山県市,高木字八幡１１１５番地１,,21,215,5012113,,,,,,,2021-08-10,1,,,,,エホバノショウニンノギフケンヤマガタシヤマガタカイシュウ,0
917,3220001024345,新規,0,2021-08-10,2021-08-10,マエダ株式会社,,株式会社,石川県,加賀市,箱宮町オ１８番地,,17,206,9220303,,,,,,,2021-08-10,1,,,,,マエダ,0
918,3220003003099,新規,0,2021-08-10,2021-08-10,Ｕ．Ｐ．ＤＲＡＦＴ合同会社,,合同会社,石川県,金沢市,暁町９番２８号,,17,201,9200926,,,,,,,2021-08-10,1,,,,,アップドラフト,0
919,3220005008583,新規,0,2021-08-10,2021-08-10,特定非営利活動法人石川県災害等支援車協会,,その他の設立登記法人,石川県,河北郡内灘町,字千鳥台３丁目５６番地,,17,365,9200277,,,,,,,2021-08-10,1,,,,,イシカワケンサイガイトウシエンシャキョウカイ,0
925,3240001058424,新規,0,2021-08-10,2021-08-10,株式会社Ｒ．ｈｏｍｅ,,株式会社,広島県,広島市安佐北区,可部町大字桐原２０７７番地１,,34,106,7310214,,,,,,,2021-08-10,1,,,,,アールホーム,0
942,3290001094092,新規,0,2021-08-10,2021-08-10,株式会社クロスエッジ,,株式会社,福岡県,福岡市南区,花畑３丁目９番２１号,,40,134,8111356,,,,,,,2021-08-10,1,,,,,クロスエッジ,0
945,3290003011475,新規,0,2021-08-10,2021-08-10,合同会社エンドレスジャパン,,合同会社,福岡県,福岡市中央区,薬院４丁目１８番２１号,,40,133,8100022,,,,,,,2021-08-10,1,,,,,エンドレスジャパン,0
946,3290003011483,新規,0,2021-08-10,2021-08-10,合同会社エステートイマリ,,合同会社,福岡県,福岡市中央区,今泉２丁目１番２８－８０９号,,40,133,8100021,,,,,,,2021-08-10,1,,,,,エステートイマリ,0
948,3300005007024,新規,0,2021-08-10,2021-08-10,一般社団法人きばる塾,,その他の設立登記法人,佐賀県,神埼市,神埼町城原２７１８番地２,,41,210,8420122,,,,,,,2021-08-10,1,,,,,キバルジュク,0
960,3340003003517,新規,0,2021-08-10,2021-08-10,合同会社ＨＩＲＯコーポレーション,,合同会社,鹿児島県,鹿屋市,西原２丁目２３番１８号,,46,203,8930064,,,,,,,2021-08-10,1,,,,,ヒロコーポレーション,0
973,3390001016557,新規,0,2021-08-10,2021-08-10,ＳＨＩＮセルカ株式会社,,株式会社,山形県,西置賜郡飯豊町,大字萩生３５４９番地２,,06,403,9990602,,,,,,,2021-08-10,1,,,,,シンセルカ,0
987,3430001084657,新規,0,2021-08-10,2021-08-10,株式会社橋本商店,,株式会社,北海道,白老郡白老町,字竹浦１１８番地２５,,01,578,0590642,,,,,,,2021-08-10,1,,,,,ハシモトショウテン,0
989,3430003013011,新規,0,2021-08-10,2021-08-10,合同会社エヌワンシステム,,合同会社,北海道,札幌市中央区,南六条東３丁目１番地２レノンテラーザ６－３－４０２,,01,101,0600056,,,,,,,2021-08-10,1,,,,,エヌワンシステム,0
994,3480003001705,新規,0,2021-08-10,2021-08-10,キョードーテック合同会社,,合同会社,徳島県,徳島市,八万町夷山２８５－１,,36,201,7708077,,,,,,,2021-08-10,1,,,,,キョードーテック,0
1006,4010001220195,新規,0,2021-08-10,2021-08-10,レントスター株式会社,,株式会社,東京都,中央区,日本橋人形町１丁目５番１号日本サンライズビル１階,,13,102,1030013,,,,,,,2021-08-10,1,,,,,レントスター,0
1007,4010001220212,新規,0,2021-08-10,2021-08-10,ａｒｒｏｗｓ株式会社,,株式会社,東京都,文京区,千駄木３丁目３１番１０号,,13,105,1130022,,,,,,,2021-08-10,1,,,,,アロウズ,0
1008,4010001220220,新規,0,2021-08-10,2021-08-10,株式会社ＡＧＫシェアードサービス,,株式会社,東京都,文京区,湯島３丁目３９番１０号上野ＴＨビル,,13,105,1130034,,,,,,,2021-08-10,1,,,,,エージーケーシェアードサービス,0
1009,4010001220237,新規,0,2021-08-10,2021-08-10,株式会社インターバリュ,,株式会社,東京都,千代田区,神田三崎町３丁目５番９号,,13,101,1010061,,,,,,,2021-08-10,1,,,,,インターバリュ,0
1010,4010001220303,新規,0,2021-08-10,2021-08-10,株式会社Ｖａｓｔ　Ｗｏｒｌｄ,,株式会社,東京都,千代田区,四番町４－９新東京国際リーガル内,,13,101,1020081,,,,,,,2021-08-10,1,,,,,ヴァストワールド,0
1011,4010001220328,新規,0,2021-08-10,2021-08-10,株式会社ＨＣプロデュース,,株式会社,東京都,千代田区,大手町１丁目６－１大手町ビル１階、２階ＳＰＡＣＥＳ大手町,,13,101,1000004,,,,,,,2021-08-10,1,,,,,エイチシープロデュース,0
1015,4010003035526,新規,0,2021-08-10,2021-08-10,合同会社スマートブレイン,,合同会社,東京都,千代田区,岩本町１丁目２番１３号渡東ビルディング３Ｆ,,13,101,1010032,,,,,,,2021-08-10,1,,,,,スマートブレイン,0
1016,4010003035542,新規,0,2021-08-10,2021-08-10,Ｌｏｇｉ５合同会社,,合同会社,東京都,千代田区,丸の内１丁目１１番１号,,13,101,1000005,,,,,,,2021-08-10,1,,,,,ロジファイブ,0
1019,4010005033750,新規,0,2021-08-10,2021-08-10,一般社団法人ユニーク,,その他の設立登記法人,東京都,千代田区,丸の内３丁目１番１号東京共同会計事務所内,,13,101,1000005,,,,,,,2021-08-10,1,,,,,ユニーク,0
1023,4010401161948,新規,0,2021-08-10,2021-08-10,和っしょい株式会社,,株式会社,東京都,港区,六本木４丁目５番１１号ＳＩＸ４階,,13,103,1060032,,,,,,,2021-08-10,1,,,,,ワッショイ,0
1024,4010403025886,新規,0,2021-08-10,2021-08-10,合同会社ＪＲＥアルバ,,合同会社,東京都,港区,六本木６丁目２番３１号六本木ヒルズノースタワー１５階,,13,103,1060032,,,,,,,2021-08-10,1,,,,,ジェーアールイーアルバ,0
1029,4010501047659,新規,0,2021-08-10,2021-08-10,株式会社綿福商会,,株式会社,東京都,台東区,元浅草１丁目５番７号３階,,13,106,1110041,,,,,,,2021-08-10,1,,,,,ワタフクショウカイ,0
1033,4010601059769,新規,0,2021-08-10,2021-08-10,バズナグル株式会社,,株式会社,東京都,江東区,白河４丁目３番１－９０４号,,13,108,1350021,,,,,,,2021-08-10,1,,,,,バズナグル,0
1034,4010705003251,新規,0,2021-08-10,2021-08-10,一般社団法人交通都市型まちづくり研究所,,その他の設立登記法人,東京都,品川区,北品川５丁目５番１５号,,13,109,1410001,,,,,,,2021-08-10,1,,,,,コウツウトシガタマチヅクリケンキュウジョ,0
1036,4010901049239,新規,0,2021-08-10,2021-08-10,Ｅｌｅｐｈａｎｔ　Ｓｔｒｅｅｔ＆Ｃｏ．株式会社,,株式会社,東京都,世田谷区,下馬５丁目２５番１１号Ｇｌａｓｆａｌｌ－Ｆ,,13,112,1540002,,,,,,,2021-08-10,1,,,,,エレファントストリートアンドカンパニー,0
1037,4010903006717,新規,0,2021-08-10,2021-08-10,合同会社Ｔ２Ｙ　ＣＯＭＰＡＮＹ,,合同会社,東京都,世田谷区,上祖師谷５丁目３１－７,,13,112,1570065,,,,,,,2021-08-10,1,,,,,ティーツーワイカンパニー,0
1047,4011001142066,新規,0,2021-08-10,2021-08-10,株式会社法学館ホールディングス,,株式会社,東京都,渋谷区,桜丘町１７番５号,,13,113,1500031,,,,,,,2021-08-10,1,,,,,ホウガクカンホールディングス,0
1048,4011001142173,新規,0,2021-08-10,2021-08-10,株式会社ｉｎｃｅｎＳｅ,,株式会社,東京都,目黒区,青葉台３丁目２２番１－１０１５号目黒ハイツ,,13,110,1530042,,,,,,,2021-08-10,1,,,,,インセンス,0
1049,4011003013117,新規,0,2021-08-10,2021-08-10,合同会社ピンクラパン,,合同会社,東京都,目黒区,自由が丘２丁目１６－１２ＬＣ１Ｆ,,13,110,1520035,,,,,,,2021-08-10,1,,,,,ピンクラパン,0
1050,4011005009138,新規,0,2021-08-10,2021-08-10,一般社団法人エス・インパクト,,その他の設立登記法人,東京都,渋谷区,千駄ヶ谷３丁目５１番１０号,,13,113,1510051,,,,,,,2021-08-10,1,,,,,エスインパクト,0
1058,4011403003403,新規,0,2021-08-10,2021-08-10,エシュロン合同会社,,合同会社,東京都,板橋区,前野町２丁目６番１２号,,13,119,1740063,,,,,,,2021-08-10,1,,,,,エシュロン,0
1061,4011601025315,新規,0,2021-08-10,2021-08-10,ＨＡＫＯＹＡ株式会社,,株式会社,東京都,練馬区,早宮３丁目５２番８号,,13,120,1790085,,,,,,,2021-08-10,1,,,,,ハコヤ,0
1064,4012303001570,新規,0,2021-08-10,2021-08-10,合同会社フレンズ,,合同会社,東京都,町田市,小山ヶ丘１丁目１４番地１桜美林ガーデンヒルズＣ－２０４,,13,209,1940215,,,,,,,2021-08-10,1,,,,,フレンズ,0
1066,4012403004977,新規,0,2021-08-10,2021-08-10,合同会社スパイラル,,合同会社,東京都,三鷹市,下連雀３丁目２７番１１号（クレールミハラ６０１号室）,,13,204,1810013,,,,,,,2021-08-10,1,,,,,スパイラル,0
1067,4012405004629,新規,0,2021-08-10,2021-08-10,一般社団法人美術工藝協会,,その他の設立登記法人,東京都,多摩市,桜ヶ丘２丁目１３番地の７,,13,224,2060013,,,,,,,2021-08-10,1,,,,,ビジュツコウゲイキョウカイ,0
1069,4012703002284,新規,0,2021-08-10,2021-08-10,ａｎｍｅｅｔｓ合同会社,,合同会社,東京都,東村山市,秋津町２丁目３番地５７,,13,213,1890001,,,,,,,2021-08-10,1,,,,,アンミーツ,0
1072,4012801021013,新規,0,2021-08-10,2021-08-10,株式会社Ｌｉｆｅ　Ｔｉｍｅ　Ｐａｒｔｎｅｒ,,株式会社,東京都,日野市,南平２丁目８番地の１６,,13,212,1910041,,,,,,,2021-08-10,1,,,,,ライフタイムパートナー,0
1088,4020001142562,新規,0,2021-08-10,2021-08-10,株式会社ＡｎＲｏｏｍ,,株式会社,神奈川県,横浜市中区,宮川町３丁目６８番地１,,14,104,2310065,,,,,,,2021-08-10,1,,,,,アンルーム,0
1098,4020003020270,新規,0,2021-08-10,2021-08-10,合同会社ＪＥＧＡＬ,,合同会社,神奈川県,横浜市神奈川区,入江２丁目８番２３号,,14,102,2210014,,,,,,,2021-08-10,1,,,,,ジェガル,0
1105,4021001073608,新規,0,2021-08-10,2021-08-10,湘南魚類株式会社,,株式会社,神奈川県,小田原市,早川１丁目５番３号,,14,206,2500021,,,,,,,2021-08-10,1,,,,,ショウナンギョルイ,0
1106,4021001073616,新規,0,2021-08-10,2021-08-10,株式会社ｆｏｒ　ＵＮＩＶＥＲＳＥ,,株式会社,神奈川県,横須賀市,野比３丁目１７番７号,,14,201,2390841,,,,,,,2021-08-10,1,,,,,フォーユニバース,0
1107,4021001073640,新規,0,2021-08-10,2021-08-10,株式会社三協エンジニアリング,,株式会社,神奈川県,相模原市緑区,下九沢２８０番地５４,,14,151,2520134,,,,,,,2021-08-10,1,,,,,サンキョウエンジニアリング,0
1121,4030001143650,新規,0,2021-08-10,2021-08-10,株式会社オステート,,株式会社,埼玉県,川越市,大字増形３２３番地,,11,201,3501172,,,,,,,2021-08-10,1,,,,,オステート,0
1123,4030003017745,新規,0,2021-08-10,2021-08-10,Ｆｌｏｒａｌ　Ｔｏｏｌｓ　Ｊａｐａｎ合同会社,,合同会社,埼玉県,所沢市,上新井２丁目３９番地の２９,,11,208,3591142,,,,,,,2021-08-10,1,,,,,,0
1124,4030005020474,新規,0,2021-08-10,2021-08-10,一般社団法人春日部フィルハーモニー管弦楽団,,その他の設立登記法人,埼玉県,春日部市,中央５丁目１番地１６ＳｔｕｄｉｏＤＩＡ１階,,11,214,3440067,,,,,,,2021-08-10,1,,,,,カスカベフィルハーモニーカンゲンガクダン,0
1127,4040001119641,新規,0,2021-08-10,2021-08-10,株式会社掃建美社,,株式会社,千葉県,松戸市,常盤平６丁目９番地の１３,,12,207,2702261,,,,,,,2021-08-10,1,,,,,ソウケンビシャ,0
1128,4040001119658,新規,0,2021-08-10,2021-08-10,株式会社ファイブ・ツー,,株式会社,千葉県,松戸市,上本郷１６番地の１,,12,207,2710064,,,,,,,2021-08-10,1,,,,,ファイブツー,0
1129,4040001119666,新規,0,2021-08-10,2021-08-10,株式会社ＡＣＥ,,株式会社,千葉県,印旛郡栄町,竜角寺台５丁目１７番２号,,12,329,2701505,,,,,,,2021-08-10,1,,,,,エース,0
1130,4040001119674,新規,0,2021-08-10,2021-08-10,株式会社ビーワールド,,株式会社,千葉県,野田市,柳沢２３番地の２０,,12,208,2780006,,,,,,,2021-08-10,1,,,,,ビーワールド,0
1131,4040001119690,新規,0,2021-08-10,2021-08-10,プラスゲート株式会社,,株式会社,千葉県,市川市,市川１丁目２６番９－８０３号（ウィルローズ市川一丁目）,,12,203,2720034,,,,,,,2021-08-10,1,,,,,プラスゲート,0
1132,4040001119708,新規,0,2021-08-10,2021-08-10,ケアタウン株式会社,,株式会社,千葉県,流山市,南流山１丁目１－４,,12,220,2700163,,,,,,,2021-08-10,1,,,,,ケアタウン,0
1135,4040003018255,新規,0,2021-08-10,2021-08-10,イケダ合同会社,,合同会社,千葉県,船橋市,本町１丁目１２番２４号海老原マンション１－１０２,,12,204,2730005,,,,,,,2021-08-10,1,,,,,イケダ,0
1136,4040003018305,新規,0,2021-08-10,2021-08-10,ＳＡＫＥＥＲ　ＥＮＴＥＲＰＲＩＳＥＳ合同会社,,合同会社,千葉県,印旛郡酒々井町,下岩橋２８６番地１５,,12,322,2850907,,,,,,,2021-08-10,1,,,,,シャケールエンタープライズ,0
1139,4050001049672,新規,0,2021-08-10,2021-08-10,ＹＡＳＩＮ　ＴＲＡＤＩＮＧ　ＣＯ株式会社,,株式会社,茨城県,石岡市,山崎２２５１番地４３,,08,205,3150125,,,,,,,2021-08-10,1,,,,,ヤシントレーディングコー,0
1140,4050001049680,新規,0,2021-08-10,2021-08-10,株式会社ＫＴＳ,,株式会社,茨城県,笠間市,住吉１５６７－３９,,08,216,3091716,,,,,,,2021-08-10,1,,,,,ケイティーエス,0
1152,4080401025262,新規,0,2021-08-10,2021-08-10,Ｙｏｂ株式会社,,株式会社,静岡県,掛川市,中町３番地の２５,,22,213,4360092,,,,,,,2021-08-10,1,,,,,ヨブ,0
1171,4120001239555,新規,0,2021-08-10,2021-08-10,株式会社アイセイ,,株式会社,大阪府,守口市,南寺方東通５丁目２３番９号,,27,209,5700043,,,,,,,2021-08-10,1,,,,,アイセイ,0
1172,4120001239571,新規,0,2021-08-10,2021-08-10,株式会社浪速開発,,株式会社,大阪府,大阪市西成区,萩之茶屋１丁目６番１５号,,27,122,5570004,,,,,,,2021-08-10,1,,,,,ナニワカイハツ,0
1173,4120001239588,新規,0,2021-08-10,2021-08-10,株式会社ＭＵＮＥＫＡＷＡ,,株式会社,大阪府,大阪市浪速区,大国２丁目８－２６,,27,111,5560014,,,,,,,2021-08-10,1,,,,,ムネカワ,0
1181,4120101064077,新規,0,2021-08-10,2021-08-10,Ｓｋｉｐ　Ｈｅａｒｔ株式会社,,株式会社,大阪府,堺市中区,辻之１４０３番地２９,00123879,27,142,5998245,,,,,,,2021-08-10,1,,,,,スキップハート,0
1186,4120901044732,新規,0,2021-08-10,2021-08-10,株式会社ユウセイ設備,,株式会社,大阪府,豊中市,原田元町３丁目１４番１１号,,27,203,5610808,,,,,,,2021-08-10,1,,,,,ユウセイセツビ,0
1196,4130001069836,新規,0,2021-08-10,2021-08-10,株式会社ジェイワン,,株式会社,京都府,京都市西京区,川島野田町１３番地３,,26,111,6158121,,,,,,,2021-08-10,1,,,,,ジェイワン,0
1197,4130001069877,新規,0,2021-08-10,2021-08-10,大日環境ホーム株式会社,,株式会社,京都府,京都市左京区,聖護院西町３番地２,,26,103,6068391,,,,,,,2021-08-10,1,,,,,ダイニチカンキョウホーム,0
1198,4130001069893,新規,0,2021-08-10,2021-08-10,株式会社イズミトソウ,,株式会社,京都府,京都市南区,久世殿城町１２３番地２,,26,107,6018205,,,,,,,2021-08-10,1,,,,,イズミトソウ,0
1203,4140001122602,新規,0,2021-08-10,2021-08-10,ワイズテック株式会社,,株式会社,兵庫県,高砂市,曽根町１０２５番地の６,,28,216,6760082,,,,,,,2021-08-10,1,,,,,ワイズテック,0
1204,4140001122643,新規,0,2021-08-10,2021-08-10,株式会社黒葛野,,株式会社,兵庫県,尼崎市,口田中１丁目１番２４号,,28,202,6610983,,,,,,,2021-08-10,1,,,,,ツヅラノ,0
1210,4150001024847,新規,0,2021-08-10,2021-08-10,エールリンク株式会社,,株式会社,奈良県,奈良市,大宮町４丁目３３６番地の１エールビルディング,,29,201,6308115,,,,,,,2021-08-10,1,,,,,エールリンク,0
1225,4180001147298,新規,0,2021-08-10,2021-08-10,株式会社ｙ’ｓモールド,,株式会社,愛知県,名古屋市港区,入場２丁目１５０８番地,,23,111,4550803,,,,,,,2021-08-10,1,,,,,ワイズモールド,0
1232,4180003022805,新規,0,2021-08-10,2021-08-10,合同会社Ａ＆Ａ,,合同会社,愛知県,名古屋市中村区,亀島２丁目２番２７号アルカンシェル名駅５０５号,,23,105,4530013,,,,,,,2021-08-10,1,,,,,エーアンドエー,0
1236,4180301035260,新規,0,2021-08-10,2021-08-10,株式会社メルヴェイユレーヴ,,株式会社,愛知県,豊田市,河合町１丁目１９番地１０,,23,211,4710824,,,,,,,2021-08-10,1,,,,,メルヴェイユレーヴ,0
1241,4200001039006,新規,0,2021-08-10,2021-08-10,アンクライン株式会社,,株式会社,岐阜県,岐阜市,西川手５丁目１１０番地１,,21,201,5008258,,,,,,,2021-08-10,1,,,,,アンクライン,0
1243,4220001024344,新規,0,2021-08-10,2021-08-10,株式会社三辻商店,00123876,株式会社,石川県,輪島市,鳳至町畠田１番地１０,,17,204,9280079,,,,,,,2021-08-10,1,,,,,ミツジショウテン,0
1249,4230005009159,新規,0,2021-08-10,2021-08-10,一般社団法人イドウラボ,,その他の設立登記法人,富山県,富山市,堀川小泉町７９３番地,,16,201,9398081,,,,,,,2021-08-10,1,,,,,イドウラボ,0
1252,4240001058431,新規,0,2021-08-10,2021-08-10,株式会社ｗｉｓｈＡＩ,,株式会社,広島県,広島市西区,草津新町１丁目６番２１号,,34,104,7330834,,,,,,,2021-08-10,1,,,,,ウィッシュアイ,0
1276,4320003003591,新規,0,2021-08-10,2021-08-10,合同会社優,,合同会社,大分県,大分市,田中町２丁目３番５４号桜ビル１０１,,44,201,8700852,,,,,,,2021-08-10,1,,,,,ユウ,0
1280,4340001023994,新規,0,2021-08-10,2021-08-10,株式会社Ｒｅ’ｌａｎ　ＪＡＰＡＮ,,株式会社,鹿児島県,姶良市,東餅田２２７５番地２,,46,225,8995421,,,,,,,2021-08-10,1,,,,,リランジャパン,0
1281,4340001024002,新規,0,2021-08-10,2021-08-10,株式会社ＯＦＦＩＣＥ　ＣＲＥＡ,,株式会社,鹿児島県,鹿児島市,宇宿１丁目１７番９号,,46,201,8900073,,,,,,,2021-08-10,1,,,,,オフィスクレア,0
1286,4370001047446,新規,0,2021-08-10,2021-08-10,株式会社エスプリプラス,,株式会社,宮城県,仙台市宮城野区,枡江９番３６号,,04,102,9830837,,,,,,,2021-08-10,1,,,,,,0
1295,4380001032100,新規,0,2021-08-10,2021-08-10,株式会社Ｙ３,,株式会社,福島県,郡山市,安積２丁目６９安積ビル３０４,,07,203,9630107,,,,,,,2021-08-10,1,,,,,,0
1302,4400005008176,新規,0,2021-08-10,2021-08-10,一般社団法人コンセント,,その他の設立登記法人,岩手県,紫波郡紫波町,日詰字東裏１３５番１,,03,321,0283305,,,,,,,2021-08-10,1,,,,,コンセント,0
1313,4430003013010,新規,0,2021-08-10,2021-08-10,合同会社オフィス・エルモ,,合同会社,北海道,札幌市豊平区,月寒中央通８丁目４－２８月寒ＦＪビル４０１号室,,01,105,0620020,,,,,,,2021-08-10,1,,,,,オフィスエルモ,0
1314,4430005014246,新規,0,2021-08-10,2021-08-10,特定非営利活動法人ｂａｍｂｏｏ,,その他の設立登記法人,北海道,札幌市東区,北三十七条東２８丁目２番１８号,,01,103,0070837,,,,,,,2021-08-10,1,,,,,バンブー,0
1317,4460301005004,新規,0,2021-08-10,2021-08-10,株式会社あぐり,,株式会社,北海道,網走郡津別町,字大通３０番地１,,01,544,0920231,,,,,,,2021-08-10,1,,,,,アグリ,0
1324,4500005008406,新規,0,2021-08-10,2021-08-10,特定非営利活動法人Ｂｌｕｅ　ｐｒｏｔｅｃｔ,,その他の設立登記法人,愛媛県,松山市,泊町１３８１番地３,,38,201,7918093,,,,,,,2021-08-10,1,,,,,ブループロテクト,0
1333,5010001220095,新規,0,2021-08-10,2021-08-10,日本デジタルアセット株式会社,,株式会社,東京都,千代田区,二番町１－２番町ハイム７１３号,,13,101,1020084,,,,,,,2021-08-10,1,,,,,,0
1334,5010001220211,新規,0,2021-08-10,2021-08-10,株式会社ＥＶＯＬＢＥ,,株式会社,東京都,千代田区,神田神保町２丁目２番地３４千代田三信ビル３階,,13,101,1010051,,,,,,,2021-08-10,1,,,,,エボルビー,0
1335,5010001220285,新規,0,2021-08-10,2021-08-10,ザ・プレミエールファクトリー株式会社,,株式会社,東京都,中央区,銀座１丁目１２番４号Ｎ＆ＥＢＬＤ．７階,,13,102,1040061,,,,,,,2021-08-10,1,,,,,ザプレミエールファクトリー,0
1336,5010001220293,新規,0,2021-08-10,2021-08-10,株式会社ＦｕｎＭａｋｅｒ,,株式会社,東京都,文京区,小石川３丁目１７番１４号ＡＸＡＳ後楽園４０１号,,13,105,1120002,,,,,,,2021-08-10,1,,,,,ファンメーカー,0
1337,5010001220335,新規,0,2021-08-10,2021-08-10,株式会社ＫＳＦＲ１,,株式会社,東京都,千代田区,内幸町２丁目１番６号,,13,101,1000011,,,,,,,2021-08-10,1,,,,,ケーエスエフアールワン,0
1341,5010003035525,新規,0,2021-08-10,2021-08-10,合同会社ＡＳ水戸成沢太陽光発電所,,合同会社,東京都,千代田区,大手町２丁目１番地１号大手町野村ビル１６階,,13,101,1000004,,,,,,,2021-08-10,1,,,,,エイエスミトナルサワタイヨウコウハツデンショ,0
1342,5010003035533,新規,0,2021-08-10,2021-08-10,合同会社東京レジデンシャル８,,合同会社,東京都,中央区,日本橋１丁目４番１号,,13,102,1030027,,,,,,,2021-08-10,1,,,,,トウキョウレジデンシャルエイト,0
1345,5010005033741,新規,0,2021-08-10,2021-08-10,一般社団法人日本経営参与協会,,その他の設立登記法人,東京都,千代田区,神田駿河台４丁目３番地新お茶の水ビルディング,,13,101,1010062,,,,,,,2021-08-10,1,,,,,ニホンケイエイサンヨキョウカイ,0
1352,5010401161897,新規,0,2021-08-10,2021-08-10,株式会社ステラーインテンションズ,,株式会社,東京都,港区,南青山４丁目２６番２０号,,13,103,1070062,,,,,,,2021-08-10,1,,,,,ステラーインテンションズ,0
1353,5010401161988,新規,0,2021-08-10,2021-08-10,Ｗｏｒｌｄ　Ｂｏｕｔｉｑｕｅ株式会社,,株式会社,東京都,港区,浜松町２丁目２番１５号浜松町ダイヤビル２Ｆ,,13,103,1050013,,,,,,,2021-08-10,1,,,,,ワールドブティック,0
1354,5010401162045,新規,0,2021-08-10,2021-08-10,株式会社ＭＨＤ,,株式会社,東京都,港区,虎ノ門４丁目３番１号城山トラストタワー,,13,103,1050001,,,,,,,2021-08-10,1,,,,,エムエイチディー,0
1356,5010403025877,新規,0,2021-08-10,2021-08-10,合同会社ディアナ・ガーデン,,合同会社,東京都,港区,南青山５丁目１７番２号,,13,103,1070062,,,,,,,2021-08-10,1,,,,,ディアナガーデン,0
1359,5010405020059,新規,0,2021-08-10,2021-08-10,一般社団法人デンタルアロマ協会,,その他の設立登記法人,東京都,港区,東新橋２丁目１８番３号ルネパルティーレ汐留１００５,,13,103,1050021,,,,,,,2021-08-10,1,,,,,デンタルアロマキョウカイ,0
1360,5010501047658,新規,0,2021-08-10,2021-08-10,株式会社リズ,,株式会社,東京都,台東区,東上野１丁目７番５号,,13,106,1100015,,,,,,,2021-08-10,1,,,,,リズ,0
1364,5010601059751,新規,0,2021-08-10,2021-08-10,株式会社ＫＫＤ,,株式会社,東京都,江東区,冬木１７番７号カスタムビル１階,,13,108,1350041,,,,,,,2021-08-10,1,,,,,ケーケーディー,0
1369,5010901049238,新規,0,2021-08-10,2021-08-10,株式会社ＺＯＯＭＥＲＳ,,株式会社,東京都,世田谷区,桜新町２丁目１０番１７号,,13,112,1540015,,,,,,,2021-08-10,1,,,,,ズーマーズ,0
1370,5011001027051,新規,0,2021-08-10,2021-08-10,株式会社モリ,,株式会社,東京都,渋谷区,南平台町１２番１３－１００７号,,13,113,1500036,,,,,,,2021-08-10,1,,,,,モリ,0
1376,5011003013181,新規,0,2021-08-10,2021-08-10,合同会社ＴＯＴＡＬ　ＴＵＮＩＮＧ,,合同会社,東京都,目黒区,柿の木坂１丁目３３番６号,,13,110,1520022,,,,,,,2021-08-10,1,,,,,トータルチューニング,0
1384,5011501027195,新規,0,2021-08-10,2021-08-10,ａｈｈｍ株式会社,,株式会社,東京都,荒川区,東日暮里１丁目１６番１３－４０１号西松ビル,,13,118,1160014,,,,,,,2021-08-10,1,,,,,アーム,0
1385,5011501027204,新規,0,2021-08-10,2021-08-10,株式会社順達,,株式会社,東京都,荒川区,町屋３丁目２番１号Ｂ１Ｆ,,13,118,1160001,,,,,,,2021-08-10,1,,,,,ジュンタツ,0
1392,5011601025314,新規,0,2021-08-10,2021-08-10,株式会社青空,,株式会社,東京都,練馬区,西大泉５丁目３２番１２号Ａ－２０４,,13,120,1780065,,,,,,,2021-08-10,1,,,,,アオゾラ,0
1393,5011603003367,新規,0,2021-08-10,2021-08-10,サントカミエール合同会社,,合同会社,東京都,練馬区,関町東１丁目２１番１８号,,13,120,1770052,,,,,,,2021-08-10,1,,,,,サントカミエール,0
1398,5011703002913,新規,0,2021-08-10,2021-08-10,フォルモサテック合同会社,,合同会社,東京都,江戸川区,小松川１丁目５番２号トニ・ワンショッピングセンター１Ｆ,,13,123,1320034,,,,,,,2021-08-10,1,,,,,フォルモサテック,0
1405,5012301012651,新規,0,2021-08-10,2021-08-10,株式会社宜和,,株式会社,東京都,町田市,藤の台２丁目２－１８－５０２,,13,209,1940039,,,,,,,2021-08-10,1,,,,,ノブワ,0
1409,5012401038159,新規,0,2021-08-10,2021-08-10,株式会社ヤスダ不動産,,株式会社,東京都,調布市,柴崎２丁目３０番地１０,,13,208,1820014,,,,,,,2021-08-10,1,,,,,ヤスダフドウサン,0
1410,5012401038167,新規,0,2021-08-10,2021-08-10,まめや地所株式会社,,株式会社,東京都,府中市,小柳町１丁目１５番地の１第２コーポ細野２０３,,13,206,1830013,,,,,,,2021-08-10,1,,,,,マメヤジショ,0
1414,5012703002283,新規,0,2021-08-10,2021-08-10,合同会社菫,,合同会社,東京都,西東京市,保谷町１丁目４番６号,,13,229,2020015,,,,,,,2021-08-10,1,,,,,スミレ,0
1415,5012801020996,新規,0,2021-08-10,2021-08-10,株式会社スイフトサービス,,株式会社,東京都,立川市,一番町１丁目１９番地の３４,,13,202,1900033,,,,,,,2021-08-10,1,,,,,スイフトサービス,0
1416,5012801021012,新規,0,2021-08-10,2021-08-10,Ｂｕｉｌｄ　Ａｒｔｓ株式会社,,株式会社,東京都,国立市,中１丁目１番１５号,,13,215,1860004,,,,,,,2021-08-10,1,,,,,ビルドアーツ,0
1434,5020003020286,新規,0,2021-08-10,2021-08-10,ＰＹＡ合同会社,,合同会社,神奈川県,横浜市磯子区,洋光台１丁目１３番３９号田中スクエアビル２０１,,14,107,2350045,,,,,,,2021-08-10,1,,,,,ピーワイエー,0
1436,5021001073648,新規,0,2021-08-10,2021-08-10,株式会社徹喰,00123891,株式会社,神奈川県,鎌倉市,由比ガ浜３丁目３番２４号,,14,204,2480014,,,,,,,2021-08-10,1,,,,,テックウ,0
1438,5021003010764,新規,0,2021-08-10,2021-08-10,合同会社ＯｆｆｉｃｅＭ,,合同会社,神奈川県,茅ヶ崎市,ひばりが丘３－３３,,14,207,2530027,,,,,,,2021-08-10,1,,,,,オフィスエム,0
1439,5021003010780,新規,0,2021-08-10,2021-08-10,合同会社ＭＰＶ,,合同会社,神奈川県,鎌倉市,腰越４丁目１番７号,,14,204,2480033,,,,,,,2021-08-10,1,,,,,エムピーヴイ,0
1451,5030001143633,新規,0,2021-08-10,2021-08-10,駒林水道株式会社,,株式会社,埼玉県,ふじみ野市,駒林８９６番地８,,11,245,3560034,,,,,,,2021-08-10,1,,,,,コマバヤシスイドウ,0
1452,5030001143666,新規,0,2021-08-10,2021-08-10,株式会社ホットスタッフ熊谷,,株式会社,埼玉県,熊谷市,本石２丁目１６９番地１,,11,202,3600815,,,,,,,2021-08-10,1,,,,,ホットスタッフクマガヤ,0
1455,5030003017744,新規,0,2021-08-10,2021-08-10,ＮＵＲ　ＩＮＴＥＲＮＡＴＩＯＮＡＬ合同会社,,合同会社,埼玉県,越谷市,蒲生西町１丁目２番１５号クリストハウス１０３号室,,11,222,3430835,,,,,,,2021-08-10,1,,,,,ヌールインターナショナル,0
1463,5040001119632,新規,0,2021-08-10,2021-08-10,ＴＳＵＮＡＧＵ株式会社,,株式会社,千葉県,千葉市美浜区,打瀬３丁目１３番地５ザ幕張ベイフロント２８０２号,,12,106,2610013,,,,,,,2021-08-10,1,,,,,ツナグ,0
1464,5040001119640,新規,0,2021-08-10,2021-08-10,株式会社ｊｅｃｔ,,株式会社,千葉県,柏市,十余二３１３番地７３５,,12,217,2770872,,,,,,,2021-08-10,1,,,,,ジェクト,0
1465,5040001119657,新規,0,2021-08-10,2021-08-10,株式会社ｇｉｖｅｒ,,株式会社,千葉県,柏市,増尾台１丁目１０番５３号,,12,217,2770052,,,,,,,2021-08-10,1,,,,,ギバー,0
1466,5040001119731,新規,0,2021-08-10,2021-08-10,株式会社ＨＥＡＬＹ　ＩＮＴＥＲＮＡＴＩＯＮＡＬ,,株式会社,千葉県,船橋市,豊富町１３１１番地５,,12,204,2740053,,,,,,,2021-08-10,1,,,,,ヘイリインターナショナル,0
1472,5040003018270,新規,0,2021-08-10,2021-08-10,ＧＵＣＨＥＲＥ合同会社,,合同会社,千葉県,船橋市,夏見台５丁目１１番４－２０６号,,12,204,2730866,,,,,,,2021-08-10,1,,,,,グチェレ,0
1473,5040003018287,新規,0,2021-08-10,2021-08-10,合同会社アセ―,,合同会社,千葉県,八千代市,八千代台南３丁目２４番５号,,12,221,2760033,,,,,,,2021-08-10,1,,,,,アセー,0
1483,5080003002618,新規,0,2021-08-10,2021-08-10,合同会社クアチュオール,,合同会社,静岡県,静岡市清水区,真砂町７番１９号,,22,103,4240816,,,,,,,2021-08-10,1,,,,,クアチュオール,0
1485,5080005007391,新規,0,2021-08-10,2021-08-10,空き家管理企業組合,,その他の設立登記法人,静岡県,静岡市葵区,城北２丁目１７番地の５－２Ｆ,,22,101,4200805,,,,,,,2021-08-10,1,,,,,アキヤカンリ,0
1489,5100001034503,新規,0,2021-08-10,2021-08-10,株式会社ナミナギ,,株式会社,長野県,佐久市,佐久平駅東４番地１－４０５号,,20,217,3850028,,,,,,,2021-08-10,1,,,,,ナミナギ,0
1506,5120101064118,新規,0,2021-08-10,2021-08-10,株式会社れいわ水産,,株式会社,大阪府,藤井寺市,林１丁目１７番２３号,,27,226,5830007,,,,,,,2021-08-10,1,,,,,レイワスイサン,0
1513,5120905006216,新規,0,2021-08-10,2021-08-10,特定非営利活動法人摂猟会,,その他の設立登記法人,大阪府,箕面市,坊島５丁目９番３５号,,27,220,5620013,,,,,,,2021-08-10,1,,,,,セツリョウカイ,0
1518,5130001069901,新規,0,2021-08-10,2021-08-10,株式会社Ｓｈｉｎｉｎｇ　ｅａｒｔｈ,,株式会社,京都府,京都市中京区,壬生高樋町４６番地６,,26,104,6048824,,,,,,,2021-08-10,1,,,,,シャイニングアース,0
1521,5130003007405,新規,0,2021-08-10,2021-08-10,合同会社エイトワン,,合同会社,京都府,京都市伏見区,羽束師志水町１６５番地２４４,,26,109,6128485,,,,,,,2021-08-10,1,,,,,エイトワン,0
1522,5130003007421,新規,0,2021-08-10,2021-08-10,合同会社ＹＦＭＡ,,合同会社,京都府,木津川市,相楽台６丁目５番地８,,26,214,6190223,,,,,,,2021-08-10,1,,,,,ワイエフエムエー,0
1529,5140001122618,新規,0,2021-08-10,2021-08-10,株式会社大垣設備,,株式会社,兵庫県,宝塚市,売布自由ガ丘７番４号,,28,214,6650856,,,,,,,2021-08-10,1,,,,,オオガキセツビ,0
1531,5150001024846,新規,0,2021-08-10,2021-08-10,株式会社よしはら,,株式会社,奈良県,奈良市,南市町２７番地,,29,201,6308373,,,,,,,2021-08-10,1,,,,,ヨシハラ,0
1542,5180001147314,新規,0,2021-08-10,2021-08-10,株式会社横井技建,,株式会社,愛知県,稲沢市,祖父江町祖父江高熊２０５番地,,23,220,4950001,,,,,,,2021-08-10,1,,,,,ヨコイギケン,0
1546,5180003022837,新規,0,2021-08-10,2021-08-10,合同会社ＰＥＮＴＡＳ,,合同会社,愛知県,名古屋市緑区,六田２丁目１７０番地,,23,114,4580036,,,,,,,2021-08-10,1,,,,,ペンタス,0
1550,5180305009227,新規,0,2021-08-10,2021-08-10,一般社団法人Ｌｅａｎ　ＭＯＮＯＺＵＫＵＲＩ　Ｎｅｔｗｏｒｋ　Ｊａｐａｎ,,その他の設立登記法人,愛知県,知立市,八ツ田町３丁目９番地１０,,23,225,4720012,,,,,,,2021-08-10,1,,,,,リーンモノヅクリネットワークジャパン,0
1558,5200003005269,新規,0,2021-08-10,2021-08-10,ＮＹコンサルティング合同会社,,合同会社,岐阜県,揖斐郡揖斐川町,谷汲長瀬５２１番地,,21,401,5011303,,,,,,,2021-08-10,1,,,,,エヌワイコンサルティング,0
1559,5200003005277,新規,0,2021-08-10,2021-08-10,ＩＧ合同会社,,合同会社,岐阜県,大垣市,東町１丁目３５４番地,,21,202,5030802,,,,,,,2021-08-10,1,,,,,アイジー,0
1565,5220003003097,新規,0,2021-08-10,2021-08-10,合同会社西川財産管理,,合同会社,石川県,金沢市,泉が丘２丁目５番１９号,,17,201,9218035,,,,,,,2021-08-10,1,,,,,ニシカワザイサンカンリ,0
1566,5230003001711,新規,0,2021-08-10,2021-08-10,合同会社ミント,,合同会社,富山県,富山市,下堀３－５,,16,201,9398055,,,,,,,2021-08-10,1,,,,,ミント,0
1568,5240001058430,新規,0,2021-08-10,2021-08-10,株式会社Ｄ－ｐｏｃｋｅｔ,,株式会社,広島県,広島市安佐南区,山本４丁目１３番４２－９号,,34,105,7310137,,,,,,,2021-08-10,1,,,,,ディーポケット,0
1572,5240003005240,新規,0,2021-08-10,2021-08-10,合同会社ＲＡＮＧ,,合同会社,広島県,広島市中区,薬研堀６番１３－４０１号,,34,101,7300027,,,,,,,2021-08-10,1,,,,,ラング,0
1573,5260001035865,新規,0,2021-08-10,2021-08-10,日光人材派遣株式会社,,株式会社,岡山県,岡山市北区,春日町８番１５号,,33,101,7000905,,,,,,,2021-08-10,1,,,,,ニッコウジンザイハケン,0
1577,5290001094124,新規,0,2021-08-10,2021-08-10,株式会社ＧＳＥコンサルティンググループ,,株式会社,福岡県,福岡市中央区,天神２丁目３番１０号天神パインクレスト７１９号室,,40,133,8100001,,,,,,,2021-08-10,1,,,,,ジーエスイーコンサルティンググループ,0
1578,5290001094181,新規,0,2021-08-10,2021-08-10,株式会社ビエネスタ,,株式会社,福岡県,福岡市中央区,白金１丁目６－１４,,40,133,8100012,,,,,,,2021-08-10,1,,,,,ビエネスタ,0
1582,5290003011481,新規,0,2021-08-10,2021-08-10,合同会社ａｔ　ｌｏｇｉｃ,,合同会社,福岡県,福岡市博多区,博多駅南５丁目１４番２３号,,40,132,8120016,,,,,,,2021-08-10,1,,,,,アットロジック,0
1583,5290005018310,新規,0,2021-08-10,2021-08-10,特定非営利活動法人おうち薬膳研究会,,その他の設立登記法人,福岡県,福津市,渡１８９２番地５７,,40,224,8113307,,,,,,,2021-08-10,1,,,,,オウチヤクゼンケンキュウカイ,0
1594,5330005010378,新規,0,2021-08-10,2021-08-10,一般社団法人日本歯科滅菌評価機構,,その他の設立登記法人,熊本県,玉名郡和水町,津田１５６３番地７,,43,369,8610921,,,,,,,2021-08-10,1,,,,,ニホンシカメッキンヒョウカキコウ,0
1597,5370001047437,新規,0,2021-08-10,2021-08-10,株式会社トリノナ,,株式会社,宮城県,仙台市若林区,蒲町３５番１２号,,04,103,9840037,,,,,,,2021-08-10,1,,,,,トリノナ,0
1613,5420001017541,新規,0,2021-08-10,2021-08-10,株式会社中村設備,,株式会社,青森県,三戸郡階上町,蒼前東４丁目６番地２３８,,02,446,0391211,,,,,,,2021-08-10,1,,,,,ナカムラセツビ,0
1620,5430001084696,新規,0,2021-08-10,2021-08-10,エムケー株式会社,,株式会社,北海道,江別市,江別太２６４番地の１０,,01,217,0670022,,,,,,,2021-08-10,1,,,,,エムケー,0
1623,5430003013001,新規,0,2021-08-10,2021-08-10,合同会社Ｎｅｗ　ｌｉｆｅ,,合同会社,北海道,札幌市南区,澄川三条４丁目６番１９号,,01,106,0050003,,,,,,,2021-08-10,1,,,,,ニューライフ,0
1641,6010001220193,新規,0,2021-08-10,2021-08-10,株式会社ＣＯＮＮＥＣＴ,,株式会社,東京都,中央区,銀座１丁目２２番１１号銀座大竹ビジデンス２階,,13,102,1040061,,,,,,,2021-08-10,1,,,,,コネクト,0
1642,6010001220210,新規,0,2021-08-10,2021-08-10,株式会社ＤＥＮ,,株式会社,東京都,千代田区,神田佐久間町２丁目１２番地きりやビル３Ｆ,,13,101,1010025,,,,,,,2021-08-10,1,,,,,デン,0
1643,6010001220268,新規,0,2021-08-10,2021-08-10,株式会社Ｍｉｒｋｔｈ,,株式会社,東京都,中央区,勝どき３丁目１５番２号コーポ角山４０２号,,13,102,1040054,,,,,,,2021-08-10,1,,,,,マークス,0
1644,6010001220292,新規,0,2021-08-10,2021-08-10,株式会社小桃百貨,,株式会社,東京都,千代田区,岩本町１丁目１２番１１号トーア岩本町マンション５０１号,,13,101,1010032,,,,,,,2021-08-10,1,,,,,コモモヒャッカ,0
1646,6010003035417,新規,0,2021-08-10,2021-08-10,合同会社点と線,,合同会社,東京都,千代田区,神田須田町２丁目２５番地ＧＹＢ秋葉原４階,,13,101,1010041,,,,,,,2021-08-10,1,,,,,テントセン,0
1647,6010003035532,新規,0,2021-08-10,2021-08-10,合同会社東京レジデンシャル７,,合同会社,東京都,中央区,日本橋１丁目４番１号,,13,102,1030027,,,,,,,2021-08-10,1,,,,,トウキョウレジデンシャルセブン,0
1650,6010005033732,新規,0,2021-08-10,2021-08-10,特定非営利活動法人自然を護り人と生きる御先の会,,その他の設立登記法人,東京都,中央区,新川２丁目２２番７－７０３号,,13,102,1040033,,,,,,,2021-08-10,1,,,,,シゼンヲマモリヒトトイキルミサキノカイ,0
1651,6010005033798,新規,0,2021-08-10,2021-08-10,アスターアクイジション２一般社団法人,,その他の設立登記法人,東京都,千代田区,丸の内３丁目１番１号東京共同会計事務所内,,13,101,1000005,,,,,,,2021-08-10,1,,,,,アスターアクイジションツー,0
1656,6010401161970,新規,0,2021-08-10,2021-08-10,株式会社ハイパー・イノベーション,,株式会社,東京都,港区,浜松町２丁目２－１５－２Ｆ,,13,103,1050013,,,,,,,2021-08-10,1,,,,,ハイパーイノベーション,0
1658,6010403025843,新規,0,2021-08-10,2021-08-10,関東医療介護合同会社,,合同会社,東京都,港区,南青山２丁目２番１５号ウィン青山９４２,,13,103,1070062,,,,,,,2021-08-10,1,,,,,カントウイリョウカイゴ,0
1661,6010501047657,新規,0,2021-08-10,2021-08-10,株式会社ＴＦ．ＷＯＯＤ,,株式会社,東京都,台東区,浅草１丁目２０番９号,,13,106,1110032,,,,,,,2021-08-10,1,,,,,ティエフウッド,0
1668,6010801032219,新規,0,2021-08-10,2021-08-10,株式会社トゥーテルハロー,,株式会社,東京都,大田区,北千束１丁目５４番１号,,13,111,1450062,,,,,,,2021-08-10,1,,,,,トゥーテルハロー,0
1692,6011401023582,新規,0,2021-08-10,2021-08-10,明業株式会社,,株式会社,東京都,板橋区,蓮根２丁目２８番２１号ワイティーコート４０７号室,,13,119,1740046,,,,,,,2021-08-10,1,,,,,メイギョウ,0
1693,6011401023590,新規,0,2021-08-10,2021-08-10,株式会社ダイアモンドアーツ,,株式会社,東京都,板橋区,南常盤台１丁目２１－１，プレールドゥークときわ台５０２,,13,119,1740072,,,,,,,2021-08-10,1,,,,,ダイアモンドアーツ,0
1708,6011705001689,新規,0,2021-08-10,2021-08-10,未来アジア協同組合,,その他の設立登記法人,東京都,江戸川区,新堀１丁目１５番３号,,13,123,1320001,,,,,,,2021-08-10,1,,,,,ミライアジア,0
1710,6012401038166,新規,0,2021-08-10,2021-08-10,ＡＥＨＰ株式会社,,株式会社,東京都,狛江市,和泉本町３丁目１３番８号,,13,219,2010003,,,,,,,2021-08-10,1,,,,,エーイーエイチピー,0
1711,6012403004975,新規,0,2021-08-10,2021-08-10,ＲＥＬＩＶＥ合同会社,,合同会社,東京都,三鷹市,下連雀５丁目１番１－５７０号,,13,204,1810013,,,,,,,2021-08-10,1,,,,,リライブ,0
1712,6012405004627,新規,0,2021-08-10,2021-08-10,税理士法人かけはし,,その他の設立登記法人,東京都,武蔵野市,中町１丁目３番２号,,13,203,1800006,,,,,,,2021-08-10,1,,,,,カケハシ,0
1736,6020003020302,新規,0,2021-08-10,2021-08-10,合同会社明横,,合同会社,神奈川県,横浜市保土ケ谷区,川辺町２番地１パークホームズ横濱星川１０１６号,,14,106,2400001,,,,,,,2021-08-10,1,,,,,メイコウ,0
1743,6021001073614,新規,0,2021-08-10,2021-08-10,株式会社ＢＥＡＵ,,株式会社,神奈川県,茅ヶ崎市,香川１丁目３９－２８,,14,207,2530082,,,,,,,2021-08-10,1,,,,,ボウ,0
1744,6021001073647,新規,0,2021-08-10,2021-08-10,エフ・ソリューション株式会社,,株式会社,神奈川県,小田原市,国府津２４７０番地の４,,14,206,2560812,,,,,,,2021-08-10,1,,,,,エフソリューション,0
1745,6021003010763,新規,0,2021-08-10,2021-08-10,ＳＡＫＵＲＡＰＲＯＶＩＤＥ合同会社,,合同会社,神奈川県,高座郡寒川町,一之宮６丁目１２番１５号,,14,321,2530111,,,,,,,2021-08-10,1,,,,,サクラプロバイド,0
1747,6030001143070,新規,0,2021-08-10,2021-08-10,株式会社トップセールス,,株式会社,埼玉県,朝霞市,泉水３丁目１４番１号東和プラザＡ－７２６,,11,227,3510024,,,,,,,2021-08-10,1,,,,,トップセールス,0
1748,6030001143764,新規,0,2021-08-10,2021-08-10,株式会社冨松エステート,,株式会社,埼玉県,和光市,白子３丁目３６番２１号,,11,229,3510101,,,,,,,2021-08-10,1,,,,,トミマツエステート,0
1752,6030003017743,新規,0,2021-08-10,2021-08-10,合同会社Ｈａｐｐ　Ｂｒｉｇｈｔｕｒｅ,,合同会社,埼玉県,川口市,川口１丁目３番１－２０５号ライオンズマンション川口第５,,11,203,3320015,,,,,,,2021-08-10,1,,,,,ハプブライチャー,0
1753,6030005020448,新規,0,2021-08-10,2021-08-10,一般社団法人もひかん王国いのち部愛の手課,,その他の設立登記法人,埼玉県,熊谷市,下奈良７９０番地２,,11,202,3600802,,,,,,,2021-08-10,1,,,,,モヒカンオウコクイノチブアイノテカ,0
1758,6040001119631,新規,0,2021-08-10,2021-08-10,株式会社ｄｐランドスケープ,,株式会社,千葉県,浦安市,入船６丁目６番４０３号,,12,227,2790012,,,,,,,2021-08-10,1,,,,,ディーピーランドスケープ,0
1759,6040001119648,新規,0,2021-08-10,2021-08-10,株式会社ＳＹＤ,,株式会社,千葉県,八千代市,高津東３丁目１番地１３,,12,221,2760037,,,,,,,2021-08-10,1,,,,,エスワイディー,0
1760,6040001119656,新規,0,2021-08-10,2021-08-10,株式会社佐久間工業,,株式会社,千葉県,富津市,富津２５０８番地,,12,226,2930021,,,,,,,2021-08-10,1,,,,,サクマコウギョウ,0
1761,6040001119664,新規,0,2021-08-10,2021-08-10,カマタ建築株式会社,,株式会社,千葉県,四街道市,大日５４６番地１６,,12,228,2840001,,,,,,,2021-08-10,1,,,,,カマタケンチク,0
1762,6040001119689,新規,0,2021-08-10,2021-08-10,株式会社Ｔ．Ｉ．Ｓ,,株式会社,千葉県,松戸市,串崎南町１８９番地の１,,12,207,2702215,,,,,,,2021-08-10,1,,,,,ティーアイエス,0
1763,6040003018278,新規,0,2021-08-10,2021-08-10,合同会社ＵＮＯ,,合同会社,千葉県,千葉市稲毛区,園生町８２５番地１ライオンズマンション稲毛第３－２１５号室,,12,103,2630051,,,,,,,2021-08-10,1,,,,,ウーノ,0
1764,6040003018286,新規,0,2021-08-10,2021-08-10,合同会社ＨＵＩＳ,,合同会社,千葉県,船橋市,金杉４丁目５番８号,,12,204,2730853,,,,,,,2021-08-10,1,,,,,ホイス,0
1765,6040003018294,新規,0,2021-08-10,2021-08-10,合同会社グッドシェイプ,,合同会社,千葉県,柏市,今谷上町３８－２５メゾンローズ１階,,12,217,2770074,,,,,,,2021-08-10,1,,,,,グッドシェイプ,0
1769,6050001049670,新規,0,2021-08-10,2021-08-10,株式会社ＨＵＮＧ　ＨＯＡＮＧ　ＰＨＡＴ　ＩＮＴ’Ｌ,,株式会社,茨城県,潮来市,茂木３３７番地１,,08,223,3112432,,,,,,,2021-08-10,1,,,,,ハングホアンファットインターナショナル,0
1781,6080101022707,新規,0,2021-08-10,2021-08-10,株式会社ＴＳＣ,,株式会社,静岡県,沼津市,足高２８７番地の２１,,22,203,4100001,,,,,,,2021-08-10,1,,,,,ティーエスシー,0
1782,6080405007379,新規,0,2021-08-10,2021-08-10,中遠警備業協同組合,,その他の設立登記法人,静岡県,磐田市,上万能４９４番地,,22,211,4380817,,,,,,,2021-08-10,1,,,,,チュウエンケイビギョウ,0
1805,6120001239685,新規,0,2021-08-10,2021-08-10,ｎｉｎｅインベストメント株式会社,,株式会社,大阪府,大阪市浪速区,日本橋４丁目２番１５号,,27,111,5560005,,,,,,,2021-08-10,1,,,,,ナインインベストメント,0
1818,6122001035065,新規,0,2021-08-10,2021-08-10,株式会社ＴＮ,,株式会社,大阪府,東大阪市,菱江５丁目１０番１２号,,27,227,5780984,,,,,,,2021-08-10,1,,,,,ティーエヌ,0
1821,6130003007412,新規,0,2021-08-10,2021-08-10,しちふくハウス合同会社,,合同会社,京都府,京都市左京区,一乗寺里ノ西町１００番地,,26,103,6068115,,,,,,,2021-08-10,1,,,,,シチフクハウスゴウドウガイシャ,0
1822,6130003007420,新規,0,2021-08-10,2021-08-10,合同会社Ａｋｉ・Ｒｉｎ,,合同会社,京都府,木津川市,加茂町里南古田６９番地,,26,214,6191152,,,,,,,2021-08-10,1,,,,,アキリン,0
1826,6140001122550,新規,0,2021-08-10,2021-08-10,株式会社かけはし,,株式会社,兵庫県,神戸市灘区,原田通２丁目１番１号テクノビル２Ｆ,,28,102,6570837,,,,,,,2021-08-10,1,,,,,カケハシ,0
1827,6140001122567,新規,0,2021-08-10,2021-08-10,株式会社ＣＯＬＯＲＦＵＬ　ＣＡＮＤＹ　ＩＮＴＥＲＮＡＴＩＯＮＡＬ,,株式会社,兵庫県,神戸市中央区,東川崎町１丁目３番３号神戸ハーバーランドセンタービル,,28,110,6500044,,,,,,,2021-08-10,1,,,,,カラフルキャンディインターナショナル,0
1828,6140001122617,新規,0,2021-08-10,2021-08-10,株式会社ｕｌｕ,,株式会社,兵庫県,西宮市,甲陽園西山町５番２４－１号,,28,204,6620017,,,,,,,2021-08-10,1,,,,,ウル,0
1836,6160001023549,新規,0,2021-08-10,2021-08-10,株式会社武村建設,,株式会社,滋賀県,大津市,萱野浦２５番４５号,,25,201,5202143,,,,,,,2021-08-10,1,,,,,タケムラケンセツ,0
1846,6180001147115,新規,0,2021-08-10,2021-08-10,ＹＫＲ　ｍｅｄｉｃａｌ　ｃｏｎｓｕｌｔ株式会社,,株式会社,愛知県,名古屋市西区,幅下２丁目１１番３号,,23,104,4510041,,,,,,,2021-08-10,1,,,,,ワイケイアールメディカルコンサルト,0
1847,6180001147321,新規,0,2021-08-10,2021-08-10,株式会社Ｏｒａｎｇｅ　Ｃｏｕｎｔｙ,,株式会社,愛知県,名古屋市中区,錦３丁目５番１４号パークウエストビル４Ｆ,,23,106,4600003,,,,,,,2021-08-10,1,,,,,オレンジカウンティ,0
1848,6180001147387,新規,0,2021-08-10,2021-08-10,株式会社クラージュ不動産,,株式会社,愛知県,名古屋市東区,芳野１丁目２番３号ＣＳ．ＢＬＤ２Ｆ,,23,102,4610027,,,,,,,2021-08-10,1,,,,,クラージュフドウサン,0
1857,6180003022844,新規,0,2021-08-10,2021-08-10,合同会社大蔵開発,,合同会社,愛知県,名古屋市中区,平和１丁目１５－１３ジュネス東別院４０１号,,23,106,4600021,,,,,,,2021-08-10,1,,,,,オオクラカイハツ,0
1862,6190001028586,新規,0,2021-08-10,2021-08-10,株式会社中日管財,,株式会社,三重県,桑名市,大字本願寺４３番地,,24,205,5110835,,,,,,,2021-08-10,1,,,,,チュウニチカンザイ,0
1866,6200003005276,新規,0,2021-08-10,2021-08-10,合同会社鵜飼組,,合同会社,岐阜県,関市,仲町４番２１号,,21,205,5013817,,,,,,,2021-08-10,1,,,,,ウカイグミ,0
1867,6200005013236,新規,0,2021-08-10,2021-08-10,医療法人ＡＫＡＴＳＵＫＩ,,その他の設立登記法人,岐阜県,可児市,下恵土７８番地１,,21,214,5090203,,,,,,,2021-08-10,1,,,,,アカツキ,0
1881,6240001058421,新規,0,2021-08-10,2021-08-10,株式会社リュウシン,,株式会社,広島県,呉市,阿賀北３丁目１２番２４号,,34,202,7370001,,,,,,,2021-08-10,1,,,,,リュウシン,0
1886,6250001019059,新規,0,2021-08-10,2021-08-10,株式会社サガワ,,株式会社,山口県,山口市,下小鯖４６９番地４,,35,203,7530212,,,,,,,2021-08-10,1,,,,,サガワ,0
1887,6260005010954,新規,0,2021-08-10,2021-08-10,ＭＯＭＯＴＡＲＯ協同組合,,その他の設立登記法人,岡山県,岡山市南区,西市５４９番地２,,33,104,7000953,,,,,,,2021-08-10,1,,,,,モモタロ,0
1890,6270001008332,新規,0,2021-08-10,2021-08-10,株式会社ガイヤ,,株式会社,鳥取県,鳥取市,国安１６８番地２,,31,201,6801132,,,,,,,2021-08-10,1,,,,,ガイヤ,0
1901,6290001094098,新規,0,2021-08-10,2021-08-10,株式会社松本再生建築研究所,,株式会社,福岡県,福岡市中央区,天神１丁目１－１,,40,133,8100001,,,,,,,2021-08-10,1,,,,,マツモトサイセイケンチクケンキュウショ,0
1902,6290001094123,新規,0,2021-08-10,2021-08-10,株式会社善,,株式会社,福岡県,福岡市早良区,小田部３丁目１８番１４号,,40,137,8140032,,,,,,,2021-08-10,1,,,,,ゼン,0
1905,6290003011480,新規,0,2021-08-10,2021-08-10,合同会社ＩＳＫ,,合同会社,福岡県,福岡市東区,和白３丁目１３番２０号,,40,131,8110202,,,,,,,2021-08-10,1,,,,,アイエスケイ,0
1909,6310001017411,新規,0,2021-08-10,2021-08-10,株式会社Ｔ．Ｙ．Ｇ,,株式会社,長崎県,長崎市,中川１丁目７番１号サンシー楠本１０１,,42,201,8500013,,,,,,,2021-08-10,1,,,,,ティーワイジー,0
1921,6340001024009,新規,0,2021-08-10,2021-08-10,株式会社加世田万世,,株式会社,鹿児島県,南さつま市,加世田小湊１９８７,,46,220,8971122,,,,,,,2021-08-10,1,,,,,カセダバンセイ,0
1923,6340003003506,新規,0,2021-08-10,2021-08-10,合同会社アートスター,,合同会社,鹿児島県,大島郡龍郷町,赤尾木１５５３,,46,527,8940411,,,,,,,2021-08-10,1,,,,,,0
1937,6380001032115,新規,0,2021-08-10,2021-08-10,株式会社ビーシーシー,,株式会社,福島県,郡山市,安積荒井本町２７８,,07,203,9630116,,,,,,,2021-08-10,1,,,,,,0
1950,6410001012922,新規,0,2021-08-10,2021-08-10,秋田賃貸株式会社,,株式会社,秋田県,秋田市,八橋本町２丁目１１番７号,,05,201,0100973,,,,,,,2021-08-10,1,,,,,アキタチンタイ,0
1953,6420001017540,新規,0,2021-08-10,2021-08-10,株式会社御幸,,株式会社,青森県,八戸市,大字六日町２０番地１味ビル５階,,02,203,0310033,,,,,,,2021-08-10,1,,,,,ミユキ,0
1960,6450001013438,新規,0,2021-08-10,2021-08-10,木下総合サービス株式会社,,株式会社,北海道,雨竜郡幌加内町,字幌加内５１２４番地１３,,01,472,0740411,,,,,,,2021-08-10,1,,,,,キノシタソウゴウサービス,0
1976,7010001220309,新規,0,2021-08-10,2021-08-10,株式会社シコミフード,,株式会社,東京都,中央区,築地７丁目１２番６号,,13,102,1040045,,,,,,,2021-08-10,1,,,,,シコミフード,0
1977,7010001220325,新規,0,2021-08-10,2021-08-10,ＴＳホールディングス株式会社,,株式会社,東京都,千代田区,麹町３丁目２番地垣見麹町ビル別館４階,,13,101,1020083,,,,,,,2021-08-10,1,,,,,ティーエスホールディングス,0
1978,7010003035507,新規,0,2021-08-10,2021-08-10,合同会社テンシックス,,合同会社,東京都,千代田区,九段南１丁目５番６号りそな九段ビル５階ＫＳフロア,,13,101,1020074,,,,,,,2021-08-10,1,,,,,テンシックス,0
1979,7010003035548,新規,0,2021-08-10,2021-08-10,合同会社Ｆｕｚｚｙ,,合同会社,東京都,中央区,日本橋堀留町２丁目４番１４－８０１号,,13,102,1030012,,,,,,,2021-08-10,1,,,,,ファジー,0
1980,7010003035556,新規,0,2021-08-10,2021-08-10,ＧＰＤかえで合同会社,,合同会社,東京都,千代田区,一ツ橋２丁目５番５号,,13,101,1010003,,,,,,,2021-08-10,1,,,,,ジーピーディーカエデ,0
1982,7010005033789,新規,0,2021-08-10,2021-08-10,一般社団法人東京レジデンシャル８,,その他の設立登記法人,東京都,中央区,日本橋１丁目４番１号,,13,102,1030027,,,,,,,2021-08-10,1,,,,,トウキョウレジデンシャルエイト,0
1983,7010005033797,新規,0,2021-08-10,2021-08-10,アスターアクイジション１一般社団法人,,その他の設立登記法人,東京都,千代田区,丸の内３丁目１番１号東京共同会計事務所内,,13,101,1000005,,,,,,,2021-08-10,1,,,,,アスターアクイジションワン,0
1985,7010103001747,新規,0,2021-08-10,2021-08-10,合同会社ＢＩＢＩＣＡ,,合同会社,東京都,八王子市,八日町５番１５－１４０４号,,13,201,1920071,,,,,,,2021-08-10,1,,,,,,0
1993,7010401161912,新規,0,2021-08-10,2021-08-10,ＡｉｒｏｎＷｏｒｋｓ株式会社,,株式会社,東京都,港区,虎ノ門４丁目３－１,,13,103,1050001,,,,,,,2021-08-10,1,,,,,アイロンワークス,0
2000,7010603009083,新規,0,2021-08-10,2021-08-10,Ｂｌａｃｋｏｕｔ　Ｐｉｃｔｕｒｅｓ合同会社,,合同会社,東京都,江東区,塩浜２丁目１１番４号,,13,108,1350043,,,,,,,2021-08-10,1,,,,,ブラックアウトピクチャーズ,0
2003,7010701041335,新規,0,2021-08-10,2021-08-10,株式会社ハウンド,,株式会社,東京都,品川区,豊町４丁目１６番７号,,13,109,1420042,,,,,,,2021-08-10,1,,,,,ハウンド,0
2007,7010801032218,新規,0,2021-08-10,2021-08-10,株式会社アルエット,,株式会社,東京都,大田区,北千束２丁目２５番４号ティアロレジデンス２０３,,13,111,1450062,,,,,,,2021-08-10,1,,,,,アルエット,0
2011,7010901049236,新規,0,2021-08-10,2021-08-10,株式会社レソナンシア,,株式会社,東京都,世田谷区,用賀３丁目８番５号,,13,112,1580097,,,,,,,2021-08-10,1,,,,,レソナンシア,0
2015,7011001142237,新規,0,2021-08-10,2021-08-10,株式会社ワイケー管理,,株式会社,東京都,渋谷区,渋谷３丁目１０番１５号,,13,113,1500002,,,,,,,2021-08-10,1,,,,,ワイケーカンリ,0
2016,7011005009168,新規,0,2021-08-10,2021-08-10,一般社団法人日本陶芸倶楽部,,その他の設立登記法人,東京都,渋谷区,神宮前１丁目５番３号東郷神社境内,,13,113,1500001,,,,,,,2021-08-10,1,,,,,ニホントウゲイクラブ,0
2026,7011201023162,新規,0,2021-08-10,2021-08-10,大黒株式会社,,株式会社,東京都,中野区,野方４丁目１９番６号１０１,,13,114,1650027,,,,,,,2021-08-10,1,,,,,ダイコク,0
2027,7011203003609,新規,0,2021-08-10,2021-08-10,アプリマーケット合同会社,,合同会社,東京都,中野区,中央１丁目２番２－５０７号,,13,114,1640011,,,,,,,2021-08-10,1,,,,,アプリマーケット,0
2033,7011505002416,新規,0,2021-08-10,2021-08-10,ＳＫワークス事業協同組合,,その他の設立登記法人,東京都,北区,滝野川７丁目４７番６号,,13,117,1140023,,,,,,,2021-08-10,1,,,,,エスケーワークスジギョウ,0
2035,7011701024610,新規,0,2021-08-10,2021-08-10,株式会社サンセット,,株式会社,東京都,江戸川区,松江１丁目１５番４号,,13,123,1320025,,,,,,,2021-08-10,1,,,,,サンセット,0
2039,7012401038173,新規,0,2021-08-10,2021-08-10,ｆｕｌｆｉｌｌ　ｄｒｅａｍｓ株式会社,,株式会社,東京都,多摩市,関戸４丁目１５番地の１５,,13,224,2060011,,,,,,,2021-08-10,1,,,,,フルフィルドリームス,0
2042,7013301047735,新規,0,2021-08-10,2021-08-10,株式会社行至商会,,株式会社,東京都,豊島区,南池袋２丁目２９番１２号７Ｆ,,13,116,1710022,,,,,,,2021-08-10,1,,,,,ギョウシショウカイ,0
2058,7020003020301,新規,0,2021-08-10,2021-08-10,Ｔｏｍｍｙ　Ｌａｕｎｄｒｙ合同会社,,合同会社,神奈川県,川崎市高津区,梶ケ谷２丁目９番地１８－１０３,,14,134,2130015,,,,,,,2021-08-10,1,,,,,トミーランドリー,0
2063,7021001073613,新規,0,2021-08-10,2021-08-10,株式会社ジャパンメディカルコミュニケーションズ,,株式会社,神奈川県,藤沢市,村岡東３丁目２６番地の１５,,14,205,2510012,,,,,,,2021-08-10,1,,,,,ジャパンメディカルコミュニケーションズ,0
2067,7021003010762,新規,0,2021-08-10,2021-08-10,合同会社大船パートナーズ,,合同会社,神奈川県,鎌倉市,大船２丁目１８番８号,,14,204,2470056,,,,,,,2021-08-10,1,,,,,オオフナパートナーズ,0
2068,7021003010779,新規,0,2021-08-10,2021-08-10,パルド合同会社,,合同会社,神奈川県,足柄上郡開成町,宮台１５０番１,,14,366,2580023,,,,,,,2021-08-10,1,,,,,パルド,0
2073,7030001143631,新規,0,2021-08-10,2021-08-10,株式会社尾前設備,,株式会社,埼玉県,春日部市,中央８丁目８番地３３,,11,214,3440067,,,,,,,2021-08-10,1,,,,,オマエセツビ,0
2074,7030001143697,新規,0,2021-08-10,2021-08-10,呉竹空調株式会社,,株式会社,埼玉県,川口市,芝下３丁目２４番８号,,11,203,3330848,,,,,,,2021-08-10,1,,,,,クレタケクウチョウ,0
2075,7030001143747,新規,0,2021-08-10,2021-08-10,株式会社アリオス,,株式会社,埼玉県,和光市,白子２丁目１７番４０－１０７号,,11,229,3510101,,,,,,,2021-08-10,1,,,,,アリオス,0
2076,7030001143755,新規,0,2021-08-10,2021-08-10,株式会社ｂｌｏｓｓ,,株式会社,埼玉県,さいたま市緑区,原山１丁目１０番１３号,,11,109,3360931,,,,,,,2021-08-10,1,,,,,,0
2077,7030003017742,新規,0,2021-08-10,2021-08-10,ＳＨＡＩ合同会社,,合同会社,埼玉県,越谷市,千間台西５丁目６番地１５号カノン２０３号室,,11,222,3430041,,,,,,,2021-08-10,1,,,,,シャイ,0
2083,7040001119630,新規,0,2021-08-10,2021-08-10,株式会社中西オートリペアー,,株式会社,千葉県,旭市,ニの２４８６番地６,,12,215,2892504,,,,,,,2021-08-10,1,,,,,ナカニシオートリペアー,0
2084,7040001119655,新規,0,2021-08-10,2021-08-10,げんき住設株式会社,,株式会社,千葉県,松戸市,牧の原２丁目３９－５,,12,207,2702267,,,,,,,2021-08-10,1,,,,,ゲンキジュウセツ,0
2085,7040001119688,新規,0,2021-08-10,2021-08-10,株式会社ＢＥＲＲＡＣＩＣＫ,,株式会社,千葉県,浦安市,堀江３丁目１６番１号グリーン（２０１）,,12,227,2790041,,,,,,,2021-08-10,1,,,,,ベラシック,0
2090,7040003018277,新規,0,2021-08-10,2021-08-10,桃井商事合同会社,,合同会社,千葉県,松戸市,緑ケ丘２丁目３６－１上本郷ローヤルコーポ１０６,,12,207,2710074,,,,,,,2021-08-10,1,,,,,モモイショウジ,0
2091,7040003018302,新規,0,2021-08-10,2021-08-10,合同会社エステラ,,合同会社,千葉県,船橋市,薬円台４丁目２３番１０号,,12,204,2740077,,,,,,,2021-08-10,1,,,,,エステラ,0
2094,7050001049678,新規,0,2021-08-10,2021-08-10,ｆ．ｓｅｌｅｃｔ株式会社,,株式会社,茨城県,筑西市,幸町１丁目５番４号,,08,227,3080848,,,,,,,2021-08-10,1,,,,,エフセレクト,0
2106,7090001017136,新規,0,2021-08-10,2021-08-10,株式会社和田,,株式会社,山梨県,都留市,川茂２６１番地,,19,204,4020003,,,,,,,2021-08-10,1,,,,,ワダ,0
2107,7090003001922,新規,0,2021-08-10,2021-08-10,合同会社ＰＲＥＳＥＮＣＥ,,合同会社,山梨県,甲府市,和戸町８０９‐１,,19,201,4000812,,,,,,,2021-08-10,1,,,,,プレゼンス,0
2127,7120001239560,新規,0,2021-08-10,2021-08-10,株式会社のぞみ経営パートナーズ,,株式会社,大阪府,大阪市北区,梅田１丁目１１番４号大阪駅前第４ビル１８階,,27,127,5300001,,,,,,,2021-08-10,1,,,,,ノゾミケイエイパートナーズ,0
2128,7120001239569,新規,0,2021-08-10,2021-08-10,株式会社Ｆｌａｖｏｒ　Ｆｒａｇｒａｎｃｅ　Ｆａｃｔｏｒｙ,,株式会社,大阪府,大阪市西区,南堀江４丁目３２番１６号,,27,106,5500015,,,,,,,2021-08-10,1,,,,,フレイバーフレグランスファクトリー,0
2129,7120001239602,新規,0,2021-08-10,2021-08-10,株式会社ラブチャレンジャー,,株式会社,大阪府,大阪市北区,梅田１丁目１１番４号大阪駅前第４ビル９階９２３号,,27,127,5300001,,,,,,,2021-08-10,1,,,,,ラブチャレンジャー,0
2136,7130001069899,新規,0,2021-08-10,2021-08-10,株式会社大誠建設,,株式会社,京都府,京都市南区,上鳥羽川端町２９番地２１,,26,107,6018171,,,,,,,2021-08-10,1,,,,,タイセイケンセツ,0
2140,7130003007403,新規,0,2021-08-10,2021-08-10,合同会社ルフト,,合同会社,京都府,京都市伏見区,北寝小屋町１０－１０２,,26,109,6128388,,,,,,,2021-08-10,1,,,,,ルフト,0
2143,7140001122574,新規,0,2021-08-10,2021-08-10,株式会社ＴＡＫＡＴＥＣ,,株式会社,兵庫県,神戸市東灘区,本山南町６丁目５番２０号,,28,101,6580015,,,,,,,2021-08-10,1,,,,,タカテック,0
2144,7140001122608,新規,0,2021-08-10,2021-08-10,Ｆａｍｉｌｉａｒ株式会社,,株式会社,兵庫県,神戸市東灘区,深江北町４丁目１２番１３号ドミール東灘Ⅱ５０２号,00123880,28,101,6580013,,,,,,,2021-08-10,1,,,,,ファミリア,0
2149,7160001023548,新規,0,2021-08-10,2021-08-10,Ｍ＆Ｆ　ＪＡＰＡＮ株式会社,,株式会社,滋賀県,守山市,木浜町３６００番地５３１,,25,207,5240104,,,,,,,2021-08-10,1,,,,,エムアンドエフジャパン,0
2167,7180001147320,新規,0,2021-08-10,2021-08-10,株式会社ＦＵＫＴｅＮ,,株式会社,愛知県,名古屋市中区,栄３丁目３５番２２号ゴードン栄ビル５階,,23,106,4600008,,,,,,,2021-08-10,1,,,,,フクテン,0
2168,7180001147386,新規,0,2021-08-10,2021-08-10,株式会社ベホマズン,,株式会社,愛知県,名古屋市東区,白壁４丁目８８番地,,23,102,4610011,,,,,,,2021-08-10,1,,,,,ベホマズン,0
2177,7180301035258,新規,0,2021-08-10,2021-08-10,株式会社ＩＮＴＥＲＩＡ佑,,株式会社,愛知県,岡崎市,真伝吉祥１丁目１６番地５,,23,202,4443176,,,,,,,2021-08-10,1,,,,,インテリアユウ,0
2179,7190005011612,新規,0,2021-08-10,2021-08-10,特定非営利活動法人カナエタ,,その他の設立登記法人,三重県,多気郡大台町,長ケ１３１７番地,,24,443,5192401,,,,,,,2021-08-10,1,,,,,カナエタ,0
2186,7210001018567,新規,0,2021-08-10,2021-08-10,タイヤショップＴＢ－Ｓ福井株式会社,,株式会社,福井県,福井市,森行町３号１１番地,,18,201,9188171,,,,,,,2021-08-10,1,,,,,タイヤショップティービーズフクイ,0
2202,7240001058420,新規,0,2021-08-10,2021-08-10,株式会社インテリアワコー,,株式会社,広島県,福山市,駅家町大字万能倉１４０６番地１５,,34,207,7201131,,,,,,,2021-08-10,1,,,,,インテリアワコー,0
2203,7240001058429,新規,0,2021-08-10,2021-08-10,株式会社ガイア,,株式会社,広島県,広島市中区,宝町２－２０,,34,101,7300044,,,,,,,2021-08-10,1,,,,,ガイア,0
2207,7240003005239,新規,0,2021-08-10,2021-08-10,合同会社Ｐｅａｃｅ　Ｃｕｌｔｕｒｅ　Ｔｒａｎｓｌａｔｉｏｎ,,合同会社,広島県,広島市東区,牛田南１丁目５番１０号,,34,102,7320064,,,,,,,2021-08-10,1,,,,,ピースカルチャートランスレーション,0
2218,7290001094089,新規,0,2021-08-10,2021-08-10,株式会社フルタイム,,株式会社,福岡県,大野城市,上大利２丁目７番２５号光第五ビル５７７号室,,40,219,8160955,,,,,,,2021-08-10,1,,,,,フルタイム,0
2219,7290001094106,新規,0,2021-08-10,2021-08-10,株式会社２ｐｌｕｓ,,株式会社,福岡県,福岡市中央区,長浜２丁目３－１８ドゥーエ赤坂１４２１号,,40,133,8100072,,,,,,,2021-08-10,1,,,,,ツープラス,0
2220,7290001094163,新規,0,2021-08-10,2021-08-10,株式会社ＰＰＦ,,株式会社,福岡県,春日市,塚原台３丁目５４番地１,,40,218,8160841,,,,,,,2021-08-10,1,,,,,ピーピーエフ,0
2225,7290801027677,新規,0,2021-08-10,2021-08-10,株式会社ＦＫＤ工業,,株式会社,福岡県,京都郡苅田町,大字新津９８２番地２,,40,621,8000344,,,,,,,2021-08-10,1,,,,,エフケーディーコウギョウ,0
2232,7310001017410,新規,0,2021-08-10,2021-08-10,株式会社ヴィレッジワン,,株式会社,長崎県,大村市,武部町７５１番地４,,42,205,8560035,,,,,,,2021-08-10,1,,,,,ヴィレッジワン,0
2234,7320003003597,新規,0,2021-08-10,2021-08-10,合同会社豊晃産業,,合同会社,大分県,大分市,大字片島６３８番地２,,44,201,8700943,,,,,,,2021-08-10,1,,,,,ホウコウサンギョウ,0
2240,7330001028892,新規,0,2021-08-10,2021-08-10,株式会社浜本造船所,,株式会社,熊本県,天草市,新和町大多尾３６０４番地３,,43,215,8630102,,,,,,,2021-08-10,1,,,,,ハマモトゾウセンジョ,0
2244,7340001024008,新規,0,2021-08-10,2021-08-10,株式会社光正,,株式会社,鹿児島県,鹿児島市,上之園町２４番地２７松下ビル１階,,46,201,8900052,,,,,,,2021-08-10,1,,,,,ミツマサ,0
2267,7420005007768,新規,0,2021-08-10,2021-08-10,一般社団法人シモキタクリエイト,,その他の設立登記法人,青森県,むつ市,横迎町１丁目９番１号,,02,208,0350033,,,,,,,2021-08-10,1,,,,,シモキタクリエイト,0
2268,7430001084686,新規,0,2021-08-10,2021-08-10,株式会社Ｓｅａ　Ｄｒｅａｍｓ,,株式会社,北海道,小樽市,新光３丁目２５番１０号,,01,203,0470152,,,,,,,2021-08-10,1,,,,,シードリームス,0
2270,7430005014243,新規,0,2021-08-10,2021-08-10,一般社団法人北海道社会基盤開発協会,,その他の設立登記法人,北海道,札幌市中央区,南七条西２５丁目７番１８号３０３,,01,101,0640807,,,,,,,2021-08-10,1,,,,,ホッカイドウシャカイキバンカイハツキョウカイ,0
2276,7500001023620,新規,0,2021-08-10,2021-08-10,株式会社マナプール,,株式会社,愛媛県,松山市,二番町３丁目２番地１８－２階,,38,201,7900002,,,,,,,2021-08-10,1,,,,,マナプール,0
2288,8010001220191,新規,0,2021-08-10,2021-08-10,ＨＹＵＮＤＡＩ　ＲＥＮＥＷＡＢＬＥ　ＬＡＢ　ＥＨＩＭＥ株式会社,,株式会社,東京都,千代田区,丸の内２丁目３番２号,,13,101,1000005,,,,,,,2021-08-10,1,,,,,ヒュンダイリニューアブルラブエヒメ,0
2289,8010001220209,新規,0,2021-08-10,2021-08-10,株式会社ウェール,,株式会社,東京都,文京区,小石川１丁目９番５号,,13,105,1120002,,,,,,,2021-08-10,1,,,,,ウェール,0
2290,8010001220225,新規,0,2021-08-10,2021-08-10,Ｏｃｅａｎｓ　Ｇｒｏｕｐ株式会社,,株式会社,東京都,中央区,日本橋２丁目１番１７号丹生ビル２階,,13,102,1030027,,,,,,,2021-08-10,1,,,,,オーシャンズグループ,0
2291,8010001220241,新規,0,2021-08-10,2021-08-10,株式会社ＨＥＡＴ,,株式会社,東京都,千代田区,九段南１丁目５番６号りそな九段ビル５階ＫＳフロア,,13,101,1020074,,,,,,,2021-08-10,1,,,,,ヒート,0
2292,8010001220324,新規,0,2021-08-10,2021-08-10,Ｄａｔａ　Ｅｎｌｉｇｈｔｅｎ　Ｊａｐａｎ株式会社,,株式会社,東京都,中央区,銀座１丁目１６番７号銀座大栄ビル６階,,13,102,1040061,,,,,,,2021-08-10,1,,,,,データエンライトゥンジャパン,0
2293,8010001220349,新規,0,2021-08-10,2021-08-10,株式会社ｆｌａｔｖａｌｌｅｙ,,株式会社,東京都,中央区,勝どき１丁目３番１－２４０３号,,13,102,1040054,,,,,,,2021-08-10,1,,,,,フラットバレー,0
2294,8010003035514,新規,0,2021-08-10,2021-08-10,ＢＩＺＴＨＩＮＫ合同会社,,合同会社,東京都,中央区,銀座６丁目６番１号,,13,102,1040061,,,,,,,2021-08-10,1,,,,,ビズシンク,0
2295,8010003035555,新規,0,2021-08-10,2021-08-10,ＧＰＤはやて合同会社,,合同会社,東京都,千代田区,一ツ橋２丁目５番５号,,13,101,1010003,,,,,,,2021-08-10,1,,,,,ジーピーディーハヤテ,0
2299,8010005033739,新規,0,2021-08-10,2021-08-10,一般社団法人少数株主支援機構,,その他の設立登記法人,東京都,千代田区,飯田橋１丁目３番２号曙杉館４階清和税理士法人内,,13,101,1020072,,,,,,,2021-08-10,1,,,,,ショウスウカブヌシシエンキコウ,0
2300,8010005033788,新規,0,2021-08-10,2021-08-10,一般社団法人東京レジデンシャル７,,その他の設立登記法人,東京都,中央区,日本橋１丁目４番１号,,13,102,1030027,,,,,,,2021-08-10,1,,,,,トウキョウレジデンシャルセブン,0
2301,8010005033796,新規,0,2021-08-10,2021-08-10,アスタービッド一般社団法人,,その他の設立登記法人,東京都,千代田区,丸の内３丁目１番１号東京共同会計事務所内,,13,101,1000005,,,,,,,2021-08-10,1,,,,,アスタービッド,0
2309,8010405020106,新規,0,2021-08-10,2021-08-10,一般社団法人モトブブルー,,その他の設立登記法人,東京都,港区,西新橋１丁目２番９号メンターキャピタル税理士法人内,,13,103,1050003,,,,,,,2021-08-10,1,,,,,モトブブルー,0
2316,8010605003983,新規,0,2021-08-10,2021-08-10,特定非営利活動法人漫画工房同潤会,,その他の設立登記法人,東京都,江東区,亀戸４丁目１３番２号田中荘２０３号室,,13,108,1360071,,,,,,,2021-08-10,1,,,,,マンガコウボウドウジュンカイ,0
2323,8010901049243,新規,0,2021-08-10,2021-08-10,株式会社ＬＩＦＩＸ,,株式会社,東京都,世田谷区,等々力６丁目５番４号リベルダージュ１０２,,13,112,1580082,,,,,,,2021-08-10,1,,,,,リフィックス,0
2342,8011303004118,新規,0,2021-08-10,2021-08-10,合同会社Ｍ＆Ｙ　Ｍａｎａｇｅｍｅｎｔ,,合同会社,東京都,杉並区,下草井二丁目２番５号,,13,115,1660000,,,,,,,2021-08-10,1,,,,,エムアンドワイマネジメント,0
2356,8012401038172,新規,0,2021-08-10,2021-08-10,クラルス株式会社,,株式会社,東京都,武蔵野市,吉祥寺本町１丁目２５番１０号ＫＳ－２ビル３Ｆ,,13,203,1800004,,,,,,,2021-08-10,1,,,,,クラルス,0
2384,8020001142385,新規,0,2021-08-10,2021-08-10,株式会社ネクサスリアルティ,,株式会社,神奈川県,横浜市鶴見区,鶴見中央４丁目９番１７－６２１号,,14,101,2300051,,,,,,,2021-08-10,1,,,,,ネクサスリアルティ,0
2385,8020001142468,新規,0,2021-08-10,2021-08-10,ベイトラスト横浜株式会社,,株式会社,神奈川県,横浜市西区,みなとみらい６丁目３番４－２１０３号,,14,103,2200012,,,,,,,2021-08-10,1,,,,,ベイトラストヨコハマ,0
2389,8021001073645,新規,0,2021-08-10,2021-08-10,株式会社Ｃｏｍｐｌｅｔｅ,,株式会社,神奈川県,相模原市緑区,二本松２丁目３３番２０号カーサヒラソル２０３,,14,151,2520137,,,,,,,2021-08-10,1,,,,,コンプリート,0
2390,8021001073653,新規,0,2021-08-10,2021-08-10,株式会社クライオミカド,,株式会社,神奈川県,平塚市,四之宮２丁目２５番２０号,,14,203,2540014,,,,,,,2021-08-10,1,,,,,クライオミカド,0
2398,8030001143754,新規,0,2021-08-10,2021-08-10,株式会社ＴＯＰＦＵＮ,,株式会社,埼玉県,さいたま市浦和区,針ヶ谷４丁目７番３３号２－６０８号,,11,107,3300075,,,,,,,2021-08-10,1,,,,,,0
2399,8030001143762,新規,0,2021-08-10,2021-08-10,株式会社ククル,,株式会社,埼玉県,深谷市,上野台２７９９番地,,11,218,3660801,,,,,,,2021-08-10,1,,,,,ククル,0
2405,8040001119646,新規,0,2021-08-10,2021-08-10,株式会社大坪塗装,,株式会社,千葉県,木更津市,真里谷８９６番地６,,12,206,2920201,,,,,,,2021-08-10,1,,,,,オオツボトソウ,0
2406,8040001119654,新規,0,2021-08-10,2021-08-10,株式会社サクラテクノ,,株式会社,千葉県,野田市,桜の里３丁目３０番地の３,,12,208,2780048,,,,,,,2021-08-10,1,,,,,サクラテクノ,0
2407,8040001119662,新規,0,2021-08-10,2021-08-10,株式会社ＬＴＲ,,株式会社,千葉県,南房総市,和田町白渚５８６番地２,,12,234,2992711,,,,,,,2021-08-10,1,,,,,エルティアール,0
2408,8040001119679,新規,0,2021-08-10,2021-08-10,株式会社小菅共創建設,,株式会社,千葉県,松戸市,秋山２７４番地の７－５０１号,,12,207,2702223,,,,,,,2021-08-10,1,,,,,コスゲキョウソウケンセツ,0
2410,8040003018268,新規,0,2021-08-10,2021-08-10,合同会社ウィスタリア,,合同会社,千葉県,柏市,旭町５丁目１番１６－３１４号,,12,217,2770852,,,,,,,2021-08-10,1,,,,,ウィスタリア,0
2411,8040003018276,新規,0,2021-08-10,2021-08-10,合同会社Ｍｅｄｉｃａｌ　Ｐｒｏｖｉｄｅ,,合同会社,千葉県,山武市,成東２１５番地３５,,12,237,2891326,,,,,,,2021-08-10,1,,,,,メディカルプロバイド,0
2412,8040003018284,新規,0,2021-08-10,2021-08-10,エス・トラスト合同会社,,合同会社,千葉県,千葉市若葉区,千城台東３丁目８番１号,,12,104,2640002,,,,,,,2021-08-10,1,,,,,エストラスト,0
2415,8050001049685,新規,0,2021-08-10,2021-08-10,株式会社ｆ＆ｋ,,株式会社,茨城県,つくば市,栄３１１番地１,,08,220,3050013,,,,,,,2021-08-10,1,,,,,エフアンドケー,0
2425,8080105006167,新規,0,2021-08-10,2021-08-10,ルシーヌ南熱川管理組合法人,,その他の設立登記法人,静岡県,賀茂郡東伊豆町,片瀬字原田４０２番地１,,22,301,4130303,,,,,,,2021-08-10,1,,,,,ルシーヌミナミアタガワ,0
2429,8080401025242,新規,0,2021-08-10,2021-08-10,株式会社飯田左官工業,,株式会社,静岡県,浜松市南区,渡瀬町８６番地,,22,134,4350036,,,,,,,2021-08-10,1,,,,,イイダサカンコウギョウ,0
2430,8090003001921,新規,0,2021-08-10,2021-08-10,合同会社コンビニエンスコンサルティング,,合同会社,山梨県,富士吉田市,上吉田東１丁目１‐４５,,19,202,4030032,,,,,,,2021-08-10,1,,,,,,0
2434,8100003006200,新規,0,2021-08-10,2021-08-10,合同会社ｍｏｎｉｉ,,合同会社,長野県,東御市,和８０３６番地１０,,20,219,3890505,,,,,,,2021-08-10,1,,,,,モニ,0
2442,8120001018278,新規,0,2021-08-10,2021-08-10,株式会社東宝化学工業所,,株式会社,大阪府,大阪市生野区,鶴橋５丁目２１番１６号,,27,116,5440031,,,,,,,2021-08-10,1,,,,,トウホウカガクコウギョウショ,0
2456,8120003019984,新規,0,2021-08-10,2021-08-10,合同会社ライム,,合同会社,大阪府,大阪市浪速区,日本橋西１丁目４番１０号トヨダビル２階,,27,111,5560004,,,,,,,2021-08-10,1,,,,,ライム,0
2463,8120103004250,新規,0,2021-08-10,2021-08-10,合同会社ＲＥ・ＡＣＨ,,合同会社,大阪府,堺市中区,土師町２丁４番３４号,,27,142,5998238,,,,,,,2021-08-10,1,,,,,リーチ,0
2465,8120901044729,新規,0,2021-08-10,2021-08-10,株式会社Ｕｎ　ａｒｂｒｅ,,株式会社,大阪府,吹田市,片山町３丁目３７番１４号,,27,205,5640082,,,,,,,2021-08-10,1,,,,,アンアーブル,0
2466,8120903003773,新規,0,2021-08-10,2021-08-10,合同会社Ｓｉｌｖｅｒ　Ｂａｃｋ,,合同会社,大阪府,高槻市,宮野町８番２号高槻野村マンション１０５号,,27,207,5690081,,,,,,,2021-08-10,1,,,,,シルバーバック,0
2472,8122005003578,新規,0,2021-08-10,2021-08-10,ＮＰＯ法人夢検定協会,,その他の設立登記法人,大阪府,東大阪市,森河内西２丁目３６番１５号,,27,227,5770061,,,,,,,2021-08-10,1,,,,,ユメケンテイキョウカイ,0
2480,8140001122565,新規,0,2021-08-10,2021-08-10,株式会社ヨシコーフーズ,,株式会社,兵庫県,宝塚市,光ガ丘２丁目３番１９号,,28,214,6650015,,,,,,,2021-08-10,1,,,,,ヨシコーフーズ,0
2481,8140001122648,新規,0,2021-08-10,2021-08-10,株式会社オステリアガッティーニャ,,株式会社,兵庫県,神戸市須磨区,妙法寺字円満林６番地の１３,,28,107,6540121,,,,,,,2021-08-10,1,,,,,オステリアガッティーニャ,0
2483,8140003016609,新規,0,2021-08-10,2021-08-10,合同会社ＦＰ,,合同会社,兵庫県,小野市,黒川町４７－１０,,28,218,6751371,,,,,,,2021-08-10,1,,,,,エフピー,0
2484,8150001024851,新規,0,2021-08-10,2021-08-10,株式会社アドパワー,,株式会社,奈良県,生駒市,萩の台８６６－１７,,29,209,6300224,,,,,,,2021-08-10,1,,,,,アドパワー,0
2496,8180001147369,新規,0,2021-08-10,2021-08-10,ナチュラル株式会社,,株式会社,愛知県,一宮市,南小渕字屋敷１２９番地,,23,203,4910014,,,,,,,2021-08-10,1,,,,,ナチュラル,0
2504,8190001028576,新規,0,2021-08-10,2021-08-10,株式会社岩田内装,,株式会社,三重県,四日市市,西富田町２４９番地１３,,24,202,5108024,,,,,,,2021-08-10,1,,,,,イワタナイソウ,0
2506,8200001038994,新規,0,2021-08-10,2021-08-10,丸ツ柘植産業株式会社,,株式会社,岐阜県,恵那市,中野方町５９８番地の１,,21,210,5098231,,,,,,,2021-08-10,1,,,,,マルツツゲサンギョウ,0
2507,8200001039002,新規,0,2021-08-10,2021-08-10,株式会社ＥＸＣＩＡ,,株式会社,岐阜県,各務原市,蘇原村雨町４丁目３２番地１,,21,213,5040828,,,,,,,2021-08-10,1,,,,,エクシア,0
2508,8210001018566,新規,0,2021-08-10,2021-08-10,株式会社Ｄｏサービス御用命屋,,株式会社,福井県,大野市,清瀧１３１－１,,18,205,9120092,,,,,,,2021-08-10,1,,,,,ドゥサービスゴヨウメイヤ,0
2518,8240001058428,新規,0,2021-08-10,2021-08-10,株式会社健康そむりえ,,株式会社,広島県,広島市中区,西白島町２３番１６－１２０１号,,34,101,7300005,,,,,,,2021-08-10,1,,,,,ケンコウソムリエ,0
2522,8250001019057,新規,0,2021-08-10,2021-08-10,クロス・リバー株式会社,,株式会社,山口県,光市,光井４丁目３１番２７号,,35,210,7430011,,,,,,,2021-08-10,1,,,,,クロスリバー,0
2531,8260001035862,新規,0,2021-08-10,2021-08-10,株式会社ＦＶＣ,,株式会社,岡山県,美作市,白水２６６３番地３,,33,215,7094251,,,,,,,2021-08-10,1,,,,,エフブイシー,0
2540,8290001094121,新規,0,2021-08-10,2021-08-10,株式会社Ｒｉｓｅ１７,,株式会社,福岡県,福岡市西区,愛宕２丁目１６番１２号,,40,135,8190015,,,,,,,2021-08-10,1,,,,,ライズジュウナナ,0
2544,8290003011487,新規,0,2021-08-10,2021-08-10,ＦＵＫＵ　Ｑ＆Ｄ合同会社,,合同会社,福岡県,福岡市南区,向野２丁目１９７番地アジアンパークストリート１０２号,,40,134,8150035,,,,,,,2021-08-10,1,,,,,フクキューアンドディー,0
2546,8300001012592,新規,0,2021-08-10,2021-08-10,Ｗ＆Ｗ株式会社,,株式会社,佐賀県,神埼市,神埼町本告牟田８５８番地１,,41,210,8420013,,,,,,,2021-08-10,1,,,,,ダブルアンドダブル,0
2550,8320001018522,新規,0,2021-08-10,2021-08-10,株式会社清原ガーデン,,株式会社,大分県,豊後高田市,来縄１１００番地１,,44,209,8790614,,,,,,,2021-08-10,1,,,,,キヨハラガーデン,0
2557,8350001017232,新規,0,2021-08-10,2021-08-10,ペイフォワード株式会社,,株式会社,宮崎県,宮崎市,桜ケ丘町３１番３－１号,,45,201,8800955,,,,,,,2021-08-10,1,,,,,ペイフォワード,0
2565,8370005010330,新規,0,2021-08-10,2021-08-10,税理士法人佐々木会計,,その他の設立登記法人,宮城県,仙台市青葉区,本町１丁目１１番２号ＳＫ仙台ビル１００５,,04,101,9800014,,,,,,,2021-08-10,1,,,,,ゼイリシホウジンササキカイケイ,0
2585,8480001011461,新規,0,2021-08-10,2021-08-10,金城金属株式会社,,株式会社,徳島県,阿波市,吉野町西条字床石５１番地２２,,36,206,7711402,,,,,,,2021-08-10,1,,,,,カネシロキンゾク,0
2616,9010001220216,新規,0,2021-08-10,2021-08-10,昇喜株式会社,,株式会社,東京都,中央区,日本橋人形町２丁目２６番８－１４０５号,,13,102,1030013,,,,,,,2021-08-10,1,,,,,ショウキ,0
2617,9010001220249,新規,0,2021-08-10,2021-08-10,株式会社Ｒｉｃｈ　Ｄｏｏｒ,,株式会社,東京都,千代田区,神田駿河台１丁目５番６号コトー駿河台２０５号室,,13,101,1010062,,,,,,,2021-08-10,1,,,,,リッチドアー,0
2618,9010001220348,新規,0,2021-08-10,2021-08-10,株式会社スターゲート,,株式会社,東京都,千代田区,神田須田町１丁目２４番地２１,,13,101,1010041,,,,,,,2021-08-10,1,,,,,スターゲート,0
2621,9010003035455,新規,0,2021-08-10,2021-08-10,合同会社ＪＲＰＦ戸部,,合同会社,東京都,千代田区,丸の内３丁目１番１号東京共同会計事務所内,,13,101,1000005,,,,,,,2021-08-10,1,,,,,ジェイアールピーエフトベ,0
2622,9010003035538,新規,0,2021-08-10,2021-08-10,合同会社Ｔａｋｔｏ,,合同会社,東京都,中央区,銀座１丁目２２番１１号銀座大竹ビジデンス２階,,13,102,1040061,,,,,,,2021-08-10,1,,,,,タクト,0
2623,9010003035554,新規,0,2021-08-10,2021-08-10,ＧＰＤわかば合同会社,,合同会社,東京都,千代田区,一ツ橋２丁目５番５号,,13,101,1010003,,,,,,,2021-08-10,1,,,,,ジーピーディーワカバ,0
2626,9010005033738,新規,0,2021-08-10,2021-08-10,一般社団法人企業ガバナンス推進機構,,その他の設立登記法人,東京都,中央区,銀座１丁目２２番１１号銀座大竹ビジデンス２階,,13,102,1040061,,,,,,,2021-08-10,1,,,,,キギョウガバナンススイシンキコウ,0
2632,9010401161919,新規,0,2021-08-10,2021-08-10,グローバルイノベータ株式会社,,株式会社,東京都,港区,港南２丁目１６番４号,,13,103,1080075,,,,,,,2021-08-10,1,,,,,グローバルイノベータ,0
2633,9010403025857,新規,0,2021-08-10,2021-08-10,合同会社Ｍａｒｋｅｔｉｎｇ　Ｓｔｒｅａｍ,,合同会社,東京都,港区,南青山２丁目２番１５号,,13,103,1070062,,,,,,,2021-08-10,1,,,,,マーケティングストリーム,0
2639,9010801032216,新規,0,2021-08-10,2021-08-10,株式会社エヌアールエム,,株式会社,東京都,大田区,蒲田５丁目２０－７Ｋ５２０ビル５階,,13,111,1440052,,,,,,,2021-08-10,1,,,,,,0
2640,9010801032224,新規,0,2021-08-10,2021-08-10,株式会社Ｊ＆Ｍ,,株式会社,東京都,大田区,大森本町１丁目８番１２－Ｗ－３０５号,,13,111,1430011,,,,,,,2021-08-10,1,,,,,ジェイアンドエム,0
2642,9010901049226,新規,0,2021-08-10,2021-08-10,株式会社ｔｅｅ,,株式会社,東京都,世田谷区,玉川台１丁目８番１６号,,13,112,1580096,,,,,,,2021-08-10,1,,,,,ティー,0
2643,9010901049242,新規,0,2021-08-10,2021-08-10,ＺＫＩＴ株式会社,,株式会社,東京都,世田谷区,粕谷２丁目２４番１－７０９号,,13,112,1570063,,,,,,,2021-08-10,1,,,,,ゼットキット,0
2651,9011001142169,新規,0,2021-08-10,2021-08-10,株式会社トランジットテーマカフェオペレーション,,株式会社,東京都,渋谷区,恵比寿４丁目２０番４号,,13,113,1500013,,,,,,,2021-08-10,1,,,,,トランジットテーマカフェオペレーション,0
2652,9011001142219,新規,0,2021-08-10,2021-08-10,株式会社アタラクシアグループ,,株式会社,東京都,渋谷区,渋谷１丁目７番１号,,13,113,1500002,,,,,,,2021-08-10,1,,,,,アタラクシアグループ,0
2665,9011203003607,新規,0,2021-08-10,2021-08-10,合同会社ＣＡＣＡＯ　ＲＥＰＵＢＬＩＣ,,合同会社,東京都,中野区,新井１丁目２２番６号Ｍ・Ｔ・Ｍ１Ｆ,,13,114,1650026,,,,,,,2021-08-10,1,,,,,カカオリパブリック,0
2666,9011501027200,新規,0,2021-08-10,2021-08-10,株式会社のっぷる,,株式会社,東京都,荒川区,東日暮里４丁目２５番６号,,13,118,1160014,,,,,,,2021-08-10,1,,,,,ノップル,0
2679,9011801039564,新規,0,2021-08-10,2021-08-10,ＳｈｉｎｓｅｎＳｅｃｕｒｉｔｙ株式会社,,株式会社,東京都,足立区,千住寿町２番９号,,13,121,1200033,,,,,,,2021-08-10,1,,,,,シンセンセキュリティー,0
2681,9012303001574,新規,0,2021-08-10,2021-08-10,フラワーＷｉｚ合同会社,,合同会社,東京都,町田市,玉川学園８丁目１８番３号,,13,209,1940041,,,,,,,2021-08-10,1,,,,,フラワーウィズ,0
2688,9012403004972,新規,0,2021-08-10,2021-08-10,Ｎｅｗ　Ｃｕｂｅ合同会社,,合同会社,東京都,調布市,菊野台２丁目４０番地２４,,13,208,1820007,,,,,,,2021-08-10,1,,,,,ニューキューブ,0
2689,9012403004980,新規,0,2021-08-10,2021-08-10,合同会社マリポサアズール,,合同会社,東京都,狛江市,和泉本町１丁目１２番１－８０６号,,13,219,2010003,,,,,,,2021-08-10,1,,,,,マリポサアズール,0
2691,9012801020992,新規,0,2021-08-10,2021-08-10,株式会社ソスコム,,株式会社,東京都,立川市,砂川町４丁目６２番地の１４,,13,202,1900031,,,,,,,2021-08-10,1,,,,,ソスコム,0
2692,9012803002568,新規,0,2021-08-10,2021-08-10,フロージェム合同会社,,合同会社,東京都,国立市,中１丁目１６番地の２５シャトレクインテス国立５０２,,13,215,1860004,,,,,,,2021-08-10,1,,,,,フロージェム,0
2718,9021001073636,新規,0,2021-08-10,2021-08-10,株式会社森屋商事,,株式会社,神奈川県,大和市,西鶴間４丁目２番２６号,,14,213,2420005,,,,,,,2021-08-10,1,,,,,モリヤショウジ,0
2722,9021003010777,新規,0,2021-08-10,2021-08-10,合同会社Ｒｅｚｏ,,合同会社,神奈川県,藤沢市,本鵠沼２丁目１番８号,,14,205,2510028,,,,,,,2021-08-10,1,,,,,レゾ,0
2733,9030001143753,新規,0,2021-08-10,2021-08-10,株式会社Ｃ・Ｔ・Ｃ,,株式会社,埼玉県,さいたま市浦和区,常盤４丁目１３番１２－２０１号,,11,107,3300061,,,,,,,2021-08-10,1,,,,,シーティーシー,0
2734,9030001143761,新規,0,2021-08-10,2021-08-10,株式会社トラストクリーン,,株式会社,埼玉県,戸田市,喜沢１丁目２６番地の９マルエツ喜沢マンション４０４号室,,11,224,3350013,,,,,,,2021-08-10,1,,,,,トラストクリーン,0
2740,9040001119612,新規,0,2021-08-10,2021-08-10,株式会社ＣＩＱ,,株式会社,千葉県,千葉市中央区,富士見２丁目１５番９号,,12,101,2600015,,,,,,,2021-08-10,1,,,,,シーアイーキュー,0
2741,9040001119629,新規,0,2021-08-10,2021-08-10,アップ防災株式会社,,株式会社,千葉県,市川市,下貝塚２丁目２６番９号,,12,203,2720821,,,,,,,2021-08-10,1,,,,,アップボウサイ,0
2742,9040001119637,新規,0,2021-08-10,2021-08-10,株式会社中村,,株式会社,千葉県,八千代市,大和田新田２３６番地３,,12,221,2760046,,,,,,,2021-08-10,1,,,,,ナカムラ,0
2743,9040001119653,新規,0,2021-08-10,2021-08-10,株式会社ＧＭ．ＴＲＡＮＳ,,株式会社,千葉県,市原市,八幡海岸通１番地,,12,219,2900067,,,,,,,2021-08-10,1,,,,,ジーエムトランス,0
2744,9040001119661,新規,0,2021-08-10,2021-08-10,株式会社アローエース,,株式会社,千葉県,浦安市,当代島１丁目１６番２０－６０１号,,12,227,2790001,,,,,,,2021-08-10,1,,,,,アローエース,0
2745,9040001119678,新規,0,2021-08-10,2021-08-10,株式会社グラットン,,株式会社,千葉県,流山市,西初石３丁目１０３番地１４,,12,220,2700121,,,,,,,2021-08-10,1,,,,,グラットン,0
2746,9040001119711,新規,0,2021-08-10,2021-08-10,株式会社宝友総建,,株式会社,千葉県,千葉市中央区,宮崎町７２６番地９０,,12,101,2600805,,,,,,,2021-08-10,1,,,,,ホウユウソウケン,0
2752,9040003018267,新規,0,2021-08-10,2021-08-10,元吉合同会社,,合同会社,千葉県,船橋市,西船４丁目１９番２号第１２花園ビル６０１号,,12,204,2730031,,,,,,,2021-08-10,1,,,,,モトヨシ,0
2753,9040003018275,新規,0,2021-08-10,2021-08-10,合同会社Ｌｕａ　ＣＯＣＯ,,合同会社,千葉県,習志野市,本大久保１丁目４番１９号,,12,216,2750012,,,,,,,2021-08-10,1,,,,,ルアココ,0
2754,9040003018283,新規,0,2021-08-10,2021-08-10,コーシン合同会社,,合同会社,千葉県,柏市,松ケ崎２１９番地１４,,12,217,2770835,,,,,,,2021-08-10,1,,,,,コーシン,0
2757,9050001049619,新規,0,2021-08-10,2021-08-10,株式会社ＩＳネットワークス,,株式会社,茨城県,土浦市,田中３丁目８番地３２,,08,203,3000048,,,,,,,2021-08-10,1,,,,,アイエスネットワークス,0
2766,9080003002622,新規,0,2021-08-10,2021-08-10,合同会社Ｍ’ｓ　ｗｏｒｋｅｒｓ,,合同会社,静岡県,静岡市駿河区,下川原６丁目７－２６,,22,102,4210113,,,,,,,2021-08-10,1,,,,,エムズワーカーズ,0
2776,9090003001920,新規,0,2021-08-10,2021-08-10,合同会社トラストグループ,,合同会社,山梨県,甲斐市,中下条１３２３番地３メゾンアルプス１０１,,19,210,4000124,,,,,,,2021-08-10,1,,,,,トラストグループ,0
2788,9120001239550,新規,0,2021-08-10,2021-08-10,株式会社Ｂｌｏｏｍ,,株式会社,大阪府,大阪市都島区,友渕町１丁目４番２－１６０３号,,27,102,5340016,,,,,,,2021-08-10,1,,,,,ブルーム,0
2789,9120001239559,新規,0,2021-08-10,2021-08-10,株式会社ブレイス,,株式会社,大阪府,大阪市天王寺区,上本町９丁目３番１２－１４０１号,,27,109,5430001,,,,,,,2021-08-10,1,,,,,ブレイス,0
2790,9120001239567,新規,0,2021-08-10,2021-08-10,株式会社ａｈｎｋｉｓｍｓ,,株式会社,大阪府,大阪市西区,南堀江１丁目１１番２１号ＳｔｏＲＫ南堀江２階,,27,106,5500015,,,,,,,2021-08-10,1,,,,,アンキシムズ,0
2791,9120001239575,新規,0,2021-08-10,2021-08-10,株式会社新日本サービス,,株式会社,大阪府,大阪市平野区,瓜破東２丁目８番２１号,,27,126,5470022,,,,,,,2021-08-10,1,,,,,シンニホンサービス,0
2796,9120101064114,新規,0,2021-08-10,2021-08-10,株式会社ＵＮＩＴＥＤ,,株式会社,大阪府,堺市東区,丈六１８３番地９,,27,143,5998122,,,,,,,2021-08-10,1,,,,,ユナイデット,0
2803,9120901044744,新規,0,2021-08-10,2021-08-10,株式会社ｂｌａｎｃ,,株式会社,大阪府,箕面市,箕面６丁目２番１８号,,27,220,5620001,,,,,,,2021-08-10,1,,,,,ブラン,0
2804,9120903003772,新規,0,2021-08-10,2021-08-10,ＴＡＸＮＥＴ関西合同会社,,合同会社,大阪府,高槻市,大畑町１番２３－８０２号,,27,207,5691144,,,,,,,2021-08-10,1,,,,,タックスネットカンサイ,0
2807,9122005003577,新規,0,2021-08-10,2021-08-10,一般社団法人Ｓ,,その他の設立登記法人,大阪府,東大阪市,西堤西２番２５号,,27,227,5770048,,,,,,,2021-08-10,1,,,,,エス,0
2815,9140001122548,新規,0,2021-08-10,2021-08-10,株式会社ベアーフルート,,株式会社,兵庫県,神戸市西区,月が丘５丁目１番地の４、１－５１９号,,28,111,6512217,,,,,,,2021-08-10,1,,,,,ベアーフルート,0
2816,9140001122622,新規,0,2021-08-10,2021-08-10,株式会社ＡＤＶＥＲＺ,,株式会社,兵庫県,神戸市中央区,浜辺通６丁目１番１－９０６号,,28,110,6510083,,,,,,,2021-08-10,1,,,,,アドバーズ,0
2820,9140003016608,新規,0,2021-08-10,2021-08-10,合同会社バンガードストリート,,合同会社,兵庫県,尼崎市,武庫之荘４丁目２番１４－１０３号,,28,202,6610035,,,,,,,2021-08-10,1,,,,,バンガードストリート,0
2821,9140003016616,新規,0,2021-08-10,2021-08-10,合同会社Ｃａｒｅｂｏｕｔ,,合同会社,兵庫県,たつの市,御津町苅屋字裏ノ田２０５番地５号オリゾンＡ棟１０３号室,,28,229,6711321,,,,,,,2021-08-10,1,,,,,ケアバウト,0
2841,9180001147343,新規,0,2021-08-10,2021-08-10,株式会社Ａ－ｌｉｎｅ,,株式会社,愛知県,半田市,花園町４丁目２番地の１６,,23,205,4750833,,,,,,,2021-08-10,1,,,,,エーライン,0
2847,9180003022841,新規,0,2021-08-10,2021-08-10,合同会社松崎歯科商会,,合同会社,愛知県,東海市,名和町向廻間１－２名和団地８－３０６,,23,222,4760002,,,,,,,2021-08-10,1,,,,,マツザキシカショウカイ,0
2849,9180301035256,新規,0,2021-08-10,2021-08-10,株式会社タケデン,,株式会社,愛知県,豊橋市,大岩町字大穴１７２番地の２０,,23,201,4413147,,,,,,,2021-08-10,1,,,,,タケデン,0
2854,9200001039001,新規,0,2021-08-10,2021-08-10,株式会社ＳＴＥＥＬ　ＡＲＣＨ,,株式会社,岐阜県,岐阜市,日野東４丁目４番１７号,,21,201,5008211,,,,,,,2021-08-10,1,,,,,スチールアーチ,0
2864,9220001024348,新規,0,2021-08-10,2021-08-10,株式会社西出工務店,,株式会社,石川県,小松市,島町カ１５番地２１,,17,203,9230303,,,,,,,2021-08-10,1,,,,,ニシデコウムテン,0
2873,9240001058402,新規,0,2021-08-10,2021-08-10,株式会社ネクシィーズ中四国,,株式会社,広島県,広島市南区,的場町１丁目２番２１号,,34,103,7320824,,,,,,,2021-08-10,1,,,,,ネクシィーズチュウシコク,0
2874,9240001058427,新規,0,2021-08-10,2021-08-10,プレシャスユー株式会社,,株式会社,広島県,福山市,明王台５丁目１５番８号,,34,207,7200834,,,,,,,2021-08-10,1,,,,,プレシャスユー,0
2881,9240003005237,新規,0,2021-08-10,2021-08-10,合同会社まるます,,合同会社,広島県,広島市安佐北区,深川４丁目２３番１８号,,34,106,7391751,,,,,,,2021-08-10,1,,,,,マルマス,0
2884,9250003002877,新規,0,2021-08-10,2021-08-10,エスエスカンパニー合同会社,,合同会社,山口県,周南市,大字大潮２６５８番地の１,,35,215,7450301,,,,,,,2021-08-10,1,,,,,エスエスカンパニー,0
2895,9290001094203,新規,0,2021-08-10,2021-08-10,株式会社九州ライフサポート,,株式会社,福岡県,福岡市南区,柳瀬１丁目２５番２－３０２号,,40,134,8111321,,,,,,,2021-08-10,1,,,,,キュウシュウライフサポート,0
2900,9290801027675,新規,0,2021-08-10,2021-08-10,株式会社吉田住建,,株式会社,福岡県,遠賀郡岡垣町,海老津駅前１２番８号,,40,383,8114236,,,,,,,2021-08-10,1,,,,,ヨシダジュウケン,0
2901,9290801027691,新規,0,2021-08-10,2021-08-10,株式会社小島電気通信,,株式会社,福岡県,北九州市小倉北区,小文字１丁目１４番６号,,40,106,8020037,,,,,,,2021-08-10,1,,,,,コジマデンキツウシン,0
2929,9370003005348,新規,0,2021-08-10,2021-08-10,しえろ合同会社,,合同会社,宮城県,加美郡色麻町,黒沢字切付３番地４３,,04,444,9814111,,,,,,,2021-08-10,1,,,,,,0
2948,9430003013006,新規,0,2021-08-10,2021-08-10,合同会社スポーツハウスホールディングス,,合同会社,北海道,札幌市中央区,南三条西３丁目１１番地,,01,101,0600063,,,,,,,2021-08-10,1,,,,,スポーツハウスホールディングス,0
2949,9430005014241,新規,0,2021-08-10,2021-08-10,特定非営利活動法人じもっト,,その他の設立登記法人,北海道,札幌市豊平区,平岸五条１０丁目５番３－１００１号,,01,105,0620935,,,,,,,2021-08-10,1,,,,,ジモット,0
2958,9700150042242,新規,0,2021-08-10,2015-10-09,日本旅館協会　中部支部連合会,,その他,愛知県,名古屋市中村区,井深町１番１号２２４－１,,23,105,4530012,,,,,,,2015-10-09,1,,,,,ニホンリヨカンキヨウカイチユウブシブレンゴウカイ,0
