sequenceNumber,corporateNumber,process,correct,updateDate,changeDate,name,nameImageId,kind,prefectureName,cityName,streetNumber,addressImageId,prefectureCode,cityCode,postCode,addressOutside,addressOutsideImageId,closeDate,closeCause,successorCorporateNumber,changeCause,assignmentDate,latest,enName,enPrefectureName,enCityName,enAddressOutside,furigana,hihyoji
16,1010401142422,登記記録の閉鎖等,0,2024-04-11,2024-04-05,ＤＡＺＺＳＨＯＰ株式会社,,株式会社,東京都,渋谷区,代々木２丁目１番５号,,13,113,1510053,,,2024-04-05,合併による解散等,7430001069398,令和６年４月１日札幌市白石区東札幌五条二丁目４番３０号株式会社アインファーマシーズ（7430001069398）に合併し解散,2018-12-05,1,,,,,ダズショップ,0
25,1010403019239,登記記録の閉鎖等,0,2024-04-11,2024-04-01,ＹＡＩＴＡ　ＳＯＬＡＲ合同会社,,合同会社,東京都,港区,虎ノ門１丁目２番８号リニューアブル・ジャパン株式会社内,,13,103,1050001,,,2024-04-01,清算の結了等,,,2018-09-03,1,,,,,ヤイタソーラー,0
41,1011001009243,登記記録の閉鎖等,0,2024-04-11,2024-04-01,サンデケミカル株式会社,,株式会社,東京都,渋谷区,代々木２丁目２２番１号,,13,113,1510053,,,2024-04-01,清算の結了等,,,2015-10-05,1,,,,,サンデケミカル,0
53,1011201014828,登記記録の閉鎖等,0,2024-04-11,2024-04-01,ＱＵＡＬＩＴＹ株式会社,,株式会社,東京都,中央区,京橋１丁目１４番４号京橋ＴＳビル３階Ｂ,,13,102,1040031,,,2024-04-01,合併による解散等,3011201015106,令和６年４月１日東京都中央区京橋一丁目１４番４号京橋ＴＳビル３階ＡＱＵＡＬＩＴＹ株式会社（3011201015106）に合併し解散,2015-10-05,1,,,,,クオリティー,0
59,1011701004155,登記記録の閉鎖等,0,2024-04-11,2024-04-04,株式会社剛力ＰＬＵＳ,,株式会社,東京都,江戸川区,南葛西７丁目１番７－１１２号,,13,123,1340085,,,2024-04-04,清算の結了等,,,2015-10-05,1,,,,,ゴウリキプラス,0
61,1011703002966,登記記録の閉鎖等,0,2024-04-11,2024-04-03,Ｈａｐｐｉｅ　Ｈｅａｒｔｓ合同会社,,合同会社,東京都,江戸川区,船堀６丁目２番１５号,,13,123,1340091,,,2024-04-03,清算の結了等,,,2021-10-08,1,,,,,ハッピーハーツ,0
69,1013303005630,登記記録の閉鎖等,0,2024-04-11,2024-04-02,合同会社ＦＴＭ,,合同会社,東京都,豊島区,上池袋３丁目１２番６－３２１号,,13,116,1700012,,,2024-04-02,清算の結了等,,,2021-04-13,1,,,,,,0
78,1020002021198,登記記録の閉鎖等,0,2024-04-11,2024-04-01,有限会社小林工務店,,有限会社,神奈川県,横浜市旭区,上白根町１２５６番地,,14,112,2410001,,,2024-04-01,清算の結了等,,,2015-10-05,1,,,,,コバヤシコウムテン,0
91,1040001025215,登記記録の閉鎖等,0,2024-04-11,2024-04-01,株式会社サイバンク,,株式会社,千葉県,千葉市中央区,新町２４番９,,12,101,2600028,,,2024-04-01,合併による解散等,1040001009432,令和６年４月１日千葉市中央区新町２４番地９株式会社エイシル（1040001009432）に合併し解散,2015-10-05,1,,,,,サイバンク,0
98,1050001043083,登記記録の閉鎖等,0,2024-04-11,2024-04-03,日立Ａｓｔｅｍｏ電動機システムズ株式会社,,株式会社,茨城県,ひたちなか市,大字高場２５２０番地,,08,221,3120062,,,2024-04-03,合併による解散等,7050001007842,令和６年４月１日茨城県ひたちなか市高場２５２０番地日立Ａｓｔｅｍｏ株式会社（7050001007842）に合併し解散,2017-07-19,1,,,,,ヒタチアステモデンドウキシステムズ,0
100,1050002039551,登記記録の閉鎖等,0,2024-04-11,2024-04-08,荒木建築有限会社,,有限会社,茨城県,常総市,豊岡町丙１５４０番地,,08,211,3030041,,,2024-04-08,清算の結了等,,,2015-10-05,1,,,,,アラキケンチク,0
106,1070002002326,登記記録の閉鎖等,0,2024-04-11,2024-04-08,有限会社サカハシ電気,,有限会社,群馬県,前橋市,富士見町時沢７８番地４,,10,201,3710104,,,2024-04-08,清算の結了等,,,2015-10-05,1,,,,,サカハシデンキ,0
111,1080401016611,登記記録の閉鎖等,0,2024-04-11,2024-04-01,株式会社ヤマハミュージックマニュファクチュアリング,,株式会社,静岡県,磐田市,松之木島２０３番地,,22,211,4380125,,,2024-04-01,合併による解散等,3080401005595,令和６年４月１日浜松市中央区中沢町１０番１号ヤマハ株式会社（3080401005595）に合併し解散,2015-10-05,1,,,,,ヤマハミュージックマニュファクチュアリング,0
112,1080402005910,登記記録の閉鎖等,0,2024-04-11,2024-04-05,有限会社西野商会,,有限会社,静岡県,浜松市中央区,富塚町３７８０番地の４６,,22,138,4328002,,,2024-04-05,清算の結了等,,,2015-10-05,1,,,,,ニシノショウカイ,0
114,1090002009765,登記記録の閉鎖等,0,2024-04-11,2024-04-05,有限会社万年屋,,有限会社,山梨県,上野原市,上野原３２３７番地,,19,212,4090112,,,2024-04-05,合併による解散等,6050001004444,令和６年４月１日茨城県水戸市谷津町細田１番８株式会社ロングライフ（6050001004444）に合併し解散,2015-10-05,1,,,,,マンネンヤ,0
118,1110002033952,登記記録の閉鎖等,0,2024-04-11,2024-04-08,有限会社竹屋商店,,有限会社,新潟県,魚沼市,田中６７１番地３,,15,225,9460106,,,2024-04-08,合併による解散等,9030001003544,令和６年４月１日埼玉県さいたま市大宮区桜木町一丁目１１番地５株式会社サイサン（9030001003544）に合併し解散,2015-10-05,1,,,,,タケヤショウテン,0
140,1122001009354,登記記録の閉鎖等,0,2024-04-11,2024-04-01,株式会社グリーンテック,,株式会社,大阪府,東大阪市,渋川町２丁目５番９号,,27,227,5770836,,,2024-04-01,合併による解散等,7120001017917,令和６年３月３１日大阪府東大阪市渋川町二丁目５番９号株式会社田積製作所（7120001017917）に合併し解散,2015-10-05,1,,,,,グリーンテック,0
155,1140005022603,登記記録の閉鎖等,0,2024-04-11,2024-04-09,一般社団法人ＳＲＳ研究所,,その他の設立登記法人,兵庫県,神戸市灘区,篠原北町２丁目２番８－１０２号,,28,102,6570068,,,2024-04-09,清算の結了等,,,2015-10-26,1,,,,,エスアールエスケンキュウショ,0
160,1180001009063,登記記録の閉鎖等,0,2024-04-11,2024-04-08,日硝株式会社,,株式会社,愛知県,名古屋市昭和区,鶴舞３丁目５番１３号,,23,107,4660064,,,2024-04-08,合併による解散等,3010501030079,令和６年４月１日東京都墨田区本所四丁目１９番３号本所吾妻橋ＤＪビル４階日本板硝子Ｓ＆Ｓ株式会社（3010501030079）に合併し解散,2015-10-05,1,,,,,ニッショウ,0
162,1180001119985,登記記録の閉鎖等,0,2024-04-11,2024-04-05,株式会社ＯＤＸ,,株式会社,愛知県,春日井市,大泉寺町大池下４４３番地の１４５,,23,206,4860812,,,2024-04-05,合併による解散等,5110001013943,令和６年４月１日新潟県三条市一ノ門二丁目６番２８号株式会社オビタス（5110001013943）に合併し解散,2015-10-05,1,,,,,オーディーエックス,0
171,1180302006998,登記記録の閉鎖等,0,2024-04-11,2024-04-01,有限会社金田印刷,,有限会社,愛知県,豊橋市,石巻本町字大清水９６番地,,23,201,4411115,,,2024-04-01,清算の結了等,,,2015-10-05,1,,,,,カナダインサツ,0
185,1230005000632,登記記録の閉鎖等,0,2024-04-11,2024-03-29,富山県不動産事業協同組合,,その他の設立登記法人,富山県,富山市,元町２丁目３番１１号,,16,201,9300033,,,2024-03-29,清算の結了等,,,2015-10-05,1,,,,,トヤマケンフドウサン,0
207,1290801014623,登記記録の閉鎖等,0,2024-04-11,2024-04-01,マイスター株式会社,,株式会社,福岡県,宮若市,宮田６１０番地５,,40,226,8230011,,,2024-04-01,合併による解散等,9290801014599,令和６年４月１日福岡県宮若市稲光８５０番地株式会社アルファメタル（9290801014599）に合併し解散,2015-10-05,1,,,,,マイスター,0
210,1290802015554,登記記録の閉鎖等,0,2024-04-11,2024-04-01,有限会社山崎建設,00094575,有限会社,福岡県,北九州市八幡西区,香月中央２丁目３番１８号,,40,109,8071102,,,2024-04-01,清算の結了等,,,2015-10-05,1,,,,,ヤマサキケンセツ,0
223,1370001017195,登記記録の閉鎖等,0,2024-04-11,2024-04-03,株式会社プティ・モンターニュ,,株式会社,宮城県,仙台市泉区,桂２丁目９番地の１７,,04,105,9813134,,,2024-04-03,清算の結了等,,,2015-10-05,1,,,,,,0
269,2010401142000,登記記録の閉鎖等,0,2024-04-11,2024-04-01,ＩＮＳＯＵ東京株式会社,,株式会社,東京都,港区,麻布台３丁目５番７号,,13,103,1060041,,,2024-04-01,合併による解散等,8010401081977,令和６年４月１日東京都港区麻布台三丁目５番７号ＩＮＳＯＵ東日本株式会社（8010401081977）に合併し解散,2018-11-13,1,,,,,インソウトウキョウ,0
270,2010401149648,登記記録の閉鎖等,0,2024-04-11,2024-04-04,東京ガスリブソリューションズ株式会社,,株式会社,東京都,港区,海岸１丁目５番２０号,,13,103,1050022,,,2024-04-04,合併による解散等,6010401020516,令和６年４月１日東京都港区海岸一丁目５番２０号東京瓦斯株式会社（6010401020516）に合併し解散,2019-12-09,1,,,,,トウキョウガスリブソリューションズ,0
277,2010403019238,登記記録の閉鎖等,0,2024-04-11,2024-04-01,ＨＩＧＡＳＨＩＫＵＮＯＧＡＨＡＲＡ　ＳＯＬＡＲ合同会社,,合同会社,東京都,港区,虎ノ門１丁目２番８号リニューアブル・ジャパン株式会社内,,13,103,1050001,,,2024-04-01,清算の結了等,,,2018-09-03,1,,,,,ヒガシクノガハラソーラー,0
283,2010505000954,登記記録の閉鎖等,0,2024-04-11,2024-04-02,いろは会商店街振興組合,,その他の設立登記法人,東京都,台東区,日本堤１丁目１８番７号,,13,106,1110021,,,2024-04-02,清算の結了等,,,2015-10-05,1,,,,,イロハカイ,0
289,2010802009665,登記記録の閉鎖等,0,2024-04-11,2024-04-01,有限会社田園調布貴島,,有限会社,東京都,大田区,田園調布３丁目４番４号,,13,111,1450071,,,2024-04-01,清算の結了等,,,2015-10-05,1,,,,,,0
294,2011001028993,登記記録の閉鎖等,0,2024-04-11,2024-04-08,株式会社Ｃｈｅｒｉｓｈｕ,,株式会社,東京都,品川区,上大崎２丁目１５番１９号ＭＧ目黒駅前,,13,109,1410021,,,2024-04-08,合併による解散等,9011001132509,令和６年４月１日神奈川県横浜市西区みなとみらい３－７－１株式会社ＮＡＬＵ（9011001132509）に合併し解散,2015-10-05,1,,,,,チェリッシュ,0
295,2011001095745,登記記録の閉鎖等,0,2024-04-11,2024-04-01,株式会社ＧＥＮＯＶＡマーケティング,,株式会社,東京都,渋谷区,渋谷２丁目２１番１号,,13,113,1500002,,,2024-04-01,清算の結了等,,,2015-10-05,1,,,,,ジェノヴァマーケティング,0
303,2011101035527,登記記録の閉鎖等,0,2024-04-11,2024-04-01,株式会社ピーエスジー,,株式会社,東京都,新宿区,大久保１丁目１番４５－９０２号,,13,104,1690072,,,2024-04-01,合併による解散等,1011101049874,令和６年４月１日東京都新宿区西新宿六丁目２１番１号株式会社ビジュアル・ケイ（1011101049874）に合併し解散,2015-10-05,1,,,,,ピーエスジー,0
310,2011501018585,登記記録の閉鎖等,0,2024-04-11,2024-04-01,陽株式会社,,株式会社,東京都,荒川区,南千住５丁目２０番１１号,,13,118,1160003,,,2024-04-01,合併による解散等,6011501005480,令和６年４月１日東京都荒川区南千住五丁目２０番１１号伊藤工事株式会社（6011501005480）に合併し解散,2015-10-05,1,,,,,ハル,0
312,2011505002429,登記記録の閉鎖等,0,2024-04-11,2024-04-01,一般社団法人美容健康ミエルカ,,その他の設立登記法人,東京都,荒川区,東尾久１丁目３２番６－１５０４号,,13,118,1160012,,,2024-04-01,清算の結了等,,,2021-10-19,1,,,,,ビヨウケンコウミエルカ,0
313,2011602001358,登記記録の閉鎖等,0,2024-04-11,2024-04-03,有限会社エー・アイあんしんサービス,,有限会社,埼玉県,さいたま市中央区,本町東６丁目６番２４－１１４号,,11,105,3380003,,,2024-04-03,清算の結了等,,,2015-10-05,1,,,,,エーアイアンシンサービス,0
314,2011602024796,登記記録の閉鎖等,0,2024-04-11,2024-03-29,有限会社飯島運送店,,有限会社,東京都,練馬区,練馬１丁目２番５号,,13,120,1760001,,,2024-03-29,清算の結了等,,,2024-02-22,1,,,,,イイジマウンソウテン,0
354,2040005007175,登記記録の閉鎖等,0,2024-04-11,2024-04-03,印旛郡市土砂採取業協同組合,,その他の設立登記法人,千葉県,佐倉市,大蛇町４６１番地,,12,212,2850043,,,2024-04-03,清算の結了等,,,2015-10-05,1,,,,,インバグンシドシャサイシュギョウ,0
381,2120001249011,登記記録の閉鎖等,0,2024-04-11,2024-04-02,Ｍｉｍｏｓａ　Ｊａｐａｎ株式会社,,株式会社,大阪府,大阪市淀川区,西宮原２丁目６番１６号新大阪コーポビアネーズ５３６号室,,27,123,5320004,,,2024-04-02,清算の結了等,,,2022-09-26,1,,,,,ミモザジャパン,0
394,2130001024537,登記記録の閉鎖等,0,2024-04-11,2024-04-08,丹後製織株式会社,,株式会社,京都府,京都市北区,紫野南舟岡町３６番地,,26,101,6038225,,,2024-04-08,清算の結了等,,,2015-10-05,1,,,,,タンゴセイショク,0
400,2140001043180,登記記録の閉鎖等,0,2024-04-11,2024-04-02,株式会社タット企画,,株式会社,兵庫県,加古川市,平岡町一色西２丁目３６９番地の１,,28,210,6750117,,,2024-04-02,清算の結了等,,,2015-10-05,1,,,,,タットキカク,0
401,2140001081437,登記記録の閉鎖等,0,2024-04-11,2024-04-03,株式会社楠住建,,株式会社,兵庫県,宝塚市,安倉南１丁目１２番３号,,28,214,6650823,,,2024-04-03,清算の結了等,,,2015-10-05,1,,,,,クスジュウケン,0
407,2140003009980,登記記録の閉鎖等,0,2024-04-11,2024-04-05,合同会社大嶋興産,,合同会社,兵庫県,三田市,下田中２７５番地,,28,219,6691522,,,2024-04-05,清算の結了等,,,2015-10-05,1,,,,,オオシマコウサン,0
422,2210001013787,登記記録の閉鎖等,0,2024-04-11,2024-04-01,株式会社いーの越前,,株式会社,福井県,越前市,今宿町第２０号１番地,,18,209,9150861,,,2024-04-01,合併による解散等,4210001012473,令和６年４月１日福井県越前市今宿町第２０号１番地株式会社ＴＯＰ（4210001012473）に合併し解散,2015-10-05,1,,,,,イーノエチゼン,0
424,2210002012235,登記記録の閉鎖等,0,2024-04-11,2024-04-03,イロハ工業有限会社,,有限会社,福井県,南条郡南越前町,赤萩第３１号７番地,,18,404,9151105,,,2024-04-03,清算の結了等,,,2015-10-05,1,,,,,イロハコウギョウ,0
441,2290001045303,登記記録の閉鎖等,0,2024-04-11,2024-04-05,株式会社岡崎製作所福岡工場,,株式会社,福岡県,嘉麻市,上臼井８６８番地の２,,40,227,8200502,,,2024-04-05,合併による解散等,2140001006682,令和６年４月１日神戸市中央区御幸通三丁目１番３号株式会社岡崎製作所（2140001006682）に合併し解散,2015-10-05,1,,,,,オカザキセイサクショフクオカコウジョウ,0
468,2380001006510,登記記録の閉鎖等,0,2024-04-11,2024-04-02,福島塗料販売株式会社,,株式会社,福島県,郡山市,富久山町久保田字伊賀河原９３番地,,07,203,9638071,,,2024-04-02,清算の結了等,,,2015-10-05,1,,,,,フクシマトリョウハンバイ,0
470,2380002035070,登記記録の閉鎖等,0,2024-04-11,2024-04-03,有限会社フジモールド,,有限会社,福島県,喜多方市,字桜ガ丘１丁目１４７番地３,,07,208,9660802,,,2024-04-03,清算の結了等,,,2015-10-05,1,,,,,フジモールド,0
474,2400002003371,登記記録の閉鎖等,0,2024-04-11,2024-04-02,有限会社盛岡佐藤酒店,,有限会社,岩手県,盛岡市,月が丘３丁目３３番１６号,,03,201,0200121,,,2024-04-02,清算の結了等,,,2015-10-05,1,,,,,モリオカサトウサケテン,0
480,2430001073033,登記記録の閉鎖等,0,2024-04-11,2024-04-01,空知コール興産株式会社,,株式会社,北海道,札幌市中央区,北四条西２０丁目１番２８号,,01,101,0640824,,,2024-04-01,合併による解散等,7430001042264,令和６年４月１日札幌市中央区北四条西二十丁目１番２８号株式会社シー・ワイ（7430001042264）に合併し解散,2017-01-11,1,,,,,ソラチコールコウサン,0
487,2460105001770,登記記録の閉鎖等,0,2024-04-11,2024-04-01,医療法人社団音更こどもクリニック,,その他の設立登記法人,北海道,河東郡音更町,木野西通１５丁目１番地５５,,01,631,0800302,,,2024-04-01,清算の結了等,,,2015-10-05,1,,,,,オトフケコドモクリニック,0
488,2470001013992,登記記録の閉鎖等,0,2024-04-11,2024-04-03,株式会社ＭｕｓｃｌｅＤｏｃｋ,,株式会社,香川県,観音寺市,大野原町花稲７８４番地,,37,205,7691613,,,2024-04-03,清算の結了等,,,2015-10-05,1,,,,,,0
505,3010001084286,登記記録の閉鎖等,0,2024-04-11,2024-03-28,株式会社セシア,,株式会社,福岡県,福岡市博多区,美野島２丁目１６番１３号,,40,132,8120017,,,2024-03-28,清算の結了等,,,2015-10-05,1,,,,,セシア,0
506,3010001116849,登記記録の閉鎖等,0,2024-04-11,2024-04-08,株式会社インター・クレジット・ビューロー,,株式会社,東京都,世田谷区,上馬５丁目２０番１５－３１５号,,13,112,1540011,,,2024-04-08,清算の結了等,,,2015-10-05,1,,,,,インタークレジットビューロー,0
507,3010001125189,登記記録の閉鎖等,0,2024-04-11,2024-04-09,東海産業株式会社,,株式会社,東京都,中央区,晴海１丁目８番１０号晴海トリトンスクエアＸ棟１７階,,13,102,1040053,,,2024-04-09,合併による解散等,2010401057116,令和６年４月１日東京都港区西新橋三丁目２１番８号東日本イワタニガス株式会社（2010401057116）に合併し解散,2015-10-05,1,,,,,トウカイサンギョウ,0
508,3010001132763,登記記録の閉鎖等,0,2024-04-11,2024-04-01,アクサダイレクト生命保険株式会社,,株式会社,東京都,港区,白金１丁目１７番３号,,13,103,1080072,,,2024-04-01,合併による解散等,8010401060741,令和６年４月１日東京都港区白金一丁目１７番３号アクサ生命保険株式会社（8010401060741）に合併し解散,2015-10-05,1,,,,,アクサダイレクトセイメイホケン,0
515,3010401016459,登記記録の閉鎖等,0,2024-04-11,2024-04-08,大成観光交通株式会社,,株式会社,東京都,江東区,白河４丁目３番１４号,,13,108,1350021,,,2024-04-08,合併による解散等,2010401025221,令和６年４月１日東京都文京区後楽一丁目１番８号株式会社日の丸リムジン（2010401025221）に合併し解散,2015-10-05,1,,,,,タイセイカンコウコウツウ,0
518,3010401176105,登記記録の閉鎖等,0,2024-04-11,2024-04-01,株式会社イーストニンジャ,,株式会社,東京都,港区,六本木１丁目６番１号,,13,103,1060032,,,2024-04-01,合併による解散等,2010401166180,令和６年４月１日東京都港区六本木一丁目６番１号株式会社イーストサムライ（2010401166180）に合併し解散,2023-08-04,1,,,,,イーストニンジャ,0
570,3020002093797,登記記録の閉鎖等,0,2024-04-11,2024-04-02,有限会社アライブ,,有限会社,神奈川県,川崎市麻生区,千代ケ丘１丁目１７番地１４,,14,137,2150005,,,2024-04-02,清算の結了等,,,2015-10-05,1,,,,,アライブ,0
574,3021001011709,登記記録の閉鎖等,0,2024-04-11,2024-04-08,大同工業株式会社,,株式会社,神奈川県,相模原市中央区,共和４丁目１２番２号,,14,152,2520234,,,2024-04-08,清算の結了等,,,2015-10-05,1,,,,,ダイドウコウギョウ,0
580,3030001007476,登記記録の閉鎖等,0,2024-04-11,2024-04-05,株式会社フジミック埼玉,,株式会社,埼玉県,さいたま市大宮区,桜木町４丁目２５２番地ユニオンビル２階,,11,103,3300854,,,2024-04-05,合併による解散等,7110001021234,令和６年４月１日新潟県十日町市泉町９２番地株式会社ピクシス・テクノロジーズ（7110001021234）に合併し解散,2015-10-05,1,,,,,フジミックサイタマ,0
614,3080105005454,登記記録の閉鎖等,0,2024-04-11,2024-04-08,特定非営利活動法人静岡県傾聴ボランティアネットワーク,,その他の設立登記法人,静岡県,沼津市,大岡３０８番地の７,,22,203,4100022,,,2024-04-08,清算の結了等,,,2015-10-05,1,,,,,シズオカケンケイチョウボランティアネットワーク,0
641,3120102027422,登記記録の閉鎖等,0,2024-04-11,2024-04-08,有限会社アールリフォームセンター,,有限会社,大阪府,泉佐野市,長滝１３７番地の２,,27,213,5980034,,,2024-04-08,清算の結了等,,,2015-10-05,1,,,,,アールリフォームセンター,0
652,3130005007231,登記記録の閉鎖等,0,2024-04-11,2024-04-03,八百石生産森林組合,,その他の設立登記法人,京都府,船井郡京丹波町,富田谷口１番地,,26,407,6220203,,,2024-04-03,清算の結了等,,,2015-10-05,1,,,,,ハッピャクコク,0
653,3130005016158,登記記録の閉鎖等,0,2024-04-11,2024-04-04,一般社団法人ダンディ塾,,その他の設立登記法人,京都府,京都市下京区,若宮通楊梅下る上錫屋町６７番地,,26,106,6008312,,,2024-04-04,清算の結了等,,,2021-04-20,1,,,,,ダンディジュク,0
655,3140001087144,登記記録の閉鎖等,0,2024-04-11,2024-04-02,株式会社メディカルパートナーズ,,株式会社,兵庫県,西宮市,城ケ堀町６番１２号,,28,204,6620856,,,2024-04-02,清算の結了等,,,2015-10-05,1,,,,,メディカルパートナーズ,0
660,3140002035548,登記記録の閉鎖等,0,2024-04-11,2024-04-04,有限会社加古川流通加工センター,,有限会社,兵庫県,加古川市,野口町長砂７０７番地,,28,210,6750016,,,2024-04-04,清算の結了等,,,2015-10-05,1,,,,,カコガワリュウツウカコウセンター,0
680,3200001009983,登記記録の閉鎖等,0,2024-04-11,2024-04-04,株式会社ジェーアンドジェーエイジェンシイ,,株式会社,岐阜県,岐阜市,橋本町２丁目５２番地,,21,201,5008856,,,2024-04-04,合併による解散等,6200001006276,令和６年４月１日岐阜市加納栄町通七丁目５番地株式会社ロンチェスター（6200001006276）に合併し解散,2015-10-05,1,,,,,ジェーアンドジェーエイジェンシイ,0
685,3200005013395,登記記録の閉鎖等,0,2024-04-11,2024-04-05,一般社団法人ゼロエミッションリーダー教育アカデミー,,その他の設立登記法人,岐阜県,岐阜市,大福町５丁目４１番地１,,21,201,5020934,,,2024-04-05,清算の結了等,,,2022-10-03,1,,,,,ゼロエミッションリーダーキョウイクアカデミー,0
688,3220002009799,登記記録の閉鎖等,0,2024-04-11,2024-04-02,有限会社三映,,有限会社,石川県,白山市,井口町ロ５３番地１,,17,210,9202154,,,2024-04-02,清算の結了等,,,2015-10-05,1,,,,,サンエイ,0
689,3220002010798,登記記録の閉鎖等,0,2024-04-11,2024-04-03,有限会社タック,,有限会社,石川県,小松市,白江町ロ１３番地１,,17,203,9230811,,,2024-04-03,清算の結了等,,,2015-10-05,1,,,,,タック,0
694,3240002009285,登記記録の閉鎖等,0,2024-04-11,2024-04-05,有限会社大成商会,,有限会社,広島県,広島市中区,広瀬北町５番１１号,,34,101,7300803,,,2024-04-05,清算の結了等,,,2015-10-05,1,,,,,タイセイショウカイ,0
700,3260002030933,登記記録の閉鎖等,0,2024-04-11,2024-04-04,有限会社丸永エッグランド,,有限会社,岡山県,勝田郡奈義町,皆木３５１番地１０,,33,623,7081303,,,2024-04-04,合併による解散等,8140001078956,令和６年４月１日兵庫県三田市川除１５０－１丸永株式会社（8140001078956）に合併し解散,2015-10-05,1,,,,,マルナガエッグランド,0
702,3270001005217,登記記録の閉鎖等,0,2024-04-11,2024-04-01,株式会社中部興産,,株式会社,鳥取県,東伯郡琴浦町,大字逢束９５８番地１,00004264,31,371,6892304,,,2024-04-01,合併による解散等,9270001003636,令和６年４月１日鳥取県米子市両三柳２８６４番地１０株式会社ランドサイエンス（9270001003636）に合併し解散,2015-10-05,1,,,,,チュウブコウサン,0
720,3350002008342,登記記録の閉鎖等,0,2024-04-11,2024-04-03,有限会社かりんの森,,有限会社,宮崎県,宮崎市,柳丸町７５番地１６,,45,201,8800844,,,2024-04-03,清算の結了等,,,2015-10-05,1,,,,,カリンノモリ,0
729,3380001011204,登記記録の閉鎖等,0,2024-04-11,2024-04-01,株式会社コーワトラベル,,株式会社,福島県,須賀川市,影沼町２２２番地,,07,207,9620031,,,2024-04-01,清算の結了等,,,2015-10-05,1,,,,,コーワトラベル,0
732,3400001008825,登記記録の閉鎖等,0,2024-04-11,2024-04-05,株式会社カワサキリーディング,,株式会社,岩手県,盛岡市,みたけ５丁目２０番４０号,,03,201,0200122,,,2024-04-05,合併による解散等,9400001004389,令和６年４月１日岩手県盛岡市みたけ五丁目２０番４０号Ｌ・Ｅエスコート株式会社（9400001004389）に合併し解散,2015-10-05,1,,,,,カワサキリーディング,0
751,3470002006581,登記記録の閉鎖等,0,2024-04-11,2024-04-02,有限会社丸秀鮮魚,,有限会社,香川県,高松市,瀬戸内町３０番５号,,37,201,7600012,,,2024-04-02,清算の結了等,,,2015-10-05,1,,,,,マルヒデセンギョ,0
752,3470002009122,登記記録の閉鎖等,0,2024-04-11,2024-04-03,有限会社宮脇ファーマシー,,有限会社,香川県,高松市,宮脇町１丁目３１番１０号冨田ビル１階,,37,201,7600005,,,2024-04-03,清算の結了等,,,2015-10-05,1,,,,,ミヤワキファーマシー,0
754,3480001004156,登記記録の閉鎖等,0,2024-04-11,2024-04-03,株式会社ジャパンテクノロジー,,株式会社,徳島県,徳島市,大原町千代ケ丸１０６番地２,,36,201,7708012,,,2024-04-03,清算の結了等,,,2015-10-05,1,,,,,ジャパンテクノロジー,0
773,4010401029022,登記記録の閉鎖等,0,2024-04-11,2024-03-28,株式会社ミナト工業,,株式会社,東京都,港区,芝２丁目１９番６号,,13,103,1050014,,,2024-03-28,清算の結了等,,,2015-10-05,1,,,,,ミナトコウギョウ,0
776,4010401149646,登記記録の閉鎖等,0,2024-04-11,2024-04-04,株式会社スミレナ,,株式会社,東京都,港区,海岸１丁目５番２０号,,13,103,1050022,,,2024-04-04,合併による解散等,6010401020516,令和６年４月１日東京都港区海岸一丁目５番２０号東京瓦斯株式会社（6010401020516）に合併し解散,2019-12-09,1,,,,,スミレナ,0
785,4010501030474,登記記録の閉鎖等,0,2024-04-11,2024-04-01,関東京楽株式会社,,株式会社,神奈川県,横浜市西区,南幸２丁目２０番５号,,14,103,2200005,,,2024-04-01,合併による解散等,8010501003055,令和６年４月１日神奈川県横浜市西区南幸二丁目２０番５号関東京楽株式会社（8010501003055）に合併し解散,2015-10-05,1,,,,,カントウキョウラク,0
842,4020001141060,登記記録の閉鎖等,0,2024-04-11,2024-04-04,株式会社ジャパンエントランス,,株式会社,神奈川県,横浜市港北区,新横浜２丁目５－１４ＷＩＳＥ・ＮＥＸＴ新横浜３Ｆ,,14,109,2220033,,,2024-04-04,清算の結了等,,,2021-04-22,1,,,,,ジャパンエントランス,0
845,4020002092435,登記記録の閉鎖等,0,2024-04-11,2024-04-03,有限会社千葉商事,,有限会社,神奈川県,川崎市多摩区,東三田２丁目１４－２６－９０１,,14,135,2140033,,,2024-04-03,清算の結了等,,,2015-10-05,1,,,,,,0
854,4021002020419,登記記録の閉鎖等,0,2024-04-11,2024-04-08,有限会社佐伯塗装工業,,有限会社,神奈川県,相模原市中央区,緑が丘２丁目１８番１３号,,14,152,2520225,,,2024-04-08,清算の結了等,,,2015-10-05,1,,,,,サエキトソウコウギョウ,0
884,4060001006152,登記記録の閉鎖等,0,2024-04-11,2024-04-08,株式会社ＮＦ計測技研,,株式会社,栃木県,塩谷郡高根沢町,大字宝積寺２０２１番地５,,09,386,3291233,,,2024-04-08,合併による解散等,3020001136004,令和６年４月１日横浜市港北区綱島東六丁目３番２０号株式会社エヌエフ回路設計ブロック（3020001136004）に合併し解散,2015-10-05,1,,,,,エヌエフケイソクギケン,0
887,4080101020010,登記記録の閉鎖等,0,2024-04-11,2024-04-09,株式会社眞栄機工,,株式会社,静岡県,富士市,松岡１５２４番地の１グレイトピア２０３号,,22,210,4160909,,,2024-04-09,清算の結了等,,,2017-08-17,1,,,,,シンエイキコウ,0
890,4110002010585,登記記録の閉鎖等,0,2024-04-11,2024-04-03,有限会社フードアシスト,,有限会社,新潟県,新潟市北区,木崎字尾山前７７８番地３５,,15,101,9503304,,,2024-04-03,清算の結了等,,,2015-10-05,1,,,,,フードアシスト,0
896,4120001075018,登記記録の閉鎖等,0,2024-04-11,2024-04-08,日本板硝子ウインテック株式会社,,株式会社,大阪府,大阪市中央区,本町１丁目７番７号,,27,128,5410053,,,2024-04-08,合併による解散等,3010501030079,令和６年４月１日東京都墨田区本所四丁目１９番３号本所吾妻橋ＤＪビル４階日本板硝子Ｓ＆Ｓ株式会社（3010501030079）に合併し解散,2015-10-05,1,,,,,ニホンイタガラスウインテック,0
904,4120002059614,登記記録の閉鎖等,0,2024-04-11,2024-04-01,有限会社はぜはた接骨院,,有限会社,大阪府,大阪市平野区,長吉出戸８丁目６番１１号,,27,126,5470011,,,2024-04-01,清算の結了等,,,2015-10-05,1,,,,,ハゼハタセッコツイン,0
933,4180002077924,登記記録の閉鎖等,0,2024-04-11,2024-04-01,有限会社アットホームケアユタカ,,有限会社,愛知県,一宮市,新生３丁目６番２５号,,23,203,4910912,,,2024-04-01,合併による解散等,7180001065209,令和６年４月１日名古屋市中区丸の内三丁目２０番２号株式会社エーアールオー（7180001065209）に合併し解散,2015-10-05,1,,,,,アットホームケアユタカ,0
936,4180301012152,登記記録の閉鎖等,0,2024-04-11,2024-04-01,株式会社エスケイテクニカ,,株式会社,愛知県,豊川市,小田渕町３丁目４８番地,,23,207,4420844,,,2024-04-01,合併による解散等,7180301031827,令和６年４月１日愛知県豊川市小田渕町三丁目４７番地株式会社ＳＫ（7180301031827）に合併し解散,2015-10-05,1,,,,,エスケイテクニカ,0
954,4290002004859,登記記録の閉鎖等,0,2024-04-11,2024-03-26,有限会社西戸崎モータース,,有限会社,福岡県,福岡市東区,大岳２丁目１３番１７号,,40,131,8110322,,,2024-03-26,清算の結了等,,,2015-10-05,1,,,,,サイトザキモータース,0
966,4290802003432,登記記録の閉鎖等,0,2024-04-11,2024-04-01,有限会社すぎもと動物病院,,有限会社,福岡県,北九州市小倉南区,田原新町２丁目４番１６－１０３号,,40,107,8000226,,,2024-04-01,清算の結了等,,,2015-10-05,1,,,,,スギモトドウブツビョウイン,0
971,4300002009567,登記記録の閉鎖等,0,2024-04-11,2024-04-08,有限会社チクホーロジコム,,有限会社,佐賀県,鳥栖市,姫方町３２９番地１,,41,203,8410023,,,2024-04-08,合併による解散等,5020001000827,令和６年３月３１日神奈川県横浜市泉区弥生台７２番地１３東京高速陸運株式会社（5020001000827）に合併し解散,2015-10-05,1,,,,,チクホーロジコム,0
981,4360001011758,登記記録の閉鎖等,0,2024-04-11,2024-04-08,農業生産法人株式会社ゆうじ,,株式会社,沖縄県,豊見城市,字嘉数６２６番地６,,47,212,9010202,,,2024-04-08,清算の結了等,,,2015-10-05,1,,,,,,0
997,4400002004987,登記記録の閉鎖等,0,2024-04-11,2024-04-05,有限会社ライフ・エナジー,,有限会社,岩手県,盛岡市,みたけ５丁目２０番４０号,,03,201,0200122,,,2024-04-05,合併による解散等,9400001004389,令和６年４月１日岩手県盛岡市みたけ五丁目２０番４０号Ｌ・Ｅエスコート株式会社（9400001004389）に合併し解散,2015-10-05,1,,,,,ライフエナジー,0
1011,4460101001095,登記記録の閉鎖等,0,2024-04-11,2024-04-01,トヨタカローラ帯広株式会社,,株式会社,北海道,帯広市,大通南２丁目１番地,,01,207,0800010,,,2024-04-01,合併による解散等,6460101000319,令和６年４月１日北海道帯広市大通南六丁目１７番地トヨタモビリティ帯広株式会社（6460101000319）に合併し解散,2015-10-05,1,,,,,トヨタカローラオビヒロ,0
1047,5010501032057,登記記録の閉鎖等,0,2024-04-11,2024-04-03,株式会社富士,,株式会社,東京都,台東区,西浅草３丁目１４番８号,,13,106,1110035,,,2024-04-03,清算の結了等,,,2015-10-05,1,,,,,フジ,0
1050,5010602030315,登記記録の閉鎖等,0,2024-04-11,2024-04-09,有限会社Ｃ．Ｍ．Ｊ,,有限会社,東京都,中央区,日本橋２丁目１５番１０号,,13,102,1030027,,,2024-04-09,合併による解散等,4370001013217,令和６年４月１日仙台市泉区泉中央一丁目７番地の１シップヘルスケアファーマシー東日本株式会社（4370001013217）に合併し解散,2015-10-05,1,,,,,シーエムジェー,0
1075,5011305001446,登記記録の閉鎖等,0,2024-04-11,2024-04-04,特定非営利活動法人カモミール,,その他の設立登記法人,東京都,杉並区,宮前３丁目６番２７号村田陽子方,,13,115,1680081,,,2024-04-04,清算の結了等,,,2015-10-05,1,,,,,カモミール,0
1122,5030001029304,登記記録の閉鎖等,0,2024-04-11,2024-04-09,株式会社雅建装,,株式会社,埼玉県,狭山市,広瀬台４丁目１１番地,,11,215,3501328,,,2024-04-09,合併による解散等,3011801027376,令和６年４月１日東京都足立区鹿浜三丁目３番３号株式会社アベルコ（3011801027376）に合併し解散,2015-10-05,1,,,,,ミヤビケンソウ,0
1149,5050001030210,登記記録の閉鎖等,0,2024-04-11,2024-04-04,オリジン加工株式会社,,株式会社,茨城県,常総市,古間木１５０５番地１,,08,211,3002724,,,2024-04-04,清算の結了等,,,2015-10-05,1,,,,,オリジンカコウ,0
1163,5080101006487,登記記録の閉鎖等,0,2024-04-11,2024-04-08,日本電算開発株式会社,,株式会社,静岡県,三島市,中２５９番地の２,,22,206,4110833,,,2024-04-08,清算の結了等,,,2015-10-05,1,,,,,ニホンデンサンカイハツ,0
1187,5120103004468,登記記録の閉鎖等,0,2024-04-11,2024-04-08,合同会社Ｗｉｌｌｉｕｍ,,合同会社,大阪府,堺市北区,長曽根町１３０番地４２,,27,146,5918025,,,2024-04-08,清算の結了等,,,2021-12-08,1,,,,,ウィリウム,0
1194,5130003007743,登記記録の閉鎖等,0,2024-04-11,2024-03-29,合同会社Ｗｉｎｎｅｒ　Ｇｌｏｂａｌ１号,,合同会社,京都府,京都市南区,東九条室町２３番地,,26,107,6018001,,,2024-03-29,清算の結了等,,,2022-02-08,1,,,,,ウィナーグローバルイチゴウ,0
1205,5160002014085,登記記録の閉鎖等,0,2024-04-11,2024-04-03,有限会社深草運輸,,有限会社,滋賀県,守山市,大林町２６６番地,,25,207,5240054,,,2024-04-03,清算の結了等,,,2015-10-05,1,,,,,フカクサウンユ,0
1209,5180302026555,登記記録の閉鎖等,0,2024-04-11,2024-04-01,有限会社ルミエール,,有限会社,愛知県,西尾市,緑町５丁目４６番地１,,23,213,4450804,,,2024-04-01,清算の結了等,,,2015-10-05,1,,,,,ルミエール,0
1242,5290802004603,登記記録の閉鎖等,0,2024-04-11,2024-04-02,有限会社中井自動車,,有限会社,福岡県,北九州市小倉北区,日明５丁目４番９号,,40,106,8030831,,,2024-04-02,清算の結了等,,,2015-10-05,1,,,,,ナカイジドウシャ,0
1265,5370003004923,登記記録の閉鎖等,0,2024-04-11,2024-04-01,合同会社ＫＥＩ企画,,合同会社,宮城県,仙台市太白区,八本松２丁目８番１２－１０４号,,04,104,9820001,,,2024-04-01,清算の結了等,,,2020-09-04,1,,,,,ケイキカク,0
1269,5400001000821,登記記録の閉鎖等,0,2024-04-11,2024-04-02,白石開発株式会社,,株式会社,岩手県,盛岡市,黒川２３地割７０番地１,,03,201,0200402,,,2024-04-02,清算の結了等,,,2015-10-05,1,,,,,シライシカイハツ,0
1270,5400002000630,登記記録の閉鎖等,0,2024-04-11,2024-04-02,有限会社大内商店,,有限会社,岩手県,盛岡市,愛宕町２番４２号,,03,201,0200013,,,2024-04-02,清算の結了等,,,2015-10-05,1,,,,,オオウチショウテン,0
1278,5430001046028,登記記録の閉鎖等,0,2024-04-11,2024-04-01,株式会社カルナ,,株式会社,東京都,中央区,東日本橋３丁目９番５号プロスタイル日本橋馬喰町９０３号室,,13,102,1030004,,,2024-04-01,清算の結了等,,,2015-10-05,1,,,,,カルナ,0
1283,5460001000394,登記記録の閉鎖等,0,2024-04-11,2024-04-09,釧路交通株式会社,,株式会社,北海道,釧路市,星が浦大通５丁目５番４９号,,01,206,0840912,,,2024-04-09,合併による解散等,2011801002719,令和６年４月１日東京都葛飾区四つ木五丁目５番１８号太陽自動車株式会社（2011801002719）に合併し解散,2015-10-05,1,,,,,クシロコウツウ,0
1285,5460402000480,登記記録の閉鎖等,0,2024-04-11,2024-04-04,マルオ小川水産有限会社,,有限会社,北海道,根室市,長節１４６番地１５,,01,223,0881785,,,2024-04-04,清算の結了等,,,2015-10-05,1,,,,,マルオオガワスイサン,0
1294,6000020209953,登記記録の閉鎖等,0,2024-04-11,2024-03-31,白樺湖下水道組合,,地方公共団体,長野県,茅野市,塚原２丁目６－１,,20,214,3910002,,,2024-03-31,その他の清算の結了等,,,2015-10-05,1,Sewerage association of Lake Shirakaba,Nagano,"2-6-1, Tsukahara, Chino shi",,シラカバコゲスイドウクミアイ,0
1307,6010401141808,登記記録の閉鎖等,0,2024-04-11,2024-04-01,日本バイオメタン株式会社,,株式会社,東京都,港区,芝２丁目５番１０号芝公園ＮＤビル６階,,13,103,1050014,,,2024-04-01,合併による解散等,5010001181040,令和６年４月１日東京都港区芝二丁目５番１０号芝公園ＮＤビルアーセック・バイオエナジー株式会社（5010001181040）に合併し解散,2018-11-02,1,,,,,ニホンバイオメタン,0
1314,6010501036313,登記記録の閉鎖等,0,2024-04-11,2024-04-02,株式会社墾,,株式会社,東京都,台東区,蔵前２丁目３番３号Ｅ’Ｓビル２階,,13,106,1110051,,,2024-04-02,清算の結了等,,,2015-10-05,1,,,,,コン,0
1316,6010701011768,登記記録の閉鎖等,0,2024-04-11,2024-04-08,富士電機ＩＴセンター株式会社,,株式会社,東京都,品川区,大崎１丁目１１番２号,,13,109,1410032,,,2024-04-08,合併による解散等,9020001071492,令和６年４月１日川崎市川崎区田辺新田１番１号富士電機株式会社（9020001071492）に合併し解散,2015-10-05,1,,,,,フジデンキアイティセンター,0
1327,6011001094495,登記記録の閉鎖等,0,2024-04-11,2024-04-01,株式会社アイフリークスマイルズ,,株式会社,東京都,新宿区,新宿２丁目１番１１号,,13,104,1600022,,,2024-04-01,合併による解散等,2290001021923,令和６年４月１日東京都新宿区新宿二丁目１番１１号株式会社アイフリークモバイル（2290001021923）に合併し解散,2015-10-05,1,,,,,アイフリークスマイルズ,0
1359,6012401000712,登記記録の閉鎖等,0,2024-04-11,2024-04-03,株式会社システムテクニカ,,株式会社,東京都,府中市,住吉町３丁目９２番地の７,,13,206,1830034,,,2024-04-03,清算の結了等,,,2015-10-05,1,,,,,システムテクニカ,0
1366,6013301014414,登記記録の閉鎖等,0,2024-04-11,2024-04-08,富士コンタクト株式会社,,株式会社,東京都,豊島区,東池袋１丁目４１番７号,,13,116,1700013,,,2024-04-08,合併による解散等,7180001017589,令和６年４月１日名古屋市中区葵三丁目２１番１９号株式会社メニコン（7180001017589）に合併し解散,2015-10-05,1,,,,,フジコンタクト,0
1367,6020001016343,登記記録の閉鎖等,0,2024-04-11,2024-04-09,株式会社横浜ステーシヨンビル,,株式会社,神奈川県,横浜市西区,南幸１丁目１番１号,,14,103,2200005,,,2024-04-09,合併による解散等,5021001037207,令和６年４月１日神奈川県平塚市代官町１番１号株式会社ＪＲ横浜湘南シティクリエイト（5021001037207）に合併し解散,2015-10-05,1,,,,,ヨコハマステーシヨンビル,0
1373,6020002020377,登記記録の閉鎖等,0,2024-04-11,2024-04-04,有限会社明野精機,,有限会社,神奈川県,横浜市旭区,下川井町２１９８番地の４,,14,112,2410806,,,2024-04-04,清算の結了等,,,2015-10-05,1,,,,,,0
1375,6020002103116,登記記録の閉鎖等,0,2024-04-11,2024-04-04,有限会社ファミリエ・タチバナ,,有限会社,神奈川県,川崎市高津区,千年８３８番地２,,14,134,2130022,,,2024-04-04,清算の結了等,,,2015-10-05,1,,,,,ファミリエタチバナ,0
1391,6030002014576,登記記録の閉鎖等,0,2024-04-11,2024-04-03,有限会社ランクアップ,,有限会社,埼玉県,さいたま市南区,大字太田窪１６９６番地１,,11,108,3360015,,,2024-04-03,清算の結了等,,,2015-10-05,1,,,,,ランクアップ,0
1412,6080001004887,登記記録の閉鎖等,0,2024-04-11,2024-04-02,株式会社松本商店,,株式会社,静岡県,静岡市葵区,一番町９１番地の１,,22,101,4200071,,,2024-04-02,清算の結了等,,,2015-10-05,1,,,,,マツモトショウテン,0
1415,6080102012376,登記記録の閉鎖等,0,2024-04-11,2024-04-09,有限会社マネージメントアクア,,有限会社,静岡県,駿東郡長泉町,竹原２４２番地の２１,,22,342,4110944,,,2024-04-09,清算の結了等,,,2015-10-05,1,,,,,マネージメントアクア,0
1432,6120001092671,登記記録の閉鎖等,0,2024-04-11,2024-04-08,富士フイルムワコーロジスティックス株式会社,,株式会社,大阪府,大阪市中央区,道修町３丁目１番２号,,27,128,5410045,,,2024-04-08,合併による解散等,9350001005038,令和６年４月１日宮崎県宮崎市清武町木原３５５８番地富士フイルムワコーケミカル株式会社（9350001005038）に合併し解散,2015-10-05,1,,,,,フジフイルムワコーロジスティックス,0
1433,6120001110689,登記記録の閉鎖等,0,2024-04-11,2024-04-08,株式会社阪急阪神ホテルズ,,株式会社,大阪府,大阪市北区,芝田１丁目１６番１号,,27,127,5300012,,,2024-04-08,合併による解散等,7120901021811,令和６年４月１日大阪府池田市栄町１番１号阪急電鉄株式会社（7120901021811）に合併し解散,2015-10-05,1,,,,,ハンキュウハンシンホテルズ,0
1434,6120001112504,登記記録の閉鎖等,0,2024-04-11,2024-04-01,株式会社Ｈ２Ｂ,,株式会社,大阪府,大阪市住吉区,我孫子東３丁目１番２３号,,27,120,5580013,,,2024-04-01,合併による解散等,6120001259568,令和６年４月１日大阪市住吉区苅田七丁目４番５号日本セラピーホールディング株式会社（6120001259568）に合併し解散,2015-10-05,1,,,,,エイチツービー,0
1435,6120001130324,登記記録の閉鎖等,0,2024-04-11,2024-04-02,株式会社ゾフィープロダクツ,,株式会社,大阪府,大阪市中央区,難波千日前１１番６号,,27,128,5420075,,,2024-04-02,清算の結了等,,,2015-10-05,1,,,,,ゾフィープロダクツ,0
1441,6120005003047,登記記録の閉鎖等,0,2024-04-11,2024-04-05,公益社団法人関西労働衛生技術センター,,その他の設立登記法人,大阪府,大阪市中央区,常盤町２丁目１番１２号,,27,128,5400028,,,2024-04-05,合併による解散等,7120005015256,令和６年４月１日大阪市中央区石町二丁目５番３号公益社団法人大阪労働基準連合会（7120005015256）に合併し解散,2015-10-05,1,,,,,カンサイロウドウエイセイギジュツセンター,0
1461,6160002007658,登記記録の閉鎖等,0,2024-04-11,2024-04-04,有限会社介護支援センター水野,,有限会社,滋賀県,米原市,長岡６００番地,,25,214,5210242,,,2024-04-04,清算の結了等,,,2015-10-05,1,,,,,カイゴシエンセンターミズノ,0
1467,6180301011821,登記記録の閉鎖等,0,2024-04-11,2024-04-01,千路工業株式会社,,株式会社,愛知県,豊川市,小田渕町３丁目４７番地,,23,207,4420844,,,2024-04-01,合併による解散等,7180301031827,令和６年４月１日愛知県豊川市小田渕町三丁目４７番地株式会社ＳＫ（7180301031827）に合併し解散,2015-10-05,1,,,,,センジコウギョウ,0
1470,6190002010031,登記記録の閉鎖等,0,2024-04-11,2024-04-02,有限会社リースキン伊勢,,有限会社,三重県,伊勢市,船江１丁目４番１４号,,24,203,5160008,,,2024-04-02,清算の結了等,,,2015-10-05,1,,,,,リースキンイセ,0
1475,6200002006523,登記記録の閉鎖等,0,2024-04-11,2024-04-05,有限会社ナカムラ建具,,有限会社,岐阜県,山県市,佐賀５７０番地の２１,,21,215,5012114,,,2024-04-05,清算の結了等,,,2015-10-05,1,,,,,ナカムラタテグ,0
1482,6210002013964,登記記録の閉鎖等,0,2024-04-11,2024-04-02,有限会社森下組,,有限会社,福井県,小浜市,加斗第１８号４５番地,,18,204,9170045,,,2024-04-02,清算の結了等,,,2015-10-05,1,,,,,モリシタグミ,0
1493,6240002015438,登記記録の閉鎖等,0,2024-04-11,2024-04-08,有限会社正木組,,有限会社,広島県,広島市安佐南区,祇園１丁目１８番８号,,34,105,7310138,,,2024-04-08,清算の結了等,,,2015-10-05,1,,,,,マサキグミ,0
1504,6280001002409,登記記録の閉鎖等,0,2024-04-11,2024-04-09,株式会社さんれい製造,,株式会社,島根県,安来市,安来町１０５４番地,,32,206,6920011,,,2024-04-09,合併による解散等,4270001003293,令和６年４月１日鳥取県米子市旗ヶ崎２１４７番地株式会社さんれいフーズ（4270001003293）に合併し解散,2015-10-05,1,,,,,サンレイセイゾウ,0
1522,6350002016631,登記記録の閉鎖等,0,2024-04-11,2024-04-01,有限会社新光測量,,有限会社,宮崎県,日南市,星倉５丁目１１番７号,,45,204,8892533,,,2024-04-01,清算の結了等,,,2015-10-05,1,,,,,シンコウソクリョウ,0
1539,6380002031933,登記記録の閉鎖等,0,2024-04-11,2024-04-02,有限会社佐藤実建築工房,,有限会社,福島県,会津若松市,大塚２丁目１０番１３号,,07,202,9650014,,,2024-04-02,清算の結了等,,,2015-10-05,1,,,,,サトウミノルケンチクコウボウ,0
1595,7010401093073,登記記録の閉鎖等,0,2024-04-11,2024-04-01,ビジネスリンクジャパン株式会社,,株式会社,東京都,港区,北青山２丁目７番２６号Ｌａｎｄｗｏｒｋ青山ビル２階,,13,103,1070061,,,2024-04-01,清算の結了等,,,2015-10-05,1,,,,,ビジネスリンクジャパン,0
1599,7010401116445,登記記録の閉鎖等,0,2024-04-11,2024-04-03,株式会社アンテグラル,,株式会社,徳島県,徳島市,南末広町４番５３号,,36,201,7700865,,,2024-04-03,清算の結了等,,,2015-10-05,1,,,,,アンテグラル,0
1617,7010905001481,登記記録の閉鎖等,0,2024-04-11,2024-04-04,特定非営利活動法人栄養衛生相談室,,その他の設立登記法人,東京都,世田谷区,上馬２丁目３２番１３号,,13,112,1540011,,,2024-04-04,清算の結了等,,,2015-10-05,1,,,,,エイヨウエイセイソウダンシツ,0
1627,7011101012851,登記記録の閉鎖等,0,2024-04-11,2024-03-28,株式会社チカダ,,株式会社,東京都,新宿区,西新宿６丁目２６番１０号,,13,104,1600023,,,2024-03-28,清算の結了等,,,2015-10-05,1,,,,,チカダ,0
1632,7011201000442,登記記録の閉鎖等,0,2024-04-11,2024-04-08,株式会社岩崎製作所,,株式会社,東京都,豊島区,池袋２丁目１４番４号,,13,116,1710014,,,2024-04-08,合併による解散等,5120001050011,令和６年４月１日大阪市西淀川区御幣島三丁目２番１１号株式会社ダイフク（5120001050011）に合併し解散,2015-10-05,1,,,,,イワサキセイサクショ,0
1636,7011501002064,登記記録の閉鎖等,0,2024-04-11,2024-04-08,神協運輸株式会社,,株式会社,東京都,北区,浮間４丁目２２番１号,,13,117,1150051,,,2024-04-08,合併による解散等,3030001051029,令和６年４月１日埼玉県春日部市南栄町１３番地１１埼玉配送株式会社（3030001051029）に合併し解散,2015-10-05,1,,,,,カンキョウウンユ,0
1644,7012401025122,登記記録の閉鎖等,0,2024-04-11,2024-04-03,株式会社アナライザー,,株式会社,東京都,国立市,富士見台３丁目２５番地１８,,13,215,1860003,,,2024-04-03,清算の結了等,,,2015-10-05,1,,,,,アナライザー,0
1647,7012403004561,登記記録の閉鎖等,0,2024-04-11,2024-04-03,クズリ合同会社,,合同会社,東京都,府中市,宮町１丁目１１番地の１－１階,,13,206,1830023,,,2024-04-03,清算の結了等,,,2020-10-16,1,,,,,クズリ,0
1657,7030001134820,登記記録の閉鎖等,0,2024-04-11,2024-04-09,株式会社デカメ,,株式会社,埼玉県,さいたま市大宮区,土手町３丁目８８－１,,11,103,3300801,,,2024-04-09,合併による解散等,1010401099828,令和６年４月１日東京都港区新橋三丁目８番５号株式会社ドラゴンボール（1010401099828）に合併し解散,2020-01-21,1,,,,,デカメ,0
1696,7110005004623,登記記録の閉鎖等,0,2024-04-11,2024-04-02,新潟県製粉工業協同組合,,その他の設立登記法人,新潟県,新発田市,本町３丁目６番１８号,,15,206,9570054,,,2024-04-02,清算の結了等,,,2015-10-05,1,,,,,ニイガタケンセイフンコウギョウ,0
1702,7120001188023,登記記録の閉鎖等,0,2024-04-11,2024-04-05,株式会社山源,,株式会社,三重県,伊賀市,西之澤１４３０番地,,24,216,5191426,,,2024-04-05,合併による解散等,1122001013208,令和６年４月１日京都市左京区聖護院蓮華蔵町２番地６ヴィラ聖護院４０３号室谷山アルミ株式会社（1122001013208）に合併し解散,2015-10-05,1,,,,,ヤマゲン,0
1703,7120001220520,登記記録の閉鎖等,0,2024-04-11,2024-04-01,株式会社トップパーティー,,株式会社,大阪府,大阪市北区,中之島４丁目３番２５号,,27,127,5300005,,,2024-04-01,清算の結了等,,,2019-04-19,1,,,,,トップパーティー,0
1707,7120005021675,登記記録の閉鎖等,0,2024-04-11,2024-04-09,一般社団法人Ｂ－ＢＡＬＬＹ’ｄ,,その他の設立登記法人,大阪府,枚方市,田宮本町１０番３号,,27,210,5730024,,,2024-04-09,清算の結了等,,,2020-07-09,1,,,,,ビバリード,0
1730,7140002040750,登記記録の閉鎖等,0,2024-04-11,2024-04-04,有限会社ケイテック,,有限会社,兵庫県,尼崎市,立花町１丁目２６番２４号,,28,202,6610025,,,2024-04-04,清算の結了等,,,2015-10-05,1,,,,,ケイテック,0
1747,7220001002719,登記記録の閉鎖等,0,2024-04-11,2024-04-03,株式会社小鍜冶本店,,株式会社,石川県,金沢市,諸江町中丁５９３番地,,17,201,9200016,,,2024-04-03,清算の結了等,,,2015-10-05,1,,,,,コカジホンテン,0
1748,7220002004136,登記記録の閉鎖等,0,2024-04-11,2024-04-04,有限会社トップ,,有限会社,石川県,金沢市,玉鉾２丁目４０７番地２,,17,201,9218002,,,2024-04-04,清算の結了等,,,2015-10-05,1,,,,,トップ,0
1749,7220002014705,登記記録の閉鎖等,0,2024-04-11,2024-04-01,有限会社熊木福祉会,,有限会社,石川県,七尾市,中島町浜田ロ部１１番地５,,17,202,9292241,,,2024-04-01,合併による解散等,2220001018389,令和６年４月１日石川県金沢市才田町丁６５番地１株式会社鶴の恩返し（2220001018389）に合併し解散,2015-10-05,1,,,,,クマキフクシカイ,0
1751,7220002015967,登記記録の閉鎖等,0,2024-04-11,2024-04-01,有限会社かわばた,,有限会社,石川県,鳳珠郡穴水町,字緑ケ丘いの５の４番地,,17,461,9270033,,,2024-04-01,合併による解散等,5220002016034,令和６年４月１日石川県鳳珠郡穴水町字緑ケ丘いの５番地４株式会社ＭＡＸ（5220002016034）に合併し解散,2015-10-05,1,,,,,カワバタ,0
1758,7240002045161,登記記録の閉鎖等,0,2024-04-11,2024-04-05,エステートイシダ有限会社,,有限会社,広島県,福山市,新涯町１丁目１番６号,,34,207,7210955,,,2024-04-05,清算の結了等,,,2015-10-05,1,,,,,エステートイシダ,0
1775,7290803003354,登記記録の閉鎖等,0,2024-04-11,2024-04-02,合同会社ＣＯＭＳＴＡ,,合同会社,福岡県,北九州市八幡西区,河桃町５番２８号,,40,109,8060016,,,2024-04-02,清算の結了等,,,2019-06-04,1,,,,,コムスタ,0
1794,7400001013648,登記記録の閉鎖等,0,2024-04-11,2024-04-01,岩手電力株式会社,,株式会社,岩手県,北上市,和賀町後藤２地割１０６－１６０,,03,206,0240335,,,2024-04-01,合併による解散等,4400001006241,令和６年４月１日岩手県北上市和賀町後藤２地割１０６番１６０北良株式会社（4400001006241）に合併し解散,2017-04-20,1,,,,,イワテデンリョク,0
1818,8010001087706,登記記録の閉鎖等,0,2024-04-11,2024-04-01,株式会社日本ストラテジック・ファイナンス総合研究所,,株式会社,東京都,千代田区,一番町２番地７,,13,101,1020082,,,2024-04-01,合併による解散等,1010001100508,令和６年４月１日東京都千代田区一番町２番地７株式会社マージングポイント（1010001100508）に合併し解散,2015-10-05,1,,,,,ニホンストラテジックファイナンスソウゴウケンキュウジョ,0
1836,8010401013253,登記記録の閉鎖等,0,2024-04-11,2024-04-05,新第一塩ビ株式会社,,株式会社,東京都,千代田区,外神田１丁目７番５号,,13,101,1010021,,,2024-04-05,合併による解散等,1250001009080,令和６年４月１日山口県周南市御影町１番１号株式会社トクヤマ（1250001009080）に合併し解散,2015-10-05,1,,,,,シンダイイチエンビ,0
1857,8010601047423,登記記録の閉鎖等,0,2024-04-11,2024-04-04,株式会社金尚,,株式会社,東京都,江東区,東陽２丁目３－１,,13,108,1350016,,,2024-04-04,清算の結了等,,,2015-10-05,1,,,,,キンショウ,0
1868,8011003010028,登記記録の閉鎖等,0,2024-04-11,2024-04-02,Ｎｕｔａｎｉｘ　Ｊａｐａｎ　ＤＣ合同会社,,合同会社,東京都,渋谷区,桜丘町２６番１号セルリアンタワー１５階,,13,113,1500031,,,2024-04-02,清算の結了等,,,2019-06-10,1,,,,,ニュータニックスジャパンディーシー,0
1873,8011101093965,登記記録の閉鎖等,0,2024-04-11,2024-04-02,見守アセットマネジメント株式会社,,株式会社,東京都,新宿区,山吹町３５３－１Ｙ－１ビル６０１号室,,13,104,1620801,,,2024-04-02,清算の結了等,,,2021-02-18,1,,,,,ミマモリアセットマネジメント,0
1876,8011102014318,登記記録の閉鎖等,0,2024-04-11,2024-04-01,有限会社イーエックス・キュー,,有限会社,東京都,新宿区,大久保１丁目１番４５－９０２号,,13,104,1690072,,,2024-04-01,合併による解散等,1011101049874,令和６年４月１日東京都新宿区西新宿六丁目２１番１号株式会社ビジュアル・ケイ（1011101049874）に合併し解散,2015-10-05,1,,,,,イーエックスキュー,0
1894,8011802010046,登記記録の閉鎖等,0,2024-04-11,2024-04-01,有限会社うえだビル,,有限会社,東京都,台東区,花川戸１丁目１５番１－９０３号,,13,106,1110033,,,2024-04-01,合併による解散等,6010501005417,令和６年４月１日東京都台東区花川戸一丁目１５番１－９０３号昭光商事株式会社（6010501005417）に合併し解散,2015-10-05,1,,,,,ウエダビル,0
1896,8011802021951,登記記録の閉鎖等,0,2024-04-11,2024-04-05,有限会社ヨシオカハウジング,,有限会社,東京都,足立区,保塚町９番１４号,,13,121,1210072,,,2024-04-05,清算の結了等,,,2015-10-05,1,,,,,ヨシオカハウジング,0
1898,8012305001433,登記記録の閉鎖等,0,2024-04-11,2024-04-04,特定非営利活動法人ひとりとみんな,,その他の設立登記法人,東京都,町田市,鶴川２丁目１５番地　６の４０１,,13,209,1950061,,,2024-04-04,清算の結了等,,,2015-10-05,1,,,,,ヒトリトミンナ,0
1909,8030001003727,登記記録の閉鎖等,0,2024-04-11,2024-04-01,鮫島運送株式会社,,株式会社,埼玉県,さいたま市見沼区,大字東新井９５７番地,,11,104,3370032,,,2024-04-01,合併による解散等,9030001023220,令和６年４月１日埼玉県戸田市南町６番２８ノーヒ・ロジテック関東株式会社（9030001023220）に合併し解散,2015-10-05,1,,,,,サメジマウンソウ,0
1913,8030001054951,登記記録の閉鎖等,0,2024-04-11,2024-04-01,正和企業株式会社,,株式会社,埼玉県,坂戸市,千代田４丁目１１番４２号,,11,239,3500214,,,2024-04-01,合併による解散等,8030001054423,令和６年４月１日埼玉県坂戸市千代田四丁目１１番４２号株式会社オーサク興業（8030001054423）に合併し解散,2015-10-05,1,,,,,セイワキギョウ,0
1920,8030005017608,登記記録の閉鎖等,0,2024-04-11,2024-04-04,ＮＰＯ法人ＭＵＳＫＡＮ,,その他の設立登記法人,栃木県,宇都宮市,清原台５丁目３６番１２号,,09,201,3213223,,,2024-04-04,清算の結了等,,,2015-10-05,1,,,,,ムスカン,0
1930,8040002070542,登記記録の閉鎖等,0,2024-04-11,2024-04-01,有限会社協和アルミ,,有限会社,千葉県,君津市,貞元４５０番地,,12,225,2991133,,,2024-04-01,清算の結了等,,,2015-10-05,1,,,,,キョウワアルミ,0
1935,8060001004169,登記記録の閉鎖等,0,2024-04-11,2024-04-04,松原木材不動産株式会社,,株式会社,栃木県,宇都宮市,東宝木町９番２２号,,09,201,3200062,,,2024-04-04,清算の結了等,,,2015-10-05,1,,,,,マツバラモクザイフドウサン,0
1938,8060002002130,登記記録の閉鎖等,0,2024-04-11,2024-04-03,有限会社岡田通信,,有限会社,栃木県,宇都宮市,北若松原１丁目１１番５号,,09,201,3210153,,,2024-04-03,清算の結了等,,,2015-10-05,1,,,,,オカダツウシン,0
1940,8060002021824,登記記録の閉鎖等,0,2024-04-11,2024-04-08,株式会社荒井モータース,,株式会社,栃木県,那須塩原市,橋本町１番１号,,09,213,3250043,,,2024-04-08,合併による解散等,9020001020367,令和６年４月１日横浜市港北区篠原町１２００番地三和エナジー株式会社（9020001020367）に合併し解散,2015-10-05,1,,,,,アライモータース,0
1946,8080101007409,登記記録の閉鎖等,0,2024-04-11,2024-04-09,株式会社栄昌丸,,株式会社,静岡県,沼津市,内浦三津１２２番地の４８,,22,203,4100223,,,2024-04-09,清算の結了等,,,2015-10-05,1,,,,,エイショウマル,0
1948,8080402001630,登記記録の閉鎖等,0,2024-04-11,2024-04-10,有限会社大城製作所,,有限会社,静岡県,浜松市中央区,神ケ谷町８６４３番地の１,,22,138,4328005,,,2024-04-10,清算の結了等,,,2015-10-05,1,,,,,,0
1960,8120001261448,登記記録の閉鎖等,0,2024-04-11,2024-04-01,ＳＵＮＸ分割準備株式会社,,株式会社,大阪府,門真市,大字門真１００６番地,,27,223,5710050,,,2024-04-01,合併による解散等,5120001235594,令和６年４月１日大阪府門真市大字門真１００６番地パナソニックインダストリー株式会社（5120001235594）に合併し解散,2024-01-19,1,,,,,サンクスブンカツジュンビ,0
1999,8200002009615,登記記録の閉鎖等,0,2024-04-11,2024-04-08,有限会社彫木,,有限会社,岐阜県,本巣市,見延１３４番地,,21,218,5010413,,,2024-04-08,清算の結了等,,,2015-10-05,1,,,,,ホリキ,0
2006,8240002003969,登記記録の閉鎖等,0,2024-04-11,2024-04-05,有限会社金井果実店,,有限会社,広島県,広島市東区,戸坂新町２丁目１８番２号,,34,102,7320012,,,2024-04-05,清算の結了等,,,2015-10-05,1,,,,,カナイカジツテン,0
2009,8250002012853,登記記録の閉鎖等,0,2024-04-11,2024-04-05,有限会社サードロックトレーディング,,有限会社,山口県,下関市,上田中町３丁目５番７号,,35,201,7500009,,,2024-04-05,清算の結了等,,,2015-10-05,1,,,,,サードロックトレーディング,0
2013,8290001046312,登記記録の閉鎖等,0,2024-04-11,2024-04-05,株式会社岡崎製作所九州工場,,株式会社,福岡県,嘉麻市,西郷１１４０番地,,40,227,8200505,,,2024-04-05,合併による解散等,2140001006682,令和６年４月１日神戸市中央区御幸通三丁目１番３号株式会社岡崎製作所（2140001006682）に合併し解散,2015-10-05,1,,,,,オカザキセイサクショキュウシュウコウジョウ,0
2035,8360001032783,登記記録の閉鎖等,0,2024-04-11,2024-04-08,株式会社琉康クリエイト,,株式会社,沖縄県,豊見城市,字伊良波５５２番地１,,47,212,9010232,,,2024-04-08,清算の結了等,,,2023-11-06,1,,,,,,0
2069,9010001016969,登記記録の閉鎖等,0,2024-04-11,2024-04-01,三和エステート株式会社,,株式会社,東京都,千代田区,富士見２丁目２番２号,,13,101,1020071,,,2024-04-01,合併による解散等,7010001082798,令和６年４月１日東京都千代田区富士見一丁目７番７号三和レーベン株式会社（7010001082798）に合併し解散,2015-10-05,1,,,,,サンワエステート,0
2082,9010103000920,登記記録の閉鎖等,0,2024-04-11,2024-04-03,合同会社エブロン,,合同会社,東京都,八王子市,めじろ台１丁目１番地１めじろ台マンション５０３号,,13,201,1930833,,,2024-04-03,清算の結了等,,,2016-01-12,1,,,,,,0
2083,9010401118101,登記記録の閉鎖等,0,2024-04-11,2024-04-01,株式会社ｏｃｔｏ,,株式会社,東京都,港区,東麻布２丁目３３番１２号,,13,103,1060044,,,2024-04-01,清算の結了等,,,2015-10-05,1,,,,,オクト,0
2084,9010401145896,登記記録の閉鎖等,0,2024-04-11,2024-04-04,プレステージ・マネジメント・サービス株式会社,,株式会社,北海道,虻田郡倶知安町,字山田１６９番地３２,,01,400,0440081,,,2024-04-04,清算の結了等,,,2019-05-31,1,,,,,プレステージマネージメントサービス,0
2103,9010502010025,登記記録の閉鎖等,0,2024-04-11,2024-04-02,有限会社堀尾木工製作所,,有限会社,東京都,台東区,竜泉３丁目３０番２号,,13,106,1100012,,,2024-04-02,清算の結了等,,,2015-10-05,1,,,,,ホリオモッコウセイサクジョ,0
2109,9010902001144,登記記録の閉鎖等,0,2024-04-11,2024-04-08,アロハ・カー・レンタル有限会社,,有限会社,東京都,江東区,東砂５丁目１９番９号,,13,108,1360074,,,2024-04-08,合併による解散等,1011101080912,令和６年４月１日東京都中央区日本橋人形町一丁目１９番５号株式会社ジェイトラスト（1011101080912）に合併し解散,2015-10-05,1,,,,,アロハカーレンタル,0
2111,9011001091804,登記記録の閉鎖等,0,2024-04-11,2024-04-04,株式会社ＴＦＧ,,株式会社,東京都,目黒区,中目黒５丁目１２番２０－３０４号,,13,110,1530061,,,2024-04-04,清算の結了等,,,2015-10-05,1,,,,,ティエフジー,0
2131,9011501010783,登記記録の閉鎖等,0,2024-04-11,2024-04-01,株式会社ドリームアクト,,株式会社,東京都,北区,王子２丁目１２番１０号,,13,117,1140002,,,2024-04-01,合併による解散等,9011501004323,令和６年４月１日東京都北区王子二丁目１２番１０号株式会社マウンティン（9011501004323）に合併し解散,2015-10-05,1,,,,,ドリームアクト,0
2134,9011701020491,登記記録の閉鎖等,0,2024-04-11,2024-04-03,株式会社中川建設,,株式会社,東京都,江戸川区,北篠崎２丁目２１番１７号,,13,123,1330053,,,2024-04-03,清算の結了等,,,2017-01-12,1,,,,,ナカガワケンセツ,0
2142,9013301033650,登記記録の閉鎖等,0,2024-04-11,2024-03-29,株式会社アクシウム,,株式会社,東京都,品川区,大井１丁目１１番１号大井西銀座ビルＤ棟３階,,13,109,1400014,,,2024-03-29,合併による解散等,5013303003036,令和６年３月２９日東京都品川区大井一丁目１１番１号大井西銀座ビルＤ棟３階合同会社ペタルマカンパニー（5013303003036）に合併し解散,2015-10-05,1,,,,,アクシウム,0
2153,9020002045421,登記記録の閉鎖等,0,2024-04-11,2024-04-03,株式会社ムラキ,,株式会社,神奈川県,横浜市中区,元町３丁目１１８番地,,14,104,2310861,,,2024-04-03,清算の結了等,,,2015-10-05,1,,,,,ムラキ,0
2189,9080403004862,登記記録の閉鎖等,0,2024-04-11,2024-04-05,あらた合同会社,,合同会社,静岡県,袋井市,高尾８１０番地の２,,22,216,4370023,,,2024-04-05,清算の結了等,,,2023-09-04,1,,,,,アラタ,0
2240,9180001073845,登記記録の閉鎖等,0,2024-04-11,2024-04-05,株式会社ワンデックス,,株式会社,愛知県,春日井市,大泉寺町大池下４４３番地の１４５,,23,206,4860812,,,2024-04-05,合併による解散等,5110001013943,令和６年４月１日新潟県三条市一ノ門二丁目６番２８号株式会社オビタス（5110001013943）に合併し解散,2015-10-05,1,,,,,ワンデックス,0
2241,9180001089783,登記記録の閉鎖等,0,2024-04-11,2024-04-05,株式会社星医療酸器東海,,株式会社,愛知県,小牧市,大字舟津１２９８番地,,23,219,4850073,,,2024-04-05,合併による解散等,2011801011868,令和６年４月１日東京都足立区入谷七丁目１１番１８号株式会社星医療酸器（2011801011868）に合併し解散,2015-10-05,1,,,,,ホシイリョウサンキトウカイ,0
2264,9270002007784,登記記録の閉鎖等,0,2024-04-11,2024-04-01,新和トレーディング有限会社,,有限会社,鳥取県,境港市,元町１２４番地２,,31,204,6840032,,,2024-04-01,合併による解散等,1270001003800,令和６年４月１日鳥取県境港市元町１２４番地１新和産業株式会社（1270001003800）に合併し解散,2015-10-05,1,,,,,シンワトレーディング,0
2265,9280001008444,登記記録の閉鎖等,0,2024-04-11,2024-04-05,株式会社ムーンスパーク,,株式会社,島根県,出雲市,今市町北本町１丁目９番地１ポレスター今市町ブライトコート３０４,,32,203,6930002,,,2024-04-05,清算の結了等,,,2021-05-27,1,,,,,ムーンスパーク,0
2291,9330001010634,登記記録の閉鎖等,0,2024-04-11,2024-04-05,株式会社熊本管財,,株式会社,熊本県,山鹿市,久原４２１１番地,,43,208,8610522,,,2024-04-05,合併による解散等,9330001010279,令和６年４月１日熊本県山鹿市久原４２１１番地株式会社園田産業（9330001010279）に合併し解散,2015-10-05,1,,,,,クマモトカンザイ,0
2300,9360003012650,登記記録の閉鎖等,0,2024-04-11,2024-03-18,合同会社ＴＥＥＮＡＧＥＲ,,合同会社,沖縄県,石垣市,字大川２３８―２,,47,207,9070022,,,2024-03-18,清算の結了等,,,2023-01-18,1,,,,,ティーンエイジャー,0
2304,9380002027466,登記記録の閉鎖等,0,2024-04-11,2024-04-02,有限会社雷や,,有限会社,福島県,いわき市,平字三町目１０番地の２,,07,204,9708026,,,2024-04-02,清算の結了等,,,2015-10-05,1,,,,,カミナリヤ,0
2305,9380003005462,登記記録の閉鎖等,0,2024-04-11,2024-04-03,ＳＧＥＴ村上福岡メガソーラー合同会社,,合同会社,福島県,相馬市,中村字桜ケ丘８４番地アイワビルド株式会社内,,07,209,9760042,,,2024-04-03,清算の結了等,,,2023-05-19,1,,,,,エスゲットムラカミフクオカメガソーラー,0
2312,9430001081228,登記記録の閉鎖等,0,2024-04-11,2024-04-01,共栄ホールディングス株式会社,,株式会社,北海道,札幌市中央区,大通西６丁目１０番地１１,,01,101,0600042,,,2024-04-01,合併による解散等,9430001033740,令和６年４月１日札幌市中央区大通西六丁目１０番地１１北都交通株式会社（9430001033740）に合併し解散,2020-04-13,1,,,,,キョウエイホールディングス,0
