sequenceNumber,corporateNumber,process,correct,updateDate,changeDate,name,nameImageId,kind,prefectureName,cityName,streetNumber,addressImageId,prefectureCode,cityCode,postCode,addressOutside,addressOutsideImageId,closeDate,closeCause,successorCorporateNumber,changeCause,assignmentDate,latest,enName,enPrefectureName,enCityName,enAddressOutside,furigana,hihyoji
5,1010001253677,新規,0,2025-04-11,2025-04-11,株式会社ＶＩＶＡｒａｇｅ,,株式会社,東京都,中央区,八丁堀２丁目３番９号,,13,102,1040032,,,,,,,2025-04-11,1,,,,,ビバレッジ,0
6,1010001253941,新規,0,2025-04-11,2025-04-11,株式会社トリプルリンクス,,株式会社,東京都,中央区,日本橋室町１丁目１１番１２号日本橋水野ビル７階,,13,102,1030022,,,,,,,2025-04-11,1,,,,,トリプルリンクス,0
7,1010001254056,新規,0,2025-04-11,2025-04-11,株式会社ＳｂｙＭ,,株式会社,東京都,中央区,銀座１丁目２２番１１号銀座大竹ビジデンス２Ｆ,,13,102,1040061,,,,,,,2025-04-11,1,,,,,エスバイエム,0
8,1010001254080,新規,0,2025-04-11,2025-04-11,株式会社コネクト,,株式会社,東京都,中央区,日本橋馬喰町２丁目２番３号グランカーサ日本橋馬喰町１１０２号室,,13,102,1030002,,,,,,,2025-04-11,1,,,,,コネクト,0
9,1010001254097,新規,0,2025-04-11,2025-04-11,ダイセー五霞プロジェクト株式会社,,株式会社,東京都,千代田区,平河町１丁目７番３号,,13,101,1020093,,,,,,,2025-04-11,1,,,,,ダイセーゴカプロジェクト,0
12,1010005039858,新規,0,2025-04-11,2025-04-11,一般社団法人ネイルウェルビーイング協会,,その他の設立登記法人,東京都,文京区,湯島３丁目１９番１１号,,13,105,1130034,,,,,,,2025-04-11,1,,,,,ネイルウェルビーイングキョウカイ,0
18,1010401189298,新規,0,2025-04-11,2025-04-11,ＡＩＨ株式会社,,株式会社,東京都,港区,新橋４丁目６番１５号日新建物新橋ビル４階,,13,103,1050004,,,,,,,2025-04-11,1,,,,,エーアイエイチ,0
19,1010401189414,新規,0,2025-04-11,2025-04-11,株式会社レスティア,,株式会社,東京都,港区,三田１丁目１１番２２号ＳＳＴビル１階,,13,103,1080073,,,,,,,2025-04-11,1,,,,,レスティア,0
20,1010401189430,新規,0,2025-04-11,2025-04-11,株式会社ＳＮＤ,,株式会社,東京都,港区,六本木３丁目２番２号六本木グランドタワーレジデンス２０７号室,,13,103,1060032,,,,,,,2025-04-11,1,,,,,エスエヌディー,0
21,1010401189505,新規,0,2025-04-11,2025-04-11,ＮＭＢネモフィラ株式会社,,株式会社,東京都,港区,新橋４丁目３０番６号京急中はらビル５Ｆ,,13,103,1050004,,,,,,,2025-04-11,1,,,,,エヌエムビーネモフィラ,0
22,1010401189629,新規,0,2025-04-11,2025-04-11,株式会社安律国際,,株式会社,東京都,港区,新橋３丁目４番１０号１階,,13,103,1050004,,,,,,,2025-04-11,1,,,,,アンリツコクサイ,0
23,1010403034857,新規,0,2025-04-11,2025-04-11,合同会社八咫観音,,合同会社,東京都,港区,芝浦３丁目６番１０号田町サンハイツ３０９号室,,13,103,1080023,,,,,,,2025-04-11,1,,,,,ヤタカノン,0
27,1010601067114,新規,0,2025-04-11,2025-04-11,株式会社Ｍ＆Ｔ,,株式会社,東京都,江東区,亀戸１丁目７番３号パークノヴァ亀戸２０１号室,,13,108,1360071,,,,,,,2025-04-11,1,,,,,エムアンドティー,0
28,1010701047511,新規,0,2025-04-11,2025-04-11,マイネイバー株式会社,,株式会社,東京都,品川区,大崎３丁目６－２１ニュー大崎マンション３０４号室,,13,109,1410032,,,,,,,2025-04-11,1,,,,,マイネイバー,0
29,1010701047536,新規,0,2025-04-11,2025-04-11,マグニファイテック株式会社,,株式会社,東京都,品川区,西品川１丁目１番１号住友不動産大崎ガーデンタワー９階ＴＵＮＮＥＬＴＯＫＹＯ,,13,109,1410033,,,,,,,2025-04-11,1,,,,,マグニファイテック,0
41,1010901057161,新規,0,2025-04-11,2025-04-11,株式会社ＦｏｒＥｖｅｒｙｏｎｅ,,株式会社,東京都,世田谷区,三軒茶屋２丁目１９番１８号,,13,112,1540024,,,,,,,2025-04-11,1,,,,,フォーエブリーワン,0
42,1010901057178,新規,0,2025-04-11,2025-04-11,シンクロファルマ株式会社,,株式会社,東京都,世田谷区,東玉川１丁目２１番１９号,,13,112,1580084,,,,,,,2025-04-11,1,,,,,シンクロファルマ,0
48,1011001168527,新規,0,2025-04-11,2025-04-11,株式会社ＰＡＸＩＳ,,株式会社,東京都,渋谷区,道玄坂１丁目１０番８号渋谷道玄坂東急ビル２Ｆ－Ｃ,,13,113,1500043,,,,,,,2025-04-11,1,,,,,パクシス,0
49,1011001168857,新規,0,2025-04-11,2025-04-11,株式会社Ｐａｃｈｉｒａ,,株式会社,東京都,渋谷区,道玄坂１丁目１６番６号二葉ビル８ｂ,,13,113,1500043,,,,,,,2025-04-11,1,,,,,パキラ,0
50,1011001168873,新規,0,2025-04-11,2025-04-11,株式会社Ｔｅｃｈ　Ａｗｅｓｏｍｅ,,株式会社,東京都,渋谷区,道玄坂１丁目１０番８号渋谷道玄坂東急ビル２Ｆ－Ｃ,,13,113,1500043,,,,,,,2025-04-11,1,,,,,,0
51,1011003021394,新規,0,2025-04-11,2025-04-11,合同会社ヘブンメディア,,合同会社,東京都,渋谷区,恵比寿西２丁目４番８号ウィンド恵比寿ビル８Ｆ,,13,113,1500021,,,,,,,2025-04-11,1,,,,,ヘブンメディア,0
55,1011101111254,新規,0,2025-04-11,2025-04-11,株式会社エイジェックＡＩ,,株式会社,東京都,新宿区,西新宿１丁目２５番１号新宿センタービル４６階,,13,104,1600023,,,,,,,2025-04-11,1,,,,,エイジェックエーアイ,0
56,1011101111270,新規,0,2025-04-11,2025-04-11,ＧＥＣ幼児教育コンサルティング株式会社,,株式会社,東京都,新宿区,西新宿１丁目２６番２号新宿野村ビル３２階,,13,104,1600023,,,,,,,2025-04-11,1,,,,,ジーイーシーヨウジキョウイクコンサルティング,0
57,1011103015783,新規,0,2025-04-11,2025-04-11,合同会社ＡＭＩ　ＤＲＥＡＭ,,合同会社,東京都,新宿区,新宿２丁目１２番１３号新宿アントレサロンビル２階,,13,104,1600022,,,,,,,2025-04-11,1,,,,,アミドリーム,0
60,1011303005502,新規,0,2025-04-11,2025-04-11,合同会社びびっと,,合同会社,東京都,杉並区,成田東１丁目３８－９川名ビル１階,,13,115,1660015,,,,,,,2025-04-11,1,,,,,ビビット,0
66,1011701028237,新規,0,2025-04-11,2025-04-11,Ｏｒｉｅｎｔ　Ｂｒｉｄｇｅ株式会社,,株式会社,東京都,江戸川区,西小岩５丁目１３番１３号－１６６,,13,123,1330057,,,,,,,2025-04-11,1,,,,,オリエントブリッジ,0
67,1011701028245,新規,0,2025-04-11,2025-04-11,ＹＡＮＰＥＰ　ＢＩＯＴＥＣＨ　ＪＡＰＡＮ株式会社,,株式会社,東京都,江戸川区,平井５丁目４４番６号,,13,123,1320035,,,,,,,2025-04-11,1,,,,,ヤンペップバイオテックジャパン,0
72,1012401042949,新規,0,2025-04-11,2025-04-11,株式会社マユシステムズ,,株式会社,東京都,武蔵野市,吉祥寺本町１丁目２０番１号吉祥寺永谷シティプラザ１００２,,13,203,1800004,,,,,,,2025-04-11,1,,,,,マユシステムズ,0
73,1012801023895,新規,0,2025-04-11,2025-04-11,株式会社ＩＮＮＯＶＡＲＥ,,株式会社,東京都,東大和市,中央１丁目５３９番地の１５,,13,220,2070015,,,,,,,2025-04-11,1,,,,,インノバーレ,0
74,1012803003697,新規,0,2025-04-11,2025-04-11,合同会社サムトリニティ,,合同会社,東京都,立川市,錦町１丁目２０－２１、２０７,,13,202,1900022,,,,,,,2025-04-11,1,,,,,サムトリニティ,0
81,1020001162142,新規,0,2025-04-11,2025-04-11,株式会社コスモスシステム,,株式会社,神奈川県,横浜市神奈川区,広台太田町４番地２１,,14,102,2210824,,,,,,,2025-04-11,1,,,,,コスモスシステム,0
82,1020001162241,新規,0,2025-04-11,2025-04-11,ＩＳ不動産株式会社,,株式会社,神奈川県,横浜市磯子区,中原４丁目２０番１３号,,14,107,2350036,,,,,,,2025-04-11,1,,,,,アイエスフドウサン,0
85,1020003028242,新規,0,2025-04-11,2025-04-11,合同会社モバイルオーダー,,合同会社,神奈川県,横浜市中区,竹之丸１３２番地１１,,14,104,2310847,,,,,,,2025-04-11,1,,,,,モバイルオーダー,0
97,1030001165937,新規,0,2025-04-11,2025-04-11,株式会社和合堂,,株式会社,埼玉県,深谷市,新戒１４０１,,11,218,3660019,,,,,,,2025-04-11,1,,,,,ワゴウドウ,0
103,1030003026550,新規,0,2025-04-11,2025-04-11,合同会社ＨＡＳＥＫＯ,,合同会社,埼玉県,熊谷市,中西３丁目２番３号,,11,202,3600013,,,,,,,2025-04-11,1,,,,,ハセコー,0
104,1030005022102,新規,0,2025-04-11,2025-04-11,一般社団法人ツナギノ森,,その他の設立登記法人,埼玉県,さいたま市大宮区,桜木町２丁目３大宮マルイ７階,,11,103,3300854,,,,,,,2025-04-11,1,,,,,ツナギノモリ,0
105,1030005022110,新規,0,2025-04-11,2025-04-11,医療法人有医会,,その他の設立登記法人,埼玉県,さいたま市中央区,円阿弥２丁目１１番２１号,,11,105,3380007,,,,,,,2025-04-11,1,,,,,アリイカイ,0
109,1040003027317,新規,0,2025-04-11,2025-04-11,トリコ合同会社,,合同会社,千葉県,千葉市稲毛区,園生町４９４番地１１,,12,103,2630051,,,,,,,2025-04-11,1,,,,,トリコ,0
110,1040003027325,新規,0,2025-04-11,2025-04-11,合同会社及川,,合同会社,千葉県,千葉市中央区,椿森５丁目３番１０号フローラ椿森２０２号,,12,101,2600042,,,,,,,2025-04-11,1,,,,,,0
113,1040005022720,新規,0,2025-04-11,2025-04-11,医療法人社団ＬＥＶＥＮ,,その他の設立登記法人,千葉県,流山市,おおたかの森南３丁目８番地ＬＥＶＥＮおおたかの森２階,,12,220,2700139,,,,,,,2025-04-11,1,,,,,レブン,0
115,1060001038099,新規,0,2025-04-11,2025-04-11,株式会社コネクト,,株式会社,栃木県,宇都宮市,西川田町１００２番地２３,,09,201,3210151,,,,,,,2025-04-11,1,,,,,コネクト,0
118,1070003005872,新規,0,2025-04-11,2025-04-11,合同会社さぁくる,,合同会社,群馬県,伊勢崎市,茂呂町２丁目３５１４番地１１号ＳＴＬＵＣＥ２Ａ,,10,204,3720034,,,,,,,2025-04-11,1,,,,,サァクル,0
119,1080101025441,新規,0,2025-04-11,2025-04-11,株式会社ｂｌ‐ｏｏｍ,,株式会社,静岡県,富士宮市,西小泉町５０番地の９,,22,207,4180026,,,,,,,2025-04-11,1,,,,,,0
120,1080105006495,新規,0,2025-04-11,2025-04-11,エンゼルハイム吉原管理組合法人,,その他の設立登記法人,静岡県,富士市,吉原５丁目１番１,,22,210,4170051,,,,,,,2025-04-11,1,,,,,エンゼルハイムヨシワラ,0
137,1120001274340,新規,0,2025-04-11,2025-04-11,常盤貿易株式会社,,株式会社,大阪府,大阪市淀川区,西三国１丁目１７－１５シャトー西三国３階３０７号室,,27,123,5320006,,,,,,,2025-04-11,1,,,,,トキワボウエキ,0
138,1120001274349,新規,0,2025-04-11,2025-04-11,株式会社Ｔ＆Ｍグローバルリンク,,株式会社,大阪府,大阪市北区,東天満１丁目２番１－２５０７号,,27,127,5300044,,,,,,,2025-04-11,1,,,,,ティーアンドエムグローバルリンク,0
139,1120001274398,新規,0,2025-04-11,2025-04-11,株式会社エントオル,,株式会社,大阪府,大阪市中央区,西心斎橋１丁目１３番１８号,,27,128,5420086,,,,,,,2025-04-11,1,,,,,エントオル,0
140,1120001274456,新規,0,2025-04-11,2025-04-11,株式会社Ｅｑｕｉｔｙ,,株式会社,大阪府,大阪市北区,堂島３丁目３番２８－３０１号,,27,127,5300003,,,,,,,2025-04-11,1,,,,,エクイティ,0
144,1120003029065,新規,0,2025-04-11,2025-04-11,ＡＮＯＹＡＭＡ合同会社,,合同会社,大阪府,大阪市中央区,大手通１丁目３番１１－１１０２号,,27,128,5400021,,,,,,,2025-04-11,1,,,,,アノヤマ,0
147,1120101071464,新規,0,2025-04-11,2025-04-11,株式会社ビリケン,,株式会社,大阪府,堺市中区,八田南之町３３０番地７,,27,142,5998263,,,,,,,2025-04-11,1,,,,,ビリケン,0
150,1120103006393,新規,0,2025-04-11,2025-04-11,合同会社平田企画,,合同会社,大阪府,堺市南区,鴨谷台２丁３番３－１５０５号,,27,145,5900138,,,,,,,2025-04-11,1,,,,,ヒラタキカク,0
151,1122001039070,新規,0,2025-04-11,2025-04-11,株式会社エスアイ建設,,株式会社,大阪府,東大阪市,池之端町１０番１２号,,27,227,5798002,,,,,,,2025-04-11,1,,,,,エスアイケンセツ,0
159,1130003010370,新規,0,2025-04-11,2025-04-11,合同会社ココレ,,合同会社,京都府,京都市左京区,聖護院中町４番地３,,26,103,6068324,,,,,,,2025-04-11,1,,,,,ココレ,0
160,1130003010379,新規,0,2025-04-11,2025-04-11,合同会社Ｔ‐Ｆｏｒｅｓｔ,,合同会社,京都府,京都市下京区,小稲荷町８５番地２Ｇｒａｎｄ－Ｋ京都駅前ビル２０１,,26,106,6008208,,,,,,,2025-04-11,1,,,,,ティーフォレスト,0
172,1140001138048,新規,0,2025-04-11,2025-04-11,株式会社ＷＩＬＬ　Ｃ．Ｂ　ＤＥＳＩＧＮ,,株式会社,兵庫県,宝塚市,野上５丁目４番９０号,,28,214,6650022,,,,,,,2025-04-11,1,,,,,ウィルシービーデザイン,0
178,1170001018569,新規,0,2025-04-11,2025-04-11,株式会社ＨＡＫ,,株式会社,和歌山県,和歌山市,井戸２５５番地１５,,30,201,6400352,,,,,,,2025-04-11,1,,,,,ハク,0
185,1180001166359,新規,0,2025-04-11,2025-04-11,株式会社Ｂｅ　Ｓｗａｙｅｄ,,株式会社,愛知県,名古屋市東区,代官町９番５号－７０２,,23,102,4610002,,,,,,,2025-04-11,1,,,,,ビースウェイド,0
186,1180001166367,新規,0,2025-04-11,2025-04-11,株式会社フラッテン,,株式会社,愛知県,北名古屋市,鹿田東海３－３,,23,234,4810004,,,,,,,2025-04-11,1,,,,,フラッテン,0
192,1180003028284,新規,0,2025-04-11,2025-04-11,塗装のミカタ合同会社,,合同会社,愛知県,あま市,甚目寺松山５９番地第二松本ビル１０４,,23,237,4901111,,,,,,,2025-04-11,1,,,,,トソウノミカタ,0
193,1180301039685,新規,0,2025-04-11,2025-04-11,Ｊｅｓ東海通建株式会社,,株式会社,愛知県,豊橋市,中岩田２丁目２番地の８,,23,201,4400832,,,,,,,2025-04-11,1,,,,,ジェイイーエストウカイツウケン,0
194,1180301039702,新規,0,2025-04-11,2025-04-11,株式会社ゴトウ総研,,株式会社,愛知県,豊川市,中央通２丁目１３番地,,23,207,4420051,,,,,,,2025-04-11,1,,,,,ゴトウソウケン,0
195,1180303006527,新規,0,2025-04-11,2025-04-11,合同会社Ｌｅｇａｃｙ,,合同会社,愛知県,豊田市,聖心町３丁目８６番地３６,,23,211,4710844,,,,,,,2025-04-11,1,,,,,レガシー,0
197,1190001032139,新規,0,2025-04-11,2025-04-11,株式会社田中ライス,,株式会社,三重県,津市,久居元町２２３６番地,,24,201,5141125,,,,,,,2025-04-11,1,,,,,タナカライス,0
198,1190001032155,新規,0,2025-04-11,2025-04-11,株式会社篤工業,,株式会社,三重県,四日市市,東日野２丁目８番８号,,24,202,5100941,,,,,,,2025-04-11,1,,,,,トクコウギョウ,0
201,1190003005002,新規,0,2025-04-11,2025-04-11,合同会社のだまクリーンサービス,,合同会社,三重県,津市,久居桜が丘町１９００―１５７,,24,201,5141111,,,,,,,2025-04-11,1,,,,,ノダマクリーンサービス,0
205,1210001020132,新規,0,2025-04-11,2025-04-11,株式会社７＆Ｃｏ．,,株式会社,福井県,鯖江市,丸山町１丁目３番１８号,,18,207,9160019,,,,,,,2025-04-11,1,,,,,セブンアンドコウ,0
207,1220001026608,新規,0,2025-04-11,2025-04-11,能登島みらい株式会社,,株式会社,石川県,七尾市,能登島向田町ろ部４０番地,,17,202,9260211,,,,,,,2025-04-11,1,,,,,ノトジマミライ,0
208,1220001026616,新規,0,2025-04-11,2025-04-11,株式会社志金沢,,株式会社,石川県,金沢市,昭和町１２番７号金駅ビル３階,,17,201,9200856,,,,,,,2025-04-11,1,,,,,ココロザシカナザワ,0
210,1220003003984,新規,0,2025-04-11,2025-04-11,合同会社ヤマダ工業,,合同会社,石川県,羽咋郡宝達志水町,河原ヌ１８５番地,,17,386,9291303,,,,,,,2025-04-11,1,,,,,ヤマダコウギョウ,0
214,1240001064795,新規,0,2025-04-11,2025-04-11,株式会社Ｐｏｓｔ　Ｆｏｏｔａｇｅ,,株式会社,広島県,広島市安芸区,矢野東２丁目２０番１１－５号,,34,107,7360083,,,,,,,2025-04-11,1,,,,,ポストフッテージ,0
219,1250003003692,新規,0,2025-04-11,2025-04-11,合同会社ＩＮＦＩＥＬＤＳ,,合同会社,山口県,宇部市,岩鼻町７番１８号,,35,202,7550810,,,,,,,2025-04-11,1,,,,,インフィールズ,0
220,1260001040092,新規,0,2025-04-11,2025-04-11,株式会社ムラセデンキ,,株式会社,岡山県,備前市,伊部１８３２番地１,,33,211,7050001,,,,,,,2025-04-11,1,,,,,ムラセデンキ,0
223,1290001109546,新規,0,2025-04-11,2025-04-11,株式会社創和経営コンサルティング,,株式会社,福岡県,福岡市東区,水谷３丁目１４番１７号,,40,131,8130041,,,,,,,2025-04-11,1,,,,,ソウワケイエイコンサルティング,0
224,1290001109661,新規,0,2025-04-11,2025-04-11,株式会社ネクシア・プロパティ,,株式会社,福岡県,福岡市博多区,博多駅東２丁目８－２５,,40,132,8120013,,,,,,,2025-04-11,1,,,,,,0
230,1290005019691,新規,0,2025-04-11,2025-04-11,一般社団法人ワンネス一の会,,その他の設立登記法人,福岡県,福岡市中央区,荒戸２丁目３番１７－１００７号室,,40,133,8100062,,,,,,,2025-04-11,1,,,,,ワンネスハジメノカイ,0
231,1290005019709,新規,0,2025-04-11,2025-04-11,一般社団法人三宅スポーツクラブ,,その他の設立登記法人,福岡県,太宰府市,通古賀５丁目５番５１号シャーメゾン太宰府１０１号,,40,221,8180104,,,,,,,2025-04-11,1,,,,,ミヤケスポーツクラブ,0
237,1320003004634,新規,0,2025-04-11,2025-04-11,合同会社山想,,合同会社,大分県,宇佐市,大字別府４８３番地の２,,44,211,8790462,,,,,,,2025-04-11,1,,,,,ヤマソウ,0
252,1380003006014,新規,0,2025-04-11,2025-04-11,合同会社ＦＯＮ,,合同会社,福島県,郡山市,大槻町字原田９３番地県営住宅４０棟０１８号,,07,203,9630201,,,,,,,2025-04-11,1,,,,,,0
260,1420001019070,新規,0,2025-04-11,2025-04-11,いやさかホールディングス株式会社,,株式会社,青森県,上北郡六ヶ所村,大字尾駮字家ノ前７６番地４,,02,411,0393212,,,,,,,2025-04-11,1,,,,,イヤサカホールディングス,0
262,1430001094170,新規,0,2025-04-11,2025-04-11,株式会社Ｒｅｌａｙ,,株式会社,北海道,札幌市東区,北四十九条東１４丁目１１番１号,,01,103,0070849,,,,,,,2025-04-11,1,,,,,リレー,0
268,1450001014589,新規,0,2025-04-11,2025-04-11,株式会社阿部ファーム,,株式会社,北海道,上川郡当麻町,伊香牛３区,,01,454,0781333,,,,,,,2025-04-11,1,,,,,アベファーム,0
269,1470003002862,新規,0,2025-04-11,2025-04-11,合同会社まんどえいど,,合同会社,香川県,高松市,仏生山町甲１４５０番地２,,37,201,7618078,,,,,,,2025-04-11,1,,,,,マンドエイド,0
278,1500003003485,新規,0,2025-04-11,2025-04-11,合同会社クボタ,,合同会社,愛媛県,松山市,南土居町２０２番地２,,38,201,7911116,,,,,,,2025-04-11,1,,,,,クボタ,0
289,2010003047052,新規,0,2025-04-11,2025-04-11,Ｍａｐｓ＆Ｃｏ合同会社,,合同会社,東京都,千代田区,五番町１２番地７－２０４３,,13,101,1020076,,,,,,,2025-04-11,1,,,,,マップスアンドコー,0
290,2010003047060,新規,0,2025-04-11,2025-04-11,合同会社Ｒｉｖｅｒｌｅａ,,合同会社,東京都,千代田区,内神田２丁目１４番２号,,13,101,1010047,,,,,,,2025-04-11,1,,,,,リバリー,0
291,2010005039873,新規,0,2025-04-11,2025-04-11,一般社団法人Ｌｏｔｕｓ　Ｃｏｎｎｅｃｔ　Ｓｅｒｖｉｃｅ協会,,その他の設立登記法人,東京都,千代田区,飯田橋２丁目８番３号,,13,101,1020072,,,,,,,2025-04-11,1,,,,,,0
292,2010101016603,新規,0,2025-04-11,2025-04-11,株式会社Ｒｕｉ　Ｂｅａｕｔｙ　Ｃｏｍｐａｎｙ,,株式会社,東京都,八王子市,子安町４丁目７番１サザンスカイタワー八王子１５０６号,,13,201,1920904,,,,,,,2025-04-11,1,,,,,ルイビューティーカンパニー,0
300,2010401189173,新規,0,2025-04-11,2025-04-11,株式会社ＰＨＩＬＩＰ　ＴＡＮ　ＰＲＯＤＵＣＴＩＯＮＳ,,株式会社,東京都,港区,赤坂２丁目２１番４号,,13,103,1070052,,,,,,,2025-04-11,1,,,,,フィリップタンプロダクションズ,0
301,2010401189405,新規,0,2025-04-11,2025-04-11,Ｈｅｌｉｘ＆Ｃｏ．株式会社,,株式会社,東京都,港区,北青山１丁目３番１号アールキューブ青山３階,,13,103,1070061,,,,,,,2025-04-11,1,,,,,ヘリックスアンドコー,0
302,2010401189413,新規,0,2025-04-11,2025-04-11,株式会社陽,,株式会社,東京都,港区,六本木３丁目１番３０号Ａ・Ｂビル６階,,13,103,1060032,,,,,,,2025-04-11,1,,,,,ヨウ,0
303,2010401189512,新規,0,2025-04-11,2025-04-11,百駿株式会社,,株式会社,東京都,港区,新橋４丁目３１番３号第３名和ビル６階６０４号室,,13,103,1050004,,,,,,,2025-04-11,1,,,,,バイジュン,0
304,2010401189594,新規,0,2025-04-11,2025-04-11,フリーダムジャパン株式会社,,株式会社,東京都,港区,南青山１丁目１番１号西館８階,,13,103,1070062,,,,,,,2025-04-11,1,,,,,フリーダムジャパン,0
306,2010403034807,新規,0,2025-04-11,2025-04-11,Ｃｏｂｉｅｓ　Ｆａｒｍ合同会社,,合同会社,東京都,港区,麻布十番３丁目８番６－４０３号,,13,103,1060045,,,,,,,2025-04-11,1,,,,,コビーズファーム,0
307,2010403034856,新規,0,2025-04-11,2025-04-11,Ｓｏｌｖｅｉｓ合同会社,,合同会社,東京都,港区,南青山３丁目１番３６号,,13,103,1070062,,,,,,,2025-04-11,1,,,,,,0
311,2010601067105,新規,0,2025-04-11,2025-04-11,Ｔ１Ａｄｖｉｓｏｒｙ　Ｊａｐａｎ株式会社,,株式会社,東京都,江東区,青海２丁目５番１０号テレコムセンタービル東棟１４階,,13,108,1350064,,,,,,,2025-04-11,1,,,,,ティーワンアドバイザリージャパン,0
312,2010603011498,新規,0,2025-04-11,2025-04-11,ＴＡＲＹ　ＪＡＰＡＮ合同会社,,合同会社,東京都,江東区,豊洲５丁目１番１３－４４２０号,,13,108,1350061,,,,,,,2025-04-11,1,,,,,タルジャパン,0
320,2010901057128,新規,0,2025-04-11,2025-04-11,Ｇｅｎｎａｋｅｒ　Ｕｐ株式会社,,株式会社,東京都,世田谷区,等々力２丁目３２－９－４０３,,13,112,1580082,,,,,,,2025-04-11,1,,,,,ジェネカーアップ,0
321,2010901057169,新規,0,2025-04-11,2025-04-11,株式会社Ｓｅｓｏｎ,,株式会社,東京都,世田谷区,南烏山６丁目２９番１０号ハイム安田２０２,,13,112,1570062,,,,,,,2025-04-11,1,,,,,セソン,0
327,2011001168872,新規,0,2025-04-11,2025-04-11,株式会社Ｌｅ　Ｓｉｌｌａｇｅ,,株式会社,東京都,渋谷区,猿楽町９番５号,,13,113,1500033,,,,,,,2025-04-11,1,,,,,ルシアージ,0
328,2011001168880,新規,0,2025-04-11,2025-04-11,株式会社ｉｌｏ,,株式会社,東京都,渋谷区,渋谷２丁目１９－１５宮益坂ビルディング６０９,,13,113,1500002,,,,,,,2025-04-11,1,,,,,イロ,0
333,2011101111253,新規,0,2025-04-11,2025-04-11,ＣＦＣイノベーション株式会社,,株式会社,東京都,新宿区,西新宿３丁目３番１３号西新宿水間ビル２Ｆ,,13,104,1600023,,,,,,,2025-04-11,1,,,,,シーエフシーイノベーション,0
334,2011101111261,新規,0,2025-04-11,2025-04-11,株式会社ＶＩＡＬ,,株式会社,東京都,新宿区,西新宿５丁目２４番１６号,,13,104,1600023,,,,,,,2025-04-11,1,,,,,ヴィアル,0
335,2011101111286,新規,0,2025-04-11,2025-04-11,株式会社ＡｒｉｋＡ,,株式会社,東京都,新宿区,西新宿５丁目２１番５号ＢＩＴ西新宿ビルＢ０２,,13,104,1600023,,,,,,,2025-04-11,1,,,,,アリカ,0
337,2011103015741,新規,0,2025-04-11,2025-04-11,合同会社ヒナニモ,,合同会社,東京都,新宿区,西新宿６丁目５番１号新宿アイランドタワー２階,,13,104,1600023,,,,,,,2025-04-11,1,,,,,ヒナニモ,0
338,2011301030492,新規,0,2025-04-11,2025-04-11,株式会社Ｒｉ‐ｃｈｅｓｓｅ,,株式会社,東京都,杉並区,浜田山１丁目４番１６号,,13,115,1680065,,,,,,,2025-04-11,1,,,,,リシェス,0
346,2011801045932,新規,0,2025-04-11,2025-04-11,株式会社ＯＮＥ,,株式会社,東京都,足立区,西新井２丁目１８番８号プログレス西新井１０１,,13,121,1230841,,,,,,,2025-04-11,1,,,,,ワン,0
348,2011803006791,新規,0,2025-04-11,2025-04-11,合同会社１６Ｃｈａｎｎｅｌ,,合同会社,東京都,足立区,関原３丁目５－２０,,13,121,1230852,,,,,,,2025-04-11,1,,,,,ジュウロクチャンネル,0
349,2011803006800,新規,0,2025-04-11,2025-04-11,合同会社ＭＥＭＥＺＡＷＡ,,合同会社,東京都,足立区,千住３丁目１５番地ＢｏｒｓａＭｅｍｅｚａｗａ２０１,,13,121,1200034,,,,,,,2025-04-11,1,,,,,メメザワ,0
354,2012701018805,新規,0,2025-04-11,2025-04-11,株式会社ヴィクストリン,,株式会社,東京都,東村山市,諏訪町１丁目２８－２,,13,213,1890021,,,,,,,2025-04-11,1,,,,,ヴィクストリン,0
357,2012801023878,新規,0,2025-04-11,2025-04-11,株式会社リバティー,,株式会社,東京都,東大和市,向原１丁目７番地の３ジュネス・アスカ２０３,,13,220,2070013,,,,,,,2025-04-11,1,,,,,リバティー,0
358,2012803003696,新規,0,2025-04-11,2025-04-11,合同会社竹尚,,合同会社,東京都,日野市,新町３丁目２９－３８,,13,212,1910002,,,,,,,2025-04-11,1,,,,,タケヒサ,0
364,2020001162273,新規,0,2025-04-11,2025-04-11,えびす問屋株式会社,,株式会社,神奈川県,横浜市青葉区,寺家町５０３番地,,14,117,2270031,,,,,,,2025-04-11,1,,,,,エビスドンヤ,0
365,2020001162315,新規,0,2025-04-11,2025-04-11,株式会社プレヴセーフ,,株式会社,神奈川県,横浜市西区,浅間町１丁目４番３号ウィザードビル４０２,,14,103,2200072,,,,,,,2025-04-11,1,,,,,プレヴセーフ,0
366,2020001162323,新規,0,2025-04-11,2025-04-11,川崎光学工業株式会社,,株式会社,神奈川県,川崎市中原区,井田９８４番地,,14,133,2110035,,,,,,,2025-04-11,1,,,,,カワサキコウガクコウギョウ,0
370,2020003028241,新規,0,2025-04-11,2025-04-11,合同会社Ｎｏｖａｓ,,合同会社,神奈川県,川崎市多摩区,南生田２丁目２８－５４,,14,135,2140036,,,,,,,2025-04-11,1,,,,,ノバス,0
378,2021003015857,新規,0,2025-04-11,2025-04-11,合同会社大成建塗,,合同会社,神奈川県,相模原市中央区,田名３５０６番地３９,,14,152,2520244,,,,,,,2025-04-11,1,,,,,タイセイケント,0
379,2021005013322,新規,0,2025-04-11,2025-04-11,横須賀建設業協同組合,,その他の設立登記法人,神奈川県,横須賀市,日の出町１丁目２番地,,14,201,2380006,,,,,,,2025-04-11,1,,,,,ヨコスカケンセツギョウ,0
384,2030001165936,新規,0,2025-04-11,2025-04-11,株式会社奉徳,,株式会社,埼玉県,草加市,弁天４丁目３番２０号,,11,221,3400004,,,,,,,2025-04-11,1,,,,,ホウトク,0
385,2030001165960,新規,0,2025-04-11,2025-04-11,宸和株式会社,,株式会社,埼玉県,川口市,青木２丁目８－１６,,11,203,3320031,,,,,,,2025-04-11,1,,,,,シンワ,0
397,2040003027324,新規,0,2025-04-11,2025-04-11,合同会社小林,,合同会社,千葉県,千葉市中央区,要町５番５号ロイヤルハイネス２０１号,,12,101,2600017,,,,,,,2025-04-11,1,,,,,,0
399,2050001056480,新規,0,2025-04-11,2025-04-11,株式会社ＡＷＳ,,株式会社,茨城県,取手市,戸頭１６５６番地３,,08,217,3020034,,,,,,,2025-04-11,1,,,,,エイダブリューエス,0
402,2050003009189,新規,0,2025-04-11,2025-04-11,合同会社ＩＫ,,合同会社,茨城県,古河市,上辺見３０５８番地１,,08,204,3060234,,,,,,,2025-04-11,1,,,,,アイケー,0
407,2070001042776,新規,0,2025-04-11,2025-04-11,株式会社ＵＳＢ,,株式会社,群馬県,邑楽郡邑楽町,大字中野字蛭沼６１３番地３,,10,525,3700603,,,,,,,2025-04-11,1,,,,,ユーエスビー,0
409,2080401027855,新規,0,2025-04-11,2025-04-11,株式会社ＴＯＭＯファーム,,株式会社,静岡県,浜松市中央区,常光町３７１番地,,22,138,4313103,,,,,,,2025-04-11,1,,,,,トモファーム,0
413,2100003008078,新規,0,2025-04-11,2025-04-11,Ｚａｋａ合同会社,,合同会社,長野県,北安曇郡白馬村,大字神城２２１９９番地３３,,20,485,3999211,,,,,,,2025-04-11,1,,,,,ザカ,0
414,2100003008086,新規,0,2025-04-11,2025-04-11,合同会社ここから,,合同会社,長野県,茅野市,豊平５２０４番地７,,20,214,3910213,,,,,,,2025-04-11,1,,,,,ココカラ,0
418,2110005017217,新規,0,2025-04-11,2025-04-11,特定非営利活動法人フードバンクにいがた,,その他の設立登記法人,新潟県,新潟市中央区,幸町７番１６号ＫＲビル１階,,15,103,9500907,,,,,,,2025-04-11,1,,,,,フードバンクニイガタ,0
427,2120001274257,新規,0,2025-04-11,2025-04-11,ＲＩＳＥ株式会社,,株式会社,大阪府,大阪市東成区,中本３丁目９番２０－１０１６号,,27,115,5370022,,,,,,,2025-04-11,1,,,,,ライズ,0
428,2120001274273,新規,0,2025-04-11,2025-04-11,明傑株式会社,,株式会社,大阪府,大阪市阿倍野区,桃ケ池町２丁目１１－２－４０２号,,27,119,5450012,,,,,,,2025-04-11,1,,,,,メイケツ,0
429,2120001274307,新規,0,2025-04-11,2025-04-11,小蜜蜂株式会社,,株式会社,大阪府,大阪市旭区,清水４丁目１０番２４号－２０２号,,27,117,5350021,,,,,,,2025-04-11,1,,,,,コミツバチ,0
430,2120001274356,新規,0,2025-04-11,2025-04-11,株式会社橋岡企画,,株式会社,大阪府,大阪市西区,江戸堀３丁目５番２２－３０２号,,27,106,5500002,,,,,,,2025-04-11,1,,,,,ハシオカキカク,0
431,2120001274397,新規,0,2025-04-11,2025-04-11,マグチ商事株式会社,,株式会社,大阪府,大阪市港区,海岸通１丁目５番２９号,,27,107,5520022,,,,,,,2025-04-11,1,,,,,マグチショウジ,0
432,2120001274439,新規,0,2025-04-11,2025-04-11,株式会社創,,株式会社,大阪府,大阪市東淀川区,菅原６丁目１０番６号コーポラスサニーサイド２０１号,,27,114,5330022,,,,,,,2025-04-11,1,,,,,ハジメ,0
433,2120001274447,新規,0,2025-04-11,2025-04-11,株式会社Ｏｆｆｉｃｅ０９,,株式会社,大阪府,大阪市天王寺区,堂ケ芝１丁目１０番１１－２０３号,,27,109,5430033,,,,,,,2025-04-11,1,,,,,オフィスゼロキュウ,0
434,2120001274471,新規,0,2025-04-11,2025-04-11,学友国際学院株式会社,,株式会社,大阪府,大阪市淀川区,西中島４丁目７番２号,,27,123,5320011,,,,,,,2025-04-11,1,,,,,ガクユウコクサイガクイン,0
436,2120003029048,新規,0,2025-04-11,2025-04-11,Ｒｅｖａｎ合同会社,,合同会社,大阪府,大阪市西区,南堀江２丁目１３番２－７０３号,,27,106,5500015,,,,,,,2025-04-11,1,,,,,レヴァン,0
437,2120003029064,新規,0,2025-04-11,2025-04-11,合同会社ＡＳＡＨＩ,,合同会社,大阪府,大阪市平野区,瓜破東３丁目４番１０号,,27,126,5470022,,,,,,,2025-04-11,1,,,,,アサヒ,0
438,2120003029072,新規,0,2025-04-11,2025-04-11,合同会社ＳｔａｎｄＵｐ　ｆｆ,,合同会社,大阪府,大阪市淀川区,西中島３丁目１１番１４－１３０５号,,27,123,5320011,,,,,,,2025-04-11,1,,,,,スタンドアップフォルテッシモ,0
442,2120101071463,新規,0,2025-04-11,2025-04-11,株式会社ＹＡＭＡＮＩ,,株式会社,大阪府,堺市北区,新金岡町２丁５番１―４０６号,,27,146,5918021,,,,,,,2025-04-11,1,,,,,ヤマニ,0
451,2120903005610,新規,0,2025-04-11,2025-04-11,合同会社イマココ,,合同会社,大阪府,豊中市,三和町４丁目９番２４号,,27,203,5610828,,,,,,,2025-04-11,1,,,,,イマココ,0
456,2130001079399,新規,0,2025-04-11,2025-04-11,きゅある株式会社,,株式会社,京都府,相楽郡精華町,狛田１丁目１３－１６,,26,366,6190247,,,,,,,2025-04-11,1,,,,,キュアル,0
457,2130005017339,新規,0,2025-04-11,2025-04-11,一般社団法人こどもの応援団ＴＥＩＥＮ,,その他の設立登記法人,京都府,京都市北区,鷹峯藤林町６番地１１８,,26,101,6038445,,,,,,,2025-04-11,1,,,,,コドモノオウエンダンテイエン,0
463,2140001138146,新規,0,2025-04-11,2025-04-11,株式会社ＯＲＩＯＮ,,株式会社,兵庫県,神戸市兵庫区,荒田町４丁目２９－２２,,28,105,6520032,,,,,,,2025-04-11,1,,,,,オリオン,0
464,2140005027452,新規,0,2025-04-11,2025-04-11,医療法人社団かまだ歯科医院,,その他の設立登記法人,兵庫県,高砂市,高砂町朝日町２丁目１５番地８,,28,216,6760021,,,,,,,2025-04-11,1,,,,,カマダシカイイン,0
466,2160001026679,新規,0,2025-04-11,2025-04-11,ｇ．ａｒｔｓ株式会社,,株式会社,滋賀県,東近江市,市辺町２８６６番地,,25,213,5270074,,,,,,,2025-04-11,1,,,,,ジーアーツ,0
472,2180001166341,新規,0,2025-04-11,2025-04-11,株式会社Ｅｎｆｅｅｓ,,株式会社,愛知県,名古屋市中区,富士見町５番７号さくらＨｉｌｌｓ富士見４０２号,,23,106,4600014,,,,,,,2025-04-11,1,,,,,エンフィース,0
473,2180001166358,新規,0,2025-04-11,2025-04-11,エムケイエアーテック株式会社,,株式会社,愛知県,一宮市,あずら１丁目６番１８号,,23,203,4910835,,,,,,,2025-04-11,1,,,,,エムケイエアーテック,0
476,2180303006526,新規,0,2025-04-11,2025-04-11,合同会社エムオー,,合同会社,愛知県,刈谷市,井ケ谷町井田５６番地３,,23,210,4480001,,,,,,,2025-04-11,1,,,,,エムオー,0
478,2190001032154,新規,0,2025-04-11,2025-04-11,ＴＩＭＢＥＲ　ＪＡＰＡＮ株式会社,,株式会社,三重県,松阪市,木の郷町１３番地,,24,204,5150088,,,,,,,2025-04-11,1,,,,,ティンバージャパン,0
479,2190003005001,新規,0,2025-04-11,2025-04-11,合同会社珠杏,,合同会社,三重県,伊勢市,辻久留町５４５番地５２,00138725,24,203,5160046,,,,,,,2025-04-11,1,,,,,ジュアン,0
482,2200001043645,新規,0,2025-04-11,2025-04-11,株式会社プラスノード,,株式会社,岐阜県,大垣市,今宿６丁目５２番地１６ソフトピアジャパン・ドリームコア１０４,,21,202,5030807,,,,,,,2025-04-11,1,,,,,プラスノード,0
483,2200001043653,新規,0,2025-04-11,2025-04-11,株式会社まきしまむ,,株式会社,岐阜県,美濃加茂市,清水町２丁目６番８号,,21,211,5050026,,,,,,,2025-04-11,1,,,,,マキシマム,0
484,2210005010194,新規,0,2025-04-11,2025-04-11,社会保険労務士法人齊藤事務所,,その他の設立登記法人,福井県,あわら市,西温泉１丁目６０８番地,,18,208,9104127,,,,,,,2025-04-11,1,,,,,サイトウジムショ,0
488,2230001020815,新規,0,2025-04-11,2025-04-11,日石硝子工業株式会社,,株式会社,富山県,高岡市,戸出栄町７番地,,16,202,9391118,,,,,,,2025-04-11,1,,,,,ニッセキガラスコウギョウ,0
489,2230003002415,新規,0,2025-04-11,2025-04-11,富木合同会社,,合同会社,富山県,富山市,藤木新３５番地２３,,16,201,9300933,,,,,,,2025-04-11,1,,,,,フノギ,0
496,2250003003691,新規,0,2025-04-11,2025-04-11,合同会社ライクロ,,合同会社,山口県,防府市,大字江泊１９８,,35,206,7470014,,,,,,,2025-04-11,1,,,,,ライクロ,0
499,2260001040100,新規,0,2025-04-11,2025-04-11,株式会社ＨＳ‐ｎｅｏ‐ｐｒｏｊｅｃｔ,,株式会社,岡山県,岡山市北区,高松７１番地１,,33,101,7011335,,,,,,,2025-04-11,1,,,,,エイチエスネオプロジェクト,0
502,2290001109628,新規,0,2025-04-11,2025-04-11,株式会社櫻樹,,株式会社,福岡県,福岡市城南区,樋井川２丁目２５番２５号,,40,136,8140153,,,,,,,2025-04-11,1,,,,,オウキ,0
503,2290001109636,新規,0,2025-04-11,2025-04-11,株式会社いなだ,,株式会社,福岡県,糟屋郡粕屋町,花ヶ浦２丁目１４－１４,,40,349,8112310,,,,,,,2025-04-11,1,,,,,イナダ,0
505,2290003016665,新規,0,2025-04-11,2025-04-11,農植産業合同会社,,合同会社,福岡県,福岡市早良区,曙２丁目９－３ポルトス西新２０２号室,,40,137,8140004,,,,,,,2025-04-11,1,,,,,ノウショクサンギョウ,0
506,2290003016673,新規,0,2025-04-11,2025-04-11,エーゼットマネジメント合同会社,,合同会社,福岡県,福岡市博多区,博多駅前４丁目１８番１９号博多フロントビル３０５,,40,132,8120011,,,,,,,2025-04-11,1,,,,,エーゼットマネジメント,0
507,2290003016698,新規,0,2025-04-11,2025-04-11,合同会社チャンネル整備堂こたま,,合同会社,福岡県,福岡市博多区,博多駅前１丁目２３－２ＰａｒｋＦｒｏｎｔ１丁目５Ｆ－Ｂ,,40,132,8120011,,,,,,,2025-04-11,1,,,,,チャンネルセイビドウコタマ,0
509,2290803005025,新規,0,2025-04-11,2025-04-11,合同会社ナオミ不動産,,合同会社,福岡県,中間市,中央３丁目１１番５号,,40,215,8090030,,,,,,,2025-04-11,1,,,,,ナオミフドウサン,0
514,2300003002267,新規,0,2025-04-11,2025-04-11,メディネクト合同会社,,合同会社,佐賀県,佐賀市,大和町大字尼寺１４４１番地２,,41,201,8400201,,,,,,,2025-04-11,1,,,,,メディネクト,0
527,2350003004903,新規,0,2025-04-11,2025-04-11,スターエステートＨ・Ｆ合同会社,,合同会社,宮崎県,宮崎市,恒久３丁目１０番地１３,,45,201,8800913,,,,,,,2025-04-11,1,,,,,スターエステートエイチエフ,0
530,2370001052472,新規,0,2025-04-11,2025-04-11,株式会社Ｔｅｌｅｍｅｔｒｙ,,株式会社,宮城県,仙台市青葉区,本町１丁目４番１５号パークフラッツ本町１階,,04,101,9800014,,,,,,,2025-04-11,1,,,,,テレメトリー,0
549,2430001094062,新規,0,2025-04-11,2025-04-11,ＫＹＯＴＳＵ　Ｓｔａｂｌｅ株式会社,,株式会社,北海道,札幌市厚別区,厚別東三条７丁目１９番８号,,01,108,0040003,,,,,,,2025-04-11,1,,,,,キョウツウステーブル,0
550,2430001094129,新規,0,2025-04-11,2025-04-11,株式会社コネクト,,株式会社,北海道,札幌市清田区,美しが丘二条４丁目５番３号,,01,110,0040812,,,,,,,2025-04-11,1,,,,,コネクト,0
551,2430001094161,新規,0,2025-04-11,2025-04-11,株式会社ｎａ・ｓｅｖｅｎ,,株式会社,北海道,苫小牧市,明徳町２丁目１番１６号,,01,213,0591273,,,,,,,2025-04-11,1,,,,,ナセブン,0
553,2430003017491,新規,0,2025-04-11,2025-04-11,龍勝国際合同会社,,合同会社,北海道,札幌市北区,百合が原８丁目１９番２５号,,01,102,0028081,,,,,,,2025-04-11,1,,,,,リュウショウコクサイ,0
555,2440003001676,新規,0,2025-04-11,2025-04-11,合同会社ＹＯＮＲＩ,,合同会社,北海道,函館市,大手町１５番２３号,,01,202,0400064,,,,,,,2025-04-11,1,,,,,ヨンリ,0
556,2450001014588,新規,0,2025-04-11,2025-04-11,株式会社ココ交通,,株式会社,北海道,上川郡東川町,南町３丁目３番２号,,01,458,0711424,,,,,,,2025-04-11,1,,,,,コココウツウ,0
560,2470003002861,新規,0,2025-04-11,2025-04-11,ｃｏｃｏｒｕ合同会社,,合同会社,香川県,坂出市,川津町１３０１番地１,,37,203,7620025,,,,,,,2025-04-11,1,,,,,ココル,0
565,2500003003484,新規,0,2025-04-11,2025-04-11,合同会社サリサリクルー,,合同会社,愛媛県,松山市,東長戸１丁目９番１５号,,38,201,7918005,,,,,,,2025-04-11,1,,,,,サリサリクルー,0
574,3010003047051,新規,0,2025-04-11,2025-04-11,Ｈｅｌｕ＆Ｃｏ合同会社,,合同会社,東京都,千代田区,五番町１２番地７－２０４３,,13,101,1020076,,,,,,,2025-04-11,1,,,,,ヘルーアンドコー,0
575,3010005039864,新規,0,2025-04-11,2025-04-11,ＳＰ税理士法人,,その他の設立登記法人,東京都,千代田区,麹町５丁目１番地ＱＶ１麹町６階,,13,101,1020083,,,,,,,2025-04-11,1,,,,,エスピー,0
576,3010101016619,新規,0,2025-04-11,2025-04-11,株式会社幸和建設,,株式会社,東京都,八王子市,石川町２９５６番地３エステートピア・ウチダ１０７号,,13,201,1920032,,,,,,,2025-04-11,1,,,,,コウワケンセツ,0
582,3010401189387,新規,0,2025-04-11,2025-04-11,株式会社ＧＨＲ,,株式会社,東京都,港区,西麻布１丁目１３番１４号シャロム西麻布７Ｆ,,13,103,1060031,,,,,,,2025-04-11,1,,,,,ジーエイチアール,0
583,3010401189404,新規,0,2025-04-11,2025-04-11,ＫＨＲ株式会社,,株式会社,東京都,港区,六本木７丁目１７番２２号秀和六　本木レジデンス１０７,,13,103,1060032,,,,,,,2025-04-11,1,,,,,ケーエイチアール,0
584,3010401189486,新規,0,2025-04-11,2025-04-11,電話占い株式会社,,株式会社,東京都,港区,南青山３丁目１番３６号青山丸竹ビル６Ｆ,,13,103,1070062,,,,,,,2025-04-11,1,,,,,デンワウラナイ,0
585,3010401189536,新規,0,2025-04-11,2025-04-11,株式会社メイアス,,株式会社,東京都,港区,麻布十番１丁目２‐７,,13,103,1060045,,,,,,,2025-04-11,1,,,,,メイアス,0
586,3010401189676,新規,0,2025-04-11,2025-04-11,フランリーシング２株式会社,,株式会社,東京都,港区,虎ノ門１丁目２番６号,,13,103,1050001,,,,,,,2025-04-11,1,,,,,フランリーシングツー,0
588,3010403034863,新規,0,2025-04-11,2025-04-11,冠鷲合同会社,,合同会社,東京都,港区,西麻布１丁目４番４０号西麻布ＳＨＩＮＯビル４階,,13,103,1060031,,,,,,,2025-04-11,1,,,,,カンムリワシ,0
589,3010405024152,新規,0,2025-04-11,2025-04-11,一般社団法人社団ＮＬＶ,,その他の設立登記法人,東京都,港区,虎ノ門４丁目３－１城山トラストタワー２７階,,13,103,1050001,,,,,,,2025-04-11,1,,,,,エヌエルブイ,0
590,3010405024326,新規,0,2025-04-11,2025-04-11,一般社団法人ＴＯＭＯ　Ｓｅｒｖｉｃｅ　Ｄｏｇｓ,,その他の設立登記法人,東京都,港区,芝浦４丁目２０番２－３００６号,,13,103,1080023,,,,,,,2025-04-11,1,,,,,トモサービスドッグズ,0
594,3010603011497,新規,0,2025-04-11,2025-04-11,合同会社Ｓｕｍｉねこ,,合同会社,東京都,墨田区,墨田５丁目４１番１１号,,13,107,1310031,,,,,,,2025-04-11,1,,,,,スミネコ,0
595,3010701047501,新規,0,2025-04-11,2025-04-11,株式会社ＷｏｏＨｏｏカンパニー,,株式会社,東京都,品川区,荏原５丁目１４番地２号ＬａＤｏｕｃｅｕｒ西小山１０３号室,,13,109,1420063,,,,,,,2025-04-11,1,,,,,ウーフーカンパニー,0
596,3010701047542,新規,0,2025-04-11,2025-04-11,株式会社下高井戸,,株式会社,東京都,品川区,上大崎３丁目１１番１２号,,13,109,1410021,,,,,,,2025-04-11,1,,,,,シモタカイド,0
599,3010801036016,新規,0,2025-04-11,2025-04-11,ＰＥＴ　ＭＡＲＶＥＬ株式会社,,株式会社,東京都,大田区,京浜島２丁目３－５,,13,111,1430003,,,,,,,2025-04-11,1,,,,,,0
600,3010801036032,新規,0,2025-04-11,2025-04-11,１９コンサルティング株式会社,,株式会社,東京都,大田区,南蒲田１丁目２０－１５－５０４,,13,111,1440035,,,,,,,2025-04-11,1,,,,,ナインティーンコンサルティング,0
602,3010901057168,新規,0,2025-04-11,2025-04-11,コアエステート株式会社,,株式会社,東京都,世田谷区,上馬４丁目２番９－１００１号,,13,112,1540011,,,,,,,2025-04-11,1,,,,,コアエステート,0
604,3010903009836,新規,0,2025-04-11,2025-04-11,合同会社裕雅コーポレーション,,合同会社,東京都,世田谷区,北沢１丁目２８番１７号コートウィスタリア３０４,,13,112,1550031,,,,,,,2025-04-11,1,,,,,ユウガコーポレーション,0
606,3011001168855,新規,0,2025-04-11,2025-04-11,株式会社宮崎葵商店,,株式会社,東京都,渋谷区,渋谷２丁目１９－１５宮益坂ビルディング６０９,,13,113,1500002,,,,,,,2025-04-11,1,,,,,ミヤザキアオイショウテン,0
607,3011001168871,新規,0,2025-04-11,2025-04-11,Ｗｉｌｌｖｅｒｓｅ株式会社,,株式会社,東京都,渋谷区,桜丘町３１番１４号ＳＬＡＣＫＳＨＩＢＵＹＡ３０２,,13,113,1500031,,,,,,,2025-04-11,1,,,,,ウィルバース,0
608,3011001168921,新規,0,2025-04-11,2025-04-11,株式会社ＧＡＧＮＡＮＴ‐ＧＡＧＮＡＮＴ,,株式会社,東京都,目黒区,上目黒５丁目２６番７号,,13,110,1530051,,,,,,,2025-04-11,1,,,,,ガニョンガニョン,0
612,3011003021351,新規,0,2025-04-11,2025-04-11,ＯＮＶＩＳＩＯＮ合同会社,,合同会社,東京都,渋谷区,神南１丁目１１番４号ＦＰＧリンクス神南５階,,13,113,1500041,,,,,,,2025-04-11,1,,,,,オンビジョン,0
614,3011005010939,新規,0,2025-04-11,2025-04-11,一般社団法人語学検定協会,,その他の設立登記法人,東京都,目黒区,中目黒３丁目６番２号,,13,110,1530061,,,,,,,2025-04-11,1,,,,,ゴガクケンテイキョウカイ,0
615,3011101111384,新規,0,2025-04-11,2025-04-11,株式会社ＮＥＸＴ　ＶＩＳＩＯＮ,,株式会社,東京都,新宿区,西新宿３丁目３番１３号,,13,104,1600023,,,,,,,2025-04-11,1,,,,,ネクストビジョン,0
617,3011103015732,新規,0,2025-04-11,2025-04-11,合同会社パインフォレスト,,合同会社,東京都,新宿区,北新宿２丁目５番１７号Ｋ’ｓＦｌａｔ３Ｆ,,13,104,1690074,,,,,,,2025-04-11,1,,,,,パインフォレスト,0
620,3011501031843,新規,0,2025-04-11,2025-04-11,株式会社ｉｔｏ　ｇｌｏｂａｌ,,株式会社,東京都,北区,浮間３丁目２９番１０－２０１号ライブ赤羽,,13,117,1150051,,,,,,,2025-04-11,1,,,,,イトグローバル,0
623,3011701028243,新規,0,2025-04-11,2025-04-11,＿森株式会社,00138723,株式会社,東京都,江戸川区,江戸川６丁目４０番１４－２１９号,,13,123,1340013,,,,,,,2025-04-11,1,,,,,イクシン,0
624,3011703004201,新規,0,2025-04-11,2025-04-11,合同会社中江会計事務所,,合同会社,東京都,江戸川区,平井６丁目６３―４,,13,123,1320035,,,,,,,2025-04-11,1,,,,,ナカエカイケイジムショ,0
635,3012803003695,新規,0,2025-04-11,2025-04-11,合同会社スイーツスイーツ,,合同会社,東京都,国分寺市,本多１丁目１番６号,,13,214,1850011,,,,,,,2025-04-11,1,,,,,スイーツスイーツ,0
648,3020001162215,新規,0,2025-04-11,2025-04-11,株式会社ＳＯＯＯ,,株式会社,神奈川県,川崎市川崎区,浜町２丁目２５番２号,,14,131,2100851,,,,,,,2025-04-11,1,,,,,ソー,0
649,3020001162314,新規,0,2025-04-11,2025-04-11,株式会社Ｏｒｕｒｉａ,,株式会社,神奈川県,横浜市戸塚区,下倉田町１８４９番地１,,14,110,2440815,,,,,,,2025-04-11,1,,,,,オルリア,0
650,3020003028265,新規,0,2025-04-11,2025-04-11,合同会社Ｂｏｕｎｄｓ,,合同会社,神奈川県,横浜市港北区,大曽根３丁目１３番２－３１１号,,14,109,2220003,,,,,,,2025-04-11,1,,,,,バウンズ,0
652,3020005016747,新規,0,2025-04-11,2025-04-11,一般社団法人Ｋｙｕ‐ｉｎ,,その他の設立登記法人,神奈川県,横浜市神奈川区,羽沢町９４７番地１宮向団地３街区１号棟３０４号室,,14,102,2210863,,,,,,,2025-04-11,1,,,,,キュウイン,0
653,3020005016796,新規,0,2025-04-11,2025-04-11,一般社団法人めぐり逢いコンサート実行委員会,,その他の設立登記法人,神奈川県,横浜市西区,北幸１丁目１１番１号水信ビル７階,,14,103,2200004,,,,,,,2025-04-11,1,,,,,,0
668,3030001165927,新規,0,2025-04-11,2025-04-11,株式会社明愛,,株式会社,埼玉県,さいたま市大宮区,上小町２０番地２,,11,103,3300855,,,,,,,2025-04-11,1,,,,,アキヨシ,0
669,3030001165935,新規,0,2025-04-11,2025-04-11,プラウドシンク株式会社,,株式会社,埼玉県,さいたま市中央区,本町東２丁目１６－１６メルディア与野本町２０５,,11,105,3380003,,,,,,,2025-04-11,1,,,,,プラウドシンク,0
670,3030001165951,新規,0,2025-04-11,2025-04-11,フォックスコンサルティング株式会社,,株式会社,埼玉県,さいたま市浦和区,北浦和３丁目１６番１６－５号,,11,107,3300074,,,,,,,2025-04-11,1,,,,,フォックスコンサルティング,0
671,3030001165968,新規,0,2025-04-11,2025-04-11,株式会社ＳＡＴＯ工業,,株式会社,埼玉県,越谷市,レイクタウン６丁目３５番地１６６,,11,222,3430828,,,,,,,2025-04-11,1,,,,,サトウコウギョウ,0
673,3030003026540,新規,0,2025-04-11,2025-04-11,合同会社ＢＢＳ,,合同会社,埼玉県,草加市,八幡町６９８番地２八幡ハイム３０１号,,11,221,3400006,,,,,,,2025-04-11,1,,,,,ビービーエス,0
680,3040001138262,新規,0,2025-04-11,2025-04-11,株式会社ＹＳ工建,,株式会社,千葉県,柏市,しいの木台５丁目１６番地７,,12,217,2770945,,,,,,,2025-04-11,1,,,,,ワイエスコウケン,0
683,3040003027323,新規,0,2025-04-11,2025-04-11,ＨＡＬＯ合同会社,,合同会社,千葉県,山武郡横芝光町,古川２６０番地７,,12,410,2891731,,,,,,,2025-04-11,1,,,,,ハロ,0
685,3040005022719,新規,0,2025-04-11,2025-04-11,一般社団法人日本老年腫瘍学会,,その他の設立登記法人,千葉県,柏市,柏の葉６丁目５番地１国立がん研究センター東病院精神腫瘍科内,,12,217,2770882,,,,,,,2025-04-11,1,,,,,ニホンロウネンシュヨウガッカイ,0
688,3050001056471,新規,0,2025-04-11,2025-04-11,石田電機工業株式会社,,株式会社,茨城県,石岡市,正上内１２番１４号,,08,205,3150011,,,,,,,2025-04-11,1,,,,,イシダデンキコウギョウ,0
692,3070001042841,新規,0,2025-04-11,2025-04-11,株式会社Ａ・Ｎ,,株式会社,群馬県,太田市,粕川町２６４番地８,,10,205,3700421,,,,,,,2025-04-11,1,,,,,アン,0
713,3100001038464,新規,0,2025-04-11,2025-04-11,Ｔａｉｍ株式会社,,株式会社,長野県,岡谷市,赤羽１丁目４番２１－１号,,20,204,3940002,,,,,,,2025-04-11,1,,,,,タイム,0
714,3100001038497,新規,0,2025-04-11,2025-04-11,Ｗａｃａｖａ株式会社,,株式会社,長野県,上高井郡小布施町,大字小布施１４９０－１,,20,541,3810201,,,,,,,2025-04-11,1,,,,,ワカバ,0
715,3100001038514,新規,0,2025-04-11,2025-04-11,株式会社三ッ星,,株式会社,長野県,上伊那郡箕輪町,大字中箕輪１６１５７番地６,,20,383,3994601,,,,,,,2025-04-11,1,,,,,ミツボシ,0
722,3110005017216,新規,0,2025-04-11,2025-04-11,一般社団法人にいがた自立生活センター・まいらいふ,,その他の設立登記法人,新潟県,新潟市西区,青山１丁目２３番１５号,,15,107,9502002,,,,,,,2025-04-11,1,,,,,ニイガタジリツセイカツセンターマイライフ,0
726,3120001273968,新規,0,2025-04-11,2025-04-11,株式会社ミリオンプレジャー,,株式会社,大阪府,寝屋川市,萱島桜園町１番３号（２０６号）,,27,215,5720828,,,,,,,2025-04-11,1,,,,,ミリオンプレジャー,0
727,3120001274041,新規,0,2025-04-11,2025-04-11,株式会社ｆｒｏｍＳ,,株式会社,大阪府,大阪市西成区,天下茶屋３丁目１７番１９号,,27,122,5570014,,,,,,,2025-04-11,1,,,,,フロムエス,0
728,3120001274314,新規,0,2025-04-11,2025-04-11,ヤンマーハーツ株式会社,,株式会社,大阪府,大阪市北区,茶屋町１番３２号,,27,127,5300013,,,,,,,2025-04-11,1,,,,,ヤンマーハーツ,0
729,3120001274347,新規,0,2025-04-11,2025-04-11,株式会社ＩＰ　ＵＳＡ,,株式会社,大阪府,大阪市中央区,南本町２丁目３番８号,,27,128,5410054,,,,,,,2025-04-11,1,,,,,アイピーユーエスエー,0
730,3120001274355,新規,0,2025-04-11,2025-04-11,株式会社Ｔ１Ｐ　Ｑｕｅｓｔ,,株式会社,大阪府,交野市,星田北４丁目３番６号,,27,230,5760017,,,,,,,2025-04-11,1,,,,,ティップクエスト,0
731,3120001274396,新規,0,2025-04-11,2025-04-11,株式会社ｈｏｇｅｈｏｇｅ,,株式会社,大阪府,大阪市淀川区,十三東１丁目１７番１３号水交ビル４０３号,,27,123,5320023,,,,,,,2025-04-11,1,,,,,ホゲホゲ,0
732,3120001274487,新規,0,2025-04-11,2025-04-11,株式会社Ｖｉｃｔｏｒｉａ　Ｃｏｒｐｏｒａｔｉｏｎ,,株式会社,大阪府,大阪市西区,南堀江１丁目２１番１４号３０２,,27,106,5500015,,,,,,,2025-04-11,1,,,,,ビクトリアコーポレーション,0
733,3120001274537,新規,0,2025-04-11,2025-04-11,株式会社ＦＡＮＧ,,株式会社,大阪府,大阪市平野区,長吉六反２丁目７番２６号,,27,126,5470012,,,,,,,2025-04-11,1,,,,,ファング,0
734,3120001274545,新規,0,2025-04-11,2025-04-11,株式会社ＲＥｒｕｔｏ,,株式会社,大阪府,大阪市西区,新町１丁目２４番８号ノース四ツ橋ビル２０１,,27,106,5500013,,,,,,,2025-04-11,1,,,,,リルト,0
735,3120001274578,新規,0,2025-04-11,2025-04-11,株式会社スリーアール,,株式会社,大阪府,大阪市生野区,巽中２丁目１０番１７号,00138737,27,116,5440013,,,,,,,2025-04-11,1,,,,,スリーアール,0
737,3120003029063,新規,0,2025-04-11,2025-04-11,合同会社政,,合同会社,大阪府,大阪市福島区,野田５丁目１２番１６号,,27,103,5530005,,,,,,,2025-04-11,1,,,,,マサ,0
739,3120005024888,新規,0,2025-04-11,2025-04-11,一般社団法人日本まつりぬし協会,,その他の設立登記法人,大阪府,大阪市中央区,南船場２丁目１１番９号,,27,128,5420081,,,,,,,2025-04-11,1,,,,,ニホンマツリヌシキョウカイ,0
743,3120101071446,新規,0,2025-04-11,2025-04-11,株式会社ＬＴ　ＧＬＯＢＡＬ,,株式会社,大阪府,堺市西区,山田２丁１９１番地１,,27,144,5938316,,,,,,,2025-04-11,1,,,,,エルティグローバル,0
755,3140001138005,新規,0,2025-04-11,2025-04-11,株式会社平野土地建物,,株式会社,兵庫県,神戸市兵庫区,荒田町３丁目４５－１２,,28,105,6520032,,,,,,,2025-04-11,1,,,,,ヒラノトチタテモノ,0
758,3140003021893,新規,0,2025-04-11,2025-04-11,合同会社ＴＡＣ’Ｓメディカル,,合同会社,兵庫県,神戸市東灘区,岡本５丁目１２番２６号,,28,101,6580072,,,,,,,2025-04-11,1,,,,,タックズメディカル,0
761,3150001028031,新規,0,2025-04-11,2025-04-11,株式会社村井商店,,株式会社,奈良県,奈良市,大森町７０番地の１メルベーユ大森１０１号,,29,201,6308131,,,,,,,2025-04-11,1,,,,,ムライショウテン,0
762,3160001026678,新規,0,2025-04-11,2025-04-11,株式会社ツーリストＪＡＰＡＮ,,株式会社,滋賀県,東近江市,桜川東町５２０番地,,25,213,5291511,,,,,,,2025-04-11,1,,,,,ツーリストジャパン,0
763,3170001018567,新規,0,2025-04-11,2025-04-11,株式会社山吉,,株式会社,和歌山県,有田市,宮崎町４６６番地１,,30,204,6490316,,,,,,,2025-04-11,1,,,,,ヤマキチ,0
776,3180001166142,新規,0,2025-04-11,2025-04-11,株式会社キープオン,,株式会社,愛知県,名古屋市守山区,下志段味５丁目３５０８番地（カンパーニュＡ１０３号）,,23,113,4630003,,,,,,,2025-04-11,1,,,,,キープオン,0
777,3180001166365,新規,0,2025-04-11,2025-04-11,まんだ倉庫株式会社,,株式会社,愛知県,弥富市,佐古木３丁目４０２番地１,,23,235,4980006,,,,,,,2025-04-11,1,,,,,マンダソウコ,0
781,3180003028282,新規,0,2025-04-11,2025-04-11,合同会社縁の花,,合同会社,愛知県,津島市,愛宕町７丁目８４番地１４,,23,208,4960036,,,,,,,2025-04-11,1,,,,,エンノハナ,0
782,3180003028299,新規,0,2025-04-11,2025-04-11,合同会社美スタイルａ,,合同会社,愛知県,一宮市,島村字高木１６番地,,23,203,4910121,,,,,,,2025-04-11,1,,,,,ビスタイルエー,0
783,3180301039700,新規,0,2025-04-11,2025-04-11,クレアメゾン株式会社,,株式会社,愛知県,岡崎市,庄司田１丁目９番地１２,,23,202,4440821,,,,,,,2025-04-11,1,,,,,クレアメゾン,0
785,3180303006525,新規,0,2025-04-11,2025-04-11,合同会社ＧＴＯ,,合同会社,愛知県,知立市,東上重原１丁目１３番地エスパシオしげはら１０３号,,23,225,4720054,,,,,,,2025-04-11,1,,,,,ジーティーオー,0
786,3190001032145,新規,0,2025-04-11,2025-04-11,株式会社東帰,,株式会社,三重県,三重郡川越町,大字南福崎３２７番地６,,24,344,5108124,,,,,,,2025-04-11,1,,,,,,0
787,3190001032153,新規,0,2025-04-11,2025-04-11,株式会社ＵＲＵＳ,,株式会社,三重県,四日市市,松原町２４番２号,,24,202,5108015,,,,,,,2025-04-11,1,,,,,ウルス,0
788,3190003004976,新規,0,2025-04-11,2025-04-11,合同会社ＩＮＦＩＥＬＤ,,合同会社,三重県,鈴鹿市,野町中２丁目１６番１６号,,24,207,5100216,,,,,,,2025-04-11,1,,,,,インフィールド,0
789,3190003005000,新規,0,2025-04-11,2025-04-11,合同会社一期一笑,,合同会社,三重県,松阪市,大黒田町１５２１番地４８,,24,204,5150063,,,,,,,2025-04-11,1,,,,,イチゴイチエ,0
790,3200001043603,新規,0,2025-04-11,2025-04-11,株式会社エイリアス,,株式会社,岐阜県,中津川市,千旦林２５６７番地２,,21,206,5099131,,,,,,,2025-04-11,1,,,,,エイリアス,0
792,3220001026614,新規,0,2025-04-11,2025-04-11,株式会社ＧＭカンパニー,,株式会社,石川県,金沢市,久安１丁目４１４番地,,17,201,9218164,,,,,,,2025-04-11,1,,,,,ジーエムカンパニー,0
793,3220003003999,新規,0,2025-04-11,2025-04-11,合同会社ミックス,,合同会社,石川県,珠洲市,三崎町寺家ケ部６７番地１,,17,205,9271451,,,,,,,2025-04-11,1,,,,,ミックス,0
803,3270001009176,新規,0,2025-04-11,2025-04-11,株式会社西村静香メディカルバレエ,,株式会社,鳥取県,米子市,四日市町８８番地,,31,202,6830061,,,,,,,2025-04-11,1,,,,,ニシムラシズカメディカルバレエ,0
804,3270003001734,新規,0,2025-04-11,2025-04-11,合同会社ＪＤ,,合同会社,鳥取県,倉吉市,宮川町１３１番地８・コーポながの１０２号室,,31,203,6820881,,,,,,,2025-04-11,1,,,,,ジェーディー,0
805,3280001009407,新規,0,2025-04-11,2025-04-11,株式会社壱和,,株式会社,島根県,松江市,鹿島町名分２６２番地２,,32,201,6900803,,,,,,,2025-04-11,1,,,,,イチワ,0
807,3290001109676,新規,0,2025-04-11,2025-04-11,株式会社ＡＬＢＡ,,株式会社,福岡県,福岡市中央区,地行４丁目８番２５号,,40,133,8100064,,,,,,,2025-04-11,1,,,,,アルバ,0
813,3290801031443,新規,0,2025-04-11,2025-04-11,株式会社ムソウ,,株式会社,福岡県,行橋市,大字今井３６３４番地１,,40,213,8240018,,,,,,,2025-04-11,1,,,,,ムソウ,0
816,3300003002266,新規,0,2025-04-11,2025-04-11,合同会社ジオニック,,合同会社,佐賀県,唐津市,魚屋町２０１２－１,,41,202,8470042,,,,,,,2025-04-11,1,,,,,ジオニック,0
819,3320001021043,新規,0,2025-04-11,2025-04-11,株式会社ＷＡＫＫＡ,,株式会社,大分県,宇佐市,安心院町古川２３３番地,,44,211,8720655,,,,,,,2025-04-11,1,,,,,ワッカ,0
822,3340001027253,新規,0,2025-04-11,2025-04-11,株式会社Ｇｌｏｓｓ,,株式会社,鹿児島県,鹿屋市,獅子目町３１６番地２,,46,203,8930044,,,,,,,2025-04-11,1,,,,,グロス,0
832,3370003007028,新規,0,2025-04-11,2025-04-11,Ｊｄｖ‐ＬＡＢ合同会社,,合同会社,宮城県,仙台市青葉区,花京院１丁目２番１５号仙台ソララプラザ３階,,04,101,9800013,,,,,,,2025-04-11,1,,,,,ジェーディーブイラボ,0
833,3370003007036,新規,0,2025-04-11,2025-04-11,合同会社ＴＡＮＩ,,合同会社,宮城県,仙台市太白区,長町５丁目６番１７－１０１号,,04,104,9820011,,,,,,,2025-04-11,1,,,,,タニ,0
841,3390003002365,新規,0,2025-04-11,2025-04-11,となり合同会社,,合同会社,山形県,山形市,富の中１丁目２番９号,,06,201,9902463,,,,,,,2025-04-11,1,,,,,トナリ,0
848,3430001094144,新規,0,2025-04-11,2025-04-11,株式会社イシトミドリ,,株式会社,北海道,札幌市清田区,里塚緑ケ丘５丁目４番１０号,,01,110,0040805,,,,,,,2025-04-11,1,,,,,イシトミドリ,0
849,3430001094152,新規,0,2025-04-11,2025-04-11,株式会社ＢＡＢＡＪＩ,,株式会社,北海道,札幌市南区,真駒内柏丘５丁目６番３７号,,01,106,0050022,,,,,,,2025-04-11,1,,,,,ババジ,0
850,3430001094193,新規,0,2025-04-11,2025-04-11,株式会社仁木薬局,,株式会社,北海道,余市郡仁木町,北町１丁目４番地１,,01,407,0482405,,,,,,,2025-04-11,1,,,,,ニキヤッキョク,0
860,3500003003483,新規,0,2025-04-11,2025-04-11,合同会社共栄網,,合同会社,愛媛県,伊予市,双海町上灘５９６０番地１,,38,210,7993202,,,,,,,2025-04-11,1,,,,,キョウエイアミ,0
865,4010001254094,新規,0,2025-04-11,2025-04-11,株式会社東京ベルジェム,,株式会社,東京都,千代田区,神田須田町１丁目７番８号ＶＯＲＴ秋葉原ＩＶ２Ｆ,00138735,13,101,1010041,,,,,,,2025-04-11,1,,,,,,0
867,4010003047034,新規,0,2025-04-11,2025-04-11,合同会社ＮＥＷＭＡＮ,,合同会社,東京都,千代田区,神田佐久間町３丁目２番地,,13,101,1010025,,,,,,,2025-04-11,1,,,,,ニューマン,0
868,4010003047050,新規,0,2025-04-11,2025-04-11,合同会社ＯＲＳＵＳ,,合同会社,東京都,中央区,銀座１丁目１２－４－７階,,13,102,1040061,,,,,,,2025-04-11,1,,,,,オルサス,0
869,4010005039863,新規,0,2025-04-11,2025-04-11,一般社団法人レジャーダイビング認定カード普及協議会,,その他の設立登記法人,東京都,中央区,晴海１丁目８番１０号晴海アイランドトリトンスクエアオフィスタワーＸ４０Ｆ,,13,102,1040053,,,,,,,2025-04-11,1,,,,,レジャーダイビングニンテイカードフキュウキョウギカイ,0
875,4010401189304,新規,0,2025-04-11,2025-04-11,株式会社グローバル・インサイツ,,株式会社,東京都,港区,北青山３丁目６番７号青山パラシオタワー１１階,,13,103,1070061,,,,,,,2025-04-11,1,,,,,グローバルインサイツ,0
876,4010401189394,新規,0,2025-04-11,2025-04-11,サードリー株式会社,,株式会社,東京都,港区,虎ノ門３丁目１７番１号,,13,103,1050001,,,,,,,2025-04-11,1,,,,,サードリー,0
877,4010401189403,新規,0,2025-04-11,2025-04-11,株式会社Ｓｏｌｅｉｌ,,株式会社,東京都,港区,南青山１丁目２６番１３号パークコート乃木坂ザタワー２０３,,13,103,1070062,,,,,,,2025-04-11,1,,,,,ソレイユ,0
878,4010401189411,新規,0,2025-04-11,2025-04-11,ＭＣＰ３７株式会社,,株式会社,東京都,港区,元赤坂１丁目１番８号株式会社赤坂国際会計内,,13,103,1070051,,,,,,,2025-04-11,1,,,,,エムシーピースリーセブン,0
879,4010401189675,新規,0,2025-04-11,2025-04-11,フランリーシング１株式会社,,株式会社,東京都,港区,虎ノ門１丁目２番６号,,13,103,1050001,,,,,,,2025-04-11,1,,,,,フランリーシングワン,0
882,4010403034838,新規,0,2025-04-11,2025-04-11,合同会社ＦＹＩ,,合同会社,東京都,港区,新橋５丁目８番４号,,13,103,1050004,,,,,,,2025-04-11,1,,,,,エフワイアイ,0
885,4010405024283,新規,0,2025-04-11,2025-04-11,一般社団法人Ｓｅｐａｔ,,その他の設立登記法人,東京都,港区,虎ノ門１丁目１番１８号ヒューリック虎ノ門ビル９階Ｌ＆Ｐ司法書士法人内,,13,103,1050001,,,,,,,2025-04-11,1,,,,,セーパット,0
890,4010601067086,新規,0,2025-04-11,2025-04-11,株式会社日栄サプライズ,,株式会社,東京都,江東区,扇橋３丁目４番７－３０２号,,13,108,1350011,,,,,,,2025-04-11,1,,,,,ニチエイサプライズ,0
891,4010601067103,新規,0,2025-04-11,2025-04-11,済海商事株式会社,,株式会社,東京都,墨田区,千歳３丁目６番５号２０３室プロス森下,,13,107,1300025,,,,,,,2025-04-11,1,,,,,サイカイショウジ,0
894,4010701047483,新規,0,2025-04-11,2025-04-11,株式会社Ｅｃｌａｔ,,株式会社,東京都,品川区,上大崎１丁目１１－１７プラムアーク白金台４０１号,,13,109,1410021,,,,,,,2025-04-11,1,,,,,エクラ,0
895,4010701047500,新規,0,2025-04-11,2025-04-11,株式会社ＡＲＮＯ,,株式会社,東京都,品川区,西五反田１丁目２６－２五反田サンハイツビル２Ｆ,,13,109,1410031,,,,,,,2025-04-11,1,,,,,アルノ,0
896,4010701047517,新規,0,2025-04-11,2025-04-11,株式会社ＳＯＲ,,株式会社,東京都,品川区,北品川２丁目２６番２０－８０３号,,13,109,1400001,,,,,,,2025-04-11,1,,,,,ソル,0
897,4010701047533,新規,0,2025-04-11,2025-04-11,株式会社みょうじょう,,株式会社,東京都,品川区,南品川５丁目１６番７号Ｕ－ｍａｋｅ南品川１Ｆ,,13,109,1400004,,,,,,,2025-04-11,1,,,,,ミョウジョウ,0
898,4010701047541,新規,0,2025-04-11,2025-04-11,Ｋｅｗｅｌ株式会社,,株式会社,東京都,品川区,上大崎３丁目１０番３２－２０２号,,13,109,1410021,,,,,,,2025-04-11,1,,,,,キューエル,0
899,4010703007659,新規,0,2025-04-11,2025-04-11,ラウンジプランニング合同会社,,合同会社,東京都,品川区,西中延１丁目２番３２号美浜ハイツ１Ｅ,,13,109,1420054,,,,,,,2025-04-11,1,,,,,ラウンジプランニング,0
907,4010901057159,新規,0,2025-04-11,2025-04-11,ＯＨＡＮＡ株式会社,,株式会社,東京都,世田谷区,砧７丁目１８番２６－１３０５,,13,112,1570073,,,,,,,2025-04-11,1,,,,,オハナ,0
911,4010903009843,新規,0,2025-04-11,2025-04-11,合同会社ＬＥＡＤＥＲ,,合同会社,東京都,世田谷区,深沢６丁目２１‐２１ジャイロ深沢Ａ,,13,112,1580081,,,,,,,2025-04-11,1,,,,,リーダー,0
917,4011001168838,新規,0,2025-04-11,2025-04-11,株式会社ＡｎａＬｙｓｉｓ　Ｍａｒｋｅｔｉｎｇ,,株式会社,東京都,渋谷区,渋谷３丁目５番１６号,,13,113,1500002,,,,,,,2025-04-11,1,,,,,アナリシスマーケティング,0
918,4011001168879,新規,0,2025-04-11,2025-04-11,ジャイアント・アジャイル株式会社,,株式会社,東京都,渋谷区,神南１丁目１１番４号ＦＰＧリンクス神南５階,,13,113,1500041,,,,,,,2025-04-11,1,,,,,ジャイアントアジャイル,0
926,4011101111152,新規,0,2025-04-11,2025-04-11,塚越ホールディングス株式会社,,株式会社,東京都,新宿区,左門町３番地,,13,104,1600017,,,,,,,2025-04-11,1,,,,,ツカゴシホールディングス,0
927,4011101111243,新規,0,2025-04-11,2025-04-11,株式会社田上企画,,株式会社,東京都,新宿区,西早稲田１丁目９番６－８０１号,,13,104,1690051,,,,,,,2025-04-11,1,,,,,タノウエキカク,0
928,4011101111268,新規,0,2025-04-11,2025-04-11,ブリーズ株式会社,,株式会社,東京都,新宿区,早稲田鶴巻町５２０－１０新宿早稲田レーベル１Ｆ１１９,,13,104,1620041,,,,,,,2025-04-11,1,,,,,ブリーズ,0
929,4011101111276,新規,0,2025-04-11,2025-04-11,株式会社小規模事業者持続化支援協会,,株式会社,東京都,新宿区,西新宿６丁目５番１号新宿アイランドタワー２階,,13,104,1600023,,,,,,,2025-04-11,1,,,,,ショウキボジギョウシャジゾクカシエンキョウカイ,0
933,4011103015748,新規,0,2025-04-11,2025-04-11,Ｈ２アセットマネジメント合同会社,,合同会社,東京都,新宿区,西新宿３丁目３番１３号西新宿水間ビル６階,,13,104,1600023,,,,,,,2025-04-11,1,,,,,エイチツーアセットマネジメント,0
934,4011203004659,新規,0,2025-04-11,2025-04-11,合同会社トパーズ,,合同会社,東京都,中野区,上高田１丁目３１番６号,,13,114,1640002,,,,,,,2025-04-11,1,,,,,トパーズ,0
935,4011303005499,新規,0,2025-04-11,2025-04-11,合同会社百式,,合同会社,東京都,杉並区,成田東３丁目３３番１２号,,13,115,1660015,,,,,,,2025-04-11,1,,,,,ヒャクシキ,0
936,4011303005508,新規,0,2025-04-11,2025-04-11,合同会社Ｒｉｃｈ　Ｌｉｆｅｎｅｓｓ,,合同会社,東京都,杉並区,高円寺南４丁目２７－７ラインビルド高円寺林４０２,,13,115,1660003,,,,,,,2025-04-11,1,,,,,リッチライフネス,0
938,4011401027008,新規,0,2025-04-11,2025-04-11,株式会社ＦｏｕｒＳｉｇｈｔＬｉｎｋ,,株式会社,東京都,板橋区,加賀１丁目４番９－３０１号,,13,119,1730003,,,,,,,2025-04-11,1,,,,,フォーサイトリンク,0
942,4011501031925,新規,0,2025-04-11,2025-04-11,＿源商事株式会社,00138728,株式会社,東京都,荒川区,荒川５丁目３０番６号１０６号室,,13,118,1160002,,,,,,,2025-04-11,1,,,,,シンゲンショウジ,0
949,4011801045930,新規,0,2025-04-11,2025-04-11,株式会社日中交流協力発展センター,,株式会社,東京都,足立区,足立４丁目３３番１－１０６号,,13,121,1200015,,,,,,,2025-04-11,1,,,,,ニッチュウコウリュウキョウリョクハッテンセンター,0
952,4012401042979,新規,0,2025-04-11,2025-04-11,株式会社キズナグローバル,,株式会社,東京都,府中市,美好町１丁目２２番８号内藤ビル３階,,13,206,1830045,,,,,,,2025-04-11,1,,,,,キズナグローバル,0
954,4012703003241,新規,0,2025-04-11,2025-04-11,合同会社ムラノ不動産,,合同会社,東京都,東村山市,栄町３丁目１６番地２８,,13,213,1890013,,,,,,,2025-04-11,1,,,,,ムラノフドウサン,0
955,4012801023876,新規,0,2025-04-11,2025-04-11,株式会社Ｕ‐ｏｎｅ製作所,,株式会社,東京都,日野市,三沢１５０２番地の８ルイシャトレ高幡不動１０６,,13,212,1910032,,,,,,,2025-04-11,1,,,,,ユーワンセイサクショ,0
956,4012801023892,新規,0,2025-04-11,2025-04-11,株式会社大石電気,,株式会社,東京都,東大和市,高木１丁目１６番地,,13,220,2070005,,,,,,,2025-04-11,1,,,,,オオイシデンキ,0
962,4013301054098,新規,0,2025-04-11,2025-04-11,株式会社ＨＭ,,株式会社,東京都,豊島区,南池袋２丁目４５番２‐４９０５号,,13,116,1710022,,,,,,,2025-04-11,1,,,,,エイチエム,0
966,4020001162073,新規,0,2025-04-11,2025-04-11,７＆１０シーズ株式会社,,株式会社,神奈川県,川崎市麻生区,高石３丁目１２番１８号,,14,137,2150003,,,,,,,2025-04-11,1,,,,,セブンアンドテンシーズ,0
967,4020001162189,新規,0,2025-04-11,2025-04-11,株式会社ケーキ工房Ｔａｋａｃｏ’ＭＯＭ,,株式会社,神奈川県,横浜市青葉区,あざみ野２丁目６番地７０,,14,117,2250011,,,,,,,2025-04-11,1,,,,,,0
970,4020003028264,新規,0,2025-04-11,2025-04-11,Ｉｓｓｅ　Ｍｏｎｅｙ　Ｐｌｕｓ合同会社,,合同会社,神奈川県,横浜市神奈川区,金港町５－１４クアドリフォリオ８階,,14,102,2210056,,,,,,,2025-04-11,1,,,,,イッセマネープラス,0
975,4021003015855,新規,0,2025-04-11,2025-04-11,Ｃｏ‐Ｃｌｉｍｂｅｒ合同会社,,合同会社,神奈川県,鎌倉市,材木座４丁目６‐１５,,14,204,2480013,,,,,,,2025-04-11,1,,,,,コクライマー,0
982,4030001165901,新規,0,2025-04-11,2025-04-11,株式会社武州小林商店,,株式会社,埼玉県,行田市,谷郷１丁目１３番３０号,,11,206,3610062,,,,,,,2025-04-11,1,,,,,ブシュウコバヤシショウテン,0
983,4030001165934,新規,0,2025-04-11,2025-04-11,株式会社プロアイエージェント,,株式会社,埼玉県,春日部市,大場３８１－２,,11,214,3440021,,,,,,,2025-04-11,1,,,,,プロアイエージェント,0
984,4030001165942,新規,0,2025-04-11,2025-04-11,株式会社ピックアンドポップ,,株式会社,埼玉県,川口市,坂下町４丁目１２番６号,,11,203,3340003,,,,,,,2025-04-11,1,,,,,ピックアンドポップ,0
985,4030001165950,新規,0,2025-04-11,2025-04-11,株式会社ＲＩＳＥ,,株式会社,埼玉県,行田市,深水町３番地２９,,11,206,3610043,,,,,,,2025-04-11,1,,,,,ライズ,0
986,4030001165959,新規,0,2025-04-11,2025-04-11,株式会社Ｔｒｕｓｔ　Ｓ,,株式会社,埼玉県,川口市,大字安行藤八３３番地の３,,11,203,3340051,,,,,,,2025-04-11,1,,,,,トラストエス,0
987,4030001165967,新規,0,2025-04-11,2025-04-11,株式会社ジーニー,,株式会社,埼玉県,北足立郡伊奈町,栄１丁目６６－６,,11,301,3620805,,,,,,,2025-04-11,1,,,,,ジーニー,0
992,4030003026424,新規,0,2025-04-11,2025-04-11,合同会社Ｂｒａｃｋｅｎ　Ｅｓｔａｔｅ,,合同会社,埼玉県,蕨市,錦町１丁目１６―１０,,11,223,3350005,,,,,,,2025-04-11,1,,,,,ブラッケンエステート,0
993,4030003026556,新規,0,2025-04-11,2025-04-11,平和房合同会社,,合同会社,埼玉県,さいたま市浦和区,元町２丁目７－１１,,11,107,3300073,,,,,,,2025-04-11,1,,,,,ヘイワボウ,0
994,4030003026572,新規,0,2025-04-11,2025-04-11,合同会社タカサゴ,,合同会社,埼玉県,さいたま市浦和区,高砂４丁目２番１－６０２号,,11,107,3300063,,,,,,,2025-04-11,1,,,,,タカサゴ,0
1001,4040001138278,新規,0,2025-04-11,2025-04-11,株式会社Ｂｌｕｎａ　Ｄｅｓｉｇｎ　Ｏｆｆｉｃｅ,,株式会社,千葉県,千葉市中央区,矢作町８３６番地ＰＳＲ矢作町Ａ３０１,,12,101,2600851,,,,,,,2025-04-11,1,,,,,ブルーナデザインオフィス,0
1008,4050001056495,新規,0,2025-04-11,2025-04-11,株式会社４ｔｈ　Ｔｒｅｅ,,株式会社,茨城県,稲敷郡阿見町,大字阿見４７９４番地２,,08,443,3000331,,,,,,,2025-04-11,1,,,,,フォースツリー,0
1015,4070005010372,新規,0,2025-04-11,2025-04-11,一般社団法人全日本エピテーゼ連盟,,その他の設立登記法人,群馬県,高崎市,片岡町３丁目２５番５号,,10,202,3700862,,,,,,,2025-04-11,1,,,,,,0
1016,4070005010380,新規,0,2025-04-11,2025-04-11,土地家屋調査士法人グランドプロ,,その他の設立登記法人,群馬県,高崎市,上中居町４３番地１,,10,202,3700851,,,,,,,2025-04-11,1,,,,,グランドプロ,0
1022,4080405007728,新規,0,2025-04-11,2025-04-11,一般社団法人ＥＳＬ　Ａｃａｄｅｍｙ,,その他の設立登記法人,静岡県,浜松市中央区,高林４丁目８番７号,,22,138,4300907,,,,,,,2025-04-11,1,,,,,イーエスエルアカデミー,0
1037,4120001274263,新規,0,2025-04-11,2025-04-11,株式会社Ｍｉｉｃｅ,,株式会社,大阪府,大阪市北区,梅田２丁目２番２号ヒルトンプラザウエストオフィスタワー１９階,,27,127,5300001,,,,,,,2025-04-11,1,,,,,ミーチェ,0
1038,4120001274404,新規,0,2025-04-11,2025-04-11,Ｈａｌａｌ　Ｔａｓｔｅ　Ｊａｐａｎ株式会社,,株式会社,大阪府,大阪市住之江区,浜口東３丁目３番４－１０３号,,27,125,5590002,,,,,,,2025-04-11,1,,,,,ハラールテイストジャパン,0
1039,4120001274437,新規,0,2025-04-11,2025-04-11,株式会社タノシム,,株式会社,大阪府,大阪市中央区,宗右衛門町１番２１号,,27,128,5420084,,,,,,,2025-04-11,1,,,,,タノシム,0
1040,4120001274511,新規,0,2025-04-11,2025-04-11,株式会社米来,,株式会社,大阪府,大阪市住吉区,清水丘２丁目２７番１３‐４Ｆ,,27,120,5580033,,,,,,,2025-04-11,1,,,,,ミライ,0
1041,4120001274676,新規,0,2025-04-11,2025-04-11,Ｃｈｉｒｏ株式会社,,株式会社,大阪府,大阪市鶴見区,放出東３丁目２１番４０号ローレルコート放出２Ｆ,,27,124,5380044,,,,,,,2025-04-11,1,,,,,チロ,0
1043,4120003029070,新規,0,2025-04-11,2025-04-11,合同会社グローバルハート,,合同会社,大阪府,大阪市福島区,福島４丁目３番２３－２２０９号,,27,103,5530003,,,,,,,2025-04-11,1,,,,,グローバルハート,0
1044,4120003029104,新規,0,2025-04-11,2025-04-11,繁盛商事合同会社,,合同会社,大阪府,大阪市東成区,中道４丁目１６番２１－４１３号,,27,115,5370025,,,,,,,2025-04-11,1,,,,,ハンジョウショウジ,0
1048,4120101071453,新規,0,2025-04-11,2025-04-11,株式会社結び,,株式会社,大阪府,泉大津市,我孫子１丁目２番４７号,,27,206,5950031,,,,,,,2025-04-11,1,,,,,ムスビ,0
1049,4120101071461,新規,0,2025-04-11,2025-04-11,株式会社多田建装,,株式会社,大阪府,堺市北区,東雲東町３丁７番２５－２号,,27,146,5918041,,,,,,,2025-04-11,1,,,,,タダケンソウ,0
1051,4120103006399,新規,0,2025-04-11,2025-04-11,合同会社笑和,,合同会社,大阪府,富田林市,常盤町８番１４号,,27,214,5840032,,,,,,,2025-04-11,1,,,,,ショウワ,0
1053,4120901050714,新規,0,2025-04-11,2025-04-11,株式会社小野不動産,,株式会社,大阪府,高槻市,宮田町２丁目３７番５号－３０１号室,,27,207,5691142,,,,,,,2025-04-11,1,,,,,オノフドウサン,0
1054,4122001039068,新規,0,2025-04-11,2025-04-11,株式会社ＰＲＩＳＴ　ＯＳＡＫＡ,,株式会社,大阪府,東大阪市,菱屋西１丁目２１番１０－９０７号,,27,227,5770807,,,,,,,2025-04-11,1,,,,,プリストオオサカ,0
1064,4140001138004,新規,0,2025-04-11,2025-04-11,株式会社ＭＫグループ,,株式会社,兵庫県,姫路市,玉手２丁目３６３番地,,28,201,6700985,,,,,,,2025-04-11,1,,,,,エムケーグループ,0
1065,4140001138029,新規,0,2025-04-11,2025-04-11,株式会社ＲＵＴＳ　Ａｈｃｈｉ　Ｃｒｅａｔｅ,,株式会社,兵庫県,明石市,二見町西二見１６５７－１７,,28,203,6740094,,,,,,,2025-04-11,1,,,,,ルッツアーキクリエイト,0
1066,4140001138037,新規,0,2025-04-11,2025-04-11,株式会社イー・コンフォート,,株式会社,兵庫県,姫路市,福沢町８５番地プチメゾンＳＥＮＢＡ２０１号,,28,201,6700992,,,,,,,2025-04-11,1,,,,,イーコンフォート,0
1067,4140001138045,新規,0,2025-04-11,2025-04-11,ガスシステムデザイン株式会社,,株式会社,兵庫県,宝塚市,平井山荘２０番１９号,,28,214,6650817,,,,,,,2025-04-11,1,,,,,ガスシステムデザイン,0
1068,4140001138136,新規,0,2025-04-11,2025-04-11,株式会社ミル,,株式会社,兵庫県,尼崎市,潮江５丁目２番１－２０１１号,,28,202,6610976,,,,,,,2025-04-11,1,,,,,ミル,0
1069,4140001138144,新規,0,2025-04-11,2025-04-11,株式会社貴商,,株式会社,兵庫県,姫路市,広畑区西夢前台５丁目１０３番地,,28,201,6711103,,,,,,,2025-04-11,1,,,,,タカショウ,0
1074,4140003021918,新規,0,2025-04-11,2025-04-11,合同会社ＳＴＭプロパティ,,合同会社,兵庫県,神戸市兵庫区,中道通２丁目２番１号、４０１,,28,105,6520801,,,,,,,2025-04-11,1,,,,,エスティエムプロパティ,0
1078,4160001026669,新規,0,2025-04-11,2025-04-11,株式会社ｃｒｅｈａｐｉ,,株式会社,滋賀県,東近江市,葛巻町４２７番地,,25,213,5291566,,,,,,,2025-04-11,1,,,,,クリハピ,0
1079,4160001026677,新規,0,2025-04-11,2025-04-11,星河旅館サービス株式会社,,株式会社,滋賀県,高島市,永田８番地４５ＢｉｗａＧａｌａｘｙ１０１室,,25,212,5201112,,,,,,,2025-04-11,1,,,,,ホシカワリョカンサービス,0
1084,4180001166364,新規,0,2025-04-11,2025-04-11,株式会社はじめ建設,,株式会社,愛知県,清須市,西枇杷島町城並３丁目６番地１４,,23,233,4520011,,,,,,,2025-04-11,1,,,,,ハジメケンセツ,0
1086,4180003028307,新規,0,2025-04-11,2025-04-11,合同会社トランスサポート,,合同会社,愛知県,名古屋市港区,当知３丁目２１１３－１,,23,111,4550804,,,,,,,2025-04-11,1,,,,,トランスサポート,0
1088,4180005021029,新規,0,2025-04-11,2025-04-11,特定非営利活動法人ＭｏｔｈｅｒｌｙＥａｒｔｈ夢大地,,その他の設立登記法人,愛知県,一宮市,和光２丁目４番３２号,,23,203,4910026,,,,,,,2025-04-11,1,,,,,マザリーアースユメダイチ,0
1090,4180303006524,新規,0,2025-04-11,2025-04-11,合同会社Ｆｉスポーツ,,合同会社,愛知県,岡崎市,牧平町字岩田３番地６６,,23,202,4443624,,,,,,,2025-04-11,1,,,,,エフアイスポーツ,0
1091,4190001032152,新規,0,2025-04-11,2025-04-11,株式会社ＮＡＮＡＩＲＯ,,株式会社,三重県,松阪市,末広町１丁目２７８番地１ＶＯビル３Ａ,,24,204,5150016,,,,,,,2025-04-11,1,,,,,ナナイロ,0
1098,4230001020838,新規,0,2025-04-11,2025-04-11,株式会社プラチナハンド,,株式会社,富山県,富山市,粟島町２丁目１０番７号,,16,201,9318314,,,,,,,2025-04-11,1,,,,,プラチナハンド,0
1102,4240001064801,新規,0,2025-04-11,2025-04-11,株式会社ＴＡＩＫＡＩ,,株式会社,広島県,広島市安佐南区,西原７丁目５－４,,34,105,7310113,,,,,,,2025-04-11,1,,,,,タイカイ,0
1106,4250001021090,新規,0,2025-04-11,2025-04-11,株式会社Ｓ設備設計,,株式会社,山口県,山口市,小郡花園町１番１２号小郡第３ビル６０３号室,,35,203,7540022,,,,,,,2025-04-11,1,,,,,エスセツビセッケイ,0
1109,4260001040098,新規,0,2025-04-11,2025-04-11,株式会社皆希,,株式会社,岡山県,倉敷市,福井３６１番地４０,,33,202,7100844,,,,,,,2025-04-11,1,,,,,ミナキ,0
1110,4260003005116,新規,0,2025-04-11,2025-04-11,合同会社源,,合同会社,岡山県,赤磐市,桜が丘西９丁目４番５８号,,33,213,7090802,,,,,,,2025-04-11,1,,,,,ミナモト,0
1116,4290001109551,新規,0,2025-04-11,2025-04-11,株式会社Ｃｈａｌｅｕｒ,,株式会社,福岡県,宗像市,赤間駅前２丁目２番４－１１０２号,,40,220,8114185,,,,,,,2025-04-11,1,,,,,シャルール,0
1117,4290001109642,新規,0,2025-04-11,2025-04-11,株式会社ＰＨＩ,,株式会社,福岡県,福岡市早良区,曙２丁目１１番２３号,,40,137,8140004,,,,,,,2025-04-11,1,,,,,ピーエイチアイ,0
1118,4290001109659,新規,0,2025-04-11,2025-04-11,株式会社山希,,株式会社,福岡県,久留米市,藤山町１５６６番地５１,,40,203,8300053,,,,,,,2025-04-11,1,,,,,ヤマキ,0
1119,4290003016647,新規,0,2025-04-11,2025-04-11,みやま環境保全合同会社,,合同会社,福岡県,みやま市,高田町亀谷１１４１番地,,40,229,8350132,,,,,,,2025-04-11,1,,,,,ミヤマカンキョウホゼン,0
1120,4290003016663,新規,0,2025-04-11,2025-04-11,合同会社ナガツク,,合同会社,福岡県,福津市,宮司５丁目６番２号,,40,224,8113305,,,,,,,2025-04-11,1,,,,,ナガツク,0
1121,4290803005015,新規,0,2025-04-11,2025-04-11,合同会社ドリーム,,合同会社,福岡県,行橋市,西宮市５丁目１９－１０,,40,213,8240031,,,,,,,2025-04-11,1,,,,,ドリーム,0
1124,4320001021042,新規,0,2025-04-11,2025-04-11,株式会社ｆｉｇ,,株式会社,大分県,大分市,府内町１丁目１番２０号ＴＯＹビル４０１,,44,201,8700021,,,,,,,2025-04-11,1,,,,,フィッグ,0
1125,4320001021059,新規,0,2025-04-11,2025-04-11,ルミサスアセット株式会社,,株式会社,大分県,大分市,要町１番６－１１０２号,,44,201,8700831,,,,,,,2025-04-11,1,,,,,ルミサスアセット,0
1138,4370001052470,新規,0,2025-04-11,2025-04-11,株式会社ＫＤ資産管理,,株式会社,宮城県,仙台市青葉区,大手町５番３２－３０４号,,04,101,9800805,,,,,,,2025-04-11,1,,,,,ケイディシサンカンリ,0
1151,4420001019084,新規,0,2025-04-11,2025-04-11,株式会社ＱＡＲＥＬ,,株式会社,青森県,青森市,大字浦町字奥野３５２番地９,,02,201,0300842,,,,,,,2025-04-11,1,,,,,クアレル,0
1152,4420005007952,新規,0,2025-04-11,2025-04-11,一般社団法人ひがしどおり共生パートナーズ,,その他の設立登記法人,青森県,下北郡東通村,大字砂子又字里１番地６１,,02,424,0394222,,,,,,,2025-04-11,1,,,,,ヒガシドオリキョウセイパートナーズ,0
1155,4430001094151,新規,0,2025-04-11,2025-04-11,株式会社アークトゥルステクノロジズ,,株式会社,北海道,札幌市東区,北三十四条東２０丁目１番６号,,01,103,0070834,,,,,,,2025-04-11,1,,,,,アークトゥルステクノロジズ,0
1157,4430003017498,新規,0,2025-04-11,2025-04-11,合同会社レアリゼ,,合同会社,北海道,北広島市,三島６１－４,,01,234,0611266,,,,,,,2025-04-11,1,,,,,レアリゼ,0
1158,4430003017515,新規,0,2025-04-11,2025-04-11,合同会社ＫＤ,,合同会社,北海道,苫小牧市,木場町１丁目４番１３号ＢＴＣグループビル３階,,01,213,0530033,,,,,,,2025-04-11,1,,,,,ケーディー,0
1166,4700150129894,新規,0,2025-04-11,2025-04-11,ＡＵＤＩＯ　ＷＩＴＨ　ＩＮＴＥＬＬＩＧＥＮＣＥ　ＬＴＤ．,,外国会社等,,,,,,,,１３５－１３９　Ｕｎｉｔ　３　Ｎｅｗ　Ｃｏｕｒｔ　Ｗａｙ，Ｏｒｍｓｋｉｒｋ，Ｌａｎｃａｓｈｉｒｅ，Ｕｎｉｔｅｄ　Ｋｉｎｇｄｏｍ,,,,,,2025-04-11,1,,,,,オーデイオウイズインテリジエンスリミテツド,0
1177,5010001253822,新規,0,2025-04-11,2025-04-11,株式会社ＮＩＫＥ,,株式会社,東京都,中央区,銀座７丁目３番１３－４０２号,,13,102,1040061,,,,,,,2025-04-11,1,,,,,ニケ,0
1178,5010001254052,新規,0,2025-04-11,2025-04-11,ヒカリペイ株式会社,,株式会社,東京都,千代田区,九段南２丁目６－７,,13,101,1020074,,,,,,,2025-04-11,1,,,,,ヒカリペイ,0
1179,5010001254060,新規,0,2025-04-11,2025-04-11,株式会社香実菜,,株式会社,東京都,中央区,銀座１丁目２２番１１号銀座大竹ビジデンス２Ｆ,,13,102,1040061,,,,,,,2025-04-11,1,,,,,カミナ,0
1180,5010001254077,新規,0,2025-04-11,2025-04-11,株式会社ＡＸＩ,,株式会社,東京都,千代田区,神田鍛冶町３丁目３－３高遠ビル５Ｆ,,13,101,1010045,,,,,,,2025-04-11,1,,,,,アクシー,0
1181,5010001254085,新規,0,2025-04-11,2025-04-11,Ａｌｐｈａｔｅｒｒａ　Ａｄｖｉｓｏｒｙ株式会社,,株式会社,東京都,千代田区,丸の内１丁目８番３号丸の内トラストタワー２０階,,13,101,1000005,,,,,,,2025-04-11,1,,,,,アルファテラアドバイザリー,0
1182,5010005039887,新規,0,2025-04-11,2025-04-11,一般社団法人臨床検査かけるわくわくプロジェクト,,その他の設立登記法人,東京都,文京区,本駒込５丁目３０番１０号,,13,105,1130021,,,,,,,2025-04-11,1,,,,,リンショウケンサカケルワクワクプロジェクト,0
1183,5010005039895,新規,0,2025-04-11,2025-04-11,一般社団法人ＡＫＡＴＳＵＫＩ,,その他の設立登記法人,東京都,中央区,銀座２丁目１５番２号ＫＲＧｉｎｚａＩＩ４Ｆ,00138736,13,102,1040061,,,,,,,2025-04-11,1,,,,,アカツキ,0
1186,5010401189410,新規,0,2025-04-11,2025-04-11,ＭＣＰ３６株式会社,,株式会社,東京都,港区,元赤坂１丁目１番８号株式会社赤坂国際会計内,,13,103,1070051,,,,,,,2025-04-11,1,,,,,エムシーピースリーシックス,0
1187,5010401189501,新規,0,2025-04-11,2025-04-11,株式会社グラン・ブルー,,株式会社,東京都,港区,六本木６丁目１０－１,,13,103,1060032,,,,,,,2025-04-11,1,,,,,グランブルー,0
1188,5010401189583,新規,0,2025-04-11,2025-04-11,ナマテック株式会社,,株式会社,東京都,港区,東麻布１丁目９番１１－５０４号,,13,103,1060044,,,,,,,2025-04-11,1,,,,,ナマテック,0
1189,5010403034770,新規,0,2025-04-11,2025-04-11,マネジメントパートナーズ合同会社,,合同会社,東京都,港区,南青山３丁目１番３６号青山丸竹ビル６Ｆ,,13,103,1070062,,,,,,,2025-04-11,1,,,,,マネジメントパートナーズ,0
1195,5010601067077,新規,0,2025-04-11,2025-04-11,株式会社泰雅商事,,株式会社,東京都,江東区,大島７丁目２２番１６－８０３号,,13,108,1360072,,,,,,,2025-04-11,1,,,,,タイガショウジ,0
1196,5010601067119,新規,0,2025-04-11,2025-04-11,ルクソア株式会社,,株式会社,東京都,江東区,平野３丁目２番１２－１７０５号,,13,108,1350023,,,,,,,2025-04-11,1,,,,,ルクソア,0
1197,5010603011504,新規,0,2025-04-11,2025-04-11,合同会社Ｎｅｘｔ　Ａｂｓｏｌｕｔｅ,,合同会社,東京都,墨田区,墨田５丁目５番２号,,13,107,1310031,,,,,,,2025-04-11,1,,,,,ネクストアブソリュート,0
1198,5010701047482,新規,0,2025-04-11,2025-04-11,株式会社ファクティー,,株式会社,東京都,品川区,上大崎１丁目１１－１７プラムアーク白金台４０１号,,13,109,1410021,,,,,,,2025-04-11,1,,,,,ファクティー,0
1199,5010701047516,新規,0,2025-04-11,2025-04-11,株式会社レールライズ,,株式会社,東京都,品川区,上大崎３丁目１番２号,,13,109,1410021,,,,,,,2025-04-11,1,,,,,レールライズ,0
1200,5010701047540,新規,0,2025-04-11,2025-04-11,株式会社ＡＲＥＹＯ,,株式会社,東京都,品川区,西五反田２丁目１９－１２,,13,109,1410031,,,,,,,2025-04-11,1,,,,,アレヨ,0
1202,5010703007658,新規,0,2025-04-11,2025-04-11,合同会社ＡＰスタジオ,,合同会社,東京都,品川区,西品川３丁目２１－８インザガーデン５０３,,13,109,1410033,,,,,,,2025-04-11,1,,,,,エーピースタジオ,0
1206,5010903009842,新規,0,2025-04-11,2025-04-11,合同会社Ｙ３,,合同会社,東京都,世田谷区,若林１丁目７番２１号,,13,112,1540023,,,,,,,2025-04-11,1,,,,,ワイスリー,0
1216,5011001168853,新規,0,2025-04-11,2025-04-11,株式会社＿,00138730,株式会社,東京都,渋谷区,道玄坂１丁目１０番８号渋谷道玄坂東急ビル２Ｆ－Ｃ,,13,113,1500043,,,,,,,2025-04-11,1,,,,,シュウ,0
1217,5011001168878,新規,0,2025-04-11,2025-04-11,株式会社Ｙｏｋａ,,株式会社,東京都,目黒区,中町１丁目９番１９号セメリオ目黒３０５,,13,110,1530065,,,,,,,2025-04-11,1,,,,,ヨカ,0
1219,5011003021366,新規,0,2025-04-11,2025-04-11,Ｇ＆Ｇ＆Ｇ合同会社,,合同会社,東京都,渋谷区,恵比寿南３丁目１－２４－６０１,,13,113,1500022,,,,,,,2025-04-11,1,,,,,ジーアンドジーアンドジー,0
1221,5011101111275,新規,0,2025-04-11,2025-04-11,株式会社プレイバッカーズ,,株式会社,東京都,新宿区,西新宿６丁目５番１号新宿アイランドタワー２階,,13,104,1600023,,,,,,,2025-04-11,1,,,,,プレイバッカーズ,0
1224,5011201026274,新規,0,2025-04-11,2025-04-11,株式会社ＩＮＴＥＮＳＥ,,株式会社,東京都,中野区,中野１丁目７番６号ヴィーゼンシュロス２０１,,13,114,1640001,,,,,,,2025-04-11,1,,,,,インテンス,0
1231,5011501031924,新規,0,2025-04-11,2025-04-11,株式会社ＦＯＲ,,株式会社,東京都,北区,浮間２丁目２５番１６－３０１号レジェンド浮間公園,,13,117,1150051,,,,,,,2025-04-11,1,,,,,エフオーアール,0
1237,5011701028241,新規,0,2025-04-11,2025-04-11,エムケイエフ株式会社,,株式会社,東京都,江戸川区,東葛西５丁目２９番６号,,13,123,1340084,,,,,,,2025-04-11,1,,,,,エムケイエフ,0
1239,5011801045946,新規,0,2025-04-11,2025-04-11,捷諾三陽株式会社,,株式会社,東京都,葛飾区,金町２丁目２１－１トップ金町３１１号室,,13,122,1250042,,,,,,,2025-04-11,1,,,,,ジェノサンヨウ,0
1241,5012701018802,新規,0,2025-04-11,2025-04-11,株式会社ＲＹＵ,,株式会社,東京都,西東京市,中町３丁目６番１２－１０２号,,13,229,2020013,,,,,,,2025-04-11,1,,,,,リュウ,0
1243,5012801023891,新規,0,2025-04-11,2025-04-11,株式会社ＢＩＬＩ,,株式会社,東京都,立川市,富士見町７丁目１９番１２号,,13,202,1900013,,,,,,,2025-04-11,1,,,,,ビリ,0
1245,5012803003693,新規,0,2025-04-11,2025-04-11,合同会社Ｌｕｘ　Ｔｒａｄｅ　Ｊａｐａｎ,,合同会社,東京都,東大和市,清水３丁目７９２番地の１３,,13,220,2070004,,,,,,,2025-04-11,1,,,,,ラグトレードジャパン,0
1256,5020001162270,新規,0,2025-04-11,2025-04-11,株式会社ＦＡＨ,,株式会社,神奈川県,横浜市旭区,白根２丁目４４番地４号,,14,112,2410005,,,,,,,2025-04-11,1,,,,,エフエイエイチ,0
1257,5020001162304,新規,0,2025-04-11,2025-04-11,株式会社ｓｉｌｂｅｅ,,株式会社,神奈川県,横浜市鶴見区,栄町通２丁目１８番地１ナイスエスアリーナ横濱鶴見１０２,,14,101,2300038,,,,,,,2025-04-11,1,,,,,シルビー,0
1260,5020003028197,新規,0,2025-04-11,2025-04-11,合同会社ＰＲＥＴ,,合同会社,神奈川県,横浜市旭区,万騎が原１４５番地１０,,14,112,2410836,,,,,,,2025-04-11,1,,,,,プレ,0
1261,5020003028271,新規,0,2025-04-11,2025-04-11,クラスルーム合同会社,,合同会社,神奈川県,横浜市保土ケ谷区,鎌谷町２９９番地１サンクタス横濱三ツ沢公園６０３号,,14,106,2400063,,,,,,,2025-04-11,1,,,,,クラスルーム,0
1262,5020005016794,新規,0,2025-04-11,2025-04-11,一般財団法人健練学総合研究所,,その他の設立登記法人,神奈川県,川崎市中原区,今井南町１９番４７号碧仙堂ビル,,14,133,2110064,,,,,,,2025-04-11,1,,,,,ケンレンガクソウゴウケンキュウジョ,0
1266,5021005013336,新規,0,2025-04-11,2025-04-11,学校法人大和中央学園,,その他の設立登記法人,神奈川県,大和市,中央５丁目９番５号,,14,213,2420021,,,,,,,2025-04-11,1,,,,,ヤマトチュウオウガクエン,0
1272,5030001165917,新規,0,2025-04-11,2025-04-11,ＴＨ＆エムズホールディングス株式会社,,株式会社,埼玉県,さいたま市南区,沼影１丁目１１番２号Ａ－７０４,,11,108,3360027,,,,,,,2025-04-11,1,,,,,ティーエイチアンドエムズホールディングス,0
1273,5030001165933,新規,0,2025-04-11,2025-04-11,株式会社コアグリッド,,株式会社,埼玉県,比企郡吉見町,大字前河内３３番地,,11,347,3550135,,,,,,,2025-04-11,1,,,,,コアグリッド,0
1274,5030001165941,新規,0,2025-04-11,2025-04-11,株式会社シンクス,,株式会社,埼玉県,比企郡滑川町,みなみ野２丁目１１－１,,11,341,3550814,,,,,,,2025-04-11,1,,,,,シンクス,0
1275,5030001165958,新規,0,2025-04-11,2025-04-11,株式会社つむぐラボ,,株式会社,埼玉県,さいたま市大宮区,桜木町２丁目３番地（大宮マルイ７階）,,11,103,3300854,,,,,,,2025-04-11,1,,,,,ツムグラボ,0
1276,5030001165966,新規,0,2025-04-11,2025-04-11,ＫＡＮ＆Ｃｏ．株式会社,,株式会社,埼玉県,川口市,領家５丁目４番１号,,11,203,3320004,,,,,,,2025-04-11,1,,,,,カンアンドコー,0
1280,5030003026547,新規,0,2025-04-11,2025-04-11,関東トランスポート合同会社,,合同会社,埼玉県,入間郡毛呂山町,大字川角１３０１－１,,11,326,3500436,,,,,,,2025-04-11,1,,,,,カントウトランスポート,0
1295,5040003027313,新規,0,2025-04-11,2025-04-11,合同会社真巳,,合同会社,千葉県,千葉市花見川区,瑞穂２丁目１番地１ガーデンプラザ新検見川１２番館５０２号,,12,102,2620026,,,,,,,2025-04-11,1,,,,,マミ,0
1297,5050001056478,新規,0,2025-04-11,2025-04-11,株式会社ＴＯＭＯＣＯＳ,,株式会社,茨城県,つくば市,島名４３７６番地（諏訪Ｃ１９街区２）グランドパレスＮＳ－８８,,08,220,3002655,,,,,,,2025-04-11,1,,,,,トモコス,0
1298,5050003009186,新規,0,2025-04-11,2025-04-11,保全食品合同会社,,合同会社,茨城県,つくば市,花室８４４番地２,,08,220,3050025,,,,,,,2025-04-11,1,,,,,ホゼンショクヒン,0
1302,5070001042807,新規,0,2025-04-11,2025-04-11,株式会社道夢,,株式会社,群馬県,邑楽郡千代田町,大字赤岩２３０－１,,10,523,3700503,,,,,,,2025-04-11,1,,,,,トオム,0
1315,5090003002798,新規,0,2025-04-11,2025-04-11,合同会社ＫＯＲＯＣＨＩＮ　ＰＲＯＤＵＣＴＩＯＮＳ,,合同会社,山梨県,北杜市,大泉町西井出８２４０番地３３３９,,19,209,4091501,,,,,,,2025-04-11,1,,,,,コロチンプロダクションズ,0
1329,5120001274287,新規,0,2025-04-11,2025-04-11,株式会社ＰｉＣ,,株式会社,大阪府,大阪市浪速区,恵美須西２丁目２番６号ビジタル恵美須７・７０５号,,27,111,5560003,,,,,,,2025-04-11,1,,,,,ピーアイシー,0
1330,5120001274378,新規,0,2025-04-11,2025-04-11,株式会社ＵＭｉ,,株式会社,大阪府,大阪市西成区,萩之茶屋１丁目１２－７万葉ビル２５号室,,27,122,5570004,,,,,,,2025-04-11,1,,,,,ユミ,0
1331,5120001274394,新規,0,2025-04-11,2025-04-11,株式会社ＬＩＮＫ,,株式会社,大阪府,守口市,大庭町１丁目２０番９号,,27,209,5700009,,,,,,,2025-04-11,1,,,,,リンク,0
1332,5120001274403,新規,0,2025-04-11,2025-04-11,株式会社Ｒｅ　ＢＲＥＡＫ,,株式会社,大阪府,大阪市北区,天満１丁目１１－２０クリスタルブライト天満橋リバーサイド２０８,,27,127,5300043,,,,,,,2025-04-11,1,,,,,リブレイク,0
1333,5120001274411,新規,0,2025-04-11,2025-04-11,株式会社ワールドオーシャンズ４,,株式会社,大阪府,大阪市中央区,内本町１丁目２番８号ＴＳＫビル４Ｆ,,27,128,5400026,,,,,,,2025-04-11,1,,,,,ワールドオーシャンズフォー,0
1336,5120003029103,新規,0,2025-04-11,2025-04-11,合同会社信安,,合同会社,大阪府,大阪市東住吉区,湯里４丁目１１番１４号,,27,121,5460013,,,,,,,2025-04-11,1,,,,,シンアン,0
1337,5120101071460,新規,0,2025-04-11,2025-04-11,株式会社スワン,,株式会社,大阪府,高石市,綾園４丁目５番１－４１１号,,27,225,5920014,,,,,,,2025-04-11,1,,,,,スワン,0
1340,5120901050713,新規,0,2025-04-11,2025-04-11,株式会社ビーエスエンジニア,,株式会社,大阪府,摂津市,鳥飼下２丁目７－１１Ｂ号,,27,224,5660071,,,,,,,2025-04-11,1,,,,,ビーエスエンジニア,0
1341,5122001039067,新規,0,2025-04-11,2025-04-11,ジンジニア株式会社,,株式会社,大阪府,八尾市,本町７丁目３番８号,,27,212,5810003,,,,,,,2025-04-11,1,,,,,ジンジニア,0
1345,5130003010367,新規,0,2025-04-11,2025-04-11,合同会社ＢＮＬ,,合同会社,京都府,京都市伏見区,淀際目町２０３番地の２,,26,109,6130915,,,,,,,2025-04-11,1,,,,,ビーエヌエル,0
1349,5140001138093,新規,0,2025-04-11,2025-04-11,株式会社ＳＲＢホールディングス,,株式会社,兵庫県,洲本市,五色町都志角川５８７番地,,28,205,6561341,,,,,,,2025-04-11,1,,,,,エスアールビーホールディングス,0
1350,5140001138143,新規,0,2025-04-11,2025-04-11,株式会社おしだ企画,,株式会社,兵庫県,加古郡稲美町,六分一１１７８番地の２３８ＮＭＳビル５階,,28,381,6751112,,,,,,,2025-04-11,1,,,,,オシダキカク,0
1356,5140003021925,新規,0,2025-04-11,2025-04-11,ＭＡＳＴＥＲ　ＴＲＡＤＩＮＧ合同会社,,合同会社,兵庫県,神戸市西区,大津和３丁目１－１０－３０７号,,28,111,6512112,,,,,,,2025-04-11,1,,,,,マスタートレーディング,0
1360,5160001026684,新規,0,2025-04-11,2025-04-11,株式会社エースコネクト,,株式会社,滋賀県,野洲市,妙光寺２００番地１,,25,210,5202332,,,,,,,2025-04-11,1,,,,,エースコネクト,0
1366,5180001166297,新規,0,2025-04-11,2025-04-11,株式会社ＥＭＳ,,株式会社,愛知県,春日井市,気噴町北１丁目５４番地,,23,206,4870015,,,,,,,2025-04-11,1,,,,,イーエムエス,0
1367,5180001166314,新規,0,2025-04-11,2025-04-11,株式会社ＨＫＮ,,株式会社,愛知県,名古屋市緑区,若田３丁目１０６番地,,23,114,4580034,,,,,,,2025-04-11,1,,,,,エイチケーエヌ,0
1368,5180001166363,新規,0,2025-04-11,2025-04-11,株式会社エヌテクト,,株式会社,愛知県,春日井市,東野町５丁目１９番地の４,,23,206,4860817,,,,,,,2025-04-11,1,,,,,エヌテクト,0
1370,5180301039673,新規,0,2025-04-11,2025-04-11,株式会社ひまわりグループ,,株式会社,愛知県,豊橋市,神野新田町字トノ割１５番地の１,,23,201,4418077,,,,,,,2025-04-11,1,,,,,ヒマワリグループ,0
1371,5180301039715,新規,0,2025-04-11,2025-04-11,株式会社Ｒｉｚｕｎａｓｕ,,株式会社,愛知県,刈谷市,小垣江町子竿５４番地２,,23,210,4480813,,,,,,,2025-04-11,1,,,,,リズナス,0
1372,5180303006523,新規,0,2025-04-11,2025-04-11,合同会社インセデメント,,合同会社,愛知県,豊橋市,草間町字東山１２４番地１（Ｂ２）,,23,201,4418141,,,,,,,2025-04-11,1,,,,,インセデメント,0
1373,5180303006531,新規,0,2025-04-11,2025-04-11,ＧＲＡＣＥＵＮＩＴＹ合同会社,,合同会社,愛知県,岡崎市,下和田町字尾之越１０番地３,,23,202,4440212,,,,,,,2025-04-11,1,,,,,グレースユニティ,0
1375,5200001043634,新規,0,2025-04-11,2025-04-11,株式会社エイアールアイ,,株式会社,岐阜県,岐阜市,宇佐南３丁目５番１０号,,21,201,5008367,,,,,,,2025-04-11,1,,,,,エイアールアイ,0
1378,5210001020120,新規,0,2025-04-11,2025-04-11,株式会社ＨＡＱＴＳＵＹＡ,,株式会社,福井県,福井市,西木田１丁目２０番１７号,,18,201,9188004,,,,,,,2025-04-11,1,,,,,ハックツヤ,0
1379,5210003001911,新規,0,2025-04-11,2025-04-11,合同会社フェリックス,,合同会社,福井県,福井市,舞屋町第１５号３番地,,18,201,9188024,,,,,,,2025-04-11,1,,,,,フェリックス,0
1383,5230005009455,新規,0,2025-04-11,2025-04-11,医療法人社団竹内スリープメンタルクリニック,,その他の設立登記法人,富山県,富山市,弥生町２丁目４番２２号,,16,201,9300019,,,,,,,2025-04-11,1,,,,,タケウチスリープメンタルクリニック,0
1390,5250001021098,新規,0,2025-04-11,2025-04-11,株式会社西山永産,,株式会社,山口県,下関市,幡生宮の下町１７番１９号,,35,201,7510829,,,,,,,2025-04-11,1,,,,,ニシヤマエイサン,0
1391,5250003003697,新規,0,2025-04-11,2025-04-11,合同会社ＳＰＣ‐ＬＯＶＥ,,合同会社,山口県,光市,大字立野１３８５－１Ｇ２０１号,,35,210,7430062,,,,,,,2025-04-11,1,,,,,エスピーシーラヴ,0
1401,5290001109658,新規,0,2025-04-11,2025-04-11,木村財博株式会社,,株式会社,福岡県,糟屋郡久山町,大字久原３６９４番地２,,40,348,8112501,,,,,,,2025-04-11,1,,,,,キムラザイハク,0
1407,5290801031441,新規,0,2025-04-11,2025-04-11,株式会社創光建材,,株式会社,福岡県,田川市,大字伊加利２１８６番地２１８,,40,206,8250001,,,,,,,2025-04-11,1,,,,,ソウコウケンザイ,0
1408,5290803005022,新規,0,2025-04-11,2025-04-11,合同会社ＤＯＮＺ,,合同会社,福岡県,北九州市戸畑区,旭町３番７号サンエイトビル１０６号室,,40,105,8040083,,,,,,,2025-04-11,1,,,,,ドンズ,0
1413,5330003010925,新規,0,2025-04-11,2025-04-11,合同会社江夏建築,,合同会社,熊本県,熊本市南区,八分字町２３２６番地１ハウスアルデンテ２０２,,43,104,8615253,,,,,,,2025-04-11,1,,,,,エナツケンチク,0
1422,5380001035226,新規,0,2025-04-11,2025-04-11,株式会社ｔｅｎｔ,,株式会社,福島県,須賀川市,向陽町９９８番地,,07,207,9620401,,,,,,,2025-04-11,1,,,,,テント,0
1427,5430001094150,新規,0,2025-04-11,2025-04-11,株式会社Ｌｉｅｎ,,株式会社,北海道,札幌市中央区,大通西１０丁目４－７－７０２,,01,101,0600042,,,,,,,2025-04-11,1,,,,,リアン,0
1428,5430001094159,新規,0,2025-04-11,2025-04-11,株式会社モス・キャピタル・コンサルティング,,株式会社,北海道,札幌市南区,藤野三条１１丁目１０番３２号ジェイライブビル１０１,,01,106,0612283,,,,,,,2025-04-11,1,,,,,モスキャピタルコンサルティング,0
1429,5430001094167,新規,0,2025-04-11,2025-04-11,株式会社Ｓｔａｙｂｌｅ,,株式会社,北海道,札幌市中央区,南五条西１５丁目２－３－５０３,,01,101,0640805,,,,,,,2025-04-11,1,,,,,ステイブル,0
1435,5440001009594,新規,0,2025-04-11,2025-04-11,株式会社函館カネニ,,株式会社,北海道,函館市,若松町９番２４号,,01,202,0400063,,,,,,,2025-04-11,1,,,,,ハコダテカネニ,0
1437,5450001014585,新規,0,2025-04-11,2025-04-11,株式会社ノースピーク,,株式会社,北海道,旭川市,永山町１６丁目５８番地,,01,204,0798431,,,,,,,2025-04-11,1,,,,,ノースピーク,0
1438,5460105002312,新規,0,2025-04-11,2025-04-11,行政書士法人谷川事務所,,その他の設立登記法人,北海道,帯広市,西十九条南５丁目１番５号,,01,207,0802469,,,,,,,2025-04-11,1,,,,,タニカワジムショ,0
1442,5490003001999,新規,0,2025-04-11,2025-04-11,合同会社スマートアグリ中村,,合同会社,高知県,四万十市,利岡７２７,,39,210,7871105,,,,,,,2025-04-11,1,,,,,スマートアグリナカムラ,0
1451,6010001253219,新規,0,2025-04-11,2025-04-11,Ｐｈｉｌｉａ株式会社,,株式会社,東京都,中央区,銀座１丁目１２－４Ｎ＆ＥＢＬＤ．７階,,13,102,1040061,,,,,,,2025-04-11,1,,,,,フィリア,0
1452,6010001254118,新規,0,2025-04-11,2025-04-11,株式会社ＪＰＮ,,株式会社,東京都,千代田区,神田佐久間町１丁目１４番地,,13,101,1010025,,,,,,,2025-04-11,1,,,,,ジェイピーエヌ,0
1453,6010001254126,新規,0,2025-04-11,2025-04-11,株式会社アサバックス,,株式会社,東京都,中央区,銀座１丁目２２番１１号銀座大竹ビジデンス２Ｆ,,13,102,1040061,,,,,,,2025-04-11,1,,,,,アサバックス,0
1456,6010003047008,新規,0,2025-04-11,2025-04-11,合同会社Ｕｔｉｌｉｔｙ‐４,,合同会社,東京都,千代田区,神田神保町２丁目１１番地１５、２Ｆ,,13,101,1010051,,,,,,,2025-04-11,1,,,,,ユーティリティーフォー,0
1457,6010003047032,新規,0,2025-04-11,2025-04-11,合同会社ロッソピューマ,,合同会社,東京都,中央区,晴海５丁目５－２－５０５,,13,102,1040053,,,,,,,2025-04-11,1,,,,,ロッソピューマ,0
1458,6010003047040,新規,0,2025-04-11,2025-04-11,合同会社那須資産所有,,合同会社,東京都,千代田区,平河町１丁目６番１５号シルスフィア会計事務所内,,13,101,1020093,,,,,,,2025-04-11,1,,,,,ナスシサンショユウ,0
1459,6010003047049,新規,0,2025-04-11,2025-04-11,錦城企画合同会社,,合同会社,東京都,千代田区,神田錦町２丁目７番地ステージ竹橋３０２号,,13,101,1010054,,,,,,,2025-04-11,1,,,,,キンジョウキカク,0
1460,6010005039861,新規,0,2025-04-11,2025-04-11,一般社団法人日本橋リバーウォークエリアマネジメント,,その他の設立登記法人,東京都,中央区,日本橋室町３丁目２番１号,,13,102,1030022,,,,,,,2025-04-11,1,,,,,ニホンバシリバーウォークエリアマネジメント,0
1471,6010401189368,新規,0,2025-04-11,2025-04-11,株式会社ＷＡＯ,,株式会社,東京都,港区,高輪４丁目２１－８－５０１,,13,103,1080074,,,,,,,2025-04-11,1,,,,,ワオ,0
1472,6010401189418,新規,0,2025-04-11,2025-04-11,株式会社ＲＯＳＥ　ＧＲＯＵＰ,,株式会社,東京都,港区,六本木３丁目１５番２２号陽光セントラル六本木ビル１０階,,13,103,1060032,,,,,,,2025-04-11,1,,,,,ローズグループ,0
1473,6010401189467,新規,0,2025-04-11,2025-04-11,株式会社Ｐｈａｒｍ　Ｃｏｍｍｓ,,株式会社,東京都,港区,新橋４丁目１４番１新橋ＡＵＮＢＬＤＧ４階,,13,103,1050004,,,,,,,2025-04-11,1,,,,,ファームコムズ,0
1474,6010401189665,新規,0,2025-04-11,2025-04-11,ＧＥＮＡＲＫ株式会社,,株式会社,東京都,港区,北青山２丁目１４－４ｔｈｅＡＲＧＹＬＥａｏｙａｍａ５Ｆ,,13,103,1070061,,,,,,,2025-04-11,1,,,,,ジェナーク,0
1476,6010403034786,新規,0,2025-04-11,2025-04-11,合同会社Ｏｍａｈａ,,合同会社,東京都,港区,虎ノ門１丁目１番１８号ヒューリック虎ノ門ビル９階Ｌ＆Ｐ司法書士法人内,,13,103,1050001,,,,,,,2025-04-11,1,,,,,オマハ,0
1477,6010403034860,新規,0,2025-04-11,2025-04-11,クラウド管理合同会社,,合同会社,東京都,港区,浜松町２丁目３番８号,,13,103,1050013,,,,,,,2025-04-11,1,,,,,クラウドカンリ,0
1479,6010501053886,新規,0,2025-04-11,2025-04-11,ピナクルインベストメントマネジメント株式会社,,株式会社,東京都,台東区,東上野５丁目１０番４号,,13,106,1100015,,,,,,,2025-04-11,1,,,,,ピナクルインベストメントマネジメント,0
1480,6010603011503,新規,0,2025-04-11,2025-04-11,リベラルアーツ合同会社,,合同会社,東京都,江東区,扇橋２丁目１０－３,,13,108,1350011,,,,,,,2025-04-11,1,,,,,リベラルアーツ,0
1481,6010701047515,新規,0,2025-04-11,2025-04-11,ニオ・キャピタル株式会社,,株式会社,東京都,品川区,上大崎３丁目１番２－１１０１号,,13,109,1410021,,,,,,,2025-04-11,1,,,,,ニオキャピタル,0
1482,6010701047523,新規,0,2025-04-11,2025-04-11,株式会社Ｇｉｍｂａｌ,,株式会社,東京都,品川区,西五反田２丁目１３番５－４０２号,,13,109,1410031,,,,,,,2025-04-11,1,,,,,ジンバル,0
1483,6010701047556,新規,0,2025-04-11,2025-04-11,株式会社ＨＩＧＨ　ＲＩＳＫ　ＮＯ　ＲＥＴＵＲＮ,,株式会社,東京都,品川区,西五反田５丁目６－４１ルミネ目黒不動３０２,,13,109,1410031,,,,,,,2025-04-11,1,,,,,ハイリスクノーリターン,0
1490,6010903009841,新規,0,2025-04-11,2025-04-11,合同会社ＢＬＯＯＭ,,合同会社,東京都,世田谷区,太子堂２丁目４－１３サンライフビル３０１,,13,112,1540004,,,,,,,2025-04-11,1,,,,,ブルーム,0
1491,6010905004766,新規,0,2025-04-11,2025-04-11,一般社団法人パウリブプラス,,その他の設立登記法人,東京都,世田谷区,太子堂４丁目１８番１５号３Ｆ－３,,13,112,1540004,,,,,,,2025-04-11,1,,,,,パウリブプラス,0
1499,6011003021357,新規,0,2025-04-11,2025-04-11,Ｇ＆Ａｃａｐｉｔａｌ合同会社,,合同会社,東京都,渋谷区,道玄坂１丁目１０番８号渋谷道玄坂東急ビル２Ｆ－Ｃ,,13,113,1500043,,,,,,,2025-04-11,1,,,,,ジーアンドエーキャピタル,0
1504,6011101111282,新規,0,2025-04-11,2025-04-11,株式会社ランドリークリエイト,,株式会社,東京都,新宿区,神楽坂３丁目４神楽坂山本ビル６Ｆ,,13,104,1620825,,,,,,,2025-04-11,1,,,,,ランドリークリエイト,0
1505,6011101111290,新規,0,2025-04-11,2025-04-11,ＫＮＯＷＳＴＵＤＩＯ株式会社,,株式会社,東京都,新宿区,若葉１丁目６－１－３１７号室,,13,104,1600011,,,,,,,2025-04-11,1,,,,,ノウスタジオ,0
1509,6011201026273,新規,0,2025-04-11,2025-04-11,株式会社ＪＳ　ＤＲＥＡＭ,,株式会社,東京都,中野区,野方３丁目２９番１１－２０５号,,13,114,1650027,,,,,,,2025-04-11,1,,,,,ジェイエスドリーム,0
1512,6011303005497,新規,0,2025-04-11,2025-04-11,合同会社ＡＬＬＳＥＴ,,合同会社,東京都,杉並区,阿佐谷南３丁目３３－１７－２０２,,13,115,1660004,,,,,,,2025-04-11,1,,,,,オールセット,0
1515,6011403004671,新規,0,2025-04-11,2025-04-11,合同会社晃陽堂,,合同会社,東京都,板橋区,高島平５丁目１２番１３号,,13,119,1750082,,,,,,,2025-04-11,1,,,,,コウヨウドウ,0
1517,6011501031907,新規,0,2025-04-11,2025-04-11,ポーラースター・エナジー株式会社,,株式会社,東京都,荒川区,町屋３丁目２番１号Ｂ１Ｆ,,13,118,1160001,,,,,,,2025-04-11,1,,,,,ポーラースターエナジー,0
1518,6011503006485,新規,0,2025-04-11,2025-04-11,合同会社Ｅｎｄｅａｖｏｒ,,合同会社,東京都,北区,赤羽南２丁目２－９コムレジ赤羽６１０号,,13,117,1150044,,,,,,,2025-04-11,1,,,,,エンデバー,0
1521,6011701028240,新規,0,2025-04-11,2025-04-11,株式会社昇美,,株式会社,東京都,江戸川区,一之江７丁目２５番８号,,13,123,1320024,,,,,,,2025-04-11,1,,,,,ショウビ,0
1524,6012701018801,新規,0,2025-04-11,2025-04-11,株式会社大翔電設,,株式会社,東京都,西東京市,中町５丁目１３番１２号,,13,229,2020013,,,,,,,2025-04-11,1,,,,,ダイトデンセツ,0
1525,6012705002462,新規,0,2025-04-11,2025-04-11,一般社団法人にじメディア,,その他の設立登記法人,東京都,西東京市,ひばりが丘北３丁目５番１８号ＴＡビル３０１号,,13,229,2020002,,,,,,,2025-04-11,1,,,,,ニジメディア,0
1527,6012801023882,新規,0,2025-04-11,2025-04-11,株式会社Ｎｅｓｔ．ａ,,株式会社,東京都,立川市,柏町４丁目５６番地の３,,13,202,1900004,,,,,,,2025-04-11,1,,,,,ネストア,0
1538,6020001162229,新規,0,2025-04-11,2025-04-11,株式会社ドマーニホールディングス,,株式会社,神奈川県,横浜市中区,扇町３丁目８番４,,14,104,2310027,,,,,,,2025-04-11,1,,,,,ドマーニホールディングス,0
1539,6020001162328,新規,0,2025-04-11,2025-04-11,株式会社エスジェイティー,,株式会社,神奈川県,横浜市西区,北幸２丁目１０番４８号むつみビル３階,,14,103,2200004,,,,,,,2025-04-11,1,,,,,エスジェイティー,0
1540,6020001162336,新規,0,2025-04-11,2025-04-11,株式会社ＢＢスクウェア,,株式会社,神奈川県,川崎市多摩区,生田６丁目２６番－７－２号,,14,135,2140038,,,,,,,2025-04-11,1,,,,,スクウェア,0
1541,6020001162352,新規,0,2025-04-11,2025-04-11,ルーツトップ株式会社,,株式会社,神奈川県,川崎市中原区,小杉町２丁目２２０ラティエラ武蔵小杉６１４,,14,133,2110063,,,,,,,2025-04-11,1,,,,,ルーツトップ,0
1543,6020003028262,新規,0,2025-04-11,2025-04-11,ＲＩＴＳＵＮＡ合同会社,,合同会社,神奈川県,横浜市西区,高島２丁目１１番２号スカイメナー横浜５１９,,14,103,2200011,,,,,,,2025-04-11,1,,,,,リツナ,0
1545,6020005016793,新規,0,2025-04-11,2025-04-11,一般社団法人横浜市学校給食青果組合,,その他の設立登記法人,神奈川県,横浜市港北区,大倉山４丁目２５番１５号,,14,109,2220037,,,,,,,2025-04-11,1,,,,,ヨコハマシガッコウキュウショクセイカクミアイ,0
1556,6030001165908,新規,0,2025-04-11,2025-04-11,株式会社Ｃ‐ＵＰ,,株式会社,埼玉県,川口市,戸塚東４丁目２６番２４号,,11,203,3330802,,,,,,,2025-04-11,1,,,,,シーアップ,0
1557,6030001165916,新規,0,2025-04-11,2025-04-11,株式会社Ｂｌｕｅ　Ｌｉｎｅ,,株式会社,埼玉県,川口市,川口２丁目１２番３号第５丸三マンション２０２号,,11,203,3320015,,,,,,,2025-04-11,1,,,,,ブルーライン,0
1558,6030001165932,新規,0,2025-04-11,2025-04-11,ＴＫ　ＷＯＲＫＳ株式会社,,株式会社,埼玉県,さいたま市西区,西大宮１丁目５０番地６,,11,101,3310078,,,,,,,2025-04-11,1,,,,,ティーケーワークス,0
1565,6030003026513,新規,0,2025-04-11,2025-04-11,明方合同会社,,合同会社,埼玉県,蕨市,北町１丁目２５番１号キャピタル北町３０２号,,11,223,3350001,,,,,,,2025-04-11,1,,,,,メイホウ,0
1566,6030003026546,新規,0,2025-04-11,2025-04-11,合同会社バッカス,,合同会社,埼玉県,さいたま市大宮区,桜木町２丁目３番地７Ｆ,,11,103,3300854,,,,,,,2025-04-11,1,,,,,バッカス,0
1567,6030003026554,新規,0,2025-04-11,2025-04-11,鈴木グリスフィルター合同会社,,合同会社,埼玉県,久喜市,除堀１２１４番地,,11,232,3460027,,,,,,,2025-04-11,1,,,,,スズキグリスフィルター,0
1569,6040001138219,新規,0,2025-04-11,2025-04-11,株式会社ＴＯＩ,,株式会社,千葉県,市川市,福栄２丁目１２番１８号,,12,203,2720137,,,,,,,2025-04-11,1,,,,,トイ,0
1570,6040001138276,新規,0,2025-04-11,2025-04-11,株式会社Ｖ＆Ｗ　ＡＳＳＥＴ,,株式会社,千葉県,印西市,草深２３３０番地１０,,12,231,2701337,,,,,,,2025-04-11,1,,,,,ブイアンドダブリューアセット,0
1571,6040001138284,新規,0,2025-04-11,2025-04-11,ＳＫＹライフ株式会社,,株式会社,千葉県,佐倉市,栄町１０番地２４－２Ｆ,,12,212,2850014,,,,,,,2025-04-11,1,,,,,スカイライフ,0
1580,6050001056493,新規,0,2025-04-11,2025-04-11,株式会社しんりょく日和,,株式会社,茨城県,常陸大宮市,山方６４５番地,,08,225,3193111,,,,,,,2025-04-11,1,,,,,シンリョクビヨリ,0
1582,6060001038094,新規,0,2025-04-11,2025-04-11,株式会社ひより,,株式会社,栃木県,宇都宮市,清原台５丁目７番１号ＳＫハイツＩＩＩ２０２,00138727,09,201,3213223,,,,,,,2025-04-11,1,,,,,ヒヨリ,0
1583,6060003005497,新規,0,2025-04-11,2025-04-11,合同会社こころテラス,,合同会社,栃木県,栃木市,尻内町３３８番地７,,09,203,3280203,,,,,,,2025-04-11,1,,,,,ココロテラス,0
1584,6060005010322,新規,0,2025-04-11,2025-04-11,医療法人大林クリニック,,その他の設立登記法人,栃木県,宇都宮市,簗瀬町２５６１番地８,,09,201,3210933,,,,,,,2025-04-11,1,,,,,オオバヤシクリニック,0
1594,6090001019208,新規,0,2025-04-11,2025-04-11,株式会社パストラーレ,,株式会社,山梨県,南都留郡富士河口湖町,河口４２５番地１５,,19,430,4010304,,,,,,,2025-04-11,1,,,,,パストラーレ,0
1596,6100001038511,新規,0,2025-04-11,2025-04-11,株式会社Ｌｉｖｅｌｙ,,株式会社,長野県,松本市,大字岡田松岡４１１番地１０Ｃ,,20,202,3900312,,,,,,,2025-04-11,1,,,,,ライヴリー,0
1602,6110001039186,新規,0,2025-04-11,2025-04-11,株式会社Ｓ．Ｔ．ＧＹＭ,,株式会社,新潟県,上越市,加賀町６番１７号エスポワール加賀１号,,15,222,9420086,,,,,,,2025-04-11,1,,,,,エスティジム,0
1603,6110003005723,新規,0,2025-04-11,2025-04-11,合同会社フローラＹＹ,,合同会社,新潟県,長岡市,希望が丘３丁目９番地１９,,15,202,9402124,,,,,,,2025-04-11,1,,,,,フローラワイワイ,0
1609,6120001274344,新規,0,2025-04-11,2025-04-11,大通株式会社,,株式会社,大阪府,大阪市住之江区,西加賀屋４丁目５番８号５０５室,,27,125,5590016,,,,,,,2025-04-11,1,,,,,ダイツウ,0
1610,6120001274369,新規,0,2025-04-11,2025-04-11,潤江株式会社,,株式会社,大阪府,大阪市東住吉区,杭全５丁目９番６号,,27,121,5460002,,,,,,,2025-04-11,1,,,,,ジュンコウ,0
1611,6120001274484,新規,0,2025-04-11,2025-04-11,新東立商事株式会社,,株式会社,大阪府,大阪市東成区,中道４丁目１６番２１号,,27,115,5370025,,,,,,,2025-04-11,1,,,,,シントウリュウショウジ,0
1612,6120001274740,新規,0,2025-04-11,2025-04-11,ＲｅａｄａｂｌｅＤｅｓｉｇｎ株式会社,,株式会社,大阪府,大阪市北区,梅田１丁目１－３大阪駅前第３ビル２９階１－１－１号室,,27,127,5300001,,,,,,,2025-04-11,1,,,,,リーダブルデザイン,0
1614,6120003028896,新規,0,2025-04-11,2025-04-11,合同会社ｔｗｏ　ｖｅｒｓｅ,,合同会社,大阪府,大阪市中央区,南船場２丁目７番１１号,,27,128,5420081,,,,,,,2025-04-11,1,,,,,トゥーヴァース,0
1618,6120901050687,新規,0,2025-04-11,2025-04-11,株式会社ラッキーライト,,株式会社,大阪府,摂津市,鳥飼本町２丁目５番３８号,,27,224,5660052,,,,,,,2025-04-11,1,,,,,ラッキーライト,0
1619,6120901050712,新規,0,2025-04-11,2025-04-11,株式会社ＨＦ,,株式会社,大阪府,吹田市,千里山東４丁目２１番７号,,27,205,5650842,,,,,,,2025-04-11,1,,,,,エイチエフ,0
1624,6122001039074,新規,0,2025-04-11,2025-04-11,株式会社一心,,株式会社,大阪府,東大阪市,布市町４丁目２番５１号,,27,227,5798004,,,,,,,2025-04-11,1,,,,,イッシン,0
1626,6122003003160,新規,0,2025-04-11,2025-04-11,ＫＲＫ合同会社,,合同会社,大阪府,大東市,寺川３丁目４番４４号,,27,218,5740014,,,,,,,2025-04-11,1,,,,,ケイアールケイ,0
1630,6130003010358,新規,0,2025-04-11,2025-04-11,創明合同会社,,合同会社,京都府,京都市中京区,梅忠町２４三条ＣＯＨＪＵビル４Ｆ・５Ｆ,,26,104,6048136,,,,,,,2025-04-11,1,,,,,ソウメイ,0
1631,6130003010366,新規,0,2025-04-11,2025-04-11,合同会社Ｅｎｌｉｇｈｔ,,合同会社,京都府,京都市下京区,七条通油小路東入大黒町２２７番地第２キョートビル４０２,,26,106,6008223,,,,,,,2025-04-11,1,,,,,エンライト,0
1636,6140001138142,新規,0,2025-04-11,2025-04-11,株式会社ミライルリエ,,株式会社,兵庫県,尼崎市,東難波町３丁目１５番６－１号,,28,202,6600892,,,,,,,2025-04-11,1,,,,,ミライルリエ,0
1643,6160001026675,新規,0,2025-04-11,2025-04-11,株式会社ＭＥＲ,,株式会社,滋賀県,大津市,坂本２丁目１２番３１号,,25,201,5200113,,,,,,,2025-04-11,1,,,,,エムイーアール,0
1644,6160001026683,新規,0,2025-04-11,2025-04-11,株式会社エースカーゴ,,株式会社,滋賀県,野洲市,妙光寺２００番地１,,25,210,5202332,,,,,,,2025-04-11,1,,,,,エースカーゴ,0
1653,6180003028305,新規,0,2025-04-11,2025-04-11,合同会社リオンド,,合同会社,愛知県,名古屋市千種区,池下２丁目２番８号正木ビル３０５,,23,101,4640067,,,,,,,2025-04-11,1,,,,,リオンド,0
1657,6180301039680,新規,0,2025-04-11,2025-04-11,株式会社フィルム工房,,株式会社,愛知県,豊田市,永覚新町４丁目２０２番地１・４号室,,23,211,4701206,,,,,,,2025-04-11,1,,,,,フィルムコウボウ,0
1658,6180301039697,新規,0,2025-04-11,2025-04-11,株式会社美創,,株式会社,愛知県,岡崎市,能美町１０２ＴＷＩＮＢＵＩＬＤ６０２,,23,202,4440000,,,,,,,2025-04-11,1,,,,,ビソウ,0
1659,6180301039706,新規,0,2025-04-11,2025-04-11,株式会社ＴＲＩＮＩＴＹ,,株式会社,愛知県,西尾市,一色町一色亥新田２４２番地１,,23,213,4440423,,,,,,,2025-04-11,1,,,,,トリニティ,0
1660,6180301039714,新規,0,2025-04-11,2025-04-11,株式会社ＧＩＡ　ＨＵＮＧ,,株式会社,愛知県,豊橋市,一色町字天獏３３番地グランディア１０１,,23,201,4418148,,,,,,,2025-04-11,1,,,,,ギアフン,0
1662,6180303006530,新規,0,2025-04-11,2025-04-11,交通支援合同会社,,合同会社,愛知県,岡崎市,上六名４丁目７番地６,,23,202,4440858,,,,,,,2025-04-11,1,,,,,コウツウシエン,0
1663,6210003001910,新規,0,2025-04-11,2025-04-11,合同会社ｃｏｃｏｍａｒｕ,,合同会社,福井県,大飯郡高浜町,事代１－５０,,18,481,9192221,,,,,,,2025-04-11,1,,,,,ココマル,0
1666,6230001020844,新規,0,2025-04-11,2025-04-11,株式会社福光商店,,株式会社,富山県,南砺市,福光６７１１番地,,16,210,9391610,,,,,,,2025-04-11,1,,,,,フクミツショウテン,0
1673,6250003003696,新規,0,2025-04-11,2025-04-11,合同会社綾羅木サウンド,,合同会社,山口県,周南市,大字久米１７２番地の２２,,35,215,7450801,,,,,,,2025-04-11,1,,,,,アヤラギサウンド,0
1677,6260003005130,新規,0,2025-04-11,2025-04-11,合同会社Ｑｕｅｅｎｓ,,合同会社,岡山県,岡山市南区,植松３１９－６,,33,104,7100151,,,,,,,2025-04-11,1,,,,,クイーンズ,0
1687,6290001109657,新規,0,2025-04-11,2025-04-11,菱和ソルテック株式会社,,株式会社,福岡県,福岡市博多区,博多駅前１丁目１５番２０号ＮＭＦ博多駅前ビル２階,,40,132,8120011,,,,,,,2025-04-11,1,,,,,リョウワソルテック,0
1688,6290001109681,新規,0,2025-04-11,2025-04-11,株式会社ふくまる,,株式会社,福岡県,福岡市中央区,天神２丁目３番１０－７１９号,,40,133,8100001,,,,,,,2025-04-11,1,,,,,フクマル,0
1693,6290003016653,新規,0,2025-04-11,2025-04-11,賢集楽也合同会社,,合同会社,福岡県,宗像市,くりえいと２丁目３番１号,,40,220,8114184,,,,,,,2025-04-11,1,,,,,ケンシュウラクヤ,0
1694,6290003016694,新規,0,2025-04-11,2025-04-11,合同会社アナザースカイ,,合同会社,福岡県,福岡市西区,愛宕４丁目２番４５－１００７号マリナヒルズ室見,,40,135,8190015,,,,,,,2025-04-11,1,,,,,アナザースカイ,0
1698,6290005019704,新規,0,2025-04-11,2025-04-11,一般社団法人Ｋｏｍｏｒｅ‐ｂｉ,,その他の設立登記法人,福岡県,うきは市,吉井町１４８４番地８,,40,225,8391321,,,,,,,2025-04-11,1,,,,,コモレビ,0
1702,6310001019548,新規,0,2025-04-11,2025-04-11,株式会社コーポフレンド,,株式会社,長崎県,長崎市,鳴見台２丁目３９番１６号,,42,201,8512215,,,,,,,2025-04-11,1,,,,,コーポフレンド,0
1707,6360003014807,新規,0,2025-04-11,2025-04-11,農業生産法人合同会社雅樹丸,,合同会社,沖縄県,宮古島市,平良字西原８番地３,,47,214,9060005,,,,,,,2025-04-11,1,,,,,マサキマル,0
1711,6380001035225,新規,0,2025-04-11,2025-04-11,株式会社ＡＢカンパニー,,株式会社,福島県,福島市,南町５４２番地の１ＳＥビル２階,,07,201,9608162,,,,,,,2025-04-11,1,,,,,エービーカンパニー,0
1717,6400003003433,新規,0,2025-04-11,2025-04-11,オブビレッジ合同会社,,合同会社,岩手県,盛岡市,厨川１丁目２－６－４号,,03,201,0200124,,,,,,,2025-04-11,1,,,,,オブビレッジ,0
1722,6430001094158,新規,0,2025-04-11,2025-04-11,ＤａｌｌｉａＤｅｓｉｇｎ株式会社,,株式会社,北海道,札幌市手稲区,前田八条１８丁目８番１７号,,01,109,0060818,,,,,,,2025-04-11,1,,,,,ダリアデザイン,0
1728,6470001020663,新規,0,2025-04-11,2025-04-11,株式会社プロステージ,,株式会社,香川県,綾歌郡宇多津町,浜七番丁９３番地９,,37,386,7690207,,,,,,,2025-04-11,1,,,,,プロステージ,0
1730,6480005007078,新規,0,2025-04-11,2025-04-11,社会保険労務士法人クラージュ,,その他の設立登記法人,徳島県,徳島市,末広４丁目５番３８－１号,,36,201,7700866,,,,,,,2025-04-11,1,,,,,クラージュ,0
1743,7010001253853,新規,0,2025-04-11,2025-04-11,株式会社日本再生農業,,株式会社,東京都,千代田区,平河町１丁目７番５号ヴィラロイヤル平河８０２号,,13,101,1020093,,,,,,,2025-04-11,1,,,,,ニッポンサイセイノウギョウ,0
1744,7010001254018,新規,0,2025-04-11,2025-04-11,株式会社Ｔ＆Ｍ　Ｃｏｎｓｕｌｔｉｎｇ,,株式会社,東京都,中央区,銀座８丁目１７－５ＴＨＥＨＵＢ銀座ＯＣＴ６１３号,,13,102,1040061,,,,,,,2025-04-11,1,,,,,ティーアンドエムコンサルティング,0
1745,7010001254125,新規,0,2025-04-11,2025-04-11,株式会社ｍｏｍｏｃａ,,株式会社,東京都,中央区,銀座１丁目１２番４号Ｎ＆ＥＢＬＤ．６Ｆ,,13,102,1040061,,,,,,,2025-04-11,1,,,,,モモカ,0
1747,7010003047031,新規,0,2025-04-11,2025-04-11,合同会社心道,,合同会社,東京都,千代田区,神田須田町１丁目７番８号ＶＯＲＴ秋葉原ＩＶ２Ｆ,00138734,13,101,1010041,,,,,,,2025-04-11,1,,,,,シンドウ,0
1748,7010003047064,新規,0,2025-04-11,2025-04-11,合同会社ＢＯＬＡＭ　ＬＩＭＩＴＥＤ,,合同会社,東京都,千代田区,神田錦町３丁目７番２号東京堂錦町ビル７Ｆ・８Ｆ・９Ｆ,,13,101,1010054,,,,,,,2025-04-11,1,,,,,ボルラムリミテッド,0
1750,7010005039860,新規,0,2025-04-11,2025-04-11,一般社団法人日本フリーペーパーネットワーク,,その他の設立登記法人,東京都,千代田区,一ツ橋１丁目１番１号株式会社毎日メディアサービス東京事務所内,,13,101,1000003,,,,,,,2025-04-11,1,,,,,ニホンフリーペーパーネットワーク,0
1757,7010401189160,新規,0,2025-04-11,2025-04-11,株式会社東照,,株式会社,東京都,港区,赤坂３丁目１５番１号ＳＩＯＮビル５階,,13,103,1070052,,,,,,,2025-04-11,1,,,,,トウショウ,0
1758,7010401189177,新規,0,2025-04-11,2025-04-11,株式会社よしはら,,株式会社,東京都,港区,赤坂２丁目１８－８ナガノコーポ４Ｆ,,13,103,1070052,,,,,,,2025-04-11,1,,,,,ヨシハラ,0
1759,7010401189375,新規,0,2025-04-11,2025-04-11,ジーワン株式会社,,株式会社,東京都,港区,芝大門２丁目５番５号,,13,103,1050012,,,,,,,2025-04-11,1,,,,,ジーワン,0
1760,7010401189615,新規,0,2025-04-11,2025-04-11,株式会社ＵＮＩＶＡ　ＲＢＬ,,株式会社,東京都,港区,虎ノ門１丁目３番１号,,13,103,1050001,,,,,,,2025-04-11,1,,,,,ユニヴァアールビーエル,0
1762,7010403034777,新規,0,2025-04-11,2025-04-11,合同会社ＣＨＩＣ,,合同会社,東京都,港区,芝１丁目２番１号１１Ｆ,,13,103,1050014,,,,,,,2025-04-11,1,,,,,シック,0
1763,7010403034785,新規,0,2025-04-11,2025-04-11,合同会社Ｃａｖａｌｃａｄｅ,,合同会社,東京都,港区,虎ノ門１丁目１番１８号ヒューリック虎ノ門ビル９階Ｌ＆Ｐ司法書士法人内,,13,103,1050001,,,,,,,2025-04-11,1,,,,,カヴァルケイド,0
1764,7010403034793,新規,0,2025-04-11,2025-04-11,合同会社Ｇｒｏｏｖｅ　Ｉｔ,,合同会社,東京都,港区,西麻布２丁目２５番９号１０２,,13,103,1060031,,,,,,,2025-04-11,1,,,,,グルーヴィット,0
1766,7010501053877,新規,0,2025-04-11,2025-04-11,Ｈｉｒｏｍｉ　Ｂｅａｕｔｙ株式会社,,株式会社,東京都,台東区,北上野２丁目２５番９号－２０３号室,,13,106,1100014,,,,,,,2025-04-11,1,,,,,ヒロミビューティー,0
1767,7010501053919,新規,0,2025-04-11,2025-04-11,株式会社ＪＩＮＹＩ　ＧＯＬＤ　ＪＰ　ＬＴＤ,,株式会社,東京都,台東区,三筋１丁目８番２号２０２号室,,13,106,1110055,,,,,,,2025-04-11,1,,,,,ジニィゴールドジェイピーリミテッド,0
1768,7010601067059,新規,0,2025-04-11,2025-04-11,ＳＢＩ毎日アートホールディングス株式会社,,株式会社,東京都,江東区,有明３丁目７番１１号,,13,108,1350063,,,,,,,2025-04-11,1,,,,,エスビーアイマイニチアートホールディングス,0
1770,7010605004438,新規,0,2025-04-11,2025-04-11,一般社団法人農業デザイン研究所,,その他の設立登記法人,東京都,江東区,富岡１丁目１２番８号,,13,108,1350047,,,,,,,2025-04-11,1,,,,,ノウギョウデザインケンキュウジョ,0
1771,7010703007656,新規,0,2025-04-11,2025-04-11,ｎｄｂ合同会社,,合同会社,東京都,品川区,西中延２丁目１番１８－１００２号,,13,109,1420054,,,,,,,2025-04-11,1,,,,,ノックドアボード,0
1781,7011001168868,新規,0,2025-04-11,2025-04-11,株式会社Ｙ＆Ｄアセットマネジメント,,株式会社,東京都,目黒区,五本木２丁目２０番３号,,13,110,1530053,,,,,,,2025-04-11,1,,,,,,0
1782,7011003021356,新規,0,2025-04-11,2025-04-11,弥栄合同会社,,合同会社,東京都,渋谷区,神宮前６丁目２３番４号桑野ビル２階,,13,113,1500001,,,,,,,2025-04-11,1,,,,,イヤサカ,0
1783,7011003021364,新規,0,2025-04-11,2025-04-11,コグ合同会社,,合同会社,東京都,渋谷区,桜丘町２９番２９－１０２号Ａ－ｓｔａｎｄａｒｄ渋谷桜丘,,13,113,1500031,,,,,,,2025-04-11,1,,,,,コグ,0
1784,7011003021372,新規,0,2025-04-11,2025-04-11,中小企業デジタルサポート合同会社,,合同会社,東京都,渋谷区,道玄坂１丁目１０番８号渋谷道玄坂東急ビル２Ｆ－Ｃ,,13,113,1500043,,,,,,,2025-04-11,1,,,,,チュウショウキギョウデジタルサポート,0
1785,7011003021389,新規,0,2025-04-11,2025-04-11,タチュ合同会社,,合同会社,東京都,渋谷区,富ヶ谷１丁目５１番２号デュオパークビルＭサイドＢ１Ｆ,,13,113,1510063,,,,,,,2025-04-11,1,,,,,タチュ,0
1786,7011003021397,新規,0,2025-04-11,2025-04-11,ＴＫＭ合同会社,,合同会社,東京都,渋谷区,宇田川町１番１２－４１３号,,13,113,1500042,,,,,,,2025-04-11,1,,,,,ティーケーエム,0
1792,7011101111257,新規,0,2025-04-11,2025-04-11,株式会社エイジェックまなび,,株式会社,東京都,新宿区,西新宿１丁目２５番１号新宿センタービル４６階,,13,104,1600023,,,,,,,2025-04-11,1,,,,,エイジェックマナビ,0
1793,7011101111281,新規,0,2025-04-11,2025-04-11,株式会社ランドリーフェニックス,,株式会社,東京都,新宿区,神楽坂３丁目４山本ビル６Ｆ,,13,104,1620825,,,,,,,2025-04-11,1,,,,,ランドリーフェニックス,0
1794,7011101111315,新規,0,2025-04-11,2025-04-11,株式会社Ｌｕｍｉｎａ　Ｔｅｃｈ,,株式会社,東京都,新宿区,西落合３丁目１５番５号後藤ビル２０１,,13,104,1610031,,,,,,,2025-04-11,1,,,,,ルミナテック,0
1795,7011101111397,新規,0,2025-04-11,2025-04-11,株式会社ＧＲＯＷ　ＳＭＩＬＥ,,株式会社,東京都,新宿区,西新宿３丁目３番１３号,,13,104,1600023,,,,,,,2025-04-11,1,,,,,グロウスマイル,0
1797,7011103015737,新規,0,2025-04-11,2025-04-11,飛栄合同会社,,合同会社,東京都,新宿区,新宿１丁目３６番２号新宿第七葉山ビル１０８号室,,13,104,1600022,,,,,,,2025-04-11,1,,,,,ヒエイ,0
1800,7011503006484,新規,0,2025-04-11,2025-04-11,合同会社ポーラースター蓄電所３号,,合同会社,東京都,荒川区,町屋３丁目２番１号Ｂ１Ｆ,,13,118,1160001,,,,,,,2025-04-11,1,,,,,ポーラースターチクデンショサンゴウ,0
1810,7012403007069,新規,0,2025-04-11,2025-04-11,合同会社Ｎｕｋｔａ,,合同会社,東京都,府中市,緑町１丁目１７番地の１３ミオカステーロ府中緑町ＩＩ５０４,00138726,13,206,1830006,,,,,,,2025-04-11,1,,,,,ヌクタ,0
1816,7020001162145,新規,0,2025-04-11,2025-04-11,株式会社コミッショニングワークス,,株式会社,神奈川県,横浜市西区,北幸１丁目５番１０号ＪＰＲ横浜ビル８Ｆ,,14,103,2200004,,,,,,,2025-04-11,1,,,,,コミッショニングワークス,0
1821,7021001084940,新規,0,2025-04-11,2025-04-11,株式会社Ｈａｕ’ｏｌｉ,,株式会社,神奈川県,横須賀市,浦上台２丁目１６番６号ライトコート浦上台３０１,,14,201,2390815,,,,,,,2025-04-11,1,,,,,ハウオリ,0
1822,7021005013334,新規,0,2025-04-11,2025-04-11,医療法人堯哲会,,その他の設立登記法人,神奈川県,鎌倉市,梶原１丁目５番１２号ピュア湘南３階,,14,204,2470063,,,,,,,2025-04-11,1,,,,,タカテツカイ,0
1828,7030001165758,新規,0,2025-04-11,2025-04-11,株式会社Ｒｅｂｉ,,株式会社,埼玉県,比企郡鳩山町,大字石坂７９０番地３,,11,348,3500311,,,,,,,2025-04-11,1,,,,,レビ,0
1829,7030001165907,新規,0,2025-04-11,2025-04-11,ＣＨＩＮＡＲ　ＳＡＦＩ　ＴＲＡＤＩＮＧ株式会社,,株式会社,埼玉県,さいたま市岩槻区,大字黒谷１７１６番地１,,11,110,3390033,,,,,,,2025-04-11,1,,,,,チナールサフィトレーディング,0
1830,7030001165915,新規,0,2025-04-11,2025-04-11,株式会社アリーブ,,株式会社,埼玉県,さいたま市岩槻区,宮町２丁目１９番２号,,11,110,3390065,,,,,,,2025-04-11,1,,,,,アリーブ,0
1831,7030001165931,新規,0,2025-04-11,2025-04-11,株式会社Ｌ’ｅｃｒｉｎ,,株式会社,埼玉県,越谷市,蒲生寿町２番１０号ヴィルヌーブ南越谷Ｂ－６０４,,11,222,3430836,,,,,,,2025-04-11,1,,,,,レクラン,0
1832,7030001165948,新規,0,2025-04-11,2025-04-11,株式会社タックス壹號,,株式会社,埼玉県,秩父郡横瀬町,大字横瀬２９９３番地２,,11,361,3680072,,,,,,,2025-04-11,1,,,,,タックスイチゴウ,0
1833,7030001165964,新規,0,2025-04-11,2025-04-11,株式会社アルカディア・リンク,,株式会社,埼玉県,和光市,丸山台１丁目４番４号,,11,229,3510112,,,,,,,2025-04-11,1,,,,,アルカディアリンク,0
1837,7030003026529,新規,0,2025-04-11,2025-04-11,合同会社Ａ４・ＴＲＡＤＩＮＧ,,合同会社,埼玉県,熊谷市,四方寺４４０番地１,,11,202,3600006,,,,,,,2025-04-11,1,,,,,エーフォートレーディング,0
1838,7030003026545,新規,0,2025-04-11,2025-04-11,合同会社ｍｉｍｉｎｅ,,合同会社,埼玉県,飯能市,大字前ヶ貫２６０－２０,,11,209,3570043,,,,,,,2025-04-11,1,,,,,ミミンヌ,0
1845,7040001137871,新規,0,2025-04-11,2025-04-11,株式会社ＷＥＬＬＳ,,株式会社,千葉県,千葉市緑区,おゆみ野２丁目４－２０,,12,105,2660031,,,,,,,2025-04-11,1,,,,,ウェルズ,0
1849,7040003027278,新規,0,2025-04-11,2025-04-11,合同会社正,,合同会社,千葉県,印旛郡酒々井町,中央台１丁目１番２,,12,322,2850922,,,,,,,2025-04-11,1,,,,,ショウ,0
1851,7050001056484,新規,0,2025-04-11,2025-04-11,株式会社桜園,,株式会社,茨城県,ひたちなか市,東大島２丁目１１番２４号,,08,221,3120042,,,,,,,2025-04-11,1,,,,,サクラエン,0
1852,7050001056492,新規,0,2025-04-11,2025-04-11,株式会社Ａｄｖａｎｔａｇｅ,,株式会社,茨城県,ひたちなか市,新光町３８番地,,08,221,3120005,,,,,,,2025-04-11,1,,,,,アドバンテージ,0
1855,7060005010321,新規,0,2025-04-11,2025-04-11,医療法人くりのき会,,その他の設立登記法人,栃木県,鹿沼市,文化橋町２３００番地１,,09,205,3220064,,,,,,,2025-04-11,1,,,,,クリノキカイ,0
1856,7070001042846,新規,0,2025-04-11,2025-04-11,株式会社茂木建設,,株式会社,群馬県,前橋市,石倉町５丁目２２番地３ブリスＡ棟,,10,201,3710841,,,,,,,2025-04-11,1,,,,,モギケンセツ,0
1858,7080101025436,新規,0,2025-04-11,2025-04-11,株式会社Ｋａｓｕｇａ,,株式会社,静岡県,富士市,比奈７６０番地の１,,22,210,4170847,,,,,,,2025-04-11,1,,,,,カスガ,0
1864,7090003002805,新規,0,2025-04-11,2025-04-11,池田計画合同会社,,合同会社,山梨県,甲府市,山宮町３２０７番地４,,19,201,4000075,,,,,,,2025-04-11,1,,,,,イケダケイカク,0
1868,7100001038493,新規,0,2025-04-11,2025-04-11,ちくに工業株式会社,,株式会社,長野県,北安曇郡小谷村,大字中小谷丙３２１７－１,,20,486,3999421,,,,,,,2025-04-11,1,,,,,チクニコウギョウ,0
1870,7110001039160,新規,0,2025-04-11,2025-04-11,株式会社晴のヒカリ,,株式会社,新潟県,胎内市,下館５４７番地１,,15,227,9592805,,,,,,,2025-04-11,1,,,,,ハルノヒカリ,0
1871,7110001039185,新規,0,2025-04-11,2025-04-11,株式会社ＭＥＧＯ,,株式会社,新潟県,上越市,本町４丁目１番７号ｂｉｂｉｔビル,,15,222,9430832,,,,,,,2025-04-11,1,,,,,ミーゴー,0
1875,7110003005722,新規,0,2025-04-11,2025-04-11,ＺＷＥＩＧＨＴ合同会社,,合同会社,新潟県,上越市,高土町３丁目１０番１４号,,15,222,9430823,,,,,,,2025-04-11,1,,,,,ツヴァイト,0
1887,7120001274260,新規,0,2025-04-11,2025-04-11,株式会社コヨシ,,株式会社,大阪府,大阪市生野区,巽西４丁目６番２８号,00138720,27,116,5440012,,,,,,,2025-04-11,1,,,,,コヨシ,0
1888,7120001274269,新規,0,2025-04-11,2025-04-11,リザータ株式会社,,株式会社,大阪府,大阪市城東区,鴫野東２丁目２４番１９－５０３号,,27,118,5360013,,,,,,,2025-04-11,1,,,,,リザータ,0
1889,7120001274335,新規,0,2025-04-11,2025-04-11,日新商事株式会社,,株式会社,大阪府,大阪市中央区,船場中央３丁目１－７船場センタービル７号館２１８－Ｂ,,27,128,5410055,,,,,,,2025-04-11,1,,,,,ニッシンショウジ,0
1890,7120001274343,新規,0,2025-04-11,2025-04-11,株式会社ゲイエイ,,株式会社,大阪府,大阪市城東区,中浜２丁目１５番１８号,,27,118,5360024,,,,,,,2025-04-11,1,,,,,ゲイエイ,0
1891,7120001274368,新規,0,2025-04-11,2025-04-11,精一整合株式会社,,株式会社,大阪府,大阪市西成区,玉出東１丁目１１番２３号,,27,122,5570043,,,,,,,2025-04-11,1,,,,,セイイツセイゴウ,0
1892,7120001274384,新規,0,2025-04-11,2025-04-11,星星株式会社,,株式会社,大阪府,大阪市住吉区,南住吉１丁目１番９号,,27,120,5580041,,,,,,,2025-04-11,1,,,,,シンシン,0
1893,7120001274500,新規,0,2025-04-11,2025-04-11,株式会社アイリスホーム,,株式会社,大阪府,大阪市北区,梅田３丁目４番５号毎日新聞ビル２階,,27,127,5300001,,,,,,,2025-04-11,1,,,,,アイリスホーム,0
1894,7120001274698,新規,0,2025-04-11,2025-04-11,愛安＿株式会社,00138742,株式会社,大阪府,大阪市都島区,中野町４丁目３番６号Ｈ２Ｈ大阪桜之宮邸３Ｂ－１,,27,102,5340027,,,,,,,2025-04-11,1,,,,,アイアンシュウ,0
1896,7120003029084,新規,0,2025-04-11,2025-04-11,合同会社ＶｉｖａＬａＳａｌｕｔｅ,,合同会社,大阪府,大阪市北区,角田町８番４７号阪急グランドビル２０階,,27,127,5300017,,,,,,,2025-04-11,1,,,,,ヴィバラサルーテ,0
1897,7120003029101,新規,0,2025-04-11,2025-04-11,銀河啓動合同会社,,合同会社,大阪府,大阪市東成区,中道４丁目１６番２１－４１２号,,27,115,5370025,,,,,,,2025-04-11,1,,,,,ギンガケイドウ,0
1900,7120101071459,新規,0,2025-04-11,2025-04-11,株式会社ワンダフル,,株式会社,大阪府,堺市堺区,中之町東４丁１番１３号,,27,141,5900956,,,,,,,2025-04-11,1,,,,,ワンダフル,0
1904,7120903005614,新規,0,2025-04-11,2025-04-11,フォレル合同会社,,合同会社,大阪府,摂津市,千里丘新町５番２２－１４４６号,,27,224,5660002,,,,,,,2025-04-11,1,,,,,フォレル,0
1905,7122001039065,新規,0,2025-04-11,2025-04-11,オルトス・プランニング株式会社,,株式会社,大阪府,東大阪市,新池島町２丁目１１番４号,,27,227,5798065,,,,,,,2025-04-11,1,,,,,オルトスプランニング,0
1908,7130001079411,新規,0,2025-04-11,2025-04-11,あおいソーシャルホーム株式会社,,株式会社,京都府,城陽市,枇杷庄西ノ口２６番地の６,,26,207,6100117,,,,,,,2025-04-11,1,,,,,アオイソーシャルホーム,0
1913,7140001138050,新規,0,2025-04-11,2025-04-11,株式会社ＬＵＣＩＴＰＩＡ,,株式会社,兵庫県,神崎郡福崎町,福崎新３７６番地１,,28,443,6792214,,,,,,,2025-04-11,1,,,,,ルシトピア,0
1914,7140001138117,新規,0,2025-04-11,2025-04-11,株式会社兵丹,,株式会社,兵庫県,丹波市,春日町新才５９番地,,28,223,6693402,,,,,,,2025-04-11,1,,,,,ヒョウタン,0
1919,7140003021873,新規,0,2025-04-11,2025-04-11,合同会社Ｈｏｐｅ　Ｃｈａｉｎ　ＤＡＯ,,合同会社,兵庫県,伊丹市,昆陽３丁目３２番１１号,,28,207,6640881,,,,,,,2025-04-11,1,,,,,ホープチェーンダオ,0
1922,7160001026682,新規,0,2025-04-11,2025-04-11,株式会社ＳＥＣＲＥＴ　ＣＬＵＢ,,株式会社,滋賀県,彦根市,西今町７０８番地２,,25,202,5220054,,,,,,,2025-04-11,1,,,,,シークレットクラブ,0
1923,7170001018571,新規,0,2025-04-11,2025-04-11,株式会社オーツゥ,,株式会社,和歌山県,有田市,箕島６８０番地１０,,30,204,6490304,,,,,,,2025-04-11,1,,,,,オーツゥ,0
1927,7180001166122,新規,0,2025-04-11,2025-04-11,日産陶器株式会社,,株式会社,愛知県,瀬戸市,西松山町２丁目２５２番地,,23,204,4890912,,,,,,,2025-04-11,1,,,,,ニッサントウキ,0
1928,7180001166287,新規,0,2025-04-11,2025-04-11,株式会社Ａｄｄｉｃｔ,,株式会社,愛知県,あま市,甚目寺飛殿１４番地１,,23,237,4901111,,,,,,,2025-04-11,1,,,,,アディクト,0
1929,7180001166295,新規,0,2025-04-11,2025-04-11,株式会社ＡＬＯＮＩＣＡ,,株式会社,愛知県,春日井市,春見町５２番地９シティイトウビル１Ｂ,,23,206,4860837,,,,,,,2025-04-11,1,,,,,アロニカ,0
1930,7180001166378,新規,0,2025-04-11,2025-04-11,株式会社一航,,株式会社,愛知県,名古屋市中川区,戸田明正１丁目２２１１番地,,23,110,4540961,,,,,,,2025-04-11,1,,,,,イッコウ,0
1931,7180003028304,新規,0,2025-04-11,2025-04-11,酒井屋医元合同会社,,合同会社,愛知県,名古屋市中村区,名駅３丁目４－１０アルティメイト名駅１ｓｔ２階,,23,105,4500002,,,,,,,2025-04-11,1,,,,,サカイヤイゲン,0
1933,7180303006521,新規,0,2025-04-11,2025-04-11,ＨＡＲＵＫＥＮ　ＳＯＬ合同会社,,合同会社,愛知県,知立市,牛田町裏新切３１番地１４,,23,225,4720007,,,,,,,2025-04-11,1,,,,,ハルケンソウ,0
1934,7190001032158,新規,0,2025-04-11,2025-04-11,株式会社大警備保障,,株式会社,三重県,南牟婁郡紀宝町,鵜殿１４７０番地６,,24,562,5195701,,,,,,,2025-04-11,1,,,,,ヒロケイビホショウ,0
1942,7220003004003,新規,0,2025-04-11,2025-04-11,合同会社ＮｏｔｏＳｕｎｒｉｓｅＦａｒｍ,,合同会社,石川県,羽咋郡宝達志水町,正友ト７２番１地,,17,386,9291324,,,,,,,2025-04-11,1,,,,,ノトサンライズファーム,0
1952,7260001040087,新規,0,2025-04-11,2025-04-11,株式会社アルバヘイム,,株式会社,岡山県,赤磐市,沢原１１７４番地２,,33,213,7090704,,,,,,,2025-04-11,1,,,,,アルバヘイム,0
1956,7290001109565,新規,0,2025-04-11,2025-04-11,Ｓ＆Ｃ株式会社,,株式会社,福岡県,朝倉市,甘木１９６３番地,,40,228,8380068,,,,,,,2025-04-11,1,,,,,エスアンドシー,0
1957,7290001109623,新規,0,2025-04-11,2025-04-11,依依株式会社,,株式会社,福岡県,福岡市西区,野方４丁目１３－３,,40,135,8190043,,,,,,,2025-04-11,1,,,,,,0
1958,7290001109648,新規,0,2025-04-11,2025-04-11,株式会社坂井美総,,株式会社,福岡県,福岡市南区,寺塚１丁目２８番２３－３０１号ＴＥＲＲＡＳＰＯＴ,,40,134,8150074,,,,,,,2025-04-11,1,,,,,,0
1959,7290001109672,新規,0,2025-04-11,2025-04-11,株式会社Ｇｒａｎｄ　Ａｓｓｅｔ,,株式会社,福岡県,福岡市早良区,賀茂３丁目１番１７号プリマヴェーラ１１１,,40,137,8140164,,,,,,,2025-04-11,1,,,,,グランドアセット,0
1961,7290005019711,新規,0,2025-04-11,2025-04-11,医療法人竈風会,00138743,その他の設立登記法人,福岡県,福岡市早良区,西新４丁目９番２８号西新グランドビル３Ｆ,,40,137,8140002,,,,,,,2025-04-11,1,,,,,ソウフウカイ,0
1963,7300005007235,新規,0,2025-04-11,2025-04-11,医療法人ＫＤＣ,,その他の設立登記法人,佐賀県,小城市,三日月町長神田２１７１番地６,,41,208,8450021,,,,,,,2025-04-11,1,,,,,ケイディーシー,0
1966,7320003004629,新規,0,2025-04-11,2025-04-11,合同会社ユーカリ,,合同会社,大分県,大分市,大手町２丁目２番５号,,44,201,8700022,,,,,,,2025-04-11,1,,,,,,0
1967,7330001033067,新規,0,2025-04-11,2025-04-11,ＭＭＡ株式会社,,株式会社,熊本県,菊池市,泗水町吉富２５２０番地,,43,210,8611201,,,,,,,2025-04-11,1,,,,,,0
1970,7360001035036,新規,0,2025-04-11,2025-04-11,ＯＰＡＬ株式会社,,株式会社,沖縄県,宜野湾市,志真志４丁目３４番８号－２Ｆ,,47,205,9012213,,,,,,,2025-04-11,1,,,,,オパール,0
1971,7360003014839,新規,0,2025-04-11,2025-04-11,Ｔｉｍｅｌｅｓｓ　Ｇｒｏｕｎｄｉｎｇ合同会社,,合同会社,沖縄県,中頭郡北中城村,字喜舎場４０６番地,,47,327,9012311,,,,,,,2025-04-11,1,,,,,タイムレスグラウディング,0
1973,7370005010942,新規,0,2025-04-11,2025-04-11,司法書士法人森総合事務所,,その他の設立登記法人,宮城県,柴田郡大河原町,字住吉町９番地７,,04,321,9891213,,,,,,,2025-04-11,1,,,,,モリソウゴウジムショ,0
1978,7380001035224,新規,0,2025-04-11,2025-04-11,株式会社福井創建,,株式会社,福島県,双葉郡川内村,大字下川内字坂シ内９８,,07,544,9791202,,,,,,,2025-04-11,1,,,,,フクイソウケン,0
1984,7400005008479,新規,0,2025-04-11,2025-04-11,一般社団法人エネルギーエージェンシーいわて,,その他の設立登記法人,岩手県,盛岡市,大新町１８番１３号,,03,201,0200135,,,,,,,2025-04-11,1,,,,,エネルギーエージェンシーイワテ,0
1985,7400005008487,新規,0,2025-04-11,2025-04-11,学校法人岩手理容美容専門学校,,その他の設立登記法人,岩手県,花巻市,若葉町２丁目１４番３９号,,03,205,0250097,,,,,,,2025-04-11,1,,,,,イワテリヨウビヨウセンモンガッコウ,0
1989,7420001019081,新規,0,2025-04-11,2025-04-11,株式会社響,,株式会社,青森県,青森市,浜館３丁目６番地３,,02,201,0300947,,,,,,,2025-04-11,1,,,,,ヒビキ,0
1992,7420003003100,新規,0,2025-04-11,2025-04-11,合同会社えみため,,合同会社,青森県,弘前市,大字門外１丁目１２番地７,,02,202,0368111,,,,,,,2025-04-11,1,,,,,エミタメ,0
2000,7440001009592,新規,0,2025-04-11,2025-04-11,松前再エネ電力株式会社,,株式会社,北海道,松前郡松前町,字松城３５番地４,,01,331,0491511,,,,,,,2025-04-11,1,,,,,マツマエサイエネデンリョク,0
2001,7450003002636,新規,0,2025-04-11,2025-04-11,合同会社まんきち,,合同会社,北海道,名寄市,風連町西町１９番地１,,01,221,0980507,,,,,,,2025-04-11,1,,,,,マンキチ,0
2007,7480001012808,新規,0,2025-04-11,2025-04-11,つるぎ株式会社,,株式会社,徳島県,阿波市,市場町日開谷字稲荷４４番地４,,36,206,7711616,,,,,,,2025-04-11,1,,,,,ツルギ,0
2024,8010001254017,新規,0,2025-04-11,2025-04-11,ゲートラダーデザインセンター株式会社,,株式会社,東京都,千代田区,大手町２丁目２番１号,,13,101,1000004,,,,,,,2025-04-11,1,,,,,ゲートラダーデザインセンター,0
2025,8010001254058,新規,0,2025-04-11,2025-04-11,東京千代田静心学堂株式会社,,株式会社,東京都,千代田区,神田神保町２丁目３４ＰＨＯＥＮＩＸ神保町ビル５Ｆ,,13,101,1010051,,,,,,,2025-04-11,1,,,,,チヨダセイシンガクドウ,0
2026,8010001254099,新規,0,2025-04-11,2025-04-11,株式会社ワイズトラスト,,株式会社,東京都,中央区,銀座１丁目１２番４号Ｎ＆Ｅ　ＢＬＤ．６Ｆ,,13,102,1040061,,,,,,,2025-04-11,1,,,,,ワイズトラスト,0
2028,8010003047039,新規,0,2025-04-11,2025-04-11,合同会社テレメディックプラス,,合同会社,東京都,中央区,銀座１丁目２２番１１号銀座大竹ビジデンス２Ｆ,,13,102,1040061,,,,,,,2025-04-11,1,,,,,テレメディックプラス,0
2029,8010003047063,新規,0,2025-04-11,2025-04-11,合同会社ＡＥＧＩＳ,,合同会社,東京都,千代田区,一番町２２－３アデックス一番町ビル４０２号,,13,101,1020082,,,,,,,2025-04-11,1,,,,,イージス,0
2030,8010101016614,新規,0,2025-04-11,2025-04-11,株式会社独創市場,,株式会社,東京都,八王子市,南陽台２丁目２４番６号,,13,201,1920371,,,,,,,2025-04-11,1,,,,,ドクソウイチバ,0
2031,8010101016622,新規,0,2025-04-11,2025-04-11,株式会社ＮＷ,,株式会社,東京都,八王子市,八日町４－１６,,13,201,1920071,,,,,,,2025-04-11,1,,,,,ナウウエスト,0
2034,8010401189416,新規,0,2025-04-11,2025-04-11,ＲＩＭＯＮＯ・Ｃｏｍｍｕｎｉｃａｔｉｏｎ・Ｌａｂ株式会社,,株式会社,東京都,港区,港南２丁目１６番３号品川グランドセントラルタワー２４Ｆ株式会社Ｌｅｇａｓｅｅｄ内,,13,103,1080075,,,,,,,2025-04-11,1,,,,,リモノコミュニケイションラボ,0
2035,8010401189465,新規,0,2025-04-11,2025-04-11,株式会社トランスアクトワン,,株式会社,東京都,港区,芝公園３丁目４番３０号３２芝公園ビル７０２,,13,103,1050011,,,,,,,2025-04-11,1,,,,,トランスアクトワン,0
2036,8010401189597,新規,0,2025-04-11,2025-04-11,株式会社アジアスポーツキャピタル,,株式会社,東京都,港区,北青山１丁目３番１号アールキューブ青山３階,,13,103,1070061,,,,,,,2025-04-11,1,,,,,アジアスポーツキャピタル,0
2037,8010401189606,新規,0,2025-04-11,2025-04-11,株式会社ｕｎｃｏｍｆｏｒｔａｂｌｅ,,株式会社,東京都,港区,新橋４丁目１４番１新橋ＡＵＮＢＬＤＧ４階,,13,103,1050004,,,,,,,2025-04-11,1,,,,,アンコンフォータブル,0
2040,8010403034859,新規,0,2025-04-11,2025-04-11,上ノ国湯ノ岱風力発電合同会社,,合同会社,東京都,港区,南青山３丁目１番７号青山コンパルビル２階ｗｐｄジャパン株式会社内,,13,103,1070062,,,,,,,2025-04-11,1,,,,,カミノクニユノタイフウリョクハツデン,0
2041,8010405024230,新規,0,2025-04-11,2025-04-11,ＪＳＥＣ　Ｅｖｅｒｇｒｅｅｎ　Ｈｏｌｄｉｎｇｓ一般社団法人,,その他の設立登記法人,東京都,港区,虎ノ門３丁目２２番１０－２０１号,,13,103,1050001,,,,,,,2025-04-11,1,,,,,ジェイエスイーシーエバーグリーンホールディングス,0
2046,8010605004437,新規,0,2025-04-11,2025-04-11,一般社団法人ＭＳＲ,,その他の設立登記法人,東京都,江東区,冬木６番１４号,,13,108,1350041,,,,,,,2025-04-11,1,,,,,エムエスアール,0
2047,8010701047505,新規,0,2025-04-11,2025-04-11,株式会社ビットサイエンス,,株式会社,東京都,品川区,西五反田５丁目２３番３号ＢＬＯＣＫＳ目黒不動前,,13,109,1410031,,,,,,,2025-04-11,1,,,,,ビットサイエンス,0
2048,8010703007655,新規,0,2025-04-11,2025-04-11,合同会社池田山商店,,合同会社,東京都,品川区,東五反田５丁目２１－６池田山コープ４０４,,13,109,1410022,,,,,,,2025-04-11,1,,,,,イケダヤマショウテン,0
2049,8010705003751,新規,0,2025-04-11,2025-04-11,一般社団法人ちくさ,,その他の設立登記法人,東京都,品川区,上大崎３丁目１番１号目黒セントラルスクエア１５階,,13,109,1410021,,,,,,,2025-04-11,1,,,,,チクサ,0
2051,8010901057163,新規,0,2025-04-11,2025-04-11,株式会社サクラサン企画,,株式会社,東京都,世田谷区,桜３丁目１５番１８号パラスト馬事公苑７０１,,13,112,1560053,,,,,,,2025-04-11,1,,,,,サクラサンキカク,0
2059,8011003021355,新規,0,2025-04-11,2025-04-11,ＪＴ合同会社,,合同会社,東京都,渋谷区,恵比寿西２丁目４番８号ウィンド恵比寿ビル８Ｆ,,13,113,1500021,,,,,,,2025-04-11,1,,,,,ジェイティー,0
2060,8011003021363,新規,0,2025-04-11,2025-04-11,Ａｌｐｈａ‐ＩＰ合同会社,,合同会社,東京都,渋谷区,神南１丁目１１－４ＦＰＧリンクス神南５階,,13,113,1500041,,,,,,,2025-04-11,1,,,,,アルファアイピー,0
2061,8011003021371,新規,0,2025-04-11,2025-04-11,合同会社ミライエ,,合同会社,東京都,渋谷区,道玄坂１丁目１６番６号二葉ビル８ｂ,,13,113,1500043,,,,,,,2025-04-11,1,,,,,ミライエ,0
2062,8011003021446,新規,0,2025-04-11,2025-04-11,合同会社アスチュートフィジシャンズ,,合同会社,東京都,目黒区,下目黒６丁目５‐２１シティテラス下目黒４１６,,13,110,1530064,,,,,,,2025-04-11,1,,,,,アスチュートフィジシャンズ,0
2065,8011101111256,新規,0,2025-04-11,2025-04-11,株式会社エイジェックドローン,,株式会社,東京都,新宿区,西新宿１丁目２５番１号新宿センタービル４６階,,13,104,1600023,,,,,,,2025-04-11,1,,,,,エイジェックドローン,0
2066,8011101111280,新規,0,2025-04-11,2025-04-11,株式会社ランドリーエムテック,,株式会社,東京都,新宿区,神楽坂３丁目４神楽坂山本ビル６Ｆ,,13,104,1620825,,,,,,,2025-04-11,1,,,,,ランドリーエムテック,0
2067,8011101111289,新規,0,2025-04-11,2025-04-11,スプラッシュ株式会社,,株式会社,東京都,新宿区,西新宿５丁目８番２号惠徳ビル,,13,104,1600023,,,,,,,2025-04-11,1,,,,,スプラッシュ,0
2068,8011101111347,新規,0,2025-04-11,2025-04-11,株式会社ＴＭＴ,,株式会社,東京都,新宿区,西新宿３丁目３番１３号西新宿水間ビル６階,,13,104,1600023,,,,,,,2025-04-11,1,,,,,ティーエムティー,0
2070,8011103015728,新規,0,2025-04-11,2025-04-11,合同会社ルナティックブレイス,,合同会社,東京都,新宿区,百人町１丁目２４番地８号新宿タウンプラザビル１階１Ｆ－Ｐ,,13,104,1690073,,,,,,,2025-04-11,1,,,,,ルナティックブレイス,0
2072,8011301030504,新規,0,2025-04-11,2025-04-11,マイホームプラス株式会社,,株式会社,東京都,杉並区,高円寺北３丁目４番１０号,,13,115,1660002,,,,,,,2025-04-11,1,,,,,マイホームプラス,0
2073,8011303005495,新規,0,2025-04-11,2025-04-11,ＧａｌｌｅｒｙＡＳＡＫＡ合同会社,,合同会社,東京都,杉並区,宮前３丁目２１番７号,,13,115,1680081,,,,,,,2025-04-11,1,,,,,ギャラリーアサカ,0
2081,8011801045869,新規,0,2025-04-11,2025-04-11,株式会社プラスアルファ,,株式会社,東京都,足立区,鹿浜３丁目９－５,,13,121,1230864,,,,,,,2025-04-11,1,,,,,プラスアルファ,0
2082,8011801045935,新規,0,2025-04-11,2025-04-11,Ｊａｐａｎ　Ｐｏｓｓｉｂｌｅ株式会社,,株式会社,東京都,足立区,花畑８丁目８番２１－９０４号,,13,121,1210061,,,,,,,2025-04-11,1,,,,,ジャパンポッシブル,0
2083,8011803006778,新規,0,2025-04-11,2025-04-11,ステラ・ラ・メール合同会社,,合同会社,東京都,葛飾区,新小岩１丁目３５－５ＤＲホームズ新小岩１０１,,13,122,1240024,,,,,,,2025-04-11,1,,,,,ステララメール,0
2086,8012405005103,新規,0,2025-04-11,2025-04-11,一般社団法人ＩＤＰ,,その他の設立登記法人,東京都,狛江市,猪方４丁目４番７号,,13,219,2010015,,,,,,,2025-04-11,1,,,,,アイデイピー,0
2096,8020001162301,新規,0,2025-04-11,2025-04-11,ＲＡＳＩＬＬ株式会社,,株式会社,神奈川県,川崎市中原区,市ノ坪６７６－２２,,14,133,2110016,,,,,,,2025-04-11,1,,,,,ラシル,0
2101,8020003028236,新規,0,2025-04-11,2025-04-11,合同会社ＮＯＵＫＥＮ,,合同会社,神奈川県,横浜市金沢区,能見台通４番５号ビル５５－４０１,,14,108,2360053,,,,,,,2025-04-11,1,,,,,ノウケン,0
2102,8020003028244,新規,0,2025-04-11,2025-04-11,合同会社はぐくみのわ,,合同会社,神奈川県,川崎市麻生区,細山８丁目１４番５－４号,,14,137,2150001,,,,,,,2025-04-11,1,,,,,ハグクミノワ,0
2103,8020003028260,新規,0,2025-04-11,2025-04-11,合同会社湊住設,,合同会社,神奈川県,横浜市南区,平楽１４４番地１リーベスト山手３０１号室,,14,105,2320035,,,,,,,2025-04-11,1,,,,,ミナトジュウセツ,0
2105,8020005016791,新規,0,2025-04-11,2025-04-11,一般社団法人Ｈａｒｍｏｎｉａ,,その他の設立登記法人,神奈川県,横浜市磯子区,杉田２丁目１１番１２号,,14,107,2350033,,,,,,,2025-04-11,1,,,,,ハルモニア,0
2109,8021003015802,新規,0,2025-04-11,2025-04-11,Ｓｍｉｌｅ＆Ｐｅａｃｅ合同会社,,合同会社,神奈川県,横須賀市,追浜東町１丁目１０番地１６,,14,201,2370063,,,,,,,2025-04-11,1,,,,,スマイルアンドピース,0
2110,8021005013325,新規,0,2025-04-11,2025-04-11,一般社団法人はてなボックス,,その他の設立登記法人,神奈川県,相模原市緑区,西橋本１丁目１９‐５３,,14,151,2520131,,,,,,,2025-04-11,1,,,,,ハテナボックス,0
2118,8030001165939,新規,0,2025-04-11,2025-04-11,株式会社ＤｅｅｐＮｅｘｕｓ,,株式会社,埼玉県,東松山市,大字市ノ川６０７番地１５,,11,212,3550006,,,,,,,2025-04-11,1,,,,,ディープネクサス,0
2119,8030001165963,新規,0,2025-04-11,2025-04-11,瑞穂環境技術株式会社,,株式会社,埼玉県,鴻巣市,天神１丁目１０番６１号,,11,217,3650036,,,,,,,2025-04-11,1,,,,,ミズホカンキョウギジュツ,0
2124,8030003026544,新規,0,2025-04-11,2025-04-11,合同会社スズキＣＯ,,合同会社,埼玉県,熊谷市,今井１２１６,,11,202,3600005,,,,,,,2025-04-11,1,,,,,スズキシーオー,0
2125,8030003026552,新規,0,2025-04-11,2025-04-11,モルゲンロート合同会社,,合同会社,埼玉県,北葛飾郡杉戸町,大字堤根３７２４番地,,11,464,3450024,,,,,,,2025-04-11,1,,,,,モルゲンロート,0
2127,8030005022112,新規,0,2025-04-11,2025-04-11,一般社団法人みんなでつくる日本一幸せな町横瀬,,その他の設立登記法人,埼玉県,秩父郡横瀬町,大字横瀬６３７１番地,,11,361,3680072,,,,,,,2025-04-11,1,,,,,ミンナデツクルニホンイチシアワセナマチヨコゼ,0
2128,8030005022120,新規,0,2025-04-11,2025-04-11,特定非営利活動法人Ｍ　ＴＯＵＲ　ＦＩＮＡＬＳ,,その他の設立登記法人,埼玉県,狭山市,大字水野１０９２番地の１２,,11,215,3501317,,,,,,,2025-04-11,1,,,,,エムツアーファイナルズ,0
2129,8030005022129,新規,0,2025-04-11,2025-04-11,特定非営利活動法人３ぶんの１,,その他の設立登記法人,埼玉県,春日部市,大衾１２４番地１,,11,214,3440116,,,,,,,2025-04-11,1,,,,,サンブンノイチ,0
2134,8040001138233,新規,0,2025-04-11,2025-04-11,株式会社ＬＭＳトレーディング,,株式会社,千葉県,千葉市美浜区,中瀬１丁目３番地幕張テクノガーデンＣＢ棟３階,,12,106,2610023,,,,,,,2025-04-11,1,,,,,エルエムエストレーディング,0
2135,8040001138282,新規,0,2025-04-11,2025-04-11,株式会社アズナレッジ,,株式会社,千葉県,野田市,中野台１１２５－８４,,12,208,2780035,,,,,,,2025-04-11,1,,,,,アズナレッジ,0
2139,8040005022714,新規,0,2025-04-11,2025-04-11,一般社団法人ディーゼルラボ,,その他の設立登記法人,千葉県,夷隅郡御宿町,浜５５４番地,,12,443,2995107,,,,,,,2025-04-11,1,,,,,ディーゼルラボ,0
2140,8050003009191,新規,0,2025-04-11,2025-04-11,合同会社アシスト,,合同会社,茨城県,土浦市,中央１丁目３－８、１Ｆ,,08,203,3000043,,,,,,,2025-04-11,1,,,,,アシスト,0
2141,8050003009200,新規,0,2025-04-11,2025-04-11,合同会社Ｎｉａ,,合同会社,茨城県,古河市,下山町１番９号,,08,204,3060014,,,,,,,2025-04-11,1,,,,,ニア,0
2144,8060003005504,新規,0,2025-04-11,2025-04-11,合同会社テラノヴァ,,合同会社,栃木県,宇都宮市,今泉町３０２０番地１,,09,201,3210962,,,,,,,2025-04-11,1,,,,,テラノヴァ,0
2145,8070005010369,新規,0,2025-04-11,2025-04-11,一般社団法人群馬県テニス協会,,その他の設立登記法人,群馬県,前橋市,朝日町２丁目１１番２２号,,10,201,3710014,,,,,,,2025-04-11,1,,,,,グンマケンテニスキョウカイ,0
2146,8080001026871,新規,0,2025-04-11,2025-04-11,株式会社扇屋,,株式会社,静岡県,静岡市葵区,新伝馬１丁目１１番２１－２０２号,,22,101,4200944,,,,,,,2025-04-11,1,,,,,オウギヤ,0
2154,8080405007724,新規,0,2025-04-11,2025-04-11,医療法人社団澤田,,その他の設立登記法人,静岡県,浜松市中央区,寺島町１７９番地,,22,138,4300925,,,,,,,2025-04-11,1,,,,,サワダ,0
2156,8090005007693,新規,0,2025-04-11,2025-04-11,一般社団法人小さな水,,その他の設立登記法人,山梨県,甲府市,大手１丁目２番１５号,,19,201,4000015,,,,,,,2025-04-11,1,,,,,チイサナミズ,0
2158,8100001038492,新規,0,2025-04-11,2025-04-11,株式会社ｃｌｉｐ,,株式会社,長野県,東御市,和１３５０－１０,,20,219,3890505,,,,,,,2025-04-11,1,,,,,クリップ,0
2164,8110001039184,新規,0,2025-04-11,2025-04-11,絆総合建築株式会社,,株式会社,新潟県,上越市,上源入４７７番地,,15,222,9420052,,,,,,,2025-04-11,1,,,,,キズナソウゴウケンチク,0
2176,8120001274350,新規,0,2025-04-11,2025-04-11,株式会社ＩＧコンストラクション,,株式会社,大阪府,枚方市,上島町１１番１－５０２号,,27,210,5731127,,,,,,,2025-04-11,1,,,,,アイジーコンストラクション,0
2177,8120001274367,新規,0,2025-04-11,2025-04-11,盛和国際株式会社,,株式会社,大阪府,大阪市中央区,内平野町２丁目２番７－６０１号,,27,128,5400037,,,,,,,2025-04-11,1,,,,,セイワコクサイ,0
2178,8120001274391,新規,0,2025-04-11,2025-04-11,株式会社ファイナンスナレッジ,,株式会社,大阪府,大阪市北区,曾根崎２丁目１６番１９号メッセージ梅田ビル１階ＯＮｔｈｅＵＭＥＤＡ内,,27,127,5300057,,,,,,,2025-04-11,1,,,,,ファイナンスナレッジ,0
2179,8120001274482,新規,0,2025-04-11,2025-04-11,人人株式会社,,株式会社,大阪府,大阪市阿倍野区,松崎町２丁目１番２８号３Ｆ,,27,119,5450053,,,,,,,2025-04-11,1,,,,,ジンジン,0
2180,8120001274565,新規,0,2025-04-11,2025-04-11,株式会社ＭＹ３,,株式会社,大阪府,大阪市阿倍野区,阿倍野筋１丁目１番４３号あべのハルカス３１Ｆ,,27,119,5450052,,,,,,,2025-04-11,1,,,,,エムワイスリー,0
2181,8120001274730,新規,0,2025-04-11,2025-04-11,株式会社ＲＥＰＬＵＳ,,株式会社,大阪府,守口市,東光町２丁目５－８,,27,209,5700035,,,,,,,2025-04-11,1,,,,,リプラス,0
2182,8120001274739,新規,0,2025-04-11,2025-04-11,株式会社ケア・リメイク,,株式会社,大阪府,大阪市住吉区,長居２丁目４－１サンテ長居２０３,,27,120,5580003,,,,,,,2025-04-11,1,,,,,ケアリメイク,0
2184,8120003029083,新規,0,2025-04-11,2025-04-11,西洋龍貿易合同会社,,合同会社,大阪府,大阪市住吉区,遠里小野４丁目５－２－１０２室,,27,120,5580032,,,,,,,2025-04-11,1,,,,,セイヨウリュウボウエキ,0
2185,8120003029091,新規,0,2025-04-11,2025-04-11,合同会社ｂｉｉｉ,,合同会社,大阪府,大阪市平野区,加美西１丁目１１番２６号シーカルアアリモト２０１号,,27,126,5470005,,,,,,,2025-04-11,1,,,,,ビー,0
2190,8120101071375,新規,0,2025-04-11,2025-04-11,クローバーメディカル株式会社,,株式会社,大阪府,松原市,天美南３丁目４番５号,,27,217,5800033,,,,,,,2025-04-11,1,,,,,クローバーメディカル,0
2191,8120101071441,新規,0,2025-04-11,2025-04-11,株式会社礼筋,,株式会社,大阪府,羽曳野市,碓井２丁目６３０番地の２,,27,222,5830851,,,,,,,2025-04-11,1,,,,,レイスジ,0
2194,8120903005613,新規,0,2025-04-11,2025-04-11,合同会社みらい会計,,合同会社,大阪府,高槻市,宮之川原４丁目２番７号ＨＡＬ高槻第三ビル４階,,27,207,5691032,,,,,,,2025-04-11,1,,,,,ミライカイケイ,0
2195,8122001039072,新規,0,2025-04-11,2025-04-11,株式会社リーブルコンサルティング,,株式会社,大阪府,東大阪市,横枕５－２０,,27,227,5780954,,,,,,,2025-04-11,1,,,,,リーブルコンサルティング,0
2196,8122003003167,新規,0,2025-04-11,2025-04-11,伊賀商事合同会社,,合同会社,大阪府,東大阪市,川田３丁目１０－２９,,27,227,5780905,,,,,,,2025-04-11,1,,,,,イガショウジ,0
2205,8140001138157,新規,0,2025-04-11,2025-04-11,ＶＪＡＵ株式会社,,株式会社,兵庫県,神戸市中央区,元町通７丁目２－１７、３Ｆ,,28,110,6500022,,,,,,,2025-04-11,1,,,,,ヴィジャウ,0
2208,8140003021889,新規,0,2025-04-11,2025-04-11,合同会社ＨＡＫＵ,,合同会社,兵庫県,朝来市,山東町末歳６４７番地３,,28,225,6695104,,,,,,,2025-04-11,1,,,,,ハク,0
2209,8140003021922,新規,0,2025-04-11,2025-04-11,ＳＴＡＹＳＯＦＴ合同会社,,合同会社,兵庫県,神戸市長田区,大谷町３丁目１４番４０号,,28,106,6530838,,,,,,,2025-04-11,1,,,,,ステイソフト,0
2210,8140005027430,新規,0,2025-04-11,2025-04-11,医療法人社団馨和会精療クリニック小林,,その他の設立登記法人,兵庫県,神戸市中央区,元町通２丁目８番１４号オルタンシアビル９階,,28,110,6500022,,,,,,,2025-04-11,1,,,,,キョウワカイセイリョウクリニックコバヤシ,0
2211,8150001028027,新規,0,2025-04-11,2025-04-11,株式会社山田総合企画,,株式会社,奈良県,香芝市,穴虫１１３６番地,,29,210,6390252,,,,,,,2025-04-11,1,,,,,ヤマダソウゴウキカク,0
2213,8160001026673,新規,0,2025-04-11,2025-04-11,株式会社ＰＡＲＣ,,株式会社,滋賀県,高島市,朽木地子原１７４番地,,25,212,5201452,,,,,,,2025-04-11,1,,,,,パルク,0
2214,8160001026681,新規,0,2025-04-11,2025-04-11,ｒｅ‐ｆｌｏｗ株式会社,,株式会社,滋賀県,草津市,草津２丁目３番１５－１０号,,25,206,5250034,,,,,,,2025-04-11,1,,,,,リフロー,0
2217,8170005007149,新規,0,2025-04-11,2025-04-11,特定非営利活動法人まなびや,,その他の設立登記法人,和歌山県,橋本市,高野口町小田６２０番地の１,,30,203,6497204,,,,,,,2025-04-11,1,,,,,マナビヤ,0
2222,8180001166278,新規,0,2025-04-11,2025-04-11,株式会社アンサンブル,,株式会社,愛知県,あま市,下萱津江西３５番地,,23,237,4901114,,,,,,,2025-04-11,1,,,,,アンサンブル,0
2223,8180001166286,新規,0,2025-04-11,2025-04-11,株式会社８２Ｃｏｍｐａｎｙ,,株式会社,愛知県,一宮市,伝法寺１丁目１１番地１９,,23,203,4910828,,,,,,,2025-04-11,1,,,,,ハチニイカンパニー,0
2224,8180001166336,新規,0,2025-04-11,2025-04-11,株式会社Ｄｒｅａｍｓ＆Ｇｒｏｗｔｈ,,株式会社,愛知県,名古屋市千種区,山門町２丁目１６－１,,23,101,4640064,,,,,,,2025-04-11,1,,,,,ドリームスアンドグロース,0
2226,8180003028286,新規,0,2025-04-11,2025-04-11,合同会社ＡＰＬＩＳ,,合同会社,愛知県,名古屋市中村区,名駅３丁目４番１０号アルティメイト名駅１ｓｔ２階,,23,105,4500002,,,,,,,2025-04-11,1,,,,,アプリス,0
2227,8180301039704,新規,0,2025-04-11,2025-04-11,株式会社龍樹,,株式会社,愛知県,岡崎市,八幡町１丁目３７番地,,23,202,4440047,,,,,,,2025-04-11,1,,,,,タツキ,0
2228,8180301039712,新規,0,2025-04-11,2025-04-11,株式会社Ｙ’ｓ　ａｓｓｅｔｓ,,株式会社,愛知県,岡崎市,百々町字池ノ入３０番地２０,,23,202,4442115,,,,,,,2025-04-11,1,,,,,ワイズアセッツ,0
2229,8180303006529,新規,0,2025-04-11,2025-04-11,合同会社アルキュミア,,合同会社,愛知県,豊川市,白鳥町上郷中１０９番地の５,,23,207,4420848,,,,,,,2025-04-11,1,,,,,アルキュミア,0
2232,8190001032140,新規,0,2025-04-11,2025-04-11,株式会社明楽ホールディングス,,株式会社,三重県,員弁郡東員町,大字瀬古泉３１０番地１,,24,324,5110252,,,,,,,2025-04-11,1,,,,,メイラクホールディングス,0
2234,8200001043648,新規,0,2025-04-11,2025-04-11,ふくの家株式会社,,株式会社,岐阜県,岐阜市,城田寺２９６６番地１,,21,201,5020859,,,,,,,2025-04-11,1,,,,,フクノイエ,0
2239,8220001026584,新規,0,2025-04-11,2025-04-11,株式会社ＮＯＢＵ,,株式会社,石川県,羽咋郡志賀町,高浜町ヤの１４９番地２１,,17,384,9250141,,,,,,,2025-04-11,1,,,,,ノブ,0
2243,8240003007143,新規,0,2025-04-11,2025-04-11,合同会社Ｔｓｕｎａｇａｒｕ,,合同会社,広島県,福山市,田尻町２８８０番地１３,,34,207,7200203,,,,,,,2025-04-11,1,,,,,ツナガル,0
2246,8250001021087,新規,0,2025-04-11,2025-04-11,エイト株式会社,,株式会社,山口県,山口市,湯田温泉６丁目６番２３号,,35,203,7530056,,,,,,,2025-04-11,1,,,,,エイト,0
2248,8260001040094,新規,0,2025-04-11,2025-04-11,株式会社一期一会,,株式会社,岡山県,岡山市北区,今７丁目１５番４６号,,33,101,7000975,,,,,,,2025-04-11,1,,,,,イチゴイチエ,0
2254,8290001109507,新規,0,2025-04-11,2025-04-11,株式会社キーマン,,株式会社,福岡県,福岡市西区,今宿駅前１丁目１５番１８号マリブ今宿シーサイドテラス３Ｆ,,40,135,8190168,,,,,,,2025-04-11,1,,,,,キーマン,0
2255,8290001109589,新規,0,2025-04-11,2025-04-11,株式会社エイチ・アイ・ピー,,株式会社,福岡県,久留米市,宮ノ陣５丁目１０番１６号－３,,40,203,8390801,,,,,,,2025-04-11,1,,,,,エイチアイピー,0
2258,8290003016668,新規,0,2025-04-11,2025-04-11,合同会社雅,,合同会社,福岡県,福岡市中央区,高砂１丁目２－１０－１０２号多賀ビル,,40,133,8100011,,,,,,,2025-04-11,1,,,,,マサ,0
2264,8320003004628,新規,0,2025-04-11,2025-04-11,合同会社マーク,,合同会社,大分県,別府市,西野口町１番３１－２号,,44,202,8740931,,,,,,,2025-04-11,1,,,,,マーク,0
2267,8360001035035,新規,0,2025-04-11,2025-04-11,ジョイアスメディカル株式会社,,株式会社,沖縄県,那覇市,古波蔵４丁目１２番８号１Ｆ,,47,201,9000024,,,,,,,2025-04-11,1,,,,,ジョイアスメディカル,0
2273,8380001035248,新規,0,2025-04-11,2025-04-11,株式会社ＮＯＲＥＧＩＯＮ,,株式会社,福島県,河沼郡会津坂下町,大字束松字杉山５８５番地,,07,421,9696587,,,,,,,2025-04-11,1,,,,,ノーリージョン,0
2276,8390005009115,新規,0,2025-04-11,2025-04-11,一般社団法人酒田市芸術文化協会,,その他の設立登記法人,山形県,酒田市,中央西町２番５９号酒田市総合文化センター４０４号室,,06,204,9980034,,,,,,,2025-04-11,1,,,,,サカタシゲイジュツブンカキョウカイ,0
2278,8400001017004,新規,0,2025-04-11,2025-04-11,株式会社エスアンプリール,,株式会社,岩手県,二戸市,堀野字長地７２－１,,03,213,0286105,,,,,,,2025-04-11,1,,,,,エスアンプリール,0
2281,8420001019089,新規,0,2025-04-11,2025-04-11,株式会社ダイズ,,株式会社,青森県,三戸郡階上町,大字道仏字笹畑５３番地１５,,02,446,0391201,,,,,,,2025-04-11,1,,,,,ダイズ,0
2287,8430001094156,新規,0,2025-04-11,2025-04-11,株式会社ジェイトピア,,株式会社,北海道,札幌市白石区,東札幌六条３丁目１番６０ー１３０３号,,01,104,0030006,,,,,,,2025-04-11,1,,,,,ジェイトピア,0
2288,8430001094189,新規,0,2025-04-11,2025-04-11,株式会社Ｉ‐ＱＵＥＳＴ,,株式会社,北海道,札幌市中央区,大通西１２丁目４番地７８ＷＥＳＴ１２ビル３階,,01,101,0600042,,,,,,,2025-04-11,1,,,,,アイクエスト,0
2295,8430003017511,新規,0,2025-04-11,2025-04-11,Ｂｉｇ　ｓｔｏｒｅｈｏｕｓｅ合同会社,,合同会社,北海道,札幌市中央区,南五条西２丁目２番サイバーシティビル４階,,01,101,0640805,,,,,,,2025-04-11,1,,,,,ビックストアハウス,0
2301,8450001014590,新規,0,2025-04-11,2025-04-11,トレーディングトラスト株式会社,,株式会社,北海道,富良野市,扇町５番１６号,,01,229,0760008,,,,,,,2025-04-11,1,,,,,トレーディングトラスト,0
2304,8470001020661,新規,0,2025-04-11,2025-04-11,株式会社寿,,株式会社,香川県,高松市,香川町大野９００番地６,,37,201,7611701,,,,,,,2025-04-11,1,,,,,,0
2320,9010001254057,新規,0,2025-04-11,2025-04-11,株式会社アンリッシュ,,株式会社,東京都,中央区,銀座１丁目１２番４号Ｎ＆ＥＢＬＤ．６Ｆ,,13,102,1040061,,,,,,,2025-04-11,1,,,,,アンリッシュ,0
2321,9010001254065,新規,0,2025-04-11,2025-04-11,株式会社ミニョン,,株式会社,東京都,中央区,銀座１丁目２２番１１号銀座大竹ビジデンス２階,,13,102,1040061,,,,,,,2025-04-11,1,,,,,ミニョン,0
2322,9010001254081,新規,0,2025-04-11,2025-04-11,株式会社碧雲鏈,,株式会社,東京都,文京区,向丘１丁目９番１８号平山ビル２階Ｄ号室,,13,105,1130023,,,,,,,2025-04-11,1,,,,,アオゾラ,0
2323,9010001254115,新規,0,2025-04-11,2025-04-11,東京不動産プランニング株式会社,,株式会社,東京都,中央区,佃２丁目５番１３－３０４号コスモリード月島,,13,102,1040051,,,,,,,2025-04-11,1,,,,,トウキョウフドウサンプランニング,0
2325,9010005039867,新規,0,2025-04-11,2025-04-11,一般社団法人日本獣医腎泌尿器学会,,その他の設立登記法人,東京都,文京区,本郷４丁目１６番６号,,13,105,1130033,,,,,,,2025-04-11,1,,,,,ニホンジュウイジンヒニョウキガッカイ,0
2326,9010005039875,新規,0,2025-04-11,2025-04-11,Ａｃｃｏｍｐａｎｙ社会保険労務士法人,,その他の設立登記法人,東京都,千代田区,二番町９番地３ＴＨＥＢＡＳＥ麹町２階,,13,101,1020084,,,,,,,2025-04-11,1,,,,,アカンパニー,0
2330,9010401189613,新規,0,2025-04-11,2025-04-11,株式会社ＢＡＫＵＭＩ,,株式会社,東京都,港区,六本木７丁目３番２３号,,13,103,1060032,,,,,,,2025-04-11,1,,,,,バクミ,0
2331,9010403034783,新規,0,2025-04-11,2025-04-11,合同会社睛,,合同会社,東京都,港区,北青山１丁目３番１号アールキューブ青山３階,,13,103,1070061,,,,,,,2025-04-11,1,,,,,セイ,0
2332,9010403034791,新規,0,2025-04-11,2025-04-11,合同会社ルイ,,合同会社,東京都,港区,三田５丁目２０番９－２０１号,,13,103,1080073,,,,,,,2025-04-11,1,,,,,ルイ,0
2333,9010403034809,新規,0,2025-04-11,2025-04-11,合同会社ｃｏｌｏｒ,,合同会社,東京都,港区,南青山３丁目１番３６号青山丸竹ビル６Ｆ,,13,103,1070062,,,,,,,2025-04-11,1,,,,,カラー,0
2334,9010403034858,新規,0,2025-04-11,2025-04-11,久慈山形風力発電合同会社,,合同会社,東京都,港区,南青山３丁目１番７号青山コンパルビル２階ｗｐｄジャパン株式会社内,,13,103,1070062,,,,,,,2025-04-11,1,,,,,クジヤマガタフウリョクハツデン,0
2338,9010601067115,新規,0,2025-04-11,2025-04-11,建平株式会社,,株式会社,東京都,江東区,亀戸３丁目６２番１０号ＳＡＮビル４０４号室,,13,108,1360071,,,,,,,2025-04-11,1,,,,,ケンヘイ,0
2339,9010603011491,新規,0,2025-04-11,2025-04-11,清澄白河コンサルタント合同会社,,合同会社,東京都,江東区,三好１丁目８－３越前屋ビル２階,,13,108,1350022,,,,,,,2025-04-11,1,,,,,キヨスミシラカワコンサルタント,0
2340,9010605004436,新規,0,2025-04-11,2025-04-11,一般社団法人ＳＭＡ家族の会,,その他の設立登記法人,東京都,墨田区,江東橋４丁目２７番１４号楽天地ビル３Ｆ、ＢＩＺｃｏｍｆｏｒｔ錦糸町Ｃ２０,,13,107,1300022,,,,,,,2025-04-11,1,,,,,エスエムエーカゾクノカイ,0
2341,9010701047512,新規,0,2025-04-11,2025-04-11,株式会社ジールプロテクション,,株式会社,東京都,品川区,東五反田２丁目３－５五反田中央ビル７階,,13,109,1410022,,,,,,,2025-04-11,1,,,,,ジールプロテクション,0
2342,9010701047537,新規,0,2025-04-11,2025-04-11,株式会社ｉＫＯＭＡ,,株式会社,東京都,品川区,南大井５丁目１０番９号,,13,109,1400013,,,,,,,2025-04-11,1,,,,,イコマ,0
2343,9010701047545,新規,0,2025-04-11,2025-04-11,株式会社幸田企画,,株式会社,東京都,品川区,旗の台５丁目４番８－５０２号,,13,109,1420064,,,,,,,2025-04-11,1,,,,,コウダキカク,0
2344,9010703007654,新規,0,2025-04-11,2025-04-11,アースデザイン合同会社,,合同会社,東京都,品川区,大井１丁目２０－２２クレヴィアタワー大井町ザレジデンス１３０２,,13,109,1400014,,,,,,,2025-04-11,1,,,,,アースデザイン,0
2349,9010901057170,新規,0,2025-04-11,2025-04-11,株式会社ＬＰ　Ｌｉｎｋｓ,,株式会社,東京都,世田谷区,太子堂４丁目１８－１５マガザン三軒茶屋２－３Ｆ－３,,13,112,1540004,,,,,,,2025-04-11,1,,,,,エルピーリンクス,0
2350,9010901057187,新規,0,2025-04-11,2025-04-11,ビーヴェルノ株式会社,,株式会社,東京都,世田谷区,深沢２丁目６番１５－１０５号,,13,112,1580081,,,,,,,2025-04-11,1,,,,,ビーヴェルノ,0
2358,9011001168809,新規,0,2025-04-11,2025-04-11,株式会社虎蝶蘭,,株式会社,東京都,渋谷区,神宮前６丁目２３番４号桑野ビル２階,,13,113,1500001,,,,,,,2025-04-11,1,,,,,コチョウラン,0
2359,9011001168825,新規,0,2025-04-11,2025-04-11,株式会社ＤｅｅｐＡｘｉｓ,,株式会社,東京都,目黒区,下目黒２丁目２０番６号ａＬＡＴОＭＥＧＵＲО－２０５,,13,110,1530064,,,,,,,2025-04-11,1,,,,,ディープアクシス,0
2360,9011001168841,新規,0,2025-04-11,2025-04-11,株式会社Ｌｅａｆ　ｆｌａｇ,,株式会社,東京都,渋谷区,桜丘町３０番１５ビバリーヒルズビル１０３号室,,13,113,1500031,,,,,,,2025-04-11,1,,,,,リーフフラッグ,0
2361,9011001168932,新規,0,2025-04-11,2025-04-11,株式会社ルックバック,,株式会社,東京都,渋谷区,渋谷２丁目１２番１２－７０１号三貴ビル,,13,113,1500002,,,,,,,2025-04-11,1,,,,,ルックバック,0
2364,9011003021354,新規,0,2025-04-11,2025-04-11,合同会社ファイブスケッチ,,合同会社,東京都,目黒区,目黒本町４丁目２３番１３号クレオ１０２,,13,110,1520002,,,,,,,2025-04-11,1,,,,,ファイブスケッチ,0
2365,9011003021362,新規,0,2025-04-11,2025-04-11,バウミュウ合同会社,,合同会社,東京都,渋谷区,円山町５番５号Ｎａｖｉ渋谷Ｖ３階,,13,113,1500044,,,,,,,2025-04-11,1,,,,,バウミュウ,0
2366,9011005010941,新規,0,2025-04-11,2025-04-11,一般社団法人Ｎｉｇｈｔ　Ｌａｂ,,その他の設立登記法人,東京都,目黒区,中町１丁目１７番１５号山田ビル２０５,,13,110,1530065,,,,,,,2025-04-11,1,,,,,ナイトラボ,0
2371,9011101111247,新規,0,2025-04-11,2025-04-11,株式会社ＡＭＲ,,株式会社,東京都,新宿区,新小川町六丁目２７番地飯田橋第二パークファミリア４０４,,13,104,1620814,,,,,,,2025-04-11,1,,,,,エーエムアール,0
2372,9011101111288,新規,0,2025-04-11,2025-04-11,株式会社Ｃｏｎｎｅｘｉａ,,株式会社,東京都,新宿区,新宿２丁目１３番１０号エルハイム新宿１００３号室,,13,104,1600022,,,,,,,2025-04-11,1,,,,,コネクシア,0
2373,9011101111321,新規,0,2025-04-11,2025-04-11,株式会社結び界,,株式会社,東京都,新宿区,百人町１丁目２０番１６－２０１号,,13,104,1690073,,,,,,,2025-04-11,1,,,,,ムスビカイ,0
2378,9011501031912,新規,0,2025-04-11,2025-04-11,株式会社ＧＡＲＡＮＣＥ,,株式会社,東京都,荒川区,荒川４丁目３番２－１１０３号,,13,118,1160002,,,,,,,2025-04-11,1,,,,,ガランス,0
2381,9011703004195,新規,0,2025-04-11,2025-04-11,合同会社Ｋ＆Ｒ,,合同会社,東京都,江戸川区,中葛西５丁目４１番１０号プレイス葛西６階,,13,123,1340083,,,,,,,2025-04-11,1,,,,,ケーアンドアール,0
2382,9011803006785,新規,0,2025-04-11,2025-04-11,合同会社コガ,,合同会社,東京都,葛飾区,新小岩１丁目３番３号,,13,122,1240024,,,,,,,2025-04-11,1,,,,,コガ,0
2383,9012301014330,新規,0,2025-04-11,2025-04-11,株式会社プリマベーラ,,株式会社,東京都,町田市,木曽東４丁目２６番１５号東京町田メディカルビルディング３階,,13,209,1940036,,,,,,,2025-04-11,1,,,,,プリマベーラ,0
2385,9012703003237,新規,0,2025-04-11,2025-04-11,合同会社ＫＹコンサルティング,,合同会社,東京都,小平市,小川東町１８３４番地の２４,,13,211,1870031,,,,,,,2025-04-11,1,,,,,ケイワイコンサルティング,0
2386,9012801023888,新規,0,2025-04-11,2025-04-11,カピバラ株式会社,,株式会社,東京都,国分寺市,高木町２丁目１２番地２１,,13,214,1850036,,,,,,,2025-04-11,1,,,,,カピバラ,0
2387,9012801023896,新規,0,2025-04-11,2025-04-11,株式会社Ｈａｇｉ　Ｏｆｆｉｃｅ,,株式会社,東京都,国分寺市,並木町２丁目２８番地５,,13,214,1850005,,,,,,,2025-04-11,1,,,,,ハギオフィス,0
2398,9020001162069,新規,0,2025-04-11,2025-04-11,株式会社ＹＯＳＨＩＮＯ,,株式会社,神奈川県,横浜市鶴見区,東寺尾東台１７番２８号,,14,101,2300018,,,,,,,2025-04-11,1,,,,,ヨシノ,0
2400,9021001084930,新規,0,2025-04-11,2025-04-11,株式会社Ａ＆Ｓカンパニー,,株式会社,神奈川県,藤沢市,石川３丁目１４番地の７アーデル湘南１０５号室,,14,205,2520815,,,,,,,2025-04-11,1,,,,,アースカンパニー,0
2404,9021003015859,新規,0,2025-04-11,2025-04-11,合同会社ハミングバード,,合同会社,神奈川県,鎌倉市,山ノ内１７１―６,,14,204,2470062,,,,,,,2025-04-11,1,,,,,ハミングバード,0
2405,9021005013332,新規,0,2025-04-11,2025-04-11,ＮＰＯ法人いっぽ一歩,,その他の設立登記法人,神奈川県,鎌倉市,手広７０２番地２８,,14,204,2480036,,,,,,,2025-04-11,1,,,,,イッポイッポ,0
2411,9030001165905,新規,0,2025-04-11,2025-04-11,株式会社木盛商事,,株式会社,埼玉県,さいたま市南区,大字大谷口５３５１番地３,,11,108,3360042,,,,,,,2025-04-11,1,,,,,キモリショウジ,0
2412,9030001165938,新規,0,2025-04-11,2025-04-11,ヨシダイレクト株式会社,,株式会社,埼玉県,川口市,芝富士１丁目１８番６号,,11,203,3330854,,,,,,,2025-04-11,1,,,,,ヨシダイレクト,0
2417,9030003026543,新規,0,2025-04-11,2025-04-11,合同会社Ｈａｎｄ　Ｌｉｆｅ,,合同会社,埼玉県,草加市,氷川町１９０番地ラ・シェール草加１０２号,,11,221,3400034,,,,,,,2025-04-11,1,,,,,ハンドライフ,0
2421,9040001138141,新規,0,2025-04-11,2025-04-11,株式会社おもてなしスタイル,,株式会社,千葉県,君津市,東坂田４丁目３番３号,,12,225,2991144,,,,,,,2025-04-11,1,,,,,オモテナシスタイル,0
2422,9040001138265,新規,0,2025-04-11,2025-04-11,株式会社Ｍ２,,株式会社,千葉県,千葉市花見川区,花島町３５７番地２,,12,102,2620042,,,,,,,2025-04-11,1,,,,,エムツー,0
2423,9040001138273,新規,0,2025-04-11,2025-04-11,株式会社慎京,,株式会社,千葉県,木更津市,金田東１丁目４３番地７ザ・リバーアップパレス１０６,,12,206,2920009,,,,,,,2025-04-11,1,,,,,シンキョウ,0
2424,9040001138281,新規,0,2025-04-11,2025-04-11,株式会社ＳＺＫ,,株式会社,千葉県,千葉市緑区,土気町１６９１番地５１,,12,105,2670061,,,,,,,2025-04-11,1,,,,,エスジーケイ,0
2430,9040003027334,新規,0,2025-04-11,2025-04-11,ＡＣＣＥＳＳ合同会社,,合同会社,千葉県,銚子市,春日町２５２７番地の１エールシャイン２０２号室,,12,202,2880814,,,,,,,2025-04-11,1,,,,,アクセス,0
2431,9040005022713,新規,0,2025-04-11,2025-04-11,一般社団法人日本スポーツカー協会,,その他の設立登記法人,千葉県,佐倉市,宮小路町６７番地,,12,212,2850016,,,,,,,2025-04-11,1,,,,,ニホンスポーツカーキョウカイ,0
2434,9060003005503,新規,0,2025-04-11,2025-04-11,合同会社ＴＨＩＥＮ　ＡＮ,,合同会社,栃木県,小山市,城山町１丁目２番２２号,,09,208,3230025,,,,,,,2025-04-11,1,,,,,ティエンアン,0
2438,9070003005857,新規,0,2025-04-11,2025-04-11,合同会社そらへの夢,,合同会社,群馬県,桐生市,広沢町５丁目１６６４番地１０,,10,203,3760013,,,,,,,2025-04-11,1,,,,,ソラヘノユメ,0
2441,9080103003289,新規,0,2025-04-11,2025-04-11,合同会社伊豆山まちづくりマネジメント,,合同会社,静岡県,熱海市,伊豆山６７５－７,,22,205,4130002,,,,,,,2025-04-11,1,,,,,イズサンマチヅクリマネジメント,0
2445,9100001038500,新規,0,2025-04-11,2025-04-11,古畑建設株式会社,,株式会社,長野県,松本市,筑摩１丁目１３－２０宏栄筑摩ビル２０２,,20,202,3900821,,,,,,,2025-04-11,1,,,,,フルハタケンセツ,0
2446,9100001038509,新規,0,2025-04-11,2025-04-11,株式会社Ｔ‐Ｆｏｒｗａｒｄ,,株式会社,長野県,中野市,大字竹原９５７番地ロ,,20,211,3830007,,,,,,,2025-04-11,1,,,,,ティーフォワード,0
2450,9100003008063,新規,0,2025-04-11,2025-04-11,安曇野ネイチャーズ合同会社,,合同会社,長野県,安曇野市,豊科２７８１－３サウスヒルハイツ２０５号,,20,220,3998205,,,,,,,2025-04-11,1,,,,,アヅミノネイチャーズ,0
2456,9120001274374,新規,0,2025-04-11,2025-04-11,玖麟株式会社,,株式会社,大阪府,大阪市北区,堂山町１－５三共梅田ビル６階センターオフィス内,,27,127,5300027,,,,,,,2025-04-11,1,,,,,クリン,0
2457,9120001274399,新規,0,2025-04-11,2025-04-11,株式会社ＴＭ不動産,,株式会社,大阪府,大阪市阿倍野区,長池町１７番４号アイアム,,27,119,5450013,,,,,,,2025-04-11,1,,,,,ティーエムフドウサン,0
2458,9120001274408,新規,0,2025-04-11,2025-04-11,近鉄インベストメント・パートナーズ株式会社,,株式会社,大阪府,大阪市北区,堂島２丁目２番２号,,27,127,5300003,,,,,,,2025-04-11,1,,,,,キンテツインベストメントパートナーズ,0
2459,9120001274481,新規,0,2025-04-11,2025-04-11,ヤンマーブランドアセットデザイン株式会社,,株式会社,大阪府,大阪市北区,茶屋町１番３２号,,27,127,5300013,,,,,,,2025-04-11,1,,,,,ヤンマーブランドアセットデザイン,0
2460,9120001274498,新規,0,2025-04-11,2025-04-11,Ｖａｌｕｅ　Ｉｎｔｅｌｌｉｇｅｎｃｅ株式会社,,株式会社,大阪府,大阪市西区,新町１丁目１４番２１－８０８号,,27,106,5500013,,,,,,,2025-04-11,1,,,,,バリューインテリジェンス,0
2461,9120001274705,新規,0,2025-04-11,2025-04-11,株式会社ピースラック,,株式会社,大阪府,大阪市平野区,加美南５丁目６番１２号,,27,126,5470003,,,,,,,2025-04-11,1,,,,,ピースラック,0
2462,9120001274738,新規,0,2025-04-11,2025-04-11,株式会社ＬＩＭ　ＧＬＯＢＡＬ,,株式会社,大阪府,大阪市中央区,北久宝寺町３丁目６番１号本町南ガーデンシティ７階,,27,128,5410057,,,,,,,2025-04-11,1,,,,,リムグローバル,0
2463,9120001274754,新規,0,2025-04-11,2025-04-11,株式会社ＬＩＭＩＴＬＥＳＳ,,株式会社,大阪府,大阪市中央区,常盤町２丁目４－２一久ビル新館８０１号室,,27,128,5400028,,,,,,,2025-04-11,1,,,,,リミットレス,0
2464,9120003029058,新規,0,2025-04-11,2025-04-11,合同会社ｔｅｎｄｗｉｌｌ,,合同会社,大阪府,大阪市生野区,新今里３丁目１１－３今里ＡＭＢＥＲビル３０１号,,27,116,5440001,,,,,,,2025-04-11,1,,,,,テンドウィル,0
2465,9120003029082,新規,0,2025-04-11,2025-04-11,彩遙電機合同会社,,合同会社,大阪府,大阪市住吉区,万代２丁目６番１７号,,27,120,5580055,,,,,,,2025-04-11,1,,,,,サイヨウデンキ,0
2466,9120003029090,新規,0,2025-04-11,2025-04-11,合同会社虹まる,,合同会社,大阪府,大阪市中央区,高津３丁目２番３１号エスライズ日本橋６０４号室,,27,128,5420072,,,,,,,2025-04-11,1,,,,,ニジマル,0
2467,9120003029099,新規,0,2025-04-11,2025-04-11,錬組合同会社,,合同会社,大阪府,大阪市西成区,玉出西１丁目２番２７号３Ａ号室,,27,122,5570045,,,,,,,2025-04-11,1,,,,,レングミ,0
2468,9120101071449,新規,0,2025-04-11,2025-04-11,華商株式会社,,株式会社,大阪府,泉南市,信達市場４３８番地の１８,,27,228,5900504,,,,,,,2025-04-11,1,,,,,カショウ,0
2470,9120903005612,新規,0,2025-04-11,2025-04-11,合同会社リボーン,,合同会社,大阪府,豊中市,勝部１丁目９－３１,,27,203,5610894,,,,,,,2025-04-11,1,,,,,リボーン,0
2471,9122003003166,新規,0,2025-04-11,2025-04-11,合同会社イージス,,合同会社,大阪府,東大阪市,布市町１丁目９番６号ランデックス弐番館１０８号室,,27,227,5798004,,,,,,,2025-04-11,1,,,,,イージス,0
2476,9130003010355,新規,0,2025-04-11,2025-04-11,ＫＯＡＮ合同会社,,合同会社,京都府,京都市左京区,鹿ケ谷寺ノ前町３０番地,,26,103,6068426,,,,,,,2025-04-11,1,,,,,コウアン,0
2479,9140001138040,新規,0,2025-04-11,2025-04-11,株式会社ＴＥＦ,,株式会社,兵庫県,神戸市垂水区,下畑町字向井４８７番地４,,28,108,6550861,,,,,,,2025-04-11,1,,,,,ティーイーエフ,0
2480,9140001138049,新規,0,2025-04-11,2025-04-11,イタルＲＵＮＮＥＲ株式会社,,株式会社,兵庫県,神戸市垂水区,学が丘４丁目２４番１０号,,28,108,6550004,,,,,,,2025-04-11,1,,,,,イタルランナー,0
2481,9140001138156,新規,0,2025-04-11,2025-04-11,株式会社ｂ‐ｍａｒｋ,,株式会社,兵庫県,神戸市長田区,西丸山町２丁目１番１３号,,28,106,6530874,,,,,,,2025-04-11,1,,,,,ビーマーク,0
2482,9140001138172,新規,0,2025-04-11,2025-04-11,株式会社１０８,,株式会社,兵庫県,神戸市西区,学園東町３丁目６５９－８６,,28,111,6512102,,,,,,,2025-04-11,1,,,,,イチマルハチ,0
2485,9140003021921,新規,0,2025-04-11,2025-04-11,日本シーマンシップ合同会社,,合同会社,兵庫県,加古郡播磨町,北本荘７丁目７番８号,,28,382,6750144,,,,,,,2025-04-11,1,,,,,ニッポンシーマンシップ,0
2488,9150001028034,新規,0,2025-04-11,2025-04-11,株式会社Ｊｕｎｐｙ,,株式会社,奈良県,生駒市,小瀬町４７８番地１,,29,209,6300223,,,,,,,2025-04-11,1,,,,,ジュンピー,0
2498,9180001166260,新規,0,2025-04-11,2025-04-11,株式会社ｓｎｕｗ,,株式会社,愛知県,名古屋市中区,栄１丁目６番１号ｃ－ｆｏｒｅｓｔＶＩＩ２Ａ,00138721,23,106,4600008,,,,,,,2025-04-11,1,,,,,スニュウ,0
2499,9180001166285,新規,0,2025-04-11,2025-04-11,株式会社さらち,,株式会社,愛知県,半田市,青山２丁目２５番地３青山ビル３０２号,,23,205,4750836,,,,,,,2025-04-11,1,,,,,サラチ,0
2501,9180003028319,新規,0,2025-04-11,2025-04-11,合同会社創屋プロダクション,,合同会社,愛知県,名古屋市昭和区,滝子町２８番地３４号１０２,,23,107,4660053,,,,,,,2025-04-11,1,,,,,ツクリヤプロダクション,0
2502,9180005021016,新規,0,2025-04-11,2025-04-11,ＮＰＯ法人日本潜水連盟,,その他の設立登記法人,愛知県,名古屋市南区,元塩町２丁目１３番地の３,,23,112,4570823,,,,,,,2025-04-11,1,,,,,ニホンセンスイレンメイ,0
2503,9180005021024,新規,0,2025-04-11,2025-04-11,地方独立行政法人知多半島総合医療機構,,その他の設立登記法人,愛知県,半田市,横山町１９２番地,,23,205,4750946,,,,,,,2025-04-11,1,,,,,チタハントウソウゴウイリョウキコウ,0
2506,9180303006528,新規,0,2025-04-11,2025-04-11,ＧＥＮＤ合同会社,,合同会社,愛知県,豊橋市,羽根井町９２－１－２０５,,23,201,4418025,,,,,,,2025-04-11,1,,,,,ジェンド,0
2507,9180305009677,新規,0,2025-04-11,2025-04-11,一般社団法人ＴＯＹＯＴＡ　ＢＡＳＥ,,その他の設立登記法人,愛知県,豊田市,住吉町１丁目５番地１７,,23,211,4730905,,,,,,,2025-04-11,1,,,,,トヨタベース,0
2508,9190003004995,新規,0,2025-04-11,2025-04-11,合同会社エムレジスタ,,合同会社,三重県,鈴鹿市,石薬師町２４５８,,24,207,5130012,,,,,,,2025-04-11,1,,,,,エムレジスタ,0
2510,9200001043639,新規,0,2025-04-11,2025-04-11,株式会社タカサゴ,,株式会社,岐阜県,本巣市,仏生寺８８４番地６,,21,218,5010407,,,,,,,2025-04-11,1,,,,,タカサゴ,0
2512,9200005013745,新規,0,2025-04-11,2025-04-11,一般社団法人東濃地域居住支援センター,,その他の設立登記法人,岐阜県,恵那市,大井町１１３４番地８２,,21,210,5097201,,,,,,,2025-04-11,1,,,,,トウノウチイキキョジュウシエンセンター,0
2514,9210003001908,新規,0,2025-04-11,2025-04-11,合同会社ＳＰＧ１,,合同会社,福井県,小浜市,谷田部第８号１４番地の１,,18,204,9170031,,,,,,,2025-04-11,1,,,,,エスピージーワン,0
2518,9220003003985,新規,0,2025-04-11,2025-04-11,合同会社瓦屋・伸,,合同会社,石川県,鹿島郡中能登町,金丸ノ部４９番地２,,17,407,9291621,,,,,,,2025-04-11,1,,,,,カワラヤシン,0
2525,9260001040093,新規,0,2025-04-11,2025-04-11,株式会社河野工業,,株式会社,岡山県,倉敷市,中島９６２番地４エクセルメゾンＡ２０１号室,,33,202,7100803,,,,,,,2025-04-11,1,,,,,コウノコウギョウ,0
2529,9290001109646,新規,0,2025-04-11,2025-04-11,株式会社デルタ警備システム,,株式会社,福岡県,福岡市博多区,西春町１丁目４番３号,,40,132,8120873,,,,,,,2025-04-11,1,,,,,デルタケイビシステム,0
2530,9290003016642,新規,0,2025-04-11,2025-04-11,合同会社Ｎ．ｃｏｌｏｒｓ,,合同会社,福岡県,福岡市東区,多の津５丁目４８番１７－２０４号ウェステリアハーモニー,,40,131,8130034,,,,,,,2025-04-11,1,,,,,エヌカラーズ,0
2535,9290801031446,新規,0,2025-04-11,2025-04-11,株式会社モートリー,,株式会社,福岡県,田川郡川崎町,大字池尻２７９‐１,,40,605,8270002,,,,,,,2025-04-11,1,,,,,モートリー,0
2538,9320003004635,新規,0,2025-04-11,2025-04-11,ココロカラダラボ合同会社,,合同会社,大分県,由布市,挾間町東院１７５４番地１１６,,44,213,8795510,,,,,,,2025-04-11,1,,,,,ココロカラダラボ,0
2539,9330001033032,新規,0,2025-04-11,2025-04-11,株式会社ＬＯＮＯ　Ｆａｒｍ,,株式会社,熊本県,熊本市西区,城山半田３丁目９番１５－１号,,43,103,8600064,,,,,,,2025-04-11,1,,,,,ロノファーム,0
2547,9380001035206,新規,0,2025-04-11,2025-04-11,株式会社Ｖ‐Ａｒｋｓ,,株式会社,福島県,郡山市,安積町笹川字西長久保１５８番地の２,,07,203,9630102,,,,,,,2025-04-11,1,,,,,ブイアークス,0
2549,9380003006015,新規,0,2025-04-11,2025-04-11,合同会社八島建工,,合同会社,福島県,田村郡三春町,八島台４丁目４番地の１,,07,521,9637741,,,,,,,2025-04-11,1,,,,,ヤシマケンコウ,0
2550,9390003002376,新規,0,2025-04-11,2025-04-11,カーサ合同会社,,合同会社,山形県,山形市,小白川町１丁目１３番３１号,,06,201,9900021,,,,,,,2025-04-11,1,,,,,カーサ,0
2553,9400001017003,新規,0,2025-04-11,2025-04-11,株式会社ＨＩＲＯ,,株式会社,岩手県,花巻市,星が丘２丁目２６番９号グリーンコート星が丘Ｃ１０３,,03,205,0250065,,,,,,,2025-04-11,1,,,,,ヒロ,0
2554,9410001014123,新規,0,2025-04-11,2025-04-11,株式会社能代設備,,株式会社,秋田県,能代市,磐字杉沢野７７番地１,,05,202,0160017,,,,,,,2025-04-11,1,,,,,ノシロセツビ,0
2562,9430001094147,新規,0,2025-04-11,2025-04-11,ＮＥＷＭ株式会社,,株式会社,北海道,札幌市北区,新琴似一条１０丁目８番１１号,,01,102,0010901,,,,,,,2025-04-11,1,,,,,ニューム,0
2563,9430001094171,新規,0,2025-04-11,2025-04-11,Ｃ＆Ｓ不動産株式会社,,株式会社,北海道,札幌市北区,北三十六条西６丁目１番１７－４０５号,,01,102,0010036,,,,,,,2025-04-11,1,,,,,シーアンドエスフドウサン,0
