sequenceNumber,corporateNumber,process,correct,updateDate,changeDate,name,nameImageId,kind,prefectureName,cityName,streetNumber,addressImageId,prefectureCode,cityCode,postCode,addressOutside,addressOutsideImageId,closeDate,closeCause,successorCorporateNumber,changeCause,assignmentDate,latest,enName,enPrefectureName,enCityName,enAddressOutside,furigana,hihyoji
5,1010001225271,新規,0,2022-03-18,2022-03-18,株式会社ＰＭＦアソシエイツ,,株式会社,東京都,中央区,京橋２丁目２－１京橋エドグラン２６階,,13,102,1040031,,,,,,,2022-03-18,1,,,,,ピーエムエフアソシエイツ,0
6,1010001225288,新規,0,2022-03-18,2022-03-18,株式会社クリエイターズパーク,,株式会社,東京都,中央区,晴海２丁目３－３０ザパークハウス晴海タワーズクロノレジデンス３４０５,,13,102,1040053,,,,,,,2022-03-18,1,,,,,クリエイターズパーク,0
7,1010001225354,新規,0,2022-03-18,2022-03-18,文京澁谷不動産株式会社,,株式会社,東京都,文京区,本郷３丁目３９番３号,,13,105,1130033,,,,,,,2022-03-18,1,,,,,ブンキョウシブヤフドウサン,0
10,1010003037277,新規,0,2022-03-18,2022-03-18,合同会社ＤＵＰＬＥＸ千葉下大多喜発電所,,合同会社,東京都,文京区,目白台２丁目９番１３号,,13,105,1120015,,,,,,,2022-03-18,1,,,,,デュープレックスチバシモオオタキハツデンショ,0
20,1010401166256,新規,0,2022-03-18,2022-03-18,株式会社渡部明央,,株式会社,東京都,港区,東麻布１丁目９番１６号ＭＴＰ東麻布ビル６階,,13,103,1060044,,,,,,,2022-03-18,1,,,,,ワタベアキオウ,0
21,1010401166272,新規,0,2022-03-18,2022-03-18,株式会社赤坂サウナ,,株式会社,東京都,港区,赤坂３丁目１３番４号赤坂三河家ビル１階,,13,103,1070052,,,,,,,2022-03-18,1,,,,,アカサカサウナ,0
25,1010501048602,新規,0,2022-03-18,2022-03-18,明泰株式会社,,株式会社,東京都,台東区,北上野２丁目２５番９号－２０７号室,,13,106,1100014,,,,,,,2022-03-18,1,,,,,メイタイ,0
33,1010701042388,新規,0,2022-03-18,2022-03-18,株式会社ＰＵＮＣＨＬＩＮＥ,,株式会社,東京都,品川区,小山２丁目１０番３号,,13,109,1420062,,,,,,,2022-03-18,1,,,,,パンチライン,0
36,1010703006151,新規,0,2022-03-18,2022-03-18,合同会社ＳＡＴＯコーポレーション,,合同会社,東京都,品川区,西五反田２丁目１９番３号,,13,109,1410031,,,,,,,2022-03-18,1,,,,,サトーコーポレーション,0
43,1010901050521,新規,0,2022-03-18,2022-03-18,株式会社神楽美,,株式会社,東京都,世田谷区,上馬２丁目２６番６－１００４号,,13,112,1540011,,,,,,,2022-03-18,1,,,,,カグラビ,0
48,1011001146359,新規,0,2022-03-18,2022-03-18,株式会社ｍｍｍｍｍ,,株式会社,東京都,渋谷区,神宮前６丁目２３番４号桑野ビル２階,,13,113,1500001,,,,,,,2022-03-18,1,,,,,エムエムエムエムエム,0
53,1011101098145,新規,0,2022-03-18,2022-03-18,Ｒｏｎｒｉｄｅ株式会社,,株式会社,東京都,新宿区,西新宿３丁目３番１３号西新宿水間ビル６階,,13,104,1600023,,,,,,,2022-03-18,1,,,,,ロンライド,0
55,1011303004347,新規,0,2022-03-18,2022-03-18,合同会社フルカワ,,合同会社,東京都,杉並区,永福４丁目１４番１６号,,13,115,1680064,,,,,,,2022-03-18,1,,,,,フルカワ,0
60,1011801040471,新規,0,2022-03-18,2022-03-18,株式会社テクテク,,株式会社,東京都,足立区,新田３丁目３７番１３－２１４号,,13,121,1230865,,,,,,,2022-03-18,1,,,,,テクテク,0
61,1012803002732,新規,0,2022-03-18,2022-03-18,合同会社リポルテ,,合同会社,東京都,日野市,平山６丁目３３番地１,,13,212,1910043,,,,,,,2022-03-18,1,,,,,,0
66,1013303006091,新規,0,2022-03-18,2022-03-18,ＡＦＴＥＲＩＭＡＧＥ合同会社,,合同会社,東京都,豊島区,南池袋１丁目９番１８号３１８号室,,13,116,1710022,,,,,,,2022-03-18,1,,,,,アフターイメージ,0
91,1030003019026,新規,0,2022-03-18,2022-03-18,ＳＬＧプランニング合同会社,,合同会社,埼玉県,所沢市,東所沢１丁目１８番地の６ジュアリー１０６,,11,208,3590021,,,,,,,2022-03-18,1,,,,,エスエルジープランニング,0
92,1030003019050,新規,0,2022-03-18,2022-03-18,マエダ電工合同会社,,合同会社,埼玉県,さいたま市北区,別所町２９番地５３,,11,102,3310821,,,,,,,2022-03-18,1,,,,,マエダデンコウ,0
98,1040001122672,新規,0,2022-03-18,2022-03-18,株式会社リライフ柏,,株式会社,千葉県,柏市,高田１２９７番地の７,,12,217,2770861,,,,,,,2022-03-18,1,,,,,リライフカシワ,0
102,1040003019702,新規,0,2022-03-18,2022-03-18,御宿町飼料作物生産組合合同会社,,合同会社,千葉県,夷隅郡御宿町,高山田８３６番地１,,12,443,2995101,,,,,,,2022-03-18,1,,,,,,0
106,1050001050807,新規,0,2022-03-18,2022-03-18,ＬＩＢＢＡＹ　ＴＲＡＤＩＮＧ株式会社,,株式会社,茨城県,古河市,茶屋新田１４２番地１城南ハイツＢ１０３号室,,08,204,3060051,,,,,,,2022-03-18,1,,,,,リッベイトレーディング,0
107,1050001050815,新規,0,2022-03-18,2022-03-18,株式会社海莉工業,,株式会社,茨城県,ひたちなか市,柳が丘２番地６,,08,221,3111232,,,,,,,2022-03-18,1,,,,,カイリコウギョウ,0
136,1120001244491,新規,0,2022-03-18,2022-03-18,海恩株式会社,,株式会社,大阪府,大阪市天王寺区,空清町４－１１杉野ビル本館２０３号室,,27,109,5430018,,,,,,,2022-03-18,1,,,,,カイオン,0
137,1120001244500,新規,0,2022-03-18,2022-03-18,株式会社ハイライト,,株式会社,大阪府,大阪市中央区,淡路町３丁目１－８七福ビル７Ａ,,27,128,5410047,,,,,,,2022-03-18,1,,,,,ハイライト,0
138,1120001244509,新規,0,2022-03-18,2022-03-18,株式会社ＥＭＲＥ,,株式会社,大阪府,大阪市中央区,北浜３丁目２番２５号京阪淀屋橋ビル,,27,128,5410041,,,,,,,2022-03-18,1,,,,,エムレ,0
139,1120001244517,新規,0,2022-03-18,2022-03-18,株式会社ａｎｅｍｏｎｅ,,株式会社,大阪府,大阪市天王寺区,大道３丁目８番３０号,,27,109,5430052,,,,,,,2022-03-18,1,,,,,アネモネ,0
140,1120001244525,新規,0,2022-03-18,2022-03-18,ＳＨＩＲＯ株式会社,,株式会社,大阪府,大阪市東淀川区,西淡路１丁目１－９,,27,114,5330031,,,,,,,2022-03-18,1,,,,,シロ,0
141,1120001244541,新規,0,2022-03-18,2022-03-18,タイトラスト株式会社,,株式会社,大阪府,大阪市北区,西天満３丁目１３番１８号島根ビルディング６階,,27,127,5300047,,,,,,,2022-03-18,1,,,,,タイトラスト,0
142,1120001244574,新規,0,2022-03-18,2022-03-18,株式会社Ｌ．Ｉ．Ｂ,,株式会社,大阪府,大阪市浪速区,湊町２丁目２番５－１００３号,,27,111,5560017,,,,,,,2022-03-18,1,,,,,エルアイビー,0
143,1120003021294,新規,0,2022-03-18,2022-03-18,ｍａｖｉｅ合同会社,,合同会社,大阪府,大阪市北区,大淀中３丁目９番１５－４０１号,,27,127,5310076,,,,,,,2022-03-18,1,,,,,マヴィ,0
144,1120003021311,新規,0,2022-03-18,2022-03-18,合同会社パソポ,,合同会社,大阪府,大阪市此花区,島屋６丁目２番９０－１３１０号,,27,104,5540024,,,,,,,2022-03-18,1,,,,,パソポ,0
146,1120101065251,新規,0,2022-03-18,2022-03-18,株式会社まち・ひとデザインＬａｂｏ,,株式会社,大阪府,泉大津市,豊中町２丁目１４番９号,,27,206,5950023,,,,,,,2022-03-18,1,,,,,マチヒトデザインラボ,0
151,1130001071308,新規,0,2022-03-18,2022-03-18,株式会社ゴールドキャピタル,,株式会社,京都府,京都市伏見区,醍醐合場町８番地３７,,26,109,6011347,,,,,,,2022-03-18,1,,,,,ゴールドキャピタル,0
155,1140001125293,新規,0,2022-03-18,2022-03-18,株式会社グッドホーム,,株式会社,兵庫県,神戸市西区,二ツ屋２丁目１５番２－２０２号,,28,111,6512142,,,,,,,2022-03-18,1,,,,,グッドホーム,0
156,1140001125310,新規,0,2022-03-18,2022-03-18,株式会社ひいらぎ,,株式会社,兵庫県,三木市,吉川町有安３０３番,,28,215,6731107,,,,,,,2022-03-18,1,,,,,ヒイラギ,0
163,1160003002514,新規,0,2022-03-18,2022-03-18,合同会社ＧＬＯＢＡＬ　Ｋ’ｓ,,合同会社,滋賀県,草津市,大路１丁目６番１５－９１０号,,25,206,5250032,,,,,,,2022-03-18,1,,,,,グローバルケー,0
164,1170001017018,新規,0,2022-03-18,2022-03-18,新葉建設株式会社,,株式会社,和歌山県,和歌山市,塩屋１丁目３番３２号,,30,201,6410054,,,,,,,2022-03-18,1,,,,,シンヨウケンセツ,0
171,1180001150429,新規,0,2022-03-18,2022-03-18,藤英株式会社,,株式会社,愛知県,名古屋市西区,名駅２丁目３４番１７号セントラル名古屋１１０１号,,23,104,4510045,,,,,,,2022-03-18,1,,,,,フジエイ,0
172,1180001150461,新規,0,2022-03-18,2022-03-18,もんや株式会社,,株式会社,愛知県,名古屋市緑区,元徳重１丁目１２０６番地,,23,114,4580852,,,,,,,2022-03-18,1,,,,,モンヤ,0
175,1180003023624,新規,0,2022-03-18,2022-03-18,Ｒｉｔｔａ合同会社,,合同会社,愛知県,名古屋市守山区,大字下志段味字池段寺９４４,,23,113,4630003,,,,,,,2022-03-18,1,,,,,リッタ,0
176,1180005019686,新規,0,2022-03-18,2022-03-18,医療法人ＡＩＮＡ,,その他の設立登記法人,愛知県,名古屋市中区,栄３丁目１５番３７号エフジー栄ビル４階,,23,106,4600008,,,,,,,2022-03-18,1,,,,,アイナ,0
177,1180301036030,新規,0,2022-03-18,2022-03-18,株式会社オベリスク,,株式会社,愛知県,刈谷市,日高町２丁目３１１番地,,23,210,4480046,,,,,,,2022-03-18,1,,,,,オベリスク,0
185,1210003001477,新規,0,2022-03-18,2022-03-18,ＮＡＮＡＳＥＶＥＮ合同会社,,合同会社,福井県,越前市,池泉町３－３－２６,,18,209,9150023,,,,,,,2022-03-18,1,,,,,ナナセブン,0
186,1220001024743,新規,0,2022-03-18,2022-03-18,株式会社青木組,,株式会社,石川県,野々市市,本町６丁目１２番１４号,,17,212,9218815,,,,,,,2022-03-18,1,,,,,アオキグミ,0
188,1240003005558,新規,0,2022-03-18,2022-03-18,合同会社ＬＯメモリーズ,,合同会社,広島県,東広島市,西条町寺家５２０６番地３,,34,212,7390041,,,,,,,2022-03-18,1,,,,,エルオーメモリーズ,0
191,1260003003849,新規,0,2022-03-18,2022-03-18,合同会社創健,,合同会社,岡山県,岡山市北区,奥田西町２番１号ＣＥＲＥＺＯ奥田西町８０２号室,,33,101,7000931,,,,,,,2022-03-18,1,,,,,ソウケン,0
198,1290001096859,新規,0,2022-03-18,2022-03-18,株式会社加齢歯科,,株式会社,福岡県,福岡市東区,多の津４丁目１８番１８号,,40,131,8130034,,,,,,,2022-03-18,1,,,,,カレイシカ,0
199,1290001096867,新規,0,2022-03-18,2022-03-18,株式会社Ｒ．Ｆ　ｓｔｙｌｅ,,株式会社,福岡県,久留米市,御井朝妻１丁目１０番１０号,,40,203,8390842,,,,,,,2022-03-18,1,,,,,ラフスタイル,0
204,1290003012285,新規,0,2022-03-18,2022-03-18,合同会社ゼロワン,,合同会社,福岡県,福岡市中央区,天神３丁目１６番２４号,,40,133,8100001,,,,,,,2022-03-18,1,,,,,ゼロワン,0
210,1310001017770,新規,0,2022-03-18,2022-03-18,株式会社Ｏｆｆｉｃｅ．Ｃｏｍｆｏｒｔａｂｌｅ　ＭＥ,,株式会社,長崎県,西彼杵郡長与町,岡郷２８６７,,42,307,8512121,,,,,,,2022-03-18,1,,,,,オフィスコンフォータブルミー,0
215,1330003009293,新規,0,2022-03-18,2022-03-18,合同会社エムトータルサポート,,合同会社,熊本県,熊本市北区,清水新地５丁目１１番１２号,,43,105,8618075,,,,,,,2022-03-18,1,,,,,エムトータルサポート,0
219,1340001024582,新規,0,2022-03-18,2022-03-18,株式会社フィールドエックス,,株式会社,鹿児島県,日置市,伊集院町徳重１丁目５番地１１,,46,216,8992502,,,,,,,2022-03-18,1,,,,,フィールドエックス,0
223,1360001030141,新規,0,2022-03-18,2022-03-18,株式会社沖紅,,株式会社,沖縄県,浦添市,内間１丁目２番２０号,,47,208,9012121,,,,,,,2022-03-18,1,,,,,オキビン,0
225,1360003011874,新規,0,2022-03-18,2022-03-18,ＳＴ　Ｓｅｒｖｉｃｅ合同会社,,合同会社,沖縄県,那覇市,具志２丁目７番５４号,,47,201,9010146,,,,,,,2022-03-18,1,,,,,エスティーサービス,0
233,1380001032664,新規,0,2022-03-18,2022-03-18,アグリサービス荒海株式会社,,株式会社,福島県,南会津郡南会津町,関本字下道下４６２番地,,07,368,9670013,,,,,,,2022-03-18,1,,,,,アグリサービスアラカイ,0
238,1390001016831,新規,0,2022-03-18,2022-03-18,株式会社東北切削油,,株式会社,山形県,東村山郡山辺町,大字大塚７４,,06,301,9900323,,,,,,,2022-03-18,1,,,,,トウホクセッサクユ,0
239,1420003002479,新規,0,2022-03-18,2022-03-18,合同会社虹雅,,合同会社,青森県,つがる市,稲垣町吉出豊富６８番地１,,02,209,0370108,,,,,,,2022-03-18,1,,,,,コウガ,0
246,1430001086234,新規,0,2022-03-18,2022-03-18,株式会社ユミノア,,株式会社,北海道,札幌市北区,新琴似十二条１２丁目１０番１０号,,01,102,0010912,,,,,,,2022-03-18,1,,,,,ユミノア,0
247,1450003002187,新規,0,2022-03-18,2022-03-18,北海道みらいデザインファーム合同会社,,合同会社,北海道,名寄市,風連町字瑞生３２４６番地,,01,221,0980508,,,,,,,2022-03-18,1,,,,,ホッカイドウミライデザインファーム,0
255,1500001024062,新規,0,2022-03-18,2022-03-18,株式会社アイコウ,,株式会社,愛媛県,新居浜市,阿島１丁目５番１０号,,38,205,7920896,,,,,,,2022-03-18,1,,,,,アイコウ,0
256,1500001024070,新規,0,2022-03-18,2022-03-18,株式会社ｓｏｌａｅ,,株式会社,愛媛県,今治市,北鳥生町２丁目１番２号,,38,202,7940803,,,,,,,2022-03-18,1,,,,,ソラエ,0
267,2010001225270,新規,0,2022-03-18,2022-03-18,株式会社ＦｕｋＵｐ,,株式会社,東京都,中央区,銀座６丁目１３番１６号銀座ＷａｌｌビルＵＣＦ５０１,,13,102,1040061,,,,,,,2022-03-18,1,,,,,フックアップ,0
268,2010001225287,新規,0,2022-03-18,2022-03-18,Ｋｏｂｏ　Ｐｒｏｄｕｃｔｓ　Ａｓｉａ　Ｐａｃｉｆｉｃ株式会社,,株式会社,東京都,中央区,日本橋本石町２丁目１番１号先アスパ日本橋オフィス,,13,102,1030021,,,,,,,2022-03-18,1,,,,,コボプロダクツアジアパシフィック,0
269,2010003037276,新規,0,2022-03-18,2022-03-18,合同会社ＤＵＰＬＥＸ千葉いすみ発電所,,合同会社,東京都,文京区,目白台２丁目９番１３号,,13,105,1120015,,,,,,,2022-03-18,1,,,,,デュープレックスチバイスミハツデンショ,0
270,2010003037284,新規,0,2022-03-18,2022-03-18,アーギュメント合同会社,,合同会社,東京都,千代田区,九段南２丁目６－１３－５０７,,13,101,1020074,,,,,,,2022-03-18,1,,,,,アーギュメント,0
272,2010005034684,新規,0,2022-03-18,2022-03-18,Ｙ＆Ｐ社会保険労務士法人,,その他の設立登記法人,東京都,千代田区,丸の内１丁目８番１号丸の内トラストタワーＮ館,,13,101,1000005,,,,,,,2022-03-18,1,,,,,ワイアンドピー,0
280,2010401166263,新規,0,2022-03-18,2022-03-18,株式会社ＤＲＥＡＭ　ＳＨＩＰ,,株式会社,東京都,港区,新橋６丁目５番３号Ｄ・Ｒビル,,13,103,1050004,,,,,,,2022-03-18,1,,,,,ドリームシップ,0
283,2010405020838,新規,0,2022-03-18,2022-03-18,厚木一般社団法人,,その他の設立登記法人,東京都,港区,元赤坂１丁目１番８号株式会社赤坂国際会計内,,13,103,1070051,,,,,,,2022-03-18,1,,,,,アツギ,0
291,2010601060860,新規,0,2022-03-18,2022-03-18,ＺＯＯＯ　ＲＥＷＡＲＤＳ株式会社,,株式会社,東京都,江東区,北砂２丁目１８番２－１４１２,,13,108,1360073,,,,,,,2022-03-18,1,,,,,ズーリワーズ,0
294,2010703006159,新規,0,2022-03-18,2022-03-18,合同会社ネイビーアビリティ,,合同会社,東京都,品川区,二葉３丁目１５番５号４０５,,13,109,1420043,,,,,,,2022-03-18,1,,,,,ネイビーアビリティ,0
297,2010901050529,新規,0,2022-03-18,2022-03-18,株式会社ＵＮＳＰＡＲＥ,,株式会社,東京都,世田谷区,太子堂１丁目４番３２ー８０４号,,13,112,1540004,,,,,,,2022-03-18,1,,,,,アンスペア,0
305,2011001146341,新規,0,2022-03-18,2022-03-18,株式会社ナカシマ企画,,株式会社,東京都,目黒区,上目黒１丁目２６番１号－１２１０号中目黒トラストタワー,,13,110,1530051,,,,,,,2022-03-18,1,,,,,ナカシマキカク,0
312,2011301027638,新規,0,2022-03-18,2022-03-18,株式会社サクシードコーポレーション,,株式会社,東京都,杉並区,上荻２丁目３９番１７号,,13,115,1670043,,,,,,,2022-03-18,1,,,,,サクシードコーポレーション,0
318,2011403003603,新規,0,2022-03-18,2022-03-18,合同会社グランド,,合同会社,東京都,板橋区,向原１丁目１３番９号,,13,119,1730036,,,,,,,2022-03-18,1,,,,,グランド,0
322,2011801040462,新規,0,2022-03-18,2022-03-18,株式会社オーシャンエステート,,株式会社,東京都,葛飾区,立石１丁目２２番１１－１２０４号,,13,122,1240012,,,,,,,2022-03-18,1,,,,,オーシャンエステート,0
324,2012403005291,新規,0,2022-03-18,2022-03-18,合同会社上伊那ソーラー,,合同会社,東京都,稲城市,平尾３丁目１番地の１,,13,225,2060823,,,,,,,2022-03-18,1,,,,,カミイナソーラー,0
327,2012803002731,新規,0,2022-03-18,2022-03-18,合同会社Ｍ,,合同会社,東京都,昭島市,田中町１丁目１５番１２号,,13,207,1960014,,,,,,,2022-03-18,1,,,,,エム,0
328,2013103001119,新規,0,2022-03-18,2022-03-18,島光合同会社,,合同会社,東京都,青梅市,河辺町７丁目１８番地の２２アルカディア河辺７Ｂ１０２,,13,205,1980036,,,,,,,2022-03-18,1,,,,,シマコウ,0
336,2013303006090,新規,0,2022-03-18,2022-03-18,合同会社霹靂社,,合同会社,東京都,豊島区,南大塚３丁目３７番５－１３０６号,,13,116,1700005,,,,,,,2022-03-18,1,,,,,ヘキレキシャ,0
339,2020001145690,新規,0,2022-03-18,2022-03-18,株式会社フォーセルフ,,株式会社,神奈川県,横浜市都筑区,茅ケ崎南２丁目２３番９号,,14,118,2240037,,,,,,,2022-03-18,1,,,,,フォーセルフ,0
340,2020001145699,新規,0,2022-03-18,2022-03-18,株式会社ｅｎｊｏｙ,,株式会社,神奈川県,横浜市青葉区,恩田町９９３番地１,,14,117,2270065,,,,,,,2022-03-18,1,,,,,エンジョイ,0
341,2020001145716,新規,0,2022-03-18,2022-03-18,株式会社オルテ・デザイン,,株式会社,神奈川県,横浜市栄区,桂町５５番地５本郷台ヒミコマンション１０５号,,14,115,2470005,,,,,,,2022-03-18,1,,,,,オルテデザイン,0
351,2021001075449,新規,0,2022-03-18,2022-03-18,株式会社バブル,,株式会社,神奈川県,伊勢原市,下平間５０,,14,214,2591125,,,,,,,2022-03-18,1,,,,,バブル,0
352,2021001075457,新規,0,2022-03-18,2022-03-18,株式会社ＡｔｔＲａｃｔ,,株式会社,神奈川県,秦野市,菩提３３４番地の１,,14,211,2591302,,,,,,,2022-03-18,1,,,,,アトラクト,0
353,2021001075465,新規,0,2022-03-18,2022-03-18,株式会社シーズホーム,,株式会社,神奈川県,横須賀市,吉井３丁目４０－７,,14,201,2390804,,,,,,,2022-03-18,1,,,,,シーズホーム,0
363,2030005020757,新規,0,2022-03-18,2022-03-18,特定非営利活動法人寄居の緑と空間を楽しむ会,,その他の設立登記法人,埼玉県,大里郡寄居町,大字寄居９０４番地,,11,408,3691203,,,,,,,2022-03-18,1,,,,,ヨリイノミドリトクウカンヲタノシムカイ,0
368,2040001122630,新規,0,2022-03-18,2022-03-18,株式会社ケアシックス,,株式会社,千葉県,松戸市,八ケ崎８丁目６番地の２,,12,207,2700023,,,,,,,2022-03-18,1,,,,,ケアシックス,0
369,2040001122639,新規,0,2022-03-18,2022-03-18,株式会社ニッタクエステート,,株式会社,千葉県,柏市,十余二４番地５,,12,217,2770872,,,,,,,2022-03-18,1,,,,,ニッタクエステート,0
373,2040003019684,新規,0,2022-03-18,2022-03-18,合同会社コロニースタイル,,合同会社,千葉県,千葉市中央区,本町１丁目１０番９号,,12,101,2600012,,,,,,,2022-03-18,1,,,,,コロニースタイル,0
382,2080101023163,新規,0,2022-03-18,2022-03-18,株式会社ＣＲＥＥＴＥ,,株式会社,静岡県,三島市,安久１５４番地の２,,22,206,4110815,,,,,,,2022-03-18,1,,,,,クリート,0
388,2110003004720,新規,0,2022-03-18,2022-03-18,合同会社土の学校・水の学校,,合同会社,新潟県,新潟市江南区,亀田工業団地１丁目３番５号,,15,104,9500141,,,,,,,2022-03-18,1,,,,,ツチノガッコウミズノガッコウ,0
400,2120001244499,新規,0,2022-03-18,2022-03-18,株式会社エクセルース,,株式会社,大阪府,大阪市中央区,淡路町３丁目１－８七福ビル７Ｅ,,27,128,5410047,,,,,,,2022-03-18,1,,,,,エクセルース,0
401,2120001244508,新規,0,2022-03-18,2022-03-18,株式会社たかなつ,,株式会社,大阪府,大阪市中央区,難波４丁目１番１５号近鉄難波ビル２０３,,27,128,5420076,,,,,,,2022-03-18,1,,,,,タカナツ,0
402,2120001244532,新規,0,2022-03-18,2022-03-18,ＳＤファーマシー株式会社,,株式会社,大阪府,大阪市北区,梅田２丁目２番２号ヒルトンプラザウエストオフィスタワー１９階,,27,127,5300001,,,,,,,2022-03-18,1,,,,,エスディーファーマシー,0
403,2120001244540,新規,0,2022-03-18,2022-03-18,株式会社ファルコンサポート,,株式会社,大阪府,大阪市淀川区,塚本６丁目２番４号,,27,123,5320026,,,,,,,2022-03-18,1,,,,,ファルコンサポート,0
404,2120003021293,新規,0,2022-03-18,2022-03-18,Ａｄ合同会社,,合同会社,大阪府,大阪市北区,大淀中３丁目９番１５－２０５号,,27,127,5310076,,,,,,,2022-03-18,1,,,,,アド,0
405,2120003021310,新規,0,2022-03-18,2022-03-18,合同会社リク,,合同会社,大阪府,大阪市西淀川区,姫島２丁目１０番１７号,,27,113,5550033,,,,,,,2022-03-18,1,,,,,リク,0
409,2120005022851,新規,0,2022-03-18,2022-03-18,一般社団法人ＮＳＣスポーツクラブ,,その他の設立登記法人,大阪府,枚方市,藤阪元町１丁目５番６号エルメゾン藤阪１０２号,,27,210,5730157,,,,,,,2022-03-18,1,,,,,エヌエスシースポーツクラブ,0
414,2120103004603,新規,0,2022-03-18,2022-03-18,合同会社日本美文字協会,,合同会社,大阪府,河内長野市,市町６６７－１２,,27,216,5860002,,,,,,,2022-03-18,1,,,,,ニホンビモジキョウカイ,0
415,2120103004611,新規,0,2022-03-18,2022-03-18,合同会社佑和,,合同会社,大阪府,貝塚市,小瀬１０６６番地１,,27,208,5970021,,,,,,,2022-03-18,1,,,,,ユウワ,0
416,2120105009534,新規,0,2022-03-18,2022-03-18,一般社団法人岸和田防災コミュニティ振興会,,その他の設立登記法人,大阪府,岸和田市,箕土路町３丁目６番３号,,27,202,5960801,,,,,,,2022-03-18,1,,,,,キシワダボウサイコミュニティシンコウカイ,0
437,2180001150444,新規,0,2022-03-18,2022-03-18,株式会社シュクラン,,株式会社,愛知県,名古屋市中区,丸の内３丁目２３番１１号,,23,106,4600002,,,,,,,2022-03-18,1,,,,,シュクラン,0
438,2180001150460,新規,0,2022-03-18,2022-03-18,株式会社ちくさ,,株式会社,愛知県,一宮市,起字東茜屋８１番地１,,23,203,4940006,,,,,,,2022-03-18,1,,,,,チクサ,0
441,2180003023615,新規,0,2022-03-18,2022-03-18,合同会社ＳｕｎｎｙＣｈｉｌｄ,,合同会社,愛知県,一宮市,別明町１丁目２０番地３,,23,203,4910033,,,,,,,2022-03-18,1,,,,,サニーチャイルド,0
446,2220005008642,新規,0,2022-03-18,2022-03-18,一般社団法人ＳＰＳＤ　ＰＲＥＳＳ,,その他の設立登記法人,石川県,金沢市,菊川１丁目１２番８号（朝日プラザ菊川１０９号）,,17,201,9200967,,,,,,,2022-03-18,1,,,,,エスピーエスディープレス,0
449,2230003001821,新規,0,2022-03-18,2022-03-18,サンタス合同会社,,合同会社,富山県,砺波市,東石丸４２４番地１,,16,208,9391302,,,,,,,2022-03-18,1,,,,,サンタス,0
455,2240003005557,新規,0,2022-03-18,2022-03-18,合同会社ＫＳ,,合同会社,広島県,呉市,中央１丁目６番１号,,34,202,7370051,,,,,,,2022-03-18,1,,,,,ケイエス,0
456,2250003003023,新規,0,2022-03-18,2022-03-18,合同会社ＤＥＣ,,合同会社,山口県,周南市,大神４丁目１番３－６号２階２０２号室,,35,215,7460018,,,,,,,2022-03-18,1,,,,,デック,0
465,2290001096833,新規,0,2022-03-18,2022-03-18,株式会社リンクス,,株式会社,福岡県,福岡市南区,野多目６丁目４番１３号,,40,134,8111347,,,,,,,2022-03-18,1,,,,,リンクス,0
466,2290001096858,新規,0,2022-03-18,2022-03-18,株式会社Ｔｏｍｏｄａｃｈｉ,,株式会社,福岡県,久留米市,宮ノ陣１丁目４番１５号,,40,203,8390801,,,,,,,2022-03-18,1,,,,,トモダチ,0
467,2290001096866,新規,0,2022-03-18,2022-03-18,株式会社永和,,株式会社,福岡県,福岡市中央区,清川３丁目１２番１号福岡リバーキャッスル４１８号,,40,133,8100005,,,,,,,2022-03-18,1,,,,,ナガワ,0
468,2290003012292,新規,0,2022-03-18,2022-03-18,ベリルキャット合同会社,,合同会社,福岡県,福岡市中央区,天神２丁目３番１０号天神パインクレスト７１９号,,40,133,8100001,,,,,,,2022-03-18,1,,,,,ベリルキャット,0
469,2290003012301,新規,0,2022-03-18,2022-03-18,銘賀合同会社,,合同会社,福岡県,福岡市中央区,白金１丁目１７番１８－５０１号,,40,133,8100012,,,,,,,2022-03-18,1,,,,,メイカ,0
470,2290803004084,新規,0,2022-03-18,2022-03-18,ハレタ合同会社,,合同会社,福岡県,京都郡苅田町,磯浜町２丁目７番地１０（ピースグレース２０７）,,40,621,8000313,,,,,,,2022-03-18,1,,,,,ハレタ,0
472,2300001012846,新規,0,2022-03-18,2022-03-18,Ｍ＆Ｍ株式会社,,株式会社,佐賀県,唐津市,竹木場５６１３番地１,,41,202,8470881,,,,,,,2022-03-18,1,,,,,エムエム,0
477,2330003009292,新規,0,2022-03-18,2022-03-18,合同会社メンテナンスジャパン,,合同会社,熊本県,葦北郡芦北町,大字田浦町４４９番地２,,43,482,8695305,,,,,,,2022-03-18,1,,,,,メンテナンスジャパン,0
479,2360001030132,新規,0,2022-03-18,2022-03-18,株式会社Ｓｅｃｒｅｔ　Ｂａｓｅ,,株式会社,沖縄県,那覇市,安里２丁目４番３号ＲＪビルディング８階,,47,201,9020067,,,,,,,2022-03-18,1,,,,,シークレットベース,0
480,2360001030140,新規,0,2022-03-18,2022-03-18,株式会社ＮＡＴｉＯＮ．沖縄,,株式会社,沖縄県,うるま市,与那城照間１８６０番地１,,47,213,9042301,,,,,,,2022-03-18,1,,,,,ネイションオキナワ,0
485,2360003011865,新規,0,2022-03-18,2022-03-18,合同会社あぎなあ,,合同会社,沖縄県,那覇市,首里崎山町１丁目２８番地,,47,201,9030814,,,,,,,2022-03-18,1,,,,,アギナァ,0
486,2360003011873,新規,0,2022-03-18,2022-03-18,合同会社ライフサポートＳＨＯ,,合同会社,沖縄県,那覇市,久茂地１丁目１番１号９階,,47,201,9000015,,,,,,,2022-03-18,1,,,,,ライフサポートショウ,0
487,2360003011881,新規,0,2022-03-18,2022-03-18,合同会社ＭＡＧＩＣ・ＩＳＬＡＮＤ,,合同会社,沖縄県,宮古島市,城辺字新城８３９番地,,47,214,9060102,,,,,,,2022-03-18,1,,,,,マジックアイランド,0
514,3010001225237,新規,0,2022-03-18,2022-03-18,株式会社Ｆ．Ｆ,,株式会社,東京都,千代田区,神田松永町１３番地ＶＯＲＴ秋葉原ＩＩ６階,00126011,13,101,1010023,,,,,,,2022-03-18,1,,,,,エフエフ,0
515,3010001225286,新規,0,2022-03-18,2022-03-18,ｄｏｘｒ株式会社,,株式会社,東京都,中央区,日本橋３丁目６番２号日本橋フロント１Ｆビジネスエアポート日本橋内,,13,102,1030027,,,,,,,2022-03-18,1,,,,,,0
516,3010001225294,新規,0,2022-03-18,2022-03-18,株式会社Ｓｍｉｌｅ,,株式会社,東京都,中央区,銀座１丁目２２番１１号銀座大竹ビジデンス２Ｆ,,13,102,1040061,,,,,,,2022-03-18,1,,,,,スマイル,0
517,3010001225303,新規,0,2022-03-18,2022-03-18,ＭＣＰイノベーションズ株式会社,,株式会社,東京都,千代田区,大手町１丁目８番１号,,13,101,1000004,,,,,,,2022-03-18,1,,,,,エムシーピーイノベーションズ,0
521,3010003037259,新規,0,2022-03-18,2022-03-18,クンタチ合同会社,,合同会社,東京都,中央区,佃２丁目１－２リバーシティ２１イーストタワーズ２・１４１２号,,13,102,1040051,,,,,,,2022-03-18,1,,,,,クンタチ,0
532,3010703006158,新規,0,2022-03-18,2022-03-18,合同会社パシフィック,,合同会社,東京都,品川区,東品川３丁目８番８－２１７号,,13,109,1400002,,,,,,,2022-03-18,1,,,,,パシフィック,0
536,3010901050536,新規,0,2022-03-18,2022-03-18,株式会社律創,,株式会社,東京都,世田谷区,桜上水４丁目２０－６－１０４号室,,13,112,1560045,,,,,,,2022-03-18,1,,,,,リッソウ,0
537,3010901050544,新規,0,2022-03-18,2022-03-18,株式会社Ｄ’ｓ　ｕｐ,,株式会社,東京都,世田谷区,赤堤４丁目４６番４号須賀ビル２階Ｂ,,13,112,1560044,,,,,,,2022-03-18,1,,,,,ディーズアップ,0
540,3010903007245,新規,0,2022-03-18,2022-03-18,合同会社フレッシュスタート,,合同会社,東京都,世田谷区,奥沢２丁目７－１２七番館２０１,,13,112,1580083,,,,,,,2022-03-18,1,,,,,フレッシュスタート,0
543,3011001146349,新規,0,2022-03-18,2022-03-18,株式会社金城ファミリーチャンネル,,株式会社,東京都,渋谷区,神宮前６丁目２３番４号桑野ビル２階,,13,113,1500001,,,,,,,2022-03-18,1,,,,,キンジョウファミリーチャンネル,0
544,3011001146373,新規,0,2022-03-18,2022-03-18,カスタネット株式会社,,株式会社,東京都,渋谷区,幡ヶ谷３丁目２０番－２－６０４号,,13,113,1510072,,,,,,,2022-03-18,1,,,,,カスタネット,0
545,3011001146381,新規,0,2022-03-18,2022-03-18,株式会社Ｗａｌｋｉｔ,,株式会社,東京都,目黒区,洗足１丁目２８－１６－２０４,,13,110,1520012,,,,,,,2022-03-18,1,,,,,ウォーキット,0
546,3011001146431,新規,0,2022-03-18,2022-03-18,株式会社Ｐｏｎ　ｄｅ　Ｂａｙ,,株式会社,東京都,渋谷区,広尾５丁目１４番２号,,13,113,1500012,,,,,,,2022-03-18,1,,,,,ポンデベイ,0
547,3011001146480,新規,0,2022-03-18,2022-03-18,株式会社ＰＯＬＩＳＨ　ＡＣＡＤＥＭＩＡ,,株式会社,東京都,渋谷区,恵比寿西２丁目７番２号,,13,113,1500021,,,,,,,2022-03-18,1,,,,,ポリッシュアカデミア,0
550,3011003014355,新規,0,2022-03-18,2022-03-18,たなか情報合同会社,,合同会社,東京都,渋谷区,道玄坂１丁目１０番８号渋谷道玄坂東急ビル２Ｆ－Ｃ,,13,113,1500043,,,,,,,2022-03-18,1,,,,,タナカジョウホウ,0
551,3011003014363,新規,0,2022-03-18,2022-03-18,合同会社ＺＥＲＯ,,合同会社,東京都,渋谷区,道玄坂１丁目１０番８号渋谷道玄坂東急ビル２Ｆ－Ｃ,,13,113,1500043,,,,,,,2022-03-18,1,,,,,ゼロ,0
554,3011101098102,新規,0,2022-03-18,2022-03-18,ＫＡＭＩＮＡＲＩ株式会社,,株式会社,東京都,新宿区,四谷２丁目２－１８ＶＯＲＴ四谷９Ｆ,,13,104,1600004,,,,,,,2022-03-18,1,,,,,カミナリ,0
556,3011103011582,新規,0,2022-03-18,2022-03-18,ＩＤＥＡ　ＧＹＭ合同会社,,合同会社,東京都,新宿区,新宿２丁目１３番６号光亜ビル４０４号,,13,104,1600022,,,,,,,2022-03-18,1,,,,,,0
577,3012401038986,新規,0,2022-03-18,2022-03-18,株式会社ＳＯＨＥＩ,,株式会社,東京都,三鷹市,下連雀５丁目９－８けやき荘１０３,,13,204,1810013,,,,,,,2022-03-18,1,,,,,ソウヘイ,0
578,3012403005282,新規,0,2022-03-18,2022-03-18,奏屋合同会社,,合同会社,東京都,調布市,染地２丁目８番地２１９パークホームズ調布桜堤通り５２１,,13,208,1820023,,,,,,,2022-03-18,1,,,,,カナデヤ,0
582,3013103001118,新規,0,2022-03-18,2022-03-18,合同会社首都圏サポートセンター,,合同会社,東京都,西多摩郡奥多摩町,氷川１８６８番地３０９号,,13,308,1980212,,,,,,,2022-03-18,1,,,,,シュトケンサポートセンター,0
583,3013305003325,新規,0,2022-03-18,2022-03-18,医療法人社団ｆｒｏｎｔｉｅｒ．ＭＥＤ,,その他の設立登記法人,東京都,豊島区,北大塚２丁目１番１号ｂａ０５－６階７階,,13,116,1700004,,,,,,,2022-03-18,1,,,,,フロンティアメッド,0
589,3020001145698,新規,0,2022-03-18,2022-03-18,関東輸入出株式会社,,株式会社,神奈川県,横浜市西区,平沼１丁目１７番８－２０３号,,14,103,2200023,,,,,,,2022-03-18,1,,,,,カントウユニュウシュツ,0
590,3020001145723,新規,0,2022-03-18,2022-03-18,株式会社こむぎ,,株式会社,神奈川県,横浜市中区,本牧間門１２番３号本牧間門アパート１号室,,14,104,2310825,,,,,,,2022-03-18,1,,,,,コムギ,0
592,3020003021468,新規,0,2022-03-18,2022-03-18,ＭＹＴＨ　ＪＡＰＡＮ合同会社,,合同会社,神奈川県,川崎市高津区,下作延５丁目２５番１号イル・フレッシィ２１１,,14,134,2130033,,,,,,,2022-03-18,1,,,,,マイスジャパン,0
593,3020003021476,新規,0,2022-03-18,2022-03-18,合同会社サウスオーシャンシッピング,,合同会社,神奈川県,横浜市戸塚区,川上町４１５番地２光の街７２５号,,14,110,2440805,,,,,,,2022-03-18,1,,,,,サウスオーシャンシッピング,0
600,3021001075448,新規,0,2022-03-18,2022-03-18,株式会社Ｈｅｒｅｎｅ,,株式会社,神奈川県,大和市,下鶴間７２１番地１４,,14,213,2420001,,,,,,,2022-03-18,1,,,,,ヘレネ,0
601,3021003011475,新規,0,2022-03-18,2022-03-18,ＪＳＳＫ合同会社,,合同会社,神奈川県,相模原市中央区,矢部２丁目１５番１０号,,14,152,2520232,,,,,,,2022-03-18,1,,,,,ジェイエスエスケイ,0
602,3021003011491,新規,0,2022-03-18,2022-03-18,合同会社マノ・マヒカ,,合同会社,神奈川県,南足柄市,岩原５５０番地,,14,217,2500113,,,,,,,2022-03-18,1,,,,,マノマヒカ,0
603,3021003011500,新規,0,2022-03-18,2022-03-18,日本ＰＯＲＴ合同会社,,合同会社,神奈川県,厚木市,温水２２２９番地１５リモード本厚木Ｂ棟１０７,,14,212,2430033,,,,,,,2022-03-18,1,,,,,ニホンポルト,0
607,3030001147264,新規,0,2022-03-18,2022-03-18,株式会社柞の杜,,株式会社,埼玉県,秩父市,宮側町２番１５号,,11,207,3680046,,,,,,,2022-03-18,1,,,,,ハハソノモリ,0
608,3030001147297,新規,0,2022-03-18,2022-03-18,ＳＴＣ株式会社,,株式会社,埼玉県,所沢市,大字山口９９４番地の８,,11,208,3591145,,,,,,,2022-03-18,1,,,,,エスティーシー,0
611,3030003019049,新規,0,2022-03-18,2022-03-18,マネジメントサポート合同会社,,合同会社,埼玉県,白岡市,新白岡３丁目１０番地１,,11,246,3490212,,,,,,,2022-03-18,1,,,,,マネジメントサポート,0
612,3030003019057,新規,0,2022-03-18,2022-03-18,合同会社コガネムシ,,合同会社,埼玉県,ふじみ野市,上福岡１丁目６番２６号ｐｕｒｅ上福岡３階,,11,245,3560004,,,,,,,2022-03-18,1,,,,,コガネムシ,0
613,3030005020748,新規,0,2022-03-18,2022-03-18,特定非営利活動法人ネメシス,,その他の設立登記法人,埼玉県,日高市,高萩東２丁目１０番１号,,11,242,3501215,,,,,,,2022-03-18,1,,,,,ネメシス,0
625,3040003019683,新規,0,2022-03-18,2022-03-18,Ｌａ　Ｖｉｔａ　Ｆｅｌｉｃｅ合同会社,,合同会社,千葉県,船橋市,山手２丁目１３番２１－２０５号,,12,204,2730045,,,,,,,2022-03-18,1,,,,,ラヴィータフェリーチェ,0
629,3060001034666,新規,0,2022-03-18,2022-03-18,橘圧送株式会社,,株式会社,栃木県,宇都宮市,中岡本町９４０番地７,,09,201,3291105,,,,,,,2022-03-18,1,,,,,タチバナアッソウ,0
634,3080101023162,新規,0,2022-03-18,2022-03-18,石垣珈琲株式会社,,株式会社,静岡県,駿東郡清水町,新宿７番地の１,,22,341,4110901,,,,,,,2022-03-18,1,,,,,イシガキコーヒー,0
636,3080401025692,新規,0,2022-03-18,2022-03-18,株式会社ＣＯＦＵＬ,,株式会社,静岡県,浜松市中区,幸３丁目１４－１２,,22,131,4338123,,,,,,,2022-03-18,1,,,,,コフル,0
637,3090001017445,新規,0,2022-03-18,2022-03-18,株式会社絆,,株式会社,山梨県,甲府市,上石田２丁目２８番３号,,19,201,4000041,,,,,,,2022-03-18,1,,,,,,0
638,3090003002065,新規,0,2022-03-18,2022-03-18,Ｙｏｕ‐Ｓｔｙｌｅ合同会社,,合同会社,山梨県,甲州市,塩山三日市場３１６８番地１,,19,213,4040047,,,,,,,2022-03-18,1,,,,,ユースタイル,0
658,3120001244507,新規,0,2022-03-18,2022-03-18,株式会社ＦＲＯＭ　ＭＡＲＡＮＧ,,株式会社,大阪府,大阪市中央区,平野町３丁目４番９号旭洋ビル３階,,27,128,5410046,,,,,,,2022-03-18,1,,,,,フロムマラン,0
659,3120001244523,新規,0,2022-03-18,2022-03-18,株式会社ＧＹＭ　ＷＯＲＫＳ,,株式会社,大阪府,大阪市住吉区,苅田５丁目８番１３号,,27,120,5580011,,,,,,,2022-03-18,1,,,,,ジムワークス,0
660,3120001244548,新規,0,2022-03-18,2022-03-18,株式会社シズラホーム,,株式会社,大阪府,大阪市住吉区,苅田３丁目１６番２１－１３０２号,,27,120,5580011,,,,,,,2022-03-18,1,,,,,シズラホーム,0
661,3120001244564,新規,0,2022-03-18,2022-03-18,株式会社ＳＩ,,株式会社,大阪府,大阪市生野区,桃谷４丁目４番４号,,27,116,5440034,,,,,,,2022-03-18,1,,,,,エスアイ,0
662,3120001244580,新規,0,2022-03-18,2022-03-18,株式会社ＣＨＯＩＣＥ,,株式会社,大阪府,大阪市東淀川区,東中島４丁目１番１１号,,27,114,5330033,,,,,,,2022-03-18,1,,,,,チョイス,0
667,3120003021251,新規,0,2022-03-18,2022-03-18,合同会社ゆいまーる,,合同会社,大阪府,交野市,梅が枝５５番７号福井ビル１階,,27,230,5760042,,,,,,,2022-03-18,1,,,,,ユイマール,0
668,3120003021301,新規,0,2022-03-18,2022-03-18,Ｘ‐ＵＶＥＲ合同会社,,合同会社,大阪府,大阪市西区,九条南４丁目６－３,,27,106,5500025,,,,,,,2022-03-18,1,,,,,クロスウーバー,0
673,3120905006300,新規,0,2022-03-18,2022-03-18,特定非営利活動法人ナンカイライディングスクール,,その他の設立登記法人,大阪府,茨木市,豊原町１１番１７号,,27,211,5670053,,,,,,,2022-03-18,1,,,,,ナンカイライディングスクール,0
683,3140001125309,新規,0,2022-03-18,2022-03-18,株式会社口果報,,株式会社,兵庫県,丹波市,市島町中竹田２９５９,,28,223,6694302,,,,,,,2022-03-18,1,,,,,クチカホウ,0
684,3140003017470,新規,0,2022-03-18,2022-03-18,ユニゾンマーブル合同会社,,合同会社,兵庫県,神戸市中央区,磯上通８丁目１番２９号カサベラビルＣ＆Ｍ４０３号室,,28,110,6510086,,,,,,,2022-03-18,1,,,,,ユニゾンマーブル,0
685,3140005026073,新規,0,2022-03-18,2022-03-18,医療法人社団おざわファミリー歯科,,その他の設立登記法人,兵庫県,伊丹市,宮ノ前１丁目４番２４号伊丹みやのまち３号館１Ｆ（１０２）,,28,207,6640895,,,,,,,2022-03-18,1,,,,,オザワファミリーシカ,0
699,3180303005279,新規,0,2022-03-18,2022-03-18,合同会社ベルエイト,,合同会社,愛知県,豊橋市,東脇３丁目１３番地１,,23,201,4418083,,,,,,,2022-03-18,1,,,,,ベルエイト,0
718,3290001096799,新規,0,2022-03-18,2022-03-18,株式会社伝えるを考える,,株式会社,福岡県,福岡市博多区,博多駅前３丁目２７番２２号ガーデン博多駅前ビル５Ｆ,,40,132,8120011,,,,,,,2022-03-18,1,,,,,ツタエルヲカンガエル,0
723,3290003012300,新規,0,2022-03-18,2022-03-18,合同会社Ｈｉ,,合同会社,福岡県,福岡市博多区,西春町３丁目７番１３号,,40,132,8120873,,,,,,,2022-03-18,1,,,,,ハイ,0
724,3290801028340,新規,0,2022-03-18,2022-03-18,琥羽総建株式会社,,株式会社,福岡県,京都郡苅田町,大字与原２０６４番地２,,40,621,8000323,,,,,,,2022-03-18,1,,,,,コハネソウケン,0
725,3320001018964,新規,0,2022-03-18,2022-03-18,ｇｕｆｏ株式会社,,株式会社,大分県,別府市,北浜１丁目１５番１４号シーサイドビル富士吉７０５号,,44,202,8740920,,,,,,,2022-03-18,1,,,,,グーフォ,0
727,3350001017641,新規,0,2022-03-18,2022-03-18,Ｓｔｕｄｉｏ　Ｗｉｓｈ株式会社,,株式会社,宮崎県,都城市,妻ケ丘町２４街区１８号,,45,202,8850033,,,,,,,2022-03-18,1,,,,,スタジオウィッシュ,0
731,3360003011880,新規,0,2022-03-18,2022-03-18,合同会社幸喜商会,,合同会社,沖縄県,沖縄市,泡瀬３丁目１４番２２号,,47,211,9042172,,,,,,,2022-03-18,1,,,,,コウキショウカイ,0
734,3380001032662,新規,0,2022-03-18,2022-03-18,株式会社リメイクホーム,,株式会社,福島県,会津若松市,神指町大字黒川字村北６番地の２,,07,202,9650064,,,,,,,2022-03-18,1,,,,,リメイクホーム,0
737,3400001015821,新規,0,2022-03-18,2022-03-18,株式会社夷風凛凛,,株式会社,岩手県,陸前高田市,高田町字裏田１０３番地５メルセデスＩＩ２０２号室,00126009,03,210,0292205,,,,,,,2022-03-18,1,,,,,イフウリンリン,0
741,3430001086075,新規,0,2022-03-18,2022-03-18,株式会社インテリアＥＭスタイル,,株式会社,北海道,札幌市清田区,清田十条３丁目８番１１号,,01,110,0040840,,,,,,,2022-03-18,1,,,,,インテリアエムスタイル,0
742,3430001086224,新規,0,2022-03-18,2022-03-18,株式会社六等星,,株式会社,北海道,札幌市西区,琴似二条７丁目２番４１－８０２号,,01,107,0630812,,,,,,,2022-03-18,1,,,,,ロクトウセイ,0
746,3430003013721,新規,0,2022-03-18,2022-03-18,合同会社華豊,,合同会社,北海道,札幌市中央区,南二十六条西８丁目３番１５号,,01,101,0640926,,,,,,,2022-03-18,1,,,,,カホウ,0
751,3470003002150,新規,0,2022-03-18,2022-03-18,Ｐｕｚｚｌｅ合同会社,,合同会社,香川県,坂出市,江尻町１６６９番地２,,37,203,7620011,,,,,,,2022-03-18,1,,,,,パズル,0
762,4010001225269,新規,0,2022-03-18,2022-03-18,Ｊａｃｋ‐ｕｐ　Ｗｉｎｄ　Ｆａｒｍ　Ｃｏｎｓｔｒｕｃｔｉｏｎ株式会社,,株式会社,東京都,中央区,八丁堀２丁目８番５号,,13,102,1040032,,,,,,,2022-03-18,1,,,,,ジャッキアップウィンドファームコンストラクション,0
763,4010001225285,新規,0,2022-03-18,2022-03-18,株式会社アーロンジャパン,,株式会社,東京都,千代田区,西神田３丁目１番２号ウインド西神田ビル４Ｆ,,13,101,1010065,,,,,,,2022-03-18,1,,,,,,0
764,4010001225302,新規,0,2022-03-18,2022-03-18,株式会社Ｐｅｒｓｌｉｎｋ,,株式会社,東京都,中央区,日本橋兜町１７番２号兜町第６葉山ビル４階,,13,102,1030026,,,,,,,2022-03-18,1,,,,,パースリンク,0
765,4010001225327,新規,0,2022-03-18,2022-03-18,ＲＥＳＳ株式会社,,株式会社,東京都,中央区,日本橋小伝馬町２－５,,13,102,1030001,,,,,,,2022-03-18,1,,,,,レス,0
770,4010003037266,新規,0,2022-03-18,2022-03-18,合同会社ＳＨＧ．東日本,,合同会社,東京都,千代田区,九段北１丁目１３番５号ヒューリック九段ビル１２Ｆ,,13,101,1020073,,,,,,,2022-03-18,1,,,,,エスエイチジーヒガシニホン,0
772,4010005034749,新規,0,2022-03-18,2022-03-18,一般財団法人食料安全保障推進財団,,その他の設立登記法人,東京都,文京区,水道２丁目１１番１３－４０１号,,13,105,1120005,,,,,,,2022-03-18,1,,,,,ショクリョウアンゼンホショウスイシンザイダン,0
773,4010101015108,新規,0,2022-03-18,2022-03-18,株式会社Ｓｅｖｅｎ　Ｂｒａｉｎｚ,,株式会社,東京都,八王子市,南大沢４丁目１２番地４－１０１,,13,201,1920364,,,,,,,2022-03-18,1,,,,,セブンブレインズ,0
777,4010405020828,新規,0,2022-03-18,2022-03-18,一般社団法人神真都Ｑ会,,その他の設立登記法人,東京都,港区,白金１丁目２９番１３号白金ビレッジ２０１,,13,103,1080072,,,,,,,2022-03-18,1,,,,,ヤマトキュウカイ,0
798,4011001146463,新規,0,2022-03-18,2022-03-18,株式会社ＢＳ　ＥＮＥＲＧＹ,,株式会社,東京都,渋谷区,神南１丁目５番６号,,13,113,1500041,,,,,,,2022-03-18,1,,,,,ビーエスエナジー,0
810,4011301027636,新規,0,2022-03-18,2022-03-18,株式会社明日フード,,株式会社,東京都,杉並区,高円寺北３丁目３５番３号メゾン高円寺２０３,,13,115,1660002,,,,,,,2022-03-18,1,,,,,アスフード,0
811,4011301027644,新規,0,2022-03-18,2022-03-18,中村アセット株式会社,,株式会社,東京都,杉並区,高円寺南５丁目２１番３号,,13,115,1660003,,,,,,,2022-03-18,1,,,,,ナカムラアセット,0
815,4011801040469,新規,0,2022-03-18,2022-03-18,株式会社Ｍａｈａｎａケア,,株式会社,東京都,葛飾区,西新小岩５丁目２１番３号,,13,122,1240025,,,,,,,2022-03-18,1,,,,,マハナケア,0
816,4012301012925,新規,0,2022-03-18,2022-03-18,月読企画株式会社,,株式会社,東京都,町田市,中町１丁目２８番１２－２０２号,,13,209,1940021,,,,,,,2022-03-18,1,,,,,ツキヨミキカク,0
818,4012401038985,新規,0,2022-03-18,2022-03-18,株式会社ｂｕｎｄ,,株式会社,東京都,武蔵野市,吉祥寺本町１丁目５番１号吉祥寺ＰＡＲＣＯ８階,,13,203,1800004,,,,,,,2022-03-18,1,,,,,ブント,0
823,4013301048835,新規,0,2022-03-18,2022-03-18,福音達株式会社,,株式会社,東京都,豊島区,上池袋３丁目４７番９号４Ｆ－３,,13,116,1700012,,,,,,,2022-03-18,1,,,,,フクオンタツ,0
836,4020001145706,新規,0,2022-03-18,2022-03-18,株式会社平造,,株式会社,神奈川県,横浜市磯子区,中原４丁目１５番３号,,14,107,2350036,,,,,,,2022-03-18,1,,,,,ヘイゾウ,0
841,4020003021418,新規,0,2022-03-18,2022-03-18,合同会社ロイズ政策研究所,,合同会社,神奈川県,川崎市麻生区,王禅寺西２丁目１８番８号,,14,137,2150017,,,,,,,2022-03-18,1,,,,,ロイズセイサクケンキュウジョ,0
845,4021001075439,新規,0,2022-03-18,2022-03-18,株式会社ＩＮＳＦＩＤＡ,,株式会社,神奈川県,海老名市,東柏ケ谷３丁目１５番１１号,,14,215,2430401,,,,,,,2022-03-18,1,,,,,,0
846,4021001075463,新規,0,2022-03-18,2022-03-18,株式会社Ｍ．Ａ．Ｂ,,株式会社,神奈川県,相模原市緑区,相原２丁目８番５０号,,14,151,2520141,,,,,,,2022-03-18,1,,,,,エムエービー,0
859,4030001147247,新規,0,2022-03-18,2022-03-18,ＴＡＲＩＱ　ＴＲＡＤＩＮＧ株式会社,,株式会社,埼玉県,久喜市,菖蒲町菖蒲１０８番地１ビレッジ菖蒲Ｃ２０１,,11,232,3460106,,,,,,,2022-03-18,1,,,,,タリクトレーディング,0
860,4030001147321,新規,0,2022-03-18,2022-03-18,ＮＥＷＬＩＦＥ株式会社,,株式会社,埼玉県,越谷市,大字砂原３３４番地１,,11,222,3430803,,,,,,,2022-03-18,1,,,,,ニューライフ,0
866,4040001122604,新規,0,2022-03-18,2022-03-18,株式会社ＳＰ,,株式会社,千葉県,千葉市中央区,本千葉町４－７,,12,101,2600014,,,,,,,2022-03-18,1,,,,,エスピー,0
873,4050003006432,新規,0,2022-03-18,2022-03-18,合同会社やえん,,合同会社,茨城県,神栖市,柳川中央２丁目６番地８,,08,232,3140258,,,,,,,2022-03-18,1,,,,,ヤエン,0
874,4060001034665,新規,0,2022-03-18,2022-03-18,株式会社タイネクト,,株式会社,栃木県,宇都宮市,駒生町２６６０番地１－Ｃ２０３,,09,201,3200065,,,,,,,2022-03-18,1,,,,,タイネクト,0
875,4070001039044,新規,0,2022-03-18,2022-03-18,株式会社ヤマトエンジニアリング,,株式会社,群馬県,邑楽郡大泉町,大字吉田２０１１番地の３,,10,524,3700523,,,,,,,2022-03-18,1,,,,,ヤマトエンジニアリング,0
882,4080003002759,新規,0,2022-03-18,2022-03-18,合同会社５５１太一,,合同会社,静岡県,静岡市清水区,永楽町４番３５号,,22,103,4240043,,,,,,,2022-03-18,1,,,,,ゴーゴーイチタイチ,0
889,4090003002064,新規,0,2022-03-18,2022-03-18,サワノボリファーム合同会社,,合同会社,山梨県,山梨市,牧丘町倉科５６５３番地２,,19,205,4040003,,,,,,,2022-03-18,1,,,,,サワノボリファーム,0
905,4120001244456,新規,0,2022-03-18,2022-03-18,株式会社ｖｏｒｔｅｘ,,株式会社,大阪府,大阪市西区,新町１丁目１４番２１－５０７号,,27,106,5500013,,,,,,,2022-03-18,1,,,,,ヴォルテックス,0
906,4120001244514,新規,0,2022-03-18,2022-03-18,株式会社Ｇｌｏｂａｌ　Ｌｉｎｋ　Ｉｎｔｅｒｎａｔｉｏｎａｌ,,株式会社,大阪府,大阪市天王寺区,勝山１丁目１１番２２－５０４号,,27,109,5430043,,,,,,,2022-03-18,1,,,,,グローバルリンクインターナショナル,0
907,4120001244547,新規,0,2022-03-18,2022-03-18,株式会社ケントラスト,,株式会社,大阪府,大阪市福島区,海老江７丁目３番１９－５０２号,,27,103,5530001,,,,,,,2022-03-18,1,,,,,ケントラスト,0
908,4120001244563,新規,0,2022-03-18,2022-03-18,株式会社アスパイア,,株式会社,大阪府,大阪市天王寺区,石ケ辻町１３－４－２０１,,27,109,5430031,,,,,,,2022-03-18,1,,,,,アスパイア,0
909,4120001244571,新規,0,2022-03-18,2022-03-18,瑞祥株式会社,,株式会社,大阪府,大阪市天王寺区,空清町４－１１杉野ビル本館２０７号室,,27,109,5430018,,,,,,,2022-03-18,1,,,,,ズイショウ,0
920,4120101065249,新規,0,2022-03-18,2022-03-18,株式会社春日テック,,株式会社,大阪府,和泉市,春木町６０２番地の４,,27,219,5941141,,,,,,,2022-03-18,1,,,,,カスガテック,0
921,4120101065257,新規,0,2022-03-18,2022-03-18,Ｙ．アネラ株式会社,,株式会社,大阪府,泉北郡忠岡町,北出２丁目８番２４号,,27,341,5950803,,,,,,,2022-03-18,1,,,,,ワイアネラ,0
928,4120905006299,新規,0,2022-03-18,2022-03-18,一般社団法人木蓮,,その他の設立登記法人,大阪府,吹田市,五月が丘北８番１３号１０２,,27,205,5650834,,,,,,,2022-03-18,1,,,,,モクレン,0
931,4122001035686,新規,0,2022-03-18,2022-03-18,株式会社ランチ＆ディナーＰＲＥＭＩＵＭ,,株式会社,大阪府,四條畷市,雁屋西町５番２０－３０５号,,27,229,5750045,,,,,,,2022-03-18,1,,,,,ランチアンドディナープレミアム,0
936,4130001071230,新規,0,2022-03-18,2022-03-18,株式会社なな色の空,,株式会社,京都府,京田辺市,三山木垣ノ内１９番地,,26,211,6100313,,,,,,,2022-03-18,1,,,,,ナナイロノソラ,0
942,4140001125258,新規,0,2022-03-18,2022-03-18,株式会社ＨｅａｖｅｎＴｈｅＷｏｒｌｄ,,株式会社,兵庫県,神戸市兵庫区,東山町２丁目３番２１号,,28,105,6520042,,,,,,,2022-03-18,1,,,,,ヘブンザワールド,0
943,4140001125299,新規,0,2022-03-18,2022-03-18,株式会社リライフ,,株式会社,兵庫県,川辺郡猪名川町,つつじが丘４丁目１０番地９,,28,301,6660245,,,,,,,2022-03-18,1,,,,,リライフ,0
952,4180001150442,新規,0,2022-03-18,2022-03-18,株式会社ユニック,,株式会社,愛知県,名古屋市昭和区,丸屋町４丁目３１番地１,,23,107,4660045,,,,,,,2022-03-18,1,,,,,ユニック,0
953,4180001150450,新規,0,2022-03-18,2022-03-18,株式会社Ｄ・Ｋ・Ｅ,,株式会社,愛知県,小牧市,大字入鹿出新田字郷中４８４番地３,,23,219,4850084,,,,,,,2022-03-18,1,,,,,ディーケーイー,0
954,4180001150459,新規,0,2022-03-18,2022-03-18,株式会社タクマ工業,,株式会社,愛知県,海部郡蟹江町,富吉２丁目１３１番地,,23,425,4970058,,,,,,,2022-03-18,1,,,,,タクマコウギョウ,0
955,4180001150467,新規,0,2022-03-18,2022-03-18,株式会社メタインベスト,,株式会社,愛知県,名古屋市東区,葵２丁目３番１５号,,23,102,4610004,,,,,,,2022-03-18,1,,,,,メタインベスト,0
957,4200003005501,新規,0,2022-03-18,2022-03-18,合同会社Ｖｉｃ　Ｐｕｒｐｏｓｅ,,合同会社,岐阜県,大垣市,林町７丁目９５０番地,,21,202,5030015,,,,,,,2022-03-18,1,,,,,ビックパーパス,0
958,4210001018850,新規,0,2022-03-18,2022-03-18,株式会社飯田保険コンサルタント雅,,株式会社,福井県,鯖江市,中野町第４１号１番地,,18,207,9160033,,,,,,,2022-03-18,1,,,,,イイダホケンコンサルタントミヤビ,0
962,4230001019277,新規,0,2022-03-18,2022-03-18,株式会社スリーエス・エレテック,,株式会社,富山県,砺波市,高波７６１番地１,,16,208,9391341,,,,,,,2022-03-18,1,,,,,スリーエスエレテック,0
967,4240003005555,新規,0,2022-03-18,2022-03-18,合同会社ＮＡＫＡＯ,,合同会社,広島県,広島市佐伯区,利松１丁目１３番２４号,,34,108,7315106,,,,,,,2022-03-18,1,,,,,ナカオ,0
981,4290803004082,新規,0,2022-03-18,2022-03-18,合同会社プラス,,合同会社,福岡県,北九州市八幡西区,鉄王１丁目１９番２号,,40,109,8060057,,,,,,,2022-03-18,1,,,,,プラス,0
985,4320001018971,新規,0,2022-03-18,2022-03-18,株式会社仲村工業,,株式会社,大分県,由布市,挾間町古野４８４番地２２,,44,213,8795511,,,,,,,2022-03-18,1,,,,,ナカムラコウギョウ,0
987,4330001029555,新規,0,2022-03-18,2022-03-18,人吉消火器設備株式会社,,株式会社,熊本県,人吉市,田町３５番地,,43,203,8680054,,,,,,,2022-03-18,1,,,,,ヒトヨシショウカキセツビ,0
990,4340003003739,新規,0,2022-03-18,2022-03-18,合同会社ｏｎｅ,,合同会社,鹿児島県,鹿屋市,笠之原町７５０７番地１１,,46,203,8930023,,,,,,,2022-03-18,1,,,,,ワン,0
992,4350003004050,新規,0,2022-03-18,2022-03-18,合同会社フォートレス,,合同会社,宮崎県,宮崎市,原町５番１２号,,45,201,8800007,,,,,,,2022-03-18,1,,,,,フォートレス,0
994,4370001048337,新規,0,2022-03-18,2022-03-18,大泉ホールディングス株式会社,,株式会社,宮城県,仙台市泉区,松森字斉兵衛４４番地,,04,105,9813111,,,,,,,2022-03-18,1,,,,,オオイズミホールディングス,0
997,4380003005129,新規,0,2022-03-18,2022-03-18,合同会社ＳＯＬ,,合同会社,福島県,福島市,笹谷字中田２番地の６,,07,201,9600241,,,,,,,2022-03-18,1,,,,,ソル,0
1004,4420003002484,新規,0,2022-03-18,2022-03-18,合同会社瑞光ノ響,,合同会社,青森県,八戸市,大字大久保字行人塚２－３８３,,02,203,0310833,,,,,,,2022-03-18,1,,,,,ズイコウノヒビキ,0
1006,4430001086231,新規,0,2022-03-18,2022-03-18,Ｄｉｒｅｎｅ株式会社,,株式会社,北海道,札幌市中央区,南一条西１６丁目１番地３２３春野ビル３Ｆ,,01,101,0600061,,,,,,,2022-03-18,1,,,,,ディレーネ,0
1008,4430003013720,新規,0,2022-03-18,2022-03-18,合同会社ｂｏｒｒａｃｈｏ,,合同会社,北海道,札幌市中央区,双子山１丁目９番４号,,01,101,0640946,,,,,,,2022-03-18,1,,,,,ボラーチョ,0
1013,4500001024068,新規,0,2022-03-18,2022-03-18,株式会社三好工務店,,株式会社,愛媛県,宇和島市,住吉町２丁目４番５号,,38,203,7980003,,,,,,,2022-03-18,1,,,,,ミヨシコウムテン,0
1014,4500005008471,新規,0,2022-03-18,2022-03-18,一般社団法人愛媛コワーキングコミュニティ,,その他の設立登記法人,愛媛県,松山市,千舟町５丁目３番１７号,,38,201,7900011,,,,,,,2022-03-18,1,,,,,エヒメコワーキングコミュニティ,0
1015,4700150019848,新規,0,2022-03-18,2015-10-09,ぐんまマラソン実行委員会,,その他,群馬県,前橋市,古市町１丁目５０－２１上毛新聞社内,,10,201,3710844,,,,,,,2015-10-09,1,,,,,グンママラソンジツコウイインカイ,0
1020,5010001225301,新規,0,2022-03-18,2022-03-18,株式会社ＬａＬａ,,株式会社,東京都,中央区,銀座２丁目１３番１１－１４０１号,,13,102,1040061,,,,,,,2022-03-18,1,,,,,ララ,0
1021,5010001225318,新規,0,2022-03-18,2022-03-18,ＳＡＫＵＲＡ株式会社,,株式会社,東京都,千代田区,丸の内１丁目８番３号丸の内トラストタワー本館２０階,,13,101,1000005,,,,,,,2022-03-18,1,,,,,サクラ,0
1026,5010003037273,新規,0,2022-03-18,2022-03-18,ＷｉｎｎＮａｖ合同会社,,合同会社,東京都,中央区,湊２丁目１１番１号シティタワー銀座東１４１７,,13,102,1040043,,,,,,,2022-03-18,1,,,,,ウィンナビ,0
1027,5010005034748,新規,0,2022-03-18,2022-03-18,一般社団法人日本光線力学学会,,その他の設立登記法人,東京都,中央区,築地１丁目１２番２２号コンワビル,,13,102,1040045,,,,,,,2022-03-18,1,,,,,ニホンコウセンリキガクガッカイ,0
1032,5010405020810,新規,0,2022-03-18,2022-03-18,医療法人社団ＡＯＴ,,その他の設立登記法人,東京都,港区,港南２丁目１６番１号品川イーストワンタワー３０７Ａ,,13,103,1080075,,,,,,,2022-03-18,1,,,,,エーオーティー,0
1037,5010601060858,新規,0,2022-03-18,2022-03-18,株式会社ＬＩＢＥＲＯ,,株式会社,東京都,墨田区,菊川３丁目３番２２号,,13,107,1300024,,,,,,,2022-03-18,1,,,,,リベロ,0
1038,5010703006164,新規,0,2022-03-18,2022-03-18,Ｂｅｔａ　Ｃｏｎｓｕｌｔｉｎｇ合同会社,,合同会社,東京都,品川区,西五反田７丁目１３番５号ＤＫ五反田４階,,13,109,1410031,,,,,,,2022-03-18,1,,,,,ベタコンサルティング,0
1040,5010803004101,新規,0,2022-03-18,2022-03-18,合同会社グランシェ,,合同会社,東京都,大田区,南千束１丁目１番２号千束フラット３０３,,13,111,1450063,,,,,,,2022-03-18,1,,,,,グランシェ,0
1042,5010903007243,新規,0,2022-03-18,2022-03-18,合同会社アンシャンテ,,合同会社,東京都,世田谷区,奥沢１丁目６１番３号,,13,112,1580083,,,,,,,2022-03-18,1,,,,,アンシャンテ,0
1046,5011003014361,新規,0,2022-03-18,2022-03-18,合同会社マネジメントアート,,合同会社,東京都,目黒区,八雲５丁目１４番９号,,13,110,1520023,,,,,,,2022-03-18,1,,,,,マネジメントアート,0
1051,5011101098199,新規,0,2022-03-18,2022-03-18,株式会社デメテル,,株式会社,東京都,新宿区,西新宿３丁目３番１３号西新宿水間ビル６階,,13,104,1600023,,,,,,,2022-03-18,1,,,,,デメテル,0
1055,5011301027635,新規,0,2022-03-18,2022-03-18,株式会社Ｍｏｃｏ　ｈｅａｄｓ,,株式会社,東京都,杉並区,西荻北３丁目９番１３号ラメールアネックス３０１,,13,115,1670042,,,,,,,2022-03-18,1,,,,,モコヘッズ,0
1056,5011301027643,新規,0,2022-03-18,2022-03-18,株式会社ジャマイカン・キッチン,,株式会社,東京都,杉並区,阿佐谷南３丁目３２番１７－５０１号藤和シティホームズ阿佐ケ谷駅前,,13,115,1660004,,,,,,,2022-03-18,1,,,,,ジャマイカンキッチン,0
1060,5011403003600,新規,0,2022-03-18,2022-03-18,合同会社ＮＩＮＥＴＹ　ＮＩＮＥ,,合同会社,東京都,板橋区,中丸町１１番６－１０６号,,13,119,1730026,,,,,,,2022-03-18,1,,,,,ナインティナイン,0
1061,5011501027856,新規,0,2022-03-18,2022-03-18,株式会社ＪＵＮＫＬＡＮＤ,,株式会社,東京都,荒川区,東尾久２丁目４４番１０号ライオンズマンション８０３号,,13,118,1160012,,,,,,,2022-03-18,1,,,,,ジャンクランド,0
1066,5012301012924,新規,0,2022-03-18,2022-03-18,株式会社トラスト,,株式会社,東京都,町田市,常盤町３２５３番地３,,13,209,1940213,,,,,,,2022-03-18,1,,,,,トラスト,0
1070,5020001145688,新規,0,2022-03-18,2022-03-18,株式会社達磨工業,,株式会社,神奈川県,横浜市保土ケ谷区,藤塚町１１番１－３０３号,,14,106,2400031,,,,,,,2022-03-18,1,,,,,,0
1071,5020001145705,新規,0,2022-03-18,2022-03-18,株式会社Ａｎｃｈｏｒ,,株式会社,神奈川県,横浜市西区,浅間町１丁目１１番地９ＴＳＵＫＡＳＡ４－２０１号,,14,103,2200072,,,,,,,2022-03-18,1,,,,,アンカー,0
1072,5020001145713,新規,0,2022-03-18,2022-03-18,株式会社ＦＡＭＩＬＩＡ,,株式会社,神奈川県,川崎市幸区,中幸町２丁目１８番地,,14,132,2120012,,,,,,,2022-03-18,1,,,,,ファミリア,0
1076,5020003021458,新規,0,2022-03-18,2022-03-18,方糖東京合同会社,,合同会社,神奈川県,川崎市川崎区,貝塚１丁目３－１７シャンボール第２川崎５０４,,14,131,2100014,,,,,,,2022-03-18,1,,,,,ファンタントウキョウ,0
1080,5021001075454,新規,0,2022-03-18,2022-03-18,株式会社ＵＭＥカンパニー,,株式会社,神奈川県,相模原市南区,上鶴間本町９丁目７番９号,,14,153,2520318,,,,,,,2022-03-18,1,,,,,ウメカンパニー,0
1081,5021001075462,新規,0,2022-03-18,2022-03-18,株式会社Ｅ‐Ｓｔｙｌｅ,,株式会社,神奈川県,相模原市緑区,大島３１９２番地３６,,14,151,2520135,,,,,,,2022-03-18,1,,,,,イースタイル,0
1092,5030001147320,新規,0,2022-03-18,2022-03-18,株式会社ＯＭワークス,,株式会社,埼玉県,新座市,栄２丁目９番３５－４号,,11,230,3520014,,,,,,,2022-03-18,1,,,,,オーエムワークス,0
1097,5030005020762,新規,0,2022-03-18,2022-03-18,一般社団法人みんなの保健室陽だまり,,その他の設立登記法人,埼玉県,草加市,中根２丁目３６番２号,,11,221,3400005,,,,,,,2022-03-18,1,,,,,ミンナノホケンシツヒダマリ,0
1105,5040003019698,新規,0,2022-03-18,2022-03-18,合同会社モアナ,,合同会社,千葉県,千葉市中央区,弁天２丁目１１番１８号,,12,101,2600045,,,,,,,2022-03-18,1,,,,,モアナ,0
1108,5040005021545,新規,0,2022-03-18,2022-03-18,一般社団法人ＨｕｇＫｕ‐Ｍｅ,,その他の設立登記法人,千葉県,八千代市,大学町２丁目１番３号,,12,221,2760003,,,,,,,2022-03-18,1,,,,,ハグクミ,0
1128,5110001036507,新規,0,2022-03-18,2022-03-18,株式会社寅之介,,株式会社,新潟県,新潟市中央区,東大通２丁目３番７号,,15,103,9500087,,,,,,,2022-03-18,1,,,,,トラノスケ,0
1137,5120001244505,新規,0,2022-03-18,2022-03-18,誠工業株式会社,,株式会社,大阪府,枚方市,茄子作３丁目２６番２９－１号,,27,210,5730071,,,,,,,2022-03-18,1,,,,,マコトコウギョウウ,0
1138,5120001244521,新規,0,2022-03-18,2022-03-18,株式会社Ｓｈｉｎｅ　Ｌａｂｏわんぱく,,株式会社,大阪府,大阪市北区,万歳町３番１２号萬栄ビル３階,,27,127,5300028,,,,,,,2022-03-18,1,,,,,シャインラボワンパク,0
1139,5120001244538,新規,0,2022-03-18,2022-03-18,株式会社テンポイント,,株式会社,大阪府,大阪市浪速区,敷津西２丁目１番１２号ＹＫＢＵＩＬＤＩＮＧ２－Ａ,,27,111,5560015,,,,,,,2022-03-18,1,,,,,テンポイント,0
1140,5120001244579,新規,0,2022-03-18,2022-03-18,株式会社日辰実業,,株式会社,大阪府,大阪市城東区,野江１丁目１１番１,,27,118,5360006,,,,,,,2022-03-18,1,,,,,ニッシンジツギョウ,0
1142,5120003021175,新規,0,2022-03-18,2022-03-18,合同会社ＳＭＡＡＰＡＬＬＯ,,合同会社,大阪府,大阪市西成区,梅南２丁目３番１９号グランエクラ花園町７０２号室,,27,122,5570033,,,,,,,2022-03-18,1,,,,,スマッポロ,0
1143,5120003021299,新規,0,2022-03-18,2022-03-18,スライブオン合同会社,,合同会社,大阪府,寝屋川市,高柳７丁目１２番１３号,,27,215,5720051,,,,,,,2022-03-18,1,,,,,スライブオン,0
1144,5120003021308,新規,0,2022-03-18,2022-03-18,合同会社ＧＲＡＮＤ　ＳＴＹＬＯ,,合同会社,大阪府,大阪市北区,中之島６丁目１番３８－２４１８号,,27,127,5300005,,,,,,,2022-03-18,1,,,,,グランスティロ,0
1145,5120005022849,新規,0,2022-03-18,2022-03-18,一般社団法人生涯チアダンス普及協会,,その他の設立登記法人,大阪府,大阪市中央区,谷町７丁目４番２１号,,27,128,5420012,,,,,,,2022-03-18,1,,,,,ショウガイチアダンスフキュウキョウカイ,0
1150,5120103004609,新規,0,2022-03-18,2022-03-18,合同会社ｎｉｌｖａ,,合同会社,大阪府,和泉市,いぶき野２丁目９番６号アンキューブ３階,,27,219,5940041,,,,,,,2022-03-18,1,,,,,ニルヴァ,0
1158,5130001071378,新規,0,2022-03-18,2022-03-18,エムテクト株式会社,,株式会社,京都府,宇治市,琵琶台３丁目５番地３,,26,204,6110024,,,,,,,2022-03-18,1,,,,,エムテクト,0
1162,5140001125307,新規,0,2022-03-18,2022-03-18,株式会社グランプログレ,,株式会社,兵庫県,川西市,美園町１２番２０号,,28,217,6660013,,,,,,,2022-03-18,1,,,,,グランプログレ,0
1163,5140001125315,新規,0,2022-03-18,2022-03-18,株式会社大木管財,,株式会社,兵庫県,神戸市中央区,下山手通３丁目２番１３号,,28,110,6500011,,,,,,,2022-03-18,1,,,,,オオキカンザイ,0
1166,5150001025407,新規,0,2022-03-18,2022-03-18,株式会社ＨＯＲＩＹＡＭＡ,,株式会社,奈良県,奈良市,押熊町１４番地の１,,29,201,6310011,,,,,,,2022-03-18,1,,,,,ホリヤマ,0
1168,5150003002643,新規,0,2022-03-18,2022-03-18,合同会社カイト,,合同会社,奈良県,宇陀市,榛原山辺三１０９８番地,,29,212,6330202,,,,,,,2022-03-18,1,,,,,カイト,0
1175,5180001150458,新規,0,2022-03-18,2022-03-18,株式会社総合調査トラスト,,株式会社,愛知県,名古屋市中区,丸の内３丁目７番９－６０４号,,23,106,4600002,,,,,,,2022-03-18,1,,,,,ソウゴウチョウサトラスト,0
1177,5180003023629,新規,0,2022-03-18,2022-03-18,合同会社ＡＤＶＡＮＣＥ,,合同会社,愛知県,一宮市,伝法寺８丁目７－３１,,23,203,4910828,,,,,,,2022-03-18,1,,,,,アドバンス,0
1182,5230001019276,新規,0,2022-03-18,2022-03-18,ＴＭＯ株式会社,,株式会社,富山県,中新川郡上市町,郷柿沢４４０番地,,16,322,9300405,,,,,,,2022-03-18,1,,,,,ティーエムオー,0
1193,5290001096863,新規,0,2022-03-18,2022-03-18,株式会社ビットキューブ,,株式会社,福岡県,福岡市中央区,天神１丁目１番１号,,40,133,8100001,,,,,,,2022-03-18,1,,,,,ビットキューブ,0
1196,5290801028347,新規,0,2022-03-18,2022-03-18,株式会社ＳＴＡＢＯＮ,,株式会社,福岡県,遠賀郡岡垣町,大字高倉１３５６－１,,40,383,8114234,,,,,,,2022-03-18,1,,,,,スタボン,0
1202,5330001029554,新規,0,2022-03-18,2022-03-18,株式会社サーモンテック,,株式会社,熊本県,熊本市中央区,黒髪２丁目３９番１号,,43,101,8600862,,,,,,,2022-03-18,1,,,,,サーモンテック,0
1203,5330003009298,新規,0,2022-03-18,2022-03-18,合同会社Ｅｄｇｅ,,合同会社,熊本県,熊本市北区,清水万石３丁目３－９－２,,43,105,8618068,,,,,,,2022-03-18,1,,,,,エッジ,0
1204,5340001024579,新規,0,2022-03-18,2022-03-18,株式会社明神工業,,株式会社,鹿児島県,鹿児島市,西谷山２丁目８番７号,,46,201,8910117,,,,,,,2022-03-18,1,,,,,メイシンコウギョウ,0
1209,5360003011879,新規,0,2022-03-18,2022-03-18,合同会社Ｉ．Ｍ．Ｉ,,合同会社,沖縄県,宜野湾市,愛知１丁目８－１３－２０１,,47,205,9012206,,,,,,,2022-03-18,1,,,,,アイエムアイ,0
1221,5420003002483,新規,0,2022-03-18,2022-03-18,信トータルサービス合同会社,,合同会社,青森県,青森市,大字新城字山田２２２番地１６５,,02,201,0380042,,,,,,,2022-03-18,1,,,,,シントータルサービス,0
1229,5430001086230,新規,0,2022-03-18,2022-03-18,ＷＡ株式会社,,株式会社,北海道,札幌市東区,北十九条東１丁目１番３２－２０３号,,01,103,0650019,,,,,,,2022-03-18,1,,,,,ダブルエー,0
1230,5430001086239,新規,0,2022-03-18,2022-03-18,石狩厚田グリーンエネルギー株式会社,,株式会社,北海道,札幌市中央区,北三条西４丁目１番地１,,01,101,0600003,,,,,,,2022-03-18,1,,,,,イシカリアツタグリーンエネルギー,0
1238,5700150107214,新規,0,2022-03-18,2022-03-01,津田コミュニティ交通協議会,,その他,岡山県,真庭市,旦土１５１５－１,,33,214,7193133,,,,,,,2022-03-01,1,,,,,ツダコミユニテイコウツウキヨウギカイ,0
1245,6010001225077,新規,0,2022-03-18,2022-03-18,株式会社Ｔｗｉｎｋｌｅ,,株式会社,東京都,中央区,晴海１丁目８番５－１００１号,,13,102,1040053,,,,,,,2022-03-18,1,,,,,トゥウィンクル,0
1246,6010001225317,新規,0,2022-03-18,2022-03-18,キャピタル・ブラザーズ株式会社,,株式会社,東京都,中央区,新富１丁目４－５東銀座ビル２Ｆ,,13,102,1040041,,,,,,,2022-03-18,1,,,,,キャピタルブラザーズ,0
1247,6010001225333,新規,0,2022-03-18,2022-03-18,株式会社ＣＲＯＦＬ,,株式会社,東京都,中央区,銀座８丁目１０－５ＤＥＮＳＡＮビルＧ－２５３２７,,13,102,1040061,,,,,,,2022-03-18,1,,,,,クロフル,0
1252,6010003037272,新規,0,2022-03-18,2022-03-18,エイグ合同会社,,合同会社,東京都,中央区,日本橋１丁目４番１号日本橋一丁目ビルディング,,13,102,1030027,,,,,,,2022-03-18,1,,,,,エイグ,0
1253,6010005034747,新規,0,2022-03-18,2022-03-18,特定非営利活動法人Ｙｏｕ’ｔｈ　Ｃａｒｅ,,その他の設立登記法人,東京都,文京区,湯島３丁目３９番３号上野不二ビル７階,,13,105,1130034,,,,,,,2022-03-18,1,,,,,ユースケア,0
1259,6010401166219,新規,0,2022-03-18,2022-03-18,株式会社コンフォートストゥディオズ,,株式会社,東京都,港区,南青山７丁目１番７号Ｃ－Ｃｕｂｅ南青山２階,,13,103,1070062,,,,,,,2022-03-18,1,,,,,コンフォートストゥディオズ,0
1265,6010501048606,新規,0,2022-03-18,2022-03-18,株式会社メディカルライズ,,株式会社,東京都,台東区,上野６丁目８番１９号,,13,106,1100005,,,,,,,2022-03-18,1,,,,,メディカルライズ,0
1270,6010701042383,新規,0,2022-03-18,2022-03-18,ＭＲ　ＪＡＭＳ株式会社,,株式会社,東京都,品川区,北品川４丁目８番３３号ＦＲＯＮＴ,,13,109,1400001,,,,,,,2022-03-18,1,,,,,ミスタージャムス,0
1278,6010901050541,新規,0,2022-03-18,2022-03-18,株式会社リズム,,株式会社,東京都,世田谷区,経堂４丁目１４－１０－１０３,,13,112,1560052,,,,,,,2022-03-18,1,,,,,リズム,0
1283,6011001146346,新規,0,2022-03-18,2022-03-18,株式会社ＴＳパートナーズ,,株式会社,東京都,渋谷区,神宮前６丁目２３番４号桑野ビル２階,,13,113,1500001,,,,,,,2022-03-18,1,,,,,ティーエスパートナーズ,0
1284,6011001146387,新規,0,2022-03-18,2022-03-18,株式会社レゾナンス,,株式会社,東京都,渋谷区,渋谷１丁目１２番地２号クロスオフィス渋谷８階,,13,113,1500002,,,,,,,2022-03-18,1,,,,,レゾナンス,0
1287,6011003014352,新規,0,2022-03-18,2022-03-18,ＡＳＴＯＬ合同会社,,合同会社,東京都,渋谷区,神宮前６丁目２３番４号桑野ビル２階,,13,113,1500001,,,,,,,2022-03-18,1,,,,,アストル,0
1288,6011003014377,新規,0,2022-03-18,2022-03-18,合同会社ＫＡＫＥＲＵ,,合同会社,東京都,渋谷区,道玄坂１丁目１０番８号渋谷道玄坂東急ビル２Ｆ－Ｃ,,13,113,1500043,,,,,,,2022-03-18,1,,,,,カケル,0
1296,6011301027642,新規,0,2022-03-18,2022-03-18,株式会社ＰＯＬＯＮ,,株式会社,東京都,杉並区,高円寺南４丁目７番３号サンシャイン高円寺８０３号,,13,115,1660003,,,,,,,2022-03-18,1,,,,,ポロン,0
1298,6011303004350,新規,0,2022-03-18,2022-03-18,合同会社ＭＳＴポピーズ,,合同会社,東京都,杉並区,浜田山３丁目９番３１－１号,,13,115,1680065,,,,,,,2022-03-18,1,,,,,エムエスティーポピーズ,0
1301,6011501027855,新規,0,2022-03-18,2022-03-18,株式会社Ｆｒｅｅ　Ｗｏｒｌｄ,,株式会社,東京都,北区,赤羽西４丁目３７番１２－１０１号,,13,117,1150055,,,,,,,2022-03-18,1,,,,,フリーワールド,0
1302,6011503005108,新規,0,2022-03-18,2022-03-18,プロミス探偵事務所合同会社,,合同会社,東京都,荒川区,西日暮里５丁目１５番１２号金子西日暮里ビル４０３号,,13,118,1160013,,,,,,,2022-03-18,1,,,,,プロミスタンテイジムショ,0
1322,6020003021481,新規,0,2022-03-18,2022-03-18,合同会社ＯＴＴＥＲ　ＮＡＰ,,合同会社,神奈川県,横浜市栄区,公田町７７４番地５グリーンテラス本郷台２１－１号室,,14,115,2470014,,,,,,,2022-03-18,1,,,,,オッターナップ,0
1330,6021003011497,新規,0,2022-03-18,2022-03-18,合同会社Ｔｈｅ　Ｎｉｌｅ,,合同会社,神奈川県,小田原市,風祭２５－３,,14,206,2500032,,,,,,,2022-03-18,1,,,,,ナイル,0
1336,6030003019046,新規,0,2022-03-18,2022-03-18,合同会社Ｐ＆Ｒコンサルティング,,合同会社,埼玉県,草加市,谷塚１丁目２９番８号,,11,221,3400028,,,,,,,2022-03-18,1,,,,,ピーアンドアールコンサルティング,0
1337,6030005020753,新規,0,2022-03-18,2022-03-18,行政書士法人未来総合法務事務所,,その他の設立登記法人,埼玉県,さいたま市中央区,本町東５丁目１５番１号,,11,105,3380003,,,,,,,2022-03-18,1,,,,,ミライソウゴウホウムジムショ,0
1339,6040001122635,新規,0,2022-03-18,2022-03-18,株式会社グローバルキャリアサービス,,株式会社,千葉県,千葉市美浜区,中瀬１丁目３番地,,12,106,2610023,,,,,,,2022-03-18,1,,,,,グローバルキャリアサービス,0
1340,6040001122668,新規,0,2022-03-18,2022-03-18,株式会社中村架設,,株式会社,千葉県,千葉市緑区,大木戸町３８２番地３,,12,105,2670057,,,,,,,2022-03-18,1,,,,,ナカムラカセツ,0
1341,6040001122676,新規,0,2022-03-18,2022-03-18,株式会社エスティー,,株式会社,千葉県,四街道市,大日１０６番地２５,,12,228,2840001,,,,,,,2022-03-18,1,,,,,エスティー,0
1352,6050003006364,新規,0,2022-03-18,2022-03-18,合同会社ＫＭミライ,,合同会社,茨城県,小美玉市,山野１０８２－５３,,08,236,3113413,,,,,,,2022-03-18,1,,,,,ケーエムミライ,0
1353,6050003006430,新規,0,2022-03-18,2022-03-18,合同会社四季と,,合同会社,茨城県,笠間市,下市毛２１３－２,,08,216,3091626,,,,,,,2022-03-18,1,,,,,シキト,0
1356,6070001039059,新規,0,2022-03-18,2022-03-18,株式会社ＶＡＬＵＥ,,株式会社,群馬県,前橋市,大友町３丁目９番地２第二伸栄ビル３－７号室,,10,201,3710847,,,,,,,2022-03-18,1,,,,,バリュー,0
1376,6120001244504,新規,0,2022-03-18,2022-03-18,株式会社ｇｒｏｗ　ｎｅｅｄｓ,,株式会社,大阪府,大阪市生野区,中川６丁目１３番１７号,,27,116,5440005,,,,,,,2022-03-18,1,,,,,グロウニーズ,0
1377,6120001244520,新規,0,2022-03-18,2022-03-18,株式会社スワロー,,株式会社,大阪府,大阪市都島区,内代町２丁目３番８号,,27,102,5340013,,,,,,,2022-03-18,1,,,,,スワロー,0
1378,6120001244545,新規,0,2022-03-18,2022-03-18,株式会社ヨシカノ,,株式会社,大阪府,大阪市西区,立売堀４丁目３番１６号５階５０９号,,27,106,5500012,,,,,,,2022-03-18,1,,,,,ヨシカノ,0
1379,6120001244561,新規,0,2022-03-18,2022-03-18,株式会社Ｋｏｋｉａ,,株式会社,大阪府,大阪市城東区,関目２丁目２番１１号,,27,118,5360008,,,,,,,2022-03-18,1,,,,,コキア,0
1380,6120001244578,新規,0,2022-03-18,2022-03-18,ひかり教材株式会社,,株式会社,大阪府,大阪市東淀川区,北江口４丁目４－２８サニー北江口３Ｆ,,27,114,5330002,,,,,,,2022-03-18,1,,,,,ヒカリキョウザイ,0
1383,6120101065255,新規,0,2022-03-18,2022-03-18,株式会社アンファンス,,株式会社,大阪府,岸和田市,戎町８番４９号,,27,202,5960022,,,,,,,2022-03-18,1,,,,,アンファンス,0
1385,6120103004608,新規,0,2022-03-18,2022-03-18,合同会社サンセリテミュ,,合同会社,大阪府,堺市西区,上５５８番地３Ｋａｉｊｏクリスタル第三ビル６Ｂ,,27,144,5938311,,,,,,,2022-03-18,1,,,,,サンセリテミュ,0
1390,6130001071369,新規,0,2022-03-18,2022-03-18,株式会社ＨＡＯプロジェクト西日本,,株式会社,京都府,宇治市,小倉町西山８２番地Ｄ・Ａコート１Ｆ,,26,204,6110042,,,,,,,2022-03-18,1,,,,,ハオプロジェクトニシニホン,0
1395,6140001125297,新規,0,2022-03-18,2022-03-18,Ｍ・Ａ　ＴＲＡＤＩＮＧ株式会社,,株式会社,兵庫県,神戸市長田区,雲雀ケ丘３丁目６番３０６号,,28,106,6530879,,,,,,,2022-03-18,1,,,,,エムエートレーディング,0
1396,6140001125306,新規,0,2022-03-18,2022-03-18,株式会社ムーブ,,株式会社,兵庫県,神戸市垂水区,名谷町１５２５－１パールハイツ１０３,,28,108,6550852,,,,,,,2022-03-18,1,,,,,ムーブ,0
1397,6140003017427,新規,0,2022-03-18,2022-03-18,Ｋｅｎｙ　Ｊａｐａｎ合同会社,,合同会社,兵庫県,丹波市,氷上町石生２３３２－２リベルテＩ－１０１,00126010,28,223,6693464,,,,,,,2022-03-18,1,,,,,ケニージャパン,0
1400,6150001025414,新規,0,2022-03-18,2022-03-18,株式会社ＳＥＡＬｓ,,株式会社,奈良県,香芝市,上中５２７番地１,,29,210,6390265,,,,,,,2022-03-18,1,,,,,シールズ,0
1414,6180303005284,新規,0,2022-03-18,2022-03-18,合同会社だんご,,合同会社,愛知県,岡崎市,上地町字西田８番地５８,,23,202,4440824,,,,,,,2022-03-18,1,,,,,ダンゴ,0
1415,6190003003926,新規,0,2022-03-18,2022-03-18,合同会社しあわせニャンコ,,合同会社,三重県,伊賀市,ゆめが丘７丁目３番地,,24,216,5180131,,,,,,,2022-03-18,1,,,,,シアワセニャンコ,0
1417,6200001039862,新規,0,2022-03-18,2022-03-18,株式会社ケイズライフ,,株式会社,岐阜県,羽島市,足近町４丁目２２５番地４,,21,209,5016207,,,,,,,2022-03-18,1,,,,,ケイズライフ,0
1421,6210003001472,新規,0,2022-03-18,2022-03-18,合同会社海軍不動産,,合同会社,福井県,大飯郡高浜町,坂田１４－６－４２,,18,481,9192216,,,,,,,2022-03-18,1,,,,,カイグンフドウサン,0
1422,6250005008727,新規,0,2022-03-18,2022-03-18,一般社団法人やまぐちｅスポーツ協会,,その他の設立登記法人,山口県,山口市,中央１丁目４番８号,,35,203,7530074,,,,,,,2022-03-18,1,,,,,ヤマグチイスポーツキョウカイ,0
1435,6290801028346,新規,0,2022-03-18,2022-03-18,株式会社ＵＮＩＴＥＱ,,株式会社,福岡県,北九州市八幡西区,大平１丁目７番２２スペース２２－２０１,,40,109,8070083,,,,,,,2022-03-18,1,,,,,ユニテック,0
1437,6300003001810,新規,0,2022-03-18,2022-03-18,合同会社セ・ラ・ヴィ,,合同会社,佐賀県,鳥栖市,村田町１２１番地５,,41,203,8410072,,,,,,,2022-03-18,1,,,,,セラヴィ,0
1440,6330001029553,新規,0,2022-03-18,2022-03-18,株式会社ＧｏｏｄＦｅｌｌｏｗｓ,,株式会社,熊本県,上益城郡益城町,大字安永９８６番地５１,,43,443,8612231,,,,,,,2022-03-18,1,,,,,グッドフェロウズ,0
1441,6330003009297,新規,0,2022-03-18,2022-03-18,木戸技術サービス合同会社,,合同会社,熊本県,水俣市,浜町３丁目３番５号,,43,205,8670065,,,,,,,2022-03-18,1,,,,,キドギジュツサービス,0
1443,6360001030137,新規,0,2022-03-18,2022-03-18,株式会社Ｔ’ｓ　Ｍａｒｉｎｅ,,株式会社,沖縄県,浦添市,内間１丁目２－１６,,47,208,9012121,,,,,,,2022-03-18,1,,,,,ティーズマリン,0
1444,6360001030145,新規,0,2022-03-18,2022-03-18,幸樹株式会社,,株式会社,沖縄県,宮古島市,平良字東仲宗根８８８番地６,,47,214,9060007,,,,,,,2022-03-18,1,,,,,コウキ,0
1445,6360003011878,新規,0,2022-03-18,2022-03-18,合同会社ぱなぱり,,合同会社,沖縄県,宮古島市,上野字野原８３番地３０,,47,214,9060201,,,,,,,2022-03-18,1,,,,,パナパリ,0
1446,6370005010456,新規,0,2022-03-18,2022-03-18,一般社団法人朝日一丁目・二丁目タウンマネジメント,,その他の設立登記法人,宮城県,仙台市泉区,高森７丁目２番,,04,105,9813203,,,,,,,2022-03-18,1,,,,,アサヒイッチョウメニチョウメタウンマネジメント,0
1456,6380001032668,新規,0,2022-03-18,2022-03-18,株式会社ＥＤＵ‐Ｍｏ,,株式会社,福島県,郡山市,桑野５丁目１０番地の４６,,07,203,9638025,,,,,,,2022-03-18,1,,,,,エデュモ,0
1459,6420001017771,新規,0,2022-03-18,2022-03-18,株式会社Ｋ．Ｏ建設,,株式会社,青森県,むつ市,荒川町１５番１１号,,02,208,0350079,,,,,,,2022-03-18,1,,,,,ケーオーケンセツ,0
1464,6430001086254,新規,0,2022-03-18,2022-03-18,株式会社富岳商事,,株式会社,北海道,札幌市北区,新琴似五条７丁目１－１８,,01,102,0010905,,,,,,,2022-03-18,1,,,,,フガクショウジ,0
1466,6430003013660,新規,0,2022-03-18,2022-03-18,合同会社ＥＭ企画,,合同会社,北海道,札幌市清田区,清田十条３丁目８番１１号,,01,110,0040840,,,,,,,2022-03-18,1,,,,,エムキカク,0
1467,6430003013719,新規,0,2022-03-18,2022-03-18,合同会社八七一,,合同会社,北海道,札幌市厚別区,上野幌三条５丁目１番１－２０３号,,01,108,0040033,,,,,,,2022-03-18,1,,,,,ハチナナイチ,0
1469,6430005014418,新規,0,2022-03-18,2022-03-18,一般社団法人びらとり観光協会,,その他の設立登記法人,北海道,沙流郡平取町,本町２８番地,,01,602,0550107,,,,,,,2022-03-18,1,,,,,ビラトリカンコウキョウカイ,0
1482,7010001225167,新規,0,2022-03-18,2022-03-18,ｄ．ｃｏｄｅ株式会社,,株式会社,東京都,千代田区,丸の内１丁目１１番１号,,13,101,1000005,,,,,,,2022-03-18,1,,,,,ディーコード,0
1483,7010001225340,新規,0,2022-03-18,2022-03-18,Ｐａｙｎ株式会社,,株式会社,東京都,中央区,日本橋兜町５番１号,,13,102,1030026,,,,,,,2022-03-18,1,,,,,ペイン,0
1484,7010001225365,新規,0,2022-03-18,2022-03-18,株式会社ｉ‐Ｓｏｎｉｃ,,株式会社,東京都,千代田区,神田小川町３丁目２４番１号,,13,101,1010052,,,,,,,2022-03-18,1,,,,,アイソニック,0
1487,7010003037247,新規,0,2022-03-18,2022-03-18,ウィステリア合同会社,,合同会社,東京都,中央区,銀座１丁目６番１１号アースタックス税理士法人内,,13,102,1040061,,,,,,,2022-03-18,1,,,,,ウィステリア,0
1488,7010003037271,新規,0,2022-03-18,2022-03-18,ラム合同会社,,合同会社,東京都,中央区,日本橋１丁目４番１号日本橋一丁目ビルディング,,13,102,1030027,,,,,,,2022-03-18,1,,,,,ラム,0
1490,7010005034746,新規,0,2022-03-18,2022-03-18,エイグ１一般社団法人,,その他の設立登記法人,東京都,中央区,日本橋１丁目４番１号日本橋一丁目ビルディング,,13,102,1030027,,,,,,,2022-03-18,1,,,,,エイグイチ,0
1491,7010005034762,新規,0,2022-03-18,2022-03-18,ＲＢソーラースカイホールディングス一般社団法人,,その他の設立登記法人,東京都,千代田区,麹町２丁目８番地ＭＬＣ麹町ビル４階フィンポート税理士法人内,,13,101,1020083,,,,,,,2022-03-18,1,,,,,アールビーソーラースカイホールディングス,0
1497,7010401166250,新規,0,2022-03-18,2022-03-18,株式会社ＭＥＴＡ　ＡＬＬ‐ＳＴＡＲＳ,,株式会社,東京都,港区,麻布台１丁目５番９号－５５－１麻布台ビル,,13,103,1060041,,,,,,,2022-03-18,1,,,,,メタオールスター,0
1498,7010401166275,新規,0,2022-03-18,2022-03-18,ＲｏｂｏｔｉｘＯＳ‐Ｊａｐａｎ株式会社,,株式会社,東京都,港区,南青山２丁目２番８号ＤＦビル５階,,13,103,1070062,,,,,,,2022-03-18,1,,,,,ロボティックスオーエスジャパン,0
1503,7010501048605,新規,0,2022-03-18,2022-03-18,株式会社Ｐ．Ｉ．Ｔ．Ｓ,,株式会社,東京都,台東区,上野６丁目１－６－１００５,,13,106,1100005,,,,,,,2022-03-18,1,,,,,ピーアイティーエス,0
1506,7010701042382,新規,0,2022-03-18,2022-03-18,株式会社Ａ＆Ｔ,,株式会社,東京都,品川区,南品川３丁目４番１－５０７号,,13,109,1400004,,,,,,,2022-03-18,1,,,,,エーアンドティー,0
1507,7010703006162,新規,0,2022-03-18,2022-03-18,美作グリーンパワー合同会社,,合同会社,東京都,品川区,東五反田２丁目１７番１号,,13,109,1410022,,,,,,,2022-03-18,1,,,,,ミマサカグリーンパワー,0
1509,7010801032812,新規,0,2022-03-18,2022-03-18,株式会社Ｇｒａｎｄａｉｄｅｒ,,株式会社,東京都,大田区,南六郷１丁目１番１９号,,13,111,1440045,,,,,,,2022-03-18,1,,,,,グランダイダー,0
1515,7010903007241,新規,0,2022-03-18,2022-03-18,合同会社ＨＡＲＵＳｔａｇｅ,,合同会社,東京都,世田谷区,北烏山９丁目１番３５号ゼルコーバ烏山４０７,,13,112,1570061,,,,,,,2022-03-18,1,,,,,ハルステージ,0
1520,7011001146378,新規,0,2022-03-18,2022-03-18,株式会社ギャロップ,,株式会社,東京都,目黒区,下目黒４丁目１１番１８－４０１号,,13,110,1530064,,,,,,,2022-03-18,1,,,,,ギャロップ,0
1525,7011101098197,新規,0,2022-03-18,2022-03-18,株式会社ＮＩＮＥ,,株式会社,東京都,新宿区,若葉１丁目１－１５ＹＴビル１Ｆ,,13,104,1600011,,,,,,,2022-03-18,1,,,,,ナイン,0
1526,7011203003773,新規,0,2022-03-18,2022-03-18,栄東地所合同会社,,合同会社,東京都,中野区,弥生町６丁目１２番１号,,13,114,1640013,,,,,,,2022-03-18,1,,,,,エイトウジショ,0
1528,7011301027641,新規,0,2022-03-18,2022-03-18,日本京都製薬株式会社,,株式会社,東京都,杉並区,天沼２丁目７番７号マンション大竹３０１,,13,115,1670032,,,,,,,2022-03-18,1,,,,,ニホンキョウトセイヤク,0
1531,7011501027854,新規,0,2022-03-18,2022-03-18,遠東友和株式会社,,株式会社,東京都,荒川区,東尾久８丁目４２番１２号英華ビル３Ｆ,,13,118,1160012,,,,,,,2022-03-18,1,,,,,エントウユウワ,0
1535,7011803005013,新規,0,2022-03-18,2022-03-18,合同会社トップアーティストライフ,,合同会社,東京都,葛飾区,堀切４丁目５７－１５三河屋ビル２０３号,,13,122,1240006,,,,,,,2022-03-18,1,,,,,トップアーティストライフ,0
1537,7012305001995,新規,0,2022-03-18,2022-03-18,特定非営利活動法人日本・パプアニューギニア村,,その他の設立登記法人,東京都,町田市,真光寺町９０３番地,,13,209,1950051,,,,,,,2022-03-18,1,,,,,ニホンパプアニューギニアムラ,0
1545,7013301048832,新規,0,2022-03-18,2022-03-18,株式会社ココカラ,,株式会社,東京都,豊島区,南大塚３丁目４６－９－１Ｆ,,13,116,1700005,,,,,,,2022-03-18,1,,,,,ココカラ,0
1552,7020001145694,新規,0,2022-03-18,2022-03-18,株式会社買えちゃうカンパニー,,株式会社,神奈川県,横浜市戸塚区,下倉田町１８番１号,,14,110,2440815,,,,,,,2022-03-18,1,,,,,カエチャウカンパニー,0
1553,7020001145703,新規,0,2022-03-18,2022-03-18,株式会社ＨＲ＆Ｌｅｇａｌ　Ｓｏｌｕｔｉｏｎｓ,,株式会社,神奈川県,横浜市青葉区,あざみ野３丁目４番地あざみ野団地２棟５０２号,,14,117,2250011,,,,,,,2022-03-18,1,,,,,エイチアールアンドリーガルソリューションズ,0
1555,7020003021472,新規,0,2022-03-18,2022-03-18,ブルーシュナウザー合同会社,,合同会社,神奈川県,横浜市中区,本牧原２０番２７－４０４号,,14,104,2310821,,,,,,,2022-03-18,1,,,,,ブルーシュナウザー,0
1557,7021001075452,新規,0,2022-03-18,2022-03-18,株式会社ＷＰＡ,,株式会社,神奈川県,藤沢市,鵠沼橘１丁目１５番４号,,14,205,2510024,,,,,,,2022-03-18,1,,,,,ダブリューピーエー,0
1558,7021003011488,新規,0,2022-03-18,2022-03-18,合同会社ｃｅｒｃｌｅ,,合同会社,神奈川県,鎌倉市,坂ノ下２番５号,,14,204,2480021,,,,,,,2022-03-18,1,,,,,セルクル,0
1559,7021003011496,新規,0,2022-03-18,2022-03-18,合同会社ＫＳ企画,,合同会社,神奈川県,平塚市,平塚２丁目２６番１号,,14,203,2540052,,,,,,,2022-03-18,1,,,,,ケイエスキカク,0
1572,7030001147203,新規,0,2022-03-18,2022-03-18,株式会社ＭＹＭＥ,,株式会社,埼玉県,さいたま市浦和区,神明１丁目２１番９,,11,107,3300065,,,,,,,2022-03-18,1,,,,,マイミー,0
1573,7030001147319,新規,0,2022-03-18,2022-03-18,株式会社ＣＨＩＡＫＩ　ＪＰ,,株式会社,埼玉県,熊谷市,本石１丁目７７番地２,,11,202,3600815,,,,,,,2022-03-18,1,,,,,チアキジェーピー,0
1574,7030001147335,新規,0,2022-03-18,2022-03-18,株式会社Ｓ・Ｋ・アール,,株式会社,埼玉県,さいたま市大宮区,桜木町４丁目７２７－１０１,,11,103,3300854,,,,,,,2022-03-18,1,,,,,エスケーアール,0
1575,7030003019053,新規,0,2022-03-18,2022-03-18,ＭＡＬＩＫ　ＴＲＡＤＩＮＧ合同会社,,合同会社,埼玉県,羽生市,大字喜右エ門新田１１０７,,11,216,3480014,,,,,,,2022-03-18,1,,,,,マリクトレーデイング,0
1581,7040001122659,新規,0,2022-03-18,2022-03-18,ＴＲＥＳ株式会社,,株式会社,千葉県,松戸市,高塚新田６３１番地の１１４,,12,207,2702222,,,,,,,2022-03-18,1,,,,,トレス,0
1582,7040001122683,新規,0,2022-03-18,2022-03-18,株式会社ＶＩＤＡＣＡＲＴ,,株式会社,千葉県,船橋市,夏見２丁目１番１２号きんぎん荘５号,,12,204,2730865,,,,,,,2022-03-18,1,,,,,ビダカート,0
1583,7040003019622,新規,0,2022-03-18,2022-03-18,ＦＯＵＲ　ＦＲＯＮＴＳ　ＩＮＴＥＲＮＡＴＩＯＮＡＬ　ＪＡＰＡＮ合同会社,,合同会社,千葉県,八街市,文違３０１番地１７３３,,12,230,2891104,,,,,,,2022-03-18,1,,,,,フォーフロンツインターナショナルジャパン,0
1588,7060001034670,新規,0,2022-03-18,2022-03-18,楽しい株式会社,,株式会社,栃木県,佐野市,高萩町４０５番地４,,09,204,3270821,,,,,,,2022-03-18,1,,,,,タノシイ,0
1589,7070001039058,新規,0,2022-03-18,2022-03-18,株式会社サステナブルライフライン,,株式会社,群馬県,太田市,六千石町５番地１,,10,205,3792305,,,,,,,2022-03-18,1,,,,,サステナブルライフライン,0
1598,7080403004492,新規,0,2022-03-18,2022-03-18,合同会社桜警備,,合同会社,静岡県,浜松市西区,大平台２丁目９番１３号,,22,133,4328068,,,,,,,2022-03-18,1,,,,,サクラケイビ,0
1611,7120001244503,新規,0,2022-03-18,2022-03-18,株式会社ＬＩＶＩＡ,,株式会社,大阪府,大阪市北区,堂島浜１丁目４番１８号,,27,127,5300004,,,,,,,2022-03-18,1,,,,,リビア,0
1612,7120001244528,新規,0,2022-03-18,2022-03-18,Ｌａｔｈｅ　ｗｏｒｋｓ株式会社,,株式会社,大阪府,大阪市淀川区,十三東１丁目２０番３－９０３号,,27,123,5320023,,,,,,,2022-03-18,1,,,,,レイズワークス,0
1613,7120001244536,新規,0,2022-03-18,2022-03-18,株式会社７０,,株式会社,大阪府,大阪市北区,豊崎７丁目４番１１－１３０３号,,27,127,5310072,,,,,,,2022-03-18,1,,,,,ナオ,0
1614,7120001244552,新規,0,2022-03-18,2022-03-18,株式会社ＹＯＳＨＩＫＯ　ＢＥＡＵＴＹ,,株式会社,大阪府,大阪市港区,市岡２丁目１番１号ベルハイツＶＩ５０１号,00126007,27,107,5520012,,,,,,,2022-03-18,1,,,,,ヨシコビューティー,0
1615,7120001244577,新規,0,2022-03-18,2022-03-18,株式会社フルコミット,,株式会社,大阪府,大阪市天王寺区,上汐６丁目３－７－２０１,,27,109,5430002,,,,,,,2022-03-18,1,,,,,フルコミット,0
1618,7120003021297,新規,0,2022-03-18,2022-03-18,合同会社豊徳,,合同会社,大阪府,大阪市此花区,伝法３丁目１－１２－７０１,,27,104,5540002,,,,,,,2022-03-18,1,,,,,ホウトク,0
1619,7120003021306,新規,0,2022-03-18,2022-03-18,さくら合同会社,,合同会社,大阪府,大阪市西成区,天下茶屋北１丁目３－１２,,27,122,5570003,,,,,,,2022-03-18,1,,,,,サクラ,0
1633,7130001071351,新規,0,2022-03-18,2022-03-18,株式会社嵯峨コンシェルジュ,,株式会社,京都府,京都市右京区,嵯峨大沢柳井手町２６番地１７,,26,108,6168353,,,,,,,2022-03-18,1,,,,,サガコンシェルジュ,0
1637,7140001125313,新規,0,2022-03-18,2022-03-18,株式会社ＡＦＰＩＴ,,株式会社,兵庫県,川西市,鴬台１丁目１７番地の１２,,28,217,6660133,,,,,,,2022-03-18,1,,,,,アフピット,0
1638,7140001125321,新規,0,2022-03-18,2022-03-18,株式会社Ｍｒｓ．Ｍ,,株式会社,兵庫県,神戸市灘区,友田町１丁目４番１号,,28,102,6570035,,,,,,,2022-03-18,1,,,,,ミセスエム,0
1646,7180001150448,新規,0,2022-03-18,2022-03-18,ＪＳＤ株式会社,,株式会社,愛知県,名古屋市中村区,井深町１６番１１号,,23,105,4530012,,,,,,,2022-03-18,1,,,,,ジェイエスディ,0
1650,7180003023619,新規,0,2022-03-18,2022-03-18,合同会社光英社,,合同会社,愛知県,名古屋市中区,栄３丁目７番４号トーシンサクラビル１０Ｆ,,23,106,4600008,,,,,,,2022-03-18,1,,,,,コウエイシャ,0
1654,7180005019689,新規,0,2022-03-18,2022-03-18,行政書士法人ネクサス,,その他の設立登記法人,愛知県,一宮市,若竹１丁目１２番２号,,23,203,4910832,,,,,,,2022-03-18,1,,,,,ネクサス,0
1666,7240001059476,新規,0,2022-03-18,2022-03-18,ｓｈａｐｅ　ｌｉｎｋ株式会社,,株式会社,広島県,広島市中区,立町５番７号立町Ｇハウス４階Ｃ,,34,101,7300032,,,,,,,2022-03-18,1,,,,,シェイプリンク,0
1672,7250001019462,新規,0,2022-03-18,2022-03-18,株式会社西日本ベジタブル,,株式会社,山口県,宇部市,西平原４丁目４番１号,,35,202,7550808,,,,,,,2022-03-18,1,,,,,ニシニホンベジタブル,0
1687,7290001096861,新規,0,2022-03-18,2022-03-18,株式会社ラフィーク,,株式会社,福岡県,飯塚市,下三緒３３番地９,,40,205,8200012,,,,,,,2022-03-18,1,,,,,ラフィーク,0
1697,7330001029552,新規,0,2022-03-18,2022-03-18,Ｔ＆Ｍ株式会社,,株式会社,熊本県,宇城市,松橋町松橋９８８－５Ｋ店舗,,43,213,8690502,,,,,,,2022-03-18,1,,,,,ティーアンドエム,0
1706,7350003004048,新規,0,2022-03-18,2022-03-18,合同会社横山畜産,,合同会社,宮崎県,延岡市,北川町長井６６４６番地,,45,203,8890102,,,,,,,2022-03-18,1,,,,,ヨコヤマチクサン,0
1707,7360001030136,新規,0,2022-03-18,2022-03-18,株式会社琉球コンシェルジュサービス,,株式会社,沖縄県,国頭郡恩納村,字前兼久５２３番地１１－１００４号,,47,311,9040414,,,,,,,2022-03-18,1,,,,,リュウキュウコンシェルジュサービス,0
1708,7360001030144,新規,0,2022-03-18,2022-03-18,株式会社ビック消防設備,,株式会社,沖縄県,中頭郡読谷村,字大湾５５３番地１,,47,324,9040313,,,,,,,2022-03-18,1,,,,,ビックショウボウセツビ,0
1725,7400003002913,新規,0,2022-03-18,2022-03-18,合同会社Ｃａｓａ,,合同会社,岩手県,盛岡市,東新庄２丁目８番１４号,,03,201,0200805,,,,,,,2022-03-18,1,,,,,カーサ,0
1726,7400005008223,新規,0,2022-03-18,2022-03-18,医療法人恒和会,,その他の設立登記法人,岩手県,花巻市,星が丘１丁目３０番８号,,03,205,0250065,,,,,,,2022-03-18,1,,,,,コウワカイ,0
1730,7430003013726,新規,0,2022-03-18,2022-03-18,合同会社光香浴カブリエ,,合同会社,北海道,札幌市白石区,菊水八条２丁目５番２５号,,01,104,0030808,,,,,,,2022-03-18,1,,,,,コウカヨクカブリエ,0
1732,7430005014417,新規,0,2022-03-18,2022-03-18,医療法人新札幌駅歯科,,その他の設立登記法人,北海道,札幌市厚別区,厚別中央二条５丁目６番３号新さっぽろアークシティ　デュオ２　５階,,01,108,0040052,,,,,,,2022-03-18,1,,,,,シンサッポロエキシカ,0
1735,7700150107006,新規,0,2022-03-18,2022-02-10,日本自然村協会,,その他,栃木県,那須郡那須町,大字富岡５１５－１１,,09,407,3293212,,,,,,,2022-02-10,1,,,,,ニホンシゼンムラキヨウカイ,0
1743,8010001225249,新規,0,2022-03-18,2022-03-18,株式会社承継パートナーズ,,株式会社,東京都,中央区,京橋３丁目１０番１号,,13,102,1040031,,,,,,,2022-03-18,1,,,,,ショウケイパートナーズ,0
1744,8010001225265,新規,0,2022-03-18,2022-03-18,株式会社ＤＯＩ　ＢＵＳＩＮＥＳＳ　ＳＵＰＰＯＲＴ,,株式会社,東京都,中央区,日本橋３丁目２番１４号新槇町ビル別館第一２階,,13,102,1030027,,,,,,,2022-03-18,1,,,,,ドイビジネスサポート,0
1745,8010001225273,新規,0,2022-03-18,2022-03-18,株式会社Ｋ‐ＰＲＯＪＥＣＴ,,株式会社,東京都,文京区,音羽１丁目２６番１３号,,13,105,1120013,,,,,,,2022-03-18,1,,,,,ケイプロジェクト,0
1746,8010001225307,新規,0,2022-03-18,2022-03-18,全管協関東株式会社,,株式会社,東京都,中央区,八重洲１丁目３番７号八重洲ファーストフィナンシャルビル１９階,,13,102,1030028,,,,,,,2022-03-18,1,,,,,ゼンカンキョウカントウ,0
1747,8010001225356,新規,0,2022-03-18,2022-03-18,株式会社Ｍ＆Ａ　Ｓｈｅｒｐａ,,株式会社,東京都,中央区,日本橋茅場町１丁目６番３号ＫＴビル４０４号,,13,102,1030025,,,,,,,2022-03-18,1,,,,,エムアンドエーシェルパ,0
1748,8010001225364,新規,0,2022-03-18,2022-03-18,中日トレード株式会社,,株式会社,東京都,千代田区,東神田３丁目４番１２号,,13,101,1010031,,,,,,,2022-03-18,1,,,,,チュウニチトレード,0
1750,8010003037270,新規,0,2022-03-18,2022-03-18,合同会社Ｎ．Ｔソーラー１,,合同会社,東京都,千代田区,一ツ橋２丁目６番３号アクシスインベストメントアドバイザーズ株式会社内,,13,101,1010003,,,,,,,2022-03-18,1,,,,,,0
1751,8010003037279,新規,0,2022-03-18,2022-03-18,合同会社ｆａｉｔｈ,,合同会社,東京都,文京区,春日２丁目４－５－３０７,,13,105,1120003,,,,,,,2022-03-18,1,,,,,フェイス,0
1752,8010005034745,新規,0,2022-03-18,2022-03-18,ラム１一般社団法人,,その他の設立登記法人,東京都,中央区,日本橋１丁目４番１号日本橋一丁目ビルディング,,13,102,1030027,,,,,,,2022-03-18,1,,,,,ラムイチ,0
1755,8010401166258,新規,0,2022-03-18,2022-03-18,Ｆｕｎｎｙ　Ｆａｃｔｏｒｙ株式会社,,株式会社,東京都,港区,六本木４丁目１番１８号ニュー麻布ビル６Ｆ,,13,103,1060032,,,,,,,2022-03-18,1,,,,,ファニーファクトリー,0
1756,8010401166274,新規,0,2022-03-18,2022-03-18,株式会社ＯＲ　ＮＯＴ,,株式会社,東京都,港区,赤坂１丁目１２番３２号,,13,103,1070052,,,,,,,2022-03-18,1,,,,,オアノット,0
1760,8010403027301,新規,0,2022-03-18,2022-03-18,Ａｓｓｅｔ　Ｓｔｅｅｒｉｎｇ合同会社,,合同会社,東京都,港区,浜松町２丁目２番１５号浜松町ダイヤビル２Ｆ,,13,103,1050013,,,,,,,2022-03-18,1,,,,,アセットステアリング,0
1762,8010501048595,新規,0,2022-03-18,2022-03-18,株式会社登代蔵,,株式会社,東京都,台東区,寿４丁目７番１１号,,13,106,1110042,,,,,,,2022-03-18,1,,,,,トヨゾウ,0
1763,8010501048604,新規,0,2022-03-18,2022-03-18,オリムピックナショナルゴルフクラブサカワコース株式会社,,株式会社,東京都,台東区,東上野２丁目９番１号,,13,106,1100015,,,,,,,2022-03-18,1,,,,,オリムピックナショナルゴルフクラブサカワコース,0
1771,8010703006161,新規,0,2022-03-18,2022-03-18,合同会社ＢＹＳ,,合同会社,東京都,品川区,西五反田５丁目６番１７号,,13,109,1410031,,,,,,,2022-03-18,1,,,,,ビーワイエス,0
1785,8011001146360,新規,0,2022-03-18,2022-03-18,株式会社ファイブブラザーズ,,株式会社,東京都,渋谷区,神宮前３丁目２０番３号,,13,113,1500001,,,,,,,2022-03-18,1,,,,,ファイブブラザーズ,0
1788,8011003014359,新規,0,2022-03-18,2022-03-18,Ｓｔａｎｄ‐Ｕｐ　Ｔｏｋｙｏ合同会社,,合同会社,東京都,渋谷区,道玄坂１丁目５－９ザ・レンガビル３－Ｄ,,13,113,1500043,,,,,,,2022-03-18,1,,,,,スタンダップトウキョウ,0
1789,8011003014400,新規,0,2022-03-18,2022-03-18,合同会社コハクマネージメント,,合同会社,東京都,渋谷区,渋谷２丁目２番１３－１３０２号,,13,113,1500002,,,,,,,2022-03-18,1,,,,,コハクマネージメント,0
1790,8011005009497,新規,0,2022-03-18,2022-03-18,一般社団法人Ａｇｉｌｅ　Ｊａｐａｎ　ＥＸＰＯ,,その他の設立登記法人,東京都,渋谷区,円山町５番５号Ｎａｖｉ渋谷Ｖ３階,,13,113,1500044,,,,,,,2022-03-18,1,,,,,アジャイルジャパンエクスポ,0
1796,8011201023715,新規,0,2022-03-18,2022-03-18,株式会社グローバル・キャリアデザイン,,株式会社,東京都,中野区,中野５丁目３０番１２号,,13,114,1640001,,,,,,,2022-03-18,1,,,,,グローバルキャリアデザイン,0
1797,8011303004349,新規,0,2022-03-18,2022-03-18,９Ｌａｂ合同会社,,合同会社,東京都,杉並区,阿佐谷南１丁目４２番１号,,13,115,1660004,,,,,,,2022-03-18,1,,,,,キューラボ,0
1808,8011803005012,新規,0,2022-03-18,2022-03-18,合同会社サクセス,,合同会社,東京都,葛飾区,東新小岩１丁目７－８,,13,122,1240023,,,,,,,2022-03-18,1,,,,,サクセス,0
1810,8012401038981,新規,0,2022-03-18,2022-03-18,アドレス・ワン株式会社,,株式会社,東京都,三鷹市,下連雀３丁目３９番２号カーサ長谷川１０１,,13,204,1810013,,,,,,,2022-03-18,1,,,,,アドレスワン,0
1814,8012801021463,新規,0,2022-03-18,2022-03-18,株式会社フィールドアッパーズ,,株式会社,東京都,立川市,富士見町５丁目１９番２７号,,13,202,1900013,,,,,,,2022-03-18,1,,,,,フィールドアッパーズ,0
1822,8020001145735,新規,0,2022-03-18,2022-03-18,株式会社甘楽,,株式会社,神奈川県,川崎市川崎区,駅前本町１２－１川崎駅前タワーリバーク２Ｆ,,14,131,2100007,,,,,,,2022-03-18,1,,,,,カンラ,0
1824,8021001075451,新規,0,2022-03-18,2022-03-18,株式会社ＫｉｉＵ,,株式会社,神奈川県,相模原市緑区,川尻１１２６－２,,14,151,2520111,,,,,,,2022-03-18,1,,,,,キーユー,0
1834,8030001147251,新規,0,2022-03-18,2022-03-18,ＵＲＬ株式会社,,株式会社,埼玉県,所沢市,御幸町１番１６号所沢スカイライズタワー２４１０,,11,208,3591115,,,,,,,2022-03-18,1,,,,,ユーアールエル,0
1835,8030001147292,新規,0,2022-03-18,2022-03-18,株式会社未來家,,株式会社,埼玉県,川越市,大字石田１８６番地１０,,11,201,3500837,,,,,,,2022-03-18,1,,,,,ミライエ,0
1836,8030001147318,新規,0,2022-03-18,2022-03-18,株式会社Ｎ　ｃｏｍｐａｎｙ,,株式会社,埼玉県,新座市,西堀１丁目１１番５３号カネフクコーポ６号室,,11,230,3520031,,,,,,,2022-03-18,1,,,,,エヌカンパニー,0
1837,8030001147326,新規,0,2022-03-18,2022-03-18,株式会社Ｙ＆Ｎｇｒｅｅｎ,,株式会社,埼玉県,さいたま市見沼区,大字中川１１４８番地１,,11,104,3370043,,,,,,,2022-03-18,1,,,,,ワイアンドエヌグリーン,0
1850,8040001122625,新規,0,2022-03-18,2022-03-18,株式会社セブンブリッジ,,株式会社,千葉県,八千代市,八千代台東２丁目１４番２６号,,12,221,2760032,,,,,,,2022-03-18,1,,,,,セブンブリッジ,0
1851,8040001122633,新規,0,2022-03-18,2022-03-18,株式会社トライフォース,,株式会社,千葉県,松戸市,六高台９丁目１６７ブラザーマンション湯浅１０３,,12,207,2702203,,,,,,,2022-03-18,1,,,,,トライフォース,0
1858,8040003019704,新規,0,2022-03-18,2022-03-18,合同会社ＡＬＩＶＥ,,合同会社,千葉県,松戸市,根木内１１番１１号３１２,,12,207,2700011,,,,,,,2022-03-18,1,,,,,アライブ,0
1859,8050001050800,新規,0,2022-03-18,2022-03-18,株式会社ａｘｓ,,株式会社,茨城県,神栖市,矢田部７８０８番地,,08,232,3140341,,,,,,,2022-03-18,1,,,,,アクシス,0
1860,8050001050809,新規,0,2022-03-18,2022-03-18,みらい農場株式会社,,株式会社,茨城県,稲敷郡阿見町,大字上長１６４番地４,,08,443,3001154,,,,,,,2022-03-18,1,,,,,ミライノウジョウ,0
1866,8070001039040,新規,0,2022-03-18,2022-03-18,株式会社結．,,株式会社,群馬県,高崎市,吉井町本郷２２９番地１,,10,202,3702128,,,,,,,2022-03-18,1,,,,,ユイドット,0
1889,8120001244502,新規,0,2022-03-18,2022-03-18,株式会社ＮＳＰ,,株式会社,大阪府,交野市,星田５丁目６番２１号,,27,230,5760016,,,,,,,2022-03-18,1,,,,,エヌエスピー,0
1890,8120001244519,新規,0,2022-03-18,2022-03-18,Ｄ‐Ｆｉｒｓｔ株式会社,,株式会社,大阪府,大阪市淀川区,加島３丁目４番２１号,,27,123,5320031,,,,,,,2022-03-18,1,,,,,ディーファースト,0
1891,8120001244551,新規,0,2022-03-18,2022-03-18,株式会社唯壱無Ｎｉｚｍ,,株式会社,大阪府,大阪市中央区,西心斎橋２丁目１３番１８号第２清水町ビル３階,,27,128,5420086,,,,,,,2022-03-18,1,,,,,ユイイツムニズム,0
1892,8120001244576,新規,0,2022-03-18,2022-03-18,Ｈａｒｉｔｉ株式会社,,株式会社,大阪府,枚方市,村野東町５２番３０号,,27,210,5730015,,,,,,,2022-03-18,1,,,,,ハーリティー,0
1896,8120003021271,新規,0,2022-03-18,2022-03-18,イー・マーケティング合同会社,,合同会社,大阪府,大阪市都島区,中野町５丁目１０－１０７－８０５,,27,102,5340027,,,,,,,2022-03-18,1,,,,,イーマーケティング,0
1897,8120003021313,新規,0,2022-03-18,2022-03-18,合同会社ルカトアオカ,,合同会社,大阪府,大阪市城東区,関目６丁目６番６－１００２号リベール関目ルクシィ１００２,,27,118,5360008,,,,,,,2022-03-18,1,,,,,ルカトアオカ,0
1903,8122001035674,新規,0,2022-03-18,2022-03-18,株式会社ＧＯ　ＦＯＲ　ＩＴ,,株式会社,大阪府,東大阪市,稲田本町３丁目１３番２１号,,27,227,5770007,,,,,,,2022-03-18,1,,,,,ゴーフォーイット,0
1905,8130001071375,新規,0,2022-03-18,2022-03-18,ｍｙ　ｔｕｒｎ　ＬＩＦＥ株式会社,,株式会社,京都府,京都市北区,大宮南箱ノ井町１２番地５,,26,101,6038476,,,,,,,2022-03-18,1,,,,,マイターンライフ,0
1907,8130003007815,新規,0,2022-03-18,2022-03-18,合同会社展葉社,,合同会社,京都府,京都市上京区,寺町通今出川上る二丁目鶴山町１５番地１０,,26,102,6020000,,,,,,,2022-03-18,1,,,,,テンヨウシャ,0
1913,8140001125295,新規,0,2022-03-18,2022-03-18,株式会社Ｔｒｕｃｋ　Ｐｒｏ,,株式会社,兵庫県,宝塚市,弥生町３番２号,,28,214,6650826,,,,,,,2022-03-18,1,,,,,トラックプロ,0
1914,8140001125320,新規,0,2022-03-18,2022-03-18,株式会社キャリアポート,,株式会社,兵庫県,神戸市兵庫区,本町１丁目１番２４－３０２号,,28,105,6520834,,,,,,,2022-03-18,1,,,,,キャリアポート,0
1917,8140005026077,新規,0,2022-03-18,2022-03-18,医療法人みなと元町歯科,,その他の設立登記法人,兵庫県,神戸市中央区,元町通５丁目３番１０号岡田ビル１階,,28,110,6500022,,,,,,,2022-03-18,1,,,,,ミナトモトマチシカ,0
1922,8180001150414,新規,0,2022-03-18,2022-03-18,ＨＩＫＡＲＩホールディングス株式会社,,株式会社,愛知県,名古屋市北区,三軒町２６６番地,,23,103,4620004,,,,,,,2022-03-18,1,,,,,ヒカリホールディングス,0
1923,8180001150447,新規,0,2022-03-18,2022-03-18,株式会社クレシア,,株式会社,愛知県,名古屋市東区,泉３丁目１７番１０号泉ビル７０５,,23,102,4610001,,,,,,,2022-03-18,1,,,,,クレシア,0
1924,8180001150471,新規,0,2022-03-18,2022-03-18,株式会社ＦＧＯ,,株式会社,愛知県,半田市,横松上町６４番地,,23,205,4750076,,,,,,,2022-03-18,1,,,,,エフジーオー,0
1931,8190001029236,新規,0,2022-03-18,2022-03-18,株式会社鈴友総合ホールディングス,,株式会社,三重県,鈴鹿市,三日市３丁目２３番１３号,,24,207,5130807,,,,,,,2022-03-18,1,,,,,レイユウソウゴウホールディングス,0
1941,8240001059467,新規,0,2022-03-18,2022-03-18,株式会社ＯＳＲ,,株式会社,広島県,広島市中区,西白島町２２番５８－１６０８号,,34,101,7300005,,,,,,,2022-03-18,1,,,,,オーエスアール,0
1953,8290003012270,新規,0,2022-03-18,2022-03-18,合同会社キタジム＆ほどよく,,合同会社,福岡県,福岡市博多区,美野島１丁目１７番５号寿ビル２階,,40,132,8120017,,,,,,,2022-03-18,1,,,,,キタジムトホドヨク,0
1962,8330001029551,新規,0,2022-03-18,2022-03-18,株式会社ベリエート,,株式会社,熊本県,阿蘇郡西原村,大字小森６１８番地１８,,43,432,8612402,,,,,,,2022-03-18,1,,,,,ベリエート,0
1964,8330003009295,新規,0,2022-03-18,2022-03-18,合同会社ミ・ライズ,,合同会社,熊本県,菊池郡菊陽町,武蔵ヶ丘１丁目６番１０号,,43,404,8691111,,,,,,,2022-03-18,1,,,,,ミライズ,0
1965,8330005010482,新規,0,2022-03-18,2022-03-18,一般社団法人６７８倶楽部,,その他の設立登記法人,熊本県,宇城市,小川町北新田４７９番地４,,43,213,8690631,,,,,,,2022-03-18,1,,,,,ロクナナハチクラブ,0
1982,8430001086228,新規,0,2022-03-18,2022-03-18,株式会社クオンツ,,株式会社,北海道,札幌市北区,麻生町７丁目５番２０号ＨＯＳビル１階,,01,102,0010045,,,,,,,2022-03-18,1,,,,,クオンツ,0
1991,8500003002794,新規,0,2022-03-18,2022-03-18,合同会社大永山ソーラー発電所,,合同会社,愛媛県,新居浜市,大永山８１２番地５１,,38,205,7920847,,,,,,,2022-03-18,1,,,,,,0
2001,9010003037278,新規,0,2022-03-18,2022-03-18,合同会社心のつばさ,,合同会社,東京都,中央区,銀座１丁目１２－４Ｎ＆Ｅ・ＢＬＤ．７階,,13,102,1040061,,,,,,,2022-03-18,1,,,,,ココロノツバサ,0
2002,9010005034744,新規,0,2022-03-18,2022-03-18,一般社団法人経営継続事業推進機構,,その他の設立登記法人,東京都,千代田区,二番町９番地３,,13,101,1020084,,,,,,,2022-03-18,1,,,,,ケイエイケイゾクジギョウスイシンキコウ,0
2008,9010403027300,新規,0,2022-03-18,2022-03-18,合同会社柊羽青,,合同会社,東京都,港区,六本木３丁目３番９－４０３号,,13,103,1060032,,,,,,,2022-03-18,1,,,,,ショウセイ,0
2017,9010703006160,新規,0,2022-03-18,2022-03-18,グッドアース合同会社,,合同会社,東京都,品川区,北品川４丁目８番３３号御殿山ハウス４１８,,13,109,1400001,,,,,,,2022-03-18,1,,,,,グッドアース,0
2023,9010901050530,新規,0,2022-03-18,2022-03-18,株式会社晴コーポレーション,,株式会社,東京都,世田谷区,北烏山２丁目２番１８号ヴェルデ久我山２０３,,13,112,1570061,,,,,,,2022-03-18,1,,,,,ハルコーポレーション,0
2024,9010901050539,新規,0,2022-03-18,2022-03-18,株式会社ＢＵＣＨＩＡＧＥ,,株式会社,東京都,世田谷区,代田５丁目１番２０号ＰＲＩＭＡＶＥＲＡ２０２,,13,112,1550033,,,,,,,2022-03-18,1,,,,,ブチアゲ,0
2030,9011001146319,新規,0,2022-03-18,2022-03-18,株式会社都市開発４号,,株式会社,東京都,渋谷区,恵比寿西１丁目３番１１－５階,,13,113,1500021,,,,,,,2022-03-18,1,,,,,トシカイハツヨンゴウ,0
2031,9011001146368,新規,0,2022-03-18,2022-03-18,株式会社Ｂｒｏｗｎ　Ｓｕｇａｒ,,株式会社,東京都,渋谷区,千駄ヶ谷４丁目１１番９－２０５号,,13,113,1510051,,,,,,,2022-03-18,1,,,,,ブラウンシュガー,0
2032,9011001146384,新規,0,2022-03-18,2022-03-18,株式会社Ｎｅｗ　Ｌｉｆｅ,,株式会社,東京都,渋谷区,恵比寿１丁目８番６号共同ビル３Ｆ,,13,113,1500013,,,,,,,2022-03-18,1,,,,,ニューライフ,0
2033,9011001146392,新規,0,2022-03-18,2022-03-18,株式会社Ａｍｃａｓ,,株式会社,東京都,渋谷区,道玄坂１丁目１０番８号渋谷道玄坂東急ビル２Ｆ－Ｃ,,13,113,1500043,,,,,,,2022-03-18,1,,,,,アムカス,0
2035,9011005009463,新規,0,2022-03-18,2022-03-18,一般社団法人エビス会,,その他の設立登記法人,東京都,目黒区,中町１丁目２３番１５号,,13,110,1530065,,,,,,,2022-03-18,1,,,,,エビスカイ,0
2036,9011005009505,新規,0,2022-03-18,2022-03-18,弁護士法人糸川法律事務所,,その他の設立登記法人,東京都,渋谷区,東１丁目２７番６号ＹＭビル５階,,13,113,1500011,,,,,,,2022-03-18,1,,,,,イトカワホウリツジムショ,0
2039,9011101098204,新規,0,2022-03-18,2022-03-18,株式会社Ｌｉｆｅ　Ａｄｖｅｎｔｕｒｅ,,株式会社,東京都,新宿区,新宿３丁目５番６号キュープラザ新宿三丁目,,13,104,1600022,,,,,,,2022-03-18,1,,,,,ライフアドベンチャー,0
2040,9011101098212,新規,0,2022-03-18,2022-03-18,株式会社Ｃｙｄａｒ,,株式会社,東京都,新宿区,西新宿６丁目１５番１－２７１４号,,13,104,1600023,,,,,,,2022-03-18,1,,,,,シダー,0
2044,9011201023714,新規,0,2022-03-18,2022-03-18,株式会社遥,,株式会社,東京都,中野区,東中野１丁目１４番９号,,13,114,1640003,,,,,,,2022-03-18,1,,,,,ハルカ,0
2048,9011303004348,新規,0,2022-03-18,2022-03-18,合同会社点と線,,合同会社,東京都,杉並区,高円寺北２丁目７番６－１０８号,,13,115,1660002,,,,,,,2022-03-18,1,,,,,,0
2065,9012401038980,新規,0,2022-03-18,2022-03-18,みらいラボ株式会社,,株式会社,東京都,武蔵野市,吉祥寺本町２丁目８番地１０,,13,203,1800004,,,,,,,2022-03-18,1,,,,,ミライラボ,0
2066,9012401038989,新規,0,2022-03-18,2022-03-18,株式会社Ｓ’ｓ　Ｔｈｅｏｒｙ,,株式会社,東京都,府中市,小柳町４丁目１６－６１,,13,206,1830013,,,,,,,2022-03-18,1,,,,,エスズセオリー,0
2070,9013105001795,新規,0,2022-03-18,2022-03-18,医療法人社団則樹会,,その他の設立登記法人,東京都,羽村市,神明台１丁目２２番地１,,13,227,2050023,,,,,,,2022-03-18,1,,,,,ソクジュカイ,0
2085,9020001145718,新規,0,2022-03-18,2022-03-18,ｒｏｄ株式会社,,株式会社,神奈川県,川崎市川崎区,砂子１丁目１０－１,,14,131,2100006,,,,,,,2022-03-18,1,,,,,ロッド,0
2089,9021001075450,新規,0,2022-03-18,2022-03-18,株式会社白熊,,株式会社,神奈川県,藤沢市,藤沢２丁目１番２４～５０３号,,14,205,2510052,,,,,,,2022-03-18,1,,,,,シロクマ,0
2099,9030001147317,新規,0,2022-03-18,2022-03-18,ＯＮＳ株式会社,,株式会社,埼玉県,狭山市,柏原２９３０番地の１１,,11,215,3501335,,,,,,,2022-03-18,1,,,,,オーエヌエス,0
2100,9030003019051,新規,0,2022-03-18,2022-03-18,合同会社ギブワークス,,合同会社,埼玉県,富士見市,関沢２丁目２４番１号メゾン・ド・アンジュＩＩ１０２,00126008,11,235,3540025,,,,,,,2022-03-18,1,,,,,ギブワークス,0
2105,9040001122665,新規,0,2022-03-18,2022-03-18,三晃プランニング株式会社,,株式会社,千葉県,千葉市花見川区,花園３丁目１７番６号,,12,102,2620025,,,,,,,2022-03-18,1,,,,,サンコウプランニング,0
2106,9040001122673,新規,0,2022-03-18,2022-03-18,株式会社メディカルマリン,,株式会社,千葉県,千葉市美浜区,高洲３丁目１５番５棟１３１１号,,12,106,2610004,,,,,,,2022-03-18,1,,,,,メディカルマリン,0
2110,9040003019703,新規,0,2022-03-18,2022-03-18,合同会社ミュアヘッドフィールズ,,合同会社,千葉県,市原市,山口４８８番地１,,12,219,2900558,,,,,,,2022-03-18,1,,,,,ミュアヘッドフィールズ,0
2112,9050001050799,新規,0,2022-03-18,2022-03-18,株式会社お米Ｌａｂ,,株式会社,茨城県,取手市,上萱場９８９番地,,08,217,3001506,,,,,,,2022-03-18,1,,,,,オコメラボ,0
2114,9050005013034,新規,0,2022-03-18,2022-03-18,一般社団法人佐和ワークショップ,,その他の設立登記法人,茨城県,那珂市,後台２６７６番地９,,08,226,3110111,,,,,,,2022-03-18,1,,,,,サワワークショップ,0
2120,9080105006232,新規,0,2022-03-18,2022-03-18,特定非営利活動法人ＦＣ　Ｃａｍｅｌｌｉａ,,その他の設立登記法人,静岡県,伊東市,川奈１３１３番地の３１,,22,208,4140044,,,,,,,2022-03-18,1,,,,,エフシーカメリア,0
2124,9080401025695,新規,0,2022-03-18,2022-03-18,株式会社フリースタイル,,株式会社,静岡県,磐田市,駒場４０４６,,22,211,4380233,,,,,,,2022-03-18,1,,,,,フリースタイル,0
2125,9080403004482,新規,0,2022-03-18,2022-03-18,アイリスワークサポート合同会社,,合同会社,静岡県,浜松市中区,布橋２丁目５番３号,,22,131,4328012,,,,,,,2022-03-18,1,,,,,アイリスワークサポート,0
2135,9120001244550,新規,0,2022-03-18,2022-03-18,株式会社麗音,,株式会社,大阪府,大阪市大正区,三軒家東１丁目１７番１６号,,27,108,5510002,,,,,,,2022-03-18,1,,,,,レオン,0
2136,9120001244567,新規,0,2022-03-18,2022-03-18,株式会社ラプラス,,株式会社,大阪府,寝屋川市,点野１丁目２０番３号,,27,215,5720077,,,,,,,2022-03-18,1,,,,,ラプラス,0
2140,9120003021304,新規,0,2022-03-18,2022-03-18,合同会社ＮｅｘｔＳｔａｇｅ,,合同会社,大阪府,大阪市西区,本田２丁目１２－１４プレミアムコート阿波座ＷＥＳＴ８０３,,27,106,5500022,,,,,,,2022-03-18,1,,,,,ネクストステージ,0
2143,9120101065260,新規,0,2022-03-18,2022-03-18,株式会社ＫＬＳロジスティクス,,株式会社,大阪府,堺市堺区,宿院町東３丁１番１４－２０７号,,27,141,5900955,,,,,,,2022-03-18,1,,,,,ケイエルエスロジスティクス,0
2153,9130001071374,新規,0,2022-03-18,2022-03-18,株式会社マウナ,,株式会社,京都府,京都市西京区,嵐山朝月町２０番地の８,,26,111,6160022,,,,,,,2022-03-18,1,,,,,マウナ,0
2160,9160003002515,新規,0,2022-03-18,2022-03-18,ＦＯＲＴＨ　ＯＮＥ合同会社,,合同会社,滋賀県,大津市,山上町２０番１－１０６号,,25,201,5200038,,,,,,,2022-03-18,1,,,,,フォースワン,0
2162,9170001017019,新規,0,2022-03-18,2022-03-18,株式会社Ｓ．Ｒ．Ｈ,,株式会社,和歌山県,和歌山市,雑賀町８１番地,,30,201,6408108,,,,,,,2022-03-18,1,,,,,エスアールエッチ,0
2172,9180001150446,新規,0,2022-03-18,2022-03-18,株式会社ベルホールディングス,,株式会社,愛知県,名古屋市中区,丸の内２丁目１６番１号,,23,106,4600002,,,,,,,2022-03-18,1,,,,,ベルホールディングス,0
2173,9180001150454,新規,0,2022-03-18,2022-03-18,株式会社きとう,,株式会社,愛知県,名古屋市名東区,高間町１２９番地,,23,115,4650081,,,,,,,2022-03-18,1,,,,,キトウ,0
2174,9180001150462,新規,0,2022-03-18,2022-03-18,グリーンメディカル株式会社,,株式会社,愛知県,名古屋市中川区,柳森町１３０９番地の２,,23,110,4540871,,,,,,,2022-03-18,1,,,,,グリーンメディカル,0
2180,9200003005496,新規,0,2022-03-18,2022-03-18,合同会社ｉｎａｒｉ,,合同会社,岐阜県,高山市,八軒町２丁目４番地,,21,203,5060012,,,,,,,2022-03-18,1,,,,,イナリ,0
2198,9290001096736,新規,0,2022-03-18,2022-03-18,株式会社Ｃｏｗ牛男Ｂｏｙ,,株式会社,福岡県,嘉穂郡桂川町,大字土師４０７１番地１,,40,421,8200607,,,,,,,2022-03-18,1,,,,,カウボーイ,0
2202,9320001018967,新規,0,2022-03-18,2022-03-18,株式会社ＢＳＢ,,株式会社,大分県,別府市,大字鶴見９２番地の１,,44,202,8740840,,,,,,,2022-03-18,1,,,,,ビーエスビー,0
2204,9330001029550,新規,0,2022-03-18,2022-03-18,株式会社まるみ林産,,株式会社,熊本県,菊池郡大津町,大字大津２５５７番地１,,43,403,8691233,,,,,,,2022-03-18,1,,,,,マルミリンサン,0
2206,9330003009294,新規,0,2022-03-18,2022-03-18,合同会社Ｋ‐ＰＯＲＴ,,合同会社,熊本県,熊本市中央区,上通町７－１９,,43,101,8600845,,,,,,,2022-03-18,1,,,,,ケイポート,0
2208,9360001030142,新規,0,2022-03-18,2022-03-18,株式会社モビリティ,,株式会社,沖縄県,中頭郡北谷町,字桑江５３６番地４,,47,326,9040103,,,,,,,2022-03-18,1,,,,,モビリティ,0
2215,9380001032665,新規,0,2022-03-18,2022-03-18,福島工業メンテナンス株式会社,,株式会社,福島県,福島市,山口字町尻９３－３,,07,201,9608202,,,,,,,2022-03-18,1,,,,,フクシマコウギョウメンテナンス,0
2223,9430001086227,新規,0,2022-03-18,2022-03-18,ＲＯＬ株式会社,,株式会社,北海道,札幌市東区,北三十六条東１５丁目３番３号１号,,01,103,0070836,,,,,,,2022-03-18,1,,,,,ロール,0
2224,9430003013724,新規,0,2022-03-18,2022-03-18,合同会社ｍｅｍｅ,,合同会社,北海道,札幌市中央区,南二十条西６丁目５番１－２０１号,,01,101,0640920,,,,,,,2022-03-18,1,,,,,メメ,0
2225,9430005014415,新規,0,2022-03-18,2022-03-18,ＮＰＯ法人よりそい,,その他の設立登記法人,北海道,札幌市中央区,北三条西３丁目１番地２札幌駅前藤井ビル６階,,01,101,0600003,,,,,,,2022-03-18,1,,,,,ヨリソイ,0
2229,9500003002793,新規,0,2022-03-18,2022-03-18,総和合同会社,,合同会社,愛媛県,西条市,飯岡２４８７番地１,,38,206,7930010,,,,,,,2022-03-18,1,,,,,,0
2230,9700150107219,新規,0,2022-03-18,2022-03-01,プラットホーム・キビタキ,,その他,山形県,山形市,五日町７－１８－１０２,,06,201,9900829,,,,,,,2022-03-01,1,,,,,プラツトホームキビタキ,0
