sequenceNumber,corporateNumber,process,correct,updateDate,changeDate,name,nameImageId,kind,prefectureName,cityName,streetNumber,addressImageId,prefectureCode,cityCode,postCode,addressOutside,addressOutsideImageId,closeDate,closeCause,successorCorporateNumber,changeCause,assignmentDate,latest,enName,enPrefectureName,enCityName,enAddressOutside,furigana,hihyoji
7,1010001220578,新規,0,2021-08-23,2021-08-23,ジェイ・ジャパン株式会社,,株式会社,東京都,中央区,銀座１丁目２２番１１号銀座大竹ビジデンス２階,,13,102,1040061,,,,,,,2021-08-23,1,,,,,ジェイジャパン,0
20,1010401162214,新規,0,2021-08-23,2021-08-23,株式会社ＬＡ,,株式会社,東京都,港区,高輪２丁目１４番１９号レグノプレミア高輪３０２,,13,103,1080074,,,,,,,2021-08-23,1,,,,,エルエイ,0
24,1010501047711,新規,0,2021-08-23,2021-08-23,ＴＲＩＣ株式会社,,株式会社,東京都,台東区,東上野１丁目６番７号コージーコート上野御徒町Ⅰ１２０３号室,00123996,13,106,1100015,,,,,,,2021-08-23,1,,,,,トリック,0
26,1010601059821,新規,0,2021-08-23,2021-08-23,株式会社Ｏｆｆｉｃｅｆａｃｔｉｏｎ,,株式会社,東京都,江東区,平野２丁目１６番２０号,,13,108,1350023,,,,,,,2021-08-23,1,,,,,オフィスファクション,0
27,1010601059838,新規,0,2021-08-23,2021-08-23,ＴＥＣＯＰＡＲＫ株式会社,,株式会社,東京都,江東区,木場５丁目１２番５－８０１号,,13,108,1350042,,,,,,,2021-08-23,1,,,,,テコパーク,0
28,1010603009114,新規,0,2021-08-23,2021-08-23,合同会社しゃもじ,,合同会社,東京都,墨田区,東墨田１丁目７番地２号,,13,107,1310042,,,,,,,2021-08-23,1,,,,,シャモジ,0
29,1010701041407,新規,0,2021-08-23,2021-08-23,株式会社ＴＵＲＮＩＮＧ　ＰＯＩＮＴ,,株式会社,東京都,品川区,上大崎３丁目９番９号,,13,109,1410021,,,,,,,2021-08-23,1,,,,,ターニングポイント,0
30,1010703005913,新規,0,2021-08-23,2021-08-23,Ｃｌｏｗｄｅｒ合同会社,,合同会社,東京都,品川区,旗の台１丁目３番９号,,13,109,1420064,,,,,,,2021-08-23,1,,,,,クラウダー,0
32,1010801032248,新規,0,2021-08-23,2021-08-23,かけちま株式会社,,株式会社,東京都,大田区,南馬込６丁目１２番１１号,,13,111,1430025,,,,,,,2021-08-23,1,,,,,カケチマ,0
33,1010803003858,新規,0,2021-08-23,2021-08-23,合同会社ＳＲ　Ｉｎｔｅｒｎａｔｉｏｎａｌ,,合同会社,東京都,大田区,新蒲田３丁目１２番９－２０２号,,13,111,1440054,,,,,,,2021-08-23,1,,,,,エスアールインターナショナル,0
34,1010903006744,新規,0,2021-08-23,2021-08-23,合同会社ワタナベ,,合同会社,東京都,世田谷区,上野毛２丁目２２番４号,,13,112,1580093,,,,,,,2021-08-23,1,,,,,ワタナベ,0
35,1011001015588,新規,0,2021-08-23,2021-08-23,東阪工業株式会社,,株式会社,東京都,渋谷区,桜丘町１７番１０号フジビル３３,,13,113,1500031,,,,,,,2021-08-23,1,,,,,トウハンコウギョウ,0
39,1011001142275,新規,0,2021-08-23,2021-08-23,株式会社ＫＷ夢,,株式会社,東京都,渋谷区,富ヶ谷１丁目１４番１４号４階,,13,113,1510063,,,,,,,2021-08-23,1,,,,,ケーダブリューユメ,0
40,1011001142382,新規,0,2021-08-23,2021-08-23,株式会社スピカテクノロジーズ,,株式会社,東京都,目黒区,駒場３丁目２番２３号ＣＡＳＡＦＯＮＴＡＮＡ－１０１,,13,110,1530041,,,,,,,2021-08-23,1,,,,,スピカテクノロジーズ,0
41,1011001142440,新規,0,2021-08-23,2021-08-23,株式会社ＨＥＨＮ,,株式会社,東京都,渋谷区,神宮前３丁目４０番３号,,13,113,1500001,,,,,,,2021-08-23,1,,,,,ヘーン,0
51,1011403003422,新規,0,2021-08-23,2021-08-23,合同会社Ａｎｏｎｅ,,合同会社,東京都,板橋区,舟渡３丁目５－１－１００４,,13,119,1740041,,,,,,,2021-08-23,1,,,,,アノネ,0
54,1011701024649,新規,0,2021-08-23,2021-08-23,株式会社コンフォリアキャピタル,,株式会社,東京都,江戸川区,西葛西７丁目１番３号レクス８４－１０２,,13,123,1340088,,,,,,,2021-08-23,1,,,,,コンフォリアキャピタル,0
60,1012801021024,新規,0,2021-08-23,2021-08-23,株式会社縁,,株式会社,東京都,昭島市,郷地町２丁目１０番１７号,,13,207,1960032,,,,,,,2021-08-23,1,,,,,エニシ,0
67,1020001142689,新規,0,2021-08-23,2021-08-23,株式会社３Ｓ,,株式会社,神奈川県,川崎市麻生区,万福寺４丁目７番９号,,14,137,2150004,,,,,,,2021-08-23,1,,,,,スリーエス,0
68,1020001142697,新規,0,2021-08-23,2021-08-23,株式会社レヴィンチ,,株式会社,神奈川県,横浜市中区,曙町１丁目１番地７０５,,14,104,2310057,,,,,,,2021-08-23,1,,,,,レヴィンチ,0
69,1020001142706,新規,0,2021-08-23,2021-08-23,株式会社Ｅｓｓｅｎ,,株式会社,神奈川県,川崎市中原区,木月１丁目３２番３号,,14,133,2110025,,,,,,,2021-08-23,1,,,,,エッセン,0
74,1021001073718,新規,0,2021-08-23,2021-08-23,Ｇｏｎ　Ｅａｒｔｈ株式会社,,株式会社,神奈川県,足柄上郡山北町,岸３２９番地８,,14,364,2580112,,,,,,,2021-08-23,1,,,,,ゴンアース,0
75,1021001073726,新規,0,2021-08-23,2021-08-23,プラチナとき株式会社,,株式会社,神奈川県,横須賀市,長坂３丁目１３番２０号,,14,201,2400101,,,,,,,2021-08-23,1,,,,,プラチナトキ,0
81,1030001143918,新規,0,2021-08-23,2021-08-23,さどや株式会社,,株式会社,埼玉県,さいたま市大宮区,三橋２丁目４８９番地,,11,103,3300856,,,,,,,2021-08-23,1,,,,,サドヤ,0
82,1030001143926,新規,0,2021-08-23,2021-08-23,バイザン株式会社,,株式会社,埼玉県,川口市,西青木３丁目１２番１０号,,11,203,3320035,,,,,,,2021-08-23,1,,,,,バイザン,0
84,1030005020485,新規,0,2021-08-23,2021-08-23,一般社団法人とまり木の会,,その他の設立登記法人,埼玉県,富士見市,大字鶴馬２６０５番地１０,,11,235,3540021,,,,,,,2021-08-23,1,,,,,トマリキノカイ,0
93,1040001119867,新規,0,2021-08-23,2021-08-23,株式会社旭紙工一成田,,株式会社,千葉県,山武市,成東２３４１番地６,,12,237,2891326,,,,,,,2021-08-23,1,,,,,アサヒシコウイチナリタ,0
95,1040003018365,新規,0,2021-08-23,2021-08-23,合同会社ＧＲＯＷ,,合同会社,千葉県,茂原市,早野２９９６番地,,12,210,2970037,,,,,,,2021-08-23,1,,,,,グロウ,0
97,1050005012919,新規,0,2021-08-23,2021-08-23,特定非営利活動法人真砂山ＦＵＮクラブ,,その他の設立登記法人,茨城県,那珂郡東海村,大字村松１４０－８,,08,341,3191112,,,,,,,2021-08-23,1,,,,,マサゴヤマファンクラブ,0
103,1080401025281,新規,0,2021-08-23,2021-08-23,株式会社こだまのいえ遠州,,株式会社,静岡県,浜松市南区,三島町１７３２番地の４,,22,134,4300853,,,,,,,2021-08-23,1,,,,,コダマノイエエンシュウ,0
106,1090001017166,新規,0,2021-08-23,2021-08-23,株式会社ＷＡＮｔｏＷＡＮ,,株式会社,山梨県,甲斐市,中下条１２３８番地,,19,210,4000124,,,,,,,2021-08-23,1,,,,,ワンツーワン,0
111,1110001035982,新規,0,2021-08-23,2021-08-23,株式会社オート＆パートナーズ,,株式会社,新潟県,新潟市中央区,川岸町３丁目３３番地２,,15,103,9518133,,,,,,,2021-08-23,1,,,,,オートアンドパートナーズ,0
125,1120001239797,新規,0,2021-08-23,2021-08-23,株式会社ＳＣＨＯＮ　ＤＡＮＫ,,株式会社,大阪府,大阪市西区,京町堀２丁目２番８号５０１,,27,106,5500003,,,,,,,2021-08-23,1,,,,,ショーンダンク,0
126,1120001239863,新規,0,2021-08-23,2021-08-23,ＮＴメタルプラン株式会社,,株式会社,大阪府,大阪市東成区,大今里１丁目３６番１１号,,27,115,5370012,,,,,,,2021-08-23,1,,,,,エヌティーメタルプラン,0
127,1120001239905,新規,0,2021-08-23,2021-08-23,株式会社シャノンクリエイト,,株式会社,大阪府,大阪市東淀川区,豊里１丁目１－７－４０１,,27,114,5330013,,,,,,,2021-08-23,1,,,,,シャノンクリエイト,0
130,1120003020073,新規,0,2021-08-23,2021-08-23,合同会社Ｔｈｅ　Ｗａｙ,,合同会社,大阪府,枚方市,東船橋２丁目３５番地の２,,27,210,5731115,,,,,,,2021-08-23,1,,,,,ザウェイ,0
133,1120901044801,新規,0,2021-08-23,2021-08-23,株式会社Ｂ・Ｗプリント,,株式会社,大阪府,茨木市,星見町１５番３号の３,,27,211,5670843,,,,,,,2021-08-23,1,,,,,ビーダブルプリント,0
138,1130001069962,新規,0,2021-08-23,2021-08-23,大誠建設株式会社,,株式会社,京都府,京都市山科区,四ノ宮行者谷２６番地３３,,26,110,6078021,,,,,,,2021-08-23,1,,,,,タイセイケンセツ,0
152,1140001122778,新規,0,2021-08-23,2021-08-23,株式会社インターナショナル・キャリア・トレーディング,,株式会社,兵庫県,神戸市中央区,浜辺通４丁目１番２３－８２５号,,28,110,6510083,,,,,,,2021-08-23,1,,,,,インターナショナルキャリアトレーディング,0
161,1150003002465,新規,0,2021-08-23,2021-08-23,サンライズ合同会社,,合同会社,奈良県,吉野郡大淀町,大字北野１１－１０,,29,442,6393125,,,,,,,2021-08-23,1,,,,,サンライズ,0
173,1180001147508,新規,0,2021-08-23,2021-08-23,株式会社Ｙ＆Ｋ,,株式会社,愛知県,一宮市,祐久字北野黒１４７番地,,23,203,4940017,,,,,,,2021-08-23,1,,,,,ワイアンドケー,0
174,1180001147516,新規,0,2021-08-23,2021-08-23,株式会社オンサイト・サポーターズ,,株式会社,愛知県,愛知郡東郷町,兵庫１丁目８番地９,,23,302,4700166,,,,,,,2021-08-23,1,,,,,オンサイトサポーターズ,0
178,1190003003749,新規,0,2021-08-23,2021-08-23,Ａｗａｔｌｙ合同会社,,合同会社,三重県,度会郡大紀町,野原２８０９番地４,,24,471,5192731,,,,,,,2021-08-23,1,,,,,アワットリー,0
195,1240001058467,新規,0,2021-08-23,2021-08-23,ＮＣ株式会社,,株式会社,広島県,福山市,昭和町６番１号ＮＯＱＵＯＩ,,34,207,7200808,,,,,,,2021-08-23,1,,,,,エヌシー,0
196,1240001058475,新規,0,2021-08-23,2021-08-23,株式会社Ｏｄａ　Ｄｅｓｉｇｎ　Ｏｆｆｉｃｅ,,株式会社,広島県,広島市安芸区,瀬野１丁目４２番２５号,,34,107,7390311,,,,,,,2021-08-23,1,,,,,オダデザインオフィス,0
198,1240003005252,新規,0,2021-08-23,2021-08-23,ディーエスケー合同会社,,合同会社,広島県,福山市,野上町１丁目５番５号岡崎マンション４０２,,34,207,7200815,,,,,,,2021-08-23,1,,,,,ディーエスケー,0
201,1240005015258,新規,0,2021-08-23,2021-08-23,一般社団法人ＪＢＷＡ．,,その他の設立登記法人,広島県,広島市安佐北区,可部８丁目１２番１５号,,34,106,7310221,,,,,,,2021-08-23,1,,,,,ジェイビーダブルエードット,0
204,1260001035885,新規,0,2021-08-23,2021-08-23,株式会社ＮＯＡ,,株式会社,岡山県,倉敷市,川入６１８番地１オータムヒル３Ａ－１０３,,33,202,7100811,,,,,,,2021-08-23,1,,,,,ノア,0
213,1290001094301,新規,0,2021-08-23,2021-08-23,株式会社筑豊機工,,株式会社,福岡県,飯塚市,菰田西２丁目２番３１号,,40,205,8200017,,,,,,,2021-08-23,1,,,,,チクホウキコウ,0
214,1290001094367,新規,0,2021-08-23,2021-08-23,春日建設株式会社,,株式会社,福岡県,春日市,春日原北町３丁目２３番地,,40,218,8160802,,,,,,,2021-08-23,1,,,,,カスガケンセツ,0
219,1290005018322,新規,0,2021-08-23,2021-08-23,一般社団法人大転子調整協会,,その他の設立登記法人,福岡県,福岡市南区,中尾３丁目３０－１８,,40,134,8111364,,,,,,,2021-08-23,1,,,,,ダイテンシチョウセイキョウカイ,0
221,1290801027724,新規,0,2021-08-23,2021-08-23,株式会社清水,,株式会社,福岡県,北九州市八幡西区,黒崎１丁目９番９号三角公園ニアビル１階,,40,109,8060021,,,,,,,2021-08-23,1,,,,,シミズ,0
231,1330003009013,新規,0,2021-08-23,2021-08-23,合同会社やまあい村,,合同会社,熊本県,菊池市,原２２７０番地３０,,43,210,8611441,,,,,,,2021-08-23,1,,,,,ヤマアイムラ,0
233,1340001024038,新規,0,2021-08-23,2021-08-23,株式会社ＨＯＯＤ,,株式会社,鹿児島県,鹿児島市,新屋敷町２３－２０グリーンコーポカモメ１Ｆ,,46,201,8920838,,,,,,,2021-08-23,1,,,,,フッド,0
238,1370003005363,新規,0,2021-08-23,2021-08-23,合同会社未来カンパニー,,合同会社,宮城県,仙台市青葉区,梅田町５番１６－３０９,,04,101,9800005,,,,,,,2021-08-23,1,,,,,ミライカンパニー,0
244,1380001032136,新規,0,2021-08-23,2021-08-23,株式会社ジョイキャス,,株式会社,福島県,いわき市,平下平窪中島町５番地の１６,,07,204,9708004,,,,,,,2021-08-23,1,,,,,ジョイキャス,0
245,1410005006421,新規,0,2021-08-23,2021-08-23,農事組合法人ミサワアグリ,,その他の設立登記法人,秋田県,大仙市,土川字杉沢５９番地,,05,212,0192111,,,,,,,2021-08-23,1,,,,,ミサワアグリ,0
247,1430001084782,新規,0,2021-08-23,2021-08-23,アイ・プロパティ株式会社,,株式会社,北海道,札幌市北区,新川三条１２丁目７番１号,,01,102,0010923,,,,,,,2021-08-23,1,,,,,アイプロパティ,0
248,1430001084799,新規,0,2021-08-23,2021-08-23,株式会社アンカー,,株式会社,北海道,札幌市白石区,本通１７丁目南１０番３－１０１号,,01,104,0030026,,,,,,,2021-08-23,1,,,,,アンカー,0
250,1430003013070,新規,0,2021-08-23,2021-08-23,合同会社プレミアムプラスアルファ,,合同会社,北海道,札幌市中央区,南四条西１丁目１３番２号ＮＯ．５ミカエルビル７０１,,01,101,0640804,,,,,,,2021-08-23,1,,,,,プレミアムプラスアルファ,0
256,1500001023634,新規,0,2021-08-23,2021-08-23,愛媛資材株式会社,,株式会社,愛媛県,松山市,福音寺町７０１番地１１,,38,201,7900921,,,,,,,2021-08-23,1,,,,,エヒメシザイ,0
258,1500003002685,新規,0,2021-08-23,2021-08-23,合同会社塩出,,合同会社,愛媛県,西条市,大町１４７１番地１内藤コーポ１－１０１,,38,206,7930030,,,,,,,2021-08-23,1,,,,,シオデ,0
267,2010001220569,新規,0,2021-08-23,2021-08-23,アルテック新電力株式会社,,株式会社,東京都,中央区,入船２丁目１番１号,,13,102,1040042,,,,,,,2021-08-23,1,,,,,アルテックシンデンリョク,0
282,2010405020136,新規,0,2021-08-23,2021-08-23,一般社団法人クスノキ,,その他の設立登記法人,東京都,港区,虎ノ門３丁目２２番１０－２０１号,,13,103,1050001,,,,,,,2021-08-23,1,,,,,クスノキ,0
288,2010701041406,新規,0,2021-08-23,2021-08-23,株式会社ｔｈａｎＸｉ,,株式会社,東京都,品川区,東五反田５丁目２３番４－７０２号,,13,109,1410022,,,,,,,2021-08-23,1,,,,,サンクシィ,0
289,2010703005912,新規,0,2021-08-23,2021-08-23,合同会社Ｉｇｎｉｔｉｏｎ,,合同会社,東京都,品川区,北品川１丁目２２－１６,,13,109,1400001,,,,,,,2021-08-23,1,,,,,イグニッション,0
295,2010901049307,新規,0,2021-08-23,2021-08-23,ムーアイ株式会社,,株式会社,東京都,世田谷区,上祖師谷１丁目４１－５プリミエール烏山１０７,,13,112,1570065,,,,,,,2021-08-23,1,,,,,ムーアイ,0
296,2010901049315,新規,0,2021-08-23,2021-08-23,株式会社プラントプラント,,株式会社,東京都,世田谷区,池尻２丁目７番１２号,,13,112,1540001,,,,,,,2021-08-23,1,,,,,プラントプラント,0
301,2011001142274,新規,0,2021-08-23,2021-08-23,株式会社ＦＬＹＵＳ,,株式会社,東京都,目黒区,目黒１丁目２４番７号,,13,110,1530063,,,,,,,2021-08-23,1,,,,,フライアス,0
302,2011001142398,新規,0,2021-08-23,2021-08-23,株式会社ワークスベイ,,株式会社,東京都,渋谷区,桜丘町２０番１号,,13,113,1500031,,,,,,,2021-08-23,1,,,,,ワークスベイ,0
306,2011101096065,新規,0,2021-08-23,2021-08-23,株式会社東京ＨＧ,,株式会社,東京都,新宿区,新宿５丁目１２番１１号ディナスカーラ新宿５０６,,13,104,1600022,,,,,,,2021-08-23,1,,,,,トウキョウエイチジー,0
310,2011403003421,新規,0,2021-08-23,2021-08-23,合同会社ＢＯＮＥＮＦＡＮＴ,,合同会社,東京都,板橋区,徳丸４丁目３６番３５号,,13,119,1750083,,,,,,,2021-08-23,1,,,,,ボノンファント,0
313,2011601025333,新規,0,2021-08-23,2021-08-23,株式会社パルトネール・ココ,,株式会社,東京都,練馬区,東大泉４丁目２８番１１号,,13,120,1780063,,,,,,,2021-08-23,1,,,,,パルトネールココ,0
314,2011601025341,新規,0,2021-08-23,2021-08-23,株式会社ワイエスエル,,株式会社,東京都,練馬区,関町北３丁目１４番２１号,,13,120,1770051,,,,,,,2021-08-23,1,,,,,ワイエスエル,0
315,2011701024648,新規,0,2021-08-23,2021-08-23,株式会社ｉｌｅｍｏｎ,,株式会社,東京都,江戸川区,南小岩３丁目１番７号,,13,123,1330056,,,,,,,2021-08-23,1,,,,,アイレモン,0
316,2011703002924,新規,0,2021-08-23,2021-08-23,合同会社ＭＳ３,,合同会社,東京都,江戸川区,谷河内２丁目３－２－１２０２,,13,123,1330002,,,,,,,2021-08-23,1,,,,,エムエススリー,0
319,2011801039604,新規,0,2021-08-23,2021-08-23,株式会社ひなが調剤薬局,,株式会社,東京都,葛飾区,西新小岩４丁目１６番９号,,13,122,1240025,,,,,,,2021-08-23,1,,,,,ヒナガチョウザイヤッキョク,0
320,2011803004746,新規,0,2021-08-23,2021-08-23,合同会社Ｇｏｄｗｏｒｋｓ,,合同会社,東京都,葛飾区,新宿３丁目２９－１４パレノーブル新宿第一２０５,,13,122,1250051,,,,,,,2021-08-23,1,,,,,,0
321,2012301012654,新規,0,2021-08-23,2021-08-23,雄杉工業株式会社,,株式会社,東京都,町田市,中町１丁目１１番８－５０３号,,13,209,1940021,,,,,,,2021-08-23,1,,,,,オスギコウギョウ,0
338,2020001142696,新規,0,2021-08-23,2021-08-23,ＭＡＤＡＲＵ株式会社,,株式会社,神奈川県,川崎市中原区,宮内２丁目３１番１３－２０２号,,14,133,2110051,,,,,,,2021-08-23,1,,,,,マダル,0
339,2020001142705,新規,0,2021-08-23,2021-08-23,横浜泉企画株式会社,,株式会社,神奈川県,横浜市西区,北幸１丁目１１番１号水信ビル７階,,14,103,2200004,,,,,,,2021-08-23,1,,,,,ヨコハマイズミキカク,0
346,2021001073717,新規,0,2021-08-23,2021-08-23,株式会社ＹＳカンパニー,,株式会社,神奈川県,平塚市,黒部丘６番１９－２０２号,,14,203,2540821,,,,,,,2021-08-23,1,,,,,ワイエスカンパニー,0
347,2021001073725,新規,0,2021-08-23,2021-08-23,株式会社Ｃｈｉｔａ　Ｃｒｅａｔｉｏｎ,,株式会社,神奈川県,横須賀市,佐原４丁目１番１８号ヴァンハウス北久里浜２０５号,,14,201,2390835,,,,,,,2021-08-23,1,,,,,チタクリエイション,0
352,2030001143909,新規,0,2021-08-23,2021-08-23,株式会社イアズ・リテールサービス,,株式会社,埼玉県,朝霞市,浜崎４丁目７番５５号,,11,227,3510033,,,,,,,2021-08-23,1,,,,,イアズリテールサービス,0
353,2030001143917,新規,0,2021-08-23,2021-08-23,光晴土地開発株式会社,,株式会社,埼玉県,さいたま市南区,白幡１丁目９番１５号,,11,108,3360022,,,,,,,2021-08-23,1,,,,,コウセイトチカイハツ,0
356,2030003017813,新規,0,2021-08-23,2021-08-23,鑫穎合同会社,00123995,合同会社,埼玉県,さいたま市浦和区,北浦和４丁目７番７号,,11,107,3300074,,,,,,,2021-08-23,1,,,,,シンエイ,0
365,2050001049732,新規,0,2021-08-23,2021-08-23,ＨＥＩＷＡ　ＳＨＯＫＡＩ株式会社,,株式会社,茨城県,猿島郡境町,１１５５番地２４レットパーク１０１,,08,546,3060433,,,,,,,2021-08-23,1,,,,,ヘイワショウカイ,0
369,2060001034015,新規,0,2021-08-23,2021-08-23,株式会社アグリバンク,,株式会社,栃木県,足利市,今福町４５５番地７,,09,202,3260842,,,,,,,2021-08-23,1,,,,,アグリバンク,0
372,2060003003785,新規,0,2021-08-23,2021-08-23,Ｈａｌｕ合同会社,,合同会社,栃木県,宇都宮市,若松原３丁目１６番１８号,,09,201,3210139,,,,,,,2021-08-23,1,,,,,ハル,0
376,2070003004205,新規,0,2021-08-23,2021-08-23,合同会社こくう,,合同会社,群馬県,高崎市,下滝町６３－５,,10,202,3700026,,,,,,,2021-08-23,1,,,,,コクー,0
380,2110001035981,新規,0,2021-08-23,2021-08-23,株式会社新潟ＢＩＯＰＡ,,株式会社,新潟県,長岡市,宝４丁目２番地２５,,15,202,9400016,,,,,,,2021-08-23,1,,,,,ニイガタビオパ,0
386,2120001239722,新規,0,2021-08-23,2021-08-23,紅杉株式会社,,株式会社,大阪府,大阪市北区,角田町８番４７号阪急グランドビル２０階,,27,127,5300017,,,,,,,2021-08-23,1,,,,,ベニスギ,0
387,2120001239854,新規,0,2021-08-23,2021-08-23,株式会社トラスト,,株式会社,大阪府,寝屋川市,河北中町２１番４号,,27,215,5720816,,,,,,,2021-08-23,1,,,,,トラスト,0
388,2120001239895,新規,0,2021-08-23,2021-08-23,株式会社大喜建物管理,,株式会社,大阪府,大阪市西区,新町２丁目１１番９号,,27,106,5500013,,,,,,,2021-08-23,1,,,,,ダイキタテモノカンリ,0
404,2130001069961,新規,0,2021-08-23,2021-08-23,株式会社コーンズ,,株式会社,京都府,京都市南区,吉祥院向田東町９番地,,26,107,6018308,,,,,,,2021-08-23,1,,,,,コーンズ,0
406,2130003007432,新規,0,2021-08-23,2021-08-23,合同会社マルトク,,合同会社,京都府,福知山市,字正明寺４００番地の６,,26,201,6200936,,,,,,,2021-08-23,1,,,,,マルトク,0
413,2140001122744,新規,0,2021-08-23,2021-08-23,株式会社ｅｃｏＲ,,株式会社,兵庫県,神戸市垂水区,南多聞台６丁目１０番３号,,28,108,6550043,,,,,,,2021-08-23,1,,,,,エコアール,0
414,2140001122777,新規,0,2021-08-23,2021-08-23,ＢＳ神戸コンサルタント株式会社,,株式会社,兵庫県,神戸市中央区,琴ノ緒町４丁目４番５号,,28,110,6510094,,,,,,,2021-08-23,1,,,,,ビーエスコウベコンサルタント,0
415,2140001122793,新規,0,2021-08-23,2021-08-23,株式会社スポーツセラピューティクス,,株式会社,兵庫県,芦屋市,奥池南町２２番１１号,,28,206,6590004,,,,,,,2021-08-23,1,,,,,スポーツセラピューティクス,0
427,2170001016729,新規,0,2021-08-23,2021-08-23,株式会社Ｐｏｎｏ　Ｍｕｋａｅ,,株式会社,和歌山県,伊都郡かつらぎ町,大字下天野１０８番地,,30,341,6497142,,,,,,,2021-08-23,1,,,,,ポノムカエ,0
441,2180001147507,新規,0,2021-08-23,2021-08-23,株式会社ライテック,,株式会社,愛知県,名古屋市中川区,東中島町２丁目３４番地の２,,23,110,4540866,,,,,,,2021-08-23,1,,,,,ライテック,0
442,2180001147515,新規,0,2021-08-23,2021-08-23,レボティメットホーム株式会社,,株式会社,愛知県,名古屋市名東区,本郷２丁目１７３番地の４,,23,115,4650024,,,,,,,2021-08-23,1,,,,,レボティメットホーム,0
456,2210003001402,新規,0,2021-08-23,2021-08-23,ｕｓ合同会社,,合同会社,福井県,福井市,栄町７の２３番地,,18,201,9100151,,,,,,,2021-08-23,1,,,,,アス,0
460,2240003005251,新規,0,2021-08-23,2021-08-23,合同会社山本事務所,,合同会社,広島県,尾道市,西御所町１４番１５号,,34,205,7220037,,,,,,,2021-08-23,1,,,,,ヤマモトジムショ,0
462,2240005015257,新規,0,2021-08-23,2021-08-23,一般社団法人龍の背中,,その他の設立登記法人,広島県,尾道市,因島三庄町４４７番地１,,34,205,7222322,,,,,,,2021-08-23,1,,,,,リュウノセナカ,0
467,2270003001339,新規,0,2021-08-23,2021-08-23,サンライズ合同会社,,合同会社,鳥取県,鳥取市,正蓮寺１２６番地１３,,31,201,6800854,,,,,,,2021-08-23,1,,,,,サンライズ,0
486,2290801027731,新規,0,2021-08-23,2021-08-23,株式会社アースマネジメント,,株式会社,福岡県,北九州市小倉北区,堺町１丁目９番１０号６Ｆ,,40,106,8020005,,,,,,,2021-08-23,1,,,,,アースマネジメント,0
494,2320003003602,新規,0,2021-08-23,2021-08-23,合同会社ＳＵＭＩＳＡＮ,,合同会社,大分県,佐伯市,弥生大字平井７８１,,44,205,8760123,,,,,,,2021-08-23,1,,,,,スミサン,0
496,2330001028922,新規,0,2021-08-23,2021-08-23,株式会社コンチネンタルフラワーズ,,株式会社,熊本県,玉名郡和水町,竃門１８６７番地２,,43,369,8650100,,,,,,,2021-08-23,1,,,,,コンチネンタルフラワーズ,0
497,2330001028930,新規,0,2021-08-23,2021-08-23,株式会社清永塗装,,株式会社,熊本県,熊本市東区,小山町１６６５番地１４ありえすエイＡ棟,,43,102,8618030,,,,,,,2021-08-23,1,,,,,キヨナガトソウ,0
502,2340001024037,新規,0,2021-08-23,2021-08-23,株式会社くるみ,,株式会社,鹿児島県,鹿児島市,清和４丁目１番１号,,46,201,8910109,,,,,,,2021-08-23,1,,,,,クルミ,0
512,2380001032135,新規,0,2021-08-23,2021-08-23,株式会社Ｒｅ．,,株式会社,福島県,福島市,本内字南河原６番地の１,,07,201,9600103,,,,,,,2021-08-23,1,,,,,アールイー,0
538,2500001023633,新規,0,2021-08-23,2021-08-23,株式会社ＫｏｆＣ,,株式会社,愛媛県,新居浜市,久保田町１丁目３番４１号,,38,205,7920026,,,,,,,2021-08-23,1,,,,,ケーオフシー,0
540,2700150104503,新規,0,2021-08-23,2021-08-23,Ｓｕｓｈａｎ　Ｅｎｔｅｒｐｒｉｓｅｓ　Ｌｔｄ．,,外国会社等,茨城県,神栖市,須田字豊住４３９９番２,,08,232,3140253,スリランカ民主社会主義共和国ゴナペーナワーラ、本通り、チャミンダ・フード・キャビン,,,,,,2021-08-23,1,,,,,スシヤーンエンタープライゼスリミテツド,0
554,3010001220295,新規,0,2021-08-23,2021-08-23,世龍商事株式会社,,株式会社,東京都,千代田区,神田駿河台２丁目１－１９,,13,101,1010062,,,,,,,2021-08-23,1,,,,,セリュウショウジ,0
555,3010001220584,新規,0,2021-08-23,2021-08-23,日本春木ユーピン食品株式会社,,株式会社,東京都,中央区,東日本橋２丁目２８番５号５０８,,13,102,1030004,,,,,,,2021-08-23,1,,,,,ニホンハルキユーピン,0
559,3010003035667,新規,0,2021-08-23,2021-08-23,ＡＭＢＥＲ合同会社,,合同会社,東京都,中央区,勝どき３丁目２番３－４０８号,,13,102,1040054,,,,,,,2021-08-23,1,,,,,アンバー,0
568,3010401162162,新規,0,2021-08-23,2021-08-23,株式会社Ｃｏｒｉｇ,,株式会社,東京都,港区,六本木７丁目１４番２３号,,13,103,1060032,,,,,,,2021-08-23,1,,,,,コリッグ,0
576,3010601059828,新規,0,2021-08-23,2021-08-23,株式会社ＡＣＧ,,株式会社,東京都,墨田区,石原１丁目２９番１５号,,13,107,1300011,,,,,,,2021-08-23,1,,,,,エーシージー,0
590,3010901049297,新規,0,2021-08-23,2021-08-23,株式会社ＰＩＮＥ　ＰｌａｎｎｉｎｇＰｒｏｐｅｒｔｙ,,株式会社,東京都,世田谷区,経堂３丁目１６番２号,,13,112,1560052,,,,,,,2021-08-23,1,,,,,パインプランニングプロパティ,0
591,3010903006742,新規,0,2021-08-23,2021-08-23,合同会社ケント企画,,合同会社,東京都,世田谷区,用賀３丁目１９番１３号,,13,112,1580097,,,,,,,2021-08-23,1,,,,,ケントキカク,0
595,3011001142265,新規,0,2021-08-23,2021-08-23,株式会社森岡会計総合研究所,,株式会社,東京都,渋谷区,上原３丁目１５－１２,,13,113,1510064,,,,,,,2021-08-23,1,,,,,モリオカカイケイソウゴウケンキュウショ,0
607,3011303004139,新規,0,2021-08-23,2021-08-23,合同会社パイン,,合同会社,東京都,杉並区,荻窪４丁目２２－１,,13,115,1670051,,,,,,,2021-08-23,1,,,,,パイン,0
630,3020001142695,新規,0,2021-08-23,2021-08-23,株式会社ＴＡＳリアルエステート,,株式会社,神奈川県,横浜市磯子区,滝頭２丁目３２番６－２号,,14,107,2350012,,,,,,,2021-08-23,1,,,,,ティーエーエスリアルエステート,0
631,3020001142704,新規,0,2021-08-23,2021-08-23,株式会社優色,,株式会社,神奈川県,川崎市高津区,久地１丁目１３番３４－３０３号,,14,134,2130032,,,,,,,2021-08-23,1,,,,,ユウイロ,0
637,3020003020362,新規,0,2021-08-23,2021-08-23,合同会社Ｋｅ商会,,合同会社,神奈川県,横浜市鶴見区,豊岡町２０番９号サンコーポ豊岡２０５,,14,101,2300062,,,,,,,2021-08-23,1,,,,,,0
647,3030001143908,新規,0,2021-08-23,2021-08-23,株式会社高田設備工業,00123985,株式会社,埼玉県,越谷市,東大沢４丁目１８番地１７,,11,222,3430022,,,,,,,2021-08-23,1,,,,,タカダセツビコウギョウ,0
648,3030001143916,新規,0,2021-08-23,2021-08-23,株式会社シニアサポート結,,株式会社,埼玉県,春日部市,八丁目９９２番地１－６０６,,11,214,3440006,,,,,,,2021-08-23,1,,,,,シニアサポートユイ,0
652,3030003017812,新規,0,2021-08-23,2021-08-23,合同会社エスエルエス,,合同会社,埼玉県,鴻巣市,松原３丁目１番８号,,11,217,3650042,,,,,,,2021-08-23,1,,,,,エスエルエス,0
654,3040001003078,新規,0,2021-08-23,2021-08-23,株式会社シンセイ,,株式会社,千葉県,千葉市花見川区,南花園２丁目２番１７号,,12,102,2620022,,,,,,,2021-08-23,1,,,,,シンセイ,0
659,3040003018363,新規,0,2021-08-23,2021-08-23,エムグレイス合同会社,,合同会社,千葉県,柏市,若柴１７３番地８柏の葉キャンパス１５１街区Ｅ－２０３,,12,217,2770871,,,,,,,2021-08-23,1,,,,,エムグレイス,0
671,3060003003784,新規,0,2021-08-23,2021-08-23,合同会社ＧＡＬＡＸＹ　ＥＸＰＲＥＳＳ,,合同会社,栃木県,芳賀郡益子町,大字芦沼７８番地,,09,342,3214102,,,,,,,2021-08-23,1,,,,,ギャラクシーエクスプレス,0
675,3070003004204,新規,0,2021-08-23,2021-08-23,合同会社Ｚ計画,,合同会社,群馬県,佐波郡玉村町,大字板井１４８８番地８メゾンファミール１０５,,10,464,3701135,,,,,,,2021-08-23,1,,,,,ゼットケイカク,0
676,3070005009894,新規,0,2021-08-23,2021-08-23,特定非営利活動法人Ｃｏｎ－Ｔｒａ　Ｃｕｌｔｕｒｅ,,その他の設立登記法人,群馬県,富岡市,七日市８８４番地,,10,210,3702343,,,,,,,2021-08-23,1,,,,,コントラカルチャー,0
679,3080001024392,新規,0,2021-08-23,2021-08-23,株式会社ＳＣ三枝,,株式会社,静岡県,藤枝市,駅前３丁目１４番１号,,22,214,4260034,,,,,,,2021-08-23,1,,,,,エスシーミツエダ,0
688,3090001017164,新規,0,2021-08-23,2021-08-23,株式会社秋山工業,,株式会社,山梨県,甲府市,中町３８番地１,,19,201,4000844,,,,,,,2021-08-23,1,,,,,アキヤマコウギョウ,0
690,3100003006213,新規,0,2021-08-23,2021-08-23,合同会社ポップグリーン,,合同会社,長野県,佐久市,塚原３６２番地２０,00123986,20,217,3850025,,,,,,,2021-08-23,1,,,,,ポップグリーン,0
692,3110001035989,新規,0,2021-08-23,2021-08-23,株式会社パンタレイ,,株式会社,新潟県,長岡市,上富岡町１６０３－１キャンパスインキュベーションオフィス総合研究棟７階７０５室,,15,202,9402137,,,,,,,2021-08-23,1,,,,,パンタレイ,0
719,3120005022454,新規,0,2021-08-23,2021-08-23,一般社団法人即応桜,,その他の設立登記法人,大阪府,大阪市浪速区,日本橋３丁目４番９号,,27,111,5560005,,,,,,,2021-08-23,1,,,,,ソクオウザクラ,0
722,3120101064193,新規,0,2021-08-23,2021-08-23,株式会社メイシー,,株式会社,大阪府,羽曳野市,高鷲８丁目１番２７号,,27,222,5830882,,,,,,,2021-08-23,1,,,,,メイシー,0
729,3122001035101,新規,0,2021-08-23,2021-08-23,株式会社高橋創建,00124002,株式会社,大阪府,東大阪市,西鴻池町１丁目１４番３号,,27,227,5780976,,,,,,,2021-08-23,1,,,,,タカハシソウケン,0
738,3140001122792,新規,0,2021-08-23,2021-08-23,株式会社国際不動産,,株式会社,兵庫県,神戸市長田区,松野通２丁目２番２０号,,28,106,6530841,,,,,,,2021-08-23,1,,,,,コクサイフドウサン,0
744,3140003016646,新規,0,2021-08-23,2021-08-23,ＡＩビジュアルラボ合同会社,,合同会社,兵庫県,宝塚市,売布きよしガ丘２番１３号,,28,214,6650855,,,,,,,2021-08-23,1,,,,,エイアイビジュアルラボ,0
749,3150001024872,新規,0,2021-08-23,2021-08-23,株式会社ジョイントウィン,,株式会社,奈良県,大和高田市,旭南町５番８号,,29,202,6350035,,,,,,,2021-08-23,1,,,,,ジョイントウィン,0
751,3160001023568,新規,0,2021-08-23,2021-08-23,株式会社ウェロフ,,株式会社,滋賀県,草津市,野路東１丁目１番１号,,25,206,5250058,,,,,,,2021-08-23,1,,,,,ウェロフ,0
766,3180001147448,新規,0,2021-08-23,2021-08-23,株式会社ＴＫＳ,,株式会社,愛知県,半田市,緑ケ丘４丁目５番地の１,,23,205,4750002,,,,,,,2021-08-23,1,,,,,ティーケーエス,0
797,3250001019078,新規,0,2021-08-23,2021-08-23,株式会社ＹＯＵＫＯ,,株式会社,山口県,周南市,大神３丁目１２番４０号,,35,215,7460018,,,,,,,2021-08-23,1,,,,,ヨウコ,0
800,3280001008499,新規,0,2021-08-23,2021-08-23,株式会社ダイアナ,,株式会社,島根県,松江市,西津田３丁目５番２６号,,32,201,6900017,,,,,,,2021-08-23,1,,,,,ダイアナ,0
802,3290001094258,新規,0,2021-08-23,2021-08-23,株式会社イーカムグローバルロジスティクス,,株式会社,福岡県,福岡市博多区,東比恵３丁目６番３号,,40,132,8120007,,,,,,,2021-08-23,1,,,,,イーカムグローバルロジスティクス,0
803,3290001094282,新規,0,2021-08-23,2021-08-23,株式会社しんえい総合保険企画,,株式会社,福岡県,福岡市城南区,友泉亭５番５－２０２号,,40,136,8140122,,,,,,,2021-08-23,1,,,,,シンエイソウゴウホケンキカク,0
804,3290001094290,新規,0,2021-08-23,2021-08-23,株式会社日ノ出開発,,株式会社,福岡県,大牟田市,大黒町１丁目１８番地,,40,202,8360006,,,,,,,2021-08-23,1,,,,,ヒノデカイハツ,0
805,3290001094308,新規,0,2021-08-23,2021-08-23,株式会社Ｇ．Ｒ．Ｈホールディングス,,株式会社,福岡県,久留米市,日吉町１２番地３５,,40,203,8300017,,,,,,,2021-08-23,1,,,,,ジーアールエイチホールディングス,0
808,3290003011533,新規,0,2021-08-23,2021-08-23,合同会社Ｅｐｏｗｅｒ,,合同会社,福岡県,久留米市,御井旗崎５丁目２番５,,40,203,8390841,,,,,,,2021-08-23,1,,,,,イーパワー,0
809,3290005018320,新規,0,2021-08-23,2021-08-23,ＮＰＯ法人うきはテック,,その他の設立登記法人,福岡県,うきは市,浮羽町浮羽７５６番地,,40,225,8391402,,,,,,,2021-08-23,1,,,,,ウキハテック,0
813,3290801027722,新規,0,2021-08-23,2021-08-23,ＧＴＰホールディングス株式会社,,株式会社,福岡県,北九州市小倉北区,香春口２丁目１０番８－２０４号,,40,106,8020084,,,,,,,2021-08-23,1,,,,,ジーティーピーホールディングス,0
836,3380003004998,新規,0,2021-08-23,2021-08-23,ＹＧＳ合同会社,,合同会社,福島県,いわき市,内郷高坂町１丁目９０番地の９,,07,204,9738408,,,,,,,2021-08-23,1,,,,,ワイジーエス,0
837,3390001016565,新規,0,2021-08-23,2021-08-23,Ｙ・Ｂグループ株式会社,,株式会社,山形県,山形市,本町２丁目３番１４号,,06,201,9900043,,,,,,,2021-08-23,1,,,,,ワイビーグループ,0
842,3430001084789,新規,0,2021-08-23,2021-08-23,株式会社ＢＥＡＭＩＮＧ,,株式会社,北海道,札幌市中央区,南四条西１３丁目３番１５－３０６号,,01,101,0640804,,,,,,,2021-08-23,1,,,,,ビーミング,0
843,3430005014247,新規,0,2021-08-23,2021-08-23,特定非営利活動法人真駒内花火大会,,その他の設立登記法人,北海道,札幌市白石区,菊水上町三条２丁目５２番２５５（株）アスクゲート内,,01,104,0030813,,,,,,,2021-08-23,1,,,,,マコマナイハナビタイカイ,0
861,4010001220534,新規,0,2021-08-23,2021-08-23,ＭＡＲＭＯ株式会社,,株式会社,東京都,中央区,月島１丁目８番１－３２０１号,,13,102,1040052,,,,,,,2021-08-23,1,,,,,マーモ,0
862,4010001220567,新規,0,2021-08-23,2021-08-23,グリーンアカデミアコンサルティング株式会社,,株式会社,東京都,文京区,白山４丁目３番３号,,13,105,1120001,,,,,,,2021-08-23,1,,,,,グリーンアカデミアコンサルティング,0
869,4010401162228,新規,0,2021-08-23,2021-08-23,株式会社末吉ホールディングス,,株式会社,東京都,港区,芝５丁目３０番１,,13,103,1080014,,,,,,,2021-08-23,1,,,,,スエヨシホールディングス,0
873,4010403025944,新規,0,2021-08-23,2021-08-23,合同会社ＰＨＯＥＮＩＸ,,合同会社,東京都,港区,赤坂１丁目１２番３２号アーク森ビル１３階ＧＣＭアセットマネジメント株式会社内,,13,103,1070052,,,,,,,2021-08-23,1,,,,,フェニックス,0
876,4010501047725,新規,0,2021-08-23,2021-08-23,株式会社香港レストラン・スダイルズ,,株式会社,東京都,台東区,上野５丁目１２－９第三江波戸ビル５０２,,13,106,1100005,,,,,,,2021-08-23,1,,,,,ホンコンレストランスダイルズ,0
882,4010601059827,新規,0,2021-08-23,2021-08-23,株式会社トラスト,,株式会社,東京都,江東区,豊洲３丁目４番２号,,13,108,1350061,,,,,,,2021-08-23,1,,,,,トラスト,0
887,4010701041412,新規,0,2021-08-23,2021-08-23,株式会社Ｂ．Ｈ．Ｙ,,株式会社,東京都,品川区,北品川１丁目１２番９号,,13,109,1400001,,,,,,,2021-08-23,1,,,,,ビーエイチワイ,0
891,4010901049263,新規,0,2021-08-23,2021-08-23,株式会社匯博思,,株式会社,東京都,世田谷区,瀬田２丁目２１番４号－２,,13,112,1580095,,,,,,,2021-08-23,1,,,,,エッチビーエス,0
892,4010903006741,新規,0,2021-08-23,2021-08-23,合同会社石の屋,,合同会社,東京都,世田谷区,用賀３丁目１９番１３号アイコート５０１,,13,112,1580097,,,,,,,2021-08-23,1,,,,,イシノヤ,0
901,4011001142289,新規,0,2021-08-23,2021-08-23,株式会社ビーウィズミュージック,,株式会社,東京都,目黒区,自由が丘２丁目２２番９号,,13,110,1520035,,,,,,,2021-08-23,1,,,,,ビーウィズミュージック,0
902,4011001142405,新規,0,2021-08-23,2021-08-23,株式会社Ｇａｉａ　Ｓｏｕｎｄ　Ｇｒｏｏｖｅ,,株式会社,東京都,渋谷区,恵比寿３丁目３５番１号１０５,,13,113,1500013,,,,,,,2021-08-23,1,,,,,ガイアサウンドグルーブ,0
904,4011003013182,新規,0,2021-08-23,2021-08-23,北村エコノミックセキュリティ合同会社,,合同会社,東京都,目黒区,下目黒４丁目２０番６号目黒三折坂ハイム３０２号,,13,110,1530064,,,,,,,2021-08-23,1,,,,,キタムラエコノミックセキュリティ,0
905,4011003013249,新規,0,2021-08-23,2021-08-23,合同会社ＨＡＭＩ,,合同会社,東京都,渋谷区,代々木３丁目３番１０－３０１号,,13,113,1510053,,,,,,,2021-08-23,1,,,,,ハミ,0
915,4011301027116,新規,0,2021-08-23,2021-08-23,株式会社ＩＮＶＯＸ,,株式会社,東京都,杉並区,永福２丁目１４番１８号ＬｅＣｉｅｌＡｚｕｒⅡ２１０２,00123988,13,115,1680064,,,,,,,2021-08-23,1,,,,,インボックス,0
916,4011303004138,新規,0,2021-08-23,2021-08-23,合同会社Ｃｌｏｓｅ　Ｔｈｅ　Ｌｏｏｐ,,合同会社,東京都,杉並区,成田東４丁目３番２－３３１号,,13,115,1660015,,,,,,,2021-08-23,1,,,,,クローズザループ,0
919,4011701024646,新規,0,2021-08-23,2021-08-23,天空株式会社,,株式会社,東京都,江戸川区,南小岩６丁目２９番１５号大黒ビル２階Ｃ号室,,13,123,1330056,,,,,,,2021-08-23,1,,,,,テンクウ,0
920,4011701024654,新規,0,2021-08-23,2021-08-23,株式会社ＬＯＧＩ,,株式会社,東京都,江戸川区,臨海町４丁目３番１号葛西トラックターミナル１２号棟４階,,13,123,1340086,,,,,,,2021-08-23,1,,,,,ロジ,0
921,4011801039602,新規,0,2021-08-23,2021-08-23,株式会社チカラ,,株式会社,東京都,葛飾区,細田５丁目７番９号,,13,122,1240021,,,,,,,2021-08-23,1,,,,,チカラ,0
923,4012301012660,新規,0,2021-08-23,2021-08-23,株式会社Ｒｅｘｃｅｅｄ,,株式会社,東京都,町田市,玉川学園５丁目２８番２号,,13,209,1940041,,,,,,,2021-08-23,1,,,,,レクシード,0
925,4012401038218,新規,0,2021-08-23,2021-08-23,株式会社ＪｏｂｓＬｉｎｋ,,株式会社,東京都,三鷹市,井の頭２丁目３２番１０－１０１号,,13,204,1810001,,,,,,,2021-08-23,1,,,,,ジョブズリンク,0
932,4013101008700,新規,0,2021-08-23,2021-08-23,株式会社ＫＡＩＡ,,株式会社,東京都,福生市,大字熊川１４９２番地１９（３０３号）,,13,218,1970003,,,,,,,2021-08-23,1,,,,,カイア,0
944,4020001142686,新規,0,2021-08-23,2021-08-23,株式会社ワンアンドオンリー,,株式会社,神奈川県,横浜市青葉区,あざみ野１丁目１７番地８０,,14,117,2250011,,,,,,,2021-08-23,1,,,,,ワンアンドオンリー,0
945,4020001142703,新規,0,2021-08-23,2021-08-23,株式会社ＩＳＫＴ,,株式会社,神奈川県,横浜市港北区,新吉田町４１４１番地,,14,109,2230056,,,,,,,2021-08-23,1,,,,,アイエスケイティ,0
946,4020001142711,新規,0,2021-08-23,2021-08-23,ビギン株式会社,,株式会社,神奈川県,横浜市中区,尾上町４丁目５７番地横浜尾上町ビルディング８階,,14,104,2310015,,,,,,,2021-08-23,1,,,,,ビギン,0
952,4021001073731,新規,0,2021-08-23,2021-08-23,Ｊａｐａｎ　ＳＣ１株式会社,,株式会社,神奈川県,藤沢市,村岡東２丁目２６番地の１,,14,205,2510012,,,,,,,2021-08-23,1,,,,,ジャパンエスシーワン,0
959,4030001143915,新規,0,2021-08-23,2021-08-23,アサカ工業株式会社,,株式会社,埼玉県,朝霞市,大字上内間木１２１番地２５,,11,227,3510001,,,,,,,2021-08-23,1,,,,,アサカコウギョウ,0
960,4030001143923,新規,0,2021-08-23,2021-08-23,株式会社未来計画,,株式会社,埼玉県,上尾市,五番町１８番地２７,,11,219,3620024,,,,,,,2021-08-23,1,,,,,ミライケイカク,0
961,4030001143956,新規,0,2021-08-23,2021-08-23,ファブナード株式会社,,株式会社,埼玉県,新座市,馬場３丁目１－３,,11,230,3520016,,,,,,,2021-08-23,1,,,,,ファブナード,0
964,4030003017786,新規,0,2021-08-23,2021-08-23,合同会社スカイウォーカー,,合同会社,埼玉県,川越市,大字鯨井新田４０番地４アークガーデン１０１号室,,11,201,3500809,,,,,,,2021-08-23,1,,,,,スカイウォーカー,0
965,4030003017811,新規,0,2021-08-23,2021-08-23,合同会社Ｂｒｅｚｚａ,,合同会社,埼玉県,さいたま市見沼区,東大宮５丁目４０番８号コーネル東大宮２０１,,11,104,3370051,,,,,,,2021-08-23,1,,,,,ブレッツァ,0
968,4040001119872,新規,0,2021-08-23,2021-08-23,ＡＭＩＮ株式会社,,株式会社,千葉県,印旛郡酒々井町,馬橋６６９番地８,,12,322,2850914,,,,,,,2021-08-23,1,,,,,アミン,0
979,4060001034013,新規,0,2021-08-23,2021-08-23,株式会社友輝建設,,株式会社,栃木県,栃木市,大宮町１６９３番地１１メゾン・リーヴＢ２０１号室,,09,203,3280011,,,,,,,2021-08-23,1,,,,,ユウキケンセツ,0
985,4070003004203,新規,0,2021-08-23,2021-08-23,合同会社ホットライフ,,合同会社,群馬県,高崎市,下小鳥町３１番地２,,10,202,3700074,,,,,,,2021-08-23,1,,,,,ホットライフ,0
987,4080001024391,新規,0,2021-08-23,2021-08-23,株式会社Ｗｅｌｌｍｏｒｅ,,株式会社,静岡県,静岡市清水区,村松２２００番地の１３,,22,103,4240926,,,,,,,2021-08-23,1,,,,,ウェルモア,0
989,4090003001925,新規,0,2021-08-23,2021-08-23,合同会社石橋事務所,,合同会社,山梨県,甲府市,丸の内２丁目３０番５号,,19,201,4000031,,,,,,,2021-08-23,1,,,,,イシバシジムショ,0
1005,4120001239885,新規,0,2021-08-23,2021-08-23,株式会社ＤＣパートナーズ,,株式会社,大阪府,大阪市北区,芝田２丁目８番１１号,,27,127,5300012,,,,,,,2021-08-23,1,,,,,ディーシーパートナーズ,0
1008,4120003020079,新規,0,2021-08-23,2021-08-23,合同会社ＭＥＺＯＮＧＵＹ,,合同会社,大阪府,守口市,京阪北本通１番２０－４０９号,,27,209,5700094,,,,,,,2021-08-23,1,,,,,メゾンガイ,0
1010,4120101064192,新規,0,2021-08-23,2021-08-23,センターフィールド株式会社,,株式会社,大阪府,泉南郡熊取町,大久保中１丁目１０番３１号,,27,361,5900403,,,,,,,2021-08-23,1,,,,,センターフィールド,0
1014,4120901044798,新規,0,2021-08-23,2021-08-23,株式会社加工専科Ｍ＆Ｉ．Ｓ．Ｓ,,株式会社,大阪府,豊中市,服部南町１丁目５番６－２０５号,,27,203,5610853,,,,,,,2021-08-23,1,,,,,カコウセンカエムアンドアイエスエス,0
1016,4122003002156,新規,0,2021-08-23,2021-08-23,川中Ｈｏｌｄｉｎｇｓ合同会社,,合同会社,大阪府,大東市,御領４丁目３－２,,27,218,5740064,,,,,,,2021-08-23,1,,,,,カワナカホールディングス,0
1018,4130001069951,新規,0,2021-08-23,2021-08-23,株式会社将倫,,株式会社,京都府,京都市左京区,大原野村町１７０番地の１,,26,103,6011247,,,,,,,2021-08-23,1,,,,,ショウリン,0
1019,4130003007422,新規,0,2021-08-23,2021-08-23,九十九合同会社,,合同会社,京都府,長岡京市,開田４丁目８－５,,26,209,6170826,,,,,,,2021-08-23,1,,,,,ツクモ,0
1026,4140001122783,新規,0,2021-08-23,2021-08-23,株式会社風香,,株式会社,兵庫県,豊岡市,出石町宮内１６８番地の２０,,28,209,6680204,,,,,,,2021-08-23,1,,,,,フウカ,0
1040,4180001147447,新規,0,2021-08-23,2021-08-23,アキラ空衛資材株式会社,,株式会社,愛知県,半田市,亀崎高根町７丁目２３５番地,,23,205,4750024,,,,,,,2021-08-23,1,,,,,アキラクウエイシザイ,0
1041,4180001147488,新規,0,2021-08-23,2021-08-23,アロン株式会社,,株式会社,愛知県,名古屋市熱田区,千年１丁目２０番１１号,,23,109,4560054,,,,,,,2021-08-23,1,,,,,アロン,0
1042,4180001147505,新規,0,2021-08-23,2021-08-23,株式会社エルユナ,,株式会社,愛知県,名古屋市中区,栄３丁目２番３号名古屋日興證券ビル４階,,23,106,4600008,,,,,,,2021-08-23,1,,,,,エルユナ,0
1045,4180003022879,新規,0,2021-08-23,2021-08-23,合同会社ＥＱｕａｌ,,合同会社,愛知県,名古屋市中村区,名駅３丁目２３番１６号タキビル２階,,23,105,4500002,,,,,,,2021-08-23,1,,,,,イコール,0
1066,4240001058480,新規,0,2021-08-23,2021-08-23,株式会社ましろ製作所,,株式会社,広島県,広島市中区,西川口町６番１－７０１号,,34,101,7300846,,,,,,,2021-08-23,1,,,,,マシロセイサクショ,0
1076,4260003003656,新規,0,2021-08-23,2021-08-23,合同会社ロカヒ,,合同会社,岡山県,倉敷市,大島６４６番地,,33,202,7100047,,,,,,,2021-08-23,1,,,,,ロカヒ,0
1086,4290001094257,新規,0,2021-08-23,2021-08-23,友木商事株式会社,,株式会社,福岡県,福岡市博多区,金の隈３丁目２番７－３０７号,,40,132,8120863,,,,,,,2021-08-23,1,,,,,トモキショウジ,0
1087,4290001094281,新規,0,2021-08-23,2021-08-23,株式会社ＲＡＩＬＷＡＹ,,株式会社,福岡県,糟屋郡須惠町,大字旅石１１５番地５２２,,40,344,8112221,,,,,,,2021-08-23,1,,,,,レイルウェイ,0
1088,4290001094298,新規,0,2021-08-23,2021-08-23,株式会社ファイブサービス,,株式会社,福岡県,筑紫野市,二日市中央６丁目２番１８号浪花タウン１階１６２号室,,40,217,8180072,,,,,,,2021-08-23,1,,,,,ファイブサービス,0
1089,4290003011540,新規,0,2021-08-23,2021-08-23,ＴＨＥ　ＰＡＴＨ　ＶＮ合同会社,,合同会社,福岡県,福岡市南区,大楠１丁目１番２１号リバーサイド大楠２０３号,,40,134,8150082,,,,,,,2021-08-23,1,,,,,ザパスヴィーエヌ,0
1092,4290803003910,新規,0,2021-08-23,2021-08-23,合同会社ＵＬＵ,,合同会社,福岡県,北九州市八幡西区,陣原１丁目１６番１８号,,40,109,8070821,,,,,,,2021-08-23,1,,,,,ウル,0
1095,4300003001713,新規,0,2021-08-23,2021-08-23,合同会社ＡＩ,,合同会社,佐賀県,小城市,牛津町牛津８１３番地,,41,208,8490303,,,,,,,2021-08-23,1,,,,,アイ,0
1101,4330001028929,新規,0,2021-08-23,2021-08-23,株式会社ＮＯＳＩＤＥ　ＧＲＯＵＰ,,株式会社,熊本県,熊本市中央区,帯山４丁目４５－１ＣＰＫⅡビル３０１号室,00124003,43,101,8620924,,,,,,,2021-08-23,1,,,,,ノーサイドグループ,0
1104,4340001024035,新規,0,2021-08-23,2021-08-23,株式会社ＳＨＩＢＵＳＨＩアグリファーム,,株式会社,鹿児島県,志布志市,志布志町志布志６５番地５,,46,221,8997103,,,,,,,2021-08-23,1,,,,,シブシアグリファーム,0
1112,4380001032141,新規,0,2021-08-23,2021-08-23,株式会社ファーストセキュリティ,,株式会社,福島県,郡山市,喜久田町堀之内字千杯田１０番地の６スターマンション２０１号,,07,203,9630541,,,,,,,2021-08-23,1,,,,,,0
1114,4400001015572,新規,0,2021-08-23,2021-08-23,株式会社北上産業,,株式会社,岩手県,北上市,立花１６地割１２３番地１,,03,206,0240043,,,,,,,2021-08-23,1,,,,,キタカミサンギョウ,0
1116,4410003003558,新規,0,2021-08-23,2021-08-23,合同会社協和農産,,合同会社,秋田県,大仙市,協和上淀川字東町後７６－１８,,05,212,0192413,,,,,,,2021-08-23,1,,,,,,0
1131,5010001220525,新規,0,2021-08-23,2021-08-23,Ａｄｖａｎｃｅｄ　Ｃｌｉｎｉｃａｌ株式会社,,株式会社,東京都,千代田区,丸の内１丁目１１番１号パシフィックセンチュリープレイス丸の内８階・１３階,,13,101,1000005,,,,,,,2021-08-23,1,,,,,アドバンスドクリニカル,0
1132,5010001220608,新規,0,2021-08-23,2021-08-23,株式会社ＥＹＪ,,株式会社,東京都,中央区,日本橋兜町１７番２号,,13,102,1030026,,,,,,,2021-08-23,1,,,,,イーワイジェー,0
1144,5010401162193,新規,0,2021-08-23,2021-08-23,ＡＸＮ株式会社,,株式会社,東京都,港区,虎ノ門４丁目１番２８号虎ノ門タワーズオフィス,,13,103,1050001,,,,,,,2021-08-23,1,,,,,エーエックスエヌ,0
1145,5010401162219,新規,0,2021-08-23,2021-08-23,アカウンティングサポート株式会社,,株式会社,東京都,港区,浜松町１丁目２番８号木村ビル３階,,13,103,1050013,,,,,,,2021-08-23,1,,,,,アカウンティングサポート,0
1147,5010403025943,新規,0,2021-08-23,2021-08-23,合同会社ＣＹＧＮＵＳ,,合同会社,東京都,港区,赤坂１丁目１２番３２号アーク森ビル１３階ＧＣＭアセットマネジメント株式会社内,,13,103,1070052,,,,,,,2021-08-23,1,,,,,シグナス,0
1155,5010601059826,新規,0,2021-08-23,2021-08-23,株式会社ＯＮＥ,,株式会社,東京都,墨田区,東向島２丁目２４番９号,,13,107,1310032,,,,,,,2021-08-23,1,,,,,ワン,0
1158,5010801032252,新規,0,2021-08-23,2021-08-23,ｆｕｎ－ｐｒｏｄｕｃｅ株式会社,,株式会社,東京都,大田区,西馬込１丁目４－７－４０１,,13,111,1430026,,,,,,,2021-08-23,1,,,,,ファンプロデュース,0
1165,5010901049295,新規,0,2021-08-23,2021-08-23,オーケストラ・アドバイザーズ・ジャパン株式会社,,株式会社,東京都,世田谷区,駒沢１丁目２－３３駒沢ガーデンハウスＡ３０４,,13,112,1540012,,,,,,,2021-08-23,1,,,,,オーケストラアドバイザーズジャパン,0
1171,5011001142387,新規,0,2021-08-23,2021-08-23,М２株式会社,,株式会社,東京都,渋谷区,道玄坂１丁目１７番１１号,,13,113,1500043,,,,,,,2021-08-23,1,,,,,エムニ,0
1172,5011001142412,新規,0,2021-08-23,2021-08-23,株式会社グリーン,,株式会社,東京都,渋谷区,恵比寿４丁目２０番３号恵比寿ガーデンプレイスタワー１８階,,13,113,1500013,,,,,,,2021-08-23,1,,,,,グリーン,0
1175,5011003013248,新規,0,2021-08-23,2021-08-23,合同会社ネクステージ,,合同会社,東京都,渋谷区,円山町５番５号Ｎａｖｉ渋谷Ｖ３階,,13,113,1500044,,,,,,,2021-08-23,1,,,,,ネクステージ,0
1178,5011401023617,新規,0,2021-08-23,2021-08-23,株式会社ＧＯＯＤＬＩＦＥ,,株式会社,東京都,板橋区,板橋４丁目４４番２号ハイム大竹３０２号室,,13,119,1730004,,,,,,,2021-08-23,1,,,,,グッドライフ,0
1180,5011405002162,新規,0,2021-08-23,2021-08-23,一般社団法人明石元二郎顕彰会,,その他の設立登記法人,東京都,板橋区,徳丸４丁目１３番３０号,,13,119,1750083,,,,,,,2021-08-23,1,,,,,アカシモトジロウケンショウカイ,0
1186,5011603003375,新規,0,2021-08-23,2021-08-23,合同会社Ｗｉｔｈ　ｐｉ,,合同会社,東京都,練馬区,栄町１１番１４－１０１号,,13,120,1760006,,,,,,,2021-08-23,1,,,,,ウィズピ,0
1190,5011701024645,新規,0,2021-08-23,2021-08-23,株式会社アーキテクチャ,,株式会社,東京都,江戸川区,西一之江４丁目１５－１８,,13,123,1320023,,,,,,,2021-08-23,1,,,,,アーキテクチャ,0
1191,5011701024653,新規,0,2021-08-23,2021-08-23,株式会社コーディスポーツ,,株式会社,東京都,江戸川区,松江７丁目１６番３０－１０５号,,13,123,1320025,,,,,,,2021-08-23,1,,,,,コーディスポーツ,0
1196,5012401038225,新規,0,2021-08-23,2021-08-23,株式会社るーしー,,株式会社,東京都,武蔵野市,境南町１丁目８番１０号ドミネントビル１Ｆ,,13,203,1800023,,,,,,,2021-08-23,1,,,,,ルーシー,0
1198,5012703002291,新規,0,2021-08-23,2021-08-23,合同会社国際医療ソリューションコンサルティング,,合同会社,東京都,東久留米市,氷川台２丁目２３番１１号,,13,222,2030004,,,,,,,2021-08-23,1,,,,,コクサイイリョウソリューションコンサルティング,0
1204,5013301047893,新規,0,2021-08-23,2021-08-23,株式会社ｂｅｓｔ,,株式会社,東京都,豊島区,東池袋１丁目２６番４号サンフラワービル５０７,,13,116,1700013,,,,,,,2021-08-23,1,,,,,ベスト,0
1205,5013303005791,新規,0,2021-08-23,2021-08-23,Ｋｉｎｋｅｄ　Ｔａｉｌ合同会社,,合同会社,東京都,豊島区,南池袋４丁目８－４ｄｅ－Ｚａｙ２０２号室,,13,116,1710022,,,,,,,2021-08-23,1,,,,,キンクドテイル,0
1212,5020001142677,新規,0,2021-08-23,2021-08-23,株式会社Ｚｅａｌ,,株式会社,神奈川県,横浜市中区,不老町１丁目１番１１号,,14,104,2310032,,,,,,,2021-08-23,1,,,,,ジール,0
1213,5020001142702,新規,0,2021-08-23,2021-08-23,株式会社ＴＯＫＩＢＩＳＯＵ,,株式会社,神奈川県,横浜市青葉区,市ケ尾１７２６番地１,,14,117,2270000,,,,,,,2021-08-23,1,,,,,トキビソウ,0
1220,5020003020360,新規,0,2021-08-23,2021-08-23,カシオペヤ合同会社,,合同会社,神奈川県,横浜市青葉区,奈良５丁目２５番地１,,14,117,2270038,,,,,,,2021-08-23,1,,,,,カシオペヤ,0
1222,5021001073730,新規,0,2021-08-23,2021-08-23,株式会社ＢＬＵＥＤＯＧ,,株式会社,神奈川県,座間市,相模が丘４丁目４７番２号,,14,216,2520001,,,,,,,2021-08-23,1,,,,,ブルードッグ,0
1223,5021001073747,新規,0,2021-08-23,2021-08-23,株式会社ＶＩＶＩＢＯＮＤ,,株式会社,神奈川県,茅ヶ崎市,十間坂２丁目４番地１９号ハイツ江南Ｂ１０３,,14,207,2530045,,,,,,,2021-08-23,1,,,,,ヴィヴィボンド,0
1233,5030001143914,新規,0,2021-08-23,2021-08-23,株式会社Ｌｉｌｙ,,株式会社,埼玉県,さいたま市大宮区,桜木町１丁目２６６番地３,,11,103,3300854,,,,,,,2021-08-23,1,,,,,リリー,0
1240,5030003017810,新規,0,2021-08-23,2021-08-23,合同会社太田歯研,,合同会社,埼玉県,朝霞市,膝折町５丁目９番７号,,11,227,3510014,,,,,,,2021-08-23,1,,,,,オオタシケン,0
1241,5030003017819,新規,0,2021-08-23,2021-08-23,合同会社橋本塗装店,,合同会社,埼玉県,狭山市,入間川１４６９番地の３７狭山中平野マンション３０１,,11,215,3501305,,,,,,,2021-08-23,1,,,,,ハシモトトソウテン,0
1249,5040001119863,新規,0,2021-08-23,2021-08-23,株式会社ＴＫホールディングス,,株式会社,千葉県,袖ケ浦市,長浦５８０番地１２２－１,,12,229,2990265,,,,,,,2021-08-23,1,,,,,ティーケイホールディングス,0
1250,5040001119871,新規,0,2021-08-23,2021-08-23,Ｊａｐａｎ　ＮｅｗＳｔａｒ株式会社,,株式会社,千葉県,佐倉市,染井野６丁目１７番地３,,12,212,2850831,,,,,,,2021-08-23,1,,,,,ジャパンニュースター,0
1256,5050001049721,新規,0,2021-08-23,2021-08-23,中澤株式会社,,株式会社,茨城県,守谷市,薬師台３丁目１６番地１２,,08,224,3020105,,,,,,,2021-08-23,1,,,,,ナカザワ,0
1258,5060001034012,新規,0,2021-08-23,2021-08-23,アリスＦａｍｉｌｙ　Ｓｕｐｐｏｒｔ株式会社,,株式会社,栃木県,宇都宮市,簗瀬４丁目１０番４号コーポヤナセ１０５室,,09,201,3210934,,,,,,,2021-08-23,1,,,,,アリスファミリーサポート,0
1262,5080001024390,新規,0,2021-08-23,2021-08-23,株式会社ＴＡ,,株式会社,静岡県,静岡市清水区,中之郷２丁目１６番７号,,22,103,4240888,,,,,,,2021-08-23,1,,,,,ティーエー,0
1274,5110001035987,新規,0,2021-08-23,2021-08-23,株式会社奈月,,株式会社,新潟県,新潟市西区,新通南１丁目５番５号,,15,107,9502038,,,,,,,2021-08-23,1,,,,,ナツキ,0
1290,5120001239868,新規,0,2021-08-23,2021-08-23,ＨＡＲＵＨＯｍｅ株式会社,,株式会社,大阪府,大阪市生野区,田島４丁目１番２７号,,27,116,5440011,,,,,,,2021-08-23,1,,,,,ハルホーム,0
1293,5120003020045,新規,0,2021-08-23,2021-08-23,合同会社ＩＣＩ,,合同会社,大阪府,門真市,上野口町３９番２８号Ｋ・ウェルシー１０２号,,27,223,5710070,,,,,,,2021-08-23,1,,,,,アイシーアイ,0
1294,5120003020078,新規,0,2021-08-23,2021-08-23,ありがとう合同会社,,合同会社,大阪府,大阪市西淀川区,柏里３丁目１２番２９号塚本駅前商店街１号館７号店舗,,27,113,5550022,,,,,,,2021-08-23,1,,,,,アリガトウ,0
1295,5120005022452,新規,0,2021-08-23,2021-08-23,リトラス社会保険労務士法人,,その他の設立登記法人,大阪府,大阪市西区,西本町１丁目７番１号信濃橋ＦＪビル６Ｆ,,27,106,5500005,,,,,,,2021-08-23,1,,,,,リトラスシャカイホケンロウムシホウジン,0
1301,5120901044723,新規,0,2021-08-23,2021-08-23,ＣＥＳ　ＵＰ株式会社,,株式会社,大阪府,高槻市,真上町６丁目１０番１－４１５号,,27,207,5691121,,,,,,,2021-08-23,1,,,,,セスアップ,0
1302,5120901044789,新規,0,2021-08-23,2021-08-23,株式会社Ｌｏｇｉｃａｌ,,株式会社,大阪府,豊中市,曽根東町１丁目２番３号,,27,203,5610802,,,,,,,2021-08-23,1,,,,,ロジカル,0
1305,5130001069959,新規,0,2021-08-23,2021-08-23,株式会社ヘアブランドルーツ,,株式会社,京都府,亀岡市,千代川町千原２丁目３番２５号,,26,206,6210052,,,,,,,2021-08-23,1,,,,,ヘアブランドルーツ,0
1306,5130001069967,新規,0,2021-08-23,2021-08-23,株式会社エリアブランド,,株式会社,京都府,宇治市,広野町尖山１５番地の６,,26,204,6110031,,,,,,,2021-08-23,1,,,,,エリアブランド,0
1319,5140003016660,新規,0,2021-08-23,2021-08-23,合同会社彩,,合同会社,兵庫県,神戸市北区,緑町３丁目１番３０号,,28,109,6511221,,,,,,,2021-08-23,1,,,,,イロドリ,0
1326,5140005025791,新規,0,2021-08-23,2021-08-23,エコ事業協同組合,,その他の設立登記法人,兵庫県,明石市,松の内２丁目１番地８,,28,203,6730016,,,,,,,2021-08-23,1,,,,,エコ,0
1327,5150001024870,新規,0,2021-08-23,2021-08-23,ｋａｉｔｏ株式会社,,株式会社,奈良県,奈良市,学園朝日町３－９シティパレス学園前１０３号室,,29,201,6310016,,,,,,,2021-08-23,1,,,,,カイト,0
1336,5180001147504,新規,0,2021-08-23,2021-08-23,株式会社王子窯,,株式会社,愛知県,瀬戸市,仲洞町４３番地,,23,204,4890833,,,,,,,2021-08-23,1,,,,,オウジガマ,0
1337,5180001147512,新規,0,2021-08-23,2021-08-23,株式会社ＲＡシステム,,株式会社,愛知県,丹羽郡扶桑町,大字高雄字南羽根１９３番地２,,23,362,4800102,,,,,,,2021-08-23,1,,,,,アールエーシステム,0
1338,5180001147529,新規,0,2021-08-23,2021-08-23,株式会社クロスポイント,,株式会社,愛知県,清須市,春日東出７２番地,,23,233,4520961,,,,,,,2021-08-23,1,,,,,クロスポイント,0
1356,5210001018577,新規,0,2021-08-23,2021-08-23,ｔｉｃｋｅｔｉｆｙ株式会社,,株式会社,福井県,坂井市,三国町宿２丁目５－２１,,18,210,9130056,,,,,,,2021-08-23,1,,,,,チケティファイ,0
1369,5240005015254,新規,0,2021-08-23,2021-08-23,ＮＰＯ法人ひろねこポケット・縁,,その他の設立登記法人,広島県,広島市南区,本浦町４１番１３号,,34,103,7340047,,,,,,,2021-08-23,1,,,,,,0
1370,5250001019076,新規,0,2021-08-23,2021-08-23,日漁株式会社,,株式会社,山口県,熊毛郡田布施町,大字波野２１７７番地１５ピースフル２Ｆ,,35,343,7421502,,,,,,,2021-08-23,1,,,,,ニチリョウ,0
1376,5290001094256,新規,0,2021-08-23,2021-08-23,株式会社ＳＵＮＨＡＬＯ,,株式会社,福岡県,福岡市中央区,天神３丁目７番３号２Ｆタワーズ天神,,40,133,8100001,,,,,,,2021-08-23,1,,,,,サンハロー,0
1377,5290001094272,新規,0,2021-08-23,2021-08-23,株式会社ワン・アセット,,株式会社,福岡県,福岡市中央区,荒戸３丁目３番１２号,,40,133,8100062,,,,,,,2021-08-23,1,,,,,ワンアセット,0
1384,5310001017429,新規,0,2021-08-23,2021-08-23,株式会社ジェイピック,,株式会社,長崎県,佐世保市,黒髪町２８番２１号,,42,202,8571152,,,,,,,2021-08-23,1,,,,,ジェイピック,0
1392,5340001024034,新規,0,2021-08-23,2021-08-23,株式会社アマサン,,株式会社,鹿児島県,奄美市,名瀬浦上町５６番地１,,46,222,8940068,,,,,,,2021-08-23,1,,,,,アマサン,0
1405,5430001084770,新規,0,2021-08-23,2021-08-23,株式会社Ｄｅｓｉｇｎ　ｄｕ　Ｋｏｈ,,株式会社,北海道,札幌市中央区,北四条西１６丁目１番地,,01,101,0600004,,,,,,,2021-08-23,1,,,,,デザインドコウ,0
1407,5460001005583,新規,0,2021-08-23,2021-08-23,株式会社ＢＯＷ,,株式会社,北海道,釧路市,新橋大通３丁目２番１５２号エステート新橋大通５０２号室,,01,206,0850046,,,,,,,2021-08-23,1,,,,,ボウ,0
1426,6010001220383,新規,0,2021-08-23,2021-08-23,株式会社ユーレクト,,株式会社,東京都,中央区,銀座１丁目１５番７号ＭＡＣ銀座ビル３階,,13,102,1040061,,,,,,,2021-08-23,1,,,,,ユーレクト,0
1427,6010001220565,新規,0,2021-08-23,2021-08-23,株式会社Ｇｌｅｎチャンネル,,株式会社,東京都,中央区,銀座８丁目６番２０号,,13,102,1040061,,,,,,,2021-08-23,1,,,,,グレンチャンネル,0
1429,6010003035581,新規,0,2021-08-23,2021-08-23,ＡＬＪ　Ｏｆｆｉｃｅ　Ｉｋｅｊｉｒｉ合同会社,,合同会社,東京都,千代田区,神田神保町１丁目１１番地さくら綜合事務所内,,13,101,1010051,,,,,,,2021-08-23,1,,,,,エーエルジェーオフィスイケジリ,0
1430,6010003035656,新規,0,2021-08-23,2021-08-23,合同会社ＳＥＭＳ,,合同会社,東京都,千代田区,神田鍛冶町３丁目５番２号ＫＤＸ鍛冶町ビル８Ｆ,,13,101,1010045,,,,,,,2021-08-23,1,,,,,セムズ,0
1432,6010005033848,新規,0,2021-08-23,2021-08-23,一般社団法人フロンティア美咲,,その他の設立登記法人,東京都,中央区,日本橋１丁目４番１号日本橋一丁目ビルディング,,13,102,1030027,,,,,,,2021-08-23,1,,,,,フロンティアミサキ,0
1434,6010103001756,新規,0,2021-08-23,2021-08-23,フォトランプフィルムズ合同会社,,合同会社,東京都,八王子市,元本郷町４丁目８番１６号Ｔフラッツ５０１号室,,13,201,1920051,,,,,,,2021-08-23,1,,,,,フォトランプフィルムズ,0
1435,6010105002125,新規,0,2021-08-23,2021-08-23,一般社団法人みやま郷,,その他の設立登記法人,東京都,八王子市,美山町２５５０番地,,13,201,1920152,,,,,,,2021-08-23,1,,,,,,0
1438,6010401162201,新規,0,2021-08-23,2021-08-23,神虎株式会社,,株式会社,東京都,港区,新橋５丁目１２番１１－９０２号,,13,103,1050004,,,,,,,2021-08-23,1,,,,,カミトラ,0
1439,6010401162218,新規,0,2021-08-23,2021-08-23,株式会社ＲＥＡＬＲＩＺＥ,,株式会社,東京都,港区,南青山２丁目２番１５号ＷｉｎＡｏｙａｍａビルＵＣＦ６階,,13,103,1070062,,,,,,,2021-08-23,1,,,,,リアライズ,0
1440,6010401162226,新規,0,2021-08-23,2021-08-23,株式会社Ｐｒｅｖｉｏｕｓ　Ｉｓｌａｎｄ,,株式会社,東京都,港区,白金６丁目１６番２５－４０８号グランドメゾン白金の杜ザ・タワー,,13,103,1080072,,,,,,,2021-08-23,1,,,,,プレビアスアイランド,0
1441,6010401162234,新規,0,2021-08-23,2021-08-23,株式会社ＰＯＴＥＮＴＩＡＬ,,株式会社,東京都,港区,南青山２丁目２番１５－９４２号,,13,103,1070062,,,,,,,2021-08-23,1,,,,,ポテンシャル,0
1445,6010403025959,新規,0,2021-08-23,2021-08-23,イソポ資源投資合同会社,,合同会社,東京都,港区,南青山５丁目１２番４号,,13,103,1070062,,,,,,,2021-08-23,1,,,,,イソポシゲントウシ,0
1448,6010501047723,新規,0,2021-08-23,2021-08-23,株式会社セカンドブリッジ,,株式会社,東京都,台東区,東上野４丁目１２番１号,,13,106,1100015,,,,,,,2021-08-23,1,,,,,セカンドブリッジ,0
1458,6010801032251,新規,0,2021-08-23,2021-08-23,ＦＯＲＥＶＥＲ　ＰＬＵＳ株式会社,,株式会社,東京都,大田区,南馬込１丁目４１番８号,,13,111,1430025,,,,,,,2021-08-23,1,,,,,フォーエバープラス,0
1460,6010901049294,新規,0,2021-08-23,2021-08-23,丸猫商事株式会社,,株式会社,東京都,世田谷区,松原６丁目１２番１１号３Ｆ,,13,112,1560043,,,,,,,2021-08-23,1,,,,,マルネコショウジ,0
1475,6011001142361,新規,0,2021-08-23,2021-08-23,株式会社タタタ,,株式会社,東京都,渋谷区,桜丘町２６－１セルリアンタワー１５Ｆ,,13,113,1500031,,,,,,,2021-08-23,1,,,,,タタタ,0
1476,6011001142403,新規,0,2021-08-23,2021-08-23,株式会社ＩＮＦＩＮＡ,,株式会社,東京都,渋谷区,神宮前６丁目２３番４号桑野ビル２階,,13,113,1500001,,,,,,,2021-08-23,1,,,,,インフィナ,0
1482,6011401023616,新規,0,2021-08-23,2021-08-23,株式会社ＳＵＮＲＩＳＥ,,株式会社,東京都,板橋区,高島平７丁目２１番９号グランピュア・Ｓ１階,,13,119,1750082,,,,,,,2021-08-23,1,,,,,サンライズ,0
1492,6013301047901,新規,0,2021-08-23,2021-08-23,株式会社ＷＩＮｘＶＡＬ,,株式会社,東京都,豊島区,南池袋１丁目１６番１５号ダイヤゲート池袋５階,,13,116,1710022,,,,,,,2021-08-23,1,,,,,ウィンバル,0
1494,6020001142692,新規,0,2021-08-23,2021-08-23,ベルパーク株式会社,,株式会社,神奈川県,横浜市中区,本牧町２丁目３８６番地,,14,104,2310806,,,,,,,2021-08-23,1,,,,,ベルパーク,0
1495,6020001142701,新規,0,2021-08-23,2021-08-23,株式会社京都八瀬ホテル,,株式会社,神奈川県,横浜市中区,山下町７４番地１,,14,104,2310023,,,,,,,2021-08-23,1,,,,,キョウトヤセホテル,0
1497,6020003020351,新規,0,2021-08-23,2021-08-23,合同会社ｋａｚｅ,,合同会社,神奈川県,横浜市神奈川区,台町１０－２７コートハイム横浜６０４,,14,102,2210834,,,,,,,2021-08-23,1,,,,,カゼ,0
1505,6021001073721,新規,0,2021-08-23,2021-08-23,株式会社祥武,,株式会社,神奈川県,高座郡寒川町,大曲４丁目８番２４号,,14,321,2530113,,,,,,,2021-08-23,1,,,,,ショウブ,0
1506,6021001073746,新規,0,2021-08-23,2021-08-23,株式会社コトラス,,株式会社,神奈川県,相模原市南区,文京２丁目８番２－５２５号,,14,153,2520307,,,,,,,2021-08-23,1,,,,,コトラス,0
1512,6030001143913,新規,0,2021-08-23,2021-08-23,大木建設株式会社,,株式会社,埼玉県,日高市,大字駒寺野新田１５８番地２,,11,242,3501202,,,,,,,2021-08-23,1,,,,,オオキケンセツ,0
1513,6030001143938,新規,0,2021-08-23,2021-08-23,ＳＡＮＤ　ＢＯＸ株式会社,,株式会社,埼玉県,新座市,野火止２丁目４番１４号,,11,230,3520011,,,,,,,2021-08-23,1,,,,,サンドボックス,0
1517,6040001119887,新規,0,2021-08-23,2021-08-23,株式会社ＹＡＭＡＳＯＢＵ,,株式会社,千葉県,富津市,志駒字奥井沢４３４番地,,12,226,2991745,,,,,,,2021-08-23,1,,,,,ヤマソブ,0
1518,6040001119895,新規,0,2021-08-23,2021-08-23,Ｓｐａｃｅ　Ｔｒａｄｉｎｇ株式会社,,株式会社,千葉県,船橋市,夏見１丁目９番２１－１０７号,,12,204,2730865,,,,,,,2021-08-23,1,,,,,スペーストレーディング,0
1523,6050001049729,新規,0,2021-08-23,2021-08-23,山百合の里株式会社,,株式会社,茨城県,笠間市,笠間１６９１番地２,,08,216,3091611,,,,,,,2021-08-23,1,,,,,ヤマユリノサト,0
1525,6060001034011,新規,0,2021-08-23,2021-08-23,株式会社日照工業,,株式会社,栃木県,日光市,藤原９７４番地１,,09,206,3212521,,,,,,,2021-08-23,1,,,,,ニッショウコウギョウ,0
1554,6100001034543,新規,0,2021-08-23,2021-08-23,浅田地所株式会社,,株式会社,長野県,松本市,旭３丁目６番１４号,,20,202,3900802,,,,,,,2021-08-23,1,,,,,アサダジショ,0
1555,6100003006210,新規,0,2021-08-23,2021-08-23,幸来合同会社,,合同会社,長野県,安曇野市,穂高８４７４－５,,20,220,3998303,,,,,,,2021-08-23,1,,,,,サラ,0
1558,6110001035986,新規,0,2021-08-23,2021-08-23,株式会社アールビィインターナショナル,,株式会社,新潟県,新潟市西区,小針６丁目５６番２１号,,15,107,9502022,,,,,,,2021-08-23,1,,,,,アールビィインターナショナル,0
1570,6120001239859,新規,0,2021-08-23,2021-08-23,株式会社ＩＴケアソリューション,,株式会社,大阪府,大阪市天王寺区,国分町３番２６号,,27,109,5430044,,,,,,,2021-08-23,1,,,,,アイティーケアソリューション,0
1571,6120001239867,新規,0,2021-08-23,2021-08-23,日本ルームサービス株式会社,,株式会社,大阪府,大阪市中央区,久太郎町４丁目１番３号大阪センタービル６階１５９,,27,128,5410056,,,,,,,2021-08-23,1,,,,,ニホンルームサービス,0
1572,6120001239883,新規,0,2021-08-23,2021-08-23,ビルデクス株式会社,,株式会社,大阪府,大阪市中央区,本町４丁目７番４号本町グラマシー３０３号,,27,128,5410053,,,,,,,2021-08-23,1,,,,,ビルデクス,0
1575,6120003020036,新規,0,2021-08-23,2021-08-23,合同会社Ｓａｋｕ,,合同会社,大阪府,大阪市都島区,都島本通５丁目４番１６号,,27,102,5340021,,,,,,,2021-08-23,1,,,,,サク,0
1577,6120101064182,新規,0,2021-08-23,2021-08-23,株式会社ＲｉｍｓＣｏｎｎｅｃｔｉｏｎ,,株式会社,大阪府,和泉市,はつが野６丁目３８番１１号,,27,219,5941106,,,,,,,2021-08-23,1,,,,,リムズコネクション,0
1578,6120101064190,新規,0,2021-08-23,2021-08-23,株式会社アキラ商店,,株式会社,大阪府,泉佐野市,葵町２丁目７番５１号,,27,213,5980014,,,,,,,2021-08-23,1,,,,,アキラショウテン,0
1582,6122001035098,新規,0,2021-08-23,2021-08-23,令雲テクノロジー株式会社,,株式会社,大阪府,四條畷市,田原台６丁目６番１５号,,27,229,5750013,,,,,,,2021-08-23,1,,,,,レイウンテクノロジー,0
1586,6130001069966,新規,0,2021-08-23,2021-08-23,株式会社Ｍｙコンサルティング,,株式会社,京都府,長岡京市,金ケ原乙張１６－４,,26,209,6170856,,,,,,,2021-08-23,1,,,,,エムワイコンサルティング,0
1590,6130003007429,新規,0,2021-08-23,2021-08-23,合同会社Ｋｙｏｔｏ　Ｔｒａｄｉｎｇ,,合同会社,京都府,宇治市,莵道大垣内１番地の９,,26,204,6110013,,,,,,,2021-08-23,1,,,,,キョウトトレーディング,0
1614,6180001147511,新規,0,2021-08-23,2021-08-23,株式会社ＴＯＲＡＳＡＴＳＵ,,株式会社,愛知県,名古屋市西区,菊井１丁目３番１８号,,23,104,4510044,,,,,,,2021-08-23,1,,,,,トラサツ,0
1630,6240001058470,新規,0,2021-08-23,2021-08-23,エム・ツー株式会社,,株式会社,広島県,広島市佐伯区,五日市７丁目７番３６－２号,,34,108,7315127,,,,,,,2021-08-23,1,,,,,エムツー,0
1635,6250001019075,新規,0,2021-08-23,2021-08-23,株式会社はじめ不動産,,株式会社,山口県,山口市,泉町１番５号西京ハイツ湯田Ｃ－１,,35,203,7530066,,,,,,,2021-08-23,1,,,,,ハジメフドウサン,0
1639,6290001094313,新規,0,2021-08-23,2021-08-23,株式会社アフタースクール,,株式会社,福岡県,福岡市中央区,大手門３丁目１４番２７－６０４号ラフォーレ大濠パークアベニュー,,40,133,8100074,,,,,,,2021-08-23,1,,,,,アフタースクール,0
1642,6290003011522,新規,0,2021-08-23,2021-08-23,合同会社Ｗｏｒｌｄ．Ｔ,,合同会社,福岡県,大牟田市,馬場町１０９－３,,40,202,8360084,,,,,,,2021-08-23,1,,,,,ワールドティー,0
1644,6290801027728,新規,0,2021-08-23,2021-08-23,株式会社イシカワ電機,,株式会社,福岡県,北九州市八幡西区,浅川２丁目１２番１６－２号,,40,109,8070872,,,,,,,2021-08-23,1,,,,,イシカワデンキ,0
1645,6290803003909,新規,0,2021-08-23,2021-08-23,合同会社ｍａｒｋｅｔｊａｐａｎ,,合同会社,福岡県,北九州市小倉南区,北方３丁目３０番２７号,,40,107,8020841,,,,,,,2021-08-23,1,,,,,マーケットジャパン,0
1648,6330001028927,新規,0,2021-08-23,2021-08-23,株式会社Ｔ２Ｃ,,株式会社,熊本県,菊池郡大津町,大字室５３９－１０,,43,403,8691235,,,,,,,2021-08-23,1,,,,,ティーツーシー,0
1658,6360001029229,新規,0,2021-08-23,2021-08-23,株式会社Ｌ．Ｉ．Ｊ,,株式会社,沖縄県,那覇市,具志２丁目１８－２０,,47,201,9010146,,,,,,,2021-08-23,1,,,,,エルアイジェイ,0
1662,6370001047502,新規,0,2021-08-23,2021-08-23,山吹の里株式会社,,株式会社,宮城県,白石市,字半沢屋敷前７７番地３,,04,206,9890259,,,,,,,2021-08-23,1,,,,,ヤマブキノサト,0
1675,6400003002823,新規,0,2021-08-23,2021-08-23,スモークラボ香屋合同会社,,合同会社,岩手県,下閉伊郡山田町,織笠第１１地割６８番１０,,03,482,0281361,,,,,,,2021-08-23,1,,,,,スモークラボカヤ,0
1688,6490005006797,新規,0,2021-08-23,2021-08-23,医療法人千里会,,その他の設立登記法人,高知県,高知市,鵜来巣１１番３８－１０あさくらメディカルビル３Ｆ,,39,201,7808083,,,,,,,2021-08-23,1,,,,,センリカイ,0
1702,7010003035655,新規,0,2021-08-23,2021-08-23,合同会社銀座八五,,合同会社,東京都,千代田区,神田三崎町２丁目１５－５三崎町ＳＳビル,,13,101,1010061,,,,,,,2021-08-23,1,,,,,ギンザハチゴ,0
1706,7010401162209,新規,0,2021-08-23,2021-08-23,Ｎｕｖｖｅ株式会社,,株式会社,東京都,港区,元麻布３丁目１番６号,,13,103,1060046,,,,,,,2021-08-23,1,,,,,ヌービー,0
1707,7010401162233,新規,0,2021-08-23,2021-08-23,株式会社Ｓｏｎｏｐｈｏｎｙ,,株式会社,東京都,港区,愛宕２丁目５番１号愛宕グリーンヒルズＭＯＲＩタワー２４階,,13,103,1050002,,,,,,,2021-08-23,1,,,,,ソノフォニー,0
1709,7010403025941,新規,0,2021-08-23,2021-08-23,リベラルクリエイト合同会社,,合同会社,東京都,港区,南青山２丁目２番１５号,,13,103,1070062,,,,,,,2021-08-23,1,,,,,リベラルクリエイト,0
1713,7010601059832,新規,0,2021-08-23,2021-08-23,Ｔ－不動産サービス株式会社,,株式会社,東京都,江東区,東陽５丁目２３番６－６１４号,,13,108,1350016,,,,,,,2021-08-23,1,,,,,ティーフドウサンサービス,0
1717,7010703005908,新規,0,2021-08-23,2021-08-23,神子田合同会社,00123987,合同会社,東京都,品川区,西大井２丁目１５番９号,,13,109,1400015,,,,,,,2021-08-23,1,,,,,ミコダ,0
1720,7010901049302,新規,0,2021-08-23,2021-08-23,株式会社ファインタイム,,株式会社,東京都,世田谷区,世田谷１丁目８番７号,,13,112,1540017,,,,,,,2021-08-23,1,,,,,ファインタイム,0
1721,7010903006706,新規,0,2021-08-23,2021-08-23,合同会社ＧＯＷＨ,,合同会社,東京都,世田谷区,中町４丁目３２－３－２０３,,13,112,1580091,,,,,,,2021-08-23,1,,,,,ゴー,0
1722,7010903006739,新規,0,2021-08-23,2021-08-23,ＮＡＫＥＤ合同会社,,合同会社,東京都,世田谷区,祖師谷５丁目２１番１０号,,13,112,1570072,,,,,,,2021-08-23,1,,,,,ネイキッド,0
1739,7011401023615,新規,0,2021-08-23,2021-08-23,株式会社ホーリーボイス,,株式会社,東京都,板橋区,徳丸１丁目６番１－９０４号,,13,119,1750083,,,,,,,2021-08-23,1,,,,,ホーリーボイス,0
1741,7011701024651,新規,0,2021-08-23,2021-08-23,真輝商事株式会社,,株式会社,東京都,江戸川区,東小松川４丁目５４番８号,,13,123,1320033,,,,,,,2021-08-23,1,,,,,マサキショウジ,0
1745,7012303001576,新規,0,2021-08-23,2021-08-23,コスモ商事合同会社,,合同会社,東京都,町田市,高ヶ坂５丁目１４番６号,,13,209,1940014,,,,,,,2021-08-23,1,,,,,コスモショウジ,0
1748,7012801021027,新規,0,2021-08-23,2021-08-23,株式会社ＣＯＬＯＲＦＵＬ　Ｕ,,株式会社,東京都,立川市,錦町１丁目４－４サニービル２Ｆ,,13,202,1900022,,,,,,,2021-08-23,1,,,,,カラフルユー,0
1758,7020001142675,新規,0,2021-08-23,2021-08-23,シオンテック株式会社,,株式会社,神奈川県,川崎市川崎区,大島１丁目２８番１５,,14,131,2100834,,,,,,,2021-08-23,1,,,,,シオンテック,0
1759,7020001142691,新規,0,2021-08-23,2021-08-23,株式会社Ｋライズ,,株式会社,神奈川県,横浜市青葉区,みたけ台３３番地１５４,,14,117,2270047,,,,,,,2021-08-23,1,,,,,ケーライズ,0
1760,7020001142709,新規,0,2021-08-23,2021-08-23,株式会社栄誠,,株式会社,神奈川県,横浜市南区,三春台６６－１９,,14,105,2320002,,,,,,,2021-08-23,1,,,,,エイセイ,0
1765,7020003020359,新規,0,2021-08-23,2021-08-23,合同会社ひよこＣＯＭＰＡＮＹ,,合同会社,神奈川県,横浜市青葉区,つつじが丘１４番地７,,14,117,2270055,,,,,,,2021-08-23,1,,,,,ヒヨコカンパニー,0
1769,7021001073712,新規,0,2021-08-23,2021-08-23,株式会社柴建,,株式会社,神奈川県,厚木市,上落合５３８番地１０,,14,212,2430025,,,,,,,2021-08-23,1,,,,,シバケン,0
1780,7030001143920,新規,0,2021-08-23,2021-08-23,株式会社エスプレーヌ,,株式会社,埼玉県,川口市,芝１丁目１０番５号,,11,203,3330866,,,,,,,2021-08-23,1,,,,,エスプレーヌ,0
1781,7030001143945,新規,0,2021-08-23,2021-08-23,株式会社殻空間,,株式会社,埼玉県,富士見市,鶴馬３丁目１７番７号,,11,235,3540021,,,,,,,2021-08-23,1,,,,,カラクウカン,0
1783,7030003017783,新規,0,2021-08-23,2021-08-23,きのこパワー合同会社,,合同会社,埼玉県,行田市,大字犬塚４５９番地,,11,206,3610081,,,,,,,2021-08-23,1,,,,,キノコパワー,0
1784,7030003017817,新規,0,2021-08-23,2021-08-23,合同会社ＴＯＭ,,合同会社,埼玉県,富士見市,大字上南畑１７５番地１,,11,235,3540002,,,,,,,2021-08-23,1,,,,,トム,0
1792,7040001119894,新規,0,2021-08-23,2021-08-23,株式会社八番,,株式会社,千葉県,千葉市花見川区,幕張本郷１丁目２９番２３－１０１号,,12,102,2620033,,,,,,,2021-08-23,1,,,,,ハチバン,0
1839,7120001239809,新規,0,2021-08-23,2021-08-23,澤美株式会社,,株式会社,大阪府,大阪市城東区,蒲生３丁目１５番１２号セザンヌ藤２０３Ａ,,27,118,5360016,,,,,,,2021-08-23,1,,,,,サワミ,0
1840,7120001239841,新規,0,2021-08-23,2021-08-23,株式会社レイディバグ,,株式会社,大阪府,大阪市城東区,中央３丁目４番２５－５０９,,27,118,5360005,,,,,,,2021-08-23,1,,,,,レイディバグ,0
1841,7120001239866,新規,0,2021-08-23,2021-08-23,株式会社ＭＯＭＯトレーディング,,株式会社,大阪府,大阪市西区,南堀江１丁目２１番１－３０３号,,27,106,5500015,,,,,,,2021-08-23,1,,,,,モモトレーディング,0
1842,7120001239874,新規,0,2021-08-23,2021-08-23,ＴＥＡＭ　ＫＯＺ株式会社,,株式会社,大阪府,寝屋川市,高柳栄町５番１号,,27,215,5720062,,,,,,,2021-08-23,1,,,,,チームコズ,0
1843,7120003020035,新規,0,2021-08-23,2021-08-23,合同会社ＹＯＬＯ．ＺＵ,,合同会社,大阪府,門真市,大倉町２４－２,,27,223,5710068,,,,,,,2021-08-23,1,,,,,ヨロズ,0
1844,7120005022450,新規,0,2021-08-23,2021-08-23,大阪グラディアトル法律事務所弁護士法人,,その他の設立登記法人,大阪府,大阪市中央区,北久宝寺町４丁目２番１２号本町御堂パ－クビル８Ｆ,,27,128,5410057,,,,,,,2021-08-23,1,,,,,オオサカグラディアトルホウリツジムショ,0
1846,7120101064181,新規,0,2021-08-23,2021-08-23,株式会社Ｃｏｃｏｒｅ,,株式会社,大阪府,富田林市,小金台１丁目８番６号,,27,214,5840083,,,,,,,2021-08-23,1,,,,,ココレ,0
1848,7120901044795,新規,0,2021-08-23,2021-08-23,株式会社ＲＯＳ,,株式会社,大阪府,豊中市,宮山町２丁目１３番２０号１０１号,,27,203,5600056,,,,,,,2021-08-23,1,,,,,ロス,0
1849,7120901044804,新規,0,2021-08-23,2021-08-23,Ｙ＆Ｉ株式会社,,株式会社,大阪府,豊中市,新千里東町３丁目３番５０－１００２号,,27,203,5600082,,,,,,,2021-08-23,1,,,,,ワイアンドアイ,0
1852,7130001069957,新規,0,2021-08-23,2021-08-23,冬夏株式会社,,株式会社,京都府,京都市上京区,新烏丸通丸太町上る信富町２９８,,26,102,6020875,,,,,,,2021-08-23,1,,,,,トウカ,0
1853,7130001069965,新規,0,2021-08-23,2021-08-23,ドーレトレイス株式会社,,株式会社,京都府,京都市伏見区,豊後橋町７５番地４,,26,109,6128106,,,,,,,2021-08-23,1,,,,,ドーレトレイス,0
1861,7140001122797,新規,0,2021-08-23,2021-08-23,株式会社竜聖,,株式会社,兵庫県,神戸市灘区,備後町１丁目２番２４号,,28,102,6570037,,,,,,,2021-08-23,1,,,,,リュウセイ,0
1873,7170001016724,新規,0,2021-08-23,2021-08-23,４１８ＰＪ株式会社,,株式会社,和歌山県,紀の川市,久留壁３４番地４,,30,208,6496418,,,,,,,2021-08-23,1,,,,,ヨイワピージェイ,0
1896,7240001058478,新規,0,2021-08-23,2021-08-23,株式会社城北ユニット,,株式会社,広島県,広島市中区,白島北町１８－３－２１７,,34,101,7300001,,,,,,,2021-08-23,1,,,,,ジョウホクユニット,0
1901,7250001019074,新規,0,2021-08-23,2021-08-23,株式会社Ｕ,,株式会社,山口県,下関市,豊北町大字神田上１８５番地の１,,35,201,7596121,,,,,,,2021-08-23,1,,,,,ウ,0
1908,7290001094279,新規,0,2021-08-23,2021-08-23,株式会社ＮＩＣサービス,,株式会社,福岡県,福岡市早良区,原６丁目２４－１－２,,40,137,8140022,,,,,,,2021-08-23,1,,,,,エヌアイシーサービス,0
1909,7290001094287,新規,0,2021-08-23,2021-08-23,株式会社Ｃ－ＳＴＹＬＥ,,株式会社,福岡県,大牟田市,新栄町３番地７千成屋ビル４Ｆ,,40,202,8360041,,,,,,,2021-08-23,1,,,,,シースタイル,0
1910,7290001094361,新規,0,2021-08-23,2021-08-23,大手門ビジネスコンサルティング株式会社,,株式会社,福岡県,福岡市中央区,舞鶴２丁目２番３号,,40,133,8100073,,,,,,,2021-08-23,1,,,,,オオテモンビジネスコンサルティング,0
1914,7290803003908,新規,0,2021-08-23,2021-08-23,合同会社フクオカクラフト,,合同会社,福岡県,遠賀郡岡垣町,大字内浦５４４,,40,383,8114203,,,,,,,2021-08-23,1,,,,,フクオカクラフト,0
1917,7310001017427,新規,0,2021-08-23,2021-08-23,株式会社ＴＫＢ,,株式会社,長崎県,平戸市,川内町１２１６番地１３,,42,207,8595132,,,,,,,2021-08-23,1,,,,,ティーケービー,0
1919,7310003004142,新規,0,2021-08-23,2021-08-23,合同会社リーブルミュージック,,合同会社,長崎県,佐世保市,天神５丁目１６番５号,,42,202,8571174,,,,,,,2021-08-23,1,,,,,リーブルミュージック,0
1920,7320001018548,新規,0,2021-08-23,2021-08-23,苅北電工株式会社,,株式会社,大分県,宇佐市,大字森山１６５３番地の５,,44,211,8790311,,,,,,,2021-08-23,1,,,,,カリキタデンコウ,0
1922,7330003009016,新規,0,2021-08-23,2021-08-23,ＺＥＲＡＴＯＸ合同会社,,合同会社,熊本県,八代市,東陽町河俣２１０９番地,,43,202,8694303,,,,,,,2021-08-23,1,,,,,ゼラトックス,0
1924,7340001024032,新規,0,2021-08-23,2021-08-23,ワンズベスト株式会社,,株式会社,鹿児島県,志布志市,有明町野井倉８１８４番地１７,,46,221,8997402,,,,,,,2021-08-23,1,,,,,ワンズベスト,0
1928,7360001029244,新規,0,2021-08-23,2021-08-23,ＫＡＮＡＳＡ株式会社,,株式会社,沖縄県,宮古島市,平良字東仲宗根添３４８３番地,,47,214,9060011,,,,,,,2021-08-23,1,,,,,カナサ,0
1931,7380001032139,新規,0,2021-08-23,2021-08-23,株式会社オオマツ環境開発,,株式会社,福島県,郡山市,富田町字稲川原４９番地,,07,203,9638041,,,,,,,2021-08-23,1,,,,,オオマツカンキョウカイハツ,0
1935,7380005012467,新規,0,2021-08-23,2021-08-23,一般社団法人こどもに寄り添う会ふくしま,,その他の設立登記法人,福島県,福島市,鎌田字月ノ輪山５番５６号,,07,201,9600102,,,,,,,2021-08-23,1,,,,,,0
1937,7410002014066,新規,0,2021-08-23,2021-08-23,有限会社ファッション三世,,有限会社,秋田県,大館市,長坂字坂地家後９７番地２,,05,204,0183504,,,,,,,2021-08-23,1,,,,,,0
1940,7430001084793,新規,0,2021-08-23,2021-08-23,株式会社ＴＯＰＯＵＴ,,株式会社,北海道,札幌市厚別区,厚別西四条３丁目９番１号,,01,108,0040064,,,,,,,2021-08-23,1,,,,,トップアウト,0
1949,7700150104507,新規,0,2021-08-23,2021-08-23,広島市大塚中央土地区画整理組合,,その他,広島県,広島市安佐南区,大塚西１丁目１４番２３号,,34,105,7313167,,,,,,,2021-08-23,1,,,,,ヒロシマシオオツカチユウオウトチクカクセイリクミアイ,0
1963,8010001220563,新規,0,2021-08-23,2021-08-23,株式会社ＨＭＰ　Ｋａｎｄａ,,株式会社,東京都,千代田区,内神田２丁目１５番４号,,13,101,1010047,,,,,,,2021-08-23,1,,,,,エイチエムピーカンダ,0
1968,8010003035662,新規,0,2021-08-23,2021-08-23,Ｌｉｂｅｘｅｅｄ合同会社,,合同会社,東京都,中央区,日本橋２丁目２番３号ＲＩＳＨＥビル,,13,102,1030027,,,,,,,2021-08-23,1,,,,,リベシード,0
1971,8010005033846,新規,0,2021-08-23,2021-08-23,一般社団法人建物沈下修正業者連合会,,その他の設立登記法人,東京都,千代田区,九段北１丁目５番５号,,13,101,1020073,,,,,,,2021-08-23,1,,,,,タテモノチンカシュウセイギョウシャレンゴウカイ,0
1972,8010103001754,新規,0,2021-08-23,2021-08-23,合同会社ｕｓサービス,,合同会社,東京都,八王子市,高尾町１１４１番地コーポジュン２０２号,,13,201,1930844,,,,,,,2021-08-23,1,,,,,ユーエスサービス,0
1977,8010401162075,新規,0,2021-08-23,2021-08-23,株式会社ＨｉｋａｒｉＱ　Ｈｅａｌｔｈ,,株式会社,東京都,港区,芝３丁目６番１０号芝ＮＡビル５階,,13,103,1050014,,,,,,,2021-08-23,1,,,,,ヒカリキューヘルス,0
1978,8010401162232,新規,0,2021-08-23,2021-08-23,株式会社Ｓａｃｈｉｎｅｓｓ,,株式会社,東京都,港区,愛宕２丁目５番１号愛宕グリーンヒルズＭＯＲＩタワー２４階,,13,103,1050002,,,,,,,2021-08-23,1,,,,,サチネス,0
1979,8010401162240,新規,0,2021-08-23,2021-08-23,株式会社ファーストデジタルインベストメント,,株式会社,東京都,港区,西麻布２丁目２番２－５０８号,,13,103,1060031,,,,,,,2021-08-23,1,,,,,ファーストデジタルインベストメント,0
1981,8010505003258,新規,0,2021-08-23,2021-08-23,一般社団法人アマチュアキックボクシング協議会,,その他の設立登記法人,東京都,台東区,上野３丁目１９番５号田沼ビル４階,,13,106,1100005,,,,,,,2021-08-23,1,,,,,アマチュアキックボクシングキョウギカイ,0
1984,8010601059807,新規,0,2021-08-23,2021-08-23,ＫＧ株式会社,,株式会社,東京都,江東区,東砂７丁目１７番１９号プラーズ東砂８０１,,13,108,1360074,,,,,,,2021-08-23,1,,,,,ケージー,0
1985,8010601059823,新規,0,2021-08-23,2021-08-23,ナカタケ管財投資株式会社,,株式会社,東京都,墨田区,両国３丁目２１番１６号両国中屋ビル７階,,13,107,1300026,,,,,,,2021-08-23,1,,,,,ナカタケカンザイトウシ,0
1986,8010601059831,新規,0,2021-08-23,2021-08-23,株式会社ユニオンゼロ,,株式会社,東京都,墨田区,墨田５丁目５番２号,,13,107,1310031,,,,,,,2021-08-23,1,,,,,ユニオンゼロ,0
1988,8010701041425,新規,0,2021-08-23,2021-08-23,株式会社ＤＸｗｈｅｅｌ,,株式会社,東京都,品川区,西五反田１丁目２６番２号五反田サンハイツ９１１,,13,109,1410031,,,,,,,2021-08-23,1,,,,,ディーエックスホイール,0
1997,8010901049292,新規,0,2021-08-23,2021-08-23,株式会社アンドロール,,株式会社,東京都,世田谷区,北沢２丁目１９番１７号サワダヤビル３Ｆ－Ｂ,,13,112,1550031,,,,,,,2021-08-23,1,,,,,アンドロール,0
1998,8010901049301,新規,0,2021-08-23,2021-08-23,株式会社Ｐｉｏｎｅｅｒｓ,,株式会社,東京都,世田谷区,池尻４丁目１３番５号,,13,112,1540001,,,,,,,2021-08-23,1,,,,,パイオニアーズ,0
2007,8011001142418,新規,0,2021-08-23,2021-08-23,シーイン株式会社,,株式会社,東京都,渋谷区,広尾５丁目４番１６号,,13,113,1500012,,,,,,,2021-08-23,1,,,,,シーイン,0
2018,8011201023203,新規,0,2021-08-23,2021-08-23,Ｇａｌａ　Ｄｅｌｕｘｅ　Ｊａｐａｎ株式会社,,株式会社,東京都,中野区,上高田３丁目３８番２号,,13,114,1640002,,,,,,,2021-08-23,1,,,,,ガラデラックスジャパン,0
2023,8011401023614,新規,0,2021-08-23,2021-08-23,株式会社Ｔ＆Ｔ　Ｃｏ．,,株式会社,東京都,板橋区,赤塚３丁目２９番２２号,,13,119,1750092,,,,,,,2021-08-23,1,,,,,ティーアンドティーコーポレーション,0
2025,8011403003424,新規,0,2021-08-23,2021-08-23,合同会社ｍｉｒａｉｅＬｉｆｅ,,合同会社,東京都,板橋区,中台１丁目５０番６号,,13,119,1740064,,,,,,,2021-08-23,1,,,,,ミライエライフ,0
2032,8011701024650,新規,0,2021-08-23,2021-08-23,株式会社中谷建装,,株式会社,東京都,江戸川区,春江町５丁目１８番地,,13,123,1340003,,,,,,,2021-08-23,1,,,,,ナカヤケンソウ,0
2033,8011801039607,新規,0,2021-08-23,2021-08-23,株式会社フォーグッド,,株式会社,東京都,葛飾区,柴又１丁目２４番４号キャピタルビュー柴又１０５号室,,13,122,1250052,,,,,,,2021-08-23,1,,,,,フォーグッド,0
2036,8012301012681,新規,0,2021-08-23,2021-08-23,フライナイン株式会社,,株式会社,東京都,町田市,西成瀬２丁目３２番６号,,13,209,1940046,,,,,,,2021-08-23,1,,,,,フライナイン,0
2037,8012401038222,新規,0,2021-08-23,2021-08-23,ネクストワン株式会社,,株式会社,東京都,小金井市,東町３丁目１９番５－１１１号,,13,210,1840011,,,,,,,2021-08-23,1,,,,,ネクストワン,0
2038,8012403004998,新規,0,2021-08-23,2021-08-23,合同会社Ｌａ　Ｍｅｒｃｉ,,合同会社,東京都,稲城市,長峰３丁目２杜の一番街２号棟１４０７,,13,225,2060821,,,,,,,2021-08-23,1,,,,,ラメルシー,0
2048,8013303005789,新規,0,2021-08-23,2021-08-23,合同会社Ｓｔｕｄｉｏ　Ｋ′ｚ,,合同会社,東京都,豊島区,東池袋３丁目１３番１２号グランメール池袋４１７号室,,13,116,1700013,,,,,,,2021-08-23,1,,,,,スタジオケーズ,0
2056,8020001142699,新規,0,2021-08-23,2021-08-23,リーランド株式会社,,株式会社,神奈川県,横浜市港北区,大倉山３丁目１８番２号,,14,109,2220037,,,,,,,2021-08-23,1,,,,,リーランド,0
2057,8020001142708,新規,0,2021-08-23,2021-08-23,株式会社ぞうさんのぼうし,,株式会社,神奈川県,横浜市戸塚区,戸塚町４４２９番地１８,,14,110,2440003,,,,,,,2021-08-23,1,,,,,ゾウサンノボウシ,0
2069,8030001143928,新規,0,2021-08-23,2021-08-23,小川元株式会社,,株式会社,埼玉県,川越市,大字府川２２３番地７,,11,201,3500831,,,,,,,2021-08-23,1,,,,,オガゲン,0
2070,8030001143936,新規,0,2021-08-23,2021-08-23,株式会社ベルズ,,株式会社,埼玉県,八潮市,八潮１丁目２９番地１０,,11,234,3400815,,,,,,,2021-08-23,1,,,,,ベルズ,0
2071,8030001143944,新規,0,2021-08-23,2021-08-23,ハウスバンク株式会社,,株式会社,埼玉県,深谷市,永田１４３番地９,,11,218,3691243,,,,,,,2021-08-23,1,,,,,ハウスバンク,0
2076,8030003017808,新規,0,2021-08-23,2021-08-23,合同会社ＴＡＩＹＯ,,合同会社,埼玉県,さいたま市浦和区,東高砂町３０番４号,,11,107,3300055,,,,,,,2021-08-23,1,,,,,タイヨウ,0
2077,8030003017816,新規,0,2021-08-23,2021-08-23,Ｏ２Ｃａｐｉｔａｌ合同会社,,合同会社,埼玉県,越谷市,東柳田町２番５号,,11,222,3430814,,,,,,,2021-08-23,1,,,,,オオツキャピタル,0
2078,8030005020487,新規,0,2021-08-23,2021-08-23,シオンキリスト教会,,その他の設立登記法人,埼玉県,蕨市,南町２丁目１６番３号,,11,223,3350003,,,,,,,2021-08-23,1,,,,,シオンキリストキョウカイ,0
2084,8060001034018,新規,0,2021-08-23,2021-08-23,株式会社Ｐｏｃｈｉ　Ｐｏｗｅｒ　Ｈｏｕｓｅ,,株式会社,栃木県,那須郡那須町,大字高久丙１７７７番地４０８,,09,407,3250302,,,,,,,2021-08-23,1,,,,,ポチパワーハウス,0
2099,8080401025275,新規,0,2021-08-23,2021-08-23,株式会社遠州金属,,株式会社,静岡県,浜松市南区,倉松町３９５９番地の１,,22,134,4328064,,,,,,,2021-08-23,1,,,,,エンシュウキンゾク,0
2100,8080401025283,新規,0,2021-08-23,2021-08-23,株式会社Ｃｏｔｔａｇｅ　ｏｆ　Ｗａｒｍｔｈ,,株式会社,静岡県,浜松市西区,舘山寺町２３８６番地,,22,133,4311209,,,,,,,2021-08-23,1,,,,,コテージオブウォームス,0
2107,8110001035984,新規,0,2021-08-23,2021-08-23,株式会社ＮＴＭマーケティング,,株式会社,新潟県,新潟市北区,樋ノ入５０３番地７,,15,101,9503307,,,,,,,2021-08-23,1,,,,,エヌティーエムマーケティング,0
2119,8120001239857,新規,0,2021-08-23,2021-08-23,株式会社ウイーズ,,株式会社,大阪府,大阪市東成区,大今里西２丁目５番１６号,,27,115,5370014,,,,,,,2021-08-23,1,,,,,ウイーズ,0
2120,8120001239873,新規,0,2021-08-23,2021-08-23,株式会社アスカ,,株式会社,大阪府,大阪市中央区,北久宝寺町１丁目５－６堺筋本町アーバンライフ７１６,,27,128,5410057,,,,,,,2021-08-23,1,,,,,アスカ,0
2121,8120001239907,新規,0,2021-08-23,2021-08-23,株式会社Ｅａｓｔ　Ｅｓｔａｔｅ,,株式会社,大阪府,大阪市淀川区,西宮原１丁目８－１４八光ビル８０１,,27,123,5320004,,,,,,,2021-08-23,1,,,,,イーストエステイト,0
2131,8120101064180,新規,0,2021-08-23,2021-08-23,株式会社一善,,株式会社,大阪府,堺市南区,新檜尾台２丁２番２号,,27,145,5900143,,,,,,,2021-08-23,1,,,,,イチゼン,0
2138,8120901044794,新規,0,2021-08-23,2021-08-23,オリーブ株式会社,,株式会社,大阪府,吹田市,金田町２９番９号,,27,205,5640045,,,,,,,2021-08-23,1,,,,,オリーブ,0
2142,8122001035105,新規,0,2021-08-23,2021-08-23,株式会社アマミコーポレーション,,株式会社,大阪府,八尾市,天王寺屋７丁目８１番地,,27,212,5810025,,,,,,,2021-08-23,1,,,,,アマミコーポレーション,0
2145,8130001069964,新規,0,2021-08-23,2021-08-23,Ｅａｒｔｈ　Ｔｅｃｈ　Ｊａｐａｎ株式会社,,株式会社,京都府,京都市下京区,七条通新町西入ＮＪ小山ビル,,26,106,6000000,,,,,,,2021-08-23,1,,,,,アーステックジャパン,0
2149,8140001122763,新規,0,2021-08-23,2021-08-23,株式会社ＺＡＩＭＯＫＵ－ＹＡ,,株式会社,兵庫県,姫路市,北今宿２丁目１番１３号メゾンハピネス３０２,,28,201,6700057,,,,,,,2021-08-23,1,,,,,ザイモクヤ,0
2157,8150001024868,新規,0,2021-08-23,2021-08-23,株式会社ゆり,,株式会社,奈良県,吉野郡吉野町,大字国栖５６番地の３,,29,441,6393434,,,,,,,2021-08-23,1,,,,,ユリ,0
2164,8170001016723,新規,0,2021-08-23,2021-08-23,株式会社エストカンパニー,,株式会社,和歌山県,有田郡有田川町,大字角２２５番地３,,30,366,6430853,,,,,,,2021-08-23,1,,,,,エストカンパニー,0
2173,8180001147501,新規,0,2021-08-23,2021-08-23,あおい建設株式会社,,株式会社,愛知県,半田市,新宮町４丁目８６番地の１,,23,205,4750931,,,,,,,2021-08-23,1,,,,,アオイケンセツ,0
2174,8180001147518,新規,0,2021-08-23,2021-08-23,株式会社ＡＬ－Ａｂｉｅｓ,,株式会社,愛知県,名古屋市中村区,日吉町２５番地,,23,105,4530029,,,,,,,2021-08-23,1,,,,,アルアビエス,0
2180,8190001028618,新規,0,2021-08-23,2021-08-23,ＧＳトレーディング株式会社,,株式会社,三重県,三重郡菰野町,大字潤田６５０番地９,,24,341,5101253,,,,,,,2021-08-23,1,,,,,ジーエストレーディング,0
2192,8220003003103,新規,0,2021-08-23,2021-08-23,ワイズディレクト合同会社,,合同会社,石川県,小松市,福乃宮町１丁目１１７番地１,,17,203,9230865,,,,,,,2021-08-23,1,,,,,ワイズディレクト,0
2199,8240001058469,新規,0,2021-08-23,2021-08-23,藤田電気工業株式会社,,株式会社,広島県,三次市,粟屋町２３２５番地５,,34,209,7280025,,,,,,,2021-08-23,1,,,,,フジタデンキコウギョウ,0
2200,8240001058477,新規,0,2021-08-23,2021-08-23,株式会社智栄工業,,株式会社,広島県,尾道市,東元町１０番３号,,34,205,7220003,,,,,,,2021-08-23,1,,,,,チエイコウギョウ,0
2204,8260005010960,新規,0,2021-08-23,2021-08-23,医療法人社団さくら,,その他の設立登記法人,岡山県,赤磐市,桜が丘東２丁目２番地６７９,,33,213,7090721,,,,,,,2021-08-23,1,,,,,シャダンサクラ,0
2208,8280003001522,新規,0,2021-08-23,2021-08-23,合同会社ＲｅＳＴＡ,,合同会社,島根県,松江市,下東川津町５７－６,,32,201,6900822,,,,,,,2021-08-23,1,,,,,リスタ,0
2209,8290001094261,新規,0,2021-08-23,2021-08-23,株式会社筑紫野モリンガ,,株式会社,福岡県,筑紫野市,二日市北１丁目１１番３号,,40,217,8180056,,,,,,,2021-08-23,1,,,,,チクシノモリンガ,0
2210,8290001094278,新規,0,2021-08-23,2021-08-23,株式会社ｆｏｕｒ　ｔｅｅｔｈ　ｃｌｏｖｅｒ,,株式会社,福岡県,筑後市,大字長浜２２３８番地２,,40,211,8330005,,,,,,,2021-08-23,1,,,,,フォーティースクローバー,0
2211,8290001094303,新規,0,2021-08-23,2021-08-23,株式会社Ｒｅ　Ｂｅａｒｓ,,株式会社,福岡県,春日市,大谷５丁目２２番地１,,40,218,8160831,,,,,,,2021-08-23,1,,,,,リベアーズ,0
2212,8290001094336,新規,0,2021-08-23,2021-08-23,株式会社Ｋ－ｆａｃｔｏｒｙ,,株式会社,福岡県,朝倉郡筑前町,下高場１９６２番地１,,40,447,8380211,,,,,,,2021-08-23,1,,,,,ケイファクトリー,0
2219,8290003011529,新規,0,2021-08-23,2021-08-23,西日本インクラインサービス合同会社,,合同会社,福岡県,福岡市博多区,青木１丁目１９番１－１１０３号,,40,132,8120851,,,,,,,2021-08-23,1,,,,,ニシニホンインクラインサービス,0
2221,8290801027726,新規,0,2021-08-23,2021-08-23,ｅサポート株式会社,,株式会社,福岡県,北九州市小倉北区,米町１丁目５番１８号,,40,106,8020003,,,,,,,2021-08-23,1,,,,,イーサポート,0
2225,8330001028933,新規,0,2021-08-23,2021-08-23,株式会社Ｄ・Ｂ　Ｓｔｙｌｅ．,,株式会社,熊本県,熊本市北区,清水新地６丁目８番１２９号,,43,105,8618075,,,,,,,2021-08-23,1,,,,,ディービースタイル,0
2226,8330003009015,新規,0,2021-08-23,2021-08-23,Ｓｔａｒｒｙｂａｓｅ合同会社,,合同会社,熊本県,熊本市南区,田迎２丁目５番地８９号,,43,104,8620962,,,,,,,2021-08-23,1,,,,,スターリーベース,0
2227,8330005010383,新規,0,2021-08-23,2021-08-23,医療法人寛志会,,その他の設立登記法人,熊本県,合志市,須屋２５３３番５,,43,216,8611102,,,,,,,2021-08-23,1,,,,,カンシカイ,0
2231,8360003011364,新規,0,2021-08-23,2021-08-23,合同会社ちゅら結,,合同会社,沖縄県,国頭郡恩納村,字仲泊１４１１－２９,,47,311,9040415,,,,,,,2021-08-23,1,,,,,チュラユイ,0
2232,8360003011372,新規,0,2021-08-23,2021-08-23,酵素，食用油販売合同会社,,合同会社,沖縄県,糸満市,字真栄里２００２番地の６,,47,210,9010362,,,,,,,2021-08-23,1,,,,,コウソショクヨウユハンバイ,0
2233,8360003011380,新規,0,2021-08-23,2021-08-23,合同会社アカツキ,,合同会社,沖縄県,浦添市,宮城１丁目３５－９丸金宮城ビル３０２,,47,208,9012126,,,,,,,2021-08-23,1,,,,,アカツキ,0
2244,8430001084801,新規,0,2021-08-23,2021-08-23,サイテック株式会社,,株式会社,北海道,札幌市豊平区,福住一条３丁目２番２０－２０３号,,01,105,0620041,,,,,,,2021-08-23,1,,,,,サイテック,0
2245,8430003013072,新規,0,2021-08-23,2021-08-23,合同会社Ｏｎｅ　Ｍｏｒｅ　Ｇｗｏｏｄ,,合同会社,北海道,夕張郡長沼町,字加賀団体,,01,428,0691316,,,,,,,2021-08-23,1,,,,,ワンモアウッド,0
2265,9010001220570,新規,0,2021-08-23,2021-08-23,ＹＩＧｓｏｌｕｔｉｏｎ株式会社,,株式会社,東京都,千代田区,平河町２丁目７番２号９Ｆ,,13,101,1020093,,,,,,,2021-08-23,1,,,,,ワイアイジーソリューション,0
2272,9010101014823,新規,0,2021-08-23,2021-08-23,株式会社シャカ,,株式会社,東京都,八王子市,横山町１番１３号小室ビル３階,,13,201,1920081,,,,,,,2021-08-23,1,,,,,シャカ,0
2279,9010401162231,新規,0,2021-08-23,2021-08-23,株式会社Ｓｈｉｚｕｎｉｔｙ,,株式会社,東京都,港区,愛宕２丁目５番１号愛宕グリーンヒルズＭＯＲＩタワー２４階,,13,103,1050002,,,,,,,2021-08-23,1,,,,,シズニティ,0
2281,9010501047687,新規,0,2021-08-23,2021-08-23,ナガワ保険サービス株式会社,,株式会社,東京都,台東区,東上野１丁目１７－２第二江口ビル３Ｆ,,13,106,1100015,,,,,,,2021-08-23,1,,,,,ナガワホケンサービス,0
2282,9010501047720,新規,0,2021-08-23,2021-08-23,株式会社トライアローグ,,株式会社,東京都,台東区,松が谷３丁目１番１２号ＫＡＰＰＡ．ＤＣ５０２号室,,13,106,1110036,,,,,,,2021-08-23,1,,,,,トライアローグ,0
2289,9010903006745,新規,0,2021-08-23,2021-08-23,合同会社ダブルボランチ,,合同会社,東京都,世田谷区,玉川４丁目９番１８－３０３号,,13,112,1580094,,,,,,,2021-08-23,1,,,,,ダブルボランチ,0
2294,9011001142391,新規,0,2021-08-23,2021-08-23,株式会社ｈｅｙｍｅ,,株式会社,東京都,渋谷区,渋谷２丁目１９番１５号宮益坂ビルディング６０９,,13,113,1500002,,,,,,,2021-08-23,1,,,,,ヘイミー,0
2296,9011003013244,新規,0,2021-08-23,2021-08-23,ＢＴＡ合同会社,,合同会社,東京都,渋谷区,神宮前６丁目２３番４号桑野ビル２階,,13,113,1500001,,,,,,,2021-08-23,1,,,,,ビーティーエー,0
2297,9011005009199,新規,0,2021-08-23,2021-08-23,一般社団法人代々木地区駐車対策協議会,,その他の設立登記法人,東京都,渋谷区,代々木２丁目２番２号,,13,113,1510053,,,,,,,2021-08-23,1,,,,,ヨヨギチクチュウシャタイサクキョウギカイ,0
2313,9012301012672,新規,0,2021-08-23,2021-08-23,株式会社Ｈａｎｄ　Ｗｏｒｋｅｒｓ,,株式会社,東京都,町田市,図師町１３３２番地５３,,13,209,1940203,,,,,,,2021-08-23,1,,,,,ハンドワーカーズ,0
2318,9013301047907,新規,0,2021-08-23,2021-08-23,株式会社Ｌｉｆｅ　Ｉｎｔｅｇｒａｌ,,株式会社,東京都,豊島区,南大塚２丁目１３番１１号アーバンビュー南大塚２０３号,,13,116,1700005,,,,,,,2021-08-23,1,,,,,ライフインテグラル,0
2329,9020001142681,新規,0,2021-08-23,2021-08-23,株式会社ＡＬＴＡ　ＦＩＴ,,株式会社,神奈川県,横浜市旭区,白根７丁目２９番４－４０９号,,14,112,2410005,,,,,,,2021-08-23,1,,,,,アルタフィット,0
2338,9021001073727,新規,0,2021-08-23,2021-08-23,株式会社斉藤ホールディングス,,株式会社,神奈川県,平塚市,真田４丁目３２番７５号,,14,203,2591206,,,,,,,2021-08-23,1,,,,,サイトウホールディングス,0
2343,9021003010819,新規,0,2021-08-23,2021-08-23,合同会社アイデ屋,,合同会社,神奈川県,相模原市緑区,谷ヶ原１丁目１８番９号,,14,151,2520113,,,,,,,2021-08-23,1,,,,,アイデヤ,0
2348,9030001143910,新規,0,2021-08-23,2021-08-23,株式会社Ｇｒｉｔｕｒｅ,,株式会社,埼玉県,越谷市,レイクタウン７丁目２４番地１－１０３号,,11,222,3430828,,,,,,,2021-08-23,1,,,,,グリッチュア,0
2349,9030001143919,新規,0,2021-08-23,2021-08-23,株式会社ルチェンテ・フェリーチェ,,株式会社,埼玉県,戸田市,笹目３丁目５番地の９,,11,224,3350034,,,,,,,2021-08-23,1,,,,,ルチェンテフェリーチェ,0
2350,9030001143927,新規,0,2021-08-23,2021-08-23,株式会社ＭＴトラスト,,株式会社,埼玉県,新座市,東北２丁目２９番２５号４０２号室,,11,230,3520001,,,,,,,2021-08-23,1,,,,,エムティートラスト,0
2351,9030001143943,新規,0,2021-08-23,2021-08-23,小澤設備工業株式会社,,株式会社,埼玉県,鴻巣市,下忍３４８３番地４,,11,217,3690113,,,,,,,2021-08-23,1,,,,,,0
2356,9040001119876,新規,0,2021-08-23,2021-08-23,ソーシャルアセットデザイン株式会社,,株式会社,千葉県,船橋市,印内１丁目７番４０－４０６号,,12,204,2730039,,,,,,,2021-08-23,1,,,,,ソーシャルアセットデザイン,0
2361,9050001049726,新規,0,2021-08-23,2021-08-23,Ｒｅ．ｍａｉｎ株式会社,,株式会社,茨城県,笠間市,旭町１８９番地１,,08,216,3091717,,,,,,,2021-08-23,1,,,,,リメイン,0
2362,9060001034017,新規,0,2021-08-23,2021-08-23,株式会社ＳＴＡＲ　ＩＳＬＡＮＤ　ＣＯＭＰＡＮＹ,,株式会社,栃木県,大田原市,本町１丁目２７０５番地１１,,09,210,3240041,,,,,,,2021-08-23,1,,,,,スターアイランドカンパニー,0
2363,9060003003787,新規,0,2021-08-23,2021-08-23,アモティ合同会社,,合同会社,栃木県,真岡市,大谷新町１０－５,,09,209,3214332,,,,,,,2021-08-23,1,,,,,アモティ,0
2367,9080401025282,新規,0,2021-08-23,2021-08-23,株式会社マサキ塗装,,株式会社,静岡県,浜松市南区,小沢渡町１１２９番地の３コンフォートアスカＤ,,22,134,4328063,,,,,,,2021-08-23,1,,,,,マサキトソウ,0
2372,9110001035983,新規,0,2021-08-23,2021-08-23,栄貴株式会社,,株式会社,新潟県,新潟市中央区,女池南１丁目９番２４号ミニョン・アンジュＡ２０３号,,15,103,9500948,,,,,,,2021-08-23,1,,,,,エイキ,0
2380,9120001239831,新規,0,2021-08-23,2021-08-23,ＵＺＵＳＨＩＯホールディングス株式会社,,株式会社,大阪府,大阪市港区,八幡屋４丁目２－８,,27,107,5520014,,,,,,,2021-08-23,1,,,,,ウズシオホールディングス,0
2381,9120001239848,新規,0,2021-08-23,2021-08-23,Ｂｌｕｅ　Ｉｎｎｏｖａｔｉｏｎ＆Ｅｎｖｉｒｏｎｍｅｎｔａｌ　Ｎｅｔｗｏｒｋ株式会社,,株式会社,大阪府,大阪市東住吉区,公園南矢田２丁目１６番５号,,27,121,5460024,,,,,,,2021-08-23,1,,,,,ブルーイノベーションアンドエンヴァイロメンタルネットワーク,0
2397,9130001069955,新規,0,2021-08-23,2021-08-23,Ｌ．Ｓ．Ｓ．株式会社,,株式会社,京都府,京都市山科区,勧修寺西北出町２３番地,,26,110,6078225,,,,,,,2021-08-23,1,,,,,エルエスエス,0
2398,9130001069963,新規,0,2021-08-23,2021-08-23,株式会社Ｂｅ,,株式会社,京都府,京都市南区,吉祥院蒔絵町２番地１ダイアパレス京都蒔絵１００３,,26,107,6018344,,,,,,,2021-08-23,1,,,,,ビィ,0
2402,9130003007434,新規,0,2021-08-23,2021-08-23,合同会社リンクス,,合同会社,京都府,京都市上京区,七本松通今出川上る片原町５２０,,26,102,6028316,,,,,,,2021-08-23,1,,,,,リンクス,0
2408,9140001122770,新規,0,2021-08-23,2021-08-23,株式会社バーディーバディ,,株式会社,兵庫県,芦屋市,涼風町７番９号,,28,206,6590036,,,,,,,2021-08-23,1,,,,,バーディーバディ,0
2409,9140003016657,新規,0,2021-08-23,2021-08-23,合同会社雑貨よいもの研究所,,合同会社,兵庫県,明石市,東野町２０５６番地１００９号,,28,203,6730844,,,,,,,2021-08-23,1,,,,,ザッカヨイモノケンキュウショ,0
2411,9150003002466,新規,0,2021-08-23,2021-08-23,合同会社ＭＡＲＵＯ,,合同会社,奈良県,大和郡山市,今井町７番地,,29,203,6391155,,,,,,,2021-08-23,1,,,,,マルオ,0
2426,9180001147500,新規,0,2021-08-23,2021-08-23,月に雁株式会社,,株式会社,愛知県,名古屋市中区,錦３丁目１８番１１号,,23,106,4600003,,,,,,,2021-08-23,1,,,,,ツキニカリ,0
2435,9190001028625,新規,0,2021-08-23,2021-08-23,株式会社かぐや,,株式会社,三重県,尾鷲市,大字向井５４５番地１,,24,209,5193625,,,,,,,2021-08-23,1,,,,,カグヤ,0
2449,9240003005253,新規,0,2021-08-23,2021-08-23,ＬＵＸＥＹ合同会社,,合同会社,広島県,広島市南区,東雲２丁目１４番１６号,,34,103,7340022,,,,,,,2021-08-23,1,,,,,リュクシー,0
2461,9260001035886,新規,0,2021-08-23,2021-08-23,エンシャスユニオン株式会社,,株式会社,岡山県,岡山市東区,東平島５１番地３,,33,103,7090631,,,,,,,2021-08-23,1,,,,,エンシャスユニオン,0
2469,9290001094293,新規,0,2021-08-23,2021-08-23,ストリートプロ株式会社,,株式会社,福岡県,春日市,大土居１丁目１０５番地,,40,218,8160847,,,,,,,2021-08-23,1,,,,,ストリートプロ,0
2470,9290001094310,新規,0,2021-08-23,2021-08-23,株式会社ＧａＫｅｎ,,株式会社,福岡県,福岡市博多区,大博町３番３０号博多永久ビル５０５号,,40,132,8120033,,,,,,,2021-08-23,1,,,,,ガケン,0
2478,9330001028932,新規,0,2021-08-23,2021-08-23,株式会社ｙｕｓｈｉｎ,,株式会社,熊本県,阿蘇郡小国町,大字宮原１６３５－５,,43,424,8692501,,,,,,,2021-08-23,1,,,,,ユウシン,0
2494,9430003013071,新規,0,2021-08-23,2021-08-23,合同会社ＺＡＱ,,合同会社,北海道,札幌市中央区,南十三条西１１丁目１番２１号パレス木村１０２号室,,01,101,0640913,,,,,,,2021-08-23,1,,,,,ザック,0
2501,9490001009966,新規,0,2021-08-23,2021-08-23,株式会社あとらくと,,株式会社,高知県,高知市,薊野西町２丁目６番地７号,,39,201,7810015,,,,,,,2021-08-23,1,,,,,アトラクト,0
