sequenceNumber,corporateNumber,process,correct,updateDate,changeDate,name,nameImageId,kind,prefectureName,cityName,streetNumber,addressImageId,prefectureCode,cityCode,postCode,addressOutside,addressOutsideImageId,closeDate,closeCause,successorCorporateNumber,changeCause,assignmentDate,latest,enName,enPrefectureName,enCityName,enAddressOutside,furigana,hihyoji
3,1010001142368,登記記録の閉鎖等,0,2026-01-08,2026-01-07,暁富株式会社,,株式会社,東京都,豊島区,南池袋３丁目１３番７号ビジネスヴィップ池袋８０１号室,,13,116,1710022,,,2026-01-07,登記官による閉鎖,,,2015-10-05,1,,,,,,0
13,1010001230916,登記記録の閉鎖等,0,2026-01-08,2025-12-16,ＣＰＤ投資顧問株式会社,,株式会社,東京都,千代田区,紀尾井町３番１２号,,13,101,1020094,,,2025-12-16,清算の結了等,,,2022-11-18,1,,,,,シーピーディートウシコモン,0
36,1010701017712,登記記録の閉鎖等,0,2026-01-08,2026-01-05,奥野印刷株式会社,,株式会社,東京都,三鷹市,中原４丁目２４番２５号,,13,204,1810005,,,2026-01-05,清算の結了等,,,2015-10-05,1,,,,,オクノインサツ,0
51,1011002012122,登記記録の閉鎖等,0,2026-01-08,2025-12-10,有限会社マリンダリミテッド,,有限会社,東京都,渋谷区,神宮前２丁目２７番２号,,13,113,1500001,,,2025-12-10,合併による解散等,2011001011173,令和７年１２月１０日東京都渋谷区神宮前二丁目２７番２号マリンダイーストジョンマナース株式会社（2011001011173）に合併し解散,2015-10-05,1,,,,,マリンダリミテッド,0
58,1011102015842,登記記録の閉鎖等,0,2026-01-08,2025-12-09,有限会社ケイ・アンド・ケイコミュニティー,,有限会社,東京都,新宿区,歌舞伎町２丁目３７番５号,,13,104,1600021,,,2025-12-09,清算の結了等,,,2015-10-05,1,,,,,ケイアンドケイコミュニティー,0
85,1013301000641,登記記録の閉鎖等,0,2026-01-08,2026-01-07,株式会社アネックスコミュニケーション,,株式会社,東京都,豊島区,目白４丁目１２番３号,,13,116,1710031,,,2026-01-07,登記官による閉鎖,,,2015-10-05,1,,,,,,0
86,1013301001202,登記記録の閉鎖等,0,2026-01-08,2026-01-07,株式会社インペツクス商会,,株式会社,東京都,豊島区,南大塚３丁目３９番３号,,13,116,1700005,,,2026-01-07,登記官による閉鎖,,,2015-10-05,1,,,,,,0
87,1013301001508,登記記録の閉鎖等,0,2026-01-08,2026-01-07,株式会社エイワインターナショナル,,株式会社,東京都,豊島区,西池袋５丁目２６番１６号,,13,116,1710021,,,2026-01-07,登記官による閉鎖,,,2015-10-05,1,,,,,,0
88,1013301001615,登記記録の閉鎖等,0,2026-01-08,2026-01-07,株式会社エスパー,,株式会社,東京都,豊島区,池袋２丁目７１番３号,,13,116,1710014,,,2026-01-07,登記官による閉鎖,,,2015-10-05,1,,,,,,0
89,1013301002209,登記記録の閉鎖等,0,2026-01-08,2026-01-07,株式会社科研,,株式会社,東京都,豊島区,東池袋１丁目４４番２号－９０１,,13,116,1700013,,,2026-01-07,登記官による閉鎖,,,2015-10-05,1,,,,,,0
90,1013301003082,登記記録の閉鎖等,0,2026-01-08,2026-01-07,オリエンタルビルヂング株式会社,,株式会社,東京都,豊島区,北大塚３丁目３３番１２号オリエンタルビル８号館,,13,116,1700004,,,2026-01-07,登記官による閉鎖,,,2015-10-05,1,,,,,,0
91,1013301003900,登記記録の閉鎖等,0,2026-01-08,2026-01-07,国光商事株式会社,,株式会社,東京都,豊島区,西巣鴨２丁目２４４０番地,,13,116,1700001,,,2026-01-07,登記官による閉鎖,,,2015-10-05,1,,,,,,0
92,1013301005293,登記記録の閉鎖等,0,2026-01-08,2026-01-07,株式会社シティプラン,,株式会社,東京都,豊島区,東池袋４丁目２７番５号,,13,116,1700013,,,2026-01-07,登記官による閉鎖,,,2015-10-05,1,,,,,,0
93,1013301005302,登記記録の閉鎖等,0,2026-01-08,2026-01-07,信託ゴルフ株式会社,,株式会社,東京都,豊島区,池袋２丁目３７番５号,,13,116,1710014,,,2026-01-07,登記官による閉鎖,,,2015-10-05,1,,,,,,0
94,1013301006969,登記記録の閉鎖等,0,2026-01-08,2026-01-07,株式会社ダイフクコーポレーション,,株式会社,東京都,豊島区,池袋３丁目２番２号柳沼ビル４０１号,,13,116,1710014,,,2026-01-07,登記官による閉鎖,,,2015-10-05,1,,,,,,0
95,1013301007257,登記記録の閉鎖等,0,2026-01-08,2026-01-07,玉川緑地公園株式会社,,株式会社,東京都,豊島区,東池袋１丁目４７番１号,,13,116,1700013,,,2026-01-07,登記官による閉鎖,,,2015-10-05,1,,,,,,0
96,1013301008222,登記記録の閉鎖等,0,2026-01-08,2026-01-07,東栄リース株式会社,,株式会社,東京都,豊島区,西池袋１丁目１９番６号松長ビル,,13,116,1710021,,,2026-01-07,登記官による閉鎖,,,2015-10-05,1,,,,,,0
97,1013301009542,登記記録の閉鎖等,0,2026-01-08,2026-01-07,株式会社ニッセイト,,株式会社,東京都,豊島区,東池袋１丁目１５番３号,,13,116,1700013,,,2026-01-07,登記官による閉鎖,,,2015-10-05,1,,,,,,0
98,1013301010855,登記記録の閉鎖等,0,2026-01-08,2026-01-07,株式会社プロット,,株式会社,東京都,豊島区,西池袋３丁目２６番６号,,13,116,1710021,,,2026-01-07,登記官による閉鎖,,,2015-10-05,1,,,,,,0
99,1013301012182,登記記録の閉鎖等,0,2026-01-08,2026-01-07,株式会社横川コンサルタント,,株式会社,東京都,豊島区,要町１丁目１０番１号,,13,116,1710043,,,2026-01-07,登記官による閉鎖,,,2015-10-05,1,,,,,,0
100,1013301014138,登記記録の閉鎖等,0,2026-01-08,2026-01-07,株式会社第一あさひ,,株式会社,東京都,豊島区,東池袋１丁目４６番１３号,,13,116,1700013,,,2026-01-07,登記官による閉鎖,,,2015-10-05,1,,,,,,0
101,1013301015292,登記記録の閉鎖等,0,2026-01-08,2026-01-07,株式会社若松,,株式会社,東京都,豊島区,東池袋１丁目３９番６号,,13,116,1700013,,,2026-01-07,登記官による閉鎖,,,2015-10-05,1,,,,,,0
102,1013301015508,登記記録の閉鎖等,0,2026-01-08,2026-01-07,株式会社共栄ホームサービス,,株式会社,東京都,豊島区,東池袋３丁目２０番１６－１４０４号,,13,116,1700013,,,2026-01-07,登記官による閉鎖,,,2015-10-05,1,,,,,,0
103,1013301015722,登記記録の閉鎖等,0,2026-01-08,2026-01-07,株式会社ハートフル・ユニティ,,株式会社,東京都,豊島区,長崎１丁目２８番２３号Ｍｕｓｅ４Ｆ,,13,116,1710051,,,2026-01-07,登記官による閉鎖,,,2015-10-05,1,,,,,,0
104,1013301015821,登記記録の閉鎖等,0,2026-01-08,2026-01-07,ユーメディック株式会社,,株式会社,東京都,豊島区,池袋４丁目１番７号,,13,116,1710014,,,2026-01-07,登記官による閉鎖,,,2015-10-05,1,,,,,,0
105,1013301016051,登記記録の閉鎖等,0,2026-01-08,2026-01-07,株式会社綜合経営研究所,,株式会社,東京都,豊島区,南長崎１丁目６番７号,,13,116,1710052,,,2026-01-07,登記官による閉鎖,,,2015-10-05,1,,,,,,0
106,1013301016828,登記記録の閉鎖等,0,2026-01-08,2026-01-07,株式会社エム・エス・テー・エンジニアリング,,株式会社,東京都,豊島区,西池袋５丁目１９番２２号,,13,116,1710021,,,2026-01-07,登記官による閉鎖,,,2015-10-05,1,,,,,,0
107,1013301018691,登記記録の閉鎖等,0,2026-01-08,2026-01-07,株式会社オフイスグローバル,,株式会社,東京都,豊島区,雑司が谷１丁目４９番５号,,13,116,1710032,,,2026-01-07,登記官による閉鎖,,,2015-10-05,1,,,,,,0
108,1013301018782,登記記録の閉鎖等,0,2026-01-08,2026-01-07,株式会社メディア・ネット・システム,,株式会社,東京都,豊島区,要町１丁目１番１１号要町ＫＴビル６Ｆ,,13,116,1710043,,,2026-01-07,登記官による閉鎖,,,2015-10-05,1,,,,,,0
109,1013301018873,登記記録の閉鎖等,0,2026-01-08,2026-01-07,株式会社増田俊男事務所,,株式会社,東京都,豊島区,高松２丁目１４番１８号,,13,116,1710042,,,2026-01-07,登記官による閉鎖,,,2015-10-05,1,,,,,,0
110,1013301018907,登記記録の閉鎖等,0,2026-01-08,2026-01-07,株式会社鈴商コーポレーション,,株式会社,東京都,豊島区,池袋２丁目３７番２号ＫＤビル２－６０５,,13,116,1710014,,,2026-01-07,登記官による閉鎖,,,2015-10-05,1,,,,,,0
111,1013301019062,登記記録の閉鎖等,0,2026-01-08,2026-01-07,サクラメント・アートイメージ株式会社,,株式会社,東京都,豊島区,東池袋２丁目１４番１０－１０１号,,13,116,1700013,,,2026-01-07,登記官による閉鎖,,,2015-10-05,1,,,,,,0
112,1013301019764,登記記録の閉鎖等,0,2026-01-08,2026-01-07,株式会社豊栄,,株式会社,東京都,豊島区,東池袋１丁目４６番１３号堀口ビル３０５,,13,116,1700013,,,2026-01-07,登記官による閉鎖,,,2015-10-05,1,,,,,,0
113,1013301019979,登記記録の閉鎖等,0,2026-01-08,2026-01-07,株式会社サイフェニオ,,株式会社,東京都,豊島区,駒込４丁目１１番４号,,13,116,1700003,,,2026-01-07,登記官による閉鎖,,,2015-10-05,1,,,,,,0
114,1013301020053,登記記録の閉鎖等,0,2026-01-08,2026-01-07,株式会社シーズピートゥアイ,,株式会社,東京都,豊島区,南池袋２丁目４７番２号,,13,116,1710022,,,2026-01-07,登記官による閉鎖,,,2015-10-05,1,,,,,,0
115,1013301020202,登記記録の閉鎖等,0,2026-01-08,2026-01-07,株式会社ダイコク,,株式会社,東京都,豊島区,南池袋２丁目３２番１３号,,13,116,1710022,,,2026-01-07,登記官による閉鎖,,,2015-10-05,1,,,,,,0
116,1013301020219,登記記録の閉鎖等,0,2026-01-08,2026-01-07,株式会社バイオフィード,,株式会社,東京都,豊島区,南大塚１丁目１３番５号,,13,116,1700005,,,2026-01-07,登記官による閉鎖,,,2015-10-05,1,,,,,,0
117,1013301022982,登記記録の閉鎖等,0,2026-01-08,2026-01-07,株式会社メディアジャパン,,株式会社,東京都,豊島区,池袋２丁目３３－１４プチトマトビル３Ｆ,,13,116,1710014,,,2026-01-07,登記官による閉鎖,,,2015-10-05,1,,,,,,0
120,1013302004476,登記記録の閉鎖等,0,2026-01-08,2026-01-07,有限会社三興商事,,有限会社,東京都,豊島区,駒込１丁目２８番７号,,13,116,1700003,,,2026-01-07,登記官による閉鎖,,,2015-10-05,1,,,,,,0
121,1013302008205,登記記録の閉鎖等,0,2026-01-08,2026-01-07,有限会社モーリス,,有限会社,東京都,豊島区,長崎４丁目８番１４号,,13,116,1710051,,,2026-01-07,登記官による閉鎖,,,2015-10-05,1,,,,,,0
130,1020001088783,登記記録の閉鎖等,0,2026-01-08,2025-12-11,株式会社ｎｕａｎｄｓ．ｂｏｍ,,株式会社,東京都,港区,南青山１丁目１１番３０号パレ南青山,,13,103,1070062,,,2025-12-11,清算の結了等,,,2015-10-05,1,,,,,ヌアンズボム,0
132,1020001110737,登記記録の閉鎖等,0,2026-01-08,2025-12-26,株式会社トトラボ,,株式会社,神奈川県,川崎市宮前区,鷺沼２丁目１４番地４,,14,136,2160004,,,2025-12-26,清算の結了等,,,2015-10-05,1,,,,,トトラボ,0
142,1020003013913,登記記録の閉鎖等,0,2026-01-08,2025-12-24,合同会社ティー・プロジェクト,,合同会社,神奈川県,横浜市青葉区,青葉台１丁目２６番地５２,,14,117,2270062,,,2025-12-24,清算の結了等,,,2018-02-08,1,,,,,ティープロジェクト,0
175,1040002074871,登記記録の閉鎖等,0,2026-01-08,2025-12-11,有限会社平野工商,,有限会社,千葉県,市原市,奉免４００番地の１,,12,219,2900224,,,2025-12-11,清算の結了等,,,2015-10-05,1,,,,,ヒラノコウショウ,0
185,1060002004315,登記記録の閉鎖等,0,2026-01-08,2026-01-05,有限会社桜井建築,,有限会社,栃木県,宇都宮市,清住３丁目３番９号,,09,201,3200037,,,2026-01-05,清算の結了等,,,2015-10-05,1,,,,,サクライケンチク,0
186,1060002006047,登記記録の閉鎖等,0,2026-01-08,2026-01-06,有限会社つかさコーポレーション,,有限会社,栃木県,宇都宮市,本町６番３号,,09,201,3200033,,,2026-01-06,清算の結了等,,,2015-10-05,1,,,,,ツカサコーポレーション,0
190,1080003001631,登記記録の閉鎖等,0,2026-01-08,2025-12-24,ラトナエンジニアリング合同会社,,合同会社,静岡県,島田市,東町１８８番地の３,,22,209,4270011,,,2025-12-24,清算の結了等,,,2015-10-05,1,,,,,ラトナエンジニアリング,0
205,1120001231993,登記記録の閉鎖等,0,2026-01-08,2025-12-25,上の丘株式会社,,株式会社,大阪府,大阪市東淀川区,東中島１丁目２０－１２ユニゾーン新大阪１００６号,,27,114,5330033,,,2025-12-25,清算の結了等,,,2020-09-28,1,,,,,ウエノオカ,0
206,1120001248897,登記記録の閉鎖等,0,2026-01-08,2025-12-26,遠橋株式会社,,株式会社,東京都,荒川区,南千住１丁目４５番８号,,13,118,1160003,,,2025-12-26,清算の結了等,,,2022-09-20,1,,,,,エンキョウ,0
252,1200001041138,登記記録の閉鎖等,0,2026-01-08,2026-01-05,株式会社和,,株式会社,岐阜県,美濃加茂市,森山町３丁目１０－３０,,21,211,5050021,,,2026-01-05,清算の結了等,,,2023-04-05,1,,,,,ナゴミ,0
257,1230001018554,登記記録の閉鎖等,0,2026-01-08,2026-01-05,株式会社舟木保険事務所,,株式会社,富山県,高岡市,佐野９３１番地２,,16,202,9330826,,,2026-01-05,清算の結了等,,,2020-11-18,1,,,,,フナキホケンジムショ,0
261,1230002010015,登記記録の閉鎖等,0,2026-01-08,2025-12-26,有限会社ケンシンサポート工業,,有限会社,富山県,小矢部市,浅地４７６番地１,,16,209,9320122,,,2025-12-26,清算の結了等,,,2015-10-05,1,,,,,ケンシンサポートコウギョウ,0
268,1260001021101,登記記録の閉鎖等,0,2026-01-08,2025-12-23,株式会社ライスクロップ長尾,,株式会社,岡山県,勝田郡奈義町,柿３９９番地,,33,623,7081312,,,2025-12-23,清算の結了等,,,2015-10-05,1,,,,,ライスクロップナガオ,0
272,1260002004591,登記記録の閉鎖等,0,2026-01-08,2025-12-23,有限会社サムディ,,有限会社,岡山県,岡山市南区,箕島１７５番地の３,,33,104,7010206,,,2025-12-23,清算の結了等,,,2015-10-05,1,,,,,サムディ,0
281,1290002011759,登記記録の閉鎖等,0,2026-01-08,2025-12-16,有限会社鎮西実業,,有限会社,福岡県,福岡市城南区,荒江１丁目２７番６号,,40,136,8140101,,,2025-12-16,清算の結了等,,,2015-10-05,1,,,,,チンゼイジツギョウ,0
294,1320002001608,登記記録の閉鎖等,0,2026-01-08,2025-12-26,有限会社オガタ電器,,有限会社,大分県,大分市,大字上宗方８８１番地の２０,,44,201,8701152,,,2025-12-26,清算の結了等,,,2015-10-05,1,,,,,オガタデンキ,0
298,1330003009962,登記記録の閉鎖等,0,2026-01-08,2025-12-26,合同会社ａｎ,,合同会社,熊本県,熊本市中央区,本荘３丁目７－１４グリーンウッドビル１Ｆ,,43,101,8600811,,,2025-12-26,清算の結了等,,,2023-09-07,1,,,,,アン,0
302,1350001007363,登記記録の閉鎖等,0,2026-01-08,2025-12-25,株式会社拓設備,,株式会社,宮崎県,延岡市,尾崎町４７７９番地１,,45,203,8820006,,,2025-12-25,清算の結了等,,,2015-10-05,1,,,,,タクセツビ,0
306,1370002006123,登記記録の閉鎖等,0,2026-01-08,2025-12-26,アルーア有限会社,,有限会社,宮城県,仙台市太白区,大野田５丁目３３番地の１０アルーア３０１,,04,104,9820014,,,2025-12-26,清算の結了等,,,2015-10-05,1,,,,,アルーア,0
309,1370602001390,登記記録の閉鎖等,0,2026-01-08,2026-01-05,有限会社鳥越エンタープライズ,,有限会社,宮城県,塩竈市,錦町５番１３号,,04,203,9850024,,,2026-01-05,清算の結了等,,,2015-10-05,1,,,,,トリゴエエンタープライズ,0
324,1430002059189,登記記録の閉鎖等,0,2026-01-08,2025-12-01,有限会社大宝リフレッシュサービス,,有限会社,北海道,苫小牧市,青雲町３丁目５番３号,,01,213,0591263,,,2025-12-01,合併による解散等,5430001069549,令和７年１２月１日北海道苫小牧市青雲町三丁目５番３号株式会社テーアールエス（5430001069549）に合併し解散,2015-10-05,1,,,,,タイホウリフレッシュサービス,0
335,1500002015713,登記記録の閉鎖等,0,2026-01-08,2026-01-05,有限会社美容室まゆみ,,有限会社,愛媛県,新居浜市,庄内町６丁目７番４号,,38,205,7920811,,,2026-01-05,清算の結了等,,,2015-10-05,1,,,,,ビヨウシツマユミ,0
356,2010101008864,登記記録の閉鎖等,0,2026-01-08,2026-01-06,株式会社メゾピアノ,,株式会社,東京都,八王子市,大和田町６丁目１番１２号,,13,201,1920045,,,2026-01-06,清算の結了等,,,2015-10-05,1,,,,,メゾピアノ,0
358,2010401088796,登記記録の閉鎖等,0,2026-01-08,2026-01-06,株式会社ジャイロスコープ,,株式会社,長崎県,佐世保市,ハウステンボス町７番８号,,42,202,8593243,,,2026-01-06,清算の結了等,,,2015-10-05,1,,,,,ジャイロスコープ,0
359,2010401092071,登記記録の閉鎖等,0,2026-01-08,2025-12-11,株式会社藤篠,,株式会社,東京都,港区,麻布台１丁目１番３号,,13,103,1060041,,,2025-12-11,清算の結了等,,,2015-10-05,1,,,,,フジシノ,0
364,2010402006666,登記記録の閉鎖等,0,2026-01-08,2025-12-11,有限会社ジョンアンドジェーンドォ,,有限会社,東京都,港区,南麻布１丁目２１番８号,,13,103,1060047,,,2025-12-11,清算の結了等,,,2015-10-05,1,,,,,ジョンアンドジェーンドォ,0
371,2010601009924,登記記録の閉鎖等,0,2026-01-08,2025-12-22,小椋メリヤス工業株式会社,,株式会社,東京都,墨田区,亀沢４丁目２２番２号,,13,107,1300014,,,2025-12-22,清算の結了等,,,2015-10-05,1,,,,,オグラメリヤスコウギョウ,0
376,2010901031149,登記記録の閉鎖等,0,2026-01-08,2026-01-06,株式会社エー・イー・アール,,株式会社,東京都,世田谷区,中町２丁目１番２１号メゾン等々力２０７号,,13,112,1580091,,,2026-01-06,清算の結了等,,,2015-10-05,1,,,,,エーイーアール,0
391,2011001160004,登記記録の閉鎖等,0,2026-01-08,2025-12-10,株式会社グルメジェム,,株式会社,東京都,渋谷区,代々木３丁目１３番４号代々木コートＣ,,13,113,1510053,,,2025-12-10,清算の結了等,,,2024-02-14,1,,,,,グルメジェム,0
400,2011103010965,登記記録の閉鎖等,0,2026-01-08,2025-12-08,ＡＢＣマーケティング合同会社,,合同会社,東京都,新宿区,新宿２丁目１２番１３号新宿アントレサロンビル２階,,13,104,1600022,,,2025-12-08,清算の結了等,,,2021-08-30,1,,,,,エービーシーマーケティング,0
417,2013202004567,登記記録の閉鎖等,0,2026-01-08,2025-12-11,有限会社豊原興業,,有限会社,東京都,目黒区,東山１丁目５番９号,,13,110,1530043,,,2025-12-11,清算の結了等,,,2015-10-05,1,,,,,トヨハラコウギョウ,0
418,2013301001630,登記記録の閉鎖等,0,2026-01-08,2026-01-07,株式会社エスポ・コミュニケーションズ,,株式会社,東京都,豊島区,東池袋１丁目１５番３号,,13,116,1700013,,,2026-01-07,登記官による閉鎖,,,2015-10-05,1,,,,,,0
419,2013301005499,登記記録の閉鎖等,0,2026-01-08,2026-01-07,自由案内株式会社,,株式会社,東京都,豊島区,巣鴨３丁目２３番１１号,,13,116,1700002,,,2026-01-07,登記官による閉鎖,,,2015-10-05,1,,,,,,0
420,2013301007553,登記記録の閉鎖等,0,2026-01-08,2026-01-07,株式会社ティ・オー總合企画,00059882,株式会社,東京都,豊島区,東池袋１丁目４７番３号,,13,116,1700013,,,2026-01-07,登記官による閉鎖,,,2015-10-05,1,,,,,,0
421,2013301010061,登記記録の閉鎖等,0,2026-01-08,2026-01-07,万国産業株式会社,,株式会社,東京都,豊島区,南大塚３丁目３９番７号,,13,116,1700005,,,2026-01-07,登記官による閉鎖,,,2015-10-05,1,,,,,,0
422,2013301011621,登記記録の閉鎖等,0,2026-01-08,2026-01-07,誠企業株式会社,,株式会社,東京都,豊島区,南大塚３丁目３８番６号,,13,116,1700005,,,2026-01-07,登記官による閉鎖,,,2015-10-05,1,,,,,,0
423,2013301011670,登記記録の閉鎖等,0,2026-01-08,2026-01-07,三井企画株式会社,,株式会社,東京都,豊島区,南長崎５丁目３番１６号,,13,116,1710052,,,2026-01-07,登記官による閉鎖,,,2015-10-05,1,,,,,,0
424,2013301012735,登記記録の閉鎖等,0,2026-01-08,2026-01-07,丸商コーポレーション株式会社,,株式会社,東京都,豊島区,西池袋５丁目８番９号,,13,116,1710021,,,2026-01-07,登記官による閉鎖,,,2015-10-05,1,,,,,,0
425,2013301013097,登記記録の閉鎖等,0,2026-01-08,2026-01-07,株式会社ユーケン商業開発,,株式会社,東京都,豊島区,池袋本町１丁目８番１０号,,13,116,1700011,,,2026-01-07,登記官による閉鎖,,,2015-10-05,1,,,,,,0
426,2013301014624,登記記録の閉鎖等,0,2026-01-08,2026-01-07,株式会社ロータストレーディング,,株式会社,東京都,豊島区,目白３丁目１番１９号,,13,116,1710031,,,2026-01-07,登記官による閉鎖,,,2015-10-05,1,,,,,,0
427,2013301015036,登記記録の閉鎖等,0,2026-01-08,2026-01-07,株式会社東京政経リサーチ,,株式会社,東京都,豊島区,目白３丁目１７番４号,,13,116,1710031,,,2026-01-07,登記官による閉鎖,,,2015-10-05,1,,,,,,0
428,2013301015911,登記記録の閉鎖等,0,2026-01-08,2026-01-07,東京テレネット株式会社,,株式会社,東京都,豊島区,西池袋５丁目１０番１号,,13,116,1710021,,,2026-01-07,登記官による閉鎖,,,2015-10-05,1,,,,,,0
429,2013301016562,登記記録の閉鎖等,0,2026-01-08,2026-01-07,ジェイ・ニート株式会社,,株式会社,東京都,豊島区,池袋２丁目６１番５－６０１号,,13,116,1710014,,,2026-01-07,登記官による閉鎖,,,2015-10-05,1,,,,,,0
430,2013301016769,登記記録の閉鎖等,0,2026-01-08,2026-01-07,株式会社新真商事,,株式会社,東京都,豊島区,池袋１丁目８番７号,,13,116,1700014,,,2026-01-07,登記官による閉鎖,,,2015-10-05,1,,,,,,0
431,2013301016967,登記記録の閉鎖等,0,2026-01-08,2026-01-07,エーアンドエー株式会社,,株式会社,東京都,豊島区,高松１丁目５番８号,,13,116,1710042,,,2026-01-07,登記官による閉鎖,,,2015-10-05,1,,,,,,0
432,2013301017123,登記記録の閉鎖等,0,2026-01-08,2026-01-07,株式会社カンパニーズインターナショナル,,株式会社,東京都,豊島区,池袋４丁目２５番１２号,,13,116,1710014,,,2026-01-07,登記官による閉鎖,,,2015-10-05,1,,,,,,0
433,2013301017569,登記記録の閉鎖等,0,2026-01-08,2026-01-07,シードビジネス株式会社,,株式会社,東京都,豊島区,池袋２丁目４５番１号アークシティ６０１号,,13,116,1710014,,,2026-01-07,登記官による閉鎖,,,2015-10-05,1,,,,,,0
434,2013301018518,登記記録の閉鎖等,0,2026-01-08,2026-01-07,株式会社ユニコム・ジャパン,,株式会社,東京都,豊島区,東池袋１丁目４７番３号,,13,116,1700013,,,2026-01-07,登記官による閉鎖,,,2015-10-05,1,,,,,,0
435,2013301019846,登記記録の閉鎖等,0,2026-01-08,2026-01-07,サントレード株式会社,,株式会社,東京都,豊島区,東池袋３丁目９番９号黒澤ビル第二７階,,13,116,1700013,,,2026-01-07,登記官による閉鎖,,,2015-10-05,1,,,,,,0
436,2013301019862,登記記録の閉鎖等,0,2026-01-08,2026-01-07,株式会社メディパック,,株式会社,東京都,豊島区,東池袋３丁目８番５号パレドール池袋９０９,,13,116,1700013,,,2026-01-07,登記官による閉鎖,,,2015-10-05,1,,,,,,0
437,2013301019978,登記記録の閉鎖等,0,2026-01-08,2026-01-07,株式会社ハイウェブト,,株式会社,東京都,豊島区,東池袋１丁目３１番１３号,,13,116,1700013,,,2026-01-07,登記官による閉鎖,,,2015-10-05,1,,,,,,0
438,2013301019994,登記記録の閉鎖等,0,2026-01-08,2026-01-07,株式会社ベストマリーンサービス,,株式会社,東京都,豊島区,北大塚２丁目２３番１号,,13,116,1700004,,,2026-01-07,登記官による閉鎖,,,2015-10-05,1,,,,,,0
439,2013301020077,登記記録の閉鎖等,0,2026-01-08,2026-01-07,株式会社松下事務所,,株式会社,東京都,豊島区,東池袋４丁目２７番５号,,13,116,1700013,,,2026-01-07,登記官による閉鎖,,,2015-10-05,1,,,,,,0
440,2013301020085,登記記録の閉鎖等,0,2026-01-08,2026-01-07,株式会社正仁堂,,株式会社,東京都,豊島区,池袋１丁目２番６号,,13,116,1700014,,,2026-01-07,登記官による閉鎖,,,2015-10-05,1,,,,,,0
441,2013301020110,登記記録の閉鎖等,0,2026-01-08,2026-01-07,トリプル・エー・ジャパン株式会社,,株式会社,東京都,豊島区,南池袋２丁目８番１７号,,13,116,1710022,,,2026-01-07,登記官による閉鎖,,,2015-10-05,1,,,,,,0
442,2013301020218,登記記録の閉鎖等,0,2026-01-08,2026-01-07,株式会社インサイドキック,,株式会社,東京都,豊島区,西池袋３丁目２２番８号,,13,116,1710021,,,2026-01-07,登記官による閉鎖,,,2015-10-05,1,,,,,,0
443,2013301020234,登記記録の閉鎖等,0,2026-01-08,2026-01-07,株式会社リクワイメント,,株式会社,東京都,豊島区,千早１丁目１４番１２号,,13,116,1710044,,,2026-01-07,登記官による閉鎖,,,2015-10-05,1,,,,,,0
444,2013301021926,登記記録の閉鎖等,0,2026-01-08,2026-01-07,株式会社アフタートランス,,株式会社,東京都,豊島区,池袋３丁目３４番１３号,,13,116,1710014,,,2026-01-07,登記官による閉鎖,,,2015-10-05,1,,,,,,0
445,2013301026883,登記記録の閉鎖等,0,2026-01-08,2026-01-07,株式会社コマチ,,株式会社,東京都,豊島区,東池袋２丁目２２番７－１３０３号,,13,116,1700013,,,2026-01-07,登記官による閉鎖,,,2015-10-05,1,,,,,,0
447,2013301037138,登記記録の閉鎖等,0,2026-01-08,2026-01-07,東＿株式会社,00059979,株式会社,東京都,豊島区,高田３丁目３番１６号東方高田ビル３０４号室,,13,116,1710033,,,2026-01-07,登記官による閉鎖,,,2015-10-05,1,,,,,,0
452,2013302000730,登記記録の閉鎖等,0,2026-01-08,2026-01-07,有限会社アトリエシエスタ,,有限会社,東京都,豊島区,池袋２丁目４５番１－５０３号,,13,116,1710014,,,2026-01-07,登記官による閉鎖,,,2015-10-05,1,,,,,,0
453,2013302010374,登記記録の閉鎖等,0,2026-01-08,2026-01-07,有限会社ヤマト被服,,有限会社,東京都,豊島区,駒込７丁目１１番２号,,13,116,1700003,,,2026-01-07,登記官による閉鎖,,,2015-10-05,1,,,,,,0
454,2013305001552,登記記録の閉鎖等,0,2026-01-08,2026-01-07,一般社団法人地域情報中継局,,その他の設立登記法人,東京都,豊島区,東池袋３丁目１番４号,,13,116,1700013,,,2026-01-07,登記官による閉鎖,,,2015-10-05,1,,,,,,0
462,2020003007583,登記記録の閉鎖等,0,2026-01-08,2025-12-24,ＳＥＩＪＩＮ合同会社,,合同会社,東京都,墨田区,江東橋３丁目２－２大興ビル,,13,107,1300022,,,2025-12-24,清算の結了等,,,2015-10-05,1,,,,,セイジン,0
463,2021001047456,登記記録の閉鎖等,0,2026-01-08,2025-12-26,株式会社オフィスＫ,,株式会社,群馬県,藤岡市,中栗須３７５番地６,,10,209,3750015,,,2025-12-26,清算の結了等,,,2015-10-05,1,,,,,オフィスケイ,0
467,2030001052936,登記記録の閉鎖等,0,2026-01-08,2025-12-24,株式会社望月工業,,株式会社,埼玉県,春日部市,新方袋６５２番地２,,11,214,3440056,,,2025-12-24,清算の結了等,,,2015-10-05,1,,,,,モチヅキコウギョウ,0
505,2100002013574,登記記録の閉鎖等,0,2026-01-08,2026-01-06,有限会社上沢,,有限会社,長野県,上田市,五加１１８８番地１,,20,203,3861324,,,2026-01-06,清算の結了等,,,2015-10-05,1,,,,,アゲサワ,0
509,2120001111484,登記記録の閉鎖等,0,2026-01-08,2026-01-05,ウメトク不動産株式会社,,株式会社,大阪府,大阪市北区,茶屋町３番７号,,27,127,5300013,,,2026-01-05,合併による解散等,4120001061083,令和７年１２月３１日大阪市北区茶屋町３番７号ウメトク株式会社（4120001061083）に合併し解散,2015-10-05,1,,,,,ウメトクフドウサン,0
534,2130001040724,登記記録の閉鎖等,0,2026-01-08,2026-01-05,美雲織物株式会社,,株式会社,京都府,与謝郡与謝野町,字加悦１１１８番地,,26,465,6292403,,,2026-01-05,清算の結了等,,,2015-10-05,1,,,,,ミクモオリモノ,0
538,2140001055960,登記記録の閉鎖等,0,2026-01-08,2025-12-25,但馬日貨株式会社,,株式会社,兵庫県,豊岡市,千代田町９番１５号,,28,209,6680032,,,2025-12-25,清算の結了等,,,2015-10-05,1,,,,,タジマニッカ,0
546,2170005002444,登記記録の閉鎖等,0,2026-01-08,2026-01-05,湯浅酒販協同組合,,その他の設立登記法人,和歌山県,有田郡湯浅町,大字湯浅３１８５番地,,30,361,6430004,,,2026-01-05,合併による解散等,1170005003187,令和８年１月１日和歌山県紀の川市粉河１５３０番地伊那酒販協同組合（1170005003187）に合併し解散,2015-10-05,1,,,,,ユアサシュハン,0
548,2180001058357,登記記録の閉鎖等,0,2026-01-08,2026-01-05,株式会社山田綜合建築,,株式会社,愛知県,清須市,清洲１丁目９番地４,,23,233,4520942,,,2026-01-05,清算の結了等,,,2015-10-05,1,,,,,ヤマダソウゴウケンチク,0
559,2180302026921,登記記録の閉鎖等,0,2026-01-08,2025-12-22,有限会社稲垣建築設計室,,有限会社,愛知県,西尾市,一色町味浜堤東６４番地５,,23,213,4440422,,,2025-12-22,清算の結了等,,,2015-10-05,1,,,,,イナガキケンチクセッケイシツ,0
569,2240002021357,登記記録の閉鎖等,0,2026-01-08,2025-12-25,有限会社一徳,,有限会社,広島県,広島市南区,丹那町１０番２２－８０６号,,34,103,7340034,,,2025-12-25,清算の結了等,,,2015-10-05,1,,,,,イチトク,0
595,2330005003194,登記記録の閉鎖等,0,2026-01-08,2025-12-26,医療法人温故会,,その他の設立登記法人,熊本県,山鹿市,山鹿３２９番地１,,43,208,8610501,,,2025-12-26,清算の結了等,,,2015-10-05,1,,,,,オンコカイ,0
601,2370202000767,登記記録の閉鎖等,0,2026-01-08,2026-01-05,有限会社テクノ・キャスト,,有限会社,宮城県,大崎市,古川中里４丁目１３番１号,,04,215,9896143,,,2026-01-05,清算の結了等,,,2015-10-05,1,,,,,テクノキャスト,0
603,2370505000423,登記記録の閉鎖等,0,2026-01-08,2026-01-05,特定非営利活動法人ハーモニーうたつ,,その他の設立登記法人,宮城県,本吉郡南三陸町,歌津字管の浜８０番地４,,04,606,9880451,,,2026-01-05,清算の結了等,,,2015-10-05,1,,,,,ハーモニーウタツ,0
604,2380002020857,登記記録の閉鎖等,0,2026-01-08,2025-12-26,有限会社遠藤建設工業,,有限会社,福島県,石川郡石川町,大字山形字大室１０３番地,,07,501,9637814,,,2025-12-26,清算の結了等,,,2015-10-05,1,,,,,エンドウケンセツコウギョウ,0
616,2460101004141,登記記録の閉鎖等,0,2026-01-08,2025-12-26,小原建設株式会社,,株式会社,北海道,帯広市,西二十条南２丁目３７番４号,,01,207,0802470,,,2025-12-26,清算の結了等,,,2015-10-05,1,,,,,コハラケンセツ,0
619,2460302004279,登記記録の閉鎖等,0,2026-01-08,2026-01-05,有限会社軍司テント,,有限会社,北海道,網走市,新町３丁目６番６号,,01,211,0930046,,,2026-01-05,清算の結了等,,,2015-10-05,1,,,,,,0
625,2480001001006,登記記録の閉鎖等,0,2026-01-08,2026-01-05,高木金物株式会社,,株式会社,徳島県,徳島市,佐古四番町３番１１号,,36,201,7700024,,,2026-01-05,清算の結了等,,,2015-10-05,1,,,,,タカギカナモノ,0
643,3010401160364,登記記録の閉鎖等,0,2026-01-08,2026-01-06,株式会社江戸火鍋,,株式会社,東京都,品川区,東大井５丁目１５番１０号,,13,109,1400011,,,2026-01-06,合併による解散等,2010001210347,令和７年１２月１日東京都千代田区内幸町二丁目２番２号富国生命ビル１３Ｆ株式会社りゅうぐう（2010001210347）に合併し解散,2021-05-24,1,,,,,エドヒナベ,0
656,3010903006668,登記記録の閉鎖等,0,2026-01-08,2025-12-26,合同会社ブエナスメルカンシアス,,合同会社,東京都,世田谷区,三軒茶屋２丁目５番２号エスカイア三軒茶屋３０３,,13,112,1540024,,,2025-12-26,清算の結了等,,,2021-07-27,1,,,,,ブエナスメルカンシアス,0
671,3011401020954,登記記録の閉鎖等,0,2026-01-08,2025-12-26,株式会社アライード,,株式会社,東京都,板橋区,若木２丁目３３番１４号,,13,119,1740065,,,2025-12-26,清算の結了等,,,2018-04-18,1,,,,,アライード,0
676,3011501032569,登記記録の閉鎖等,0,2026-01-08,2026-01-05,株式会社ＫＪシステムズ,,株式会社,東京都,荒川区,東尾久６丁目４３番６号,,13,118,1160012,,,2026-01-05,清算の結了等,,,2025-09-12,1,,,,,ケージェイシステムズ,0
684,3012801018679,登記記録の閉鎖等,0,2026-01-08,2026-01-05,株式会社ｙｏｋｏｙａｍａ,,株式会社,東京都,武蔵村山市,榎２丁目３９番地の５野村コーポＡ号室,,13,223,2080022,,,2026-01-05,清算の結了等,,,2018-04-16,1,,,,,ヨコヤマ,0
686,3013201015192,登記記録の閉鎖等,0,2026-01-08,2025-12-08,株式会社サトーレイルウェイリサーチ,,株式会社,東京都,目黒区,上目黒３丁目６番２１－１３０１号,,13,110,1530051,,,2025-12-08,清算の結了等,,,2015-10-05,1,,,,,サトーレイルウェイリサーチ,0
687,3013301000185,登記記録の閉鎖等,0,2026-01-08,2026-01-07,株式会社青野都市建築研究所,,株式会社,東京都,豊島区,池袋１丁目１４番１２号,,13,116,1700014,,,2026-01-07,登記官による閉鎖,,,2015-10-05,1,,,,,,0
688,3013301001638,登記記録の閉鎖等,0,2026-01-08,2026-01-07,株式会社クラスト,,株式会社,東京都,豊島区,西池袋２丁目３０番９号,,13,116,1710021,,,2026-01-07,登記官による閉鎖,,,2015-10-05,1,,,,,,0
689,3013301003931,登記記録の閉鎖等,0,2026-01-08,2026-01-07,株式会社国土興産,,株式会社,東京都,豊島区,東池袋３丁目５番７号,,13,116,1700013,,,2026-01-07,登記官による閉鎖,,,2015-10-05,1,,,,,,0
690,3013301006760,登記記録の閉鎖等,0,2026-01-08,2026-01-07,大恵不動産株式会社,,株式会社,東京都,豊島区,池袋本町３丁目２５番１３号,,13,116,1700011,,,2026-01-07,登記官による閉鎖,,,2015-10-05,1,,,,,,0
691,3013301006926,登記記録の閉鎖等,0,2026-01-08,2026-01-07,大能建設株式会社,,株式会社,東京都,豊島区,東池袋１丁目３３番３号,,13,116,1700013,,,2026-01-07,登記官による閉鎖,,,2015-10-05,1,,,,,,0
692,3013301007362,登記記録の閉鎖等,0,2026-01-08,2026-01-07,地勢出版株式会社,,株式会社,東京都,豊島区,南池袋１丁目９番１８号,,13,116,1710022,,,2026-01-07,登記官による閉鎖,,,2015-10-05,1,,,,,,0
693,3013301008328,登記記録の閉鎖等,0,2026-01-08,2026-01-07,東京鑑定事務所株式会社,,株式会社,東京都,豊島区,東池袋１丁目３６番３－８０７号,,13,116,1700013,,,2026-01-07,登記官による閉鎖,,,2015-10-05,1,,,,,,0
694,3013301009714,登記記録の閉鎖等,0,2026-01-08,2026-01-07,野口建設株式会社,,株式会社,東京都,豊島区,北大塚３丁目２７番９号,,13,116,1700004,,,2026-01-07,登記官による閉鎖,,,2015-10-05,1,,,,,,0
695,3013301010176,登記記録の閉鎖等,0,2026-01-08,2026-01-07,株式会社ハマノ,,株式会社,東京都,豊島区,上池袋４丁目３５番１２号,,13,116,1700012,,,2026-01-07,登記官による閉鎖,,,2015-10-05,1,,,,,,0
696,3013301011827,登記記録の閉鎖等,0,2026-01-08,2026-01-07,株式会社百瀬設備設計事務所,,株式会社,東京都,豊島区,南大塚３丁目２番１４号,,13,116,1700005,,,2026-01-07,登記官による閉鎖,,,2015-10-05,1,,,,,,0
697,3013301011918,登記記録の閉鎖等,0,2026-01-08,2026-01-07,株式会社マルヒコ,,株式会社,東京都,豊島区,北大塚１丁目３４番２号,00066884,13,116,1700004,,,2026-01-07,登記官による閉鎖,,,2015-10-05,1,,,,,,0
698,3013301015266,登記記録の閉鎖等,0,2026-01-08,2026-01-07,株式会社明和エンジニア,,株式会社,東京都,豊島区,目白５丁目９番１号,,13,116,1710031,,,2026-01-07,登記官による閉鎖,,,2015-10-05,1,,,,,,0
699,3013301015687,登記記録の閉鎖等,0,2026-01-08,2026-01-07,アトミックリード株式会社,,株式会社,東京都,豊島区,南池袋２丁目４７番１４号,,13,116,1710022,,,2026-01-07,登記官による閉鎖,,,2015-10-05,1,,,,,,0
700,3013301016999,登記記録の閉鎖等,0,2026-01-08,2026-01-07,株式会社品質情報センター,,株式会社,東京都,豊島区,駒込１丁目１０番５号,,13,116,1700003,,,2026-01-07,登記官による閉鎖,,,2015-10-05,1,,,,,,0
701,3013301017774,登記記録の閉鎖等,0,2026-01-08,2026-01-07,株式会社パンアジア,,株式会社,東京都,豊島区,上池袋４丁目１０番８号,,13,116,1700012,,,2026-01-07,登記官による閉鎖,,,2015-10-05,1,,,,,,0
702,3013301018962,登記記録の閉鎖等,0,2026-01-08,2026-01-07,株式会社イー・ケー・ケーグループ,,株式会社,東京都,豊島区,巣鴨３丁目３１番２号,,13,116,1700002,,,2026-01-07,登記官による閉鎖,,,2015-10-05,1,,,,,,0
703,3013301019696,登記記録の閉鎖等,0,2026-01-08,2026-01-07,株式会社ＭＥＤＩＡ　ＰＯＩＮＴ,,株式会社,東京都,豊島区,東池袋３丁目２０番１６号,,13,116,1700013,,,2026-01-07,登記官による閉鎖,,,2015-10-05,1,,,,,,0
704,3013301019812,登記記録の閉鎖等,0,2026-01-08,2026-01-07,株式会社全日本ブラスト,,株式会社,東京都,豊島区,池袋２丁目２０番６号,,13,116,1710014,,,2026-01-07,登記官による閉鎖,,,2015-10-05,1,,,,,,0
705,3013301019894,登記記録の閉鎖等,0,2026-01-08,2026-01-07,株式会社原企画,,株式会社,東京都,豊島区,池袋２丁目５８番１号,,13,116,1710014,,,2026-01-07,登記官による閉鎖,,,2015-10-05,1,,,,,,0
706,3013301019928,登記記録の閉鎖等,0,2026-01-08,2026-01-07,メディアトランス株式会社,,株式会社,東京都,豊島区,南池袋２丁目３６番１０号,,13,116,1710022,,,2026-01-07,登記官による閉鎖,,,2015-10-05,1,,,,,,0
707,3013301020068,登記記録の閉鎖等,0,2026-01-08,2026-01-07,株式会社　ＫＩ　Ｃｏ．，Ｌｔｄ．,,株式会社,東京都,豊島区,東池袋１丁目３１番１３号,,13,116,1700013,,,2026-01-07,登記官による閉鎖,,,2015-10-05,1,,,,,,0
708,3013301020084,登記記録の閉鎖等,0,2026-01-08,2026-01-07,株式会社ミキ食品工業,,株式会社,東京都,豊島区,要町１丁目１番１０号,,13,116,1710043,,,2026-01-07,登記官による閉鎖,,,2015-10-05,1,,,,,,0
709,3013301026882,登記記録の閉鎖等,0,2026-01-08,2026-01-07,株式会社アトム,,株式会社,東京都,豊島区,東池袋２丁目２２番７－１３０３号,,13,116,1700013,,,2026-01-07,登記官による閉鎖,,,2015-10-05,1,,,,,,0
711,3013302000507,登記記録の閉鎖等,0,2026-01-08,2026-01-07,有限会社明石,,有限会社,東京都,豊島区,目白５丁目７番８－５０２号,,13,116,1710031,,,2026-01-07,登記官による閉鎖,,,2015-10-05,1,,,,,,0
712,3013302009523,登記記録の閉鎖等,0,2026-01-08,2026-01-07,有限会社マルヨネ,,有限会社,東京都,豊島区,池袋本町４丁目９番４号,,13,116,1700011,,,2026-01-07,登記官による閉鎖,,,2015-10-05,1,,,,,,0
713,3013305001725,登記記録の閉鎖等,0,2026-01-08,2026-01-07,一般社団法人日高さわやか村,,その他の設立登記法人,東京都,豊島区,目白５丁目１０番７号,,13,116,1710031,,,2026-01-07,登記官による閉鎖,,,2015-10-05,1,,,,,,0
717,3020002077172,登記記録の閉鎖等,0,2026-01-08,2026-01-05,有限会社羽田不動産鑑定事務所,,有限会社,神奈川県,横浜市中区,常盤町３丁目２５番地サンビル９階,,14,104,2310014,,,2026-01-05,清算の結了等,,,2015-10-05,1,,,,,ハダフドウサンカンテイジムショ,0
739,3040001097673,登記記録の閉鎖等,0,2026-01-08,2025-12-12,株式会社ヤマザキ,,株式会社,千葉県,匝瑳市,蕪里１２０６番地,,12,235,2892133,,,2025-12-12,清算の結了等,,,2016-11-11,1,,,,,ヤマザキ,0
764,3100001000473,登記記録の閉鎖等,0,2026-01-08,2026-01-05,株式会社エムテー,,株式会社,長野県,長野市,大字北長池１９５１番地５,,20,201,3810025,,,2026-01-05,清算の結了等,,,2015-10-05,1,,,,,エムテー,0
767,3100002005876,登記記録の閉鎖等,0,2026-01-08,2026-01-05,有限会社高野建設,,有限会社,長野県,上水内郡飯綱町,大字袖之山７３６番地,,20,590,3891223,,,2026-01-05,清算の結了等,,,2015-10-05,1,,,,,タカノケンセツ,0
768,3100002023746,登記記録の閉鎖等,0,2026-01-08,2026-01-05,有限会社タケヒラ,,有限会社,長野県,安曇野市,三郷温４９１０番地２６,,20,220,3998102,,,2026-01-05,清算の結了等,,,2015-10-05,1,,,,,タケヒラ,0
771,3100003002798,登記記録の閉鎖等,0,2026-01-08,2026-01-05,合資会社松屋,,合資会社,長野県,伊那市,荒井３５００番地１,,20,209,3960025,,,2026-01-05,清算の結了等,,,2015-10-05,1,,,,,マツヤ,0
772,3110001009687,登記記録の閉鎖等,0,2026-01-08,2025-12-26,株式会社リヴィージオ,,株式会社,新潟県,新潟市中央区,西大畑町５２０７番地３０,,15,103,9518104,,,2025-12-26,清算の結了等,,,2015-10-05,1,,,,,リヴィージオ,0
774,3110002022879,登記記録の閉鎖等,0,2026-01-08,2026-01-05,有限会社庄山クリーニング工場,,有限会社,新潟県,上越市,南本町２丁目８番５７号,,15,222,9430841,,,2026-01-05,清算の結了等,,,2015-10-05,1,,,,,ショウヤマクリーニングコウジョウ,0
778,3120001164779,登記記録の閉鎖等,0,2026-01-08,2026-01-05,近畿ベンダーサービス株式会社,,株式会社,大阪府,大阪市福島区,福島６丁目２５番１１号,,27,103,5530003,,,2026-01-05,合併による解散等,4120001036358,令和８年１月１日大阪市福島区福島六丁目２５番１１号ベンダーサービスセンター株式会社（4120001036358）に合併し解散,2015-10-05,1,,,,,キンキベンダーサービス,0
788,3120101044410,登記記録の閉鎖等,0,2026-01-08,2025-12-26,丸正ミート株式会社,,株式会社,大阪府,泉南市,鳴滝３丁目５番２０号,,27,228,5900534,,,2025-12-26,清算の結了等,,,2015-10-05,1,,,,,マルショウミート,0
795,3130001076668,登記記録の閉鎖等,0,2026-01-08,2026-01-05,東坡株式会社,,株式会社,京都府,京都市中京区,壬生東淵田町６－１－２０７,,26,104,6048853,,,2026-01-05,清算の結了等,,,2024-03-27,1,,,,,トバ,0
799,3140001035508,登記記録の閉鎖等,0,2026-01-08,2026-01-05,株式会社マルキン和田商店,,株式会社,兵庫県,明石市,藤江２０２９番地１,,28,203,6730044,,,2026-01-05,清算の結了等,,,2015-10-05,1,,,,,マルキンワダショウテン,0
800,3140002010105,登記記録の閉鎖等,0,2026-01-08,2025-12-25,有限会社正和メディカル,,有限会社,兵庫県,神戸市北区,鈴蘭台南町４丁目８番２６号,,28,109,6511113,,,2025-12-25,清算の結了等,,,2015-10-05,1,,,,,セイワメディカル,0
801,3140003021506,登記記録の閉鎖等,0,2026-01-08,2025-12-25,合同会社ＫＣＨ,,合同会社,兵庫県,姫路市,本町１２７番地,,28,201,6700012,,,2025-12-25,清算の結了等,,,2025-01-09,1,,,,,ケーシーエイチ,0
804,3160001017074,登記記録の閉鎖等,0,2026-01-08,2026-01-06,株式会社ＯＤ整理会社,,株式会社,滋賀県,湖南市,吉永３５５番地５,,25,211,5203222,,,2026-01-06,清算の結了等,,,2015-10-05,1,,,,,オーディーセイリガイシャ,0
805,3160002010144,登記記録の閉鎖等,0,2026-01-08,2025-12-26,有限会社アップルミント,,有限会社,滋賀県,東近江市,蛇溝町１０４８番地４,,25,213,5270073,,,2025-12-26,清算の結了等,,,2015-10-05,1,,,,,アップルミント,0
806,3180001149700,登記記録の閉鎖等,0,2026-01-08,2026-01-05,株式会社Ｙホールディングス,,株式会社,愛知県,名古屋市中区,松原３丁目１３番４１号,,23,106,4600017,,,2026-01-05,合併による解散等,6180001145028,令和８年１月１日名古屋市中区松原三丁目１３番４１号株式会社ワイ・ヨットホールディングス（6180001145028）に合併し解散,2022-01-25,1,,,,,ワイホールディングス,0
807,3180002025066,登記記録の閉鎖等,0,2026-01-08,2025-12-26,有限会社ライスセンター協同,,有限会社,愛知県,名古屋市西区,香呑町４丁目１４番地,,23,104,4510015,,,2025-12-26,清算の結了等,,,2015-10-05,1,,,,,ライスセンターキョウドウ,0
818,3200001037299,登記記録の閉鎖等,0,2026-01-08,2025-12-25,株式会社岐阜中央土木,,株式会社,岐阜県,岐阜市,学園町３丁目４番地,,21,201,5020841,,,2025-12-25,清算の結了等,,,2020-04-03,1,,,,,ギフチュウオウドボク,0
834,3260002003055,登記記録の閉鎖等,0,2026-01-08,2026-01-06,有限会社協同運送,,有限会社,岡山県,岡山市中区,江崎１３４番５,,33,102,7028005,,,2026-01-06,清算の結了等,,,2015-10-05,1,,,,,キョウドウウンソウ,0
875,3390001015823,登記記録の閉鎖等,0,2026-01-08,2025-12-24,株式会社やまがたアルカディア編集社,,株式会社,神奈川県,横浜市青葉区,あざみ野４丁目４番地７,,14,117,2250011,,,2025-12-24,清算の結了等,,,2019-10-01,1,,,,,ヤマガタアルカディアヘンシュウシャ,0
882,3430001002049,登記記録の閉鎖等,0,2026-01-08,2026-01-05,株式会社エイエックス,,株式会社,北海道,札幌市中央区,北六条西１６丁目１番地５,,01,101,0600006,,,2026-01-05,合併による解散等,8430001010146,令和８年１月１日札幌市中央区北六条西十六丁目１番地５株式会社竹山（8430001010146）に合併し解散,2015-10-05,1,,,,,エイエックス,0
884,3430001033028,登記記録の閉鎖等,0,2026-01-08,2025-12-26,原田建装株式会社,,株式会社,北海道,石狩市,花川南十条２丁目１３５番地,,01,235,0613210,,,2025-12-26,清算の結了等,,,2015-10-05,1,,,,,ハラダケンソウ,0
898,3500001013030,登記記録の閉鎖等,0,2026-01-08,2026-01-05,株式会社ＯＮＡＫＡ,,株式会社,愛媛県,今治市,大西町新町甲１０３６番地３,,38,202,7992203,,,2026-01-05,清算の結了等,,,2015-10-05,1,,,,,オーナカ,0
901,4010001034125,登記記録の閉鎖等,0,2026-01-08,2025-12-15,東京工機産業株式会社,,株式会社,東京都,千代田区,西神田２丁目７番６号,,13,101,1010065,,,2025-12-15,清算の結了等,,,2015-10-05,1,,,,,トウキョウコウキサンギョウ,0
911,4010001197855,登記記録の閉鎖等,0,2026-01-08,2025-12-15,ソーシャルリクルーティング株式会社,,株式会社,東京都,中央区,日本橋小伝馬町４－１１,,13,102,1030001,,,2025-12-15,清算の結了等,,,2019-01-22,1,,,,,ソーシャルリクルーティング,0
918,4010002041822,登記記録の閉鎖等,0,2026-01-08,2025-12-22,有限会社ワイマン,,有限会社,東京都,東久留米市,氷川台２丁目５番２２号,,13,222,2030004,,,2025-12-22,清算の結了等,,,2015-10-05,1,,,,,ワイマン,0
931,4010401174099,登記記録の閉鎖等,0,2026-01-08,2025-12-11,ＮＭＢアスフォデル株式会社,,株式会社,東京都,港区,新橋４丁目３０番６号京急中はらビル５Ｆ,,13,103,1050004,,,2025-12-11,清算の結了等,,,2023-05-01,1,,,,,エヌエムビーアスフォデル,0
935,4010601009030,登記記録の閉鎖等,0,2026-01-08,2025-12-22,株式会社近江屋,,株式会社,東京都,墨田区,緑１丁目１３番３号,,13,107,1300021,,,2025-12-22,清算の結了等,,,2015-10-05,1,,,,,オウミヤ,0
944,4010901050510,登記記録の閉鎖等,0,2026-01-08,2025-12-23,株式会社ＡＲＣＡＴＨ,,株式会社,東京都,世田谷区,桜丘３丁目３７－５グランデュオ千歳船橋ＩＶ３０６,00129704,13,112,1560054,,,2025-12-23,清算の結了等,,,2022-03-14,1,,,,,アルカス,0
948,4011001094571,登記記録の閉鎖等,0,2026-01-08,2026-01-07,株式会社インレックス,,株式会社,東京都,豊島区,雑司が谷２丁目５番２－４０１号,,13,116,1710032,,,2026-01-07,登記官による閉鎖,,,2015-10-05,1,,,,,,0
962,4011102026176,登記記録の閉鎖等,0,2026-01-08,2025-12-08,有限会社レイバー・サポート,,有限会社,東京都,新宿区,神楽坂２丁目４番地,,13,104,1620825,,,2025-12-08,清算の結了等,,,2015-10-05,1,,,,,レイバーサポート,0
965,4011305002445,登記記録の閉鎖等,0,2026-01-08,2025-12-25,一般社団法人教育研究所,,その他の設立登記法人,東京都,杉並区,和泉３丁目４６番９号,,13,115,1680063,,,2025-12-25,清算の結了等,,,2018-01-11,1,,,,,キョウイクケンキュウジョ,0
968,4011501003973,登記記録の閉鎖等,0,2026-01-08,2025-12-25,富士アミドケミカル株式会社,,株式会社,東京都,北区,浮間５丁目８番１８号,,13,117,1150051,,,2025-12-25,清算の結了等,,,2015-10-05,1,,,,,フジアミドケミカル,0
983,4013301003162,登記記録の閉鎖等,0,2026-01-08,2026-01-07,株式会社カネタ商事,,株式会社,東京都,豊島区,巣鴨３丁目３３番６号,,13,116,1700002,,,2026-01-07,登記官による閉鎖,,,2015-10-05,1,,,,,,0
984,4013301003625,登記記録の閉鎖等,0,2026-01-08,2026-01-07,株式会社東京債権調査協会,,株式会社,東京都,豊島区,上池袋１丁目２６番４号,,13,116,1700012,,,2026-01-07,登記官による閉鎖,,,2015-10-05,1,,,,,,0
985,4013301004425,登記記録の閉鎖等,0,2026-01-08,2026-01-07,山幸商事株式会社,,株式会社,東京都,豊島区,東池袋２丁目４５番１号,,13,116,1700013,,,2026-01-07,登記官による閉鎖,,,2015-10-05,1,,,,,,0
986,4013301005051,登記記録の閉鎖等,0,2026-01-08,2026-01-07,株式会社エスティリフォーム,,株式会社,東京都,豊島区,東池袋２丁目５７番２号,,13,116,1700013,,,2026-01-07,登記官による閉鎖,,,2015-10-05,1,,,,,,0
987,4013301008327,登記記録の閉鎖等,0,2026-01-08,2026-01-07,株式会社トータルインテリア司,,株式会社,東京都,豊島区,西池袋５丁目４番７号,,13,116,1710021,,,2026-01-07,登記官による閉鎖,,,2015-10-05,1,,,,,,0
988,4013301009184,登記記録の閉鎖等,0,2026-01-08,2026-01-07,日本ケミカル建設株式会社,,株式会社,東京都,豊島区,池袋本町２丁目５番４号,,13,116,1700011,,,2026-01-07,登記官による閉鎖,,,2015-10-05,1,,,,,,0
989,4013301009457,登記記録の閉鎖等,0,2026-01-08,2026-01-07,ローヤルシネフォワード株式会社,,株式会社,東京都,豊島区,南大塚２丁目３２番４号,00066865,13,116,1700005,,,2026-01-07,登記官による閉鎖,,,2015-10-05,1,,,,,,0
990,4013301009886,登記記録の閉鎖等,0,2026-01-08,2026-01-07,株式会社日本同和新報社,,株式会社,東京都,豊島区,南大塚２丁目２６番７号,,13,116,1700005,,,2026-01-07,登記官による閉鎖,,,2015-10-05,1,,,,,,0
991,4013301014424,登記記録の閉鎖等,0,2026-01-08,2026-01-07,株式会社エスティーオー,,株式会社,東京都,豊島区,池袋２丁目６１番５号６０１,,13,116,1710014,,,2026-01-07,登記官による閉鎖,,,2015-10-05,1,,,,,,0
992,4013301016049,登記記録の閉鎖等,0,2026-01-08,2026-01-07,株式会社ユーエヌエー,,株式会社,東京都,豊島区,雑司が谷１丁目３９番３号,,13,116,1710032,,,2026-01-07,登記官による閉鎖,,,2015-10-05,1,,,,,,0
993,4013301016957,登記記録の閉鎖等,0,2026-01-08,2026-01-07,株式会社翔雲社,,株式会社,東京都,豊島区,北大塚２丁目１７番７号,,13,116,1700004,,,2026-01-07,登記官による閉鎖,,,2015-10-05,1,,,,,,0
994,4013301018490,登記記録の閉鎖等,0,2026-01-08,2026-01-07,日本山橋電器株式会社,,株式会社,東京都,豊島区,東池袋１丁目４５番５号Ａ－１ビル２階,,13,116,1700013,,,2026-01-07,登記官による閉鎖,,,2015-10-05,1,,,,,,0
995,4013301018755,登記記録の閉鎖等,0,2026-01-08,2026-01-07,ウィントロニクス株式会社,,株式会社,東京都,豊島区,高田３丁目１８番１０号,,13,116,1710033,,,2026-01-07,登記官による閉鎖,,,2015-10-05,1,,,,,,0
996,4013301019126,登記記録の閉鎖等,0,2026-01-08,2026-01-07,株式会社オフィス弐五五,,株式会社,東京都,豊島区,東池袋１丁目４５番４号,,13,116,1700013,,,2026-01-07,登記官による閉鎖,,,2015-10-05,1,,,,,,0
997,4013301019679,登記記録の閉鎖等,0,2026-01-08,2026-01-07,株式会社ユニオン商事,,株式会社,東京都,豊島区,高松１丁目１６番４号,,13,116,1710042,,,2026-01-07,登記官による閉鎖,,,2015-10-05,1,,,,,,0
998,4013301020001,登記記録の閉鎖等,0,2026-01-08,2026-01-07,株式会社ファインメイト,,株式会社,東京都,豊島区,池袋２丁目４３番３号,,13,116,1710014,,,2026-01-07,登記官による閉鎖,,,2015-10-05,1,,,,,,0
999,4013301032450,登記記録の閉鎖等,0,2026-01-08,2026-01-07,株式会社クラシックネット,,株式会社,東京都,豊島区,東池袋１丁目４７番７号東光ビルアネックス１０１,,13,116,1700013,,,2026-01-07,登記官による閉鎖,,,2015-10-05,1,,,,,,0
1000,4013302008367,登記記録の閉鎖等,0,2026-01-08,2026-01-07,有限会社ビジネスレック,,有限会社,東京都,豊島区,南池袋１丁目１６番４号,,13,116,1710022,,,2026-01-07,登記官による閉鎖,,,2015-10-05,1,,,,,,0
1001,4013305000750,登記記録の閉鎖等,0,2026-01-08,2026-01-07,特定非営利活動法人オズの子供たち,,その他の設立登記法人,東京都,豊島区,東池袋１丁目２５番１７号ウエストビル３階,,13,116,1700013,,,2026-01-07,登記官による閉鎖,,,2015-10-05,1,,,,,,0
1002,4013305001583,登記記録の閉鎖等,0,2026-01-08,2026-01-07,一般社団法人日本指定自動車学校協会,,その他の設立登記法人,東京都,豊島区,東池袋１丁目３２番７号,,13,116,1700013,,,2026-01-07,登記官による閉鎖,,,2015-10-05,1,,,,,,0
1016,4021001055878,登記記録の閉鎖等,0,2026-01-08,2026-01-07,株式会社スペード,,株式会社,東京都,豊島区,北大塚３丁目５番１４号,,13,116,1700004,,,2026-01-07,登記官による閉鎖,,,2015-10-05,1,,,,,,0
1023,4030001131754,登記記録の閉鎖等,0,2026-01-08,2025-12-24,ちよだ情報サービス株式会社,,株式会社,埼玉県,川口市,幸町２丁目８番１２号２Ｆ,,11,203,3320016,,,2025-12-24,清算の結了等,,,2019-07-03,1,,,,,チヨダジョウホウサービス,0
1034,4030002092319,登記記録の閉鎖等,0,2026-01-08,2025-12-24,有限会社栗原住建工業,,有限会社,埼玉県,坂戸市,大字中小坂３１１番地,,11,239,3500206,,,2025-12-24,清算の結了等,,,2015-10-05,1,,,,,クリハラジュウケンコウギョウ,0
1041,4040002074101,登記記録の閉鎖等,0,2026-01-08,2025-12-11,有限会社高森工業,,有限会社,千葉県,市原市,中高根１４３０番地５,,12,219,2900242,,,2025-12-11,清算の結了等,,,2015-10-05,1,,,,,,0
1047,4050001015864,登記記録の閉鎖等,0,2026-01-08,2025-12-26,株式会社つくば国際スポーツセンター,,株式会社,茨城県,つくば市,春日２丁目３３番地４,,08,220,3050821,,,2025-12-26,清算の結了等,,,2015-10-05,1,,,,,ツクバコクサイスポーツセンター,0
1062,4080001023047,登記記録の閉鎖等,0,2026-01-08,2026-01-05,株式会社ゼロレジ,,株式会社,静岡県,富士宮市,北山４４０６,,22,207,4180112,,,2026-01-05,清算の結了等,,,2019-08-14,1,,,,,ゼロレジ,0
1065,4080102008194,登記記録の閉鎖等,0,2026-01-08,2026-01-05,有限会社玉樟園新井,,有限会社,静岡県,伊豆市,土肥２８４番地の２,,22,222,4103302,,,2026-01-05,清算の結了等,,,2015-10-05,1,,,,,ギョクショウエンアライ,0
1066,4080103002048,登記記録の閉鎖等,0,2026-01-08,2026-01-05,合同会社Ｇｏｏｄ　ｓｐａｃｅ,,合同会社,静岡県,裾野市,須山３００５番地の６５,,22,220,4101231,,,2026-01-05,清算の結了等,,,2019-10-08,1,,,,,グッドスペース,0
1071,4100002029239,登記記録の閉鎖等,0,2026-01-08,2026-01-05,有限会社ディーテック,,有限会社,長野県,諏訪市,小和田５番１０号,,20,206,3920024,,,2026-01-05,清算の結了等,,,2015-10-05,1,,,,,ディーテック,0
1072,4100003000578,登記記録の閉鎖等,0,2026-01-08,2025-12-10,飯綱東高原観光開発株式会社,,株式会社,東京都,渋谷区,桜丘町１番２号渋谷サクラステージセントラルビル１１階,,13,113,1500031,,,2025-12-10,清算の結了等,,,2015-10-05,1,,,,,イイヅナヒガシコウゲンカンコウカイハツ,0
1082,4120001185139,登記記録の閉鎖等,0,2026-01-08,2026-01-05,株式会社アークライド,,株式会社,大阪府,大阪市中央区,材木町１－６第１２新興ビル５０１号,,27,128,5400010,,,2026-01-05,清算の結了等,,,2015-10-05,1,,,,,アークライド,0
1083,4120001196029,登記記録の閉鎖等,0,2026-01-08,2026-01-05,株式会社メディベース,,株式会社,大阪府,大阪市北区,梅田２丁目２番２号ヒルトンプラザウェストオフィスタワー１９階,,27,127,5300001,,,2026-01-05,清算の結了等,,,2016-01-29,1,,,,,メディベース,0
1104,4130001039277,登記記録の閉鎖等,0,2026-01-08,2026-01-05,株式会社歓彩館,,株式会社,京都府,京田辺市,山手東１丁目１８番地８,,26,211,6100357,,,2026-01-05,清算の結了等,,,2015-10-05,1,,,,,カンサイカン,0
1110,4150001017594,登記記録の閉鎖等,0,2026-01-08,2026-01-05,田中株式会社,,株式会社,奈良県,生駒郡三郷町,信貴ケ丘１丁目１番３０号,,29,343,6360813,,,2026-01-05,清算の結了等,,,2015-10-05,1,,,,,タナカ,0
1116,4180001035759,登記記録の閉鎖等,0,2026-01-08,2026-01-05,株式会社ワイ・ヨットアセットマネジメント,,株式会社,愛知県,名古屋市中区,松原３丁目１３番４１号,,23,106,4600017,,,2026-01-05,合併による解散等,7180001054665,令和８年１月１日名古屋市中区松原三丁目１３番４１号株式会社ワイ・ヨットネットワークセンター（7180001054665）に合併し解散,2015-10-05,1,,,,,ワイヨットアセットマネジメント,0
1118,4180001145954,登記記録の閉鎖等,0,2026-01-08,2025-12-26,ユーアイソリューションズ株式会社,,株式会社,愛知県,日進市,浅田平子１丁目２８９番地,,23,230,4700128,,,2025-12-26,合併による解散等,2180001067275,令和７年１２月１５日愛知県日進市浅田平子一丁目２８９番地株式会社ユーアイテクニカ（2180001067275）に合併し解散,2021-05-07,1,,,,,ユーアイソリューションズ,0
1122,4180002026278,登記記録の閉鎖等,0,2026-01-08,2026-01-05,有限会社西尾不動産,,有限会社,愛知県,名古屋市緑区,平手北２丁目１０５５番地,,23,114,4580008,,,2026-01-05,清算の結了等,,,2015-10-05,1,,,,,ニシオフドウサン,0
1125,4180005018339,登記記録の閉鎖等,0,2026-01-08,2025-12-26,特定非営利活動法人あいらす,,その他の設立登記法人,愛知県,名古屋市中川区,柳森町１６０１番地の５,,23,110,4540871,,,2025-12-26,清算の結了等,,,2019-07-05,1,,,,,アイラス,0
1127,4180303000031,登記記録の閉鎖等,0,2026-01-08,2025-12-26,合資会社富岡屋,,合資会社,愛知県,岡崎市,亀井町２丁目６番地,,23,202,4440049,,,2025-12-26,清算の結了等,,,2015-10-05,1,,,,,トミオカヤ,0
1141,4230001020532,登記記録の閉鎖等,0,2026-01-08,2026-01-05,株式会社創建,,株式会社,富山県,富山市,今泉西部町１１番地９,,16,201,9398281,,,2026-01-05,清算の結了等,,,2024-09-17,1,,,,,ソウケン,0
1143,4250001003205,登記記録の閉鎖等,0,2026-01-08,2026-01-06,株式会社櫻井工業所,,株式会社,山口県,宇部市,大字東岐波４７２５番地,,35,202,7550241,,,2026-01-06,清算の結了等,,,2015-10-05,1,,,,,サクライコウギョウショ,0
1154,4290001008877,登記記録の閉鎖等,0,2026-01-08,2025-12-17,株式会社テクノス・エンジニアリング,,株式会社,福岡県,福岡市中央区,舞鶴３丁目８番１０号,,40,133,8100073,,,2025-12-17,清算の結了等,,,2015-10-05,1,,,,,テクノスエンジニアリング,0
1159,4290003011879,登記記録の閉鎖等,0,2026-01-08,2025-12-15,合同会社Ｙ’ｓ内装,,合同会社,福岡県,福岡市中央区,高砂１丁目１７番２２号ライオンズシティ高砂６０１,,40,133,8100011,,,2025-12-15,清算の結了等,,,2021-11-29,1,,,,,ワイズナイソウ,0
1160,4290801008333,登記記録の閉鎖等,0,2026-01-08,2025-12-26,株式会社有森工業本店,,株式会社,福岡県,北九州市小倉北区,足原１丁目１１番１１号,,40,106,8020043,,,2025-12-26,清算の結了等,,,2015-10-05,1,,,,,アリモリコウギョウホンテン,0
1187,4370002018009,登記記録の閉鎖等,0,2026-01-08,2026-01-05,有限会社プロジェクトエム,,有限会社,宮城県,仙台市太白区,山田北前町１８番５号,,04,104,9820813,,,2026-01-05,清算の結了等,,,2015-10-05,1,,,,,プロジェクトエム,0
1191,4390001016589,登記記録の閉鎖等,0,2026-01-08,2026-01-06,ＡＤＡ－ｌｉｎｋ株式会社,,株式会社,山形県,山形市,七日町４丁目１５番２０号ＣＯＲＥ－７４、２階,,06,201,9900042,,,2026-01-06,清算の結了等,,,2021-09-06,1,,,,,エーディーエーリンク,0
1192,4390002007100,登記記録の閉鎖等,0,2026-01-08,2026-01-06,有限会社英嶋屋,,有限会社,山形県,酒田市,日吉町２丁目１番１４号,,06,204,9980037,,,2026-01-06,清算の結了等,,,2015-10-05,1,,,,,エイジマヤ,0
1204,4430002050260,登記記録の閉鎖等,0,2026-01-08,2025-12-26,有限会社石原自動車商会,,有限会社,北海道,岩見沢市,北村栄町６００番地１５,,01,210,0681204,,,2025-12-26,清算の結了等,,,2015-10-05,1,,,,,イシハラジドウシャショウカイ,0
1217,5010001141837,登記記録の閉鎖等,0,2026-01-08,2025-12-11,ウエストウッドシッピングラインズジャパン株式会社,,株式会社,東京都,港区,愛宕２丁目５番１号愛宕グリーンヒルズＭＯＲＩタワー,,13,103,1050002,,,2025-12-11,清算の結了等,,,2015-10-05,1,,,,,ウエストウッドシッピングラインズジャパン,0
1218,5010001145292,登記記録の閉鎖等,0,2026-01-08,2026-01-07,株式会社レヴェントン,,株式会社,東京都,豊島区,南大塚２丁目１１番１０号ミモザビル３Ｆ,,13,116,1700005,,,2026-01-07,登記官による閉鎖,,,2015-10-05,1,,,,,,0
1221,5010001244697,登記記録の閉鎖等,0,2026-01-08,2025-12-11,株式会社ｍｕｕ,,株式会社,東京都,目黒区,目黒１丁目４－１６目黒Ｇビル１０Ｆ,,13,110,1530063,,,2025-12-11,清算の結了等,,,2024-05-13,1,,,,,ムー,0
1226,5010003030690,登記記録の閉鎖等,0,2026-01-08,2025-12-15,合同会社仁和,,合同会社,東京都,千代田区,麹町２丁目６番７号ＳｔａｒＢｕｉｌｄｉｎｇ５階,,13,101,1020083,,,2025-12-15,清算の結了等,,,2019-09-20,1,,,,,ニンワ,0
1253,5010601031900,登記記録の閉鎖等,0,2026-01-08,2025-12-22,サイファシステムズ株式会社,,株式会社,東京都,墨田区,京島１丁目４１番２号,,13,107,1310046,,,2025-12-22,清算の結了等,,,2015-10-05,1,,,,,サイファシステムズ,0
1262,5010901032763,登記記録の閉鎖等,0,2026-01-08,2026-01-06,秀建設株式会社,,株式会社,東京都,世田谷区,尾山台３丁目１５番１９号ファミーユオヤマダイ２０５,,13,112,1580086,,,2026-01-06,清算の結了等,,,2015-10-05,1,,,,,ヒデケンセツ,0
1273,5011003015731,登記記録の閉鎖等,0,2026-01-08,2025-12-11,ＯＡｓｉｓ合同会社,,合同会社,東京都,渋谷区,円山町５番４号ＦｅｅｌＡ渋谷３０７号,,13,113,1500044,,,2025-12-11,清算の結了等,,,2022-11-21,1,,,,,オアシス,0
1274,5011005005103,登記記録の閉鎖等,0,2026-01-08,2025-12-10,特定非営利活動法人日本姿勢学会,,その他の設立登記法人,東京都,渋谷区,渋谷１丁目３番１８号ビラ・モデルナＡ２０３号室,,13,113,1500002,,,2025-12-10,清算の結了等,,,2015-10-05,1,,,,,ニホンシセイガクカイ,0
1291,5012302002800,登記記録の閉鎖等,0,2026-01-08,2026-01-06,有限会社ダスキンヤマナカ,,有限会社,東京都,町田市,原町田２丁目８番１０号,,13,209,1940013,,,2026-01-06,合併による解散等,9011101015480,令和７年１２月１日東京都新宿区西新宿一丁目２５番１号株式会社ナック（9011101015480）に合併し解散,2015-10-05,1,,,,,ダスキンヤマナカ,0
1297,5013301003608,登記記録の閉鎖等,0,2026-01-08,2026-01-07,建設データ株式会社,,株式会社,東京都,豊島区,高田１丁目３６番１８号,,13,116,1710033,,,2026-01-07,登記官による閉鎖,,,2015-10-05,1,,,,,,0
1298,5013301006296,登記記録の閉鎖等,0,2026-01-08,2026-01-07,星和株式会社,,株式会社,東京都,豊島区,東池袋１丁目３１番１５号,,13,116,1700013,,,2026-01-07,登記官による閉鎖,,,2015-10-05,1,,,,,,0
1299,5013301006552,登記記録の閉鎖等,0,2026-01-08,2026-01-07,株式会社ソーラーハウス,,株式会社,東京都,豊島区,西池袋１丁目３８番７号,,13,116,1710021,,,2026-01-07,登記官による閉鎖,,,2015-10-05,1,,,,,,0
1300,5013301006791,登記記録の閉鎖等,0,2026-01-08,2026-01-07,株式会社大京屋,,株式会社,東京都,豊島区,南長崎５丁目２７番４号,,13,116,1710052,,,2026-01-07,登記官による閉鎖,,,2015-10-05,1,,,,,,0
1301,5013301007443,登記記録の閉鎖等,0,2026-01-08,2026-01-07,中部観光株式会社,,株式会社,東京都,豊島区,駒込１丁目４０番５号,,13,116,1700003,,,2026-01-07,登記官による閉鎖,,,2015-10-05,1,,,,,,0
1302,5013301012617,登記記録の閉鎖等,0,2026-01-08,2026-01-07,ワンダートレイディング株式会社,,株式会社,東京都,豊島区,東池袋２丁目５番９号,,13,116,1700013,,,2026-01-07,登記官による閉鎖,,,2015-10-05,1,,,,,,0
1303,5013301012732,登記記録の閉鎖等,0,2026-01-08,2026-01-07,丸新物産株式会社,,株式会社,東京都,豊島区,池袋３丁目４２番３号,,13,116,1710014,,,2026-01-07,登記官による閉鎖,,,2015-10-05,1,,,,,,0
1304,5013301012880,登記記録の閉鎖等,0,2026-01-08,2026-01-07,メディコム株式会社,,株式会社,東京都,豊島区,南池袋１丁目１３番１５号,,13,116,1710022,,,2026-01-07,登記官による閉鎖,,,2015-10-05,1,,,,,,0
1305,5013301013078,登記記録の閉鎖等,0,2026-01-08,2026-01-07,株式会社ゆうもあ文化村,,株式会社,東京都,豊島区,南大塚２丁目４３番１号,,13,116,1700005,,,2026-01-07,登記官による閉鎖,,,2015-10-05,1,,,,,,0
1306,5013301013409,登記記録の閉鎖等,0,2026-01-08,2026-01-07,株式会社千代田麺機製作所,,株式会社,東京都,豊島区,要町１丁目３番１１号,,13,116,1710043,,,2026-01-07,登記官による閉鎖,,,2015-10-05,1,,,,,,0
1307,5013301013433,登記記録の閉鎖等,0,2026-01-08,2026-01-07,株式会社リキ・アドエージェンシー,,株式会社,東京都,豊島区,南池袋２丁目８番５－１１０７号,,13,116,1710022,,,2026-01-07,登記官による閉鎖,,,2015-10-05,1,,,,,,0
1308,5013301014464,登記記録の閉鎖等,0,2026-01-08,2026-01-07,水澤会計株式会社,,株式会社,東京都,豊島区,東池袋３丁目１１番７号,,13,116,1700013,,,2026-01-07,登記官による閉鎖,,,2015-10-05,1,,,,,,0
1309,5013301015198,登記記録の閉鎖等,0,2026-01-08,2026-01-07,株式会社西ツーリストサービス,,株式会社,東京都,豊島区,南大塚３丁目１番２号,,13,116,1700005,,,2026-01-07,登記官による閉鎖,,,2015-10-05,1,,,,,,0
1310,5013301016213,登記記録の閉鎖等,0,2026-01-08,2026-01-07,株式会社マーチ,,株式会社,東京都,豊島区,池袋３丁目１６番８－４０４号,,13,116,1710014,,,2026-01-07,登記官による閉鎖,,,2015-10-05,1,,,,,,0
1311,5013301016799,登記記録の閉鎖等,0,2026-01-08,2026-01-07,太陽水産株式会社,,株式会社,東京都,豊島区,西池袋５丁目２７番１４号,,13,116,1710021,,,2026-01-07,登記官による閉鎖,,,2015-10-05,1,,,,,,0
1312,5013301016898,登記記録の閉鎖等,0,2026-01-08,2026-01-07,株式会社ポイント・ゲッター,,株式会社,東京都,豊島区,南大塚３丁目１番６号,,13,116,1700005,,,2026-01-07,登記官による閉鎖,,,2015-10-05,1,,,,,,0
1313,5013301017772,登記記録の閉鎖等,0,2026-01-08,2026-01-07,株式会社ニューウェーブキャリィ,,株式会社,東京都,豊島区,西池袋３丁目２９番３号梅本ビル４階,,13,116,1710021,,,2026-01-07,登記官による閉鎖,,,2015-10-05,1,,,,,,0
1314,5013301018044,登記記録の閉鎖等,0,2026-01-08,2026-01-07,フィールディングコーポレーション株式会社,,株式会社,東京都,豊島区,西池袋１丁目２９番１４号,,13,116,1710021,,,2026-01-07,登記官による閉鎖,,,2015-10-05,1,,,,,,0
1315,5013301018143,登記記録の閉鎖等,0,2026-01-08,2026-01-07,株式会社アレッグ・サテライト,,株式会社,東京都,豊島区,東池袋１丁目４１番１号,,13,116,1700013,,,2026-01-07,登記官による閉鎖,,,2015-10-05,1,,,,,,0
1316,5013301018390,登記記録の閉鎖等,0,2026-01-08,2026-01-07,株式会社エム・ビー・エー,,株式会社,東京都,豊島区,南池袋２丁目１２番１号,,13,116,1710022,,,2026-01-07,登記官による閉鎖,,,2015-10-05,1,,,,,,0
1317,5013301018911,登記記録の閉鎖等,0,2026-01-08,2026-01-07,株式会社ディー・マックス,,株式会社,東京都,豊島区,池袋２丁目６１番８号,,13,116,1710014,,,2026-01-07,登記官による閉鎖,,,2015-10-05,1,,,,,,0
1318,5013301019117,登記記録の閉鎖等,0,2026-01-08,2026-01-07,株式会社ジョブマガ,,株式会社,東京都,豊島区,池袋３丁目２６番２５号セントパレス９２０号,,13,116,1710014,,,2026-01-07,登記官による閉鎖,,,2015-10-05,1,,,,,,0
1319,5013301019208,登記記録の閉鎖等,0,2026-01-08,2026-01-07,株式会社ワイ・エム二十一,,株式会社,東京都,豊島区,巣鴨３丁目２４番１１－４０２号,,13,116,1700002,,,2026-01-07,登記官による閉鎖,,,2015-10-05,1,,,,,,0
1320,5013301019348,登記記録の閉鎖等,0,2026-01-08,2026-01-07,株式会社群馬ゴルフクラブ,,株式会社,東京都,豊島区,駒込１丁目１２番４号,,13,116,1700003,,,2026-01-07,登記官による閉鎖,,,2015-10-05,1,,,,,,0
1321,5013301019851,登記記録の閉鎖等,0,2026-01-08,2026-01-07,株式会社スタート,,株式会社,東京都,豊島区,南大塚３丁目３７番５号,,13,116,1700005,,,2026-01-07,登記官による閉鎖,,,2015-10-05,1,,,,,,0
1322,5013301019942,登記記録の閉鎖等,0,2026-01-08,2026-01-07,公栄株式会社,,株式会社,東京都,豊島区,東池袋１丁目４７番３号,,13,116,1700013,,,2026-01-07,登記官による閉鎖,,,2015-10-05,1,,,,,,0
1323,5013301020082,登記記録の閉鎖等,0,2026-01-08,2026-01-07,豊エンジニアリング株式会社,,株式会社,東京都,豊島区,巣鴨３丁目３６番６号共同計画ビル４階,,13,116,1700002,,,2026-01-07,登記官による閉鎖,,,2015-10-05,1,,,,,,0
1324,5013301020090,登記記録の閉鎖等,0,2026-01-08,2026-01-07,株式会社人財プラネット,,株式会社,東京都,豊島区,南大塚３丁目３９番７号－７０１,,13,116,1700005,,,2026-01-07,登記官による閉鎖,,,2015-10-05,1,,,,,,0
1325,5013301020248,登記記録の閉鎖等,0,2026-01-08,2026-01-07,株式会社グランプリ,,株式会社,東京都,豊島区,巣鴨３丁目３９番４号,,13,116,1700002,,,2026-01-07,登記官による閉鎖,,,2015-10-05,1,,,,,,0
1326,5013301023795,登記記録の閉鎖等,0,2026-01-08,2026-01-07,株式会社ＳｈｏｗＹｏｕ,,株式会社,東京都,豊島区,池袋本町１丁目１７番４－７０２号,,13,116,1700011,,,2026-01-07,登記官による閉鎖,,,2015-10-05,1,,,,,,0
1327,5013301028423,登記記録の閉鎖等,0,2026-01-08,2026-01-07,ＢＢＫバイオ株式会社,,株式会社,東京都,豊島区,雑司が谷２丁目３番３号,,13,116,1710032,,,2026-01-07,登記官による閉鎖,,,2015-10-05,1,,,,,,0
1328,5013301029891,登記記録の閉鎖等,0,2026-01-08,2026-01-07,株式会社Ｒｅｄ　Ｆｉｅｌｄ,,株式会社,東京都,豊島区,東池袋１丁目７番５号,,13,116,1700013,,,2026-01-07,登記官による閉鎖,,,2015-10-05,1,,,,,,0
1329,5013301030924,登記記録の閉鎖等,0,2026-01-08,2026-01-07,株式会社ブラフォン,,株式会社,東京都,豊島区,池袋２丁目５６番１号,,13,116,1710014,,,2026-01-07,登記官による閉鎖,,,2015-10-05,1,,,,,,0
1330,5013301034149,登記記録の閉鎖等,0,2026-01-08,2026-01-07,株式会社Ｖｉｏｌｅｔ　Ｏｃｅａｎ,,株式会社,東京都,豊島区,西池袋５丁目２６番１６号ＣＨＩＢＡビル４Ｆ,,13,116,1710021,,,2026-01-07,登記官による閉鎖,,,2015-10-05,1,,,,,,0
1332,5013302002071,登記記録の閉鎖等,0,2026-01-08,2026-01-07,有限会社角傳商店,,有限会社,東京都,豊島区,巣鴨５丁目４番１号,,13,116,1700002,,,2026-01-07,登記官による閉鎖,,,2015-10-05,1,,,,,,0
1333,5013302008341,登記記録の閉鎖等,0,2026-01-08,2026-01-07,有限会社光学院,,有限会社,東京都,豊島区,巣鴨２丁目４番２号,,13,116,1700002,,,2026-01-07,登記官による閉鎖,,,2015-10-05,1,,,,,,0
1334,5013302015890,登記記録の閉鎖等,0,2026-01-08,2026-01-07,有限会社都市コンサルタント,,有限会社,東京都,豊島区,南池袋３丁目１８番３４号池袋シティハイツ３０２,,13,116,1710022,,,2026-01-07,登記官による閉鎖,,,2015-10-05,1,,,,,,0
1335,5013302019636,登記記録の閉鎖等,0,2026-01-08,2026-01-07,有限会社心尽串,,有限会社,東京都,豊島区,西池袋２丁目３番７－１０１号,,13,116,1710021,,,2026-01-07,登記官による閉鎖,,,2015-10-05,1,,,,,,0
1338,5013305001277,登記記録の閉鎖等,0,2026-01-08,2026-01-07,一般社団法人日本コンプライアンス協会,,その他の設立登記法人,東京都,豊島区,東池袋２丁目３９番２号大住ビル,,13,116,1700013,,,2026-01-07,登記官による閉鎖,,,2015-10-05,1,,,,,,0
1339,5013305001863,登記記録の閉鎖等,0,2026-01-08,2026-01-07,一般社団法人全国女性相談研究会,,その他の設立登記法人,東京都,豊島区,南池袋２丁目８番５号ライオンズマンション南池袋９０７号,,13,116,1710022,,,2026-01-07,登記官による閉鎖,,,2015-10-05,1,,,,,,0
1342,5020001061092,登記記録の閉鎖等,0,2026-01-08,2025-12-26,株式会社大久保組,,株式会社,神奈川県,横浜市磯子区,東町１５番３１－８０５号,,14,107,2350005,,,2025-12-26,清算の結了等,,,2015-10-05,1,,,,,オオクボグミ,0
1343,5020001113430,登記記録の閉鎖等,0,2026-01-08,2025-12-24,株式会社共育楽舎,,株式会社,神奈川県,横浜市青葉区,荏田西１丁目１０番地５－Ｂ－３０６,,14,117,2250014,,,2025-12-24,清算の結了等,,,2015-11-04,1,,,,,キョウイクガクシャ,0
1346,5020001148212,登記記録の閉鎖等,0,2026-01-08,2026-01-05,株式会社富取,,株式会社,大阪府,大阪市中央区,備後町１丁目６番７号三星備後町ビル１００１,,27,128,5410051,,,2026-01-05,清算の結了等,,,2022-09-15,1,,,,,トミトリ,0
1354,5030001126844,登記記録の閉鎖等,0,2026-01-08,2025-12-25,株式会社ポラスタン,,株式会社,埼玉県,川口市,仲町２番３３号,,11,203,3320022,,,2025-12-25,清算の結了等,,,2018-08-03,1,,,,,ポラスタン,0
1369,5050001027859,登記記録の閉鎖等,0,2026-01-08,2025-12-25,株式会社アイメタル,,株式会社,茨城県,取手市,高須字松耕地２３７７番地２,,08,217,3001522,,,2025-12-25,清算の結了等,,,2015-10-05,1,,,,,アイメタル,0
1370,5050001047130,登記記録の閉鎖等,0,2026-01-08,2025-12-23,株式会社宮本,,株式会社,茨城県,稲敷市,駒塚５５７番地１,,08,229,3000514,,,2025-12-23,清算の結了等,,,2020-02-07,1,,,,,ミヤモト,0
1409,5120001272654,登記記録の閉鎖等,0,2026-01-08,2026-01-05,ランドマーク株式会社,,株式会社,大阪府,大阪市中央区,南船場１丁目１１番２３号長堀橋Ｚｅｎｓｈｉｎ，ＢＬＤ２０１,,27,128,5420081,,,2026-01-05,清算の結了等,,,2025-02-06,1,,,,,ランドマーク,0
1422,5120101072624,登記記録の閉鎖等,0,2026-01-08,2025-12-25,ＥＸＩＤＥモータース株式会社,,株式会社,大阪府,泉佐野市,下瓦屋６３２－１アイドリームコンテナ３号室,,27,213,5980062,,,2025-12-25,清算の結了等,,,2025-10-10,1,,,,,エクサイドモータース,0
1432,5140001078190,登記記録の閉鎖等,0,2026-01-08,2026-01-05,株式会社ＫＳＰ,,株式会社,兵庫県,伊丹市,中央５丁目３番３８号,,28,207,6640851,,,2026-01-05,合併による解散等,4140001123170,令和８年１月１日兵庫県伊丹市中央五丁目３番３８号株式会社関西スーパーマーケット（4140001123170）に合併し解散,2015-10-05,1,,,,,ケイエスピー,0
1434,5140001099798,登記記録の閉鎖等,0,2026-01-08,2026-01-05,株式会社ビースタイルズ,,株式会社,兵庫県,尼崎市,西本町２丁目７６番地,,28,202,6600874,,,2026-01-05,清算の結了等,,,2015-10-26,1,,,,,ビースタイルズ,0
1442,5180001048792,登記記録の閉鎖等,0,2026-01-08,2025-12-26,株式会社貴和,,株式会社,愛知県,名古屋市緑区,小坂２丁目２１０１番地,,23,114,4580022,,,2025-12-26,清算の結了等,,,2015-10-05,1,,,,,タカワ,0
1443,5180001070318,登記記録の閉鎖等,0,2026-01-08,2026-01-05,第一開発株式会社,,株式会社,愛知県,名古屋市千種区,自由ケ丘１丁目１５番６号,,23,101,4640044,,,2026-01-05,合併による解散等,9180001043856,令和８年１月１日名古屋市千種区自由ヶ丘一丁目１５番６号幟屋工房株式会社（9180001043856）に合併し解散,2015-10-05,1,,,,,ダイイチカイハツ,0
1444,5180001120816,登記記録の閉鎖等,0,2026-01-08,2026-01-05,株式会社ＳＨＯＫＥＮ,,株式会社,愛知県,名古屋市名東区,社台３丁目２４５番地５,,23,115,4650092,,,2026-01-05,清算の結了等,,,2015-11-02,1,,,,,ショーケン,0
1446,5180001140814,登記記録の閉鎖等,0,2026-01-08,2026-01-05,エステイトビシュウ株式会社,,株式会社,愛知県,春日井市,小野町１丁目１２８番地,,23,206,4860926,,,2026-01-05,清算の結了等,,,2020-04-09,1,,,,,エステイトビシュウ,0
1450,5180002072767,登記記録の閉鎖等,0,2026-01-08,2026-01-05,有限会社信協建設,,有限会社,愛知県,瀬戸市,井戸金町４７９番１,,23,204,4890976,,,2026-01-05,清算の結了等,,,2015-10-05,1,,,,,シンキョウケンセツ,0
1475,5230002014235,登記記録の閉鎖等,0,2026-01-08,2026-01-06,有限会社ワークサービス,,有限会社,富山県,射水市,青井谷６２８番地の１,,16,211,9390321,,,2026-01-06,清算の結了等,,,2015-10-05,1,,,,,ワークサービス,0
1476,5240001037161,登記記録の閉鎖等,0,2026-01-08,2026-01-05,株式会社デルタ・イーテック,,株式会社,広島県,安芸郡府中町,新地１番１４号,,34,302,7350028,,,2026-01-05,合併による解散等,3240001036479,令和８年１月１日広島県安芸郡府中町新地１番１４号デルタ工業株式会社（3240001036479）に合併し解散,2015-10-05,1,,,,,デルタイーテック,0
1484,5290001078936,登記記録の閉鎖等,0,2026-01-08,2025-12-23,株式会社Ｅケア,,株式会社,福岡県,福岡市西区,小戸４丁目１３番１９号,,40,135,8190001,,,2025-12-23,清算の結了等,,,2017-08-30,1,,,,,イーケア,0
1502,5310003003633,登記記録の閉鎖等,0,2026-01-08,2026-01-06,合同会社優,,合同会社,長崎県,長崎市,西山２丁目８番８号,,42,201,8500001,,,2026-01-06,清算の結了等,,,2019-03-12,1,,,,,ユウ,0
1504,5310005001899,登記記録の閉鎖等,0,2026-01-08,2026-01-07,医療法人吉田整形外科クリニック,,その他の設立登記法人,長崎県,西彼杵郡長与町,吉無田郷８番地,,42,307,8512126,,,2026-01-07,清算の結了等,,,2015-10-05,1,,,,,ヨシダセイケイゲカクリニック,0
1512,5340001016659,登記記録の閉鎖等,0,2026-01-08,2026-01-05,株式会社Ｃｈａｒｉｔｅｓ,,株式会社,鹿児島県,鹿児島市,下荒田４丁目１３番３号,,46,201,8900056,,,2026-01-05,清算の結了等,,,2015-10-05,1,,,,,カーリス,0
1515,5350001006295,登記記録の閉鎖等,0,2026-01-08,2025-12-26,奈須興産株式会社,,株式会社,大阪府,貝塚市,窪田１２６－４シャルマンフジ二色の浜１２０,,27,208,5970052,,,2025-12-26,清算の結了等,,,2015-10-05,1,,,,,ナスコウサン,0
1517,5370001010758,登記記録の閉鎖等,0,2026-01-08,2026-01-05,吉岡企業株式会社,,株式会社,宮城県,仙台市青葉区,本町１丁目２番５号,,04,101,9800014,,,2026-01-05,合併による解散等,3370001008481,令和８年１月１日仙台市青葉区本町一丁目２番６号志ら梅ビル株式会社（3370001008481）に合併し解散,2015-10-05,1,,,,,ヨシオカキギョウ,0
1539,6010001038173,登記記録の閉鎖等,0,2026-01-08,2025-12-12,株式会社エス・エフ・デイ,,株式会社,東京都,中央区,八丁堀３丁目１番１号,,13,102,1040032,,,2025-12-12,清算の結了等,,,2015-10-05,1,,,,,エスエフデイ,0
1562,6010801013292,登記記録の閉鎖等,0,2026-01-08,2025-12-23,株式会社勝伸製作所,,株式会社,東京都,大田区,南六郷２丁目５番７号,,13,111,1440045,,,2025-12-23,清算の結了等,,,2015-10-05,1,,,,,ショウシンセイサクショ,0
1563,6010901025568,登記記録の閉鎖等,0,2026-01-08,2026-01-05,株式会社本橋企画,,株式会社,東京都,世田谷区,駒沢３丁目２８番２３号１０１号室,,13,112,1540012,,,2026-01-05,清算の結了等,,,2015-10-05,1,,,,,モトハシキカク,0
1579,6011105008814,登記記録の閉鎖等,0,2026-01-08,2026-01-05,一般社団法人２１世紀医療フォーラム,,その他の設立登記法人,東京都,文京区,小石川１丁目５番１号パークコート文京小石川ザタワーＰＣ４０１,,13,105,1120002,,,2026-01-05,清算の結了等,,,2019-05-15,1,,,,,ニジュウイッセイキイリョウフォーラム,0
1585,6011401017898,登記記録の閉鎖等,0,2026-01-08,2026-01-05,株式会社ＣＴＣ,,株式会社,東京都,板橋区,東新町１丁目２１－１２,,13,119,1740074,,,2026-01-05,清算の結了等,,,2015-10-05,1,,,,,シーティシー,0
1602,6013301002402,登記記録の閉鎖等,0,2026-01-08,2026-01-07,株式会社オフィス大木,,株式会社,東京都,豊島区,南大塚２丁目２６番７号,00066814,13,116,1700005,,,2026-01-07,登記官による閉鎖,,,2015-10-05,1,,,,,,0
1603,6013301004340,登記記録の閉鎖等,0,2026-01-08,2026-01-07,サルビア．インターナショナル株式会社,,株式会社,東京都,豊島区,千早２丁目２６番１７号,,13,116,1710044,,,2026-01-07,登記官による閉鎖,,,2015-10-05,1,,,,,,0
1604,6013301004431,登記記録の閉鎖等,0,2026-01-08,2026-01-07,株式会社三幸食品,,株式会社,東京都,豊島区,池袋４丁目２５番１２号,,13,116,1710014,,,2026-01-07,登記官による閉鎖,,,2015-10-05,1,,,,,,0
1605,6013301005958,登記記録の閉鎖等,0,2026-01-08,2026-01-07,シヤロン事務機株式会社,,株式会社,東京都,豊島区,東池袋３丁目８番７号,,13,116,1700013,,,2026-01-07,登記官による閉鎖,,,2015-10-05,1,,,,,,0
1606,6013301009736,登記記録の閉鎖等,0,2026-01-08,2026-01-07,株式会社ノベックス,,株式会社,東京都,豊島区,南池袋２丁目１８番９号,,13,116,1710022,,,2026-01-07,登記官による閉鎖,,,2015-10-05,1,,,,,,0
1607,6013301010181,登記記録の閉鎖等,0,2026-01-08,2026-01-07,株式会社早川工務店,,株式会社,東京都,豊島区,池袋２丁目７２番８号,,13,116,1710014,,,2026-01-07,登記官による閉鎖,,,2015-10-05,1,,,,,,0
1608,6013301011725,登記記録の閉鎖等,0,2026-01-08,2026-01-07,株式会社武蔵林業社,,株式会社,東京都,豊島区,目白２丁目２７番１２号,,13,116,1710031,,,2026-01-07,登記官による閉鎖,,,2015-10-05,1,,,,,,0
1609,6013301013713,登記記録の閉鎖等,0,2026-01-08,2026-01-07,日本システムパックス株式会社,,株式会社,東京都,豊島区,巣鴨３丁目２６番９号,,13,116,1700002,,,2026-01-07,登記官による閉鎖,,,2015-10-05,1,,,,,,0
1610,6013301016451,登記記録の閉鎖等,0,2026-01-08,2026-01-07,株式会社公信トラスト,,株式会社,東京都,豊島区,東池袋３丁目１番４－１２２０号,,13,116,1700013,,,2026-01-07,登記官による閉鎖,,,2015-10-05,1,,,,,,0
1611,6013301016922,登記記録の閉鎖等,0,2026-01-08,2026-01-07,株式会社飛翔クリエートサービス,,株式会社,東京都,豊島区,要町１丁目４番１１号,,13,116,1710043,,,2026-01-07,登記官による閉鎖,,,2015-10-05,1,,,,,,0
1612,6013301017350,登記記録の閉鎖等,0,2026-01-08,2026-01-07,株式会社アクセスプラザ,,株式会社,東京都,豊島区,池袋１丁目１６番２２－３０２号,,13,116,1700014,,,2026-01-07,登記官による閉鎖,,,2015-10-05,1,,,,,,0
1613,6013301018695,登記記録の閉鎖等,0,2026-01-08,2026-01-07,株式会社シティーホームズ弐拾壱,,株式会社,東京都,豊島区,南池袋３丁目１３番７号ヴィップ池袋７０３号,,13,116,1710022,,,2026-01-07,登記官による閉鎖,,,2015-10-05,1,,,,,,0
1614,6013301019017,登記記録の閉鎖等,0,2026-01-08,2026-01-07,エスケイティー資源開発株式会社,,株式会社,東京都,豊島区,南大塚３丁目５３番地５,,13,116,1700005,,,2026-01-07,登記官による閉鎖,,,2015-10-05,1,,,,,,0
1615,6013301019487,登記記録の閉鎖等,0,2026-01-08,2026-01-07,オートケミー株式会社,,株式会社,東京都,豊島区,東池袋２丁目５０番１５－３０３号,,13,116,1700013,,,2026-01-07,登記官による閉鎖,,,2015-10-05,1,,,,,,0
1616,6013301019677,登記記録の閉鎖等,0,2026-01-08,2026-01-07,株式会社エム・アイ・イー,,株式会社,東京都,豊島区,東池袋１丁目１５番１号,,13,116,1700013,,,2026-01-07,登記官による閉鎖,,,2015-10-05,1,,,,,,0
1617,6013301019743,登記記録の閉鎖等,0,2026-01-08,2026-01-07,株式会社陽輝商事,,株式会社,東京都,豊島区,西池袋１丁目４０番６号第３大谷ビル３階,,13,116,1710021,,,2026-01-07,登記官による閉鎖,,,2015-10-05,1,,,,,,0
1618,6013301019850,登記記録の閉鎖等,0,2026-01-08,2026-01-07,株式会社スーパー５０,,株式会社,東京都,豊島区,南大塚３丁目３７番５号,,13,116,1700005,,,2026-01-07,登記官による閉鎖,,,2015-10-05,1,,,,,,0
1619,6013301019909,登記記録の閉鎖等,0,2026-01-08,2026-01-07,株式会社エムケーエンジニアリング,,株式会社,東京都,豊島区,北大塚３丁目１０番１０号,,13,116,1700004,,,2026-01-07,登記官による閉鎖,,,2015-10-05,1,,,,,,0
1620,6013301019966,登記記録の閉鎖等,0,2026-01-08,2026-01-07,株式会社アビターレ,,株式会社,東京都,豊島区,池袋２丁目６８番１０号,,13,116,1710014,,,2026-01-07,登記官による閉鎖,,,2015-10-05,1,,,,,,0
1621,6013301019999,登記記録の閉鎖等,0,2026-01-08,2026-01-07,株式会社ふれ愛東京,,株式会社,東京都,豊島区,南大塚３丁目５０番３号,,13,116,1700005,,,2026-01-07,登記官による閉鎖,,,2015-10-05,1,,,,,,0
1622,6013301020081,登記記録の閉鎖等,0,2026-01-08,2026-01-07,株式会社ジニアス,,株式会社,東京都,豊島区,池袋３丁目２６番２５セントパレース８２３号,,13,116,1710014,,,2026-01-07,登記官による閉鎖,,,2015-10-05,1,,,,,,0
1623,6013301020214,登記記録の閉鎖等,0,2026-01-08,2026-01-07,株式会社ネイチャロイド,,株式会社,東京都,豊島区,南大塚３丁目４８番７号,,13,116,1700005,,,2026-01-07,登記官による閉鎖,,,2015-10-05,1,,,,,,0
1624,6013301020222,登記記録の閉鎖等,0,2026-01-08,2026-01-07,株式会社オフィス・パンタ,,株式会社,東京都,豊島区,西池袋４丁目１９番６号エヴァンテ西池袋６０１,,13,116,1710021,,,2026-01-07,登記官による閉鎖,,,2015-10-05,1,,,,,,0
1625,6013301020255,登記記録の閉鎖等,0,2026-01-08,2026-01-07,株式会社言論日本社,,株式会社,東京都,豊島区,池袋２丁目５１番９号,,13,116,1710014,,,2026-01-07,登記官による閉鎖,,,2015-10-05,1,,,,,,0
1626,6013301022986,登記記録の閉鎖等,0,2026-01-08,2026-01-07,株式会社空間デザインファクトリー,,株式会社,東京都,豊島区,東池袋１丁目３１番１３－６０６号,,13,116,1700013,,,2026-01-07,登記官による閉鎖,,,2015-10-05,1,,,,,,0
1630,6013302004463,登記記録の閉鎖等,0,2026-01-08,2026-01-07,有限会社サン興業,,有限会社,東京都,豊島区,北大塚１丁目５番１７号,00066916,13,116,1700004,,,2026-01-07,登記官による閉鎖,,,2015-10-05,1,,,,,,0
1631,6013302010750,登記記録の閉鎖等,0,2026-01-08,2026-01-07,有限会社ＹＣ要町,,有限会社,東京都,豊島区,千早２丁目４０番５号,,13,116,1710044,,,2026-01-07,登記官による閉鎖,,,2015-10-05,1,,,,,,0
1632,6013302011096,登記記録の閉鎖等,0,2026-01-08,2026-01-07,有限会社ろだん企画,,有限会社,東京都,豊島区,巣鴨３丁目１８番２４号,,13,116,1700002,,,2026-01-07,登記官による閉鎖,,,2015-10-05,1,,,,,,0
1633,6013302012854,登記記録の閉鎖等,0,2026-01-08,2026-01-07,有限会社アール・エム,,有限会社,東京都,豊島区,高田２丁目１８番１５－４０５号,,13,116,1710033,,,2026-01-07,登記官による閉鎖,,,2015-10-05,1,,,,,,0
1634,6013302018694,登記記録の閉鎖等,0,2026-01-08,2026-01-07,有限会社アロール,,有限会社,東京都,豊島区,南大塚１丁目５１番１８号,,13,116,1700005,,,2026-01-07,登記官による閉鎖,,,2015-10-05,1,,,,,,0
1639,6020001093036,登記記録の閉鎖等,0,2026-01-08,2025-12-10,Ｔｅｃｈ　Ｓｏｆｔ　３Ｄ株式会社,,株式会社,東京都,港区,西麻布１丁目４番４０号西麻布ＳＨＩＮＯビル４階,,13,103,1060031,,,2025-12-10,清算の結了等,,,2015-10-05,1,,,,,テックソフトスリーディー,0
1651,6021001053847,登記記録の閉鎖等,0,2026-01-08,2025-12-09,株式会社ｅｃｈｏｎｉｃａ,,株式会社,神奈川県,三浦郡葉山町,一色６８１番１１号,,14,301,2400111,,,2025-12-09,清算の結了等,,,2015-10-05,1,,,,,エコニカ,0
1670,6040001125588,登記記録の閉鎖等,0,2026-01-08,2025-12-11,中央マネジメントコンサルティング株式会社,,株式会社,千葉県,船橋市,飯山満町２丁目５１７番地１,,12,204,2740822,,,2025-12-11,清算の結了等,,,2022-10-27,1,,,,,チュウオウマネジメントコンサルティング,0
1685,6080001014688,登記記録の閉鎖等,0,2026-01-08,2025-12-26,株式会社エンゼル産業,,株式会社,静岡県,焼津市,中新田１５５１番地の２,,22,212,4250068,,,2025-12-26,清算の結了等,,,2015-10-05,1,,,,,エンゼルサンギョウ,0
1688,6080401023891,登記記録の閉鎖等,0,2026-01-08,2026-01-05,株式会社ＨＳｒｉｎｇ,,株式会社,静岡県,掛川市,大渕９６４１番地,,22,213,4371302,,,2026-01-05,合併による解散等,5080402018099,令和８年１月１日静岡県掛川市大渕９６４１番地株式会社平松商店（5080402018099）に合併し解散,2019-10-04,1,,,,,エイチエスリング,0
1691,6080405006307,登記記録の閉鎖等,0,2026-01-08,2025-12-23,一般社団法人鶴松報徳社,,その他の設立登記法人,静岡県,袋井市,山科３２０１番地の７,,22,216,4370066,,,2025-12-23,清算の結了等,,,2015-10-05,1,,,,,ツルマツホウトクシャ,0
1692,6090003000751,登記記録の閉鎖等,0,2026-01-08,2025-12-25,ＳａｔｏＹａｍａ　Ｓｔｙｌｅ合同会社,,合同会社,山梨県,甲州市,塩山上於曽１１７２番地,,19,213,4040042,,,2025-12-25,清算の結了等,,,2015-10-05,1,,,,,サトヤマスタイル,0
1723,6180001078327,登記記録の閉鎖等,0,2026-01-08,2026-01-05,株式会社ビシュウ大阪,,株式会社,愛知県,春日井市,小野町１丁目１２７番地,,23,206,4860926,,,2026-01-05,清算の結了等,,,2015-10-05,1,,,,,ビシュウオオサカ,0
1768,6290001066097,登記記録の閉鎖等,0,2026-01-08,2025-12-15,株式会社イーアイエフ産業,,株式会社,福岡県,宗像市,自由ヶ丘９丁目１５番地１３,,40,220,8114163,,,2025-12-15,清算の結了等,,,2015-10-05,1,,,,,イーアイエフサンギョウ,0
1781,6310005004356,登記記録の閉鎖等,0,2026-01-08,2026-01-07,農事組合法人雪浦開拓畜産組合,,その他の設立登記法人,長崎県,諫早市,中通町１６７２,,42,204,8540124,,,2026-01-07,清算の結了等,,,2015-10-05,1,,,,,ユキノウラカイタクチクサンクミアイ,0
1800,6390002002280,登記記録の閉鎖等,0,2026-01-08,2026-01-05,富士建材有限会社,,有限会社,山形県,山形市,芳野１１番地,,06,201,9900074,,,2026-01-05,清算の結了等,,,2015-10-05,1,,,,,フジケンザイ,0
1808,6430005003404,登記記録の閉鎖等,0,2026-01-08,2026-01-05,特定非営利活動法人茨戸川環境市民フォーラム,00090016,その他の設立登記法人,北海道,札幌市北区,太平八条１丁目４番１５号,,01,102,0028008,,,2026-01-05,清算の結了等,,,2015-10-05,1,,,,,バラトガワカンキョウシミンフォーラム,0
1813,6470001001861,登記記録の閉鎖等,0,2026-01-08,2026-01-05,株式会社四国サンケイ広告社,,株式会社,香川県,高松市,鍛冶屋町４番地２１ワンフットビル５－Ｃ号室,,37,201,7600028,,,2026-01-05,清算の結了等,,,2015-10-05,1,,,,,シコクサンケイコウコクシャ,0
1819,6500005005293,登記記録の閉鎖等,0,2026-01-08,2025-12-26,特定非営利活動法人フラット,,その他の設立登記法人,愛媛県,今治市,北宝来町３丁目１番地１３,,38,202,7940028,,,2025-12-26,清算の結了等,,,2015-10-05,1,,,,,フラット,0
1823,7010001115938,登記記録の閉鎖等,0,2026-01-08,2026-01-07,株式会社ファーマウェル,,株式会社,東京都,豊島区,南大塚１丁目１９番１１号,,13,116,1700005,,,2026-01-07,登記官による閉鎖,,,2015-10-05,1,,,,,,0
1824,7010001181096,登記記録の閉鎖等,0,2026-01-08,2025-12-15,リファラルリクルーティング株式会社,,株式会社,東京都,中央区,日本橋小伝馬町４－１１,,13,102,1030001,,,2025-12-15,清算の結了等,,,2017-01-30,1,,,,,リファラルリクルーティング,0
1839,7010501021355,登記記録の閉鎖等,0,2026-01-08,2025-12-23,東ショウパック株式会社,,株式会社,東京都,台東区,上野５丁目２４番１７号,,13,106,1100005,,,2025-12-23,清算の結了等,,,2015-10-05,1,,,,,トウショウパック,0
1843,7010601030438,登記記録の閉鎖等,0,2026-01-08,2025-12-24,株式会社千代田テキスタイル,,株式会社,東京都,江東区,新大橋３丁目３番１３号,,13,108,1350007,,,2025-12-24,清算の結了等,,,2015-10-05,1,,,,,チヨダテキスタイル,0
1854,7010801030485,登記記録の閉鎖等,0,2026-01-08,2025-12-23,ＵＥＩエンジニアリング株式会社,,株式会社,東京都,大田区,羽田６丁目２８番３号,,13,111,1440043,,,2025-12-23,清算の結了等,,,2019-12-20,1,,,,,ユーイーアイエンジニアリング,0
1856,7010901016517,登記記録の閉鎖等,0,2026-01-08,2026-01-05,株式会社プラスサム・ワークス,,株式会社,東京都,世田谷区,若林１丁目８番３－１０９号,,13,112,1540023,,,2026-01-05,清算の結了等,,,2015-10-05,1,,,,,プラスサムワークス,0
1873,7011202008096,登記記録の閉鎖等,0,2026-01-08,2025-12-24,有限会社イプダワークス,,有限会社,東京都,中野区,沼袋４丁目１３番１号,,13,114,1650025,,,2025-12-24,清算の結了等,,,2015-10-05,1,,,,,イプダワークス,0
1878,7011501011965,登記記録の閉鎖等,0,2026-01-08,2026-01-07,ボルテックス株式会社,,株式会社,東京都,豊島区,要町３丁目４６番９号,,13,116,1710043,,,2026-01-07,登記官による閉鎖,,,2015-10-05,1,,,,,,0
1892,7013301000818,登記記録の閉鎖等,0,2026-01-08,2026-01-07,株式会社アブロード,,株式会社,東京都,豊島区,南池袋３丁目２４番２５号,,13,116,1710022,,,2026-01-07,登記官による閉鎖,,,2015-10-05,1,,,,,,0
1893,7013301003127,登記記録の閉鎖等,0,2026-01-08,2026-01-07,関鉄ハウジング株式会社,,株式会社,東京都,豊島区,東池袋３丁目１番４－１０３０号,,13,116,1700013,,,2026-01-07,登記官による閉鎖,,,2015-10-05,1,,,,,,0
1894,7013301005255,登記記録の閉鎖等,0,2026-01-08,2026-01-07,システムテック株式会社,,株式会社,東京都,豊島区,東池袋３丁目７番８号,,13,116,1700013,,,2026-01-07,登記官による閉鎖,,,2015-10-05,1,,,,,,0
1895,7013301006138,登記記録の閉鎖等,0,2026-01-08,2026-01-07,株式会社スポック,,株式会社,東京都,豊島区,東池袋１丁目２７番５号,,13,116,1700013,,,2026-01-07,登記官による閉鎖,,,2015-10-05,1,,,,,,0
1896,7013301011443,登記記録の閉鎖等,0,2026-01-08,2026-01-07,株式会社森田商店,,株式会社,東京都,豊島区,上池袋２丁目４０番１２号,,13,116,1700012,,,2026-01-07,登記官による閉鎖,,,2015-10-05,1,,,,,,0
1897,7013301014322,登記記録の閉鎖等,0,2026-01-08,2026-01-07,株式会社アイレック,,株式会社,東京都,豊島区,池袋２丁目６１番８号,,13,116,1710014,,,2026-01-07,登記官による閉鎖,,,2015-10-05,1,,,,,,0
1898,7013301015717,登記記録の閉鎖等,0,2026-01-08,2026-01-07,株式会社トップホームズ,,株式会社,東京都,豊島区,池袋２丁目１４番５号,,13,116,1710014,,,2026-01-07,登記官による閉鎖,,,2015-10-05,1,,,,,,0
1899,7013301016715,登記記録の閉鎖等,0,2026-01-08,2026-01-07,株式会社アルマット,,株式会社,東京都,豊島区,高松１丁目１１番１５号,,13,116,1710042,,,2026-01-07,登記官による閉鎖,,,2015-10-05,1,,,,,,0
1900,7013301019057,登記記録の閉鎖等,0,2026-01-08,2026-01-07,三共システム株式会社,,株式会社,東京都,豊島区,東池袋３丁目１番４号メゾンサンシャイン１１４２,,13,116,1700013,,,2026-01-07,登記官による閉鎖,,,2015-10-05,1,,,,,,0
1901,7013301019718,登記記録の閉鎖等,0,2026-01-08,2026-01-07,株式会社ドット・パートナーズ,,株式会社,東京都,豊島区,高田３丁目７番９号,,13,116,1710033,,,2026-01-07,登記官による閉鎖,,,2015-10-05,1,,,,,,0
1902,7013301019841,登記記録の閉鎖等,0,2026-01-08,2026-01-07,ニッポンカンキョウエンジニアリング株式会社,,株式会社,東京都,豊島区,西池袋３丁目６番２号,,13,116,1710021,,,2026-01-07,登記官による閉鎖,,,2015-10-05,1,,,,,,0
1903,7013301019882,登記記録の閉鎖等,0,2026-01-08,2026-01-07,株式会社エイ・アンド・スリーワイコンサルタント,,株式会社,東京都,豊島区,東池袋２丁目１５番６号,,13,116,1700013,,,2026-01-07,登記官による閉鎖,,,2015-10-05,1,,,,,,0
1904,7013301019998,登記記録の閉鎖等,0,2026-01-08,2026-01-07,株式会社ベリィーラック,,株式会社,東京都,豊島区,巣鴨２丁目４番２号,,13,116,1700002,,,2026-01-07,登記官による閉鎖,,,2015-10-05,1,,,,,,0
1905,7013301021871,登記記録の閉鎖等,0,2026-01-08,2026-01-07,株式会社土橋,,株式会社,東京都,豊島区,駒込４丁目２番３５号,,13,116,1700003,,,2026-01-07,登記官による閉鎖,,,2015-10-05,1,,,,,,0
1906,7013301025864,登記記録の閉鎖等,0,2026-01-08,2026-01-07,株式会社ＫＡＷＡＤＡ,,株式会社,東京都,豊島区,巣鴨２丁目９番２６号,,13,116,1700002,,,2026-01-07,登記官による閉鎖,,,2015-10-05,1,,,,,,0
1907,7013301032225,登記記録の閉鎖等,0,2026-01-08,2026-01-07,株式会社スマイルーム,,株式会社,東京都,豊島区,西池袋３丁目２６番６号,,13,116,1710021,,,2026-01-07,登記官による閉鎖,,,2015-10-05,1,,,,,,0
1911,7013302005659,登記記録の閉鎖等,0,2026-01-08,2026-01-07,有限会社ダイセン,,有限会社,東京都,豊島区,西巣鴨１丁目２６番６号,,13,116,1700001,,,2026-01-07,登記官による閉鎖,,,2015-10-05,1,,,,,,0
1912,7013303002622,登記記録の閉鎖等,0,2026-01-08,2026-01-07,合同会社ｑｕｏｔａｔｉｏｎ,,合同会社,東京都,豊島区,西池袋５丁目２５番２号,,13,116,1710021,,,2026-01-07,登記官による閉鎖,,,2015-10-05,1,,,,,,0
1938,7030002040687,登記記録の閉鎖等,0,2026-01-08,2025-12-25,有限会社ハマダ工業,,有限会社,埼玉県,幸手市,大字惣新田３６２７番地１,,11,240,3400133,,,2025-12-25,清算の結了等,,,2015-10-05,1,,,,,ハマダコウギョウ,0
1949,7050001016414,登記記録の閉鎖等,0,2026-01-08,2025-12-22,アルボット株式会社,,株式会社,茨城県,つくば市,研究学園５丁目２８番地８,,08,220,3050817,,,2025-12-22,清算の結了等,,,2015-10-05,1,,,,,アルボット,0
1951,7050001040711,登記記録の閉鎖等,0,2026-01-08,2025-12-23,株式会社ウッドラック,,株式会社,茨城県,つくば市,東光台５丁目３番地,,08,220,3002635,,,2025-12-23,清算の結了等,,,2016-03-30,1,,,,,ウッドラック,0
1960,7080102014561,登記記録の閉鎖等,0,2026-01-08,2026-01-05,富久物流有限会社,,有限会社,静岡県,富士市,松岡６０５番地の１８,,22,210,4160909,,,2026-01-05,清算の結了等,,,2015-10-05,1,,,,,,0
1963,7100001037693,登記記録の閉鎖等,0,2026-01-08,2026-01-05,株式会社ＮＯＳＵ,,株式会社,長野県,佐久市,長土呂５１６番地１２,,20,217,3850021,,,2026-01-05,清算の結了等,,,2024-08-02,1,,,,,ノス,0
1984,7120101044407,登記記録の閉鎖等,0,2026-01-08,2026-01-05,株式会社丸昌商店,,株式会社,大阪府,泉南市,信達市場２６３８番地,,27,228,5900504,,,2026-01-05,合併による解散等,9120101044413,令和８年１月１日大阪府泉南市信達市場１０８６番地丸昌産業株式会社（9120101044413）に合併し解散,2015-10-05,1,,,,,マルショウショウテン,0
1995,7140001041659,登記記録の閉鎖等,0,2026-01-08,2025-12-26,栄光自動車株式会社,,株式会社,兵庫県,丹波篠山市,東吹１１３２番地の２,,28,221,6692202,,,2025-12-26,清算の結了等,,,2015-10-05,1,,,,,エイコウジウドウシャ,0
2003,7180001115830,登記記録の閉鎖等,0,2026-01-08,2026-01-05,株式会社花万両,,株式会社,愛知県,名古屋市中川区,山王１丁目７番２２号,,23,110,4540011,,,2026-01-05,清算の結了等,,,2015-10-05,1,,,,,ハナマンリョウ,0
2004,7180001158391,登記記録の閉鎖等,0,2026-01-08,2025-12-26,株式会社リブホーム,,株式会社,愛知県,名古屋市南区,元柴田東町４丁目７４番地の３,,23,112,4570816,,,2025-12-26,清算の結了等,,,2023-10-13,1,,,,,リブホーム,0
2014,7180302010524,登記記録の閉鎖等,0,2026-01-08,2025-12-24,有限会社リフル,,有限会社,愛知県,豊橋市,新本町７０番地１,,23,201,4400892,,,2025-12-24,清算の結了等,,,2015-10-05,1,,,,,リフル,0
2019,7200002009335,登記記録の閉鎖等,0,2026-01-08,2026-01-05,有限会社エレメカ,,有限会社,岐阜県,瑞穂市,別府１７１３番地の３,,21,216,5010222,,,2026-01-05,清算の結了等,,,2015-10-05,1,,,,,エレメカ,0
2021,7220002015315,登記記録の閉鎖等,0,2026-01-08,2026-01-06,有限会社山辺建設,,有限会社,石川県,羽咋市,本町マ１５４番地,,17,207,9250035,,,2026-01-06,清算の結了等,,,2015-10-05,1,,,,,ヤマベケンセツ,0
2033,7290001044622,登記記録の閉鎖等,0,2026-01-08,2025-12-18,エフ・プランニング株式会社,,株式会社,福岡県,福岡市早良区,野芥２丁目９番４号,,40,137,8140171,,,2025-12-18,清算の結了等,,,2015-10-05,1,,,,,エフプランニング,0
2050,7370002006340,登記記録の閉鎖等,0,2026-01-08,2025-12-25,有限会社ワンダーボツクス,,有限会社,宮城県,仙台市若林区,南材木町３４番地,,04,103,9840805,,,2025-12-25,清算の結了等,,,2015-10-05,1,,,,,ワンダーボックス,0
2054,7380002002999,登記記録の閉鎖等,0,2026-01-08,2025-12-26,有限会社ふくふく不動産,,有限会社,福島県,福島市,渡利字柳小路７６番地の１,,07,201,9608141,,,2025-12-26,清算の結了等,,,2015-10-05,1,,,,,フクフクフドウサン,0
2068,7460402000479,登記記録の閉鎖等,0,2026-01-08,2026-01-06,有限会社丸勝通商,,有限会社,北海道,根室市,駒場町３丁目２０番地２３,,01,223,0870012,,,2026-01-06,清算の結了等,,,2015-10-05,1,,,,,,0
2102,8010701029833,登記記録の閉鎖等,0,2026-01-08,2026-01-07,璃燕国際貿易株式会社,,株式会社,東京都,豊島区,東池袋１丁目３６－７アルテール池袋４１８号,,13,116,1700013,,,2026-01-07,登記官による閉鎖,,,2015-10-05,1,,,,,,0
2105,8010901001906,登記記録の閉鎖等,0,2026-01-08,2026-01-05,エヌエスユニ株式会社,,株式会社,東京都,世田谷区,玉川台２丁目２８番１号,,13,112,1580096,,,2026-01-05,清算の結了等,,,2015-10-05,1,,,,,エヌエスユニ,0
2106,8010901026820,登記記録の閉鎖等,0,2026-01-08,2026-01-05,グローバリング株式会社,,株式会社,東京都,世田谷区,深沢８丁目１２番２５号,,13,112,1580081,,,2026-01-05,清算の結了等,,,2015-10-05,1,,,,,グローバリング,0
2122,8011103008046,登記記録の閉鎖等,0,2026-01-08,2026-01-05,合同会社ＳＩＲＯＹＡ,,合同会社,静岡県,藤枝市,小石川町４丁目１０番１号１階,,22,214,4260033,,,2026-01-05,清算の結了等,,,2018-07-03,1,,,,,シロヤ,0
2124,8011203001999,登記記録の閉鎖等,0,2026-01-08,2026-01-07,合同会社ラクセイ,,合同会社,東京都,豊島区,南大塚１丁目４４番７号,,13,116,1700005,,,2026-01-07,登記官による閉鎖,,,2015-10-05,1,,,,,,0
2136,8012401037348,登記記録の閉鎖等,0,2026-01-08,2026-01-05,株式会社ＶＡＬＯＲ　ＪＡＰＡＮ,,株式会社,東京都,武蔵野市,吉祥寺南町１丁目３２番２３号,,13,203,1800003,,,2026-01-05,清算の結了等,,,2021-01-04,1,,,,,ヴァロージャパン,0
2143,8013301000247,登記記録の閉鎖等,0,2026-01-08,2026-01-07,株式会社青山ゴルフ,,株式会社,東京都,豊島区,東池袋１丁目４８番１０号,,13,116,1700013,,,2026-01-07,登記官による閉鎖,,,2015-10-05,1,,,,,,0
2144,8013301000412,登記記録の閉鎖等,0,2026-01-08,2026-01-07,アサヒエアコン株式会社,,株式会社,東京都,豊島区,要町３丁目１番１３－５１９号,,13,116,1710043,,,2026-01-07,登記官による閉鎖,,,2015-10-05,1,,,,,,0
2145,8013301001633,登記記録の閉鎖等,0,2026-01-08,2026-01-07,株式会社エスポ都市開発,,株式会社,東京都,豊島区,東池袋１丁目１５番３号,,13,116,1700013,,,2026-01-07,登記官による閉鎖,,,2015-10-05,1,,,,,,0
2146,8013301002210,登記記録の閉鎖等,0,2026-01-08,2026-01-07,株式会社冠木,,株式会社,東京都,豊島区,巣鴨５丁目１番５号,,13,116,1700002,,,2026-01-07,登記官による閉鎖,,,2015-10-05,1,,,,,,0
2147,8013301003514,登記記録の閉鎖等,0,2026-01-08,2026-01-07,株式会社桐山化成品,,株式会社,東京都,豊島区,高松３丁目１番地,,13,116,1710042,,,2026-01-07,登記官による閉鎖,,,2015-10-05,1,,,,,,0
2148,8013301004058,登記記録の閉鎖等,0,2026-01-08,2026-01-07,株式会社コンドル商会,,株式会社,東京都,豊島区,北大塚２丁目８番２号,00066828,13,116,1700004,,,2026-01-07,登記官による閉鎖,,,2015-10-05,1,,,,,,0
2149,8013301005477,登記記録の閉鎖等,0,2026-01-08,2026-01-07,勝栄空調設備株式会社,,株式会社,東京都,豊島区,高松３丁目１１番１１号,,13,116,1710042,,,2026-01-07,登記官による閉鎖,,,2015-10-05,1,,,,,,0
2150,8013301006723,登記記録の閉鎖等,0,2026-01-08,2026-01-07,株式会社泰雅,,株式会社,東京都,豊島区,南大塚１丁目４０番５号,,13,116,1700005,,,2026-01-07,登記官による閉鎖,,,2015-10-05,1,,,,,,0
2151,8013301006797,登記記録の閉鎖等,0,2026-01-08,2026-01-07,株式会社大三,,株式会社,東京都,豊島区,池袋本町４丁目３３番４号,,13,116,1700011,,,2026-01-07,登記官による閉鎖,,,2015-10-05,1,,,,,,0
2152,8013301007267,登記記録の閉鎖等,0,2026-01-08,2026-01-07,株式会社玉淀,,株式会社,東京都,豊島区,南大塚２丁目４１番５号,,13,116,1700005,,,2026-01-07,登記官による閉鎖,,,2015-10-05,1,,,,,,0
2153,8013301008612,登記記録の閉鎖等,0,2026-01-08,2026-01-07,株式会社東洋電子,,株式会社,東京都,豊島区,巣鴨４丁目１３番２１号,,13,116,1700002,,,2026-01-07,登記官による閉鎖,,,2015-10-05,1,,,,,,0
2154,8013301008777,登記記録の閉鎖等,0,2026-01-08,2026-01-07,株式会社常盤本社,,株式会社,東京都,豊島区,東池袋１丁目４３番６号,,13,116,1700013,,,2026-01-07,登記官による閉鎖,,,2015-10-05,1,,,,,,0
2155,8013301008868,登記記録の閉鎖等,0,2026-01-08,2026-01-07,株式会社トモミ,,株式会社,東京都,豊島区,北大塚２丁目１０番３号,,13,116,1700004,,,2026-01-07,登記官による閉鎖,,,2015-10-05,1,,,,,,0
2156,8013301009024,登記記録の閉鎖等,0,2026-01-08,2026-01-07,ナックス株式会社,,株式会社,東京都,豊島区,東池袋２丁目５７番２号,,13,116,1700013,,,2026-01-07,登記官による閉鎖,,,2015-10-05,1,,,,,,0
2157,8013301009123,登記記録の閉鎖等,0,2026-01-08,2026-01-07,日本計画株式会社,,株式会社,東京都,豊島区,西池袋５丁目１３番１３－１２１１号,,13,116,1710021,,,2026-01-07,登記官による閉鎖,,,2015-10-05,1,,,,,,0
2158,8013301009346,登記記録の閉鎖等,0,2026-01-08,2026-01-07,株式会社日本博物館工藝,,株式会社,東京都,豊島区,南大塚３丁目２８番９号,,13,116,1700005,,,2026-01-07,登記官による閉鎖,,,2015-10-05,1,,,,,,0
2159,8013301009478,登記記録の閉鎖等,0,2026-01-08,2026-01-07,株式会社日計貿易,,株式会社,東京都,豊島区,西池袋５丁目１３番１３－１２１１号,,13,116,1710021,,,2026-01-07,登記官による閉鎖,,,2015-10-05,1,,,,,,0
2160,8013301009676,登記記録の閉鎖等,0,2026-01-08,2026-01-07,株式会社二曜社,,株式会社,東京都,豊島区,巣鴨３丁目１０番２号,,13,116,1700002,,,2026-01-07,登記官による閉鎖,,,2015-10-05,1,,,,,,0
2161,8013301010428,登記記録の閉鎖等,0,2026-01-08,2026-01-07,株式会社一橋ゼミナール,,株式会社,東京都,豊島区,南大塚１丁目２番１０号,,13,116,1700005,,,2026-01-07,登記官による閉鎖,,,2015-10-05,1,,,,,,0
2162,8013301013942,登記記録の閉鎖等,0,2026-01-08,2026-01-07,株式会社アクターズインターナショナル,,株式会社,東京都,豊島区,高田１丁目３６番２２号,,13,116,1710033,,,2026-01-07,登記官による閉鎖,,,2015-10-05,1,,,,,,0
2163,8013301015369,登記記録の閉鎖等,0,2026-01-08,2026-01-07,株式会社パシオン・プレジール,,株式会社,東京都,豊島区,南池袋２丁目４６番８号,,13,116,1710022,,,2026-01-07,登記官による閉鎖,,,2015-10-05,1,,,,,,0
2164,8013301017497,登記記録の閉鎖等,0,2026-01-08,2026-01-07,株式会社定義,,株式会社,東京都,豊島区,西池袋５丁目２５番９号,,13,116,1710021,,,2026-01-07,登記官による閉鎖,,,2015-10-05,1,,,,,,0
2165,8013301018413,登記記録の閉鎖等,0,2026-01-08,2026-01-07,デジタルアロー株式会社,,株式会社,東京都,豊島区,東池袋２丁目７番３号柄澤ビル７階,,13,116,1700013,,,2026-01-07,登記官による閉鎖,,,2015-10-05,1,,,,,,0
2166,8013301018454,登記記録の閉鎖等,0,2026-01-08,2026-01-07,環境日本株式会社,,株式会社,東京都,豊島区,池袋１丁目１６番１８号,,13,116,1700014,,,2026-01-07,登記官による閉鎖,,,2015-10-05,1,,,,,,0
2167,8013301019147,登記記録の閉鎖等,0,2026-01-08,2026-01-07,株式会社サイバーメディア,,株式会社,東京都,豊島区,池袋２丁目５３番５号,,13,116,1710014,,,2026-01-07,登記官による閉鎖,,,2015-10-05,1,,,,,,0
2168,8013301019444,登記記録の閉鎖等,0,2026-01-08,2026-01-07,株式会社トスポル,,株式会社,東京都,豊島区,西池袋３丁目２３番３号,,13,116,1710021,,,2026-01-07,登記官による閉鎖,,,2015-10-05,1,,,,,,0
2169,8013301019766,登記記録の閉鎖等,0,2026-01-08,2026-01-07,株式会社コモン,,株式会社,東京都,豊島区,東池袋１丁目１７番３号,,13,116,1700013,,,2026-01-07,登記官による閉鎖,,,2015-10-05,1,,,,,,0
2170,8013301019865,登記記録の閉鎖等,0,2026-01-08,2026-01-07,株式会社スターチルドレン,,株式会社,東京都,豊島区,東池袋３丁目２２番地７号ＢＩＴビル７階,,13,116,1700013,,,2026-01-07,登記官による閉鎖,,,2015-10-05,1,,,,,,0
2171,8013301019898,登記記録の閉鎖等,0,2026-01-08,2026-01-07,株式会社ナフランカ,,株式会社,東京都,豊島区,北大塚２丁目３０番１号,,13,116,1700004,,,2026-01-07,登記官による閉鎖,,,2015-10-05,1,,,,,,0
2172,8013301019915,登記記録の閉鎖等,0,2026-01-08,2026-01-07,日本福祉サービス株式会社,,株式会社,東京都,豊島区,北大塚３丁目１０番１０号,,13,116,1700004,,,2026-01-07,登記官による閉鎖,,,2015-10-05,1,,,,,,0
2173,8013301020253,登記記録の閉鎖等,0,2026-01-08,2026-01-07,株式会社フォーエバー企画,,株式会社,東京都,豊島区,巣鴨３丁目２６番９号,,13,116,1700002,,,2026-01-07,登記官による閉鎖,,,2015-10-05,1,,,,,,0
2174,8013301032595,登記記録の閉鎖等,0,2026-01-08,2025-12-22,株式会社マグイック,,株式会社,東京都,豊島区,高田２丁目８番９－１０８号,,13,116,1710033,,,2025-12-22,清算の結了等,,,2015-10-05,1,,,,,マグイック,0
2177,8013303002539,登記記録の閉鎖等,0,2026-01-08,2026-01-07,ＡＳＰ合同会社,,合同会社,東京都,豊島区,南池袋１丁目９－１８－１１７,,13,116,1710022,,,2026-01-07,登記官による閉鎖,,,2015-10-05,1,,,,,,0
2180,8013305001547,登記記録の閉鎖等,0,2026-01-08,2026-01-07,一般社団法人日本ドメイン名事業者協会,,その他の設立登記法人,東京都,豊島区,東池袋３丁目１番１号,,13,116,1700013,,,2026-01-07,登記官による閉鎖,,,2015-10-05,1,,,,,,0
2182,8020001048005,登記記録の閉鎖等,0,2026-01-08,2025-12-25,株式会社はまエネ,,株式会社,神奈川県,横浜市港北区,新横浜３丁目８番地１２,,14,109,2220033,,,2025-12-25,清算の結了等,,,2015-10-05,1,,,,,ハマエネ,0
2184,8020001115242,登記記録の閉鎖等,0,2026-01-08,2025-12-24,株式会社ＢＡＵＭ,,株式会社,神奈川県,横浜市南区,共進町３丁目６３番地,,14,105,2320015,,,2025-12-24,清算の結了等,,,2016-03-11,1,,,,,バウム,0
2185,8020001117057,登記記録の閉鎖等,0,2026-01-08,2026-01-05,未来堂株式会社,,株式会社,神奈川県,横浜市中区,野毛町４丁目１６７番地バロック神４０３号室,,14,104,2310064,,,2026-01-05,清算の結了等,,,2016-07-19,1,,,,,ミライドウ,0
2194,8030001017834,登記記録の閉鎖等,0,2026-01-08,2025-12-23,株式会社オートギャラリー,,株式会社,埼玉県,さいたま市岩槻区,南平野４丁目１５番地１,,11,110,3390051,,,2025-12-23,清算の結了等,,,2015-10-05,1,,,,,オートギャラリー,0
2209,8030003006050,登記記録の閉鎖等,0,2026-01-08,2026-01-07,ジャパンマネジメント合同会社,,合同会社,東京都,豊島区,南大塚２丁目１１番１０号,,13,116,1700005,,,2026-01-07,登記官による閉鎖,,,2015-10-05,1,,,,,,0
2229,8100001027537,登記記録の閉鎖等,0,2026-01-08,2026-01-05,株式会社宮坂木型,,株式会社,長野県,千曲市,大字内川１２３０番地１,,20,218,3890802,,,2026-01-05,清算の結了等,,,2015-10-05,1,,,,,ミヤサカキガタ,0
2231,8100002000344,登記記録の閉鎖等,0,2026-01-08,2026-01-05,有限会社飯島米穀店,,有限会社,長野県,長野市,大字徳間４７８番地４,,20,201,3810041,,,2026-01-05,清算の結了等,,,2015-10-05,1,,,,,イイジマベイコクテン,0
2232,8100002015004,登記記録の閉鎖等,0,2026-01-08,2026-01-05,有限会社渡辺工業,,有限会社,長野県,上田市,林之郷１０９番地１,,20,203,3860156,,,2026-01-05,清算の結了等,,,2015-10-05,1,,,,,ワタナベコウギョウ,0
2237,8120001212021,登記記録の閉鎖等,0,2026-01-08,2026-01-05,株式会社ベルスタッフ,,株式会社,大阪府,大阪市中央区,大手前１丁目７番３１号,,27,128,5400008,,,2026-01-05,清算の結了等,,,2018-03-14,1,,,,,ベルスタッフ,0
2238,8120001216682,登記記録の閉鎖等,0,2026-01-08,2025-12-25,三木株式会社,,株式会社,大阪府,大阪市東淀川区,東中島１丁目２０番１２号ユニゾーン新大阪６１１号室,,27,114,5330033,,,2025-12-25,清算の結了等,,,2018-10-22,1,,,,,ミキ,0
2260,8122001004662,登記記録の閉鎖等,0,2026-01-08,2025-12-22,タカラ物流サービス株式会社,,株式会社,大阪府,八尾市,二俣３丁目８９番地,,27,212,5810024,,,2025-12-22,清算の結了等,,,2015-10-05,1,,,,,タカラブツリュウサービス,0
2261,8122005003702,登記記録の閉鎖等,0,2026-01-08,2025-12-23,一般社団法人あじーる,,その他の設立登記法人,大阪府,四條畷市,西中野２丁目１番４７－４０４号,,27,229,5750055,,,2025-12-23,清算の結了等,,,2023-08-21,1,,,,,アジール,0
2267,8140003015065,登記記録の閉鎖等,0,2026-01-08,2025-12-24,合同会社小泉ホールディングス,,合同会社,兵庫県,神戸市西区,竜が岡５丁目１１番地の３,,28,111,6512412,,,2025-12-24,清算の結了等,,,2020-06-17,1,,,,,コイズミホールディングス,0
2275,8180001074456,登記記録の閉鎖等,0,2026-01-08,2025-12-23,中央理化機株式会社,,株式会社,愛知県,春日井市,篠木町７丁目１７番地２０ソレアード篠木２０６号,,23,206,4860851,,,2025-12-23,清算の結了等,,,2015-10-05,1,,,,,チュウオウリカキ,0
2289,8180005006158,登記記録の閉鎖等,0,2026-01-08,2025-12-26,特定非営利活動法人ウィーキャン,,その他の設立登記法人,愛知県,名古屋市名東区,社台２丁目１２８番地,,23,115,4650092,,,2025-12-26,清算の結了等,,,2015-10-05,1,,,,,ウィーキャン,0
2303,8260001013546,登記記録の閉鎖等,0,2026-01-08,2026-01-05,サンリーム株式会社,,株式会社,岡山県,倉敷市,連島町連島１４３番地の１,,33,202,7128011,,,2026-01-05,清算の結了等,,,2015-10-05,1,,,,,サンリーム,0
2307,8290001000921,登記記録の閉鎖等,0,2026-01-08,2025-12-22,大賀建設株式会社,,株式会社,福岡県,福岡市南区,弥永１丁目３５番１４号,,40,134,8111323,,,2025-12-22,清算の結了等,,,2015-10-05,1,,,,,オオガケンセツ,0
2318,8290801013214,登記記録の閉鎖等,0,2026-01-08,2025-12-26,株式会社芦屋葬祭,00094211,株式会社,福岡県,遠賀郡芦屋町,中ノ浜９番３８号,,40,381,8070113,,,2025-12-26,清算の結了等,,,2015-10-05,1,,,,,アシヤソウサイ,0
2323,8320001013432,登記記録の閉鎖等,0,2026-01-08,2026-01-07,マルエフ商事株式会社,,株式会社,東京都,豊島区,東池袋１丁目３１番５号池袋アビタシオン６０５室,,13,116,1700013,,,2026-01-07,登記官による閉鎖,,,2015-10-05,1,,,,,,0
2346,8380001012610,登記記録の閉鎖等,0,2026-01-08,2026-01-05,小名浜捨石株式会社,,株式会社,福島県,いわき市,内郷白水町柳間２６番地,,07,204,9738405,,,2026-01-05,清算の結了等,,,2015-10-05,1,,,,,オナハマステイシ,0
2374,8480001001446,登記記録の閉鎖等,0,2026-01-08,2026-01-07,株式会社徳島新町チエン,,株式会社,徳島県,徳島市,新町橋１丁目３２番地,,36,201,7700904,,,2026-01-07,清算の結了等,,,2015-10-05,1,,,,,トクシマシンマチチエン,0
2375,8490002001254,登記記録の閉鎖等,0,2026-01-08,2025-12-25,春野管理株式会社,,株式会社,高知県,高知市,春野町西諸木９８６番地,,39,201,7810316,,,2025-12-25,清算の結了等,,,2015-10-05,1,,,,,ハルノカンリ,0
2382,9010001054580,登記記録の閉鎖等,0,2026-01-08,2025-12-24,株式会社ハマヤ商店,,株式会社,東京都,江東区,大島２丁目２番２０－８０１号,,13,108,1360072,,,2025-12-24,清算の結了等,,,2015-10-05,1,,,,,ハマヤショウテン,0
2383,9010001136783,登記記録の閉鎖等,0,2026-01-08,2025-12-15,株式会社ルート・サービスホールディングス,,株式会社,東京都,千代田区,九段南１丁目５番６号,,13,101,1020074,,,2025-12-15,清算の結了等,,,2015-10-05,1,,,,,ルートサービスホールディングス,0
2396,9010103001902,登記記録の閉鎖等,0,2026-01-08,2025-12-11,ランドスペース合同会社,,合同会社,東京都,渋谷区,千駄ヶ谷３丁目１４番２号ふじもとビル３Ｆ,,13,113,1510051,,,2025-12-11,清算の結了等,,,2022-05-02,1,,,,,ランドスペース,0
2397,9010401090639,登記記録の閉鎖等,0,2026-01-08,2025-12-11,株式会社ＬＵＣＥ,,株式会社,東京都,港区,南青山１丁目１５番９号,,13,103,1070062,,,2025-12-11,清算の結了等,,,2015-10-05,1,,,,,ルーチェ,0
2405,9010702015352,登記記録の閉鎖等,0,2026-01-08,2025-12-24,有限会社アクシア,,有限会社,東京都,品川区,北品川５丁目１５番７号,,13,109,1410001,,,2025-12-24,清算の結了等,,,2015-10-05,1,,,,,アクシア,0
2407,9010802002325,登記記録の閉鎖等,0,2026-01-08,2025-12-24,有限会社エヌシーエー,,有限会社,神奈川県,川崎市高津区,下作延６丁目２２番５号,,14,134,2130033,,,2025-12-24,清算の結了等,,,2015-10-05,1,,,,,エヌシーエー,0
2408,9010802012150,登記記録の閉鎖等,0,2026-01-08,2025-12-22,有限会社平吹研磨製作所,,有限会社,東京都,大田区,西馬込１丁目１番２１号,,13,111,1430026,,,2025-12-22,清算の結了等,,,2015-10-05,1,,,,,ヒラブキケンマセイサクジョ,0
2409,9010901004040,登記記録の閉鎖等,0,2026-01-08,2026-01-06,孝和株式会社,,株式会社,神奈川県,川崎市高津区,末長１丁目４９番１－５０５３号,,14,134,2130013,,,2026-01-06,清算の結了等,,,2015-10-05,1,,,,,コウワ,0
2428,9011401003441,登記記録の閉鎖等,0,2026-01-08,2025-12-26,西興社株式会社,,株式会社,東京都,板橋区,高島平１丁目２２番２号,,13,119,1750082,,,2025-12-26,清算の結了等,,,2015-10-05,1,,,,,セイコウシャ,0
2430,9011505000104,登記記録の閉鎖等,0,2026-01-08,2026-01-05,三河島町屋飲食業協同組合,,その他の設立登記法人,東京都,荒川区,荒川４丁目１３番３号,,13,118,1160002,,,2026-01-05,清算の結了等,,,2015-10-05,1,,,,,ミカワシママチヤインショクギョウ,0
2438,9012402001194,登記記録の閉鎖等,0,2026-01-08,2026-01-05,株式会社ＳＧＫ,,株式会社,東京都,府中市,紅葉丘１丁目２５番地の１８,,13,206,1830004,,,2026-01-05,清算の結了等,,,2015-10-05,1,,,,,エスジーケー,0
2445,9013301001376,登記記録の閉鎖等,0,2026-01-08,2026-01-07,株式会社マテーラ,,株式会社,東京都,豊島区,東池袋４丁目２３番５号,,13,116,1700013,,,2026-01-07,登記官による閉鎖,,,2015-10-05,1,,,,,,0
2446,9013301002481,登記記録の閉鎖等,0,2026-01-08,2026-01-07,鹿島ホーム株式会社,,株式会社,東京都,豊島区,東池袋１丁目３６番７号,,13,116,1700013,,,2026-01-07,登記官による閉鎖,,,2015-10-05,1,,,,,,0
2447,9013301005690,登記記録の閉鎖等,0,2026-01-08,2026-01-07,上海開発株式会社,,株式会社,東京都,豊島区,池袋２丁目６１番５号,,13,116,1710014,,,2026-01-07,登記官による閉鎖,,,2015-10-05,1,,,,,,0
2448,9013301005740,登記記録の閉鎖等,0,2026-01-08,2026-01-07,ジャパンプランニング株式会社,,株式会社,東京都,豊島区,南長崎２丁目１２番２号,,13,116,1710052,,,2026-01-07,登記官による閉鎖,,,2015-10-05,1,,,,,,0
2449,9013301007522,登記記録の閉鎖等,0,2026-01-08,2026-01-07,株式会社ジーシー・コーポレーション,,株式会社,東京都,豊島区,巣鴨３丁目１７番１０号,,13,116,1700002,,,2026-01-07,登記官による閉鎖,,,2015-10-05,1,,,,,,0
2450,9013301008768,登記記録の閉鎖等,0,2026-01-08,2026-01-07,常盤観光株式会社,,株式会社,東京都,豊島区,西池袋１丁目４２番１号,,13,116,1710021,,,2026-01-07,登記官による閉鎖,,,2015-10-05,1,,,,,,0
2451,9013301010443,登記記録の閉鎖等,0,2026-01-08,2026-01-07,ヒノデ自動車株式会社,,株式会社,東京都,豊島区,長崎２丁目９番１６号,,13,116,1710051,,,2026-01-07,登記官による閉鎖,,,2015-10-05,1,,,,,,0
2452,9013301012308,登記記録の閉鎖等,0,2026-01-08,2026-01-07,和興物産株式会社,,株式会社,東京都,豊島区,池袋本町２丁目１２番２号,,13,116,1700011,,,2026-01-07,登記官による閉鎖,,,2015-10-05,1,,,,,,0
2453,9013301014196,登記記録の閉鎖等,0,2026-01-08,2026-01-07,株式会社ジェイ・ティ・ホームズ,,株式会社,東京都,豊島区,西池袋３丁目２６番６号,,13,116,1710021,,,2026-01-07,登記官による閉鎖,,,2015-10-05,1,,,,,,0
2454,9013301016589,登記記録の閉鎖等,0,2026-01-08,2026-01-07,株式会社ティ・エム・ケイ・エス,,株式会社,東京都,豊島区,東池袋３丁目８番５号パレドール池袋８０５,,13,116,1700013,,,2026-01-07,登記官による閉鎖,,,2015-10-05,1,,,,,,0
2455,9013301017208,登記記録の閉鎖等,0,2026-01-08,2026-01-07,株式会社飛鳥化学研究所,,株式会社,東京都,豊島区,池袋２丁目６１番５－６０１号,,13,116,1710014,,,2026-01-07,登記官による閉鎖,,,2015-10-05,1,,,,,,0
2456,9013301017257,登記記録の閉鎖等,0,2026-01-08,2026-01-07,サンライズアジア通商株式会社,,株式会社,東京都,豊島区,上池袋３丁目１６番６号,,13,116,1700012,,,2026-01-07,登記官による閉鎖,,,2015-10-05,1,,,,,,0
2457,9013301017744,登記記録の閉鎖等,0,2026-01-08,2026-01-07,株式会社マルワ,,株式会社,東京都,豊島区,東池袋２丁目４４番３号,,13,116,1700013,,,2026-01-07,登記官による閉鎖,,,2015-10-05,1,,,,,,0
2458,9013301017991,登記記録の閉鎖等,0,2026-01-08,2026-01-07,共栄グリーン株式会社,,株式会社,東京都,豊島区,巣鴨２丁目４番１３号,,13,116,1700002,,,2026-01-07,登記官による閉鎖,,,2015-10-05,1,,,,,,0
2459,9013301019484,登記記録の閉鎖等,0,2026-01-08,2026-01-07,株式会社バーゼル,,株式会社,東京都,豊島区,上池袋２丁目２５番１７号,,13,116,1700012,,,2026-01-07,登記官による閉鎖,,,2015-10-05,1,,,,,,0
2460,9013301019682,登記記録の閉鎖等,0,2026-01-08,2026-01-07,株式会社シャルマン,,株式会社,東京都,豊島区,東池袋５丁目７番４号７階,,13,116,1700013,,,2026-01-07,登記官による閉鎖,,,2015-10-05,1,,,,,,0
2461,9013301019773,登記記録の閉鎖等,0,2026-01-08,2026-01-07,株式会社Ｖｉａ　Ｖｉａ,,株式会社,東京都,豊島区,南池袋３丁目１３番１５号,,13,116,1710022,,,2026-01-07,登記官による閉鎖,,,2015-10-05,1,,,,,,0
2462,9013301019914,登記記録の閉鎖等,0,2026-01-08,2026-01-07,泰斗興業株式会社,,株式会社,東京都,豊島区,要町１丁目６番１－１０５号,,13,116,1710043,,,2026-01-07,登記官による閉鎖,,,2015-10-05,1,,,,,,0
2463,9013301019939,登記記録の閉鎖等,0,2026-01-08,2026-01-07,丸中物産株式会社,,株式会社,東京都,豊島区,千早１丁目１番１３号,,13,116,1710044,,,2026-01-07,登記官による閉鎖,,,2015-10-05,1,,,,,,0
2464,9013301020038,登記記録の閉鎖等,0,2026-01-08,2026-01-07,株式会社イーマンルート,,株式会社,東京都,豊島区,北大塚２丁目１７番１２号,,13,116,1700004,,,2026-01-07,登記官による閉鎖,,,2015-10-05,1,,,,,,0
2465,9013301020046,登記記録の閉鎖等,0,2026-01-08,2026-01-07,株式会社エフアンドニック,,株式会社,東京都,豊島区,西池袋３丁目３３番１７号,,13,116,1710021,,,2026-01-07,登記官による閉鎖,,,2015-10-05,1,,,,,,0
2466,9013301020145,登記記録の閉鎖等,0,2026-01-08,2026-01-07,日中隆基株式会社,,株式会社,東京都,豊島区,南大塚２丁目３７番１０号吉岡ビル２０１室,,13,116,1700005,,,2026-01-07,登記官による閉鎖,,,2015-10-05,1,,,,,,0
2467,9013301020178,登記記録の閉鎖等,0,2026-01-08,2026-01-07,株式会社都市開発設計,,株式会社,東京都,豊島区,上池袋３丁目２０番８号,,13,116,1700012,,,2026-01-07,登記官による閉鎖,,,2015-10-05,1,,,,,,0
2468,9013301020228,登記記録の閉鎖等,0,2026-01-08,2026-01-07,株式会社フィックスオン,,株式会社,東京都,豊島区,上池袋２丁目１番２９号,,13,116,1700012,,,2026-01-07,登記官による閉鎖,,,2015-10-05,1,,,,,,0
2469,9013301028114,登記記録の閉鎖等,0,2026-01-08,2026-01-07,株式会社ワンアームズ・システム,,株式会社,東京都,豊島区,南長崎５丁目１３番１２－４０６号,,13,116,1710052,,,2026-01-07,登記官による閉鎖,,,2015-10-05,1,,,,,,0
2471,9013302003636,登記記録の閉鎖等,0,2026-01-08,2026-01-07,有限会社元町産業,,有限会社,東京都,豊島区,南大塚１丁目４９番９号,,13,116,1700005,,,2026-01-07,登記官による閉鎖,,,2015-10-05,1,,,,,,0
2472,9013302012868,登記記録の閉鎖等,0,2026-01-08,2026-01-07,有限会社富士テクノシステム,,有限会社,東京都,豊島区,千早３丁目１８番２号,,13,116,1710044,,,2026-01-07,登記官による閉鎖,,,2015-10-05,1,,,,,,0
2473,9013302014294,登記記録の閉鎖等,0,2026-01-08,2026-01-07,国際メディカルエージェンシー有限会社,,有限会社,東京都,豊島区,南池袋３丁目８番３号,,13,116,1710022,,,2026-01-07,登記官による閉鎖,,,2015-10-05,1,,,,,,0
2474,9013302020482,登記記録の閉鎖等,0,2026-01-08,2026-01-07,有限会社青い星クラブ,,有限会社,東京都,豊島区,池袋３丁目５２番２２号,,13,116,1710014,,,2026-01-07,登記官による閉鎖,,,2015-10-05,1,,,,,,0
2475,9013303002661,登記記録の閉鎖等,0,2026-01-08,2026-01-07,プラムプランニング合同会社,,合同会社,東京都,豊島区,東池袋４丁目２７番地５号ライオンズプラザ池袋１３０２,,13,116,1700013,,,2026-01-07,登記官による閉鎖,,,2015-10-05,1,,,,,,0
2476,9013305001612,登記記録の閉鎖等,0,2026-01-08,2026-01-07,一般社団法人国際交流クリーンハイキング協会,,その他の設立登記法人,東京都,豊島区,東池袋４丁目２番７－３０２号,,13,116,1700013,,,2026-01-07,登記官による閉鎖,,,2015-10-05,1,,,,,,0
2477,9013305001629,登記記録の閉鎖等,0,2026-01-08,2026-01-07,一般社団法人日本情報管理保障機構,,その他の設立登記法人,東京都,豊島区,南大塚２丁目４３番１０号,,13,116,1700005,,,2026-01-07,登記官による閉鎖,,,2015-10-05,1,,,,,,0
2478,9013401007182,登記記録の閉鎖等,0,2026-01-08,2026-01-05,ヨコタサービス工業株式会社,,株式会社,東京都,稲城市,大丸１２５番地の１７,,13,225,2060801,,,2026-01-05,清算の結了等,,,2015-10-05,1,,,,,,0
2488,9020003026528,登記記録の閉鎖等,0,2026-01-08,2025-11-21,合同会社ＮＥＬＳＯＮ,,合同会社,神奈川県,横浜市旭区,笹野台３丁目２１番６号,,14,112,2410816,,,2025-11-21,清算の結了等,,,2024-07-29,1,,,,,ネルソン,0
2491,9021001030728,登記記録の閉鎖等,0,2026-01-08,2025-12-26,株式会社マルビアグリ,,株式会社,東京都,荒川区,西尾久３丁目６番１０号,,13,118,1160011,,,2025-12-26,清算の結了等,,,2015-10-05,1,,,,,マルビアグリ,0
2502,9030003014903,登記記録の閉鎖等,0,2026-01-08,2025-12-24,ＰＲＯＰＵＬＳＩＯＮ合同会社,,合同会社,埼玉県,越谷市,蒲生東町１０番２１号,,11,222,3430841,,,2025-12-24,清算の結了等,,,2020-03-04,1,,,,,プロパルジョン,0
2512,9040002061532,登記記録の閉鎖等,0,2026-01-08,2025-12-10,有限会社満留賀,,有限会社,千葉県,佐倉市,中志津４丁目１番１号,,12,212,2850843,,,2025-12-10,清算の結了等,,,2015-10-05,1,,,,,マルカ,0
2513,9040002063388,登記記録の閉鎖等,0,2026-01-08,2025-12-10,有限会社新世,,有限会社,千葉県,八街市,八街ほ２１１番地,,12,230,2891115,,,2025-12-10,清算の結了等,,,2015-10-05,1,,,,,シンセイ,0
2516,9050005000544,登記記録の閉鎖等,0,2026-01-08,2025-12-23,本町一丁目・二丁目商店街振興組合,,その他の設立登記法人,茨城県,水戸市,本町１丁目４番２５号,,08,201,3100815,,,2025-12-23,清算の結了等,,,2015-10-05,1,,,,,ホンチョウイッチョウメニチョウメ,0
2524,9070002036399,登記記録の閉鎖等,0,2026-01-08,2025-12-26,有限会社健育社,,有限会社,群馬県,吾妻郡草津町,大字草津５４７番地,,10,426,3771711,,,2025-12-26,清算の結了等,,,2015-10-05,1,,,,,ケンイクシャ,0
2528,9080102021770,登記記録の閉鎖等,0,2026-01-08,2025-12-26,有限会社魚勝,,有限会社,静岡県,賀茂郡西伊豆町,田子１５５５番地の３,,22,306,4103515,,,2025-12-26,清算の結了等,,,2015-10-05,1,,,,,ウオショウ,0
2533,9080402010382,登記記録の閉鎖等,0,2026-01-08,2025-12-23,有限会社まあがれっと,,有限会社,静岡県,浜松市中央区,領家１丁目５番３号,,22,138,4300852,,,2025-12-23,清算の結了等,,,2015-10-05,1,,,,,,0
2534,9080402016033,登記記録の閉鎖等,0,2026-01-08,2025-12-23,有限会社新宮,,有限会社,静岡県,浜松市浜名区,引佐町井伊谷７０８番地の６,,22,139,4312212,,,2025-12-23,清算の結了等,,,2015-10-05,1,,,,,シンミヤ,0
2550,9120001206641,登記記録の閉鎖等,0,2026-01-08,2025-12-09,株式会社和作,,株式会社,千葉県,成田市,西三里塚２５８－２,,12,211,2860115,,,2025-12-09,清算の結了等,,,2017-07-03,1,,,,,ワサク,0
2560,9120002032888,登記記録の閉鎖等,0,2026-01-08,2026-01-05,有限会社松本金物店,,有限会社,大阪府,大阪市北区,天神橋４丁目７番２２号,,27,127,5300041,,,2026-01-05,清算の結了等,,,2015-10-05,1,,,,,マツモトカナモノテン,0
2582,9160001001171,登記記録の閉鎖等,0,2026-01-08,2026-01-06,株式会社高宮喜商店,,株式会社,滋賀県,大津市,木の岡町６番２号,,25,201,5200103,,,2026-01-06,清算の結了等,,,2015-10-05,1,,,,,タカミヤキショウテン,0
2586,9180001011648,登記記録の閉鎖等,0,2026-01-08,2025-12-26,株式会社岩塚内装建設,00071832,株式会社,愛知県,名古屋市北区,西志賀町３丁目４６番地の４,,23,103,4620058,,,2025-12-26,清算の結了等,,,2015-10-05,1,,,,,イワツカナイソウケンセツ,0
2595,9180002077531,登記記録の閉鎖等,0,2026-01-08,2025-12-26,有限会社益己鉄工所,,有限会社,愛知県,一宮市,浅井町小日比野字札子１７番２,,23,203,4910104,,,2025-12-26,清算の結了等,,,2015-10-05,1,,,,,マスミテッコウショ,0
2596,9180301030595,登記記録の閉鎖等,0,2026-01-08,2025-12-24,株式会社名南愛厚化成,,株式会社,愛知県,安城市,今池町３丁目１番３６号,,23,212,4460071,,,2025-12-24,清算の結了等,,,2017-07-27,1,,,,,メイナンアイコウカセイ,0
2597,9180301037517,登記記録の閉鎖等,0,2026-01-08,2025-12-25,株式会社Ｌｅａｐ,,株式会社,愛知県,西尾市,上町下屋敷１８－４１,,23,213,4450894,,,2025-12-25,清算の結了等,,,2023-06-30,1,,,,,リープ,0
2614,9280002010721,登記記録の閉鎖等,0,2026-01-08,2026-01-05,有限会社ミウラ,,有限会社,島根県,益田市,西平原町８５３番地,,32,204,6993506,,,2026-01-05,清算の結了等,,,2015-10-05,1,,,,,ミウラ,0
2616,9290001011109,登記記録の閉鎖等,0,2026-01-08,2025-12-15,ローベル・カツタ株式会社,,株式会社,福岡県,福岡市中央区,天神４丁目４番３０号,,40,133,8100001,,,2025-12-15,清算の結了等,,,2015-10-05,1,,,,,ローベルカツタ,0
2619,9290001057333,登記記録の閉鎖等,0,2026-01-08,2025-12-18,株式会社ジャストプランニング,,株式会社,福岡県,福岡市博多区,竹丘町１丁目４番３号１０１号室,,40,132,8120878,,,2025-12-18,清算の結了等,,,2015-10-05,1,,,,,ジャストプランニング,0
2620,9290001088106,登記記録の閉鎖等,0,2026-01-08,2025-12-10,株式会社島総業,,株式会社,福岡県,福岡市博多区,博多駅前２丁目１７番１４－８０６号,,40,132,8120011,,,2025-12-10,合併による解散等,9290001035909,令和７年１１月３０日福岡市博多区博多駅前二丁目１７番１４－８０６号株式会社島開発（9290001035909）に合併し解散,2020-02-18,1,,,,,シマソウギョウ,0
2639,9330001016482,登記記録の閉鎖等,0,2026-01-08,2025-12-26,株式会社富士技建,,株式会社,熊本県,熊本市中央区,帯山１丁目４４番３７号,,43,101,8620924,,,2025-12-26,清算の結了等,,,2015-10-05,1,,,,,フジギケン,0
2669,9430005005001,登記記録の閉鎖等,0,2026-01-08,2025-12-26,特定非営利活動法人北海道ファミリーハウス,,その他の設立登記法人,北海道,札幌市中央区,大通西１５丁目２－４パークアベニュー札幌６０２号室,,01,101,0600042,,,2025-12-26,清算の結了等,,,2015-10-05,1,,,,,ホッカイドウファミリーハウス,0
2683,9500002023337,登記記録の閉鎖等,0,2026-01-08,2026-01-06,有限会社カーショップサカイ,,有限会社,愛媛県,宇和島市,吉田町法花津２番耕地８４番地,,38,203,7993742,,,2026-01-06,清算の結了等,,,2015-10-05,1,,,,,カーショップサカイ,0
