sequenceNumber,corporateNumber,process,correct,updateDate,changeDate,name,nameImageId,kind,prefectureName,cityName,streetNumber,addressImageId,prefectureCode,cityCode,postCode,addressOutside,addressOutsideImageId,closeDate,closeCause,successorCorporateNumber,changeCause,assignmentDate,latest,enName,enPrefectureName,enCityName,enAddressOutside,furigana,hihyoji
5,1010001216873,登記記録の閉鎖等,0,2024-08-06,2024-08-01,株式会社倉海,,株式会社,東京都,江戸川区,中葛西７丁目３番１９号エクシードヒルズ２０１号室,,13,123,1340083,,,2024-08-01,清算の結了等,,,2021-03-31,1,,,,,ソウカイ,0
15,1010003037566,登記記録の閉鎖等,0,2024-08-06,2024-07-23,ＲＢソーラーブルック合同会社,,合同会社,東京都,中央区,八丁堀４丁目２番１０号ＡＯＪ税理士法人内,,13,102,1040032,,,2024-07-23,清算の結了等,,,2022-05-09,1,,,,,アールビーソーラーブルック,0
25,1010401009489,登記記録の閉鎖等,0,2024-08-06,2024-07-10,株式会社ケンブリツジ・リサーチ研究所,,株式会社,東京都,千代田区,麹町４丁目８番地麹町クリスタルシティ,,13,101,1020083,,,2024-07-10,合併による解散等,5010001078311,令和６年７月１日東京都千代田区麹町４－８麹町クリスタルシティアクシスコンサルティング株式会社（5010001078311）に合併し解散,2015-10-05,1,,,,,ケンブリツジリサーチケンキュウジョ,0
44,1011001123630,登記記録の閉鎖等,0,2024-08-06,2024-08-01,株式会社Ｊサポート,,株式会社,東京都,葛飾区,新小岩１丁目３９番６号タックビル３０３号室,,13,122,1240024,,,2024-08-01,清算の結了等,,,2018-08-07,1,,,,,ジェイサポート,0
51,1011101095407,登記記録の閉鎖等,0,2024-08-06,2024-07-23,株式会社ドンドン,,株式会社,東京都,新宿区,西早稲田３丁目１７番１９－５０４号,,13,104,1690051,,,2024-07-23,清算の結了等,,,2021-06-17,1,,,,,ドンドン,0
55,1011501002706,登記記録の閉鎖等,0,2024-08-06,2024-07-31,第四松竹タクシー株式会社,,株式会社,東京都,北区,浮間４丁目３０番１２号,,13,117,1150051,,,2024-07-31,合併による解散等,4011501010045,令和６年６月１１日東京都北区浮間四丁目３２番２６号松竹交通株式会社（4011501010045）に合併し解散,2015-10-05,1,,,,,ダイヨンショウチクタクシー,0
64,1012402007892,登記記録の閉鎖等,0,2024-08-06,2024-08-05,エムイー企画有限会社,,有限会社,東京都,小金井市,東町４丁目２１番６号,,13,210,1840011,,,2024-08-05,清算の結了等,,,2015-10-05,1,,,,,エムイーキカク,0
65,1012403006456,登記記録の閉鎖等,0,2024-08-06,2024-08-05,合同会社バッキーストック,,合同会社,東京都,小金井市,中町３丁目１番４号,,13,210,1840012,,,2024-08-05,清算の結了等,,,2024-03-18,1,,,,,バッキーストック,0
70,1013301036669,登記記録の閉鎖等,0,2024-08-06,2024-07-29,株式会社スターテック,,株式会社,東京都,豊島区,北大塚１丁目１７番３号,,13,116,1700004,,,2024-07-29,清算の結了等,,,2015-10-05,1,,,,,スターテック,0
71,1013301038500,登記記録の閉鎖等,0,2024-08-06,2024-07-29,株式会社Ｇｏｌｄ　Ｒｕｓｈ,,株式会社,東京都,豊島区,南大塚３丁目３８－１３,,13,116,1700005,,,2024-07-29,清算の結了等,,,2016-03-15,1,,,,,ゴールドラッシュ,0
84,1021001008450,登記記録の閉鎖等,0,2024-08-06,2024-08-01,株式会社ハートライフ,,株式会社,神奈川県,茅ヶ崎市,新栄町１３番４５号,,14,207,2530044,,,2024-08-01,合併による解散等,7021001007686,令和６年８月１日神奈川県茅ヶ崎市新栄町１３番４５号株式会社ハートグループホールディングス（7021001007686）に合併し解散,2015-10-05,1,,,,,ハートライフ,0
108,1040002095380,登記記録の閉鎖等,0,2024-08-06,2024-07-22,有限会社クローチアジア,,有限会社,千葉県,柏市,花野井１８５３番地の１４,,12,217,2770812,,,2024-07-22,清算の結了等,,,2015-10-05,1,,,,,クローチアジア,0
116,1050002009265,登記記録の閉鎖等,0,2024-08-06,2024-07-31,有限会社田山鉄工所,,有限会社,茨城県,東茨城郡大洗町,桜道５６０番地,,08,309,3111307,,,2024-07-31,清算の結了等,,,2015-10-05,1,,,,,タヤマテッコウジョ,0
118,1060002023819,登記記録の閉鎖等,0,2024-08-06,2024-07-25,有限会社渡辺商事,,有限会社,栃木県,那須塩原市,中塩原２２０番地,,09,213,3292924,,,2024-07-25,清算の結了等,,,2015-10-05,1,,,,,ワタナベショウジ,0
131,1080002014808,登記記録の閉鎖等,0,2024-08-06,2024-07-24,有限会社今村商店,,有限会社,静岡県,牧之原市,福岡１９５番地,,22,226,4210521,,,2024-07-24,清算の結了等,,,2015-10-05,1,,,,,,0
143,1110001004145,登記記録の閉鎖等,0,2024-08-06,2024-07-30,新潟丸新物流株式会社,,株式会社,新潟県,新潟市西蒲区,津雲田９７番地,,15,108,9530123,,,2024-07-30,清算の結了等,,,2015-10-05,1,,,,,ニイガタマルシンブツリュウ,0
146,1110002027599,登記記録の閉鎖等,0,2024-08-06,2024-07-30,有限会社小林商事,,有限会社,新潟県,長岡市,下柳３丁目８番２１号,,15,202,9402013,,,2024-07-30,清算の結了等,,,2015-10-05,1,,,,,コバヤシショウジ,0
148,1120001021230,登記記録の閉鎖等,0,2024-08-06,2024-08-02,日昇自動車株式会社,,株式会社,大阪府,大阪市平野区,瓜破西１丁目７番４号,,27,126,5470025,,,2024-08-02,清算の結了等,,,2015-10-05,1,,,,,,0
151,1120001167379,登記記録の閉鎖等,0,2024-08-06,2024-07-30,大阪イワタニ共同センター株式会社,,株式会社,兵庫県,尼崎市,大高洲町１０番地,,28,202,6600842,,,2024-07-30,清算の結了等,,,2015-10-05,1,,,,,オオサカイワタニキョウドウセンター,0
175,1120901008946,登記記録の閉鎖等,0,2024-08-06,2024-07-31,株式会社アトムコーポレーション,,株式会社,大阪府,摂津市,鳥飼上４丁目１番３０号,,27,224,5660062,,,2024-07-31,清算の結了等,,,2015-10-05,1,,,,,アトムコーポレーション,0
179,1122001036893,登記記録の閉鎖等,0,2024-08-06,2024-08-01,株式会社Ｒｏｄｍａｎ,,株式会社,大阪府,大東市,三住町１６番３号フジパレス三住町Ａ棟１０３号,,27,218,5740027,,,2024-08-01,清算の結了等,,,2023-04-13,1,,,,,ロドマン,0
188,1140001039320,登記記録の閉鎖等,0,2024-08-06,2024-07-31,徳久本多石油株式会社,,株式会社,兵庫県,佐用郡佐用町,下徳久８９４番地の１,,28,501,6795211,,,2024-07-31,清算の結了等,,,2015-10-05,1,,,,,トクサホンダセキユ,0
194,1140002048295,登記記録の閉鎖等,0,2024-08-06,2024-07-31,有限会社釘本鍍金工業所,,有限会社,兵庫県,姫路市,白浜町甲２５２番地,,28,201,6728023,,,2024-07-31,清算の結了等,,,2015-10-05,1,,,,,クギモトメッキコウギョウショ,0
206,1180002051873,登記記録の閉鎖等,0,2024-08-06,2024-07-22,有限会社志賀設計,,有限会社,愛知県,北名古屋市,片場新町１番地,,23,234,4810002,,,2024-07-22,清算の結了等,,,2015-10-05,1,,,,,シガセッケイ,0
214,1180302011453,登記記録の閉鎖等,0,2024-08-06,2024-07-30,有限会社アントルメティエ,,有限会社,愛知県,豊橋市,つつじが丘３丁目４６番地７,,23,201,4400858,,,2024-07-30,清算の結了等,,,2015-10-05,1,,,,,アントルメティエ,0
223,1200002026410,登記記録の閉鎖等,0,2024-08-06,2024-08-01,高成建設株式会社,,株式会社,岐阜県,高山市,花岡町３丁目８４番地８,,21,203,5060009,,,2024-08-01,清算の結了等,,,2015-10-05,1,,,,,コウセイケンセツ,0
224,1200003005396,登記記録の閉鎖等,0,2024-08-06,2024-07-30,合同会社にゃいす,,合同会社,岐阜県,高山市,上岡本町３丁目４６４番地,,21,203,5060055,,,2024-07-30,清算の結了等,,,2021-12-16,1,,,,,ニャイス,0
226,1210001013631,登記記録の閉鎖等,0,2024-08-06,2024-07-31,株式会社アシスト,,株式会社,福井県,越前市,国高１丁目２番１号,,18,209,9150082,,,2024-07-31,清算の結了等,,,2015-10-05,1,,,,,アシスト,0
265,1370001002321,登記記録の閉鎖等,0,2024-08-06,2024-07-17,株式会社ヤマガタ,,株式会社,宮城県,仙台市太白区,八木山本町１丁目２２番地の６,,04,104,9820801,,,2024-07-17,清算の結了等,,,2015-10-05,1,,,,,ヤマガタ,0
270,1370005010436,登記記録の閉鎖等,0,2024-08-06,2024-07-16,一般社団法人東北スポ少空手道,,その他の設立登記法人,宮城県,石巻市,桃生町永井字糠塚５０番地２,,04,202,9860303,,,2024-07-16,清算の結了等,,,2022-02-02,1,,,,,トウホクスポショウカラテドウ,0
272,1380001009002,登記記録の閉鎖等,0,2024-08-06,2024-08-02,株式会社あぶくま建石社,,株式会社,福島県,田村市,大越町上大越字求中３番地,,07,211,9634111,,,2024-08-02,清算の結了等,,,2015-10-05,1,,,,,アブクマケンセキシャ,0
276,1390002006609,登記記録の閉鎖等,0,2024-08-06,2024-07-22,有限会社ＳＫＡ,,有限会社,山形県,山形市,鈴川町１丁目２番３１号,,06,201,9900062,,,2024-07-22,清算の結了等,,,2015-10-05,1,,,,,エスケイエイ,0
281,1420001014443,登記記録の閉鎖等,0,2024-08-06,2024-07-29,株式会社カネハシ水産,,株式会社,青森県,八戸市,新湊１丁目１１番２１号,,02,203,0310811,,,2024-07-29,清算の結了等,,,2015-10-05,1,,,,,カネハシスイサン,0
291,1430002045718,登記記録の閉鎖等,0,2024-08-06,2024-07-31,有限会社親和建設,,有限会社,北海道,江別市,東光町３２番地１,,01,217,0670023,,,2024-07-31,清算の結了等,,,2015-10-05,1,,,,,シンワケンセツ,0
300,1490002004759,登記記録の閉鎖等,0,2024-08-06,2024-07-31,有限会社前田電設,,有限会社,高知県,高知市,薊野北町３丁目４番１７号,,39,201,7810011,,,2024-07-31,清算の結了等,,,2015-10-05,1,,,,,マエダデンセツ,0
303,1490002006160,登記記録の閉鎖等,0,2024-08-06,2024-07-31,有限会社伸建,,有限会社,高知県,高知市,仁井田４５０６番地,,39,201,7810112,,,2024-07-31,清算の結了等,,,2015-10-05,1,,,,,シンケン,0
306,1500002017560,登記記録の閉鎖等,0,2024-08-06,2024-07-04,有限会社シープランツ,,有限会社,愛媛県,西条市,実報寺乙１９２番地８,,38,206,7991317,,,2024-07-04,合併による解散等,4240001062978,令和６年７月１日広島県三次市十日市東二丁目３番８号株式会社Ｃ‐ＰＬＡＮＴＳ（4240001062978）に合併し解散,2015-10-05,1,,,,,シープランツ,0
310,2010001192503,登記記録の閉鎖等,0,2024-08-06,2024-07-01,２４ＡＢＣ株式会社,,株式会社,東京都,新宿区,津久戸町１番８号,,13,104,1620821,,,2024-07-01,合併による解散等,7010701008994,令和６年６月３０日東京都新宿区津久戸町１番８号神楽坂ＡＫビル９階ＨＯＵＳＥＩ株式会社（7010701008994）に合併し解散,2018-06-12,1,,,,,ニジュウヨンエービーシー,0
322,2010401087419,登記記録の閉鎖等,0,2024-08-06,2024-07-29,株式会社コスモ,,株式会社,東京都,台東区,雷門１丁目８番１号,,13,106,1110034,,,2024-07-29,清算の結了等,,,2015-10-05,1,,,,,,0
327,2010401174200,登記記録の閉鎖等,0,2024-08-06,2024-07-12,Ｃｈａｎｚｙ　Ｊａｐａｎ株式会社,,株式会社,東京都,港区,虎ノ門１丁目２－１１ザ・パークレックス虎ノ門４階,,13,103,1050001,,,2024-07-12,清算の結了等,,,2023-05-10,1,,,,,シャンジージャパン,0
364,2011502015912,登記記録の閉鎖等,0,2024-08-06,2024-08-01,有限会社鹿鳴館,,有限会社,東京都,北区,中里１丁目６番５号第一駒信ビル４０１,,13,117,1140015,,,2024-08-01,清算の結了等,,,2015-10-05,1,,,,,ロクメイカン,0
381,2012801006825,登記記録の閉鎖等,0,2024-08-06,2024-07-29,株式会社モンキーマジック,,株式会社,東京都,立川市,一番町６丁目１３番地１２,,13,202,1900033,,,2024-07-29,清算の結了等,,,2015-10-05,1,,,,,モンキーマジック,0
398,2021001025701,登記記録の閉鎖等,0,2024-08-06,2024-08-02,日本ダンレー株式会社,,株式会社,神奈川県,大和市,下鶴間２７４９番地６,,14,213,2420001,,,2024-08-02,清算の結了等,,,2015-10-05,1,,,,,ニホンダンレー,0
423,2040003004892,登記記録の閉鎖等,0,2024-08-06,2024-07-23,フリーライフ・インベストメント合同会社,,合同会社,千葉県,千葉市美浜区,打瀬３丁目５番地マリンフォート３－９０４号,,12,106,2610013,,,2024-07-23,清算の結了等,,,2015-10-05,1,,,,,フリーライフインベストメント,0
433,2070001024915,登記記録の閉鎖等,0,2024-08-06,2024-08-01,株式会社オービーエス,,株式会社,群馬県,太田市,東長岡町１４０番地１０,,10,205,3730812,,,2024-08-01,清算の結了等,,,2015-10-05,1,,,,,オービーエス,0
436,2070001034063,登記記録の閉鎖等,0,2024-08-06,2024-08-01,株式会社林アグリビジネス,,株式会社,群馬県,前橋市,堀越町８３０番地１,,10,201,3710231,,,2024-08-01,合併による解散等,4070001016456,令和６年８月１日群馬県前橋市苗ケ島町２３３１番地株式会社林牧場（4070001016456）に合併し解散,2017-10-19,1,,,,,ハヤシアグリビジネス,0
450,2110002013961,登記記録の閉鎖等,0,2024-08-06,2024-07-29,有限会社かねきドライ,,有限会社,新潟県,五泉市,村松甲２２３９番地第１,,15,218,9591704,,,2024-07-29,清算の結了等,,,2015-10-05,1,,,,,カネキドライ,0
455,2120001219113,登記記録の閉鎖等,0,2024-08-06,2024-08-02,三木通商株式会社,,株式会社,大阪府,大阪市中央区,瓦町２丁目６番１４号,,27,128,5410048,,,2024-08-02,清算の結了等,,,2019-02-20,1,,,,,ミキツウショウ,0
482,2130002004991,登記記録の閉鎖等,0,2024-08-06,2024-08-01,有限会社賀茂屋,,有限会社,京都府,京都市左京区,下鴨上川原町６８番地,,26,103,6060812,,,2024-08-01,清算の結了等,,,2015-10-05,1,,,,,カモヤ,0
521,2180301009308,登記記録の閉鎖等,0,2024-08-06,2024-07-30,株式会社アトムベーカリー,,株式会社,愛知県,豊橋市,山田町字瀬戸１５番地１,,23,201,4418101,,,2024-07-30,清算の結了等,,,2015-10-05,1,,,,,アトムベーカリー,0
536,2210005004535,登記記録の閉鎖等,0,2024-08-06,2024-07-31,農事組合法人クリーンライス・せいま,,その他の設立登記法人,福井県,あわら市,清間第２号７番地,,18,208,9190611,,,2024-07-31,清算の結了等,,,2015-10-05,1,,,,,クリーンライスセイマ,0
549,2240002035118,登記記録の閉鎖等,0,2024-08-06,2024-08-01,有限会社五栄産業,,有限会社,広島県,呉市,安浦町内海南１丁目６番１６号,,34,202,7372519,,,2024-08-01,清算の結了等,,,2015-10-05,1,,,,,ゴエイサンギョウ,0
581,2370302002580,登記記録の閉鎖等,0,2024-08-06,2024-07-17,有限会社亮信興産,,有限会社,宮城県,石巻市,恵み野６丁目２番地１６Ｄ,,04,202,9860868,,,2024-07-17,清算の結了等,,,2015-10-05,1,,,,,リョウシンコウサン,0
590,2430001001373,登記記録の閉鎖等,0,2024-08-06,2024-08-01,株式会社維新堂,,株式会社,北海道,札幌市中央区,南十八条西１４丁目１番１７号,,01,101,0640918,,,2024-08-01,清算の結了等,,,2015-10-05,1,,,,,イシンドウ,0
602,2490002008164,登記記録の閉鎖等,0,2024-08-06,2024-07-31,有限会社おもしろランドキャンプ松山,,有限会社,高知県,高知市,北新田町７番１３号,,39,201,7818003,,,2024-07-31,清算の結了等,,,2015-10-05,1,,,,,オモシロランドキャンプマツヤマ,0
614,3010002015612,登記記録の閉鎖等,0,2024-08-06,2024-07-23,有限会社量平寿司,,有限会社,東京都,千代田区,神田神保町２丁目３２番地カーサ神保町６０１号,,13,101,1010051,,,2024-07-23,清算の結了等,,,2015-10-05,1,,,,,リョウヘイズシ,0
615,3010005031516,登記記録の閉鎖等,0,2024-08-06,2024-07-23,一般社団法人ＳＢＨ,,その他の設立登記法人,東京都,中央区,日本橋１丁目４番１号,,13,102,1030027,,,2024-07-23,清算の結了等,,,2020-03-03,1,,,,,エスビーエイチ,0
652,3011102030146,登記記録の閉鎖等,0,2024-08-06,2024-07-23,有限会社ネットワーク二四六,,有限会社,東京都,新宿区,若宮町１０番地３,,13,104,1620827,,,2024-07-23,清算の結了等,,,2015-10-05,1,,,,,ネットワークニヨンロク,0
660,3011702013285,登記記録の閉鎖等,0,2024-08-06,2024-08-02,有限会社岩田設備工業,,有限会社,東京都,江戸川区,本一色３丁目１７番９号,,13,123,1330044,,,2024-08-02,清算の結了等,,,2015-10-05,1,,,,,イワタセツビコウギョウ,0
674,3020002016411,登記記録の閉鎖等,0,2024-08-06,2024-07-17,有限会社協和製作所,,有限会社,神奈川県,横浜市保土ケ谷区,今井町１１２５番地,,14,106,2400035,,,2024-07-17,清算の結了等,,,2015-10-05,1,,,,,キョウワセイサクショ,0
696,3040005018015,登記記録の閉鎖等,0,2024-08-06,2024-07-22,一般社団法人Ｃ＆Ｇパートナーズ,,その他の設立登記法人,千葉県,木更津市,真舟１丁目１５番１４号,,12,206,2920802,,,2024-07-22,清算の結了等,,,2015-10-05,1,,,,,シーアンドジーパートナーズ,0
698,3050001010362,登記記録の閉鎖等,0,2024-08-06,2024-07-03,浮島開発株式会社,,株式会社,茨城県,稲敷郡阿見町,大字大室１２７２番地,,08,443,3000303,,,2024-07-03,合併による解散等,5050001008842,令和６年７月２日茨城県稲敷郡阿見町大字吉原３２３４番地１株式会社荒川沖建材店（5050001008842）に合併し解散,2015-10-05,1,,,,,ウキシマカイハツ,0
739,3120001120922,登記記録の閉鎖等,0,2024-08-06,2024-08-02,株式会社アイ・建築工房,,株式会社,大阪府,大阪市西淀川区,野里１丁目３１番１９号,,27,113,5550024,,,2024-08-02,清算の結了等,,,2015-10-05,1,,,,,,0
742,3120001167237,登記記録の閉鎖等,0,2024-08-06,2024-08-02,株式会社ハウスアイ,,株式会社,大阪府,大阪市西淀川区,歌島１丁目３番８号,,27,113,5550021,,,2024-08-02,清算の結了等,,,2015-10-05,1,,,,,ハウスアイ,0
754,3120003021697,登記記録の閉鎖等,0,2024-08-06,2024-08-02,合同会社かつお,,合同会社,大阪府,大阪市北区,梅田１丁目２番２号大阪駅前第２ビル２階５－６号,,27,127,5300001,,,2024-08-02,清算の結了等,,,2022-05-27,1,,,,,カツオ,0
763,3120105004889,登記記録の閉鎖等,0,2024-08-06,2024-07-09,社会福祉法人一梅会,,その他の設立登記法人,大阪府,富田林市,大字佐備２４９７番地５,,27,214,5840052,,,2024-07-09,合併による解散等,1150005007165,令和６年７月１日奈良県五條市二見五丁目３番６４号社会福祉法人一会（1150005007165）に合併し解散,2015-10-05,1,,,,,イチウメカイ,0
767,3130005007132,登記記録の閉鎖等,0,2024-08-06,2024-07-26,特定非営利活動法人地盤品質管理協会,,その他の設立登記法人,京都府,京都市右京区,西院久田町１２８番地１,,26,108,6150064,,,2024-07-26,清算の結了等,,,2015-10-05,1,,,,,ジバンヒンシツカンリキョウカイ,0
796,3230001002639,登記記録の閉鎖等,0,2024-08-06,2024-08-01,株式会社フアツクス,,株式会社,富山県,富山市,新川原町４番１４号,,16,201,9300024,,,2024-08-01,清算の結了等,,,2015-10-05,1,,,,,フアツクス,0
801,3290003001204,登記記録の閉鎖等,0,2024-08-06,2024-07-22,合同会社花山手,,合同会社,福岡県,福岡市博多区,博多駅東２丁目８番３５－２０４号,,40,132,8120013,,,2024-07-22,清算の結了等,,,2015-10-05,1,,,,,ハナヤマテ,0
817,3340002003187,登記記録の閉鎖等,0,2024-08-06,2024-08-01,有限会社九栄建設,,有限会社,鹿児島県,鹿児島市,上福元町５６０３番地２,,46,201,8910116,,,2024-08-01,清算の結了等,,,2015-10-05,1,,,,,キュウエイケンセツ,0
828,3370002008233,登記記録の閉鎖等,0,2024-08-06,2024-07-18,有限会社土地利用研究所,,有限会社,宮城県,仙台市宮城野区,小田原１丁目７番２５号,,04,102,9830803,,,2024-07-18,清算の結了等,,,2015-10-05,1,,,,,トチリヨウケンキュウショ,0
829,3370002019049,登記記録の閉鎖等,0,2024-08-06,2024-07-09,有限会社シューテックプロ,,有限会社,宮城県,仙台市泉区,南光台東１丁目３４番６号,,04,105,9818001,,,2024-07-09,清算の結了等,,,2015-10-05,1,,,,,シューテックプロ,0
830,3380001008489,登記記録の閉鎖等,0,2024-08-06,2024-07-25,株式会社ＢＥプレジデント,,株式会社,福島県,郡山市,中町１１番５号,,07,203,9638004,,,2024-07-25,清算の結了等,,,2015-10-05,1,,,,,ビーイープレジデント,0
834,3400001015689,登記記録の閉鎖等,0,2024-08-06,2024-07-24,エストメンテナンス株式会社,,株式会社,岩手県,盛岡市,加賀野２丁目８番１５号,,03,201,0200807,,,2024-07-24,清算の結了等,,,2021-12-02,1,,,,,エストメンテナンス,0
843,3430001080516,登記記録の閉鎖等,0,2024-08-06,2024-08-02,株式会社リアライズ北海道,,株式会社,大阪府,大阪市中央区,南船場１丁目１３番２０号,,27,128,5420081,,,2024-08-02,清算の結了等,,,2019-12-23,1,,,,,リアライズホッカイドウ,0
874,4010005021937,登記記録の閉鎖等,0,2024-08-06,2024-07-12,特定非営利活動法人がんの早期診断・治療に必要な病理診断の総合力を向上させる会,,その他の設立登記法人,東京都,港区,南青山２丁目４番１５号,,13,103,1070062,,,2024-07-12,清算の結了等,,,2015-10-05,1,,,,,ガンノソウキシンダンチリョウニヒツヨウナビョウリシンダンノソウゴウリョクヲコウジョウサセルカイ,0
875,4010101001099,登記記録の閉鎖等,0,2024-08-06,2024-08-01,株式会社ＫＭＴエキスプレス,,株式会社,東京都,八王子市,寺田町４３２番地グリーンヒル寺田１３７－１０２,,13,201,1930943,,,2024-08-01,清算の結了等,,,2015-10-05,1,,,,,ケイエムティエキスプレス,0
880,4010401123824,登記記録の閉鎖等,0,2024-08-06,2024-08-02,メディカルプラス株式会社,,株式会社,大阪府,枚方市,星丘２丁目１３番１１号,,27,210,5730013,,,2024-08-02,清算の結了等,,,2016-04-04,1,,,,,メディカルプラス,0
885,4010405020027,登記記録の閉鎖等,0,2024-08-06,2024-07-11,ＲＢソーラーパッション４ホールディングス一般社団法人,,その他の設立登記法人,東京都,港区,虎ノ門３丁目２２番１０－２０１号,,13,103,1050001,,,2024-07-11,清算の結了等,,,2021-07-20,1,,,,,アールビーソーラーパッションフォーホールディングス,0
888,4010601018881,登記記録の閉鎖等,0,2024-08-06,2024-08-05,株式会社グリーントリップ,,株式会社,東京都,江東区,亀戸３丁目５９番８号,,13,108,1360071,,,2024-08-05,清算の結了等,,,2015-10-05,1,,,,,グリーントリップ,0
899,4010902004515,登記記録の閉鎖等,0,2024-08-06,2024-07-31,有限会社季節料理藤,,有限会社,東京都,世田谷区,成城６丁目７番８号,,13,112,1570066,,,2024-07-31,清算の結了等,,,2015-10-05,1,,,,,キセツリョウリフジ,0
925,4013301049123,登記記録の閉鎖等,0,2024-08-06,2024-07-24,ＫＡＣＯＡ株式会社,,株式会社,東京都,豊島区,西池袋１丁目２９番５号９階Ａ号,,13,116,1710021,,,2024-07-24,清算の結了等,,,2022-05-24,1,,,,,カコア,0
934,4020002039923,登記記録の閉鎖等,0,2024-08-06,2024-07-16,フジキ有限会社,,有限会社,神奈川県,横浜市鶴見区,下末吉３丁目１２番３７号,,14,101,2300012,,,2024-07-16,清算の結了等,,,2015-10-05,1,,,,,フジキ,0
938,4021001031838,登記記録の閉鎖等,0,2024-08-06,2024-08-01,株式会社クローバーリビング,,株式会社,神奈川県,平塚市,夕陽ケ丘１番１６号,,14,203,2540806,,,2024-08-01,合併による解散等,7021001076871,令和６年８月１日神奈川県茅ヶ崎市新栄町１０番１２号株式会社ハートフルステージ（7021001076871）に合併し解散,2015-10-05,1,,,,,クローバーリビング,0
969,4050002023395,登記記録の閉鎖等,0,2024-08-06,2024-07-26,有限会社医歯薬ネットイースト,,有限会社,茨城県,つくば市,小茎１８２番地５,,08,220,3001255,,,2024-07-26,合併による解散等,3050002024907,令和６年７月１１日茨城県つくば市小茎１８２番地５株式会社カシマ（3050002024907）に合併し解散,2015-10-05,1,,,,,イシヤクネットイースト,0
979,4070001026158,登記記録の閉鎖等,0,2024-08-06,2024-08-01,和商総合ファイナンス株式会社,,株式会社,群馬県,太田市,新田萩町２４３－３,,10,205,3700356,,,2024-08-01,清算の結了等,,,2015-10-05,1,,,,,ワショウソウゴウファイナンス,0
989,4080401017367,登記記録の閉鎖等,0,2024-08-06,2024-08-02,エムジャパン商事株式会社,,株式会社,静岡県,袋井市,西同笠３８７番地,,22,216,4371114,,,2024-08-02,清算の結了等,,,2015-10-05,1,,,,,エムジャパンショウジ,0
993,4080403003316,登記記録の閉鎖等,0,2024-08-06,2024-08-05,立石工業合資会社,,合資会社,静岡県,浜松市中央区,三方原町１３５５番地の３,,22,138,4338105,,,2024-08-05,清算の結了等,,,2016-08-15,1,,,,,,0
1016,4120002081915,登記記録の閉鎖等,0,2024-08-06,2024-08-01,Ｙ’Ｓ企画有限会社,,有限会社,大阪府,門真市,四宮４丁目５番３６号,,27,223,5710017,,,2024-08-01,清算の結了等,,,2015-10-05,1,,,,,ワイズキカク,0
1022,4120101051208,登記記録の閉鎖等,0,2024-08-06,2024-07-30,株式会社Ｖａｇｕｅ,,株式会社,大阪府,岸和田市,沼町１９番１２号,,27,202,5960053,,,2024-07-30,清算の結了等,,,2015-10-05,1,,,,,ヴァーグ,0
1038,4140001123328,登記記録の閉鎖等,0,2024-08-06,2024-08-01,成洋産業株式会社,,株式会社,兵庫県,伊丹市,北本町３丁目１６５番地１－２０１号,,28,207,6640836,,,2024-08-01,清算の結了等,,,2021-10-12,1,,,,,セイヨウサンギョウ,0
1125,4402702000225,登記記録の閉鎖等,0,2024-08-06,2024-07-22,有限会社シダッチ,,有限会社,岩手県,大船渡市,赤崎町字清水１１８番地５,,03,203,0220007,,,2024-07-22,清算の結了等,,,2015-10-05,1,,,,,シダッチ,0
1145,4500002013573,登記記録の閉鎖等,0,2024-08-06,2024-07-29,有限会社丸榮商会,,有限会社,愛媛県,八幡浜市,江戸岡１丁目９番５号,,38,204,7960031,,,2024-07-29,清算の結了等,,,2015-10-05,1,,,,,マルエイショウカイ,0
1184,5011402002561,登記記録の閉鎖等,0,2024-08-06,2024-07-29,有限会社菊池興産,,有限会社,東京都,板橋区,赤塚新町１丁目１１番１号,00065979,13,119,1750093,,,2024-07-29,清算の結了等,,,2015-10-05,1,,,,,キクチコウサン,0
1187,5011501008443,登記記録の閉鎖等,0,2024-08-06,2024-08-01,不二工業株式会社,,株式会社,東京都,荒川区,東尾久８丁目４４番１号,,13,118,1160012,,,2024-08-01,清算の結了等,,,2015-10-05,1,,,,,フジコウギョウ,0
1193,5011802004653,登記記録の閉鎖等,0,2024-08-06,2024-07-31,有限会社竹石,,有限会社,東京都,足立区,中川１丁目９番１０号,,13,121,1200002,,,2024-07-31,清算の結了等,,,2015-10-05,1,,,,,タケイシ,0
1203,5020001076306,登記記録の閉鎖等,0,2024-08-06,2024-08-01,株式会社三共ヒューテック,,株式会社,広島県,福山市,松浜町４丁目２番２２号,,34,207,7200802,,,2024-08-01,合併による解散等,5240001030827,令和６年８月１日広島県福山市松浜町四丁目２番２２号株式会社三共冷熱（5240001030827）に合併し解散,2015-10-05,1,,,,,サンキョウヒューテック,0
1220,5021003008494,登記記録の閉鎖等,0,2024-08-06,2024-08-05,合同会社アジア情報通信技研,,合同会社,神奈川県,逗子市,久木１丁目７番２１号,,14,208,2490001,,,2024-08-05,清算の結了等,,,2019-07-03,1,,,,,アジアジョウホウツウシンギケン,0
1222,5030001033000,登記記録の閉鎖等,0,2024-08-06,2024-07-31,株式会社三正技工,,株式会社,埼玉県,加須市,道地１３０２番地４,,11,210,3470121,,,2024-07-31,清算の結了等,,,2015-10-05,1,,,,,サンショウギコウ,0
1249,5070001018237,登記記録の閉鎖等,0,2024-08-06,2024-08-02,株式会社小林自動車整備,,株式会社,群馬県,渋川市,北橘町真壁２３７番地の３,,10,208,3770062,,,2024-08-02,清算の結了等,,,2015-10-05,1,,,,,コバヤシジドウシャセイビ,0
1256,5080001017717,登記記録の閉鎖等,0,2024-08-06,2024-07-25,エイト株式会社,,株式会社,静岡県,静岡市葵区,瀬名２丁目２１番２１号,,22,101,4200911,,,2024-07-25,清算の結了等,,,2015-10-05,1,,,,,エイト,0
1292,5120002060711,登記記録の閉鎖等,0,2024-08-06,2024-08-02,有限会社武田工作所,,有限会社,大阪府,大阪市西淀川区,佃６丁目３番１２号,,27,113,5550001,,,2024-08-02,清算の結了等,,,2015-10-05,1,,,,,タケダコウサクショ,0
1339,5180301018867,登記記録の閉鎖等,0,2024-08-06,2024-07-30,豊田鶏卵株式会社,,株式会社,愛知県,豊田市,若林東町高根下４７番地,,23,211,4730914,,,2024-07-30,清算の結了等,,,2015-10-05,1,,,,,トヨタケイラン,0
1343,5190005006969,登記記録の閉鎖等,0,2024-08-06,2024-07-05,天理教下御糸分教会,,その他の設立登記法人,三重県,松阪市,西黒部町７９０番地,,24,204,5150103,,,2024-07-05,合併による解散等,2190005006880,令和６年７月５日三重県松阪市佐久米町５８９番地天理教朝誠分教会（2190005006880）に合併し解散,2015-10-05,1,,,,,テンリキョウシモミイトブンキョウカイ,0
1358,5290001085858,登記記録の閉鎖等,0,2024-08-06,2024-07-01,株式会社ティーワン・クローバー,,株式会社,福岡県,福岡市博多区,豊２丁目２番２８号,,40,132,8120042,,,2024-07-01,合併による解散等,7290001032965,令和６年７月１日福岡市博多区豊二丁目２番２８号ティーワン株式会社（7290001032965）に合併し解散,2019-07-11,1,,,,,ティーワンクローバー,0
1372,5340005003942,登記記録の閉鎖等,0,2024-08-06,2024-07-25,農事組合法人栗野農場,,その他の設立登記法人,鹿児島県,薩摩郡さつま町,神子４９９０番地,,46,392,8952102,,,2024-07-25,清算の結了等,,,2015-10-05,1,,,,,クリノノウジョウ,0
1386,5370002012233,登記記録の閉鎖等,0,2024-08-06,2024-07-18,有限会社チバ・クリエイティブ・ロウ,,有限会社,宮城県,仙台市青葉区,川平３丁目１２番１号,,04,101,9810954,,,2024-07-18,清算の結了等,,,2015-10-05,1,,,,,チバクリエイティブロウ,0
1387,5370005010267,登記記録の閉鎖等,0,2024-08-06,2024-07-02,一般社団法人Ａｎｄ　Ｙｏｕ　Ｊｆｆ　Ｖｏｓｃｕｏｒｅ,,その他の設立登記法人,宮城県,仙台市太白区,柳生４丁目４番地の１２Ｙ４ビル３階,,04,104,9811106,,,2024-07-02,清算の結了等,,,2021-04-12,1,,,,,アンドユージッフヴォスクオーレ,0
1445,6010102000569,登記記録の閉鎖等,0,2024-08-06,2024-08-05,有限会社池上水産,,有限会社,東京都,八王子市,北野町５８８番地１,,13,201,1920906,,,2024-08-05,清算の結了等,,,2015-10-05,1,,,,,,0
1454,6010403021272,登記記録の閉鎖等,0,2024-08-06,2024-07-26,合同会社ＩＳ鳥栖開発２号,,合同会社,東京都,千代田区,霞が関３丁目２番５号,,13,101,1000013,,,2024-07-26,清算の結了等,,,2019-08-15,1,,,,,アイエストスカイハツニゴウ,0
1455,6010403024201,登記記録の閉鎖等,0,2024-08-06,2024-07-12,多摩センター合同会社,,合同会社,東京都,港区,元赤坂１丁目１番８号赤坂コミュニティビル４階,,13,103,1070051,,,2024-07-12,清算の結了等,,,2020-11-26,1,,,,,タマセンター,0
1476,6011101064885,登記記録の閉鎖等,0,2024-08-06,2024-07-23,株式会社Ｖｏｙａｇｅ,,株式会社,東京都,板橋区,高島平２丁目３３番１－９１３,,13,119,1750082,,,2024-07-23,清算の結了等,,,2015-10-05,1,,,,,ボヤージュ,0
1492,6012801004379,登記記録の閉鎖等,0,2024-08-06,2024-07-22,株式会社東京エコハウス,,株式会社,東京都,立川市,幸町５丁目７６番地の３２,,13,202,1900002,,,2024-07-22,清算の結了等,,,2015-10-05,1,,,,,トウキョウエコハウス,0
1506,6020002029583,登記記録の閉鎖等,0,2024-08-06,2024-07-12,有限会社河村文夫美容室,,有限会社,神奈川県,横浜市南区,弘明寺町字前田１４４番地の１,,14,105,2320067,,,2024-07-12,清算の結了等,,,2015-10-05,1,,,,,,0
1508,6020002062700,登記記録の閉鎖等,0,2024-08-06,2024-07-16,有限会社梓電気,,有限会社,神奈川県,横浜市鶴見区,梶山１丁目２１－１７番地,,14,101,2300072,,,2024-07-16,清算の結了等,,,2015-10-05,1,,,,,アズサデンキ,0
1509,6020002097028,登記記録の閉鎖等,0,2024-08-06,2024-07-17,有限会社栄家,,有限会社,神奈川県,川崎市川崎区,出来野１２番１５号,,14,131,2100825,,,2024-07-17,清算の結了等,,,2015-10-05,1,,,,,サカエヤ,0
1516,6021002039432,登記記録の閉鎖等,0,2024-08-06,2024-08-02,有限会社八千代,,有限会社,神奈川県,秦野市,平沢３８２番地５,,14,211,2570015,,,2024-08-02,清算の結了等,,,2015-10-05,1,,,,,ヤチヨ,0
1518,6030001053229,登記記録の閉鎖等,0,2024-08-06,2024-07-31,株式会社木づくり住建,,株式会社,埼玉県,春日部市,粕壁東６丁目１９番５０号,,11,214,3440062,,,2024-07-31,清算の結了等,,,2015-10-05,1,,,,,キヅクリジュウケン,0
1534,6050002009054,登記記録の閉鎖等,0,2024-08-06,2024-07-30,有限会社箭内建設,00022665,有限会社,茨城県,ひたちなか市,勝田本町９番７号,,08,221,3120026,,,2024-07-30,清算の結了等,,,2015-10-05,1,,,,,ヤナイケンセツ,0
1563,6110001005675,登記記録の閉鎖等,0,2024-08-06,2024-07-30,株式会社山本時計店,,株式会社,新潟県,新潟市中央区,本町通１３番町３１３９番地２,,15,103,9518067,,,2024-07-30,清算の結了等,,,2015-10-05,1,,,,,ヤマモトトケイテン,0
1567,6110005008105,登記記録の閉鎖等,0,2024-08-06,2024-07-30,医療法人社団永井歯科医院,,その他の設立登記法人,新潟県,上越市,南本町２丁目６番３４号,,15,222,9430841,,,2024-07-30,清算の結了等,,,2015-10-05,1,,,,,ナガイシカイイン,0
1597,6130001007975,登記記録の閉鎖等,0,2024-08-06,2024-08-02,小倉工業株式会社,,株式会社,京都府,京都市西京区,桂艮町２５番地の９,,26,111,6158083,,,2024-08-02,清算の結了等,,,2015-10-05,1,,,,,オグラコウギョウ,0
1608,6140001038061,登記記録の閉鎖等,0,2024-08-06,2024-07-12,橘画廊株式会社,,株式会社,東京都,港区,芝浦３丁目５番２５号１１５,,13,103,1080023,,,2024-07-12,清算の結了等,,,2015-10-05,1,,,,,タチバナガロウ,0
1649,6240001043547,登記記録の閉鎖等,0,2024-08-06,2024-08-01,株式会社ビクトリーエース,,株式会社,広島県,三次市,南畑敷町６１５番地１,,34,209,7280017,,,2024-08-01,合併による解散等,4240002028152,令和６年８月１日広島県東広島市八本松西一丁目３番４号株式会社伯和ビクトリー（4240002028152）に合併し解散,2015-10-05,1,,,,,ビクトリーエース,0
1664,6290001046966,登記記録の閉鎖等,0,2024-08-06,2024-07-02,株式会社ＡＳＫ総研,,株式会社,福岡県,福岡市中央区,大宮２丁目５番１９号,,40,133,8100013,,,2024-07-02,清算の結了等,,,2015-10-05,1,,,,,,0
1688,6380001004246,登記記録の閉鎖等,0,2024-08-06,2024-08-01,日東物流株式会社,,株式会社,福島県,福島市,泉字道下１５番地,,07,201,9608253,,,2024-08-01,合併による解散等,5380002002811,令和６年８月１日福島市泉字道下１５番地日東シフト株式会社（5380002002811）に合併し解散,2015-10-05,1,,,,,ニットウブツリュウ,0
1692,6390002013484,登記記録の閉鎖等,0,2024-08-06,2024-07-11,大和木材有限会社,,有限会社,山形県,米沢市,窪田町窪田１２２６番地,,06,202,9920003,,,2024-07-11,清算の結了等,,,2024-01-24,1,,,,,ヤマトモクザイ,0
1693,6390002014128,登記記録の閉鎖等,0,2024-08-06,2024-07-22,有限会社佐藤牧場,,有限会社,山形県,米沢市,六郷町西藤泉３７３番地の２３,,06,202,9920093,,,2024-07-22,清算の結了等,,,2015-10-05,1,,,,,,0
1695,6410002008374,登記記録の閉鎖等,0,2024-08-06,2024-07-29,有限会社大森商店,,有限会社,秋田県,大館市,花岡町字堂屋敷９１番地の５,,05,204,0170005,,,2024-07-29,清算の結了等,,,2015-10-05,1,,,,,,0
1698,6430001051316,登記記録の閉鎖等,0,2024-08-06,2024-07-29,株式会社北海道商工銀行,,株式会社,北海道,小樽市,稲穂町東七丁目４番地,,01,203,0470000,,,2024-07-29,清算の結了等,,,2018-04-04,1,,,,,ホツカイドウシヨウコウギンコウ,0
1711,6460101006992,登記記録の閉鎖等,0,2024-08-06,2024-07-31,剣山麓牧場株式会社,,株式会社,北海道,上川郡清水町,字御影４９９番地８,,01,636,0890357,,,2024-07-31,合併による解散等,4460102005839,令和６年７月３１日北海道上川郡清水町字御影４９９番地８株式会社十勝スロウフード（4460102005839）に合併し解散,2021-05-28,1,,,,,ツルギサンロクボクジョウ,0
1726,7010002042438,登記記録の閉鎖等,0,2024-08-06,2024-08-02,日出ホールディングス株式会社,,株式会社,愛知県,名古屋市北区,成願寺１丁目６番,,23,103,4620021,,,2024-08-02,清算の結了等,,,2015-10-05,1,,,,,ヒジホールディングス,0
1727,7010003027264,登記記録の閉鎖等,0,2024-08-06,2024-07-12,エイチ・シー・スタルクＦａｂｒｉｃａｔｅｄ　Ｐｒｏｄｕｃｔｓ合同会社,,合同会社,東京都,港区,海岸１丁目２番２０号,,13,103,1050022,,,2024-07-12,清算の結了等,,,2018-04-06,1,,,,,エイチシースタルクファブリケイテッドプロダクツ,0
1728,7010003032917,登記記録の閉鎖等,0,2024-08-06,2024-07-23,ジー・ティー・エム・エル・ホールディング合同会社,,合同会社,東京都,千代田区,丸の内３丁目１番１号東京共同会計事務所内,,13,101,1000005,,,2024-07-23,清算の結了等,,,2020-08-26,1,,,,,ジーティーエムエルホールディング,0
1729,7010003033634,登記記録の閉鎖等,0,2024-08-06,2024-07-23,ＫＩＣ厚木下依知合同会社,,合同会社,東京都,千代田区,神田錦町３丁目１９番,,13,101,1010054,,,2024-07-23,清算の結了等,,,2020-11-30,1,,,,,ケイアイシーアツギシモイチ,0
1730,7010003035110,登記記録の閉鎖等,0,2024-08-06,2024-07-22,ＧＲＡＣＩＡ合同会社,,合同会社,東京都,千代田区,九段南１丁目５番６号りそな九段ビル５階ＫＳフロア,,13,101,1020074,,,2024-07-22,清算の結了等,,,2021-06-21,1,,,,,グラシア,0
1761,7010903006722,登記記録の閉鎖等,0,2024-08-06,2024-07-31,合同会社メディパワメント,,合同会社,東京都,世田谷区,奥沢１丁目１１番１０号,,13,112,1580083,,,2024-07-31,清算の結了等,,,2021-08-12,1,,,,,メディパワメント,0
1768,7011101089931,登記記録の閉鎖等,0,2024-08-06,2024-07-22,株式会社エイムスネット,,株式会社,東京都,新宿区,西新宿７丁目１番地１２号クロスオフィス新宿,,13,104,1600023,,,2024-07-22,清算の結了等,,,2019-12-20,1,,,,,エイムスネット,0
1780,7011502005636,登記記録の閉鎖等,0,2024-08-06,2024-07-31,有限会社マリーバレエスタジオ,,有限会社,東京都,北区,中里１丁目６番５号中央ビル３階,,13,117,1140015,,,2024-07-31,清算の結了等,,,2015-10-05,1,,,,,マリーバレエスタジオ,0
1789,7012401040492,登記記録の閉鎖等,0,2024-08-06,2024-08-05,株式会社Ｂｉ‐Ｓｃｅｎｔ,,株式会社,東京都,府中市,緑町１丁目２番地の１ＭＫＮＥＸＵＳ１０２号室,,13,206,1830006,,,2024-08-05,清算の結了等,,,2023-05-08,1,,,,,ビセント,0
1802,7020002031877,登記記録の閉鎖等,0,2024-08-06,2024-07-17,有限会社安田商店,,有限会社,神奈川県,横浜市南区,睦町２丁目１８１番地１号,,14,105,2320041,,,2024-07-17,清算の結了等,,,2015-10-05,1,,,,,ヤスダショウテン,0
1804,7020002069372,登記記録の閉鎖等,0,2024-08-06,2024-07-12,有限会社足立電気,,有限会社,神奈川県,横浜市港南区,港南２丁目１２－２,,14,111,2330003,,,2024-07-12,清算の結了等,,,2015-10-05,1,,,,,アダチデンキ,0
1812,7030001063284,登記記録の閉鎖等,0,2024-08-06,2024-07-31,株式会社ｅアシスト,,株式会社,埼玉県,三郷市,早稲田３丁目２５番地２,,11,237,3410018,,,2024-07-31,清算の結了等,,,2015-10-05,1,,,,,イーアシスト,0
1817,7030002003074,登記記録の閉鎖等,0,2024-08-06,2024-07-26,有限会社大富青果,,有限会社,埼玉県,さいたま市見沼区,堀崎町４６４番地の３,,11,104,3370052,,,2024-07-26,清算の結了等,,,2015-10-05,1,,,,,ダイトミセイカ,0
1828,7040002098964,登記記録の閉鎖等,0,2024-08-06,2024-07-22,有限会社吉憲,,有限会社,千葉県,野田市,宮崎２７３番地の１,,12,208,2780005,,,2024-07-22,清算の結了等,,,2015-10-05,1,,,,,ヨシケン,0
1833,7050005011774,登記記録の閉鎖等,0,2024-08-06,2024-08-02,一般社団法人茨城工業高等専門学校地域協働サポートセンター,,その他の設立登記法人,茨城県,ひたちなか市,大字中根８６６,,08,221,3120011,,,2024-08-02,清算の結了等,,,2015-12-03,1,,,,,イバラキコウギョウコウトウセンモンガッコウチイキキョウドウサポートセンター,0
1843,7080101015172,登記記録の閉鎖等,0,2024-08-06,2024-08-02,株式会社エムイーマネージメント,,株式会社,静岡県,三島市,広小路町１０番１号小田切ビル４０１,,22,206,4110856,,,2024-08-02,清算の結了等,,,2015-10-05,1,,,,,エムイーマネージメント,0
1867,7120001187751,登記記録の閉鎖等,0,2024-08-06,2024-07-29,ＯＣＥＡＮ－ＴＥＣ株式会社,,株式会社,大阪府,大阪市淀川区,西中島７丁目１２番５号,,27,123,5320011,,,2024-07-29,清算の結了等,,,2015-10-05,1,,,,,オーシャンテック,0
1871,7120001225569,登記記録の閉鎖等,0,2024-08-06,2024-08-01,ニシキ株式会社,,株式会社,福岡県,福岡市博多区,綱場町８番２３号,,40,132,8120024,,,2024-08-01,合併による解散等,9120001077174,令和６年６月３０日大阪市中央区谷町二丁目６番４号川本産業株式会社（9120001077174）に合併し解散,2019-12-05,1,,,,,,0
1883,7120902010152,登記記録の閉鎖等,0,2024-08-06,2024-07-31,有限会社ケアサポートしあわせ,,有限会社,大阪府,高槻市,西冠３丁目３９番１号,,27,207,5690055,,,2024-07-31,清算の結了等,,,2015-10-05,1,,,,,ケアサポートシアワセ,0
1888,7130001057879,登記記録の閉鎖等,0,2024-08-06,2024-08-01,株式会社リバーサイド,,株式会社,京都府,京田辺市,花住坂１丁目８番地６,,26,211,6100352,,,2024-08-01,清算の結了等,,,2016-07-13,1,,,,,リバーサイド,0
1900,7140005010148,登記記録の閉鎖等,0,2024-08-06,2024-07-29,特定非営利活動法人ＯｎｅＨｅａｒｔ,,その他の設立登記法人,兵庫県,加古川市,平岡町二俣２２３番地の１,,28,210,6750111,,,2024-07-29,清算の結了等,,,2015-10-05,1,,,,,ワンハート,0
1901,7140005025880,登記記録の閉鎖等,0,2024-08-06,2024-08-02,一般社団法人税務研究会,,その他の設立登記法人,兵庫県,尼崎市,御園町２４番地尼崎第一ビル４０２号,,28,202,6600861,,,2024-08-02,清算の結了等,,,2021-11-05,1,,,,,ゼイムケンキュウカイ,0
1904,7180001010338,登記記録の閉鎖等,0,2024-08-06,2024-07-22,株式会社志水屋,,株式会社,愛知県,名古屋市瑞穂区,亀城町２丁目１１番地,,23,108,4670876,,,2024-07-22,清算の結了等,,,2015-10-05,1,,,,,シミズヤ,0
1917,7180303005028,登記記録の閉鎖等,0,2024-08-06,2024-07-30,合同会社Ｌｉｇｈｔｓ　Ｗａｇａｍａｍａ,,合同会社,愛知県,岡崎市,桑原町字香山７番地３,,23,202,4442141,,,2024-07-30,清算の結了等,,,2021-06-17,1,,,,,ライツワガママ,0
1919,7200003003238,登記記録の閉鎖等,0,2024-08-06,2024-07-24,合名会社斉藤商會,00081143,合名会社,岐阜県,多治見市,池田町池田町屋,,21,204,5070000,,,2024-07-24,清算の結了等,,,2015-10-05,1,,,,,サイトウショウカイ,0
1921,7200005013441,登記記録の閉鎖等,0,2024-08-06,2024-07-31,一般社団法人ＤＡ‐Ｎ‐ＲＯ,,その他の設立登記法人,岐阜県,大垣市,旭町３丁目１０番地旭ビル１Ｃ,,21,202,5030824,,,2024-07-31,清算の結了等,,,2023-02-01,1,,,,,ダンロ,0
1923,7210002012503,登記記録の閉鎖等,0,2024-08-06,2024-08-01,有限会社ライトハート,,有限会社,福井県,越前市,塚原町第２５号１２番地５,,18,209,9150875,,,2024-08-01,清算の結了等,,,2015-10-05,1,,,,,ライトハート,0
1967,7340005007727,登記記録の閉鎖等,0,2024-08-06,2024-07-31,特定非営利活動法人心のサポート・親学,,その他の設立登記法人,鹿児島県,鹿児島市,伊敷台６丁目２９番６号,,46,201,8900007,,,2024-07-31,清算の結了等,,,2015-10-05,1,,,,,ココロノサポートオヤガク,0
1970,7350002005311,登記記録の閉鎖等,0,2024-08-06,2024-07-31,有限会社レディス・薫,,有限会社,宮崎県,宮崎市,大塚町馬場崎３５９２番地の１,,45,201,8800951,,,2024-07-31,清算の結了等,,,2015-10-05,1,,,,,レディスカオル,0
1984,7370302000605,登記記録の閉鎖等,0,2024-08-06,2024-07-17,勝又総業有限会社,,有限会社,宮城県,石巻市,不動町２丁目１３番１９号,,04,202,9860017,,,2024-07-17,清算の結了等,,,2015-10-05,1,,,,,カツマタソウギョウ,0
2019,8010001189023,登記記録の閉鎖等,0,2024-08-06,2024-07-24,ＫＴトレーディング株式会社,,株式会社,東京都,千代田区,二番町９番３号,,13,101,1020084,,,2024-07-24,清算の結了等,,,2018-01-18,1,,,,,ケーティートレーディング,0
2034,8010401135948,登記記録の閉鎖等,0,2024-08-06,2024-07-12,ビーグレンオーバーシーズ株式会社,,株式会社,東京都,港区,東新橋２丁目１４番１号５Ｆ,,13,103,1050021,,,2024-07-12,清算の結了等,,,2018-01-11,1,,,,,ビーグレンオーバーシーズ,0
2046,8010703006302,登記記録の閉鎖等,0,2024-08-06,2024-07-29,合同会社ＮＡＭＡＣＯ,,合同会社,東京都,品川区,大井５丁目１９番５号,,13,109,1400014,,,2024-07-29,清算の結了等,,,2022-07-07,1,,,,,ナマコ,0
2047,8010705003223,登記記録の閉鎖等,0,2024-08-06,2024-07-29,ＺＥＲＯ協同組合,,その他の設立登記法人,東京都,品川区,東五反田１丁目１１番７号三ツ星ビル１号館３階Ａ室,,13,109,1410022,,,2024-07-29,清算の結了等,,,2021-05-18,1,,,,,ゼロ,0
2054,8011001098585,登記記録の閉鎖等,0,2024-08-06,2024-07-03,株式会社インテージクオリス,,株式会社,東京都,千代田区,神田須田町２丁目７番地２,,13,101,1010041,,,2024-07-03,合併による解散等,3010001152563,令和６年７月１日東京都千代田区神田練塀町３番地インテージ秋葉原ビル株式会社インテージ（3010001152563）に合併して解散,2015-10-05,1,,,,,インテージクオリス,0
2072,8011502010288,登記記録の閉鎖等,0,2024-08-06,2024-08-01,有限会社西川鉛筆,,有限会社,東京都,荒川区,町屋５丁目１８番３０号,,13,118,1160001,,,2024-08-01,清算の結了等,,,2015-10-05,1,,,,,ニシカワエンピツ,0
2082,8020001013859,登記記録の閉鎖等,0,2024-08-06,2024-07-16,株式会社ミヤマ,,株式会社,神奈川県,横浜市南区,中里１丁目１６番２４号,,14,105,2320063,,,2024-07-16,清算の結了等,,,2015-10-05,1,,,,,ミヤマ,0
2091,8020002025705,登記記録の閉鎖等,0,2024-08-06,2024-07-16,エス、山本繊維加工有限会社,,有限会社,神奈川県,横浜市神奈川区,三ツ沢上町２番２３号,,14,102,2210856,,,2024-07-16,清算の結了等,,,2015-10-05,1,,,,,エスヤマモトセンイカコウ,0
2096,8021002036072,登記記録の閉鎖等,0,2024-08-06,2024-08-02,有限会社ネオテック・サービス,,有限会社,神奈川県,厚木市,下川入３０９番地３,,14,212,2430206,,,2024-08-02,清算の結了等,,,2015-10-05,1,,,,,ネオテックサービス,0
2102,8030001060470,登記記録の閉鎖等,0,2024-08-06,2024-07-31,入建工業株式会社,,株式会社,埼玉県,児玉郡上里町,大字五明７６８番地,,11,385,3690317,,,2024-07-31,合併による解散等,9030001123747,令和６年７月３１日埼玉県児玉郡上里町大字五明７６８番地株式会社ファームいり（9030001123747）に合併し解散,2015-10-05,1,,,,,イリケンコウギョウ,0
2120,8040003004185,登記記録の閉鎖等,0,2024-08-06,2024-07-18,合同会社Ｃｉｅｌ　Ｂｌｅｕｅ,,合同会社,千葉県,流山市,西初石３丁目１４４８－３１,,12,220,2700121,,,2024-07-18,清算の結了等,,,2015-10-05,1,,,,,シエルブルー,0
2158,8120001126832,登記記録の閉鎖等,0,2024-08-06,2024-08-01,株式会社アルク,,株式会社,大阪府,大阪市北区,梅田１丁目３番１－２００号大阪駅前第１ビル２階１４号,,27,127,5300001,,,2024-08-01,合併による解散等,3120001126341,令和６年７月３１日大阪市浪速区難波中三丁目８番２２号新川清水ビル３０２号株式会社ハローハッピー（3120001126341）に合併し解散,2015-10-05,1,,,,,アルク,0
2159,8120001245905,登記記録の閉鎖等,0,2024-08-06,2024-08-01,文江株式会社,,株式会社,東京都,荒川区,南千住１丁目４５番８号カーサケイワイＮｏ．２,,13,118,1160003,,,2024-08-01,清算の結了等,,,2022-05-17,1,,,,,フミエ,0
2170,8120101042244,登記記録の閉鎖等,0,2024-08-06,2024-08-01,釜野直毛織株式会社,,株式会社,大阪府,泉大津市,東雲町５番１６号,,27,206,5950026,,,2024-08-01,清算の結了等,,,2015-10-05,1,,,,,,0
2173,8120902022221,登記記録の閉鎖等,0,2024-08-06,2024-04-01,有限会社五月商会,,有限会社,大阪府,吹田市,朝日が丘町３４番１号,,27,205,5640083,,,2024-04-01,清算の結了等,,,2015-10-05,1,,,,,サツキショウカイ,0
2196,8170001003853,登記記録の閉鎖等,0,2024-08-06,2024-07-31,和歌山プラネット株式会社,,株式会社,和歌山県,和歌山市,吹上２丁目１番２２号,,30,201,6408137,,,2024-07-31,清算の結了等,,,2015-10-05,1,,,,,ワカヤマプラネット,0
2197,8180001075438,登記記録の閉鎖等,0,2024-08-06,2024-07-29,フジモリプラケミカル株式会社,,株式会社,愛知県,春日井市,長塚町２丁目１０番地,,23,206,4860934,,,2024-07-29,合併による解散等,6011101056965,令和６年７月１日東京都文京区小石川一丁目１番１号藤森工業株式会社（6011101056965）に合併し解散,2015-10-05,1,,,,,フジモリプラケミカル,0
2207,8190001000857,登記記録の閉鎖等,0,2024-08-06,2024-08-02,波多野建設株式会社,,株式会社,三重県,津市,本町２８番１１号,,24,201,5140831,,,2024-08-02,清算の結了等,,,2015-10-05,1,,,,,ハタノケンセツ,0
2219,8240005015417,登記記録の閉鎖等,0,2024-08-06,2024-08-01,一般社団法人ハワイ平和スカラシップ,,その他の設立登記法人,広島県,広島市中区,東千田町１丁目１番１８号,,34,101,7300053,,,2024-08-01,清算の結了等,,,2022-07-08,1,,,,,ハワイヘイワスカラシップ,0
2229,8280001006928,登記記録の閉鎖等,0,2024-08-06,2024-08-05,ピクニコＰ＆Ｃ株式会社,,株式会社,鳥取県,米子市,東倉吉町４１番地,,31,202,6830815,,,2024-08-05,清算の結了等,,,2015-10-05,1,,,,,ピクニコピーアンドシー,0
2278,8500005001448,登記記録の閉鎖等,0,2024-08-06,2024-07-31,一般財団法人愛媛県母子寡婦福祉連合会,,その他の設立登記法人,愛媛県,松山市,本町７丁目２番地,,38,201,7900811,,,2024-07-31,清算の結了等,,,2015-10-05,1,,,,,エヒメケンボシカフフクシレンゴウカイ,0
2295,9010403024999,登記記録の閉鎖等,0,2024-08-06,2024-07-12,合同会社ＳＡ京都マンションＰＪ,,合同会社,東京都,港区,虎ノ門５丁目１番４号,,13,103,1050001,,,2024-07-12,清算の結了等,,,2021-03-31,1,,,,,エスエーキョウトマンションピージェイ,0
2302,9010601012938,登記記録の閉鎖等,0,2024-08-06,2024-08-01,株式会社田中ゴム製作所,,株式会社,東京都,墨田区,東向島６丁目６２番３号,,13,107,1310032,,,2024-08-01,清算の結了等,,,2015-10-05,1,,,,,タナカゴムセイサクジョ,0
2312,9011003007725,登記記録の閉鎖等,0,2024-08-06,2024-07-17,合同会社エビス・インターナショナル・サービス,,合同会社,東京都,渋谷区,恵比寿西２丁目８番１３号平野ビル５０４号,,13,113,1500021,,,2024-07-17,清算の結了等,,,2017-06-02,1,,,,,エビスインターナショナルサービス,0
2326,9011503002093,登記記録の閉鎖等,0,2024-08-06,2024-07-01,合同会社オフィス岩崎,00018301,合同会社,群馬県,みどり市,大間々町塩原７３０番地,,10,212,3760115,,,2024-07-01,合併による解散等,7011503002129,令和６年７月１日群馬県伊勢崎市太田町７４４番地２７合同会社エス＆イー（7011503002129）に合併し解散,2015-10-05,1,,,,,オフィスイワサキ,0
2327,9011701025342,登記記録の閉鎖等,0,2024-08-06,2024-08-01,株式会社アドウィンク,,株式会社,東京都,江戸川区,清新町１丁目４番１－６０４号,,13,123,1340087,,,2024-08-01,清算の結了等,,,2022-05-31,1,,,,,アドウィンク,0
2331,9012305001416,登記記録の閉鎖等,0,2024-08-06,2024-07-30,特定非営利活動法人みなみファーム,,その他の設立登記法人,東京都,町田市,南大谷５０番地６,,13,209,1940031,,,2024-07-30,清算の結了等,,,2015-10-05,1,,,,,ミナミファーム,0
2333,9012401017761,登記記録の閉鎖等,0,2024-08-06,2024-08-02,株式会社オフィス大氣,,株式会社,東京都,狛江市,和泉本町１丁目３６番１号,,13,219,2010003,,,2024-08-02,清算の結了等,,,2015-10-05,1,,,,,オフィスタイキ,0
2354,9021001062754,登記記録の閉鎖等,0,2024-08-06,2024-07-16,エイプリル株式会社,,株式会社,東京都,港区,南青山４丁目８番２１号,,13,103,1070062,,,2024-07-16,清算の結了等,,,2017-08-08,1,,,,,エイプリル,0
2357,9021005012318,登記記録の閉鎖等,0,2024-08-06,2024-08-02,一般社団法人よこすかスポーツ・Ｍ学舎ＢＡＯ,,その他の設立登記法人,神奈川県,横須賀市,岩戸３丁目１番１６号,,14,201,2390844,,,2024-08-02,清算の結了等,,,2021-10-12,1,,,,,ヨコスカスポーツエムガクシャバオ,0
2364,9030002115826,登記記録の閉鎖等,0,2024-08-06,2024-07-31,有限会社新日電機,,有限会社,埼玉県,大里郡寄居町,大字秋山１２８番地,,11,408,3691233,,,2024-07-31,清算の結了等,,,2015-10-05,1,,,,,シンニチデンキ,0
2374,9040002088807,登記記録の閉鎖等,0,2024-08-06,2024-07-22,有限会社五十嵐建設,,有限会社,千葉県,柏市,増尾１６８９番地の２,,12,217,2770033,,,2024-07-22,清算の結了等,,,2015-10-05,1,,,,,イガラシケンセツ,0
2380,9050002037770,登記記録の閉鎖等,0,2024-08-06,2024-07-30,有限会社高橋製作所,,有限会社,茨城県,牛久市,神谷２丁目２３番地１８,,08,219,3001216,,,2024-07-30,清算の結了等,,,2015-10-05,1,,,,,タカハシセイサクショ,0
2384,9060002003598,登記記録の閉鎖等,0,2024-08-06,2024-07-24,有限会社小林商事,,有限会社,栃木県,宇都宮市,駒生町２２８２番地１９,,09,201,3200065,,,2024-07-24,清算の結了等,,,2015-10-05,1,,,,,コバヤシショウジ,0
2390,9080101011723,登記記録の閉鎖等,0,2024-08-06,2024-08-02,株式会社富士宮歯研,,株式会社,静岡県,富士宮市,宝町１１番２８号,,22,207,4180055,,,2024-08-02,清算の結了等,,,2015-10-05,1,,,,,フジノミヤシケン,0
2402,9100001024863,登記記録の閉鎖等,0,2024-08-06,2024-07-29,株式会社平河町地所,,株式会社,埼玉県,加須市,花崎北１丁目１７番１号サンライト花崎Ａ棟２０１号,,11,210,3470016,,,2024-07-29,清算の結了等,,,2015-10-05,1,,,,,ヒラカワチョウジショ,0
2405,9100002008923,登記記録の閉鎖等,0,2024-08-06,2024-07-18,有限会社黒岩燃料店,,有限会社,長野県,上高井郡高山村,大字高井４３５９番地５,,20,543,3820800,,,2024-07-18,清算の結了等,,,2015-10-05,1,,,,,クロイワネンリョウテン,0
2412,9120001158742,登記記録の閉鎖等,0,2024-08-06,2024-08-01,大栄電興株式会社,,株式会社,大阪府,門真市,殿島町２０番４号,,27,223,5710045,,,2024-08-01,合併による解散等,8120001045256,令和６年８月１日大阪市西区新町四丁目１７番２７号株式会社タツタ（8120001045256）に合併し解散,2015-10-05,1,,,,,ダイエイデンコウ,0
2416,9120001258501,登記記録の閉鎖等,0,2024-08-06,2024-08-01,株式会社トキナリ,,株式会社,大阪府,大阪市中央区,安堂寺町１丁目４番１４－４０６号,,27,128,5420061,,,2024-08-01,清算の結了等,,,2023-10-04,1,,,,,トキナリ,0
2429,9120102015405,登記記録の閉鎖等,0,2024-08-06,2024-07-31,有限会社レイ・テック,,有限会社,大阪府,大阪狭山市,東茱萸木１丁目１７５７番地の９１,00046951,27,231,5890012,,,2024-07-31,清算の結了等,,,2015-10-05,1,,,,,レイテック,0
2431,9120901046773,登記記録の閉鎖等,0,2024-08-06,2024-07-30,株式会社タントトレーディング,,株式会社,大阪府,豊中市,利倉西２丁目６番３２号,,27,203,5610844,,,2024-07-30,清算の結了等,,,2022-11-21,1,,,,,タントトレーディング,0
2433,9122001035698,登記記録の閉鎖等,0,2024-08-06,2024-08-05,株式会社ｓｕｒｐｒｉｓｅ,,株式会社,大阪府,八尾市,北本町２丁目１４番２７－５０１号,,27,212,5810802,,,2024-08-05,清算の結了等,,,2022-03-23,1,,,,,シュルプリーズ,0
2446,9140001105684,登記記録の閉鎖等,0,2024-08-06,2024-08-01,株式会社リフレ,,株式会社,兵庫県,尼崎市,潮江１丁目２番１－１５０４号,,28,202,6610976,,,2024-08-01,清算の結了等,,,2017-04-12,1,,,,,リフレ,0
2450,9150001020593,登記記録の閉鎖等,0,2024-08-06,2024-07-01,株式会社プリズム,,株式会社,大阪府,富田林市,若松町１丁目１０番７号プレナス富田林５０３,,27,214,5840024,,,2024-07-01,合併による解散等,3120101058922,令和６年７月１日大阪府富田林市若松町一丁目１０番７号プレナス富田林５０３株式会社シンガ（3120101058922）に合併し解散,2016-03-16,1,,,,,プリズム,0
2451,9150001022474,登記記録の閉鎖等,0,2024-08-06,2024-08-02,プラムプランニング株式会社,,株式会社,奈良県,葛城市,東室２７番地,,29,211,6392102,,,2024-08-02,清算の結了等,,,2018-08-27,1,,,,,プラムプランニング,0
2461,9180001155610,登記記録の閉鎖等,0,2024-08-06,2024-07-23,豊和株式会社,,株式会社,愛知県,名古屋市千種区,井上町３８星ヶ丘第一ビル６Ｂ,,23,101,4640026,,,2024-07-23,清算の結了等,,,2023-04-06,1,,,,,ホウワ,0
2466,9180002071625,登記記録の閉鎖等,0,2024-08-06,2024-07-23,有限会社川合製陶所,,有限会社,愛知県,瀬戸市,品野町５丁目３１４番地,,23,204,4801207,,,2024-07-23,清算の結了等,,,2015-10-05,1,,,,,カワイセイトウジョ,0
2471,9180301021132,登記記録の閉鎖等,0,2024-08-06,2024-07-30,ティーエスシステム株式会社,,株式会社,愛知県,みよし市,三好丘あおば２丁目６番地３８,,23,236,4700233,,,2024-07-30,清算の結了等,,,2015-10-05,1,,,,,ティーエスシステム,0
2474,9190001001714,登記記録の閉鎖等,0,2024-08-06,2024-08-01,シヴィル建設株式会社,,株式会社,三重県,津市,大里睦合町２５２０番地,,24,201,5140126,,,2024-08-01,合併による解散等,4190002000694,令和６年８月１日三重県津市大里睦合町２５２２番地株式会社ジーエム（4190002000694）に合併し解散,2015-10-05,1,,,,,シヴィルケンセツ,0
2479,9230001011849,登記記録の閉鎖等,0,2024-08-06,2024-08-01,株式会社エフ・ティ,,株式会社,富山県,高岡市,二塚７５４番地１,,16,202,9330816,,,2024-08-01,清算の結了等,,,2015-10-05,1,,,,,エフティ,0
2505,9320002012374,登記記録の閉鎖等,0,2024-08-06,2024-07-29,有限会社ヘアーサロンきくち,,有限会社,大分県,別府市,石垣西１０丁目２番２１号,,44,202,8740910,,,2024-07-29,清算の結了等,,,2015-10-05,1,,,,,,0
2513,9360002022551,登記記録の閉鎖等,0,2024-08-06,2024-07-29,有限会社大栄工務店,,有限会社,沖縄県,宮古島市,平良字東仲宗根４８３番地１,,47,214,9060007,,,2024-07-29,清算の結了等,,,2015-10-05,1,,,,,ダイエイコウムテン,0
2522,9400001008084,登記記録の閉鎖等,0,2024-08-06,2024-07-23,川崎食品株式会社,,株式会社,岩手県,九戸郡洋野町,小子内第３地割４７番地,,03,507,0287904,,,2024-07-23,清算の結了等,,,2015-10-05,1,,,,,カワサキショクヒン,0
2525,9430001014435,登記記録の閉鎖等,0,2024-08-06,2024-08-01,株式会社豊栄ガス設備,,株式会社,北海道,札幌市東区,北三十七条東１丁目６番１７－１０１号,,01,103,0070837,,,2024-08-01,清算の結了等,,,2015-10-05,1,,,,,ホウエイガスセツビ,0
2533,9430005009662,登記記録の閉鎖等,0,2024-08-06,2024-07-31,医療法人社団なかむら歯科医院,,その他の設立登記法人,北海道,伊達市,長和町４６７番地１,,01,233,0520035,,,2024-07-31,清算の結了等,,,2015-10-05,1,,,,,ナカムラシカイイン,0
2535,9450001006100,登記記録の閉鎖等,0,2024-08-06,2024-08-01,株式会社谷口商事,,株式会社,北海道,旭川市,北門町１８丁目２１５４番地の１０２,,01,204,0700825,,,2024-08-01,清算の結了等,,,2015-10-05,1,,,,,タニグチショウジ,0
2540,9490005001663,登記記録の閉鎖等,0,2024-08-06,2024-07-31,特定非営利活動法人高知県森・里・川ビオトープの会,,その他の設立登記法人,高知県,高知市,旭町３丁目９０番地,,39,201,7800935,,,2024-07-31,清算の結了等,,,2015-10-05,1,,,,,コウチケンモリサトカワビオトープノカイ,0
