sequenceNumber,corporateNumber,process,correct,updateDate,changeDate,name,nameImageId,kind,prefectureName,cityName,streetNumber,addressImageId,prefectureCode,cityCode,postCode,addressOutside,addressOutsideImageId,closeDate,closeCause,successorCorporateNumber,changeCause,assignmentDate,latest,enName,enPrefectureName,enCityName,enAddressOutside,furigana,hihyoji
9,1010001245212,新規,0,2024-05-30,2024-05-30,株式会社東元,,株式会社,東京都,千代田区,麹町３丁目５番５号望月ビル１Ｆ,,13,101,1020083,,,,,,,2024-05-30,1,,,,,トウゲン,0
10,1010001245261,新規,0,2024-05-30,2024-05-30,株式会社ファインソフト,,株式会社,東京都,千代田区,紀尾井町４番１号ニューオータニガーデンコート２８階,,13,101,1020094,,,,,,,2024-05-30,1,,,,,ファインソフト,0
11,1010001245294,新規,0,2024-05-30,2024-05-30,株式会社ＳＤ,,株式会社,東京都,中央区,銀座１丁目１２番４号Ｎ＆ＥＢＬＤ．６階,,13,102,1040061,,,,,,,2024-05-30,1,,,,,エスディー,0
13,1010003043878,新規,0,2024-05-30,2024-05-30,合同会社灯花,,合同会社,東京都,中央区,日本橋３丁目２番１４号新槇町ビル別館第一２階,,13,102,1030027,,,,,,,2024-05-30,1,,,,,トウカ,0
14,1010003043886,新規,0,2024-05-30,2024-05-30,合同会社Ｃｉｔｒｏｎ　Ｒ＆Ｃ,,合同会社,東京都,千代田区,麹町３丁目５－４,,13,101,1020083,,,,,,,2024-05-30,1,,,,,シトロンアールアンドシー,0
22,1010401182798,新規,0,2024-05-30,2024-05-30,株式会社ネオクリニックジャパン,,株式会社,東京都,港区,北青山２丁目９番１３号,,13,103,1070061,,,,,,,2024-05-30,1,,,,,ネオクリニックジャパン,0
26,1010501052364,新規,0,2024-05-30,2024-05-30,株式会社ＭＳプラン,,株式会社,東京都,台東区,台東３丁目８番１０号,,13,106,1100016,,,,,,,2024-05-30,1,,,,,エムエスプラン,0
27,1010503007457,新規,0,2024-05-30,2024-05-30,ＮＯＴ　Ａ　ＨＯＴＥＬ　ＳＥＴＯＵＣＨＩ合同会社,,合同会社,東京都,台東区,寿２丁目１０番１４号,,13,106,1110042,,,,,,,2024-05-30,1,,,,,ノットアホテルセトウチ,0
30,1010701046075,新規,0,2024-05-30,2024-05-30,シナジープラス株式会社,,株式会社,東京都,品川区,南品川２丁目１４番６号３階,,13,109,1400004,,,,,,,2024-05-30,1,,,,,シナジープラス,0
34,1010901055371,新規,0,2024-05-30,2024-05-30,株式会社ＬＩＮＫ,,株式会社,東京都,世田谷区,喜多見３丁目９番１３号サウスコーポＢ２０１,,13,112,1570067,,,,,,,2024-05-30,1,,,,,リンク,0
41,1011001162356,新規,0,2024-05-30,2024-05-30,株式会社ジーティ,,株式会社,東京都,渋谷区,桜丘町１１―９―４０２,,13,113,1500031,,,,,,,2024-05-30,1,,,,,ジーティ,0
42,1011001162364,新規,0,2024-05-30,2024-05-30,株式会社Ｄｅｓｋｒｅｘ,,株式会社,東京都,目黒区,東山３丁目１‐４,,13,110,1530043,,,,,,,2024-05-30,1,,,,,デスクレックス,0
43,1011003019281,新規,0,2024-05-30,2024-05-30,合同会社ＲＩＣＣＡ,,合同会社,東京都,渋谷区,道玄坂１丁目１０番８号渋谷道玄坂東急ビル２Ｆ－Ｃ,,13,113,1500043,,,,,,,2024-05-30,1,,,,,リッカ,0
51,1012401041901,新規,0,2024-05-30,2024-05-30,株式会社煌樹苑,,株式会社,東京都,武蔵野市,境南町５丁目３番２１号,,13,203,1800023,,,,,,,2024-05-30,1,,,,,コウジュエン,0
52,1012401041926,新規,0,2024-05-30,2024-05-30,株式会社ハルクロ,,株式会社,東京都,三鷹市,下連雀４丁目１６番３号,,13,204,1810013,,,,,,,2024-05-30,1,,,,,ハルクロ,0
54,1012703003005,新規,0,2024-05-30,2024-05-30,合同会社富留,,合同会社,東京都,小平市,花小金井南町１丁目１９番３－６０２号,,13,211,1870003,,,,,,,2024-05-30,1,,,,,フル,0
67,1013301052583,新規,0,2024-05-30,2024-05-30,株式会社アンティクワリアン,,株式会社,東京都,豊島区,西巣鴨１丁目２番２２号ＷＡＮＤＡビル２階,,13,116,1700001,,,,,,,2024-05-30,1,,,,,アンティクワリアン,0
83,1020001157489,新規,0,2024-05-30,2024-05-30,株式会社リシェスプランニング,,株式会社,神奈川県,横浜市港北区,大曽根台１８番１７号,,14,109,2220004,,,,,,,2024-05-30,1,,,,,リシェスプランニング,0
84,1020001157497,新規,0,2024-05-30,2024-05-30,株式会社Ｉｎｄｉｇｏ　Ｐｌａｎｅｔ,,株式会社,神奈川県,川崎市多摩区,登戸２６５１－６,,14,135,2140014,,,,,,,2024-05-30,1,,,,,インディゴプラネット,0
85,1020001157506,新規,0,2024-05-30,2024-05-30,株式会社タクミ住設,,株式会社,神奈川県,横浜市戸塚区,上矢部町１４０６番地２０１,,14,110,2450053,,,,,,,2024-05-30,1,,,,,タクミジュウセツ,0
88,1020003026238,新規,0,2024-05-30,2024-05-30,合同会社起時,,合同会社,神奈川県,川崎市高津区,溝口５丁目１６番１８号,,14,134,2130001,,,,,,,2024-05-30,1,,,,,,0
89,1020003026254,新規,0,2024-05-30,2024-05-30,合同会社ＭＡＨＩＮＡ,,合同会社,神奈川県,横浜市中区,弁天通３丁目３７番地第２２フジビル,,14,104,2310007,,,,,,,2024-05-30,1,,,,,マヒナ,0
93,1021001082330,新規,0,2024-05-30,2024-05-30,株式会社アセット,,株式会社,神奈川県,足柄下郡真鶴町,岩８５３番地６４,,14,383,2590202,,,,,,,2024-05-30,1,,,,,アセット,0
94,1021001082347,新規,0,2024-05-30,2024-05-30,Ｒ・Ｎ株式会社,,株式会社,神奈川県,海老名市,泉２丁目３番１－１５２２号,,14,215,2430437,,,,,,,2024-05-30,1,,,,,アールエヌ,0
96,1021003014570,新規,0,2024-05-30,2024-05-30,合同会社ＰＨＩＬＩＰ　ＡＣＫＬＡＮＤ,,合同会社,神奈川県,横須賀市,根岸町３丁目１４番１６号大洋ビル２階,,14,201,2390807,,,,,,,2024-05-30,1,,,,,フィリップアクランド,0
105,1030001160517,新規,0,2024-05-30,2024-05-30,大東株式会社,,株式会社,埼玉県,志木市,本町５丁目２３番２４号第３本吉ビル４階４０８号,,11,228,3530004,,,,,,,2024-05-30,1,,,,,ダイトウ,0
106,1030001160608,新規,0,2024-05-30,2024-05-30,株式会社ｅｘｉｔｏ設備,,株式会社,埼玉県,さいたま市桜区,大字下大久保９７２番地１５,,11,106,3380825,,,,,,,2024-05-30,1,,,,,エクシトセツビ,0
110,1030003024389,新規,0,2024-05-30,2024-05-30,合同会社ゼンケン,,合同会社,埼玉県,新座市,馬場１丁目７番２－２８号,,11,230,3520016,,,,,,,2024-05-30,1,,,,,ゼンケン,0
111,1030003024397,新規,0,2024-05-30,2024-05-30,新式合同会社,,合同会社,埼玉県,三郷市,彦成３丁目１３番,,11,237,3410003,,,,,,,2024-05-30,1,,,,,シンシキ,0
118,1040001133819,新規,0,2024-05-30,2024-05-30,株式会社ＴＧＩ　Ｆｒｉｅｎｄｓ,,株式会社,千葉県,浦安市,高洲１丁目６番１３号,,12,227,2790023,,,,,,,2024-05-30,1,,,,,ティージーアイフレンズ,0
126,1040003025080,新規,0,2024-05-30,2024-05-30,合同会社ソルテ,,合同会社,千葉県,柏市,大室１丁目８番地１,,12,217,2770813,,,,,,,2024-05-30,1,,,,,ソルテ,0
127,1040003025089,新規,0,2024-05-30,2024-05-30,合同会社サンクス,,合同会社,千葉県,千葉市花見川区,南花園２丁目１番６号朝日ビル４Ｆ,,12,102,2620022,,,,,,,2024-05-30,1,,,,,サンクス,0
128,1040005022407,新規,0,2024-05-30,2024-05-30,一般社団法人健和福祉会,,その他の設立登記法人,千葉県,白井市,冨士１４２番地の６０,,12,232,2701432,,,,,,,2024-05-30,1,,,,,ケンワフクシカイ,0
129,1050001054840,新規,0,2024-05-30,2024-05-30,株式会社聡電舎,,株式会社,茨城県,牛久市,牛久町４２番地１,,08,219,3001221,,,,,,,2024-05-30,1,,,,,ソウデンシャ,0
130,1050003008407,新規,0,2024-05-30,2024-05-30,合同会社くわばら,,合同会社,茨城県,水戸市,袴塚１丁目１番４号,,08,201,3100055,,,,,,,2024-05-30,1,,,,,クワバラ,0
131,1050003008415,新規,0,2024-05-30,2024-05-30,合同会社ポラリス,,合同会社,茨城県,かすみがうら市,稲吉南３丁目１３番５号,,08,230,3150055,,,,,,,2024-05-30,1,,,,,ポラリス,0
138,1070001041795,新規,0,2024-05-30,2024-05-30,株式会社ａｓｓｏｃｉａ,,株式会社,群馬県,太田市,鳥山上町２１０８番地２,,10,205,3730061,,,,,,,2024-05-30,1,,,,,アソシア,0
139,1070003005435,新規,0,2024-05-30,2024-05-30,ＦＡＲＶＩＮ　ＴＲＡＤＥＲＳ合同会社,,合同会社,群馬県,みどり市,東町花輪５３８番地１,,10,212,3760307,,,,,,,2024-05-30,1,,,,,ファルビントレーダーズ,0
141,1080003003215,新規,0,2024-05-30,2024-05-30,雲龍合同会社,,合同会社,静岡県,静岡市駿河区,南町４番７号ユーフォリア南町６０２,,22,102,4228067,,,,,,,2024-05-30,1,,,,,ウンリュウ,0
142,1080103003073,新規,0,2024-05-30,2024-05-30,合同会社いーぜる,,合同会社,静岡県,沼津市,西浦久連９４番地,,22,203,4100233,,,,,,,2024-05-30,1,,,,,イーゼル,0
149,1100003007584,新規,0,2024-05-30,2024-05-30,合同会社Ｋオフィス,,合同会社,長野県,伊那市,西春近２３２６,,20,209,3994431,,,,,,,2024-05-30,1,,,,,ケイオフィス,0
150,1110003005406,新規,0,2024-05-30,2024-05-30,合同会社ＡＢＥＹ,,合同会社,新潟県,長岡市,今朝白３丁目５番１１号,,15,202,9400033,,,,,,,2024-05-30,1,,,,,アビー,0
157,1120001265281,新規,0,2024-05-30,2024-05-30,蘊智株式会社,,株式会社,大阪府,大阪市都島区,内代町２丁目２－２９－３０２室,,27,102,5340013,,,,,,,2024-05-30,1,,,,,ツチ,0
158,1120001265389,新規,0,2024-05-30,2024-05-30,株式会社ＥＮ,,株式会社,大阪府,寝屋川市,寿町４８番８号（１０２号）,,27,215,5720029,,,,,,,2024-05-30,1,,,,,エン,0
159,1120001265455,新規,0,2024-05-30,2024-05-30,株式会社Ｄｏｔｏｒｉ,,株式会社,大阪府,大阪市中央区,東心斎橋１丁目３番５号グランドピア長堀橋２０１号,,27,128,5420083,,,,,,,2024-05-30,1,,,,,ドトリ,0
167,1120101069665,新規,0,2024-05-30,2024-05-30,株式会社中井土木設計事務所,,株式会社,大阪府,河内長野市,旭ケ丘８番１９号,,27,216,5860084,,,,,,,2024-05-30,1,,,,,ナカイドボクセッケイジムショ,0
168,1120101069681,新規,0,2024-05-30,2024-05-30,株式会社ｐｉｎ　ｌｉｖｒｅ　ｔｒｏｉｓ,,株式会社,大阪府,堺市北区,長曽根町１１８０番地３、１０９号,,27,146,5918025,,,,,,,2024-05-30,1,,,,,パンリーヴルトロワ,0
176,1120903005198,新規,0,2024-05-30,2024-05-30,合同会社ｕｒｏｃｏ．,,合同会社,大阪府,箕面市,森町北２丁目９番２号,,27,220,5630256,,,,,,,2024-05-30,1,,,,,ウロコ,0
192,1130001077148,新規,0,2024-05-30,2024-05-30,株式会社ＡＳＴ,,株式会社,京都府,福知山市,字長田４５４番地,,26,201,6200000,,,,,,,2024-05-30,1,,,,,アスタ,0
195,1140001134559,新規,0,2024-05-30,2024-05-30,株式会社ＬｉｖｓＭｅｄ　Ｊａｐａｎ,,株式会社,兵庫県,神戸市中央区,京町８０番クリエイト神戸３階,,28,110,6500034,,,,,,,2024-05-30,1,,,,,リブズメッドジャパン,0
196,1140001134567,新規,0,2024-05-30,2024-05-30,株式会社ｂｕｌｌ,,株式会社,兵庫県,三田市,武庫が丘６丁目１８番地８,,28,219,6691544,,,,,,,2024-05-30,1,,,,,ブル,0
198,1150001027308,新規,0,2024-05-30,2024-05-30,株式会社和心,,株式会社,奈良県,橿原市,北妙法寺町６７３番地、１０２,,29,205,6340843,,,,,,,2024-05-30,1,,,,,ワシン,0
200,1170003002050,新規,0,2024-05-30,2024-05-30,ラケルタ合同会社,,合同会社,和歌山県,和歌山市,永山６２番地７,,30,201,6400302,,,,,,,2024-05-30,1,,,,,ラケルタ,0
204,1180001161723,新規,0,2024-05-30,2024-05-30,果樹研究所株式会社,,株式会社,愛知県,海部郡飛島村,木場２丁目８２番,,23,427,4901444,,,,,,,2024-05-30,1,,,,,カジュケンキュウジョ,0
205,1180001161731,新規,0,2024-05-30,2024-05-30,株式会社ＫＹＯＹＡ,,株式会社,愛知県,名古屋市中区,栄３丁目１５番３３号栄ガスビル１３Ｆ,,23,106,4600008,,,,,,,2024-05-30,1,,,,,キョウヤ,0
206,1180001161748,新規,0,2024-05-30,2024-05-30,株式会社Ｇ’ｓ‐ｓｔｙｌｅ,,株式会社,愛知県,津島市,常盤町２丁目５－５,,23,208,4960833,,,,,,,2024-05-30,1,,,,,ジーズスタイル,0
208,1180301038679,新規,0,2024-05-30,2024-05-30,株式会社ＢｕｉｌｄａＢｏｔ,,株式会社,愛知県,安城市,小川町志茂１９番地１グローリアス安城小川町１４０１号,,23,212,4441162,,,,,,,2024-05-30,1,,,,,ビルダボ,0
215,1220005008858,新規,0,2024-05-30,2024-05-30,一般社団法人アート＆アーカイブスタジオ,,その他の設立登記法人,石川県,金沢市,石引４丁目７‐２２,,17,201,9200935,,,,,,,2024-05-30,1,,,,,アートアンドアーカイブスタジオ,0
216,1230005009392,新規,0,2024-05-30,2024-05-30,特定非営利活動法人富山国際社会団体,,その他の設立登記法人,富山県,高岡市,石瀬６４１番地４,,16,202,9330011,,,,,,,2024-05-30,1,,,,,トヤマコクサイシャカイダンタイ,0
218,1260001039102,新規,0,2024-05-30,2024-05-30,株式会社アカラ,,株式会社,岡山県,倉敷市,中庄２４３５番地５,,33,202,7100016,,,,,,,2024-05-30,1,,,,,アカラ,0
225,1290001105974,新規,0,2024-05-30,2024-05-30,株式会社Ｍｅｔａ　Ｆｕｋｕｏｋａ,,株式会社,福岡県,福岡市中央区,天神２丁目４番１５号,,40,133,8100001,,,,,,,2024-05-30,1,,,,,メタフクオカ,0
236,1320001020501,新規,0,2024-05-30,2024-05-30,株式会社ツツジ建設,,株式会社,大分県,中津市,大字永添字坂本６１９番地,,44,203,8710162,,,,,,,2024-05-30,1,,,,,ツツジケンセツ,0
240,1360001033730,新規,0,2024-05-30,2024-05-30,株式会社Ｒｙｕｄａｎ,,株式会社,沖縄県,那覇市,久茂地２丁目４番１６号山内ビル４階,,47,201,9000015,,,,,,,2024-05-30,1,,,,,リュウダン,0
243,1360003014027,新規,0,2024-05-30,2024-05-30,沖縄スマートＩＤ合同会社,,合同会社,沖縄県,豊見城市,字豊見城６７番地,,47,212,9010241,,,,,,,2024-05-30,1,,,,,オキナワスマートアイディー,0
247,1370001051343,新規,0,2024-05-30,2024-05-30,株式会社加藤製作所,,株式会社,宮城県,石巻市,須江字関ノ入１３番地８,,04,202,9871221,,,,,,,2024-05-30,1,,,,,カトウセイサクジョ,0
251,1390001017623,新規,0,2024-05-30,2024-05-30,Ｌｅａｐ　Ｔｅｃｈ株式会社,,株式会社,山形県,鶴岡市,文下字沼田１５番地２,,06,203,9970003,,,,,,,2024-05-30,1,,,,,リープテック,0
253,1400003003280,新規,0,2024-05-30,2024-05-30,合同会社Ａａｌｔｏ　Ｍｅｄｉｃａｌ　Ｓｅｒｖｉｃｅ,,合同会社,岩手県,盛岡市,箱清水１丁目３９番３６号,,03,201,0200116,,,,,,,2024-05-30,1,,,,,アアルトメディカルサービス,0
256,1430003016387,新規,0,2024-05-30,2024-05-30,合同会社せじまる,,合同会社,北海道,札幌市東区,北十二条東１２丁目２番６－１０１号,,01,103,0650012,,,,,,,2024-05-30,1,,,,,セジマル,0
261,1480003002135,新規,0,2024-05-30,2024-05-30,合同会社福祉サービス,,合同会社,徳島県,阿南市,津乃峰町戎山１２３番地３,,36,204,7740021,,,,,,,2024-05-30,1,,,,,フクシサービス,0
265,2010001244733,新規,0,2024-05-30,2024-05-30,ＪＢＴＨ株式会社,,株式会社,東京都,千代田区,神田三崎町３丁目５－９天翔水道橋ビル２１２号室,,13,101,1010061,,,,,,,2024-05-30,1,,,,,ジェイビーティーエイチ,0
266,2010001245252,新規,0,2024-05-30,2024-05-30,Ｔａｌｅｓ＆Ｃｏ．株式会社,,株式会社,東京都,千代田区,麹町６丁目６番２号,,13,101,1020083,,,,,,,2024-05-30,1,,,,,テイルズアンドコー,0
267,2010001245260,新規,0,2024-05-30,2024-05-30,株式会社十久伝,,株式会社,東京都,中央区,銀座６丁目２番６号ウエストビル６階,,13,102,1040061,,,,,,,2024-05-30,1,,,,,トクデン,0
268,2010001245269,新規,0,2024-05-30,2024-05-30,株式会社ＪａｐａｎＭａｎｉａ,,株式会社,東京都,千代田区,神田小川町３丁目１番地５須田ビル８Ｆ,,13,101,1010052,,,,,,,2024-05-30,1,,,,,ジャパンマニア,0
269,2010001245302,新規,0,2024-05-30,2024-05-30,株式会社Ｐ．Ｌ．Ｏ．Ｗ．,,株式会社,東京都,中央区,日本橋小網町１番３号５階,,13,102,1030016,,,,,,,2024-05-30,1,,,,,プラウ,0
272,2010003043778,新規,0,2024-05-30,2024-05-30,ＦＴＳ合同会社,,合同会社,東京都,中央区,日本橋２丁目１０番１２号プレリー日本橋ビル９Ｆ,,13,102,1030027,,,,,,,2024-05-30,1,,,,,エフティエス,0
273,2010003043877,新規,0,2024-05-30,2024-05-30,ＢＯＬ創生合同会社,,合同会社,東京都,千代田区,鍛冶町２丁目７番１５号ＡＤ神田駅東口ビル,,13,101,1010044,,,,,,,2024-05-30,1,,,,,ビーオーエルソウセイ,0
277,2010401182772,新規,0,2024-05-30,2024-05-30,株式会社ＮｅｘｕＳｔａｒ　Ｐａｒｔｎｅｒｓ,,株式会社,東京都,港区,海岸１丁目２番２０号汐留ビルディング３Ｆ,,13,103,1050022,,,,,,,2024-05-30,1,,,,,ネクサスターパートナーズ,0
278,2010401182780,新規,0,2024-05-30,2024-05-30,東洋シップファンド０２号株式会社,,株式会社,東京都,港区,新橋４丁目３０番６号京急中はらビル５Ｆ,,13,103,1050004,,,,,,,2024-05-30,1,,,,,トウヨウシップファンドゼロニゴウ,0
279,2010401182789,新規,0,2024-05-30,2024-05-30,志布志環境テクノロジー株式会社,,株式会社,東京都,港区,浜松町１丁目２番１２号,,13,103,1050013,,,,,,,2024-05-30,1,,,,,シブシカンキョウテクノロジー,0
280,2010403032728,新規,0,2024-05-30,2024-05-30,合同会社Ｓｙｎｃ,,合同会社,東京都,港区,芝浦２丁目６－１６－２０１,,13,103,1080023,,,,,,,2024-05-30,1,,,,,シンク,0
285,2010501052347,新規,0,2024-05-30,2024-05-30,日本新和株式会社,,株式会社,東京都,台東区,台東３丁目５番１０号－１０２－２Ｐ室,,13,106,1100016,,,,,,,2024-05-30,1,,,,,ニホンシンワ,0
289,2010701046074,新規,0,2024-05-30,2024-05-30,株式会社Ｆｏｒｗａｒｄ,,株式会社,東京都,品川区,西五反田６丁目２３－６デュオクリエ西五反田Ａ７０２,,13,109,1410031,,,,,,,2024-05-30,1,,,,,フォワード,0
301,2011001162207,新規,0,2024-05-30,2024-05-30,株式会社ＢｕｚｚＰｏｒｔ,,株式会社,東京都,渋谷区,南平台町６－１６スタイリオ渋谷南平台５０４,,13,113,1500036,,,,,,,2024-05-30,1,,,,,バズポート,0
302,2011001162347,新規,0,2024-05-30,2024-05-30,株式会社Ｃｒｉｂ　Ｎｏｔｅｓ,,株式会社,東京都,目黒区,下目黒１丁目１番１４号コノトラビル７Ｆ,,13,110,1530064,,,,,,,2024-05-30,1,,,,,クリブノーツ,0
304,2011003019264,新規,0,2024-05-30,2024-05-30,合同会社ＭＫ,,合同会社,東京都,渋谷区,道玄坂１丁目１０番８号渋谷道玄坂東急ビル２Ｆ－Ｃ,,13,113,1500043,,,,,,,2024-05-30,1,,,,,エムケイ,0
305,2011003019280,新規,0,2024-05-30,2024-05-30,合同会社ＪＵＮＥプラス,,合同会社,東京都,渋谷区,神山町３番４号１０２号室,,13,113,1500047,,,,,,,2024-05-30,1,,,,,ジュンプラス,0
310,2011101107482,新規,0,2024-05-30,2024-05-30,福澤国際株式会社,,株式会社,東京都,新宿区,西新宿７丁目１８番７－４０３号,,13,104,1600023,,,,,,,2024-05-30,1,,,,,フクザワコクサイ,0
311,2011101107490,新規,0,2024-05-30,2024-05-30,東京艾紐健医薬株式会社,,株式会社,東京都,新宿区,西早稲田１丁目１６－６セントルレジデンス西早稲田３０１号,,13,104,1690051,,,,,,,2024-05-30,1,,,,,トウキョウインジーンファーマスーティカル,0
324,2011701027329,新規,0,2024-05-30,2024-05-30,林工業株式会社,,株式会社,東京都,江戸川区,平井１丁目２２番８号,,13,123,1320035,,,,,,,2024-05-30,1,,,,,ハヤシコウギョウ,0
329,2011803006255,新規,0,2024-05-30,2024-05-30,Ｒｅｌｉｆｅ合同会社,,合同会社,東京都,葛飾区,東新小岩８丁目７－１８グランドオーク２０２,,13,122,1240023,,,,,,,2024-05-30,1,,,,,リライフ,0
330,2011803006263,新規,0,2024-05-30,2024-05-30,合同会社ケアサービス未来,,合同会社,東京都,足立区,西新井１丁目２５番３号ディアヒルズ６０３,,13,121,1230841,,,,,,,2024-05-30,1,,,,,ケアサービスミライ,0
333,2013301052582,新規,0,2024-05-30,2024-05-30,株式会社Ｆｉｎｅ,,株式会社,東京都,豊島区,池袋２丁目８番５号梶ビルＢ１,,13,116,1710014,,,,,,,2024-05-30,1,,,,,ファイン,0
334,2013303007155,新規,0,2024-05-30,2024-05-30,合同会社ＲＮＳ,,合同会社,東京都,豊島区,南池袋２丁目１１－１０ミモザビル３Ｆ,,13,116,1710022,,,,,,,2024-05-30,1,,,,,アールエヌエス,0
335,2013305003607,新規,0,2024-05-30,2024-05-30,一般社団法人ファッションデザイナー育成推進協会,,その他の設立登記法人,東京都,豊島区,巣鴨１丁目２６－１０金＿ビル,00134956,13,116,1700002,,,,,,,2024-05-30,1,,,,,ファッションデザイナーイクセイスイシンキョウカイ,0
339,2020001157505,新規,0,2024-05-30,2024-05-30,株式会社ウィーズ,,株式会社,神奈川県,横浜市港北区,新横浜２丁目５番１０号,,14,109,2220033,,,,,,,2024-05-30,1,,,,,ウィーズ,0
341,2020003026245,新規,0,2024-05-30,2024-05-30,荘エンタープライズ合同会社,,合同会社,神奈川県,川崎市多摩区,登戸１９１９番地エムアンドアールビル３階,,14,135,2140014,,,,,,,2024-05-30,1,,,,,ショウエンタープライズ,0
344,2021001082338,新規,0,2024-05-30,2024-05-30,株式会社Ａｌｔｒｕｉｓｍ,,株式会社,神奈川県,藤沢市,鵠沼海岸２丁目６番２鵠沼海岸二丁目ビル２０２,,14,205,2510037,,,,,,,2024-05-30,1,,,,,アルトリズム,0
345,2021001082362,新規,0,2024-05-30,2024-05-30,株式会社エイトテック,,株式会社,神奈川県,相模原市中央区,田名３９９５番地７,,14,152,2520244,,,,,,,2024-05-30,1,,,,,エイトテック,0
347,2021003014578,新規,0,2024-05-30,2024-05-30,ＡＩＫＯ　ＪＡＰＡＮ合同会社,,合同会社,神奈川県,愛甲郡清川村,煤ヶ谷１６２３番地花の木あやめ,,14,402,2430112,,,,,,,2024-05-30,1,,,,,アイコージャパン,0
351,2030001160607,新規,0,2024-05-30,2024-05-30,株式会社Ｍｉｋｕｎｉ　Ｍｕｓｉｃ,,株式会社,埼玉県,和光市,丸山台３丁目１４番３－４１７号,,11,229,3510112,,,,,,,2024-05-30,1,,,,,ミクニミュージック,0
357,2030003024388,新規,0,2024-05-30,2024-05-30,合同会社ＳＣＨＷＥＲＴ,,合同会社,埼玉県,蕨市,錦町２丁目１５番１号アヴェニールコート２０２号,,11,223,3350005,,,,,,,2024-05-30,1,,,,,シュヴェールト,0
361,2040001133826,新規,0,2024-05-30,2024-05-30,株式会社ニッポンエネルギー,,株式会社,千葉県,千葉市花見川区,犢橋町１５７２－１,,12,102,2620013,,,,,,,2024-05-30,1,,,,,ニッポンエネルギー,0
366,2050003008406,新規,0,2024-05-30,2024-05-30,桜川書店共同販売合同会社,,合同会社,茨城県,桜川市,真壁町真壁１９８番地,,08,231,3004408,,,,,,,2024-05-30,1,,,,,サクラガワショテンキョウドウハンバイ,0
375,2080003003214,新規,0,2024-05-30,2024-05-30,合同会社ＢＡＮＢＵＳ,,合同会社,静岡県,静岡市駿河区,大谷３０００番地の５８,,22,102,4228017,,,,,,,2024-05-30,1,,,,,バンブス,0
392,2120001265438,新規,0,2024-05-30,2024-05-30,株式会社ダンブロジーニ,,株式会社,大阪府,大阪市天王寺区,筆ケ崎町２番１０号,,27,109,5430027,,,,,,,2024-05-30,1,,,,,ダンブロジーニ,0
393,2120001265454,新規,0,2024-05-30,2024-05-30,株式会社ＩＶＹ,,株式会社,大阪府,大阪市西淀川区,姫里１丁目３－２６,,27,113,5550025,,,,,,,2024-05-30,1,,,,,アイヴィー,0
394,2120001265479,新規,0,2024-05-30,2024-05-30,株式会社ＫＡＮＡＡＮ,,株式会社,大阪府,大阪市生野区,鶴橋２丁目９番１６号１階,,27,116,5440031,,,,,,,2024-05-30,1,,,,,カナアン,0
395,2120101069664,新規,0,2024-05-30,2024-05-30,株式会社えそら,,株式会社,大阪府,堺市美原区,大保６８番地１３,,27,147,5870001,,,,,,,2024-05-30,1,,,,,エソラ,0
396,2120101069680,新規,0,2024-05-30,2024-05-30,株式会社ラヴィットハウス,,株式会社,大阪府,堺市中区,土師町４丁２５番１号２Ｆ,,27,142,5998238,,,,,,,2024-05-30,1,,,,,ラヴィットハウス,0
401,2120903005197,新規,0,2024-05-30,2024-05-30,貴陽Ｊｕｎｓｉｎ支援合同会社,,合同会社,大阪府,池田市,栄町３番５号ＮＫＨＯＵＳＥ１０１号室,,27,204,5630056,,,,,,,2024-05-30,1,,,,,キヨウジュンシンシエン,0
414,2140005027097,新規,0,2024-05-30,2024-05-30,特定非営利活動法人Ｐｒｉｄｅ　ｏｆ　ＫＯＢＥ,,その他の設立登記法人,兵庫県,神戸市中央区,中山手通２丁目２５番１３－５０１号,,28,110,6500004,,,,,,,2024-05-30,1,,,,,プライドオブコウベ,0
415,2150003003272,新規,0,2024-05-30,2024-05-30,合同会社杜を育む伝統土木設計事務所,,合同会社,奈良県,磯城郡川西町,大字結崎１３７９番地,,29,361,6360202,,,,,,,2024-05-30,1,,,,,モリヲハグクムデントウドボクセッケイジムショ,0
425,2180001161706,新規,0,2024-05-30,2024-05-30,株式会社哲学,,株式会社,愛知県,名古屋市東区,徳川１丁目８番５４号,,23,102,4610025,,,,,,,2024-05-30,1,,,,,テツガク,0
426,2180001161722,新規,0,2024-05-30,2024-05-30,株式会社バイアンドセル,,株式会社,愛知県,半田市,上浜町１０番地６,,23,205,4750804,,,,,,,2024-05-30,1,,,,,バイアンドセル,0
427,2180001161730,新規,0,2024-05-30,2024-05-30,山東華建アルミ株式会社,,株式会社,愛知県,名古屋市熱田区,三本松町１７番５号エステイタスＡＳ１７二階２Ａ,,23,109,4560032,,,,,,,2024-05-30,1,,,,,サントンカケンアルミ,0
428,2180001161739,新規,0,2024-05-30,2024-05-30,株式会社ＪＥＥ,,株式会社,愛知県,名古屋市北区,志賀町４丁目７７番地ライオンズマンション志賀２０１,,23,103,4620037,,,,,,,2024-05-30,1,,,,,ジェイイーイー,0
434,2190001031370,新規,0,2024-05-30,2024-05-30,株式会社ベルテック,,株式会社,三重県,鈴鹿市,一ノ宮町６２９番地,,24,207,5130031,,,,,,,2024-05-30,1,,,,,ベルテック,0
435,2200001042548,新規,0,2024-05-30,2024-05-30,株式会社Ｈａｊｉｍｅ,,株式会社,岐阜県,岐阜市,東改田８２番地１,,21,201,5011142,,,,,,,2024-05-30,1,,,,,ハジメ,0
437,2210003001798,新規,0,2024-05-30,2024-05-30,合同会社ＨＯＮＥＳＴ‐ＯＮＥ,,合同会社,福井県,坂井市,坂井町島第９号１８番地,,18,210,9190535,,,,,,,2024-05-30,1,,,,,オネストワン,0
440,2240001063292,新規,0,2024-05-30,2024-05-30,株式会社ｂｅｅ,,株式会社,広島県,広島市中区,富士見町１番５号,,34,101,7300043,,,,,,,2024-05-30,1,,,,,ビー,0
443,2260001039118,新規,0,2024-05-30,2024-05-30,株式会社ｆｏｒｓｕｓ,,株式会社,岡山県,岡山市北区,尾上２３１番地１プレジールコスモスＢ棟１０２号室,,33,101,7011212,,,,,,,2024-05-30,1,,,,,フォーサス,0
448,2290001105957,新規,0,2024-05-30,2024-05-30,株式会社アシスト住宅情報館,,株式会社,福岡県,久留米市,藤光１丁目１０番１２号,,40,203,8300057,,,,,,,2024-05-30,1,,,,,アシストジュウタクジョウホウカン,0
449,2290001105965,新規,0,2024-05-30,2024-05-30,株式会社白山舎,,株式会社,福岡県,福岡市早良区,小田部６丁目１３番２０号,,40,137,8140032,,,,,,,2024-05-30,1,,,,,ハクザンシャ,0
450,2290001105981,新規,0,2024-05-30,2024-05-30,株式会社ＳｅｎｊｕＧｒｏｕｐ,,株式会社,福岡県,福岡市東区,香椎照葉３丁目２番２－５３３号インフィニガーデンノース棟,,40,131,8130017,,,,,,,2024-05-30,1,,,,,センジュグループ,0
454,2290003015361,新規,0,2024-05-30,2024-05-30,ＫＫＮＳ合同会社,,合同会社,福岡県,古賀市,今の庄２丁目２４番１０－３０７号,,40,223,8113117,,,,,,,2024-05-30,1,,,,,ケイケイエヌエス,0
459,2330003010382,新規,0,2024-05-30,2024-05-30,Ａｎｏｒ合同会社,,合同会社,熊本県,熊本市北区,高平３丁目１４－７－３０１,,43,105,8600085,,,,,,,2024-05-30,1,,,,,アノル,0
472,2430001091902,新規,0,2024-05-30,2024-05-30,株式会社Ｒａｉｎ　ｄｒｏｐ,,株式会社,北海道,札幌市北区,新琴似四条２丁目１０－１１,,01,102,0010904,,,,,,,2024-05-30,1,,,,,レインドロップ,0
475,2430003016386,新規,0,2024-05-30,2024-05-30,合同会社ｉｅｉｅ,,合同会社,北海道,札幌市西区,発寒六条１３丁目１番５０－４１０号,,01,107,0630826,,,,,,,2024-05-30,1,,,,,イエイエ,0
480,2500001025662,新規,0,2024-05-30,2024-05-30,株式会社Ｒｅｖｏ,,株式会社,愛媛県,松山市,宮西２丁目７番７号,,38,201,7900065,,,,,,,2024-05-30,1,,,,,レボ,0
481,2700150123164,新規,0,2024-05-30,2024-05-30,ＷＯＲＬＤＳＨＯＰＰＥ　ＣＯ．，ＬＴＤ．,,外国会社等,,,,,,,,Ｒｏｏｍ　２０８，Ａ，２２，Ｍａｇｏｋｊｕｎｇａｎｇ　４－ｒｏ　ＳｅｏｕｌＧａｎｇｓｅｏ－ｇｕ０７６３１ＫＲ,,,,,,2024-05-30,1,,,,,ワールドショッペカンパニーリミテッド,0
482,2700150125689,新規,0,2024-05-30,2024-05-30,ウラカミクス,,その他,長崎県,長崎市,浜口町１０－１８,,42,201,8528107,,,,,,,2024-05-30,1,,,,,ウラカミクス,0
487,3010001244294,新規,0,2024-05-30,2024-05-30,ＰＩＮＱＩ株式会社,,株式会社,東京都,中央区,築地４丁目３番４号リッツ銀座２Ａ,,13,102,1040045,,,,,,,2024-05-30,1,,,,,ピンキー,0
488,3010001245210,新規,0,2024-05-30,2024-05-30,株式会社ＵＫプロジェクト,,株式会社,東京都,千代田区,外神田４丁目４番３号秋葉原ＳＩＬビル６階,,13,101,1010021,,,,,,,2024-05-30,1,,,,,ユーケープロジェクト,0
489,3010001245227,新規,0,2024-05-30,2024-05-30,株式会社ＢＲＩＤＧＥ,,株式会社,東京都,千代田区,有楽町１丁目２番２号,,13,101,1000006,,,,,,,2024-05-30,1,,,,,ブリッジ,0
490,3010001245268,新規,0,2024-05-30,2024-05-30,株式会社Ｋ,,株式会社,東京都,中央区,新川２丁目１０番１号,,13,102,1040033,,,,,,,2024-05-30,1,,,,,ケイ,0
491,3010001245284,新規,0,2024-05-30,2024-05-30,キマコーヒー・ジャパン株式会社,,株式会社,東京都,中央区,銀座６丁目１３番１６号銀座ＷａｌｌビルＵＣＦ５０１,,13,102,1040061,,,,,,,2024-05-30,1,,,,,キマコーヒージャパン,0
492,3010001245292,新規,0,2024-05-30,2024-05-30,ＳＭＣＴ株式会社,,株式会社,東京都,中央区,築地３丁目１番４号,,13,102,1040045,,,,,,,2024-05-30,1,,,,,エスエムシーティー,0
505,3010403032702,新規,0,2024-05-30,2024-05-30,ＣｙｒｕｓＯｎｅ合同会社,,合同会社,東京都,港区,元麻布３丁目１番６号,,13,103,1060046,,,,,,,2024-05-30,1,,,,,サイラスワン,0
506,3010403032719,新規,0,2024-05-30,2024-05-30,ＢｏｒｄｅｒｌｅｓｓＴａｓｔｙ合同会社,,合同会社,東京都,港区,東麻布３丁目７－３－３Ｆ,,13,103,1060044,,,,,,,2024-05-30,1,,,,,ボーダレステイスティ,0
508,3010501052354,新規,0,2024-05-30,2024-05-30,株式会社スキナビ,,株式会社,東京都,台東区,下谷１丁目１１―１６メゾンＭＫ１００２,,13,106,1100004,,,,,,,2024-05-30,1,,,,,スキナビ,0
511,3010601065289,新規,0,2024-05-30,2024-05-30,株式会社Ｓｍｉｑｌｅ,,株式会社,東京都,江東区,有明３丁目７番１１号,,13,108,1350063,,,,,,,2024-05-30,1,,,,,スミクル,0
513,3010603010862,新規,0,2024-05-30,2024-05-30,Ｐｏｎｏ合同会社,,合同会社,東京都,墨田区,江東橋４丁目２７―１４楽天地ビル３Ｆ,,13,107,1300022,,,,,,,2024-05-30,1,,,,,ポノ,0
518,3010901055361,新規,0,2024-05-30,2024-05-30,ｅｎｊｉｎ　ｅｎｔｅｒｐｒｉｓｅ株式会社,,株式会社,東京都,世田谷区,千歳台１丁目４１番１７号メゾン千歳台２０７,,13,112,1570071,,,,,,,2024-05-30,1,,,,,エンジンエンタープライズ,0
519,3010903009101,新規,0,2024-05-30,2024-05-30,合同会社ｉＨａｒｂｏｒ　Ｊａｐａｎ,,合同会社,東京都,世田谷区,三軒茶屋１丁目１１番３号,,13,112,1540024,,,,,,,2024-05-30,1,,,,,アイハーバージャパン,0
528,3011003019255,新規,0,2024-05-30,2024-05-30,合同会社ＡＣＭ,,合同会社,東京都,目黒区,中央町１丁目２－２ファインコート目黒１０６,,13,110,1520001,,,,,,,2024-05-30,1,,,,,エイシーエム,0
533,3011401026126,新規,0,2024-05-30,2024-05-30,株式会社Ｅｑｕａｌ　Ｔｒｕｅ,,株式会社,東京都,板橋区,南常盤台１丁目１１番６号レフア南常盤台１０１号室,,13,119,1740072,,,,,,,2024-05-30,1,,,,,イコールトゥルー,0
537,3012403006578,新規,0,2024-05-30,2024-05-30,Ｎａｖｅｌ　Ｓｋｙ合同会社,,合同会社,東京都,調布市,国領町７丁目６１番地１,,13,208,1820022,,,,,,,2024-05-30,1,,,,,ネーブルスカイ,0
538,3013101009427,新規,0,2024-05-30,2024-05-30,百福不動産株式会社,,株式会社,東京都,青梅市,東青梅２丁目１６番地の５賀根井ビル１０１,,13,205,1980042,,,,,,,2024-05-30,1,,,,,,0
540,3013301052557,新規,0,2024-05-30,2024-05-30,Ｏｌｉｖｅ株式会社,,株式会社,東京都,豊島区,巣鴨４丁目２２番１７号１３０３号室,,13,116,1700002,,,,,,,2024-05-30,1,,,,,オリーブ,0
557,3021001082345,新規,0,2024-05-30,2024-05-30,永信株式会社,,株式会社,神奈川県,相模原市中央区,千代田６丁目９番１７号,,14,152,2520237,,,,,,,2024-05-30,1,,,,,エイシン,0
558,3021001082353,新規,0,2024-05-30,2024-05-30,株式会社Ｂｅｅｒｂｏｙ,,株式会社,神奈川県,藤沢市,弥勒寺１丁目９―６,,14,205,2510016,,,,,,,2024-05-30,1,,,,,ビールボーイ,0
564,3030001160597,新規,0,2024-05-30,2024-05-30,株式会社つなぐ,,株式会社,埼玉県,さいたま市浦和区,高砂３丁目１２番２４号小峰ビル,,11,107,3300063,,,,,,,2024-05-30,1,,,,,ツナグ,0
565,3030001160622,新規,0,2024-05-30,2024-05-30,株式会社ジャスト,,株式会社,埼玉県,坂戸市,南町３番１号長太郎坂戸駅前ビル５Ｆ,,11,239,3500233,,,,,,,2024-05-30,1,,,,,ジャスト,0
568,3030003024395,新規,0,2024-05-30,2024-05-30,創世合同会社,,合同会社,埼玉県,蕨市,塚越７丁目２６番６号,,11,223,3350002,,,,,,,2024-05-30,1,,,,,ソウセイ,0
575,3040001133809,新規,0,2024-05-30,2024-05-30,株式会社裕新工建,,株式会社,千葉県,柏市,手賀の杜４丁目８番地８,,12,217,2701447,,,,,,,2024-05-30,1,,,,,ユウシンコウケン,0
576,3040001133825,新規,0,2024-05-30,2024-05-30,ＢｅＢｅ　Ｒｅｔｒｅａｔ株式会社,,株式会社,千葉県,館山市,犬石１６０８番地２,,12,205,2940226,,,,,,,2024-05-30,1,,,,,ベベリトリート,0
579,3040003025079,新規,0,2024-05-30,2024-05-30,合同会社Ｓｅｎｋｉ,,合同会社,千葉県,成田市,本城１７番地２６,,12,211,2860114,,,,,,,2024-05-30,1,,,,,センキ,0
587,3070003005433,新規,0,2024-05-30,2024-05-30,ＴＺ　ＩＮＴＥＲＮＡＴＩＯＮＡＬ合同会社,,合同会社,群馬県,前橋市,岩神町３丁目１５－６,,10,201,3710035,,,,,,,2024-05-30,1,,,,,ティゼトインターナショナル,0
601,3100003007525,新規,0,2024-05-30,2024-05-30,合同会社三地編集室,,合同会社,長野県,塩尻市,大字木曽平沢２４６９－５,,20,215,3996302,,,,,,,2024-05-30,1,,,,,サンチヘンシュウシツ,0
612,3120001265379,新規,0,2024-05-30,2024-05-30,株式会社ヴィッツ,,株式会社,大阪府,大阪市中央区,本町１丁目５番７－９０５号,,27,128,5410053,,,,,,,2024-05-30,1,,,,,ヴィッツ,0
613,3120001265412,新規,0,2024-05-30,2024-05-30,株式会社ネクストドリーム,,株式会社,大阪府,大阪市北区,梅田１丁目２番２号大阪駅前第２ビル１２－１２,,27,127,5300001,,,,,,,2024-05-30,1,,,,,ネクストドリーム,0
614,3120001265429,新規,0,2024-05-30,2024-05-30,旭日昇株式会社,,株式会社,大阪府,大阪市中央区,谷町６丁目６番７号第５松屋ビル１２７２号室,,27,128,5420012,,,,,,,2024-05-30,1,,,,,アサヒショウ,0
616,3120003026713,新規,0,2024-05-30,2024-05-30,ＧＲＯＵＳＥ合同会社,,合同会社,大阪府,大阪市港区,池島３丁目１０番１５号,,27,107,5520015,,,,,,,2024-05-30,1,,,,,グラウス,0
617,3120101069688,新規,0,2024-05-30,2024-05-30,株式会社Ｄ１ＰＬＵＳ,,株式会社,大阪府,和泉市,観音寺町６６２－４,,27,219,5940065,,,,,,,2024-05-30,1,,,,,ディーワンプラス,0
622,3122005003748,新規,0,2024-05-30,2024-05-30,一般社団法人日中柔道友好協会,,その他の設立登記法人,大阪府,東大阪市,大蓮北４丁目６番１１号,00134965,27,227,5770826,,,,,,,2024-05-30,1,,,,,ニッチュウジュウドウユウコウキョウカイ,0
640,3180001161721,新規,0,2024-05-30,2024-05-30,株式会社大方工業,,株式会社,愛知県,常滑市,飛香台４丁目１２番地の７,,23,216,4790868,,,,,,,2024-05-30,1,,,,,オオカタコウギョウ,0
641,3180001161746,新規,0,2024-05-30,2024-05-30,株式会社メクシア,,株式会社,愛知県,名古屋市守山区,苗代２丁目６番１８号宝マンション小幡苗代２１０号,,23,113,4630046,,,,,,,2024-05-30,1,,,,,メクシア,0
642,3180001161762,新規,0,2024-05-30,2024-05-30,株式会社ＬＵＣＡ,,株式会社,愛知県,名古屋市中村区,名駅４丁目２４番５号第２森ビル４０１,,23,105,4500002,,,,,,,2024-05-30,1,,,,,ルカ,0
650,3220001026028,新規,0,2024-05-30,2024-05-30,株式会社ＨＡクリーン,,株式会社,石川県,羽咋市,滝谷町ヌ３０番地,,17,207,9250002,,,,,,,2024-05-30,1,,,,,エイチエークリーン,0
659,3240005015776,新規,0,2024-05-30,2024-05-30,一般社団法人Ｌｅ　Ｂｏｉｓ,,その他の設立登記法人,広島県,広島市中区,西川口町１番１１号パラシオン舟入６０１号,,34,101,7300846,,,,,,,2024-05-30,1,,,,,ルボア,0
661,3260001039117,新規,0,2024-05-30,2024-05-30,株式会社ＭＩＲＩＡＭ,,株式会社,岡山県,倉敷市,中畝４丁目２番２９号,,33,202,7128051,,,,,,,2024-05-30,1,,,,,ミリアム,0
670,3290001105956,新規,0,2024-05-30,2024-05-30,株式会社川原建装,,株式会社,福岡県,福岡市城南区,梅林４丁目５番３５－２０３号,,40,136,8140144,,,,,,,2024-05-30,1,,,,,カワハラケンソウ,0
684,3360001033720,新規,0,2024-05-30,2024-05-30,株式会社ブリッジフォスタージャパン,,株式会社,沖縄県,那覇市,牧志２丁目１７－２７－４０１,,47,201,9000013,,,,,,,2024-05-30,1,,,,,ブリッジフォスタージャパン,0
686,3360005007043,新規,0,2024-05-30,2024-05-30,一般社団法人ＯＰＲＳＵＰＡ’沖縄県赤土利活用推進協会,,その他の設立登記法人,沖縄県,那覇市,字識名２９０番地２１,,47,201,9020078,,,,,,,2024-05-30,1,,,,,オプルスピアオキナワアカツチリカツヨウスイシンキョウカイ,0
689,3400003003279,新規,0,2024-05-30,2024-05-30,合同会社Ｍａｎａ,,合同会社,岩手県,盛岡市,鉈屋町１０番２８号Ｄｉｖｅｒｓｉｔａ２０１,,03,201,0200827,,,,,,,2024-05-30,1,,,,,マナ,0
696,3430001091892,新規,0,2024-05-30,2024-05-30,株式会社エコトピア,,株式会社,北海道,千歳市,千代田町４丁目８番地３,,01,224,0660062,,,,,,,2024-05-30,1,,,,,エコトピア,0
697,3430001091901,新規,0,2024-05-30,2024-05-30,株式会社ＢＲＥＷ,,株式会社,北海道,白老郡白老町,大町３丁目４番１１号Ｂｒｅｗｂｌｄ．１Ｆ,,01,578,0590905,,,,,,,2024-05-30,1,,,,,ブリュー,0
700,3430003016377,新規,0,2024-05-30,2024-05-30,合同会社タイプＩＩ,,合同会社,北海道,札幌市北区,北三十二条西５丁目２－１,,01,102,0010032,,,,,,,2024-05-30,1,,,,,タイプツー,0
704,3450001014331,新規,0,2024-05-30,2024-05-30,株式会社アベリア,,株式会社,北海道,名寄市,西十一条南１０丁目５３番地７４,,01,221,0960021,,,,,,,2024-05-30,1,,,,,アベリア,0
710,3500001025661,新規,0,2024-05-30,2024-05-30,株式会社池田塗装工業,,株式会社,愛媛県,松山市,北斎院町１１６０番地４,,38,201,7918031,,,,,,,2024-05-30,1,,,,,イケダトソウコウギョウ,0
711,3700150123130,新規,0,2024-05-30,2024-05-30,ＷＥＮ　ＺＨＯＵ　ＮＵＯ　ＨＵＡ　ＸＩＮ　ＮＥＮＧ　ＹＵＡＮ　ＹＯＵ　ＸＩＡＮ　ＧＯＮＧ　ＳＩ,,外国会社等,,,,,,,,Ｊｉｎｇｊｉｋａｉｆａｑｕ　Ｗｅｉｓｈｉｙｉｌｕ　２３８ｈａｏ　Ｗｅｎｚｈｏｕ，Ｙｕｅｑｉｎｇ　Ｚｈｅｊｉａｎｇ　３２５６００　ＣＮ,,,,,,2024-05-30,1,,,,,ウェンジョウヌオフアシンナンユアンヨウシエンゴンス,0
712,3700150123147,新規,0,2024-05-30,2024-05-30,ＳＨＥＮＺＨＥＮＳＨＩ　ＹＯＵＴＯＮＧＭＡＯ　ＫＥＪＩＹＯＵＸＩＡＮＧＯＮＧＳＩ,,外国会社等,,,,,,,,ｂａｎｔｉａｎｊｉｅｄａｏ　ｍａａｎｔａｎｇｓｈｅｑｕ　ｂｕｌｏｎｇｌｕ　３６９　ｈａｏ　ｄｏｎｇｈａｉｗａｎｇ　ｇｏｎｇｙｅｑｕ　Ｂ　ｚｕｏ　Ｂ４０１　ｓｈｅｎｚｈｅｎｓｈｉ　ｌｏｎｇｇａｎｇｑｕ　ｇｕａｎｇｄｏｎｇ　５１８０００　ＣＮ,,,,,,2024-05-30,1,,,,,シェンジェンシヨウトンマオクージヨウシエンゴンス,0
713,3700150125688,新規,0,2024-05-30,2024-05-30,ＰＩＮＧＨＵ　ＪＵＣＨＥＮＧ　ＬＵＧＧＡＧＥ　ＢＡＧＳ　ＣＯ．，ＬＴＤ,,外国会社等,,,,,,,,ｐｉｎｇｈｕｊｉｎｇｊｉｊｉｓｈｕｋａｉｆａｑｕｆｕｓｈａｎｘｉａｎｚｈｏｎｇｎａｎｘｕａｎ１００１ｈａｏ２０８ｓｈｉ,,,,,,2024-05-30,1,,,,,ヘイコウシュウセイラッゲージバッグカンパニーリミティッド,0
725,4010001245291,新規,0,2024-05-30,2024-05-30,１５ｔｈ　Ｒｏｃｋ株式会社,,株式会社,東京都,千代田区,神田小川町３丁目２８番地５ａｘｌｅ御茶ノ水１０１号室,,13,101,1010052,,,,,,,2024-05-30,1,,,,,フィフティーンスロック,0
727,4010003043875,新規,0,2024-05-30,2024-05-30,合同会社ＫＳＩＦ２,,合同会社,東京都,千代田区,内幸町２丁目１番６号,,13,101,1000011,,,,,,,2024-05-30,1,,,,,ケイエスアイエフツー,0
728,4010005038353,新規,0,2024-05-30,2024-05-30,一般社団法人日本事業承継リテラシー協会,,その他の設立登記法人,東京都,千代田区,平河町１丁目５番１５号ＶＯＲＴ平河町２０２,,13,101,1020093,,,,,,,2024-05-30,1,,,,,ニホンジギョウショウケイリテラシーキョウカイ,0
749,4010903009091,新規,0,2024-05-30,2024-05-30,合同会社ｅｇａｏ,,合同会社,東京都,世田谷区,上北沢４丁目１３番１４号１Ｆ,,13,112,1560057,,,,,,,2024-05-30,1,,,,,イーガオ,0
752,4011001162312,新規,0,2024-05-30,2024-05-30,スターティングオーバー株式会社,,株式会社,東京都,渋谷区,東３丁目１７－１７メルベイユ恵比寿６０１,,13,113,1500011,,,,,,,2024-05-30,1,,,,,スターティングオーバー,0
754,4011003019254,新規,0,2024-05-30,2024-05-30,合同会社ＬＣＫ,,合同会社,東京都,渋谷区,本町３丁目４５－１３ルーツ渋谷本町２０１,,13,113,1510071,,,,,,,2024-05-30,1,,,,,エルシーケー,0
760,4011105011043,新規,0,2024-05-30,2024-05-30,税理士法人ＦＹＫパートナーズ,,その他の設立登記法人,東京都,新宿区,原町１丁目１０－４－３０２,,13,104,1620053,,,,,,,2024-05-30,1,,,,,エフワイケーパートナーズ,0
762,4011503006082,新規,0,2024-05-30,2024-05-30,合同会社わたしの棲家,,合同会社,東京都,荒川区,南千住６丁目６２－２,,13,118,1160003,,,,,,,2024-05-30,1,,,,,ワタシノセイカ,0
763,4011701027335,新規,0,2024-05-30,2024-05-30,株式会社アトオシ,,株式会社,東京都,江戸川区,船堀２丁目１３―８ＡＭ１ビル４０２,,13,123,1340091,,,,,,,2024-05-30,1,,,,,アトオシ,0
769,4012803003389,新規,0,2024-05-30,2024-05-30,合同会社ｍｏｒｅ　ｋｉｔ,,合同会社,東京都,日野市,南平９丁目２７―４５,,13,212,1910041,,,,,,,2024-05-30,1,,,,,モアーキット,0
778,4020001157478,新規,0,2024-05-30,2024-05-30,スポーツコミュニティテック株式会社,,株式会社,神奈川県,横浜市西区,北幸２丁目９番３０号横浜西口加藤ビル４階,,14,103,2200004,,,,,,,2024-05-30,1,,,,,スポーツコミュニティテック,0
779,4020001157511,新規,0,2024-05-30,2024-05-30,株式会社瑞禾技術,,株式会社,神奈川県,川崎市多摩区,中野島５丁目４－３８ユナイトＫ’ｓ中野島２０１号室,,14,135,2140012,,,,,,,2024-05-30,1,,,,,ミズカギジュツ,0
783,4020003026227,新規,0,2024-05-30,2024-05-30,合同会社Ａｉｓｉｎ,,合同会社,神奈川県,横浜市旭区,金が谷２丁目１番１４－２０６号,,14,112,2410812,,,,,,,2024-05-30,1,,,,,アイシン,0
784,4020005016440,新規,0,2024-05-30,2024-05-30,一般社団法人Ｎｅｓｓｉｅ,,その他の設立登記法人,神奈川県,川崎市多摩区,長尾４丁目１０番３－３号,,14,135,2140023,,,,,,,2024-05-30,1,,,,,ネッシー,0
790,4021003014568,新規,0,2024-05-30,2024-05-30,Ｍｑｌａｙ合同会社,,合同会社,神奈川県,大和市,上草柳６丁目２１番４－２号,,14,213,2420029,,,,,,,2024-05-30,1,,,,,エムクレイ,0
791,4021005013122,新規,0,2024-05-30,2024-05-30,特定非営利活動法人箱根町・ジュニアゴルフアカデミー,,その他の設立登記法人,神奈川県,足柄下郡箱根町,仙石原１２４５番地,,14,382,2500631,,,,,,,2024-05-30,1,,,,,ハコネマチジュニアゴルフアカデミー,0
796,4030001160613,新規,0,2024-05-30,2024-05-30,株式会社Ｙ’Ｓ　ＰＡＬ　ＧＡＲＤＥＮ,,株式会社,埼玉県,草加市,新善町２０５番地,,11,221,3400054,,,,,,,2024-05-30,1,,,,,ワイズパルガーデン,0
800,4030003024394,新規,0,2024-05-30,2024-05-30,合同会社ころおら,,合同会社,埼玉県,深谷市,中瀬１６２１－５,,11,218,3660001,,,,,,,2024-05-30,1,,,,,コロオラ,0
808,4040003025094,新規,0,2024-05-30,2024-05-30,農林和人組合合同会社,,合同会社,千葉県,成田市,ウイング土屋２５４番地２Ｆ,,12,211,2860029,,,,,,,2024-05-30,1,,,,,ノウリンワジンクミアイ,0
810,4050001054846,新規,0,2024-05-30,2024-05-30,株式会社バームオンコネクト,,株式会社,茨城県,牛久市,さくら台２丁目１１番地２,,08,219,3001217,,,,,,,2024-05-30,1,,,,,バームオンコネクト,0
813,4060001037156,新規,0,2024-05-30,2024-05-30,株式会社Ｃｏｍｆｏｒｔ・ａｎ,,株式会社,栃木県,宇都宮市,砥上町３２９番地２５,,09,201,3200856,,,,,,,2024-05-30,1,,,,,コンフォートアン,0
819,4070003005440,新規,0,2024-05-30,2024-05-30,合同会社ａｔａｌｔ,,合同会社,群馬県,太田市,藪塚町２０７１番地１３,,10,205,3792301,,,,,,,2024-05-30,1,,,,,アットルト,0
822,4080101024770,新規,0,2024-05-30,2024-05-30,株式会社浩徳,,株式会社,静岡県,熱海市,下多賀１３８－１,,22,205,4130102,,,,,,,2024-05-30,1,,,,,コウトク,0
829,4110001038446,新規,0,2024-05-30,2024-05-30,株式会社三越工業,,株式会社,新潟県,上越市,頸城区上吉３５０番地１１,,15,222,9420145,,,,,,,2024-05-30,1,,,,,サンエツコウギョウ,0
838,4120001265386,新規,0,2024-05-30,2024-05-30,株式会社エープレイス,,株式会社,大阪府,大阪市西成区,旭３丁目４番２７号,,27,122,5570032,,,,,,,2024-05-30,1,,,,,エープレイス,0
839,4120001265403,新規,0,2024-05-30,2024-05-30,株式会社生駒ホールディングス,,株式会社,大阪府,寝屋川市,梅が丘１丁目５番３９号,,27,215,5720803,,,,,,,2024-05-30,1,,,,,イコマホールディングス,0
840,4120001265460,新規,0,2024-05-30,2024-05-30,賦楽株式会社,,株式会社,大阪府,大阪市東淀川区,豊新５丁目１２－５５ビルディングＶＩＩ４０３,00134963,27,114,5330014,,,,,,,2024-05-30,1,,,,,フラク,0
841,4120001265469,新規,0,2024-05-30,2024-05-30,株式会社ｍ．ｍ,,株式会社,大阪府,大阪市生野区,巽北４丁目３番３２－５０５号,00134966,27,116,5440004,,,,,,,2024-05-30,1,,,,,エムエム,0
845,4120005024350,新規,0,2024-05-30,2024-05-30,一般社団法人おとなりさん,,その他の設立登記法人,大阪府,大阪市天王寺区,石ケ辻町１４－１４,,27,109,5430031,,,,,,,2024-05-30,1,,,,,オトナリサン,0
849,4120101069670,新規,0,2024-05-30,2024-05-30,株式会社岡本工務店,,株式会社,大阪府,堺市南区,檜尾１４５６番地,,27,145,5900142,,,,,,,2024-05-30,1,,,,,オカモトコウムテン,0
854,4122005003747,新規,0,2024-05-30,2024-05-30,一般社団法人柏咲,,その他の設立登記法人,大阪府,東大阪市,永和１丁目３番１０－６０５号,,27,227,5770809,,,,,,,2024-05-30,1,,,,,カシワエミ,0
857,4130001077079,新規,0,2024-05-30,2024-05-30,株式会社ＧｒｅｅｅｔＨ,,株式会社,京都府,綾部市,高津町前地９,,26,203,6230045,,,,,,,2024-05-30,1,,,,,グリース,0
858,4130001077137,新規,0,2024-05-30,2024-05-30,株式会社ワタナベメタリック,,株式会社,京都府,京都市右京区,梅津フケノ川町２０番地２９,,26,108,6150921,,,,,,,2024-05-30,1,,,,,ワタナベメタリック,0
859,4130001077145,新規,0,2024-05-30,2024-05-30,株式会社ＥＭＩＬＵＳ不動産,,株式会社,京都府,長岡京市,開田４丁目３４番７号,,26,209,6170826,,,,,,,2024-05-30,1,,,,,エミラスフドウサン,0
876,4180001161720,新規,0,2024-05-30,2024-05-30,日本レジン株式会社,,株式会社,愛知県,名古屋市熱田区,千代田町３番２１号,,23,109,4560073,,,,,,,2024-05-30,1,,,,,ニホンレジン,0
877,4180001161729,新規,0,2024-05-30,2024-05-30,株式会社ＹＴアグリ,,株式会社,愛知県,弥富市,境町２６２番地,,23,235,4980055,,,,,,,2024-05-30,1,,,,,ワイティアグリ,0
878,4180001161737,新規,0,2024-05-30,2024-05-30,株式会社ＥＣＶＥＬ,,株式会社,愛知県,名古屋市東区,筒井２丁目３番８号,,23,102,4610003,,,,,,,2024-05-30,1,,,,,エクベル,0
886,4240001063290,新規,0,2024-05-30,2024-05-30,金次陽和株式会社,,株式会社,広島県,広島市中区,鶴見町１４番３－５０３号,,34,101,7300045,,,,,,,2024-05-30,1,,,,,カネツギヨウワ,0
887,4240003006693,新規,0,2024-05-30,2024-05-30,ＰｉＰＰｉＲＯＰＰＯ合同会社,,合同会社,広島県,広島市西区,高須台６丁目１４番１８号,,34,104,7330876,,,,,,,2024-05-30,1,,,,,ピッピロッポ,0
890,4250001020670,新規,0,2024-05-30,2024-05-30,株式会社セミナル,,株式会社,山口県,下関市,卸新町６番地の５,,35,201,7510818,,,,,,,2024-05-30,1,,,,,セミナル,0
892,4260001039116,新規,0,2024-05-30,2024-05-30,日生クルーサービス株式会社,,株式会社,岡山県,備前市,日生町寒河２５９５番地２７,,33,211,7013202,,,,,,,2024-05-30,1,,,,,ヒナセクルーサービス,0
896,4290001105947,新規,0,2024-05-30,2024-05-30,株式会社ｅｓｕｔｙ,,株式会社,福岡県,飯塚市,目尾５０４番地２３,,40,205,8200062,,,,,,,2024-05-30,1,,,,,エスティー,0
900,4300005007196,新規,0,2024-05-30,2024-05-30,一般社団法人佐賀県断酒連合会,,その他の設立登記法人,佐賀県,神埼市,神埼町本堀３１５０番地２９,,41,210,8420003,,,,,,,2024-05-30,1,,,,,サガケンダンシュレンゴウカイ,0
901,4310003004797,新規,0,2024-05-30,2024-05-30,小柳合同会社,00134958,合同会社,長崎県,諫早市,森山町慶師野１６９４番地,,42,204,8540202,,,,,,,2024-05-30,1,,,,,コヤナギ,0
903,4320001020498,新規,0,2024-05-30,2024-05-30,株式会社Ｓｅｅｄｌｉｎｇ’ｓ,,株式会社,大分県,大分市,中央町１丁目４番２４号大分セントラルビル２Ｆ　ＯＩＴＡ　ＭＩＤＴＯＷＮ,,44,201,8700035,,,,,,,2024-05-30,1,,,,,シードリンズ,0
904,4320003004383,新規,0,2024-05-30,2024-05-30,合同会社モッスィン’Ｓ,,合同会社,大分県,大分市,都町２丁目５番３０号第１ピカソ会館１階,,44,201,8700034,,,,,,,2024-05-30,1,,,,,モッスィンズ,0
918,4410005006591,新規,0,2024-05-30,2024-05-30,一般社団法人ライフデザイン,,その他の設立登記法人,秋田県,由利本荘市,荒町字真城６７番地１,,05,210,0150065,,,,,,,2024-05-30,1,,,,,ライフデザイン,0
922,4430001091900,新規,0,2024-05-30,2024-05-30,株式会社西脇農園,,株式会社,北海道,江別市,篠津５３４番地,,01,217,0670055,,,,,,,2024-05-30,1,,,,,ニシワキノウエン,0
923,4430001091909,新規,0,2024-05-30,2024-05-30,株式会社ティエヌライン,,株式会社,北海道,札幌市豊平区,月寒東二条１６丁目９番１５号,,01,105,0620052,,,,,,,2024-05-30,1,,,,,ティエヌライン,0
927,4500001025660,新規,0,2024-05-30,2024-05-30,株式会社平野真珠,,株式会社,愛媛県,宇和島市,津島町平井１１９番地,,38,203,7983335,,,,,,,2024-05-30,1,,,,,ヒラノシンジュ,0
930,4700150125695,新規,0,2024-05-30,2024-05-30,株式会社　イゴンイゴン,,外国会社等,東京都,荒川区,東日暮里５丁目４９番８－２０１号,,13,118,1160014,大韓民国ソウル特別市瑞草区瑞雲路６ギル２２，２階（瑞草洞）,,,,,,2024-05-30,1,,,,,カブシキガイシヤイゴンイゴン,0
937,5010001245217,新規,0,2024-05-30,2024-05-30,株式会社ＧＬ,,株式会社,東京都,千代田区,神田多町２丁目５番１号神田サイトウビル４Ｆ,,13,101,1010046,,,,,,,2024-05-30,1,,,,,ジーエル,0
938,5010001245290,新規,0,2024-05-30,2024-05-30,株式会社Ｃｈａａａａｒｍ,,株式会社,東京都,中央区,銀座１丁目１２番４号Ｎ＆ＥＢＬＤ．６Ｆ,,13,102,1040061,,,,,,,2024-05-30,1,,,,,チャーム,0
939,5010001245299,新規,0,2024-05-30,2024-05-30,Ａ．Ｐ．ホールディングス株式会社,,株式会社,東京都,千代田区,霞が関３丁目２番５号,,13,101,1000013,,,,,,,2024-05-30,1,,,,,エイピーホールディングス,0
940,5010001245332,新規,0,2024-05-30,2024-05-30,怡嘉商事株式会社,,株式会社,東京都,千代田区,神田平河町１番地第３東ビル６ＦイーオフィスＡＫＩＢＡ３番館３９号室,,13,101,1010027,,,,,,,2024-05-30,1,,,,,イカショウジ,0
941,5010001245357,新規,0,2024-05-30,2024-05-30,株式会社ｐｌｕｓ　ｒｅｐｏｓ,,株式会社,東京都,中央区,晴海５丁目１番１７－１９１５号,,13,102,1040053,,,,,,,2024-05-30,1,,,,,プラスルポ,0
944,5010003043841,新規,0,2024-05-30,2024-05-30,合同会社ＡＤＡＭＡＳ,,合同会社,東京都,中央区,日本橋室町１丁目１１－１２日本橋水野ビル７階,,13,102,1030022,,,,,,,2024-05-30,1,,,,,アダマス,0
945,5010003043858,新規,0,2024-05-30,2024-05-30,合同会社ＨＭＣ　Ｈｉｒｏｎｏ　ｍｅｄｉｃａｌ　ｃｏｎｓｕｌｔｉｎｇ,,合同会社,東京都,文京区,西片２丁目５番１６号,,13,105,1130024,,,,,,,2024-05-30,1,,,,,エイチエムシーヒロノメディカルコンサルティング,0
953,5010501052360,新規,0,2024-05-30,2024-05-30,株式会社ＥＧＰＧ,,株式会社,東京都,台東区,秋葉原１番５号ヨリモトビル３階,,13,106,1100006,,,,,,,2024-05-30,1,,,,,イージーピージー,0
954,5010501052369,新規,0,2024-05-30,2024-05-30,株式会社Ａｒｒａｎｇｅ　ｗｏｒｋｓ,,株式会社,東京都,台東区,小島２丁目２０番１１号,,13,106,1110056,,,,,,,2024-05-30,1,,,,,アレンジワークス,0
959,5010701046071,新規,0,2024-05-30,2024-05-30,株式会社ＵＫＲ＆Ｉ,,株式会社,東京都,品川区,東五反田５丁目２２－３７オフィスサークルＮ五反田２Ｆ,,13,109,1410022,,,,,,,2024-05-30,1,,,,,ユーケーアールアンドアイ,0
960,5010801035098,新規,0,2024-05-30,2024-05-30,ＩＭＡ株式会社,,株式会社,東京都,大田区,山王２丁目５番１３号大森北口ビル５Ｆ,,13,111,1430023,,,,,,,2024-05-30,1,,,,,アイエムエー,0
961,5010801035107,新規,0,2024-05-30,2024-05-30,株式会社ｇｕｒｉｍａｒｏ,,株式会社,東京都,大田区,大森本町１丁目２番３－３０１号,,13,111,1430011,,,,,,,2024-05-30,1,,,,,グリマロ,0
966,5010901055376,新規,0,2024-05-30,2024-05-30,株式会社ＭＨデザイン,,株式会社,東京都,世田谷区,等々力６丁目１３番１０号,,13,112,1580082,,,,,,,2024-05-30,1,,,,,エムエイチデザイン,0
972,5011001162328,新規,0,2024-05-30,2024-05-30,ＬＵＪＯ株式会社,,株式会社,東京都,渋谷区,神宮前６丁目２３番４号桑野ビル２階,,13,113,1500001,,,,,,,2024-05-30,1,,,,,ルジョー,0
973,5011003019278,新規,0,2024-05-30,2024-05-30,Ｂｅａｒ　Ｒｏｂｏｔｉｃｓ　Ｊａｐａｎ合同会社,,合同会社,東京都,渋谷区,千駄ヶ谷５丁目２７番５号,,13,113,1510051,,,,,,,2024-05-30,1,,,,,ベアロボティクスジャパン,0
981,5011701027318,新規,0,2024-05-30,2024-05-30,株式会社日本資材梱包,,株式会社,東京都,江戸川区,清新町１丁目４番７－７０８号,,13,123,1340087,,,,,,,2024-05-30,1,,,,,ニホンシザイコンポウ,0
983,5011801044295,新規,0,2024-05-30,2024-05-30,株式会社飛龍,,株式会社,東京都,足立区,皿沼２丁目８－１５－４０１号,,13,121,1230862,,,,,,,2024-05-30,1,,,,,ヒリュウ,0
987,5012403006592,新規,0,2024-05-30,2024-05-30,ＡＫＫＡ合同会社,,合同会社,東京都,狛江市,駒井町１丁目２７‐２,,13,219,2010016,,,,,,,2024-05-30,1,,,,,アッカ,0
997,5020001157477,新規,0,2024-05-30,2024-05-30,株式会社Ｒｅｌｏａｄ,,株式会社,神奈川県,横浜市戸塚区,東俣野町１８６番地２,,14,110,2450065,,,,,,,2024-05-30,1,,,,,リロード,0
998,5020001157493,新規,0,2024-05-30,2024-05-30,株式会社エムケイ三丸,,株式会社,神奈川県,横浜市青葉区,つつじが丘２７番地５７,,14,117,2270055,,,,,,,2024-05-30,1,,,,,エムケイミツマル,0
999,5020001157502,新規,0,2024-05-30,2024-05-30,株式会社レディナイト,,株式会社,神奈川県,横浜市西区,北幸２丁目１０番４８号むつみビル３階,,14,103,2200004,,,,,,,2024-05-30,1,,,,,レディナイト,0
1000,5020001157510,新規,0,2024-05-30,2024-05-30,藍海株式会社,,株式会社,神奈川県,横浜市中区,本牧町２丁目３０４加藤ビル３０１Ｂ号室,,14,104,2310806,,,,,,,2024-05-30,1,,,,,ブルーオーシャン,0
1001,5020001157519,新規,0,2024-05-30,2024-05-30,株式会社ＰＡＬＡＮＱＵＩＮ,,株式会社,神奈川県,川崎市川崎区,東田町８,,14,131,2100005,,,,,,,2024-05-30,1,,,,,パランクイン,0
1006,5021001082343,新規,0,2024-05-30,2024-05-30,株式会社ＷＴ,,株式会社,神奈川県,藤沢市,鵠沼東４番２～２０４号,,14,205,2510026,,,,,,,2024-05-30,1,,,,,ダブルティー,0
1007,5021001082351,新規,0,2024-05-30,2024-05-30,株式会社Ｔ・ＣＯＮＳＵＬＴＩＮＧ　ＦＩＲＭ,,株式会社,神奈川県,中郡大磯町,西小磯２６１番地４５,,14,341,2550005,,,,,,,2024-05-30,1,,,,,ティーコンサルティングファーム,0
1010,5030001160612,新規,0,2024-05-30,2024-05-30,株式会社ＩＤＯＭＥひとよし訪問看護ステーション,,株式会社,埼玉県,熊谷市,玉井５丁目１０２番地,,11,202,3600853,,,,,,,2024-05-30,1,,,,,イドメヒトヨシホウモンカンゴステーション,0
1011,5030001160620,新規,0,2024-05-30,2024-05-30,株式会社ラピルス,,株式会社,埼玉県,東松山市,大字東平１３７７番地６４,,11,212,3550002,,,,,,,2024-05-30,1,,,,,ラピルス,0
1012,5030001160629,新規,0,2024-05-30,2024-05-30,株式会社なかにわＢＡＳＥ,,株式会社,埼玉県,さいたま市岩槻区,本町４丁目２番２号,,11,110,3390057,,,,,,,2024-05-30,1,,,,,ナカニワベース,0
1014,5030003024393,新規,0,2024-05-30,2024-05-30,Ｐｒｅｃｉｏｕｓ合同会社,,合同会社,埼玉県,川口市,大字安行領家７１６番地の１５,,11,203,3340058,,,,,,,2024-05-30,1,,,,,プレシャス,0
1018,5040001133807,新規,0,2024-05-30,2024-05-30,株式会社ＡＣＭ,,株式会社,千葉県,旭市,川口２１１２番地１,,12,215,2892535,,,,,,,2024-05-30,1,,,,,エーシーエム,0
1019,5040001133815,新規,0,2024-05-30,2024-05-30,株式会社ＨＹＳ,,株式会社,千葉県,富津市,大堀１丁目１５番地２,,12,226,2930001,,,,,,,2024-05-30,1,,,,,エイチワイエス,0
1020,5040001133823,新規,0,2024-05-30,2024-05-30,Ｘ‐Ｃａｍｐ株式会社,,株式会社,千葉県,柏市,大津ケ丘４丁目５番地２１棟４０２室,,12,217,2770921,,,,,,,2024-05-30,1,,,,,エックスキャンプ,0
1022,5040005022411,新規,0,2024-05-30,2024-05-30,土地家屋調査士法人いとう登記測量事務所,,その他の設立登記法人,千葉県,松戸市,西馬橋蔵元町１２５番地ムトービル２Ｆ,,12,207,2710046,,,,,,,2024-05-30,1,,,,,イトウトウキソクリョウジムショ,0
1024,5050001054820,新規,0,2024-05-30,2024-05-30,株式会社川井工務店,,株式会社,茨城県,つくば市,研究学園７丁目３２番地４,,08,220,3050817,,,,,,,2024-05-30,1,,,,,カワイコウムテン,0
1025,5050001054837,新規,0,2024-05-30,2024-05-30,株式会社プラマー,,株式会社,茨城県,北茨城市,中郷町松井１７１番地１８５,,08,215,3191557,,,,,,,2024-05-30,1,,,,,プラマー,0
1031,5060005010208,新規,0,2024-05-30,2024-05-30,一般社団法人里山リビング,,その他の設立登記法人,栃木県,那須郡那須町,大字豊原丙１３４０那須まちづくり広場２２２号室,,09,407,3293225,,,,,,,2024-05-30,1,,,,,サトヤマリビング,0
1032,5070001041791,新規,0,2024-05-30,2024-05-30,株式会社Ｌｉｌｙ,,株式会社,群馬県,前橋市,南町３丁目５０番地２プラザアン２階Ｄ－６４,,10,201,3710805,,,,,,,2024-05-30,1,,,,,リリー,0
1040,5110003005410,新規,0,2024-05-30,2024-05-30,合同会社かしこ,,合同会社,新潟県,佐渡市,羽吉１０５２,,15,224,9520004,,,,,,,2024-05-30,1,,,,,カシコ,0
1046,5120001265369,新規,0,2024-05-30,2024-05-30,エリートジャパン株式会社,,株式会社,大阪府,大阪市北区,西天満４丁目３番１１号西天満ＦＵＫＵＥビル６０２,,27,127,5300047,,,,,,,2024-05-30,1,,,,,エリートジャパン,0
1047,5120001265402,新規,0,2024-05-30,2024-05-30,株式会社学習塾ルート,,株式会社,大阪府,大阪市天王寺区,逢阪２丁目３番２号リンクハウス天王寺ビル４階,,27,109,5430062,,,,,,,2024-05-30,1,,,,,ガクシュウジュクルート,0
1048,5120001265419,新規,0,2024-05-30,2024-05-30,ホールイン・ワン株式会社,,株式会社,大阪府,大阪市北区,中崎西４丁目３番４１号,,27,127,5300015,,,,,,,2024-05-30,1,,,,,ホールインワン,0
1056,5120901049251,新規,0,2024-05-30,2024-05-30,株式会社Ｒａｙｍａｙ,,株式会社,大阪府,豊中市,浜１丁目２８－１１－２０７,,27,203,5610817,,,,,,,2024-05-30,1,,,,,レイメイ,0
1061,5130005017105,新規,0,2024-05-30,2024-05-30,一般社団法人ＳＥＬＥＮＥ,,その他の設立登記法人,京都府,京都市伏見区,淀池上町９６番地９,,26,109,6130904,,,,,,,2024-05-30,1,,,,,セレーネ,0
1065,5140001134398,新規,0,2024-05-30,2024-05-30,株式会社Ｓｔａｎｄ　Ｂｙ　Ｌｉｆｅ,,株式会社,兵庫県,宝塚市,山手台東３丁目１６－１３,,28,214,6650887,,,,,,,2024-05-30,1,,,,,スタンドバイライフ,0
1066,5140001134605,新規,0,2024-05-30,2024-05-30,株式会社Ｃｏｃｏ’ｎ,,株式会社,兵庫県,姫路市,勝原区熊見９１クリーンピア京見１０４,,28,201,6711211,,,,,,,2024-05-30,1,,,,,ココン,0
1068,5140003020621,新規,0,2024-05-30,2024-05-30,ｅｆｆｏｒｔ合同会社,,合同会社,兵庫県,神戸市中央区,北長狭通５丁目１－７－２０３号,,28,110,6500012,,,,,,,2024-05-30,1,,,,,エフォール,0
1069,5150001027312,新規,0,2024-05-30,2024-05-30,Ｒ２Ｋ株式会社,,株式会社,奈良県,天理市,別所町２６６番地ハイツメビウスＡ棟２０１,,29,204,6320018,,,,,,,2024-05-30,1,,,,,アールツーケー,0
1079,5180001161728,新規,0,2024-05-30,2024-05-30,株式会社ｄｉｆｓ,,株式会社,愛知県,一宮市,北今字小家１７６７番地,,23,203,4940004,,,,,,,2024-05-30,1,,,,,ディフス,0
1082,5180003026854,新規,0,2024-05-30,2024-05-30,合同会社Ｓｏｒｔｅ,,合同会社,愛知県,名古屋市中村区,太閤１丁目２０番１０号名古屋プレミアム医療モール太閤４階,,23,105,4530801,,,,,,,2024-05-30,1,,,,,ソルテ,0
1083,5180003026862,新規,0,2024-05-30,2024-05-30,ＴＳ合同会社,,合同会社,愛知県,名古屋市天白区,植田山２丁目５０８番地の２,,23,116,4680001,,,,,,,2024-05-30,1,,,,,ティエス,0
1086,5220003003758,新規,0,2024-05-30,2024-05-30,合同会社ＴＲＡＣＫ,,合同会社,石川県,金沢市,堅田町甲３３番地４,,17,201,9200164,,,,,,,2024-05-30,1,,,,,トラック,0
1089,5230001020366,新規,0,2024-05-30,2024-05-30,株式会社レガーレ,,株式会社,富山県,砺波市,芹谷１０１９番地,,16,208,9391416,,,,,,,2024-05-30,1,,,,,レガーレ,0
1096,5260001039115,新規,0,2024-05-30,2024-05-30,Ｎｉｎｅ株式会社,,株式会社,岡山県,赤磐市,東窪田４４９番地５,,33,213,7012223,,,,,,,2024-05-30,1,,,,,ナイン,0
1101,5290001105962,新規,0,2024-05-30,2024-05-30,株式会社ＳＣＫコンサルティング,,株式会社,福岡県,福岡市中央区,大濠１丁目１０番８－３０６号,,40,133,8100052,,,,,,,2024-05-30,1,,,,,エスシーケーコンサルティング,0
1102,5290001105987,新規,0,2024-05-30,2024-05-30,株式会社金盃,,株式会社,福岡県,福岡市博多区,博多駅南２丁目８－３２－４０２室,,40,132,8120016,,,,,,,2024-05-30,1,,,,,キンパイ,0
1105,5290801030600,新規,0,2024-05-30,2024-05-30,株式会社セラビ北九州,,株式会社,福岡県,北九州市小倉北区,浅野３丁目８番１号,,40,106,8020001,,,,,,,2024-05-30,1,,,,,セラビキタキュウシュウ,0
1106,5290801030609,新規,0,2024-05-30,2024-05-30,株式会社ワイズ不動産,,株式会社,福岡県,京都郡苅田町,大字尾倉３４０２番地１,,40,621,8000353,,,,,,,2024-05-30,1,,,,,ワイズフドウサン,0
1110,5350003004660,新規,0,2024-05-30,2024-05-30,合同会社Ｌｉｅｎ,,合同会社,宮崎県,宮崎市,中央通１番１０号第一ビル３Ｆ,,45,201,8800002,,,,,,,2024-05-30,1,,,,,リアン,0
1112,5360003014023,新規,0,2024-05-30,2024-05-30,合同会社ｈａｐｐｉｎｅｓｓ　ｆａｒｍｌａｎｄ,,合同会社,沖縄県,浦添市,西原５丁目６番２号,,47,208,9012101,,,,,,,2024-05-30,1,,,,,ハピネスファームランド,0
1116,5390003002248,新規,0,2024-05-30,2024-05-30,合同会社長谷部農園,,合同会社,山形県,南陽市,法師柳３１７,,06,213,9992267,,,,,,,2024-05-30,1,,,,,ハセベノウエン,0
1117,5400001016669,新規,0,2024-05-30,2024-05-30,株式会社スペース,,株式会社,岩手県,北上市,和賀町長沼４地割１９２番地４,,03,206,0240333,,,,,,,2024-05-30,1,,,,,スペース,0
1126,5440001009446,新規,0,2024-05-30,2024-05-30,株式会社Ｇｒｏｗｓ,,株式会社,北海道,函館市,神山３丁目２６番３号,,01,202,0410832,,,,,,,2024-05-30,1,,,,,グロース,0
1137,5700150119300,新規,0,2024-05-30,2024-05-30,ｓｈｅｎｚｈｅｎｓｈｉｘｕｆａｋｅｋｅｊｉｙｏｕｘｉａｎｇｏｎｇｓｉ,,外国会社等,,,,,,,,ｓｈｅｎｚｈｅｎｓｈｉ，ｌｏｎｇｈｕａｑｕ，ｌｏｎｇｈｕａｊｉｅｄａｏ，ｆｕｋａｎｇｓｈｅｑｕ，ｄｏｎｇｈｕａｎｅｒｌｕ６１ｈａｏ，ｙｉｎｇｂｏｂａｎｇｏｎｇｌｏｕＧ１６２，ｓｈｅｎｚｈｅｎ，ｇｕａｎｇｄｏｎｇ,,,,,,2024-05-30,1,,,,,ジェンジェンシシュイファコァコァジヨウシエンゴンス,0
1138,5700150123153,新規,0,2024-05-30,2024-05-30,ＳＨＥＮＺＨＥＮＳＨＩＲＯＮＧＳＨＩＳＩＨＥＫＥＪＩＹＯＵＸＩＡＮＧＯＮＧＳＩ,,外国会社等,,,,,,,,ｂａｎｔｉａｎｊｉｅｄａｏｗｕｈｅｓｈｅｑｕ　ｍｉｎｙｉｎｇｚｈｕｚｈａｉｑｕｂａｘｉａｎｇ１ｈａｏ３０１　ｌｏｎｇｇａｎｇｑｕ　ｓｈｅｎｚｈｅｎ　５１８１２９　ＣＮ,,,,,,2024-05-30,1,,,,,シェンジェンシロンシスーホークージヨウシエンゴンス,0
1139,5700150125694,新規,0,2024-05-30,2024-05-30,Ｌ－Ｔｅｃｈ　Ｌａｎｋａ,,外国会社等,千葉県,八街市,東吉田７７９番地４,,12,230,2891114,スリランカ民主社会主義共和国、アラワトゥゴダ、アクラナ、マタレロード、９ｔｈマイルポスト、Ｎｏ．６９５／１Ａ,,,,,,2024-05-30,1,,,,,エルテツクランカ,0
1155,6010001245182,新規,0,2024-05-30,2024-05-30,株式会社エスアセットマネジメント,,株式会社,東京都,文京区,千駄木３丁目１２番２７号,,13,105,1130022,,,,,,,2024-05-30,1,,,,,エスアセットマネジメント,0
1156,6010001245298,新規,0,2024-05-30,2024-05-30,Ｐ．Ｓ．株式会社,,株式会社,東京都,千代田区,神田神保町２丁目１０番地,,13,101,1010051,,,,,,,2024-05-30,1,,,,,ピーエス,0
1164,6010403032732,新規,0,2024-05-30,2024-05-30,合同会社ＭＫハーモニー,,合同会社,東京都,港区,南青山２丁目２番１５号,,13,103,1070062,,,,,,,2024-05-30,1,,,,,エムケイハーモニー,0
1165,6010501052368,新規,0,2024-05-30,2024-05-30,日本新起点医療用品株式会社,,株式会社,東京都,台東区,台東２丁目２７番３号ＮＳＫビル１０Ｆ,,13,106,1100016,,,,,,,2024-05-30,1,,,,,ニホンシンキテンイリョウヨウヒン,0
1170,6010801035089,新規,0,2024-05-30,2024-05-30,＿鵬商事株式会社,00134967,株式会社,東京都,大田区,西蒲田７丁目２２番７－９０１号,,13,111,1440051,,,,,,,2024-05-30,1,,,,,キンホウショウジ,0
1173,6010903008991,新規,0,2024-05-30,2024-05-30,ＫＡＮＡＥ　ＩＮＣ．合同会社,,合同会社,東京都,世田谷区,中町４丁目３８－１１－３０３,,13,112,1580091,,,,,,,2024-05-30,1,,,,,カナエインク,0
1175,6011001162252,新規,0,2024-05-30,2024-05-30,Ｋｅｎｔａｓｕ株式会社,,株式会社,東京都,渋谷区,渋谷２丁目１９－１５宮益坂ビルディング６０９,,13,113,1500002,,,,,,,2024-05-30,1,,,,,ケンタス,0
1176,6011001162293,新規,0,2024-05-30,2024-05-30,株式会社ファインドユニーク,,株式会社,東京都,渋谷区,渋谷２丁目１９番１５号宮益坂ビルディング６０９,,13,113,1500002,,,,,,,2024-05-30,1,,,,,ファインドユニーク,0
1182,6011201025507,新規,0,2024-05-30,2024-05-30,株式会社ケント,,株式会社,東京都,中野区,若宮１丁目３２番５号,,13,114,1650033,,,,,,,2024-05-30,1,,,,,ケント,0
1183,6011301029713,新規,0,2024-05-30,2024-05-30,株式会社エント,,株式会社,東京都,杉並区,本天沼３丁目３８番７号,,13,115,1670031,,,,,,,2024-05-30,1,,,,,エント,0
1188,6011801044303,新規,0,2024-05-30,2024-05-30,Ｏｗｌ　Ｌｉｋｅ　Ｓｐａｃｅ株式会社,,株式会社,東京都,葛飾区,東金町８丁目８番８号プリンスマンション１０１,,13,122,1250041,,,,,,,2024-05-30,1,,,,,アウルライクスペース,0
1190,6012401041921,新規,0,2024-05-30,2024-05-30,士匠株式会社,,株式会社,東京都,三鷹市,野崎４丁目９－７,,13,204,1810014,,,,,,,2024-05-30,1,,,,,タクミ,0
1201,6020001157435,新規,0,2024-05-30,2024-05-30,株式会社ブルーピクセル,,株式会社,神奈川県,横浜市西区,浅間町１丁目４番３号ウィザードビル４０２,,14,103,2200072,,,,,,,2024-05-30,1,,,,,ブルーピクセル,0
1202,6020001157476,新規,0,2024-05-30,2024-05-30,株式会社リブハーバー,,株式会社,神奈川県,横浜市中区,羽衣町２丁目６番地３,,14,104,2310047,,,,,,,2024-05-30,1,,,,,リブハーバー,0
1203,6020001157484,新規,0,2024-05-30,2024-05-30,株式会社ＨＡＮＡ,,株式会社,神奈川県,横浜市神奈川区,金港町５－１４クアドリフォリオ８階,,14,102,2210056,,,,,,,2024-05-30,1,,,,,ハナ,0
1204,6020001157492,新規,0,2024-05-30,2024-05-30,ワイズ商事株式会社,,株式会社,神奈川県,横浜市港北区,大豆戸町５５１番地１プレミアムガレージハウス新横浜ＩＩＢ－Ａ号室,00134964,14,109,2220032,,,,,,,2024-05-30,1,,,,,ワイズショウジ,0
1207,6021001082342,新規,0,2024-05-30,2024-05-30,株式会社プードルズ,,株式会社,神奈川県,大和市,西鶴間４丁目１３番９号,,14,213,2420005,,,,,,,2024-05-30,1,,,,,プードルズ,0
1208,6021003014566,新規,0,2024-05-30,2024-05-30,合同会社Ｆｕｔａｒｉｎｏ　Ｃｏｍｐａｎｙ,,合同会社,神奈川県,藤沢市,鵠沼橘１丁目３番１２～５０５号,00134953,14,205,2510024,,,,,,,2024-05-30,1,,,,,フタリノカンパニー,0
1209,6021003014582,新規,0,2024-05-30,2024-05-30,モイストマン合同会社,,合同会社,神奈川県,三浦郡葉山町,堀内５８９－３,,14,301,2400112,,,,,,,2024-05-30,1,,,,,モイストマン,0
1212,6030001160611,新規,0,2024-05-30,2024-05-30,Ｂｒｉｇｈｔ株式会社,,株式会社,埼玉県,川口市,戸塚南１丁目７番３１号,,11,203,3330817,,,,,,,2024-05-30,1,,,,,ブライト,0
1213,6030001160628,新規,0,2024-05-30,2024-05-30,株式会社ＧＯＬＤ　ＢＥＡＮＳ,,株式会社,埼玉県,草加市,遊馬町１５２番地１５,,11,221,3400032,,,,,,,2024-05-30,1,,,,,ゴールドビーンズ,0
1218,6030003024392,新規,0,2024-05-30,2024-05-30,Ｓｋｙ　Ｌｉｆｔ　Ｎｅｔｗｏｒｋ合同会社,,合同会社,埼玉県,所沢市,小手指元町２丁目２８番地の１０６,,11,208,3591147,,,,,,,2024-05-30,1,,,,,スカイリフトネットワーク,0
1224,6040001133814,新規,0,2024-05-30,2024-05-30,株式会社味道,,株式会社,千葉県,船橋市,古作１丁目５番１２号,,12,204,2730037,,,,,,,2024-05-30,1,,,,,ミトウ,0
1228,6040003025092,新規,0,2024-05-30,2024-05-30,合同会社ＦＴＯ,,合同会社,千葉県,山武郡芝山町,小池７８３番地４４,,12,409,2891624,,,,,,,2024-05-30,1,,,,,エフティーオー,0
1230,6050003008410,新規,0,2024-05-30,2024-05-30,合同会社ＨＣＳ,,合同会社,茨城県,日立市,金沢町２丁目４番１４号,,08,202,3160015,,,,,,,2024-05-30,1,,,,,エイチシーエス,0
1233,6060001037154,新規,0,2024-05-30,2024-05-30,株式会社ファイブ,,株式会社,栃木県,日光市,小林２８１８－１,,09,206,3212352,,,,,,,2024-05-30,1,,,,,ファイブ,0
1235,6070001041799,新規,0,2024-05-30,2024-05-30,株式会社Ｏｎｅ．ｐｅａｃｅ,,株式会社,群馬県,高崎市,足門町５５２番地１,,10,202,3703531,,,,,,,2024-05-30,1,,,,,ワンピース,0
1240,6080101024769,新規,0,2024-05-30,2024-05-30,株式会社Ｒ　ｌｉｆｅ　ｄｅｓｉｇｎ　ｌａｂ,,株式会社,静岡県,沼津市,三園町１３番３１号オリエンタルマンション１０１,,22,203,4100833,,,,,,,2024-05-30,1,,,,,アールライフデザインラボ,0
1256,6120001265418,新規,0,2024-05-30,2024-05-30,株式会社Ｒｅｖｉｖｅ,,株式会社,大阪府,大阪市北区,天神橋４丁目２番１５号プラディオ天満セレニテ４０１号,,27,127,5300041,,,,,,,2024-05-30,1,,,,,リヴァイヴ,0
1257,6120001265426,新規,0,2024-05-30,2024-05-30,株式会社Ｎｅｗ‐ｅａｒｔｈ,,株式会社,大阪府,大阪市淀川区,西中島５丁目１１－１９キムラビル６Ｆ,,27,123,5320011,,,,,,,2024-05-30,1,,,,,ニューアース,0
1258,6120001265450,新規,0,2024-05-30,2024-05-30,株式会社ＧＦプランニング,,株式会社,大阪府,大阪市天王寺区,大道２丁目２番５号,,27,109,5430052,,,,,,,2024-05-30,1,,,,,ジーエフプランニング,0
1259,6120001265459,新規,0,2024-05-30,2024-05-30,株式会社Ｙ‐ｃｏｎｆｉａｎｚａ,,株式会社,大阪府,大阪市中央区,宗右衛門町５番３０号三ツ寺ギャラクシー２号館２階,,27,128,5420084,,,,,,,2024-05-30,1,,,,,ワイコンフィアンセ,0
1263,6120003026719,新規,0,2024-05-30,2024-05-30,合同会社鏡,,合同会社,大阪府,守口市,金田町１丁目６２番１１号,,27,209,5700011,,,,,,,2024-05-30,1,,,,,カガミ,0
1264,6120003026727,新規,0,2024-05-30,2024-05-30,合同会社いちご,,合同会社,大阪府,大阪市西区,新町１丁目１４番２１号,,27,106,5500013,,,,,,,2024-05-30,1,,,,,イチゴ,0
1265,6120005024349,新規,0,2024-05-30,2024-05-30,一般社団法人ユーグレース,,その他の設立登記法人,大阪府,大阪市中央区,南船場２丁目８番１１号シナプス心斎橋ビル７０１,,27,128,5420081,,,,,,,2024-05-30,1,,,,,ユーグレース,0
1267,6120901049242,新規,0,2024-05-30,2024-05-30,株式会社きづな,,株式会社,大阪府,茨木市,山手台５丁目８番３２号,,27,211,5670009,,,,,,,2024-05-30,1,,,,,キヅナ,0
1271,6130003009598,新規,0,2024-05-30,2024-05-30,合同会社ソラガミ,,合同会社,京都府,京都市下京区,七条通油小路東入大黒町２２７番地,,26,106,6008223,,,,,,,2024-05-30,1,,,,,ソラガミ,0
1272,6130005017104,新規,0,2024-05-30,2024-05-30,一般社団法人美山森林保全組合,,その他の設立登記法人,京都府,南丹市,美山町福居荒堀１７番地,,26,213,6010765,,,,,,,2024-05-30,1,,,,,ミヤマシンリンホゼンクミアイ,0
1275,6140001134579,新規,0,2024-05-30,2024-05-30,株式会社Ｍａｒｋｅｔｉｎｇ　Ｄｅｓｉｇｎ　Ｎｅｔｗｏｒｋ,,株式会社,兵庫県,宝塚市,武庫川町６－２５－２８０７,,28,214,6650844,,,,,,,2024-05-30,1,,,,,マーケティングデザインネットワーク,0
1276,6140001134587,新規,0,2024-05-30,2024-05-30,株式会社Ｋ’ｓＦａｃｔｏｒｙ,,株式会社,兵庫県,神戸市北区,道場町日下部１０５３番地１,,28,109,6511505,,,,,,,2024-05-30,1,,,,,ケーズファクトリー,0
1280,6170003002046,新規,0,2024-05-30,2024-05-30,クリーン建設合同会社,,合同会社,和歌山県,和歌山市,北島５１０番２,,30,201,6408403,,,,,,,2024-05-30,1,,,,,クリーンケンセツ,0
1287,6180001161685,新規,0,2024-05-30,2024-05-30,株式会社ＴＲＯＮ,,株式会社,愛知県,丹羽郡大口町,上小口１丁目３７０番地１,,23,361,4800141,,,,,,,2024-05-30,1,,,,,トロン,0
1288,6180001161719,新規,0,2024-05-30,2024-05-30,株式会社Ｍ＆Ｙ　Ｃｏ．,,株式会社,愛知県,名古屋市緑区,徳重３丁目１９３０番地,,23,114,4580815,,,,,,,2024-05-30,1,,,,,エムアンドワイコーポレーション,0
1289,6180001161735,新規,0,2024-05-30,2024-05-30,株式会社名翔,,株式会社,愛知県,豊明市,前後町仙人塚１７５７－６ハイツソレイユＣ棟２０２,,23,229,4701152,,,,,,,2024-05-30,1,,,,,メイショウ,0
1292,6180003026853,新規,0,2024-05-30,2024-05-30,合同会社スペースアップ設計工房エフ,,合同会社,愛知県,名古屋市北区,山田１丁目１１番３５号グラースハウスＡ,,23,103,4620810,,,,,,,2024-05-30,1,,,,,スペースアップセッケイコウボウエフ,0
1293,6180003026861,新規,0,2024-05-30,2024-05-30,ＴＭ合同会社,,合同会社,愛知県,名古屋市天白区,植田山２丁目５０８番地の２,,23,116,4680001,,,,,,,2024-05-30,1,,,,,ティエム,0
1294,6180303006134,新規,0,2024-05-30,2024-05-30,合同会社ＴＯＹＯＴＡＣＯＮＣＩＥＲＧＥ,,合同会社,愛知県,岡崎市,広幡町６－６エスポワール広幡４０３,,23,202,4440066,,,,,,,2024-05-30,1,,,,,トヨタコンシェルジュ,0
1302,6240001063289,新規,0,2024-05-30,2024-05-30,株式会社エコ・フューチャー,,株式会社,広島県,広島市安佐南区,伴西３丁目８番１号,,34,105,7313169,,,,,,,2024-05-30,1,,,,,エコフューチャー,0
1307,6250001020669,新規,0,2024-05-30,2024-05-30,橋本研究所株式会社,,株式会社,山口県,宇部市,西琴芝１丁目９番１８号,,35,202,7550035,,,,,,,2024-05-30,1,,,,,ハシモトケンキュウショ,0
1310,6260003004719,新規,0,2024-05-30,2024-05-30,メッドウェルネス合同会社,,合同会社,岡山県,倉敷市,中庄６０２番地１６,,33,202,7100016,,,,,,,2024-05-30,1,,,,,メッドウェルネス,0
1315,6290001105929,新規,0,2024-05-30,2024-05-30,株式会社９２０７,,株式会社,福岡県,久留米市,原古賀町４－３,,40,203,8300046,,,,,,,2024-05-30,1,,,,,キューニーゼロナナ,0
1316,6290001105953,新規,0,2024-05-30,2024-05-30,株式会社マルタキ,,株式会社,福岡県,福岡市中央区,赤坂３丁目１３番３３号,,40,133,8100042,,,,,,,2024-05-30,1,,,,,マルタキ,0
1317,6290001105961,新規,0,2024-05-30,2024-05-30,株式会社ＭＩＲＯＫＵ,,株式会社,福岡県,福岡市中央区,天神２丁目２番１２号Ｔ＆Ｊビルディング７Ｆ,,40,133,8100001,,,,,,,2024-05-30,1,,,,,ミロク,0
1320,6290801030608,新規,0,2024-05-30,2024-05-30,ラドケアメディカル株式会社,,株式会社,福岡県,北九州市小倉南区,沼緑町１丁目１２番１９号,,40,107,8000207,,,,,,,2024-05-30,1,,,,,ラドケアメディカル,0
1324,6320001020496,新規,0,2024-05-30,2024-05-30,株式会社Ｅｘｐｅｃｔ,,株式会社,大分県,豊後高田市,呉崎２６９６番地２,,44,209,8790608,,,,,,,2024-05-30,1,,,,,エクスペクト,0
1328,6340005009740,新規,0,2024-05-30,2024-05-30,一般社団法人奄美薬剤師会,,その他の設立登記法人,鹿児島県,奄美市,名瀬真名津町６番３号,,46,222,8940015,,,,,,,2024-05-30,1,,,,,アマミヤクザイシカイ,0
1333,6370001051347,新規,0,2024-05-30,2024-05-30,株式会社後ろ楯舎,,株式会社,宮城県,仙台市宮城野区,東仙台１丁目４番３４号,,04,102,9830833,,,,,,,2024-05-30,1,,,,,ウシロダテシャ,0
1334,6380001034573,新規,0,2024-05-30,2024-05-30,エスコート株式会社,,株式会社,福島県,福島市,黒岩字八郎内２１番地の２共栄ハイツ２０７,,07,201,9608153,,,,,,,2024-05-30,1,,,,,エスコート,0
1337,6400005008422,新規,0,2024-05-30,2024-05-30,一般社団法人馬事振興社,,その他の設立登記法人,岩手県,遠野市,松崎町駒木４地割１２０番地５,,03,208,0280545,,,,,,,2024-05-30,1,,,,,バジシンコウシャ,0
1341,6430001091898,新規,0,2024-05-30,2024-05-30,株式会社ＤＨＤ,,株式会社,北海道,千歳市,文京５丁目６番地の１３,,01,224,0660052,,,,,,,2024-05-30,1,,,,,ディーエイチディー,0
1344,6430003016390,新規,0,2024-05-30,2024-05-30,合同会社１０７コーポレーション,,合同会社,北海道,札幌市中央区,南九条西１１丁目１番５号きだパレスＫ号室,,01,101,0640809,,,,,,,2024-05-30,1,,,,,トナコーポレーション,0
1349,6470001020226,新規,0,2024-05-30,2024-05-30,株式会社喜進物流,,株式会社,香川県,高松市,春日町１４９５番地６,,37,201,7610101,,,,,,,2024-05-30,1,,,,,キシンブツリュウ,0
1351,6500001025659,新規,0,2024-05-30,2024-05-30,株式会社Ｂ‐ＷＥＳＴ,,株式会社,愛媛県,松山市,萱町１丁目２番地４,,38,201,7900813,,,,,,,2024-05-30,1,,,,,ビーウエスト,0
1355,6700150123152,新規,0,2024-05-30,2024-05-30,ＳＨＥＮＺＨＥＮＳＨＩＣＨＥＮＧＰＥＮＧＳＨＥＮＧＸＩＮＫＥＪＩＹＯＵＸＩＡＮＧＯＮＧＳＩ,,外国会社等,,,,,,,,ｌｏｎｇｇａｎｇｑｕｂａｎｔｉａｎｊｉｅｄａｏｂａｎｔｉａｎｓｈｅｎｑｕ　ｈｕａｎｇｊｉｎｓｈａｎｓｈｉｓａｎｘｉａｎｇ９ｈａｏ３０１　ｇｕａｎｇｄｏｎｇ　ｓｈｅｎｚｈｅｎ　５１８１２９　ＣＮ,,,,,,2024-05-30,1,,,,,シェンジェンシチョンポンションシンクージヨウシエンゴンス,0
1356,6700150123160,新規,0,2024-05-30,2024-05-30,ＨＡＮＧＺＨＯＵ　ＥＡＳＹ　ＣＡＮ　ＴＯＯＬＳ　ＣＯ．，ＬＴＤ．,,外国会社等,,,,,,,,Ｒｏｏｍ　４０３－１，Ｂｕｉｌｄｉｎｇ　９，Ｆｅｎｇｚｈｉｚｈｕ，Ｙｕｎｋｏｎｇ　ｃｈｅｎｇ　Ｗｕｃｈａｎｇ　Ｓｔｒｅｅｔ，Ｙｕｈａｎｇ　Ｄｉｓｔｒｉｃｔ　Ｈａｎｇｚｈｏｕ　Ｚｈｅｊｉａｎｇ　３１００２３　ＣＮ,,,,,,2024-05-30,1,,,,,ハンジョウイージーキャンツールズカンパニーリミテッド,0
1357,6700150123391,新規,0,2024-05-30,2024-05-30,Ｂｅｈａｖｉｏｒａｌ　Ｔｅｃｈｎｏｌｏｇｙ　Ｇｒｏｕｐ　Ｉｎｃ,,外国会社等,,,,,,,,５３９　Ｗ．Ｃｏｍｍｅｒｃｅ　Ｓｔ．，＃３１４１　Ｄａｌｌａｓ　Ｔｅｘａｓ　７５２０８－１９５３　ＵＳ,,,,,,2024-05-30,1,,,,,ビヘイビオラルテクノロジーグループインク,0
1359,6700150125693,新規,0,2024-05-30,2024-05-30,ＢＡＳＮＡＹＡＫＡ　ＭＯＴＯＲＳ,,外国会社等,千葉県,白井市,根２５１番地２,,12,232,2701431,スリランカ民主社会主義共和国クリヤピティヤ，カランティッパラ，ハルペ・マワサ,,,,,,2024-05-30,1,,,,,バスナーヤカモータース,0
1366,7010001245256,新規,0,2024-05-30,2024-05-30,レア・キャピタル株式会社,,株式会社,東京都,千代田区,神田三崎町３丁目３番２０号,,13,101,1010061,,,,,,,2024-05-30,1,,,,,レアキャピタル,0
1367,7010001245264,新規,0,2024-05-30,2024-05-30,エヴァ・ガーディアン株式会社,,株式会社,東京都,千代田区,一番町６番地,,13,101,1020082,,,,,,,2024-05-30,1,,,,,エヴァガーディアン,0
1368,7010001245272,新規,0,2024-05-30,2024-05-30,株式会社エバーブライズ,,株式会社,東京都,中央区,銀座１丁目１２－４Ｎ＆ＥＢＬＤ．７階,,13,102,1040061,,,,,,,2024-05-30,1,,,,,エバーブライズ,0
1370,7010003043880,新規,0,2024-05-30,2024-05-30,合同会社ひなた,,合同会社,東京都,中央区,晴海３丁目１３番１号,,13,102,1040053,,,,,,,2024-05-30,1,,,,,ヒナタ,0
1371,7010005038350,新規,0,2024-05-30,2024-05-30,一般財団法人秋元財団,,その他の設立登記法人,東京都,千代田区,紀尾井町３番１０号,,13,101,1020094,,,,,,,2024-05-30,1,,,,,アキモトザイダン,0
1372,7010005038359,新規,0,2024-05-30,2024-05-30,一般社団法人銀河第９号,,その他の設立登記法人,東京都,中央区,日本橋１丁目４番１号日本橋一丁目ビルディング,,13,102,1030027,,,,,,,2024-05-30,1,,,,,ギンガダイキュウゴウ,0
1382,7010405023274,新規,0,2024-05-30,2024-05-30,一般社団法人サスティナブル・ツーリズム推進機構,,その他の設立登記法人,東京都,港区,赤坂４丁目８番１９号,,13,103,1070052,,,,,,,2024-05-30,1,,,,,サスティナブルツーリズムスイシンキコウ,0
1387,7010501052359,新規,0,2024-05-30,2024-05-30,樂游知日株式会社,,株式会社,東京都,台東区,台東３丁目５番１０－１０２号,,13,106,1100016,,,,,,,2024-05-30,1,,,,,ラクユウチニチ,0
1391,7010901055358,新規,0,2024-05-30,2024-05-30,株式会社アップダンス,,株式会社,東京都,世田谷区,代田２丁目２３番１２号,,13,112,1550033,,,,,,,2024-05-30,1,,,,,アップダンス,0
1403,7011501030602,新規,0,2024-05-30,2024-05-30,イノベーションデザイン株式会社,,株式会社,東京都,荒川区,東日暮里５丁目３９－１３ハイネス東日暮里４０１号室,,13,118,1160014,,,,,,,2024-05-30,1,,,,,イノベーションデザイン,0
1404,7011801044302,新規,0,2024-05-30,2024-05-30,株式会社穐山店装,,株式会社,東京都,足立区,西保木間２丁目３番１号,,13,121,1210812,,,,,,,2024-05-30,1,,,,,アキヤマテンソウ,0
1405,7011801044310,新規,0,2024-05-30,2024-05-30,ＡｍａｚｉｎｇＴｈｉｎｇｓ株式会社,,株式会社,東京都,足立区,六木３丁目１３番６号,,13,121,1210052,,,,,,,2024-05-30,1,,,,,アメージングティーング,0
1416,7020001157467,新規,0,2024-05-30,2024-05-30,株式会社ポグアシスト,,株式会社,神奈川県,横浜市戸塚区,下倉田町５２３番地３,,14,110,2440815,,,,,,,2024-05-30,1,,,,,ポグアシスト,0
1417,7020001157483,新規,0,2024-05-30,2024-05-30,ＩＭＲ株式会社,,株式会社,神奈川県,横浜市泉区,上飯田町４６８３－８,,14,116,2450018,,,,,,,2024-05-30,1,,,,,アイエムアール,0
1418,7020001157491,新規,0,2024-05-30,2024-05-30,株式会社ＢＵＦＦ,,株式会社,神奈川県,横浜市港南区,上永谷５丁目３番１４号,,14,111,2330012,,,,,,,2024-05-30,1,,,,,バフ,0
1419,7020001157500,新規,0,2024-05-30,2024-05-30,株式会社リベリュール,,株式会社,神奈川県,横浜市西区,北幸１丁目１１番１号水信ビル７階,,14,103,2200004,,,,,,,2024-05-30,1,,,,,リベリュール,0
1420,7020001157509,新規,0,2024-05-30,2024-05-30,株式会社東洋空調,,株式会社,神奈川県,横浜市港南区,野庭町６６７番地２６,,14,111,2340056,,,,,,,2024-05-30,1,,,,,トウヨウクウチョウ,0
1428,7020003026240,新規,0,2024-05-30,2024-05-30,合同会社ＭＯＲＧＥＮ,,合同会社,神奈川県,川崎市宮前区,菅生２丁目５番２５－２０１号エクセル宮前平,,14,136,2160015,,,,,,,2024-05-30,1,,,,,モルゲン,0
1429,7020003026249,新規,0,2024-05-30,2024-05-30,Ｌａｓｔ　Ｓｍｉｌｅ合同会社,,合同会社,神奈川県,川崎市川崎区,元木１丁目１１－１エンゼルパークサイド川崎１０７,,14,131,2100021,,,,,,,2024-05-30,1,,,,,ラストスマイル,0
1430,7020005016421,新規,0,2024-05-30,2024-05-30,一般社団法人不老長寿研究会,,その他の設立登記法人,神奈川県,横浜市中区,蓬莱町１丁目１番７号コシノパークサイドビル３Ｆ,,14,104,2310048,,,,,,,2024-05-30,1,,,,,フロウチョウジュケンキュウカイ,0
1434,7030001160610,新規,0,2024-05-30,2024-05-30,株式会社ガレーネー,,株式会社,埼玉県,春日部市,梅田２丁目３番２０号,,11,214,3440052,,,,,,,2024-05-30,1,,,,,ガレーネー,0
1435,7030001160635,新規,0,2024-05-30,2024-05-30,株式会社あおいケア,,株式会社,埼玉県,深谷市,本田２２７２番地,,11,218,3691105,,,,,,,2024-05-30,1,,,,,アオイケア,0
1443,7030003024391,新規,0,2024-05-30,2024-05-30,Ｅｄｏｇａｗａ合同会社,,合同会社,埼玉県,草加市,中央２丁目９番２－９０１号,,11,221,3400016,,,,,,,2024-05-30,1,,,,,エドガワ,0
1448,7040001133821,新規,0,2024-05-30,2024-05-30,株式会社小関タイル,,株式会社,千葉県,山武郡九十九里町,真亀１６１番地３,,12,403,2830114,,,,,,,2024-05-30,1,,,,,コゼキタイル,0
1451,7060001037153,新規,0,2024-05-30,2024-05-30,株式会社Ｒｅ８,,株式会社,栃木県,宇都宮市,台新田町１５７番地１,,09,201,3210103,,,,,,,2024-05-30,1,,,,,リエイト,0
1455,7070003005438,新規,0,2024-05-30,2024-05-30,ＲＳリゾート合同会社,,合同会社,群馬県,伊勢崎市,境上渕名９７６番地４,,10,204,3700102,,,,,,,2024-05-30,1,,,,,アールエスリゾート,0
1456,7070005010279,新規,0,2024-05-30,2024-05-30,特定非営利活動法人みさと梅クラブ,,その他の設立登記法人,群馬県,高崎市,箕郷町白川２１４０番地,,10,202,3703117,,,,,,,2024-05-30,1,,,,,ミサトウメクラブ,0
1457,7080401027215,新規,0,2024-05-30,2024-05-30,株式会社Ａ,,株式会社,静岡県,浜松市中央区,上浅田２丁目７番３８－５号,,22,138,4328042,,,,,,,2024-05-30,1,,,,,エー,0
1458,7090001018737,新規,0,2024-05-30,2024-05-30,株式会社窪田商店,,株式会社,山梨県,甲府市,国母８丁目１３番２０号,,19,201,4000043,,,,,,,2024-05-30,1,,,,,クボタショウテン,0
1472,7120001265383,新規,0,2024-05-30,2024-05-30,Ｎｅｅｄｓ　Ｊａｐａｎ株式会社,,株式会社,大阪府,大阪市中央区,谷町２丁目２－２０大手前類第一ビル,,27,128,5400012,,,,,,,2024-05-30,1,,,,,ニーズジャパン,0
1473,7120001265409,新規,0,2024-05-30,2024-05-30,春秋株式会社,,株式会社,大阪府,大阪市住之江区,御崎５丁目１５番１号－４０１号室,,27,125,5590013,,,,,,,2024-05-30,1,,,,,シュンジュウ,0
1475,7120003026718,新規,0,2024-05-30,2024-05-30,ＡＬＫ‐ＮＡ合同会社,,合同会社,大阪府,寝屋川市,豊野町６－３エレンシア豊野２０５号室,,27,215,5720831,,,,,,,2024-05-30,1,,,,,アルカナ,0
1476,7120003026734,新規,0,2024-05-30,2024-05-30,合同会社ルビーノ,,合同会社,大阪府,大阪市中央区,北浜東４番３３号北浜ネクスビルディングＢ１Ｆ,,27,128,5400031,,,,,,,2024-05-30,1,,,,,ルビーノ,0
1480,7120901049241,新規,0,2024-05-30,2024-05-30,株式会社ベストフーズ,,株式会社,大阪府,豊中市,小曽根２丁目３番２８号,,27,203,5610813,,,,,,,2024-05-30,1,,,,,ベストフーズ,0
1484,7140001134578,新規,0,2024-05-30,2024-05-30,シンコウ化学株式会社,,株式会社,兵庫県,神崎郡福崎町,西治２番地,,28,443,6792215,,,,,,,2024-05-30,1,,,,,シンコウカガク,0
1492,7180003026860,新規,0,2024-05-30,2024-05-30,ＴＡ合同会社,,合同会社,愛知県,名古屋市天白区,植田山２丁目５０８番地の２,,23,116,4680001,,,,,,,2024-05-30,1,,,,,ティエイ,0
1493,7180303006133,新規,0,2024-05-30,2024-05-30,合同会社モソロ,,合同会社,愛知県,知立市,南新地３丁目６－３グローリアス知立３０１,,23,225,4720053,,,,,,,2024-05-30,1,,,,,モソロ,0
1495,7200003006356,新規,0,2024-05-30,2024-05-30,合同会社ＷＡＳＵＩ,,合同会社,岐阜県,各務原市,緑苑中１丁目１６７番地,,21,213,5090114,,,,,,,2024-05-30,1,,,,,ワスイ,0
1504,7240003006690,新規,0,2024-05-30,2024-05-30,合同会社ＴＯＭＣＡＴ,,合同会社,広島県,広島市安佐南区,古市２丁目２３番２７号,,34,105,7310123,,,,,,,2024-05-30,1,,,,,トムキャット,0
1514,7290001105977,新規,0,2024-05-30,2024-05-30,株式会社ＡＭＡインターナショナル,,株式会社,福岡県,久留米市,田主丸町益生田８８８－８－１０３,,40,203,8391213,,,,,,,2024-05-30,1,,,,,アマインターナショナル,0
1518,7290801030607,新規,0,2024-05-30,2024-05-30,株式会社ＡＲＫ‐Ｓ,,株式会社,福岡県,中間市,通谷４丁目９番１１号,,40,215,8090018,,,,,,,2024-05-30,1,,,,,アークエス,0
1522,7320003004380,新規,0,2024-05-30,2024-05-30,新九州合同会社,,合同会社,大分県,中津市,大字犬丸１２４８番地３,,44,203,8790105,,,,,,,2024-05-30,1,,,,,シンキュウシュウ,0
1524,7330003010394,新規,0,2024-05-30,2024-05-30,ＡＩＲＤＲＯＮＥ合同会社,,合同会社,熊本県,熊本市東区,小山１丁目７番２０号,,43,102,8618045,,,,,,,2024-05-30,1,,,,,エアドローン,0
1528,7350003004659,新規,0,2024-05-30,2024-05-30,ＩｐｌｕｓＭ合同会社,,合同会社,宮崎県,都城市,志比田町４７３６番地１,,45,202,8850093,,,,,,,2024-05-30,1,,,,,アイム,0
1531,7370003006629,新規,0,2024-05-30,2024-05-30,合同会社ＴＯＨＯＰＥ,,合同会社,宮城県,仙台市青葉区,荒巻字青葉４６８―１東北大学青葉山ガレージ,,04,101,9800845,,,,,,,2024-05-30,1,,,,,トホペ,0
1543,7430001091906,新規,0,2024-05-30,2024-05-30,ベンチャープラス株式会社,,株式会社,北海道,札幌市中央区,南三条西１２丁目３２５番１３号,,01,101,0600063,,,,,,,2024-05-30,1,,,,,ベンチャープラス,0
1545,7430003016373,新規,0,2024-05-30,2024-05-30,シルバーシステムサポート合同会社,,合同会社,北海道,札幌市清田区,北野七条１丁目３番３５号,,01,110,0040867,,,,,,,2024-05-30,1,,,,,シルバーシステムサポート,0
1547,7440003001597,新規,0,2024-05-30,2024-05-30,合同会社ＹＢＲ２４,,合同会社,北海道,函館市,松川町４５番６号,,01,202,0400074,,,,,,,2024-05-30,1,,,,,ユウバリトゥエンティーフォー,0
1548,7460105002293,新規,0,2024-05-30,2024-05-30,特定非営利活動法人Ｓｅｃｏｎｄ　Ｌｉｆｅ　ｆｏｒ　ＩＤＤＭ,,その他の設立登記法人,北海道,河西郡芽室町,伏美１６線３２番地１０,,01,637,0820383,,,,,,,2024-05-30,1,,,,,セカンドライフフォーアイディーディーエム,0
1549,7460303000826,新規,0,2024-05-30,2024-05-30,孝榮ファイナンシャル合同会社,,合同会社,北海道,北見市,北二条西６丁目１０番地黒田ビル２０３号,,01,208,0900042,,,,,,,2024-05-30,1,,,,,コウエイファイナンシャル,0
1554,7500001025658,新規,0,2024-05-30,2024-05-30,株式会社大和工業,,株式会社,愛媛県,今治市,延喜甲７７３番地１,,38,202,7940084,,,,,,,2024-05-30,1,,,,,ダイワコウギョウ,0
1558,7700150123151,新規,0,2024-05-30,2024-05-30,ＳＨＥＮＺＨＥＮＳＨＩＨＵＩＴＩＡＮＣＡＩＭＡＯＹＩＹＯＵＸＩＡＮＧＯＮＧＳｌ,,外国会社等,,,,,,,,ｌｏｎｇｈｕａｘｉｎｑｕｍｉｎｚｈｉｊｉｅｄａｏ　ｎａｎｊｉｎｇｘｉｎｃｕｎＡ１５ｄｏｎｇ５０４　ｇｕａｎｇｄｏｎｇ　ｓｈｅｎｚｈｅｎ　５１８１３１　ＣＮ,,,,,,2024-05-30,1,,,,,シェンジェンシフイチエンツアイマオイヨウシエンゴンス,0
1559,7700150125692,新規,0,2024-05-30,2024-05-30,Ｈａｎｇｚｈｏｕ　Ｙａｔｕｏ　Ｅｌｅｃｔｒｏｎｉｃ　Ｔｅｃｈｎｏｌｏｇｙ　Ｃｏ．，Ｌｔｄ．,,外国会社等,,,,,,,,ｚｈｅ　ｊｉａｎｇ　ｓｈｅｎｇ　ｈａｎｇ　ｚｈｏｕ　ｓｈｉ　ｘｉ　ｈｕ　ｑｕ　ｌｉｕ　ｘｉａ　ｊｉｅ　ｄａｏ　ｊｉｎｇ　ｓｈａｎ　ｌｉｎｇ　ｌｕ　２　ｈａｏ　ｈｕｉ　ｆｅｎｇ　ｇｕｏ　ｊｉ　ｓｈａｎｇ　ｗｕ　ｚｈｏｎｇ　ｘｉｎ　４　ｈａｏ　ｌｏｕ　Ｄ６０１　ｓｈｉ,,,,,,2024-05-30,1,,,,,コウシュウアタクエレクトロニックテクノロジーカンパニーリミティッド,0
1567,8010001244389,新規,0,2024-05-30,2024-05-30,株式会社久居,,株式会社,東京都,文京区,後楽１丁目４番１１－１５０３号,,13,105,1120004,,,,,,,2024-05-30,1,,,,,ヒサイ,0
1568,8010001245247,新規,0,2024-05-30,2024-05-30,Ｓｕｐｅｒ　ｉＰａａＳ　Ｉｎｔｅｇｒａｔｉｏｎ　Ｊａｐａｎ株式会社,,株式会社,東京都,千代田区,丸の内１丁目８番３号丸の内トラストタワー本館２１階,,13,101,1000005,,,,,,,2024-05-30,1,,,,,スーパーアイパースインテグレーションジャパン,0
1569,8010001245263,新規,0,2024-05-30,2024-05-30,ＳＨライフデザイン株式会社,,株式会社,東京都,中央区,銀座７丁目１３番６号,,13,102,1040061,,,,,,,2024-05-30,1,,,,,エスエイチライフデザイン,0
1570,8010001245288,新規,0,2024-05-30,2024-05-30,８８株式会社,,株式会社,東京都,中央区,銀座８丁目１７－５,,13,102,1040061,,,,,,,2024-05-30,1,,,,,ハチハチ,0
1571,8010001245296,新規,0,2024-05-30,2024-05-30,Ｒエステートホールディングス株式会社,,株式会社,東京都,中央区,銀座１丁目２２番１－１１０７号,,13,102,1040061,,,,,,,2024-05-30,1,,,,,リアルエステートホールディングス,0
1575,8010003043780,新規,0,2024-05-30,2024-05-30,合同会社Ｅｓｐｌａｎａｄｅ,,合同会社,東京都,千代田区,麹町３丁目３番地４,,13,101,1020083,,,,,,,2024-05-30,1,,,,,エスプラネード,0
1585,8010401182775,新規,0,2024-05-30,2024-05-30,Ｓ．ｈｏｍｅ株式会社,,株式会社,東京都,港区,芝２丁目１５番２号,,13,103,1050014,,,,,,,2024-05-30,1,,,,,エスホーム,0
1586,8010401182800,新規,0,2024-05-30,2024-05-30,株式会社キクヤキッチンスタジオ,,株式会社,東京都,港区,白金６丁目３番１２号白金明治坂ハイム１０２,,13,103,1080072,,,,,,,2024-05-30,1,,,,,キクヤキッチンスタジオ,0
1590,8010405023257,新規,0,2024-05-30,2024-05-30,一般社団法人Ｄｉｖｅｒｓｉｔｙ＆Ｉｎｃｌｕｓｉｏｎ,,その他の設立登記法人,東京都,港区,台場１丁目３番１－１０３号,,13,103,1350091,,,,,,,2024-05-30,1,,,,,ダイバーシティアンドインクルージョン,0
1602,8010703007201,新規,0,2024-05-30,2024-05-30,ＷＥＢふきだし合同会社,,合同会社,東京都,品川区,東品川１丁目１９番９号ＬＥＧＡＬＡＮＤ東品川４０１,,13,109,1400002,,,,,,,2024-05-30,1,,,,,ウェブフキダシ,0
1606,8010901055183,新規,0,2024-05-30,2024-05-30,エンパワーアグロジャパン株式会社,,株式会社,東京都,世田谷区,上北沢３丁目２３－１７,,13,112,1560057,,,,,,,2024-05-30,1,,,,,エンパワーアグロジャパン,0
1607,8010901055373,新規,0,2024-05-30,2024-05-30,ＯＧ‐１株式会社,,株式会社,東京都,世田谷区,新町２丁目２９番２５号,,13,112,1540014,,,,,,,2024-05-30,1,,,,,オージーワン,0
1612,8011001162325,新規,0,2024-05-30,2024-05-30,株式会社事業デザインコンサルティング,,株式会社,東京都,目黒区,大岡山１丁目３５番２号,,13,110,1520033,,,,,,,2024-05-30,1,,,,,ジギョウデザインコンサルティング,0
1614,8011003019242,新規,0,2024-05-30,2024-05-30,ＭＬｉｎｘ合同会社,,合同会社,東京都,渋谷区,神宮前６丁目２３番４号桑野ビル２階,,13,113,1500001,,,,,,,2024-05-30,1,,,,,エムリンクス,0
1615,8011003019275,新規,0,2024-05-30,2024-05-30,合同会社ＹＴ,,合同会社,東京都,目黒区,中目黒３丁目１８－９,,13,110,1530061,,,,,,,2024-05-30,1,,,,,ワイティー,0
1621,8011101107493,新規,0,2024-05-30,2024-05-30,金和不動産株式会社,,株式会社,東京都,新宿区,高田馬場１丁目２５－３４新宿ＹＴビル４階,,13,104,1690075,,,,,,,2024-05-30,1,,,,,キンワフドウサン,0
1622,8011103014473,新規,0,2024-05-30,2024-05-30,Ｓ＆Ｓ　Ｇ．Ｋ．合同会社,,合同会社,東京都,新宿区,新宿１丁目２３－１６第二徳丸ビル５階,,13,104,1600022,,,,,,,2024-05-30,1,,,,,エスアンドエスジーケー,0
1625,8011501030725,新規,0,2024-05-30,2024-05-30,富吉株式会社,,株式会社,東京都,荒川区,町屋３丁目２４番２号面川ビル２１０号室,,13,118,1160001,,,,,,,2024-05-30,1,,,,,トミヨシ,0
1630,8011703003859,新規,0,2024-05-30,2024-05-30,合同会社ＴＪＤＣ,,合同会社,東京都,江戸川区,松江３丁目１１－８,,13,123,1320025,,,,,,,2024-05-30,1,,,,,ティージェーディーシー,0
1636,8011801044301,新規,0,2024-05-30,2024-05-30,信仁株式会社,,株式会社,東京都,足立区,西新井本町３丁目７番６号ＬＰ大師前２０３,,13,121,1230845,,,,,,,2024-05-30,1,,,,,シンジン,0
1641,8013303007158,新規,0,2024-05-30,2024-05-30,ＧＲＡＤＲＩ合同会社,,合同会社,東京都,豊島区,西巣鴨１丁目１０番１６－２１０号,,13,116,1700001,,,,,,,2024-05-30,1,,,,,グラドリ,0
1646,8020001157490,新規,0,2024-05-30,2024-05-30,株式会社Ｕｓａｙ,,株式会社,神奈川県,川崎市宮前区,宮前平３丁目１２番地６,,14,136,2160006,,,,,,,2024-05-30,1,,,,,ユウセイ,0
1654,8020003026231,新規,0,2024-05-30,2024-05-30,げんぎや合同会社,,合同会社,神奈川県,横浜市西区,浅間町１丁目４番３号ウィザードビル４０２,,14,103,2200072,,,,,,,2024-05-30,1,,,,,ゲンギヤ,0
1656,8021001082349,新規,0,2024-05-30,2024-05-30,三崎漁業株式会社,,株式会社,神奈川県,三浦市,三崎３丁目８番７号,,14,210,2380243,,,,,,,2024-05-30,1,,,,,ミサキギョギョウ,0
1666,8030001160618,新規,0,2024-05-30,2024-05-30,株式会社幸和,,株式会社,埼玉県,川越市,中台２丁目１０番地２５,,11,201,3501159,,,,,,,2024-05-30,1,,,,,コウワ,0
1667,8030001160626,新規,0,2024-05-30,2024-05-30,ｋｏｎｏｈａデザイン株式会社,,株式会社,埼玉県,東松山市,和泉町５番３号,,11,212,3550026,,,,,,,2024-05-30,1,,,,,コノハデザイン,0
1670,8030003024366,新規,0,2024-05-30,2024-05-30,合同会社ハリガエ・コンサルティング・オフィス,,合同会社,埼玉県,さいたま市大宮区,上小町２６８番地３,,11,103,3300855,,,,,,,2024-05-30,1,,,,,ハリガエコンサルティングオフィス,0
1671,8030003024390,新規,0,2024-05-30,2024-05-30,合同会社アイビー・リーグ,,合同会社,埼玉県,川口市,西青木５丁目６－１１号ハイツあすなろ２階２０１号室,,11,203,3320035,,,,,,,2024-05-30,1,,,,,アイビーリーグ,0
1672,8030003024399,新規,0,2024-05-30,2024-05-30,カーメル合同会社,,合同会社,埼玉県,越谷市,宮本町５丁目３９－１,,11,222,3430806,,,,,,,2024-05-30,1,,,,,カーメル,0
1674,8040001133804,新規,0,2024-05-30,2024-05-30,ＳＡＪＩ．２ｎｄ株式会社,,株式会社,千葉県,船橋市,古和釜町８６６番地８,,12,204,2740061,,,,,,,2024-05-30,1,,,,,エスエージェイアイセカンド,0
1675,8040001133820,新規,0,2024-05-30,2024-05-30,株式会社ＫＮＯＴ,,株式会社,千葉県,松戸市,紙敷１丁目７番地の１４,,12,207,2702221,,,,,,,2024-05-30,1,,,,,ノット,0
1684,8060001037152,新規,0,2024-05-30,2024-05-30,瀚和株式会社,,株式会社,栃木県,小山市,大字外城１２番地１７,,09,208,3230042,,,,,,,2024-05-30,1,,,,,カンワ,0
1691,8070001041789,新規,0,2024-05-30,2024-05-30,株式会社ハウスクエスト,,株式会社,群馬県,前橋市,大渡町１丁目１６番１号オクシー前橋１－Ｂ,,10,201,3710854,,,,,,,2024-05-30,1,,,,,ハウスクエスト,0
1696,8080401027214,新規,0,2024-05-30,2024-05-30,ＳＴＥＰ‐ＧＯ株式会社,,株式会社,静岡県,袋井市,諸井１９２８－１山崎店舗３号室,,22,216,4371121,,,,,,,2024-05-30,1,,,,,ステップゴー,0
1699,8110001038442,新規,0,2024-05-30,2024-05-30,株式会社和ホーム,,株式会社,新潟県,南魚沼市,野田２０１番地１,,15,226,9497144,,,,,,,2024-05-30,1,,,,,ナゴミホーム,0
1708,8120001265399,新規,0,2024-05-30,2024-05-30,株式会社ＢＬＵＥ　ＧＲＥＥＮ　ＨＤ,,株式会社,大阪府,大阪市都島区,網島町７番３５号,,27,102,5340026,,,,,,,2024-05-30,1,,,,,ブルーグリーンホールディングス,0
1709,8120001265416,新規,0,2024-05-30,2024-05-30,Ｙ．Ｍ．不動産開発株式会社,,株式会社,大阪府,大阪市北区,梅田１丁目２番２号大阪駅前第２ビル１２－１２,,27,127,5300001,,,,,,,2024-05-30,1,,,,,ワイエムフドウサンカイハツ,0
1710,8120001265457,新規,0,2024-05-30,2024-05-30,株式会社ＡＺＵＫＩ総合コンサルティング,,株式会社,大阪府,門真市,新橋町３－３－３０４,,27,223,5710048,,,,,,,2024-05-30,1,,,,,アズキソウゴウコンサルティング,0
1711,8120001265465,新規,0,2024-05-30,2024-05-30,株式会社Ｊ‐Ｂｅａｒｓ,,株式会社,大阪府,大阪市北区,梅田１丁目１－３大阪駅前第３ビル２９階１－１－１号室,,27,127,5300001,,,,,,,2024-05-30,1,,,,,ジェイベアーズ,0
1715,8120005024347,新規,0,2024-05-30,2024-05-30,社会保険労務士法人ＳＲネット関西,,その他の設立登記法人,大阪府,大阪市北区,浪花町１４番３３号ＯＭビル４０８号,,27,127,5300022,,,,,,,2024-05-30,1,,,,,エスアールネットカンサイ,0
1716,8120101069683,新規,0,2024-05-30,2024-05-30,株式会社ＡＬＬ　ＲＯＵＮＤ,,株式会社,大阪府,和泉市,松尾寺町１４３３番地２,,27,219,5941154,,,,,,,2024-05-30,1,,,,,オールラウンド,0
1722,8120901049249,新規,0,2024-05-30,2024-05-30,株式会社ファスリア,,株式会社,大阪府,豊中市,東豊中町３丁目７番７号,,27,203,5600003,,,,,,,2024-05-30,1,,,,,ファスリア,0
1726,8122001038116,新規,0,2024-05-30,2024-05-30,株式会社３３,,株式会社,大阪府,四條畷市,中野本町７番２３－８０３号,,27,229,5750051,,,,,,,2024-05-30,1,,,,,サンサン,0
1728,8130001077141,新規,0,2024-05-30,2024-05-30,株式会社いろあかり,,株式会社,京都府,京都市右京区,太秦森ケ前町１６－４８,,26,108,6168105,,,,,,,2024-05-30,1,,,,,イロアカリ,0
1730,8140001134577,新規,0,2024-05-30,2024-05-30,株式会社真弘,,株式会社,兵庫県,西宮市,山口町下山口５丁目８番２０号,,28,204,6511412,,,,,,,2024-05-30,1,,,,,シンコウ,0
1743,8180001161709,新規,0,2024-05-30,2024-05-30,株式会社Ａｐｒｉｎ,,株式会社,愛知県,名古屋市中村区,黄金通２丁目３２番地メゾン黄金１１５号室,,23,105,4530804,,,,,,,2024-05-30,1,,,,,アプリン,0
1744,8180001161733,新規,0,2024-05-30,2024-05-30,株式会社リトルビット,,株式会社,愛知県,尾張旭市,西の野町２丁目１００番地２,,23,226,4880804,,,,,,,2024-05-30,1,,,,,リトルビット,0
1746,8180003026851,新規,0,2024-05-30,2024-05-30,グーフーズ合同会社,,合同会社,愛知県,北名古屋市,鹿田永塚４８番地,,23,234,4810004,,,,,,,2024-05-30,1,,,,,グーフーズ,0
1750,8180303006132,新規,0,2024-05-30,2024-05-30,合同会社エンプレスネイル,,合同会社,愛知県,豊橋市,曙町字南松原１４０番地マンションミツヤ２０１号室,00134954,23,201,4418151,,,,,,,2024-05-30,1,,,,,エンプレスネイル,0
1752,8190001031373,新規,0,2024-05-30,2024-05-30,株式会社エムズワイズホールディングス,,株式会社,三重県,四日市市,新正３丁目５番１６号,,24,202,5100064,,,,,,,2024-05-30,1,,,,,エムズワイズホールディングス,0
1755,8200001042550,新規,0,2024-05-30,2024-05-30,株式会社ＥＩＲＩＮ,,株式会社,岐阜県,岐阜市,福富町田３０６番地７,,21,201,5012567,,,,,,,2024-05-30,1,,,,,エイリン,0
1756,8200003006363,新規,0,2024-05-30,2024-05-30,合同会社アカウンティングラボ,,合同会社,岐阜県,岐阜市,日ノ本町１丁目８番地,,21,201,5008852,,,,,,,2024-05-30,1,,,,,アカウンティングラボ,0
1760,8240001063295,新規,0,2024-05-30,2024-05-30,株式会社青電設,,株式会社,広島県,福山市,横尾町２丁目８－３,,34,207,7200011,,,,,,,2024-05-30,1,,,,,アオデンセツ,0
1768,8290001105943,新規,0,2024-05-30,2024-05-30,中原建装株式会社,,株式会社,福岡県,福岡市城南区,西片江２丁目３５番６－２０２号,,40,136,8140141,,,,,,,2024-05-30,1,,,,,ナカハラケンソウ,0
1773,8310001019034,新規,0,2024-05-30,2024-05-30,株式会社Ｌｉｎａｒｉａ,,株式会社,長崎県,佐世保市,松浦町４番１８号第二大宅ビル２Ｆ２０１,,42,202,8570052,,,,,,,2024-05-30,1,,,,,リナリア,0
1774,8320001020503,新規,0,2024-05-30,2024-05-30,株式会社鈴木住宅,,株式会社,大分県,日田市,天瀬町合田５番地６,,44,204,8794122,,,,,,,2024-05-30,1,,,,,,0
1777,8360003014020,新規,0,2024-05-30,2024-05-30,合同会社４ｓｅａｓｏｎｓ,,合同会社,沖縄県,宮古島市,平良字西里２９番地２,,47,214,9060012,,,,,,,2024-05-30,1,,,,,ファーシーズン,0
1782,8380001034571,新規,0,2024-05-30,2024-05-30,株式会社鶴銀ＨｏｌｄｉｎｇｓＣｏｒｐｏｒａｔｉｏｎ,,株式会社,福島県,郡山市,駅前２丁目３‐７エリート３０ビル２階・３階,,07,203,9638002,,,,,,,2024-05-30,1,,,,,カクギンホールディングスコーポレーション,0
1784,8410003003934,新規,0,2024-05-30,2024-05-30,合同会社Ｅｇｅｎ‐Ｄｅｌｔａ,,合同会社,秋田県,秋田市,雄和田草川字沖村２６０番地,,05,201,0101201,,,,,,,2024-05-30,1,,,,,エゲンデルタ,0
1794,8430003016380,新規,0,2024-05-30,2024-05-30,合同会社ＲＡＤＩＡＲＣ,,合同会社,北海道,札幌市東区,北十七条東１７丁目２番２４－１０２号,,01,103,0650017,,,,,,,2024-05-30,1,,,,,ラディアーク,0
1800,8460301005223,新規,0,2024-05-30,2024-05-30,株式会社ヤマナカ多久恵,,株式会社,北海道,北見市,常呂町字常呂２５番地２２,,01,208,0930210,,,,,,,2024-05-30,1,,,,,ヤマナカタクエ,0
1802,8490005006944,新規,0,2024-05-30,2024-05-30,千松グリーンハイツ管理組合法人,,その他の設立登記法人,高知県,高知市,種崎８６９番地３１,,39,201,7810113,,,,,,,2024-05-30,1,,,,,センショウグリーンハイツ,0
1805,8500001025657,新規,0,2024-05-30,2024-05-30,株式会社Ｐｈａｒｅ,,株式会社,愛媛県,松山市,和泉北２丁目２番３７号,,38,201,7900038,,,,,,,2024-05-30,1,,,,,ファーレ,0
1806,8500005008708,新規,0,2024-05-30,2024-05-30,一般社団法人ＴＥＮユニオン,,その他の設立登記法人,愛媛県,松山市,二番町１丁目１２番地５,,38,201,7900002,,,,,,,2024-05-30,1,,,,,テンユニオン,0
1807,8700150125576,新規,0,2024-05-30,2024-05-30,ｓｈｅｎｚｈｅｎｓｈｉ　ｔｉａｎ　ｊｉａｏ　ｂａｏｂａｏ　ｄｉａｎｚｉ　ｓｈａｎｇｗｕ　ｙｏｕｘｉａｎｇｏｎｇｓｉ,,外国会社等,,,,,,,,ｌｏｎｇｇａｎｇｑｕ　ｂｕｊｉｊｉｅｄａｏ　ｄｅｘｉｎｇｓｈｅｑｕ　ｙｕｅｂａｏｌｕ　４５ｈａｏ４ｈａｏｚｏｎｇｈｅｌｏｕ６０１ｈａｏ　ｓｈｅｎｚｈｅｎ,,,,,,2024-05-30,1,,,,,シンセンシテンジャオバオバオデンシショウムユウゲンコウシ,0
1812,9010001245337,新規,0,2024-05-30,2024-05-30,ＷＥＬＬ　Ｍａｎａｇｅｍｅｎｔ株式会社,,株式会社,東京都,中央区,銀座１丁目１２―４Ｎ＆Ｅ　ＢＬＤ．７階,,13,102,1040061,,,,,,,2024-05-30,1,,,,,ウェルマネジメント,0
1814,9010003043771,新規,0,2024-05-30,2024-05-30,合同会社Ｃｏｓｉｍｏ,,合同会社,東京都,千代田区,九段南３丁目５－１４國総ビル３Ｆ,,13,101,1020074,,,,,,,2024-05-30,1,,,,,コジモ,0
1821,9010401182790,新規,0,2024-05-30,2024-05-30,株式会社ユニヴァ・マグナム,,株式会社,東京都,港区,虎ノ門１丁目３番１号,,13,103,1050001,,,,,,,2024-05-30,1,,,,,ユニヴァマグナム,0
1822,9010403032713,新規,0,2024-05-30,2024-05-30,合同会社ｃｉｉｉ,,合同会社,東京都,港区,南青山３丁目１番３６号青山丸竹ビル６Ｆ,,13,103,1070062,,,,,,,2024-05-30,1,,,,,チー,0
1831,9010701046068,新規,0,2024-05-30,2024-05-30,ＬＩＮＫＨＯＬＩＣ株式会社,,株式会社,東京都,品川区,東大井３丁目１１－１８－５０７,,13,109,1400011,,,,,,,2024-05-30,1,,,,,リンクホリック,0
1832,9010701046076,新規,0,2024-05-30,2024-05-30,株式会社Ｍ・Ｙ・Ｄ・Ｎ,,株式会社,東京都,品川区,南大井５丁目５番３号プラザ南大井１０４,,13,109,1400013,,,,,,,2024-05-30,1,,,,,エムワイディーエヌ,0
1834,9010801035103,新規,0,2024-05-30,2024-05-30,株式会社ココウル,,株式会社,東京都,大田区,山王２丁目４－１,,13,111,1430023,,,,,,,2024-05-30,1,,,,,ココウル,0
1836,9010901055364,新規,0,2024-05-30,2024-05-30,株式会社ノースドローンショー,,株式会社,東京都,世田谷区,成城２丁目３６番地１３号,,13,112,1570066,,,,,,,2024-05-30,1,,,,,ノースドローンショー,0
1838,9010903009095,新規,0,2024-05-30,2024-05-30,ソフトウェア・インテグリティ・グループ合同会社,,合同会社,東京都,世田谷区,玉川２丁目２１番１号,,13,112,1580094,,,,,,,2024-05-30,1,,,,,ソフトウェアインテグリティグループ,0
1839,9010903009104,新規,0,2024-05-30,2024-05-30,合同会社ココカラマリー,,合同会社,東京都,世田谷区,用賀２丁目３２－２１,,13,112,1580097,,,,,,,2024-05-30,1,,,,,ココカラマリー,0
1845,9011003019233,新規,0,2024-05-30,2024-05-30,合同会社シンメディカル,,合同会社,東京都,渋谷区,恵比寿西２丁目２０番８号代官山パーフェクトルーム１０６,,13,113,1500021,,,,,,,2024-05-30,1,,,,,シンメディカル,0
1846,9011005010537,新規,0,2024-05-30,2024-05-30,一般社団法人越境リーダーシップ,,その他の設立登記法人,東京都,渋谷区,本町１丁目１６番１７号,,13,113,1510071,,,,,,,2024-05-30,1,,,,,エッキョウリーダーシップ,0
1849,9011101107492,新規,0,2024-05-30,2024-05-30,晨星株式会社,,株式会社,東京都,新宿区,百人町１丁目１８番－８大久保ビル,,13,104,1690073,,,,,,,2024-05-30,1,,,,,シンセイ,0
1851,9011201025512,新規,0,2024-05-30,2024-05-30,株式会社Ｄｏｖｅｒ,,株式会社,東京都,中野区,中野３丁目３６番１２号,,13,114,1640001,,,,,,,2024-05-30,1,,,,,ドーバー,0
1861,9013301052601,新規,0,2024-05-30,2024-05-30,株式会社カルタ,,株式会社,東京都,豊島区,東池袋４丁目２１番１－３９０９号,,13,116,1700013,,,,,,,2024-05-30,1,,,,,カルタ,0
1866,9020001157498,新規,0,2024-05-30,2024-05-30,株式会社ＶＥＲＴ,,株式会社,神奈川県,川崎市高津区,諏訪１丁目４番６号,,14,134,2130004,,,,,,,2024-05-30,1,,,,,ヴェール,0
1871,9020003026247,新規,0,2024-05-30,2024-05-30,合同会社ＴＲアセット,,合同会社,神奈川県,横浜市西区,南浅間町２番地の３,,14,103,2200074,,,,,,,2024-05-30,1,,,,,ティーアールアセット,0
1875,9021001082356,新規,0,2024-05-30,2024-05-30,株式会社ｋｏｎａｗａｌｋ,,株式会社,神奈川県,鎌倉市,由比ガ浜３丁目９番４１号ビルド由比ヶ浜２０２,,14,204,2480014,,,,,,,2024-05-30,1,,,,,コナウォーク,0
1876,9021003014571,新規,0,2024-05-30,2024-05-30,合同会社九楽味や,,合同会社,神奈川県,高座郡寒川町,倉見２１０１番地１６,,14,321,2530101,,,,,,,2024-05-30,1,,,,,クラミヤ,0
1887,9030001160534,新規,0,2024-05-30,2024-05-30,ジェイエスコネクティビティー株式会社,,株式会社,埼玉県,川越市,中台元町１丁目２番地１１,,11,201,3501138,,,,,,,2024-05-30,1,,,,,ジェイエスコネクティビティー,0
1892,9030003024398,新規,0,2024-05-30,2024-05-30,Ｋｙｏｄａｉ　Ｔｒａｄｉｎｇ合同会社,,合同会社,埼玉県,川越市,大字下赤坂７５１番地の４,,11,201,3501155,,,,,,,2024-05-30,1,,,,,キョウダイトレーディング,0
1900,9040001133811,新規,0,2024-05-30,2024-05-30,華一株式会社,,株式会社,千葉県,市川市,市川南４丁目４番２６号,,12,203,2720033,,,,,,,2024-05-30,1,,,,,カイチ,0
1903,9040003025098,新規,0,2024-05-30,2024-05-30,合同会社メイクセンス,,合同会社,千葉県,市川市,下貝塚１丁目１３－２５,,12,203,2720821,,,,,,,2024-05-30,1,,,,,メイクセンス,0
1905,9040005022408,新規,0,2024-05-30,2024-05-30,一般社団法人Ｅｕｒｅｋａ　ｃｏｃｏ,,その他の設立登記法人,千葉県,我孫子市,高野山２６３番地の６,,12,222,2701145,,,,,,,2024-05-30,1,,,,,ユーリカココ,0
1906,9050001054833,新規,0,2024-05-30,2024-05-30,実醪株式会社,,株式会社,茨城県,取手市,野々井１００７番地１,,08,217,3020032,,,,,,,2024-05-30,1,,,,,ミムロ,0
1908,9050003008408,新規,0,2024-05-30,2024-05-30,合同会社うすい不動産,,合同会社,茨城県,水戸市,上河内町６０３番地の４,,08,201,3100001,,,,,,,2024-05-30,1,,,,,ウスイフドウサン,0
1912,9060001037151,新規,0,2024-05-30,2024-05-30,ナカムラワークス株式会社,,株式会社,栃木県,宇都宮市,岩曽町１５０４番地３サンビレッジ岩曽Ｅ１０２,,09,201,3210973,,,,,,,2024-05-30,1,,,,,ナカムラワークス,0
1914,9060003005098,新規,0,2024-05-30,2024-05-30,Ａｒｓｌａｎ　Ｔｒａｄｉｎｇ合同会社,,合同会社,栃木県,佐野市,免鳥町７６１番地１,,09,204,3270041,,,,,,,2024-05-30,1,,,,,アルスラーントレーディング,0
1922,9080103003074,新規,0,2024-05-30,2024-05-30,合同会社ｂｒｉｄｇｅ　ｙｏｕ,,合同会社,静岡県,富士宮市,神田川町２６番地の６,,22,207,4180031,,,,,,,2024-05-30,1,,,,,ブリッジユー,0
1937,9120001265340,新規,0,2024-05-30,2024-05-30,ダイハツインフィニアース株式会社,,株式会社,大阪府,大阪市北区,大淀中１丁目１番３０号,,27,127,5310076,,,,,,,2024-05-30,1,,,,,ダイハツインフィニアース,0
1938,9120001265373,新規,0,2024-05-30,2024-05-30,新時計株式会社,,株式会社,大阪府,大阪市平野区,瓜破西２丁目６番２２号,,27,126,5470025,,,,,,,2024-05-30,1,,,,,シントケイ,0
1939,9120001265398,新規,0,2024-05-30,2024-05-30,株式会社Ａｆｔｅｒ　Ａｌｌ,,株式会社,大阪府,大阪市北区,曾根崎新地１丁目１３番２２号御堂筋フロントタワー１Ｆ,,27,127,5300002,,,,,,,2024-05-30,1,,,,,アフターオール,0
1940,9120001265415,新規,0,2024-05-30,2024-05-30,株式会社プラチナム,,株式会社,大阪府,大阪市中央区,松屋町３番２３号,,27,128,5420067,,,,,,,2024-05-30,1,,,,,プラチナム,0
1941,9120001265423,新規,0,2024-05-30,2024-05-30,株式会社まろん,,株式会社,大阪府,大阪市中央区,久太郎町１丁目５番１３号,,27,128,5410056,,,,,,,2024-05-30,1,,,,,マロン,0
1942,9120001265448,新規,0,2024-05-30,2024-05-30,株式会社ＬＵＸ,,株式会社,大阪府,大阪市浪速区,稲荷２丁目１－２３スプランティト難波１３０２号,,27,111,5560023,,,,,,,2024-05-30,1,,,,,ルークス,0
1945,9120003026682,新規,0,2024-05-30,2024-05-30,合同会社エコナカ,,合同会社,大阪府,大阪市淀川区,木川東３丁目３番２２号レジデンスノーブル４０３号,,27,123,5320012,,,,,,,2024-05-30,1,,,,,エコナカ,0
1946,9120003026716,新規,0,2024-05-30,2024-05-30,ＥＺ企画合同会社,,合同会社,大阪府,大阪市西区,新町２丁目５番１－１００７号,,27,106,5500013,,,,,,,2024-05-30,1,,,,,イージーキカク,0
1956,9120901049248,新規,0,2024-05-30,2024-05-30,アクシスＲＳＴソリューション株式会社,,株式会社,大阪府,吹田市,片山町１丁目５－１０ダイオービル２１号室,,27,205,5640082,,,,,,,2024-05-30,1,,,,,アクシスアールエスティーソリューション,0
1968,9140001134592,新規,0,2024-05-30,2024-05-30,株式会社ｔｏｍｏｒｒｏｗ,,株式会社,兵庫県,尼崎市,西本町１丁目２９番２号,,28,202,6600874,,,,,,,2024-05-30,1,,,,,トゥモロー,0
1969,9140001134601,新規,0,2024-05-30,2024-05-30,Ｔｏｗａ株式会社,,株式会社,兵庫県,神戸市垂水区,福田３丁目４番２６号福田ハウス２０６,,28,108,6550013,,,,,,,2024-05-30,1,,,,,トワ,0
1978,9180001161708,新規,0,2024-05-30,2024-05-30,株式会社ｒｅｇｌｏ,,株式会社,愛知県,清須市,下津町北下河原１番地４,,23,233,4520963,,,,,,,2024-05-30,1,,,,,レグロ,0
1979,9180001161716,新規,0,2024-05-30,2024-05-30,株式会社エス・ポイント,,株式会社,愛知県,半田市,青山３丁目２９番地の３,,23,205,4750836,,,,,,,2024-05-30,1,,,,,エスポイント,0
1980,9180001161740,新規,0,2024-05-30,2024-05-30,株式会社わらふく,,株式会社,愛知県,名古屋市北区,光音寺町字野方１９０７番地の２０５ＮＬビル１階,,23,103,4620053,,,,,,,2024-05-30,1,,,,,ワラフク,0
1982,9180005020637,新規,0,2024-05-30,2024-05-30,特定非営利活動法人空家対策コミュニティリボーンハウス,,その他の設立登記法人,愛知県,犬山市,大字犬山字末友５０番地１,,23,215,4840081,,,,,,,2024-05-30,1,,,,,アキヤタイサクコミュニティリボーンハウス,0
2003,9290001105942,新規,0,2024-05-30,2024-05-30,株式会社ディテール福岡,,株式会社,福岡県,福岡市中央区,港１丁目２番１８－１１０３号,,40,133,8100075,,,,,,,2024-05-30,1,,,,,ディテールフクオカ,0
2004,9290001105967,新規,0,2024-05-30,2024-05-30,株式会社Ｒａｄｉｃｅ,,株式会社,福岡県,福岡市中央区,今泉２丁目１番６５号,,40,133,8100021,,,,,,,2024-05-30,1,,,,,ラディーチェ,0
2009,9290801030605,新規,0,2024-05-30,2024-05-30,株式会社Ａ．ＣＲＥＳＴ,,株式会社,福岡県,北九州市小倉北区,萩崎町１３番１－３０３号,,40,106,8020066,,,,,,,2024-05-30,1,,,,,エークレスト,0
2011,9330001032091,新規,0,2024-05-30,2024-05-30,仲＿科技株式会社,00134959,株式会社,熊本県,熊本市中央区,新屋敷３丁目４－３エリーナ新屋敷３０３号室,,43,101,8620975,,,,,,,2024-05-30,1,,,,,チュウイテクノロジー,0
2012,9330001032109,新規,0,2024-05-30,2024-05-30,株式会社ＫＯＳＨＩＮ,,株式会社,熊本県,熊本市中央区,国府本町４番７号エアリーラブＣ－ＩＩ１０３,00134957,43,101,8620948,,,,,,,2024-05-30,1,,,,,コーシン,0
2025,9390001017624,新規,0,2024-05-30,2024-05-30,株式会社Ｃｏ‐Ｒｉｃｈｉ,,株式会社,山形県,山形市,大字青野４８５,,06,201,9902222,,,,,,,2024-05-30,1,,,,,コーリッチ,0
2031,9430001091895,新規,0,2024-05-30,2024-05-30,株式会社ＥＦ,,株式会社,北海道,札幌市東区,北九条東６丁目２番２３－４１３号,,01,103,0600909,,,,,,,2024-05-30,1,,,,,イーエフ,0
2034,9480005007026,新規,0,2024-05-30,2024-05-30,一般社団法人ケーズ,,その他の設立登記法人,徳島県,徳島市,末広２丁目１番２７－２号,,36,201,7700866,,,,,,,2024-05-30,1,,,,,ケーズ,0
2035,9490001010783,新規,0,2024-05-30,2024-05-30,株式会社川上木材,,株式会社,高知県,高岡郡檮原町,田野々７８０番地,,39,405,7850607,,,,,,,2024-05-30,1,,,,,カワカミモクザイ,0
2036,9500001025664,新規,0,2024-05-30,2024-05-30,濱産業株式会社,,株式会社,愛媛県,松山市,和泉北１丁目１３番３９号,,38,201,7900038,,,,,,,2024-05-30,1,,,,,ハマサンギョウ,0
2039,9700150125674,新規,0,2024-05-30,2024-05-29,日本バプテスト連盟松本蟻ケ崎キリスト教会,,その他,長野県,松本市,蟻ケ崎６丁目４－３,,20,202,3900861,,,,,,,2024-05-29,1,,,,,ニホンバプテストレンメイマツモトアリガサキキリストキヨウカイ,0
2040,9700150125690,新規,0,2024-05-30,2024-05-30,み春野自治会,,その他,千葉県,千葉市花見川区,み春野２丁目１５－４,,12,102,2620007,,,,,,,2024-05-30,1,,,,,ミハルノジチカイ,0
