sequenceNumber,corporateNumber,process,correct,updateDate,changeDate,name,nameImageId,kind,prefectureName,cityName,streetNumber,addressImageId,prefectureCode,cityCode,postCode,addressOutside,addressOutsideImageId,closeDate,closeCause,successorCorporateNumber,changeCause,assignmentDate,latest,enName,enPrefectureName,enCityName,enAddressOutside,furigana,hihyoji
3,1010001112692,登記記録の閉鎖等,0,2025-05-02,2025-04-11,株式会社魚竹,,株式会社,東京都,中央区,築地１丁目９番１号,,13,102,1040045,,,2025-04-11,清算の結了等,,,2015-10-05,1,,,,,ウオタケ,0
6,1010001217863,登記記録の閉鎖等,0,2025-05-02,2025-04-23,株式会社ＭＥＣＥプロデュースＷｅｓｔ,,株式会社,愛知県,名古屋市東区,泉１丁目１０－２３パムスガーデンＰＰ２階－２０７,,23,102,4610001,,,2025-04-23,清算の結了等,,,2021-05-07,1,,,,,ミーシープロデュースウェスト,0
80,1020001006753,登記記録の閉鎖等,0,2025-05-02,2025-04-30,株式会社守屋医療酸素商会,,株式会社,神奈川県,横浜市金沢区,幸浦２丁目１８番６号,,14,108,2360003,,,2025-04-30,合併による解散等,9011101021181,令和７年４月１日東京都新宿区北新宿二丁目１２番１２号ＩＫＧリテール＆メディカル株式会社（9011101021181）に合併し解散,2015-10-05,1,,,,,モリヤイリョウサンソショウカイ,0
81,1020001037518,登記記録の閉鎖等,0,2025-05-02,2025-04-21,株式会社フードデザイン事務所,,株式会社,神奈川県,横浜市青葉区,若草台一丁目１番地,,14,117,2270045,,,2025-04-21,清算の結了等,,,2015-10-05,1,,,,,フードデザインジムショ,0
82,1020001095929,登記記録の閉鎖等,0,2025-05-02,2025-04-22,株式会社ウィル,,株式会社,神奈川県,横浜市中区,常盤町２丁目２０ヴィラハイツ関内３０３,,14,104,2310014,,,2025-04-22,清算の結了等,,,2015-10-05,1,,,,,ウィル,0
103,1030001119216,登記記録の閉鎖等,0,2025-05-02,2025-04-28,ＶＪＭ株式会社,,株式会社,埼玉県,鶴ヶ島市,大字上広谷１３３番地２９,,11,241,3502203,,,2025-04-28,清算の結了等,,,2017-03-16,1,,,,,ブイジェーエム,0
108,1030002115453,登記記録の閉鎖等,0,2025-05-02,2025-04-30,有限会社グレイ・ライン,,有限会社,埼玉県,行田市,大字下忍字高畑１８３７番地１,,11,206,3610037,,,2025-04-30,清算の結了等,,,2015-10-05,1,,,,,グレイライン,0
119,1040002024868,登記記録の閉鎖等,0,2025-05-02,2025-04-18,有限会社文久ビジネス,,有限会社,千葉県,船橋市,二宮１丁目１５番５号,,12,204,2740823,,,2025-04-18,清算の結了等,,,2015-10-05,1,,,,,ブンキュウビジネス,0
125,1060001011519,登記記録の閉鎖等,0,2025-05-02,2025-04-10,春伸建設株式会社,,株式会社,東京都,千代田区,丸の内３丁目４番１号新国際ビル４階,,13,101,1000005,,,2025-04-10,清算の結了等,,,2015-10-05,1,,,,,ハルノブケンセツ,0
132,1080102002373,登記記録の閉鎖等,0,2025-05-02,2025-04-23,有限会社ディフェンド,,有限会社,静岡県,沼津市,山ケ下町２４１２番地の３,,22,203,4100812,,,2025-04-23,清算の結了等,,,2015-10-05,1,,,,,,0
135,1100001007719,登記記録の閉鎖等,0,2025-05-02,2025-04-28,株式会社マルエー,,株式会社,長野県,佐久市,根々井３５２番地,,20,217,3850012,,,2025-04-28,清算の結了等,,,2015-10-05,1,,,,,マルエー,0
137,1100002017840,登記記録の閉鎖等,0,2025-05-02,2025-04-24,有限会社春日工務店,,有限会社,長野県,中野市,三好町１丁目４番２２号,,20,211,3830025,,,2025-04-24,清算の結了等,,,2015-10-05,1,,,,,カスガコウムテン,0
142,1110002000011,登記記録の閉鎖等,0,2025-05-02,2025-04-17,有限会社旭タイヤ工業所,,有限会社,新潟県,新潟市西区,山田３０７３番地,,15,107,9501101,,,2025-04-17,清算の結了等,,,2015-10-05,1,,,,,アサヒタイヤコウギョウショ,0
143,1110002023383,登記記録の閉鎖等,0,2025-05-02,2025-04-18,有限会社富士黒板,,有限会社,新潟県,上越市,大和３丁目１７番３号,,15,222,9430861,,,2025-04-18,清算の結了等,,,2015-10-05,1,,,,,フジコクバン,0
146,1120001121121,登記記録の閉鎖等,0,2025-05-02,2025-04-14,株式会社イエルバ,,株式会社,大阪府,大阪市西区,南堀江１丁目１１－１５,,27,106,5500015,,,2025-04-14,清算の結了等,,,2015-10-05,1,,,,,イエルバ,0
149,1120001194679,登記記録の閉鎖等,0,2025-05-02,2025-04-14,株式会社ｅｌｅｇａｎｃｅ,,株式会社,大阪府,大阪市北区,天満４丁目９番４号,,27,127,5300043,,,2025-04-14,清算の結了等,,,2015-11-25,1,,,,,,0
172,1120901040528,登記記録の閉鎖等,0,2025-05-02,2025-04-18,株式会社ＫＡＧＵＲＡ,,株式会社,大阪府,吹田市,桃山台３丁目３１番５号,,27,205,5650854,,,2025-04-18,清算の結了等,,,2018-10-26,1,,,,,,0
190,1180001001937,登記記録の閉鎖等,0,2025-05-02,2025-04-22,株式会社纐纈業務店,,株式会社,愛知県,名古屋市名東区,梅森坂１丁目２２２番地,,23,115,4650065,,,2025-04-22,清算の結了等,,,2015-10-05,1,,,,,コウケツギョウムテン,0
191,1180001148431,登記記録の閉鎖等,0,2025-05-02,2025-04-24,株式会社Ｍａｒｉｎ,,株式会社,愛知県,知多郡南知多町,大字日間賀島字西浜１５番地,,23,445,4703504,,,2025-04-24,清算の結了等,,,2021-10-27,1,,,,,マリン,0
194,1180002089567,登記記録の閉鎖等,0,2025-05-02,2025-04-24,株式会社犬飼誠建築設計事務所,,株式会社,愛知県,海部郡蟹江町,源氏１丁目１２２番地,,23,425,4970055,,,2025-04-24,清算の結了等,,,2015-10-05,1,,,,,イヌカイマコトケンチクセッケイジムショ,0
209,1210002013151,登記記録の閉鎖等,0,2025-05-02,2025-04-28,有限会社ダイナスティ,,有限会社,福井県,鯖江市,有定町３丁目６番１２号,,18,207,9160057,,,2025-04-28,清算の結了等,,,2015-10-05,1,,,,,ダイナスティ,0
223,1250002018725,登記記録の閉鎖等,0,2025-05-02,2025-04-28,有限会社森本商事,,有限会社,山口県,岩国市,錦見１丁目８番２７号,,35,208,7410061,,,2025-04-28,清算の結了等,,,2015-10-05,1,,,,,モリモトショウジ,0
224,1250005007584,登記記録の閉鎖等,0,2025-05-02,2025-04-28,農事組合法人なべくらの郷,,その他の設立登記法人,山口県,山口市,阿東徳佐下１４４１番地,,35,203,7591513,,,2025-04-28,清算の結了等,,,2015-10-05,1,,,,,ナベクラノサト,0
229,1270005002311,登記記録の閉鎖等,0,2025-05-02,2024-12-24,清常神社,,その他の設立登記法人,鳥取県,八頭郡八頭町,柿原３６３番地,,31,329,6800545,,,2024-12-24,合併による解散等,3270005002342,令和６年１２月２４日鳥取県八頭郡八頭町三浦１番地三浦神社（3270005002342）に合併し解散,2015-10-05,1,,,,,キヨツネジンジャ,0
232,1290001035008,登記記録の閉鎖等,0,2025-05-02,2025-04-18,株式会社フラットホレブ,,株式会社,福岡県,福岡市中央区,御所ヶ谷１－６－３０５,,40,133,8100027,,,2025-04-18,清算の結了等,,,2015-10-05,1,,,,,フラットホレブ,0
237,1290001069402,登記記録の閉鎖等,0,2025-05-02,2025-04-10,株式会社Ｎａｙｕｔａ,,株式会社,福岡県,福岡市中央区,平和３丁目１９番１３号,,40,133,8100016,,,2025-04-10,清算の結了等,,,2015-10-05,1,,,,,ナユタ,0
252,1330001005369,登記記録の閉鎖等,0,2025-05-02,2025-04-24,株式会社フェーム,,株式会社,熊本県,熊本市南区,城南町藤山２０９０番地,,43,104,8614223,,,2025-04-24,清算の結了等,,,2015-10-05,1,,,,,フェーム,0
263,1350001007644,登記記録の閉鎖等,0,2025-05-02,2025-04-28,株式会社ヨシカワ農機,,株式会社,宮崎県,宮崎市,佐土原町下那珂７６４６番地１,,45,201,8800212,,,2025-04-28,清算の結了等,,,2015-10-05,1,,,,,ヨシカワノウキ,0
268,1370002020297,登記記録の閉鎖等,0,2025-05-02,2025-04-16,有限会社広瀬工務店,,有限会社,宮城県,黒川郡大和町,吉岡南２丁目１４番地の１０,,04,421,9813626,,,2025-04-16,清算の結了等,,,2015-10-05,1,,,,,ヒロセコウムテン,0
272,1380001016287,登記記録の閉鎖等,0,2025-05-02,2025-04-23,株式会社大場機械,,株式会社,福島県,南相馬市,原町区日の出町２２３番地,,07,212,9750038,,,2025-04-23,清算の結了等,,,2015-10-05,1,,,,,オオバキカイ,0
273,1380002021617,登記記録の閉鎖等,0,2025-05-02,2025-04-08,有限会社システムデザイン,,有限会社,福島県,須賀川市,雨田字塊坪９番地,,07,207,9620721,,,2025-04-08,清算の結了等,,,2015-10-05,1,,,,,システムデザイン,0
274,1390001010917,登記記録の閉鎖等,0,2025-05-02,2025-04-17,株式会社アグリ三澤,,株式会社,山形県,米沢市,大字口田沢１４５７番地の３,,06,202,9921581,,,2025-04-17,清算の結了等,,,2015-10-05,1,,,,,アグリミサワ,0
275,1390001016682,登記記録の閉鎖等,0,2025-05-02,2025-04-18,はなまる株式会社,,株式会社,山形県,山形市,旭が丘２番２３号,,06,201,9902434,,,2025-04-18,清算の結了等,,,2021-11-15,1,,,,,ハナマル,0
279,1400002009279,登記記録の閉鎖等,0,2025-05-02,2025-04-14,有限会社北上車輌整備工場,,有限会社,岩手県,北上市,鬼柳町荒堰３４番地の１,,03,206,0240056,,,2025-04-14,清算の結了等,,,2015-10-05,1,,,,,キタカミシャリョウセイビコウジョウ,0
286,1480003000709,登記記録の閉鎖等,0,2025-05-02,2025-04-11,ＷａｎＷａｎ合同会社,,合同会社,徳島県,徳島市,西船場町３丁目９－１産交ビル３階,,36,201,7700901,,,2025-04-11,清算の結了等,,,2015-10-05,1,,,,,ワンワン,0
300,2010003028688,登記記録の閉鎖等,0,2025-05-02,2025-04-11,合同会社Ｒｈａｐｓｏｄｙ,,合同会社,東京都,中央区,銀座１丁目６番１１号土志田ビルディング３Ｆ,,13,102,1040061,,,2025-04-11,清算の結了等,,,2018-11-14,1,,,,,ラプソディー,0
308,2010403014437,登記記録の閉鎖等,0,2025-05-02,2025-05-01,イーパートナーズ合同会社,,合同会社,大阪府,大阪市浪速区,下寺３丁目１９番１８－４０１号,,27,111,5560001,,,2025-05-01,清算の結了等,,,2016-02-18,1,,,,,イーパートナーズ,0
330,2011001159211,登記記録の閉鎖等,0,2025-05-02,2025-04-01,株式会社ＤＧコマース,,株式会社,東京都,渋谷区,恵比寿南３丁目５番７号,,13,113,1500022,,,2025-04-01,合併による解散等,4011001063659,令和７年４月１日東京都渋谷区恵比寿南三丁目５番７号株式会社ＤＧビジネステクノロジー（4011001063659）に合併し解散,2024-01-09,1,,,,,ディージーコマース,0
347,2011601010608,登記記録の閉鎖等,0,2025-05-02,2025-04-28,株式会社シー・カム,,株式会社,埼玉県,所沢市,大字下安松５０番地の２５,,11,208,3590024,,,2025-04-28,清算の結了等,,,2015-10-05,1,,,,,シーカム,0
360,2012405004589,登記記録の閉鎖等,0,2025-05-02,2025-04-21,特定非営利活動法人日本訪問美容協会,,その他の設立登記法人,東京都,多摩市,豊ヶ丘２丁目３２番地の３スカイプラザ豊ヶ丘３０１,,13,224,2060031,,,2025-04-21,清算の結了等,,,2021-04-30,1,,,,,ニホンホウモンビヨウキョウカイ,0
368,2013401004260,登記記録の閉鎖等,0,2025-05-02,2025-04-28,文京運送株式会社,,株式会社,東京都,多摩市,鶴牧２丁目３番地３,,13,224,2060034,,,2025-04-28,清算の結了等,,,2015-10-05,1,,,,,ブンキョウウンソウ,0
393,2030002099927,登記記録の閉鎖等,0,2025-05-02,2025-04-28,有限会社浅井機工,,有限会社,埼玉県,川口市,大字新堀４０６番地の１６,,11,203,3340061,,,2025-04-28,清算の結了等,,,2015-10-05,1,,,,,アサイキコウ,0
394,2030002106955,登記記録の閉鎖等,0,2025-05-02,2025-04-30,有限会社堀江建設,,有限会社,埼玉県,川口市,西青木１丁目３番１９号,,11,203,3320035,,,2025-04-30,清算の結了等,,,2015-10-05,1,,,,,ホリエケンセツ,0
399,2040001010851,登記記録の閉鎖等,0,2025-05-02,2025-04-16,東日本レールウェイサービス株式会社,,株式会社,千葉県,千葉市若葉区,千城台北２丁目１５番７号,,12,104,2640005,,,2025-04-16,清算の結了等,,,2015-10-05,1,,,,,ヒガシニホンレールウェイサービス,0
417,2110002021989,登記記録の閉鎖等,0,2025-05-02,2025-04-18,有限会社山一長谷川商店,,有限会社,新潟県,村上市,坂町２４０３番地１６,,15,212,9593132,,,2025-04-18,清算の結了等,,,2015-10-05,1,,,,,ヤマイチハセガワショウテン,0
442,2130002034378,登記記録の閉鎖等,0,2025-05-02,2025-04-28,有限会社シィライラ,,有限会社,京都府,舞鶴市,字森２９５番地,,26,202,6250062,,,2025-04-28,清算の結了等,,,2015-10-05,1,,,,,シィライラ,0
444,2140001003705,登記記録の閉鎖等,0,2025-05-02,2025-04-28,株式会社天藤建築設計事務所,,株式会社,兵庫県,西宮市,西宮浜４丁目１２番５－１１１０号,,28,204,6620934,,,2025-04-28,清算の結了等,,,2015-10-05,1,,,,,テンドウケンチクセッケイジムショ,0
460,2180001142020,登記記録の閉鎖等,0,2025-05-02,2025-04-21,株式会社ティービーエム,,株式会社,愛知県,知多郡阿久比町,大字植大字高徳吉１番地１０,,23,441,4702216,,,2025-04-21,清算の結了等,,,2020-07-14,1,,,,,ティービーエム,0
465,2180002089335,登記記録の閉鎖等,0,2025-05-02,2025-04-24,有限会社卓,,有限会社,愛知県,津島市,江東町１丁目１１番地,,23,208,4960855,,,2025-04-24,清算の結了等,,,2015-10-05,1,,,,,タク,0
466,2180003024670,登記記録の閉鎖等,0,2025-05-02,2025-04-23,合同会社ｃｒｉｍｉｎｇ,,合同会社,愛知県,一宮市,多加木４丁目３１－１２,,23,203,4910837,,,2025-04-23,清算の結了等,,,2023-01-06,1,,,,,クリミング,0
486,2240005015100,登記記録の閉鎖等,0,2025-05-02,2025-04-25,ＧＨＲ協同組合,,その他の設立登記法人,愛知県,岡崎市,六名本町４番地３ハイビレッジ２１－２０１号,,23,202,4440854,,,2025-04-25,清算の結了等,,,2020-10-09,1,,,,,ジーエイチアール,0
488,2250005005034,登記記録の閉鎖等,0,2025-05-02,2025-04-30,きっとカード事業協同組合,,その他の設立登記法人,山口県,周南市,糀町１丁目５３番地１,,35,215,7450027,,,2025-04-30,清算の結了等,,,2015-10-05,1,,,,,キットカード,0
492,2270001002669,登記記録の閉鎖等,0,2025-05-02,2025-04-30,株式会社マミー,,株式会社,鳥取県,鳥取市,商栄町２０３番地６,,31,201,6800912,,,2025-04-30,清算の結了等,,,2015-10-05,1,,,,,マミー,0
495,2280005000313,登記記録の閉鎖等,0,2025-05-02,2025-04-21,松江酒販協同組合,,その他の設立登記法人,島根県,松江市,母衣町４６番地,,32,201,6900886,,,2025-04-21,合併による解散等,4280005002729,令和７年４月１日島根県出雲市高松町５７０番地出雲酒販協同組合（4280005002729）に合併し解散,2015-10-05,1,,,,,マツエシュハン,0
498,2290002010000,登記記録の閉鎖等,0,2025-05-02,2025-04-18,有限会社大塩コンタクトレンズ,,有限会社,福岡県,福岡市中央区,地行１丁目２番１号,,40,133,8100064,,,2025-04-18,清算の結了等,,,2015-10-05,1,,,,,オオシオコンタクトレンズ,0
512,2330002008312,登記記録の閉鎖等,0,2025-05-02,2025-04-23,有限会社八村工務店,,有限会社,熊本県,熊本市東区,戸島５丁目８番２９号,,43,102,8618041,,,2025-04-23,清算の結了等,,,2015-10-05,1,,,,,ハチムラコウムテン,0
517,2350005005791,登記記録の閉鎖等,0,2025-05-02,2025-04-23,一般社団法人ドリプラひむか,,その他の設立登記法人,宮崎県,延岡市,船倉町２丁目２番地,,45,203,8820826,,,2025-04-23,清算の結了等,,,2018-09-19,1,,,,,ドリプラヒムカ,0
527,2430001084947,登記記録の閉鎖等,0,2025-05-02,2025-04-18,株式会社アイムソーリー,,株式会社,北海道,札幌市中央区,南九条西４丁目３－１ＡＭＳＴＯＷＥＲ４０４号室,,01,101,0640809,,,2025-04-18,清算の結了等,,,2021-09-13,1,,,,,アイムソーリー,0
542,2490005004268,登記記録の閉鎖等,0,2025-05-02,2025-04-30,特定非営利活動法人中土佐町青少年育成おがたま会,,その他の設立登記法人,高知県,高岡郡中土佐町,久礼６４５０番地,,39,401,7891301,,,2025-04-30,清算の結了等,,,2015-10-05,1,,,,,ナカトサチョウセイショウネンイクセイオガタマカイ,0
550,3010001171984,登記記録の閉鎖等,0,2025-05-02,2025-04-11,株式会社Ｍｅｄｉｐｌａｔ,,株式会社,東京都,中央区,築地１丁目１３番１号,,13,102,1040045,,,2025-04-11,清算の結了等,,,2015-12-01,1,,,,,メディプラット,0
556,3010003039899,登記記録の閉鎖等,0,2025-05-02,2025-04-11,ＬＦ物流ファンドスリー合同会社,,合同会社,東京都,千代田区,丸の内１丁目４番１号東京共同会計事務所内,,13,101,1000005,,,2025-04-11,清算の結了等,,,2023-02-24,1,,,,,エルエフブツリュウファンドスリー,0
565,3010401082996,登記記録の閉鎖等,0,2025-05-02,2025-04-04,ＵＴパートナーズ株式会社,,株式会社,東京都,品川区,東五反田１丁目１１番１５号,,13,109,1410022,,,2025-04-04,合併による解散等,3140001041142,令和７年４月１日東京都品川区東五反田一丁目１１番１５号ＵＴエージェント株式会社（3140001041142）に合併し解散,2015-10-05,1,,,,,ユーティーパートナーズ,0
570,3010501024114,登記記録の閉鎖等,0,2025-05-02,2025-04-09,株式会社サンミツシエル,,株式会社,東京都,台東区,雷門１丁目１１番１２号,,13,106,1110034,,,2025-04-09,清算の結了等,,,2015-10-05,1,,,,,サンミツシエル,0
575,3010701018221,登記記録の閉鎖等,0,2025-05-02,2025-04-14,株式会社ＩＳＬＷＡＲＥ,,株式会社,東京都,千代田区,神田神保町１丁目１０５番地,,13,101,1010051,,,2025-04-14,合併による解散等,7010001136331,令和７年４月１日東京都千代田区神田神保町一丁目１０５番地株式会社フォトロン（7010001136331）に合併し解散,2015-10-05,1,,,,,アイエスエルウェア,0
576,3010701029714,登記記録の閉鎖等,0,2025-05-02,2025-04-08,株式会社Ｉｎｆｌｅｃｔ,,株式会社,東京都,新宿区,北新宿２丁目２１番１号新宿フロントタワー５階,,13,104,1690074,,,2025-04-08,清算の結了等,,,2015-10-05,1,,,,,インフレクト,0
583,3011001049238,登記記録の閉鎖等,0,2025-05-02,2025-04-01,株式会社ＥＡＢホールディングス,,株式会社,東京都,目黒区,自由が丘２丁目１４番９号コーポ住吉３０１号,,13,110,1520035,,,2025-04-01,合併による解散等,4011101068368,令和７年４月１日東京都目黒区自由が丘二丁目１４番９号コーポ住吉３０１号株式会社ＥＡＢリアルエステート（4011101068368）に合併し解散,2015-10-05,1,,,,,イーエービーホールディングス,0
586,3011001127225,登記記録の閉鎖等,0,2025-05-02,2025-04-01,株式会社ＤｉｇｉｔａｌＡｐｅ,,株式会社,東京都,目黒区,駒場４丁目１番６－４０５号,,13,110,1530041,,,2025-04-01,清算の結了等,,,2019-03-27,1,,,,,デジタルエイプ,0
608,3011601017627,登記記録の閉鎖等,0,2025-05-02,2025-04-22,株式会社グローリー,,株式会社,東京都,練馬区,豊玉中２丁目２５番１０－２０９号,,13,120,1760013,,,2025-04-22,清算の結了等,,,2015-10-05,1,,,,,グローリー,0
624,3013101000864,登記記録の閉鎖等,0,2025-05-02,2025-04-28,株式会社井上商店,,株式会社,東京都,あきる野市,五日市１４８番地,,13,228,1900164,,,2025-04-28,清算の結了等,,,2015-10-05,1,,,,,イノウエショウテン,0
650,3030002046498,登記記録の閉鎖等,0,2025-05-02,2025-04-30,有限会社イトウ,,有限会社,埼玉県,八潮市,大字伊勢野２８５番地２,,11,234,3400821,,,2025-04-30,清算の結了等,,,2015-10-05,1,,,,,イトウ,0
668,3060003002910,登記記録の閉鎖等,0,2025-05-02,2025-04-22,合同会社ひかり,,合同会社,栃木県,佐野市,奈良渕町３０９番地１６安藤アパートＥ,,09,204,3270842,,,2025-04-22,清算の結了等,,,2018-09-07,1,,,,,ヒカリ,0
670,3070001030037,登記記録の閉鎖等,0,2025-05-02,2025-04-25,ティーズカンパニー株式会社,,株式会社,群馬県,高崎市,下里見町１９３１番地３,,10,202,3703343,,,2025-04-25,清算の結了等,,,2015-10-05,1,,,,,ティーズカンパニー,0
679,3110001005257,登記記録の閉鎖等,0,2025-05-02,2025-04-18,マツリインダストリー株式会社,,株式会社,新潟県,新潟市中央区,西堀通３番町２５８番地４３三番町ビル３Ｆ,,15,103,9518061,,,2025-04-18,清算の結了等,,,2015-10-05,1,,,,,マツリインダストリー,0
685,3120001066406,登記記録の閉鎖等,0,2025-05-02,2025-04-16,株式会社ダイヤルエム,,株式会社,大阪府,大阪市北区,天神橋１丁目１１番１４号,,27,127,5300041,,,2025-04-16,清算の結了等,,,2015-10-05,1,,,,,ダイヤルエム,0
686,3120001125277,登記記録の閉鎖等,0,2025-05-02,2025-04-14,株式会社スターツーリスト,,株式会社,大阪府,大阪市天王寺区,上本町６丁目３番３１号,,27,109,5430001,,,2025-04-14,清算の結了等,,,2015-10-05,1,,,,,,0
687,3120001176329,登記記録の閉鎖等,0,2025-05-02,2025-04-14,株式会社光新,,株式会社,大阪府,大阪市都島区,都島南通２丁目１番２－５０７号,,27,102,5340023,,,2025-04-14,清算の結了等,,,2015-10-05,1,,,,,コウシン,0
707,3120102002160,登記記録の閉鎖等,0,2025-05-02,2025-04-28,有限会社さぬき自動車,,有限会社,大阪府,堺市西区,浜寺石津町西３丁５番２５号,,27,144,5928333,,,2025-04-28,合併による解散等,2120002020420,令和７年４月２４日大阪市浪速区桜川二丁目１０番１号株式会社ニューモリモト（2120002020420）に合併し解散,2015-10-05,1,,,,,サヌキジドウシャ,0
738,3160002007090,登記記録の閉鎖等,0,2025-05-02,2025-04-28,有限会社山田デンキ,,有限会社,滋賀県,長浜市,元浜町２７番４号,,25,203,5260059,,,2025-04-28,清算の結了等,,,2015-10-05,1,,,,,ヤマダデンキ,0
746,3180001147638,登記記録の閉鎖等,0,2025-05-02,2025-04-23,さんだんコンサルティング株式会社,,株式会社,愛知県,日進市,赤池１丁目３００１番地,,23,230,4700125,,,2025-04-23,合併による解散等,7180001122141,令和７年４月２３日愛知県日進市赤池一丁目３００１番地株式会社さんだん會計事務所（7180001122141）に合併し解散,2021-09-06,1,,,,,サンダンコンサルティング,0
748,3180002000250,登記記録の閉鎖等,0,2025-05-02,2025-04-24,有限会社エムエーオート商会,,有限会社,愛知県,名古屋市守山区,大字中志段味字大洞口２７２２番地の１,,23,113,4630002,,,2025-04-24,清算の結了等,,,2015-10-05,1,,,,,エムエーオートショウカイ,0
766,3220001008892,登記記録の閉鎖等,0,2025-05-02,2025-04-30,北陸ホーム株式会社,,株式会社,石川県,白山市,湊町２号６９番地,,17,210,9290217,,,2025-04-30,清算の結了等,,,2015-10-05,1,,,,,ホクリクホーム,0
780,3280001005703,登記記録の閉鎖等,0,2025-05-02,2025-04-28,株式会社仁多堆肥センター,,株式会社,島根県,仁多郡奥出雲町,下阿井１７６６番地２２,,32,343,6991622,,,2025-04-28,合併による解散等,8280001005624,令和７年４月１日島根県仁多郡奥出雲町高尾１７８７番２２奥出雲仁多米株式会社（8280001005624）に合併し解散,2015-10-05,1,,,,,ニタタイヒセンター,0
784,3290001046754,登記記録の閉鎖等,0,2025-05-02,2025-04-28,コスモ電材株式会社,,株式会社,福岡県,福岡市博多区,山王２丁目１２番５号,,40,132,8120015,,,2025-04-28,合併による解散等,8010001238440,令和７年４月１日東京都千代田区一番町２番地ＣＣＨ７ｃ株式会社（8010001238440）に合併し解散,2015-10-05,1,,,,,コスモデンザイ,0
785,3290001085587,登記記録の閉鎖等,0,2025-05-02,2025-04-18,株式会社クライム,,株式会社,福岡県,筑紫野市,二日市中央６丁目４番３号ムツミビル２０２,,40,217,8180072,,,2025-04-18,清算の結了等,,,2019-06-21,1,,,,,,0
791,3310002000377,登記記録の閉鎖等,0,2025-05-02,2025-04-25,有限会社ナカモト,,有限会社,長崎県,長崎市,かき道４丁目５７番１号,,42,201,8510115,,,2025-04-25,清算の結了等,,,2015-10-05,1,,,,,ナカモト,0
803,3330002027724,登記記録の閉鎖等,0,2025-05-02,2025-04-21,有限会社オートギャラリー水俣,,有限会社,熊本県,水俣市,初野３０９番地の６,,43,205,8670002,,,2025-04-21,清算の結了等,,,2015-10-05,1,,,,,オートギャラリーミナマタ,0
816,3370305000119,登記記録の閉鎖等,0,2025-05-02,2025-04-15,宮城東部陸運協同組合,,その他の設立登記法人,宮城県,石巻市,重吉町８番地の６,,04,202,9860844,,,2025-04-15,清算の結了等,,,2015-10-05,1,,,,,ミヤギトウブリクウン,0
818,3390002006169,登記記録の閉鎖等,0,2025-05-02,2025-04-10,株式会社ＳＪ,,株式会社,東京都,中央区,八重洲２丁目８番７号福岡ビル９階,,13,102,1040028,,,2025-04-10,清算の結了等,,,2015-10-05,1,,,,,エスジェイ,0
819,3390003000030,登記記録の閉鎖等,0,2025-05-02,2025-04-21,合資会社三協社,,合資会社,山形県,山形市,飯田５丁目５番１５号,,06,201,9902332,,,2025-04-21,清算の結了等,,,2015-10-05,1,,,,,サンキョウシャ,0
821,3410005001247,登記記録の閉鎖等,0,2025-05-02,2025-04-25,特定非営利活動法人イーストベガス推進協議会,,その他の設立登記法人,秋田県,秋田市,旭北栄町１番４８号,,05,201,0100922,,,2025-04-25,清算の結了等,,,2015-10-05,1,,,,,イーストベガススイシンキョウギカイ,0
857,4010001227538,登記記録の閉鎖等,0,2025-05-02,2025-04-14,株式会社エルティー,,株式会社,東京都,千代田区,大手町１丁目２番１号,,13,101,1000004,,,2025-04-14,合併による解散等,7010003026448,令和７年４月１４日東京都千代田区丸の内一丁目４番１号東京共同会計事務所内合同会社エメラルド（7010003026448）に合併し解散,2022-06-21,1,,,,,エルティー,0
876,4010703006669,登記記録の閉鎖等,0,2025-05-02,2025-04-08,合同会社Ｗａｌｋ　ｏｎ,,合同会社,東京都,品川区,大井１丁目４３番１０号第１丸英ビル３０５,,13,109,1400014,,,2025-04-08,清算の結了等,,,2023-04-20,1,,,,,ウォークオン,0
878,4010801016009,登記記録の閉鎖等,0,2025-05-02,2025-04-21,株式会社Ｐｓコンサルティング,,株式会社,東京都,大田区,蒲田５丁目１５番８号蒲田月村ビル,,13,111,1440052,,,2025-04-21,清算の結了等,,,2015-10-05,1,,,,,ピーエスコンサルティング,0
880,4010803004770,登記記録の閉鎖等,0,2025-05-02,2025-04-14,ワークワーク合同会社,,合同会社,東京都,大田区,西蒲田７丁目４番４号小山第二ビル６Ｆ,,13,111,1440051,,,2025-04-14,清算の結了等,,,2023-12-05,1,,,,,ワークワーク,0
891,4011005009591,登記記録の閉鎖等,0,2025-05-02,2025-04-02,一般財団法人孝道文化財団,,その他の設立登記法人,東京都,渋谷区,道玄坂２丁目１５番１号ノア道玄坂２１５号室,,13,113,1500043,,,2025-04-02,清算の結了等,,,2022-06-09,1,,,,,コウドウブンカザイダン,0
917,4012701008548,登記記録の閉鎖等,0,2025-05-02,2025-04-28,株式会社ブルーノート,,株式会社,東京都,西東京市,柳沢６丁目７番１８号,,13,229,2020022,,,2025-04-28,清算の結了等,,,2015-10-05,1,,,,,ブルーノート,0
920,4013101004591,登記記録の閉鎖等,0,2025-05-02,2025-04-28,イチカワコーポレーション株式会社,,株式会社,東京都,青梅市,二俣尾３丁目８５０番地の１１,,13,205,1980171,,,2025-04-28,清算の結了等,,,2015-10-05,1,,,,,イチカワコーポレーション,0
921,4013102003436,登記記録の閉鎖等,0,2025-05-02,2025-04-30,有限会社対島工業,,有限会社,東京都,西多摩郡瑞穂町,南平２丁目５４番地３４,,13,303,1901224,,,2025-04-30,清算の結了等,,,2015-10-05,1,,,,,ツシマコウギョウ,0
924,4013302021758,登記記録の閉鎖等,0,2025-05-02,2025-04-10,有限会社土師資産管理会社,,有限会社,東京都,豊島区,北大塚３丁目１０番５号銀研ビル内,,13,116,1700004,,,2025-04-10,合併による解散等,7013301002995,令和７年４月１日東京都豊島区北大塚三丁目１０番５号株式会社土師資産管理会社（7013301002995）に合併し解散,2015-10-05,1,,,,,ハジシサンカンリカイシャ,0
929,4020001156835,登記記録の閉鎖等,0,2025-05-02,2025-04-21,ＥＴＥＲＮＡＬ　Ａ＆Ａ株式会社,,株式会社,神奈川県,横浜市西区,浅間町１丁目４番地３ウィザードビル４０２,,14,103,2200072,,,2025-04-21,清算の結了等,,,2024-04-22,1,,,,,エターナルエーアンドエー,0
953,4040001079761,登記記録の閉鎖等,0,2025-05-02,2025-04-09,株式会社Ｃｅｎｔｅｒ　Ｂａｌａｎｃｅ,,株式会社,東京都,台東区,浅草橋５丁目２番３号８階,,13,106,1110053,,,2025-04-09,清算の結了等,,,2015-10-05,1,,,,,センターバランス,0
968,4060001024674,登記記録の閉鎖等,0,2025-05-02,2025-04-22,株式会社ハーベスト,,株式会社,栃木県,下都賀郡野木町,大字南赤塚１３８８番地,,09,364,3290112,,,2025-04-22,清算の結了等,,,2015-10-05,1,,,,,ハーベスト,0
975,4070002026909,登記記録の閉鎖等,0,2025-05-02,2025-04-24,有限会社ミユキ,,有限会社,群馬県,渋川市,渋川１８２７番地４１,,10,208,3770008,,,2025-04-24,清算の結了等,,,2015-10-05,1,,,,,ミユキ,0
980,4080103003211,登記記録の閉鎖等,0,2025-05-02,2025-04-24,合同会社ＳＵＣＣＥＳＳ,,合同会社,静岡県,駿東郡長泉町,納米里４７５番地の６,,22,342,4110933,,,2025-04-24,清算の結了等,,,2024-12-05,1,,,,,サクセス,0
988,4110002031516,登記記録の閉鎖等,0,2025-05-02,2025-04-21,有限会社エリーヌ,,有限会社,新潟県,見附市,熱田町５７６番地,,15,211,9540061,,,2025-04-21,清算の結了等,,,2015-10-05,1,,,,,エリーヌ,0
992,4120001026482,登記記録の閉鎖等,0,2025-05-02,2025-04-30,セイカイ商事株式会社,,株式会社,大阪府,大阪市此花区,春日出中２丁目９番２８号,,27,104,5540022,,,2025-04-30,清算の結了等,,,2015-10-05,1,,,,,セイカイショウジ,0
995,4120001074812,登記記録の閉鎖等,0,2025-05-02,2025-05-01,株式会社イワノ金属,,株式会社,大阪府,大阪市中央区,上町１丁目２番１２号,,27,128,5400005,,,2025-05-01,清算の結了等,,,2015-10-05,1,,,,,イワノキンゾク,0
996,4120001097912,登記記録の閉鎖等,0,2025-05-02,2025-04-30,株式会社ユニアーク,,株式会社,大阪府,大阪市中央区,安土町１丁目６番２２号グランドメゾン船場２０９号,,27,128,5410052,,,2025-04-30,清算の結了等,,,2015-10-05,1,,,,,ユニアーク,0
1015,4120901030542,登記記録の閉鎖等,0,2025-05-02,2025-04-22,株式会社をぐら昆布,,株式会社,大阪府,豊中市,末広町３丁目１２番１０号,,27,203,5600024,,,2025-04-22,清算の結了等,,,2015-10-05,1,,,,,,0
1030,4140003008337,登記記録の閉鎖等,0,2025-05-02,2025-04-28,合同会社ＩＳホールディングス,,合同会社,兵庫県,宝塚市,中筋２丁目１１番１－３０１号,,28,214,6650874,,,2025-04-28,清算の結了等,,,2015-10-05,1,,,,,アイエスホールディングス,0
1040,4180002040378,登記記録の閉鎖等,0,2025-05-02,2025-04-25,有限会社トヨダ機商,,有限会社,愛知県,清須市,清洲４丁目８番地の７,,23,233,4520942,,,2025-04-25,清算の結了等,,,2015-10-05,1,,,,,トヨダキショウ,0
1050,4180303001905,登記記録の閉鎖等,0,2025-05-02,2025-04-21,たくみフードシステム合同会社,,合同会社,愛知県,岡崎市,明大寺町字中新切１５番地１,,23,202,4440864,,,2025-04-21,清算の結了等,,,2015-10-05,1,,,,,タクミフードシステム,0
1060,4230003001613,登記記録の閉鎖等,0,2025-05-02,2025-04-30,合同会社アイノス,,合同会社,富山県,魚津市,吉島１５７番地２,,16,204,9370041,,,2025-04-30,清算の結了等,,,2021-02-10,1,,,,,アイノス,0
1068,4270005002317,登記記録の閉鎖等,0,2025-05-02,2024-12-10,金刀比羅神社,,その他の設立登記法人,鳥取県,八頭郡八頭町,安井宿１２２３ノ２番地,,31,329,6800521,,,2024-12-10,合併による解散等,8270005002305,令和６年１２月１０日鳥取県八頭郡八頭町安井宿２９７番地伊蘇乃佐只神社（8270005002305）に合併し解散,2015-10-05,1,,,,,コンピラジンジヤ,0
1071,4290001038627,登記記録の閉鎖等,0,2025-05-02,2025-04-18,南方ハウス産業株式会社,,株式会社,福岡県,糟屋郡宇美町,平和１丁目１６番１５号,,40,341,8112121,,,2025-04-18,清算の結了等,,,2015-10-05,1,,,,,ミナカタハウスサンギョウ,0
1072,4290001055440,登記記録の閉鎖等,0,2025-05-02,2025-04-14,株式会社スマイル,,株式会社,福岡県,福岡市中央区,天神５丁目９番２－６０９号,,40,133,8100001,,,2025-04-14,清算の結了等,,,2015-10-05,1,,,,,スマイル,0
1074,4290001081032,登記記録の閉鎖等,0,2025-05-02,2025-04-16,株式会社キシヤＵＳ,,株式会社,福岡県,福岡市西区,今宿１丁目４番１２号,,40,135,8190167,,,2025-04-16,清算の結了等,,,2018-04-10,1,,,,,キシヤユーエス,0
1081,4290802020097,登記記録の閉鎖等,0,2025-05-02,2025-04-28,有限会社生駒コンタクトレンズ研究所,,有限会社,福岡県,直方市,津田町１１番２７号,,40,204,8220026,,,2025-04-28,清算の結了等,,,2015-10-05,1,,,,,イコマコンタクトレンズケンキュウショ,0
1086,4320005003227,登記記録の閉鎖等,0,2025-05-02,2025-04-28,医療法人瀬口皮膚科,,その他の設立登記法人,大分県,宇佐市,大字上田１００９番地の２,,44,211,8790453,,,2025-04-28,清算の結了等,,,2015-10-05,1,,,,,セグチヒフカ,0
1098,4380003005475,登記記録の閉鎖等,0,2025-05-02,2025-04-17,合同会社ｋｏｍｏｒｅｂｉ,,合同会社,福島県,いわき市,山田町西山１１番地の６９,,07,204,9748241,,,2025-04-17,清算の結了等,,,2023-06-05,1,,,,,コモレビ,0
1108,4430001024901,登記記録の閉鎖等,0,2025-05-02,2025-04-24,株式会社シーエス,,株式会社,北海道,札幌市白石区,栄通１３丁目５番２２号,,01,104,0030021,,,2025-04-24,清算の結了等,,,2015-10-05,1,,,,,シーエス,0
1112,4430001082321,登記記録の閉鎖等,0,2025-05-02,2025-04-23,株式会社ｌｉｖｉｌ,,株式会社,北海道,札幌市北区,北三十二条西３丁目２番２０号札幌第２ホワイトビル３階,,01,102,0010032,,,2025-04-23,清算の結了等,,,2020-09-11,1,,,,,リヴィル,0
1117,4470001008586,登記記録の閉鎖等,0,2025-05-02,2025-04-25,四国フーズ株式会社,,株式会社,香川県,丸亀市,綾歌町岡田上１５７９番地１,,37,202,7612401,,,2025-04-25,清算の結了等,,,2015-10-05,1,,,,,シコクフーズ,0
1123,4500002009860,登記記録の閉鎖等,0,2025-05-02,2025-04-30,有限会社守建設,,有限会社,愛媛県,松山市,西野町甲２０１番地１,,38,201,7911135,,,2025-04-30,清算の結了等,,,2015-10-05,1,,,,,マモルケンセツ,0
1127,5010001180827,登記記録の閉鎖等,0,2025-05-02,2025-04-16,株式会社Ｌｕｍｉｅｒｅ,,株式会社,千葉県,浦安市,富士見３丁目１０番５号Ｍｃｌａｓｓｅ,,12,227,2790043,,,2025-04-16,清算の結了等,,,2017-01-18,1,,,,,ルミエール,0
1155,5011001054343,登記記録の閉鎖等,0,2025-05-02,2025-04-22,インターセプトテクノロジージャパン株式会社,,株式会社,東京都,江東区,東雲１丁目９番１７－１１０４号,,13,108,1350062,,,2025-04-22,清算の結了等,,,2015-10-05,1,,,,,インターセプトテクノロジージャパン,0
1166,5011201010006,登記記録の閉鎖等,0,2025-05-02,2025-04-28,三菱電機ＩＴソリューションズ株式会社,,株式会社,東京都,中野区,本町１丁目３２番２号,,13,114,1640012,,,2025-04-28,合併による解散等,2010401059681,令和７年４月１日東京都港区芝浦四丁目６番８号三菱電機デジタルイノベーション株式会社（2010401059681）に合併し解散,2015-10-05,1,,,,,ミツビシデンキアイティソリューションズ,0
1178,5012401031452,登記記録の閉鎖等,0,2025-05-02,2025-04-22,株式会社スペース・イノベーション,,株式会社,東京都,府中市,栄町３丁目８番地の１２,,13,206,1830051,,,2025-04-22,清算の結了等,,,2016-05-26,1,,,,,スペースイノベーション,0
1190,5013302007368,登記記録の閉鎖等,0,2025-05-02,2025-04-10,有限会社長坂商店,,有限会社,東京都,豊島区,北大塚２丁目１６番１０号,,13,116,1700004,,,2025-04-10,清算の結了等,,,2015-10-05,1,,,,,ナガサカショウテン,0
1210,5030001045648,登記記録の閉鎖等,0,2025-05-02,2025-04-30,三和商事株式会社,,株式会社,埼玉県,志木市,本町５丁目３番２１号,,11,228,3530004,,,2025-04-30,清算の結了等,,,2015-10-05,1,,,,,サンワショウジ,0
1211,5030001061240,登記記録の閉鎖等,0,2025-05-02,2025-04-24,株式会社リゾートプレミア,,株式会社,埼玉県,本庄市,児玉町金屋２１５番地６,,11,211,3670216,,,2025-04-24,合併による解散等,7030001060612,令和７年４月１０日埼玉県本庄市児玉町金屋２１５番地６株式会社倉林（7030001060612）に合併し解散,2015-10-05,1,,,,,リゾートプレミア,0
1213,5030001074408,登記記録の閉鎖等,0,2025-05-02,2025-04-25,神沢モールド工業株式会社,,株式会社,埼玉県,川口市,本蓮２丁目５番２４号,00015289,11,203,3340076,,,2025-04-25,清算の結了等,,,2015-10-05,1,,,,,カミサワモールドコウギョウ,0
1214,5030001109361,登記記録の閉鎖等,0,2025-05-02,2025-04-22,ＡＵＮＧ　Ｆａｍｉｌｙ株式会社,,株式会社,埼玉県,熊谷市,小泉１３８番地,,11,202,3600122,,,2025-04-22,清算の結了等,,,2015-10-05,1,,,,,アウンファミリー,0
1216,5030001119583,登記記録の閉鎖等,0,2025-05-02,2025-04-25,株式会社もりのした,,株式会社,埼玉県,さいたま市浦和区,北浦和４丁目５番１５号,,11,107,3300074,,,2025-04-25,清算の結了等,,,2017-04-11,1,,,,,モリノシタ,0
1226,5040001066206,登記記録の閉鎖等,0,2025-05-02,2025-04-28,アドバンテック日成株式会社,,株式会社,千葉県,柏市,十余二２番地の１,,12,217,2770872,,,2025-04-28,合併による解散等,3010001117541,令和７年４月１日東京都千代田区内幸町二丁目２番３号アドバンテック東洋株式会社（3010001117541）に合併し解散,2015-10-05,1,,,,,アドバンテックニッセイ,0
1235,5040003005161,登記記録の閉鎖等,0,2025-05-02,2025-04-11,ピーヴィーデザイン合同会社,,合同会社,東京都,中央区,銀座２丁目１４－８,,13,102,1040061,,,2025-04-11,清算の結了等,,,2015-10-05,1,,,,,ピーヴィーデザイン,0
1241,5060002015408,登記記録の閉鎖等,0,2025-05-02,2025-04-22,有限会社廻谷林業,00024443,有限会社,栃木県,日光市,小代５１０番地９０,,09,206,3211107,,,2025-04-22,清算の結了等,,,2015-10-05,1,,,,,メグリヤリンギョウ,0
1242,5070001025324,登記記録の閉鎖等,0,2025-05-02,2025-04-25,出雲ゴム製造株式会社,,株式会社,群馬県,太田市,阿久津町１６０番３号,,10,205,3700402,,,2025-04-25,合併による解散等,8010701024207,令和７年４月１日東京都品川区北品川五丁目７番１３号出雲ゴム工業株式会社（8010701024207）に合併し解散,2015-10-05,1,,,,,イズモゴムセイゾウ,0
1249,5080101012477,登記記録の閉鎖等,0,2025-05-02,2025-04-24,アリエス株式会社,,株式会社,静岡県,沼津市,杉崎町１３番３２号奈良橋ビル２Ｆ,,22,203,4100033,,,2025-04-24,清算の結了等,,,2015-10-05,1,,,,,アリエス,0
1256,5110002017497,登記記録の閉鎖等,0,2025-05-02,2025-04-17,有限会社ノジマ事務機,,有限会社,新潟県,三条市,仲之町１番７号,,15,204,9550062,,,2025-04-17,清算の結了等,,,2015-10-05,1,,,,,ノジマジムキ,0
1261,5120001188693,登記記録の閉鎖等,0,2025-05-02,2025-04-11,株式会社リライズコーポレーション,,株式会社,大阪府,大阪市北区,東天満１丁目６番１２号,,27,127,5300044,,,2025-04-11,清算の結了等,,,2015-10-05,1,,,,,リライズコーポレーション,0
1278,5120005024515,登記記録の閉鎖等,0,2025-05-02,2025-05-01,一般社団法人徳医会,,その他の設立登記法人,大阪府,大阪市中央区,本町１丁目４番１３号ＳＳＩ本町７階,,27,128,5410053,,,2025-05-01,清算の結了等,,,2024-08-28,1,,,,,トクイカイ,0
1287,5120902023445,登記記録の閉鎖等,0,2025-05-02,2025-04-18,有限会社中野商店,,有限会社,大阪府,吹田市,垂水町２丁目１番２４号,,27,205,5640062,,,2025-04-18,清算の結了等,,,2024-10-30,1,,,,,ナカノショウテン,0
1291,5130001014576,登記記録の閉鎖等,0,2025-05-02,2025-04-28,三輪鋳工株式会社,,株式会社,京都府,京都市伏見区,三栖町１丁目７８０番地,,26,109,6128233,,,2025-04-28,清算の結了等,,,2015-10-05,1,,,,,ミワチュウコウ,0
1300,5130005003807,登記記録の閉鎖等,0,2025-05-02,2025-04-30,医療法人大山医院,,その他の設立登記法人,京都府,京都市伏見区,深草西浦町６丁目５３番地１,,26,109,6120029,,,2025-04-30,清算の結了等,,,2015-10-05,1,,,,,オオヤマイイン,0
1304,5140001111208,登記記録の閉鎖等,0,2025-05-02,2025-04-28,北政株式会社,,株式会社,兵庫県,川西市,萩原台西３丁目２８２番地の９,,28,217,6660006,,,2025-04-28,清算の結了等,,,2018-09-14,1,,,,,キタマサ,0
1314,5180001074954,登記記録の閉鎖等,0,2025-05-02,2025-04-24,株式会社松岡製作所,,株式会社,愛知県,春日井市,稲口町４丁目１３番地の１１,,23,206,4860905,,,2025-04-24,清算の結了等,,,2015-10-05,1,,,,,マツオカセイサクショ,0
1329,5200003005401,登記記録の閉鎖等,0,2025-05-02,2025-04-25,合同会社Ｔｈｏｕｇｈｔｆｕｌ　ｒｅａｌｔｙ,,合同会社,岐阜県,羽島市,竹鼻町丸の内５丁目１２８番地１０４号,,21,209,5016244,,,2025-04-25,清算の結了等,,,2021-12-28,1,,,,,ソートフルリアルティ,0
1341,5260002001131,登記記録の閉鎖等,0,2025-05-02,2025-04-22,有限会社内田とうふ,,有限会社,岡山県,岡山市東区,神崎町２３３番地の４,,33,103,7048138,,,2025-04-22,清算の結了等,,,2015-10-05,1,,,,,ウチダトウフ,0
1342,5260003003036,登記記録の閉鎖等,0,2025-05-02,2025-04-21,合同会社小林商事,,合同会社,岡山県,岡山市北区,関西町１１番３号,,33,101,7000047,,,2025-04-21,清算の結了等,,,2019-12-13,1,,,,,コバヤシショウジ,0
1343,5270005002316,登記記録の閉鎖等,0,2025-05-02,2024-12-24,小松神社,,その他の設立登記法人,鳥取県,八頭郡八頭町,柿原３６３番地,,31,329,6800545,,,2024-12-24,合併による解散等,3270005002342,令和６年１２月２４日鳥取県八頭郡八頭町三浦１番地三浦神社（3270005002342）に合併し解散,2015-10-05,1,,,,,コマツジンジャ,0
1346,5280002007440,登記記録の閉鎖等,0,2025-05-02,2025-04-28,有限会社山陰中央新報古志販売所,,有限会社,島根県,出雲市,古志町１００２番地,,32,203,6930031,,,2025-04-28,清算の結了等,,,2015-10-05,1,,,,,サンインチュウオウシンポウコシハンバイショ,0
1352,5300001007257,登記記録の閉鎖等,0,2025-05-02,2025-04-30,株式会社東福鉄工所,,株式会社,佐賀県,唐津市,和多田大土井４番１２号,,41,202,8470083,,,2025-04-30,清算の結了等,,,2015-10-05,1,,,,,トウフクテッコウショ,0
1354,5310005005090,登記記録の閉鎖等,0,2025-05-02,2025-04-25,特定非営利活動法人長崎県央ジュニアサポートアカデミー,,その他の設立登記法人,長崎県,諫早市,城見町３１番２１号,,42,204,8540005,,,2025-04-25,清算の結了等,,,2015-10-05,1,,,,,ナガサキケンオウジュニアサポートアカデミー,0
1363,5350002001519,登記記録の閉鎖等,0,2025-05-02,2025-04-16,有限会社黒木電機商会,,有限会社,宮崎県,宮崎市,下北方町木藤５５８番地６,,45,201,8800035,,,2025-04-16,清算の結了等,,,2015-10-05,1,,,,,クロキデンキショウカイ,0
1372,5380001006425,登記記録の閉鎖等,0,2025-05-02,2025-04-16,株式会社フレックス,,株式会社,福島県,郡山市,桑野５丁目３番地４国栄ビル１０３号,,07,203,9638025,,,2025-04-16,清算の結了等,,,2015-10-05,1,,,,,,0
1374,5390001001210,登記記録の閉鎖等,0,2025-05-02,2025-04-18,株式会社土谷,,株式会社,山形県,山形市,八日町２丁目１－１１,,06,201,9900037,,,2025-04-18,清算の結了等,,,2015-10-05,1,,,,,ツチヤ,0
1378,5430002006402,登記記録の閉鎖等,0,2025-05-02,2025-04-23,有限会社久路守インテリア,,有限会社,北海道,札幌市中央区,南十七条西１３丁目１番２２号,,01,101,0640917,,,2025-04-23,清算の結了等,,,2015-10-05,1,,,,,クロスインテリア,0
1383,5460302000250,登記記録の閉鎖等,0,2025-05-02,2025-04-30,有限会社おおつか薬局,,有限会社,北海道,北見市,美芳町４丁目５番１９号,,01,208,0900064,,,2025-04-30,清算の結了等,,,2015-10-05,1,,,,,オオツカヤッキョク,0
1404,6010001163748,登記記録の閉鎖等,0,2025-05-02,2025-04-01,株式会社サワ・コーポレーション八丈,,株式会社,東京都,品川区,西大井２丁目１９番８号,,13,109,1400015,,,2025-04-01,合併による解散等,4010701025051,令和７年４月１日東京都品川区八潮三丁目３番２２号東京貨物ターミナル駅事務所棟内株式会社サワ・コーポレーション（4010701025051）に合併し解散,2015-10-05,1,,,,,サワコーポレーションハチジョウ,0
1406,6010001233625,登記記録の閉鎖等,0,2025-05-02,2025-04-10,ＣＩＥＬＡ株式会社,,株式会社,東京都,中央区,銀座１丁目１２番４号Ｎ＆ＥＢＬＤ．６Ｆ,,13,102,1040061,,,2025-04-10,清算の結了等,,,2023-03-09,1,,,,,シエラ,0
1429,6010801011899,登記記録の閉鎖等,0,2025-05-02,2025-04-22,モノレールエンジニアリング株式会社,,株式会社,東京都,大田区,昭和島２丁目２番１号,,13,111,1430004,,,2025-04-22,合併による解散等,4010401020947,令和７年４月１日東京都港区浜松町二丁目４番１号東京モノレール株式会社（4010401020947）に合併し解散,2015-10-05,1,,,,,モノレールエンジニアリング,0
1430,6010801030486,登記記録の閉鎖等,0,2025-05-02,2025-04-21,株式会社ｐｕｒｅ　ｊａｐａｎ,,株式会社,東京都,大田区,蒲田５丁目３６番５号－５Ｆ,,13,111,1440052,,,2025-04-21,清算の結了等,,,2019-12-23,1,,,,,ピュアジャパン,0
1442,6011003013791,登記記録の閉鎖等,0,2025-05-02,2025-04-02,Ｓｅａｌｉｌｙ合同会社,,合同会社,東京都,渋谷区,渋谷２丁目１９－１５宮益坂ビルディング６０９,,13,113,1500002,,,2025-04-02,清算の結了等,,,2021-12-03,1,,,,,シーリリィ,0
1455,6011701000389,登記記録の閉鎖等,0,2025-05-02,2025-04-23,新木運輸株式会社,,株式会社,東京都,江戸川区,西葛西７丁目１５番５－８０４号,,13,123,1340088,,,2025-04-23,清算の結了等,,,2015-10-05,1,,,,,シンボクウンユ,0
1471,6013401002203,登記記録の閉鎖等,0,2025-05-02,2025-04-21,株式会社クラーク,,株式会社,東京都,多摩市,豊ヶ丘２丁目２番地１－５０６,,13,224,2060031,,,2025-04-21,清算の結了等,,,2015-10-05,1,,,,,,0
1472,6020001123222,登記記録の閉鎖等,0,2025-05-02,2025-04-21,ティーカンパニー株式会社,,株式会社,神奈川県,横浜市都筑区,茅ケ崎南３丁目１番１６号,,14,118,2240037,,,2025-04-21,清算の結了等,,,2017-10-02,1,,,,,ティーカンパニー,0
1478,6020002030509,登記記録の閉鎖等,0,2025-05-02,2025-04-21,有限会社第一管戝,,有限会社,神奈川県,横浜市戸塚区,名瀬町１６０６番地３,,14,110,2450051,,,2025-04-21,清算の結了等,,,2015-10-05,1,,,,,ダイイチカンザイ,0
1490,6030001145711,登記記録の閉鎖等,0,2025-05-02,2025-04-28,株式会社ＮＯＭＭ,,株式会社,埼玉県,熊谷市,東別府６２３番地,,11,202,3600852,,,2025-04-28,清算の結了等,,,2021-12-06,1,,,,,ノム,0
1497,6030002017488,登記記録の閉鎖等,0,2025-05-02,2025-04-25,株式会社ＴＭコーポレーション,,株式会社,埼玉県,さいたま市浦和区,上木崎２丁目１４－３－１０４,,11,107,3300071,,,2025-04-25,清算の結了等,,,2015-10-05,1,,,,,ティーエムコーポレーション,0
1498,6030002087374,登記記録の閉鎖等,0,2025-05-02,2025-04-28,有限会社灘屋物産,00017274,有限会社,埼玉県,越谷市,蒲生２丁目２番６号,,11,222,3430838,,,2025-04-28,清算の結了等,,,2015-10-05,1,,,,,ナダヤブッサン,0
1513,6040002076566,登記記録の閉鎖等,0,2025-05-02,2025-04-15,有限会社ユウキサービス,,有限会社,千葉県,市原市,五井２５２８番地１サンクレイドル五井弐番館１０３,,12,219,2900056,,,2025-04-15,清算の結了等,,,2015-10-05,1,,,,,ユウキサービス,0
1540,6120001119581,登記記録の閉鎖等,0,2025-05-02,2025-04-11,株式会社ＡｔｏＺ,,株式会社,大阪府,大阪市西区,京町堀２丁目１３番５号,,27,106,5500003,,,2025-04-11,清算の結了等,,,2015-10-05,1,,,,,エートゥージー,0
1551,6120002071757,登記記録の閉鎖等,0,2025-05-02,2025-04-30,有限会社はくぶん堂,,有限会社,大阪府,交野市,倉治７丁目３２番８号,,27,230,5760051,,,2025-04-30,清算の結了等,,,2015-10-05,1,,,,,ハクブンドウ,0
1563,6130001014261,登記記録の閉鎖等,0,2025-05-02,2025-04-28,株式会社キョウホー,,株式会社,京都府,京都市山科区,小野弓田町３０番地８,,26,110,6078253,,,2025-04-28,清算の結了等,,,2015-10-05,1,,,,,キョウホー,0
1569,6140001031859,登記記録の閉鎖等,0,2025-05-02,2025-04-28,株式会社加幡造園,,株式会社,兵庫県,神戸市西区,押部谷町福住１２番地の１,,28,111,6512213,,,2025-04-28,清算の結了等,,,2015-10-05,1,,,,,,0
1593,6180001050789,登記記録の閉鎖等,0,2025-05-02,2025-04-21,株式会社ＢＯＷＣＬＡＰ,,株式会社,愛知県,名古屋市天白区,植田山４丁目１１０１番地の１,,23,116,4680001,,,2025-04-21,清算の結了等,,,2015-10-05,1,,,,,バウクラップ,0
1604,6180301022918,登記記録の閉鎖等,0,2025-05-02,2025-04-24,大和興業株式会社,,株式会社,愛知県,西尾市,西浅井町宮下４２番地,,23,213,4450004,,,2025-04-24,清算の結了等,,,2015-10-05,1,,,,,ダイワコウギョウ,0
1606,6180302026100,登記記録の閉鎖等,0,2025-05-02,2025-04-25,有限会社木下技工,,有限会社,愛知県,西尾市,羽塚町坊山６３番地１１,,23,213,4440316,,,2025-04-25,清算の結了等,,,2015-10-05,1,,,,,キノシタギコウ,0
1629,6290001010749,登記記録の閉鎖等,0,2025-05-02,2025-04-18,株式会社メディア・ボックス,,株式会社,福岡県,福岡市中央区,天神４丁目４番２６号,,40,133,8100001,,,2025-04-18,清算の結了等,,,2015-10-05,1,,,,,,0
1641,6340002007565,登記記録の閉鎖等,0,2025-05-02,2025-04-28,有限会社パイオニアハウス,,有限会社,鹿児島県,鹿児島市,武３丁目３７番２１号,,46,201,8900045,,,2025-04-28,清算の結了等,,,2015-10-05,1,,,,,パイオニアハウス,0
1661,6430001058138,登記記録の閉鎖等,0,2025-05-02,2025-04-28,伊達ガラス・サッシ株式会社,,株式会社,北海道,伊達市,北稀府町８６番地９,,01,233,0590275,,,2025-04-28,清算の結了等,,,2015-10-05,1,,,,,ダテガラスサッシ,0
1664,6430002042248,登記記録の閉鎖等,0,2025-05-02,2025-04-25,有限会社國枝デンタル・ラボ,,有限会社,北海道,札幌市東区,北二十六条東１８丁目７番１１号,,01,103,0650026,,,2025-04-25,清算の結了等,,,2015-10-05,1,,,,,クニエダデンタルラボ,0
1665,6430003013710,登記記録の閉鎖等,0,2025-05-02,2025-04-22,合同会社Ａｎｔ　Ａｃｃｏｕｎｔｉｎｇ,,合同会社,北海道,札幌市北区,北十条西３丁目２３番地１ＴＨＥ　ＰＥＡＫ　ＳＡＰＰＯＲＯ１Ｆ－３６,,01,102,0010010,,,2025-04-22,清算の結了等,,,2022-03-15,1,,,,,アントアカウンティング,0
1675,7010001070043,登記記録の閉鎖等,0,2025-05-02,2025-04-28,株式会社ＭＫエステート,,株式会社,東京都,品川区,上大崎３丁目１番１号目黒セントラルスクエア１５階,,13,109,1410021,,,2025-04-28,合併による解散等,8010703007408,令和７年４月２７日東京都品川区上大崎三丁目１番１号目黒セントラルスクエア１５階ＭＫホールディングス合同会社（8010703007408）に合併し解散,2015-10-05,1,,,,,エムケーエステート,0
1686,7010101010205,登記記録の閉鎖等,0,2025-05-02,2025-04-28,株式会社デザイン,,株式会社,東京都,八王子市,別所２丁目１０番４号,,13,201,1920363,,,2025-04-28,清算の結了等,,,2015-10-05,1,,,,,デザイン,0
1703,7010602023663,登記記録の閉鎖等,0,2025-05-02,2025-04-30,有限会社三和,,有限会社,香川県,東かがわ市,松原３６０番地,,37,207,7692702,,,2025-04-30,清算の結了等,,,2015-10-05,1,,,,,サンワ,0
1716,7011001070685,登記記録の閉鎖等,0,2025-05-02,2025-04-11,株式会社フィッツプラス,,株式会社,東京都,中央区,築地１丁目１３番１号,,13,102,1040045,,,2025-04-11,清算の結了等,,,2015-10-05,1,,,,,フィッツプラス,0
1717,7011001124672,登記記録の閉鎖等,0,2025-05-02,2025-04-02,ノーベルワン株式会社,,株式会社,東京都,目黒区,中目黒３丁目６番２号中目黒Ｆ・Ｓビル５階,,13,110,1530061,,,2025-04-02,清算の結了等,,,2018-10-11,1,,,,,ノーベルワン,0
1743,7011502008309,登記記録の閉鎖等,0,2025-05-02,2025-04-28,有限会社貢祥商会,,有限会社,東京都,荒川区,荒川３丁目３２番８号,,13,118,1160002,,,2025-04-28,清算の結了等,,,2015-10-05,1,,,,,コウショウショウカイ,0
1745,7011802004817,登記記録の閉鎖等,0,2025-05-02,2025-04-28,有限会社高橋研磨,00057259,有限会社,東京都,足立区,綾瀬６丁目２９番７号,,13,121,1200005,,,2025-04-28,清算の結了等,,,2015-10-05,1,,,,,タカハシケンマ,0
1760,7013301033090,登記記録の閉鎖等,0,2025-05-02,2025-04-28,Ｚ＆Ｚ株式会社,,株式会社,東京都,足立区,扇３丁目２１－８－２階,,13,121,1230873,,,2025-04-28,清算の結了等,,,2015-10-05,1,,,,,ゼットアンドゼット,0
1764,7020001096888,登記記録の閉鎖等,0,2025-05-02,2025-04-21,靖幸設備株式会社,,株式会社,神奈川県,横浜市戸塚区,原宿１丁目２５番１８号,,14,110,2450063,,,2025-04-21,清算の結了等,,,2015-10-05,1,,,,,セイコウセツビ,0
1769,7020002079000,登記記録の閉鎖等,0,2025-05-02,2025-04-17,有限会社ソウマビルダー,,有限会社,神奈川県,横浜市神奈川区,神奈川２丁目１４番地１東神奈川ダイヤモンドマンション３０３号室,,14,102,2210045,,,2025-04-17,清算の結了等,,,2015-10-05,1,,,,,ソウマビルダー,0
1782,7030001070586,登記記録の閉鎖等,0,2025-05-02,2025-04-28,株式会社丸仙,,株式会社,埼玉県,日高市,大字鹿山２００番地１,,11,242,3501231,,,2025-04-28,清算の結了等,,,2015-10-05,1,,,,,マルセン,0
1783,7030001074397,登記記録の閉鎖等,0,2025-05-02,2025-04-25,金澤フレキソ株式会社,,株式会社,埼玉県,川口市,上青木西３丁目１番２４号,,11,203,3330845,,,2025-04-25,清算の結了等,,,2015-10-05,1,,,,,カナザワフレキソ,0
1788,7030002022371,登記記録の閉鎖等,0,2025-05-02,2025-04-28,テラーインダストリー有限会社,,有限会社,埼玉県,蓮田市,緑町１丁目２７番１０号,,11,238,3490104,,,2025-04-28,清算の結了等,,,2015-10-05,1,,,,,テラーインダストリー,0
1789,7030002039044,登記記録の閉鎖等,0,2025-05-02,2025-04-28,有限会社吉崎興業,00016517,有限会社,埼玉県,久喜市,菖蒲町小林３０４４番地,,11,232,3460115,,,2025-04-28,清算の結了等,,,2015-10-05,1,,,,,ヨシザキコウギョウ,0
1790,7030002055520,登記記録の閉鎖等,0,2025-05-02,2025-04-30,有限会社エムテック,,有限会社,埼玉県,桶川市,西２丁目８番９号,,11,231,3630017,,,2025-04-30,清算の結了等,,,2015-10-05,1,,,,,エムテック,0
1791,7030002091689,登記記録の閉鎖等,0,2025-05-02,2025-04-28,有限会社ホッと・プランニング,,有限会社,埼玉県,越谷市,大字下間久里９２０番地３,,11,222,3430045,,,2025-04-28,清算の結了等,,,2015-10-05,1,,,,,ホットプランニング,0
1797,7040002016496,登記記録の閉鎖等,0,2025-05-02,2025-04-16,有限会社はぶらしや,,有限会社,千葉県,千葉市中央区,中央３丁目１２番３号,,12,101,2600013,,,2025-04-16,清算の結了等,,,2015-10-05,1,,,,,ハブラシヤ,0
1804,7070001026254,登記記録の閉鎖等,0,2025-05-02,2025-04-23,株式会社丁字屋,,株式会社,群馬県,邑楽郡千代田町,大字赤岩２０４番地の７,,10,523,3700503,,,2025-04-23,清算の結了等,,,2015-10-05,1,,,,,チョウジヤ,0
1810,7080102012788,登記記録の閉鎖等,0,2025-05-02,2025-04-25,有限会社グスタホーム,,有限会社,静岡県,三島市,徳倉２丁目１３番１４号ダイマルハイツ徳倉１０２,,22,206,4110044,,,2025-04-25,清算の結了等,,,2015-10-05,1,,,,,グスタホーム,0
1814,7100001010543,登記記録の閉鎖等,0,2025-05-02,2025-04-28,エイチ・ゼツト・エス長野株式会社,,株式会社,長野県,上田市,本郷５８５番地１１,,20,203,3861323,,,2025-04-28,清算の結了等,,,2015-10-05,1,,,,,エイチゼットエスナガノ,0
1878,7180002078201,登記記録の閉鎖等,0,2025-05-02,2025-04-23,玄翁設備有限会社,,有限会社,愛知県,一宮市,上祖父江字江北７６番地,,23,203,4940014,,,2025-04-23,清算の結了等,,,2015-10-05,1,,,,,ゲンオウセツビ,0
1880,7180005020457,登記記録の閉鎖等,0,2025-05-02,2025-04-30,一般社団法人三豊茶業,,その他の設立登記法人,愛知県,名古屋市千種区,東明町３丁目１５番地,,23,101,4640028,,,2025-04-30,清算の結了等,,,2023-12-14,1,,,,,ミトヨチャギョウ,0
1897,7250001007137,登記記録の閉鎖等,0,2025-05-02,2025-04-30,株式会社こうろ,,株式会社,山口県,下関市,小月京泊４番１０号,,35,201,7501134,,,2025-04-30,清算の結了等,,,2015-10-05,1,,,,,コウロ,0
1900,7270002009907,登記記録の閉鎖等,0,2025-05-02,2025-04-30,奥田建設有限会社,,有限会社,鳥取県,倉吉市,秋喜３００番地３,,31,203,6820925,,,2025-04-30,合併による解散等,1270001005375,令和７年４月１８日鳥取県倉吉市河北町８２番地１株式会社セーフティ（1270001005375）に合併し解散,2015-10-05,1,,,,,オクダケンセツ,0
1901,7270005002339,登記記録の閉鎖等,0,2025-05-02,2024-12-24,保木本神社,,その他の設立登記法人,鳥取県,八頭郡八頭町,柿原３１８番次１,,31,329,6800545,,,2024-12-24,合併による解散等,3270005002342,令和６年１２月２４日鳥取県八頭郡八頭町三浦１番地三浦神社（3270005002342）に合併し解散,2015-10-05,1,,,,,ホキモトジンジャ,0
1903,7280002002266,登記記録の閉鎖等,0,2025-05-02,2025-04-30,有限会社三島工務店,,有限会社,島根県,松江市,西津田５丁目２番３９号,,32,201,6900017,,,2025-04-30,清算の結了等,,,2015-10-05,1,,,,,ミシマコウムテン,0
1923,7330002002112,登記記録の閉鎖等,0,2025-05-02,2025-04-22,有限会社環境建築ホーム,,有限会社,熊本県,熊本市北区,龍田陳内１丁目１３番３５号,,43,105,8618005,,,2025-04-22,清算の結了等,,,2015-10-05,1,,,,,カンキョウケンチクホーム,0
1928,7360001021259,登記記録の閉鎖等,0,2025-05-02,2025-04-17,株式会社南星企画,,株式会社,沖縄県,島尻郡南風原町,字津嘉山２８８番地,,47,350,9011117,,,2025-04-17,清算の結了等,,,2016-08-31,1,,,,,,0
1940,7380002003626,登記記録の閉鎖等,0,2025-05-02,2025-04-24,源データ通信株式会社,,株式会社,福島県,福島市,永井川字沢田１９番地の３,,07,201,9601102,,,2025-04-24,清算の結了等,,,2015-10-05,1,,,,,ミナモトデータツウシン,0
1948,7430002054143,登記記録の閉鎖等,0,2025-05-02,2025-04-24,有限会社曲久直江薬局,,有限会社,北海道,小樽市,稲穂５丁目２番１７号,,01,203,0470032,,,2025-04-24,清算の結了等,,,2015-10-05,1,,,,,カネキュウナオエヤッキョク,0
1970,8010003039639,登記記録の閉鎖等,0,2025-05-02,2025-04-11,合同会社フジオート,,合同会社,東京都,中央区,銀座１丁目１２番４号Ｎ＆ＥＢＬＤ．６Ｆ,,13,102,1040061,,,2025-04-11,清算の結了等,,,2023-01-25,1,,,,,フジオート,0
1984,8010701015635,登記記録の閉鎖等,0,2025-05-02,2025-04-08,アラビア石油株式会社,,株式会社,東京都,品川区,東品川２丁目５番８号,,13,109,1400002,,,2025-04-08,合併による解散等,3010701015631,令和７年４月１日東京都品川区北品川六丁目７番２９号富士石油株式会社（3010701015631）に合併し解散,2015-10-05,1,,,,,アラビアセキユ,0
2008,8011101089963,登記記録の閉鎖等,0,2025-05-02,2025-04-08,ＮＶＡ株式会社,,株式会社,東京都,新宿区,北新宿２丁目２１番１号新宿フロントタワー５階,,13,104,1690074,,,2025-04-08,清算の結了等,,,2019-12-25,1,,,,,エヌブイエー,0
2016,8011503005865,登記記録の閉鎖等,0,2025-05-02,2025-03-19,合同会社Ｐｏｓｉｔｉｖｅ,,合同会社,東京都,北区,浮間３丁目２６－２１,,13,117,1150051,,,2025-03-19,清算の結了等,,,2023-12-12,1,,,,,ポジティブ,0
2023,8011801014130,登記記録の閉鎖等,0,2025-05-02,2025-04-28,ヴィテック株式会社,,株式会社,東京都,葛飾区,亀有５丁目１２番１２号,,13,122,1250061,,,2025-04-28,清算の結了等,,,2015-10-05,1,,,,,ヴィテック,0
2031,8013101007764,登記記録の閉鎖等,0,2025-05-02,2025-04-25,株式会社Ｒ　ｓｃｒｉｐｔ,,株式会社,東京都,青梅市,西分町３丁目１０７番地,,13,205,1980044,,,2025-04-25,清算の結了等,,,2018-01-24,1,,,,,アールスクリプト,0
2034,8013301020609,登記記録の閉鎖等,0,2025-05-02,2025-04-22,株式会社システムイン,,株式会社,東京都,武蔵野市,御殿山１丁目４番１８－１９０６号,,13,203,1800005,,,2025-04-22,清算の結了等,,,2015-10-05,1,,,,,システムイン,0
2044,8020003022230,登記記録の閉鎖等,0,2025-05-02,2025-04-18,合同会社フェナカイト,,合同会社,神奈川県,横浜市神奈川区,三ツ沢下町２１番８－２０８号,,14,102,2210852,,,2025-04-18,清算の結了等,,,2022-08-12,1,,,,,フェナカイト,0
2050,8030001042031,登記記録の閉鎖等,0,2025-05-02,2025-04-25,愛和建設株式会社,,株式会社,埼玉県,桶川市,大字倉田１９４番地の５４,,11,231,3630006,,,2025-04-25,清算の結了等,,,2015-10-05,1,,,,,アイワケンセツ,0
2071,8060002039560,登記記録の閉鎖等,0,2025-05-02,2025-04-18,有限会社モトショップコグレ,,有限会社,栃木県,佐野市,石塚町４１５番地,,09,204,3270103,,,2025-04-18,清算の結了等,,,2015-10-05,1,,,,,モトショップコグレ,0
2076,8080003001162,登記記録の閉鎖等,0,2025-05-02,2025-04-28,合同会社三登利莊,,合同会社,静岡県,静岡市清水区,北矢部町２丁目４番１５号,,22,103,4240937,,,2025-04-28,清算の結了等,,,2015-10-05,1,,,,,ミドリソウ,0
2077,8080101001543,登記記録の閉鎖等,0,2025-05-02,2025-04-24,株式会社バイタルフーズ,,株式会社,静岡県,駿東郡清水町,徳倉１０９３番地,,22,341,4110917,,,2025-04-24,清算の結了等,,,2015-10-05,1,,,,,,0
2081,8100005007089,登記記録の閉鎖等,0,2025-05-02,2025-04-16,特定非営利活動法人福祉のふくちゃん,,その他の設立登記法人,長野県,松本市,梓川梓２２８８番地３,,20,202,3901702,,,2025-04-16,清算の結了等,,,2015-10-05,1,,,,,フクシノフクチャン,0
2084,8110002027213,登記記録の閉鎖等,0,2025-05-02,2025-04-18,有限会社覚張本店,,有限会社,新潟県,長岡市,表町３丁目１番地９,,15,202,9400071,,,2025-04-18,清算の結了等,,,2015-10-05,1,,,,,ガクハリホンテン,0
2105,8120901010879,登記記録の閉鎖等,0,2025-05-02,2025-04-18,株式会社後尾新聞舗,,株式会社,大阪府,高槻市,松が丘２丁目３番２８号,,27,207,5691031,,,2025-04-18,清算の結了等,,,2015-10-05,1,,,,,ゴオシンブンホ,0
2108,8120902007338,登記記録の閉鎖等,0,2025-05-02,2025-04-16,有限会社原田精肉店,,有限会社,大阪府,吹田市,片山町３丁目３３番１８号,,27,205,5640082,,,2025-04-16,清算の結了等,,,2015-10-05,1,,,,,ハラダセイニクテン,0
2147,8190001009089,登記記録の閉鎖等,0,2025-05-02,2025-04-18,株式会社シティコスモ,,株式会社,三重県,伊賀市,服部町３３０番地,,24,216,5180007,,,2025-04-18,清算の結了等,,,2015-10-05,1,,,,,シティコスモ,0
2150,8200003000309,登記記録の閉鎖等,0,2025-05-02,2025-04-25,合資会社河宗,,合資会社,岐阜県,岐阜市,徹明通５丁目２３番地,,21,201,5008879,,,2025-04-25,清算の結了等,,,2015-10-05,1,,,,,カワソウ,0
2154,8220005008389,登記記録の閉鎖等,0,2025-05-02,2025-04-24,一般社団法人鴇ケ谷自然保存会,,その他の設立登記法人,石川県,金沢市,押野１丁目２７０番地,,17,201,9218056,,,2025-04-24,清算の結了等,,,2019-06-05,1,,,,,トガタニシゼンホゾンカイ,0
2156,8230003002269,登記記録の閉鎖等,0,2025-05-02,2025-04-25,合同会社みやびの郷,,合同会社,富山県,富山市,蓮町５丁目８番１６号,,16,201,9318333,,,2025-04-25,清算の結了等,,,2024-08-07,1,,,,,,0
2166,8260002021291,登記記録の閉鎖等,0,2025-05-02,2025-04-17,有限会社丸三工業,,有限会社,岡山県,倉敷市,児島下の町１０丁目６番３７号,,33,202,7110906,,,2025-04-17,清算の結了等,,,2015-10-05,1,,,,,マルサンコウギョウ,0
2168,8280002002934,登記記録の閉鎖等,0,2025-05-02,2025-04-30,有限会社吉儀かまぼこ店,00004678,有限会社,島根県,松江市,東出雲町揖屋３５３９番地４,,32,201,6990101,,,2025-04-30,清算の結了等,,,2015-10-05,1,,,,,ヨシギカマボコテン,0
2174,8290001069536,登記記録の閉鎖等,0,2025-05-02,2025-04-18,株式会社立盛,,株式会社,福岡県,福岡市博多区,東光寺町２丁目２番１３号,,40,132,8120896,,,2025-04-18,清算の結了等,,,2015-10-05,1,,,,,リッセイ,0
2196,8350001016853,登記記録の閉鎖等,0,2025-05-02,2025-04-24,株式会社パナケイア,,株式会社,宮崎県,宮崎市,橘通東４丁目１０番１０号,,45,201,8800805,,,2025-04-24,清算の結了等,,,2021-01-18,1,,,,,パナケイア,0
2209,8400002003382,登記記録の閉鎖等,0,2025-05-02,2025-04-14,株式会社盛岡タイムス社,,株式会社,岩手県,盛岡市,本町通３丁目９番３３号,,03,201,0200015,,,2025-04-14,清算の結了等,,,2015-10-05,1,,,,,モリオカタイムスシャ,0
2215,8430003004897,登記記録の閉鎖等,0,2025-05-02,2025-04-23,合同会社ハルケン,,合同会社,北海道,苫小牧市,宮の森町２丁目１３番２２号,,01,213,0530844,,,2025-04-23,清算の結了等,,,2015-10-05,1,,,,,ハルケン,0
2225,8500002011391,登記記録の閉鎖等,0,2025-05-02,2025-04-30,有限会社戒能青果,,有限会社,愛媛県,東温市,牛渕１５１７番地,,38,215,7910213,,,2025-04-30,清算の結了等,,,2015-10-05,1,,,,,カイノウセイカ,0
2228,9010001061668,登記記録の閉鎖等,0,2025-05-02,2025-04-28,株式会社東京美々卯,,株式会社,埼玉県,草加市,金明町１２２７番地１アネックス草加２５期１０７号室,,11,221,3400052,,,2025-04-28,清算の結了等,,,2015-10-05,1,,,,,トウキョウミミウ,0
2248,9010005032913,登記記録の閉鎖等,0,2025-05-02,2025-04-28,Ｍｏｊｉｋｏ　Ｈｏｌｄｉｎｇｓ一般社団法人,,その他の設立登記法人,東京都,中央区,銀座１丁目６番１１号土志田ビルディング３Ｆ,,13,102,1040061,,,2025-04-28,清算の結了等,,,2021-02-10,1,,,,,モジコホールディングス,0
2255,9010401122706,登記記録の閉鎖等,0,2025-05-02,2025-04-01,コネクトプラス株式会社,,株式会社,東京都,渋谷区,道玄坂２丁目２５番１２号,,13,113,1500043,,,2025-04-01,合併による解散等,1011001059701,令和７年４月１日東京都渋谷区道玄坂二丁目２５番１２号株式会社ＳＫＩＹＡＫＩ（1011001059701）に合併し解散,2016-01-22,1,,,,,コネクトプラス,0
2257,9010401136747,登記記録の閉鎖等,0,2025-05-02,2025-04-18,ｅｅｄｕｎ株式会社,,株式会社,東京都,大田区,羽田４丁目３番１号,,13,111,1440043,,,2025-04-18,清算の結了等,,,2018-02-19,1,,,,,,0
2298,9011801015301,登記記録の閉鎖等,0,2025-05-02,2025-04-15,株式会社ケイ,,株式会社,千葉県,柏市,しいの木台５丁目１９番地１１,,12,217,2770945,,,2025-04-15,清算の結了等,,,2015-10-05,1,,,,,ケイ,0
2316,9020001103452,登記記録の閉鎖等,0,2025-05-02,2025-04-09,デリク株式会社,,株式会社,神奈川県,横浜市南区,永田北３丁目７－３横浜保土ヶ谷ハイツ３号棟２０４,,14,105,2320071,,,2025-04-09,清算の結了等,,,2015-10-05,1,,,,,デリク,0
2317,9020001111653,登記記録の閉鎖等,0,2025-05-02,2025-04-17,株式会社ＳＥＡｄＬＩＮＮＮＧ,,株式会社,神奈川県,川崎市川崎区,藤崎３丁目１５番１３号下條ハイム,,14,131,2100804,,,2025-04-17,清算の結了等,,,2015-10-05,1,,,,,シードリング,0
2321,9020002033525,登記記録の閉鎖等,0,2025-05-02,2025-04-23,有限会社幸輻,,有限会社,神奈川県,横浜市港北区,新吉田町１０２番地,,14,109,2230056,,,2025-04-23,清算の結了等,,,2015-10-05,1,,,,,コウヤ,0
2322,9020002037154,登記記録の閉鎖等,0,2025-05-02,2025-04-21,有限会社梅田興業,,有限会社,神奈川県,横浜市鶴見区,下野谷町１丁目４５番地,,14,101,2300047,,,2025-04-21,清算の結了等,,,2015-10-05,1,,,,,ウメダコウギョウ,0
2323,9020002077398,登記記録の閉鎖等,0,2025-05-02,2025-04-21,有限会社おてもやん本舗,,有限会社,神奈川県,横浜市港北区,綱島西１丁目９番４号,,14,109,2230053,,,2025-04-21,清算の結了等,,,2015-10-05,1,,,,,オテモヤンホンポ,0
2324,9020003013410,登記記録の閉鎖等,0,2025-05-02,2025-04-18,合同会社Ｔ３,,合同会社,神奈川県,横浜市港北区,新横浜３丁目１６番地１５,,14,109,2220033,,,2025-04-18,清算の結了等,,,2017-10-11,1,,,,,ティースリー,0
2325,9021001006265,登記記録の閉鎖等,0,2025-05-02,2025-04-30,岡商パッキング株式会社,,株式会社,神奈川県,高座郡寒川町,宮山１２９１番地２,,14,321,2530106,,,2025-04-30,清算の結了等,,,2015-10-05,1,,,,,オカショウパッキング,0
2334,9030001155690,登記記録の閉鎖等,0,2025-05-02,2025-04-30,株式会社ＨＯＰＥ,,株式会社,埼玉県,越谷市,北越谷５丁目５番１８号,,11,222,3430026,,,2025-04-30,清算の結了等,,,2023-09-08,1,,,,,ホープ,0
2337,9030002012602,登記記録の閉鎖等,0,2025-05-02,2025-04-30,有限会社マルサン住宅,,有限会社,埼玉県,さいたま市南区,四谷１丁目２番１号,,11,108,3360032,,,2025-04-30,清算の結了等,,,2015-10-05,1,,,,,マルサンジュウタク,0
2341,9040001115470,登記記録の閉鎖等,0,2025-05-02,2025-04-07,バリイース・ジャパン株式会社,,株式会社,千葉県,柏市,増尾１６３番地,,12,217,2770033,,,2025-04-07,清算の結了等,,,2020-10-14,1,,,,,バリイースジャパン,0
2357,9080102001500,登記記録の閉鎖等,0,2025-05-02,2025-04-18,有限会社サトミ保温,,有限会社,神奈川県,横浜市瀬谷区,二ツ橋町５３９番地１５,,14,114,2460021,,,2025-04-18,清算の結了等,,,2015-10-05,1,,,,,サトミホシツ,0
2360,9090005001118,登記記録の閉鎖等,0,2025-05-02,2025-04-17,甲府車検センター協業組合,,その他の設立登記法人,山梨県,甲府市,山宮町３６６番地の５,,19,201,4000075,,,2025-04-17,清算の結了等,,,2015-10-05,1,,,,,コウフシャケンセンター,0
2364,9100001028922,登記記録の閉鎖等,0,2025-05-02,2025-04-25,株式会社一隅照,,株式会社,長野県,佐久市,岩村田４１９９番地１,,20,217,3850022,,,2025-04-25,清算の結了等,,,2015-12-15,1,,,,,イチグウテラス,0
2372,9120001074980,登記記録の閉鎖等,0,2025-05-02,2025-05-01,株式会社ヴィーヴォ,,株式会社,大阪府,大阪市中央区,備後町２丁目５番８号綿業会館４階,,27,128,5410051,,,2025-05-01,清算の結了等,,,2015-10-05,1,,,,,ヴィーヴォ,0
2407,9140001136754,登記記録の閉鎖等,0,2025-05-02,2025-04-25,株式会社久保田算盤店,,株式会社,兵庫県,小野市,丸山町４番地の１０,,28,218,6751376,,,2025-04-25,清算の結了等,,,2024-12-20,1,,,,,クボタソロバンテン,0
2414,9140003007929,登記記録の閉鎖等,0,2025-05-02,2025-04-28,合同会社ルシアン,,合同会社,兵庫県,西宮市,門戸荘１７番５８－５０３号,,28,204,6620825,,,2025-04-28,清算の結了等,,,2015-10-05,1,,,,,ルシアン,0
2417,9150001014744,登記記録の閉鎖等,0,2025-05-02,2025-04-25,株式会社Ｐｉｘｙ,,株式会社,奈良県,香芝市,真美ヶ丘１丁目１６番１２号,,29,210,6390223,,,2025-04-25,清算の結了等,,,2015-10-05,1,,,,,ピクシー,0
2425,9180001106497,登記記録の閉鎖等,0,2025-05-02,2025-04-21,株式会社匠プラスチック,,株式会社,愛知県,一宮市,光明寺字辻河原４３番地,00072595,23,203,4910135,,,2025-04-21,清算の結了等,,,2015-10-05,1,,,,,タクミプラスチック,0
2426,9180001140918,登記記録の閉鎖等,0,2025-05-02,2025-04-23,株式会社ＡＳＩＡＮ・ＦＲＩＥＮＤ,,株式会社,愛知県,弥富市,前ケ平３丁目５４番地,,23,235,4980003,,,2025-04-23,清算の結了等,,,2020-04-15,1,,,,,アジアンフレンド,0
2446,9210001011520,登記記録の閉鎖等,0,2025-05-02,2025-04-28,株式会社斧平作商店,,株式会社,福井県,越前市,錦町２番３５号,,18,209,9150073,,,2025-04-28,清算の結了等,,,2015-10-05,1,,,,,オノヘイサクショウテン,0
2460,9290002006074,登記記録の閉鎖等,0,2025-05-02,2025-04-18,マルチサイエンス有限会社,,有限会社,福岡県,福岡市東区,原田４丁目５番５号,,40,131,8120063,,,2025-04-18,清算の結了等,,,2015-10-05,1,,,,,マルチサイエンス,0
2466,9290802002388,登記記録の閉鎖等,0,2025-05-02,2025-04-28,有限会社米谷興産,,有限会社,福岡県,北九州市小倉北区,足立２丁目８番１１号,,40,106,8020042,,,2025-04-28,清算の結了等,,,2015-10-05,1,,,,,コメタニコウサン,0
2474,9330002001574,登記記録の閉鎖等,0,2025-05-02,2025-04-17,有限会社エム企画,,有限会社,熊本県,熊本市東区,長嶺東５丁目６番１１８号,,43,102,8618038,,,2025-04-17,清算の結了等,,,2015-10-05,1,,,,,エムキカク,0
2502,9470002014703,登記記録の閉鎖等,0,2025-05-02,2025-04-28,有限会社大磯,,有限会社,香川県,坂出市,寿町２丁目１番２２号,,37,203,7620043,,,2025-04-28,清算の結了等,,,2015-10-05,1,,,,,オオイソ,0
