sequenceNumber,corporateNumber,process,correct,updateDate,changeDate,name,nameImageId,kind,prefectureName,cityName,streetNumber,addressImageId,prefectureCode,cityCode,postCode,addressOutside,addressOutsideImageId,closeDate,closeCause,successorCorporateNumber,changeCause,assignmentDate,latest,enName,enPrefectureName,enCityName,enAddressOutside,furigana,hihyoji
11,1010001245245,新規,0,2024-06-07,2024-06-07,全日本健康管理株式会社,,株式会社,東京都,中央区,築地２丁目１５番１５号セントラル東銀座５０１号室,,13,102,1040045,,,,,,,2024-06-07,1,,,,,ゼンニホンケンコウカンリ,0
13,1010003043952,新規,0,2024-06-07,2024-06-07,ｆｌｏｗｅｒ　ｉｓ合同会社,,合同会社,東京都,中央区,銀座１丁目１２番４号Ｎ＆ＥＢＬＤ．６Ｆ,,13,102,1040061,,,,,,,2024-06-07,1,,,,,フラワーイズ,0
14,1010003043969,新規,0,2024-06-07,2024-06-07,蔵本研修堂合同会社,,合同会社,東京都,文京区,本郷４丁目１１番２号,,13,105,1130033,,,,,,,2024-06-07,1,,,,,クラモトケンシュウドウ,0
15,1010003043985,新規,0,2024-06-07,2024-06-07,合同会社レジデンシャルエー,,合同会社,東京都,千代田区,丸の内３丁目１番１号東京共同会計事務所内,,13,101,1000005,,,,,,,2024-06-07,1,,,,,レジデンシャルエー,0
17,1010005038380,新規,0,2024-06-07,2024-06-07,一般社団法人人を大切にする経営学会,,その他の設立登記法人,東京都,千代田区,九段北１丁目１５－１５瑞鳥ビル別館,,13,101,1020073,,,,,,,2024-06-07,1,,,,,ヒトヲタイセツニスルケイエイガッカイ,0
23,1010401182914,新規,0,2024-06-07,2024-06-07,株式会社シシクリエイション,,株式会社,東京都,港区,南青山２丁目２番１５号ウィン青山９４２,,13,103,1070062,,,,,,,2024-06-07,1,,,,,シシクリエイション,0
24,1010401182971,新規,0,2024-06-07,2024-06-07,株式会社ｆｌａｒｅ,,株式会社,東京都,港区,南青山３丁目１番３６号青山丸竹ビル６Ｆ,,13,103,1070062,,,,,,,2024-06-07,1,,,,,フレア,0
28,1010501052406,新規,0,2024-06-07,2024-06-07,ＭｅｅｔＩｎＦｅｂ株式会社,,株式会社,東京都,台東区,松が谷２丁目１５番８号浅草Ｋ２ビル４１１号室,,13,106,1110036,,,,,,,2024-06-07,1,,,,,ミートインフェブ,0
29,1010601065324,新規,0,2024-06-07,2024-06-07,天一株式会社,,株式会社,東京都,墨田区,押上３丁目５０番６号,,13,107,1310045,,,,,,,2024-06-07,1,,,,,テンイチ,0
43,1010903009128,新規,0,2024-06-07,2024-06-07,ＴＡＴＵＹＡ合同会社,,合同会社,東京都,世田谷区,世田谷１丁目３５番１６号アプローズセタガヤ１０３,,13,112,1540017,,,,,,,2024-06-07,1,,,,,タツヤ,0
47,1011001162471,新規,0,2024-06-07,2024-06-07,株式会社ＲＥ‐ＩＤＥＡ,,株式会社,東京都,渋谷区,千駄ヶ谷１丁目３０－１０,,13,113,1510051,,,,,,,2024-06-07,1,,,,,リアイデア,0
48,1011001162488,新規,0,2024-06-07,2024-06-07,日本テナント保証株式会社,,株式会社,東京都,渋谷区,恵比寿南１丁目１番１号,,13,113,1500022,,,,,,,2024-06-07,1,,,,,ニホンテナントホショウ,0
49,1011001162505,新規,0,2024-06-07,2024-06-07,株式会社アンリミテッドデザイン,,株式会社,東京都,目黒区,東山２丁目１２番１８－１０３号,,13,110,1530043,,,,,,,2024-06-07,1,,,,,アンリミテッドデザイン,0
50,1011001162513,新規,0,2024-06-07,2024-06-07,株式会社Ｊａｐａｎ　Ｓｔｏｒａｇｅ,,株式会社,東京都,渋谷区,円山町５番５号Ｎａｖｉ渋谷Ｖ３階,,13,113,1500044,,,,,,,2024-06-07,1,,,,,ジャパンストレージ,0
51,1011003019323,新規,0,2024-06-07,2024-06-07,合同会社ＴＡＢＩ　Ｂｒｅｅｚｅ,,合同会社,東京都,渋谷区,渋谷２丁目１９－１５宮益坂ビルディング６０９,,13,113,1500002,,,,,,,2024-06-07,1,,,,,タビブリーズ,0
52,1011003019331,新規,0,2024-06-07,2024-06-07,合同会社リーフプロデュース,,合同会社,東京都,渋谷区,恵比寿西１丁目１０番７号メインステージカテリーナ恵比寿駅前１００１,,13,113,1500021,,,,,,,2024-06-07,1,,,,,リーフプロデュース,0
55,1011101107599,新規,0,2024-06-07,2024-06-07,株式会社アキグラ,,株式会社,東京都,新宿区,新宿５丁目１０番８－４０１号,,13,104,1600022,,,,,,,2024-06-07,1,,,,,アキグラ,0
56,1011101107608,新規,0,2024-06-07,2024-06-07,株式会社ＥＡＲＴＨ　ＣＲＥＡＴＥ,,株式会社,東京都,新宿区,西新宿３丁目３番１３号西新宿水間ビル６階,,13,104,1600023,,,,,,,2024-06-07,1,,,,,アースクリエイト,0
59,1011301029734,新規,0,2024-06-07,2024-06-07,株式会社カミノトリコ,,株式会社,東京都,杉並区,荻窪４丁目１３番１１号キャッスル中田１０３,,13,115,1670051,,,,,,,2024-06-07,1,,,,,カミノトリコ,0
60,1011301029742,新規,0,2024-06-07,2024-06-07,野村アセット株式会社,,株式会社,東京都,杉並区,高円寺南５丁目２１番３号,,13,115,1660003,,,,,,,2024-06-07,1,,,,,ノムラアセット,0
65,1011701027354,新規,0,2024-06-07,2024-06-07,株式会社エヌワイステップ,,株式会社,東京都,江戸川区,西小岩１丁目２７－２９東京グランファースト２３０５,,13,123,1330057,,,,,,,2024-06-07,1,,,,,エヌワイステップ,0
66,1011701027362,新規,0,2024-06-07,2024-06-07,株式会社アーク,,株式会社,東京都,江戸川区,松島４丁目３１番１４号,,13,123,1320031,,,,,,,2024-06-07,1,,,,,アーク,0
78,1020001157605,新規,0,2024-06-07,2024-06-07,カトーレーシング株式会社,,株式会社,神奈川県,横浜市緑区,鴨居６丁目８－１３,,14,113,2260003,,,,,,,2024-06-07,1,,,,,カトーレーシング,0
81,1020003026279,新規,0,2024-06-07,2024-06-07,ＰＪＸ合同会社,,合同会社,神奈川県,横浜市西区,浅間町１丁目９－２０,,14,103,2200072,,,,,,,2024-06-07,1,,,,,ピージェーエックス,0
82,1020003026295,新規,0,2024-06-07,2024-06-07,合同会社たち,,合同会社,神奈川県,横浜市西区,中央２丁目４６番２１号万代ビル１０２,,14,103,2200051,,,,,,,2024-06-07,1,,,,,タチ,0
86,1021001082388,新規,0,2024-06-07,2024-06-07,協栄電気株式会社,,株式会社,神奈川県,足柄上郡開成町,金井島１３３５番地,,14,366,2580028,,,,,,,2024-06-07,1,,,,,キョウエイデンキ,0
87,1021001082405,新規,0,2024-06-07,2024-06-07,株式会社三留食品,,株式会社,神奈川県,横須賀市,武１丁目３番１５号,,14,201,2380313,,,,,,,2024-06-07,1,,,,,ミトメショクヒン,0
91,1021003014612,新規,0,2024-06-07,2024-06-07,合同会社ほっぷすてっぷ,,合同会社,神奈川県,三浦郡葉山町,長柄１２６４番地の２４,,14,301,2400113,,,,,,,2024-06-07,1,,,,,ホップステップ,0
100,1030001160723,新規,0,2024-06-07,2024-06-07,株式会社菅野内装,,株式会社,埼玉県,さいたま市北区,奈良町１５９番地２,,11,102,3310822,,,,,,,2024-06-07,1,,,,,カンノナイソウ,0
101,1030001160748,新規,0,2024-06-07,2024-06-07,株式会社トラビス,,株式会社,埼玉県,さいたま市見沼区,島町７０２番１号ライオンズガーデン東大宮２－１００５,,11,104,3370006,,,,,,,2024-06-07,1,,,,,トラビス,0
102,1030001160764,新規,0,2024-06-07,2024-06-07,株式会社てなみ,,株式会社,埼玉県,戸田市,中町２丁目１７番９号,,11,224,3350012,,,,,,,2024-06-07,1,,,,,テナミ,0
113,1040001133918,新規,0,2024-06-07,2024-06-07,株式会社ユニコーン,,株式会社,千葉県,船橋市,浜町２丁目２番１－２００４号,,12,204,2730012,,,,,,,2024-06-07,1,,,,,ユニコーン,0
123,1050001054849,新規,0,2024-06-07,2024-06-07,株式会社みらいクリエイト,,株式会社,茨城県,水戸市,東野町６２２番地の２,,08,201,3100846,,,,,,,2024-06-07,1,,,,,ミライクリエイト,0
127,1050003008423,新規,0,2024-06-07,2024-06-07,合同会社ＪｏｉｎｔＷｏｒｋ,,合同会社,茨城県,日立市,東金沢町３丁目４番２号,,08,202,3160014,,,,,,,2024-06-07,1,,,,,ジョイントワーク,0
131,1060001037175,新規,0,2024-06-07,2024-06-07,ＡＨＭＥＤ　ＳＡＥＥＤ株式会社,,株式会社,栃木県,下都賀郡野木町,大字佐川野字寺家山４７２番地３、２０１号室,,09,364,3290104,,,,,,,2024-06-07,1,,,,,アフマドサイード,0
134,1060003005106,新規,0,2024-06-07,2024-06-07,おむすびサポート合同会社,,合同会社,栃木県,大田原市,中田原３３０番地１,,09,210,3240062,,,,,,,2024-06-07,1,,,,,オムスビサポート,0
139,1070001041829,新規,0,2024-06-07,2024-06-07,株式会社クリーンテック,,株式会社,群馬県,桐生市,宮本町３丁目４番１３号,,10,203,3760056,,,,,,,2024-06-07,1,,,,,クリーンテック,0
144,1070003005451,新規,0,2024-06-07,2024-06-07,合同会社レビュー,,合同会社,群馬県,高崎市,栄町３番１１号高崎バナーズビル３－５Ｆ,,10,202,3700841,,,,,,,2024-06-07,1,,,,,レビュー,0
147,1080003003223,新規,0,2024-06-07,2024-06-07,ファーマメント合同会社,,合同会社,静岡県,静岡市駿河区,稲川３丁目８番１９－２号,,22,102,4228062,,,,,,,2024-06-07,1,,,,,ファーマメント,0
149,1080101024807,新規,0,2024-06-07,2024-06-07,ＲＥ‐ＴＥＣＨ株式会社,,株式会社,静岡県,沼津市,志下５９１番地の２,,22,203,4100106,,,,,,,2024-06-07,1,,,,,リーテック,0
174,1120001265488,新規,0,2024-06-07,2024-06-07,株式会社箱根温泉荘,,株式会社,大阪府,大阪市城東区,中央１丁目５番３号,,27,118,5360005,,,,,,,2024-06-07,1,,,,,ハコネオンセンソウ,0
175,1120001265579,新規,0,2024-06-07,2024-06-07,サン建商株式会社,,株式会社,大阪府,大阪市港区,南市岡３丁目１１番２４号２Ｆ,,27,107,5520011,,,,,,,2024-06-07,1,,,,,サンケンショウ,0
176,1120001265645,新規,0,2024-06-07,2024-06-07,株式会社サインワークス,,株式会社,大阪府,門真市,城垣町１２番４号,,27,223,5710072,,,,,,,2024-06-07,1,,,,,サインワークス,0
177,1120001265653,新規,0,2024-06-07,2024-06-07,蜜探株式会社,,株式会社,大阪府,大阪市東住吉区,田辺４丁目１９番５－１０１号,,27,121,5460031,,,,,,,2024-06-07,1,,,,,ミツタン,0
180,1120003026789,新規,0,2024-06-07,2024-06-07,合同会社ワイルド・アット・ハート,,合同会社,大阪府,大阪市都島区,高倉町１丁目１番１６号,,27,102,5340011,,,,,,,2024-06-07,1,,,,,ワイルドアットハート,0
185,1120101069707,新規,0,2024-06-07,2024-06-07,株式会社佐々木建設,,株式会社,大阪府,岸和田市,尾生町５丁目４番４－１０１号,,27,202,5960816,,,,,,,2024-06-07,1,,,,,ササキケンセツ,0
190,1120901049271,新規,0,2024-06-07,2024-06-07,株式会社ねこじゃらし,,株式会社,大阪府,箕面市,半町３丁目１６番２３号（Ａ－１０３号）,,27,220,5620044,,,,,,,2024-06-07,1,,,,,ネコジャラシ,0
195,1120903005215,新規,0,2024-06-07,2024-06-07,Ｆａｍｉｌｉｏ合同会社,,合同会社,大阪府,茨木市,南耳原１丁目７番２４号,,27,211,5670004,,,,,,,2024-06-07,1,,,,,ファミリオ,0
200,1130001077189,新規,0,2024-06-07,2024-06-07,株式会社みらいファクトリー京都,,株式会社,京都府,京都市山科区,竹鼻竹ノ街道町９２番地ラクト山科メゾンイースト７０６号室,,26,110,6078080,,,,,,,2024-06-07,1,,,,,ミライファクトリーキョウト,0
201,1130001077214,新規,0,2024-06-07,2024-06-07,株式会社Ｄ・Ｅ・Ｎ,,株式会社,京都府,京都市伏見区,竹田真幡木町５３番地栗塚ビル２００号,,26,109,6128427,,,,,,,2024-06-07,1,,,,,ディーイーエヌ,0
205,1130005017109,新規,0,2024-06-07,2024-06-07,一般社団法人南丹市猟友会,,その他の設立登記法人,京都府,南丹市,園部町小山西町流尾２０番地１,,26,213,6220043,,,,,,,2024-06-07,1,,,,,ナンタンシリョウユウカイ,0
208,1140001134682,新規,0,2024-06-07,2024-06-07,株式会社歩防災,,株式会社,兵庫県,尼崎市,南武庫之荘３丁目１７番２５－１０２号,,28,202,6610033,,,,,,,2024-06-07,1,,,,,アユミボウサイ,0
209,1140001134699,新規,0,2024-06-07,2024-06-07,株式会社ユーズホールディングス,,株式会社,兵庫県,神戸市兵庫区,本町２丁目３番１８号,,28,105,6520834,,,,,,,2024-06-07,1,,,,,ユーズホールディングス,0
212,1140003020674,新規,0,2024-06-07,2024-06-07,合同会社ＡＬＯＨ,,合同会社,兵庫県,伊丹市,下河原２丁目１３番１３号,,28,207,6640832,,,,,,,2024-06-07,1,,,,,アロー,0
242,1180001161780,新規,0,2024-06-07,2024-06-07,株式会社恭永,,株式会社,愛知県,小牧市,小牧２丁目３番地,,23,219,4850041,,,,,,,2024-06-07,1,,,,,キョウエイ,0
243,1180001161814,新規,0,2024-06-07,2024-06-07,株式会社ダイシン,,株式会社,愛知県,北名古屋市,高田寺東の川４６番地５,,23,234,4810011,,,,,,,2024-06-07,1,,,,,ダイシン,0
244,1180001161839,新規,0,2024-06-07,2024-06-07,株式会社ベストアグリ,,株式会社,愛知県,一宮市,明地字西阿古井３２１番地,,23,203,4940012,,,,,,,2024-06-07,1,,,,,ベストアグリ,0
245,1180003026890,新規,0,2024-06-07,2024-06-07,Ｌｏｔｕｓ　Ｂｏｎｄ合同会社,,合同会社,愛知県,名古屋市東区,橦木町３丁目３０番地,,23,102,4610014,,,,,,,2024-06-07,1,,,,,ロータスボンド,0
246,1180003026899,新規,0,2024-06-07,2024-06-07,合同会社ｈｉｔｏｙｏｒｉ,,合同会社,愛知県,名古屋市西区,名西１丁目２４－１５上良ビル５階,,23,104,4510064,,,,,,,2024-06-07,1,,,,,ヒトヨリ,0
247,1180301038695,新規,0,2024-06-07,2024-06-07,ＨＩＴ株式会社,,株式会社,愛知県,額田郡幸田町,大字六栗字本郷４番地,,23,501,4440122,,,,,,,2024-06-07,1,,,,,エイチアイティー,0
248,1190001031396,新規,0,2024-06-07,2024-06-07,株式会社奥野工商,,株式会社,三重県,伊勢市,粟野町５１７番地１,,24,203,5160054,,,,,,,2024-06-07,1,,,,,オクノコウショウ,0
257,1250001020681,新規,0,2024-06-07,2024-06-07,株式会社剣工務店,,株式会社,山口県,長門市,三隅中１７２９番地９エスポアール３０３号,,35,211,7593802,,,,,,,2024-06-07,1,,,,,ツルギコウムテン,0
260,1260003004756,新規,0,2024-06-07,2024-06-07,合同会社五十九鈴,,合同会社,岡山県,玉野市,西田井地２１６３,,33,204,7060313,,,,,,,2024-06-07,1,,,,,ゴジュウキュウリン,0
261,1260003004764,新規,0,2024-06-07,2024-06-07,合同会社六十三鈴,,合同会社,岡山県,岡山市中区,米田２４番地８,,33,102,7038224,,,,,,,2024-06-07,1,,,,,ロクジュウサンリン,0
265,1290003015404,新規,0,2024-06-07,2024-06-07,緒方キャピタルマネジメント合同会社,,合同会社,福岡県,福岡市東区,箱崎５丁目１１番１－４０１号,,40,131,8120053,,,,,,,2024-06-07,1,,,,,オガタキャピタルマネジメント,0
273,1320001020518,新規,0,2024-06-07,2024-06-07,株式会社ＦＫＰ,,株式会社,大分県,宇佐市,大字蜷木７８８番地,,44,211,8720023,,,,,,,2024-06-07,1,,,,,エフケーピー,0
274,1320003004386,新規,0,2024-06-07,2024-06-07,合同会社ＨＯＬＯＳＣＯＰＥ,,合同会社,大分県,大分市,大字三芳１１３５番地の１ロイヤルシティスカイタワー３０２,,44,201,8700030,,,,,,,2024-06-07,1,,,,,ホロスコープ,0
278,1340001026562,新規,0,2024-06-07,2024-06-07,株式会社テクノアイランド,,株式会社,鹿児島県,大島郡天城町,大字浅間６７１番地５,,46,531,8917605,,,,,,,2024-06-07,1,,,,,テクノアイランド,0
283,1370001051351,新規,0,2024-06-07,2024-06-07,株式会社ＩＳＨＩＩ,,株式会社,宮城県,岩沼市,下野郷字舘外２３７番地,,04,211,9892421,,,,,,,2024-06-07,1,,,,,イシイ,0
291,1380001034586,新規,0,2024-06-07,2024-06-07,＿源商事株式会社,00135061,株式会社,福島県,白河市,大信中新城字村内５,,07,205,9690307,,,,,,,2024-06-07,1,,,,,キンゲンショウジ,0
296,1390001017631,新規,0,2024-06-07,2024-06-07,Ｃｏｍｍｉｔ株式会社,,株式会社,山形県,山形市,小荷駄町３番２６号,,06,201,9900035,,,,,,,2024-06-07,1,,,,,コミット,0
303,1410003003940,新規,0,2024-06-07,2024-06-07,合同会社ＶＩＶＯＣ,,合同会社,秋田県,湯沢市,清水町２丁目３番８５号,,05,207,0120033,,,,,,,2024-06-07,1,,,,,ヴィヴォク,0
310,1430001091928,新規,0,2024-06-07,2024-06-07,株式会社ＧＯＵＲＭＡＮＤ　ＩＳＨＩＹＡ,,株式会社,北海道,札幌市手稲区,西宮の沢二条２丁目１番２号,,01,109,0060002,,,,,,,2024-06-07,1,,,,,グルマンイシヤ,0
311,1430001091936,新規,0,2024-06-07,2024-06-07,ｎｏｒｔｈ　ｔｒｅｋｓ株式会社,,株式会社,北海道,江別市,中島１８番地６,,01,217,0670053,,,,,,,2024-06-07,1,,,,,ノーストレックス,0
312,1430001091944,新規,0,2024-06-07,2024-06-07,株式会社Ｓ,,株式会社,北海道,札幌市中央区,南五条西３丁目８番地Ｎ・グランデビル５階,,01,101,0640805,,,,,,,2024-06-07,1,,,,,エス,0
313,1430001091969,新規,0,2024-06-07,2024-06-07,株式会社結進興業,,株式会社,北海道,苫小牧市,新明町５丁目４番１２号,,01,213,0530055,,,,,,,2024-06-07,1,,,,,ユウシンコウギョウ,0
319,1450003002484,新規,0,2024-06-07,2024-06-07,合資会社福士化粧品店,,合資会社,北海道,深川市,四条８番１５号,,01,228,0740004,,,,,,,2024-06-07,1,,,,,,0
322,1490001010790,新規,0,2024-06-07,2024-06-07,株式会社シモムラ,,株式会社,高知県,宿毛市,平田町戸内４７８７番地,,39,208,7880783,,,,,,,2024-06-07,1,,,,,シモムラ,0
324,1490003001895,新規,0,2024-06-07,2024-06-07,合同会社ロイヤル,,合同会社,高知県,高知市,朝倉己１１７８番地１,,39,201,7808066,,,,,,,2024-06-07,1,,,,,ロイヤル,0
326,1700150084416,新規,0,2024-06-07,2017-07-10,日本古生物学会,,その他,東京都,新宿区,山吹町３５８－５アカデミーセンター,,13,104,1620801,,,,,,,2017-07-10,1,,,,,ニツポンコセイブツガツカイ,0
327,1700150125814,新規,0,2024-06-07,2024-06-07,Ｏｔｈｅｒ　Ｗｏｒｌｄ　Ｃｏｍｐｕｔｉｎｇ，Ｉｎｃ．,,外国会社等,,,,,,,,アメリカ合衆国６００９８、イリノイ州、ギャラクシー・ウェイ８,,,,,,2024-06-07,1,,,,,アザーワールドコンピューティングインク,0
337,2010001245525,新規,0,2024-06-07,2024-06-07,株式会社ＫＲＴ,,株式会社,東京都,中央区,銀座１丁目２２－１１銀座大竹ビジデンス２Ｆ,,13,102,1040061,,,,,,,2024-06-07,1,,,,,ケーアールティー,0
338,2010003043902,新規,0,2024-06-07,2024-06-07,テイクユー合同会社,,合同会社,東京都,中央区,勝どき１丁目８番１－３８０８号,,13,102,1040054,,,,,,,2024-06-07,1,,,,,テイクユー,0
340,2010005038388,新規,0,2024-06-07,2024-06-07,一般社団法人リエネウインドファーム,,その他の設立登記法人,東京都,中央区,京橋２丁目１２番６号ＡＯＪ税理士法人内,,13,102,1040031,,,,,,,2024-06-07,1,,,,,リエネウインドファーム,0
341,2010101016181,新規,0,2024-06-07,2024-06-07,株式会社メロディーライブ,,株式会社,東京都,八王子市,鑓水２丁目７５番地３１,,13,201,1920375,,,,,,,2024-06-07,1,,,,,メロディーライブ,0
347,2010401182888,新規,0,2024-06-07,2024-06-07,株式会社ＳＴホールディングス,,株式会社,東京都,港区,虎ノ門２丁目６番１号虎ノ門ヒルズステーションタワー１９階,,13,103,1050001,,,,,,,2024-06-07,1,,,,,エスティホールディングス,0
348,2010401182938,新規,0,2024-06-07,2024-06-07,株式会社オンポイントクリエーション,,株式会社,東京都,港区,虎ノ門３丁目１８番１６号虎ノ門三丁目ＭＩビル３階,,13,103,1050001,,,,,,,2024-06-07,1,,,,,オンポイントクリエーション,0
349,2010401182954,新規,0,2024-06-07,2024-06-07,株式会社Ｇｏｏｄ　Ｓｔｏｒｙ,,株式会社,東京都,港区,浜松町２丁目２番１５号浜松町ダイヤビル２Ｆ,,13,103,1050013,,,,,,,2024-06-07,1,,,,,グッドストーリー,0
350,2010401182962,新規,0,2024-06-07,2024-06-07,株式会社ＨＯＪＯＪＯ,,株式会社,東京都,港区,港南２丁目１６番１号品川イーストワンタワー１３階,,13,103,1080075,,,,,,,2024-06-07,1,,,,,ホジョジョ,0
351,2010401182970,新規,0,2024-06-07,2024-06-07,株式会社Ｒｉｖｅｒｓ,,株式会社,東京都,港区,六本木７丁目１５番７号新六本木ビル６階,,13,103,1060032,,,,,,,2024-06-07,1,,,,,リバース,0
353,2010403032760,新規,0,2024-06-07,2024-06-07,合同会社フォースキャリア,,合同会社,東京都,港区,六本木６丁目１０番１号六本木ヒルズ森タワー１６階,,13,103,1060032,,,,,,,2024-06-07,1,,,,,フォースキャリア,0
354,2010403032793,新規,0,2024-06-07,2024-06-07,Ｋｅｙ　Ａｓｓｅｔ合同会社,,合同会社,東京都,港区,南青山２丁目２番１５号,,13,103,1070062,,,,,,,2024-06-07,1,,,,,キーアセット,0
361,2010501052405,新規,0,2024-06-07,2024-06-07,栄擇株式会社,,株式会社,東京都,台東区,北上野２丁目２５番９号－２０６号室,,13,106,1100014,,,,,,,2024-06-07,1,,,,,エイタク,0
362,2010501052421,新規,0,2024-06-07,2024-06-07,昊嘉商事株式会社,,株式会社,東京都,台東区,東上野３丁目２１番７福井ビル４０２室,,13,106,1100015,,,,,,,2024-06-07,1,,,,,コウカショウジ,0
365,2010601065323,新規,0,2024-06-07,2024-06-07,株式会社ワリカンジャパン,,株式会社,東京都,墨田区,菊川３丁目１３番５－６０１号ペリアビル,,13,107,1300024,,,,,,,2024-06-07,1,,,,,ワリカンジャパン,0
366,2010601065331,新規,0,2024-06-07,2024-06-07,かんば株式会社,,株式会社,東京都,墨田区,東向島２丁目２９番１４号,,13,107,1310032,,,,,,,2024-06-07,1,,,,,カンバ,0
368,2010701046108,新規,0,2024-06-07,2024-06-07,株式会社Ｆｏｏｔｌｉｇｈｔ,,株式会社,東京都,品川区,西五反田２丁目９－７ドルミ五反田アンメゾン４０７号,,13,109,1410031,,,,,,,2024-06-07,1,,,,,フットライト,0
370,2010801035118,新規,0,2024-06-07,2024-06-07,イデビ株式会社,,株式会社,東京都,大田区,大森本町１丁目８番１０－２２０４号,,13,111,1430011,,,,,,,2024-06-07,1,,,,,イデビ,0
371,2010903009127,新規,0,2024-06-07,2024-06-07,合同会社ＯＷＬ,,合同会社,東京都,世田谷区,喜多見４丁目１５番９号ジュネス喜多見２０３,,13,112,1570067,,,,,,,2024-06-07,1,,,,,オウル,0
375,2011001162421,新規,0,2024-06-07,2024-06-07,プロスペクティブ・テクノロジーズ株式会社,,株式会社,東京都,渋谷区,道玄坂１丁目１０番８号渋谷道玄坂東急ビル２Ｆ－Ｃ,,13,113,1500043,,,,,,,2024-06-07,1,,,,,プロスペクティブテクノロジーズ,0
376,2011001162470,新規,0,2024-06-07,2024-06-07,Ｍｅｎｔｉｉ株式会社,,株式会社,東京都,渋谷区,恵比寿西２丁目４番８号ウィンド恵比寿ビル８Ｆ,,13,113,1500021,,,,,,,2024-06-07,1,,,,,メンティ,0
377,2011001162487,新規,0,2024-06-07,2024-06-07,株式会社ＰＲＯＳＴ,,株式会社,東京都,渋谷区,円山町５番２号ＶＯＲＴ渋谷道玄坂ＩＩ１０階,00135058,13,113,1500044,,,,,,,2024-06-07,1,,,,,プロスト,0
378,2011001162495,新規,0,2024-06-07,2024-06-07,株式会社ＳＥＡＳＯＮＳ,,株式会社,東京都,渋谷区,渋谷３丁目６番４－４０３号,,13,113,1500002,,,,,,,2024-06-07,1,,,,,シーズンズ,0
379,2011001162529,新規,0,2024-06-07,2024-06-07,株式会社ありき,,株式会社,東京都,渋谷区,西原３丁目１７番４号,,13,113,1510066,,,,,,,2024-06-07,1,,,,,アリキ,0
381,2011003019322,新規,0,2024-06-07,2024-06-07,合同会社ＦＦＭＯ,,合同会社,東京都,目黒区,中根２丁目５番１３－５０４号,,13,110,1520031,,,,,,,2024-06-07,1,,,,,エフエフエムオー,0
382,2011003019330,新規,0,2024-06-07,2024-06-07,合同会社ｍｏｍｅｎｔｕｍ,,合同会社,東京都,目黒区,上目黒３丁目２７番１５号,,13,110,1530051,,,,,,,2024-06-07,1,,,,,モメンタム,0
387,2011103014504,新規,0,2024-06-07,2024-06-07,ＡＩコネクト企画合同会社,,合同会社,東京都,新宿区,西落合１丁目５－８コージーコート西落合１０４,,13,104,1610031,,,,,,,2024-06-07,1,,,,,エーアイコネクトキカク,0
390,2011301029741,新規,0,2024-06-07,2024-06-07,株式会社サクラウエルネスツアーズ,,株式会社,東京都,杉並区,久我山３丁目４３番１３号,,13,115,1680082,,,,,,,2024-06-07,1,,,,,サクラウエルネスツアーズ,0
391,2011303005187,新規,0,2024-06-07,2024-06-07,合同会社ＧＬＯＲＹ１０,,合同会社,東京都,杉並区,上高井戸３丁目５番９号,,13,115,1680074,,,,,,,2024-06-07,1,,,,,グローリーテン,0
392,2011303005195,新規,0,2024-06-07,2024-06-07,合同会社肝心社,,合同会社,東京都,杉並区,今川３丁目３０番１３号,,13,115,1670035,,,,,,,2024-06-07,1,,,,,カンジンシャ,0
394,2011701027345,新規,0,2024-06-07,2024-06-07,日本正栄食品集團株式会社,,株式会社,東京都,江戸川区,平井５丁目４５番５号渡辺ハイツ１０１,,13,123,1320035,,,,,,,2024-06-07,1,,,,,ニッポンセイエイショクヒンシュウダン,0
415,2020001157496,新規,0,2024-06-07,2024-06-07,日和商事株式会社,,株式会社,神奈川県,横浜市中区,山下町７４－１大和地所ビル１００２号室,,14,104,2310023,,,,,,,2024-06-07,1,,,,,ニチワショウジ,0
416,2020001157604,新規,0,2024-06-07,2024-06-07,ＮＬＥＳマネジメント株式会社,,株式会社,神奈川県,横浜市戸塚区,品濃町８８１番地１６,,14,110,2440801,,,,,,,2024-06-07,1,,,,,エヌエルイーエスマネジメント,0
417,2020001157620,新規,0,2024-06-07,2024-06-07,株式会社ＷＩＬＬ,,株式会社,神奈川県,横浜市泉区,和泉中央南４丁目４番１号,,14,116,2450023,,,,,,,2024-06-07,1,,,,,ウィル,0
422,2021001082395,新規,0,2024-06-07,2024-06-07,株式会社神奈川シジシー,,株式会社,神奈川県,厚木市,金田１４５６番地１,,14,212,2430807,,,,,,,2024-06-07,1,,,,,カナガワシジシー,0
424,2021003014611,新規,0,2024-06-07,2024-06-07,まごころ塗装合同会社,,合同会社,神奈川県,厚木市,下荻野１０７５番地１サンパレスＳＴ２０２,,14,212,2430203,,,,,,,2024-06-07,1,,,,,マゴコロトソウ,0
433,2030001160714,新規,0,2024-06-07,2024-06-07,株式会社Ｓｕｎ,,株式会社,埼玉県,川越市,新富町２丁目１２番地１０キッド川越第一ビル４階,,11,201,3500043,,,,,,,2024-06-07,1,,,,,サン,0
434,2030001160771,新規,0,2024-06-07,2024-06-07,株式会社小林内装,,株式会社,埼玉県,久喜市,中里８７７番地,,11,232,3491112,,,,,,,2024-06-07,1,,,,,コバヤシナイソウ,0
443,2030003024438,新規,0,2024-06-07,2024-06-07,合同会社有機商会,,合同会社,埼玉県,川口市,西川口１丁目５－２０－４Ｆ（１８）,,11,203,3320021,,,,,,,2024-06-07,1,,,,,ユウキショウカイ,0
444,2030005021722,新規,0,2024-06-07,2024-06-07,一般社団法人日本遺品整理サポート協会,,その他の設立登記法人,埼玉県,川口市,西川口３丁目３２番１１号本木荘２０２号,,11,203,3320021,,,,,,,2024-06-07,1,,,,,ニホンイヒンセイリサポートキョウカイ,0
445,2040001133909,新規,0,2024-06-07,2024-06-07,株式会社原住工業,,株式会社,千葉県,木更津市,永井作２丁目１０番１３号Ｂ－２,,12,206,2920053,,,,,,,2024-06-07,1,,,,,ハラズミコウギョウ,0
446,2040001133917,新規,0,2024-06-07,2024-06-07,株式会社桑建,,株式会社,千葉県,習志野市,津田沼５丁目３番６－２号,,12,216,2750016,,,,,,,2024-06-07,1,,,,,ソウケン,0
451,2040003025121,新規,0,2024-06-07,2024-06-07,合同会社Ｎｅｗａｇｅ,,合同会社,千葉県,船橋市,東船橋２丁目１０－７－１０３,,12,204,2730002,,,,,,,2024-06-07,1,,,,,ニューエイジ,0
462,2070001041828,新規,0,2024-06-07,2024-06-07,株式会社エンドウ電気,,株式会社,群馬県,高崎市,八幡町１０２５番地３,,10,202,3700884,,,,,,,2024-06-07,1,,,,,エンドウデンキ,0
465,2070003005450,新規,0,2024-06-07,2024-06-07,合同会社サイトウブロイ,,合同会社,群馬県,前橋市,堀越町９２６番地１８,,10,201,3710231,,,,,,,2024-06-07,1,,,,,サイトウブロイ,0
469,2100001037517,新規,0,2024-06-07,2024-06-07,株式会社タンネ,,株式会社,長野県,北安曇郡小谷村,大字千国乙１２８４０番地１,,20,486,3999422,,,,,,,2024-06-07,1,,,,,タンネ,0
470,2100001037541,新規,0,2024-06-07,2024-06-07,株式会社フレッシュハウス,,株式会社,長野県,飯田市,中村１３１９番地１３,,20,205,3950156,,,,,,,2024-06-07,1,,,,,フレッシュハウス,0
471,2100005013183,新規,0,2024-06-07,2024-06-07,一般社団法人信州そうはつ会議,,その他の設立登記法人,長野県,東御市,本海野８６１,,20,219,3890518,,,,,,,2024-06-07,1,,,,,シンシュウソウハツカイギ,0
485,2120005024369,新規,0,2024-06-07,2024-06-07,一般社団法人ダンスインストラクターズ協会,,その他の設立登記法人,大阪府,大阪市北区,梅田１丁目２番２号大阪駅前第２ビル１２－１２,,27,127,5300001,,,,,,,2024-06-07,1,,,,,ダンスインストラクターズキョウカイ,0
488,2120101069706,新規,0,2024-06-07,2024-06-07,株式会社グロウワース,,株式会社,大阪府,堺市北区,東浅香山町３丁１４５番地１浅香山団地９－１０２号,,27,146,5918008,,,,,,,2024-06-07,1,,,,,グロウワース,0
489,2120101069722,新規,0,2024-06-07,2024-06-07,株式会社ミナソラ,,株式会社,大阪府,堺市南区,小代７５２番地１,,27,145,5900151,,,,,,,2024-06-07,1,,,,,ミナソラ,0
491,2120901049279,新規,0,2024-06-07,2024-06-07,本田組株式会社,,株式会社,大阪府,吹田市,昭和町２４番５－２１１号,,27,205,5640028,,,,,,,2024-06-07,1,,,,,ホンダグミ,0
498,2130001077221,新規,0,2024-06-07,2024-06-07,株式会社寺井薬局,,株式会社,京都府,京都市東山区,本町２丁目６１番地・１階,,26,105,6050981,,,,,,,2024-06-07,1,,,,,テライヤッキョク,0
499,2130001077262,新規,0,2024-06-07,2024-06-07,株式会社山林建築設計事務所,,株式会社,京都府,京都市西京区,樫原畔ノ海道１－４９,,26,111,6158142,,,,,,,2024-06-07,1,,,,,ヤマバヤシケンチクセッケイジムショ,0
505,2140001134673,新規,0,2024-06-07,2024-06-07,株式会社ツカサプラミング,,株式会社,兵庫県,尼崎市,元浜町１丁目６７番地２,,28,202,6600085,,,,,,,2024-06-07,1,,,,,ツカサプラミング,0
506,2140001134698,新規,0,2024-06-07,2024-06-07,佳音株式会社,,株式会社,兵庫県,赤穂市,高野１１８６番地１４６,,28,212,6780171,,,,,,,2024-06-07,1,,,,,カオン,0
509,2150001027331,新規,0,2024-06-07,2024-06-07,株式会社アイエム,,株式会社,奈良県,奈良市,大宮町２丁目３－５－４０７,,29,201,6308115,,,,,,,2024-06-07,1,,,,,アイエム,0
514,2180001161805,新規,0,2024-06-07,2024-06-07,株式会社ＨＴＭ,,株式会社,愛知県,名古屋市名東区,猪高台１丁目１３２１ウィンＦ３階,,23,115,4650028,,,,,,,2024-06-07,1,,,,,エイチティーエム,0
515,2180001161813,新規,0,2024-06-07,2024-06-07,株式会社クリエイテック,,株式会社,愛知県,犬山市,大字前原字門前２９番地２,,23,215,4840061,,,,,,,2024-06-07,1,,,,,クリエイテック,0
516,2180001161821,新規,0,2024-06-07,2024-06-07,株式会社Ｏｓｔｒｉｃｈ,,株式会社,愛知県,名古屋市西区,上名古屋３丁目２１番１号ダイアモンドムーン１１０５号,,23,104,4510025,,,,,,,2024-06-07,1,,,,,オーストリッチ,0
517,2180001161838,新規,0,2024-06-07,2024-06-07,株式会社サカナトマチ,,株式会社,愛知県,名古屋市千種区,四谷通１丁目８番地ラフォーレ四ツ谷１Ｆ,,23,101,4640819,,,,,,,2024-06-07,1,,,,,サカナトマチ,0
518,2180001161846,新規,0,2024-06-07,2024-06-07,Ｈａｖｅｆｕｎ株式会社,,株式会社,愛知県,一宮市,冨田字流筋１４番地３,,23,203,4940018,,,,,,,2024-06-07,1,,,,,ハブファン,0
519,2180001161862,新規,0,2024-06-07,2024-06-07,株式会社ＧｏｏｄＦｉｅｌｄ,,株式会社,愛知県,名古屋市熱田区,四番１丁目５番９号,,23,109,4560051,,,,,,,2024-06-07,1,,,,,グッドフィールド,0
520,2180001161870,新規,0,2024-06-07,2024-06-07,株式会社横井組,,株式会社,愛知県,稲沢市,子生和池田町２０番地,,23,220,4928101,,,,,,,2024-06-07,1,,,,,ヨコイグミ,0
524,2180303006146,新規,0,2024-06-07,2024-06-07,合同会社アースライフス,,合同会社,愛知県,刈谷市,松栄町３丁目９番地９,,23,210,4480806,,,,,,,2024-06-07,1,,,,,アースライフス,0
525,2190001031387,新規,0,2024-06-07,2024-06-07,株式会社関谷ホールディングス,,株式会社,三重県,伊勢市,上地町２６９１番地１３,,24,203,5160051,,,,,,,2024-06-07,1,,,,,セキヤホールディングス,0
526,2190001031395,新規,0,2024-06-07,2024-06-07,鋭進株式会社,,株式会社,三重県,松阪市,駅部田町１７０７番地１,,24,204,5150045,,,,,,,2024-06-07,1,,,,,エイシン,0
533,2230001020369,新規,0,2024-06-07,2024-06-07,富山大信産業株式会社,,株式会社,富山県,富山市,神通町１丁目５番３０号,,16,201,9300009,,,,,,,2024-06-07,1,,,,,トヤマダイシンサンギョウ,0
535,2230003002225,新規,0,2024-06-07,2024-06-07,ＮＰＴＲＡＤＥ合同会社,,合同会社,富山県,射水市,浜開新町１２番地７,,16,211,9330232,,,,,,,2024-06-07,1,,,,,エヌピートレイド,0
540,2240001063342,新規,0,2024-06-07,2024-06-07,株式会社吉本左官工業,,株式会社,広島県,呉市,広中迫町１４番１０－３０１号,,34,202,7370105,,,,,,,2024-06-07,1,,,,,ヨシモトサカンコウギョウ,0
542,2240003006712,新規,0,2024-06-07,2024-06-07,合同会社せんぞく,,合同会社,広島県,広島市安佐南区,緑井３丁目１０番８－２０３号,,34,105,7310103,,,,,,,2024-06-07,1,,,,,センゾク,0
545,2260001039150,新規,0,2024-06-07,2024-06-07,株式会社Ｃｏｇｎｉｔｅｃｈ．ＤＥＶ,,株式会社,岡山県,岡山市北区,半田町６番２１号,,33,101,7000003,,,,,,,2024-06-07,1,,,,,コグニテックディーイーブイ,0
546,2260003004730,新規,0,2024-06-07,2024-06-07,合同会社二十六鈴,,合同会社,岡山県,倉敷市,児島田の口２丁目１番８号リヴィエール３０２,,33,202,7110903,,,,,,,2024-06-07,1,,,,,ニジュウロクリン,0
549,2280001009192,新規,0,2024-06-07,2024-06-07,株式会社ＧＣＫ農園,,株式会社,島根県,益田市,山折町２５３番地１,,32,204,6993673,,,,,,,2024-06-07,1,,,,,ジーシーケイノウエン,0
554,2290001106146,新規,0,2024-06-07,2024-06-07,株式会社マッドコア,,株式会社,福岡県,福岡市博多区,博多駅南５丁目１－１０,,40,132,8120016,,,,,,,2024-06-07,1,,,,,マッドコア,0
555,2290003015403,新規,0,2024-06-07,2024-06-07,合同会社矢野医学教育研究所,,合同会社,福岡県,小郡市,二森３１６番地３５,,40,216,8380126,,,,,,,2024-06-07,1,,,,,ヤノイガクキョウイクケンキュウショ,0
561,2310001019048,新規,0,2024-06-07,2024-06-07,株式会社ＭａｉｓｏｎＨａｎｄｓ,,株式会社,長崎県,長崎市,白木町１４番２０－２５号,,42,201,8500812,,,,,,,2024-06-07,1,,,,,メゾンハンズ,0
562,2310003004799,新規,0,2024-06-07,2024-06-07,ｓｕｋｒａ合同会社,,合同会社,長崎県,佐世保市,下本山町３８６‐１,,42,202,8580905,,,,,,,2024-06-07,1,,,,,サクラ,0
564,2320001020517,新規,0,2024-06-07,2024-06-07,津鋼商事株式会社,,株式会社,大分県,中津市,大字犬丸２１２１番地１,,44,203,8790105,,,,,,,2024-06-07,1,,,,,シンコウショウジ,0
565,2320003004385,新規,0,2024-06-07,2024-06-07,ＩＫＥＭＯＴＯ　ＩＮＤＵＳＴＲＩＥＳ合同会社,,合同会社,大分県,大分市,坂ノ市中央２丁目７番１５－３号,,44,201,8700307,,,,,,,2024-06-07,1,,,,,イケモトインダストリーズ,0
568,2330001032148,新規,0,2024-06-07,2024-06-07,アセットバンク株式会社,,株式会社,熊本県,熊本市南区,良町２丁目８番８号田迎ビル２０１,,43,104,8620969,,,,,,,2024-06-07,1,,,,,アセットバンク,0
572,2340001026561,新規,0,2024-06-07,2024-06-07,株式会社ｍａｉ,,株式会社,鹿児島県,鹿屋市,旭原町３６２４番地１,,46,203,8930022,,,,,,,2024-06-07,1,,,,,メイ,0
573,2340005009744,新規,0,2024-06-07,2024-06-07,一般社団法人噴煙,,その他の設立登記法人,鹿児島県,鹿児島郡十島村,大字諏訪之瀬島２６９番地,,46,304,8915203,,,,,,,2024-06-07,1,,,,,フンエン,0
579,2360003014050,新規,0,2024-06-07,2024-06-07,合同会社ＭＩＮＴワークス,,合同会社,沖縄県,宜野湾市,野嵩２丁目１１番２号,,47,205,9012203,,,,,,,2024-06-07,1,,,,,ミントワークス,0
594,2390001017639,新規,0,2024-06-07,2024-06-07,株式会社Ｆ‐ＥＡＴ,,株式会社,山形県,米沢市,城南４丁目３－１６山形大学米沢キャンパス１１号館４０６室,,06,202,9920038,,,,,,,2024-06-07,1,,,,,フィート,0
602,2430001091935,新規,0,2024-06-07,2024-06-07,株式会社リネイト,,株式会社,北海道,札幌市北区,篠路町上篠路３４３番地９５,,01,102,0028052,,,,,,,2024-06-07,1,,,,,リネイト,0
603,2430001091992,新規,0,2024-06-07,2024-06-07,株式会社ＴＳＵＮＡＧＵ,,株式会社,北海道,恵庭市,恵み野北１丁目７番７,,01,231,0611374,,,,,,,2024-06-07,1,,,,,ツナグ,0
604,2430003016428,新規,0,2024-06-07,2024-06-07,合同会社翼颯,,合同会社,北海道,札幌市手稲区,新発寒二条１丁目２番２３号,,01,109,0060802,,,,,,,2024-06-07,1,,,,,ツバサ,0
605,2430005014999,新規,0,2024-06-07,2024-06-07,一般社団法人ゆあのあ,,その他の設立登記法人,北海道,札幌市北区,北十八条西５丁目２番４０号,,01,102,0010018,,,,,,,2024-06-07,1,,,,,ユアノア,0
609,2450003002500,新規,0,2024-06-07,2024-06-07,合同会社ＢＡＳＥ,,合同会社,北海道,上川郡鷹栖町,北野東三条１丁目６－１５,,01,452,0711223,,,,,,,2024-06-07,1,,,,,ベース,0
610,2450005004412,新規,0,2024-06-07,2024-06-07,一般社団法人あさひかわ地域創造デザイン局,,その他の設立登記法人,北海道,旭川市,常盤通１丁目道北経済センター１階,,01,204,0700043,,,,,,,2024-06-07,1,,,,,アサヒカワチイキソウゾウデザインキョク,0
618,2500001025679,新規,0,2024-06-07,2024-06-07,ひとみホールディングス株式会社,,株式会社,愛媛県,新居浜市,黒島１丁目３番１５号,,38,205,7920892,,,,,,,2024-06-07,1,,,,,ヒトミホールディングス,0
623,2700150125813,新規,0,2024-06-07,2024-06-07,ＮＩＨＯＮ　ＡＵＴＯ株式会社,,外国会社等,東京都,新宿区,高田馬場２丁目１９－７タックイレブン高田馬場９０５,,13,104,1690075,ミャンマー連邦共和国、ヤンゴン、ヤンキン地区、セーヨウン通り、Ｎｏ．５Ｂ,,,,,,2024-06-07,1,,,,,ニホンオートカブシキガイシヤ,0
624,2700150125821,新規,0,2024-06-07,2024-06-07,Ｍａｄｉｎａ　Ｔｒａｄｉｎｇ　Ｐｖｔ　Ｌｔｄ,,外国会社等,神奈川県,愛甲郡清川村,煤ヶ谷８－１５－１,,14,402,2430112,スリランカ民主主義社会共和国、中部洲、アクラナ、クルゴダＮｏ．９６／４,,,,,,2024-06-07,1,,,,,マデイナトレーデイングプライベートリミテツド,0
629,3010001245474,新規,0,2024-06-07,2024-06-07,ＤＯＲＳＯ株式会社,,株式会社,東京都,中央区,入船２丁目９番１０号五條ビル３Ｂ,,13,102,1040042,,,,,,,2024-06-07,1,,,,,ドルソ,0
630,3010001245565,新規,0,2024-06-07,2024-06-07,株式会社ｂｅ‐ＦＵＬＬ,,株式会社,東京都,中央区,日本橋富沢町４－１０京成日本橋富沢町ビル,,13,102,1030006,,,,,,,2024-06-07,1,,,,,ビーフル,0
635,3010003043942,新規,0,2024-06-07,2024-06-07,合同会社スガノ,,合同会社,東京都,中央区,日本橋横山町９番７－５０３号,,13,102,1030003,,,,,,,2024-06-07,1,,,,,スガノ,0
649,3010401182961,新規,0,2024-06-07,2024-06-07,株式会社ナインゲート,,株式会社,東京都,港区,新橋５丁目３１－２リビオレゾンｎｅｘ２０４,,13,103,1050004,,,,,,,2024-06-07,1,,,,,ナインゲート,0
650,3010401183002,新規,0,2024-06-07,2024-06-07,１７Ｖａｌｕｅ株式会社,,株式会社,東京都,港区,海岸１丁目９－１５－１９０４,,13,103,1050022,,,,,,,2024-06-07,1,,,,,イレブンバリュー,0
652,3010403032768,新規,0,2024-06-07,2024-06-07,ＯｎｙｘＳｔｕｄｉｏ合同会社,,合同会社,東京都,港区,赤坂２丁目１４番５号Ｄａｉｗａ赤坂ビル４階,,13,103,1070052,,,,,,,2024-06-07,1,,,,,オニックススタジオ,0
657,3010501052420,新規,0,2024-06-07,2024-06-07,グリーン化学工業株式会社,,株式会社,東京都,台東区,台東１丁目２４番９号ブライト秋葉原Ｂ１Ｆ,,13,106,1100016,,,,,,,2024-06-07,1,,,,,グリーンカガクコウギョウ,0
664,3010601065322,新規,0,2024-06-07,2024-06-07,株式会社隅田サックマシン,,株式会社,東京都,墨田区,東駒形３丁目７番８号内田ビル１階,,13,107,1300005,,,,,,,2024-06-07,1,,,,,スミダサックマシン,0
666,3010603010879,新規,0,2024-06-07,2024-06-07,合同会社Ｂｅａｃｈ,,合同会社,東京都,江東区,白河３丁目６番１２号,,13,108,1350021,,,,,,,2024-06-07,1,,,,,ビーチ,0
679,3011001162453,新規,0,2024-06-07,2024-06-07,株式会社３ｒｄｐａｒｔｙ,,株式会社,東京都,渋谷区,神宮前２丁目３５番９号原宿リビン５０９,,13,113,1500001,,,,,,,2024-06-07,1,,,,,サードパーティー,0
680,3011001162503,新規,0,2024-06-07,2024-06-07,株式会社ＬＩＶＥＮＴ　ＨＯＬＤＩＮＧＳ,,株式会社,東京都,目黒区,中根１丁目１７番２０号,,13,110,1520031,,,,,,,2024-06-07,1,,,,,リベントホールディングス,0
681,3011001162511,新規,0,2024-06-07,2024-06-07,株式会社Ｐｒｏｓｐｅｒｉｔｙ,,株式会社,東京都,渋谷区,渋谷２丁目１９番１５号,,13,113,1500002,,,,,,,2024-06-07,1,,,,,プロスペリティ,0
682,3011003019321,新規,0,2024-06-07,2024-06-07,Ｓｐｉｒａｌ　Ｍａｎａｇｅｍｅｎｔ合同会社,,合同会社,東京都,目黒区,下目黒６丁目５－２１－２２７シティテラス下目黒,,13,110,1530064,,,,,,,2024-06-07,1,,,,,スパイラルマネジメント,0
686,3011103014511,新規,0,2024-06-07,2024-06-07,銀座ホテルマネジメント合同会社,,合同会社,東京都,新宿区,四谷４丁目３２番８号ＹＫＢサニービル６階,,13,104,1600004,,,,,,,2024-06-07,1,,,,,ギンザホテルマネジメント,0
689,3011303005186,新規,0,2024-06-07,2024-06-07,合同会社ＺＥＮＢ,,合同会社,東京都,杉並区,西荻南３丁目８番３号Ｂ１,,13,115,1670053,,,,,,,2024-06-07,1,,,,,ゼンブ,0
691,3011401026150,新規,0,2024-06-07,2024-06-07,メロディ株式会社,,株式会社,東京都,板橋区,板橋２丁目６３－４グローリア初穂板橋５０１ＥａｓｙＯｆｆｉｃｅ,,13,119,1730004,,,,,,,2024-06-07,1,,,,,メロディ,0
692,3011501030770,新規,0,2024-06-07,2024-06-07,以喬株式会社,,株式会社,東京都,荒川区,荒川４丁目３３番１号,,13,118,1160002,,,,,,,2024-06-07,1,,,,,イキョウ,0
695,3011801044339,新規,0,2024-06-07,2024-06-07,株式会社ガスワン南関東,,株式会社,東京都,葛飾区,奥戸４丁目１８番１８号,,13,122,1240022,,,,,,,2024-06-07,1,,,,,ガスワンミナミカントウ,0
702,3012403006603,新規,0,2024-06-07,2024-06-07,合同会社日本ハウジング,,合同会社,東京都,調布市,調布ケ丘１丁目１８番地９３ブランズシティ調布０２０,,13,208,1820021,,,,,,,2024-06-07,1,,,,,ニホンハウジング,0
705,3012701018300,新規,0,2024-06-07,2024-06-07,株式会社Ｗｉｔｈ‐Ｃｏｎ,,株式会社,東京都,西東京市,向台町１丁目１８－１９,,13,229,1880013,,,,,,,2024-06-07,1,,,,,ウィズコン,0
707,3012801023233,新規,0,2024-06-07,2024-06-07,株式会社小須田事務所,,株式会社,東京都,昭島市,福島町２丁目１９番４号,,13,207,1960031,,,,,,,2024-06-07,1,,,,,コスダジムショ,0
708,3012801023241,新規,0,2024-06-07,2024-06-07,ＳＯＬＩＤＡＲＩＴＹ　ＴＯＫＹＯ株式会社,,株式会社,東京都,立川市,柏町１丁目２９番地の２５－１０２号,,13,202,1900004,,,,,,,2024-06-07,1,,,,,ソリダリティートウキョウ,0
713,3020001157594,新規,0,2024-06-07,2024-06-07,株式会社Ｊｏｙｓｔｒｕｃｔ,,株式会社,神奈川県,横浜市西区,北幸２丁目１０番４８号むつみビル３階,,14,103,2200004,,,,,,,2024-06-07,1,,,,,ジョイストラクト,0
718,3021001082403,新規,0,2024-06-07,2024-06-07,株式会社Ｂｅｉｊｕ,,株式会社,神奈川県,横須賀市,深田台３４紅葉ビル１Ｆ,,14,201,2380016,,,,,,,2024-06-07,1,,,,,ベイジュ,0
719,3021001082411,新規,0,2024-06-07,2024-06-07,富士電工平塚株式会社,,株式会社,神奈川県,平塚市,四之宮２丁目７番７号,,14,203,2540014,,,,,,,2024-06-07,1,,,,,フジデンコウヒラツカ,0
720,3021001082460,新規,0,2024-06-07,2024-06-07,株式会社ｒｅｇａｌｏ,,株式会社,神奈川県,相模原市中央区,光が丘１丁目７－７,,14,152,2520227,,,,,,,2024-06-07,1,,,,,レガーロ,0
723,3021003014610,新規,0,2024-06-07,2024-06-07,合同会社Ｏ２ＭＲ,,合同会社,神奈川県,小田原市,東町１丁目３１番３号,,14,206,2500003,,,,,,,2024-06-07,1,,,,,オーツーエムアール,0
733,3030001160721,新規,0,2024-06-07,2024-06-07,株式会社鉄成,,株式会社,埼玉県,さいたま市岩槻区,大字笹久保新田４０番地,,11,110,3390035,,,,,,,2024-06-07,1,,,,,テツナリ,0
734,3030001160738,新規,0,2024-06-07,2024-06-07,株式会社別所沼会館,,株式会社,埼玉県,さいたま市南区,別所４丁目１４番１０号,,11,108,3360021,,,,,,,2024-06-07,1,,,,,ベッショヌマカイカン,0
735,3030001160787,新規,0,2024-06-07,2024-06-07,株式会社大地のめぐ美,,株式会社,埼玉県,本庄市,若泉１丁目３番１８号,,11,211,3670055,,,,,,,2024-06-07,1,,,,,ダイチノメグミ,0
747,3030003024321,新規,0,2024-06-07,2024-06-07,合同会社ＭＩＺＯＴ,,合同会社,埼玉県,幸手市,北２丁目１４番１８号ベルウッドＩ１０２,,11,240,3400111,,,,,,,2024-06-07,1,,,,,ミゾット,0
748,3030003024429,新規,0,2024-06-07,2024-06-07,Ｔｅｃｈ‐ＢＶＪ合同会社,,合同会社,埼玉県,所沢市,小手指町４丁目１８番地の９トリヴァンベール小手指２０３,,11,208,3591141,,,,,,,2024-06-07,1,,,,,テックビーヴイジェイ,0
749,3030003024461,新規,0,2024-06-07,2024-06-07,合同会社ウィンドミル,,合同会社,埼玉県,さいたま市大宮区,桜木町１丁目３９８番地１アドグレイス大宮７階,,11,103,3300854,,,,,,,2024-06-07,1,,,,,ウィンドミル,0
756,3040003025153,新規,0,2024-06-07,2024-06-07,合同会社リフォーマー,,合同会社,千葉県,市原市,能満１９２５－２８５,,12,219,2900011,,,,,,,2024-06-07,1,,,,,リフォーマー,0
771,3070001041827,新規,0,2024-06-07,2024-06-07,株式会社石田電気,,株式会社,群馬県,高崎市,下佐野町１５８番地２,,10,202,3700855,,,,,,,2024-06-07,1,,,,,イシダデンキ,0
772,3070001041835,新規,0,2024-06-07,2024-06-07,株式会社ＧＫホールディングス,,株式会社,群馬県,伊勢崎市,境下渕名５１２番地１,,10,204,3700103,,,,,,,2024-06-07,1,,,,,ジーケイホールディングス,0
775,3070003005458,新規,0,2024-06-07,2024-06-07,合同会社ロイヤル,,合同会社,群馬県,桐生市,相生町５丁目１２１番地の３２アリス桐生第２南１０１,,10,203,3760011,,,,,,,2024-06-07,1,,,,,ロイヤル,0
776,3080401027235,新規,0,2024-06-07,2024-06-07,石澤建築株式会社,,株式会社,静岡県,浜松市中央区,和合町３１５番地の３９０,,22,138,4338125,,,,,,,2024-06-07,1,,,,,イシザワケンチク,0
781,3100001037540,新規,0,2024-06-07,2024-06-07,株式会社林田シーラント,,株式会社,長野県,飯田市,鼎一色３４２番地１,,20,205,3950805,,,,,,,2024-06-07,1,,,,,ハヤシダシーラント,0
792,3120001265585,新規,0,2024-06-07,2024-06-07,株式会社オゼ,,株式会社,大阪府,大阪市東成区,中本５丁目２３番８－１３１０号,,27,115,5370022,,,,,,,2024-06-07,1,,,,,オゼ,0
793,3120001265643,新規,0,2024-06-07,2024-06-07,Ｓｏｌｖｉｏ株式会社,,株式会社,大阪府,大阪市住之江区,粉浜１丁目１１番５号,,27,125,5590001,,,,,,,2024-06-07,1,,,,,ソルビオ,0
794,3120001265684,新規,0,2024-06-07,2024-06-07,株式会社ＴＭＴ,,株式会社,大阪府,大阪市東成区,東今里１丁目５番２－５０２号,,27,115,5370011,,,,,,,2024-06-07,1,,,,,ティエムティ,0
795,3120001265701,新規,0,2024-06-07,2024-06-07,株式会社Ｋスペース,,株式会社,大阪府,枚方市,菊丘町３番５号,,27,210,5730091,,,,,,,2024-06-07,1,,,,,ケースペース,0
796,3120001265718,新規,0,2024-06-07,2024-06-07,エレベーター総合管理株式会社,,株式会社,大阪府,大阪市北区,梅田１丁目１－３大阪駅前第３ビル２９階１－１－１号室,,27,127,5300001,,,,,,,2024-06-07,1,,,,,エレベーターソウゴウカンリ,0
797,3120003026762,新規,0,2024-06-07,2024-06-07,合同会社アトリエハングリー,,合同会社,大阪府,大阪市北区,梅田１丁目２番２号大阪駅前第２ビル１２－１２,,27,127,5300001,,,,,,,2024-06-07,1,,,,,アトリエハングリー,0
798,3120003026787,新規,0,2024-06-07,2024-06-07,合同会社ＬＡＳＬ,,合同会社,大阪府,大阪市淀川区,西中島５丁目１３－２４－５０２,,27,123,5320011,,,,,,,2024-06-07,1,,,,,エルエーエスエル,0
811,3140001134680,新規,0,2024-06-07,2024-06-07,株式会社ＡＣＣ,,株式会社,兵庫県,明石市,魚住町清水１３３３番地の１,,28,203,6740074,,,,,,,2024-06-07,1,,,,,エーシーシー,0
812,3140001134706,新規,0,2024-06-07,2024-06-07,株式会社ＮＥＷＳ　ＤｉＳＨ,,株式会社,兵庫県,神戸市中央区,波止場町６番８号,,28,110,6500042,,,,,,,2024-06-07,1,,,,,ニュースディッシュ,0
813,3140001134747,新規,0,2024-06-07,2024-06-07,株式会社ＬＩＶＥＷＯＲＫＳ,,株式会社,兵庫県,神戸市灘区,楠丘町３丁目９番１０号,,28,102,6570024,,,,,,,2024-06-07,1,,,,,ライブワークス,0
816,3160003003205,新規,0,2024-06-07,2024-06-07,合同会社ＤＡＹ　ＦＡＣＴＯＲＹ,,合同会社,滋賀県,彦根市,日夏町９８７,,25,202,5220047,,,,,,,2024-06-07,1,,,,,デイファクトリー,0
823,3180001161820,新規,0,2024-06-07,2024-06-07,株式会社北川,,株式会社,愛知県,一宮市,西大海道字下宮４９番地１,,23,203,4910005,,,,,,,2024-06-07,1,,,,,キタガワ,0
824,3180001161837,新規,0,2024-06-07,2024-06-07,株式会社ＭＩＹＡ,,株式会社,愛知県,半田市,星崎町３丁目４８番地の１チッタ星崎１１０号,,23,205,4750911,,,,,,,2024-06-07,1,,,,,ミヤ,0
825,3180001161845,新規,0,2024-06-07,2024-06-07,株式会社サファイア,,株式会社,愛知県,名古屋市西区,名駅２丁目３４番１７号セントラル名古屋１１０１号,,23,104,4510045,,,,,,,2024-06-07,1,,,,,サファイア,0
826,3180001161853,新規,0,2024-06-07,2024-06-07,株式会社ＳＩＳＴＥＣ,,株式会社,愛知県,名古屋市北区,大曽根１丁目１番５号（レジデンス寿１０１号）,,23,103,4620825,,,,,,,2024-06-07,1,,,,,システック,0
827,3180001161878,新規,0,2024-06-07,2024-06-07,株式会社ＳＵＰＥＲ　ＢＲＩＤＧＥ,,株式会社,愛知県,名古屋市中川区,伏屋２丁目１６０３番地の２,,23,110,4540996,,,,,,,2024-06-07,1,,,,,スーパーブリッジ,0
830,3180003026856,新規,0,2024-06-07,2024-06-07,合同会社オルカスタッフィング,,合同会社,愛知県,名古屋市中区,栄４丁目１４－２１愛旅連ビル５階,,23,106,4600008,,,,,,,2024-06-07,1,,,,,オルカスタッフィング,0
831,3180003026889,新規,0,2024-06-07,2024-06-07,合同会社ｓｏｌｔｅｄ,,合同会社,愛知県,名古屋市中村区,名駅４丁目２４番５号第２森ビル４０１,,23,105,4500002,,,,,,,2024-06-07,1,,,,,ソルテッド,0
832,3180003026897,新規,0,2024-06-07,2024-06-07,Ｂｏｓｈｌａｎ合同会社,,合同会社,愛知県,名古屋市西区,牛島町６－１名古屋ルーセントタワー４０Ｆ,,23,104,4510046,,,,,,,2024-06-07,1,,,,,ボシュラン,0
836,3180305009575,新規,0,2024-06-07,2024-06-07,税理士法人春サポート,,その他の設立登記法人,愛知県,豊橋市,上野町字上原７番地６の１,,23,201,4418157,,,,,,,2024-06-07,1,,,,,ハルサポート,0
839,3190001031394,新規,0,2024-06-07,2024-06-07,株式会社メドガク,,株式会社,三重県,四日市市,西新地７‐３プラトンホテル２階,,24,202,5100087,,,,,,,2024-06-07,1,,,,,メドガク,0
842,3200001042571,新規,0,2024-06-07,2024-06-07,株式会社ＩＮＦＩＮＩＴＹ,,株式会社,岐阜県,岐阜市,黒野南１丁目１４９番地,,21,201,5011136,,,,,,,2024-06-07,1,,,,,インフィニティ,0
849,3230003002224,新規,0,2024-06-07,2024-06-07,池原サービス合同会社,,合同会社,富山県,黒部市,沓掛３１３３番地１,,16,207,9380013,,,,,,,2024-06-07,1,,,,,イケハラサービス,0
851,3240001063341,新規,0,2024-06-07,2024-06-07,ポラリス株式会社,,株式会社,広島県,福山市,引野町５７８７番地,,34,207,7210942,,,,,,,2024-06-07,1,,,,,ポラリス,0
855,3240003006703,新規,0,2024-06-07,2024-06-07,合名会社ＳＯＬＡＲＥ,,合名会社,広島県,福山市,神辺町新徳田４３番地２,,34,207,7210000,,,,,,,2024-06-07,1,,,,,ソラーレ,0
862,3260001039166,新規,0,2024-06-07,2024-06-07,株式会社オフィストミタク,,株式会社,岡山県,岡山市中区,江崎６０６番地７,,33,102,7028005,,,,,,,2024-06-07,1,,,,,オフィストミタク,0
863,3260003004738,新規,0,2024-06-07,2024-06-07,合同会社三十鈴,,合同会社,岡山県,高梁市,川上町七地１８６２番地,,33,209,7160202,,,,,,,2024-06-07,1,,,,,サンジュウリン,0
864,3260003004754,新規,0,2024-06-07,2024-06-07,合同会社五十八鈴,,合同会社,岡山県,玉野市,西田井地２１６３,,33,204,7060313,,,,,,,2024-06-07,1,,,,,ゴジュウハチリン,0
865,3260003004762,新規,0,2024-06-07,2024-06-07,合同会社六十二鈴,,合同会社,岡山県,岡山市中区,米田２４番地８,,33,102,7038224,,,,,,,2024-06-07,1,,,,,ロクジュウニリン,0
866,3260003004770,新規,0,2024-06-07,2024-06-07,合同会社六十六鈴,,合同会社,岡山県,岡山市中区,米田２４番地８,,33,102,7038224,,,,,,,2024-06-07,1,,,,,ロクジュウロクリン,0
870,3290001106062,新規,0,2024-06-07,2024-06-07,株式会社ＬＩＦＥ　ＢＡＳＥ　ＰＡＲＴＮＥＲＳ,,株式会社,福岡県,福岡市南区,南大橋１丁目２３番３７号,,40,134,8150034,,,,,,,2024-06-07,1,,,,,ライフベースパートナーズ,0
878,3300001013769,新規,0,2024-06-07,2024-06-07,株式会社サガカデンモバイル,,株式会社,佐賀県,佐賀市,新栄西１丁目１番４１号,,41,201,8400859,,,,,,,2024-06-07,1,,,,,サガカデンモバイル,0
882,3320001020516,新規,0,2024-06-07,2024-06-07,株式会社アローネクスト不動産,,株式会社,大分県,中津市,大字赤迫４２７番地,,44,203,8790106,,,,,,,2024-06-07,1,,,,,アローネクストフドウサン,0
883,3320003004384,新規,0,2024-06-07,2024-06-07,リニューステイ合同会社,,合同会社,大分県,大分市,顕徳町３丁目１番１２－６０１号,,44,201,8700025,,,,,,,2024-06-07,1,,,,,リニューステイ,0
886,3340005009743,新規,0,2024-06-07,2024-06-07,一般社団法人音楽の息づく街かごしま,,その他の設立登記法人,鹿児島県,鹿児島市,松原町２番７号Ｂ１Ｆ,,46,201,8920833,,,,,,,2024-06-07,1,,,,,オンガクノイキヅクマチカゴシマ,0
891,3370001051374,新規,0,2024-06-07,2024-06-07,株式会社Ｕｎ　ｉｎｃ．,,株式会社,宮城県,名取市,美田園５丁目３番地の１リアンベルコート１０１,,04,207,9811217,,,,,,,2024-06-07,1,,,,,アン,0
892,3370001051382,新規,0,2024-06-07,2024-06-07,株式会社ＰｅｔｉｔｅＪｏｉｅ,,株式会社,宮城県,亘理郡山元町,山寺字畑中５９番地３,,04,362,9892201,,,,,,,2024-06-07,1,,,,,プチットジョア,0
901,3390001017638,新規,0,2024-06-07,2024-06-07,株式会社ＴＯＳ,,株式会社,山形県,山形市,若宮２丁目１７番１号,,06,201,9902453,,,,,,,2024-06-07,1,,,,,トス,0
912,3430001091934,新規,0,2024-06-07,2024-06-07,リージョンリサーチ＆コンサルティング株式会社,,株式会社,北海道,苫小牧市,拓勇西町４丁目１８番８号,,01,213,0591302,,,,,,,2024-06-07,1,,,,,リージョンリサーチアンドコンサルティング,0
913,3430001091967,新規,0,2024-06-07,2024-06-07,株式会社富谷洋介建築設計,,株式会社,北海道,札幌市北区,新川五条１６丁目４番８号,,01,102,0010925,,,,,,,2024-06-07,1,,,,,トミヤヨウスケケンチクセッケイ,0
920,3430003016419,新規,0,2024-06-07,2024-06-07,合同会社ＱＵＭＯ,,合同会社,北海道,札幌市北区,新琴似九条１４丁目３－１７,,01,102,0010909,,,,,,,2024-06-07,1,,,,,クモ,0
929,3700150125696,新規,0,2024-06-07,2024-06-07,ｓｈｅｎｚｈｅｎｓｈｉｈｅｉｓａｉｋｅｊｉｙｏｕｘｉａｎｇｏｎｇｓｉ,,外国会社等,,,,,,,,ｌｏｎｇ　ｈｕａ　ｊｉｅ　ｄａｏ　ｑｉｎｇ　ｈｕ　ｓｈｅ　ｑｕ　ｘｕｅ　ｇａｎｇ　ｂｅｉ　ｌｕ　ｈｅｎｇ　ｂｏ　ｌｉ　ｒｏｎｇ　ｆｅｎｇ　ｃｈａｎ　ｙｅ　ｙｕａｎ　Ｃ　ｚｕｏ　９　ｃｅｎｇ　Ｃ９１３　ｓｈｉ　Ｓｈｅｎ　ｚｈｅｎ　ｓｈｉ　Ｇｕａｎｇ　ｄｏｎｇ　ｓｈｅｎｇ，Ｃｈｉｎａ,,,,,,2024-06-07,1,,,,,シンセンシコクイサイカギユウゲンコウシ,0
930,3700150125820,新規,0,2024-06-07,2024-06-07,ＯＨＡ　Ｈｏｎｇ　Ｋｏｎｇ　Ｓｅｒｖｉｃｅｓ　Ｌｉｍｉｔｅｄ,,外国会社等,東京都,千代田区,丸の内３丁目４番１号新国際ビル８階,,13,101,1000005,中華人民共和国香港特別行政区、ワンチャイ、ハーバー・ロード１８、セントラル・プラザ３８０６,,,,,,2024-06-07,1,,,,,オハホンコンサービスリミテツド,0
935,4010001245143,新規,0,2024-06-07,2024-06-07,株式会社アイエム企画,,株式会社,東京都,千代田区,神田富山町８番地,,13,101,1010043,,,,,,,2024-06-07,1,,,,,アイエムキカク,0
936,4010001245366,新規,0,2024-06-07,2024-06-07,Ａｓｔｒａ　Ｆｉｎａｎｃｉａｌ　Ａｄｖｉｓｏｒｓ株式会社,,株式会社,東京都,千代田区,四番町４－９東越伯鷹ビル５Ｆ,,13,101,1020081,,,,,,,2024-06-07,1,,,,,アストラフィナンシャルアドバイザーズ,0
937,4010001245449,新規,0,2024-06-07,2024-06-07,カマイユ株式会社,,株式会社,東京都,千代田区,東神田１丁目１５番９号,,13,101,1010031,,,,,,,2024-06-07,1,,,,,カマイユ,0
938,4010001245481,新規,0,2024-06-07,2024-06-07,ＡＲＭＳ会計株式会社,,株式会社,東京都,中央区,銀座１丁目１２番４号Ｎ＆ＥＢＬＤ．６Ｆ,,13,102,1040061,,,,,,,2024-06-07,1,,,,,アームズカイケイ,0
939,4010001245515,新規,0,2024-06-07,2024-06-07,株式会社このは出版,,株式会社,東京都,中央区,銀座７丁目１３番２０号銀座ＴＨビル９階,,13,102,1040061,,,,,,,2024-06-07,1,,,,,コノハシュッパン,0
940,4010001245523,新規,0,2024-06-07,2024-06-07,Ｙａｎｉｗａ株式会社,,株式会社,東京都,中央区,日本橋小舟町１４－７ＳＯＩＬＮｉｈｏｎｂａｓｈｉ,,13,102,1030024,,,,,,,2024-06-07,1,,,,,ヤニワ,0
946,4010005038403,新規,0,2024-06-07,2024-06-07,Ｋｕｋｉ　Ｌｏｇｉｓｔｉｃｓ一般社団法人,,その他の設立登記法人,東京都,千代田区,丸の内３丁目１番１号東京共同会計事務所内,,13,101,1000005,,,,,,,2024-06-07,1,,,,,クキロジスティクス,0
953,4010401182936,新規,0,2024-06-07,2024-06-07,株式会社鈴木,,株式会社,東京都,港区,浜松町１丁目３番２号パークコート浜離宮ザ・タワー１８０１,,13,103,1050013,,,,,,,2024-06-07,1,,,,,スズキ,0
954,4010401182960,新規,0,2024-06-07,2024-06-07,ＨｕｍａｎＤｒｉｖｅｎ株式会社,,株式会社,東京都,港区,赤坂４丁目８－１９赤坂フロントタウン３階,,13,103,1070052,,,,,,,2024-06-07,1,,,,,ヒューマンドリブン,0
958,4010403032759,新規,0,2024-06-07,2024-06-07,Ａｒｍａｔｕｓ合同会社,,合同会社,東京都,港区,虎ノ門１丁目１７番１号虎ノ門ヒルズビジネスタワー１５階,,13,103,1050001,,,,,,,2024-06-07,1,,,,,アーマトゥス,0
974,4011001162378,新規,0,2024-06-07,2024-06-07,オシアナスバイオ株式会社,,株式会社,東京都,渋谷区,渋谷２丁目１９番１５号宮益坂ビルディング６０９,,13,113,1500002,,,,,,,2024-06-07,1,,,,,オシアナスバイオ,0
975,4011001162469,新規,0,2024-06-07,2024-06-07,エフリネージ株式会社,,株式会社,東京都,渋谷区,神泉町１０番１５号アネックス神泉３０１,,13,113,1500045,,,,,,,2024-06-07,1,,,,,エフリネージ,0
976,4011001162493,新規,0,2024-06-07,2024-06-07,株式会社ＦＡＤＥＬＥＳＳ,,株式会社,東京都,渋谷区,渋谷２丁目１番１号,,13,113,1500002,,,,,,,2024-06-07,1,,,,,フェードレス,0
977,4011001162510,新規,0,2024-06-07,2024-06-07,ミラッソ株式会社,,株式会社,東京都,渋谷区,神宮前６丁目２３番４号桑野ビル２階,,13,113,1500001,,,,,,,2024-06-07,1,,,,,ミラッソ,0
978,4011001162527,新規,0,2024-06-07,2024-06-07,クオルエリアマネジメント株式会社,,株式会社,東京都,渋谷区,神宮前６丁目１６番７号,,13,113,1500001,,,,,,,2024-06-07,1,,,,,クオルエリアマネジメント,0
995,4011103014510,新規,0,2024-06-07,2024-06-07,銀座のホテル合同会社,,合同会社,東京都,新宿区,四谷４丁目３２番８号ＹＫＢサニービル６階,,13,104,1600004,,,,,,,2024-06-07,1,,,,,ギンザノホテル,0
1009,4013301052639,新規,0,2024-06-07,2024-06-07,株式会社アストロア,,株式会社,東京都,豊島区,東池袋１丁目３４番５号いちご東池袋ビル６階,,13,116,1700013,,,,,,,2024-06-07,1,,,,,アストロア,0
1015,4020001157602,新規,0,2024-06-07,2024-06-07,株式会社太一鋼業,,株式会社,神奈川県,川崎市多摩区,菅５丁目５番３０－２０１号,,14,135,2140001,,,,,,,2024-06-07,1,,,,,タイチコウギョウ,0
1018,4020003026243,新規,0,2024-06-07,2024-06-07,合同会社ｔｏｔｅｎ,,合同会社,神奈川県,横浜市戸塚区,汲沢１丁目１－１９,,14,110,2450061,,,,,,,2024-06-07,1,,,,,トウテン,0
1019,4020003026292,新規,0,2024-06-07,2024-06-07,ＧｏＧ合同会社,,合同会社,神奈川県,横浜市中区,扇町２丁目５番地１４Ｙ’ｓトレゾワ関内６Ｆ,,14,104,2310027,,,,,,,2024-06-07,1,,,,,ジーオージー,0
1022,4021001082435,新規,0,2024-06-07,2024-06-07,株式会社リアン,,株式会社,神奈川県,伊勢原市,下落合一丁目１番地,,14,214,2591121,,,,,,,2024-06-07,1,,,,,リアン,0
1029,4030001160720,新規,0,2024-06-07,2024-06-07,株式会社五常,,株式会社,埼玉県,越谷市,大間野町３丁目１７番地１,,11,222,3430844,,,,,,,2024-06-07,1,,,,,ゴジョウ,0
1030,4030001160753,新規,0,2024-06-07,2024-06-07,株式会社アークウェイホーム,,株式会社,埼玉県,さいたま市緑区,道祖土１丁目２６番５号,,11,109,3360907,,,,,,,2024-06-07,1,,,,,アークウェイホーム,0
1031,4030001160761,新規,0,2024-06-07,2024-06-07,さくら国際株式会社,,株式会社,埼玉県,所沢市,小手指町３丁目１１－９サンアベニュー小手指南１０３,,11,208,3591141,,,,,,,2024-06-07,1,,,,,サクラコクサイ,0
1046,4040003025128,新規,0,2024-06-07,2024-06-07,合同会社オハナアイナ,,合同会社,千葉県,船橋市,習志野台１丁目２７番１－５０６号,,12,204,2740063,,,,,,,2024-06-07,1,,,,,オハナアイナ,0
1051,4050003008429,新規,0,2024-06-07,2024-06-07,合同会社京相工業,,合同会社,茨城県,神栖市,深芝南１丁目２０－１アピカ五郎台８号,,08,232,3140142,,,,,,,2024-06-07,1,,,,,キョウソウコウギョウ,0
1060,4070003005449,新規,0,2024-06-07,2024-06-07,合同会社ＷＡＶＥ　Ｎｏ．,,合同会社,群馬県,高崎市,田町７５番地５,,10,202,3700824,,,,,,,2024-06-07,1,,,,,ウェーブナンバー,0
1062,4080105006435,新規,0,2024-06-07,2024-06-07,行政書士法人藩屋事務所,,その他の設立登記法人,静岡県,沼津市,一本松４８４番地の２,,22,203,4100314,,,,,,,2024-06-07,1,,,,,,0
1064,4080401027242,新規,0,2024-06-07,2024-06-07,株式会社フルレゾン,,株式会社,静岡県,浜松市中央区,萩丘２丁目１０番１３号,,22,138,4338121,,,,,,,2024-06-07,1,,,,,フルレゾン,0
1081,4120001265502,新規,0,2024-06-07,2024-06-07,株式会社サンドールＦｌａｔ,,株式会社,大阪府,枚方市,牧野本町１丁目２２－１４サンドール五番館１Ｆ,,27,210,5731144,,,,,,,2024-06-07,1,,,,,,0
1082,4120001265543,新規,0,2024-06-07,2024-06-07,Ｊａｐａｎ　Ｍｅｄｉｃａｌ　Ｉｎｎｏｖａｔｉｏｎ株式会社,,株式会社,大阪府,大阪市北区,梅田２丁目１番２２号野村不動産西梅田ビル１２階,,27,127,5300001,,,,,,,2024-06-07,1,,,,,ジャパンメディカルイノベーション,0
1083,4120001265700,新規,0,2024-06-07,2024-06-07,株式会社ＳＲＥＴＡＮ　ＨＯＵＳＥ,,株式会社,大阪府,大阪市住之江区,北加賀屋５丁目５番４４－５１４号,,27,125,5590011,,,,,,,2024-06-07,1,,,,,スレタンハウス,0
1084,4120001265733,新規,0,2024-06-07,2024-06-07,旭ルチア株式会社,,株式会社,大阪府,大阪市旭区,中宮３丁目１７番２５号,,27,117,5350003,,,,,,,2024-06-07,1,,,,,アサヒルチア,0
1091,4120003026761,新規,0,2024-06-07,2024-06-07,ルペアイハ合同会社,,合同会社,大阪府,大阪市西区,新町２丁目１１番１４号,,27,106,5500013,,,,,,,2024-06-07,1,,,,,ルペアイハ,0
1092,4120003026786,新規,0,2024-06-07,2024-06-07,合同会社１８５,,合同会社,大阪府,大阪市東住吉区,照ケ丘矢田２丁目３番２０－３０１号,,27,121,5460021,,,,,,,2024-06-07,1,,,,,イイハコ,0
1093,4120005024367,新規,0,2024-06-07,2024-06-07,一般社団法人ａｋａ，ａｏ，ｋｉｉｒｏ,,その他の設立登記法人,大阪府,大阪市西区,千代崎２丁目１７番１号,,27,106,5500023,,,,,,,2024-06-07,1,,,,,アカアオキイロ,0
1102,4130001077203,新規,0,2024-06-07,2024-06-07,株式会社ＴＯＷＡ,,株式会社,京都府,京都市下京区,松原通堺町東入杉屋町２８３番地,,26,106,6008078,,,,,,,2024-06-07,1,,,,,トワ,0
1103,4130001077211,新規,0,2024-06-07,2024-06-07,株式会社ハートフルメゾン,,株式会社,京都府,綴喜郡宇治田原町,大字岩山小字城尾９番地の１,,26,344,6100261,,,,,,,2024-06-07,1,,,,,ハートフルメゾン,0
1108,4140005027104,新規,0,2024-06-07,2024-06-07,一般社団法人今日も帰る場所がある,,その他の設立登記法人,兵庫県,尼崎市,東難波町３丁目２１－７リヨンドハイツ２Ｂ,,28,202,6600892,,,,,,,2024-06-07,1,,,,,キョウモカエルバショガアル,0
1111,4160001025984,新規,0,2024-06-07,2024-06-07,株式会社ｃｏｎｐｅｉｔｏ,,株式会社,滋賀県,大津市,中庄１丁目９番５号,,25,201,5200837,,,,,,,2024-06-07,1,,,,,コンペイトウ,0
1121,4180001161803,新規,0,2024-06-07,2024-06-07,株式会社クラフトガーデン,,株式会社,愛知県,名古屋市北区,大我麻町３５番地,,23,103,4620064,,,,,,,2024-06-07,1,,,,,クラフトガーデン,0
1122,4180001161828,新規,0,2024-06-07,2024-06-07,ＧＦＳ株式会社,,株式会社,愛知県,尾張旭市,大塚町３丁目４番地６,,23,226,4880826,,,,,,,2024-06-07,1,,,,,ジーエフエス,0
1123,4180001161844,新規,0,2024-06-07,2024-06-07,株式会社樹風,,株式会社,愛知県,日進市,藤塚１丁目２４５番地,,23,230,4700117,,,,,,,2024-06-07,1,,,,,ジュフウ,0
1124,4180001161860,新規,0,2024-06-07,2024-06-07,株式会社ｐｏｐｏ　ｃｈｅｒｉｅ,,株式会社,愛知県,一宮市,木曽川町黒田七ノ通り２７３番地２,,23,203,4930001,,,,,,,2024-06-07,1,,,,,ポポシェリエ,0
1125,4180001161885,新規,0,2024-06-07,2024-06-07,株式会社ＬＩＦＥ．ＮＳ,,株式会社,愛知県,名古屋市中区,栄３丁目２８番２５号,,23,106,4600008,,,,,,,2024-06-07,1,,,,,ライフエヌエス,0
1131,4180301038701,新規,0,2024-06-07,2024-06-07,株式会社メープルソフト,,株式会社,愛知県,豊田市,浄水町伊保原１３１番地,,23,211,4700343,,,,,,,2024-06-07,1,,,,,メープルソフト,0
1133,4180303006144,新規,0,2024-06-07,2024-06-07,合同会社３ｐｉｇｌｅｔｓ,,合同会社,愛知県,豊川市,正岡町池田７０６番地の１,,23,207,4420823,,,,,,,2024-06-07,1,,,,,スリーピグレッツ,0
1136,4190003004703,新規,0,2024-06-07,2024-06-07,合同会社ＭＳＲ,,合同会社,三重県,四日市市,浮橋１丁目６番地５,,24,202,5120931,,,,,,,2024-06-07,1,,,,,エムエスアール,0
1138,4200001042562,新規,0,2024-06-07,2024-06-07,株式会社長沢商店,,株式会社,岐阜県,大垣市,長松町１８８番地３,,21,202,5030997,,,,,,,2024-06-07,1,,,,,ナガサワショウテン,0
1139,4200001042579,新規,0,2024-06-07,2024-06-07,株式会社章恵,,株式会社,岐阜県,美濃加茂市,牧野１６７９番地１,,21,211,5050016,,,,,,,2024-06-07,1,,,,,ショウケイ,0
1151,4260001039157,新規,0,2024-06-07,2024-06-07,株式会社豊稔,,株式会社,岡山県,赤磐市,穂崎８８８番地４,,33,213,7090824,,,,,,,2024-06-07,1,,,,,ホウネン,0
1152,4260001039165,新規,0,2024-06-07,2024-06-07,松芝ＨＲ株式会社,,株式会社,岡山県,備前市,日生町日生８８６番地１０,,33,211,7013204,,,,,,,2024-06-07,1,,,,,マツシバエイチアール,0
1165,4290803004751,新規,0,2024-06-07,2024-06-07,合同会社あさひＣｏｍｐａｎｙ,,合同会社,福岡県,北九州市小倉南区,富士見１丁目５番３７－３０７号,,40,107,8020801,,,,,,,2024-06-07,1,,,,,アサヒカンパニー,0
1176,4370001051381,新規,0,2024-06-07,2024-06-07,株式会社シンシティ,,株式会社,宮城県,亘理郡山元町,坂元字上西谷地８番地６,,04,362,9892111,,,,,,,2024-06-07,1,,,,,シンシティ,0
1193,4430001091958,新規,0,2024-06-07,2024-06-07,ＧＲＥＥＮ建設株式会社,,株式会社,北海道,札幌市中央区,南二条西８丁目３－１大光ビル２Ｆ,,01,101,0600062,,,,,,,2024-06-07,1,,,,,グリーンケンセツ,0
1194,4430001091982,新規,0,2024-06-07,2024-06-07,Ａ・プロパティ株式会社,,株式会社,北海道,札幌市西区,山の手二条５丁目５番２３号,,01,107,0630002,,,,,,,2024-06-07,1,,,,,エープロパティ,0
1197,4430003016426,新規,0,2024-06-07,2024-06-07,合同会社ＢＰＳ,,合同会社,北海道,札幌市豊平区,水車町５丁目６番１７－３０１号,,01,105,0620912,,,,,,,2024-06-07,1,,,,,ビーピーエス,0
1201,4470001020244,新規,0,2024-06-07,2024-06-07,株式会社星野設備,,株式会社,香川県,高松市,御厩町９５９番地１,00135057,37,201,7618042,,,,,,,2024-06-07,1,,,,,ホシノセツビ,0
1215,5010001245448,新規,0,2024-06-07,2024-06-07,株式会社シーフードスタグラム,,株式会社,東京都,中央区,日本橋本町４丁目６番１０号,,13,102,1030023,,,,,,,2024-06-07,1,,,,,シーフードスタグラム,0
1216,5010001245472,新規,0,2024-06-07,2024-06-07,株式会社雷アセット,,株式会社,東京都,千代田区,九段南１丁目５番６号りそな九段ビル５Ｆ、ＫＳフロア,,13,101,1020074,,,,,,,2024-06-07,1,,,,,カミナリアセット,0
1217,5010001245514,新規,0,2024-06-07,2024-06-07,日比谷コンサルティング株式会社,,株式会社,東京都,中央区,銀座７丁目１３番２０号銀座ＴＨビル９階,,13,102,1040061,,,,,,,2024-06-07,1,,,,,ヒビヤコンサルティング,0
1219,5010005038402,新規,0,2024-06-07,2024-06-07,一般社団法人レジデンシャルエー,,その他の設立登記法人,東京都,千代田区,丸の内３丁目１番１号東京共同会計事務所内,,13,101,1000005,,,,,,,2024-06-07,1,,,,,レジデンシャルエー,0
1224,5010401182927,新規,0,2024-06-07,2024-06-07,株式会社ＧＯＮ,,株式会社,東京都,港区,六本木５丁目２番１号ほうらいやビル８階,,13,103,1060032,,,,,,,2024-06-07,1,,,,,ゴン,0
1225,5010401182935,新規,0,2024-06-07,2024-06-07,株式会社瀬良経営研究所,,株式会社,東京都,港区,南青山２丁目２番１５号,,13,103,1070062,,,,,,,2024-06-07,1,,,,,セラケイエイケンキュウショ,0
1226,5010401182943,新規,0,2024-06-07,2024-06-07,株式会社アストラネクスト,,株式会社,東京都,港区,南青山３丁目１番３６号青山丸竹ビル６階,,13,103,1070062,,,,,,,2024-06-07,1,,,,,アストラネクスト,0
1227,5010401183009,新規,0,2024-06-07,2024-06-07,ＫＦマネジメント株式会社,,株式会社,東京都,港区,新橋１丁目１番１号,,13,103,1050004,,,,,,,2024-06-07,1,,,,,ケイエフマネジメント,0
1228,5010403032782,新規,0,2024-06-07,2024-06-07,町井興産合同会社,,合同会社,東京都,港区,浜松町２丁目２番１５号浜松町ダイヤビル２階,,13,103,1050013,,,,,,,2024-06-07,1,,,,,マチイコウサン,0
1236,5010603010877,新規,0,2024-06-07,2024-06-07,合同会社Ａｖｅｌｅｋ,,合同会社,東京都,江東区,東雲１丁目９番２１－９１０号東雲キャナルコート,,13,108,1350062,,,,,,,2024-06-07,1,,,,,アベレック,0
1237,5010603010885,新規,0,2024-06-07,2024-06-07,合同会社ＭＧコンサルティング,,合同会社,東京都,江東区,大島１丁目２２番１２号,,13,108,1360072,,,,,,,2024-06-07,1,,,,,エムジーコンサルティング,0
1239,5010701046105,新規,0,2024-06-07,2024-06-07,店舗ステーション株式会社,,株式会社,東京都,品川区,西五反田２丁目９－７ドルミ五反田アンメゾン１００５,,13,109,1410031,,,,,,,2024-06-07,1,,,,,テンポステーション,0
1243,5010803004984,新規,0,2024-06-07,2024-06-07,Ｈｏｏｔ　Ｈａｌｌ合同会社,,合同会社,東京都,大田区,南千束２丁目７番９号,,13,111,1450063,,,,,,,2024-06-07,1,,,,,フートホール,0
1251,5011001162468,新規,0,2024-06-07,2024-06-07,株式会社フェノメナ,,株式会社,東京都,目黒区,青葉台３丁目１５－１７ＦＡＲＯ中目黒１階,,13,110,1530042,,,,,,,2024-06-07,1,,,,,フェノメナ,0
1252,5011001162484,新規,0,2024-06-07,2024-06-07,株式会社ＣＥＯＲＹ,,株式会社,東京都,渋谷区,猿楽町２番１３号,,13,113,1500033,,,,,,,2024-06-07,1,,,,,セオリー,0
1253,5011001162492,新規,0,2024-06-07,2024-06-07,株式会社Ｅｒａ,,株式会社,東京都,渋谷区,渋谷２丁目１番１号,,13,113,1500002,,,,,,,2024-06-07,1,,,,,イラ,0
1254,5011001162501,新規,0,2024-06-07,2024-06-07,株式会社Ｈ２Ｈ,,株式会社,東京都,渋谷区,恵比寿西１丁目７番１０号金原ビルＢ１Ｆ,,13,113,1500021,,,,,,,2024-06-07,1,,,,,エイチツーエイチ,0
1255,5011001162518,新規,0,2024-06-07,2024-06-07,株式会社パデル侍,,株式会社,東京都,渋谷区,代々木５丁目１５番１０－９０２号,,13,113,1510053,,,,,,,2024-06-07,1,,,,,パデルサムライ,0
1260,5011101107595,新規,0,2024-06-07,2024-06-07,ＹＡＮＡＧＩ　Ｃｏｎｓｕｌｔｉｎｇ株式会社,,株式会社,東京都,新宿区,原町１丁目３８番地１０,,13,104,1620053,,,,,,,2024-06-07,1,,,,,ヤナギコンサルティング,0
1261,5011101107604,新規,0,2024-06-07,2024-06-07,株式会社スター,,株式会社,東京都,新宿区,西新宿５丁目５番１号５６１０号,,13,104,1600023,,,,,,,2024-06-07,1,,,,,スター,0
1272,5011801044337,新規,0,2024-06-07,2024-06-07,株式会社ａｉｒ,,株式会社,東京都,葛飾区,堀切２丁目１７番１４－３０５号堀切菖蒲園パークホームズ,,13,122,1240006,,,,,,,2024-06-07,1,,,,,エアー,0
1273,5011805003371,新規,0,2024-06-07,2024-06-07,医療法人社団ななほし会,,その他の設立登記法人,東京都,葛飾区,亀有５丁目３４番１２号ＦＭビル４階５階,,13,122,1250061,,,,,,,2024-06-07,1,,,,,ナナホシカイ,0
1278,5012303001999,新規,0,2024-06-07,2024-06-07,合同会社石原,,合同会社,東京都,町田市,金井４丁目２１－８,,13,209,1950072,,,,,,,2024-06-07,1,,,,,イシハラ,0
1298,5021001082442,新規,0,2024-06-07,2024-06-07,株式会社鵠資,,株式会社,神奈川県,藤沢市,本鵠沼１丁目５番２７号,00135062,14,205,2510028,,,,,,,2024-06-07,1,,,,,コウシ,0
1299,5021003014609,新規,0,2024-06-07,2024-06-07,合同会社ＣＳＨＫ,,合同会社,神奈川県,小田原市,清水新田１９１－３,,14,206,2500855,,,,,,,2024-06-07,1,,,,,シーエスエイチケー,0
1312,5030001160728,新規,0,2024-06-07,2024-06-07,株式会社ＢＴ,,株式会社,埼玉県,吉川市,大字深井新田２０２９番地,,11,243,3420011,,,,,,,2024-06-07,1,,,,,,0
1322,5030003024443,新規,0,2024-06-07,2024-06-07,翡翠ホーム合同会社,,合同会社,埼玉県,狭山市,大字青柳１４８９番地３ビラハラジュク１０５号,,11,215,3501301,,,,,,,2024-06-07,1,,,,,ヒスイホーム,0
1326,5040001133922,新規,0,2024-06-07,2024-06-07,伸栄建設株式会社,,株式会社,千葉県,四街道市,小名木８６－２２,,12,228,2840042,,,,,,,2024-06-07,1,,,,,シンエイケンセツ,0
1332,5040003025127,新規,0,2024-06-07,2024-06-07,合同会社ニコー建装,,合同会社,千葉県,柏市,旭町２丁目７－１６グラシアス１０１,,12,217,2770852,,,,,,,2024-06-07,1,,,,,ニコーケンソウ,0
1348,5070001041833,新規,0,2024-06-07,2024-06-07,株式会社雅,,株式会社,群馬県,桐生市,広沢町５丁目１７１３番地９,,10,203,3760013,,,,,,,2024-06-07,1,,,,,ミヤビ,0
1351,5070003005448,新規,0,2024-06-07,2024-06-07,合同会社睡蓮,,合同会社,群馬県,桐生市,錦町２丁目４－２７,,10,203,3760023,,,,,,,2024-06-07,1,,,,,スイレン,0
1357,5080401027241,新規,0,2024-06-07,2024-06-07,株式会社アイズエステート,,株式会社,静岡県,浜松市中央区,上浅田１丁目９番１６号,,22,138,4328042,,,,,,,2024-06-07,1,,,,,アイズエステート,0
1358,5080403005030,新規,0,2024-06-07,2024-06-07,合同会社ｒｏｓｅ　ｄｅ　ｒｏｓｅ,,合同会社,静岡県,湖西市,吉美３８７１番地,,22,221,4310441,,,,,,,2024-06-07,1,,,,,ローズデュローズ,0
1360,5090001018747,新規,0,2024-06-07,2024-06-07,株式会社ＩＢＣ建設研究所,,株式会社,山梨県,西八代郡市川三郷町,市川大門２７９０番地,,19,346,4093601,,,,,,,2024-06-07,1,,,,,アイビーシーケンセツケンキュウショ,0
1363,5100001037530,新規,0,2024-06-07,2024-06-07,東日本開発株式会社,,株式会社,長野県,佐久市,岩村田２６００番地２,,20,217,3850022,,,,,,,2024-06-07,1,,,,,ヒガシニホンカイハツ,0
1364,5100001037539,新規,0,2024-06-07,2024-06-07,株式会社ＣＳ総合サービス,,株式会社,長野県,長野市,三輪２丁目１０番１３号,,20,201,3800803,,,,,,,2024-06-07,1,,,,,シーエスソウゴウサービス,0
1365,5100003007597,新規,0,2024-06-07,2024-06-07,Ａｎｄｅｒｓｏｎ　ａｎｄ　Ｌｙ合同会社,,合同会社,長野県,北安曇郡白馬村,大字北城５８３９番地１,,20,485,3999301,,,,,,,2024-06-07,1,,,,,アンダーソンアンドライ,0
1373,5120001265427,新規,0,2024-06-07,2024-06-07,幸田株式会社,,株式会社,大阪府,大阪市西成区,天下茶屋２丁目１３－１０,,27,122,5570014,,,,,,,2024-06-07,1,,,,,コウダ,0
1374,5120001265641,新規,0,2024-06-07,2024-06-07,株式会社Ｃｈｅｕｄａ　Ｊａｐａｎ,,株式会社,大阪府,大阪市西区,靭本町一丁目７番１３号アレグリアレジデンス靭パーク５０１,,27,106,5500000,,,,,,,2024-06-07,1,,,,,チェウダジャパン,0
1375,5120001265682,新規,0,2024-06-07,2024-06-07,熊株式会社,,株式会社,大阪府,大阪市西成区,千本南１丁目５番１２号,,27,122,5570055,,,,,,,2024-06-07,1,,,,,クマ,0
1376,5120001265716,新規,0,2024-06-07,2024-06-07,株式会社ｅ‐ｓｔｙｌｅ,,株式会社,大阪府,大阪市中央区,南船場１丁目１０番２号ＳＡＮＷＡトレーディングビル２０２,,27,128,5420081,,,,,,,2024-06-07,1,,,,,イースタイル,0
1379,5120005024358,新規,0,2024-06-07,2024-06-07,土地家屋調査士法人ＮＡＫＡＩ,,その他の設立登記法人,大阪府,大阪市中央区,常盤町１丁目４番３号,,27,128,5400028,,,,,,,2024-06-07,1,,,,,ナカイ,0
1380,5120005024366,新規,0,2024-06-07,2024-06-07,一般社団法人池田創価学会,,その他の設立登記法人,大阪府,大阪市大正区,南恩加島６丁目９番２号,,27,108,5510021,,,,,,,2024-06-07,1,,,,,イケダソウカガッカイ,0
1381,5120103005879,新規,0,2024-06-07,2024-06-07,合同会社光みらい,,合同会社,大阪府,阪南市,尾崎町３丁目５番１５号,,27,232,5990201,,,,,,,2024-06-07,1,,,,,ヒカルミライ,0
1387,5130003009624,新規,0,2024-06-07,2024-06-07,ｅｇｇ合同会社,,合同会社,京都府,木津川市,州見台５丁目３－２,,26,214,6190216,,,,,,,2024-06-07,1,,,,,エッグ,0
1391,5140001134670,新規,0,2024-06-07,2024-06-07,ＯＡＳＩＳ株式会社,,株式会社,兵庫県,神戸市中央区,布引町２丁目１番１１号グレイスハイツ新神戸３０５号,,28,110,6510097,,,,,,,2024-06-07,1,,,,,オアシス,0
1392,5140001134687,新規,0,2024-06-07,2024-06-07,株式会社ティーエフアール,,株式会社,兵庫県,西宮市,下大市東町３４番４号スカイハイツ１階,,28,204,6638004,,,,,,,2024-06-07,1,,,,,ティーエフアール,0
1393,5140001134753,新規,0,2024-06-07,2024-06-07,株式会社スレッドエステート,,株式会社,兵庫県,神戸市中央区,琴ノ緒町５丁目７番１０号,,28,110,6510094,,,,,,,2024-06-07,1,,,,,スレッドエステート,0
1394,5140001134761,新規,0,2024-06-07,2024-06-07,株式会社Ｍｅｄｉ　Ｔｒａ,,株式会社,兵庫県,神戸市兵庫区,荒田町４丁目１４番２号山本マンション,,28,105,6520032,,,,,,,2024-06-07,1,,,,,メディトラ,0
1398,5150001027337,新規,0,2024-06-07,2024-06-07,株式会社リブロワークス,,株式会社,奈良県,生駒市,軽井沢町４番３２号,,29,209,6300265,,,,,,,2024-06-07,1,,,,,リブロワークス,0
1403,5170003002055,新規,0,2024-06-07,2024-06-07,合同会社ＤＣＳＹ,,合同会社,和歌山県,和歌山市,六十谷１２９４番地１４１,,30,201,6408482,,,,,,,2024-06-07,1,,,,,ディクシー,0
1407,5180001161802,新規,0,2024-06-07,2024-06-07,株式会社イオ,,株式会社,愛知県,一宮市,大和町毛受字北河原４４番地８,,23,203,4910932,,,,,,,2024-06-07,1,,,,,イオ,0
1408,5180001161810,新規,0,2024-06-07,2024-06-07,株式会社ＫＴＳ,,株式会社,愛知県,名古屋市中区,栄２丁目２番１号広小路伏見中駒ビル２Ｆー９,,23,106,4600008,,,,,,,2024-06-07,1,,,,,ケイティエス,0
1409,5180001161819,新規,0,2024-06-07,2024-06-07,株式会社Ｍ．ＤＥＳＩＧＮ,,株式会社,愛知県,犬山市,大字塔野地字山王５５番地９,,23,215,4840094,,,,,,,2024-06-07,1,,,,,エムデザイン,0
1410,5180001161835,新規,0,2024-06-07,2024-06-07,株式会社エクシア,,株式会社,愛知県,名古屋市中区,錦３丁目１４番４号,,23,106,4600003,,,,,,,2024-06-07,1,,,,,エクシア,0
1411,5180001161843,新規,0,2024-06-07,2024-06-07,株式会社ＩＹＯＦＩＫ,,株式会社,愛知県,知多市,長浦１丁目２３７番地,,23,224,4780042,,,,,,,2024-06-07,1,,,,,イヨフィック,0
1414,5180003026895,新規,0,2024-06-07,2024-06-07,合同会社ヤマサキ製作所,,合同会社,愛知県,知多郡武豊町,字中山２丁目１２番地５,,23,447,4702388,,,,,,,2024-06-07,1,,,,,ヤマサキセイサクショ,0
1416,5180301038709,新規,0,2024-06-07,2024-06-07,株式会社ＷＩＮ　ＭＡＸ,,株式会社,愛知県,安城市,相生町８番７号大和レジデンス相生９０２,,23,212,4460037,,,,,,,2024-06-07,1,,,,,ウィンマックス,0
1422,5230003002222,新規,0,2024-06-07,2024-06-07,合同会社ピカイチ,,合同会社,富山県,富山市,蓮町３丁目１番４９号,00135063,16,201,9318333,,,,,,,2024-06-07,1,,,,,ピカイチ,0
1425,5240001063356,新規,0,2024-06-07,2024-06-07,グリーンブリッジ貿易株式会社,,株式会社,広島県,広島市東区,牛田東３丁目７番８号,,34,102,7320063,,,,,,,2024-06-07,1,,,,,グリーンブリッジボウエキ,0
1428,5260001039156,新規,0,2024-06-07,2024-06-07,株式会社Ｔｂアクセプタンス,,株式会社,岡山県,赤磐市,山陽３丁目４番１５号,,33,213,7090827,,,,,,,2024-06-07,1,,,,,ティービーアクセプタンス,0
1430,5260003004728,新規,0,2024-06-07,2024-06-07,合同会社二十五鈴,,合同会社,岡山県,倉敷市,児島田の口２丁目１番８号リヴィエール３０２,,33,202,7110903,,,,,,,2024-06-07,1,,,,,ニジュウゴリン,0
1431,5260003004736,新規,0,2024-06-07,2024-06-07,合同会社二十九鈴,,合同会社,岡山県,高梁市,川上町七地１８６２番地,,33,209,7160202,,,,,,,2024-06-07,1,,,,,ニジュウキュウリン,0
1432,5260003004760,新規,0,2024-06-07,2024-06-07,合同会社六十一鈴,,合同会社,岡山県,玉野市,西田井地２１６３,,33,204,7060313,,,,,,,2024-06-07,1,,,,,ロクジュウイチリン,0
1436,5290001106052,新規,0,2024-06-07,2024-06-07,株式会社シーサイドマリン,,株式会社,福岡県,糸島市,志摩芥屋９４５番地１,,40,230,8191335,,,,,,,2024-06-07,1,,,,,シーサイドマリン,0
1437,5290001106060,新規,0,2024-06-07,2024-06-07,株式会社廣光,,株式会社,福岡県,大野城市,御笠川６丁目５番１２号,,40,219,8160912,,,,,,,2024-06-07,1,,,,,ヒロミツ,0
1440,5320001020514,新規,0,2024-06-07,2024-06-07,株式会社Ｂａｍｂｏｏ,,株式会社,大分県,玖珠郡玖珠町,大字塚脇２８９番地の６,,44,462,8794413,,,,,,,2024-06-07,1,,,,,バンブー,0
1441,5330001032145,新規,0,2024-06-07,2024-06-07,株式会社エムネット,,株式会社,熊本県,熊本市南区,薄場２丁目１３番８号,,43,104,8614131,,,,,,,2024-06-07,1,,,,,エムネット,0
1443,5340001026559,新規,0,2024-06-07,2024-06-07,株式会社Ｍ’ｓ,,株式会社,鹿児島県,鹿児島市,西谷山３丁目１５番１６号,,46,201,8910117,,,,,,,2024-06-07,1,,,,,エムズ,0
1446,5340005009741,新規,0,2024-06-07,2024-06-07,一般社団法人奄美セラピスト協会,,その他の設立登記法人,鹿児島県,奄美市,名瀬小浜町２－２１－１０２号,,46,222,8940006,,,,,,,2024-06-07,1,,,,,アマミセラピストキョウカイ,0
1448,5350001019000,新規,0,2024-06-07,2024-06-07,株式会社ＤＯＲＡＲＯＫＵ,,株式会社,宮崎県,宮崎市,源藤町原田３９４番地１７,,45,201,8800927,,,,,,,2024-06-07,1,,,,,ドラロク,0
1449,5360001033776,新規,0,2024-06-07,2024-06-07,株式会社沖縄コネクト,,株式会社,沖縄県,浦添市,当山２丁目１４－２０Ｃ－２,,47,208,9012104,,,,,,,2024-06-07,1,,,,,オキナワコネクト,0
1450,5360001033784,新規,0,2024-06-07,2024-06-07,株式会社ゴースタイル,,株式会社,沖縄県,那覇市,久茂地２丁目１４番１３号,,47,201,9000015,,,,,,,2024-06-07,1,,,,,ゴースタイル,0
1451,5360003014048,新規,0,2024-06-07,2024-06-07,合同会社松盛農園,,合同会社,沖縄県,宮古島市,城辺字長間２３９１番地１１,,47,214,9060105,,,,,,,2024-06-07,1,,,,,マツモリノウエン,0
1455,5370001051356,新規,0,2024-06-07,2024-06-07,株式会社コネクション,,株式会社,宮城県,仙台市太白区,長町８丁目２１番８－４０６号ディオコート長町,,04,104,9820011,,,,,,,2024-06-07,1,,,,,コネクション,0
1458,5380001034590,新規,0,2024-06-07,2024-06-07,株式会社シン鹿島,,株式会社,福島県,白河市,北中川原５５番地,,07,205,9610054,,,,,,,2024-06-07,1,,,,,シンカシマ,0
1461,5390001017636,新規,0,2024-06-07,2024-06-07,株式会社マツスポーツ・エンタープライズ,,株式会社,山形県,山形市,大字十文字１５９１番地,,06,201,9902211,,,,,,,2024-06-07,1,,,,,マツスポーツエンタープライズ,0
1465,5400005008423,新規,0,2024-06-07,2024-06-07,特定非営利活動法人カノア,,その他の設立登記法人,岩手県,宮古市,山口２丁目２４－１,,03,202,0270063,,,,,,,2024-06-07,1,,,,,カノア,0
1472,5430001091949,新規,0,2024-06-07,2024-06-07,ビークオリティ株式会社,,株式会社,北海道,札幌市中央区,南三条西１２丁目３２５番地９ＳＡＫＵＲＡ－Ｗ１２Ｇ室,,01,101,0600063,,,,,,,2024-06-07,1,,,,,ビークオリティ,0
1473,5430001091965,新規,0,2024-06-07,2024-06-07,株式会社Ｏ２,,株式会社,北海道,札幌市中央区,南二条西２丁目８番地２カドレビル２Ｆ,,01,101,0600062,,,,,,,2024-06-07,1,,,,,オーツー,0
1474,5430001091981,新規,0,2024-06-07,2024-06-07,ＷｉＺ　ｔｒｕｓｔ株式会社,,株式会社,北海道,札幌市中央区,北三条西２０丁目２番１６号北３条ＭＭビル３０５号室,,01,101,0640823,,,,,,,2024-06-07,1,,,,,ウィズトラスト,0
1478,5430003016425,新規,0,2024-06-07,2024-06-07,合同会社ＹＳモバイル,,合同会社,北海道,札幌市東区,北十五条東１８丁目４－２ラシュＬＮＩＳ１０３号,,01,103,0650015,,,,,,,2024-06-07,1,,,,,ワイエスモバイル,0
1482,5490001010787,新規,0,2024-06-07,2024-06-07,株式会社ＭＮＹオフィス,,株式会社,高知県,高知市,本町３丁目４番１０－１４０３号,,39,201,7800870,,,,,,,2024-06-07,1,,,,,エムエヌワイオフィス,0
1484,5700150125793,新規,0,2024-06-07,2024-06-06,酒田駅前光の湊Ａ棟管理組合,,その他,山形県,酒田市,幸町１丁目１０番２０号,,06,204,9980023,,,,,,,2024-06-06,1,,,,,サカタエキマエヒカリノミナトエートウカンリクミアイ,0
1485,5700150125819,新規,0,2024-06-07,2024-06-07,サガミ・エスジー・ツー・ピーティーイー・リミテッド,,外国会社等,東京都,港区,六本木１丁目６番１号泉ガーデンタワー,,13,103,1060032,シンガポール共和国０４９３２１、オーユーイー・ベイフロント、コリヤーキー５０、＃０４－０３,,,,,,2024-06-07,1,,,,,サガミエスジーツーピーテイーイーリミテツド,0
1495,6010001245315,新規,0,2024-06-07,2024-06-07,株式会社悦村,,株式会社,東京都,文京区,本駒込６丁目１５番地１１号,,13,105,1130021,,,,,,,2024-06-07,1,,,,,エツソン,0
1496,6010001245455,新規,0,2024-06-07,2024-06-07,デューンズ・コーポレーション株式会社,,株式会社,東京都,中央区,築地４丁目６番３－６０１号,,13,102,1040045,,,,,,,2024-06-07,1,,,,,デューンズコーポレーション,0
1497,6010001245463,新規,0,2024-06-07,2024-06-07,株式会社ダブテイル,,株式会社,東京都,千代田区,神田錦町２丁目２番地１,,13,101,1010054,,,,,,,2024-06-07,1,,,,,ダブテイル,0
1498,6010001245513,新規,0,2024-06-07,2024-06-07,株式会社ソリット,,株式会社,東京都,文京区,後楽２丁目３番１１号－２０３,,13,105,1120004,,,,,,,2024-06-07,1,,,,,ソリット,0
1502,6010003043989,新規,0,2024-06-07,2024-06-07,合同会社るとり,,合同会社,東京都,新島村,本村３丁目２－４,,13,363,1000402,,,,,,,2024-06-07,1,,,,,ルトリ,0
1510,6010401182926,新規,0,2024-06-07,2024-06-07,株式会社Ｓ．Ｌｏｖｅ,,株式会社,東京都,港区,南麻布２丁目８番２１号南麻布ＭＩＣビル５０３,,13,103,1060047,,,,,,,2024-06-07,1,,,,,エスラブ,0
1511,6010401182967,新規,0,2024-06-07,2024-06-07,株式会社みんな,,株式会社,東京都,港区,赤坂９丁目５番１４号,,13,103,1070052,,,,,,,2024-06-07,1,,,,,ミンナ,0
1513,6010403032765,新規,0,2024-06-07,2024-06-07,合同会社ＡＺＡＢＵ総合ソリューションズ,,合同会社,東京都,港区,麻布十番１丁目５－１０,,13,103,1060045,,,,,,,2024-06-07,1,,,,,アザブソウゴウソリューションズ,0
1515,6010405023291,新規,0,2024-06-07,2024-06-07,一般社団法人ＲＡＳＯＲＡ発酵美容協会,,その他の設立登記法人,東京都,港区,北青山１丁目３番１号アールキューブ青山３階,,13,103,1070061,,,,,,,2024-06-07,1,,,,,ラソラハッコウビヨウキョウカイ,0
1517,6010501052392,新規,0,2024-06-07,2024-06-07,株式会社河合ネクタイ,,株式会社,東京都,台東区,浅草橋２丁目１３番１号,,13,106,1110053,,,,,,,2024-06-07,1,,,,,カワイネクタイ,0
1518,6010803004983,新規,0,2024-06-07,2024-06-07,合同会社芳達,,合同会社,東京都,大田区,西六郷２丁目２０番５号,,13,111,1440056,,,,,,,2024-06-07,1,,,,,ヨシタツ,0
1519,6010901055383,新規,0,2024-06-07,2024-06-07,株式会社Ｌａ’ａｓｏｔ　Ｈａｉｍ,,株式会社,東京都,世田谷区,用賀４丁目１３番１２号用賀４丁目ビル２階,,13,112,1580097,,,,,,,2024-06-07,1,,,,,ラアソットハイーム,0
1520,6010901055409,新規,0,2024-06-07,2024-06-07,Ｋメンテナンス株式会社,,株式会社,東京都,世田谷区,祖師谷５丁目２０番３号,,13,112,1570072,,,,,,,2024-06-07,1,,,,,ケイメンテナンス,0
1527,6011001162467,新規,0,2024-06-07,2024-06-07,株式会社ＢＥＲＲＹ,,株式会社,東京都,渋谷区,桜丘町４－１４Ｖｏｒｔ渋谷桜丘５Ｆ,,13,113,1500031,,,,,,,2024-06-07,1,,,,,ベリー,0
1528,6011001162517,新規,0,2024-06-07,2024-06-07,株式会社ＭＯＭＯＺ,,株式会社,東京都,渋谷区,円山町１５番３号,,13,113,1500044,,,,,,,2024-06-07,1,,,,,モモズ,0
1530,6011003019327,新規,0,2024-06-07,2024-06-07,ＩＳ‐マーケティング合同会社,,合同会社,東京都,渋谷区,道玄坂１丁目１０番８号渋谷道玄坂東急ビル２Ｆ－Ｃ,,13,113,1500043,,,,,,,2024-06-07,1,,,,,アイエスマーケティング,0
1531,6011003019343,新規,0,2024-06-07,2024-06-07,Ｔｒｅａｓｕｒｅ　Ｌａｂ合同会社,,合同会社,東京都,渋谷区,円山町５番５号Ｎａｖｉ渋谷Ｖ３階,,13,113,1500044,,,,,,,2024-06-07,1,,,,,,0
1537,6011103014491,新規,0,2024-06-07,2024-06-07,合同会社ＨＹ　Ｗｅｌｌｂｅｉｎｇ,,合同会社,東京都,新宿区,東五軒町６番３１－１００１号,,13,104,1620813,,,,,,,2024-06-07,1,,,,,エイチワイウェルビーイング,0
1539,6011501030776,新規,0,2024-06-07,2024-06-07,株式会社クリアホーム,,株式会社,東京都,荒川区,東日暮里３丁目５番１２号忠岡ビル１号室,,13,118,1160014,,,,,,,2024-06-07,1,,,,,クリアホーム,0
1545,6011803006268,新規,0,2024-06-07,2024-06-07,盛通物流合同会社,,合同会社,東京都,葛飾区,鎌倉２丁目１５－１８,,13,122,1250053,,,,,,,2024-06-07,1,,,,,モリミチブツリュウ,0
1554,6020001157567,新規,0,2024-06-07,2024-06-07,株式会社メガランド,,株式会社,神奈川県,川崎市中原区,新丸子東３丁目９４６番地３ＭＫファーストビル３Ｂ,,14,133,2110004,,,,,,,2024-06-07,1,,,,,メガランド,0
1555,6020001157625,新規,0,2024-06-07,2024-06-07,株式会社エム内装,,株式会社,神奈川県,横浜市保土ケ谷区,仏向町１３２１番地７,,14,106,2400044,,,,,,,2024-06-07,1,,,,,エムナイソウ,0
1556,6020003026299,新規,0,2024-06-07,2024-06-07,合同会社アミュゼ,,合同会社,神奈川県,横浜市都筑区,東方町１２４５番１９,,14,118,2240045,,,,,,,2024-06-07,1,,,,,アミュゼ,0
1558,6021001082383,新規,0,2024-06-07,2024-06-07,Ｓｕｎ‐Ｌｉｇｈｔ‐Ｇｒｏｕｐ株式会社,,株式会社,神奈川県,茅ヶ崎市,南湖４丁目１８番４１号サーフサイド茅ヶ崎２－１０１,,14,207,2530061,,,,,,,2024-06-07,1,,,,,サンライトグループ,0
1559,6021001082417,新規,0,2024-06-07,2024-06-07,株式会社アンティアチョムアニマ,,株式会社,神奈川県,相模原市南区,相南１丁目１５―３,,14,153,2520312,,,,,,,2024-06-07,1,,,,,アンティアチョムアニマ,0
1560,6021001082433,新規,0,2024-06-07,2024-06-07,株式会社ＨＡＲＵエネジー,,株式会社,神奈川県,横須賀市,上町２丁目１７番地メゾン藤屋５０２,,14,201,2380017,,,,,,,2024-06-07,1,,,,,ハルエネジー,0
1573,6030001160735,新規,0,2024-06-07,2024-06-07,株式会社ＳＫ・トランス,,株式会社,埼玉県,三郷市,戸ケ崎３丁目２０７番地１８,,11,237,3410044,,,,,,,2024-06-07,1,,,,,エスケートランス,0
1574,6030001160743,新規,0,2024-06-07,2024-06-07,株式会社Ｌｅ　ＨＯＭＥ,,株式会社,埼玉県,入間市,豊岡１丁目２－７アーバンコート３０１号室,,11,225,3580003,,,,,,,2024-06-07,1,,,,,エルイーホーム,0
1582,6040001133921,新規,0,2024-06-07,2024-06-07,株式会社大竹工業,,株式会社,千葉県,八千代市,緑が丘西７丁目２０番地２４,,12,221,2760040,,,,,,,2024-06-07,1,,,,,オオタケコウギョウ,0
1584,6040003025150,新規,0,2024-06-07,2024-06-07,合同会社ＩＫＴ,,合同会社,千葉県,茂原市,早野２９０３番地８,,12,210,2970037,,,,,,,2024-06-07,1,,,,,アイケーティー,0
1587,6040005022419,新規,0,2024-06-07,2024-06-07,税理士法人Ｍ＆Ｙ,,その他の設立登記法人,千葉県,船橋市,薬園台町１丁目２３番地５,,12,204,2740076,,,,,,,2024-06-07,1,,,,,エムアンドワイ,0
1599,6070001041808,新規,0,2024-06-07,2024-06-07,株式会社Ｃｏｒａｚｏｎ,,株式会社,群馬県,桐生市,相生町５丁目１４４番地の６２,,10,203,3760011,,,,,,,2024-06-07,1,,,,,コラソン,0
1600,6070001041824,新規,0,2024-06-07,2024-06-07,株式会社ウエダ工務店,,株式会社,群馬県,北群馬郡榛東村,大字新井１０５４番地２,,10,344,3703503,,,,,,,2024-06-07,1,,,,,ウエダコウムテン,0
1601,6070003005414,新規,0,2024-06-07,2024-06-07,八重結び合同会社,,合同会社,群馬県,高崎市,新町７３８番地２,,10,202,3701301,,,,,,,2024-06-07,1,,,,,,0
1602,6070003005439,新規,0,2024-06-07,2024-06-07,合同会社ココイル,,合同会社,群馬県,渋川市,石原１２２２番地１ぱすてるモーニングＡ２０１,,10,208,3770007,,,,,,,2024-06-07,1,,,,,ココイル,0
1603,6070003005455,新規,0,2024-06-07,2024-06-07,ＳＵＮＲＩＳＥ　ＴＲＡＤＩＮＧ　ＣＯＭＰＡＮＹ合同会社,,合同会社,群馬県,太田市,西本町５５－１２コーポマインド１０２,,10,205,3730033,,,,,,,2024-06-07,1,,,,,サンライズトレーディングカンパニー,0
1605,6080005007614,新規,0,2024-06-07,2024-06-07,最高のＩＴ税理士法人,,その他の設立登記法人,静岡県,静岡市葵区,日出町２番地の１田中産商第一生命共同ビルディング５階,,22,101,4200837,,,,,,,2024-06-07,1,,,,,サイコウノアイティ,0
1607,6080101024793,新規,0,2024-06-07,2024-06-07,株式会社Ｆｌｙｉｎｇ　Ｄｕｃｋ,,株式会社,静岡県,三島市,中田町６番２７号,,22,206,4110838,,,,,,,2024-06-07,1,,,,,フライングダック,0
1608,6080401027240,新規,0,2024-06-07,2024-06-07,株式会社Ｇｒａｈａｍ　ＭａｃＦａｒｌａｎｅ　Ｆｉｌｍｓ,,株式会社,静岡県,掛川市,大池１５６８番地の１２,,22,213,4360043,,,,,,,2024-06-07,1,,,,,グラハムマクファーレンフィルムス,0
1610,6100003007596,新規,0,2024-06-07,2024-06-07,合同会社Ｎｉｓｈｉｙａｍａ．ｔｅｃ,,合同会社,長野県,伊那市,東春近３９４５番地５,,20,209,3994432,,,,,,,2024-06-07,1,,,,,ニシヤマテック,0
1613,6110001038485,新規,0,2024-06-07,2024-06-07,新成建設株式会社,,株式会社,新潟県,長岡市,鉄工町２丁目２―１０,,15,202,9402022,,,,,,,2024-06-07,1,,,,,シンセイケンセツ,0
1629,6120001265491,新規,0,2024-06-07,2024-06-07,超匠株式会社,,株式会社,大阪府,大阪市住之江区,安立１丁目２－１３田中ビル３０１－Ｂ,,27,125,5590003,,,,,,,2024-06-07,1,,,,,チョウショウ,0
1630,6120001265608,新規,0,2024-06-07,2024-06-07,シンクロス株式会社,,株式会社,大阪府,大阪市西区,江戸堀２丁目１番１号江戸堀センタービル９階,,27,106,5500002,,,,,,,2024-06-07,1,,,,,シンクロス,0
1631,6120001265649,新規,0,2024-06-07,2024-06-07,ＰＯＳＥＩＤＯＮ　ＴＲＡＮＳ株式会社,,株式会社,大阪府,大阪市北区,本庄東１丁目１６番１号,,27,127,5310074,,,,,,,2024-06-07,1,,,,,ポセイドントランス,0
1636,6120003026792,新規,0,2024-06-07,2024-06-07,ＮＫＣ合同会社,,合同会社,大阪府,大阪市大正区,泉尾７丁目２－２０,,27,108,5510031,,,,,,,2024-06-07,1,,,,,エヌケーシー,0
1639,6120005024357,新規,0,2024-06-07,2024-06-07,社会保険労務士法人大阪経営管理センター,,その他の設立登記法人,大阪府,大阪市北区,堂島２丁目３番２号,,27,127,5300003,,,,,,,2024-06-07,1,,,,,オオサカケイエイカンリセンター,0
1644,6120901049291,新規,0,2024-06-07,2024-06-07,株式会社アルファプラス,,株式会社,大阪府,箕面市,新稲１丁目１６番２９号,,27,220,5620005,,,,,,,2024-06-07,1,,,,,アルファプラス,0
1656,6140001134686,新規,0,2024-06-07,2024-06-07,株式会社Ａｗａｊｉ　Ｓｋｙ,,株式会社,兵庫県,南あわじ市,賀集福井１６０番地１,,28,224,6560516,,,,,,,2024-06-07,1,,,,,アワジスカイ,0
1657,6140001134744,新規,0,2024-06-07,2024-06-07,株式会社ジョウセイ,,株式会社,兵庫県,神戸市灘区,山田町２丁目１番１２号シャトー六甲４０２,,28,102,6570064,,,,,,,2024-06-07,1,,,,,ジョウセイ,0
1663,6150001027336,新規,0,2024-06-07,2024-06-07,株式会社ＫｅｎＭｅｇ＆Ｔ,,株式会社,奈良県,奈良市,山町７７６番地の４,,29,201,6308434,,,,,,,2024-06-07,1,,,,,ケンメッグアンドティー,0
1671,6180001161818,新規,0,2024-06-07,2024-06-07,株式会社ＴＲＹ　ＥＭＯＴＩＯＮ,,株式会社,愛知県,尾張旭市,新居町寺田３０１１番地１レジデンス新居３０５号,,23,226,4880078,,,,,,,2024-06-07,1,,,,,トライエモーション,0
1672,6180001161826,新規,0,2024-06-07,2024-06-07,株式会社Ｌｏｕｘｌａ,,株式会社,愛知県,春日井市,四ツ家町字二ツ杁１４番地,,23,206,4860909,,,,,,,2024-06-07,1,,,,,ルーラ,0
1673,6180001161834,新規,0,2024-06-07,2024-06-07,株式会社ＡＬＬ,,株式会社,愛知県,あま市,金岩六ノ坪２番地２,,23,237,4901221,,,,,,,2024-06-07,1,,,,,オール,0
1674,6180001161850,新規,0,2024-06-07,2024-06-07,Ｃ３コンサルティング株式会社,,株式会社,愛知県,名古屋市瑞穂区,密柑山町１丁目１８番１号,,23,108,4670041,,,,,,,2024-06-07,1,,,,,シースリーコンサルティング,0
1675,6180001161867,新規,0,2024-06-07,2024-06-07,株式会社Ｌｅｇａｃｅ,,株式会社,愛知県,稲沢市,東緑町２丁目２番地,,23,220,4928251,,,,,,,2024-06-07,1,,,,,レガーチェ,0
1678,6180003026894,新規,0,2024-06-07,2024-06-07,ＬＡＦＡ合同会社,,合同会社,愛知県,弥富市,稲荷２丁目４３番地１,,23,235,4980052,,,,,,,2024-06-07,1,,,,,ラファ,0
1679,6180003026903,新規,0,2024-06-07,2024-06-07,合同会社Ｋ‐ＲＥＸ,,合同会社,愛知県,名古屋市緑区,鳴子町１丁目５２番地アーバンラフレ鳴子３棟１０３号,,23,114,4580041,,,,,,,2024-06-07,1,,,,,ケイレックス,0
1680,6180003026911,新規,0,2024-06-07,2024-06-07,合同会社利商,,合同会社,愛知県,北名古屋市,鹿田西赤土４８番地１四季慶１０３号室,,23,234,4810004,,,,,,,2024-06-07,1,,,,,リショウ,0
1685,6190001031400,新規,0,2024-06-07,2024-06-07,株式会社ＰＩＮＩＫＡ,,株式会社,三重県,桑名市,矢田磧４９番地,,24,205,5110051,,,,,,,2024-06-07,1,,,,,ピニカ,0
1691,6230003002221,新規,0,2024-06-07,2024-06-07,ＰＵＲＮＡ合同会社,,合同会社,富山県,富山市,常盤台３６番１２号,,16,201,9300983,,,,,,,2024-06-07,1,,,,,プルナ,0
1694,6240001063330,新規,0,2024-06-07,2024-06-07,株式会社山福海運,,株式会社,広島県,呉市,音戸町有清１丁目２５番４３号,,34,202,7371212,,,,,,,2024-06-07,1,,,,,ヤマフクカイウン,0
1695,6240001063347,新規,0,2024-06-07,2024-06-07,株式会社レバワン,,株式会社,広島県,広島市南区,翠５丁目５番１‐５０１号,,34,103,7340005,,,,,,,2024-06-07,1,,,,,レバワン,0
1696,6240001063355,新規,0,2024-06-07,2024-06-07,ＡＫＩ工業株式会社,,株式会社,広島県,広島市安佐南区,八木２丁目６番３７－２０２号,,34,105,7310101,,,,,,,2024-06-07,1,,,,,アキコウギョウ,0
1709,6260003004727,新規,0,2024-06-07,2024-06-07,合同会社二十四鈴,,合同会社,岡山県,倉敷市,児島田の口２丁目１番８号リヴィエール３０２,,33,202,7110903,,,,,,,2024-06-07,1,,,,,ニジュウヨンリン,0
1710,6260003004768,新規,0,2024-06-07,2024-06-07,合同会社六十五鈴,,合同会社,岡山県,岡山市中区,米田２４番地８,,33,102,7038224,,,,,,,2024-06-07,1,,,,,ロクジュウゴリン,0
1713,6280003001854,新規,0,2024-06-07,2024-06-07,合同会社カニの武丸,,合同会社,島根県,松江市,八雲町西岩坂３６番地,,32,201,6902103,,,,,,,2024-06-07,1,,,,,カニノタケマル,0
1717,6290003015399,新規,0,2024-06-07,2024-06-07,ぴぃーすＥＣＯ合同会社,,合同会社,福岡県,八女郡広川町,大字藤田１００７番地,,40,544,8340123,,,,,,,2024-06-07,1,,,,,ピィースエコ,0
1727,6330001032144,新規,0,2024-06-07,2024-06-07,株式会社ダイセイ,,株式会社,熊本県,熊本市南区,近見６丁目２２番８６号,,43,104,8614101,,,,,,,2024-06-07,1,,,,,ダイセイ,0
1731,6330003010412,新規,0,2024-06-07,2024-06-07,合同会社未来創造エステート,,合同会社,熊本県,熊本市北区,植木町平井５０６番地１,,43,105,8610121,,,,,,,2024-06-07,1,,,,,ミライソウゾウエステート,0
1736,6360001033775,新規,0,2024-06-07,2024-06-07,Ｏｎ‐Ｎａｖｉ株式会社,,株式会社,沖縄県,国頭郡恩納村,字恩納４１９番地３恩納村コミュニティセンターＵＮＮＡわーく,,47,311,9040411,,,,,,,2024-06-07,1,,,,,オンナビ,0
1754,6400003003284,新規,0,2024-06-07,2024-06-07,合同会社ヨシダ電気,,合同会社,岩手県,九戸郡洋野町,中野第３地割１５番地１,,03,507,0287906,,,,,,,2024-06-07,1,,,,,ヨシダデンキ,0
1757,6420003002929,新規,0,2024-06-07,2024-06-07,合同会社プリジョン,,合同会社,青森県,八戸市,大字新井田字西平１２‐２４,,02,203,0310813,,,,,,,2024-06-07,1,,,,,プリジョン,0
1765,6430001091931,新規,0,2024-06-07,2024-06-07,株式会社エムズアセット,,株式会社,北海道,札幌市東区,北二十五条東１５丁目４番２１号,,01,103,0650025,,,,,,,2024-06-07,1,,,,,エムズアセット,0
1766,6430001091972,新規,0,2024-06-07,2024-06-07,ＤＹＫＫ株式会社,,株式会社,北海道,札幌市厚別区,厚別西五条２丁目１１番３０号,,01,108,0040065,,,,,,,2024-06-07,1,,,,,ディーワイケーケー,0
1768,6430003016416,新規,0,2024-06-07,2024-06-07,ヤマテ合同会社,,合同会社,北海道,札幌市白石区,本郷通７丁目北４番８－４０５号,,01,104,0030025,,,,,,,2024-06-07,1,,,,,ヤマテ,0
1771,6430005014995,新規,0,2024-06-07,2024-06-07,一般社団法人ＨＣＷＣ．ｃｏｍ,,その他の設立登記法人,北海道,江別市,野幌町３６番地の１０,,01,217,0690813,,,,,,,2024-06-07,1,,,,,エイチシーダブリューシードットコム,0
1772,6450001014337,新規,0,2024-06-07,2024-06-07,三冓ファーム株式会社,,株式会社,北海道,上川郡東川町,西４号北２１番地,,01,458,0711404,,,,,,,2024-06-07,1,,,,,サンコウファーム,0
1777,6460303000827,新規,0,2024-06-07,2024-06-07,合同会社ＲＮ,,合同会社,北海道,斜里郡小清水町,元町１丁目２９番１６号,,01,547,0993641,,,,,,,2024-06-07,1,,,,,アールエヌ,0
1792,7010001245462,新規,0,2024-06-07,2024-06-07,株式会社みらいメディアサービス,,株式会社,東京都,中央区,日本橋小伝馬町１４番７号,,13,102,1030001,,,,,,,2024-06-07,1,,,,,ミライメディアサービス,0
1793,7010001245512,新規,0,2024-06-07,2024-06-07,株式会社ＰＲＯＩＳＭ,,株式会社,東京都,中央区,銀座３丁目１１番３号,,13,102,1040061,,,,,,,2024-06-07,1,,,,,プロイズム,0
1798,7010003043889,新規,0,2024-06-07,2024-06-07,ＭＡＹＡ　Ｔｅｃｈｎｏｌｏｇｙ合同会社,,合同会社,東京都,中央区,銀座１丁目１２－４Ｎ＆Ｅ・ＢＬＤ．７階,,13,102,1040061,,,,,,,2024-06-07,1,,,,,マヤテクノロジー,0
1799,7010003043947,新規,0,2024-06-07,2024-06-07,スリーエス合同会社,,合同会社,東京都,中央区,日本橋中洲６番６－９０１号,,13,102,1030008,,,,,,,2024-06-07,1,,,,,スリーエス,0
1800,7010003043955,新規,0,2024-06-07,2024-06-07,合同会社ｗｏｒｌｄ,,合同会社,東京都,千代田区,外神田３丁目１４番５号５階,,13,101,1010021,,,,,,,2024-06-07,1,,,,,ワールド,0
1802,7010101016185,新規,0,2024-06-07,2024-06-07,株式会社ヘイメルガーデン,,株式会社,東京都,八王子市,四谷町５３８番地１,,13,201,1930813,,,,,,,2024-06-07,1,,,,,ヘイメルガーデン,0
1812,7010401182933,新規,0,2024-06-07,2024-06-07,Ｋ　ｃａｐｉｔａｌ株式会社,,株式会社,東京都,港区,六本木３丁目７番１－１３１２号,,13,103,1060032,,,,,,,2024-06-07,1,,,,,ケイキャピタル,0
1813,7010401182958,新規,0,2024-06-07,2024-06-07,Ｅａｒｔｈ株式会社,,株式会社,東京都,港区,浜松町１丁目２９番１０号東京ラインビル３階,,13,103,1050013,,,,,,,2024-06-07,1,,,,,アース,0
1814,7010401183007,新規,0,2024-06-07,2024-06-07,株式会社ＮＴＬ３７,,株式会社,東京都,港区,港南１丁目２番７０号,,13,103,1080075,,,,,,,2024-06-07,1,,,,,エヌティエルサンジュウナナ,0
1823,7010601065327,新規,0,2024-06-07,2024-06-07,株式会社仁商会,,株式会社,東京都,江東区,木場５丁目１番５号メイプルハイム木場Ｂ１２８室,,13,108,1350042,,,,,,,2024-06-07,1,,,,,ジンショウカイ,0
1825,7010701046103,新規,0,2024-06-07,2024-06-07,株式会社ＨＯＰＥ,,株式会社,東京都,品川区,旗の台６丁目２９番１１号,,13,109,1420064,,,,,,,2024-06-07,1,,,,,ホープ,0
1826,7010701046111,新規,0,2024-06-07,2024-06-07,株式会社兜商店,,株式会社,東京都,品川区,東五反田２丁目９番１－１４０８号,,13,109,1410022,,,,,,,2024-06-07,1,,,,,カブトショウテン,0
1838,7011001162499,新規,0,2024-06-07,2024-06-07,株式会社岡部,,株式会社,東京都,目黒区,上目黒２丁目３６番８号フェニーチェ１０１,,13,110,1530051,,,,,,,2024-06-07,1,,,,,オカベ,0
1839,7011001162524,新規,0,2024-06-07,2024-06-07,株式会社ＳｍｉｌｅＶｅｒｓｅ　ｓｔｕｄｉｏ,,株式会社,東京都,渋谷区,神宮前６丁目２３番４号桑野ビル２階,,13,113,1500001,,,,,,,2024-06-07,1,,,,,スマイルバーススタジオ,0
1841,7011003019342,新規,0,2024-06-07,2024-06-07,合同会社さき,,合同会社,東京都,渋谷区,神宮前６丁目２３番４号桑野ビル２階,,13,113,1500001,,,,,,,2024-06-07,1,,,,,サキ,0
1845,7011101107577,新規,0,2024-06-07,2024-06-07,株式会社ＴＫＣ,,株式会社,東京都,新宿区,四谷１丁目６番５号,,13,104,1600004,,,,,,,2024-06-07,1,,,,,ティーケーシー,0
1847,7011103014499,新規,0,2024-06-07,2024-06-07,合同会社ＡｃｏｕｓｔｏＭｉｃｒｏｗａｖｅ,,合同会社,東京都,新宿区,西新宿３丁目３番１３号西新宿水間ビル２Ｆ,,13,104,1600023,,,,,,,2024-06-07,1,,,,,アコーストマイクロウェーブ,0
1848,7011103014508,新規,0,2024-06-07,2024-06-07,ｍａｎａｂｉ　ｐｌｕｓ合同会社,,合同会社,東京都,新宿区,西新宿３丁目３番１３号西新宿水間ビル６階,,13,104,1600023,,,,,,,2024-06-07,1,,,,,マナビプラス,0
1851,7011301029729,新規,0,2024-06-07,2024-06-07,株式会社辰和プランニング,,株式会社,東京都,杉並区,成田東５丁目２２番１３号,,13,115,1660015,,,,,,,2024-06-07,1,,,,,シンワプランニング,0
1861,7011801044335,新規,0,2024-06-07,2024-06-07,株式会社チャバタケカンパニー,,株式会社,東京都,葛飾区,東金町１丁目１番２－６０２号,,13,122,1250041,,,,,,,2024-06-07,1,,,,,チャバタケカンパニー,0
1862,7011803006275,新規,0,2024-06-07,2024-06-07,ビズカ合同会社,,合同会社,東京都,葛飾区,堀切３丁目２３番１１号,,13,122,1240006,,,,,,,2024-06-07,1,,,,,ビズカ,0
1879,7020001157566,新規,0,2024-06-07,2024-06-07,株式会社メガサポ,,株式会社,神奈川県,川崎市中原区,新丸子東３丁目９４６番地３ＭＫファーストビル３Ｂ,,14,133,2110004,,,,,,,2024-06-07,1,,,,,メガサポ,0
1880,7020001157624,新規,0,2024-06-07,2024-06-07,株式会社ヴォンデュシエル,,株式会社,神奈川県,川崎市麻生区,高石４丁目１９－６,,14,137,2150003,,,,,,,2024-06-07,1,,,,,ヴォンデュシエル,0
1882,7021001082424,新規,0,2024-06-07,2024-06-07,福島トイネクスト株式会社,,株式会社,神奈川県,相模原市中央区,宮下本町３丁目２７番５号,,14,152,2520211,,,,,,,2024-06-07,1,,,,,フクシマトイネクスト,0
1893,7030001160767,新規,0,2024-06-07,2024-06-07,アライブ株式会社,,株式会社,埼玉県,飯能市,本町１２番１０号,,11,209,3570032,,,,,,,2024-06-07,1,,,,,アライブ,0
1894,7030001160775,新規,0,2024-06-07,2024-06-07,株式会社ｋｏｈｏｌａ,,株式会社,埼玉県,さいたま市南区,大字大谷口２４６０番地６,,11,108,3360042,,,,,,,2024-06-07,1,,,,,コホラ,0
1905,7040001133920,新規,0,2024-06-07,2024-06-07,Ｈａｒｂｏｒ株式会社,,株式会社,千葉県,船橋市,本町１丁目３１番５号レオセントラルスクエア１階,,12,204,2730005,,,,,,,2024-06-07,1,,,,,ハーバー,0
1910,7040003025125,新規,0,2024-06-07,2024-06-07,合同会社コンテ住まいる設計,,合同会社,千葉県,松戸市,小金原７丁目１８番３０号,,12,207,2700021,,,,,,,2024-06-07,1,,,,,コンテスマイルセッケイ,0
1911,7040003025141,新規,0,2024-06-07,2024-06-07,合同会社ＳＴプランニング,,合同会社,千葉県,印旛郡酒々井町,尾上５９番地６,,12,322,2850911,,,,,,,2024-06-07,1,,,,,エスティープランニング,0
1919,7050001054851,新規,0,2024-06-07,2024-06-07,リヴェラインターナショナル株式会社,,株式会社,茨城県,鉾田市,阿玉字秋葉９６６番地４４,,08,234,3112118,,,,,,,2024-06-07,1,,,,,リヴェラインターナショナル,0
1920,7050001054884,新規,0,2024-06-07,2024-06-07,株式会社ＭＡＳＡ,,株式会社,茨城県,水戸市,浜田１丁目２番４５号,,08,201,3100812,,,,,,,2024-06-07,1,,,,,マサ,0
1925,7070001041831,新規,0,2024-06-07,2024-06-07,Ｇｒｅｅｎ製造準備会社株式会社,,株式会社,群馬県,伊勢崎市,境東新井１３０１番地１,,10,204,3700101,,,,,,,2024-06-07,1,,,,,グリーンセイゾウジュンビガイシャ,0
1926,7070003005454,新規,0,2024-06-07,2024-06-07,合同会社ばんない,,合同会社,群馬県,前橋市,高花台２丁目２２番地１３,,10,201,3710123,,,,,,,2024-06-07,1,,,,,バンナイ,0
1930,7080403005029,新規,0,2024-06-07,2024-06-07,合同会社零式,,合同会社,静岡県,浜松市中央区,呉松町２７６３番地,,22,138,4311202,,,,,,,2024-06-07,1,,,,,レイシキ,0
1935,7100001037545,新規,0,2024-06-07,2024-06-07,百瀬伐採造園株式会社,,株式会社,長野県,塩尻市,大字広丘吉田５０１番地１７,,20,215,3990701,,,,,,,2024-06-07,1,,,,,モモセバッサイゾウエン,0
1943,7120001265490,新規,0,2024-06-07,2024-06-07,ＹＸ株式会社,,株式会社,大阪府,大阪市浪速区,下寺３丁目１－１４エクレール夕陽丘５号２０３号室,,27,111,5560001,,,,,,,2024-06-07,1,,,,,ワイエックス,0
1944,7120001265549,新規,0,2024-06-07,2024-06-07,株式会社ウェルビーライフホールディングス,,株式会社,大阪府,大阪市北区,西天満２丁目２番５号,,27,127,5300047,,,,,,,2024-06-07,1,,,,,ウェルビーライフホールディングス,0
1945,7120001265706,新規,0,2024-06-07,2024-06-07,株式会社ＢＥＣＨＡＮＣＥ,,株式会社,大阪府,大阪市中央区,北久宝寺町３丁目６－１－７Ｆ,,27,128,5410057,,,,,,,2024-06-07,1,,,,,ビーチャンス,0
1950,7120003026783,新規,0,2024-06-07,2024-06-07,日本ＲＡ合同会社,,合同会社,大阪府,大阪市中央区,難波４丁目１‐１５,,27,128,5420076,,,,,,,2024-06-07,1,,,,,ニホンレギュラトリーアフェアーズ,0
1951,7120003026791,新規,0,2024-06-07,2024-06-07,Ｏｃｅａｎ　ＶｉｔａｌＣａｒｅ合同会社,,合同会社,大阪府,大阪市都島区,都島北通２丁目１７番４号,,27,102,5340014,,,,,,,2024-06-07,1,,,,,オーシャンバイタルケア,0
1958,7120901049274,新規,0,2024-06-07,2024-06-07,株式会社５ｗｏｒｋｓ,,株式会社,大阪府,箕面市,森町北２丁目１０番１０号,,27,220,5630256,,,,,,,2024-06-07,1,,,,,ファイブワークス,0
1963,7130001077217,新規,0,2024-06-07,2024-06-07,株式会社Ｍａｒｕｍｏ　Ｓｏｌｕｔｉｏｎｓ,,株式会社,京都府,京都市北区,上賀茂榊田町６４番地１,00135066,26,101,6038051,,,,,,,2024-06-07,1,,,,,マルモソリューションズ,0
1966,7140001134669,新規,0,2024-06-07,2024-06-07,株式会社エイメイ工業,,株式会社,兵庫県,尼崎市,塚口本町３丁目２６番１５号,,28,202,6610001,,,,,,,2024-06-07,1,,,,,エイメイコウギョウ,0
1973,7150001027335,新規,0,2024-06-07,2024-06-07,株式会社Ｒｉｐｐｌｅｓ,,株式会社,奈良県,天理市,指柳町３７６番地１２,,29,204,6320093,,,,,,,2024-06-07,1,,,,,リプルス,0
1978,7170001018159,新規,0,2024-06-07,2024-06-07,株式会社南海食品,,株式会社,和歌山県,海南市,岡田５２０番地,,30,202,6420012,,,,,,,2024-06-07,1,,,,,ナンカイショクヒン,0
1981,7180001161817,新規,0,2024-06-07,2024-06-07,山尾自動車株式会社,,株式会社,愛知県,名古屋市緑区,大高町字杁前４３番地,,23,114,4598001,,,,,,,2024-06-07,1,,,,,ヤマオジドウシャ,0
1982,7180001161841,新規,0,2024-06-07,2024-06-07,株式会社Ｋａｚｅｉｒｏ,,株式会社,愛知県,名古屋市緑区,浦里３丁目３１６番地,,23,114,4580847,,,,,,,2024-06-07,1,,,,,カゼイロ,0
1983,7180001161866,新規,0,2024-06-07,2024-06-07,株式会社ラフコーポレーション,,株式会社,愛知県,名古屋市天白区,池場２丁目２５０９番地の１,,23,116,4680055,,,,,,,2024-06-07,1,,,,,ラフコーポレーション,0
1986,7180003026893,新規,0,2024-06-07,2024-06-07,合同会社ＭＨ７,,合同会社,愛知県,名古屋市南区,菊住２丁目１０番１９号,,23,112,4570012,,,,,,,2024-06-07,1,,,,,エムエイチセブン,0
1987,7180003026902,新規,0,2024-06-07,2024-06-07,合同会社Ａｌｍｉｇｈｔｙ　Ｍｏｎｋｅｙ’ｓ,,合同会社,愛知県,一宮市,大和町宮地花池字出町裏５１番地ベルソレイユＩＩ１０５号,00135064,23,203,4910847,,,,,,,2024-06-07,1,,,,,オールマイティーモンキーズ,0
1988,7180003026910,新規,0,2024-06-07,2024-06-07,ＫＡＬＩＫＡ合同会社,,合同会社,愛知県,名古屋市中村区,則武１丁目１６番８号,,23,105,4530014,,,,,,,2024-06-07,1,,,,,カリカ,0
1989,7180005020647,新規,0,2024-06-07,2024-06-07,名古屋国際技術事業協同組合,,その他の設立登記法人,愛知県,名古屋市中区,栄５丁目１３番２１号,,23,106,4600008,,,,,,,2024-06-07,1,,,,,ナゴヤコクサイギジュツ,0
1990,7180301038698,新規,0,2024-06-07,2024-06-07,株式会社Ｆａｍｉｌｉａ,,株式会社,愛知県,豊川市,瀬木町替田７番地の１００,,23,207,4420815,,,,,,,2024-06-07,1,,,,,ファミリア,0
1992,7190001031399,新規,0,2024-06-07,2024-06-07,株式会社Ｌａｕｇｈ　Ｔａｌｅ,,株式会社,三重県,志摩市,阿児町鵜方４９１７番地,,24,215,5170501,,,,,,,2024-06-07,1,,,,,ラフテル,0
1996,7210005010149,新規,0,2024-06-07,2024-06-07,一般財団法人丸岡有馬財団,,その他の設立登記法人,福井県,坂井市,丸岡町石城戸町１丁目２番地,,18,210,9100243,,,,,,,2024-06-07,1,,,,,マルオカアリマザイダン,0
1999,7230003002220,新規,0,2024-06-07,2024-06-07,合同会社リフィックス,,合同会社,富山県,富山市,茶屋町３９１番地,,16,201,9300115,,,,,,,2024-06-07,1,,,,,リフィックス,0
2012,7260003004734,新規,0,2024-06-07,2024-06-07,合同会社二十八鈴,,合同会社,岡山県,高梁市,川上町七地１８６２番地,,33,209,7160202,,,,,,,2024-06-07,1,,,,,ニジュウハチリン,0
2013,7260003004775,新規,0,2024-06-07,2024-06-07,合同会社五十七鈴,,合同会社,岡山県,玉野市,西田井地２１６３,,33,204,7060313,,,,,,,2024-06-07,1,,,,,ゴジュウナナリン,0
2016,7280003001853,新規,0,2024-06-07,2024-06-07,合同会社ＲＵＴＳＵＢＯ,,合同会社,島根県,益田市,遠田町３１９５番地４,,32,204,6993676,,,,,,,2024-06-07,1,,,,,ルツボ,0
2019,7290001106050,新規,0,2024-06-07,2024-06-07,株式会社正光電設,,株式会社,福岡県,福岡市南区,老司３丁目２６番２３－２号,,40,134,8111346,,,,,,,2024-06-07,1,,,,,セイコウデンセツ,0
2020,7290001106067,新規,0,2024-06-07,2024-06-07,株式会社ミセカタ,,株式会社,福岡県,久留米市,小頭町４番地１０,,40,203,8300045,,,,,,,2024-06-07,1,,,,,ミセカタ,0
2021,7290003015381,新規,0,2024-06-07,2024-06-07,合同会社ｋａｍｏｔ,,合同会社,福岡県,久留米市,通町１０１番地８エバーライフ通町２０１号,,40,203,8300018,,,,,,,2024-06-07,1,,,,,,0
2022,7290801030631,新規,0,2024-06-07,2024-06-07,株式会社シティールーフ,,株式会社,福岡県,北九州市八幡西区,香月西１丁目１０番２７－１０３号,,40,109,8071103,,,,,,,2024-06-07,1,,,,,シティールーフ,0
2027,7320003004389,新規,0,2024-06-07,2024-06-07,ドリップラボ合同会社,,合同会社,大分県,日田市,中城町２番３０号,,44,204,8770011,,,,,,,2024-06-07,1,,,,,ドリップラボ,0
2039,7370001051379,新規,0,2024-06-07,2024-06-07,株式会社ライゼスト,,株式会社,宮城県,多賀城市,高橋５丁目５番８号,,04,209,9850853,,,,,,,2024-06-07,1,,,,,ライゼスト,0
2043,7390001017634,新規,0,2024-06-07,2024-06-07,明京建設株式会社,,株式会社,山形県,山形市,旅篭町３丁目５番３０号,,06,201,9900047,,,,,,,2024-06-07,1,,,,,メイキョウケンセツ,0
2048,7420001018752,新規,0,2024-06-07,2024-06-07,株式会社ｉｍｐ,,株式会社,青森県,上北郡野辺地町,字坊ノ塚１番地１,,02,401,0393125,,,,,,,2024-06-07,1,,,,,アイエムピー,0
2053,7430001091930,新規,0,2024-06-07,2024-06-07,株式会社ＩＮＧ,,株式会社,北海道,札幌市豊平区,西岡三条７丁目７番７号,,01,105,0620033,,,,,,,2024-06-07,1,,,,,アイエヌジー,0
2054,7430001091955,新規,0,2024-06-07,2024-06-07,株式会社Ｔｉｋａ,,株式会社,北海道,札幌市白石区,平和通６丁目南３番３号,,01,104,0030028,,,,,,,2024-06-07,1,,,,,ティカ,0
2055,7430001091971,新規,0,2024-06-07,2024-06-07,ｃｏｃｏｎｉ　ｈｏｕｓｅ株式会社,,株式会社,北海道,札幌市中央区,宮の森二条１６丁目９番１６号,,01,101,0640952,,,,,,,2024-06-07,1,,,,,ココニハウス,0
2059,7430003016423,新規,0,2024-06-07,2024-06-07,合同会社左手,,合同会社,北海道,札幌市西区,西町北１１丁目２番１２号－４０５,,01,107,0630061,,,,,,,2024-06-07,1,,,,,ヒダリテ,0
2060,7430003016431,新規,0,2024-06-07,2024-06-07,合同会社ｐｉｒｋａ,,合同会社,北海道,札幌市中央区,南六条西１４丁目２番２５－５０４号,,01,101,0640806,,,,,,,2024-06-07,1,,,,,ピリカ,0
2062,7450001014336,新規,0,2024-06-07,2024-06-07,株式会社おと,,株式会社,北海道,旭川市,旭町二条８丁目２５番地の４２,,01,204,0700832,,,,,,,2024-06-07,1,,,,,オト,0
2066,7470001020233,新規,0,2024-06-07,2024-06-07,株式会社エフテック,,株式会社,香川県,善通寺市,吉原町２８３７番地１０,,37,204,7650061,,,,,,,2024-06-07,1,,,,,エフテック,0
2067,7480001012493,新規,0,2024-06-07,2024-06-07,株式会社永興,,株式会社,徳島県,徳島市,南末広町４番７２号,,36,201,7700865,,,,,,,2024-06-07,1,,,,,,0
2071,7700150125602,新規,0,2024-06-07,2024-05-28,世知原活性化推進会,,その他,長崎県,佐世保市,世知原町開作７１－１,,42,202,8596405,,,,,,,2024-05-28,1,,,,,セチバルカツセイカスイシンカイ,0
2072,7700150125817,新規,0,2024-06-07,2024-06-07,ＫＩＴＨＵ　ＩＮＴＥＲＮＡＴＩＯＮＡＬ　ＰＲＩＶＡＴＥ　ＬＩＭＩＴＥＤ,,外国会社等,栃木県,足利市,利保町３丁目１６番地４,,09,202,3260006,スリランカ民主社会主義共和国ダンコトゥワ、ジャヤマワサ、セスシリウヤナ、ニハサマニ,,,,,,2024-06-07,1,,,,,キトウインターナシヨナルプライベートリミテツド,0
2077,8010001245379,新規,0,2024-06-07,2024-06-07,株式会社Ｌｙａｐｕｎｏｖ,,株式会社,東京都,中央区,日本橋２丁目２番３号ＲＩＳＨＥビルＵＣＦ４０２号室,,13,102,1030027,,,,,,,2024-06-07,1,,,,,リアプノフ,0
2078,8010001245478,新規,0,2024-06-07,2024-06-07,株式会社七曜,,株式会社,東京都,中央区,銀座１丁目２８番１４号,,13,102,1040061,,,,,,,2024-06-07,1,,,,,シチヨウ,0
2080,8010003043962,新規,0,2024-06-07,2024-06-07,合同会社アタナシア,,合同会社,東京都,千代田区,神田和泉町１番地６－１６ヤマトビル４０５,,13,101,1010024,,,,,,,2024-06-07,1,,,,,アタナシア,0
2094,8010401182908,新規,0,2024-06-07,2024-06-07,株式会社ヒアー,,株式会社,東京都,港区,虎ノ門１丁目１６番１６号,,13,103,1050001,,,,,,,2024-06-07,1,,,,,ヒアー,0
2095,8010401182940,新規,0,2024-06-07,2024-06-07,株式会社バリュースタンド,,株式会社,東京都,港区,麻布十番１丁目８番１１号ＴＡＫＡＤＥＮ麻布十番３Ｆ,,13,103,1060045,,,,,,,2024-06-07,1,,,,,バリュースタンド,0
2096,8010401183006,新規,0,2024-06-07,2024-06-07,株式会社ＮＴＬ３６,,株式会社,東京都,港区,港南１丁目２番７０号,,13,103,1080075,,,,,,,2024-06-07,1,,,,,エヌティエルサンジュウロク,0
2104,8010501052399,新規,0,2024-06-07,2024-06-07,株式会社宮崎工業,,株式会社,東京都,台東区,台東１丁目１４番７号,,13,106,1100016,,,,,,,2024-06-07,1,,,,,ミヤザキコウギョウ,0
2105,8010503007475,新規,0,2024-06-07,2024-06-07,合同会社アットワンネス,,合同会社,東京都,台東区,谷中５丁目１１番１５－２０３号,,13,106,1100001,,,,,,,2024-06-07,1,,,,,アットワンネス,0
2107,8010603010882,新規,0,2024-06-07,2024-06-07,ＪＫＭ　Ｃａｐｉｔａｌ合同会社,,合同会社,東京都,江東区,辰巳１丁目５番１２－６０１号,,13,108,1350053,,,,,,,2024-06-07,1,,,,,ジェイケーエムキャピタル,0
2108,8010603010890,新規,0,2024-06-07,2024-06-07,合同会社ムム,,合同会社,東京都,墨田区,京島１丁目４７番１１－４０１号,,13,107,1310046,,,,,,,2024-06-07,1,,,,,ムム,0
2109,8010701046110,新規,0,2024-06-07,2024-06-07,Ｅｈａｒａ　Ｓｐｏｒｔｓ　Ｐａｒｔｎｅｒｓ株式会社,,株式会社,東京都,品川区,西五反田８丁目１０番６－１０７号,,13,109,1410031,,,,,,,2024-06-07,1,,,,,エハラスポーツパートナーズ,0
2110,8010705003636,新規,0,2024-06-07,2024-06-07,一般財団法人幸枝メモリアル財団,,その他の設立登記法人,東京都,品川区,小山台１丁目２５番１３号,,13,109,1420061,,,,,,,2024-06-07,1,,,,,ユキエメモリアルザイダン,0
2112,8010903009121,新規,0,2024-06-07,2024-06-07,ＰＲＯＰ合同会社,,合同会社,東京都,世田谷区,池尻１丁目６番地５号,,13,112,1540001,,,,,,,2024-06-07,1,,,,,プロップ,0
2116,8011001162465,新規,0,2024-06-07,2024-06-07,株式会社ＣｏｍｐｌｅＣｕｒｅ,,株式会社,東京都,渋谷区,渋谷１丁目１２番８号,,13,113,1500002,,,,,,,2024-06-07,1,,,,,コンプリキュア,0
2117,8011001162481,新規,0,2024-06-07,2024-06-07,株式会社ＨＩＰＡＨＩＰＡ　Ｇａｍｅｓ,,株式会社,東京都,渋谷区,宇田川町４０番１号,,13,113,1500042,,,,,,,2024-06-07,1,,,,,ヒパヒパゲームス,0
2118,8011001162498,新規,0,2024-06-07,2024-06-07,アイサックアイ株式会社,,株式会社,東京都,目黒区,緑が丘１丁目５番７号,,13,110,1520034,,,,,,,2024-06-07,1,,,,,アイサックアイ,0
2119,8011001162531,新規,0,2024-06-07,2024-06-07,株式会社ＫＦＣ,,株式会社,東京都,目黒区,東山３丁目１５番１４号,,13,110,1530043,,,,,,,2024-06-07,1,,,,,ケーエフシー,0
2120,8011003019267,新規,0,2024-06-07,2024-06-07,合同会社巡,,合同会社,東京都,渋谷区,上原１丁目３５－９ＹＹビル２Ａ,,13,113,1510064,,,,,,,2024-06-07,1,,,,,メグリ,0
2121,8011003019325,新規,0,2024-06-07,2024-06-07,エリアプロ合同会社,,合同会社,東京都,渋谷区,渋谷２丁目１９－１５宮益坂ビルディング６０９,,13,113,1500002,,,,,,,2024-06-07,1,,,,,エリアプロ,0
2122,8011003019333,新規,0,2024-06-07,2024-06-07,ＴＲＹＺＩＮ合同会社,,合同会社,東京都,渋谷区,渋谷２丁目１９－１５宮益坂ビルディング６０９,,13,113,1500002,,,,,,,2024-06-07,1,,,,,トライジン,0
2123,8011003019341,新規,0,2024-06-07,2024-06-07,合同会社ＫｉｎｅｔｉｃＬｅａｐ　Ｐａｒｔｎｅｒｓ,,合同会社,東京都,渋谷区,道玄坂１丁目１０番８号渋谷道玄坂東急ビル２Ｆ－Ｃ,,13,113,1500043,,,,,,,2024-06-07,1,,,,,キネティックリープパートナーズ,0
2124,8011103014507,新規,0,2024-06-07,2024-06-07,合同会社Ｓ’ａｉｍｅｒプロダクション,,合同会社,東京都,新宿区,西新宿３丁目３番１３号西新宿水間ビル２階,,13,104,1600023,,,,,,,2024-06-07,1,,,,,セメプロダクション,0
2137,8011703003867,新規,0,2024-06-07,2024-06-07,合同会社オフィスツルモト,,合同会社,東京都,江戸川区,東小岩３丁目１１番１８号,,13,123,1330052,,,,,,,2024-06-07,1,,,,,オフィスツルモト,0
2139,8011801044334,新規,0,2024-06-07,2024-06-07,株式会社平田塗装,,株式会社,東京都,足立区,鹿浜３丁目８番８号,,13,121,1230864,,,,,,,2024-06-07,1,,,,,ヒラタトソウ,0
2141,8012303002004,新規,0,2024-06-07,2024-06-07,合同会社ＡＯ．,,合同会社,東京都,町田市,真光寺１丁目３３－３３,,13,209,1950057,,,,,,,2024-06-07,1,,,,,アオ,0
2148,8012401041944,新規,0,2024-06-07,2024-06-07,株式会社フジムラウェルネスデザイン＆コー,,株式会社,東京都,武蔵野市,吉祥寺本町２丁目１６番３号,,13,203,1800004,,,,,,,2024-06-07,1,,,,,フジムラウェルネスデザインアンドコー,0
2153,8012801023237,新規,0,2024-06-07,2024-06-07,株式会社ＷＢＡ,,株式会社,東京都,日野市,栄町１丁目２２番２１号,,13,212,1910001,,,,,,,2024-06-07,1,,,,,ダブルビーエー,0
2154,8012803003419,新規,0,2024-06-07,2024-06-07,キコエテック合同会社,,合同会社,東京都,国立市,富士見台４丁目４１番地の１－１２９,,13,215,1860003,,,,,,,2024-06-07,1,,,,,キコエテック,0
2164,8020001157598,新規,0,2024-06-07,2024-06-07,株式会社ＫＫメディア,,株式会社,神奈川県,横浜市磯子区,中原４丁目２６番１６号杉田グリーンハイム４０１,,14,107,2350036,,,,,,,2024-06-07,1,,,,,ケーケーメディア,0
2165,8020001157623,新規,0,2024-06-07,2024-06-07,株式会社えんどうマメ,,株式会社,神奈川県,横浜市緑区,三保町２１５９番地１クレッセント中山３０２号,,14,113,2260015,,,,,,,2024-06-07,1,,,,,エンドウマメ,0
2168,8020003026289,新規,0,2024-06-07,2024-06-07,合同会社ｔｈｒｏｗ,,合同会社,神奈川県,横浜市都筑区,北山田１丁目１０番５号ヴィ・ド・カンパーニュ港北ル・ソレイユ５０６,,14,118,2240021,,,,,,,2024-06-07,1,,,,,スロウ,0
2173,8021003014614,新規,0,2024-06-07,2024-06-07,ＯＲＣＨＩＤ　ＴＲＡＤＩＮＧ合同会社,,合同会社,神奈川県,秦野市,南矢名２丁目２５番５号三共学友会館１１４号室,,14,211,2570003,,,,,,,2024-06-07,1,,,,,オーキッドトレーディング,0
2195,8030003024440,新規,0,2024-06-07,2024-06-07,Ｇｕｉｄｉｎｇ　Ｓｔａｒ　Ｈｏｍｅｓ合同会社,,合同会社,埼玉県,日高市,高麗川３丁目４番地２,,11,242,3501249,,,,,,,2024-06-07,1,,,,,ガイディングスターホームズ,0
2206,8040001133903,新規,0,2024-06-07,2024-06-07,株式会社リトリンク,,株式会社,千葉県,成田市,西三里塚１番地１２７,,12,211,2860115,,,,,,,2024-06-07,1,,,,,リトリンク,0
2207,8040001133936,新規,0,2024-06-07,2024-06-07,株式会社ひのき建設,,株式会社,千葉県,松戸市,西馬橋２丁目２２番地の２４,,12,207,2710044,,,,,,,2024-06-07,1,,,,,ヒノキケンセツ,0
2208,8040001133944,新規,0,2024-06-07,2024-06-07,株式会社ＭａｒｉｎｅＤｒｅａｍ,,株式会社,千葉県,千葉市稲毛区,稲毛町５丁目２７１－１,,12,103,2630035,,,,,,,2024-06-07,1,,,,,マリンドリーム,0
2212,8040003025124,新規,0,2024-06-07,2024-06-07,合同会社トムズスマイルコーポレーション,,合同会社,千葉県,松戸市,松戸１４９５番地の５６ベルトピア松戸第６－６０２号,,12,207,2710092,,,,,,,2024-06-07,1,,,,,トムズスマイルコーポレーション,0
2213,8040003025140,新規,0,2024-06-07,2024-06-07,合同会社オフィース久古,,合同会社,千葉県,成田市,公津の杜３丁目３８番１号,,12,211,2860048,,,,,,,2024-06-07,1,,,,,オフィースキュウコ,0
2219,8050003008409,新規,0,2024-06-07,2024-06-07,インドトレーディング合同会社,,合同会社,茨城県,笠間市,笠間３９８１－１,,08,216,3091611,,,,,,,2024-06-07,1,,,,,インドトレーディング,0
2223,8050005013456,新規,0,2024-06-07,2024-06-07,一般社団法人障がい者演劇協会,,その他の設立登記法人,茨城県,取手市,宮和田３７１番地１,,08,217,3001514,,,,,,,2024-06-07,1,,,,,ショウガイシャエンゲキキョウカイ,0
2231,8080001026335,新規,0,2024-06-07,2024-06-07,株式会社優美創建,,株式会社,静岡県,静岡市葵区,建穂２丁目５番２７号,,22,101,4211214,,,,,,,2024-06-07,1,,,,,ユウビソウケン,0
2257,8120001265589,新規,0,2024-06-07,2024-06-07,Ｍａｖｅｒｉｃｋｓ株式会社,,株式会社,大阪府,大阪市平野区,加美正覚寺１丁目５－３ショウエイハウス４Ｂ,,27,126,5470006,,,,,,,2024-06-07,1,,,,,マーベリックス,0
2258,8120001265647,新規,0,2024-06-07,2024-06-07,Ｍ３コンサルティング株式会社,,株式会社,大阪府,大阪市西淀川区,千舟２丁目１５番２－３０８号,,27,113,5550013,,,,,,,2024-06-07,1,,,,,エムスリーコンサルティング,0
2259,8120001265738,新規,0,2024-06-07,2024-06-07,株式会社エムズアプレイザル,,株式会社,大阪府,大阪市中央区,玉造２丁目１６番４号,,27,128,5400004,,,,,,,2024-06-07,1,,,,,エムズアプレイザル,0
2265,8120005024363,新規,0,2024-06-07,2024-06-07,一般社団法人ＭＲＵ,,その他の設立登記法人,大阪府,大阪市福島区,吉野２丁目１１番２１号,,27,103,5530006,,,,,,,2024-06-07,1,,,,,エムアールユー,0
2269,8120103005876,新規,0,2024-06-07,2024-06-07,旭輝合同会社,,合同会社,大阪府,岸和田市,天神山町２丁目９－６－２０１室,,27,202,5960834,,,,,,,2024-06-07,1,,,,,アサキ,0
2270,8120901049281,新規,0,2024-06-07,2024-06-07,株式会社ＳＡＭコンサルティング,,株式会社,大阪府,茨木市,岩倉町１番１７－６０５号,,27,211,5670871,,,,,,,2024-06-07,1,,,,,サムコンサルティング,0
2282,8130001077249,新規,0,2024-06-07,2024-06-07,Ｈ・Ｏ株式会社,,株式会社,京都府,南丹市,園部町内林町２号５１番地,,26,213,6220012,,,,,,,2024-06-07,1,,,,,エイチオー,0
2283,8130005017110,新規,0,2024-06-07,2024-06-07,一般社団法人優親福祉会,,その他の設立登記法人,京都府,京都市右京区,嵯峨天龍寺若宮町３１番地５,,26,108,6168371,,,,,,,2024-06-07,1,,,,,ユウシンフクシカイ,0
2285,8140001134684,新規,0,2024-06-07,2024-06-07,エムエージー株式会社,,株式会社,兵庫県,洲本市,物部１丁目１２番５０号,,28,205,6560051,,,,,,,2024-06-07,1,,,,,エムエージー,0
2286,8140001134759,新規,0,2024-06-07,2024-06-07,株式会社ヨウサンコーポレーション,,株式会社,兵庫県,西宮市,苦楽園四番町１０番２７号六麓荘ヒルズＦ棟１０３号,,28,204,6620088,,,,,,,2024-06-07,1,,,,,ヨウサンコーポレーション,0
2290,8140005027091,新規,0,2024-06-07,2024-06-07,特定非営利活動法人わんぱく,,その他の設立登記法人,兵庫県,多可郡多可町,中区森本７２８番地１,,28,365,6791124,,,,,,,2024-06-07,1,,,,,ワンパク,0
2291,8150001027334,新規,0,2024-06-07,2024-06-07,株式会社Ｌｉｅｂｅｒｍａｎ．ｍ,,株式会社,奈良県,磯城郡田原本町,大字新木５５番地の２４,,29,363,6360347,,,,,,,2024-06-07,1,,,,,,0
2292,8160003003209,新規,0,2024-06-07,2024-06-07,ＩＴＯ合同会社,,合同会社,滋賀県,東近江市,中里町５６１番地１,,25,213,5270105,,,,,,,2024-06-07,1,,,,,アイティーオー,0
2294,8180001161840,新規,0,2024-06-07,2024-06-07,株式会社ハビリア,,株式会社,愛知県,知多郡阿久比町,大字板山字向山６６番地２,,23,441,4702203,,,,,,,2024-06-07,1,,,,,ハビリア,0
2295,8180001161849,新規,0,2024-06-07,2024-06-07,株式会社真心,,株式会社,愛知県,名古屋市中村区,岩塚町字上小路３７番地の３,,23,105,4530862,,,,,,,2024-06-07,1,,,,,マゴコロ,0
2296,8180001161915,新規,0,2024-06-07,2024-06-07,株式会社三陵,,株式会社,愛知県,名古屋市中村区,名駅４丁目２０番１０号－１,,23,105,4500002,,,,,,,2024-06-07,1,,,,,サンリョウ,0
2301,8180003026892,新規,0,2024-06-07,2024-06-07,合同会社壱八,,合同会社,愛知県,名古屋市緑区,鳴丘１丁目５０５番地,,23,114,4580005,,,,,,,2024-06-07,1,,,,,イチヤ,0
2302,8180003026901,新規,0,2024-06-07,2024-06-07,合同会社ハッピーフーズ,,合同会社,愛知県,名古屋市昭和区,雪見町２丁目１５番地の５,,23,107,4660005,,,,,,,2024-06-07,1,,,,,ハッピーフーズ,0
2303,8180003026918,新規,0,2024-06-07,2024-06-07,ソフトマターデザインラボ合同会社,,合同会社,愛知県,名古屋市天白区,御幸山７１９番地の２,,23,116,4680075,,,,,,,2024-06-07,1,,,,,ソフトマターデザインラボ,0
2305,8180301038706,新規,0,2024-06-07,2024-06-07,ポテント株式会社,,株式会社,愛知県,刈谷市,大正町７丁目４１２番地２,,23,210,4480855,,,,,,,2024-06-07,1,,,,,ポテント,0
2313,8200003006371,新規,0,2024-06-07,2024-06-07,合同会社ＨＩＧＨ　ＰＯＳＩＴＩＯＮ,,合同会社,岐阜県,美濃加茂市,西町３丁目１１７番地,,21,211,5050046,,,,,,,2024-06-07,1,,,,,ハイポジション,0
2324,8240001063353,新規,0,2024-06-07,2024-06-07,株式会社２カルディア,,株式会社,広島県,福山市,北本庄１丁目１５番２５号,,34,207,7200074,,,,,,,2024-06-07,1,,,,,ツーカルディア,0
2331,8250001020683,新規,0,2024-06-07,2024-06-07,株式会社ＲＡＭＡ,,株式会社,山口県,宇部市,大字西岐波４７１６番地３,,35,202,7550151,,,,,,,2024-06-07,1,,,,,ラマ,0
2336,8260001039153,新規,0,2024-06-07,2024-06-07,株式会社山本グループ,,株式会社,岡山県,岡山市南区,浜野１丁目３－１９ホワイトリリー浜野２０３,,33,104,7000845,,,,,,,2024-06-07,1,,,,,ヤマモトグループ,0
2337,8260001039161,新規,0,2024-06-07,2024-06-07,ＭＯＶＥ　ＪＡＰＡＮ株式会社,,株式会社,岡山県,岡山市東区,瀬戸町江尻２２２０番地６,,33,103,7090854,,,,,,,2024-06-07,1,,,,,ムーヴジャパン,0
2339,8260003004725,新規,0,2024-06-07,2024-06-07,合同会社二十三鈴,,合同会社,岡山県,倉敷市,児島田の口２丁目１番８号リヴィエール３０２,,33,202,7110903,,,,,,,2024-06-07,1,,,,,ニジュウサンリン,0
2340,8260003004733,新規,0,2024-06-07,2024-06-07,合同会社二十七鈴,,合同会社,岡山県,高梁市,川上町七地１８６２番地,,33,209,7160202,,,,,,,2024-06-07,1,,,,,ニジュウナナリン,0
2341,8260003004758,新規,0,2024-06-07,2024-06-07,合同会社六十鈴,,合同会社,岡山県,玉野市,西田井地２１６３,,33,204,7060313,,,,,,,2024-06-07,1,,,,,ロクジュウリン,0
2342,8260003004766,新規,0,2024-06-07,2024-06-07,合同会社六十四鈴,,合同会社,岡山県,岡山市中区,米田２４番地８,,33,102,7038224,,,,,,,2024-06-07,1,,,,,ロクジュウヨンリン,0
2349,8290001106017,新規,0,2024-06-07,2024-06-07,株式会社フロックテーブル,,株式会社,福岡県,福岡市中央区,警固２丁目１３番１７号,,40,133,8100023,,,,,,,2024-06-07,1,,,,,フロックテーブル,0
2350,8290001106058,新規,0,2024-06-07,2024-06-07,おちいし不動産株式会社,,株式会社,福岡県,福岡市東区,塩浜１丁目２８番４０号,,40,131,8110203,,,,,,,2024-06-07,1,,,,,オチイシフドウサン,0
2351,8290001106108,新規,0,2024-06-07,2024-06-07,株式会社Ａｍｂｉｔｉｏｎ,,株式会社,福岡県,福岡市博多区,比恵町１－１８東カン第二ビル２０５,,40,132,8120014,,,,,,,2024-06-07,1,,,,,アンビション,0
2354,8320005010161,新規,0,2024-06-07,2024-06-07,グロリアマンション管理組合法人,,その他の設立登記法人,大分県,別府市,浜町３番４号,,44,202,8740945,,,,,,,2024-06-07,1,,,,,グロリアマンション,0
2360,8350001018998,新規,0,2024-06-07,2024-06-07,株式会社竹之下建機ＭＯＴＯＲ’Ｓ,,株式会社,宮崎県,都城市,野々美谷町２９５７番地７,,45,202,8851104,,,,,,,2024-06-07,1,,,,,タケノシタケンキモータース,0
2367,8360001033765,新規,0,2024-06-07,2024-06-07,株式会社ながたい,,株式会社,沖縄県,中頭郡北谷町,字吉原９３０番地１・２Ｆ,,47,326,9040105,,,,,,,2024-06-07,1,,,,,ナガタイ,0
2369,8360003014053,新規,0,2024-06-07,2024-06-07,合同会社みっちゃんレンタカー,,合同会社,沖縄県,那覇市,宇栄原１丁目１６－１０,,47,201,9010153,,,,,,,2024-06-07,1,,,,,ミッチャンレンタカー,0
2373,8370001051361,新規,0,2024-06-07,2024-06-07,株式会社ＫＴＣ,,株式会社,宮城県,仙台市青葉区,国分町１丁目７－１３グレイスビル５階ＴＩＭＥ　ｌｉｍｉｔ内,,04,101,9800803,,,,,,,2024-06-07,1,,,,,ケーティーシー,0
2377,8380005012838,新規,0,2024-06-07,2024-06-07,一般社団法人Ｆｗｏｏｍ,,その他の設立登記法人,福島県,双葉郡大熊町,大字下野上字清水２３０,,07,545,9791308,,,,,,,2024-06-07,1,,,,,フーム,0
2387,8400001016674,新規,0,2024-06-07,2024-06-07,株式会社鳶祐興業,,株式会社,岩手県,盛岡市,三本柳２３地割９番地５０,,03,201,0200831,,,,,,,2024-06-07,1,,,,,トビユウコウギョウ,0
2396,8430001091913,新規,0,2024-06-07,2024-06-07,株式会社エフォルズ,,株式会社,北海道,札幌市北区,北二十二条西８丁目１番３３号,,01,102,0010022,,,,,,,2024-06-07,1,,,,,エフォルズ,0
2397,8430001091921,新規,0,2024-06-07,2024-06-07,株式会社リックス,,株式会社,北海道,札幌市白石区,東米里２１９７番地１３９,,01,104,0030876,,,,,,,2024-06-07,1,,,,,リックス,0
2398,8430001091970,新規,0,2024-06-07,2024-06-07,株式会社ＮｕｄｇｅＵ,,株式会社,北海道,札幌市北区,北十四条西４丁目２番５－４０２号,,01,102,0010014,,,,,,,2024-06-07,1,,,,,ナッジユー,0
2405,8440001009451,新規,0,2024-06-07,2024-06-07,株式会社樂喜,,株式会社,北海道,函館市,本町３２番１３号第４ＬＣ館１Ｆ,,01,202,0400011,,,,,,,2024-06-07,1,,,,,ラッキー,0
2412,8700150104670,新規,0,2024-06-07,2021-09-10,立憲民主党,,その他,富山県,富山市,新桜町７－３８,,16,201,9300005,,,,,,,2021-09-10,1,,,,,リツケンミンシユトウ,0
2413,8700150125816,新規,0,2024-06-07,2024-06-07,Ｎｉｌｕｓｈｉ　Ｉｎｔｅｒｎａｔｉｏｎａｌ　Ｐｒｉｖａｔｅ　Ｌｉｍｉｔｅｄ　Ｃｏｍｐａｎｙ,,外国会社等,千葉県,旭市,野中７８０番地４－１０３,,12,215,2892513,スリランカ民主社会主義共和国南部州カランデニヤ地区、カナタゲダラ、第３マイルポスト第２２９－１,,,,,,2024-06-07,1,,,,,ニルシインターナシヨナルリミテツドカンパニー,0
2420,9010001245147,新規,0,2024-06-07,2024-06-07,Ｅｎｃｈａｎｔｅｄ株式会社,,株式会社,東京都,文京区,白山１丁目６番４号文京ＶｅｎｔｕｒｅＢａｓｅＡ０５,,13,105,1130001,,,,,,,2024-06-07,1,,,,,エンチャテット,0
2421,9010001245510,新規,0,2024-06-07,2024-06-07,Ｒ＆Ｌ　ＣＡＰＩＴＡＬ株式会社,,株式会社,東京都,中央区,日本橋箱崎町２０番１号,,13,102,1030015,,,,,,,2024-06-07,1,,,,,アールアンドエルキャピタル,0
2422,9010001245576,新規,0,2024-06-07,2024-06-07,株式会社ＮｅｕｔＬＡ,,株式会社,東京都,千代田区,九段南３丁目２－５ハトヤビル６階,,13,101,1020074,,,,,,,2024-06-07,1,,,,,ニュートラ,0
2427,9010003043945,新規,0,2024-06-07,2024-06-07,合同会社カーチスファンド９号,,合同会社,東京都,千代田区,六番町２番地８番町Ｍビル３Ｆ,,13,101,1020085,,,,,,,2024-06-07,1,,,,,カーチスファンドキュウゴウ,0
2428,9010003043961,新規,0,2024-06-07,2024-06-07,合同会社ＫＩＳ,,合同会社,東京都,千代田区,神田和泉町１番地６－１６ヤマトビル４０５,,13,101,1010024,,,,,,,2024-06-07,1,,,,,ケイアイエス,0
2429,9010003043986,新規,0,2024-06-07,2024-06-07,Ｋｕｋｉ　Ｌｏｇｉｓｔｉｃｓ合同会社,,合同会社,東京都,千代田区,丸の内３丁目１番１号東京共同会計事務所内,,13,101,1000005,,,,,,,2024-06-07,1,,,,,クキロジスティクス,0
2442,9010401182923,新規,0,2024-06-07,2024-06-07,株式会社ｏｎｅ　ｌｉｆｅ　ｗｅｌｌ,,株式会社,東京都,港区,白金台４丁目５番９－２０７号,,13,103,1080071,,,,,,,2024-06-07,1,,,,,ワンライフウェル,0
2443,9010403032770,新規,0,2024-06-07,2024-06-07,合同会社ＬｉＢｅ,,合同会社,東京都,港区,北青山１丁目３－３三橋ビル６階,,13,103,1070061,,,,,,,2024-06-07,1,,,,,リーベ,0
2452,9010603010865,新規,0,2024-06-07,2024-06-07,Ｃｙｃｒｕｘ　Ｊａｐａｎ合同会社,,合同会社,東京都,江東区,豊洲３丁目４―１―１４０１,,13,108,1350061,,,,,,,2024-06-07,1,,,,,サイクラックスジャパン,0
2453,9010603010881,新規,0,2024-06-07,2024-06-07,ｗｅｂ人合同会社,,合同会社,東京都,江東区,千石２丁目３－４０クボビル１０２,,13,108,1350015,,,,,,,2024-06-07,1,,,,,ウェブンチュ,0
2467,9011001162464,新規,0,2024-06-07,2024-06-07,株式会社Ｅｎ‐Ｂｒｉｄｇｅ,,株式会社,東京都,渋谷区,恵比寿西２丁目４番８号ウィンド恵比寿ビル８Ｆ,,13,113,1500021,,,,,,,2024-06-07,1,,,,,インブリッジ,0
2468,9011001162480,新規,0,2024-06-07,2024-06-07,株式会社Ｃｏｌｏｒｆｕｌ　Ｐａｌｅｔｔｅ　ＥＮＣＯＲＥ,,株式会社,東京都,渋谷区,宇田川町４０番１号,,13,113,1500042,,,,,,,2024-06-07,1,,,,,カラフルパレットアンコール,0
2469,9011001162489,新規,0,2024-06-07,2024-06-07,メノア株式会社,,株式会社,東京都,渋谷区,渋谷１丁目１番３号アミーホール,,13,113,1500002,,,,,,,2024-06-07,1,,,,,メノア,0
2470,9011001162497,新規,0,2024-06-07,2024-06-07,株式会社４ＯＰＵＳ,,株式会社,東京都,渋谷区,神宮前３丁目３０番１２号,,13,113,1500001,,,,,,,2024-06-07,1,,,,,フォーオーパス,0
2471,9011003019340,新規,0,2024-06-07,2024-06-07,Ｙｏｕｒ　Ｖｏｉｃｅ合同会社,,合同会社,東京都,渋谷区,神宮前６丁目２３番４号桑野ビル２階,,13,113,1500001,,,,,,,2024-06-07,1,,,,,,0
2477,9011101107575,新規,0,2024-06-07,2024-06-07,株式会社ＫＩＮＪＯ,,株式会社,東京都,新宿区,南元町２０番地３ガーデンヒルズ四ツ谷迎賓の森４１７,,13,104,1600012,,,,,,,2024-06-07,1,,,,,キンジョウ,0
2478,9011101107591,新規,0,2024-06-07,2024-06-07,Ｗｅａｌｔｈｙ　Ｌｉｆｅ　Ｊａｐａｎ株式会社,,株式会社,東京都,新宿区,西新宿４丁目２５番１６センチュリー西新宿２０１号,,13,104,1600023,,,,,,,2024-06-07,1,,,,,ウェルシライフジャパン,0
2481,9011301029727,新規,0,2024-06-07,2024-06-07,株式会社装蹄の会,,株式会社,東京都,杉並区,高井戸東４丁目７番１２号,,13,115,1680072,,,,,,,2024-06-07,1,,,,,,0
2482,9011301029743,新規,0,2024-06-07,2024-06-07,株式会社擇居ＩＮ‐Ｊａｐａｎ,,株式会社,東京都,杉並区,高円寺南２丁目１番４－４０４号シャンボール新高円寺,,13,115,1660003,,,,,,,2024-06-07,1,,,,,タッキョインジャパン,0
2490,9011503006094,新規,0,2024-06-07,2024-06-07,コスチュームアンド合同会社,,合同会社,東京都,荒川区,東日暮里６丁目１８－７,,13,118,1160014,,,,,,,2024-06-07,1,,,,,コスチュームアンド,0
2499,9012801023244,新規,0,2024-06-07,2024-06-07,株式会社シンクワールド,,株式会社,東京都,国立市,西２丁目１５番地の４５,,13,215,1860005,,,,,,,2024-06-07,1,,,,,シンクワールド,0
2509,9020001157390,新規,0,2024-06-07,2024-06-07,タカラ株式会社,,株式会社,神奈川県,横浜市南区,蒔田町字伊勢山８４８番地１,,14,105,2320043,,,,,,,2024-06-07,1,,,,,タカラ,0
2510,9020001157622,新規,0,2024-06-07,2024-06-07,株式会社オルオルプロデュース,,株式会社,神奈川県,横浜市西区,北幸２丁目１０番４８号むつみビル３階,,14,103,2200004,,,,,,,2024-06-07,1,,,,,オルオルプロデュース,0
2523,9030001160641,新規,0,2024-06-07,2024-06-07,縁インターナショナル株式会社,,株式会社,埼玉県,川口市,西川口１丁目８番地５－５階,,11,203,3320021,,,,,,,2024-06-07,1,,,,,エニシインターナショナル,0
2524,9030001160724,新規,0,2024-06-07,2024-06-07,ＡＰＩＸＩＳ株式会社,,株式会社,埼玉県,上尾市,大字大谷本郷９４５番地１４,,11,219,3620044,,,,,,,2024-06-07,1,,,,,アピクシス,0
2525,9030001160773,新規,0,2024-06-07,2024-06-07,株式会社アップスマイル,,株式会社,埼玉県,春日部市,小渕１１８番地１ＮＩＣＥ・ＵＲＢＡＮ春日部５０２号,,11,214,3440007,,,,,,,2024-06-07,1,,,,,アップスマイル,0
2526,9030001160781,新規,0,2024-06-07,2024-06-07,株式会社ＳＵＳＨＩ　Ｘ,,株式会社,埼玉県,川口市,大字東内野５６５－１５,,11,203,3330821,,,,,,,2024-06-07,1,,,,,スシエックス,0
2535,9040001133935,新規,0,2024-06-07,2024-06-07,ゾック株式会社,,株式会社,千葉県,柏市,若柴１７８番地４柏の葉キャンパス１４８街区１ザ・ゲートタワーウェスト３階,,12,217,2770871,,,,,,,2024-06-07,1,,,,,ゾック,0
2546,9050003008432,新規,0,2024-06-07,2024-06-07,ｓｌｉｃｅ　ｏｆ　ｊａｐａｎ合同会社,,合同会社,茨城県,古河市,東山田５８１－８フラップタウンＣ‐１４棟２階Ｅ号室,,08,204,3060112,,,,,,,2024-06-07,1,,,,,スライスオフジャパン,0
2554,9100001037535,新規,0,2024-06-07,2024-06-07,Ａ＆Ｓ株式会社,,株式会社,長野県,北佐久郡軽井沢町,大字長倉字長倉山５８２７番地１１２,,20,321,3890111,,,,,,,2024-06-07,1,,,,,エイアンドエス,0
2555,9100001037543,新規,0,2024-06-07,2024-06-07,株式会社ＡＭＧ,,株式会社,長野県,松本市,筑摩１丁目１３番２０号宏栄筑摩ビル３０４,,20,202,3900821,,,,,,,2024-06-07,1,,,,,エーエムジー,0
2569,9120001265588,新規,0,2024-06-07,2024-06-07,星悦トラベル株式会社,,株式会社,大阪府,大阪市東住吉区,東田辺３丁目１－１－１Ｆ－Ｇ,,27,121,5460032,,,,,,,2024-06-07,1,,,,,セイエツトラベル,0
2570,9120001265638,新規,0,2024-06-07,2024-06-07,山元株式会社,,株式会社,大阪府,大阪市西区,江戸堀１丁目２３番１９－８０６号,,27,106,5500002,,,,,,,2024-06-07,1,,,,,ヤマモト,0
2571,9120001265654,新規,0,2024-06-07,2024-06-07,株式会社Ｒｅｌｕｘ　ｍａｎａｇｅｍｅｎｔｓ,,株式会社,大阪府,大阪市大正区,泉尾５丁目１番１０号,,27,108,5510031,,,,,,,2024-06-07,1,,,,,リラックスマネジメント,0
2572,9120001265679,新規,0,2024-06-07,2024-06-07,株式会社Ｔｗｉｎ,,株式会社,大阪府,大阪市北区,堂山町８－２１石本ビル３０１,,27,127,5300027,,,,,,,2024-06-07,1,,,,,ツイン,0
2573,9120001265794,新規,0,2024-06-07,2024-06-07,株式会社Ｒｅｇｅｃ,,株式会社,大阪府,大阪市生野区,勝山南３丁目９－１８,,27,116,5440021,,,,,,,2024-06-07,1,,,,,リージェック,0
2575,9120003026773,新規,0,2024-06-07,2024-06-07,合同会社Ｌ‐ｗｏｒｋｓ,,合同会社,大阪府,大阪市此花区,酉島３丁目７番６号,,27,104,5540051,,,,,,,2024-06-07,1,,,,,エルワークス,0
2577,9120903005208,新規,0,2024-06-07,2024-06-07,ｍａｋｅ‐ｉ合同会社,,合同会社,大阪府,茨木市,戸伏町１２番８号,,27,211,5670814,,,,,,,2024-06-07,1,,,,,メイクアイ,0
2580,9130001077231,新規,0,2024-06-07,2024-06-07,株式会社ヘルメディック,,株式会社,京都府,京都市下京区,葛籠屋町５０７－２－２０２,,26,106,6008085,,,,,,,2024-06-07,1,,,,,ヘルメディック,0
2581,9130001077248,新規,0,2024-06-07,2024-06-07,株式会社Ｘ,,株式会社,京都府,京都市南区,久世上久世町１３６番地８,,26,107,6018212,,,,,,,2024-06-07,1,,,,,クロス,0
2582,9130003009620,新規,0,2024-06-07,2024-06-07,合同会社Ｒｉｔｚ,,合同会社,京都府,宇治市,木幡御蔵山３９番地の１００７,,26,204,6110002,,,,,,,2024-06-07,1,,,,,リッツ,0
2609,9180001161807,新規,0,2024-06-07,2024-06-07,株式会社イノヴェント,,株式会社,愛知県,名古屋市中村区,名駅３丁目４番１０号アルティメイト名駅１ｓｔ２階,,23,105,4500002,,,,,,,2024-06-07,1,,,,,イノヴェント,0
2610,9180001161815,新規,0,2024-06-07,2024-06-07,藤和設計株式会社,,株式会社,愛知県,名古屋市守山区,小幡常燈１番１２号（エスポア千代田１０６号）,,23,113,4630047,,,,,,,2024-06-07,1,,,,,トウワセッケイ,0
2611,9180001161823,新規,0,2024-06-07,2024-06-07,ＩＴＩ株式会社,,株式会社,愛知県,名古屋市西区,名駅２丁目２７番８号,,23,104,4510045,,,,,,,2024-06-07,1,,,,,アイティーアイ,0
2612,9180001161831,新規,0,2024-06-07,2024-06-07,株式会社＿,00135059,株式会社,愛知県,名古屋市中村区,名駅４丁目２１番６号,,23,105,4500002,,,,,,,2024-06-07,1,,,,,ゴマメ,0
2613,9180001161848,新規,0,2024-06-07,2024-06-07,株式会社韓飛ジャパン,,株式会社,愛知県,名古屋市中区,丸の内３丁目２０番２０号,,23,106,4600002,,,,,,,2024-06-07,1,,,,,ハンビジャパン,0
2614,9180001161856,新規,0,2024-06-07,2024-06-07,株式会社ビサイド,,株式会社,愛知県,あま市,本郷花ノ木１６番地,,23,237,4901116,,,,,,,2024-06-07,1,,,,,ビサイド,0
2615,9180003026900,新規,0,2024-06-07,2024-06-07,ＴＡＩ　ＰＨＡＴ合同会社,,合同会社,愛知県,名古屋市東区,葵３丁目３番８－６０７号,,23,102,4610004,,,,,,,2024-06-07,1,,,,,タイファット,0
2616,9180003026909,新規,0,2024-06-07,2024-06-07,ＴＨＩＥＮ　ＡＮ合同会社,,合同会社,愛知県,名古屋市熱田区,新尾頭１丁目１番１２号マルトウビル２０６号室,,23,109,4560018,,,,,,,2024-06-07,1,,,,,ティエンアン,0
2620,9180301038705,新規,0,2024-06-07,2024-06-07,ＨＥＲＺ株式会社,,株式会社,愛知県,豊橋市,南小池町１１４番地,,23,201,4418044,,,,,,,2024-06-07,1,,,,,ヘルツ,0
2634,9240001063344,新規,0,2024-06-07,2024-06-07,株式会社Ｒｏｋｕ　Ｊａｐａｎ,,株式会社,広島県,福山市,松永町６丁目１０番３９－４０５号,,34,207,7290104,,,,,,,2024-06-07,1,,,,,ロクジャパン,0
2635,9240001063352,新規,0,2024-06-07,2024-06-07,株式会社ｓｉｒｏ,,株式会社,広島県,広島市安佐南区,長束西２丁目２９番１５号,,34,105,7310136,,,,,,,2024-06-07,1,,,,,シロ,0
2641,9260003004724,新規,0,2024-06-07,2024-06-07,合同会社二十二鈴,,合同会社,岡山県,倉敷市,児島田の口２丁目１番８号リヴィエール３０２,,33,202,7110903,,,,,,,2024-06-07,1,,,,,ニジュウニリン,0
2642,9260003004740,新規,0,2024-06-07,2024-06-07,合同会社三十一鈴,,合同会社,岡山県,高梁市,川上町七地１８６２番地,,33,209,7160202,,,,,,,2024-06-07,1,,,,,サンジュウイチリン,0
2643,9260003004781,新規,0,2024-06-07,2024-06-07,合同会社ファンファーレ,,合同会社,岡山県,岡山市中区,新京橋３丁目８―３,,33,102,7038294,,,,,,,2024-06-07,1,,,,,ファンファーレ,0
2648,9290001106008,新規,0,2024-06-07,2024-06-07,株式会社中山商店,,株式会社,福岡県,福岡市中央区,六本松３丁目１２番１６－７０１号,,40,133,8100044,,,,,,,2024-06-07,1,,,,,ナカヤマショウテン,0
2649,9290001106057,新規,0,2024-06-07,2024-06-07,株式会社Ｌｉｔｔｌｅ　Ｃａｌｍ,,株式会社,福岡県,福岡市中央区,地行４丁目１０番２２号,,40,133,8100064,,,,,,,2024-06-07,1,,,,,リトルカーム,0
2650,9290001106065,新規,0,2024-06-07,2024-06-07,株式会社エミグッドマーケティング,,株式会社,福岡県,福岡市博多区,博多駅前１丁目２３番２号－５Ｆ－Ｂ,,40,132,8120011,,,,,,,2024-06-07,1,,,,,エミグッドマーケティング,0
2651,9290003015413,新規,0,2024-06-07,2024-06-07,合同会社ひとつの光,,合同会社,福岡県,福岡市南区,警弥郷２丁目１１番２３号,,40,134,8111324,,,,,,,2024-06-07,1,,,,,ヒトツノヒカリ,0
2659,9320003004387,新規,0,2024-06-07,2024-06-07,合同会社４ｓｉｄｅ,,合同会社,大分県,中津市,７６１番地,,44,203,8710099,,,,,,,2024-06-07,1,,,,,フォーサイド,0
2662,9330001032141,新規,0,2024-06-07,2024-06-07,株式会社熊本リゾート,,株式会社,熊本県,熊本市中央区,水前寺公園７番４３号,,43,101,8620956,,,,,,,2024-06-07,1,,,,,クマモトリゾート,0
2668,9340001026563,新規,0,2024-06-07,2024-06-07,株式会社くめビレッジ,,株式会社,鹿児島県,鹿屋市,笠之原町２６５１番１０,,46,203,8930023,,,,,,,2024-06-07,1,,,,,クメビレッジ,0
2677,9370001051377,新規,0,2024-06-07,2024-06-07,株式会社ビックチルドレン,,株式会社,宮城県,仙台市泉区,将監１１丁目１１番７－１号,,04,105,9813132,,,,,,,2024-06-07,1,,,,,ビックチルドレン,0
2678,9370003006643,新規,0,2024-06-07,2024-06-07,合同会社ＮＡＭＣＯ,,合同会社,宮城県,仙台市青葉区,大町１丁目１番１０－２２０３号,,04,101,9800804,,,,,,,2024-06-07,1,,,,,ナムコ,0
2680,9380001034587,新規,0,2024-06-07,2024-06-07,株式会社イナガワ塗装,,株式会社,福島県,白河市,表郷河東田字天王下８４番地,,07,205,9610409,,,,,,,2024-06-07,1,,,,,イナガワトソウ,0
2688,9430001091929,新規,0,2024-06-07,2024-06-07,株式会社Ｌａｓｈｅ＆Ｃｏ．,,株式会社,北海道,江別市,新栄台５１番地の２０,,01,217,0690806,,,,,,,2024-06-07,1,,,,,ラッシュアンドコー,0
2689,9430001091945,新規,0,2024-06-07,2024-06-07,株式会社計制,,株式会社,北海道,札幌市清田区,里塚緑ケ丘２丁目２番１０号,,01,110,0040805,,,,,,,2024-06-07,1,,,,,ケイセイ,0
2693,9430003016421,新規,0,2024-06-07,2024-06-07,合同会社Ｇｉｒａｆｆｅ,,合同会社,北海道,札幌市中央区,大通東３丁目４番地１オフィス大通１０階,,01,101,0600041,,,,,,,2024-06-07,1,,,,,ジラフ,0
