sequenceNumber,corporateNumber,process,correct,updateDate,changeDate,name,nameImageId,kind,prefectureName,cityName,streetNumber,addressImageId,prefectureCode,cityCode,postCode,addressOutside,addressOutsideImageId,closeDate,closeCause,successorCorporateNumber,changeCause,assignmentDate,latest,enName,enPrefectureName,enCityName,enAddressOutside,furigana,hihyoji
5,1010001240254,新規,0,2023-11-22,2023-11-22,株式会社ＳＴＯＣＫ１３８,,株式会社,東京都,千代田区,永田町２丁目１２番４号,,13,101,1000014,,,,,,,2023-11-22,1,,,,,ストックヒャクサンジュウハチ,0
8,1010005037556,新規,0,2023-11-22,2023-11-22,一般社団法人神戸山田ソーラー,,その他の設立登記法人,東京都,中央区,日本橋１丁目４番１号,,13,102,1030027,,,,,,,2023-11-22,1,,,,,コウベヤマダソーラー,0
13,1010401178656,新規,0,2023-11-22,2023-11-22,株式会社ＲＡＹＤＢＡＣＫ,,株式会社,東京都,港区,麻布十番２丁目１２番５－１０３号コンフォート麻布,,13,103,1060045,,,,,,,2023-11-22,1,,,,,レイドバック,0
14,1010401178664,新規,0,2023-11-22,2023-11-22,セロリ株式会社,,株式会社,東京都,港区,六本木３丁目３番６号３階,,13,103,1060032,,,,,,,2023-11-22,1,,,,,セロリ,0
15,1010401178689,新規,0,2023-11-22,2023-11-22,ＬＳ‐ＳＨＩＰ第５０号株式会社,,株式会社,東京都,港区,六本木１丁目６番１号,,13,103,1060032,,,,,,,2023-11-22,1,,,,,エルエスシップダイゴジュウゴウ,0
18,1010403031425,新規,0,2023-11-22,2023-11-22,ジュピターＳＰＶ合同会社,,合同会社,東京都,港区,六本木１丁目１０番３－９０１号スウェーデン大使館ビル内,,13,103,1060032,,,,,,,2023-11-22,1,,,,,ジュピターエスピーブイ,0
20,1010501051408,新規,0,2023-11-22,2023-11-22,株式会社グローバル信,,株式会社,東京都,台東区,小島１丁目１２番１号,,13,106,1110056,,,,,,,2023-11-22,1,,,,,グローバルシン,0
36,1011101032079,新規,0,2023-11-22,2023-11-22,株式会社キネシオ,,株式会社,東京都,新宿区,坂町２５番１号,,13,104,1600000,,,,,,,2023-11-22,1,,,,,,0
45,1011301029197,新規,0,2023-11-22,2023-11-22,株式会社ＳＴＥＣコンサルツ,,株式会社,東京都,杉並区,天沼３丁目５番１２号ボナール・荻窪２０３,,13,115,1670032,,,,,,,2023-11-22,1,,,,,エステックコンサルツ,0
48,1011403004180,新規,0,2023-11-22,2023-11-22,合同会社宮勝,,合同会社,東京都,板橋区,前野町６丁目４８番１号,,13,119,1740063,,,,,,,2023-11-22,1,,,,,ミヤカツ,0
49,1011503005855,新規,0,2023-11-22,2023-11-22,ＴＡＳ合同会社,,合同会社,東京都,荒川区,西尾久７丁目１１番１２号２Ｆ－Ｂ室,,13,118,1160011,,,,,,,2023-11-22,1,,,,,ティーエーエス,0
51,1011703003667,新規,0,2023-11-22,2023-11-22,ＳＵＭＩＯＮ合同会社,,合同会社,東京都,江戸川区,瑞江１丁目９－１６－２Ｆ,,13,123,1320011,,,,,,,2023-11-22,1,,,,,スミオン,0
54,1011801043375,新規,0,2023-11-22,2023-11-22,株式会社クロストレード,,株式会社,東京都,足立区,千住旭町３８番１号,,13,121,1200026,,,,,,,2023-11-22,1,,,,,クロストレード,0
55,1011801043391,新規,0,2023-11-22,2023-11-22,ルーム・リ・クリエーション株式会社,,株式会社,東京都,葛飾区,東堀切１丁目１９番１５号ＪＡＳＰＡＲＯＳＡＩ、３０５,,13,122,1240004,,,,,,,2023-11-22,1,,,,,ルームリクリエーション,0
59,1012401041249,新規,0,2023-11-22,2023-11-22,株式会社リアール,,株式会社,東京都,三鷹市,中原１丁目１０番１号,,13,204,1810005,,,,,,,2023-11-22,1,,,,,リアール,0
60,1012403006290,新規,0,2023-11-22,2023-11-22,合同会社アンジュール,,合同会社,東京都,府中市,片町３丁目２３番地の１６－２０３,,13,206,1830021,,,,,,,2023-11-22,1,,,,,アンジュール,0
61,1012702000639,新規,0,2023-11-22,2023-11-22,工藤建設有限会社,,有限会社,東京都,小平市,大沼町２丁目８９４番地の３,,13,211,1870001,,,,,,,2023-11-22,1,,,,,クドウケンセツ,0
73,1020001154577,新規,0,2023-11-22,2023-11-22,株式会社ＳＨＡＤＡＬＯＯ,,株式会社,神奈川県,横浜市西区,岡野１丁目９－６岡野町ビル３０２,,14,103,2200073,,,,,,,2023-11-22,1,,,,,シャドルー,0
80,1020003025025,新規,0,2023-11-22,2023-11-22,合同会社ＣＯＯ,,合同会社,神奈川県,横浜市都筑区,川和町２２０９番地３,,14,118,2240057,,,,,,,2023-11-22,1,,,,,クー,0
81,1020003025033,新規,0,2023-11-22,2023-11-22,みかげ合同会社,,合同会社,神奈川県,川崎市高津区,久末１５３８番地３,,14,134,2130026,,,,,,,2023-11-22,1,,,,,ミカゲ,0
82,1020003025041,新規,0,2023-11-22,2023-11-22,合同会社８２７,,合同会社,神奈川県,横浜市戸塚区,秋葉町４９５－２７,,14,110,2450052,,,,,,,2023-11-22,1,,,,,ハチニナナ,0
84,1021001080796,新規,0,2023-11-22,2023-11-22,ＪＩＴ　Ｌａｂ株式会社,,株式会社,神奈川県,鎌倉市,台２丁目８番１４－１０５号,,14,204,2470061,,,,,,,2023-11-22,1,,,,,ジェーアイティーラボ,0
88,1021003013820,新規,0,2023-11-22,2023-11-22,合同会社東和通商,,合同会社,神奈川県,藤沢市,村岡東２丁目１０２番地の３９,,14,205,2510012,,,,,,,2023-11-22,1,,,,,トウワツウショウ,0
89,1021005012944,新規,0,2023-11-22,2023-11-22,一般社団法人小田原オペラ,,その他の設立登記法人,神奈川県,小田原市,曽比１８８５番地の１,,14,206,2500851,,,,,,,2023-11-22,1,,,,,オダワラオペラ,0
98,1030003023044,新規,0,2023-11-22,2023-11-22,林合同会社,,合同会社,埼玉県,川口市,西川口１丁目３０番２０号１Ｆ,,11,203,3320021,,,,,,,2023-11-22,1,,,,,ハヤシ,0
99,1030005021483,新規,0,2023-11-22,2023-11-22,Ｍ’ｚ　ｇｌｏｂａｌ協同組合,,その他の設立登記法人,埼玉県,加須市,中樋遣川２２００番地,00132768,11,210,3470008,,,,,,,2023-11-22,1,,,,,エムゼットグローバル,0
103,1040001131038,新規,0,2023-11-22,2023-11-22,ゼロワン株式会社,,株式会社,千葉県,船橋市,東船橋５丁目６番１－７０５号,,12,204,2730002,,,,,,,2023-11-22,1,,,,,ゼロワン,0
104,1040001131079,新規,0,2023-11-22,2023-11-22,株式会社ボーサイプラス,,株式会社,千葉県,千葉市中央区,蘇我４丁目９番３号,,12,101,2600822,,,,,,,2023-11-22,1,,,,,ボーサイプラス,0
105,1040003023778,新規,0,2023-11-22,2023-11-22,合同会社Ｍ＆Ｎプロジェクト,,合同会社,千葉県,千葉市中央区,生実町１７１１番地１,,12,101,2600813,,,,,,,2023-11-22,1,,,,,エムアンドエヌプロジェクト,0
110,1040005022209,新規,0,2023-11-22,2023-11-22,一般社団法人結心,,その他の設立登記法人,千葉県,市原市,天羽田９０７番地,,12,219,2990126,,,,,,,2023-11-22,1,,,,,ユウシン,0
112,1050001053867,新規,0,2023-11-22,2023-11-22,株式会社ｈｏｍｅ,,株式会社,茨城県,水戸市,笠原町１５４１番地１８,,08,201,3100852,,,,,,,2023-11-22,1,,,,,ホーム,0
113,1050003007961,新規,0,2023-11-22,2023-11-22,合同会社ＨＯＰＥ,,合同会社,茨城県,つくば市,並木３丁目１２番地１６,,08,220,3050044,,,,,,,2023-11-22,1,,,,,,0
119,1070001041102,新規,0,2023-11-22,2023-11-22,株式会社Ｏｐｔ　Ｌｉｖｅｌｙ,,株式会社,群馬県,高崎市,連雀町１０９,,10,202,3700826,,,,,,,2023-11-22,1,,,,,,0
120,1070005010193,新規,0,2023-11-22,2023-11-22,特定非営利活動法人トイファクトリー,,その他の設立登記法人,群馬県,前橋市,大友町３丁目２４番１号ＨＯＴＥＬ１－２－３前橋マーキュリーＥＡＳＴ７Ｆ,,10,201,3710847,,,,,,,2023-11-22,1,,,,,,0
124,1080101024352,新規,0,2023-11-22,2023-11-22,ＰＮＴ株式会社,,株式会社,静岡県,富士市,大淵４８番地の５７,,22,210,4170801,,,,,,,2023-11-22,1,,,,,ピーエヌティー,0
126,1090001018429,新規,0,2023-11-22,2023-11-22,株式会社Ａｘｉｓ,,株式会社,山梨県,山梨市,大野１０５７番地５,,19,205,4050016,,,,,,,2023-11-22,1,,,,,アクシス,0
127,1090003002430,新規,0,2023-11-22,2023-11-22,合同会社ＹＳＲ,,合同会社,山梨県,甲府市,徳行１丁目１１番５号,,19,201,4000047,,,,,,,2023-11-22,1,,,,,ワイエスアール,0
129,1100003007279,新規,0,2023-11-22,2023-11-22,合同会社ＴｏＫｉｎｉ,,合同会社,長野県,長野市,三輪５丁目４０番７号,,20,201,3800803,,,,,,,2023-11-22,1,,,,,トキニ,0
132,1110001037987,新規,0,2023-11-22,2023-11-22,株式会社ｋａｓｅ,,株式会社,新潟県,長岡市,寺泊田頭７０４番地４,,15,202,9402523,,,,,,,2023-11-22,1,,,,,カセ,0
141,1120001259944,新規,0,2023-11-22,2023-11-22,株式会社ＶＡＬＬＥＳ,,株式会社,大阪府,大阪市中央区,東心斎橋１丁目１５番２１－２０３号,,27,128,5420083,,,,,,,2023-11-22,1,,,,,バレス,0
142,1120001259969,新規,0,2023-11-22,2023-11-22,株式会社ａｄｂｏｎｈｅｕｒ,,株式会社,大阪府,大阪市西区,新町１丁目６番２２号新町新興産ビル４－Ｂ,,27,106,5500013,,,,,,,2023-11-22,1,,,,,アドボヌール,0
143,1120001260035,新規,0,2023-11-22,2023-11-22,株式会社ジョイフレーム,,株式会社,大阪府,大阪市北区,梅田１丁目２番地２号大阪駅前第２ビル１２－１２,,27,127,5300001,,,,,,,2023-11-22,1,,,,,ジョイフレーム,0
144,1120001260051,新規,0,2023-11-22,2023-11-22,白雪株式会社,,株式会社,大阪府,大阪市旭区,赤川１丁目５番１３号天理マンション４０２,,27,117,5350005,,,,,,,2023-11-22,1,,,,,シラユキ,0
145,1120001260084,新規,0,2023-11-22,2023-11-22,株式会社つみき,,株式会社,大阪府,守口市,大日東町４番Ｅ－５０５号,,27,209,5700016,,,,,,,2023-11-22,1,,,,,ツミキ,0
149,1120005024007,新規,0,2023-11-22,2023-11-22,一般社団法人医継会,,その他の設立登記法人,大阪府,大阪市天王寺区,玉造本町５番１７号グランデカワノ真田山７０３号,,27,109,5430013,,,,,,,2023-11-22,1,,,,,イケイカイ,0
153,1120101068568,新規,0,2023-11-22,2023-11-22,株式会社ミライズ,,株式会社,大阪府,堺市堺区,緑ヶ丘中町２丁３番１５号,,27,141,5900805,,,,,,,2023-11-22,1,,,,,ミライズ,0
162,1130001075795,新規,0,2023-11-22,2023-11-22,株式会社菖蒲一翔,,株式会社,京都府,八幡市,八幡馬場６６番地の２ＤＫマンション２０２号室,,26,210,6148085,,,,,,,2023-11-22,1,,,,,ショウブイッショウ,0
165,1140001132422,新規,0,2023-11-22,2023-11-22,株式会社ＤＵＧＯＵＴ,,株式会社,兵庫県,神戸市中央区,山本通２丁目９番１９号旧スタデニック邸,,28,110,6500003,,,,,,,2023-11-22,1,,,,,ダグアウト,0
166,1140001132430,新規,0,2023-11-22,2023-11-22,株式会社創祐,,株式会社,兵庫県,たつの市,揖保町門前３６９番地１,,28,229,6794153,,,,,,,2023-11-22,1,,,,,ソウユウ,0
167,1140001132439,新規,0,2023-11-22,2023-11-22,株式会社カタパルト,,株式会社,兵庫県,神戸市北区,広陵町１丁目１６２番地の１、５０４号,,28,109,6511213,,,,,,,2023-11-22,1,,,,,カタパルト,0
171,1150001026895,新規,0,2023-11-22,2023-11-22,株式会社ｔｅｎ,,株式会社,奈良県,磯城郡田原本町,２３６番地,,29,363,6360300,,,,,,,2023-11-22,1,,,,,テン,0
173,1170001017892,新規,0,2023-11-22,2023-11-22,株式会社イツミ,,株式会社,和歌山県,東牟婁郡太地町,大字太地３３５８番地,,30,422,6495171,,,,,,,2023-11-22,1,,,,,イツミ,0
182,1180001159016,新規,0,2023-11-22,2023-11-22,Ｍ・Ａ・Ｙトランス株式会社,,株式会社,愛知県,名古屋市西区,野南町６１番地,,23,104,4520847,,,,,,,2023-11-22,1,,,,,エムエーワイトランス,0
183,1180001159049,新規,0,2023-11-22,2023-11-22,株式会社ｆｅａｔ　ｉｎｔｅｒｎａｔｉｏｎａｌ,,株式会社,愛知県,名古屋市中区,新栄３丁目２２番２５号コートアクシス新栄２０２号,,23,106,4600007,,,,,,,2023-11-22,1,,,,,フィートインターナショナル,0
184,1180001159057,新規,0,2023-11-22,2023-11-22,株式会社ＩＮＧＳ,,株式会社,愛知県,江南市,村久野町仲原２３番地,,23,217,4838326,,,,,,,2023-11-22,1,,,,,イングス,0
189,1180301038043,新規,0,2023-11-22,2023-11-22,名海国際株式会社,,株式会社,愛知県,豊田市,小坂本町１丁目５番地５ＹＡＭＡＴＯＢＬＤＧ２階,,23,211,4710034,,,,,,,2023-11-22,1,,,,,メイカイコクサイ,0
190,1180301038051,新規,0,2023-11-22,2023-11-22,株式会社ｃｒｏｓｓ　ｓｉｄｅ,,株式会社,愛知県,豊橋市,東岩田３丁目３番地の８,,23,201,4400033,,,,,,,2023-11-22,1,,,,,クロスサイド,0
198,1200001041914,新規,0,2023-11-22,2023-11-22,株式会社ＭＯＲＥ,,株式会社,岐阜県,高山市,上岡本町８丁目４６４番地２,,21,203,5060055,,,,,,,2023-11-22,1,,,,,モア,0
203,1250003003387,新規,0,2023-11-22,2023-11-22,合同会社はなみどり,,合同会社,山口県,岩国市,由宇町千鳥ヶ丘２丁目８番１２号,,35,208,7401441,,,,,,,2023-11-22,1,,,,,ハナミドリ,0
209,1290003014620,新規,0,2023-11-22,2023-11-22,合同会社ｃｏ‐ｓｔａｒ,,合同会社,福岡県,福岡市南区,野多目４丁目１１－３２ＴＴＬ２０２号,,40,134,8111347,,,,,,,2023-11-22,1,,,,,コースター,0
210,1290003014637,新規,0,2023-11-22,2023-11-22,合同会社ＤＵＳＳＥ,,合同会社,福岡県,福岡市南区,大池１丁目２３番３６－１０２号エスポワール大池,,40,134,8150073,,,,,,,2023-11-22,1,,,,,ドゥーシー,0
211,1290801030059,新規,0,2023-11-22,2023-11-22,株式会社Ａｃｅ,,株式会社,福岡県,北九州市八幡西区,折尾３丁目１２－２３－１０１,,40,109,8070825,,,,,,,2023-11-22,1,,,,,エース,0
221,1310003004684,新規,0,2023-11-22,2023-11-22,合同会社世ノ中,,合同会社,長崎県,長崎市,上小島３丁目１１番２４号,,42,201,8500834,,,,,,,2023-11-22,1,,,,,ヨノナカ,0
223,1330001031489,新規,0,2023-11-22,2023-11-22,株式会社Ｋｌｙｔｈｍｅ,,株式会社,熊本県,上益城郡益城町,大字古閑４４１番地３,,43,443,8612234,,,,,,,2023-11-22,1,,,,,クリズム,0
224,1330001031497,新規,0,2023-11-22,2023-11-22,株式会社新大,,株式会社,熊本県,荒尾市,原万田８５番地６８,,43,204,8640001,,,,,,,2023-11-22,1,,,,,アラタ,0
225,1340001026091,新規,0,2023-11-22,2023-11-22,株式会社ＬＩＦＥ　ＮＥＸＴ　ＩＮＮＯＶＡＴＩＯＮ,,株式会社,鹿児島県,鹿児島市,冷水町１１番１５号,,46,201,8920855,,,,,,,2023-11-22,1,,,,,ライフネクストイノベーション,0
233,1370001050650,新規,0,2023-11-22,2023-11-22,株式会社幸建創業,,株式会社,宮城県,富谷市,富谷新町５１番地,,04,216,9813311,,,,,,,2023-11-22,1,,,,,コウケンソウギョウ,0
252,1430003015678,新規,0,2023-11-22,2023-11-22,合同会社Ｗｏｒｌｄ　Ｉｍａｇｉｎａｔｉｏｎ,,合同会社,北海道,札幌市厚別区,厚別南１丁目８番２８号,,01,108,0040022,,,,,,,2023-11-22,1,,,,,ワールドイマジネーション,0
253,1440003001561,新規,0,2023-11-22,2023-11-22,ＧＸｖ合同会社,,合同会社,北海道,函館市,元町１８番１４号,,01,202,0400054,,,,,,,2023-11-22,1,,,,,ジーエックスブイ,0
254,1450001014151,新規,0,2023-11-22,2023-11-22,株式会社Ａｌｌ　ｏｒ　Ｎｏｔｈｉｎｇ,,株式会社,北海道,旭川市,東光十一条３丁目４番１９号２Ｆ,,01,204,0788351,,,,,,,2023-11-22,1,,,,,,0
262,1700150122233,新規,0,2023-11-22,2023-11-22,Ｇｕａｎｇｚｈｏｕ　Ｋａｒｕｉ　Ｔｒａｄｉｎｇ　Ｃｏ．，Ｌｔｄ．,,外国会社等,,,,,,,,Ｒｏｏｍ　６１２，Ｎｏ．２６　Ｊｉｎｌｏｎｇ　Ｒｏａｄ，Ｎａｎｓｈａ　Ｄｉｓｔｒｉｃｔ，Ｇｕａｎｇｚｈｏｕ　Ｃｉｔｙ，ｓｅｌｆ‐ｍａｄｅ　Ａ０１７　（ｏｆｆｉｃｅ　ｏｎｌｙ）,,,,,,2023-11-22,1,,,,,グワンジヨウカールイマオイーヨウシエンゴンスー,0
263,1700150122241,新規,0,2023-11-22,2023-11-22,ＤＥＥＮＯ　ＥＮＥＲＧＹ　ＴＥＣＨＮＯＬＯＧＹ（ＨＯＮＧＫＯＮＧ）ＣＯ．，ＬＩＭＩＴＥＤ,,外国会社等,,,,,,,,ｊｉｕｌｏｎｇｊｉａｎｓｈａｚｕｉｑｉｘｉａｎｄａｏｎａｎ４５－５１ｈａｏ　ｑｉｓｈｉｄａｓｈａ　８０３ｓｈｉ　Ｘｉａｎｇｇａｎｇ　Ｘｉａｎｇｇａｎｇ　９９９０７７ＨＫ,,,,,,2023-11-22,1,,,,,ディーノンコージーシャンガンヨウシエンゴンスー,0
270,2010001240187,新規,0,2023-11-22,2023-11-22,株式会社エスナビ,,株式会社,東京都,中央区,八丁堀４丁目１１番２－３０１号,,13,102,1040032,,,,,,,2023-11-22,1,,,,,エスナビ,0
271,2010001240245,新規,0,2023-11-22,2023-11-22,ＰＯＲＴＢＡＣＫ株式会社,,株式会社,東京都,中央区,京橋３丁目３番１３号平和ビル３号館３Ｆ,,13,102,1040031,,,,,,,2023-11-22,1,,,,,ポートバック,0
272,2010001240253,新規,0,2023-11-22,2023-11-22,株式会社ＳＴＯＣＫ１３７,,株式会社,東京都,千代田区,永田町２丁目１２番４号,,13,101,1000014,,,,,,,2023-11-22,1,,,,,ストックヒャクサンジュウナナ,0
273,2010001240278,新規,0,2023-11-22,2023-11-22,敬洋国際物流ホールディングス株式会社,,株式会社,東京都,中央区,京橋２丁目２番１号,,13,102,1040031,,,,,,,2023-11-22,1,,,,,ケイヨウコクサイブツリュウホールディングス,0
274,2010003042276,新規,0,2023-11-22,2023-11-22,合同会社ソラチエース,,合同会社,東京都,中央区,日本橋１丁目４番１号日本橋一丁目ビルディング,,13,102,1030027,,,,,,,2023-11-22,1,,,,,ソラチエース,0
275,2010005037555,新規,0,2023-11-22,2023-11-22,一般社団法人神戸ソーラー,,その他の設立登記法人,東京都,中央区,日本橋１丁目４番１号,,13,102,1030027,,,,,,,2023-11-22,1,,,,,コウベソーラー,0
286,2010401178597,新規,0,2023-11-22,2023-11-22,株式会社Ｎ‐ＳＴＥＰ,,株式会社,東京都,港区,赤坂２丁目１３－３レックス赤坂レジデンス６０５,,13,103,1070052,,,,,,,2023-11-22,1,,,,,エヌステップ,0
287,2010401178622,新規,0,2023-11-22,2023-11-22,Ｆｏｓｕｎ　Ｃａｐｉｔａｌ　Ｊａｐａｎ株式会社,,株式会社,東京都,港区,赤坂２丁目５番１号Ｓ－ＧＡＴＥ赤坂山王４階,,13,103,1070052,,,,,,,2023-11-22,1,,,,,フォースンキャピタルジャパン,0
288,2010401178688,新規,0,2023-11-22,2023-11-22,ＬＳ‐ＳＨＩＰ第４９号株式会社,,株式会社,東京都,港区,六本木１丁目６番１号,,13,103,1060032,,,,,,,2023-11-22,1,,,,,エルエスシップダイヨンジュウキュウゴウ,0
289,2010403031432,新規,0,2023-11-22,2023-11-22,Ｔｗｏｏｄｓ合同会社,,合同会社,東京都,港区,六本木１丁目９番１８－１００１号,,13,103,1060032,,,,,,,2023-11-22,1,,,,,トゥーズ,0
294,2010501051407,新規,0,2023-11-22,2023-11-22,株式会社ベストゾーン,,株式会社,東京都,台東区,東上野１丁目２２番１号宝華ビル３０１,,13,106,1100015,,,,,,,2023-11-22,1,,,,,ベストゾーン,0
295,2010501051415,新規,0,2023-11-22,2023-11-22,株式会社ＴＫ建築設計コンサルタント,,株式会社,東京都,台東区,上野７丁目３番９号アルベルゴ上野５２４,,13,106,1100005,,,,,,,2023-11-22,1,,,,,ティケイケンチクセッケイコンサルタント,0
301,2010901054224,新規,0,2023-11-22,2023-11-22,ミスタッキーマクドナッテリア株式会社,,株式会社,東京都,世田谷区,代田６丁目１５番１６号,,13,112,1550033,,,,,,,2023-11-22,1,,,,,ミスタッキーマクドナッテリア,0
302,2010901054232,新規,0,2023-11-22,2023-11-22,株式会社Ｙｅｌｌｏｗ　Ｓｔａｉｒｓ,,株式会社,東京都,世田谷区,大原１丁目２４－１平安ビル２階,,13,112,1560041,,,,,,,2023-11-22,1,,,,,イエローステアーズ,0
309,2011001158345,新規,0,2023-11-22,2023-11-22,株式会社Ｏｐｔｉｍｉｕｍ,,株式会社,東京都,渋谷区,神泉町１０番１５号,,13,113,1500045,,,,,,,2023-11-22,1,,,,,オプティミウム,0
316,2011201025056,新規,0,2023-11-22,2023-11-22,株式会社スペースタイム,,株式会社,東京都,中野区,東中野５丁目１１番８号,,13,114,1640003,,,,,,,2023-11-22,1,,,,,スペースタイム,0
317,2011303004965,新規,0,2023-11-22,2023-11-22,合同会社ＳＨＡＢＯＮＤＹ,,合同会社,東京都,杉並区,天沼１丁目１番１４号フォートレス・Ｓ・１０１,,13,115,1670032,,,,,,,2023-11-22,1,,,,,シャボンディ,0
318,2011401025624,新規,0,2023-11-22,2023-11-22,株式会社ヴェンジェンス,,株式会社,東京都,板橋区,蓮沼町３１番１号,,13,119,1740052,,,,,,,2023-11-22,1,,,,,ヴェンジェンス,0
321,2011503005854,新規,0,2023-11-22,2023-11-22,善食合同会社,,合同会社,東京都,荒川区,東尾久２丁目２番９号三祥ビル２３７,,13,118,1160012,,,,,,,2023-11-22,1,,,,,ゼンショク,0
322,2011603004145,新規,0,2023-11-22,2023-11-22,合同会社ＬＥＡＰ　ＭＡＬＬ,,合同会社,東京都,練馬区,桜台１丁目１２番５号,,13,120,1760002,,,,,,,2023-11-22,1,,,,,リープモール,0
324,2011701026792,新規,0,2023-11-22,2023-11-22,株式会社ＥＧＷ,,株式会社,東京都,江戸川区,南小岩８丁目１０番４号,,13,123,1330056,,,,,,,2023-11-22,1,,,,,イージーダブリュ,0
327,2011801043390,新規,0,2023-11-22,2023-11-22,株式会社マスマティクス・テクノロジー,,株式会社,東京都,足立区,西竹の塚１丁目１６番１２号,,13,121,1210822,,,,,,,2023-11-22,1,,,,,マスマティクステクノロジー,0
334,2012401041248,新規,0,2023-11-22,2023-11-22,共建興業株式会社,,株式会社,東京都,府中市,朝日町１丁目２２番地の２３,,13,206,1830003,,,,,,,2023-11-22,1,,,,,キョウケンコウギョウ,0
335,2012401041256,新規,0,2023-11-22,2023-11-22,株式会社Ａｎｗｅｌｌ,,株式会社,東京都,三鷹市,下連雀３丁目３６番１号－２１０１号室,,13,204,1810013,,,,,,,2023-11-22,1,,,,,アンウェル,0
343,2020001154576,新規,0,2023-11-22,2023-11-22,ＳＥＮＳＥ　ＯＦ　ＰＵＲＰＯＳＥ株式会社,,株式会社,神奈川県,横浜市港北区,新横浜２丁目１４－８オフィス新横浜２０８,,14,109,2220033,,,,,,,2023-11-22,1,,,,,センスオブパーパス,0
344,2020001154601,新規,0,2023-11-22,2023-11-22,ＯＡＫ環境衛生株式会社,,株式会社,神奈川県,横浜市中区,扇町３丁目８番４号日神ビル６Ｆ,,14,104,2310027,,,,,,,2023-11-22,1,,,,,オークカンキョウエイセイ,0
346,2020003025040,新規,0,2023-11-22,2023-11-22,Ｐａｒｉｓ　Ｋｉｋｏ合同会社,,合同会社,神奈川県,川崎市宮前区,土橋４丁目４番地５,,14,136,2160005,,,,,,,2023-11-22,1,,,,,パリキコ,0
347,2020003025057,新規,0,2023-11-22,2023-11-22,合同会社イシイ建物,,合同会社,神奈川県,横浜市保土ケ谷区,釜台町一丁目１２番地ルネス・カリヨン２０５,,14,106,2400066,,,,,,,2023-11-22,1,,,,,イシイタテモノ,0
349,2021001080804,新規,0,2023-11-22,2023-11-22,株式会社ひかり地所,,株式会社,神奈川県,藤沢市,鵠沼神明４丁目８番１０号１Ｆ,,14,205,2510021,,,,,,,2023-11-22,1,,,,,ヒカリジショ,0
359,2030001157280,新規,0,2023-11-22,2023-11-22,株式会社ＧＬ,,株式会社,埼玉県,ふじみ野市,築地２丁目１番地１８,,11,245,3560026,,,,,,,2023-11-22,1,,,,,ジーエル,0
362,2030003023035,新規,0,2023-11-22,2023-11-22,合同会社午王興業,,合同会社,埼玉県,ふじみ野市,仲１丁目２番３－２０３号,,11,245,3560025,,,,,,,2023-11-22,1,,,,,ゴボウコウギョウ,0
363,2030003023043,新規,0,2023-11-22,2023-11-22,合同会社ｂｌｏｕｔ,,合同会社,埼玉県,入間郡毛呂山町,岩井西２丁目２番地１２,,11,326,3500465,,,,,,,2023-11-22,1,,,,,ブルラウト,0
364,2030003023051,新規,0,2023-11-22,2023-11-22,アセットジャパン合同会社,,合同会社,埼玉県,草加市,両新田東町７７番地１１,,11,221,3400026,,,,,,,2023-11-22,1,,,,,アセットジャパン,0
369,2040001130971,新規,0,2023-11-22,2023-11-22,株式会社ＭＡＮＳＵＮ　ＣＵＬＴＵＲＥ,,株式会社,千葉県,旭市,鎌数１０４１４－３９,,12,215,2892505,,,,,,,2023-11-22,1,,,,,マンサンカルチャー,0
370,2040001131029,新規,0,2023-11-22,2023-11-22,ｃａｎｏｗ株式会社,,株式会社,千葉県,市川市,下新宿２２番６－３０３号,,12,203,2720102,,,,,,,2023-11-22,1,,,,,カナウ,0
371,2040001131045,新規,0,2023-11-22,2023-11-22,株式会社イチ興業,,株式会社,千葉県,船橋市,宮本１丁目２７番１１号,,12,204,2730003,,,,,,,2023-11-22,1,,,,,イチコウギョウ,0
372,2040003023769,新規,0,2023-11-22,2023-11-22,ＹＡＳＩＮＡ　ＴＲＡＤＩＮＧ合同会社,,合同会社,千葉県,山武市,松尾町借毛本郷２３００番地１サクセスランドＮｏ．６,,12,237,2891537,,,,,,,2023-11-22,1,,,,,ヤシナトレーディング,0
377,2050001053817,新規,0,2023-11-22,2023-11-22,ジェミニオート大子株式会社,,株式会社,茨城県,久慈郡大子町,大字矢田１３２９番地の３,,08,364,3193552,,,,,,,2023-11-22,1,,,,,,0
378,2050001053866,新規,0,2023-11-22,2023-11-22,株式会社ＣｌａｒｉＳ,,株式会社,茨城県,那珂郡東海村,村松北２丁目１番４６号Ｂ－１,,08,341,3191108,,,,,,,2023-11-22,1,,,,,クラリス,0
381,2060001036572,新規,0,2023-11-22,2023-11-22,アウル建設株式会社,,株式会社,栃木県,那須郡那須町,大字高久丙３２４０番地１８４,,09,407,3250302,,,,,,,2023-11-22,1,,,,,アウルケンセツ,0
389,2080001025994,新規,0,2023-11-22,2023-11-22,株式会社ＢＡＳＥ,,株式会社,静岡県,榛原郡吉田町,住吉５５４番地の１,,22,424,4210301,,,,,,,2023-11-22,1,,,,,ベース,0
392,2080003003098,新規,0,2023-11-22,2023-11-22,合同会社ストロング・ボイス,,合同会社,静岡県,静岡市葵区,鷹匠２丁目８番３－１００１号,,22,101,4200839,,,,,,,2023-11-22,1,,,,,ストロングボイス,0
405,2120001260050,新規,0,2023-11-22,2023-11-22,株式会社エディクス,,株式会社,大阪府,大阪市福島区,海老江１丁目５番３０－１２３３号,,27,103,5530001,,,,,,,2023-11-22,1,,,,,エディクス,0
406,2120001260059,新規,0,2023-11-22,2023-11-22,株式会社ＡＬＬ　ｉｎ,,株式会社,大阪府,大阪市北区,梅田１丁目２番２号大阪駅前第２ビル１２－１２,,27,127,5300001,,,,,,,2023-11-22,1,,,,,オールイン,0
411,2120005023981,新規,0,2023-11-22,2023-11-22,ＴＴＢ事業経営社会保険労務士法人,,その他の設立登記法人,大阪府,大阪市中央区,本町３丁目５番５号セントピア御堂筋本町ビル９階,,27,128,5410053,,,,,,,2023-11-22,1,,,,,ティーティービージギョウケイエイ,0
418,2122001037602,新規,0,2023-11-22,2023-11-22,株式会社げんき大阪,,株式会社,大阪府,八尾市,八尾木北５丁目７５番地の５－３０３号,,27,212,5810016,,,,,,,2023-11-22,1,,,,,ゲンキオオサカ,0
427,2140001132421,新規,0,2023-11-22,2023-11-22,株式会社Ｋ‐Ｆａｍｉｌｙ,,株式会社,兵庫県,姫路市,栗山町９０番地１００１号,,28,201,6700954,,,,,,,2023-11-22,1,,,,,ケーファミリー,0
429,2150003003124,新規,0,2023-11-22,2023-11-22,合同会社新弘商会,,合同会社,奈良県,奈良市,北之庄町６４番地の２,,29,201,6308451,,,,,,,2023-11-22,1,,,,,シンコウショウカイ,0
435,2170003001951,新規,0,2023-11-22,2023-11-22,合同会社壽,,合同会社,和歌山県,和歌山市,東長町４丁目４番地,,30,201,6408235,,,,,,,2023-11-22,1,,,,,コトブキ,0
438,2180001159007,新規,0,2023-11-22,2023-11-22,林プラスチック商事株式会社,,株式会社,愛知県,知多市,新知字美濃川４番地の２,,23,224,4780017,,,,,,,2023-11-22,1,,,,,ハヤシプラスチックショウジ,0
439,2180001159023,新規,0,2023-11-22,2023-11-22,株式会社サンプラス,,株式会社,愛知県,一宮市,浅井町大日比野字東出３４番地４,,23,203,4910105,,,,,,,2023-11-22,1,,,,,サンプラス,0
440,2180001159056,新規,0,2023-11-22,2023-11-22,Ｌｉｎｋ　ｏｆ　ｌｅａｖｅｓ株式会社,,株式会社,愛知県,名古屋市熱田区,大宝１丁目１１番２２号－２,,23,109,4560062,,,,,,,2023-11-22,1,,,,,リンクオブリーブス,0
443,2180003025999,新規,0,2023-11-22,2023-11-22,合同会社アドオン,,合同会社,愛知県,知多郡美浜町,大字上野間字的場１０番１号,,23,446,4703231,,,,,,,2023-11-22,1,,,,,アドオン,0
447,2190003004515,新規,0,2023-11-22,2023-11-22,合同会社ちよ,,合同会社,三重県,伊賀市,新堂３３８番地,,24,216,5191416,,,,,,,2023-11-22,1,,,,,チヨ,0
449,2200001041913,新規,0,2023-11-22,2023-11-22,株式会社ＯＫＤ,,株式会社,岐阜県,加茂郡川辺町,福島１６７番地１,,21,503,5090314,,,,,,,2023-11-22,1,,,,,オーケーディー,0
452,2200003006162,新規,0,2023-11-22,2023-11-22,合同会社アモール,,合同会社,岐阜県,恵那市,長島町中野１３８番地,,21,210,5097205,,,,,,,2023-11-22,1,,,,,アモール,0
462,2240001062451,新規,0,2023-11-22,2023-11-22,株式会社グローイング,,株式会社,広島県,広島市西区,南観音３丁目６番５号５Ｆ,,34,104,7330035,,,,,,,2023-11-22,1,,,,,グローイング,0
463,2240003006423,新規,0,2023-11-22,2023-11-22,合同会社ＴＯＴＯＹＵ,,合同会社,広島県,広島市西区,己斐上４丁目１０番１２号,,34,104,7330815,,,,,,,2023-11-22,1,,,,,トトユ,0
464,2250003003386,新規,0,2023-11-22,2023-11-22,合同会社山和フード,,合同会社,山口県,宇部市,大字際波４１３番地４,,35,202,7590207,,,,,,,2023-11-22,1,,,,,サンワフード,0
470,2270003001578,新規,0,2023-11-22,2023-11-22,合同会社ＦｒｅｅＳｔｙｌｅ,,合同会社,鳥取県,境港市,竹内町３７５番地２,,31,204,6840043,,,,,,,2023-11-22,1,,,,,フリースタイル,0
479,2290005019204,新規,0,2023-11-22,2023-11-22,一般社団法人ＦＵＫＵＯＫＡ　ＳＷＩＭ　ＰＲＯＪＥＣＴ,,その他の設立登記法人,福岡県,福岡市西区,周船寺２丁目７番２２号５０１,,40,135,8190373,,,,,,,2023-11-22,1,,,,,フクオカスイムプロジェクト,0
480,2290801030066,新規,0,2023-11-22,2023-11-22,華宴株式会社,,株式会社,福岡県,北九州市小倉北区,浅野２丁目１７番４６号,,40,106,8020001,,,,,,,2023-11-22,1,,,,,カエン,0
481,2310001018719,新規,0,2023-11-22,2023-11-22,株式会社ＡＧコーポレーション,,株式会社,長崎県,大村市,富の原２丁目４５５番地６,,42,205,8560806,,,,,,,2023-11-22,1,,,,,エージーコーポレーション,0
483,2320001020153,新規,0,2023-11-22,2023-11-22,ＡＶＡＮＣＥ株式会社,,株式会社,大分県,大分市,大字千歳１８４６番地,,44,201,8700132,,,,,,,2023-11-22,1,,,,,アバンセ,0
489,2350001018673,新規,0,2023-11-22,2023-11-22,池山総建株式会社,,株式会社,宮崎県,北諸県郡三股町,大字蓼池３８５０番地９,,45,341,8891914,,,,,,,2023-11-22,1,,,,,イケヤマソウケン,0
494,2360001032847,新規,0,2023-11-22,2023-11-22,株式会社ケイトマン,,株式会社,沖縄県,那覇市,古波蔵１丁目２９番２８－１００２号レーヴグランディ古波蔵一丁目,,47,201,9000024,,,,,,,2023-11-22,1,,,,,ケイトマン,0
495,2360001032855,新規,0,2023-11-22,2023-11-22,株式会社新前屋,,株式会社,沖縄県,那覇市,松山２丁目１２番９号ファーストビル２階,,47,201,9000032,,,,,,,2023-11-22,1,,,,,シンゼンヤ,0
497,2370003006393,新規,0,2023-11-22,2023-11-22,ＢＲ投資合同会社,,合同会社,宮城県,仙台市宮城野区,原町３丁目８番１３－２号ザ・ガーデンコートハウス別館２０３,,04,102,9830841,,,,,,,2023-11-22,1,,,,,ビーアールトウシ,0
507,2410001013651,新規,0,2023-11-22,2023-11-22,株式会社エスアイレンタカー,,株式会社,秋田県,雄勝郡羽後町,字三輪１６番地１０,,05,463,0121100,,,,,,,2023-11-22,1,,,,,エスアイレンタカー,0
509,2420003002833,新規,0,2023-11-22,2023-11-22,合同会社ｋａｎｕｎｕ,,合同会社,青森県,八戸市,南類家３丁目１番７号,,02,203,0310004,,,,,,,2023-11-22,1,,,,,カヌヌ,0
514,2430003015685,新規,0,2023-11-22,2023-11-22,合同会社ＩＮＴＥＲ　ＲＥＡＣＴＩＶＥ,,合同会社,北海道,小樽市,張碓町５４４番地１４,,01,203,0470266,,,,,,,2023-11-22,1,,,,,インターリアクティブ,0
520,2470001019908,新規,0,2023-11-22,2023-11-22,瀬戸内ＲｅＦａｒｍｉｎｇ株式会社,,株式会社,香川県,三豊市,仁尾町仁尾己１０３３番地１,,37,208,7691401,,,,,,,2023-11-22,1,,,,,セトウチリファーミング,0
522,2490003001837,新規,0,2023-11-22,2023-11-22,合同会社おおつ企画,,合同会社,高知県,高知市,大津乙８９３番地１,,39,201,7815103,,,,,,,2023-11-22,1,,,,,オオツキカク,0
523,2500005008655,新規,0,2023-11-22,2023-11-22,医療法人誠陽会,,その他の設立登記法人,愛媛県,松山市,余戸中４丁目１６番１８号,,38,201,7900045,,,,,,,2023-11-22,1,,,,,セイヨウカイ,0
525,2700150122232,新規,0,2023-11-22,2023-11-22,ＱｕａｎＺｈｏｕＣｉｔｙ　ＴｏｎｇＤａＪｉｕＺｈｏｕ　Ｔｒａｄｉｎｇ　Ｃｏ．，Ｌｔｄ,,外国会社等,,,,,,,,ＨｕａＱｕａｎＤｉＣｈａｎ　３　１０３　ＹｉＦｅｎｇ　Ｌｕ　ＨａｉＧｕａｎＤａＬｏｕＰａｎｇＱｕａｎＺｈｏｕ　ＦｕＪｉａｎ　３６２０００　ＣＮ,,,,,,2023-11-22,1,,,,,チユエンジヨウシートンダージユージヨウマオイーヨウシエンゴンスー,0
526,2700150122240,新規,0,2023-11-22,2023-11-22,当別スウェーデンマラソン実行委員会,,その他,北海道,石狩郡当別町,スウェーデンヒルズ２３２９－２５,,01,303,0613777,,,,,,,2023-11-22,1,,,,,トウベツスウェーデンマラソンジッコウイインカイ,0
536,3010001240129,新規,0,2023-11-22,2023-11-22,地銀開発株式会社,,株式会社,東京都,中央区,銀座５丁目９番１１号銀座緑ビル,,13,102,1040061,,,,,,,2023-11-22,1,,,,,チギンカイハツ,0
537,3010001240252,新規,0,2023-11-22,2023-11-22,株式会社ＳＴＯＣＫ１３６,,株式会社,東京都,千代田区,永田町２丁目１２番４号,,13,101,1000014,,,,,,,2023-11-22,1,,,,,ストックヒャクサンジュウロク,0
538,3010001240277,新規,0,2023-11-22,2023-11-22,株式会社めいとケアホールディングス,,株式会社,東京都,中央区,京橋２丁目２番１号,,13,102,1040031,,,,,,,2023-11-22,1,,,,,メイトケアホールディングス,0
542,3010003042275,新規,0,2023-11-22,2023-11-22,神戸ソーラー合同会社,,合同会社,東京都,中央区,日本橋１丁目４番１号,,13,102,1030027,,,,,,,2023-11-22,1,,,,,コウベソーラー,0
543,3010003042291,新規,0,2023-11-22,2023-11-22,合同会社ＧＥパワープラント３号,,合同会社,東京都,千代田区,一ツ橋２丁目６番３号アクシスインベストメントアドバイザーズ株式会社内,,13,101,1010003,,,,,,,2023-11-22,1,,,,,ジーイーパワープラントサンゴウ,0
554,3010401178646,新規,0,2023-11-22,2023-11-22,株式会社ＲＡＵＬ,,株式会社,東京都,港区,赤坂９丁目６番３５号,,13,103,1070052,,,,,,,2023-11-22,1,,,,,ラウール,0
555,3010401178687,新規,0,2023-11-22,2023-11-22,ＬＳ‐ＳＨＩＰ第４８号株式会社,,株式会社,東京都,港区,六本木１丁目６番１号,,13,103,1060032,,,,,,,2023-11-22,1,,,,,エルエスシップダイヨンジュウハチゴウ,0
556,3010403031398,新規,0,2023-11-22,2023-11-22,合同会社ＬＡ,,合同会社,東京都,港区,南青山３丁目１番３６号青山丸竹ビル６Ｆ,,13,103,1070062,,,,,,,2023-11-22,1,,,,,ラー,0
557,3010403031423,新規,0,2023-11-22,2023-11-22,利和詮業合同会社,,合同会社,東京都,港区,三田１丁目３番４０－９０９号,,13,103,1080073,,,,,,,2023-11-22,1,,,,,リワセンギョウ,0
558,3010403031431,新規,0,2023-11-22,2023-11-22,ＣＵＬＴＵＲＥ　ＯＦ　ＪＡＰＡＮ合同会社,,合同会社,東京都,港区,六本木３丁目７－１六本木東京７１１,,13,103,1060032,,,,,,,2023-11-22,1,,,,,カルチャーオブジャパン,0
561,3010501051406,新規,0,2023-11-22,2023-11-22,株式会社ヴェルベット,,株式会社,東京都,台東区,東浅草２丁目１番１１号ルイシャトレ浅草２０２号,,13,106,1110025,,,,,,,2023-11-22,1,,,,,ヴェルベット,0
564,3010601064183,新規,0,2023-11-22,2023-11-22,エルアングル株式会社,,株式会社,東京都,江東区,豊洲３丁目４番１－４３１３号,,13,108,1350061,,,,,,,2023-11-22,1,,,,,エルアングル,0
565,3010703006934,新規,0,2023-11-22,2023-11-22,Ｆｉｌｌａｐ合同会社,,合同会社,東京都,品川区,大崎２丁目１１番２－１２０６号,,13,109,1410032,,,,,,,2023-11-22,1,,,,,フィラップ,0
567,3010901054223,新規,0,2023-11-22,2023-11-22,ｅｉｉｒ株式会社,,株式会社,東京都,世田谷区,駒沢１丁目７－２３フォンテーヌ駒沢２０３,,13,112,1540012,,,,,,,2023-11-22,1,,,,,イール,0
571,3011003017952,新規,0,2023-11-22,2023-11-22,モントレー合同会社,,合同会社,東京都,渋谷区,神宮前２丁目２－３９－５０４ＴｈｅＣｏｕｒｔ神宮外苑,,13,113,1500001,,,,,,,2023-11-22,1,,,,,モントレー,0
577,3011105010863,新規,0,2023-11-22,2023-11-22,一般財団法人全国収納代行総合決済サービス管理協会,,その他の設立登記法人,東京都,新宿区,新宿４丁目３番３０－３０１号,,13,104,1600022,,,,,,,2023-11-22,1,,,,,ゼンコクシュウノウダイコウソウゴウケッサイサービスカンリキョウカイ,0
581,3011303004964,新規,0,2023-11-22,2023-11-22,合同会社ＲＡＦＴＥＬ,,合同会社,東京都,杉並区,天沼１丁目１番１４号フォートレス・Ｓ・１０１,,13,115,1670032,,,,,,,2023-11-22,1,,,,,ラフテル,0
583,3011401025623,新規,0,2023-11-22,2023-11-22,ＫＩＳＨＩ株式会社,,株式会社,東京都,板橋区,前野町２丁目４５番１０号コートハウスときわ台５０７,,13,119,1740063,,,,,,,2023-11-22,1,,,,,キシ,0
587,3011601027304,新規,0,2023-11-22,2023-11-22,株式会社山本興業,,株式会社,東京都,練馬区,平和台２丁目２３番１２号グランエスト平和台２０３,,13,120,1790083,,,,,,,2023-11-22,1,,,,,ヤマモトコウギョウ,0
589,3011603004144,新規,0,2023-11-22,2023-11-22,Ｓｏａｒ合同会社,,合同会社,東京都,練馬区,豊玉南３丁目１８番８号ソレーユ豊玉Ｉ３０１,00132766,13,120,1760014,,,,,,,2023-11-22,1,,,,,ソアー,0
591,3011703003665,新規,0,2023-11-22,2023-11-22,ＰＲＡＫＡＳＨ合同会社,,合同会社,東京都,江戸川区,西小岩１丁目７番１３号コーポヤマザキ４０２,,13,123,1330057,,,,,,,2023-11-22,1,,,,,プラカス,0
602,3020001154559,新規,0,2023-11-22,2023-11-22,株式会社Ｖｉｌｌａ　Ｆｏｒｅｓｔａ,,株式会社,神奈川県,川崎市宮前区,菅生１丁目１２－１８,,14,136,2160015,,,,,,,2023-11-22,1,,,,,ヴィラフォレスタ,0
603,3020001154575,新規,0,2023-11-22,2023-11-22,信達株式会社,,株式会社,神奈川県,川崎市多摩区,菅２丁目１番１４号第２チェリーハイムアンドウ１０９室,,14,135,2140001,,,,,,,2023-11-22,1,,,,,シンタツ,0
604,3020001154591,新規,0,2023-11-22,2023-11-22,ＣＡＲＯ株式会社,,株式会社,神奈川県,横浜市港南区,港南２丁目２７番１０号,,14,111,2330003,,,,,,,2023-11-22,1,,,,,カーロ,0
608,3020003025023,新規,0,2023-11-22,2023-11-22,合同会社ＰＬＵＭ,,合同会社,神奈川県,川崎市川崎区,元木２丁目４番１２－５号,,14,131,2100021,,,,,,,2023-11-22,1,,,,,プルム,0
612,3021001080803,新規,0,2023-11-22,2023-11-22,株式会社吉,,株式会社,神奈川県,相模原市中央区,横山１丁目３番２０号,,14,152,2520242,,,,,,,2023-11-22,1,,,,,ヨシ,0
614,3021003013819,新規,0,2023-11-22,2023-11-22,合同会社ＴＯＭＯＮＩ,,合同会社,神奈川県,平塚市,見附町２７番１７‐２０３号パレステージ平塚,,14,203,2540045,,,,,,,2023-11-22,1,,,,,トモニ,0
623,3030005021473,新規,0,2023-11-22,2023-11-22,医療法人社団只見会,,その他の設立登記法人,埼玉県,川口市,領家１丁目１番１１号,,11,203,3320004,,,,,,,2023-11-22,1,,,,,タダミカイ,0
624,3030005021481,新規,0,2023-11-22,2023-11-22,一般社団法人いきいきライフ協会さくら,,その他の設立登記法人,埼玉県,川越市,大字牛子５４４番地１８,,11,201,3500017,,,,,,,2023-11-22,1,,,,,イキイキライフキョウカイサクラ,0
628,3040001130946,新規,0,2023-11-22,2023-11-22,葉っぱの家株式会社,,株式会社,千葉県,白井市,清水口１丁目２－２－４,,12,232,2701435,,,,,,,2023-11-22,1,,,,,ハッパノイエ,0
629,3040001131028,新規,0,2023-11-22,2023-11-22,株式会社ＤＥＳＥＲＶＥ,,株式会社,千葉県,船橋市,本町６丁目１６番９－１号,,12,204,2730005,,,,,,,2023-11-22,1,,,,,ディザーブ,0
630,3040001131036,新規,0,2023-11-22,2023-11-22,株式会社アルカナイン,,株式会社,千葉県,野田市,岡田６０９番地２６,,12,208,2700223,,,,,,,2023-11-22,1,,,,,アルカナイン,0
631,3040001131044,新規,0,2023-11-22,2023-11-22,株式会社いぬらく,,株式会社,千葉県,八千代市,高津１３３５番地,,12,221,2760036,,,,,,,2023-11-22,1,,,,,イヌラク,0
632,3040001131093,新規,0,2023-11-22,2023-11-22,株式会社みらい,,株式会社,千葉県,市原市,米原２７３番地４０,,12,219,2900525,,,,,,,2023-11-22,1,,,,,ミライ,0
647,3060001036571,新規,0,2023-11-22,2023-11-22,株式会社都市設計ホールディングス,,株式会社,栃木県,小山市,駅東通り１丁目３７番７号,,09,208,3230022,,,,,,,2023-11-22,1,,,,,トシセッケイホールディングス,0
656,3080001025993,新規,0,2023-11-22,2023-11-22,株式会社３８,,株式会社,静岡県,静岡市葵区,両替町２丁目１－６マサキビル４階,,22,101,4200032,,,,,,,2023-11-22,1,,,,,ミヤ,0
658,3080102022535,新規,0,2023-11-22,2023-11-22,有限会社やまよ毛糸店,,有限会社,静岡県,伊東市,猪戸１丁目８番６号,,22,208,4140004,,,,,,,2023-11-22,1,,,,,ヤマヨケイトテン,0
661,3090001018410,新規,0,2023-11-22,2023-11-22,株式会社グラスト,,株式会社,山梨県,甲府市,相生１丁目１番１１号,,19,201,4000858,,,,,,,2023-11-22,1,,,,,グラスト,0
663,3100003007277,新規,0,2023-11-22,2023-11-22,合同会社ＭＩＴＯＭＩ　ＶＩＬＬＡＧＥ,,合同会社,長野県,北佐久郡軽井沢町,大字追分１３９５番地１３,,20,321,3890115,,,,,,,2023-11-22,1,,,,,ミトミヴィラージュ,0
665,3110001037985,新規,0,2023-11-22,2023-11-22,イカラシ電設工業株式会社,,株式会社,新潟県,長岡市,槇山町２２９５番地３,,15,202,9402002,,,,,,,2023-11-22,1,,,,,イカラシデンセツコウギョウ,0
672,3120001260074,新規,0,2023-11-22,2023-11-22,株式会社ＰｒｏｃｅｓｓＸ,,株式会社,大阪府,大阪市西成区,花園北２丁目１８番１１号５０３号室,,27,122,5570016,,,,,,,2023-11-22,1,,,,,プロセスエックス,0
673,3120001260108,新規,0,2023-11-22,2023-11-22,株式会社ＣｏＡＧＡＲＩ,,株式会社,大阪府,枚方市,堤町８番１１号,,27,210,5730057,,,,,,,2023-11-22,1,,,,,コアガリ,0
677,3120101068582,新規,0,2023-11-22,2023-11-22,株式会社ＨＡＮＤＳ,,株式会社,大阪府,大阪狭山市,今熊３丁目７３５番地の１１０,,27,231,5890021,,,,,,,2023-11-22,1,,,,,ハンズ,0
680,3120901048395,新規,0,2023-11-22,2023-11-22,株式会社ＳＯＵ,,株式会社,大阪府,豊中市,東豊中町４丁目３番５０－５１０号,,27,203,5600003,,,,,,,2023-11-22,1,,,,,ソウ,0
682,3122001037592,新規,0,2023-11-22,2023-11-22,株式会社ＣＵケアメディカル,,株式会社,大阪府,東大阪市,花園本町１丁目１０番２３号,,27,227,5780937,,,,,,,2023-11-22,1,,,,,シーユーケアメディカル,0
690,3150001026893,新規,0,2023-11-22,2023-11-22,株式会社ちゃんとカンパニー,,株式会社,奈良県,奈良市,学園中５丁目５５６番地の１４,,29,201,6310035,,,,,,,2023-11-22,1,,,,,チャントカンパニー,0
691,3150003003123,新規,0,2023-11-22,2023-11-22,Ｈｅｐｔａｇｏｎ合同会社,,合同会社,奈良県,桜井市,大字粟殿１００６番地の２０,,29,206,6330062,,,,,,,2023-11-22,1,,,,,ヘプタゴン,0
697,3180001159022,新規,0,2023-11-22,2023-11-22,株式会社スノーフェアリー,,株式会社,愛知県,春日井市,白山町８丁目１９番地１,,23,206,4870034,,,,,,,2023-11-22,1,,,,,スノーフェアリー,0
698,3180001159030,新規,0,2023-11-22,2023-11-22,株式会社ＵｎｉＳｅｅｄ　Ｔｅｃｈｎｏｌｏｇｙ　Ｊａｐａｎ,,株式会社,愛知県,名古屋市天白区,焼山２丁目４１４番地,,23,116,4680002,,,,,,,2023-11-22,1,,,,,ユニシードテクノロジージャパン,0
699,3180001159055,新規,0,2023-11-22,2023-11-22,株式会社庭浩,,株式会社,愛知県,名古屋市北区,如意１丁目１２９番地の７,,23,103,4620007,,,,,,,2023-11-22,1,,,,,ニワヒロ,0
704,3180305009534,新規,0,2023-11-22,2023-11-22,社会保険労務士法人ｄｅｓｉｇｎ　ａｉ,,その他の設立登記法人,愛知県,みよし市,明知町深狭間８７番地７,,23,236,4700214,,,,,,,2023-11-22,1,,,,,デザインアイ,0
706,3190003004514,新規,0,2023-11-22,2023-11-22,みのちゃん合同会社,,合同会社,三重県,津市,大門１１番２３号,,24,201,5140027,,,,,,,2023-11-22,1,,,,,,0
707,3200001041912,新規,0,2023-11-22,2023-11-22,株式会社ハウスカウ,,株式会社,岐阜県,岐阜市,織田塚町１丁目９番地１１ロアシス大富１Ａ,,21,201,5008135,,,,,,,2023-11-22,1,,,,,ハウスカウ,0
708,3200003006161,新規,0,2023-11-22,2023-11-22,合同会社細川商会,,合同会社,岐阜県,各務原市,那加前洞新町３丁目１４０番地１,,21,213,5040021,,,,,,,2023-11-22,1,,,,,ホソカワショウカイ,0
709,3200005013544,新規,0,2023-11-22,2023-11-22,一般社団法人たつの子,,その他の設立登記法人,岐阜県,中津川市,苗木１６８６番地,,21,206,5080101,,,,,,,2023-11-22,1,,,,,タツノコ,0
710,3210001019552,新規,0,2023-11-22,2023-11-22,株式会社ＡＬＬＷＩＮ,,株式会社,福井県,福井市,二の宮４丁目１番１０号,,18,201,9100015,,,,,,,2023-11-22,1,,,,,オールウィン,0
711,3220001017563,新規,0,2023-11-22,2023-11-22,株式会社サンマル,,株式会社,石川県,かほく市,高松丁２５番地３,,17,209,9291215,,,,,,,2023-11-22,1,,,,,サンマル,0
717,3240001062450,新規,0,2023-11-22,2023-11-22,ＫＭイノベーション株式会社,,株式会社,広島県,大竹市,西栄３丁目６番１５号,,34,211,7390603,,,,,,,2023-11-22,1,,,,,ケイエムイノベーション,0
719,3240005015685,新規,0,2023-11-22,2023-11-22,一般社団法人交通事故ＡＤＲ,,その他の設立登記法人,広島県,広島市中区,大手町３丁目１－３ＩＴ大手町ビル６Ｆ,,34,101,7300051,,,,,,,2023-11-22,1,,,,,コウツウジコエーディーアール,0
728,3280001009076,新規,0,2023-11-22,2023-11-22,堀グループホールディングス株式会社,,株式会社,島根県,鹿足郡津和野町,枕瀬５７５番地９,,32,501,6995207,,,,,,,2023-11-22,1,,,,,ホリグループホールディングス,0
737,3290001103803,新規,0,2023-11-22,2023-11-22,株式会社ハイブリッジマネジメント,,株式会社,福岡県,大野城市,下大利１丁目１５－１熊丸ビル２０２,,40,219,8160952,,,,,,,2023-11-22,1,,,,,ハイブリッジマネジメント,0
738,3290801030065,新規,0,2023-11-22,2023-11-22,サザンフーズ株式会社,,株式会社,福岡県,中間市,岩瀬西町３１－３５フォンティーヌ１０３,,40,215,8090041,,,,,,,2023-11-22,1,,,,,サザンフーズ,0
745,3330001031495,新規,0,2023-11-22,2023-11-22,株式会社エマグループ,,株式会社,熊本県,熊本市中央区,新市街１３－１３フタビル３階,,43,101,8600803,,,,,,,2023-11-22,1,,,,,エマグループ,0
746,3330001031504,新規,0,2023-11-22,2023-11-22,株式会社エヌ・テック,,株式会社,熊本県,熊本市東区,長嶺東８丁目３番２８号,,43,102,8618038,,,,,,,2023-11-22,1,,,,,エヌテック,0
748,3330003010092,新規,0,2023-11-22,2023-11-22,合同会社ＨＡＮＡＭＩＣＨＩ,,合同会社,熊本県,熊本市南区,田井島３丁目１０番１８号アクアＣ１０２,,43,104,8620965,,,,,,,2023-11-22,1,,,,,ハナミチ,0
750,3350001018672,新規,0,2023-11-22,2023-11-22,株式会社Ｄｉｇｇｅｒｓ,,株式会社,宮崎県,宮崎市,吉村町中原甲２７２０番地１３,,45,201,8800841,,,,,,,2023-11-22,1,,,,,ディガーズ,0
755,3360001032846,新規,0,2023-11-22,2023-11-22,ｍｔｏｕ株式会社,,株式会社,沖縄県,宮古島市,下地字洲鎌４４０番地,,47,214,9060303,,,,,,,2023-11-22,1,,,,,エムトユウ,0
756,3360001032854,新規,0,2023-11-22,2023-11-22,ｔｏｎａｒｉ株式会社,,株式会社,沖縄県,名護市,字為又８４６番地４さくらビル１Ａ,,47,209,9050005,,,,,,,2023-11-22,1,,,,,トナリ,0
765,3410001013650,新規,0,2023-11-22,2023-11-22,株式会社ＯＮＥ・ＡＱＩＴＡ,,株式会社,秋田県,秋田市,山王３丁目１番７号東カンビル１Ｆ,,05,201,0100951,,,,,,,2023-11-22,1,,,,,ワンアキタ,0
769,3460101007465,新規,0,2023-11-22,2023-11-22,株式会社ＮＥＸＴ,,株式会社,北海道,帯広市,東一条南２５丁目１番地３,,01,207,0800801,,,,,,,2023-11-22,1,,,,,ネクスト,0
774,3500001025323,新規,0,2023-11-22,2023-11-22,株式会社Ｐｕｒｅ　ｎｅｓ,,株式会社,愛媛県,南宇和郡愛南町,家串９３０番地,,38,506,7983705,,,,,,,2023-11-22,1,,,,,ピュアネス,0
777,3700150122231,新規,0,2023-11-22,2023-11-22,Ｚｈｅｊｉａｎｇ　Ｗｅｉｎｕｏｔｏｎｇ　Ｈｏｕｓｅｈｏｌｄ　Ｐｒｏｄｕｃｔｓ　Ｃｏ．，Ｌｔｄ,,外国会社等,,,,,,,,１ｓｔ　Ｆｌｏｏｒ，Ｎｏ．１８，Ｕｎｉｔ　２、３，Ｂｕｉｌｄｉｎｇ　４，Ｗｕｊｉｎ　Ｅａｓｔ　Ｒｏａｄ　Ｄｏｎｇｃｈｅｎｇ　Ｙｏｎｇｋａｎｇｓｈｉ，Ｊｉｎｈｕａ　Ｃｉｔｙ　Ｚｈｅｊｉａｎｇ　Ｐｒｏｖｉｎｃｅ　３２１３００　ＣＮ,,,,,,2023-11-22,1,,,,,ジヨージヤンウエイヌオトンジヤージーヨンピンヨウシエンゴンスー,0
782,4010001240251,新規,0,2023-11-22,2023-11-22,株式会社ＳＴＯＣＫ１３５,,株式会社,東京都,千代田区,永田町２丁目１２番４号,,13,101,1000014,,,,,,,2023-11-22,1,,,,,ストックヒャクサンジュウゴ,0
783,4010001240284,新規,0,2023-11-22,2023-11-22,Ｘ　ＮＥＴＷＯＲＫ株式会社,,株式会社,東京都,千代田区,霞が関３丁目２番１号,,13,101,1000013,,,,,,,2023-11-22,1,,,,,クロスネットワーク,0
784,4010003042282,新規,0,2023-11-22,2023-11-22,神谷町２合同会社,,合同会社,東京都,千代田区,神田小川町３丁目２６番８号神田小川町三丁目ビル６階,,13,101,1010052,,,,,,,2023-11-22,1,,,,,カミヤチョウツー,0
796,4010401178678,新規,0,2023-11-22,2023-11-22,株式会社ＡＡＳ,,株式会社,東京都,港区,芝浦４丁目１４番８－１３０２号,,13,103,1080023,,,,,,,2023-11-22,1,,,,,エイエイエス,0
798,4010405022725,新規,0,2023-11-22,2023-11-22,弁護士法人レイ・オネスト法律事務所,,その他の設立登記法人,東京都,港区,西新橋１丁目２番９号日比谷セントラルビル１４階,,13,103,1050003,,,,,,,2023-11-22,1,,,,,レイオネストホウリツジムショ,0
800,4010501051405,新規,0,2023-11-22,2023-11-22,万宝商事株式会社,,株式会社,東京都,台東区,東上野６丁目１番１７号東上野中央ビル３０１号室,,13,106,1100015,,,,,,,2023-11-22,1,,,,,マンホウショウジ,0
801,4010601064174,新規,0,2023-11-22,2023-11-22,海棠貿易株式会社,,株式会社,東京都,江東区,大島６丁目８番２２号中村ビル４０１号室,,13,108,1360072,,,,,,,2023-11-22,1,,,,,カイドウボウエキ,0
809,4010701045165,新規,0,2023-11-22,2023-11-22,株式会社Ｒｅｌａｔｕｍ,,株式会社,東京都,品川区,西五反田１丁目２６番２号,,13,109,1410031,,,,,,,2023-11-22,1,,,,,リレイタム,0
813,4010901054230,新規,0,2023-11-22,2023-11-22,株式会社トーンズネオ,,株式会社,東京都,世田谷区,船橋６丁目２６番５－５０８号,,13,112,1560055,,,,,,,2023-11-22,1,,,,,トーンズネオ,0
814,4010903008606,新規,0,2023-11-22,2023-11-22,合同会社Ｙ,,合同会社,東京都,世田谷区,経堂５丁目２９番１号,,13,112,1560052,,,,,,,2023-11-22,1,,,,,ワイ,0
819,4011005010285,新規,0,2023-11-22,2023-11-22,土地家屋調査士法人代々木登記総合事務所,,その他の設立登記法人,東京都,渋谷区,代々木１丁目１０番５号,,13,113,1510053,,,,,,,2023-11-22,1,,,,,ヨヨギトウキソウゴウジムショ,0
827,4011101105229,新規,0,2023-11-22,2023-11-22,峰盛産業株式会社,,株式会社,東京都,新宿区,新宿１丁目７－２藤和新宿御苑コープ７０２号室,,13,104,1600022,,,,,,,2023-11-22,1,,,,,ミネモリサンギョウ,0
829,4011103013776,新規,0,2023-11-22,2023-11-22,Ｓｅｎｔｒｉｘ合同会社,,合同会社,東京都,新宿区,大久保３丁目８－３－３７２０,,13,104,1690072,,,,,,,2023-11-22,1,,,,,セントリックス,0
840,4011601027311,新規,0,2023-11-22,2023-11-22,株式会社Ｓｉｍｕｌａｃｒａ,,株式会社,東京都,練馬区,桜台４丁目１８－７ＧＲＡＮＤＬＩＥＦ２０２,,13,120,1760002,,,,,,,2023-11-22,1,,,,,シミュラクラ,0
842,4011803005957,新規,0,2023-11-22,2023-11-22,メディアリリース合同会社,,合同会社,東京都,足立区,入谷４丁目７番１７号,,13,121,1210836,,,,,,,2023-11-22,1,,,,,メディアリリース,0
844,4012401041246,新規,0,2023-11-22,2023-11-22,株式会社王泉,,株式会社,東京都,府中市,小柳町２丁目４５番地の７,,13,206,1830013,,,,,,,2023-11-22,1,,,,,オウイズミ,0
846,4012803003240,新規,0,2023-11-22,2023-11-22,合同会社トラサンペ,,合同会社,東京都,日野市,新町１丁目１３番地日野新町一丁目アパート４－９０１,,13,212,1910002,,,,,,,2023-11-22,1,,,,,トラサンペ,0
853,4020001154351,新規,0,2023-11-22,2023-11-22,株式会社なーすけ,,株式会社,神奈川県,横浜市鶴見区,矢向４丁目７番２１号ライオンズビル尻手３０２,,14,101,2300001,,,,,,,2023-11-22,1,,,,,ナースケ,0
854,4020001154541,新規,0,2023-11-22,2023-11-22,株式会社グランド・コネクション,,株式会社,神奈川県,横浜市神奈川区,三枚町７８６番地９,,14,102,2210862,,,,,,,2023-11-22,1,,,,,グランドコネクション,0
855,4020001154566,新規,0,2023-11-22,2023-11-22,皐月ベース株式会社,,株式会社,神奈川県,横浜市戸塚区,戸塚町３９１６番地１,,14,110,2440003,,,,,,,2023-11-22,1,,,,,サツキベース,0
856,4020001154599,新規,0,2023-11-22,2023-11-22,株式会社スペランザ,,株式会社,神奈川県,横浜市南区,八幡町２１番地１,,14,105,2320037,,,,,,,2023-11-22,1,,,,,スペランザ,0
863,4020003025030,新規,0,2023-11-22,2023-11-22,運営管理合同会社,,合同会社,神奈川県,川崎市麻生区,白山４丁目１番２－４２０号,,14,137,2150014,,,,,,,2023-11-22,1,,,,,ウンエイカンリ,0
864,4020003025047,新規,0,2023-11-22,2023-11-22,合同会社ＴＭ企画,,合同会社,神奈川県,横浜市中区,曙町１丁目３番地藤和伊勢佐木町ハイタウン２２４,,14,104,2310057,,,,,,,2023-11-22,1,,,,,ティーエムキカク,0
867,4021001080793,新規,0,2023-11-22,2023-11-22,さくらモーターズ株式会社,,株式会社,神奈川県,相模原市緑区,寸沢嵐１６７番地７－１０１号,,14,151,2520176,,,,,,,2023-11-22,1,,,,,サクラモーターズ,0
870,4021003013818,新規,0,2023-11-22,2023-11-22,Ｍｉｒａｉ電設合同会社,,合同会社,神奈川県,大和市,南林間８丁目２１番１３号ハイツペアシティＢ２０２,,14,213,2420006,,,,,,,2023-11-22,1,,,,,ミライデンセツ,0
875,4030001157163,新規,0,2023-11-22,2023-11-22,株式会社ＺＥＲＯ,,株式会社,埼玉県,八潮市,大瀬３丁目１番地４１ー２０４号,,11,234,3400822,,,,,,,2023-11-22,1,,,,,ゼロ,0
878,4030003022984,新規,0,2023-11-22,2023-11-22,イーエルシー合同会社,,合同会社,埼玉県,川越市,脇田本町１４番地２９,,11,201,3501123,,,,,,,2023-11-22,1,,,,,イーエルシー,0
879,4030003023017,新規,0,2023-11-22,2023-11-22,合同会社宇津木企画,,合同会社,埼玉県,桶川市,末広３丁目１３－４,,11,231,3630012,,,,,,,2023-11-22,1,,,,,ウツギキカク,0
888,4040001130986,新規,0,2023-11-22,2023-11-22,八幡実業株式会社,,株式会社,千葉県,市原市,五所１９７２番地１ザ・ガーデンアイル９１９号,,12,219,2900066,,,,,,,2023-11-22,1,,,,,ヤワタジツギョウ,0
889,4040001131035,新規,0,2023-11-22,2023-11-22,株式会社柊,,株式会社,千葉県,千葉市中央区,村田町５８７番地６,,12,101,2600825,,,,,,,2023-11-22,1,,,,,ヒイラギ,0
890,4040001131043,新規,0,2023-11-22,2023-11-22,株式会社ナラントヤ,,株式会社,千葉県,柏市,松ケ崎１１９４番地８０,,12,217,2770835,,,,,,,2023-11-22,1,,,,,ナラントヤ,0
896,4040003023767,新規,0,2023-11-22,2023-11-22,維騰合同会社,,合同会社,千葉県,松戸市,西馬橋幸町１３０番地スカイタウン松戸６０５号,,12,207,2710047,,,,,,,2023-11-22,1,,,,,ユイトウ,0
897,4040003023775,新規,0,2023-11-22,2023-11-22,合同会社Ｂｌｕｅ,,合同会社,千葉県,我孫子市,我孫子２丁目１番１０３７号グラン・レジデンス,,12,222,2701166,,,,,,,2023-11-22,1,,,,,ブルー,0
903,4050001053807,新規,0,2023-11-22,2023-11-22,株式会社Ｋ・Ｑ・Ｃ商事,,株式会社,茨城県,つくば市,竹園２丁目４番地１パセオパルケ１０２,,08,220,3050032,,,,,,,2023-11-22,1,,,,,ケイキュウシーショウジ,0
905,4060001036570,新規,0,2023-11-22,2023-11-22,株式会社国定工業,,株式会社,栃木県,栃木市,大平町下皆川１３３４番地１,,09,203,3294406,,,,,,,2023-11-22,1,,,,,クニサダコウギョウ,0
917,4100003007276,新規,0,2023-11-22,2023-11-22,ミユキスタイルズ合同会社,,合同会社,長野県,松本市,大手２丁目１番４号桜風寮２階ハ区画,,20,202,3900874,,,,,,,2023-11-22,1,,,,,ミユキスタイルズ,0
932,4120001259990,新規,0,2023-11-22,2023-11-22,ＮＳコーポレーション株式会社,,株式会社,大阪府,大阪市東淀川区,南江口３丁目２番４３号,,27,114,5330003,,,,,,,2023-11-22,1,,,,,エヌエスコーポレーション,0
933,4120001259999,新規,0,2023-11-22,2023-11-22,株式会社エクラ,,株式会社,大阪府,大阪市中央区,久太郎町３丁目４番２８号センバフロントビル,,27,128,5410056,,,,,,,2023-11-22,1,,,,,エクラ,0
934,4120001260073,新規,0,2023-11-22,2023-11-22,株式会社ＡＵＲＡ,,株式会社,大阪府,大阪市中央区,日本橋１丁目１７番１７号ピカソ日本一ビル６０４号室,,27,128,5420073,,,,,,,2023-11-22,1,,,,,アウラ,0
939,4120003025391,新規,0,2023-11-22,2023-11-22,合同会社ＭＣＲ,,合同会社,大阪府,大阪市北区,大淀中５丁目５番８号,,27,127,5310076,,,,,,,2023-11-22,1,,,,,エムシーアール,0
943,4120101068565,新規,0,2023-11-22,2023-11-22,株式会社大眞,,株式会社,大阪府,泉佐野市,下瓦屋５丁目１３番３１－３０号（Ｊ－３）,,27,213,5980062,,,,,,,2023-11-22,1,,,,,ダイシン,0
944,4120101068581,新規,0,2023-11-22,2023-11-22,株式会社あけぼの,,株式会社,大阪府,羽曳野市,島泉７丁目２番２０－５０２号,,27,222,5830881,,,,,,,2023-11-22,1,,,,,アケボノ,0
945,4120105009788,新規,0,2023-11-22,2023-11-22,ＮＰＯ法人Ｌｅｌｉｅｎ,,その他の設立登記法人,大阪府,堺市中区,宮園町７番７－４０７号,,27,142,5998274,,,,,,,2023-11-22,1,,,,,リアン,0
948,4120901048378,新規,0,2023-11-22,2023-11-22,株式会社山和,,株式会社,大阪府,茨木市,南春日丘２丁目２－５－１０５,,27,211,5670046,,,,,,,2023-11-22,1,,,,,ヤマト,0
950,4130001007944,新規,0,2023-11-22,2023-11-22,株式会社大城商店,,株式会社,京都府,京都市西京区,川島有栖川町９２番地,,26,111,6158191,,,,,,,2023-11-22,1,,,,,オオシロショウテン,0
954,4130001075792,新規,0,2023-11-22,2023-11-22,株式会社Ｆｉｒｓｔ,,株式会社,京都府,京都市右京区,西京極北庄境町４８番地田中ビル２階,,26,108,6150802,,,,,,,2023-11-22,1,,,,,ファースト,0
958,4140001132411,新規,0,2023-11-22,2023-11-22,株式会社ｃｈｕｒｉａ,,株式会社,兵庫県,尼崎市,次屋２丁目２８番１８号,,28,202,6610965,,,,,,,2023-11-22,1,,,,,チュリア,0
959,4140001132428,新規,0,2023-11-22,2023-11-22,都エステート株式会社,,株式会社,兵庫県,姫路市,船津町３０９０番地１,,28,201,6792101,,,,,,,2023-11-22,1,,,,,ミヤコエステート,0
960,4140001132436,新規,0,2023-11-22,2023-11-22,Ａ‐ｒｉｓｅホールディングス株式会社,,株式会社,兵庫県,西宮市,小曽根町４丁目６番２０号,,28,204,6638122,,,,,,,2023-11-22,1,,,,,エーライズホールディングス,0
964,4160005011246,新規,0,2023-11-22,2023-11-22,ＮＰＯ法人総合型地域スポーツクラブＲｅｎｃｏｎｔｒｅ大津,,その他の設立登記法人,滋賀県,大津市,穴太３丁目１４番２８号,,25,201,5200114,,,,,,,2023-11-22,1,,,,,ソウゴウガタチイキスポーツクラブランコーントルオオツ,0
974,4180001159046,新規,0,2023-11-22,2023-11-22,Ｒｅｖａｌｕｅ株式会社,,株式会社,愛知県,名古屋市北区,上飯田西町３丁目１０－３,,23,103,4620809,,,,,,,2023-11-22,1,,,,,リバリュー,0
982,4210001019551,新規,0,2023-11-22,2023-11-22,株式会社ＭＩＴＵＫＩ,,株式会社,福井県,敦賀市,原８２号２番地１７－１０７号,,18,202,9140824,,,,,,,2023-11-22,1,,,,,ミツキ,0
983,4220001025706,新規,0,2023-11-22,2023-11-22,ＴＯＮＯ　ＷＯＲＬＤ株式会社,,株式会社,石川県,能美市,ト１７４番地７,,17,211,9231100,,,,,,,2023-11-22,1,,,,,トノワールド,0
984,4220003003627,新規,0,2023-11-22,2023-11-22,合同会社Ａｎｊｉｎ,,合同会社,石川県,金沢市,諸江町３３番４２号,,17,201,9200014,,,,,,,2023-11-22,1,,,,,アンジン,0
991,4240003006421,新規,0,2023-11-22,2023-11-22,合同会社ＫＦＴ,,合同会社,広島県,福山市,多治米町１丁目１７－２,,34,207,7200824,,,,,,,2023-11-22,1,,,,,ケーエフティー,0
992,4240005015684,新規,0,2023-11-22,2023-11-22,一般社団法人ＶＯＤエンタメ協会,,その他の設立登記法人,広島県,広島市中区,大手町１丁目１番２６号,,34,101,7300051,,,,,,,2023-11-22,1,,,,,ブイオーディーエンタメキョウカイ,0
996,4260001038506,新規,0,2023-11-22,2023-11-22,株式会社リ・バース,,株式会社,岡山県,倉敷市,福田町古新田１００２番地６５,,33,202,7128046,,,,,,,2023-11-22,1,,,,,リバース,0
1000,4290001103793,新規,0,2023-11-22,2023-11-22,株式会社ＭＹＵ,,株式会社,福岡県,那珂川市,片縄北４丁目５番８号,,40,231,8111203,,,,,,,2023-11-22,1,,,,,ミュウ,0
1001,4290003014634,新規,0,2023-11-22,2023-11-22,合同会社Ｌａ・Ｓａｎｔｅ,,合同会社,福岡県,古賀市,日吉３丁目２２号３２番,,40,223,8113106,,,,,,,2023-11-22,1,,,,,ラサンテ,0
1002,4290802020865,新規,0,2023-11-22,2023-11-22,有限会社リカーズトエンティワン,,有限会社,福岡県,鞍手郡鞍手町,大字中山２７６８－１２２,,40,402,8071312,,,,,,,2023-11-22,1,,,,,リカーズトエンティワン,0
1004,4310001018717,新規,0,2023-11-22,2023-11-22,株式会社ピコロ社,,株式会社,長崎県,佐世保市,広田３丁目１７番１８号,,42,202,8593223,,,,,,,2023-11-22,1,,,,,ピコロシャ,0
1005,4310003004681,新規,0,2023-11-22,2023-11-22,合同会社月夜見,,合同会社,長崎県,長崎市,本石灰町５番１６号１Ｆ,,42,201,8500901,,,,,,,2023-11-22,1,,,,,ツクヨミ,0
1006,4320001020151,新規,0,2023-11-22,2023-11-22,Ｓ・Ｙパートナーズ株式会社,,株式会社,大分県,大分市,金池町２丁目１番１９号大分駅前ビル５Ｆ,,44,201,8700026,,,,,,,2023-11-22,1,,,,,エスワイパートナーズ,0
1007,4330001031494,新規,0,2023-11-22,2023-11-22,株式会社ＮＯＷＨＥＲＥＪＰ,,株式会社,熊本県,熊本市北区,植木町滴水７２番１,,43,105,8610133,,,,,,,2023-11-22,1,,,,,ノーウェアジェイピー,0
1008,4330001031511,新規,0,2023-11-22,2023-11-22,株式会社ポケット,,株式会社,熊本県,合志市,幾久富１８６６番地１５４２,,43,216,8611112,,,,,,,2023-11-22,1,,,,,ポケット,0
1010,4330003010091,新規,0,2023-11-22,2023-11-22,合同会社ブックベアキーピング,,合同会社,熊本県,熊本市南区,南高江２丁目１４番１３号,,43,104,8614106,,,,,,,2023-11-22,1,,,,,ブックベアキーピング,0
1013,4340001026089,新規,0,2023-11-22,2023-11-22,株式会社ナカムラワークス,,株式会社,鹿児島県,出水市,六月田町４５４番地,,46,208,8990126,,,,,,,2023-11-22,1,,,,,ナカムラワークス,0
1015,4350001018671,新規,0,2023-11-22,2023-11-22,株式会社横山総業,,株式会社,宮崎県,東諸県郡国富町,大字本庄４６０９番地１,,45,382,8801101,,,,,,,2023-11-22,1,,,,,ヨコヤマソウギョウ,0
1019,4360005006944,新規,0,2023-11-22,2023-11-22,一般社団法人ハンセン病と人権市民ネットワーク宮古,,その他の設立登記法人,沖縄県,宮古島市,平良字東仲宗根７４４番地２　２０１号,,47,214,9060007,,,,,,,2023-11-22,1,,,,,ハンセンビョウトジンケンシミンネットワークミヤコ,0
1020,4370001003977,新規,0,2023-11-22,2023-11-22,豊栄建設株式会社,,株式会社,宮城県,仙台市若林区,大和町１丁目１１番４６号,,04,103,9840042,,,,,,,2023-11-22,1,,,,,ホウエイケンセツ,0
1027,4380001034146,新規,0,2023-11-22,2023-11-22,株式会社アトラス会計,,株式会社,福島県,郡山市,池ノ台１５番１３号,,07,203,9638875,,,,,,,2023-11-22,1,,,,,アトラスカイケイ,0
1036,4430001090506,新規,0,2023-11-22,2023-11-22,株式会社Ｙ’ｓ　Ｐｌｕｓ,,株式会社,北海道,苫小牧市,拓勇西町１丁目１２番２６号レインボーハウスＳＯＲＡＩＩ２０３号,00132765,01,213,0591302,,,,,,,2023-11-22,1,,,,,ワイズプラス,0
1037,4450003002408,新規,0,2023-11-22,2023-11-22,ＳＡＧＵＮ合同会社,,合同会社,北海道,士別市,大通北３丁目３番地,,01,220,0950039,,,,,,,2023-11-22,1,,,,,,0
1039,4470001019906,新規,0,2023-11-22,2023-11-22,株式会社ＪＩＮ,,株式会社,香川県,三豊市,仁尾町仁尾辛４１番地６,,37,208,7691406,,,,,,,2023-11-22,1,,,,,ジェイアイエヌ,0
1044,4700150122239,新規,0,2023-11-22,2023-11-22,ＰＥＴＲＩＢＥＤ　ＡＳＳＯＣＩＡＴＥＤ　ＩＮＣ,,外国会社等,,,,,,,,アメリカ合衆国３３１３０フロリダ州マイアミ、７９ＳＷ１２ストリート、ユニット１６０７Ｓ,,,,,,2023-11-22,1,,,,,ペトリベツトアソシエイテツドインク,0
1048,5010001240234,新規,0,2023-11-22,2023-11-22,株式会社ケイシンエステート,,株式会社,東京都,文京区,小石川１丁目９番１４号,,13,105,1120002,,,,,,,2023-11-22,1,,,,,ケイシンエステート,0
1049,5010001240250,新規,0,2023-11-22,2023-11-22,株式会社ＳＴＯＣＫ１３４,,株式会社,東京都,千代田区,永田町２丁目１２番４号,,13,101,1000014,,,,,,,2023-11-22,1,,,,,ストックヒャクサンジュウヨン,0
1050,5010001240267,新規,0,2023-11-22,2023-11-22,東京海上スマートモビリティ株式会社,,株式会社,東京都,千代田区,大手町２丁目６番４号,,13,101,1000004,,,,,,,2023-11-22,1,,,,,トウキョウカイジョウスマートモビリティ,0
1058,5010401178677,新規,0,2023-11-22,2023-11-22,株式会社川崎屋,,株式会社,東京都,港区,浜松町２丁目２－１５－２Ｆ,,13,103,1050013,,,,,,,2023-11-22,1,,,,,カワサキヤ,0
1059,5010401178685,新規,0,2023-11-22,2023-11-22,ＬＳ‐Ａｖｉａｔｉｏｎ第６１号株式会社,,株式会社,東京都,港区,六本木１丁目６番１号,,13,103,1060032,,,,,,,2023-11-22,1,,,,,エルエスアビエーションダイロクジュウイチゴウ,0
1060,5010401178693,新規,0,2023-11-22,2023-11-22,株式会社ＭＥＤＩＢＬＥＮＤ,,株式会社,東京都,港区,虎ノ門４丁目１－２０,,13,103,1050001,,,,,,,2023-11-22,1,,,,,メディブレンド,0
1061,5010403031371,新規,0,2023-11-22,2023-11-22,合同会社Ｊｏｌｌｙ’ｓ　Ａｇｅｎｃｙ　Ｓｅｒｖｉｃｅ,,合同会社,東京都,港区,北青山１丁目３番１号アールキューブ青山３階,,13,103,1070061,,,,,,,2023-11-22,1,,,,,ジョリーズエージェンシーサービス,0
1062,5010501051412,新規,0,2023-11-22,2023-11-22,株式会社ＷＯＲＫＳ,,株式会社,東京都,台東区,浅草橋５丁目１８番７号,,13,106,1110053,,,,,,,2023-11-22,1,,,,,ワークス,0
1064,5010601015861,新規,0,2023-11-22,2023-11-22,株式会社村上材木店,,株式会社,東京都,墨田区,太平１丁目２２番１２号,,13,107,1300012,,,,,,,2023-11-22,1,,,,,ムラカミザイモクテン,0
1071,5010801034505,新規,0,2023-11-22,2023-11-22,ミツネ商事株式会社,,株式会社,東京都,大田区,大森北３丁目４番１３号蕨ビル,,13,111,1430016,,,,,,,2023-11-22,1,,,,,,0
1077,5011001158210,新規,0,2023-11-22,2023-11-22,株式会社ＡＲＫ,,株式会社,東京都,目黒区,下目黒１丁目１番１４号コノトラビル７Ｆ,,13,110,1530064,,,,,,,2023-11-22,1,,,,,アーク,0
1086,5011403004185,新規,0,2023-11-22,2023-11-22,ＵＮＩＣＯＳ合同会社,,合同会社,東京都,板橋区,板橋１丁目８番８号,,13,119,1730004,,,,,,,2023-11-22,1,,,,,ユニコス,0
1090,5011601027310,新規,0,2023-11-22,2023-11-22,株式会社ＨＭＣ,,株式会社,東京都,練馬区,豊玉北５丁目１３番８－１１０３号,,13,120,1760012,,,,,,,2023-11-22,1,,,,,エイチエムシー,0
1091,5011603004142,新規,0,2023-11-22,2023-11-22,オフィス・キッド合同会社,,合同会社,東京都,練馬区,石神井台４丁目７－１８,,13,120,1770045,,,,,,,2023-11-22,1,,,,,オフィスキッド,0
1093,5011703003663,新規,0,2023-11-22,2023-11-22,ＫＭＡ企画設計合同会社,,合同会社,東京都,江戸川区,本一色１丁目１３番６号Ｒｉｖａｇｅ１０１,,13,123,1330044,,,,,,,2023-11-22,1,,,,,ケイエムエーキカクセッケイ,0
1095,5011801043396,新規,0,2023-11-22,2023-11-22,奥美株式会社,,株式会社,東京都,足立区,足立２丁目３７－１２セントエルモ綾瀬１０１,,13,121,1200015,,,,,,,2023-11-22,1,,,,,オクミ,0
1099,5012401041204,新規,0,2023-11-22,2023-11-22,江夏株式会社,,株式会社,東京都,府中市,府中町２丁目２２－６－２０２号,,13,206,1830055,,,,,,,2023-11-22,1,,,,,コウカ,0
1100,5012403006270,新規,0,2023-11-22,2023-11-22,Ｗｉｓｈ　ｍｅ　Ｌｕｃｋ合同会社,,合同会社,東京都,調布市,多摩川３丁目７２－１ランドシティ調布多摩川セレーノ１００３,,13,208,1820025,,,,,,,2023-11-22,1,,,,,ウィッシュミーラック,0
1119,5020001154565,新規,0,2023-11-22,2023-11-22,ＹＩＥＲＩＮコンサルティング株式会社,,株式会社,神奈川県,横浜市磯子区,磯子３丁目１１－２７－３０１室,,14,107,2350016,,,,,,,2023-11-22,1,,,,,イイリンコンサルティング,0
1120,5020001154615,新規,0,2023-11-22,2023-11-22,株式会社原企画,,株式会社,神奈川県,川崎市中原区,上小田中２丁目４０番１号,,14,133,2110053,,,,,,,2023-11-22,1,,,,,ハラキカク,0
1126,5020003024989,新規,0,2023-11-22,2023-11-22,東土地合名会社,,合名会社,神奈川県,横浜市南区,平楽３４番地,,14,105,2320035,,,,,,,2023-11-22,1,,,,,ヒガシトチ,0
1127,5020003025038,新規,0,2023-11-22,2023-11-22,合同会社ステップアップ,,合同会社,神奈川県,川崎市多摩区,登戸３１４１番地４ドリームハウス登戸第５・３０３号,,14,135,2140014,,,,,,,2023-11-22,1,,,,,ステップアップ,0
1128,5020003025046,新規,0,2023-11-22,2023-11-22,ＩＴＣ合同会社,,合同会社,神奈川県,横浜市都筑区,大棚町８０番地Ｂ１０３,,14,118,2240027,,,,,,,2023-11-22,1,,,,,アイティーシー,0
1129,5020003025054,新規,0,2023-11-22,2023-11-22,合同会社Ｌ‐ｖｉｓｉｏｎ,,合同会社,神奈川県,横浜市西区,浅間町１丁目４番３号ウィザードビル４０２,,14,103,2200072,,,,,,,2023-11-22,1,,,,,エルビジョン,0
1135,5021001080710,新規,0,2023-11-22,2023-11-22,株式会社ＧＲＥＥＮ　ＥＡＲＴＨ　ＨＡＹＡＭＡ,,株式会社,神奈川県,三浦郡葉山町,一色１５７６番地の２５,,14,301,2400111,,,,,,,2023-11-22,1,,,,,グリーンアースハヤマ,0
1136,5021003013817,新規,0,2023-11-22,2023-11-22,合同会社Ｋｅｅｐ,,合同会社,神奈川県,大和市,南林間１丁目４番９－９０４号,,14,213,2420006,,,,,,,2023-11-22,1,,,,,キープ,0
1137,5021003013825,新規,0,2023-11-22,2023-11-22,合同会社マニフィック企画,,合同会社,神奈川県,足柄上郡大井町,金子１４１番地１エヌハイム３０３,,14,362,2580019,,,,,,,2023-11-22,1,,,,,マニフィックキカク,0
1142,5030001157294,新規,0,2023-11-22,2023-11-22,日本介護連盟株式会社,,株式会社,埼玉県,さいたま市緑区,太田窪１丁目１３－２（２階８号室）,,11,109,3360936,,,,,,,2023-11-22,1,,,,,ニホンカイゴレンメイ,0
1147,5030003022991,新規,0,2023-11-22,2023-11-22,合同会社萬屋天狼,,合同会社,埼玉県,富士見市,関沢１丁目５番６号,,11,235,3540025,,,,,,,2023-11-22,1,,,,,ヨロズヤテンロウ,0
1148,5030003023057,新規,0,2023-11-22,2023-11-22,合同会社たなみ,,合同会社,埼玉県,越谷市,大字袋山１２１６番地１９,,11,222,3430032,,,,,,,2023-11-22,1,,,,,タナミ,0
1154,5040001131018,新規,0,2023-11-22,2023-11-22,株式会社Ｈａｎｄｓ　Ｌｉｎｋ,,株式会社,千葉県,松戸市,三矢小台２丁目６番地の２,,12,207,2710087,,,,,,,2023-11-22,1,,,,,ハンズリンク,0
1155,5040001131034,新規,0,2023-11-22,2023-11-22,株式会社ａｒｃｈ　ｃｒｅａｔｅ　ｌａｂ,,株式会社,千葉県,大網白里市,みずほ台１丁目２９番地２２ロワイヤルみずほ３０４,,12,239,2993234,,,,,,,2023-11-22,1,,,,,アーチクリエイトラボ,0
1156,5040001131042,新規,0,2023-11-22,2023-11-22,株式会社セカンド,,株式会社,千葉県,千葉市若葉区,千城台東２丁目２２番１０号,,12,104,2640002,,,,,,,2023-11-22,1,,,,,セカンド,0
1160,5040003023790,新規,0,2023-11-22,2023-11-22,合同会社ＨＡＳＡＷＡＹ,,合同会社,千葉県,千葉市稲毛区,黒砂台１丁目１５－１６,,12,103,2630041,,,,,,,2023-11-22,1,,,,,ハサウェイ,0
1166,5050001053863,新規,0,2023-11-22,2023-11-22,株式会社Ｋ‐ｏｆｆｉｃｅ,,株式会社,茨城県,土浦市,虫掛３４０７番地,,08,203,3000066,,,,,,,2023-11-22,1,,,,,ケーオフィス,0
1173,5050003007958,新規,0,2023-11-22,2023-11-22,合同会社ＭｉｒａＢＢｉｔ,,合同会社,茨城県,つくば市,花園５０番地１３,,08,220,3050029,,,,,,,2023-11-22,1,,,,,ミラビット,0
1174,5050005013351,新規,0,2023-11-22,2023-11-22,一般社団法人水戸牛虎会,,その他の設立登記法人,茨城県,水戸市,酒門町４２４２番地,,08,201,3100841,,,,,,,2023-11-22,1,,,,,ミトギュウコカイ,0
1176,5060001036578,新規,0,2023-11-22,2023-11-22,株式会社プロテック,,株式会社,栃木県,那須塩原市,中央町５番２９号,,09,213,3250052,,,,,,,2023-11-22,1,,,,,プロテック,0
1186,5080101024357,新規,0,2023-11-22,2023-11-22,ネイチャーイン大瀬館株式会社,,株式会社,静岡県,沼津市,西浦江梨３２５番地の１,,22,203,4100244,,,,,,,2023-11-22,1,,,,,ネイチャーインオセカン,0
1188,5100001036994,新規,0,2023-11-22,2023-11-22,株式会社ＳＹＭＰＡ,,株式会社,長野県,長野市,浅川西条４８５番地の１,,20,201,3810057,,,,,,,2023-11-22,1,,,,,サンパ,0
1189,5100001037002,新規,0,2023-11-22,2023-11-22,大樹建設株式会社,,株式会社,長野県,諏訪郡富士見町,落合２２５１番地,,20,362,3990214,,,,,,,2023-11-22,1,,,,,タイジュケンセツ,0
1192,5110001037983,新規,0,2023-11-22,2023-11-22,エクステリアＲｅｂｕｎ株式会社,,株式会社,新潟県,長岡市,下々条町１７６６番地９,,15,202,9400011,,,,,,,2023-11-22,1,,,,,エクステリアレブン,0
1202,5120001259981,新規,0,2023-11-22,2023-11-22,株式会社リブラボ,,株式会社,大阪府,大阪市北区,西天満３丁目６番３６号第２広垣ビル,,27,127,5300047,,,,,,,2023-11-22,1,,,,,リブラボ,0
1203,5120001260048,新規,0,2023-11-22,2023-11-22,ＴＨＥＮＥＷＧＲＥＹ　ＪＡＰＡＮ株式会社,,株式会社,大阪府,大阪市浪速区,大国２丁目８－７靖安大国ビル１Ｆ,,27,111,5560014,,,,,,,2023-11-22,1,,,,,ザニューグレイジャパン,0
1204,5120001260056,新規,0,2023-11-22,2023-11-22,フィラートー株式会社,,株式会社,大阪府,大阪市浪速区,元町１丁目５番７号,,27,111,5560016,,,,,,,2023-11-22,1,,,,,フィラートー,0
1205,5120001260064,新規,0,2023-11-22,2023-11-22,株式会社ｂｅＭｙｓｅｌｆ,,株式会社,大阪府,大阪市中央区,難波５丁目１番６０号なんばスカイオ２７階,,27,128,5420076,,,,,,,2023-11-22,1,,,,,ビーマイセルフ,0
1206,5120001260080,新規,0,2023-11-22,2023-11-22,株式会社ＬＬＣ,,株式会社,大阪府,大阪市旭区,高殿６丁目６番３２号,,27,117,5350031,,,,,,,2023-11-22,1,,,,,エルエルシー,0
1209,5120003025382,新規,0,2023-11-22,2023-11-22,合同会社ステップアップ,,合同会社,大阪府,大阪市住吉区,長居２丁目１２番５号長居大発ビル２Ｆ,,27,120,5580003,,,,,,,2023-11-22,1,,,,,ステップアップ,0
1210,5120003025390,新規,0,2023-11-22,2023-11-22,合同会社尼崎プロジェクト,,合同会社,大阪府,大阪市中央区,内本町２丁目３番８号,,27,128,5400026,,,,,,,2023-11-22,1,,,,,アマガサキプロジェクト,0
1213,5120101068572,新規,0,2023-11-22,2023-11-22,株式会社Ｌａｐｉｎｓ,,株式会社,大阪府,堺市北区,北花田町２丁２４７番地１７,,27,146,5918002,,,,,,,2023-11-22,1,,,,,ラパン,0
1215,5120901048393,新規,0,2023-11-22,2023-11-22,日工セフティ株式会社,,株式会社,大阪府,豊中市,小曽根２丁目１０番３６号,,27,203,5610813,,,,,,,2023-11-22,1,,,,,ニッコウセフティ,0
1220,5130001075775,新規,0,2023-11-22,2023-11-22,株式会社ＲａｎＺａｎ,,株式会社,京都府,京都市西京区,嵐山谷ケ辻子町２１－１５,00132758,26,111,6160014,,,,,,,2023-11-22,1,,,,,ランザン,0
1225,5130005016924,新規,0,2023-11-22,2023-11-22,一般社団法人ふぁみりーすまいる,,その他の設立登記法人,京都府,木津川市,梅美台４丁目１３番地２,,26,214,6190215,,,,,,,2023-11-22,1,,,,,ファミリースマイル,0
1232,5140001132402,新規,0,2023-11-22,2023-11-22,株式会社輝吾ホールディングス,,株式会社,兵庫県,芦屋市,六麓荘町３番２１号,,28,206,6590011,,,,,,,2023-11-22,1,,,,,キゴホールディングス,0
1233,5140001132410,新規,0,2023-11-22,2023-11-22,株式会社ＴＣ,,株式会社,兵庫県,姫路市,市之郷町２丁目３０番地５,,28,201,6700943,,,,,,,2023-11-22,1,,,,,ティーシー,0
1234,5140001132419,新規,0,2023-11-22,2023-11-22,株式会社御影エリタージュ,,株式会社,兵庫県,神戸市灘区,篠原北町２丁目４番２１号,,28,102,6570068,,,,,,,2023-11-22,1,,,,,ミカゲエリタージュ,0
1235,5140001132451,新規,0,2023-11-22,2023-11-22,株式会社神和住設,,株式会社,兵庫県,神戸市兵庫区,荒田町３丁目７３－１１,,28,105,6520032,,,,,,,2023-11-22,1,,,,,シンワジュウセツ,0
1237,5140003019845,新規,0,2023-11-22,2023-11-22,ケイ・アール・マネージメント合同会社,,合同会社,兵庫県,姫路市,北平野１丁目６－１２ウイングス北平野１階,,28,201,6700893,,,,,,,2023-11-22,1,,,,,ケイアールマネージメント,0
1239,5150003003121,新規,0,2023-11-22,2023-11-22,合同会社クローバー,,合同会社,奈良県,橿原市,鳥屋町４６番４７号,,29,205,6340822,,,,,,,2023-11-22,1,,,,,クローバー,0
1242,5160001025521,新規,0,2023-11-22,2023-11-22,株式会社ピース,,株式会社,滋賀県,守山市,守山２丁目１４番１号,,25,207,5240022,,,,,,,2023-11-22,1,,,,,,0
1248,5180001159020,新規,0,2023-11-22,2023-11-22,株式会社大石,,株式会社,愛知県,名古屋市千種区,京命１丁目２２番１５号,,23,101,4640004,,,,,,,2023-11-22,1,,,,,ダイセキ,0
1249,5180001159061,新規,0,2023-11-22,2023-11-22,株式会社エムエートゥー,,株式会社,愛知県,名古屋市天白区,植田本町２丁目９０６番地,,23,116,4680007,,,,,,,2023-11-22,1,,,,,エムエートゥー,0
1257,5190003004512,新規,0,2023-11-22,2023-11-22,合同会社パイプライン,,合同会社,三重県,四日市市,栄町１番１１号,,24,202,5100084,,,,,,,2023-11-22,1,,,,,パイプライン,0
1262,5220001025696,新規,0,2023-11-22,2023-11-22,株式会社ＬＩＥＮ　ＣＯＮＮＥＣＴ,,株式会社,石川県,金沢市,寺中町ホ２５番地１（ポラーノＢ棟・ＩＩＩ号）,00132756,17,201,9200341,,,,,,,2023-11-22,1,,,,,リアンコネクト,0
1263,5220001025705,新規,0,2023-11-22,2023-11-22,株式会社ＰＴＫリハビリステーション,,株式会社,石川県,金沢市,専光寺町レ４番地２９シーガルＩ１０２,00132760,17,201,9200356,,,,,,,2023-11-22,1,,,,,ピーティーケーリハビリステーション,0
1267,5240001062449,新規,0,2023-11-22,2023-11-22,株式会社メイクスリー,,株式会社,広島県,広島市安佐北区,安佐町大字飯室１２５５番地２,,34,106,7311142,,,,,,,2023-11-22,1,,,,,メイクスリー,0
1268,5240005015683,新規,0,2023-11-22,2023-11-22,忠海町農業會,00132662,その他の設立登記法人,広島県,竹原市,（豊田郡忠海町４４２５番地の２５）,,34,203,7250000,,,,,,,2023-11-22,1,,,,,,0
1271,5260001038505,新規,0,2023-11-22,2023-11-22,株式会社ＣＨＩＣ．,,株式会社,岡山県,倉敷市,東富井９６６番地２３,,33,202,7100847,,,,,,,2023-11-22,1,,,,,シック,0
1280,5290003014633,新規,0,2023-11-22,2023-11-22,ライフウェル合同会社,,合同会社,福岡県,大野城市,東大利２丁目１番１０号重松ビル３０７号,,40,219,8160941,,,,,,,2023-11-22,1,,,,,レイフウェル,0
1285,5330001031502,新規,0,2023-11-22,2023-11-22,株式会社不動産ｌａｎｄ,,株式会社,熊本県,玉名市,松木１８番地８,,43,206,8650052,,,,,,,2023-11-22,1,,,,,,0
1287,5340001026088,新規,0,2023-11-22,2023-11-22,株式会社鹿児島北斗ホールディングス,,株式会社,鹿児島県,鹿児島市,有屋田町２０８番地,,46,201,8911107,,,,,,,2023-11-22,1,,,,,カゴシマホクトホールディングス,0
1291,5360001032852,新規,0,2023-11-22,2023-11-22,ＢＣＭ沖縄株式会社,,株式会社,沖縄県,沖縄市,胡屋１丁目１８番１０号オールステイ胡屋１Ｆ,,47,211,9040021,,,,,,,2023-11-22,1,,,,,ビーシーエムオキナワ,0
1292,5360001032860,新規,0,2023-11-22,2023-11-22,株式会社ｉｓｌａｎｄ．ｃｏｍ,,株式会社,沖縄県,那覇市,銘苅１丁目１４番７号,,47,201,9000004,,,,,,,2023-11-22,1,,,,,アイランドコム,0
1293,5360003013495,新規,0,2023-11-22,2023-11-22,合同会社タワタ興産,,合同会社,沖縄県,宜野湾市,宜野湾１丁目６番２０号,,47,205,9012211,,,,,,,2023-11-22,1,,,,,タワタコウサン,0
1294,5360003013504,新規,0,2023-11-22,2023-11-22,Ｕ‐ｍａｋｕ‐育合同会社,,合同会社,沖縄県,うるま市,字喜屋武６５２番地２,,47,213,9042225,,,,,,,2023-11-22,1,,,,,ウーマクーイク,0
1298,5380003005623,新規,0,2023-11-22,2023-11-22,合同会社ＣｌｉｍｄＴｗｏ,,合同会社,福島県,大沼郡会津美里町,福重岡字屋敷廻乙３８９番地１,,07,447,9696144,,,,,,,2023-11-22,1,,,,,クライムツー,0
1311,5430003015682,新規,0,2023-11-22,2023-11-22,合同会社札幌愛南,,合同会社,北海道,札幌市中央区,南一条東３丁目４－１５０３,,01,101,0600051,,,,,,,2023-11-22,1,,,,,サッポロアイナン,0
1319,5470001019913,新規,0,2023-11-22,2023-11-22,株式会社システムワン,,株式会社,香川県,高松市,林町６番地２９,,37,201,7610301,,,,,,,2023-11-22,1,,,,,システムワン,0
1325,5490001010647,新規,0,2023-11-22,2023-11-22,株式会社白桜,,株式会社,高知県,高知市,九反田３番２０号宮崎ビル４階,00132761,39,201,7810832,,,,,,,2023-11-22,1,,,,,ハクラ,0
1327,5700150122238,新規,0,2023-11-22,2023-11-22,ＷＫ　Ｎｉｓｅｋｏ　Ｐｒｏｐｅｒｔｙ　Ｌｉｍｉｔｅｄ,,外国会社等,,,,,,,,３／Ｆ，６５　Ｂｉｓｎｅｙ　Ｒｏａｄ，Ｐｏｋ　Ｆｕ　Ｌａｍ，Ｈｏｎｇ　Ｋｏｎｇ,,,,,,2023-11-22,1,,,,,ダブリユーケーニセコプロパテイーリミテツド,0
1335,6010001240299,新規,0,2023-11-22,2023-11-22,株式会社ＤＰＳ．,,株式会社,東京都,中央区,八重洲２丁目１番１号ＹＡＮＭＡＲＴＯＫＹＯ１２階,,13,102,1040028,,,,,,,2023-11-22,1,,,,,ディーピーエス,0
1348,6010401178643,新規,0,2023-11-22,2023-11-22,株式会社ＴＶＳ,,株式会社,東京都,港区,東新橋１丁目１０番１号,,13,103,1050021,,,,,,,2023-11-22,1,,,,,ティーヴィエス,0
1350,6010403031387,新規,0,2023-11-22,2023-11-22,合同会社ＳＥＶＥＮ,,合同会社,東京都,港区,赤坂４丁目８番１９号赤坂フロントタウン３階,,13,103,1070052,,,,,,,2023-11-22,1,,,,,セブン,0
1354,6010501051411,新規,0,2023-11-22,2023-11-22,スマステ株式会社,,株式会社,東京都,台東区,西浅草２丁目９番２－３０１号,,13,106,1110035,,,,,,,2023-11-22,1,,,,,スマステ,0
1358,6010701045163,新規,0,2023-11-22,2023-11-22,縁株式会社,,株式会社,東京都,品川区,上大崎１丁目１７－１２ＧＫＧビル２Ｆ,,13,109,1410021,,,,,,,2023-11-22,1,,,,,エン,0
1359,6010703006956,新規,0,2023-11-22,2023-11-22,合同会社鴨工芸,,合同会社,東京都,品川区,南品川５丁目１１番４６－２０２号,,13,109,1400004,,,,,,,2023-11-22,1,,,,,カモコウゲイ,0
1363,6010801034529,新規,0,2023-11-22,2023-11-22,Ｈ．Ｓ．Ｃ株式会社,,株式会社,東京都,大田区,大森西７丁目９番７－２１３号,,13,111,1430015,,,,,,,2023-11-22,1,,,,,エイチエスシー,0
1369,6011001158432,新規,0,2023-11-22,2023-11-22,ＦａｔｈｏｍＸ　Ｊａｐａｎ株式会社,,株式会社,東京都,渋谷区,渋谷３丁目５番１６号渋谷三丁目スクエアビル２階,,13,113,1500002,,,,,,,2023-11-22,1,,,,,ファトムエックスジャパン,0
1370,6011003017966,新規,0,2023-11-22,2023-11-22,合同会社Ｇｒｏｗｔｈ‐Ｂ,,合同会社,東京都,渋谷区,神宮前６丁目２３番４号桑野ビル２階,,13,113,1500001,,,,,,,2023-11-22,1,,,,,グロウスビー,0
1375,6011101105219,新規,0,2023-11-22,2023-11-22,株式会社スペースインダストリー,,株式会社,東京都,新宿区,西新宿７丁目２２番３８号,,13,104,1600023,,,,,,,2023-11-22,1,,,,,スペースインダストリー,0
1376,6011201025060,新規,0,2023-11-22,2023-11-22,株式会社ヒカルーク,,株式会社,東京都,中野区,中野５丁目５１番２－２３０６号,,13,114,1640001,,,,,,,2023-11-22,1,,,,,ヒカルーク,0
1378,6011301029201,新規,0,2023-11-22,2023-11-22,株式会社ミライブライト,,株式会社,東京都,杉並区,荻窪３丁目７番５２号シティテラス荻窪ブリーズコート１２３,,13,115,1670051,,,,,,,2023-11-22,1,,,,,ミライブライト,0
1380,6011305002947,新規,0,2023-11-22,2023-11-22,一般社団法人国民生活機構,,その他の設立登記法人,東京都,杉並区,和田３丁目６２番４号アビテ東高円寺６０３号,,13,115,1660012,,,,,,,2023-11-22,1,,,,,コクミンセイカツキコウ,0
1382,6011503005850,新規,0,2023-11-22,2023-11-22,Ｋｅｎｂｏｉｎｃ合同会社,,合同会社,東京都,北区,神谷１丁目１－２７－１０３,,13,117,1150043,,,,,,,2023-11-22,1,,,,,ケンボーインク,0
1383,6011601027301,新規,0,2023-11-22,2023-11-22,ＫＩＫＵＣＨＩ　ＧＲＯＵＰ株式会社,,株式会社,東京都,練馬区,高野台４丁目７番６号,,13,120,1770033,,,,,,,2023-11-22,1,,,,,キクチグループ,0
1389,6011801043387,新規,0,2023-11-22,2023-11-22,東拓株式会社,,株式会社,東京都,葛飾区,新小岩３丁目２９番７号,,13,122,1240024,,,,,,,2023-11-22,1,,,,,トウタク,0
1393,6012401041236,新規,0,2023-11-22,2023-11-22,株式会社ジャストワン,,株式会社,東京都,調布市,仙川町１丁目２８番８号,,13,208,1820002,,,,,,,2023-11-22,1,,,,,ジャストワン,0
1406,6020001154564,新規,0,2023-11-22,2023-11-22,株式会社令和新エネルギーテクノ,,株式会社,神奈川県,横浜市西区,浜松町１２番地２７ＹＴビル４階,,14,103,2200055,,,,,,,2023-11-22,1,,,,,,0
1407,6020001154580,新規,0,2023-11-22,2023-11-22,株式会社Ｕｎｈｏｒｉｚｏｎ,,株式会社,神奈川県,横浜市旭区,万騎が原９０－１２,,14,112,2410836,,,,,,,2023-11-22,1,,,,,アンホライズン,0
1408,6020001154597,新規,0,2023-11-22,2023-11-22,株式会社ビオライフデイズ,,株式会社,神奈川県,横浜市戸塚区,矢部町１７５９番地,,14,110,2440002,,,,,,,2023-11-22,1,,,,,ビオライフデイズ,0
1409,6020001154622,新規,0,2023-11-22,2023-11-22,株式会社４２１,,株式会社,神奈川県,横浜市西区,浅間町１丁目４番地３ウィザードビル４０２,,14,103,2200072,,,,,,,2023-11-22,1,,,,,フォートゥーワン,0
1412,6020003025037,新規,0,2023-11-22,2023-11-22,ｂｅｆｉｔ合同会社,,合同会社,神奈川県,横浜市西区,浅間町１丁目４番３号ウィザードビル４０２,,14,103,2200072,,,,,,,2023-11-22,1,,,,,ビフィット,0
1419,6021001080791,新規,0,2023-11-22,2023-11-22,株式会社２２０１ＣＬＵＢ,,株式会社,神奈川県,相模原市緑区,下九沢１９０２番地１,,14,151,2520134,,,,,,,2023-11-22,1,,,,,ニーニーゼロイチクラブ,0
1420,6021001080800,新規,0,2023-11-22,2023-11-22,株式会社ひつじ建物管理,,株式会社,神奈川県,藤沢市,湘南台４丁目７番地の２エスタテラ湘南台オーシャンコート１１０５号,,14,205,2520804,,,,,,,2023-11-22,1,,,,,ヒツジタテモノカンリ,0
1426,6030001157293,新規,0,2023-11-22,2023-11-22,盈信株式会社,,株式会社,埼玉県,川口市,芝４丁目２５番１２号,,11,203,3330866,,,,,,,2023-11-22,1,,,,,エイシン,0
1430,6030003023048,新規,0,2023-11-22,2023-11-22,合同会社ＬＩＦＩＸ,,合同会社,埼玉県,上尾市,大字領家６６番地１４,,11,219,3620066,,,,,,,2023-11-22,1,,,,,リフィックス,0
1432,6030005021479,新規,0,2023-11-22,2023-11-22,司法書士法人ムサシ登記サービス,,その他の設立登記法人,埼玉県,比企郡嵐山町,大字平澤６８９番地２,,11,342,3550215,,,,,,,2023-11-22,1,,,,,ムサシトウキサービス,0
1439,6040001131009,新規,0,2023-11-22,2023-11-22,株式会社かわず屋,,株式会社,千葉県,佐倉市,江原台２丁目１５番地２４,,12,212,2850825,,,,,,,2023-11-22,1,,,,,カワズヤ,0
1440,6040001131033,新規,0,2023-11-22,2023-11-22,イノマ株式会社,,株式会社,千葉県,市川市,宝１丁目１５番６号,,12,203,2720122,,,,,,,2023-11-22,1,,,,,イノマ,0
1444,6040003023781,新規,0,2023-11-22,2023-11-22,合同会社カメラの王様,,合同会社,千葉県,浦安市,富岡３丁目３－Ｂ－６０６,,12,227,2790021,,,,,,,2023-11-22,1,,,,,カメラノオウサマ,0
1449,6040005022204,新規,0,2023-11-22,2023-11-22,医療法人社団梨花会,,その他の設立登記法人,千葉県,八千代市,村上１１１３番地１村上団地第１街区第５２号棟,,12,221,2760028,,,,,,,2023-11-22,1,,,,,リカカイ,0
1455,6050001053862,新規,0,2023-11-22,2023-11-22,株式会社Ｗｈｉｔｅ　Ｂａｓｅｂａｌｌ　Ａｃａｄｅｍｙ,,株式会社,茨城県,つくば市,さくらの森２番地１ＫＳ－ＩＩ２０２号,00132759,08,220,3050019,,,,,,,2023-11-22,1,,,,,ホワイトベースボールアカデミー,0
1461,6070001041080,新規,0,2023-11-22,2023-11-22,株式会社フルカワ工業,,株式会社,群馬県,安中市,原市１９３３番地１１,,10,211,3790133,,,,,,,2023-11-22,1,,,,,フルカワコウギョウ,0
1467,6080405007593,新規,0,2023-11-22,2023-11-22,特定非営利活動法人Ｒｉｖ．Ｐｒｏ．,,その他の設立登記法人,静岡県,磐田市,見付２９６９－９,,22,211,4380086,,,,,,,2023-11-22,1,,,,,リバプロ,0
1485,6120001259964,新規,0,2023-11-22,2023-11-22,株式会社ＥＭＫ,,株式会社,大阪府,大阪市北区,梅田１丁目１－３大阪駅前第３ビル２９階１－１－１号室,,27,127,5300001,,,,,,,2023-11-22,1,,,,,イーエムケー,0
1486,6120001260055,新規,0,2023-11-22,2023-11-22,ｙｏｌｏｚ株式会社,,株式会社,大阪府,大阪市北区,中津３丁目２４－３－２１０,,27,127,5310071,,,,,,,2023-11-22,1,,,,,ヨロズ,0
1487,6120001260063,新規,0,2023-11-22,2023-11-22,ＭＴＴ株式会社,,株式会社,大阪府,大阪市北区,茶屋町８番２１号,,27,127,5300013,,,,,,,2023-11-22,1,,,,,エムティティ,0
1493,6120005023994,新規,0,2023-11-22,2023-11-22,一般社団法人日本ネパールＩＴ産業協会,,その他の設立登記法人,大阪府,大阪市浪速区,敷津東２丁目１番４１号,,27,111,5560012,,,,,,,2023-11-22,1,,,,,ニホンネパールアイティーサンギョウキョウカイ,0
1495,6120101068588,新規,0,2023-11-22,2023-11-22,株式会社Ｔ‐ＲＩＳＥ,,株式会社,大阪府,和泉市,山荘町１丁目１２－４,,27,219,5940021,,,,,,,2023-11-22,1,,,,,ティーライズ,0
1498,6120901048384,新規,0,2023-11-22,2023-11-22,株式会社ＹＫ,,株式会社,大阪府,豊中市,岡町９－７,,27,203,5610885,,,,,,,2023-11-22,1,,,,,ワイケー,0
1499,6120901048401,新規,0,2023-11-22,2023-11-22,株式会社Ａｕｒｏｒａ　Ｌｉｌｙ,,株式会社,大阪府,豊中市,大島町１丁目２－１２－７０８,,27,203,5610824,,,,,,,2023-11-22,1,,,,,オーロラリリー,0
1501,6122001037598,新規,0,2023-11-22,2023-11-22,株式会社ＺＯＯＮ,,株式会社,大阪府,八尾市,上尾町３丁目５９番地の６,,27,212,5810851,,,,,,,2023-11-22,1,,,,,ズー,0
1510,6130001075758,新規,0,2023-11-22,2023-11-22,デルビファイ・ジャパン株式会社,,株式会社,京都府,京都市北区,紫野下柏野町１５番地５,,26,101,6038313,,,,,,,2023-11-22,1,,,,,デルビファイジャパン,0
1512,6140001132418,新規,0,2023-11-22,2023-11-22,株式会社六甲エリタージュ,,株式会社,兵庫県,神戸市灘区,篠原北町２丁目４番２１号,,28,102,6570068,,,,,,,2023-11-22,1,,,,,ロッコウエリタージュ,0
1513,6140001132434,新規,0,2023-11-22,2023-11-22,株式会社エアリー,,株式会社,兵庫県,西宮市,戸田町６番１１号,,28,204,6620916,,,,,,,2023-11-22,1,,,,,エアリー,0
1517,6140003019852,新規,0,2023-11-22,2023-11-22,合同会社ＫａｋｏＦａｃｔｏｒｙ,,合同会社,兵庫県,神戸市東灘区,深江北町４丁目１２番１４－１４０１号,,28,101,6580013,,,,,,,2023-11-22,1,,,,,カコファクトリー,0
1519,6160003003045,新規,0,2023-11-22,2023-11-22,ＨＯＡＩ　ＡＮ合同会社,,合同会社,滋賀県,甲賀市,水口町八坂２番３６号,,25,209,5280032,,,,,,,2023-11-22,1,,,,,ホアイアン,0
1521,6170001017896,新規,0,2023-11-22,2023-11-22,株式会社しろ薬局,,株式会社,和歌山県,日高郡みなべ町,埴田１５９０番地１０３,,30,391,6450004,,,,,,,2023-11-22,1,,,,,シロヤッキョク,0
1534,6190001030906,新規,0,2023-11-22,2023-11-22,ＳＧＮホールディングス株式会社,,株式会社,三重県,鈴鹿市,北長太町１８３９番地,,24,207,5130049,,,,,,,2023-11-22,1,,,,,エスジーエヌホールディングス,0
1537,6230001020118,新規,0,2023-11-22,2023-11-22,エーフィールド株式会社,,株式会社,富山県,富山市,明輪町１番１２７－４０２号信開クレベール富山,,16,201,9300001,,,,,,,2023-11-22,1,,,,,エーフィールド,0
1538,6230005009347,新規,0,2023-11-22,2023-11-22,農事組合法人みどり営農組合,,その他の設立登記法人,富山県,南砺市,土生新５１３番地,,16,210,9391756,,,,,,,2023-11-22,1,,,,,ミドリエイノウクミアイ,0
1540,6240001062448,新規,0,2023-11-22,2023-11-22,株式会社あかつき商事,,株式会社,広島県,福山市,神辺町大字川北１００１番地１５,,34,207,7202123,,,,,,,2023-11-22,1,,,,,アカツキショウジ,0
1541,6240001062456,新規,0,2023-11-22,2023-11-22,株式会社ＹＥＬＬ,,株式会社,広島県,広島市安佐南区,伴西４丁目９番２４号,,34,105,7313169,,,,,,,2023-11-22,1,,,,,エール,0
1544,6250001020405,新規,0,2023-11-22,2023-11-22,周南ウォーターサービス株式会社,,株式会社,山口県,周南市,新宿通３丁目１８番地,,35,215,7450056,,,,,,,2023-11-22,1,,,,,シュウナンウォーターサービス,0
1559,6350001018678,新規,0,2023-11-22,2023-11-22,株式会社田,,株式会社,宮崎県,宮崎市,大淀３丁目３番５号,,45,201,8800902,,,,,,,2023-11-22,1,,,,,タノジ,0
1562,6370001050646,新規,0,2023-11-22,2023-11-22,株式会社ＡＬＬ,,株式会社,宮城県,仙台市泉区,松森字陣ケ原１番地の２２,,04,105,9813111,,,,,,,2023-11-22,1,,,,,オール,0
1567,6380001034144,新規,0,2023-11-22,2023-11-22,株式会社須藤サイディング,,株式会社,福島県,田村郡小野町,大字飯豊字三又２０９番地３,,07,522,9633521,,,,,,,2023-11-22,1,,,,,スドウサイディング,0
1569,6380003005622,新規,0,2023-11-22,2023-11-22,合同会社ＣＲＥＶＩＡ,,合同会社,福島県,耶麻郡猪苗代町,大字磐里字上ノ上２２２番地２,,07,408,9693141,,,,,,,2023-11-22,1,,,,,クレヴィア,0
1570,6390005009042,新規,0,2023-11-22,2023-11-22,企業組合浜っこマルシェ,,その他の設立登記法人,山形県,鶴岡市,温海字温海３７番地６,,06,203,9997205,,,,,,,2023-11-22,1,,,,,ハマッコマルシェ,0
1571,6400003003177,新規,0,2023-11-22,2023-11-22,ヴィジョンエッジ合同会社,,合同会社,岩手県,盛岡市,本町通２丁目１番２１号,,03,201,0200015,,,,,,,2023-11-22,1,,,,,ヴィジョンエッジ,0
1574,6430001090479,新規,0,2023-11-22,2023-11-22,Ｔｉｖｏｌｉ　Ａｕｄｉｏ株式会社,,株式会社,北海道,虻田郡倶知安町,北一条西１丁目１番地１山崎ビル３階,,01,400,0440051,,,,,,,2023-11-22,1,,,,,チボリオーディオ,0
1575,6430003015624,新規,0,2023-11-22,2023-11-22,合同会社ももたろ,,合同会社,北海道,札幌市北区,北三十二条西１０丁目１番１０－２０１号,,01,102,0010032,,,,,,,2023-11-22,1,,,,,モモタロ,0
1578,6460001005847,新規,0,2023-11-22,2023-11-22,エヌエスセキュリティー株式会社,,株式会社,北海道,釧路市,昭和中央１丁目１８番２号,,01,206,0840910,,,,,,,2023-11-22,1,,,,,エヌエスセキュリティー,0
1582,6470001019912,新規,0,2023-11-22,2023-11-22,株式会社Ａ,,株式会社,香川県,綾歌郡宇多津町,浜五番丁５２番地４アルファビル宇多津１階,,37,386,7690205,,,,,,,2023-11-22,1,,,,,エース,0
1583,6480003002048,新規,0,2023-11-22,2023-11-22,合同会社万葉,,合同会社,徳島県,徳島市,八万町上福万２２０番地１３,,36,201,7708073,,,,,,,2023-11-22,1,,,,,マンヨウ,0
1587,6500001025320,新規,0,2023-11-22,2023-11-22,しまなみリゾート株式会社,,株式会社,愛媛県,今治市,吉海町名２２５６番地,,38,202,7942114,,,,,,,2023-11-22,1,,,,,シマナミリゾート,0
1590,6700150122237,新規,0,2023-11-22,2023-11-22,Ｒｙａｎｕ　Ｓｅｒｖｉｃｅｓ　Ｐｔｙ　Ｌｔｄ,,外国会社等,,,,,,,,オーストラリア連邦サウスオーストラリア、メディンディーハーバートストリート９,,,,,,2023-11-22,1,,,,,ライアヌサービシズピーテイーワイリミテツド,0
1596,7010001240182,新規,0,2023-11-22,2023-11-22,株式会社ジオコミュニティ,,株式会社,東京都,中央区,日本橋兜町２０番５号兜町八千代ビルディング８階,,13,102,1030026,,,,,,,2023-11-22,1,,,,,ジオコミュニティ,0
1597,7010001240190,新規,0,2023-11-22,2023-11-22,朴和株式会社,,株式会社,東京都,中央区,佃２丁目１番１－４３０９号,,13,102,1040051,,,,,,,2023-11-22,1,,,,,ボクワ,0
1598,7010001240249,新規,0,2023-11-22,2023-11-22,株式会社ＳＴＯＣＫ１３３,,株式会社,東京都,千代田区,永田町２丁目１２番４号,,13,101,1000014,,,,,,,2023-11-22,1,,,,,ストックヒャクサンジュウサン,0
1599,7010001240257,新規,0,2023-11-22,2023-11-22,株式会社Ｏ,,株式会社,東京都,中央区,銀座７丁目１５番８号タウンハイツ銀座４０６,,13,102,1040061,,,,,,,2023-11-22,1,,,,,オー,0
1603,7010401178618,新規,0,2023-11-22,2023-11-22,株式会社ＤＢＣホールディングス,,株式会社,東京都,港区,赤坂９丁目７番１号ミッドタウン・タワー３７階,,13,103,1070052,,,,,,,2023-11-22,1,,,,,ディービーシーホールディングス,0
1604,7010401178650,新規,0,2023-11-22,2023-11-22,株式会社ＬＩＺＳ,,株式会社,東京都,港区,北青山３丁目１番６号３１６青山３０３,,13,103,1070061,,,,,,,2023-11-22,1,,,,,ライズ,0
1605,7010401178667,新規,0,2023-11-22,2023-11-22,プライベートコンシェルジュ株式会社,,株式会社,東京都,港区,北青山２丁目７番１３号プラセオ青山ビル３Ｆ,,13,103,1070061,,,,,,,2023-11-22,1,,,,,プライベートコンシェルジュ,0
1606,7010401178675,新規,0,2023-11-22,2023-11-22,Ｔ＆Ｙキャピタル株式会社,,株式会社,東京都,港区,北青山１丁目４番１号６階,,13,103,1070061,,,,,,,2023-11-22,1,,,,,ティアンドワイキャピタル,0
1607,7010401178683,新規,0,2023-11-22,2023-11-22,株式会社Ｌｅｏ　Ｊａｐａｎ,,株式会社,東京都,港区,芝浦３丁目１０番６－９０８号,,13,103,1080023,,,,,,,2023-11-22,1,,,,,レオジャパン,0
1612,7010403031436,新規,0,2023-11-22,2023-11-22,エムズ合同会社,,合同会社,東京都,港区,北青山１丁目３番１号アールキューブ青山３階,,13,103,1070061,,,,,,,2023-11-22,1,,,,,エムズ,0
1613,7010405022722,新規,0,2023-11-22,2023-11-22,一般社団法人めしのタネ,,その他の設立登記法人,東京都,港区,港南４丁目７番１－１９０５号,,13,103,1080075,,,,,,,2023-11-22,1,,,,,メシノタネ,0
1614,7010501051410,新規,0,2023-11-22,2023-11-22,株式会社ＳＡＲＡ　ＣＯＲＰＯＲＡＴＩＯＮ,,株式会社,東京都,台東区,鳥越１丁目６－２－１２０３,,13,106,1110054,,,,,,,2023-11-22,1,,,,,サラコーポレーション,0
1621,7010703006947,新規,0,2023-11-22,2023-11-22,合同会社ブリッジ３,,合同会社,東京都,品川区,上大崎１丁目３番１１号,,13,109,1410021,,,,,,,2023-11-22,1,,,,,ブリッジスリー,0
1622,7010703006955,新規,0,2023-11-22,2023-11-22,利成合同会社,,合同会社,東京都,品川区,南大井３丁目２１番７－４０５号,,13,109,1400013,,,,,,,2023-11-22,1,,,,,トシナリ,0
1638,7011001158258,新規,0,2023-11-22,2023-11-22,株式会社ＭＯＴ,,株式会社,東京都,渋谷区,道玄坂１丁目１０番８号渋谷道玄坂東急ビル２Ｆ－Ｃ,,13,113,1500043,,,,,,,2023-11-22,1,,,,,モット,0
1647,7011101105127,新規,0,2023-11-22,2023-11-22,株式会社アガルートホールディングス,,株式会社,東京都,新宿区,新小川町５番５号,,13,104,1620814,,,,,,,2023-11-22,1,,,,,アガルートホールディングス,0
1653,7011401025628,新規,0,2023-11-22,2023-11-22,ＮＩＣ　Ｒｅｓｏｕｒｃｅｓ株式会社,,株式会社,東京都,板橋区,舟渡３丁目１４番１号,,13,119,1740041,,,,,,,2023-11-22,1,,,,,エヌアイシーリソーシーズ,0
1654,7011403004175,新規,0,2023-11-22,2023-11-22,ナベヒロ合同会社,,合同会社,東京都,板橋区,赤塚３丁目３９番２号モリヤパレス１・１０２,,13,119,1750092,,,,,,,2023-11-22,1,,,,,ナベヒロ,0
1655,7011403004183,新規,0,2023-11-22,2023-11-22,合同会社志村建物管理,,合同会社,東京都,板橋区,中台１丁目１番４号,,13,119,1740064,,,,,,,2023-11-22,1,,,,,シムラタテモノカンリ,0
1657,7011501030024,新規,0,2023-11-22,2023-11-22,株式会社すぱいし家,,株式会社,東京都,荒川区,荒川６丁目２８番３－３０７号,,13,118,1160002,,,,,,,2023-11-22,1,,,,,スパイシヤ,0
1659,7011601027300,新規,0,2023-11-22,2023-11-22,株式会社Ｎ．ＷＯＲＫＳ,,株式会社,東京都,練馬区,中村北１丁目２－７－３０２,,13,120,1760023,,,,,,,2023-11-22,1,,,,,エヌワークス,0
1660,7011601027309,新規,0,2023-11-22,2023-11-22,ビレッジ・エイド株式会社,,株式会社,東京都,練馬区,上石神井１丁目３９番４号,,13,120,1770044,,,,,,,2023-11-22,1,,,,,ビレッジエイド,0
1664,7011701026796,新規,0,2023-11-22,2023-11-22,ＨＴ　ＪＡＰＡＮ株式会社,,株式会社,東京都,江戸川区,西葛西８丁目１８番１３号メゾン・クレールＣ２０１,,13,123,1340088,,,,,,,2023-11-22,1,,,,,エイチティージャパン,0
1674,7020001154605,新規,0,2023-11-22,2023-11-22,株式会社みどり屋根,,株式会社,神奈川県,横浜市緑区,台村町１０２３番地５ルノード３０４号室,,14,113,2260014,,,,,,,2023-11-22,1,,,,,ミドリヤネ,0
1675,7020001154613,新規,0,2023-11-22,2023-11-22,株式会社タスサン,,株式会社,神奈川県,川崎市宮前区,土橋４丁目１１番地４パークヒルズ鷺沼６０２,,14,136,2160005,,,,,,,2023-11-22,1,,,,,タスサン,0
1680,7020003025044,新規,0,2023-11-22,2023-11-22,合同会社Ｂｅｙｏｎｄ　Ｔｈｅ　Ｂｏｕｎｄａｒｙ,,合同会社,神奈川県,横浜市中区,相生町３丁目６１泰生ビル２階,,14,104,2310012,,,,,,,2023-11-22,1,,,,,ビヨンドザバウンダリー,0
1682,7021001080790,新規,0,2023-11-22,2023-11-22,株式会社Ｍｙｒｉｃａ,,株式会社,神奈川県,大和市,深見３８８３番地１ソレアードＡ２０１,,14,213,2420011,,,,,,,2023-11-22,1,,,,,ミリカ,0
1683,7021001080799,新規,0,2023-11-22,2023-11-22,株式会社ＫＥＩＴＯ,,株式会社,神奈川県,小田原市,浜町３丁目１番１７号,,14,206,2500004,,,,,,,2023-11-22,1,,,,,ケイト,0
1684,7021001080808,新規,0,2023-11-22,2023-11-22,久川漢方株式会社,,株式会社,神奈川県,海老名市,中央２丁目５番２８号,,14,215,2430432,,,,,,,2023-11-22,1,,,,,ヒサカワカンポウ,0
1686,7021003013823,新規,0,2023-11-22,2023-11-22,合同会社エムエフシー,,合同会社,神奈川県,相模原市中央区,淵野辺１丁目２番４０号,,14,152,2520206,,,,,,,2023-11-22,1,,,,,エムエフシー,0
1696,7030001157268,新規,0,2023-11-22,2023-11-22,株式会社ワンダークリエイト,,株式会社,埼玉県,川口市,末広３丁目４番３２－１０号,,11,203,3320006,,,,,,,2023-11-22,1,,,,,ワンダークリエイト,0
1697,7030001157276,新規,0,2023-11-22,2023-11-22,株式会社Ｐｌａｙｆｕｌｌｌ,,株式会社,埼玉県,草加市,新里町７２－２,,11,221,3400031,,,,,,,2023-11-22,1,,,,,プレイフル,0
1699,7030003022800,新規,0,2023-11-22,2023-11-22,合同会社しろアニ,,合同会社,埼玉県,さいたま市南区,別所３丁目４－１ＫＥＳＳＨＯＵ．ＢＬＤＧ３０３,,11,108,3360021,,,,,,,2023-11-22,1,,,,,シロアニ,0
1701,7040001131024,新規,0,2023-11-22,2023-11-22,株式会社ＭＳＳ　Ｃｏｒｐｏｒａｔｉｏｎ,,株式会社,千葉県,木更津市,大久保２丁目９番４号,,12,206,2920815,,,,,,,2023-11-22,1,,,,,エムエスエスコーポレーション,0
1702,7040001131032,新規,0,2023-11-22,2023-11-22,株式会社神樂,,株式会社,千葉県,千葉市若葉区,北谷津町２８７番地４,,12,104,2650067,,,,,,,2023-11-22,1,,,,,カグラ,0
1703,7040001131073,新規,0,2023-11-22,2023-11-22,株式会社ＹＡＨＭＡＮ,,株式会社,千葉県,長生郡一宮町,一宮２５４番地１,,12,421,2994301,,,,,,,2023-11-22,1,,,,,ヤーマン,0
1716,7050001053861,新規,0,2023-11-22,2023-11-22,株式会社損保スリム,,株式会社,茨城県,那珂市,飯田８６６番地３,,08,226,3110134,,,,,,,2023-11-22,1,,,,,ソンポスリム,0
1724,7070001041088,新規,0,2023-11-22,2023-11-22,ｋａｉ　ｅｎｔｅｒｐｒｉｓｅ株式会社,,株式会社,群馬県,伊勢崎市,富塚町２３０番地２０,,10,204,3720833,,,,,,,2023-11-22,1,,,,,カイエンタープライズ,0
1732,7080001025981,新規,0,2023-11-22,2023-11-22,株式会社サムライフ,,株式会社,静岡県,藤枝市,下之郷１１９５番地の３,,22,214,4260203,,,,,,,2023-11-22,1,,,,,サムライフ,0
1743,7100003007232,新規,0,2023-11-22,2023-11-22,合資会社沢井商店,,合資会社,長野県,佐久市,望月６番地,,20,217,3842202,,,,,,,2023-11-22,1,,,,,サワイショウテン,0
1746,7110003005219,新規,0,2023-11-22,2023-11-22,合同会社Ｍｒ．Ｋｏｄａｍａ,,合同会社,新潟県,小千谷市,大字山谷２８５番地１,,15,208,9470043,,,,,,,2023-11-22,1,,,,,ミスターコダマ,0
1750,7120001260013,新規,0,2023-11-22,2023-11-22,株式会社発必達,,株式会社,大阪府,大阪市住之江区,新北島５丁目３－１－５０３,,27,125,5590024,,,,,,,2023-11-22,1,,,,,ハツヒッタツ,0
1751,7120001260038,新規,0,2023-11-22,2023-11-22,株式会社Ｓｅｌｅｃｔ,,株式会社,大阪府,大阪市中央区,上本町西２丁目５番３７号,,27,128,5420062,,,,,,,2023-11-22,1,,,,,セレクト,0
1752,7120001260054,新規,0,2023-11-22,2023-11-22,株式会社Ｒａｙ,,株式会社,大阪府,大阪市東淀川区,豊新３丁目３番３２号,,27,114,5330014,,,,,,,2023-11-22,1,,,,,レイ,0
1753,7120001260079,新規,0,2023-11-22,2023-11-22,株式会社サポートスタイル,,株式会社,大阪府,守口市,藤田町１丁目４９番３号,,27,209,5700014,,,,,,,2023-11-22,1,,,,,サポートスタイル,0
1755,7120003025372,新規,0,2023-11-22,2023-11-22,合同会社エクセレント,,合同会社,大阪府,大阪市北区,西天満３丁目５番２号クリエ西天満ビル６０２号,,27,127,5300047,,,,,,,2023-11-22,1,,,,,エクセレント,0
1756,7120003025389,新規,0,2023-11-22,2023-11-22,合同会社ＴＨＲＥＥＴＥＮ,,合同会社,大阪府,大阪市西区,阿波座１丁目１５－１６キャビン西本町ビルディング４０２,,27,106,5500011,,,,,,,2023-11-22,1,,,,,スリーテン,0
1763,7120101068570,新規,0,2023-11-22,2023-11-22,株式会社ＰＲＯＳＴＲＥＥＴ,,株式会社,大阪府,堺市北区,奥本町２丁４３番１１号,,27,146,5918007,,,,,,,2023-11-22,1,,,,,プロストリート,0
1768,7120903004938,新規,0,2023-11-22,2023-11-22,合同会社冨安設備,,合同会社,大阪府,高槻市,安岡寺町１丁目６７番６号,,27,207,5691029,,,,,,,2023-11-22,1,,,,,トミヤスセツビ,0
1769,7122001037597,新規,0,2023-11-22,2023-11-22,燈株式会社,,株式会社,大阪府,八尾市,山本町南１丁目９番２３号岩崎ビル３Ｆ,00132767,27,212,5810013,,,,,,,2023-11-22,1,,,,,アカリ,0
1772,7130003002800,新規,0,2023-11-22,2023-11-22,合同会社現代書房,,合同会社,京都府,福知山市,字岩崎５４番地,,26,201,6200831,,,,,,,2023-11-22,1,,,,,ゲンダイショボウ,0
1774,7140001132425,新規,0,2023-11-22,2023-11-22,株式会社ＬＩＰＳ・ＡＳＳＩＳＴ,,株式会社,兵庫県,姫路市,北原４５番地５０,,28,201,6728002,,,,,,,2023-11-22,1,,,,,リップスアシスト,0
1775,7140001132433,新規,0,2023-11-22,2023-11-22,株式会社ＳＡＭＵ,,株式会社,兵庫県,高砂市,高砂町藍屋町１７３５番地の２,,28,216,6760037,,,,,,,2023-11-22,1,,,,,サム,0
1777,7140003019843,新規,0,2023-11-22,2023-11-22,ＳＡＫＵＲＡ　ＣＡＲ　ＦＡＭＩＬＹ合同会社,,合同会社,兵庫県,姫路市,船津町５２６２番地１６,,28,201,6792101,,,,,,,2023-11-22,1,,,,,サクラカーファミリー,0
1780,7160003003044,新規,0,2023-11-22,2023-11-22,合同会社ＤＯＵＳＩＮ,,合同会社,滋賀県,湖南市,岩根中央３丁目１０番地,,25,211,5203254,,,,,,,2023-11-22,1,,,,,ドウシン,0
1790,7180001159019,新規,0,2023-11-22,2023-11-22,株式会社ＳＧ創建,,株式会社,愛知県,春日井市,東野町西２丁目８番地２４,,23,206,4860818,,,,,,,2023-11-22,1,,,,,エスジーソウケン,0
1791,7180001159027,新規,0,2023-11-22,2023-11-22,株式会社ＲＯＭＡＮＤ,,株式会社,愛知県,名古屋市西区,十方町１４６番地,,23,104,4520837,,,,,,,2023-11-22,1,,,,,ロマンド,0
1792,7180001159043,新規,0,2023-11-22,2023-11-22,株式会社ケーズタウン,,株式会社,愛知県,名古屋市中区,丸の内３丁目６番３３号５１０号,,23,106,4600002,,,,,,,2023-11-22,1,,,,,ケーズタウン,0
1796,7200001041917,新規,0,2023-11-22,2023-11-22,株式会社ＧＲＦ工業,,株式会社,岐阜県,関市,西田原２３１６番地３,,21,205,5013928,,,,,,,2023-11-22,1,,,,,ジーアールエフコウギョウ,0
1798,7210001019549,新規,0,2023-11-22,2023-11-22,株式会社福悦,,株式会社,福井県,福井市,江端町第２１号２０番地,,18,201,9188016,,,,,,,2023-11-22,1,,,,,フクエツ,0
1799,7220001025703,新規,0,2023-11-22,2023-11-22,株式会社Ｅｌｅｘａｓ,,株式会社,石川県,羽咋郡志賀町,高浜町クの２５番地１３,,17,384,9250141,,,,,,,2023-11-22,1,,,,,エレサス,0
1803,7240001062447,新規,0,2023-11-22,2023-11-22,株式会社ライフコネクト,,株式会社,広島県,広島市安佐南区,相田１丁目１６番１４号,,34,105,7310141,,,,,,,2023-11-22,1,,,,,ライフコネクト,0
1807,7250001020404,新規,0,2023-11-22,2023-11-22,株式会社ＳＨＩＮＯＮＯＭＥ,,株式会社,山口県,下松市,中央町１０番５号,,35,207,7440025,,,,,,,2023-11-22,1,,,,,シノノメ,0
1810,7260003004503,新規,0,2023-11-22,2023-11-22,合同会社ｋｕｋｋａ,,合同会社,岡山県,津山市,林田７６７番地１,,33,203,7080822,,,,,,,2023-11-22,1,,,,,クッカ,0
1824,7300001013534,新規,0,2023-11-22,2023-11-22,庭福株式会社,,株式会社,佐賀県,佐賀市,三瀬村三瀬２６３９番地１,,41,201,8420301,,,,,,,2023-11-22,1,,,,,ニワフク,0
1825,7300003002048,新規,0,2023-11-22,2023-11-22,合同会社Ｋｈｏｙ,,合同会社,佐賀県,鳥栖市,元町１３３６番地３大山アパート１０６号室,,41,203,8410051,,,,,,,2023-11-22,1,,,,,ホイ,0
1832,7340001026094,新規,0,2023-11-22,2023-11-22,株式会社和創夕月,,株式会社,鹿児島県,姶良市,蒲生町下久徳２６０１番地１,,46,225,8995304,,,,,,,2023-11-22,1,,,,,ワソウユウヅキ,0
1842,7360001032859,新規,0,2023-11-22,2023-11-22,株式会社沖幸グループ,,株式会社,沖縄県,那覇市,牧志２丁目１番１８号,,47,201,9000013,,,,,,,2023-11-22,1,,,,,オキコウグループ,0
1843,7360003013485,新規,0,2023-11-22,2023-11-22,合同会社ＮＥＺＫ,,合同会社,沖縄県,国頭郡本部町,字瀬底２６３９番地１,,47,308,9050227,,,,,,,2023-11-22,1,,,,,ネズク,0
1848,7370001050645,新規,0,2023-11-22,2023-11-22,株式会社Ｔ．Ｉ＆Ｂ,,株式会社,宮城県,仙台市青葉区,下愛子字月橋３６番地の１ＭｏｏｎＢｒｉｄｇｅ５－１０２,,04,101,9893125,,,,,,,2023-11-22,1,,,,,ティーアイアンドビー,0
1849,7370003006389,新規,0,2023-11-22,2023-11-22,合同会社ラクラス,,合同会社,宮城県,仙台市青葉区,錦ケ丘４丁目８番地の６,,04,101,9893123,,,,,,,2023-11-22,1,,,,,ラクラス,0
1851,7400602000425,新規,0,2023-11-22,2023-11-22,有限会社ダイヤモンド取引センター,,有限会社,岩手県,奥州市,水沢区中町６０番地,,03,215,0230000,,,,,,,2023-11-22,1,,,,,ダイヤモンドトリヒキセンター,0
1852,7420003002837,新規,0,2023-11-22,2023-11-22,合同会社Ｓ．Ａ．Ｉ企画,,合同会社,青森県,下北郡佐井村,大字佐井字矢越８―５,,02,426,0394711,,,,,,,2023-11-22,1,,,,,エスエーアイキカク,0
1855,7430001090453,新規,0,2023-11-22,2023-11-22,海云株式会社,,株式会社,北海道,札幌市中央区,大通西８丁目２番地３９北大通ビル,,01,101,0600042,,,,,,,2023-11-22,1,,,,,カイウン,0
1857,7450001014146,新規,0,2023-11-22,2023-11-22,ニホンショウカイ株式会社,,株式会社,北海道,旭川市,高砂台５丁目３番４号,,01,204,0708061,,,,,,,2023-11-22,1,,,,,ニホンショウカイ,0
1858,7470001019911,新規,0,2023-11-22,2023-11-22,株式会社めんそーれ,,株式会社,香川県,小豆郡小豆島町,福田甲３４２番地１,,37,324,7614402,,,,,,,2023-11-22,1,,,,,メンソーレ,0
1863,7700150122236,新規,0,2023-11-22,2023-11-22,ＨＹ’Ｓ　ＭＡＮＡＧＥＭＥＮＴ　ＡＳＩＡ　ＰＴＥ．ＬＴＤ．,,外国会社等,,,,,,,,シンガポール共和国、テロック・アヤ・ストリート１３７、＃０５－０７,,,,,,2023-11-22,1,,,,,ハイズマネージメントアジアピーテイーイーエルテイーデイー,0
1864,7700150122244,新規,0,2023-11-22,2023-11-22,ｎｉｎｇｂｏｓｈｉｚｈａｎｋａｉｍａｏｙｉｙｏｕｘｉａｎｇｏｎｇｓｉ,,外国会社等,,,,,,,,ｚｈｅｊｉａｎｇｓｈｅｎｇｎｉｎｇｂｏｓｈｉｎｉｎｇｈａｉｘｉａｎｙｕｅｌｏｎｇｊｉｅｄａｏｙｕｅｆｕｊｉｎｇｙｕａｎ３３ｚｈｕａｎｇ０６ｈａｏ（ｚｉｚｈｕｓｈｅｎｂａｏ）,,,,,,2023-11-22,1,,,,,ニンボーシージャンカイマオイーヨウシエンゴンスー,0
1874,8010001239851,新規,0,2023-11-22,2023-11-22,Ｈｉ　Ｌｅａｄ株式会社,,株式会社,東京都,中央区,銀座１丁目２２番１１号銀座大竹ビジデンス２Ｆ,,13,102,1040061,,,,,,,2023-11-22,1,,,,,ハイリード,0
1875,8010001240215,新規,0,2023-11-22,2023-11-22,ボーディプロパティ株式会社,,株式会社,東京都,千代田区,神田小川町２丁目４－１４フィールドクレストビル８階,,13,101,1010052,,,,,,,2023-11-22,1,,,,,ボーディプロパティ,0
1876,8010001240256,新規,0,2023-11-22,2023-11-22,株式会社ＳＴＯＣＫ１４０,,株式会社,東京都,千代田区,永田町２丁目１２番４号,,13,101,1000014,,,,,,,2023-11-22,1,,,,,ストックヒャクヨンジュウ,0
1877,8010001240289,新規,0,2023-11-22,2023-11-22,嘉創テックプロフェッショナルズ株式会社,,株式会社,東京都,中央区,日本橋蛎殻町１丁目１２－７ＷＡＣＲＯＳＳ・ＮＩＮＧＹＯＣＨＯ５階,,13,102,1030014,,,,,,,2023-11-22,1,,,,,カソウテックプロフェッショナルズ,0
1878,8010001240314,新規,0,2023-11-22,2023-11-22,丸栄ホールディングス株式会社,,株式会社,東京都,千代田区,大手町１丁目７番２号,,13,101,1000004,,,,,,,2023-11-22,1,,,,,マルエイホールディングス,0
1884,8010005037558,新規,0,2023-11-22,2023-11-22,一般社団法人笑顔をとどける育英会,,その他の設立登記法人,東京都,千代田区,大手町１丁目９番５号,,13,101,1000004,,,,,,,2023-11-22,1,,,,,エガオヲトドケルイクエイカイ,0
1896,8010401178690,新規,0,2023-11-22,2023-11-22,ＬＳ‐ＳＨＩＰ第５１号株式会社,,株式会社,東京都,港区,六本木１丁目６番１号,,13,103,1060032,,,,,,,2023-11-22,1,,,,,エルエスシップダイゴジュウイチゴウ,0
1897,8010403031435,新規,0,2023-11-22,2023-11-22,Ｓｐｒｏｕｔ合同会社,,合同会社,東京都,港区,南青山２丁目２番１５号,,13,103,1070062,,,,,,,2023-11-22,1,,,,,スプラウト,0
1902,8010701045153,新規,0,2023-11-22,2023-11-22,株式会社ピュアラブ,,株式会社,東京都,品川区,戸越１丁目７番１号,,13,109,1420041,,,,,,,2023-11-22,1,,,,,ピュアラブ,0
1906,8010703006946,新規,0,2023-11-22,2023-11-22,合同会社ブリッジ２,,合同会社,東京都,品川区,上大崎１丁目３番１１号,,13,109,1410021,,,,,,,2023-11-22,1,,,,,ブリッジツー,0
1910,8010801034535,新規,0,2023-11-22,2023-11-22,株式会社小関工務店,,株式会社,東京都,大田区,東糀谷３丁目３番１０号,,13,111,1440033,,,,,,,2023-11-22,1,,,,,コゼキコウムテン,0
1915,8011101105241,新規,0,2023-11-22,2023-11-22,株式会社パスル,,株式会社,東京都,新宿区,西新宿４丁目４１番７－９０６号,,13,104,1600023,,,,,,,2023-11-22,1,,,,,パスル,0
1916,8011103013780,新規,0,2023-11-22,2023-11-22,合同会社ポリビット,,合同会社,東京都,新宿区,高田馬場３丁目４－１３日鉄ビル２０２,,13,104,1690075,,,,,,,2023-11-22,1,,,,,ポリビット,0
1918,8011201025059,新規,0,2023-11-22,2023-11-22,ＤＡＮＣＥ　ＴＯ株式会社,,株式会社,東京都,中野区,本町３丁目８番８号,,13,114,1640012,,,,,,,2023-11-22,1,,,,,ダンストゥ,0
1922,8011401025627,新規,0,2023-11-22,2023-11-22,ＲＥＣ株式会社,,株式会社,東京都,板橋区,東山町１３番１５号パールモア新井堂８０２,,13,119,1740073,,,,,,,2023-11-22,1,,,,,レック,0
1924,8011501030023,新規,0,2023-11-22,2023-11-22,新生活株式会社,,株式会社,東京都,荒川区,南千住１丁目４５番８－１０３号Ｂ,,13,118,1160003,,,,,,,2023-11-22,1,,,,,シンセイカツ,0
1925,8011601027299,新規,0,2023-11-22,2023-11-22,株式会社タケジョウ,,株式会社,東京都,練馬区,小竹町２丁目４２番８号,,13,120,1760004,,,,,,,2023-11-22,1,,,,,タケジョウ,0
1927,8011701026795,新規,0,2023-11-22,2023-11-22,ハイジェニックマネジメント株式会社,,株式会社,東京都,江戸川区,松島４丁目７番１５号ストーク神山１０１,,13,123,1320031,,,,,,,2023-11-22,1,,,,,ハイジェニックマネジメント,0
1930,8011803005953,新規,0,2023-11-22,2023-11-22,合同会社ベルストーン,,合同会社,東京都,足立区,本木北町１６番３号,,13,121,1230857,,,,,,,2023-11-22,1,,,,,ベルストーン,0
1939,8020001154546,新規,0,2023-11-22,2023-11-22,株式会社コトノモノ,,株式会社,神奈川県,横浜市戸塚区,吉田町９８番地１サングレイス戸塚イーストコート６０２号,,14,110,2440817,,,,,,,2023-11-22,1,,,,,コトノモノ,0
1940,8020001154562,新規,0,2023-11-22,2023-11-22,株式会社キモカ,,株式会社,神奈川県,横浜市西区,北幸２丁目１０番４８号むつみビル３Ｆ,,14,103,2200004,,,,,,,2023-11-22,1,,,,,キモカ,0
1943,8020003025043,新規,0,2023-11-22,2023-11-22,合同会社Ｒｅｃｈａｒｇｅ,,合同会社,神奈川県,横浜市鶴見区,東寺尾３丁目１８番１９－２号,,14,101,2300077,,,,,,,2023-11-22,1,,,,,リチャージ,0
1947,8021001080807,新規,0,2023-11-22,2023-11-22,株式会社Ｐｏｕｎｄ　ｉｔ,,株式会社,神奈川県,鎌倉市,西御門１丁目２４番地２号,,14,204,2480004,,,,,,,2023-11-22,1,,,,,パウンドイット,0
1953,8021003013822,新規,0,2023-11-22,2023-11-22,合同会社ＯＫＰ,,合同会社,神奈川県,小田原市,南鴨宮３丁目６番１５号,,14,206,2500875,,,,,,,2023-11-22,1,,,,,オーケーピー,0
1964,8030001157275,新規,0,2023-11-22,2023-11-22,株式会社グリストスタンダード,,株式会社,埼玉県,川口市,並木４丁目１７－２白井ビル１０８号室,,11,203,3320034,,,,,,,2023-11-22,1,,,,,グリストスタンダード,0
1980,8040001131031,新規,0,2023-11-22,2023-11-22,Ｏｈ　Ｍｙ　Ｊａｐａｎ株式会社,,株式会社,千葉県,船橋市,三咲７丁目１１番２４号,,12,204,2740812,,,,,,,2023-11-22,1,,,,,オーマイジャパン,0
1981,8040001131048,新規,0,2023-11-22,2023-11-22,ＹＳＳ株式会社,,株式会社,千葉県,いすみ市,大原６８１５番地１,,12,238,2980004,,,,,,,2023-11-22,1,,,,,ワイエスエス,0
1982,8040001131080,新規,0,2023-11-22,2023-11-22,株式会社真空エンジ,,株式会社,千葉県,木更津市,羽鳥野６丁目２番地３,,12,206,2920819,,,,,,,2023-11-22,1,,,,,シンクウエンジ,0
1991,8040005022210,新規,0,2023-11-22,2023-11-22,ＮＰＯ法人小規模企業支援研究会,,その他の設立登記法人,千葉県,千葉市緑区,あすみが丘４丁目２番地８フェアロージュあすみが丘６０２号,,12,105,2670066,,,,,,,2023-11-22,1,,,,,ショウキボキギョウシエンケンキュウカイ,0
1993,8050003007930,新規,0,2023-11-22,2023-11-22,ＳＫＹ　Ｊ‐ＣＡＲ合同会社,,合同会社,茨城県,古河市,釈迦字向山１２０５番１,,08,204,3060222,,,,,,,2023-11-22,1,,,,,スカイジェイカー,0
1994,8050003007955,新規,0,2023-11-22,2023-11-22,合同会社Ｄｉｍｏａ,,合同会社,茨城県,那珂郡東海村,舟石川駅西２丁目１２番１５号,,08,341,3191116,,,,,,,2023-11-22,1,,,,,ディモア,0
1999,8060003004811,新規,0,2023-11-22,2023-11-22,合同会社オフィス佐賀,,合同会社,栃木県,宇都宮市,石井町３４３８－４７,,09,201,3210912,,,,,,,2023-11-22,1,,,,,オフィスサガ,0
2011,8090003002416,新規,0,2023-11-22,2023-11-22,合同会社ｅｎ,,合同会社,山梨県,甲斐市,名取３７０番地４,,19,210,4000112,,,,,,,2023-11-22,1,,,,,エン,0
2012,8090003002432,新規,0,2023-11-22,2023-11-22,合同会社がじゅまる,,合同会社,山梨県,甲府市,長松寺町６－７日信ビル３階,,19,201,4000067,,,,,,,2023-11-22,1,,,,,ガジュマル,0
2015,8100003007264,新規,0,2023-11-22,2023-11-22,鳥とうたう合同会社,,合同会社,長野県,長野市,大字南長野字幅下６４４番地８,,20,201,3800837,,,,,,,2023-11-22,1,,,,,トリトウタウ,0
2016,8100003007272,新規,0,2023-11-22,2023-11-22,Ｆ＆Ｔ合同会社,,合同会社,長野県,岡谷市,長地梨久保２丁目７番１８－２０２号市住中村Ａ２,,20,204,3940088,,,,,,,2023-11-22,1,,,,,エフアンドティー,0
2018,8110001037989,新規,0,2023-11-22,2023-11-22,株式会社ＴＯＭハウス,,株式会社,新潟県,新潟市西蒲区,桑山３５７番地,,15,108,9590412,,,,,,,2023-11-22,1,,,,,トムハウス,0
2034,8120001259979,新規,0,2023-11-22,2023-11-22,宇茂株式会社,,株式会社,大阪府,大阪市中央区,高麗橋１丁目７番７－３９０５号,,27,128,5410043,,,,,,,2023-11-22,1,,,,,ウシゲ,0
2035,8120001260037,新規,0,2023-11-22,2023-11-22,展和国際株式会社,,株式会社,大阪府,大阪市住吉区,長居東４丁目１５番２１－２０５号,,27,120,5580004,,,,,,,2023-11-22,1,,,,,テンワコクサイ,0
2036,8120001260078,新規,0,2023-11-22,2023-11-22,べるえきっぷ株式会社,,株式会社,大阪府,大阪市東成区,中本５丁目２番５号,,27,115,5370022,,,,,,,2023-11-22,1,,,,,ベルエキップ,0
2037,8120001260103,新規,0,2023-11-22,2023-11-22,株式会社ｐｒｉｅｒ　ｄｅ　ｌａｎｇｅ,,株式会社,大阪府,大阪市西区,新町１丁目３１番６号７０２,,27,106,5500013,,,,,,,2023-11-22,1,,,,,プリエールドランジュ,0
2038,8120001260111,新規,0,2023-11-22,2023-11-22,アベニールポルテ株式会社,,株式会社,大阪府,大阪市東成区,大今里３丁目１４－３－３０４,,27,115,5370012,,,,,,,2023-11-22,1,,,,,アベニールポルテ,0
2042,8120005024009,新規,0,2023-11-22,2023-11-22,オンザ・エッジ・ＪＡＰＡＮ行政書士法人,,その他の設立登記法人,大阪府,大阪市中央区,北新町２番１２号北新町センタービル６階,,27,128,5400023,,,,,,,2023-11-22,1,,,,,オンザエッジジャパン,0
2044,8120101068578,新規,0,2023-11-22,2023-11-22,株式会社Ｌｉ‐ｂｅ,,株式会社,大阪府,大阪狭山市,半田１丁目６４９番地の５,,27,231,5890011,,,,,,,2023-11-22,1,,,,,リベ,0
2047,8120901048399,新規,0,2023-11-22,2023-11-22,株式会社シンデレラファクトリー,,株式会社,大阪府,豊中市,緑丘４丁目３８番３の２号,,27,203,5600002,,,,,,,2023-11-22,1,,,,,シンデレラファクトリー,0
2049,8122001037596,新規,0,2023-11-22,2023-11-22,佳美開産株式会社,,株式会社,大阪府,八尾市,楽音寺５丁目６４番地,,27,212,5810853,,,,,,,2023-11-22,1,,,,,ヨシミカイサン,0
2055,8140001132408,新規,0,2023-11-22,2023-11-22,株式会社高部建築設計事務所,00132762,株式会社,兵庫県,加西市,北条町古坂１丁目１６５番地,,28,220,6752303,,,,,,,2023-11-22,1,,,,,タカベケンチクセッケイジムショ,0
2057,8140003019850,新規,0,2023-11-22,2023-11-22,合同会社Ｈａｕｏｌｉ,,合同会社,兵庫県,川西市,中央町７番２号,,28,217,6660016,,,,,,,2023-11-22,1,,,,,ハウオリ,0
2058,8140005026804,新規,0,2023-11-22,2023-11-22,一般財団法人丹波地域社会システム研究財団,,その他の設立登記法人,兵庫県,丹波市,柏原町柏原１２４番地,,28,223,6693309,,,,,,,2023-11-22,1,,,,,タンバチイキシャカイシステムケンキュウザイダン,0
2059,8160001025519,新規,0,2023-11-22,2023-11-22,株式会社十二里製作所,,株式会社,滋賀県,守山市,十二里町２９９番地,,25,207,5240055,,,,,,,2023-11-22,1,,,,,ジュウニリセイサクショ,0
2061,8160003003043,新規,0,2023-11-22,2023-11-22,合同会社Ａｍｏｕｒ,,合同会社,滋賀県,東近江市,きぬがさ町１１４番地,,25,213,5211234,,,,,,,2023-11-22,1,,,,,アムール,0
2062,8170001017894,新規,0,2023-11-22,2023-11-22,株式会社日装ビルド,,株式会社,和歌山県,有田郡湯浅町,大字湯浅７６８番地,,30,361,6430004,,,,,,,2023-11-22,1,,,,,ニッソウビルド,0
2075,8200001041916,新規,0,2023-11-22,2023-11-22,株式会社ＺＯＮＥ,,株式会社,岐阜県,各務原市,那加桐野外二ケ所大字入会地６番地４エステイタスＫＮ－６・２０２号,,21,213,5040906,,,,,,,2023-11-22,1,,,,,ゾーン,0
2077,8230001020116,新規,0,2023-11-22,2023-11-22,Ｂｉｚデザイン株式会社,,株式会社,富山県,射水市,戸破字針原６９番地の１６,,16,211,9390351,,,,,,,2023-11-22,1,,,,,ビズデザイン,0
2083,8240001062446,新規,0,2023-11-22,2023-11-22,株式会社小林農場,,株式会社,広島県,福山市,神村町２８２１番地１,,34,207,7290112,,,,,,,2023-11-22,1,,,,,コバヤシノウジョウ,0
2088,8260005011298,新規,0,2023-11-22,2023-11-22,医療法人社団ココラティ,,その他の設立登記法人,岡山県,岡山市北区,辰巳２０番地１０８,,33,101,7000976,,,,,,,2023-11-22,1,,,,,ココラティ,0
2098,8290801030060,新規,0,2023-11-22,2023-11-22,株式会社ウェイグループ,,株式会社,福岡県,北九州市八幡西区,森下町２６番２１号,,40,109,8060046,,,,,,,2023-11-22,1,,,,,ウェイグループ,0
2103,8330001031499,新規,0,2023-11-22,2023-11-22,株式会社バンブービレッジ,,株式会社,熊本県,熊本市北区,弓削６丁目８番９号,,43,105,8618002,,,,,,,2023-11-22,1,,,,,バンブービレッジ,0
2109,8340001026093,新規,0,2023-11-22,2023-11-22,株式会社あおか,,株式会社,鹿児島県,鹿児島市,郡山町７１３番地１,,46,201,8911105,,,,,,,2023-11-22,1,,,,,アオカ,0
2112,8340005009680,新規,0,2023-11-22,2023-11-22,社会福祉法人旭会,,その他の設立登記法人,鹿児島県,鹿児島市,岡之原町９８６番地,,46,201,8911201,,,,,,,2023-11-22,1,,,,,アサヒカイ,0
2119,8370003006388,新規,0,2023-11-22,2023-11-22,合同会社ＳＥＡ　ＴＲＥＥ,,合同会社,宮城県,仙台市太白区,向山１丁目３番５０－６０４号,,04,104,9820841,,,,,,,2023-11-22,1,,,,,シーツリー,0
2130,8410001013646,新規,0,2023-11-22,2023-11-22,株式会社小林建設,,株式会社,秋田県,秋田市,保戸野字新川向６２番地の１,,05,201,0100915,,,,,,,2023-11-22,1,,,,,コバヤシケンセツ,0
2133,8430001021135,新規,0,2023-11-22,2023-11-22,株式会社エフ・ゲイツ,,株式会社,北海道,札幌市清田区,清田二条３丁目１０番５２号,,01,110,0040842,,,,,,,2023-11-22,1,,,,,,0
2134,8430001090493,新規,0,2023-11-22,2023-11-22,株式会社ＣＯＯＬ　ＣＡＲ　ＬＩＦＥ,,株式会社,北海道,室蘭市,海岸町１丁目２８番６号,,01,205,0510022,,,,,,,2023-11-22,1,,,,,クールカーライフ,0
2138,8440005002766,新規,0,2023-11-22,2023-11-22,北斗キリスト教会,,その他の設立登記法人,北海道,北斗市,中央１丁目２番３１号,,01,236,0490162,,,,,,,2023-11-22,1,,,,,ホクトキリストキョウカイ,0
2147,8500003003140,新規,0,2023-11-22,2023-11-22,合同会社ＦＲＥＡＫ　ＯＵＴ,,合同会社,愛媛県,松山市,築山町２－７ヴィラ美幸１０１号,,38,201,7900864,,,,,,,2023-11-22,1,,,,,フリークアウト,0
2152,8700150122235,新規,0,2023-11-22,2023-11-22,Ｋｏｒｎｉｔ　Ｄｉｇｉｔａｌ　Ｌｔｄ．,,外国会社等,,,,,,,,１２　Ｈａ’Ａｍａｌ　Ｓｔ．Ｒｏｓｈ　Ｈａ’Ａｙｉｎ,,,,,,2023-11-22,1,,,,,コーニツトデジタルエルテイーデイー,0
2153,8700150122243,新規,0,2023-11-22,2023-11-22,Ｚｈｅｊｉａｎｇ　ＭｅｎｇＷｅｉＸｉｎＮｅｎｇＹｕａｎＫｅＪｉ　ＹｏｕＸｉａｎＧｏｎｇＳｉ,,外国会社等,,,,,,,,ＺｈｅＪｉａｎｇＳｈｅｎｇＷｅｎＺｈｏｕＳｈｉＹｕｅＱｉｎｇＳｈｉＹｕｅＱｉｎｇＪｉｎｇＪｉＫａｉＦａＱｕＺｈｏｎｇＸｉｎＤａＤａｏ２８１Ｈａｏ,,,,,,2023-11-22,1,,,,,ジョージャンモンウェイシンノンユエンコージーヨウシエンゴンスー,0
2167,9010001240049,新規,0,2023-11-22,2023-11-22,株式会社ＴＲＹ,,株式会社,東京都,中央区,銀座８丁目５－９第二誠和ビル６階Ｂ,,13,102,1040061,,,,,,,2023-11-22,1,,,,,トライ,0
2168,9010001240255,新規,0,2023-11-22,2023-11-22,株式会社ＳＴＯＣＫ１３９,,株式会社,東京都,千代田区,永田町２丁目１２番４号,,13,101,1000014,,,,,,,2023-11-22,1,,,,,ストックヒャクサンジュウキュウ,0
2171,9010003042278,新規,0,2023-11-22,2023-11-22,弥富ウイング合同会社,,合同会社,東京都,千代田区,飯田橋４丁目７番１号結和税理士法人内,,13,101,1020072,,,,,,,2023-11-22,1,,,,,ヤトミウイング,0
2172,9010005037557,新規,0,2023-11-22,2023-11-22,一般社団法人ソラチエース,,その他の設立登記法人,東京都,中央区,日本橋１丁目４番１号日本橋一丁目ビルディング,,13,102,1030027,,,,,,,2023-11-22,1,,,,,ソラチエース,0
2178,9010401178632,新規,0,2023-11-22,2023-11-22,株式会社ｃｏｚｍａｐ,,株式会社,東京都,港区,浜松町２丁目２番１５号浜松町ダイヤビル２Ｆ,,13,103,1050013,,,,,,,2023-11-22,1,,,,,コズマップ,0
2179,9010401178649,新規,0,2023-11-22,2023-11-22,Ｌｕｘｕｒｙ　Ｃａｐｉｔａｌ株式会社,,株式会社,東京都,港区,赤坂４丁目１５番１号,,13,103,1070052,,,,,,,2023-11-22,1,,,,,ラグジュアリーキャピタル,0
2180,9010401178681,新規,0,2023-11-22,2023-11-22,玄的株式会社,,株式会社,東京都,港区,赤坂２丁目８番１１号溜池山王葵ビル２０２号室,,13,103,1070052,,,,,,,2023-11-22,1,,,,,ゲンテキ,0
2183,9010403031426,新規,0,2023-11-22,2023-11-22,合同会社ＡＤＳ,,合同会社,東京都,港区,六本木４丁目５番２号六本木Ｕビル３Ｆ,,13,103,1060032,,,,,,,2023-11-22,1,,,,,エーディーエス,0
2184,9010501051400,新規,0,2023-11-22,2023-11-22,日本沁澤通達株式会社,,株式会社,東京都,台東区,浅草３丁目２１－９トーラス浅草２１１号,,13,106,1110032,,,,,,,2023-11-22,1,,,,,ニホンシンタクツウタツ,0
2185,9010503007219,新規,0,2023-11-22,2023-11-22,プロリンクアジア合同会社,,合同会社,東京都,台東区,下谷２丁目１５番１２号,,13,106,1100004,,,,,,,2023-11-22,1,,,,,プロリンクアジア,0
2193,9010701045160,新規,0,2023-11-22,2023-11-22,Ｇｌｏｂａｌ　Ｗｅａｌｔｈ　Ｍａｎａｇｅｍｅｎｔ株式会社,,株式会社,東京都,品川区,大崎２丁目９番２号,,13,109,1410032,,,,,,,2023-11-22,1,,,,,グローバルウェルスマネジメント,0
2197,9010801034534,新規,0,2023-11-22,2023-11-22,桔子株式会社,,株式会社,東京都,大田区,東海３丁目７番３号,,13,111,1430001,,,,,,,2023-11-22,1,,,,,キツシ,0
2198,9010801034542,新規,0,2023-11-22,2023-11-22,株式会社３２ｔｈｉｒｔｙ‐ｔｗｏ,,株式会社,東京都,大田区,東嶺町３５番９号ＨａｗａＫｕｇａｈａｒａ２０２,,13,111,1450074,,,,,,,2023-11-22,1,,,,,サーティトゥ,0
2203,9010901054226,新規,0,2023-11-22,2023-11-22,株式会社Ａｚａｗｉｎｇ,,株式会社,東京都,世田谷区,砧１丁目３１番１８号４０１,,13,112,1570073,,,,,,,2023-11-22,1,,,,,アザウィング,0
2232,9011101105240,新規,0,2023-11-22,2023-11-22,株式会社エバーラインジャパン,,株式会社,東京都,新宿区,西新宿３丁目３番１３号西新宿水間ビル２Ｆ,,13,104,1600023,,,,,,,2023-11-22,1,,,,,エバーラインジャパン,0
2234,9011103013664,新規,0,2023-11-22,2023-11-22,合同会社Ｔｏｍｏｒｒｏｗ,,合同会社,東京都,新宿区,西新宿３丁目５番１２号トーカン新宿第二キャステール３１０号室,,13,104,1600023,,,,,,,2023-11-22,1,,,,,トゥモロー,0
2243,9011201025058,新規,0,2023-11-22,2023-11-22,株式会社ＬＹＦＩＸ,,株式会社,東京都,中野区,若宮１丁目２９番２０号,,13,114,1650033,,,,,,,2023-11-22,1,,,,,リフィックス,0
2251,9011601027307,新規,0,2023-11-22,2023-11-22,株式会社ＳＩＲＩＵＳ,,株式会社,東京都,練馬区,石神井台３丁目１０番２０号,,13,120,1770045,,,,,,,2023-11-22,1,,,,,シリウス,0
2257,9011801043392,新規,0,2023-11-22,2023-11-22,世青株式会社,,株式会社,東京都,足立区,竹の塚２丁目２９番１３号,,13,121,1210813,,,,,,,2023-11-22,1,,,,,セイショウ,0
2260,9012303001905,新規,0,2023-11-22,2023-11-22,合同会社Ｌａ　Ｃｉｍａ,,合同会社,東京都,町田市,東玉川学園３丁目３２１９－１８,,13,209,1940042,,,,,,,2023-11-22,1,,,,,ラシーマ,0
2262,9012401041258,新規,0,2023-11-22,2023-11-22,株式会社二川企画,,株式会社,東京都,狛江市,東和泉１丁目２３番１０号,,13,219,2010014,,,,,,,2023-11-22,1,,,,,フタガワキカク,0
2272,9012805003242,新規,0,2023-11-22,2023-11-22,一般社団法人惟誠会,,その他の設立登記法人,東京都,日野市,平山１丁目５番地の８,,13,212,1910043,,,,,,,2023-11-22,1,,,,,イセイカイ,0
2284,9020001154561,新規,0,2023-11-22,2023-11-22,厚徳株式会社,,株式会社,神奈川県,川崎市川崎区,東田町３番地１９アービラ東田３０６,,14,131,2100005,,,,,,,2023-11-22,1,,,,,コウトク,0
2285,9020001154578,新規,0,2023-11-22,2023-11-22,株式会社中嶋工業,,株式会社,神奈川県,横浜市青葉区,新石川３丁目２９番地２田園ドミール５０８,,14,117,2250003,,,,,,,2023-11-22,1,,,,,ナカジマコウギョウ,0
2286,9020001154586,新規,0,2023-11-22,2023-11-22,シーガルック株式会社,,株式会社,神奈川県,横浜市港南区,上大岡西１丁目１３番８号,,14,111,2330002,,,,,,,2023-11-22,1,,,,,シーガルック,0
2287,9020001154594,新規,0,2023-11-22,2023-11-22,株式会社ＲＣ,,株式会社,神奈川県,横浜市戸塚区,名瀬町３１２７番地１８,,14,110,2450051,,,,,,,2023-11-22,1,,,,,アールシー,0
2294,9020002108970,新規,0,2023-11-22,2023-11-22,大和産業有限会社,,有限会社,神奈川県,川崎市麻生区,王禅寺字日光２０４２番地,,14,137,2150013,,,,,,,2023-11-22,1,,,,,,0
2301,9021005012945,新規,0,2023-11-22,2023-11-22,一般社団法人日本ビーチスプリント協会,,その他の設立登記法人,神奈川県,伊勢原市,桜台２丁目１４－７,,14,214,2591132,,,,,,,2023-11-22,1,,,,,ニホンビーチスプリントキョウカイ,0
2312,9030001157266,新規,0,2023-11-22,2023-11-22,株式会社ＣｌｉｍＢｅｅ,,株式会社,埼玉県,久喜市,伊坂中央２丁目１番地２５,,11,232,3491127,,,,,,,2023-11-22,1,,,,,クライビー,0
2313,9030001157274,新規,0,2023-11-22,2023-11-22,株式会社ファーストライズ,,株式会社,埼玉県,さいたま市岩槻区,大字岩槻６７８６番地３,,11,110,3390061,,,,,,,2023-11-22,1,,,,,ファーストライズ,0
2314,9030001157282,新規,0,2023-11-22,2023-11-22,株式会社エビン工業,,株式会社,埼玉県,川口市,芝下３丁目４５番２７号ベルハイツ２０２号室,,11,203,3330848,,,,,,,2023-11-22,1,,,,,エビンコウギョウ,0
2323,9030003023045,新規,0,2023-11-22,2023-11-22,合同会社ライズ,,合同会社,埼玉県,川口市,本町４丁目５－２６－２００５,,11,203,3320012,,,,,,,2023-11-22,1,,,,,ライズ,0
2324,9030003023053,新規,0,2023-11-22,2023-11-22,合同会社ＲＹＵ,,合同会社,埼玉県,三郷市,戸ケ崎２丁目３５番地ベイハイツエガワ１０２号,,11,237,3410044,,,,,,,2023-11-22,1,,,,,リュウ,0
2329,9040001131022,新規,0,2023-11-22,2023-11-22,株式会社ＦＶＫコーポレーション,,株式会社,千葉県,市原市,五井金杉１丁目３４番地７,,12,219,2900057,,,,,,,2023-11-22,1,,,,,エフブイケイコーポレーション,0
2330,9040001131039,新規,0,2023-11-22,2023-11-22,株式会社ＡＲＩＫＡ,,株式会社,千葉県,市原市,東五所３番地５,,12,219,2900064,,,,,,,2023-11-22,1,,,,,アリカ,0
2331,9040001131071,新規,0,2023-11-22,2023-11-22,中天金属株式会社,,株式会社,千葉県,千葉市中央区,登戸１丁目１３－２２シティファイブＡ棟６０１号室,,12,101,2600032,,,,,,,2023-11-22,1,,,,,チュウテンキンゾク,0
2332,9040003023705,新規,0,2023-11-22,2023-11-22,合同会社ＢＥＥ　ＪＯＩＮＴ,,合同会社,千葉県,流山市,流山８丁目１１６８－１,,12,220,2700164,,,,,,,2023-11-22,1,,,,,ビージョイント,0
2333,9040003023770,新規,0,2023-11-22,2023-11-22,合同会社ｆａｉｒｙ　ｃｏｒｅ,,合同会社,千葉県,松戸市,三矢小台２丁目６番地の２,,12,207,2710087,,,,,,,2023-11-22,1,,,,,フェアリーコア,0
2334,9040003023779,新規,0,2023-11-22,2023-11-22,ＹＤＷ合同会社,,合同会社,千葉県,松戸市,栄町３丁目１４０－８,,12,207,2710062,,,,,,,2023-11-22,1,,,,,ワイディーダブリュー,0
2335,9040003023787,新規,0,2023-11-22,2023-11-22,合同会社ミース,,合同会社,千葉県,成田市,飯田町２０２－５,,12,211,2860041,,,,,,,2023-11-22,1,,,,,ミース,0
2336,9040003023795,新規,0,2023-11-22,2023-11-22,合同会社ルークス,,合同会社,千葉県,八街市,八街は３番地２０９,,12,230,2891107,,,,,,,2023-11-22,1,,,,,ルークス,0
2346,9060003004810,新規,0,2023-11-22,2023-11-22,合同会社ＯＮ訪問看護ステーションリヴ,,合同会社,栃木県,日光市,今市１４１３－７,,09,206,3211261,,,,,,,2023-11-22,1,,,,,オンホウモンカンゴステーションリヴ,0
2349,9070005010194,新規,0,2023-11-22,2023-11-22,特定非営利活動法人ＧＯＬＤＥＮ　ＨＵＮＴＥＲ,,その他の設立登記法人,群馬県,高崎市,東国分町２８１番地１,,10,202,3703514,,,,,,,2023-11-22,1,,,,,,0
2354,9100001036990,新規,0,2023-11-22,2023-11-22,株式会社ＭＴＳ,,株式会社,長野県,上高井郡小布施町,大字小布施２４７０番地１,,20,541,3810201,,,,,,,2023-11-22,1,,,,,エムティーエス,0
2364,9120001259961,新規,0,2023-11-22,2023-11-22,株式会社宗盛,,株式会社,大阪府,大阪市中央区,内本町２丁目４番１０号ネオハイツ内本町７０６号,,27,128,5400026,,,,,,,2023-11-22,1,,,,,ムネモリ,0
2365,9120001259978,新規,0,2023-11-22,2023-11-22,東深株式会社,,株式会社,大阪府,大阪市中央区,高麗橋１丁目７番７－３９０５号,,27,128,5410043,,,,,,,2023-11-22,1,,,,,トウシン,0
2366,9120001259986,新規,0,2023-11-22,2023-11-22,株式会社ＴＫＲＩＮ,,株式会社,大阪府,大阪市北区,松ケ枝町７番４号－５０１,,27,127,5300037,,,,,,,2023-11-22,1,,,,,ティーケーアールイン,0
2367,9120001260003,新規,0,2023-11-22,2023-11-22,株式会社Ｔｉｆａｒｒｏｗ,,株式会社,大阪府,大阪市福島区,海老江２丁目１番７－３０３号,,27,103,5530001,,,,,,,2023-11-22,1,,,,,ティファロー,0
2368,9120001260036,新規,0,2023-11-22,2023-11-22,春＿国際株式会社,00132757,株式会社,大阪府,大阪市住吉区,長居東４丁目１５番２１－２０２号,,27,120,5580004,,,,,,,2023-11-22,1,,,,,シュンセンコクサイ,0
2369,9120001260052,新規,0,2023-11-22,2023-11-22,株式会社ＨＡＲＵ,,株式会社,大阪府,大阪市中央区,瓦屋町３丁目１０番６－２０１号,,27,128,5420066,,,,,,,2023-11-22,1,,,,,ハル,0
2370,9120001260060,新規,0,2023-11-22,2023-11-22,一永軒株式会社,,株式会社,大阪府,大阪市西区,本田３丁目１番１９－５０３号,,27,106,5500022,,,,,,,2023-11-22,1,,,,,イチエイケン,0
2371,9120001260069,新規,0,2023-11-22,2023-11-22,１６８８株式会社,,株式会社,大阪府,大阪市城東区,野江３丁目２７－７野江１番館５０３号室,,27,118,5360006,,,,,,,2023-11-22,1,,,,,イチロクハチハチ,0
2372,9120001260102,新規,0,2023-11-22,2023-11-22,山口建設株式会社,,株式会社,大阪府,大阪市港区,港晴４丁目４番１１号,,27,107,5520023,,,,,,,2023-11-22,1,,,,,ヤマグチケンセツ,0
2374,9120003025379,新規,0,2023-11-22,2023-11-22,合同会社ＮＣ,,合同会社,大阪府,寝屋川市,寝屋南２丁目１１番１０号,,27,215,5720855,,,,,,,2023-11-22,1,,,,,エヌシー,0
2375,9120003025387,新規,0,2023-11-22,2023-11-22,ＬＹ・Ｊａｐａｎ　Ｓｈｏｐ合同会社,,合同会社,大阪府,大阪市中央区,瓦屋町２丁目１５番３号ラパンジール松屋町７０８号室,,27,128,5420066,,,,,,,2023-11-22,1,,,,,エルワイジャパンショップ,0
2379,9120101068569,新規,0,2023-11-22,2023-11-22,Ｔ．Ｆ株式会社,,株式会社,大阪府,堺市美原区,多治井１０７－１１,,27,147,5870012,,,,,,,2023-11-22,1,,,,,ティーエフ,0
2380,9120103005545,新規,0,2023-11-22,2023-11-22,合同会社ＫＳリンク,,合同会社,大阪府,泉南市,新家２８９２番地の１ファミール南大阪２１４号,,27,228,5900503,,,,,,,2023-11-22,1,,,,,ケーエスリンク,0
2382,9120901048398,新規,0,2023-11-22,2023-11-22,株式会社リトルインディアンカンパニー,,株式会社,大阪府,豊中市,緑丘４丁目３８番３の２号,,27,203,5600002,,,,,,,2023-11-22,1,,,,,リトルインディアンカンパニー,0
2393,9130003009158,新規,0,2023-11-22,2023-11-22,合同会社Ｔｓｕｊｉ設備,,合同会社,京都府,京都市下京区,朱雀宝蔵町４４番地協栄ビル２階京都朱雀スタジオ,,26,106,6008846,,,,,,,2023-11-22,1,,,,,ツジセツビ,0
2397,9140001132357,新規,0,2023-11-22,2023-11-22,株式会社オジマ,,株式会社,兵庫県,神戸市中央区,八幡通４丁目２番８号,,28,110,6510085,,,,,,,2023-11-22,1,,,,,オジマ,0
2398,9140001132431,新規,0,2023-11-22,2023-11-22,株式会社カドキョー,,株式会社,兵庫県,神戸市東灘区,住吉台２番５０号,,28,101,6580062,,,,,,,2023-11-22,1,,,,,カドキョー,0
2399,9140001132448,新規,0,2023-11-22,2023-11-22,株式会社ＡＥＴ,,株式会社,兵庫県,神戸市灘区,篠原中町４丁目１番２３－１号,,28,102,6570066,,,,,,,2023-11-22,1,,,,,エーイーティー,0
2401,9140003019841,新規,0,2023-11-22,2023-11-22,合同会社六甲山クリエイティブラボ,,合同会社,兵庫県,神戸市灘区,六甲山町北六甲４５１２番地の６３,,28,102,6570101,,,,,,,2023-11-22,1,,,,,ロッコウサンクリエイティブラボ,0
2407,9160001025518,新規,0,2023-11-22,2023-11-22,株式会社ＲＯＣＫＳ,,株式会社,滋賀県,草津市,矢橋町９０番地１９,,25,206,5250066,,,,,,,2023-11-22,1,,,,,ロックス,0
2409,9170001017893,新規,0,2023-11-22,2023-11-22,自治会印刷所株式会社,,株式会社,和歌山県,田辺市,稲成町７２０番地の９,,30,206,6460051,,,,,,,2023-11-22,1,,,,,ジチカイインサツショ,0
2412,9180001159025,新規,0,2023-11-22,2023-11-22,株式会社エイチアールティー,,株式会社,愛知県,名古屋市名東区,勢子坊３丁目１１０１番地,,23,115,4650055,,,,,,,2023-11-22,1,,,,,エイチアールティー,0
2420,9180301038052,新規,0,2023-11-22,2023-11-22,株式会社ヤマミチ,,株式会社,愛知県,西尾市,吉良町吉田離島８番地１,,23,213,4440516,,,,,,,2023-11-22,1,,,,,ヤマミチ,0
2428,9240001062445,新規,0,2023-11-22,2023-11-22,株式会社ＮＴＬ,,株式会社,広島県,福山市,新涯町４丁目２５の１０,,34,207,7210955,,,,,,,2023-11-22,1,,,,,エヌティーエル,0
2429,9240001062461,新規,0,2023-11-22,2023-11-22,株式会社Ｏ‐ＥＮ,,株式会社,広島県,東広島市,黒瀬町兼広４７４番地９,,34,212,7392616,,,,,,,2023-11-22,1,,,,,オーエン,0
2430,9240003006425,新規,0,2023-11-22,2023-11-22,Ｋｉｎｇ　Ｃｒｅａｔｅ合同会社,,合同会社,広島県,広島市中区,薬研堀１番３号１階,,34,101,7300027,,,,,,,2023-11-22,1,,,,,キングクリエイト,0
2437,9280001009079,新規,0,2023-11-22,2023-11-22,株式会社いいご縁,,株式会社,島根県,松江市,南平台４番１８号,,32,201,6900854,,,,,,,2023-11-22,1,,,,,イイゴエン,0
2440,9290003014638,新規,0,2023-11-22,2023-11-22,アイユート合同会社,,合同会社,福岡県,福岡市西区,壱岐団地１２４番７号,,40,135,8190042,,,,,,,2023-11-22,1,,,,,アイユート,0
2443,9310001018720,新規,0,2023-11-22,2023-11-22,株式会社リバーサイド,,株式会社,長崎県,長崎市,川口町７番１７号,,42,201,8528108,,,,,,,2023-11-22,1,,,,,リバーサイド,0
2451,9330003010087,新規,0,2023-11-22,2023-11-22,合同会社エズコーポレーション,,合同会社,熊本県,熊本市東区,画図町大字重富７０６番地２９,,43,102,8620947,,,,,,,2023-11-22,1,,,,,エズコーポレーション,0
2453,9340003004311,新規,0,2023-11-22,2023-11-22,幸泉合同会社,,合同会社,鹿児島県,姶良郡湧水町,中津川１０５１番地８,,46,452,8996102,,,,,,,2023-11-22,1,,,,,サチヅミ,0
2456,9370001050635,新規,0,2023-11-22,2023-11-22,株式会社素意,,株式会社,宮城県,岩沼市,桑原１丁目１１番３６号,,04,211,9892445,,,,,,,2023-11-22,1,,,,,ソーイ,0
2457,9370001050651,新規,0,2023-11-22,2023-11-22,株式会社愛畳工房すまいる不動産,,株式会社,宮城県,栗原市,若柳字川北片町５４番地,,04,213,9895501,,,,,,,2023-11-22,1,,,,,アイジョウコウボウスマイルフドウサン,0
2458,9370003006395,新規,0,2023-11-22,2023-11-22,合同会社Ｍｙｓｉｇ,,合同会社,宮城県,亘理郡亘理町,逢隈田沢字川窪９番地６,00132755,04,361,9892383,,,,,,,2023-11-22,1,,,,,ミーシグ,0
2476,9430003015679,新規,0,2023-11-22,2023-11-22,合同会社ＭＥＤＬＩＦＥ,,合同会社,北海道,札幌市中央区,南十一条西１５丁目１－２２アルファコートＶＩ　Ａ－３０２,00132764,01,101,0640811,,,,,,,2023-11-22,1,,,,,メドライフ,0
2477,9440001009351,新規,0,2023-11-22,2023-11-22,株式会社Ｍ．ｃｒｅｗ,,株式会社,北海道,函館市,五稜郭町３０番３号２Ｆ,,01,202,0400001,,,,,,,2023-11-22,1,,,,,エムクルー,0
2478,9460301005180,新規,0,2023-11-22,2023-11-22,株式会社ｅ．Ｎ,,株式会社,北海道,北見市,北進町１丁目１４番２３号,,01,208,0900052,,,,,,,2023-11-22,1,,,,,エン,0
2482,9470003002517,新規,0,2023-11-22,2023-11-22,合同会社Ｇｉｓｅｌｌｅ,,合同会社,香川県,丸亀市,柞原町５７４番地５,,37,202,7630073,,,,,,,2023-11-22,1,,,,,,0
2487,9700150122234,新規,0,2023-11-22,2023-11-22,Ｖａｓｔ　Ｆｏｒｅｓｔ　Ｌｉｍｉｔｅｄ,,外国会社等,,,,,,,,ＵｎｉｔＡ，２０００Ｆ　Ｃｈｕｎｇ　Ｈｉｎｇ　Ｃｏｍｍｅｒｃｉａｌ　Ｂｕｌｄ　６２－６３　Ｃｏｎｎａｕｇｈｔ　Ｒｏａｄ　Ｃｅｎｔｒａｌ　Ｈｏｎｇ　Ｋｏｎｇ,,,,,,2023-11-22,1,,,,,バストフオレストリミテツド,0
2488,9700150122242,新規,0,2023-11-22,2023-11-22,Ｓｈｅｎｚｈｅｎ　Ｓａｉｌｉｏｎ　Ｔｅｃｈｎｏｌｏｇｙ　Ｃｏ．，Ｌｔｄ．,,外国会社等,,,,,,,,５１０，Ｂｌｏｃｋ　Ｂ，Ｗｅｉｄｏｎｇ　Ｌｏｎｇ　Ｂｕｓｉｎｅｓｓ　ＢｕｉｌｄｉｎｇＮｏ．２１１３，Ｍｅｉｌｏｎｇ　Ａｖｅｎｕｅ，Ｑｉｎｇｈｕａ　Ｃｏｍｍｕｎｉｔｙ，Ｌｏｎｇｈｕａ　ＳｔｒｅｅｔＬｏｎｇｈｕａ，Ｓｈｅｎｚｈｅｎ，Ｇｕａｎｇｄｏｎｇ,,,,,,2023-11-22,1,,,,,シェンジェンシーサイリーアンコージーヨウシエンゴンスー,0
