sequenceNumber,corporateNumber,process,correct,updateDate,changeDate,name,nameImageId,kind,prefectureName,cityName,streetNumber,addressImageId,prefectureCode,cityCode,postCode,addressOutside,addressOutsideImageId,closeDate,closeCause,successorCorporateNumber,changeCause,assignmentDate,latest,enName,enPrefectureName,enCityName,enAddressOutside,furigana,hihyoji
4,1010001248768,新規,0,2024-10-10,2024-10-10,ミノコベイ株式会社,,株式会社,東京都,中央区,日本橋室町１丁目５番２号,,13,102,1030022,,,,,,,2024-10-10,1,,,,,ミノコベイ,0
5,1010001248850,新規,0,2024-10-10,2024-10-10,ぴにょきお株式会社,,株式会社,東京都,千代田区,神田須田町２丁目１－１ＭＡＳＱＵＡＲＥＡＫＩＨＡＢＡＲＡ４Ｆ,,13,101,1010041,,,,,,,2024-10-10,1,,,,,ピニョキオ,0
6,1010001248966,新規,0,2024-10-10,2024-10-10,ＭＯＪＯホールディングス株式会社,,株式会社,東京都,中央区,日本橋室町１丁目１１番１２号日本橋水野ビル７階,,13,102,1030022,,,,,,,2024-10-10,1,,,,,モジョホールディングス,0
7,1010001249015,新規,0,2024-10-10,2024-10-10,株式会社ＺＥＮＮ,,株式会社,東京都,中央区,日本橋富沢町１１－１９－１００６ＳＯＨＯ３０,,13,102,1030006,,,,,,,2024-10-10,1,,,,,,0
9,1010003045180,新規,0,2024-10-10,2024-10-10,オハラコンサルティンググループ合同会社,,合同会社,東京都,千代田区,五番町１２番地７－２０４３,,13,101,1020076,,,,,,,2024-10-10,1,,,,,オハラコンサルティンググループ,0
11,1010101016364,新規,0,2024-10-10,2024-10-10,株式会社ＣＲＡＦＴＲＯＣＫＴＡＫＡＯ３６,,株式会社,東京都,八王子市,高尾町２２９２番地,,13,201,1930844,,,,,,,2024-10-10,1,,,,,クラフトロックタカオサンジュウロク,0
17,1010501053032,新規,0,2024-10-10,2024-10-10,ＰＰＪ株式会社,,株式会社,東京都,台東区,台東２丁目３１番１０号１１８号室,,13,106,1100016,,,,,,,2024-10-10,1,,,,,ピーピージェイ,0
22,1010701046661,新規,0,2024-10-10,2024-10-10,株式会社キリトリ,,株式会社,東京都,品川区,北品川３丁目３番－６－４０４号,,13,109,1400001,,,,,,,2024-10-10,1,,,,,キリトリ,0
27,1010901056106,新規,0,2024-10-10,2024-10-10,ＷＡＫＡＩ　ＴＲＡＮＳＰＯＲＴ株式会社,,株式会社,東京都,世田谷区,給田５丁目１番８号,,13,112,1570064,,,,,,,2024-10-10,1,,,,,ワカイトランスポート,0
33,1011001165094,新規,0,2024-10-10,2024-10-10,株式会社Ｋａｅｄｅ　Ｃｒｅａｔｉｖｅｓ,,株式会社,東京都,渋谷区,東３丁目２１番６号リバーサイドビル５０１,,13,113,1500011,,,,,,,2024-10-10,1,,,,,カエデクリエイティブズ,0
34,1011001165219,新規,0,2024-10-10,2024-10-10,Ｌｉｆｅ　Ｐｒｅｓｅｎｔ株式会社,,株式会社,東京都,渋谷区,代々木３丁目１－４日月光ビル５階,,13,113,1510053,,,,,,,2024-10-10,1,,,,,ライフプレゼント,0
35,1011003020149,新規,0,2024-10-10,2024-10-10,合同会社Ｏｎｅ’ｓ　Ｓｔａｆｆ,,合同会社,東京都,目黒区,目黒本町６丁目２３－１５、２階,,13,110,1520002,,,,,,,2024-10-10,1,,,,,,0
36,1011003020181,新規,0,2024-10-10,2024-10-10,Ｒｈｅｎｃｅ合同会社,,合同会社,東京都,渋谷区,大山町８－３,,13,113,1510065,,,,,,,2024-10-10,1,,,,,レンス,0
40,1011101109001,新規,0,2024-10-10,2024-10-10,株式会社ゼロイエ,,株式会社,東京都,新宿区,西新宿３丁目３番１３号西新宿水間ビル６階,,13,104,1600023,,,,,,,2024-10-10,1,,,,,ゼロイエ,0
46,1011303005312,新規,0,2024-10-10,2024-10-10,合同会社ＹＵＺＵ　ＳＴＡＲ,,合同会社,東京都,杉並区,梅里２丁目１８番７号ツインパレス新高円寺Ａ棟３０３,,13,115,1660011,,,,,,,2024-10-10,1,,,,,ユズスター,0
50,1011501031250,新規,0,2024-10-10,2024-10-10,株式会社Ｒｅｓｏｎａｎｃｅ,,株式会社,東京都,北区,王子５丁目８番１,,13,117,1140002,,,,,,,2024-10-10,1,,,,,レゾナンス,0
52,1011601028106,新規,0,2024-10-10,2024-10-10,株式会社Ｂ．Ｒｏｏｔｓ,,株式会社,東京都,練馬区,西大泉４丁目８番１５号,,13,120,1780065,,,,,,,2024-10-10,1,,,,,ブルート,0
61,1012403006786,新規,0,2024-10-10,2024-10-10,Ｃｌｙｎｅ　Ｊａｐａｎ合同会社,,合同会社,東京都,小金井市,本町５丁目３２－１４,,13,210,1840004,,,,,,,2024-10-10,1,,,,,クラインジャパン,0
64,1013301053177,新規,0,2024-10-10,2024-10-10,株式会社バリューアンドビジョン,,株式会社,東京都,豊島区,要町３丁目２１－１１千優ビル２Ｆ,,13,116,1710043,,,,,,,2024-10-10,1,,,,,バリューアンドビジョン,0
65,1013303007338,新規,0,2024-10-10,2024-10-10,合同会社バルキー,,合同会社,東京都,豊島区,高田３丁目２９番１５号,,13,116,1710033,,,,,,,2024-10-10,1,,,,,バルキー,0
69,1020001159527,新規,0,2024-10-10,2024-10-10,なんかたのしい株式会社,,株式会社,神奈川県,横浜市西区,浅間町１丁目４番３号ウィザードビル４０２,,14,103,2200072,,,,,,,2024-10-10,1,,,,,ナンカタノシイ,0
70,1020001159551,新規,0,2024-10-10,2024-10-10,株式会社ｅｎｎ．,,株式会社,神奈川県,横浜市緑区,中山４丁目３２番１６号,,14,113,2260019,,,,,,,2024-10-10,1,,,,,エン,0
90,1030001162884,新規,0,2024-10-10,2024-10-10,株式会社ＣＬＡＶＩＡ．,,株式会社,埼玉県,さいたま市大宮区,桜木町２丁目９０２番地１６１６号室,,11,103,3300854,,,,,,,2024-10-10,1,,,,,クラヴィア,0
91,1030001162901,新規,0,2024-10-10,2024-10-10,ＨＭサポート株式会社,,株式会社,埼玉県,川越市,的場１丁目１７番地２１,,11,201,3501101,,,,,,,2024-10-10,1,,,,,エイチエムサポート,0
98,1040001135765,新規,0,2024-10-10,2024-10-10,株式会社Ｓｏｌｉｓ,,株式会社,千葉県,市原市,北国分寺台５丁目７番地１２,,12,219,2900071,,,,,,,2024-10-10,1,,,,,ソリス,0
99,1040001135781,新規,0,2024-10-10,2024-10-10,富士甲辰株式会社,,株式会社,千葉県,松戸市,西馬橋相川町８３番地,,12,207,2710045,,,,,,,2024-10-10,1,,,,,フジコウシン,0
103,1040003025700,新規,0,2024-10-10,2024-10-10,合同会社三恵企画,,合同会社,千葉県,八千代市,八千代台南１丁目７－１－３Ｆ,,12,221,2760033,,,,,,,2024-10-10,1,,,,,サンケイキカク,0
109,1060001037571,新規,0,2024-10-10,2024-10-10,株式会社誠志,,株式会社,栃木県,大田原市,美原２丁目３２９３番地３２,,09,210,3240047,,,,,,,2024-10-10,1,,,,,セイシ,0
110,1060003005279,新規,0,2024-10-10,2024-10-10,ＳＨＩＫＡＲＯ・Ｘ合同会社,,合同会社,栃木県,足利市,鹿島町５３１番地,,09,202,3260844,,,,,,,2024-10-10,1,,,,,シカロエックス,0
131,1120001269159,新規,0,2024-10-10,2024-10-10,株式会社３ｕｎｄｅｒ,,株式会社,大阪府,大阪市浪速区,難波中３丁目９番１号,,27,111,5560011,,,,,,,2024-10-10,1,,,,,スリーアンダー,0
132,1120001269175,新規,0,2024-10-10,2024-10-10,ＫＯＩＴコンサルティング株式会社,,株式会社,大阪府,大阪市中央区,淡路町３丁目５－１３創建御堂筋ビル２Ｆ,,27,128,5410047,,,,,,,2024-10-10,1,,,,,ケーオーアイティーコンサルティング,0
133,1120001269191,新規,0,2024-10-10,2024-10-10,株式会社ビーカンパニー,,株式会社,大阪府,大阪市北区,大淀南３丁目２－１３－７０１,,27,127,5310075,,,,,,,2024-10-10,1,,,,,ビーカンパニー,0
134,1120001269233,新規,0,2024-10-10,2024-10-10,株式会社ＲＡＫ,,株式会社,大阪府,大阪市東淀川区,淡路４丁目２０番２５号,,27,114,5330032,,,,,,,2024-10-10,1,,,,,ラック,0
135,1120001269241,新規,0,2024-10-10,2024-10-10,株式会社ラフテル,,株式会社,大阪府,大阪市中央区,道頓堀１丁目６－１４平松ビル３階,,27,128,5420071,,,,,,,2024-10-10,1,,,,,ラフテル,0
136,1120001269258,新規,0,2024-10-10,2024-10-10,株式会社Ｖｉｏｌｅｔ　Ａｇｅｎｔ,,株式会社,大阪府,大阪市北区,梅田１丁目１－３大阪駅前第３ビル２９階１－１－１号室,,27,127,5300001,,,,,,,2024-10-10,1,,,,,バイオレットエージェント,0
139,1120003027325,新規,0,2024-10-10,2024-10-10,合同会社ＨＩＮＯＫＩＯ,,合同会社,大阪府,大阪市淀川区,宮原１丁目８番４号レバンガＡＰ新大阪ステーションフロント３０２号,,27,123,5320003,,,,,,,2024-10-10,1,,,,,ヒノキオ,0
140,1120003027713,新規,0,2024-10-10,2024-10-10,ＳｕｎＢｌｕｅ　ｃｒｅａｔｅ合同会社,,合同会社,大阪府,大阪市北区,梅田１丁目１－３大阪駅前第３ビル２９階１－１－１号室,,27,127,5300001,,,,,,,2024-10-10,1,,,,,サンブルークリエイト,0
148,1120905006649,新規,0,2024-10-10,2024-10-10,一般社団法人アジア日本国際医療健康協力協会,,その他の設立登記法人,大阪府,高槻市,高槻町２番１１号松昌興産本社ビル１階,,27,207,5690803,,,,,,,2024-10-10,1,,,,,アジアニホンコクサイイリョウケンコウキョウリョクキョウカイ,0
150,1122001038519,新規,0,2024-10-10,2024-10-10,齋藤電気商会株式会社,,株式会社,大阪府,八尾市,北本町３丁目１３番１９号,,27,212,5810802,,,,,,,2024-10-10,1,,,,,サイトウデンキショウカイ,0
152,1130001078113,新規,0,2024-10-10,2024-10-10,株式会社Ｓｉｇｎｐｏｓｔ　ｔｏ　ｔｈｅ　Ｓｕｎ和,,株式会社,京都府,京都市北区,西賀茂井ノ口町５８番地１,,26,101,6038804,,,,,,,2024-10-10,1,,,,,サインポストトゥザサンナゴミ,0
156,1140001135978,新規,0,2024-10-10,2024-10-10,株式会社ＭＤＫ,,株式会社,兵庫県,加西市,北条町北条１３７番地の１８,,28,220,6752312,,,,,,,2024-10-10,1,,,,,エムディケー,0
157,1140001136043,新規,0,2024-10-10,2024-10-10,株式会社Ｌｅａｆ防水,,株式会社,兵庫県,神戸市灘区,泉通４丁目３番地８－１,,28,102,6570834,,,,,,,2024-10-10,1,,,,,リーフボウスイ,0
158,1140001136068,新規,0,2024-10-10,2024-10-10,株式会社ミレッジ,,株式会社,兵庫県,西宮市,甲東園２丁目３番１９号,,28,204,6620812,,,,,,,2024-10-10,1,,,,,ミレッジ,0
161,1150001027605,新規,0,2024-10-10,2024-10-10,ＤＡＮＲＡＮ　ＳＫＹ　ＲＥＡＣＨ　ＹＯＵ株式会社,,株式会社,奈良県,奈良市,北之庄町８－１７,,29,201,6308451,,,,,,,2024-10-10,1,,,,,ダンランスカイリーチユー,0
162,1170001018338,新規,0,2024-10-10,2024-10-10,株式会社ミックスナッツ,,株式会社,和歌山県,御坊市,藤田町藤井２１３１番地７,,30,205,6491341,,,,,,,2024-10-10,1,,,,,ミックスナッツ,0
186,1210001019942,新規,0,2024-10-10,2024-10-10,株式会社Ａｓｔｒｅｋ,,株式会社,福井県,福井市,学園３丁目４－１５うめだビル１０２,,18,201,9100028,,,,,,,2024-10-10,1,,,,,アストレック,0
191,1220005008890,新規,0,2024-10-10,2024-10-10,一般社団法人能登官民連携復興センター,,その他の設立登記法人,石川県,輪島市,三井町洲衛１０部１１番１,,17,204,9292372,,,,,,,2024-10-10,1,,,,,ノトカンミンレンケイフッコウセンター,0
214,1320001020757,新規,0,2024-10-10,2024-10-10,株式会社ツインリバー,,株式会社,大分県,大分市,富士見が丘東３丁目１番６号,,44,201,8701176,,,,,,,2024-10-10,1,,,,,ツインリバー,0
219,1340005009778,新規,0,2024-10-10,2024-10-10,特定非営利活動法人姿勢と体の教室,,その他の設立登記法人,鹿児島県,鹿児島市,中山２丁目１５番３７－２号,,46,201,8910108,,,,,,,2024-10-10,1,,,,,シセイトカラダノキョウシツ,0
220,1350005006262,新規,0,2024-10-10,2024-10-10,医療法人ｅｎ．,,その他の設立登記法人,宮崎県,延岡市,北小路１２番地５,,45,203,8820041,,,,,,,2024-10-10,1,,,,,エン,0
221,1360003014365,新規,0,2024-10-10,2024-10-10,合同会社ＫＩＺＵＫＵ,,合同会社,沖縄県,名護市,字為又１２２０－２７ニューセンチュリーマンション１０１,,47,209,9050005,,,,,,,2024-10-10,1,,,,,キズク,0
223,1370001051797,新規,0,2024-10-10,2024-10-10,株式会社エンズ,,株式会社,宮城県,富谷市,東向陽台３丁目２５番９号,,04,216,9813331,,,,,,,2024-10-10,1,,,,,エンズ,0
224,1370001051806,新規,0,2024-10-10,2024-10-10,株式会社まるえむ,,株式会社,宮城県,白石市,大平森合字権現１１番地,,04,206,9890217,,,,,,,2024-10-10,1,,,,,マルエム,0
225,1370003006774,新規,0,2024-10-10,2024-10-10,イエローウィン合同会社,,合同会社,宮城県,仙台市泉区,北中山４丁目１２番地の８,,04,105,9813215,,,,,,,2024-10-10,1,,,,,イエローウィン,0
226,1380001034834,新規,0,2024-10-10,2024-10-10,Ｐａｆｆ株式会社,,株式会社,福島県,郡山市,朝日２丁目２１番６号Ａｓａｈｉ２１，２階,,07,203,9638024,,,,,,,2024-10-10,1,,,,,パフ,0
233,1390005009088,新規,0,2024-10-10,2024-10-10,一般社団法人ＳＡＫＡＴＡ　ＳＣＨＯＯＬ　ＣＬＵＢ,,その他の設立登記法人,山形県,酒田市,浜田２丁目４番地１５号フィオーレ１０２号,,06,204,9980031,,,,,,,2024-10-10,1,,,,,サカタスクールクラブ,0
238,1430001092851,新規,0,2024-10-10,2024-10-10,株式会社日向自動車,,株式会社,北海道,札幌市北区,新琴似町１０１０番地６５,,01,102,0010915,,,,,,,2024-10-10,1,,,,,ヒュウガジドウシャ,0
241,1430003016866,新規,0,2024-10-10,2024-10-10,合同会社Ｖｉｂｌｉｆｅ,,合同会社,北海道,札幌市豊平区,豊平三条８丁目１－３７－４０７,,01,105,0620903,,,,,,,2024-10-10,1,,,,,ヴィブライフ,0
244,1470003002730,新規,0,2024-10-10,2024-10-10,合同会社中甚海商,,合同会社,香川県,小豆郡小豆島町,苗羽甲１３２１番地１６,,37,324,7614421,,,,,,,2024-10-10,1,,,,,ナカジンカイショウ,0
252,2010001248924,新規,0,2024-10-10,2024-10-10,株式会社新,,株式会社,東京都,千代田区,神田司町２丁目６番１号荒木ビル５階,,13,101,1010048,,,,,,,2024-10-10,1,,,,,シン,0
261,2010401185552,新規,0,2024-10-10,2024-10-10,ＢＥＥ株式会社,,株式会社,東京都,港区,麻布台１丁目３番１号麻布台ヒルズ森ＪＰタワー１５階,,13,103,1060041,,,,,,,2024-10-10,1,,,,,ビー,0
262,2010403033585,新規,0,2024-10-10,2024-10-10,Ｒｅｌｉａｎｃｅ　Ｃｏｎｓｔｒｕｃｔｉｏｎ　Ｍａｎａｇｅｍｅｎｔ　Ｃｏｍｐａｎｙ合同会社,,合同会社,東京都,港区,虎ノ門４丁目３番１号城山トラストタワー東京赤坂法律事務所内,,13,103,1050001,,,,,,,2024-10-10,1,,,,,リライアンスコンストラクションマネジメントカンパニー,0
270,2010901056096,新規,0,2024-10-10,2024-10-10,ＫＵＲＯＫＯ株式会社,,株式会社,東京都,世田谷区,赤堤１丁目９番６号,,13,112,1560044,,,,,,,2024-10-10,1,,,,,クロコ,0
271,2010901056105,新規,0,2024-10-10,2024-10-10,株式会社京,,株式会社,東京都,世田谷区,桜丘５丁目４４番７号,,13,112,1560054,,,,,,,2024-10-10,1,,,,,キョウ,0
282,2011003020180,新規,0,2024-10-10,2024-10-10,合同会社Ｃｏｒｏｍｏ,,合同会社,東京都,渋谷区,恵比寿西２丁目８番４号ＥＸ恵比寿西ビル５階,,13,113,1500021,,,,,,,2024-10-10,1,,,,,コロモ,0
283,2011101109017,新規,0,2024-10-10,2024-10-10,株式会社ビオラス,,株式会社,東京都,新宿区,大久保２丁目１８番１８号ＮＳハイムＢ１－３１号室,,13,104,1690072,,,,,,,2024-10-10,1,,,,,ビオラス,0
284,2011101109041,新規,0,2024-10-10,2024-10-10,株式会社Ｓ．Ｏ．ＤＥＣ,,株式会社,東京都,新宿区,戸山１丁目６番７号グラシオ早稲田夏目坂１０４,,13,104,1620052,,,,,,,2024-10-10,1,,,,,エスオーデック,0
294,2011501031225,新規,0,2024-10-10,2024-10-10,株式会社柴田ＳＴＩ研究所,,株式会社,東京都,北区,赤羽１丁目７番９号赤羽第一葉山ビル４階,,13,117,1150045,,,,,,,2024-10-10,1,,,,,,0
295,2011501031233,新規,0,2024-10-10,2024-10-10,株式会社Ｌ‐Ｂｒｉｄｇｅ,,株式会社,東京都,荒川区,荒川２丁目２１番地１,,13,118,1160002,,,,,,,2024-10-10,1,,,,,エルブリッジ,0
298,2011701027691,新規,0,2024-10-10,2024-10-10,株式会社大場硝子加工所,,株式会社,東京都,江戸川区,松島１丁目９番１４号,,13,123,1320031,,,,,,,2024-10-10,1,,,,,オオバガラスカコウショ,0
299,2011701027700,新規,0,2024-10-10,2024-10-10,ビタルマインド株式会社,,株式会社,東京都,江戸川区,大杉１丁目１３－６－１０２,,13,123,1320022,,,,,,,2024-10-10,1,,,,,ビタルマインド,0
300,2011703003988,新規,0,2024-10-10,2024-10-10,合同会社渡邊事務所,,合同会社,東京都,江戸川区,中央４丁目２０番２－６０３号,,13,123,1320021,,,,,,,2024-10-10,1,,,,,ワタナベジムショ,0
301,2011703003996,新規,0,2024-10-10,2024-10-10,順達合同会社,,合同会社,東京都,江戸川区,南小岩３丁目１番１４号プランドールＭ１０９室,,13,123,1330056,,,,,,,2024-10-10,1,,,,,ジュンタツ,0
307,2013101009535,新規,0,2024-10-10,2024-10-10,株式会社ＢＬＡＺＥ,,株式会社,東京都,あきる野市,渕上３５８番地１,,13,228,1970833,,,,,,,2024-10-10,1,,,,,ブレイズ,0
311,2013301053176,新規,0,2024-10-10,2024-10-10,株式会社ＥＺＡＫＩ,,株式会社,東京都,豊島区,駒込６丁目１番１号,,13,116,1700003,,,,,,,2024-10-10,1,,,,,エザキ,0
313,2013303007337,新規,0,2024-10-10,2024-10-10,合同会社上原通信,,合同会社,東京都,豊島区,上池袋１丁目３８番４－１０５号,,13,116,1700012,,,,,,,2024-10-10,1,,,,,ウエハラツウシン,0
315,2020001159550,新規,0,2024-10-10,2024-10-10,ＬＳＤソリューションズ株式会社,,株式会社,神奈川県,川崎市川崎区,堀之内町１０番２号ライジングプレイス川崎６１０,,14,131,2100003,,,,,,,2024-10-10,1,,,,,エルエスディソリューションズ,0
316,2020001159567,新規,0,2024-10-10,2024-10-10,Ａ２Ｒ　Ｉｎｖｅｓｔｍｅｎｔｓ株式会社,,株式会社,神奈川県,川崎市中原区,新丸子東３丁目１１００番地１５－Ｓ１００１,,14,133,2110004,,,,,,,2024-10-10,1,,,,,エーツーアールインベストメンツ,0
318,2020003026996,新規,0,2024-10-10,2024-10-10,合同会社Ｙ＆Ｙ,,合同会社,神奈川県,川崎市高津区,向ケ丘１３５番地１ルックス宮崎台２０５,,14,134,2130035,,,,,,,2024-10-10,1,,,,,ワイアンドワイ,0
325,2030001162891,新規,0,2024-10-10,2024-10-10,株式会社クランツ,,株式会社,埼玉県,新座市,北野３丁目７番１１号,,11,230,3520003,,,,,,,2024-10-10,1,,,,,クランツ,0
327,2030003025279,新規,0,2024-10-10,2024-10-10,春日部中古車買取板橋自動車合同会社,,合同会社,埼玉県,北葛飾郡杉戸町,大字本郷１１３６－１,,11,464,3450023,,,,,,,2024-10-10,1,,,,,カスカベチュウコシャカイトリイタバシジドウシャ,0
328,2030003025304,新規,0,2024-10-10,2024-10-10,合同会社Ｌｉｇｈｔ,,合同会社,埼玉県,さいたま市見沼区,大字南中丸６３８フレシール１０１,,11,104,3370041,,,,,,,2024-10-10,1,,,,,ライト,0
333,2040001135756,新規,0,2024-10-10,2024-10-10,株式会社日商酒井,,株式会社,千葉県,柏市,若柴１７８－４柏の葉キャンパス１４８街区２ショップ＆オフィス棟６階,,12,217,2770871,,,,,,,2024-10-10,1,,,,,ニッショウサカイ,0
334,2040001135772,新規,0,2024-10-10,2024-10-10,ファーストステージ株式会社,,株式会社,千葉県,柏市,中央２丁目９番１１号ＡＫＢＬＤ．ＶＩ－２０１号,,12,217,2770023,,,,,,,2024-10-10,1,,,,,ファーストステージ,0
335,2040001135780,新規,0,2024-10-10,2024-10-10,彩サービス株式会社,,株式会社,千葉県,松戸市,馬橋２８５５番地マンションニュー松戸８１５号室,,12,207,2710051,,,,,,,2024-10-10,1,,,,,イロドリサービス,0
336,2060001037538,新規,0,2024-10-10,2024-10-10,株式会社リキッド,,株式会社,栃木県,宇都宮市,西の宮２丁目２２番２５号,,09,201,3200064,,,,,,,2024-10-10,1,,,,,リキッド,0
337,2060001037562,新規,0,2024-10-10,2024-10-10,株式会社Ｍｉｙａ．ＯＮＥ．Ｃｏｎｎｅｃｔ,,株式会社,栃木県,宇都宮市,中央３丁目１番４号栃木県産業会館３階,,09,201,3200806,,,,,,,2024-10-10,1,,,,,ミヤワンコネクト,0
340,2060003005278,新規,0,2024-10-10,2024-10-10,ａｎｄフィーカ合同会社,,合同会社,栃木県,小山市,犬塚３丁目８番地２７,,09,208,3230811,,,,,,,2024-10-10,1,,,,,アンドフィーカ,0
348,2100003007807,新規,0,2024-10-10,2024-10-10,合同会社ユービジ,,合同会社,長野県,松本市,浅間温泉３丁目２４番３号,,20,202,3900303,,,,,,,2024-10-10,1,,,,,ユービジ,0
361,2120001268960,新規,0,2024-10-10,2024-10-10,株式会社キタタニ,,株式会社,大阪府,大阪市東住吉区,公園南矢田２丁目１３番１１号,,27,121,5460024,,,,,,,2024-10-10,1,,,,,キタタニ,0
362,2120001269067,新規,0,2024-10-10,2024-10-10,清本産業株式会社,,株式会社,大阪府,大阪市東成区,玉津１丁目１－５メゾンサンパティーク８Ｆ,,27,115,5370023,,,,,,,2024-10-10,1,,,,,キヨモトサンギョウ,0
363,2120001269125,新規,0,2024-10-10,2024-10-10,株式会社ジモンパートナーズ,,株式会社,大阪府,大阪市中央区,平野町３丁目１番６号,,27,128,5410046,,,,,,,2024-10-10,1,,,,,ジモンパートナーズ,0
364,2120001269216,新規,0,2024-10-10,2024-10-10,博瀛商事株式会社,,株式会社,大阪府,大阪市都島区,都島本通２丁目６番４号,,27,102,5340021,,,,,,,2024-10-10,1,,,,,ハクエイショウジ,0
365,2120001269240,新規,0,2024-10-10,2024-10-10,株式会社アリテス,,株式会社,大阪府,大阪市中央区,南久宝寺一丁目９番１０号日宝船場ビル８－１,,27,128,5390000,,,,,,,2024-10-10,1,,,,,アリテス,0
372,2120103006087,新規,0,2024-10-10,2024-10-10,合同会社Ｈｏｐｐｉｔｙ,,合同会社,大阪府,藤井寺市,道明寺１丁目９－３１－４０２,,27,226,5830012,,,,,,,2024-10-10,1,,,,,ホプティ,0
383,2130003009908,新規,0,2024-10-10,2024-10-10,合同会社Ｆ・Ｄ商事,,合同会社,京都府,京都市伏見区,向島吹田河原町１０３番地３,,26,109,6128124,,,,,,,2024-10-10,1,,,,,エフディーショウジ,0
388,2150001027604,新規,0,2024-10-10,2024-10-10,株式会社Ｒｙｕ　ｓｐｏｒｔｓ,,株式会社,奈良県,天理市,御経野町３７番地５,,29,204,6320036,,,,,,,2024-10-10,1,,,,,リュウスポーツ,0
403,2180301039131,新規,0,2024-10-10,2024-10-10,株式会社満庭,,株式会社,愛知県,西尾市,駒場町屋敷７２番地,,23,213,4450021,,,,,,,2024-10-10,1,,,,,マンテイ,0
421,2260001039514,新規,0,2024-10-10,2024-10-10,エコワークス・ホールディングス株式会社,,株式会社,岡山県,新見市,高尾２３０４番地の１,,33,210,7180003,,,,,,,2024-10-10,1,,,,,エコワークスホールディングス,0
424,2290001107433,新規,0,2024-10-10,2024-10-10,株式会社水まわり博士,,株式会社,福岡県,久留米市,東合川６丁目１番４１号,,40,203,8390809,,,,,,,2024-10-10,1,,,,,ミズマワリハカセ,0
425,2290001107466,新規,0,2024-10-10,2024-10-10,株式会社オーヤブホールディングス,,株式会社,福岡県,筑後市,大字長浜２０４３番地の１,,40,211,8330005,,,,,,,2024-10-10,1,,,,,オーヤブホールディングス,0
429,2300003002184,新規,0,2024-10-10,2024-10-10,ＳＵＩＣＳ合同会社,,合同会社,佐賀県,佐賀市,伊勢町２―１,,41,201,8400844,,,,,,,2024-10-10,1,,,,,スイクス,0
433,2320001020756,新規,0,2024-10-10,2024-10-10,株式会社訪問介護ステーション・ドリーム愛,,株式会社,大分県,大分市,大字光吉１５６６番地の１８,,44,201,8701132,,,,,,,2024-10-10,1,,,,,ホウモンカイゴステーションドリームアイ,0
434,2320003004492,新規,0,2024-10-10,2024-10-10,合同会社ＫＡＭ,,合同会社,大分県,大分市,西鶴崎１丁目７番１７号,,44,201,8700105,,,,,,,2024-10-10,1,,,,,ケイエーエム,0
441,2360001034281,新規,0,2024-10-10,2024-10-10,株式会社ケイズホールディングス,,株式会社,沖縄県,那覇市,田原１丁目４番地５,,47,201,9010156,,,,,,,2024-10-10,1,,,,,ケイズホールディングス,0
442,2360003014364,新規,0,2024-10-10,2024-10-10,合同会社ピースクリエイト,,合同会社,沖縄県,国頭郡今帰仁村,字今泊４４９１番地,,47,306,9050428,,,,,,,2024-10-10,1,,,,,ピースクリエイト,0
443,2360003014372,新規,0,2024-10-10,2024-10-10,合同会社ＨａｐｐｙＦｕｔｕｒｅ,,合同会社,沖縄県,沖縄市,海邦１丁目９番１９号サザンベルＩＩＩ５０２,00136593,47,211,9042162,,,,,,,2024-10-10,1,,,,,ハッピーフューチャー,0
444,2360003014380,新規,0,2024-10-10,2024-10-10,合同会社Ｐｉｃｏｆｅｔｅ,,合同会社,沖縄県,宜野湾市,嘉数４丁目１９番７号プレミアムコート宜野湾西,,47,205,9012226,,,,,,,2024-10-10,1,,,,,ピコフェット,0
446,2370001051788,新規,0,2024-10-10,2024-10-10,株式会社マフホールディングス,,株式会社,宮城県,仙台市泉区,松森字住吉８番地１,,04,105,9813111,,,,,,,2024-10-10,1,,,,,マフホールディングス,0
456,2380005012884,新規,0,2024-10-10,2024-10-10,医療法人南やのめ皮膚科クリニック,,その他の設立登記法人,福島県,福島市,南矢野目字上戸ノ内７番地の７,,07,201,9600112,,,,,,,2024-10-10,1,,,,,ミナミヤノメヒフカクリニック,0
457,2410001013957,新規,0,2024-10-10,2024-10-10,田中の福祉株式会社,,株式会社,秋田県,山本郡三種町,川尻字安戸六前谷地４３番地,,05,348,0182402,,,,,,,2024-10-10,1,,,,,タナカノフクシ,0
465,2430001092850,新規,0,2024-10-10,2024-10-10,アカデミーＴＳＵＮＡＧＵ株式会社,,株式会社,北海道,札幌市西区,発寒十一条５丁目１０番１号,,01,107,0630831,,,,,,,2024-10-10,1,,,,,アカデミーツナグ,0
466,2430001092859,新規,0,2024-10-10,2024-10-10,ｈａｍａ株式会社,,株式会社,北海道,札幌市白石区,南郷通７丁目南３番９号,,01,104,0030022,,,,,,,2024-10-10,1,,,,,ハマ,0
469,2440003001635,新規,0,2024-10-10,2024-10-10,合同会社Ｉｃｒ．ＴＵＮＡＧＵ,,合同会社,北海道,函館市,大縄町２２番２６号,,01,202,0400062,,,,,,,2024-10-10,1,,,,,アイシーアールツナグ,0
477,2500001025927,新規,0,2024-10-10,2024-10-10,株式会社マツサカ,,株式会社,愛媛県,西予市,宇和町久保２号７０４番地,,38,214,7970036,,,,,,,2024-10-10,1,,,,,マツサカ,0
478,2700150126828,新規,0,2024-10-10,2024-10-10,ＮＩＩＫＵＲＡ　ＳＩＮＧＡＰＯＲＥ　ＰＴＥ．ＬＴＤ．,,外国会社等,,,,,,,,１　ＷＡＬＬＩＣＨ　ＳＴ．＃１４－０１　ＧＵＯＣＯ　ＴＯＷＥＲ　ＳＩＮＧＡＰＯＲＥ,,,,,,2024-10-10,1,,,,,ニイクラシンガポールピーテイーイーリミテツド,0
484,3010001248774,新規,0,2024-10-10,2024-10-10,正恒通商株式会社,,株式会社,東京都,中央区,日本橋浜町２丁目１６番６－８０２号,,13,102,1030007,,,,,,,2024-10-10,1,,,,,セイコウツウショウ,0
485,3010001248989,新規,0,2024-10-10,2024-10-10,株式会社Ｋ‐ＮＯＴ,,株式会社,東京都,中央区,日本橋蛎殻町１丁目１９番１号,,13,102,1030014,,,,,,,2024-10-10,1,,,,,ケーノット,0
487,3010003045162,新規,0,2024-10-10,2024-10-10,合同会社カンツ,,合同会社,東京都,千代田区,麹町４丁目５番地麹町パークハウス１３０１号,,13,101,1020083,,,,,,,2024-10-10,1,,,,,カンツ,0
488,3010003045179,新規,0,2024-10-10,2024-10-10,ａｄｄａｃｔｉｏｎ合同会社,,合同会社,東京都,中央区,銀座７丁目１３番２０号銀座ＴＨビル９階,,13,102,1040061,,,,,,,2024-10-10,1,,,,,アダクション,0
489,3010003045187,新規,0,2024-10-10,2024-10-10,粋知合同会社,,合同会社,東京都,文京区,大塚５丁目１８－３プラチナフォルム護国寺富士見坂４０２号,,13,105,1120012,,,,,,,2024-10-10,1,,,,,スイッチ,0
490,3010005038932,新規,0,2024-10-10,2024-10-10,ＳＶＵＰ２号一般社団法人,,その他の設立登記法人,東京都,千代田区,丸の内１丁目４番１号東京共同会計事務所内,,13,101,1000005,,,,,,,2024-10-10,1,,,,,エスブイユーピーニゴウ,0
496,3010401185543,新規,0,2024-10-10,2024-10-10,ＴＲＮ　Ｇｌｏｂａｌ　Ｃａｒｅｅｒ株式会社,,株式会社,東京都,港区,海岸１丁目２番３号,,13,103,1050022,,,,,,,2024-10-10,1,,,,,ティーアールエヌグローバルキャリア,0
497,3010401185584,新規,0,2024-10-10,2024-10-10,株式会社ＷＥＬＬＡＦＬＯＷ,,株式会社,東京都,港区,六本木３丁目３番２７号,,13,103,1060032,,,,,,,2024-10-10,1,,,,,ウェラフロー,0
499,3010601066031,新規,0,2024-10-10,2024-10-10,株式会社ＤＯＮＯ,,株式会社,東京都,墨田区,横川３丁目９－５細谷ビル４０１,,13,107,1300003,,,,,,,2024-10-10,1,,,,,ドノウ,0
505,3010703007379,新規,0,2024-10-10,2024-10-10,合同会社とことこ,,合同会社,東京都,品川区,西五反田１丁目２６番２号五反田サンハイツ９１１,,13,109,1410031,,,,,,,2024-10-10,1,,,,,トコトコ,0
506,3010801035463,新規,0,2024-10-10,2024-10-10,株式会社ラクラルテ,,株式会社,東京都,大田区,東糀谷５丁目１９番８号,,13,111,1440033,,,,,,,2024-10-10,1,,,,,ラクラルテ,0
509,3010901056095,新規,0,2024-10-10,2024-10-10,７株式会社,,株式会社,東京都,世田谷区,上馬１丁目１７番５号,,13,112,1540011,,,,,,,2024-10-10,1,,,,,ナナ,0
510,3010903009415,新規,0,2024-10-10,2024-10-10,合同会社プリミティブスタジオ,,合同会社,東京都,世田谷区,奥沢２丁目３７－７廬山マンション５０２号室,,13,112,1580083,,,,,,,2024-10-10,1,,,,,プリミティブスタジオ,0
516,3011001165076,新規,0,2024-10-10,2024-10-10,株式会社ろうさい対策センター,,株式会社,東京都,目黒区,大橋１丁目３番８号ＢＮＤｂｌｄｇ．８Ｆ,,13,110,1530044,,,,,,,2024-10-10,1,,,,,ロウサイタイサクセンター,0
518,3011003020147,新規,0,2024-10-10,2024-10-10,合同会社エンジェルケア,,合同会社,東京都,渋谷区,幡ヶ谷１丁目２８－２－１０１,,13,113,1510072,,,,,,,2024-10-10,1,,,,,エンジェルケア,0
523,3011601028104,新規,0,2024-10-10,2024-10-10,Ｎｅｗ　Ｈｏｒｉｚｏｎ株式会社,,株式会社,東京都,練馬区,南大泉５丁目３８番９号ツインリーフ南大泉１０２号室,,13,120,1780064,,,,,,,2024-10-10,1,,,,,ニューホライズン,0
531,3012703003110,新規,0,2024-10-10,2024-10-10,合同会社ｔｏｃａ,,合同会社,東京都,小平市,仲町３３１番地の１２,,13,211,1870042,,,,,,,2024-10-10,1,,,,,,0
536,3013301053209,新規,0,2024-10-10,2024-10-10,永康株式会社,,株式会社,東京都,豊島区,池袋本町２丁目３２番３号－Ａ１０３,,13,116,1700011,,,,,,,2024-10-10,1,,,,,エイコウ,0
543,3020001159483,新規,0,2024-10-10,2024-10-10,株式会社エル・ファン,,株式会社,神奈川県,横浜市中区,山手町２４４番地３ハイコート山手パレ北館２０８,,14,104,2310862,,,,,,,2024-10-10,1,,,,,エルファン,0
547,3021003015088,新規,0,2024-10-10,2024-10-10,合同会社ありがとうございます,,合同会社,神奈川県,三浦郡葉山町,堀内１１７７番地の５３,,14,301,2400112,,,,,,,2024-10-10,1,,,,,アリガトウゴザイマス,0
548,3021003015096,新規,0,2024-10-10,2024-10-10,ＨＶＣ合同会社,,合同会社,神奈川県,足柄上郡松田町,松田惣領１４６９番地１尾登ハイツＩＩ１０１号,00136595,14,363,2580003,,,,,,,2024-10-10,1,,,,,エイチブイシー,0
554,3030001162783,新規,0,2024-10-10,2024-10-10,Ｂａｔｔｅｒｙ株式会社,,株式会社,埼玉県,北葛飾郡杉戸町,内田２丁目１３－１１－４０６,,11,464,3450035,,,,,,,2024-10-10,1,,,,,バッテリー,0
555,3030001162882,新規,0,2024-10-10,2024-10-10,株式会社ライトン,,株式会社,埼玉県,越谷市,南越谷１丁目３番３３号,,11,222,3430845,,,,,,,2024-10-10,1,,,,,ライトン,0
556,3030001162890,新規,0,2024-10-10,2024-10-10,株式会社トライズワークス,,株式会社,埼玉県,川口市,南鳩ヶ谷７丁目３３番１９－１０７号,,11,203,3340013,,,,,,,2024-10-10,1,,,,,トライズワークス,0
557,3030001162908,新規,0,2024-10-10,2024-10-10,麗都国際株式会社,,株式会社,埼玉県,川口市,並木３丁目１３番４号４０２室,,11,203,3320034,,,,,,,2024-10-10,1,,,,,レイトコクサイ,0
558,3030001162916,新規,0,2024-10-10,2024-10-10,株式会社ライフハックソリューション,,株式会社,埼玉県,川口市,元郷２丁目１３番１号,,11,203,3320011,,,,,,,2024-10-10,1,,,,,ライフハックソリューション,0
573,3040001135755,新規,0,2024-10-10,2024-10-10,株式会社ＴＥＩＫＡ,,株式会社,千葉県,佐倉市,染井野３丁目１３番地８,,12,212,2850831,,,,,,,2024-10-10,1,,,,,テイカ,0
574,3040001135771,新規,0,2024-10-10,2024-10-10,株式会社クレストリフォーム,,株式会社,千葉県,市川市,相之川４丁目１１番１９号,,12,203,2720143,,,,,,,2024-10-10,1,,,,,クレストリフォーム,0
582,3040005022537,新規,0,2024-10-10,2024-10-10,医療法人社団歯をまもる会,,その他の設立登記法人,千葉県,香取市,佐原イ３９１３番地１,,12,236,2870003,,,,,,,2024-10-10,1,,,,,ハヲマモルカイ,0
584,3050001055498,新規,0,2024-10-10,2024-10-10,株式会社有電,,株式会社,茨城県,つくばみらい市,陽光台２丁目１番地８デュオヒルズつくばＭＩＲＡＩ７０５,,08,235,3002358,,,,,,,2024-10-10,1,,,,,ユウデン,0
585,3050001055507,新規,0,2024-10-10,2024-10-10,株式会社ＢＯＮＤ’Ｓ,,株式会社,茨城県,那珂市,堤４３５番地１６,,08,226,3110104,,,,,,,2024-10-10,1,,,,,ボンズ,0
593,3080401027466,新規,0,2024-10-10,2024-10-10,株式会社ＬｉＮａ,,株式会社,静岡県,浜松市中央区,中郡町１２３７番地の６,,22,138,4313111,,,,,,,2024-10-10,1,,,,,リナ,0
595,3100001037920,新規,0,2024-10-10,2024-10-10,株式会社グレアライズ,,株式会社,長野県,松本市,宮渕１丁目１番２６号,,20,202,3900862,,,,,,,2024-10-10,1,,,,,グレアライズ,0
596,3100001037929,新規,0,2024-10-10,2024-10-10,株式会社アトムグループ,,株式会社,長野県,塩尻市,大字大門１０３５番地１１,,20,215,3990744,,,,,,,2024-10-10,1,,,,,アトムグループ,0
603,3120001268919,新規,0,2024-10-10,2024-10-10,海聯株式会社,,株式会社,大阪府,大阪市城東区,鴫野西５丁目１５番７－３０６号,,27,118,5360014,,,,,,,2024-10-10,1,,,,,カイレン,0
604,3120001269223,新規,0,2024-10-10,2024-10-10,宮脇ＩＣ株式会社,,株式会社,大阪府,大阪市北区,梅田３丁目２番１２３号,,27,127,5300001,,,,,,,2024-10-10,1,,,,,ミヤワキアイシー,0
605,3120001269231,新規,0,2024-10-10,2024-10-10,大有株式会社,,株式会社,大阪府,大阪市阿倍野区,阪南町２丁目１０番１８号,,27,119,5450021,,,,,,,2024-10-10,1,,,,,ダイユウ,0
610,3120003027703,新規,0,2024-10-10,2024-10-10,合同会社ＰｅｔｉｔＢｏｎｈｅｕｒ,,合同会社,大阪府,大阪市中央区,備後町１丁目４番１６号備一ビル５０１号室,,27,128,5410051,,,,,,,2024-10-10,1,,,,,プティボヌール,0
612,3120005024574,新規,0,2024-10-10,2024-10-10,一般社団法人望栄会,,その他の設立登記法人,大阪府,大阪市東成区,東小橋３丁目１０番３１号コノミヤ鶴橋駅前店２階,,27,115,5370024,,,,,,,2024-10-10,1,,,,,ボウエイカイ,0
615,3120103006086,新規,0,2024-10-10,2024-10-10,合同会社ＳＡＮＯ,,合同会社,大阪府,松原市,北新町３丁目９番２号,,27,217,5800025,,,,,,,2024-10-10,1,,,,,サノ,0
625,3130001078111,新規,0,2024-10-10,2024-10-10,株式会社彩洛,,株式会社,京都府,京都市左京区,岩倉幡枝町２５３１－１,,26,103,6060015,,,,,,,2024-10-10,1,,,,,サラク,0
628,3130005017189,新規,0,2024-10-10,2024-10-10,一般社団法人Ｐｅａｃｅ　Ｂｒｉｄｇｅ,,その他の設立登記法人,京都府,宇治市,木幡内畑３４番地の６ユニ宇治マンション３棟６０１０号,,26,204,6110002,,,,,,,2024-10-10,1,,,,,ピースブリッジ,0
636,3140003021175,新規,0,2024-10-10,2024-10-10,合同会社樹,,合同会社,兵庫県,神戸市兵庫区,入江通１丁目１番２０－４０５号,,28,105,6520894,,,,,,,2024-10-10,1,,,,,イツキ,0
637,3150001027603,新規,0,2024-10-10,2024-10-10,錦源商事株式会社,,株式会社,奈良県,大和郡山市,横田町３３番地,,29,203,6391115,,,,,,,2024-10-10,1,,,,,キンゲンショウジ,0
669,3200001043025,新規,0,2024-10-10,2024-10-10,ル・リヤン株式会社,,株式会社,岐阜県,各務原市,三井北町２丁目２１１番地,,21,213,5040956,,,,,,,2024-10-10,1,,,,,ルリヤン,0
677,3250001020837,新規,0,2024-10-10,2024-10-10,株式会社シュウエイ,,株式会社,山口県,岩国市,周東町下久原１５６３番地１２エスベランサａｍｍ２０１,,35,208,7420417,,,,,,,2024-10-10,1,,,,,シュウエイ,0
683,3280001009274,新規,0,2024-10-10,2024-10-10,株式会社ＳＦＴ,,株式会社,島根県,出雲市,中野町５４４番地３,,32,203,6930062,,,,,,,2024-10-10,1,,,,,エスエフティー,0
685,3290001107523,新規,0,2024-10-10,2024-10-10,株式会社チームアットネット,,株式会社,福岡県,福岡市中央区,天神４丁目６－２８天神ファーストビル７階,,40,133,8100001,,,,,,,2024-10-10,1,,,,,チームアットネット,0
686,3290001107531,新規,0,2024-10-10,2024-10-10,ケアオフィスリンク株式会社,,株式会社,福岡県,筑紫野市,美しが丘南４丁目１６番地６,,40,217,8180034,,,,,,,2024-10-10,1,,,,,,0
691,3300001013926,新規,0,2024-10-10,2024-10-10,株式会社ランドモア,,株式会社,佐賀県,鳥栖市,本町２丁目１３５－１,,41,203,8410037,,,,,,,2024-10-10,1,,,,,ランドモア,0
694,3310001019261,新規,0,2024-10-10,2024-10-10,株式会社対馬の季節,,株式会社,長崎県,対馬市,美津島町根緒１６５番地,,42,209,8170326,,,,,,,2024-10-10,1,,,,,ツシマノキセツ,0
703,3360001034297,新規,0,2024-10-10,2024-10-10,株式会社あかり工務店,,株式会社,沖縄県,国頭郡宜野座村,字松田２６２９番地の４４,,47,313,9041301,,,,,,,2024-10-10,1,,,,,アカリコウムテン,0
704,3360003014363,新規,0,2024-10-10,2024-10-10,合同会社Ｋ‐ＵＰ,,合同会社,沖縄県,沖縄市,泡瀬４丁目１３番１８号１Ｆ,,47,211,9042172,,,,,,,2024-10-10,1,,,,,ケーアップ,0
705,3370001051787,新規,0,2024-10-10,2024-10-10,株式会社アセヌマビルド,,株式会社,宮城県,登米市,登米町寺池馬場埣６１８番地,,04,212,9870702,,,,,,,2024-10-10,1,,,,,アセヌマビルド,0
706,3370001051804,新規,0,2024-10-10,2024-10-10,株式会社Ｇ‐ＧＲｉＴ,,株式会社,宮城県,仙台市宮城野区,中野５丁目４番地の３１,,04,102,9830013,,,,,,,2024-10-10,1,,,,,ジーグリット,0
707,3370001051812,新規,0,2024-10-10,2024-10-10,株式会社Ｂｌｕｅ　Ｒｏｓｅ,,株式会社,宮城県,仙台市青葉区,北目町３番１号,,04,101,9800023,,,,,,,2024-10-10,1,,,,,ブルーローズ,0
708,3370003006772,新規,0,2024-10-10,2024-10-10,合同会社ＣＡＭＺ,,合同会社,宮城県,仙台市青葉区,木町通１丁目８番１０号木町総合ビル３Ｆ,,04,101,9800801,,,,,,,2024-10-10,1,,,,,カムズ,0
711,3380001034840,新規,0,2024-10-10,2024-10-10,株式会社魁文堂,,株式会社,福島県,郡山市,大町２丁目１５番２号５階,,07,203,9638001,,,,,,,2024-10-10,1,,,,,カイブンドウ,0
713,3380005012867,新規,0,2024-10-10,2024-10-10,一般社団法人ＱＵＡＤ,,その他の設立登記法人,福島県,双葉郡富岡町,大字本岡字王塚５４１番地,,07,543,9791151,,,,,,,2024-10-10,1,,,,,クアッド,0
714,3380005012883,新規,0,2024-10-10,2024-10-10,医療法人遠藤歯科医院,,その他の設立登記法人,福島県,須賀川市,本町７２番地,,07,207,9620832,,,,,,,2024-10-10,1,,,,,エンドウシカイイン,0
723,3430001092858,新規,0,2024-10-10,2024-10-10,リュータローカンパニー株式会社,,株式会社,北海道,札幌市白石区,北郷二条４丁目６番４５号,,01,104,0030832,,,,,,,2024-10-10,1,,,,,リュータローカンパニー,0
729,3430003016872,新規,0,2024-10-10,2024-10-10,合同会社ヴイポジ,,合同会社,北海道,札幌市東区,北三十六条東２９丁目１４番２０号,,01,103,0070836,,,,,,,2024-10-10,1,,,,,ヴイポジ,0
733,3462503000221,新規,0,2024-10-10,2024-10-10,合同会社キムラ,,合同会社,北海道,目梨郡羅臼町,礼文町３６番地２,,01,694,0861834,,,,,,,2024-10-10,1,,,,,キムラ,0
746,4010001248781,新規,0,2024-10-10,2024-10-10,株式会社コネット,,株式会社,東京都,千代田区,神田須田町２丁目１番地１ＭＡＳＱＵＡＲＥＡＫＩＨＡＢＡＲＡ３Ｆ,,13,101,1010041,,,,,,,2024-10-10,1,,,,,コネット,0
747,4010001248971,新規,0,2024-10-10,2024-10-10,ＤＬＷ株式会社,,株式会社,東京都,中央区,銀座１丁目１２番４号,,13,102,1040061,,,,,,,2024-10-10,1,,,,,ディーエルダブリュー,0
748,4010001248988,新規,0,2024-10-10,2024-10-10,株式会社ＦＵＮ,,株式会社,東京都,中央区,東日本橋２丁目２８番４号日本橋ＣＥＴビル２階,,13,102,1030004,,,,,,,2024-10-10,1,,,,,ファン,0
754,4010005038931,新規,0,2024-10-10,2024-10-10,一般社団法人スプリング４,,その他の設立登記法人,東京都,千代田区,丸の内１丁目４番１号東京共同会計事務所内,,13,101,1000005,,,,,,,2024-10-10,1,,,,,スプリングフォー,0
758,4010401185658,新規,0,2024-10-10,2024-10-10,ＧＢＭ　ＦＯＯＤ株式会社,,株式会社,東京都,港区,新橋２丁目２番５号新橋パイオニアビル３・４階,,13,103,1050004,,,,,,,2024-10-10,1,,,,,ジービーエムフード,0
759,4010401185666,新規,0,2024-10-10,2024-10-10,株式会社Ａ＆Ｆ,,株式会社,東京都,港区,西麻布３丁目２番３３号,,13,103,1060031,,,,,,,2024-10-10,1,,,,,エーアンドエフ,0
761,4010403033567,新規,0,2024-10-10,2024-10-10,新関商事合同会社,,合同会社,東京都,港区,港南２丁目１５番１号品川インターシティＡ棟２８階,,13,103,1080075,,,,,,,2024-10-10,1,,,,,ニイゼキショウジ,0
762,4010403033575,新規,0,2024-10-10,2024-10-10,Ｋｌｉｃｋ　Ｈｅａｌｔｈ　Ｊａｐａｎ合同会社,,合同会社,東京都,港区,元麻布３丁目１番６号,,13,103,1060046,,,,,,,2024-10-10,1,,,,,クリックヘルスジャパン,0
769,4010701046634,新規,0,2024-10-10,2024-10-10,再進ホールディングス株式会社,,株式会社,東京都,品川区,東五反田２丁目５番２号ＴＨＥＣＡＳＫＧＯＴＡＮＤＡ４０１室,,13,109,1410022,,,,,,,2024-10-10,1,,,,,サイシンホールディングス,0
773,4010801035462,新規,0,2024-10-10,2024-10-10,ＴＡＮ　ＷＡＮ　ＧＡＭＥ株式会社,,株式会社,東京都,大田区,田園調布５丁目４０番３号,,13,111,1450071,,,,,,,2024-10-10,1,,,,,タンワンゲーム,0
777,4010901056103,新規,0,2024-10-10,2024-10-10,株式会社メディパスホールディングス,,株式会社,東京都,世田谷区,奥沢７丁目１３番１号,,13,112,1580083,,,,,,,2024-10-10,1,,,,,メディパスホールディングス,0
781,4010903009414,新規,0,2024-10-10,2024-10-10,合同会社ＹＡＳＵＤＡ,,合同会社,東京都,世田谷区,上馬２丁目１８番１０－４０２号,,13,112,1540011,,,,,,,2024-10-10,1,,,,,ヤスダ,0
786,4011001165042,新規,0,2024-10-10,2024-10-10,株式会社ＵＦＯ,,株式会社,東京都,渋谷区,道玄坂１丁目１０番８号渋谷道玄坂東急ビル２Ｆ－Ｃ,,13,113,1500043,,,,,,,2024-10-10,1,,,,,ユーフォー,0
794,4011101108487,新規,0,2024-10-10,2024-10-10,株式会社ロザーナ,,株式会社,東京都,新宿区,矢来町１１４高橋ビル２Ｆ,,13,104,1620805,,,,,,,2024-10-10,1,,,,,ロザーナ,0
795,4011101109064,新規,0,2024-10-10,2024-10-10,ＬＪ商事株式会社,,株式会社,東京都,新宿区,歌舞伎町２丁目２番２１号ライオンズマンション歌舞伎町４１４室,,13,104,1600021,,,,,,,2024-10-10,1,,,,,エルジェイショウジ,0
797,4011103014956,新規,0,2024-10-10,2024-10-10,合同会社Ｅｖｅｒ　Ｌｕｌｌ,,合同会社,東京都,新宿区,新宿６丁目２７番２９－１３１０号,,13,104,1600022,,,,,,,2024-10-10,1,,,,,エバーラル,0
817,4013101009533,新規,0,2024-10-10,2024-10-10,星美達株式会社,,株式会社,東京都,青梅市,東青梅１丁目４番６－４０１－Ｂ号室,,13,205,1980042,,,,,,,2024-10-10,1,,,,,シンビダ,0
819,4013301053174,新規,0,2024-10-10,2024-10-10,株式会社ｓｉｂｌｉｎｇｓ,,株式会社,東京都,豊島区,東池袋１丁目３９番８号,,13,116,1700013,,,,,,,2024-10-10,1,,,,,シブリングス,0
820,4013305003646,新規,0,2024-10-10,2024-10-10,一般社団法人にゃんとぴあ,,その他の設立登記法人,東京都,豊島区,駒込１丁目３－４－１００１,,13,116,1700003,,,,,,,2024-10-10,1,,,,,ニャントピア,0
829,4020001159383,新規,0,2024-10-10,2024-10-10,株式会社ネバー・ネバーランド,,株式会社,神奈川県,横浜市西区,北幸２丁目１０番４８号むつみビル３階,,14,103,2200004,,,,,,,2024-10-10,1,,,,,ネバーネバーランド,0
830,4020001159532,新規,0,2024-10-10,2024-10-10,株式会社ｐｉｌｉｎａ,,株式会社,神奈川県,川崎市麻生区,片平６丁目４番８号,,14,137,2150023,,,,,,,2024-10-10,1,,,,,ピリナ,0
831,4020001159565,新規,0,2024-10-10,2024-10-10,株式会社プロファイブ,,株式会社,神奈川県,川崎市中原区,中丸子１２４６番地１－１１０５,,14,133,2110012,,,,,,,2024-10-10,1,,,,,プロファイブ,0
832,4020001159648,新規,0,2024-10-10,2024-10-10,Ｈａｕｔｅｃａｔｅｒｓ　Ｊａｐａｎ株式会社,,株式会社,神奈川県,横浜市港北区,樽町３丁目７番５３―１０１号,,14,109,2220001,,,,,,,2024-10-10,1,,,,,ホーテケータージャパン,0
836,4020003027010,新規,0,2024-10-10,2024-10-10,合同会社ＢＡＮＴＯＨ,,合同会社,神奈川県,川崎市高津区,下作延２丁目２３番１３－１号,,14,134,2130033,,,,,,,2024-10-10,1,,,,,バントー,0
837,4020003027019,新規,0,2024-10-10,2024-10-10,合同会社Ｍ＆Ｈ企画,,合同会社,神奈川県,川崎市高津区,新作５丁目９番１－５０５号,,14,134,2130014,,,,,,,2024-10-10,1,,,,,エムアンドエイチキカク,0
859,4030001162898,新規,0,2024-10-10,2024-10-10,株式会社陽光海,,株式会社,埼玉県,新座市,新座１丁目３－２,,11,230,3520006,,,,,,,2024-10-10,1,,,,,ヨウコウミ,0
860,4030001162907,新規,0,2024-10-10,2024-10-10,和洋株式会社,,株式会社,埼玉県,川口市,西川口６丁目４－６第二荻島ビル２階－２３１号,,11,203,3320021,,,,,,,2024-10-10,1,,,,,ワヨウ,0
863,4030003025302,新規,0,2024-10-10,2024-10-10,メラジトレーディング合同会社,,合同会社,埼玉県,幸手市,大字槇野地５５８番地１,,11,240,3400135,,,,,,,2024-10-10,1,,,,,メラジトレーディング,0
868,4040001135779,新規,0,2024-10-10,2024-10-10,三合株式会社,,株式会社,千葉県,市川市,中国分５丁目３番７号１Ｆ,,12,203,2720835,,,,,,,2024-10-10,1,,,,,サンゴウ,0
871,4040005022536,新規,0,2024-10-10,2024-10-10,税理士法人高橋会計,00136596,その他の設立登記法人,千葉県,柏市,末広町８番１８号田口ビル５階,,12,217,2770842,,,,,,,2024-10-10,1,,,,,タカハシカイケイ,0
873,4050003008701,新規,0,2024-10-10,2024-10-10,合同会社トリガー,,合同会社,茨城県,日立市,西成沢町２丁目３２番１５号,,08,202,3160032,,,,,,,2024-10-10,1,,,,,トリガー,0
874,4050003008734,新規,0,2024-10-10,2024-10-10,合同会社プラチナ,,合同会社,茨城県,水戸市,上水戸２丁目８番１６－１－１０２号ウエスト・パークＡ棟,,08,201,3100041,,,,,,,2024-10-10,1,,,,,プラチナ,0
885,4070003005597,新規,0,2024-10-10,2024-10-10,Ｎａｔｕｒａｌｌｙ　Ｙｏｕ合同会社,,合同会社,群馬県,前橋市,鶴が谷町３３番地の１５,,10,201,3792108,,,,,,,2024-10-10,1,,,,,ナチュラリーユー,0
920,4120001269049,新規,0,2024-10-10,2024-10-10,Ｊａｐａｎ　Ｈｏｍｅ株式会社,,株式会社,大阪府,大阪市天王寺区,生玉町１２－１－７０１,,27,109,5430071,,,,,,,2024-10-10,1,,,,,ジャパンホーム,0
921,4120001269197,新規,0,2024-10-10,2024-10-10,株式会社松原テクノフロアー,,株式会社,大阪府,大阪市平野区,長吉川辺３丁目２０番３号,,27,126,5470014,,,,,,,2024-10-10,1,,,,,マツバラテクノフロアー,0
922,4120001269222,新規,0,2024-10-10,2024-10-10,株式会社ＭＡＮＡＢｉＹＡ１９,,株式会社,大阪府,大阪市住吉区,遠里小野５丁目９番地４号フジパレス住吉遠里小野３番館１０１号,,27,120,5580032,,,,,,,2024-10-10,1,,,,,マナビヤ,0
923,4120001269239,新規,0,2024-10-10,2024-10-10,株式会社ＮＯＣＥ,,株式会社,大阪府,大阪市東淀川区,西淡路１丁目１番９号ビジネス新大阪２３０,,27,114,5330031,,,,,,,2024-10-10,1,,,,,ノーチェ,0
924,4120001269247,新規,0,2024-10-10,2024-10-10,株式会社彩叶,,株式会社,大阪府,大阪市住吉区,我孫子５丁目１４番１０－４０３号,,27,120,5580014,,,,,,,2024-10-10,1,,,,,サイカ,0
927,4120103006085,新規,0,2024-10-10,2024-10-10,ジップトレーディング合同会社,,合同会社,大阪府,堺市堺区,翁橋町１丁９番２号スウィングプラザ翁橋５０６号室,,27,141,5900061,,,,,,,2024-10-10,1,,,,,ジップトレーディング,0
936,4130001078085,新規,0,2024-10-10,2024-10-10,ＰＪ　ＡＲＴＳ株式会社,,株式会社,京都府,京都市北区,小山下総町５３番９－３０５号,,26,101,6038151,,,,,,,2024-10-10,1,,,,,ピージェーアーツ,0
943,4140001136057,新規,0,2024-10-10,2024-10-10,東昌商事株式会社,,株式会社,兵庫県,神戸市中央区,元町通１丁目２番地１,,28,110,6500022,,,,,,,2024-10-10,1,,,,,トウショウショウジ,0
944,4140001136081,新規,0,2024-10-10,2024-10-10,リーフ株式会社,,株式会社,兵庫県,西脇市,下戸田２７０番地の２３,,28,213,6770043,,,,,,,2024-10-10,1,,,,,リーフ,0
950,4180001163485,新規,0,2024-10-10,2024-10-10,株式会社コアン,,株式会社,愛知県,名古屋市瑞穂区,日向町３丁目６２番地の３,,23,108,4670047,,,,,,,2024-10-10,1,,,,,コアン,0
951,4180001163650,新規,0,2024-10-10,2024-10-10,ＰＲＡＹＡＳＨ　ＩＮＴＥＲＮＡＴＩＯＮＡＬ株式会社,,株式会社,愛知県,北名古屋市,鹿田東蒲屋敷５７６番地３,,23,234,4810004,,,,,,,2024-10-10,1,,,,,プラヤスインターナショナル,0
956,4180301039096,新規,0,2024-10-10,2024-10-10,ｂｏａｔ株式会社,,株式会社,愛知県,豊川市,諏訪西町２丁目４番地ルームすわにし１０２,,23,207,4420069,,,,,,,2024-10-10,1,,,,,ビーオーエーティー,0
964,4230001020557,新規,0,2024-10-10,2024-10-10,ＳＣＦ株式会社,,株式会社,富山県,富山市,水落９３番地２,,16,201,9318301,,,,,,,2024-10-10,1,,,,,エスシーエフ,0
965,4230003002314,新規,0,2024-10-10,2024-10-10,合同会社ＴＲＩＵＭＰＨ,,合同会社,富山県,高岡市,福田六家２７６番地セジュール六家１０１号,,16,202,9330313,,,,,,,2024-10-10,1,,,,,トライアンフ,0
968,4240001063927,新規,0,2024-10-10,2024-10-10,株式会社グラン,,株式会社,広島県,広島市西区,南観音８丁目４番５号１０１,,34,104,7330035,,,,,,,2024-10-10,1,,,,,グラン,0
969,4250001020844,新規,0,2024-10-10,2024-10-10,株式会社ＹＤＳ,,株式会社,山口県,山陽小野田市,赤崎３丁目８番１７号,,35,216,7560841,,,,,,,2024-10-10,1,,,,,ワイディーエス,0
979,4280001009273,新規,0,2024-10-10,2024-10-10,株式会社ＡＴオート,,株式会社,島根県,松江市,東出雲町意宇南３丁目２番２号,,32,201,6990111,,,,,,,2024-10-10,1,,,,,エーテーオート,0
991,4290005019532,新規,0,2024-10-10,2024-10-10,一般社団法人寛楽会,,その他の設立登記法人,福岡県,福岡市早良区,西新４丁目９番２３号立花ビル２階,,40,137,8140002,,,,,,,2024-10-10,1,,,,,カンラクカイ,0
992,4290801030948,新規,0,2024-10-10,2024-10-10,株式会社エムアイロード,,株式会社,福岡県,北九州市小倉南区,南方４丁目４番１８号（Ａ２０２）,,40,107,8020976,,,,,,,2024-10-10,1,,,,,エムアイロード,0
997,4310005008805,新規,0,2024-10-10,2024-10-10,医療法人金子内科医院,,その他の設立登記法人,長崎県,佐世保市,宮田町３番１４号,,42,202,8570032,,,,,,,2024-10-10,1,,,,,カネコナイカイイン,0
1002,4330003010595,新規,0,2024-10-10,2024-10-10,合名会社ＳＤＦ,,合名会社,熊本県,菊池郡大津町,大字大津９７７番地,,43,403,8691233,,,,,,,2024-10-10,1,,,,,エスディーエフ,0
1011,4360001034271,新規,0,2024-10-10,2024-10-10,株式会社旧平良庁舎プロジェクト,,株式会社,沖縄県,宮古島市,平良字下里２５１１番１,,47,214,9060013,,,,,,,2024-10-10,1,,,,,キュウヒララチョウシャプロジェクト,0
1012,4360001034288,新規,0,2024-10-10,2024-10-10,株式会社ミライト・ジャパン,,株式会社,沖縄県,浦添市,仲間２丁目２７番１－３０２号プラシードＮ．Ｕ,,47,208,9012103,,,,,,,2024-10-10,1,,,,,ミライトジャパン,0
1015,4360003014370,新規,0,2024-10-10,2024-10-10,合同会社ＭＡＫＩＮＡ,,合同会社,沖縄県,国頭郡今帰仁村,字諸志２０３１番地１３０,,47,306,9050426,,,,,,,2024-10-10,1,,,,,マキナ,0
1021,4370001051786,新規,0,2024-10-10,2024-10-10,株式会社エムズ,,株式会社,宮城県,仙台市青葉区,立町２６番２６号立町サンハイツ１０１,,04,101,9800822,,,,,,,2024-10-10,1,,,,,エムズ,0
1022,4370001051811,新規,0,2024-10-10,2024-10-10,株式会社ｃｏｎｆｉｄｅｎｃｅ,,株式会社,宮城県,仙台市青葉区,桜ケ丘７丁目３９番２８号,,04,101,9810961,,,,,,,2024-10-10,1,,,,,コンフィデンンス,0
1037,4430001092849,新規,0,2024-10-10,2024-10-10,共進株式会社,,株式会社,北海道,登別市,新生町３丁目１９番地２４,,01,230,0590032,,,,,,,2024-10-10,1,,,,,キョウシン,0
1042,4430003016871,新規,0,2024-10-10,2024-10-10,合同会社Ｌｕｍｉｅｒｅ,,合同会社,北海道,札幌市南区,澄川四条１丁目４番１２号ベガハイツ４０１号,,01,106,0050004,,,,,,,2024-10-10,1,,,,,ルミエール,0
1045,4470005006586,新規,0,2024-10-10,2024-10-10,一般社団法人小豆島町シルバー人材センター,,その他の設立登記法人,香川県,小豆郡小豆島町,池田２０７１番地２,,37,324,7614301,,,,,,,2024-10-10,1,,,,,,0
1049,4700150127469,新規,0,2024-10-10,2024-10-10,ＤＩＡＭＯＮＤＨＡＷＫ　ＨＯＬＤＩＮＧＳ　ＣＯ．，ＬＩＭＩＴＥＤ,,外国会社等,,,,,,,,ＦＬＡＴ　７０９Ａ　７／Ｆ　ＲＹＫＡＤＡＮ　ＣＡＰＩＴＡＬ　ＴＯＷＥＲ　１３５　ＨＯＩ　ＢＵＮ　ＲＤ　ＫＷＵＮ　ＴＯＮＧ　ＫＬ,,,,,,2024-10-10,1,,,,,ダイヤモンドホークホールデイングスカンパニーリミテツド,0
1055,5010001248830,新規,0,2024-10-10,2024-10-10,株式会社Ｏｆｆｉｃｅ　Ｓｅｒｅｎｄｉｐｉｔｙ,,株式会社,東京都,中央区,八丁堀４丁目１２番４号－７１０号,,13,102,1040032,,,,,,,2024-10-10,1,,,,,オフィスセレンディピティ,0
1056,5010001248921,新規,0,2024-10-10,2024-10-10,株式会社ＦＩＬＯＵ,,株式会社,東京都,中央区,築地７丁目８番３－８０６号,,13,102,1040045,,,,,,,2024-10-10,1,,,,,フィルー,0
1057,5010001248938,新規,0,2024-10-10,2024-10-10,ＧＳ広告株式会社,,株式会社,東京都,中央区,入船３丁目９番１号第２細矢ビル５Ｆ,,13,102,1040042,,,,,,,2024-10-10,1,,,,,ジーエスコウコク,0
1058,5010001248995,新規,0,2024-10-10,2024-10-10,昊天株式会社,,株式会社,東京都,中央区,日本橋兜町１０番６号日本橋中央ビル３Ｆ,,13,102,1030026,,,,,,,2024-10-10,1,,,,,ゴウテン,0
1063,5010105002308,新規,0,2024-10-10,2024-10-10,一般社団法人八王子革命協会,,その他の設立登記法人,東京都,八王子市,台町３丁目４番２号,,13,201,1930931,,,,,,,2024-10-10,1,,,,,ハチオウジカクメイキョウカイ,0
1066,5010401185673,新規,0,2024-10-10,2024-10-10,株式会社Ｍｓ,,株式会社,東京都,港区,北青山２丁目７番１３号プラセオ青山ビル３Ｆ,,13,103,1070061,,,,,,,2024-10-10,1,,,,,エムズ,0
1073,5010901056085,新規,0,2024-10-10,2024-10-10,株式会社メメ,,株式会社,東京都,世田谷区,野沢２丁目９番１３－３０２号,,13,112,1540003,,,,,,,2024-10-10,1,,,,,メメ,0
1080,5011001165033,新規,0,2024-10-10,2024-10-10,つばさでんき株式会社,,株式会社,東京都,渋谷区,東１丁目２６番２０号,,13,113,1500011,,,,,,,2024-10-10,1,,,,,ツバサデンキ,0
1081,5011001165157,新規,0,2024-10-10,2024-10-10,ＴＳＵＭＡＭＩ　ＣＯＮＳＵＬＴＩＮＧ株式会社,,株式会社,東京都,渋谷区,渋谷２丁目１９－１５宮益坂ビルディング６０９,,13,113,1500002,,,,,,,2024-10-10,1,,,,,ツマミコンサルティング,0
1082,5011003020145,新規,0,2024-10-10,2024-10-10,合同会社Ｂｏｎｄｉｂｌｕｅ,,合同会社,東京都,渋谷区,渋谷２丁目１９番１５－６０９号宮益坂ビルディング,,13,113,1500002,,,,,,,2024-10-10,1,,,,,ボンダイブルー,0
1086,5011101109030,新規,0,2024-10-10,2024-10-10,株式会社ＣＯＮＮＥＣＴ　ＯＮＥ,,株式会社,東京都,新宿区,北新宿１丁目１２番１４－２０３号,,13,104,1690074,,,,,,,2024-10-10,1,,,,,コネクトワン,0
1089,5011103015004,新規,0,2024-10-10,2024-10-10,合同会社風来,,合同会社,東京都,新宿区,西新宿３丁目３番１３号西新宿水間ビル６階,,13,104,1600023,,,,,,,2024-10-10,1,,,,,フウライ,0
1090,5011105011182,新規,0,2024-10-10,2024-10-10,一般社団法人アニメシステムコミュニティ,,その他の設立登記法人,東京都,新宿区,西新宿８丁目１７番１号,,13,104,1600023,,,,,,,2024-10-10,1,,,,,アニメシステムコミュニティ,0
1096,5011601028093,新規,0,2024-10-10,2024-10-10,株式会社スリーピーゴー,,株式会社,東京都,練馬区,羽沢３丁目３２番８－４０１号,,13,120,1760003,,,,,,,2024-10-10,1,,,,,スリーピーゴー,0
1097,5011601028110,新規,0,2024-10-10,2024-10-10,株式会社ニト,,株式会社,東京都,練馬区,豊玉中３丁目７番１２号,,13,120,1760013,,,,,,,2024-10-10,1,,,,,ニト,0
1098,5011603004472,新規,0,2024-10-10,2024-10-10,合同会社リンクライフ,,合同会社,東京都,練馬区,下石神井３丁目１７番３号,,13,120,1770042,,,,,,,2024-10-10,1,,,,,リンクライフ,0
1103,5012403006758,新規,0,2024-10-10,2024-10-10,合同会社ＥＭＩ　ＪＩＮＧＵ　ＢＡＬＬＯＯＮ　ＬＡＢＯ,,合同会社,東京都,府中市,四谷５丁目８番地の３０,,13,206,1830035,,,,,,,2024-10-10,1,,,,,エミジングウバルーンラボ,0
1104,5012403006790,新規,0,2024-10-10,2024-10-10,ＫＯＩＭＯ合同会社,,合同会社,東京都,府中市,新町２丁目４６番地６４号,,13,206,1830052,,,,,,,2024-10-10,1,,,,,,0
1109,5013301053157,新規,0,2024-10-10,2024-10-10,株式会社ＵＴＧ　Ｆａｒ　Ｅａｓｔ,,株式会社,東京都,豊島区,東池袋２丁目３６－１６－７０２号,,13,116,1700013,,,,,,,2024-10-10,1,,,,,,0
1110,5020001159523,新規,0,2024-10-10,2024-10-10,株式会社リーフ,,株式会社,神奈川県,川崎市多摩区,布田２０番１０号,,14,135,2140011,,,,,,,2024-10-10,1,,,,,リーフ,0
1116,5030001162889,新規,0,2024-10-10,2024-10-10,大進株式会社,,株式会社,埼玉県,さいたま市岩槻区,大字飯塚１２３６番地１１,,11,110,3390031,,,,,,,2024-10-10,1,,,,,ダイシン,0
1117,5030001162897,新規,0,2024-10-10,2024-10-10,株式会社ＴＥＴＯＬＩＡ,,株式会社,埼玉県,越谷市,南越谷３丁目２２番５－１号,,11,222,3430845,,,,,,,2024-10-10,1,,,,,テトリア,0
1118,5030001162906,新規,0,2024-10-10,2024-10-10,株式会社Ｎｅｗ　ＨＯＴ　Ｂｏｎｄ,,株式会社,埼玉県,新座市,馬場３丁目３番４７号,,11,230,3520016,,,,,,,2024-10-10,1,,,,,ニューホットボンド,0
1119,5030001162914,新規,0,2024-10-10,2024-10-10,株式会社盟和産業,,株式会社,埼玉県,川口市,芝園町３－１－９１４,,11,203,3330853,,,,,,,2024-10-10,1,,,,,メイワサンギョウ,0
1120,5030003025292,新規,0,2024-10-10,2024-10-10,Ａ＆Ａ合同会社,,合同会社,埼玉県,所沢市,小手指元町１丁目６番地の１２,,11,208,3591147,,,,,,,2024-10-10,1,,,,,エイアンドエイ,0
1121,5030003025301,新規,0,2024-10-10,2024-10-10,合同会社たすかるグループ,,合同会社,埼玉県,入間市,宮寺７２９－３グリーンコート３０８,,11,225,3580014,,,,,,,2024-10-10,1,,,,,タスカルグループ,0
1128,5040001135778,新規,0,2024-10-10,2024-10-10,７Ｘ株式会社,,株式会社,千葉県,香取市,野田５９７番地５,,12,236,2890314,,,,,,,2024-10-10,1,,,,,セブンエックス,0
1133,5040003025960,新規,0,2024-10-10,2024-10-10,ＢＰＭ合同会社,,合同会社,千葉県,君津市,市宿３００番地３,,12,225,2921153,,,,,,,2024-10-10,1,,,,,ビーピーエム,0
1134,5040003025969,新規,0,2024-10-10,2024-10-10,Ｓｗｉｆｔ　Ｇｌｏｂａｌ合同会社,,合同会社,千葉県,君津市,久保４丁目２番１６号,,12,225,2991152,,,,,,,2024-10-10,1,,,,,スウィフトグローバル,0
1136,5040005022543,新規,0,2024-10-10,2024-10-10,医療法人社団皮潤会,,その他の設立登記法人,千葉県,松戸市,日暮１丁目１６番地の７,,12,207,2702253,,,,,,,2024-10-10,1,,,,,ヒジュンカイ,0
1153,5100005013239,新規,0,2024-10-10,2024-10-10,医療法人虎井会,,その他の設立登記法人,長野県,長野市,南千歳１丁目１番地１,,20,201,3800823,,,,,,,2024-10-10,1,,,,,トライカイ,0
1164,5120001269139,新規,0,2024-10-10,2024-10-10,株式会社コネクトスタイリング,,株式会社,大阪府,大阪市福島区,福島５丁目６－１６ラグザ大阪２Ｆ,,27,103,5530003,,,,,,,2024-10-10,1,,,,,コネクトスタイリング,0
1165,5120001269188,新規,0,2024-10-10,2024-10-10,株式会社金の犬殿製作委員会,,株式会社,大阪府,大阪市淀川区,西中島５丁目１３番地１２号谷ビル９Ｆ,,27,123,5320011,,,,,,,2024-10-10,1,,,,,キンノイヌドノセイサクイインカイ,0
1166,5120001269196,新規,0,2024-10-10,2024-10-10,株式会社ＴＯＰＡＺ,,株式会社,大阪府,大阪市旭区,太子橋３丁目１５－１２－１０３,,27,117,5350001,,,,,,,2024-10-10,1,,,,,トパーズ,0
1167,5120001269221,新規,0,2024-10-10,2024-10-10,株式会社ＥＬＥＳＳＥＮＣＥ,,株式会社,大阪府,大阪市北区,梅田３丁目２番１２３号,,27,127,5300001,,,,,,,2024-10-10,1,,,,,エレサンス,0
1169,5120003027676,新規,0,2024-10-10,2024-10-10,Ｈ＆Ｄ　Ｍｏｂｉｌｅ合同会社,,合同会社,大阪府,大阪市東住吉区,湯里２丁目１３－２－５０１,,27,121,5460013,,,,,,,2024-10-10,1,,,,,ハズンテレホン,0
1170,5120003027684,新規,0,2024-10-10,2024-10-10,合同会社ＡＳＡＨＩ,,合同会社,大阪府,大阪市生野区,勝山北５丁目４番２号,,27,116,5440033,,,,,,,2024-10-10,1,,,,,アサヒ,0
1171,5120003027718,新規,0,2024-10-10,2024-10-10,ソラノネ不動産合同会社,,合同会社,大阪府,大阪市住吉区,東粉浜３丁目２５番４号プレイスガーデン帝塚山７０３号,,27,120,5580051,,,,,,,2024-10-10,1,,,,,ソラノネフドウサン,0
1173,5120101070388,新規,0,2024-10-10,2024-10-10,株式会社Ｒｅｅｅ,,株式会社,大阪府,高石市,東羽衣２丁目１番３２号,,27,225,5920003,,,,,,,2024-10-10,1,,,,,リー,0
1178,5130001078101,新規,0,2024-10-10,2024-10-10,株式会社栞,,株式会社,京都府,京都市北区,小山西元町２６番地２,,26,101,6038113,,,,,,,2024-10-10,1,,,,,シオリ,0
1179,5130001078118,新規,0,2024-10-10,2024-10-10,株式会社ズーマ,,株式会社,京都府,京都市下京区,大黒町２２７番地第２キョートビル４０２,,26,106,6008043,,,,,,,2024-10-10,1,,,,,ズーマ,0
1187,5140003021181,新規,0,2024-10-10,2024-10-10,合同会社ｈａｎａｇａｍｉ,,合同会社,兵庫県,神戸市兵庫区,駅南通２丁目１－１０グレンパーク兵庫駅前１００２号室,,28,105,6520897,,,,,,,2024-10-10,1,,,,,ハナガミ,0
1190,5150005009629,新規,0,2024-10-10,2024-10-10,一般社団法人いろは,,その他の設立登記法人,奈良県,奈良市,六条西５丁目１番３１号,,29,201,6308044,,,,,,,2024-10-10,1,,,,,イロハ,0
1211,5180301039129,新規,0,2024-10-10,2024-10-10,株式会社ラフテル,,株式会社,愛知県,蒲郡市,竹谷町錦田１６－１，６－４,,23,214,4430046,,,,,,,2024-10-10,1,,,,,ラフテル,0
1229,5290001107488,新規,0,2024-10-10,2024-10-10,株式会社ＣＡＰＩＴＡＬ　ＰＡＲＴＮＥＲＳ　ＬＯＮＤＯＮ,,株式会社,福岡県,福岡市早良区,城西３丁目１２番２７号,,40,137,8140003,,,,,,,2024-10-10,1,,,,,キャピタルパートナーズロンドン,0
1230,5290001107496,新規,0,2024-10-10,2024-10-10,ｇｒａｃｅ　ｈａｒｍｏｎｙ株式会社,,株式会社,福岡県,八女市,本町１番地２６６トラスト八女カルディオ５０６号,,40,210,8340031,,,,,,,2024-10-10,1,,,,,グレイスハーモニー,0
1231,5290003015870,新規,0,2024-10-10,2024-10-10,合同会社ＣＵＲＡＲＥ,,合同会社,福岡県,福岡市南区,老司３丁目４４番１０号,,40,134,8111346,,,,,,,2024-10-10,1,,,,,クラーレ,0
1232,5290003015895,新規,0,2024-10-10,2024-10-10,合同会社ｒｅｔｒｏ　ｃｉｒｃｌｅ,,合同会社,福岡県,福岡市早良区,室見３丁目７番２５－５０３号館エレガンス室見,,40,137,8140015,,,,,,,2024-10-10,1,,,,,レトロサイクル,0
1237,5330003010594,新規,0,2024-10-10,2024-10-10,合同会社サンキュー,,合同会社,熊本県,熊本市中央区,中央街１番１４号,,43,101,8600802,,,,,,,2024-10-10,1,,,,,サンキュー,0
1246,5370001051793,新規,0,2024-10-10,2024-10-10,株式会社舘万,,株式会社,宮城県,遠田郡涌谷町,字追廻町４４番地,,04,501,9870165,,,,,,,2024-10-10,1,,,,,タチマン,0
1247,5370001051810,新規,0,2024-10-10,2024-10-10,株式会社アイ・グリーン,,株式会社,宮城県,仙台市太白区,山田新町７１番地,,04,104,9820818,,,,,,,2024-10-10,1,,,,,アイグリーン,0
1255,5390001017768,新規,0,2024-10-10,2024-10-10,株式会社Ｇｕｌ　Ｔｒａｄｉｎｇ,,株式会社,山形県,東田川郡庄内町,余目新田字上北１０５－１,,06,428,9997714,,,,,,,2024-10-10,1,,,,,グルトレディング,0
1259,5400005008448,新規,0,2024-10-10,2024-10-10,一般社団法人岩手ふれあいチャグファーム,,その他の設立登記法人,岩手県,滝沢市,平蔵沢１５９番地１,,03,216,0200644,,,,,,,2024-10-10,1,,,,,イワテフレアイチャグファーム,0
1260,5410001013962,新規,0,2024-10-10,2024-10-10,株式会社Ｌｉｎｏ’ａ,,株式会社,秋田県,秋田市,手形字中谷地６７番地４,,05,201,0100851,,,,,,,2024-10-10,1,,,,,リノア,0
1266,5430001092848,新規,0,2024-10-10,2024-10-10,株式会社バルクラック,,株式会社,北海道,札幌市中央区,南五条西１５丁目２番３号リズム医大前５０３号室,,01,101,0640805,,,,,,,2024-10-10,1,,,,,バルクラック,0
1267,5430001092856,新規,0,2024-10-10,2024-10-10,株式会社輝和総業,,株式会社,北海道,札幌市白石区,南郷通１３丁目南２番８号ハイムメゾン南郷１０２号,,01,104,0030022,,,,,,,2024-10-10,1,,,,,コウワソウギョウ,0
1270,5460301005250,新規,0,2024-10-10,2024-10-10,株式会社Ｌｉｎｋ　Ａｔ,,株式会社,北海道,北見市,常盤町５丁目１番地８,,01,208,0900817,,,,,,,2024-10-10,1,,,,,リンクアット,0
1281,5700150127468,新規,0,2024-10-10,2024-10-10,カラ・インターナショナル,,外国会社等,東京都,台東区,東上野２丁目２２番１０号東上野小池ビル６階,,13,106,1100015,ネパール連邦民主共和国バグマティ州ダディン郡ニルカンタ市３区,,,,,,2024-10-10,1,,,,,カラインターナシヨナル,0
1288,6010001248945,新規,0,2024-10-10,2024-10-10,株式会社桃幸,,株式会社,東京都,中央区,東日本橋２丁目２８番４号日本橋ＣＥＴビル２階,,13,102,1030004,,,,,,,2024-10-10,1,,,,,モモコウ,0
1292,6010003045143,新規,0,2024-10-10,2024-10-10,合同会社おおいえ,,合同会社,東京都,中央区,日本橋室町１丁目１１番１２号日本橋水野ビル７階,,13,102,1030022,,,,,,,2024-10-10,1,,,,,オオイエ,0
1301,6010401185598,新規,0,2024-10-10,2024-10-10,株式会社ＧＯＬＬＥＹ,,株式会社,東京都,港区,新橋５丁目６番３号,,13,103,1050004,,,,,,,2024-10-10,1,,,,,ゴレー,0
1313,6011001165032,新規,0,2024-10-10,2024-10-10,株式会社ＯＮＥ　ＬＩＦＥ,,株式会社,東京都,渋谷区,神宮前５丁目９－２３小河アボード１８号,,13,113,1500001,,,,,,,2024-10-10,1,,,,,ワンライフ,0
1314,6011001165057,新規,0,2024-10-10,2024-10-10,株式会社Ａｓｓｅｒｔｉｖｅ,,株式会社,東京都,渋谷区,円山町５番５号Ｎａｖｉ渋谷Ｖ３階,00136597,13,113,1500044,,,,,,,2024-10-10,1,,,,,,0
1315,6011001165197,新規,0,2024-10-10,2024-10-10,トライグレイス株式会社,,株式会社,東京都,渋谷区,道玄坂１丁目１０番８号渋谷道玄坂東急ビル２Ｆ―Ｃ,,13,113,1500043,,,,,,,2024-10-10,1,,,,,トライグレイス,0
1317,6011005010696,新規,0,2024-10-10,2024-10-10,特定非営利活動法人Ｇｌｏｂａｌ　Ｌｅａｄｅｒｓ　Ｊａｐａｎ,,その他の設立登記法人,東京都,目黒区,東山１丁目６番７号フォーラム中目黒５階,,13,110,1530043,,,,,,,2024-10-10,1,,,,,グローバルリーダーズジャパン,0
1319,6011101109095,新規,0,2024-10-10,2024-10-10,株式会社アジュール,,株式会社,東京都,新宿区,新宿１丁目３６番１２号サンカテリーナビル６階,,13,104,1600022,,,,,,,2024-10-10,1,,,,,アジュール,0
1320,6011101109104,新規,0,2024-10-10,2024-10-10,株式会社新世,,株式会社,東京都,新宿区,四谷１丁目２０番ＡＣＥ四谷ビル４０１号,,13,104,1600004,,,,,,,2024-10-10,1,,,,,シンセ,0
1322,6011201025853,新規,0,2024-10-10,2024-10-10,株式会社ＨＯＰＥ,,株式会社,東京都,中野区,中野５丁目２２番２９号,,13,114,1640001,,,,,,,2024-10-10,1,,,,,ホープ,0
1327,6011501031238,新規,0,2024-10-10,2024-10-10,本碩株式会社,,株式会社,東京都,荒川区,町屋３丁目２４番２号面川ビル３０１号室,,13,118,1160001,,,,,,,2024-10-10,1,,,,,ホンセキ,0
1329,6011503006262,新規,0,2024-10-10,2024-10-10,合同会社Ｌｕｔｕｍ,,合同会社,東京都,荒川区,西日暮里５丁目３７番３号ＦａｍｉｌｌｅＭ＆Ｎ４０１,,13,118,1160013,,,,,,,2024-10-10,1,,,,,ルタム,0
1331,6011601028118,新規,0,2024-10-10,2024-10-10,株式会社ＯＫＲ,,株式会社,東京都,練馬区,練馬３丁目２番５－１０２号,,13,120,1760001,,,,,,,2024-10-10,1,,,,,オーケーアール,0
1335,6012401042358,新規,0,2024-10-10,2024-10-10,株式会社ＳＦＢ,,株式会社,東京都,三鷹市,大沢５丁目１６番１５号,,13,204,1810015,,,,,,,2024-10-10,1,,,,,エスエフビー,0
1336,6012401042366,新規,0,2024-10-10,2024-10-10,株式会社百本木家,,株式会社,東京都,三鷹市,井口３丁目３番２７－４１４号,,13,204,1810011,,,,,,,2024-10-10,1,,,,,ヒャッポンギヤ,0
1339,6013301053189,新規,0,2024-10-10,2024-10-10,ＣＲＥＡＴＩＶＥ　ＷＡＴＥＲ株式会社,,株式会社,東京都,豊島区,東池袋５丁目７番３号東池袋五丁目ビル２Ｆ,,13,116,1700013,,,,,,,2024-10-10,1,,,,,クリエイティブウォーター,0
1345,6020001159464,新規,0,2024-10-10,2024-10-10,株式会社ウェル・マネージド,,株式会社,神奈川県,横浜市港北区,日吉本町２丁目３５－３５,,14,109,2230062,,,,,,,2024-10-10,1,,,,,ウェルマネージド,0
1346,6020001159530,新規,0,2024-10-10,2024-10-10,株式会社創空,,株式会社,神奈川県,川崎市川崎区,渡田２丁目１７番７号,,14,131,2100837,,,,,,,2024-10-10,1,,,,,ソウクウ,0
1347,6020001159662,新規,0,2024-10-10,2024-10-10,株式会社八咫烏ＰＲＯＤＵＣＴＩＯＮＳ,,株式会社,神奈川県,川崎市高津区,坂戸３丁目２番１号かながわサイエンスパーク西棟２Ｆ,,14,134,2130012,,,,,,,2024-10-10,1,,,,,ヤタガラスプロダクションズ,0
1350,6020003027017,新規,0,2024-10-10,2024-10-10,合同会社Ｗｉｌｌａｎｄ,,合同会社,神奈川県,横浜市港北区,綱島東４丁目２番５号パルホワイト綱島５０１号室,,14,109,2230052,,,,,,,2024-10-10,1,,,,,ウィランド,0
1351,6020003027025,新規,0,2024-10-10,2024-10-10,合同会社ナルマハロ,,合同会社,神奈川県,横浜市神奈川区,富家町１番地１３スカイハイツトーカイ１７０３号室,,14,102,2210821,,,,,,,2024-10-10,1,,,,,ナルマハロ,0
1352,6020003027033,新規,0,2024-10-10,2024-10-10,テイルウインド合同会社,,合同会社,神奈川県,横浜市栄区,桂町６６８番地１,,14,115,2470005,,,,,,,2024-10-10,1,,,,,テイルウインド,0
1368,6030001162797,新規,0,2024-10-10,2024-10-10,鯉平ホールディングス株式会社,,株式会社,埼玉県,さいたま市見沼区,卸町１丁目２３番地,,11,104,3370004,,,,,,,2024-10-10,1,,,,,コイヘイホールディングス,0
1369,6030001162855,新規,0,2024-10-10,2024-10-10,Ｋ・Ｂ　ＣＡＰＩＴＡＬ　ＰＡＲＴＮＥＲＳ株式会社,,株式会社,埼玉県,川口市,川口１丁目９番４６－２号,,11,203,3320015,,,,,,,2024-10-10,1,,,,,ケイビーキャピタルパートナーズ,0
1370,6030001162888,新規,0,2024-10-10,2024-10-10,株式会社Ｗａｎ’ｚ,,株式会社,埼玉県,越谷市,レイクタウン１丁目２２－７,,11,222,3430828,,,,,,,2024-10-10,1,,,,,ワンズ,0
1371,6030001162896,新規,0,2024-10-10,2024-10-10,株式会社佐々木興業,,株式会社,埼玉県,三郷市,彦成２丁目１５２番地１－１０４,,11,237,3410003,,,,,,,2024-10-10,1,,,,,ササキコウギョウ,0
1374,6030003025291,新規,0,2024-10-10,2024-10-10,ＪＫ合同会社,,合同会社,埼玉県,蕨市,塚越７丁目１３番２号ロジュマン・塚越１０３号,,11,223,3350002,,,,,,,2024-10-10,1,,,,,ジェイケイ,0
1375,6030005021883,新規,0,2024-10-10,2024-10-10,一般社団法人オリーブ,,その他の設立登記法人,埼玉県,さいたま市見沼区,大字南中野２６７番地１,,11,104,3370042,,,,,,,2024-10-10,1,,,,,オリーブ,0
1378,6040001135785,新規,0,2024-10-10,2024-10-10,株式会社明翔工業,,株式会社,千葉県,千葉市若葉区,大草町８４９番地１５,,12,104,2640011,,,,,,,2024-10-10,1,,,,,メイショウコウギョウ,0
1386,6040003025968,新規,0,2024-10-10,2024-10-10,合同会社ＧＬＯＢＡＬ企画,,合同会社,千葉県,柏市,千代田２丁目２番８号,,12,217,2770025,,,,,,,2024-10-10,1,,,,,グローバルキカク,0
1387,6050001055512,新規,0,2024-10-10,2024-10-10,株式会社木村断熱,,株式会社,茨城県,土浦市,田宮７０５番地１,,08,203,3004105,,,,,,,2024-10-10,1,,,,,キムラダンネツ,0
1389,6050003008708,新規,0,2024-10-10,2024-10-10,兆能合同会社,,合同会社,茨城県,取手市,取手１丁目８番９号能達ビル,,08,217,3020004,,,,,,,2024-10-10,1,,,,,チョウノウ,0
1390,6060001037567,新規,0,2024-10-10,2024-10-10,グリーンスペース株式会社,,株式会社,栃木県,那須塩原市,上大貫１番地,,09,213,3292814,,,,,,,2024-10-10,1,,,,,グリーンスペース,0
1394,6090001018944,新規,0,2024-10-10,2024-10-10,株式会社Ｌｉｌｙ．Ｃ,,株式会社,山梨県,甲府市,住吉３丁目２６番１６号,,19,201,4000851,,,,,,,2024-10-10,1,,,,,リリーシー,0
1397,6100005013238,新規,0,2024-10-10,2024-10-10,医療法人いつき会,,その他の設立登記法人,長野県,上伊那郡宮田村,９０番２,,20,388,3994301,,,,,,,2024-10-10,1,,,,,イツキカイ,0
1406,6120001269105,新規,0,2024-10-10,2024-10-10,株式会社ＲＡＰ研究所,,株式会社,大阪府,枚方市,津田南町１丁目２４番５号,,27,210,5730124,,,,,,,2024-10-10,1,,,,,ラップケンキュウショ,0
1407,6120001269138,新規,0,2024-10-10,2024-10-10,株式会社岸＿汀蘭,00136594,株式会社,大阪府,大阪市天王寺区,夕陽丘町４－２ＢＩＺｃｏｍｆｏｒｔ四天王寺３７号室,,27,109,5430075,,,,,,,2024-10-10,1,,,,,ガンシテイラン,0
1408,6120001269154,新規,0,2024-10-10,2024-10-10,斉居株式会社,,株式会社,大阪府,大阪市西成区,出城１丁目８番１９号３Ｆ－Ｅ,,27,122,5570024,,,,,,,2024-10-10,1,,,,,サイキョ,0
1409,6120001269162,新規,0,2024-10-10,2024-10-10,株式会社日生ファシリティマネジメント,,株式会社,大阪府,大阪市東成区,東中本３丁目２番１７－５０４号,,27,115,5370021,,,,,,,2024-10-10,1,,,,,ニッセイファシリティマネジメント,0
1412,6120003027709,新規,0,2024-10-10,2024-10-10,合同会社昭和金属商会,,合同会社,大阪府,大阪市北区,梅田１丁目２番２号大阪駅前第２ビル１２－１２,,27,127,5300001,,,,,,,2024-10-10,1,,,,,ショウワキンゾクショウカイ,0
1425,6130001078125,新規,0,2024-10-10,2024-10-10,株式会社優心会,,株式会社,京都府,向日市,寺戸町殿町１９（２Ｆ）,,26,208,6170002,,,,,,,2024-10-10,1,,,,,ユウシンカイ,0
1431,6140001136055,新規,0,2024-10-10,2024-10-10,株式会社ＫＩＢＡ,,株式会社,兵庫県,丹波市,春日町池尾８番地,,28,223,6694121,,,,,,,2024-10-10,1,,,,,キバ,0
1433,6140005027234,新規,0,2024-10-10,2024-10-10,特定非営利活動法人ＤＵＫＵＲＩ,,その他の設立登記法人,兵庫県,小野市,黍田町８８３,,28,218,6751345,,,,,,,2024-10-10,1,,,,,ヅクリ,0
1438,6160001026270,新規,0,2024-10-10,2024-10-10,株式会社ミヤビワークス,,株式会社,滋賀県,大津市,牧１丁目５番２０号,,25,201,5202112,,,,,,,2024-10-10,1,,,,,ミヤビワークス,0
1443,6180001163624,新規,0,2024-10-10,2024-10-10,株式会社たつみ,,株式会社,愛知県,名古屋市中村区,名駅４丁目２４番５号第２森ビル４０１,,23,105,4500002,,,,,,,2024-10-10,1,,,,,タツミ,0
1456,6240003006898,新規,0,2024-10-10,2024-10-10,合同会社ＲＡＫＡ,,合同会社,広島県,福山市,神辺町字道上１２３５番地１２,,34,207,7202104,,,,,,,2024-10-10,1,,,,,ラカ,0
1471,6290001107396,新規,0,2024-10-10,2024-10-10,Ｎ‐ＳＹＳＴＥＭＳ株式会社,,株式会社,福岡県,福岡市西区,生の松原２丁目１０番地１４号,,40,135,8190055,,,,,,,2024-10-10,1,,,,,エヌシステムズ,0
1472,6290001107512,新規,0,2024-10-10,2024-10-10,株式会社ＥｎｇＲｅｖ,,株式会社,福岡県,福岡市西区,生松台３丁目１７番２０号,,40,135,8190044,,,,,,,2024-10-10,1,,,,,イングレーブ,0
1473,6290801030946,新規,0,2024-10-10,2024-10-10,株式会社エス・エヌ建築,,株式会社,福岡県,田川市,大字夏吉１３番地１０,,40,206,8250004,,,,,,,2024-10-10,1,,,,,エスエヌケンチク,0
1477,6300001013931,新規,0,2024-10-10,2024-10-10,株式会社ノナカ・コーポレーション,,株式会社,佐賀県,佐賀市,諸富町大字大堂２４１２番地,,41,201,8402101,,,,,,,2024-10-10,1,,,,,ノナカコーポレーション,0
1481,6330001032532,新規,0,2024-10-10,2024-10-10,株式会社楕円形,,株式会社,熊本県,熊本市東区,下江津８丁目３－２５,,43,102,8620960,,,,,,,2024-10-10,1,,,,,ダエンケイ,0
1482,6330003010585,新規,0,2024-10-10,2024-10-10,ＨＣＳ合同会社,,合同会社,熊本県,熊本市中央区,内坪井町１１番８－４０１号,,43,101,8600077,,,,,,,2024-10-10,1,,,,,エイチシーエス,0
1486,6350001019180,新規,0,2024-10-10,2024-10-10,イートウェルグローバルジャパン株式会社,,株式会社,宮崎県,日南市,南郷町贄波１２９３番地,,45,204,8893211,,,,,,,2024-10-10,1,,,,,イートウェルグローバルジャパン,0
1488,6360001034294,新規,0,2024-10-10,2024-10-10,華祥商事株式会社,,株式会社,沖縄県,沖縄市,海邦町３番地１８,,47,211,9042162,,,,,,,2024-10-10,1,,,,,カショウショウジ,0
1489,6370003006778,新規,0,2024-10-10,2024-10-10,ＳＡＩＫＩ斉喜合同会社,,合同会社,宮城県,遠田郡美里町,福ケ袋字辻屋敷３６番地３,,04,505,9894202,,,,,,,2024-10-10,1,,,,,サイキサイキ,0
1498,6430001092847,新規,0,2024-10-10,2024-10-10,株式会社文,,株式会社,北海道,札幌市北区,東茨戸三条１丁目１７番１１号,,01,102,0028044,,,,,,,2024-10-10,1,,,,,ブン,0
1502,6480001012619,新規,0,2024-10-10,2024-10-10,株式会社樹,,株式会社,徳島県,徳島市,名東町２丁目３５５番地の４８,,36,201,7700047,,,,,,,2024-10-10,1,,,,,イツキ,0
1505,6700150122030,新規,0,2024-10-10,2024-10-10,ＢＡＲＯＳ　ＴＲＡＤＩＮＧ　ＳＯＬＵＴＩＯＮＳ　ＳＲＬ,,外国会社等,,,,,,,,Ｓａｔ　Ｐｌｏｉｅｓｔｉｏｒｉ，Ｃｏｍｕｎａ　Ｂｌｅｊｏｉ，Ｎｒ．６４２，Ｊｕｄｅｔ　Ｐｒａｈｏｖａ，Ｒｏｍａｎｉａ,,,,,,2024-10-10,1,,,,,バロストレーディングソリューションズエスアールエル,0
1511,7010001248829,新規,0,2024-10-10,2024-10-10,グラフェナリー株式会社,,株式会社,東京都,千代田区,飯田橋４丁目３番３号第１１相信ビル２階Ｂ,,13,101,1020072,,,,,,,2024-10-10,1,,,,,グラフェナリー,0
1512,7010001248952,新規,0,2024-10-10,2024-10-10,Ｍａｃｈｉｎｅｘ　Ｔｅｃｈｎｏｌｏｇｉｅｓ　Ｊａｐａｎ株式会社,,株式会社,東京都,千代田区,霞が関３丁目２番６号東京倶楽部ビルディング１１階,,13,101,1000013,,,,,,,2024-10-10,1,,,,,マシネックステクノロジーズジャパン,0
1513,7010001248960,新規,0,2024-10-10,2024-10-10,株式会社ＫＢＦＲ１,,株式会社,東京都,千代田区,内幸町２丁目１番６号,,13,101,1000011,,,,,,,2024-10-10,1,,,,,ケイビーエフアールワン,0
1514,7010001248969,新規,0,2024-10-10,2024-10-10,株式会社イモテウス,,株式会社,東京都,千代田区,神田須田町１丁目７番８号ＶＯＲＴ秋葉原ＩＶ２Ｆ,00136600,13,101,1010041,,,,,,,2024-10-10,1,,,,,イモテウス,0
1515,7010001248993,新規,0,2024-10-10,2024-10-10,株式会社ひかりーど,,株式会社,東京都,中央区,銀座１丁目１２番４号Ｎ＆ＥＢＬＤ．６ｆ,,13,102,1040061,,,,,,,2024-10-10,1,,,,,ヒカリード,0
1516,7010001249001,新規,0,2024-10-10,2024-10-10,ビズウィングス・ジャパン株式会社,,株式会社,東京都,中央区,日本橋本町３丁目３番６号ワカ末ビル７階,,13,102,1030023,,,,,,,2024-10-10,1,,,,,ビズウィングスジャパン,0
1517,7010001249018,新規,0,2024-10-10,2024-10-10,株式会社ｅＮ　ｇｒｏｕｐ,,株式会社,東京都,千代田区,飯田橋１丁目６番７号,,13,101,1020072,,,,,,,2024-10-10,1,,,,,,0
1523,7010401185572,新規,0,2024-10-10,2024-10-10,株式会社キャリアインデックス,,株式会社,東京都,港区,南青山２丁目５番１７号,,13,103,1070062,,,,,,,2024-10-10,1,,,,,キャリアインデックス,0
1524,7010403033572,新規,0,2024-10-10,2024-10-10,合同会社ＷＡＮＤＦ,,合同会社,東京都,港区,北青山１丁目３番１号アールキューブ青山３階,,13,103,1070061,,,,,,,2024-10-10,1,,,,,ダブリューアンドエフ,0
1538,7011001165097,新規,0,2024-10-10,2024-10-10,株式会社ｅ‐Ｓｐｉｒｉｔ　Ｃａｓｔｉｎｇ,,株式会社,東京都,渋谷区,渋谷１丁目７番７号住友不動産青山通ビル,,13,113,1500002,,,,,,,2024-10-10,1,,,,,イースピリットキャスティング,0
1547,7011501031253,新規,0,2024-10-10,2024-10-10,株式会社ＤＦＳＰ都市開発,,株式会社,東京都,荒川区,南千住７丁目２１－２－１００１,,13,118,1160003,,,,,,,2024-10-10,1,,,,,ディーエフエスピートシカイハツ,0
1548,7011503006261,新規,0,2024-10-10,2024-10-10,ＥＡＳＴ　ＢＲＩＤＧＥ合同会社,,合同会社,東京都,北区,滝野川４丁目２９－９ドムスヒル滝野川Ａ－１,,13,117,1140023,,,,,,,2024-10-10,1,,,,,イーストブリッジ,0
1549,7011601028109,新規,0,2024-10-10,2024-10-10,株式会社松福,,株式会社,東京都,練馬区,東大泉１丁目２０番８号フォルトゥナート２０１,,13,120,1780063,,,,,,,2024-10-10,1,,,,,ショウフク,0
1550,7011603004479,新規,0,2024-10-10,2024-10-10,合同会社ワンダフル製作所,,合同会社,東京都,練馬区,練馬１丁目２０番８号日建練馬ビル２Ｆ,,13,120,1760001,,,,,,,2024-10-10,1,,,,,ワンダフルセイサクショ,0
1554,7012403006789,新規,0,2024-10-10,2024-10-10,ＫＯＫＩＮ合同会社,,合同会社,東京都,小金井市,貫井北町３丁目３０番８号,,13,210,1840015,,,,,,,2024-10-10,1,,,,,コキン,0
1556,7012801023469,新規,0,2024-10-10,2024-10-10,株式会社Ａｌｔａｉｒ　Ｂｅｇａ,,株式会社,東京都,昭島市,緑町４丁目２６－７,,13,207,1960004,,,,,,,2024-10-10,1,,,,,アルタイルベガ,0
1557,7013301053155,新規,0,2024-10-10,2024-10-10,ヘルステックハブ株式会社,,株式会社,東京都,豊島区,南大塚２丁目４１番１号ＴＭＯビル４Ｆ,,13,116,1700005,,,,,,,2024-10-10,1,,,,,ヘルステックハブ,0
1562,7020001159521,新規,0,2024-10-10,2024-10-10,株式会社Ｒｏｄａｎ,,株式会社,神奈川県,横浜市神奈川区,金港町５番地１４クアドリフォリオ８階,,14,102,2210056,,,,,,,2024-10-10,1,,,,,ロダン,0
1563,7020001159546,新規,0,2024-10-10,2024-10-10,株式会社稲毛屋総業,,株式会社,神奈川県,横浜市神奈川区,台町９－１３ルックハイツ横浜台町４０１,,14,102,2210834,,,,,,,2024-10-10,1,,,,,イナゲヤソウギョウ,0
1564,7020001159554,新規,0,2024-10-10,2024-10-10,ビーエンジ株式会社,,株式会社,神奈川県,横浜市港北区,大曽根３丁目９番２０号,,14,109,2220003,,,,,,,2024-10-10,1,,,,,ビーエンジ,0
1565,7020001159562,新規,0,2024-10-10,2024-10-10,株式会社ＬＡＺＯ,,株式会社,神奈川県,横浜市鶴見区,鶴見中央４丁目３６番３０－５０２号,,14,101,2300051,,,,,,,2024-10-10,1,,,,,ラゾ,0
1566,7020001159570,新規,0,2024-10-10,2024-10-10,株式会社アセッツ,,株式会社,神奈川県,横浜市青葉区,荏田北３丁目１０番地２０,,14,117,2250015,,,,,,,2024-10-10,1,,,,,アセッツ,0
1568,7020003027040,新規,0,2024-10-10,2024-10-10,合同会社Ｂｅ‐Ｒａｙ,,合同会社,神奈川県,川崎市高津区,溝口５丁目２０番１５号,,14,134,2130001,,,,,,,2024-10-10,1,,,,,ビレイ,0
1573,7021003015068,新規,0,2024-10-10,2024-10-10,合同会社ＦＳ,,合同会社,神奈川県,藤沢市,鵠沼石上１丁目８番９号西山はうす１０１,,14,205,2510025,,,,,,,2024-10-10,1,,,,,エフエス,0
1578,7030001162887,新規,0,2024-10-10,2024-10-10,株式会社リノ,,株式会社,埼玉県,吉川市,中央２丁目６番地１メゾン・ジャンティーユ２０２号,,11,243,3420061,,,,,,,2024-10-10,1,,,,,リノ,0
1582,7030005021882,新規,0,2024-10-10,2024-10-10,医療法人社団ＴＭＳ,,その他の設立登記法人,埼玉県,川越市,宮下町１丁目２番地１２,,11,201,3500052,,,,,,,2024-10-10,1,,,,,ティーエムエス,0
1585,7040001135751,新規,0,2024-10-10,2024-10-10,株式会社シリウス,,株式会社,千葉県,船橋市,本中山３丁目２３番７号,,12,204,2730035,,,,,,,2024-10-10,1,,,,,シリウス,0
1586,7040001135776,新規,0,2024-10-10,2024-10-10,Ｆ＆Ｖネットワーク株式会社,,株式会社,千葉県,野田市,中戸５８,,12,208,2700215,,,,,,,2024-10-10,1,,,,,エフアンドブイネットワーク,0
1593,7040003025959,新規,0,2024-10-10,2024-10-10,Ｋ．ｓ合同会社,,合同会社,千葉県,千葉市中央区,矢作町９４０－１グランアベニュー１０２,,12,101,2600851,,,,,,,2024-10-10,1,,,,,ケーズ,0
1594,7040003025967,新規,0,2024-10-10,2024-10-10,ＨＡ　ＴＲＡＮＧ合同会社,,合同会社,千葉県,千葉市花見川区,幕張本郷１丁目１０－１０－３０５号,,12,102,2620033,,,,,,,2024-10-10,1,,,,,ハーチャン,0
1595,7040005022541,新規,0,2024-10-10,2024-10-10,医療法人社団真愛,,その他の設立登記法人,千葉県,市原市,ちはら台南２丁目３２番地２,,12,219,2900142,,,,,,,2024-10-10,1,,,,,シンアイ,0
1596,7050001055503,新規,0,2024-10-10,2024-10-10,株式会社生涯現役計画,,株式会社,茨城県,常陸大宮市,下小瀬３９８番地,,08,225,3192402,,,,,,,2024-10-10,1,,,,,ショウガイゲンエキケイカク,0
1597,7050001055511,新規,0,2024-10-10,2024-10-10,株式会社ＲｅＦａｒｍ,,株式会社,茨城県,守谷市,本町１４７番地の１５,,08,224,3020109,,,,,,,2024-10-10,1,,,,,リファーム,0
1598,7050003008731,新規,0,2024-10-10,2024-10-10,領域力学合同会社,,合同会社,茨城県,常陸太田市,東連地町２２０,,08,212,3130224,,,,,,,2024-10-10,1,,,,,リョウイキリキガク,0
1599,7060003005281,新規,0,2024-10-10,2024-10-10,合同会社外国人活躍応援機構,,合同会社,栃木県,足利市,大前町９６８番地１コーポプラスアルファー１０２号室,,09,202,3260845,,,,,,,2024-10-10,1,,,,,ガイコクジンカツヤクオウエンキコウ,0
1600,7060005010255,新規,0,2024-10-10,2024-10-10,一般社団法人ドイツ動物自然療法獣医師研究会,,その他の設立登記法人,栃木県,那須塩原市,鹿野崎１１２－１１,,09,213,3293121,,,,,,,2024-10-10,1,,,,,ドイツドウブツシゼンリョウホウジュウイシケンキュウカイ,0
1611,7090001018943,新規,0,2024-10-10,2024-10-10,株式会社ＷｏｒｋＢｅｅ,,株式会社,山梨県,甲斐市,中下条９４４番地１,,19,210,4000124,,,,,,,2024-10-10,1,,,,,,0
1632,7120001268980,新規,0,2024-10-10,2024-10-10,川穎株式会社,,株式会社,大阪府,大阪市北区,梅田１丁目１２番１２号東京建物梅田ビル１２Ｆ,,27,127,5300001,,,,,,,2024-10-10,1,,,,,カワエイ,0
1633,7120001269161,新規,0,2024-10-10,2024-10-10,株式会社Ｍｉｄ　Ｅａｒｔｈ,,株式会社,大阪府,大阪市中央区,内本町２丁目４番１２号中央内本町ビル３階,,27,128,5400026,,,,,,,2024-10-10,1,,,,,ミッドアース,0
1634,7120001269252,新規,0,2024-10-10,2024-10-10,廣源株式会社,,株式会社,大阪府,大阪市生野区,新今里６丁目３－１０エクラ新今里４０２,,27,116,5440001,,,,,,,2024-10-10,1,,,,,コウゲン,0
1640,7120003027708,新規,0,2024-10-10,2024-10-10,合同会社ファンラボ,,合同会社,大阪府,大阪市住之江区,御崎７丁目１４－２３－２Ｆ,,27,125,5590013,,,,,,,2024-10-10,1,,,,,ファンラボ,0
1641,7120003027716,新規,0,2024-10-10,2024-10-10,ＭＡＴＥＸ合同会社,,合同会社,大阪府,大阪市北区,梅田１丁目２番２号大阪駅前第２ビル１２－１２,,27,127,5300001,,,,,,,2024-10-10,1,,,,,メイテックス,0
1650,7120901049828,新規,0,2024-10-10,2024-10-10,ジェイオン株式会社,,株式会社,大阪府,吹田市,南正雀４丁目８番１－１号,,27,205,5640012,,,,,,,2024-10-10,1,,,,,ジェイオン,0
1666,7140001136038,新規,0,2024-10-10,2024-10-10,株式会社給湯９１１コーポレーション,,株式会社,兵庫県,神戸市中央区,磯辺通１丁目１番１８号,,28,110,6510084,,,,,,,2024-10-10,1,,,,,キュウトウキュウイチイチコーポレーション,0
1671,7150005009627,新規,0,2024-10-10,2024-10-10,特定非営利活動法人奈良ホッケー＆カルチャーアカデミー,,その他の設立登記法人,奈良県,天理市,二階堂上ノ庄町１４１番地２５,,29,204,6320081,,,,,,,2024-10-10,1,,,,,ナラホッケーアンドカルチャーアカデミー,0
1688,7200001043021,新規,0,2024-10-10,2024-10-10,株式会社東海クッキング,,株式会社,岐阜県,大垣市,横曽根４丁目３,,21,202,5030944,,,,,,,2024-10-10,1,,,,,トウカイクッキング,0
1695,7250001020841,新規,0,2024-10-10,2024-10-10,株式会社Ｔａｋｅｏｆｆ,,株式会社,山口県,周南市,古泉１丁目１２番５５号,,35,215,7460024,,,,,,,2024-10-10,1,,,,,テイクオフ,0
1699,7290001107429,新規,0,2024-10-10,2024-10-10,株式会社ライジングエステート,,株式会社,福岡県,福岡市中央区,大手門３丁目８－３－５０１,,40,133,8100074,,,,,,,2024-10-10,1,,,,,ライジングエステート,0
1700,7290001107494,新規,0,2024-10-10,2024-10-10,株式会社ＦＡＣ,,株式会社,福岡県,糸島市,志摩馬場１１１８番地７,,40,230,8191305,,,,,,,2024-10-10,1,,,,,エフエーシー,0
1706,7300001013930,新規,0,2024-10-10,2024-10-10,株式会社ベジタブルさが雅,,株式会社,佐賀県,杵島郡白石町,大字新開１４０番地１,,41,425,8491208,,,,,,,2024-10-10,1,,,,,ベジタブルサガミヤビ,0
1709,7330003010584,新規,0,2024-10-10,2024-10-10,合同会社フジ桜,,合同会社,熊本県,上益城郡甲佐町,大字府領６５５番地１,,43,444,8614615,,,,,,,2024-10-10,1,,,,,フジザクラ,0
1710,7330003010592,新規,0,2024-10-10,2024-10-10,合同会社ダイヤイースト,,合同会社,熊本県,熊本市中央区,上水前寺１丁目６番４１号,,43,101,8620951,,,,,,,2024-10-10,1,,,,,ダイヤイースト,0
1717,7360001034293,新規,0,2024-10-10,2024-10-10,株式会社犬と鮫,,株式会社,沖縄県,那覇市,松尾２丁目１９－３２,,47,201,9000014,,,,,,,2024-10-10,1,,,,,イヌトサメ,0
1718,7360003014368,新規,0,2024-10-10,2024-10-10,ＤＨＮ合同会社,,合同会社,沖縄県,沖縄市,松本２丁目２２番１２号,,47,211,9042151,,,,,,,2024-10-10,1,,,,,ディーエイチエヌ,0
1719,7370001051791,新規,0,2024-10-10,2024-10-10,株式会社リライアンス,,株式会社,宮城県,仙台市若林区,荒井字宅地４番地の１７,,04,103,9840032,,,,,,,2024-10-10,1,,,,,リライアンス,0
1720,7370001051800,新規,0,2024-10-10,2024-10-10,株式会社杜乃ホールディングス,,株式会社,宮城県,仙台市青葉区,本町２丁目３番１０号,,04,101,9800014,,,,,,,2024-10-10,1,,,,,モリノホールディングス,0
1724,7380003005869,新規,0,2024-10-10,2024-10-10,合同会社Ｔａｋａ,,合同会社,福島県,郡山市,富久山町久保田字郷花１８番地泉田第２コーポＡ－２０１号,,07,203,9638071,,,,,,,2024-10-10,1,,,,,タカ,0
1728,7410001013960,新規,0,2024-10-10,2024-10-10,株式会社ＳＫＯ,,株式会社,秋田県,男鹿市,北浦湯本字草木原５０番地１,,05,206,0100687,,,,,,,2024-10-10,1,,,,,エスケーオー,0
1739,7430005015084,新規,0,2024-10-10,2024-10-10,医療法人社団京和会,,その他の設立登記法人,北海道,札幌市中央区,北四条西１８丁目８番地１プレミアムガーデン北円山２階,,01,101,0600004,,,,,,,2024-10-10,1,,,,,キョウワカイ,0
1740,7460301005249,新規,0,2024-10-10,2024-10-10,エーアールワラナトレーディング株式会社,,株式会社,北海道,北見市,留辺蘂町温根湯温泉１０５番地１６,,01,208,0910170,,,,,,,2024-10-10,1,,,,,エーアールワラナトレーディング,0
1752,8010001248860,新規,0,2024-10-10,2024-10-10,株式会社ＬＩＮＫＳ,,株式会社,東京都,中央区,日本橋室町１丁目１１－１２日本橋水野ビル７階,,13,102,1030022,,,,,,,2024-10-10,1,,,,,リンクス,0
1753,8010001248992,新規,0,2024-10-10,2024-10-10,易空共創株式会社,,株式会社,東京都,中央区,日本橋室町１丁目２－６日本橋大栄ビル７階,,13,102,1030022,,,,,,,2024-10-10,1,,,,,イソラキョウソウ,0
1755,8010003045174,新規,0,2024-10-10,2024-10-10,合同会社Ｍａｙｓ,,合同会社,東京都,中央区,銀座１丁目２２番１１号銀座大竹ビジデンス２Ｆ,,13,102,1040061,,,,,,,2024-10-10,1,,,,,メイズ,0
1760,8010401185605,新規,0,2024-10-10,2024-10-10,Ｅｃｏｔｏｎｅ株式会社,,株式会社,東京都,港区,北青山３丁目５番６号,,13,103,1070061,,,,,,,2024-10-10,1,,,,,エコトーン,0
1762,8010403033563,新規,0,2024-10-10,2024-10-10,ＪＥ　Ｄｅｓｉｇｎｓ合同会社,,合同会社,東京都,港区,芝浦３丁目１７番１１号,,13,103,1080023,,,,,,,2024-10-10,1,,,,,ジェーイーデザインズ,0
1763,8010403033571,新規,0,2024-10-10,2024-10-10,ＴＯＹＳ合同会社,,合同会社,東京都,港区,西新橋１丁目２２－４ＳｐａｃｅＲ２階,,13,103,1050003,,,,,,,2024-10-10,1,,,,,トイズ,0
1764,8010503007590,新規,0,2024-10-10,2024-10-10,合同会社Ｃｏｕｒａｇｅ,,合同会社,東京都,台東区,西浅草３丁目２６番２－１００１号アイルイムーブル浅草,,13,106,1110035,,,,,,,2024-10-10,1,,,,,カレッジ,0
1766,8010701046663,新規,0,2024-10-10,2024-10-10,株式会社コアート,,株式会社,東京都,品川区,荏原７丁目８－１９,,13,109,1420063,,,,,,,2024-10-10,1,,,,,コアート,0
1775,8011001165014,新規,0,2024-10-10,2024-10-10,アドバンステクノロジー株式会社,,株式会社,東京都,渋谷区,渋谷２丁目１９－１５宮益坂ビルディング６０９,,13,113,1500002,,,,,,,2024-10-10,1,,,,,アドバンステクノロジー,0
1776,8011001165022,新規,0,2024-10-10,2024-10-10,株式会社ＦＵＪＩ　ＢＡＧＥＬ,,株式会社,東京都,渋谷区,幡ヶ谷３丁目１１番７号,,13,113,1510072,,,,,,,2024-10-10,1,,,,,フジベーグル,0
1778,8011101109011,新規,0,2024-10-10,2024-10-10,株式会社ディーアップ・ウエスト,,株式会社,東京都,新宿区,西新宿７丁目６番２号,,13,104,1600023,,,,,,,2024-10-10,1,,,,,ディーアップウエスト,0
1779,8011101109044,新規,0,2024-10-10,2024-10-10,クリティカルパス株式会社,,株式会社,東京都,新宿区,四谷４丁目３０番地１５,,13,104,1600004,,,,,,,2024-10-10,1,,,,,クリティカルパス,0
1780,8011101109085,新規,0,2024-10-10,2024-10-10,株式会社ＬＷ,,株式会社,東京都,新宿区,西新宿３丁目３番１３号西新宿水間ビル６階,,13,104,1600023,,,,,,,2024-10-10,1,,,,,エルダブリュー,0
1783,8011201025851,新規,0,2024-10-10,2024-10-10,サンクシード株式会社,,株式会社,東京都,中野区,中央３丁目１番３－１０９号,,13,114,1640011,,,,,,,2024-10-10,1,,,,,サンクシード,0
1787,8011301030066,新規,0,2024-10-10,2024-10-10,株式会社万客隆,,株式会社,東京都,杉並区,高円寺南１丁目５番４－４０６号高円寺サンハイツ,,13,115,1660003,,,,,,,2024-10-10,1,,,,,マンカクリュウ,0
1797,8012801023501,新規,0,2024-10-10,2024-10-10,株式会社フロアクト,,株式会社,東京都,日野市,大字日野１２４５番地の３,,13,212,1910012,,,,,,,2024-10-10,1,,,,,フロアクト,0
1801,8013301053195,新規,0,2024-10-10,2024-10-10,株式会社桐コーポレーション,,株式会社,東京都,豊島区,要町２丁目２３番９号,,13,116,1710043,,,,,,,2024-10-10,1,,,,,キリコーポレーション,0
1803,8020001159545,新規,0,2024-10-10,2024-10-10,テイ・エフ企画株式会社,,株式会社,神奈川県,横浜市都筑区,中川１丁目１２番１９－３０１号,,14,118,2240001,,,,,,,2024-10-10,1,,,,,テイエフキカク,0
1806,8020003026933,新規,0,2024-10-10,2024-10-10,合同会社ＦｕｎｔｅｒＵ,,合同会社,神奈川県,川崎市多摩区,菅北浦３丁目１－１８サニースポット２０６,,14,135,2140008,,,,,,,2024-10-10,1,,,,,ファンターユー,0
1807,8020003027015,新規,0,2024-10-10,2024-10-10,合同会社アトリエ白色矮星,,合同会社,神奈川県,横浜市青葉区,美しが丘１丁目１３番地１０吉村ビル１０７号,,14,117,2250002,,,,,,,2024-10-10,1,,,,,アトリエハクショクワイセイ,0
1812,8021003015091,新規,0,2024-10-10,2024-10-10,スコルソ合同会社,,合同会社,神奈川県,横須賀市,安針台１７番２－１００６号,,14,201,2380048,,,,,,,2024-10-10,1,,,,,スコルソ,0
1817,8030001162787,新規,0,2024-10-10,2024-10-10,ＫＡＩＺＥＮ　ＳＯＬＵＴＩＯＮ株式会社,,株式会社,埼玉県,川口市,青木２丁目８－４－１Ｆ,,11,203,3320031,,,,,,,2024-10-10,1,,,,,カイゼンソリューション,0
1818,8030001162878,新規,0,2024-10-10,2024-10-10,株式会社恵央工業,,株式会社,埼玉県,北葛飾郡松伏町,田中２丁目１５番地１５,,11,465,3430117,,,,,,,2024-10-10,1,,,,,ケイオウコウギョウ,0
1822,8030003025298,新規,0,2024-10-10,2024-10-10,合同会社ＲｅＳｔａｒｔ,,合同会社,埼玉県,狭山市,大字水野４６７番地の９９キャピタルビュー狭山３０３,,11,215,3501317,,,,,,,2024-10-10,1,,,,,リスタート,0
1823,8030005021881,新規,0,2024-10-10,2024-10-10,医療法人春秋会,,その他の設立登記法人,埼玉県,さいたま市大宮区,桜木町１丁目２１９番地３アクロスキューブ大宮５階,,11,103,3300854,,,,,,,2024-10-10,1,,,,,シュンジュウカイ,0
1828,8040001135767,新規,0,2024-10-10,2024-10-10,Ｃｉｔｉｕｓ　ＡＩ株式会社,,株式会社,千葉県,船橋市,藤原２丁目１４番１０号,,12,204,2730047,,,,,,,2024-10-10,1,,,,,シティウスエーアイ,0
1831,8040003025974,新規,0,2024-10-10,2024-10-10,４８２マネジメント合同会社,,合同会社,千葉県,柏市,若柴１７８番地４柏の葉キャンパス１４８街区２ショップ＆オフィス棟ＫＯＩＬ５階,,12,217,2770871,,,,,,,2024-10-10,1,,,,,シバフマネジメント,0
1832,8040005022540,新規,0,2024-10-10,2024-10-10,医療法人社団昊典会,,その他の設立登記法人,千葉県,市川市,行徳駅前１丁目８番５号１階,,12,203,2720133,,,,,,,2024-10-10,1,,,,,コウテンカイ,0
1834,8050001055485,新規,0,2024-10-10,2024-10-10,株式会社栗原自動車,,株式会社,茨城県,猿島郡五霞町,大字元栗橋４６１２番地,,08,542,3060313,,,,,,,2024-10-10,1,,,,,,0
1835,8050001055519,新規,0,2024-10-10,2024-10-10,株式会社ＦＳファクトリー関東,,株式会社,茨城県,桜川市,真壁町下谷貝１６４６番地,,08,231,3004426,,,,,,,2024-10-10,1,,,,,エフエスファクトリーカントウ,0
1836,8060001037565,新規,0,2024-10-10,2024-10-10,株式会社Ｓ　ＡＮＤ　Ｂ,,株式会社,栃木県,足利市,田中町９４０番地６東,,09,202,3260822,,,,,,,2024-10-10,1,,,,,エスアンドビ,0
1839,8080001026541,新規,0,2024-10-10,2024-10-10,株式会社アール建物管理,,株式会社,静岡県,藤枝市,岡部町内谷１０００番２５,,22,214,4211131,,,,,,,2024-10-10,1,,,,,アールタテモノカンリ,0
1848,8080405007682,新規,0,2024-10-10,2024-10-10,医療法人社団一峰会,,その他の設立登記法人,静岡県,掛川市,高御所１４３８番地の５,,22,213,4360031,,,,,,,2024-10-10,1,,,,,イチミネカイ,0
1850,8100001037924,新規,0,2024-10-10,2024-10-10,株式会社美楽包,,株式会社,長野県,飯田市,鼎上山２６７８番地１,,20,205,3950806,,,,,,,2024-10-10,1,,,,,ミラクル,0
1864,8120001269193,新規,0,2024-10-10,2024-10-10,株式会社１６８８,,株式会社,大阪府,大阪市西区,新町１丁目２２番２２号,,27,106,5500013,,,,,,,2024-10-10,1,,,,,イロハヤ,0
1865,8120001269210,新規,0,2024-10-10,2024-10-10,光正株式会社,,株式会社,大阪府,大阪市住之江区,粉浜１丁目３－２５－３０３室,,27,125,5590001,,,,,,,2024-10-10,1,,,,,コウセイ,0
1866,8120001269227,新規,0,2024-10-10,2024-10-10,株式会社愛洋,,株式会社,大阪府,大阪市中央区,南本町４丁目３番１６－４０１号,,27,128,5410054,,,,,,,2024-10-10,1,,,,,アイヨウ,0
1867,8120001269251,新規,0,2024-10-10,2024-10-10,株式会社未来生活,,株式会社,大阪府,大阪市淀川区,東三国３丁目９番２１－８１０号,,27,123,5320002,,,,,,,2024-10-10,1,,,,,ミライセイカツ,0
1868,8120001269276,新規,0,2024-10-10,2024-10-10,株式会社竜成,,株式会社,大阪府,守口市,南寺方東通４丁目２８番１１号,,27,209,5700043,,,,,,,2024-10-10,1,,,,,リュウセイ,0
1871,8120003027624,新規,0,2024-10-10,2024-10-10,合同会社ＳＫＹ,,合同会社,大阪府,大阪市中央区,南船場３丁目２番２２号おおきに南船場ビル２０５,,27,128,5420081,,,,,,,2024-10-10,1,,,,,スカイ,0
1872,8120003027707,新規,0,2024-10-10,2024-10-10,合同会社ひとやすみ,,合同会社,大阪府,大阪市北区,与力町７番９－３０４号,,27,127,5300036,,,,,,,2024-10-10,1,,,,,ヒトヤスミ,0
1892,8140001136053,新規,0,2024-10-10,2024-10-10,株式会社ＮＯＡＨ,,株式会社,兵庫県,西宮市,名塩新町１１番地１番館２１９号,,28,204,6691134,,,,,,,2024-10-10,1,,,,,ノア,0
1895,8140003021170,新規,0,2024-10-10,2024-10-10,合同会社ｍａ‐ｅｃｃａ,,合同会社,兵庫県,明石市,大蔵町１８番１７号,,28,203,6730872,,,,,,,2024-10-10,1,,,,,マエッカ,0
1896,8140005027232,新規,0,2024-10-10,2024-10-10,ＮＰＯ法人ａｒｃ　ｓｐｏｒｔｓ,,その他の設立登記法人,兵庫県,神戸市垂水区,清水が丘１丁目１２番１５号,,28,108,6550031,,,,,,,2024-10-10,1,,,,,アークスポーツ,0
1898,8150001027607,新規,0,2024-10-10,2024-10-10,株式会社Ｌａｒｇｗｅｓｔ,,株式会社,奈良県,香芝市,良福寺２３７番地１６,,29,210,6390235,,,,,,,2024-10-10,1,,,,,ラーグウエスト,0
1900,8150003003390,新規,0,2024-10-10,2024-10-10,合同会社ＲＩＺ,,合同会社,奈良県,橿原市,光陽町５７番地の６,,29,205,6340827,,,,,,,2024-10-10,1,,,,,リズ,0
1925,8290001107527,新規,0,2024-10-10,2024-10-10,株式会社カドルシップ,,株式会社,福岡県,太宰府市,国分５丁目１７－２８,,40,221,8180132,,,,,,,2024-10-10,1,,,,,カドルシップ,0
1927,8290801030944,新規,0,2024-10-10,2024-10-10,株式会社ＡＮＮ,,株式会社,福岡県,遠賀郡芦屋町,江川台３番１号,,40,381,8070142,,,,,,,2024-10-10,1,,,,,アン,0
1944,8360003014342,新規,0,2024-10-10,2024-10-10,合同会社Ｔａｍａｒｉｎ,,合同会社,沖縄県,中頭郡北谷町,字浜川２０８番地７,,47,326,9040112,,,,,,,2024-10-10,1,,,,,タマリン,0
1945,8370001051790,新規,0,2024-10-10,2024-10-10,株式会社Ｚｕｍｉ　Ｓｙｓｔｅｍｓ,,株式会社,宮城県,宮城郡利府町,青山３丁目１８番地２,,04,406,9810131,,,,,,,2024-10-10,1,,,,,ズミシステムズ,0
1946,8370001051799,新規,0,2024-10-10,2024-10-10,開成建設株式会社,,株式会社,宮城県,仙台市青葉区,本町２丁目９番８号日宝本町ビル６０２,,04,101,9800014,,,,,,,2024-10-10,1,,,,,カイセイケンセツ,0
1948,8370003006768,新規,0,2024-10-10,2024-10-10,合同会社プラーナル,,合同会社,宮城県,遠田郡美里町,関根字道明５８,,04,505,9870006,,,,,,,2024-10-10,1,,,,,プラーナル,0
1949,8380001034836,新規,0,2024-10-10,2024-10-10,ｅＢＩＺクリエイト株式会社,,株式会社,福島県,郡山市,鶴見坦３丁目１６番２１号,,07,203,9638861,,,,,,,2024-10-10,1,,,,,イービズクリエイト,0
1950,8380001034844,新規,0,2024-10-10,2024-10-10,株式会社ｆｏｕｎｔａｉｎ,,株式会社,福島県,郡山市,堤１丁目１２５番地内藤マンション１０３号,,07,203,9630205,,,,,,,2024-10-10,1,,,,,ファウンテン,0
1951,8380003005868,新規,0,2024-10-10,2024-10-10,合同会社ムゲン堂,,合同会社,福島県,いわき市,遠野町滝字島廻３－１,,07,204,9720162,,,,,,,2024-10-10,1,,,,,ムゲンドウ,0
1961,8430001092837,新規,0,2024-10-10,2024-10-10,株式会社リーザ,,株式会社,北海道,虻田郡ニセコ町,字曽我４４９番地２０,,01,395,0481522,,,,,,,2024-10-10,1,,,,,リーザ,0
1962,8430001092845,新規,0,2024-10-10,2024-10-10,株式会社ＳＥＮＡ,,株式会社,北海道,札幌市北区,太平六条６丁目１番１－２０６号,,01,102,0028006,,,,,,,2024-10-10,1,,,,,セナ,0
1966,8430003016868,新規,0,2024-10-10,2024-10-10,合同会社ノス,,合同会社,北海道,夕張郡栗山町,桜丘２丁目１２６,,01,429,0691501,,,,,,,2024-10-10,1,,,,,ノス,0
1967,8430005015083,新規,0,2024-10-10,2024-10-10,医療法人社団宏裕会,,その他の設立登記法人,北海道,札幌市白石区,栄通１８丁目５－３５コープさっぽろルーシー３Ｆ,,01,104,0030021,,,,,,,2024-10-10,1,,,,,コウユウカイ,0
1968,8460101007618,新規,0,2024-10-10,2024-10-10,株式会社菅野自動車サービス,,株式会社,北海道,上川郡清水町,南一条１１丁目１番地４,,01,636,0890137,,,,,,,2024-10-10,1,,,,,スガノジドウシャサービス,0
1971,8480003002186,新規,0,2024-10-10,2024-10-10,合同会社Ｌｉｆｅ,,合同会社,徳島県,小松島市,大林町字岩戸３０番地の２,,36,203,7730022,,,,,,,2024-10-10,1,,,,,ライフ,0
1974,8700150127143,新規,0,2024-10-10,2024-10-10,Ｒｕｉａｎｓｈｉｌｉｙｉｊｉｎｃｈｕｋｏｕｙｏｕｘｉａｎｇｏｎｇｓｉ,,外国会社等,,,,,,,,ＺｈｏｎｇＧｕｏＺｈｅＪｉａｎｇＳｈｅｎｇＷｅｎＺｈｏｕＳｈｉＲｕｉＡｎＳｈｉＪｉｎＨｕＪｉｅＤａｏＤｉＹｉＱｉａｏＣｕｎＴｉＹｕＸｉＬｕ８Ｃｈｕａｎｇ１０４Ｈａｏ,,,,,,2024-10-10,1,,,,,スイアンシリツイシンシユツコウユウゲンコウシ,0
1985,9010001248661,新規,0,2024-10-10,2024-10-10,株式会社おりこうさん,,株式会社,東京都,千代田区,神田和泉町１番地６－１６ヤマトビル４０５,,13,101,1010024,,,,,,,2024-10-10,1,,,,,オリコウサン,0
1986,9010001248926,新規,0,2024-10-10,2024-10-10,ＭｙｔｅＰｒｏ　Ｔｅｃｈｏｎｏｌｏｇｙ　Ｊａｐａｎ株式会社,,株式会社,東京都,中央区,晴海３丁目１３番２－８１６号,,13,102,1040053,,,,,,,2024-10-10,1,,,,,マイトプロテクノロジージャパン,0
1988,9010003045066,新規,0,2024-10-10,2024-10-10,合同会社ＯＭ心斎橋,,合同会社,東京都,千代田区,霞が関３丁目２番５号,,13,101,1000013,,,,,,,2024-10-10,1,,,,,オーエムシンサイバシ,0
1993,9010005038951,新規,0,2024-10-10,2024-10-10,虎ノ門一丁目東地区熱供給一般社団法人,,その他の設立登記法人,東京都,千代田区,平河町１丁目６番１５号シルスフィア会計事務所内,,13,101,1020093,,,,,,,2024-10-10,1,,,,,トラノモンイッチョウメヒガシチクネツキョウキュウ,0
1997,9010401185554,新規,0,2024-10-10,2024-10-10,ＳＩＴＵＥ株式会社,,株式会社,東京都,港区,麻布台１丁目３番１号麻布台ヒルズ森ＪＰタワー１５階,,13,103,1060041,,,,,,,2024-10-10,1,,,,,シチュエ,0
1998,9010401185604,新規,0,2024-10-10,2024-10-10,アルクスアンド株式会社,,株式会社,東京都,港区,北青山３丁目５番１７号,,13,103,1070061,,,,,,,2024-10-10,1,,,,,アルクスアンド,0
2006,9010501052976,新規,0,2024-10-10,2024-10-10,寧新株式会社,,株式会社,東京都,台東区,上野７丁目３番９号,,13,106,1100005,,,,,,,2024-10-10,1,,,,,ネイシン,0
2012,9010701046654,新規,0,2024-10-10,2024-10-10,株式会社タテオキ,,株式会社,東京都,品川区,東五反田５丁目２５番１６号,,13,109,1410022,,,,,,,2024-10-10,1,,,,,タテオキ,0
2024,9010901056107,新規,0,2024-10-10,2024-10-10,ＷＡＫＡＩ　ＲＥＧＥＮＥＲＡＴＩＯＮ株式会社,,株式会社,東京都,世田谷区,給田５丁目９番３号,,13,112,1570064,,,,,,,2024-10-10,1,,,,,ワカイリギェネレーション,0
2029,9011001165013,新規,0,2024-10-10,2024-10-10,株式会社Ｓａｎｔｏｓｈａ,,株式会社,東京都,渋谷区,恵比寿西２丁目４番８号ウィンド恵比寿ビル８Ｆ,,13,113,1500021,,,,,,,2024-10-10,1,,,,,サントーシャ,0
2030,9011001165038,新規,0,2024-10-10,2024-10-10,株式会社ＴＨＥ　ＳＴＲＡＩＧＨＴ　ＴＯＫＹＯ,,株式会社,東京都,渋谷区,神宮前１丁目１０番６号セリジェ神宮前１０１,,13,113,1500001,,,,,,,2024-10-10,1,,,,,ザストレートトウキョウ,0
2031,9011001165046,新規,0,2024-10-10,2024-10-10,株式会社ユイスタジオ,,株式会社,東京都,渋谷区,神宮前５丁目１５番２号,,13,113,1500001,,,,,,,2024-10-10,1,,,,,ユイスタジオ,0
2036,9011105011179,新規,0,2024-10-10,2024-10-10,特定非営利活動法人日本アニメ文化推進協議会,,その他の設立登記法人,東京都,新宿区,西新宿１丁目２５番１号,,13,104,1600023,,,,,,,2024-10-10,1,,,,,ニホンアニメブンカスイシンキョウギカイ,0
2037,9011201025850,新規,0,2024-10-10,2024-10-10,株式会社嘉佑,,株式会社,東京都,中野区,弥生町３丁目２８番５号,,13,114,1640013,,,,,,,2024-10-10,1,,,,,カユウ,0
2043,9011501031235,新規,0,2024-10-10,2024-10-10,三川商事株式会社,,株式会社,東京都,荒川区,町屋３丁目１－１３,,13,118,1160001,,,,,,,2024-10-10,1,,,,,ミカワショウジ,0
2048,9012403006787,新規,0,2024-10-10,2024-10-10,Ａｒｃｏｂａｌｅｎｏ合同会社,,合同会社,東京都,狛江市,岩戸南３丁目１１番１２号,,13,219,2010005,,,,,,,2024-10-10,1,,,,,ラルコバレーノ,0
2051,9013301053186,新規,0,2024-10-10,2024-10-10,株式会社西武不動産投資顧問,,株式会社,東京都,豊島区,南池袋１丁目１６番１５号,,13,116,1710022,,,,,,,2024-10-10,1,,,,,セイブフドウサントウシコモン,0
2056,9020001159544,新規,0,2024-10-10,2024-10-10,ＮＡシステムソリューションズ株式会社,,株式会社,神奈川県,横浜市神奈川区,金港町５－１４クアドリフォリオ８階,,14,102,2210056,,,,,,,2024-10-10,1,,,,,エヌエーシステムソリューションズ,0
2057,9020001159552,新規,0,2024-10-10,2024-10-10,株式会社バロッコ,,株式会社,神奈川県,川崎市中原区,下小田中３丁目１８－１５ドミール鹿島３０５,,14,133,2110041,,,,,,,2024-10-10,1,,,,,バロッコ,0
2076,9030001162893,新規,0,2024-10-10,2024-10-10,Ｔ‐ｂａｎｋ株式会社,,株式会社,埼玉県,新座市,北野２丁目７－７,,11,230,3520003,,,,,,,2024-10-10,1,,,,,ティーバンク,0
2077,9030001162910,新規,0,2024-10-10,2024-10-10,株式会社しまお,,株式会社,埼玉県,羽生市,大字上手子林１３７９番地１,,11,216,3480025,,,,,,,2024-10-10,1,,,,,シマオ,0
2082,9030003025256,新規,0,2024-10-10,2024-10-10,合同会社インクルーシブソリューションズ,,合同会社,埼玉県,所沢市,小手指南６丁目１２－２－１０８－１－５０５,,11,208,3591146,,,,,,,2024-10-10,1,,,,,インクルーシブソリューションズ,0
2083,9030003025264,新規,0,2024-10-10,2024-10-10,合同会社Ｐａｌｅｔｔｅ,,合同会社,埼玉県,越谷市,赤山本町３番地２４ライオンズグローベル越谷ステーションプラザ１２０１号,,11,222,3430808,,,,,,,2024-10-10,1,,,,,パレット,0
2084,9030003025280,新規,0,2024-10-10,2024-10-10,ＴＮｉ　Ｇｒｏｕｐ合同会社,,合同会社,埼玉県,川口市,西川口１丁目５番５号ＭＦハイツ１Ｆ,,11,203,3320021,,,,,,,2024-10-10,1,,,,,ティニグループ,0
2085,9030003025289,新規,0,2024-10-10,2024-10-10,合同会社Ｍ＆ｍ,,合同会社,埼玉県,さいたま市浦和区,北浦和５丁目５番９－５０５号,,11,107,3300074,,,,,,,2024-10-10,1,,,,,エムアンドエム,0
2086,9030003025297,新規,0,2024-10-10,2024-10-10,合同会社Ｙｏｕ　Ｇｏｏｄ,,合同会社,埼玉県,川越市,東田町４番地１０７,,11,201,3501114,,,,,,,2024-10-10,1,,,,,ユーグッド,0
2087,9030005021880,新規,0,2024-10-10,2024-10-10,ＷｏｎＪ医療法人,,その他の設立登記法人,埼玉県,川口市,栄町１丁目１２番２１号シティデュオタワー川口医療モール２０９号,,11,203,3320017,,,,,,,2024-10-10,1,,,,,オンジェイ,0
2096,9060005010253,新規,0,2024-10-10,2024-10-10,医療法人ＭＡＲＫＳ,,その他の設立登記法人,栃木県,下野市,緑２丁目３２９０番５,,09,216,3290433,,,,,,,2024-10-10,1,,,,,,0
2100,9070005010319,新規,0,2024-10-10,2024-10-10,特定非営利活動法人オープンドア,,その他の設立登記法人,群馬県,前橋市,元総社町２２００番地,,10,201,3710846,,,,,,,2024-10-10,1,,,,,オープンドア,0
2101,9080001026540,新規,0,2024-10-10,2024-10-10,株式会社ＭＳかどま,,株式会社,静岡県,静岡市葵区,西草深町１４番１６号,,22,101,4200866,,,,,,,2024-10-10,1,,,,,エムエスカドマ,0
2106,9080405007681,新規,0,2024-10-10,2024-10-10,医療法人社団瑛仁会,,その他の設立登記法人,静岡県,浜松市中央区,小池町５３６番地,,22,138,4350056,,,,,,,2024-10-10,1,,,,,エイジンカイ,0
2114,9110003005539,新規,0,2024-10-10,2024-10-10,合同会社Ｌｉｖｉｘ,,合同会社,新潟県,新潟市東区,東中野山６丁目３番１号,,15,102,9500836,,,,,,,2024-10-10,1,,,,,リビックス,0
2120,9120001269003,新規,0,2024-10-10,2024-10-10,ＪＭＮ株式会社,,株式会社,大阪府,大阪市城東区,東中浜９丁目８－２６－１０５号,,27,118,5360023,,,,,,,2024-10-10,1,,,,,ジェイエムエヌ,0
2121,9120001269069,新規,0,2024-10-10,2024-10-10,ＰＲｍａｎａｇｅｍｅｎｔ株式会社,,株式会社,大阪府,大阪市浪速区,敷津東３丁目１１番１０号,,27,111,5560012,,,,,,,2024-10-10,1,,,,,ピーアールマネジメント,0
2122,9120001269110,新規,0,2024-10-10,2024-10-10,株式会社恩澤スポーツ,,株式会社,大阪府,大阪市中央区,心斎橋筋１丁目８番３号,,27,128,5420085,,,,,,,2024-10-10,1,,,,,オンザワスポーツ,0
2123,9120001269201,新規,0,2024-10-10,2024-10-10,泛和株式会社,,株式会社,大阪府,大阪市城東区,関目５丁目１９番９号関目花博公館３１２Ａ,,27,118,5360008,,,,,,,2024-10-10,1,,,,,ハンワ,0
2124,9120001269275,新規,0,2024-10-10,2024-10-10,株式会社ファミリア,,株式会社,大阪府,大阪市西成区,南開１丁目３－４,,27,122,5570023,,,,,,,2024-10-10,1,,,,,ファミリア,0
2130,9120901049891,新規,0,2024-10-10,2024-10-10,株式会社あんず,,株式会社,大阪府,摂津市,鳥飼銘木町１番３号石富ビル２号館２階,,27,224,5660063,,,,,,,2024-10-10,1,,,,,アンズ,0
2134,9122001038528,新規,0,2024-10-10,2024-10-10,株式会社オモロ波,,株式会社,大阪府,八尾市,本町２丁目２番２３号,,27,212,5810003,,,,,,,2024-10-10,1,,,,,オモロハ,0
2142,9130005017209,新規,0,2024-10-10,2024-10-10,特定非営利活動法人蓬師,,その他の設立登記法人,京都府,京都市上京区,新町室町の間上立売下る瓢箪図子町５３,,26,102,6020037,,,,,,,2024-10-10,1,,,,,ホウシ,0
2146,9140001136069,新規,0,2024-10-10,2024-10-10,株式会社ハナサク,,株式会社,兵庫県,神戸市西区,井吹台西町４丁目２５番地の８,,28,111,6512243,,,,,,,2024-10-10,1,,,,,ハナサク,0
2148,9140003021145,新規,0,2024-10-10,2024-10-10,合同会社ＣＲブランチ,,合同会社,兵庫県,加古川市,加古川町篠原町５００番地リヴェール加古川駅前８０２,,28,210,6750065,,,,,,,2024-10-10,1,,,,,シーアールブランチ,0
2153,9160003003307,新規,0,2024-10-10,2024-10-10,昔のパソコン屋さん合同会社,,合同会社,滋賀県,大津市,大江３丁目２５‐１１‐２０５,,25,201,5202141,,,,,,,2024-10-10,1,,,,,ムカシノパソコンヤサン,0
2154,9170001018330,新規,0,2024-10-10,2024-10-10,株式会社４Ｌａｂ,,株式会社,和歌山県,岩出市,野上野９９番地の１８,,30,209,6496216,,,,,,,2024-10-10,1,,,,,フォーラボ,0
2165,9190001031711,新規,0,2024-10-10,2024-10-10,株式会社プラス,,株式会社,三重県,鈴鹿市,算所３丁目５番２５号,,24,207,5130806,,,,,,,2024-10-10,1,,,,,プラス,0
2175,9250005008955,新規,0,2024-10-10,2024-10-10,医療法人いつき会,,その他の設立登記法人,山口県,周南市,周陽２丁目７番１５号,,35,215,7450823,,,,,,,2024-10-10,1,,,,,イツキカイ,0
2184,9290001107419,新規,0,2024-10-10,2024-10-10,株式会社Ｌａ　Ｂｒｉｌｌｉａ’ｎｃｅ．,,株式会社,福岡県,福岡市城南区,神松寺２丁目１７－４ＳＡＴＡＤＲＥＡＭＴＯＷＥＲ２Ｆ,,40,136,8140121,,,,,,,2024-10-10,1,,,,,ラブリエンス,0
2188,9290003015900,新規,0,2024-10-10,2024-10-10,合同会社ＰＡＲＡＤＩ,,合同会社,福岡県,福岡市博多区,博多駅東１丁目１０番８号４Ｆ,,40,132,8120013,,,,,,,2024-10-10,1,,,,,パラディ,0
2189,9290005019528,新規,0,2024-10-10,2024-10-10,税理士法人深野税務会計,,その他の設立登記法人,福岡県,福岡市中央区,天神４丁目２番３６号,,40,133,8100001,,,,,,,2024-10-10,1,,,,,フカノゼイムカイケイ,0
2192,9300001013929,新規,0,2024-10-10,2024-10-10,うえの不動産株式会社,,株式会社,佐賀県,唐津市,浜玉町南山３１１５番地２,,41,202,8495111,,,,,,,2024-10-10,1,,,,,ウエノフドウサン,0
2193,9310001019223,新規,0,2024-10-10,2024-10-10,株式会社グリーンピース,,株式会社,長崎県,西海市,西彼町宮浦郷１３８４番地,,42,212,8513301,,,,,,,2024-10-10,1,,,,,グリーンピース,0
2195,9320001020758,新規,0,2024-10-10,2024-10-10,山帰株式会社,,株式会社,大分県,竹田市,大字平田４３５７番地,,44,208,8780006,,,,,,,2024-10-10,1,,,,,,0
2198,9350001019228,新規,0,2024-10-10,2024-10-10,チャレンジワン株式会社,,株式会社,宮崎県,西臼杵郡高千穂町,大字岩戸２５９９番地３,,45,441,8821621,,,,,,,2024-10-10,1,,,,,チャレンジワン,0
2199,9360001034300,新規,0,2024-10-10,2024-10-10,株式会社ゼロワン,,株式会社,沖縄県,中頭郡西原町,字幸地３４３番地１,,47,329,9030116,,,,,,,2024-10-10,1,,,,,ゼロワン,0
2200,9360003014366,新規,0,2024-10-10,2024-10-10,合同会社ダックスター,,合同会社,沖縄県,豊見城市,字上田１５５番地,,47,212,9010243,,,,,,,2024-10-10,1,,,,,ダックスター,0
2205,9410001013959,新規,0,2024-10-10,2024-10-10,株式会社ブラスタ,,株式会社,秋田県,秋田市,川尻町字大川反２３３番地１２５、２階,,05,201,0100941,,,,,,,2024-10-10,1,,,,,ブラスタ,0
2208,9430001092844,新規,0,2024-10-10,2024-10-10,株式会社トラスト,,株式会社,北海道,札幌市中央区,南二条西２２丁目１－４５－１．５Ｆ,,01,101,0640802,,,,,,,2024-10-10,1,,,,,トラスト,0
2211,9430003016867,新規,0,2024-10-10,2024-10-10,ピッケルズ合同会社,,合同会社,北海道,余市郡赤井川村,字赤井川９８番地３,,01,409,0460501,,,,,,,2024-10-10,1,,,,,ピッケルズ,0
2213,9470003002731,新規,0,2024-10-10,2024-10-10,端岡プランニング合同会社,,合同会社,香川県,高松市,国分寺町新居１８４７番地７,,37,201,7690101,,,,,,,2024-10-10,1,,,,,,0
2215,9480003002185,新規,0,2024-10-10,2024-10-10,合同会社大詩空間,,合同会社,徳島県,徳島市,入田町神ノ池１９番地,,36,201,7793133,,,,,,,2024-10-10,1,,,,,タイシクウカン,0
2221,9500001025929,新規,0,2024-10-10,2024-10-10,株式会社サラン,,株式会社,愛媛県,松山市,鉄砲町６－９,,38,201,7900827,,,,,,,2024-10-10,1,,,,,サラン,0
