sequenceNumber,corporateNumber,process,correct,updateDate,changeDate,name,nameImageId,kind,prefectureName,cityName,streetNumber,addressImageId,prefectureCode,cityCode,postCode,addressOutside,addressOutsideImageId,closeDate,closeCause,successorCorporateNumber,changeCause,assignmentDate,latest,enName,enPrefectureName,enCityName,enAddressOutside,furigana,hihyoji
8,1010001249114,新規,0,2024-10-17,2024-10-17,ＴＴホールディングス株式会社,,株式会社,東京都,千代田区,外神田１丁目１８番１３号秋葉原ダイビル１３階,,13,101,1010021,,,,,,,2024-10-17,1,,,,,ティティホールディングス,0
9,1010001249122,新規,0,2024-10-17,2024-10-17,株式会社ビズワーク,,株式会社,東京都,千代田区,神田須田町１丁目７番８号ＶＯＲＴ秋葉原ＩＶ２Ｆ,00136660,13,101,1010041,,,,,,,2024-10-17,1,,,,,ビズワーク,0
14,1010003045197,新規,0,2024-10-17,2024-10-17,合同会社ＪＤＩＰ‐１３,,合同会社,東京都,千代田区,九段北３丁目２番４号,,13,101,1020073,,,,,,,2024-10-17,1,,,,,ジェイディーアイピーサーティーン,0
15,1010003045206,新規,0,2024-10-17,2024-10-17,アール・シー沖縄合同会社,,合同会社,東京都,千代田区,丸の内１丁目４番１号東京共同会計事務所内,,13,101,1000005,,,,,,,2024-10-17,1,,,,,アールシーオキナワ,0
16,1010005038967,新規,0,2024-10-17,2024-10-17,一般社団法人ＡＯＹ１,,その他の設立登記法人,東京都,千代田区,丸の内１丁目４番１号東京共同会計事務所内,,13,101,1000005,,,,,,,2024-10-17,1,,,,,エーオーワイワン,0
33,1010401185776,新規,0,2024-10-17,2024-10-17,株式会社エヌ．エクスペリエンス,,株式会社,東京都,港区,南青山３丁目８－４０青山センタービル２Ｆ,,13,103,1070062,,,,,,,2024-10-17,1,,,,,エヌエクスペリエンス,0
37,1010501053057,新規,0,2024-10-17,2024-10-17,株式会社Ｃ．Ｅ．Ｔｒａｄｉｎｇ,,株式会社,東京都,台東区,浅草５丁目８番３号オザキマンション１階,,13,106,1110032,,,,,,,2024-10-17,1,,,,,シーイートレーディング,0
41,1010601066074,新規,0,2024-10-17,2024-10-17,株式会社正建,,株式会社,東京都,江東区,大島８丁目３８番３号,,13,108,1360072,,,,,,,2024-10-17,1,,,,,ショウケン,0
42,1010601066108,新規,0,2024-10-17,2024-10-17,Ｒｐｌｕｓ株式会社,,株式会社,東京都,墨田区,江東橋４丁目２７番１４号楽天地ビル３Ｆ,,13,107,1300022,,,,,,,2024-10-17,1,,,,,アールプラス,0
43,1010603011152,新規,0,2024-10-17,2024-10-17,東京ＮＬＰウェルネスカウンセリング合同会社,,合同会社,東京都,墨田区,江東橋４丁目２７－１４,,13,107,1300022,,,,,,,2024-10-17,1,,,,,トウキョウエヌエルピーウェルネスウカウンセリング,0
48,1010701046686,新規,0,2024-10-17,2024-10-17,ｆｕｕｚ株式会社,,株式会社,東京都,品川区,戸越２丁目９番９号,,13,109,1420041,,,,,,,2024-10-17,1,,,,,フーズ,0
49,1010703007389,新規,0,2024-10-17,2024-10-17,合同会社ナカムラボ,,合同会社,東京都,品川区,大崎２丁目５番６－５０５号,,13,109,1410032,,,,,,,2024-10-17,1,,,,,ナカムラボ,0
52,1010803005128,新規,0,2024-10-17,2024-10-17,合同会社ＨＴ,,合同会社,東京都,大田区,大森中２丁目２番１－４０５号,,13,111,1430014,,,,,,,2024-10-17,1,,,,,,0
53,1010901056130,新規,0,2024-10-17,2024-10-17,株式会社ＨＡＲＵＳＡＹＡ,,株式会社,東京都,世田谷区,等々力８丁目３番８号,,13,112,1580082,,,,,,,2024-10-17,1,,,,,ハルサヤ,0
54,1010901056139,新規,0,2024-10-17,2024-10-17,株式会社Ａｎｏｔｈｅｒ　Ｓｔａｒ　Ｅｎｔｅｒｔａｉｎｍｅｎｔ,,株式会社,東京都,世田谷区,世田谷４丁目１７－１７－２０２,,13,112,1540017,,,,,,,2024-10-17,1,,,,,アナザースターエンターテイメント,0
61,1011003020207,新規,0,2024-10-17,2024-10-17,合同会社ＡＮＯ．ＮＥ．ＮＥ．ＬＡＬＡ,,合同会社,東京都,渋谷区,恵比寿西２丁目８番４号ＥＸ恵比寿西ビル５階,,13,113,1500021,,,,,,,2024-10-17,1,,,,,アノネーネーララ,0
63,1011101109166,新規,0,2024-10-17,2024-10-17,株式会社ＡＯ,,株式会社,東京都,新宿区,大久保２丁目１４番１６－１０３号,,13,104,1690072,,,,,,,2024-10-17,1,,,,,エーオー,0
64,1011103015049,新規,0,2024-10-17,2024-10-17,合同会社オアノス,,合同会社,東京都,新宿区,西新宿３丁目３番１３号西新宿水間ビル２Ｆ,,13,104,1600023,,,,,,,2024-10-17,1,,,,,オアノス,0
66,1011301030080,新規,0,2024-10-17,2024-10-17,ＴＲＹａｎｇｌｅ株式会社,,株式会社,東京都,杉並区,上井草３丁目３２番６号,,13,115,1670023,,,,,,,2024-10-17,1,,,,,トライアングル,0
67,1011301030089,新規,0,2024-10-17,2024-10-17,株式会社Ｏｐｅｎ　Ｉｎｓｕｒａｎｃｅ,,株式会社,東京都,杉並区,西荻南４丁目１５－７,,13,115,1670053,,,,,,,2024-10-17,1,,,,,オープンインシュアランス,0
69,1011401026508,新規,0,2024-10-17,2024-10-17,ｍｉｚｅ株式会社,,株式会社,東京都,板橋区,成増２丁目２０番２号,,13,119,1750094,,,,,,,2024-10-17,1,,,,,ミゼ,0
73,1011603004484,新規,0,2024-10-17,2024-10-17,合同会社才建工業,,合同会社,東京都,練馬区,関町北５丁目８番３－５０５号,,13,120,1770051,,,,,,,2024-10-17,1,,,,,サイケンコウギョウ,0
77,1012301014123,新規,0,2024-10-17,2024-10-17,株式会社Ｔｏｕｃｈ‐ＵＰ,,株式会社,東京都,町田市,山崎町１３８０番地,,13,209,1950074,,,,,,,2024-10-17,1,,,,,タッチアップ,0
85,1013301053210,新規,0,2024-10-17,2024-10-17,株式会社ＨＡＲＩ,,株式会社,東京都,豊島区,東池袋１丁目３４番５号いちご東池袋ビル６階,,13,116,1700013,,,,,,,2024-10-17,1,,,,,ハリ,0
90,1020001159576,新規,0,2024-10-17,2024-10-17,株式会社横浜ホームサービス,,株式会社,神奈川県,横浜市青葉区,奈良町２４１５番地２９１,,14,117,2270036,,,,,,,2024-10-17,1,,,,,ヨコハマホームサービス,0
91,1020001159650,新規,0,2024-10-17,2024-10-17,株式会社ｂｏｓｓａ,,株式会社,神奈川県,横浜市中区,伊勢佐木町３丁目１０７番地ストーク田名瀬ビル１０２号,,14,104,2310045,,,,,,,2024-10-17,1,,,,,ボッサ,0
94,1020003027054,新規,0,2024-10-17,2024-10-17,合同会社ＫＩＮＧ,,合同会社,神奈川県,横浜市港南区,笹下３丁目２３番３－１０１号,,14,111,2340052,,,,,,,2024-10-17,1,,,,,キング,0
95,1020003027087,新規,0,2024-10-17,2024-10-17,合同会社Ｎｏｔ　Ｆｏｕｎｄ,,合同会社,神奈川県,横浜市旭区,白根２丁目１６番１―４０４号,,14,112,2410005,,,,,,,2024-10-17,1,,,,,ノットファウンド,0
96,1020005016542,新規,0,2024-10-17,2024-10-17,特定非営利活動法人横浜地域活性縁合機構,,その他の設立登記法人,神奈川県,横浜市緑区,東本郷６丁目３－２－２２２,,14,113,2260002,,,,,,,2024-10-17,1,,,,,ヨコハマチイキカッセイエンアイキコウ,0
103,1021001083502,新規,0,2024-10-17,2024-10-17,株式会社Ｓｕｎｎｙ,,株式会社,神奈川県,藤沢市,湘南台６丁目４７番地の１,,14,205,2520804,,,,,,,2024-10-17,1,,,,,サニー,0
104,1021001083519,新規,0,2024-10-17,2024-10-17,木村不動産管理株式会社,,株式会社,神奈川県,小田原市,蓮正寺１５９番地,00136672,14,206,2500865,,,,,,,2024-10-17,1,,,,,キムラフドウサンカンリ,0
109,1021005013199,新規,0,2024-10-17,2024-10-17,一般社団法人輝くこども創造未来,,その他の設立登記法人,神奈川県,相模原市南区,南台５丁目２２番１４－５号,,14,153,2520314,,,,,,,2024-10-17,1,,,,,カガヤクコドモソウゾウミライ,0
121,1040001135823,新規,0,2024-10-17,2024-10-17,株式会社アレフガルド,,株式会社,千葉県,柏市,篠籠田１４９４番地４,,12,217,2770862,,,,,,,2024-10-17,1,,,,,アレフガルド,0
122,1040001135831,新規,0,2024-10-17,2024-10-17,株式会社ＯＴＫ,,株式会社,千葉県,印西市,大塚３丁目２００番地３,,12,231,2701352,,,,,,,2024-10-17,1,,,,,オーティーケー,0
123,1040001135856,新規,0,2024-10-17,2024-10-17,日友株式会社,,株式会社,千葉県,松戸市,胡録台１６８番地の６中山ビル４０１,,12,207,2710075,,,,,,,2024-10-17,1,,,,,ニチユウ,0
125,1040003025997,新規,0,2024-10-17,2024-10-17,合同会社ミルフィオーレ,,合同会社,千葉県,千葉市花見川区,千種町１３番地５,,12,102,2620012,,,,,,,2024-10-17,1,,,,,ミルフィオーレ,0
136,1080005007651,新規,0,2024-10-17,2024-10-17,一般社団法人上河原墓地管理組合,,その他の設立登記法人,静岡県,島田市,中河９番地,,22,209,4270103,,,,,,,2024-10-17,1,,,,,カミカワラボチカンリクミアイ,0
137,1080101025061,新規,0,2024-10-17,2024-10-17,谷流株式会社,,株式会社,静岡県,田方郡函南町,平井１７５３番地の１０４３ラッキークレスト２０１,,22,325,4190107,,,,,,,2024-10-17,1,,,,,タニリュウ,0
144,1110001038779,新規,0,2024-10-17,2024-10-17,株式会社ＡＬＩＣＥ,,株式会社,新潟県,長岡市,宮内町３２４８番地４,,15,202,9401155,,,,,,,2024-10-17,1,,,,,アリス,0
152,1120001269209,新規,0,2024-10-17,2024-10-17,株式会社ＬＩＦＥ　ｉｓ　ＥＮＴＥＲＴＡＩＮＭＥＮＴ,,株式会社,大阪府,大阪市福島区,福島１丁目２－３０市光ビル２階,,27,103,5530003,,,,,,,2024-10-17,1,,,,,ライフイズエンターテイメント,0
153,1120001269316,新規,0,2024-10-17,2024-10-17,宇石株式会社,,株式会社,大阪府,大阪市東淀川区,下新庄２丁目８－１６セントラル淡路３０４,,27,114,5330021,,,,,,,2024-10-17,1,,,,,ウセキ,0
154,1120001269349,新規,0,2024-10-17,2024-10-17,Ｒｅｎａｔｕｓ株式会社,,株式会社,大阪府,大阪市中央区,瓦町３丁目４番７号ＫＣビル７階,,27,128,5410048,,,,,,,2024-10-17,1,,,,,レナトゥス,0
155,1120001269357,新規,0,2024-10-17,2024-10-17,ＢＩＧ不動産株式会社,,株式会社,大阪府,大阪市東成区,大今里南１丁目２２番１４号今里ビル５０６号,,27,115,5370013,,,,,,,2024-10-17,1,,,,,ビッグフドウサン,0
156,1120001269381,新規,0,2024-10-17,2024-10-17,株式会社Ｒｅｅｄ　Ｇｒｏｕｐ,,株式会社,大阪府,大阪市平野区,流町３丁目２番９号,,27,126,5470032,,,,,,,2024-10-17,1,,,,,リードグループ,0
157,1120001269398,新規,0,2024-10-17,2024-10-17,株式会社ＢＧＭ,,株式会社,大阪府,門真市,下馬伏町２０番２０号,,27,223,5710009,,,,,,,2024-10-17,1,,,,,ビージーエム,0
158,1120001269472,新規,0,2024-10-17,2024-10-17,株式会社ＭＡＳＴ　ＳＨＯＷ,,株式会社,大阪府,大阪市西成区,玉出東２丁目１４番２８号,,27,122,5570043,,,,,,,2024-10-17,1,,,,,マストショウ,0
161,1120003027762,新規,0,2024-10-17,2024-10-17,合同会社虹,,合同会社,大阪府,大阪市東住吉区,公園南矢田２丁目１６－１９公園南２山本Ｃ号,,27,121,5460024,,,,,,,2024-10-17,1,,,,,ニジ,0
162,1120003027770,新規,0,2024-10-17,2024-10-17,合同会社ｈｅｉｎｅ,,合同会社,大阪府,大阪市福島区,大開３丁目７番１－９０２号,,27,103,5530007,,,,,,,2024-10-17,1,,,,,ヘイネ,0
163,1120005024584,新規,0,2024-10-17,2024-10-17,一般社団法人白頭学院建国会,,その他の設立登記法人,大阪府,大阪市天王寺区,勝山２丁目３番１０号,,27,109,5430043,,,,,,,2024-10-17,1,,,,,ハクトウガクインケンコクカイ,0
166,1120101070425,新規,0,2024-10-17,2024-10-17,株式会社電空,,株式会社,大阪府,堺市南区,泉田中２４３１番地３０,,27,145,5900126,,,,,,,2024-10-17,1,,,,,デンクウ,0
171,1130001078146,新規,0,2024-10-17,2024-10-17,株式会社ソラーナ,,株式会社,京都府,福知山市,字長田２４５番地の３２,,26,201,6200000,,,,,,,2024-10-17,1,,,,,ソラーナ,0
172,1130001078154,新規,0,2024-10-17,2024-10-17,株式会社福清舎,,株式会社,京都府,京都市左京区,下鴨松原町４６番地３,,26,103,6060804,,,,,,,2024-10-17,1,,,,,フクセイシャ,0
173,1130001078162,新規,0,2024-10-17,2024-10-17,ＴＡＧ　ＰＲＯＴＥＣＴ株式会社,,株式会社,京都府,京都市下京区,高辻通新町西入堀之内町２７２番地７－３階,00136661,26,106,6008446,,,,,,,2024-10-17,1,,,,,タッグプロテクト,0
174,1130003009933,新規,0,2024-10-17,2024-10-17,合同会社テラピコ,,合同会社,京都府,京都市東山区,福稲御所ノ内町３４番地１ハイム福稲Ａ棟７０９号,,26,105,6050987,,,,,,,2024-10-17,1,,,,,テラピコ,0
181,1140001136118,新規,0,2024-10-17,2024-10-17,株式会社みつばハウス,,株式会社,兵庫県,尼崎市,昭和通４丁目１１７,,28,202,6600881,,,,,,,2024-10-17,1,,,,,ミツバハウス,0
186,1140003021202,新規,0,2024-10-17,2024-10-17,合同会社ＮＳテック,,合同会社,兵庫県,西宮市,樋ノ口町２丁目７番１４－４０８号,,28,204,6638011,,,,,,,2024-10-17,1,,,,,エヌエステック,0
188,1150003003397,新規,0,2024-10-17,2024-10-17,合同会社塔の森書店,,合同会社,奈良県,奈良市,茗荷町１８１番地,,29,201,6302175,,,,,,,2024-10-17,1,,,,,トウノモリショテン,0
189,1160001026275,新規,0,2024-10-17,2024-10-17,快楽蜂株式会社,,株式会社,滋賀県,大津市,唐崎２丁目１６番１０号,,25,201,5200106,,,,,,,2024-10-17,1,,,,,カイラクホウ,0
197,1180001163587,新規,0,2024-10-17,2024-10-17,株式会社幸伸ホームグループ,,株式会社,愛知県,名古屋市昭和区,御器所２丁目５番６号,,23,107,4660051,,,,,,,2024-10-17,1,,,,,コウシンホームグループ,0
204,1180301039149,新規,0,2024-10-17,2024-10-17,株式会社ＹＨＮ,,株式会社,愛知県,刈谷市,相生町１丁目２３番地,,23,210,4480027,,,,,,,2024-10-17,1,,,,,ワイエイチエヌ,0
208,1190001031735,新規,0,2024-10-17,2024-10-17,株式会社ヤミークリエイション,,株式会社,三重県,津市,羽所町３３０番地,,24,201,5140009,,,,,,,2024-10-17,1,,,,,ヤミークリエイション,0
210,1200001043043,新規,0,2024-10-17,2024-10-17,株式会社田村,,株式会社,岐阜県,大垣市,墨俣町墨俣５４６番地１０,,21,202,5030102,,,,,,,2024-10-17,1,,,,,タムラ,0
211,1200001043051,新規,0,2024-10-17,2024-10-17,株式会社華央,,株式会社,岐阜県,恵那市,大井町２４６番地３０,,21,210,5097201,,,,,,,2024-10-17,1,,,,,ハナオ,0
217,1240001063938,新規,0,2024-10-17,2024-10-17,株式会社ＭＫ　ｔｒａｎｓ,,株式会社,広島県,山県郡北広島町,上石５４０番地,,34,369,7311702,,,,,,,2024-10-17,1,,,,,エムケイトランス,0
218,1240001063954,新規,0,2024-10-17,2024-10-17,株式会社ロイヤルパワーアップコーポレーション,,株式会社,広島県,広島市安芸区,船越南４丁目８番３０号,,34,107,7360082,,,,,,,2024-10-17,1,,,,,ロイヤルパワーアップコーポレーション,0
219,1240001063962,新規,0,2024-10-17,2024-10-17,株式会社螢技研,,株式会社,広島県,竹原市,新庄町９４５番地６,,34,203,7250003,,,,,,,2024-10-17,1,,,,,ホタルギケン,0
220,1240001063970,新規,0,2024-10-17,2024-10-17,株式会社Ｈｉｒｏｓｈｉｍａ　Ｒｉｓｅ,,株式会社,広島県,広島市西区,田方３丁目１４００番地１,,34,104,7330851,,,,,,,2024-10-17,1,,,,,ヒロシマライズ,0
222,1240003006894,新規,0,2024-10-17,2024-10-17,合同会社ＬＩｆｅ　Ｌｉｎｅ,,合同会社,広島県,東広島市,西条町田口３６８番地２７,,34,212,7390036,,,,,,,2024-10-17,1,,,,,ライフライン,0
223,1260001039548,新規,0,2024-10-17,2024-10-17,岡山真果園株式会社,,株式会社,岡山県,総社市,小寺１９３番地５,,33,208,7191155,,,,,,,2024-10-17,1,,,,,オカヤマシンカエン,0
228,1290001107590,新規,0,2024-10-17,2024-10-17,株式会社スウチカ,,株式会社,福岡県,福岡市東区,雁の巣２丁目３２番４－１０１号,,40,131,8110206,,,,,,,2024-10-17,1,,,,,スウチカ,0
229,1290001107616,新規,0,2024-10-17,2024-10-17,株式会社トップ,,株式会社,福岡県,福岡市博多区,堅粕１丁目２６番２０－２Ａ２,,40,132,8120043,,,,,,,2024-10-17,1,,,,,トップ,0
230,1290001107624,新規,0,2024-10-17,2024-10-17,株式会社アークネクスト,,株式会社,福岡県,福岡市南区,平和２丁目７番２４号４Ｆ,,40,134,8150071,,,,,,,2024-10-17,1,,,,,アークネクスト,0
231,1290001107632,新規,0,2024-10-17,2024-10-17,暁莉不動産株式会社,,株式会社,福岡県,大野城市,中３丁目３番５－３０１号,,40,219,8160906,,,,,,,2024-10-17,1,,,,,アカリフドウサン,0
232,1290001107649,新規,0,2024-10-17,2024-10-17,株式会社ＴＥＮＳＥＧＲＩＴＹ,,株式会社,福岡県,福岡市博多区,博多駅前３丁目１１番１８号ＢＡＬ．ＨＡＫＡＴＡ１Ｆ,,40,132,8120011,,,,,,,2024-10-17,1,,,,,テンセグリティ,0
234,1290003015940,新規,0,2024-10-17,2024-10-17,平塚合同会社,,合同会社,福岡県,久留米市,西町１２２２番地１,,40,203,8300038,,,,,,,2024-10-17,1,,,,,ヒラツカ,0
235,1290003015949,新規,0,2024-10-17,2024-10-17,合同会社とみながペットクリニック,,合同会社,福岡県,福岡市東区,水谷２丁目２番２９号,,40,131,8130041,,,,,,,2024-10-17,1,,,,,トミナガペットクリニック,0
237,1290803004861,新規,0,2024-10-17,2024-10-17,Ｔ．Ｓ．Ｍ合同会社,,合同会社,福岡県,北九州市小倉南区,吉田にれの木坂２丁目７番５号,,40,107,8000210,,,,,,,2024-10-17,1,,,,,ティーエスエム,0
238,1300003002193,新規,0,2024-10-17,2024-10-17,Ｋ＆Ｒ　Ｂｒｏｓ合同会社,,合同会社,佐賀県,佐賀市,駅南本町４番２４号,,41,201,8400816,,,,,,,2024-10-17,1,,,,,ケーアンドアールブロス,0
239,1310001019263,新規,0,2024-10-17,2024-10-17,株式会社セレスト,,株式会社,長崎県,佐世保市,常盤町８－１８,,42,202,8570053,,,,,,,2024-10-17,1,,,,,セレスト,0
241,1320001020765,新規,0,2024-10-17,2024-10-17,株式会社ｅｍｉｆｕｌｌ,,株式会社,大分県,大分市,中央町１丁目４番２４号大分セントラルビル２Ｆ,,44,201,8700035,,,,,,,2024-10-17,1,,,,,エミフル,0
242,1320001020773,新規,0,2024-10-17,2024-10-17,株式会社三誠,,株式会社,大分県,大分市,花高松１丁目４番６号パークサイド花高松８０２,,44,201,8700915,,,,,,,2024-10-17,1,,,,,サンセイ,0
247,1330003010581,新規,0,2024-10-17,2024-10-17,合同会社ｍａｎｏｏ,,合同会社,熊本県,熊本市中央区,坪井２丁目２番９－１号,,43,101,8600863,,,,,,,2024-10-17,1,,,,,マヌー,0
252,1360001034324,新規,0,2024-10-17,2024-10-17,株式会社Ｎｉａ,,株式会社,沖縄県,那覇市,久茂地２丁目２－２タイムスビル２階,,47,201,9000015,,,,,,,2024-10-17,1,,,,,ニア,0
256,1390001017763,新規,0,2024-10-17,2024-10-17,株式会社ＬａｎｄＣｏ．,,株式会社,山形県,西置賜郡飯豊町,大字椿字町内４４２０番地,,06,403,9990604,,,,,,,2024-10-17,1,,,,,ランドコ,0
258,1420001018898,新規,0,2024-10-17,2024-10-17,株式会社音羽離宮,,株式会社,青森県,平川市,碇ヶ関三笠山８２番地,,02,210,0380101,,,,,,,2024-10-17,1,,,,,オトワリキュウ,0
266,1470001020420,新規,0,2024-10-17,2024-10-17,日本ルースト株式会社,,株式会社,香川県,高松市,林町２２１７番地４４ネクスト香川２０２号室,,37,201,7610301,,,,,,,2024-10-17,1,,,,,ニホンルースト,0
268,1480003002192,新規,0,2024-10-17,2024-10-17,ＡＪ商会合同会社,,合同会社,徳島県,徳島市,国府町和田字原淵３５番地６,,36,201,7793121,,,,,,,2024-10-17,1,,,,,エイジェイショウカイ,0
272,1700150127521,新規,0,2024-10-17,2024-10-17,Ｎａｍｅｃｏ（Ｎｏ．１３９９）Ｌｉｍｉｔｅｄ,,外国会社等,,,,,,,,Ｏｎｅ　Ｌｉｍｅ　Ｓｔｒｅｅｔ，Ｌｏｎｄｏｎ　ＥＣ３Ｍ　７ＨＡ　ＵＫ,,,,,,2024-10-17,1,,,,,ネームコナンバーワンスリーナインナインリミテツド,0
282,2010001248833,新規,0,2024-10-17,2024-10-17,株式会社住生活新聞,,株式会社,東京都,中央区,東日本橋３丁目３番１４号,,13,102,1030004,,,,,,,2024-10-17,1,,,,,ジュウセイカツシンブン,0
283,2010001249039,新規,0,2024-10-17,2024-10-17,アニスピ株式会社,,株式会社,東京都,千代田区,九段南２丁目３番２５号平安堂ビル３階,,13,101,1020074,,,,,,,2024-10-17,1,,,,,アニスピ,0
284,2010001249105,新規,0,2024-10-17,2024-10-17,昇橋貿易株式会社,,株式会社,東京都,中央区,新川１丁目２０番１号９階,,13,102,1040033,,,,,,,2024-10-17,1,,,,,ショウバシボウエキ,0
285,2010001249113,新規,0,2024-10-17,2024-10-17,株式会社バディ・ホールディングス,,株式会社,東京都,千代田区,丸の内１丁目９番２号,,13,101,1000005,,,,,,,2024-10-17,1,,,,,バディホールディングス,0
286,2010001249121,新規,0,2024-10-17,2024-10-17,株式会社信陽堂,,株式会社,東京都,文京区,本郷３丁目２１番２－３０１号,,13,105,1130033,,,,,,,2024-10-17,1,,,,,シンヨウドウ,0
287,2010001249195,新規,0,2024-10-17,2024-10-17,株式会社叶ラボ,,株式会社,東京都,文京区,水道１丁目１２－１プライマル小石川２１１,,13,105,1120005,,,,,,,2024-10-17,1,,,,,カノウラボ,0
293,2010005038958,新規,0,2024-10-17,2024-10-17,ＭＳ　Ｖｅｎｔｕｒｅｓ税理士法人,,その他の設立登記法人,東京都,千代田区,神田小川町２丁目４－１４フィールドクレストビル８階,,13,101,1010052,,,,,,,2024-10-17,1,,,,,エムエスベンチャーズ,0
300,2010401185833,新規,0,2024-10-17,2024-10-17,ＤＡＨＳ０１株式会社,,株式会社,東京都,港区,六本木１丁目６番１号,,13,103,1060032,,,,,,,2024-10-17,1,,,,,ディーエイエイチエスゼロワン,0
305,2010405023691,新規,0,2024-10-17,2024-10-17,札幌インベストメンツ特定目的会社,,その他の設立登記法人,東京都,港区,六本木１丁目６番１号泉ガーデンタワー,,13,103,1060032,,,,,,,2024-10-17,1,,,,,サッポロインベストメンツ,0
308,2010501053048,新規,0,2024-10-17,2024-10-17,千科匯盈株式会社,,株式会社,東京都,台東区,台東２丁目２７番３号ＮＳＫビル１０Ｆ,,13,106,1100016,,,,,,,2024-10-17,1,,,,,センカカイエイ,0
312,2010503007596,新規,0,2024-10-17,2024-10-17,合同会社ゆう,,合同会社,東京都,台東区,東上野４丁目１５－１,,13,106,1100015,,,,,,,2024-10-17,1,,,,,ユウ,0
314,2010601066107,新規,0,2024-10-17,2024-10-17,ＳＥＡ　ＹＯＵ株式会社,,株式会社,東京都,墨田区,太平１丁目２番１０号,,13,107,1300012,,,,,,,2024-10-17,1,,,,,シーユー,0
320,2010701046660,新規,0,2024-10-17,2024-10-17,株式会社フィーチャーテクノロジー,,株式会社,東京都,品川区,西五反田６丁目２５番２号,,13,109,1410031,,,,,,,2024-10-17,1,,,,,フィーチャーテクノロジー,0
321,2010701046685,新規,0,2024-10-17,2024-10-17,シェリーブラン株式会社,,株式会社,東京都,品川区,戸越２丁目９番９号,,13,109,1420041,,,,,,,2024-10-17,1,,,,,シェリーブラン,0
326,2010901056138,新規,0,2024-10-17,2024-10-17,やさいくる株式会社,,株式会社,東京都,世田谷区,若林５丁目３番７号１Ｆ,,13,112,1540023,,,,,,,2024-10-17,1,,,,,ヤサイクル,0
327,2010901056154,新規,0,2024-10-17,2024-10-17,株式会社Ａｓｃｅｎｄａ,,株式会社,東京都,世田谷区,弦巻３丁目１５番２４号,,13,112,1540016,,,,,,,2024-10-17,1,,,,,アセンダ,0
328,2010903009424,新規,0,2024-10-17,2024-10-17,ＶＯＤ合同会社,,合同会社,東京都,世田谷区,中町５丁目１番１０号,,13,112,1580091,,,,,,,2024-10-17,1,,,,,ブイオーディー,0
337,2011001165119,新規,0,2024-10-17,2024-10-17,株式会社ＡＫメディカル,,株式会社,東京都,渋谷区,幡ヶ谷１丁目３４番５号,,13,113,1510072,,,,,,,2024-10-17,1,,,,,エーケーメディカル,0
338,2011001165151,新規,0,2024-10-17,2024-10-17,株式会社キッズサポート,,株式会社,東京都,目黒区,下目黒１丁目１番１４号コノトラビル７Ｆ,,13,110,1530064,,,,,,,2024-10-17,1,,,,,キッズサポート,0
339,2011001165408,新規,0,2024-10-17,2024-10-17,株式会社Ｗｅｌｌｇｏｏｄ,,株式会社,東京都,渋谷区,渋谷２丁目１９‐１５宮益坂ビルディング６０９,,13,113,1500002,,,,,,,2024-10-17,1,,,,,ウェルグッド,0
341,2011003020230,新規,0,2024-10-17,2024-10-17,合同会社Ｄｉｖｅｒｓ,,合同会社,東京都,渋谷区,神南１丁目１１‐４ＦＰＧリンクス神南５階,,13,113,1500041,,,,,,,2024-10-17,1,,,,,ダイバース,0
343,2011101108927,新規,0,2024-10-17,2024-10-17,蒼蓮株式会社,,株式会社,東京都,新宿区,西新宿３丁目３番地１３号西新宿水間ビル２階,,13,104,1600023,,,,,,,2024-10-17,1,,,,,アオハス,0
344,2011103015048,新規,0,2024-10-17,2024-10-17,合同会社サンシームーン,,合同会社,東京都,新宿区,新宿２丁目２番１－８０２号,,13,104,1600022,,,,,,,2024-10-17,1,,,,,サンシームーン,0
347,2011401026507,新規,0,2024-10-17,2024-10-17,株式会社庄内電工,,株式会社,東京都,板橋区,高島平１丁目３３番１０号,,13,119,1750082,,,,,,,2024-10-17,1,,,,,ショウナイデンコウ,0
350,2011703004004,新規,0,2024-10-17,2024-10-17,合同会社未来シフトＬａｂ,,合同会社,東京都,江戸川区,西葛西７丁目１３番１－５０１号レジデンス鹿野ＩＩ,00136671,13,123,1340088,,,,,,,2024-10-17,1,,,,,ミライシフトラボ,0
351,2012401042386,新規,0,2024-10-17,2024-10-17,フェアネスライフ株式会社,,株式会社,東京都,三鷹市,下連雀５丁目１番１－３７９号,,13,204,1810013,,,,,,,2024-10-17,1,,,,,フェアネスライフ,0
352,2012401042394,新規,0,2024-10-17,2024-10-17,株式会社イーストルート,,株式会社,東京都,調布市,東つつじケ丘２丁目２８番地３,,13,208,1820005,,,,,,,2024-10-17,1,,,,,イーストルート,0
356,2012703003103,新規,0,2024-10-17,2024-10-17,合同会社ヒトノ,,合同会社,東京都,西東京市,ひばりが丘北４丁目２－２４,,13,229,2020002,,,,,,,2024-10-17,1,,,,,ヒトノ,0
361,2013301053218,新規,0,2024-10-17,2024-10-17,株式会社ＳＣ　ｄｉｒｅｃｔ,,株式会社,東京都,豊島区,池袋２丁目４３番３号田村ビル４Ｆ,,13,116,1710014,,,,,,,2024-10-17,1,,,,,エスシーダイレクト,0
363,2020001159724,新規,0,2024-10-17,2024-10-17,貴Ｘ３株式会社一握入魂,,株式会社,神奈川県,川崎市多摩区,登戸３２６６番地３,,14,135,2140014,,,,,,,2024-10-17,1,,,,,タカミッツイッキュウニュウコン,0
365,2021001083492,新規,0,2024-10-17,2024-10-17,アールエム株式会社,,株式会社,神奈川県,平塚市,東中原２丁目１８番１５号,,14,203,2540077,,,,,,,2024-10-17,1,,,,,アールエム,0
366,2021001083501,新規,0,2024-10-17,2024-10-17,株式会社ウィング,,株式会社,神奈川県,相模原市南区,大野台２丁目１６番４号サンドエル４０３,,14,153,2520331,,,,,,,2024-10-17,1,,,,,ウィング,0
367,2021001083518,新規,0,2024-10-17,2024-10-17,株式会社ハルキ産業,,株式会社,神奈川県,藤沢市,善行坂１丁目７番５～３０４号,,14,205,2510876,,,,,,,2024-10-17,1,,,,,ハルキサンギョウ,0
371,2021003015106,新規,0,2024-10-17,2024-10-17,ＤＩＹＡＮＳＡ合同会社,,合同会社,神奈川県,相模原市中央区,宮下本町２丁目１０－８,,14,152,2520211,,,,,,,2024-10-17,1,,,,,ディアナサ,0
378,2030001162966,新規,0,2024-10-17,2024-10-17,株式会社ｋｕｍａｎｄ,,株式会社,埼玉県,さいたま市大宮区,桜木町２丁目３５１番地田中ビル１階,,11,103,3300854,,,,,,,2024-10-17,1,,,,,クマンド,0
379,2030001162990,新規,0,2024-10-17,2024-10-17,株式会社奏ＳＯ,,株式会社,埼玉県,蓮田市,椿山３丁目２番２号,,11,238,3490144,,,,,,,2024-10-17,1,,,,,ソウ,0
384,2030003025320,新規,0,2024-10-17,2024-10-17,ＮＡＭＩＫＡＺＥ合同会社,,合同会社,埼玉県,所沢市,日吉町２番２号,,11,208,3591123,,,,,,,2024-10-17,1,,,,,ナミカゼ,0
386,2040001135814,新規,0,2024-10-17,2024-10-17,株式会社大隈プラント,,株式会社,千葉県,市原市,五井３４０７番地５,,12,219,2900056,,,,,,,2024-10-17,1,,,,,オオクマプラント,0
387,2040001135822,新規,0,2024-10-17,2024-10-17,株式会社Ｇｅｎｅｒｉｚｅ,,株式会社,千葉県,千葉市中央区,弁天２丁目１８番１０号,,12,101,2600045,,,,,,,2024-10-17,1,,,,,ジェネライズ,0
388,2040001135830,新規,0,2024-10-17,2024-10-17,株式会社アルカンジュホールディングス,,株式会社,千葉県,千葉市若葉区,貝塚２丁目３番４１号クレスト１０１,,12,104,2640020,,,,,,,2024-10-17,1,,,,,アルカンジュホールディングス,0
389,2040001135839,新規,0,2024-10-17,2024-10-17,株式会社悠兼,,株式会社,千葉県,市川市,宮久保１丁目１２号１８号,,12,203,2720822,,,,,,,2024-10-17,1,,,,,ユウケン,0
390,2040003025996,新規,0,2024-10-17,2024-10-17,暁の朝遠東事務合同会社,,合同会社,千葉県,松戸市,小金原６丁目７番地小金原団地１１棟４０３号,,12,207,2700021,,,,,,,2024-10-17,1,,,,,アカツキノアサエントウジム,0
391,2040005022521,新規,0,2024-10-17,2024-10-17,一般社団法人ピープルパワー,,その他の設立登記法人,千葉県,山武郡横芝光町,木戸台１３２４番地,,12,410,2891744,,,,,,,2024-10-17,1,,,,,ピープルパワー,0
404,2080403005124,新規,0,2024-10-17,2024-10-17,合同会社ＳＳＨ,,合同会社,静岡県,浜松市中央区,野口町３２６番地,,22,138,4300919,,,,,,,2024-10-17,1,,,,,シンセンスヒール,0
409,2100001037913,新規,0,2024-10-17,2024-10-17,株式会社ギギ,,株式会社,長野県,北佐久郡軽井沢町,大字追分１６６０番地４,,20,321,3890115,,,,,,,2024-10-17,1,,,,,ギギ,0
412,2110001038778,新規,0,2024-10-17,2024-10-17,株式会社はなえむ,,株式会社,新潟県,新潟市西区,新中浜２丁目３番地１９,,15,107,9502163,,,,,,,2024-10-17,1,,,,,ハナエム,0
420,2120001269059,新規,0,2024-10-17,2024-10-17,育音堂株式会社,,株式会社,大阪府,大阪市平野区,加美北５丁目７番３１号,,27,126,5470001,,,,,,,2024-10-17,1,,,,,イクオンドウ,0
421,2120001269331,新規,0,2024-10-17,2024-10-17,貝易和居株式会社,,株式会社,大阪府,大阪市西成区,天神ノ森１丁目４番１３,,27,122,5570013,,,,,,,2024-10-17,1,,,,,カイエキ,0
422,2120001269389,新規,0,2024-10-17,2024-10-17,株式会社Ｆｏｏｄ＆Ｅｘｅｒｃｉｓｅ　Ｌａｂ,,株式会社,大阪府,大阪市旭区,大宮５丁目１６－１,,27,117,5350002,,,,,,,2024-10-17,1,,,,,フードアンドエクササイズラボラトリー,0
423,2120001269414,新規,0,2024-10-17,2024-10-17,株式会社オフィスＴＡ,,株式会社,大阪府,大阪市住吉区,長峡町７番２０－２０１号,,27,120,5580044,,,,,,,2024-10-17,1,,,,,オフィスティーエー,0
424,2120001269422,新規,0,2024-10-17,2024-10-17,Ｓ＆Ｒ株式会社,,株式会社,大阪府,大阪市中央区,島之内２丁目４番２４－３０１号,,27,128,5420082,,,,,,,2024-10-17,1,,,,,エスアンドアール,0
425,2120001269430,新規,0,2024-10-17,2024-10-17,株式会社Ｚｙｏｏ,,株式会社,大阪府,大阪市中央区,東心斎橋１丁目９番１９－３０７号,,27,128,5420083,,,,,,,2024-10-17,1,,,,,ジョー,0
426,2120001269521,新規,0,2024-10-17,2024-10-17,ＡＩサポーターズ株式会社,,株式会社,大阪府,大阪市中央区,南久宝寺町４丁目４番１２号ＩＢセンタービル２Ｆ－Ｃ,,27,128,5410058,,,,,,,2024-10-17,1,,,,,アイサポーターズ,0
429,2120003027753,新規,0,2024-10-17,2024-10-17,合同会社ＯＨＡＮＡ,,合同会社,大阪府,大阪市福島区,吉野３丁目２－３７ｃｒａｆｔ福島野田５０３,,27,103,5530006,,,,,,,2024-10-17,1,,,,,オハナ,0
430,2120003027761,新規,0,2024-10-17,2024-10-17,１‐ｓｈｏｗ合同会社,,合同会社,大阪府,大阪市浪速区,桜川２丁目８番２５－４０２号,,27,111,5560022,,,,,,,2024-10-17,1,,,,,イッショウ,0
431,2120003027778,新規,0,2024-10-17,2024-10-17,合同会社レミオ,,合同会社,大阪府,大阪市西成区,天下茶屋１丁目６番２４－４０２号,,27,122,5570014,,,,,,,2024-10-17,1,,,,,レミオ,0
436,2120005024583,新規,0,2024-10-17,2024-10-17,一般社団法人観光立国協議会,,その他の設立登記法人,大阪府,大阪市福島区,海老江５丁目３番１１号忠愛ビル４階,,27,103,5530001,,,,,,,2024-10-17,1,,,,,カンコウリッコクキョウギカイ,0
440,2120901049915,新規,0,2024-10-17,2024-10-17,株式会社創煌,,株式会社,大阪府,豊中市,上野東３丁目１８番４０の４号,,27,203,5600013,,,,,,,2024-10-17,1,,,,,ソウコウ,0
441,2120903005379,新規,0,2024-10-17,2024-10-17,合同会社たちつてと,,合同会社,大阪府,吹田市,穂波町１９番８号,,27,205,5640042,,,,,,,2024-10-17,1,,,,,タチツテト,0
444,2122001038542,新規,0,2024-10-17,2024-10-17,株式会社月建設,,株式会社,大阪府,柏原市,法善寺３丁目５番２３号,,27,221,5820005,,,,,,,2024-10-17,1,,,,,ツキケンセツ,0
449,2130001078137,新規,0,2024-10-17,2024-10-17,株式会社Ｂｅｌｌｏｎａ,,株式会社,京都府,久世郡久御山町,佐山西ノ口１番地８,,26,322,6130034,,,,,,,2024-10-17,1,,,,,ベローナ,0
451,2130003009932,新規,0,2024-10-17,2024-10-17,合同会社トラフィックセーフ,,合同会社,京都府,京都市北区,大北山原谷乾町４０番地５５,,26,101,6038487,,,,,,,2024-10-17,1,,,,,トラフィックセーフ,0
452,2130003009940,新規,0,2024-10-17,2024-10-17,合同会社ラクユウ,,合同会社,京都府,京都市中京区,一之船入町５３７リベルタス御池６０１,,26,104,6040924,,,,,,,2024-10-17,1,,,,,ラクユウ,0
460,2140001136117,新規,0,2024-10-17,2024-10-17,株式会社ウェイク,,株式会社,兵庫県,西宮市,小松町１丁目８番３号,,28,204,6638127,,,,,,,2024-10-17,1,,,,,ウェイク,0
461,2140001136125,新規,0,2024-10-17,2024-10-17,株式会社エクセルシオ,,株式会社,兵庫県,神戸市東灘区,住吉東町５丁目１番３７号エクセルシオ植田２０１号,,28,101,6580052,,,,,,,2024-10-17,1,,,,,エクセルシオ,0
464,2140005027238,新規,0,2024-10-17,2024-10-17,ＮＰＯ法人ありの台,,その他の設立登記法人,兵庫県,神戸市北区,有野台３丁目１０番の４,,28,109,6511321,,,,,,,2024-10-17,1,,,,,アリノダイ,0
472,2160001026282,新規,0,2024-10-17,2024-10-17,株式会社アイシーテック,,株式会社,滋賀県,大津市,蓮池町３番４号,,25,201,5200001,,,,,,,2024-10-17,1,,,,,アイシーテック,0
473,2160001026290,新規,0,2024-10-17,2024-10-17,株式会社ハピネスタッフ,,株式会社,滋賀県,大津市,浜大津３丁目１０－１レ・ジェイド浜大津３０３号,,25,201,5200047,,,,,,,2024-10-17,1,,,,,ハピネスタッフ,0
474,2160003003313,新規,0,2024-10-17,2024-10-17,合同会社ススム,,合同会社,滋賀県,守山市,今宿２丁目１０番２７号,,25,207,5240046,,,,,,,2024-10-17,1,,,,,ススム,0
486,2180301039148,新規,0,2024-10-17,2024-10-17,株式会社Ｔｒｕｅ　Ｂｅａｕｔｙ,,株式会社,愛知県,豊田市,小坂本町１丁目５番地１,,23,211,4710034,,,,,,,2024-10-17,1,,,,,トゥルービューティー,0
487,2180303006311,新規,0,2024-10-17,2024-10-17,合同会社ＦＩＤＥＳ,,合同会社,愛知県,豊田市,西岡町星ケ丘１番地レジデンス高岡２１１０２号,,23,211,4730937,,,,,,,2024-10-17,1,,,,,フィデス,0
497,2220001026268,新規,0,2024-10-17,2024-10-17,株式会社ベルズホーム,,株式会社,石川県,金沢市,米泉町１０丁目１番地１４３,,17,201,9218044,,,,,,,2024-10-17,1,,,,,ベルズホーム,0
503,2240001063945,新規,0,2024-10-17,2024-10-17,株式会社ビーエルワイ,,株式会社,広島県,広島市東区,牛田中２丁目１番１２－１０２号,,34,102,7320065,,,,,,,2024-10-17,1,,,,,ビーエルワイ,0
504,2240001063953,新規,0,2024-10-17,2024-10-17,株式会社ロイヤルドライビングスクール広島,,株式会社,広島県,広島市安芸区,船越南５丁目２番４号,,34,107,7360082,,,,,,,2024-10-17,1,,,,,ロイヤルドライビングスクールヒロシマ,0
505,2240001063961,新規,0,2024-10-17,2024-10-17,Ｓｅｎｓｅ株式会社,,株式会社,広島県,三原市,久井町坂井原４０４番地,,34,204,7221414,,,,,,,2024-10-17,1,,,,,センス,0
509,2260001039539,新規,0,2024-10-17,2024-10-17,株式会社桃太郎のからくり博物館,,株式会社,岡山県,倉敷市,連島中央４丁目１１番２３号,,33,202,7128014,,,,,,,2024-10-17,1,,,,,モモタロウノカラクリハクブツカン,0
514,2290001107532,新規,0,2024-10-17,2024-10-17,株式会社ハノミカタ,,株式会社,福岡県,福岡市博多区,博多駅前２丁目１９番１７号トーカン博多第５ビル３１２号室,,40,132,8120011,,,,,,,2024-10-17,1,,,,,ハノミカタ,0
515,2290001107607,新規,0,2024-10-17,2024-10-17,ＩＤＥＮＳプラント株式会社,,株式会社,福岡県,那珂川市,松木１丁目３０番地１－１００２号,,40,231,8111251,,,,,,,2024-10-17,1,,,,,アイデンスプラント,0
516,2290001107615,新規,0,2024-10-17,2024-10-17,株式会社ＳＩＭＰＬＥＳＴＥＰ,,株式会社,福岡県,福岡市中央区,舞鶴１丁目３番３１－４１８号,,40,133,8100073,,,,,,,2024-10-17,1,,,,,シンプルステップ,0
517,2290001107631,新規,0,2024-10-17,2024-10-17,株式会社まつもと薬局,,株式会社,福岡県,糟屋郡粕屋町,大字仲原２８１９番地１エスポワール粕屋３０４号,,40,349,8112304,,,,,,,2024-10-17,1,,,,,マツモトヤッキョク,0
518,2290001107656,新規,0,2024-10-17,2024-10-17,株式会社ＡＬＵＭＹ,,株式会社,福岡県,福岡市中央区,渡辺通３丁目６番２３号ラコルタ天神２Ｆ,,40,133,8100004,,,,,,,2024-10-17,1,,,,,アルミー,0
519,2290801030966,新規,0,2024-10-17,2024-10-17,株式会社金東,,株式会社,福岡県,北九州市小倉北区,下富野１丁目１番２７号１階,,40,106,8020023,,,,,,,2024-10-17,1,,,,,キントウ,0
521,2300003002192,新規,0,2024-10-17,2024-10-17,合同会社オーセン,,合同会社,佐賀県,唐津市,相知町平山上甲１０５６番地,,41,202,8493203,,,,,,,2024-10-17,1,,,,,オーセン,0
525,2320001020772,新規,0,2024-10-17,2024-10-17,株式会社ＲｅｇＡｒｄ,,株式会社,大分県,大分市,明野北２丁目７番３５－７０６号,,44,201,8700165,,,,,,,2024-10-17,1,,,,,リガード,0
533,2330003010606,新規,0,2024-10-17,2024-10-17,合同会社リルカンパニー,,合同会社,熊本県,熊本市西区,野中３丁目５番７号,,43,103,8600059,,,,,,,2024-10-17,1,,,,,リルカンパニー,0
538,2360001034323,新規,0,2024-10-17,2024-10-17,株式会社ＰＡＲ　ＣＡＲ,,株式会社,沖縄県,那覇市,三原２丁目５番５－３０４号富原アパート,,47,201,9020063,,,,,,,2024-10-17,1,,,,,パーカー,0
540,2360003014389,新規,0,2024-10-17,2024-10-17,安護合同会社,,合同会社,沖縄県,名護市,大北３丁目２３番６号ハイツいらは１０３,,47,209,9050019,,,,,,,2024-10-17,1,,,,,アゴ,0
541,2370001051838,新規,0,2024-10-17,2024-10-17,株式会社Ｔｖａｓｅ,,株式会社,宮城県,登米市,迫町佐沼字梅ノ木１丁目３番地１２－１０３,,04,212,9870511,,,,,,,2024-10-17,1,,,,,ティーベース,0
543,2380003005873,新規,0,2024-10-17,2024-10-17,濱風商事合同会社,,合同会社,福島県,南相馬市,鹿島区小池字原畑８０－４,,07,212,9792453,,,,,,,2024-10-17,1,,,,,ハマカゼショウジ,0
544,2380003005881,新規,0,2024-10-17,2024-10-17,合同会社ルポ,,合同会社,福島県,東白川郡矢祭町,大字東舘字舘本９―１,,07,482,9635118,,,,,,,2024-10-17,1,,,,,ルポ,0
546,2400001016829,新規,0,2024-10-17,2024-10-17,株式会社ｅｖｏ,,株式会社,岩手県,北上市,青柳町１丁目２番１９号,,03,206,0240031,,,,,,,2024-10-17,1,,,,,エボ,0
548,2420003003014,新規,0,2024-10-17,2024-10-17,合同会社協心工業,,合同会社,青森県,青森市,大字安田字近野１２番地８６,,02,201,0380021,,,,,,,2024-10-17,1,,,,,キョウシンコウギョウ,0
555,2440001009507,新規,0,2024-10-17,2024-10-17,サンエー化学株式会社,,株式会社,北海道,亀田郡七飯町,字上藤城２２８番地の５,,01,337,0411104,,,,,,,2024-10-17,1,,,,,サンエーカガク,0
560,2480001012622,新規,0,2024-10-17,2024-10-17,株式会社ＡＲＫクリーン,,株式会社,徳島県,阿南市,横見町畑中下７番地１,,36,204,7740042,,,,,,,2024-10-17,1,,,,,エーアールケイクリーン,0
561,2500001025943,新規,0,2024-10-17,2024-10-17,株式会社リアットスティブル,,株式会社,愛媛県,松山市,苞木２番地４,,38,201,7992460,,,,,,,2024-10-17,1,,,,,リアットスティブル,0
562,2700150127479,新規,0,2024-10-17,2024-10-17,Ｊｏｈｎｓｏｎ　Ｃｏｎｔｒｏｌｓ　Ａｉｒ　Ｃｏｎｄｉｔｉｏｎｉｎｇ　Ｓｕｐｐｌｙ（Ｍ）　Ｓｄｎ．Ｂｈｄ．,,外国会社等,,,,,,,,Ｌｅｖｅｌ　２１，Ｓｕｉｔｅ　２１．０１，Ｔｈｅ　Ｇａｒｄｅｎｓ　Ｓｏｕｔｈ　Ｔｏｗｅｒ，Ｍｉｄ　Ｖａｌｌｅｙ　Ｃｉｔｙ，Ｌｉｎｇｋａｒａｎ　Ｓｙｅｄ　Ｐｕｔｒａ，５９２００　ＫｕａｌａＬｕｍｐｕｒ，Ｍａｌａｙｓｉａ,,,,,,2024-10-17,1,,,,,ジヨンソンコントロールズエアーコンデイシヨニングサプライスンデイリアンブルハド,0
563,2700150127520,新規,0,2024-10-17,2024-10-17,Ｎａｍｅｃｏ（Ｎｏ　１３７５）Ｌｉｍｉｔｅｄ,,外国会社等,,,,,,,,Ｏｎｅ　Ｌｉｍｅ　Ｓｔｒｅｅｔ，Ｌｏｎｄｏｎ　ＥＣ３Ｍ　７ＨＡ　ＵＫ,,,,,,2024-10-17,1,,,,,ネームコナンバーワンスリーセブンフアイブリミテツド,0
567,3010001248790,新規,0,2024-10-17,2024-10-17,株式会社Ｌｏｕｐ,,株式会社,東京都,中央区,湊３丁目８番１－８０３号,,13,102,1040043,,,,,,,2024-10-17,1,,,,,ルゥ,0
568,3010001249112,新規,0,2024-10-17,2024-10-17,株式会社ＳＯＵパートナーズ,,株式会社,東京都,中央区,日本橋室町１丁目２番６号日本橋大栄ビル,,13,102,1030022,,,,,,,2024-10-17,1,,,,,エスオーユーパートナーズ,0
570,3010003045229,新規,0,2024-10-17,2024-10-17,合同会社アイノテ,,合同会社,東京都,中央区,銀座１丁目１２番４号Ｎ＆ＥＢＬＤ．６Ｆ,,13,102,1040061,,,,,,,2024-10-17,1,,,,,アイノテ,0
573,3010005038973,新規,0,2024-10-17,2024-10-17,一般社団法人トラスト・サポート,,その他の設立登記法人,東京都,千代田区,外神田２丁目３番地６号成田ビル新館８階,,13,101,1010021,,,,,,,2024-10-17,1,,,,,トラストサポート,0
583,3010501053047,新規,0,2024-10-17,2024-10-17,バンカーウィズ株式会社,,株式会社,東京都,台東区,三ノ輪１丁目１５番１４‐２０３号,,13,106,1100011,,,,,,,2024-10-17,1,,,,,バンカーウィズ,0
584,3010501053055,新規,0,2024-10-17,2024-10-17,株式会社ＳＫ,,株式会社,東京都,台東区,上野５丁目１６番４号,,13,106,1100005,,,,,,,2024-10-17,1,,,,,エスケイ,0
587,3010603011150,新規,0,2024-10-17,2024-10-17,合同会社ミニマルライフ,,合同会社,東京都,江東区,亀戸１丁目３８－５－９０２,,13,108,1360071,,,,,,,2024-10-17,1,,,,,ミニマルライフ,0
589,3010801035488,新規,0,2024-10-17,2024-10-17,株式会社Ｃ．Ｃ．Ｓ,,株式会社,東京都,大田区,西糀谷２丁目２２番２３号Ｃｅｒｉｓｉｅｒ１０１号室,,13,111,1440034,,,,,,,2024-10-17,1,,,,,シーシーエス,0
590,3010901056153,新規,0,2024-10-17,2024-10-17,株式会社Ｋｎｏｃｋ‐Ｏｎ,,株式会社,東京都,世田谷区,池尻４丁目３５番２６号,,13,112,1540001,,,,,,,2024-10-17,1,,,,,ノックオン,0
600,3011001165209,新規,0,2024-10-17,2024-10-17,株式会社ＹｕｉＤｅｓｉｇｎ,,株式会社,東京都,渋谷区,恵比寿３丁目２１－６恵比寿ガーデンヒルズ３０１,,13,113,1500013,,,,,,,2024-10-17,1,,,,,ユイデザイン,0
601,3011001165274,新規,0,2024-10-17,2024-10-17,株式会社Ａｒｃ,,株式会社,東京都,目黒区,中目黒５丁目２７番１８号,,13,110,1530061,,,,,,,2024-10-17,1,,,,,アーク,0
602,3011001165282,新規,0,2024-10-17,2024-10-17,株式会社ＰｏｎｓＮａｇｉ,,株式会社,東京都,渋谷区,東２丁目２４番６号,,13,113,1500011,,,,,,,2024-10-17,1,,,,,ポンスナギ,0
608,3011101109164,新規,0,2024-10-17,2024-10-17,Ｐｏｗｅｒ’ｓ株式会社,,株式会社,東京都,新宿区,西新宿３丁目３－１３西新宿水間ビル６Ｆ,,13,104,1600023,,,,,,,2024-10-17,1,,,,,パワーズ,0
609,3011103015030,新規,0,2024-10-17,2024-10-17,合同会社フォレストスロープ,,合同会社,東京都,新宿区,歌舞伎町１丁目６番１４号,,13,104,1600021,,,,,,,2024-10-17,1,,,,,フォレストスロープ,0
614,3011301030095,新規,0,2024-10-17,2024-10-17,株式会社グローバルクリエイティブ,,株式会社,東京都,杉並区,浜田山２丁目２４番３号,,13,115,1680065,,,,,,,2024-10-17,1,,,,,グローバルクリエイティブ,0
615,3011401026506,新規,0,2024-10-17,2024-10-17,株式会社アーツネクサス,,株式会社,東京都,板橋区,坂下１丁目２８番２号,,13,119,1740043,,,,,,,2024-10-17,1,,,,,アーツネクサス,0
622,3012401042393,新規,0,2024-10-17,2024-10-17,応信商事株式会社,,株式会社,東京都,府中市,矢崎町４丁目１番地,,13,206,1830025,,,,,,,2024-10-17,1,,,,,オウシンショウジ,0
623,3012803003530,新規,0,2024-10-17,2024-10-17,合同会社弥生,,合同会社,東京都,東大和市,清水２丁目８２２番地の２,,13,220,2070004,,,,,,,2024-10-17,1,,,,,ヤヨイ,0
629,3020001159632,新規,0,2024-10-17,2024-10-17,株式会社Ｋａｉ　Ｌａｎｉ,,株式会社,神奈川県,横浜市神奈川区,片倉５丁目２７番１５号,,14,102,2210865,,,,,,,2024-10-17,1,,,,,カイラニ,0
630,3020001159681,新規,0,2024-10-17,2024-10-17,株式会社高部総業,,株式会社,神奈川県,横浜市港北区,日吉７丁目１２番２５号,,14,109,2230061,,,,,,,2024-10-17,1,,,,,タカベソウギョウ,0
636,3021001083509,新規,0,2024-10-17,2024-10-17,株式会社Ｗｉｔｈ　Ｌｉｖｉｎｇ,,株式会社,神奈川県,茅ヶ崎市,本村４丁目８番２２号,,14,207,2530042,,,,,,,2024-10-17,1,,,,,ウィズリビング,0
643,3030001162528,新規,0,2024-10-17,2024-10-17,東輝株式会社,,株式会社,埼玉県,蕨市,塚越１丁目４番１８号トーカンマンション蕨５０８号室,,11,223,3350002,,,,,,,2024-10-17,1,,,,,トウキ,0
644,3030001162924,新規,0,2024-10-17,2024-10-17,株式会社ｗｉｎｄ　ｆｌｏｗｅｒ,,株式会社,埼玉県,川口市,西川口１丁目２０番６号ティアラ２１－２０１号室,,11,203,3320021,,,,,,,2024-10-17,1,,,,,ウインドフラワー,0
645,3030001162932,新規,0,2024-10-17,2024-10-17,株式会社Ｆｒｅａｔ,,株式会社,埼玉県,三郷市,鷹野１丁目３７９番地,,11,237,3410035,,,,,,,2024-10-17,1,,,,,フリート,0
646,3030001162940,新規,0,2024-10-17,2024-10-17,株式会社ｒｅｆｌｅｘｉｏｎ,,株式会社,埼玉県,八潮市,大字古新田１６８－３,,11,234,3400823,,,,,,,2024-10-17,1,,,,,リフレクション,0
647,3030001162981,新規,0,2024-10-17,2024-10-17,株式会社未来教育道,,株式会社,埼玉県,さいたま市大宮区,上小町８３８,,11,103,3300855,,,,,,,2024-10-17,1,,,,,ミライキョウイクドウ,0
648,3030001163022,新規,0,2024-10-17,2024-10-17,株式会社Ｉｎｎｅｒ　Ｌｉｇｈｔ,,株式会社,埼玉県,所沢市,大字北岩岡５３６番地の１,,11,208,3590007,,,,,,,2024-10-17,1,,,,,インナーライト,0
649,3030001163030,新規,0,2024-10-17,2024-10-17,株式会社エスダブ,,株式会社,埼玉県,さいたま市大宮区,仲町３丁目１０１－１ラ・ムエット大宮５０３,,11,103,3300845,,,,,,,2024-10-17,1,,,,,エスダブ,0
661,3040001135813,新規,0,2024-10-17,2024-10-17,株式会社ＴＲＵＳＴ　ＳＴＥＰ５４,,株式会社,千葉県,市川市,新浜１丁目９番１５－５０１号,,12,203,2720136,,,,,,,2024-10-17,1,,,,,トラストステップゴジュウヨン,0
662,3040001135821,新規,0,2024-10-17,2024-10-17,株式会社ディライト,,株式会社,千葉県,市原市,菊間２４８番地１,,12,219,2900007,,,,,,,2024-10-17,1,,,,,ディライト,0
663,3040001135838,新規,0,2024-10-17,2024-10-17,トラストシーズ株式会社,,株式会社,千葉県,柏市,南増尾８丁目７－３３,,12,217,2770054,,,,,,,2024-10-17,1,,,,,トラストシーズ,0
664,3040001135862,新規,0,2024-10-17,2024-10-17,株式会社ＲＩＢＵＫＡ,,株式会社,千葉県,船橋市,本町５丁目２―１２シティホームズ船橋本町３０８,,12,204,2730005,,,,,,,2024-10-17,1,,,,,リブカ,0
670,3040003025995,新規,0,2024-10-17,2024-10-17,合同会社雅,,合同会社,千葉県,松戸市,胡録台２０７番地の３,,12,207,2710075,,,,,,,2024-10-17,1,,,,,ミヤビ,0
671,3040003026003,新規,0,2024-10-17,2024-10-17,ＨＯＡＮＧ　ＡＮＨ合同会社,,合同会社,千葉県,船橋市,習志野台６丁目１４番１６号習志野台レジデンス１０２号,,12,204,2740063,,,,,,,2024-10-17,1,,,,,ホアンアイン,0
676,3050003008743,新規,0,2024-10-17,2024-10-17,花合同会社,,合同会社,茨城県,日立市,鹿島町１丁目３８番地,,08,202,3170071,,,,,,,2024-10-17,1,,,,,ハナ,0
678,3060003005285,新規,0,2024-10-17,2024-10-17,ウェルビーイング４０８合同会社,,合同会社,栃木県,塩谷郡塩谷町,大字船生３１８２番地２,,09,384,3292441,,,,,,,2024-10-17,1,,,,,,0
688,3110001038777,新規,0,2024-10-17,2024-10-17,ＴＩＦＦＩＮ株式会社,,株式会社,新潟県,燕市,小高６２４５番地１,,15,213,9591241,,,,,,,2024-10-17,1,,,,,ティフィン,0
700,3120001269421,新規,0,2024-10-17,2024-10-17,株式会社裕寿喜,,株式会社,大阪府,大阪市北区,梅田２丁目２番２号ヒルトンプラザウエスト１８階,,27,127,5300001,,,,,,,2024-10-17,1,,,,,ユズキ,0
701,3120001269446,新規,0,2024-10-17,2024-10-17,ＭｏｏｎＳｔａｒ株式会社,,株式会社,大阪府,大阪市住吉区,庭井１丁目１１番５号,,27,120,5580012,,,,,,,2024-10-17,1,,,,,ムーンスター,0
706,3120003027744,新規,0,2024-10-17,2024-10-17,合同会社わんこね,,合同会社,大阪府,大阪市中央区,淡路町１丁目３番２号７階,,27,128,5410047,,,,,,,2024-10-17,1,,,,,ワンコネ,0
707,3120003027752,新規,0,2024-10-17,2024-10-17,Ｌｉｂｅｒｔｅ　Ｃｏｎｓｕｌｔｉｎｇ合同会社,,合同会社,大阪府,大阪市北区,梅田２丁目２番２号ヒルトンプラザウエストオフィスタワー１９階,,27,127,5300001,,,,,,,2024-10-17,1,,,,,リベルテコンサルティング,0
708,3120003027769,新規,0,2024-10-17,2024-10-17,合同会社ＫＮ,,合同会社,大阪府,大阪市天王寺区,大道４丁目３－１２,,27,109,5430052,,,,,,,2024-10-17,1,,,,,ケーエヌ,0
710,3120005024582,新規,0,2024-10-17,2024-10-17,Ｂｒｕｎｔｏｎ監査法人,,その他の設立登記法人,大阪府,大阪市中央区,北浜３丁目５－２２オリックス淀屋橋ビル３階,,27,128,5410041,,,,,,,2024-10-17,1,,,,,ブラントン,0
712,3122001038541,新規,0,2024-10-17,2024-10-17,具現株式会社,,株式会社,大阪府,東大阪市,寿町３丁目１４番２０号,,27,227,5770837,,,,,,,2024-10-17,1,,,,,グゲン,0
718,3130001078152,新規,0,2024-10-17,2024-10-17,株式会社ＣＡＭ,,株式会社,京都府,京都市中京区,蛸薬師通烏丸東入一蓮社町３０６番地,,26,104,6048146,,,,,,,2024-10-17,1,,,,,シーエイエム,0
720,3130003009931,新規,0,2024-10-17,2024-10-17,ケーエスアイ合同会社,,合同会社,京都府,京都市山科区,竹鼻立原町５番地５藤和ライブタウン山科２１９,,26,110,6078084,,,,,,,2024-10-17,1,,,,,ケーエスアイ,0
727,3140001136099,新規,0,2024-10-17,2024-10-17,株式会社さくらレーベン,,株式会社,兵庫県,姫路市,花田町小川１７６番地,,28,201,6710255,,,,,,,2024-10-17,1,,,,,サクラレーベン,0
728,3140001136132,新規,0,2024-10-17,2024-10-17,株式会社ブリリアント北海道,,株式会社,兵庫県,神戸市中央区,磯辺通３丁目２番１７号ＫＯＷＡワールド三宮ビル,,28,110,6510084,,,,,,,2024-10-17,1,,,,,ブリリアントホッカイドウ,0
730,3140003021191,新規,0,2024-10-17,2024-10-17,合同会社ｍｏｎａｔｏ,,合同会社,兵庫県,神戸市須磨区,行幸町１丁目１番３３－５０１号,,28,107,6540052,,,,,,,2024-10-17,1,,,,,モナト,0
731,3140005027237,新規,0,2024-10-17,2024-10-17,一般社団法人からだこころデザイン,,その他の設立登記法人,兵庫県,神戸市北区,藤原台南町４丁目１－１－Ａ５０５,,28,109,6511303,,,,,,,2024-10-17,1,,,,,カラダココロデザイン,0
735,3160003003312,新規,0,2024-10-17,2024-10-17,東新合同会社,,合同会社,滋賀県,栗東市,六地蔵８３７番地,,25,208,5203017,,,,,,,2024-10-17,1,,,,,トウシン,0
739,3180001163759,新規,0,2024-10-17,2024-10-17,株式会社ＳＴＫ,,株式会社,愛知県,名古屋市緑区,鏡田４１２番地の２,,23,114,4580803,,,,,,,2024-10-17,1,,,,,エスティケー,0
744,3180301039147,新規,0,2024-10-17,2024-10-17,株式会社Ｋ＆Ｓ,,株式会社,愛知県,安城市,和泉町宮ノ腰３５番地２,,23,212,4441221,,,,,,,2024-10-17,1,,,,,ケーアンドエス,0
747,3190003004828,新規,0,2024-10-17,2024-10-17,合同会社ニーサプライ,,合同会社,三重県,員弁郡東員町,大字山田３０７６‐１,,24,324,5110251,,,,,,,2024-10-17,1,,,,,ニーサプライ,0
752,3220001026267,新規,0,2024-10-17,2024-10-17,株式会社ＭＯ・ＬＩＦＥ,,株式会社,石川県,能美市,宮竹町イ８９番地１,,17,211,9231205,,,,,,,2024-10-17,1,,,,,エムオーライフ,0
756,3240001063944,新規,0,2024-10-17,2024-10-17,株式会社Ｇ‐ＦＲＯＮＴ,,株式会社,広島県,広島市安佐南区,伴東３丁目６番１３号２Ｆ,,34,105,7313164,,,,,,,2024-10-17,1,,,,,ジーフロント,0
757,3240001063952,新規,0,2024-10-17,2024-10-17,株式会社ロイヤルドライビングスクール,,株式会社,広島県,福山市,松永町４丁目１５番３１号,,34,207,7290104,,,,,,,2024-10-17,1,,,,,ロイヤルドライビングスクール,0
758,3240001063960,新規,0,2024-10-17,2024-10-17,株式会社中津屋,,株式会社,広島県,広島市中区,中島町１０番１１－３０１号,,34,101,7300811,,,,,,,2024-10-17,1,,,,,ナカツヤ,0
759,3240003006901,新規,0,2024-10-17,2024-10-17,合同会社ぷかぷかセブン,,合同会社,広島県,福山市,日吉台２丁目１２番１９号,,34,207,7210972,,,,,,,2024-10-17,1,,,,,プカプカセブン,0
760,3260001039546,新規,0,2024-10-17,2024-10-17,ＨＡＲＥＮＯＹＡ株式会社,,株式会社,岡山県,津山市,横山３７３番地１０,,33,203,7080862,,,,,,,2024-10-17,1,,,,,ハレノヤ,0
761,3260001039554,新規,0,2024-10-17,2024-10-17,Ｒｅ‐ＨＥＲＯ株式会社,,株式会社,岡山県,岡山市北区,奉還町３丁目２１番１５号アルファステイツ岡山駅西３０５,,33,101,7000026,,,,,,,2024-10-17,1,,,,,リヒーロー,0
769,3290001107606,新規,0,2024-10-17,2024-10-17,株式会社ＴＬＣコーポレーション,,株式会社,福岡県,柳川市,三橋町白鳥４７９番地５,,40,207,8320815,,,,,,,2024-10-17,1,,,,,ティーエルシーコーポレーション,0
770,3290001107614,新規,0,2024-10-17,2024-10-17,株式会社西本工務店,,株式会社,福岡県,飯塚市,太郎丸８２７番地３,,40,205,8200076,,,,,,,2024-10-17,1,,,,,ニシモトコウムテン,0
771,3290001107655,新規,0,2024-10-17,2024-10-17,スクウェアキャピタル株式会社,,株式会社,福岡県,福岡市中央区,黒門５－１８,,40,133,8100055,,,,,,,2024-10-17,1,,,,,スクウェアキャピタル,0
777,3290003015947,新規,0,2024-10-17,2024-10-17,合同会社笑徳ＴＨＫ,,合同会社,福岡県,福岡市中央区,長浜２丁目２番８－１９０３号ザ・パークハウス赤坂タワーレジデンス,,40,133,8100072,,,,,,,2024-10-17,1,,,,,ショウトクティーエイチケイ,0
787,3330002013105,新規,0,2024-10-17,2024-10-17,有限会社熊本インテリア,,有限会社,熊本県,熊本市南区,出仲間４丁目２番４７号,,43,104,8620963,,,,,,,2024-10-17,1,,,,,,0
799,3370003006780,新規,0,2024-10-17,2024-10-17,合同会社おばら興業,,合同会社,宮城県,仙台市泉区,松陵４丁目４０番地の５,,04,105,9813108,,,,,,,2024-10-17,1,,,,,オバラコウギョウ,0
804,3410001013964,新規,0,2024-10-17,2024-10-17,株式会社７’ｓ　ａｎｃｈｏｒａｇｅ,,株式会社,秋田県,能代市,中和１丁目１７番１３号,,05,202,0160843,,,,,,,2024-10-17,1,,,,,セブンズアンカレッジ,0
811,3420005007929,新規,0,2024-10-17,2024-10-17,特定非営利活動法人千の空,,その他の設立登記法人,青森県,五所川原市,字一ツ谷５０７番地３４,,02,205,0370016,,,,,,,2024-10-17,1,,,,,センノソラ,0
819,3470003002737,新規,0,2024-10-17,2024-10-17,ホームズ合同会社,,合同会社,香川県,高松市,室町１９２９番地１,,37,201,7618061,,,,,,,2024-10-17,1,,,,,ホームズ,0
820,3480001012621,新規,0,2024-10-17,2024-10-17,株式会社Ｗ’ｓ　Ｌｉｎｋ,,株式会社,徳島県,徳島市,東新町１丁目９番地サマンビル,,36,201,7700912,,,,,,,2024-10-17,1,,,,,ウィズリンク,0
822,3700150127478,新規,0,2024-10-17,2024-10-17,カウンターポイントリサーチ　株式会社,,外国会社等,東京都,渋谷区,恵比寿３丁目２０番１２号,,13,113,1500013,大韓民国ソウル特別市江南区テヘラン路１９ギル５、６階（ヨクサムドン）,,,,,,2024-10-17,1,,,,,カウンターポイントリサーチカブシキガイシヤ,0
828,4010001249103,新規,0,2024-10-17,2024-10-17,Ａｉｃｈｏ　Ｊａｐａｎ株式会社,,株式会社,東京都,千代田区,内幸町２丁目２番２号富国生命ビル渥美坂井法律事務所・外国法共同事業内,,13,101,1000011,,,,,,,2024-10-17,1,,,,,アイチョジャパン,0
829,4010001249152,新規,0,2024-10-17,2024-10-17,株式会社Ｄｒ．ｊｏｉｎｔ,,株式会社,東京都,文京区,千駄木５丁目３番１２号,,13,105,1130022,,,,,,,2024-10-17,1,,,,,ドクタージョイント,0
832,4010003045104,新規,0,2024-10-17,2024-10-17,合同会社ＲＯＩＲＯ,,合同会社,東京都,中央区,銀座１丁目１２－４Ｎ＆Ｅ・ＢＬＤ．７階,,13,102,1040061,,,,,,,2024-10-17,1,,,,,ロイロ,0
834,4010005038972,新規,0,2024-10-17,2024-10-17,京都向島開発特定目的会社,,その他の設立登記法人,東京都,中央区,日本橋１丁目４番１号,,13,102,1030027,,,,,,,2024-10-17,1,,,,,キョウトムカイジマカイハツ,0
835,4010005038980,新規,0,2024-10-17,2024-10-17,ジェイ・アール・エイチ・ワン特定目的会社,,その他の設立登記法人,東京都,千代田区,丸の内１丁目４番１号東京共同会計事務所内,,13,101,1000005,,,,,,,2024-10-17,1,,,,,ジェイアールエイチワン,0
843,4010401185823,新規,0,2024-10-17,2024-10-17,株式会社ＡＰ８１ホールディングス,,株式会社,東京都,港区,虎ノ門４丁目１番２８号虎ノ門タワーズオフィス１７階,,13,103,1050001,,,,,,,2024-10-17,1,,,,,エーピーハチジュウイチホールディングス,0
847,4010405023608,新規,0,2024-10-17,2024-10-17,一般社団法人春暉,,その他の設立登記法人,東京都,港区,新橋４丁目３１番６号,,13,103,1050004,,,,,,,2024-10-17,1,,,,,シュンキ,0
850,4010601066088,新規,0,2024-10-17,2024-10-17,青和株式会社,,株式会社,東京都,墨田区,亀沢４丁目１１番４号,,13,107,1300014,,,,,,,2024-10-17,1,,,,,アオワ,0
851,4010601066113,新規,0,2024-10-17,2024-10-17,株式会社ケトハレ,,株式会社,東京都,江東区,東陽２丁目３番１号,,13,108,1350016,,,,,,,2024-10-17,1,,,,,ケトハレ,0
852,4010601066121,新規,0,2024-10-17,2024-10-17,株式会社ＦＵＲＬＤ,,株式会社,東京都,江東区,扇橋１丁目２１番２６ー１１１３号,,13,108,1350011,,,,,,,2024-10-17,1,,,,,ファールド,0
853,4010603011158,新規,0,2024-10-17,2024-10-17,合同会社ニューゲート,,合同会社,東京都,墨田区,押上３丁目３６番９号,,13,107,1310045,,,,,,,2024-10-17,1,,,,,ニューゲート,0
854,4010701046691,新規,0,2024-10-17,2024-10-17,株式会社チェレステ,,株式会社,東京都,品川区,西大井４丁目９番６号,,13,109,1400015,,,,,,,2024-10-17,1,,,,,チェレステ,0
855,4010701046700,新規,0,2024-10-17,2024-10-17,ＭＰエンジニアリング株式会社,,株式会社,東京都,品川区,南大井２丁目７番９号３階,,13,109,1400013,,,,,,,2024-10-17,1,,,,,エムピーエンジニアリング,0
858,4010901056152,新規,0,2024-10-17,2024-10-17,株式会社Ｊｕｐｉｔｅｒ,,株式会社,東京都,世田谷区,三軒茶屋２丁目１１番２２号,,13,112,1540024,,,,,,,2024-10-17,1,,,,,ジュピター,0
868,4011001165364,新規,0,2024-10-17,2024-10-17,株式会社ＰＥＲ,,株式会社,東京都,目黒区,青葉台３丁目１３番１４号ａｏｂａｄａｉ．ｈｉｌｌｚ２０２号室,,13,110,1530042,,,,,,,2024-10-17,1,,,,,ピーイーアール,0
871,4011003020187,新規,0,2024-10-17,2024-10-17,フロットベック合同会社,,合同会社,東京都,目黒区,目黒本町１丁目９番１１号,,13,110,1520002,,,,,,,2024-10-17,1,,,,,フロットベック,0
873,4011005010707,新規,0,2024-10-17,2024-10-17,一般財団法人まちのこども財団,,その他の設立登記法人,東京都,渋谷区,桜丘町２３番１７号シティコート桜丘４０８,,13,113,1500031,,,,,,,2024-10-17,1,,,,,マチノコドモザイダン,0
876,4011101109139,新規,0,2024-10-17,2024-10-17,株式会社三刀流,,株式会社,東京都,新宿区,新宿４丁目３－１５レイフラット新宿Ｂ棟３Ｆ,,13,104,1600022,,,,,,,2024-10-17,1,,,,,サントウリュウ,0
877,4011101109196,新規,0,2024-10-17,2024-10-17,株式会社ブチャラティ,,株式会社,東京都,新宿区,西新宿３丁目３番１３号西新宿水間ビル２Ｆ,,13,104,1600023,,,,,,,2024-10-17,1,,,,,ブチャラティ,0
878,4011103015038,新規,0,2024-10-17,2024-10-17,Ｍ．Ｋ　ＣＲＥＡＴＥ合同会社,,合同会社,東京都,新宿区,新宿１丁目３２番４号エヌエスビル３階,,13,104,1600022,,,,,,,2024-10-17,1,,,,,エムケークリエイト,0
879,4011103015054,新規,0,2024-10-17,2024-10-17,合同会社ＳＰＧ,,合同会社,東京都,新宿区,新宿５丁目１５番６号新宿光陽ビル８０２,,13,104,1600022,,,,,,,2024-10-17,1,,,,,エスピージー,0
881,4011201025871,新規,0,2024-10-17,2024-10-17,株式会社ＴＯＭＯ,,株式会社,東京都,中野区,中野２丁目１番２号宮園コーポＢ１,,13,114,1640001,,,,,,,2024-10-17,1,,,,,トモ,0
886,4011301030078,新規,0,2024-10-17,2024-10-17,株式会社ＴＭ商会,,株式会社,東京都,杉並区,阿佐谷南２丁目２０－８－３０５,,13,115,1660004,,,,,,,2024-10-17,1,,,,,ティーエムショウカイ,0
887,4011301030094,新規,0,2024-10-17,2024-10-17,株式会社シノ商店,,株式会社,東京都,杉並区,高円寺南２丁目２８番４号コーポ荻原１０２,,13,115,1660003,,,,,,,2024-10-17,1,,,,,シノショウテン,0
891,4011501031264,新規,0,2024-10-17,2024-10-17,株式会社一,,株式会社,東京都,荒川区,町屋３丁目１３番９号,,13,118,1160001,,,,,,,2024-10-17,1,,,,,ハジメ,0
892,4011501031272,新規,0,2024-10-17,2024-10-17,株式会社ブルームチア,,株式会社,東京都,荒川区,西日暮里６丁目６５番１号日本運輸倉庫Ａ棟４Ｆ,,13,118,1160013,,,,,,,2024-10-17,1,,,,,ブルームチア,0
895,4012401042392,新規,0,2024-10-17,2024-10-17,株式会社ＭＡＲＶＥＬＯＵＳ,,株式会社,東京都,狛江市,岩戸南２丁目５番１号,,13,219,2010005,,,,,,,2024-10-17,1,,,,,マーベラス,0
900,4013301053224,新規,0,2024-10-17,2024-10-17,株式会社ＤｉａＣｏｂａｌｅｎｏ,,株式会社,東京都,豊島区,池袋２丁目６５番１７号,,13,116,1710014,,,,,,,2024-10-17,1,,,,,ディアコバレーノ,0
906,4020001159615,新規,0,2024-10-17,2024-10-17,株式会社リンクファンデリック,,株式会社,神奈川県,横浜市中区,長者町４丁目１１番７号,,14,104,2310033,,,,,,,2024-10-17,1,,,,,リンクファンデリック,0
907,4020001159672,新規,0,2024-10-17,2024-10-17,株式会社きらいし,,株式会社,神奈川県,横浜市青葉区,榎が丘２１番地４３,,14,117,2270063,,,,,,,2024-10-17,1,,,,,キライシ,0
908,4020001159706,新規,0,2024-10-17,2024-10-17,株式会社横濱屋ホールディングス,,株式会社,神奈川県,横浜市南区,宮元町４丁目９３番地,,14,105,2320016,,,,,,,2024-10-17,1,,,,,ヨコハマヤホールディングス,0
912,4020003027043,新規,0,2024-10-17,2024-10-17,犬と自然と人合同会社,,合同会社,神奈川県,横浜市鶴見区,北寺尾２丁目４－１８,,14,101,2300074,,,,,,,2024-10-17,1,,,,,イヌトシゼントヒト,0
915,4021001083499,新規,0,2024-10-17,2024-10-17,株式会社福服,,株式会社,神奈川県,相模原市緑区,吉野６８５番地５,,14,151,2520183,,,,,,,2024-10-17,1,,,,,フクフク,0
916,4021001083508,新規,0,2024-10-17,2024-10-17,株式会社Ｆｉｒｓｔ　Ｖｉｃｔｏｒｙ,,株式会社,神奈川県,相模原市中央区,向陽町５番１２－１号,,14,152,2520214,,,,,,,2024-10-17,1,,,,,ファーストビクトリー,0
921,4030001163021,新規,0,2024-10-17,2024-10-17,友清工業株式会社,,株式会社,埼玉県,越谷市,大字袋山３７５番地６,,11,222,3430032,,,,,,,2024-10-17,1,,,,,ユウセイコウギョウ,0
922,4030001163038,新規,0,2024-10-17,2024-10-17,株式会社ユーワン,,株式会社,埼玉県,さいたま市浦和区,針ヶ谷３丁目２番１１号,,11,107,3300075,,,,,,,2024-10-17,1,,,,,ユーワン,0
925,4030003025319,新規,0,2024-10-17,2024-10-17,ソリシオ合同会社,,合同会社,埼玉県,さいたま市浦和区,本太３丁目２４番１３－４０６号,,11,107,3300052,,,,,,,2024-10-17,1,,,,,ソリシオ,0
926,4030003025327,新規,0,2024-10-17,2024-10-17,合同会社ヴィオス,,合同会社,埼玉県,入間郡越生町,大字上野９２番地７,,11,327,3500415,,,,,,,2024-10-17,1,,,,,ヴィオス,0
927,4030003025335,新規,0,2024-10-17,2024-10-17,合同会社ＴＯＳＨＩ,,合同会社,埼玉県,狭山市,大字北入曽２９１番地の１０,,11,215,3501315,,,,,,,2024-10-17,1,,,,,トシ,0
931,4040001135829,新規,0,2024-10-17,2024-10-17,株式会社ＢＩＧ　ＵＰ,,株式会社,千葉県,袖ケ浦市,神納１２３７番地３,,12,229,2990257,,,,,,,2024-10-17,1,,,,,ビガップ,0
932,4040001135837,新規,0,2024-10-17,2024-10-17,エピックグローバル・ジャパン株式会社,,株式会社,千葉県,千葉市美浜区,若葉３丁目１－１８幕張ベイパーククロスレジデンスＳ２－１,,12,106,2610014,,,,,,,2024-10-17,1,,,,,エピックグローバルジャパン,0
933,4040001135845,新規,0,2024-10-17,2024-10-17,株式会社マリエス,,株式会社,千葉県,千葉市若葉区,みつわ台１丁目２７番１号エコガーデンＣ－２１４号,,12,104,2640032,,,,,,,2024-10-17,1,,,,,マリエス,0
937,4040003025994,新規,0,2024-10-17,2024-10-17,ナインティーンズ合同会社,,合同会社,千葉県,千葉市中央区,新宿１丁目１６番７安田ビル１０１号,,12,101,2600021,,,,,,,2024-10-17,1,,,,,ナインティーンズ,0
938,4040003026002,新規,0,2024-10-17,2024-10-17,ｍｕｔｕａｌ合同会社,,合同会社,千葉県,柏市,高南台１丁目１５番地７４,,12,217,2770942,,,,,,,2024-10-17,1,,,,,ミューチュアル,0
939,4040003026010,新規,0,2024-10-17,2024-10-17,合同会社リベラメンテ,,合同会社,千葉県,松戸市,串崎新田１５６－１,,12,207,2702216,,,,,,,2024-10-17,1,,,,,リベラメンテ,0
940,4040005022552,新規,0,2024-10-17,2024-10-17,一般社団法人日中農副産品貿易促進会,,その他の設立登記法人,千葉県,千葉市花見川区,花見川４番４棟３０８号,,12,102,2620046,,,,,,,2024-10-17,1,,,,,ニッチュウノウフクサンピンボウエキソクシンカイ,0
948,4070003005614,新規,0,2024-10-17,2024-10-17,合同会社ＬＡＲＳ,,合同会社,群馬県,太田市,高瀬町３２２―１０,,10,205,3730072,,,,,,,2024-10-17,1,,,,,ラース,0
951,4100003007813,新規,0,2024-10-17,2024-10-17,ｎｏｎａ合同会社,,合同会社,長野県,松本市,大字島立１４５８,,20,202,3900852,,,,,,,2024-10-17,1,,,,,ノナ,0
954,4110001038776,新規,0,2024-10-17,2024-10-17,丸堂養鯉場株式会社,,株式会社,新潟県,長岡市,三俵野町９２番地４,,15,202,9401136,,,,,,,2024-10-17,1,,,,,マルドウヨウリジョウ,0
955,4110005017140,新規,0,2024-10-17,2024-10-17,社会福祉法人聖愛会,,その他の設立登記法人,新潟県,新潟市北区,太夫浜２０４６番３,,15,101,9503112,,,,,,,2024-10-17,1,,,,,セイアイカイ,0
969,4120001269346,新規,0,2024-10-17,2024-10-17,亀山工業株式会社,,株式会社,大阪府,守口市,大久保町２丁目５番１－３０５号,,27,209,5700012,,,,,,,2024-10-17,1,,,,,カメヤマコウギョウ,0
970,4120001269370,新規,0,2024-10-17,2024-10-17,麗志株式会社,,株式会社,大阪府,大阪市旭区,大宮１丁目４－１２Ｋ４ビル１０１号室,,27,117,5350002,,,,,,,2024-10-17,1,,,,,レイシ,0
971,4120001269387,新規,0,2024-10-17,2024-10-17,株式会社ＨＲＳ,,株式会社,大阪府,大阪市北区,梅田１丁目１－３大阪駅前第３ビル２９階１－１－１号室,,27,127,5300001,,,,,,,2024-10-17,1,,,,,エイチアールエス,0
972,4120001269404,新規,0,2024-10-17,2024-10-17,株式会社末泰,,株式会社,大阪府,大阪市旭区,新森４丁目７番１８号ルミエール新森１０５,,27,117,5350022,,,,,,,2024-10-17,1,,,,,スエヒロ,0
973,4120001269429,新規,0,2024-10-17,2024-10-17,株式会社エクシアエステート,,株式会社,大阪府,大阪市西成区,岸里２丁目３番３６号,,27,122,5570041,,,,,,,2024-10-17,1,,,,,エクシアエステート,0
974,4120001269486,新規,0,2024-10-17,2024-10-17,株式会社元隆建設,,株式会社,大阪府,大阪市城東区,天王田１３番９－２０５号,,27,118,5360012,,,,,,,2024-10-17,1,,,,,ゲンリュウケンセツ,0
975,4120101070422,新規,0,2024-10-17,2024-10-17,株式会社橘屋又兵衛,,株式会社,大阪府,堺市堺区,神明町東２丁２番２号,,27,141,5900935,,,,,,,2024-10-17,1,,,,,タチバナヤマタベエ,0
976,4120103006093,新規,0,2024-10-17,2024-10-17,合同会社ＳＷＥＬＬ,,合同会社,大阪府,岸和田市,作才町１２５６番地２０２号,,27,202,5960826,,,,,,,2024-10-17,1,,,,,スウェル,0
977,4120901049905,新規,0,2024-10-17,2024-10-17,株式会社スターダストプレス,,株式会社,大阪府,豊中市,蛍池西町二丁目１４番７－１０３号,,27,203,5600000,,,,,,,2024-10-17,1,,,,,スターダストプレス,0
978,4120903005385,新規,0,2024-10-17,2024-10-17,合同会社ＴＳＵＮＡＧＡＲＩ,,合同会社,大阪府,豊中市,庄内東町３丁目１９番１８号,,27,203,5610831,,,,,,,2024-10-17,1,,,,,ツナガリ,0
980,4122001038532,新規,0,2024-10-17,2024-10-17,株式会社オールギブ,,株式会社,大阪府,東大阪市,六万寺町２丁目４番４５号,,27,227,5798061,,,,,,,2024-10-17,1,,,,,オールギブ,0
981,4122001038540,新規,0,2024-10-17,2024-10-17,株式会社ＹＫＲ,,株式会社,大阪府,東大阪市,南荘町３番２８号三洋ビル,,27,227,5798024,,,,,,,2024-10-17,1,,,,,ワイケイアール,0
988,4130001078151,新規,0,2024-10-17,2024-10-17,株式会社倖菜,,株式会社,京都府,京都市中京区,神泉苑通三条下る今新在家東町８５番地１,,26,104,6048802,,,,,,,2024-10-17,1,,,,,コウサイ,0
989,4130001078168,新規,0,2024-10-17,2024-10-17,ａｆｔｅｒｇｌｏｗ　ｗｏｒｋｓ株式会社,,株式会社,京都府,京都市下京区,七条通油小路東入大黒町２２７番地第２キョートビル４０２,,26,106,6008223,,,,,,,2024-10-17,1,,,,,アフターグロウワークス,0
1002,4180001163725,新規,0,2024-10-17,2024-10-17,ライフコンサルタント株式会社,,株式会社,愛知県,名古屋市瑞穂区,直来町３丁目１９番地の１,,23,108,4670865,,,,,,,2024-10-17,1,,,,,ライフコンサルタント,0
1006,4180301039146,新規,0,2024-10-17,2024-10-17,株式会社グリーンクラフト,,株式会社,愛知県,安城市,根崎町北根６１番地３,,23,212,4441212,,,,,,,2024-10-17,1,,,,,グリーンクラフト,0
1007,4180301039154,新規,0,2024-10-17,2024-10-17,株式会社ＧＹＢ‐ＬＡＢ,,株式会社,愛知県,岡崎市,大門４丁目７番地１（２階）,,23,202,4442135,,,,,,,2024-10-17,1,,,,,ジブラボ,0
1012,4200001043040,新規,0,2024-10-17,2024-10-17,株式会社ＫＵＴＳＵＲＯＧＩ,,株式会社,岐阜県,大垣市,馬場町８０番地,,21,202,5030922,,,,,,,2024-10-17,1,,,,,クツロギ,0
1013,4200001043049,新規,0,2024-10-17,2024-10-17,Ｌｅａ　Ｌｅａ株式会社,,株式会社,岐阜県,岐阜市,鏡島精華１丁目１０番３９－２０３号,,21,201,5010112,,,,,,,2024-10-17,1,,,,,レアレア,0
1024,4240001063951,新規,0,2024-10-17,2024-10-17,株式会社Ｅｎｉｓｈｉ,,株式会社,広島県,山県郡北広島町,春木４８４番地１,,34,369,7311531,,,,,,,2024-10-17,1,,,,,エニシ,0
1031,4290001107547,新規,0,2024-10-17,2024-10-17,株式会社ＧＧ　Ｐｌａｎｅｔｅｓ,,株式会社,福岡県,福岡市西区,今宿西１丁目１３－４８－２０１,,40,135,8190169,,,,,,,2024-10-17,1,,,,,ジージープラネッツ,0
1032,4290001107613,新規,0,2024-10-17,2024-10-17,株式会社アール・エフ,,株式会社,福岡県,福岡市中央区,舞鶴３丁目１番３０号,,40,133,8100073,,,,,,,2024-10-17,1,,,,,アールエフ,0
1033,4290001107621,新規,0,2024-10-17,2024-10-17,英志株式会社,,株式会社,福岡県,大野城市,仲畑１丁目９番３号,,40,219,8160921,,,,,,,2024-10-17,1,,,,,エイシ,0
1034,4290001107638,新規,0,2024-10-17,2024-10-17,株式会社ＬＯＮＧ　ＶＡＣＡＴＩＯＮ　ＲＥＳＯＲＴ,,株式会社,福岡県,福岡市東区,松島１丁目２１番２５号,,40,131,8120062,,,,,,,2024-10-17,1,,,,,ロングバケーションリゾート,0
1037,4290003015905,新規,0,2024-10-17,2024-10-17,ＳＥＥＭＡ合同会社,,合同会社,福岡県,久留米市,国分町１３１１番地３,,40,203,8390863,,,,,,,2024-10-17,1,,,,,シーマ,0
1038,4290003015938,新規,0,2024-10-17,2024-10-17,合同会社ＷＡＶＥ,,合同会社,福岡県,福岡市中央区,清川３丁目４－１１－１２０６,,40,133,8100005,,,,,,,2024-10-17,1,,,,,ウェーブ,0
1039,4290003015946,新規,0,2024-10-17,2024-10-17,合同会社紫陽花,,合同会社,福岡県,筑後市,大字久富６０５番地２２,,40,211,8330056,,,,,,,2024-10-17,1,,,,,アジサイ,0
1041,4290801030956,新規,0,2024-10-17,2024-10-17,株式会社Ａｖｅｎｉｒ,,株式会社,福岡県,宮若市,上大隈６８８番地２,,40,226,8230005,,,,,,,2024-10-17,1,,,,,アヴニール,0
1044,4300001013941,新規,0,2024-10-17,2024-10-17,株式会社アライズ,,株式会社,佐賀県,佐賀市,本庄町大字鹿子４０３番地２,,41,201,8400025,,,,,,,2024-10-17,1,,,,,アライズ,0
1047,4310001019269,新規,0,2024-10-17,2024-10-17,株式会社Ａｒｔｅ,,株式会社,長崎県,長崎市,江戸町４番３号円口ビル７階,,42,201,8500861,,,,,,,2024-10-17,1,,,,,アルテ,0
1049,4320001020770,新規,0,2024-10-17,2024-10-17,株式会社Ｚ不動産,,株式会社,大分県,大分市,坂ノ市中央２丁目４番３５号,,44,201,8700307,,,,,,,2024-10-17,1,,,,,ゼットフドウサン,0
1060,4360001034321,新規,0,2024-10-17,2024-10-17,株式会社Ｌｅａｒａ,,株式会社,沖縄県,島尻郡与那原町,字東浜３番地の１レーヴグランディ東浜２０１,,47,348,9011304,,,,,,,2024-10-17,1,,,,,レアラ,0
1062,4360003014387,新規,0,2024-10-17,2024-10-17,リフォーム心合同会社,,合同会社,沖縄県,島尻郡八重瀬町,字新城２１２５番地４,,47,362,9010503,,,,,,,2024-10-17,1,,,,,リフォームククル,0
1066,4380001034848,新規,0,2024-10-17,2024-10-17,修繕工房株式会社,,株式会社,福島県,石川郡玉川村,大字四辻新田字弥左衛門平２６番地,00136664,07,502,9636301,,,,,,,2024-10-17,1,,,,,シュウゼンコウボウ,0
1076,4430005015087,新規,0,2024-10-17,2024-10-17,行政書士法人マッチポイント,,その他の設立登記法人,北海道,札幌市中央区,南二条西１２丁目３２４番地１１南２条藤井ビル６階,,01,101,0600062,,,,,,,2024-10-17,1,,,,,マッチポイント,0
1078,4470001020418,新規,0,2024-10-17,2024-10-17,秀梓ファーム株式会社,,株式会社,香川県,観音寺市,大野原町内野々２８３番地１,,37,205,7691622,,,,,,,2024-10-17,1,,,,,シュウシファーム,0
1082,4500001025941,新規,0,2024-10-17,2024-10-17,Ｙ．Ｓａｋｕｒａ株式会社,,株式会社,愛媛県,松山市,本町７丁目１番地４ライオンズマンション２０１号,,38,201,7900811,,,,,,,2024-10-17,1,,,,,ワイサクラ,0
1084,4500003003350,新規,0,2024-10-17,2024-10-17,ＬＥＬＵＮＡ合同会社,,合同会社,愛媛県,西条市,喜多川８０５番地２－１０２号室,,38,206,7930042,,,,,,,2024-10-17,1,,,,,レルナ,0
1085,4700150127519,新規,0,2024-10-17,2024-10-17,Ｎｏｍｉｎａ　Ｎｏ　６０８　ＬＬＰ,,外国会社等,,,,,,,,Ｏｎｅ　Ｌｉｍｅ　Ｓｔｒｅｅｔ，Ｌｏｎｄｏｎ　ＥＣ３Ｍ　７ＨＡ　ＵＫ,,,,,,2024-10-17,1,,,,,ノミナナンバーシツクスゼロエイトエルエルピー,0
1086,4700150127543,新規,0,2024-10-17,2024-10-17,Ｓｍａｒｔ　Ｐｒｉｎｔｉｎｇ　Ａｎｄ　Ｐａｃｋａｇｉｎｇ　Ｐｒｉｖａｔｅ　Ｌｉｍｉｔｅｄ,,外国会社等,千葉県,袖ケ浦市,蔵波台７丁目１２番地４,,12,229,2990245,ネパール連邦民主共和国、バグマティ州、チトワン群、バラツプル自治体９区,,,,,,2024-10-17,1,,,,,スマートプリンテイングアンドパツケージングプライベートリミテツド,0
1094,5010001249036,新規,0,2024-10-17,2024-10-17,ＢＰＴＹコンサルティング株式会社,,株式会社,東京都,中央区,日本橋箱崎町４１番９－７０２号,,13,102,1030015,,,,,,,2024-10-17,1,,,,,ビーピーティーワイコンサルティング,0
1096,5010003045193,新規,0,2024-10-17,2024-10-17,合同会社喜多川リュウ,,合同会社,東京都,中央区,勝どき６丁目３番１－３２２１号,,13,102,1040054,,,,,,,2024-10-17,1,,,,,キタガワリュウ,0
1100,5010401185822,新規,0,2024-10-17,2024-10-17,株式会社ＡＰ８１,,株式会社,東京都,港区,虎ノ門４丁目１番２８号虎ノ門タワーズオフィス１７階,,13,103,1050001,,,,,,,2024-10-17,1,,,,,エーピーハチジュウイチ,0
1101,5010401185830,新規,0,2024-10-17,2024-10-17,株式会社ＢＲＡＩＮ　ＪＡＰＡＮ,,株式会社,東京都,港区,南青山２丁目２－８ＤＦビル５階,,13,103,1070062,,,,,,,2024-10-17,1,,,,,ブレインジャパン,0
1103,5010403033616,新規,0,2024-10-17,2024-10-17,合同会社ｘｉｎ,,合同会社,東京都,港区,南青山３丁目１番３６号青山丸竹ビル６Ｆ,,13,103,1070062,,,,,,,2024-10-17,1,,,,,,0
1109,5010601066087,新規,0,2024-10-17,2024-10-17,株式会社ひがさ,,株式会社,東京都,江東区,亀戸９丁目３４番１号亀戸レジデンス１６２７,,13,108,1360071,,,,,,,2024-10-17,1,,,,,ヒガサ,0
1114,5010801035494,新規,0,2024-10-17,2024-10-17,株式会社ダンク,,株式会社,東京都,大田区,大森北１丁目２２番３－１０１号ワコーレ大森,,13,111,1430016,,,,,,,2024-10-17,1,,,,,ダンク,0
1120,5011001165181,新規,0,2024-10-17,2024-10-17,株式会社正蓮,,株式会社,東京都,渋谷区,渋谷２丁目１９－１５宮益坂ビルディング６０９,,13,113,1500002,,,,,,,2024-10-17,1,,,,,セイレン,0
1121,5011001165330,新規,0,2024-10-17,2024-10-17,株式会社Ｕｎｉｓｐａｃｅ,,株式会社,東京都,渋谷区,渋谷２丁目１９番１５号宮益坂ビルディング６０９号,,13,113,1500002,,,,,,,2024-10-17,1,,,,,ユニスペース,0
1127,5011103015012,新規,0,2024-10-17,2024-10-17,Ｎｅｘｔ　Ｍｙ　Ｌｉｆｅ合同会社,,合同会社,東京都,新宿区,西新宿６丁目２０番７－３２０４号,,13,104,1600023,,,,,,,2024-10-17,1,,,,,ネクストマイライフ,0
1128,5011103015078,新規,0,2024-10-17,2024-10-17,合同会社Ｆｉｒｓｔ,,合同会社,東京都,新宿区,下落合３丁目６番２４－３０１号,,13,104,1610033,,,,,,,2024-10-17,1,,,,,ファースト,0
1137,5011301030085,新規,0,2024-10-17,2024-10-17,株式会社Ｃｏｎｓｗａｙ,,株式会社,東京都,杉並区,上荻２丁目６番５号,,13,115,1670043,,,,,,,2024-10-17,1,,,,,コンウェイ,0
1138,5011301030093,新規,0,2024-10-17,2024-10-17,株式会社ユウプランニング,,株式会社,東京都,杉並区,下高井戸４丁目４番２－１１号,,13,115,1680073,,,,,,,2024-10-17,1,,,,,,0
1141,5011501031230,新規,0,2024-10-17,2024-10-17,株式会社エスリング,,株式会社,東京都,北区,赤羽１丁目７番９号赤羽第一葉山ビル４Ｆ,,13,117,1150045,,,,,,,2024-10-17,1,,,,,エスリング,0
1164,5020001159622,新規,0,2024-10-17,2024-10-17,株式会社Ｄａｉ,,株式会社,神奈川県,川崎市宮前区,犬蔵２丁目１３番６１－１０３号ソフィアたまプラーザグランノール,,14,136,2160011,,,,,,,2024-10-17,1,,,,,ダイ,0
1165,5020001159630,新規,0,2024-10-17,2024-10-17,株式会社シンザイ,,株式会社,神奈川県,横浜市神奈川区,松本町２丁目２０番地１,,14,102,2210841,,,,,,,2024-10-17,1,,,,,シンザイ,0
1168,5020003027059,新規,0,2024-10-17,2024-10-17,ＤＡＲＥ合同会社,,合同会社,神奈川県,川崎市中原区,今井仲町１８番３３－４０４号藤和武蔵小杉コープ,,14,133,2110065,,,,,,,2024-10-17,1,,,,,デア,0
1186,5030001162947,新規,0,2024-10-17,2024-10-17,株式会社ＳＡＫＡＹＵ,,株式会社,埼玉県,川口市,元郷３丁目１４番３号,,11,203,3320011,,,,,,,2024-10-17,1,,,,,サカユウ,0
1187,5030001162955,新規,0,2024-10-17,2024-10-17,株式会社エスファイン,,株式会社,埼玉県,春日部市,梅田本町２丁目２９番地３,,11,214,3440053,,,,,,,2024-10-17,1,,,,,エスファイン,0
1188,5030001162963,新規,0,2024-10-17,2024-10-17,株式会社成陽工業,,株式会社,埼玉県,草加市,栄町２丁目１番１１－２０６号,,11,221,3400011,,,,,,,2024-10-17,1,,,,,セイヨウコウギョウ,0
1189,5030001163037,新規,0,2024-10-17,2024-10-17,株式会社ＪＧテクノロジズ,,株式会社,埼玉県,川口市,大字芝６３６１番地７,,11,203,3330866,,,,,,,2024-10-17,1,,,,,ジェイジーテクノロジズ,0
1194,5030003025318,新規,0,2024-10-17,2024-10-17,エイトワイド合同会社,,合同会社,埼玉県,戸田市,大字下笹目１１５番地の１７グローベル北戸田ステーションアリーナ１１０２号室,,11,224,3350037,,,,,,,2024-10-17,1,,,,,エイトワイド,0
1195,5030003025326,新規,0,2024-10-17,2024-10-17,合同会社パーチェ,,合同会社,埼玉県,富士見市,東みずほ台１丁目５番地１みずほ台ハイム３０３,,11,235,3540015,,,,,,,2024-10-17,1,,,,,パーチェ,0
1197,5030005021901,新規,0,2024-10-17,2024-10-17,医療法人社団英佳会,,その他の設立登記法人,埼玉県,春日部市,大字牛島１５６８番地,,11,214,3440000,,,,,,,2024-10-17,1,,,,,エイカカイ,0
1198,5040001003860,新規,0,2024-10-17,2024-10-17,株式会社相生住宅,,株式会社,千葉県,千葉市稲毛区,弥生町４番３０号,,12,103,2630022,,,,,,,2024-10-17,1,,,,,,0
1202,5040001135794,新規,0,2024-10-17,2024-10-17,株式会社千葉中央スクエアホーム,,株式会社,千葉県,千葉市中央区,中央２丁目３－１６－６階,,12,101,2600013,,,,,,,2024-10-17,1,,,,,チバチュウオウスクエアホーム,0
1203,5040003025977,新規,0,2024-10-17,2024-10-17,合同会社金光興業,,合同会社,千葉県,千葉市美浜区,高洲２丁目７番７棟４０４号,,12,106,2610004,,,,,,,2024-10-17,1,,,,,カネミツコウギョウ,0
1204,5040003026001,新規,0,2024-10-17,2024-10-17,Ｒｅ．Ｙ合同会社,,合同会社,千葉県,千葉市美浜区,磯辺３丁目４０－１４,,12,106,2610012,,,,,,,2024-10-17,1,,,,,アールイードットワイ,0
1214,5050003008741,新規,0,2024-10-17,2024-10-17,ＤＲＥＡＰＥ合同会社,,合同会社,茨城県,神栖市,木崎２３９８－２４ラ・フォンテ２０７号,,08,232,3140127,,,,,,,2024-10-17,1,,,,,ドリープ,0
1215,5070003005613,新規,0,2024-10-17,2024-10-17,くらかね合同会社,,合同会社,群馬県,伊勢崎市,富塚町３０２番地９,,10,204,3720833,,,,,,,2024-10-17,1,,,,,クラカネ,0
1220,5110001038775,新規,0,2024-10-17,2024-10-17,株式会社ルフレ,,株式会社,新潟県,佐渡市,両津夷１５番地,,15,224,9520011,,,,,,,2024-10-17,1,,,,,ルフレ,0
1238,5120001269345,新規,0,2024-10-17,2024-10-17,壱神株式会社,,株式会社,大阪府,大阪市西区,阿波座１丁目１１番１８－３１２号,,27,106,5500011,,,,,,,2024-10-17,1,,,,,イッシン,0
1239,5120001269378,新規,0,2024-10-17,2024-10-17,株式会社レガリス,,株式会社,大阪府,大阪市城東区,蒲生２丁目１０－３１ＷＯＢ京橋１００７,,27,118,5360016,,,,,,,2024-10-17,1,,,,,レガリス,0
1240,5120001269411,新規,0,2024-10-17,2024-10-17,株式会社ＨＡＮＷＡ,,株式会社,大阪府,大阪市中央区,平野町２丁目５番８号,,27,128,5410046,,,,,,,2024-10-17,1,,,,,ハンワ,0
1241,5120001269436,新規,0,2024-10-17,2024-10-17,ヤマト興産エステート株式会社,,株式会社,大阪府,大阪市天王寺区,上汐６丁目３番１２号,,27,109,5430002,,,,,,,2024-10-17,1,,,,,ヤマトコウサンエステート,0
1242,5120001269452,新規,0,2024-10-17,2024-10-17,株式会社ＡＫＡＬＡ,,株式会社,大阪府,大阪市東成区,東今里１丁目７－１８ＹｓＢ．Ｌ．Ｄ３階３０１,,27,115,5370011,,,,,,,2024-10-17,1,,,,,アカラ,0
1244,5120003027750,新規,0,2024-10-17,2024-10-17,グローウィン総研合同会社,,合同会社,大阪府,大阪市福島区,福島６丁目１１番１３－７１９号,,27,103,5530003,,,,,,,2024-10-17,1,,,,,グローウィンソウケン,0
1245,5120003027775,新規,0,2024-10-17,2024-10-17,合同会社Ｊ＆Ｋ,,合同会社,大阪府,大阪市福島区,鷺洲３丁目１－１７－１５０２,,27,103,5530002,,,,,,,2024-10-17,1,,,,,ジェイアンドケー,0
1247,5120005024580,新規,0,2024-10-17,2024-10-17,一般社団法人リベ大訪問ステーション,,その他の設立登記法人,大阪府,大阪市北区,太融寺町３番３０－１１０５号,,27,127,5300051,,,,,,,2024-10-17,1,,,,,リベダイホウモンステーション,0
1248,5120901049920,新規,0,2024-10-17,2024-10-17,株式会社アプスル,,株式会社,大阪府,摂津市,鳥飼下１丁目１８－４－３,,27,224,5660071,,,,,,,2024-10-17,1,,,,,アプスル,0
1250,5120903005384,新規,0,2024-10-17,2024-10-17,合同会社オリーブツリーインターナショナル,,合同会社,大阪府,池田市,木部町１７７番地の１‐５１４号サンロイヤル池田,,27,204,5630014,,,,,,,2024-10-17,1,,,,,オリーブツリーインターナショナル,0
1251,5122001038507,新規,0,2024-10-17,2024-10-17,Ｍｉｎｄ　Ｉｎｎｏｖａｔｉｏｎ株式会社,,株式会社,大阪府,東大阪市,吉田本町３丁目５番１２－４０２号,,27,227,5780982,,,,,,,2024-10-17,1,,,,,マインドイノベーション,0
1256,5130001078159,新規,0,2024-10-17,2024-10-17,株式会社えーる,,株式会社,京都府,京都市北区,紫野南舟岡町１５番地１階Ｅ,,26,101,6038225,,,,,,,2024-10-17,1,,,,,エール,0
1267,5140001135990,新規,0,2024-10-17,2024-10-17,株式会社宮脇商事,,株式会社,兵庫県,尼崎市,椎堂１丁目３０番３号,,28,202,6610952,,,,,,,2024-10-17,1,,,,,ミヤワキショウジ,0
1275,5150003003393,新規,0,2024-10-17,2024-10-17,合同会社エスネクサス,,合同会社,奈良県,生駒郡平群町,若葉台１丁目１１番１０号,,29,342,6360938,,,,,,,2024-10-17,1,,,,,エスネクサス,0
1280,5170003002113,新規,0,2024-10-17,2024-10-17,合同会社ＴＯＢＩＣＯＭＭＩ,,合同会社,和歌山県,御坊市,塩屋町北塩屋７３９番地６３,,30,205,6440025,,,,,,,2024-10-17,1,,,,,トビコミ,0
1286,5180301039145,新規,0,2024-10-17,2024-10-17,株式会社リトルコミュニケーションズ,,株式会社,愛知県,岡崎市,羽根西２丁目１番地４,,23,202,4440838,,,,,,,2024-10-17,1,,,,,リトルコミュニケーションズ,0
1288,5190001031731,新規,0,2024-10-17,2024-10-17,株式会社ｃｏｒｄｉａｌｌｙ,,株式会社,三重県,津市,久居明神町１６０８番地２６,,24,201,5141101,,,,,,,2024-10-17,1,,,,,コーディアリー,0
1289,5190003004834,新規,0,2024-10-17,2024-10-17,阿部カンパニー合同会社,,合同会社,三重県,鈴鹿市,住吉町８３０９番２,,24,207,5130825,,,,,,,2024-10-17,1,,,,,アベカンパニー,0
1292,5200003006523,新規,0,2024-10-17,2024-10-17,合同会社モリーズ,,合同会社,岐阜県,羽島市,舟橋町５丁目４０,,21,209,5016302,,,,,,,2024-10-17,1,,,,,モリーズ,0
1293,5200003006548,新規,0,2024-10-17,2024-10-17,ｙ’ｓコネクト合同会社,,合同会社,岐阜県,大垣市,河間町１丁目４２番地セジュール・ラ・ルーチェ２０７,,21,202,5030021,,,,,,,2024-10-17,1,,,,,ワイズコネクト,0
1297,5230001020572,新規,0,2024-10-17,2024-10-17,株式会社ＪＫマックス,,株式会社,富山県,富山市,総曲輪３丁目９番１号,,16,201,9300083,,,,,,,2024-10-17,1,,,,,ジェイケイマックス,0
1303,5240001063934,新規,0,2024-10-17,2024-10-17,長島株式会社,,株式会社,広島県,広島市中区,大手町３丁目１番３号ＩＴ大手町ビル６Ｆ,,34,101,7300051,,,,,,,2024-10-17,1,,,,,ナガシマ,0
1304,5240001063950,新規,0,2024-10-17,2024-10-17,株式会社中本建工,,株式会社,広島県,竹原市,竹原町１８２７番地９,,34,203,7250021,,,,,,,2024-10-17,1,,,,,ナカモトケンコウ,0
1305,5240001063959,新規,0,2024-10-17,2024-10-17,株式会社ＳＯＲＡ,,株式会社,広島県,広島市中区,田中町４番１４号,,34,101,7300026,,,,,,,2024-10-17,1,,,,,ソラ,0
1306,5240001063967,新規,0,2024-10-17,2024-10-17,株式会社ＳＵＸＥＥＤ,,株式会社,広島県,広島市佐伯区,八幡５丁目１６－２８,,34,108,7315116,,,,,,,2024-10-17,1,,,,,サクシード,0
1309,5260003004926,新規,0,2024-10-17,2024-10-17,ＳＵＮＲＩＳＥ合同会社,,合同会社,岡山県,岡山市北区,桑田町１３番６号ロイヤルガーデンシティ桑田町９０３号室,,33,101,7000984,,,,,,,2024-10-17,1,,,,,,0
1315,5290001107587,新規,0,2024-10-17,2024-10-17,株式会社テクノ第一,,株式会社,福岡県,久留米市,藤光町２２２番地１,,40,203,8300054,,,,,,,2024-10-17,1,,,,,テクノダイイチ,0
1316,5290001107629,新規,0,2024-10-17,2024-10-17,日光技建株式会社,,株式会社,福岡県,福岡市早良区,原８丁目２２番１３号,,40,137,8140022,,,,,,,2024-10-17,1,,,,,ニッコウギケン,0
1317,5290001107645,新規,0,2024-10-17,2024-10-17,株式会社ＣＲＡＦＴ　ＣＯＮＮＥＣＴ．,,株式会社,福岡県,大野城市,白木原３丁目５番２－７号,,40,219,8160943,,,,,,,2024-10-17,1,,,,,クラフトコネクト,0
1318,5290001107653,新規,0,2024-10-17,2024-10-17,株式会社Ｆｌｏｒａ　Ｇｌｏｗ,,株式会社,福岡県,福岡市博多区,博多駅前１丁目２３番２号ＰａｒｋＦｒｏｎｔ博多駅前１丁目５Ｆ－Ｂ,,40,132,8120011,,,,,,,2024-10-17,1,,,,,フローラグロウ,0
1319,5290003015937,新規,0,2024-10-17,2024-10-17,合同会社ＹＡＭＡＫＥＩ,,合同会社,福岡県,福岡市南区,平和２丁目３－３５－１ドールグリーンベルＣ棟１０１号,,40,134,8150071,,,,,,,2024-10-17,1,,,,,ヤマケイ,0
1320,5290003015953,新規,0,2024-10-17,2024-10-17,合同会社アドバンス,,合同会社,福岡県,福岡市博多区,店屋町３－３２－３Ｆ,,40,132,8120025,,,,,,,2024-10-17,1,,,,,アドバンス,0
1321,5290801030963,新規,0,2024-10-17,2024-10-17,株式会社石芽穀糧,,株式会社,福岡県,直方市,大字永満寺２４７５番地９,,40,204,8220005,,,,,,,2024-10-17,1,,,,,イシメコクリョウ,0
1328,5340001026864,新規,0,2024-10-17,2024-10-17,株式会社シーゴート,,株式会社,鹿児島県,鹿児島市,中山町１８６９番地４,,46,201,8910105,,,,,,,2024-10-17,1,,,,,シーゴート,0
1333,5340003004629,新規,0,2024-10-17,2024-10-17,合同会社ＳＥＯ対策,,合同会社,鹿児島県,霧島市,国分中央３丁目３５－１０小野ビル２Ｆ,,46,218,8994332,,,,,,,2024-10-17,1,,,,,エスイーオータイサク,0
1334,5350003004768,新規,0,2024-10-17,2024-10-17,Ｔ‐ｅｒｕｍｏ通信合同会社,,合同会社,宮崎県,小林市,野尻町三ケ野山２０１０番地,,45,205,8860213,,,,,,,2024-10-17,1,,,,,ティーエルモ,0
1349,5470001020425,新規,0,2024-10-17,2024-10-17,株式会社はかどる,,株式会社,香川県,高松市,東植田町２０１４番地２,,37,201,7610446,,,,,,,2024-10-17,1,,,,,ハカドル,0
1353,5500001025932,新規,0,2024-10-17,2024-10-17,株式会社Ａ‐ＢＥＴ,,株式会社,愛媛県,新居浜市,泉池町５番１３号,,38,205,7920013,,,,,,,2024-10-17,1,,,,,エーベット,0
1354,5500001025940,新規,0,2024-10-17,2024-10-17,株式会社東洋建装,,株式会社,愛媛県,東温市,南方２６８３番地４,,38,215,7910301,,,,,,,2024-10-17,1,,,,,トウヨウケンソウ,0
1357,5700150127518,新規,0,2024-10-17,2024-10-17,Ｄｅｎｍａｎ　Ｃａｍｅｒｓ　ＬＬＰ,,外国会社等,,,,,,,,Ｏｎｅ　Ｌｉｍｅ　Ｓｔｒｅｅｔ，Ｌｏｎｄｏｎ　ＥＣ３Ｍ　７ＨＡ　ＵＫ,,,,,,2024-10-17,1,,,,,デンマンケイマーズエルエルピー,0
1358,5700150127526,新規,0,2024-10-17,2024-10-17,Ｄｏｎｇｇｕａｎｓｈｉｂｅｉｓｉｋａｎｇｓｅｎｚｈｉｎｅｎｇｋｅｊｉｙｏｕｘｉａｎｇｏｎｇｓｉ,,外国会社等,,,,,,,,Ｒｏｏｍ　２１３，Ｎｏ．２０７，Ｇｕａｎｗｅｎ　Ｒｏａｄ，Ｄｏｎｇｃｈｅｎｇ　Ｓｔｒｅｅｔ，Ｄｏｎｇｇｕａｎ　Ｃｉｔｙ，Ｇｕａｎｇｄｏｎｇ　Ｐｒｏｖｉｎｃｅ，Ｃｈｉｎａ,,,,,,2024-10-17,1,,,,,ドンワンシベイスーカンセンジーノンカージヨウシェンゴンスー,0
1369,6010001248771,新規,0,2024-10-17,2024-10-17,ニッケンシステムサービス株式会社,,株式会社,東京都,千代田区,神田須田町２丁目８番地１,,13,101,1010041,,,,,,,2024-10-17,1,,,,,ニッケンシステムサービス,0
1370,6010001249126,新規,0,2024-10-17,2024-10-17,株式会社Ｄ＆Ａ,,株式会社,東京都,千代田区,隼町２番１６－３０１号,,13,101,1020092,,,,,,,2024-10-17,1,,,,,ディアンドエー,0
1371,6010001249134,新規,0,2024-10-17,2024-10-17,株式会社レイコンサルティング,,株式会社,東京都,文京区,小日向４丁目５－１２,,13,105,1120006,,,,,,,2024-10-17,1,,,,,レイコンサルティング,0
1376,6010003045218,新規,0,2024-10-17,2024-10-17,キャリアデザイン合同会社,,合同会社,東京都,千代田区,神田佐久間町２丁目１８番地１秋葉原ＳＴＮフロント１０階,,13,101,1010025,,,,,,,2024-10-17,1,,,,,キャリアデザイン,0
1381,6010403033607,新規,0,2024-10-17,2024-10-17,Ｋａｙｓｏｎｓ合同会社,,合同会社,東京都,港区,南青山３丁目１番３６号青山丸竹ビル６Ｆ,,13,103,1070062,,,,,,,2024-10-17,1,,,,,ケイソンス,0
1384,6010503007601,新規,0,2024-10-17,2024-10-17,合同会社ＫＳ,,合同会社,東京都,台東区,東上野５丁目１８番１－１５０６号上野アインスタワー,,13,106,1100015,,,,,,,2024-10-17,1,,,,,ケーエス,0
1386,6010601066094,新規,0,2024-10-17,2024-10-17,株式会社スタート・アイ,,株式会社,東京都,墨田区,東向島３丁目３０番３号,,13,107,1310032,,,,,,,2024-10-17,1,,,,,スタートアイ,0
1387,6010601066111,新規,0,2024-10-17,2024-10-17,株式会社ティーエーエス,,株式会社,東京都,江東区,豊洲１丁目２番２７号,,13,108,1350061,,,,,,,2024-10-17,1,,,,,ティーエーエス,0
1388,6010603011156,新規,0,2024-10-17,2024-10-17,ジネプロ合同会社,,合同会社,東京都,江東区,福住２丁目４番１４－５０８号,,13,108,1350032,,,,,,,2024-10-17,1,,,,,ジネプロ,0
1389,6010703007384,新規,0,2024-10-17,2024-10-17,合同会社ミラクル８,,合同会社,東京都,品川区,小山６丁目２１番地５号エクセル５－１０５,,13,109,1420062,,,,,,,2024-10-17,1,,,,,ミラクルエイト,0
1392,6010801035477,新規,0,2024-10-17,2024-10-17,株式会社Ｋ,,株式会社,東京都,大田区,山王２丁目１番８－３０８号山王アーバンライフ,,13,111,1430023,,,,,,,2024-10-17,1,,,,,ケイ,0
1393,6010801035493,新規,0,2024-10-17,2024-10-17,株式会社よろ,,株式会社,東京都,大田区,東嶺町１７番８号,,13,111,1450074,,,,,,,2024-10-17,1,,,,,ヨロ,0
1397,6010901056134,新規,0,2024-10-17,2024-10-17,株式会社ｍａｒａｎｇｅ,,株式会社,東京都,世田谷区,北烏山６丁目２番９号,,13,112,1570061,,,,,,,2024-10-17,1,,,,,マランジェ,0
1398,6010901056150,新規,0,2024-10-17,2024-10-17,株式会社ＳＯ‐ＴＯ,,株式会社,東京都,世田谷区,太子堂３丁目１４番７号,,13,112,1540004,,,,,,,2024-10-17,1,,,,,ソートー,0
1399,6010903009420,新規,0,2024-10-17,2024-10-17,合同会社ラプラス,,合同会社,東京都,世田谷区,千歳台５丁目７－７第２千歳荘１２,,13,112,1570071,,,,,,,2024-10-17,1,,,,,ラプラス,0
1406,6011001165180,新規,0,2024-10-17,2024-10-17,株式会社Ｍｅｓｉｇｎ,,株式会社,東京都,目黒区,大橋２丁目２２－４２Ｎｏ．Ｒ池尻大橋４階,,13,110,1530044,,,,,,,2024-10-17,1,,,,,,0
1407,6011003020169,新規,0,2024-10-17,2024-10-17,ＨＩＢＩＫＩ合同会社,,合同会社,東京都,渋谷区,恵比寿４丁目２０番地３号恵比寿ガーデンプレイスタワー１８階,,13,113,1500013,,,,,,,2024-10-17,1,,,,,ヒビキ,0
1417,6011101109120,新規,0,2024-10-17,2024-10-17,株式会社ＬＥＡＦ１ＪＡＰＡＮ,,株式会社,東京都,新宿区,住吉町七丁目３番サンライズビル２０２号,,13,104,1620065,,,,,,,2024-10-17,1,,,,,リーフワンジャパン,0
1419,6011103015052,新規,0,2024-10-17,2024-10-17,合同会社ＨＺ,,合同会社,東京都,新宿区,下落合３丁目６番２４－３０１号,,13,104,1610033,,,,,,,2024-10-17,1,,,,,エイチゼット,0
1423,6011301030076,新規,0,2024-10-17,2024-10-17,株式会社金継ぎ,,株式会社,東京都,杉並区,上荻２丁目１７番１１‐４０４号,,13,115,1670043,,,,,,,2024-10-17,1,,,,,キンツギ,0
1425,6011401026503,新規,0,2024-10-17,2024-10-17,株式会社Ｃ＆Ｔ,,株式会社,東京都,板橋区,徳丸８丁目１４番２０号,,13,119,1750083,,,,,,,2024-10-17,1,,,,,シーアンドティー,0
1426,6011403004531,新規,0,2024-10-17,2024-10-17,合同会社Ｙｕ‐ｌｉｏｎ,,合同会社,東京都,板橋区,弥生町４９－１０ソレイユ中板橋３０５,,13,119,1730021,,,,,,,2024-10-17,1,,,,,ユリオン,0
1443,6020001159563,新規,0,2024-10-17,2024-10-17,株式会社シナジーズ,,株式会社,神奈川県,川崎市高津区,新作３丁目１４番７－３０５号,,14,134,2130014,,,,,,,2024-10-17,1,,,,,シナジーズ,0
1445,6020003027000,新規,0,2024-10-17,2024-10-17,合同会社Ｒｅ,,合同会社,神奈川県,横浜市神奈川区,旭ケ丘４－３５,,14,102,2210814,,,,,,,2024-10-17,1,,,,,アールイー,0
1446,6020003027058,新規,0,2024-10-17,2024-10-17,５０‐５０合同会社,,合同会社,神奈川県,横浜市港北区,新横浜１丁目３,,14,109,2220033,,,,,,,2024-10-17,1,,,,,フィフティーフィフティー,0
1452,6021001083506,新規,0,2024-10-17,2024-10-17,株式会社４０．ＬＡＢ,,株式会社,神奈川県,厚木市,上荻野９１９番地１,,14,212,2430201,,,,,,,2024-10-17,1,,,,,シオラボ,0
1453,6021001083522,新規,0,2024-10-17,2024-10-17,株式会社宮川石油,,株式会社,神奈川県,横須賀市,鴨居２丁目４６番１８号,,14,201,2390813,,,,,,,2024-10-17,1,,,,,ミヤガワセキユ,0
1459,6021003015110,新規,0,2024-10-17,2024-10-17,合同会社ＫＳＧ,,合同会社,神奈川県,横須賀市,安浦町２丁目８番地Ａハウス１Ａ,,14,201,2380012,,,,,,,2024-10-17,1,,,,,ケイエスジー,0
1465,6030001163028,新規,0,2024-10-17,2024-10-17,顕陽工業株式会社,,株式会社,埼玉県,富士見市,水谷東１丁目１１番４号,,11,235,3540013,,,,,,,2024-10-17,1,,,,,ケンヨウコウギョウ,0
1470,6030003025333,新規,0,2024-10-17,2024-10-17,合同会社大都会春日部,,合同会社,埼玉県,春日部市,谷原３丁目１４番地４５,,11,214,3440065,,,,,,,2024-10-17,1,,,,,ダイトカイカスカベ,0
1472,6030005021891,新規,0,2024-10-17,2024-10-17,医療法人社団秀慶会,,その他の設立登記法人,埼玉県,桶川市,坂田西１丁目１２番地の４,,11,231,3630018,,,,,,,2024-10-17,1,,,,,シュウケイカイ,0
1477,6040001135760,新規,0,2024-10-17,2024-10-17,株式会社アルティマ,,株式会社,千葉県,船橋市,上山町３丁目５１０－１２,,12,204,2730046,,,,,,,2024-10-17,1,,,,,アルティマ,0
1478,6040001135810,新規,0,2024-10-17,2024-10-17,株式会社オケラ,,株式会社,千葉県,我孫子市,船戸１丁目３番４４－３０３号グリーンパルク,,12,222,2701158,,,,,,,2024-10-17,1,,,,,オケラ,0
1479,6040001135819,新規,0,2024-10-17,2024-10-17,株式会社ＧＲＡＮＤ,,株式会社,千葉県,市川市,南八幡４丁目１０番４－５０４号,,12,203,2720023,,,,,,,2024-10-17,1,,,,,グランド,0
1480,6040001135827,新規,0,2024-10-17,2024-10-17,株式会社ＮＥＨ,,株式会社,千葉県,千葉市花見川区,花園３丁目１７番１５号,,12,102,2620025,,,,,,,2024-10-17,1,,,,,エヌイーエイチ,0
1481,6040001135835,新規,0,2024-10-17,2024-10-17,ＫＡＩパートナーズ株式会社,,株式会社,千葉県,千葉市中央区,富士見１丁目１４番１３号千葉大栄ビル８階,,12,101,2600015,,,,,,,2024-10-17,1,,,,,カイパートナーズ,0
1482,6040001135843,新規,0,2024-10-17,2024-10-17,株式会社ＶＯＸＸＸ,,株式会社,千葉県,浦安市,日の出４丁目２番１,,12,227,2790013,,,,,,,2024-10-17,1,,,,,ヴォックス,0
1483,6040001135851,新規,0,2024-10-17,2024-10-17,株式会社ＣＨＯＰ　ＣＨＯＰ,,株式会社,千葉県,船橋市,本町６丁目４番１０号１Ｆ,,12,204,2730005,,,,,,,2024-10-17,1,,,,,チョップチョップ,0
1485,6040003026000,新規,0,2024-10-17,2024-10-17,ＡＮｋｈ合同会社,,合同会社,千葉県,千葉市稲毛区,小仲台７丁目８番２８,,12,103,2630043,,,,,,,2024-10-17,1,,,,,アンク,0
1492,6060003005290,新規,0,2024-10-17,2024-10-17,合同会社ベジラク,,合同会社,栃木県,那須塩原市,上厚崎３８９番地３,,09,213,3250026,,,,,,,2024-10-17,1,,,,,ベジラク,0
1501,6090003002665,新規,0,2024-10-17,2024-10-17,Ｍ＆Ｐ合同会社,,合同会社,山梨県,甲府市,羽黒町９９４‐１,,19,201,4000071,,,,,,,2024-10-17,1,,,,,エムアンドピー,0
1502,6100001037901,新規,0,2024-10-17,2024-10-17,株式会社ＫＥＮ屋,,株式会社,長野県,松本市,市場３－２マルサンビルＡ棟１階北,,20,202,3990004,,,,,,,2024-10-17,1,,,,,ケンヤ,0
1514,6120001269303,新規,0,2024-10-17,2024-10-17,株式会社ユーロテックス,,株式会社,大阪府,大阪市中央区,淡路町１丁目２２番地,,27,128,5410047,,,,,,,2024-10-17,1,,,,,,0
1515,6120001269344,新規,0,2024-10-17,2024-10-17,株式会社日日是好日,,株式会社,大阪府,大阪市福島区,野田５丁目１番１９号,,27,103,5530005,,,,,,,2024-10-17,1,,,,,ヒビコレコウジツ,0
1516,6120001269352,新規,0,2024-10-17,2024-10-17,株式会社ブリッジパートナーズ,,株式会社,大阪府,大阪市東成区,中本１丁目７番８－２０３号,,27,115,5370022,,,,,,,2024-10-17,1,,,,,ブリッジパートナーズ,0
1517,6120001269385,新規,0,2024-10-17,2024-10-17,株式会社和の栞,,株式会社,大阪府,大阪市阿倍野区,阿倍野筋１丁目１－４３あべのハルカス３１Ｆ,,27,119,5450052,,,,,,,2024-10-17,1,,,,,ワノシオリ,0
1518,6120001269419,新規,0,2024-10-17,2024-10-17,株式会社ｍｉｙｏｓｈｉ,,株式会社,大阪府,大阪市都島区,毛馬町１丁目５番１５号,,27,102,5340001,,,,,,,2024-10-17,1,,,,,ミヨシ,0
1519,6120001269427,新規,0,2024-10-17,2024-10-17,株式会社宮西タイル,,株式会社,大阪府,寝屋川市,明徳１丁目１０番５９号,,27,215,5720011,,,,,,,2024-10-17,1,,,,,ミヤニシタイル,0
1520,6120001269435,新規,0,2024-10-17,2024-10-17,株式会社ａｇｅ,,株式会社,大阪府,大阪市中央区,久太郎町３丁目１番２１号ＰＤ・ＣＲＥＳＴ３Ｆ,,27,128,5410056,,,,,,,2024-10-17,1,,,,,エイジ,0
1521,6120001269451,新規,0,2024-10-17,2024-10-17,株式会社ユニバーサルインサイツ,,株式会社,大阪府,大阪市北区,梅田１丁目２番２号大阪駅前第２ビル１２－１２,,27,127,5300001,,,,,,,2024-10-17,1,,,,,ユニバーサルインサイツ,0
1525,6120003027758,新規,0,2024-10-17,2024-10-17,合同会社波風,,合同会社,大阪府,大阪市北区,堂山町１６番１－２０５号,,27,127,5300027,,,,,,,2024-10-17,1,,,,,ナミカゼ,0
1529,6120101070412,新規,0,2024-10-17,2024-10-17,株式会社トラスト防災設備,,株式会社,大阪府,堺市北区,百舌鳥梅北町４丁２０９番地１５,,27,146,5918031,,,,,,,2024-10-17,1,,,,,トラストボウサイセツビ,0
1530,6120101070420,新規,0,2024-10-17,2024-10-17,株式会社中尾建設,,株式会社,大阪府,和泉市,東阪本町３５１番地の１（５０４）,,27,219,5940051,,,,,,,2024-10-17,1,,,,,ナカオケンセツ,0
1543,6140001136071,新規,0,2024-10-17,2024-10-17,株式会社榕樹,,株式会社,兵庫県,西宮市,苦楽園一番町８番２８号,,28,204,6620083,,,,,,,2024-10-17,1,,,,,ガジュマル,0
1547,6160001026287,新規,0,2024-10-17,2024-10-17,株式会社Ｓｔｅｐ,,株式会社,滋賀県,東近江市,上南町３２４番地,,25,213,5291535,,,,,,,2024-10-17,1,,,,,ステップ,0
1557,6180301039144,新規,0,2024-10-17,2024-10-17,株式会社Ｌｉｂ　Ｃｒｅａｔｅ,,株式会社,愛知県,豊田市,柿本町１丁目１７番地１６,,23,211,4710855,,,,,,,2024-10-17,1,,,,,リブクリエイト,0
1558,6180301039152,新規,0,2024-10-17,2024-10-17,株式会社ロックブック,,株式会社,愛知県,刈谷市,半城土中町２丁目８番地１５,,23,210,4480805,,,,,,,2024-10-17,1,,,,,ロックブック,0
1559,6180303006308,新規,0,2024-10-17,2024-10-17,合同会社Ｆ＆Ａ,,合同会社,愛知県,刈谷市,大正町７丁目６０２番地２,,23,210,4480855,,,,,,,2024-10-17,1,,,,,エフアンドエー,0
1560,6180303006316,新規,0,2024-10-17,2024-10-17,合同会社栄町物産,,合同会社,愛知県,蒲郡市,栄町１０番２号,,23,214,4430035,,,,,,,2024-10-17,1,,,,,サカエマチブッサン,0
1567,6200001043047,新規,0,2024-10-17,2024-10-17,株式会社Ａｖｅｒｉａ　Ｓｔｕｄｉｏｓ,,株式会社,岐阜県,中津川市,加子母４３９５番地１,,21,206,5080421,,,,,,,2024-10-17,1,,,,,アヴェリアスタジオ,0
1568,6200003006547,新規,0,2024-10-17,2024-10-17,合同会社３Ｇ,,合同会社,岐阜県,羽島郡岐南町,上印食８丁目１０４番地,,21,302,5016001,,,,,,,2024-10-17,1,,,,,スリージー,0
1570,6220001026272,新規,0,2024-10-17,2024-10-17,株式会社ベルクライム,,株式会社,石川県,野々市市,押野７丁目１７１番地２,,17,212,9218802,,,,,,,2024-10-17,1,,,,,ベルクライム,0
1571,6230003002320,新規,0,2024-10-17,2024-10-17,合同会社弥栄不動産システム,,合同会社,富山県,富山市,三番町１‐２３‐４０６,,16,201,9300059,,,,,,,2024-10-17,1,,,,,ヤサカフドウサンシステム,0
1572,6240001063958,新規,0,2024-10-17,2024-10-17,株式会社エリクワン,,株式会社,広島県,福山市,沖野上町６丁目９－１３,,34,207,7200825,,,,,,,2024-10-17,1,,,,,エリクワン,0
1580,6260003004925,新規,0,2024-10-17,2024-10-17,三目合同会社,,合同会社,岡山県,岡山市北区,三門西町６番８号,,33,101,7000044,,,,,,,2024-10-17,1,,,,,サンモク,0
1582,6290001107628,新規,0,2024-10-17,2024-10-17,株式会社ＹＵ’ＳＥＩ,,株式会社,福岡県,福岡市博多区,千代４丁目１番２号,,40,132,8120044,,,,,,,2024-10-17,1,,,,,ユウセイ,0
1583,6290001107644,新規,0,2024-10-17,2024-10-17,株式会社ＩＷＣ,,株式会社,福岡県,古賀市,美明２丁目２４番５－２０３号,,40,223,8113107,,,,,,,2024-10-17,1,,,,,アイダブリュシー,0
1584,6290003015952,新規,0,2024-10-17,2024-10-17,ＪＫ合同会社,,合同会社,福岡県,福岡市中央区,天神２丁目３番１０号天神パインクレスト７１９号,,40,133,8100001,,,,,,,2024-10-17,1,,,,,ジェイケイ,0
1588,6310003004878,新規,0,2024-10-17,2024-10-17,合同会社コウノキ,,合同会社,長崎県,長崎市,中園町１７番１４号,,42,201,8528155,,,,,,,2024-10-17,1,,,,,コウノキ,0
1589,6320001020769,新規,0,2024-10-17,2024-10-17,株式会社溝上板金工業,,株式会社,大分県,中津市,大字高瀬４０８番地１,,44,203,8710026,,,,,,,2024-10-17,1,,,,,ミゾカミバンキンコウギョウ,0
1591,6330003010610,新規,0,2024-10-17,2024-10-17,レベル計画合同会社,,合同会社,熊本県,上益城郡益城町,大字宮園８５０番３８,,43,443,8612241,,,,,,,2024-10-17,1,,,,,レベルケイカク,0
1592,6340001026855,新規,0,2024-10-17,2024-10-17,株式会社リハジャパン,,株式会社,鹿児島県,奄美市,名瀬末広町１２－１－１Ｆ,,46,222,8940027,,,,,,,2024-10-17,1,,,,,リハジャパン,0
1593,6340001026863,新規,0,2024-10-17,2024-10-17,株式会社ＣＥ‐ＷＯＲＫＳ,,株式会社,鹿児島県,姶良市,加治木町木田１０５９番地３,,46,225,8995241,,,,,,,2024-10-17,1,,,,,シーイーワークス,0
1594,6340003004636,新規,0,2024-10-17,2024-10-17,合同会社二葉ワークス,,合同会社,鹿児島県,鹿児島市,伊敷台１丁目２２－５イオリドリーム１０５,,46,201,8900007,,,,,,,2024-10-17,1,,,,,フタバワークス,0
1599,6360001034311,新規,0,2024-10-17,2024-10-17,ＳＡＮＫＯ沖縄株式会社,,株式会社,沖縄県,糸満市,西崎町５丁目１４番１０号,,47,210,9010306,,,,,,,2024-10-17,1,,,,,サンコーオキナワ,0
1600,6360001034328,新規,0,2024-10-17,2024-10-17,株式会社ティーダミサキ,,株式会社,沖縄県,宮古島市,平良字西里５４１－１,,47,214,9060012,,,,,,,2024-10-17,1,,,,,ティーダミサキ,0
1601,6360003014393,新規,0,2024-10-17,2024-10-17,合同会社Ｐｌｏｕｇｈ,,合同会社,沖縄県,宜野湾市,真志喜５丁目１７－８Ｃｈｏｕｃｈｏｕ１０２,,47,205,9012224,,,,,,,2024-10-17,1,,,,,プラウ,0
1604,6370001051826,新規,0,2024-10-17,2024-10-17,Ｋ．Ｃｏｎｓｕｌｔｉｎｇ株式会社,,株式会社,宮城県,仙台市太白区,あすと長町１丁目５番４２－２４０６号,,04,104,9820007,,,,,,,2024-10-17,1,,,,,ケーコンサルティング,0
1606,6380001034854,新規,0,2024-10-17,2024-10-17,株式会社ル・ミエール,,株式会社,福島県,郡山市,桜木２丁目４番１９号,,07,203,9638021,,,,,,,2024-10-17,1,,,,,ルミエール,0
1615,6420001018893,新規,0,2024-10-17,2024-10-17,株式会社ｃｐｍ,,株式会社,青森県,むつ市,大字田名部字上川１９番地５,,02,208,0350021,,,,,,,2024-10-17,1,,,,,シーピーエム,0
1619,6470001020416,新規,0,2024-10-17,2024-10-17,株式会社杢夢創,,株式会社,香川県,高松市,川島本町３１７番地４,,37,201,7610442,,,,,,,2024-10-17,1,,,,,モクムソウ,0
1624,6500003003349,新規,0,2024-10-17,2024-10-17,合同会社Ｌ．Ｉ．Ｇ,,合同会社,愛媛県,松山市,和泉南４丁目７番４号フェリエＶ１０５号,00136659,38,201,7900941,,,,,,,2024-10-17,1,,,,,エルアイジー,0
1626,6700150127517,新規,0,2024-10-17,2024-10-17,Ｎａｍｅｃｏ（Ｎｏ　１３９８）Ｌｉｍｉｔｅｄ,,外国会社等,,,,,,,,Ｏｎｅ　Ｌｉｍｅ　Ｓｔｒｅｅｔ，Ｌｏｎｄｏｎ　ＥＣ３Ｍ　７ＨＡ　ＵＫ,,,,,,2024-10-17,1,,,,,ネームコナンバーワンスリーナインエイトリミテツド,0
1635,7010001249117,新規,0,2024-10-17,2024-10-17,アイシーリモ株式会社,,株式会社,東京都,千代田区,一番町４番地６５一番町大石ビル１階１０１,,13,101,1020082,,,,,,,2024-10-17,1,,,,,アイシーリモ,0
1639,7010003045217,新規,0,2024-10-17,2024-10-17,ＨＭ合同会社,,合同会社,東京都,千代田区,紀尾井町１番３号東京ガーデンテラス紀尾井町紀尾井タワー１３Ｆ,,13,101,1020094,,,,,,,2024-10-17,1,,,,,エイチエム,0
1640,7010005038978,新規,0,2024-10-17,2024-10-17,中川一般社団法人,,その他の設立登記法人,東京都,千代田区,丸の内１丁目４番１号東京共同会計事務所内,,13,101,1000005,,,,,,,2024-10-17,1,,,,,ナカガワ,0
1645,7010401185358,新規,0,2024-10-17,2024-10-17,株式会社ＥＸＣＥＥＤ,,株式会社,東京都,港区,芝浦４丁目１３－１２田町スカイハイツ７０１,,13,103,1080023,,,,,,,2024-10-17,1,,,,,エクシード,0
1646,7010401185746,新規,0,2024-10-17,2024-10-17,株式会社ＢＲＡＮＤＳ,,株式会社,東京都,港区,芝１丁目２－１－１５０１号,,13,103,1050014,,,,,,,2024-10-17,1,,,,,ブランズ,0
1647,7010401185762,新規,0,2024-10-17,2024-10-17,株式会社ｎａｓｔｒｏ,,株式会社,東京都,港区,南青山３丁目１番３６号青山丸竹ビル６階,,13,103,1070062,,,,,,,2024-10-17,1,,,,,ナストロ,0
1648,7010401185787,新規,0,2024-10-17,2024-10-17,Ａｖｅｎｉｒ　Ｊａｐａｎ株式会社,,株式会社,東京都,港区,六本木６丁目１０番１号六本木ヒルズ森タワー１６階,,13,103,1060032,,,,,,,2024-10-17,1,,,,,アベニールジャパン,0
1658,7010701046680,新規,0,2024-10-17,2024-10-17,株式会社ガレージハウス,,株式会社,東京都,品川区,大井４丁目２５番３－１０１号,,13,109,1400014,,,,,,,2024-10-17,1,,,,,ガレージハウス,0
1662,7010803005130,新規,0,2024-10-17,2024-10-17,合同会社ドクターＡｔｓｕＫｏメディカルサポート,,合同会社,東京都,大田区,田園調布１丁目５番１５号,,13,111,1450071,,,,,,,2024-10-17,1,,,,,ドクターアツコメディカルサポート,0
1671,7011001165089,新規,0,2024-10-17,2024-10-17,株式会社ＹＯＹＯ,,株式会社,東京都,渋谷区,道玄坂１丁目１０番８号渋谷道玄坂東急ビル２Ｆ－Ｃ,,13,113,1500043,,,,,,,2024-10-17,1,,,,,ヨヨ,0
1672,7011001165287,新規,0,2024-10-17,2024-10-17,株式会社ミニバース,,株式会社,東京都,目黒区,駒場４丁目６番３号アーク駒場５０１,,13,110,1530041,,,,,,,2024-10-17,1,,,,,ミニバース,0
1673,7011003020151,新規,0,2024-10-17,2024-10-17,合同会社モカ,,合同会社,東京都,渋谷区,上原２丁目３４－３,,13,113,1510064,,,,,,,2024-10-17,1,,,,,モカ,0
1674,7011003020184,新規,0,2024-10-17,2024-10-17,合同会社ＷＯＮＥ,,合同会社,東京都,目黒区,駒場３丁目２番２０号,,13,110,1530041,,,,,,,2024-10-17,1,,,,,ダブルワン,0
1678,7011101109136,新規,0,2024-10-17,2024-10-17,Ｚｏｏ　Ｃａｐｉｔａｌ株式会社,,株式会社,東京都,新宿区,下落合３丁目１５番３４号,,13,104,1610033,,,,,,,2024-10-17,1,,,,,ズーキャピタル,0
1679,7011101109160,新規,0,2024-10-17,2024-10-17,株式会社ビジョール,,株式会社,東京都,新宿区,西新宿７丁目７番３０号小田急西新宿Ｏ－ＰＬＡＣＥ１階,,13,104,1600023,,,,,,,2024-10-17,1,,,,,ビジョール,0
1682,7011103015043,新規,0,2024-10-17,2024-10-17,合同会社リッチビジネス,,合同会社,東京都,新宿区,西新宿３丁目３番１３号西新宿水間ビル６階,,13,104,1600023,,,,,,,2024-10-17,1,,,,,リッチビジネス,0
1685,7011301030083,新規,0,2024-10-17,2024-10-17,株式会社トータルクリーン,,株式会社,東京都,杉並区,松庵２丁目１３番２３号―２０５号室,,13,115,1670054,,,,,,,2024-10-17,1,,,,,トータルクリーン,0
1686,7011305003011,新規,0,2024-10-17,2024-10-17,ＮＰＯ法人ｆｒｅｅ　ｂｉｒｄ,,その他の設立登記法人,東京都,杉並区,善福寺１丁目１６番２３－３０１号,,13,115,1670041,,,,,,,2024-10-17,1,,,,,フリーバード,0
1694,7011401026510,新規,0,2024-10-17,2024-10-17,株式会社ＹＭＹ,,株式会社,東京都,板橋区,中台１丁目２１番２－３０３号,,13,119,1740064,,,,,,,2024-10-17,1,,,,,ワイエムワイ,0
1697,7011601028133,新規,0,2024-10-17,2024-10-17,株式会社和庄,,株式会社,東京都,練馬区,貫井３丁目３５番８号めぞん一刻２０３,,13,120,1760021,,,,,,,2024-10-17,1,,,,,ワショウ,0
1712,7020001159587,新規,0,2024-10-17,2024-10-17,株式会社アイリク,,株式会社,神奈川県,横浜市青葉区,みすずが丘１４－１,,14,117,2250016,,,,,,,2024-10-17,1,,,,,アイリク,0
1713,7020001159612,新規,0,2024-10-17,2024-10-17,株式会社Ｒｅｓｓｕｒｅｃｔｉｏｎ,,株式会社,神奈川県,川崎市宮前区,南野川３丁目２６番１号,,14,136,2160042,,,,,,,2024-10-17,1,,,,,,0
1715,7020003027032,新規,0,2024-10-17,2024-10-17,合同会社ヘルシー,,合同会社,神奈川県,横浜市旭区,四季美台８４番地２９８,,14,112,2410025,,,,,,,2024-10-17,1,,,,,ヘルシー,0
1716,7020005016586,新規,0,2024-10-17,2024-10-17,富士通クライアントコンピューティング労働組合,,その他の設立登記法人,神奈川県,川崎市幸区,鹿島田１丁目１番２号,,14,132,2120058,,,,,,,2024-10-17,1,,,,,フジツウクライアントコンピューティング,0
1722,7021001083521,新規,0,2024-10-17,2024-10-17,株式会社湘南ホーム,,株式会社,神奈川県,中郡二宮町,二宮１１５７番地２,,14,342,2590123,,,,,,,2024-10-17,1,,,,,ショウナンホーム,0
1724,7021003015118,新規,0,2024-10-17,2024-10-17,合同会社Ｆｒｏｍ,,合同会社,神奈川県,相模原市中央区,相模原３丁目８番４号ツカサビル地下１階Ｂ区画,,14,152,2520231,,,,,,,2024-10-17,1,,,,,フロム,0
1732,7030001162953,新規,0,2024-10-17,2024-10-17,ＣＲＯＳＳ　ＯＮＥ株式会社,,株式会社,埼玉県,川口市,並木元町１番４５号黄金井ビル１Ｆ,,11,203,3320033,,,,,,,2024-10-17,1,,,,,クロスワン,0
1733,7030001162986,新規,0,2024-10-17,2024-10-17,株式会社ネクストイノベーション,,株式会社,埼玉県,久喜市,吉羽１８１番地６－１０１,,11,232,3460014,,,,,,,2024-10-17,1,,,,,ネクストイノベーション,0
1736,7030003025324,新規,0,2024-10-17,2024-10-17,ＰＡＯＤＡ合同会社,,合同会社,埼玉県,北本市,二ツ家４丁目２４４番地２,,11,233,3640014,,,,,,,2024-10-17,1,,,,,パオダ,0
1740,7030005021890,新規,0,2024-10-17,2024-10-17,医療法人慈栄会,,その他の設立登記法人,埼玉県,富士見市,ふじみ野西１丁目１７番地３ハピネスビルふじみ野１階－Ｂ号室,,11,235,3540035,,,,,,,2024-10-17,1,,,,,ジエイカイ,0
1743,7040001135826,新規,0,2024-10-17,2024-10-17,株式会社チームビーエム,,株式会社,千葉県,香取郡東庄町,笹川ろ１２８５番地２０６,,12,349,2890602,,,,,,,2024-10-17,1,,,,,チームビーエム,0
1746,7040003025983,新規,0,2024-10-17,2024-10-17,合同会社佑香,,合同会社,千葉県,船橋市,本中山２丁目９番３－４号,,12,204,2730035,,,,,,,2024-10-17,1,,,,,ユウカ,0
1749,7070003005611,新規,0,2024-10-17,2024-10-17,合同会社ＯＹＡＫＡＴＡ　ＳＵＮ,,合同会社,群馬県,桐生市,相生町５丁目１５１番地の１グリーンハイツ桐生８０５,,10,203,3760011,,,,,,,2024-10-17,1,,,,,オヤカタサン,0
1750,7080001026550,新規,0,2024-10-17,2024-10-17,株式会社山内ホールディングス,,株式会社,静岡県,静岡市葵区,古庄１丁目７番３９号,,22,101,4200812,,,,,,,2024-10-17,1,,,,,ヤマウチホールディングス,0
1759,7100003007810,新規,0,2024-10-17,2024-10-17,合同会社メイク,,合同会社,長野県,北佐久郡軽井沢町,大字長倉４０７７－２,,20,321,3890111,,,,,,,2024-10-17,1,,,,,メイク,0
1762,7110001038781,新規,0,2024-10-17,2024-10-17,株式会社Ｈｉｄｅ＆ＧｏＳｅｅｋ,,株式会社,新潟県,長岡市,豊田町１１番地７,,15,202,9400836,,,,,,,2024-10-17,1,,,,,ハイドアンドゴーシーク,0
1774,7120001269368,新規,0,2024-10-17,2024-10-17,株式会社ＣＯＲＬＹ,,株式会社,大阪府,大阪市中央区,本町２丁目３－４アソルティ本町４Ｆ,,27,128,5410053,,,,,,,2024-10-17,1,,,,,コーリー,0
1775,7120001269384,新規,0,2024-10-17,2024-10-17,ｄｒｉｐｃｌａｓｓｉｃ株式会社,,株式会社,大阪府,大阪市中央区,本町橋７番１７－９０３号,,27,128,5400029,,,,,,,2024-10-17,1,,,,,ドリップクラシック,0
1776,7120001269401,新規,0,2024-10-17,2024-10-17,株式会社ＧｌｏｂａｌＲｉｓｅ,,株式会社,大阪府,大阪市福島区,福島７丁目４－２２－３０５,,27,103,5530003,,,,,,,2024-10-17,1,,,,,グローバルライズ,0
1777,7120001269426,新規,0,2024-10-17,2024-10-17,株式会社長谷川建産,,株式会社,大阪府,門真市,四宮５丁目５番２０号,,27,223,5710017,,,,,,,2024-10-17,1,,,,,ハセガワケンサン,0
1778,7120001269467,新規,0,2024-10-17,2024-10-17,株式会社笑華,,株式会社,大阪府,大阪市都島区,友渕町３丁目７番１６号,,27,102,5340016,,,,,,,2024-10-17,1,,,,,エミカ,0
1779,7120001269483,新規,0,2024-10-17,2024-10-17,Ｅａｓｙ　Ｆｕｎ株式会社,,株式会社,大阪府,大阪市浪速区,日本橋５丁目３番４号,,27,111,5560005,,,,,,,2024-10-17,1,,,,,イージーファン,0
1784,7120003027699,新規,0,2024-10-17,2024-10-17,合同会社ユグドラシル,,合同会社,大阪府,門真市,常称寺町２１番１９号ハッピービーンズプレイス２－Ｂ,,27,223,5710063,,,,,,,2024-10-17,1,,,,,ユグドラシル,0
1785,7120003027724,新規,0,2024-10-17,2024-10-17,合同会社ノア,,合同会社,大阪府,大阪市住吉区,上住吉１丁目３番２７号,,27,120,5580046,,,,,,,2024-10-17,1,,,,,ノア,0
1786,7120003027773,新規,0,2024-10-17,2024-10-17,Ｈｉｎｕｋｏ合同会社,,合同会社,大阪府,大阪市西区,京町堀１丁目１１番７号京旺ビル２Ｃ,,27,106,5500003,,,,,,,2024-10-17,1,,,,,ハイヌコ,0
1790,7120901049910,新規,0,2024-10-17,2024-10-17,株式会社アイキタ,,株式会社,大阪府,吹田市,豊津町２番１号,,27,205,5640051,,,,,,,2024-10-17,1,,,,,アイキタ,0
1793,7130001078066,新規,0,2024-10-17,2024-10-17,株式会社ａｎｄ　ｓｏｎｓ,,株式会社,京都府,宮津市,字小田宿野３７３番地,,26,205,6260052,,,,,,,2024-10-17,1,,,,,アンドサンズ,0
1794,7130001078157,新規,0,2024-10-17,2024-10-17,株式会社ＳＩＤＥ‐Ｂ,,株式会社,京都府,京都市北区,大宮薬師山東町１１番地５０,,26,101,6038474,,,,,,,2024-10-17,1,,,,,サイドビー,0
1795,7130003009936,新規,0,2024-10-17,2024-10-17,合同会社カーボンバレー,,合同会社,京都府,京都市下京区,西七条東御前田町５０番地バーチカル中堂寺Ｖ－１号室,,26,106,6008898,,,,,,,2024-10-17,1,,,,,カーボンバレー,0
1799,7140001136104,新規,0,2024-10-17,2024-10-17,株式会社ＳＫＲＧ,,株式会社,兵庫県,宝塚市,福井町２５番４号,,28,214,6650046,,,,,,,2024-10-17,1,,,,,エスケーアールジー,0
1800,7160001026278,新規,0,2024-10-17,2024-10-17,株式会社ｒｅｖｏｎｅｘ,,株式会社,滋賀県,長浜市,安養寺町５８２番地,,25,203,5260126,,,,,,,2024-10-17,1,,,,,レボネックス,0
1806,7180003027504,新規,0,2024-10-17,2024-10-17,合同会社ココ・ノーブル,,合同会社,愛知県,東海市,富木島町伏見２丁目８番地の５,,23,222,4760012,,,,,,,2024-10-17,1,,,,,ココノーブル,0
1808,7180301039143,新規,0,2024-10-17,2024-10-17,株式会社ファストワン,,株式会社,愛知県,豊田市,高上２丁目３番地１,,23,211,4710013,,,,,,,2024-10-17,1,,,,,ファストワン,0
1809,7180301039151,新規,0,2024-10-17,2024-10-17,株式会社石部工業,,株式会社,愛知県,岡崎市,大平町字杉本２０番地１,,23,202,4440007,,,,,,,2024-10-17,1,,,,,イシベコウギョウ,0
1811,7180303006307,新規,0,2024-10-17,2024-10-17,合同会社クロネコサイクル,,合同会社,愛知県,刈谷市,寿町３丁目２１１番地,,23,210,4480856,,,,,,,2024-10-17,1,,,,,クロネコサイクル,0
1816,7190001031721,新規,0,2024-10-17,2024-10-17,株式会社Ｎｅｘｕｓ,,株式会社,三重県,鈴鹿市,末広南３丁目７番５号,,24,207,5130853,,,,,,,2024-10-17,1,,,,,ネクサス,0
1818,7200001043046,新規,0,2024-10-17,2024-10-17,岐阜スポーツ・コーポレーション株式会社,,株式会社,岐阜県,岐阜市,薮田南１丁目１１番１２号岐阜県水産会館４階,,21,201,5008384,,,,,,,2024-10-17,1,,,,,ギフスポーツコーポレーション,0
1826,7240001063949,新規,0,2024-10-17,2024-10-17,峯松エステート株式会社,,株式会社,広島県,尾道市,因島重井町３５０番地,,34,205,7222102,,,,,,,2024-10-17,1,,,,,ミネマツエステート,0
1827,7240001063957,新規,0,2024-10-17,2024-10-17,株式会社ａｒｃ,,株式会社,広島県,福山市,神辺町大字川南１４１３番地１１,,34,207,7202124,,,,,,,2024-10-17,1,,,,,アーク,0
1836,7270003001680,新規,0,2024-10-17,2024-10-17,ＩＭＡＧＥＷＯＲＫＳ合同会社,,合同会社,鳥取県,米子市,両三柳１６８番地イメージワークスビル２Ｆ,,31,202,6830853,,,,,,,2024-10-17,1,,,,,イメージワークス,0
1841,7290001107610,新規,0,2024-10-17,2024-10-17,株式会社林商事,,株式会社,福岡県,糸島市,前原西４丁目１番３１号,,40,230,8191117,,,,,,,2024-10-17,1,,,,,ハヤシショウジ,0
1842,7290001107635,新規,0,2024-10-17,2024-10-17,株式会社ブルドッグ警備,,株式会社,福岡県,那珂川市,仲２丁目２番１０号アネックスｈｉｒｏ１番館５,,40,231,8111253,,,,,,,2024-10-17,1,,,,,ブルドッグケイビ,0
1843,7290001107643,新規,0,2024-10-17,2024-10-17,株式会社セカンドシーン,,株式会社,福岡県,福岡市中央区,長浜２丁目２番４－７０１号,,40,133,8100072,,,,,,,2024-10-17,1,,,,,セカンドシーン,0
1844,7290003015951,新規,0,2024-10-17,2024-10-17,合同会社帆足商事,,合同会社,福岡県,福岡市中央区,渡辺通５丁目２４番３０－４階,,40,133,8100004,,,,,,,2024-10-17,1,,,,,ホアシショウジ,0
1848,7300001013939,新規,0,2024-10-17,2024-10-17,株式会社ＳＡＧＡビルサービス,,株式会社,佐賀県,佐賀市,鍋島町大字八戸溝２１４１番地４,,41,201,8490932,,,,,,,2024-10-17,1,,,,,サガビルサービス,0
1851,7310001019258,新規,0,2024-10-17,2024-10-17,株式会社斉建築,,株式会社,長崎県,長崎市,滑石３丁目１３番１８号,,42,201,8528061,,,,,,,2024-10-17,1,,,,,ナリケンチク,0
1855,7340003004635,新規,0,2024-10-17,2024-10-17,ＳＥＵＭＩ合同会社,,合同会社,鹿児島県,日置市,東市来町湯田２７５５番地,,46,216,8992201,,,,,,,2024-10-17,1,,,,,セウミ,0
1858,7360001034310,新規,0,2024-10-17,2024-10-17,デジマールリンクス株式会社,,株式会社,沖縄県,那覇市,字小禄１８３１番地１,,47,201,9010152,,,,,,,2024-10-17,1,,,,,デジマールリンクス,0
1859,7360001034327,新規,0,2024-10-17,2024-10-17,株式会社てるてるおきなわ,,株式会社,沖縄県,宮古島市,平良字西里５４１－１,,47,214,9060012,,,,,,,2024-10-17,1,,,,,テルテルオキナワ,0
1861,7360003014384,新規,0,2024-10-17,2024-10-17,合同会社ぴぐれっと,,合同会社,沖縄県,名護市,宮里７丁目６番３９号,,47,209,9050011,,,,,,,2024-10-17,1,,,,,ピグレット,0
1866,7380001034853,新規,0,2024-10-17,2024-10-17,三和ホールディングス株式会社,,株式会社,福島県,いわき市,小名浜字芳浜１１番地の１,,07,204,9718101,,,,,,,2024-10-17,1,,,,,サンワホールディングス,0
1873,7430001092870,新規,0,2024-10-17,2024-10-17,株式会社Ｍｉｎｄ　Ｗｅｌｌｎｅｓｓ,,株式会社,北海道,札幌市西区,発寒六条１３丁目１番１９号,,01,107,0630826,,,,,,,2024-10-17,1,,,,,マインドウェルネス,0
1875,7470001020423,新規,0,2024-10-17,2024-10-17,株式会社七桜建設,,株式会社,香川県,丸亀市,川西町北９９２番地フラワーランドＣ棟１０２号,,37,202,7630091,,,,,,,2024-10-17,1,,,,,ナオケンセツ,0
1880,7700150127516,新規,0,2024-10-17,2024-10-17,Ｔｒｉｐｌｅ　Ｗｉｎ　Ｉｎｖｅｓｔｍｅｎｔ　Ｌｉｍｉｔｅｄ,,外国会社等,,,,,,,,Ｖｉｓｔｒａ　Ｃｏｒｐｏｒａｔｅ　Ｓｅｒｖｉｃｅｓ　Ｃｅｎｔｒｅ，Ｗｉｃｋｈａｍｓ　Ｃａｙ　ＩＩ，Ｒｏａｄ　Ｔｏｗｎ，　Ｔｏｒｔｏｌａ，ＶＧ１１１０，Ｂｒｉｔｉｓｈ　Ｖｉｒｇｉｎ　Ｉｓｌａｎｄｓ．,00136570,,,,,2024-10-17,1,,,,,トリプルウインインベストメントリミテツド,0
1881,7700150127524,新規,0,2024-10-17,2024-10-17,スペシャルキッズ未来構想チャレンジコンソーシアム,,その他,大阪府,大阪市中央区,今橋２丁目５番８号トレードピア淀屋橋９Ｆ　ＢＣＣ株式会社内,,27,128,5410042,,,,,,,2024-10-17,1,,,,,スペシャルキッズミライコウソウチャレンジコンソーシアム,0
1882,7700150127532,新規,0,2024-10-17,2024-10-17,ＳＴＡＲ　ＳＯＲＥＩＬ　ＰＴＥ．ＬＴＤ．,,外国会社等,,,,,,,,５　Ｙｉｓｈｕｎ　ＣＬ，＃０９－１１，Ｓｉｎｇａｐｏｒｅ　７６８００６,,,,,,2024-10-17,1,,,,,スターソレイユ,0
1893,8010001248836,新規,0,2024-10-17,2024-10-17,アンカレッジホールディングス株式会社,,株式会社,東京都,千代田区,神田三崎町３丁目２番１４号ＧＬＯＲＫＳ水道橋７階,,13,101,1010061,,,,,,,2024-10-17,1,,,,,アンカレッジホールディングス,0
1894,8010001249124,新規,0,2024-10-17,2024-10-17,Ｎｏｒｔｈｓｅａ株式会社,,株式会社,東京都,八丈島八丈町,大賀郷２２１９番地,,13,401,1001401,,,,,,,2024-10-17,1,,,,,ノースシー,0
1895,8010001249140,新規,0,2024-10-17,2024-10-17,株式会社ｋａｉｔａｓ,,株式会社,東京都,中央区,日本橋２丁目１番１７号,,13,102,1030027,,,,,,,2024-10-17,1,,,,,カイタス,0
1896,8010001249165,新規,0,2024-10-17,2024-10-17,ＧＯＯＯＯＯＤ株式会社,,株式会社,東京都,中央区,日本橋室町１丁目１１－１２日本橋水野ビル７Ｆ,,13,102,1030022,,,,,,,2024-10-17,1,,,,,グッド,0
1899,8010003045216,新規,0,2024-10-17,2024-10-17,合同会社２メガワット,,合同会社,東京都,千代田区,内幸町１丁目２番２号,,13,101,1000011,,,,,,,2024-10-17,1,,,,,,0
1906,8010401185720,新規,0,2024-10-17,2024-10-17,株式会社Ｅｇｏａｌｖｅ,,株式会社,東京都,港区,北青山２丁目１２番８号ＢＩＺＳＭＡＲＴ青山２０２号室,,13,103,1070061,,,,,,,2024-10-17,1,,,,,イゴルブ,0
1907,8010401185745,新規,0,2024-10-17,2024-10-17,株式会社Ｓｈａｒｅ　ＴＯＮ,,株式会社,東京都,港区,南青山２丁目２－１５ウィン青山５０３号室,,13,103,1070062,,,,,,,2024-10-17,1,,,,,シェアトン,0
1915,8010801035483,新規,0,2024-10-17,2024-10-17,株式会社ビジネス・アンド・タレントストラテジー,,株式会社,東京都,大田区,山王２丁目５番６号,,13,111,1430023,,,,,,,2024-10-17,1,,,,,ビジネスアンドタレントストラテジー,0
1918,8010901056140,新規,0,2024-10-17,2024-10-17,リバーストーン・パートナーズ株式会社,,株式会社,東京都,世田谷区,尾山台２丁目４番４号,,13,112,1580086,,,,,,,2024-10-17,1,,,,,リバーストーンパートナーズ,0
1919,8010901056149,新規,0,2024-10-17,2024-10-17,ＢＵＮＧＯ中川株式会社,,株式会社,東京都,世田谷区,奥沢３丁目１２番１１号,,13,112,1580083,,,,,,,2024-10-17,1,,,,,ブンゴナカガワ,0
1921,8010903009419,新規,0,2024-10-17,2024-10-17,合同会社バーディ,,合同会社,東京都,世田谷区,北沢４丁目１５番２５号,,13,112,1550031,,,,,,,2024-10-17,1,,,,,バーディ,0
1934,8011001165162,新規,0,2024-10-17,2024-10-17,ｋｙｏ‐ｗａホテル株式会社,,株式会社,東京都,目黒区,八雲３丁目８番１０号,,13,110,1520023,,,,,,,2024-10-17,1,,,,,キョウワホテル,0
1935,8011001165187,新規,0,2024-10-17,2024-10-17,株式会社Ｑｕａｎｔａｍ　Ｍｅｄｉｃｉｎｅ,,株式会社,東京都,渋谷区,恵比寿１丁目２０番２６号ＪＥＬＡ恵比寿レジデンス６０１,,13,113,1500013,,,,,,,2024-10-17,1,,,,,クォンタムメディスン,0
1936,8011001165195,新規,0,2024-10-17,2024-10-17,ＭｏＬｉ株式会社,,株式会社,東京都,渋谷区,道玄坂１丁目１０番８号渋谷道玄坂東急ビル２Ｆ－Ｃ,,13,113,1500043,,,,,,,2024-10-17,1,,,,,モリ,0
1939,8011003020167,新規,0,2024-10-17,2024-10-17,合同会社Ｃ‐ＣＬＵＢ,,合同会社,東京都,渋谷区,恵比寿西２丁目４番８号８Ｆ,,13,113,1500021,,,,,,,2024-10-17,1,,,,,シークラブ,0
1944,8011301030082,新規,0,2024-10-17,2024-10-17,株式会社あかりプロダクツ,,株式会社,東京都,杉並区,荻窪５丁目１２番６号エリュシオン荻窪Ｂ,,13,115,1670051,,,,,,,2024-10-17,1,,,,,アカリプロダクツ,0
1947,8011501031277,新規,0,2024-10-17,2024-10-17,株式会社Ｔｅｉｒｅジョーズ,,株式会社,東京都,北区,滝野川７丁目３９番７号,,13,117,1140023,,,,,,,2024-10-17,1,,,,,テイレジョーズ,0
1948,8011503006260,新規,0,2024-10-17,2024-10-17,クラフトコーラヴィレッジ合同会社,,合同会社,東京都,荒川区,西日暮里６丁目１０－１２,,13,118,1160013,,,,,,,2024-10-17,1,,,,,クラフトコーラヴィレッジ,0
1951,8011603004486,新規,0,2024-10-17,2024-10-17,合同会社ＥＡＳＹ　ＣＯＭＰＡＮＹ,,合同会社,東京都,練馬区,土支田４丁目９－１メゾンドカトウ１０３号,,13,120,1790076,,,,,,,2024-10-17,1,,,,,イージーカンパニー,0
1961,8013301053245,新規,0,2024-10-17,2024-10-17,株式会社Ｘｅｎ,,株式会社,東京都,豊島区,東池袋１丁目３４番５号いちご東池袋ビル６階,,13,116,1700013,,,,,,,2024-10-17,1,,,,,ゼン,0
1969,8020001159710,新規,0,2024-10-17,2024-10-17,Ｔａｕｒｕｓ＆Ｖｉｒｇｏ　Ｉｎｖｅｓｔｍｅｎｔ株式会社,,株式会社,神奈川県,横浜市青葉区,田奈町３０番地２０,,14,117,2270064,,,,,,,2024-10-17,1,,,,,トーラスアンドヴァーゴインベストメント,0
1970,8020001159743,新規,0,2024-10-17,2024-10-17,株式会社ケアワーク,,株式会社,神奈川県,横浜市中区,元町４丁目１６８Ｂｉｚｃｏｍｆｏｒｔ元町ビル３階,,14,104,2310861,,,,,,,2024-10-17,1,,,,,ケアワーク,0
1975,8021001083495,新規,0,2024-10-17,2024-10-17,株式会社庄司組,,株式会社,神奈川県,茅ヶ崎市,中海岸３丁目１１番２４号ＳＥＡ茅ヶ崎ビル１Ｂ,,14,207,2530055,,,,,,,2024-10-17,1,,,,,ショウジグミ,0
1997,8030001162969,新規,0,2024-10-17,2024-10-17,株式会社ハイエンス,,株式会社,埼玉県,草加市,青柳３丁目２５番３号,,11,221,3400002,,,,,,,2024-10-17,1,,,,,ハイエンス,0
1998,8030001163026,新規,0,2024-10-17,2024-10-17,株式会社ＡＩＡＮ,,株式会社,埼玉県,蕨市,錦町４丁目８番３号,,11,223,3350005,,,,,,,2024-10-17,1,,,,,アイアン,0
2010,8040001135809,新規,0,2024-10-17,2024-10-17,株式会社ＵＮＳＰＡＣＥ,,株式会社,千葉県,船橋市,印内町６０３－１,,12,204,2730025,,,,,,,2024-10-17,1,,,,,アンスペース,0
2011,8040001135825,新規,0,2024-10-17,2024-10-17,株式会社アラデア,,株式会社,千葉県,千葉市美浜区,中瀬１丁目３番地幕張テクノガーデンＣＢ棟３階,,12,106,2610023,,,,,,,2024-10-17,1,,,,,アラデア,0
2014,8040003025999,新規,0,2024-10-17,2024-10-17,合同会社ＧｅｌｅｇｅｎｈｅＩＴ,,合同会社,千葉県,佐倉市,染井野７丁目２８番地５,,12,212,2850831,,,,,,,2024-10-17,1,,,,,ゲレーゲンハイト,0
2015,8040005022549,新規,0,2024-10-17,2024-10-17,一般社団法人プロモーション白子,,その他の設立登記法人,千葉県,長生郡白子町,関５０７４番地２,,12,424,2994218,,,,,,,2024-10-17,1,,,,,プロモーションシラコ,0
2023,8060003005289,新規,0,2024-10-17,2024-10-17,プレイリーソリューションズ合同会社,,合同会社,栃木県,宇都宮市,江曽島４丁目１１２５番地１１,,09,201,3210107,,,,,,,2024-10-17,1,,,,,プレイリーソリューションズ,0
2025,8070001042267,新規,0,2024-10-17,2024-10-17,東栄産業株式会社,,株式会社,群馬県,北群馬郡吉岡町,大字上野田１３２９番地９２,,10,345,3703606,,,,,,,2024-10-17,1,,,,,トウエイサンギョウ,0
2040,8120001269400,新規,0,2024-10-17,2024-10-17,株式会社ＭｉｌｌｅＶｏｒ,,株式会社,大阪府,大阪市北区,曾根崎新地１丁目６番４号日宝ラフォーレ北新地ビル５階,,27,127,5300002,,,,,,,2024-10-17,1,,,,,ミルヴォール,0
2041,8120001269433,新規,0,2024-10-17,2024-10-17,株式会社通形,,株式会社,大阪府,大阪市港区,弁天１丁目３番１３号クロスタワー大阪ベイ２１０４,,27,107,5520007,,,,,,,2024-10-17,1,,,,,トオガタ,0
2042,8120001269441,新規,0,2024-10-17,2024-10-17,株式会社ＳＨＩＮＴＲＹ,,株式会社,大阪府,大阪市北区,大淀南１丁目１１番５号,,27,127,5310075,,,,,,,2024-10-17,1,,,,,シントライ,0
2043,8120003027764,新規,0,2024-10-17,2024-10-17,合同会社翼企画,,合同会社,大阪府,大阪市東成区,中本１丁目１０－１０,,27,115,5370022,,,,,,,2024-10-17,1,,,,,ツバサキカク,0
2044,8120003027772,新規,0,2024-10-17,2024-10-17,スマートライフワン合同会社,,合同会社,大阪府,大阪市城東区,東中浜６丁目２番１５号,,27,118,5360023,,,,,,,2024-10-17,1,,,,,スマートライフワン,0
2046,8120005024578,新規,0,2024-10-17,2024-10-17,一般社団法人きっかけ,,その他の設立登記法人,大阪府,大阪市城東区,中央２丁目１５番２３号,,27,118,5360005,,,,,,,2024-10-17,1,,,,,キッカケ,0
2048,8120101070410,新規,0,2024-10-17,2024-10-17,株式会社Ｏｆｆｉｃｉａｌ　Ｎｉ,,株式会社,大阪府,岸和田市,土生町６丁目２４番３号,,27,202,5960825,,,,,,,2024-10-17,1,,,,,オフィシャルエヌアイ,0
2049,8120101070435,新規,0,2024-10-17,2024-10-17,株式会社ブルーオーシャン,,株式会社,大阪府,堺市西区,浜寺元町３丁３３３番地,,27,144,5928343,,,,,,,2024-10-17,1,,,,,ブルーオーシャン,0
2051,8120901049918,新規,0,2024-10-17,2024-10-17,株式会社平和テレビサービス,,株式会社,大阪府,豊中市,大島町２丁目１６番２号,,27,203,5610824,,,,,,,2024-10-17,1,,,,,ヘイワテレビサービス,0
2052,8120903005373,新規,0,2024-10-17,2024-10-17,合同会社Ｓｈｅ　Ｒｉｓｅ　Ｅｎｔｅｒｐｒｉｓｅｓ,,合同会社,大阪府,高槻市,月見町１３番２１号,,27,207,5691122,,,,,,,2024-10-17,1,,,,,シーライズエンタープライズィズ,0
2053,8122001038545,新規,0,2024-10-17,2024-10-17,ＰＴＭ　ＪＡＰＡＮ株式会社,,株式会社,大阪府,大東市,諸福３丁目３番２号,,27,218,5740044,,,,,,,2024-10-17,1,,,,,ピーティーエムジャパン,0
2057,8130001078148,新規,0,2024-10-17,2024-10-17,庭山京都株式会社,,株式会社,京都府,京都市上京区,葭屋町通出水上る亀屋町３３１番地グランディール葭屋４０５号室,,26,102,6028119,,,,,,,2024-10-17,1,,,,,テイザンキョウト,0
2058,8130001078164,新規,0,2024-10-17,2024-10-17,株式会社ＳＹＴ,,株式会社,京都府,八幡市,内里河原４７番２,,26,210,6148233,,,,,,,2024-10-17,1,,,,,エスワイティ,0
2068,8140001136094,新規,0,2024-10-17,2024-10-17,株式会社セン,,株式会社,兵庫県,神戸市西区,桜が丘中町２丁目３番地の１０,,28,111,6512226,,,,,,,2024-10-17,1,,,,,セン,0
2069,8140001136103,新規,0,2024-10-17,2024-10-17,ＫＳ　Ｉｎｖｅｓｔｍｅｎｔ株式会社,,株式会社,兵庫県,西宮市,泉町７番６号,,28,204,6620932,,,,,,,2024-10-17,1,,,,,ケイエスインベストメント,0
2076,8160001026277,新規,0,2024-10-17,2024-10-17,株式会社農家の嫁,,株式会社,滋賀県,高島市,安曇川町中野２９２番地,,25,212,5201204,,,,,,,2024-10-17,1,,,,,,0
2078,8170005007108,新規,0,2024-10-17,2024-10-17,一般社団法人女性狩猟会里山アップサイクル,,その他の設立登記法人,和歌山県,和歌山市,加太２２０１番地１２１,,30,201,6400103,,,,,,,2024-10-17,1,,,,,ジョセイシュリョウカイサトヤマアップサイクル,0
2084,8180301039150,新規,0,2024-10-17,2024-10-17,株式会社ＮＫ,,株式会社,愛知県,豊橋市,石巻本町字向野７番地６７,,23,201,4411115,,,,,,,2024-10-17,1,,,,,エヌケー,0
2088,8190003004831,新規,0,2024-10-17,2024-10-17,合同会社チームドリーム,,合同会社,三重県,亀山市,川合町７２９番地６,,24,210,5190103,,,,,,,2024-10-17,1,,,,,チームドリーム,0
2089,8200001043045,新規,0,2024-10-17,2024-10-17,ＣａｒＷｏｒｌｄ株式会社,,株式会社,岐阜県,恵那市,東野１８８９－３,,21,210,5097202,,,,,,,2024-10-17,1,,,,,カーワールド,0
2090,8200003006545,新規,0,2024-10-17,2024-10-17,合同会社イトウＡＴＳ,,合同会社,岐阜県,美濃加茂市,田島町３丁目１１番地１０シャンベール森川Ｂ１０１,,21,211,5050032,,,,,,,2024-10-17,1,,,,,イトウエーティーエス,0
2097,8240001063948,新規,0,2024-10-17,2024-10-17,株式会社ＲＥＡＣＨ,,株式会社,広島県,広島市東区,戸坂くるめ木２丁目１６番２７－２０３号,,34,102,7320008,,,,,,,2024-10-17,1,,,,,リーチ,0
2101,8270001009072,新規,0,2024-10-17,2024-10-17,株式会社アイ・クリエート,,株式会社,鳥取県,鳥取市,扇町１３３番地２,,31,201,6800846,,,,,,,2024-10-17,1,,,,,アイクリエート,0
2102,8290001107592,新規,0,2024-10-17,2024-10-17,売れるネット広告社株式会社,,株式会社,福岡県,福岡市早良区,百道浜２丁目３番８号,,40,137,8140001,,,,,,,2024-10-17,1,,,,,ウレルネットコウコクシャ,0
2103,8290001107626,新規,0,2024-10-17,2024-10-17,株式会社Ｍｏｏｎ　Ｆｏｏｔ　Ｔｏｏｌ,,株式会社,福岡県,柳川市,下宮永町１６０番地２,,40,207,8320059,,,,,,,2024-10-17,1,,,,,ムーンフットツール,0
2104,8290001107634,新規,0,2024-10-17,2024-10-17,株式会社トライウィンコンサルティング,,株式会社,福岡県,福岡市南区,曰佐３丁目５番３６号,,40,134,8111313,,,,,,,2024-10-17,1,,,,,トライウィンコンサルティング,0
2106,8290003015959,新規,0,2024-10-17,2024-10-17,合同会社すずめの巣,,合同会社,福岡県,福岡市博多区,博多駅前１丁目２３番２号ＰａｒｋＦｒｏｎｔ博多駅前１丁目５Ｆ－Ｂ,,40,132,8120011,,,,,,,2024-10-17,1,,,,,スズメノス,0
2107,8290005019529,新規,0,2024-10-17,2024-10-17,一般社団法人八女のＰＲ,,その他の設立登記法人,福岡県,八女市,津江３３１番１,,40,210,8340024,,,,,,,2024-10-17,1,,,,,ヤメノピーアール,0
2108,8290801030969,新規,0,2024-10-17,2024-10-17,株式会社マエハマ,,株式会社,福岡県,北九州市小倉南区,東貫３丁目１２番２７号,,40,107,8000224,,,,,,,2024-10-17,1,,,,,マエハマ,0
2113,8300001013938,新規,0,2024-10-17,2024-10-17,株式会社島崎商会,00136658,株式会社,佐賀県,佐賀市,嘉瀬町大字中原１７８０番地１,,41,201,8400861,,,,,,,2024-10-17,1,,,,,シマザキショウカイ,0
2119,8340001026861,新規,0,2024-10-17,2024-10-17,キリシマ運輸株式会社,,株式会社,鹿児島県,霧島市,隼人町東郷６３６番地５,,46,218,8995115,,,,,,,2024-10-17,1,,,,,キリシマウンユ,0
2121,8360001034326,新規,0,2024-10-17,2024-10-17,株式会社あおいファーム沖縄,,株式会社,沖縄県,宮古島市,平良字西里５４１－１,,47,214,9060012,,,,,,,2024-10-17,1,,,,,アオイファームオキナワ,0
2131,8380001034852,新規,0,2024-10-17,2024-10-17,ｔｈａｎｋＳインベストメント株式会社,,株式会社,福島県,郡山市,富田町字町内４３番地,,07,203,9638041,,,,,,,2024-10-17,1,,,,,サンクスインベストメント,0
2140,8470001020414,新規,0,2024-10-17,2024-10-17,株式会社ＦｏｒｃｅＥｎｇｉｎｅ,,株式会社,香川県,高松市,天神前１０番５号高松セントラルスカイビルディング３Ｆｓｏｕｔｈ,,37,201,7600018,,,,,,,2024-10-17,1,,,,,フォースエンジン,0
2141,8470001020422,新規,0,2024-10-17,2024-10-17,株式会社ＰＲニュース,,株式会社,香川県,高松市,観光通２丁目３番２２号,,37,201,7600055,,,,,,,2024-10-17,1,,,,,ピーアールニュース,0
2144,8700150127523,新規,0,2024-10-17,2024-10-17,Ｆｉｄｅｎｔｉａ　Ｎｏ　６００　ＬＬＰ,,外国会社等,,,,,,,,Ｏｎｅ　Ｌｉｍｅ　Ｓｔｒｅｅｔ，Ｌｏｎｄｏｎ　ＥＣ３Ｍ　７ＨＡ　ＵＫ,,,,,,2024-10-17,1,,,,,フイデンテイアナンバーシツクスゼロゼロエルエルピー,0
2169,9010405023660,新規,0,2024-10-17,2024-10-17,ＴＲＪ一般社団法人,,その他の設立登記法人,東京都,港区,元麻布３丁目１番６号,,13,103,1060046,,,,,,,2024-10-17,1,,,,,ティーアールジェー,0
2180,9010703007381,新規,0,2024-10-17,2024-10-17,合同会社Ｌｏアシスト,,合同会社,東京都,品川区,西大井４丁目５番地４号,,13,109,1400015,,,,,,,2024-10-17,1,,,,,エルオーアシスト,0
2182,9010801035482,新規,0,2024-10-17,2024-10-17,エスオーレ株式会社,,株式会社,東京都,大田区,山王４丁目１３番１３号,,13,111,1430023,,,,,,,2024-10-17,1,,,,,エスオーレ,0
2183,9010801035490,新規,0,2024-10-17,2024-10-17,株式会社Ｇｅ‐Ｒａｆｆｅ,,株式会社,東京都,大田区,山王３丁目６番２１号,,13,111,1430023,,,,,,,2024-10-17,1,,,,,ジラフ,0
2187,9010901056148,新規,0,2024-10-17,2024-10-17,株式会社ディ・アイ・エー,,株式会社,東京都,世田谷区,梅丘２丁目１４番１６号,,13,112,1540022,,,,,,,2024-10-17,1,,,,,ディアイエー,0
2188,9010901056156,新規,0,2024-10-17,2024-10-17,株式会社ＢＡＢＡ,,株式会社,東京都,世田谷区,上馬３丁目１３番６号,,13,112,1540011,,,,,,,2024-10-17,1,,,,,ババ,0
2189,9010903009418,新規,0,2024-10-17,2024-10-17,合同会社コネクション,,合同会社,東京都,世田谷区,松原３丁目３７－１７クロノス明大前３０３号室,,13,112,1560043,,,,,,,2024-10-17,1,,,,,コネクション,0
2193,9011003020166,新規,0,2024-10-17,2024-10-17,合同会社サード,,合同会社,東京都,渋谷区,幡ヶ谷２丁目１２番３４号幡ヶ谷中央ビル１０４,,13,113,1510072,,,,,,,2024-10-17,1,,,,,,0
2196,9011101109134,新規,0,2024-10-17,2024-10-17,株式会社ＦＢＴ,,株式会社,東京都,新宿区,新宿５丁目１７番２号ＹＭビル３０１,,13,104,1600022,,,,,,,2024-10-17,1,,,,,エフビーティ,0
2197,9011101109159,新規,0,2024-10-17,2024-10-17,株式会社フルラボ,,株式会社,東京都,新宿区,西新宿７丁目７番３０号小田急西新宿Ｏ－ＰＬＡＣＥ１階,,13,104,1600023,,,,,,,2024-10-17,1,,,,,フルラボ,0
2199,9011103015025,新規,0,2024-10-17,2024-10-17,Ｉｎｆｉｎｉｔｅ　Ｃａｐ合同会社,,合同会社,東京都,新宿区,四谷４丁目２２番地９－３０２号室,,13,104,1600004,,,,,,,2024-10-17,1,,,,,インフィニットキャップ,0
2200,9011103015041,新規,0,2024-10-17,2024-10-17,合同会社ライトアップ,,合同会社,東京都,新宿区,北新宿１丁目１９－１２リヴシティ新宿壱番館１０９,,13,104,1690074,,,,,,,2024-10-17,1,,,,,ライトアップ,0
2203,9011403004529,新規,0,2024-10-17,2024-10-17,合同会社ＴＯＫＹＯＰＨＩＬＩＡ,,合同会社,東京都,板橋区,大山東町３０番９－５０６号,,13,119,1730014,,,,,,,2024-10-17,1,,,,,トウキョウフィリア,0
2204,9011501031276,新規,0,2024-10-17,2024-10-17,株式会社貴主奈,,株式会社,東京都,荒川区,荒川７丁目１６番６号,,13,118,1160002,,,,,,,2024-10-17,1,,,,,キズナ,0
2205,9011603004477,新規,0,2024-10-17,2024-10-17,合同会社Ａｔ．Ｔｒｏｙｅｓ,,合同会社,東京都,練馬区,田柄２丁目２３番１６号フラワーハイツ１０２号室,,13,120,1790073,,,,,,,2024-10-17,1,,,,,アットトロワーズ,0
2212,9012403006795,新規,0,2024-10-17,2024-10-17,ウルコレ合同会社,,合同会社,東京都,府中市,本町２丁目６番地の８ベルヴェ府中３０５,,13,206,1830027,,,,,,,2024-10-17,1,,,,,ウルコレ,0
2218,9020001159602,新規,0,2024-10-17,2024-10-17,星火株式会社,,株式会社,神奈川県,横浜市磯子区,岡村４丁目６番１４号,,14,107,2350021,,,,,,,2024-10-17,1,,,,,セイカ,0
2219,9020001159643,新規,0,2024-10-17,2024-10-17,株式会社ＳＳホールディングス,,株式会社,神奈川県,川崎市川崎区,宮本町６番地１高木ビル２０１号室,,14,131,2100004,,,,,,,2024-10-17,1,,,,,エスエスホールディングス,0
2227,9021001083494,新規,0,2024-10-17,2024-10-17,株式会社りすたーと,,株式会社,神奈川県,相模原市中央区,田名６０６８番地１３,,14,152,2520244,,,,,,,2024-10-17,1,,,,,リスタート,0
2228,9021001083511,新規,0,2024-10-17,2024-10-17,ＴＥＭＡＲＩ株式会社,,株式会社,神奈川県,海老名市,扇町１４番４号グレーシアタワーズ海老名１８０１号,,14,215,2430436,,,,,,,2024-10-17,1,,,,,テマリ,0
2235,9021003015108,新規,0,2024-10-17,2024-10-17,ユニティケアグループ合同会社,,合同会社,神奈川県,南足柄市,塚原８６９,,14,217,2500117,,,,,,,2024-10-17,1,,,,,ユニティケアグループ,0
2244,9030001162927,新規,0,2024-10-17,2024-10-17,株式会社ＢＴＭ,,株式会社,埼玉県,上尾市,愛宕１丁目７番１０号コスモ上尾１０４号室,,11,219,3620034,,,,,,,2024-10-17,1,,,,,ビーティーエム,0
2245,9030001162935,新規,0,2024-10-17,2024-10-17,Ｓｋｙ　Ｇｒｏｗ株式会社,,株式会社,埼玉県,さいたま市大宮区,桜木町１丁目１９５番地１大宮ソラミチＫＯＺ４階,,11,103,3300854,,,,,,,2024-10-17,1,,,,,スカイグロウ,0
2246,9030001162951,新規,0,2024-10-17,2024-10-17,株式会社想華,,株式会社,埼玉県,川口市,大字新堀３番地の１,,11,203,3340061,,,,,,,2024-10-17,1,,,,,コノハ,0
2247,9030001162976,新規,0,2024-10-17,2024-10-17,株式会社ＴＯＷＡＮＩ,,株式会社,埼玉県,坂戸市,関間４丁目１４番１６,,11,239,3500215,,,,,,,2024-10-17,1,,,,,トワニ,0
2251,9030003025272,新規,0,2024-10-17,2024-10-17,小山田商事合同会社,,合同会社,埼玉県,越谷市,新川町１丁目４２４番地１,,11,222,3430852,,,,,,,2024-10-17,1,,,,,オヤマダショウジ,0
2252,9030003025314,新規,0,2024-10-17,2024-10-17,合同会社ティーエスユー,,合同会社,埼玉県,南埼玉郡宮代町,本田５丁目１４番５号,,11,442,3450827,,,,,,,2024-10-17,1,,,,,ティーエスユー,0
2253,9030005021889,新規,0,2024-10-17,2024-10-17,医療法人ＩＤＣ,,その他の設立登記法人,埼玉県,新座市,野火止１丁目１４番１７号井上ビル２階,,11,230,3520011,,,,,,,2024-10-17,1,,,,,アイディーシー,0
2261,9040001135824,新規,0,2024-10-17,2024-10-17,株式会社ＦＯＣＵＳ,,株式会社,千葉県,流山市,鰭ケ崎１３３５番地６,,12,220,2700161,,,,,,,2024-10-17,1,,,,,フォーカス,0
2263,9040003025998,新規,0,2024-10-17,2024-10-17,合同会社みらい石材,,合同会社,千葉県,佐倉市,新臼井田３８番１５号,,12,212,2850862,,,,,,,2024-10-17,1,,,,,ミライセキザイ,0
2271,9060003005288,新規,0,2024-10-17,2024-10-17,合同会社ＫＩＹＡＲＡ　ＩＮＴＥＲＮＡＴＩＯＮＡＬ,,合同会社,栃木県,足利市,小俣町字半沢３４０８番２－２,,09,202,3260141,,,,,,,2024-10-17,1,,,,,キヤラインターナショナル,0
2272,9070001042258,新規,0,2024-10-17,2024-10-17,尾瀬観光株式会社,,株式会社,群馬県,利根郡片品村,大字戸倉７８０番地,,10,443,3780411,,,,,,,2024-10-17,1,,,,,,0
2273,9070003005618,新規,0,2024-10-17,2024-10-17,合同会社ＴｅｃｈＮｏｃｈｉ,,合同会社,群馬県,前橋市,三俣町１丁目１３番地２０,,10,201,3710018,,,,,,,2024-10-17,1,,,,,テックノチ,0
2280,9100001037923,新規,0,2024-10-17,2024-10-17,Ｍｉｃｋ＆Ｌｕｃｉｅ株式会社,,株式会社,長野県,飯山市,大字飯山１１４９２番地３３１,,20,213,3892253,,,,,,,2024-10-17,1,,,,,ミックアンドルーシー,0
2290,9120001269341,新規,0,2024-10-17,2024-10-17,リリーブライトン株式会社,,株式会社,大阪府,寝屋川市,三井南町１８番５号香里ニューハイツ１０２号,,27,215,5720019,,,,,,,2024-10-17,1,,,,,リリーブライトン,0
2291,9120001269382,新規,0,2024-10-17,2024-10-17,ＧＲＬ株式会社,,株式会社,大阪府,大阪市生野区,巽東１丁目１番２号ナティーイースト６０２,00136662,27,116,5440014,,,,,,,2024-10-17,1,,,,,グレイル,0
2292,9120001269390,新規,0,2024-10-17,2024-10-17,株式会社Ａ,,株式会社,大阪府,大阪市港区,磯路１丁目３－２,,27,107,5520003,,,,,,,2024-10-17,1,,,,,アルファ,0
2293,9120001269399,新規,0,2024-10-17,2024-10-17,大福株式会社,,株式会社,大阪府,大阪市東住吉区,湯里２丁目１１番１３号,,27,121,5460013,,,,,,,2024-10-17,1,,,,,ダイフク,0
2294,9120001269440,新規,0,2024-10-17,2024-10-17,株式会社ストラクチュア,,株式会社,大阪府,大阪市中央区,徳井町１丁目３番１２－１３０５号,,27,128,5400025,,,,,,,2024-10-17,1,,,,,ストラクチュア,0
2295,9120001269465,新規,0,2024-10-17,2024-10-17,東昇株式会社,,株式会社,大阪府,大阪市東淀川区,大桐２丁目２０－２２－２０３号,,27,114,5330011,,,,,,,2024-10-17,1,,,,,トウショウ,0
2297,9120003027747,新規,0,2024-10-17,2024-10-17,Ｓａｌｏｎ　ｄｅ　ＡＩ合同会社,,合同会社,大阪府,大阪市北区,梅田１丁目２番２号大阪駅前第２ビル１２－１２,,27,127,5300001,,,,,,,2024-10-17,1,,,,,サロンデエーアイ,0
2298,9120003027763,新規,0,2024-10-17,2024-10-17,Ｓ．Ｋ．Ｍ合同会社,,合同会社,大阪府,大阪市中央区,本町２丁目３－４アソルデ本町４Ｆ,,27,128,5410053,,,,,,,2024-10-17,1,,,,,エスケイエム,0
2299,9120003027771,新規,0,2024-10-17,2024-10-17,アミスタ合同会社,,合同会社,大阪府,大阪市西区,南堀江４丁目２４番１０－５１６号,,27,106,5500015,,,,,,,2024-10-17,1,,,,,アミスタ,0
2303,9120101070401,新規,0,2024-10-17,2024-10-17,株式会社ベストＧＮ,,株式会社,大阪府,堺市中区,平井２８番地３,,27,142,5998251,,,,,,,2024-10-17,1,,,,,ベストジーエヌ,0
2304,9120101070426,新規,0,2024-10-17,2024-10-17,Ｎ．ｉ．ｃ株式会社,,株式会社,大阪府,堺市堺区,榎元町１丁２番１７－７０８号,,27,141,5900027,,,,,,,2024-10-17,1,,,,,エヌアイシー,0
2305,9120901049900,新規,0,2024-10-17,2024-10-17,株式会社ＡＫＡＬＡ,,株式会社,大阪府,吹田市,南金田２丁目２４番１２号,,27,205,5640044,,,,,,,2024-10-17,1,,,,,アカラ,0
2306,9120901049909,新規,0,2024-10-17,2024-10-17,ＨＡＫＵＭＡ電気株式会社,,株式会社,大阪府,茨木市,大字桑原２０番地の２,,27,211,5680094,,,,,,,2024-10-17,1,,,,,ハクマデンキ,0
2309,9130001078106,新規,0,2024-10-17,2024-10-17,ＮＩＣＥ　ＪＵＭＰ株式会社,,株式会社,京都府,京都市左京区,下鴨岸本町２３番地１サンクシャンブル１０２号室,,26,103,6060853,,,,,,,2024-10-17,1,,,,,ナイスジャンプ,0
2310,9130001078139,新規,0,2024-10-17,2024-10-17,丸忠株式会社,,株式会社,京都府,八幡市,八幡女郎花４０番地マイエルモファンタジー１１０室,,26,210,6148077,,,,,,,2024-10-17,1,,,,,マルチュウ,0
2311,9130001078155,新規,0,2024-10-17,2024-10-17,株式会社ＦＫ‐ＲＩＳＥ,,株式会社,京都府,京都市西京区,牛ケ瀬弥生町４０番地,,26,111,6158046,,,,,,,2024-10-17,1,,,,,エフケーライズ,0
2315,9140001136093,新規,0,2024-10-17,2024-10-17,株式会社オルキデ,,株式会社,兵庫県,芦屋市,翠ケ丘町６番６－２０３号,,28,206,6590014,,,,,,,2024-10-17,1,,,,,オルキデ,0
2316,9140001136102,新規,0,2024-10-17,2024-10-17,株式会社見附溶接工事,,株式会社,兵庫県,たつの市,揖西町土師４丁目１６６番地,,28,229,6794017,,,,,,,2024-10-17,1,,,,,ミツケヨウセツコウジ,0
2317,9140001136151,新規,0,2024-10-17,2024-10-17,株式会社Ｐｉｃｃｏｌｏ　Ｐｏｎｔｅ,,株式会社,兵庫県,神戸市西区,井吹台西町４丁目３９番地の７,,28,111,6512243,,,,,,,2024-10-17,1,,,,,ピッコロポンテ,0
2319,9140003021203,新規,0,2024-10-17,2024-10-17,合同会社優愛,,合同会社,兵庫県,明石市,大久保町西島９９４番地の１,,28,203,6740065,,,,,,,2024-10-17,1,,,,,,0
2327,9160001026284,新規,0,2024-10-17,2024-10-17,株式会社星彩ｓｙｎｅｒｇｙ,,株式会社,滋賀県,近江八幡市,八木町３２０番地２,,25,204,5230051,,,,,,,2024-10-17,1,,,,,ホシイロシナジー,0
2335,9180005020802,新規,0,2024-10-17,2024-10-17,あさひせと税理士法人,,その他の設立登記法人,愛知県,瀬戸市,さつき台１丁目４番地,,23,204,4890982,,,,,,,2024-10-17,1,,,,,アサヒセト,0
2344,9200003006544,新規,0,2024-10-17,2024-10-17,ｍｉｍｏｒｋ合同会社,,合同会社,岐阜県,中津川市,蛭川２６７８番地１３,,21,206,5098301,,,,,,,2024-10-17,1,,,,,ミモーク,0
2347,9220001026237,新規,0,2024-10-17,2024-10-17,株式会社ＪＥＵＮＥｓ　ＡＶＥＲＥＥＬ,,株式会社,石川県,野々市市,御経塚２丁目１９７番地,,17,212,9218801,,,,,,,2024-10-17,1,,,,,ジュアンズアヴリール,0
2348,9230001020569,新規,0,2024-10-17,2024-10-17,株式会社Ｂ‐ＤＡＳＨ,,株式会社,富山県,砺波市,中村３５９番地,,16,208,9391381,,,,,,,2024-10-17,1,,,,,ビーダッシュ,0
2350,9240001063947,新規,0,2024-10-17,2024-10-17,株式会社ウィンクマーク,,株式会社,広島県,三原市,新倉２丁目１２番１号,,34,204,7230134,,,,,,,2024-10-17,1,,,,,ウィンクマーク,0
2351,9240001063955,新規,0,2024-10-17,2024-10-17,株式会社ロイヤルマリンコーポレーション,,株式会社,広島県,広島市安芸区,船越南４丁目８番３０号,,34,107,7360082,,,,,,,2024-10-17,1,,,,,ロイヤルマリンコーポレーション,0
2352,9240001063963,新規,0,2024-10-17,2024-10-17,ＡＰＥＸ株式会社,,株式会社,広島県,広島市南区,大州２丁目１３番２０号,,34,103,7320802,,,,,,,2024-10-17,1,,,,,エイペックス,0
2354,9260001039540,新規,0,2024-10-17,2024-10-17,ＫＳＪ８株式会社,,株式会社,岡山県,岡山市北区,錦町１番１号岡山駅前ビル４階,,33,101,7000902,,,,,,,2024-10-17,1,,,,,ケイエスジェーエイト,0
2358,9290001107542,新規,0,2024-10-17,2024-10-17,美辰彩食株式会社,,株式会社,福岡県,福岡市南区,井尻２丁目３２－２５ロマネスク井尻第２－１０３号室,,40,134,8111302,,,,,,,2024-10-17,1,,,,,ビシンサイショク,0
2359,9290001107583,新規,0,2024-10-17,2024-10-17,株式会社アミュレット,,株式会社,福岡県,福岡市中央区,今川１丁目１９番３４号スウィング大濠２０３号,,40,133,8100054,,,,,,,2024-10-17,1,,,,,アミュレット,0
2360,9290001107591,新規,0,2024-10-17,2024-10-17,株式会社ＬＩＭＯＺＡ,,株式会社,福岡県,久留米市,津福本町５５１－８,,40,203,8300047,,,,,,,2024-10-17,1,,,,,リモザ,0
2361,9290001107609,新規,0,2024-10-17,2024-10-17,株式会社ニューワールドオーガニック,,株式会社,福岡県,久留米市,田主丸町田主丸１０６０番地１２,,40,203,8391233,,,,,,,2024-10-17,1,,,,,ニューワールドオーガニック,0
2362,9290001107625,新規,0,2024-10-17,2024-10-17,株式会社Ｃｒｉｔｉｃａｌ　Ｓｃｏｐｅ,,株式会社,福岡県,福岡市中央区,大濠１丁目１２番１７－４０２号,,40,133,8100052,,,,,,,2024-10-17,1,,,,,クリティカルスコープ,0
2363,9290003015941,新規,0,2024-10-17,2024-10-17,合同会社ＫＰホールディングス,,合同会社,福岡県,福岡市博多区,下川端町１０番１６－３０９号アメックス博多ベルテックステージ,,40,132,8120027,,,,,,,2024-10-17,1,,,,,ケーピーホールディングス,0
2364,9290003015958,新規,0,2024-10-17,2024-10-17,ＬＡＣ合同会社,,合同会社,福岡県,福津市,花見が丘３丁目２１番１２号,,40,224,8113214,,,,,,,2024-10-17,1,,,,,ラック,0
2367,9300001013937,新規,0,2024-10-17,2024-10-17,株式会社ジャストグループ,,株式会社,佐賀県,佐賀市,田代２丁目７番２４－１０号,,41,201,8400051,,,,,,,2024-10-17,1,,,,,ジャストグループ,0
2373,9310001019264,新規,0,2024-10-17,2024-10-17,Ｎ　Ｌｏｏｐ株式会社,,株式会社,長崎県,長崎市,神ノ島町３丁目１８９番地４２,,42,201,8500078,,,,,,,2024-10-17,1,,,,,エヌループ,0
2374,9320003004494,新規,0,2024-10-17,2024-10-17,ＱＵＡＴＥＲＮＩＡ合同会社,,合同会社,大分県,杵築市,大字狩宿１０９２番地７,,44,210,8730031,,,,,,,2024-10-17,1,,,,,クアターニア,0
2375,9330001032546,新規,0,2024-10-17,2024-10-17,株式会社ＩＤＯ,,株式会社,熊本県,熊本市東区,湖東３丁目５番１０号,,43,102,8620909,,,,,,,2024-10-17,1,,,,,アイディオー,0
2376,9330001032554,新規,0,2024-10-17,2024-10-17,Ｌａｐｉｓ株式会社,,株式会社,熊本県,熊本市中央区,花畑町１番１４号Ａ＆ＭＨＡＮＡＢＡＴＡ３０１号,,43,101,8600806,,,,,,,2024-10-17,1,,,,,ラピス,0
2385,9340003004633,新規,0,2024-10-17,2024-10-17,合同会社ＩＭＰ,,合同会社,鹿児島県,鹿児島市,魚見町１２５番地３６,,46,201,8910112,,,,,,,2024-10-17,1,,,,,インプ,0
2391,9360001034325,新規,0,2024-10-17,2024-10-17,まぐくる宮古株式会社,,株式会社,沖縄県,宮古島市,平良字西里５４１－１,,47,214,9060012,,,,,,,2024-10-17,1,,,,,マグクルミヤコ,0
2394,9360003014390,新規,0,2024-10-17,2024-10-17,合同会社Ｆｌａｐ優,,合同会社,沖縄県,沖縄市,美里４丁目６番１６号,,47,211,9042153,,,,,,,2024-10-17,1,,,,,フラップユウ,0
2400,9370003006783,新規,0,2024-10-17,2024-10-17,Ｍｉｍｉｃｋ合同会社,,合同会社,宮城県,仙台市青葉区,花壇３番１－２１３号,,04,101,9800815,,,,,,,2024-10-17,1,,,,,ミミック,0
2416,9440003001637,新規,0,2024-10-17,2024-10-17,合同会社Ａ＆Ｌエージェント,,合同会社,北海道,函館市,石川町３２７番地３０,,01,202,0410802,,,,,,,2024-10-17,1,,,,,エーアンドエルエージェント,0
2426,9500001025945,新規,0,2024-10-17,2024-10-17,株式会社アルチザン珈琲,,株式会社,愛媛県,松山市,六軒家町４番３号,,38,201,7918021,,,,,,,2024-10-17,1,,,,,アルチザンコーヒー,0
2428,9500003003346,新規,0,2024-10-17,2024-10-17,Ｉｔｏ合同会社,,合同会社,愛媛県,新居浜市,久保田町１丁目３－４１,,38,205,7920026,,,,,,,2024-10-17,1,,,,,イト,0
2430,9700150127480,新規,0,2024-10-17,2024-10-17,ｇｕａｎｇｘｉｈｅｓｈｅｎｇｄｉａｎｚｉｙｏｕｘｉａｎｇｏｎｇｓｉ,,外国会社等,,,,,,,,中国広西チワン族自治区南寧市濱陽県濱州産業園和＿科技園８棟第１～５階、５棟１～５階、１０棟１階,00136637,,,,,2024-10-17,1,,,,,コウセイワセイデンシユウゲンコウシ,0
2431,9700150127522,新規,0,2024-10-17,2024-10-17,Ｎｏｍｉｎａ（Ｎｏ　１３９３）Ｌｉｍｉｔｅｄ,,外国会社等,,,,,,,,Ｏｎｅ　Ｌｉｍｅ　Ｓｔｒｅｅｔ，Ｌｏｎｄｏｎ　ＥＣ３Ｍ　７ＨＡ　ＵＫ,,,,,,2024-10-17,1,,,,,ノミナナンバーワンスリーナインスリーリミテツド,0
