sequenceNumber,corporateNumber,process,correct,updateDate,changeDate,name,nameImageId,kind,prefectureName,cityName,streetNumber,addressImageId,prefectureCode,cityCode,postCode,addressOutside,addressOutsideImageId,closeDate,closeCause,successorCorporateNumber,changeCause,assignmentDate,latest,enName,enPrefectureName,enCityName,enAddressOutside,furigana,hihyoji
6,1010001219983,新規,0,2021-07-28,2021-07-28,アルフォース株式会社,,株式会社,東京都,中央区,晴海２丁目３番３０－７１６号,,13,102,1040053,,,,,,,2021-07-28,1,,,,,アルフォース,0
8,1010101014780,新規,0,2021-07-28,2021-07-28,株式会社ＳＥＩＳＨＵ　ＣＲＥＡＴＩＶＥ　ＣＯＭＰＡＮＹ,,株式会社,東京都,八王子市,上川町４０２１番地１,,13,201,1920151,,,,,,,2021-07-28,1,,,,,セイシュウクリエイティブカンパニー,0
9,1010101014789,新規,0,2021-07-28,2021-07-28,株式会社О’ｚ　ＫＩＸＸ,,株式会社,東京都,八王子市,大楽寺町４３６番地１７,,13,201,1930816,,,,,,,2021-07-28,1,,,,,オーズキックス,0
14,1010401161678,新規,0,2021-07-28,2021-07-28,Ｐｉｃｋｓｅｎｓｅ株式会社,,株式会社,東京都,港区,新橋６丁目４－３－４１１,,13,103,1050004,,,,,,,2021-07-28,1,,,,,ピクセンス,0
15,1010401161694,新規,0,2021-07-28,2021-07-28,ＩＮＦＬＵＸ　ＦＬＯＴＡＴＩＯＮ　ＷＩＮＤ　ＰＯＷＥＲ　ＨＤ株式会社,,株式会社,東京都,港区,新橋６丁目１７番２１号住友不動産御成門駅前ビル１０階,,13,103,1050004,,,,,,,2021-07-28,1,,,,,インフラックスフロテーションウィンドパワーエイチディー,0
16,1010401161728,新規,0,2021-07-28,2021-07-28,株式会社ＲＯＡ　Ｓｕｐｐｏｒｔｅｒｓ,,株式会社,東京都,港区,南青山２丁目２番１５号,,13,103,1070062,,,,,,,2021-07-28,1,,,,,ロアサポーターズ,0
17,1010401161736,新規,0,2021-07-28,2021-07-28,Ｓｅｎｎｈｅｉｓｅｒ　Ｃｏｎｓｕｍｅｒ　Ａｕｄｉｏ　Ｊａｐａｎ株式会社,,株式会社,東京都,港区,南青山１丁目１番１号,,13,103,1070062,,,,,,,2021-07-28,1,,,,,ゼンハイザーコンシューマーオーディオジャパン,0
19,1010403025781,新規,0,2021-07-28,2021-07-28,ＩＮＤＩＡ　ＩＮＴＥＲＡＣＴＩＶＥ　ＡＤＶＩＳＯＲＳ合同会社,,合同会社,東京都,港区,赤坂２丁目２３番１号アークヒルズ・フロントタワーＩｎＣｏｎｔｒｏｌ内,,13,103,1070052,,,,,,,2021-07-28,1,,,,,インディアインタラクティブアドバイザース,0
20,1010403025798,新規,0,2021-07-28,2021-07-28,Ｄｅｓｉｇｎ　Ｓｏｕｒｃｅ　Ｌｏｃａｌ　合同会社,,合同会社,東京都,港区,白金台３丁目７番２９号２０３,,13,103,1080071,,,,,,,2021-07-28,1,,,,,デザインソースローカル,0
30,1010703005871,新規,0,2021-07-28,2021-07-28,ＯＳＫキャピタル合同会社,,合同会社,東京都,品川区,東五反田２丁目２０番４号,,13,109,1410022,,,,,,,2021-07-28,1,,,,,オーエスケーキャピタル,0
37,1010901049150,新規,0,2021-07-28,2021-07-28,大根株式会社,,株式会社,東京都,世田谷区,太子堂３丁目９番３号,,13,112,1540004,,,,,,,2021-07-28,1,,,,,ダイコン,0
38,1010901049159,新規,0,2021-07-28,2021-07-28,株式会社Ｂｉｒｔｈ　Ｑｕｉｅｔｌｙ,,株式会社,東京都,世田谷区,上馬１丁目３０番２号コスモリヴェール三軒茶屋１０２,,13,112,1540011,,,,,,,2021-07-28,1,,,,,バースクワイエットリー,0
39,1010901049167,新規,0,2021-07-28,2021-07-28,Ｎａｔｕｌｌｙ株式会社,,株式会社,東京都,世田谷区,太子堂４丁目１８－４－１０１,,13,112,1540004,,,,,,,2021-07-28,1,,,,,ナチュリー,0
45,1011003013136,新規,0,2021-07-28,2021-07-28,ＧＯ４ＺＥＲＯ合同会社,,合同会社,東京都,渋谷区,渋谷２丁目１９番１５号宮益坂ビルディング６０９,,13,113,1500002,,,,,,,2021-07-28,1,,,,,ゴーフォーゼロ,0
48,1011201023143,新規,0,2021-07-28,2021-07-28,株式会社ウェルス＆ストック,,株式会社,東京都,中野区,江原町１丁目４５番１１号,,13,114,1650023,,,,,,,2021-07-28,1,,,,,ウェルスアンドストック,0
52,1011501027158,新規,0,2021-07-28,2021-07-28,株式会社あゆみ,,株式会社,東京都,荒川区,荒川１丁目４番１４号,,13,118,1160002,,,,,,,2021-07-28,1,,,,,アユミ,0
53,1011501027166,新規,0,2021-07-28,2021-07-28,株式会社トライズ,,株式会社,東京都,北区,赤羽北１丁目１４番１１号,,13,117,1150052,,,,,,,2021-07-28,1,,,,,トライズ,0
54,1011503004849,新規,0,2021-07-28,2021-07-28,合同会社ＶＵＩＫＵ,,合同会社,東京都,北区,滝野川６丁目２６－３,,13,117,1140023,,,,,,,2021-07-28,1,,,,,ブイク,0
56,1011601025292,新規,0,2021-07-28,2021-07-28,株式会社ＮＩＳＨＩＯ,,株式会社,東京都,練馬区,大泉町３丁目２６番１３号,,13,120,1780062,,,,,,,2021-07-28,1,,,,,ニシオ,0
64,1011801039497,新規,0,2021-07-28,2021-07-28,株式会社オールアップ,,株式会社,東京都,足立区,竹の塚４丁目９番５号エーデルブルーメカワチ２０１号,,13,121,1210813,,,,,,,2021-07-28,1,,,,,カブシキガイシャオールアップ,0
69,1012801020975,新規,0,2021-07-28,2021-07-28,株式会社Ｂｅｌｌ,,株式会社,東京都,日野市,高幡３－１６后会館４階,,13,212,1910031,,,,,,,2021-07-28,1,,,,,ベル,0
85,1020001142342,新規,0,2021-07-28,2021-07-28,株式会社Ｏ－ＥＮ,,株式会社,神奈川県,横浜市中区,常磐町一丁目５番地ＦＯＲＭ関内ビル６０２,,14,104,2310000,,,,,,,2021-07-28,1,,,,,オーエン,0
94,1021003010727,新規,0,2021-07-28,2021-07-28,合同会社ソース,,合同会社,神奈川県,相模原市中央区,氷川町８番１０－１０１号,,14,152,2520215,,,,,,,2021-07-28,1,,,,,ソース,0
95,1021005012259,新規,0,2021-07-28,2021-07-28,一般社団法人ＳＤ‐ＷＥＬＦＡＲＥ,,その他の設立登記法人,神奈川県,鎌倉市,西鎌倉１丁目２０番１５号,,14,204,2480035,,,,,,,2021-07-28,1,,,,,エスディーウェルフェアー,0
96,1030001143406,新規,0,2021-07-28,2021-07-28,株式会社ルナガーデン,,株式会社,埼玉県,さいたま市岩槻区,本町３丁目１２番５号,,11,110,3390057,,,,,,,2021-07-28,1,,,,,ルナガーデン,0
97,1030001143422,新規,0,2021-07-28,2021-07-28,株式会社Ａ－ＪＡＳＴ,,株式会社,埼玉県,新座市,栗原４丁目３番２号,,11,230,3520035,,,,,,,2021-07-28,1,,,,,アジャスト,0
98,1030001143488,新規,0,2021-07-28,2021-07-28,株式会社Ｌｉｂｒｏ,,株式会社,埼玉県,川口市,大字西立野８２９番地の１サン・キャッスル１０１号室,,11,203,3330813,,,,,,,2021-07-28,1,,,,,リブロ,0
99,1030001143505,新規,0,2021-07-28,2021-07-28,株式会社新美創建,,株式会社,埼玉県,さいたま市緑区,大字中尾１４２３－１,,11,109,3360932,,,,,,,2021-07-28,1,,,,,シンビソウケン,0
100,1030003017673,新規,0,2021-07-28,2021-07-28,合同会社ラルゴ,,合同会社,埼玉県,さいたま市南区,根岸２丁目１６番１５号メゾンコマスヤ２０８,,11,108,3360024,,,,,,,2021-07-28,1,,,,,ラルゴ,0
109,1040001119520,新規,0,2021-07-28,2021-07-28,株式会社ＤａＦａｍ,,株式会社,千葉県,市川市,堀之内３丁目１番８号,,12,203,2720837,,,,,,,2021-07-28,1,,,,,ダファム,0
110,1040001119529,新規,0,2021-07-28,2021-07-28,株式会社Ｋｉｄｏｕ,,株式会社,千葉県,市川市,八幡６丁目２２－１４,,12,203,2720021,,,,,,,2021-07-28,1,,,,,キドウ,0
111,1040001119545,新規,0,2021-07-28,2021-07-28,笑顔のリフォーム株式会社,,株式会社,千葉県,松戸市,旭町２丁目４５８番地の２,,12,207,2710043,,,,,,,2021-07-28,1,,,,,エガオノリフォーム,0
113,1040003018217,新規,0,2021-07-28,2021-07-28,アトリエティープロジェクト合同会社,,合同会社,千葉県,富津市,八幡１５６－１,,12,226,2930056,,,,,,,2021-07-28,1,,,,,アトリエティープロジェクト,0
114,1040003018233,新規,0,2021-07-28,2021-07-28,合同会社守破離農園,,合同会社,千葉県,市川市,須和田１丁目３２－１５,,12,203,2720825,,,,,,,2021-07-28,1,,,,,シュハリノウエン,0
118,1050003005998,新規,0,2021-07-28,2021-07-28,合同会社Ｎｏ．１,,合同会社,茨城県,筑西市,深見２０１番地３,,08,227,3080812,,,,,,,2021-07-28,1,,,,,ナンバーワン,0
131,1080103002389,新規,0,2021-07-28,2021-07-28,合同会社Ｎａｔｕｒｅ,,合同会社,静岡県,富士市,中丸３４９－１,,22,210,4160933,,,,,,,2021-07-28,1,,,,,ネイチャー,0
132,1080401025216,新規,0,2021-07-28,2021-07-28,株式会社プリムベル,,株式会社,静岡県,浜松市北区,三方原町２１５９番地の３,,22,135,4338105,,,,,,,2021-07-28,1,,,,,プリムベル,0
143,1110001035933,新規,0,2021-07-28,2021-07-28,株式会社タカノ塗装,,株式会社,新潟県,長岡市,花井町１１４番地,,15,202,9402475,,,,,,,2021-07-28,1,,,,,タカノトソウ,0
149,1120001239302,新規,0,2021-07-28,2021-07-28,株式会社Ｓａｉ,,株式会社,大阪府,大阪市平野区,長吉長原２丁目２番１８号,,27,126,5470016,,,,,,,2021-07-28,1,,,,,サイ,0
150,1120001239327,新規,0,2021-07-28,2021-07-28,株式会社ＧＬＯＢＡＬ　ＢＯＮＤＳ,,株式会社,大阪府,大阪市淀川区,西宮原２丁目７番３８号新大阪西浦ビル５０３,,27,123,5320004,,,,,,,2021-07-28,1,,,,,グローバルボンズ,0
151,1120001239335,新規,0,2021-07-28,2021-07-28,株式会社ハート,,株式会社,大阪府,大阪市西成区,玉出中１丁目２番１１号,,27,122,5570044,,,,,,,2021-07-28,1,,,,,ハート,0
152,1120001239343,新規,0,2021-07-28,2021-07-28,羽美株式会社,,株式会社,大阪府,大阪市北区,天満２丁目１－１２天満橋ＳＥビル４階,,27,127,5300043,,,,,,,2021-07-28,1,,,,,ハミ,0
153,1120001239351,新規,0,2021-07-28,2021-07-28,アスモ不動産株式会社,,株式会社,大阪府,大阪市中央区,石町１丁目１番７号,,27,128,5400033,,,,,,,2021-07-28,1,,,,,アスモフドウサン,0
155,1120003019909,新規,0,2021-07-28,2021-07-28,合同会社Ｈａｒｍｏｎｙ,,合同会社,大阪府,大阪市北区,大淀中２丁目９番１０－５０２号,,27,127,5310076,,,,,,,2021-07-28,1,,,,,ハーモニー,0
156,1120003019917,新規,0,2021-07-28,2021-07-28,合同会社ＮＮＫエンタープライズ,,合同会社,大阪府,枚方市,津田山手１丁目１２番１１号,,27,210,5730128,,,,,,,2021-07-28,1,,,,,エヌエヌケーエンタープライズ,0
157,1120003019925,新規,0,2021-07-28,2021-07-28,ＭＩＫＡＤＯ合同会社,,合同会社,大阪府,大阪市西成区,天下茶屋２丁目８番５号,,27,122,5570014,,,,,,,2021-07-28,1,,,,,ミカド,0
158,1120101064047,新規,0,2021-07-28,2021-07-28,株式会社Ａ－ｇｉＸ,,株式会社,大阪府,堺市北区,新金岡町１丁７番２１－３０９号,,27,146,5918021,,,,,,,2021-07-28,1,,,,,エージックス,0
163,1120901044660,新規,0,2021-07-28,2021-07-28,アイカテック株式会社,,株式会社,大阪府,茨木市,宮島２丁目２番１３号,,27,211,5670853,,,,,,,2021-07-28,1,,,,,アイカテック,0
170,1130001069756,新規,0,2021-07-28,2021-07-28,大成メタル株式会社,,株式会社,京都府,京都市山科区,御陵大津畑町４０番地,,26,110,6078411,,,,,,,2021-07-28,1,,,,,タイセイメタル,0
171,1130001069789,新規,0,2021-07-28,2021-07-28,株式会社ＰＬＡＴＩＮＵＭ　ＩＮＶＥＳＴＭＥＮＴ,,株式会社,京都府,京都市下京区,小稲荷町８５番地８,,26,106,6008208,,,,,,,2021-07-28,1,,,,,プラチナムインベストメント,0
172,1130001069797,新規,0,2021-07-28,2021-07-28,株式会社ウッドヴィレッジ,,株式会社,京都府,京都市左京区,下鴨宮河町５３番地３５,,26,103,6060801,,,,,,,2021-07-28,1,,,,,ウッドヴィレッジ,0
173,1130001069806,新規,0,2021-07-28,2021-07-28,株式会社アバニティ,,株式会社,京都府,宮津市,字由良２０４９番地２,,26,205,6260071,,,,,,,2021-07-28,1,,,,,アバニティ,0
174,1130003007391,新規,0,2021-07-28,2021-07-28,合同会社ｊａｍ,,合同会社,京都府,京都市西京区,御陵大枝山町３丁目１８番地１６,,26,111,6101102,,,,,,,2021-07-28,1,,,,,ジャム,0
184,1140001122423,新規,0,2021-07-28,2021-07-28,株式会社アルファベッタ,,株式会社,兵庫県,神戸市中央区,加納町２丁目１３番７号,,28,110,6500001,,,,,,,2021-07-28,1,,,,,アルファベッタ,0
185,1140001122431,新規,0,2021-07-28,2021-07-28,株式会社良和,,株式会社,兵庫県,尼崎市,上ノ島町１丁目２９番２号,,28,202,6610014,,,,,,,2021-07-28,1,,,,,リョウワ,0
187,1150001024817,新規,0,2021-07-28,2021-07-28,株式会社エール,,株式会社,奈良県,吉野郡下市町,大字阿知賀１４１９番地の３,,29,443,6380001,,,,,,,2021-07-28,1,,,,,エール,0
191,1160001023504,新規,0,2021-07-28,2021-07-28,株式会社ＬＭＲ,,株式会社,滋賀県,米原市,山室１５３６番地,,25,214,5210215,,,,,,,2021-07-28,1,,,,,エルエムアール,0
192,1160001023512,新規,0,2021-07-28,2021-07-28,株式会社ＢｕｒｎＦｒｅｅｌｙ,,株式会社,滋賀県,東近江市,五個荘七里町１０２番地１,,25,213,5291402,,,,,,,2021-07-28,1,,,,,バーンフリーリー,0
193,1160003002340,新規,0,2021-07-28,2021-07-28,合同会社ｒｅｃｏｎ,,合同会社,滋賀県,草津市,渋川１丁目３番１１－６０１号,,25,206,5250026,,,,,,,2021-07-28,1,,,,,レコン,0
205,1180001147136,新規,0,2021-07-28,2021-07-28,株式会社ネピオス,,株式会社,愛知県,名古屋市中村区,名駅南３丁目３番２１号,,23,105,4500003,,,,,,,2021-07-28,1,,,,,ネピオス,0
206,1180003022766,新規,0,2021-07-28,2021-07-28,合同会社Ｔｏｒｅｏ,,合同会社,愛知県,名古屋市名東区,猪子石２丁目１１１番地,,23,115,4650021,,,,,,,2021-07-28,1,,,,,トレオ,0
210,1180005019372,新規,0,2021-07-28,2021-07-28,ひまわり社会保険労務士法人,,その他の設立登記法人,愛知県,名古屋市中区,丸の内２丁目１７番１３号ＮＫ丸の内ビル２階,,23,106,4600002,,,,,,,2021-07-28,1,,,,,ヒマワリ,0
222,1190001028541,新規,0,2021-07-28,2021-07-28,株式会社アグリフォワード,,株式会社,三重県,伊賀市,猪田１３６７番地の１,,24,216,5180123,,,,,,,2021-07-28,1,,,,,アグリフォワード,0
228,1200001038935,新規,0,2021-07-28,2021-07-28,株式会社ＴＥＣＨＳ,,株式会社,岐阜県,多治見市,高田町１１丁目５番地２５,,21,204,5070018,,,,,,,2021-07-28,1,,,,,テックス,0
243,1240001058327,新規,0,2021-07-28,2021-07-28,株式会社Ｎｉｃｏ　Ｆａｃｔｏｒｙ,,株式会社,広島県,広島市中区,大手町３丁目１番３号ＩＴ大手町ビル,,34,101,7300051,,,,,,,2021-07-28,1,,,,,ニコファクトリー,0
244,1240001058335,新規,0,2021-07-28,2021-07-28,株式会社ＬｕｄｉｃＬｏｃ,,株式会社,広島県,広島市安佐南区,長束２丁目１－２０,,34,105,7310135,,,,,,,2021-07-28,1,,,,,ルディックロック,0
251,1270003001331,新規,0,2021-07-28,2021-07-28,合同会社フィールドオブドリームス,,合同会社,鳥取県,八頭郡八頭町,才代２９９番地,,31,329,6800531,,,,,,,2021-07-28,1,,,,,フィールドオブドリームス,0
259,1290801027666,新規,0,2021-07-28,2021-07-28,ましじめ株式会社,,株式会社,福岡県,北九州市小倉北区,魚町２丁目１番７号５Ｆ,,40,106,8020006,,,,,,,2021-07-28,1,,,,,マシジメ,0
260,1290805009454,新規,0,2021-07-28,2021-07-28,一般社団法人日本リハビリテーション支援協会,,その他の設立登記法人,福岡県,田川郡糸田町,２２４１番地９,,40,604,8221300,,,,,,,2021-07-28,1,,,,,ニホンリハビリテーションシエンキョウカイ,0
265,1320001018504,新規,0,2021-07-28,2021-07-28,ＡＤ　ＦＲＩＥＮＤ株式会社,,株式会社,大分県,大分市,萩原２丁目７番２１号,,44,201,8700921,,,,,,,2021-07-28,1,,,,,アドフレンド,0
266,1330001028840,新規,0,2021-07-28,2021-07-28,株式会社パーフェクト・ワールド,,株式会社,熊本県,熊本市東区,長嶺南７丁目２０番２５号１０１,,43,102,8618039,,,,,,,2021-07-28,1,,,,,パーフェクトワールド,0
269,1330003008989,新規,0,2021-07-28,2021-07-28,合同会社ＳＫＴ,,合同会社,熊本県,阿蘇市,赤水７９２番地１,,43,214,8692232,,,,,,,2021-07-28,1,,,,,エスケーティ,0
279,1370001047382,新規,0,2021-07-28,2021-07-28,株式会社千台地所,,株式会社,宮城県,石巻市,渡波町１丁目２番２７号,,04,202,9862121,,,,,,,2021-07-28,1,,,,,センダイジショ,0
280,1370001047390,新規,0,2021-07-28,2021-07-28,株式会社ピースコネクト,,株式会社,宮城県,仙台市青葉区,花京院１丁目２番１５号,,04,101,9800013,,,,,,,2021-07-28,1,,,,,ピースコネクト,0
288,1380001032061,新規,0,2021-07-28,2021-07-28,株式会社クラフトマン,,株式会社,福島県,伊達市,梁川町字小梁川２７番地の１,,07,213,9600785,,,,,,,2021-07-28,1,,,,,クラフトマン,0
292,1380003004983,新規,0,2021-07-28,2021-07-28,合同会社ＯＮＥ　ＬＩＦＥ,,合同会社,福島県,会津若松市,河東町南高野字南高野１１７番地,,07,202,9693441,,,,,,,2021-07-28,1,,,,,ワンライフ,0
298,1400001015534,新規,0,2021-07-28,2021-07-28,旭総業株式会社,,株式会社,岩手県,宮古市,西町３丁目２番２８号,,03,202,0270061,,,,,,,2021-07-28,1,,,,,アサヒソウギョウ,0
303,1430001084626,新規,0,2021-07-28,2021-07-28,株式会社ＳＯＲＡ,,株式会社,北海道,札幌市中央区,南一条西２６丁目１番５号ふじ井ハイデンス円山２０２号室,,01,101,0640801,,,,,,,2021-07-28,1,,,,,ソラ,0
304,1430001084634,新規,0,2021-07-28,2021-07-28,恭泰エクステリア株式会社,,株式会社,北海道,札幌市東区,北二十七条東１０丁目１番３２号,,01,103,0650027,,,,,,,2021-07-28,1,,,,,キョウタイエクステリア,0
305,1430001084675,新規,0,2021-07-28,2021-07-28,ライフグローリー株式会社,,株式会社,北海道,札幌市北区,新琴似二条１丁目１番３７号,,01,102,0010902,,,,,,,2021-07-28,1,,,,,ライフグローリー,0
306,1430003012964,新規,0,2021-07-28,2021-07-28,ＦＣＩ合同会社,,合同会社,北海道,札幌市清田区,美しが丘二条７丁目２番１１号,,01,110,0040812,,,,,,,2021-07-28,1,,,,,エフシーアイ,0
307,1430003012972,新規,0,2021-07-28,2021-07-28,合同会社ホームラボ,,合同会社,北海道,札幌市中央区,南十一条西２１丁目４番１－４１１号,,01,101,0640811,,,,,,,2021-07-28,1,,,,,ホームラボ,0
313,1700150104198,新規,0,2021-07-28,2021-07-28,日本冷凍食品企業年金基金,,その他,東京都,千代田区,東神田２丁目５－１５住友生命東神田ビル３Ｆ,,13,101,1010031,,,,,,,2021-07-28,1,,,,,ニホンレイトウシヨクヒンキギヨウネンキンキキン,0
330,2010401161636,新規,0,2021-07-28,2021-07-28,株式会社ＳＬ　Ｈｏｕｓｅ　ｏｆ　Ｃｏｎｓｕｌｔａｎｃｙ＆Ｅｖｅｎｔ　Ｍａｎａｇｅｍｅｎｔ,,株式会社,東京都,港区,浜松町２丁目２番１５号浜松町ダイヤビル２Ｆ,,13,103,1050013,,,,,,,2021-07-28,1,,,,,エスエルハウスオブコンサルタンシーアンドイベントマネジメント,0
331,2010401161685,新規,0,2021-07-28,2021-07-28,株式会社うちでのこづち,,株式会社,東京都,港区,浜松町１丁目２１番４号港ビル４Ｆ,,13,103,1050013,,,,,,,2021-07-28,1,,,,,ウチデノコヅチ,0
332,2010401161719,新規,0,2021-07-28,2021-07-28,森エステート株式会社,,株式会社,東京都,港区,白金台３丁目１０番１２号,,13,103,1080071,,,,,,,2021-07-28,1,,,,,モリエステート,0
333,2010401161735,新規,0,2021-07-28,2021-07-28,株式会社ＧｒａＳｅａ,,株式会社,東京都,港区,南青山２丁目２番１５号,,13,103,1070062,,,,,,,2021-07-28,1,,,,,カブシキガイシャグレイシー,0
334,2010401161751,新規,0,2021-07-28,2021-07-28,マネックスＰＢ株式会社,,株式会社,東京都,港区,赤坂１丁目１２番３２号,,13,103,1070052,,,,,,,2021-07-28,1,,,,,マネックスピービー,0
336,2010403025764,新規,0,2021-07-28,2021-07-28,アール・グレイ合同会社,,合同会社,東京都,港区,西新橋１丁目１８－６－１１０１,,13,103,1050003,,,,,,,2021-07-28,1,,,,,アールグレイ,0
337,2010403025772,新規,0,2021-07-28,2021-07-28,合同会社ＫＭＣ,,合同会社,東京都,港区,南青山２丁目２番１５号,,13,103,1070062,,,,,,,2021-07-28,1,,,,,ケイエムシー,0
338,2010403025789,新規,0,2021-07-28,2021-07-28,ＨｕＧ’Ｒｅ　ｐｌａｎｎｉｎｇ合同会社,,合同会社,東京都,港区,南青山４丁目１４番７号,,13,103,1070062,,,,,,,2021-07-28,1,,,,,ハグレプランニング,0
346,2010501047603,新規,0,2021-07-28,2021-07-28,東洋貿易株式会社,,株式会社,東京都,台東区,台東３丁目２７－７アポロビル１０１,,13,106,1100016,,,,,,,2021-07-28,1,,,,,トウヨウボウエキ,0
354,2010801032164,新規,0,2021-07-28,2021-07-28,カヌー株式会社,,株式会社,東京都,大田区,池上３丁目３５番５号パティオス中村２０１,,13,111,1460082,,,,,,,2021-07-28,1,,,,,カヌー,0
355,2010801032172,新規,0,2021-07-28,2021-07-28,株式会社かさや,,株式会社,東京都,大田区,下丸子２丁目１３番２－２０４号,,13,111,1460092,,,,,,,2021-07-28,1,,,,,カサヤ,0
357,2010901049166,新規,0,2021-07-28,2021-07-28,株式会社ｒａｇｅ,,株式会社,東京都,世田谷区,上祖師谷６丁目１９番２号,,13,112,1570065,,,,,,,2021-07-28,1,,,,,レイジ,0
363,2011001141895,新規,0,2021-07-28,2021-07-28,株式会社Ｅｎｅｒｇｙ　Ｂａｔｏｎ,,株式会社,東京都,渋谷区,渋谷３丁目５－１６渋谷三丁目スクエアビル２Ｆ,,13,113,1500002,,,,,,,2021-07-28,1,,,,,エナジーバトン,0
364,2011001141945,新規,0,2021-07-28,2021-07-28,株式会社ＬＶＢ,,株式会社,東京都,渋谷区,千駄ヶ谷３丁目６１－７－３０１,,13,113,1510051,,,,,,,2021-07-28,1,,,,,エルブイビー,0
365,2011001142051,新規,0,2021-07-28,2021-07-28,ＨＡＬ株式会社,,株式会社,東京都,渋谷区,神宮前５丁目３６番６－４０２号,,13,113,1500001,,,,,,,2021-07-28,1,,,,,ハル,0
369,2011003013119,新規,0,2021-07-28,2021-07-28,Ｐｒｏｄｕｃｅ　Ｐａｒｋ合同会社,,合同会社,東京都,目黒区,大橋１丁目８－１１クオリア目黒大橋ウエスト２０２,,13,110,1530044,,,,,,,2021-07-28,1,,,,,プロデュースパーク,0
370,2011005009148,新規,0,2021-07-28,2021-07-28,司法書士法人わたこり綜合事務所,,その他の設立登記法人,東京都,渋谷区,渋谷３丁目１０番１５号川名ビル４階,,13,113,1500002,,,,,,,2021-07-28,1,,,,,ワタコリソウゴウジムショ,0
376,2011101095868,新規,0,2021-07-28,2021-07-28,株式会社ＯＴＯＣＲＡＦＴ,,株式会社,東京都,新宿区,新宿２丁目１２番１３号新宿アントレサロンビル２階,,13,104,1600022,,,,,,,2021-07-28,1,,,,,オトクラフト,0
380,2011501027173,新規,0,2021-07-28,2021-07-28,株式会社サンチョ,,株式会社,東京都,荒川区,南千住７丁目１番１－２８０３号,,13,118,1160003,,,,,,,2021-07-28,1,,,,,サンチョ,0
385,2012401038129,新規,0,2021-07-28,2021-07-28,タイバンコク株式会社,,株式会社,東京都,調布市,小島町３丁目３番地３３,,13,208,1820026,,,,,,,2021-07-28,1,,,,,タイバンコク,0
386,2012403004954,新規,0,2021-07-28,2021-07-28,合同会社ＭＳＹ,,合同会社,東京都,稲城市,東長沼４９０番地の６,,13,225,2060802,,,,,,,2021-07-28,1,,,,,エムエスワイ,0
400,2020001142358,新規,0,2021-07-28,2021-07-28,株式会社アーク・アップ,,株式会社,神奈川県,横浜市鶴見区,駒岡２丁目１６番３１号,,14,101,2300071,,,,,,,2021-07-28,1,,,,,アークアップ,0
401,2020001142366,新規,0,2021-07-28,2021-07-28,新光ライフケア株式会社,,株式会社,神奈川県,横浜市西区,浅間町１丁目４番３号ウィザード６０３,,14,103,2200072,,,,,,,2021-07-28,1,,,,,シンコウライフケア,0
402,2020001142399,新規,0,2021-07-28,2021-07-28,株式会社メモシル,,株式会社,神奈川県,横浜市西区,北幸１丁目１１番１号水信ビル７階,,14,103,2200004,,,,,,,2021-07-28,1,,,,,メモシル,0
408,2020003020231,新規,0,2021-07-28,2021-07-28,合同会社京鼎,,合同会社,神奈川県,横浜市栄区,小菅ケ谷２丁目７番９－５０６号,,14,115,2470007,,,,,,,2021-07-28,1,,,,,キョウテイ,0
420,2030001143487,新規,0,2021-07-28,2021-07-28,株式会社エーアイ,,株式会社,埼玉県,さいたま市見沼区,東大宮６丁目４６番地９,,11,104,3370051,,,,,,,2021-07-28,1,,,,,エーアイ,0
421,2030001143504,新規,0,2021-07-28,2021-07-28,株式会社ワイツー,,株式会社,埼玉県,所沢市,上新井４丁目３２番地の３２,,11,208,3591142,,,,,,,2021-07-28,1,,,,,ワイツー,0
422,2030001143520,新規,0,2021-07-28,2021-07-28,株式会社ＡＩオファー,,株式会社,埼玉県,吉川市,栄町６９７番地１オレンジテラス・みき１０１号,,11,243,3420050,,,,,,,2021-07-28,1,,,,,アイオファー,0
425,2030003017689,新規,0,2021-07-28,2021-07-28,合同会社ｇｒｏｏｖｅ,,合同会社,埼玉県,所沢市,青葉台１３１０番地の１フォレスタＢ－２０１,,11,208,3591105,,,,,,,2021-07-28,1,,,,,グルーブ,0
433,2040001119544,新規,0,2021-07-28,2021-07-28,つる建設株式会社,,株式会社,千葉県,南房総市,下滝田１３８２番地５,,12,234,2940805,,,,,,,2021-07-28,1,,,,,ツルケンセツ,0
434,2040003018232,新規,0,2021-07-28,2021-07-28,合同会社エスライフ,,合同会社,千葉県,野田市,西三ケ尾８９１番地,,12,208,2780015,,,,,,,2021-07-28,1,,,,,エスライフ,0
439,2050001049591,新規,0,2021-07-28,2021-07-28,株式会社ゆうしょう,,株式会社,茨城県,土浦市,おおつ野６丁目３番２９号,,08,203,3000028,,,,,,,2021-07-28,1,,,,,ユウショウ,0
442,2060001033925,新規,0,2021-07-28,2021-07-28,株式会社中川Ｅｇｇ,,株式会社,栃木県,真岡市,荒町４丁目９番地５,,09,209,3214305,,,,,,,2021-07-28,1,,,,,ナカガワエッグ,0
443,2060001033933,新規,0,2021-07-28,2021-07-28,株式会社岩舟圧送,,株式会社,栃木県,栃木市,岩舟町静和５６６番地２,,09,203,3294304,,,,,,,2021-07-28,1,,,,,イワフネアッソウ,0
447,2070005009879,新規,0,2021-07-28,2021-07-28,一般社団法人ラ・ファリーナ,,その他の設立登記法人,群馬県,富岡市,富岡１０７０番地３,,10,210,3702316,,,,,,,2021-07-28,1,,,,,ラファリーナ,0
450,2080101022677,新規,0,2021-07-28,2021-07-28,Ｍｅｄｅｔｅｌ株式会社,,株式会社,静岡県,三島市,緑町３－３,,22,206,4110848,,,,,,,2021-07-28,1,,,,,メデテル,0
452,2080403004332,新規,0,2021-07-28,2021-07-28,ｉｘａ合同会社,,合同会社,静岡県,浜松市中区,早出町２３４番地１,,22,131,4350054,,,,,,,2021-07-28,1,,,,,イクサ,0
453,2090001017116,新規,0,2021-07-28,2021-07-28,株式会社戊寅,,株式会社,山梨県,笛吹市,石和町市部９７７番地７,,19,211,4060031,,,,,,,2021-07-28,1,,,,,ツチノエトラ,0
454,2090001017124,新規,0,2021-07-28,2021-07-28,株式会社タイディスト,,株式会社,山梨県,甲府市,伊勢４丁目２７番１６号ロアールヒカワ２０２,,19,201,4000856,,,,,,,2021-07-28,1,,,,,タイディスト,0
479,2120001239326,新規,0,2021-07-28,2021-07-28,株式会社Ａ－ＢＥＡＴ－ＰＲＯ．,,株式会社,大阪府,大阪市西区,北堀江１丁目２番１０号,,27,106,5500014,,,,,,,2021-07-28,1,,,,,エービートプロ,0
480,2120001239375,新規,0,2021-07-28,2021-07-28,株式会社ＥＤＥＮ,,株式会社,大阪府,大阪市淀川区,西中島３丁目１０番１２号サムティ西中島ビル３０１,,27,123,5320011,,,,,,,2021-07-28,1,,,,,エデン,0
486,2120003019908,新規,0,2021-07-28,2021-07-28,合同会社ｉｎｖｅｓｔ,,合同会社,大阪府,枚方市,長尾北町２丁目１７５８番地の５,,27,210,5730161,,,,,,,2021-07-28,1,,,,,インベスト,0
487,2120003019916,新規,0,2021-07-28,2021-07-28,合同会社ＧｅｎＺ,,合同会社,大阪府,大阪市浪速区,大国３丁目２－１,,27,111,5560014,,,,,,,2021-07-28,1,,,,,ジェンズ,0
488,2120003019924,新規,0,2021-07-28,2021-07-28,合同会社ひまわり,,合同会社,大阪府,大阪市中央区,日本橋２丁目１４番１２－１２１２号,,27,128,5420073,,,,,,,2021-07-28,1,,,,,ヒマワリ,0
489,2120005022406,新規,0,2021-07-28,2021-07-28,弁護士法人ももとせ,,その他の設立登記法人,大阪府,大阪市城東区,今福東２丁目７番２６号泰平第一ビル２０８号,,27,118,5360002,,,,,,,2021-07-28,1,,,,,モモトセ,0
493,2120101064038,新規,0,2021-07-28,2021-07-28,株式会社卅二杢建築店,,株式会社,大阪府,富田林市,甲田６丁目１４番２８号,,27,214,5840036,,,,,,,2021-07-28,1,,,,,サブモクケンチクテン,0
495,2120901044676,新規,0,2021-07-28,2021-07-28,株式会社Ｒｉｎｄｏｎ,,株式会社,大阪府,吹田市,長野東１８番３５号（３０１）,,27,205,5650816,,,,,,,2021-07-28,1,,,,,リンドン,0
496,2120901044684,新規,0,2021-07-28,2021-07-28,株式会社ケイズテクニカル,,株式会社,大阪府,箕面市,桜４丁目１２番１５号,,27,220,5620041,,,,,,,2021-07-28,1,,,,,ケイズテクニカル,0
497,2120901044692,新規,0,2021-07-28,2021-07-28,塚口建築研究室株式会社,,株式会社,大阪府,吹田市,山手町３丁目９番２１号,,27,205,5640073,,,,,,,2021-07-28,1,,,,,ツカグチケンチクケンキュウシツ,0
499,2120903003762,新規,0,2021-07-28,2021-07-28,合同会社ニシモト,,合同会社,大阪府,高槻市,白梅町５番１５－１４０９号,,27,207,5691116,,,,,,,2021-07-28,1,,,,,ニシモト,0
507,2130001069796,新規,0,2021-07-28,2021-07-28,株式会社ＰＬＵＴＯ,,株式会社,京都府,京都市上京区,武者小路町４５１番地２,,26,102,6020000,,,,,,,2021-07-28,1,,,,,プルート,0
512,2140001122323,新規,0,2021-07-28,2021-07-28,株式会社ＷＯＲＬＤ　ＴＲＥＥ,,株式会社,兵庫県,神戸市兵庫区,松原通４丁目４番７号花一ビル１階,,28,105,6520881,,,,,,,2021-07-28,1,,,,,ワールドツリー,0
513,2140001122439,新規,0,2021-07-28,2021-07-28,株式会社Ｒｅａｃｔ,,株式会社,兵庫県,神戸市中央区,山本通３丁目６番７号北野タウンハウス,,28,110,6500003,,,,,,,2021-07-28,1,,,,,リアクト,0
532,2180001147119,新規,0,2021-07-28,2021-07-28,株式会社ＤＩＶＥ　ＴＹＰＥ,,株式会社,愛知県,名古屋市守山区,川村町５２番地サンコート愛３０１号,,23,113,4630097,,,,,,,2021-07-28,1,,,,,ダイブタイプ,0
540,2190001028540,新規,0,2021-07-28,2021-07-28,株式会社マシニンカンパニー,,株式会社,三重県,南牟婁郡御浜町,大字下市木２７７２番地３,,24,561,5195203,,,,,,,2021-07-28,1,,,,,マシニンカンパニー,0
543,2200001038926,新規,0,2021-07-28,2021-07-28,株式会社大伸技巧,,株式会社,岐阜県,揖斐郡池田町,青柳１４３番地の１２,,21,404,5032423,,,,,,,2021-07-28,1,,,,,ダイシンギコウ,0
546,2240003005210,新規,0,2021-07-28,2021-07-28,合名会社ＹＭＣ,,合名会社,広島県,福山市,川口町４丁目１０番２１号,,34,207,7200822,,,,,,,2021-07-28,1,,,,,ワイエムシー,0
557,2260005010941,新規,0,2021-07-28,2021-07-28,一般社団法人デスティネーションせとうち,,その他の設立登記法人,岡山県,岡山市北区,天神町１０番１６号,,33,101,7000814,,,,,,,2021-07-28,1,,,,,デスティネーションセトウチ,0
568,2290801027657,新規,0,2021-07-28,2021-07-28,ＷоｎｄｅｒＷａｌｌ株式会社,,株式会社,福岡県,北九州市八幡西区,本城東６丁目１３番２０号,,40,109,8070815,,,,,,,2021-07-28,1,,,,,ワンダーウォール,0
569,2290801027665,新規,0,2021-07-28,2021-07-28,大栄建設株式会社,,株式会社,福岡県,行橋市,東大橋４丁目２番１１号,,40,213,8240002,,,,,,,2021-07-28,1,,,,,ダイエイケンセツ,0
581,2330003008988,新規,0,2021-07-28,2021-07-28,合同会社オフィスムンタ,,合同会社,熊本県,山鹿市,山鹿１７８番地３７,,43,208,8610501,,,,,,,2021-07-28,1,,,,,オフィスムンタ,0
582,2340001023963,新規,0,2021-07-28,2021-07-28,株式会社クベル,,株式会社,鹿児島県,指宿市,十二町２２５０番５号,,46,210,8910403,,,,,,,2021-07-28,1,,,,,クベル,0
586,2350001017221,新規,0,2021-07-28,2021-07-28,株式会社ＹａｒｄＢｉｒｄｓ,,株式会社,宮崎県,小林市,駅南２７９番地,,45,205,8860009,,,,,,,2021-07-28,1,,,,,ヤードバーズ,0
589,2380001032060,新規,0,2021-07-28,2021-07-28,福良建設株式会社,,株式会社,福島県,いわき市,平赤井字不動堂７番地の２４,,07,204,9793131,,,,,,,2021-07-28,1,,,,,フクラケンセツ,0
600,2430001084567,新規,0,2021-07-28,2021-07-28,ＨＩＲＯＫＩ株式会社,,株式会社,北海道,札幌市南区,真駒内緑町１丁目２番３－６１５号,,01,106,0050013,,,,,,,2021-07-28,1,,,,,ヒロキ,0
601,2430001084617,新規,0,2021-07-28,2021-07-28,株式会社ＯＲＩ,,株式会社,北海道,札幌市豊平区,豊平六条３丁目５番１号パークウェル豊平１階Ｏｎｅ　Ｗｏｒｌｄ　Ｒ内,,01,105,0620906,,,,,,,2021-07-28,1,,,,,オリ,0
602,2430001084625,新規,0,2021-07-28,2021-07-28,株式会社ティーエー工業,,株式会社,北海道,札幌市中央区,北六条西２０丁目１番１８号,,01,101,0600006,,,,,,,2021-07-28,1,,,,,ティーエーコウギョウ,0
605,2430003012971,新規,0,2021-07-28,2021-07-28,Ｍ＆Ｗ　ＪＵ　Ｂｒｉｄｇｉｎｇ合同会社,,合同会社,北海道,札幌市東区,北十二条東９丁目３番１－３０５号,,01,103,0650012,,,,,,,2021-07-28,1,,,,,エムアンドダブリュージェーユーブリッジング,0
612,2480001011442,新規,0,2021-07-28,2021-07-28,株式会社林実業,,株式会社,徳島県,鳴門市,鳴門町高島字中島７２５番地３,,36,202,7720051,,,,,,,2021-07-28,1,,,,,ハヤシジツギョウ,0
618,2700150104180,新規,0,2021-07-28,2021-07-28,ＡＳＨＯ　ＣＡＲＳ　ＪＡＰＡＮ　ＰＶＴ　ＬＴＤ,,外国会社等,千葉県,八街市,滝台１０２３番１５－Ｃ,,12,230,2891123,スリランカ民主社会主義共和国、アンパーラ、シヤンバランドワＮｏ．１３２／１,,,,,,2021-07-28,1,,,,,アシヨカースジヤパンピヴイテイエルテイデイ,0
619,2700150104189,新規,0,2021-07-28,2021-07-28,Ａｒａｌｉｙａ　Ｅｎｔｅｒｐｒｉｓｅｓ,,外国会社等,千葉県,富里市,立沢新田８６番地１４７オフィスＤ号,,12,233,2860215,スリランカ民主社会主義共和国、イッバガムワ、バクミーゴラ、ダンブッラロード、４３６,,,,,,2021-07-28,1,,,,,アラリヤエンタープライズ,0
620,2700150104197,新規,0,2021-07-28,2021-07-28,全国そうごう企業年金基金,,その他,東京都,千代田区,内神田１丁目１５番１１号千代田西井ビル３Ｆ,,13,101,1010047,,,,,,,2021-07-28,1,,,,,ゼンコクソウゴウキギヨウネンキンキキン,0
637,3010401161718,新規,0,2021-07-28,2021-07-28,株式会社エビスサービス２,,株式会社,東京都,港区,白金台１丁目１番１０－６０２号,,13,103,1080071,,,,,,,2021-07-28,1,,,,,エビスサービスツー,0
638,3010401161726,新規,0,2021-07-28,2021-07-28,株式会社Ｆｌｙｉｎｇ　Ｐｅａｒ,,株式会社,東京都,港区,南青山２丁目２番１５号,,13,103,1070062,,,,,,,2021-07-28,1,,,,,フライングペア,0
639,3010401161734,新規,0,2021-07-28,2021-07-28,株式会社オカイユ,,株式会社,東京都,港区,南青山５丁目３番１０号,,13,103,1070062,,,,,,,2021-07-28,1,,,,,オカイユ,0
640,3010401161750,新規,0,2021-07-28,2021-07-28,Ｍｉｅ．株式会社,,株式会社,東京都,港区,北青山３丁目４－３クラス青山１１０７,,13,103,1070061,,,,,,,2021-07-28,1,,,,,ミー,0
641,3010403025788,新規,0,2021-07-28,2021-07-28,ＪＳＣＣ合同会社,,合同会社,東京都,港区,南青山２丁目２番１５号,,13,103,1070062,,,,,,,2021-07-28,1,,,,,ジェイエスシーシー,0
642,3010501047602,新規,0,2021-07-28,2021-07-28,モリ商事株式会社,,株式会社,東京都,台東区,浅草橋２丁目２５－７エンドービル１階,,13,106,1110053,,,,,,,2021-07-28,1,,,,,モリショウジ,0
646,3010701041314,新規,0,2021-07-28,2021-07-28,レーヴェシステムソリューションズ株式会社,,株式会社,東京都,品川区,北品川１丁目９番７号トップルーム品川１０１５号,,13,109,1400001,,,,,,,2021-07-28,1,,,,,レーヴェシステムソリューションズ,0
651,3010803003831,新規,0,2021-07-28,2021-07-28,合同会社ロングアン,,合同会社,東京都,大田区,下丸子４丁目２６番３号,,13,111,1460092,,,,,,,2021-07-28,1,,,,,ロングアン,0
654,3010901049108,新規,0,2021-07-28,2021-07-28,株式会社クマソバ,,株式会社,東京都,世田谷区,梅丘１丁目２１番２号サンクレール的場,,13,112,1540022,,,,,,,2021-07-28,1,,,,,クマソバ,0
655,3010901049157,新規,0,2021-07-28,2021-07-28,株式会社良質蒸温,,株式会社,東京都,世田谷区,代田６丁目１番２８－２０１号２Ｆ,,13,112,1550033,,,,,,,2021-07-28,1,,,,,リョウシツムシオン,0
659,3011001141936,新規,0,2021-07-28,2021-07-28,ＫＭＥ株式会社,,株式会社,東京都,渋谷区,広尾４丁目２番１４－５０５号,,13,113,1500012,,,,,,,2021-07-28,1,,,,,ケーエムイー,0
660,3011001141993,新規,0,2021-07-28,2021-07-28,株式会社Ａｒａｉｇｕｍａ　Ｔｅｃｈｎｏｌｏｇｉｅｓ,,株式会社,東京都,渋谷区,桜丘町２６番１号セルリアンタワー１５階,,13,113,1500031,,,,,,,2021-07-28,1,,,,,アライグマテクノロジーズ,0
661,3011001142001,新規,0,2021-07-28,2021-07-28,株式会社Ｓ＆Ｙ,,株式会社,東京都,渋谷区,宇田川町１番１２号,,13,113,1500042,,,,,,,2021-07-28,1,,,,,エスアンドワイ,0
673,3011201023141,新規,0,2021-07-28,2021-07-28,株式会社ＦＩＥＲＴＥ,,株式会社,東京都,中野区,中央４丁目１７番１１号,,13,114,1640011,,,,,,,2021-07-28,1,,,,,フィエルテ,0
674,3011501027164,新規,0,2021-07-28,2021-07-28,株式会社常電工,,株式会社,東京都,北区,滝野川７丁目１番７号,,13,117,1140023,,,,,,,2021-07-28,1,,,,,ツネデンコウ,0
681,3011803004720,新規,0,2021-07-28,2021-07-28,合同会社ＰＬＡＮ－Ｂ,,合同会社,東京都,足立区,千住４丁目１２番９号,,13,121,1200034,,,,,,,2021-07-28,1,,,,,プランビー,0
683,3012401038128,新規,0,2021-07-28,2021-07-28,株式会社ｔｗｏｈｏｍｅ,,株式会社,東京都,稲城市,東長沼１７３６番地の２ベルジュール稲城２０３,,13,225,2060802,,,,,,,2021-07-28,1,,,,,ツーホーム,0
686,3012801020973,新規,0,2021-07-28,2021-07-28,株式会社ｎｇａ,,株式会社,東京都,立川市,曙町２丁目２１番６号中山ビル２階,,13,202,1900012,,,,,,,2021-07-28,1,,,,,エヌジーエー,0
687,3012803002549,新規,0,2021-07-28,2021-07-28,合同会社ＮＯＴＥＡ,,合同会社,東京都,立川市,栄町６丁目１２－５２サンメゾン１０５号,,13,202,1900003,,,,,,,2021-07-28,1,,,,,ノテア,0
688,3013101008684,新規,0,2021-07-28,2021-07-28,株式会社慶事会,,株式会社,東京都,青梅市,西分町２丁目５４番地の３,,13,205,1980044,,,,,,,2021-07-28,1,,,,,ケイジカイ,0
697,3020001142299,新規,0,2021-07-28,2021-07-28,ＥＬＩＴＥＳ株式会社,,株式会社,神奈川県,横浜市神奈川区,羽沢南３丁目３４番２１号金子ハイツＦ棟１０１号,,14,102,2210866,,,,,,,2021-07-28,1,,,,,エリーツ,0
698,3020001142381,新規,0,2021-07-28,2021-07-28,株式会社Ｅａｓｔ－Ｌｕｃｋｙ　ＴＲ,,株式会社,神奈川県,横浜市緑区,十日市場町８１２番地２クレッセント十日市場４０５号,,14,113,2260025,,,,,,,2021-07-28,1,,,,,イーストラッキーティーアール,0
700,3020003020214,新規,0,2021-07-28,2021-07-28,合同会社追い風,,合同会社,神奈川県,川崎市川崎区,台町５番４号,,14,131,2100814,,,,,,,2021-07-28,1,,,,,オイカゼ,0
703,3021003010725,新規,0,2021-07-28,2021-07-28,合同会社リバース,,合同会社,神奈川県,相模原市中央区,富士見３丁目９番１６号,,14,152,2520236,,,,,,,2021-07-28,1,,,,,リバース,0
704,3021003010733,新規,0,2021-07-28,2021-07-28,合同会社今をよくするカンパニー,,合同会社,神奈川県,横須賀市,衣笠栄町４丁目５番４８号,,14,201,2380031,,,,,,,2021-07-28,1,,,,,イマヲヨクスルカンパニー,0
705,3021005012257,新規,0,2021-07-28,2021-07-28,特定非営利活動法人Ａｆｙａ　Ｍａｎａｇｅｍｅｎｔ　Ｉｎｎｏｖａｔｉｏｎ,,その他の設立登記法人,神奈川県,鎌倉市,腰越７９７番地１６,,14,204,2480033,,,,,,,2021-07-28,1,,,,,アファマネジメントイノベーション,0
706,3021005012265,新規,0,2021-07-28,2021-07-28,一般社団法人ＳｉＣＰ,,その他の設立登記法人,神奈川県,相模原市南区,相南１丁目２番６３号,,14,153,2520312,,,,,,,2021-07-28,1,,,,,シクプ,0
713,3030001143486,新規,0,2021-07-28,2021-07-28,ピュアオート株式会社,,株式会社,埼玉県,加須市,大門町１９番４１号,,11,210,3470068,,,,,,,2021-07-28,1,,,,,ピュアオート,0
714,3030001143494,新規,0,2021-07-28,2021-07-28,株式会社共英,,株式会社,埼玉県,坂戸市,大字片柳７２１－３,,11,239,3500219,,,,,,,2021-07-28,1,,,,,キョウエイ,0
715,3030001143503,新規,0,2021-07-28,2021-07-28,株式会社ＥＣＯｗｉｔｈ,,株式会社,埼玉県,比企郡ときがわ町,大字玉川１７３９番地４,,11,349,3550342,,,,,,,2021-07-28,1,,,,,エコウィズ,0
716,3030001143511,新規,0,2021-07-28,2021-07-28,株式会社Ｌｕａｎａ,,株式会社,埼玉県,上尾市,大字戸崎１２０番地２,,11,219,3620053,,,,,,,2021-07-28,1,,,,,ルアナ,0
718,3030003017688,新規,0,2021-07-28,2021-07-28,合同会社ＡＳＨ　Ｗｉｎｇ,,合同会社,埼玉県,所沢市,緑町２丁目１番１０号,,11,208,3591111,,,,,,,2021-07-28,1,,,,,アッシュウィング,0
723,3040001119485,新規,0,2021-07-28,2021-07-28,新生堂本舗株式会社,,株式会社,千葉県,佐倉市,宮前１丁目９－８,,12,212,2850005,,,,,,,2021-07-28,1,,,,,シンセイドウホンポ,0
724,3040001119543,新規,0,2021-07-28,2021-07-28,株式会社マジカルコミュニケーションズ,,株式会社,千葉県,浦安市,北栄３丁目１６番１３号,,12,227,2790002,,,,,,,2021-07-28,1,,,,,マジカルコミュニケーションズ,0
732,3040003018231,新規,0,2021-07-28,2021-07-28,合同会社ＹＡＳＥＤＡＳ,,合同会社,千葉県,松戸市,上本郷２２７５番地の２４,,12,207,2710064,,,,,,,2021-07-28,1,,,,,ヤセダス,0
740,3050003005996,新規,0,2021-07-28,2021-07-28,合同会社エムズ・ブルー・リサーチ,,合同会社,茨城県,龍ケ崎市,佐貫３丁目１８番地１４,,08,208,3010032,,,,,,,2021-07-28,1,,,,,エムズブルーリサーチ,0
743,3050005012909,新規,0,2021-07-28,2021-07-28,ＮＰＯ法人ネットワークサポート親楽,,その他の設立登記法人,茨城県,古河市,原町１２番１９号,,08,204,3060025,,,,,,,2021-07-28,1,,,,,ネットワークサポートオヤガク,0
751,3070001038303,新規,0,2021-07-28,2021-07-28,株式会社リフォームパンダ,,株式会社,群馬県,太田市,由良町１７２２番地５フィオーレＣ－１０１号,,10,205,3730036,,,,,,,2021-07-28,1,,,,,リフォームパンダ,0
752,3070003004187,新規,0,2021-07-28,2021-07-28,合同会社ねっこ,,合同会社,群馬県,桐生市,広沢町４丁目１２２８番地の２６,,10,203,3760013,,,,,,,2021-07-28,1,,,,,ネッコ,0
755,3080101022676,新規,0,2021-07-28,2021-07-28,株式会社レジテック,,株式会社,静岡県,富士市,大渕２３８０番２号,,22,210,4170000,,,,,,,2021-07-28,1,,,,,レジテック,0
758,3080401025172,新規,0,2021-07-28,2021-07-28,淺倉ＯＦＦＩＣＥ　Ｋ－１株式会社,,株式会社,静岡県,浜松市西区,大山町４０４８番地の１,,22,133,4311102,,,,,,,2021-07-28,1,,,,,アサクラオフィスケイワン,0
769,3100005012746,新規,0,2021-07-28,2021-07-28,長野県コインランドリー事業協同組合,,その他の設立登記法人,長野県,松本市,城西１丁目３番３６号,,20,202,3900875,,,,,,,2021-07-28,1,,,,,ナガノケンコインランドリー,0
777,3120001238871,新規,0,2021-07-28,2021-07-28,株式会社ザ・デイ・スパ・オペレーション,,株式会社,大阪府,大阪市中央区,平野町１丁目８番１４号,,27,128,5410046,,,,,,,2021-07-28,1,,,,,ザデイスパオペレーション,0
778,3120001239300,新規,0,2021-07-28,2021-07-28,株式会社Ｂｅ　ＧＬＡＤ,,株式会社,大阪府,大阪市中央区,西心斎橋１丁目１０番１０号,,27,128,5420086,,,,,,,2021-07-28,1,,,,,ビーグラッド,0
779,3120001239309,新規,0,2021-07-28,2021-07-28,株式会社ＢＥＳＴ　ＢＵＤＤＹ,,株式会社,大阪府,大阪市浪速区,下寺１丁目２番１９号,,27,111,5560001,,,,,,,2021-07-28,1,,,,,ベストバディー,0
780,3120001239333,新規,0,2021-07-28,2021-07-28,株式会社ＤＭ不動産,,株式会社,大阪府,大阪市中央区,安土町２丁目２番１５号,,27,128,5410052,,,,,,,2021-07-28,1,,,,,ディーエムフドウサン,0
781,3120001239358,新規,0,2021-07-28,2021-07-28,株式会社山陰の蔵,,株式会社,大阪府,大阪市北区,東天満２丁目９番４号,,27,127,5300044,,,,,,,2021-07-28,1,,,,,サンインノクラ,0
782,3120001239366,新規,0,2021-07-28,2021-07-28,株式会社クエスト,,株式会社,大阪府,大阪市中央区,南船場３丁目１番１０号日宝南船場ビル１０Ｆ,,27,128,5420081,,,,,,,2021-07-28,1,,,,,クエスト,0
783,3120001239382,新規,0,2021-07-28,2021-07-28,株式会社ＳＴＳ,,株式会社,大阪府,大阪市中央区,心斎橋筋２丁目１番３２号ＩＳビル２Ｆ,,27,128,5420085,,,,,,,2021-07-28,1,,,,,エスティーエス,0
785,3120003019915,新規,0,2021-07-28,2021-07-28,合同会社夢咲インベストメント,,合同会社,大阪府,大阪市都島区,内代町４丁目３番３７号ハマダハウス３０３号,,27,102,5340013,,,,,,,2021-07-28,1,,,,,ユメサキインベストメント,0
786,3120005022405,新規,0,2021-07-28,2021-07-28,一般社団法人租税高度困難事案研究所,,その他の設立登記法人,大阪府,大阪市北区,梅田１丁目１番３－６００号大阪駅前第３ビル６階６－２号,,27,127,5300001,,,,,,,2021-07-28,1,,,,,ソゼイコウドコンナンジアンケンキュウショ,0
791,3120901044691,新規,0,2021-07-28,2021-07-28,株式会社ＷｉｓｅＷｉｌｌ,,株式会社,大阪府,茨木市,太田３丁目８番１３号,,27,211,5670018,,,,,,,2021-07-28,1,,,,,ワイズウィル,0
800,3140001122487,新規,0,2021-07-28,2021-07-28,株式会社アトリエマスタバ,,株式会社,兵庫県,尼崎市,南武庫之荘４丁目１３番７号,,28,202,6610033,,,,,,,2021-07-28,1,,,,,アトリエマスタバ,0
803,3160001023502,新規,0,2021-07-28,2021-07-28,滋賀セミコンダクター株式会社,,株式会社,滋賀県,野洲市,市三宅６８６番地２,,25,210,5202362,,,,,,,2021-07-28,1,,,,,シガセミコンダクター,0
815,3180001147118,新規,0,2021-07-28,2021-07-28,株式会社ｎｅｘｔケア,,株式会社,愛知県,名古屋市天白区,原３丁目２２０１番地,,23,116,4680015,,,,,,,2021-07-28,1,,,,,ネクストケア,0
816,3180001147126,新規,0,2021-07-28,2021-07-28,株式会社ＫＫＳ,,株式会社,愛知県,名古屋市西区,中小田井３丁目２９５,,23,104,4520822,,,,,,,2021-07-28,1,,,,,ケーケーエス,0
825,3180003022780,新規,0,2021-07-28,2021-07-28,合同会社鳴海暮らし,,合同会社,愛知県,名古屋市緑区,鳴海町字花井町６番地の１０,,23,114,4580801,,,,,,,2021-07-28,1,,,,,ナルミグラシ,0
850,3240001058325,新規,0,2021-07-28,2021-07-28,Ｍａｎａ株式会社,,株式会社,広島県,安芸郡熊野町,平谷３丁目６番４号,,34,307,7314229,,,,,,,2021-07-28,1,,,,,マナ,0
851,3240001058333,新規,0,2021-07-28,2021-07-28,株式会社Ｌｉｆｅ　Ｐｒｏｄｕｃｅｒｓ,,株式会社,広島県,東広島市,西条中央３丁目２６番５号,,34,212,7390025,,,,,,,2021-07-28,1,,,,,ライフプロデューサーズ,0
865,3290003011450,新規,0,2021-07-28,2021-07-28,合同会社Ｉ．Ｇ,,合同会社,福岡県,福岡市博多区,博多駅前３丁目７番３５号博多ハイテックビル５０５,,40,132,8120011,,,,,,,2021-07-28,1,,,,,アイジー,0
882,3350003003895,新規,0,2021-07-28,2021-07-28,合同会社Ｍｉｕ,,合同会社,宮崎県,宮崎市,大島町南窪７７１番地,,45,201,8800824,,,,,,,2021-07-28,1,,,,,ミウ,0
907,3430001084599,新規,0,2021-07-28,2021-07-28,株式会社ＭＤＬ　ｈｏｌｄｉｎｇｓ,,株式会社,北海道,札幌市中央区,南七条西７丁目４－５ラフィリア札幌８０７,,01,101,0640807,,,,,,,2021-07-28,1,,,,,エムディーエルホールディングス,0
908,3430001084616,新規,0,2021-07-28,2021-07-28,株式会社住家おたすけ隊のりちゃん,,株式会社,北海道,札幌市東区,北四十五条東７丁目３番９号,,01,103,0070845,,,,,,,2021-07-28,1,,,,,スミカオタスケタイノリチャン,0
909,3430001084624,新規,0,2021-07-28,2021-07-28,株式会社ｉＧｒｏｕｐ,,株式会社,北海道,札幌市白石区,菊水八条１丁目１番１１－４０３号,,01,104,0030808,,,,,,,2021-07-28,1,,,,,アイグループ,0
911,3430003012970,新規,0,2021-07-28,2021-07-28,合同会社ＲＯＯＭ,,合同会社,北海道,恵庭市,恵み野東２丁目１２番１８,,01,231,0611371,,,,,,,2021-07-28,1,,,,,ルーム,0
913,3430005014230,新規,0,2021-07-28,2021-07-28,一般社団法人北海道ＪＥＴプログラム参加者の会,,その他の設立登記法人,北海道,岩見沢市,春日町１丁目８番４号２－２,,01,210,0680827,,,,,,,2021-07-28,1,,,,,ホッカイドウジェットプログラムサンカシャノカイ,0
914,3430005014239,新規,0,2021-07-28,2021-07-28,一般社団法人インベストメント・アドバイザーズ,,その他の設立登記法人,北海道,札幌市中央区,北二条西１０丁目２番７号２０５号ＦＰＬ証券株式会社内,,01,101,0600002,,,,,,,2021-07-28,1,,,,,インベストメントアドバイザーズ,0
917,3460101007036,新規,0,2021-07-28,2021-07-28,株式会社でざいんぷらす,,株式会社,北海道,帯広市,西十五条南１５丁目４番地２Ｒｕｂｙ１‐２０５,,01,207,0800025,,,,,,,2021-07-28,1,,,,,デザインプラス,0
918,3470003002002,新規,0,2021-07-28,2021-07-28,ＭＹサービス合同会社,,合同会社,香川県,高松市,由良町７５２番地４,,37,201,7610441,,,,,,,2021-07-28,1,,,,,エムワイサービス,0
925,3700150104196,新規,0,2021-07-28,2021-07-28,高圧ガス溶材企業年金基金,,その他,東京都,千代田区,内神田３丁目１３番４号東陽ビル４階,,13,101,1010047,,,,,,,2021-07-28,1,,,,,コウアツガスヨウザイキギヨウネンキンキキン,0
930,4010003035427,新規,0,2021-07-28,2021-07-28,Ｉ３合同会社,,合同会社,東京都,文京区,千駄木３丁目４１番１号,,13,105,1130022,,,,,,,2021-07-28,1,,,,,アイスリー,0
931,4010005033684,新規,0,2021-07-28,2021-07-28,一般社団法人ＫＳＦＲ１,,その他の設立登記法人,東京都,千代田区,内幸町２丁目１番６号,,13,101,1000011,,,,,,,2021-07-28,1,,,,,ケーエスエフアールワン,0
944,4010401161683,新規,0,2021-07-28,2021-07-28,株式会社リマーカブル,,株式会社,東京都,港区,浜松町２丁目２番１５号浜松町ダイヤビル２Ｆ,,13,103,1050013,,,,,,,2021-07-28,1,,,,,リマーカブル,0
945,4010401161691,新規,0,2021-07-28,2021-07-28,株式会社ユートピア,,株式会社,東京都,港区,南麻布１丁目５番１４号麻布東町マンション７０７号室,,13,103,1060047,,,,,,,2021-07-28,1,,,,,ユートピア,0
946,4010401161709,新規,0,2021-07-28,2021-07-28,ＣＴＳ株式会社,,株式会社,東京都,港区,芝浦４丁目２０－２－１１１７,,13,103,1080023,,,,,,,2021-07-28,1,,,,,シーティーエス,0
947,4010401161717,新規,0,2021-07-28,2021-07-28,株式会社１ＣＥＮＴｏ　ＩＮＦＩＮＩＴＹ,,株式会社,東京都,港区,南青山３丁目１番３号,,13,103,1070062,,,,,,,2021-07-28,1,,,,,ワンセントインフィニティー,0
948,4010401161725,新規,0,2021-07-28,2021-07-28,株式会社サングリーン,,株式会社,東京都,港区,西新橋２丁目３７番５号,,13,103,1050003,,,,,,,2021-07-28,1,,,,,サングリーン,0
950,4010403025787,新規,0,2021-07-28,2021-07-28,ＪＳＣＣ合同会社Ａｓｓｅｔ００１,,合同会社,東京都,港区,南青山２丁目２番１５号,,13,103,1070062,,,,,,,2021-07-28,1,,,,,ジェイエスシーシーアセットゼロゼロワン,0
955,4010801032170,新規,0,2021-07-28,2021-07-28,株式会社オフィス八木,,株式会社,東京都,大田区,大森本町１丁目９番２－８０６号,,13,111,1430011,,,,,,,2021-07-28,1,,,,,オフィスヤギ,0
963,4010901049164,新規,0,2021-07-28,2021-07-28,バッテリ・フォー・ザ・フューチャー株式会社,,株式会社,東京都,世田谷区,代田３丁目５１番３号,,13,112,1550033,,,,,,,2021-07-28,1,,,,,バッテリフォーザフューチャー,0
965,4010905004181,新規,0,2021-07-28,2021-07-28,一般社団法人健康未来戦略機構,,その他の設立登記法人,東京都,世田谷区,宮坂３丁目１４番１５号,,13,112,1560051,,,,,,,2021-07-28,1,,,,,ケンコウミライセンリャクキコウ,0
969,4011001141893,新規,0,2021-07-28,2021-07-28,株式会社ＰｅａｃｅＣｏｌｏｒ,,株式会社,東京都,渋谷区,神宮前６丁目２３番４号桑野ビル２階,,13,113,1500001,,,,,,,2021-07-28,1,,,,,ピースカラー,0
971,4011003013133,新規,0,2021-07-28,2021-07-28,ＯＴＯＫＵ合同会社,,合同会社,東京都,渋谷区,渋谷３丁目１－８－６０５,,13,113,1500002,,,,,,,2021-07-28,1,,,,,オトク,0
972,4011003013141,新規,0,2021-07-28,2021-07-28,合同会社ＪＭ,,合同会社,東京都,渋谷区,神宮前６丁目２３番４号桑野ビル２階,,13,113,1500001,,,,,,,2021-07-28,1,,,,,ジェイエム,0
976,4011501027171,新規,0,2021-07-28,2021-07-28,株式会社吹野硝子店,,株式会社,東京都,荒川区,町屋２丁目１４番９号,,13,118,1160001,,,,,,,2021-07-28,1,,,,,フキノガラステン,0
986,4012403004960,新規,0,2021-07-28,2021-07-28,合同会社梨木事務所,,合同会社,東京都,小金井市,東町５丁目２７番２号,,13,210,1840011,,,,,,,2021-07-28,1,,,,,ナシキジムショ,0
995,4020001142389,新規,0,2021-07-28,2021-07-28,株式会社キタイグミ,,株式会社,神奈川県,横浜市神奈川区,橋本町２丁目５番地３ＢＷ－２１０６,,14,102,2210053,,,,,,,2021-07-28,1,,,,,キタイグミ,0
999,4020003020213,新規,0,2021-07-28,2021-07-28,合同会社玉兎庵,,合同会社,神奈川県,川崎市中原区,小杉町２丁目２７６番１号Ｅ２５０５,,14,133,2110063,,,,,,,2021-07-28,1,,,,,ギョクトアン,0
1008,4030001143295,新規,0,2021-07-28,2021-07-28,株式会社美楽ホールディングス,,株式会社,埼玉県,さいたま市岩槻区,府内２丁目２６番１９号,,11,110,3390042,,,,,,,2021-07-28,1,,,,,ミラクホールディングス,0
1009,4030001143485,新規,0,2021-07-28,2021-07-28,株式会社トレスラボ,,株式会社,埼玉県,和光市,南２丁目３番１３号２０４,,11,229,3510104,,,,,,,2021-07-28,1,,,,,トレスラボ,0
1010,4030001143493,新規,0,2021-07-28,2021-07-28,株式会社キタムラ,,株式会社,埼玉県,三郷市,戸ケ崎４丁目１５９番地１,,11,237,3410044,,,,,,,2021-07-28,1,,,,,キタムラ,0
1011,4030001143502,新規,0,2021-07-28,2021-07-28,株式会社みなみの島,,株式会社,埼玉県,さいたま市緑区,美園５丁目１番地８,,11,109,3360967,,,,,,,2021-07-28,1,,,,,ミナミノシマ,0
1012,4030001143527,新規,0,2021-07-28,2021-07-28,株式会社アーキ,,株式会社,埼玉県,越谷市,東越谷８丁目６番地１５,,11,222,3430023,,,,,,,2021-07-28,1,,,,,アーキ,0
1023,4040001119542,新規,0,2021-07-28,2021-07-28,ＮＡＺＡＲＩ株式会社,,株式会社,千葉県,佐倉市,西志津１丁目９番１号,,12,212,2850845,,,,,,,2021-07-28,1,,,,,ナザリ,0
1032,4050005012908,新規,0,2021-07-28,2021-07-28,一般社団法人森林再生協議会,,その他の設立登記法人,茨城県,久慈郡大子町,大字下金沢４２２－１,,08,364,3193533,,,,,,,2021-07-28,1,,,,,シンリンサイセイキョウギカイ,0
1040,4070001038302,新規,0,2021-07-28,2021-07-28,株式会社Ａ・Ｒ・Ｍトレーディング,,株式会社,群馬県,佐波郡玉村町,大字斉田４３番地３,,10,464,3701100,,,,,,,2021-07-28,1,,,,,エーアールエムトレーディング,0
1048,4080105006162,新規,0,2021-07-28,2021-07-28,社会福祉法人愛徳福祉会,,その他の設立登記法人,静岡県,三島市,徳倉２丁目１２番４１号,,22,206,4110044,,,,,,,2021-07-28,1,,,,,アイトクフクシカイ,0
1050,4080401025221,新規,0,2021-07-28,2021-07-28,株式会社掛川駅北コンタクトレンズ,,株式会社,静岡県,掛川市,中央１丁目１６番地の７,,22,213,4360056,,,,,,,2021-07-28,1,,,,,カケガワエキキタコンタクトレンズ,0
1057,4100003006187,新規,0,2021-07-28,2021-07-28,合同会社フレックス,,合同会社,長野県,塩尻市,大字大門１０３２－１７フレグランスステーションＡ１０７,,20,215,3990744,,,,,,,2021-07-28,1,,,,,フレックス,0
1066,4120001239290,新規,0,2021-07-28,2021-07-28,株式会社Ｂｒｉｌｌｉａｎｔ　Ｈａｐｐｙ,,株式会社,大阪府,大阪市西区,九条南２丁目２４番４号,,27,106,5500025,,,,,,,2021-07-28,1,,,,,ブリリアントハッピー,0
1067,4120001239324,新規,0,2021-07-28,2021-07-28,株式会社一和,,株式会社,大阪府,寝屋川市,香里南之町６番８号飯田ビル３０１,,27,215,5720084,,,,,,,2021-07-28,1,,,,,イチワ,0
1068,4120001239332,新規,0,2021-07-28,2021-07-28,株式会社Ｍ４,,株式会社,大阪府,大阪市淀川区,西中島３丁目２３番１５号セントアーバンビル７階,,27,123,5320011,,,,,,,2021-07-28,1,,,,,エムフォー,0
1069,4120001239349,新規,0,2021-07-28,2021-07-28,株式会社ｃｉｅｌ,,株式会社,大阪府,大阪市西区,北堀江２丁目３－１０,,27,106,5500014,,,,,,,2021-07-28,1,,,,,シエル,0
1070,4120001239357,新規,0,2021-07-28,2021-07-28,株式会社ナイン,,株式会社,大阪府,大阪市生野区,田島６丁目１２番２４号,,27,116,5440011,,,,,,,2021-07-28,1,,,,,ナイン,0
1071,4120001239365,新規,0,2021-07-28,2021-07-28,株式会社オフィスＫＰ,,株式会社,大阪府,大阪市中央区,東心斎橋１丁目８番１１号,,27,128,5420083,,,,,,,2021-07-28,1,,,,,オフィスケーピー,0
1072,4120001239373,新規,0,2021-07-28,2021-07-28,株式会社ｒｅｃｏｒｄ,,株式会社,大阪府,大阪市阿倍野区,阿倍野筋１丁目１番４３号あべのハルカス３１階,,27,119,5450052,,,,,,,2021-07-28,1,,,,,レコード,0
1073,4120003019906,新規,0,2021-07-28,2021-07-28,合同会社エス・スタイル,,合同会社,大阪府,大阪市北区,西天満３丁目６－１２植月第２ビル３階,,27,127,5300047,,,,,,,2021-07-28,1,,,,,エススタイル,0
1074,4120003019914,新規,0,2021-07-28,2021-07-28,合同会社ふくら,,合同会社,大阪府,大阪市淀川区,十八条２丁目１番２号,,27,123,5320001,,,,,,,2021-07-28,1,,,,,フクラ,0
1079,4120101064044,新規,0,2021-07-28,2021-07-28,株式会社ＳＰＲＩＮＧ．ＨＯＲＳＥ,,株式会社,大阪府,堺市西区,草部１５９７番地２２,,27,144,5938312,,,,,,,2021-07-28,1,,,,,スプリングホース,0
1082,4120901044674,新規,0,2021-07-28,2021-07-28,アリア株式会社,,株式会社,大阪府,吹田市,五月が丘西２番２９号,,27,205,5650833,,,,,,,2021-07-28,1,,,,,アリア,0
1083,4120901044690,新規,0,2021-07-28,2021-07-28,株式会社ＢｅａｕｔｙＭｏ,,株式会社,大阪府,豊中市,螢池中町４丁目５番３８号,,27,203,5600033,,,,,,,2021-07-28,1,,,,,ビュティモ,0
1096,4130001069794,新規,0,2021-07-28,2021-07-28,ひとひらく株式会社,,株式会社,京都府,京都市中京区,壬生天池町１番地１１６号,,26,104,6048874,,,,,,,2021-07-28,1,,,,,ヒトヒラク,0
1097,4130001069803,新規,0,2021-07-28,2021-07-28,株式会社コンタクト・ヴァン,,株式会社,京都府,京都市南区,西九条蔵王町５３番地１京都プラザホテルオフィススクエア５０６,,26,107,6018414,,,,,,,2021-07-28,1,,,,,コンタクトヴァン,0
1098,4130003007389,新規,0,2021-07-28,2021-07-28,合同会社ＹＡＳＵＫＥ,,合同会社,京都府,京都市左京区,田中大久保町２８番地,,26,103,6068236,,,,,,,2021-07-28,1,,,,,ヤスケ,0
1107,4140003016546,新規,0,2021-07-28,2021-07-28,合同会社ＪＤＭコンシュアージュ,,合同会社,兵庫県,尼崎市,南武庫之荘１０丁目１２番９号,,28,202,6610033,,,,,,,2021-07-28,1,,,,,ジェーディーエムコンシュアージュ,0
1108,4140003016562,新規,0,2021-07-28,2021-07-28,Ｓ＆Ｐかのう合同会社,,合同会社,兵庫県,加古郡播磨町,北本荘２丁目２－１３,,28,382,6750144,,,,,,,2021-07-28,1,,,,,エスアンドピーカノウ,0
1110,4140005025751,新規,0,2021-07-28,2021-07-28,一般社団法人Ｂｉｒｄｉｅ　Ｆоｒ　Ｓоｍｅоｎｅ,,その他の設立登記法人,兵庫県,三木市,志染町窟屋９９４番地１,,28,215,6730503,,,,,,,2021-07-28,1,,,,,バーディフォーサムワン,0
1113,4160003002338,新規,0,2021-07-28,2021-07-28,合同会社和商事,,合同会社,滋賀県,大津市,御殿浜２番３０号,,25,201,5200834,,,,,,,2021-07-28,1,,,,,,0
1125,4180001147075,新規,0,2021-07-28,2021-07-28,株式会社エイトワン,,株式会社,愛知県,弥富市,鯏浦町上六５７,,23,235,4980023,,,,,,,2021-07-28,1,,,,,エイトワン,0
1135,4180301035194,新規,0,2021-07-28,2021-07-28,株式会社ＢＥＣＫ,,株式会社,愛知県,岡崎市,明大寺町二丁目１４番地１オトリバーサイドテラスＮ３０１,,23,202,4440864,,,,,,,2021-07-28,1,,,,,ベック,0
1137,4190001028539,新規,0,2021-07-28,2021-07-28,株式会社Ａｉｓｕｍｉｓｕ,,株式会社,三重県,伊賀市,佐那具町１５０３番地,,24,216,5180001,,,,,,,2021-07-28,1,,,,,アイスミス,0
1139,4200001038940,新規,0,2021-07-28,2021-07-28,株式会社Ｆｌａｔ　Ｐｉｎｅ,,株式会社,岐阜県,岐阜市,東鶉１丁目２７番地９,,21,201,5008281,,,,,,,2021-07-28,1,,,,,フラットパイン,0
1148,4240001058324,新規,0,2021-07-28,2021-07-28,株式会社エフ,,株式会社,広島県,広島市西区,己斐本町２丁目６番１８号,,34,104,7330812,,,,,,,2021-07-28,1,,,,,エフ,0
1149,4240001058332,新規,0,2021-07-28,2021-07-28,株式会社ネクストプランニング,,株式会社,広島県,福山市,南手城町２丁目１７番１号,,34,207,7210963,,,,,,,2021-07-28,1,,,,,ネクストプランニング,0
1159,4270001008326,新規,0,2021-07-28,2021-07-28,株式会社スタックス,,株式会社,鳥取県,東伯郡湯梨浜町,大字宇谷９１４番地５,,31,370,6890607,,,,,,,2021-07-28,1,,,,,スタックス,0
1176,4290801027655,新規,0,2021-07-28,2021-07-28,ＡＦＰ株式会社,,株式会社,福岡県,北九州市若松区,大字大鳥居４２５番地,,40,103,8080133,,,,,,,2021-07-28,1,,,,,エーエフピー,0
1177,4290803003893,新規,0,2021-07-28,2021-07-28,合同会社明心,,合同会社,福岡県,中間市,朝霧４丁目４番３５号,,40,215,8090021,,,,,,,2021-07-28,1,,,,,メイシン,0
1184,4330001028838,新規,0,2021-07-28,2021-07-28,株式会社Ｔｅｒｒａｃｅ,,株式会社,熊本県,熊本市中央区,帯山１丁目２４－２５オビハウスＢ１,,43,101,8620924,,,,,,,2021-07-28,1,,,,,テラス,0
1190,4350001017211,新規,0,2021-07-28,2021-07-28,株式会社穿設工業,,株式会社,宮崎県,小林市,堤４５７８番地,,45,205,8860003,,,,,,,2021-07-28,1,,,,,センセツコウギョウ,0
1192,4350003003894,新規,0,2021-07-28,2021-07-28,合同会社ｔｅａｒｏｏｍ,,合同会社,宮崎県,宮崎市,月見ケ丘６丁目３番３号,,45,201,8800926,,,,,,,2021-07-28,1,,,,,ティールーム,0
1197,4380001032067,新規,0,2021-07-28,2021-07-28,株式会社澤田重機整備工場,,株式会社,福島県,南相馬市,原町区金沢字堤下３９７番地の１,,07,212,9750021,,,,,,,2021-07-28,1,,,,,サワダジュウキセイビコウジョウ,0
1204,4400001015531,新規,0,2021-07-28,2021-07-28,株式会社ｔｅｎ－ｓｅｎ,,株式会社,岩手県,久慈市,門前第３７地割２３番地１,,03,207,0280021,,,,,,,2021-07-28,1,,,,,テンセン,0
1220,4430001084615,新規,0,2021-07-28,2021-07-28,株式会社ファーマブレイン,,株式会社,北海道,札幌市中央区,南九条西７丁目１番２８号,,01,101,0640809,,,,,,,2021-07-28,1,,,,,ファーマブレイン,0
1223,4450001013423,新規,0,2021-07-28,2021-07-28,ＳＳＢ株式会社,,株式会社,北海道,旭川市,緑が丘三条３丁目１番地の２,,01,204,0788303,,,,,,,2021-07-28,1,,,,,エスエスビー,0
1224,4460001005576,新規,0,2021-07-28,2021-07-28,株式会社ＲｅＣｏｃｏ,,株式会社,北海道,釧路市,芦野３丁目１番１,00123753,01,206,0850061,,,,,,,2021-07-28,1,,,,,リココ,0
1226,4470001018635,新規,0,2021-07-28,2021-07-28,株式会社Ｔ＆Ｉ,,株式会社,香川県,高松市,林町２５２０番地１－４０３,,37,201,7610301,,,,,,,2021-07-28,1,,,,,ティーアンドアイ,0
1230,4700150104187,新規,0,2021-07-28,2021-07-28,ＳＵＰＥＲ　ＥＮＴＥＲＰＲＩＳＥＳ,,外国会社等,千葉県,八街市,榎戸４０７番地１４４－Ｂ,,12,230,2891106,スリランカ民主社会主義共和国、ウェラガントタ、ウェラガマ、ランデニガラ、１７３,,,,,,2021-07-28,1,,,,,スーパーエンタープライズ,0
1231,4700150104195,新規,0,2021-07-28,2021-07-28,非破壊検査業企業年金基金,,その他,東京都,千代田区,神田須田町１丁目１８－６第一谷ビル５階,,13,101,1010041,,,,,,,2021-07-28,1,,,,,ヒハカイケンサギヨウキギヨウネンキンキキン,0
1246,5010001219922,新規,0,2021-07-28,2021-07-28,株式会社リベショップ,,株式会社,東京都,中央区,銀座１丁目１２－４Ｎ＆ＥＢＬＤ７階,,13,102,1040061,,,,,,,2021-07-28,1,,,,,リベショップ,0
1247,5010001220005,新規,0,2021-07-28,2021-07-28,株式会社Ｓｅｉｍｏｎ,,株式会社,東京都,中央区,銀座１丁目２２番１１号銀座大竹ビジデンス２階,,13,102,1040061,,,,,,,2021-07-28,1,,,,,セイモン,0
1248,5010001220013,新規,0,2021-07-28,2021-07-28,株式会社カプリコーンインベスコ,,株式会社,東京都,中央区,日本橋茅場町３丁目２番２号ＥＫＫビル,,13,102,1030025,,,,,,,2021-07-28,1,,,,,カプリコーンインベスコ,0
1257,5010401161708,新規,0,2021-07-28,2021-07-28,株式会社オルナーテ,,株式会社,東京都,港区,赤坂３丁目５番５号,,13,103,1070052,,,,,,,2021-07-28,1,,,,,,0
1258,5010401161716,新規,0,2021-07-28,2021-07-28,株式会社３３,,株式会社,東京都,港区,白金台５丁目４番１６－７０３号,,13,103,1080071,,,,,,,2021-07-28,1,,,,,サンジュウサン,0
1259,5010401161724,新規,0,2021-07-28,2021-07-28,ハックルベリー株式会社,,株式会社,東京都,港区,元赤坂１丁目１番７－１００６号,,13,103,1070051,,,,,,,2021-07-28,1,,,,,ハックルベリー,0
1260,5010401161757,新規,0,2021-07-28,2021-07-28,ワルツ株式会社,,株式会社,東京都,港区,港南２丁目１５番１号品川インターシティＡ棟２２階ＳＰＲＯＵＮＤ,,13,103,1080075,,,,,,,2021-07-28,1,,,,,ワルツ,0
1261,5010403025778,新規,0,2021-07-28,2021-07-28,スマートグラフ合同会社,,合同会社,東京都,港区,南青山２丁目２－１５－９４２,,13,103,1070062,,,,,,,2021-07-28,1,,,,,スマートグラフ,0
1262,5010403025786,新規,0,2021-07-28,2021-07-28,ＪＳＣＣ合同会社Ａｓｓｅｔ００２,,合同会社,東京都,港区,南青山２丁目２番１５号,,13,103,1070062,,,,,,,2021-07-28,1,,,,,ジェイエスシーシーアセットゼロゼロツー,0
1281,5010803003821,新規,0,2021-07-28,2021-07-28,ｒｅ．ｍｉｎｅｒ合同会社,,合同会社,東京都,大田区,東雪谷５丁目３３－２－２,,13,111,1450065,,,,,,,2021-07-28,1,,,,,リマイナー,0
1284,5010901049163,新規,0,2021-07-28,2021-07-28,株式会社カラダ塾,,株式会社,東京都,世田谷区,奥沢５丁目１番１１号２０２号室,,13,112,1580083,,,,,,,2021-07-28,1,,,,,カラダジュク,0
1285,5010901049171,新規,0,2021-07-28,2021-07-28,株式会社６Ｓｉｘｅｒ,,株式会社,東京都,世田谷区,弦巻３丁目１７番５号エスペルーモ桜新町３０２,,13,112,1540016,,,,,,,2021-07-28,1,,,,,シクサー,0
1290,5011001141934,新規,0,2021-07-28,2021-07-28,株式会社テックイニット,,株式会社,東京都,渋谷区,道玄坂１丁目１６番６号二葉ビル７Ａ,,13,113,1500043,,,,,,,2021-07-28,1,,,,,テックイニット,0
1296,5011005009120,新規,0,2021-07-28,2021-07-28,ＧＪＣＦ１４特定目的会社,,その他の設立登記法人,東京都,渋谷区,広尾１丁目１１番２号嶋本公認会計士事務所気付,,13,113,1500012,,,,,,,2021-07-28,1,,,,,ジージェイシーエフフォーティーン,0
1300,5011103010896,新規,0,2021-07-28,2021-07-28,合同会社Ｎｅｏｎ,,合同会社,東京都,新宿区,歌舞伎町２丁目２４番３号,,13,104,1600021,,,,,,,2021-07-28,1,,,,,ネオン,0
1301,5011105009887,新規,0,2021-07-28,2021-07-28,一般社団法人日本エジプト考古学研究所,,その他の設立登記法人,東京都,新宿区,西早稲田２丁目３番２１号,,13,104,1690051,,,,,,,2021-07-28,1,,,,,ニホンエジプトコウコガクケンキュウジョ,0
1303,5011403003393,新規,0,2021-07-28,2021-07-28,被災調査センター合同会社,,合同会社,東京都,板橋区,仲町３９番７号レシャンブルヴァレ３０３,,13,119,1730022,,,,,,,2021-07-28,1,,,,,ヒサイチョウサセンター,0
1307,5011601025280,新規,0,2021-07-28,2021-07-28,株式会社アクシスグラフィック,,株式会社,東京都,練馬区,下石神井４丁目１２番５－７０６号,,13,120,1770042,,,,,,,2021-07-28,1,,,,,アクシスグラフィック,0
1308,5011601025289,新規,0,2021-07-28,2021-07-28,デスクトップステーション株式会社,,株式会社,東京都,練馬区,春日町４丁目３番１７号,,13,120,1790074,,,,,,,2021-07-28,1,,,,,,0
1309,5011703002896,新規,0,2021-07-28,2021-07-28,合同会社Ｂ＆Ｂ,,合同会社,東京都,江戸川区,大杉１丁目１０番６号,,13,123,1320022,,,,,,,2021-07-28,1,,,,,ビーアンドビー,0
1312,5011803004719,新規,0,2021-07-28,2021-07-28,ボックスワン合同会社,,合同会社,東京都,足立区,青井４丁目３５番２０－３０７号,,13,121,1210012,,,,,,,2021-07-28,1,,,,,ボックスワン,0
1331,5020001142297,新規,0,2021-07-28,2021-07-28,ゴールデンクラウン株式会社,,株式会社,神奈川県,川崎市川崎区,宮前町８番１３号,,14,131,2100012,,,,,,,2021-07-28,1,,,,,ゴールデンクラウン,0
1332,5020001142355,新規,0,2021-07-28,2021-07-28,株式会社Ｌｅ－ｌｉｅｎ,,株式会社,神奈川県,横浜市都筑区,東山田４丁目５番１－１００１号,,14,118,2240023,,,,,,,2021-07-28,1,,,,,ルリアン,0
1333,5020001142396,新規,0,2021-07-28,2021-07-28,株式会社グランベイト,,株式会社,神奈川県,横浜市港南区,最戸１丁目２２番１１号,,14,111,2330008,,,,,,,2021-07-28,1,,,,,グランベイト,0
1342,5020003020220,新規,0,2021-07-28,2021-07-28,合同会社スーパーアイ,,合同会社,神奈川県,横浜市港北区,高田西２丁目１番８号シェルダ高田２０１,,14,109,2230066,,,,,,,2021-07-28,1,,,,,スーパーアイ,0
1343,5020003020237,新規,0,2021-07-28,2021-07-28,合同会社Ｋｏｂｉｔｏ,,合同会社,神奈川県,横浜市港北区,新吉田東３丁目１１番１１号,,14,109,2230058,,,,,,,2021-07-28,1,,,,,コビト,0
1347,5020005015144,新規,0,2021-07-28,2021-07-28,特定非営利活動法人ｆｏｒ　ｙｏｕｒ　ＳＭＩＬＥ,,その他の設立登記法人,神奈川県,横浜市青葉区,すすき野３丁目３番２号,,14,117,2250021,,,,,,,2021-07-28,1,,,,,フォーユアスマイル,0
1356,5021005012255,新規,0,2021-07-28,2021-07-28,一般社団法人にゃんずネット横須賀,,その他の設立登記法人,神奈川県,横須賀市,汐入町４丁目５４番地１グランテム汐入６０５,,14,201,2380042,,,,,,,2021-07-28,1,,,,,ニャンズネットヨコスカ,0
1357,5030001143526,新規,0,2021-07-28,2021-07-28,株式会社ＷＩＮＶＥＲＴＫＳ,,株式会社,埼玉県,上尾市,大字瓦葺２２９５番地１,,11,219,3620022,,,,,,,2021-07-28,1,,,,,ウィンバーテックス,0
1361,5040001119541,新規,0,2021-07-28,2021-07-28,株式会社ＳＩＡ,,株式会社,千葉県,市原市,西広５丁目２番２３号,,12,219,2900022,,,,,,,2021-07-28,1,,,,,エスアイエー,0
1369,5040005021297,新規,0,2021-07-28,2021-07-28,一般社団法人ハッピーライフ会,,その他の設立登記法人,千葉県,佐倉市,井野１０８番地３０,,12,212,2850855,,,,,,,2021-07-28,1,,,,,ハッピーライフカイ,0
1381,5060001033922,新規,0,2021-07-28,2021-07-28,株式会社あしぎんマネーデザイン,,株式会社,栃木県,宇都宮市,桜４丁目１番２５号,,09,201,3200043,,,,,,,2021-07-28,1,,,,,アシギンマネーデザイン,0
1382,5060001033939,新規,0,2021-07-28,2021-07-28,フットワークス株式会社,,株式会社,栃木県,宇都宮市,錦２丁目４番５号,,09,201,3210967,,,,,,,2021-07-28,1,,,,,フットワークス,0
1388,5070003004185,新規,0,2021-07-28,2021-07-28,合同会社ＧＣＴ,,合同会社,群馬県,太田市,飯田町１００３番地やまさビル１Ｆ,,10,205,3730851,,,,,,,2021-07-28,1,,,,,ジーシーティー,0
1391,5080403004338,新規,0,2021-07-28,2021-07-28,六波羅合同会社,,合同会社,静岡県,菊川市,下平川２２４２番地の１,,22,224,4371514,,,,,,,2021-07-28,1,,,,,ロクハラ,0
1392,5090003001916,新規,0,2021-07-28,2021-07-28,合同会社Ｍ‐２１,,合同会社,山梨県,甲府市,国母７丁目９番３８号,,19,201,4000043,,,,,,,2021-07-28,1,,,,,エムニジュウイチ,0
1404,5110003004536,新規,0,2021-07-28,2021-07-28,ヒマワリ合同会社,,合同会社,新潟県,魚沼市,七日市２２０番地１,,15,225,9460071,,,,,,,2021-07-28,1,,,,,ヒマワリ,0
1422,5120001239298,新規,0,2021-07-28,2021-07-28,Ｂｒｉｇｈｔ　Ｐｌａｃｅ株式会社,,株式会社,大阪府,大阪市西区,新町１丁目２９番５号,,27,106,5500013,,,,,,,2021-07-28,1,,,,,ブライトプレイス,0
1423,5120001239315,新規,0,2021-07-28,2021-07-28,ＲＥＩ＆ｃｏ．株式会社,,株式会社,大阪府,大阪市北区,中崎３丁目４番２２－９０７号,,27,127,5300016,,,,,,,2021-07-28,1,,,,,レイアンドコー,0
1424,5120001239348,新規,0,2021-07-28,2021-07-28,株式会社Ｊ．Ｂ．Ｈｉｃｋｓ,,株式会社,大阪府,大阪市中央区,東心斎橋１丁目１３－４,,27,128,5420083,,,,,,,2021-07-28,1,,,,,ジェイビーヒックス,0
1425,5120001239356,新規,0,2021-07-28,2021-07-28,株式会社Ｏ’ｓ,,株式会社,大阪府,大阪市中央区,材木町１－６第１２新興ビル３０１号室,,27,128,5400010,,,,,,,2021-07-28,1,,,,,オズ,0
1426,5120001239364,新規,0,2021-07-28,2021-07-28,株式会社Ｄｉｊｕ,,株式会社,大阪府,大阪市阿倍野区,阿倍野筋１丁目１番４３号あべのハルカス３１階,,27,119,5450052,,,,,,,2021-07-28,1,,,,,ディジュ,0
1427,5120001239380,新規,0,2021-07-28,2021-07-28,らしく株式会社,,株式会社,大阪府,大阪市中央区,瓦屋町３丁目７番３号,,27,128,5420066,,,,,,,2021-07-28,1,,,,,ラシク,0
1428,5120001239397,新規,0,2021-07-28,2021-07-28,株式会社ＫＥＩ,,株式会社,大阪府,大阪市西成区,旭２丁目３－１８,,27,122,5570032,,,,,,,2021-07-28,1,,,,,ケイ,0
1432,5120003019921,新規,0,2021-07-28,2021-07-28,合同会社Ｗｉｎｄｙ　Ｗｉｎｇｓ,,合同会社,大阪府,大阪市中央区,本町橋６－１９本町第２今岡ビル６０３,,27,128,5400029,,,,,,,2021-07-28,1,,,,,ウィンディウイングス,0
1437,5120101064035,新規,0,2021-07-28,2021-07-28,大地建設株式会社,,株式会社,大阪府,岸和田市,尾生町６丁目１０番１５号,,27,202,5960816,,,,,,,2021-07-28,1,,,,,ダイチケンセツ,0
1438,5120101064043,新規,0,2021-07-28,2021-07-28,株式会社飛翔,,株式会社,大阪府,堺市堺区,戎島町２丁３０－４１８,,27,141,5900985,,,,,,,2021-07-28,1,,,,,ヒショウ,0
1447,5120901044681,新規,0,2021-07-28,2021-07-28,株式会社ＬＥＥＴ,,株式会社,大阪府,吹田市,南正雀５丁目２番３３号,,27,205,5640012,,,,,,,2021-07-28,1,,,,,リート,0
1454,5130001069793,新規,0,2021-07-28,2021-07-28,株式会社グランクール,,株式会社,京都府,京田辺市,三山木中央４丁目１２番地９,,26,211,6100313,,,,,,,2021-07-28,1,,,,,グランクール,0
1455,5130001069802,新規,0,2021-07-28,2021-07-28,株式会社深堀総合会計,,株式会社,京都府,向日市,寺戸町小佃５番地の１グランマークシティ東向日駅前２１８号,,26,208,6170002,,,,,,,2021-07-28,1,,,,,フカホリソウゴウカイケイ,0
1457,5130003007371,新規,0,2021-07-28,2021-07-28,合同会社Ｗｉｔｈ,,合同会社,京都府,京都市右京区,西院南寿町１９プラネスーペリア京都西院７０７,,26,108,6150048,,,,,,,2021-07-28,1,,,,,ウィズ,0
1458,5130003007388,新規,0,2021-07-28,2021-07-28,合同会社輝,,合同会社,京都府,京都市伏見区,竹田中島町１番地の２ライオンズマンション伏見水鶏橋７０１号,,26,109,6128415,,,,,,,2021-07-28,1,,,,,カガヤキ,0
1472,5140005025759,新規,0,2021-07-28,2021-07-28,学園７丁目街区団地管理組合法人,,その他の設立登記法人,兵庫県,三田市,学園７丁目１４番７,,28,219,6691337,,,,,,,2021-07-28,1,,,,,ガクエンナナチョウメガイクダンチ,0
1494,5180001147017,新規,0,2021-07-28,2021-07-28,モノリスコンサルティング株式会社,,株式会社,愛知県,名古屋市千種区,菊坂町３丁目１０番地,,23,101,4640836,,,,,,,2021-07-28,1,,,,,モノリスコンサルティング,0
1495,5180001147124,新規,0,2021-07-28,2021-07-28,愛幸産業株式会社,,株式会社,愛知県,あま市,七宝町鯰橋５丁目６番地２,,23,237,4970015,,,,,,,2021-07-28,1,,,,,アイコウサンギョウ,0
1501,5180003022787,新規,0,2021-07-28,2021-07-28,合同会社ＴＳＵＮＡＧＵ　Ｃｏｍｍｕｎｉｔｙ　Ｆａｒｍ,,合同会社,愛知県,名古屋市東区,東新町１番地,,23,102,4610006,,,,,,,2021-07-28,1,,,,,ツナグコミュニティファーム,0
1521,5230001018914,新規,0,2021-07-28,2021-07-28,株式会社ロジスティクス,,株式会社,富山県,射水市,小林２０９－１,,16,211,9390288,,,,,,,2021-07-28,1,,,,,ロジスティクス,0
1522,5240001058323,新規,0,2021-07-28,2021-07-28,株式会社広島メディカル,,株式会社,広島県,広島市西区,庚午中４丁目５番２７号,,34,104,7330822,,,,,,,2021-07-28,1,,,,,ヒロシマメディカル,0
1546,5290801027654,新規,0,2021-07-28,2021-07-28,株式会社イチカラ,,株式会社,福岡県,北九州市小倉南区,企救丘１丁目８番３９号,,40,107,8020981,,,,,,,2021-07-28,1,,,,,イチカラ,0
1554,5330001028837,新規,0,2021-07-28,2021-07-28,ＴＳ建設株式会社,,株式会社,熊本県,荒尾市,大正町１丁目１番１７号ＷＡＳＨＩＲＯビル３０２,,43,204,8640054,,,,,,,2021-07-28,1,,,,,ティーエスケンセツ,0
1566,5370001047379,新規,0,2021-07-28,2021-07-28,株式会社Ｃａｎｖａｓ,,株式会社,宮城県,仙台市青葉区,上杉１丁目７番１７－５０２号,,04,101,9800011,,,,,,,2021-07-28,1,,,,,キャンバス,0
1571,5380001032066,新規,0,2021-07-28,2021-07-28,株式会社ＲＥＧＡＬＯ,,株式会社,福島県,いわき市,泉町本谷字数馬２５番地エレガンテ・パルコⅡ２０５,00123762,07,204,9718181,,,,,,,2021-07-28,1,,,,,レガロ,0
1588,5430001084622,新規,0,2021-07-28,2021-07-28,株式会社創進興業,,株式会社,北海道,札幌市南区,澄川六条４丁目１１番１－４０１号,,01,106,0050006,,,,,,,2021-07-28,1,,,,,ソウシンコウギョウ,0
1589,5430001084630,新規,0,2021-07-28,2021-07-28,滝谷重機興業株式会社,,株式会社,北海道,岩見沢市,志文町２０８番地５６,,01,210,0680833,,,,,,,2021-07-28,1,,,,,タキタニジュウキコウギョウ,0
1590,5430001084639,新規,0,2021-07-28,2021-07-28,株式会社コンテナスペース,,株式会社,北海道,千歳市,千代田町５丁目５番地１戸田ビル２階,,01,224,0660062,,,,,,,2021-07-28,1,,,,,コンテナスペース,0
1593,5430003012969,新規,0,2021-07-28,2021-07-28,合同会社ＥＷＢ,,合同会社,北海道,恵庭市,駒場町５丁目１番１号,,01,231,0611417,,,,,,,2021-07-28,1,,,,,イーダブリュービー,0
1596,5450001013422,新規,0,2021-07-28,2021-07-28,株式会社Ｔ．Ｋ．Ｏｆｆｉｃｅ,,株式会社,北海道,旭川市,五条通９丁目１７０３番地３０ロイヤルビル５Ｆ,,01,204,0700035,,,,,,,2021-07-28,1,,,,,ティーケーオフィス,0
1597,5460101007034,新規,0,2021-07-28,2021-07-28,株式会社東桜ファーム,,株式会社,北海道,帯広市,桜木町東５線１０４番地,,01,207,0891243,,,,,,,2021-07-28,1,,,,,トウオウファーム,0
1599,5470003002000,新規,0,2021-07-28,2021-07-28,合同会社久福,,合同会社,香川県,坂出市,福江町２丁目１番４３号,,37,203,7620034,,,,,,,2021-07-28,1,,,,,キュウフク,0
1603,5480003001694,新規,0,2021-07-28,2021-07-28,合同会社　まほろＢａｓｅ藍住,,合同会社,徳島県,板野郡藍住町,住吉字藤ノ木７９番地１３,,36,403,7711266,,,,,,,2021-07-28,1,,,,,マホロベースアイズミ,0
1606,5500001023589,新規,0,2021-07-28,2021-07-28,株式会社クルマツ建工,,株式会社,愛媛県,西条市,周布１４４７番地８,,38,206,7991371,,,,,,,2021-07-28,1,,,,,クルマツケンコウ,0
1608,5700150104194,新規,0,2021-07-28,2021-07-28,出版企業年金基金,,その他,東京都,千代田区,神田神保町１丁目３２番地出版クラブビル７Ｆ,,13,101,1010051,,,,,,,2021-07-28,1,,,,,シユツパンキギヨウネンキンキキン,0
1609,5700150104203,新規,0,2021-07-28,2021-07-28,トヨタ関連部品企業年金基金,,その他,愛知県,豊田市,トヨタ町１,,23,211,4710826,,,,,,,2021-07-28,1,,,,,トヨタカンレンブヒンキギヨウネンキンキキン,0
1619,6010001219921,新規,0,2021-07-28,2021-07-28,株式会社リベシティ,,株式会社,東京都,中央区,銀座１丁目１２－４Ｎ＆ＥＢＬＤ７階,,13,102,1040061,,,,,,,2021-07-28,1,,,,,リベシティ,0
1620,6010001219938,新規,0,2021-07-28,2021-07-28,株式会社双龍,,株式会社,東京都,千代田区,神田三崎町３丁目３番３号太陽ビル３０２,,13,101,1010061,,,,,,,2021-07-28,1,,,,,ソウリュウ,0
1621,6010001219987,新規,0,2021-07-28,2021-07-28,株式会社キノメ,,株式会社,東京都,中央区,銀座７丁目１５番８号タウンハイツ銀座,,13,102,1040061,,,,,,,2021-07-28,1,,,,,キノメ,0
1623,6010101014784,新規,0,2021-07-28,2021-07-28,株式会社Ｏｎｏｎｏ　Ｃｏｒｐｏｒａｔｉｏｎ,,株式会社,東京都,八王子市,大塚５３４番地８,,13,201,1920352,,,,,,,2021-07-28,1,,,,,オノノコーポレーション,0
1635,6010401161681,新規,0,2021-07-28,2021-07-28,株式会社ばあちゃん,,株式会社,東京都,港区,西麻布１丁目１２番３－８１１号,,13,103,1060031,,,,,,,2021-07-28,1,,,,,バアチャン,0
1636,6010401161715,新規,0,2021-07-28,2021-07-28,東京ハヤト株式会社,,株式会社,東京都,港区,新橋４丁目２７番９号新橋スズキビル４階,,13,103,1050004,,,,,,,2021-07-28,1,,,,,トウキョウハヤト,0
1637,6010401161723,新規,0,2021-07-28,2021-07-28,ケイプラス株式会社,,株式会社,東京都,港区,芝大門１丁目３番８号ＶＯＲＴ芝大門Ⅱ５階,00123752,13,103,1050012,,,,,,,2021-07-28,1,,,,,ケイプラス,0
1638,6010401161756,新規,0,2021-07-28,2021-07-28,株式会社ＫＥＮＴＹＳ　ＫＩＴＣＨＥＮ,,株式会社,東京都,港区,赤坂５丁目２番１０号グリーンパーク赤坂２４０９,,13,103,1070052,,,,,,,2021-07-28,1,,,,,ケンティーズキッチン,0
1641,6010403025769,新規,0,2021-07-28,2021-07-28,合同会社グッドフードカンパニー,,合同会社,東京都,港区,西麻布１丁目８－１６ライラックビルＢ１Ｆ,,13,103,1060031,,,,,,,2021-07-28,1,,,,,,0
1642,6010403025777,新規,0,2021-07-28,2021-07-28,Ｒａｄｉａｎｃｅ　Ｊａｐａｎ合同会社,,合同会社,東京都,港区,南麻布３丁目１９番２３号オーク南麻布ビル２階,,13,103,1060047,,,,,,,2021-07-28,1,,,,,レイディアンスジャパン,0
1643,6010403025785,新規,0,2021-07-28,2021-07-28,オーグノート合同会社,,合同会社,東京都,港区,赤坂６丁目１３番１６号アジミックビル,,13,103,1070052,,,,,,,2021-07-28,1,,,,,オーグノート,0
1644,6010403025793,新規,0,2021-07-28,2021-07-28,合同会社ＥＸＯＲ,,合同会社,東京都,港区,北青山２丁目１０－１６,,13,103,1070061,,,,,,,2021-07-28,1,,,,,エクソール,0
1645,6010501047608,新規,0,2021-07-28,2021-07-28,トラストリード株式会社,,株式会社,東京都,台東区,台東２丁目１７番１－４０２号,,13,106,1100016,,,,,,,2021-07-28,1,,,,,トラストリード,0
1653,6010801032169,新規,0,2021-07-28,2021-07-28,株式会社ＰＲＥＭＥＲＥ,,株式会社,東京都,大田区,中央４丁目３１番１８号,,13,111,1430024,,,,,,,2021-07-28,1,,,,,プレメリー,0
1654,6010803003837,新規,0,2021-07-28,2021-07-28,合同会社ＤＦＭｅ,,合同会社,東京都,大田区,南千束３丁目２番６号コリーナ・グランデ２号室,,13,111,1450063,,,,,,,2021-07-28,1,,,,,ディーエフミー,0
1658,6010901049154,新規,0,2021-07-28,2021-07-28,株式会社プロリレーション,,株式会社,東京都,世田谷区,池尻４丁目８番２５－５１２号,,13,112,1540001,,,,,,,2021-07-28,1,,,,,プロリレーション,0
1659,6010901049162,新規,0,2021-07-28,2021-07-28,株式会社ＡＳＡＳＨＩ’ｓ,,株式会社,東京都,世田谷区,下馬１丁目５４番１３号パークハイム下馬１０４,,13,112,1540002,,,,,,,2021-07-28,1,,,,,アサシズ,0
1664,6010903006681,新規,0,2021-07-28,2021-07-28,合同会社ＭＩＸＴＯ,,合同会社,東京都,世田谷区,代田５丁目２７番１６号,,13,112,1550033,,,,,,,2021-07-28,1,,,,,ミスト,0
1668,6011001142056,新規,0,2021-07-28,2021-07-28,株式会社ティーマスト,,株式会社,東京都,渋谷区,神宮前６丁目２３番４号桑野ビル２階,,13,113,1500001,,,,,,,2021-07-28,1,,,,,ティーマスト,0
1685,6011401023566,新規,0,2021-07-28,2021-07-28,株式会社明徳美装,,株式会社,東京都,板橋区,徳丸５丁目１２番９号,,13,119,1750083,,,,,,,2021-07-28,1,,,,,メイトクビソウ,0
1687,6011501027153,新規,0,2021-07-28,2021-07-28,日本花田株式会社,,株式会社,東京都,北区,浮間１丁目７－２３兆豊浮間ビル５０２号室,,13,117,1150051,,,,,,,2021-07-28,1,,,,,ニホンハナダ,0
1693,6011703002895,新規,0,2021-07-28,2021-07-28,合同会社フォーミュラファイ,,合同会社,東京都,江戸川区,平井６丁目１９番７号,,13,123,1320035,,,,,,,2021-07-28,1,,,,,フォーミュラファイ,0
1715,6020001142362,新規,0,2021-07-28,2021-07-28,株式会社ウィンホーム,,株式会社,神奈川県,横浜市瀬谷区,橋戸３丁目１２番地３セレッソＥ１０２,,14,114,2460037,,,,,,,2021-07-28,1,,,,,ウィンホーム,0
1726,6021001073531,新規,0,2021-07-28,2021-07-28,株式会社ＲＡＤＷＯＲＫＳ,,株式会社,神奈川県,茅ヶ崎市,松が丘２丁目６番６号,,14,207,2530025,,,,,,,2021-07-28,1,,,,,ラッドワークス,0
1731,6021003010714,新規,0,2021-07-28,2021-07-28,Ｌｉｋｅ　ａ　Ｈｏｌｏｇｒａｍ合同会社,,合同会社,神奈川県,鎌倉市,大町２丁目８－１０－３０２,,14,204,2480007,,,,,,,2021-07-28,1,,,,,ライクアホログラム,0
1738,6030001143483,新規,0,2021-07-28,2021-07-28,株式会社ＵＮＣＯＭＭＯＮ,,株式会社,埼玉県,朝霞市,西弁財１丁目１４番１０号,,11,227,3510021,,,,,,,2021-07-28,1,,,,,アンコモン,0
1739,6030001143500,新規,0,2021-07-28,2021-07-28,株式会社Ｆｕｕ　Ｔｒａｄｉｎｇ,,株式会社,埼玉県,川口市,戸塚南２丁目２６番２８号,,11,203,3330817,,,,,,,2021-07-28,1,,,,,フートレーディング,0
1740,6030001143509,新規,0,2021-07-28,2021-07-28,株式会社Ｔｈｒｅｅｐｉｅｃｅ,,株式会社,埼玉県,さいたま市大宮区,桜木町１丁目１８８番地１大宮ニチエイビル４Ｆ,,11,103,3300854,,,,,,,2021-07-28,1,,,,,スリーピース,0
1746,6030003017611,新規,0,2021-07-28,2021-07-28,ケイサロン合同会社,,合同会社,埼玉県,深谷市,稲荷町北１番６号,,11,218,3660028,,,,,,,2021-07-28,1,,,,,ケイサロン,0
1747,6030003017685,新規,0,2021-07-28,2021-07-28,合同会社エンゼルランプ,,合同会社,埼玉県,川口市,戸塚東１丁目１８番１５号アミューズ東川口１０１号,,11,203,3330802,,,,,,,2021-07-28,1,,,,,エンゼルランプ,0
1757,6040001119540,新規,0,2021-07-28,2021-07-28,株式会社しんうらやすＥサービス,,株式会社,千葉県,浦安市,千鳥１５番地２,,12,227,2790032,,,,,,,2021-07-28,1,,,,,シンウラヤスイーサービス,0
1758,6040001119549,新規,0,2021-07-28,2021-07-28,ＭＩＲＡＩ飲食ＬＡＢＯ株式会社,,株式会社,千葉県,松戸市,小金原４丁目２４番６号,,12,207,2700021,,,,,,,2021-07-28,1,,,,,ミライインショクラボ,0
1763,6040003018237,新規,0,2021-07-28,2021-07-28,宏葉合同会社,,合同会社,千葉県,柏市,亀甲台町１丁目２６－２,,12,217,2770031,,,,,,,2021-07-28,1,,,,,コウヨウ,0
1767,6050001049588,新規,0,2021-07-28,2021-07-28,株式会社ＴＮＥ情報コネクション,,株式会社,茨城県,つくば市,みどりの南２９番地１ＭｅｌｌｏｗＢｅｌｌみどりのⅠ、１０３号,00123756,08,220,3050884,,,,,,,2021-07-28,1,,,,,ティーエヌイージョウホウコネクション,0
1774,6070005009883,新規,0,2021-07-28,2021-07-28,一般社団法人スリージェネレーションズ,,その他の設立登記法人,群馬県,前橋市,亀里町６５０番地３,,10,201,3792147,,,,,,,2021-07-28,1,,,,,スリージェネレーションズ,0
1775,6080101022673,新規,0,2021-07-28,2021-07-28,株式会社ライド,,株式会社,静岡県,三島市,東本町１丁目２－６英光ビルⅠ２０３,00123755,22,206,4110831,,,,,,,2021-07-28,1,,,,,ライド,0
1779,6090001017120,新規,0,2021-07-28,2021-07-28,株式会社プログレス,,株式会社,山梨県,甲府市,里吉１丁目１１番５号,,19,201,4000822,,,,,,,2021-07-28,1,,,,,プログレス,0
1780,6090003001915,新規,0,2021-07-28,2021-07-28,Ｇｕｓｔａｖｏ　Ｊａｐａｎ合同会社,,合同会社,山梨県,北杜市,高根町五町田１２４５,,19,209,4080017,,,,,,,2021-07-28,1,,,,,グスタボジャパン,0
1792,6120001239297,新規,0,2021-07-28,2021-07-28,株式会社Ｍｉｎｕｔｅｓ　Ｓｔａｒ,,株式会社,大阪府,大阪市中央区,心斎橋筋１丁目５番３０号,,27,128,5420085,,,,,,,2021-07-28,1,,,,,ミニッツスター,0
1793,6120001239322,新規,0,2021-07-28,2021-07-28,株式会社サザンクロス,,株式会社,大阪府,大阪市浪速区,敷津東２丁目１番２４－２８０３号,,27,111,5560012,,,,,,,2021-07-28,1,,,,,サザンクロス,0
1794,6120001239330,新規,0,2021-07-28,2021-07-28,伊澤マネジメント株式会社,,株式会社,大阪府,大阪市住吉区,長居東２丁目１３番１２号,,27,120,5580004,,,,,,,2021-07-28,1,,,,,イザワマネジメント,0
1795,6120001239339,新規,0,2021-07-28,2021-07-28,株式会社ｓｅｖｅｎ　ｔо　ｓｕｎ,,株式会社,大阪府,大阪市中央区,瓦町２丁目１番１５号,,27,128,5410048,,,,,,,2021-07-28,1,,,,,セブントゥサン,0
1796,6120001239347,新規,0,2021-07-28,2021-07-28,株式会社ＢＯＣ,,株式会社,大阪府,大阪市東淀川区,東中島５丁目１８番２０号,,27,114,5330033,,,,,,,2021-07-28,1,,,,,ビーオーシー,0
1797,6120001239363,新規,0,2021-07-28,2021-07-28,タツミエコアクション株式会社,,株式会社,大阪府,大阪市中央区,中寺１丁目３番２３－１３０１号,,27,128,5420065,,,,,,,2021-07-28,1,,,,,タツミエコアクション,0
1802,6120003019912,新規,0,2021-07-28,2021-07-28,合同会社ワールドクラフト,,合同会社,大阪府,大阪市住吉区,苅田２丁目３番２５号１０１号,,27,120,5580011,,,,,,,2021-07-28,1,,,,,ワールドクラフト,0
1803,6120003019920,新規,0,2021-07-28,2021-07-28,ＤＤＰＳ合同会社,,合同会社,大阪府,大阪市北区,梅田１丁目２番２号大阪駅前第２ビル２階５－６号室,,27,127,5300001,,,,,,,2021-07-28,1,,,,,ディーディーピーエス,0
1804,6120003019929,新規,0,2021-07-28,2021-07-28,合同会社ライジングカンパニー,,合同会社,大阪府,大阪市東成区,大今里南６丁目４番３－９０１号,,27,115,5370013,,,,,,,2021-07-28,1,,,,,ライジングカンパニー,0
1808,6120101064026,新規,0,2021-07-28,2021-07-28,株式会社Ｇ．Ｃ．Ｅ,,株式会社,大阪府,堺市堺区,三国ヶ丘御幸通５７番地２－２０１号,,27,141,5900028,,,,,,,2021-07-28,1,,,,,ジーシーイー,0
1809,6120101064034,新規,0,2021-07-28,2021-07-28,はづき動物病院株式会社,,株式会社,大阪府,貝塚市,加神１丁目６番３４号,,27,208,5970071,,,,,,,2021-07-28,1,,,,,ハヅキドウブツビョウイン,0
1813,6120901044680,新規,0,2021-07-28,2021-07-28,株式会社ＳＡＬＬＹホールディングス,,株式会社,大阪府,高槻市,千代田町３０番１号,,27,207,5690087,,,,,,,2021-07-28,1,,,,,サリーホールディングス,0
1814,6120901044689,新規,0,2021-07-28,2021-07-28,株式会社ＩＴＡＮＳＥ農園,,株式会社,大阪府,箕面市,瀬川４丁目１９番１２号,,27,220,5620045,,,,,,,2021-07-28,1,,,,,イタンセノウエン,0
1815,6120903003759,新規,0,2021-07-28,2021-07-28,合同会社ＳＴＥＬＬＡ　ｅ　ＳＴＡＲｓ,,合同会社,大阪府,吹田市,佐井寺２丁目２９－５サンライズⅢ２０６,00123761,27,205,5650836,,,,,,,2021-07-28,1,,,,,ステラエスターズ,0
1828,6140001122468,新規,0,2021-07-28,2021-07-28,株式会社メゾンラボ,,株式会社,兵庫県,西宮市,上大市１丁目６番３９号,,28,204,6638003,,,,,,,2021-07-28,1,,,,,メゾンラボ,0
1829,6140001122476,新規,0,2021-07-28,2021-07-28,つなげる株式会社,,株式会社,兵庫県,姫路市,田寺東２丁目１番６号,,28,201,6700081,,,,,,,2021-07-28,1,,,,,ツナゲル,0
1833,6140005025758,新規,0,2021-07-28,2021-07-28,特定非営利活動法人佐治倶楽部,,その他の設立登記法人,兵庫県,丹波市,青垣町佐治６８３番地,,28,223,6693811,,,,,,,2021-07-28,1,,,,,サジクラブ,0
1839,6160005010964,新規,0,2021-07-28,2021-07-28,一般社団法人デイジー,,その他の設立登記法人,滋賀県,湖南市,水戸町２８番地２２（２０４）,,25,211,5203215,,,,,,,2021-07-28,1,,,,,デイジー,0
1851,6180001147081,新規,0,2021-07-28,2021-07-28,株式会社ユニクス販売,,株式会社,愛知県,長久手市,片平１丁目１４１９番地,,23,238,4801146,,,,,,,2021-07-28,1,,,,,ユニクスハンバイ,0
1860,6190001028537,新規,0,2021-07-28,2021-07-28,株式会社中川商店,,株式会社,三重県,桑名市,大字稗田５１４番地１,,24,205,5110852,,,,,,,2021-07-28,1,,,,,ナカガワショウテン,0
1864,6200001038939,新規,0,2021-07-28,2021-07-28,株式会社かけはし,,株式会社,岐阜県,土岐市,駄知町８６３番地,,21,212,5095401,,,,,,,2021-07-28,1,,,,,カケハシ,0
1871,6240001058330,新規,0,2021-07-28,2021-07-28,株式会社ＩＲＨ,,株式会社,広島県,広島市佐伯区,観音台１丁目４３番１８－４号,,34,108,7315157,,,,,,,2021-07-28,1,,,,,イロハ,0
1878,6270001008324,新規,0,2021-07-28,2021-07-28,株式会社えびす,,株式会社,鳥取県,米子市,両三柳３７７番地１１,,31,202,6830853,,,,,,,2021-07-28,1,,,,,エビス,0
1890,6290801027653,新規,0,2021-07-28,2021-07-28,株式会社Ｒｅ・Ｐｒｏ,,株式会社,福岡県,北九州市小倉北区,堺町１丁目５番５号ニュー南国ビル地下１階,,40,106,8020005,,,,,,,2021-07-28,1,,,,,リプロ,0
1892,6290803003891,新規,0,2021-07-28,2021-07-28,合同会社ヘルスピーク２号,,合同会社,福岡県,直方市,大字下境３７９５番地９,,40,204,8220007,,,,,,,2021-07-28,1,,,,,ヘルスピークニゴウ,0
1906,6360001029162,新規,0,2021-07-28,2021-07-28,株式会社デイゴ旅行社,,株式会社,沖縄県,石垣市,字新川８２２番地８,,47,207,9070024,,,,,,,2021-07-28,1,,,,,デイゴリョコウシャ,0
1907,6370001047378,新規,0,2021-07-28,2021-07-28,株式会社アトラペ,,株式会社,宮城県,東松島市,矢本字蜂谷前８番地３,,04,214,9810503,,,,,,,2021-07-28,1,,,,,アトラペ,0
1908,6370003005326,新規,0,2021-07-28,2021-07-28,合同会社シーズ・イノベーション,,合同会社,宮城県,石巻市,魚町３丁目３番地の１７石巻冷蔵ビル２階Ｂ,,04,202,9860022,,,,,,,2021-07-28,1,,,,,シーズイノベーション,0
1911,6380001032057,新規,0,2021-07-28,2021-07-28,株式会社ＭＫ,,株式会社,福島県,岩瀬郡天栄村,大字飯豊字宮ノ前３１番地,,07,344,9620512,,,,,,,2021-07-28,1,,,,,エムケー,0
1912,6380001032065,新規,0,2021-07-28,2021-07-28,株式会社ｍａｎｏ,,株式会社,福島県,会津若松市,天寧寺町７番８号プランドールＩ．Ｎ１階,,07,202,9650805,,,,,,,2021-07-28,1,,,,,マーノ,0
1927,6390003001851,新規,0,2021-07-28,2021-07-28,合同会社冨樫コーポレーション,,合同会社,山形県,山形市,大字山寺１９７３番地の２２８,,06,201,9993301,,,,,,,2021-07-28,1,,,,,トガシコーポレーション,0
1932,6400001015538,新規,0,2021-07-28,2021-07-28,水沢不動産鑑定株式会社,,株式会社,岩手県,奥州市,水沢佐倉河字石橋１７番地１,,03,215,0230003,,,,,,,2021-07-28,1,,,,,ミズサワフドウサンカンテイ,0
1939,6430001084621,新規,0,2021-07-28,2021-07-28,株式会社愛心,,株式会社,北海道,札幌市北区,新琴似二条１丁目１番５７号,,01,102,0010902,,,,,,,2021-07-28,1,,,,,アイシン,0
1940,6430001084638,新規,0,2021-07-28,2021-07-28,株式会社ＲＯＢＯＴＳＨＡＲＥ,,株式会社,北海道,札幌市中央区,北二条西１３丁目１番１４,,01,101,0600002,,,,,,,2021-07-28,1,,,,,ロボットシェア,0
1946,6460103001389,新規,0,2021-07-28,2021-07-28,合同会社Ｓｗｉｎｇ　ｂｙ,,合同会社,北海道,帯広市,富士町４６５番地９,,01,207,0891251,,,,,,,2021-07-28,1,,,,,スウィングバイ,0
1952,6480001011439,新規,0,2021-07-28,2021-07-28,株式会社ＳＯＩ,,株式会社,徳島県,徳島市,末広１丁目２番７７号,,36,201,7700866,,,,,,,2021-07-28,1,,,,,ソイ,0
1959,6700150104185,新規,0,2021-07-28,2021-07-28,ＲＯＡＤ　ＷＩＮＧＳ　ＥＮＴＥＲＰＲＩＳＥＳ,,外国会社等,千葉県,八街市,滝台１０２３番１５－Ｂ,,12,230,2891123,スリランカ民主社会主義共和国、マダヴェラ、ワッテガマロードＮｏ．２１４,,,,,,2021-07-28,1,,,,,ロードウイングスエンタープライセス,0
1960,6700150104193,新規,0,2021-07-28,2021-07-28,愛媛県医療機関企業年金基金,,その他,愛媛県,松山市,二番町４丁目４－２,,38,201,7900002,,,,,,,2021-07-28,1,,,,,エヒメケンイリヨウキカンキギヨウネンキンキキン,0
1961,6700150104202,新規,0,2021-07-28,2021-07-28,近畿化粧品企業年金基金,,その他,大阪府,大阪市中央区,内本町２丁目１番１３号,,27,128,5400026,,,,,,,2021-07-28,1,,,,,キンキケシヨウヒンキギヨウネンキンキキン,0
1968,7010001219986,新規,0,2021-07-28,2021-07-28,株式会社アクセルベックス,,株式会社,東京都,千代田区,内幸町１丁目３番１号幸ビルディング９階,,13,101,1000011,,,,,,,2021-07-28,1,,,,,アクセルベックス,0
1969,7010003035424,新規,0,2021-07-28,2021-07-28,Ｊａｐａｎ　Ｔｒｉｂｅ合同会社,,合同会社,東京都,中央区,新川１丁目２７番８号新川大原ビル８階,,13,102,1040033,,,,,,,2021-07-28,1,,,,,ジャパントライブ,0
1970,7010101014783,新規,0,2021-07-28,2021-07-28,株式会社ＫＲ,,株式会社,東京都,八王子市,元八王子町２丁目８７３番地１スカイハイツ１０２号,,13,201,1930826,,,,,,,2021-07-28,1,,,,,ケーアール,0
1978,7010401161615,新規,0,2021-07-28,2021-07-28,株式会社ＴＯＲＩＯＲＧ,,株式会社,東京都,港区,六本木５丁目１６－５インペリアル六本木１号館１００８,,13,103,1060032,,,,,,,2021-07-28,1,,,,,トリオーグ,0
1979,7010401161689,新規,0,2021-07-28,2021-07-28,株式会社めるてぃ,,株式会社,東京都,港区,赤坂７丁目１１番１２－６０１号,,13,103,1070052,,,,,,,2021-07-28,1,,,,,,0
1980,7010401161697,新規,0,2021-07-28,2021-07-28,株式会社Ｉｓｌａｎｄ,,株式会社,東京都,港区,六本木３丁目８番９－５０１号,,13,103,1060032,,,,,,,2021-07-28,1,,,,,アイランド,0
1981,7010401161714,新規,0,2021-07-28,2021-07-28,Ｙｏｇｂｙ株式会社,,株式会社,東京都,港区,高輪１丁目１３番１２号,,13,103,1080074,,,,,,,2021-07-28,1,,,,,ヨグビー,0
1982,7010401161722,新規,0,2021-07-28,2021-07-28,株式会社ＦＵＲＵＮＯ,,株式会社,東京都,港区,元麻布３丁目１２番１号３階,,13,103,1060046,,,,,,,2021-07-28,1,,,,,フルノ,0
1983,7010401161730,新規,0,2021-07-28,2021-07-28,Ｂ．Ｌ．Ｔ株式会社,,株式会社,東京都,港区,港南１丁目８番２３－１８１０号,,13,103,1080075,,,,,,,2021-07-28,1,,,,,ビーエルティー,0
1984,7010401161739,新規,0,2021-07-28,2021-07-28,株式会社Ｆ＆Ｒ,,株式会社,東京都,港区,北青山２丁目７番２０号第２猪瀬ビル２Ｆ,,13,103,1070061,,,,,,,2021-07-28,1,,,,,エフアンドアール,0
1989,7010403025784,新規,0,2021-07-28,2021-07-28,合同会社Ａｔｈｅｎａ,,合同会社,東京都,港区,東麻布２丁目３３番３号ウィンザーコート２０１号室,,13,103,1060044,,,,,,,2021-07-28,1,,,,,アテナ,0
1990,7010403025792,新規,0,2021-07-28,2021-07-28,合同会社京都木津川,,合同会社,東京都,港区,虎ノ門３丁目１８番１２－１１０１号,,13,103,1050001,,,,,,,2021-07-28,1,,,,,キョウトキヅガワ,0
1998,7010801032168,新規,0,2021-07-28,2021-07-28,株式会社Ｋｕｐｕｌａｕ,,株式会社,東京都,大田区,池上１丁目６番２号,,13,111,1460082,,,,,,,2021-07-28,1,,,,,クプラウ,0
2000,7010901049153,新規,0,2021-07-28,2021-07-28,株式会社ＳＨＲＥＥ　ＧＡＮＥＳＨ,,株式会社,東京都,世田谷区,喜多見８丁目１０番６号,,13,112,1570067,,,,,,,2021-07-28,1,,,,,シリガネシャ,0
2001,7010901049161,新規,0,2021-07-28,2021-07-28,株式会社トレス・べレザ,,株式会社,東京都,世田谷区,松原２丁目４２番１４号,,13,112,1560043,,,,,,,2021-07-28,1,,,,,トレスベレザ,0
2002,7010903006689,新規,0,2021-07-28,2021-07-28,ストラタジェム合同会社,,合同会社,東京都,世田谷区,砧４丁目２９－１０,,13,112,1570073,,,,,,,2021-07-28,1,,,,,ストラタジェム,0
2010,7011001141916,新規,0,2021-07-28,2021-07-28,株式会社ｓａｋａｔｏｃｏ,,株式会社,東京都,目黒区,上目黒２丁目１５番１２号,,13,110,1530051,,,,,,,2021-07-28,1,,,,,サカトコ,0
2018,7011201023138,新規,0,2021-07-28,2021-07-28,株式会社ＢＬＯＣＫ＆ＢＬＯＣＫ,,株式会社,東京都,中野区,江古田３丁目６－６サニー中野２階,,13,114,1650022,,,,,,,2021-07-28,1,,,,,ブロックアンドブロック,0
2020,7011401023557,新規,0,2021-07-28,2021-07-28,株式会社テックコード,,株式会社,東京都,板橋区,小豆沢２丁目３番９－６０４号パシフィック小豆沢,,13,119,1740051,,,,,,,2021-07-28,1,,,,,テックコード,0
2021,7011401023565,新規,0,2021-07-28,2021-07-28,双京商事株式会社,,株式会社,東京都,板橋区,東坂下１丁目１６番５－９０４号室,,13,119,1740042,,,,,,,2021-07-28,1,,,,,ソウケイショウジ,0
2022,7011405002160,新規,0,2021-07-28,2021-07-28,特定非営利活動法人ＳＤＧｓいたばしネットワーク,,その他の設立登記法人,東京都,板橋区,板橋３丁目６３番５号,,13,119,1730004,,,,,,,2021-07-28,1,,,,,エスディージーズイタバシネットワーク,0
2028,7012401038132,新規,0,2021-07-28,2021-07-28,株式会社ふぁんくる,,株式会社,東京都,三鷹市,中原４丁目１４番地２号,,13,204,1810005,,,,,,,2021-07-28,1,,,,,ファンクル,0
2033,7012703002273,新規,0,2021-07-28,2021-07-28,Ｄ・Ａ・Ｄ・Ｖ・Ｎ合同会社,,合同会社,東京都,東村山市,久米川町３丁目２２－３３,,13,213,1890003,,,,,,,2021-07-28,1,,,,,ディーエーディーブイエヌ,0
2042,7013301047784,新規,0,2021-07-28,2021-07-28,日本朗裕株式会社,,株式会社,東京都,豊島区,東池袋１丁目４２番１４号２８山京ビルハローオフィス池袋２１号室,,13,116,1700013,,,,,,,2021-07-28,1,,,,,ニホンロウユウ,0
2053,7020001142361,新規,0,2021-07-28,2021-07-28,株式会社エーゼット,,株式会社,神奈川県,横浜市栄区,桂台南２丁目４５番１４号,,14,115,2470033,,,,,,,2021-07-28,1,,,,,エーゼット,0
2064,7021001073514,新規,0,2021-07-28,2021-07-28,株式会社エイトテックインダストリー,,株式会社,神奈川県,相模原市中央区,宮下本町１丁目８番１１号関口ビル２０３号室,,14,152,2520211,,,,,,,2021-07-28,1,,,,,エイトテックインダストリー,0
2065,7021001073522,新規,0,2021-07-28,2021-07-28,株式会社エスズコーポレーション,,株式会社,神奈川県,逗子市,久木３丁目８番８号,,14,208,2490001,,,,,,,2021-07-28,1,,,,,エスズコーポレーション,0
2076,7030001143499,新規,0,2021-07-28,2021-07-28,株式会社中央設備,,株式会社,埼玉県,草加市,苗塚町４２９番地４,,11,221,3400036,,,,,,,2021-07-28,1,,,,,チュウオウセツビ,0
2077,7030001143508,新規,0,2021-07-28,2021-07-28,株式会社リアトッシュ,,株式会社,埼玉県,新座市,野火止７丁目１１番８号,,11,230,3520011,,,,,,,2021-07-28,1,,,,,リアトッシュ,0
2078,7030001143524,新規,0,2021-07-28,2021-07-28,株式会社アクアエステート,,株式会社,埼玉県,所沢市,南住吉１０番１－４０２号ユーネット３,,11,208,3591125,,,,,,,2021-07-28,1,,,,,アクアエステート,0
2081,7030003017676,新規,0,2021-07-28,2021-07-28,合同会社小河,,合同会社,埼玉県,川口市,本町２丁目１１番２１－４０２号,,11,203,3320012,,,,,,,2021-07-28,1,,,,,オガワ,0
2089,7040005021295,新規,0,2021-07-28,2021-07-28,一般社団法人ＭＡＳＳＡ,,その他の設立登記法人,千葉県,鎌ケ谷市,粟野６８８番地,,12,224,2730132,,,,,,,2021-07-28,1,,,,,マッサ,0
2092,7050001049587,新規,0,2021-07-28,2021-07-28,株式会社Ｒｅｄ　Ｌｉｎｅ　Ｋｙｕｓｙｕ,,株式会社,茨城県,守谷市,大柏３６８番地の６,,08,224,3020116,,,,,,,2021-07-28,1,,,,,レッドラインキュウシュウ,0
2094,7060001033929,新規,0,2021-07-28,2021-07-28,株式会社ＡＧＲＥＥ,,株式会社,栃木県,下野市,谷地賀宇東原１１４０番１,,09,216,3290423,,,,,,,2021-07-28,1,,,,,アグリー,0
2098,7080101022672,新規,0,2021-07-28,2021-07-28,株式会社モアズ,,株式会社,静岡県,富士宮市,淀師１３９６番地の７,,22,207,4180051,,,,,,,2021-07-28,1,,,,,モアズ,0
2102,7080401025219,新規,0,2021-07-28,2021-07-28,株式会社なか鮮,,株式会社,静岡県,浜松市西区,雄踏町宇布見９３３４番地の２,,22,133,4310102,,,,,,,2021-07-28,1,,,,,ナカセン,0
2103,7080403004336,新規,0,2021-07-28,2021-07-28,ＣＯ－ＲＥＶＯ合同会社,,合同会社,静岡県,浜松市南区,安松町８０番地の１,,22,134,4350034,,,,,,,2021-07-28,1,,,,,コレボ,0
2106,7100001034468,新規,0,2021-07-28,2021-07-28,株式会社ナイーフギャラリー,,株式会社,長野県,諏訪市,城南２丁目２２９６番地３,,20,206,3920017,,,,,,,2021-07-28,1,,,,,ナイーフギャラリー,0
2111,7100003006184,新規,0,2021-07-28,2021-07-28,Ｎｅｖｅ合同会社,,合同会社,長野県,北安曇郡白馬村,大字北城４９７８番地７,,20,485,3999301,,,,,,,2021-07-28,1,,,,,ネーヴェ,0
2123,7120001239305,新規,0,2021-07-28,2021-07-28,ＴＬ＆Ｄｅｖｏｔｉｏｎ株式会社,,株式会社,大阪府,大阪市中央区,心斎橋筋１丁目８－３心斎橋ＰＡＲＣＯ４ＦＳｋｉｉＭａ,,27,128,5420085,,,,,,,2021-07-28,1,,,,,ティーエルアンドディヴォーション,0
2124,7120001239338,新規,0,2021-07-28,2021-07-28,株式会社あま福,,株式会社,大阪府,大阪市福島区,海老江５丁目３番１１号,,27,103,5530001,,,,,,,2021-07-28,1,,,,,アマフク,0
2125,7120001239346,新規,0,2021-07-28,2021-07-28,株式会社まめ,,株式会社,大阪府,大阪市中央区,東高麗橋１番１０－３０２号,,27,128,5400039,,,,,,,2021-07-28,1,,,,,マメ,0
2126,7120001239354,新規,0,2021-07-28,2021-07-28,株式会社ＣｉｅｌＧｒａｎ,,株式会社,大阪府,大阪市鶴見区,諸口１丁目１番３４号,,27,124,5380051,,,,,,,2021-07-28,1,,,,,シエルグラン,0
2127,7120001239362,新規,0,2021-07-28,2021-07-28,Ｘｅｒｏｇｒａｐｈｉｃ株式会社,,株式会社,大阪府,大阪市西区,北堀江１丁目１７－８,,27,106,5500014,,,,,,,2021-07-28,1,,,,,キセログラフィック,0
2129,7120003019911,新規,0,2021-07-28,2021-07-28,合同会社サイバーショア,,合同会社,大阪府,大阪市港区,弁天３丁目５番１２号,,27,107,5520007,,,,,,,2021-07-28,1,,,,,サイバーショア,0
2130,7120003019928,新規,0,2021-07-28,2021-07-28,合同会社ＲＥＨＡＮ,,合同会社,大阪府,大阪市住吉区,我孫子３丁目９番１７－３０２号,,27,120,5580014,,,,,,,2021-07-28,1,,,,,レハン,0
2133,7120005022418,新規,0,2021-07-28,2021-07-28,一般社団法人三晃厚生会,,その他の設立登記法人,大阪府,大阪市北区,西天満３丁目１３番２０号,,27,127,5300047,,,,,,,2021-07-28,1,,,,,サンコウコウセイカイ,0
2134,7120101064025,新規,0,2021-07-28,2021-07-28,株式会社笹山創建,,株式会社,大阪府,堺市北区,北花田町３丁２８番地４,,27,146,5918002,,,,,,,2021-07-28,1,,,,,ササヤマソウケン,0
2135,7120101064041,新規,0,2021-07-28,2021-07-28,株式会社秀和,,株式会社,大阪府,羽曳野市,軽里１丁目５番９号,,27,222,5830854,,,,,,,2021-07-28,1,,,,,シュウワ,0
2139,7120901044688,新規,0,2021-07-28,2021-07-28,株式会社Ｌｉｘ,,株式会社,大阪府,池田市,栄本町１番１－Ａ号,,27,204,5630058,,,,,,,2021-07-28,1,,,,,リクス,0
2142,7122001035015,新規,0,2021-07-28,2021-07-28,思源株式会社,,株式会社,大阪府,東大阪市,花園東町２丁目３番１６号フォーレスト１―２０１号室,,27,227,5780931,,,,,,,2021-07-28,1,,,,,シゲン,0
2145,7130001069791,新規,0,2021-07-28,2021-07-28,株式会社あかり家不動産,,株式会社,京都府,京都市左京区,一乗寺宮ノ東町３８番地２,,26,103,6068116,,,,,,,2021-07-28,1,,,,,アカリヤフドウサン,0
2146,7130001069809,新規,0,2021-07-28,2021-07-28,ＴＨＥ　ＭＯＭＥＮＴ株式会社,,株式会社,京都府,京都市下京区,大政所町６８０番地１第八長谷ビル３Ｆ,,26,106,6008413,,,,,,,2021-07-28,1,,,,,ザモーメント,0
2150,7130005016237,新規,0,2021-07-28,2021-07-28,一般社団法人ＡＬＬＯＵＮＤ,,その他の設立登記法人,京都府,京都市左京区,下鴨蓼倉町５８番地の９,,26,103,6060806,,,,,,,2021-07-28,1,,,,,アロウンド,0
2154,7140001122467,新規,0,2021-07-28,2021-07-28,ＳＫＹ　ＢＯＥＫＩ株式会社,,株式会社,兵庫県,神戸市中央区,加納町４丁目８番１７号,,28,110,6500001,,,,,,,2021-07-28,1,,,,,スカイボウエキ,0
2156,7140003016568,新規,0,2021-07-28,2021-07-28,上新神戸西開発合同会社,,合同会社,兵庫県,神戸市須磨区,板宿町３丁目１５番１４号,,28,107,6540009,,,,,,,2021-07-28,1,,,,,カミシンコウベニシカイハツ,0
2157,7140005025757,新規,0,2021-07-28,2021-07-28,一般社団法人若葉,,その他の設立登記法人,兵庫県,尼崎市,潮江１丁目１０番１－４０３号,,28,202,6610976,,,,,,,2021-07-28,1,,,,,ワカバ,0
2159,7160001023498,新規,0,2021-07-28,2021-07-28,アイプラス工房株式会社,,株式会社,滋賀県,草津市,野路町６８３番地６－２０１,,25,206,5250055,,,,,,,2021-07-28,1,,,,,アイプラスコウボウ,0
2161,7160005010963,新規,0,2021-07-28,2021-07-28,一般社団法人カントリーライフ３６７,,その他の設立登記法人,滋賀県,大津市,葛川細川町６３番地,,25,201,5200471,,,,,,,2021-07-28,1,,,,,カントリーライフサンロクナナ,0
2174,7180003022777,新規,0,2021-07-28,2021-07-28,合同会社三悠,,合同会社,愛知県,名古屋市中村区,大秋町４丁目６番地の２,,23,105,4530042,,,,,,,2021-07-28,1,,,,,サンユウ,0
2178,7180301035200,新規,0,2021-07-28,2021-07-28,ＣＨ．ＴＡＲＩＱＥ　ＴＲＤ株式会社,,株式会社,愛知県,安城市,安城町名広６２番地６,,23,212,4460026,,,,,,,2021-07-28,1,,,,,シーエッチタリックティーアールディー,0
2181,7190001028536,新規,0,2021-07-28,2021-07-28,株式会社森塗装,,株式会社,三重県,四日市市,生桑町８２０番地３,,24,202,5120911,,,,,,,2021-07-28,1,,,,,モリトソウ,0
2182,7190001028544,新規,0,2021-07-28,2021-07-28,株式会社フリースタイル,,株式会社,三重県,松阪市,星合町１２９７番地１,,24,204,5152101,,,,,,,2021-07-28,1,,,,,フリースタイル,0
2190,7200005013227,新規,0,2021-07-28,2021-07-28,一般社団法人おひさま,,その他の設立登記法人,岐阜県,中津川市,茄子川２０７７番地２６７,,21,206,5099132,,,,,,,2021-07-28,1,,,,,オヒサマ,0
2194,7220001024325,新規,0,2021-07-28,2021-07-28,株式会社カサシグループ,,株式会社,石川県,七尾市,中島町笠師ヒ部６５番地,,17,202,9292233,,,,,,,2021-07-28,1,,,,,カサシグループ,0
2210,7280005007428,新規,0,2021-07-28,2021-07-28,一般社団法人ライフクオリティ協会,,その他の設立登記法人,島根県,大田市,川合町川合１４９９番地３,,32,205,6940011,,,,,,,2021-07-28,1,,,,,,0
2214,7290003011447,新規,0,2021-07-28,2021-07-28,Ｔ－Ｓｔｙｌｅ合同会社,,合同会社,福岡県,久留米市,東合川町６６３番地４,,40,203,8390807,,,,,,,2021-07-28,1,,,,,ティースタイル,0
2218,7290801027660,新規,0,2021-07-28,2021-07-28,大進建設株式会社,,株式会社,福岡県,北九州市門司区,春日町１６番５号,,40,101,8010823,,,,,,,2021-07-28,1,,,,,ダイシンケンセツ,0
2219,7300001012569,新規,0,2021-07-28,2021-07-28,株式会社ＹＡＭＡＦＵ　Ａｇｒｉ,,株式会社,佐賀県,唐津市,海岸通７１８２番地１６２,,41,202,8470873,,,,,,,2021-07-28,1,,,,,ヤマフアグリ,0
2222,7300005007020,新規,0,2021-07-28,2021-07-28,一般社団法人ふれんず,,その他の設立登記法人,佐賀県,多久市,東多久町大字別府３４２６番地５５,,41,204,8460012,,,,,,,2021-07-28,1,,,,,フレンズ,0
2223,7310001017393,新規,0,2021-07-28,2021-07-28,株式会社花円,,株式会社,長崎県,長崎市,新戸町１丁目７番１８号岩下ビル１階４号室,,42,201,8500954,,,,,,,2021-07-28,1,,,,,ハナマル,0
2240,7330001028835,新規,0,2021-07-28,2021-07-28,株式会社Ｇｅｒｍｉｎａｔｉｏｎ　Ｓｏｆｔｗａｒｅ,,株式会社,熊本県,熊本市西区,出町４－８６,,43,103,8600074,,,,,,,2021-07-28,1,,,,,ジャーミネーションソフトウェア,0
2254,7380001032064,新規,0,2021-07-28,2021-07-28,Ｔ＆Ｕフリージア株式会社,,株式会社,福島県,いわき市,泉玉露５丁目７番地の７,,07,204,9718172,,,,,,,2021-07-28,1,,,,,ティーアンドユーフリージア,0
2263,7430001084620,新規,0,2021-07-28,2021-07-28,株式会社アマービレ,,株式会社,北海道,札幌市白石区,南郷通１２丁目南６番１０号札幌メープルビル３０１号,,01,104,0030022,,,,,,,2021-07-28,1,,,,,アマービレ,0
2268,7430003012975,新規,0,2021-07-28,2021-07-28,合同会社ＬＨＬ,,合同会社,北海道,札幌市中央区,大通西２４丁目２－１シティタワーズ円山Ｂ３０１,,01,101,0640820,,,,,,,2021-07-28,1,,,,,エルエイチエル,0
2270,7450003002108,新規,0,2021-07-28,2021-07-28,合同会社ベルズタロズ,,合同会社,北海道,空知郡上富良野町,大町２丁目２番９号,,01,460,0710561,,,,,,,2021-07-28,1,,,,,ベルズタロズ,0
2272,7460003000853,新規,0,2021-07-28,2021-07-28,合同会社Ｇ－ＰＯＷＥＲ北日本,,合同会社,北海道,釧路市,星が浦大通１丁目１番２０号,,01,206,0840912,,,,,,,2021-07-28,1,,,,,ジーパワーキタニホン,0
2275,7470001018632,新規,0,2021-07-28,2021-07-28,株式会社栞や,,株式会社,香川県,仲多度郡琴平町,１０６３番地２,,37,403,7660001,,,,,,,2021-07-28,1,,,,,シオリヤ,0
2278,7490003001568,新規,0,2021-07-28,2021-07-28,合同会社ｌａ－ｃｒｉｎａ,,合同会社,高知県,高知市,朝倉戊３７３－１ｐｓｋレジデンス４０４,,39,201,7808065,,,,,,,2021-07-28,1,,,,,ラクリナ,0
2279,7700150104192,新規,0,2021-07-28,2021-07-28,深圳通鋭夏普半導体有限公司,00123730,外国会社等,奈良県,天理市,櫟本町２６１３番地１,,29,204,6320004,中華人民共和国広東省深圳市福田区福保街道福保社区市花路創凌通科技大厦２Ｆ２０８－１,00123731,,,,,2021-07-28,1,,,,,シンセンツウエイシヤープハンドウタイユウゲンコウシ,0
2280,7700150104201,新規,0,2021-07-28,2021-07-28,西日本電設資材卸業企業年金基金,,その他,大阪府,大阪市中央区,本町４丁目４－２５本町オルゴビル,,27,128,5410053,,,,,,,2021-07-28,1,,,,,ニシニホンデンセツシザイオロシギヨウキギヨウネンキンキキン,0
2289,8010001219936,新規,0,2021-07-28,2021-07-28,株式会社桜橋,,株式会社,東京都,中央区,日本橋富沢町７番１８号３０１,,13,102,1030006,,,,,,,2021-07-28,1,,,,,サクラバシ,0
2292,8010003035357,新規,0,2021-07-28,2021-07-28,合同会社煌エージェンシー,,合同会社,東京都,中央区,銀座１丁目２２番１１号銀座大竹ビジデンス２階,,13,102,1040061,,,,,,,2021-07-28,1,,,,,キラメキエージェンシー,0
2294,8010101014790,新規,0,2021-07-28,2021-07-28,株式会社プロシェル,,株式会社,東京都,八王子市,大谷町４１０番地１,,13,201,1920034,,,,,,,2021-07-28,1,,,,,プロシェル,0
2297,8010401161671,新規,0,2021-07-28,2021-07-28,火火三連株式会社,,株式会社,東京都,港区,南青山２丁目２番１５号ウィン青山９４２,,13,103,1070062,,,,,,,2021-07-28,1,,,,,カカサンレン,0
2298,8010401161688,新規,0,2021-07-28,2021-07-28,株式会社Ｇｉｖｅ　ａ　ｌｏｔ,,株式会社,東京都,港区,港南３丁目９番３３号ベイクレストタワー２８０９号室,,13,103,1080075,,,,,,,2021-07-28,1,,,,,,0
2299,8010401161713,新規,0,2021-07-28,2021-07-28,ＴＴ　Ｓｍｉｌｅ　ｄｏｏＲ株式会社,,株式会社,東京都,港区,元麻布２丁目１４番１８号,,13,103,1060046,,,,,,,2021-07-28,1,,,,,ティティスマイルドア,0
2300,8010401161721,新規,0,2021-07-28,2021-07-28,株式会社チルラボ,,株式会社,東京都,港区,新橋５丁目１２－１１,,13,103,1050004,,,,,,,2021-07-28,1,,,,,チルラボ,0
2301,8010401161738,新規,0,2021-07-28,2021-07-28,ＮｅｘｔＡｒｒｏｗ株式会社,,株式会社,東京都,港区,新橋３丁目９番地１０,,13,103,1050004,,,,,,,2021-07-28,1,,,,,ネクストアロー,0
2302,8010401161754,新規,0,2021-07-28,2021-07-28,株式会社ＤＯＵＢＬＥ　ＤＩＣＥ,,株式会社,東京都,港区,六本木３丁目１３番４号,,13,103,1060032,,,,,,,2021-07-28,1,,,,,ダブルダイス,0
2303,8010403025783,新規,0,2021-07-28,2021-07-28,合同会社ＷＡＰＥＺＵＥ　ｇｒａｐｈ,,合同会社,東京都,港区,南青山５丁目１７番２号,,13,103,1070062,,,,,,,2021-07-28,1,,,,,ワペズウグラフ,0
2319,8010801032167,新規,0,2021-07-28,2021-07-28,株式会社センチネルドーム,,株式会社,東京都,大田区,池上１丁目６番２号,,13,111,1460082,,,,,,,2021-07-28,1,,,,,センチネルドーム,0
2322,8010901049152,新規,0,2021-07-28,2021-07-28,株式会社アクティブ・インターナショナル,,株式会社,東京都,世田谷区,下馬６丁目１４番８号,,13,112,1540002,,,,,,,2021-07-28,1,,,,,アクティブインターナショナル,0
2323,8010901049160,新規,0,2021-07-28,2021-07-28,株式会社ｍｏｒｅ　ｃｏｎｎｅｃｔ,,株式会社,東京都,世田谷区,瀬田２丁目５番８号,,13,112,1580095,,,,,,,2021-07-28,1,,,,,モアコネクト,0
2324,8010901049169,新規,0,2021-07-28,2021-07-28,城南ビルテック株式会社,,株式会社,東京都,世田谷区,奥沢３丁目３５番１３号,,13,112,1580083,,,,,,,2021-07-28,1,,,,,ジョウナンビルテック,0
2335,8011001141915,新規,0,2021-07-28,2021-07-28,株式会社ＲＯＬＬ,,株式会社,東京都,渋谷区,鶯谷町１－５,,13,113,1500032,,,,,,,2021-07-28,1,,,,,ロウル,0
2336,8011001141964,新規,0,2021-07-28,2021-07-28,株式会社ダブルレインボー,,株式会社,東京都,目黒区,中町１丁目４０番７－２０２号ＨＦ学芸大学レジデンスⅡ,00123754,13,110,1530065,,,,,,,2021-07-28,1,,,,,ダブルレインボー,0
2343,8011201023137,新規,0,2021-07-28,2021-07-28,株式会社シトレア,,株式会社,東京都,中野区,野方４丁目１６番１３号,,13,114,1650027,,,,,,,2021-07-28,1,,,,,シトレア,0
2349,8011401023556,新規,0,2021-07-28,2021-07-28,株式会社日本フィールドスタッフ,,株式会社,東京都,板橋区,清水町７９番２号パールハイツ２０１,,13,119,1740053,,,,,,,2021-07-28,1,,,,,ニホンフィールドスタッフ,0
2352,8011603003356,新規,0,2021-07-28,2021-07-28,エリザ合同会社,,合同会社,東京都,練馬区,旭町３丁目２３番１８号コーポ草間１０３,,13,120,1790071,,,,,,,2021-07-28,1,,,,,エリザ,0
2362,8013301047783,新規,0,2021-07-28,2021-07-28,株式会社青空プロジェクト,,株式会社,東京都,豊島区,東池袋５丁目３１番９号,,13,116,1700013,,,,,,,2021-07-28,1,,,,,アオゾラプロジェクト,0
2371,8020001142336,新規,0,2021-07-28,2021-07-28,株式会社Ｎａｇａｔｏ,,株式会社,神奈川県,横浜市泉区,白百合１丁目７番１１号,,14,116,2450005,,,,,,,2021-07-28,1,,,,,ナガト,0
2372,8020001142360,新規,0,2021-07-28,2021-07-28,内藤たたみ株式会社,,株式会社,神奈川県,横浜市港南区,丸山台２丁目３０番１０号,,14,111,2330013,,,,,,,2021-07-28,1,,,,,ナイトウタタミ,0
2373,8020001142369,新規,0,2021-07-28,2021-07-28,株式会社ｃｏｌｏｒｅ,,株式会社,神奈川県,横浜市青葉区,美しが丘４丁目３６番地２１,,14,117,2250002,,,,,,,2021-07-28,1,,,,,コローレ,0
2380,8021001073513,新規,0,2021-07-28,2021-07-28,ＫＭＫ設備工業株式会社,,株式会社,神奈川県,座間市,新田宿６７２番地,,14,216,2520026,,,,,,,2021-07-28,1,,,,,ケイエムケイセツビコウギョウ,0
2381,8021001073546,新規,0,2021-07-28,2021-07-28,株式会社ケイジェイロジテック,,株式会社,神奈川県,藤沢市,辻堂西海岸３丁目１番２７～２４７号,,14,205,2510046,,,,,,,2021-07-28,1,,,,,,0
2391,8030001143481,新規,0,2021-07-28,2021-07-28,株式会社リライフ,,株式会社,埼玉県,川越市,脇田本町１４番１２号,,11,201,3501123,,,,,,,2021-07-28,1,,,,,リライフ,0
2392,8030001143515,新規,0,2021-07-28,2021-07-28,株式会社フリークス,,株式会社,埼玉県,熊谷市,三ヶ尻３７５７番地,,11,202,3600843,,,,,,,2021-07-28,1,,,,,フリークス,0
2396,8030003017683,新規,0,2021-07-28,2021-07-28,合同会社ＳＴＩＣＫ　ＯＵＴ,,合同会社,埼玉県,朝霞市,岡３丁目１０番１７ハイブリッジ朝霞１０６,,11,227,3510007,,,,,,,2021-07-28,1,,,,,スティックアウト,0
2398,8040001119480,新規,0,2021-07-28,2021-07-28,株式会社国際人材センター,,株式会社,千葉県,千葉市中央区,要町２－１２千代田国際ビル,,12,101,2600017,,,,,,,2021-07-28,1,,,,,,0
2399,8040001119539,新規,0,2021-07-28,2021-07-28,Ｂｒｏｔｈｅｒｈｏｏｄ　Ｐａｒｔｎｅｒｓ株式会社,,株式会社,千葉県,松戸市,大谷口５８５,,12,207,2700005,,,,,,,2021-07-28,1,,,,,ブラザーフッドパートナーズ,0
2400,8040001119547,新規,0,2021-07-28,2021-07-28,株式会社ＭＯＮＯＲＩＳＥ,,株式会社,千葉県,四街道市,鹿放ケ丘５０８番地８,,12,228,2840008,,,,,,,2021-07-28,1,,,,,モノライズ,0
2407,8040003018227,新規,0,2021-07-28,2021-07-28,ＭＩＴＳＵＩ　ＬＡＮＫＡ合同会社,,合同会社,千葉県,東金市,下武射田２７０６番地３Ａ１,,12,213,2830012,,,,,,,2021-07-28,1,,,,,ミツイランカ,0
2408,8040003018235,新規,0,2021-07-28,2021-07-28,津志田合同会社,,合同会社,千葉県,柏市,中央２丁目１２番１号小宮第二ビル２階,,12,217,2770023,,,,,,,2021-07-28,1,,,,,ツシダ,0
2409,8040003018243,新規,0,2021-07-28,2021-07-28,リボン合同会社,,合同会社,千葉県,印西市,牧の木戸１丁目１３番地２,,12,231,2701357,,,,,,,2021-07-28,1,,,,,リボン,0
2410,8050001049586,新規,0,2021-07-28,2021-07-28,株式会社健友工業,,株式会社,茨城県,北茨城市,磯原町上相田８１１番地１２３,,08,215,3191544,,,,,,,2021-07-28,1,,,,,ケンユウコウギョウ,0
2420,8080001024347,新規,0,2021-07-28,2021-07-28,株式会社Ｃｕｒａｎａ,,株式会社,静岡県,静岡市駿河区,東静岡２丁目６番５号,,22,102,4228019,,,,,,,2021-07-28,1,,,,,クラナ,0
2421,8080003002615,新規,0,2021-07-28,2021-07-28,合同会社ＹＴＣ,,合同会社,静岡県,静岡市清水区,能島４２６番地の７,,22,103,4240063,,,,,,,2021-07-28,1,,,,,ワイティーシー,0
2424,8080401025218,新規,0,2021-07-28,2021-07-28,株式会社Ｕｐ　Ｒｅｌａｔｉｏｎ,,株式会社,静岡県,掛川市,金城２２番地の３（１階北側）,,22,213,4360073,,,,,,,2021-07-28,1,,,,,アップリレーション,0
2429,8090005007421,新規,0,2021-07-28,2021-07-28,一般社団法人ＮＯ－Ｂ・Ｇ・ＯＲＰ,,その他の設立登記法人,山梨県,山梨市,三ヶ所２６５番地１,,19,205,4050011,,,,,,,2021-07-28,1,,,,,ノービージーオーブ,0
2433,8100001034475,新規,0,2021-07-28,2021-07-28,株式会社ＣＬＯＵＤ３,,株式会社,長野県,松本市,中央２丁目１番１２号,,20,202,3900811,,,,,,,2021-07-28,1,,,,,クラウドスリー,0
2434,8100003006183,新規,0,2021-07-28,2021-07-28,合同会社グリーンＥＹＥ,,合同会社,長野県,飯田市,駄科８３９－７,,20,205,3992561,,,,,,,2021-07-28,1,,,,,グリーンアイ,0
2447,8120001239287,新規,0,2021-07-28,2021-07-28,株式会社Ｄ＆Ａ建築設計事務所,,株式会社,大阪府,大阪市東淀川区,小松２丁目６番３４号,,27,114,5330004,,,,,,,2021-07-28,1,,,,,ディーアンドエーケンチクセッケイジムショ,0
2448,8120001239295,新規,0,2021-07-28,2021-07-28,ＹｏｕｒＢｒｉｄｇｅ株式会社,,株式会社,大阪府,大阪市中央区,南本町２丁目３番１２号ＥＤＧＥ本町３Ｆ,,27,128,5410054,,,,,,,2021-07-28,1,,,,,ユアブリッジ,0
2449,8120001239320,新規,0,2021-07-28,2021-07-28,株式会社ＴＦＦ,,株式会社,大阪府,大阪市中央区,南久宝寺町３丁目３番１４号,,27,128,5410058,,,,,,,2021-07-28,1,,,,,ティエフエフ,0
2450,8120001239337,新規,0,2021-07-28,2021-07-28,ＯｔｏＦｉｔ株式会社,,株式会社,大阪府,大阪市中央区,谷町５丁目４番１－２００１号,,27,128,5400012,,,,,,,2021-07-28,1,,,,,オートゥフィット,0
2451,8120001239345,新規,0,2021-07-28,2021-07-28,大栄工業株式会社,,株式会社,大阪府,大阪市生野区,鶴橋１丁目６番２９号,,27,116,5440031,,,,,,,2021-07-28,1,,,,,ダイエイコウギョウ,0
2454,8120003019910,新規,0,2021-07-28,2021-07-28,合同会社Ａ＆Ｃ　Ｉｔｅｃｈ　Ｊａｐａｎ,,合同会社,大阪府,大阪市北区,大淀中４丁目１２番２２－３０１号,,27,127,5310076,,,,,,,2021-07-28,1,,,,,エーアンドシーアイテックジャパン,0
2455,8120005022417,新規,0,2021-07-28,2021-07-28,一般社団法人ｂｌｕｅｍｏｄｅ,,その他の設立登記法人,大阪府,大阪市東住吉区,駒川５丁目５番１８号,,27,121,5460043,,,,,,,2021-07-28,1,,,,,ブルーモード,0
2456,8120101064040,新規,0,2021-07-28,2021-07-28,株式会社勇大,,株式会社,大阪府,堺市中区,土塔町２２２５番地２,,27,142,5998234,,,,,,,2021-07-28,1,,,,,ユウダイ,0
2457,8120101064049,新規,0,2021-07-28,2021-07-28,株式会社泉ファシリティ,,株式会社,大阪府,堺市南区,逆瀬川８４４番地９０,,27,145,5900123,,,,,,,2021-07-28,1,,,,,ファシリティ,0
2462,8120903003765,新規,0,2021-07-28,2021-07-28,合同会社ＦＪパートナー,,合同会社,大阪府,豊中市,少路２丁目３番５５－５２２号,,27,203,5600004,,,,,,,2021-07-28,1,,,,,エフジェイパートナー,0
2467,8130005016236,新規,0,2021-07-28,2021-07-28,ＮＰＯ法人下鴨学区自治連合会,,その他の設立登記法人,京都府,京都市左京区,下鴨宮崎町４番地２,,26,103,6060802,,,,,,,2021-07-28,1,,,,,シモガモガックジチレンゴウカイ,0
2474,8140001122409,新規,0,2021-07-28,2021-07-28,ＳＳＦ株式会社,,株式会社,兵庫県,姫路市,安富町瀬川６１番地,,28,201,6712424,,,,,,,2021-07-28,1,,,,,エスエスエフ,0
2475,8140001122474,新規,0,2021-07-28,2021-07-28,株式会社未来,,株式会社,兵庫県,尼崎市,宮内町１丁目２－１,,28,202,6600877,,,,,,,2021-07-28,1,,,,,ミライ,0
2476,8140001122490,新規,0,2021-07-28,2021-07-28,株式会社オープンエア,,株式会社,兵庫県,神戸市兵庫区,雪御所町２番１８号,,28,105,6520031,,,,,,,2021-07-28,1,,,,,オープンエア,0
2481,8140005025756,新規,0,2021-07-28,2021-07-28,一般財団法人フクオカ里子基金,,その他の設立登記法人,兵庫県,三田市,南が丘１丁目１番４号,,28,219,6691535,,,,,,,2021-07-28,1,,,,,フクオカサトゴキキン,0
2484,8160001023497,新規,0,2021-07-28,2021-07-28,株式会社シナジーアイ,,株式会社,滋賀県,草津市,野路町６８３番地６－２０１,,25,206,5250055,,,,,,,2021-07-28,1,,,,,シナジーアイ,0
2492,8180001147105,新規,0,2021-07-28,2021-07-28,いろいろ株式会社,,株式会社,愛知県,名古屋市守山区,守山２丁目９番１６号,,23,113,4630067,,,,,,,2021-07-28,1,,,,,イロイロ,0
2493,8180001147113,新規,0,2021-07-28,2021-07-28,株式会社西建,,株式会社,愛知県,瀬戸市,水北町８１４番地,,23,204,4890009,,,,,,,2021-07-28,1,,,,,ニシケン,0
2501,8180301035199,新規,0,2021-07-28,2021-07-28,株式会社ｍａｓｈ　ｕｐ　ｌａｂ,,株式会社,愛知県,豊川市,駅前通４丁目３２番地の１,,23,207,4420045,,,,,,,2021-07-28,1,,,,,マッシュアップラボ,0
2502,8180301035208,新規,0,2021-07-28,2021-07-28,株式会社グランディール,,株式会社,愛知県,岡崎市,柱５丁目１０番地４,,23,202,4440837,,,,,,,2021-07-28,1,,,,,グランディール,0
2511,8200001038937,新規,0,2021-07-28,2021-07-28,来福株式会社,,株式会社,岐阜県,羽島市,江吉良町字柳原６０番地,,21,209,5016236,,,,,,,2021-07-28,1,,,,,ライフク,0
2515,8200005013226,新規,0,2021-07-28,2021-07-28,一般社団法人ヒトノネ,,その他の設立登記法人,岐阜県,岐阜市,光町２丁目１５番地４,,21,201,5020901,,,,,,,2021-07-28,1,,,,,ヒトノネ,0
2516,8220001024308,新規,0,2021-07-28,2021-07-28,株式会社Ｏｆｆｉｃｅ　Ａｍｕｌｅｔ,,株式会社,石川県,小松市,問屋町２８番地,,17,203,9230037,,,,,,,2021-07-28,1,,,,,オフィスアミュレット,0
2521,8240001058329,新規,0,2021-07-28,2021-07-28,株式会社ヒゲクジラ,,株式会社,広島県,広島市西区,観音本町２丁目１０－１９－１０２号,,34,104,7330033,,,,,,,2021-07-28,1,,,,,ヒゲクジラ,0
2528,8270001008322,新規,0,2021-07-28,2021-07-28,株式会社Ｅｌｅｖａｔｉｏｎ,,株式会社,鳥取県,西伯郡南部町,北方字長田２６９６番地,,31,389,6830361,,,,,,,2021-07-28,1,,,,,エレベーション,0
2530,8280005007427,新規,0,2021-07-28,2021-07-28,農事組合法人アグリファーム出雲,,その他の設立登記法人,島根県,仁多郡奥出雲町,中村１１９２番地７,,32,343,6991831,,,,,,,2021-07-28,1,,,,,アグリファームイズモ,0
2532,8290001093981,新規,0,2021-07-28,2021-07-28,株式会社Ｄａｒｕｍａホールディングス,,株式会社,福岡県,みやま市,瀬高町小川１７０１番地,,40,229,8350023,,,,,,,2021-07-28,1,,,,,ダルマホールディングス,0
2533,8290001094039,新規,0,2021-07-28,2021-07-28,株式会社ＣＴＯ研究所,,株式会社,福岡県,福岡市東区,千早４丁目１４番３６号,,40,131,8130044,,,,,,,2021-07-28,1,,,,,シーティーオーケンキュウショ,0
2536,8310001017392,新規,0,2021-07-28,2021-07-28,株式会社しもがま,,株式会社,長崎県,西彼杵郡時津町,西時津郷１０４－４,,42,308,8512101,,,,,,,2021-07-28,1,,,,,シモガマ,0
2545,8330001028834,新規,0,2021-07-28,2021-07-28,株式会社ツインパワー,,株式会社,熊本県,合志市,栄２８２５番地２,,43,216,8611113,,,,,,,2021-07-28,1,,,,,,0
2546,8330001028850,新規,0,2021-07-28,2021-07-28,株式会社勝鳶,,株式会社,熊本県,菊池市,野間口３１１番地６,,43,210,8611324,,,,,,,2021-07-28,1,,,,,カットビ,0
2551,8350001017216,新規,0,2021-07-28,2021-07-28,ＭＺ　Ｃｒｅａｔｅ　Ｌａｂ．株式会社,,株式会社,宮崎県,宮崎市,橘通東４丁目１番４号河北ビル１Ｆ,,45,201,8800805,,,,,,,2021-07-28,1,,,,,エムズィークリエイトラボ,0
2556,8370001047384,新規,0,2021-07-28,2021-07-28,株式会社長面浦,,株式会社,宮城県,石巻市,北上町橋浦字大須１８３番地２,,04,202,9860202,,,,,,,2021-07-28,1,,,,,ナガヅラウラ,0
2561,8380001032063,新規,0,2021-07-28,2021-07-28,株式会社ハピネス,,株式会社,福島県,本宮市,岩根字みずきが丘１番地２６４,,07,214,9691106,,,,,,,2021-07-28,1,,,,,ハピネス,0
2567,8400001015528,新規,0,2021-07-28,2021-07-28,株式会社リーブル,,株式会社,岩手県,北上市,北鬼柳１８地割１４６番地,,03,206,0240072,,,,,,,2021-07-28,1,,,,,リーブル,0
2568,8400001015536,新規,0,2021-07-28,2021-07-28,株式会社オートモーティブジュン,,株式会社,岩手県,北上市,鳩岡崎２地割３９－２,,03,206,0240076,,,,,,,2021-07-28,1,,,,,オートモーティブジュン,0
2577,8430001084669,新規,0,2021-07-28,2021-07-28,アイシンホールディングス株式会社,,株式会社,北海道,岩見沢市,栗沢町由良２０５番地７,,01,210,0680111,,,,,,,2021-07-28,1,,,,,アイシンホールディングス,0
2592,8700150104191,新規,0,2021-07-28,2021-07-28,西日本プラスチック工業企業年金基金,,その他,大阪府,大阪市中央区,南船場２丁目５番２３号,,27,128,5420081,,,,,,,2021-07-28,1,,,,,ニシニホンプラスチツクコウギヨウキギヨウネンキンキキン,0
2593,8700150104200,新規,0,2021-07-28,2021-07-28,視覚障がい者デジタル技術活用研究センター,,その他,東京都,昭島市,拝島町３丁目１１番７─６０４号,,13,207,1960002,,,,,,,2021-07-28,1,,,,,シカクショウガイシャデジタルギジュツカツヨウケンキュウセンター,0
2602,9010001218937,新規,0,2021-07-28,2021-07-28,株式会社ヴァスダックインターバンクシステム,,株式会社,東京都,中央区,銀座８丁目１４番９号,,13,102,1040061,,,,,,,2021-07-28,1,,,,,ヴァスダックインターバンクシステム,0
2605,9010101014781,新規,0,2021-07-28,2021-07-28,株式会社まごころホールディングス,,株式会社,東京都,八王子市,長房町１２６番地の２,,13,201,1930824,,,,,,,2021-07-28,1,,,,,マゴコロホールディングス,0
2614,9010401161613,新規,0,2021-07-28,2021-07-28,株式会社Ｆ,,株式会社,東京都,港区,六本木５丁目１８番２１号,,13,103,1060032,,,,,,,2021-07-28,1,,,,,エフ,0
2615,9010401161679,新規,0,2021-07-28,2021-07-28,株式会社Ｆｒｅｅ,,株式会社,東京都,港区,虎ノ門４丁目２番４号,,13,103,1050001,,,,,,,2021-07-28,1,,,,,フリー,0
2616,9010401161695,新規,0,2021-07-28,2021-07-28,ＩＮＦＬＵＸ　ＯＮＳＨＯＲＥ　ＷＩＮＤ　ＰＯＷＥＲ　Ｅ＆Ｃ株式会社,,株式会社,東京都,港区,新橋６丁目１７番２１号住友不動産御成門駅前ビル１０階,,13,103,1050004,,,,,,,2021-07-28,1,,,,,インフラックスオンショアウィンドパワーイーアンドシー,0
2617,9010401161720,新規,0,2021-07-28,2021-07-28,ＵＨＯ－１株式会社,,株式会社,東京都,港区,芝３丁目４２番１０号１Ｆ,,13,103,1050014,,,,,,,2021-07-28,1,,,,,ウホーイチ,0
2618,9010401161729,新規,0,2021-07-28,2021-07-28,株式会社インタープラネタリー,,株式会社,東京都,港区,新橋１丁目１８番２１号,,13,103,1050004,,,,,,,2021-07-28,1,,,,,インタープラネタリー,0
2619,9010401161745,新規,0,2021-07-28,2021-07-28,ｔｈｅ　Ａｎ’ｎｙｕｉプロモーション株式会社,,株式会社,東京都,港区,赤坂２丁目５－８ヒューリックＪＰ赤坂ビル５Ｆ,,13,103,1070052,,,,,,,2021-07-28,1,,,,,ジアンニュイプロモーション,0
2622,9010403025774,新規,0,2021-07-28,2021-07-28,合同会社ＣＯＬ,,合同会社,東京都,港区,芝３丁目２番１１号マンション芝公園６０８,,13,103,1050014,,,,,,,2021-07-28,1,,,,,シーオーエル,0
2623,9010403025782,新規,0,2021-07-28,2021-07-28,ＧｅｔＩＴ　Ｊａｐａｎ合同会社,,合同会社,東京都,港区,元麻布３丁目１番６号,,13,103,1060046,,,,,,,2021-07-28,1,,,,,ゲットイットジャパン,0
2624,9010403025790,新規,0,2021-07-28,2021-07-28,シエルエトワール合同会社,,合同会社,東京都,港区,六本木６丁目２番３１号六本木ヒルズノースタワー１７階,,13,103,1060032,,,,,,,2021-07-28,1,,,,,シエルエトワール,0
2630,9010405020047,新規,0,2021-07-28,2021-07-28,一般社団法人ＹＵＩＩＧＩＥ,,その他の設立登記法人,東京都,港区,元麻布３丁目１２番１号３階,,13,103,1060046,,,,,,,2021-07-28,1,,,,,ユイーギ,0
2631,9010501047605,新規,0,2021-07-28,2021-07-28,株式会社ＢＥＳＴグループ,,株式会社,東京都,台東区,竜泉２丁目１６番３号,,13,106,1100012,,,,,,,2021-07-28,1,,,,,ベストグループ,0
2656,9011001141922,新規,0,2021-07-28,2021-07-28,株式会社ナウト,,株式会社,東京都,渋谷区,桜丘町２３番１７号シティーコート桜丘４０８,,13,113,1500031,,,,,,,2021-07-28,1,,,,,ナウト,0
2657,9011001141947,新規,0,2021-07-28,2021-07-28,株式会社ホールインワン,,株式会社,東京都,渋谷区,道玄坂１丁目１２番１号,,13,113,1500043,,,,,,,2021-07-28,1,,,,,ホールインワン,0
2658,9011001141971,新規,0,2021-07-28,2021-07-28,株式会社８ＴＡＧ,,株式会社,東京都,目黒区,碑文谷５丁目２番５号,,13,110,1520003,,,,,,,2021-07-28,1,,,,,エイトタグ,0
2659,9011001141996,新規,0,2021-07-28,2021-07-28,株式会社ＥｔｓｕＣｏｍ,,株式会社,東京都,目黒区,下目黒１丁目５番４－８０６号,,13,110,1530064,,,,,,,2021-07-28,1,,,,,エツコム,0
2673,9011501027175,新規,0,2021-07-28,2021-07-28,ＵＵＰＡＹ株式会社,,株式会社,東京都,荒川区,南千住７丁目２３－２－１１０３,,13,118,1160003,,,,,,,2021-07-28,1,,,,,ユーユーペイ,0
2682,9012403004956,新規,0,2021-07-28,2021-07-28,合同会社ストーンリバー,,合同会社,東京都,三鷹市,大沢５丁目９番６号竹内荘１０１,,13,204,1810015,,,,,,,2021-07-28,1,,,,,ストーンリバー,0
2696,9020001142277,新規,0,2021-07-28,2021-07-28,シナプティックメディカルジャパン株式会社,,株式会社,神奈川県,横浜市青葉区,あざみ野４丁目２８番７０,,14,117,2250011,,,,,,,2021-07-28,1,,,,,シナプティックメディカルジャパン,0
2697,9020001142343,新規,0,2021-07-28,2021-07-28,株式会社ＲＦ－ＡＤＶＥＮＴＵＲＥ,,株式会社,神奈川県,横浜市中区,常磐町一丁目５番地ＦＯＲＭ関内ビル６０２,,14,104,2310000,,,,,,,2021-07-28,1,,,,,アールエフアドベンチャー,0
2705,9021001073520,新規,0,2021-07-28,2021-07-28,株式会社一圓相,,株式会社,神奈川県,小田原市,栄町４丁目２番７号アヴェニール栄町２０１,,14,206,2500011,,,,,,,2021-07-28,1,,,,,イチエンソウ,0
2710,9021003010736,新規,0,2021-07-28,2021-07-28,インディゴソリューションズ合同会社,,合同会社,神奈川県,相模原市南区,新戸２０４８－１号,,14,153,2520326,,,,,,,2021-07-28,1,,,,,インディゴソリューションズ,0
2714,9030001143423,新規,0,2021-07-28,2021-07-28,高橋レジデンス株式会社,,株式会社,埼玉県,蓮田市,関山２丁目６番３３号,,11,238,3490121,,,,,,,2021-07-28,1,,,,,タカハシ,0
2715,9030001143497,新規,0,2021-07-28,2021-07-28,眞翔興業株式会社,,株式会社,埼玉県,吉川市,栄町７１２番地１栄町ビル１０１,,11,243,3420050,,,,,,,2021-07-28,1,,,,,マナトコウギョウ,0
2716,9030001143506,新規,0,2021-07-28,2021-07-28,株式会社プログレス,,株式会社,埼玉県,越谷市,南町１丁目２番１０－２０４号,,11,222,3430832,,,,,,,2021-07-28,1,,,,,プログレス,0
2717,9030001143514,新規,0,2021-07-28,2021-07-28,株式会社イキュ,,株式会社,埼玉県,川越市,南通町１番地４,,11,201,3500045,,,,,,,2021-07-28,1,,,,,イキュ,0
2718,9030001143530,新規,0,2021-07-28,2021-07-28,株式会社安和硝子工業,,株式会社,埼玉県,三郷市,早稲田８丁目８番地１,,11,237,3410018,,,,,,,2021-07-28,1,,,,,アワガラスコウギョウ,0
2719,9030001143539,新規,0,2021-07-28,2021-07-28,諸葛商事株式会社,,株式会社,埼玉県,川口市,西川口１丁目３０番２０Ｔ・Ｂ・Ｓ企画ビル４階,,11,203,3320021,,,,,,,2021-07-28,1,,,,,,0
2720,9030001143547,新規,0,2021-07-28,2021-07-28,株式会社朋澤,,株式会社,埼玉県,川口市,飯塚１丁目２番１６号,,11,203,3320023,,,,,,,2021-07-28,1,,,,,トモザワ,0
2722,9030003017690,新規,0,2021-07-28,2021-07-28,合同会社アリオーゾ,,合同会社,埼玉県,さいたま市大宮区,土手町１丁目６６番１号ライオンズプラザ大宮第２－５０８,,11,103,3300801,,,,,,,2021-07-28,1,,,,,アリオーゾ,0
2726,9040001119546,新規,0,2021-07-28,2021-07-28,株式会社館山家守舎,,株式会社,千葉県,館山市,北条１８８０－１房州第一ビル５Ｆ,,12,205,2940045,,,,,,,2021-07-28,1,,,,,タテヤマヤモリシャ,0
2728,9040003018218,新規,0,2021-07-28,2021-07-28,ＥＭＰＡＺＹ合同会社,,合同会社,千葉県,柏市,西原２丁目６番１３号,,12,217,2770885,,,,,,,2021-07-28,1,,,,,エンパジー,0
2729,9040003018226,新規,0,2021-07-28,2021-07-28,合同会社東都開発,,合同会社,千葉県,夷隅郡大多喜町,新丁５２番地１,,12,441,2980214,,,,,,,2021-07-28,1,,,,,トオトカイハツ,0
2730,9040003018234,新規,0,2021-07-28,2021-07-28,合同会社ＮＫＮＫ,,合同会社,千葉県,千葉市稲毛区,園生町１３９９番地５６,,12,103,2630051,,,,,,,2021-07-28,1,,,,,エヌケイエヌケイ,0
2734,9050001049593,新規,0,2021-07-28,2021-07-28,株式会社Ｔ＆Ｋ,,株式会社,茨城県,常総市,新石下３５３６番地,,08,211,3002706,,,,,,,2021-07-28,1,,,,,ティーアンドケー,0
2745,9080101022670,新規,0,2021-07-28,2021-07-28,株式会社ＤＩＧ,,株式会社,静岡県,三島市,加茂７７番３号,,22,206,4110023,,,,,,,2021-07-28,1,,,,,ディッグ,0
2748,9090001017118,新規,0,2021-07-28,2021-07-28,南部町アドベンチャーフィールド株式会社,,株式会社,山梨県,南巨摩郡南部町,万沢字奥西沢１１２８７番,,19,366,4092103,,,,,,,2021-07-28,1,,,,,ナンブチョウアドベンチャーフィールド,0
2754,9100003006182,新規,0,2021-07-28,2021-07-28,合同会社トライワングループ,,合同会社,長野県,長野市,安茂里小市３丁目１３－１県営住宅小市南団地ｂ２号棟１０１号室,,20,201,3800961,,,,,,,2021-07-28,1,,,,,トライワングループ,0
2770,9120001239294,新規,0,2021-07-28,2021-07-28,株式会社上西重量,,株式会社,大阪府,大阪市淀川区,田川北１丁目８番５号,,27,123,5320021,,,,,,,2021-07-28,1,,,,,ウエニシジュウリョウ,0
2771,9120001239344,新規,0,2021-07-28,2021-07-28,羽富株式会社,,株式会社,大阪府,大阪市北区,天満２丁目１－１２天満橋ＳＥビル４階,,27,127,5300043,,,,,,,2021-07-28,1,,,,,ハトミ,0
2772,9120001239369,新規,0,2021-07-28,2021-07-28,株式会社Ｏｎｅ　Ｏｎｅ,,株式会社,大阪府,大阪市中央区,島町１丁目２番２号３０３号室,,27,128,5400034,,,,,,,2021-07-28,1,,,,,ワンワン,0
2773,9120001239393,新規,0,2021-07-28,2021-07-28,株式会社デニベル・プリュ,,株式会社,大阪府,大阪市阿倍野区,阿倍野筋１丁目１番４３号あべのハルカス３１階,,27,119,5450052,,,,,,,2021-07-28,1,,,,,デニベルプリュ,0
2774,9120005022408,新規,0,2021-07-28,2021-07-28,ＮＰＯ法人みんなの秘密基地,,その他の設立登記法人,大阪府,大阪市西淀川区,中島１丁目１９番５号,,27,113,5550041,,,,,,,2021-07-28,1,,,,,ミンナノヒミツキチ,0
2775,9120005022416,新規,0,2021-07-28,2021-07-28,一般社団法人０ｔｈ　Ｐｌａｃｅ,,その他の設立登記法人,大阪府,守口市,橋波東之町２丁目１１番９号,,27,209,5700031,,,,,,,2021-07-28,1,,,,,ゼロスプレイス,0
2777,9120101064031,新規,0,2021-07-28,2021-07-28,株式会社Ｍ．Ａｌｉｖｉｏ,,株式会社,大阪府,大阪狭山市,茱萸木７丁目１１８０番地パルネット２Ｆ,,27,231,5890013,,,,,,,2021-07-28,1,,,,,エムドットアルビオ,0
2779,9120903003764,新規,0,2021-07-28,2021-07-28,合同会社ウェルブロッサム,,合同会社,大阪府,箕面市,半町２丁目１４番４号,,27,220,5620044,,,,,,,2021-07-28,1,,,,,ウェルブロッサム,0
2783,9122003002143,新規,0,2021-07-28,2021-07-28,ウイングス合同会社,,合同会社,大阪府,東大阪市,日下町６丁目５番３６号Ａ１号室,,27,227,5798003,,,,,,,2021-07-28,1,,,,,ウイングス,0
2785,9130001069757,新規,0,2021-07-28,2021-07-28,ウォームアップホーム株式会社,,株式会社,京都府,京都市山科区,勧修寺東出町７０ＩＮＳＩＨＴＲＥＰＯＳ１０１号室,,26,110,6078216,,,,,,,2021-07-28,1,,,,,ウォームアップホーム,0
2786,9130003007392,新規,0,2021-07-28,2021-07-28,ウェルック・クリエイト合同会社,,合同会社,京都府,城陽市,寺田宮ノ谷４１番８号,,26,207,6100121,,,,,,,2021-07-28,1,,,,,ウェルッククリエイト,0
2788,9130005016235,新規,0,2021-07-28,2021-07-28,特定非営利活動法人京自助具館,,その他の設立登記法人,京都府,京都市下京区,西木屋町通上ノ口上る梅湊町８３番地の１「ひと・まち交流館京都」２階京都市市民活動総合センター内,,26,106,6008127,,,,,,,2021-07-28,1,,,,,キョウジジョグカン,0
2795,9140003016558,新規,0,2021-07-28,2021-07-28,ＴＫＡＵＦＨＥＢＥＮ合同会社,,合同会社,兵庫県,尼崎市,南塚口町２丁目２３番２１－２号,,28,202,6610012,,,,,,,2021-07-28,1,,,,,ティケイアウフヘイベン,0
2800,9160001023505,新規,0,2021-07-28,2021-07-28,株式会社三善,,株式会社,滋賀県,大津市,弥生町１０番２９－１０７号,,25,201,5200115,,,,,,,2021-07-28,1,,,,,ミヨシ,0
2801,9160001023513,新規,0,2021-07-28,2021-07-28,株式会社ＳＵＮＷＯＲＫＳ,,株式会社,滋賀県,東近江市,五個荘七里町９８番地２,,25,213,5291402,,,,,,,2021-07-28,1,,,,,サンワークス,0
2802,9160003002341,新規,0,2021-07-28,2021-07-28,ＨＹＵＰ合同会社,,合同会社,滋賀県,草津市,矢橋町１１５番地２－２階,,25,206,5250066,,,,,,,2021-07-28,1,,,,,ハイアップ,0
2803,9160005010961,新規,0,2021-07-28,2021-07-28,特定非営利活動法人高島野鳥の会,,その他の設立登記法人,滋賀県,高島市,新旭町饗庭１６００－１,,25,212,5201531,,,,,,,2021-07-28,1,,,,,タカシマヤチョウノカイ,0
2813,9180001147070,新規,0,2021-07-28,2021-07-28,株式会社ＡＭＣ,,株式会社,愛知県,常滑市,小鈴谷字亀井戸４番地の３,,23,216,4790807,,,,,,,2021-07-28,1,,,,,エーエムシー,0
2814,9180001147112,新規,0,2021-07-28,2021-07-28,アルファ・カンパニー株式会社,,株式会社,愛知県,名古屋市港区,正保町７丁目１６番地の２,,23,111,4550074,,,,,,,2021-07-28,1,,,,,アルファカンパニー,0
2847,9220001024315,新規,0,2021-07-28,2021-07-28,株式会社Ａｌｗａｙｓ　Ｇｒｏｗ,,株式会社,石川県,金沢市,若松町７６番地,,17,201,9201165,,,,,,,2021-07-28,1,,,,,オールウェイズグロウ,0
2852,9240001058328,新規,0,2021-07-28,2021-07-28,郷谷塗工株式会社,,株式会社,広島県,広島市東区,福田３丁目８番２０号,,34,102,7320029,,,,,,,2021-07-28,1,,,,,ゴウタニトコウ,0
2869,9290803003889,新規,0,2021-07-28,2021-07-28,合同会社アシタノミチ,,合同会社,福岡県,北九州市八幡西区,黒崎４丁目１番３号,,40,109,8060021,,,,,,,2021-07-28,1,,,,,アシタノミチ,0
2871,9320001018505,新規,0,2021-07-28,2021-07-28,株式会社アグリ豊後,,株式会社,大分県,大分市,大字志村４４９番地の１,,44,201,8700261,,,,,,,2021-07-28,1,,,,,アグリブンゴ,0
2879,9340003003503,新規,0,2021-07-28,2021-07-28,三洋工業合同会社,,合同会社,鹿児島県,霧島市,牧園町高千穂３９１９番地３８４,,46,218,8996603,,,,,,,2021-07-28,1,,,,,サンヨウコウギョウ,0
2881,9350001017215,新規,0,2021-07-28,2021-07-28,バンビリンテン株式会社,,株式会社,宮崎県,都城市,山田町山田２０１５番地,,45,202,8894601,,,,,,,2021-07-28,1,,,,,バンビリンテン,0
2892,9370003005323,新規,0,2021-07-28,2021-07-28,イシノマキＤＸ合同会社,,合同会社,宮城県,石巻市,鹿又字役場前１９,,04,202,9861111,,,,,,,2021-07-28,1,,,,,イシノマキディーエックス,0
2893,9380001032062,新規,0,2021-07-28,2021-07-28,株式会社オーキューブ,,株式会社,福島県,郡山市,方八町１丁目１番３９号,,07,203,9638811,,,,,,,2021-07-28,1,,,,,オーキューブ,0
2902,9430001084602,新規,0,2021-07-28,2021-07-28,株式会社小澤建設,,株式会社,北海道,札幌市東区,中沼町６９番５,,01,103,0070890,,,,,,,2021-07-28,1,,,,,オザワケンセツ,0
2903,9430001084619,新規,0,2021-07-28,2021-07-28,株式会社ルピナス,,株式会社,北海道,虻田郡倶知安町,北七条西２丁目２番地２８,,01,400,0440057,,,,,,,2021-07-28,1,,,,,ルピナス,0
2904,9430001084627,新規,0,2021-07-28,2021-07-28,アットセイルズ株式会社,,株式会社,北海道,札幌市西区,山の手六条３丁目４番２０－１０４号,,01,107,0630006,,,,,,,2021-07-28,1,,,,,アットセイルズ,0
2908,9430003012973,新規,0,2021-07-28,2021-07-28,合同会社楠木工業,,合同会社,北海道,札幌市西区,琴似四条２丁目４番７－３０２号,,01,107,0630814,,,,,,,2021-07-28,1,,,,,クスノキコウギョウ,0
2912,9450005004307,新規,0,2021-07-28,2021-07-28,一般社団法人北海道自然共生協会,,その他の設立登記法人,北海道,旭川市,三条通２丁目６８３番地十字屋ビル７０１号,,01,204,0700033,,,,,,,2021-07-28,1,,,,,ホッカイドウシゼンキョウセイキョウカイ,0
2914,9470001018630,新規,0,2021-07-28,2021-07-28,株式会社山条,,株式会社,香川県,坂出市,西庄町１６５２番地,,37,203,7620021,,,,,,,2021-07-28,1,,,,,サンジョウ,0
2921,9480001011444,新規,0,2021-07-28,2021-07-28,株式会社たかた,,株式会社,徳島県,阿波市,市場町犬墓字竹倉３６番地６,,36,206,7711614,,,,,,,2021-07-28,1,,,,,タカタ,0
2925,9700150104190,新規,0,2021-07-28,2021-07-28,ＩＭＡＲＡ　ＡＵＴＯ　ＺＯＮＥ,,外国会社等,千葉県,八街市,朝日２７３番地１オフィスＢ号,,12,230,2891101,スリランカ民主社会主義共和国、マワネラ、ヘンマタガマロード、１６４,,,,,,2021-07-28,1,,,,,イマラオートゾーン,0
2926,9700150104199,新規,0,2021-07-28,2021-07-28,成田国際空港企業年金基金,,その他,千葉県,成田市,古込字古込１番地１,,12,211,2860104,,,,,,,2021-07-28,1,,,,,ナリタコクサイクウコウキギヨウネンキンキキン,0
