sequenceNumber,corporateNumber,process,correct,updateDate,changeDate,name,nameImageId,kind,prefectureName,cityName,streetNumber,addressImageId,prefectureCode,cityCode,postCode,addressOutside,addressOutsideImageId,closeDate,closeCause,successorCorporateNumber,changeCause,assignmentDate,latest,enName,enPrefectureName,enCityName,enAddressOutside,furigana,hihyoji
15,1010401091347,登記記録の閉鎖等,0,2023-07-25,2023-07-24,Ｇａｌａｘｉａ　Ｊａｐａｎ株式会社,,株式会社,東京都,台東区,台東３丁目１６番５号ミハマビル５階,,13,106,1100016,,,2023-07-24,清算の結了等,,,2015-10-05,1,,,,,ギャラクシアジャパン,0
27,1010703004171,登記記録の閉鎖等,0,2023-07-25,2023-07-13,都農フォレストエナジー合同会社,,合同会社,宮崎県,児湯郡都農町,大字川北１５１６４番地１,,45,406,8891201,,,2023-07-13,清算の結了等,,,2018-03-26,1,,,,,ツノフォレストエナジー,0
40,1011005003556,登記記録の閉鎖等,0,2023-07-25,2023-07-24,一般社団法人特定商取引協会,,その他の設立登記法人,東京都,渋谷区,広尾５丁目８番１４号,,13,113,1500012,,,2023-07-24,清算の結了等,,,2015-10-05,1,,,,,,0
41,1011101004029,登記記録の閉鎖等,0,2023-07-25,2023-07-21,岡部寝具株式会社,,株式会社,東京都,新宿区,大久保２丁目２番１５号,,13,104,1690072,,,2023-07-21,清算の結了等,,,2015-10-05,1,,,,,オカベシング,0
46,1011101093988,登記記録の閉鎖等,0,2023-07-25,2023-07-21,株式会社Ｅ－Ｆｅｌｌｏｗｓ,,株式会社,東京都,新宿区,高田馬場４丁目４０番１１号ユニゾ高田馬場看山ビル１０Ｆ,,13,104,1690075,,,2023-07-21,清算の結了等,,,2021-02-08,1,,,,,イーフェローズ,0
50,1011303002961,登記記録の閉鎖等,0,2023-07-25,2023-07-18,合同会社Ｈｅａｌｉｎｇ　Ｓｈａｒｅ,,合同会社,東京都,杉並区,高円寺南２丁目４５番６号,,13,115,1660003,,,2023-07-18,清算の結了等,,,2018-03-27,1,,,,,ヒーリングシェア,0
54,1011501020690,登記記録の閉鎖等,0,2023-07-25,2023-07-18,林商事株式会社,,株式会社,東京都,北区,赤羽２丁目６３番１０－４０１号赤羽ＴＫビル,,13,117,1150045,,,2023-07-18,清算の結了等,,,2015-10-05,1,,,,,ハヤシショウジ,0
74,1013201010204,登記記録の閉鎖等,0,2023-07-25,2023-07-11,株式会社アルファクレイン,,株式会社,東京都,目黒区,洗足１丁目２６番１２号,,13,110,1520012,,,2023-07-11,清算の結了等,,,2015-10-05,1,,,,,アルファクレイン,0
82,1020001068496,登記記録の閉鎖等,0,2023-07-25,2023-07-10,株式会社北部川崎バナナ,,株式会社,神奈川県,川崎市宮前区,水沢１丁目１番１号,,14,136,2160012,,,2023-07-10,合併による解散等,6020001069853,令和５年７月７日川崎市中原区小杉陣屋町二丁目１８番２号株式会社南洋フルーツ（6020001069853）に合併し解散,2015-10-05,1,,,,,ホクブカワサキバナナ,0
128,1070002035012,登記記録の閉鎖等,0,2023-07-25,2023-07-20,有限会社中沢鉄工所,,有限会社,群馬県,沼田市,桜町２０７６番地５,,10,206,3780052,,,2023-07-20,清算の結了等,,,2015-10-05,1,,,,,ナカザワテッコウジョ,0
140,1120001245548,登記記録の閉鎖等,0,2023-07-25,2023-07-21,株式会社ＧｏｏｄＰｌａｎＣｏｎｓｕｌｔｉｎｇ,,株式会社,大阪府,大阪市北区,西天満４丁目１２番３－１００２号,,27,127,5300047,,,2023-07-21,清算の結了等,,,2022-04-28,1,,,,,グッドプランコンサルティング,0
144,1120002010728,登記記録の閉鎖等,0,2023-07-25,2023-07-21,有限会社エス・ピー・ジー,,有限会社,大阪府,大阪市平野区,長吉川辺２丁目３番２２号,,27,126,5470014,,,2023-07-21,清算の結了等,,,2015-10-05,1,,,,,エスピージー,0
164,1140005011102,登記記録の閉鎖等,0,2023-07-25,2023-07-03,天理教飾扇分教会,,その他の設立登記法人,兵庫県,尼崎市,西難波町３丁目２７番１１号,,28,202,6600893,,,2023-07-03,合併による解散等,6120005000201,令和５年６月２９日大阪市西区靱本町一丁目１８番１２号天理教飾大分教会（6120005000201）に合併し解散,2015-10-05,1,,,,,,0
171,1180001024558,登記記録の閉鎖等,0,2023-07-25,2023-07-20,愛知手袋株式会社,,株式会社,愛知県,名古屋市西区,天神山町６番１１号,,23,104,4510065,,,2023-07-20,清算の結了等,,,2015-10-05,1,,,,,アイチテブクロ,0
172,1180001029565,登記記録の閉鎖等,0,2023-07-25,2023-07-19,株式会社英興社,,株式会社,愛知県,名古屋市中村区,太閤通４丁目１７番地,,23,105,4530811,,,2023-07-19,清算の結了等,,,2015-10-05,1,,,,,エイコウシャ,0
180,1180002082605,登記記録の閉鎖等,0,2023-07-25,2023-07-19,有限会社フジミ,,有限会社,愛知県,江南市,山尻町大桑５３番地,,23,217,4838032,,,2023-07-19,清算の結了等,,,2015-10-05,1,,,,,フジミ,0
194,1210001004663,登記記録の閉鎖等,0,2023-07-25,2023-07-19,株式会社エス・アイ・エス,,株式会社,福井県,福井市,御幸３丁目１４番地１５号,,18,201,9100854,,,2023-07-19,清算の結了等,,,2015-10-05,1,,,,,エスアイエス,0
197,1220002009108,登記記録の閉鎖等,0,2023-07-25,2023-07-18,小西不動産有限会社,,有限会社,石川県,白山市,黒瀬町５０番地,,17,210,9240064,,,2023-07-18,清算の結了等,,,2015-10-05,1,,,,,コニシフドウサン,0
215,1290001095530,登記記録の閉鎖等,0,2023-07-25,2023-07-07,株式会社リノベストホーム,,株式会社,福岡県,福岡市南区,平和１丁目２６－４９,,40,134,8150071,,,2023-07-07,清算の結了等,,,2021-11-25,1,,,,,リノベストホーム,0
231,1340003001101,登記記録の閉鎖等,0,2023-07-25,2023-07-18,パパヤ合同会社,,合同会社,鹿児島県,鹿児島市,谷山中央６丁目９番２１号,,46,201,8910141,,,2023-07-18,清算の結了等,,,2015-10-05,1,,,,,パパヤ,0
239,1380002004118,登記記録の閉鎖等,0,2023-07-25,2023-07-14,有限会社神田造園,,有限会社,福島県,福島市,在庭坂字堤３６番地の３,,07,201,9602262,,,2023-07-14,清算の結了等,,,2015-10-05,1,,,,,カンダゾウエン,0
249,1420002008543,登記記録の閉鎖等,0,2023-07-25,2023-07-10,有限会社福寿,,有限会社,青森県,八戸市,大字市川町字市川後１番地４,,02,203,0392241,,,2023-07-10,清算の結了等,,,2015-10-05,1,,,,,フクジュ,0
257,1450002011528,登記記録の閉鎖等,0,2023-07-25,2023-07-19,有限会社ハタヤマ商事,,有限会社,北海道,稚内市,栄２丁目３番８号,,01,214,0970017,,,2023-07-19,清算の結了等,,,2015-10-05,1,,,,,ハタヤマショウジ,0
261,1490002012687,登記記録の閉鎖等,0,2023-07-25,2023-07-13,高知農材有限会社,,有限会社,高知県,安芸市,僧津１０４８番地,,39,203,7840041,,,2023-07-13,清算の結了等,,,2015-10-05,1,,,,,コウチノウザイ,0
270,2010002021347,登記記録の閉鎖等,0,2023-07-25,2023-07-10,有限会社住川建築所,,有限会社,東京都,中央区,八丁堀２丁目１８番６号,,13,102,1040032,,,2023-07-10,清算の結了等,,,2015-10-05,1,,,,,スミカワケンチクジョ,0
273,2010002044769,登記記録の閉鎖等,0,2023-07-25,2023-07-13,西川緑道有限会社,,有限会社,広島県,広島市中区,大手町５丁目１７番１３号株式会社合同総研内,,34,101,7300051,,,2023-07-13,清算の結了等,,,2015-10-05,1,,,,,ニシガワリョクドウ,0
300,2010501021806,登記記録の閉鎖等,0,2023-07-25,2023-07-18,株式会社エルバランス,,株式会社,東京都,江東区,亀戸７丁目３９番２号,,13,108,1360071,,,2023-07-18,清算の結了等,,,2015-10-05,1,,,,,エルバランス,0
307,2010701036950,登記記録の閉鎖等,0,2023-07-25,2023-07-13,株式会社ｍ－Ｇａｔｈｅｒ,,株式会社,東京都,品川区,上大崎２丁目８番１８号,,13,109,1410021,,,2023-07-13,清算の結了等,,,2019-01-10,1,,,,,エムギャザー,0
332,2011801031057,登記記録の閉鎖等,0,2023-07-25,2023-07-20,株式会社ハットリ,,株式会社,東京都,足立区,柳原１丁目３５番２－４０３号,,13,121,1200022,,,2023-07-20,清算の結了等,,,2015-11-19,1,,,,,ハットリ,0
335,2012701010274,登記記録の閉鎖等,0,2023-07-25,2023-07-03,Ｘｉｃａｔｏ　Ｊａｐａｎ株式会社,,株式会社,東京都,港区,六本木７丁目３番８号,,13,103,1060032,,,2023-07-03,清算の結了等,,,2015-10-05,1,,,,,ズィカトジャパン,0
337,2013101003793,登記記録の閉鎖等,0,2023-07-25,2023-07-21,大広建設株式会社,,株式会社,東京都,青梅市,友田町３丁目５３番地１６,,13,205,1980051,,,2023-07-21,清算の結了等,,,2015-10-05,1,,,,,ダイコウケンセツ,0
352,2030002011239,登記記録の閉鎖等,0,2023-07-25,2023-07-03,有限会社ビーエスワイ,,有限会社,埼玉県,さいたま市北区,土呂町２丁目９番地の４,,11,102,3310804,,,2023-07-03,清算の結了等,,,2015-10-05,1,,,,,ビーエスワイ,0
362,2050002006419,登記記録の閉鎖等,0,2023-07-25,2023-07-14,有限会社スリーウィル,,有限会社,茨城県,水戸市,谷津町細田１番８,,08,201,3114164,,,2023-07-14,清算の結了等,,,2015-10-05,1,,,,,スリーウィル,0
365,2060001031598,登記記録の閉鎖等,0,2023-07-25,2023-07-06,株式会社ビンウェイ,,株式会社,栃木県,宇都宮市,平松町５３３番地９,,09,201,3210931,,,2023-07-06,清算の結了等,,,2019-05-23,1,,,,,ビンウェイ,0
366,2060002014247,登記記録の閉鎖等,0,2023-07-25,2023-07-07,有限会社益子鉄筋工業,,有限会社,栃木県,那須郡那珂川町,小砂２４７番地,,09,411,3240611,,,2023-07-07,清算の結了等,,,2015-10-05,1,,,,,マシコテッキンコウギョウ,0
369,2070001005428,登記記録の閉鎖等,0,2023-07-25,2023-07-19,株式会社幸風舘,,株式会社,群馬県,前橋市,敷島町２６７番地３,,10,201,3710036,,,2023-07-19,清算の結了等,,,2015-10-05,1,,,,,コウフウカン,0
396,2120001246875,登記記録の閉鎖等,0,2023-07-25,2023-07-21,株式会社首里,,株式会社,大阪府,大阪市中央区,博労町３丁目１番８号チサンマンション心斎橋２番館４１０号,,27,128,5410059,,,2023-07-21,清算の結了等,,,2022-06-23,1,,,,,シュリ,0
407,2120005020987,登記記録の閉鎖等,0,2023-07-25,2023-07-21,税理士法人中山事務所,,その他の設立登記法人,大阪府,大阪市西区,江戸堀１丁目２番１１号,,27,106,5500002,,,2023-07-21,清算の結了等,,,2019-07-08,1,,,,,ナカヤマジムショ,0
412,2120905001707,登記記録の閉鎖等,0,2023-07-25,2023-07-13,横堀銘木協同組合,,その他の設立登記法人,大阪府,摂津市,鳥飼銘木町１８番４号,,27,224,5660063,,,2023-07-13,清算の結了等,,,2015-10-05,1,,,,,ヨコボリメイボク,0
419,2140001050920,登記記録の閉鎖等,0,2023-07-25,2023-07-18,株式会社日向製作所,,株式会社,兵庫県,尼崎市,潮江１丁目１１番１－１７０１号,,28,202,6610976,,,2023-07-18,清算の結了等,,,2015-10-05,1,,,,,,0
420,2140001090470,登記記録の閉鎖等,0,2023-07-25,2023-07-20,株式会社パミュ,,株式会社,兵庫県,神戸市中央区,中町通３丁目１－１６サンビル５０２,,28,110,6500027,,,2023-07-20,清算の結了等,,,2015-10-05,1,,,,,パミュ,0
421,2140001107753,登記記録の閉鎖等,0,2023-07-25,2023-07-21,株式会社ユースフル,,株式会社,大阪府,大阪市平野区,西脇３丁目１番７－４０１号,,27,126,5470035,,,2023-07-21,清算の結了等,,,2017-10-05,1,,,,,ユースフル,0
424,2140002007143,登記記録の閉鎖等,0,2023-07-25,2023-07-19,有限会社かねもと建装,,有限会社,兵庫県,神戸市須磨区,白川台７丁目１番地の１１,,28,107,6540103,,,2023-07-19,清算の結了等,,,2015-10-05,1,,,,,カネモトケンソウ,0
436,2180005015461,登記記録の閉鎖等,0,2023-07-25,2023-07-20,特定非営利活動法人クラシックファンクラブ,,その他の設立登記法人,愛知県,名古屋市中区,栄４丁目５番１４号,,23,106,4600008,,,2023-07-20,清算の結了等,,,2015-10-05,1,,,,,クラシックファンクラブ,0
437,2180005018266,登記記録の閉鎖等,0,2023-07-25,2023-07-19,一般社団法人相続承継センター,,その他の設立登記法人,愛知県,名古屋市中区,丸の内１丁目１４番２４号ライオンズビル第２丸の内８Ｆ,,23,106,4600002,,,2023-07-19,清算の結了等,,,2019-05-17,1,,,,,ソウゾクショウケイセンター,0
444,2210002002442,登記記録の閉鎖等,0,2023-07-25,2023-07-14,有限会社東興エンジニア,,有限会社,福井県,福井市,若栄町１１０１番地,,18,201,9100831,,,2023-07-14,清算の結了等,,,2015-10-05,1,,,,,トウコウエンジニア,0
458,2280005002846,登記記録の閉鎖等,0,2023-07-25,2023-07-11,田代生産森林組合,,その他の設立登記法人,島根県,出雲市,乙立町１１４２番地６,,32,203,6930216,,,2023-07-11,清算の結了等,,,2015-10-05,1,,,,,タシロセイサンシンリン,0
471,2340002019671,登記記録の閉鎖等,0,2023-07-25,2023-07-20,有限会社塚田精肉店,,有限会社,鹿児島県,熊毛郡屋久島町,宮之浦１０４番地,,46,505,8914205,,,2023-07-20,清算の結了等,,,2015-10-05,1,,,,,ツカダセイニクテン,0
487,2380005002695,登記記録の閉鎖等,0,2023-07-25,2023-07-12,郡山宅地建物取引業事業協同組合,,その他の設立登記法人,福島県,郡山市,朝日１丁目２番２号,,07,203,9638024,,,2023-07-12,清算の結了等,,,2015-10-05,1,,,,,コオリヤマタクチタテモノトリヒキギョウ,0
489,2390002009552,登記記録の閉鎖等,0,2023-07-25,2023-07-13,有限会社地主薬局,,有限会社,山形県,鶴岡市,末広町６番１３号,,06,203,9970015,,,2023-07-13,清算の結了等,,,2015-10-05,1,,,,,ジヌシヤッキョク,0
529,3010601016184,登記記録の閉鎖等,0,2023-07-25,2023-07-18,マスヤ石油株式会社,,株式会社,東京都,墨田区,東駒形２丁目１７番９号,,13,107,1300005,,,2023-07-18,清算の結了等,,,2015-10-05,1,,,,,マスヤセキユ,0
537,3010802006364,登記記録の閉鎖等,0,2023-07-25,2023-07-14,有限会社サンパーツ,,有限会社,東京都,大田区,新蒲田３丁目１１番５号,,13,111,1440054,,,2023-07-14,清算の結了等,,,2015-10-05,1,,,,,サンパーツ,0
569,3011802022995,登記記録の閉鎖等,0,2023-07-25,2023-07-21,有限会社らいみんぐ,,有限会社,東京都,葛飾区,東新小岩５丁目１８番１４号,,13,122,1240023,,,2023-07-21,清算の結了等,,,2015-10-05,1,,,,,ライミング,0
588,3030001088335,登記記録の閉鎖等,0,2023-07-25,2023-07-20,株式会社キャリアエージェント,,株式会社,埼玉県,熊谷市,筑波１丁目１７３番地筑波ビル２Ｆ２０１,,11,202,3600037,,,2023-07-20,合併による解散等,3180001115628,令和５年７月１日名古屋市中村区名駅南一丁目２４番３０号株式会社ＰＥＯ（3180001115628）に合併し解散,2015-10-05,1,,,,,キャリアエージェント,0
620,3110001020066,登記記録の閉鎖等,0,2023-07-25,2023-07-20,株式会社新生産業,,株式会社,新潟県,上越市,木田１丁目７番１９号,,15,222,9430805,,,2023-07-20,合併による解散等,3180001115628,令和５年７月１日名古屋市中村区名駅南一丁目２４番３０号株式会社ＰＥＯ（3180001115628）に合併し解散,2015-10-05,1,,,,,シンセイサンギョウ,0
668,3170005001115,登記記録の閉鎖等,0,2023-07-25,2023-07-20,医療法人松隆会,,その他の設立登記法人,和歌山県,和歌山市,島崎町３丁目５番地,,30,201,6408125,,,2023-07-20,清算の結了等,,,2015-10-05,1,,,,,ショウリュウカイ,0
671,3180001076597,登記記録の閉鎖等,0,2023-07-25,2023-07-21,株式会社山田樹脂加工所,,株式会社,愛知県,小牧市,下小針天神２丁目５番地,,23,219,4850036,,,2023-07-21,清算の結了等,,,2015-10-05,1,,,,,ヤマダジュシカコウショ,0
674,3180001132086,登記記録の閉鎖等,0,2023-07-25,2023-07-20,グリーン・ショウワ株式会社,,株式会社,愛知県,名古屋市中村区,名駅南１丁目２８番２６号,,23,105,4500003,,,2023-07-20,清算の結了等,,,2018-04-26,1,,,,,グリーンショウワ,0
692,3210001000264,登記記録の閉鎖等,0,2023-07-25,2023-07-11,和泉左官工業株式会社,,株式会社,福井県,福井市,飯塚町第６号１１番地の２,,18,201,9188067,,,2023-07-11,清算の結了等,,,2015-10-05,1,,,,,イズミサカンコウギョウ,0
693,3210002011046,登記記録の閉鎖等,0,2023-07-25,2023-07-18,有限会社アカオ,,有限会社,福井県,三方上中郡若狭町,三方第４８号４０番地,,18,501,9191303,,,2023-07-18,清算の結了等,,,2015-10-05,1,,,,,アカオ,0
698,3240003004483,登記記録の閉鎖等,0,2023-07-25,2023-07-13,合同会社荒川不動産,,合同会社,広島県,広島市安佐南区,川内６丁目２２番１５号,,34,105,7310102,,,2023-07-13,清算の結了等,,,2019-12-06,1,,,,,アラカワフドウサン,0
705,3270005000750,登記記録の閉鎖等,0,2023-07-25,2023-06-19,天理教稲島分教会,,その他の設立登記法人,鳥取県,鳥取市,寺町９番地１３,,31,201,6800053,,,2023-06-19,合併による解散等,1270005000752,令和５年６月１９日鳥取市片原五丁目５０２番地天理教稲葉分教会（1270005000752）に合併し解散,2015-10-05,1,,,,,,0
716,3290802025353,登記記録の閉鎖等,0,2023-07-25,2023-07-11,有限会社スガヌマ保険事務所,,有限会社,福岡県,田川市,大字奈良１５２９番地２０３,,40,206,8260043,,,2023-07-11,清算の結了等,,,2015-10-05,1,,,,,スガヌマホケンジムショ,0
720,3320002007693,登記記録の閉鎖等,0,2023-07-25,2023-07-13,有限会社宗辛設計事務所,,有限会社,大分県,大分市,大字寒田３５２番地の１,,44,201,8701123,,,2023-07-13,清算の結了等,,,2015-10-05,1,,,,,,0
721,3320002018749,登記記録の閉鎖等,0,2023-07-25,2023-07-20,有限会社インプレストライ,,有限会社,大分県,日田市,下井手町４９番地１,,44,204,8770038,,,2023-07-20,清算の結了等,,,2015-10-05,1,,,,,,0
722,3330002014747,登記記録の閉鎖等,0,2023-07-25,2023-07-06,有限会社バイパス不動産,,有限会社,熊本県,熊本市中央区,帯山２丁目５番９５号,,43,101,8620924,,,2023-07-06,清算の結了等,,,2015-10-05,1,,,,,バイパスフドウサン,0
727,3350001002874,登記記録の閉鎖等,0,2023-07-25,2023-07-14,ＳＡＴＴ九州株式会社,,株式会社,宮崎県,宮崎市,広島１丁目１８番１２号宮崎フコク生命ビル,,45,201,8800806,,,2023-07-14,合併による解散等,5010001105916,令和５年７月１日東京都千代田区神田三崎町一丁目３番１２号エスエイティーティー株式会社（5010001105916）に合併し解散,2015-10-05,1,,,,,エスエイティーティーキュウシュウ,0
750,3480001000213,登記記録の閉鎖等,0,2023-07-25,2023-07-24,石川木材工業株式会社,,株式会社,徳島県,徳島市,山城町東浜傍示２８番地の９４,,36,201,7708055,,,2023-07-24,清算の結了等,,,2015-10-05,1,,,,,イシカワモクザイコウギョウ,0
751,3480002005772,登記記録の閉鎖等,0,2023-07-25,2023-07-24,有限会社一力,,有限会社,徳島県,名西郡石井町,藍畑字高畑１２３７番地,,36,341,7793213,,,2023-07-24,清算の結了等,,,2015-10-05,1,,,,,イチリキ,0
755,4010001099110,登記記録の閉鎖等,0,2023-07-25,2023-07-12,メディスケット株式会社,,株式会社,東京都,中央区,八重洲２丁目７番１５号,,13,102,1040028,,,2023-07-12,清算の結了等,,,2015-10-05,1,,,,,メディスケット,0
763,4010002005546,登記記録の閉鎖等,0,2023-07-25,2023-07-11,有限会社ホットライン,,有限会社,東京都,文京区,千駄木２丁目１０番１６号,,13,105,1130022,,,2023-07-11,清算の結了等,,,2015-10-05,1,,,,,ホットライン,0
764,4010003025329,登記記録の閉鎖等,0,2023-07-25,2023-07-12,合同会社ＫＭエステート,,合同会社,大阪府,大阪市淀川区,西中島３丁目１８番９号新大阪日大ビル,,27,123,5320011,,,2023-07-12,清算の結了等,,,2017-05-15,1,,,,,ケーエムエステート,0
766,4010005008389,登記記録の閉鎖等,0,2023-07-25,2023-07-21,一般社団法人パチンコ・トラスティ・ボード,,その他の設立登記法人,東京都,台東区,東上野１丁目２６番２号,,13,106,1100015,,,2023-07-21,清算の結了等,,,2015-10-05,1,,,,,パチンコトラスティボード,0
773,4010401174215,登記記録の閉鎖等,0,2023-07-25,2023-07-03,株式会社キャプテンホールディングス,,株式会社,東京都,港区,南青山５丁目１２番１９号,,13,103,1070062,,,2023-07-03,合併による解散等,4010401136487,令和５年７月１日東京都港区南青山五丁目１２番１９号株式会社キャプテンサンシャイン（4010401136487）に合併し解散,2023-05-10,1,,,,,キャプテンホールディングス,0
788,4010701014665,登記記録の閉鎖等,0,2023-07-25,2023-07-13,株式会社オフィス・ティー＆オー,,株式会社,東京都,品川区,西五反田２丁目１８番３号,,13,109,1410031,,,2023-07-13,清算の結了等,,,2015-10-05,1,,,,,オフィスティーアンドオー,0
798,4011101093011,登記記録の閉鎖等,0,2023-07-25,2023-07-20,株式会社ザルツファイル,,株式会社,東京都,新宿区,西早稲田３丁目１７番３７号,,13,104,1690051,,,2023-07-20,清算の結了等,,,2020-11-02,1,,,,,ザルツファイル,0
836,4030002087814,登記記録の閉鎖等,0,2023-07-25,2023-06-30,有限会社府中工業所,,有限会社,埼玉県,越谷市,新川町２丁目９番１６号,,11,222,3430852,,,2023-06-30,清算の結了等,,,2015-10-05,1,,,,,フチュウコウギョウショ,0
850,4060002031744,登記記録の閉鎖等,0,2023-07-25,2023-07-07,有限会社大類生花店,,有限会社,栃木県,栃木市,万町１１番１２号,,09,203,3280015,,,2023-07-07,清算の結了等,,,2015-10-05,1,,,,,オオルイセイカテン,0
856,4080101014598,登記記録の閉鎖等,0,2023-07-25,2023-07-24,株式会社熱川大和館,,株式会社,静岡県,賀茂郡東伊豆町,奈良本９８６番地の２,,22,301,4130302,,,2023-07-24,清算の結了等,,,2015-10-05,1,,,,,アタガワヤマトカン,0
857,4080401000579,登記記録の閉鎖等,0,2023-07-25,2023-07-21,稲野工具株式会社,,株式会社,静岡県,浜松市南区,三島町１００１番地,,22,134,4300853,,,2023-07-21,清算の結了等,,,2015-10-05,1,,,,,イナノコウグ,0
858,4100005007539,登記記録の閉鎖等,0,2023-07-25,2023-07-10,特定非営利活動法人仁科の里造り,,その他の設立登記法人,長野県,大町市,社１６８１番地,,20,212,3980003,,,2023-07-10,清算の結了等,,,2015-10-05,1,,,,,ニシナノサトヅクリ,0
865,4120001183786,登記記録の閉鎖等,0,2023-07-25,2023-07-14,株式会社ＨＬＳ,,株式会社,大阪府,枚方市,茄子作北町６４番１１号,,27,210,5730083,,,2023-07-14,清算の結了等,,,2015-10-05,1,,,,,,0
867,4120001194817,登記記録の閉鎖等,0,2023-07-25,2023-07-12,株式会社フラットプロパティ,,株式会社,大阪府,大阪市北区,松ケ枝町６番２３号,,27,127,5300037,,,2023-07-12,清算の結了等,,,2015-12-03,1,,,,,フラットプロパティ,0
868,4120001196152,登記記録の閉鎖等,0,2023-07-25,2023-07-21,株式会社Ｄｒａｗｅｒ,,株式会社,大阪府,大阪市中央区,北浜２丁目５番２３号,,27,128,5410041,,,2023-07-21,合併による解散等,9010401116006,令和５年６月３０日東京都中央区銀座六丁目３番１８号Ｌａ・Ｌａ・ＧｒａｎｄｅＧＩＮＺＡ４階リアルホールディングス株式会社（9010401116006）に合併し解散,2016-02-09,1,,,,,ドロワー,0
869,4120001206737,登記記録の閉鎖等,0,2023-07-25,2023-07-18,株式会社ゼロベース七,,株式会社,大阪府,豊中市,庄内栄町１丁目７番１号,,27,203,5610834,,,2023-07-18,清算の結了等,,,2017-07-07,1,,,,,ゼロベースナナ,0
899,4140001121570,登記記録の閉鎖等,0,2023-07-25,2023-07-19,株式会社川商,,株式会社,兵庫県,姫路市,西延末２３４番地１,,28,201,6700971,,,2023-07-19,清算の結了等,,,2021-05-20,1,,,,,カワショウ,0
905,4140003006126,登記記録の閉鎖等,0,2023-07-25,2023-07-18,合資会社谷書店,,合資会社,兵庫県,丹波市,柏原町柏原１６２番地,,28,223,6693309,,,2023-07-18,清算の結了等,,,2015-10-05,1,,,,,タニショテン,0
910,4150001009179,登記記録の閉鎖等,0,2023-07-25,2023-07-21,株式会社ＡｉＭｉ,,株式会社,奈良県,生駒市,高山町４１２５番地,,29,209,6300101,,,2023-07-21,清算の結了等,,,2015-10-05,1,,,,,アイミ,0
913,4170001010639,登記記録の閉鎖等,0,2023-07-25,2023-07-10,高野林業株式会社,00127306,株式会社,和歌山県,伊都郡九度山町,大字入郷６６０番地の７,,30,343,6480161,,,2023-07-10,清算の結了等,,,2022-07-28,1,,,,,,0
917,4180001042755,登記記録の閉鎖等,0,2023-07-25,2023-07-20,株式会社サンリョー,,株式会社,愛知県,名古屋市緑区,滝ノ水５丁目１１１４番地の１,,23,114,4580021,,,2023-07-20,清算の結了等,,,2015-10-05,1,,,,,サンリョー,0
919,4180001121690,登記記録の閉鎖等,0,2023-07-25,2023-07-21,株式会社山秀組,,株式会社,愛知県,名古屋市中川区,春田３丁目９２番地真弓ビル３Ｆ東号室,,23,110,4540985,,,2023-07-21,清算の結了等,,,2016-01-13,1,,,,,ヤマシュウグミ,0
927,4180005016243,登記記録の閉鎖等,0,2023-07-25,2023-07-24,一般社団法人日本体験学習研究所,,その他の設立登記法人,愛知県,名古屋市天白区,原１丁目２３０４番地ライオンズマンション１０２,,23,116,4680015,,,2023-07-24,清算の結了等,,,2015-10-05,1,,,,,ニホンタイケンガクシュウケンキュウショ,0
937,4210002010451,登記記録の閉鎖等,0,2023-07-25,2023-07-13,有限会社東海,,有限会社,福井県,敦賀市,松島１３０号２１８番地,,18,202,9140000,,,2023-07-13,清算の結了等,,,2015-10-05,1,,,,,トウカイ,0
954,4280002011749,登記記録の閉鎖等,0,2023-07-25,2023-07-13,有限会社中村工務所,,有限会社,島根県,仁多郡奥出雲町,下横田１２７番地５,,32,343,6991822,,,2023-07-13,清算の結了等,,,2015-10-05,1,,,,,ナカムラコウムショ,0
969,4330002001083,登記記録の閉鎖等,0,2023-07-25,2023-07-06,上野運輸有限会社,,有限会社,熊本県,熊本市南区,出仲間５丁目４－１,,43,104,8620963,,,2023-07-06,清算の結了等,,,2015-10-05,1,,,,,ウエノウンユ,0
973,4340002010348,登記記録の閉鎖等,0,2023-07-25,2023-07-20,有限会社ライムクリーン,,有限会社,鹿児島県,鹿児島市,甲突町２８番２号,,46,201,8920837,,,2023-07-20,清算の結了等,,,2015-10-05,1,,,,,ライムクリーン,0
999,4450002011161,登記記録の閉鎖等,0,2023-07-25,2023-07-24,有限会社マルサン三浦商事,,有限会社,北海道,稚内市,宗谷岬９番２７号,,01,214,0986758,,,2023-07-24,清算の結了等,,,2015-10-05,1,,,,,マルサンミウラショウジ,0
1007,4500002013359,登記記録の閉鎖等,0,2023-07-25,2023-07-07,有限会社竹本カバン,,有限会社,愛媛県,八幡浜市,新町３０１番地,,38,204,7960071,,,2023-07-07,清算の結了等,,,2015-10-05,1,,,,,,0
1028,5010005030383,登記記録の閉鎖等,0,2023-07-25,2023-07-18,日光Ｐｌｕｓ１０一般社団法人,,その他の設立登記法人,東京都,千代田区,丸の内３丁目１番１号東京共同会計事務所内,,13,101,1000005,,,2023-07-18,清算の結了等,,,2019-06-28,1,,,,,ニッコウプラステン,0
1029,5010401018107,登記記録の閉鎖等,0,2023-07-25,2023-07-03,ティ・アイ・ティシステムズ株式会社,,株式会社,東京都,港区,北青山１丁目２番１８－１０１号,,13,103,1070061,,,2023-07-03,清算の結了等,,,2015-10-05,1,,,,,ティアイティシステムズ,0
1034,5010401153168,登記記録の閉鎖等,0,2023-07-25,2023-07-20,スキップ株式会社,,株式会社,東京都,新宿区,西新宿３丁目２０番２号,,13,104,1600023,,,2023-07-20,合併による解散等,9010401019407,令和５年７月１日東京都千代田区五番町６番地１ＡＫビルディング３階株式会社ドゥ・ハウス（9010401019407）に合併し解散,2020-06-09,1,,,,,スキップ,0
1050,5010602028391,登記記録の閉鎖等,0,2023-07-25,2023-07-10,株式会社ミナモトビジョン,,株式会社,神奈川県,川崎市多摩区,東三田３丁目１０番１－７１２,,14,135,2140033,,,2023-07-10,清算の結了等,,,2015-10-05,1,,,,,ミナモトビジョン,0
1066,5011702017821,登記記録の閉鎖等,0,2023-07-25,2023-07-24,ツールランナー有限会社,,有限会社,東京都,江戸川区,中葛西５丁目２番７－２０２号,,13,123,1340083,,,2023-07-24,清算の結了等,,,2015-10-05,1,,,,,ツールランナー,0
1077,5013402006848,登記記録の閉鎖等,0,2023-07-25,2023-07-24,有限会社Ｓデザイン,,有限会社,東京都,稲城市,平尾２丁目５４番地の２０,,13,225,2060823,,,2023-07-24,清算の結了等,,,2015-10-05,1,,,,,エスデザイン,0
1079,5020001007087,登記記録の閉鎖等,0,2023-07-25,2023-07-10,イトシン建設株式会社,,株式会社,神奈川県,横浜市戸塚区,下倉田町８２８番地７１,,14,110,2440815,,,2023-07-10,清算の結了等,,,2015-10-05,1,,,,,イトシンケンセツ,0
1086,5030002120458,登記記録の閉鎖等,0,2023-07-25,2023-06-30,有限会社町田包装,,有限会社,埼玉県,日高市,大字新堀９６番地５,,11,242,3501243,,,2023-06-30,清算の結了等,,,2015-10-05,1,,,,,マチダホウソウ,0
1102,5040002078282,登記記録の閉鎖等,0,2023-07-25,2023-06-29,有限会社倉田屋,,有限会社,千葉県,大網白里市,大網６６４番地,,12,239,2993251,,,2023-06-29,清算の結了等,,,2015-10-05,1,,,,,クラタヤ,0
1121,5120001118320,登記記録の閉鎖等,0,2023-07-25,2023-07-12,株式会社イワタニクラフト,,株式会社,大阪府,大阪市生野区,林寺６丁目８番９号,,27,116,5440023,,,2023-07-12,清算の結了等,,,2015-10-05,1,,,,,,0
1133,5120002000254,登記記録の閉鎖等,0,2023-07-25,2023-07-18,有限会社北大阪機工,,有限会社,大阪府,大阪市旭区,大宮４丁目２０番７－２０６号,,27,117,5350002,,,2023-07-18,清算の結了等,,,2015-10-05,1,,,,,キタオオサカキコウ,0
1185,5180302009444,登記記録の閉鎖等,0,2023-07-25,2023-07-14,有限会社福蘭,,有限会社,愛知県,豊橋市,東脇２丁目１５番地の１０,,23,201,4418083,,,2023-07-14,清算の結了等,,,2015-10-05,1,,,,,フクラン,0
1186,5180303004997,登記記録の閉鎖等,0,2023-07-25,2023-07-10,合同会社ＮＥＸＵＳ,,合同会社,愛知県,豊田市,小坂本町１丁目８番地１‐３‐Ｂ号,,23,211,4710034,,,2023-07-10,清算の結了等,,,2021-05-19,1,,,,,ネクサス,0
1200,5230001003131,登記記録の閉鎖等,0,2023-07-25,2023-07-19,株式会社マルワフード,,株式会社,富山県,富山市,赤田４８７番地１,,16,201,9398064,,,2023-07-19,合併による解散等,7230001000473,令和５年７月１日富山市赤田４８７番地１株式会社大阪屋ショップ（7230001000473）に合併し解散,2015-10-05,1,,,,,マルワフード,0
1208,5240005005255,登記記録の閉鎖等,0,2023-07-25,2023-06-26,嚴島神社,00001896,その他の設立登記法人,広島県,庄原市,西城町西城４１８番地,,34,210,7295731,,,2023-06-26,合併による解散等,8240005005310,令和５年６月２０日広島県庄原市西城町中野８４２番地宗教法人八幡神社（8240005005310）に合併し解散,2015-10-05,1,,,,,イツクシマジンジャ,0
1235,5350001014991,登記記録の閉鎖等,0,2023-07-25,2023-06-30,株式会社ＣＡＲＲＥＸ‐ＰＬＵＳ,,株式会社,宮崎県,宮崎市,佐土原町上田島３８０５番地１,,45,201,8800301,,,2023-06-30,合併による解散等,4350001012443,令和５年６月３０日宮崎市佐土原町下田島１０７２０番地株式会社ＣＡＲＲＥＸ（4350001012443）に合併し解散,2017-10-24,1,,,,,カーレックスプラス,0
1236,5350002004570,登記記録の閉鎖等,0,2023-07-25,2023-07-13,株式会社ミモザ,,株式会社,宮崎県,宮崎市,橘通東３丁目１番４号,,45,201,8800805,,,2023-07-13,清算の結了等,,,2015-10-05,1,,,,,ミモザ,0
1246,5380002004130,登記記録の閉鎖等,0,2023-07-25,2023-07-18,有限会社氏家五葉園,,有限会社,福島県,福島市,町庭坂字割石１５番地,,07,201,9602261,,,2023-07-18,清算の結了等,,,2015-10-05,1,,,,,ウジイエゴヨウエン,0
1253,5420002011543,登記記録の閉鎖等,0,2023-07-25,2023-07-10,有限会社ハーベスト,,有限会社,青森県,北津軽郡板柳町,大字掛落林字前田１０５番地３,,02,381,0383671,,,2023-07-10,清算の結了等,,,2015-10-05,1,,,,,ハーベスト,0
1262,5430002001865,登記記録の閉鎖等,0,2023-07-25,2023-07-05,有限会社一久商会,,有限会社,北海道,札幌市豊平区,豊平六条６丁目５番４７－６０２号,,01,105,0620906,,,2023-07-05,清算の結了等,,,2015-10-05,1,,,,,イッキュウショウカイ,0
1264,5430003001022,登記記録の閉鎖等,0,2023-07-25,2023-07-05,合資会社稲康,,合資会社,北海道,札幌市中央区,南一条西８丁目１４番地３,,01,101,0600061,,,2023-07-05,清算の結了等,,,2015-10-05,1,,,,,トウコウ,0
1268,5480001010573,登記記録の閉鎖等,0,2023-07-25,2023-07-24,株式会社愛安,,株式会社,徳島県,板野郡板野町,大寺字亀山下８７番地１６,,36,404,7790105,,,2023-07-24,清算の結了等,,,2018-12-26,1,,,,,アイアン,0
1278,6010001000752,登記記録の閉鎖等,0,2023-07-25,2023-07-03,日経土地株式会社,,株式会社,東京都,千代田区,飯田橋２丁目１６番２号,,13,101,1020072,,,2023-07-03,合併による解散等,7010001025732,令和５年７月１日東京都千代田区飯田橋二丁目１６番２号日経印刷株式会社（7010001025732）に合併し解散,2015-10-05,1,,,,,ニッケイトチ,0
1287,6010003031738,登記記録の閉鎖等,0,2023-07-25,2023-07-12,サンビーム合同会社,,合同会社,東京都,千代田区,平河町１丁目６番１５号シルスフィア会計事務所内,,13,101,1020093,,,2023-07-12,清算の結了等,,,2020-03-02,1,,,,,サンビーム,0
1294,6010401085484,登記記録の閉鎖等,0,2023-07-25,2023-07-21,株式会社ＬＩＮＸ,,株式会社,東京都,新宿区,新宿１丁目３６番２号,,13,104,1600022,,,2023-07-21,清算の結了等,,,2015-10-05,1,,,,,リンクス,0
1310,6010901022103,登記記録の閉鎖等,0,2023-07-25,2023-07-14,玉川建設株式会社,,株式会社,東京都,世田谷区,等々力１丁目２０番２７号,,13,112,1580082,,,2023-07-14,清算の結了等,,,2015-10-05,1,,,,,タマガワケンセツ,0
1311,6010902006765,登記記録の閉鎖等,0,2023-07-25,2023-07-19,有限会社佐野内装,,有限会社,東京都,世田谷区,中町２丁目３２番７号,,13,112,1580091,,,2023-07-19,清算の結了等,,,2015-10-05,1,,,,,サノナイソウ,0
1318,6011103012215,登記記録の閉鎖等,0,2023-07-25,2023-07-21,合同会社ａｌｔｏｍｏｎｔｅ,,合同会社,東京都,新宿区,西新宿５丁目５番１－２３１７号,,13,104,1600023,,,2023-07-21,清算の結了等,,,2022-09-30,1,,,,,アルトモンテ,0
1325,6011301025076,登記記録の閉鎖等,0,2023-07-25,2023-07-18,株式会社環プラ東京,,株式会社,東京都,江東区,福住２丁目７番１号,,13,108,1350032,,,2023-07-18,清算の結了等,,,2019-06-03,1,,,,,カンプラトウキョウ,0
1332,6011601002329,登記記録の閉鎖等,0,2023-07-25,2023-07-21,コトブキ商事株式会社,,株式会社,東京都,練馬区,高野台３丁目９番４号,,13,120,1770033,,,2023-07-21,清算の結了等,,,2015-10-05,1,,,,,コトブキショウジ,0
1340,6012402010900,登記記録の閉鎖等,0,2023-07-25,2023-07-21,有限会社クリーム,,有限会社,東京都,調布市,柴崎１丁目２１番地３０,,13,208,1820014,,,2023-07-21,清算の結了等,,,2015-10-05,1,,,,,,0
1342,6012805002890,登記記録の閉鎖等,0,2023-07-25,2023-07-14,一般社団法人中小企業経営支援協会,,その他の設立登記法人,東京都,国立市,富士見台３丁目９番地の６,,13,215,1860003,,,2023-07-14,清算の結了等,,,2019-11-27,1,,,,,チュウショウキギョウケイエイシエンキョウカイ,0
1346,6020001069119,登記記録の閉鎖等,0,2023-07-25,2023-07-10,株式会社川崎バナナ,,株式会社,神奈川県,川崎市中原区,小杉陣屋町２丁目１８番２号,,14,133,2110062,,,2023-07-10,合併による解散等,6020001069853,令和５年７月７日川崎市中原区小杉陣屋町二丁目１８番２号株式会社南洋フルーツ（6020001069853）に合併し解散,2015-10-05,1,,,,,カワサキバナナ,0
1391,6080401003984,登記記録の閉鎖等,0,2023-07-25,2023-07-21,株式会社ノバール,,株式会社,静岡県,浜松市中区,寺島町６３１番地の３,,22,131,4300925,,,2023-07-21,清算の結了等,,,2015-10-05,1,,,,,ノバール,0
1393,6100002003118,登記記録の閉鎖等,0,2023-07-25,2023-07-19,有限会社千原美容,,有限会社,長野県,長野市,大字高田１０６２番地１０,,20,201,3810034,,,2023-07-19,清算の結了等,,,2015-10-05,1,,,,,チハラビヨウ,0
1394,6100002003373,登記記録の閉鎖等,0,2023-07-25,2023-07-19,有限会社Ｔプラン,,有限会社,長野県,長野市,吉田２丁目３１番２１号,,20,201,3810043,,,2023-07-19,清算の結了等,,,2015-10-05,1,,,,,ティープラン,0
1398,6120001152087,登記記録の閉鎖等,0,2023-07-25,2023-07-20,株式会社アースクリア,,株式会社,大阪府,枚方市,大字穂谷２５８１番地の１,,27,210,5730114,,,2023-07-20,清算の結了等,,,2015-10-05,1,,,,,,0
1451,6180002028685,登記記録の閉鎖等,0,2023-07-25,2023-07-19,有限会社丹羽金属工業所,,有限会社,愛知県,名古屋市中村区,大秋町１丁目１番地,,23,105,4530042,,,2023-07-19,清算の結了等,,,2015-10-05,1,,,,,ニワキンゾクコウギョウショ,0
1483,6320002000448,登記記録の閉鎖等,0,2023-07-25,2023-07-21,有限会社愛商,,有限会社,大分県,大分市,王子中町５番５２号,,44,201,8700006,,,2023-07-21,清算の結了等,,,2015-10-05,1,,,,,,0
1484,6320002000737,登記記録の閉鎖等,0,2023-07-25,2023-07-18,有限会社安部衣料,,有限会社,大分県,大分市,中島東１丁目１番７号,,44,201,8700043,,,2023-07-18,清算の結了等,,,2015-10-05,1,,,,,アベイリョウ,0
1489,6350002014841,登記記録の閉鎖等,0,2023-07-25,2023-06-20,有限会社平成建設,,有限会社,宮崎県,都城市,丸谷町２５７１番地１,,45,202,8851105,,,2023-06-20,合併による解散等,4350001015677,令和５年６月１５日宮崎県都城市山田町山田２１１２番地３株式会社栄伸（4350001015677）と合併し解散,2015-10-05,1,,,,,ヘイセイケンセツ,0
1497,6380001028229,登記記録の閉鎖等,0,2023-07-25,2023-07-13,株式会社ワンライン計画,,株式会社,福島県,須賀川市,館取町１９４番地,,07,207,9620021,,,2023-07-13,清算の結了等,,,2017-06-21,1,,,,,ワンラインケイカク,0
1521,7010001202728,登記記録の閉鎖等,0,2023-07-25,2023-06-16,株式会社ＡＬＣＯＬＡＢ,,株式会社,東京都,中央区,日本橋兜町６番５号,,13,102,1030026,,,2023-06-16,合併による解散等,9220001024208,令和５年６月１日石川県金沢市広岡二丁目１２番６号株式会社ＦＤアドバイザリー（9220001024208）に合併し解散,2019-07-31,1,,,,,アルコラボ,0
1560,7011001063061,登記記録の閉鎖等,0,2023-07-25,2023-07-24,株式会社ｔｕａ,,株式会社,東京都,渋谷区,神宮前４丁目１９番８号アロープラザ原宿１０４,,13,113,1500001,,,2023-07-24,清算の結了等,,,2015-10-05,1,,,,,トゥア,0
1581,7011203003344,登記記録の閉鎖等,0,2023-07-25,2023-07-20,合同会社ウム,,合同会社,東京都,新宿区,新宿１丁目８番４号近鉄新宿御苑ビル７Ｆ,,13,104,1600022,,,2023-07-20,清算の結了等,,,2020-07-13,1,,,,,ウム,0
1595,7013202004678,登記記録の閉鎖等,0,2023-07-25,2023-07-18,有限会社中西建築事務所,,有限会社,東京都,目黒区,青葉台１丁目２７番５－４０１号,,13,110,1530042,,,2023-07-18,清算の結了等,,,2015-10-05,1,,,,,ナカニシケンチクジムショ,0
1616,7030003012636,登記記録の閉鎖等,0,2023-07-25,2023-07-06,ＳＡＴＯトラスト合同会社,,合同会社,埼玉県,川口市,大字芝６８５６番地の１,,11,203,3330866,,,2023-07-06,清算の結了等,,,2018-11-09,1,,,,,サトウトラスト,0
1639,7060001020274,登記記録の閉鎖等,0,2023-07-25,2023-07-07,株式会社大澤酒店,,株式会社,栃木県,佐野市,上台町２０９０番地７,,09,204,3270006,,,2023-07-07,清算の結了等,,,2015-10-05,1,,,,,オオサワサケテン,0
1647,7080402019475,登記記録の閉鎖等,0,2023-07-25,2023-07-21,有限会社オオバ工芸,,有限会社,静岡県,磐田市,二之宮７３７番地,,22,211,4380074,,,2023-07-21,清算の結了等,,,2015-10-05,1,,,,,オオバコウゲイ,0
1651,7110001004255,登記記録の閉鎖等,0,2023-07-25,2023-07-11,株式会社日本化材新潟,,株式会社,新潟県,新潟市東区,東明３丁目９番地６,,15,102,9500853,,,2023-07-11,清算の結了等,,,2015-10-05,1,,,,,ニホンカザイニイガタ,0
1653,7120001083273,登記記録の閉鎖等,0,2023-07-25,2023-07-13,株式会社大一,,株式会社,大阪府,大阪市中央区,本町２丁目６番１１号,,27,128,5410053,,,2023-07-13,清算の結了等,,,2015-10-05,1,,,,,ダイイチ,0
1654,7120001137855,登記記録の閉鎖等,0,2023-07-25,2023-07-12,株式会社Ｌｅａｐｓ,,株式会社,大阪府,大阪市中央区,平野町３丁目４番９号,,27,128,5410046,,,2023-07-12,清算の結了等,,,2015-10-05,1,,,,,,0
1655,7120001139439,登記記録の閉鎖等,0,2023-07-25,2023-07-13,株式会社Ｖ．Ｃ．Ｓ,,株式会社,大阪府,大阪市北区,梅田１丁目２番２－１１００号,,27,127,5300001,,,2023-07-13,清算の結了等,,,2015-10-05,1,,,,,ブイシーエス,0
1670,7120105007038,登記記録の閉鎖等,0,2023-07-25,2023-07-24,医療法人老木レディスクリニック,,その他の設立登記法人,大阪府,和泉市,あゆみ野１丁目４番１号,,27,219,5941157,,,2023-07-24,清算の結了等,,,2015-10-05,1,,,,,オイキレディスクリニック,0
1672,7120902011778,登記記録の閉鎖等,0,2023-07-25,2023-07-21,有限会社グローバルコーポレーション,,有限会社,大阪府,三島郡島本町,水無瀬１丁目１８－１３エクセル水無瀬３０４号,,27,301,6180014,,,2023-07-21,清算の結了等,,,2015-10-05,1,,,,,グローバルコーポレーション,0
1673,7120902017528,登記記録の閉鎖等,0,2023-07-25,2023-07-14,有限会社池田アルミ建材,,有限会社,大阪府,豊中市,庄内栄町５丁目７番５号,,27,203,5610834,,,2023-07-14,清算の結了等,,,2015-10-05,1,,,,,,0
1689,7140002065772,登記記録の閉鎖等,0,2023-07-25,2023-07-14,有限会社サンオプト,,有限会社,兵庫県,川辺郡猪名川町,旭ヶ丘１番地２９２,,28,301,6660212,,,2023-07-14,清算の結了等,,,2015-10-05,1,,,,,サンオプト,0
1695,7180001012193,登記記録の閉鎖等,0,2023-07-25,2023-07-20,佐久間タイル株式会社,,株式会社,愛知県,名古屋市北区,丸新町４７４番地,,23,103,4620063,,,2023-07-20,清算の結了等,,,2015-10-05,1,,,,,サクマタイル,0
1703,7180001123239,登記記録の閉鎖等,0,2023-07-25,2023-07-20,株式会社水谷管工業,,株式会社,愛知県,瀬戸市,品野町５丁目２１１番地の４,,23,204,4801207,,,2023-07-20,清算の結了等,,,2016-05-11,1,,,,,ミズタニカンコウギョウ,0
1708,7180002012845,登記記録の閉鎖等,0,2023-07-25,2023-07-21,有限会社名北プラスチック,,有限会社,愛知県,名古屋市北区,楠味鋺１丁目１１０７番地,,23,103,4620014,,,2023-07-21,清算の結了等,,,2015-10-05,1,,,,,メイホクプラスチック,0
1714,7180301023824,登記記録の閉鎖等,0,2023-07-25,2023-07-14,株式会社マーチ,,株式会社,愛知県,西尾市,徳次町宮廻３１番地３,,23,213,4450072,,,2023-07-14,清算の結了等,,,2015-10-05,1,,,,,マーチ,0
1739,7260002024832,登記記録の閉鎖等,0,2023-07-25,2023-07-14,有限会社岩井運送,,有限会社,岡山県,浅口市,鴨方町本庄３９４番地の１,,33,216,7190232,,,2023-07-14,清算の結了等,,,2015-10-05,1,,,,,イワイウンソウ,0
1742,7270005000755,登記記録の閉鎖等,0,2023-07-25,2023-06-19,天理教稲美分教会,,その他の設立登記法人,鳥取県,鳥取市,福部町細川７２７番地５１,,31,201,6890102,,,2023-06-19,合併による解散等,1270005000752,令和５年６月１９日鳥取市片原五丁目５０２番地天理教稲葉分教会（1270005000752）に合併し解散,2015-10-05,1,,,,,,0
1770,7360003001399,登記記録の閉鎖等,0,2023-07-25,2023-07-13,合資会社山城工業,,合資会社,沖縄県,那覇市,首里石嶺町４丁目３７３番地９,,47,201,9030804,,,2023-07-13,清算の結了等,,,2015-10-05,1,,,,,,0
1774,7400002011700,登記記録の閉鎖等,0,2023-07-25,2023-07-05,有限会社千田商事,,有限会社,岩手県,釜石市,大渡町１丁目３番５号,,03,211,0260025,,,2023-07-05,清算の結了等,,,2015-10-05,1,,,,,チダショウジ,0
1786,7440002010236,登記記録の閉鎖等,0,2023-07-25,2023-07-20,有限会社丸善岩見漁網店,,有限会社,北海道,函館市,宝来町３２番８号,,01,202,0400043,,,2023-07-20,清算の結了等,,,2022-11-28,1,,,,,マルゼンイワミギョモウテン,0
1795,7500005007041,登記記録の閉鎖等,0,2023-07-25,2023-07-21,ＮＰＯ法人シニアワークライフ,,その他の設立登記法人,愛媛県,新居浜市,中須賀町１丁目４番１７号,,38,205,7920012,,,2023-07-21,清算の結了等,,,2015-10-05,1,,,,,シニアワークライフ,0
1807,8010002019039,登記記録の閉鎖等,0,2023-07-25,2023-07-04,有限会社金太朗,,有限会社,東京都,中央区,銀座８丁目６番１１号,,13,102,1040061,,,2023-07-04,清算の結了等,,,2015-10-05,1,,,,,キンタロウ,0
1811,8010005031065,登記記録の閉鎖等,0,2023-07-25,2023-07-18,日光Ｐｌｕｓ１１一般社団法人,,その他の設立登記法人,東京都,千代田区,丸の内３丁目１番１号東京共同会計事務所内,,13,101,1000005,,,2023-07-18,清算の結了等,,,2019-11-14,1,,,,,ニッコウプラスイレブン,0
1821,8010601003681,登記記録の閉鎖等,0,2023-07-25,2023-07-19,鈴木金属株式会社,,株式会社,東京都,江東区,清澄３丁目９番１６号,,13,108,1350024,,,2023-07-19,清算の結了等,,,2015-10-05,1,,,,,スズキキンゾク,0
1828,8010802001773,登記記録の閉鎖等,0,2023-07-25,2023-07-19,有限会社ウイロー,,有限会社,東京都,大田区,上池台５丁目１６番５－１０２号,,13,111,1450064,,,2023-07-19,清算の結了等,,,2015-10-05,1,,,,,ウイロー,0
1833,8010901032166,登記記録の閉鎖等,0,2023-07-25,2023-07-20,北星レンタル株式会社,,株式会社,東京都,世田谷区,代沢２丁目３７番１５号三益ビル,,13,112,1550032,,,2023-07-20,清算の結了等,,,2015-10-05,1,,,,,,0
1835,8011001020689,登記記録の閉鎖等,0,2023-07-25,2023-07-13,株式会社フジベル,,株式会社,東京都,渋谷区,神宮前４丁目３１番１６号,,13,113,1500001,,,2023-07-13,清算の結了等,,,2015-10-05,1,,,,,フジベル,0
1866,8012403002408,登記記録の閉鎖等,0,2023-07-25,2023-07-24,合同会社野の花,,合同会社,東京都,調布市,仙川町１丁目１５番地３０,,13,208,1820002,,,2023-07-24,清算の結了等,,,2015-10-05,1,,,,,ノノカ,0
1868,8013101003581,登記記録の閉鎖等,0,2023-07-25,2023-07-20,株式会社グローバル,,株式会社,東京都,青梅市,今井３丁目９番地１９,,13,205,1980023,,,2023-07-20,清算の結了等,,,2015-10-05,1,,,,,グローバル,0
1869,8013202003968,登記記録の閉鎖等,0,2023-07-25,2023-07-10,高橋住建有限会社,00053526,有限会社,神奈川県,川崎市宮前区,西野川１丁目３０番９号,,14,136,2160044,,,2023-07-10,清算の結了等,,,2015-10-05,1,,,,,タカハシジュウケン,0
1874,8020002072284,登記記録の閉鎖等,0,2023-07-25,2023-06-30,有限会社エイチアンドエイ,,有限会社,神奈川県,横浜市港北区,日吉１丁目１５番２５号,,14,109,2230061,,,2023-06-30,清算の結了等,,,2015-10-05,1,,,,,エイチアンドエイ,0
1878,8020003017866,登記記録の閉鎖等,0,2023-07-25,2023-07-10,合同会社ことのもり,,合同会社,神奈川県,横浜市鶴見区,矢向４丁目２８番２１－５０４号,,14,101,2300001,,,2023-07-10,清算の結了等,,,2020-05-15,1,,,,,コトノモリ,0
1889,8030001018205,登記記録の閉鎖等,0,2023-07-25,2023-07-20,株式会社万葉,,株式会社,埼玉県,さいたま市岩槻区,大字笹久保１３５６番地,,11,110,3390034,,,2023-07-20,合併による解散等,7130001037872,令和５年７月１日京都府綴喜郡井手町大字多賀小字茶臼塚１２番地の２ワタキューセイモア株式会社（7130001037872）に合併し解散,2015-10-05,1,,,,,マンヨウ,0
1891,8030001034292,登記記録の閉鎖等,0,2023-07-25,2023-07-03,イー・ケー・ホールディングス株式会社,,株式会社,埼玉県,蕨市,塚越１丁目４番２号,,11,223,3350002,,,2023-07-03,合併による解散等,6030001034286,令和５年７月１日埼玉県蕨市塚越一丁目４番２号株式会社大蔵プロパティー（6030001034286）に合併し解散,2015-10-05,1,,,,,イーケーホールディングス,0
1892,8030001060033,登記記録の閉鎖等,0,2023-07-25,2023-06-29,株式会社高建,00015057,株式会社,埼玉県,川越市,伊勢原町２丁目２２番地６,,11,201,3501108,,,2023-06-29,清算の結了等,,,2015-10-05,1,,,,,コウケン,0
1903,8040002004038,登記記録の閉鎖等,0,2023-07-25,2023-07-03,有限会社コイケ,,有限会社,千葉県,千葉市美浜区,真砂２丁目１４番１－５２５号,,12,106,2610011,,,2023-07-03,清算の結了等,,,2015-10-05,1,,,,,コイケ,0
1904,8040002058637,登記記録の閉鎖等,0,2023-07-25,2023-06-30,有限会社エーアールビー企画,,有限会社,千葉県,印西市,大森３５９５番地１４,,12,231,2701327,,,2023-06-30,清算の結了等,,,2015-10-05,1,,,,,エーアールビーキカク,0
1909,8050001018145,登記記録の閉鎖等,0,2023-07-25,2023-07-14,株式会社すずらん,,株式会社,茨城県,つくば市,島名１４０１番地３（香取台Ａ１５街区８）,,08,220,3002655,,,2023-07-14,清算の結了等,,,2015-10-05,1,,,,,スズラン,0
1958,8120902017717,登記記録の閉鎖等,0,2023-07-25,2023-07-12,永寿商事有限会社,,有限会社,大阪府,豊中市,三和町４丁目１０番４２号,,27,203,5610828,,,2023-07-12,清算の結了等,,,2015-10-05,1,,,,,エイジュショウジ,0
1968,8140001062051,登記記録の閉鎖等,0,2023-07-25,2023-07-18,八幡建設測量株式会社,,株式会社,兵庫県,姫路市,飾磨区中島１２６４番地の１,,28,201,6728035,,,2023-07-18,清算の結了等,,,2015-10-05,1,,,,,,0
1982,8180001093407,登記記録の閉鎖等,0,2023-07-25,2023-07-19,株式会社アルファ社,,株式会社,愛知県,知多郡武豊町,字豊成３丁目３３番地の２,,23,447,4702318,,,2023-07-19,清算の結了等,,,2015-10-05,1,,,,,アルファシャ,0
1985,8180002079628,登記記録の閉鎖等,0,2023-07-25,2023-07-19,有限会社興建,,有限会社,愛知県,一宮市,萩原町高松字辰已１番地の１,,23,203,4910373,,,2023-07-19,清算の結了等,,,2015-10-05,1,,,,,コウケン,0
1987,8180005011950,登記記録の閉鎖等,0,2023-07-25,2023-06-29,東雲寺,,その他の設立登記法人,愛知県,知多郡阿久比町,大字板山字川向１１１番地１,,23,441,4702203,,,2023-06-29,合併による解散等,7180005011893,令和５年６月２９日愛知県知多郡阿久比町大字板山字川向２１番地安楽寺（7180005011893）に合併し解散,2015-10-05,1,,,,,トウウウンジ,0
2005,8280005007501,登記記録の閉鎖等,0,2023-07-25,2023-06-26,一般社団法人ｏｎｋａｉ,,その他の設立登記法人,島根県,出雲市,馬木町８６番地,,32,203,6930212,,,2023-06-26,清算の結了等,,,2022-09-07,1,,,,,オンカイ,0
2011,8290802003783,登記記録の閉鎖等,0,2023-07-25,2023-07-18,有限会社タイヨウ商会,,有限会社,福岡県,北九州市小倉南区,下貫１丁目６番１０号,,40,107,8000236,,,2023-07-18,清算の結了等,,,2015-10-05,1,,,,,タイヨウショウカイ,0
2022,8380005011492,登記記録の閉鎖等,0,2023-07-25,2023-07-13,特定非営利活動法人おたすけ倶楽部,,その他の設立登記法人,福島県,いわき市,久之浜町久之浜字立１５１番地の２,,07,204,9790333,,,2023-07-13,清算の結了等,,,2015-10-05,1,,,,,オタスケクラブ,0
2026,8420001006806,登記記録の閉鎖等,0,2023-07-25,2023-07-10,株式会社サンキ,,株式会社,青森県,三戸郡三戸町,大字川守田字雀館４３番地１,,02,441,0390141,,,2023-07-10,清算の結了等,,,2015-10-05,1,,,,,サンキ,0
2033,8450003000473,登記記録の閉鎖等,0,2023-07-25,2023-07-21,合資会社遊路,,合資会社,北海道,旭川市,神楽五条５丁目２番１５号,,01,204,0708005,,,2023-07-21,清算の結了等,,,2015-10-05,1,,,,,ユウロ,0
2047,9010003036478,登記記録の閉鎖等,0,2023-07-25,2023-07-24,合同会社トラスト,,合同会社,東京都,台東区,上野６丁目８番１９号,,13,106,1100005,,,2023-07-24,清算の結了等,,,2021-12-07,1,,,,,トラスト,0
2055,9010401163948,登記記録の閉鎖等,0,2023-07-25,2023-07-11,Ｓｐａｃｅ　Ｎｅｘｔ　Ｄｏｏｒ　Ｊａｐａｎ株式会社,,株式会社,東京都,千代田区,神田司町２丁目２番地１１,,13,101,1010048,,,2023-07-11,清算の結了等,,,2021-11-22,1,,,,,スペースネクストドアジャパン,0
2069,9010901015566,登記記録の閉鎖等,0,2023-07-25,2023-07-19,株式会社アキヨシ,,株式会社,東京都,世田谷区,奥沢３丁目１６番７号,,13,112,1580083,,,2023-07-19,清算の結了等,,,2015-10-05,1,,,,,アキヨシ,0
2074,9011001111215,登記記録の閉鎖等,0,2023-07-25,2023-07-14,アルテスラ株式会社,,株式会社,滋賀県,彦根市,旭町６番２２号,,25,202,5220073,,,2023-07-14,清算の結了等,,,2016-06-09,1,,,,,アルテスラ,0
2086,9011101093989,登記記録の閉鎖等,0,2023-07-25,2023-07-21,株式会社Ｌｉｆｅ　Ｃｏｎｃｉｅｒｇｅ,,株式会社,東京都,新宿区,高田馬場４丁目４０番１１号ユニゾ高田馬場看山ビル１０Ｆ,,13,104,1690075,,,2023-07-21,清算の結了等,,,2021-02-08,1,,,,,ライフコンシェルジュ,0
2112,9030001034291,登記記録の閉鎖等,0,2023-07-25,2023-07-03,オー・ケー・ホールディングス株式会社,,株式会社,埼玉県,蕨市,塚越１丁目４番２号,,11,223,3350002,,,2023-07-03,合併による解散等,6030001034286,令和５年７月１日埼玉県蕨市塚越一丁目４番２号株式会社大蔵プロパティー（6030001034286）に合併し解散,2015-10-05,1,,,,,オーケーホールディングス,0
2125,9040001127540,登記記録の閉鎖等,0,2023-07-25,2023-07-03,アシストテックホールディングス株式会社,,株式会社,千葉県,市原市,潤井戸１３５４番地８,,12,219,2900171,,,2023-07-03,合併による解散等,7040001008560,令和５年７月１日千葉県市原市潤井戸１３５４番地８アシストテック株式会社（7040001008560）に合併し解散,2023-03-17,1,,,,,アシストテックホールディングス,0
2134,9050001036187,登記記録の閉鎖等,0,2023-07-25,2023-07-18,株式会社導楽Ｆａｍｉｌｉａｒ,,株式会社,茨城県,土浦市,大和町８－５大内ビル１Ｆ,,08,203,3000036,,,2023-07-18,清算の結了等,,,2015-10-05,1,,,,,,0
2142,9060003002310,登記記録の閉鎖等,0,2023-07-25,2023-07-07,合同会社美人区,,合同会社,栃木県,足利市,菅田町５９番地,,09,202,3260007,,,2023-07-07,清算の結了等,,,2016-07-14,1,,,,,ビジンク,0
2148,9080001024164,登記記録の閉鎖等,0,2023-07-25,2023-07-21,オオトリ株式会社,,株式会社,静岡県,藤枝市,稲川１丁目６番３７号,,22,214,4260022,,,2023-07-21,清算の結了等,,,2021-05-10,1,,,,,オオトリ,0
2152,9080102013314,登記記録の閉鎖等,0,2023-07-25,2023-07-21,有限会社伊藤和建築,,有限会社,静岡県,富士市,伝法１６０４番地の１,,22,210,4170061,,,2023-07-21,清算の結了等,,,2015-10-05,1,,,,,イトウカズケンチク,0
2162,9120001105521,登記記録の閉鎖等,0,2023-07-25,2023-07-18,プライムケア株式会社,,株式会社,大阪府,大阪市淀川区,西中島５丁目６－１３新大阪御幸ビル,,27,123,5320011,,,2023-07-18,清算の結了等,,,2015-10-05,1,,,,,,0
2199,9140005014436,登記記録の閉鎖等,0,2023-07-25,2023-07-13,姫路マッチラテラル事業協同組合,,その他の設立登記法人,兵庫県,姫路市,網干区新在家３３４番地,,28,201,6711234,,,2023-07-13,清算の結了等,,,2015-10-05,1,,,,,ヒメジマッチラテラル,0
2201,9150002004843,登記記録の閉鎖等,0,2023-07-25,2023-07-05,有限会社きらら,,有限会社,奈良県,大和郡山市,杉町１３４番地の３,,29,203,6391121,,,2023-07-05,清算の結了等,,,2015-10-05,1,,,,,キララ,0
2205,9160005010177,登記記録の閉鎖等,0,2023-07-25,2023-07-18,特定非営利活動法人のびっこクラブ,,その他の設立登記法人,滋賀県,米原市,梅ケ原８６０番地,,25,214,5210013,,,2023-07-18,清算の結了等,,,2015-12-09,1,,,,,ノビッコクラブ,0
2207,9180001074983,登記記録の閉鎖等,0,2023-07-25,2023-07-21,株式会社丸岡製作所,,株式会社,愛知県,春日井市,西高山町３丁目６番地の１６,,23,206,4860911,,,2023-07-21,清算の結了等,,,2015-10-05,1,,,,,マルオカセイサクショ,0
2218,9180302015884,登記記録の閉鎖等,0,2023-07-25,2023-07-20,有限会社松島,,有限会社,愛知県,蒲郡市,西浦町原門戸２６番地の３,,23,214,4430105,,,2023-07-20,清算の結了等,,,2015-10-05,1,,,,,,0
2226,9210005006764,登記記録の閉鎖等,0,2023-07-25,2023-06-21,天理教新日分教会,,その他の設立登記法人,福井県,三方上中郡若狭町,日笠３０号１６番地,,18,501,9191545,,,2023-06-21,合併による解散等,3130005011745,令和５年６月１３日京都府舞鶴市字浜小字片山８０４番地天理教新舞鶴分教会（3130005011745）に合併し解散,2015-10-05,1,,,,,テンリキョウシンニチブンキョウカイ,0
2241,9260002006696,登記記録の閉鎖等,0,2023-07-25,2023-07-18,有限会社ツーリン,,有限会社,岡山県,岡山市南区,妹尾２３８３番地の１４,,33,104,7010205,,,2023-07-18,清算の結了等,,,2015-10-05,1,,,,,ツーリン,0
2249,9290801010508,登記記録の閉鎖等,0,2023-07-25,2023-07-18,藤野電機工業株式会社,,株式会社,福岡県,北九州市八幡西区,田町１丁目４番１号,,40,109,8060003,,,2023-07-18,清算の結了等,,,2015-10-05,1,,,,,フジノデンキコウギョウ,0
2250,9290801011662,登記記録の閉鎖等,0,2023-07-25,2023-07-20,株式会社セレクトスタッフ,,株式会社,福岡県,北九州市八幡東区,中央１丁目１番１０号セレクトスタッフビル,,40,108,8050019,,,2023-07-20,合併による解散等,3180001115628,令和５年７月１日名古屋市中村区名駅南一丁目２４番３０号株式会社ＰＥＯ（3180001115628）に合併し解散,2015-10-05,1,,,,,セレクトスタッフ,0
2263,9370001042343,登記記録の閉鎖等,0,2023-07-25,2023-07-14,ｐｌａｙｉｎｇ株式会社,,株式会社,宮城県,仙台市青葉区,国分町３丁目１０－２４－２０５,,04,101,9800803,,,2023-07-14,清算の結了等,,,2017-11-27,1,,,,,,0
2269,9400502001158,登記記録の閉鎖等,0,2023-07-25,2023-07-05,有限会社東北かねつテック,,有限会社,岩手県,一関市,青葉２丁目１番１２号,,03,209,0210031,,,2023-07-05,清算の結了等,,,2015-10-05,1,,,,,トウホクカネツテック,0
2279,9470002006980,登記記録の閉鎖等,0,2023-07-25,2023-07-18,森製箸有限会社,00005345,有限会社,香川県,高松市,東植田町４５番地,,37,201,7610446,,,2023-07-18,清算の結了等,,,2015-10-05,1,,,,,モリセイハシ,0
2281,9470005000551,登記記録の閉鎖等,0,2023-07-25,2023-07-18,医療法人社団木村耳鼻咽喉科医院,,その他の設立登記法人,香川県,高松市,太田上町４２０番地１,,37,201,7618074,,,2023-07-18,清算の結了等,,,2015-10-05,1,,,,,キムラジビインコウカイイン,0
