sequenceNumber,corporateNumber,process,correct,updateDate,changeDate,name,nameImageId,kind,prefectureName,cityName,streetNumber,addressImageId,prefectureCode,cityCode,postCode,addressOutside,addressOutsideImageId,closeDate,closeCause,successorCorporateNumber,changeCause,assignmentDate,latest,enName,enPrefectureName,enCityName,enAddressOutside,furigana,hihyoji
5,1010001222780,新規,0,2021-11-26,2021-11-26,株式会社ベルモナット,,株式会社,東京都,文京区,湯島３丁目３３番４号５０１,,13,105,1130034,,,,,,,2021-11-26,1,,,,,ベルモナット,0
6,1010001222797,新規,0,2021-11-26,2021-11-26,ＮＹＣ株式会社,,株式会社,東京都,中央区,東日本橋２丁目２８番４号日本橋ＣＥＴビル２階,,13,102,1030004,,,,,,,2021-11-26,1,,,,,エヌワイシー,0
7,1010001222806,新規,0,2021-11-26,2021-11-26,株式会社イーストブリア,,株式会社,東京都,中央区,銀座１丁目１２－４Ｎ＆Ｅ．ＢＬＤ．７階,,13,102,1040061,,,,,,,2021-11-26,1,,,,,イーストブリア,0
10,1010003036386,新規,0,2021-11-26,2021-11-26,カンテイヤマチ合同会社,,合同会社,東京都,千代田区,九段北１丁目９番５号朝日九段マンション１３０１,,13,101,1020073,,,,,,,2021-11-26,1,,,,,カンテイヤマチ,0
11,1010003036394,新規,0,2021-11-26,2021-11-26,合同会社ＹＫＳｈｉｎ,,合同会社,東京都,中央区,日本橋蛎殻町１丁目３２番８号１Ｆ,,13,102,1030014,,,,,,,2021-11-26,1,,,,,ワイケーシン,0
17,1010401163996,新規,0,2021-11-26,2021-11-26,株式会社ｂａｃｋｄｏｏｒ,,株式会社,東京都,港区,北青山３丁目５番１７Ｒ＆Ｍ４０２号,,13,103,1070061,,,,,,,2021-11-26,1,,,,,バックドア,0
18,1010401164061,新規,0,2021-11-26,2021-11-26,クライオピーディーピー株式会社,,株式会社,東京都,港区,元麻布３丁目１番６号,,13,103,1060046,,,,,,,2021-11-26,1,,,,,クライオピーディーピー,0
20,1010403026540,新規,0,2021-11-26,2021-11-26,合同会社Ｈエナジー玉名発電所,,合同会社,東京都,港区,西新橋３丁目２４番８号山内ビル４階,,13,103,1050003,,,,,,,2021-11-26,1,,,,,エイチエナジータマナハツデンショ,0
21,1010403026581,新規,0,2021-11-26,2021-11-26,ＳＦＧ合同会社,,合同会社,東京都,港区,北青山２丁目１２番８号ＢＩＺＳＭＡＲＴ青山,,13,103,1070061,,,,,,,2021-11-26,1,,,,,エスエフジー,0
22,1010405020467,新規,0,2021-11-26,2021-11-26,一般社団法人Ｇｌｏｂａｌ　Ｐａｔｅｎｔ　Ｒｅｓｅａｒｃｈ,,その他の設立登記法人,東京都,港区,西新橋３丁目５番２号,,13,103,1050003,,,,,,,2021-11-26,1,,,,,グローバルパテントリサーチ,0
27,1010701041844,新規,0,2021-11-26,2021-11-26,株式会社ルディタペス,,株式会社,東京都,品川区,上大崎２丁目３番３０－３０６号,,13,109,1410021,,,,,,,2021-11-26,1,,,,,ルディタペス,0
30,1010801032520,新規,0,2021-11-26,2021-11-26,株式会社キーパーク泉中央,,株式会社,東京都,大田区,蒲田３丁目１７番１２号束田ビル２０２,,13,111,1440052,,,,,,,2021-11-26,1,,,,,キーパークイズミチュウオウ,0
43,1010901049877,新規,0,2021-11-26,2021-11-26,株式会社ＶＥＬＶＥＴＳ,,株式会社,東京都,世田谷区,北沢３丁目２６番３号,,13,112,1550031,,,,,,,2021-11-26,1,,,,,ヴェルヴェッツ,0
46,1011001144073,新規,0,2021-11-26,2021-11-26,株式会社アクアエージェンシー,,株式会社,東京都,渋谷区,本町４丁目２２番１０－７２４号,,13,113,1510071,,,,,,,2021-11-26,1,,,,,アクアエージェンシー,0
47,1011001144230,新規,0,2021-11-26,2021-11-26,株式会社ＳｕｎｎｙＳｃｅｎｔ,,株式会社,東京都,渋谷区,渋谷２丁目１９番１５号宮益坂ビルディング６０９,,13,113,1500002,,,,,,,2021-11-26,1,,,,,サニーセント,0
51,1011101097048,新規,0,2021-11-26,2021-11-26,株式会社かど平,,株式会社,東京都,新宿区,歌舞伎町２丁目３１番３号,,13,104,1600021,,,,,,,2021-11-26,1,,,,,カドヘイ,0
55,1011203003705,新規,0,2021-11-26,2021-11-26,Ｎ＆Ｋアドバンス合同会社,,合同会社,東京都,中野区,鷺宮５丁目１４番１５号,,13,114,1650032,,,,,,,2021-11-26,1,,,,,エヌアンドケーアドバンス,0
57,1011401023868,新規,0,2021-11-26,2021-11-26,株式会社ＯＦＦＩＣＥ　ＫＵＫＵＲＵ,,株式会社,東京都,板橋区,成増１丁目４－１０,,13,119,1750094,,,,,,,2021-11-26,1,,,,,オフィスククル,0
63,1011601025557,新規,0,2021-11-26,2021-11-26,株式会社怜徳,,株式会社,東京都,練馬区,関町北２丁目２８番１２号,,13,120,1770051,,,,,,,2021-11-26,1,,,,,レイトク,0
68,1011801040001,新規,0,2021-11-26,2021-11-26,株式会社ラッキーローズ,,株式会社,東京都,足立区,扇２丁目３番５号,,13,121,1230873,,,,,,,2021-11-26,1,,,,,ラッキーローズ,0
75,1012401038575,新規,0,2021-11-26,2021-11-26,株式会社ＬＵＳＨ,,株式会社,東京都,調布市,多摩川５丁目２３番地１１カメリア調布３０３,,13,208,1820025,,,,,,,2021-11-26,1,,,,,ラッシュ,0
76,1012405004672,新規,0,2021-11-26,2021-11-26,一般社団法人日本建物家屋損害調査協会,,その他の設立登記法人,東京都,狛江市,和泉本町１丁目７番１９号,,13,219,2010003,,,,,,,2021-11-26,1,,,,,ニホンタテモノカオクソンガイチョウサキョウカイ,0
84,1020001144025,新規,0,2021-11-26,2021-11-26,プアレナ製薬株式会社,,株式会社,神奈川県,横浜市神奈川区,鶴屋町３丁目３０番地５,,14,102,2210835,,,,,,,2021-11-26,1,,,,,プアレナセイヤク,0
85,1020001144066,新規,0,2021-11-26,2021-11-26,株式会社ケイツーワン,,株式会社,神奈川県,川崎市中原区,小杉町３丁目６００番地ＭＩＤＰＯＩＮＴ武蔵小杉１－１９,,14,133,2110063,,,,,,,2021-11-26,1,,,,,ケイツーワン,0
86,1020001144082,新規,0,2021-11-26,2021-11-26,株式会社ＡｓｋＴｅｌｌ,,株式会社,神奈川県,川崎市宮前区,菅生１丁目１２番１８号,,14,136,2160015,,,,,,,2021-11-26,1,,,,,アスクテル,0
106,1021005012358,新規,0,2021-11-26,2021-11-26,税理士法人バイオレット,,その他の設立登記法人,神奈川県,相模原市南区,古淵６丁目６番１６号,,14,153,2520344,,,,,,,2021-11-26,1,,,,,バイオレット,0
111,1030001145518,新規,0,2021-11-26,2021-11-26,株式会社ＲＥＢＯＲＮ,,株式会社,埼玉県,戸田市,下戸田１丁目１５番１４号,,11,224,3350011,,,,,,,2021-11-26,1,,,,,リボーン,0
112,1030001145534,新規,0,2021-11-26,2021-11-26,株式会社ｃｏｎａｃｏｎａ,,株式会社,埼玉県,さいたま市浦和区,高砂２丁目３－５Ｌ’Ａｒｔｅ１０２,,11,107,3300063,,,,,,,2021-11-26,1,,,,,コナコナ,0
113,1030001145567,新規,0,2021-11-26,2021-11-26,株式会社タンザナイト,,株式会社,埼玉県,さいたま市南区,白幡４丁目１９番１－３０６号,,11,108,3360022,,,,,,,2021-11-26,1,,,,,タンザナイト,0
117,1030003018390,新規,0,2021-11-26,2021-11-26,合同会社アサヒ総合研究所,,合同会社,埼玉県,新座市,栄２丁目４番２６号,,11,230,3520014,,,,,,,2021-11-26,1,,,,,アサヒソウゴウケンキュウジョ,0
120,1050001050204,新規,0,2021-11-26,2021-11-26,株式会社日本アクアエンジニアリング新潟,,株式会社,茨城県,古河市,中田２４１７番地５,,08,204,3060053,,,,,,,2021-11-26,1,,,,,ニホンアクアエンジニアリングニイガタ,0
124,1060001034321,新規,0,2021-11-26,2021-11-26,株式会社ＡＢＩＮＴＥＲＮＡＴＩＯＮＡＬ,,株式会社,栃木県,栃木市,藤岡町藤岡１０番地,,09,203,3231104,,,,,,,2021-11-26,1,,,,,エービーインターナショナル,0
128,1070001038684,新規,0,2021-11-26,2021-11-26,株式会社ＬＥＡＰ．,,株式会社,群馬県,太田市,東金井町２５３番地２０,,10,205,3730022,,,,,,,2021-11-26,1,,,,,リープ,0
132,1080403004416,新規,0,2021-11-26,2021-11-26,合同会社銀の手,,合同会社,静岡県,袋井市,豊沢１０３１番地の７,,22,216,4370032,,,,,,,2021-11-26,1,,,,,ギンノテ,0
134,1090001017298,新規,0,2021-11-26,2021-11-26,ＹＳ工業株式会社,,株式会社,山梨県,南アルプス市,荊沢１９９番地６,,19,208,4000422,,,,,,,2021-11-26,1,,,,,ワイエスコウギョウ,0
149,1120001242099,新規,0,2021-11-26,2021-11-26,株式会社オフィス・カワグチ,,株式会社,大阪府,大阪市中央区,島町１丁目４番９号,,27,128,5400034,,,,,,,2021-11-26,1,,,,,オフィスカワグチ,0
150,1120001242108,新規,0,2021-11-26,2021-11-26,イクシィホールディングス株式会社,,株式会社,大阪府,大阪市西区,南堀江１丁目１５番９号南堀江コレット６０１号室,,27,106,5500015,,,,,,,2021-11-26,1,,,,,イクシィホールディングス,0
155,1120003020668,新規,0,2021-11-26,2021-11-26,合同会社レクソル,,合同会社,大阪府,大阪市東住吉区,駒川４丁目５番６号エンプラスビル２階,,27,121,5460043,,,,,,,2021-11-26,1,,,,,レクソル,0
162,1120901045254,新規,0,2021-11-26,2021-11-26,株式会社タヒショー,,株式会社,大阪府,三島郡島本町,山崎３丁目３番１号,,27,301,6180001,,,,,,,2021-11-26,1,,,,,タヒショー,0
163,1120901045262,新規,0,2021-11-26,2021-11-26,株式会社ＮＥＸＵＳ,,株式会社,大阪府,豊中市,大島町２丁目２番２４号１０１号,,27,203,5610824,,,,,,,2021-11-26,1,,,,,ネクサス,0
164,1120901045270,新規,0,2021-11-26,2021-11-26,株式会社ｗｅｌｊｏｙ,,株式会社,大阪府,茨木市,南春日丘６丁目５番１７号,,27,211,5670046,,,,,,,2021-11-26,1,,,,,ウェルジョイ,0
166,1130001070615,新規,0,2021-11-26,2021-11-26,ＣＲＥＯ株式会社,,株式会社,京都府,京都市左京区,北白川大堂町５番地,,26,103,6068274,,,,,,,2021-11-26,1,,,,,クレオ,0
169,1140003017019,新規,0,2021-11-26,2021-11-26,合同会社グラヴィティデザインスタジオ,,合同会社,兵庫県,姫路市,南町６３番地ミツワビル１Ｆ,,28,201,6700912,,,,,,,2021-11-26,1,,,,,グラヴィティデザインスタジオ,0
170,1140005025903,新規,0,2021-11-26,2021-11-26,特定非営利活動法人ニューハリマ,,その他の設立登記法人,兵庫県,加古郡播磨町,北本荘７丁目２番３１号,,28,382,6750144,,,,,,,2021-11-26,1,,,,,ニューハリマ,0
171,1160001023834,新規,0,2021-11-26,2021-11-26,株式会社きたそうリフォーム,,株式会社,滋賀県,守山市,勝部４丁目３番２０,,25,207,5240041,,,,,,,2021-11-26,1,,,,,キタソウリフォーム,0
175,1180001148877,新規,0,2021-11-26,2021-11-26,株式会社オギスエレクトリック,,株式会社,愛知県,半田市,花園町１丁目２０番地の２５,,23,205,4750833,,,,,,,2021-11-26,1,,,,,オギスエレクトリック,0
176,1180301035668,新規,0,2021-11-26,2021-11-26,株式会社ニットーデザイン．,,株式会社,愛知県,岡崎市,大平町字西田潰１５番地１,,23,202,4440007,,,,,,,2021-11-26,1,,,,,ニットーデザイン,0
191,1230001019115,新規,0,2021-11-26,2021-11-26,株式会社金剛商事,,株式会社,富山県,中新川郡立山町,上金剛寺５６０番地１,,16,323,9300233,,,,,,,2021-11-26,1,,,,,コンゴウショウジ,0
193,1230003001764,新規,0,2021-11-26,2021-11-26,合同会社ウィンズ,,合同会社,富山県,高岡市,木津４３９番地１４,,16,202,9330857,,,,,,,2021-11-26,1,,,,,ウィンズ,0
196,1240001058979,新規,0,2021-11-26,2021-11-26,シレックス・ジャパン株式会社,,株式会社,広島県,広島市安佐北区,安佐町飯室６３６２番地２,,34,106,7391700,,,,,,,2021-11-26,1,,,,,シレックスジャパン,0
200,1240003005384,新規,0,2021-11-26,2021-11-26,合同会社Ｂｏｎ‐Ｓｅｎｓ,,合同会社,広島県,広島市西区,古江東町二丁目２番２４号２０１,,34,104,7330872,,,,,,,2021-11-26,1,,,,,ボンサンス,0
205,1260001036248,新規,0,2021-11-26,2021-11-26,株式会社ぽすとめいとホールディングス,,株式会社,岡山県,岡山市北区,厚生町３丁目１番１５号岡山商工会議所２階,,33,101,7000985,,,,,,,2021-11-26,1,,,,,,0
208,1290001095547,新規,0,2021-11-26,2021-11-26,株式会社ＡＲＡＴＡ,,株式会社,福岡県,太宰府市,水城３丁目３番２０号,,40,221,8180131,,,,,,,2021-11-26,1,,,,,アラタ,0
213,1290801028029,新規,0,2021-11-26,2021-11-26,株式会社Ｆ企画,,株式会社,福岡県,北九州市戸畑区,新川町６番１０号,,40,105,8040065,,,,,,,2021-11-26,1,,,,,エフキカク,0
226,1320005009945,新規,0,2021-11-26,2021-11-26,医療法人弘和会,,その他の設立登記法人,大分県,大分市,大字猪野８２２番地の１,,44,201,8700134,,,,,,,2021-11-26,1,,,,,コウワカイ,0
227,1330001029228,新規,0,2021-11-26,2021-11-26,株式会社イリッタ,,株式会社,熊本県,宇土市,三拾町２２７番地,,43,211,8690406,,,,,,,2021-11-26,1,,,,,イリッタ,0
230,1330003009145,新規,0,2021-11-26,2021-11-26,合同会社ＳＴ　Ｂｒｏｔｈｅｒｓ,,合同会社,熊本県,熊本市中央区,鍛冶屋町１５番地１,,43,101,8600026,,,,,,,2021-11-26,1,,,,,エスティーブラザーズ,0
233,1360001029679,新規,0,2021-11-26,2021-11-26,株式会社ＥａｒｔｈＲｅｃｏｒｄＪａｐａｎ,,株式会社,沖縄県,名護市,東江４丁目７番１１号１階,,47,209,9050021,,,,,,,2021-11-26,1,,,,,アースレコードジャパン,0
238,1390001016690,新規,0,2021-11-26,2021-11-26,株式会社Ｓ＆Ｅ,,株式会社,山形県,山形市,南原町２丁目５番６２－８号コーポ鈴木２０３,,06,201,9902413,,,,,,,2021-11-26,1,,,,,エスアンドイー,0
246,1430001085442,新規,0,2021-11-26,2021-11-26,株式会社ＭＲ,,株式会社,北海道,千歳市,みどり台南４丁目８番２号ボナチーアＩＩＩ２０３号,00124965,01,224,0660084,,,,,,,2021-11-26,1,,,,,エムアール,0
247,1430001085450,新規,0,2021-11-26,2021-11-26,株式会社北海道デザインファクトリー,,株式会社,北海道,札幌市中央区,南一条西１６丁目１番地３２３春野ビル３Ｆ,,01,101,0600061,,,,,,,2021-11-26,1,,,,,ホッカイドウデザインファクトリー,0
249,1430003013401,新規,0,2021-11-26,2021-11-26,合同会社Ｙ３‐ＡＧＥＮＴ,,合同会社,北海道,札幌市中央区,南十条西１４丁目２番３７－１０２号,,01,101,0640810,,,,,,,2021-11-26,1,,,,,ワイスリーエージェント,0
252,1460001005629,新規,0,2021-11-26,2021-11-26,株式会社後藤工業,,株式会社,北海道,釧路市,鳥取南８丁目５番５号コーポウエダ１０１号,,01,206,0840905,,,,,,,2021-11-26,1,,,,,ゴトウコウギョウ,0
259,1500005008433,新規,0,2021-11-26,2021-11-26,医療法人きくち歯科クリニック,,その他の設立登記法人,愛媛県,松山市,安城寺町９６３番地５,,38,201,7918006,,,,,,,2021-11-26,1,,,,,キクチシカクリニック,0
271,2010001222771,新規,0,2021-11-26,2021-11-26,株式会社ＵＤＣ,,株式会社,東京都,千代田区,内神田３丁目１６番４号,,13,101,1010047,,,,,,,2021-11-26,1,,,,,ユーディーシー,0
272,2010001222788,新規,0,2021-11-26,2021-11-26,株式会社ＥＬＩＳＴＡ,,株式会社,東京都,中央区,銀座１丁目１２番４号Ｎ＆ＥＢＬＤ７Ｆ,,13,102,1040061,,,,,,,2021-11-26,1,,,,,エリスタ,0
273,2010001222821,新規,0,2021-11-26,2021-11-26,株式会社Ｇダイニング,,株式会社,東京都,千代田区,有楽町１丁目２番２号,,13,101,1000006,,,,,,,2021-11-26,1,,,,,ジーダイニング,0
278,2010003036385,新規,0,2021-11-26,2021-11-26,ＨＭＨｓ合同会社,,合同会社,東京都,千代田区,東神田１丁目１番３－１３０２号,,13,101,1010031,,,,,,,2021-11-26,1,,,,,エイチエムエイチズ,0
279,2010003036402,新規,0,2021-11-26,2021-11-26,渡邉商店合同会社,,合同会社,東京都,中央区,日本橋富沢町４－１０京成日本橋富沢町ビル,,13,102,1030006,,,,,,,2021-11-26,1,,,,,ワタナベショウテン,0
280,2010003036410,新規,0,2021-11-26,2021-11-26,ＦＰＳ合同会社,,合同会社,東京都,文京区,小日向４丁目５番１０号,,13,105,1120006,,,,,,,2021-11-26,1,,,,,エフピーエス,0
285,2010401164036,新規,0,2021-11-26,2021-11-26,ｆｂｄ株式会社,,株式会社,東京都,港区,虎ノ門１丁目１７番１号虎ノ門ヒルズビジネスタワー１５階,,13,103,1050001,,,,,,,2021-11-26,1,,,,,エフビーディー,0
286,2010401164044,新規,0,2021-11-26,2021-11-26,株式会社平栗商店,,株式会社,東京都,港区,麻布十番１丁目８－１１,,13,103,1060045,,,,,,,2021-11-26,1,,,,,ヒラグリショウテン,0
287,2010401164052,新規,0,2021-11-26,2021-11-26,株式会社ガジュマル,,株式会社,東京都,港区,浜松町２丁目２－１５浜松町ダイヤビル２Ｆ,,13,103,1050013,,,,,,,2021-11-26,1,,,,,ガジュマル,0
288,2010401164060,新規,0,2021-11-26,2021-11-26,株式会社ＧＧＴＫ,,株式会社,東京都,港区,浜松町１丁目３番２号,,13,103,1050013,,,,,,,2021-11-26,1,,,,,ジージーティーケー,0
291,2010403026606,新規,0,2021-11-26,2021-11-26,合同会社アシスト,,合同会社,東京都,港区,芝２丁目１５番３号－２０４,,13,103,1050014,,,,,,,2021-11-26,1,,,,,アシスト,0
300,2010901049884,新規,0,2021-11-26,2021-11-26,株式会社ホースシュー,,株式会社,東京都,世田谷区,三軒茶屋２丁目１１番２２号,,13,112,1540024,,,,,,,2021-11-26,1,,,,,ホースシュー,0
302,2011001144097,新規,0,2021-11-26,2021-11-26,株式会社Ｄａｉｔｏｋｕ　Ｅｎｔｅｒｔａｉｎｍｅｎｔ,,株式会社,東京都,目黒区,目黒３丁目１１番１２号,,13,110,1530063,,,,,,,2021-11-26,1,,,,,ダイトクエンタテインメント,0
303,2011001144114,新規,0,2021-11-26,2021-11-26,株式会社Ｌｅｅｐｌｕ,,株式会社,東京都,渋谷区,渋谷２丁目１９－１５宮益坂ビルディング６０９,,13,113,1500002,,,,,,,2021-11-26,1,,,,,,0
304,2011001144122,新規,0,2021-11-26,2021-11-26,株式会社１５,,株式会社,東京都,渋谷区,神南１丁目１２－１４星ビル４Ｆ,,13,113,1500041,,,,,,,2021-11-26,1,,,,,フィフティーン,0
306,2011005009313,新規,0,2021-11-26,2021-11-26,一般社団法人Ｔｒｅａｔ　Ｌｉｆｅ　Ｌａｂ協会,,その他の設立登記法人,東京都,渋谷区,本町６丁目２８番２－５１１号,,13,113,1510071,,,,,,,2021-11-26,1,,,,,トリートライフラボキョウカイ,0
309,2011101097006,新規,0,2021-11-26,2021-11-26,株式会社笙館,,株式会社,東京都,新宿区,新宿１丁目３１番３号ダイアパレス新宿一丁目４０７号,,13,104,1600022,,,,,,,2021-11-26,1,,,,,ショウカン,0
310,2011101097022,新規,0,2021-11-26,2021-11-26,株式会社おうち本舗,,株式会社,東京都,新宿区,歌舞伎町１丁目２８－２Ｊ・レックス新宿３Ｆ,,13,104,1600021,,,,,,,2021-11-26,1,,,,,オウチホンポ,0
314,2011203003704,新規,0,2021-11-26,2021-11-26,ドルフィンズ合同会社,,合同会社,東京都,中野区,沼袋４丁目２９番１５号,,13,114,1650025,,,,,,,2021-11-26,1,,,,,ドルフィンズ,0
321,2011401023867,新規,0,2021-11-26,2021-11-26,株式会社Ｒｅｉｎ　Ｆｏｒｃｅ,,株式会社,東京都,板橋区,南町３３番６－２０２号,,13,119,1730027,,,,,,,2021-11-26,1,,,,,リーインフォース,0
322,2011403003512,新規,0,2021-11-26,2021-11-26,合同会社ＮＨＡＴ　ＫＨＡＮＧ,,合同会社,東京都,板橋区,赤塚新町３丁目２５番２２号サンフラワー東山１０２,,13,119,1750093,,,,,,,2021-11-26,1,,,,,ニャットカン,0
323,2011503004988,新規,0,2021-11-26,2021-11-26,合同会社Ｋ＆Ｔ　ｍａｒｋｓ,,合同会社,東京都,北区,田端新町１丁目１１番２号ウィステリア１０１号,,13,117,1140012,,,,,,,2021-11-26,1,,,,,ケイアンドティマークス,0
324,2011601025556,新規,0,2021-11-26,2021-11-26,株式会社ｍｉｒａｋｏ,,株式会社,東京都,練馬区,早宮２丁目２１番７－Ａ棟２号,,13,120,1790085,,,,,,,2021-11-26,1,,,,,ミラコ,0
326,2012403005127,新規,0,2021-11-26,2021-11-26,合同会社百千文庫,,合同会社,東京都,調布市,布田２丁目４０番地１Ｓ７０１,,13,208,1820024,,,,,,,2021-11-26,1,,,,,ヒャクセンブンコ,0
328,2013301048333,新規,0,2021-11-26,2021-11-26,富士Ｔ＆Ｋグループ株式会社,,株式会社,東京都,豊島区,池袋１丁目１５番５号シャルムコート池袋ノースタワー１２０１,,13,116,1700014,,,,,,,2021-11-26,1,,,,,フジティーアンドケイグループ,0
340,2020001143918,新規,0,2021-11-26,2021-11-26,株式会社ＳＫＹ,,株式会社,神奈川県,横浜市西区,浅間町２丁目９９番地２,,14,103,2200072,,,,,,,2021-11-26,1,,,,,スカイ,0
341,2020001144081,新規,0,2021-11-26,2021-11-26,株式会社ＳＡコーポレーション,,株式会社,神奈川県,横浜市神奈川区,立町６番地１,,14,102,2210063,,,,,,,2021-11-26,1,,,,,エスエーコーポレーション,0
346,2020003020867,新規,0,2021-11-26,2021-11-26,ワイエス合同会社,,合同会社,神奈川県,横浜市南区,平楽５８番地１・２階,,14,105,2320035,,,,,,,2021-11-26,1,,,,,ワイエス,0
358,2021005012357,新規,0,2021-11-26,2021-11-26,特定非営利活動法人まるさき福祉会,,その他の設立登記法人,神奈川県,相模原市中央区,上溝１４６４番地６,,14,152,2520243,,,,,,,2021-11-26,1,,,,,マルサキフクシカイ,0
366,2030001145525,新規,0,2021-11-26,2021-11-26,株式会社ノゾミコーポレーション,,株式会社,埼玉県,越谷市,大沢２丁目８番１３－２号,,11,222,3430025,,,,,,,2021-11-26,1,,,,,ノゾミコーポレーション,0
367,2030001145558,新規,0,2021-11-26,2021-11-26,株式会社アールアンドワイ,,株式会社,埼玉県,さいたま市南区,辻６丁目４番１号１１－３０４,00124970,11,108,3360026,,,,,,,2021-11-26,1,,,,,アールアンドワイ,0
368,2030001145566,新規,0,2021-11-26,2021-11-26,株式会社リゾナラ,,株式会社,埼玉県,さいたま市桜区,西堀２丁目１６番２７－２号,,11,106,3380832,,,,,,,2021-11-26,1,,,,,リゾナラ,0
374,2030003018373,新規,0,2021-11-26,2021-11-26,ＺｅｒｏＩｃｈｉ合同会社,,合同会社,埼玉県,坂戸市,関間４丁目１番２号,,11,239,3500215,,,,,,,2021-11-26,1,,,,,ゼロイチ,0
375,2030003018381,新規,0,2021-11-26,2021-11-26,合同会社かのん動物病院,,合同会社,埼玉県,さいたま市中央区,下落合６丁目１４番７号,,11,105,3380002,,,,,,,2021-11-26,1,,,,,カノンドウブツビョウイン,0
380,2040001121104,新規,0,2021-11-26,2021-11-26,カズ株式会社,,株式会社,千葉県,松戸市,幸田３丁目１５５番地の３,,12,207,2700001,,,,,,,2021-11-26,1,,,,,カズ,0
389,2040005021440,新規,0,2021-11-26,2021-11-26,一般社団法人積田,,その他の設立登記法人,千葉県,市川市,菅野４丁目８番１号,,12,203,2720824,,,,,,,2021-11-26,1,,,,,ツミタ,0
393,2050001050194,新規,0,2021-11-26,2021-11-26,ＰＲＯＧＲＥＳＳ株式会社,,株式会社,茨城県,つくば市,古来１４６２番地３,,08,220,3050021,,,,,,,2021-11-26,1,,,,,プログレス,0
394,2050001050211,新規,0,2021-11-26,2021-11-26,株式会社インテリア・ユウ,,株式会社,茨城県,つくば市,茎崎４２１番地３３,,08,220,3001272,,,,,,,2021-11-26,1,,,,,インテリアユウ,0
402,2080003002686,新規,0,2021-11-26,2021-11-26,合同会社ＬｉＫＥ　ＦａＲＭ,,合同会社,静岡県,島田市,井口９４５番地,,22,209,4270104,,,,,,,2021-11-26,1,,,,,ライクファーム,0
427,2120001242049,新規,0,2021-11-26,2021-11-26,ＳｕｎＬｕｃｋｙ株式会社,,株式会社,大阪府,大阪市西淀川区,柏里２丁目１番８－４０３号,,27,113,5550022,,,,,,,2021-11-26,1,,,,,サンラッキー,0
428,2120001242115,新規,0,2021-11-26,2021-11-26,株式会社ＦＩＮＺ,,株式会社,大阪府,大阪市中央区,淡路町３丁目６番３号Ｂ１Ｆ,,27,128,5410047,,,,,,,2021-11-26,1,,,,,ファインズ,0
431,2120003020642,新規,0,2021-11-26,2021-11-26,藤本通信合同会社,,合同会社,大阪府,大阪市東住吉区,湯里４丁目７番２４－６０３号,,27,121,5460013,,,,,,,2021-11-26,1,,,,,フジモトツウシン,0
433,2120101064698,新規,0,2021-11-26,2021-11-26,伸光株式会社,,株式会社,大阪府,和泉市,王子町２丁目１１番３９号,,27,219,5940004,,,,,,,2021-11-26,1,,,,,シンコウ,0
437,2120103004454,新規,0,2021-11-26,2021-11-26,合同会社アミティ,,合同会社,大阪府,岸和田市,別所町２丁目１９番１７号,,27,202,5960045,,,,,,,2021-11-26,1,,,,,アミティ,0
438,2120901045253,新規,0,2021-11-26,2021-11-26,株式会社藤井工業,,株式会社,大阪府,吹田市,藤が丘町２９番１１号,,27,205,5640081,,,,,,,2021-11-26,1,,,,,フジイコウギョウ,0
439,2120901045261,新規,0,2021-11-26,2021-11-26,株式会社クオリティライフ,,株式会社,大阪府,箕面市,小野原東６丁目９番２３号,,27,220,5620031,,,,,,,2021-11-26,1,,,,,クオリティライフ,0
451,2140001123965,新規,0,2021-11-26,2021-11-26,株式会社ラルゴ,,株式会社,兵庫県,神戸市灘区,山田町３丁目１番１８号,,28,102,6570064,,,,,,,2021-11-26,1,,,,,ラルゴ,0
452,2140001123998,新規,0,2021-11-26,2021-11-26,株式会社神戸カイトリサイクル,,株式会社,兵庫県,神戸市長田区,東尻池町１丁目１０番１９号,,28,106,6530022,,,,,,,2021-11-26,1,,,,,コウベカイトリサイクル,0
453,2140003016977,新規,0,2021-11-26,2021-11-26,合同会社佐藤高商店,,合同会社,兵庫県,神戸市東灘区,森南町１丁目３－１－３０４号,,28,101,6580011,,,,,,,2021-11-26,1,,,,,サトウタカショウテン,0
454,2140003017018,新規,0,2021-11-26,2021-11-26,合同会社ＦＴメンテナンス,,合同会社,兵庫県,姫路市,青山北３丁目１１番３０－４０６号,,28,201,6712221,,,,,,,2021-11-26,1,,,,,エフティメンテナンス,0
455,2140005025902,新規,0,2021-11-26,2021-11-26,医療法人社団佑仁会ＫＳ歯科,,その他の設立登記法人,兵庫県,姫路市,岡田２５３番地１,,28,201,6700982,,,,,,,2021-11-26,1,,,,,ユウジンカイケイエスシカ,0
462,2170001016877,新規,0,2021-11-26,2021-11-26,上田建築株式会社,,株式会社,和歌山県,有田郡湯浅町,大字山田１３９８番地,,30,361,6430001,,,,,,,2021-11-26,1,,,,,ウエダケンチク,0
471,2180301035667,新規,0,2021-11-26,2021-11-26,株式会社ベル,,株式会社,愛知県,豊橋市,花田町字石塚８２番地２,,23,201,4400075,,,,,,,2021-11-26,1,,,,,ベル,0
490,2290001095538,新規,0,2021-11-26,2021-11-26,株式会社Ｅｔｅｒｎａｌ　Ｉｎｆｉｎｉｔｙ,,株式会社,福岡県,筑紫野市,塔原西２丁目１８番８号,,40,217,8180073,,,,,,,2021-11-26,1,,,,,エターナルインフィニティ,0
491,2290001095562,新規,0,2021-11-26,2021-11-26,株式会社Ｓｅａｓｏｎ,,株式会社,福岡県,福岡市中央区,春吉３丁目２１番１８－４０４号,,40,133,8100003,,,,,,,2021-11-26,1,,,,,シーズン,0
494,2290003011872,新規,0,2021-11-26,2021-11-26,合同会社蓮家,,合同会社,福岡県,福岡市博多区,住吉１丁目６番１３号コーポラス本浦３０２号,,40,132,8120018,,,,,,,2021-11-26,1,,,,,レンヤ,0
498,2300001012722,新規,0,2021-11-26,2021-11-26,株式会社トルゲイト,,株式会社,佐賀県,佐賀市,兵庫北２丁目１７番７号,,41,201,8490919,,,,,,,2021-11-26,1,,,,,トルゲイト,0
501,2330001029227,新規,0,2021-11-26,2021-11-26,株式会社ウォールハッル,,株式会社,熊本県,熊本市北区,清水岩倉２丁目１８番１８号,,43,105,8618084,,,,,,,2021-11-26,1,,,,,,0
508,2360001029686,新規,0,2021-11-26,2021-11-26,株式会社Ｂ．Ｎ　ＯＫＩＮＡＷＡ,,株式会社,沖縄県,豊見城市,字真玉橋１９０番地３友アパート１０１,,47,212,9010201,,,,,,,2021-11-26,1,,,,,ビーエヌオキナワ,0
515,2380001032366,新規,0,2021-11-26,2021-11-26,株式会社ナノクラフト,,株式会社,福島県,郡山市,並木３丁目６番地の１１,,07,203,9638026,,,,,,,2021-11-26,1,,,,,ナノクラフト,0
536,2500005008432,新規,0,2021-11-26,2021-11-26,医療法人松岡婦人科クリニック,,その他の設立登記法人,愛媛県,松山市,樽味２丁目８番３０号,,38,201,7900905,,,,,,,2021-11-26,1,,,,,マツオカフジンカクリニック,0
549,3010001222762,新規,0,2021-11-26,2021-11-26,双日モリノミライ株式会社,,株式会社,東京都,千代田区,内幸町２丁目１番１号,,13,101,1000011,,,,,,,2021-11-26,1,,,,,ソウジツモリノミライ,0
550,3010001222787,新規,0,2021-11-26,2021-11-26,ｔｉｋｗａｙ株式会社,,株式会社,東京都,中央区,日本橋本町４丁目３番地２－９０４,,13,102,1030023,,,,,,,2021-11-26,1,,,,,ティックウェイ,0
551,3010001222804,新規,0,2021-11-26,2021-11-26,株式会社日本政策総研,,株式会社,東京都,中央区,銀座１丁目２２番１１号銀座大竹ビジデンス２階,,13,102,1040061,,,,,,,2021-11-26,1,,,,,ニホンセイサクソウケン,0
552,3010001222820,新規,0,2021-11-26,2021-11-26,ジャパンヘルスケアセールス株式会社,,株式会社,東京都,中央区,日本橋蛎殻町１丁目３６番２号共和ビル４階,,13,102,1030014,,,,,,,2021-11-26,1,,,,,ジャパンヘルスケアセールス,0
553,3010001222837,新規,0,2021-11-26,2021-11-26,株式会社ＷＡＴＡＮＡＢＥ　ＨＯＬＭＥ’Ｓ,,株式会社,東京都,千代田区,外神田５丁目２番５号,,13,101,1010021,,,,,,,2021-11-26,1,,,,,ワタナベホームズ,0
554,3010001222845,新規,0,2021-11-26,2021-11-26,株式会社ひらく,,株式会社,東京都,中央区,日本橋茅場町２丁目９番５号日進ビル２Ｆ,,13,102,1030025,,,,,,,2021-11-26,1,,,,,ヒラク,0
559,3010003036384,新規,0,2021-11-26,2021-11-26,アクティブリーシング１２号合同会社,,合同会社,東京都,千代田区,麹町４丁目７番２号Ｄａｉｗａ麹町４丁目ビル８階,,13,101,1020083,,,,,,,2021-11-26,1,,,,,アクティブリーシングジュウニゴウ,0
566,3010401163862,新規,0,2021-11-26,2021-11-26,サン共同フードサービス株式会社,,株式会社,東京都,港区,南青山１丁目１番１号新青山ビル東館１５階,,13,103,1070062,,,,,,,2021-11-26,1,,,,,サンキョウドウフードサービス,0
567,3010401164002,新規,0,2021-11-26,2021-11-26,三藤株式会社,,株式会社,東京都,港区,浜松町２丁目２番１５号浜松町ダイヤビル２Ｆ,,13,103,1050013,,,,,,,2021-11-26,1,,,,,ミトウ,0
568,3010401164010,新規,0,2021-11-26,2021-11-26,株式会社ＴＡＳＫ　ＴＯＫＹＯ,,株式会社,東京都,港区,白金台２丁目１２番１８号グリド白金台１０１号室,,13,103,1080071,,,,,,,2021-11-26,1,,,,,タスクトーキョー,0
569,3010401164035,新規,0,2021-11-26,2021-11-26,株式会社Ｓｈｅｌｂｙ,,株式会社,東京都,港区,南麻布２丁目５番１４号,,13,103,1060047,,,,,,,2021-11-26,1,,,,,シェルビー,0
570,3010401164051,新規,0,2021-11-26,2021-11-26,株式会社らかんか,,株式会社,東京都,港区,南青山７丁目１２番３１号,,13,103,1070062,,,,,,,2021-11-26,1,,,,,ラカンカ,0
571,3010401164068,新規,0,2021-11-26,2021-11-26,株式会社オヘー・ダジャン,,株式会社,東京都,港区,六本木３丁目４番８号,,13,103,1060032,,,,,,,2021-11-26,1,,,,,オヘーダジャン,0
572,3010401164084,新規,0,2021-11-26,2021-11-26,株式会社ギブアンドギブ,,株式会社,東京都,港区,芝浦３丁目６－７,,13,103,1080023,,,,,,,2021-11-26,1,,,,,ギブアンドギブ,0
573,3010403026596,新規,0,2021-11-26,2021-11-26,Ｆｒｅｅｒａ合同会社,,合同会社,東京都,港区,東麻布２丁目１１－１２,,13,103,1060044,,,,,,,2021-11-26,1,,,,,フリーラ,0
574,3010403026605,新規,0,2021-11-26,2021-11-26,合同会社Ｒｉｓｉｎｇ,,合同会社,東京都,港区,浜松町２丁目２番１５号浜松町ダイヤビル２Ｆ,,13,103,1050013,,,,,,,2021-11-26,1,,,,,ライジング,0
575,3010403026613,新規,0,2021-11-26,2021-11-26,Ｇｌｏｂａｌ　Ｐａｔｅｎｔ　Ｒｅｓｅａｒｃｈ合同会社,,合同会社,東京都,港区,西新橋３丁目５番２号,,13,103,1050003,,,,,,,2021-11-26,1,,,,,グローバルパテントリサーチ,0
576,3010405020473,新規,0,2021-11-26,2021-11-26,ジー・ジェイ・レジデンス・セブン特定目的会社,,その他の設立登記法人,東京都,港区,虎ノ門４丁目３番１号城山トラストタワー２７階ＳａｎｎｅＧｒｏｕｐＪａｐａｎ株式会社内,,13,103,1050001,,,,,,,2021-11-26,1,,,,,ジージェイレジデンスセブン,0
580,3010701041842,新規,0,2021-11-26,2021-11-26,株式会社Ｏｎｅ－Ｍｅｄｉｃａｌ,,株式会社,東京都,品川区,東品川３丁目２２番２０－３１７号,,13,109,1400002,,,,,,,2021-11-26,1,,,,,ワンメディカル,0
590,3010903006965,新規,0,2021-11-26,2021-11-26,合同会社Ｃａｃｔｕｓ,,合同会社,東京都,世田谷区,世田谷３丁目１４番１４号ＡＳ１０２,,13,112,1540017,,,,,,,2021-11-26,1,,,,,カクタス,0
601,3011001144113,新規,0,2021-11-26,2021-11-26,株式会社ＭＴＹ,,株式会社,東京都,渋谷区,神宮前４丁目１４番１７号表参道Ｋ１－２０２,,13,113,1500001,,,,,,,2021-11-26,1,,,,,,0
602,3011001144162,新規,0,2021-11-26,2021-11-26,株式会社ｂｏｎ,,株式会社,東京都,渋谷区,笹塚３丁目４６－７,,13,113,1510073,,,,,,,2021-11-26,1,,,,,ボン,0
605,3011003013745,新規,0,2021-11-26,2021-11-26,ｓｔｕｄｉｏ　ｉｏｔａ合同会社,,合同会社,東京都,目黒区,目黒２丁目３番１－２０１号,,13,110,1530063,,,,,,,2021-11-26,1,,,,,スタジオイオタ,0
606,3011005009312,新規,0,2021-11-26,2021-11-26,一般社団法人日本ＢＩＭ協会,,その他の設立登記法人,東京都,渋谷区,恵比寿南３丁目１０番６号２０２号室,,13,113,1500022,,,,,,,2021-11-26,1,,,,,ニホンビムキョウカイ,0
607,3011101097021,新規,0,2021-11-26,2021-11-26,株式会社ぬぬぬ,,株式会社,東京都,新宿区,歌舞伎町１丁目２８－２Ｊ・レックス新宿３Ｆ,,13,104,1600021,,,,,,,2021-11-26,1,,,,,ヌヌヌ,0
608,3011101097054,新規,0,2021-11-26,2021-11-26,Ｕｓｓｉｏ　Ｌａｂ．株式会社,,株式会社,東京都,新宿区,西早稲田１丁目２２番３号,,13,104,1690051,,,,,,,2021-11-26,1,,,,,ウッシオラボ,0
611,3011401023866,新規,0,2021-11-26,2021-11-26,株式会社Ｔ－Ｗｉｌｌ,,株式会社,東京都,板橋区,高島平２丁目２８番４－８２４号,,13,119,1750082,,,,,,,2021-11-26,1,,,,,ティーウィル,0
612,3011501027511,新規,0,2021-11-26,2021-11-26,株式会社ジェー・ワイ・シー,,株式会社,東京都,北区,志茂３丁目４３番１６号,,13,117,1150042,,,,,,,2021-11-26,1,,,,,ジェーワイシー,0
615,3011603003451,新規,0,2021-11-26,2021-11-26,合同会社サリーレ,,合同会社,東京都,練馬区,光が丘３丁目９番３－３０２号,,13,120,1790072,,,,,,,2021-11-26,1,,,,,サリーレ,0
625,3012701016790,新規,0,2021-11-26,2021-11-26,株式会社Ｅｓｔａｔｅ　Ｐｌｕｓ,,株式会社,東京都,東村山市,恩多町２丁目３８番地５２,,13,213,1890011,,,,,,,2021-11-26,1,,,,,エステートプラス,0
646,3030001145508,新規,0,2021-11-26,2021-11-26,信達株式会社,,株式会社,埼玉県,川口市,川口５丁目５番３９－５０２号フェローネ川口クオリス,,11,203,3320015,,,,,,,2021-11-26,1,,,,,シンタツ,0
647,3030001145532,新規,0,2021-11-26,2021-11-26,ＭＡＫＵＡＩグループ株式会社,,株式会社,埼玉県,蓮田市,末広１丁目６番１７号,,11,238,3490124,,,,,,,2021-11-26,1,,,,,マクアイグループ,0
648,3030001145557,新規,0,2021-11-26,2021-11-26,株式会社ｓａｔｉａｒｅ,,株式会社,埼玉県,春日部市,上蛭田２８２番２８号,,11,214,3440046,,,,,,,2021-11-26,1,,,,,サチアレ,0
652,3030003018380,新規,0,2021-11-26,2021-11-26,ＳＭＹＲ合同会社,,合同会社,埼玉県,所沢市,大字牛沼２３４－２クレセントビル１０１,,11,208,3590026,,,,,,,2021-11-26,1,,,,,エスエムワイアール,0
653,3030003018389,新規,0,2021-11-26,2021-11-26,ＨＩＮＯ　ＡＳＩＡ合同会社,,合同会社,埼玉県,さいたま市桜区,大字下大久保１６９９－３ラフィーネ秋ヶ瀬１０３号室,,11,106,3380825,,,,,,,2021-11-26,1,,,,,ヒノアシア,0
664,3040001121136,新規,0,2021-11-26,2021-11-26,株式会社リアレ,,株式会社,千葉県,印西市,小林２７６４番地,,12,231,2701318,,,,,,,2021-11-26,1,,,,,リアレ,0
665,3040001121144,新規,0,2021-11-26,2021-11-26,株式会社星川アセットマネジメント,,株式会社,千葉県,松戸市,松戸１５９１番地浅間台ハイホーム４１２号,,12,207,2710092,,,,,,,2021-11-26,1,,,,,ホシカワアセットマネジメント,0
669,3040003019007,新規,0,2021-11-26,2021-11-26,誠偉合同会社,,合同会社,千葉県,千葉市中央区,祐光２丁目１１番８号,,12,101,2600007,,,,,,,2021-11-26,1,,,,,セイイ,0
679,3070001038690,新規,0,2021-11-26,2021-11-26,株式会社橋本熔接,,株式会社,群馬県,伊勢崎市,堀下町８７番地７,,10,204,3792212,,,,,,,2021-11-26,1,,,,,ハシモトヨウセツ,0
683,3080003002685,新規,0,2021-11-26,2021-11-26,合同会社Ｇａｔ’ｚ,,合同会社,静岡県,静岡市葵区,若松町２１,,22,101,4200006,,,,,,,2021-11-26,1,,,,,ギャッツ,0
690,3090001017296,新規,0,2021-11-26,2021-11-26,建築舎光株式会社,,株式会社,山梨県,南巨摩郡身延町,下山１５４番地１,,19,365,4092522,,,,,,,2021-11-26,1,,,,,ケンチクシャヒカリ,0
691,3100001034843,新規,0,2021-11-26,2021-11-26,株式会社ＳＨＡＫＥ,,株式会社,長野県,塩尻市,大門一番町６番地４号,,20,215,3990736,,,,,,,2021-11-26,1,,,,,シェイク,0
696,3120001242080,新規,0,2021-11-26,2021-11-26,株式会社ＭＡＧＩＣＯ,,株式会社,大阪府,大阪市西区,南堀江１丁目２３番７号,,27,106,5500015,,,,,,,2021-11-26,1,,,,,マジコ,0
697,3120001242089,新規,0,2021-11-26,2021-11-26,株式会社ＧＮ,,株式会社,大阪府,大阪市中央区,東心斎橋２丁目８番２０号新日本畳屋町ビル２階３．４．６号,,27,128,5420083,,,,,,,2021-11-26,1,,,,,ジーエヌ,0
698,3120001242097,新規,0,2021-11-26,2021-11-26,株式会社ＭＯＮＯ,,株式会社,大阪府,大阪市西区,立売堀１丁目６番１５号,,27,106,5500012,,,,,,,2021-11-26,1,,,,,モノ,0
699,3120001242122,新規,0,2021-11-26,2021-11-26,守田デザインラボ株式会社,,株式会社,大阪府,大阪市福島区,福島５丁目１７番２０号,,27,103,5530003,,,,,,,2021-11-26,1,,,,,モリタデザインラボ,0
700,3120003020666,新規,0,2021-11-26,2021-11-26,Ｔ’ｃｏｒｐｏｒａｔｉｏｎ合同会社,,合同会社,大阪府,大阪市阿倍野区,阪南町１丁目３６番２７号,,27,119,5450021,,,,,,,2021-11-26,1,,,,,ティーコーポレーション,0
701,3120003020674,新規,0,2021-11-26,2021-11-26,アトール合同会社,,合同会社,大阪府,大阪市東成区,深江南１丁目１０－１２ハイネスヒガシビル２０５,,27,115,5370002,,,,,,,2021-11-26,1,,,,,アトール,0
709,3120103004453,新規,0,2021-11-26,2021-11-26,合同会社ＢＰ　Ｐａｒａｉｓｏ,,合同会社,大阪府,堺市中区,堀上町７４３番地１３,,27,142,5998261,,,,,,,2021-11-26,1,,,,,ビーピーパライソ,0
711,3120901045269,新規,0,2021-11-26,2021-11-26,株式会社ＫＭ,,株式会社,大阪府,豊中市,浜１丁目２３番３０号,,27,203,5610817,,,,,,,2021-11-26,1,,,,,ケーエム,0
716,3120903003919,新規,0,2021-11-26,2021-11-26,合同会社ＲＳＡ,,合同会社,大阪府,池田市,桃園１丁目１番８号,,27,204,5630045,,,,,,,2021-11-26,1,,,,,アールエスエー,0
720,3122005003590,新規,0,2021-11-26,2021-11-26,一般社団法人ｂａａｍｕ　ｌａｂ．,,その他の設立登記法人,大阪府,東大阪市,御厨６丁目３番２６号,,27,227,5770032,,,,,,,2021-11-26,1,,,,,バアムラボ,0
723,3140001123972,新規,0,2021-11-26,2021-11-26,株式会社正建,,株式会社,兵庫県,尼崎市,西長洲町２丁目３６番２０号２階,,28,202,6600805,,,,,,,2021-11-26,1,,,,,セイケン,0
725,3140003017017,新規,0,2021-11-26,2021-11-26,合同会社トリプルグレイセス,,合同会社,兵庫県,神戸市中央区,磯上通８丁目１番２９号カサベラビルＣ＆Ｍ４０３号室,,28,110,6510086,,,,,,,2021-11-26,1,,,,,トリプルグレイセス,0
726,3140003017033,新規,0,2021-11-26,2021-11-26,合同会社ひかり,,合同会社,兵庫県,朝来市,和田山町白井３０６番地,,28,225,6695220,,,,,,,2021-11-26,1,,,,,ヒカリ,0
733,3160001023832,新規,0,2021-11-26,2021-11-26,株式会社新和精工,,株式会社,滋賀県,甲賀市,甲南町竜法師１１６８,,25,209,5203311,,,,,,,2021-11-26,1,,,,,シンワセイコウ,0
739,3180001148883,新規,0,2021-11-26,2021-11-26,株式会社Ｂｉｚｅｎ　Ｗｏｒｋｓ,,株式会社,愛知県,春日井市,松本町１丁目２番地８,,23,206,4870027,,,,,,,2021-11-26,1,,,,,ビゼンワークス,0
740,3180003023226,新規,0,2021-11-26,2021-11-26,合同会社ＭＨ,,合同会社,愛知県,名古屋市東区,東片端町４９番地正文館ビル７階１号室,,23,102,4610015,,,,,,,2021-11-26,1,,,,,エムエイチ,0
762,3240001058969,新規,0,2021-11-26,2021-11-26,株式会社瀬戸ホールディングス,,株式会社,広島県,呉市,川尻町上畑１０６８番地の４,,34,202,7372632,,,,,,,2021-11-26,1,,,,,セトホールディングス,0
772,3290001095520,新規,0,2021-11-26,2021-11-26,株式会社キュウコウ,,株式会社,福岡県,糟屋郡新宮町,大字上府５９８－２,,40,345,8110117,,,,,,,2021-11-26,1,,,,,キュウコウ,0
773,3290001095537,新規,0,2021-11-26,2021-11-26,株式会社米来,,株式会社,福岡県,福岡市南区,長丘１丁目３番１１－５０３号,,40,134,8150075,,,,,,,2021-11-26,1,,,,,メキ,0
774,3290001095545,新規,0,2021-11-26,2021-11-26,株式会社Ｕｒｕｃ,,株式会社,福岡県,久留米市,安武町安武本１７１４番地２パストラル久留米Ａ棟２０４号,,40,203,8300072,,,,,,,2021-11-26,1,,,,,ユールック,0
775,3290001095553,新規,0,2021-11-26,2021-11-26,株式会社Ｆ‐ＰＬＡＮＴ,,株式会社,福岡県,福岡市中央区,天神２丁目３番１０号天神パインクレスト７１９号,,40,133,8100001,,,,,,,2021-11-26,1,,,,,エフプラント,0
782,3320001018758,新規,0,2021-11-26,2021-11-26,株式会社ｐｒｅｐａｒａ,,株式会社,大分県,大分市,下郡南２丁目６番３－１号,,44,201,8700955,,,,,,,2021-11-26,1,,,,,プレパラ,0
785,3320005009943,新規,0,2021-11-26,2021-11-26,企業組合Ｋｏａ,,その他の設立登記法人,大分県,大分市,大字寒田１５５番地の３８,,44,201,8701123,,,,,,,2021-11-26,1,,,,,コア,0
788,3330001029226,新規,0,2021-11-26,2021-11-26,株式会社ＴｅｎＺ,,株式会社,熊本県,山鹿市,菊鹿町上内田３８２番地２,,43,208,8610414,,,,,,,2021-11-26,1,,,,,テンズ,0
789,3340001024291,新規,0,2021-11-26,2021-11-26,株式会社山元住建,,株式会社,鹿児島県,鹿児島市,和田２丁目５０番１４号,,46,201,8910143,,,,,,,2021-11-26,1,,,,,ヤマモトジュウケン,0
795,3360001029685,新規,0,2021-11-26,2021-11-26,株式会社風の時代,,株式会社,沖縄県,石垣市,字大川２７８番地ＴＡＭＡビルＩＩ２Ｆ２０１号室,00124968,47,207,9070022,,,,,,,2021-11-26,1,,,,,カゼノジダイ,0
796,3360003011591,新規,0,2021-11-26,2021-11-26,合同会社Ｋフィールド,,合同会社,沖縄県,那覇市,首里金城町４丁目６６番地４３,,47,201,9030815,,,,,,,2021-11-26,1,,,,,ケイフィールド,0
799,3380001032365,新規,0,2021-11-26,2021-11-26,株式会社ウィズ,,株式会社,福島県,福島市,花園町１番３１号,,07,201,9608112,,,,,,,2021-11-26,1,,,,,ウィズ,0
808,3430001085432,新規,0,2021-11-26,2021-11-26,北海道クラフトビネガー株式会社,,株式会社,北海道,日高郡新ひだか町,静内御幸町２丁目５番５１号,,01,610,0560017,,,,,,,2021-11-26,1,,,,,ホッカイドウクラフトビネガー,0
821,4010001222753,新規,0,2021-11-26,2021-11-26,Ｂｕｓｔｅｒ　ａｎｄ　Ｐｕｎｃｈ株式会社,,株式会社,東京都,中央区,日本橋室町４丁目３番９号,,13,102,1030022,,,,,,,2021-11-26,1,,,,,バスターアンドパンチ,0
822,4010001222836,新規,0,2021-11-26,2021-11-26,株式会社Ｔｒｉｆｕｓｉｏｎ,,株式会社,東京都,中央区,銀座７丁目１３番６号サガミビル２階,,13,102,1040061,,,,,,,2021-11-26,1,,,,,トリヒュージョン,0
823,4010001222860,新規,0,2021-11-26,2021-11-26,ＦＲＭジャパン・マネジメント株式会社,,株式会社,東京都,中央区,銀座６丁目１４番８号,,13,102,1040061,,,,,,,2021-11-26,1,,,,,エフアールエムジャパンマネジメント,0
824,4010003036409,新規,0,2021-11-26,2021-11-26,ｋｕｕｆｒｅｅｄｅｌｉｇｈｔ合同会社,,合同会社,東京都,中央区,銀座１丁目１２－４Ｎ＆ＥＢＬＤ．７階,,13,102,1040061,,,,,,,2021-11-26,1,,,,,クゥフリーディライト,0
825,4010003036417,新規,0,2021-11-26,2021-11-26,合同会社グリーンゴールド,,合同会社,東京都,中央区,銀座１丁目２２番１１号銀座大竹ビジデンス２階,,13,102,1040061,,,,,,,2021-11-26,1,,,,,グリーンゴールド,0
826,4010003036425,新規,0,2021-11-26,2021-11-26,ＭＯＲＯＳＨＩ合同会社,,合同会社,東京都,千代田区,平河町１丁目６－１５ＵＳビル８階,,13,101,1020093,,,,,,,2021-11-26,1,,,,,ノロシ,0
828,4010005034253,新規,0,2021-11-26,2021-11-26,一般社団法人ＪＩＴＡ,,その他の設立登記法人,東京都,中央区,銀座１丁目８番２１号,,13,102,1040061,,,,,,,2021-11-26,1,,,,,ジータ,0
834,4010401164034,新規,0,2021-11-26,2021-11-26,株式会社ＦＭＫ,,株式会社,東京都,港区,三田３丁目１番２号,,13,103,1080073,,,,,,,2021-11-26,1,,,,,エフエムケー,0
835,4010401164050,新規,0,2021-11-26,2021-11-26,サイバーエデュケーションテクノロジーズ株式会社,,株式会社,東京都,港区,西新橋１丁目１８番６号クロスオフィス内幸町１２０８号室,,13,103,1050003,,,,,,,2021-11-26,1,,,,,サイバーエデュケーションテクノロジーズ,0
836,4010401164059,新規,0,2021-11-26,2021-11-26,バディーズアセット株式会社,,株式会社,東京都,港区,赤坂３丁目１０番２号,,13,103,1070052,,,,,,,2021-11-26,1,,,,,バディーズアセット,0
837,4010401164067,新規,0,2021-11-26,2021-11-26,ＭＪＣ株式会社,,株式会社,東京都,港区,海岸１丁目９番１５－２３０１号,,13,103,1050022,,,,,,,2021-11-26,1,,,,,エムジェイシー,0
841,4010403026595,新規,0,2021-11-26,2021-11-26,合同会社マルヤス酒場新橋,,合同会社,東京都,港区,新橋２丁目１２番８号５Ｆ,,13,103,1050004,,,,,,,2021-11-26,1,,,,,マルヤスサカバシンバシ,0
858,4011001144112,新規,0,2021-11-26,2021-11-26,株式会社ＥＩＭＺ,,株式会社,東京都,目黒区,中町１丁目９番１３号リムテラス目黒祐天寺１０３,,13,110,1530065,,,,,,,2021-11-26,1,,,,,エイムズ,0
862,4011101097020,新規,0,2021-11-26,2021-11-26,株式会社Ｇｉｆｔｅｃｈ,,株式会社,東京都,新宿区,西新宿５丁目２５番１４－９０４号,,13,104,1600023,,,,,,,2021-11-26,1,,,,,ギフテック,0
863,4011103011210,新規,0,2021-11-26,2021-11-26,ＨＹ＆ＢＪ合同会社,,合同会社,東京都,新宿区,北新宿３丁目２２番２号,,13,104,1690074,,,,,,,2021-11-26,1,,,,,エッチワイアンドビジェイ,0
864,4011105010053,新規,0,2021-11-26,2021-11-26,市ヶ谷ホームズ管理組合法人,,その他の設立登記法人,東京都,新宿区,富久町１３番１４市ヶ谷ホームズ管理事務室,,13,104,1620067,,,,,,,2021-11-26,1,,,,,イチガヤホームズ,0
865,4011105010061,新規,0,2021-11-26,2021-11-26,一般社団法人名前学協会,,その他の設立登記法人,東京都,新宿区,舟町４番地１メゾン・ド四谷８０３号,,13,104,1600006,,,,,,,2021-11-26,1,,,,,ナマエガクキョウカイ,0
876,4011603003450,新規,0,2021-11-26,2021-11-26,合同会社ＥＮ,,合同会社,東京都,練馬区,練馬４丁目２５番１号,,13,120,1760001,,,,,,,2021-11-26,1,,,,,エン,0
891,4020001144030,新規,0,2021-11-26,2021-11-26,株式会社ハイサイ,,株式会社,神奈川県,川崎市高津区,溝口６丁目５－２８－２０１号室,,14,134,2130001,,,,,,,2021-11-26,1,,,,,ハイサイ,0
892,4020001144088,新規,0,2021-11-26,2021-11-26,株式会社ｌ’ａｕｂａｉｎｅ,,株式会社,神奈川県,横浜市青葉区,青葉台２丁目２６番１号,,14,117,2270062,,,,,,,2021-11-26,1,,,,,ローベンヌ,0
901,4020003020873,新規,0,2021-11-26,2021-11-26,合同会社クリエイシー,,合同会社,神奈川県,川崎市川崎区,大師駅前２丁目１番７―５３８号,,14,131,2100802,,,,,,,2021-11-26,1,,,,,クリエイシー,0
915,4030001145507,新規,0,2021-11-26,2021-11-26,株式会社ルミナス,,株式会社,埼玉県,久喜市,菖蒲町三箇２８６番地９,,11,232,3460104,,,,,,,2021-11-26,1,,,,,ルミナス,0
916,4030001145523,新規,0,2021-11-26,2021-11-26,アマリアル・パートナーズ株式会社,,株式会社,埼玉県,川口市,末広１丁目１１番１７号,,11,203,3320006,,,,,,,2021-11-26,1,,,,,アマリアルパートナーズ,0
917,4030001145548,新規,0,2021-11-26,2021-11-26,株式会社ユナイト,,株式会社,埼玉県,さいたま市浦和区,大東３丁目３６番２６号,,11,107,3300043,,,,,,,2021-11-26,1,,,,,ユナイト,0
918,4030001145556,新規,0,2021-11-26,2021-11-26,ワン＆セブン株式会社,,株式会社,埼玉県,深谷市,上野台２３５２,,11,218,3660801,,,,,,,2021-11-26,1,,,,,ワンアンドセブン,0
921,4030003018388,新規,0,2021-11-26,2021-11-26,合同会社ダンデライオンベース,,合同会社,埼玉県,上尾市,緑丘２丁目４番２４号レディア北上尾プレシャスマークス５０１,,11,219,3620015,,,,,,,2021-11-26,1,,,,,ダンデライオンベース,0
929,4040001121093,新規,0,2021-11-26,2021-11-26,株式会社ノア,,株式会社,千葉県,浦安市,日の出６丁目１１番２４号,,12,227,2790013,,,,,,,2021-11-26,1,,,,,ノア,0
930,4040001121127,新規,0,2021-11-26,2021-11-26,株式会社リウェスタ,,株式会社,千葉県,柏市,泉町６－３８サポーレ柏２０２,,12,217,2770022,,,,,,,2021-11-26,1,,,,,リウェスタ,0
931,4040001121143,新規,0,2021-11-26,2021-11-26,株式会社ホームバリア,,株式会社,千葉県,船橋市,西船４丁目２１番１０号,,12,204,2730031,,,,,,,2021-11-26,1,,,,,ホームバリア,0
935,4040003018957,新規,0,2021-11-26,2021-11-26,合同会社ＲｕｎＮｏｗ,,合同会社,千葉県,勝浦市,興津久保山台７５－１,,12,218,2995246,,,,,,,2021-11-26,1,,,,,ランナウ,0
936,4040003018998,新規,0,2021-11-26,2021-11-26,合同会社ワイズベース,,合同会社,千葉県,千葉市中央区,新宿２丁目７番３３号タイムズアリーナ千葉中央アクティタワー４０９号,,12,101,2600021,,,,,,,2021-11-26,1,,,,,ワイズベース,0
937,4040003019022,新規,0,2021-11-26,2021-11-26,東昇合同会社,,合同会社,千葉県,千葉市中央区,浜野町６９９番６号,,12,101,2600824,,,,,,,2021-11-26,1,,,,,トウショウ,0
939,4050001050201,新規,0,2021-11-26,2021-11-26,株式会社ラーナオートトレーディング,,株式会社,茨城県,東茨城郡茨城町,大字長岡７５８番地１Ｆ,,08,302,3113116,,,,,,,2021-11-26,1,,,,,ラーナオートトレーディング,0
942,4070001038681,新規,0,2021-11-26,2021-11-26,株式会社ＢＵＺＺ,,株式会社,群馬県,高崎市,旭町３７番地５ＭＵＲＯビル２号室,,10,202,3700052,,,,,,,2021-11-26,1,,,,,バズ,0
956,4120001242096,新規,0,2021-11-26,2021-11-26,株式会社ＡＫＩＮＤＯ,,株式会社,大阪府,大阪市西区,南堀江２丁目５番２４－２０８号,,27,106,5500015,,,,,,,2021-11-26,1,,,,,アキンド,0
959,4120003020665,新規,0,2021-11-26,2021-11-26,米倉総研合同会社,,合同会社,大阪府,大阪市中央区,南本町４丁目２番２１号,,27,128,5410054,,,,,,,2021-11-26,1,,,,,ヨネクラソウケン,0
960,4120003020673,新規,0,2021-11-26,2021-11-26,合同会社ライズケア,,合同会社,大阪府,枚方市,樋之上町５番２３－２０１号,,27,210,5731128,,,,,,,2021-11-26,1,,,,,ライズケア,0
961,4120005022627,新規,0,2021-11-26,2021-11-26,一般社団法人経士会,,その他の設立登記法人,大阪府,守口市,寺内町２丁目７番２７号３Ｆ－Ｂ号室,,27,209,5700056,,,,,,,2021-11-26,1,,,,,ケイシカイ,0
964,4120105009482,新規,0,2021-11-26,2021-11-26,一般社団法人やよい保健師相談事務所,,その他の設立登記法人,大阪府,和泉市,鶴山台１丁目２３番２４号,,27,219,5940013,,,,,,,2021-11-26,1,,,,,ヤヨイホケンシソウダンジムショ,0
966,4120901045268,新規,0,2021-11-26,2021-11-26,株式会社リンクス,,株式会社,大阪府,箕面市,稲６丁目９番１９号,,27,220,5620015,,,,,,,2021-11-26,1,,,,,リンクス,0
970,4122003002222,新規,0,2021-11-26,2021-11-26,合同会社ヒムカ電業,,合同会社,大阪府,八尾市,水越３丁目４６番地,,27,212,5810856,,,,,,,2021-11-26,1,,,,,ヒムカデンギョウ,0
973,4130001070546,新規,0,2021-11-26,2021-11-26,株式会社Ｂｉｅｎａｉｍｅ,,株式会社,京都府,京都市右京区,西京極浜ノ本町６９－２アブニールＫ１階,,26,108,6150873,,,,,,,2021-11-26,1,,,,,ビアネメ,0
981,4140003017016,新規,0,2021-11-26,2021-11-26,芦屋大石堂合同会社,,合同会社,兵庫県,芦屋市,平田町４番３号,,28,206,6590074,,,,,,,2021-11-26,1,,,,,アシヤオオイシドウ,0
982,4140003017032,新規,0,2021-11-26,2021-11-26,合同会社ＳＫ花咲,,合同会社,兵庫県,淡路市,岩屋２９１０番地５０,,28,226,6562401,,,,,,,2021-11-26,1,,,,,エスケイハナサキ,0
991,4160001023831,新規,0,2021-11-26,2021-11-26,株式会社アケボノ企画,,株式会社,滋賀県,犬上郡多賀町,大字富之尾１３６８番地,,25,443,5220337,,,,,,,2021-11-26,1,,,,,アケボノキカク,0
994,4170001016875,新規,0,2021-11-26,2021-11-26,株式会社ＨＯＵＫＩ,,株式会社,和歌山県,田辺市,文里２丁目３５番３７号,,30,206,6460023,,,,,,,2021-11-26,1,,,,,ホウキ,0
999,4180001148858,新規,0,2021-11-26,2021-11-26,株式会社エーワン技建,,株式会社,愛知県,海部郡大治町,大字堀之内字狐穴７０５番地の１６,,23,424,4901137,,,,,,,2021-11-26,1,,,,,エーワンギケン,0
1000,4180001148882,新規,0,2021-11-26,2021-11-26,株式会社ｕｓエンターテイメント,,株式会社,愛知県,名古屋市千種区,末盛通４丁目１５番１号,,23,101,4640821,,,,,,,2021-11-26,1,,,,,アスエンターテイメント,0
1001,4180001148899,新規,0,2021-11-26,2021-11-26,株式会社ｅｒｕｐｔｉｏｎ,,株式会社,愛知県,名古屋市千種区,今池５丁目２０番２１号,,23,101,4640850,,,,,,,2021-11-26,1,,,,,イラプション,0
1003,4180301035665,新規,0,2021-11-26,2021-11-26,株式会社梅田技建,,株式会社,愛知県,豊川市,伊奈町平内７番地２,,23,207,4410105,,,,,,,2021-11-26,1,,,,,ウメダギケン,0
1013,4210001018710,新規,0,2021-11-26,2021-11-26,タマヤテック株式会社,,株式会社,福井県,越前市,瓜生町４号１５番地の１,,18,209,9150096,,,,,,,2021-11-26,1,,,,,タマヤテック,0
1021,4250001019275,新規,0,2021-11-26,2021-11-26,株式会社大海新生,,株式会社,山口県,山口市,秋穂東２４９７番地,,35,203,7541101,,,,,,,2021-11-26,1,,,,,オオミシンセイ,0
1024,4280001008572,新規,0,2021-11-26,2021-11-26,株式会社Ｓｕｎ　Ｗｏｒｋ’ｓ,,株式会社,島根県,浜田市,笠柄町２７番地,,32,202,6970061,,,,,,,2021-11-26,1,,,,,サンワークス,0
1031,4290001095528,新規,0,2021-11-26,2021-11-26,株式会社エネココ,,株式会社,福岡県,福岡市東区,唐原４丁目８番２６－１０１号,,40,131,8130001,,,,,,,2021-11-26,1,,,,,エネココ,0
1032,4290001095544,新規,0,2021-11-26,2021-11-26,ＳＳＧＣ株式会社,,株式会社,福岡県,福岡市博多区,麦野３丁目１６番２６号,,40,132,8120882,,,,,,,2021-11-26,1,,,,,エスエスジーシー,0
1034,4290003011862,新規,0,2021-11-26,2021-11-26,合同会社ＲＥ・ＺＥＲＯ,,合同会社,福岡県,福岡市博多区,中洲１丁目５番２１号,,40,132,8100801,,,,,,,2021-11-26,1,,,,,リゼロ,0
1038,4310001017603,新規,0,2021-11-26,2021-11-26,株式会社Ｖｉｎｅ,,株式会社,長崎県,長崎市,中里町１２１４番地１０１,,42,201,8510103,,,,,,,2021-11-26,1,,,,,ヴァイン,0
1041,4320001018757,新規,0,2021-11-26,2021-11-26,株式会社アクティブケア,,株式会社,大分県,別府市,大字鶴見４０５０番地の２３１,,44,202,8740840,,,,,,,2021-11-26,1,,,,,アクティブケア,0
1043,4320005009942,新規,0,2021-11-26,2021-11-26,一般社団法人なごり雪の会,,その他の設立登記法人,大分県,津久見市,中央町５番１３号,,44,207,8792441,,,,,,,2021-11-26,1,,,,,ナゴリユキノカイ,0
1054,4380001032356,新規,0,2021-11-26,2021-11-26,株式会社西山エクステリア,,株式会社,福島県,福島市,瀬上町字道田山２番地の１,,07,201,9600101,,,,,,,2021-11-26,1,,,,,ニシヤマエクステリア,0
1056,4410003003590,新規,0,2021-11-26,2021-11-26,合同会社京水フォレスト,,合同会社,秋田県,南秋田郡五城目町,馬場目字町村１０８番地３,,05,361,0181713,,,,,,,2021-11-26,1,,,,,ケイスイフォレスト,0
1060,4430001085448,新規,0,2021-11-26,2021-11-26,森伸工業株式会社,,株式会社,北海道,登別市,新生町４丁目１８番地３,,01,230,0590032,,,,,,,2021-11-26,1,,,,,モリシンコウギョウ,0
1063,4430003013398,新規,0,2021-11-26,2021-11-26,合同会社Ｈｏｒｓｅｍａｄｅ　Ｌａｎｄｓｃａｐｅ,,合同会社,北海道,虻田郡豊浦町,字豊泉２６２,,01,571,0495331,,,,,,,2021-11-26,1,,,,,ホースメイドランドスケープ,0
1068,4470003002083,新規,0,2021-11-26,2021-11-26,合同会社讃和通商,,合同会社,香川県,東かがわ市,西村５２０番地１,,37,207,7692604,,,,,,,2021-11-26,1,,,,,サンワツウショウ,0
1086,4700150105994,新規,0,2021-11-26,2021-11-26,ＡＥＯＮ　ＬＡＮＫＡ　ＰＲＩＶＡＴＥ　ＬＩＭＩＴＥＤ,,外国会社等,千葉県,山武郡九十九里町,不動堂６６６番地２－Ｃ,,12,403,2830113,スリランカ民主社会主義共和国、マタレ、マンダンダウェラ、７８３－２３Ｂ,,,,,,2021-11-26,1,,,,,イーオンランカプライベートリミテツド,0
1097,5010001222769,新規,0,2021-11-26,2021-11-26,株式会社テンポ４４,,株式会社,東京都,千代田区,鍛冶町２丁目２番８号,,13,101,1010044,,,,,,,2021-11-26,1,,,,,テンポフォーティーフォー,0
1098,5010001222802,新規,0,2021-11-26,2021-11-26,丸紅グロースキャピタル株式会社,,株式会社,東京都,千代田区,大手町１丁目４番２号,,13,101,1000004,,,,,,,2021-11-26,1,,,,,マルベニグロースキャピタル,0
1099,5010001222835,新規,0,2021-11-26,2021-11-26,株式会社Ｘ－Ｆｏｒｃｅ,,株式会社,東京都,千代田区,丸の内１丁目８番３号丸の内トラストタワー本館,,13,101,1000005,,,,,,,2021-11-26,1,,,,,エクスフォース,0
1100,5010003036408,新規,0,2021-11-26,2021-11-26,合同会社Ａｌｉｃｅ,,合同会社,東京都,中央区,東日本橋２丁目２８番４号日本橋ＣＥＴビル２階,,13,102,1030004,,,,,,,2021-11-26,1,,,,,,0
1101,5010003036416,新規,0,2021-11-26,2021-11-26,合同会社東兆,,合同会社,東京都,中央区,湊２丁目１２番１６－８０８号,,13,102,1040043,,,,,,,2021-11-26,1,,,,,トウチョウ,0
1112,5010401164058,新規,0,2021-11-26,2021-11-26,ランドマジック株式会社,,株式会社,東京都,港区,西新橋１丁目２０番１０号,,13,103,1050003,,,,,,,2021-11-26,1,,,,,ランドマジック,0
1113,5010401164066,新規,0,2021-11-26,2021-11-26,株式会社国際ビジネス創研,,株式会社,東京都,港区,三田２丁目１５－４５－６３８Ａ,,13,103,1080073,,,,,,,2021-11-26,1,,,,,コクサイビジネスソウケン,0
1114,5010401164082,新規,0,2021-11-26,2021-11-26,盛大資訊日本株式会社,00124976,株式会社,東京都,港区,三田１丁目２番１８号ＴＴＤビル,,13,103,1080073,,,,,,,2021-11-26,1,,,,,セイダイシシンニホン,0
1115,5010401164099,新規,0,2021-11-26,2021-11-26,インテリジェンスクリエイターズ株式会社,,株式会社,東京都,港区,麻布十番２丁目１番８,,13,103,1060045,,,,,,,2021-11-26,1,,,,,インテリジェンスクリエイターズ,0
1119,5010405020447,新規,0,2021-11-26,2021-11-26,一般社団法人日本ウッドデザイン協会,,その他の設立登記法人,東京都,港区,新橋２丁目１３番６号新橋８６２ビル,,13,103,1050004,,,,,,,2021-11-26,1,,,,,ニホンウッドデザインキョウカイ,0
1120,5010501048144,新規,0,2021-11-26,2021-11-26,株式会社恒星不動産,,株式会社,東京都,台東区,東上野２丁目１１番３号ＳＴＹビル６階,,13,106,1100015,,,,,,,2021-11-26,1,,,,,コウセイフドウサン,0
1125,5010701041840,新規,0,2021-11-26,2021-11-26,株式会社Ｌｅ　Ｌｉｅｎ,,株式会社,東京都,品川区,東五反田２丁目１０番１,,13,109,1410022,,,,,,,2021-11-26,1,,,,,ルリアン,0
1141,5011001144111,新規,0,2021-11-26,2021-11-26,株式会社ジャムゥマルシェ,,株式会社,東京都,渋谷区,東２丁目２９番１０号レジーナエビス１１０２,,13,113,1500011,,,,,,,2021-11-26,1,,,,,ジャムゥマルシェ,0
1142,5011001144202,新規,0,2021-11-26,2021-11-26,ＲＥＢＥＬＬＩＯＮＳ株式会社,,株式会社,東京都,渋谷区,神宮前６丁目２３番４号桑野ビル２,,13,113,1500001,,,,,,,2021-11-26,1,,,,,リベリオンズ,0
1143,5011001144276,新規,0,2021-11-26,2021-11-26,株式会社Ｋｎｅｅ　Ｍｅｄｉｃａｌｓ,,株式会社,東京都,目黒区,自由が丘１丁目１３番１４号自由が丘スカイビル３０２,,13,110,1520035,,,,,,,2021-11-26,1,,,,,ニーメディカルズ,0
1152,5011101097028,新規,0,2021-11-26,2021-11-26,株式会社ＭＹＳ,,株式会社,東京都,新宿区,上落合２丁目１３番１－５０２号,,13,104,1610034,,,,,,,2021-11-26,1,,,,,エムワイエス,0
1154,5011105010060,新規,0,2021-11-26,2021-11-26,特定非営利活動法人ＦｉｒｓｔＳｔｅｐ,,その他の設立登記法人,東京都,新宿区,百人町３丁目６番１号,,13,104,1690073,,,,,,,2021-11-26,1,,,,,ファーストステップ,0
1169,5012403005116,新規,0,2021-11-26,2021-11-26,合同会社神代,,合同会社,東京都,調布市,深大寺東町６丁目３４－３,,13,208,1820012,,,,,,,2021-11-26,1,,,,,ジンダイ,0
1173,5012801021235,新規,0,2021-11-26,2021-11-26,株式会社Ｖｏｌａｒｅ,,株式会社,東京都,武蔵村山市,大南３丁目９７番地の３ユリエール・ホープ２０５号,,13,223,2080013,,,,,,,2021-11-26,1,,,,,ヴォラーレ,0
1187,5020001144038,新規,0,2021-11-26,2021-11-26,株式会社ラフ＆アプリコット,,株式会社,神奈川県,横浜市中区,住吉町１丁目１番地第３柳下ビル３０３,,14,104,2310013,,,,,,,2021-11-26,1,,,,,ラフアンドアプリコット,0
1188,5020001144079,新規,0,2021-11-26,2021-11-26,株式会社Ｍ,,株式会社,神奈川県,横浜市神奈川区,台町７番地３－５０２,,14,102,2210834,,,,,,,2021-11-26,1,,,,,エム,0
1189,5020001144087,新規,0,2021-11-26,2021-11-26,株式会社Ｅｐｏｃｈ　Ｍａｋｅｒｓ,,株式会社,神奈川県,横浜市青葉区,桜台３５番地２１ウッズ青葉台１０３,,14,117,2270061,,,,,,,2021-11-26,1,,,,,エポックメーカーズ,0
1193,5020003020880,新規,0,2021-11-26,2021-11-26,合同会社ゆめプロジェクト,,合同会社,神奈川県,川崎市麻生区,片平１５２１番地１８,,14,137,2150023,,,,,,,2021-11-26,1,,,,,ユメプロジェクト,0
1194,5020003020889,新規,0,2021-11-26,2021-11-26,合同会社いとう不動産,,合同会社,神奈川県,横浜市戸塚区,平戸町６２７番地４１,,14,110,2440803,,,,,,,2021-11-26,1,,,,,イトウフドウサン,0
1208,5030001145497,新規,0,2021-11-26,2021-11-26,満足株式会社,,株式会社,埼玉県,さいたま市大宮区,三橋１丁目４２１番地１－２０２号室,,11,103,3300856,,,,,,,2021-11-26,1,,,,,マンゾク,0
1209,5030001145514,新規,0,2021-11-26,2021-11-26,申学国際株式会社,,株式会社,埼玉県,戸田市,下前１丁目１３番２２－７０６号,,11,224,3350016,,,,,,,2021-11-26,1,,,,,シンガクコクサイ,0
1210,5030001145539,新規,0,2021-11-26,2021-11-26,荒井建設株式会社,,株式会社,埼玉県,熊谷市,銀座３丁目１０９番地ロザブル熊谷６０１号,,11,202,3600032,,,,,,,2021-11-26,1,,,,,アライケンセツ,0
1211,5030001145555,新規,0,2021-11-26,2021-11-26,ＦＵＬＬＢＬＯＯＭ株式会社,,株式会社,埼玉県,新座市,片山３丁目５番１５号アーバンハイツ２０１号室,,11,230,3520025,,,,,,,2021-11-26,1,,,,,フルブルーム,0
1221,5040001121142,新規,0,2021-11-26,2021-11-26,株式会社ＳＤインターナショナル,,株式会社,千葉県,富里市,新中沢３７６番地１,,12,233,2860223,,,,,,,2021-11-26,1,,,,,エスディーインターナショナル,0
1222,5040001121150,新規,0,2021-11-26,2021-11-26,ＳＨＡＨＺＡＤ　ＴＲＡＤＩＮＧ株式会社,,株式会社,千葉県,野田市,東宝珠花１０３番地１,,12,208,2700226,,,,,,,2021-11-26,1,,,,,シャザードトレーディング,0
1229,5040005021438,新規,0,2021-11-26,2021-11-26,ＮＰＯ法人ｈｅＡｒｔ　ａｃｒｏｓｓ　Ｊａｐａｎ,,その他の設立登記法人,千葉県,印旛郡酒々井町,酒々井１７０５,,12,322,2850927,,,,,,,2021-11-26,1,,,,,ハートアクロスジャパン,0
1230,5050001050200,新規,0,2021-11-26,2021-11-26,株式会社令和コーポレーション,,株式会社,茨城県,水戸市,笠原町１４５６番地笠原ハイツ２Ｆ１１号室,,08,201,3100852,,,,,,,2021-11-26,1,,,,,,0
1232,5060001034326,新規,0,2021-11-26,2021-11-26,株式会社ＰＲＥＰＡ,,株式会社,栃木県,宇都宮市,宿郷２丁目５－８クローバー第一ビル２０３,,09,201,3210945,,,,,,,2021-11-26,1,,,,,,0
1233,5060003003881,新規,0,2021-11-26,2021-11-26,クラリス合同会社,,合同会社,栃木県,宇都宮市,上戸祭町１２６番地１８,,09,201,3200051,,,,,,,2021-11-26,1,,,,,クラリス,0
1235,5070001038689,新規,0,2021-11-26,2021-11-26,株式会社シンエイ,,株式会社,群馬県,高崎市,矢島町５８３番地１,,10,202,3700016,,,,,,,2021-11-26,1,,,,,シンエイ,0
1245,5100001034841,新規,0,2021-11-26,2021-11-26,ＩＤＸ長野株式会社,,株式会社,長野県,須坂市,大字仁礼３１５３－２７５,,20,207,3820000,,,,,,,2021-11-26,1,,,,,アイディーエックスナガノ,0
1247,5110001036218,新規,0,2021-11-26,2021-11-26,佐渡食彩株式会社,,株式会社,新潟県,佐渡市,加茂歌代１３５８番地１０アーバン・ハギタ１０１号室,,15,224,9520028,,,,,,,2021-11-26,1,,,,,サドショクサイ,0
1248,5110003004627,新規,0,2021-11-26,2021-11-26,合同会社スポーツメイト,,合同会社,新潟県,新潟市西区,西小針台１丁目１４番１４号,,15,107,9502015,,,,,,,2021-11-26,1,,,,,スポーツメイト,0
1249,5110005016736,新規,0,2021-11-26,2021-11-26,一般社団法人地域創生インターナショナル,,その他の設立登記法人,新潟県,上越市,平成町２５４番地,,15,222,9430151,,,,,,,2021-11-26,1,,,,,チイキソウセイインターナショナル,0
1252,5120001242137,新規,0,2021-11-26,2021-11-26,株式会社アテナ,,株式会社,大阪府,大阪市住吉区,長居東３丁目７番３２－１０２号,,27,120,5580004,,,,,,,2021-11-26,1,,,,,アテナ,0
1253,5120003020664,新規,0,2021-11-26,2021-11-26,合同会社グローバル,,合同会社,大阪府,大阪市中央区,内淡路町１丁目３番７号,,27,128,5400038,,,,,,,2021-11-26,1,,,,,グローバル,0
1256,5120101064704,新規,0,2021-11-26,2021-11-26,愛麗国際株式会社,,株式会社,大阪府,松原市,一津屋５丁目２４番９号,,27,217,5800003,,,,,,,2021-11-26,1,,,,,アイレイコクサイ,0
1260,5120901045250,新規,0,2021-11-26,2021-11-26,株式会社吹田住建,,株式会社,大阪府,吹田市,南金田１丁目８番１６号,,27,205,5640044,,,,,,,2021-11-26,1,,,,,スイタジュウケン,0
1274,5140001123962,新規,0,2021-11-26,2021-11-26,こぐま保険株式会社,,株式会社,兵庫県,姫路市,香寺町中仁野６０４番地,,28,201,6792143,,,,,,,2021-11-26,1,,,,,コグマホケン,0
1276,5140003017015,新規,0,2021-11-26,2021-11-26,ＢＵＢＵ　Ｌａｂ合同会社,,合同会社,兵庫県,神戸市灘区,篠原北町３丁目１４－１２－６０２,,28,102,6570068,,,,,,,2021-11-26,1,,,,,ブブラボ,0
1277,5140003017031,新規,0,2021-11-26,2021-11-26,合同会社かけはし,,合同会社,兵庫県,高砂市,荒井町千鳥２丁目２０番２９号,,28,216,6760004,,,,,,,2021-11-26,1,,,,,カケハシ,0
1278,5140005025899,新規,0,2021-11-26,2021-11-26,医療法人社団はまなレディースクリニック,,その他の設立登記法人,兵庫県,明石市,大久保町大窪２６２０番地の３,,28,203,6740051,,,,,,,2021-11-26,1,,,,,ハマナレディースクリニック,0
1281,5150001025118,新規,0,2021-11-26,2021-11-26,空空株式会社,,株式会社,奈良県,橿原市,内膳町２丁目１０番２号,,29,205,6340804,,,,,,,2021-11-26,1,,,,,クゥクゥ,0
1282,5160003002436,新規,0,2021-11-26,2021-11-26,Ｓ＆Ａ合同会社,,合同会社,滋賀県,草津市,西矢倉３丁目７番３２号,,25,206,5250052,,,,,,,2021-11-26,1,,,,,エスアンドエー,0
1288,5180001148849,新規,0,2021-11-26,2021-11-26,株式会社ＩＭＥＫＡ,,株式会社,愛知県,名古屋市中川区,細米町２丁目１２番地の２,,23,110,4540847,,,,,,,2021-11-26,1,,,,,イメカ,0
1289,5180003023232,新規,0,2021-11-26,2021-11-26,ふるさと事務所合同会社,,合同会社,愛知県,名古屋市中区,橘１丁目１７番２８号日置ビル２Ｅ,,23,106,4600016,,,,,,,2021-11-26,1,,,,,フルサトジムショ,0
1299,5180305009268,新規,0,2021-11-26,2021-11-26,一般社団法人シンメイ共創会,,その他の設立登記法人,愛知県,豊田市,衣ケ原３丁目２０番地,,23,211,4710856,,,,,,,2021-11-26,1,,,,,シンメイキョウソウカイ,0
1304,5220001024558,新規,0,2021-11-26,2021-11-26,株式会社モアイ,,株式会社,石川県,白山市,成町５０７番地３,,17,210,9240023,,,,,,,2021-11-26,1,,,,,モアイ,0
1309,5240001058983,新規,0,2021-11-26,2021-11-26,株式会社ＫＺホールディングス,,株式会社,広島県,東広島市,西条町助実１８５８番地１０Ｉ－２０１号室,,34,212,7390021,,,,,,,2021-11-26,1,,,,,ケイゼットホールディングス,0
1323,5290001095502,新規,0,2021-11-26,2021-11-26,大友企画株式会社,,株式会社,福岡県,福岡市中央区,西中洲６番２７号十八親和銀行福岡ビル５Ｆ,,40,133,8100002,,,,,,,2021-11-26,1,,,,,オオトモキカク,0
1324,5290001095527,新規,0,2021-11-26,2021-11-26,株式会社みなみ荒江,,株式会社,福岡県,福岡市早良区,荒江３丁目１０番９号,,40,137,8140021,,,,,,,2021-11-26,1,,,,,ミナミアラエ,0
1325,5290001095551,新規,0,2021-11-26,2021-11-26,株式会社ＢＯＮＤ,,株式会社,福岡県,八女郡広川町,大字新代１３３０番地１,,40,544,8340115,,,,,,,2021-11-26,1,,,,,ボンド,0
1326,5290001095568,新規,0,2021-11-26,2021-11-26,株式会社カーリー,,株式会社,福岡県,福岡市中央区,渡辺通２丁目７－１４,,40,133,8100004,,,,,,,2021-11-26,1,,,,,カーリー,0
1328,5290003011861,新規,0,2021-11-26,2021-11-26,ＭＫシステムソリューション合同会社,,合同会社,福岡県,福岡市中央区,天神３丁目７番３号,,40,133,8100001,,,,,,,2021-11-26,1,,,,,エムケーシステムソリューション,0
1335,5310003004219,新規,0,2021-11-26,2021-11-26,合同会社多元企画,,合同会社,長崎県,大村市,古賀島町２１３番地８,,42,205,8560817,,,,,,,2021-11-26,1,,,,,タゲンキカク,0
1338,5320003003665,新規,0,2021-11-26,2021-11-26,合同会社ｅｍｙ,,合同会社,大分県,別府市,天満町８番１２号,,44,202,8740906,,,,,,,2021-11-26,1,,,,,エミイ,0
1349,5350001017433,新規,0,2021-11-26,2021-11-26,株式会社ふぁーすと,,株式会社,宮崎県,延岡市,北川町川内名６７８５番地４,,45,203,8890101,,,,,,,2021-11-26,1,,,,,ファースト,0
1355,5360003011598,新規,0,2021-11-26,2021-11-26,合同会社一,,合同会社,沖縄県,うるま市,字大田７８７番地９オーシャンヒロＰＩＩＡ号,00124975,47,213,9042224,,,,,,,2021-11-26,1,,,,,ハジメ,0
1363,5380003005061,新規,0,2021-11-26,2021-11-26,合同会社Ａｗａｋｅ,,合同会社,福島県,会津若松市,慶山１丁目７－７８,,07,202,9650812,,,,,,,2021-11-26,1,,,,,アウェイク,0
1371,5430003013397,新規,0,2021-11-26,2021-11-26,合同会社イルミネイト,,合同会社,北海道,江別市,野幌若葉町１２番地の６,,01,217,0690831,,,,,,,2021-11-26,1,,,,,イルミネイト,0
1394,5700150105993,新規,0,2021-11-26,2021-11-26,ＲＡＴＨＮＡＹＡＫＥ　ＭＯＴＯＲＳ,,外国会社等,千葉県,山武市,松ヶ谷イ１７０３番地１－Ａ,,12,237,2891303,スリランカ民主社会主義共和国、ケラニヤ、コハルウィラ、２８８－Ｄ,,,,,,2021-11-26,1,,,,,ラスナヤケモータース,0
1402,6010001222801,新規,0,2021-11-26,2021-11-26,株式会社Ｃｕｒｉｏｐａｃｅ,,株式会社,東京都,千代田区,九段南１丁目５番６号りそな九段ビル５階ＫＳフロア,,13,101,1020074,,,,,,,2021-11-26,1,,,,,キュリオパス,0
1403,6010001222850,新規,0,2021-11-26,2021-11-26,ノンコード株式会社,,株式会社,東京都,千代田区,麹町４丁目８番１号１０１号室,,13,101,1020083,,,,,,,2021-11-26,1,,,,,ノンコード,0
1404,6010001222859,新規,0,2021-11-26,2021-11-26,ｔａｎａｋａｔｏ株式会社,,株式会社,東京都,文京区,千石３丁目３番３－５０１号,,13,105,1120011,,,,,,,2021-11-26,1,,,,,タナカト,0
1413,6010401163793,新規,0,2021-11-26,2021-11-26,株式会社ＲＹ,,株式会社,東京都,港区,赤坂３丁目１６番４号ＤＭＫビル４０１,,13,103,1070052,,,,,,,2021-11-26,1,,,,,アールワイ,0
1417,6010405020462,新規,0,2021-11-26,2021-11-26,長谷工レジデンシャルプライベート投資法人,,その他の設立登記法人,東京都,港区,芝４丁目２番３号,,13,103,1080014,,,,,,,2021-11-26,1,,,,,ハセコウレジデンシャルプライベート,0
1419,6010601060270,新規,0,2021-11-26,2021-11-26,株式会社茶筅,,株式会社,東京都,墨田区,江東橋３丁目５番２号大塚ビル７Ｆ,,13,107,1300022,,,,,,,2021-11-26,1,,,,,チャセン,0
1420,6010601060287,新規,0,2021-11-26,2021-11-26,株式会社ｓｔａｒ,,株式会社,東京都,墨田区,錦糸１丁目２番１号アルカセントラル１４階,,13,107,1300013,,,,,,,2021-11-26,1,,,,,スター,0
1433,6011001144110,新規,0,2021-11-26,2021-11-26,Ｈ．Ｖａｌｕｅ株式会社,,株式会社,東京都,渋谷区,渋谷２丁目６－１１花門ビル３Ｆ,,13,113,1500002,,,,,,,2021-11-26,1,,,,,エイチバリュー,0
1434,6011001144119,新規,0,2021-11-26,2021-11-26,ＰＲＯ．ＬＯＧＵＥ株式会社,,株式会社,東京都,渋谷区,円山町５番５号Ｎａｖｉ渋谷Ｖ３階,,13,113,1500044,,,,,,,2021-11-26,1,,,,,,0
1435,6011001144259,新規,0,2021-11-26,2021-11-26,株式会社Ａｍｂｉｅｎｔ　Ｗｏｒｋｓ,,株式会社,東京都,渋谷区,恵比寿１丁目６番７号,,13,113,1500013,,,,,,,2021-11-26,1,,,,,アンビエントワークス,0
1437,6011003013775,新規,0,2021-11-26,2021-11-26,ＡＲＡＫＩアドバイザリー合同会社,,合同会社,東京都,目黒区,目黒本町１丁目６番２４号,,13,110,1520002,,,,,,,2021-11-26,1,,,,,アラキアドバイザリー,0
1442,6011101097019,新規,0,2021-11-26,2021-11-26,株式会社一,,株式会社,東京都,新宿区,新宿１丁目３６番２号新宿第七葉山ビル３階,,13,104,1600022,,,,,,,2021-11-26,1,,,,,ハジメ,0
1446,6011103011209,新規,0,2021-11-26,2021-11-26,合同会社ひなた,,合同会社,東京都,新宿区,市谷薬王寺町７４番地１１,,13,104,1620063,,,,,,,2021-11-26,1,,,,,ヒナタ,0
1447,6011201023428,新規,0,2021-11-26,2021-11-26,株式会社レコナイ,,株式会社,東京都,中野区,東中野４丁目５番１０－２３０５号,,13,114,1640003,,,,,,,2021-11-26,1,,,,,レコナイ,0
1448,6011201023444,新規,0,2021-11-26,2021-11-26,株式会社ＰＡＲＡ１０１,,株式会社,東京都,中野区,沼袋１丁目３４番４号,,13,114,1650025,,,,,,,2021-11-26,1,,,,,パライチマルイチ,0
1451,6011601025560,新規,0,2021-11-26,2021-11-26,株式会社クラース,,株式会社,東京都,練馬区,関町東１丁目４番３号,,13,120,1770052,,,,,,,2021-11-26,1,,,,,クラース,0
1452,6011603003449,新規,0,2021-11-26,2021-11-26,合同会社エビデンスマーケティング,,合同会社,東京都,練馬区,三原台１丁目１４番２６号,,13,120,1770031,,,,,,,2021-11-26,1,,,,,エビデンスマーケティング,0
1456,6012401038579,新規,0,2021-11-26,2021-11-26,株式会社ｋｏｋｏｆｕｒｕ,,株式会社,東京都,武蔵野市,吉祥寺北町１丁目１番１号,,13,203,1800001,,,,,,,2021-11-26,1,,,,,ココフル,0
1460,6013301048305,新規,0,2021-11-26,2021-11-26,株式会社Ｈパートナー,,株式会社,東京都,豊島区,西池袋１丁目４番１０号,,13,116,1710021,,,,,,,2021-11-26,1,,,,,エイチパートナー,0
1476,6020001143988,新規,0,2021-11-26,2021-11-26,株式会社サポタス,,株式会社,神奈川県,川崎市高津区,新作６丁目５番１－４０３号ウェルネスＬ,,14,134,2130014,,,,,,,2021-11-26,1,,,,,サポタス,0
1477,6020001144078,新規,0,2021-11-26,2021-11-26,株式会社融浩,,株式会社,神奈川県,川崎市川崎区,江川１丁目１１番２－２号,,14,131,2100823,,,,,,,2021-11-26,1,,,,,ユウコウ,0
1478,6020001144086,新規,0,2021-11-26,2021-11-26,株式会社又吉,,株式会社,神奈川県,横浜市港北区,大豆戸町５３８番地ＨＡＲＵ菊名ＩＩ４０５,00124969,14,109,2220032,,,,,,,2021-11-26,1,,,,,マタヨシ,0
1491,6021005012345,新規,0,2021-11-26,2021-11-26,特定非営利活動法人結プロジェクト,,その他の設立登記法人,神奈川県,相模原市南区,古淵６丁目２８番１４号,,14,153,2520344,,,,,,,2021-11-26,1,,,,,ユイプロジェクト,0
1498,6030001145505,新規,0,2021-11-26,2021-11-26,株式会社ＧＯＬＤ　ＬＩＮＥ,,株式会社,埼玉県,川口市,大字安行吉岡１３６７番地の２,,11,203,3340072,,,,,,,2021-11-26,1,,,,,ゴールドライン,0
1499,6030001145521,新規,0,2021-11-26,2021-11-26,ＵＳＥ　ＪＡＰＡＮ株式会社,,株式会社,埼玉県,さいたま市大宮区,桜木町２丁目３番地大宮マルイ７階,,11,103,3300854,,,,,,,2021-11-26,1,,,,,ユースジャパン,0
1500,6030001145562,新規,0,2021-11-26,2021-11-26,株式会社すまいるしゃわー,,株式会社,埼玉県,草加市,瀬崎２丁目２８番１７号,,11,221,3400022,,,,,,,2021-11-26,1,,,,,スマイルシャワー,0
1504,6030003018386,新規,0,2021-11-26,2021-11-26,合同会社スタッフディレクションズ,,合同会社,埼玉県,所沢市,大字下富１２５６番地の９１,,11,208,3590001,,,,,,,2021-11-26,1,,,,,スタッフディレクションズ,0
1505,6030003018394,新規,0,2021-11-26,2021-11-26,合同会社ＥＴＭ,,合同会社,埼玉県,秩父市,下影森６４０番地２０,,11,207,3691871,,,,,,,2021-11-26,1,,,,,イーティーエム,0
1511,6040001121125,新規,0,2021-11-26,2021-11-26,知恵医療技術株式会社,,株式会社,千葉県,松戸市,松戸新田４８５番地の５２,,12,207,2702241,,,,,,,2021-11-26,1,,,,,チエイリョウギジュツ,0
1512,6040001121133,新規,0,2021-11-26,2021-11-26,株式会社ＭＫハウジング,,株式会社,千葉県,富里市,七栄６４６番地１０３１,,12,233,2860221,,,,,,,2021-11-26,1,,,,,エムケイハウジング,0
1515,6040002104938,新規,0,2021-11-26,2021-11-26,有限会社泉光学製作所,,有限会社,千葉県,大網白里市,北今泉３５８６番地,,12,239,2993201,,,,,,,2021-11-26,1,,,,,イズミコウガクセイサクショ,0
1517,6040005021437,新規,0,2021-11-26,2021-11-26,特定非営利活動法人企業災害救援隊・ＨＡＲＴ,,その他の設立登記法人,千葉県,茂原市,木崎１５２６番地,,12,210,2970016,,,,,,,2021-11-26,1,,,,,キギョウサイガイキュウエンタイハート,0
1528,6060001034317,新規,0,2021-11-26,2021-11-26,株式会社リプロテック,,株式会社,栃木県,宇都宮市,下田原町２８６２番地２２８,,09,201,3291115,,,,,,,2021-11-26,1,,,,,,0
1529,6060001034325,新規,0,2021-11-26,2021-11-26,愛家株式会社,,株式会社,栃木県,鹿沼市,楡木町１６５番地,,09,205,3220526,,,,,,,2021-11-26,1,,,,,アイカ,0
1530,6060003003880,新規,0,2021-11-26,2021-11-26,合同会社アルビレオ,,合同会社,栃木県,鹿沼市,上殿町９３０番地１０,,09,205,3220045,,,,,,,2021-11-26,1,,,,,アルビレオ,0
1534,6080401025491,新規,0,2021-11-26,2021-11-26,丸福木材株式会社,,株式会社,静岡県,浜松市西区,湖東町３５０番地,,22,133,4311103,,,,,,,2021-11-26,1,,,,,マルフクモクザイ,0
1538,6090001017293,新規,0,2021-11-26,2021-11-26,株式会社ｍａｂｕｈａｙ,,株式会社,山梨県,甲府市,中央１丁目７番７号,,19,201,4000032,,,,,,,2021-11-26,1,,,,,マブハイ,0
1545,6110001036217,新規,0,2021-11-26,2021-11-26,株式会社アカシックレコード,,株式会社,新潟県,新潟市東区,秋葉通２丁目３７２２番地１１５,,15,102,9500052,,,,,,,2021-11-26,1,,,,,アカシックレコード,0
1553,6120001242053,新規,0,2021-11-26,2021-11-26,株式会社ＴＩＰ,,株式会社,大阪府,大阪市東淀川区,東中島４丁目１０番７号,,27,114,5330033,,,,,,,2021-11-26,1,,,,,ティップ,0
1554,6120001242103,新規,0,2021-11-26,2021-11-26,株式会社Ｓ＆Ｒ,,株式会社,大阪府,枚方市,岡本町７番１号枚方ビオルネ５階,,27,210,5730031,,,,,,,2021-11-26,1,,,,,エスアンドアール,0
1555,6120001242128,新規,0,2021-11-26,2021-11-26,藤原海事株式会社,,株式会社,大阪府,大阪市浪速区,大国２丁目５－３－２０１号,,27,111,5560014,,,,,,,2021-11-26,1,,,,,フジワラカイジ,0
1556,6120001242136,新規,0,2021-11-26,2021-11-26,株式会社ディグ,,株式会社,大阪府,大阪市北区,梅田１丁目１番３－Ｂ１－４７,,27,127,5300001,,,,,,,2021-11-26,1,,,,,ディグ,0
1558,6120003020671,新規,0,2021-11-26,2021-11-26,ＳＡＮＧ　ＡＮ合同会社,,合同会社,大阪府,大阪市東淀川区,淡路２丁目６番１３号１Ｆ,,27,114,5330032,,,,,,,2021-11-26,1,,,,,サンアン,0
1561,6120101064694,新規,0,2021-11-26,2021-11-26,株式会社ＫＭＲ,,株式会社,大阪府,堺市南区,泉田中１６番地１,,27,145,5900126,,,,,,,2021-11-26,1,,,,,ケイエムアール,0
1566,6120903003916,新規,0,2021-11-26,2021-11-26,弥谷合同会社,,合同会社,大阪府,豊中市,東泉丘４丁目１番７－８０３号,,27,203,5610861,,,,,,,2021-11-26,1,,,,,ヤタニ,0
1574,6130001070602,新規,0,2021-11-26,2021-11-26,街ツク株式会社,,株式会社,京都府,京都市下京区,柿本町５９０－１０,,26,106,6008357,,,,,,,2021-11-26,1,,,,,マチツク,0
1575,6130001070610,新規,0,2021-11-26,2021-11-26,株式会社ＰＲＩＤＥ,,株式会社,京都府,京都市山科区,日ノ岡堤谷町５４番地の１,,26,110,6078494,,,,,,,2021-11-26,1,,,,,プライド,0
1577,6130003007602,新規,0,2021-11-26,2021-11-26,合同会社わだち,,合同会社,京都府,京都市左京区,田中西高原町１９－４－１０１,,26,103,6068241,,,,,,,2021-11-26,1,,,,,ワダチ,0
1583,6140001123978,新規,0,2021-11-26,2021-11-26,株式会社セイコー,,株式会社,兵庫県,神戸市北区,花山東町３－３２,,28,109,6511204,,,,,,,2021-11-26,1,,,,,セイコー,0
1587,6150001025125,新規,0,2021-11-26,2021-11-26,株式会社エコ－Ｊ,,株式会社,奈良県,奈良市,大宮町５丁目３番３３号新奈良ビル４０２号室,,29,201,6308115,,,,,,,2021-11-26,1,,,,,エコジェイ,0
1595,6180001148897,新規,0,2021-11-26,2021-11-26,株式会社Ａｍｙ,,株式会社,愛知県,名古屋市西区,西原町１０９番地喫茶リブロン２階,,23,104,4520848,,,,,,,2021-11-26,1,,,,,アミー,0
1598,6180301035655,新規,0,2021-11-26,2021-11-26,株式会社左京製作所,,株式会社,愛知県,豊橋市,船町２０３番地,,23,201,4400072,,,,,,,2021-11-26,1,,,,,サキョウセイサクショ,0
1599,6180301035663,新規,0,2021-11-26,2021-11-26,株式会社ビソーユニオン,,株式会社,愛知県,蒲郡市,浜町８１番地,,23,214,4430036,,,,,,,2021-11-26,1,,,,,ビソーユニオン,0
1607,6210001018709,新規,0,2021-11-26,2021-11-26,株式会社クマツグ,,株式会社,福井県,三方上中郡若狭町,熊川第３０号宮下６番地１,,18,501,9191532,,,,,,,2021-11-26,1,,,,,クマツグ,0
1614,6240001058974,新規,0,2021-11-26,2021-11-26,株式会社ＦｏｒＭ,,株式会社,広島県,福山市,明神町１丁目１４番５０号,,34,207,7210961,,,,,,,2021-11-26,1,,,,,フォーム,0
1621,6260001036251,新規,0,2021-11-26,2021-11-26,株式会社コネクト,,株式会社,岡山県,倉敷市,北畝６丁目１７番１６－１号,,33,202,7128032,,,,,,,2021-11-26,1,,,,,コネクト,0
1626,6290001095550,新規,0,2021-11-26,2021-11-26,二見ヶ浦マリンウオッセ株式会社,,株式会社,福岡県,福岡市博多区,神屋町８番,,40,132,8120022,,,,,,,2021-11-26,1,,,,,フタミガウラマリンウオッセ,0
1628,6290003011877,新規,0,2021-11-26,2021-11-26,合同会社Ｋ＆Ｍコンサルティング,,合同会社,福岡県,福岡市博多区,対馬小路７番１７－２０３号,,40,132,8120020,,,,,,,2021-11-26,1,,,,,ケイアンドエムコンサルティング,0
1634,6320001018747,新規,0,2021-11-26,2021-11-26,株式会社ＴＥＮＴＨ,,株式会社,大分県,豊後大野市,千歳町下山８７８番地１,,44,212,8797413,,,,,,,2021-11-26,1,,,,,テンス,0
1635,6320001018755,新規,0,2021-11-26,2021-11-26,株式会社ｆｌａｔ’ｓ,,株式会社,大分県,中津市,大字大貞３６６番地１,,44,203,8710153,,,,,,,2021-11-26,1,,,,,フラッツ,0
1636,6320003003664,新規,0,2021-11-26,2021-11-26,合同会社おおた夢楽,,合同会社,大分県,杵築市,大田沓掛２６０３番地１,,44,210,8790902,,,,,,,2021-11-26,1,,,,,オオタムラ,0
1639,6330001029223,新規,0,2021-11-26,2021-11-26,ＮＭＯＮ株式会社,,株式会社,熊本県,八代市,島田町９１６番地１,,43,202,8660827,,,,,,,2021-11-26,1,,,,,ンモン,0
1640,6330001029231,新規,0,2021-11-26,2021-11-26,株式会社ＨＩ．コネクト,,株式会社,熊本県,熊本市中央区,本山２丁目６番２号田代ビル２Ｆ,,43,101,8600821,,,,,,,2021-11-26,1,,,,,ハイコネクト,0
1642,6340001024289,新規,0,2021-11-26,2021-11-26,株式会社太栄丸,,株式会社,鹿児島県,出水郡長島町,諸浦９８８番地,,46,404,8991403,,,,,,,2021-11-26,1,,,,,タエイマル,0
1652,6380001032362,新規,0,2021-11-26,2021-11-26,株式会社フュージョン,,株式会社,福島県,相馬郡新地町,駒ケ嶺字鹿狼３４－１,,07,561,9792611,,,,,,,2021-11-26,1,,,,,フュージョン,0
1667,6430001085438,新規,0,2021-11-26,2021-11-26,株式会社Ｔｅａｍ４２,,株式会社,北海道,札幌市中央区,北五条西１０丁目１番１－５０２号,,01,101,0600005,,,,,,,2021-11-26,1,,,,,チームヨンジュウニ,0
1669,6430003013396,新規,0,2021-11-26,2021-11-26,合同会社全道ホールディングス,,合同会社,北海道,札幌市豊平区,平岸三条１４丁目３番１６号,,01,105,0620933,,,,,,,2021-11-26,1,,,,,ゼンドーホールディングス,0
1670,6440001008983,新規,0,2021-11-26,2021-11-26,八雲水力発電株式会社,,株式会社,北海道,二海郡八雲町,熊石雲石町９３２番地１,,01,346,0430416,,,,,,,2021-11-26,1,,,,,ヤクモスイリョクハツデン,0
1684,6700150105992,新規,0,2021-11-26,2021-11-26,Ｈ．Ｍ．ＥＮＴＥＲＰＲＩＳＥＳ,,外国会社等,千葉県,山武市,木原深作１４０２　オフィスＮｏ．１Ａ,,12,237,2891212,スリランカ民主社会主義共和国、マワネラ、ベリガムマナ、キャンディロード,,,,,,2021-11-26,1,,,,,エイチエムエンタープライセス,0
1697,7010001222817,新規,0,2021-11-26,2021-11-26,株式会社リアルティパートナーズ,,株式会社,東京都,中央区,小伝馬町１４番５号,,13,102,1030000,,,,,,,2021-11-26,1,,,,,リアルティパートナーズ,0
1698,7010001222833,新規,0,2021-11-26,2021-11-26,石垣製作所株式会社,,株式会社,東京都,千代田区,九段南４丁目７番３号,,13,101,1020074,,,,,,,2021-11-26,1,,,,,イシガキセイサクショ,0
1701,7010003036323,新規,0,2021-11-26,2021-11-26,合同会社Ｐａｔｃｈ　Ｗｏｒｋｓ,,合同会社,東京都,中央区,銀座１丁目２２番１１号銀座大竹ビジデンス２階,,13,102,1040061,,,,,,,2021-11-26,1,,,,,パッチワークス,0
1702,7010003036380,新規,0,2021-11-26,2021-11-26,ＲＢソーラーダイヤ合同会社,,合同会社,東京都,中央区,八丁堀４丁目２番１０号ＡＯＪ税理士法人内,,13,102,1040032,,,,,,,2021-11-26,1,,,,,アールビーソーラーダイヤ,0
1703,7010003036389,新規,0,2021-11-26,2021-11-26,合同会社高梨,,合同会社,東京都,文京区,白山５丁目２１番１３号,,13,105,1120001,,,,,,,2021-11-26,1,,,,,,0
1704,7010003036406,新規,0,2021-11-26,2021-11-26,合同会社メタクリエイト,,合同会社,東京都,中央区,銀座１丁目２２番１１号銀座大竹ビジデンス２階,,13,102,1040061,,,,,,,2021-11-26,1,,,,,メタクリエイト,0
1707,7010401164072,新規,0,2021-11-26,2021-11-26,株式会社Ｑｕａｔｔｒｏ　Ｂａｍｂｉ,,株式会社,東京都,港区,東麻布１丁目１３番２号１０２室,,13,103,1060044,,,,,,,2021-11-26,1,,,,,クアトロバンビ,0
1708,7010401164080,新規,0,2021-11-26,2021-11-26,株式会社零元,,株式会社,東京都,港区,南青山２丁目２番１５号,,13,103,1070062,,,,,,,2021-11-26,1,,,,,ゼロゲン,0
1714,7010501048142,新規,0,2021-11-26,2021-11-26,ＰＥＴＫＩＴ　ＪＡＰＡＮ株式会社,,株式会社,東京都,台東区,台東２丁目２７番３号ＮＳＫビル１０Ｆ,,13,106,1100016,,,,,,,2021-11-26,1,,,,,ペットキットジャパン,0
1715,7010601060294,新規,0,2021-11-26,2021-11-26,株式会社Ｌｉｅｎ,,株式会社,東京都,江東区,東陽３丁目１７番１２号,,13,108,1350016,,,,,,,2021-11-26,1,,,,,リアン,0
1717,7010603009273,新規,0,2021-11-26,2021-11-26,ジェイケイコンサルティング合同会社,,合同会社,東京都,江東区,住吉１丁目２番４号,,13,108,1350002,,,,,,,2021-11-26,1,,,,,ジェイケイコンサルティング,0
1718,7010701041839,新規,0,2021-11-26,2021-11-26,株式会社里崎組,,株式会社,東京都,品川区,東五反田５丁目２番１４号,,13,109,1410022,,,,,,,2021-11-26,1,,,,,サトザキグミ,0
1720,7010803003968,新規,0,2021-11-26,2021-11-26,合同会社ＢＵＮＴＯ,,合同会社,東京都,大田区,蒲田３丁目１８番５－１００２号,,13,111,1440052,,,,,,,2021-11-26,1,,,,,ブント,0
1729,7011001144225,新規,0,2021-11-26,2021-11-26,株式会社イーグルチャンス,,株式会社,東京都,目黒区,東山１丁目６番１号,,13,110,1530043,,,,,,,2021-11-26,1,,,,,イーグルチャンス,0
1736,7011103011208,新規,0,2021-11-26,2021-11-26,ＢａＬｓ合同会社,,合同会社,東京都,新宿区,西新宿３丁目３番１３号西新宿水間ビル６階,,13,104,1600023,,,,,,,2021-11-26,1,,,,,バルス,0
1737,7011103011216,新規,0,2021-11-26,2021-11-26,アペクシア合同会社,,合同会社,東京都,新宿区,西新宿８丁目１７番１号,,13,104,1600023,,,,,,,2021-11-26,1,,,,,アペクシア,0
1738,7011201023443,新規,0,2021-11-26,2021-11-26,株式会社グリース,,株式会社,東京都,中野区,南台３丁目３２番５号,,13,114,1640014,,,,,,,2021-11-26,1,,,,,グリース,0
1741,7011505002440,新規,0,2021-11-26,2021-11-26,一般社団法人患者目線,,その他の設立登記法人,東京都,荒川区,荒川２丁目３番１―２０５号,,13,118,1160002,,,,,,,2021-11-26,1,,,,,カンジャメセン,0
1742,7011701024866,新規,0,2021-11-26,2021-11-26,株式会社千壽,,株式会社,東京都,江戸川区,小松川３丁目７番５号,,13,123,1320034,,,,,,,2021-11-26,1,,,,,センジュ,0
1748,7011803004873,新規,0,2021-11-26,2021-11-26,合同会社ＤｉｒＣａｒｅ,,合同会社,東京都,足立区,南花畑２丁目１７番１４号ガーデンハウス松本１０３,,13,121,1210062,,,,,,,2021-11-26,1,,,,,ディレケア,0
1749,7012401038586,新規,0,2021-11-26,2021-11-26,株式会社ロープアクセス,,株式会社,東京都,三鷹市,深大寺３丁目１－９,,13,204,1810016,,,,,,,2021-11-26,1,,,,,ロープアクセス,0
1752,7013301048337,新規,0,2021-11-26,2021-11-26,株式会社新源,,株式会社,東京都,豊島区,池袋４丁目３番５号,,13,116,1710014,,,,,,,2021-11-26,1,,,,,シンゲン,0
1766,7020001144060,新規,0,2021-11-26,2021-11-26,株式会社ｍｏｏｎｓｈｏｔ,,株式会社,神奈川県,横浜市中区,桜木町１丁目１－７ヒューリックみなとみらい１０階,,14,104,2310062,,,,,,,2021-11-26,1,,,,,ムーンショット,0
1767,7020001144077,新規,0,2021-11-26,2021-11-26,Ｍ’ｓ　ｓｉｇｎ株式会社,,株式会社,神奈川県,横浜市戸塚区,名瀬町７９２－１１藤ロイヤル１０７,,14,110,2450051,,,,,,,2021-11-26,1,,,,,エムズサイン,0
1768,7020001144085,新規,0,2021-11-26,2021-11-26,未来エリード株式会社,,株式会社,神奈川県,横浜市神奈川区,菅田町１７８６番地１,,14,102,2210864,,,,,,,2021-11-26,1,,,,,ミライエリード,0
1772,7020003020879,新規,0,2021-11-26,2021-11-26,ＬＡＭＰ合同会社,,合同会社,神奈川県,川崎市多摩区,南生田３丁目９番１６号,,14,135,2140036,,,,,,,2021-11-26,1,,,,,ランプ,0
1773,7020003020887,新規,0,2021-11-26,2021-11-26,ＨＩＭＡＬ合同会社,,合同会社,神奈川県,横浜市磯子区,中原１丁目４番２－２０３号,,14,107,2350036,,,,,,,2021-11-26,1,,,,,ヒマル,0
1774,7020005015282,新規,0,2021-11-26,2021-11-26,一般財団法人杉山奨学財団,,その他の設立登記法人,神奈川県,横浜市神奈川区,金港町１番地７,,14,102,2210056,,,,,,,2021-11-26,1,,,,,スギヤマショウガクザイダン,0
1780,7030001145438,新規,0,2021-11-26,2021-11-26,サクセスファクトリー・タレント・ソリューションズ株式会社,,株式会社,埼玉県,さいたま市中央区,上落合４丁目６番３１号,,11,105,3380001,,,,,,,2021-11-26,1,,,,,サクセスファクトリータレントソリューションズ,0
1781,7030001145529,新規,0,2021-11-26,2021-11-26,株式会社奈良工業,,株式会社,埼玉県,さいたま市南区,根岸１丁目８番１６号１０１,,11,108,3360024,,,,,,,2021-11-26,1,,,,,ナラコウギョウ,0
1782,7030001145537,新規,0,2021-11-26,2021-11-26,株式会社ＨＯＢＯＲＨＮ,,株式会社,埼玉県,越谷市,北越谷１丁目２－２４－２０９号室,,11,222,3430026,,,,,,,2021-11-26,1,,,,,ホボロハン,0
1783,7030001145545,新規,0,2021-11-26,2021-11-26,株式会社ＳＡＫＵＲＡ　ＣＯＭ,,株式会社,埼玉県,越谷市,越ヶ谷２８７４番地１７－３０１,,11,222,3430024,,,,,,,2021-11-26,1,,,,,サクラコム,0
1784,7030001145553,新規,0,2021-11-26,2021-11-26,株式会社インメイ,,株式会社,埼玉県,川越市,稲荷町１７－４エマーユ稲荷町２０３号室,,11,201,3501144,,,,,,,2021-11-26,1,,,,,インメイ,0
1796,7040001121099,新規,0,2021-11-26,2021-11-26,ＧＣ　Ｉｎｎｏｖａｔｉｏｎｓ株式会社,,株式会社,千葉県,市川市,下貝塚２丁目１９－２５,,12,203,2720821,,,,,,,2021-11-26,1,,,,,ジーシーイノベーション,0
1797,7040001121124,新規,0,2021-11-26,2021-11-26,はづき工業株式会社,,株式会社,千葉県,旭市,江ケ崎１００番地,,12,215,2892503,,,,,,,2021-11-26,1,,,,,ハヅキコウギョウ,0
1798,7040001121149,新規,0,2021-11-26,2021-11-26,株式会社玉屋,,株式会社,千葉県,市川市,本塩１１番２７号,,12,203,2720104,,,,,,,2021-11-26,1,,,,,タマヤ,0
1838,7120001242102,新規,0,2021-11-26,2021-11-26,株式会社ケイズブレイン,,株式会社,大阪府,大阪市此花区,春日出中２丁目６番２６号,,27,104,5540022,,,,,,,2021-11-26,1,,,,,ケイズブレイン,0
1839,7120001242127,新規,0,2021-11-26,2021-11-26,アゲートエンジニアリング株式会社,,株式会社,大阪府,大阪市西淀川区,姫島３丁目３番２６号,,27,113,5550033,,,,,,,2021-11-26,1,,,,,アゲートエンジニアリング,0
1841,7120003020670,新規,0,2021-11-26,2021-11-26,ＳＴミライ合同会社,,合同会社,大阪府,枚方市,長尾荒阪２丁目３４５５番地の２,,27,210,5730103,,,,,,,2021-11-26,1,,,,,エスティーミライ,0
1849,7120901045265,新規,0,2021-11-26,2021-11-26,ＹＤ・ＰＬＵＳ株式会社,,株式会社,大阪府,豊能郡豊能町,ときわ台１丁目１１番地の１３,,27,321,5630102,,,,,,,2021-11-26,1,,,,,ワイディープラス,0
1863,7140001123969,新規,0,2021-11-26,2021-11-26,株式会社広築ホールディングス,,株式会社,兵庫県,姫路市,広畑区正門通４丁目１０番地１１,,28,201,6711116,,,,,,,2021-11-26,1,,,,,ヒロチクホールディングス,0
1883,7180301035662,新規,0,2021-11-26,2021-11-26,株式会社エスケイリンク,,株式会社,愛知県,岡崎市,八帖北町３番地１０,,23,202,4440924,,,,,,,2021-11-26,1,,,,,エスケイリンク,0
1906,7260001036242,新規,0,2021-11-26,2021-11-26,株式会社アンジー,,株式会社,岡山県,岡山市中区,倉田６５０番地２１,,33,102,7038265,,,,,,,2021-11-26,1,,,,,アンジー,0
1909,7270001008397,新規,0,2021-11-26,2021-11-26,株式会社リトルペアーズ,,株式会社,鳥取県,米子市,米原６丁目１番１１号,,31,202,6830804,,,,,,,2021-11-26,1,,,,,リトルペアーズ,0
1915,7290001095533,新規,0,2021-11-26,2021-11-26,株式会社優正教育,,株式会社,福岡県,福岡市中央区,荒戸２丁目２番２５号,,40,133,8100062,,,,,,,2021-11-26,1,,,,,ユウショウキョウイク,0
1916,7290001095541,新規,0,2021-11-26,2021-11-26,株式会社安河内,,株式会社,福岡県,糟屋郡粕屋町,甲仲原２丁目４番１５号,,40,349,8112315,,,,,,,2021-11-26,1,,,,,ヤスコウチ,0
1917,7290001095558,新規,0,2021-11-26,2021-11-26,株式会社ＺＯＯ,,株式会社,福岡県,福岡市中央区,清川２丁目９番４号,,40,133,8100005,,,,,,,2021-11-26,1,,,,,ズー,0
1921,7290003011868,新規,0,2021-11-26,2021-11-26,合同会社あい,,合同会社,福岡県,福岡市東区,城浜団地２６番６０６号,,40,131,8130045,,,,,,,2021-11-26,1,,,,,アイ,0
1925,7300001012726,新規,0,2021-11-26,2021-11-26,株式会社サラノキ,,株式会社,佐賀県,佐賀市,若宮１丁目１７番６５号,,41,201,8490926,,,,,,,2021-11-26,1,,,,,サラノキ,0
1930,7320001018754,新規,0,2021-11-26,2021-11-26,株式会社やまの窓口おおいた,,株式会社,大分県,日田市,大字東有田１２０５番地１０,,44,204,8770000,,,,,,,2021-11-26,1,,,,,ヤマノマドグチオオイタ,0
1932,7320003003663,新規,0,2021-11-26,2021-11-26,合同会社ＭＳサポート,,合同会社,大分県,豊後大野市,三重町赤嶺２７８５番地２,,44,212,8797111,,,,,,,2021-11-26,1,,,,,エムエスサポート,0
1940,7360001029681,新規,0,2021-11-26,2021-11-26,株式会社ｌａｕｇｈｔｅｒＯＫＩＮＡＷＡ,,株式会社,沖縄県,中頭郡読谷村,字楚辺１４８９番地７,,47,324,9040304,,,,,,,2021-11-26,1,,,,,ラフターオキナワ,0
1942,7360003011596,新規,0,2021-11-26,2021-11-26,Ｈｓ合同会社,,合同会社,沖縄県,名護市,宇茂佐の森５丁目２番１０号,,47,209,9050009,,,,,,,2021-11-26,1,,,,,エイチエス,0
1944,7380001032361,新規,0,2021-11-26,2021-11-26,株式会社リベルテ,,株式会社,福島県,郡山市,柏山町４４番地,,07,203,9630202,,,,,,,2021-11-26,1,,,,,リベルテ,0
1959,7430001085445,新規,0,2021-11-26,2021-11-26,株式会社М’ｓ　ｆａｃｔｏｒｙ,,株式会社,北海道,苫小牧市,本幸町１丁目１番１号,,01,213,0530015,,,,,,,2021-11-26,1,,,,,エムズファクトリー,0
1961,7430003013395,新規,0,2021-11-26,2021-11-26,合同会社Ｂｏｗ＆Ａｒｒｏｗ,,合同会社,北海道,札幌市西区,西町南１３丁目１番１号,,01,107,0630062,,,,,,,2021-11-26,1,,,,,ボウアンドアロウ,0
1963,7440003001432,新規,0,2021-11-26,2021-11-26,合同会社フードプロデュースミウラ,,合同会社,北海道,函館市,桔梗５丁目３７番１３号,,01,202,0410808,,,,,,,2021-11-26,1,,,,,フードプロデュースミウラ,0
1964,7450001013536,新規,0,2021-11-26,2021-11-26,クリニックコンサルティングサービス株式会社,,株式会社,北海道,旭川市,春光五条９丁目１０番６号,,01,204,0700875,,,,,,,2021-11-26,1,,,,,クリニックコンサルティングサービス,0
1976,7700150105991,新規,0,2021-11-26,2021-11-26,ＤＩＳＡＮＡＹＡＫＡ　ＥＮＴＥＲＰＲＩＳＥＳ,,外国会社等,千葉県,山武市,木原２０３１－２１オフィスＮｏ．１,,12,237,2891212,スリランカ民主社会主義共和国、ウェヤンゴダ、アラワラ、ヘパナカンダＮｏ．８３,,,,,,2021-11-26,1,,,,,デイサナヤカエンタープライセス,0
1983,8010001222808,新規,0,2021-11-26,2021-11-26,Ｔｏｋｙｏ　Ｃｉｔｙ　Ｉｎｖｅｓｔｍｅｎｔ株式会社,,株式会社,東京都,千代田区,神田淡路町１丁目９番地５,,13,101,1010063,,,,,,,2021-11-26,1,,,,,トウキョウシティインベストメント,0
1984,8010001222816,新規,0,2021-11-26,2021-11-26,株式会社ラルムスイーツ,,株式会社,東京都,千代田区,神田松永町１番地河本ビル３階,,13,101,1010023,,,,,,,2021-11-26,1,,,,,ラルムスイーツ,0
1985,8010001222849,新規,0,2021-11-26,2021-11-26,インターナショナル・ケミカル・エンティティ・ジャパン株式会社,,株式会社,東京都,千代田区,丸の内１丁目１番１号,,13,101,1000005,,,,,,,2021-11-26,1,,,,,インターナショナルケミカルエンティティジャパン,0
1986,8010001222857,新規,0,2021-11-26,2021-11-26,Ａｙｏｉ株式会社,,株式会社,東京都,文京区,本郷３丁目３４番４号本郷ＪＫＨビル３Ｆ,,13,105,1130033,,,,,,,2021-11-26,1,,,,,アヨイ,0
1991,8010003036306,新規,0,2021-11-26,2021-11-26,ＭＩＲＯＫＵ合同会社,,合同会社,東京都,千代田区,神田小川町３丁目２４番１－４０６号,,13,101,1010052,,,,,,,2021-11-26,1,,,,,ミロク,0
1992,8010003036388,新規,0,2021-11-26,2021-11-26,ＭＯＮＯ　ＳＭＩＬＥＮ合同会社,,合同会社,東京都,中央区,日本橋堀留町１丁目６番３号パレドール日本橋４１３,,13,102,1030012,,,,,,,2021-11-26,1,,,,,モノスマイレン,0
1993,8010003036421,新規,0,2021-11-26,2021-11-26,ＴＯＤＡ農房常総合同会社,,合同会社,東京都,中央区,八丁堀２丁目２０番８号,,13,102,1040032,,,,,,,2021-11-26,1,,,,,トダノウボウジョウソウ,0
2000,8010401164039,新規,0,2021-11-26,2021-11-26,株式会社ハートリード,,株式会社,東京都,港区,南麻布１丁目１０－８エスティメゾン５０３,,13,103,1060047,,,,,,,2021-11-26,1,,,,,ハートリード,0
2003,8010403026542,新規,0,2021-11-26,2021-11-26,合同会社ほくたい須崎発電所,,合同会社,東京都,港区,西新橋３丁目２４番８号山内ビル４階,,13,103,1050003,,,,,,,2021-11-26,1,,,,,ホクタイスザキハツデンショ,0
2012,8010803003967,新規,0,2021-11-26,2021-11-26,合同会社新世代エネルギー第三発電所,,合同会社,東京都,大田区,中央７丁目５番６号税理士法人Ｔ＆Ａコンサルティング内,,13,111,1430024,,,,,,,2021-11-26,1,,,,,シンセダイエネルギーダイサンハツデンショ,0
2020,8011001144109,新規,0,2021-11-26,2021-11-26,株式会社ｔａｆｔ,,株式会社,東京都,渋谷区,神南１丁目８番１７号,,13,113,1500041,,,,,,,2021-11-26,1,,,,,タフト,0
2021,8011001144199,新規,0,2021-11-26,2021-11-26,株式会社ＷＡＫ,,株式会社,東京都,渋谷区,幡ヶ谷１丁目３番１－１０１１号,,13,113,1510072,,,,,,,2021-11-26,1,,,,,ワク,0
2025,8011101097017,新規,0,2021-11-26,2021-11-26,株式会社サップ,,株式会社,東京都,新宿区,新宿１丁目３６番２号新宿第七葉山ビル３階,,13,104,1600022,,,,,,,2021-11-26,1,,,,,サップ,0
2026,8011101097033,新規,0,2021-11-26,2021-11-26,バーナーズ株式会社,,株式会社,東京都,新宿区,西新宿６丁目５番１号新宿アイランドタワー４１階,,13,104,1600023,,,,,,,2021-11-26,1,,,,,バーナーズ,0
2034,8011103011215,新規,0,2021-11-26,2021-11-26,合同会社Ｙｏｕ’ｓ　ｔｏｏ　ｍｅ,,合同会社,東京都,新宿区,北新宿３丁目９番８号ロックハイムＩＩ，１Ｆ－Ｂ,00124966,13,104,1690074,,,,,,,2021-11-26,1,,,,,ユーズトゥーミー,0
2036,8011201023442,新規,0,2021-11-26,2021-11-26,株式会社グランドアルファ,,株式会社,東京都,中野区,松が丘１丁目１２番６号,,13,114,1650024,,,,,,,2021-11-26,1,,,,,グランドアルファ,0
2041,8011503004990,新規,0,2021-11-26,2021-11-26,合同会社このはずく,,合同会社,東京都,北区,浮間１丁目１５番１－２１１号,,13,117,1150051,,,,,,,2021-11-26,1,,,,,コノハズク,0
2043,8011601025559,新規,0,2021-11-26,2021-11-26,株式会社Ｇｒｏｗｔｈ　Ｐｒｏｃｅｓｓ,,株式会社,東京都,練馬区,光が丘３丁目９番１－１４０４号,,13,120,1790072,,,,,,,2021-11-26,1,,,,,グロウスプロセス,0
2044,8011701024865,新規,0,2021-11-26,2021-11-26,京葉冷熱工業株式会社,,株式会社,東京都,江戸川区,東葛西４丁目１２番１７号,,13,123,1340084,,,,,,,2021-11-26,1,,,,,ケイヨウレイネツコウギョウ,0
2045,8011703003000,新規,0,2021-11-26,2021-11-26,合同会社ＣＯＣＯＲＯＮ,,合同会社,東京都,江戸川区,篠崎町７丁目２６－１３,,13,123,1330061,,,,,,,2021-11-26,1,,,,,ココロン,0
2049,8011801040003,新規,0,2021-11-26,2021-11-26,株式会社三信商事,,株式会社,東京都,足立区,鹿浜２丁目３５番２号,,13,121,1230864,,,,,,,2021-11-26,1,,,,,サンシンショウジ,0
2051,8012401038577,新規,0,2021-11-26,2021-11-26,株式会社ルークス,,株式会社,東京都,小金井市,貫井南町１丁目２２番３号,,13,210,1840014,,,,,,,2021-11-26,1,,,,,ルークス,0
2054,8012803002651,新規,0,2021-11-26,2021-11-26,タオンガ合同会社,,合同会社,東京都,国立市,北２丁目４番の１６カーサ・１Ｆ２０２,,13,215,1860001,,,,,,,2021-11-26,1,,,,,,0
2063,8020001144084,新規,0,2021-11-26,2021-11-26,シンヤファーム株式会社,,株式会社,神奈川県,横浜市港北区,箕輪町１丁目１６番８号,,14,109,2230051,,,,,,,2021-11-26,1,,,,,シンヤファーム,0
2068,8020005015281,新規,0,2021-11-26,2021-11-26,一般社団法人つなぐ,,その他の設立登記法人,神奈川県,横浜市神奈川区,七島町５９番地,,14,102,2210061,,,,,,,2021-11-26,1,,,,,ツナグ,0
2077,8021002073917,新規,0,2021-11-26,2021-11-26,真生倣加工有限会社,,有限会社,神奈川県,厚木市,下川入２０１番地１,,14,212,2430206,,,,,,,2021-11-26,1,,,,,シンセイホウカコウ,0
2090,8030001145486,新規,0,2021-11-26,2021-11-26,株式会社ジェイアンドエヌ,,株式会社,埼玉県,戸田市,美女木北３丁目２番地の１レーベンハイム戸田ソラリエ２０６号室,,11,224,3350038,,,,,,,2021-11-26,1,,,,,ジェイアンドエヌ,0
2091,8030001145503,新規,0,2021-11-26,2021-11-26,株式会社ＳＴＡＺＩＥＬ,,株式会社,埼玉県,川口市,芝２丁目４番２１号,,11,203,3330866,,,,,,,2021-11-26,1,,,,,スタジール,0
2092,8030001145528,新規,0,2021-11-26,2021-11-26,株式会社ＥＰＣ,,株式会社,埼玉県,川口市,大字東本郷１３７７番地の８－１Ｆ,,11,203,3340063,,,,,,,2021-11-26,1,,,,,イーピーシー,0
2093,8030001145536,新規,0,2021-11-26,2021-11-26,株式会社嘉富商事,,株式会社,埼玉県,川口市,並木２丁目４０番１５号４０３号室,,11,203,3320034,,,,,,,2021-11-26,1,,,,,カフショウジ,0
2094,8030001145544,新規,0,2021-11-26,2021-11-26,株式会社ＬＵＣＫ　ＡＵＴＯ,,株式会社,埼玉県,川口市,本町３丁目１番５－７０６号群峰川口本町マンション,,11,203,3320012,,,,,,,2021-11-26,1,,,,,ラックオート,0
2095,8030001145560,新規,0,2021-11-26,2021-11-26,株式会社ケーオ,,株式会社,埼玉県,北葛飾郡松伏町,大字松伏２４６４番地１,,11,465,3430111,,,,,,,2021-11-26,1,,,,,ケーオ,0
2099,8030003018384,新規,0,2021-11-26,2021-11-26,合同会社トゥルース・コア,,合同会社,埼玉県,川越市,石原町２丁目４９番地９（第３フジハイツ２０１号室）,,11,201,3500824,,,,,,,2021-11-26,1,,,,,トゥルースコア,0
2108,8040001121148,新規,0,2021-11-26,2021-11-26,株式会社ティー・エヌ・ジェイ,,株式会社,千葉県,成田市,土屋７０１番地２２,,12,211,2860021,,,,,,,2021-11-26,1,,,,,ティーエヌジェイ,0
2110,8040003019010,新規,0,2021-11-26,2021-11-26,ＫＣ　ｐｌｕｓ合同会社,,合同会社,千葉県,千葉市若葉区,加曽利町１５２９番地３１,,12,104,2640017,,,,,,,2021-11-26,1,,,,,ケーシープラス,0
2113,8050001050197,新規,0,2021-11-26,2021-11-26,株式会社発見,,株式会社,茨城県,水戸市,南町１丁目２－２６－１Ｆ,,08,201,3100021,,,,,,,2021-11-26,1,,,,,ハッケン,0
2114,8050001050206,新規,0,2021-11-26,2021-11-26,株式会社ＡＬＯＨＡ,,株式会社,茨城県,牛久市,さくら台３丁目７番地２６,,08,219,3001217,,,,,,,2021-11-26,1,,,,,アロハ,0
2116,8050003006189,新規,0,2021-11-26,2021-11-26,合同会社サポート,,合同会社,茨城県,石岡市,真家２１９８番地,,08,205,3150121,,,,,,,2021-11-26,1,,,,,サポート,0
2125,8070001038686,新規,0,2021-11-26,2021-11-26,ハヤシ工業株式会社,,株式会社,群馬県,利根郡みなかみ町,藤原７５８番地２,,10,449,3791721,,,,,,,2021-11-26,1,,,,,ハヤシコウギョウ,0
2129,8080403004418,新規,0,2021-11-26,2021-11-26,Ｖｅｒ合同会社,,合同会社,静岡県,浜松市中区,海老塚１丁目７－１７オスカーマンションＴ－２,,22,131,4328033,,,,,,,2021-11-26,1,,,,,フェア,0
2134,8100003006299,新規,0,2021-11-26,2021-11-26,合同会社地域生活支援ムネマル,,合同会社,長野県,上田市,上田１９２８番地５サニーハイツ２０３号,,20,203,3860001,,,,,,,2021-11-26,1,,,,,チイキセイカツシエンムネマル,0
2137,8110001036207,新規,0,2021-11-26,2021-11-26,株式会社ＮＢＣＴ,,株式会社,新潟県,長岡市,城内町３丁目４番地１４,,15,202,9400061,,,,,,,2021-11-26,1,,,,,エヌビーシーティー,0
2151,8120901027865,新規,0,2021-11-26,2021-11-26,株式会社山崎,,株式会社,大阪府,豊中市,緑丘１丁目２４番７号,,27,203,5600002,,,,,,,2021-11-26,1,,,,,ヤマザキ,0
2153,8120901045264,新規,0,2021-11-26,2021-11-26,株式会社ＳＡＮプロジェクト,,株式会社,大阪府,吹田市,寿町２丁目１－１１－１Ｆ,,27,205,5640036,,,,,,,2021-11-26,1,,,,,サンプロジェクト,0
2157,8130001070609,新規,0,2021-11-26,2021-11-26,株式会社ＲＥＶＩＶＡＬ,,株式会社,京都府,長岡京市,光風台３－３,,26,209,6170851,,,,,,,2021-11-26,1,,,,,リバイバル,0
2176,8180001148879,新規,0,2021-11-26,2021-11-26,株式会社ＫＮＳ,,株式会社,愛知県,知多市,八幡字新道５９番地の２３６,,23,224,4780001,,,,,,,2021-11-26,1,,,,,ケーエヌエス,0
2177,8180001148887,新規,0,2021-11-26,2021-11-26,株式会社暁リアルエステイトマネジメント,,株式会社,愛知県,春日井市,高座町１９２８番地６２,,23,206,4870012,,,,,,,2021-11-26,1,,,,,アカツキリアルエステイトマネジメント,0
2178,8180001148895,新規,0,2021-11-26,2021-11-26,株式会社メイユール,,株式会社,愛知県,名古屋市北区,安井１丁目１１番２８号,,23,103,4620023,,,,,,,2021-11-26,1,,,,,メイユール,0
2185,8190003003833,新規,0,2021-11-26,2021-11-26,合同会社つばめ,,合同会社,三重県,三重郡川越町,大字豊田１００６番地,,24,344,5108122,,,,,,,2021-11-26,1,,,,,ツバメ,0
2189,8210001018707,新規,0,2021-11-26,2021-11-26,株式会社ＣＡＬＩＮ　ＰＡＩＲＥ,,株式会社,福井県,福井市,乾徳１丁目６番２３号,,18,201,9100021,,,,,,,2021-11-26,1,,,,,カランペール,0
2191,8220001024563,新規,0,2021-11-26,2021-11-26,Ｐ＆Ｈ株式会社,,株式会社,石川県,金沢市,みずき３丁目４２番地,,17,201,9200201,,,,,,,2021-11-26,1,,,,,ピーアンドエイチ,0
2193,8240001058980,新規,0,2021-11-26,2021-11-26,株式会社ＷＡＣＫ,,株式会社,広島県,広島市東区,馬木４丁目２００８番地４,,34,102,7320031,,,,,,,2021-11-26,1,,,,,ワック,0
2202,8260001036241,新規,0,2021-11-26,2021-11-26,株式会社羽賀コーポレーション,,株式会社,岡山県,岡山市中区,円山７８番地１,,33,102,7038271,,,,,,,2021-11-26,1,,,,,ハガコーポレーション,0
2204,8290001095524,新規,0,2021-11-26,2021-11-26,ウエスト株式会社,,株式会社,福岡県,福岡市早良区,百道３丁目１５－２２サンライズ百道２０２号室,,40,137,8140006,,,,,,,2021-11-26,1,,,,,ウエスト,0
2205,8290001095532,新規,0,2021-11-26,2021-11-26,株式会社ＡＫ　ｏｆｆｉｃｅ,,株式会社,福岡県,福岡市博多区,青木１丁目１７番１号,,40,132,8120851,,,,,,,2021-11-26,1,,,,,エーケーオフィス,0
2206,8290001095540,新規,0,2021-11-26,2021-11-26,株式会社内部体制最適化,,株式会社,福岡県,福岡市中央区,六本松４丁目２番６－３２６号,,40,133,8100044,,,,,,,2021-11-26,1,,,,,ナイブタイセイサイテキカ,0
2207,8290001095549,新規,0,2021-11-26,2021-11-26,株式会社ＮＥＸＵＳ,,株式会社,福岡県,福岡市早良区,百道浜４丁目３１番１号,,40,137,8140001,,,,,,,2021-11-26,1,,,,,ネクサス,0
2208,8290001095557,新規,0,2021-11-26,2021-11-26,株式会社伝蔵,,株式会社,福岡県,福岡市博多区,東光２丁目２２番３９号,,40,132,8120008,,,,,,,2021-11-26,1,,,,,デンゾウ,0
2221,8330001029221,新規,0,2021-11-26,2021-11-26,株式会社サンウォーター,,株式会社,熊本県,八代市,鏡町鏡村９１７番地,,43,202,8694201,,,,,,,2021-11-26,1,,,,,サンウォーター,0
2229,8360003011595,新規,0,2021-11-26,2021-11-26,合同会社オンリーワン,,合同会社,沖縄県,沖縄市,美里６丁目１２番１号,,47,211,9042153,,,,,,,2021-11-26,1,,,,,オンリーワン,0
2237,8380001032369,新規,0,2021-11-26,2021-11-26,株式会社スタイル,,株式会社,福島県,福島市,笹木野字中金谷６０番地の７,,07,201,9608057,,,,,,,2021-11-26,1,,,,,スタイル,0
2239,8400001015684,新規,0,2021-11-26,2021-11-26,ミウラ興業株式会社,,株式会社,岩手県,盛岡市,北飯岡４丁目１４番１５－１０２号,,03,201,0200857,,,,,,,2021-11-26,1,,,,,ミウラコウギョウ,0
2241,8420001017662,新規,0,2021-11-26,2021-11-26,株式会社銀座商店,,株式会社,青森県,青森市,大字駒込字桐ノ沢１２１番地３,,02,201,0300955,,,,,,,2021-11-26,1,,,,,ギンザショウテン,0
2242,8420003002415,新規,0,2021-11-26,2021-11-26,ＴＳサポート合同会社,,合同会社,青森県,八戸市,大字市川町字尻引前山３１番地１８１０,,02,203,0392241,,,,,,,2021-11-26,1,,,,,ティーエスサポート,0
2246,8430001085444,新規,0,2021-11-26,2021-11-26,ＭＳＱＵＡＲＥＤ株式会社,,株式会社,北海道,札幌市豊平区,平岸四条１７丁目８番１号,,01,105,0620934,,,,,,,2021-11-26,1,,,,,エムスクエアード,0
2247,8430001085452,新規,0,2021-11-26,2021-11-26,株式会社ヴィーヴォ,,株式会社,北海道,登別市,美園町４丁目６番地１,,01,230,0590036,,,,,,,2021-11-26,1,,,,,ヴィーヴォ,0
2252,8430003013394,新規,0,2021-11-26,2021-11-26,合同会社すはら,,合同会社,北海道,札幌市西区,発寒七条５丁目１１番３０－９０４号,,01,107,0630827,,,,,,,2021-11-26,1,,,,,スハラ,0
2254,8450001013535,新規,0,2021-11-26,2021-11-26,株式会社ペコラファーム,,株式会社,北海道,士別市,東二条５丁目１３番地２,,01,220,0950012,,,,,,,2021-11-26,1,,,,,ペコラファーム,0
2273,9010001222807,新規,0,2021-11-26,2021-11-26,株式会社Ｌｉａ,,株式会社,東京都,中央区,日本橋蛎殻町１丁目３番３－１００５号,,13,102,1030014,,,,,,,2021-11-26,1,,,,,リア,0
2275,9010003036387,新規,0,2021-11-26,2021-11-26,Ｉｎｔｅｒｖｅｎｉｎｇ　Ｖａｌｕｅ合同会社,,合同会社,東京都,中央区,日本橋２丁目１番１７号丹生ビル２階,,13,102,1030027,,,,,,,2021-11-26,1,,,,,インタービーニングバリュー,0
2276,9010003036395,新規,0,2021-11-26,2021-11-26,合同会社京インベストメント,,合同会社,東京都,中央区,日本橋人形町３丁目１２－１０ＢＥＡＫＥＲ３１２室,,13,102,1030013,,,,,,,2021-11-26,1,,,,,キョウインベストメント,0
2295,9010401164013,新規,0,2021-11-26,2021-11-26,システム松田株式会社,,株式会社,東京都,港区,六本木４丁目８番７号六本木嶋田ビル５階,,13,103,1060032,,,,,,,2021-11-26,1,,,,,システムマツダ,0
2296,9010401164021,新規,0,2021-11-26,2021-11-26,Ｅｍｐｏｗｅｒｅｄ　Ｓｙｓｔｅｍｓ株式会社,,株式会社,東京都,港区,西麻布１丁目４番４０号西麻布ＳＨＩＮＯビル４階,,13,103,1060031,,,,,,,2021-11-26,1,,,,,エンパワードシステムズ,0
2302,9010403026541,新規,0,2021-11-26,2021-11-26,合同会社Ｈエナジー,,合同会社,東京都,港区,西新橋３丁目２４番８号山内ビル４階,,13,103,1050003,,,,,,,2021-11-26,1,,,,,エイチエナジー,0
2303,9010403026574,新規,0,2021-11-26,2021-11-26,ＦＡＴ　ＭＩＧＨＴＹ合同会社,,合同会社,東京都,港区,南青山２丁目２番１５号,,13,103,1070062,,,,,,,2021-11-26,1,,,,,ファットマイティ,0
2310,9010601060284,新規,0,2021-11-26,2021-11-26,株式会社トリプルツー,,株式会社,東京都,江東区,有明１丁目４番２０－６１９号,,13,108,1350063,,,,,,,2021-11-26,1,,,,,トリプルツー,0
2311,9010601060292,新規,0,2021-11-26,2021-11-26,株式会社ミリナリー,,株式会社,東京都,墨田区,八広６丁目１９番３号,,13,107,1310041,,,,,,,2021-11-26,1,,,,,ミリナリー,0
2312,9010603009271,新規,0,2021-11-26,2021-11-26,合同会社ＳＤＳｗｏｒｋｓ,,合同会社,東京都,江東区,東陽１丁目２５番１３号角寿々コーポ１０３,,13,108,1350016,,,,,,,2021-11-26,1,,,,,エスディーエスワークス,0
2313,9010701041754,新規,0,2021-11-26,2021-11-26,インフォグルーヴ株式会社,,株式会社,東京都,品川区,八潮５丁目１０番５４－９０８号,,13,109,1400003,,,,,,,2021-11-26,1,,,,,インフォグルーヴ,0
2318,9010803003966,新規,0,2021-11-26,2021-11-26,合同会社新世代エネルギー第一発電所,,合同会社,東京都,大田区,中央７丁目５番６号税理士法人Ｔ＆Ａコンサルティング内,,13,111,1430024,,,,,,,2021-11-26,1,,,,,シンセダイエネルギーダイイチハツデンショ,0
2326,9011001144108,新規,0,2021-11-26,2021-11-26,株式会社ＷＡＬＫ,,株式会社,東京都,渋谷区,神宮前６丁目２３番４号桑野ビル２階,,13,113,1500001,,,,,,,2021-11-26,1,,,,,ウォーク,0
2327,9011001144116,新規,0,2021-11-26,2021-11-26,株式会社ＮＯＩ,,株式会社,東京都,目黒区,下目黒２丁目９番２－３１３号,,13,110,1530064,,,,,,,2021-11-26,1,,,,,エヌオーアイ,0
2328,9011001144165,新規,0,2021-11-26,2021-11-26,株式会社ＴＳＵＮＡＧＵ未来,,株式会社,東京都,渋谷区,恵比寿４丁目２０番３号恵比寿ガーデンプレイスタワー１８階,,13,113,1500013,,,,,,,2021-11-26,1,,,,,ツナグミライ,0
2329,9011001144231,新規,0,2021-11-26,2021-11-26,株式会社Ｐｒｏｒｉｕｍ,,株式会社,東京都,渋谷区,渋谷２丁目３番４号青山ＴＮビル５階,,13,113,1500002,,,,,,,2021-11-26,1,,,,,プロリウム,0
2332,9011101096991,新規,0,2021-11-26,2021-11-26,株式会社ＭＫＭ,,株式会社,東京都,新宿区,高田馬場４丁目４０番２－３０１号,,13,104,1690075,,,,,,,2021-11-26,1,,,,,エムケーエム,0
2333,9011101097024,新規,0,2021-11-26,2021-11-26,漢方医学振興機構株式会社,,株式会社,東京都,新宿区,左門町２番地４マイネシュロッス四谷５０６,,13,104,1600017,,,,,,,2021-11-26,1,,,,,カンポウイガクシンコウキコウ,0
2334,9011101097032,新規,0,2021-11-26,2021-11-26,株式会社Ｔｏｋｙｏ　Ｃｏｏｋｉｅ　Ｅｎｇｌｉｓｈ,,株式会社,東京都,新宿区,住吉町８番８号ハイツ住吉１０１,,13,104,1620065,,,,,,,2021-11-26,1,,,,,トウキョウクッキーイングリッシュ,0
2336,9011103011214,新規,0,2021-11-26,2021-11-26,合同会社マジカリ,,合同会社,東京都,新宿区,左門町１４番地６１フォルム四谷外苑東１３０８,,13,104,1600017,,,,,,,2021-11-26,1,,,,,マジカリ,0
2337,9011303004232,新規,0,2021-11-26,2021-11-26,サンライト合同会社,,合同会社,東京都,杉並区,西荻北５丁目２１番３号,,13,115,1670042,,,,,,,2021-11-26,1,,,,,サンライト,0
2340,9011601025558,新規,0,2021-11-26,2021-11-26,ＭＧＲ株式会社,,株式会社,東京都,練馬区,向山１丁目１５番３号プリザーヴ中村橋ＩＩ１０５,00124967,13,120,1760022,,,,,,,2021-11-26,1,,,,,エムジーアール,0
2346,9013301048335,新規,0,2021-11-26,2021-11-26,株式会社Ｓｈｅｅｎ,,株式会社,東京都,豊島区,目白３丁目５番１２号,,13,116,1710031,,,,,,,2021-11-26,1,,,,,シーン,0
2352,9020001144067,新規,0,2021-11-26,2021-11-26,株式会社ＮＭＤ,,株式会社,神奈川県,横浜市中区,南仲通５丁目５７番地,,14,104,2310006,,,,,,,2021-11-26,1,,,,,エヌエムディー,0
2353,9020001144083,新規,0,2021-11-26,2021-11-26,株式会社プリンシプルサポート,,株式会社,神奈川県,川崎市多摩区,宿河原２丁目２２番地２７号２Ｆ,,14,135,2140021,,,,,,,2021-11-26,1,,,,,プリンシプルサポート,0
2361,9020003020885,新規,0,2021-11-26,2021-11-26,Ｍ７８６合同会社,,合同会社,神奈川県,川崎市中原区,上丸子八幡町１４９５番地１－７０４,,14,133,2110001,,,,,,,2021-11-26,1,,,,,エムナナハチロク,0
2379,9030001145510,新規,0,2021-11-26,2021-11-26,株式会社ＭＩＮＡＭＩ商事,,株式会社,埼玉県,川口市,金山町１０－１－３０１号室,,11,203,3320014,,,,,,,2021-11-26,1,,,,,ミナミショウジ,0
2380,9030001145535,新規,0,2021-11-26,2021-11-26,エスポワール株式会社,,株式会社,埼玉県,上尾市,緑丘１丁目３番２８号緑丘壱番館２０２,,11,219,3620015,,,,,,,2021-11-26,1,,,,,エスポワール,0
2381,9030001145543,新規,0,2021-11-26,2021-11-26,クレイン株式会社,,株式会社,埼玉県,草加市,新栄２丁目１番地４パークアベニューＩ－２０１号,00124964,11,221,3400056,,,,,,,2021-11-26,1,,,,,クレイン,0
2382,9030001145551,新規,0,2021-11-26,2021-11-26,株式会社シンヨウ,,株式会社,埼玉県,八潮市,大字南川崎５３２番地１リコテラスＴＸ７０１号,,11,234,3400814,,,,,,,2021-11-26,1,,,,,シンヨウ,0
2387,9030003018367,新規,0,2021-11-26,2021-11-26,合同会社ＷＩＮＤＦＡＬＬ　ＨＯＬＤＩＮＧＳ,,合同会社,埼玉県,越谷市,東越谷５丁目３－１,,11,222,3430023,,,,,,,2021-11-26,1,,,,,ウィンドフォールホールディングス,0
2388,9030003018383,新規,0,2021-11-26,2021-11-26,Ｊ－Ｗｏｎｄｅｒ合同会社,,合同会社,埼玉県,川越市,大字山田１６２４番地３,,11,201,3500822,,,,,,,2021-11-26,1,,,,,ジェイワンダー,0
2389,9030003018391,新規,0,2021-11-26,2021-11-26,合同会社ＪＡＰＡＮ　ＧＬＯＢＡＬ　ＴＲＡＤＩＮＧ,,合同会社,埼玉県,坂戸市,大字片柳２１３１番８号,,11,239,3500219,,,,,,,2021-11-26,1,,,,,ジャパングローバルトレーディング,0
2392,9040001121122,新規,0,2021-11-26,2021-11-26,株式会社ＰｌｕｓＷＡＮ,,株式会社,千葉県,船橋市,習志野台８丁目２５番２０号,,12,204,2740063,,,,,,,2021-11-26,1,,,,,プラスワン,0
2393,9040001121155,新規,0,2021-11-26,2021-11-26,ミライズ不動産販売株式会社,,株式会社,千葉県,船橋市,三咲３丁目１番１４号増田ハイツ２０６号,,12,204,2740812,,,,,,,2021-11-26,1,,,,,ミライズフドウサンハンバイ,0
2399,9050001050196,新規,0,2021-11-26,2021-11-26,株式会社ＮＥＸＴＧＥＡＲ,,株式会社,茨城県,つくば市,高野３７３番地３１,,08,220,3002642,,,,,,,2021-11-26,1,,,,,ネクストギア,0
2400,9050001050205,新規,0,2021-11-26,2021-11-26,株式会社トーワ設備,,株式会社,茨城県,稲敷郡阿見町,大字鈴木２５番地４１,,08,443,3000334,,,,,,,2021-11-26,1,,,,,トーワセツビ,0
2412,9070001038685,新規,0,2021-11-26,2021-11-26,株式会社ラブォラーレ,,株式会社,群馬県,伊勢崎市,三室町５２２９番地１,,10,204,3792235,,,,,,,2021-11-26,1,,,,,ラブォラーレ,0
2415,9080003002688,新規,0,2021-11-26,2021-11-26,合同会社ウイズダムフード,,合同会社,静岡県,藤枝市,時ケ谷３７０番地の３,,22,214,4260204,,,,,,,2021-11-26,1,,,,,ウイズダムフード,0
2417,9080103002464,新規,0,2021-11-26,2021-11-26,イケダトレーディング合同会社,,合同会社,静岡県,伊東市,富戸９８０－４０,,22,208,4130231,,,,,,,2021-11-26,1,,,,,イケダトレーディング,0
2420,9100001034846,新規,0,2021-11-26,2021-11-26,Ｓｕｎ　Ｒｏｃｋ株式会社,,株式会社,長野県,松本市,沢村３丁目４番２１号,,20,202,3900877,,,,,,,2021-11-26,1,,,,,サンロック,0
2431,9120001242109,新規,0,2021-11-26,2021-11-26,株式会社矢原電気,,株式会社,大阪府,大阪市住之江区,御崎７丁目９番１３号,,27,125,5590013,,,,,,,2021-11-26,1,,,,,ヤハラデンキ,0
2432,9120001242125,新規,0,2021-11-26,2021-11-26,株式会社ウエストコーポレーション,,株式会社,大阪府,大阪市北区,角田町８番４７号２０階,,27,127,5300017,,,,,,,2021-11-26,1,,,,,ウエストコーポレーション,0
2433,9120001242133,新規,0,2021-11-26,2021-11-26,株式会社Ｎ’ｓ　ｇａｌｌｅｒｙ,,株式会社,大阪府,大阪市中央区,淡路町３丁目３－２－３３０５,,27,128,5410047,,,,,,,2021-11-26,1,,,,,エヌズギャラリー,0
2436,9120003020660,新規,0,2021-11-26,2021-11-26,Ｚ＆Ｊ合同会社,,合同会社,大阪府,大阪市浪速区,日本橋東２丁目９番１６号オリエンタル日本橋５０２号,,27,111,5560006,,,,,,,2021-11-26,1,,,,,ゼットアンドジェー,0
2437,9120003020669,新規,0,2021-11-26,2021-11-26,之定商店合同会社,,合同会社,大阪府,大阪市中央区,瓦屋町１丁目１１番６－１１０３号,,27,128,5420066,,,,,,,2021-11-26,1,,,,,ノサダショウテン,0
2440,9120005022630,新規,0,2021-11-26,2021-11-26,一般社団法人夙川新緑会,,その他の設立登記法人,大阪府,大阪市北区,芝田２丁目８番１０号,,27,127,5300012,,,,,,,2021-11-26,1,,,,,シュクガワシンリョクカイ,0
2445,9120903003921,新規,0,2021-11-26,2021-11-26,合同会社Ａｌｌ,,合同会社,大阪府,豊中市,寺内２丁目１４－１緑地公園第一マンション１００８号,,27,203,5610872,,,,,,,2021-11-26,1,,,,,オール,0
2446,9122001035384,新規,0,2021-11-26,2021-11-26,株式会社渚技研,,株式会社,大阪府,八尾市,長池町１丁目４８番地の２,,27,212,5810836,,,,,,,2021-11-26,1,,,,,ナギサギケン,0
2448,9130001070599,新規,0,2021-11-26,2021-11-26,Ｇ－ＬＩＦＥ株式会社,,株式会社,京都府,木津川市,木津川原田３４番地３４,,26,214,6190214,,,,,,,2021-11-26,1,,,,,ジーライフ,0
2449,9130001070608,新規,0,2021-11-26,2021-11-26,株式会社１２１８,,株式会社,京都府,京都市中京区,木屋町通三条上る上大阪町５１５番地ＭＩＹＵＫＩビル３Ｆ,,26,104,6048001,,,,,,,2021-11-26,1,,,,,イチニーイチハチ,0
2450,9130001070616,新規,0,2021-11-26,2021-11-26,株式会社エフデンタルヘルス,,株式会社,京都府,京都市左京区,下鴨南茶ノ木町４１番地,,26,103,6060845,,,,,,,2021-11-26,1,,,,,エフデンタルヘルス,0
2458,9140001123950,新規,0,2021-11-26,2021-11-26,株式会社フレキシブル,,株式会社,兵庫県,西宮市,門戸東町２番４号ファミリアル門戸１０３,,28,204,6620824,,,,,,,2021-11-26,1,,,,,フレキシブル,0
2461,9150001025130,新規,0,2021-11-26,2021-11-26,株式会社スイフトケア,,株式会社,奈良県,香芝市,良福寺３９番地３,,29,210,6390235,,,,,,,2021-11-26,1,,,,,スイフトケア,0
2474,9180003023229,新規,0,2021-11-26,2021-11-26,合同会社７ｄａｙｓ　ｏｋ　Ｈａｂｉｔ,,合同会社,愛知県,春日井市,藤山台７丁目５番地１０,,23,206,4870035,,,,,,,2021-11-26,1,,,,,セブンデイズオーケーハビット,0
2478,9180301035660,新規,0,2021-11-26,2021-11-26,株式会社地盤テクノ,,株式会社,愛知県,岡崎市,山綱町字本寺６３番６４番合併地,,23,202,4443513,,,,,,,2021-11-26,1,,,,,ジバンテクノ,0
2480,9180303005174,新規,0,2021-11-26,2021-11-26,合同会社Ｈａｐｐｙ　Ａｎｇｅｌ,,合同会社,愛知県,高浜市,碧海町３丁目３番地６,,23,227,4441324,,,,,,,2021-11-26,1,,,,,ハッピーエンジェル,0
2487,9220001024562,新規,0,2021-11-26,2021-11-26,株式会社サウンド,,株式会社,石川県,金沢市,泉が丘２丁目７番５０号,,17,201,9218035,,,,,,,2021-11-26,1,,,,,サウンド,0
2495,9260001036249,新規,0,2021-11-26,2021-11-26,株式会社塩津ＢＡＳＥ,,株式会社,岡山県,美作市,英田青野３７０番地１６,,33,215,7012623,,,,,,,2021-11-26,1,,,,,シオツベース,0
2505,9290001095515,新規,0,2021-11-26,2021-11-26,株式会社Ｃｒｉｓｔ　Ｂｉｏｔｅｃｈ,,株式会社,福岡県,福岡市博多区,博多駅南４丁目１７番３２号,,40,132,8120016,,,,,,,2021-11-26,1,,,,,クリストバイオテック,0
2506,9290001095531,新規,0,2021-11-26,2021-11-26,株式会社フィトレメディ,,株式会社,福岡県,福岡市中央区,天神１丁目１－１,,40,133,8100001,,,,,,,2021-11-26,1,,,,,フィトラメディ,0
2507,9290001095548,新規,0,2021-11-26,2021-11-26,株式会社Ｔ‐ｓｔｙｌｅ,,株式会社,福岡県,福岡市中央区,大名１丁目１２番５２号,,40,133,8100041,,,,,,,2021-11-26,1,,,,,ティースタイル,0
2508,9290001095556,新規,0,2021-11-26,2021-11-26,アセット株式会社,,株式会社,福岡県,福岡市中央区,輝国２丁目９番１５号,,40,133,8100032,,,,,,,2021-11-26,1,,,,,アセット,0
2518,9330001029212,新規,0,2021-11-26,2021-11-26,株式会社空,,株式会社,熊本県,熊本市北区,清水万石３丁目２番２３号,,43,105,8618068,,,,,,,2021-11-26,1,,,,,ソラ,0
2519,9330001029229,新規,0,2021-11-26,2021-11-26,株式会社アグリラボラトリーホールディングス,,株式会社,熊本県,熊本市中央区,上通町８番１４号,,43,101,8600845,,,,,,,2021-11-26,1,,,,,アグリラボラトリーホールディングス,0
2531,9370003005488,新規,0,2021-11-26,2021-11-26,合同会社Ｇａｋ．Ｌｅａｔｈｅｒ　ｗｏｒｋｓ,,合同会社,宮城県,名取市,名取が丘４丁目１４番６号,,04,207,9811235,,,,,,,2021-11-26,1,,,,,ガクレザーワークス,0
2534,9380001032368,新規,0,2021-11-26,2021-11-26,株式会社Ｎ,,株式会社,福島県,郡山市,香久池２丁目１６－６,,07,203,9638833,,,,,,,2021-11-26,1,,,,,エヌ,0
2537,9400001015683,新規,0,2021-11-26,2021-11-26,株式会社桜秋,,株式会社,岩手県,盛岡市,桜台２丁目３番４号,,03,201,0200002,,,,,,,2021-11-26,1,,,,,オウシュウ,0
2542,9420001017661,新規,0,2021-11-26,2021-11-26,株式会社Ｍ．Ｈ,,株式会社,青森県,八戸市,大字鮫町字山四郎蒔目１７番地１４８,,02,203,0310841,,,,,,,2021-11-26,1,,,,,エムエイチ,0
2544,9420003002414,新規,0,2021-11-26,2021-11-26,合同会社きらきら佐井村,,合同会社,青森県,下北郡佐井村,大字佐井字原田６２番地１５２,,02,426,0394711,,,,,,,2021-11-26,1,,,,,キラキラサイムラ,0
2551,9430001085451,新規,0,2021-11-26,2021-11-26,株式会社ニシケン牧場,,株式会社,北海道,日高郡新ひだか町,三石鳧舞３１５番地の１,,01,610,0593233,,,,,,,2021-11-26,1,,,,,ニシケンボクジョウ,0
