sequenceNumber,corporateNumber,process,correct,updateDate,changeDate,name,nameImageId,kind,prefectureName,cityName,streetNumber,addressImageId,prefectureCode,cityCode,postCode,addressOutside,addressOutsideImageId,closeDate,closeCause,successorCorporateNumber,changeCause,assignmentDate,latest,enName,enPrefectureName,enCityName,enAddressOutside,furigana,hihyoji
15,1010001226922,新規,0,2022-05-30,2022-05-30,株式会社大都ビジネスサポート,,株式会社,東京都,中央区,京橋３丁目１番１号東京スクエアガーデン,,13,102,1040031,,,,,,,2022-05-30,1,,,,,ダイトビジネスサポート,0
16,1010001226930,新規,0,2022-05-30,2022-05-30,株式会社ｆａｓｔ　ｓｃａｌｅ,,株式会社,東京都,文京区,本郷６丁目２５番１４号,,13,105,1130033,,,,,,,2022-05-30,1,,,,,ファストスケール,0
30,1010401167304,新規,0,2022-05-30,2022-05-30,マイスター・リンク株式会社,,株式会社,東京都,港区,白金台１丁目１－１３－８０１,,13,103,1080071,,,,,,,2022-05-30,1,,,,,マイスターリンク,0
33,1010405021060,新規,0,2022-05-30,2022-05-30,ＥＳＲ‐ＬＯＧＯＳ　ＲＥＩＴ　ＩＳＨ１一般社団法人,,その他の設立登記法人,東京都,港区,虎ノ門３丁目２２番１０－２０１号,,13,103,1050001,,,,,,,2022-05-30,1,,,,,イーエスアールロゴスリートアイエスエイチワン,0
34,1010501048882,新規,0,2022-05-30,2022-05-30,株式会社ＣＯＲＥ,,株式会社,東京都,台東区,上野６丁目１６番５号,,13,106,1100005,,,,,,,2022-05-30,1,,,,,コア,0
47,1010703006259,新規,0,2022-05-30,2022-05-30,Ｃｏｒｖｏ合同会社,,合同会社,東京都,品川区,東五反田１丁目１１－７三ツ星ビル１号館５Ｆ－Ｂ,,13,109,1410022,,,,,,,2022-05-30,1,,,,,コルボ,0
48,1010901050950,新規,0,2022-05-30,2022-05-30,株式会社サンクチュアリ,,株式会社,東京都,世田谷区,弦巻４丁目１８－２４桜町マンション２０４,,13,112,1540016,,,,,,,2022-05-30,1,,,,,サンクチュアリ,0
50,1010903007404,新規,0,2022-05-30,2022-05-30,プライベート看護ラポールケア合同会社,,合同会社,東京都,世田谷区,上祖師谷４丁目２番１－４１４号,,13,112,1570065,,,,,,,2022-05-30,1,,,,,プライベートカンゴラポールケア,0
60,1011001147778,新規,0,2022-05-30,2022-05-30,株式会社Ｍａｔｉｌｄａ　Ｂｏｏｋｓ,,株式会社,東京都,渋谷区,広尾５丁目２５番２号,,13,113,1500012,,,,,,,2022-05-30,1,,,,,マチルダブックス,0
61,1011001147786,新規,0,2022-05-30,2022-05-30,株式会社Ｒｅｇｉｎａ,,株式会社,東京都,目黒区,五本木３丁目３０番６号,,13,110,1530053,,,,,,,2022-05-30,1,,,,,ヘジーナ,0
62,1011003014729,新規,0,2022-05-30,2022-05-30,合同会社Ｃｈｉｌｄ　Ｃａｒｅ　Ｃｏｌｌａｂｏｒａｔｉｏｎ,,合同会社,東京都,渋谷区,円山町５番５号Ｎａｖｉ渋谷Ｖ３階,,13,113,1500044,,,,,,,2022-05-30,1,,,,,チャイルドケアコラボレーション,0
65,1011101098541,新規,0,2022-05-30,2022-05-30,株式会社ＬＥＴＨＡＬ　ＷＥＡＰＯＮ,,株式会社,東京都,新宿区,西新宿７丁目５番５号,,13,104,1600023,,,,,,,2022-05-30,1,,,,,リーサルウェポン,0
66,1011101098995,新規,0,2022-05-30,2022-05-30,株式会社ＮＥＷ　ＢＲＡＶＥ,,株式会社,東京都,新宿区,西新宿３丁目３番１３号西新宿水間ビル６階,,13,104,1600023,,,,,,,2022-05-30,1,,,,,ニューブレイブ,0
67,1011101099003,新規,0,2022-05-30,2022-05-30,株式会社ＲＯＯＴ’ｓ,,株式会社,東京都,新宿区,西早稲田３丁目３１番８カーネ西早稲田８０２,,13,104,1690051,,,,,,,2022-05-30,1,,,,,ルーツ,0
81,1011601025994,新規,0,2022-05-30,2022-05-30,株式会社ＧＩＮＭＡＫ,,株式会社,東京都,練馬区,関町北２丁目３１番６号,,13,120,1770051,,,,,,,2022-05-30,1,,,,,ギンマク,0
82,1011603003610,新規,0,2022-05-30,2022-05-30,合同会社ＭＭＫ,,合同会社,東京都,練馬区,豊玉上１丁目１５番１号,,13,120,1760011,,,,,,,2022-05-30,1,,,,,エムエムケイ,0
86,1011801040777,新規,0,2022-05-30,2022-05-30,ピノキオ株式会社,,株式会社,東京都,葛飾区,東金町１丁目３９番１号,,13,122,1250041,,,,,,,2022-05-30,1,,,,,ピノキオ,0
87,1011801040785,新規,0,2022-05-30,2022-05-30,株式会社ＳＳＳ,,株式会社,東京都,足立区,千住３丁目６番地ランドステージ北千住ジョイフロント３０２,,13,121,1200034,,,,,,,2022-05-30,1,,,,,エスエスエス,0
90,1012401039243,新規,0,2022-05-30,2022-05-30,インサイトブリッジ株式会社,,株式会社,東京都,武蔵野市,境３丁目２１番５号,,13,203,1800022,,,,,,,2022-05-30,1,,,,,インサイトブリッジ,0
93,1013303006174,新規,0,2022-05-30,2022-05-30,合同会社アーバンキャピタル,,合同会社,東京都,豊島区,千川２丁目５番１７号,,13,116,1710041,,,,,,,2022-05-30,1,,,,,アーバンキャピタル,0
100,1020001146649,新規,0,2022-05-30,2022-05-30,株式会社ウインドリフト,,株式会社,神奈川県,横浜市中区,山下町９９番地サンライトマンション１号棟７０１号室,,14,104,2310023,,,,,,,2022-05-30,1,,,,,ウインドリフト,0
101,1020001146673,新規,0,2022-05-30,2022-05-30,株式会社ｊ’ｐｕｅｎｔｅ,,株式会社,神奈川県,横浜市中区,本牧元町３５番１－５０３号,,14,104,2310822,,,,,,,2022-05-30,1,,,,,ジェイプエンテ,0
106,1021003011758,新規,0,2022-05-30,2022-05-30,合同会社Ｆａｉｒ　Ｅｓｔａｔｅ,,合同会社,神奈川県,中郡二宮町,百合が丘３丁目２５－４,,14,342,2590133,,,,,,,2022-05-30,1,,,,,フェアエステート,0
112,1030001148413,新規,0,2022-05-30,2022-05-30,株式会社ディゴナル,,株式会社,埼玉県,さいたま市緑区,大字中尾１８１４－６,,11,109,3360932,,,,,,,2022-05-30,1,,,,,ディゴナル,0
120,1040001123613,新規,0,2022-05-30,2022-05-30,株式会社ＯＫＭ,,株式会社,千葉県,富里市,立沢５６１番地２８,,12,233,2860214,,,,,,,2022-05-30,1,,,,,オーケーエム,0
129,1050001051128,新規,0,2022-05-30,2022-05-30,株式会社エヌアイコンサルティング,,株式会社,茨城県,取手市,台宿２５０番地１サンドエル取手２０３号,,08,217,3020013,,,,,,,2022-05-30,1,,,,,エヌアイコンサルティング,0
130,1050001051136,新規,0,2022-05-30,2022-05-30,株式会社ストック,,株式会社,茨城県,水戸市,鯉淵町１７８５番地の５,,08,201,3190323,,,,,,,2022-05-30,1,,,,,ストック,0
131,1050001051144,新規,0,2022-05-30,2022-05-30,ＭＡＲＫＥＤＥＬＩＣ株式会社,,株式会社,茨城県,龍ケ崎市,川原代町１１７６－４６,,08,208,3010005,,,,,,,2022-05-30,1,,,,,マーケデリック,0
138,1070003004494,新規,0,2022-05-30,2022-05-30,合同会社ａ・ｕｎ,,合同会社,群馬県,前橋市,敷島町２４０番地１９‐３Ｆ,,10,201,3710036,,,,,,,2022-05-30,1,,,,,アウン,0
142,1080003002803,新規,0,2022-05-30,2022-05-30,合同会社Ｂ，ｂｒｉｇｈｔ,,合同会社,静岡県,静岡市駿河区,一丁目１番２８号カーサプラティカ２０７,,22,102,4220000,,,,,,,2022-05-30,1,,,,,ビーブライト,0
144,1080405007458,新規,0,2022-05-30,2022-05-30,大八洲遠洋漁業協同組合,,その他の設立登記法人,静岡県,御前崎市,御前崎３５１６番地,,22,223,4371621,,,,,,,2022-05-30,1,,,,,オオヤシマエンヨウ,0
149,1100001035380,新規,0,2022-05-30,2022-05-30,株式会社Ｌ＆Ｔ　Ｃｏｎｓｔｒｕｃｔｉｏｎ,,株式会社,長野県,北佐久郡軽井沢町,大字追分７２５－５１,,20,321,3890115,,,,,,,2022-05-30,1,,,,,エルアンドティーコンストラクション,0
164,1120001246166,新規,0,2022-05-30,2022-05-30,Ｖｉｒｔｕａｌ　Ｍｏｔｏｒｓｐｏｒｔ　Ｌａｂ株式会社,,株式会社,大阪府,枚方市,東香里南町４７番１３号,,27,210,5730074,,,,,,,2022-05-30,1,,,,,バーチャルモータースポーツラボ,0
165,1120001246224,新規,0,2022-05-30,2022-05-30,株式会社ＴＲＡＤＩＥ,,株式会社,大阪府,大阪市東成区,中道４丁目９番１５号クローバー・グランデ玉造１００２号,,27,115,5370025,,,,,,,2022-05-30,1,,,,,トレイディー,0
169,1120003021773,新規,0,2022-05-30,2022-05-30,コッペデザイン合同会社,,合同会社,大阪府,大阪市西区,江戸堀１丁目２０番１１号肥後橋建和ビル４１２,,27,106,5500002,,,,,,,2022-05-30,1,,,,,コッペデザイン,0
171,1120005022968,新規,0,2022-05-30,2022-05-30,ソフィア行政書士法人,,その他の設立登記法人,大阪府,大阪市中央区,石町１丁目１番１号,,27,128,5400033,,,,,,,2022-05-30,1,,,,,ソフィア,0
176,1130001071852,新規,0,2022-05-30,2022-05-30,和田工業株式会社,,株式会社,京都府,京都市西京区,大原野上里南ノ町３番,,26,111,6101123,,,,,,,2022-05-30,1,,,,,ワダコウギョウ,0
183,1140001126168,新規,0,2022-05-30,2022-05-30,株式会社ＶＯＴ,,株式会社,兵庫県,西宮市,高松町３番３号,,28,204,6638204,,,,,,,2022-05-30,1,,,,,ブイオーティー,0
185,1140003017729,新規,0,2022-05-30,2022-05-30,合同会社Ｋ’ＭＮ,,合同会社,兵庫県,西宮市,西福町８番９号,,28,204,6620844,,,,,,,2022-05-30,1,,,,,ケイエムエヌ,0
194,1180301036261,新規,0,2022-05-30,2022-05-30,株式会社ジョブテクノ,,株式会社,愛知県,安城市,篠目町井山９８番地３９,,23,212,4460073,,,,,,,2022-05-30,1,,,,,ジョブテクノ,0
195,1180303005339,新規,0,2022-05-30,2022-05-30,合同会社リングクラフト,,合同会社,愛知県,安城市,石井町高井５８番地２３,,23,212,4441201,,,,,,,2022-05-30,1,,,,,リングクラフト,0
196,1190001029457,新規,0,2022-05-30,2022-05-30,株式会社意匠舎,,株式会社,三重県,四日市市,水沢町４６２８番地５,,24,202,5121105,,,,,,,2022-05-30,1,,,,,イショウシャ,0
199,1220001024867,新規,0,2022-05-30,2022-05-30,金澤上田水産株式会社,,株式会社,石川県,金沢市,千木町ル３８番地１,,17,201,9200001,,,,,,,2022-05-30,1,,,,,カナザワウエダスイサン,0
201,1220003003290,新規,0,2022-05-30,2022-05-30,合同会社スオ,,合同会社,石川県,金沢市,石引１丁目１３番２９号山岸薬局ビルヂングＧＡＲＡＧＥ３階,,17,201,9200935,,,,,,,2022-05-30,1,,,,,スオ,0
205,1230003001855,新規,0,2022-05-30,2022-05-30,合同会社Ｒｅ‐ＴＡＣ,,合同会社,富山県,富山市,日俣１５７番１,,16,201,9300912,,,,,,,2022-05-30,1,,,,,リタック,0
208,1240001059812,新規,0,2022-05-30,2022-05-30,シャイニングロード株式会社,,株式会社,広島県,福山市,駅家町大字坊寺３番地１１,,34,207,7201144,,,,,,,2022-05-30,1,,,,,シャイニングロード,0
209,1240001059829,新規,0,2022-05-30,2022-05-30,株式会社トライエス,,株式会社,広島県,広島市安佐南区,上安６丁目１５番８号,,34,105,7310154,,,,,,,2022-05-30,1,,,,,トライエス,0
213,1260001036875,新規,0,2022-05-30,2022-05-30,株式会社ショウ建匠,,株式会社,岡山県,岡山市南区,内尾１１－６,,33,104,7010212,,,,,,,2022-05-30,1,,,,,ショウケンショウ,0
225,1290802026270,新規,0,2022-05-30,2022-05-30,有限会社津田建設,,有限会社,福岡県,北九州市若松区,原町３番１４号,,40,103,8080016,,,,,,,2022-05-30,1,,,,,ツダケンセツ,0
229,1320001019089,新規,0,2022-05-30,2022-05-30,株式会社ＫＡＴＥＴＥ,,株式会社,大分県,大分市,上宗方南２丁目１２番５号,,44,201,8701167,,,,,,,2022-05-30,1,,,,,カテテ,0
235,1330003009384,新規,0,2022-05-30,2022-05-30,合同会社インキュベータくまもと,,合同会社,熊本県,熊本市東区,長嶺東５丁目１５番６２号,,43,102,8618038,,,,,,,2022-05-30,1,,,,,インキュベータクマモト,0
242,1360003012047,新規,0,2022-05-30,2022-05-30,合同会社輝翔,,合同会社,沖縄県,宜野湾市,赤道２丁目１３番２号,,47,205,9012205,,,,,,,2022-05-30,1,,,,,キショウ,0
244,1370001048604,新規,0,2022-05-30,2022-05-30,株式会社藤企画,,株式会社,宮城県,仙台市青葉区,小田原７丁目５番４６－１０２号,,04,101,9800003,,,,,,,2022-05-30,1,,,,,フジキカク,0
245,1390001016906,新規,0,2022-05-30,2022-05-30,株式会社モジャデザイン,,株式会社,山形県,酒田市,錦町４丁目２番地の２２,,06,204,9980103,,,,,,,2022-05-30,1,,,,,モジャデザイン,0
258,1470001019099,新規,0,2022-05-30,2022-05-30,株式会社へそグループ,,株式会社,香川県,高松市,瀬戸内町３０番７３号,,37,201,7600012,,,,,,,2022-05-30,1,,,,,ヘソグループ,0
271,2010001226962,新規,0,2022-05-30,2022-05-30,株式会社チュム,,株式会社,東京都,千代田区,岩本町３丁目２番２－２０３号,,13,101,1010032,,,,,,,2022-05-30,1,,,,,チュム,0
276,2010003037771,新規,0,2022-05-30,2022-05-30,ＭＳＷ合同会社,,合同会社,東京都,中央区,銀座１丁目１２番４号７階,,13,102,1040061,,,,,,,2022-05-30,1,,,,,エムエスダブリュ,0
278,2010103001925,新規,0,2022-05-30,2022-05-30,合同会社Ｇ．Ａ,,合同会社,東京都,八王子市,三崎町６番１０号第三山口ビル２Ｆ,,13,201,1920084,,,,,,,2022-05-30,1,,,,,ジーエー,0
286,2010401167468,新規,0,2022-05-30,2022-05-30,株式会社Ｄｉｇｉｔａｌ　Ｄｉｎｏｓａｕｒ,,株式会社,東京都,港区,浜松町２丁目１０番１号浜松町ビル５階,,13,103,1050013,,,,,,,2022-05-30,1,,,,,デジタルダイナソー,0
287,2010401167658,新規,0,2022-05-30,2022-05-30,株式会社Ｒｅｃｏｌｏｇｙ,,株式会社,東京都,港区,赤坂６丁目１９番３３－３１０号,,13,103,1070052,,,,,,,2022-05-30,1,,,,,レコロジー,0
290,2010403027752,新規,0,2022-05-30,2022-05-30,ＧＯＬＤＥＮ　ＡＮＣＨＯＲ合同会社,,合同会社,東京都,港区,六本木７丁目６番１８－２６０１号,,13,103,1060032,,,,,,,2022-05-30,1,,,,,ゴールデンアンカー,0
298,2010601061248,新規,0,2022-05-30,2022-05-30,ミュゼ株式会社,,株式会社,東京都,江東区,亀戸６丁目５番地１号１階,,13,108,1360071,,,,,,,2022-05-30,1,,,,,ミュゼ,0
301,2010701042718,新規,0,2022-05-30,2022-05-30,株式会社まいるーる,,株式会社,東京都,品川区,上大崎１丁目３－１６,,13,109,1410021,,,,,,,2022-05-30,1,,,,,マイルール,0
302,2010703006258,新規,0,2022-05-30,2022-05-30,クレスト合同会社,,合同会社,東京都,品川区,北品川１丁目９番７号トップルーム品川４１２,,13,109,1400001,,,,,,,2022-05-30,1,,,,,クレスト,0
304,2010901050941,新規,0,2022-05-30,2022-05-30,株式会社エビス,,株式会社,東京都,世田谷区,松原５丁目２９番３号,,13,112,1560043,,,,,,,2022-05-30,1,,,,,エビス,0
308,2011001147785,新規,0,2022-05-30,2022-05-30,株式会社日本農林水産雇用支援機構,,株式会社,東京都,渋谷区,代々木１丁目１３番９号５０２,,13,113,1510053,,,,,,,2022-05-30,1,,,,,ニホンノウリンスイサンコヨウシエンキコウ,0
309,2011001147827,新規,0,2022-05-30,2022-05-30,株式会社ヒューマンシップメディカルパートナーズ,,株式会社,東京都,渋谷区,渋谷３丁目１０番１号,,13,113,1500002,,,,,,,2022-05-30,1,,,,,ヒューマンシップメディカルパートナーズ,0
317,2011101099035,新規,0,2022-05-30,2022-05-30,株式会社Ｍａｊｏｒｓ,,株式会社,東京都,新宿区,西新宿３丁目３番１３号西新宿水間ビル６階,,13,104,1600023,,,,,,,2022-05-30,1,,,,,メイジャーズ,0
319,2011105010261,新規,0,2022-05-30,2022-05-30,マネージポート税理士法人,,その他の設立登記法人,東京都,新宿区,四谷坂町９番４号リカビル２階,,13,104,1600002,,,,,,,2022-05-30,1,,,,,マネージポート,0
322,2011401024270,新規,0,2022-05-30,2022-05-30,株式会社亮栄,,株式会社,東京都,板橋区,清水町６８番１０号,,13,119,1740053,,,,,,,2022-05-30,1,,,,,リョウエイ,0
325,2011503005169,新規,0,2022-05-30,2022-05-30,ｓｅｎｉｔｏｎａｍｕ合同会社,,合同会社,東京都,荒川区,東日暮里６丁目１７番６号イデタチ東京シェアオフィスＣ,,13,118,1160014,,,,,,,2022-05-30,1,,,,,セニトナム,0
327,2011601025993,新規,0,2022-05-30,2022-05-30,株式会社信工務店,,株式会社,東京都,練馬区,富士見台２丁目３５番２５号グリーンコーポ１０２,,13,120,1770034,,,,,,,2022-05-30,1,,,,,シンコウムテン,0
329,2011801040776,新規,0,2022-05-30,2022-05-30,松永内装株式会社,,株式会社,東京都,足立区,花畑２丁目１番２１号,,13,121,1210061,,,,,,,2022-05-30,1,,,,,マツナガナイソウ,0
330,2011801040784,新規,0,2022-05-30,2022-05-30,株式会社ＦＩＮＴＺ,,株式会社,東京都,足立区,梅田５丁目１３番２０－４０７号,,13,121,1230851,,,,,,,2022-05-30,1,,,,,フィンツ,0
333,2011803005109,新規,0,2022-05-30,2022-05-30,合同会社イーエスピィ,,合同会社,東京都,足立区,興野１丁目１６番４号,,13,121,1230844,,,,,,,2022-05-30,1,,,,,イーエスピィ,0
342,2013301049166,新規,0,2022-05-30,2022-05-30,株式会社Ｓ‐Ｇｒｏｕｐ,,株式会社,東京都,豊島区,池袋２丁目５番１号徳永第二ビル３階Ａ号室,,13,116,1710014,,,,,,,2022-05-30,1,,,,,エスグループ,0
351,2020001146689,新規,0,2022-05-30,2022-05-30,株式会社旭星トラスト,,株式会社,神奈川県,横浜市旭区,東希望が丘２０４－１４,,14,112,2410826,,,,,,,2022-05-30,1,,,,,キョクセイトラスト,0
352,2020001146697,新規,0,2022-05-30,2022-05-30,株式会社Ｃｏ．Ｄｅｎａｔｉｏｎ,,株式会社,神奈川県,横浜市都筑区,荏田東３丁目４番１－２０３号,,14,118,2240006,,,,,,,2022-05-30,1,,,,,コーディネイション,0
356,2020003021799,新規,0,2022-05-30,2022-05-30,合同会社マンダリン,,合同会社,神奈川県,横浜市都筑区,茅ケ崎東３丁目５番４－４０１号,,14,118,2240033,,,,,,,2022-05-30,1,,,,,マンダリン,0
357,2020003021832,新規,0,2022-05-30,2022-05-30,ｃａｌｖｅｒｏ合同会社,,合同会社,神奈川県,横浜市神奈川区,西神奈川１丁目８－１１テラスエトワール４階（３０５）,,14,102,2210822,,,,,,,2022-05-30,1,,,,,カルベロ,0
358,2020003021840,新規,0,2022-05-30,2022-05-30,合同会社ｈｏｍｅ,,合同会社,神奈川県,川崎市中原区,新城１丁目１０番１４号鶴田第一ビル１０１,,14,133,2110044,,,,,,,2022-05-30,1,,,,,ホーム,0
380,2030003019495,新規,0,2022-05-30,2022-05-30,合同会社ミカエステート,,合同会社,埼玉県,行田市,西新町１番地６３,,11,206,3610042,,,,,,,2022-05-30,1,,,,,ミカエステート,0
384,2040001123562,新規,0,2022-05-30,2022-05-30,株式会社フォックスブル,,株式会社,千葉県,習志野市,東習志野８丁目１４番２４号,,12,216,2750001,,,,,,,2022-05-30,1,,,,,フォックスブル,0
385,2040001123612,新規,0,2022-05-30,2022-05-30,株式会社日清,,株式会社,千葉県,船橋市,松が丘３丁目３番７号,,12,204,2740064,,,,,,,2022-05-30,1,,,,,ニッセイ,0
391,2040003020122,新規,0,2022-05-30,2022-05-30,合同会社ＹＫプランニング,,合同会社,千葉県,柏市,あけぼの２丁目８番１７号メゾンＳＫ７－３Ｅ,,12,217,2770841,,,,,,,2022-05-30,1,,,,,ワイケイプランニング,0
403,2080103002594,新規,0,2022-05-30,2022-05-30,合同会社エムツー,,合同会社,静岡県,富士市,松岡１０９９番地の７,,22,210,4160909,,,,,,,2022-05-30,1,,,,,エムツー,0
406,2090001017586,新規,0,2022-05-30,2022-05-30,株式会社中赫,,株式会社,山梨県,富士吉田市,下吉田５丁目２１－３５,,19,202,4030004,,,,,,,2022-05-30,1,,,,,チュウカク,0
411,2110001036674,新規,0,2022-05-30,2022-05-30,株式会社オルニス,,株式会社,新潟県,新潟市東区,東明６丁目６番地１５カルマンサ１０５号,,15,102,9500853,,,,,,,2022-05-30,1,,,,,オルニス,0
418,2120001246181,新規,0,2022-05-30,2022-05-30,株式会社福元,,株式会社,大阪府,大阪市淀川区,三津屋南３丁目１０番１７号,,27,123,5320035,,,,,,,2022-05-30,1,,,,,フクゲン,0
420,2120005022967,新規,0,2022-05-30,2022-05-30,一般社団法人里山きゃんぱす,,その他の設立登記法人,大阪府,枚方市,宇山町１９番１６号,,27,210,5731143,,,,,,,2022-05-30,1,,,,,サトヤマキャンパス,0
424,2130001071802,新規,0,2022-05-30,2022-05-30,株式会社多富吉,,株式会社,京都府,京都市下京区,上三之宮町２７６－３－１Ｆ,,26,106,6008135,,,,,,,2022-05-30,1,,,,,タトミヨシ,0
426,2130003007960,新規,0,2022-05-30,2022-05-30,京都文化ＮＦＴ合同会社,,合同会社,京都府,京都市中京区,西ノ京職司町２６－１３,,26,104,6048381,,,,,,,2022-05-30,1,,,,,キョウトブンカエヌエフティ,0
430,2140001126150,新規,0,2022-05-30,2022-05-30,株式会社アンズトラスト,,株式会社,兵庫県,姫路市,飾磨区阿成１番地１ＯＡＦＬＡＴ阿成１０６,,28,201,6728037,,,,,,,2022-05-30,1,,,,,アンズトラスト,0
431,2140001126159,新規,0,2022-05-30,2022-05-30,株式会社色彩美美,,株式会社,兵庫県,神戸市中央区,楠町３丁目２番７号,,28,110,6500017,,,,,,,2022-05-30,1,,,,,シキサイビビ,0
442,2180001151401,新規,0,2022-05-30,2022-05-30,株式会社ＮＩＡ,,株式会社,愛知県,瀬戸市,西原町８１番地の４,,23,204,,,,,,,,2022-05-30,1,,,,,エヌアイエー,0
443,2180001151450,新規,0,2022-05-30,2022-05-30,株式会社ｋｆ,,株式会社,愛知県,名古屋市南区,内田橋１丁目２６番１０号２Ｆ,,23,112,4570862,,,,,,,2022-05-30,1,,,,,ケイエフ,0
444,2180001151500,新規,0,2022-05-30,2022-05-30,株式会社中日本環境情報,,株式会社,愛知県,名古屋市西区,天神山町１番１９号,,23,104,4510065,,,,,,,2022-05-30,1,,,,,ナカニホンカンキョウジョウホウ,0
447,2180003023862,新規,0,2022-05-30,2022-05-30,ユニモアース合同会社,,合同会社,愛知県,名古屋市西区,那古野２丁目１４番１号なごのキャンパス３－９,,23,104,4510042,,,,,,,2022-05-30,1,,,,,ユニモアース,0
452,2180301036269,新規,0,2022-05-30,2022-05-30,株式会社ＥＮＧＡＧＥＭＥＮＴ,,株式会社,愛知県,安城市,安城町栗ノ木３３番地１アイユー栗ノ木１０７,,23,212,4460026,,,,,,,2022-05-30,1,,,,,エンゲージメント,0
453,2190001029456,新規,0,2022-05-30,2022-05-30,まんまるサポート株式会社,,株式会社,三重県,桑名市,鍛冶町５６番地,,24,205,5110000,,,,,,,2022-05-30,1,,,,,マンマルサポート,0
454,2200001040097,新規,0,2022-05-30,2022-05-30,株式会社ビッグファルコン,,株式会社,岐阜県,揖斐郡揖斐川町,極楽寺字松原１１６番地３,,21,401,5010605,,,,,,,2022-05-30,1,,,,,ビッグファルコン,0
460,2230003001854,新規,0,2022-05-30,2022-05-30,ＫＫＲＪ合同会社,,合同会社,富山県,富山市,射水市一条４番地７,,16,201,9390000,,,,,,,2022-05-30,1,,,,,ケーケーアールジェー,0
462,2240001059811,新規,0,2022-05-30,2022-05-30,株式会社八天堂ファーム,,株式会社,広島県,三原市,宮浦３丁目３１番７号,,34,204,7230051,,,,,,,2022-05-30,1,,,,,ハッテンドウファーム,0
465,2250001019582,新規,0,2022-05-30,2022-05-30,株式会社ＳＭＡＤＩＡ,,株式会社,山口県,宇部市,大字妻崎開作６５２番地１、６０５号,,35,202,7590204,,,,,,,2022-05-30,1,,,,,スマディア,0
466,2250003003080,新規,0,2022-05-30,2022-05-30,ＭＫ合同会社,,合同会社,山口県,光市,虹ケ丘５丁目１６番１５号,,35,210,7430031,,,,,,,2022-05-30,1,,,,,エムケイ,0
468,2260003003922,新規,0,2022-05-30,2022-05-30,合同会社エクリチュール花音,,合同会社,岡山県,倉敷市,玉島乙島６７０７番地６,,33,202,7138103,,,,,,,2022-05-30,1,,,,,エクリチュールカノン,0
470,2290001097690,新規,0,2022-05-30,2022-05-30,株式会社ＭＵＵ,,株式会社,福岡県,福岡市博多区,博多駅前２丁目１９番１７号トーカン博多第５ビル３１２号,,40,132,8120011,,,,,,,2022-05-30,1,,,,,ムー,0
476,2290801028572,新規,0,2022-05-30,2022-05-30,株式会社ｋ．ｏ．ｕ,,株式会社,福岡県,遠賀郡水巻町,頃末南３丁目２９番１２号,,40,382,8070025,,,,,,,2022-05-30,1,,,,,ケイオーユー,0
478,2310003004378,新規,0,2022-05-30,2022-05-30,はやかわ合同会社,,合同会社,長崎県,大村市,宮小路３丁目１３８０番地３０,,42,205,8560807,,,,,,,2022-05-30,1,,,,,ハヤカワ,0
479,2320001019088,新規,0,2022-05-30,2022-05-30,株式会社山神,,株式会社,大分県,大分市,大字乙津６４番地,,44,201,8700144,,,,,,,2022-05-30,1,,,,,サンシン,0
482,2330001029771,新規,0,2022-05-30,2022-05-30,株式会社ＫＡＫＵＳＨＩＮ,,株式会社,熊本県,熊本市中央区,桜町３番３０－１３０７号,,43,101,8600805,,,,,,,2022-05-30,1,,,,,カクシン,0
489,2340005009463,新規,0,2022-05-30,2022-05-30,一般社団法人あしびなぁ,,その他の設立登記法人,鹿児島県,大島郡天城町,大字天城２６４８番地３,,46,531,8917611,,,,,,,2022-05-30,1,,,,,アシビナァ,0
490,2350001017766,新規,0,2022-05-30,2022-05-30,株式会社あぐりか,,株式会社,宮崎県,児湯郡都農町,大字川北１８２６３番地,,45,406,8891201,,,,,,,2022-05-30,1,,,,,アグリカ,0
492,2360001030462,新規,0,2022-05-30,2022-05-30,Ｔ　ｈｏｍｅ株式会社,,株式会社,沖縄県,沖縄市,与儀１丁目７－７ミルコマンション沖縄市与儀グランパーク４０２,,47,211,9042174,,,,,,,2022-05-30,1,,,,,,0
493,2360001030479,新規,0,2022-05-30,2022-05-30,株式会社カノープス,,株式会社,沖縄県,那覇市,前島３丁目２５番２号泊ポートビル１階,,47,201,9000016,,,,,,,2022-05-30,1,,,,,カノープス,0
498,2360003012046,新規,0,2022-05-30,2022-05-30,中部内装合同会社,,合同会社,沖縄県,中頭郡北中城村,字仲順８９番地比嘉アパートＢ－３,,47,327,9012303,,,,,,,2022-05-30,1,,,,,チュウブナイソウ,0
499,2370001048603,新規,0,2022-05-30,2022-05-30,大庭企業株式会社,,株式会社,宮城県,栗原市,志波姫堀口宮中３９番地１,,04,213,9895625,,,,,,,2022-05-30,1,,,,,オオバキギョウ,0
504,2400001015896,新規,0,2022-05-30,2022-05-30,株式会社オーバーランド,,株式会社,岩手県,盛岡市,北飯岡２丁目８番１２号,,03,201,0200857,,,,,,,2022-05-30,1,,,,,オーバーランド,0
525,2460101007202,新規,0,2022-05-30,2022-05-30,株式会社十勝ひとりぼっち農園,,株式会社,北海道,河東郡音更町,木野大通西５丁目２番地４ハピオ壱番館１００４,,01,631,0800301,,,,,,,2022-05-30,1,,,,,トカチヒトリボッチノウエン,0
528,2470001019098,新規,0,2022-05-30,2022-05-30,株式会社ち・ど・り,,株式会社,香川県,高松市,三谷町３６１番地３,,37,201,7610450,,,,,,,2022-05-30,1,,,,,チドリ,0
530,2700150109130,新規,0,2022-05-30,2022-05-30,峰浜村大沢土地改良区,,その他,秋田県,山本郡八峰町,峰浜水沢字寺ノ後１番地２２,,05,349,0182501,,,,,,,2022-05-30,1,,,,,ミネハマムラオオサワトチカイリヨウク,0
536,3010001226929,新規,0,2022-05-30,2022-05-30,株式会社スパイスエンジン,,株式会社,東京都,文京区,本郷６丁目２５番１４号,,13,105,1130033,,,,,,,2022-05-30,1,,,,,スパイスエンジン,0
537,3010001226953,新規,0,2022-05-30,2022-05-30,株式会社ナンバー０２３,,株式会社,東京都,中央区,京橋３丁目１番１号,,13,102,1040031,,,,,,,2022-05-30,1,,,,,ナンバーゼロニサン,0
556,3010403027611,新規,0,2022-05-30,2022-05-30,ジャパンヒューマンエナジー合同会社,,合同会社,東京都,港区,南青山６丁目７－５,,13,103,1070062,,,,,,,2022-05-30,1,,,,,ジャパンヒューマンエナジー,0
559,3010501048889,新規,0,2022-05-30,2022-05-30,伝導マーケティング株式会社,,株式会社,東京都,台東区,上野３丁目１３番１号西武ビル２Ｆ,,13,106,1100005,,,,,,,2022-05-30,1,,,,,デンドウマーケティング,0
560,3010601061230,新規,0,2022-05-30,2022-05-30,株式会社ひびき,,株式会社,東京都,墨田区,両国２丁目１７番１７号,,13,107,1300026,,,,,,,2022-05-30,1,,,,,ヒビキ,0
566,3010701042717,新規,0,2022-05-30,2022-05-30,株式会社Ｃｏｃｏ,,株式会社,東京都,品川区,平塚１丁目１２番９号加瀬ビル８階,,13,109,1420051,,,,,,,2022-05-30,1,,,,,ココ,0
571,3010901050932,新規,0,2022-05-30,2022-05-30,ＤＡＨＬＩＡ株式会社,,株式会社,東京都,世田谷区,深沢１丁目１５番３号ローズガーデン２０１,,13,112,1580081,,,,,,,2022-05-30,1,,,,,ダリア,0
578,3011001147462,新規,0,2022-05-30,2022-05-30,ＹＯＰＰＩ株式会社,,株式会社,東京都,目黒区,三田１丁目４－４恵比寿ビュータワー２１７,,13,110,1530062,,,,,,,2022-05-30,1,,,,,ヨッピ,0
579,3011001147751,新規,0,2022-05-30,2022-05-30,株式会社ｇｒｏｗ,,株式会社,東京都,目黒区,碑文谷３丁目１１番１５号,,13,110,1520003,,,,,,,2022-05-30,1,,,,,グロウ,0
581,3011003014735,新規,0,2022-05-30,2022-05-30,合同会社タマシイの解放,,合同会社,東京都,渋谷区,道玄坂１丁目１０番８号渋谷道玄坂東急ビル２Ｆ－Ｃ,,13,113,1500043,,,,,,,2022-05-30,1,,,,,タマシイノカイホウ,0
583,3011101098977,新規,0,2022-05-30,2022-05-30,株式会社たね,,株式会社,東京都,新宿区,北新宿４丁目８番１２号北新宿サマリヤマンション３０１号室,,13,104,1690074,,,,,,,2022-05-30,1,,,,,タネ,0
584,3011101098993,新規,0,2022-05-30,2022-05-30,株式会社ローズマリー,,株式会社,東京都,新宿区,住吉町４番１－１０６号,,13,104,1620065,,,,,,,2022-05-30,1,,,,,ローズマリー,0
585,3011101099001,新規,0,2022-05-30,2022-05-30,株式会社Ｂ３,,株式会社,東京都,新宿区,西新宿６丁目２５番８－１８０３号,,13,104,1600023,,,,,,,2022-05-30,1,,,,,ビースリー,0
590,3011801040775,新規,0,2022-05-30,2022-05-30,株式会社７２,,株式会社,東京都,足立区,柳原１丁目３番１２号サクラノテラスＩＩ・２０３,00126687,13,121,1200022,,,,,,,2022-05-30,1,,,,,ナナジュウニ,0
598,3013301049165,新規,0,2022-05-30,2022-05-30,株式会社ＩＢ,,株式会社,東京都,豊島区,西池袋３丁目６番２０号カーサＴ．Ｙ．Ｔ３０１号,,13,116,1710021,,,,,,,2022-05-30,1,,,,,アイビー,0
602,3020003021831,新規,0,2022-05-30,2022-05-30,合同会社横浜クラウド会計,,合同会社,神奈川県,横浜市港北区,新横浜３丁目１７番１２号ビステーション新横浜２０１,,14,109,2220033,,,,,,,2022-05-30,1,,,,,ヨコハマクラウドカイケイ,0
606,3021001076066,新規,0,2022-05-30,2022-05-30,株式会社ＳＫ工業,,株式会社,神奈川県,相模原市南区,古淵５丁目４番１号ルセアン古淵２０２号室,,14,153,2520344,,,,,,,2022-05-30,1,,,,,エスケイコウギョウ,0
619,3040001123586,新規,0,2022-05-30,2022-05-30,東星貿易株式会社,,株式会社,千葉県,船橋市,印内３丁目３６番１２号,,12,204,2730039,,,,,,,2022-05-30,1,,,,,トウセイボウエキ,0
622,3040003020121,新規,0,2022-05-30,2022-05-30,ビジネスダイレクションアドバイザリー合同会社,,合同会社,千葉県,松戸市,北松戸１丁目９－５ペガサス北松戸１００４,,12,207,2710063,,,,,,,2022-05-30,1,,,,,ビジネスダイレクションアドバイザリー,0
625,3050001051134,新規,0,2022-05-30,2022-05-30,株式会社ＢＡＢＹ,,株式会社,茨城県,水戸市,平須町１８２０番地の５７５,,08,201,3100853,,,,,,,2022-05-30,1,,,,,ベイビー,0
631,3080001024962,新規,0,2022-05-30,2022-05-30,株式会社トロワコワン,,株式会社,静岡県,藤枝市,清里１丁目３５番地の７,,22,214,4260223,,,,,,,2022-05-30,1,,,,,トロワコワン,0
634,3080401025825,新規,0,2022-05-30,2022-05-30,ビークスファイン株式会社,,株式会社,静岡県,浜松市中区,元浜町２９１番地,,22,131,4300942,,,,,,,2022-05-30,1,,,,,ビークスファイン,0
640,3100001035379,新規,0,2022-05-30,2022-05-30,株式会社新妻施工店,,株式会社,長野県,千曲市,大字若宮４１０番地９,,20,218,3890813,,,,,,,2022-05-30,1,,,,,ニイヅマセコウテン,0
649,3120001246164,新規,0,2022-05-30,2022-05-30,株式会社ＲｉＬｙ,,株式会社,大阪府,大阪市西区,北堀江２丁目４番１１号１０Ｆ－２５,,27,106,5500014,,,,,,,2022-05-30,1,,,,,リリー,0
650,3120001246172,新規,0,2022-05-30,2022-05-30,ＮＯＮ‐ＳＴＡＮＤＡＲＤ株式会社,,株式会社,大阪府,大阪市西区,北堀江１丁目６番２号,,27,106,5500014,,,,,,,2022-05-30,1,,,,,ノンスタンダード,0
651,3120001246180,新規,0,2022-05-30,2022-05-30,株式会社北川オフィス,,株式会社,大阪府,枚方市,上島町１７番１１号,,27,210,5731127,,,,,,,2022-05-30,1,,,,,キタガワオフィス,0
652,3120001246197,新規,0,2022-05-30,2022-05-30,株式会社秋岡電設,,株式会社,大阪府,大阪市城東区,関目２丁目１４番１１号,,27,118,5360008,,,,,,,2022-05-30,1,,,,,アキオカデンセツ,0
653,3120001246206,新規,0,2022-05-30,2022-05-30,株式会社井上工業,,株式会社,大阪府,大阪市平野区,長吉六反４丁目２番５０号,,27,126,5470012,,,,,,,2022-05-30,1,,,,,イノウエコウギョウ,0
654,3120001246214,新規,0,2022-05-30,2022-05-30,株式会社ＥＮＩＳＩＡ,,株式会社,大阪府,大阪市城東区,諏訪１丁目３番４号,,27,118,5360021,,,,,,,2022-05-30,1,,,,,エニシア,0
664,3130001071801,新規,0,2022-05-30,2022-05-30,京信国際株式会社,,株式会社,京都府,京都市南区,西九条小寺町１１－１１－１Ｆ,,26,107,6018404,,,,,,,2022-05-30,1,,,,,キョウシンコクサイ,0
666,3130003007951,新規,0,2022-05-30,2022-05-30,Ｅｔｅｒｎａｌ　Ｍａｒｒｉａｇｅ合同会社,,合同会社,京都府,京都市伏見区,深草西浦町６丁目６１番地９,,26,109,6120029,,,,,,,2022-05-30,1,,,,,エターナルマリッジ,0
674,3140003017727,新規,0,2022-05-30,2022-05-30,合同会社Ｕｎｉｑｕｅ,,合同会社,兵庫県,姫路市,飾磨区構５丁目１７０番地ラウレア構Ｂ棟１０３号,,28,201,6728071,,,,,,,2022-05-30,1,,,,,ユニーク,0
675,3150001025565,新規,0,2022-05-30,2022-05-30,株式会社Ｉ‐ＴＥＣ,,株式会社,奈良県,大和高田市,大字藤森３５０番地２０,,29,202,6350004,,,,,,,2022-05-30,1,,,,,アイテック,0
676,3170001017123,新規,0,2022-05-30,2022-05-30,株式会社インテイル,,株式会社,和歌山県,有田市,宮崎町２５８番地４,,30,204,6490316,,,,,,,2022-05-30,1,,,,,インテイル,0
686,3180001151417,新規,0,2022-05-30,2022-05-30,株式会社エイジオホールディングス,,株式会社,愛知県,名古屋市千種区,内山３丁目３１番２０号今池ＮＭビル４階,,23,101,4640075,,,,,,,2022-05-30,1,,,,,エイジオホールディングス,0
687,3180001151458,新規,0,2022-05-30,2022-05-30,株式会社救球社,,株式会社,愛知県,名古屋市緑区,乗鞍２丁目１４０１番地,,23,114,4580004,,,,,,,2022-05-30,1,,,,,キュウキュウシャ,0
688,3180001151466,新規,0,2022-05-30,2022-05-30,株式会社エメス,,株式会社,愛知県,西春日井郡豊山町,大字豊場字神戸１３２番地１,,23,342,4800202,,,,,,,2022-05-30,1,,,,,エメス,0
691,3190001029455,新規,0,2022-05-30,2022-05-30,株式会社Ｉｄｅａｔｅ,,株式会社,三重県,四日市市,滝川町２０－１０,,24,202,5100034,,,,,,,2022-05-30,1,,,,,アイディエイト,0
694,3200003005576,新規,0,2022-05-30,2022-05-30,合同会社のぎのもり,,合同会社,岐阜県,大垣市,禾森町３丁目２０２０番地１,,21,202,5030852,,,,,,,2022-05-30,1,,,,,ノギノモリ,0
699,3220001024865,新規,0,2022-05-30,2022-05-30,株式会社Ｑｏｏ．,,株式会社,石川県,白山市,横江町８街区１,,17,210,9240011,,,,,,,2022-05-30,1,,,,,クゥー,0
700,3220003003289,新規,0,2022-05-30,2022-05-30,合同会社れいめい,,合同会社,石川県,金沢市,高畠２丁目６７番地２,,17,201,9218001,,,,,,,2022-05-30,1,,,,,レイメイ,0
706,3230005009234,新規,0,2022-05-30,2022-05-30,一般社団法人フラクタル,,その他の設立登記法人,富山県,小矢部市,鷲島１１４番地１,,16,209,9320821,,,,,,,2022-05-30,1,,,,,フラクタル,0
711,3240003005639,新規,0,2022-05-30,2022-05-30,合同会社エスアールシー,,合同会社,広島県,広島市西区,高須４丁目２０番１５号,,34,104,7330871,,,,,,,2022-05-30,1,,,,,エスアールシー,0
720,3290003012564,新規,0,2022-05-30,2022-05-30,合同会社ＴＴプロジェクト,,合同会社,福岡県,福岡市中央区,草香江２丁目１３番１５ー２０１号,,40,133,8100045,,,,,,,2022-05-30,1,,,,,ティーティープロジェクト,0
721,3300001012944,新規,0,2022-05-30,2022-05-30,株式会社山口不動産,,株式会社,佐賀県,佐賀市,西田代１丁目５番１０号,,41,201,8400045,,,,,,,2022-05-30,1,,,,,ヤマグチフドウサン,0
734,3360003012045,新規,0,2022-05-30,2022-05-30,合同会社ｅｎｇｒｏｏ　ｏｋｉｎａｗａ　ｓｏｌｕｔｉｏｎｓ,,合同会社,沖縄県,那覇市,久茂地１丁目１－１・９階,,47,201,9000015,,,,,,,2022-05-30,1,,,,,エングルーオキナワソリューションズ,0
735,3370003005709,新規,0,2022-05-30,2022-05-30,合同会社ＯＺＹ,,合同会社,宮城県,仙台市泉区,市名坂字鹿島１５７,,04,105,9813117,,,,,,,2022-05-30,1,,,,,オジー,0
738,3400001015895,新規,0,2022-05-30,2022-05-30,株式会社東北医工,,株式会社,岩手県,盛岡市,北飯岡２丁目４番２３号,,03,201,0200857,,,,,,,2022-05-30,1,,,,,トウホクイコウ,0
748,3470001019097,新規,0,2022-05-30,2022-05-30,株式会社アグリクラブ東日本,,株式会社,香川県,観音寺市,柞田町乙８６５番地２,,37,205,7680040,,,,,,,2022-05-30,1,,,,,アグリクラブヒガシニホン,0
773,4010001226960,新規,0,2022-05-30,2022-05-30,株式会社サニープロ,,株式会社,東京都,文京区,本郷２丁目３１番１１－７０２号,,13,105,1130033,,,,,,,2022-05-30,1,,,,,サニープロ,0
785,4010403027775,新規,0,2022-05-30,2022-05-30,ＳＩＤＥ　ＷＥＳＴ合同会社,,合同会社,東京都,港区,南青山２丁目２番１５号,,13,103,1070062,,,,,,,2022-05-30,1,,,,,サイドウエスト,0
810,4011001147734,新規,0,2022-05-30,2022-05-30,株式会社Ａｂｕｎｄａｎｃｅ　Ｈｅａｌｉｎｇ　ｏｆ　Ａｒｔｓ,,株式会社,東京都,目黒区,柿の木坂３丁目１番７－３０１号,,13,110,1520022,,,,,,,2022-05-30,1,,,,,アバンダンスヒーリングオブアーツ,0
811,4011001147809,新規,0,2022-05-30,2022-05-30,株式会社ケーエスビーカンパニー,,株式会社,東京都,渋谷区,西原２丁目１－１５,,13,113,1510066,,,,,,,2022-05-30,1,,,,,ケーエスビーカンパニー,0
812,4011003014734,新規,0,2022-05-30,2022-05-30,アステラジャパン合同会社,,合同会社,東京都,渋谷区,道玄坂１丁目１５番３－３２９号,,13,113,1500043,,,,,,,2022-05-30,1,,,,,,0
813,4011003014742,新規,0,2022-05-30,2022-05-30,合同会社フォックス,,合同会社,東京都,渋谷区,道玄坂１丁目１０番８号渋谷道玄坂東急ビル２Ｆ－Ｃ,,13,113,1500043,,,,,,,2022-05-30,1,,,,,フォックス,0
817,4011101098992,新規,0,2022-05-30,2022-05-30,いいなみ株式会社,,株式会社,東京都,新宿区,西新宿１丁目２６番２号新宿野村ビル３２階,,13,104,1600023,,,,,,,2022-05-30,1,,,,,イイナミ,0
818,4011101099000,新規,0,2022-05-30,2022-05-30,株式会社日本医療美容研究所,,株式会社,東京都,新宿区,西新宿６丁目１８番１号１９階,,13,104,1600023,,,,,,,2022-05-30,1,,,,,ニホンイリョウビヨウケンキュウジョ,0
819,4011101099009,新規,0,2022-05-30,2022-05-30,株式会社Ｒｅｗｚ　Ｌａｂ,,株式会社,東京都,新宿区,新宿１丁目３６番２号新宿第七葉山ビル３階,,13,104,1600022,,,,,,,2022-05-30,1,,,,,リューズラボ,0
820,4011101099017,新規,0,2022-05-30,2022-05-30,株式会社ＳＯＬ,,株式会社,東京都,新宿区,歌舞伎町１丁目９番１０号Ｋ’ｓビル２階Ｃ号室,,13,104,1600021,,,,,,,2022-05-30,1,,,,,エスオーエル,0
824,4011501028070,新規,0,2022-05-30,2022-05-30,株式会社ＴｈｒｉｖｉｎｇＴｒｉｐｏｄ,,株式会社,東京都,北区,岸町１丁目６－７アスカヤマコート１階,,13,117,1140021,,,,,,,2022-05-30,1,,,,,スライヴィングトライポッド,0
826,4011503005167,新規,0,2022-05-30,2022-05-30,ブーストワンズ合同会社,,合同会社,東京都,荒川区,南千住６丁目１９番２号,,13,118,1160003,,,,,,,2022-05-30,1,,,,,ブーストワンズ,0
828,4011801040782,新規,0,2022-05-30,2022-05-30,株式会社ナナイチハチサン,,株式会社,東京都,葛飾区,金町１丁目６番１－１３２５号,,13,122,1250042,,,,,,,2022-05-30,1,,,,,ナナイチハチサン,0
831,4012403005397,新規,0,2022-05-30,2022-05-30,合同会社ＺＡＰＰＹ,,合同会社,東京都,武蔵野市,吉祥寺本町２丁目８－４ｉ－ｏｆｆｉｃｅ吉祥寺内,,13,203,1800004,,,,,,,2022-05-30,1,,,,,ザッピィ,0
834,4013301049148,新規,0,2022-05-30,2022-05-30,太陽薬品株式会社,,株式会社,東京都,豊島区,高田２丁目１番１２号,,13,116,1710033,,,,,,,2022-05-30,1,,,,,タイヨウヤクヒン,0
835,4013301049156,新規,0,2022-05-30,2022-05-30,ｃｏｍｉｃ１株式会社,,株式会社,東京都,豊島区,東池袋３丁目９番１５号ワイムティハイム２０３号室,,13,116,1700013,,,,,,,2022-05-30,1,,,,,コミックイチ,0
845,4020001146654,新規,0,2022-05-30,2022-05-30,株式会社Ｆ・Ｋコンフォート,,株式会社,神奈川県,横浜市青葉区,荏田西２丁目１３－１５,,14,117,2250014,,,,,,,2022-05-30,1,,,,,エフケイコンフォート,0
854,4020003021806,新規,0,2022-05-30,2022-05-30,リドルシーブス合同会社,,合同会社,神奈川県,横浜市中区,元町５丁目２０２－１リードシー元町ビル５Ｆ,,14,104,2310861,,,,,,,2022-05-30,1,,,,,リドルシーブス,0
855,4020003021814,新規,0,2022-05-30,2022-05-30,損保商事イワヤ合同会社,,合同会社,神奈川県,川崎市川崎区,小川町１６番１８号川崎第２セントラルハイツ６０２号室,,14,131,2100023,,,,,,,2022-05-30,1,,,,,ソンポショウジイワヤ,0
860,4021001076065,新規,0,2022-05-30,2022-05-30,株式会社ジャストプライス,,株式会社,神奈川県,横須賀市,坂本町６丁目３１番地１７,,14,201,2380043,,,,,,,2022-05-30,1,,,,,ジャストプライス,0
884,4070001039267,新規,0,2022-05-30,2022-05-30,Ｓｏｒｔｅ株式会社,,株式会社,群馬県,佐波郡玉村町,大字飯塚１５８番地６,,10,464,3701102,,,,,,,2022-05-30,1,,,,,ソルテ,0
885,4080001024961,新規,0,2022-05-30,2022-05-30,リシェス株式会社,,株式会社,静岡県,静岡市葵区,北安東１丁目４番２０－１０８号,,22,101,4200881,,,,,,,2022-05-30,1,,,,,リシェス,0
886,4080101023310,新規,0,2022-05-30,2022-05-30,株式会社深澤企画,,株式会社,静岡県,富士宮市,大岩４５１番地の２３,,22,207,4180013,,,,,,,2022-05-30,1,,,,,フカサワキカク,0
890,4080401025824,新規,0,2022-05-30,2022-05-30,株式会社キアラ,,株式会社,静岡県,浜松市南区,恩地町６６２番地の１,,22,134,4300814,,,,,,,2022-05-30,1,,,,,キアラ,0
917,4120001246163,新規,0,2022-05-30,2022-05-30,平和健康株式会社,,株式会社,大阪府,大阪市中央区,内平野町１丁目４番１号,,27,128,5400037,,,,,,,2022-05-30,1,,,,,ヘイワケンコウ,0
918,4120001246171,新規,0,2022-05-30,2022-05-30,シンワテック株式会社,,株式会社,大阪府,大阪市旭区,新森５丁目９番３号,,27,117,5350022,,,,,,,2022-05-30,1,,,,,シンワテック,0
919,4120001246196,新規,0,2022-05-30,2022-05-30,株式会社ベルクベルク,,株式会社,大阪府,大阪市淀川区,十三東４丁目３－４９ベルテ十三１階,,27,123,5320023,,,,,,,2022-05-30,1,,,,,ベルクベルク,0
920,4120003021754,新規,0,2022-05-30,2022-05-30,ＬＥＡＬＥＡ　ＭＡＲＴ合同会社,,合同会社,大阪府,大阪市西区,阿波座２丁目２－２１ダイドーメゾン本町３０２号,,27,106,5500011,,,,,,,2022-05-30,1,,,,,レアレアマート,0
921,4120101065645,新規,0,2022-05-30,2022-05-30,株式会社ＣＯＬＯＮＹ,,株式会社,大阪府,堺市中区,八田寺町４７１番地１,,27,142,5998267,,,,,,,2022-05-30,1,,,,,コロニー,0
938,4140001126090,新規,0,2022-05-30,2022-05-30,株式会社Ｌｉｇｈｔ　ｅｓｔａｔｅ,,株式会社,兵庫県,尼崎市,北城内２３２番地１５,,28,202,6600826,,,,,,,2022-05-30,1,,,,,ライトエステート,0
939,4140001126132,新規,0,2022-05-30,2022-05-30,株式会社ソレアード,,株式会社,兵庫県,加古川市,新神野３丁目２７番４－２０１号,,28,210,6750008,,,,,,,2022-05-30,1,,,,,ソレアード,0
940,4140001126149,新規,0,2022-05-30,2022-05-30,株式会社ふじた,,株式会社,兵庫県,姫路市,花田町上原田１３９番地１６,,28,201,6710251,,,,,,,2022-05-30,1,,,,,フジタ,0
941,4140001126165,新規,0,2022-05-30,2022-05-30,株式会社ＦＲ　ＷＯＲＫＳ,,株式会社,兵庫県,伊丹市,昆陽７丁目３－１－２０１,,28,207,6640881,,,,,,,2022-05-30,1,,,,,エフアールワークス,0
948,4140003017726,新規,0,2022-05-30,2022-05-30,合同会社阿久津,,合同会社,兵庫県,西宮市,名次町５番４号,,28,204,6620024,,,,,,,2022-05-30,1,,,,,アクツ,0
961,4190001029454,新規,0,2022-05-30,2022-05-30,株式会社カブク,,株式会社,三重県,松阪市,春日町２丁目８２アクセスポイント春日町４Ｆ,,24,204,5150078,,,,,,,2022-05-30,1,,,,,カブク,0
964,4200001040095,新規,0,2022-05-30,2022-05-30,株式会社カケハシ基礎,,株式会社,岐阜県,各務原市,那加桐野町１丁目７７番地１,,21,213,5040008,,,,,,,2022-05-30,1,,,,,カケハシキソ,0
965,4200001040104,新規,0,2022-05-30,2022-05-30,株式会社中の人,,株式会社,岐阜県,岐阜市,三歳町４丁目１番地１１,,21,201,5008335,,,,,,,2022-05-30,1,,,,,ナカノヒト,0
966,4200003005575,新規,0,2022-05-30,2022-05-30,合同会社松岡造形販売,,合同会社,岐阜県,瑞穂市,別府１１０２番地３アール・ウイング２００３号,,21,216,5010222,,,,,,,2022-05-30,1,,,,,マツオカゾウケイハンバイ,0
967,4210003001516,新規,0,2022-05-30,2022-05-30,一期ケアサポート合同会社,,合同会社,福井県,越前市,中央１丁目６番１５号,,18,209,9150814,,,,,,,2022-05-30,1,,,,,イチゴケアサポート,0
969,4220003003288,新規,0,2022-05-30,2022-05-30,合同会社ＯＳＧ,,合同会社,石川県,加賀市,山中温泉河鹿町ホ４７番地,,17,206,9220126,,,,,,,2022-05-30,1,,,,,オーエスジー,0
972,4240001059818,新規,0,2022-05-30,2022-05-30,株式会社ＡＫ,,株式会社,広島県,三原市,沼田東町両名１１５８番地３,,34,204,7230141,,,,,,,2022-05-30,1,,,,,エーケー,0
977,4250003003079,新規,0,2022-05-30,2022-05-30,ぶるーべりー合同会社,,合同会社,山口県,光市,大字浅江１８８８番地６,,35,210,7430021,,,,,,,2022-05-30,1,,,,,ブルーベリー,0
987,4290001097689,新規,0,2022-05-30,2022-05-30,西日本アグリ株式会社,,株式会社,福岡県,福岡市中央区,地行１丁目１３番１８－３７号シーラカンスＳａｎｔａＦｅ,,40,133,8100064,,,,,,,2022-05-30,1,,,,,ニシニホンアグリ,0
988,4290001097706,新規,0,2022-05-30,2022-05-30,株式会社ｋａｆｕｕ　ｌｉｆｅ,,株式会社,福岡県,福岡市博多区,堅粕４丁目１－１６－１Ｇｒａｎｄｔｉｃ　ｐｒｅｃｉｏｕｓ博多２０１,,40,132,8120043,,,,,,,2022-05-30,1,,,,,カフーライフ,0
992,4290003012563,新規,0,2022-05-30,2022-05-30,合同会社Ｆｌａｔ,,合同会社,福岡県,春日市,平田台２丁目６８番地４,,40,218,8160812,,,,,,,2022-05-30,1,,,,,フラット,0
995,4290005018699,新規,0,2022-05-30,2022-05-30,一般社団法人博多シティ能古島リゾート,,その他の設立登記法人,福岡県,福岡市中央区,那の津４丁目８番２５号,,40,133,8100071,,,,,,,2022-05-30,1,,,,,ハカタシティノコノシマリゾート,0
1009,4360003012036,新規,0,2022-05-30,2022-05-30,合同会社ＮＯＡ,,合同会社,沖縄県,那覇市,泉崎１丁目１２－１ララプレイスリゾート６０２,,47,201,9000021,,,,,,,2022-05-30,1,,,,,ノア,0
1010,4360003012044,新規,0,2022-05-30,2022-05-30,アングレカム合同会社,,合同会社,沖縄県,糸満市,字照屋８０４番地１かーら家１０１号室,,47,210,9010315,,,,,,,2022-05-30,1,,,,,アングレカム,0
1011,4370001048601,新規,0,2022-05-30,2022-05-30,株式会社オレンジマウンテン,,株式会社,宮城県,仙台市太白区,中田７丁目１３番１５号,,04,104,9811104,,,,,,,2022-05-30,1,,,,,オレンジマウンテン,0
1013,4380001032843,新規,0,2022-05-30,2022-05-30,ｃｒｅｗｍａｐ株式会社,,株式会社,福島県,いわき市,草木台２丁目１８番地の１グリーンスパーク１０９－７０１,,07,204,9728301,,,,,,,2022-05-30,1,,,,,クルーマップ,0
1023,4410001013187,新規,0,2022-05-30,2022-05-30,藤井物産株式会社,,株式会社,秋田県,南秋田郡八郎潟町,字中田３８番地,,05,363,0181614,,,,,,,2022-05-30,1,,,,,フジイブッサン,0
1024,4420001017864,新規,0,2022-05-30,2022-05-30,株式会社ＧＬＯＷＴＨ,,株式会社,青森県,弘前市,大字泉野３丁目１１‐８,,02,202,0368164,,,,,,,2022-05-30,1,,,,,グロウス,0
1028,4430001086735,新規,0,2022-05-30,2022-05-30,地域レジリエンス株式会社,,株式会社,北海道,小樽市,花園３丁目７番３―２号,,01,203,0470024,,,,,,,2022-05-30,1,,,,,チイキレジリエンス,0
1034,4470001019096,新規,0,2022-05-30,2022-05-30,株式会社田辺会計事務所,,株式会社,香川県,観音寺市,出作町１１１７番地８,,37,205,7680011,,,,,,,2022-05-30,1,,,,,タナベカイケイジムショ,0
1037,4500001024241,新規,0,2022-05-30,2022-05-30,Ｍべジフル株式会社,,株式会社,愛媛県,松山市,久万ノ台３３７番地１,,38,201,7918016,,,,,,,2022-05-30,1,,,,,エムベジフル,0
1040,4700150109129,新規,0,2022-05-30,2022-05-30,南さつま干拓土地改良区,,その他,鹿児島県,南さつま市,大浦町３０１７６番地１３５,,46,220,8971201,,,,,,,2022-05-30,1,,,,,ミナミサツマカンタクトチカイリヨウク,0
1062,5010103001922,新規,0,2022-05-30,2022-05-30,Ｅｌｆｉ合同会社,,合同会社,東京都,八王子市,大和田町５丁目３番１－３０７号,,13,201,1920045,,,,,,,2022-05-30,1,,,,,エルフィ,0
1066,5010401167597,新規,0,2022-05-30,2022-05-30,ＮＥＷＤＥＥＰ株式会社,,株式会社,東京都,港区,南青山３丁目１番３号スプライン青山東急ビル６Ｆ,,13,103,1070062,,,,,,,2022-05-30,1,,,,,ニューディープ,0
1068,5010403027782,新規,0,2022-05-30,2022-05-30,村上胎内洋上風力合同会社,,合同会社,東京都,港区,虎ノ門２丁目１０番４号オークラプレステージタワー,,13,103,1050001,,,,,,,2022-05-30,1,,,,,ムラカミタイナイヨウジョウフウリョク,0
1071,5010603009556,新規,0,2022-05-30,2022-05-30,合同会社ユーフォリア,,合同会社,東京都,江東区,東陽１丁目２５－１５平成ビジオンビル４ｃ,,13,108,1350016,,,,,,,2022-05-30,1,,,,,ユーフォリア,0
1075,5010703006255,新規,0,2022-05-30,2022-05-30,ＮＥＸＴ　ＬＥＶＥＬ　ＳＴＵＤＩＯ合同会社,,合同会社,東京都,品川区,東品川４丁目６－７,,13,109,1400002,,,,,,,2022-05-30,1,,,,,ネクストレベルスタジオ,0
1077,5010901050922,新規,0,2022-05-30,2022-05-30,大可楽文化伝媒株式会社,,株式会社,東京都,世田谷区,世田谷１丁目４１番２号,,13,112,1540017,,,,,,,2022-05-30,1,,,,,ダイコーラブンカメディア,0
1078,5010901050939,新規,0,2022-05-30,2022-05-30,株式会社Ｅ’ｒａｂｌｅ,,株式会社,東京都,世田谷区,駒沢４丁目１０番１７－１０１号,,13,112,1540012,,,,,,,2022-05-30,1,,,,,エラーブル,0
1082,5011001147691,新規,0,2022-05-30,2022-05-30,株式会社ｙｅｔ,,株式会社,東京都,目黒区,東が丘１丁目５番３号,,13,110,1520021,,,,,,,2022-05-30,1,,,,,イェット,0
1085,5011003014642,新規,0,2022-05-30,2022-05-30,ｉｖｉｌｌｅ　ｃｒｅａｔｉｏｎ合同会社,,合同会社,東京都,渋谷区,富ヶ谷２丁目３３－８ガーデン富ヶ谷２０１,,13,113,1510063,,,,,,,2022-05-30,1,,,,,アイヴィルクリエーション,0
1089,5011105010267,新規,0,2022-05-30,2022-05-30,一般社団法人日本婦人科がん会議,,その他の設立登記法人,東京都,新宿区,神楽坂６丁目２２番地小松ビル４階,,13,104,1620825,,,,,,,2022-05-30,1,,,,,ニホンフジンカガンカイギ,0
1097,5011801040781,新規,0,2022-05-30,2022-05-30,株式会社ＦＯＲＥＶＥＲ,,株式会社,東京都,足立区,梅島３丁目１２番１８号,,13,121,1210816,,,,,,,2022-05-30,1,,,,,フォーエバー,0
1101,5012703002465,新規,0,2022-05-30,2022-05-30,パシフィックフローラルジャパン合同会社,,合同会社,東京都,東久留米市,南町４丁目８番３９号,,13,222,2030031,,,,,,,2022-05-30,1,,,,,パシフィックフローラルジャパン,0
1112,5020001146661,新規,0,2022-05-30,2022-05-30,株式会社Ｃｏｃｏｌｏ,,株式会社,神奈川県,川崎市高津区,上作延９４１番地１コートヤード宮崎台１０２,,14,134,2130034,,,,,,,2022-05-30,1,,,,,ココロ,0
1113,5020001146686,新規,0,2022-05-30,2022-05-30,株式会社ＨＩＲＯ　ｉｎｔｅｒｓｅｃｔｉｏｎ,,株式会社,神奈川県,横浜市瀬谷区,宮沢１丁目５９番地４,,14,114,2460038,,,,,,,2022-05-30,1,,,,,ヒロインターセクション,0
1122,5020005015549,新規,0,2022-05-30,2022-05-30,ＮＰＯ法人ミライキッズ,,その他の設立登記法人,神奈川県,横浜市瀬谷区,北新２９番地１２,,14,114,2460036,,,,,,,2022-05-30,1,,,,,ミライキッズ,0
1125,5021001076064,新規,0,2022-05-30,2022-05-30,株式会社タダシ工業,,株式会社,神奈川県,藤沢市,長後７５５番地の１２,,14,205,2520801,,,,,,,2022-05-30,1,,,,,タダシコウギョウ,0
1127,5021003011754,新規,0,2022-05-30,2022-05-30,合同会社吉田企画所,,合同会社,神奈川県,鎌倉市,今泉台３丁目１３番１３号,,14,204,2470053,,,,,,,2022-05-30,1,,,,,ヨシダキカクショ,0
1133,5030003019419,新規,0,2022-05-30,2022-05-30,合同会社クロップ,,合同会社,埼玉県,さいたま市南区,曲本４丁目１１－１２,,11,108,3360033,,,,,,,2022-05-30,1,,,,,クロップ,0
1141,5050001051132,新規,0,2022-05-30,2022-05-30,海宸商事株式会社,,株式会社,茨城県,常総市,相野谷町２６７相野谷Ｃ棟,,08,211,3030002,,,,,,,2022-05-30,1,,,,,カイシンショウジ,0
1142,5050001051140,新規,0,2022-05-30,2022-05-30,株式会社オリ,,株式会社,茨城県,桜川市,岩瀬２３１番地,,08,231,3091211,,,,,,,2022-05-30,1,,,,,オリ,0
1148,5080001024960,新規,0,2022-05-30,2022-05-30,株式会社ＦＬＣ,,株式会社,静岡県,藤枝市,築地８３７番地落合築地第２ビル１階,,22,214,4260031,,,,,,,2022-05-30,1,,,,,エフエルシー,0
1152,5080401025831,新規,0,2022-05-30,2022-05-30,株式会社浜松リテールパートナー,,株式会社,静岡県,浜松市北区,初生町１００５番地の１,,22,135,4338112,,,,,,,2022-05-30,1,,,,,ハママツリテールパートナー,0
1159,5100001035377,新規,0,2022-05-30,2022-05-30,株式会社ソルブネットワークス,,株式会社,長野県,長野市,大字鶴賀上千歳町１１３７番地２３長野１１３７ビル２階ＢＰＮ,,20,201,3800821,,,,,,,2022-05-30,1,,,,,ソルブネットワークス,0
1161,5100003006566,新規,0,2022-05-30,2022-05-30,合同会社シャーンティ,,合同会社,長野県,上田市,常磐城５丁目１番２７号錦ハイツ２０２号,,20,203,3860027,,,,,,,2022-05-30,1,,,,,シャーンティ,0
1172,5120001246154,新規,0,2022-05-30,2022-05-30,天工開物株式会社,,株式会社,大阪府,大阪市東成区,神路４丁目３－１０スターレジデンス新深江６０６号室,,27,115,5370003,,,,,,,2022-05-30,1,,,,,テンコウカイブツ,0
1173,5120001246170,新規,0,2022-05-30,2022-05-30,慧生活株式会社,,株式会社,大阪府,大阪市東住吉区,矢田４丁目１７番８号,,27,121,5460023,,,,,,,2022-05-30,1,,,,,ケイセイカツ,0
1174,5120001246179,新規,0,2022-05-30,2022-05-30,堂島土地建物株式会社,,株式会社,大阪府,大阪市北区,曾根崎新地２丁目２番１４号,,27,127,5300002,,,,,,,2022-05-30,1,,,,,ドウジマトチタテモノ,0
1175,5120001246195,新規,0,2022-05-30,2022-05-30,株式会社瑛和マシナリー,,株式会社,大阪府,大阪市中央区,博労町３丁目２番６号東海ビル２０１号室,,27,128,5410059,,,,,,,2022-05-30,1,,,,,エイワマシナリー,0
1176,5120001246220,新規,0,2022-05-30,2022-05-30,華盛グローバル株式会社,,株式会社,大阪府,大阪市浪速区,浪速西３丁目５番１４号,,27,111,5560026,,,,,,,2022-05-30,1,,,,,カセイグローバル,0
1178,5120003021753,新規,0,2022-05-30,2022-05-30,合同会社ひまわり,,合同会社,大阪府,大阪市浪速区,敷津東３丁目６番９号３Ｆ,,27,111,5560012,,,,,,,2022-05-30,1,,,,,ヒマワリ,0
1179,5120003021778,新規,0,2022-05-30,2022-05-30,合同会社電脳プロモーション,,合同会社,大阪府,大阪市中央区,南本町２丁目１－１,,27,128,5410054,,,,,,,2022-05-30,1,,,,,デンノウプロモーション,0
1184,5120901046018,新規,0,2022-05-30,2022-05-30,株式会社Ｎ．Ｔ　ＡＲＴ,,株式会社,大阪府,摂津市,鳥飼上２丁目１番４０号,,27,224,5660062,,,,,,,2022-05-30,1,,,,,エヌティーアート,0
1220,5180001151308,新規,0,2022-05-30,2022-05-30,ＥＨＲＥ株式会社,,株式会社,愛知県,常滑市,保示町４丁目５３番地,,23,216,4790827,,,,,,,2022-05-30,1,,,,,,0
1221,5180001151456,新規,0,2022-05-30,2022-05-30,ＦＡＩＮＺＹ　ＴＥＣＨＮＯＬＯＧＩＥＳ株式会社,,株式会社,愛知県,名古屋市昭和区,宮東町２６０番地の１,,23,107,4660804,,,,,,,2022-05-30,1,,,,,フェンジーテクノロジーズ,0
1222,5180001151472,新規,0,2022-05-30,2022-05-30,株式会社ダイヤ,,株式会社,愛知県,北名古屋市,鹿田西赤土６４番地２,,23,234,4810004,,,,,,,2022-05-30,1,,,,,ダイヤ,0
1226,5200001040094,新規,0,2022-05-30,2022-05-30,株式会社匠庭店,,株式会社,岐阜県,岐阜市,芥見大退２丁目２１９番地,,21,201,5013111,,,,,,,2022-05-30,1,,,,,タクミニワテン,0
1227,5200001040103,新規,0,2022-05-30,2022-05-30,株式会社ＨｉｒｏＧｒｏｕｐ,,株式会社,岐阜県,羽島郡笠松町,北及２２１番地１,,21,303,5016064,,,,,,,2022-05-30,1,,,,,ヒログループ,0
1230,5220003003287,新規,0,2022-05-30,2022-05-30,合同会社ＨＭ,,合同会社,石川県,金沢市,増泉２丁目２１番２５号（トーカンマンション・５０２号）,,17,201,9218025,,,,,,,2022-05-30,1,,,,,エイチエム,0
1236,5260001036888,新規,0,2022-05-30,2022-05-30,森進社中株式会社,,株式会社,岡山県,岡山市北区,西古松３２５番地１０１両備グレースマンション大元７０３,,33,101,7000927,,,,,,,2022-05-30,1,,,,,モリシンシャチュウ,0
1240,5290001097705,新規,0,2022-05-30,2022-05-30,株式会社アールエル,,株式会社,福岡県,糟屋郡篠栗町,大字尾仲４４１,,40,342,8112413,,,,,,,2022-05-30,1,,,,,アールエル,0
1241,5300001012942,新規,0,2022-05-30,2022-05-30,株式会社総合スポーツユニオンブリュー鹿島,,株式会社,佐賀県,鹿島市,大字重ノ木甲３０９番地１６,,41,207,8491313,,,,,,,2022-05-30,1,,,,,ソウゴウスポーツユニオンブリューカシマ,0
1246,5330001029769,新規,0,2022-05-30,2022-05-30,株式会社Ｗｅ,,株式会社,熊本県,熊本市中央区,新屋敷２丁目１３番１２－２１８号,,43,101,8620975,,,,,,,2022-05-30,1,,,,,ウィー,0
1248,5340003003804,新規,0,2022-05-30,2022-05-30,あまみ植物園合同会社,,合同会社,鹿児島県,奄美市,名瀬和光町２４番地１０,,46,222,8940007,,,,,,,2022-05-30,1,,,,,アマミショクブツエン,0
1257,5360003012035,新規,0,2022-05-30,2022-05-30,合同会社目取真塗装,,合同会社,沖縄県,浦添市,勢理客２丁目１２番１２比嘉アパート３０３号,,47,208,9012122,,,,,,,2022-05-30,1,,,,,メドルマトソウ,0
1259,5360005006662,新規,0,2022-05-30,2022-05-30,一般社団法人伊波按司,,その他の設立登記法人,沖縄県,うるま市,石川伊波２３０番地,,47,213,9041115,,,,,,,2022-05-30,1,,,,,イハアジ,0
1276,5450003002209,新規,0,2022-05-30,2022-05-30,合同会社ネローズ,,合同会社,北海道,旭川市,神居七条１２丁目１－４－２,,01,204,0708017,,,,,,,2022-05-30,1,,,,,ネローズ,0
1278,5470001019095,新規,0,2022-05-30,2022-05-30,株式会社Ｍｏｎｔ３,,株式会社,香川県,高松市,木太町５０２３番地２６,,37,201,7600080,,,,,,,2022-05-30,1,,,,,モントワ,0
1279,5470005006445,新規,0,2022-05-30,2022-05-30,一般社団法人ひいらぎ,,その他の設立登記法人,香川県,高松市,国分寺町新居３０１番地１,,37,201,7690101,,,,,,,2022-05-30,1,,,,,ヒイラギ,0
1283,5700150109128,新規,0,2022-05-30,2022-05-30,Ｉｃｏｎｉｃ　Ａｕｔｏ　Ｔｒａｄｉｎｇ　Ｃｏｍｐａｎｙ,,外国会社等,栃木県,足利市,小俣南町２４番地１６ペニーレイン２０１,,09,202,3260142,スリランカ民主社会主義共和国サバラガムワ州ケガラ、マワネラ、ムルタワラ３７／６,,,,,,2022-05-30,1,,,,,アイコニツクオートトレーデイングカンパニー,0
1297,6010105002166,新規,0,2022-05-30,2022-05-30,一般社団法人アルデバラン,,その他の設立登記法人,東京都,八王子市,片倉町１３９５番地２６,,13,201,1920914,,,,,,,2022-05-30,1,,,,,アルデバラン,0
1304,6010401167497,新規,0,2022-05-30,2022-05-30,株式会社ＡＰ７３,,株式会社,東京都,港区,虎ノ門４丁目１番２８号虎ノ門タワーズオフィス１７階,,13,103,1050001,,,,,,,2022-05-30,1,,,,,エイピーナナジュウサン,0
1305,6010401167596,新規,0,2022-05-30,2022-05-30,ターミナル３株式会社,,株式会社,東京都,港区,赤坂２丁目１４番５号Ｄａｉｗａ赤坂ビル４階,,13,103,1070052,,,,,,,2022-05-30,1,,,,,ターミナルスリー,0
1309,6010403027757,新規,0,2022-05-30,2022-05-30,ＧＦＡＩ　Ｒｏｂｏｔ　Ｓｅｒｖｉｃｅ合同会社,,合同会社,東京都,港区,南麻布３丁目１９番２３号オーク南麻布ビル２階,,13,103,1060047,,,,,,,2022-05-30,1,,,,,ジーエフエーアイロボットサービス,0
1312,6010603009547,新規,0,2022-05-30,2022-05-30,ＵＳＨＡ合同会社,,合同会社,東京都,江東区,北砂３丁目２８番１号４０２,,13,108,1360073,,,,,,,2022-05-30,1,,,,,ウーシャ,0
1313,6010603009555,新規,0,2022-05-30,2022-05-30,ＶＩＡ合同会社,,合同会社,東京都,江東区,古石場１丁目６－１ＫＵＲＡ門前仲町１,,13,108,1350045,,,,,,,2022-05-30,1,,,,,ヴィア,0
1318,6010701042714,新規,0,2022-05-30,2022-05-30,株式会社マート,,株式会社,東京都,品川区,小山２丁目９番２８号,,13,109,1420062,,,,,,,2022-05-30,1,,,,,マート,0
1321,6010901050921,新規,0,2022-05-30,2022-05-30,美泰健康株式会社,,株式会社,東京都,世田谷区,世田谷１丁目４１番２号,,13,112,1540017,,,,,,,2022-05-30,1,,,,,ビタイケンコウ,0
1323,6010903007408,新規,0,2022-05-30,2022-05-30,合同会社ｄｅａｌ,,合同会社,東京都,世田谷区,代沢１丁目３番１６号こまい荘８号,,13,112,1550032,,,,,,,2022-05-30,1,,,,,ディール,0
1329,6011001147724,新規,0,2022-05-30,2022-05-30,Ｒ２Ｒ株式会社,,株式会社,東京都,渋谷区,神宮前６丁目３５番地３号コープオリンピア３１６,,13,113,1500001,,,,,,,2022-05-30,1,,,,,アールトゥーアール,0
1330,6011001147749,新規,0,2022-05-30,2022-05-30,株式会社Ｖａｒｉｏｕｓ　Ｇｒｏｕｐ,,株式会社,東京都,渋谷区,神泉町９番６号ファインクレスト渋谷神泉３０１,,13,113,1500045,,,,,,,2022-05-30,1,,,,,,0
1331,6011001147757,新規,0,2022-05-30,2022-05-30,株式会社ＰｈａｔｅｃＨｓ,,株式会社,東京都,渋谷区,千駄ヶ谷５丁目１６－５ＤｏｕｂｌｅＣｏｕｒｔ３Ｄ,,13,113,1510051,,,,,,,2022-05-30,1,,,,,ファテックス,0
1336,6011101098999,新規,0,2022-05-30,2022-05-30,株式会社Ｈ＆Ｉ,,株式会社,東京都,新宿区,西新宿６丁目１２番４号コイトビル２０２,,13,104,1600023,,,,,,,2022-05-30,1,,,,,エイチアンドアイ,0
1337,6011101099015,新規,0,2022-05-30,2022-05-30,株式会社ＥＴＳ,,株式会社,東京都,新宿区,西新宿３丁目３番１３号西新宿水間ビル６階,,13,104,1600023,,,,,,,2022-05-30,1,,,,,イーティーエス,0
1341,6011103011803,新規,0,2022-05-30,2022-05-30,合同会社ＳＬ,,合同会社,東京都,新宿区,百人町１丁目２０番３号バラードハイム新宿渡辺ビル９０５号,,13,104,1690073,,,,,,,2022-05-30,1,,,,,エスエル,0
1345,6011201023849,新規,0,2022-05-30,2022-05-30,株式会社さくらメディカルサポート,,株式会社,東京都,中野区,沼袋２丁目２０番１２号,,13,114,1650025,,,,,,,2022-05-30,1,,,,,サクラメディカルサポート,0
1353,6011801040780,新規,0,2022-05-30,2022-05-30,株式会社エビヌマ,,株式会社,東京都,足立区,花畑３丁目３７番１１号,,13,121,1210061,,,,,,,2022-05-30,1,,,,,エビヌマ,0
1355,6011803005105,新規,0,2022-05-30,2022-05-30,クリ合同会社,,合同会社,東京都,足立区,西伊興３丁目１８－１４－２０６号,,13,121,1210824,,,,,,,2022-05-30,1,,,,,クリ,0
1356,6012401039247,新規,0,2022-05-30,2022-05-30,株式会社バックル,,株式会社,東京都,武蔵野市,吉祥寺本町１丁目２３番３号とみふくビル１０１,,13,203,1800004,,,,,,,2022-05-30,1,,,,,バックル,0
1357,6012403005395,新規,0,2022-05-30,2022-05-30,合同会社Ｍｉｒａｃｒｉ,,合同会社,東京都,調布市,菊野台１丁目４９番地１４,,13,208,1820007,,,,,,,2022-05-30,1,,,,,ミラクリ,0
1358,6012703002464,新規,0,2022-05-30,2022-05-30,合同会社ＴＫコーポレーション,,合同会社,東京都,西東京市,向台町６丁目１６－６,,13,229,1880013,,,,,,,2022-05-30,1,,,,,ティーケーコーポレーション,0
1367,6020001146644,新規,0,2022-05-30,2022-05-30,株式会社Ｒｅｌｉｇｈｔ,,株式会社,神奈川県,横浜市西区,北幸１丁目１－８エキニア横浜５階ＨａｍａＰｏｒｔ,,14,103,2200004,,,,,,,2022-05-30,1,,,,,リライト,0
1368,6020001146677,新規,0,2022-05-30,2022-05-30,株式会社ウェイブ,,株式会社,神奈川県,横浜市西区,北幸１丁目１番８号エキニア横浜５階,,14,103,2200004,,,,,,,2022-05-30,1,,,,,ウェイブ,0
1370,6020003021837,新規,0,2022-05-30,2022-05-30,カチフル合同会社,,合同会社,神奈川県,横浜市西区,みなとみらい４丁目５－３－１００４号室,,14,103,2200012,,,,,,,2022-05-30,1,,,,,カチフル,0
1372,6021001076071,新規,0,2022-05-30,2022-05-30,株式会社ＳＯＵＫＩ,,株式会社,神奈川県,秦野市,曽屋３６０１番地の１４,,14,211,2570031,,,,,,,2022-05-30,1,,,,,ソウキ,0
1374,6021003011745,新規,0,2022-05-30,2022-05-30,合同会社モナークエレクトロニクス,,合同会社,神奈川県,厚木市,飯山６５４番地２,,14,212,2430213,,,,,,,2022-05-30,1,,,,,モナークエレクトロニクス,0
1383,6030003019491,新規,0,2022-05-30,2022-05-30,合同会社おお田商事,,合同会社,埼玉県,新座市,栗原５丁目１４－１６,,11,230,3520035,,,,,,,2022-05-30,1,,,,,オオタショウジ,0
1393,6040005021635,新規,0,2022-05-30,2022-05-30,一般社団法人ノーマルライフ,,その他の設立登記法人,千葉県,木更津市,朝日２丁目８番１６号,,12,206,2920055,,,,,,,2022-05-30,1,,,,,ノーマルライフ,0
1395,6060003004086,新規,0,2022-05-30,2022-05-30,ＪＯＳＥＰＨ　ＴＲＡＤＩＮＧ　ＬＡＮＫＡ合同会社,,合同会社,栃木県,佐野市,田之入町７４７番地１,,09,204,3270841,,,,,,,2022-05-30,1,,,,,ジョセフトレーディングランカ,0
1399,6070001039257,新規,0,2022-05-30,2022-05-30,株式会社こぽ,,株式会社,群馬県,前橋市,二之宮町８８７番地,,10,201,3792117,,,,,,,2022-05-30,1,,,,,コポ,0
1400,6080001024968,新規,0,2022-05-30,2022-05-30,株式会社八倉コーポレーション,,株式会社,静岡県,焼津市,道原１５番地の２,,22,212,4250055,,,,,,,2022-05-30,1,,,,,ヤグラコーポレーション,0
1402,6080101023309,新規,0,2022-05-30,2022-05-30,株式会社ワイエイケイ,,株式会社,静岡県,田方郡函南町,柏谷１３０８‐４,,22,325,4190112,,,,,,,2022-05-30,1,,,,,ワイエイケイ,0
1407,6100001035376,新規,0,2022-05-30,2022-05-30,株式会社ＫＥＮＩＣＨＩ,,株式会社,長野県,長野市,豊野町大倉１１５７番地,,20,201,3891102,,,,,,,2022-05-30,1,,,,,ケンイチ,0
1414,6120001246153,新規,0,2022-05-30,2022-05-30,賀美株式会社,,株式会社,大阪府,大阪市中央区,高津３丁目８－１９スターレジデンス黒門９０３号室,,27,128,5420072,,,,,,,2022-05-30,1,,,,,カミ,0
1415,6120001246186,新規,0,2022-05-30,2022-05-30,株式会社山凛,,株式会社,大阪府,大阪市港区,市岡元町２丁目３番２６号,,27,107,5520002,,,,,,,2022-05-30,1,,,,,ヤマリン,0
1416,6120001246194,新規,0,2022-05-30,2022-05-30,東陽コンサルティング株式会社,,株式会社,大阪府,大阪市西成区,松１丁目１０番２９号Ｋ２マンション１０５号室,,27,122,5570034,,,,,,,2022-05-30,1,,,,,トウヨウコンサルティング,0
1417,6120001246244,新規,0,2022-05-30,2022-05-30,株式会社ＥＨＡＣＫ,,株式会社,大阪府,大阪市都島区,片町２丁目２番４０号,,27,102,5340025,,,,,,,2022-05-30,1,,,,,イーハック,0
1420,6120003021777,新規,0,2022-05-30,2022-05-30,ＴＨ１９合同会社,,合同会社,大阪府,大阪市浪速区,日本橋３丁目１番１７－２０１号,,27,111,5560005,,,,,,,2022-05-30,1,,,,,ティーエイチジュウキュウ,0
1426,6120901046017,新規,0,2022-05-30,2022-05-30,株式会社Ｎｅｗ　Ｓｔａｒ　Ｊａｐａｎ,,株式会社,大阪府,豊中市,本町３丁目６番５号,,27,203,5600021,,,,,,,2022-05-30,1,,,,,ニュースタージャパン,0
1431,6130001071856,新規,0,2022-05-30,2022-05-30,クレアティブ株式会社,,株式会社,京都府,京都市北区,平野宮本町５８番地１,,26,101,6038322,,,,,,,2022-05-30,1,,,,,クレアティブ,0
1440,6140001126089,新規,0,2022-05-30,2022-05-30,株式会社ＨＡＮＡＭＯＭＯ,,株式会社,兵庫県,尼崎市,東園田町３丁目２７番地の３,,28,202,6610953,,,,,,,2022-05-30,1,,,,,ハナモモ,0
1441,6140001126155,新規,0,2022-05-30,2022-05-30,株式会社マノンＡＨ,,株式会社,兵庫県,川西市,緑台１丁目１番地の４８,,28,217,6660129,,,,,,,2022-05-30,1,,,,,マノンエーエイチ,0
1443,6150003002691,新規,0,2022-05-30,2022-05-30,合同会社ウジャト,,合同会社,奈良県,奈良市,あやめ池南８丁目１番２９－５号,,29,201,6310033,,,,,,,2022-05-30,1,,,,,ウジャト,0
1448,6180001151455,新規,0,2022-05-30,2022-05-30,Ｃｏｒｎｅｒｚ　Ｐｒｏｄｕｃｔｉｏｎｓ株式会社,,株式会社,愛知県,名古屋市守山区,翠松園２丁目２１８番地の３,,23,113,4630010,,,,,,,2022-05-30,1,,,,,コーナーズプロダクションズ,0
1449,6180001151496,新規,0,2022-05-30,2022-05-30,株式会社名南管財,,株式会社,愛知県,東海市,名和町二番割上２０番地の１,,23,222,4760002,,,,,,,2022-05-30,1,,,,,メイナンカンザイ,0
1456,6180301036265,新規,0,2022-05-30,2022-05-30,フューチャーステップス株式会社,,株式会社,愛知県,安城市,日の出町４番１５号ワコービル５０４,,23,212,4460033,,,,,,,2022-05-30,1,,,,,フューチャーステップス,0
1457,6180303005342,新規,0,2022-05-30,2022-05-30,合同会社ストックプラス,,合同会社,愛知県,西尾市,和気町横５７番地,,23,213,4450025,,,,,,,2022-05-30,1,,,,,ストックプラス,0
1469,6210005010034,新規,0,2022-05-30,2022-05-30,一般社団法人おはしのくに,,その他の設立登記法人,福井県,小浜市,新小松原第３号４５番地,,18,204,9170008,,,,,,,2022-05-30,1,,,,,オハシノクニ,0
1472,6220003003286,新規,0,2022-05-30,2022-05-30,合同会社ＧＳＫ,,合同会社,石川県,小松市,長崎町３丁目８７番地,,17,203,9230004,,,,,,,2022-05-30,1,,,,,ジーエスケー,0
1474,6240001059816,新規,0,2022-05-30,2022-05-30,ＭＡＳＵＹＡトレーディング株式会社,,株式会社,広島県,呉市,西中央３丁目７番４０号,,34,202,7370811,,,,,,,2022-05-30,1,,,,,マスヤトレーディング,0
1475,6240001059824,新規,0,2022-05-30,2022-05-30,ＭＴエンジニアリング株式会社,,株式会社,広島県,呉市,仁方本町３丁目６番１６号,,34,202,7370152,,,,,,,2022-05-30,1,,,,,エムティーエンジニアリング,0
1477,6260001036887,新規,0,2022-05-30,2022-05-30,株式会社ちゅうぎんヒューマンイノベーションズ,,株式会社,岡山県,岡山市北区,本町２番５号ちゅうぎん駅前ビル６０５,,33,101,7000901,,,,,,,2022-05-30,1,,,,,チュウギンヒューマンイノベーションズ,0
1483,6290001097704,新規,0,2022-05-30,2022-05-30,Ｂｒａｎｄｉｓｔ株式会社,,株式会社,福岡県,福岡市南区,長丘４丁目７－７,,40,134,8150075,,,,,,,2022-05-30,1,,,,,ブランディスト,0
1485,6290801028569,新規,0,2022-05-30,2022-05-30,株式会社ＳＵＮ,,株式会社,福岡県,北九州市若松区,下原町２番６号,,40,103,8080005,,,,,,,2022-05-30,1,,,,,サン,0
1486,6310001017873,新規,0,2022-05-30,2022-05-30,株式会社ｓｃｅｌｔａ,,株式会社,長崎県,長崎市,東町２５０５番地３０,,42,201,8510116,,,,,,,2022-05-30,1,,,,,シェルタ,0
1487,6330001029768,新規,0,2022-05-30,2022-05-30,株式会社グリスロヴィレッヂ,,株式会社,熊本県,合志市,須屋１６３５番地１６８,,43,216,8611102,,,,,,,2022-05-30,1,,,,,グリスロヴィレッヂ,0
1488,6330003009371,新規,0,2022-05-30,2022-05-30,合同会社ＳＴＥＬＬＡ　ＭＡＲＩＳ,,合同会社,熊本県,八代市,本町３丁目３番３５号,,43,202,8660861,,,,,,,2022-05-30,1,,,,,ステラマリス,0
1489,6340001024751,新規,0,2022-05-30,2022-05-30,株式会社Ｏｆｆｉｃｅ　Ｉｍｐｒｅｓｓ,,株式会社,鹿児島県,姶良市,松原町３丁目１７番地１１Ｋ９ハウスＡ棟,,46,225,8995422,,,,,,,2022-05-30,1,,,,,オフィスインプレス,0
1499,6370001048599,新規,0,2022-05-30,2022-05-30,株式会社及川ファーム,,株式会社,宮城県,登米市,中田町浅水字新田１５７番地,,04,212,9870611,,,,,,,2022-05-30,1,,,,,オイカワファーム,0
1500,6370001048608,新規,0,2022-05-30,2022-05-30,株式会社オオヤマ塗装,,株式会社,宮城県,名取市,相互台２丁目３番地の２,,04,207,9811246,,,,,,,2022-05-30,1,,,,,オオヤマトソウ,0
1504,6380001032841,新規,0,2022-05-30,2022-05-30,株式会社ＩＴ　Ｔｅｃｈｎｏｌｏｇｙｄｅｓｉｇｎ,,株式会社,福島県,いわき市,小名浜君ケ塚町１３番地の１２,,07,204,9718168,,,,,,,2022-05-30,1,,,,,アイティーテクノロジーデザイン,0
1511,6390005008960,新規,0,2022-05-30,2022-05-30,特定非営利活動法人あーちゃんの家,,その他の設立登記法人,山形県,山形市,幸町６番７号,,06,201,9900038,,,,,,,2022-05-30,1,,,,,アーチャンノイエ,0
1514,6400003002939,新規,0,2022-05-30,2022-05-30,地域環境開発合同会社,,合同会社,岩手県,西磐井郡平泉町,平泉字泉屋９４番地２,,03,402,0294102,,,,,,,2022-05-30,1,,,,,チイキカンキョウカイハツ,0
1520,6430003013958,新規,0,2022-05-30,2022-05-30,合同会社ＨｏｒｓｅＬｉｎｋ,,合同会社,北海道,浦河郡浦河町,荻伏町４９９番地の１９,,01,607,0593451,,,,,,,2022-05-30,1,,,,,ホースリンク,0
1521,6430003013966,新規,0,2022-05-30,2022-05-30,合同会社サンウォークズ,,合同会社,北海道,札幌市中央区,南一条西６丁目２１－１センチュリーヒルズ９０１,,01,101,0600061,,,,,,,2022-05-30,1,,,,,サンウォークズ,0
1522,6460001005698,新規,0,2022-05-30,2022-05-30,株式会社ＥＺＯライダー,,株式会社,北海道,川上郡弟子屈町,川湯温泉１丁目５番４０号,,01,665,0883465,,,,,,,2022-05-30,1,,,,,エゾライダー,0
1524,6480001011744,新規,0,2022-05-30,2022-05-30,ＡＲＵＨＩ株式会社,,株式会社,徳島県,徳島市,昭和町２丁目１７番地,,36,201,7700942,,,,,,,2022-05-30,1,,,,,アルヒ,0
1541,7010005035059,新規,0,2022-05-30,2022-05-30,一般社団法人１０５コンクリート擁壁協会,,その他の設立登記法人,東京都,文京区,湯島３丁目６番１号,,13,105,1130034,,,,,,,2022-05-30,1,,,,,イチマルゴコンクリートヨウヘキキョウカイ,0
1547,7010501048885,新規,0,2022-05-30,2022-05-30,アジアパシフィック株式会社,,株式会社,東京都,台東区,東上野５丁目１番１号,,13,106,1100015,,,,,,,2022-05-30,1,,,,,アジアパシフィック,0
1550,7010601061210,新規,0,2022-05-30,2022-05-30,株式会社ＩＮＶＩＴＡＴＩＯＮ,,株式会社,東京都,墨田区,京島３丁目６２－１０,,13,107,1310046,,,,,,,2022-05-30,1,,,,,インビテーション,0
1552,7010701042713,新規,0,2022-05-30,2022-05-30,株式会社ＭＡＦＹ,,株式会社,東京都,品川区,小山３丁目１５番２－２８０８号,,13,109,1420062,,,,,,,2022-05-30,1,,,,,マフィー,0
1555,7010901050920,新規,0,2022-05-30,2022-05-30,日本松下林業株式会社,,株式会社,東京都,世田谷区,世田谷１丁目４１番２号,,13,112,1540017,,,,,,,2022-05-30,1,,,,,ニホンマツシタリンギョウ,0
1562,7011001147715,新規,0,2022-05-30,2022-05-30,株式会社ＺＭＣ,,株式会社,東京都,渋谷区,幡ヶ谷２丁目１３番６号,,13,113,1510072,,,,,,,2022-05-30,1,,,,,ジーエムシー,0
1563,7011001147772,新規,0,2022-05-30,2022-05-30,株式会社ＤＲＥＬＬＡ,,株式会社,東京都,目黒区,青葉台３丁目１番２１－１５０１号,,13,110,1530042,,,,,,,2022-05-30,1,,,,,ドレラ,0
1564,7011001147789,新規,0,2022-05-30,2022-05-30,株式会社ＪＥＮＩＭＯ,,株式会社,東京都,渋谷区,恵比寿南１丁目１８－１１西田ビル,,13,113,1500022,,,,,,,2022-05-30,1,,,,,ジェニモ,0
1565,7011001147806,新規,0,2022-05-30,2022-05-30,株式会社佐藤コーポレーション,,株式会社,東京都,渋谷区,本町５丁目１番１７号佐藤ハイツ,,13,113,1510071,,,,,,,2022-05-30,1,,,,,サトウコーポレーション,0
1566,7011001147814,新規,0,2022-05-30,2022-05-30,Ｒｕｍａｈ株式会社,,株式会社,東京都,渋谷区,恵比寿４丁目６番１０号,,13,113,1500013,,,,,,,2022-05-30,1,,,,,ルマ,0
1573,7011101098949,新規,0,2022-05-30,2022-05-30,株式会社ＮＳＲ,,株式会社,東京都,新宿区,新宿１丁目２３番６号,,13,104,1600022,,,,,,,2022-05-30,1,,,,,エヌエスアール,0
1574,7011101098998,新規,0,2022-05-30,2022-05-30,ＦｕｎＢｉｔ株式会社,,株式会社,東京都,新宿区,新宿１丁目３６番２号新宿第七葉山ビル３階,,13,104,1600022,,,,,,,2022-05-30,1,,,,,ファンビット,0
1575,7011103011802,新規,0,2022-05-30,2022-05-30,ＦｌａｔＯｕｔ合同会社,,合同会社,東京都,新宿区,四谷３丁目７番地かつ新ビル４階Ａ号室,,13,104,1600004,,,,,,,2022-05-30,1,,,,,フラットアウト,0
1579,7011301027807,新規,0,2022-05-30,2022-05-30,株式会社喜いち,,株式会社,東京都,杉並区,高円寺南３丁目３番２号,,13,115,1660003,,,,,,,2022-05-30,1,,,,,キイチ,0
1583,7011601025989,新規,0,2022-05-30,2022-05-30,ニューロダイバーシティ株式会社,,株式会社,東京都,練馬区,小竹町２丁目４０番４号,,13,120,1760004,,,,,,,2022-05-30,1,,,,,ニューロダイバーシティ,0
1588,7011803005104,新規,0,2022-05-30,2022-05-30,禾鷺合同会社,,合同会社,東京都,足立区,西伊興３丁目１８－１４－１０６号,,13,121,1210824,,,,,,,2022-05-30,1,,,,,ノギサギ,0
1592,7012401039246,新規,0,2022-05-30,2022-05-30,株式会社ＳＡＫＡ造,,株式会社,東京都,狛江市,中和泉５丁目４０番２８号,,13,219,2010012,,,,,,,2022-05-30,1,,,,,サカゾウ,0
1596,7012701017075,新規,0,2022-05-30,2022-05-30,ヨシザワ電気株式会社,,株式会社,東京都,東久留米市,前沢４丁目１６番３号,,13,222,2030032,,,,,,,2022-05-30,1,,,,,ヨシザワデンキ,0
1601,7013301049161,新規,0,2022-05-30,2022-05-30,株式会社Ｒｅ．Ｐａｖｌｏｖ,,株式会社,東京都,豊島区,池袋２丁目５２番３－２８階,,13,116,1710014,,,,,,,2022-05-30,1,,,,,リパブロフ,0
1608,7020001146552,新規,0,2022-05-30,2022-05-30,Ｌｉｆｅ　Ａｎａｌｙｔｉｃｓ株式会社,,株式会社,神奈川県,横浜市南区,二葉町２丁目１８番地３クリオ吉野町参番館２０５号,,14,105,2320026,,,,,,,2022-05-30,1,,,,,ライフアナリティクス,0
1609,7020001146651,新規,0,2022-05-30,2022-05-30,株式会社ＭＥＴＡ　ＫＡＷＡＩＩ,,株式会社,神奈川県,横浜市中区,山下町８６番地１－９０１号,,14,104,2310023,,,,,,,2022-05-30,1,,,,,メタカワイイ,0
1615,7020003021828,新規,0,2022-05-30,2022-05-30,ＯＮＥ　ＣＲＡＦＴ合同会社,,合同会社,神奈川県,川崎市高津区,梶ケ谷２丁目２－２マイキャッスル梶ヶ谷ヒルズ３０５,,14,134,2130015,,,,,,,2022-05-30,1,,,,,ワンクラフト,0
1620,7021001076070,新規,0,2022-05-30,2022-05-30,株式会社笹豊,,株式会社,神奈川県,横須賀市,湘南鷹取５丁目４５番Ｈ－５０１号,,14,201,2370066,,,,,,,2022-05-30,1,,,,,ササトヨ,0
1625,7021003011760,新規,0,2022-05-30,2022-05-30,合同会社サーカス,,合同会社,神奈川県,秦野市,千村１４１４,,14,211,2591324,,,,,,,2022-05-30,1,,,,,サーカス,0
1636,7030003019490,新規,0,2022-05-30,2022-05-30,合同会社ＰＩＮＫ　ＲＯＳＥ,,合同会社,埼玉県,入間市,大字上藤沢４４８番地３セジュールＺＥＮ参番館１０６,,11,225,3580013,,,,,,,2022-05-30,1,,,,,ピンクローズ,0
1647,7050003006578,新規,0,2022-05-30,2022-05-30,合同会社エバーグリーンエクスポート,,合同会社,茨城県,鉾田市,阿玉９６６番４５,,08,234,3112118,,,,,,,2022-05-30,1,,,,,エバーグリーンエクスポート,0
1652,7070001039272,新規,0,2022-05-30,2022-05-30,株式会社アシスト,,株式会社,群馬県,高崎市,中里見町２番地１‐１０３,,10,202,3703344,,,,,,,2022-05-30,1,,,,,アシスト,0
1659,7080101023308,新規,0,2022-05-30,2022-05-30,株式会社エンズプランニング,,株式会社,静岡県,富士宮市,中央町３番３号,,22,207,4180065,,,,,,,2022-05-30,1,,,,,エンズプランニング,0
1660,7090003002094,新規,0,2022-05-30,2022-05-30,合同会社スリーウェイズ,,合同会社,山梨県,都留市,古川渡１８５番地１,,19,204,4020004,,,,,,,2022-05-30,1,,,,,スリーウェイズ,0
1662,7100001035375,新規,0,2022-05-30,2022-05-30,株式会社レイズフィールド,,株式会社,長野県,松本市,市場２番１７号－Ｂ,,20,202,3990004,,,,,,,2022-05-30,1,,,,,レイズフィールド,0
1672,7120001246103,新規,0,2022-05-30,2022-05-30,森＿株式会社,00126686,株式会社,大阪府,大阪市淀川区,西三国１丁目１１－２,,27,123,5320006,,,,,,,2022-05-30,1,,,,,シンシ,0
1673,7120001246136,新規,0,2022-05-30,2022-05-30,株式会社ＲＥＥＬ,,株式会社,大阪府,大阪市阿倍野区,昭和町２丁目１９番２８号青葉グランドビル４０１号,,27,119,5450011,,,,,,,2022-05-30,1,,,,,リール,0
1674,7120001246169,新規,0,2022-05-30,2022-05-30,株式会社Ｔｉ‐ｃｃｈａ　ＫＩＤ’Ｓ　ＤＡＮＣＥ　ＳＣＨＯＯＬ,,株式会社,大阪府,大阪市北区,中津３丁目２８番２１号,,27,127,5310071,,,,,,,2022-05-30,1,,,,,チッチャキッズダンススクール,0
1675,7120001246202,新規,0,2022-05-30,2022-05-30,株式会社エムツーホーム,,株式会社,大阪府,大阪市都島区,中野町５丁目１３番４号－２Ｆ,,27,102,5340027,,,,,,,2022-05-30,1,,,,,エムツーホーム,0
1676,7120001246210,新規,0,2022-05-30,2022-05-30,ＵＮノアル株式会社,,株式会社,大阪府,大阪市西区,新町１丁目３１番６号,,27,106,5500013,,,,,,,2022-05-30,1,,,,,ユーエヌノアル,0
1679,7120005022970,新規,0,2022-05-30,2022-05-30,一般社団法人大阪会計人クラブ,,その他の設立登記法人,大阪府,大阪市北区,西天満５丁目１４番７号,,27,127,5300047,,,,,,,2022-05-30,1,,,,,オオサカカイケイジンクラブ,0
1680,7120901046016,新規,0,2022-05-30,2022-05-30,株式会社ＳＥＡＴＥＸ,,株式会社,大阪府,箕面市,箕面４丁目１０番４８号,,27,220,5620001,,,,,,,2022-05-30,1,,,,,シーテックス,0
1689,7140001126113,新規,0,2022-05-30,2022-05-30,Ｓｕｎｒｉｓｅ　Ｔｒａｄｉｎｇ株式会社,,株式会社,兵庫県,揖保郡太子町,東南３０－３エステートピア・ルンビニーＲ１０２号室,,28,464,6711523,,,,,,,2022-05-30,1,,,,,サンライズトレーディング,0
1690,7140001126154,新規,0,2022-05-30,2022-05-30,ラズシップサポート株式会社,,株式会社,兵庫県,三木市,上の丸町６番８号,,28,215,6730432,,,,,,,2022-05-30,1,,,,,ラズシップサポート,0
1694,7140003017731,新規,0,2022-05-30,2022-05-30,合同会社くまのこ,,合同会社,兵庫県,尼崎市,武庫之荘東２丁目１８番１０号,,28,202,6610032,,,,,,,2022-05-30,1,,,,,クマノコ,0
1699,7180001151470,新規,0,2022-05-30,2022-05-30,株式会社プロテクション,,株式会社,愛知県,名古屋市中区,栄２丁目１２番２２号,,23,106,4600008,,,,,,,2022-05-30,1,,,,,プロテクション,0
1704,7180301036264,新規,0,2022-05-30,2022-05-30,株式会社彦壱,,株式会社,愛知県,豊橋市,下地町字横山７１番地,,23,201,4400083,,,,,,,2022-05-30,1,,,,,ヒコイチ,0
1713,7240003005635,新規,0,2022-05-30,2022-05-30,生活レスキュー合同会社,,合同会社,広島県,三次市,十日市南７丁目２番２７－５号パラッシオ三次,,34,209,7280014,,,,,,,2022-05-30,1,,,,,セイカツレスキュー,0
1714,7260003003926,新規,0,2022-05-30,2022-05-30,合同会社ひまわり,,合同会社,岡山県,美作市,豊国原２７７番地,,33,215,7070015,,,,,,,2022-05-30,1,,,,,ヒマワリ,0
1715,7260005011092,新規,0,2022-05-30,2022-05-30,一般社団法人岡山がんサポートネットワーク,,その他の設立登記法人,岡山県,岡山市北区,幸町７番８号９０７号室,,33,101,7000903,,,,,,,2022-05-30,1,,,,,オカヤマガンサポートネットワーク,0
1719,7290001097694,新規,0,2022-05-30,2022-05-30,株式会社ＲＥＢＲＯ,,株式会社,福岡県,大野城市,山田４丁目１８－１３－１０１,,40,219,8160922,,,,,,,2022-05-30,1,,,,,リブロ,0
1722,7320001019091,新規,0,2022-05-30,2022-05-30,株式会社ＲＢ,,株式会社,大分県,別府市,石垣東７丁目１番３１号,,44,202,8740919,,,,,,,2022-05-30,1,,,,,アールビー,0
1729,7340005009467,新規,0,2022-05-30,2022-05-30,霧島建設人材協同組合,,その他の設立登記法人,鹿児島県,霧島市,国分清水３丁目７番１１号,,46,218,8994304,,,,,,,2022-05-30,1,,,,,キリシマケンセツジンザイ,0
1732,7360001030458,新規,0,2022-05-30,2022-05-30,株式会社ＹＡＭＤＡＹＳ,,株式会社,沖縄県,宮古島市,平良字下里２６９－１ガーリカーサＡ４,,47,214,9060013,,,,,,,2022-05-30,1,,,,,ヤンデイズ,0
1733,7360001030466,新規,0,2022-05-30,2022-05-30,美ら技研株式会社,,株式会社,沖縄県,豊見城市,字嘉数１５番地５,,47,212,9010202,,,,,,,2022-05-30,1,,,,,チュラギケン,0
1734,7360001030474,新規,0,2022-05-30,2022-05-30,春日株式会社,,株式会社,沖縄県,宜野湾市,大山６丁目８番１号エヌエイチオフィスビル３Ｆ夢空間Ａ－０２室,,47,205,9012223,,,,,,,2022-05-30,1,,,,,ハルヒ,0
1735,7360001030490,新規,0,2022-05-30,2022-05-30,株式会社よしでん,,株式会社,沖縄県,南城市,佐敷字伊原１７６番地３,,47,215,9011401,,,,,,,2022-05-30,1,,,,,ヨシデン,0
1737,7360003012041,新規,0,2022-05-30,2022-05-30,合同会社ＲＡＤＩＣ,,合同会社,沖縄県,那覇市,久茂地２丁目１０番１９号大城氏貸店舗１階１０２号室,,47,201,9000015,,,,,,,2022-05-30,1,,,,,ラディック,0
1740,7370001048598,新規,0,2022-05-30,2022-05-30,株式会社シービーピー,,株式会社,宮城県,仙台市青葉区,本町１丁目４番８－４０１号,,04,101,9800014,,,,,,,2022-05-30,1,,,,,シービーピー,0
1741,7370001048607,新規,0,2022-05-30,2022-05-30,株式会社和,,株式会社,宮城県,柴田郡大河原町,字大巻３番地１,,04,321,9891261,,,,,,,2022-05-30,1,,,,,ナゴミ,0
1757,7430001086749,新規,0,2022-05-30,2022-05-30,株式会社ＤｏＭ,,株式会社,北海道,札幌市東区,北十条東１丁目２番３－３０３号,,01,103,0650010,,,,,,,2022-05-30,1,,,,,ドゥーエム,0
1758,7430001086757,新規,0,2022-05-30,2022-05-30,株式会社ライズ,,株式会社,北海道,札幌市白石区,南郷通８丁目南３番２９号,,01,104,0030022,,,,,,,2022-05-30,1,,,,,ライズ,0
1760,7430003013965,新規,0,2022-05-30,2022-05-30,合同会社トライロ,,合同会社,北海道,札幌市手稲区,星置南１丁目１番３号,,01,109,0060050,,,,,,,2022-05-30,1,,,,,トライロ,0
1761,7440001009089,新規,0,2022-05-30,2022-05-30,株式会社マルセン北斗,,株式会社,北海道,北斗市,東浜２丁目６番１９号,,01,236,0490122,,,,,,,2022-05-30,1,,,,,マルセンホクト,0
1763,7450003002207,新規,0,2022-05-30,2022-05-30,合同会社ＴＨＡＮＨ　ＢＩＮＨ,,合同会社,北海道,旭川市,忠和三条７丁目３番１５号,,01,204,0708043,,,,,,,2022-05-30,1,,,,,タインビン,0
1764,7460103001462,新規,0,2022-05-30,2022-05-30,合同会社ＲＥＢＩＲＴＨ　ＪＡＰＡＮ,,合同会社,北海道,帯広市,緑ケ丘７丁目２番地１,,01,207,0800846,,,,,,,2022-05-30,1,,,,,リバースジャパン,0
1765,7470001019093,新規,0,2022-05-30,2022-05-30,株式会社アクセルアフリカ,,株式会社,香川県,高松市,東山崎町５３３番地４,,37,201,7610312,,,,,,,2022-05-30,1,,,,,アクセルアフリカ,0
1768,7500001024239,新規,0,2022-05-30,2022-05-30,株式会社Ａ　ＢＥＡＵＴＹ　ＪＡＰＡＮ,,株式会社,愛媛県,宇和島市,築地町１丁目２番１２号,,38,203,7980005,,,,,,,2022-05-30,1,,,,,エービューティージャパン,0
1796,8010101015194,新規,0,2022-05-30,2022-05-30,Ｃｌｉｎｉｃ　Ｐａｙｍｅｎｔ株式会社,,株式会社,東京都,八王子市,長房町４８４番地３ベルドミール長房３０２号,,13,201,1930824,,,,,,,2022-05-30,1,,,,,クリニックペイメント,0
1800,8010401167529,新規,0,2022-05-30,2022-05-30,株式会社Ｕａｇｔｋ,,株式会社,東京都,港区,北青山２丁目１２番８－５０２号,,13,103,1070061,,,,,,,2022-05-30,1,,,,,ユーグティニー,0
1809,8010601061250,新規,0,2022-05-30,2022-05-30,株式会社ネクストワン,,株式会社,東京都,墨田区,向島４丁目２１－２２,,13,107,1310033,,,,,,,2022-05-30,1,,,,,ネクストワン,0
1811,8010701042720,新規,0,2022-05-30,2022-05-30,株式会社サニーガーディアン,,株式会社,東京都,品川区,南大井６丁目１９番８号アズ大森ビル６Ｆ,,13,109,1400013,,,,,,,2022-05-30,1,,,,,サニーガーディアン,0
1812,8010705003363,新規,0,2022-05-30,2022-05-30,一般社団法人でっこぼっこ,,その他の設立登記法人,東京都,品川区,大崎２丁目７番１４,,13,109,1410032,,,,,,,2022-05-30,1,,,,,デッコボッコ,0
1825,8011001147796,新規,0,2022-05-30,2022-05-30,株式会社ドントゥール,,株式会社,東京都,渋谷区,道玄坂１丁目１０番８号渋谷道玄坂東急ビル２Ｆ－Ｃ,,13,113,1500043,,,,,,,2022-05-30,1,,,,,ドントゥール,0
1827,8011003014739,新規,0,2022-05-30,2022-05-30,Ｔｅａｓｅｒ‐Ｓ　ｃｏｍｐａｎｙ合同会社,,合同会社,東京都,渋谷区,富ヶ谷２丁目１９番５号,,13,113,1510063,,,,,,,2022-05-30,1,,,,,ティザーエスカンパニー,0
1830,8011101099013,新規,0,2022-05-30,2022-05-30,株式会社キノスタイル,,株式会社,東京都,新宿区,西新宿３丁目３－１３西新宿水間ビル６Ｆ,,13,104,1600023,,,,,,,2022-05-30,1,,,,,キノスタイル,0
1831,8011103011801,新規,0,2022-05-30,2022-05-30,合同会社Ｇｅｎｔｌｅ,,合同会社,東京都,新宿区,西新宿３丁目３－１３西新宿水間ビル６Ｆ,,13,104,1600023,,,,,,,2022-05-30,1,,,,,,0
1837,8011801040787,新規,0,2022-05-30,2022-05-30,株式会社眞船,,株式会社,東京都,足立区,西新井栄町１丁目１９番３１－２０１号,,13,121,1230843,,,,,,,2022-05-30,1,,,,,マフネ,0
1841,8012401039245,新規,0,2022-05-30,2022-05-30,株式会社カタパルト,,株式会社,東京都,三鷹市,北野４丁目４－１－３０７,,13,204,1810003,,,,,,,2022-05-30,1,,,,,カタパルト,0
1858,8020001146675,新規,0,2022-05-30,2022-05-30,株式会社２４３６５ｄｅｓｉｇｎ,,株式会社,神奈川県,川崎市中原区,下新城３丁目２番１号,,14,133,2110042,,,,,,,2022-05-30,1,,,,,ニイヨンサンロクゴウデザイン,0
1859,8020001146691,新規,0,2022-05-30,2022-05-30,株式会社プリフロップ,,株式会社,神奈川県,横浜市神奈川区,鶴屋町３丁目３３番地の８アサヒビル３Ｆ,,14,102,2210835,,,,,,,2022-05-30,1,,,,,プリフロップ,0
1861,8020003021835,新規,0,2022-05-30,2022-05-30,すなば企画合同会社,,合同会社,神奈川県,横浜市中区,桜木町１丁目１０１番地１クロスゲート７階,,14,104,2310062,,,,,,,2022-05-30,1,,,,,スナバキカク,0
1879,8050001051138,新規,0,2022-05-30,2022-05-30,サステナブル株式会社,,株式会社,茨城県,北茨城市,中郷町汐見ケ丘１丁目１２５９番地８,,08,215,3191553,,,,,,,2022-05-30,1,,,,,サステナブル,0
1881,8050003006577,新規,0,2022-05-30,2022-05-30,Ｃ．Ｋ．Ｄ．Ｍ　Ｅｎｔｅｒｐｒｉｓｅｓ合同会社,,合同会社,茨城県,稲敷郡美浦村,大字舟子２０４８－３,,08,442,3000428,,,,,,,2022-05-30,1,,,,,シーケーディーエムエンタープライゼズ,0
1883,8060001034918,新規,0,2022-05-30,2022-05-30,株式会社ａｎｋ　ｃｌａｓｓｉｃ,,株式会社,栃木県,宇都宮市,宮原４丁目３番４号,,09,201,3200835,,,,,,,2022-05-30,1,,,,,アンククラシック,0
1905,8100003006563,新規,0,2022-05-30,2022-05-30,合同会社Ｐ・Ｓ・Ｙ,,合同会社,長野県,上田市,御所４８５番地７,,20,203,3860033,,,,,,,2022-05-30,1,,,,,ピーエスワイ,0
1915,8120001246226,新規,0,2022-05-30,2022-05-30,株式会社ともみや,,株式会社,大阪府,大阪市北区,中津２丁目８番Ａ－１１１４号,,27,127,5310071,,,,,,,2022-05-30,1,,,,,トモミヤ,0
1920,8120101065641,新規,0,2022-05-30,2022-05-30,株式会社松川工業所,,株式会社,大阪府,堺市中区,福田９８１番地２,,27,142,5998241,,,,,,,2022-05-30,1,,,,,マツカワコウギョウショ,0
1923,8120901046015,新規,0,2022-05-30,2022-05-30,株式会社ＮＥＷ　ＤＩＳＣＯＶＥＲＹ,,株式会社,大阪府,豊中市,本町１丁目１１番３０－１４０８号,,27,203,5600021,,,,,,,2022-05-30,1,,,,,ニューディスカバリー,0
1924,8120903004160,新規,0,2022-05-30,2022-05-30,合同会社ＹＫＮ,,合同会社,大阪府,豊中市,上新田１丁目１８番１－１１０２号,,27,203,5600085,,,,,,,2022-05-30,1,,,,,ワイケーエヌ,0
1929,8130001071854,新規,0,2022-05-30,2022-05-30,株式会社ＯＫＡＧＥＳＡＮ,,株式会社,京都府,京都市東山区,清水１丁目２９４番地,,26,105,6050862,,,,,,,2022-05-30,1,,,,,オカゲサン,0
1930,8130001071862,新規,0,2022-05-30,2022-05-30,株式会社ＳＴＵＤＩＯ　ＴＯＯＺＡ,,株式会社,京都府,京都市東山区,三条通南裏白川筋西入二丁目八軒町４５０番地１,,26,105,6050000,,,,,,,2022-05-30,1,,,,,スタジオトゥーザ,0
1932,8130003007955,新規,0,2022-05-30,2022-05-30,ＲＫ工業合同会社,,合同会社,京都府,綴喜郡井手町,大字井手小字下赤田２４番地の１,,26,343,6100302,,,,,,,2022-05-30,1,,,,,アールケイコウギョウ,0
1944,8140001126145,新規,0,2022-05-30,2022-05-30,アストロ株式会社,,株式会社,兵庫県,神戸市中央区,三宮町１丁目１番１号新神戸ビル６階,,28,110,6500021,,,,,,,2022-05-30,1,,,,,アストロ,0
1947,8140003017730,新規,0,2022-05-30,2022-05-30,合同会社ＳＳ,,合同会社,兵庫県,加古川市,加古川町大野５５５番地の１７,,28,210,6750061,,,,,,,2022-05-30,1,,,,,エスエス,0
1955,8180001151494,新規,0,2022-05-30,2022-05-30,株式会社心匠一,,株式会社,愛知県,名古屋市港区,港陽３丁目６番１７号,,23,111,4550013,,,,,,,2022-05-30,1,,,,,シンショウイチ,0
1956,8180003023865,新規,0,2022-05-30,2022-05-30,合同会社Ｌｅｖｉ’ｓ商会,,合同会社,愛知県,知多市,つつじが丘４丁目１３―２―１０８―５０３,,23,224,4780054,,,,,,,2022-05-30,1,,,,,レヴィズショウカイ,0
1961,8200001040091,新規,0,2022-05-30,2022-05-30,株式会社令和商事,,株式会社,岐阜県,不破郡垂井町,梅谷４３０番地の１,,21,361,5032103,,,,,,,2022-05-30,1,,,,,レイワショウジ,0
1964,8210001018946,新規,0,2022-05-30,2022-05-30,株式会社北陸キャリー,,株式会社,福井県,南条郡南越前町,湯尾１４字２番１,,18,404,9190101,,,,,,,2022-05-30,1,,,,,ホクリクキャリー,0
1968,8220001024869,新規,0,2022-05-30,2022-05-30,株式会社エム・ワークス,,株式会社,石川県,金沢市,金石西４丁目１３番１２－１号,,17,201,9200337,,,,,,,2022-05-30,1,,,,,エムワークス,0
1972,8240001059830,新規,0,2022-05-30,2022-05-30,豊都株式会社,,株式会社,広島県,広島市西区,三滝本町２丁目１番５‐２０１号,,34,104,7330802,,,,,,,2022-05-30,1,,,,,アツト,0
1974,8250001004686,新規,0,2022-05-30,2022-05-30,株式会社国民宿舎秋吉台,,株式会社,山口県,美祢郡秋芳町,大字秋吉２７４１番地,,35,462,7540511,,,,,,,2022-05-30,1,,,,,,0
1976,8250001019585,新規,0,2022-05-30,2022-05-30,ＭＩＴＳＵＢＡ株式会社,,株式会社,山口県,下関市,秋根北町８番１７号,,35,201,7510876,,,,,,,2022-05-30,1,,,,,ミツバ,0
1977,8250003003083,新規,0,2022-05-30,2022-05-30,合同会社ハレレ,,合同会社,山口県,山口市,小郡明治１丁目１３番１号,,35,203,7540043,,,,,,,2022-05-30,1,,,,,ハレレ,0
1982,8260001036877,新規,0,2022-05-30,2022-05-30,株式会社太田商店,,株式会社,岡山県,倉敷市,玉島柏島１７７７番地１,,33,202,7138123,,,,,,,2022-05-30,1,,,,,オオタショウテン,0
1983,8260001036885,新規,0,2022-05-30,2022-05-30,株式会社オレンジ,,株式会社,岡山県,倉敷市,笹沖１６３番地１２,,33,202,7100834,,,,,,,2022-05-30,1,,,,,オレンジ,0
1984,8260005011091,新規,0,2022-05-30,2022-05-30,特定非営利活動法人ティラボ,,その他の設立登記法人,岡山県,岡山市北区,津島福居１丁目９番５－３号パラッツォ津島１０１,,33,101,7000080,,,,,,,2022-05-30,1,,,,,ティラボ,0
1997,8310001017871,新規,0,2022-05-30,2022-05-30,株式会社Ｍ’ｓ　ｃｏｍｐａｎｙ,,株式会社,長崎県,東彼杵郡波佐見町,皿山郷２０２番地２,,42,323,8593727,,,,,,,2022-05-30,1,,,,,エムズカンパニー,0
1999,8320001019090,新規,0,2022-05-30,2022-05-30,株式会社Ｎｅｘｔ　Ｓｅｍｉｃｏｎｄｕｃｔｏｒ,,株式会社,大分県,大分市,西大道２丁目５番１－２０３号,,44,201,8700820,,,,,,,2022-05-30,1,,,,,ネクストセミコンダクター,0
2001,8330001029774,新規,0,2022-05-30,2022-05-30,ライズ親和株式会社,,株式会社,熊本県,熊本市南区,城南町阿高７１７番地１,,43,104,8614224,,,,,,,2022-05-30,1,,,,,ライズシンワ,0
2005,8330005010524,新規,0,2022-05-30,2022-05-30,一般社団法人熊本教育デザインｅｄｕ‐Ｓｏｙ,,その他の設立登記法人,熊本県,上益城郡御船町,大字辺田見４８３番地７,,43,441,8613206,,,,,,,2022-05-30,1,,,,,クマモトキョウイクデザインエデュソイ,0
2009,8360003012040,新規,0,2022-05-30,2022-05-30,山内環境合同会社,,合同会社,沖縄県,豊見城市,字与根１９３番地１,,47,212,9010224,,,,,,,2022-05-30,1,,,,,ヤマウチカンキョウ,0
2011,8370001048597,新規,0,2022-05-30,2022-05-30,ＥＳＴ株式会社,,株式会社,宮城県,仙台市若林区,穀町２０番地サンキューコーポ３０６号,,04,103,9840807,,,,,,,2022-05-30,1,,,,,エスト,0
2021,8430003013964,新規,0,2022-05-30,2022-05-30,合同会社Ａｉ．Ｓｅｅｄ,,合同会社,北海道,札幌市手稲区,金山二条３丁目３番３号,,01,109,0060042,,,,,,,2022-05-30,1,,,,,エーアイシード,0
2026,8500001024238,新規,0,2022-05-30,2022-05-30,ＡＤＥＵ　ＨＯＵＳＥ株式会社,,株式会社,愛媛県,大洲市,徳森２２０８番地２,,38,207,7950061,,,,,,,2022-05-30,1,,,,,アデウハウス,0
2039,9010001226915,新規,0,2022-05-30,2022-05-30,株式会社室井,,株式会社,東京都,中央区,日本橋小網町１７番１７－５０１号,,13,102,1030016,,,,,,,2022-05-30,1,,,,,ムロイ,0
2040,9010001226956,新規,0,2022-05-30,2022-05-30,株式会社ｃｏｆｆｅｅ　ｈｏｕｓｅ,,株式会社,東京都,千代田区,大手町１丁目６番１号大手町ビル,,13,101,1000004,,,,,,,2022-05-30,1,,,,,コーヒーハウス,0
2053,9010401167486,新規,0,2022-05-30,2022-05-30,ＦｉｎＴａｘ株式会社,,株式会社,東京都,港区,高輪１丁目１－１１グレイス魚籃坂１０３,,13,103,1080074,,,,,,,2022-05-30,1,,,,,フィンタックス,0
2054,9010401167602,新規,0,2022-05-30,2022-05-30,株式会社Ｍｃｒｏｗｅ,,株式会社,東京都,港区,赤坂９丁目１番２－４０８号,,13,103,1070052,,,,,,,2022-05-30,1,,,,,エムクロー,0
2059,9010501048883,新規,0,2022-05-30,2022-05-30,株式会社ＣＳｓＴ,,株式会社,東京都,台東区,小島２丁目１８番１７号木本ビル,,13,106,1110056,,,,,,,2022-05-30,1,,,,,シーエスエスティー,0
2064,9010701042711,新規,0,2022-05-30,2022-05-30,株式会社Ｌｏｇｈｏｕｓｅ,,株式会社,東京都,品川区,西五反田６丁目２５番２－９１３号,,13,109,1410031,,,,,,,2022-05-30,1,,,,,ログハウス,0
2067,9010903007396,新規,0,2022-05-30,2022-05-30,遠航合同会社,,合同会社,東京都,世田谷区,世田谷１丁目４１番２号,,13,112,1540017,,,,,,,2022-05-30,1,,,,,エンコウ,0
2072,9011001147721,新規,0,2022-05-30,2022-05-30,株式会社ＢＬＡＩＮＥＹ,,株式会社,東京都,目黒区,上目黒３丁目７番１１号３階,,13,110,1530051,,,,,,,2022-05-30,1,,,,,,0
2073,9011001147754,新規,0,2022-05-30,2022-05-30,アクシスライン株式会社,,株式会社,東京都,渋谷区,道玄坂１丁目１０番８号渋谷道玄坂東急ビル２Ｆ－Ｃ,,13,113,1500043,,,,,,,2022-05-30,1,,,,,アクシスライン,0
2074,9011001147787,新規,0,2022-05-30,2022-05-30,ファウンテンホールディングス株式会社,,株式会社,東京都,渋谷区,道玄坂１丁目１０番８号渋谷道玄坂東急ビル２Ｆ－Ｃ,,13,113,1500043,,,,,,,2022-05-30,1,,,,,ファウンテンホールディングス,0
2075,9011001147820,新規,0,2022-05-30,2022-05-30,株式会社ＫＡＮＤ,,株式会社,東京都,渋谷区,南平台町１２番９号,,13,113,1500036,,,,,,,2022-05-30,1,,,,,カンド,0
2079,9011003014721,新規,0,2022-05-30,2022-05-30,アップフロー合同会社,,合同会社,東京都,渋谷区,道玄坂１丁目１０番８号渋谷道玄坂東急ビル２Ｆ－Ｃ,,13,113,1500043,,,,,,,2022-05-30,1,,,,,アップフロー,0
2087,9011101098996,新規,0,2022-05-30,2022-05-30,株式会社グロースコンパス,,株式会社,東京都,新宿区,下落合１丁目１４番７号グリーンハイツ落合５０１,,13,104,1610033,,,,,,,2022-05-30,1,,,,,グロースコンパス,0
2095,9011601025995,新規,0,2022-05-30,2022-05-30,株式会社スタジオ・イズミ,,株式会社,東京都,練馬区,東大泉６丁目１４番６号,,13,120,1780063,,,,,,,2022-05-30,1,,,,,スタジオイズミ,0
2099,9011801040753,新規,0,2022-05-30,2022-05-30,株式会社東日本商旅,,株式会社,東京都,足立区,保塚町１１番１５号,00126690,13,121,1210072,,,,,,,2022-05-30,1,,,,,ヒガシニホンショウリョ,0
2100,9011801040786,新規,0,2022-05-30,2022-05-30,株式会社秀建,,株式会社,東京都,足立区,神明２丁目３番１号,,13,121,1210051,,,,,,,2022-05-30,1,,,,,シュウケン,0
2101,9011805003178,新規,0,2022-05-30,2022-05-30,一般社団法人かつしかウーマン＆インダストリーサポート,,その他の設立登記法人,東京都,葛飾区,東立石３丁目６番７号,,13,122,1240013,,,,,,,2022-05-30,1,,,,,カツシカウーマンアンドインダストリーサポート,0
2103,9012401039244,新規,0,2022-05-30,2022-05-30,株式会社Ｎａｒａｈｏｕｓｅ,,株式会社,東京都,小金井市,前原町３丁目１６番２号,,13,210,1840013,,,,,,,2022-05-30,1,,,,,ナラハウス,0
2105,9013101008927,新規,0,2022-05-30,2022-05-30,株式会社漆彩,,株式会社,東京都,羽村市,緑ヶ丘２丁目８番地６メゾンセレノ２０４,,13,227,2050003,,,,,,,2022-05-30,1,,,,,,0
2110,9013303006175,新規,0,2022-05-30,2022-05-30,合同会社ファイブ,,合同会社,東京都,豊島区,上池袋１丁目３９番１０－１２０２号,,13,116,1700012,,,,,,,2022-05-30,1,,,,,ファイブ,0
2116,9020001146666,新規,0,2022-05-30,2022-05-30,株式会社ゆいか,,株式会社,神奈川県,川崎市川崎区,藤崎１丁目１４番４号,,14,131,2100804,,,,,,,2022-05-30,1,,,,,ユイカ,0
2117,9020001146682,新規,0,2022-05-30,2022-05-30,株式会社アスカホーム,,株式会社,神奈川県,横浜市緑区,台村町３５２番地１３第二ＳＫハイツ１０１号室,,14,113,2260014,,,,,,,2022-05-30,1,,,,,アスカホーム,0
2127,9021001076069,新規,0,2022-05-30,2022-05-30,株式会社ＹＵＫ,,株式会社,神奈川県,藤沢市,藤沢１０４６番地の４,,14,205,2510052,,,,,,,2022-05-30,1,,,,,ワイユーケイ,0
2132,9021003011759,新規,0,2022-05-30,2022-05-30,合同会社ＭＯＴＯ・ＢＯＲＯ,,合同会社,神奈川県,秦野市,千村１４１４,,14,211,2591324,,,,,,,2022-05-30,1,,,,,モトボロ,0
2137,9030001148389,新規,0,2022-05-30,2022-05-30,株式会社ＤＥＬＩＶＥ,,株式会社,埼玉県,所沢市,けやき台２丁目１０番地の３,,11,208,3591118,,,,,,,2022-05-30,1,,,,,デライブ,0
2140,9030003019489,新規,0,2022-05-30,2022-05-30,合同会社ケアプランえん,,合同会社,埼玉県,行田市,忍１丁目１１番１８号,,11,206,3610077,,,,,,,2022-05-30,1,,,,,ケアプランエン,0
2141,9030003019497,新規,0,2022-05-30,2022-05-30,合同会社次世エンターテイメント,,合同会社,埼玉県,比企郡吉見町,大字南吉見２２８１番地１６,,11,347,3550154,,,,,,,2022-05-30,1,,,,,ジセエンターテイメント,0
2149,9040003020090,新規,0,2022-05-30,2022-05-30,合同会社海亀,,合同会社,千葉県,四街道市,四街道２丁目１４番１３号ポニーハイツ２０１,,12,228,2840005,,,,,,,2022-05-30,1,,,,,ウミガメ,0
2150,9040005021632,新規,0,2022-05-30,2022-05-30,一般社団法人Ｕｎｉｖｅｒｓａｌ　Ｓｐｏｒｔｓ　Ｌａｃｒｏｓｓｅ　Ｃｌｕｂ市原・千葉,,その他の設立登記法人,千葉県,市原市,ちはら台南６丁目１３番地２,,12,219,2900142,,,,,,,2022-05-30,1,,,,,ユニバーサルスポーツラクロスクラブイチハラチバ,0
2153,9050001051137,新規,0,2022-05-30,2022-05-30,株式会社ネクサスモーゲージ,,株式会社,茨城県,水戸市,元吉田町１２４９番３３－３Ｆ,,08,201,3100836,,,,,,,2022-05-30,1,,,,,ネクサスモーゲージ,0
2155,9050003006584,新規,0,2022-05-30,2022-05-30,合同会社Ｃｒｅｓｓｏｎｓ,,合同会社,茨城県,水戸市,新荘１丁目５番３５号,,08,201,3100036,,,,,,,2022-05-30,1,,,,,クレッソンズ,0
2163,9080003002804,新規,0,2022-05-30,2022-05-30,合同会社ＷａｎＴｒｅａｓｕｒｅ,,合同会社,静岡県,藤枝市,清里２丁目２４番地の１２,,22,214,4260223,,,,,,,2022-05-30,1,,,,,ワントレジャー,0
2166,9080401025828,新規,0,2022-05-30,2022-05-30,株式会社ＴＫ　ＬＩＮＥ,,株式会社,静岡県,浜松市中区,富塚町４６２０番地の９,,22,131,4328002,,,,,,,2022-05-30,1,,,,,ティーケイライン,0
2168,9100003006562,新規,0,2022-05-30,2022-05-30,合同会社たけたけ農園,,合同会社,長野県,中野市,大字越９１０番地,,20,211,3830005,,,,,,,2022-05-30,1,,,,,タケタケノウエン,0
2174,9120001246167,新規,0,2022-05-30,2022-05-30,政岡土地ホールディングス株式会社,,株式会社,大阪府,大阪市此花区,梅香３丁目２７番１１号,,27,104,5540013,,,,,,,2022-05-30,1,,,,,マサオカトチホールディングス,0
2175,9120001246175,新規,0,2022-05-30,2022-05-30,株式会社Ｋｎｉｇｈｔ,,株式会社,大阪府,大阪市淀川区,新高２丁目６番４０号,,27,123,5320033,,,,,,,2022-05-30,1,,,,,ナイト,0
2176,9120001246209,新規,0,2022-05-30,2022-05-30,株式会社スリージェイ,,株式会社,大阪府,大阪市大正区,南恩加島１丁目６－１８,,27,108,5510021,,,,,,,2022-05-30,1,,,,,スリージェイ,0
2177,9120001246225,新規,0,2022-05-30,2022-05-30,株式会社南＿貿易,00126691,株式会社,大阪府,大阪市東成区,玉津２丁目１１－１０,,27,115,5370023,,,,,,,2022-05-30,1,,,,,ナンゲンボウエキ,0
2178,9120003021782,新規,0,2022-05-30,2022-05-30,青山合同会社,,合同会社,大阪府,大阪市淀川区,西宮原１丁目７番４号,,27,123,5320004,,,,,,,2022-05-30,1,,,,,アオヤマ,0
2200,9140001126103,新規,0,2022-05-30,2022-05-30,古林商事株式会社,,株式会社,兵庫県,たつの市,龍野町上川原７１番地,,28,229,6794172,,,,,,,2022-05-30,1,,,,,コバヤシショウジ,0
2201,9140001126144,新規,0,2022-05-30,2022-05-30,株式会社スリーサム,,株式会社,兵庫県,加西市,中富町７５４番地１,,28,220,6752442,,,,,,,2022-05-30,1,,,,,スリーサム,0
2202,9140001126152,新規,0,2022-05-30,2022-05-30,株式会社慶翔システム,,株式会社,兵庫県,三田市,学園７丁目８－６,,28,219,6691337,,,,,,,2022-05-30,1,,,,,ケイショウシステム,0
2203,9140001126160,新規,0,2022-05-30,2022-05-30,ワイムデザイン株式会社,,株式会社,兵庫県,神戸市灘区,鶴甲２丁目１３－２２,,28,102,6570011,,,,,,,2022-05-30,1,,,,,ワイムデザイン,0
2220,9180001151469,新規,0,2022-05-30,2022-05-30,株式会社ジョイシード,,株式会社,愛知県,名古屋市名東区,貴船２丁目４０６番地,,23,115,4650058,,,,,,,2022-05-30,1,,,,,ジョイシード,0
2224,9190001029458,新規,0,2022-05-30,2022-05-30,株式会社エムズストリート,,株式会社,三重県,鈴鹿市,中旭が丘２丁目１５番２５号,,24,207,5100212,,,,,,,2022-05-30,1,,,,,エムズストリート,0
2225,9190003003997,新規,0,2022-05-30,2022-05-30,合同会社ＴＨＡＮＨ　ＬＯＮＧ　Ｔ‐Ａ‐Ｃ,,合同会社,三重県,鈴鹿市,稲生こがね園１０番１０号１Ｆ,,24,207,5100206,,,,,,,2022-05-30,1,,,,,タンロンティーエイシー,0
2232,9220003003291,新規,0,2022-05-30,2022-05-30,合同会社ＮＹ・Ｐｌｕｓ,,合同会社,石川県,金沢市,観音堂町チ７番地,,17,201,9200352,,,,,,,2022-05-30,1,,,,,エヌワイプラス,0
2236,9250001019584,新規,0,2022-05-30,2022-05-30,株式会社ウベモクホールディングス,,株式会社,山口県,宇部市,西平原３丁目２番２２号,,35,202,7550808,,,,,,,2022-05-30,1,,,,,ウベモクホールディングス,0
2238,9260001036876,新規,0,2022-05-30,2022-05-30,ＤＩＶＥＲＳ不動産株式会社,,株式会社,岡山県,倉敷市,玉島八島４０３番地３,,33,202,7138113,,,,,,,2022-05-30,1,,,,,ディベールフドウサン,0
2239,9260001036884,新規,0,2022-05-30,2022-05-30,株式会社グラーテス,,株式会社,岡山県,岡山市北区,津寺９９６番地,,33,101,7011346,,,,,,,2022-05-30,1,,,,,グラーテス,0
2244,9290001097676,新規,0,2022-05-30,2022-05-30,株式会社Ｗｅｌｌｎｅｓｓ　Ｐｒｏｍｏｔｉｏｎ,,株式会社,福岡県,福岡市博多区,東光２丁目５番１４号－３階,,40,132,8120008,,,,,,,2022-05-30,1,,,,,ウェルネスプロモーション,0
2245,9290001097701,新規,0,2022-05-30,2022-05-30,株式会社英風,00126685,株式会社,福岡県,福岡市南区,井尻４丁目２４番３号,,40,134,8111302,,,,,,,2022-05-30,1,,,,,エイフウ,0
2247,9290003012559,新規,0,2022-05-30,2022-05-30,合同会社ＯＨＡＮＡ,,合同会社,福岡県,糟屋郡志免町,別府北１丁目２０番２０－２１２号,,40,343,8112233,,,,,,,2022-05-30,1,,,,,オハナ,0
2256,9330001029773,新規,0,2022-05-30,2022-05-30,プルデンス株式会社,,株式会社,熊本県,熊本市中央区,花畑町１番１４号Ａ＆Ｍ・ＨＡＮＡＢＡＴＡ３０１号,,43,101,8600806,,,,,,,2022-05-30,1,,,,,プルデンス,0
2259,9360001030472,新規,0,2022-05-30,2022-05-30,株式会社ＡＡＫ,,株式会社,沖縄県,那覇市,楚辺１丁目５番１７号プロフェスビル那覇４階,,47,201,9000023,,,,,,,2022-05-30,1,,,,,エーエーケイ,0
2267,9430001086747,新規,0,2022-05-30,2022-05-30,株式会社ＳＹＫ,,株式会社,北海道,札幌市北区,麻生町７丁目５－１０アルファグレイシャス麻生２１０,,01,102,0010045,,,,,,,2022-05-30,1,,,,,エスワイケー,0
2278,9500001024237,新規,0,2022-05-30,2022-05-30,株式会社Ｒａｍｙ,,株式会社,愛媛県,伊予郡松前町,大字出作５２４番地,,38,401,7913162,,,,,,,2022-05-30,1,,,,,ラミー,0
