sequenceNumber,corporateNumber,process,correct,updateDate,changeDate,name,nameImageId,kind,prefectureName,cityName,streetNumber,addressImageId,prefectureCode,cityCode,postCode,addressOutside,addressOutsideImageId,closeDate,closeCause,successorCorporateNumber,changeCause,assignmentDate,latest,enName,enPrefectureName,enCityName,enAddressOutside,furigana,hihyoji
8,1010001248355,新規,0,2024-10-04,2024-10-04,株式会社ＣＯＭＭＯＮ　ＧＲＯＵＮＤ,,株式会社,東京都,中央区,新富２丁目１０番３号,,13,102,1040041,,,,,,,2024-10-04,1,,,,,コモングラウンド,0
9,1010001248644,新規,0,2024-10-04,2024-10-04,株式会社Ａｍａｚｉｎｇ　Ｗｏｒｌｄ,,株式会社,東京都,文京区,本郷４丁目１６番６－１００５号,,13,105,1130033,,,,,,,2024-10-04,1,,,,,アメージングワールド,0
10,1010001248727,新規,0,2024-10-04,2024-10-04,株式会社仙丸,,株式会社,東京都,千代田区,神田和泉町１番地６―１６ヤマトビル４０５,,13,101,1010024,,,,,,,2024-10-04,1,,,,,センマル,0
22,1010401185545,新規,0,2024-10-04,2024-10-04,株式会社ＴＮｅｘ,,株式会社,東京都,港区,南青山２丁目８－２南青山サマリヤマンション２０２,,13,103,1070062,,,,,,,2024-10-04,1,,,,,ティーネックス,0
29,1010701046620,新規,0,2024-10-04,2024-10-04,株式会社ＪＭコーヒージャパン,,株式会社,東京都,品川区,東品川２丁目２番２０号天王洲オーシャンスクエア２２階,,13,109,1400002,,,,,,,2024-10-04,1,,,,,ジェイエムコーヒージャパン,0
30,1010701046629,新規,0,2024-10-04,2024-10-04,Ｄ．Ｅ．Ｉ株式会社,,株式会社,東京都,品川区,西品川１丁目１番１号住友不動産大崎ガーデンタワー９Ｆ,,13,109,1410033,,,,,,,2024-10-04,1,,,,,ディーイーアイ,0
31,1010701046637,新規,0,2024-10-04,2024-10-04,株式会社Ｙ＆Ｓｅｖｅｎ　Ｂｒａｉｎｓ,,株式会社,東京都,品川区,大井７丁目１１番２号,,13,109,1400014,,,,,,,2024-10-04,1,,,,,ワイアンドセブンブレインズ,0
33,1010703007372,新規,0,2024-10-04,2024-10-04,ＣｏＣｏＷｉｌｌ合同会社,,合同会社,東京都,品川区,北品川５丁目９番３１－８０９号,,13,109,1410001,,,,,,,2024-10-04,1,,,,,ココウィル,0
35,1010801035432,新規,0,2024-10-04,2024-10-04,ＧＳＫマシナリー株式会社,,株式会社,東京都,大田区,中馬込３丁目７－２,,13,111,1430027,,,,,,,2024-10-04,1,,,,,ジーエスケイマシナリー,0
37,1010903009400,新規,0,2024-10-04,2024-10-04,ｋｉｋｕｒｉｎｇ合同会社,,合同会社,東京都,世田谷区,岡本３丁目２７番１３－１０３号,,13,112,1570076,,,,,,,2024-10-04,1,,,,,キクリン,0
40,1011001164988,新規,0,2024-10-04,2024-10-04,株式会社アプリボワゼ,,株式会社,東京都,渋谷区,道玄坂１丁目１０番８号渋谷道玄坂東急ビル２Ｆ－Ｃ,,13,113,1500043,,,,,,,2024-10-04,1,,,,,アプリボワゼ,0
41,1011001165004,新規,0,2024-10-04,2024-10-04,株式会社渋谷ベンチャーズ,,株式会社,東京都,渋谷区,宇田川町３６番２－１１０２号,,13,113,1500042,,,,,,,2024-10-04,1,,,,,シブヤベンチャーズ,0
42,1011001165020,新規,0,2024-10-04,2024-10-04,株式会社マイクロアドベンチャーズ,,株式会社,東京都,渋谷区,桜丘町２０番１号,,13,113,1500031,,,,,,,2024-10-04,1,,,,,マイクロアドベンチャーズ,0
43,1011001165053,新規,0,2024-10-04,2024-10-04,株式会社Ｌｏｇｉｃ　ａｎｄ　Ｓｅｎｓｅｓ,,株式会社,東京都,目黒区,目黒２丁目１１番３号,,13,110,1530063,,,,,,,2024-10-04,1,,,,,ロジックアンドセンシス,0
46,1011003020140,新規,0,2024-10-04,2024-10-04,合同会社８７６０,,合同会社,東京都,渋谷区,本町１丁目９番１０号Ｒ．Ｈ．Ｈｏｕｓｅ１０２,,13,113,1510071,,,,,,,2024-10-04,1,,,,,ハチナナロクゼロ,0
49,1011101108993,新規,0,2024-10-04,2024-10-04,株式会社ネイルケアジャパン,,株式会社,東京都,新宿区,新宿６丁目２８番７号新宿ＥＡＳＴＣＯＵＲＴ８階,,13,104,1600022,,,,,,,2024-10-04,1,,,,,ネイルケアジャパン,0
52,1011201025833,新規,0,2024-10-04,2024-10-04,株式会社Ｂｌａｃｋｓｔｏｎｅ,,株式会社,東京都,中野区,若宮２丁目２１番２０号,,13,114,1650033,,,,,,,2024-10-04,1,,,,,ブラックストーン,0
53,1011301030031,新規,0,2024-10-04,2024-10-04,株式会社花鳥風月,,株式会社,東京都,杉並区,阿佐谷北６丁目２３番１２号ブロン阿佐ヶ谷１Ｆ,,13,115,1660001,,,,,,,2024-10-04,1,,,,,カチョウフウゲツ,0
60,1011503006242,新規,0,2024-10-04,2024-10-04,合同会社コネクト,,合同会社,東京都,北区,中十条３丁目２５番３号,,13,117,1140032,,,,,,,2024-10-04,1,,,,,コネクト,0
65,1011801044935,新規,0,2024-10-04,2024-10-04,ＲｉｄｅＬｕｘ株式会社,,株式会社,東京都,足立区,栗原３丁目２１番１９号,,13,121,1230842,,,,,,,2024-10-04,1,,,,,ライドラックス,0
69,1012301014098,新規,0,2024-10-04,2024-10-04,株式会社Ｔ．Ｉ．Ｃホールディングス,,株式会社,東京都,町田市,真光寺町１０１２番地６,,13,209,1950051,,,,,,,2024-10-04,1,,,,,ティーアイシーホールディングス,0
70,1012401042338,新規,0,2024-10-04,2024-10-04,株式会社ＭＡハウジング,,株式会社,東京都,狛江市,和泉本町３丁目２２番９－１号,,13,219,2010003,,,,,,,2024-10-04,1,,,,,エムエーハウジング,0
71,1012401042346,新規,0,2024-10-04,2024-10-04,株式会社阿部建築事務所,,株式会社,東京都,三鷹市,下連雀３丁目２２番５号ＹＫソナンビル４０１,,13,204,1810013,,,,,,,2024-10-04,1,,,,,アベケンチクジムショ,0
72,1012405005051,新規,0,2024-10-04,2024-10-04,社会保険労務士法人よつば経営労務,,その他の設立登記法人,東京都,狛江市,東和泉１丁目３２番３－１０１号,,13,219,2010014,,,,,,,2024-10-04,1,,,,,ヨツバケイエイロウム,0
73,1013101009528,新規,0,2024-10-04,2024-10-04,株式会社ＨＥＮＺＥＭ,,株式会社,東京都,あきる野市,草花７０８－１８,,13,228,1970802,,,,,,,2024-10-04,1,,,,,ヘンゼム,0
80,1020001159329,新規,0,2024-10-04,2024-10-04,株式会社ゆう,,株式会社,神奈川県,横浜市中区,港町２丁目９番４号関内幸和ビル８階,,14,104,2310017,,,,,,,2024-10-04,1,,,,,ユウ,0
81,1020001159403,新規,0,2024-10-04,2024-10-04,株式会社ＯＮＥ　ＳＴＥＰ　ＢＥＹＯＮＤ,,株式会社,神奈川県,横浜市戸塚区,原宿３丁目５７番２－６－３０３号,,14,110,2450063,,,,,,,2024-10-04,1,,,,,ワンステップビヨンド,0
88,1021001083353,新規,0,2024-10-04,2024-10-04,株式会社然美,,株式会社,神奈川県,鎌倉市,材木座３丁目１６番９号スガワラビル２０００，３０１号,,14,204,2480013,,,,,,,2024-10-04,1,,,,,サビ,0
98,1030001162744,新規,0,2024-10-04,2024-10-04,株式会社筆屋,,株式会社,埼玉県,さいたま市見沼区,東大宮４丁目６１番地４９,,11,104,3370051,,,,,,,2024-10-04,1,,,,,フデヤ,0
108,1040001135600,新規,0,2024-10-04,2024-10-04,Ｏｇａｈｉｒｏ‐Ｄｅｓｉｇｎ株式会社,,株式会社,千葉県,市川市,入船３番１－２０３号（グランフィールド行徳）,,12,203,2720134,,,,,,,2024-10-04,1,,,,,オガヒロデザイン,0
109,1040001135633,新規,0,2024-10-04,2024-10-04,ナガシマテック株式会社,,株式会社,千葉県,千葉市中央区,浜野町９４５番地１０,,12,101,2600824,,,,,,,2024-10-04,1,,,,,ナガシマテック,0
110,1040001135641,新規,0,2024-10-04,2024-10-04,株式会社英孝管理,,株式会社,千葉県,松戸市,新松戸北２丁目３番地の２ニュー松戸コーポＦ棟１Ａ,,12,207,2700032,,,,,,,2024-10-04,1,,,,,エイコウカンリ,0
111,1040001135682,新規,0,2024-10-04,2024-10-04,株式会社楓工業,,株式会社,千葉県,印旛郡栄町,酒直１２０５番地１,,12,329,2701513,,,,,,,2024-10-04,1,,,,,カエデコウギョウ,0
112,1040001135690,新規,0,2024-10-04,2024-10-04,株式会社ＴＨＲＥＥ　Ｔ　Ｉｎｔｅｒｎａｔｉｏｎａｌ,,株式会社,千葉県,市原市,岩崎１丁目２３番地１クレストタウンＤ２０１,,12,219,2900047,,,,,,,2024-10-04,1,,,,,スリーティインターナショナル,0
118,1040003025840,新規,0,2024-10-04,2024-10-04,ＮＡＴＨＡＬＩＹＡ合同会社,,合同会社,千葉県,柏市,藤ケ谷２１５－６Ｎｏ．４,,12,217,2770931,,,,,,,2024-10-04,1,,,,,ナタリヤ,0
119,1040003025931,新規,0,2024-10-04,2024-10-04,合同会社ハローズアンドストラテジーズ,,合同会社,千葉県,千葉市美浜区,磯辺７丁目１２番１１号,,12,106,2610012,,,,,,,2024-10-04,1,,,,,ハローズアンドストラテジーズ,0
126,1060001037539,新規,0,2024-10-04,2024-10-04,億通国際貿易株式会社,,株式会社,栃木県,さくら市,氏家１１５０番地７,,09,214,3291311,,,,,,,2024-10-04,1,,,,,オクツウコクサイボウエキ,0
127,1060001037547,新規,0,2024-10-04,2024-10-04,株式会社ＦＪＫ,,株式会社,栃木県,佐野市,馬門町１９０１番地１,,09,204,3270824,,,,,,,2024-10-04,1,,,,,エフジェイケイ,0
128,1060001037555,新規,0,2024-10-04,2024-10-04,株式会社アクシラ総研,,株式会社,栃木県,宇都宮市,今泉町２５３７番地３ポレスター今泉スカイテラス７０２号,,09,201,3210962,,,,,,,2024-10-04,1,,,,,アクシラソウケン,0
138,1080003003297,新規,0,2024-10-04,2024-10-04,合同会社ＢＵＤＤＹ,,合同会社,静岡県,静岡市清水区,駒越東町２番５５号,,22,103,4240907,,,,,,,2024-10-04,1,,,,,バディ,0
140,1080101025037,新規,0,2024-10-04,2024-10-04,株式会社アセットシード７ｔｈ,,株式会社,静岡県,駿東郡長泉町,東野１４３番地の１９,,22,342,4110931,,,,,,,2024-10-04,1,,,,,アセットシードセブンス,0
148,1080401027492,新規,0,2024-10-04,2024-10-04,株式会社石原建設,,株式会社,静岡県,浜松市浜名区,中瀬８３８番地の２,,22,139,4340012,,,,,,,2024-10-04,1,,,,,イシハラケンセツ,0
151,1110001038746,新規,0,2024-10-04,2024-10-04,株式会社ＴＳＲ,,株式会社,新潟県,新潟市中央区,美咲町２丁目３番３４号,,15,103,9500954,,,,,,,2024-10-04,1,,,,,ティーエスアール,0
161,1120001268986,新規,0,2024-10-04,2024-10-04,福藤加遊株式会社,,株式会社,大阪府,大阪市生野区,巽北１丁目１番１号２Ｆ－Ａ,00136514,27,116,5440004,,,,,,,2024-10-04,1,,,,,フクフジカユウ,0
162,1120001268994,新規,0,2024-10-04,2024-10-04,株式会社キックフリップ,,株式会社,大阪府,大阪市中央区,南船場３丁目２番２２号おおきに南船場ビル２０５,,27,128,5420081,,,,,,,2024-10-04,1,,,,,キックフリップ,0
163,1120001269068,新規,0,2024-10-04,2024-10-04,天成株式会社,,株式会社,大阪府,大阪市北区,天神橋５丁目６－５コミカビル２０１,,27,127,5300041,,,,,,,2024-10-04,1,,,,,テンセイ,0
164,1120001269076,新規,0,2024-10-04,2024-10-04,株式会社銀蔵,,株式会社,大阪府,大阪市東住吉区,杭全７丁目２番３１号,,27,121,5460002,,,,,,,2024-10-04,1,,,,,ギンゾウ,0
171,1120003027663,新規,0,2024-10-04,2024-10-04,合同会社ＨＥＩＧＨＴＳ,,合同会社,大阪府,大阪市中央区,久太郎町３丁目１－６－６Ｆ,,27,128,5410056,,,,,,,2024-10-04,1,,,,,ハイツ,0
175,1120101070350,新規,0,2024-10-04,2024-10-04,株式会社ディライト,,株式会社,大阪府,堺市西区,浜寺石津町西４丁２０番８号,,27,144,5928333,,,,,,,2024-10-04,1,,,,,ディライト,0
176,1120101070359,新規,0,2024-10-04,2024-10-04,株式会社ＤＡＹＢＲＥＡＫ,,株式会社,大阪府,河内長野市,向野町７６９番地５棟８０３号,,27,216,5860013,,,,,,,2024-10-04,1,,,,,デイブレイク,0
177,1120101070367,新規,0,2024-10-04,2024-10-04,株式会社星の金星,,株式会社,大阪府,堺市堺区,田出井町１番２－３６０２号,,27,141,5900014,,,,,,,2024-10-04,1,,,,,ホシノキンボシ,0
178,1120101070375,新規,0,2024-10-04,2024-10-04,株式会社フラックスフォース,,株式会社,大阪府,岸和田市,別所町１丁目１４番２８号,,27,202,5960045,,,,,,,2024-10-04,1,,,,,フラックスフォース,0
182,1120901049858,新規,0,2024-10-04,2024-10-04,オールズ株式会社,,株式会社,大阪府,吹田市,豊津町１番１８号,,27,205,5640051,,,,,,,2024-10-04,1,,,,,オールズ,0
186,1130001078063,新規,0,2024-10-04,2024-10-04,株式会社Ｔｅｒｒａ　Ｉｎｓｉｇｈｔ,,株式会社,京都府,京都市左京区,吉田本町３６番地１京都大学国際科学イノベーション棟１階１０４号室ベンチャーインキュベーションセンター内,,26,103,6068317,,,,,,,2024-10-04,1,,,,,テラインサイト,0
193,1140001135994,新規,0,2024-10-04,2024-10-04,株式会社Ｎｉｂａｒｃｅ,,株式会社,兵庫県,神戸市灘区,水道筋６丁目２番１９号１Ｆ,,28,102,6570831,,,,,,,2024-10-04,1,,,,,ニバース,0
194,1140001136019,新規,0,2024-10-04,2024-10-04,株式会社ＴＲＡ,,株式会社,兵庫県,たつの市,揖保川町片島９０６－８５,,28,229,6711651,,,,,,,2024-10-04,1,,,,,ティアールエイ,0
195,1140001136027,新規,0,2024-10-04,2024-10-04,ユニティクリエイト株式会社,,株式会社,兵庫県,神戸市須磨区,竜が台２丁目１番地４２号棟２０３号,,28,107,6540141,,,,,,,2024-10-04,1,,,,,ユニティクリエイト,0
202,1140003021152,新規,0,2024-10-04,2024-10-04,合同会社雫,,合同会社,兵庫県,西宮市,花園町９番２３号,,28,204,6638187,,,,,,,2024-10-04,1,,,,,シズク,0
205,1150001027596,新規,0,2024-10-04,2024-10-04,株式会社ひょうたろう,,株式会社,奈良県,吉野郡吉野町,大字吉野山４２９番地,,29,441,6393115,,,,,,,2024-10-04,1,,,,,ヒョウタロウ,0
209,1170005007106,新規,0,2024-10-04,2024-10-04,一般社団法人南九州太陽光発電協会,,その他の設立登記法人,和歌山県,御坊市,島１７２番地,,30,205,6440003,,,,,,,2024-10-04,1,,,,,ミナミキュウシュウタイヨウコウハツデンキョウカイ,0
213,1180003027427,新規,0,2024-10-04,2024-10-04,合同会社ヒノマルトラックス,,合同会社,愛知県,海部郡大治町,大字北間島字屋敷８７番地エアリー３０１号,,23,424,4901132,,,,,,,2024-10-04,1,,,,,ヒノマルトラックス,0
214,1180003027443,新規,0,2024-10-04,2024-10-04,合同会社ワイワイワールド,,合同会社,愛知県,名古屋市緑区,大高町字己新田１６３番地の１メロウハウスＤ１０３号,,23,114,4598001,,,,,,,2024-10-04,1,,,,,ワイワイワールド,0
215,1180003027468,新規,0,2024-10-04,2024-10-04,合同会社リバティ,,合同会社,愛知県,名古屋市守山区,鳥神町１５番地ファミリアーレもりやま１００６号,,23,113,4630088,,,,,,,2024-10-04,1,,,,,リバティ,0
217,1180301039066,新規,0,2024-10-04,2024-10-04,株式会社Ｒｅｆｌｅｃｔ,,株式会社,愛知県,豊橋市,牛川町字洗島４番地４エスポワールＫ＆ＬＶ２０２,,23,201,4400016,,,,,,,2024-10-04,1,,,,,リフレクト,0
218,1180301039099,新規,0,2024-10-04,2024-10-04,株式会社コムカムホールディングス,,株式会社,愛知県,豊川市,本野町東野添８０番地の３,,23,207,4420062,,,,,,,2024-10-04,1,,,,,コムカムホールディングス,0
219,1180301039108,新規,0,2024-10-04,2024-10-04,株式会社ＷＢ,,株式会社,愛知県,岡崎市,百々西町６番地６・１０７ビル・６０２号室,,23,202,4442117,,,,,,,2024-10-04,1,,,,,ダブルビー,0
220,1180301039116,新規,0,2024-10-04,2024-10-04,株式会社ミタカ総建,,株式会社,愛知県,岡崎市,美合町字入込５１番地１２,,23,202,4440803,,,,,,,2024-10-04,1,,,,,ミタカソウケン,0
225,1190003004813,新規,0,2024-10-04,2024-10-04,合同会社ＡＮＡＬＯＧＡＭ,,合同会社,三重県,伊勢市,御薗町王中島７８９番地,,24,203,5160803,,,,,,,2024-10-04,1,,,,,アナロガム,0
230,1200001042994,新規,0,2024-10-04,2024-10-04,株式会社アップワード,,株式会社,岐阜県,羽島市,福寿町間島４丁目５番地６,,21,209,5016251,,,,,,,2024-10-04,1,,,,,アップワード,0
231,1200001043010,新規,0,2024-10-04,2024-10-04,株式会社ファイズ,,株式会社,岐阜県,羽島市,正木町曲利１２７３番地,,21,209,5016227,,,,,,,2024-10-04,1,,,,,ファイズ,0
235,1210001019934,新規,0,2024-10-04,2024-10-04,株式会社谷川商会,,株式会社,福井県,あわら市,市姫５丁目４番１６号,,18,208,9190621,,,,,,,2024-10-04,1,,,,,タニカワショウカイ,0
244,1240001063847,新規,0,2024-10-04,2024-10-04,株式会社Ｌｉｆｅ‐Ｇ　Ｃｏｎｓｕｌｔｉｎｇ,,株式会社,広島県,広島市中区,八丁堀１５番１０号セントラルビル４Ｆ,,34,101,7300013,,,,,,,2024-10-04,1,,,,,ライフジーコンサルティング,0
245,1240001063913,新規,0,2024-10-04,2024-10-04,株式会社Ｔコーポレーション,,株式会社,広島県,呉市,焼山本庄４丁目８番１８号,,34,202,7370912,,,,,,,2024-10-04,1,,,,,ティコーポレーション,0
249,1240003006878,新規,0,2024-10-04,2024-10-04,合同会社ｓｔｕｄｉｏはまの,,合同会社,広島県,広島市南区,本浦町２番１２号,,34,103,7340047,,,,,,,2024-10-04,1,,,,,ハマノ,0
250,1240003006886,新規,0,2024-10-04,2024-10-04,合同会社結実計画会議,,合同会社,広島県,呉市,瀬戸見町１番１０号,,34,202,7370834,,,,,,,2024-10-04,1,,,,,ケツジツケイカクカイギ,0
256,1250003003569,新規,0,2024-10-04,2024-10-04,合同会社永照,,合同会社,山口県,下関市,長府満珠町３５番１７号,,35,201,7520947,,,,,,,2024-10-04,1,,,,,エイショウ,0
260,1260001039515,新規,0,2024-10-04,2024-10-04,株式会社ＳＯ．,,株式会社,岡山県,津山市,川崎８１２番地７,,33,203,7080841,,,,,,,2024-10-04,1,,,,,ソ,0
261,1260001039523,新規,0,2024-10-04,2024-10-04,株式会社ブチアゲ,,株式会社,岡山県,岡山市中区,門田本町２丁目２番５６号門田コーポ１２,,33,102,7038274,,,,,,,2024-10-04,1,,,,,ブチアゲ,0
264,1270001009062,新規,0,2024-10-04,2024-10-04,サカタ水産株式会社,,株式会社,鳥取県,米子市,皆生３丁目７番３４号,,31,202,6830003,,,,,,,2024-10-04,1,,,,,サカタ,0
271,1290001107376,新規,0,2024-10-04,2024-10-04,株式会社ＯＲＥＩ,,株式会社,福岡県,福岡市早良区,重留４丁目２番６３－１０３号,,40,137,8111101,,,,,,,2024-10-04,1,,,,,オレイ,0
272,1290001107384,新規,0,2024-10-04,2024-10-04,株式会社愛ＣＵＯＲＥ,,株式会社,福岡県,久留米市,花畑３丁目２番１号,,40,203,8300039,,,,,,,2024-10-04,1,,,,,アイクオーレ,0
273,1290001107418,新規,0,2024-10-04,2024-10-04,株式会社Ｃａｒｉｏｓ,,株式会社,福岡県,福岡市中央区,大名２丁目６番５０号福岡大名ガーデンシティ８Ｆ,,40,133,8100041,,,,,,,2024-10-04,1,,,,,キャリオス,0
274,1290001107442,新規,0,2024-10-04,2024-10-04,株式会社大和,,株式会社,福岡県,福岡市中央区,赤坂１丁目７番５－７１１号,,40,133,8100042,,,,,,,2024-10-04,1,,,,,ダイワ,0
275,1290001107467,新規,0,2024-10-04,2024-10-04,Ｋ２メディックス株式会社,,株式会社,福岡県,福岡市南区,高宮２丁目１２番１－４０２号ラングルデュ高宮,,40,134,8150083,,,,,,,2024-10-04,1,,,,,ケイツーメディックス,0
276,1290001107483,新規,0,2024-10-04,2024-10-04,ＳｕｎＦｉｒｓｔ株式会社,,株式会社,福岡県,福岡市西区,愛宕１丁目５番７号,,40,135,8190015,,,,,,,2024-10-04,1,,,,,サンファースト,0
277,1290003015890,新規,0,2024-10-04,2024-10-04,Ｈｉｌｌｔｏｐ　Ｓｔｕｄｉｏｓ合同会社,,合同会社,福岡県,福岡市中央区,小笹２丁目６番１８－１０６号,,40,133,8100033,,,,,,,2024-10-04,1,,,,,ヒルトップスタジオ,0
278,1290801030926,新規,0,2024-10-04,2024-10-04,株式会社ＣＨＩＬＬ　ＦＲＥＮＺＹ,,株式会社,福岡県,北九州市八幡西区,割子川２丁目１７番３０号２Ｆ,,40,109,8060064,,,,,,,2024-10-04,1,,,,,チルフレンジ,0
281,1310001019239,新規,0,2024-10-04,2024-10-04,株式会社ＷＥＬ長崎,,株式会社,長崎県,大村市,原口町１１５９番地２４,,42,205,8560811,,,,,,,2024-10-04,1,,,,,ウェルナガサキ,0
285,1330001032512,新規,0,2024-10-04,2024-10-04,株式会社ドッグズホーム,,株式会社,熊本県,八代市,麦島西町１２号１０番地,,43,202,8660052,,,,,,,2024-10-04,1,,,,,ドッグズホーム,0
286,1330001032520,新規,0,2024-10-04,2024-10-04,Ｗｏｏｄ　Ｄｅｓｓｅｒｔ株式会社,,株式会社,熊本県,人吉市,下原田町字荒毛２３１番地１,,43,203,8680086,,,,,,,2024-10-04,1,,,,,ウッドデザート,0
293,1360001034266,新規,0,2024-10-04,2024-10-04,Ｈｕｍａｎｈｏｕｓｅ．ｅｃｏ株式会社,,株式会社,沖縄県,那覇市,曙１丁目６－１４,,47,201,9000002,,,,,,,2024-10-04,1,,,,,ヒューマンハウスエコ,0
298,1370001051772,新規,0,2024-10-04,2024-10-04,株式会社ＧＲＩＤ‐ＰＬＡＮ,,株式会社,宮城県,仙台市泉区,七北田字白水沢９９番地の１エトワール泉中央２０２,,04,105,9813131,,,,,,,2024-10-04,1,,,,,グリッドプラン,0
308,1420001018881,新規,0,2024-10-04,2024-10-04,株式会社敬要,,株式会社,青森県,八戸市,沼館２丁目１７番１号,,02,203,0310071,,,,,,,2024-10-04,1,,,,,ケイヨウ,0
309,1420003003007,新規,0,2024-10-04,2024-10-04,合同会社プラデコ,,合同会社,青森県,五所川原市,大字松野木字花笠３４番地３,,02,205,0370602,,,,,,,2024-10-04,1,,,,,プラデコ,0
310,1430001092777,新規,0,2024-10-04,2024-10-04,ＤＫ　ＷＯＲＫＳ株式会社,,株式会社,北海道,札幌市中央区,北十条西２１丁目１－１０Ｇａｒａｇｅ　Ｒｏｃｋ２Ｆ,,01,101,0600010,,,,,,,2024-10-04,1,,,,,ディーケーワークス,0
311,1430001092810,新規,0,2024-10-04,2024-10-04,ＨＡＭＡＭＡＳＵ　ＭＡＲＩＮＥ株式会社,,株式会社,北海道,石狩市,浜益区群別５９６番地４９,,01,235,0613102,,,,,,,2024-10-04,1,,,,,ハママスマリン,0
312,1430001092819,新規,0,2024-10-04,2024-10-04,株式会社オペレーションパートナー,,株式会社,北海道,札幌市北区,新琴似八条５丁目１番１－２０１号,,01,102,0010908,,,,,,,2024-10-04,1,,,,,オペレーションパートナー,0
313,1430003016841,新規,0,2024-10-04,2024-10-04,ＭＯＣＨＩ　ＭＯＮＥＹ合同会社,,合同会社,北海道,虻田郡倶知安町,南四条西２丁目２番５８号,,01,400,0440034,,,,,,,2024-10-04,1,,,,,モチマネー,0
316,1460101007616,新規,0,2024-10-04,2024-10-04,株式会社ＹＮＫ機械,,株式会社,北海道,河東郡音更町,字万年基線６４番地３,,01,631,0800344,,,,,,,2024-10-04,1,,,,,ワイエヌケイキカイ,0
329,2010001248734,新規,0,2024-10-04,2024-10-04,株式会社バリューネクサス,,株式会社,東京都,中央区,日本橋小舟町１３番１０号,,13,102,1030024,,,,,,,2024-10-04,1,,,,,バリューネクサス,0
330,2010001248750,新規,0,2024-10-04,2024-10-04,株式会社ロータス,,株式会社,東京都,中央区,勝どき６丁目３番２号ザトウキョウタワーズミッドタワーズＭ３１１８号,,13,102,1040054,,,,,,,2024-10-04,1,,,,,ロータス,0
331,2010001248783,新規,0,2024-10-04,2024-10-04,輝不動産鑑定サービス株式会社,,株式会社,東京都,中央区,東日本橋１丁目３番７号,,13,102,1030004,,,,,,,2024-10-04,1,,,,,アキラフドウサンカンテイサービス,0
334,2010003045015,新規,0,2024-10-04,2024-10-04,合同会社オアシス,,合同会社,東京都,文京区,湯島３丁目３９番１０号第２大和ビル６階,,13,105,1130034,,,,,,,2024-10-04,1,,,,,オアシス,0
336,2010101016355,新規,0,2024-10-04,2024-10-04,上条宝飾株式会社,,株式会社,東京都,八王子市,子安町２丁目１３番１９－４２２号,,13,201,1920904,,,,,,,2024-10-04,1,,,,,カミジョウホウショク,0
346,2010401185593,新規,0,2024-10-04,2024-10-04,Ｄｕｎｋｉｔ株式会社,,株式会社,東京都,港区,浜松町２丁目２番１５号浜松町ダイヤビル２Ｆ,,13,103,1050013,,,,,,,2024-10-04,1,,,,,ダンキット,0
351,2010403033511,新規,0,2024-10-04,2024-10-04,鹿島洋上風力合同会社,,合同会社,東京都,港区,虎ノ門２丁目１０番４号オークラプレステージタワー,,13,103,1050001,,,,,,,2024-10-04,1,,,,,カシマヨウジョウフウリョク,0
352,2010403033544,新規,0,2024-10-04,2024-10-04,ＴＡＡＤジャパン合同会社,,合同会社,東京都,港区,虎ノ門４丁目１番４０号江戸見坂森ビル３階,,13,103,1050001,,,,,,,2024-10-04,1,,,,,ティーエーエーディージャパン,0
356,2010501052925,新規,0,2024-10-04,2024-10-04,医邁創株式会社,,株式会社,東京都,台東区,今戸２丁目１３－３トップ浅草第三４０２号室,,13,106,1110024,,,,,,,2024-10-04,1,,,,,イマイソウ,0
360,2010901056055,新規,0,2024-10-04,2024-10-04,株式会社ＡＬＶＥＮＩＳ,,株式会社,東京都,世田谷区,成城６丁目３２－１８,,13,112,1570066,,,,,,,2024-10-04,1,,,,,アルヴェニス,0
361,2010903009408,新規,0,2024-10-04,2024-10-04,合同会社ＥＮＪＹＵ,,合同会社,東京都,世田谷区,深沢２丁目１番１３－１１０８号,,13,112,1580081,,,,,,,2024-10-04,1,,,,,エンジュ,0
364,2011001165135,新規,0,2024-10-04,2024-10-04,株式会社Ｄｅｌｉｇｈｔ,,株式会社,東京都,渋谷区,神宮前６丁目２３番４号桑野ビル２階,,13,113,1500001,,,,,,,2024-10-04,1,,,,,ディライト,0
365,2011003020123,新規,0,2024-10-04,2024-10-04,Ｓ＆Ｔオフィス合同会社,,合同会社,東京都,渋谷区,道玄坂１丁目１０－８渋谷道玄坂東急ビル２Ｆ－Ｃ,,13,113,1500043,,,,,,,2024-10-04,1,,,,,,0
366,2011005010709,新規,0,2024-10-04,2024-10-04,一般社団法人美容医療総合カウンセラー協会,,その他の設立登記法人,東京都,渋谷区,恵比寿４丁目２０－４恵比寿ガーデンプレイスグラススクエアＢ１ＦＰＯＲＴＡＬＰＯＩＮＴ－Ｅｂｉｓｕ－ＬＢ－４３,,13,113,1500013,,,,,,,2024-10-04,1,,,,,ビヨウイリョウソウゴウカウンセラーキョウカイ,0
372,2011103014982,新規,0,2024-10-04,2024-10-04,ＮｅｘＳｅｌｅｃｔｉｏｎ合同会社,,合同会社,東京都,新宿区,市谷薬王寺町２０番５１号,,13,104,1620063,,,,,,,2024-10-04,1,,,,,ネクスセレクション,0
377,2011201025832,新規,0,2024-10-04,2024-10-04,株式会社Ｒ＆Ｔコーポレーション,,株式会社,東京都,中野区,中央１丁目６番６号,,13,114,1640011,,,,,,,2024-10-04,1,,,,,アールアンドティーコーポレーション,0
379,2011301030030,新規,0,2024-10-04,2024-10-04,Ｖａｌｏｒｚ株式会社,,株式会社,東京都,杉並区,下高井戸３丁目１４番５号サンクタス桜上水２１５,,13,115,1680073,,,,,,,2024-10-04,1,,,,,バローズ,0
380,2011401026449,新規,0,2024-10-04,2024-10-04,ＮＩＫＩ株式会社,,株式会社,東京都,板橋区,前野町３丁目４７番１１－３１１号,,13,119,1740063,,,,,,,2024-10-04,1,,,,,ニキ,0
381,2011401026481,新規,0,2024-10-04,2024-10-04,株式会社ＴＡＫＴ．ｐｌａｎｎｉｎｇ,,株式会社,東京都,板橋区,小茂根４丁目１７番１９－３１０号ベルハイム小竹向原,,13,119,1730037,,,,,,,2024-10-04,1,,,,,タクトプランニング,0
387,2011801044926,新規,0,2024-10-04,2024-10-04,株式会社ハイソウゲイ,,株式会社,東京都,足立区,本木２丁目３０番１６号,,13,121,1230853,,,,,,,2024-10-04,1,,,,,ハイソウゲイ,0
388,2011801044934,新規,0,2024-10-04,2024-10-04,株式会社アナログマインド,,株式会社,東京都,葛飾区,立石４丁目２９番１２号,,13,122,1240012,,,,,,,2024-10-04,1,,,,,アナログマインド,0
389,2011801044959,新規,0,2024-10-04,2024-10-04,株式会社Ｒｉａｎ,,株式会社,東京都,足立区,西保木間１丁目２２番１７号,,13,121,1210812,,,,,,,2024-10-04,1,,,,,リアン,0
390,2011805003399,新規,0,2024-10-04,2024-10-04,東京足立病院労働組合,,その他の設立登記法人,東京都,足立区,保木間５丁目２３－２０,,13,121,1210064,,,,,,,2024-10-04,1,,,,,トウキョウアダチビョウイン,0
391,2012401042345,新規,0,2024-10-04,2024-10-04,Ｂｒｉｌｌａｎｔｅ株式会社,,株式会社,東京都,多摩市,関戸５丁目３４番地の７,,13,224,2060011,,,,,,,2024-10-04,1,,,,,ブリランテ,0
393,2012403006777,新規,0,2024-10-04,2024-10-04,ＣＯＺＫＡ　Ｔｒａｄｉｎｇ合同会社,,合同会社,東京都,小金井市,中町４丁目１５番１７号,,13,210,1840012,,,,,,,2024-10-04,1,,,,,コヅカトレーディング,0
394,2012801023481,新規,0,2024-10-04,2024-10-04,株式会社ＭＩＹＡＫＯ,,株式会社,東京都,日野市,日野本町２丁目１１番地の２メゾン日野１階Ａ号室,,13,212,1910011,,,,,,,2024-10-04,1,,,,,ミヤコ,0
395,2013101009527,新規,0,2024-10-04,2024-10-04,株式会社ＡＳｍｉｋａ,,株式会社,東京都,福生市,大字福生１０６１番地１１,,13,218,1970011,,,,,,,2024-10-04,1,,,,,アスミカ,0
396,2013103001374,新規,0,2024-10-04,2024-10-04,合同会社ＳＴＵＤＩＯ　ＹＥＮ,,合同会社,東京都,福生市,大字熊川９８５番地１西東京マンション１Ｆ,,13,218,1970003,,,,,,,2024-10-04,1,,,,,スタジオエン,0
403,2020001159261,新規,0,2024-10-04,2024-10-04,株式会社ｆｏｒＰＴ,,株式会社,神奈川県,横浜市神奈川区,金港町５－１４クアドリフォリオ８階,,14,102,2210056,,,,,,,2024-10-04,1,,,,,フォーピーティ,0
404,2020001159377,新規,0,2024-10-04,2024-10-04,株式会社オルトリレーションズ,,株式会社,神奈川県,横浜市中区,真砂町３丁目３１アクティオーレ関内７Ｆ,,14,104,2310016,,,,,,,2024-10-04,1,,,,,オルトリレーションズ,0
405,2020001159402,新規,0,2024-10-04,2024-10-04,株式会社アイデスクＦＣ,,株式会社,神奈川県,横浜市西区,南幸２丁目８番地９ブライト横浜８０２号室,,14,103,2200005,,,,,,,2024-10-04,1,,,,,アイデスクエフシー,0
412,2021001083385,新規,0,2024-10-04,2024-10-04,株式会社トーレスト・リム,,株式会社,神奈川県,横須賀市,富士見町２丁目６９番地,,14,201,2380021,,,,,,,2024-10-04,1,,,,,トーレストリム,0
414,2021003015056,新規,0,2024-10-04,2024-10-04,合同会社ネイキッド,,合同会社,神奈川県,三浦郡葉山町,長柄７０５番１３１,,14,301,2400113,,,,,,,2024-10-04,1,,,,,ネイキッド,0
415,2021003015089,新規,0,2024-10-04,2024-10-04,合同会社猫と休日社,,合同会社,神奈川県,逗子市,桜山２丁目２―１１,,14,208,2490005,,,,,,,2024-10-04,1,,,,,ネコトキュウジツシャ,0
424,2030001162710,新規,0,2024-10-04,2024-10-04,戸田・川口市福祉輸送タクシー株式会社,,株式会社,埼玉県,川口市,朝日１丁目２０番３号,,11,203,3320001,,,,,,,2024-10-04,1,,,,,トダカワグチシフクシユソウタクシー,0
428,2030005021862,新規,0,2024-10-04,2024-10-04,社会保険労務士法人嬉しい職場,,その他の設立登記法人,埼玉県,深谷市,稲荷町１丁目９番１８号Ｙ’ｓＰｒｅｃｉｏｕｓＩＶ１０２号室,00136518,11,218,3660026,,,,,,,2024-10-04,1,,,,,ウレシイショクバ,0
433,2040001135649,新規,0,2024-10-04,2024-10-04,株式会社玉隆工業,,株式会社,千葉県,市原市,姉崎７４８番地１,,12,219,2990111,,,,,,,2024-10-04,1,,,,,タマタカコウギョウ,0
444,2050001055482,新規,0,2024-10-04,2024-10-04,株式会社ＫＮ　ＳＯＬＵＴＩＯＮ,,株式会社,茨城県,かすみがうら市,新治１６２９番地１,,08,230,3150051,,,,,,,2024-10-04,1,,,,,,0
447,2060001037554,新規,0,2024-10-04,2024-10-04,株式会社アイティエーアール,,株式会社,栃木県,宇都宮市,大通り４丁目１－１８宇都宮大同生命ビル３Ｆ,,09,201,3200811,,,,,,,2024-10-04,1,,,,,アイティエーアール,0
448,2080001026530,新規,0,2024-10-04,2024-10-04,株式会社ＳＰＡＲＫＬＥ　ＢＥＡＵＴＹ,,株式会社,静岡県,静岡市駿河区,森下町１番２１号ＮＪオフィス２２０１号室,,22,102,4228061,,,,,,,2024-10-04,1,,,,,,0
449,2080003003305,新規,0,2024-10-04,2024-10-04,きぼう理学ケア合同会社,,合同会社,静岡県,静岡市葵区,沓谷６丁目１２―３―４０６,,22,101,4200816,,,,,,,2024-10-04,1,,,,,キボウリガクケア,0
450,2080101025036,新規,0,2024-10-04,2024-10-04,株式会社ＡＬＵＮＡ,,株式会社,静岡県,御殿場市,新橋１１５１番地の８,,22,215,4120043,,,,,,,2024-10-04,1,,,,,アルーナ,0
451,2080101025044,新規,0,2024-10-04,2024-10-04,株式会社井沢工務店,,株式会社,静岡県,熱海市,上多賀３５０番地,,22,205,4130101,,,,,,,2024-10-04,1,,,,,イザワコウムテン,0
454,2080401027491,新規,0,2024-10-04,2024-10-04,リモアプラス株式会社,,株式会社,静岡県,浜松市浜名区,染地台６丁目１０番１２号,,22,139,4340046,,,,,,,2024-10-04,1,,,,,リモアプラス,0
463,2110003005537,新規,0,2024-10-04,2024-10-04,合同会社阿部総合研究所,,合同会社,新潟県,新潟市中央区,天神１丁目１番地プラーカ３、２Ｆ、ＨＵＢ・ＳＴＡＴＩＯＮ・ＫＥＮＴＯ内,,15,103,9500917,,,,,,,2024-10-04,1,,,,,アベソウゴウケンキュウジョ,0
470,2120001269158,新規,0,2024-10-04,2024-10-04,株式会社Ｆｒｅ’ｎｏｍａ,,株式会社,大阪府,大阪市中央区,南船場２丁目１０番２８号ＮＫビル４０５号室,,27,128,5420081,,,,,,,2024-10-04,1,,,,,フレノマ,0
475,2120003027679,新規,0,2024-10-04,2024-10-04,合同会社ハートフル,,合同会社,大阪府,大阪市淀川区,東三国４丁目１４番６号,,27,123,5320002,,,,,,,2024-10-04,1,,,,,ハートフル,0
477,2120101070374,新規,0,2024-10-04,2024-10-04,株式会社ＦＥＬＬＯＷ　ＡＬＬ‐ＰＲＯＤＵＣＴＳ,,株式会社,大阪府,堺市堺区,大浜中町２丁６番１３号,,27,141,5900975,,,,,,,2024-10-04,1,,,,,フェローオールプロダクツ,0
478,2120103006079,新規,0,2024-10-04,2024-10-04,合同会社快天,,合同会社,大阪府,大阪狭山市,東茱萸木１丁目６０２番地の２７,,27,231,5890012,,,,,,,2024-10-04,1,,,,,カイテン,0
480,2120901049849,新規,0,2024-10-04,2024-10-04,株式会社森屋,,株式会社,大阪府,吹田市,豊津町１９番１８号１階,,27,205,5640051,,,,,,,2024-10-04,1,,,,,モリヤ,0
481,2120903005362,新規,0,2024-10-04,2024-10-04,合同会社ＣＲＥＷ,,合同会社,大阪府,吹田市,山手町３丁目２９－３０－３０２,,27,205,5640073,,,,,,,2024-10-04,1,,,,,クルー,0
483,2122001038501,新規,0,2024-10-04,2024-10-04,株式会社松電工,,株式会社,大阪府,東大阪市,上四条町１５番１１号,,27,227,5798052,,,,,,,2024-10-04,1,,,,,マツデンコウ,0
484,2122003003016,新規,0,2024-10-04,2024-10-04,合同会社タナワーク,,合同会社,大阪府,柏原市,法善寺４丁目４番６号,,27,221,5820005,,,,,,,2024-10-04,1,,,,,タナワーク,0
488,2130001078054,新規,0,2024-10-04,2024-10-04,株式会社フォレスト,,株式会社,京都府,長岡京市,天神５丁目１７番６号,,26,209,6170824,,,,,,,2024-10-04,1,,,,,フォレスト,0
495,2130005017198,新規,0,2024-10-04,2024-10-04,医療法人社団星王子,,その他の設立登記法人,京都府,京都市伏見区,桃山町養斉２０番地１２,,26,109,6128016,,,,,,,2024-10-04,1,,,,,セイオウジ,0
501,2140001135969,新規,0,2024-10-04,2024-10-04,ａｌｌ　ｆｅｒｍｅ株式会社,,株式会社,兵庫県,たつの市,龍野町富永８６７番地１,,28,229,6794167,,,,,,,2024-10-04,1,,,,,オールフェルム,0
502,2140001135993,新規,0,2024-10-04,2024-10-04,株式会社ＴＫｗｒｉｔｅｗｏｒｋｓ,,株式会社,兵庫県,神戸市西区,学園西町１丁目１番地の１、１０１９号,,28,111,6512103,,,,,,,2024-10-04,1,,,,,ティーケーライトワークス,0
503,2140001136001,新規,0,2024-10-04,2024-10-04,株式会社泗香園,,株式会社,兵庫県,神戸市中央区,元町通３丁目１２番２３号,,28,110,6500022,,,,,,,2024-10-04,1,,,,,シコウエン,0
504,2140001136018,新規,0,2024-10-04,2024-10-04,株式会社カーフレッシュサービス,,株式会社,兵庫県,神戸市西区,北山台３丁目２番１８号,,28,111,6512215,,,,,,,2024-10-04,1,,,,,カーフレッシュサービス,0
509,2150001027587,新規,0,2024-10-04,2024-10-04,株式会社川上硝子店,,株式会社,奈良県,北葛城郡広陵町,馬見南５丁目１番２－９号,,29,426,6350833,,,,,,,2024-10-04,1,,,,,カワカミガラステン,0
510,2150001027595,新規,0,2024-10-04,2024-10-04,ＳＩＮ　ＡＢＵＮＤＡＮＴ株式会社,,株式会社,奈良県,奈良市,押熊町３９７番１－２０３号,,29,201,6310011,,,,,,,2024-10-04,1,,,,,シンアバンダント,0
521,2180001163504,新規,0,2024-10-04,2024-10-04,株式会社Ｌ,,株式会社,愛知県,名古屋市中区,栄４丁目１７－２９フジアーバンハイツ２階,,23,106,4600008,,,,,,,2024-10-04,1,,,,,エル,0
522,2180001163529,新規,0,2024-10-04,2024-10-04,株式会社レクミル,,株式会社,愛知県,名古屋市守山区,野萩町４番５４号,,23,113,4630042,,,,,,,2024-10-04,1,,,,,レクミル,0
524,2180003027426,新規,0,2024-10-04,2024-10-04,日の出物流合同会社,,合同会社,愛知県,あま市,七宝町桂河原７８番地コルティーレ・アマ２０２,,23,237,4970004,,,,,,,2024-10-04,1,,,,,ヒノデブツリュウ,0
525,2180003027450,新規,0,2024-10-04,2024-10-04,アズマーケティング合同会社,,合同会社,愛知県,名古屋市中村区,名駅５丁目２番１７号フロンティア名駅１３階,,23,105,4500002,,,,,,,2024-10-04,1,,,,,アズマーケティング,0
526,2180005020791,新規,0,2024-10-04,2024-10-04,医療法人藤之会,,その他の設立登記法人,愛知県,知多郡東浦町,大字緒川字家下１５番地,,23,442,4702102,,,,,,,2024-10-04,1,,,,,フジノカイ,0
528,2180301039115,新規,0,2024-10-04,2024-10-04,株式会社ケーシーアップ,,株式会社,愛知県,安城市,福釜町蓬野６５番地２,00136525,23,212,4460052,,,,,,,2024-10-04,1,,,,,ケーシーアップ,0
529,2180301039123,新規,0,2024-10-04,2024-10-04,株式会社ＡＵＴＯ　ＡＲＴＳ,,株式会社,愛知県,豊川市,小田渕町２丁目６３番地の２,,23,207,4420844,,,,,,,2024-10-04,1,,,,,オートアーツ,0
531,2190001031701,新規,0,2024-10-04,2024-10-04,株式会社フォワードスタイル,,株式会社,三重県,松阪市,大黒田町１０３４番地１１,,24,204,5150063,,,,,,,2024-10-04,1,,,,,フォワードスタイル,0
532,2190005011988,新規,0,2024-10-04,2024-10-04,一般社団法人伊勢と日本の心研究所,,その他の設立登記法人,三重県,松阪市,日丘町１３９８番地９８,,24,204,5150835,,,,,,,2024-10-04,1,,,,,イセトニッポンノココロケンキュウショ,0
533,2200001042993,新規,0,2024-10-04,2024-10-04,株式会社岐阜メンテナンスステーション,,株式会社,岐阜県,各務原市,蘇原吉新町２丁目３１番地,,21,213,5040844,,,,,,,2024-10-04,1,,,,,ギフメンテナンスステーション,0
534,2200003006534,新規,0,2024-10-04,2024-10-04,合同会社ＯＫＵＲＡＹＡ,,合同会社,岐阜県,瑞穂市,宮田６４６番地２,,21,216,5010305,,,,,,,2024-10-04,1,,,,,オクラヤ,0
545,2240001063887,新規,0,2024-10-04,2024-10-04,株式会社ＴＯＩ,,株式会社,広島県,広島市西区,草津梅が台８番２５号,,34,104,7330864,,,,,,,2024-10-04,1,,,,,トイ,0
546,2240001063895,新規,0,2024-10-04,2024-10-04,株式会社Ｗａｖｅｓ,,株式会社,広島県,広島市中区,本通９番６－３０１号,,34,101,7300035,,,,,,,2024-10-04,1,,,,,ウェーブス,0
547,2240001063904,新規,0,2024-10-04,2024-10-04,株式会社丹花,,株式会社,広島県,広島市中区,本通９番２０号,,34,101,7300035,,,,,,,2024-10-04,1,,,,,タンカ,0
548,2240003006877,新規,0,2024-10-04,2024-10-04,合同会社Ａ．ＳＴＲＥＡＭ,,合同会社,広島県,安芸郡府中町,桜ケ丘１５番１７号,,34,302,7350001,,,,,,,2024-10-04,1,,,,,エーストリーム,0
549,2240003006885,新規,0,2024-10-04,2024-10-04,合同会社Ｔａｕ　Ｕｐ,,合同会社,広島県,広島市安佐南区,大塚西７丁目６番３７号,,34,105,7313167,,,,,,,2024-10-04,1,,,,,タウアップ,0
558,2290001107375,新規,0,2024-10-04,2024-10-04,株式会社シーズンファクトリー,,株式会社,福岡県,福岡市早良区,重留４丁目２番６３－１０４号,,40,137,8111101,,,,,,,2024-10-04,1,,,,,シーズンファクトリー,0
559,2290001107383,新規,0,2024-10-04,2024-10-04,株式会社ＥＭＯＮ　ｅｎｔｅｒｔａｉｎｍｅｎｔ,,株式会社,福岡県,福岡市博多区,上川端町３番６号４０１,,40,132,8120026,,,,,,,2024-10-04,1,,,,,エモンエンターテイメント,0
560,2290001107391,新規,0,2024-10-04,2024-10-04,株式会社エンジェルハート,,株式会社,福岡県,太宰府市,朱雀３丁目８番１８号,,40,221,8180103,,,,,,,2024-10-04,1,,,,,エンジェルハート,0
561,2290001107400,新規,0,2024-10-04,2024-10-04,株式会社ＲｅｉＭｅｉ,,株式会社,福岡県,福岡市博多区,中洲２丁目７番２０号ニューワールドビル５階,,40,132,8100801,,,,,,,2024-10-04,1,,,,,レイメイ,0
562,2290001107409,新規,0,2024-10-04,2024-10-04,九州トータルメンテナンス株式会社,,株式会社,福岡県,福岡市中央区,赤坂３丁目４番３１号ガーデンコートけやき３０５,,40,133,8100042,,,,,,,2024-10-04,1,,,,,キュウシュウトータルメンテナンス,0
563,2290001107417,新規,0,2024-10-04,2024-10-04,株式会社ＴＥＴ,,株式会社,福岡県,福岡市中央区,薬院２丁目１番４号,,40,133,8100022,,,,,,,2024-10-04,1,,,,,テト,0
564,2290001107441,新規,0,2024-10-04,2024-10-04,福岡令和総合警備サービス株式会社,,株式会社,福岡県,福岡市博多区,店屋町４番８号蝶和ビル５０７号,,40,132,8120025,,,,,,,2024-10-04,1,,,,,フクオカレイワソウゴウケイビサービス,0
565,2290001107490,新規,0,2024-10-04,2024-10-04,株式会社Ｌｉｅｎ,,株式会社,福岡県,古賀市,今の庄３丁目６番２－２号,,40,223,8113117,,,,,,,2024-10-04,1,,,,,リアン,0
566,2290001107499,新規,0,2024-10-04,2024-10-04,株式会社ケイズシード,,株式会社,福岡県,福岡市南区,若久１丁目１６番３号,,40,134,8150042,,,,,,,2024-10-04,1,,,,,ケイズシード,0
569,2290003015898,新規,0,2024-10-04,2024-10-04,合同会社ＫＮＳ,,合同会社,福岡県,福岡市南区,若久３丁目３９番１５号,,40,134,8150042,,,,,,,2024-10-04,1,,,,,ケイエヌエス,0
573,2290005019526,新規,0,2024-10-04,2024-10-04,一般社団法人ソイルアカデミー,,その他の設立登記法人,福岡県,柳川市,曙町３０－１,,40,207,8320026,,,,,,,2024-10-04,1,,,,,ソイルアカデミー,0
580,2310001019238,新規,0,2024-10-04,2024-10-04,株式会社グリーンライフ,,株式会社,長崎県,雲仙市,小浜町北本町１０９８番地,,42,213,8540514,,,,,,,2024-10-04,1,,,,,グリーンライフ,0
581,2310001019246,新規,0,2024-10-04,2024-10-04,Ｓｏｒａ　ｉｒｏ株式会社,,株式会社,長崎県,諫早市,八天町３番９号,,42,204,8540011,,,,,,,2024-10-04,1,,,,,ソライロ,0
582,2310001019254,新規,0,2024-10-04,2024-10-04,株式会社ＴＥＮＳＥ,,株式会社,長崎県,長崎市,浜口町６番１３号永田ビル２０１,,42,201,8528107,,,,,,,2024-10-04,1,,,,,テンス,0
589,2330005010827,新規,0,2024-10-04,2024-10-04,一般財団法人青井歴史文化財団,,その他の設立登記法人,熊本県,人吉市,上青井町１１８番地,,43,203,8680005,,,,,,,2024-10-04,1,,,,,アオイレキシブンカザイダン,0
594,2360001034257,新規,0,2024-10-04,2024-10-04,株式会社丸中商事,,株式会社,沖縄県,うるま市,字喜屋武２０４番地,,47,213,9042225,,,,,,,2024-10-04,1,,,,,マルナカショウジ,0
595,2360001034273,新規,0,2024-10-04,2024-10-04,ＥＫＡパートナーズ株式会社,,株式会社,沖縄県,名護市,字宮里１００４番地,,47,209,9050011,,,,,,,2024-10-04,1,,,,,イーケーエーパートナーズ,0
599,2360003014348,新規,0,2024-10-04,2024-10-04,合同会社つなぐアーチ,,合同会社,沖縄県,糸満市,西崎１丁目１３番３号１階,,47,210,9010305,,,,,,,2024-10-04,1,,,,,ツナグアーチ,0
606,2380001034817,新規,0,2024-10-04,2024-10-04,株式会社ＦＥＥＬＳ,,株式会社,福島県,郡山市,喜久田町堀之内字古町９１番地の１,,07,203,9630541,,,,,,,2024-10-04,1,,,,,フィールズ,0
608,2390003002291,新規,0,2024-10-04,2024-10-04,Ａｏｓｈｉｎｇｏ合同会社,,合同会社,山形県,天童市,東本町２丁目７番８号１階,,06,210,9940026,,,,,,,2024-10-04,1,,,,,アオシンゴウ,0
613,2420003003006,新規,0,2024-10-04,2024-10-04,合同会社クリア,,合同会社,青森県,つがる市,木造兼館佐野２０番地２,,02,209,0383272,,,,,,,2024-10-04,1,,,,,クリア,0
615,2430001092818,新規,0,2024-10-04,2024-10-04,株式会社ＩＳＮシステム,,株式会社,北海道,札幌市手稲区,手稲本町一条３丁目２番５号今岡ビル１ＦテナントＢ棟,,01,109,0060021,,,,,,,2024-10-04,1,,,,,アイエスエヌシステム,0
616,2430003016849,新規,0,2024-10-04,2024-10-04,合同会社ノースキャブ,,合同会社,北海道,虻田郡豊浦町,字大和１５９番地２大和第３団地Ｚ－１１２,,01,571,0495402,,,,,,,2024-10-04,1,,,,,ノースキャブ,0
617,2430003016857,新規,0,2024-10-04,2024-10-04,合同会社アールイー,,合同会社,北海道,千歳市,文京１丁目２番地の３ウィング１３－４１８号,,01,224,0660052,,,,,,,2024-10-04,1,,,,,アールイー,0
619,2460101007615,新規,0,2024-10-04,2024-10-04,株式会社藤吉繁殖サービス,,株式会社,北海道,河東郡音更町,柳町南区８番地７,,01,631,0800123,,,,,,,2024-10-04,1,,,,,フジヨシハンショクサービス,0
623,2480003002183,新規,0,2024-10-04,2024-10-04,合同会社ケンエステート,,合同会社,徳島県,阿南市,那賀川町上福井南川渕１６８番地８,,36,204,7791243,,,,,,,2024-10-04,1,,,,,ケンエステート,0
625,2500001025919,新規,0,2024-10-04,2024-10-04,株式会社金川,,株式会社,愛媛県,今治市,東村３丁目８番１号,,38,202,7991506,,,,,,,2024-10-04,1,,,,,カナガワ,0
626,2700150127033,新規,0,2024-10-04,2024-09-04,全国都市緑化ぎふフェア植物調達協議会,,その他,岐阜県,岐阜市,薮田南２丁目１－１岐阜県庁　農産園芸課,,21,201,5008384,,,,,,,2024-09-04,1,,,,,ゼンコクトシリヨツカギフフエアシヨクブツチヨウタツキヨウギカイ,0
627,2700150127421,新規,0,2024-10-04,2024-10-04,Ｓｕｚｈｏｕ　Ｍｏｊｕｅ　Ｉｎｔｅｌｌｉｇｅｎｔ　Ｅｌｅｃｔｒｏｎｉｃ　Ｃｏ．，Ｌｔｄ,,外国会社等,,,,,,,,Ｒｏｏｍ　Ｆ１－Ａ－１０２８，Ｂｕｉｌｄｉｎｇ　Ａ２，Ｎｏ．８　Ｑｉｃｕｎ　Ｒｏａｄ，Ｓｕｚｈｏｕ　Ｉｎｄｕｓｔｒｉａｌ　Ｐａｒｋ，Ｓｕｚｈｏｕ　Ａｒｅａ，Ｐｉｌｏｔ　Ｆｒｅｅ　Ｔｒａｄｅ　Ｚｏｎｅ，Ｃｈｉｎａ（Ｊｉａｎｇｓｕ）,,,,,,2024-10-04,1,,,,,スゥジョウモージュエジーヌオンディエンズーヨウシエンゴーンスー,0
638,3010001248782,新規,0,2024-10-04,2024-10-04,株式会社エフ・クリエイト,,株式会社,東京都,千代田区,神田淡路町１丁目９番地５,,13,101,1010063,,,,,,,2024-10-04,1,,,,,エフクリエイト,0
643,3010101016354,新規,0,2024-10-04,2024-10-04,株式会社Ｃｌｅａｍｏ,,株式会社,東京都,八王子市,鑓水２丁目８２番地４－７０７,,13,201,1920375,,,,,,,2024-10-04,1,,,,,クリーモ,0
648,3010401185394,新規,0,2024-10-04,2024-10-04,Ｆｕｔｒａｊｅｃｔｏｒｙ　ＫＯＴＡＲＯ　ＨＯＲＩＵＣＨＩ株式会社,,株式会社,東京都,港区,南青山２丁目２７番２８号１１階,,13,103,1070062,,,,,,,2024-10-04,1,,,,,フュートラジェクトリーコウタロウホリウチ,0
649,3010401185428,新規,0,2024-10-04,2024-10-04,株式会社早川敬之企画製作事務所,,株式会社,東京都,港区,高輪４丁目２４番５５－６０１号,,13,103,1080074,,,,,,,2024-10-04,1,,,,,ハヤカワタカユキキカクセイサクジムショ,0
650,3010401185527,新規,0,2024-10-04,2024-10-04,株式会社リザルトバンク,,株式会社,東京都,港区,台場２丁目２番２号,,13,103,1350091,,,,,,,2024-10-04,1,,,,,リザルトバンク,0
651,3010401185592,新規,0,2024-10-04,2024-10-04,ＹＦ　Ｓｔａｆｆ　Ｌｉｎｋ株式会社,,株式会社,東京都,港区,赤坂２丁目１２番８号,,13,103,1070052,,,,,,,2024-10-04,1,,,,,ワイエフスタッフリンク,0
653,3010403033460,新規,0,2024-10-04,2024-10-04,合同会社ソラニ,,合同会社,東京都,港区,北青山３丁目４番３－１０１３号,,13,103,1070061,,,,,,,2024-10-04,1,,,,,ソラニ,0
654,3010403033568,新規,0,2024-10-04,2024-10-04,合同会社ＴＴコーポレーション３,,合同会社,東京都,港区,白金台３丁目２番３４号,,13,103,1080071,,,,,,,2024-10-04,1,,,,,ティーティーコーポレーションスリー,0
664,3010701046619,新規,0,2024-10-04,2024-10-04,Ｍ’ｓホールディングス株式会社,,株式会社,東京都,品川区,北品川５丁目５番２５号,,13,109,1410001,,,,,,,2024-10-04,1,,,,,エムズホールディングス,0
665,3010701046627,新規,0,2024-10-04,2024-10-04,アールジャパン株式会社,,株式会社,東京都,品川区,東品川３丁目８番８号,,13,109,1400002,,,,,,,2024-10-04,1,,,,,アールジャパン,0
666,3010701046635,新規,0,2024-10-04,2024-10-04,株式会社Ｍｉｒａｒｃｈ,,株式会社,東京都,品川区,西品川３丁目１９番６号,,13,109,1410033,,,,,,,2024-10-04,1,,,,,ミラーチ,0
667,3010703007370,新規,0,2024-10-04,2024-10-04,合同会社ＮＯ　ＢＯＲＤＥＲ,,合同会社,東京都,品川区,南品川５丁目１６－７Ｕ－ｍａｋｅ南品川１Ｆ,,13,109,1400004,,,,,,,2024-10-04,1,,,,,ノーボーダー,0
670,3010801035447,新規,0,2024-10-04,2024-10-04,株式会社志田建設,,株式会社,東京都,大田区,西糀谷３丁目２番１号,,13,111,1440034,,,,,,,2024-10-04,1,,,,,シダケンセツ,0
672,3010901056054,新規,0,2024-10-04,2024-10-04,アルファアタッチメント株式会社,,株式会社,東京都,世田谷区,太子堂４丁目１８番１５号マガザン三軒茶屋２・３Ｆ－３,,13,112,1540004,,,,,,,2024-10-04,1,,,,,アルファアタッチメント,0
673,3010903009407,新規,0,2024-10-04,2024-10-04,ＴＫアシスタントサービス合同会社,,合同会社,東京都,世田谷区,玉川３丁目２０番２号マノア玉川第３ビル５０１号室,,13,112,1580094,,,,,,,2024-10-04,1,,,,,ティーケーアシスタントサービス,0
675,3011001165126,新規,0,2024-10-04,2024-10-04,株式会社ＧＡＭ０１０,,株式会社,東京都,渋谷区,千駄ヶ谷２丁目３０番１号,,13,113,1510051,,,,,,,2024-10-04,1,,,,,ジーエーエムゼロイチゼロ,0
676,3011003020139,新規,0,2024-10-04,2024-10-04,タラッサ・パートナーズ・ジャパン合同会社,,合同会社,東京都,渋谷区,道玄坂１丁目１０番８号渋谷道玄坂東急ビル２Ｆ－Ｃ,,13,113,1500043,,,,,,,2024-10-04,1,,,,,タラッサパートナーズジャパン,0
683,3011103014957,新規,0,2024-10-04,2024-10-04,合同会社Ｌａｇｏｏｎ,,合同会社,東京都,新宿区,北新宿４丁目３０番７スカイコート新宿第７－１０４号,,13,104,1690074,,,,,,,2024-10-04,1,,,,,ラグーン,0
685,3011105011176,新規,0,2024-10-04,2024-10-04,ＡＡＪ　Ｃ特定目的会社,,その他の設立登記法人,東京都,新宿区,四谷２丁目９番地１５東京ユナイテッド綜合事務所内,,13,104,1600004,,,,,,,2024-10-04,1,,,,,エーエージェイシー,0
688,3011303005310,新規,0,2024-10-04,2024-10-04,タオプロダクツ合同会社,,合同会社,東京都,杉並区,井草３丁目１６番１３号,,13,115,1670021,,,,,,,2024-10-04,1,,,,,タオプロダクツ,0
690,3011501031216,新規,0,2024-10-04,2024-10-04,株式会社シェーズ,,株式会社,東京都,荒川区,東尾久６丁目１７番１－６０５号,,13,118,1160012,,,,,,,2024-10-04,1,,,,,シェーズ,0
691,3011501031224,新規,0,2024-10-04,2024-10-04,株式会社ＴＷＯ　ＢＲＩＤＧＥ,,株式会社,東京都,北区,田端１丁目２１番８号,,13,117,1140014,,,,,,,2024-10-04,1,,,,,トゥブリッジ,0
692,3011503006249,新規,0,2024-10-04,2024-10-04,合同会社三ツ家,,合同会社,東京都,荒川区,南千住１丁目７－７－２０２,,13,118,1160003,,,,,,,2024-10-04,1,,,,,ミツヤ,0
700,3011801044925,新規,0,2024-10-04,2024-10-04,株式会社ＳＥＣＯＮＤ,,株式会社,東京都,葛飾区,東新小岩４丁目２５番１６号,,13,122,1240023,,,,,,,2024-10-04,1,,,,,セカンド,0
701,3011801044933,新規,0,2024-10-04,2024-10-04,株式会社カカルクモナシ,,株式会社,東京都,足立区,竹の塚６丁目６番１号竹ノ塚駅ビル,,13,121,1210813,,,,,,,2024-10-04,1,,,,,カカルクモナシ,0
702,3011801044941,新規,0,2024-10-04,2024-10-04,聚源産業株式会社,,株式会社,東京都,足立区,柳原２丁目４７番３号,,13,121,1200022,,,,,,,2024-10-04,1,,,,,ジュゲンサンギョウ,0
705,3012403006776,新規,0,2024-10-04,2024-10-04,みらい製作所合同会社,,合同会社,東京都,府中市,宮町２丁目７番地の６ＲＥＶＥ３０３,,13,206,1830023,,,,,,,2024-10-04,1,,,,,ミライセイサクショ,0
707,3013101009526,新規,0,2024-10-04,2024-10-04,株式会社ＡＳＫ,,株式会社,東京都,福生市,大字熊川１０３０番地１ｃｏｍｏｒｅｂｉＩＩ１０２号室,00136534,13,218,1970003,,,,,,,2024-10-04,1,,,,,アスク,0
713,3020001159384,新規,0,2024-10-04,2024-10-04,株式会社サンレンバイオ,,株式会社,神奈川県,横浜市西区,北幸１丁目５番１０号ＪＰＲ横浜ビル,,14,103,2200004,,,,,,,2024-10-04,1,,,,,サンレンバイオ,0
714,3020001159418,新規,0,2024-10-04,2024-10-04,Ｇｒａｎｄ　Ｇｒｅｎｉｅｒ株式会社,,株式会社,神奈川県,横浜市西区,北幸１丁目１１番１号水信ビル７階,,14,103,2200004,,,,,,,2024-10-04,1,,,,,グランドグルニエ,0
715,3020003026979,新規,0,2024-10-04,2024-10-04,合同会社オリーブ,,合同会社,神奈川県,横浜市南区,六ツ川３丁目７６番地３・Ｊ２０６,,14,105,2320066,,,,,,,2024-10-04,1,,,,,オリーブ,0
726,3021003015063,新規,0,2024-10-04,2024-10-04,合同会社華,,合同会社,神奈川県,海老名市,中新田４丁目８－１４,,14,215,2430422,,,,,,,2024-10-04,1,,,,,ハナ,0
732,3040001135598,新規,0,2024-10-04,2024-10-04,株式会社ｌｅａｄ　ｕｐ,,株式会社,千葉県,流山市,向小金１丁目４４８番地２２,,12,220,2700143,,,,,,,2024-10-04,1,,,,,リードアップ,0
733,3040001135607,新規,0,2024-10-04,2024-10-04,Ｇｒｅｅｎ　Ｔｒａｄｅ株式会社,,株式会社,千葉県,千葉市緑区,おゆみ野中央７丁目８番地４－２０３号,,12,105,2660032,,,,,,,2024-10-04,1,,,,,グリーントレード,0
734,3040001135648,新規,0,2024-10-04,2024-10-04,内海ダイナテレコム株式会社,,株式会社,千葉県,習志野市,香澄５丁目１０番５号,,12,216,2750022,,,,,,,2024-10-04,1,,,,,ウチウミダイナテレコム,0
735,3040001135680,新規,0,2024-10-04,2024-10-04,南総アグリ株式会社,,株式会社,千葉県,袖ケ浦市,飯富１１番地２,,12,229,2990256,,,,,,,2024-10-04,1,,,,,ナンソウアグリ,0
739,3040003025913,新規,0,2024-10-04,2024-10-04,ＩＣＨＩＧＯＹＡ・ＳＵＮ合同会社,,合同会社,千葉県,袖ケ浦市,三箇２０８８番地,,12,229,2990212,,,,,,,2024-10-04,1,,,,,イチゴヤサン,0
740,3040003025921,新規,0,2024-10-04,2024-10-04,萬通合同会社,,合同会社,千葉県,富津市,亀沢５４２番地,,12,226,2930051,,,,,,,2024-10-04,1,,,,,マンツウ,0
741,3040003025938,新規,0,2024-10-04,2024-10-04,合同会社ＤＭ２０号,,合同会社,千葉県,柏市,柏４丁目５番１０号,,12,217,2770005,,,,,,,2024-10-04,1,,,,,ディーエムニジュウゴウ,0
746,3060001037553,新規,0,2024-10-04,2024-10-04,しがへこ株式会社,,株式会社,栃木県,鹿沼市,北半田１２９５番地２０,,09,205,3220301,,,,,,,2024-10-04,1,,,,,シガヘコ,0
748,3060003005269,新規,0,2024-10-04,2024-10-04,合同会社運び屋,,合同会社,栃木県,栃木市,今泉町１丁目５番３０号,,09,203,3280027,,,,,,,2024-10-04,1,,,,,ハコビヤ,0
753,3080101025035,新規,0,2024-10-04,2024-10-04,株式会社Ｓａｎ,,株式会社,静岡県,富士市,吉原３丁目６番１５号,,22,210,4170051,,,,,,,2024-10-04,1,,,,,サン,0
754,3080101025043,新規,0,2024-10-04,2024-10-04,株式会社スクラム,,株式会社,静岡県,駿東郡長泉町,南一色２７５番地の２,,22,342,4110932,,,,,,,2024-10-04,1,,,,,スクラム,0
755,3080403005115,新規,0,2024-10-04,2024-10-04,合同会社アトリエ岡本,,合同会社,静岡県,浜松市浜名区,引佐町井伊谷１２５３番地の２６,,22,139,4312212,,,,,,,2024-10-04,1,,,,,アトリエオカモト,0
773,3120001269033,新規,0,2024-10-04,2024-10-04,株式会社総建,,株式会社,大阪府,大阪市北区,天満４丁目５番３号日本プロパティビル５０２号,,27,127,5300043,,,,,,,2024-10-04,1,,,,,ソウケン,0
774,3120001269058,新規,0,2024-10-04,2024-10-04,株式会社ウィズキャット,,株式会社,大阪府,大阪市東淀川区,東淡路１丁目６番９－１１０６号,,27,114,5330023,,,,,,,2024-10-04,1,,,,,ウィズキャット,0
775,3120001269132,新規,0,2024-10-04,2024-10-04,株式会社パンとエスプレッソと大阪,,株式会社,大阪府,大阪市北区,西天満４丁目１４番３号,,27,127,5300047,,,,,,,2024-10-04,1,,,,,パントエスプレッソトオオサカ,0
778,3120003027661,新規,0,2024-10-04,2024-10-04,Ｋ＆Ｓ合同会社,,合同会社,大阪府,大阪市西成区,千本北２丁目１６番３号１０２号室,,27,122,5570053,,,,,,,2024-10-04,1,,,,,ケーアンドエス,0
781,3120005024566,新規,0,2024-10-04,2024-10-04,特定非営利活動法人ヤスラギ,,その他の設立登記法人,大阪府,大阪市生野区,鶴橋２丁目１２番８号２階,,27,116,5440031,,,,,,,2024-10-04,1,,,,,ヤスラギ,0
784,3120101070349,新規,0,2024-10-04,2024-10-04,株式会社ＩＳＨＩＤＡ,,株式会社,大阪府,富田林市,西板持町２丁目４番１９号,,27,214,5840048,,,,,,,2024-10-04,1,,,,,イシダ,0
785,3120101070357,新規,0,2024-10-04,2024-10-04,ＤＡＩＫＯアシスト株式会社,,株式会社,大阪府,富田林市,寺池台５丁目９番１７号,,27,214,5840073,,,,,,,2024-10-04,1,,,,,ダイコウアシスト,0
786,3120101070373,新規,0,2024-10-04,2024-10-04,株式会社エスケーコーポレーション,,株式会社,大阪府,堺市西区,浜寺元町４丁４６１番地１,,27,144,5928343,,,,,,,2024-10-04,1,,,,,エスケーコーポレーション,0
789,3122001038500,新規,0,2024-10-04,2024-10-04,株式会社シンゲキ,,株式会社,大阪府,大東市,氷野３丁目１１番２１号,,27,218,5740062,,,,,,,2024-10-04,1,,,,,シンゲキ,0
790,3122003003015,新規,0,2024-10-04,2024-10-04,合同会社ＡＣマーケティングパートナーズ,,合同会社,大阪府,八尾市,東弓削３丁目８６番地,,27,212,5810029,,,,,,,2024-10-04,1,,,,,エーシーマーケティングパートナーズ,0
794,3130001078029,新規,0,2024-10-04,2024-10-04,Ａｌｇ株式会社,,株式会社,京都府,木津川市,南加茂台１丁目５－１,,26,214,6191127,,,,,,,2024-10-04,1,,,,,エーエルジー,0
795,3130001078045,新規,0,2024-10-04,2024-10-04,株式会社アンディ,,株式会社,京都府,京都市山科区,音羽珍事町７１番地１６,,26,110,6078062,,,,,,,2024-10-04,1,,,,,アンディ,0
796,3130001078078,新規,0,2024-10-04,2024-10-04,株式会社中村翠嵐工房,,株式会社,京都府,京都市山科区,川田清水焼団地町３２番地７,,26,110,6078322,,,,,,,2024-10-04,1,,,,,ナカムラスイランコウボウ,0
805,3140001135976,新規,0,2024-10-04,2024-10-04,株式会社天,,株式会社,兵庫県,高砂市,神爪２丁目１４番９号,,28,216,6760808,,,,,,,2024-10-04,1,,,,,テン,0
807,3150001027594,新規,0,2024-10-04,2024-10-04,株式会社勇伸建設,,株式会社,奈良県,橿原市,中町１４６－１,,29,205,6340009,,,,,,,2024-10-04,1,,,,,ユウシンケンセツ,0
817,3180001163486,新規,0,2024-10-04,2024-10-04,スマヒナタ株式会社,,株式会社,愛知県,名古屋市名東区,猪高台１丁目１１０１番地,,23,115,4650028,,,,,,,2024-10-04,1,,,,,スマヒナタ,0
818,3180301039097,新規,0,2024-10-04,2024-10-04,株式会社ＳＥＡ‐ＰＲＯ,,株式会社,愛知県,刈谷市,小垣江町西高根６０番地１２アムール西高根Ｋ－１号,,23,210,4480813,,,,,,,2024-10-04,1,,,,,シープロ,0
820,3190001031683,新規,0,2024-10-04,2024-10-04,株式会社ジェイエムシー,,株式会社,三重県,松阪市,大津町８８３番地１,,24,204,5150031,,,,,,,2024-10-04,1,,,,,ジェイエムシー,0
822,3190003004811,新規,0,2024-10-04,2024-10-04,ＰＬＴサービス合同会社,,合同会社,三重県,亀山市,田村町１５６９番地２,,24,210,5190213,,,,,,,2024-10-04,1,,,,,ピーエルティーサービス,0
829,3200003006533,新規,0,2024-10-04,2024-10-04,合同会社一心,,合同会社,岐阜県,海津市,海津町草場字村前９０番地,,21,221,5030618,,,,,,,2024-10-04,1,,,,,イッシン,0
833,3240001063878,新規,0,2024-10-04,2024-10-04,アイシーユー株式会社,,株式会社,広島県,広島市東区,若草町５番１３号,,34,102,7320053,,,,,,,2024-10-04,1,,,,,アイシーユー,0
834,3240001063886,新規,0,2024-10-04,2024-10-04,株式会社伸和,,株式会社,広島県,広島市東区,光町２丁目３番７－２０９号,,34,102,7320052,,,,,,,2024-10-04,1,,,,,シンワ,0
835,3240001063894,新規,0,2024-10-04,2024-10-04,株式会社プレジール,,株式会社,広島県,呉市,広古新開７丁目２９番６‐２０２号,,34,202,7370112,,,,,,,2024-10-04,1,,,,,プレジール,0
836,3240001063903,新規,0,2024-10-04,2024-10-04,株式会社ＡＳＵＣＡＲＥ,,株式会社,広島県,広島市中区,西十日市町１番１３号ＣＡＳＡ・ＡＬＭＥＺ２階,,34,101,7300806,,,,,,,2024-10-04,1,,,,,アスケア,0
838,3240003006884,新規,0,2024-10-04,2024-10-04,ＫＦＣ合同会社,,合同会社,広島県,広島市西区,庚午中３丁目１２番１３号,,34,104,7330822,,,,,,,2024-10-04,1,,,,,ケイエフシー,0
839,3240005015842,新規,0,2024-10-04,2024-10-04,一般社団法人日本医療福祉評価機構,,その他の設立登記法人,広島県,広島市東区,牛田中１丁目１番１１号,,34,102,7320065,,,,,,,2024-10-04,1,,,,,ニホンイリョウフクシヒョウカキコウ,0
849,3260003004911,新規,0,2024-10-04,2024-10-04,ＦＫサポート合同会社,,合同会社,岡山県,倉敷市,中庄９６９番地５,,33,202,7100016,,,,,,,2024-10-04,1,,,,,エフケーサポート,0
851,3290001107390,新規,0,2024-10-04,2024-10-04,株式会社Ｇｒａｎｄ　Ｓｔｙｌｅ,,株式会社,福岡県,久留米市,城島町大依１２番地３,,40,203,8300205,,,,,,,2024-10-04,1,,,,,グランドスタイル,0
852,3290001107416,新規,0,2024-10-04,2024-10-04,岩吉株式会社,,株式会社,福岡県,福岡市博多区,博多駅前３丁目１４番２２－５０３号,,40,132,8120011,,,,,,,2024-10-04,1,,,,,ガンキチ,0
853,3290001107449,新規,0,2024-10-04,2024-10-04,株式会社ＡＲＡＴＡ,,株式会社,福岡県,福岡市西区,今宿西二丁目５番４号エムスクエア１０６,,40,135,8190000,,,,,,,2024-10-04,1,,,,,アラタ,0
854,3290001107465,新規,0,2024-10-04,2024-10-04,株式会社フルタクト,,株式会社,福岡県,久留米市,篠山町２４７番地,,40,203,8300021,,,,,,,2024-10-04,1,,,,,フルタクト,0
855,3290001107473,新規,0,2024-10-04,2024-10-04,株式会社クロスコネクト,,株式会社,福岡県,糟屋郡須惠町,大字上須惠９６４番地２９,,40,344,8112114,,,,,,,2024-10-04,1,,,,,クロスコネクト,0
857,3290003015897,新規,0,2024-10-04,2024-10-04,合同会社カクテルジャーニー,,合同会社,福岡県,福岡市中央区,赤坂１丁目５番２４－７０３号,,40,133,8100042,,,,,,,2024-10-04,1,,,,,カクテルジャーニー,0
859,3290803004851,新規,0,2024-10-04,2024-10-04,ＭＰＳ合同会社,,合同会社,福岡県,築上郡築上町,大字椎田７９１番地１０,,40,647,8290301,,,,,,,2024-10-04,1,,,,,エムピーエス,0
862,3310001019237,新規,0,2024-10-04,2024-10-04,株式会社ＫＫＣ,,株式会社,長崎県,諫早市,鷲崎町７５６番地１,,42,204,8540051,,,,,,,2024-10-04,1,,,,,ケーケーシー,0
863,3310001019245,新規,0,2024-10-04,2024-10-04,株式会社藤緒,,株式会社,長崎県,長崎市,鍛冶屋町６番１号六番館ビル４階,,42,201,8500831,,,,,,,2024-10-04,1,,,,,フジオ,0
864,3310001019253,新規,0,2024-10-04,2024-10-04,株式会社Ｄ　ＴＲＥＡＳＵＲＥ　ＧＲＯＵＰ,,株式会社,長崎県,諫早市,小野町２８５番地６－Ｏ．Ｃガーデン２０５,,42,204,8540034,,,,,,,2024-10-04,1,,,,,ディートレジャーグループ,0
865,3320001020739,新規,0,2024-10-04,2024-10-04,株式会社ＮＣＡＯ,,株式会社,大分県,中津市,大字宮夫１９５番地３,,44,203,8710012,,,,,,,2024-10-04,1,,,,,エヌシーエーオー,0
868,3350001019209,新規,0,2024-10-04,2024-10-04,株式会社Ｒｕｍｉｒｙｕｔｏ,,株式会社,宮崎県,都城市,北原町１８街区１９号１Ｆ,,45,202,8850024,,,,,,,2024-10-04,1,,,,,ルミリュート,0
869,3350003004761,新規,0,2024-10-04,2024-10-04,合同会社Ｏｎ,,合同会社,宮崎県,宮崎市,松山１丁目７番７号カロン旭通り１Ｆ,,45,201,8800865,,,,,,,2024-10-04,1,,,,,オン,0
870,3360001034248,新規,0,2024-10-04,2024-10-04,Ａ＆Ｇクリエイト株式会社,,株式会社,沖縄県,那覇市,字国場４２０番地・１０２,,47,201,9020075,,,,,,,2024-10-04,1,,,,,エーアンドジークリエイト,0
871,3360001034256,新規,0,2024-10-04,2024-10-04,ＢｌｕｅＲｏｓｅ株式会社,,株式会社,沖縄県,沖縄市,高原５丁目１４－６ミルコマンション高原サンライズビュー１４０６,,47,211,9042171,,,,,,,2024-10-04,1,,,,,ブルーローズ,0
873,3360003014355,新規,0,2024-10-04,2024-10-04,ＭＡＴＩＣ合同会社,,合同会社,沖縄県,那覇市,銘苅３丁目９－２２ＫＡキャンディービル２階,,47,201,9000004,,,,,,,2024-10-04,1,,,,,マティック,0
876,3370001051770,新規,0,2024-10-04,2024-10-04,株式会社Ｔ‐ｃｒａｆｔ,,株式会社,宮城県,栗原市,金成翁留１９番地１,,04,213,9895141,,,,,,,2024-10-04,1,,,,,ティークラフト,0
881,3390001017761,新規,0,2024-10-04,2024-10-04,株式会社すずきコンクリート工業,,株式会社,山形県,西村山郡河北町,大字溝延字小堤７９番地の３,,06,321,9993522,,,,,,,2024-10-04,1,,,,,スズキコンクリートコウギョウ,0
883,3390003002290,新規,0,2024-10-04,2024-10-04,サード合同会社,,合同会社,山形県,天童市,芳賀タウン北３丁目６番１４号,,06,210,9940082,,,,,,,2024-10-04,1,,,,,サード,0
884,3410001013956,新規,0,2024-10-04,2024-10-04,ＫＩ　Ｃｈｅｍｉｃａｌ株式会社,,株式会社,秋田県,潟上市,昭和大久保字北野蓮沼前山１番地５６,,05,211,0181401,,,,,,,2024-10-04,1,,,,,ケイアイケミカル,0
885,3420003003005,新規,0,2024-10-04,2024-10-04,合同会社ササモト室内装,,合同会社,青森県,八戸市,大字白銀町字南ケ丘９番地４関下貸家２号,,02,203,0310822,,,,,,,2024-10-04,1,,,,,ササモトシツナイソウ,0
886,3430001092783,新規,0,2024-10-04,2024-10-04,ＧＪＣ株式会社,,株式会社,北海道,札幌市中央区,南一条西１７丁目１番１０号,,01,101,0600061,,,,,,,2024-10-04,1,,,,,ジージェイシー,0
887,3430001092791,新規,0,2024-10-04,2024-10-04,ＧＯＧ株式会社,,株式会社,北海道,札幌市北区,新川三条１４丁目５番２号フォレストＩＩＧ号,00136521,01,102,0010923,,,,,,,2024-10-04,1,,,,,ジーオージー,0
888,3430001092800,新規,0,2024-10-04,2024-10-04,株式会社三丁目ガレージ,,株式会社,北海道,札幌市白石区,本通３丁目南５番６号,,01,104,0030026,,,,,,,2024-10-04,1,,,,,サンチョウメガレージ,0
890,3430003016848,新規,0,2024-10-04,2024-10-04,ロックフーズ合同会社,,合同会社,北海道,岩見沢市,四条西１丁目２番地７,,01,210,0680024,,,,,,,2024-10-04,1,,,,,ロックフーズ,0
891,3430003016856,新規,0,2024-10-04,2024-10-04,Ｄａｎｓｔｅｐ合同会社,,合同会社,北海道,札幌市中央区,北六条西２６丁目３番６号,,01,101,0640826,,,,,,,2024-10-04,1,,,,,ダンステップ,0
893,3440001009506,新規,0,2024-10-04,2024-10-04,株式会社Ｔ．Ｓテック,,株式会社,北海道,函館市,北美原１丁目１１番２号,,01,202,0410807,,,,,,,2024-10-04,1,,,,,ティーエステック,0
894,3440003001634,新規,0,2024-10-04,2024-10-04,合同会社ビレッジベーカリー駒ヶ岳,,合同会社,北海道,茅部郡森町,字駒ケ岳４５２番地,,01,345,0492141,,,,,,,2024-10-04,1,,,,,ビレッジベーカリーコマガタケ,0
896,3460103001656,新規,0,2024-10-04,2024-10-04,たかはしメディカル＆コンサルティング合同会社,,合同会社,北海道,帯広市,自由が丘３丁目３番地７,,01,207,0802476,,,,,,,2024-10-04,1,,,,,タカハシメディカルアンドコンサルティング,0
901,3480003002182,新規,0,2024-10-04,2024-10-04,合同会社富士興業,,合同会社,徳島県,阿南市,那賀川町中島６２８番地１,,36,204,7791245,,,,,,,2024-10-04,1,,,,,フジコウギョウ,0
904,4010001248419,新規,0,2024-10-04,2024-10-04,株式会社ファソラ,,株式会社,東京都,千代田区,飯田橋１丁目８番９号ニューシティハイツ飯田橋７０７,,13,101,1020072,,,,,,,2024-10-04,1,,,,,ファソラ,0
905,4010001248749,新規,0,2024-10-04,2024-10-04,株式会社アントロット出版,,株式会社,東京都,中央区,東日本橋２丁目２番５号ジャコワ東日本橋９０１号,,13,102,1030004,,,,,,,2024-10-04,1,,,,,アントロットシュッパン,0
906,4010001248823,新規,0,2024-10-04,2024-10-04,株式会社オンシナジー,,株式会社,東京都,千代田区,二番町９－３ＴＨＥＢＡＳＥ麹町Ｗ－３１４号室,,13,101,1020084,,,,,,,2024-10-04,1,,,,,オンシナジー,0
909,4010003045095,新規,0,2024-10-04,2024-10-04,アドバイセス合同会社,,合同会社,東京都,中央区,月島３丁目２０番８－７１１号,,13,102,1040052,,,,,,,2024-10-04,1,,,,,アドバイセス,0
910,4010005038907,新規,0,2024-10-04,2024-10-04,一般社団法人日中経済文化促進会,,その他の設立登記法人,東京都,千代田区,神田富山町９－３神田東邦センタービル３階,,13,101,1010043,,,,,,,2024-10-04,1,,,,,ニッチュウケイザイブンカソクシンカイ,0
911,4010101016345,新規,0,2024-10-04,2024-10-04,株式会社東西総業,,株式会社,東京都,八王子市,大塚６５２番地１６,,13,201,1920352,,,,,,,2024-10-04,1,,,,,トウザイソウギョウ,0
912,4010101016353,新規,0,2024-10-04,2024-10-04,株式会社ＨＡＲＤＹ,,株式会社,東京都,八王子市,犬目町１０５６番地９,,13,201,1930802,,,,,,,2024-10-04,1,,,,,ハーディー,0
920,4010401185492,新規,0,2024-10-04,2024-10-04,株式会社Ｒａｎｄ３Ｄ,,株式会社,東京都,港区,港南２丁目１６番１号品川イーストワンタワー４Ｆ,,13,103,1080075,,,,,,,2024-10-04,1,,,,,アールアンドスリーディー,0
929,4010801035438,新規,0,2024-10-04,2024-10-04,株式会社グレイヘロン,,株式会社,東京都,大田区,大森西４丁目６番２－４０８号,,13,111,1430015,,,,,,,2024-10-04,1,,,,,グレイヘロン,0
931,4010803005125,新規,0,2024-10-04,2024-10-04,合同会社Ｄ‐ａｅｒｉａｌ,,合同会社,東京都,大田区,池上７丁目２９番１７号,,13,111,1460082,,,,,,,2024-10-04,1,,,,,ディーエアリアル,0
932,4010901056061,新規,0,2024-10-04,2024-10-04,株式会社世田谷経理代行センター,,株式会社,東京都,世田谷区,宮坂３丁目１０番３号宝ビル,,13,112,1560051,,,,,,,2024-10-04,1,,,,,セタガヤケイリダイコウセンター,0
936,4010903009389,新規,0,2024-10-04,2024-10-04,Ｐｉｌｏｔ　Ｐｅｎｇｕｉｎ合同会社,,合同会社,東京都,世田谷区,太子堂４丁目２７－２,,13,112,1540004,,,,,,,2024-10-04,1,,,,,パイロットペンギン,0
937,4010903009397,新規,0,2024-10-04,2024-10-04,ＹｕＰｒｏｖｉｓｉｏｎｓ＆Ｔｒａｄｉｎｇ合同会社,,合同会社,東京都,世田谷区,野沢３丁目３０番２－１０３号,,13,112,1540003,,,,,,,2024-10-04,1,,,,,ユープロビジョンズアンドトレーディング,0
940,4011001164960,新規,0,2024-10-04,2024-10-04,ＡＮＩ　ＲＯＢＯＴＩＣＳ　ＪＡＰＡＮ株式会社,,株式会社,東京都,渋谷区,幡ヶ谷１丁目１４番１４号スタンフォードアネックスビル３・４階,,13,113,1510072,,,,,,,2024-10-04,1,,,,,エーエヌアイロボティクスジャパン,0
941,4011001165001,新規,0,2024-10-04,2024-10-04,株式会社グッドベンチャーズ,,株式会社,東京都,渋谷区,宇田川町３６番２－１１０２号,,13,113,1500042,,,,,,,2024-10-04,1,,,,,グッドベンチャーズ,0
942,4011001165109,新規,0,2024-10-04,2024-10-04,株式会社ＣＬＡＣＣＹ　ＪＡＰＡＮ,,株式会社,東京都,渋谷区,恵比寿西２丁目４番８号ウィンド恵比寿ビル８Ｆ,,13,113,1500021,,,,,,,2024-10-04,1,,,,,クラッシージャパン,0
946,4011101108982,新規,0,2024-10-04,2024-10-04,Ｂｌｉｎｃｌｅ株式会社,,株式会社,東京都,新宿区,西新宿３丁目３番１３号西新宿水間ビル２Ｆ,,13,104,1600023,,,,,,,2024-10-04,1,,,,,ブリンクル,0
953,4011501031223,新規,0,2024-10-04,2024-10-04,Ｍｉｃｒｏｓｔｏｎｅ株式会社,,株式会社,東京都,北区,豊島５丁目２－２０ー８１７ヴェレーナ王子,,13,117,1140003,,,,,,,2024-10-04,1,,,,,マイクロストーン,0
956,4011801044916,新規,0,2024-10-04,2024-10-04,株式会社エクスプロー,,株式会社,東京都,葛飾区,亀有５丁目２８番１１号ジュネスサンプレイス３０１号,,13,122,1250061,,,,,,,2024-10-04,1,,,,,エクスプロー,0
957,4011801044940,新規,0,2024-10-04,2024-10-04,株式会社サンポイント,,株式会社,東京都,足立区,興野２丁目３０番３１号,,13,121,1230844,,,,,,,2024-10-04,1,,,,,サンポイント,0
958,4011803006484,新規,0,2024-10-04,2024-10-04,合同会社ＳＥＳＯＫＯ　ＰＪ,,合同会社,東京都,足立区,南花畑４丁目１３番３号,,13,121,1210062,,,,,,,2024-10-04,1,,,,,セソコプロジェクト,0
960,4012401042343,新規,0,2024-10-04,2024-10-04,ＲＸＮ株式会社,,株式会社,東京都,三鷹市,下連雀４丁目１７－１ドヌールキムラ３０１,,13,204,1810013,,,,,,,2024-10-04,1,,,,,アールエックスエヌ,0
962,4012701018480,新規,0,2024-10-04,2024-10-04,株式会社Ｓａｉｌｉｎｇ,,株式会社,東京都,西東京市,北原町１丁目１３番４号,,13,229,1880003,,,,,,,2024-10-04,1,,,,,セーリング,0
972,4020001159417,新規,0,2024-10-04,2024-10-04,株式会社ＳＨＡＩＫＨ＆ＳＯＮＳ,,株式会社,神奈川県,横浜市西区,北幸１丁目１１番１号水信ビル７階,,14,103,2200004,,,,,,,2024-10-04,1,,,,,シェイクアンドサンズ,0
974,4020003026978,新規,0,2024-10-04,2024-10-04,合同会社Ｍｉｃｈｅｌｌｅ,,合同会社,神奈川県,横浜市神奈川区,子安通３丁目３５３番地１６０２号,,14,102,2210021,,,,,,,2024-10-04,1,,,,,ミシェル,0
979,4021001083409,新規,0,2024-10-04,2024-10-04,株式会社いやさか,,株式会社,神奈川県,相模原市南区,西大沼３丁目４番２４号,,14,153,2520332,,,,,,,2024-10-04,1,,,,,イヤサカ,0
982,4021003015054,新規,0,2024-10-04,2024-10-04,合同会社ＭＲ　ＥＸＰＯＲＴ,,合同会社,神奈川県,座間市,栗原中央１丁目３７番２号,,14,216,2520014,,,,,,,2024-10-04,1,,,,,エムアールエクスポート,0
993,4040001135647,新規,0,2024-10-04,2024-10-04,株式会社印西ベース,,株式会社,千葉県,鎌ケ谷市,東道野辺４丁目３番６３号,,12,224,2730115,,,,,,,2024-10-04,1,,,,,インザイベース,0
994,4040001135655,新規,0,2024-10-04,2024-10-04,株式会社浩工業,,株式会社,千葉県,千葉市緑区,越智町７７７番地９６,,12,105,2670055,,,,,,,2024-10-04,1,,,,,ヒロコウギョウ,0
1001,4040003025912,新規,0,2024-10-04,2024-10-04,合同会社ＯＧＡＷＡ　ＦＡＲＭ,,合同会社,千葉県,印西市,小林４０９３番地１,,12,231,2701318,,,,,,,2024-10-04,1,,,,,オガワファーム,0
1002,4040003025937,新規,0,2024-10-04,2024-10-04,合同会社ＤＭ１９号,,合同会社,千葉県,柏市,柏４丁目５番１０号,,12,217,2770005,,,,,,,2024-10-04,1,,,,,ディーエムジュウキュウゴウ,0
1005,4050005013492,新規,0,2024-10-04,2024-10-04,特定非営利活動法人暮らしっくす,,その他の設立登記法人,茨城県,守谷市,百合ケ丘３丁目２７９５番地の２２,,08,224,3020110,,,,,,,2024-10-04,1,,,,,クラシックス,0
1012,4080001026520,新規,0,2024-10-04,2024-10-04,株式会社ニューワールド,,株式会社,静岡県,島田市,井口７７４番地１,,22,209,4270104,,,,,,,2024-10-04,1,,,,,ニューワールド,0
1013,4080003003303,新規,0,2024-10-04,2024-10-04,合同会社日越ランゲージサービス,,合同会社,静岡県,静岡市清水区,船越２丁目９番３１号パークゲート船越１号,,22,103,4240866,,,,,,,2024-10-04,1,,,,,ニチエツランゲージサービス,0
1014,4080101025034,新規,0,2024-10-04,2024-10-04,株式会社グリード,,株式会社,静岡県,富士宮市,黒田２６６番地の３,,22,207,4180034,,,,,,,2024-10-04,1,,,,,グリード,0
1015,4080101025042,新規,0,2024-10-04,2024-10-04,ＳＫＫ株式会社,,株式会社,静岡県,富士市,中之郷１３２番地の３プライムステージ富士川２０１号,,22,210,4213306,,,,,,,2024-10-04,1,,,,,エスケーケー,0
1018,4080403005114,新規,0,2024-10-04,2024-10-04,合同会社七福神,,合同会社,静岡県,磐田市,見付１６８３番地１０,,22,211,4380086,,,,,,,2024-10-04,1,,,,,シチフクジン,0
1038,4120001268760,新規,0,2024-10-04,2024-10-04,サンダーレーザージャパン株式会社,,株式会社,大阪府,大阪市西区,靱本町３丁目１０－２４兆豊阿波座ビル,,27,106,5500004,,,,,,,2024-10-04,1,,,,,サンダーレーザージャパン,0
1039,4120001268827,新規,0,2024-10-04,2024-10-04,富樺株式会社,,株式会社,大阪府,大阪市住之江区,粉浜１丁目３番２５－１０３号,,27,125,5590001,,,,,,,2024-10-04,1,,,,,トミカバ,0
1040,4120001268975,新規,0,2024-10-04,2024-10-04,南方屋株式会社,,株式会社,大阪府,大阪市天王寺区,清水谷町２０番９号,,27,109,5430011,,,,,,,2024-10-04,1,,,,,ナンポウヤ,0
1041,4120001269040,新規,0,2024-10-04,2024-10-04,株式会社リバリスタ,,株式会社,大阪府,大阪市浪速区,桜川２丁目１１番５－３０５号,,27,111,5560022,,,,,,,2024-10-04,1,,,,,リバリスタ,0
1047,4120101070348,新規,0,2024-10-04,2024-10-04,株式会社リツメン堺,,株式会社,大阪府,堺市西区,上野芝町１丁２２番２７号,,27,144,5938301,,,,,,,2024-10-04,1,,,,,リツメンサカイ,0
1054,4120901049847,新規,0,2024-10-04,2024-10-04,ＴｈｒｉｖｅｓＴｅｐ株式会社,,株式会社,大阪府,高槻市,上田辺町１５番１７ー２０３号,,27,207,5690805,,,,,,,2024-10-04,1,,,,,スライブステップ,0
1059,4130001078044,新規,0,2024-10-04,2024-10-04,株式会社ＤＡＮＴＥ,,株式会社,京都府,宇治市,槇島町一ノ坪３１８番地の４０,,26,204,6110041,,,,,,,2024-10-04,1,,,,,ダンテ,0
1071,4140001135991,新規,0,2024-10-04,2024-10-04,株式会社大原モータース,,株式会社,兵庫県,川辺郡猪名川町,広根字北野尻３２番地の１,,28,301,6660252,,,,,,,2024-10-04,1,,,,,オオハラモータース,0
1072,4140001136008,新規,0,2024-10-04,2024-10-04,株式会社豊一住設,,株式会社,兵庫県,姫路市,継２８９番地４プレッソ姫路東２棟２０２号室,,28,201,6728004,,,,,,,2024-10-04,1,,,,,トヨイチジュウセツ,0
1073,4140001136024,新規,0,2024-10-04,2024-10-04,株式会社１８番Ｄｅｐｏｔ,,株式会社,兵庫県,神戸市中央区,伊藤町１１０－２神戸ポートビル旧居留地７Ｆ－０３,,28,110,6500032,,,,,,,2024-10-04,1,,,,,ジュウハチバンデポ,0
1075,4140003021141,新規,0,2024-10-04,2024-10-04,Ｒｅｌａｔｉｏｎｓ’Ｐｌａｎｅｔ合同会社,,合同会社,兵庫県,神戸市東灘区,住吉本町１丁目１０番４６－４０２号,,28,101,6580051,,,,,,,2024-10-04,1,,,,,リレーションズプラネット,0
1076,4140003021158,新規,0,2024-10-04,2024-10-04,合同会社ベネケア訪問看護ステーション,,合同会社,兵庫県,伊丹市,北河原３丁目２番１７－４０７号,,28,207,6640837,,,,,,,2024-10-04,1,,,,,ベネケアホウモンカンゴステーション,0
1078,4150003003386,新規,0,2024-10-04,2024-10-04,合同会社光栄,,合同会社,奈良県,生駒市,俵口町１３９９番地１１,,29,209,6300243,,,,,,,2024-10-04,1,,,,,コウエイ,0
1091,4180001163295,新規,0,2024-10-04,2024-10-04,株式会社カネヤス,,株式会社,愛知県,名古屋市熱田区,切戸町３丁目１８番,,23,109,4560076,,,,,,,2024-10-04,1,,,,,カネヤス,0
1092,4180001163519,新規,0,2024-10-04,2024-10-04,株式会社工具楽屋,,株式会社,愛知県,清須市,春日立作３８番地,,23,233,4520962,,,,,,,2024-10-04,1,,,,,クグラヤ,0
1095,4180003027432,新規,0,2024-10-04,2024-10-04,合同会社Ｍｉｒａｉｆｕ,,合同会社,愛知県,稲沢市,祖父江町山崎鶴塚３番地１０１,00136536,23,220,4950002,,,,,,,2024-10-04,1,,,,,ミライフ,0
1098,4180301039105,新規,0,2024-10-04,2024-10-04,わいわい株式会社,,株式会社,愛知県,岡崎市,上六名３丁目９番地１‐Ｃ１２０５,,23,202,4440858,,,,,,,2024-10-04,1,,,,,ワイワイ,0
1099,4190003004810,新規,0,2024-10-04,2024-10-04,合同会社Ｔｏｐｅｋａ,,合同会社,三重県,津市,半田６００番地１,,24,201,5140823,,,,,,,2024-10-04,1,,,,,トピカ,0
1100,4190003004819,新規,0,2024-10-04,2024-10-04,合同会社ＧｉｖｅＮｅｓｓ,,合同会社,三重県,鳥羽市,石鏡町２０７,,24,211,5170026,,,,,,,2024-10-04,1,,,,,ギブネス,0
1104,4230001020549,新規,0,2024-10-04,2024-10-04,株式会社野村住設,,株式会社,富山県,射水市,南高木２７７番地,,16,211,9390282,,,,,,,2024-10-04,1,,,,,ノムラジュウセツ,0
1107,4240001063877,新規,0,2024-10-04,2024-10-04,株式会社ＳＫＹ建築設計事務所,,株式会社,広島県,広島市佐伯区,楽々園１丁目２番１５－６０２号,,34,108,7315136,,,,,,,2024-10-04,1,,,,,スカイケンチクセッケイジムショ,0
1108,4240001063885,新規,0,2024-10-04,2024-10-04,株式会社佐々木八重子の店,,株式会社,広島県,廿日市市,宮島町３８９番地２,,34,213,7390588,,,,,,,2024-10-04,1,,,,,ササキヤエコノミセ,0
1109,4240001063902,新規,0,2024-10-04,2024-10-04,興達産業株式会社,,株式会社,広島県,東広島市,志和町別府１７６９番地３,,34,212,7390267,,,,,,,2024-10-04,1,,,,,コウタツサンギョウ,0
1111,4240003006875,新規,0,2024-10-04,2024-10-04,合同会社クリエイトコネクト,,合同会社,広島県,広島市安佐南区,大塚西３丁目６番４０－８号,00136523,34,105,7313167,,,,,,,2024-10-04,1,,,,,クリエイトコネクト,0
1112,4240003006883,新規,0,2024-10-04,2024-10-04,合同会社ＮＩＣＯＮ,,合同会社,広島県,広島市中区,八丁堀１２番５号３階,,34,101,7300013,,,,,,,2024-10-04,1,,,,,ニコン,0
1121,4260001039529,新規,0,2024-10-04,2024-10-04,株式会社マイゾウ,,株式会社,岡山県,岡山市北区,今３丁目１０番１０号,,33,101,7000975,,,,,,,2024-10-04,1,,,,,マイゾウ,0
1127,4290001107407,新規,0,2024-10-04,2024-10-04,株式会社Ｆａｒｏｕｔ,,株式会社,福岡県,久留米市,国分町１１１７番地８,,40,203,8390863,,,,,,,2024-10-04,1,,,,,ファーアウト,0
1128,4290001107415,新規,0,2024-10-04,2024-10-04,鴻福株式会社,,株式会社,福岡県,福岡市博多区,博多駅南６丁目８番３０－９２３号,,40,132,8120016,,,,,,,2024-10-04,1,,,,,コウフク,0
1129,4290001107423,新規,0,2024-10-04,2024-10-04,グローバルシナジー株式会社,,株式会社,福岡県,福岡市早良区,城西３丁目１２番２１－２０１号,,40,137,8140003,,,,,,,2024-10-04,1,,,,,グローバルシナジー,0
1130,4290001107431,新規,0,2024-10-04,2024-10-04,株式会社ビルドアップエス,,株式会社,福岡県,福岡市博多区,博多駅前３丁目１０番３４号３階,,40,132,8120011,,,,,,,2024-10-04,1,,,,,ビルドアップエス,0
1131,4290001107448,新規,0,2024-10-04,2024-10-04,株式会社ビリーヴ,,株式会社,福岡県,福岡市中央区,大手門２丁目５番２８－１２０４号,,40,133,8100074,,,,,,,2024-10-04,1,,,,,ビリーヴ,0
1132,4290001107456,新規,0,2024-10-04,2024-10-04,株式会社ｎｅｃｏ,,株式会社,福岡県,福岡市博多区,博多駅前３丁目２７番２５号,,40,132,8120011,,,,,,,2024-10-04,1,,,,,ネコ,0
1133,4290001107464,新規,0,2024-10-04,2024-10-04,株式会社炭とおがわ,,株式会社,福岡県,福岡市博多区,中洲５丁目２番５号３階Ｂ号室,,40,132,8100801,,,,,,,2024-10-04,1,,,,,スミトオガワ,0
1134,4290001107480,新規,0,2024-10-04,2024-10-04,ソレイユ株式会社,,株式会社,福岡県,大川市,大字一木１３９５番地１,,40,212,8310034,,,,,,,2024-10-04,1,,,,,ソレイユ,0
1135,4290001107539,新規,0,2024-10-04,2024-10-04,一鶴や株式会社,,株式会社,福岡県,大野城市,仲畑１丁目２０番１１号,,40,219,8160921,,,,,,,2024-10-04,1,,,,,イッカクヤ,0
1141,4290003015863,新規,0,2024-10-04,2024-10-04,合同会社ＭＩＣＨＩ,,合同会社,福岡県,福岡市早良区,原４丁目２５－１９－２０１,,40,137,8140022,,,,,,,2024-10-04,1,,,,,ミチ,0
1143,4290005019490,新規,0,2024-10-04,2024-10-04,一般社団法人日韓文化学研究交流会,,その他の設立登記法人,福岡県,福岡市南区,大橋２丁目２番１号マルイビル３０６号室,,40,134,8150033,,,,,,,2024-10-04,1,,,,,,0
1144,4290801030915,新規,0,2024-10-04,2024-10-04,株式会社ＳＦＣプランニング,,株式会社,福岡県,北九州市若松区,二島１丁目４番１４号,,40,103,8080103,,,,,,,2024-10-04,1,,,,,エスエフシープランニング,0
1147,4290803004850,新規,0,2024-10-04,2024-10-04,合同会社Ｉｒｉｄｅｓｃｅｎｔ,,合同会社,福岡県,遠賀郡岡垣町,大字手野２１６番地５,,40,383,8114204,,,,,,,2024-10-04,1,,,,,イリディセント,0
1153,4320001020738,新規,0,2024-10-04,2024-10-04,株式会社Ｍｉｎａｔｏ,,株式会社,大分県,別府市,石垣東１０丁目５番４５－５１１号日興パレスグランテージ別府,,44,202,8740919,,,,,,,2024-10-04,1,,,,,ミナト,0
1154,4330001032518,新規,0,2024-10-04,2024-10-04,株式会社ＹＡＭＡＧＵＣＨＩ,,株式会社,熊本県,葦北郡津奈木町,大字福浜４２６８番地９,,43,484,8695605,,,,,,,2024-10-04,1,,,,,ヤマグチ,0
1155,4330001032526,新規,0,2024-10-04,2024-10-04,株式会社本富,,株式会社,熊本県,熊本市北区,植木町滴水７２番１,,43,105,8610133,,,,,,,2024-10-04,1,,,,,ホントミ,0
1164,4350001019208,新規,0,2024-10-04,2024-10-04,株式会社ＣＬＭ,,株式会社,宮崎県,宮崎市,神宮西２丁目１８１番地,,45,201,8800033,,,,,,,2024-10-04,1,,,,,シーエルエム,0
1165,4360001034230,新規,0,2024-10-04,2024-10-04,株式会社ＫＵＯＮ,,株式会社,沖縄県,宜野湾市,大山１丁目１２番３２号,,47,205,9012223,,,,,,,2024-10-04,1,,,,,クオン,0
1166,4360001034255,新規,0,2024-10-04,2024-10-04,株式会社ＬＩＧＡＬＥＱ,,株式会社,沖縄県,宜野湾市,真志喜２丁目１－２奥浜ビル３０３,,47,205,9012224,,,,,,,2024-10-04,1,,,,,リガレック,0
1167,4360003014346,新規,0,2024-10-04,2024-10-04,合同会社ＧＬＯＢＡＬ　ＷＡＲＭＴＨ,,合同会社,沖縄県,名護市,大東３丁目４番１９号,,47,209,9050016,,,,,,,2024-10-04,1,,,,,グローバルウォームス,0
1172,4390001017760,新規,0,2024-10-04,2024-10-04,株式会社Ｓ電工,,株式会社,山形県,山形市,大字上宝沢１１６番地,,06,201,9900017,,,,,,,2024-10-04,1,,,,,エスデンコウ,0
1175,4410003003995,新規,0,2024-10-04,2024-10-04,Ｐａｔｒｕｓ　Ｓｏｌｕｔｉｏｎ合同会社,,合同会社,秋田県,秋田市,南通築地３―１１ドットビル２０２号室,,05,201,0100013,,,,,,,2024-10-04,1,,,,,パトルスソルーション,0
1176,4420003003004,新規,0,2024-10-04,2024-10-04,合同会社スタジオ・２グラム,,合同会社,青森県,青森市,桂木２丁目５番地２２,,02,201,0300844,,,,,,,2024-10-04,1,,,,,スタジオテンニグラム,0
1180,4430001092782,新規,0,2024-10-04,2024-10-04,株式会社Ｆｏｕｒ‐Ｃテクノス,,株式会社,北海道,北広島市,大曲緑ヶ丘３丁目１５番地１１,,01,234,0611276,,,,,,,2024-10-04,1,,,,,フォーシーテクノス,0
1185,4440001009505,新規,0,2024-10-04,2024-10-04,株式会社函館自動車工業準備会社,,株式会社,北海道,函館市,大手町３番１５号,,01,202,0400064,,,,,,,2024-10-04,1,,,,,ハコダテジドウシャコウギョウジュンビカイシャ,0
1186,4440003001633,新規,0,2024-10-04,2024-10-04,合同会社レクエルドフーズ,,合同会社,北海道,函館市,東川町２番３号,,01,202,0400042,,,,,,,2024-10-04,1,,,,,レクエルドフーズ,0
1188,4450001014421,新規,0,2024-10-04,2024-10-04,株式会社雪景色,,株式会社,北海道,旭川市,新富二条１丁目６番４号Ｉ・Ｍ・Ｓ　Ｂ棟Ｆ号室,,01,204,0700002,,,,,,,2024-10-04,1,,,,,ユキケシキ,0
1189,4460103001655,新規,0,2024-10-04,2024-10-04,合同会社Ａ．Ｗ．Ｒ,,合同会社,北海道,中川郡幕別町,札内桜町８５－１４,,01,643,0890535,,,,,,,2024-10-04,1,,,,,エーダブルアール,0
1192,4470001020401,新規,0,2024-10-04,2024-10-04,株式会社Ｋ’ｓ　ｓｅｒｖｉｃｅ,,株式会社,香川県,高松市,前田東町８５９番地７,,37,201,7610322,,,,,,,2024-10-04,1,,,,,ケーズサービス,0
1211,5010001248715,新規,0,2024-10-04,2024-10-04,株式会社サローアドバイザリー,,株式会社,東京都,文京区,千駄木２丁目２８番５号,,13,105,1130022,,,,,,,2024-10-04,1,,,,,サローアドバイザリー,0
1212,5010001248772,新規,0,2024-10-04,2024-10-04,株式会社Ｒｏｕｔｉｎｇ　Ｔａｂｌｅ,,株式会社,東京都,千代田区,神田須田町１丁目７番８号ＶＯＲＴ秋葉原ＩＶ２Ｆ,00136526,13,101,1010041,,,,,,,2024-10-04,1,,,,,ルーティングテーブル,0
1213,5010001248806,新規,0,2024-10-04,2024-10-04,株式会社プレミアムダイニング,,株式会社,東京都,中央区,銀座６丁目１２番１２号７Ｆ,,13,102,1040061,,,,,,,2024-10-04,1,,,,,プレミアムダイニング,0
1214,5010001248888,新規,0,2024-10-04,2024-10-04,株式会社マルガメ,,株式会社,東京都,文京区,水道２丁目４番２５号,,13,105,1120005,,,,,,,2024-10-04,1,,,,,マルガメ,0
1216,5010003045086,新規,0,2024-10-04,2024-10-04,合同会社バリイド,,合同会社,東京都,中央区,銀座１丁目１２－４Ｎ＆Ｅ．ＢＬＤ．７階,,13,102,1040061,,,,,,,2024-10-04,1,,,,,バリイド,0
1220,5010005038897,新規,0,2024-10-04,2024-10-04,一般社団法人ＨＡＫＫＥＮ,,その他の設立登記法人,東京都,千代田区,神田須田町１丁目７番８号ＶＯＲＴ秋葉原ＩＶ２Ｆ,00136522,13,101,1010041,,,,,,,2024-10-04,1,,,,,ハッケン,0
1221,5010101016352,新規,0,2024-10-04,2024-10-04,株式会社オークテクノ,,株式会社,東京都,八王子市,大横町２番５号,,13,201,1920062,,,,,,,2024-10-04,1,,,,,オークテクノ,0
1223,5010103002425,新規,0,2024-10-04,2024-10-04,合同会社殿家,,合同会社,東京都,八王子市,めじろ台１丁目３１番地４,,13,201,1930833,,,,,,,2024-10-04,1,,,,,トノンチ,0
1228,5010401185392,新規,0,2024-10-04,2024-10-04,ＤＲＥＡＭ株式会社,,株式会社,東京都,港区,海岸１丁目２番１－３０７号,,13,103,1050022,,,,,,,2024-10-04,1,,,,,ドリーム,0
1229,5010401185434,新規,0,2024-10-04,2024-10-04,株式会社ＵＴＹ,,株式会社,東京都,港区,赤坂１丁目１２番３２号,,13,103,1070052,,,,,,,2024-10-04,1,,,,,ユーティーワイ,0
1231,5010403033541,新規,0,2024-10-04,2024-10-04,合同会社レイス,,合同会社,東京都,港区,虎ノ門１丁目１６－９双葉ビル１Ｆ,,13,103,1050001,,,,,,,2024-10-04,1,,,,,レイス,0
1236,5010701046591,新規,0,2024-10-04,2024-10-04,株式会社チーム三愛,,株式会社,東京都,品川区,東品川４丁目１番１６号,,13,109,1400002,,,,,,,2024-10-04,1,,,,,チームサンアイ,0
1237,5010701046641,新規,0,2024-10-04,2024-10-04,株式会社メディカバイス,,株式会社,東京都,品川区,小山４丁目８番６－７０３号,,13,109,1420062,,,,,,,2024-10-04,1,,,,,メディカバイス,0
1241,5010903009405,新規,0,2024-10-04,2024-10-04,合同会社サンズ,,合同会社,東京都,世田谷区,三宿２丁目２９番７号,,13,112,1540005,,,,,,,2024-10-04,1,,,,,サンズ,0
1242,5010905004676,新規,0,2024-10-04,2024-10-04,ＯＮＯＤＥＲＡ行政書士法人,,その他の設立登記法人,東京都,世田谷区,若林１丁目１１番１３号,,13,112,1540023,,,,,,,2024-10-04,1,,,,,オノデラ,0
1247,5011001164968,新規,0,2024-10-04,2024-10-04,株式会社ＨＷＳ,,株式会社,東京都,渋谷区,恵比寿４丁目５－２３ルイシャトレ２０６,,13,113,1500013,,,,,,,2024-10-04,1,,,,,エイチダブリューエス,0
1248,5011001164992,新規,0,2024-10-04,2024-10-04,ｎｏｅｎ株式会社,,株式会社,東京都,渋谷区,神宮前４丁目２８番５号,,13,113,1500001,,,,,,,2024-10-04,1,,,,,ノエン,0
1249,5011001165000,新規,0,2024-10-04,2024-10-04,株式会社ＫＡＮＥＫＯＮＥ,,株式会社,東京都,渋谷区,代々木１丁目２番１２号,,13,113,1510053,,,,,,,2024-10-04,1,,,,,カネコネ,0
1250,5011001165017,新規,0,2024-10-04,2024-10-04,株式会社ＶｉｓｉｏｎＡＩ,,株式会社,東京都,渋谷区,神泉町１０番１５号アネックス神泉３０１,,13,113,1500045,,,,,,,2024-10-04,1,,,,,ビジョンエイアイ,0
1251,5011001165099,新規,0,2024-10-04,2024-10-04,Ｃｏｃｏａ．ｌｉｆｅ株式会社,,株式会社,東京都,渋谷区,神宮前６丁目２３番４号桑野ビル２Ｆ,,13,113,1500001,,,,,,,2024-10-04,1,,,,,ココアライフ,0
1252,5011003020137,新規,0,2024-10-04,2024-10-04,合同会社Ｌｉｖｅ　Ｌｉｋｅ　ａ　Ｌｏｃａｌ,,合同会社,東京都,渋谷区,神南１丁目２３番１４号リージャス渋谷公園通りビル１Ｆ－８Ｆ,,13,113,1500041,,,,,,,2024-10-04,1,,,,,リブライクアローカル,0
1253,5011003020153,新規,0,2024-10-04,2024-10-04,Ｓｉｅｔｅ合同会社,,合同会社,東京都,渋谷区,渋谷２丁目１９－１５宮益坂ビルディング６０９,,13,113,1500002,,,,,,,2024-10-04,1,,,,,シエテ,0
1257,5011101109039,新規,0,2024-10-04,2024-10-04,アサイノ・テクノロジーズ株式会社,,株式会社,東京都,新宿区,西新宿３丁目３番１３号６Ｆ,,13,104,1600023,,,,,,,2024-10-04,1,,,,,アサイノテクノロジーズ,0
1261,5011501031214,新規,0,2024-10-04,2024-10-04,株式会社ＳＳＡ,,株式会社,東京都,北区,志茂２丁目３５番１８号ロイヤルオーク１０５号,,13,117,1150042,,,,,,,2024-10-04,1,,,,,エスエスエー,0
1263,5011503006247,新規,0,2024-10-04,2024-10-04,合同会社ＪＩＮ,,合同会社,東京都,北区,志茂２丁目４７番２号,,13,117,1150042,,,,,,,2024-10-04,1,,,,,ジン,0
1265,5011703003977,新規,0,2024-10-04,2024-10-04,富康製薬合同会社,,合同会社,東京都,江戸川区,平井５丁目４５番５号渡辺ハイツ１０１,,13,123,1320035,,,,,,,2024-10-04,1,,,,,トミヤスセイヤク,0
1266,5011801044865,新規,0,2024-10-04,2024-10-04,株式会社Ｓ＆Ｈ,,株式会社,東京都,足立区,東和３丁目１８番４号リヴィスタハイツ東和１０１,,13,121,1200003,,,,,,,2024-10-04,1,,,,,エスアンドエイチ,0
1267,5011801044923,新規,0,2024-10-04,2024-10-04,株式会社ＺＥＲＯ　ＣＲＡＦＴ,,株式会社,東京都,足立区,大谷田５丁目２７番５号,,13,121,1200001,,,,,,,2024-10-04,1,,,,,ゼロクラフト,0
1272,5012401042342,新規,0,2024-10-04,2024-10-04,株式会社ワンステップ,,株式会社,東京都,調布市,布田３丁目５２番地３,,13,208,1820024,,,,,,,2024-10-04,1,,,,,ワンステップ,0
1276,5013101009524,新規,0,2024-10-04,2024-10-04,株式会社イチカワ,,株式会社,東京都,青梅市,今寺１丁目８１８番地の７,,13,205,1980021,,,,,,,2024-10-04,1,,,,,イチカワ,0
1282,5020001019405,新規,0,2024-10-04,2024-10-04,株式会社朝日プラスチツク,,株式会社,神奈川県,横浜市港北区,新吉田町４００８番地１,,14,109,2230056,,,,,,,2024-10-04,1,,,,,アサヒプラスチック,0
1289,5020001159382,新規,0,2024-10-04,2024-10-04,株式会社ジャスティスセキュリティ,,株式会社,神奈川県,横浜市鶴見区,鶴見中央４丁目２番３号,,14,101,2300051,,,,,,,2024-10-04,1,,,,,ジャスティスセキュリティ,0
1290,5020001159416,新規,0,2024-10-04,2024-10-04,株式会社プラスワン,,株式会社,神奈川県,横浜市港南区,港南台５丁目１番１４－１０２号,,14,111,2340054,,,,,,,2024-10-04,1,,,,,プラスワン,0
1291,5020001159424,新規,0,2024-10-04,2024-10-04,株式会社Ｍｏｎｄ　ｄｅｓｉｇｎ,,株式会社,神奈川県,横浜市南区,共進町３丁目６０－１５０３号室,,14,105,2320015,,,,,,,2024-10-04,1,,,,,モンドデザイン,0
1292,5020001159498,新規,0,2024-10-04,2024-10-04,ＪＰ‐ＰＡＲＴＮＥＲＳ株式会社,,株式会社,神奈川県,横浜市旭区,万騎が原１４５番地１０,,14,112,2410836,,,,,,,2024-10-04,1,,,,,ジェーピーパートナーズ,0
1296,5020003026960,新規,0,2024-10-04,2024-10-04,合同会社ｔｒｕｅ　ｎａｔｕｒｅ,,合同会社,神奈川県,横浜市神奈川区,三枚町１８０－４,,14,102,2210862,,,,,,,2024-10-04,1,,,,,トゥルーネイチャー,0
1297,5020003026977,新規,0,2024-10-04,2024-10-04,スフィ合同会社,,合同会社,神奈川県,横浜市西区,平沼２丁目５番８－５０２号,,14,103,2200023,,,,,,,2024-10-04,1,,,,,スフィ,0
1298,5020005016555,新規,0,2024-10-04,2024-10-04,特定非営利活動法人マインドフルネス心理臨床センター,,その他の設立登記法人,神奈川県,横浜市西区,平沼１丁目４０番１号嶋森ビル８階,,14,103,2200023,,,,,,,2024-10-04,1,,,,,マインドフルネスシンリリンショウセンター,0
1299,5020005016563,新規,0,2024-10-04,2024-10-04,一般社団法人日本福建平譚同郷会,,その他の設立登記法人,神奈川県,横浜市中区,山下町２０２番地チャイナタウンビル１Ｆ,,14,104,2310023,,,,,,,2024-10-04,1,,,,,ニホンフッケンヘイタンドウキョウカイ,0
1301,5021001083382,新規,0,2024-10-04,2024-10-04,伸和ホールディングス株式会社,,株式会社,神奈川県,相模原市南区,東林間４丁目９番６号伸和ビル２Ｆ,,14,153,2520311,,,,,,,2024-10-04,1,,,,,シンワホールディングス,0
1302,5021001083390,新規,0,2024-10-04,2024-10-04,株式会社零,,株式会社,神奈川県,相模原市中央区,上溝４５８０番地１０,,14,152,2520243,,,,,,,2024-10-04,1,,,,,ゼロ,0
1303,5021001083399,新規,0,2024-10-04,2024-10-04,株式会社桜創建,,株式会社,神奈川県,綾瀬市,綾西１丁目７番１８号,,14,218,2521126,,,,,,,2024-10-04,1,,,,,サクラソウケン,0
1304,5021001083416,新規,0,2024-10-04,2024-10-04,株式会社プログ,,株式会社,神奈川県,伊勢原市,東大竹７６５番地の２,,14,214,2591133,,,,,,,2024-10-04,1,,,,,プログ,0
1305,5021001083424,新規,0,2024-10-04,2024-10-04,株式会社関戸塗装,,株式会社,神奈川県,相模原市緑区,寸沢嵐５９６番地４,,14,151,2520176,,,,,,,2024-10-04,1,,,,,セキドトソウ,0
1312,5021005013195,新規,0,2024-10-04,2024-10-04,一般社団法人横須賀市ＰＴＡ協議会,,その他の設立登記法人,神奈川県,横須賀市,日の出町３丁目１９番地１６,,14,201,2380006,,,,,,,2024-10-04,1,,,,,ヨコスカシピーティーエーキョウギカイ,0
1318,5030001162699,新規,0,2024-10-04,2024-10-04,ｆｅｅｌｉｎｇ株式会社,,株式会社,埼玉県,川口市,戸塚南１丁目７番１０号,,11,203,3330817,,,,,,,2024-10-04,1,,,,,フィーリング,0
1319,5030001162740,新規,0,2024-10-04,2024-10-04,フジデン・リペア株式会社,,株式会社,埼玉県,北本市,山中１丁目２６５番地,,11,233,3640004,,,,,,,2024-10-04,1,,,,,フジデンリペア,0
1320,5030001162823,新規,0,2024-10-04,2024-10-04,株式会社オフィスパピヨン,,株式会社,埼玉県,川口市,大字東内野２２６番地の１サンライフ東川口１１０６号,,11,203,3330821,,,,,,,2024-10-04,1,,,,,オフィスパピヨン,0
1322,5030003025243,新規,0,2024-10-04,2024-10-04,Ｅｎｇｌｉｓｈ　Ｅｌｅｖａｔｉｏｎ合同会社,,合同会社,埼玉県,草加市,中根１丁目９－６オンワード中根２０１,,11,221,3400005,,,,,,,2024-10-04,1,,,,,イングリッシュエレベーション,0
1325,5040001135638,新規,0,2024-10-04,2024-10-04,株式会社すがろうセレモニー,,株式会社,千葉県,松戸市,栄町４丁目２０５番地の４,,12,207,2710062,,,,,,,2024-10-04,1,,,,,スガロウセレモニー,0
1326,5040001135646,新規,0,2024-10-04,2024-10-04,株式会社開伸,,株式会社,千葉県,香取郡東庄町,東和田３番地３,,12,349,2890636,,,,,,,2024-10-04,1,,,,,カイシン,0
1327,5040001135654,新規,0,2024-10-04,2024-10-04,イージス・アプリケーション株式会社,,株式会社,千葉県,流山市,大字西深井７２３番地の２１,,12,220,2700107,,,,,,,2024-10-04,1,,,,,イージスアプリケーション,0
1328,5040001135662,新規,0,2024-10-04,2024-10-04,Ｓ．Ｏインターナショナルトレード株式会社,,株式会社,千葉県,船橋市,西習志野４丁目３番２１号,,12,204,2740815,,,,,,,2024-10-04,1,,,,,エスオーインターナショナルトレード,0
1329,5040001135670,新規,0,2024-10-04,2024-10-04,Ｆａｂｕｌｏｕｓ　Ｉｎｔｅｒｎａｔｉｏｎａｌ株式会社,,株式会社,千葉県,船橋市,上山町１丁目２３６番地１ザ・ガーデンプレミアム１３１号,,12,204,2730046,,,,,,,2024-10-04,1,,,,,ファービュラスインターナショナル,0
1330,5040003025903,新規,0,2024-10-04,2024-10-04,三坂トラスト合同会社,,合同会社,千葉県,柏市,つくしが丘５丁目６番１２号,,12,217,2770072,,,,,,,2024-10-04,1,,,,,ミサカトラスト,0
1331,5040003025936,新規,0,2024-10-04,2024-10-04,合同会社ＤＭ１８号,,合同会社,千葉県,柏市,柏４丁目５番１０号,,12,217,2770005,,,,,,,2024-10-04,1,,,,,ディーエムジュウハチゴウ,0
1343,5060001037543,新規,0,2024-10-04,2024-10-04,株式会社ＩＳＫ,,株式会社,栃木県,足利市,西新井町３２７７番地９,,09,202,3260837,,,,,,,2024-10-04,1,,,,,アイエスケー,0
1344,5060003005267,新規,0,2024-10-04,2024-10-04,ＡＱ　ＴＲＡＤＩＮＧ合同会社,,合同会社,栃木県,小山市,大字犬塚５１番地１１７,,09,208,3230811,,,,,,,2024-10-04,1,,,,,エクトレーディング,0
1348,5080101025033,新規,0,2024-10-04,2024-10-04,株式会社エスケイ会計オフィス,,株式会社,静岡県,富士宮市,野中９４１番地の１,,22,207,4180039,,,,,,,2024-10-04,1,,,,,エスケイカイケイオフィス,0
1349,5080101025041,新規,0,2024-10-04,2024-10-04,株式会社アワーサウンド,,株式会社,静岡県,富士市,富士見台３丁目１番地の２７,,22,210,4170851,,,,,,,2024-10-04,1,,,,,アワーサウンド,0
1355,5080401027472,新規,0,2024-10-04,2024-10-04,株式会社ＭＭＹＮ,,株式会社,静岡県,磐田市,見付２０９１番地２,,22,211,4380086,,,,,,,2024-10-04,1,,,,,エムエムワイエヌ,0
1359,5110001038734,新規,0,2024-10-04,2024-10-04,株式会社縁,,株式会社,新潟県,新潟市西区,みずき野２丁目１４番１４号,,15,107,9502264,,,,,,,2024-10-04,1,,,,,エニシ,0
1360,5110001038750,新規,0,2024-10-04,2024-10-04,株式会社コダマ電器,,株式会社,新潟県,新潟市西区,五十嵐中島２丁目３０番７号,,15,107,9502162,,,,,,,2024-10-04,1,,,,,コダマデンキ,0
1368,5120001268850,新規,0,2024-10-04,2024-10-04,株式会社いろはのね,,株式会社,大阪府,大阪市港区,市岡元町１丁目１番３２号１階,,27,107,5520002,,,,,,,2024-10-04,1,,,,,イロハノネ,0
1369,5120001269007,新規,0,2024-10-04,2024-10-04,ＨＮ株式会社,,株式会社,大阪府,大阪市中央区,博労町１丁目６番１３－３０９号,,27,128,5410059,,,,,,,2024-10-04,1,,,,,エイチエヌ,0
1370,5120001269023,新規,0,2024-10-04,2024-10-04,株式会社イーヨ,,株式会社,大阪府,大阪市北区,芝田１丁目１番２６号,,27,127,5300012,,,,,,,2024-10-04,1,,,,,イーヨ,0
1372,5120003027643,新規,0,2024-10-04,2024-10-04,ジャパンハラールディベロップメントトラスト合同会社,,合同会社,大阪府,大阪市西淀川区,中島１丁目２３－１６,,27,113,5550041,,,,,,,2024-10-04,1,,,,,ジャパンハラールディベロップメントトラスト,0
1373,5120003027651,新規,0,2024-10-04,2024-10-04,合同会社ツールリンクス,,合同会社,大阪府,大阪市城東区,関目３丁目３番１９号,,27,118,5360008,,,,,,,2024-10-04,1,,,,,ツールリンクス,0
1374,5120003027668,新規,0,2024-10-04,2024-10-04,タカナ合同会社,,合同会社,大阪府,大阪市東淀川区,豊里５丁目１６番８－３０３号,,27,114,5330013,,,,,,,2024-10-04,1,,,,,タカナ,0
1378,5120101070355,新規,0,2024-10-04,2024-10-04,株式会社Ｃａｅｓａｒ,,株式会社,大阪府,和泉市,室堂町６２６番地１ＧｒａｎＦｅｌｉｚ１０６,,27,219,5941101,,,,,,,2024-10-04,1,,,,,カエサル,0
1382,5122001038498,新規,0,2024-10-04,2024-10-04,エステートパートナーズ株式会社,,株式会社,大阪府,東大阪市,西岩田４丁目１番７号,,27,227,5780947,,,,,,,2024-10-04,1,,,,,エステートパートナーズ,0
1383,5122003003013,新規,0,2024-10-04,2024-10-04,ＶＥＬＳＰＡＤＥ合同会社,,合同会社,大阪府,大東市,北条４丁目１番５号ラモーナ北条ＩＩ３０４号,00136517,27,218,5740011,,,,,,,2024-10-04,1,,,,,ヴェルスペード,0
1385,5130001078035,新規,0,2024-10-04,2024-10-04,和田ホールディングス株式会社,,株式会社,京都府,京都市北区,衣笠西馬場町２９番地,,26,101,6038366,,,,,,,2024-10-04,1,,,,,ワダホールディングス,0
1386,5130001078051,新規,0,2024-10-04,2024-10-04,珀弥株式会社,,株式会社,京都府,京都市左京区,吉田牛ノ宮町２４番地１３,,26,103,6068302,,,,,,,2024-10-04,1,,,,,ハクミ,0
1390,5140001136031,新規,0,2024-10-04,2024-10-04,株式会社ＳＨＩＮＺＯ,,株式会社,兵庫県,神戸市中央区,磯辺通１丁目１番１８号カサベラ国際プラザビル７０７,,28,110,6510084,,,,,,,2024-10-04,1,,,,,シンゾウ,0
1393,5150001027592,新規,0,2024-10-04,2024-10-04,株式会社ＦＵＪＩＭＯＴＯ,,株式会社,奈良県,桜井市,大字戒重１０６番地の８,,29,206,6330064,,,,,,,2024-10-04,1,,,,,フジモト,0
1404,5180003027431,新規,0,2024-10-04,2024-10-04,新日本建築合同会社,,合同会社,愛知県,名古屋市中区,丸の内２丁目１番３３号,,23,106,4600002,,,,,,,2024-10-04,1,,,,,シンニホンケンチク,0
1407,5180305009615,新規,0,2024-10-04,2024-10-04,社会保険労務士法人ミドリ社労士事務所,,その他の設立登記法人,愛知県,碧南市,白砂町２丁目２８番地,,23,209,4470076,,,,,,,2024-10-04,1,,,,,ミドリシャロウシジムショ,0
1411,5190003004818,新規,0,2024-10-04,2024-10-04,合同会社ＨＯＲＩＺＯＮ,,合同会社,三重県,四日市市,和無田町１０１２番地,,24,202,5121114,,,,,,,2024-10-04,1,,,,,ホライゾン,0
1414,5210001019930,新規,0,2024-10-04,2024-10-04,ＪＩＮホールディングス株式会社,,株式会社,福井県,坂井市,三国町緑ケ丘４丁目１５番３５号,,18,210,9130048,,,,,,,2024-10-04,1,,,,,ジンホールディングス,0
1417,5240001063892,新規,0,2024-10-04,2024-10-04,プロパティ・コンサルティング株式会社,,株式会社,広島県,広島市東区,中山中町１７番１号,,34,102,7320026,,,,,,,2024-10-04,1,,,,,プロパティコンサルティング,0
1419,5250001020827,新規,0,2024-10-04,2024-10-04,株式会社ＬＩＮＨＣＨＩ,,株式会社,山口県,下関市,彦島向井町１丁目１１番２０号,,35,201,7500084,,,,,,,2024-10-04,1,,,,,リンチー,0
1421,5260001039528,新規,0,2024-10-04,2024-10-04,オーエムアグリ株式会社,,株式会社,岡山県,備前市,三石１００番地９,,33,211,7050132,,,,,,,2024-10-04,1,,,,,オーエムアグリ,0
1425,5290001107414,新規,0,2024-10-04,2024-10-04,株式会社ＳＥＣＯＮＤ　ＣＡＲ　ＬＩＦＥ,,株式会社,福岡県,飯塚市,平塚１０２番地５,,40,205,8200702,,,,,,,2024-10-04,1,,,,,セカンドカーライフ,0
1426,5290001107430,新規,0,2024-10-04,2024-10-04,株式会社九州ドリーム,,株式会社,福岡県,福岡市博多区,博多駅南６丁目１３番４－１０１号,,40,132,8120016,,,,,,,2024-10-04,1,,,,,キュウシュウドリーム,0
1427,5290001107471,新規,0,2024-10-04,2024-10-04,株式会社アップワン,,株式会社,福岡県,福岡市中央区,長浜２丁目５－２２,,40,133,8100072,,,,,,,2024-10-04,1,,,,,アップワン,0
1429,5290003015887,新規,0,2024-10-04,2024-10-04,合同会社ＦＴＬ　Ｗｏｒｌｄｗｉｄｅ　Ｊａｐａｎ,,合同会社,福岡県,福岡市中央区,舞鶴３丁目３－９－１３０１号室,,40,133,8100073,,,,,,,2024-10-04,1,,,,,エフティエルワールドワイドジャパン,0
1430,5290003015904,新規,0,2024-10-04,2024-10-04,エム・アイ・シー合同会社,,合同会社,福岡県,宗像市,自由ヶ丘９丁目１番１号,,40,220,8114163,,,,,,,2024-10-04,1,,,,,エムアイシー,0
1434,5290801030914,新規,0,2024-10-04,2024-10-04,株式会社アフェクション,,株式会社,福岡県,北九州市八幡西区,椋枝２丁目１０番４８号,,40,109,8071115,,,,,,,2024-10-04,1,,,,,アフェクション,0
1435,5290801030922,新規,0,2024-10-04,2024-10-04,株式会社ＤＭＦ,,株式会社,福岡県,北九州市八幡西区,萩原１丁目１番５５－９０１号,,40,109,8060059,,,,,,,2024-10-04,1,,,,,ディエムエフ,0
1440,5320001020737,新規,0,2024-10-04,2024-10-04,株式会社ＧＡＩＮ,,株式会社,大分県,臼杵市,大字大野６２４番地,,44,206,8750004,,,,,,,2024-10-04,1,,,,,ゲイン,0
1442,5330001032517,新規,0,2024-10-04,2024-10-04,株式会社Ａ・Ｒ,,株式会社,熊本県,合志市,須屋１３１０番地６,,43,216,8611102,,,,,,,2024-10-04,1,,,,,エーアール,0
1445,5340001026823,新規,0,2024-10-04,2024-10-04,株式会社福山運送,,株式会社,鹿児島県,指宿市,大牟礼２丁目２７番７号,,46,210,8910401,,,,,,,2024-10-04,1,,,,,フクヤマウンソウ,0
1446,5340001026848,新規,0,2024-10-04,2024-10-04,株式会社くらしのそうごう,,株式会社,鹿児島県,鹿児島市,常盤１丁目１２－１Ｆステージ鹿児島中央壱番館１０３号,,46,201,8900047,,,,,,,2024-10-04,1,,,,,クラシノソウゴウ,0
1450,5340005009774,新規,0,2024-10-04,2024-10-04,郡山村農業會,,その他の設立登記法人,鹿児島県,鹿児島市,郡山町郡山４６番地,,46,201,8911105,,,,,,,2024-10-04,1,,,,,,0
1451,5350001019207,新規,0,2024-10-04,2024-10-04,株式会社ワンスタイル,,株式会社,宮崎県,宮崎市,下北方町戸林５２７７番地６,,45,201,8800035,,,,,,,2024-10-04,1,,,,,ワンスタイル,0
1458,5360001034254,新規,0,2024-10-04,2024-10-04,不動産Ｄｅｖ．ｌｉｎｋｌｅａｄ株式会社,,株式会社,沖縄県,那覇市,松尾１丁目１０番２４号ホークシティ那覇ビル１階,,47,201,9000014,,,,,,,2024-10-04,1,,,,,デブリンクリード,0
1459,5360001034270,新規,0,2024-10-04,2024-10-04,株式会社輪屋,,株式会社,沖縄県,那覇市,字天久８８３番地２シービューグランデＩＩ５０３,00136516,47,201,9000005,,,,,,,2024-10-04,1,,,,,ワヤ,0
1461,5360003014353,新規,0,2024-10-04,2024-10-04,合同会社Ｌｉｅｎ,,合同会社,沖縄県,うるま市,字西原７８４番地１４,,47,213,9042204,,,,,,,2024-10-04,1,,,,,リアン,0
1464,5370003006770,新規,0,2024-10-04,2024-10-04,合同会社常磐ラボ,,合同会社,宮城県,仙台市青葉区,八幡４丁目３番３８号,,04,101,9800871,,,,,,,2024-10-04,1,,,,,トキワラボ,0
1471,5430001092798,新規,0,2024-10-04,2024-10-04,株式会社ＩＣＥ　ＧＡＲＡＧＥ　ＰＡＩＮＴ,,株式会社,北海道,札幌市北区,拓北六条１丁目２番１３号,,01,102,0028066,,,,,,,2024-10-04,1,,,,,アイスガレージペイント,0
1472,5430001092807,新規,0,2024-10-04,2024-10-04,大進ホーム不動産株式会社,,株式会社,北海道,札幌市東区,東苗穂三条１丁目２番１号,,01,103,0070803,,,,,,,2024-10-04,1,,,,,タイシンホームフドウサン,0
1473,5430001092823,新規,0,2024-10-04,2024-10-04,ＡＲＴまほろば株式会社,,株式会社,北海道,札幌市豊平区,月寒西三条７丁目１番３３号,,01,105,0620023,,,,,,,2024-10-04,1,,,,,アートマホロバ,0
1483,5480001012611,新規,0,2024-10-04,2024-10-04,株式会社ＨａＲｕ,,株式会社,徳島県,板野郡上板町,高瀬２２７番地９,,36,405,7711347,,,,,,,2024-10-04,1,,,,,ハル,0
1495,6010001248739,新規,0,2024-10-04,2024-10-04,株式会社Ｍｉｎａｌｙ,,株式会社,東京都,中央区,銀座１丁目１２番４号Ｎ＆ＥＢＬＤ．６Ｆ,,13,102,1040061,,,,,,,2024-10-04,1,,,,,ミナリー,0
1496,6010001248763,新規,0,2024-10-04,2024-10-04,Ｂａｓｉｃ　Ｓｔｕｄｉｏ株式会社,,株式会社,東京都,千代田区,神田岩本町１番地１岩本町ビル３階,,13,101,1010033,,,,,,,2024-10-04,1,,,,,ベーシックスタジオ,0
1497,6010001248788,新規,0,2024-10-04,2024-10-04,株式会社ラジオＤＸアライアンス,,株式会社,東京都,千代田区,麹町１丁目７番地,,13,101,1020083,,,,,,,2024-10-04,1,,,,,ラジオディーエックスアライアンス,0
1498,6010001248796,新規,0,2024-10-04,2024-10-04,株式会社都市創造オフィス,,株式会社,東京都,中央区,日本橋室町２丁目１番１号日本橋三井タワー６階,,13,102,1030022,,,,,,,2024-10-04,1,,,,,トシソウゾウオフィス,0
1499,6010001248805,新規,0,2024-10-04,2024-10-04,事業承継コンサルタンツ株式会社,,株式会社,東京都,千代田区,丸の内１丁目８番３号丸の内トラストタワー本館２０階,,13,101,1000005,,,,,,,2024-10-04,1,,,,,ジギョウショウケイコンサルタンツ,0
1500,6010001248813,新規,0,2024-10-04,2024-10-04,ＨＡＮＧＣＨＡ　ＪＡＰＡＮ株式会社,,株式会社,東京都,千代田区,四番町４番２,,13,101,1020081,,,,,,,2024-10-04,1,,,,,ハンチャージャパン,0
1501,6010001248821,新規,0,2024-10-04,2024-10-04,株式会社インディードリクルートテクノロジーズ,,株式会社,東京都,千代田区,丸の内１丁目９番２号,,13,101,1000005,,,,,,,2024-10-04,1,,,,,インディードリクルートテクノロジーズ,0
1502,6010001248854,新規,0,2024-10-04,2024-10-04,株式会社Ｓｉｌｖｅｒ　Ｖａｌｌｅｙ　Ｆａｒｍｓ　Ｐａｃｉｆｉｃ,,株式会社,東京都,中央区,八丁堀２丁目１３番２号ドミノビル３０１号室,,13,102,1040032,,,,,,,2024-10-04,1,,,,,シルバーバレーファームズパシフィック,0
1505,6010003045085,新規,0,2024-10-04,2024-10-04,合同会社ＭＪＫ,,合同会社,東京都,千代田区,六番町６番４号ＬＨ番町スクエア５階,,13,101,1020085,,,,,,,2024-10-04,1,,,,,エムジェーケー,0
1507,6010005038888,新規,0,2024-10-04,2024-10-04,一般財団法人日本患者支援財団,,その他の設立登記法人,東京都,千代田区,丸の内１丁目１１番１号,,13,101,1000005,,,,,,,2024-10-04,1,,,,,ニホンカンジャシエンザイダン,0
1513,6010401185433,新規,0,2024-10-04,2024-10-04,株式会社Ｔｏｍｏｗｏｒｋｓ,,株式会社,東京都,港区,北青山１丁目３番１号アールキューブ青山３階,,13,103,1070061,,,,,,,2024-10-04,1,,,,,トモワークス,0
1514,6010401185441,新規,0,2024-10-04,2024-10-04,株式会社ＵＮＬＥＶＥＬ,,株式会社,東京都,港区,北青山１丁目３番１号アールキューブ青山３階,,13,103,1070061,,,,,,,2024-10-04,1,,,,,アンレベル,0
1515,6010401185466,新規,0,2024-10-04,2024-10-04,株式会社ハピレコ,,株式会社,東京都,港区,赤坂２丁目１３番１号,,13,103,1070052,,,,,,,2024-10-04,1,,,,,ハピレコ,0
1520,6010601066029,新規,0,2024-10-04,2024-10-04,ＧＲＥＥＮ　ＬＩＧＨＴ株式会社,,株式会社,東京都,江東区,青海２丁目７番４－９３２号,,13,108,1350064,,,,,,,2024-10-04,1,,,,,グリーンライト,0
1523,6010703007376,新規,0,2024-10-04,2024-10-04,Ａｓｃｅｎｄｉｎｇ　Ｄｅｖｅｌｏｐｍｅｎｔ合同会社,,合同会社,東京都,品川区,西品川３丁目１３番１７号,,13,109,1410033,,,,,,,2024-10-04,1,,,,,アセンディングディベロップメント,0
1525,6010903009395,新規,0,2024-10-04,2024-10-04,Ｈｅｄｇｅｈｏｇ　Ｂｒｏｗｎ合同会社,,合同会社,東京都,世田谷区,太子堂４丁目２７－２,,13,112,1540004,,,,,,,2024-10-04,1,,,,,ヘッジホッグブラウン,0
1526,6011001164694,新規,0,2024-10-04,2024-10-04,城十里株式会社,,株式会社,東京都,渋谷区,千駄ヶ谷３丁目５番１５－４０２号,,13,113,1510051,,,,,,,2024-10-04,1,,,,,ジョウジュウリ,0
1527,6011001165008,新規,0,2024-10-04,2024-10-04,株式会社ＳＢＣ２,,株式会社,東京都,渋谷区,代官山町８番１３号,,13,113,1500034,,,,,,,2024-10-04,1,,,,,エスビーシーツー,0
1529,6011003020103,新規,0,2024-10-04,2024-10-04,合同会社１ｓｔ,,合同会社,東京都,渋谷区,本町４丁目４９番１３号,,13,113,1510071,,,,,,,2024-10-04,1,,,,,ファースト,0
1530,6011003020136,新規,0,2024-10-04,2024-10-04,Ｋｉｔ＆Ｍｏｄａｌｉｔｉｅｓ合同会社,,合同会社,東京都,渋谷区,恵比寿西２丁目８番４号ＥＸ恵比寿西ビル５階,,13,113,1500021,,,,,,,2024-10-04,1,,,,,キトアンドモダリティズ,0
1532,6011101108972,新規,0,2024-10-04,2024-10-04,株式会社きらり,,株式会社,東京都,新宿区,西新宿６丁目１５番１－４１０８号,,13,104,1600023,,,,,,,2024-10-04,1,,,,,キラリ,0
1533,6011101109021,新規,0,2024-10-04,2024-10-04,青麦ホテル株式会社,,株式会社,東京都,新宿区,西早稲田１丁目十一番六号華青会ビル３０３号室,,13,104,1690051,,,,,,,2024-10-04,1,,,,,アオムギホテル,0
1538,6011501031221,新規,0,2024-10-04,2024-10-04,株式会社フィールドサポート,,株式会社,東京都,荒川区,西尾久４丁目６番６号辻岡ビル１０１号室,,13,118,1160011,,,,,,,2024-10-04,1,,,,,フィールドサポート,0
1544,6011801044922,新規,0,2024-10-04,2024-10-04,株式会社スマイルファクトリー,,株式会社,東京都,足立区,弘道１丁目４番２０号,,13,121,1200013,,,,,,,2024-10-04,1,,,,,スマイルファクトリー,0
1545,6011801044939,新規,0,2024-10-04,2024-10-04,株式会社ＳＴ‐ＯＮＥ,,株式会社,東京都,足立区,千住曙町４０番１－１７０３号,,13,121,1200023,,,,,,,2024-10-04,1,,,,,エスティーワン,0
1546,6012301014102,新規,0,2024-10-04,2024-10-04,ｍａｔｓｕ株式会社,,株式会社,東京都,町田市,本町田１３９６－２４,,13,209,1940032,,,,,,,2024-10-04,1,,,,,マツ,0
1547,6012303002055,新規,0,2024-10-04,2024-10-04,ビルドクリエイションスタイルズ合同会社,,合同会社,東京都,町田市,図師町２３９７番地,,13,209,1940203,,,,,,,2024-10-04,1,,,,,ビルドクリエイションスタイルズ,0
1551,6013101009523,新規,0,2024-10-04,2024-10-04,株式会社オネスト,,株式会社,東京都,羽村市,神明台１丁目１６番地２,,13,227,2050023,,,,,,,2024-10-04,1,,,,,オネスト,0
1559,6020001159381,新規,0,2024-10-04,2024-10-04,株式会社ＣＴＡ,,株式会社,神奈川県,横浜市瀬谷区,三ツ境１０５－２ナイスアーバン三ツ境７０５,,14,114,2460022,,,,,,,2024-10-04,1,,,,,クタ,0
1562,6020003026968,新規,0,2024-10-04,2024-10-04,リベラルアーツリーディング合同会社,,合同会社,神奈川県,横浜市旭区,中沢１丁目７番２３号,,14,112,2410814,,,,,,,2024-10-04,1,,,,,リベラルアーツリーディング,0
1563,6020003026976,新規,0,2024-10-04,2024-10-04,フィオリ合同会社,,合同会社,神奈川県,横浜市港北区,小机町１４９８番地Ｌｉｂｅｒｔｅ小机１０３,,14,109,2220036,,,,,,,2024-10-04,1,,,,,フィオリ,0
1564,6020005016554,新規,0,2024-10-04,2024-10-04,一般社団法人清真の木,,その他の設立登記法人,神奈川県,川崎市高津区,末長２丁目２３番７３号,,14,134,2130013,,,,,,,2024-10-04,1,,,,,セイシンノキ,0
1568,6021001083398,新規,0,2024-10-04,2024-10-04,株式会社ウィングビルドホールディングス,,株式会社,神奈川県,綾瀬市,深谷中８丁目１番１２号,,14,218,2521107,,,,,,,2024-10-04,1,,,,,ウィングビルドホールディングス,0
1569,6021001083415,新規,0,2024-10-04,2024-10-04,株式会社サーベイイングコンパス,,株式会社,神奈川県,藤沢市,湘南台１丁目２１番地３エンゼルハイムシバタ２－Ａ,,14,205,2520804,,,,,,,2024-10-04,1,,,,,サーベイイングコンパス,0
1570,6021001083423,新規,0,2024-10-04,2024-10-04,株式会社Ｓｕｐｐｏｒｔ　ｕｐ,,株式会社,神奈川県,相模原市南区,松が枝町１６番２－２号,,14,153,2520313,,,,,,,2024-10-04,1,,,,,サポートアップ,0
1576,6021003015060,新規,0,2024-10-04,2024-10-04,Ｂｌｕｅ　Ｄｒｅａｍ合同会社,,合同会社,神奈川県,平塚市,南豊田５２４－５,,14,203,2540084,,,,,,,2024-10-04,1,,,,,ブルードリーム,0
1581,6030001162707,新規,0,2024-10-04,2024-10-04,株式会社中山総業,,株式会社,埼玉県,東松山市,大字高坂８５１番地２Ｄ－ｒｏｏｍ高坂弐番町２０３,,11,212,3550047,,,,,,,2024-10-04,1,,,,,ナカヤマソウギョウ,0
1582,6030001162715,新規,0,2024-10-04,2024-10-04,株式会社ヒロキ,,株式会社,埼玉県,草加市,瀬崎３丁目３８番１９号,,11,221,3400022,,,,,,,2024-10-04,1,,,,,ヒロキ,0
1583,6030001162764,新規,0,2024-10-04,2024-10-04,株式会社Ｇａｒａｇｅ‐Ｓ,,株式会社,埼玉県,所沢市,大字南永井３５４番地３,,11,208,3590011,,,,,,,2024-10-04,1,,,,,ガレージエス,0
1584,6030001162789,新規,0,2024-10-04,2024-10-04,株式会社ＹＯＣ,,株式会社,埼玉県,北本市,高尾５丁目１２６番地１,,11,233,3640034,,,,,,,2024-10-04,1,,,,,ワイオーシー,0
1586,6030003025267,新規,0,2024-10-04,2024-10-04,峻徳合同会社,,合同会社,埼玉県,新座市,栄５丁目１番１８号,,11,230,3520014,,,,,,,2024-10-04,1,,,,,シュントク,0
1590,6040001135645,新規,0,2024-10-04,2024-10-04,株式会社イストス,,株式会社,千葉県,船橋市,東中山１丁目２１番１５号,,12,204,2730036,,,,,,,2024-10-04,1,,,,,イストス,0
1591,6040001135653,新規,0,2024-10-04,2024-10-04,株式会社Ｕ．Ｃ,,株式会社,千葉県,習志野市,奏の杜１丁目１６番３号,,12,216,2750028,,,,,,,2024-10-04,1,,,,,ユーシー,0
1592,6040001135661,新規,0,2024-10-04,2024-10-04,株式会社ファウンデーションデータ,,株式会社,千葉県,柏市,柏３１３番地１アインズコート柏５１５号,,12,217,2770005,,,,,,,2024-10-04,1,,,,,ファウンデーションデータデータ,0
1593,6040001135678,新規,0,2024-10-04,2024-10-04,国一管財ホールディングス株式会社,,株式会社,千葉県,市川市,妙典２丁目７番１８号,,12,203,2720111,,,,,,,2024-10-04,1,,,,,クニイチカンザイホールディングス,0
1594,6040001135686,新規,0,2024-10-04,2024-10-04,長海株式会社,,株式会社,千葉県,佐倉市,鍋山町３６番地１７,,12,212,2850033,,,,,,,2024-10-04,1,,,,,ナガミ,0
1595,6040001135694,新規,0,2024-10-04,2024-10-04,株式会社ＫＡＭＡＫＯＵ,,株式会社,千葉県,千葉市中央区,富士見２丁目２１番１号第二東和商事ビル６階,,12,101,2600015,,,,,,,2024-10-04,1,,,,,カマコウ,0
1596,6040001135711,新規,0,2024-10-04,2024-10-04,株式会社夕暮れ,,株式会社,千葉県,柏市,豊四季１３５－７クレセントコートおおたかの森３０５,,12,217,2770863,,,,,,,2024-10-04,1,,,,,ユウグレ,0
1602,6040003025828,新規,0,2024-10-04,2024-10-04,合同会社天然の森,,合同会社,千葉県,山武郡横芝光町,栗山２６８２番地３８,,12,410,2891733,,,,,,,2024-10-04,1,,,,,テンネンノモリ,0
1603,6040003025877,新規,0,2024-10-04,2024-10-04,かつうらＢＣ合同会社,,合同会社,千葉県,勝浦市,勝浦１５４番地,,12,218,2995234,,,,,,,2024-10-04,1,,,,,カツウラビーシー,0
1604,6040003025885,新規,0,2024-10-04,2024-10-04,グリーンフィールズ合同会社,,合同会社,千葉県,船橋市,金杉７丁目３８－１３,,12,204,2730853,,,,,,,2024-10-04,1,,,,,グリーンフィールズ,0
1605,6040003025919,新規,0,2024-10-04,2024-10-04,合同会社幕張シティ・マネジメント,,合同会社,千葉県,千葉市緑区,あすみが丘９丁目８番地１２,,12,105,2670066,,,,,,,2024-10-04,1,,,,,マクハリシティマネジメント,0
1607,6040005022526,新規,0,2024-10-04,2024-10-04,一般社団法人終活介護支援協議会,,その他の設立登記法人,千葉県,習志野市,袖ケ浦４丁目１９番３号,,12,216,2750021,,,,,,,2024-10-04,1,,,,,シュウカツカイゴシエンキョウギカイ,0
1613,6060001037542,新規,0,2024-10-04,2024-10-04,スマイルバトン株式会社,,株式会社,栃木県,真岡市,古山１３０５番地,,09,209,3214535,,,,,,,2024-10-04,1,,,,,スマイルバトン,0
1614,6060003005274,新規,0,2024-10-04,2024-10-04,マンドハイ商事合同会社,,合同会社,栃木県,宇都宮市,峰３丁目２４－９町田コーポ１階Ｄ号室,,09,201,3210942,,,,,,,2024-10-04,1,,,,,マンドハイショウジ,0
1622,6080001026519,新規,0,2024-10-04,2024-10-04,株式会社エスポワ,,株式会社,静岡県,静岡市葵区,羽鳥３丁目２０番２号,,22,101,4211215,,,,,,,2024-10-04,1,,,,,エスポワ,0
1623,6080001026527,新規,0,2024-10-04,2024-10-04,大滝塗装株式会社,,株式会社,静岡県,静岡市清水区,村松２２６９番地の４,,22,103,4240926,,,,,,,2024-10-04,1,,,,,オオタキトソウ,0
1624,6080101025040,新規,0,2024-10-04,2024-10-04,富士山商事株式会社,,株式会社,静岡県,沼津市,大岡１８１１番地の２,,22,203,4100022,,,,,,,2024-10-04,1,,,,,フジサンショウジ,0
1625,6080101025049,新規,0,2024-10-04,2024-10-04,株式会社たかしる,,株式会社,静岡県,三島市,新谷４８番地の２７,,22,206,4110834,,,,,,,2024-10-04,1,,,,,タカシル,0
1641,6120001268998,新規,0,2024-10-04,2024-10-04,聯合Ｅ＆Ｅ株式会社,,株式会社,大阪府,大阪市淀川区,西三国１丁目１７－１５シャトー西三国３階３０３,,27,123,5320006,,,,,,,2024-10-04,1,,,,,レンゴウイーアンドイー,0
1642,6120001269022,新規,0,2024-10-04,2024-10-04,クインタム株式会社,,株式会社,大阪府,大阪市西区,立売堀３丁目４－１９－７０１,,27,106,5500012,,,,,,,2024-10-04,1,,,,,クインタム,0
1643,6120001269039,新規,0,2024-10-04,2024-10-04,株式会社ＴＡＩＲＡ,,株式会社,大阪府,大阪市北区,芝田２丁目２番１７号和光ビルＢ１,,27,127,5300012,,,,,,,2024-10-04,1,,,,,タイラ,0
1644,6120001269047,新規,0,2024-10-04,2024-10-04,才谷屋株式会社,,株式会社,大阪府,大阪市西区,南堀江４丁目３番１９－３０３号,,27,106,5500015,,,,,,,2024-10-04,1,,,,,サイタニヤ,0
1645,6120001269055,新規,0,2024-10-04,2024-10-04,令和商事株式会社,,株式会社,大阪府,大阪市東住吉区,杭全１丁目１７－１７－５０５号室,,27,121,5460002,,,,,,,2024-10-04,1,,,,,レイワショウジ,0
1646,6120003027675,新規,0,2024-10-04,2024-10-04,関西街開発合同会社,,合同会社,大阪府,寝屋川市,香里本通町８番３－１３０７号,,27,215,5720082,,,,,,,2024-10-04,1,,,,,カンサイマチカイハツ,0
1651,6120101070354,新規,0,2024-10-04,2024-10-04,Ｔ＆Ｇ株式会社,,株式会社,大阪府,羽曳野市,広瀬３８６番地,,27,222,5830845,,,,,,,2024-10-04,1,,,,,ティーアンドジー,0
1652,6120101070370,新規,0,2024-10-04,2024-10-04,株式会社ＩＮＴＵ　ＧＬＯＢＡＬ　ＨＯＬＤＩＮＧＳ,,株式会社,大阪府,阪南市,舞２丁目９番４号,,27,232,5990224,,,,,,,2024-10-04,1,,,,,インツグローバルホールディングス,0
1661,6122001038506,新規,0,2024-10-04,2024-10-04,株式会社ｅｐｉｃ,,株式会社,大阪府,大東市,大野１丁目４番２５号,,27,218,5740042,,,,,,,2024-10-04,1,,,,,エピック,0
1663,6130003009895,新規,0,2024-10-04,2024-10-04,合同会社狗前屋,,合同会社,京都府,京都市東山区,小松町５６０番地コーポさかき３０４号室,,26,105,6050811,,,,,,,2024-10-04,1,,,,,イヌマエヤ,0
1664,6130005017194,新規,0,2024-10-04,2024-10-04,医療法人善光会,,その他の設立登記法人,京都府,京都市中京区,大宮通三条下る三条大宮町２４３番地,,26,104,6048336,,,,,,,2024-10-04,1,,,,,ゼンコウカイ,0
1666,6140001135957,新規,0,2024-10-04,2024-10-04,株式会社ＫＥＩ’ｓ　ＳＴＹＬＥ,,株式会社,兵庫県,尼崎市,南武庫之荘３丁目３４番３－１０５号,,28,202,6610033,,,,,,,2024-10-04,1,,,,,ケイズスタイル,0
1667,6140001135981,新規,0,2024-10-04,2024-10-04,株式会社ＣＲＡＳ,,株式会社,兵庫県,宝塚市,川面５丁目１０番４０号,,28,214,6650842,,,,,,,2024-10-04,1,,,,,クラス,0
1673,6160001026254,新規,0,2024-10-04,2024-10-04,株式会社Ｔｏ　Ａｄｖａｎｃｅ,,株式会社,滋賀県,大津市,大萱１丁目１６番３０号－３０３,,25,201,5202144,,,,,,,2024-10-04,1,,,,,トゥーアドバンス,0
1676,6180001163533,新規,0,2024-10-04,2024-10-04,キョーヤ産業株式会社,,株式会社,愛知県,名古屋市中川区,東中島町３丁目６７番地,,23,110,4540866,,,,,,,2024-10-04,1,,,,,キョーヤサンギョウ,0
1680,6180301039103,新規,0,2024-10-04,2024-10-04,株式会社ＦＬＥＸＥＲ　ＷＯＲＫＳ,,株式会社,愛知県,豊橋市,佐藤３丁目２４番地８,,23,201,4400853,,,,,,,2024-10-04,1,,,,,フレクサーワークス,0
1682,6190001031680,新規,0,2024-10-04,2024-10-04,アームテック株式会社,,株式会社,三重県,三重郡菰野町,大字菰野１０１８番地７,,24,341,5101233,,,,,,,2024-10-04,1,,,,,アームテック,0
1683,6190001031689,新規,0,2024-10-04,2024-10-04,ＩＸデジタル株式会社,,株式会社,三重県,伊勢市,小俣町相合１３０６番地,,24,203,5190502,,,,,,,2024-10-04,1,,,,,アイエックスデジタル,0
1684,6190003004809,新規,0,2024-10-04,2024-10-04,ＱｕａｚａｒＤｙｎａｍｉｃｓＪａｐａｎ合同会社,,合同会社,三重県,鈴鹿市,下大久保町２２２４番地,,24,207,5131123,,,,,,,2024-10-04,1,,,,,クアザールダイナミクスジャパン,0
1687,6200001043014,新規,0,2024-10-04,2024-10-04,株式会社誠和ＮＥＸＴ,,株式会社,岐阜県,岐阜市,島新町４番２２―５０２号,,21,201,5020907,,,,,,,2024-10-04,1,,,,,セイワネクスト,0
1688,6200003006522,新規,0,2024-10-04,2024-10-04,合同会社Ｃｈｏｕｄｈａｒｙ　Ｉｎｔｅｒｎａｔｉｏｎａｌ　Ｔｒａｄｉｎｇ,,合同会社,岐阜県,岐阜市,今川１０４－２,,21,201,5011114,,,,,,,2024-10-04,1,,,,,チョードリーインターナショナルトレーディング,0
1689,6210003001844,新規,0,2024-10-04,2024-10-04,Ｃｏｏｌｕｍ合同会社,,合同会社,福井県,勝山市,旭毛屋町２１０２番地２,,18,206,9110817,,,,,,,2024-10-04,1,,,,,クーラム,0
1694,6240001063875,新規,0,2024-10-04,2024-10-04,株式会社大亜,,株式会社,広島県,福山市,三吉町４丁目９番１６号１Ｆ,,34,207,7200031,,,,,,,2024-10-04,1,,,,,ダイア,0
1695,6240001063891,新規,0,2024-10-04,2024-10-04,株式会社丸宮こもん,,株式会社,広島県,廿日市市,木材港北４番６０号,,34,213,7380021,,,,,,,2024-10-04,1,,,,,マルミヤコモン,0
1696,6240001063900,新規,0,2024-10-04,2024-10-04,株式会社幟町,,株式会社,広島県,広島市中区,幟町１４番１７号１Ｆ,,34,101,7300016,,,,,,,2024-10-04,1,,,,,ノボリマチ,0
1697,6240003006881,新規,0,2024-10-04,2024-10-04,合同会社弘楽園,,合同会社,広島県,世羅郡世羅町,大字黒渕７２８番地,,34,462,7221732,,,,,,,2024-10-04,1,,,,,コウラクエン,0
1704,6290001107405,新規,0,2024-10-04,2024-10-04,株式会社ＪＷＫ,,株式会社,福岡県,福岡市中央区,大手門２丁目４－１１－８０１,,40,133,8100074,,,,,,,2024-10-04,1,,,,,ジェイダブリューケイ,0
1705,6290001107421,新規,0,2024-10-04,2024-10-04,株式会社ユニテック,,株式会社,福岡県,福岡市早良区,有田１丁目２７番１－１０２号,,40,137,8140033,,,,,,,2024-10-04,1,,,,,ユニテック,0
1706,6290001107446,新規,0,2024-10-04,2024-10-04,ＬｅｖｅｌＣｏｒｅ　Ｊａｐａｎ株式会社,,株式会社,福岡県,福岡市南区,横手２丁目２番１９アップルコア２０５号,,40,134,8111311,,,,,,,2024-10-04,1,,,,,レベルコアジャパン,0
1707,6290001107470,新規,0,2024-10-04,2024-10-04,ＬＮＳ株式会社,,株式会社,福岡県,福岡市東区,香椎浜３丁目３番５号,,40,131,8130016,,,,,,,2024-10-04,1,,,,,エルエヌエス,0
1713,6330001032516,新規,0,2024-10-04,2024-10-04,株式会社ＬＩＺＵ　ＷＥＬＤ,,株式会社,熊本県,玉名郡長洲町,大字腹赤２７１番地３,,43,368,8690103,,,,,,,2024-10-04,1,,,,,リズウェルド,0
1718,6360001034212,新規,0,2024-10-04,2024-10-04,株式会社ＳＹＭＭ,,株式会社,沖縄県,宜野湾市,伊佐１丁目７番１２号１Ｆ,,47,205,9012221,,,,,,,2024-10-04,1,,,,,エスワイエムエム,0
1719,6360001034278,新規,0,2024-10-04,2024-10-04,株式会社ＮＥＸＹＺ．沖縄,,株式会社,沖縄県,那覇市,松山１丁目１番１９号,,47,201,9000032,,,,,,,2024-10-04,1,,,,,ネクシーズオキナワ,0
1720,6360003014344,新規,0,2024-10-04,2024-10-04,琉球サイバーイニシアティブ合同会社,,合同会社,沖縄県,中頭郡読谷村,字長浜１３７８番地３,,47,324,9040324,,,,,,,2024-10-04,1,,,,,リュウキュウサイバーイニシアティブ,0
1726,6370001051801,新規,0,2024-10-04,2024-10-04,株式会社萬松磊,,株式会社,宮城県,大崎市,鹿島台広長字渕花１番地３,,04,215,9894104,,,,,,,2024-10-04,1,,,,,バンショウライ,0
1727,6390001017759,新規,0,2024-10-04,2024-10-04,株式会社ＴＳＵＺＲＩ,,株式会社,山形県,山形市,七日町１丁目２番４２号ＴＡＮ６ＳＱＵＡＲＥ１階,,06,201,9900042,,,,,,,2024-10-04,1,,,,,ツヅリ,0
1728,6400001016817,新規,0,2024-10-04,2024-10-04,悠希興業株式会社,,株式会社,岩手県,下閉伊郡山田町,大沢第３地割９番地７,,03,482,0281311,,,,,,,2024-10-04,1,,,,,ユウキコウギョウ,0
1732,6420001018885,新規,0,2024-10-04,2024-10-04,株式会社藤進,,株式会社,青森県,青森市,金沢１丁目９番１５号,,02,201,0300853,,,,,,,2024-10-04,1,,,,,トウシン,0
1734,6430001092797,新規,0,2024-10-04,2024-10-04,株式会社キッチン・アライアンス,,株式会社,北海道,札幌市北区,北十四条西３丁目１番１５号,,01,102,0010014,,,,,,,2024-10-04,1,,,,,キッチンアライアンス,0
1735,6430001092814,新規,0,2024-10-04,2024-10-04,株式会社ゴールデンハート,,株式会社,北海道,苫小牧市,音羽町２丁目９番３号２Ｆ,,01,213,0530044,,,,,,,2024-10-04,1,,,,,ゴールデンハート,0
1736,6430001092822,新規,0,2024-10-04,2024-10-04,株式会社ＫＹＫプロジェクト,,株式会社,北海道,札幌市清田区,北野七条５丁目２番７号,,01,110,0040867,,,,,,,2024-10-04,1,,,,,ケイワイケイプロジェクト,0
1742,6460103001653,新規,0,2024-10-04,2024-10-04,合同会社キャビン・ビルド,,合同会社,北海道,中川郡豊頃町,茂岩本町１０７（有）北東商会内,,01,645,0895312,,,,,,,2024-10-04,1,,,,,,0
1743,6470001020399,新規,0,2024-10-04,2024-10-04,ＰＴＦ株式会社,,株式会社,香川県,丸亀市,土器町西４丁目２０４番地,,37,202,7630081,,,,,,,2024-10-04,1,,,,,ピーティーエフ,0
1744,6470001020408,新規,0,2024-10-04,2024-10-04,株式会社Ｔｗｏ　ｏｆ　Ｕｓ,,株式会社,香川県,善通寺市,上吉田町４丁目６番３号,,37,204,7650011,,,,,,,2024-10-04,1,,,,,トゥオブアス,0
1746,6470003002726,新規,0,2024-10-04,2024-10-04,メディケアキッチン合同会社,,合同会社,香川県,高松市,伏石町２１５５番地１,,37,201,7618071,,,,,,,2024-10-04,1,,,,,メディケアキッチン,0
1759,7010001248779,新規,0,2024-10-04,2024-10-04,アグナスホールディングス株式会社,,株式会社,東京都,千代田区,神田和泉町１番地４の７,,13,101,1010024,,,,,,,2024-10-04,1,,,,,アグナスホールディングス,0
1760,7010001248787,新規,0,2024-10-04,2024-10-04,株式会社Ｃｏｒｅｃａｐｉｔａｌ,,株式会社,東京都,中央区,日本橋室町１丁目１１番１２号日本橋水野ビル７階,,13,102,1030022,,,,,,,2024-10-04,1,,,,,コアキャピタル,0
1761,7010001248804,新規,0,2024-10-04,2024-10-04,株式会社ログノーツ,,株式会社,東京都,千代田区,神田多町２丁目１－２３神田東山ビル７Ｆ,,13,101,1010046,,,,,,,2024-10-04,1,,,,,ログノーツ,0
1762,7010001248820,新規,0,2024-10-04,2024-10-04,株式会社インディードリクルートパートナーズ,,株式会社,東京都,千代田区,丸の内１丁目９番２号,,13,101,1000005,,,,,,,2024-10-04,1,,,,,インディードリクルートパートナーズ,0
1763,7010001248845,新規,0,2024-10-04,2024-10-04,株式会社ＧＩＦＴＢＡＣＫ,,株式会社,東京都,中央区,日本橋室町１丁目１１番１２号日本橋水野ビル７階,,13,102,1030022,,,,,,,2024-10-04,1,,,,,ギフトバック,0
1764,7010001248878,新規,0,2024-10-04,2024-10-04,株式会社おかふい,,株式会社,東京都,中央区,銀座１丁目１２－４Ｎ＆ＥＢＬＤ．７階,,13,102,1040061,,,,,,,2024-10-04,1,,,,,オカフイ,0
1767,7010101016350,新規,0,2024-10-04,2024-10-04,Ｙｏｓｈｉ　Ｐｌａｎｎｉｎｇ株式会社,,株式会社,東京都,八王子市,四谷町７７３番地１,,13,201,1930813,,,,,,,2024-10-04,1,,,,,ヨシプランニング,0
1773,7010401185440,新規,0,2024-10-04,2024-10-04,株式会社Ａｉｃｏｎ,,株式会社,東京都,港区,北青山３丁目１２番７号,,13,103,1070061,,,,,,,2024-10-04,1,,,,,アイコン,0
1774,7010403033556,新規,0,2024-10-04,2024-10-04,福地合同会社,,合同会社,東京都,港区,赤坂１丁目１１番４４号赤坂インターシティ５階Ｆｏｒｖｉｓ・Ｍａｚａｒｓ・Ｊａｐａｎ株式会社内,,13,103,1070052,,,,,,,2024-10-04,1,,,,,フクチ,0
1784,7010703007367,新規,0,2024-10-04,2024-10-04,ジュニーブ合同会社,,合同会社,東京都,品川区,東五反田５丁目７番４号,,13,109,1410022,,,,,,,2024-10-04,1,,,,,ジュニーブ,0
1785,7010703007375,新規,0,2024-10-04,2024-10-04,合同会社小諸蓄電所,,合同会社,東京都,品川区,東五反田２丁目１０番２号,,13,109,1410022,,,,,,,2024-10-04,1,,,,,コモロチクデンショ,0
1786,7010901056050,新規,0,2024-10-04,2024-10-04,株式会社ＳＢＳ,,株式会社,東京都,世田谷区,三軒茶屋１丁目３６番２号‐２Ｆ,,13,112,1540024,,,,,,,2024-10-04,1,,,,,エスビーエス,0
1787,7010901056059,新規,0,2024-10-04,2024-10-04,株式会社ｅｕｐｈｏｒｉａ,,株式会社,東京都,世田谷区,成城４丁目５番１７号,,13,112,1570066,,,,,,,2024-10-04,1,,,,,ユーフォリア,0
1791,7011001164999,新規,0,2024-10-04,2024-10-04,株式会社ＡＫＡＬＡ,,株式会社,東京都,目黒区,自由が丘２丁目１６番１２号ＲＪ３,,13,110,1520035,,,,,,,2024-10-04,1,,,,,アカラ,0
1793,7011003020135,新規,0,2024-10-04,2024-10-04,合同会社福松屋,,合同会社,東京都,渋谷区,道玄坂１丁目１０番８号渋谷道玄坂東急ビル２Ｆ－Ｃ,,13,113,1500043,,,,,,,2024-10-04,1,,,,,フクマツヤ,0
1797,7011101108988,新規,0,2024-10-04,2024-10-04,株式会社ＬＵＮＡＣＯＪＡＰＡＮ,,株式会社,東京都,新宿区,西新宿３丁目３番１３号西新宿水間ビル２Ｆ,,13,104,1600023,,,,,,,2024-10-04,1,,,,,ルナコジャパン,0
1798,7011101109037,新規,0,2024-10-04,2024-10-04,株式会社メルトクロック,,株式会社,東京都,新宿区,西新宿４丁目１１番５号メゾンＫ１０１,,13,104,1600023,,,,,,,2024-10-04,1,,,,,メルトクロック,0
1800,7011103015002,新規,0,2024-10-04,2024-10-04,合同会社タマティブ,,合同会社,東京都,新宿区,中落合１丁目１１番１１号,,13,104,1610032,,,,,,,2024-10-04,1,,,,,タマティブ,0
1803,7011303005307,新規,0,2024-10-04,2024-10-04,合同会社Ｆｉｎｃｒｏｓｓｅｄ　Ｓｔｕｄｉｏ,,合同会社,東京都,杉並区,松ノ木３丁目４番４－２０１号,,13,115,1660014,,,,,,,2024-10-04,1,,,,,フィンクロススタジオ,0
1805,7011501031220,新規,0,2024-10-04,2024-10-04,株式会社永基,,株式会社,東京都,北区,王子本町１丁目２２番１号ＫＳＧビル２０２,,13,117,1140022,,,,,,,2024-10-04,1,,,,,エイキ,0
1807,7011701027679,新規,0,2024-10-04,2024-10-04,株式会社ＨＩＫＡＲＩ,,株式会社,東京都,江戸川区,南葛西６丁目１６番７号,,13,123,1340085,,,,,,,2024-10-04,1,,,,,ヒカリ,0
1808,7011703003983,新規,0,2024-10-04,2024-10-04,合同会社サンタ,,合同会社,東京都,江戸川区,篠崎町１丁目３７－２７ドミールマツ２０１,,13,123,1330061,,,,,,,2024-10-04,1,,,,,サンタ,0
1810,7011801044938,新規,0,2024-10-04,2024-10-04,株式会社Ｓｏｏｏｙ,,株式会社,東京都,葛飾区,新宿１丁目１３－９,,13,122,1250051,,,,,,,2024-10-04,1,,,,,ソーイ,0
1811,7011803006481,新規,0,2024-10-04,2024-10-04,ＳＢＲ合同会社,,合同会社,東京都,葛飾区,堀切４丁目１１番３号吉田ビル４０３号,,13,122,1240006,,,,,,,2024-10-04,1,,,,,エスビーアール,0
1814,7012401042340,新規,0,2024-10-04,2024-10-04,株式会社大樹,,株式会社,東京都,狛江市,和泉本町３丁目２２番１１号,,13,219,2010003,,,,,,,2024-10-04,1,,,,,ダイジュ,0
1815,7012401042349,新規,0,2024-10-04,2024-10-04,ＯＮＥ　ＨＵＮＤＲＥＤ　ＭＯＮＫＥＹＳ株式会社,,株式会社,東京都,三鷹市,下連雀２丁目１０番１９号,,13,204,1810013,,,,,,,2024-10-04,1,,,,,ワンハンドレッドモンキーズ,0
1818,7012403006772,新規,0,2024-10-04,2024-10-04,ＪＰワールド合同会社,,合同会社,東京都,三鷹市,下連雀５丁目１番１－６６２号,,13,204,1810013,,,,,,,2024-10-04,1,,,,,ジェーピーワールド,0
1819,7012403006780,新規,0,2024-10-04,2024-10-04,ロナ合同会社,,合同会社,東京都,小金井市,貫井南町１丁目４番１２号ビクトリアハイム武蔵小金井５０３号,,13,210,1840014,,,,,,,2024-10-04,1,,,,,ロナ,0
1821,7012705002429,新規,0,2024-10-04,2024-10-04,医療法人社団和咲会,,その他の設立登記法人,東京都,小平市,花小金井１丁目１０番１１号８７５ビル４０２号室,,13,211,1870002,,,,,,,2024-10-04,1,,,,,ワショウカイ,0
1822,7012801023485,新規,0,2024-10-04,2024-10-04,株式会社ＯＣＥＡＮＳ,,株式会社,東京都,立川市,曙町２丁目５番１７号イノタケビル９０３,00136515,13,202,1900012,,,,,,,2024-10-04,1,,,,,オーシャンズ,0
1826,7020001159372,新規,0,2024-10-04,2024-10-04,株式会社アブソルート,,株式会社,神奈川県,横浜市中区,桜木町１丁目１０１番地１クロスゲート７階,,14,104,2310062,,,,,,,2024-10-04,1,,,,,アブソルート,0
1830,7020003027008,新規,0,2024-10-04,2024-10-04,合同会社ＴＫＳ,,合同会社,神奈川県,川崎市高津区,末長１丁目１８番２３号,,14,134,2130013,,,,,,,2024-10-04,1,,,,,ティーケーエス,0
1839,7021001083406,新規,0,2024-10-04,2024-10-04,株式会社縁建興,,株式会社,神奈川県,藤沢市,鵠沼海岸６丁目３番３１－２,00136520,14,205,2510037,,,,,,,2024-10-04,1,,,,,エニシケンコウ,0
1840,7021001083414,新規,0,2024-10-04,2024-10-04,株式会社エムズクラフト,,株式会社,神奈川県,横須賀市,長沢６丁目３０番１９号,,14,201,2390842,,,,,,,2024-10-04,1,,,,,エムズクラフト,0
1846,7030001162739,新規,0,2024-10-04,2024-10-04,株式会社ｕｔｚｉ,,株式会社,埼玉県,さいたま市緑区,太田窪３丁目１０番３－２号,,11,109,3360936,,,,,,,2024-10-04,1,,,,,ウジー,0
1850,7030003025266,新規,0,2024-10-04,2024-10-04,合同会社ひかりアセット,,合同会社,埼玉県,桶川市,大字川田谷４７６４番地の２５,,11,231,3630027,,,,,,,2024-10-04,1,,,,,ヒカリアセット,0
1854,7040001135628,新規,0,2024-10-04,2024-10-04,スポーツクール株式会社,,株式会社,千葉県,船橋市,海神３丁目２４番１０号プレシャスルミナス１０４号,,12,204,2730021,,,,,,,2024-10-04,1,,,,,スポーツクール,0
1855,7040001135636,新規,0,2024-10-04,2024-10-04,株式会社白鳥林業,,株式会社,千葉県,印西市,戸神６７２番地,,12,231,2701348,,,,,,,2024-10-04,1,,,,,シラトリリンギョウ,0
1856,7040001135652,新規,0,2024-10-04,2024-10-04,永光塗装株式会社,,株式会社,千葉県,市川市,国府台５丁目２３番２号,,12,203,2720827,,,,,,,2024-10-04,1,,,,,ナガミツトソウ,0
1857,7040001135685,新規,0,2024-10-04,2024-10-04,株式会社Ａｚｚ,,株式会社,千葉県,市原市,惣社２２４番地の１,,12,219,2900023,,,,,,,2024-10-04,1,,,,,アズ,0
1858,7040001135693,新規,0,2024-10-04,2024-10-04,株式会社クローバー,,株式会社,千葉県,船橋市,前原東６丁目１０番１０－２０４号,,12,204,2740824,,,,,,,2024-10-04,1,,,,,クローバー,0
1863,7040003025918,新規,0,2024-10-04,2024-10-04,合同会社Ｔ＆Ｈ,,合同会社,千葉県,印西市,小林１６０６番地１２,,12,231,2701318,,,,,,,2024-10-04,1,,,,,ティーアンドエイチ,0
1871,7050001055486,新規,0,2024-10-04,2024-10-04,栄晟貿易株式会社,,株式会社,茨城県,坂東市,矢作３０７１番地１,,08,228,3060624,,,,,,,2024-10-04,1,,,,,エイセイボウエキ,0
1873,7060001037558,新規,0,2024-10-04,2024-10-04,株式会社ＬＥＧＥＮＤＡＲＹ　ＷＯＲＫＳ,,株式会社,栃木県,宇都宮市,下岡本町３７１０－３５下岡本倉庫,,09,201,3291104,,,,,,,2024-10-04,1,,,,,レジェンダリーワークス,0
1874,7060003005265,新規,0,2024-10-04,2024-10-04,合同会社Ｈａｐｌｕｓ,,合同会社,栃木県,河内郡上三川町,大字上三川４２７６番地４４ベルホームＩＩＢ２０３,00136524,09,301,3290611,,,,,,,2024-10-04,1,,,,,ハプラス,0
1875,7060003005273,新規,0,2024-10-04,2024-10-04,合同会社藤原建設,,合同会社,栃木県,宇都宮市,今泉町２３３番地１,,09,201,3210962,,,,,,,2024-10-04,1,,,,,,0
1883,7080001026518,新規,0,2024-10-04,2024-10-04,株式会社ＳＯＳＨＩＪＩ,,株式会社,静岡県,藤枝市,青木１丁目２番２６号,,22,214,4260037,,,,,,,2024-10-04,1,,,,,ソシジ,0
1884,7080001026526,新規,0,2024-10-04,2024-10-04,株式会社聖設備,,株式会社,静岡県,静岡市駿河区,聖一色５５６番地の７,,22,102,4228007,,,,,,,2024-10-04,1,,,,,ヒジリセツビ,0
1885,7080005007646,新規,0,2024-10-04,2024-10-04,医療法人社団Ｆｏｒ　Ｗｅｌｌｎｅｓｓ,,その他の設立登記法人,静岡県,島田市,南原８５番地８,,22,209,4270105,,,,,,,2024-10-04,1,,,,,フォーウェルネス,0
1886,7080101025048,新規,0,2024-10-04,2024-10-04,ＣＯＮＮＥＣＴ　ＪＡＰＡＮ　ＰＲＯＪＥＣＴ株式会社,,株式会社,静岡県,御殿場市,二枚橋３０７番地の４,,22,215,4120021,,,,,,,2024-10-04,1,,,,,コネクトジャパンプロジェクト,0
1887,7080401027495,新規,0,2024-10-04,2024-10-04,あじさい倶楽部株式会社,,株式会社,静岡県,掛川市,西之谷２２－１,,22,213,4371404,,,,,,,2024-10-04,1,,,,,アジサイクラブ,0
1893,7090001018935,新規,0,2024-10-04,2024-10-04,ＢＳＳ　ＴＩＲＥＳ株式会社,,株式会社,山梨県,甲府市,平瀬町１番地１,,19,201,4000083,,,,,,,2024-10-04,1,,,,,ビービーエスタイアーズ,0
1900,7110001038724,新規,0,2024-10-04,2024-10-04,株式会社Ｕ‐ｆｉｒｓｔ,,株式会社,新潟県,新潟市中央区,南出来島１丁目１２番１９号,,15,103,9500963,,,,,,,2024-10-04,1,,,,,ユーファースト,0
1914,7120001269021,新規,0,2024-10-04,2024-10-04,株式会社知行合一,,株式会社,大阪府,大阪市中央区,安土町２丁目３番１３号,,27,128,5410052,,,,,,,2024-10-04,1,,,,,チコウゴウイツ,0
1915,7120001269095,新規,0,2024-10-04,2024-10-04,株式会社ウィズダム,,株式会社,大阪府,大阪市東住吉区,針中野４丁目１１番２号,,27,121,5460011,,,,,,,2024-10-04,1,,,,,ウィズダム,0
1917,7120101070361,新規,0,2024-10-04,2024-10-04,株式会社泰陽技研,,株式会社,大阪府,岸和田市,岡山町８１０番地の６８,,27,202,5960814,,,,,,,2024-10-04,1,,,,,タイヨウギケン,0
1918,7120101070378,新規,0,2024-10-04,2024-10-04,株式会社日高,,株式会社,大阪府,岸和田市,池尻町４０番地の４シェソワ・リヴェール２０２号,,27,202,5960813,,,,,,,2024-10-04,1,,,,,ヒダカ,0
1922,7120103006074,新規,0,2024-10-04,2024-10-04,合同会社ｕｐ　ｔｏ　ｙｏｕ,,合同会社,大阪府,堺市西区,草部５６３番地８,,27,144,5938312,,,,,,,2024-10-04,1,,,,,アップトゥユー,0
1933,7130001078033,新規,0,2024-10-04,2024-10-04,株式会社洛南,,株式会社,京都府,京都市南区,吉祥院宮ノ西町４番地２ラーク安田パート２，２０１号,,26,107,6018306,,,,,,,2024-10-04,1,,,,,ラクナン,0
1934,7130001078058,新規,0,2024-10-04,2024-10-04,株式会社キノックス,,株式会社,京都府,宇治市,小倉町老ノ木２５番地木下ビル２階,,26,204,6110042,,,,,,,2024-10-04,1,,,,,キノックス,0
1935,7130001078074,新規,0,2024-10-04,2024-10-04,株式会社京佛壇誠心堂,,株式会社,京都府,城陽市,長池北裏１０３番地の５３,,26,207,6100112,,,,,,,2024-10-04,1,,,,,キョウブツダンセイシンドウ,0
1936,7130001078082,新規,0,2024-10-04,2024-10-04,株式会社井上工業,,株式会社,京都府,亀岡市,河原林町河原尻井尻１２５－１,,26,206,6210007,,,,,,,2024-10-04,1,,,,,イノウエコウギョウ,0
1942,7140001135972,新規,0,2024-10-04,2024-10-04,株式会社巌水産,,株式会社,兵庫県,淡路市,久留麻２１１２番地,,28,226,6562311,,,,,,,2024-10-04,1,,,,,イワオスイサン,0
1943,7140001135997,新規,0,2024-10-04,2024-10-04,株式会社Ｎｓｅｎｓｅ,,株式会社,兵庫県,尼崎市,南武庫之荘３丁目１７番１９号,,28,202,6610033,,,,,,,2024-10-04,1,,,,,エヌセンス,0
1946,7140003021139,新規,0,2024-10-04,2024-10-04,合同会社タイス,,合同会社,兵庫県,西宮市,下大市東町３４番２８号,,28,204,6638004,,,,,,,2024-10-04,1,,,,,タイス,0
1947,7140003021155,新規,0,2024-10-04,2024-10-04,合同会社トオスル,,合同会社,兵庫県,伊丹市,行基町２丁目６８番地の１サンヴェール伊丹行基町６０５号,,28,207,6640857,,,,,,,2024-10-04,1,,,,,トオスル,0
1948,7150001027590,新規,0,2024-10-04,2024-10-04,株式会社角甚,00136519,株式会社,奈良県,吉野郡天川村,大字洞川２４０番地,,29,446,6380431,,,,,,,2024-10-04,1,,,,,カドジン,0
1951,7170001018324,新規,0,2024-10-04,2024-10-04,株式会社ケンシン,,株式会社,和歌山県,和歌山市,狐島３３８番地１,,30,201,6408412,,,,,,,2024-10-04,1,,,,,ケンシン,0
1952,7180001163490,新規,0,2024-10-04,2024-10-04,株式会社ｃｅｌｅｓｔｅ,,株式会社,愛知県,尾張旭市,城山町三ツ池６２１５番地５,,23,226,4880881,,,,,,,2024-10-04,1,,,,,セレスト,0
1953,7180001163524,新規,0,2024-10-04,2024-10-04,株式会社Ｃｉｒｃｒｅｓｔ,,株式会社,愛知県,名古屋市緑区,有松町大字有松字往還南２３９番第１５番地,,23,114,4580901,,,,,,,2024-10-04,1,,,,,サークレスト,0
1954,7180001163581,新規,0,2024-10-04,2024-10-04,株式会社Ｗｅｌｃｏｍｅ,,株式会社,愛知県,名古屋市千種区,末盛通２丁目２２番地３覚王山アネクス６Ｂ,,23,101,4640821,,,,,,,2024-10-04,1,,,,,ウェルカム,0
1957,7180005020795,新規,0,2024-10-04,2024-10-04,一般社団法人ＳＥＡＮ,,その他の設立登記法人,愛知県,日進市,三本木町細廻間３８８番地８,,23,230,4700101,,,,,,,2024-10-04,1,,,,,セアン,0
1960,7180303006298,新規,0,2024-10-04,2024-10-04,合同会社つるぎや,,合同会社,愛知県,豊川市,豊川元町７５番地,,23,207,4420035,,,,,,,2024-10-04,1,,,,,ツルギヤ,0
1963,7190001031688,新規,0,2024-10-04,2024-10-04,ＢＥＩＳＩＴ　ＪＡＰＡＮ株式会社,,株式会社,三重県,四日市市,午起１丁目６番１２号,,24,202,5100023,,,,,,,2024-10-04,1,,,,,ベイジェトジャパン,0
1964,7190003004816,新規,0,2024-10-04,2024-10-04,アルクブレイン合同会社,,合同会社,三重県,三重郡菰野町,大字千草２６２６番地,,24,341,5101251,,,,,,,2024-10-04,1,,,,,アルクブレイン,0
1968,7210001019937,新規,0,2024-10-04,2024-10-04,再生館株式会社,,株式会社,福井県,勝山市,鹿谷町本郷第１７号３３番地,,18,206,9110843,,,,,,,2024-10-04,1,,,,,サイセイカン,0
1978,7230001020546,新規,0,2024-10-04,2024-10-04,株式会社ＯＤＫ,,株式会社,富山県,高岡市,木津６２６番地４,,16,202,9330857,,,,,,,2024-10-04,1,,,,,オーディーケー,0
1980,7230003002311,新規,0,2024-10-04,2024-10-04,同輝合同会社,,合同会社,富山県,魚津市,吉島２２６‐１,,16,204,9370041,,,,,,,2024-10-04,1,,,,,ドウキ,0
1981,7240001063882,新規,0,2024-10-04,2024-10-04,オークロード広島株式会社,,株式会社,広島県,広島市佐伯区,五日市港２丁目３番７号,,34,108,7315161,,,,,,,2024-10-04,1,,,,,オークロードヒロシマ,0
1986,7260001039526,新規,0,2024-10-04,2024-10-04,株式会社ＣＨＡＩ,,株式会社,岡山県,岡山市東区,西大寺中野１５－１１,,33,103,7048191,,,,,,,2024-10-04,1,,,,,チャイ,0
1990,7290001107395,新規,0,2024-10-04,2024-10-04,Ｍｉｒａｉｎ株式会社,,株式会社,福岡県,福岡市西区,石丸２丁目３２－１９ハロー姪浜ビル２０２,,40,135,8190025,,,,,,,2024-10-04,1,,,,,ミレイン,0
1991,7290001107445,新規,0,2024-10-04,2024-10-04,濤国際文化株式会社,,株式会社,福岡県,福岡市西区,小戸３丁目３１番２２シャ－ミー小戸公園２０１号,,40,135,8190001,,,,,,,2024-10-04,1,,,,,トウコクサイブンカ,0
1992,7290001107461,新規,0,2024-10-04,2024-10-04,ＢＬＵＥＷＯＲＫ株式会社,,株式会社,福岡県,福岡市中央区,福浜１丁目２６番１３－１０１号,,40,133,8100066,,,,,,,2024-10-04,1,,,,,ブルーワーク,0
1995,7290801030937,新規,0,2024-10-04,2024-10-04,株式会社伊崎工業,00136535,株式会社,福岡県,北九州市若松区,響町１丁目３２番地,,40,103,8080021,,,,,,,2024-10-04,1,,,,,イザキコウギョウ,0
2002,7320001020743,新規,0,2024-10-04,2024-10-04,株式会社開成プラント工業,,株式会社,大分県,大分市,今津留２丁目１１番２６号ＲＥＧＩＮＡ今津留３０２号室,,44,201,8700938,,,,,,,2024-10-04,1,,,,,カイセイプラントコウギョウ,0
2005,7340003004627,新規,0,2024-10-04,2024-10-04,合同会社堀の内商事,,合同会社,鹿児島県,大島郡知名町,大字知名６３１番地１,,46,534,8919214,,,,,,,2024-10-04,1,,,,,ホリノウチショウジ,0
2010,7360001034252,新規,0,2024-10-04,2024-10-04,株式会社まごのて,,株式会社,沖縄県,那覇市,小禄２丁目４番２－４００号,,47,201,9010152,,,,,,,2024-10-04,1,,,,,マゴノテ,0
2011,7360001034260,新規,0,2024-10-04,2024-10-04,株式会社ＲＳテクノ,,株式会社,沖縄県,沖縄市,美里５丁目１０番１２号,,47,211,9042153,,,,,,,2024-10-04,1,,,,,アールエステクノ,0
2012,7360001034277,新規,0,2024-10-04,2024-10-04,株式会社七企画,,株式会社,沖縄県,那覇市,字国場１０００番地３カンセイホーム国場１Ｆ,,47,201,9020075,,,,,,,2024-10-04,1,,,,,ナナキカク,0
2015,7370001051775,新規,0,2024-10-04,2024-10-04,仙台金属株式会社,,株式会社,宮城県,仙台市青葉区,南吉成３丁目４番地の２,,04,101,9893204,,,,,,,2024-10-04,1,,,,,センダイキンゾク,0
2017,7370003006769,新規,0,2024-10-04,2024-10-04,合同会社ＷｉｔｈＣｏｎｎｅｃｔ,,合同会社,宮城県,仙台市泉区,八乙女中央１丁目５番２０号及川壱番館３０２号,,04,105,9813135,,,,,,,2024-10-04,1,,,,,ウィズコネクト,0
2024,7390001017758,新規,0,2024-10-04,2024-10-04,株式会社金子製作所,,株式会社,山形県,西村山郡西川町,大字吉川１５６４番地１０,,06,322,9900711,,,,,,,2024-10-04,1,,,,,カネコセイサクショ,0
2026,7400001016808,新規,0,2024-10-04,2024-10-04,株式会社ＩＶＹ,,株式会社,岩手県,盛岡市,中央通２丁目１番２６号ＭＣＤビル２階,,03,201,0200021,,,,,,,2024-10-04,1,,,,,アイブイワイ,0
2032,7430001092771,新規,0,2024-10-04,2024-10-04,未来株式会社,,株式会社,北海道,札幌市北区,北七条西４丁目１番地１トーカン札幌第一キャステール６０７,,01,102,0600807,,,,,,,2024-10-04,1,,,,,ミライ,0
2033,7430001092796,新規,0,2024-10-04,2024-10-04,株式会社ＳＴＭ,,株式会社,北海道,日高郡新ひだか町,静内本町２丁目２番３号,,01,610,0560016,,,,,,,2024-10-04,1,,,,,エスティーエム,0
2034,7430001092805,新規,0,2024-10-04,2024-10-04,株式会社ＳＣＡＴＴ,,株式会社,北海道,札幌市中央区,北四条西４丁目１－７ＭＭＳ札幌駅前ビル１階,,01,101,0600004,,,,,,,2024-10-04,1,,,,,スカット,0
2035,7430001092821,新規,0,2024-10-04,2024-10-04,株式会社なが楽,,株式会社,北海道,虻田郡京極町,字春日３７７番地９,,01,399,0440112,,,,,,,2024-10-04,1,,,,,ナガラ,0
2037,7430003016844,新規,0,2024-10-04,2024-10-04,合同会社陽明,,合同会社,北海道,札幌市清田区,平岡公園東５丁目７－８,,01,110,0040882,,,,,,,2024-10-04,1,,,,,ヨウメイ,0
2038,7440001009502,新規,0,2024-10-04,2024-10-04,株式会社ＦＳＴＹＬＥ,,株式会社,北海道,北斗市,清川５９４番地の１,,01,236,0490157,,,,,,,2024-10-04,1,,,,,エフスタイル,0
2043,7470001020398,新規,0,2024-10-04,2024-10-04,株式会社輝工業,,株式会社,香川県,丸亀市,土器町西３丁目１６５番地２,,37,202,7630081,,,,,,,2024-10-04,1,,,,,カガヤキコウギョウ,0
2046,7500001025922,新規,0,2024-10-04,2024-10-04,株式会社ＴＭ　ＰＬＵＳ,,株式会社,愛媛県,松山市,岩崎町２丁目１１番１２号,,38,201,7900854,,,,,,,2024-10-04,1,,,,,ティーエムプラス,0
2047,7700150057911,新規,0,2024-10-04,2015-10-09,鳴門労働基準協会,,その他,徳島県,鳴門市,撫養町斎田字西発７３－３,,36,202,7720002,,,,,,,2015-10-09,1,,,,,ナルトロウドウキジユンキヨウカイ,0
2063,8010001248745,新規,0,2024-10-04,2024-10-04,Ｆａｍｉｌｙ　ＧＡＴＥ　Ｉｎｔｅｒｎａｔｉｏｎａｌ株式会社,,株式会社,東京都,中央区,京橋１丁目１番５号,,13,102,1040031,,,,,,,2024-10-04,1,,,,,ファミリーゲートインターナショナル,0
2064,8010001248786,新規,0,2024-10-04,2024-10-04,株式会社ＷＡＬＡ,,株式会社,東京都,中央区,銀座８丁目１２番１５号,,13,102,1040061,,,,,,,2024-10-04,1,,,,,ワラ,0
2065,8010001248803,新規,0,2024-10-04,2024-10-04,大勝ビジネス株式会社,,株式会社,東京都,中央区,勝どき４丁目１番１１―９０７号グレーシア勝どき,,13,102,1040054,,,,,,,2024-10-04,1,,,,,オオカツビジネス,0
2066,8010001248811,新規,0,2024-10-04,2024-10-04,株式会社工務店ＭＡＤＥ,,株式会社,東京都,中央区,銀座４丁目１３番１１号,,13,102,1040061,,,,,,,2024-10-04,1,,,,,コウムテンメイド,0
2067,8010003045067,新規,0,2024-10-04,2024-10-04,合同会社ＫＯＦ３,,合同会社,東京都,中央区,日本橋１丁目４番１号日本橋一丁目ビルディング,,13,102,1030027,,,,,,,2024-10-04,1,,,,,ケイオーエフスリー,0
2071,8010005038894,新規,0,2024-10-04,2024-10-04,一般社団法人日本外科教育学会,,その他の設立登記法人,東京都,中央区,明石町９番１号,,13,102,1040044,,,,,,,2024-10-04,1,,,,,ニホンゲカキョウイクガッカイ,0
2072,8010005038903,新規,0,2024-10-04,2024-10-04,ジーアイエナジーストレージ４号一般社団法人,,その他の設立登記法人,東京都,千代田区,丸の内１丁目４番１号東京共同会計事務所内,,13,101,1000005,,,,,,,2024-10-04,1,,,,,ジーアイエナジーストレージヨンゴウ,0
2073,8010005038911,新規,0,2024-10-04,2024-10-04,一般社団法人ＥＲＰ　Ｃｌｏｕｄ３６０コンソーシアム,,その他の設立登記法人,東京都,中央区,銀座１丁目１２番４号Ｎ＆ＥＢＬＤ６Ｆ,,13,102,1040061,,,,,,,2024-10-04,1,,,,,イーアールピークラウドサンロクマルコンソーシアム,0
2078,8010401185489,新規,0,2024-10-04,2024-10-04,株式会社巣籠,,株式会社,東京都,港区,虎ノ門１丁目２３番３号虎ノ門ヒルズガーデンハウス２階,,13,103,1050001,,,,,,,2024-10-04,1,,,,,スゴモリ,0
2079,8010401185514,新規,0,2024-10-04,2024-10-04,株式会社ＳＴＡＲＴ　ＱＵＥＳＴ,,株式会社,東京都,港区,西麻布３丁目２－４１ルネサンス六本木３０４,,13,103,1060031,,,,,,,2024-10-04,1,,,,,スタートクエスト,0
2084,8010501052960,新規,0,2024-10-04,2024-10-04,柏奥貿易株式会社,,株式会社,東京都,台東区,柳橋２丁目１９－１０第２東商センター２号館４０１Ａ,,13,106,1110052,,,,,,,2024-10-04,1,,,,,ハクオクボウエキ,0
2086,8010601066027,新規,0,2024-10-04,2024-10-04,株式会社ＲＳＳエンジニアリング,,株式会社,東京都,江東区,東陽５丁目１３番１５号プレサンス木場公園５０１,,13,108,1350016,,,,,,,2024-10-04,1,,,,,アールエスエスエンジニアリング,0
2087,8010601066035,新規,0,2024-10-04,2024-10-04,株式会社えどももんが,,株式会社,東京都,墨田区,両国３丁目２５番１３－５０１号,,13,107,1300026,,,,,,,2024-10-04,1,,,,,エドモモンガ,0
2090,8010701046639,新規,0,2024-10-04,2024-10-04,パスシンク株式会社,,株式会社,東京都,品川区,西五反田３丁目１５番６号リードシー目黒不動前ビル５階,,13,109,1410031,,,,,,,2024-10-04,1,,,,,パスシンク,0
2091,8010703007374,新規,0,2024-10-04,2024-10-04,合同会社ＴＹカンパニー,,合同会社,東京都,品川区,豊町１丁目１番２号,,13,109,1420042,,,,,,,2024-10-04,1,,,,,ティーワイカンパニー,0
2094,8010901056066,新規,0,2024-10-04,2024-10-04,ベストメディカルクラブ株式会社,,株式会社,東京都,世田谷区,等々力６丁目９番１０号,,13,112,1580082,,,,,,,2024-10-04,1,,,,,ベストメディカルクラブ,0
2095,8010901056074,新規,0,2024-10-04,2024-10-04,株式会社ＭａｇｉＴｅｃｈ　Ｔｏｏｌ　Ｌａｂ,,株式会社,東京都,世田谷区,用賀４丁目９番１２号ＡＳｔａｇｅ用賀Ｂ１Ｆ－１１,,13,112,1580097,,,,,,,2024-10-04,1,,,,,マジテックツールラボ,0
2099,8011005010694,新規,0,2024-10-04,2024-10-04,特定非営利活動法人橙下村塾,,その他の設立登記法人,東京都,渋谷区,代々木４丁目２７番２８号,,13,113,1510053,,,,,,,2024-10-04,1,,,,,トウカソンジュク,0
2104,8011301030041,新規,0,2024-10-04,2024-10-04,株式会社ＥＳＰＥＲ　ＳＴＵＤＩＯ,,株式会社,東京都,杉並区,高円寺南２丁目１４番２号カセッタ高円寺１２,,13,115,1660003,,,,,,,2024-10-04,1,,,,,エスパースタジオ,0
2106,8011501031211,新規,0,2024-10-04,2024-10-04,株式会社Ｔａｎｎｕｓ　Ｊａｐａｎ,,株式会社,東京都,荒川区,西日暮里６丁目４４番８号,,13,118,1160013,,,,,,,2024-10-04,1,,,,,タンナスジャパン,0
2113,8012301014100,新規,0,2024-10-04,2024-10-04,株式会社ガイタ,,株式会社,東京都,町田市,本町田２０９７番地７,,13,209,1940032,,,,,,,2024-10-04,1,,,,,ガイタ,0
2114,8012301014109,新規,0,2024-10-04,2024-10-04,株式会社Ｂｒａｖｏ,,株式会社,東京都,町田市,玉川学園８丁目６番８号,,13,209,1940041,,,,,,,2024-10-04,1,,,,,ブラボー,0
2116,8012401042331,新規,0,2024-10-04,2024-10-04,株式会社ＦＭ３,,株式会社,東京都,府中市,若松町４丁目４３番地の１７,,13,206,1830005,,,,,,,2024-10-04,1,,,,,エフエムスリー,0
2117,8012401042348,新規,0,2024-10-04,2024-10-04,株式会社フォーポイント,,株式会社,東京都,稲城市,矢野口１６３４番地の３グランカーサ１０４,,13,225,2060812,,,,,,,2024-10-04,1,,,,,フォーポイント,0
2133,8020001159388,新規,0,2024-10-04,2024-10-04,株式会社Ｋｏ．Ｋｏ．,,株式会社,神奈川県,横浜市中区,桜木町１丁目１０１－１クロスゲート７階,,14,104,2310062,,,,,,,2024-10-04,1,,,,,ココ,0
2134,8020001159446,新規,0,2024-10-04,2024-10-04,ＨａｏＹｕｅｈ株式会社,,株式会社,神奈川県,川崎市高津区,二子５丁目９番５号２階の２Ｈ,,14,134,2130002,,,,,,,2024-10-04,1,,,,,ハオイェ,0
2135,8020001159578,新規,0,2024-10-04,2024-10-04,Ｍ・ＣＯＲＳＡ株式会社,,株式会社,神奈川県,横浜市瀬谷区,下瀬谷１丁目１３番地１３,,14,114,2460035,,,,,,,2024-10-04,1,,,,,エムコルサ,0
2141,8020003026974,新規,0,2024-10-04,2024-10-04,松本合同会社,,合同会社,神奈川県,横浜市青葉区,たちばな台１丁目１１番地９カームステージ青葉台７１８号,,14,117,2270046,,,,,,,2024-10-04,1,,,,,マツモト,0
2153,8021003015067,新規,0,2024-10-04,2024-10-04,合同会社ファームハウス大塚,,合同会社,神奈川県,平塚市,岡崎５８８２番地の５,,14,203,2591212,,,,,,,2024-10-04,1,,,,,ファームハウスオオツカ,0
2159,8030001162705,新規,0,2024-10-04,2024-10-04,株式会社ワタナベマネジメントプロダクション,,株式会社,埼玉県,川口市,元郷５丁目１６番３号,,11,203,3320011,,,,,,,2024-10-04,1,,,,,ワタナベマネジメントプロダクション,0
2160,8030001162762,新規,0,2024-10-04,2024-10-04,株式会社四方田建装,,株式会社,埼玉県,飯能市,大字双柳１３８２－１３,,11,209,3570021,,,,,,,2024-10-04,1,,,,,ヨモダケンソウ,0
2161,8030001162795,新規,0,2024-10-04,2024-10-04,株式会社咲翔,,株式会社,埼玉県,北葛飾郡杉戸町,３０００番地１６７,,11,464,3450000,,,,,,,2024-10-04,1,,,,,サクト,0
2164,8030003025265,新規,0,2024-10-04,2024-10-04,Ｔｒａｎｅ合同会社,,合同会社,埼玉県,鶴ヶ島市,大字鶴ヶ丘１１１番地１４,,11,241,3502204,,,,,,,2024-10-04,1,,,,,トレーン,0
2169,8040001135627,新規,0,2024-10-04,2024-10-04,ｉ＆Ｒｏｏｓｔｅｒ株式会社,,株式会社,千葉県,千葉市美浜区,磯辺８丁目１５番６号,,12,106,2610012,,,,,,,2024-10-04,1,,,,,アイアンドルースター,0
2170,8040001135635,新規,0,2024-10-04,2024-10-04,グリーンヴィジョン株式会社,,株式会社,千葉県,市川市,中国分３丁目１５番２８号,,12,203,2720835,,,,,,,2024-10-04,1,,,,,グリーンヴィジョン,0
2171,8040001135651,新規,0,2024-10-04,2024-10-04,浪方工業株式会社,,株式会社,千葉県,柏市,豊四季３４１番地１０８,,12,217,2770863,,,,,,,2024-10-04,1,,,,,ナミカタコウギョウ,0
2175,8040003025917,新規,0,2024-10-04,2024-10-04,合同会社中川組,,合同会社,千葉県,習志野市,東習志野４丁目１２－１９,,12,216,2750001,,,,,,,2024-10-04,1,,,,,ナカガワグミ,0
2179,8060001037540,新規,0,2024-10-04,2024-10-04,株式会社アクティブブリッジ,,株式会社,栃木県,栃木市,野中町５２３番地１,,09,203,3280124,,,,,,,2024-10-04,1,,,,,アクティブブリッジ,0
2180,8060001037549,新規,0,2024-10-04,2024-10-04,株式会社ミライフ,,株式会社,栃木県,小山市,城東１丁目４番２４号ＴＳビル２Ｆ２０１,,09,208,3230807,,,,,,,2024-10-04,1,,,,,ミライフ,0
2181,8060001037557,新規,0,2024-10-04,2024-10-04,株式会社アルケ,,株式会社,栃木県,宇都宮市,東簗瀬１丁目４０－８,,09,201,3210925,,,,,,,2024-10-04,1,,,,,アルケ,0
2186,8080001026525,新規,0,2024-10-04,2024-10-04,株式会社不動産の３９,,株式会社,静岡県,藤枝市,高柳１丁目２０番４２号トーコービルＢ号室,,22,214,4260041,,,,,,,2024-10-04,1,,,,,フドウサンノサンキュー,0
2187,8080001026533,新規,0,2024-10-04,2024-10-04,オートドアサポート株式会社,,株式会社,静岡県,静岡市駿河区,池田１８００番地の３,,22,102,4228005,,,,,,,2024-10-04,1,,,,,オートドアサポート,0
2188,8080003003299,新規,0,2024-10-04,2024-10-04,合同会社東海苑,,合同会社,静岡県,藤枝市,緑の丘２３番地の５,,22,214,4260070,,,,,,,2024-10-04,1,,,,,トウカイエン,0
2189,8080101025039,新規,0,2024-10-04,2024-10-04,株式会社常勝,,株式会社,静岡県,伊豆の国市,立花３丁目１８６番地リンデンハイム３０９号,,22,225,4102303,,,,,,,2024-10-04,1,,,,,ジョウショウ,0
2204,8120001268988,新規,0,2024-10-04,2024-10-04,株式会社長江映像文化企画,,株式会社,大阪府,大阪市天王寺区,堂ケ芝２丁目６番３号エルエムヒルズ堂ヶ芝４Ｂ号室,,27,109,5430033,,,,,,,2024-10-04,1,,,,,チョウコウエイゾウブンカキカク,0
2205,8120001269020,新規,0,2024-10-04,2024-10-04,静和株式会社,,株式会社,大阪府,大阪市生野区,生野西２丁目１番３号,,27,116,5440024,,,,,,,2024-10-04,1,,,,,セイワ,0
2206,8120001269094,新規,0,2024-10-04,2024-10-04,ＨｅｙＫｎｏｔ株式会社,,株式会社,大阪府,大阪市浪速区,難波中１丁目１０番４号,,27,111,5560011,,,,,,,2024-10-04,1,,,,,ヘイノット,0
2208,8120105009909,新規,0,2024-10-04,2024-10-04,学校法人かつらぎ学園,,その他の設立登記法人,大阪府,岸和田市,神須屋町１丁目１番２７号,,27,202,5960833,,,,,,,2024-10-04,1,,,,,カツラギガクエン,0
2213,8120903005365,新規,0,2024-10-04,2024-10-04,合同会社ＫＵＭＵ,,合同会社,大阪府,豊中市,東豊中町４丁目１１番３号,,27,203,5600003,,,,,,,2024-10-04,1,,,,,クム,0
2215,8122001038504,新規,0,2024-10-04,2024-10-04,株式会社アイザック,,株式会社,大阪府,東大阪市,下小阪４丁目１１番２４号,,27,227,5770803,,,,,,,2024-10-04,1,,,,,アイザック,0
2218,8130001078049,新規,0,2024-10-04,2024-10-04,株式会社エスアセット,,株式会社,京都府,福知山市,字篠尾９９５番地の９,,26,201,6200000,,,,,,,2024-10-04,1,,,,,エスアセット,0
2224,8140001135988,新規,0,2024-10-04,2024-10-04,オーノ・ニット株式会社,,株式会社,兵庫県,伊丹市,大野１丁目６０番地,,28,207,6640003,,,,,,,2024-10-04,1,,,,,オーノニット,0
2225,8140001135996,新規,0,2024-10-04,2024-10-04,株式会社モンキーポッド,,株式会社,兵庫県,尼崎市,田能５丁目３番１０－２１２号,,28,202,6610951,,,,,,,2024-10-04,1,,,,,モンキーポッド,0
2226,8140001136020,新規,0,2024-10-04,2024-10-04,株式会社ｒｉｔａ　ａｓｓｏｃｉａｔｅｓ,,株式会社,兵庫県,加古川市,平岡町中野１５４番地グリーンフィールド２０１号,,28,210,6750113,,,,,,,2024-10-04,1,,,,,リタアソシエイツ,0
2228,8140003021146,新規,0,2024-10-04,2024-10-04,合同会社ＫＭＤ,,合同会社,兵庫県,神戸市灘区,山田町２丁目５番１６号,,28,102,6570064,,,,,,,2024-10-04,1,,,,,ケイエムディ,0
2233,8180001163481,新規,0,2024-10-04,2024-10-04,株式会社中京建設,,株式会社,愛知県,名古屋市西区,牛島町６番１号名古屋ルーセントタワー４０階,,23,104,4510046,,,,,,,2024-10-04,1,,,,,チュウキョウケンセツ,0
2234,8180001163523,新規,0,2024-10-04,2024-10-04,株式会社エムズ,,株式会社,愛知県,海部郡飛島村,大字渚１丁目１１６番地の２５,,23,427,4901433,,,,,,,2024-10-04,1,,,,,エムズ,0
2238,8180301039092,新規,0,2024-10-04,2024-10-04,株式会社ｅ‐Ｂａｎ,,株式会社,愛知県,みよし市,莇生町あざみ２２２番地,,23,236,4700206,,,,,,,2024-10-04,1,,,,,イーバン,0
2239,8180301039101,新規,0,2024-10-04,2024-10-04,株式会社くろ松,,株式会社,愛知県,安城市,横山町下毛賀知３９番地７,,23,212,4460045,,,,,,,2024-10-04,1,,,,,クロマツ,0
2241,8190003004815,新規,0,2024-10-04,2024-10-04,合同会社カーオネスト,,合同会社,三重県,桑名市,大字東方３４６‐４デュオヒルズ桑名‐１２０１,,24,205,5110811,,,,,,,2024-10-04,1,,,,,カーオネスト,0
2242,8200001043012,新規,0,2024-10-04,2024-10-04,株式会社エクスリミット,,株式会社,岐阜県,岐阜市,金町６丁目２１番地岐阜ステーションビル３０４,,21,201,5008842,,,,,,,2024-10-04,1,,,,,エクスリミット,0
2249,8200003006529,新規,0,2024-10-04,2024-10-04,合同会社Ｔｏｍｏｍｉ,,合同会社,岐阜県,下呂市,東上田４５１番地１コーポラ・ポールＡ棟１０２号室,,21,220,5092201,,,,,,,2024-10-04,1,,,,,トモミ,0
2250,8210001019936,新規,0,2024-10-04,2024-10-04,株式会社長谷川製餡所,,株式会社,福井県,福井市,宝永１丁目７番２号,,18,201,9100004,,,,,,,2024-10-04,1,,,,,ハセガワセイアンショ,0
2252,8210005010164,新規,0,2024-10-04,2024-10-04,一般財団法人ＩｃｈｉｇｏＪａｍ財団,,その他の設立登記法人,福井県,福井市,板垣３丁目１０１０番地西川ビル２階,,18,201,9188104,,,,,,,2024-10-04,1,,,,,イチゴジャムザイダン,0
2255,8230001020545,新規,0,2024-10-04,2024-10-04,明治薬科飲料株式会社,,株式会社,富山県,滑川市,上小泉２１７０番地,,16,206,9360053,,,,,,,2024-10-04,1,,,,,メイジヤッカインリョウ,0
2257,8240001063881,新規,0,2024-10-04,2024-10-04,株式会社大山養魚場,,株式会社,広島県,世羅郡世羅町,大字津口１８４５番地,,34,462,7221731,,,,,,,2024-10-04,1,,,,,オオヤマヨウギョジョウ,0
2266,8270001009064,新規,0,2024-10-04,2024-10-04,株式会社伊在,,株式会社,鳥取県,米子市,万能町２０９番地,,31,202,6830065,,,,,,,2024-10-04,1,,,,,イザイ,0
2270,8290001107386,新規,0,2024-10-04,2024-10-04,株式会社ＩＲＫ工業,,株式会社,福岡県,糟屋郡志免町,桜丘３丁目１７番８－２号,,40,343,8112201,,,,,,,2024-10-04,1,,,,,アイアールケーコウギョウ,0
2271,8290001107444,新規,0,2024-10-04,2024-10-04,天澤電子株式会社,,株式会社,福岡県,福岡市南区,横手２丁目２番１９アップルコア１０３号,,40,134,8111311,,,,,,,2024-10-04,1,,,,,アマザワデンシ,0
2272,8290001107460,新規,0,2024-10-04,2024-10-04,株式会社イノベスマイル,,株式会社,福岡県,福岡市南区,大池２丁目９番１０号,,40,134,8150073,,,,,,,2024-10-04,1,,,,,イノベスマイル,0
2273,8290001107469,新規,0,2024-10-04,2024-10-04,ＯＮ松株式会社,,株式会社,福岡県,福岡市早良区,西新４丁目８番３４－４０３号,,40,137,8140002,,,,,,,2024-10-04,1,,,,,オンマツ,0
2274,8290003015827,新規,0,2024-10-04,2024-10-04,合同会社ＨＡＪＩ,,合同会社,福岡県,福岡市早良区,南庄３丁目６番２０－３０１号,,40,137,8140031,,,,,,,2024-10-04,1,,,,,ハジ,0
2279,8310001019240,新規,0,2024-10-04,2024-10-04,株式会社田中水産,,株式会社,長崎県,佐世保市,鹿町町長串１１３５番地７,,42,202,8596206,,,,,,,2024-10-04,1,,,,,タナカスイサン,0
2281,8320003004487,新規,0,2024-10-04,2024-10-04,合同会社アフガントレーディング,,合同会社,大分県,宇佐市,大字下高２０９３番地２,,44,211,8790317,,,,,,,2024-10-04,1,,,,,アフガントレーディング,0
2284,8360001034251,新規,0,2024-10-04,2024-10-04,株式会社Ｈａｐｐｙｆｏｒ,,株式会社,沖縄県,那覇市,松尾１丁目１２番１８号フェニックス松尾３０３号室,,47,201,9000014,,,,,,,2024-10-04,1,,,,,ハッピーフォー,0
2285,8360001034268,新規,0,2024-10-04,2024-10-04,株式会社サンレストプランニング,,株式会社,沖縄県,中頭郡北谷町,伊平１丁目１３番１４号プレミスト北谷伊平Ｓｅａ＆Ｆｏｒｅｓｔ４０９,,47,326,9040102,,,,,,,2024-10-04,1,,,,,サンレストプランニング,0
2286,8360001034276,新規,0,2024-10-04,2024-10-04,株式会社リベロ沖縄,,株式会社,沖縄県,那覇市,字仲井真３６０番地Ｋテナントビル２０１,,47,201,9020074,,,,,,,2024-10-04,1,,,,,リベロオキナワ,0
2287,8360001034284,新規,0,2024-10-04,2024-10-04,株式会社０２１不動産,,株式会社,沖縄県,那覇市,曙３丁目４番１３－２０１号,,47,201,9000002,,,,,,,2024-10-04,1,,,,,ゼロツーワンフドウサン,0
2289,8360003014359,新規,0,2024-10-04,2024-10-04,ＲＹＭ合同会社,,合同会社,沖縄県,浦添市,牧港１丁目１番６号,,47,208,9012131,,,,,,,2024-10-04,1,,,,,アールワイエム,0
2290,8360005007105,新規,0,2024-10-04,2024-10-04,一般社団法人かいふく,,その他の設立登記法人,沖縄県,浦添市,伊祖４丁目２番３号１Ｆ,,47,208,9012132,,,,,,,2024-10-04,1,,,,,カイフク,0
2294,8370001051774,新規,0,2024-10-04,2024-10-04,株式会社ＴＡＣＭＩ,,株式会社,宮城県,黒川郡大郷町,川内字長福寺山１９番地２４,,04,422,9813514,,,,,,,2024-10-04,1,,,,,タクミ,0
2300,8390001017757,新規,0,2024-10-04,2024-10-04,株式会社ヤマデン建築,,株式会社,山形県,東田川郡庄内町,家根合字北裏１２９番地,,06,428,9997762,,,,,,,2024-10-04,1,,,,,ヤマデンケンチク,0
2301,8390001017765,新規,0,2024-10-04,2024-10-04,株式会社ベイワークス,,株式会社,山形県,上山市,高野字念仏檀１１３番地６,,06,207,9993115,,,,,,,2024-10-04,1,,,,,ベイワークス,0
2304,8410005006605,新規,0,2024-10-04,2024-10-04,一般社団法人いきいきライフ協会大曲,,その他の設立登記法人,秋田県,大仙市,大花町５番２７号,,05,212,0140022,,,,,,,2024-10-04,1,,,,,イキイキライフキョウカイオオマガリ,0
2307,8420001018875,新規,0,2024-10-04,2024-10-04,株式会社ティーアンドカンパニー,,株式会社,青森県,八戸市,大字新井田字小久保尻１番地２２,,02,203,0310813,,,,,,,2024-10-04,1,,,,,ティーアンドカンパニー,0
2308,8420001018883,新規,0,2024-10-04,2024-10-04,株式会社太田屋,,株式会社,青森県,八戸市,大字新井田字立石沢１７番地１４,,02,203,0310813,,,,,,,2024-10-04,1,,,,,オオタヤ,0
2316,8430001092779,新規,0,2024-10-04,2024-10-04,株式会社ＧＴＳ,,株式会社,北海道,札幌市東区,伏古十三条３丁目１５番３号,,01,103,0070873,,,,,,,2024-10-04,1,,,,,ジーティーエス,0
2317,8430001092787,新規,0,2024-10-04,2024-10-04,株式会社こころわ,,株式会社,北海道,江別市,緑町西１丁目５３番地２,,01,217,0670002,,,,,,,2024-10-04,1,,,,,ココロワ,0
2318,8430001092795,新規,0,2024-10-04,2024-10-04,株式会社ヲタ件,,株式会社,北海道,札幌市中央区,南二条西４丁目１０番地１ラージカントリービル３階,,01,101,0600062,,,,,,,2024-10-04,1,,,,,ヲタケン,0
2319,8430001092804,新規,0,2024-10-04,2024-10-04,ちょき株式会社,,株式会社,北海道,札幌市西区,山の手一条４丁目５番１－４０１号,,01,107,0630001,,,,,,,2024-10-04,1,,,,,チョキ,0
2325,8470001020397,新規,0,2024-10-04,2024-10-04,株式会社スプリガン,,株式会社,香川県,高松市,室新町１０１９番地１０カスタネア栗林南２０１,,37,201,7618062,,,,,,,2024-10-04,1,,,,,スプリガン,0
2326,8470003002724,新規,0,2024-10-04,2024-10-04,合同会社ＴＲｅＣ,,合同会社,香川県,高松市,香川町大野４０番地２３,,37,201,7611701,,,,,,,2024-10-04,1,,,,,トレック,0
2330,8500001025913,新規,0,2024-10-04,2024-10-04,株式会社伊予相互自動車,,株式会社,愛媛県,西条市,野々市１６番地２,,38,206,7930066,,,,,,,2024-10-04,1,,,,,イヨソウゴジドウシャ,0
2332,8500005008732,新規,0,2024-10-04,2024-10-04,内山食品企業組合,,その他の設立登記法人,愛媛県,喜多郡内子町,大字城廻甲５０１番地,,38,422,7913300,,,,,,,2024-10-04,1,,,,,ウチヤマショクヒン,0
2333,8700150126203,新規,0,2024-10-04,2024-06-25,レックスヒルズ枚岡管理組合,,その他,大阪府,東大阪市,出雲井本町５－１１,,27,227,5798034,,,,,,,2024-06-25,1,,,,,レツクスヒルズヒラオカカンリクミアイ,0
2342,9010001248851,新規,0,2024-10-04,2024-10-04,石井優制作事務所株式会社,,株式会社,東京都,中央区,銀座１丁目１２－４Ｎ＆ＥＢＬＤ．７Ｆ,,13,102,1040061,,,,,,,2024-10-04,1,,,,,イシイスグルセイサクジムショ,0
2347,9010005038902,新規,0,2024-10-04,2024-10-04,一般社団法人世田谷船橋,,その他の設立登記法人,東京都,千代田区,丸の内１丁目４番１号東京共同会計事務所内,,13,101,1000005,,,,,,,2024-10-04,1,,,,,セタガヤフナバシ,0
2349,9010101016349,新規,0,2024-10-04,2024-10-04,エムズリペア株式会社,,株式会社,東京都,八王子市,小比企町１６９２番地５１,,13,201,1930934,,,,,,,2024-10-04,1,,,,,エムズリペア,0
2355,9010401185364,新規,0,2024-10-04,2024-10-04,株式会社ガハハワークス,,株式会社,東京都,港区,東麻布１丁目１４番１４－２０１号,,13,103,1060044,,,,,,,2024-10-04,1,,,,,ガハハワークス,0
2356,9010401185471,新規,0,2024-10-04,2024-10-04,たちばな未来キャピタル株式会社,,株式会社,東京都,港区,六本木７丁目１７番３６号,,13,103,1060032,,,,,,,2024-10-04,1,,,,,タチバナミライキャピタル,0
2357,9010401185488,新規,0,2024-10-04,2024-10-04,株式会社ＲＢＯ,,株式会社,東京都,港区,虎ノ門１丁目２３番３号虎ノ門ヒルズガーデンハウス２階,,13,103,1050001,,,,,,,2024-10-04,1,,,,,アールビーオー,0
2358,9010401185546,新規,0,2024-10-04,2024-10-04,ＲＥ　Ｐｏｗｅｒ　Ｃｏｎｎｅｃｔ株式会社,,株式会社,東京都,港区,虎ノ門４丁目３番１号城山トラストタワ－２１階,,13,103,1050001,,,,,,,2024-10-04,1,,,,,アールイーパワーコネクト,0
2367,9010701046638,新規,0,2024-10-04,2024-10-04,株式会社ＫＥＹ　ＨＯＭＥＳ,,株式会社,東京都,品川区,西五反田５丁目２３番３ＢＬＯＣＫＳ目黒不動前,,13,109,1410031,,,,,,,2024-10-04,1,,,,,キーホームズ,0
2371,9010903009392,新規,0,2024-10-04,2024-10-04,合同会社１９７８コンサルティング,,合同会社,東京都,世田谷区,太子堂２丁目１７－５佐藤ビル３階,,13,112,1540004,,,,,,,2024-10-04,1,,,,,イチキュウナナハチコンサルティング,0
2372,9010903009401,新規,0,2024-10-04,2024-10-04,ａｎｄ　Ｃａｎｏｎ合同会社,,合同会社,東京都,世田谷区,駒沢１丁目４番４号,,13,112,1540012,,,,,,,2024-10-04,1,,,,,アンドカノン,0
2376,9011001164709,新規,0,2024-10-04,2024-10-04,株式会社アドラス,,株式会社,東京都,渋谷区,渋谷２丁目１０番６号,,13,113,1500002,,,,,,,2024-10-04,1,,,,,アドラス,0
2377,9011001164964,新規,0,2024-10-04,2024-10-04,株式会社ＭａｔｓｕｋａｚｅＬａｂｓ,,株式会社,東京都,渋谷区,渋谷２丁目１９番１５号宮益坂ビルディング６０９,,13,113,1500002,,,,,,,2024-10-04,1,,,,,マツカゼラボ,0
2378,9011001164980,新規,0,2024-10-04,2024-10-04,株式会社ビーン,,株式会社,東京都,渋谷区,神宮前６丁目２３番４号桑野ビル２階,,13,113,1500001,,,,,,,2024-10-04,1,,,,,ビーン,0
2379,9011001165005,新規,0,2024-10-04,2024-10-04,ワウプイプイ株式会社,,株式会社,東京都,渋谷区,千駄ヶ谷３丁目５９番８－６０３号原宿第２コーポ,,13,113,1510051,,,,,,,2024-10-04,1,,,,,ワウプイプイ,0
2380,9011001165112,新規,0,2024-10-04,2024-10-04,株式会社ＰＵＰＩＬ,,株式会社,東京都,目黒区,下目黒１丁目５番２１－５０２号,,13,110,1530064,,,,,,,2024-10-04,1,,,,,ピューピル,0
2382,9011003020067,新規,0,2024-10-04,2024-10-04,渋谷コシェル合同会社,,合同会社,東京都,渋谷区,神泉町１５番１６号,,13,113,1500045,,,,,,,2024-10-04,1,,,,,シブヤコシェル,0
2390,9011101108994,新規,0,2024-10-04,2024-10-04,ＨＡＮＤＡ　ＴＥＸＴＩＬＥ株式会社,,株式会社,東京都,新宿区,西新宿３丁目３番１３号西新宿水間ビル２Ｆ,,13,104,1600023,,,,,,,2024-10-04,1,,,,,ハンダテキスタイル,0
2395,9011201025834,新規,0,2024-10-04,2024-10-04,キャリアバース株式会社,,株式会社,東京都,中野区,野方１丁目５８－１１日神パレス高円寺１０３,,13,114,1650027,,,,,,,2024-10-04,1,,,,,キャリアバース,0
2396,9011303005305,新規,0,2024-10-04,2024-10-04,合同会社雄企画,,合同会社,東京都,杉並区,松ノ木３丁目２９番４号,,13,115,1660014,,,,,,,2024-10-04,1,,,,,ユウキカク,0
2398,9011501031202,新規,0,2024-10-04,2024-10-04,日本ＣＭＣ株式会社,,株式会社,東京都,北区,浮間１丁目７－２３兆豊浮間ビル５０３号室,,13,117,1150051,,,,,,,2024-10-04,1,,,,,ニホンシーエムシー,0
2399,9011501031219,新規,0,2024-10-04,2024-10-04,株式会社ＴＥＺＵＮＡ,,株式会社,東京都,荒川区,荒川１丁目２７番３－１０１号,,13,118,1160002,,,,,,,2024-10-04,1,,,,,テズナ,0
2405,9011801044911,新規,0,2024-10-04,2024-10-04,株式会社ファーストステップ,,株式会社,東京都,葛飾区,東新小岩４丁目７番７－１０２号,,13,122,1240023,,,,,,,2024-10-04,1,,,,,ファーストステップ,0
2407,9011803006488,新規,0,2024-10-04,2024-10-04,合同会社ＭＴコンサルティング,,合同会社,東京都,足立区,梅田８丁目１４番２―９０８号,,13,121,1230851,,,,,,,2024-10-04,1,,,,,エムティーコンサルティング,0
2408,9012301014099,新規,0,2024-10-04,2024-10-04,株式会社福村内装,,株式会社,東京都,町田市,図師町１６９６番地１５,,13,209,1940203,,,,,,,2024-10-04,1,,,,,フクムラナイソウ,0
2409,9012301014108,新規,0,2024-10-04,2024-10-04,株式会社功勇商事,,株式会社,東京都,町田市,金森東４丁目４２番２８号ワタヤビルＮｏ．２－１Ｆ－Ｂ,,13,209,1940015,,,,,,,2024-10-04,1,,,,,コウユウショウジ,0
2412,9012803003517,新規,0,2024-10-04,2024-10-04,合同会社ＯＧ３,,合同会社,東京都,立川市,錦町１丁目５－６サンパークビルＢ１０２,,13,202,1900022,,,,,,,2024-10-04,1,,,,,オージースリー,0
2413,9013101009529,新規,0,2024-10-04,2024-10-04,ＴｗｏＦｉｎｅ株式会社,,株式会社,東京都,西多摩郡瑞穂町,大字箱根ケ崎２２７３－１０１,,13,303,1901221,,,,,,,2024-10-04,1,,,,,トゥーファイン,0
2424,9020001159370,新規,0,2024-10-04,2024-10-04,丸江株式会社,,株式会社,神奈川県,横浜市鶴見区,東寺尾北台４番１９－２,,14,101,2300016,,,,,,,2024-10-04,1,,,,,マルエ,0
2425,9020001159404,新規,0,2024-10-04,2024-10-04,ＬａｎｄＬｉｎｋ　Ｈｅａｌｔｈ株式会社,,株式会社,神奈川県,横浜市神奈川区,白幡南町１８番２２－１号,,14,102,2210073,,,,,,,2024-10-04,1,,,,,ランドリンクヘルス,0
2426,9020001159445,新規,0,2024-10-04,2024-10-04,星野光輝日本株式会社,,株式会社,神奈川県,横浜市西区,みなとみらい３丁目７番１号オーシャンゲートみなとみらい８Ｆ,,14,103,2200012,,,,,,,2024-10-04,1,,,,,ホシノシャインジャパン,0
2434,9021001083370,新規,0,2024-10-04,2024-10-04,早雲警備株式会社,,株式会社,神奈川県,小田原市,成田５１０番地の１,,14,206,2500862,,,,,,,2024-10-04,1,,,,,ソウウンケイビ,0
2435,9021001083395,新規,0,2024-10-04,2024-10-04,株式会社角勇不動産,,株式会社,神奈川県,小田原市,久野４３４番地の８カトルメゾン１０２,,14,206,2500055,,,,,,,2024-10-04,1,,,,,カクユウフドウサン,0
2436,9021001083404,新規,0,2024-10-04,2024-10-04,３ＷＩＮコンサルト＆クリエイト株式会社,,株式会社,神奈川県,秦野市,南矢名２丁目２５番３－６０１号,,14,211,2570003,,,,,,,2024-10-04,1,,,,,スリーウィンコンサルトアンドクリエイト,0
2444,9030001162712,新規,0,2024-10-04,2024-10-04,株式会社まさゆめ,,株式会社,埼玉県,さいたま市見沼区,大和田町１丁目１９８１番地２,,11,104,3370053,,,,,,,2024-10-04,1,,,,,マサユメ,0
2448,9040001135634,新規,0,2024-10-04,2024-10-04,Ｎ＆Ｒマネジメント株式会社,,株式会社,千葉県,松戸市,三ケ月１４９４番地－１Ｆ,,12,207,2700026,,,,,,,2024-10-04,1,,,,,エヌアンドアールマネジメント,0
2449,9040001135650,新規,0,2024-10-04,2024-10-04,ＧＬＯＢＡＬＯＮＥ　ＰＥＴ　ＢＥＡＵＴＹ株式会社,,株式会社,千葉県,佐倉市,石川５５９番地６２,,12,212,2850813,,,,,,,2024-10-04,1,,,,,グローバルワンペットビューティー,0
2450,9040001135659,新規,0,2024-10-04,2024-10-04,株式会社Ｔ．Ｉ．Ｃｏｒｐｏｒａｔｉｏｎ,,株式会社,千葉県,香取市,北１丁目３番地１,,12,236,2870002,,,,,,,2024-10-04,1,,,,,ティーアイコーポレーション,0
2455,9040003025899,新規,0,2024-10-04,2024-10-04,合同会社ＭＹＢＡ,,合同会社,千葉県,市川市,市川１丁目２１番１－４０３号（メディオリオ市川）,,12,203,2720034,,,,,,,2024-10-04,1,,,,,マイバ,0
2459,9040005022523,新規,0,2024-10-04,2024-10-04,医療法人社団悟平会,,その他の設立登記法人,千葉県,木更津市,畑沢南５丁目２２番２７号,,12,206,2920826,,,,,,,2024-10-04,1,,,,,ゴヘイカイ,0
2462,9060001037507,新規,0,2024-10-04,2024-10-04,株式会社Ｓｏｎｅ,,株式会社,栃木県,那須塩原市,豊浦３４－１７０,,09,213,3250023,,,,,,,2024-10-04,1,,,,,エスワン,0
2463,9060001037548,新規,0,2024-10-04,2024-10-04,株式会社ＴＨＥ　ＬＩＯＮ　ＫＩＮＧ,,株式会社,栃木県,宇都宮市,宿郷５丁目３番１６号,,09,201,3210945,,,,,,,2024-10-04,1,,,,,ザライオンキング,0
2464,9060001037556,新規,0,2024-10-04,2024-10-04,Ｗｅｌｌｐａ株式会社,,株式会社,栃木県,宇都宮市,若草４丁目７－７,,09,201,3200072,,,,,,,2024-10-04,1,,,,,,0
2466,9060003005271,新規,0,2024-10-04,2024-10-04,栃木不動産管理合同会社,,合同会社,栃木県,栃木市,片柳町２丁目５２番２号,,09,203,3280053,,,,,,,2024-10-04,1,,,,,トチギフドウサンカンリ,0
2472,9080001026532,新規,0,2024-10-04,2024-10-04,株式会社ＮＥＸＹＺ．東海,,株式会社,静岡県,静岡市葵区,御幸町１１番地の３０,,22,101,4200857,,,,,,,2024-10-04,1,,,,,ネクシーズトウカイ,0
2473,9080101025038,新規,0,2024-10-04,2024-10-04,株式会社ＦＤＥ,,株式会社,静岡県,富士市,松岡３８１番地の１メゾンパルテール１０３号,,22,210,4160909,,,,,,,2024-10-04,1,,,,,エフディーイー,0
2496,9120001268962,新規,0,2024-10-04,2024-10-04,九之池株式会社,,株式会社,大阪府,大阪市平野区,加美正覚寺４丁目４番４１号マルーン平野８０１号,,27,126,5470006,,,,,,,2024-10-04,1,,,,,クノイケ,0
2497,9120001269036,新規,0,2024-10-04,2024-10-04,株式会社ジャパン・ソーシャル・マーケティング,,株式会社,大阪府,大阪市港区,築港３丁目７番１５号港振興ビル２１２,,27,107,5520021,,,,,,,2024-10-04,1,,,,,ジャパンソーシャルマーケティング,0
2505,9120101070351,新規,0,2024-10-04,2024-10-04,株式会社レオメディクス,,株式会社,大阪府,泉大津市,旭町１５番１０号,,27,206,5950025,,,,,,,2024-10-04,1,,,,,レオメディクス,0
2506,9120101070376,新規,0,2024-10-04,2024-10-04,株式会社ウィルサンクス,,株式会社,大阪府,泉佐野市,羽倉崎２丁目５番３－１１２０,,27,213,5980046,,,,,,,2024-10-04,1,,,,,ウィルサンクス,0
2510,9120901049867,新規,0,2024-10-04,2024-10-04,株式会社ＺＥＮ,,株式会社,大阪府,豊中市,曽根西町２丁目１１番５号,,27,203,5610801,,,,,,,2024-10-04,1,,,,,ゼン,0
2511,9120903005364,新規,0,2024-10-04,2024-10-04,合同会社時風,,合同会社,大阪府,豊中市,熊野町１丁目７番２０号,,27,203,5600014,,,,,,,2024-10-04,1,,,,,トキカゼ,0
2515,9130001078031,新規,0,2024-10-04,2024-10-04,株式会社ＴＯＭＯＡＳＵ,,株式会社,京都府,船井郡京丹波町,井尻松ケ鼻１５番地４,,26,407,6220323,,,,,,,2024-10-04,1,,,,,トモアス,0
2516,9130001078080,新規,0,2024-10-04,2024-10-04,株式会社トライズム,,株式会社,京都府,京都市上京区,中立売通烏丸西入東町４８１番地,,26,102,6020913,,,,,,,2024-10-04,1,,,,,トライズム,0
2519,9130003009892,新規,0,2024-10-04,2024-10-04,Ｋａｐｐｏ　Ａｔｏｎａ合同会社,,合同会社,京都府,京都市東山区,新橋通東大路東入林下町４０３番地,,26,105,6050062,,,,,,,2024-10-04,1,,,,,カッポウアトナ,0
2520,9130003009901,新規,0,2024-10-04,2024-10-04,合同会社アトリエハウス,,合同会社,京都府,八幡市,八幡柿ケ谷７番地の２８,,26,210,6148055,,,,,,,2024-10-04,1,,,,,アトリエハウス,0
2521,9130005017200,新規,0,2024-10-04,2024-10-04,医療法人植園会,,その他の設立登記法人,京都府,八幡市,八幡中ノ山１９７番地１アネックス香楽園１０１号室,,26,210,6148067,,,,,,,2024-10-04,1,,,,,ウエゾノカイ,0
2528,9140001135970,新規,0,2024-10-04,2024-10-04,株式会社山田技工,,株式会社,兵庫県,姫路市,別所町別所９３１番地,,28,201,6710221,,,,,,,2024-10-04,1,,,,,ヤマダギコウ,0
2529,9140001135979,新規,0,2024-10-04,2024-10-04,株式会社鯖一,,株式会社,兵庫県,西宮市,津門川町１２番１４号の２,,28,204,6638233,,,,,,,2024-10-04,1,,,,,サバイチ,0
2530,9140001136028,新規,0,2024-10-04,2024-10-04,株式会社ＧＦＩ,,株式会社,兵庫県,神戸市須磨区,離宮西町１丁目４番２号,,28,107,6540067,,,,,,,2024-10-04,1,,,,,ジーエフアイ,0
2531,9140001136036,新規,0,2024-10-04,2024-10-04,株式会社ＢＬＣＬＯ,,株式会社,兵庫県,明石市,二見町西二見１２３９番地の１,,28,203,6740094,,,,,,,2024-10-04,1,,,,,ブルコロ,0
2536,9140005027215,新規,0,2024-10-04,2024-10-04,特定非営利活動法人ヤワラボプラス,,その他の設立登記法人,兵庫県,西宮市,池田町２番１１号廣藤ビル１Ｆ,,28,204,6620911,,,,,,,2024-10-04,1,,,,,ヤワラボプラス,0
2538,9150001027589,新規,0,2024-10-04,2024-10-04,株式会社ｏｌｄ　ｏｎｅ,,株式会社,奈良県,大和郡山市,北郡山町２４８番地２４ＭＤＣビル２階,,29,203,6391160,,,,,,,2024-10-04,1,,,,,オールドワン,0
2544,9180001163605,新規,0,2024-10-04,2024-10-04,株式会社ＨＫホーム,,株式会社,愛知県,名古屋市緑区,鶴が沢１丁目３０３番地,,23,114,4580814,,,,,,,2024-10-04,1,,,,,エイチケイホーム,0
2549,9180305009611,新規,0,2024-10-04,2024-10-04,医療法人真宥会,,その他の設立登記法人,愛知県,豊田市,渡刈町６丁目５２番地１,,23,211,4701202,,,,,,,2024-10-04,1,,,,,シンユウカイ,0
2551,9190003004814,新規,0,2024-10-04,2024-10-04,合同会社つくし,,合同会社,三重県,伊勢市,小俣町明野５５９番地４０,,24,203,5190501,,,,,,,2024-10-04,1,,,,,ツクシ,0
2555,9200001043011,新規,0,2024-10-04,2024-10-04,株式会社中源,,株式会社,岐阜県,養老郡養老町,大跡１７２番地１,,21,341,5031324,,,,,,,2024-10-04,1,,,,,チュウゲン,0
2571,9240001063880,新規,0,2024-10-04,2024-10-04,黒崎興業株式会社,00136533,株式会社,広島県,広島市安芸区,矢野東２丁目２７番１１－１０３号,,34,107,7360083,,,,,,,2024-10-04,1,,,,,クロサキコウギョウ,0
2572,9240001063897,新規,0,2024-10-04,2024-10-04,株式会社マツケン,,株式会社,広島県,広島市東区,戸坂山根２丁目１０番２９号,,34,102,7320002,,,,,,,2024-10-04,1,,,,,マツケン,0
2573,9240001063906,新規,0,2024-10-04,2024-10-04,株式会社Ｒｅｌｉｅｒ,,株式会社,広島県,三原市,館町２丁目１番７号,,34,204,7230004,,,,,,,2024-10-04,1,,,,,ルリエ,0
2574,9240003006879,新規,0,2024-10-04,2024-10-04,ファインエイト合同会社,,合同会社,広島県,広島市安佐南区,西原４丁目３９番５－１００１号,,34,105,7310113,,,,,,,2024-10-04,1,,,,,ファインエイト,0
2575,9240003006887,新規,0,2024-10-04,2024-10-04,合同会社Ｒ２,,合同会社,広島県,広島市中区,銀山町１２番１８号,,34,101,7300022,,,,,,,2024-10-04,1,,,,,アールツー,0
2581,9260001039524,新規,0,2024-10-04,2024-10-04,株式会社リンクシンク,,株式会社,岡山県,岡山市北区,今３丁目１－３５サンライズマルビル２階,,33,101,7000975,,,,,,,2024-10-04,1,,,,,リンクシンク,0
2584,9290001107377,新規,0,2024-10-04,2024-10-04,株式会社ＲＯＩ,,株式会社,福岡県,福岡市博多区,博多駅前２丁目１番１号福岡朝日ビル１階,,40,132,8120011,,,,,,,2024-10-04,1,,,,,ロイ,0
2585,9290001107451,新規,0,2024-10-04,2024-10-04,江橋株式会社,,株式会社,福岡県,福岡市博多区,博多駅中央街５－１１,,40,132,8120012,,,,,,,2024-10-04,1,,,,,エハシ,0
2586,9290001107468,新規,0,2024-10-04,2024-10-04,日創プロニティ分割準備株式会社,,株式会社,福岡県,福岡市南区,向野２丁目１０番２５号,,40,134,8150035,,,,,,,2024-10-04,1,,,,,ニッソウプロニティブンカツジュンビ,0
2587,9290001107476,新規,0,2024-10-04,2024-10-04,株式会社ＣＭＰ,,株式会社,福岡県,飯塚市,柏の森９２番地２７１,,40,205,8200011,,,,,,,2024-10-04,1,,,,,シーエムピー,0
2588,9290001107492,新規,0,2024-10-04,2024-10-04,株式会社ＳｍａｒｔＣｈｏｉｃｅ,,株式会社,福岡県,福岡市中央区,天神４丁目６番２８号天神ファーストビル７階,,40,133,8100001,,,,,,,2024-10-04,1,,,,,スマートチョイス,0
2589,9290003015875,新規,0,2024-10-04,2024-10-04,アルファ合同会社,,合同会社,福岡県,三潴郡大木町,大字前牟田６４４番地１,,40,522,8300406,,,,,,,2024-10-04,1,,,,,アルファ,0
2594,9330001032505,新規,0,2024-10-04,2024-10-04,株式会社トクル,,株式会社,熊本県,熊本市東区,八反田３丁目２番５２号,,43,102,8618034,,,,,,,2024-10-04,1,,,,,トクル,0
2595,9330001032513,新規,0,2024-10-04,2024-10-04,株式会社カタオカ空撮測量,,株式会社,熊本県,宇城市,小川町南小川５１４番地１,,43,213,8690614,,,,,,,2024-10-04,1,,,,,カタオカクウサツソクリョウ,0
2597,9340001026844,新規,0,2024-10-04,2024-10-04,株式会社ＳＯＵコーポレーション,,株式会社,鹿児島県,鹿児島市,船津町１番１１号３階,,46,201,8920831,,,,,,,2024-10-04,1,,,,,ソーコーポレーション,0
2602,9360001034267,新規,0,2024-10-04,2024-10-04,株式会社しきや不動産,,株式会社,沖縄県,うるま市,字赤道１－１６・１０２号室,,47,213,9042245,,,,,,,2024-10-04,1,,,,,シキヤフドウサン,0
2616,9400003003331,新規,0,2024-10-04,2024-10-04,東京メディアスタジオ合同会社,,合同会社,岩手県,盛岡市,菜園２丁目８－１８－９０５,,03,201,0200024,,,,,,,2024-10-04,1,,,,,,0
2623,9420001018882,新規,0,2024-10-04,2024-10-04,ＧＬＡＣＨＳ株式会社,,株式会社,青森県,弘前市,大字浜の町東３丁目１０番地３８,,02,202,0368323,,,,,,,2024-10-04,1,,,,,グラックス,0
2626,9430001092778,新規,0,2024-10-04,2024-10-04,ＡｑｕａＲｅｖｉｖｅ株式会社,,株式会社,北海道,古平郡古平町,大字御崎町１９,,01,406,0460101,,,,,,,2024-10-04,1,,,,,アクアリバイブ,0
2627,9430001092803,新規,0,2024-10-04,2024-10-04,ホクレンくみあいファーム株式会社,,株式会社,北海道,札幌市中央区,北四条西１丁目１番地,,01,101,0600004,,,,,,,2024-10-04,1,,,,,ホクレンクミアイファーム,0
2628,9430003016776,新規,0,2024-10-04,2024-10-04,ＨＡＬＯ光之旅合同会社,,合同会社,北海道,札幌市北区,北三十二条西４丁目１番２９号３３,,01,102,0010032,,,,,,,2024-10-04,1,,,,,ハーローヒカリノタビ,0
2633,9480001012616,新規,0,2024-10-04,2024-10-04,株式会社勝利,,株式会社,徳島県,板野郡北島町,江尻字宮ノ本７番地６,,36,402,7710205,,,,,,,2024-10-04,1,,,,,ショウリ,0
2635,9500001025912,新規,0,2024-10-04,2024-10-04,株式会社かのーぷす,,株式会社,愛媛県,松山市,山越５丁目５番地８,,38,201,7918013,,,,,,,2024-10-04,1,,,,,カノープス,0
