sequenceNumber,corporateNumber,process,correct,updateDate,changeDate,name,nameImageId,kind,prefectureName,cityName,streetNumber,addressImageId,prefectureCode,cityCode,postCode,addressOutside,addressOutsideImageId,closeDate,closeCause,successorCorporateNumber,changeCause,assignmentDate,latest,enName,enPrefectureName,enCityName,enAddressOutside,furigana,hihyoji
10,1010001226856,新規,0,2022-05-26,2022-05-26,株式会社渋谷カンパニー,,株式会社,東京都,千代田区,二番町７番地８－２０５号,,13,101,1020084,,,,,,,2022-05-26,1,,,,,シブヤカンパニー,0
11,1010001226897,新規,0,2022-05-26,2022-05-26,株式会社Ａｕｄｉｔｅｃｈ,,株式会社,東京都,千代田区,丸の内１丁目８－１丸の内トラストタワーＮ館１５Ｆ,,13,101,1000005,,,,,,,2022-05-26,1,,,,,オウディテック,0
17,1010005035056,新規,0,2022-05-26,2022-05-26,一般社団法人デジタルエミッション２号,,その他の設立登記法人,東京都,千代田区,永田町２丁目１０番１号,,13,101,1000014,,,,,,,2022-05-26,1,,,,,デジタルエミッションニゴウ,0
30,1010403027729,新規,0,2022-05-26,2022-05-26,合同会社タンゴ,,合同会社,東京都,港区,三田１丁目６番３－３３０８号,,13,103,1080073,,,,,,,2022-05-26,1,,,,,タンゴ,0
31,1010403027737,新規,0,2022-05-26,2022-05-26,合同会社プライスイン,,合同会社,東京都,港区,南青山２丁目２番１５号,,13,103,1070062,,,,,,,2022-05-26,1,,,,,プライスイン,0
41,1010803004179,新規,0,2022-05-26,2022-05-26,レイジェックス合同会社,,合同会社,東京都,大田区,西蒲田８丁目２番１－５２１号,,13,111,1440051,,,,,,,2022-05-26,1,,,,,レイジェックス,0
44,1010901050918,新規,0,2022-05-26,2022-05-26,株式会社グロービジョン,,株式会社,東京都,世田谷区,代田１丁目４０番８号,,13,112,1550033,,,,,,,2022-05-26,1,,,,,グロービジョン,0
45,1010901050926,新規,0,2022-05-26,2022-05-26,株式会社ＮＩ‐ＭＥＳ,,株式会社,東京都,世田谷区,砧２丁目１１－１４－３０５,,13,112,1570073,,,,,,,2022-05-26,1,,,,,ニムス,0
52,1011003014704,新規,0,2022-05-26,2022-05-26,合同会社９ｙａｒｄｓ　ｐｒｏｄｕｃｔｉｏｎ,,合同会社,東京都,渋谷区,代官山町１３－８キャッスルマンション代官山５１３号,,13,113,1500034,,,,,,,2022-05-26,1,,,,,ナインヤーズプロダクション,0
53,1011003014745,新規,0,2022-05-26,2022-05-26,Ｈａｌｌａｎｘ合同会社,,合同会社,東京都,渋谷区,初台１丁目２１番５号１０２,,13,113,1510061,,,,,,,2022-05-26,1,,,,,ハランクス,0
65,1011805003177,新規,0,2022-05-26,2022-05-26,特定非営利活動法人ロッキー,,その他の設立登記法人,東京都,足立区,東保木間１丁目１０番１２号,,13,121,1210063,,,,,,,2022-05-26,1,,,,,ロッキー,0
68,1012701017072,新規,0,2022-05-26,2022-05-26,愉和株式会社,,株式会社,東京都,小平市,学園西町２丁目１０番地２号,,13,211,1870045,,,,,,,2022-05-26,1,,,,,トウワ,0
73,1013301049142,新規,0,2022-05-26,2022-05-26,株式会社Ｍｙ　ｓｔｙｌｅ　Ｌｉｆｅ,,株式会社,東京都,豊島区,目白２丁目４番１－１１０５号,,13,116,1710031,,,,,,,2022-05-26,1,,,,,マイスタイルライフ,0
74,1013303006166,新規,0,2022-05-26,2022-05-26,合同会社ｉｎｇ,,合同会社,東京都,豊島区,駒込１丁目１９番５号ＤＧ駒込１０２,,13,116,1700003,,,,,,,2022-05-26,1,,,,,イング,0
76,1020001146590,新規,0,2022-05-26,2022-05-26,ＭＡＬＩＮＩ　ＳＯＵＴＨ　ＩＮＤＩＡＮ　ＡＮＤ　ＦＵＳＩＯＮ　ＳＥＴＨＵ株式会社,,株式会社,神奈川県,川崎市中原区,井田１丁目１６番６号,,14,133,2110035,,,,,,,2022-05-26,1,,,,,マリニサウスインディアンアンドフュージョンセドゥ,0
77,1020001146624,新規,0,2022-05-26,2022-05-26,株式会社ＮＫ　ＲＩＳＥ,,株式会社,神奈川県,川崎市川崎区,小田１丁目３番１１号－１０１,,14,131,2100846,,,,,,,2022-05-26,1,,,,,エヌケーライズ,0
80,1020005015544,新規,0,2022-05-26,2022-05-26,一般社団法人川崎市医師会学校医部会,,その他の設立登記法人,神奈川県,川崎市中原区,小杉町３丁目２６番７,,14,133,2110063,,,,,,,2022-05-26,1,,,,,カワサキシイシカイガッコウイブカイ,0
85,1021001076051,新規,0,2022-05-26,2022-05-26,株式会社ｈａｌｏｎａ,,株式会社,神奈川県,相模原市緑区,川尻５１５８番地１,,14,151,2520111,,,,,,,2022-05-26,1,,,,,ハロナ,0
100,1030001148314,新規,0,2022-05-26,2022-05-26,株式会社佃ホールディングス,,株式会社,埼玉県,さいたま市浦和区,岸町２丁目１０番２８号,,11,107,3300064,,,,,,,2022-05-26,1,,,,,ツクダホールディングス,0
101,1030001148339,新規,0,2022-05-26,2022-05-26,惠方株式会社,,株式会社,埼玉県,川口市,西川口１丁目６番１号小野田ビル８０２号,,11,203,3320021,,,,,,,2022-05-26,1,,,,,エホウ,0
105,1030003019471,新規,0,2022-05-26,2022-05-26,バヤラ合同会社,,合同会社,埼玉県,春日部市,備後東１丁目１６番１３号,,11,214,3440032,,,,,,,2022-05-26,1,,,,,バヤラ,0
109,1040001123497,新規,0,2022-05-26,2022-05-26,野俣電気工業株式会社,,株式会社,千葉県,柏市,手賀の杜１丁目１４番地２,,12,217,2701447,,,,,,,2022-05-26,1,,,,,ノマタデンキコウギョウ,0
110,1040001123539,新規,0,2022-05-26,2022-05-26,如意商会株式会社,,株式会社,千葉県,松戸市,小山３番地の３ジュネパレス松戸第９７－３０１号室,,12,207,2710093,,,,,,,2022-05-26,1,,,,,ジョイショウカイ,0
114,1050003006575,新規,0,2022-05-26,2022-05-26,ＳＴ．Ａｎｔｈｏｎｙ’ｓ　Ｔｒａｄｉｎｇ合同会社,,合同会社,茨城県,古河市,大和田２１４２番地３,,08,204,3060111,,,,,,,2022-05-26,1,,,,,セントアントニーストレーディング,0
120,1080001024956,新規,0,2022-05-26,2022-05-26,株式会社まほらば,,株式会社,静岡県,藤枝市,築地６６５番地の１,,22,214,4260031,,,,,,,2022-05-26,1,,,,,マホラバ,0
127,1100003006553,新規,0,2022-05-26,2022-05-26,合同会社Ｈａｒａ,,合同会社,長野県,上伊那郡南箕輪村,１１９６－３,,20,385,3994511,,,,,,,2022-05-26,1,,,,,ハラ,0
131,1110001036675,新規,0,2022-05-26,2022-05-26,株式会社Ｉｂｉｚａ,,株式会社,新潟県,燕市,宮町６番２６号,,15,213,9591257,,,,,,,2022-05-26,1,,,,,イビサ,0
144,1120001246083,新規,0,2022-05-26,2022-05-26,ベスト国際貿易株式会社,,株式会社,大阪府,大阪市中央区,南船場３丁目２－１ラインビルド心斎橋３０５号室,,27,128,5420081,,,,,,,2022-05-26,1,,,,,ベストコクサイボウエキ,0
145,1120001246109,新規,0,2022-05-26,2022-05-26,株式会社谷端商事,,株式会社,大阪府,大阪市淀川区,西宮原１丁目８番２４号,,27,123,5320004,,,,,,,2022-05-26,1,,,,,タニハタショウジ,0
146,1120001246117,新規,0,2022-05-26,2022-05-26,ＮＥＷ　ＬＩＦＥ株式会社,,株式会社,大阪府,大阪市港区,市岡元町２丁目６番１１－４０３号,,27,107,5520002,,,,,,,2022-05-26,1,,,,,ニューライフ,0
147,1120001246125,新規,0,2022-05-26,2022-05-26,株式会社Ｆ＆Ｂ企画,,株式会社,大阪府,大阪市平野区,加美東３丁目１５番１６号,,27,126,5470002,,,,,,,2022-05-26,1,,,,,エフアンドビーキカク,0
149,1120003021765,新規,0,2022-05-26,2022-05-26,合同会社なにわ筋パートナーズ,,合同会社,大阪府,大阪市北区,中之島４丁目３番２０－１７０６号,,27,127,5300005,,,,,,,2022-05-26,1,,,,,ナニワスジパートナーズ,0
166,1140001126127,新規,0,2022-05-26,2022-05-26,株式会社テラアクソン,,株式会社,兵庫県,神戸市中央区,浪花町５６番地三井住友銀行神戸本部ビル２Ｆ,,28,110,6500035,,,,,,,2022-05-26,1,,,,,テラアクソン,0
170,1170001017117,新規,0,2022-05-26,2022-05-26,株式会社ウッドリサイクル和歌山,,株式会社,和歌山県,西牟婁郡上富田町,生馬３１７番地４２,,30,404,6492103,,,,,,,2022-05-26,1,,,,,ウッドリサイクルワカヤマ,0
174,1180001151410,新規,0,2022-05-26,2022-05-26,株式会社Ｄ‐ＦＡＣＴＯＲＹ　ｅｎｔｅｒｔａｉｎｍｅｎｔ,,株式会社,愛知県,春日井市,勝川町１丁目２番地１０,,23,206,4860945,,,,,,,2022-05-26,1,,,,,ディーファクトリーエンターティメント,0
175,1180001151419,新規,0,2022-05-26,2022-05-26,株式会社Ｍ　ＬＩＦＥ　ＳＴＹＬＥ,,株式会社,愛知県,名古屋市名東区,一社３丁目６９番地の１,,23,115,4650093,,,,,,,2022-05-26,1,,,,,エムライフスタイル,0
176,1180001151427,新規,0,2022-05-26,2022-05-26,ＤＲＡＭＡＴＩＣＡＬ　ＲＥＣＯＲＤＳ株式会社,,株式会社,愛知県,名古屋市中区,新栄３丁目２３番１１号ヴェルディーク新栄シティレジデンス１００３号,,23,106,4600007,,,,,,,2022-05-26,1,,,,,ドラマティカルレコーズ,0
177,1180001151435,新規,0,2022-05-26,2022-05-26,株式会社志拓プロジェクト,,株式会社,愛知県,犬山市,大字五郎丸字郷瀬川２８番地１エクスベルジェＢ１０８,,23,215,4840066,,,,,,,2022-05-26,1,,,,,シタクプロジェクト,0
178,1180001151443,新規,0,2022-05-26,2022-05-26,株式会社ｗｅｌｌ‐ｂｅｉｎｇ,,株式会社,愛知県,名古屋市中村区,野田町字又部８番地の２ライオンズガーデン八田４０５号,,23,105,4530858,,,,,,,2022-05-26,1,,,,,ウェルビーイング,0
180,1180003023855,新規,0,2022-05-26,2022-05-26,合同会社Ｐ．Ｃ．Ｔ,,合同会社,愛知県,小牧市,大字北外山１３４４番地２Ｖｅｒｉｏｕｓ　ＺＥＲＯ２Ｃ号,,23,219,4850023,,,,,,,2022-05-26,1,,,,,ピーシーティー,0
181,1180003023863,新規,0,2022-05-26,2022-05-26,合同会社にじのかけはし,,合同会社,愛知県,清須市,須ケ口７１－８,,23,233,4520905,,,,,,,2022-05-26,1,,,,,ニジノカケハシ,0
182,1180301036253,新規,0,2022-05-26,2022-05-26,株式会社小石,,株式会社,愛知県,豊橋市,つつじが丘２丁目２０番地５,,23,201,4400858,,,,,,,2022-05-26,1,,,,,コイシ,0
185,1190001029440,新規,0,2022-05-26,2022-05-26,株式会社おひさま,,株式会社,三重県,松阪市,中町６丁目９番地サンマンションアトレ松阪駅前９０６,,24,204,5150083,,,,,,,2022-05-26,1,,,,,オヒサマ,0
194,1240001059804,新規,0,2022-05-26,2022-05-26,株式会社河野ホールディングス,,株式会社,広島県,広島市安佐北区,亀山７丁目１０番２１号,,34,106,7310231,,,,,,,2022-05-26,1,,,,,コウノホールディングス,0
199,1250005008748,新規,0,2022-05-26,2022-05-26,一般社団法人ａｒｔｅ７５,,その他の設立登記法人,山口県,下関市,長府松小田中町１番４６号,,35,201,7520935,,,,,,,2022-05-26,1,,,,,アルテナナゴ,0
212,1290001097659,新規,0,2022-05-26,2022-05-26,Ｂｒｉｃｋ　Ｍａｋｅｒｓ株式会社,,株式会社,福岡県,福岡市博多区,博多駅前２丁目１９番１７－３１２号トーカン博多第５ビル,,40,132,8120011,,,,,,,2022-05-26,1,,,,,ブリックメイカーズ,0
217,1330001029756,新規,0,2022-05-26,2022-05-26,株式会社三葉物流,,株式会社,熊本県,菊池市,泗水町南田島１７８９番地,,43,210,8611213,,,,,,,2022-05-26,1,,,,,ミツバブツリュウ,0
218,1330001029764,新規,0,2022-05-26,2022-05-26,株式会社ＧＲＯＯＶＥＲＳ,,株式会社,熊本県,熊本市中央区,新市街４番６号古城ビル３Ｆ,,43,101,8600803,,,,,,,2022-05-26,1,,,,,グルーバーズ,0
223,1360001030463,新規,0,2022-05-26,2022-05-26,ノアコーヒー株式会社,,株式会社,沖縄県,名護市,東江３丁目５番５号,,47,209,9050021,,,,,,,2022-05-26,1,,,,,ノアコーヒー,0
236,1420001017859,新規,0,2022-05-26,2022-05-26,株式会社西野電工,,株式会社,青森県,八戸市,大字田面木字赤坂３８番地２０,,02,203,0391104,,,,,,,2022-05-26,1,,,,,ニシノデンコウ,0
244,1470001019090,新規,0,2022-05-26,2022-05-26,Ｗゲイン株式会社,,株式会社,香川県,高松市,伏石町２１０６番地１１リバティハウス３０４,,37,201,7618071,,,,,,,2022-05-26,1,,,,,ダブルゲイン,0
249,1700150108471,新規,0,2022-05-26,2022-05-02,常花の苑実行委員会,,その他,京都府,京都市中京区,高宮町５８０ヨシカワビル４０１,,26,104,6048056,,,,,,,2022-05-02,1,,,,,トコハナノソノジツコウイインカイ,0
250,1700150108637,新規,0,2022-05-26,2022-05-11,ＳＭＩＬＥ,,その他,京都府,京都市左京区,一乗寺燈籠本町２４さくら荘２１１号室,,26,103,6068142,,,,,,,2022-05-11,1,,,,,スマイル,0
261,2010401167492,新規,0,2022-05-26,2022-05-26,株式会社ＳＨＩＪＯＵ,,株式会社,東京都,港区,浜松町２丁目２番１５号浜松町ダイヤビル２階,,13,103,1050013,,,,,,,2022-05-26,1,,,,,シジョウ,0
262,2010401167526,新規,0,2022-05-26,2022-05-26,広重日本株式会社,,株式会社,東京都,港区,赤坂２丁目１２番１２号,,13,103,1070052,,,,,,,2022-05-26,1,,,,,ヒロシゲニッポン,0
263,2010401167567,新規,0,2022-05-26,2022-05-26,株式会社ＴＲＯＮ,,株式会社,東京都,港区,新橋６丁目２２番５－１２０２号,,13,103,1050004,,,,,,,2022-05-26,1,,,,,トロン,0
264,2010403027711,新規,0,2022-05-26,2022-05-26,合同会社ラナイ,,合同会社,東京都,港区,六本木４丁目３番１１－３１９号,,13,103,1060032,,,,,,,2022-05-26,1,,,,,ラナイ,0
280,2011001147471,新規,0,2022-05-26,2022-05-26,株式会社Ｍ＆Ｊ,,株式会社,東京都,渋谷区,恵比寿西２丁目６－１４恵比寿スカイハイツ３１３,,13,113,1500021,,,,,,,2022-05-26,1,,,,,エムアンドジェイ,0
281,2011001147728,新規,0,2022-05-26,2022-05-26,株式会社フォーシーズンズ・エージェンシー・オブ・ジャパン,,株式会社,東京都,渋谷区,桜丘町２６－１セルリアンタワー１５階,,13,113,1500031,,,,,,,2022-05-26,1,,,,,,0
283,2011003014637,新規,0,2022-05-26,2022-05-26,合同会社Ｔ＆Ｃｏｍｐａｎｙ,,合同会社,東京都,目黒区,下目黒２丁目２２－１１トレステージ目黒１１０３,,13,110,1530064,,,,,,,2022-05-26,1,,,,,,0
284,2011003014728,新規,0,2022-05-26,2022-05-26,ＳＨＡＫＡ　ＲＥＣＯＲＤＳ合同会社,,合同会社,東京都,目黒区,上目黒２丁目４３番３号,,13,110,1530051,,,,,,,2022-05-26,1,,,,,シャカレコーズ,0
289,2011101098937,新規,0,2022-05-26,2022-05-26,株式会社ＡＦＯＲ,,株式会社,東京都,新宿区,西新宿６丁目１２番６号コアロード西新宿７０３号室,,13,104,1600023,,,,,,,2022-05-26,1,,,,,エーフォー,0
291,2011203003828,新規,0,2022-05-26,2022-05-26,合同会社不知塾,,合同会社,東京都,中野区,本町２丁目１０番１３号,,13,114,1640012,,,,,,,2022-05-26,1,,,,,シラズジュク,0
298,2011501028064,新規,0,2022-05-26,2022-05-26,株式会社ＪＵＳＴ　ＳＴＡＲＴ,,株式会社,東京都,北区,王子３丁目５番２号エレガンス１４－１０１号,,13,117,1140002,,,,,,,2022-05-26,1,,,,,ジャストスタート,0
299,2011601025985,新規,0,2022-05-26,2022-05-26,株式会社アルカード,,株式会社,東京都,練馬区,早宮２丁目１７番２８号５０３,,13,120,1790085,,,,,,,2022-05-26,1,,,,,アルカード,0
305,2011801040768,新規,0,2022-05-26,2022-05-26,株式会社関根商店,,株式会社,東京都,葛飾区,東堀切１丁目１６番２０号,,13,122,1240004,,,,,,,2022-05-26,1,,,,,セキネショウテン,0
306,2012401039226,新規,0,2022-05-26,2022-05-26,株式会社ＣＲＯＳＳ‐ＺＥＲＯ,,株式会社,東京都,小金井市,前原町４丁目２０番４号,,13,210,1840013,,,,,,,2022-05-26,1,,,,,クロスゼロ,0
307,2012701017063,新規,0,2022-05-26,2022-05-26,株式会社ジョイフル,,株式会社,東京都,東久留米市,中央町６丁目６番１０号,,13,222,2030054,,,,,,,2022-05-26,1,,,,,ジョイフル,0
310,2013301049158,新規,0,2022-05-26,2022-05-26,株式会社Ａ＆Ｔ,,株式会社,東京都,豊島区,南長崎５丁目２７番１２号アーバンヒルズ東長崎１０７,,13,116,1710052,,,,,,,2022-05-26,1,,,,,エイアンドティー,0
315,2020001146573,新規,0,2022-05-26,2022-05-26,株式会社Ｌａｎｔｅｒｎ,,株式会社,神奈川県,横浜市青葉区,柿の木台４６番地２２,,14,117,2270048,,,,,,,2022-05-26,1,,,,,ランタン,0
316,2020001146607,新規,0,2022-05-26,2022-05-26,株式会社ＰｌａｎｎｉｎｇＳｔｕｄｉｏＡｉｚａｗａ,,株式会社,神奈川県,横浜市旭区,小高町５９－４,,14,112,2410015,,,,,,,2022-05-26,1,,,,,プランニングスタジオアイザワ,0
317,2020001146623,新規,0,2022-05-26,2022-05-26,たしなむ株式会社,,株式会社,神奈川県,横浜市西区,みなとみらい３丁目７－１オーシャンゲートみなとみらい８ＦＷｅｗｏｒｋ内,,14,103,2200012,,,,,,,2022-05-26,1,,,,,タシナム,0
323,2021001076034,新規,0,2022-05-26,2022-05-26,株式会社Ｂｅｉｎｇ　ａｎｄ　Ｒｅｌａｔｉｏｎ,,株式会社,神奈川県,鎌倉市,御成町１１番２号ヤノヤビル２Ｆ,,14,204,2480012,,,,,,,2022-05-26,1,,,,,ビーイングアンドリレイション,0
334,2040001123496,新規,0,2022-05-26,2022-05-26,株式会社エフエヌサービス,,株式会社,千葉県,船橋市,前原東３丁目２番１１号,,12,204,2740824,,,,,,,2022-05-26,1,,,,,エフエヌサービス,0
335,2040001123546,新規,0,2022-05-26,2022-05-26,英工業株式会社,,株式会社,千葉県,八千代市,大和田新田１５番地高津団地７街区３棟３０３号,,12,221,2760046,,,,,,,2022-05-26,1,,,,,ハナブサコウギョウ,0
338,2040003020097,新規,0,2022-05-26,2022-05-26,合同会社三和,,合同会社,千葉県,旭市,後草１８２０番地１１,,12,215,2892613,,,,,,,2022-05-26,1,,,,,サンワ,0
343,2050003006574,新規,0,2022-05-26,2022-05-26,合同会社ＳＨＩＯＮ　ＩＤＥＡＬＳ　ＩＮＴＥＲＮＡＴＩＯＮＡＬ,,合同会社,茨城県,結城市,大字結城８４０番地ダイヤマテナント１階南,,08,207,3070001,,,,,,,2022-05-26,1,,,,,シオンアイデラスインターナショナル,0
344,2050005013081,新規,0,2022-05-26,2022-05-26,一般社団法人ＭＩＴＳＵＨＡ　ＣＬＵＢ,,その他の設立登記法人,茨城県,水戸市,堀町２２４８－３,,08,201,3100903,,,,,,,2022-05-26,1,,,,,ミツハクラブ,0
347,2070003004493,新規,0,2022-05-26,2022-05-26,合同会社富輪,,合同会社,群馬県,高崎市,新町１４０４番地２ミヤマハイツＩＩ４０２号室,00126668,10,202,3701301,,,,,,,2022-05-26,1,,,,,プリン,0
349,2080003002802,新規,0,2022-05-26,2022-05-26,Ａｓ　Ｃｏｎｎｅｃｔ合同会社,,合同会社,静岡県,静岡市葵区,川辺町１丁目３－１９,,22,101,4200043,,,,,,,2022-05-26,1,,,,,アズコネクト,0
361,2120001246116,新規,0,2022-05-26,2022-05-26,Ｄａｎａ株式会社,,株式会社,大阪府,大阪市港区,市岡元町２丁目６番１１－２０５号,,27,107,5520002,,,,,,,2022-05-26,1,,,,,ダナ,0
362,2120003021764,新規,0,2022-05-26,2022-05-26,藤川合同会社,,合同会社,大阪府,大阪市城東区,野江２丁目１９番１７－９０４号,,27,118,5360006,,,,,,,2022-05-26,1,,,,,フジカワ,0
368,2120101065614,新規,0,2022-05-26,2022-05-26,ＣＢＭ株式会社,,株式会社,大阪府,岸和田市,野田町２丁目４番１４号,,27,202,5960076,,,,,,,2022-05-26,1,,,,,シービーエム,0
372,2122003002348,新規,0,2022-05-26,2022-05-26,ＰＨＡＮ合同会社,,合同会社,大阪府,東大阪市,北石切町２２番２５号石切山麓ハイツ２０６,,27,227,5798015,,,,,,,2022-05-26,1,,,,,ファン,0
378,2140001126126,新規,0,2022-05-26,2022-05-26,株式会社鮫島電設,,株式会社,兵庫県,西宮市,北六甲台５丁目４４番２号,,28,204,6511413,,,,,,,2022-05-26,1,,,,,サメシマデンセツ,0
381,2140005026181,新規,0,2022-05-26,2022-05-26,一般社団法人日本ミュージックベル・トーンチャイム協会,,その他の設立登記法人,兵庫県,西脇市,鹿野町９８０番地の２,,28,213,6770033,,,,,,,2022-05-26,1,,,,,ニホンミュージックベルトーンチャイムキョウカイ,0
388,2180001151426,新規,0,2022-05-26,2022-05-26,ＴＯＭＩ株式会社,,株式会社,愛知県,清須市,西田中蓮池３９番地３,,23,233,4520933,,,,,,,2022-05-26,1,,,,,トミ,0
390,2180303005338,新規,0,2022-05-26,2022-05-26,合同会社とわ,,合同会社,愛知県,西尾市,米津町宮前３２番地,,23,213,4450802,,,,,,,2022-05-26,1,,,,,トワ,0
406,2260001036874,新規,0,2022-05-26,2022-05-26,平川輸送株式会社,,株式会社,岡山県,岡山市南区,築港栄町１０番１号,,33,104,7028053,,,,,,,2022-05-26,1,,,,,ヒラカワユソウ,0
410,2270001008526,新規,0,2022-05-26,2022-05-26,株式会社オペレーション研究所,,株式会社,鳥取県,鳥取市,栄町７６２番地,,31,201,6800831,,,,,,,2022-05-26,1,,,,,オペレーションケンキュウジョ,0
417,2290003012557,新規,0,2022-05-26,2022-05-26,合同会社ｏｒｘｉｓ,,合同会社,福岡県,福岡市博多区,博多駅前４丁目１４番２３－３１８号アーベイン博多駅前ファースト,,40,132,8120011,,,,,,,2022-05-26,1,,,,,オルキス,0
421,2300003001847,新規,0,2022-05-26,2022-05-26,合同会社ＢＥＬＬＣＯ,,合同会社,佐賀県,佐賀市,新栄西１丁目７番１０号,,41,201,8400859,,,,,,,2022-05-26,1,,,,,ベルコ,0
423,2330001029763,新規,0,2022-05-26,2022-05-26,アクセンス株式会社,,株式会社,熊本県,熊本市西区,田崎本町１０番４号,,43,103,8600052,,,,,,,2022-05-26,1,,,,,アクセンス,0
428,2360003012038,新規,0,2022-05-26,2022-05-26,合同会社木工ケンケンドウ,,合同会社,沖縄県,宮古島市,上野字野原１１９０－１４９,,47,214,9060201,,,,,,,2022-05-26,1,,,,,モッコウケンケンドウ,0
429,2370001048594,新規,0,2022-05-26,2022-05-26,株式会社さくら建築設計,,株式会社,宮城県,仙台市泉区,高森７丁目４１番地の５,,04,105,9813203,,,,,,,2022-05-26,1,,,,,サクラケンチクセッケイ,0
439,2430001086729,新規,0,2022-05-26,2022-05-26,株式会社リライズ,,株式会社,北海道,札幌市厚別区,厚別西二条３丁目５番７号,,01,108,0040062,,,,,,,2022-05-26,1,,,,,リライズ,0
446,2700150108669,新規,0,2022-05-26,2022-05-12,第二学区まちづくり振興協議会,,その他,山形県,東田川郡庄内町,払田字サビ４０番地,,06,428,9997757,,,,,,,2022-05-12,1,,,,,ダイニガツクマチヅクリシンコウキヨウギカイ,0
447,2700150108685,新規,0,2022-05-26,2022-05-12,岐阜市農業再生協議会,,その他,岐阜県,岐阜市,司町４０番地１,,21,201,5008076,,,,,,,2022-05-12,1,,,,,ギフシノウギヨウサイセイキヨウギカイ,0
448,3010001226144,新規,0,2022-05-26,2022-05-26,株式会社ｕｗｕ,,株式会社,東京都,千代田区,岩本町３丁目８－８中和秋葉原ビル,,13,101,1010032,,,,,,,2022-05-26,1,,,,,ウー,0
449,3010001226838,新規,0,2022-05-26,2022-05-26,株式会社ブラインドトラストリサーチ,,株式会社,東京都,千代田区,一番町９番地１４ユニパリス一番町２０２号,,13,101,1020082,,,,,,,2022-05-26,1,,,,,ブラインドトラストリサーチ,0
457,3010401167491,新規,0,2022-05-26,2022-05-26,株式会社フィアレスミュージック,,株式会社,東京都,港区,西新橋３丁目２５番３１号愛宕山ＰＲＥＸ９階,,13,103,1050003,,,,,,,2022-05-26,1,,,,,フィアレスミュージック,0
458,3010401167558,新規,0,2022-05-26,2022-05-26,株式会社ＡＳ,,株式会社,東京都,港区,海岸１丁目４－２２・１０階,,13,103,1050022,,,,,,,2022-05-26,1,,,,,エーエス,0
459,3010401167599,新規,0,2022-05-26,2022-05-26,株式会社＆Ｘ,,株式会社,東京都,港区,元麻布３丁目３番９号,,13,103,1060046,,,,,,,2022-05-26,1,,,,,アンドエックス,0
462,3010403027727,新規,0,2022-05-26,2022-05-26,目黒開発合同会社,,合同会社,東京都,港区,六本木４丁目９番２号,,13,103,1060032,,,,,,,2022-05-26,1,,,,,メグロカイハツ,0
476,3010901050899,新規,0,2022-05-26,2022-05-26,佳達産業株式会社,,株式会社,東京都,世田谷区,北烏山９丁目１番２８号,,13,112,1570061,,,,,,,2022-05-26,1,,,,,カタツサンギョウ,0
477,3010901050924,新規,0,2022-05-26,2022-05-26,株式会社ＡＴＦＳ,,株式会社,東京都,世田谷区,世田谷１丁目４１番２号１階,,13,112,1540017,,,,,,,2022-05-26,1,,,,,エーティーエフエス,0
483,3011001147652,新規,0,2022-05-26,2022-05-26,株式会社ＫＯＴＩＨ,,株式会社,東京都,渋谷区,道玄坂１丁目１０番８号渋谷道玄坂東急ビル２Ｆ－Ｃ,,13,113,1500043,,,,,,,2022-05-26,1,,,,,,0
484,3011001147693,新規,0,2022-05-26,2022-05-26,楼蘭株式会社,,株式会社,東京都,渋谷区,幡ヶ谷３丁目３９番１２号渋谷ウェストビル１階,,13,113,1510072,,,,,,,2022-05-26,1,,,,,ロウラン,0
486,3011203003819,新規,0,2022-05-26,2022-05-26,合同会社ライヒエトワル,,合同会社,東京都,中野区,弥生町２丁目３１番１４号２０２号室,,13,114,1640013,,,,,,,2022-05-26,1,,,,,ライヒエトワル,0
487,3011301027802,新規,0,2022-05-26,2022-05-26,株式会社鋼鉄クマさん参號,,株式会社,東京都,杉並区,高円寺南３丁目５８番１７号ハウスポート高円寺ビル３Ｆ,,13,115,1660003,,,,,,,2022-05-26,1,,,,,コウテツクマサンサンゴウ,0
492,3011601025984,新規,0,2022-05-26,2022-05-26,株式会社ＦＲＳ,,株式会社,東京都,練馬区,南大泉１丁目４７－１１－１０６,,13,120,1780064,,,,,,,2022-05-26,1,,,,,エフアールエス,0
493,3011801040767,新規,0,2022-05-26,2022-05-26,Ｄ　ｐｌｕｓ株式会社,,株式会社,東京都,足立区,梅島３丁目３３番６号ＥＭＢＬＥＭ西新井２Ｆ－１７,,13,121,1210816,,,,,,,2022-05-26,1,,,,,ディープラス,0
498,3013301049140,新規,0,2022-05-26,2022-05-26,株式会社ｐｌａｎｎｅｒ,,株式会社,東京都,豊島区,東池袋３丁目１番４号メゾンサンシャイン１００９,,13,116,1700013,,,,,,,2022-05-26,1,,,,,プランナー,0
507,3020005015542,新規,0,2022-05-26,2022-05-26,特定非営利活動法人Ａ　ｃｏｍｒａｄｅｓ,,その他の設立登記法人,神奈川県,横浜市中区,桜木町１丁目１０１番地１クロスゲート７階,,14,104,2310062,,,,,,,2022-05-26,1,,,,,エースコムレイズ,0
514,3021001076058,新規,0,2022-05-26,2022-05-26,株式会社メリカ,,株式会社,神奈川県,厚木市,下川入２８番地１,,14,212,2430206,,,,,,,2022-05-26,1,,,,,メリカ,0
524,3030001148378,新規,0,2022-05-26,2022-05-26,株式会社ＧＡＬＬＥＲＩＡ,,株式会社,埼玉県,さいたま市北区,植竹町１丁目２２９番地,,11,102,3310813,,,,,,,2022-05-26,1,,,,,ガレリア,0
528,3030003019461,新規,0,2022-05-26,2022-05-26,合同会社さくらケアセンター,,合同会社,埼玉県,加須市,陽光台２丁目７３４番地６３,,11,210,3491204,,,,,,,2022-05-26,1,,,,,サクラケアセンター,0
535,3040001123529,新規,0,2022-05-26,2022-05-26,株式会社高岡,00126666,株式会社,千葉県,銚子市,小浜町２５５９番地の１９,,12,202,2880821,,,,,,,2022-05-26,1,,,,,タカオカ,0
536,3040001123553,新規,0,2022-05-26,2022-05-26,株式会社ＰＡＢＩＬＩ　ＰＯ,,株式会社,千葉県,茂原市,早野１１３８－１４,,12,210,2970037,,,,,,,2022-05-26,1,,,,,パビリポ,0
560,3120003021763,新規,0,2022-05-26,2022-05-26,合同会社ミモーゼハウス,,合同会社,大阪府,枚方市,須山町５１－７エンデバー２Ｂ,,27,210,5731164,,,,,,,2022-05-26,1,,,,,ミモーゼハウス,0
561,3120903004165,新規,0,2022-05-26,2022-05-26,ＫＥＹ．Ｋｅｅｐ　Ｅｔｅｒｎａｌｌｙ　Ｙｅｌｌ合同会社,,合同会社,大阪府,高槻市,高見台１番１７号,,27,207,5691020,,,,,,,2022-05-26,1,,,,,キーキープエターナリーエール,0
567,3140001126125,新規,0,2022-05-26,2022-05-26,株式会社Ｋ’ｓプランニング,,株式会社,兵庫県,西宮市,小曽根町３丁目７番２５－１号,,28,204,6638122,,,,,,,2022-05-26,1,,,,,ケーズプランニング,0
568,3140003017710,新規,0,2022-05-26,2022-05-26,ＴｈｅＯＮＴＹ合同会社,,合同会社,兵庫県,神戸市中央区,多聞通３丁目２番９号,,28,110,6500015,,,,,,,2022-05-26,1,,,,,ザオンティ,0
571,3160001024228,新規,0,2022-05-26,2022-05-26,株式会社ＨＩＲＯ,,株式会社,滋賀県,米原市,市場１４４番地３,,25,214,5210225,,,,,,,2022-05-26,1,,,,,ヒロ,0
577,3180001151409,新規,0,2022-05-26,2022-05-26,株式会社カービューティープロ・ジャック,,株式会社,愛知県,一宮市,伝法寺６丁目１６番地８,,23,203,4910828,,,,,,,2022-05-26,1,,,,,カービューティープロジャック,0
578,3180001151425,新規,0,2022-05-26,2022-05-26,名東商事株式会社,,株式会社,愛知県,名古屋市東区,白壁１丁目２１番,,23,102,4610011,,,,,,,2022-05-26,1,,,,,メイトウショウジ,0
579,3180001151433,新規,0,2022-05-26,2022-05-26,シープ株式会社,,株式会社,愛知県,名古屋市中区,金山１丁目２番１２号シャンボール金山２Ｂ号,,23,106,4600022,,,,,,,2022-05-26,1,,,,,シープ,0
588,3180305009344,新規,0,2022-05-26,2022-05-26,ＮＰＯ法人ヒトトキ,,その他の設立登記法人,愛知県,蒲郡市,水竹町西清水川７番地３,,23,214,4430005,,,,,,,2022-05-26,1,,,,,,0
590,3190001029439,新規,0,2022-05-26,2022-05-26,株式会社マネーデザインラボ,,株式会社,三重県,多気郡多気町,朝柄２２８０番地１,,24,441,5192215,,,,,,,2022-05-26,1,,,,,マネーデザインラボ,0
593,3200001040088,新規,0,2022-05-26,2022-05-26,株式会社ハーバー,,株式会社,岐阜県,揖斐郡大野町,大字黒野２０６４番地１,,21,403,5010521,,,,,,,2022-05-26,1,,,,,ハーバー,0
612,3290001097657,新規,0,2022-05-26,2022-05-26,株式会社ＳｎｏｗＤｅｎｔ,,株式会社,福岡県,福岡市中央区,薬院２丁目１７－１ライオンズマンション薬院第２．６０２,,40,133,8100022,,,,,,,2022-05-26,1,,,,,スノーデント,0
613,3290001097665,新規,0,2022-05-26,2022-05-26,Ｎａｔｉｏｎａｌ　Ｓｅａｒｃｈ　Ｆｕｎｄ株式会社,,株式会社,福岡県,福岡市早良区,室見４丁目１０番１５－２号,,40,137,8140015,,,,,,,2022-05-26,1,,,,,ナショナルサーチファンド,0
614,3290003012556,新規,0,2022-05-26,2022-05-26,ＭｙＳｔｙｌｅ合同会社,,合同会社,福岡県,糟屋郡志免町,大字吉原１３４番３号グランディア博多の杜６２５号,,40,343,8112208,,,,,,,2022-05-26,1,,,,,マイスタイル,0
615,3290801028563,新規,0,2022-05-26,2022-05-26,株式会社翔建設,,株式会社,福岡県,遠賀郡芦屋町,高浜町２番１５号,,40,381,8070122,,,,,,,2022-05-26,1,,,,,ショウケンセツ,0
618,3320005009992,新規,0,2022-05-26,2022-05-26,一般社団法人大分七夕,,その他の設立登記法人,大分県,大分市,中央町３丁目６－１３,,44,201,8700035,,,,,,,2022-05-26,1,,,,,オオイタタナバタ,0
625,3350005006070,新規,0,2022-05-26,2022-05-26,一般社団法人あつきこころ,,その他の設立登記法人,宮崎県,延岡市,大貫町３丁目７５４番地１,,45,203,8820803,,,,,,,2022-05-26,1,,,,,アツキココロ,0
637,3430001086703,新規,0,2022-05-26,2022-05-26,株式会社我聖総業,,株式会社,北海道,滝川市,黄金町西１丁目１番２７号,,01,225,0730011,,,,,,,2022-05-26,1,,,,,ワセイソウギョウ,0
638,3430001086728,新規,0,2022-05-26,2022-05-26,株式会社ＬＥＡＰ,,株式会社,北海道,札幌市北区,篠路町拓北７番地２０６,,01,102,0028054,,,,,,,2022-05-26,1,,,,,リープ,0
643,3500005008497,新規,0,2022-05-26,2022-05-26,社会福祉法人みどり会,,その他の設立登記法人,愛媛県,松山市,安城寺町４９７番地,,38,201,7918006,,,,,,,2022-05-26,1,,,,,ミドリカイ,0
644,3700150108148,新規,0,2022-05-26,2022-04-19,スキースクールひるがの分校,,その他,岐阜県,郡上市,白鳥町二日町３０２,,21,219,5015103,,,,,,,2022-04-19,1,,,,,スキースクールヒルガノブンコウ,0
656,4010001226589,新規,0,2022-05-26,2022-05-26,株式会社Ｎｅｏ‐Ｐｏｒｔｅ,,株式会社,東京都,千代田区,外神田４丁目４番７号ＭＴビル５階,,13,101,1010021,,,,,,,2022-05-26,1,,,,,ネオポルテ,0
657,4010001226812,新規,0,2022-05-26,2022-05-26,凜パートナーズ株式会社,,株式会社,東京都,千代田区,九段南４丁目８番８－１００３号,,13,101,1020074,,,,,,,2022-05-26,1,,,,,リンパートナーズ,0
658,4010001226837,新規,0,2022-05-26,2022-05-26,ＣＡＴ‐ＣｒｅａｔｉｖｅＧｒｏｕｐ株式会社,,株式会社,東京都,千代田区,平河町１丁目６－１５ＵＳビル８Ｆ,,13,101,1020093,,,,,,,2022-05-26,1,,,,,キャットクリエイティブグループ,0
659,4010001226853,新規,0,2022-05-26,2022-05-26,共済シェアドサービス株式会社,,株式会社,東京都,千代田区,有楽町１丁目７番１号,,13,101,1000006,,,,,,,2022-05-26,1,,,,,キョウサイシェアドサービス,0
660,4010003037729,新規,0,2022-05-26,2022-05-26,Ｅｓｐｒｉｔ　Ｔｏｋｙｏ合同会社,,合同会社,東京都,千代田区,丸の内２丁目１番１号,,13,101,1000005,,,,,,,2022-05-26,1,,,,,エスプリトウキョウ,0
661,4010003037753,新規,0,2022-05-26,2022-05-26,東京オフィス４合同会社,,合同会社,東京都,千代田区,丸の内３丁目１番１号東京共同会計事務所内,,13,101,1000005,,,,,,,2022-05-26,1,,,,,トウキョウオフィスフォー,0
670,4010401167549,新規,0,2022-05-26,2022-05-26,Ｎｅｏ　Ｓｔｙｌｅ株式会社,,株式会社,東京都,港区,赤坂３丁目１１－１５ＶＯＲＴ赤坂見附４階,,13,103,1070052,,,,,,,2022-05-26,1,,,,,ネオスタイル,0
671,4010401167557,新規,0,2022-05-26,2022-05-26,株式会社ＭＳ,,株式会社,東京都,港区,海岸１丁目４－２２・１０階,,13,103,1050022,,,,,,,2022-05-26,1,,,,,エムエス,0
687,4010903007392,新規,0,2022-05-26,2022-05-26,ＩＣＨＩＤＯ合同会社,,合同会社,東京都,世田谷区,太子堂４丁目２５番４号,,13,112,1540004,,,,,,,2022-05-26,1,,,,,イチド,0
692,4011001147486,新規,0,2022-05-26,2022-05-26,ＧＵＩＬＤ株式会社,,株式会社,東京都,渋谷区,神宮前６丁目２３番４号桑野ビル２階,,13,113,1500001,,,,,,,2022-05-26,1,,,,,ギルド,0
693,4011001147701,新規,0,2022-05-26,2022-05-26,ビヨンドインフィニティ株式会社,,株式会社,東京都,渋谷区,渋谷２丁目１９－１５宮益坂ビルディング６０９,,13,113,1500002,,,,,,,2022-05-26,1,,,,,ビヨンドインフィニティ,0
694,4011003014726,新規,0,2022-05-26,2022-05-26,麒麟アニメーション合同会社,,合同会社,東京都,渋谷区,代々木１丁目６番１２号,,13,113,1510053,,,,,,,2022-05-26,1,,,,,キリンアニメーション,0
709,4011603003608,新規,0,2022-05-26,2022-05-26,合同会社ａｐｐｒｅｃｉａｔｅ,,合同会社,東京都,練馬区,石神井台３丁目２番３０号,,13,120,1770045,,,,,,,2022-05-26,1,,,,,アプリシエイト,0
725,4020001146596,新規,0,2022-05-26,2022-05-26,株式会社Ｗｉｓｔｅｒｉａ,,株式会社,神奈川県,横浜市泉区,上飯田町４６８３番地４,,14,116,2450018,,,,,,,2022-05-26,1,,,,,ウィステリア,0
726,4020001146605,新規,0,2022-05-26,2022-05-26,晴々株式会社,,株式会社,神奈川県,横浜市青葉区,桂台１丁目１１番地４９リリアーレ１階,,14,117,2270034,,,,,,,2022-05-26,1,,,,,ハレバレ,0
727,4020001146613,新規,0,2022-05-26,2022-05-26,株式会社マイレクチャー,,株式会社,神奈川県,横浜市保土ケ谷区,釜台町１－２１－４０３,,14,106,2400066,,,,,,,2022-05-26,1,,,,,マイレクチャー,0
733,4020005015533,新規,0,2022-05-26,2022-05-26,一般社団法人日本アロマレクリエーション協会,,その他の設立登記法人,神奈川県,川崎市中原区,下新城１丁目１番２３－１０３号,,14,133,2110042,,,,,,,2022-05-26,1,,,,,ニホンアロマレクリエーションキョウカイ,0
749,4030003019452,新規,0,2022-05-26,2022-05-26,ＳＫ　ＳＨＯＰ合同会社,,合同会社,埼玉県,さいたま市緑区,大字三室３０２８－５,,11,109,3360911,,,,,,,2022-05-26,1,,,,,エスケーショップ,0
750,4030003019469,新規,0,2022-05-26,2022-05-26,合同会社五感心理セラピー,,合同会社,埼玉県,ふじみ野市,上福岡３丁目１６番９号,,11,245,3560004,,,,,,,2022-05-26,1,,,,,ゴカンシンリセラピー,0
751,4030003019477,新規,0,2022-05-26,2022-05-26,Ｓｕｉｚａｎ　Ｓｅｒｅｎｉｔｙ合同会社,,合同会社,埼玉県,狭山市,広瀬台１丁目１７番２号,,11,215,3501328,,,,,,,2022-05-26,1,,,,,スイザンセレニティー,0
755,4040001123528,新規,0,2022-05-26,2022-05-26,株式会社アールＵ,,株式会社,千葉県,我孫子市,都部７５番地,,12,222,2701131,,,,,,,2022-05-26,1,,,,,アールユー,0
756,4040001123544,新規,0,2022-05-26,2022-05-26,株式会社タシガイ,,株式会社,千葉県,松戸市,八ケ崎７丁目９－１１ジュネパレス松戸第５９・２Ｆ２０２号室,,12,207,2700023,,,,,,,2022-05-26,1,,,,,タシガイ,0
757,4040001123569,新規,0,2022-05-26,2022-05-26,株式会社ニコモス,,株式会社,千葉県,館山市,上野原７７番地４,,12,205,2940042,,,,,,,2022-05-26,1,,,,,ニコモス,0
764,4050001051125,新規,0,2022-05-26,2022-05-26,株式会社渡辺住設,,株式会社,茨城県,つくばみらい市,東栗山４３７番地,,08,235,3002313,,,,,,,2022-05-26,1,,,,,ワタナベジュウセツ,0
768,4050003006572,新規,0,2022-05-26,2022-05-26,ヤマネロボティクス合同会社,,合同会社,茨城県,つくば市,島名１２９７番地（香取台Ｂ１０街区５０）,,08,220,3002655,,,,,,,2022-05-26,1,,,,,ヤマネロボティクス,0
780,4110003004768,新規,0,2022-05-26,2022-05-26,合同会社フォービット・マーケティング,,合同会社,新潟県,新潟市西区,青山１丁目１１番３号,,15,107,9502002,,,,,,,2022-05-26,1,,,,,フォービットマーケティング,0
788,4120001246139,新規,0,2022-05-26,2022-05-26,株式会社テレサ,,株式会社,大阪府,大阪市天王寺区,生玉町１２番１－５０２号,,27,109,5430071,,,,,,,2022-05-26,1,,,,,テレサ,0
797,4150001025572,新規,0,2022-05-26,2022-05-26,株式会社竹森,,株式会社,奈良県,生駒郡平群町,大字下垣内６７番地の１,,29,342,6360933,,,,,,,2022-05-26,1,,,,,タケモリ,0
798,4160001024227,新規,0,2022-05-26,2022-05-26,株式会社ＭＩＴＡＣＯＤＥ,,株式会社,滋賀県,大津市,昭和町４番１２号,,25,201,5200817,,,,,,,2022-05-26,1,,,,,ミタコード,0
799,4170001017114,新規,0,2022-05-26,2022-05-26,株式会社ＮＯＢＵ,,株式会社,和歌山県,和歌山市,西５５０番地,,30,201,6408313,,,,,,,2022-05-26,1,,,,,ノブ,0
803,4180001151408,新規,0,2022-05-26,2022-05-26,株式会社日建,,株式会社,愛知県,名古屋市東区,東桜２丁目３番７－６４２号,,23,102,4610005,,,,,,,2022-05-26,1,,,,,ニッケン,0
804,4180001151424,新規,0,2022-05-26,2022-05-26,株式会社山口エクステリア,,株式会社,愛知県,瀬戸市,東権現町５４番地の４４,,23,204,4890883,,,,,,,2022-05-26,1,,,,,ヤマグチエクステリア,0
805,4180001151432,新規,0,2022-05-26,2022-05-26,姚卓球株式会社,,株式会社,愛知県,名古屋市中村区,烏森町６丁目１０４番地,,23,105,4530855,,,,,,,2022-05-26,1,,,,,ヨウタッキュウ,0
820,4230005009233,新規,0,2022-05-26,2022-05-26,医療法人社団ハルサ,,その他の設立登記法人,富山県,高岡市,福岡町荒屋敷６３０,,16,202,9390131,,,,,,,2022-05-26,1,,,,,ハルサ,0
833,4290001097664,新規,0,2022-05-26,2022-05-26,株式会社ポケットプラネット,,株式会社,福岡県,春日市,大谷７丁目８６番地,,40,218,8160831,,,,,,,2022-05-26,1,,,,,ポケットプラネット,0
835,4290003012555,新規,0,2022-05-26,2022-05-26,合同会社Ｇｏｌｄｅｎ　Ｌａｂｅｌ,,合同会社,福岡県,福岡市中央区,大名１丁目１２番５２号ＣＥＰＡビル１Ｆ,,40,133,8100041,,,,,,,2022-05-26,1,,,,,ゴールデンレーベル,0
836,4290801028562,新規,0,2022-05-26,2022-05-26,河田建設株式会社,,株式会社,福岡県,北九州市若松区,塩屋１丁目１５番２２号,,40,103,8080131,,,,,,,2022-05-26,1,,,,,カワタケンセツ,0
841,4310005008615,新規,0,2022-05-26,2022-05-26,ＮＰＯ法人エスプレンドール,,その他の設立登記法人,長崎県,長崎市,三川町１２３４番地１,,42,201,8528121,,,,,,,2022-05-26,1,,,,,エスプレンドール,0
842,4320003003815,新規,0,2022-05-26,2022-05-26,ＷＥＬＦＡＲＥ　ＰＬＡＺＡ合同会社,,合同会社,大分県,大分市,大字旦野原４５７番地（コーポＫＡＩ１０２号室）,,44,201,8701124,,,,,,,2022-05-26,1,,,,,ウェルフェアプラザ,0
846,4330003009381,新規,0,2022-05-26,2022-05-26,合同会社勇吹商事,,合同会社,熊本県,球磨郡錦町,大字一武１６８８番地１,,43,501,8680302,,,,,,,2022-05-26,1,,,,,イブキショウジ,0
853,4410005006468,新規,0,2022-05-26,2022-05-26,一般社団法人ゆめはぐプロジェクト,,その他の設立登記法人,秋田県,秋田市,御野場新町１丁目２１番１２号,,05,201,0101425,,,,,,,2022-05-26,1,,,,,ユメハグプロジェクト,0
860,4430003013951,新規,0,2022-05-26,2022-05-26,合同会社ＤＲ．ＯＮＥ,,合同会社,北海道,札幌市白石区,本通２丁目北５－９ＰＬＡＺＡ　ＩＮ　本通１０６号,,01,104,0030027,,,,,,,2022-05-26,1,,,,,ドクターワン,0
868,4700150107504,新規,0,2022-05-26,2022-03-25,せとものＦｒｉｅｎｄｓ,,その他,愛知県,瀬戸市,西山町２丁目４２－１０,,23,204,4890987,,,,,,,2022-03-25,1,,,,,セトモノフレンズ,0
869,4700150107917,新規,0,2022-05-26,2022-04-13,１６号室,,その他,愛知県,名古屋市西区,上堀越町２丁目１９番地３ハートイン堀越３Ｂ,,23,104,4510084,,,,,,,2022-04-13,1,,,,,ジユウロクゴウシツ,0
870,4700150108675,新規,0,2022-05-26,2022-05-12,１８ネットワーク,,その他,山形県,東田川郡庄内町,余目字南田９４番地１,,06,428,9997781,,,,,,,2022-05-12,1,,,,,イチハチネツトワーク,0
878,5010001226836,新規,0,2022-05-26,2022-05-26,株式会社サロン・ド・エヌ,,株式会社,東京都,中央区,勝どき１丁目１番１－５３７号,,13,102,1040054,,,,,,,2022-05-26,1,,,,,サロンドエヌ,0
880,5010003037703,新規,0,2022-05-26,2022-05-26,合同会社サンライズ,,合同会社,東京都,文京区,目白台３丁目９番２―４０２号,,13,105,1120015,,,,,,,2022-05-26,1,,,,,サンライズ,0
881,5010003037760,新規,0,2022-05-26,2022-05-26,ＤＲソリューションズ合同会社,,合同会社,東京都,中央区,日本橋蛎殻町１丁目１３番１号,,13,102,1030014,,,,,,,2022-05-26,1,,,,,ディーアールソリューションズ,0
882,5010005035036,新規,0,2022-05-26,2022-05-26,医用画像通信技術研究組合,,その他の設立登記法人,東京都,文京区,本郷７丁目３番１号,,13,105,1130033,,,,,,,2022-05-26,1,,,,,イヨウガゾウツウシン,0
892,5010401167614,新規,0,2022-05-26,2022-05-26,株式会社アイ・シー・ゼロ・スリー,,株式会社,東京都,港区,虎ノ門３丁目７番１０号ランディック虎ノ門ビル９階,,13,103,1050001,,,,,,,2022-05-26,1,,,,,アイシーゼロスリー,0
897,5010403027717,新規,0,2022-05-26,2022-05-26,ＡＴＨＬＥＴＥ合同会社,,合同会社,東京都,港区,六本木４丁目５番１１号ＳＩＸ４階,,13,103,1060032,,,,,,,2022-05-26,1,,,,,アスリート,0
898,5010403027733,新規,0,2022-05-26,2022-05-26,合同会社Ｔ＆Ｔメディカルサポート,,合同会社,東京都,港区,六本木３丁目１３番１２号エルサビル３０１,,13,103,1060032,,,,,,,2022-05-26,1,,,,,ティーアンドティーメディカルサポート,0
899,5010403027741,新規,0,2022-05-26,2022-05-26,合同会社知足,,合同会社,東京都,港区,白金３丁目１番１０号１００４,,13,103,1080072,,,,,,,2022-05-26,1,,,,,チソク,0
911,5010901050914,新規,0,2022-05-26,2022-05-26,株式会社ＢＡＳＥＢＡＬＬ　ＦＵＴＵＲＥ,,株式会社,東京都,世田谷区,経堂２丁目２７番２５号,,13,112,1560052,,,,,,,2022-05-26,1,,,,,ベースボールフューチャー,0
917,5011003014519,新規,0,2022-05-26,2022-05-26,ＭｃＬａｒｅｎ　Ｇｒｏｕｐ合同会社,,合同会社,東京都,目黒区,南１丁目１－１４,,13,110,1520013,,,,,,,2022-05-26,1,,,,,マクラーレングループ,0
918,5011003014717,新規,0,2022-05-26,2022-05-26,ＳＩＭＰＬＥＹＥＴ合同会社,,合同会社,東京都,目黒区,下目黒２丁目８番２－８０３号ハイネス目黒,,13,110,1530064,,,,,,,2022-05-26,1,,,,,,0
927,5011603003607,新規,0,2022-05-26,2022-05-26,合同会社ハサンコーポレーション,,合同会社,東京都,練馬区,上石神井２丁目２１番１４号１階,,13,120,1770044,,,,,,,2022-05-26,1,,,,,ハサンコーポレーション,0
928,5011801040765,新規,0,2022-05-26,2022-05-26,株式会社プロスパー,,株式会社,東京都,足立区,西伊興１丁目２番１３号,,13,121,1210824,,,,,,,2022-05-26,1,,,,,プロスパー,0
929,5011801040773,新規,0,2022-05-26,2022-05-26,株式会社アイメイト分割準備会社,,株式会社,東京都,足立区,西新井６丁目２番１８号,,13,121,1230841,,,,,,,2022-05-26,1,,,,,アイメイトブンカツジュンビガイシャ,0
937,5013301049155,新規,0,2022-05-26,2022-05-26,株式会社ＵＮＩＳＯＮ,,株式会社,東京都,豊島区,巣鴨４丁目１２番３－３１０号,,13,116,1700002,,,,,,,2022-05-26,1,,,,,ユニゾン,0
941,5020001146620,新規,0,2022-05-26,2022-05-26,株式会社Ｌｉｃｏｎｏａ,,株式会社,神奈川県,横浜市西区,北幸２丁目１３番２０号第７ＮＹビル６階２号,,14,103,2200004,,,,,,,2022-05-26,1,,,,,リコノア,0
942,5020001146629,新規,0,2022-05-26,2022-05-26,グライフ株式会社,,株式会社,神奈川県,横浜市西区,浅間町５丁目３８１番地１８,,14,103,2200072,,,,,,,2022-05-26,1,,,,,グライフ,0
954,5021001076056,新規,0,2022-05-26,2022-05-26,ウェルアップＳＨＯＮＡＮ株式会社,,株式会社,神奈川県,茅ヶ崎市,南湖４丁目２３番２号茅ヶ崎サザンビーチリゾート＆レジデンスＮ－１０３,,14,207,2530061,,,,,,,2022-05-26,1,,,,,ウェルアップショウナン,0
963,5030003019468,新規,0,2022-05-26,2022-05-26,ＳＴＧ合同会社,,合同会社,埼玉県,さいたま市大宮区,三橋２丁目１１０番地６,,11,103,3300856,,,,,,,2022-05-26,1,,,,,エスティジィ,0
965,5040001123510,新規,0,2022-05-26,2022-05-26,Ｌｉｎｄｏ‐ｔｏｍａｃｏ　ｆａｒｍ株式会社,,株式会社,千葉県,銚子市,茶畑町１４９９９番地の９,,12,202,2880854,,,,,,,2022-05-26,1,,,,,リンドートマコファーム,0
966,5040001123543,新規,0,2022-05-26,2022-05-26,株式会社芳蔵園,,株式会社,千葉県,船橋市,二和東２丁目７番７号,,12,204,2740805,,,,,,,2022-05-26,1,,,,,ヨシゾエン,0
973,5040005021628,新規,0,2022-05-26,2022-05-26,一般社団法人千葉県トライアスロン連合,,その他の設立登記法人,千葉県,千葉市稲毛区,小仲台７丁目１５番地１０号,,12,103,2630043,,,,,,,2022-05-26,1,,,,,チバケントライアスロンレンゴウ,0
982,5060003004087,新規,0,2022-05-26,2022-05-26,合同会社サンライズ,,合同会社,栃木県,宇都宮市,不動前３丁目３番４０号,,09,201,3200833,,,,,,,2022-05-26,1,,,,,サンライズ,0
988,5110001036671,新規,0,2022-05-26,2022-05-26,株式会社太田林業,,株式会社,新潟県,上越市,柿崎区米山寺５７７番地,,15,222,9493373,,,,,,,2022-05-26,1,,,,,オオタリンギョウ,0
1003,5120001246121,新規,0,2022-05-26,2022-05-26,株式会社帝塚山マルチバース,00126667,株式会社,大阪府,大阪市住吉区,帝塚山中４丁目８番１３号,,27,120,5580053,,,,,,,2022-05-26,1,,,,,テヅカヤママルチバース,0
1004,5120001246146,新規,0,2022-05-26,2022-05-26,株式会社ＶＩＳＫ,,株式会社,大阪府,大阪市中央区,高麗橋４丁目５番２号高麗橋ウエストビル２階,,27,128,5410043,,,,,,,2022-05-26,1,,,,,ヴィスク,0
1006,5120003021712,新規,0,2022-05-26,2022-05-26,合同会社クラージュ,,合同会社,大阪府,大阪市生野区,小路東３丁目６番２４－１０９号,,27,116,5440003,,,,,,,2022-05-26,1,,,,,クラージュ,0
1007,5120003021761,新規,0,2022-05-26,2022-05-26,合同会社ＭＬＯ,,合同会社,大阪府,大阪市阿倍野区,阿倍野元町５番７号,,27,119,5450034,,,,,,,2022-05-26,1,,,,,エムエルオー,0
1010,5120101065636,新規,0,2022-05-26,2022-05-26,株式会社ＡＺＡＲ,,株式会社,大阪府,和泉市,みずき台１丁目３番９号,,27,219,5941118,,,,,,,2022-05-26,1,,,,,アザル,0
1019,5122003002345,新規,0,2022-05-26,2022-05-26,クリーンアップ合同会社,,合同会社,大阪府,大東市,三箇５丁目５番３４号,,27,218,5740077,,,,,,,2022-05-26,1,,,,,クリーンアップ,0
1027,5150005009397,新規,0,2022-05-26,2022-05-26,医療法人社団しもおか歯科クリニック,,その他の設立登記法人,奈良県,橿原市,葛本町７８７番地の３,,29,205,6340007,,,,,,,2022-05-26,1,,,,,シモオカシカクリニック,0
1037,5180301036258,新規,0,2022-05-26,2022-05-26,株式会社ヨコモクホールディングス,,株式会社,愛知県,豊橋市,野依町字西物草１２番地３,,23,201,4418124,,,,,,,2022-05-26,1,,,,,ヨコモクホールディングス,0
1048,5240005015403,新規,0,2022-05-26,2022-05-26,一般社団法人ローカルイノベーション協会,,その他の設立登記法人,広島県,竹原市,本町３丁目１２番１５号,,34,203,7250022,,,,,,,2022-05-26,1,,,,,ローカルイノベーションキョウカイ,0
1051,5290001097663,新規,0,2022-05-26,2022-05-26,九州ヒラヤマ株式会社,,株式会社,福岡県,福岡市東区,馬出５丁目２０番３７－１００３号,,40,131,8120054,,,,,,,2022-05-26,1,,,,,キュウシュウヒラヤマ,0
1053,5290003012505,新規,0,2022-05-26,2022-05-26,エレプロ合同会社,,合同会社,福岡県,福岡市南区,柏原６丁目４５番１４－１０５号,,40,134,8111353,,,,,,,2022-05-26,1,,,,,エレプロ,0
1054,5290003012554,新規,0,2022-05-26,2022-05-26,合同会社Ｇｏｌｄｅｎ　Ｄｅｗ,,合同会社,福岡県,福岡市中央区,舞鶴３丁目８番１０－５０５号,,40,133,8100073,,,,,,,2022-05-26,1,,,,,ゴールデンデュー,0
1075,5390005008961,新規,0,2022-05-26,2022-05-26,特定非営利活動法人ミライへ,,その他の設立登記法人,山形県,寒河江市,中央工業団地１５８‐１０,,06,206,9910061,,,,,,,2022-05-26,1,,,,,ミライヘ,0
1087,5430001086718,新規,0,2022-05-26,2022-05-26,株式会社Ｄ‐クリエイト,,株式会社,北海道,小樽市,奥沢３丁目７番１号,,01,203,0470013,,,,,,,2022-05-26,1,,,,,ディークリエイト,0
1088,5430001086726,新規,0,2022-05-26,2022-05-26,株式会社結エンタープライズ,,株式会社,北海道,札幌市手稲区,新発寒四条３丁目９番２０号,,01,109,0060804,,,,,,,2022-05-26,1,,,,,ユイエンタープライズ,0
1089,5430001086734,新規,0,2022-05-26,2022-05-26,株式会社ヒロエステート,,株式会社,北海道,札幌市中央区,南七条西１丁目１３番地第２弘安ビル４階,,01,101,0640807,,,,,,,2022-05-26,1,,,,,ヒロエステート,0
1101,5700150107379,新規,0,2022-05-26,2022-03-14,駒込第三コーポラス管理組合,,その他,東京都,豊島区,駒込４丁目１４－１７,,13,116,1700003,,,,,,,2022-03-14,1,,,,,コマゴメダイサンコーポラスカンリクミアイ,0
1102,5700150108690,新規,0,2022-05-26,2022-05-12,天の原演劇工房,,その他,東京都,杉並区,阿佐谷北３丁目２９－２コーポ中村２０１,,13,115,1660001,,,,,,,2022-05-12,1,,,,,アマノハラエンゲキコウボウ,0
1113,6010001226232,新規,0,2022-05-26,2022-05-26,株式会社ＡＬＬ,,株式会社,東京都,千代田区,六番町１５番地２号鳳翔ビル３階,,13,101,1020085,,,,,,,2022-05-26,1,,,,,,0
1114,6010001226810,新規,0,2022-05-26,2022-05-26,Ｇｒａｎｄ　Ｃｈａｌｌｅｎｇｅ　Ｅｄｕｃａｔｉｏｎ株式会社,,株式会社,東京都,中央区,新富１丁目８番９号ＴＨＥ・ＧＡＴＥ・ＧＩＮＺＡ・ＥＡＳＴ９Ｆ,,13,102,1040041,,,,,,,2022-05-26,1,,,,,グランドチャレンジエデュケイション,0
1115,6010001226876,新規,0,2022-05-26,2022-05-26,株式会社ＮｕｒｓｅＤｏｏｒｓ,,株式会社,東京都,千代田区,丸の内２丁目３－２郵船ビルディング１階,,13,101,1000005,,,,,,,2022-05-26,1,,,,,ナースドアーズ,0
1116,6010001226884,新規,0,2022-05-26,2022-05-26,株式会社Ａｄｖｅｎｔｕｒｅ　Ａｒｅａ　Ｃｏｎｓｕｌｔｉｎｇ,,株式会社,東京都,千代田区,富士見１丁目３－１１富士見デュープレックスＢ‘ｓ４Ｆ,,13,101,1020071,,,,,,,2022-05-26,1,,,,,アドベンチャーエリアコンサルティング,0
1117,6010001226892,新規,0,2022-05-26,2022-05-26,エシクラ株式会社,,株式会社,東京都,千代田区,九段南３丁目５番１４号,,13,101,1020074,,,,,,,2022-05-26,1,,,,,エシクラ,0
1128,6010401167530,新規,0,2022-05-26,2022-05-26,ＪＯＢ　ＰＯＲＴ株式会社,,株式会社,東京都,港区,新橋５丁目１２番１１号,,13,103,1050004,,,,,,,2022-05-26,1,,,,,ジョブポート,0
1131,6010403027724,新規,0,2022-05-26,2022-05-26,合同会社イチヨシ,,合同会社,東京都,港区,南青山２丁目２番１５号,,13,103,1070062,,,,,,,2022-05-26,1,,,,,イチヨシ,0
1137,6010603009539,新規,0,2022-05-26,2022-05-26,合同会社心和聖,,合同会社,東京都,江東区,有明１丁目２番１１号,,13,108,1350063,,,,,,,2022-05-26,1,,,,,シンワセイ,0
1147,6010801032994,新規,0,2022-05-26,2022-05-26,株式会社あいりす福祉タクシー,,株式会社,東京都,大田区,西馬込１丁目３２番１５号,,13,111,1430026,,,,,,,2022-05-26,1,,,,,アイリスフクシタクシー,0
1160,6011001147451,新規,0,2022-05-26,2022-05-26,株式会社わらうかどにはふくきたる,,株式会社,東京都,渋谷区,本町６丁目１６－５,,13,113,1510071,,,,,,,2022-05-26,1,,,,,ワラウカドニハフクキタル,0
1161,6011003014658,新規,0,2022-05-26,2022-05-26,ＣＹＢＥＲ　ＲＥＡＬ合同会社,,合同会社,東京都,渋谷区,恵比寿２丁目１３－１０レンブラント広尾３Ｆ,,13,113,1500013,,,,,,,2022-05-26,1,,,,,サイバーリアル,0
1162,6011003014732,新規,0,2022-05-26,2022-05-26,ＬＩＦＥＷＯＲＫ合同会社,,合同会社,東京都,渋谷区,道玄坂１丁目１０番８号渋谷道玄坂東急ビル２Ｆ－Ｃ,,13,113,1500043,,,,,,,2022-05-26,1,,,,,ライフワーク,0
1163,6011005009581,新規,0,2022-05-26,2022-05-26,一般社団法人日本サステイナブルコーヒー協会,,その他の設立登記法人,東京都,目黒区,原町１丁目１６－１７シャルム原町１０１,,13,110,1520011,,,,,,,2022-05-26,1,,,,,,0
1165,6011101098958,新規,0,2022-05-26,2022-05-26,三本株式会社,,株式会社,東京都,新宿区,百人町１丁目２０番２６号ムサシノビル７０７,,13,104,1690073,,,,,,,2022-05-26,1,,,,,ミツモト,0
1166,6011103011778,新規,0,2022-05-26,2022-05-26,合同会社Ｓｈｙ　Ｍｉｒｒｏｒ,,合同会社,東京都,新宿区,舟町５番地８,,13,104,1600006,,,,,,,2022-05-26,1,,,,,シャイミラー,0
1167,6011103011786,新規,0,2022-05-26,2022-05-26,合同会社ＡＵＲＯＲＡ‐Ｚ,,合同会社,東京都,新宿区,西新宿３丁目３番１３号西新宿水間ビル６階,,13,104,1600023,,,,,,,2022-05-26,1,,,,,アウローラズィ,0
1169,6011201023840,新規,0,2022-05-26,2022-05-26,株式会社ハルカ,,株式会社,東京都,中野区,新井４丁目１６番２号パシフィックニュー中野２０５,,13,114,1650026,,,,,,,2022-05-26,1,,,,,ハルカ,0
1182,6011701025337,新規,0,2022-05-26,2022-05-26,株式会社昇商事,,株式会社,東京都,江戸川区,平井４丁目２２番１０号ひふみ荘１０２号,,13,123,1320035,,,,,,,2022-05-26,1,,,,,ノボリショウジ,0
1184,6011703003150,新規,0,2022-05-26,2022-05-26,Ｄｅｓａｉ　Ｆｏｏｄｓ合同会社,,合同会社,東京都,江戸川区,北葛西２丁目１０番９号,,13,123,1340081,,,,,,,2022-05-26,1,,,,,デサイフーズ,0
1188,6011801040764,新規,0,2022-05-26,2022-05-26,株式会社進成空調,,株式会社,東京都,足立区,辰沼１丁目３番６号,,13,121,1210054,,,,,,,2022-05-26,1,,,,,シンセイクウチョウ,0
1191,6012403005387,新規,0,2022-05-26,2022-05-26,合同会社Ａｘｅｌ,,合同会社,東京都,府中市,府中町２丁目６番地の１７リトルアージュ５０５,,13,206,1830055,,,,,,,2022-05-26,1,,,,,アクセル,0
1192,6012701017068,新規,0,2022-05-26,2022-05-26,祝商事株式会社,,株式会社,東京都,小平市,上水南町３丁目１５番１３号,,13,211,1870021,,,,,,,2022-05-26,1,,,,,イワイショウジ,0
1204,6020001146628,新規,0,2022-05-26,2022-05-26,ＲＥＤパートナー株式会社,,株式会社,神奈川県,横浜市港北区,箕輪町２丁目２０番２８－３０１号,,14,109,2230051,,,,,,,2022-05-26,1,,,,,レッドパートナー,0
1206,6020003021820,新規,0,2022-05-26,2022-05-26,合同会社Ｍ．ｐｌａｎｎｉｎｇ,,合同会社,神奈川県,横浜市旭区,桐が作１７６７番地１２,,14,112,2410832,,,,,,,2022-05-26,1,,,,,,0
1218,6030001148334,新規,0,2022-05-26,2022-05-26,マイクロ波サイエンス株式会社,,株式会社,埼玉県,新座市,畑中２丁目１０番１７号,,11,230,3520012,,,,,,,2022-05-26,1,,,,,マイクロハサイエンス,0
1219,6030001148359,新規,0,2022-05-26,2022-05-26,株式会社インユアフェイス,,株式会社,埼玉県,さいたま市中央区,上落合７丁目７番３－４０６号,,11,105,3380001,,,,,,,2022-05-26,1,,,,,インユアフェイス,0
1220,6030001148383,新規,0,2022-05-26,2022-05-26,株式会社ＳＳＲ　Ｎｅｔｗｏｒｋｓ,,株式会社,埼玉県,三郷市,早稲田１丁目２４番地１３テラスハウス１号室,,11,237,3410018,,,,,,,2022-05-26,1,,,,,エスエスアールネットワークス,0
1223,6030003019426,新規,0,2022-05-26,2022-05-26,合同会社ＡＴＢ,,合同会社,埼玉県,春日部市,備後東８丁目１０－６,,11,214,3440032,,,,,,,2022-05-26,1,,,,,,0
1229,6040001123550,新規,0,2022-05-26,2022-05-26,株式会社Ｍｏｂｉｌｃｏ,,株式会社,千葉県,勝浦市,出水１２７１番地１,,12,218,2995235,,,,,,,2022-05-26,1,,,,,モビルコ,0
1232,6040003020044,新規,0,2022-05-26,2022-05-26,合同会社ＭＩＫＡＺＵＫＩ　ＩＮＴＥＲＮＡＴＩＯＮＡＬ,,合同会社,千葉県,印西市,岩戸字後田３４８９－３,,12,231,2701616,,,,,,,2022-05-26,1,,,,,ミカヅキインターナショナル,0
1233,6040005021627,新規,0,2022-05-26,2022-05-26,特定非営利活動法人グループホームじんべい,,その他の設立登記法人,千葉県,勝浦市,市野川８９７番地１,,12,218,2995202,,,,,,,2022-05-26,1,,,,,グループホームジンベイ,0
1234,6050001051123,新規,0,2022-05-26,2022-05-26,Ｂｉｇ　Ｖｉｌｌａｇｅ株式会社,,株式会社,茨城県,筑西市,野殿１４６０－１,,08,227,3080843,,,,,,,2022-05-26,1,,,,,,0
1245,6120001246120,新規,0,2022-05-26,2022-05-26,株式会社ｕｅｄａ,,株式会社,大阪府,大阪市浪速区,難波中３丁目７番１７号ウィズなんば１４０６号室,,27,111,5560011,,,,,,,2022-05-26,1,,,,,ウエダ,0
1246,6120001246145,新規,0,2022-05-26,2022-05-26,株式会社エステートベイ,,株式会社,大阪府,大阪市此花区,酉島３丁目１６番１７－６０５号,,27,104,5540051,,,,,,,2022-05-26,1,,,,,エステートベイ,0
1248,6120003021752,新規,0,2022-05-26,2022-05-26,合同会社ＬＵＫＥ,,合同会社,大阪府,大阪市城東区,諏訪３丁目５番１５－１２０３号,,27,118,5360021,,,,,,,2022-05-26,1,,,,,ルーク,0
1249,6120003021760,新規,0,2022-05-26,2022-05-26,合同会社ｎａｊｉｍｉ,,合同会社,大阪府,大阪市中央区,船場中央１丁目３－２－１０１船場センタービル２号館１階,,27,128,5410055,,,,,,,2022-05-26,1,,,,,ナジミ,0
1259,6140003017716,新規,0,2022-05-26,2022-05-26,合同会社マイ・ドゥー,,合同会社,兵庫県,神戸市長田区,松野通３丁目２番地３８号アーバンコンフォート４０１,,28,106,6530841,,,,,,,2022-05-26,1,,,,,マイドゥー,0
1261,6170003001725,新規,0,2022-05-26,2022-05-26,さくら福祉サービス合同会社,,合同会社,和歌山県,岩出市,桜台６２１番地,,30,209,6496203,,,,,,,2022-05-26,1,,,,,サクラフクシサービス,0
1264,6180001151406,新規,0,2022-05-26,2022-05-26,株式会社ＬＩＮＫＴＨ,,株式会社,愛知県,名古屋市北区,池花町２２４番地の１,,23,103,4620005,,,,,,,2022-05-26,1,,,,,リンクス,0
1265,6180001151422,新規,0,2022-05-26,2022-05-26,株式会社ＨＡＬＯ,,株式会社,愛知県,名古屋市西区,那古野２丁目１４番１号,,23,104,4510042,,,,,,,2022-05-26,1,,,,,ハロ,0
1266,6180001151430,新規,0,2022-05-26,2022-05-26,株式会社ＯＴＲインターナショナル,,株式会社,愛知県,稲沢市,下津町西下町３５番地１,,23,220,4928075,,,,,,,2022-05-26,1,,,,,オーティーアールインターナショナル,0
1269,6180301036249,新規,0,2022-05-26,2022-05-26,株式会社Ｇｒｏｗｔｈ,,株式会社,愛知県,蒲郡市,鹿島町鬼越２９ラフレシールＢ１０５,,23,214,4430037,,,,,,,2022-05-26,1,,,,,グロウス,0
1287,6290001097662,新規,0,2022-05-26,2022-05-26,株式会社ファーストリンク,,株式会社,福岡県,福岡市東区,舞松原５丁目３０番１－２１３号,,40,131,8130042,,,,,,,2022-05-26,1,,,,,ファーストリンク,0
1291,6290005018697,新規,0,2022-05-26,2022-05-26,大木産業振興協同組合,,その他の設立登記法人,福岡県,三潴郡大木町,大字八町牟田２５５‐１,,40,522,8300416,,,,,,,2022-05-26,1,,,,,オオキサンギョウシンコウ,0
1292,6290801028560,新規,0,2022-05-26,2022-05-26,株式会社フクマ,,株式会社,福岡県,田川市,大字夏吉１９８番地３,,40,206,8250004,,,,,,,2022-05-26,1,,,,,フクマ,0
1294,6290803004130,新規,0,2022-05-26,2022-05-26,合同会社ＨＩＫＡＲＩ,,合同会社,福岡県,行橋市,中央３丁目５－１７,,40,213,8240005,,,,,,,2022-05-26,1,,,,,ヒカリ,0
1298,6320003003813,新規,0,2022-05-26,2022-05-26,岩井商事合同会社,,合同会社,大分県,宇佐市,大字長洲９２７番地の１,,44,211,8720001,,,,,,,2022-05-26,1,,,,,イワイショウジ,0
1311,6350001017762,新規,0,2022-05-26,2022-05-26,株式会社ＤＩＧ,,株式会社,宮崎県,宮崎市,大字糸原１９６３番地２８,,45,201,8802231,,,,,,,2022-05-26,1,,,,,ディグ,0
1315,6370001048590,新規,0,2022-05-26,2022-05-26,株式会社丈當,,株式会社,宮城県,仙台市青葉区,東勝山２丁目２番２号,,04,101,9810923,,,,,,,2022-05-26,1,,,,,ジョウトウ,0
1318,6380003005176,新規,0,2022-05-26,2022-05-26,合同会社植田新聞販売センター,,合同会社,福島県,いわき市,植田町南町１丁目５番地の１４,,07,204,9748261,,,,,,,2022-05-26,1,,,,,,0
1322,6430001086725,新規,0,2022-05-26,2022-05-26,株式会社ビッグプロジェクトＫ,,株式会社,北海道,札幌市中央区,南四条西７丁目６番地,,01,101,0640804,,,,,,,2022-05-26,1,,,,,ビッグプロジェクトケー,0
1323,6430001086733,新規,0,2022-05-26,2022-05-26,株式会社ＫＢＴ　ＧＲＯＵＰ,,株式会社,北海道,札幌市東区,中沼町８９番地,,01,103,0070890,,,,,,,2022-05-26,1,,,,,ケービィーティーグループ,0
1325,6470005006444,新規,0,2022-05-26,2022-05-26,特定非営利活動法人かねとうみらい塾,,その他の設立登記法人,香川県,高松市,春日町１０５５番地１,,37,201,7610101,,,,,,,2022-05-26,1,,,,,カネトウミライジュク,0
1332,6500001024231,新規,0,2022-05-26,2022-05-26,Ｙａｅ　Ｌａｂｓ株式会社,,株式会社,愛媛県,松山市,湊町４丁目１－１２プログレッソプリモ,,38,201,7900012,,,,,,,2022-05-26,1,,,,,ヤエラボ,0
1336,6700150108558,新規,0,2022-05-26,2022-05-09,川端自治区,,その他,愛知県,豊田市,畝部東町采女４６－３,,23,211,4701211,,,,,,,2022-05-09,1,,,,,カワハタジチク,0
1340,7010001226859,新規,0,2022-05-26,2022-05-26,株式会社ＵＰａｒｔｎｅｒ,,株式会社,東京都,中央区,銀座１丁目２２番１１号銀座大竹ビジデンス２階,,13,102,1040061,,,,,,,2022-05-26,1,,,,,ユーパートナー,0
1341,7010001226891,新規,0,2022-05-26,2022-05-26,泛成生物株式会社,,株式会社,東京都,中央区,勝どき５丁目１２番４－１２０３号,,13,102,1040054,,,,,,,2022-05-26,1,,,,,ハンセイセイブツ,0
1350,7010003037734,新規,0,2022-05-26,2022-05-26,ＹＭＬ合同会社,,合同会社,東京都,中央区,銀座１丁目２２番１１号,,13,102,1040061,,,,,,,2022-05-26,1,,,,,ワイエムエル,0
1351,7010003037742,新規,0,2022-05-26,2022-05-26,サステナブルローンファンド８号合同会社,,合同会社,東京都,中央区,八丁堀４丁目２番１０号ＡＯＪ税理士法人内,,13,102,1040032,,,,,,,2022-05-26,1,,,,,サステナブルローンファンドハチゴウ,0
1363,7010401167042,新規,0,2022-05-26,2022-05-26,株式会社新正月,,株式会社,東京都,港区,海岸１丁目１番１号アクティ汐留１２１３号,,13,103,1050022,,,,,,,2022-05-26,1,,,,,シンショウガツ,0
1364,7010401167496,新規,0,2022-05-26,2022-05-26,株式会社オットクライマー,,株式会社,東京都,港区,浜松町２丁目２番１５号浜松町ダイヤビル２Ｆ,,13,103,1050013,,,,,,,2022-05-26,1,,,,,オットクライマー,0
1365,7010401167570,新規,0,2022-05-26,2022-05-26,景元テクノロジーズ株式会社,,株式会社,東京都,港区,浜松町１丁目１８番１１号,,13,103,1050013,,,,,,,2022-05-26,1,,,,,ケイゲンテクノロジーズ,0
1366,7010401167595,新規,0,2022-05-26,2022-05-26,Ｙａｍａｔｏ６１株式会社,,株式会社,東京都,港区,六本木１丁目６番１号,,13,103,1060032,,,,,,,2022-05-26,1,,,,,ヤマトロクジュウイチ,0
1373,7010403027731,新規,0,2022-05-26,2022-05-26,合同会社メドフラワー,,合同会社,東京都,港区,西新橋３丁目５番２号,,13,103,1050003,,,,,,,2022-05-26,1,,,,,メドフラワー,0
1374,7010403027748,新規,0,2022-05-26,2022-05-26,合同会社ＨｉＪｏＪｏ　Ｆｕｎｄ２６,,合同会社,東京都,港区,麻布十番２丁目２０番７号,,13,103,1060045,,,,,,,2022-05-26,1,,,,,ヒジョージョーファンドニジュウロク,0
1375,7010403027756,新規,0,2022-05-26,2022-05-26,合同会社パンチュウ,,合同会社,東京都,港区,南青山７丁目７番５号,,13,103,1070062,,,,,,,2022-05-26,1,,,,,パンチュウ,0
1376,7010405021006,新規,0,2022-05-26,2022-05-26,一般社団法人ウオータワーク・サービス・クオリティ・プロモーション,,その他の設立登記法人,東京都,港区,芝公園３丁目５番８号,,13,103,1050011,,,,,,,2022-05-26,1,,,,,ウオータワークサービスクオリティプロモーション,0
1378,7010501048877,新規,0,2022-05-26,2022-05-26,株式会社コタリー,,株式会社,東京都,台東区,浅草橋１丁目３３番６号,,13,106,1110053,,,,,,,2022-05-26,1,,,,,コタリー,0
1382,7010703006237,新規,0,2022-05-26,2022-05-26,Ｔ＆ｆａｍｉｌｙ合同会社,,合同会社,東京都,品川区,大崎３丁目５番３号ＬＤＳ本社ビル６階,,13,109,1410032,,,,,,,2022-05-26,1,,,,,ティーアンドファミリー,0
1385,7010901050879,新規,0,2022-05-26,2022-05-26,株式会社ＡＲＳＴＨＥＩＡ,,株式会社,東京都,世田谷区,桜新町１丁目１６－１１ティーケー桜新町ビル３０１,,13,112,1540015,,,,,,,2022-05-26,1,,,,,アルステイア,0
1393,7011001147632,新規,0,2022-05-26,2022-05-26,株式会社ＭＭＨ,,株式会社,東京都,渋谷区,渋谷３丁目１番９号ＹＡＺＡＷＡビル３階,,13,113,1500002,,,,,,,2022-05-26,1,,,,,エムエムエイチ,0
1394,7011003014707,新規,0,2022-05-26,2022-05-26,合同会社ＳＴＥＰ　ＳＰＡＣＥ,,合同会社,東京都,渋谷区,円山町２６番７号ＴＫＦＬＡＴＳ渋谷１０１０,,13,113,1500044,,,,,,,2022-05-26,1,,,,,ステップスペース,0
1397,7011101098957,新規,0,2022-05-26,2022-05-26,株式会社Ａｒｕｔｏｋｏｒｏｎｉ,,株式会社,東京都,新宿区,大久保２丁目２５番１０号,,13,104,1690072,,,,,,,2022-05-26,1,,,,,アルトコロニ,0
1399,7011201023823,新規,0,2022-05-26,2022-05-26,株式会社Ｌｕｐｉｎｕｓ,,株式会社,東京都,中野区,沼袋４丁目１４番１０号,,13,114,1650025,,,,,,,2022-05-26,1,,,,,ルピナス,0
1404,7011503005172,新規,0,2022-05-26,2022-05-26,ＮＫ　ａｓｓｅｔ　ｍａｎａｇｅｍｅｎｔ合同会社,,合同会社,東京都,荒川区,南千住４丁目７番３－２９１０号,,13,118,1160003,,,,,,,2022-05-26,1,,,,,エヌケーアセットマネジメント,0
1407,7011701025336,新規,0,2022-05-26,2022-05-26,株式会社ＳＴ＆フェローズ,,株式会社,東京都,江戸川区,大杉１丁目８番１７号,,13,123,1320022,,,,,,,2022-05-26,1,,,,,エスティーアンドフェローズ,0
1418,7012403005386,新規,0,2022-05-26,2022-05-26,合同会社ＳＡＮＡＧＩ,,合同会社,東京都,稲城市,東長沼１７９番地の５,,13,225,2060802,,,,,,,2022-05-26,1,,,,,サナギ,0
1419,7012701017067,新規,0,2022-05-26,2022-05-26,株式会社アクア・ブレイン,,株式会社,東京都,東久留米市,滝山５丁目１８番１８号,,13,222,2030033,,,,,,,2022-05-26,1,,,,,アクアブレイン,0
1422,7013303006169,新規,0,2022-05-26,2022-05-26,合同会社ｅｖｅｒ,,合同会社,東京都,豊島区,南大塚２丁目３８番１号リードシー大塚ビル５～８階ＭＩＤＰＯＩＮＴ大塚５－１３,,13,116,1700005,,,,,,,2022-05-26,1,,,,,エバー,0
1429,7020001146593,新規,0,2022-05-26,2022-05-26,エンジェルグループ株式会社,,株式会社,神奈川県,川崎市宮前区,野川台３丁目１２－７,,14,136,2160043,,,,,,,2022-05-26,1,,,,,エンジェルグループ,0
1430,7020001146610,新規,0,2022-05-26,2022-05-26,株式会社Ｗｉｌｄｃａｒｄ,,株式会社,神奈川県,横浜市西区,北幸１丁目１１番１号水信ビル７階,,14,103,2200004,,,,,,,2022-05-26,1,,,,,ワイルドカード,0
1431,7020001146627,新規,0,2022-05-26,2022-05-26,株式会社ｙｏｋｏｓａｚａｋｉ,,株式会社,神奈川県,横浜市西区,みなとみらい４丁目４－２横浜ブルーアベニュー１２階,,14,103,2200012,,,,,,,2022-05-26,1,,,,,ヨコサザキ,0
1432,7020001146643,新規,0,2022-05-26,2022-05-26,株式会社ピュアスペクトラ,,株式会社,神奈川県,横浜市港北区,新横浜１丁目１３番１２号クリンゲルンベルグビル,,14,109,2220033,,,,,,,2022-05-26,1,,,,,ピュアスペクトラ,0
1438,7020005015547,新規,0,2022-05-26,2022-05-26,一般社団法人記憶製作基金事務局,,その他の設立登記法人,神奈川県,横浜市神奈川区,六角橋６丁目２５番３１号,,14,102,2210802,,,,,,,2022-05-26,1,,,,,キオクセイサクキキンジムキョク,0
1443,7030001148333,新規,0,2022-05-26,2022-05-26,伊仙株式会社,,株式会社,埼玉県,さいたま市浦和区,領家１丁目７番１０－１号,,11,107,3300072,,,,,,,2022-05-26,1,,,,,イセン,0
1444,7030001148382,新規,0,2022-05-26,2022-05-26,株式会社セキメカニカル,,株式会社,埼玉県,富士見市,山室２丁目９番５５号,,11,235,3540022,,,,,,,2022-05-26,1,,,,,セキメカニカル,0
1447,7030003019482,新規,0,2022-05-26,2022-05-26,ＦＲＵ　ＴＲＡＤＩＮＧ合同会社,,合同会社,埼玉県,春日部市,西金野井４７番地１西金野井住宅Ｅ棟２０１号室,,11,214,3440112,,,,,,,2022-05-26,1,,,,,フルトレーディング,0
1451,7040001123500,新規,0,2022-05-26,2022-05-26,株式会社ｄｏｍｕｓ,,株式会社,千葉県,柏市,明原１丁目１番１８号１０２号室,,12,217,2770843,,,,,,,2022-05-26,1,,,,,ドムス,0
1452,7040001123509,新規,0,2022-05-26,2022-05-26,亀山技建株式会社,,株式会社,千葉県,柏市,しいの木台４丁目７番地１０,,12,217,2770945,,,,,,,2022-05-26,1,,,,,カメヤマギケン,0
1453,7040001123566,新規,0,2022-05-26,2022-05-26,ＨＮＴ　ＪＡＰＡＮ株式会社,,株式会社,千葉県,習志野市,谷津６丁目９番１１号グランシャリオ１０７号,,12,216,2750026,,,,,,,2022-05-26,1,,,,,エイチエヌティージャパン,0
1461,7040003020092,新規,0,2022-05-26,2022-05-26,ケイワイ企画合同会社,,合同会社,千葉県,八千代市,八千代台東６丁目２３番８号,,12,221,2760032,,,,,,,2022-05-26,1,,,,,ケイワイキカク,0
1466,7070005009998,新規,0,2022-05-26,2022-05-26,社会福祉法人簗瀬福祉会,,その他の設立登記法人,群馬県,安中市,簗瀬１７５番地１,,10,211,3790134,,,,,,,2022-05-26,1,,,,,ヤナセフクシカイ,0
1484,7120001245996,新規,0,2022-05-26,2022-05-26,小山株式会社,,株式会社,大阪府,大阪市平野区,平野上町１丁目６番５号,,27,126,5470045,,,,,,,2022-05-26,1,,,,,コヤマ,0
1487,7120003021710,新規,0,2022-05-26,2022-05-26,合同会社レアファクトリー,,合同会社,大阪府,大阪市阿倍野区,阪南町１丁目８番１７号,,27,119,5450021,,,,,,,2022-05-26,1,,,,,レアファクトリー,0
1491,7120105009562,新規,0,2022-05-26,2022-05-26,一般社団法人ＧＡＴ,,その他の設立登記法人,大阪府,堺市美原区,大饗７４番地５号,,27,147,5870063,,,,,,,2022-05-26,1,,,,,ガット,0
1496,7140001126121,新規,0,2022-05-26,2022-05-26,株式会社オンシェア,,株式会社,兵庫県,宝塚市,逆瀬川１丁目８－３万大ビル２階,,28,214,6650035,,,,,,,2022-05-26,1,,,,,オンシェア,0
1499,7140003017715,新規,0,2022-05-26,2022-05-26,合同会社あゆむ,,合同会社,兵庫県,宝塚市,逆瀬台１丁目８番Ｄ－６０８号,,28,214,6650024,,,,,,,2022-05-26,1,,,,,アユム,0
1507,7180001151363,新規,0,2022-05-26,2022-05-26,そら３８５株式会社,,株式会社,愛知県,一宮市,殿町３丁目２０番地１９,,23,203,4910848,,,,,,,2022-05-26,1,,,,,ソラサンハチゴ,0
1508,7180001151405,新規,0,2022-05-26,2022-05-26,株式会社サイクルミッケ,,株式会社,愛知県,日進市,浅田平子１丁目３７０,,23,230,4700128,,,,,,,2022-05-26,1,,,,,サイクルミッケ,0
1509,7180001151413,新規,0,2022-05-26,2022-05-26,株式会社スズシゲ,,株式会社,愛知県,愛西市,西保町西川原１７０番地２,,23,232,4960911,,,,,,,2022-05-26,1,,,,,スズシゲ,0
1510,7180001151438,新規,0,2022-05-26,2022-05-26,名東ビルド株式会社,,株式会社,愛知県,名古屋市東区,白壁１丁目２１番,,23,102,4610011,,,,,,,2022-05-26,1,,,,,メイトウビルド,0
1516,7180301036256,新規,0,2022-05-26,2022-05-26,株式会社水野総業,,株式会社,愛知県,岡崎市,細川町字上大針２４番地８,,23,202,4442149,,,,,,,2022-05-26,1,,,,,ミズノソウギョウ,0
1535,7290001097645,新規,0,2022-05-26,2022-05-26,株式会社ＫＯＴＡＴＳＵ,,株式会社,福岡県,福岡市博多区,中洲２丁目５－１３第２ラインビル５階,,40,132,8100801,,,,,,,2022-05-26,1,,,,,コタツ,0
1536,7290001097661,新規,0,2022-05-26,2022-05-26,株式会社ノイズ,,株式会社,福岡県,福岡市南区,寺塚２丁目１２番１号,00126665,40,134,8150074,,,,,,,2022-05-26,1,,,,,ノイズ,0
1552,7410001013192,新規,0,2022-05-26,2022-05-26,株式会社イル・ヴェルト,,株式会社,秋田県,秋田市,川元松丘町４番５７号,,05,201,0100933,,,,,,,2022-05-26,1,,,,,イルヴェルト,0
1558,7430001086724,新規,0,2022-05-26,2022-05-26,株式会社ビッグプロジェクトＥ,,株式会社,北海道,札幌市中央区,南四条西７丁目６番地,,01,101,0640804,,,,,,,2022-05-26,1,,,,,ビッグプロジェクトイー,0
1561,7430003013957,新規,0,2022-05-26,2022-05-26,合同会社Ｒｅ,,合同会社,北海道,札幌市白石区,菊水六条１丁目６番２８号－１０４号,,01,104,0030806,,,,,,,2022-05-26,1,,,,,リィ,0
1563,7470005006443,新規,0,2022-05-26,2022-05-26,特定非営利活動法人香川県狩猟クラブ,,その他の設立登記法人,香川県,木田郡三木町,大字小蓑１８２３番地,,37,341,7610615,,,,,,,2022-05-26,1,,,,,カガワケンシュリョウクラブ,0
1567,7500003002837,新規,0,2022-05-26,2022-05-26,媛ファーム合同会社,,合同会社,愛媛県,新居浜市,東雲町３丁目７番３３２号,,38,205,7920864,,,,,,,2022-05-26,1,,,,,,0
1568,7700150108615,新規,0,2022-05-26,2022-05-11,太田久遠二胡事務所,,その他,東京都,目黒区,鷹番３丁目１３番５号シャンボール学芸大学３０６,,13,110,1520004,,,,,,,2022-05-11,1,,,,,オオタヒサトニコジムシヨ,0
1569,7700150109051,新規,0,2022-05-26,2022-05-26,町方町・通横町第一地区市街地再開発組合,,その他,静岡県,沼津市,町方町１０６番地,,22,203,4100882,,,,,,,2022-05-26,1,,,,,マチカタマチトオリヨコチヨウダイイチチクシガイチサイカイハツクミアイ,0
1575,8010001226809,新規,0,2022-05-26,2022-05-26,株式会社東平,,株式会社,東京都,中央区,日本橋小伝馬町１７番１５号ＬＳＴビル１Ｆ,,13,102,1030001,,,,,,,2022-05-26,1,,,,,トウヘイ,0
1576,8010001226817,新規,0,2022-05-26,2022-05-26,Ｒ‐ＳＴＡＲ株式会社,,株式会社,東京都,文京区,水道２丁目８番１号ハウザス小日向４０１,,13,105,1120005,,,,,,,2022-05-26,1,,,,,アールスター,0
1577,8010001226858,新規,0,2022-05-26,2022-05-26,株式会社メタソリューション,,株式会社,東京都,中央区,築地２丁目１番１６号,,13,102,1040045,,,,,,,2022-05-26,1,,,,,メタソリューション,0
1578,8010001226874,新規,0,2022-05-26,2022-05-26,株式会社Ｌｅ　ｔｅｍｐｓ,,株式会社,東京都,千代田区,麹町２丁目１０－１－３０５,,13,101,1020083,,,,,,,2022-05-26,1,,,,,ルタン,0
1579,8010001226890,新規,0,2022-05-26,2022-05-26,株式会社九十九食品,,株式会社,東京都,中央区,日本橋兜町１４番１０号兜ビル８Ｆ,,13,102,1030026,,,,,,,2022-05-26,1,,,,,ツクモショクヒン,0
1580,8010003037741,新規,0,2022-05-26,2022-05-26,サステナブルローンファンド９号合同会社,,合同会社,東京都,中央区,八丁堀４丁目２番１０号ＡＯＪ税理士法人内,,13,102,1040032,,,,,,,2022-05-26,1,,,,,サステナブルローンファンドキュウゴウ,0
1590,8010401167470,新規,0,2022-05-26,2022-05-26,協創ＳＬＰ投資株式会社,,株式会社,東京都,港区,虎ノ門４丁目３番１号,,13,103,1050001,,,,,,,2022-05-26,1,,,,,キョウソウエスエルピートウシ,0
1591,8010401167545,新規,0,2022-05-26,2022-05-26,株式会社ＡＵＢＥこと葉,,株式会社,東京都,港区,芝浦４丁目２１番１号,,13,103,1080023,,,,,,,2022-05-26,1,,,,,アウベコトハ,0
1592,8010401167561,新規,0,2022-05-26,2022-05-26,ＭＣＰ８株式会社,,株式会社,東京都,港区,元赤坂１丁目１番８号株式会社赤坂国際会計内,,13,103,1070051,,,,,,,2022-05-26,1,,,,,エムシーピーエイト,0
1595,8010403027648,新規,0,2022-05-26,2022-05-26,ＨＡＹＡＭＡ合同会社,,合同会社,東京都,港区,赤坂６丁目３番２０号ＨＡＴビル９階,,13,103,1070052,,,,,,,2022-05-26,1,,,,,ハヤマ,0
1596,8010403027739,新規,0,2022-05-26,2022-05-26,ＬＳ‐ＡＡＬ第１号合同会社,,合同会社,東京都,港区,六本木１丁目６番１号,,13,103,1060032,,,,,,,2022-05-26,1,,,,,エルエスエーエーエルダイイチゴウ,0
1597,8010403027747,新規,0,2022-05-26,2022-05-26,合同会社ＨｉＪｏＪｏ　Ｆｕｎｄ２５,,合同会社,東京都,港区,麻布十番２丁目２０番７号,,13,103,1060045,,,,,,,2022-05-26,1,,,,,ヒジョージョーファンドニジュウゴ,0
1598,8010405021005,新規,0,2022-05-26,2022-05-26,一般財団法人高専人会,,その他の設立登記法人,東京都,港区,芝公園１丁目１番１号,,13,103,1050011,,,,,,,2022-05-26,1,,,,,コウセンジンカイ,0
1601,8010501048876,新規,0,2022-05-26,2022-05-26,株式会社マユーラ,,株式会社,東京都,台東区,竜泉２丁目１９番７号グランドメゾン竜泉５０３,,13,106,1100012,,,,,,,2022-05-26,1,,,,,マユーラ,0
1612,8010901050911,新規,0,2022-05-26,2022-05-26,ＲＥＯＬ株式会社,,株式会社,東京都,世田谷区,松原６丁目３６番１３号,,13,112,1560043,,,,,,,2022-05-26,1,,,,,リオル,0
1619,8011001147631,新規,0,2022-05-26,2022-05-26,株式会社エルバークノア,,株式会社,東京都,渋谷区,渋谷３丁目１３－５,,13,113,1500002,,,,,,,2022-05-26,1,,,,,,0
1620,8011001147697,新規,0,2022-05-26,2022-05-26,リアルスコンサルタント株式会社,,株式会社,東京都,渋谷区,道玄坂１丁目２１番１号,,13,113,1500043,,,,,,,2022-05-26,1,,,,,リアルスコンサルタント,0
1624,8011101098972,新規,0,2022-05-26,2022-05-26,株式会社ニューウェイク,,株式会社,東京都,新宿区,西新宿３丁目３番１３号西新宿水間ビル６階,,13,104,1600023,,,,,,,2022-05-26,1,,,,,ニューウェイク,0
1626,8011201023847,新規,0,2022-05-26,2022-05-26,盛逸美泰株式会社,,株式会社,東京都,中野区,若宮３丁目３９－１５サンライズ若宮３０２号室,,13,114,1650033,,,,,,,2022-05-26,1,,,,,セイイツビタイ,0
1630,8011303004415,新規,0,2022-05-26,2022-05-26,合同会社ＢＲＫ‐ＢＯＯＫＳ,,合同会社,東京都,杉並区,天沼２丁目７番１１号ウエストハイム１０５,,13,115,1670032,,,,,,,2022-05-26,1,,,,,ビーアールケーブックス,0
1635,8011403003671,新規,0,2022-05-26,2022-05-26,合同会社フラットフィールド,,合同会社,東京都,板橋区,向原３丁目１０番７号,,13,119,1730036,,,,,,,2022-05-26,1,,,,,フラットフィールド,0
1638,8011601025988,新規,0,2022-05-26,2022-05-26,株式会社Ｃｏｍｉｃａｒｏｉｄ,,株式会社,東京都,練馬区,桜台４丁目２－３ジオ練馬桜台２０３号,,13,120,1760002,,,,,,,2022-05-26,1,,,,,コミカロイド,0
1641,8011701025335,新規,0,2022-05-26,2022-05-26,株式会社ＲＳ　ＢＲＡＮＤＩＮＧ　ＤＥＳＩＧＮ,,株式会社,東京都,江戸川区,西葛西４丁目２番３０－２０３号,,13,123,1340088,,,,,,,2022-05-26,1,,,,,アールエスブランディングデザイン,0
1642,8011703003149,新規,0,2022-05-26,2022-05-26,合同会社ＨＲサクシード,,合同会社,東京都,江戸川区,西葛西１丁目１２番１７号,,13,123,1340088,,,,,,,2022-05-26,1,,,,,エイチアールサクシード,0
1644,8011801040762,新規,0,2022-05-26,2022-05-26,株式会社ＦＡＶＩＯＮ,,株式会社,東京都,足立区,千住旭町３８番１号,,13,121,1200026,,,,,,,2022-05-26,1,,,,,ファビオン,0
1645,8013301049136,新規,0,2022-05-26,2022-05-26,日本辛版貿易株式会社,,株式会社,東京都,豊島区,南池袋２丁目４５－２－１８０８,,13,116,1710022,,,,,,,2022-05-26,1,,,,,ニホンシンバンボウエキ,0
1648,8013303006168,新規,0,2022-05-26,2022-05-26,合同会社Ｖａｌｉ　Ｎｈａｔｂａｎ,,合同会社,東京都,豊島区,上池袋２丁目３２番１４号,,13,116,1700012,,,,,,,2022-05-26,1,,,,,バリニャットバン,0
1654,8020001146626,新規,0,2022-05-26,2022-05-26,株式会社Ｍｏｍｅｎｔ,,株式会社,神奈川県,川崎市川崎区,砂子２丁目８番地１シャンボール互恵ビル１２１２,,14,131,2100006,,,,,,,2022-05-26,1,,,,,モーメント,0
1655,8020001146634,新規,0,2022-05-26,2022-05-26,株式会社ソリッド,,株式会社,神奈川県,横浜市瀬谷区,相沢５丁目５１番地３,,14,114,2460013,,,,,,,2022-05-26,1,,,,,ソリッド,0
1660,8020003021819,新規,0,2022-05-26,2022-05-26,合同会社サクラピンク,,合同会社,神奈川県,横浜市磯子区,森が丘２丁目２３番１５号,,14,107,2350024,,,,,,,2022-05-26,1,,,,,サクラピンク,0
1669,8030001148373,新規,0,2022-05-26,2022-05-26,株式会社アライアンス,,株式会社,埼玉県,朝霞市,根岸台１丁目１－５０志幸根岸２－１０４号室,,11,227,3510005,,,,,,,2022-05-26,1,,,,,アライアンス,0
1671,8030003019473,新規,0,2022-05-26,2022-05-26,合同会社オンリーワンアウトソーシング,,合同会社,埼玉県,鴻巣市,本町５丁目３番２１号池沢ビル２階,,11,217,3650038,,,,,,,2022-05-26,1,,,,,オンリーワンアウトソーシング,0
1672,8030003019481,新規,0,2022-05-26,2022-05-26,Ｇｒｅｅｎ　Ｆｉｅｌｄ　Ｍａｃｈｉｎｅｒｉｅｓ合同会社,,合同会社,埼玉県,上尾市,大字原市３４９８番地１１イケンガハウス１Ｆ,,11,219,3620021,,,,,,,2022-05-26,1,,,,,グリーンフィールドマシナリーズ,0
1675,8040001123490,新規,0,2022-05-26,2022-05-26,株式会社ＴＥＭＰＲＯＮＴ,,株式会社,千葉県,柏市,若柴１７８番地４柏の葉キャンパス１４８街区２ショップ＆オフィス棟６Ｆ,,12,217,2770871,,,,,,,2022-05-26,1,,,,,テンプロント,0
1680,8040003020091,新規,0,2022-05-26,2022-05-26,合同会社ＬＳＬ,,合同会社,千葉県,習志野市,本大久保４丁目１２－３パルテール習志野３０６,,12,216,2750012,,,,,,,2022-05-26,1,,,,,エルエスエル,0
1682,8050001051121,新規,0,2022-05-26,2022-05-26,亀田シーリング工業株式会社,,株式会社,茨城県,笠間市,平町１９５４番地,,08,216,3091722,,,,,,,2022-05-26,1,,,,,カメタシーリングコウギョウ,0
1685,8080001024875,新規,0,2022-05-26,2022-05-26,ＤＳＳ　ＧＲＯＵＰ　ＪＡＰＡＮ株式会社,,株式会社,静岡県,焼津市,三右衛門新田２１６番地の１,,22,212,4250046,,,,,,,2022-05-26,1,,,,,ディーエスエスグループジャパン,0
1689,8090003002093,新規,0,2022-05-26,2022-05-26,ｃｈｉｌｌ‐ａｌｐｈａ合同会社,,合同会社,山梨県,中巨摩郡昭和町,飯喰１５２６－２サザンアイＡ１０１号,,19,384,4093852,,,,,,,2022-05-26,1,,,,,チルアルファ,0
1691,8110001036677,新規,0,2022-05-26,2022-05-26,株式会社ヌーワン,,株式会社,新潟県,新潟市中央区,天神１丁目１番地プラーカ３,,15,103,9500917,,,,,,,2022-05-26,1,,,,,ヌーワン,0
1702,8120001246143,新規,0,2022-05-26,2022-05-26,ＨＴ　ＧＲＯＵＰ株式会社,,株式会社,大阪府,大阪市西成区,花園南１丁目４－１６,,27,122,5570015,,,,,,,2022-05-26,1,,,,,エイチティグループ,0
1703,8120003021759,新規,0,2022-05-26,2022-05-26,ｍｏｏｏｒ合同会社,,合同会社,大阪府,大阪市北区,曾根崎２丁目２番３号アポロビル２号館４階,,27,127,5300057,,,,,,,2022-05-26,1,,,,,ムーア,0
1705,8120101065633,新規,0,2022-05-26,2022-05-26,株式会社なかつ会,,株式会社,大阪府,岸和田市,極楽寺町１丁目２－１７,,27,202,5960832,,,,,,,2022-05-26,1,,,,,ナカツカイ,0
1723,8180001151404,新規,0,2022-05-26,2022-05-26,株式会社善進建美,,株式会社,愛知県,名古屋市中村区,鳥居通４丁目１６番地,,23,105,4530044,,,,,,,2022-05-26,1,,,,,ゼンシンケンビ,0
1724,8180001151437,新規,0,2022-05-26,2022-05-26,ハートサービスアスカ株式会社,,株式会社,愛知県,名古屋市中川区,服部５丁目５２０番地,,23,110,4540976,,,,,,,2022-05-26,1,,,,,ハートサービスアスカ,0
1730,8180301036255,新規,0,2022-05-26,2022-05-26,株式会社ＷＩＳＥ,,株式会社,愛知県,刈谷市,小垣江町中７１番地５,,23,210,4480813,,,,,,,2022-05-26,1,,,,,ワイズ,0
1744,8240003005634,新規,0,2022-05-26,2022-05-26,合同会社ＴＫＣ,,合同会社,広島県,広島市中区,舟入南２丁目８番４号,,34,101,7300847,,,,,,,2022-05-26,1,,,,,ティーケーシー,0
1746,8250003003075,新規,0,2022-05-26,2022-05-26,合同会社ＰｒｉｍＲｏｓｅ,,合同会社,山口県,光市,虹ケ丘５丁目１６番１５号,,35,210,7430031,,,,,,,2022-05-26,1,,,,,プリムローズ,0
1751,8290001097644,新規,0,2022-05-26,2022-05-26,株式会社Ｌｉｂｅｒｔｅ,,株式会社,福岡県,福岡市早良区,室見３丁目１２番２５号,,40,137,8140015,,,,,,,2022-05-26,1,,,,,リベルテ,0
1755,8290003012551,新規,0,2022-05-26,2022-05-26,合同会社Ｐ．Ｅ．Ｓ．,,合同会社,福岡県,大野城市,筒井２丁目１８－２０－２,,40,219,8160931,,,,,,,2022-05-26,1,,,,,ピーイーエス,0
1758,8310003004372,新規,0,2022-05-26,2022-05-26,合同会社おいでくん,,合同会社,長崎県,佐世保市,山県町７－５ベイサイドガーデン７０１,,42,202,8570878,,,,,,,2022-05-26,1,,,,,オイデクン,0
1764,8360001030457,新規,0,2022-05-26,2022-05-26,株式会社ＢＥ　ＢＯＮＺＵ,,株式会社,沖縄県,中頭郡嘉手納町,字嘉手納４６３番地新町１号館住宅,,47,325,9040203,,,,,,,2022-05-26,1,,,,,,0
1778,8430001086731,新規,0,2022-05-26,2022-05-26,株式会社共進工業,,株式会社,北海道,岩内郡岩内町,字大浜７９番地８,,01,402,0450001,,,,,,,2022-05-26,1,,,,,キョウシンコウギョウ,0
1782,8470001019092,新規,0,2022-05-26,2022-05-26,株式会社ＬＩＦＥ　ＷＯＲＫ,,株式会社,香川県,高松市,中山町５８１番地４４,,37,201,7618004,,,,,,,2022-05-26,1,,,,,ライフワーク,0
1788,8700150108671,新規,0,2022-05-26,2022-05-12,瀬尾タクヤプロデュース,,その他,東京都,大田区,上池台１丁目２０番８号ＤｓＶＡＲＩＥ上池台レジデンス３０３,,13,111,1450064,,,,,,,2022-05-12,1,,,,,セオタクヤプロデユース,0
1795,9010001226832,新規,0,2022-05-26,2022-05-26,株式会社トータルビューティー,,株式会社,東京都,中央区,日本橋蛎殻町２丁目１０番１０－３０１号,,13,102,1030014,,,,,,,2022-05-26,1,,,,,トータルビューティー,0
1798,9010005035057,新規,0,2022-05-26,2022-05-26,東京オフィス４一般社団法人,,その他の設立登記法人,東京都,千代田区,丸の内３丁目１番１号東京共同会計事務所内,,13,101,1000005,,,,,,,2022-05-26,1,,,,,トウキョウオフィスフォー,0
1811,9010401167478,新規,0,2022-05-26,2022-05-26,株式会社Ｕ５ＷＯＲＫＳ,,株式会社,東京都,港区,芝５丁目２６番２４号田町スクエア２階,,13,103,1080014,,,,,,,2022-05-26,1,,,,,ユーゴワークス,0
1812,9010403027738,新規,0,2022-05-26,2022-05-26,ＬＳ‐ＡＡＬ第２号合同会社,,合同会社,東京都,港区,六本木１丁目６番１号,,13,103,1060032,,,,,,,2022-05-26,1,,,,,エルエスエーエーエルダイニゴウ,0
1813,9010403027746,新規,0,2022-05-26,2022-05-26,合同会社ＨｉＪｏＪｏ　Ｆｕｎｄ２４,,合同会社,東京都,港区,麻布十番２丁目２０番７号,,13,103,1060045,,,,,,,2022-05-26,1,,,,,ヒジョージョーファンドニジュウヨン,0
1815,9010501048875,新規,0,2022-05-26,2022-05-26,株式会社ニュートラルジャパン,,株式会社,東京都,台東区,台東３丁目１１番５号６０２,,13,106,1100016,,,,,,,2022-05-26,1,,,,,ニュートラルジャパン,0
1821,9010703006251,新規,0,2022-05-26,2022-05-26,合同会社ＡＭＩＳ,,合同会社,東京都,品川区,西大井４丁目５番１７号ヒルズ大森３１０,,13,109,1400015,,,,,,,2022-05-26,1,,,,,エイミス,0
1825,9010901050902,新規,0,2022-05-26,2022-05-26,株式会社ＮＡＹＵＴＡ,,株式会社,東京都,世田谷区,上北沢３丁目１７番７号,,13,112,1560057,,,,,,,2022-05-26,1,,,,,ナユタ,0
1833,9011001147589,新規,0,2022-05-26,2022-05-26,Ｂｅｙｏｎｄｇｅ株式会社,,株式会社,東京都,渋谷区,恵比寿２丁目２８番７号ベンチャーシティ恵比寿,,13,113,1500013,,,,,,,2022-05-26,1,,,,,,0
1834,9011001147663,新規,0,2022-05-26,2022-05-26,株式会社哲思,,株式会社,東京都,渋谷区,本町６丁目１６番１８号メゾン・ド・プリメ３０６号室,,13,113,1510071,,,,,,,2022-05-26,1,,,,,,0
1837,9011003014671,新規,0,2022-05-26,2022-05-26,Ｎｅｓｓ‐Ａ合同会社,,合同会社,東京都,渋谷区,神宮前２丁目９－１５宮益坂ビルディング６０９,,13,113,1500001,,,,,,,2022-05-26,1,,,,,,0
1838,9011005009579,新規,0,2022-05-26,2022-05-26,一般社団法人日本現代アート協会,,その他の設立登記法人,東京都,渋谷区,代々木３丁目３１番５号３Ｆ,,13,113,1510053,,,,,,,2022-05-26,1,,,,,ニホンゲンダイアートキョウカイ,0
1856,9011801040761,新規,0,2022-05-26,2022-05-26,株式会社Ｄｅｓｖｉｏ,,株式会社,東京都,足立区,江北３丁目５３番１号,,13,121,1230872,,,,,,,2022-05-26,1,,,,,デスビオ,0
1858,9012401039228,新規,0,2022-05-26,2022-05-26,Ｔ＆Ｔホールディングス株式会社,,株式会社,東京都,調布市,深大寺東町１丁目６番地２,,13,208,1820012,,,,,,,2022-05-26,1,,,,,ティーアンドティーホールディングス,0
1861,9012703002461,新規,0,2022-05-26,2022-05-26,合同会社Ｍｏｓｃａ　Ａｌｅｇｒｅ,,合同会社,東京都,西東京市,芝久保町１丁目２４－２２－８,,13,229,1880014,,,,,,,2022-05-26,1,,,,,モスカアレグレ,0
1865,9013301049135,新規,0,2022-05-26,2022-05-26,株式会社片岡直樹一級建築士事務所,00126664,株式会社,東京都,豊島区,巣鴨１丁目１８－２－Ｂ１プラザレジデンス８,,13,116,1700002,,,,,,,2022-05-26,1,,,,,カタオカナオキイッキュウケンチクシジムショ,0
1872,9020001146583,新規,0,2022-05-26,2022-05-26,株式会社Ｋ‐ＭＥＺＯ,,株式会社,神奈川県,横浜市青葉区,田奈町５１番地８号,,14,117,2270064,,,,,,,2022-05-26,1,,,,,ケーメゾ,0
1873,9020001146591,新規,0,2022-05-26,2022-05-26,株式会社ＭＡＮＡＫＡＭＡＮＡ,,株式会社,神奈川県,川崎市中原区,木月３丁目１３番３０号,,14,133,2110025,,,,,,,2022-05-26,1,,,,,マナカマナ,0
1874,9020001146617,新規,0,2022-05-26,2022-05-26,株式会社福田工務店,,株式会社,神奈川県,横浜市鶴見区,矢向６丁目１７番５号,,14,101,2300001,,,,,,,2022-05-26,1,,,,,フクダコウムテン,0
1875,9020001146625,新規,0,2022-05-26,2022-05-26,株式会社日匠技建,,株式会社,神奈川県,横浜市青葉区,藤が丘２丁目１７番３４号,,14,117,2270043,,,,,,,2022-05-26,1,,,,,ニッショウギケン,0
1876,9020001146633,新規,0,2022-05-26,2022-05-26,株式会社ＴＨｄｅｓｉｇｎ,,株式会社,神奈川県,横浜市旭区,中希望が丘２２６番地１,,14,112,2410825,,,,,,,2022-05-26,1,,,,,ティエイチデザイン,0
1878,9020003021727,新規,0,2022-05-26,2022-05-26,ＢｒｅａｋＢｅｎｄｅｄ合同会社,,合同会社,神奈川県,川崎市麻生区,はるひ野４丁目４番６－１１０３号,,14,137,2150036,,,,,,,2022-05-26,1,,,,,ブレイクベンデッド,0
1879,9020003021801,新規,0,2022-05-26,2022-05-26,アンシェルブルー合同会社,,合同会社,神奈川県,横浜市西区,西戸部町１丁目３３番地１２,,14,103,2200046,,,,,,,2022-05-26,1,,,,,アンシェルブルー,0
1880,9020003021818,新規,0,2022-05-26,2022-05-26,ＴＡＭＵＲＡ合同会社,,合同会社,神奈川県,横浜市旭区,二俣川２丁目７７－６,,14,112,2410821,,,,,,,2022-05-26,1,,,,,タムラ,0
1881,9020003021834,新規,0,2022-05-26,2022-05-26,合同会社Ｆ,,合同会社,神奈川県,横浜市神奈川区,子安通３丁目３５３番地７１０号,,14,102,2210021,,,,,,,2022-05-26,1,,,,,エフ,0
1899,9030001148166,新規,0,2022-05-26,2022-05-26,Ｅｖｅｒ　Ｓｍｉｌｅ株式会社,,株式会社,埼玉県,さいたま市緑区,東浦和１丁目１０番地８エンゼルハイム東浦和第１－２０１,,11,109,3360926,,,,,,,2022-05-26,1,,,,,エバースマイル,0
1900,9030001148364,新規,0,2022-05-26,2022-05-26,生駒メディカルサービス株式会社,,株式会社,埼玉県,さいたま市中央区,上落合６丁目９番８号,,11,105,3380001,,,,,,,2022-05-26,1,,,,,イコマメディカルサービス,0
1903,9030003019464,新規,0,2022-05-26,2022-05-26,合同会社Ｃｈｒｏｎｉｃｏ,,合同会社,埼玉県,越谷市,蒲生４丁目１０番２２－１号,,11,222,3430838,,,,,,,2022-05-26,1,,,,,クロニコ,0
1904,9030003019472,新規,0,2022-05-26,2022-05-26,ＦＯＮＳ合同会社,,合同会社,埼玉県,越谷市,北越谷２丁目２２番２号,,11,222,3430026,,,,,,,2022-05-26,1,,,,,フォンズ,0
1908,9040001123507,新規,0,2022-05-26,2022-05-26,株式会社セカンドフロア,,株式会社,千葉県,浦安市,当代島３丁目６番３５号,,12,227,2790001,,,,,,,2022-05-26,1,,,,,セカンドフロア,0
1911,9040003020074,新規,0,2022-05-26,2022-05-26,合同会社セレクトショップサラ,,合同会社,千葉県,我孫子市,湖北台８丁目６番２６号,,12,222,2701132,,,,,,,2022-05-26,1,,,,,セレクトショップサラ,0
1913,9050003006576,新規,0,2022-05-26,2022-05-26,Ｆａｈａｄ　Ｔｒａｄｉｎｇ合同会社,,合同会社,茨城県,下妻市,鎌庭３９８番３,,08,210,3040819,,,,,,,2022-05-26,1,,,,,ファハドトレーディング,0
1915,9050005013083,新規,0,2022-05-26,2022-05-26,一般財団法人ラームテンプル福祉財団,,その他の設立登記法人,茨城県,下妻市,宗道１７６番地１,,08,210,3040814,,,,,,,2022-05-26,1,,,,,ラームテンプルフクシザイダン,0
1917,9070001039262,新規,0,2022-05-26,2022-05-26,株式会社企業戦略研究所,,株式会社,群馬県,前橋市,千代田町４丁目１２－３,,10,201,3710022,,,,,,,2022-05-26,1,,,,,キギョウセンリャクケンキュウジョ,0
1926,9110001036676,新規,0,2022-05-26,2022-05-26,株式会社Ａｒｃｒｅｖｅ,,株式会社,新潟県,新潟市東区,宝町４番１号,,15,102,9500053,,,,,,,2022-05-26,1,,,,,アークレーブ,0
1939,9120001246084,新規,0,2022-05-26,2022-05-26,四元九章株式会社,,株式会社,大阪府,大阪市天王寺区,上汐３丁目３－２３ライオンズマンション上六第２、３０７号室,,27,109,5430002,,,,,,,2022-05-26,1,,,,,ヨンゲンキュウショウ,0
1941,9120003021766,新規,0,2022-05-26,2022-05-26,合同会社Ａｃｅ　Ｒｉｃｈｔ,,合同会社,大阪府,門真市,三ツ島１丁目２２－１７,,27,223,5710015,,,,,,,2022-05-26,1,,,,,エースリヒト,0
1946,9140001126128,新規,0,2022-05-26,2022-05-26,株式会社テラアクソンパートナーズ,,株式会社,兵庫県,神戸市中央区,浪花町５６番地三井住友銀行神戸本部ビル２Ｆ,,28,110,6500035,,,,,,,2022-05-26,1,,,,,テラアクソンパートナーズ,0
1948,9140003017721,新規,0,2022-05-26,2022-05-26,ＳＥＡ　ＣＲＵＩＳＥ合同会社,,合同会社,兵庫県,宝塚市,武庫川町５－２７－１０１,,28,214,6650844,,,,,,,2022-05-26,1,,,,,セアクルーズ,0
1953,9150003002689,新規,0,2022-05-26,2022-05-26,合同会社テンホーツ,,合同会社,奈良県,奈良市,朱雀６丁目６－２０,,29,201,6310806,,,,,,,2022-05-26,1,,,,,テンホーツ,0
1956,9170001017118,新規,0,2022-05-26,2022-05-26,和歌山環境株式会社,,株式会社,和歌山県,西牟婁郡上富田町,生馬３１７番地４２,,30,404,6492103,,,,,,,2022-05-26,1,,,,,ワカヤマカンキョウ,0
1960,9180001151403,新規,0,2022-05-26,2022-05-26,株式会社ｋｅｙｓ,,株式会社,愛知県,名古屋市中区,栄３丁目２８番２１号６階,,23,106,4600008,,,,,,,2022-05-26,1,,,,,キーズ,0
1961,9180001151428,新規,0,2022-05-26,2022-05-26,株式会社明朗愛和,,株式会社,愛知県,東海市,荒尾町才道６番地の１,,23,222,4760003,,,,,,,2022-05-26,1,,,,,メイロウアイワ,0
1962,9180001151436,新規,0,2022-05-26,2022-05-26,ＩＭＴ株式会社,,株式会社,愛知県,名古屋市南区,西又兵ヱ町３丁目４８番地,,23,112,4570835,,,,,,,2022-05-26,1,,,,,アイエムティー,0
1967,9180003023856,新規,0,2022-05-26,2022-05-26,合同会社ｇｏｏｄ　ｌｉｖｉｎｇ,,合同会社,愛知県,名古屋市中区,栄３丁目１５－２７,,23,106,4600008,,,,,,,2022-05-26,1,,,,,グッドリビング,0
1975,9200001040082,新規,0,2022-05-26,2022-05-26,株式会社ａｎｓｗｅｒ,,株式会社,岐阜県,岐阜市,宇佐南４丁目２番１４－４０３号,,21,201,5008367,,,,,,,2022-05-26,1,,,,,アンサー,0
1976,9200001040090,新規,0,2022-05-26,2022-05-26,Ｔｈｅ　Ｐｒｉｎｃｅ　Ａｃａｄｅｍｙ株式会社,,株式会社,岐阜県,大垣市,本町１丁目５５番地,,21,202,5030885,,,,,,,2022-05-26,1,,,,,ザプリンスアカデミー,0
1978,9210001018945,新規,0,2022-05-26,2022-05-26,株式会社わかさエンジニアリング,,株式会社,福井県,小浜市,相生第５号１３番地の１,,18,204,9170037,,,,,,,2022-05-26,1,,,,,ワカサエンジニアリング,0
1993,9280005007483,新規,0,2022-05-26,2022-05-26,一般社団法人出雲漢方研究会,,その他の設立登記法人,島根県,出雲市,今市町１１９０番地１１２－１０６,,32,203,6930001,,,,,,,2022-05-26,1,,,,,イズモカンポウケンキュウカイ,0
2003,9290803004128,新規,0,2022-05-26,2022-05-26,合同会社ＯＫＡＷＡ＆Ｃｏ．,,合同会社,福岡県,北九州市小倉北区,泉台１丁目１３番１３号,,40,106,8030842,,,,,,,2022-05-26,1,,,,,オオカワアンドコー,0
2005,9310001017870,新規,0,2022-05-26,2022-05-26,株式会社風輝,,株式会社,長崎県,長崎市,大手３丁目４番地１０号ハイツ文教台３０４号,,42,201,8528127,,,,,,,2022-05-26,1,,,,,フウキ,0
2016,9370003005703,新規,0,2022-05-26,2022-05-26,合同会社鮨処ともしげ,,合同会社,宮城県,仙台市青葉区,国見２丁目４番１７－６０２号,,04,101,9810943,,,,,,,2022-05-26,1,,,,,スシドコロトモシゲ,0
2022,9430001086730,新規,0,2022-05-26,2022-05-26,ケイユー株式会社,,株式会社,北海道,札幌市白石区,中央二条３丁目９番２０号札幌テクノセンター１４１号室,,01,104,0030012,,,,,,,2022-05-26,1,,,,,ケイユー,0
2024,9430003013955,新規,0,2022-05-26,2022-05-26,合同会社キレイナシステム,,合同会社,北海道,札幌市豊平区,月寒東五条９丁目５番３２号,,01,105,0620055,,,,,,,2022-05-26,1,,,,,キレイナシステム,0
2028,9490001010189,新規,0,2022-05-26,2022-05-26,岡部左工株式会社,,株式会社,高知県,高知市,朝倉丙５４２－１４,,39,201,7808063,,,,,,,2022-05-26,1,,,,,オカベサコウ,0
2030,9700150108266,新規,0,2022-05-26,2022-04-22,珠スタ,,その他,東京都,練馬区,春日町４丁目２４－１,,13,120,1790074,,,,,,,2022-04-22,1,,,,,タマスタ,0
2031,9700150108290,新規,0,2022-05-26,2022-04-22,今川海浜組合,,その他,新潟県,村上市,今川１９５,,15,212,9593662,,,,,,,2022-04-22,1,,,,,イマガワカイヒンクミアイ,0
2032,9700150108381,新規,0,2022-05-26,2022-04-27,ブラス　トライアル,,その他,東京都,練馬区,栄町３４番４号入船ビル４０１,,13,120,1760006,,,,,,,2022-04-27,1,,,,,ブラストライアル,0
