sequenceNumber,corporateNumber,process,correct,updateDate,changeDate,name,nameImageId,kind,prefectureName,cityName,streetNumber,addressImageId,prefectureCode,cityCode,postCode,addressOutside,addressOutsideImageId,closeDate,closeCause,successorCorporateNumber,changeCause,assignmentDate,latest,enName,enPrefectureName,enCityName,enAddressOutside,furigana,hihyoji
7,1010002027626,登記記録の閉鎖等,0,2022-06-21,2022-06-13,有限会社松岡編集企画,,有限会社,東京都,中央区,日本橋浜町３丁目１番２号,,13,102,1030007,,,2022-06-13,清算の結了等,,,2015-10-05,1,,,,,マツオカヘンシュウキカク,0
21,1010401107004,登記記録の閉鎖等,0,2022-06-21,2022-05-23,株式会社ＧＰエナジー６,,株式会社,東京都,港区,浜松町１丁目６番１５号ＶＯＲＴ浜松町Ｉ,00104918,13,103,1050013,,,2022-05-23,合併による解散等,9021001050049,令和４年３月３１日東京都港区浜松町一丁目６番１５号ＶＯＲＴ浜松町Ｉ株式会社多摩川エナジー（9021001050049）に合併し解散,2015-10-05,1,,,,,ジーピーエナジーシックス,0
22,1010403012565,登記記録の閉鎖等,0,2022-06-21,2022-05-23,合同会社ＧＰエナジーＢ,,合同会社,東京都,港区,浜松町１丁目６番１５号ＶＯＲＴ浜松町Ｉ,00104936,13,103,1050013,,,2022-05-23,合併による解散等,9021001050049,令和４年３月３１日東京都港区浜松町一丁目６番１５号ＶＯＲＴ浜松町Ｉ株式会社多摩川エナジー（9021001050049）に合併し解散,2015-10-05,1,,,,,ジーピーエナジービー,0
42,1010903001010,登記記録の閉鎖等,0,2022-06-21,2022-06-03,合同会社キラーコンテンツ,,合同会社,東京都,世田谷区,上用賀４丁目３５－１２－４０３,,13,112,1580098,,,2022-06-03,清算の結了等,,,2015-10-05,1,,,,,キラーコンテンツ,0
44,1011001006694,登記記録の閉鎖等,0,2022-06-21,2022-06-07,株式会社久保田製作所,,株式会社,東京都,渋谷区,笹塚３丁目３４番１３号,00064275,13,113,1510073,,,2022-06-07,清算の結了等,,,2015-10-05,1,,,,,クボタセイサクショ,0
65,1011601020112,登記記録の閉鎖等,0,2022-06-21,2022-06-17,株式会社阿基,,株式会社,大阪府,大阪市淀川区,西宮原１丁目８－２４新大阪第３ドイビル６Ｆ,,27,123,5320004,,,2022-06-17,清算の結了等,,,2015-10-05,1,,,,,アキ,0
101,1021002054659,登記記録の閉鎖等,0,2022-06-21,2022-06-15,有限会社オーエス企画,,有限会社,神奈川県,南足柄市,塚原１３６０番地３,,14,217,2500117,,,2022-06-15,清算の結了等,,,2015-10-05,1,,,,,,0
110,1030001134586,登記記録の閉鎖等,0,2022-06-21,2022-06-10,埼京建物マネジメント株式会社,,株式会社,埼玉県,坂戸市,溝端町３－１４－２階,,11,239,3500274,,,2022-06-10,清算の結了等,,,2020-01-09,1,,,,,サイキョウタテモノマネジメント,0
116,1030002036484,登記記録の閉鎖等,0,2022-06-21,2022-06-13,有限会社アヴァンセ,,有限会社,埼玉県,狭山市,入間川３丁目２７番５号１１３,,11,215,3501305,,,2022-06-13,清算の結了等,,,2015-10-05,1,,,,,アヴァンセ,0
117,1030002092957,登記記録の閉鎖等,0,2022-06-21,2022-06-13,有限会社水上商事,,有限会社,埼玉県,坂戸市,八幡１丁目１１番４６号,,11,239,3500223,,,2022-06-13,清算の結了等,,,2015-10-05,1,,,,,ミズカミショウジ,0
132,1060002035723,登記記録の閉鎖等,0,2022-06-21,2022-06-14,有限会社小野里修理工場,,有限会社,栃木県,足利市,板倉町６９９番地１,,09,202,3260102,,,2022-06-14,清算の結了等,,,2015-10-05,1,,,,,オノザトシュウリコウジョウ,0
158,1120001001901,登記記録の閉鎖等,0,2022-06-21,2022-06-15,株式会社サンヨーテック,,株式会社,大阪府,大阪市鶴見区,今津北１丁目７番２８号,,27,124,5380041,,,2022-06-15,合併による解散等,7120001001895,令和４年６月１５日大阪市鶴見区今津北一丁目７番２８号株式会社サンヨーケミカル（7120001001895）に合併し解散,2015-10-05,1,,,,,サンヨーテック,0
162,1120001154468,登記記録の閉鎖等,0,2022-06-21,2022-06-20,株式会社フィースト,,株式会社,大阪府,大阪市北区,大深町３番１号グランフロント大阪北館６０５,,27,127,5300011,,,2022-06-20,清算の結了等,,,2015-10-05,1,,,,,,0
163,1120001239789,登記記録の閉鎖等,0,2022-06-21,2022-06-16,株式会社ＴＫＳ,,株式会社,大阪府,大阪市中央区,伏見町２丁目１番１号,,27,128,5410044,,,2022-06-16,清算の結了等,,,2021-08-17,1,,,,,ティーケーエス,0
168,1120002055970,登記記録の閉鎖等,0,2022-06-21,2022-06-20,有限会社トロス,,有限会社,大阪府,大阪市西区,江戸堀２丁目１番１号,,27,106,5500002,,,2022-06-20,清算の結了等,,,2015-10-05,1,,,,,,0
169,1120002066927,登記記録の閉鎖等,0,2022-06-21,2022-06-20,有限会社ヴァージル,,有限会社,大阪府,大阪市中央区,南久宝寺町１丁目３番９号,,27,128,5410058,,,2022-06-20,清算の結了等,,,2015-10-05,1,,,,,,0
188,1140001035773,登記記録の閉鎖等,0,2022-06-21,2022-06-14,株式会社アイテック,,株式会社,兵庫県,明石市,小久保１丁目５番地の７,,28,203,6730005,,,2022-06-14,清算の結了等,,,2015-10-05,1,,,,,アイテック,0
206,1180002008196,登記記録の閉鎖等,0,2022-06-21,2022-06-15,有限会社しろ石,,有限会社,愛知県,名古屋市昭和区,菊園町２丁目２２番地,,23,107,4660843,,,2022-06-15,清算の結了等,,,2015-10-05,1,,,,,シロイシ,0
218,1190003001307,登記記録の閉鎖等,0,2022-06-21,2022-06-15,斉藤設計事務所合同会社,,合同会社,三重県,松阪市,嬉野宮古町４７５番地の３,,24,204,5152303,,,2022-06-15,清算の結了等,,,2015-10-05,1,,,,,サイトウセッケイジムショ,0
220,1200002028084,登記記録の閉鎖等,0,2022-06-21,2022-06-17,有限会社三兼工業,,有限会社,岐阜県,郡上市,美並町白山５７９番地の１,,21,219,5014106,,,2022-06-17,清算の結了等,,,2015-10-05,1,,,,,ミカネコウギョウ,0
236,1270001004633,登記記録の閉鎖等,0,2022-06-21,2022-06-15,株式会社山陰セルフミン,,株式会社,鳥取県,境港市,三軒屋町４８５９番地１,,31,204,6840064,,,2022-06-15,清算の結了等,,,2015-10-05,1,,,,,サンインセルフミン,0
241,1290001049346,登記記録の閉鎖等,0,2022-06-21,2022-06-13,株式会社ニチクリ,,株式会社,福岡県,久留米市,山川安居野３丁目１３番１１号,,40,203,8390812,,,2022-06-13,清算の結了等,,,2015-10-05,1,,,,,ニチクリ,0
253,1290802021882,登記記録の閉鎖等,0,2022-06-21,2022-06-17,豊築測量設計有限会社,,有限会社,福岡県,豊前市,大字恒富４２番地の１,,40,214,8280025,,,2022-06-17,清算の結了等,,,2015-10-05,1,,,,,ホウチクソクリョウセッケイ,0
312,1470001016930,登記記録の閉鎖等,0,2022-06-21,2022-06-16,株式会社モトヤ,,株式会社,香川県,仲多度郡琴平町,７２７番地,,37,403,7660001,,,2022-06-16,清算の結了等,,,2018-06-15,1,,,,,モトヤ,0
318,1490002008438,登記記録の閉鎖等,0,2022-06-21,2022-06-08,有限会社大国商事,,有限会社,高知県,四万十市,中村大橋通７丁目１番２４号,,39,210,7870033,,,2022-06-08,清算の結了等,,,2015-10-05,1,,,,,ダイコクショウジ,0
320,1500001003223,登記記録の閉鎖等,0,2022-06-21,2022-06-20,日章自動車株式会社,,株式会社,愛媛県,松山市,北土居４丁目５番３号,,38,201,7911104,,,2022-06-20,清算の結了等,,,2015-10-05,1,,,,,ニッショウジドウシャ,0
330,2010003033795,登記記録の閉鎖等,0,2022-06-21,2022-06-13,ＲＢソーラー嘉麻合同会社,,合同会社,東京都,中央区,八丁堀４丁目２番１０号ＡＯＪ税理士法人内,,13,102,1040032,,,2022-06-13,清算の結了等,,,2020-12-18,1,,,,,アールビーソーラーカマ,0
343,2010401107003,登記記録の閉鎖等,0,2022-06-21,2022-05-23,株式会社ＧＰエナジー５,,株式会社,東京都,港区,浜松町１丁目６番１５号ＶＯＲＴ浜松町Ｉ,00104919,13,103,1050013,,,2022-05-23,合併による解散等,9021001050049,令和４年３月３１日東京都港区浜松町一丁目６番１５号ＶＯＲＴ浜松町Ｉ株式会社多摩川エナジー（9021001050049）に合併し解散,2015-10-05,1,,,,,ジーピーエナジーファイブ,0
366,2010905002484,登記記録の閉鎖等,0,2022-06-21,2022-06-13,特定非営利活動法人あおぞらネット,,その他の設立登記法人,東京都,墨田区,吾妻橋１丁目９番８号ＫＤＸ吾妻橋レジデンス１０１号室,,13,107,1300001,,,2022-06-13,清算の結了等,,,2015-10-05,1,,,,,アオゾラネット,0
373,2011101076232,登記記録の閉鎖等,0,2022-06-21,2022-06-15,株式会社タンキュー,,株式会社,神奈川県,海老名市,国分北１丁目２４番１６号５０８,,14,215,2430406,,,2022-06-15,清算の結了等,,,2016-03-04,1,,,,,タンキュー,0
377,2011301025369,登記記録の閉鎖等,0,2022-06-21,2022-06-17,表参道デベロップメント株式会社,,株式会社,東京都,杉並区,浜田山３丁目２１番１３号パークホームズ浜田山レヴェイユ２０７,,13,115,1680065,,,2022-06-17,清算の結了等,,,2019-09-27,1,,,,,オモテサンドウデベロップメント,0
391,2012301006631,登記記録の閉鎖等,0,2022-06-21,2022-06-13,三友工業株式会社,,株式会社,東京都,町田市,上小山田町２９２０番地７,,13,209,1940201,,,2022-06-13,清算の結了等,,,2015-10-05,1,,,,,ミトモコウギョウ,0
414,2021002008969,登記記録の閉鎖等,0,2022-06-21,2022-06-13,有限会社日本ユーザビリティ,,有限会社,神奈川県,藤沢市,遠藤２７２７番地の３,,14,205,2520816,,,2022-06-13,清算の結了等,,,2015-10-05,1,,,,,ニホンユーザビリティ,0
415,2021002040988,登記記録の閉鎖等,0,2022-06-21,2022-06-15,有限会社エコライフ湘南,,有限会社,神奈川県,藤沢市,弥勒寺３丁目１２番１１号,,14,205,2510016,,,2022-06-15,清算の結了等,,,2015-10-05,1,,,,,エコライフショウナン,0
452,2060002028643,登記記録の閉鎖等,0,2022-06-21,2022-06-13,有限会社杉山製作所,,有限会社,栃木県,小山市,大字北飯田３８０番地,,09,208,3230803,,,2022-06-13,清算の結了等,,,2015-10-05,1,,,,,スギヤマセイサクショ,0
453,2060002034807,登記記録の閉鎖等,0,2022-06-21,2022-06-14,有限会社ティー・エヌ・ケー,,有限会社,栃木県,栃木市,大宮町２１４４番地１１,,09,203,3280011,,,2022-06-14,清算の結了等,,,2015-10-05,1,,,,,ティーエヌケー,0
461,2080403000026,登記記録の閉鎖等,0,2022-06-21,2022-06-16,合資会社アマチ製作所,,合資会社,静岡県,浜松市中区,和地山１丁目７番７２０号,,22,131,4328003,,,2022-06-16,清算の結了等,,,2015-10-05,1,,,,,アマチセイサクジョ,0
462,2090001000831,登記記録の閉鎖等,0,2022-06-21,2022-06-16,古守工業株式会社,,株式会社,山梨県,甲府市,住吉４丁目６番２４号,,19,201,4000851,,,2022-06-16,清算の結了等,,,2015-10-05,1,,,,,コモリコウギョウ,0
465,2100001031701,登記記録の閉鎖等,0,2022-06-21,2022-06-13,株式会社ウェブアライズ,,株式会社,長野県,下伊那郡高森町,山吹６１０２番地,,20,403,3993101,,,2022-06-13,清算の結了等,,,2018-10-26,1,,,,,ウェブアライズ,0
479,2120002075035,登記記録の閉鎖等,0,2022-06-21,2022-06-17,有限会社ペリドット,,有限会社,大阪府,枚方市,津田駅前２丁目１７番１－２０７号,,27,210,5730125,,,2022-06-17,清算の結了等,,,2015-10-05,1,,,,,ペリドット,0
486,2120101026938,登記記録の閉鎖等,0,2022-06-21,2022-06-20,株式会社西日本メディカルプランニング,,株式会社,大阪府,松原市,天美我堂２丁目３２５番地,,27,217,5800026,,,2022-06-20,清算の結了等,,,2015-10-05,1,,,,,,0
508,2140001117868,登記記録の閉鎖等,0,2022-06-21,2022-06-16,Ｂｉｇｂｌｕｅ株式会社,,株式会社,兵庫県,神戸市中央区,東川崎町５丁目３番２号,,28,110,6500044,,,2022-06-16,清算の結了等,,,2020-06-26,1,,,,,ビッグブルー,0
509,2140001122793,登記記録の閉鎖等,0,2022-06-21,2022-06-16,株式会社スポーツセラピューティクス,,株式会社,兵庫県,芦屋市,奥池南町２２番１１号,,28,206,6590004,,,2022-06-16,清算の結了等,,,2021-08-23,1,,,,,スポーツセラピューティクス,0
515,2140002067385,登記記録の閉鎖等,0,2022-06-21,2022-06-13,有限会社ヘルシーメイト,,有限会社,兵庫県,宝塚市,鹿塩１丁目２０番１号,,28,214,6650054,,,2022-06-13,清算の結了等,,,2015-10-05,1,,,,,ヘルシーメイト,0
531,2180001061096,登記記録の閉鎖等,0,2022-06-21,2022-06-17,株式会社Ａｓｓｉｓｔ,,株式会社,愛知県,名古屋市西区,城西２丁目１２番２９号,,23,104,4510031,,,2022-06-17,清算の結了等,,,2015-10-05,1,,,,,アシスト,0
532,2180001074239,登記記録の閉鎖等,0,2022-06-21,2022-06-15,株式会社シバタ,,株式会社,愛知県,春日井市,出川町２丁目２番地の３,,23,206,4870025,,,2022-06-15,清算の結了等,,,2015-10-05,1,,,,,シバタ,0
546,2200002008267,登記記録の閉鎖等,0,2022-06-21,2022-06-20,有限会社水野エンジニアリング,,有限会社,岐阜県,各務原市,鵜沼各務原町３丁目７６番地,,21,213,5090141,,,2022-06-20,清算の結了等,,,2015-10-05,1,,,,,ミズノエンジニアリング,0
570,2260001034465,登記記録の閉鎖等,0,2022-06-21,2022-06-01,株式会社ＢＥＡＴＳ,,株式会社,岡山県,岡山市北区,楢津２１４番地６,,33,101,7011202,,,2022-06-01,合併による解散等,2260001034374,令和４年６月１日岡山市北区津高７６１番地１株式会社オフィス・Ａ（2260001034374）と合併し解散,2020-07-01,1,,,,,ビーツ,0
572,2260002014796,登記記録の閉鎖等,0,2022-06-21,2022-06-20,株式会社アイサポート,,株式会社,岡山県,岡山市北区,奉還町１丁目１３番１６号,,33,101,7000026,,,2022-06-20,清算の結了等,,,2015-10-05,1,,,,,アイサポート,0
575,2290001016519,登記記録の閉鎖等,0,2022-06-21,2022-06-01,株式会社プレナス・エムケイ,,株式会社,福岡県,福岡市博多区,上牟田１丁目１９番２１号,,40,132,8120006,,,2022-06-01,合併による解散等,2290001034974,令和４年６月１日福岡市博多区上牟田一丁目１９番２１号株式会社プレナス（2290001034974）に合併し解散,2015-10-05,1,,,,,プレナスエムケイ,0
678,3010802004269,登記記録の閉鎖等,0,2022-06-21,2022-06-10,有限会社木村ハイム,,有限会社,東京都,大田区,中央８丁目１７番１２号,,13,111,1430024,,,2022-06-10,清算の結了等,,,2015-10-05,1,,,,,キムラハイム,0
692,3011001127324,登記記録の閉鎖等,0,2022-06-21,2022-06-06,株式会社ゴロク,,株式会社,東京都,渋谷区,宇田川町４０番１号,,13,113,1500042,,,2022-06-06,合併による解散等,7011001071691,令和４年６月１日東京都渋谷区宇田川町４０番１号株式会社シロク（7011001071691）に合併し解散,2019-04-05,1,,,,,ゴロク,0
709,3011701023756,登記記録の閉鎖等,0,2022-06-21,2022-06-07,株式会社Ｇｏｕｌｅｖａｒｄ,,株式会社,東京都,江戸川区,西葛西２丁目２２番４５号,,13,123,1340088,,,2022-06-07,清算の結了等,,,2020-09-11,1,,,,,グルバード,0
727,3020002035345,登記記録の閉鎖等,0,2022-06-21,2022-06-14,有限会社花秀希代商店,,有限会社,神奈川県,横浜市港北区,日吉本町３丁目２７番２６号,,14,109,2230062,,,2022-06-14,清算の結了等,,,2015-10-05,1,,,,,ハナヒデキダイショウテン,0
735,3021001015668,登記記録の閉鎖等,0,2022-06-21,2022-06-16,光和建装株式会社,,株式会社,神奈川県,相模原市中央区,上溝３９４５番地２２,,14,152,2520243,,,2022-06-16,清算の結了等,,,2015-10-05,1,,,,,コウワケンソウ,0
738,3021001049947,登記記録の閉鎖等,0,2022-06-21,2022-05-23,株式会社ＧＰエナジー２,,株式会社,東京都,港区,浜松町１丁目６番１５号ＶＯＲＴ浜松町Ｉ,00104920,13,103,1050013,,,2022-05-23,合併による解散等,9021001050049,令和４年３月３１日東京都港区浜松町一丁目６番１５号ＶＯＲＴ浜松町Ｉ株式会社多摩川エナジー（9021001050049）に合併し解散,2015-10-05,1,,,,,ジーピーエナジーツー,0
743,3021002065340,登記記録の閉鎖等,0,2022-06-21,2022-06-14,有限会社高尾電気,00013879,有限会社,神奈川県,横須賀市,長井２丁目１０番１７号,,14,201,2380316,,,2022-06-14,清算の結了等,,,2015-10-05,1,,,,,タカオデンキ,0
748,3030001104959,登記記録の閉鎖等,0,2022-06-21,2022-06-13,株式会社ＲｉＳｏＲａ,,株式会社,埼玉県,三郷市,彦成５番地４０,,11,237,3410003,,,2022-06-13,清算の結了等,,,2015-10-05,1,,,,,リソラ,0
764,3040001084515,登記記録の閉鎖等,0,2022-06-21,2022-06-10,コアー・マネージメント株式会社,,株式会社,千葉県,柏市,大津ケ丘４丁目２１番１８,,12,217,2770921,,,2022-06-10,清算の結了等,,,2015-10-05,1,,,,,コアーマネージメント,0
766,3040002093416,登記記録の閉鎖等,0,2022-06-21,2022-06-10,建立運輸有限会社,,有限会社,千葉県,柏市,亀甲台町１丁目３番地５,,12,217,2770031,,,2022-06-10,清算の結了等,,,2015-10-05,1,,,,,コンリュウウンユ,0
780,3080401022384,登記記録の閉鎖等,0,2022-06-21,2022-06-17,株式会社パイントラスト企画,,株式会社,静岡県,磐田市,岩井２０４０番地１,,22,211,4380016,,,2022-06-17,清算の結了等,,,2017-08-09,1,,,,,,0
798,3120001223262,登記記録の閉鎖等,0,2022-06-21,2022-06-17,ＭＯＯＮ　ＮＩＧＨＴ株式会社,,株式会社,大阪府,大阪市浪速区,大国１丁目１２番１４号,,27,111,5560014,,,2022-06-17,清算の結了等,,,2019-08-22,1,,,,,ムーンナイト,0
830,3140001104733,登記記録の閉鎖等,0,2022-06-21,2022-06-14,株式会社ＹＵＳＥＩ,,株式会社,兵庫県,神戸市長田区,松野通１丁目８番２号２Ｆ,,28,106,6530841,,,2022-06-14,清算の結了等,,,2017-01-18,1,,,,,ユウセイ,0
833,3140002023239,登記記録の閉鎖等,0,2022-06-21,2022-06-14,有限会社水谷電装,,有限会社,兵庫県,芦屋市,陽光町７番１－６１３号,,28,206,6590034,,,2022-06-14,清算の結了等,,,2015-10-05,1,,,,,ミズタニデンソウ,0
847,3180302003226,登記記録の閉鎖等,0,2022-06-21,2022-06-16,有限会社ルート岡崎,,有限会社,愛知県,岡崎市,竜美台１丁目１１番地１,,23,202,4440873,,,2022-06-16,清算の結了等,,,2015-10-05,1,,,,,ルートオカザキ,0
876,3290001036978,登記記録の閉鎖等,0,2022-06-21,2022-05-24,神湊開発株式会社,,株式会社,福岡県,宗像市,神湊９７５番地,,40,220,8113501,,,2022-05-24,清算の結了等,,,2015-10-05,1,,,,,コウノミナトカイハツ,0
899,3320005002493,登記記録の閉鎖等,0,2022-06-21,2022-06-16,一般社団法人中原谷土地環境改善支援促進協議会,,その他の設立登記法人,大分県,大分市,長浜町２丁目１０番１２号,,44,201,8700023,,,2022-06-16,清算の結了等,,,2015-10-05,1,,,,,ナカバルダニトチカンキョウカイゼンシエンソクシンキョウギカイ,0
906,3340002026428,登記記録の閉鎖等,0,2022-06-21,2022-06-16,有限会社丸山工務店,,有限会社,鹿児島県,鹿屋市,南町１６４６番地２,,46,203,8930043,,,2022-06-16,清算の結了等,,,2015-10-05,1,,,,,,0
911,3370001014356,登記記録の閉鎖等,0,2022-06-21,2022-06-10,株式会社キーコミュニケーション,,株式会社,宮城県,仙台市泉区,市名坂字町６３番地の５,,04,105,9813117,,,2022-06-10,清算の結了等,,,2015-10-05,1,,,,,キーコミュニケーション,0
937,3470002010732,登記記録の閉鎖等,0,2022-06-21,2022-06-15,有限会社星野尾米穀店,,有限会社,香川県,木田郡三木町,大字池戸２８６４番地４,,37,341,7610701,,,2022-06-15,清算の結了等,,,2015-10-05,1,,,,,ホシノオベイコクテン,0
956,4010001195198,登記記録の閉鎖等,0,2022-06-21,2022-06-09,株式会社ＢＮイングリッシュ,,株式会社,東京都,中央区,日本橋２丁目１番１７号丹生ビル２階,,13,102,1030027,,,2022-06-09,清算の結了等,,,2018-10-01,1,,,,,ビーエヌイングリッシュ,0
980,4010601034870,登記記録の閉鎖等,0,2022-06-21,2022-06-13,株式会社ＨＵＭＡＮ　ＩＮＤＵＳＴＲＹ,,株式会社,東京都,江東区,三好２丁目６番７号,,13,108,1350022,,,2022-06-13,清算の結了等,,,2015-10-05,1,,,,,ヒューマンインダストリー,0
1024,4020001140095,登記記録の閉鎖等,0,2022-06-21,2022-06-10,株式会社Ｍａｊｏｌｉｃａ,,株式会社,神奈川県,横浜市青葉区,荏田北１丁目２番地８－３０２,,14,117,2250015,,,2022-06-10,清算の結了等,,,2021-02-24,1,,,,,マジョリカ,0
1063,4040001098687,登記記録の閉鎖等,0,2022-06-21,2022-06-09,株式会社プリル,,株式会社,千葉県,袖ケ浦市,蔵波１２５０番地１０４,,12,229,2990243,,,2022-06-09,清算の結了等,,,2017-02-02,1,,,,,プリル,0
1070,4050002045241,登記記録の閉鎖等,0,2022-06-21,2022-06-13,有限会社共栄工業,,有限会社,茨城県,北相馬郡利根町,大字奥山２３０６番地,,08,564,3001603,,,2022-06-13,清算の結了等,,,2015-10-05,1,,,,,キョウエイコウギョウ,0
1081,4080001020936,登記記録の閉鎖等,0,2022-06-21,2022-06-17,株式会社しずおか観光ソリューションズ,,株式会社,静岡県,静岡市葵区,紺屋町８番地の１２金清軒ビル,,22,101,4200852,,,2022-06-17,清算の結了等,,,2016-05-19,1,,,,,シズオカカンコウソリューションズ,0
1136,4140003012693,登記記録の閉鎖等,0,2022-06-21,2022-06-14,シーエスピー・テクノロジーズ・ジャパン合同会社,,合同会社,兵庫県,神戸市東灘区,岡本２丁目１３番１８号,,28,101,6580072,,,2022-06-14,清算の結了等,,,2018-01-10,1,,,,,シーエスピテクノロジーズジャパン,0
1138,4160001008824,登記記録の閉鎖等,0,2022-06-21,2022-06-06,明誠染形株式会社,,株式会社,北海道,江別市,上江別４３７番地の３、６０２号室,,01,217,0670064,,,2022-06-06,清算の結了等,,,2015-10-05,1,,,,,メイセイソメガタ,0
1150,4180001139403,登記記録の閉鎖等,0,2022-06-21,2022-06-16,株式会社ＤＮコネクト,,株式会社,愛知県,名古屋市中川区,長良町５丁目２２番１,,23,110,4540815,,,2022-06-16,清算の結了等,,,2019-12-26,1,,,,,ディーエヌコネクト,0
1153,4180002086272,登記記録の閉鎖等,0,2022-06-21,2022-06-16,有限会社丸山不動産,,有限会社,愛知県,常滑市,大和町２丁目１４７番地,,23,216,4790844,,,2022-06-16,清算の結了等,,,2015-10-05,1,,,,,マルヤマフドウサン,0
1175,4250005002418,登記記録の閉鎖等,0,2022-06-21,2022-05-30,天理教吉之宇部分教会,,その他の設立登記法人,山口県,宇部市,東芝中町３番４５号,,35,202,7550016,,,2022-05-30,合併による解散等,3250005000307,令和４年５月３０日山口県山口市東山一丁目６番１８号天理教吉敷分教会（3250005000307）に合併し解散,2015-10-05,1,,,,,,0
1206,4340002028150,登記記録の閉鎖等,0,2022-06-21,2022-06-17,有限会社おばま動物病院,,有限会社,鹿児島県,曽於市,財部町下財部１４６４番地４,,46,217,8994103,,,2022-06-17,清算の結了等,,,2015-10-05,1,,,,,オバマドウブツビョウイン,0
1260,5010001180785,登記記録の閉鎖等,0,2022-06-21,2022-06-14,Ｄ．Ｓ．Ｓ株式会社,,株式会社,東京都,中央区,勝どき２丁目１８番１号黎明スカイレジテル西館３階,,13,102,1040054,,,2022-06-14,清算の結了等,,,2017-01-18,1,,,,,ディエスエス,0
1269,5010005002993,登記記録の閉鎖等,0,2022-06-21,2022-06-17,一般社団法人国旗協会,,その他の設立登記法人,東京都,千代田区,丸の内３丁目２番２号,,13,101,1000005,,,2022-06-17,清算の結了等,,,2015-10-05,1,,,,,コッキキョウカイ,0
1277,5010403020267,登記記録の閉鎖等,0,2022-06-21,2022-06-03,合同会社Ａ．Ｐ．南青山,,合同会社,東京都,港区,元赤坂１丁目１番７号,,13,103,1070051,,,2022-06-03,清算の結了等,,,2019-02-26,1,,,,,エーピーミナミアオヤマ,0
1282,5010601019144,登記記録の閉鎖等,0,2022-06-21,2022-06-14,株式会社シライ,,株式会社,東京都,墨田区,業平５丁目１１番７号,,13,107,1300002,,,2022-06-14,清算の結了等,,,2015-10-05,1,,,,,シライ,0
1291,5010701040727,登記記録の閉鎖等,0,2022-06-21,2022-06-10,株式会社ＡＡＡ,,株式会社,東京都,大田区,南馬込６丁目１２番１１号,,13,111,1430025,,,2022-06-10,清算の結了等,,,2021-04-06,1,,,,,エスリー,0
1319,5011802028693,登記記録の閉鎖等,0,2022-06-21,2022-06-15,有限会社さくらテック工業,,有限会社,東京都,足立区,西新井６丁目３４番４号,,13,121,1230841,,,2022-06-15,清算の結了等,,,2015-10-05,1,,,,,サクラテックコウギョウ,0
1320,5012401007709,登記記録の閉鎖等,0,2022-06-21,2022-06-14,三英工芸印刷株式会社,,株式会社,東京都,調布市,小島町３丁目２３番地１,,13,208,1820026,,,2022-06-14,清算の結了等,,,2015-10-05,1,,,,,,0
1340,5021002031373,登記記録の閉鎖等,0,2022-06-21,2022-06-15,有限会社キミヘルス,,有限会社,神奈川県,厚木市,まつかげ台２７番４号,,14,212,2430207,,,2022-06-15,清算の結了等,,,2015-10-05,1,,,,,キミヘルス,0
1345,5030001135218,登記記録の閉鎖等,0,2022-06-21,2022-06-13,株式会社日華,,株式会社,埼玉県,上尾市,大字今泉２６１番地５７,,11,219,3620047,,,2022-06-13,清算の結了等,,,2020-02-21,1,,,,,ニッカ,0
1353,5030005011860,登記記録の閉鎖等,0,2022-06-21,2022-06-10,医療法人わらび整形外科,,その他の設立登記法人,埼玉県,東松山市,大字西本宿８１６番地８,,11,212,3550062,,,2022-06-10,清算の結了等,,,2015-10-05,1,,,,,ワラビセイケイゲカ,0
1359,5050002041438,登記記録の閉鎖等,0,2022-06-21,2022-06-13,有限会社守谷化成,,有限会社,茨城県,常総市,豊田１８０２番地１,,08,211,3002705,,,2022-06-13,清算の結了等,,,2015-10-05,1,,,,,モリヤカセイ,0
1365,5070002017428,登記記録の閉鎖等,0,2022-06-21,2022-06-13,有限会社さくらや,,有限会社,群馬県,藤岡市,藤岡５２８番地５,,10,209,3750024,,,2022-06-13,清算の結了等,,,2015-10-05,1,,,,,サクラヤ,0
1392,5120001191284,登記記録の閉鎖等,0,2022-06-21,2022-06-20,株式会社播匠,,株式会社,大阪府,大阪市中央区,谷町４丁目８番１２－１００３号,,27,128,5400012,,,2022-06-20,清算の結了等,,,2015-10-05,1,,,,,,0
1408,5130001006516,登記記録の閉鎖等,0,2022-06-21,2022-06-17,株式会社燦都商事,,株式会社,京都府,京都市中京区,油小路通四条上る藤本町５３８番地,,26,104,6048233,,,2022-06-17,清算の結了等,,,2015-10-05,1,,,,,サントショウジ,0
1421,5140003014251,登記記録の閉鎖等,0,2022-06-21,2022-06-14,合同会社永寿,,合同会社,兵庫県,姫路市,大塩町汐咲１丁目３３番地,,28,201,6710102,,,2022-06-14,清算の結了等,,,2019-09-03,1,,,,,エイジュ,0
1442,5200005013286,登記記録の閉鎖等,0,2022-06-21,2022-06-20,一般社団法人中部地方公営競技運営協議会,,その他の設立登記法人,岐阜県,各務原市,つつじが丘３丁目１１９番地,,21,213,5090131,,,2022-06-20,清算の結了等,,,2021-12-07,1,,,,,チュウブチホウコウエイキョウギウンエイキョウギカイ,0
1479,5340001009588,登記記録の閉鎖等,0,2022-06-21,2022-06-01,大和屋株式会社,,株式会社,鹿児島県,姶良市,平松１２３０番地３,,46,225,8995652,,,2022-06-01,合併による解散等,2340002015943,令和４年６月１日鹿児島県姶良市宮島町９番地３株式会社大悟（2340002015943）に合併し解散,2015-10-05,1,,,,,ヤマトヤ,0
1480,5340001020941,登記記録の閉鎖等,0,2022-06-21,2022-06-20,株式会社ｅ－セレクト,,株式会社,鹿児島県,鹿児島市,春日町２番１４－１０１号,,46,201,8920804,,,2022-06-20,清算の結了等,,,2018-02-02,1,,,,,イーセレクト,0
1482,5350001010925,登記記録の閉鎖等,0,2022-06-21,2022-06-13,エムアイプラント株式会社,,株式会社,宮崎県,都城市,高崎町前田１４５８番地１,,45,202,8894506,,,2022-06-13,清算の結了等,,,2015-10-05,1,,,,,エムアイプラント,0
1485,5360002015815,登記記録の閉鎖等,0,2022-06-21,2022-06-14,有限会社サン・デリカ,,有限会社,沖縄県,中頭郡中城村,字当間７８４番地,,47,328,9012406,,,2022-06-14,清算の結了等,,,2015-10-05,1,,,,,サンデリカ,0
1496,5402701000555,登記記録の閉鎖等,0,2022-06-21,2022-06-17,東海通商株式会社,,株式会社,岩手県,大船渡市,大船渡町字地ノ森３７番地１０,,03,203,0220002,,,2022-06-17,清算の結了等,,,2015-10-05,1,,,,,,0
1497,5410002011718,登記記録の閉鎖等,0,2022-06-21,2022-06-09,有限会社トミーズ,,有限会社,秋田県,大仙市,太田町横沢字窪関南４２０－１,,05,212,0191601,,,2022-06-09,清算の結了等,,,2015-10-05,1,,,,,トミーズ,0
1525,5500001011197,登記記録の閉鎖等,0,2022-06-21,2022-06-20,今治中央ビル株式会社,,株式会社,愛媛県,今治市,常盤町４丁目５番地２,,38,202,7940015,,,2022-06-20,清算の結了等,,,2015-10-05,1,,,,,イマバリチュウオウビル,0
1529,6010001016897,登記記録の閉鎖等,0,2022-06-21,2022-06-13,三共化学機械株式会社,,株式会社,東京都,千代田区,内神田３丁目５番１号,,13,101,1010047,,,2022-06-13,清算の結了等,,,2015-10-05,1,,,,,サンキョウカガクキカイ,0
1545,6010401086961,登記記録の閉鎖等,0,2022-06-21,2022-06-06,株式会社スパイスミックス,,株式会社,東京都,港区,六本木４丁目８番７号,,13,103,1060032,,,2022-06-06,清算の結了等,,,2015-10-05,1,,,,,,0
1555,6010605000586,登記記録の閉鎖等,0,2022-06-21,2022-06-13,医療法人財団稲仁会,,その他の設立登記法人,東京都,江東区,東陽２丁目４番２６号飯田ビル２階,,13,108,1350016,,,2022-06-13,清算の結了等,,,2015-10-05,1,,,,,トウジンカイ,0
1561,6011001122784,登記記録の閉鎖等,0,2022-06-21,2022-06-08,株式会社ＳＯＥ,,株式会社,東京都,渋谷区,代々木４丁目５番１６号,,13,113,1510053,,,2022-06-08,清算の結了等,,,2018-06-20,1,,,,,エスオーイー,0
1609,6021003006076,登記記録の閉鎖等,0,2022-06-21,2022-06-16,オーストン合同会社,,合同会社,神奈川県,横須賀市,安針台２番２－１０６号,,14,201,2380048,,,2022-06-16,清算の結了等,,,2016-07-08,1,,,,,オーストン,0
1613,6030001081089,登記記録の閉鎖等,0,2022-06-21,2022-06-10,株式会社三和文庫,,株式会社,埼玉県,川口市,三ツ和２丁目３６番地の６,,11,203,3340011,,,2022-06-10,清算の結了等,,,2015-10-05,1,,,,,サンワブンコ,0
1614,6030001085676,登記記録の閉鎖等,0,2022-06-21,2022-06-10,株式会社ヨシミ総合サービス,,株式会社,埼玉県,熊谷市,問屋町２丁目４番１号,,11,202,3600024,,,2022-06-10,清算の結了等,,,2015-10-05,1,,,,,ヨシミソウゴウサービス,0
1621,6030002089718,登記記録の閉鎖等,0,2022-06-21,2022-06-10,有限会社ホリイ設備,,有限会社,埼玉県,北葛飾郡松伏町,大字大川戸２３０７番地１５,,11,465,3430106,,,2022-06-10,清算の結了等,,,2015-10-05,1,,,,,ホリイセツビ,0
1638,6080401000742,登記記録の閉鎖等,0,2022-06-21,2022-06-13,株式会社エイチ・エムアクティ,,株式会社,静岡県,浜松市北区,三方原町５８番地の１,,22,135,4338105,,,2022-06-13,清算の結了等,,,2015-10-05,1,,,,,エイチエムアクティ,0
1643,6100001001353,登記記録の閉鎖等,0,2022-06-21,2022-06-16,株式会社信光,,株式会社,長野県,長野市,大字鶴賀２１４１番地３,,20,201,3800907,,,2022-06-16,清算の結了等,,,2015-10-05,1,,,,,シンコウ,0
1656,6120001158035,登記記録の閉鎖等,0,2022-06-21,2022-06-17,光空調設備株式会社,,株式会社,大阪府,門真市,三ツ島５丁目７番２１号,,27,223,5710015,,,2022-06-17,清算の結了等,,,2015-10-05,1,,,,,ヒカリクウチョウセツビ,0
1709,6180001145358,登記記録の閉鎖等,0,2022-06-21,2022-06-15,Ｌｅａｐ株式会社,,株式会社,愛知県,名古屋市北区,中味鋺２丁目９１７番地,,23,103,4620015,,,2022-06-15,清算の結了等,,,2021-03-31,1,,,,,リープ,0
1719,6210001007042,登記記録の閉鎖等,0,2022-06-21,2022-06-15,ツルベ産業株式会社,,株式会社,福井県,坂井市,坂井町東長田第４２号１８番地１,,18,210,9190524,,,2022-06-15,清算の結了等,,,2015-10-05,1,,,,,ツルベサンギョウ,0
1734,6290001035663,登記記録の閉鎖等,0,2022-06-21,2022-06-13,株式会社システムフロンティア,,株式会社,福岡県,福岡市東区,箱崎５丁目１１番３－６０５号,,40,131,8120053,,,2022-06-13,清算の結了等,,,2015-10-05,1,,,,,システムフロンティア,0
1737,6290001075172,登記記録の閉鎖等,0,2022-06-21,2022-06-13,株式会社ＢＵＳ　ＳＴＯＰ　ＣＡＦＥ,,株式会社,福岡県,福岡市博多区,博多駅東１丁目１２番１号,,40,132,8120013,,,2022-06-13,清算の結了等,,,2016-09-14,1,,,,,,0
1750,6340002023760,登記記録の閉鎖等,0,2022-06-21,2022-06-17,有限会社ミュージックハウス小川,,有限会社,鹿児島県,枕崎市,西本町２４番地の２,,46,204,8980015,,,2022-06-17,清算の結了等,,,2015-10-05,1,,,,,,0
1760,6380002004286,登記記録の閉鎖等,0,2022-06-21,2022-06-13,有限会社アイル,,有限会社,福島県,福島市,山田字芋渕１７番地,,07,201,9601105,,,2022-06-13,清算の結了等,,,2015-10-05,1,,,,,アイル,0
1766,6390001013304,登記記録の閉鎖等,0,2022-06-21,2022-06-15,株式会社ウイスカーティー２,,株式会社,山形県,東村山郡山辺町,大字山辺２８７１番地３,,06,301,9900301,,,2022-06-15,清算の結了等,,,2015-10-05,1,,,,,ウイスカーティーツー,0
1782,6450001002408,登記記録の閉鎖等,0,2022-06-21,2022-06-20,株式会社北海道伝統美術工芸村,,株式会社,北海道,旭川市,南が丘３丁目１番１号,,01,204,0708028,,,2022-06-20,清算の結了等,,,2015-10-05,1,,,,,,0
1786,6480001001679,登記記録の閉鎖等,0,2022-06-21,2022-06-20,株式会社日光建設,,株式会社,徳島県,徳島市,富田町１丁目２９番地１,,36,201,7700915,,,2022-06-20,清算の結了等,,,2015-10-05,1,,,,,ニッコウ,0
1805,7010005002629,登記記録の閉鎖等,0,2022-06-21,2022-06-16,一般社団法人原子燃料政策研究会,,その他の設立登記法人,東京都,千代田区,麹町４丁目３番地４,,13,101,1020083,,,2022-06-16,清算の結了等,,,2015-10-05,1,,,,,ゲンシネンリョウセイサクケンキュウカイ,0
1811,7010101013224,登記記録の閉鎖等,0,2022-06-21,2022-06-17,レイストンフィジックス株式会社,,株式会社,東京都,八王子市,北野台５丁目３０番６号,,13,201,1920913,,,2022-06-17,清算の結了等,,,2018-03-15,1,,,,,レイストンフィジックス,0
1815,7010401123615,登記記録の閉鎖等,0,2022-06-21,2022-06-06,株式会社ビューティースタイル,,株式会社,東京都,港区,赤坂２丁目１６番６号,,13,103,1070052,,,2022-06-06,清算の結了等,,,2016-03-10,1,,,,,,0
1821,7010603007649,登記記録の閉鎖等,0,2022-06-21,2022-06-15,合同会社勝丸,,合同会社,東京都,江東区,森下２丁目２６番６号,,13,108,1350004,,,2022-06-15,清算の結了等,,,2019-02-01,1,,,,,カツマル,0
1831,7010902000750,登記記録の閉鎖等,0,2022-06-21,2022-06-02,有限会社足立建築研究所,,有限会社,東京都,世田谷区,等々力７丁目３番４号,,13,112,1580082,,,2022-06-02,清算の結了等,,,2015-10-05,1,,,,,アダチケンチクケンキュウショ,0
1842,7011001128203,登記記録の閉鎖等,0,2022-06-21,2022-06-07,株式会社プランズテクノロジー,,株式会社,東京都,渋谷区,道玄坂２丁目１０番１２号,,13,113,1500043,,,2022-06-07,清算の結了等,,,2019-05-28,1,,,,,プランズテクノロジー,0
1873,7011701014041,登記記録の閉鎖等,0,2022-06-21,2022-06-10,ゑびす屋株式会社,,株式会社,千葉県,松戸市,秋山２丁目７番地の２,,12,207,2702223,,,2022-06-10,清算の結了等,,,2015-10-05,1,,,,,エビスヤ,0
1902,7020003010112,登記記録の閉鎖等,0,2022-06-21,2022-06-14,合同会社Ｇ－ＬＥＧＥＮＤ,,合同会社,神奈川県,横浜市鶴見区,鶴見中央４丁目１１番地６,,14,101,2300051,,,2022-06-14,清算の結了等,,,2015-10-05,1,,,,,ジーレジェンド,0
1921,7040001076252,登記記録の閉鎖等,0,2022-06-21,2022-06-15,有修溶工株式会社,,株式会社,埼玉県,八潮市,大字西袋２番地,,11,234,3400833,,,2022-06-15,合併による解散等,6011701005413,令和４年６月１日東京都江戸川区新堀二丁目２７番２号東京フラッグ株式会社（6011701005413）に合併し解散,2015-10-05,1,,,,,ユウシュウヨウコウ,0
1926,7040002006431,登記記録の閉鎖等,0,2022-06-21,2022-06-10,有限会社千和製作所,,有限会社,千葉県,千葉市花見川区,三角町３１番地１,,12,102,2620011,,,2022-06-10,清算の結了等,,,2015-10-05,1,,,,,センワセイサクショ,0
1934,7060005003837,登記記録の閉鎖等,0,2022-06-21,2022-06-13,ブリヂストン那須グループ生活協同組合,,その他の設立登記法人,栃木県,那須塩原市,上中野１０番地,,09,213,3293154,,,2022-06-13,清算の結了等,,,2015-10-05,1,,,,,ブリヂストンナスグループ,0
1940,7080401011615,登記記録の閉鎖等,0,2022-06-21,2022-06-13,株式会社ハロー・テンリュー,,株式会社,静岡県,浜松市北区,三方原町１７０１番地の２１,,22,135,4338105,,,2022-06-13,清算の結了等,,,2015-10-05,1,,,,,ハローテンリュー,0
1944,7090002006947,登記記録の閉鎖等,0,2022-06-21,2022-06-14,有限会社ＭＩＧＩ,,有限会社,山梨県,甲府市,住吉３丁目３番１号,,19,201,4000851,,,2022-06-14,清算の結了等,,,2015-10-05,1,,,,,,0
1964,7120901029994,登記記録の閉鎖等,0,2022-06-21,2022-06-20,株式会社ＴＩ,,株式会社,大阪府,大阪市北区,天満３丁目４番２２号日宝岩井町ビル,,27,127,5300043,,,2022-06-20,清算の結了等,,,2015-10-05,1,,,,,,0
1988,7150005008934,登記記録の閉鎖等,0,2022-06-21,2022-06-13,一般社団法人癒しの会．Ｎａｒａ,,その他の設立登記法人,奈良県,生駒市,東新町３５５番１,,29,209,6300258,,,2022-06-13,清算の結了等,,,2017-12-28,1,,,,,イヤシノカイナラ,0
1997,7180301000724,登記記録の閉鎖等,0,2022-06-21,2022-06-14,株式会社グアード音楽出版,,株式会社,愛知県,岡崎市,明大寺町字義路１０番地８,,23,202,4440864,,,2022-06-14,清算の結了等,,,2015-10-05,1,,,,,グアードオンガクシュッパン,0
2005,7190002021151,登記記録の閉鎖等,0,2022-06-21,2022-06-15,有限会社東海総合設備,,有限会社,三重県,四日市市,元町８番７号,,24,202,5100088,,,2022-06-15,清算の結了等,,,2015-10-05,1,,,,,トウカイソウゴウセツビ,0
2011,7200005001116,登記記録の閉鎖等,0,2022-06-21,2022-06-20,岐阜県ソーイング協同組合,,その他の設立登記法人,岐阜県,岐阜市,柳生町６番地の１,,21,201,5008078,,,2022-06-20,清算の結了等,,,2015-10-05,1,,,,,ギフケンソーイング,0
2028,7290001086094,登記記録の閉鎖等,0,2022-06-21,2022-06-13,株式会社ハッピーネットジャパン,,株式会社,福岡県,福岡市中央区,六本松２丁目１０番２４号,,40,133,8100044,,,2022-06-13,清算の結了等,,,2019-08-07,1,,,,,,0
2030,7290002022544,登記記録の閉鎖等,0,2022-06-21,2022-06-13,有限会社ネクステージ西日本,,有限会社,福岡県,那珂川市,王塚台２丁目２００番地,,40,231,8111221,,,2022-06-13,清算の結了等,,,2015-10-05,1,,,,,ネクステージニシニホン,0
2056,7370001043574,登記記録の閉鎖等,0,2022-06-21,2022-06-09,株式会社ゴトー技研,,株式会社,宮城県,栗原市,鶯沢北郷的場９８番地,,04,213,9895403,,,2022-06-09,清算の結了等,,,2018-10-05,1,,,,,ゴトーギケン,0
2071,7450001000823,登記記録の閉鎖等,0,2022-06-21,2022-06-20,カネクラホクト建設工業株式会社,,株式会社,北海道,旭川市,末広六条６丁目６番１５号,,01,204,0718136,,,2022-06-20,清算の結了等,,,2015-10-05,1,,,,,カネクラホクトケンセツコウギョウ,0
2076,7470002013962,登記記録の閉鎖等,0,2022-06-21,2022-06-15,有限会社崎田組,00005451,有限会社,香川県,仲多度郡多度津町,東新町３番１８号,,37,404,7640001,,,2022-06-15,清算の結了等,,,2015-10-05,1,,,,,サキタグミ,0
2077,7470003002130,登記記録の閉鎖等,0,2022-06-21,2022-06-10,合同会社ととまる,,合同会社,香川県,高松市,香川町川東下６５３番地３,,37,201,7611705,,,2022-06-10,清算の結了等,,,2022-02-15,1,,,,,トトマル,0
2127,8010902001194,登記記録の閉鎖等,0,2022-06-21,2022-06-15,有限会社イーアンドエー,,有限会社,東京都,世田谷区,松原６丁目１０番１３号,,13,112,1560043,,,2022-06-15,清算の結了等,,,2015-10-05,1,,,,,イーアンドエー,0
2154,8012401023736,登記記録の閉鎖等,0,2022-06-21,2022-06-15,株式会社Ｖｉｇｏｒｏｓｓｏ,,株式会社,東京都,国立市,中３丁目１１番地の１クリオレミントンヴィレッジ国立９０９,,13,215,1860004,,,2022-06-15,清算の結了等,,,2015-10-05,1,,,,,ビゴロッソ,0
2159,8013302003034,登記記録の閉鎖等,0,2022-06-21,2022-06-17,有限会社久保田箔押所,,有限会社,東京都,板橋区,南町４４番１,,13,119,1730027,,,2022-06-17,清算の結了等,,,2015-10-05,1,,,,,,0
2161,8020001082607,登記記録の閉鎖等,0,2022-06-21,2022-06-14,ＳＩＭ株式会社,,株式会社,神奈川県,川崎市中原区,丸子通２丁目６７４番地１,,14,133,2110006,,,2022-06-14,清算の結了等,,,2015-10-05,1,,,,,シム,0
2178,8021002042095,登記記録の閉鎖等,0,2022-06-21,2022-06-15,有限会社張ヶ谷工務店,,有限会社,神奈川県,大和市,渋谷４丁目８番地１１,,14,213,2420023,,,2022-06-15,清算の結了等,,,2015-10-05,1,,,,,ハリガヤコウムテン,0
2202,8070002024149,登記記録の閉鎖等,0,2022-06-21,2022-06-14,有限会社角金,,有限会社,群馬県,みどり市,笠懸町阿左美３２９６番地,,10,212,3792311,,,2022-06-14,清算の結了等,,,2015-10-05,1,,,,,ツノキン,0
2229,8120002015530,登記記録の閉鎖等,0,2022-06-21,2022-06-17,有限会社三和質舗,,有限会社,大阪府,大阪市港区,磯路１丁目３番１６号,,27,107,5520003,,,2022-06-17,清算の結了等,,,2015-10-05,1,,,,,サンワシチホ,0
2260,8150001020454,登記記録の閉鎖等,0,2022-06-21,2022-06-15,株式会社和尊,,株式会社,奈良県,奈良市,大宮町２丁目７番２０号,,29,201,6308115,,,2022-06-15,清算の結了等,,,2016-01-14,1,,,,,ワソン,0
2268,8180001139184,登記記録の閉鎖等,0,2022-06-21,2022-06-16,ネクストロード株式会社,,株式会社,愛知県,名古屋市東区,筒井３丁目３４番地１５号平岡ビル１階,,23,102,4610003,,,2022-06-16,清算の結了等,,,2019-12-06,1,,,,,ネクストロード,0
2270,8180301025332,登記記録の閉鎖等,0,2022-06-21,2022-06-16,株式会社中西電気,,株式会社,愛知県,岡崎市,真伝吉祥２丁目２１番地４,,23,202,4443176,,,2022-06-16,清算の結了等,,,2015-10-05,1,,,,,ナカニシデンキ,0
2275,8200003005274,登記記録の閉鎖等,0,2022-06-21,2022-06-20,合同会社イノベーションフーズ,,合同会社,岐阜県,高山市,江名子町２１７３番地１,,21,203,5060818,,,2022-06-20,清算の結了等,,,2021-08-04,1,,,,,イノベーションフーズ,0
2278,8210005009017,登記記録の閉鎖等,0,2022-06-21,2022-06-15,特定非営利活動法人とらいあんぐるふくい,,その他の設立登記法人,福井県,鯖江市,東鯖江１丁目４０２番地２,,18,207,9160041,,,2022-06-15,清算の結了等,,,2015-10-05,1,,,,,トライアングルフクイ,0
2288,8240001042290,登記記録の閉鎖等,0,2022-06-21,2022-06-06,株式会社広島総業,,株式会社,広島県,広島市安佐北区,大林町字人甲８７番地,,34,106,7310202,,,2022-06-06,清算の結了等,,,2015-10-05,1,,,,,ヒロシマソウギョウ,0
2294,8290001011068,登記記録の閉鎖等,0,2022-06-21,2022-06-13,菱和メディカルエンジニアリング株式会社,,株式会社,福岡県,福岡市早良区,小田部３丁目３番４１号,,40,137,8140032,,,2022-06-13,清算の結了等,,,2015-10-05,1,,,,,リョウワメディカルエンジニアリング,0
2296,8290001056831,登記記録の閉鎖等,0,2022-06-21,2022-06-13,株式会社シーエム商事,,株式会社,福岡県,福岡市東区,美和台１丁目１９番１０号,,40,131,8110212,,,2022-06-13,清算の結了等,,,2015-10-05,1,,,,,シーエムショウジ,0
2302,8290002049727,登記記録の閉鎖等,0,2022-06-21,2022-06-13,有限会社日本クリコン,,有限会社,福岡県,久留米市,高良内町４４２９番地２,,40,203,8390852,,,2022-06-13,清算の結了等,,,2015-10-05,1,,,,,ニホンクリコン,0
2312,8310005008248,登記記録の閉鎖等,0,2022-06-21,2022-06-15,一般社団法人カラフルビーズ自閉を抱く会,,その他の設立登記法人,長崎県,佐世保市,高梨町２番２６－１５号,,42,202,8570811,,,2022-06-15,清算の結了等,,,2018-10-02,1,,,,,カラフルビーズジヘイヲイダクカイ,0
2328,8380002027764,登記記録の閉鎖等,0,2022-06-21,2022-06-10,有限会社リービックコンサルティング,,有限会社,福島県,いわき市,平中平窪字横枕１６番地,,07,204,9708002,,,2022-06-10,清算の結了等,,,2015-10-05,1,,,,,,0
2334,8390005008934,登記記録の閉鎖等,0,2022-06-21,2022-06-17,鶴岡市給食調理事業協同組合,,その他の設立登記法人,山形県,鶴岡市,布目字宮田１６３番地１,,06,203,9970851,,,2022-06-17,清算の結了等,,,2022-01-17,1,,,,,ツルオカシキュウショクチョウリ,0
2347,8450001007157,登記記録の閉鎖等,0,2022-06-21,2022-06-20,株式会社クリエイション,,株式会社,北海道,旭川市,五条通７丁目１２７８番地３,,01,204,0700035,,,2022-06-20,清算の結了等,,,2015-10-05,1,,,,,,0
2350,8460102000480,登記記録の閉鎖等,0,2022-06-21,2022-06-17,有限会社おいかわ,,有限会社,北海道,河東郡音更町,大通６丁目３番地,,01,631,0800101,,,2022-06-17,清算の結了等,,,2015-10-05,1,,,,,オイカワ,0
2358,8490001009034,登記記録の閉鎖等,0,2022-06-21,2022-06-14,株式会社松井,,株式会社,高知県,高知市,介良乙３７３８番１,,39,201,7815106,,,2022-06-14,清算の結了等,,,2018-08-06,1,,,,,マツイ,0
2373,9010002001458,登記記録の閉鎖等,0,2022-06-21,2022-06-13,有限会社家具健保共済サービス,,有限会社,東京都,文京区,湯島３丁目２４番５号,,13,105,1130034,,,2022-06-13,清算の結了等,,,2015-10-05,1,,,,,カグケンポキョウサイサービス,0
2385,9010401129800,登記記録の閉鎖等,0,2022-06-21,2022-06-07,伊藤忠リート・マネジメント株式会社,,株式会社,東京都,千代田区,麹町３丁目６番地５,,13,101,1020083,,,2022-06-07,合併による解散等,5010001093244,令和４年６月１日東京都千代田区神田神保町一丁目１０５番地ＡＤインベストメント・マネジメント株式会社（5010001093244）に合併し解散,2017-02-17,1,,,,,イトウチュウリートマネジメント,0
2400,9010601059120,登記記録の閉鎖等,0,2022-06-21,2022-06-01,株式会社サン・マル・サン,,株式会社,千葉県,浦安市,舞浜３丁目２８番６号,,12,227,2790031,,,2022-06-01,合併による解散等,5010601047252,令和４年６月１日千葉県浦安市舞浜三丁目２８番６号ＮＳＫ株式会社（5010601047252）に合併し解散,2021-04-21,1,,,,,サンマルサン,0
2406,9010802012191,登記記録の閉鎖等,0,2022-06-21,2022-06-10,有限会社富士,,有限会社,東京都,大田区,大森西４丁目８番４号,,13,111,1430015,,,2022-06-10,清算の結了等,,,2015-10-05,1,,,,,フジ,0
2422,9011101048811,登記記録の閉鎖等,0,2022-06-21,2022-06-20,株式会社ＳＵＮ,,株式会社,東京都,新宿区,歌舞伎町２丁目３番２１号,,13,104,1600021,,,2022-06-20,清算の結了等,,,2015-10-05,1,,,,,サン,0
2471,9021001065930,登記記録の閉鎖等,0,2022-06-21,2022-06-16,３ｔｏ４株式会社,,株式会社,神奈川県,伊勢原市,桜台１丁目１５番２５号,,14,214,2591132,,,2022-06-16,清算の結了等,,,2018-11-02,1,,,,,スリートゥフォー,0
2484,9030001059818,登記記録の閉鎖等,0,2022-06-21,2022-06-02,株式会社山基,,株式会社,埼玉県,川越市,大字藤間５５２番地１,,11,201,3501142,,,2022-06-02,清算の結了等,,,2015-10-05,1,,,,,ヤマキ,0
2492,9040001012767,登記記録の閉鎖等,0,2022-06-21,2022-06-01,株式会社イーアールスポーツ,,株式会社,東京都,新宿区,山吹町３４６番地６,,13,104,1620801,,,2022-06-01,合併による解散等,1013301027734,令和４年６月１日東京都新宿区山吹町３４６番地６株式会社シン・コーポレーション（1013301027734）に合併し解散,2015-10-05,1,,,,,イーアールスポーツ,0
2493,9040001024168,登記記録の閉鎖等,0,2022-06-21,2022-06-13,ＴＢジャパン株式会社,,株式会社,千葉県,船橋市,市場１丁目８番１号,,12,204,2730001,,,2022-06-13,清算の結了等,,,2015-10-05,1,,,,,,0
2513,9060002022417,登記記録の閉鎖等,0,2022-06-21,2022-06-13,有限会社暖取庵,,有限会社,栃木県,那須塩原市,寺子字初内２０５６番地２,,09,213,3250011,,,2022-06-13,清算の結了等,,,2015-10-05,1,,,,,ダンドリアン,0
2577,9180001111745,登記記録の閉鎖等,0,2022-06-21,2022-06-16,株式会社こくど,,株式会社,愛知県,名古屋市東区,矢田南１丁目１番１６号,,23,102,4610048,,,2022-06-16,清算の結了等,,,2015-10-05,1,,,,,コクド,0
2585,9190005004424,登記記録の閉鎖等,0,2022-06-21,2022-06-10,特定非営利活動法人居宅介護支援カタヤマ,,その他の設立登記法人,三重県,鈴鹿市,寺家３丁目２８番１９号,,24,207,5100254,,,2022-06-10,清算の結了等,,,2015-10-05,1,,,,,キョタクカイゴシエンカタヤマ,0
2616,9290003008664,登記記録の閉鎖等,0,2022-06-21,2022-06-01,ＳＥＪ　ＸＩ合同会社,,合同会社,鹿児島県,鹿児島市,鴨池新町６番６号,,46,201,8900064,,,2022-06-01,合併による解散等,7340001015519,令和４年６月１日鹿児島市鴨池新町６番６号九州おひさま発電株式会社（7340001015519）に合併し解散,2019-01-18,1,,,,,エスイージェイイレブン,0
2652,9400002000734,登記記録の閉鎖等,0,2022-06-21,2022-06-20,有限会社オフィスハヤシザキ,,有限会社,岩手県,盛岡市,小鳥沢２丁目３番１８号,,03,201,0200104,,,2022-06-20,清算の結了等,,,2015-10-05,1,,,,,オフィスハヤシザキ,0
2672,9470001010728,登記記録の閉鎖等,0,2022-06-21,2022-06-16,株式会社シーテック,,株式会社,香川県,観音寺市,吉岡町８１３番地１,,37,205,7680021,,,2022-06-16,清算の結了等,,,2015-10-05,1,,,,,,0
