sequenceNumber,corporateNumber,process,correct,updateDate,changeDate,name,nameImageId,kind,prefectureName,cityName,streetNumber,addressImageId,prefectureCode,cityCode,postCode,addressOutside,addressOutsideImageId,closeDate,closeCause,successorCorporateNumber,changeCause,assignmentDate,latest,enName,enPrefectureName,enCityName,enAddressOutside,furigana,hihyoji
8,1010002006282,登記記録の閉鎖等,0,2022-07-21,2022-07-05,有限会社悠,,有限会社,東京都,文京区,白山５丁目１５番５号,,13,105,1120001,,,2022-07-05,清算の結了等,,,2015-10-05,1,,,,,ユウ,0
11,1010102011414,登記記録の閉鎖等,0,2022-07-21,2022-07-06,有限会社シエラ,,有限会社,東京都,八王子市,滝山町１丁目１１６番７号,,13,201,1920011,,,2022-07-06,清算の結了等,,,2015-10-05,1,,,,,,0
25,1010802003322,登記記録の閉鎖等,0,2022-07-21,2022-07-11,有限会社尾張屋洋品店,,有限会社,東京都,大田区,仲六郷２丁目２８番５号,,13,111,1440055,,,2022-07-11,清算の結了等,,,2015-10-05,1,,,,,オワリヤヨウヒンテン,0
32,1010902006217,登記記録の閉鎖等,0,2022-07-21,2022-07-14,有限会社さいか屋,,有限会社,東京都,世田谷区,祖師谷３丁目３３番９号,,13,112,1570072,,,2022-07-14,清算の結了等,,,2015-10-05,1,,,,,サイカヤ,0
48,1011103009174,登記記録の閉鎖等,0,2022-07-21,2022-07-15,ＯＮＥホスピタリティブリッジファンドＮ合同会社,,合同会社,東京都,新宿区,四谷２丁目９番地１５東京ユナイテッド綜合事務所内,,13,104,1600004,,,2022-07-15,清算の結了等,,,2019-10-18,1,,,,,ワンホスピタリティブリッジファンドエヌ,0
60,1011501026820,登記記録の閉鎖等,0,2022-07-21,2022-07-15,朋博株式会社,,株式会社,東京都,荒川区,南千住８丁目８－１－１５２３,,13,118,1160003,,,2022-07-15,清算の結了等,,,2021-04-07,1,,,,,トモヒロ,0
64,1011702015993,登記記録の閉鎖等,0,2022-07-21,2022-07-19,有限会社ＫＯＵＪＩＹＡ・ＬＩＮＫ,,有限会社,東京都,江戸川区,東葛西５丁目１７番１２号,,13,123,1340084,,,2022-07-19,清算の結了等,,,2015-10-05,1,,,,,コウジヤリンク,0
87,1030001013303,登記記録の閉鎖等,0,2022-07-21,2022-07-07,株式会社青木商会,,株式会社,埼玉県,さいたま市中央区,大戸６丁目３番１０号,,11,105,3380012,,,2022-07-07,清算の結了等,,,2015-10-05,1,,,,,アオキショウカイ,0
97,1030005000999,登記記録の閉鎖等,0,2022-07-21,2022-07-07,医療法人秀友会,,その他の設立登記法人,埼玉県,さいたま市中央区,上落合８丁目１番１２号,,11,105,3380001,,,2022-07-07,清算の結了等,,,2015-10-05,1,,,,,シュウユウカイ,0
119,1080003002398,登記記録の閉鎖等,0,2022-07-21,2022-07-19,秀貴合同会社,,合同会社,静岡県,静岡市駿河区,中田４丁目７番１２－６０７号,,22,102,4228041,,,2022-07-19,清算の結了等,,,2020-03-13,1,,,,,ヒデタカ,0
137,1120001243816,登記記録の閉鎖等,0,2022-07-21,2022-07-14,株式会社ＫＡＮＴＥＣ３,,株式会社,大阪府,大阪市北区,東天満１丁目１１番２号,,27,127,5300044,,,2022-07-14,清算の結了等,,,2022-02-15,1,,,,,カンテックスリー,0
142,1120002009943,登記記録の閉鎖等,0,2022-07-21,2022-07-15,有限会社東和メディカル,,有限会社,大阪府,大阪市生野区,新今里７丁目１０番１５号,,27,116,5440001,,,2022-07-15,清算の結了等,,,2015-10-05,1,,,,,トウワメディカル,0
164,1140002050714,登記記録の閉鎖等,0,2022-07-21,2022-07-12,有限会社プロトラスト,,有限会社,兵庫県,姫路市,神屋町３丁目３７番地４,,28,201,6700836,,,2022-07-12,合併による解散等,2140001058476,令和４年７月１２日兵庫県姫路市神屋町三丁目３７番地の４北野産業株式会社（2140001058476）に合併し解散,2015-10-05,1,,,,,プロトラスト,0
165,1140002051308,登記記録の閉鎖等,0,2022-07-21,2022-07-15,有限会社森メディカル,,有限会社,兵庫県,姫路市,五軒邸４丁目１０４－１アルファステイツ五軒邸７０１,,28,201,6700854,,,2022-07-15,清算の結了等,,,2015-10-05,1,,,,,モリメディカル,0
170,1160001014148,登記記録の閉鎖等,0,2022-07-21,2022-07-13,株式会社雅フーズ,,株式会社,滋賀県,草津市,青地町３２７番地の１,,25,206,5250041,,,2022-07-13,清算の結了等,,,2015-10-05,1,,,,,ミヤビフーズ,0
188,1180003009490,登記記録の閉鎖等,0,2022-07-21,2022-07-07,合資会社東和製作所,,合資会社,愛知県,愛知郡東郷町,大字諸輪字下市２２番地,,23,302,4700151,,,2022-07-07,清算の結了等,,,2015-10-05,1,,,,,トウワセイサクショ,0
194,1200005008109,登記記録の閉鎖等,0,2022-07-21,2022-07-20,特定非営利活動法人チームわかば,,その他の設立登記法人,岐阜県,関市,孫六町１３番地,,21,205,5013884,,,2022-07-20,清算の結了等,,,2015-10-05,1,,,,,チームワカバ,0
206,1240001011616,登記記録の閉鎖等,0,2022-07-21,2022-07-13,みわ薬品株式会社,,株式会社,広島県,広島市中区,十日市町２丁目１０番２３号,,34,101,7300805,,,2022-07-13,清算の結了等,,,2015-10-05,1,,,,,ミワヤクヒン,0
212,1240005005597,登記記録の閉鎖等,0,2022-07-21,2022-07-13,海雲寺,,その他の設立登記法人,広島県,庄原市,口和町宮内２１番地,,34,210,7280501,,,2022-07-13,清算の結了等,,,2015-10-05,1,,,,,カイウンジ,0
215,1250005006677,登記記録の閉鎖等,0,2022-07-21,2022-07-07,特定非営利活動法人あさひ苑,,その他の設立登記法人,山口県,岩国市,旭町３丁目４番１５号,,35,208,7400024,,,2022-07-07,清算の結了等,,,2015-10-05,1,,,,,アサヒエン,0
233,1290002027714,登記記録の閉鎖等,0,2022-07-21,2022-07-20,有限会社メディア・イン・ワン,,有限会社,福岡県,福岡市西区,大字下山門１７１０番地３１,,40,135,8190052,,,2022-07-20,清算の結了等,,,2015-10-05,1,,,,,,0
238,1310001009041,登記記録の閉鎖等,0,2022-07-21,2022-07-20,株式会社ケイエムエス,,株式会社,長崎県,雲仙市,小浜町北本町２７番地,,42,213,8540514,,,2022-07-20,清算の結了等,,,2015-10-05,1,,,,,ケイエムエス,0
239,1310002002912,登記記録の閉鎖等,0,2022-07-21,2022-07-20,有限会社大洲,,有限会社,長崎県,長崎市,東立神町２０番８号,,42,201,8500073,,,2022-07-20,清算の結了等,,,2015-10-05,1,,,,,タイシュウ,0
242,1320202000459,登記記録の閉鎖等,0,2022-07-21,2022-07-15,有限会社源屋ビル,,有限会社,大分県,臼杵市,大字臼杵５１９番地,,44,206,8750041,,,2022-07-15,清算の結了等,,,2015-10-05,1,,,,,ミナモトヤビル,0
244,1330001010014,登記記録の閉鎖等,0,2022-07-21,2022-07-01,株式会社サンプレ,,株式会社,熊本県,阿蘇郡西原村,大字鳥子３５８番地１２,,43,432,8612401,,,2022-07-01,合併による解散等,5330001009481,令和４年７月１日熊本県阿蘇郡西原村大字鳥子３５８番地５ネクサスプレシジョン株式会社（5330001009481）に合併し解散,2015-10-05,1,,,,,サンプレ,0
271,1440002000416,登記記録の閉鎖等,0,2022-07-21,2022-07-13,有限会社岩崎造材,,有限会社,北海道,松前郡松前町,字福山１２番地,,01,331,0491512,,,2022-07-13,清算の結了等,,,2022-01-27,1,,,,,イワサキゾウザイ,0
277,1470002003234,登記記録の閉鎖等,0,2022-07-21,2022-07-19,有限会社ザ・まさお,,有限会社,香川県,高松市,円座町５２０番地１,,37,201,7618044,,,2022-07-19,清算の結了等,,,2015-10-05,1,,,,,ザマサオ,0
290,2010002036106,登記記録の閉鎖等,0,2022-07-21,2022-07-08,有限会社みんなの編集室,,有限会社,東京都,町田市,木曽東４丁目７番１０２２号,,13,209,1940036,,,2022-07-08,清算の結了等,,,2015-10-05,1,,,,,ミンナノヘンシュウシツ,0
291,2010005024636,登記記録の閉鎖等,0,2022-07-21,2022-07-11,ナカノ開発プロジェクト特定目的会社,,その他の設立登記法人,東京都,千代田区,神田神保町１丁目１１番地さくら綜合事務所内,,13,101,1010051,,,2022-07-11,清算の結了等,,,2015-11-19,1,,,,,ナカノカイハツプロジェクト,0
299,2010401150060,登記記録の閉鎖等,0,2022-07-21,2022-07-04,株式会社イレブンゼロ,,株式会社,東京都,港区,南青山２丁目２番１５号ＷｉｎＡｏｙａｍａビルＵＣＦ６階,,13,103,1070062,,,2022-07-04,清算の結了等,,,2020-01-06,1,,,,,イレブンゼロ,0
301,2010505000582,登記記録の閉鎖等,0,2022-07-21,2022-06-30,医療法人社団優瞳会,,その他の設立登記法人,東京都,目黒区,大橋２丁目２２番４２号Ｎｏ．Ｒ池尻大橋３階,,13,110,1530044,,,2022-06-30,清算の結了等,,,2015-10-05,1,,,,,ユウドウカイ,0
307,2010701020038,登記記録の閉鎖等,0,2022-07-21,2022-07-11,株式会社コウリン,,株式会社,東京都,中野区,沼袋３丁目２３番２３号,,13,114,1650025,,,2022-07-11,清算の結了等,,,2015-10-05,1,,,,,コウリン,0
317,2010801032494,登記記録の閉鎖等,0,2022-07-21,2022-07-01,株式会社渡谷組,,株式会社,東京都,大田区,大森中３丁目１番１２号,,13,111,1430014,,,2022-07-01,清算の結了等,,,2021-12-06,1,,,,,ワタヤグミ,0
323,2010903006231,登記記録の閉鎖等,0,2022-07-21,2022-07-14,ＳＹ＆Ｔ合同会社,,合同会社,東京都,世田谷区,中町２丁目５番１０号,,13,112,1580091,,,2022-07-14,清算の結了等,,,2021-01-25,1,,,,,エスワイアンドティー,0
358,2020001087438,登記記録の閉鎖等,0,2022-07-21,2022-07-01,株式会社プライムアセット,,株式会社,東京都,港区,芝４丁目１３番２号田町フロントビル９Ｆ,,13,103,1080014,,,2022-07-01,合併による解散等,8020001041975,令和４年７月１日東京都港区芝四丁目１３番２号田町フロントビル９Ｆ株式会社ジャパンプライムムーバ（8020001041975）に合併し解散,2015-10-05,1,,,,,プライムアセット,0
368,2030001054247,登記記録の閉鎖等,0,2022-07-21,2022-07-08,朝日ヘリコプター株式会社,,株式会社,埼玉県,川越市,大字平塚字中割６６２－１,,11,201,3500814,,,2022-07-08,合併による解散等,7010601041419,令和４年７月１日東京都江東区新木場四丁目７番４１号朝日航洋株式会社（7010601041419）に合併し解散,2015-10-05,1,,,,,アサヒヘリコプター,0
378,2040001072958,登記記録の閉鎖等,0,2022-07-21,2022-07-06,株式会社ピラミッドワークス,,株式会社,千葉県,千葉市若葉区,都賀４丁目４番５号,,12,104,2640025,,,2022-07-06,合併による解散等,6040001072954,令和４年６月３０日千葉市若葉区若松町９８３番の１株式会社第一元商（6040001072954）に合併し解散,2015-10-05,1,,,,,ピラミッドワークス,0
383,2040002047711,登記記録の閉鎖等,0,2022-07-21,2022-07-08,有限会社南図,,有限会社,千葉県,松戸市,松戸２２０１番地,,12,207,2710092,,,2022-07-08,清算の結了等,,,2015-10-05,1,,,,,ナント,0
386,2050002000974,登記記録の閉鎖等,0,2022-07-21,2022-07-08,有限会社きものの形富,,有限会社,茨城県,水戸市,紺屋町１３８５番地,,08,201,3100816,,,2022-07-08,清算の結了等,,,2015-10-05,1,,,,,キモノノカタトミ,0
391,2060001005065,登記記録の閉鎖等,0,2022-07-21,2022-07-11,株式会社プロスジャパン,,株式会社,栃木県,宇都宮市,緑３丁目３４番２３号ナイスステージ宇都宮３－１２１９号,,09,201,3210165,,,2022-07-11,清算の結了等,,,2015-10-05,1,,,,,プロスジャパン,0
400,2080102012545,登記記録の閉鎖等,0,2022-07-21,2022-07-19,有限会社夢工房,,有限会社,静岡県,田方郡函南町,上沢９５６番地の１,,22,325,4190122,,,2022-07-19,清算の結了等,,,2015-10-05,1,,,,,ユメコウボウ,0
406,2110001001703,登記記録の閉鎖等,0,2022-07-21,2022-07-13,株式会社キャドシステムアイピーイー,,株式会社,新潟県,新潟市中央区,天神尾２丁目１番２０号,,15,103,9500905,,,2022-07-13,清算の結了等,,,2015-10-05,1,,,,,キャドシステムアイピーイー,0
412,2110005006921,登記記録の閉鎖等,0,2022-07-21,2022-06-27,西福寺,,その他の設立登記法人,新潟県,刈羽郡刈羽村,大字上高町甲２６９番地,,15,504,9450315,,,2022-06-27,合併による解散等,3110005007084,令和４年６月２７日新潟県刈羽郡刈羽村大字寺尾２３３番地善照寺（3110005007084）に合併し解散,2015-10-05,1,,,,,,0
419,2120001243815,登記記録の閉鎖等,0,2022-07-21,2022-07-14,株式会社ＫＡＮ３,,株式会社,大阪府,大阪市北区,東天満１丁目１１番２号,,27,127,5300044,,,2022-07-14,清算の結了等,,,2022-02-15,1,,,,,カンスリー,0
474,2220005007289,登記記録の閉鎖等,0,2022-07-21,2022-07-13,特定非営利活動法人日中友好交流振興協会,,その他の設立登記法人,石川県,金沢市,横川４丁目１１７番地１,,17,201,9218163,,,2022-07-13,清算の結了等,,,2015-10-05,1,,,,,ニッチュウユウコウコウリュウシンコウキョウカイ,0
503,2380005010970,登記記録の閉鎖等,0,2022-07-21,2022-07-08,一般社団法人あぶくま復興基金,,その他の設立登記法人,福島県,南相馬市,原町区栄町２丁目４番地,,07,212,9750003,,,2022-07-08,清算の結了等,,,2015-10-05,1,,,,,アブクマフッコウキキン,0
507,2430001022881,登記記録の閉鎖等,0,2022-07-21,2022-07-05,株式会社丸幸,,株式会社,北海道,苫小牧市,表町５丁目２番１７号,,01,213,0530022,,,2022-07-05,清算の結了等,,,2015-10-05,1,,,,,マルコウ,0
524,3010001025018,登記記録の閉鎖等,0,2022-07-21,2022-07-07,中田屋株式会社,,株式会社,東京都,千代田区,大手町１丁目７番２号東京サンケイビル１５階,,13,101,1000004,,,2022-07-07,合併による解散等,4010601013131,令和４年７月１日東京都墨田区緑一丁目４番１９号リバー株式会社（4010601013131）に合併し解散,2015-10-05,1,,,,,ナカダヤ,0
547,3010605000457,登記記録の閉鎖等,0,2022-07-21,2022-07-05,天理教本所分教会,00051816,その他の設立登記法人,東京都,墨田区,押上２丁目２３番１７号,,13,107,1310045,,,2022-07-05,合併による解散等,7010505000421,令和４年６月２８日東京都台東区東上野五丁目３番１４号天理教東大教会（7010505000421）に合併し解散,2015-10-05,1,,,,,テンリキョウホンジョブンキョウカイ,0
549,3010702013452,登記記録の閉鎖等,0,2022-07-21,2022-07-12,有限会社ＹＫＣ,,有限会社,東京都,品川区,東品川１丁目１４番５号,,13,109,1400002,,,2022-07-12,清算の結了等,,,2015-10-05,1,,,,,ワイケーシー,0
565,3011103009206,登記記録の閉鎖等,0,2022-07-21,2022-07-15,札幌ホテル不動産販売合同会社,,合同会社,東京都,新宿区,四谷２丁目９番地１５東京ユナイテッド綜合事務所内,,13,104,1600004,,,2022-07-15,清算の結了等,,,2019-10-28,1,,,,,サッポロホテルフドウサンハンバイ,0
573,3011303003883,登記記録の閉鎖等,0,2022-07-21,2022-07-13,合同会社Ｍｉｒａｉｚ　Ｃｒｅａｔｅ,,合同会社,東京都,杉並区,久我山４丁目４１番２９号,,13,115,1680082,,,2022-07-13,清算の結了等,,,2021-01-14,1,,,,,ミライズクリエイト,0
578,3011605001981,登記記録の閉鎖等,0,2022-07-21,2022-07-19,特定非営利活動法人千代の会,,その他の設立登記法人,東京都,練馬区,下石神井３丁目１０番１４号２Ｆ,,13,120,1770042,,,2022-07-19,清算の結了等,,,2015-10-05,1,,,,,チヨノカイ,0
582,3012302005061,登記記録の閉鎖等,0,2022-07-21,2022-07-11,有限会社ヨセミテ,,有限会社,東京都,町田市,南成瀬７丁目１番地２,,13,209,1940045,,,2022-07-11,清算の結了等,,,2015-10-05,1,,,,,ヨセミテ,0
589,3013303003806,登記記録の閉鎖等,0,2022-07-21,2022-07-13,ＳＯＬＡＲ　ＥＮＥＲＧＹ大崎合同会社,,合同会社,石川県,金沢市,御影町１０番７号,,17,201,9218021,,,2022-07-13,清算の結了等,,,2017-08-10,1,,,,,ソーラーエナジーオオサキ,0
615,3040002098217,登記記録の閉鎖等,0,2022-07-21,2022-07-07,有限会社八千代抜型,,有限会社,千葉県,野田市,木間ケ瀬３８１５番地１３,,12,208,2700222,,,2022-07-07,清算の結了等,,,2015-10-05,1,,,,,ヤチヨヌキガタ,0
618,3050001023496,登記記録の閉鎖等,0,2022-07-21,2022-07-06,株式会社日立ビル,,株式会社,茨城県,日立市,平和町１丁目１８番２号,,08,202,3170062,,,2022-07-06,清算の結了等,,,2015-10-05,1,,,,,ヒタチビル,0
620,3060001007606,登記記録の閉鎖等,0,2022-07-21,2022-07-08,サンライン株式会社,,株式会社,栃木県,宇都宮市,下小倉町４４６５番地５,,09,201,3210403,,,2022-07-08,清算の結了等,,,2015-10-05,1,,,,,,0
625,3080102004624,登記記録の閉鎖等,0,2022-07-21,2022-07-19,有限会社藤企画,,有限会社,静岡県,沼津市,我入道江川２２番地の１,,22,203,4100823,,,2022-07-19,清算の結了等,,,2015-10-05,1,,,,,フジキカク,0
627,3090002002479,登記記録の閉鎖等,0,2022-07-21,2022-07-08,有限会社原田機械設備,,有限会社,山梨県,甲府市,湯村１丁目１０番１３号,,19,201,4000073,,,2022-07-08,清算の結了等,,,2015-10-05,1,,,,,ハラダキカイセツビ,0
630,3100002028679,登記記録の閉鎖等,0,2022-07-21,2022-07-11,有限会社内藤工機,,有限会社,長野県,諏訪郡下諏訪町,２４５７番地１１,,20,361,3930000,,,2022-07-11,清算の結了等,,,2015-10-05,1,,,,,ナイトウコウキ,0
631,3100002032425,登記記録の閉鎖等,0,2022-07-21,2022-07-11,有限会社アルテックス,,有限会社,長野県,伊那市,西箕輪３３１４番地５,,20,209,3994501,,,2022-07-11,清算の結了等,,,2015-10-05,1,,,,,アルテックス,0
656,3140001067906,登記記録の閉鎖等,0,2022-07-21,2022-07-08,株式会社アルカディア,,株式会社,兵庫県,西宮市,甲子園口２丁目９番２７号,,28,204,6638113,,,2022-07-08,清算の結了等,,,2015-10-05,1,,,,,アルカディア,0
663,3160003000854,登記記録の閉鎖等,0,2022-07-21,2022-07-14,合同会社ファミリー,,合同会社,滋賀県,東近江市,五個荘竜田町３５７－２,,25,213,5291421,,,2022-07-14,清算の結了等,,,2015-10-05,1,,,,,ファミリー,0
690,3240001017933,登記記録の閉鎖等,0,2022-07-21,2022-07-13,株式会社広島不動産コンサルティング,,株式会社,広島県,広島市中区,橋本町４番５号,,34,101,7300015,,,2022-07-13,清算の結了等,,,2015-10-05,1,,,,,ヒロシマフドウサンコンサルティング,0
693,3240002022387,登記記録の閉鎖等,0,2022-07-21,2022-07-15,有限会社ピーアンドシー,,有限会社,広島県,広島市西区,西観音町２３番１８号,,34,104,7330037,,,2022-07-15,清算の結了等,,,2015-10-05,1,,,,,ピーアンドシー,0
697,3270001002528,登記記録の閉鎖等,0,2022-07-21,2022-06-22,株式会社ＹＤ,,株式会社,鳥取県,鳥取市,湖山町東４丁目９３番地,,31,201,6800942,,,2022-06-22,合併による解散等,7270002002102,令和４年６月２２日鳥取市面影二丁目１２番１５号株式会社鳥取大成（7270002002102）に合併し解散,2015-10-05,1,,,,,ワイディー,0
699,3280003001221,登記記録の閉鎖等,0,2022-07-21,2022-07-19,合同会社アットハンド,,合同会社,島根県,浜田市,長沢町７６０番地３６,,32,202,6970023,,,2022-07-19,清算の結了等,,,2018-05-01,1,,,,,アットハンド,0
700,3290001009653,登記記録の閉鎖等,0,2022-07-21,2022-07-08,株式会社豆腐の盛田屋,,株式会社,福岡県,福岡市博多区,博多駅南２丁目４番１１号,,40,132,8120016,,,2022-07-08,合併による解散等,8290001019029,令和４年７月１日福岡市博多区冷泉町２番１号株式会社ＪＩＭＯＳ（8290001019029）に合併し解散,2015-10-05,1,,,,,トウフノモリタヤ,0
748,3480005002701,登記記録の閉鎖等,0,2022-07-21,2022-07-21,特定非営利活動法人中・四国再チャレンジ推進機構,,その他の設立登記法人,徳島県,徳島市,新町橋２丁目２１番地,,36,201,7700904,,,2022-07-21,清算の結了等,,,2015-10-05,1,,,,,チュウシコクサイチャレンジスイシンキコウ,0
771,4010401116448,登記記録の閉鎖等,0,2022-07-21,2022-07-01,マーズインベストメント株式会社,,株式会社,東京都,港区,六本木６丁目１２番２－２３０６号,,13,103,1060032,,,2022-07-01,合併による解散等,1010401113051,令和４年７月１日東京都港区六本木六丁目１２番２－２３０６号マーキュリーインベストメント株式会社（1010401113051）に合併し解散,2015-10-05,1,,,,,マーズインベストメント,0
777,4010405008303,登記記録の閉鎖等,0,2022-07-21,2022-06-30,税理士法人スピアヘッド・アドバイザーズ,,その他の設立登記法人,東京都,港区,虎ノ門５丁目１１番２号,,13,103,1050001,,,2022-06-30,清算の結了等,,,2015-10-05,1,,,,,スピアヘッドアドバイザーズ,0
819,4012401016677,登記記録の閉鎖等,0,2022-07-21,2022-07-15,株式会社マイヤ保険事務所,,株式会社,東京都,三鷹市,井の頭２丁目２番４号クリーンハイム１０３号,,13,204,1810001,,,2022-07-15,清算の結了等,,,2015-10-05,1,,,,,マイヤホケンジムショ,0
824,4020001034801,登記記録の閉鎖等,0,2022-07-21,2022-07-11,株式会社食品工房,,株式会社,東京都,町田市,成瀬７丁目７番１号,,13,209,1940044,,,2022-07-11,清算の結了等,,,2015-10-05,1,,,,,ショクヒンコウボウ,0
834,4021002014123,登記記録の閉鎖等,0,2022-07-21,2022-07-14,有限会社エヌ・ワイ・エス,,有限会社,神奈川県,鎌倉市,台５丁目２番１０号,,14,204,2470061,,,2022-07-14,清算の結了等,,,2015-10-05,1,,,,,エヌワイエス,0
857,4080403003233,登記記録の閉鎖等,0,2022-07-21,2022-07-14,合同会社Ｅ．Ｇｒｏｗｔｈ,,合同会社,静岡県,浜松市東区,大蒲町８４番地の２０、１Ｆ南側一部,,22,132,4350014,,,2022-07-14,清算の結了等,,,2016-02-10,1,,,,,イーグロース,0
861,4100005001450,登記記録の閉鎖等,0,2022-07-21,2022-07-11,信濃郷土食事業協同組合,,その他の設立登記法人,長野県,長野市,吉田４丁目１６番２２号,,20,201,3810043,,,2022-07-11,清算の結了等,,,2015-10-05,1,,,,,シナノキョウドショク,0
862,4110001005438,登記記録の閉鎖等,0,2022-07-21,2022-07-14,ＡＯＫＩプランニング株式会社,,株式会社,新潟県,新潟市中央区,笹口１丁目２６番地１４ダイアパレス笹口けやき通り１６０４号,,15,103,9500911,,,2022-07-14,清算の結了等,,,2015-10-05,1,,,,,アオキプランニング,0
863,4110001008390,登記記録の閉鎖等,0,2022-07-21,2022-07-13,株式会社早川機電,,株式会社,新潟県,新潟市南区,大通２丁目９番３号,,15,106,9501201,,,2022-07-13,清算の結了等,,,2015-10-05,1,,,,,ハヤカワキデン,0
872,4120005013246,登記記録の閉鎖等,0,2022-07-21,2022-07-19,ＮＰＯ法人まどり,,その他の設立登記法人,大阪府,交野市,藤が尾４丁目１４番８号,,27,230,5760022,,,2022-07-19,清算の結了等,,,2015-10-05,1,,,,,マドリ,0
877,4120102001203,登記記録の閉鎖等,0,2022-07-21,2022-07-15,有限会社関西機設,,有限会社,大阪府,堺市西区,浜寺元町１丁６２番地１１,,27,144,5928343,,,2022-07-15,清算の結了等,,,2015-10-05,1,,,,,カンサイキセツ,0
900,4140002038979,登記記録の閉鎖等,0,2022-07-21,2022-07-11,日興有限会社,,有限会社,兵庫県,加古川市,平荘町磐東谷１２２２番地１１,,28,210,6751226,,,2022-07-11,清算の結了等,,,2015-10-05,1,,,,,ニッコウ,0
901,4140002040984,登記記録の閉鎖等,0,2022-07-21,2022-07-08,有限会社三芯製作所,,有限会社,兵庫県,尼崎市,立花町２丁目１３番１０号,,28,202,6610025,,,2022-07-08,清算の結了等,,,2015-10-05,1,,,,,サンシンセイサクショ,0
907,4180001010217,登記記録の閉鎖等,0,2022-07-21,2022-07-15,斎藤産業株式会社,,株式会社,愛知県,名古屋市瑞穂区,亀城町６丁目２２番地,,23,108,4670876,,,2022-07-15,清算の結了等,,,2015-10-05,1,,,,,サイトウサンギョウ,0
925,4190002012392,登記記録の閉鎖等,0,2022-07-21,2022-07-07,有限会社明光電気通信工業,,有限会社,三重県,伊賀市,上野丸之内６番地の１０,,24,216,5180873,,,2022-07-07,清算の結了等,,,2015-10-05,1,,,,,メイコウデンキツウシンコウギョウ,0
930,4200002002367,登記記録の閉鎖等,0,2022-07-21,2022-07-20,有限会社出版情報技術サービス,,有限会社,岐阜県,岐阜市,弥生町４番地,,21,201,5008831,,,2022-07-20,清算の結了等,,,2015-10-05,1,,,,,シュッパンジョウホウギジュツサービス,0
936,4240001039448,登記記録の閉鎖等,0,2022-07-21,2022-07-14,株式会社コンサルファーム・第一工房,,株式会社,広島県,尾道市,因島三庄町２０５９番地１,,34,205,7222322,,,2022-07-14,清算の結了等,,,2015-10-05,1,,,,,コンサルファームダイイチコウボウ,0
945,4260005006153,登記記録の閉鎖等,0,2022-07-21,2022-07-19,新見小売酒販組合,,その他の設立登記法人,岡山県,新見市,新見４６５番地１,,33,210,7180011,,,2022-07-19,清算の結了等,,,2015-10-05,1,,,,,ニイミコウリ,0
957,4330002013797,登記記録の閉鎖等,0,2022-07-21,2022-07-06,有限会社グレラ,,有限会社,熊本県,熊本市中央区,渡鹿６丁目１番６３号,,43,101,8620970,,,2022-07-06,清算の結了等,,,2015-10-05,1,,,,,グレラ,0
974,4470002012736,登記記録の閉鎖等,0,2022-07-21,2022-07-19,有限会社ミタニ・ハウジングサービス,,有限会社,香川県,仲多度郡多度津町,北鴨３丁目５番４２－１５号,,37,404,7640022,,,2022-07-19,清算の結了等,,,2015-10-05,1,,,,,ミタニハウジングサービス,0
988,5010001126508,登記記録の閉鎖等,0,2022-07-21,2022-07-06,株式会社イーアイティー,,株式会社,東京都,中央区,日本橋茅場町２丁目１３番１３号,,13,102,1030025,,,2022-07-06,合併による解散等,2290001015735,令和４年７月１日福岡市南区清水四丁目２２番１６号株式会社クレイトソリューションズ（2290001015735）に合併し解散,2015-10-05,1,,,,,イーアイティー,0
1020,5010701001968,登記記録の閉鎖等,0,2022-07-21,2022-07-13,株式会社岡村文化工芸社,,株式会社,東京都,品川区,中延３丁目１０番１０号,,13,109,1420053,,,2022-07-13,清算の結了等,,,2015-10-05,1,,,,,オカムラブンカコウゲイシャ,0
1054,5012302000300,登記記録の閉鎖等,0,2022-07-21,2022-07-11,有限会社旭工芸,,有限会社,東京都,町田市,本町田１８３５番地３１,,13,209,1940032,,,2022-07-11,清算の結了等,,,2015-10-05,1,,,,,アサヒコウゲイ,0
1091,5030005020151,登記記録の閉鎖等,0,2022-07-21,2022-07-07,一般社団法人全国中小事業協会,,その他の設立登記法人,埼玉県,鴻巣市,宮前６２３番地の８,,11,217,3650051,,,2022-07-07,清算の結了等,,,2020-11-09,1,,,,,ゼンコクチュウショウジギョウキョウカイ,0
1098,5050001000452,登記記録の閉鎖等,0,2022-07-21,2022-07-06,入江商亊株式会社,,株式会社,茨城県,水戸市,大工町２丁目３番２３号,,08,201,3100031,,,2022-07-06,清算の結了等,,,2015-10-05,1,,,,,イリエショウジ,0
1100,5050002020887,登記記録の閉鎖等,0,2022-07-21,2022-07-13,有限会社ウエマツ・インフォメーションサービス,,有限会社,大分県,日田市,港町３番１６号グラン・ブルーアサカワ２０２号,,44,204,8770006,,,2022-07-13,清算の結了等,,,2015-10-05,1,,,,,ウエマツインフォメーションサービス,0
1105,5060002018047,登記記録の閉鎖等,0,2022-07-21,2022-07-08,有限会社オーエスピー,,有限会社,栃木県,芳賀郡益子町,大字七井２５０番地,,09,342,3214106,,,2022-07-08,清算の結了等,,,2015-10-05,1,,,,,,0
1111,5080102016849,登記記録の閉鎖等,0,2022-07-21,2022-07-19,有限会社鈴木ネームプレート製作所,,有限会社,静岡県,富士宮市,小泉５１９番地の１５,,22,207,4180022,,,2022-07-19,清算の結了等,,,2015-10-05,1,,,,,,0
1118,5100001031780,登記記録の閉鎖等,0,2022-07-21,2022-07-11,株式会社にんにくマニア,,株式会社,長野県,茅野市,仲町１２番７号,,20,214,3910005,,,2022-07-11,清算の結了等,,,2018-11-30,1,,,,,ニンニクマニア,0
1155,5130005009779,登記記録の閉鎖等,0,2022-07-21,2022-06-27,天理教旭之宮分教会,,その他の設立登記法人,京都府,与謝郡伊根町,字日出３９６番地２,,26,463,6260425,,,2022-06-27,合併による解散等,4130005009598,令和４年６月２７日京都府宮津市字京口４３番地天理教日北分教会（4130005009598）に合併し解散,2015-10-05,1,,,,,テンリキョウキョクノミヤブンキョウカイ,0
1166,5150003000556,登記記録の閉鎖等,0,2022-07-21,2022-07-14,合資会社中部,,合資会社,奈良県,吉野郡東吉野村,大字木津川２８８番地,,29,453,6332432,,,2022-07-14,清算の結了等,,,2015-10-05,1,,,,,ナカベ,0
1182,5180001117548,登記記録の閉鎖等,0,2022-07-21,2022-07-14,インドライブ株式会社,,株式会社,愛知県,名古屋市中区,錦１丁目１７－１３名興ビル３階（ＣＬＡＳＳＩＣ）,,23,106,4600003,,,2022-07-14,清算の結了等,,,2015-10-05,1,,,,,インドライブ,0
1183,5180001140582,登記記録の閉鎖等,0,2022-07-21,2022-07-13,ＮＡＩＬ　ＥＮＰＬＡＮＡ株式会社,,株式会社,愛知県,名古屋市西区,浮野町６５番地の１,,23,104,4520846,,,2022-07-13,清算の結了等,,,2020-03-26,1,,,,,ネイルエンプラーナー,0
1193,5180003021905,登記記録の閉鎖等,0,2022-07-21,2022-07-13,合同会社ぬくもり,,合同会社,愛知県,名古屋市中村区,塩池町２丁目１４番５号,,23,105,4530032,,,2022-07-13,清算の結了等,,,2020-12-07,1,,,,,ヌクモリ,0
1195,5180005004809,登記記録の閉鎖等,0,2022-07-21,2022-07-13,一般財団法人健康文化振興財団,,その他の設立登記法人,愛知県,名古屋市名東区,植園町３丁目４２番地,,23,115,4650077,,,2022-07-13,清算の結了等,,,2015-10-05,1,,,,,ケンコウブンカシンコウザイダン,0
1218,5240002023961,登記記録の閉鎖等,0,2022-07-21,2022-07-14,有限会社村雲経理センター,,有限会社,広島県,広島市安佐北区,亀山南４丁目８番１５号,,34,106,7310232,,,2022-07-14,清算の結了等,,,2015-10-05,1,,,,,ムラクモケイリセンター,0
1240,5330002005777,登記記録の閉鎖等,0,2022-07-21,2022-07-06,有限会社清茶園,,有限会社,熊本県,熊本市東区,尾ノ上３丁目６番７号,,43,102,8620913,,,2022-07-06,清算の結了等,,,2015-10-05,1,,,,,セイチャエン,0
1253,5380002024657,登記記録の閉鎖等,0,2022-07-21,2022-07-11,有限会社タカキ理・美容院,,有限会社,福島県,いわき市,小川町高萩字下川原１５番地の４,,07,204,9793122,,,2022-07-11,清算の結了等,,,2015-10-05,1,,,,,タカキリビヨウイン,0
1261,5430002050912,登記記録の閉鎖等,0,2022-07-21,2022-07-11,生駒タイヤ有限会社,,有限会社,北海道,夕張郡栗山町,字共和２番地,,01,429,0691523,,,2022-07-11,清算の結了等,,,2015-10-05,1,,,,,イコマタイヤ,0
1287,6010401146600,登記記録の閉鎖等,0,2022-07-21,2022-06-30,ＩＵアセットマネジメント株式会社,,株式会社,東京都,港区,麻布十番２丁目１番８号,,13,103,1060045,,,2022-06-30,合併による解散等,3010403018833,令和４年６月３０日東京都港区麻布十番二丁目１番８インテリジェンスユニット合同会社（3010403018833）に合併し解散,2019-07-05,1,,,,,アイユーアセットマネジメント,0
1293,6010405016857,登記記録の閉鎖等,0,2022-07-21,2022-06-30,特定目的会社Ｒ７,,その他の設立登記法人,東京都,港区,元赤坂１丁目１番７号,,13,103,1070051,,,2022-06-30,清算の結了等,,,2018-07-06,1,,,,,アールセブン,0
1314,6011101078258,登記記録の閉鎖等,0,2022-07-21,2022-07-13,株式会社マーベラスデザイン,,株式会社,東京都,新宿区,東榎町１２番地坂本ビル４０３,,13,104,1620807,,,2022-07-13,清算の結了等,,,2016-09-23,1,,,,,マーベラスデザイン,0
1320,6011501001777,登記記録の閉鎖等,0,2022-07-21,2022-07-14,株式会社相模屋商店,,株式会社,東京都,北区,西ケ原３丁目１番１０号,,13,117,1140024,,,2022-07-14,清算の結了等,,,2015-10-05,1,,,,,サガミヤショウテン,0
1330,6013101007634,登記記録の閉鎖等,0,2022-07-21,2022-07-19,株式会社ラプト,,株式会社,東京都,あきる野市,野辺３９８番地,,13,228,1970823,,,2022-07-19,清算の結了等,,,2017-06-05,1,,,,,ラプト,0
1336,6013301047554,登記記録の閉鎖等,0,2022-07-21,2022-07-11,株式会社Ｈｅａｒｔｙ,,株式会社,東京都,豊島区,目白２丁目２８番１０号メジロス１０４号,,13,116,1710031,,,2022-07-11,清算の結了等,,,2021-06-07,1,,,,,ハーティー,0
1339,6020001101401,登記記録の閉鎖等,0,2022-07-21,2022-07-01,日本船舶通信株式会社,,株式会社,神奈川県,横浜市中区,扇町１丁目１番１６－１２０２号,,14,104,2310027,,,2022-07-01,合併による解散等,3010401051563,令和４年６月１日東京都港区西新橋一丁目２２番５号新橋ＴＳビル株式会社ＮＭＤグループ（3010401051563）に合併し解散,2015-10-05,1,,,,,ニホンセンパクツウシン,0
1355,6021003010425,登記記録の閉鎖等,0,2022-07-21,2022-07-12,ＳＯＮＡ　ＪＡＰＡＮ合同会社,,合同会社,神奈川県,藤沢市,鵠沼桜が岡３丁目９番１０号,,14,205,2510027,,,2022-07-12,清算の結了等,,,2021-04-28,1,,,,,ソナジャパン,0
1362,6030002013256,登記記録の閉鎖等,0,2022-07-21,2022-07-07,株式会社ミツワ,,株式会社,埼玉県,さいたま市大宮区,桜木町２丁目５番地１３,,11,103,3300854,,,2022-07-07,清算の結了等,,,2015-10-05,1,,,,,ミツワ,0
1364,6030003014212,登記記録の閉鎖等,0,2022-07-21,2022-07-19,合同会社だんらん,,合同会社,東京都,三鷹市,井口３丁目７番４１号,,13,204,1810011,,,2022-07-19,清算の結了等,,,2019-10-09,1,,,,,ダンラン,0
1381,6070002002461,登記記録の閉鎖等,0,2022-07-21,2022-07-06,機電工業有限会社,,有限会社,群馬県,前橋市,総社町総社２６５９番地３,,10,201,3710852,,,2022-07-06,清算の結了等,,,2015-10-05,1,,,,,キデンコウギョウ,0
1382,6070002009457,登記記録の閉鎖等,0,2022-07-21,2022-07-06,有限会社錦紫,,有限会社,群馬県,高崎市,飯塚町６１４番地,,10,202,3700069,,,2022-07-06,清算の結了等,,,2015-10-05,1,,,,,キンシ,0
1390,6100002029220,登記記録の閉鎖等,0,2022-07-21,2022-07-11,有限会社ドミソ環境,,有限会社,長野県,諏訪郡下諏訪町,２２８６番地１,,20,361,3930000,,,2022-07-11,清算の結了等,,,2015-10-05,1,,,,,ドミソカンキョウ,0
1392,6110003003388,登記記録の閉鎖等,0,2022-07-21,2022-06-27,合同会社仲仙米店,,合同会社,新潟県,南魚沼市,宮野下９１０番地,,15,226,9496365,,,2022-06-27,清算の結了等,,,2016-11-07,1,,,,,ナカセンコメテン,0
1410,6120101055140,登記記録の閉鎖等,0,2022-07-21,2022-07-15,株式会社エルテック,,株式会社,大阪府,松原市,丹南３丁目１１番３号,,27,217,5800013,,,2022-07-15,清算の結了等,,,2016-07-29,1,,,,,エルテック,0
1417,6130001014419,登記記録の閉鎖等,0,2022-07-21,2022-07-04,株式会社光明舎,,株式会社,京都府,京都市伏見区,深草大亀谷万帖敷町４４８番地,,26,109,6120846,,,2022-07-04,清算の結了等,,,2015-10-05,1,,,,,コウミョウシャ,0
1425,6140001035273,登記記録の閉鎖等,0,2022-07-21,2022-07-14,西垣木炭株式会社,,株式会社,兵庫県,明石市,材木町４番２１号,,28,203,6730893,,,2022-07-14,清算の結了等,,,2015-10-05,1,,,,,,0
1453,6180002030930,登記記録の閉鎖等,0,2022-07-21,2022-07-15,佐々木エージェンシー有限会社,,有限会社,愛知県,名古屋市瑞穂区,牧町１丁目２０番地３,,23,108,4670816,,,2022-07-15,清算の結了等,,,2015-10-05,1,,,,,ササキエージェンシー,0
1456,6180301013322,登記記録の閉鎖等,0,2022-07-21,2022-07-08,株式会社ホウエン,,株式会社,愛知県,安城市,東栄町４丁目１２番地５,,23,212,4460007,,,2022-07-08,合併による解散等,3180301001461,令和４年７月１日愛知県岡崎市鉢地町字開山４５番地豊興工業株式会社（3180301001461）に合併し解散,2015-10-05,1,,,,,ホウエン,0
1478,6240002052274,登記記録の閉鎖等,0,2022-07-21,2022-07-13,有限会社山本建設,,有限会社,広島県,尾道市,御調町丸門田１２番地の３,,34,205,7220344,,,2022-07-13,清算の結了等,,,2015-10-05,1,,,,,ヤマモトケンセツ,0
1482,6260001004927,登記記録の閉鎖等,0,2022-07-21,2022-07-15,株式会社ナカヤマ,,株式会社,岡山県,岡山市北区,野田屋町２丁目５番２２号,,33,101,7000815,,,2022-07-15,清算の結了等,,,2015-10-05,1,,,,,ナカヤマ,0
1498,6320001003889,登記記録の閉鎖等,0,2022-07-21,2022-07-15,株式会社アジア環境研究所,,株式会社,大分県,大分市,原川１丁目１番９号,,44,201,8700138,,,2022-07-15,清算の結了等,,,2015-10-05,1,,,,,アジアカンキョウケンキュウショ,0
1503,6330003007986,登記記録の閉鎖等,0,2022-07-21,2022-07-06,合同会社ドラゴンＫ,,合同会社,熊本県,熊本市西区,戸坂町２番８６号,,43,103,8600045,,,2022-07-06,清算の結了等,,,2019-07-03,1,,,,,ドラゴンケイ,0
1524,6450005000548,登記記録の閉鎖等,0,2022-07-21,2022-07-20,医療法人社団細野歯科クリニック,,その他の設立登記法人,北海道,旭川市,旭町一条３丁目８４１番地の１,,01,204,0700831,,,2022-07-20,清算の結了等,,,2015-10-05,1,,,,,ホソノシカクリニック,0
1526,6470002006521,登記記録の閉鎖等,0,2022-07-21,2022-07-15,有限会社丸繁興産,,有限会社,香川県,高松市,生島町１６２番地１４,,37,201,7618002,,,2022-07-15,清算の結了等,,,2015-10-05,1,,,,,マルシゲコウサン,0
1534,7010001030229,登記記録の閉鎖等,0,2022-07-21,2022-07-05,株式会社ミラノ,,株式会社,東京都,千代田区,岩本町２丁目７番３号,,13,101,1010032,,,2022-07-05,清算の結了等,,,2015-10-05,1,,,,,ミラノ,0
1551,7010401092315,登記記録の閉鎖等,0,2022-07-21,2022-06-24,東日本リース株式会社,,株式会社,東京都,港区,虎ノ門１丁目２番６号,,13,103,1050001,,,2022-06-24,清算の結了等,,,2015-10-05,1,,,,,ヒガシニッポンリース,0
1552,7010401121032,登記記録の閉鎖等,0,2022-07-21,2022-07-04,株式会社からくさホテルズ,,株式会社,東京都,中央区,築地１丁目１３番１０号,,13,102,1040045,,,2022-07-04,合併による解散等,2010401065077,令和４年７月１日東京都中央区築地一丁目１３番１０号アビリタスホスピタリティ株式会社（2010401065077）に合併し解散,2015-10-20,1,,,,,カラクサホテルズ,0
1578,7010805001549,登記記録の閉鎖等,0,2022-07-21,2022-07-12,一般社団法人国際貿易マネジメント協会,,その他の設立登記法人,東京都,品川区,東大井３丁目２番２号,,13,109,1400011,,,2022-07-12,清算の結了等,,,2015-10-05,1,,,,,コクサイボウエキマネジメントキョウカイ,0
1590,7011001141866,登記記録の閉鎖等,0,2022-07-21,2022-06-30,株式会社ＡＯＩ　Ｓｔｙｌｅ,,株式会社,東京都,渋谷区,恵比寿１丁目１９番１９号恵比寿ビジネスタワー,,13,113,1500013,,,2022-06-30,合併による解散等,7011001117544,令和４年６月３０日東京都渋谷区恵比寿一丁目１９番１９号恵比寿ビジネスタワー株式会社Ｓｐａｒｔｙ（7011001117544）に合併し解散,2021-07-21,1,,,,,アオイスタイル,0
1605,7011503003250,登記記録の閉鎖等,0,2022-07-21,2022-07-11,合同会社おたま,,合同会社,東京都,北区,田端新町３丁目１５番１６平山ビル１階,,13,117,1140012,,,2022-07-11,清算の結了等,,,2017-04-18,1,,,,,オタマ,0
1606,7011505001137,登記記録の閉鎖等,0,2022-07-21,2022-07-15,特定非営利活動法人科学技術立国・ニッポンの応援隊,,その他の設立登記法人,東京都,北区,赤羽北３丁目２６番５－５１４号,,13,117,1150052,,,2022-07-15,清算の結了等,,,2015-10-05,1,,,,,カガクギジュツリッコクニッポンノオウエンタイ,0
1611,7011702003381,登記記録の閉鎖等,0,2022-07-21,2022-07-19,有限会社共同工業,,有限会社,東京都,江戸川区,松本１丁目２３番１５号,,13,123,1330043,,,2022-07-19,清算の結了等,,,2015-10-05,1,,,,,キョウドウコウギョウ,0
1630,7013402002993,登記記録の閉鎖等,0,2022-07-21,2022-07-19,有限会社南多摩会,,有限会社,東京都,多摩市,諏訪１丁目９番地１,,13,224,2060024,,,2022-07-19,清算の結了等,,,2015-10-05,1,,,,,ミナミタマカイ,0
1631,7013402006771,登記記録の閉鎖等,0,2022-07-21,2022-07-14,有限会社ケイ．ソリュウションインク,,有限会社,東京都,多摩市,豊ヶ丘２丁目１５番地４－４０３,,13,224,2060031,,,2022-07-14,清算の結了等,,,2015-10-05,1,,,,,ケイソリュウションインク,0
1665,7040002037963,登記記録の閉鎖等,0,2022-07-21,2022-07-07,有限会社シーピーユー,,有限会社,千葉県,鎌ケ谷市,道野辺中央５丁目１番８１号,,12,224,2730113,,,2022-07-07,清算の結了等,,,2015-10-05,1,,,,,シーピーユー,0
1685,7080102006187,登記記録の閉鎖等,0,2022-07-21,2022-07-14,有限会社Ｍ・Ａ,,有限会社,静岡県,沼津市,大岡２９４３番地の２,,22,203,4100022,,,2022-07-14,清算の結了等,,,2015-10-05,1,,,,,エムエー,0
1706,7120005011619,登記記録の閉鎖等,0,2022-07-21,2022-07-19,弁護士法人池田崇志法律事務所,,その他の設立登記法人,大阪府,大阪市北区,西天満２丁目２番３号,,27,127,5300047,,,2022-07-19,清算の結了等,,,2015-10-05,1,,,,,,0
1709,7120102004574,登記記録の閉鎖等,0,2022-07-21,2022-07-15,有限会社正貴機械製作所,,有限会社,大阪府,河内長野市,大矢船北町１７番５号,,27,216,5860076,,,2022-07-15,清算の結了等,,,2015-10-05,1,,,,,マサキキカイセイサクショ,0
1738,7180001101442,登記記録の閉鎖等,0,2022-07-21,2022-07-14,コトツクリ株式会社,,株式会社,愛知県,名古屋市千種区,御影町２丁目１番地,,23,101,4640014,,,2022-07-14,清算の結了等,,,2015-10-05,1,,,,,コトツクリ,0
1745,7180002074274,登記記録の閉鎖等,0,2022-07-21,2022-07-12,有限会社岩田電気商会,,有限会社,愛知県,犬山市,松本町１丁目１３６番地,,23,215,4840086,,,2022-07-12,清算の結了等,,,2015-10-05,1,,,,,イワタデンキショウカイ,0
1752,7180302001044,登記記録の閉鎖等,0,2022-07-21,2022-07-08,有限会社クリエイターズネットワーク,,有限会社,愛知県,岡崎市,稲熊町字向畑６９番地１,,23,202,4440071,,,2022-07-08,清算の結了等,,,2015-10-05,1,,,,,クリエイターズネットワーク,0
1757,7190002022975,登記記録の閉鎖等,0,2022-07-21,2022-07-08,有限会社時花,,有限会社,三重県,四日市市,諏訪栄町６番２０号,,24,202,5100086,,,2022-07-08,清算の結了等,,,2015-10-05,1,,,,,,0
1785,7290002015201,登記記録の閉鎖等,0,2022-07-21,2022-07-06,コーシン・エステート有限会社,,有限会社,福岡県,福岡市博多区,美野島１丁目８番１号,,40,132,8120017,,,2022-07-06,清算の結了等,,,2015-10-05,1,,,,,コーシンエステート,0
1792,7300001006356,登記記録の閉鎖等,0,2022-07-21,2022-07-13,株式会社ジョイントベンダーキシマ,,株式会社,佐賀県,三養基郡みやき町,大字簑原１５４番地７,,41,346,8490102,,,2022-07-13,清算の結了等,,,2015-10-05,1,,,,,ジョイントベンダーキシマ,0
1794,7310002011726,登記記録の閉鎖等,0,2022-07-21,2022-07-20,有限会社マルヨ,,有限会社,長崎県,佐世保市,万津町７番地１８,,42,202,8570877,,,2022-07-20,清算の結了等,,,2015-10-05,1,,,,,マルヨ,0
1827,7480005004099,登記記録の閉鎖等,0,2022-07-21,2022-07-01,医療法人高倉医院,,その他の設立登記法人,徳島県,徳島市,新蔵町３丁目３４番地１,,36,201,7700855,,,2022-07-01,合併による解散等,3480005000135,令和４年７月１日徳島市名東町一丁目９１番地医療法人栄寿会（3480005000135）に合併し解散,2015-10-05,1,,,,,タカクライイン,0
1849,8010401140064,登記記録の閉鎖等,0,2022-07-21,2022-07-01,株式会社コントラクツ,,株式会社,東京都,港区,高輪３丁目１０－７－１０４,,13,103,1080074,,,2022-07-01,合併による解散等,7010403011017,令和４年７月１日東京都港区高輪３－１０－７－１０４ＨＵＢキャリア株式会社（7010403011017）に合併し解散,2018-08-06,1,,,,,コントラクツ,0
1857,8010601048974,登記記録の閉鎖等,0,2022-07-21,2022-07-01,大宇販売株式会社,,株式会社,東京都,港区,三田１丁目４番２８号,,13,103,1080073,,,2022-07-01,合併による解散等,6010601015101,令和４年７月１日東京都港区三田一丁目４番２８号テクタイト株式会社（6010601015101）に合併し解散,2016-01-04,1,,,,,ダイウハンバイ,0
1876,8011001132856,登記記録の閉鎖等,0,2022-07-21,2022-07-05,ケイエムグループ株式会社,,株式会社,東京都,渋谷区,広尾２丁目９番１５号,,13,113,1500012,,,2022-07-05,清算の結了等,,,2020-03-13,1,,,,,,0
1879,8011101045033,登記記録の閉鎖等,0,2022-07-21,2022-07-05,バイオ・アグリ株式会社,,株式会社,東京都,中央区,入船１丁目６番３－６０１号,,13,102,1040042,,,2022-07-05,清算の結了等,,,2015-10-05,1,,,,,バイオアグリ,0
1903,8020003006489,登記記録の閉鎖等,0,2022-07-21,2022-07-08,合同会社アルファプロダクツ,,合同会社,神奈川県,横浜市神奈川区,白楽１８番２０号,,14,102,2210065,,,2022-07-08,清算の結了等,,,2015-10-05,1,,,,,アルファプロダクツ,0
1939,8070001035386,登記記録の閉鎖等,0,2022-07-21,2022-07-05,株式会社キタカフェ,,株式会社,群馬県,太田市,金山町１２番５号,,10,205,3730027,,,2022-07-05,合併による解散等,7070001030454,令和４年６月３０日群馬県太田市金山町１２番５号株式会社エーアイラボオオタ（7070001030454）に合併し解散,2019-01-09,1,,,,,キタカフェ,0
1942,8080001002220,登記記録の閉鎖等,0,2022-07-21,2022-07-19,株式会社スギ建築事務所,,株式会社,静岡県,静岡市駿河区,中島１５３番地の２,,22,102,4228046,,,2022-07-19,清算の結了等,,,2015-10-05,1,,,,,スギケンチクジムショ,0
1954,8120001232226,登記記録の閉鎖等,0,2022-07-21,2022-07-11,ブラックホール株式会社,,株式会社,大阪府,大阪市旭区,森小路２丁目１０番１３号,,27,117,5350013,,,2022-07-11,清算の結了等,,,2020-10-07,1,,,,,ブラックホール,0
1959,8120005019149,登記記録の閉鎖等,0,2022-07-21,2022-07-19,ＮＰＯ法人厚生年金基金代行割れ問題対策研究所,,その他の設立登記法人,大阪府,大阪市淀川区,西中島３丁目８番１５－６０１号,,27,123,5320011,,,2022-07-19,清算の結了等,,,2017-01-04,1,,,,,コウセイネンキンキキンダイコウワレモンダイタイサクケンキュウジョ,0
2002,8180301014368,登記記録の閉鎖等,0,2022-07-21,2022-07-08,株式会社二十一世紀,,株式会社,愛知県,刈谷市,東新町６丁目１５番地２,,23,210,4480031,,,2022-07-08,清算の結了等,,,2015-10-05,1,,,,,ニジュウイッセイキ,0
2009,8220003002063,登記記録の閉鎖等,0,2022-07-21,2022-07-13,ＳＯＬＡＲ　ＥＮＥＲＧＹ大崎Ｂ合同会社,,合同会社,石川県,金沢市,御影町１０番７号,,17,201,9218021,,,2022-07-13,清算の結了等,,,2015-10-05,1,,,,,ソーラーエナジーオオサキビー,0
2031,8290802013345,登記記録の閉鎖等,0,2022-07-21,2022-07-19,有限会社五十嵐工業,,有限会社,福岡県,北九州市八幡東区,勝山２丁目６番１１号,,40,108,8050043,,,2022-07-19,清算の結了等,,,2015-10-05,1,,,,,イガラシコウギョウ,0
2040,8380005005370,登記記録の閉鎖等,0,2022-07-21,2022-07-11,農事組合法人福島県加工馬鈴薯生産組合,00084470,その他の設立登記法人,福島県,石川郡石川町,大字沢井字深谷１８１番地２,,07,501,9637825,,,2022-07-11,清算の結了等,,,2015-10-05,1,,,,,フクシマケンカコウバレイショセイサンクミアイ,0
2043,8390002002287,登記記録の閉鎖等,0,2022-07-21,2022-07-11,有限会社富士電業,,有限会社,山形県,山形市,小立４丁目１８番３４－６号,,06,201,9902402,,,2022-07-11,清算の結了等,,,2015-10-05,1,,,,,フジデンギョウ,0
2053,8462501000235,登記記録の閉鎖等,0,2022-07-21,2022-07-13,別海ピュアサンド株式会社,,株式会社,北海道,野付郡別海町,中春別東町３０番地,,01,691,0860651,,,2022-07-13,清算の結了等,,,2015-10-05,1,,,,,ベツカイピュアサンド,0
2057,8500001005106,登記記録の閉鎖等,0,2022-07-21,2022-07-14,株式会社トラスティングホーム,,株式会社,愛媛県,松山市,東垣生町７１番地１,,38,201,7918043,,,2022-07-14,清算の結了等,,,2015-10-05,1,,,,,,0
2063,9010001041406,登記記録の閉鎖等,0,2022-07-21,2022-07-12,共栄通商株式会社,,株式会社,東京都,墨田区,菊川２丁目１３番１０号,,13,107,1300024,,,2022-07-12,清算の結了等,,,2015-10-05,1,,,,,キョウエイツウショウ,0
2082,9010401124066,登記記録の閉鎖等,0,2022-07-21,2022-06-30,東京ガスリキッドホールディングス株式会社,,株式会社,東京都,港区,芝公園２丁目４番１号,,13,103,1050011,,,2022-06-30,合併による解散等,2010401079028,令和４年６月３０日東京都港区海岸一丁目２番３号東京ガスエンジニアリングソリューションズ株式会社（2010401079028）に合併し解散,2016-04-07,1,,,,,トウキョウガスリキッドホールディングス,0
2117,9011103010042,登記記録の閉鎖等,0,2022-07-21,2022-07-15,ＯＮＥブリッジファンドＳ合同会社,,合同会社,東京都,新宿区,四谷２丁目９番地１５東京ユナイテッド綜合事務所内,,13,104,1600004,,,2022-07-15,清算の結了等,,,2020-09-24,1,,,,,ワンブリッジファンドエス,0
2119,9011501006047,登記記録の閉鎖等,0,2022-07-21,2022-07-15,株式会社河西繊商,,株式会社,東京都,荒川区,東尾久１丁目２０番８号,,13,118,1160012,,,2022-07-15,清算の結了等,,,2015-10-05,1,,,,,カサイセンショウ,0
2122,9011701012506,登記記録の閉鎖等,0,2022-07-21,2022-07-06,株式会社すなっぷ,,株式会社,東京都,江戸川区,北小岩２丁目９番８号豊泉ビル３０２,,13,123,1330051,,,2022-07-06,清算の結了等,,,2015-10-05,1,,,,,スナップ,0
2131,9012405003824,登記記録の閉鎖等,0,2022-07-21,2022-07-13,一般財団法人響,,その他の設立登記法人,東京都,府中市,若松町１丁目２１番地の４,,13,206,1830005,,,2022-07-13,清算の結了等,,,2015-11-17,1,,,,,ヒビキ,0
2141,9020001000501,登記記録の閉鎖等,0,2022-07-21,2022-07-07,新井建機株式会社,,株式会社,神奈川県,横浜市泉区,和泉町６５３９番地１,,14,116,2450016,,,2022-07-07,清算の結了等,,,2015-10-05,1,,,,,,0
2194,9120101025578,登記記録の閉鎖等,0,2022-07-21,2022-07-12,株式会社パセオ,,株式会社,大阪府,松原市,岡２丁目６番１１号,,27,217,5800014,,,2022-07-12,合併による解散等,2120101025171,令和４年６月２９日大阪府松原市三宅西五丁目７５１番地幸南食糧株式会社（2120101025171）に合併し解散,2015-10-05,1,,,,,パセオ,0
2206,9140002031228,登記記録の閉鎖等,0,2022-07-21,2022-07-14,有限会社美和速記センター,,有限会社,兵庫県,三木市,志染町西自由が丘２丁目２３２番地,,28,215,6730551,,,2022-07-14,清算の結了等,,,2015-10-05,1,,,,,ミワソッキセンター,0
2209,9140005004189,登記記録の閉鎖等,0,2022-07-21,2022-07-12,特定非営利活動法人いきいき将来設計工房,,その他の設立登記法人,兵庫県,神戸市中央区,二宮町１丁目１１番６号２０１号,,28,110,6510093,,,2022-07-12,清算の結了等,,,2015-10-05,1,,,,,イキイキショウライセッケイコウボウ,0
2221,9180005002569,登記記録の閉鎖等,0,2022-07-21,2022-07-19,医療法人大医研,,その他の設立登記法人,愛知県,名古屋市西区,花の木３丁目１６番１７号,,23,104,4510062,,,2022-07-19,清算の結了等,,,2015-10-05,1,,,,,ダイイケン,0
2230,9230001005090,登記記録の閉鎖等,0,2022-07-21,2022-07-14,株式会社リブハウス・カンパニー,,株式会社,富山県,富山市,天正寺１０１９番地１,,16,201,9300955,,,2022-07-14,清算の結了等,,,2015-10-05,1,,,,,リブハウスカンパニー,0
2242,9260005006124,登記記録の閉鎖等,0,2022-07-21,2022-07-19,新見酒販協同組合,,その他の設立登記法人,岡山県,新見市,新見４６５番地１,,33,210,7180011,,,2022-07-19,清算の結了等,,,2015-10-05,1,,,,,ニイミシュハン,0
2250,9290805005272,登記記録の閉鎖等,0,2022-07-21,2022-06-29,天理教石峰分教会,,その他の設立登記法人,福岡県,北九州市若松区,宮丸２丁目２１番１８号,,40,103,8080064,,,2022-06-29,合併による解散等,7500005004055,令和４年６月２７日愛媛県西条市氷見丙９７２番地天理教氷見分教会（7500005004055）に合併し解散,2015-10-05,1,,,,,,0
2262,9340003000129,登記記録の閉鎖等,0,2022-07-21,2022-07-20,合資会社浅田商会,,合資会社,鹿児島県,鹿児島市,名山町５番１０号,,46,201,8920821,,,2022-07-20,清算の結了等,,,2015-10-05,1,,,,,アサダショウカイ,0
2274,9470002009736,登記記録の閉鎖等,0,2022-07-21,2022-07-19,有限会社ヤコフ,,有限会社,香川県,高松市,円座町８１番地１,,37,201,7618044,,,2022-07-19,清算の結了等,,,2015-10-05,1,,,,,ヤコフ,0
