sequenceNumber,corporateNumber,process,correct,updateDate,changeDate,name,nameImageId,kind,prefectureName,cityName,streetNumber,addressImageId,prefectureCode,cityCode,postCode,addressOutside,addressOutsideImageId,closeDate,closeCause,successorCorporateNumber,changeCause,assignmentDate,latest,enName,enPrefectureName,enCityName,enAddressOutside,furigana,hihyoji
7,1010001230494,新規,0,2022-11-04,2022-11-04,株式会社メタトラスト,,株式会社,東京都,中央区,日本橋２丁目１番１７号丹生ビル２階,,13,102,1030027,,,,,,,2022-11-04,1,,,,,メタトラスト,0
8,1010001230569,新規,0,2022-11-04,2022-11-04,株式会社ＩＰＳ相生,,株式会社,東京都,千代田区,外神田２丁目１４番５号,,13,101,1010021,,,,,,,2022-11-04,1,,,,,アイピーエスアイオイ,0
9,1010001230585,新規,0,2022-11-04,2022-11-04,ＴＢＪホールディングス株式会社,,株式会社,東京都,千代田区,丸の内２丁目１番１号,,13,101,1000005,,,,,,,2022-11-04,1,,,,,ティービージェイホールディングス,0
10,1010001230602,新規,0,2022-11-04,2022-11-04,株式会社イヤクパートナーズ,,株式会社,東京都,中央区,銀座１丁目１２番４号Ｎ＆ＥＢＬＤ．６Ｆ,,13,102,1040061,,,,,,,2022-11-04,1,,,,,イヤクパートナーズ,0
14,1010003038969,新規,0,2022-11-04,2022-11-04,Ａ４ＪＰ　Ｎａｒａ　Ｈｏｔｅｌ合同会社,,合同会社,東京都,中央区,日本橋３丁目９番１号日本橋三丁目スクエア１１階,,13,102,1030027,,,,,,,2022-11-04,1,,,,,エーフォージェイピーナラホテル,0
15,1010003038985,新規,0,2022-11-04,2022-11-04,ＲＢソーラーレイテ合同会社,,合同会社,東京都,千代田区,麹町２丁目８番地ＭＬＣ麹町ビル４階フィンポート税理士法人内,,13,101,1020083,,,,,,,2022-11-04,1,,,,,アールビーソーラーレイテ,0
18,1010101015390,新規,0,2022-11-04,2022-11-04,株式会社エヌ・デザイン,,株式会社,東京都,八王子市,子安町４丁目３番３号,,13,201,1920904,,,,,,,2022-11-04,1,,,,,エヌデザイン,0
27,1010401170563,新規,0,2022-11-04,2022-11-04,株式会社ＨＡＣＨＩＷＡＲｉ,,株式会社,東京都,港区,六本木２丁目２－４グランドコンシェルジュ六本木２０５,,13,103,1060032,,,,,,,2022-11-04,1,,,,,ハチワリ,0
28,1010401170605,新規,0,2022-11-04,2022-11-04,株式会社Ｍｅｒｋａｂａ,,株式会社,東京都,港区,南青山２丁目２番１５号,,13,103,1070062,,,,,,,2022-11-04,1,,,,,マカバ,0
35,1010501049567,新規,0,2022-11-04,2022-11-04,株式会社ＡＰ,,株式会社,東京都,台東区,台東４丁目１１番４号,,13,106,1100016,,,,,,,2022-11-04,1,,,,,エーピー,0
36,1010501049575,新規,0,2022-11-04,2022-11-04,株式会社一凛,,株式会社,東京都,台東区,西浅草３丁目２８番１９－１３０１号ニッケンマンション,,13,106,1110035,,,,,,,2022-11-04,1,,,,,イチリン,0
37,1010501049583,新規,0,2022-11-04,2022-11-04,ワイズビジネスコンサルティング株式会社,,株式会社,東京都,台東区,蔵前４丁目１０番３－９０２号,,13,106,1110051,,,,,,,2022-11-04,1,,,,,ワイズビジネスコンサルティング,0
42,1010701043428,新規,0,2022-11-04,2022-11-04,株式会社イージスプラス,,株式会社,東京都,品川区,旗の台４丁目１３番２４号,,13,109,1420064,,,,,,,2022-11-04,1,,,,,イージスプラス,0
46,1010703006440,新規,0,2022-11-04,2022-11-04,ｄｍｏｄ合同会社,,合同会社,東京都,品川区,北品川６丁目７番１１－６０１号,,13,109,1410001,,,,,,,2022-11-04,1,,,,,ディーモド,0
48,1010801033403,新規,0,2022-11-04,2022-11-04,株式会社ｆ．ｄｉｎｉｎｇ,,株式会社,東京都,大田区,東海３丁目９番５号,,13,111,1430001,,,,,,,2022-11-04,1,,,,,エフダイニング,0
50,1010803004336,新規,0,2022-11-04,2022-11-04,ビーアールシー合同会社,,合同会社,東京都,大田区,中央７丁目６番６号,,13,111,1430024,,,,,,,2022-11-04,1,,,,,ビーアールシー,0
55,1011001150690,新規,0,2022-11-04,2022-11-04,株式会社シーソーゲーム,,株式会社,東京都,渋谷区,幡ヶ谷２丁目２０番８－６１０号,,13,113,1510072,,,,,,,2022-11-04,1,,,,,シーソーゲーム,0
56,1011001150724,新規,0,2022-11-04,2022-11-04,株式会社よるりメディカル,,株式会社,東京都,目黒区,目黒２丁目１５番１５号岡地ビル５階,,13,110,1530063,,,,,,,2022-11-04,1,,,,,ヨルリメディカル,0
58,1011003015628,新規,0,2022-11-04,2022-11-04,合同会社Ｙ２Ｕ,,合同会社,東京都,目黒区,目黒１丁目１番６－１０５号ガーデン目黒,,13,110,1530063,,,,,,,2022-11-04,1,,,,,ワイツーユー,0
63,1011105010460,新規,0,2022-11-04,2022-11-04,一般社団法人全国ＶＲ推進協会,,その他の設立登記法人,東京都,新宿区,高田馬場１丁目２７番１号ファインテックビル５０２,,13,104,1690075,,,,,,,2022-11-04,1,,,,,,0
64,1011301028216,新規,0,2022-11-04,2022-11-04,株式会社マックス・インフォメーション,,株式会社,東京都,杉並区,高円寺南５丁目３０番３号４０１号,,13,115,1660003,,,,,,,2022-11-04,1,,,,,マックスインフォメーション,0
66,1011501028627,新規,0,2022-11-04,2022-11-04,日本忰蘊世家株式会社,,株式会社,東京都,荒川区,南千住３丁目２７－２浅草ビル５０８号室,,13,118,1160003,,,,,,,2022-11-04,1,,,,,ニホンスイウンセイカ,0
68,1011701025754,新規,0,2022-11-04,2022-11-04,株式会社ＥＥＮＮ,,株式会社,東京都,江戸川区,東小松川２丁目３２番１１－５０１号,,13,123,1320033,,,,,,,2022-11-04,1,,,,,エン,0
70,1011801041494,新規,0,2022-11-04,2022-11-04,株式会社代田工業,,株式会社,東京都,足立区,西伊興３丁目１３－２１,,13,121,1210824,,,,,,,2022-11-04,1,,,,,ダイタコウギョウ,0
71,1012301013190,新規,0,2022-11-04,2022-11-04,株式会社サプラスアソシエイツ,,株式会社,東京都,町田市,中町３丁目１４番２号２０１,,13,209,1940021,,,,,,,2022-11-04,1,,,,,サプラスアソシエイツ,0
72,1012303001739,新規,0,2022-11-04,2022-11-04,Ｙｏｕ　Ｂｅ　Ｄｅｓｉｇｎ合同会社,,合同会社,東京都,町田市,本町田１９番地公社住宅ロ８４１,,13,209,1940032,,,,,,,2022-11-04,1,,,,,ユウビデザイン,0
91,1020001148752,新規,0,2022-11-04,2022-11-04,株式会社１１ＫＡ,,株式会社,神奈川県,横浜市都筑区,加賀原１丁目５番４４号,,14,118,2240055,,,,,,,2022-11-04,1,,,,,イチイチケイエイ,0
92,1020001148760,新規,0,2022-11-04,2022-11-04,株式会社スタートＵＰ秋山,,株式会社,神奈川県,川崎市幸区,南加瀬５丁目３８番１号,,14,132,2120055,,,,,,,2022-11-04,1,,,,,スタートアップアキヤマ,0
93,1020001148769,新規,0,2022-11-04,2022-11-04,株式会社プランニングユニット,,株式会社,神奈川県,横浜市神奈川区,菅田町８９０番地１３クリオ鴨居壱番館４０２号室,,14,102,2210864,,,,,,,2022-11-04,1,,,,,プランニングユニット,0
94,1020001148777,新規,0,2022-11-04,2022-11-04,株式会社ガクガク,,株式会社,神奈川県,川崎市麻生区,南黒川４番２号,,14,137,2150034,,,,,,,2022-11-04,1,,,,,ガクガク,0
95,1020001148810,新規,0,2022-11-04,2022-11-04,株式会社根本アセットマネジメント,,株式会社,神奈川県,横浜市都筑区,川和町２３０８番地,,14,118,2240057,,,,,,,2022-11-04,1,,,,,ネモトアセットマネジメント,0
98,1020003022666,新規,0,2022-11-04,2022-11-04,達瑞合同会社,,合同会社,神奈川県,横浜市中区,長者町５丁目７５番３－２０３号,,14,104,2310033,,,,,,,2022-11-04,1,,,,,タツスイ,0
99,1020003022682,新規,0,2022-11-04,2022-11-04,ＫＴＳ合同会社,,合同会社,神奈川県,横浜市栄区,長沼町６４１番地１,,14,115,2440841,,,,,,,2022-11-04,1,,,,,ケーティーエス,0
103,1021001077330,新規,0,2022-11-04,2022-11-04,株式会社Ｋ‐ＦＩＲＳＴ,,株式会社,神奈川県,平塚市,老松町１８－２５－２０１,,14,203,2540033,,,,,,,2022-11-04,1,,,,,ケーファースト,0
106,1021003012310,新規,0,2022-11-04,2022-11-04,合同会社Ｒｅ・Ｓｅｔ,,合同会社,神奈川県,相模原市緑区,橋本３丁目１９－１７・３０５,,14,151,2520143,,,,,,,2022-11-04,1,,,,,リセット,0
113,1030001150914,新規,0,2022-11-04,2022-11-04,株式会社アイマスタリー,,株式会社,埼玉県,戸田市,美女木１丁目２１番地の１０（ベルメゾン１０３号室）,,11,224,3350031,,,,,,,2022-11-04,1,,,,,アイマスタリー,0
114,1030001150922,新規,0,2022-11-04,2022-11-04,株式会社一良,,株式会社,埼玉県,所沢市,東所沢和田２丁目４番地の２２,,11,208,3590023,,,,,,,2022-11-04,1,,,,,イチヨシ,0
118,1030005021054,新規,0,2022-11-04,2022-11-04,エートス協同組合,,その他の設立登記法人,埼玉県,さいたま市中央区,新都心１１番地２,,11,105,3300081,,,,,,,2022-11-04,1,,,,,エートス,0
123,1040001125543,新規,0,2022-11-04,2022-11-04,株式会社壱瞬会,,株式会社,千葉県,市川市,市川１丁目２３－８－８０２,,12,203,2720034,,,,,,,2022-11-04,1,,,,,イッシュンカイ,0
124,1040001125717,新規,0,2022-11-04,2022-11-04,株式会社Ｒａｐｐｏｒｔ,,株式会社,千葉県,館山市,水岡１６－１,,12,205,2940004,,,,,,,2022-11-04,1,,,,,ラポール,0
127,1040003021212,新規,0,2022-11-04,2022-11-04,合同会社Ｂｒｏｔｈｅｒ,,合同会社,千葉県,市川市,新井１丁目１２番１０号ルミエール１０２号,,12,203,2720144,,,,,,,2022-11-04,1,,,,,ブラザー,0
135,1060003004289,新規,0,2022-11-04,2022-11-04,合同会社ＡＢＹ,,合同会社,栃木県,宇都宮市,西川田本町２丁目６番１８号,,09,201,3210158,,,,,,,2022-11-04,1,,,,,エービーワイ,0
136,1060003004297,新規,0,2022-11-04,2022-11-04,合同会社博奉会,,合同会社,栃木県,宇都宮市,桜１丁目６番７号,,09,201,3200043,,,,,,,2022-11-04,1,,,,,ハクホウカイ,0
137,1070001039798,新規,0,2022-11-04,2022-11-04,株式会社ＫＯＡＬＩＶＥ,,株式会社,群馬県,高崎市,小八木町２０３７番地１シュヴレット１０２,,10,202,3700071,,,,,,,2022-11-04,1,,,,,コアライブ,0
139,1080005007494,新規,0,2022-11-04,2022-11-04,司法書士法人カラー,,その他の設立登記法人,静岡県,焼津市,三ケ名２６９番地,,22,212,4250071,,,,,,,2022-11-04,1,,,,,カラー,0
142,1080101023619,新規,0,2022-11-04,2022-11-04,富士山ソーラー株式会社,,株式会社,静岡県,富士市,今泉３３９番地の１,,22,210,4170001,,,,,,,2022-11-04,1,,,,,フジサンソーラー,0
145,1080103002678,新規,0,2022-11-04,2022-11-04,合同会社ＬＬＣ,,合同会社,静岡県,富士市,柚木３２５番地の２,,22,210,4160908,,,,,,,2022-11-04,1,,,,,エルエルシー,0
147,1080401026131,新規,0,2022-11-04,2022-11-04,株式会社だいだら,,株式会社,静岡県,浜松市中区,鴨江３丁目６８番８号,,22,131,4328023,,,,,,,2022-11-04,1,,,,,ダイダラ,0
150,1080403004647,新規,0,2022-11-04,2022-11-04,シミズテック合同会社,,合同会社,静岡県,浜松市西区,大人見町１３６０番地の１,,22,133,4311112,,,,,,,2022-11-04,1,,,,,シミズテック,0
151,1090001017827,新規,0,2022-11-04,2022-11-04,株式会社ＬＡＢＯ,,株式会社,山梨県,甲府市,大里町１５６０番地５,,19,201,4000053,,,,,,,2022-11-04,1,,,,,ラボ,0
153,1100003006751,新規,0,2022-11-04,2022-11-04,合同会社Ｍｏｍ’ｓ　ｓｏｌｅｉｌ,,合同会社,長野県,長野市,稲里町下氷鉋５５６番地１,,20,201,3812211,,,,,,,2022-11-04,1,,,,,マムズソレイユ,0
154,1100005012938,新規,0,2022-11-04,2022-11-04,一般社団法人就労サポートセンター,,その他の設立登記法人,長野県,千曲市,大字新田１４４番地８,,20,218,3870018,,,,,,,2022-11-04,1,,,,,シュウロウサポートセンター,0
155,1110001037095,新規,0,2022-11-04,2022-11-04,株式会社醍醐,,株式会社,新潟県,阿賀野市,外城町１８番１１号,,15,223,9592022,,,,,,,2022-11-04,1,,,,,ダイゴ,0
166,1120001249945,新規,0,2022-11-04,2022-11-04,毓成株式会社,,株式会社,大阪府,大阪市中央区,松屋町９番２０号ローレルステート松屋町１３０７Ｂ,,27,128,5420067,,,,,,,2022-11-04,1,,,,,イクセイ,0
167,1120001249953,新規,0,2022-11-04,2022-11-04,心見株式会社,,株式会社,大阪府,大阪市中央区,松屋町９番２０号ローレルステート松屋町４０１Ｃ,,27,128,5420067,,,,,,,2022-11-04,1,,,,,シンケン,0
168,1120001250060,新規,0,2022-11-04,2022-11-04,株式会社Ｊ．Ｃ,,株式会社,大阪府,大阪市東成区,大今里４丁目２３番１０号,,27,115,5370012,,,,,,,2022-11-04,1,,,,,ジェイシー,0
171,1120003022788,新規,0,2022-11-04,2022-11-04,合同会社阿吽,00128360,合同会社,大阪府,大阪市淀川区,新高３丁目８番２１号,,27,123,5320033,,,,,,,2022-11-04,1,,,,,アウン,0
177,1120101066448,新規,0,2022-11-04,2022-11-04,株式会社西栄,00128352,株式会社,大阪府,岸和田市,別所町２丁目１０番２８号（１０１）,,27,202,5960045,,,,,,,2022-11-04,1,,,,,ニシエイ,0
185,1122001036357,新規,0,2022-11-04,2022-11-04,山沢精工株式会社,,株式会社,大阪府,大東市,御領２丁目２番２９号,,27,218,5740064,,,,,,,2022-11-04,1,,,,,ヤマザワセイコウ,0
191,1130001072958,新規,0,2022-11-04,2022-11-04,株式会社ＬＡＮＤＳＫ,,株式会社,京都府,京都市伏見区,深草西浦町４丁目５６番地第一ビル３０１号,,26,109,6120029,,,,,,,2022-11-04,1,,,,,ランドエスケイ,0
192,1130001072966,新規,0,2022-11-04,2022-11-04,株式会社濱菖,,株式会社,京都府,宇治市,菟道車田３３番地の１,00128355,26,204,6110000,,,,,,,2022-11-04,1,,,,,ハマショウ,0
193,1130001073031,新規,0,2022-11-04,2022-11-04,株式会社Ｕｎｆｏｌｄ,,株式会社,京都府,京都市中京区,橘町８１ヴァンベール御苑前３０５号室,,26,104,6040944,,,,,,,2022-11-04,1,,,,,アンフォールド,0
198,1140001127876,新規,0,2022-11-04,2022-11-04,株式会社インテリ,,株式会社,兵庫県,西宮市,羽衣町７－３０夙川グリーンタウン３階,,28,204,6620051,,,,,,,2022-11-04,1,,,,,インテリ,0
199,1140001127884,新規,0,2022-11-04,2022-11-04,株式会社Ｓｕｎｎｙ　Ｓｐａｃｅ,,株式会社,兵庫県,尼崎市,潮江１丁目５番１－１４０７号,,28,202,6610976,,,,,,,2022-11-04,1,,,,,サニースペース,0
200,1140001127926,新規,0,2022-11-04,2022-11-04,株式会社Ｓ＆Ｔ,,株式会社,兵庫県,たつの市,揖西町小神１２９番地９,,28,229,6794003,,,,,,,2022-11-04,1,,,,,エスアンドティー,0
201,1140001127950,新規,0,2022-11-04,2022-11-04,株式会社Ｄ’ＬｏｇｉＱ,,株式会社,兵庫県,神戸市中央区,御幸通８丁目１番６号,,28,110,6510087,,,,,,,2022-11-04,1,,,,,ディーロジック,0
202,1140001127959,新規,0,2022-11-04,2022-11-04,スカイビー株式会社,,株式会社,兵庫県,神戸市須磨区,南落合３丁目９番１１６－１０３号,,28,107,6540153,,,,,,,2022-11-04,1,,,,,スカイビー,0
203,1140001127983,新規,0,2022-11-04,2022-11-04,株式会社Ｔｈｅ　Ｃｕｒｒｅｎｔ,,株式会社,兵庫県,神戸市垂水区,神陵台８丁目７番６号,,28,108,6550041,,,,,,,2022-11-04,1,,,,,ジカレント,0
205,1140003018330,新規,0,2022-11-04,2022-11-04,合同会社ｉ　ｗｉｓｈ,,合同会社,兵庫県,丹波市,青垣町西芦田９５７－１,,28,223,6693803,,,,,,,2022-11-04,1,,,,,アイウィッシュ,0
206,1150001025922,新規,0,2022-11-04,2022-11-04,株式会社都跡通信建設,,株式会社,奈良県,磯城郡田原本町,大字千代１１１３番地の４,,29,363,6360246,,,,,,,2022-11-04,1,,,,,ミアトツウシンケンセツ,0
207,1150001025930,新規,0,2022-11-04,2022-11-04,株式会社敏,,株式会社,奈良県,大和高田市,本郷町２番４０号,,29,202,6350082,,,,,,,2022-11-04,1,,,,,トシ,0
210,1160001024618,新規,0,2022-11-04,2022-11-04,株式会社トータルサポート,,株式会社,滋賀県,大津市,唐崎３丁目３番２７号よしべぇビル２階,,25,201,5200106,,,,,,,2022-11-04,1,,,,,トータルサポート,0
212,1160003002720,新規,0,2022-11-04,2022-11-04,合同会社Ｅｌｅｖｅｒ,,合同会社,滋賀県,大津市,二本松１番１号ＢＲＡＮＣＨ大津京ハッシュタグシェアオフィス,,25,201,5200021,,,,,,,2022-11-04,1,,,,,エルベ,0
223,1180001153588,新規,0,2022-11-04,2022-11-04,星崎恒産株式会社,,株式会社,愛知県,名古屋市南区,鳴尾１丁目３６番地,,23,112,4570066,,,,,,,2022-11-04,1,,,,,ホシザキコウサン,0
224,1180001153654,新規,0,2022-11-04,2022-11-04,株式会社キャタリストカナダ,,株式会社,愛知県,名古屋市東区,泉２丁目１１番地１８号Ｍ’ｓＧｌｏｂａｌＰｏｒｔ２－６Ａ,,23,102,4610001,,,,,,,2022-11-04,1,,,,,キャタリストカナダ,0
227,1180005019991,新規,0,2022-11-04,2022-11-04,一般社団法人リンク,,その他の設立登記法人,愛知県,名古屋市守山区,大永寺町５６番地の１,,23,113,4630087,,,,,,,2022-11-04,1,,,,,リンク,0
231,1200001040627,新規,0,2022-11-04,2022-11-04,株式会社ラフ,,株式会社,岐阜県,土岐市,土岐口南町３丁目４０番地Ｍスクエアレジデンス１０３号,,21,212,5095123,,,,,,,2022-11-04,1,,,,,ラフ,0
232,1200001040635,新規,0,2022-11-04,2022-11-04,ＭＹＫ株式会社,,株式会社,岐阜県,大垣市,和合新町１丁目１５番地中村第三ビル２０３号,,21,202,5030801,,,,,,,2022-11-04,1,,,,,エムワイケー,0
235,1200005013406,新規,0,2022-11-04,2022-11-04,一般社団法人岐阜県学童保育支援センター,,その他の設立登記法人,岐阜県,恵那市,大井町１０５８番地１１,,21,210,5097201,,,,,,,2022-11-04,1,,,,,ギフケンガクドウホイクシエンセンター,0
239,1220001025114,新規,0,2022-11-04,2022-11-04,株式会社新建,,株式会社,石川県,金沢市,南千谷町リ１３番地,,17,201,9200127,,,,,,,2022-11-04,1,,,,,シンケン,0
246,1240001060596,新規,0,2022-11-04,2022-11-04,株式会社インフィーナ,,株式会社,広島県,廿日市市,上平良１２８５番地３,,34,213,7380026,,,,,,,2022-11-04,1,,,,,インフィーナ,0
247,1240001060605,新規,0,2022-11-04,2022-11-04,Ｕｎｄｅｒ　Ｂｒｕｓｈ株式会社,,株式会社,広島県,広島市中区,榎町９番２５号,,34,101,7300851,,,,,,,2022-11-04,1,,,,,アンダーブラッシュ,0
257,1260001037378,新規,0,2022-11-04,2022-11-04,瀬戸ヘルスケア株式会社,,株式会社,岡山県,赤磐市,桜が丘東４丁目４番地４０,,33,213,7090721,,,,,,,2022-11-04,1,,,,,セトヘルスケア,0
259,1260003004087,新規,0,2022-11-04,2022-11-04,合同会社ＥＢ,,合同会社,岡山県,倉敷市,水島西通１丁目１９３１番地５,,33,202,7128073,,,,,,,2022-11-04,1,,,,,イービー,0
260,1260003004095,新規,0,2022-11-04,2022-11-04,合同会社Ｂ．Ｏ．Ｖ,,合同会社,岡山県,笠岡市,東大戸６８７番地１４,,33,205,7140071,,,,,,,2022-11-04,1,,,,,ボヴィー,0
265,1290001099424,新規,0,2022-11-04,2022-11-04,株式会社三歩工業,,株式会社,福岡県,福岡市東区,若宮２丁目５番２５号,,40,131,8130036,,,,,,,2022-11-04,1,,,,,サンポコウギョウ,0
266,1290001099432,新規,0,2022-11-04,2022-11-04,クラフトフローリング株式会社,,株式会社,福岡県,糟屋郡須惠町,大字須恵３４０番地１０,,40,344,8112100,,,,,,,2022-11-04,1,,,,,クラフトフローリング,0
267,1290001099440,新規,0,2022-11-04,2022-11-04,株式会社ＣＦＡ,,株式会社,福岡県,福岡市中央区,天神２丁目３－１０－７１６,,40,133,8100001,,,,,,,2022-11-04,1,,,,,シーエフエー,0
268,1290001099449,新規,0,2022-11-04,2022-11-04,カラソル株式会社,,株式会社,福岡県,福岡市中央区,渡辺通２丁目３番１９－４０９号,,40,133,8100004,,,,,,,2022-11-04,1,,,,,カラソル,0
269,1290001099457,新規,0,2022-11-04,2022-11-04,アクティブ株式会社,,株式会社,福岡県,福岡市博多区,上牟田１丁目１５番５号,,40,132,8120006,,,,,,,2022-11-04,1,,,,,アクティブ,0
270,1290001099465,新規,0,2022-11-04,2022-11-04,株式会社ラプラス・アニメーション,,株式会社,福岡県,福岡市東区,香椎照葉６丁目４番４－１０２号,,40,131,8130017,,,,,,,2022-11-04,1,,,,,ラプラスアニメーション,0
275,1290801029027,新規,0,2022-11-04,2022-11-04,株式会社ＭＫＶ,,株式会社,福岡県,北九州市八幡東区,竹下町１５番８号,,40,108,8050022,,,,,,,2022-11-04,1,,,,,エムケーブイ,0
277,1300001013119,新規,0,2022-11-04,2022-11-04,株式会社オールドリバー,,株式会社,佐賀県,武雄市,武内町大字真手野２２８１５番地,,41,206,8492342,,,,,,,2022-11-04,1,,,,,オールドリバー,0
281,1310003004478,新規,0,2022-11-04,2022-11-04,合同会社ＪＩＮ,,合同会社,長崎県,長崎市,愛宕１丁目２－１４,,42,201,8500822,,,,,,,2022-11-04,1,,,,,ジン,0
282,1320001019403,新規,0,2022-11-04,2022-11-04,株式会社エムシービジョン,,株式会社,大分県,杵築市,山香町大字内河野２７９３番地１４,,44,210,8791311,,,,,,,2022-11-04,1,,,,,エムシービジョン,0
290,1330003009574,新規,0,2022-11-04,2022-11-04,合同会社ライフエッジ,,合同会社,熊本県,熊本市南区,富合町南田尻４７１番地,,43,104,8614155,,,,,,,2022-11-04,1,,,,,ライフエッジ,0
291,1340001025127,新規,0,2022-11-04,2022-11-04,株式会社ｋｕｒｋ　ＰＬＡＮＴ　ＬＥＡＴＨＥＲ,,株式会社,鹿児島県,出水市,本町２３番７号,,46,208,8990205,,,,,,,2022-11-04,1,,,,,コルクプラントレザー,0
294,1350001018030,新規,0,2022-11-04,2022-11-04,株式会社ＫＣ,,株式会社,宮崎県,宮崎市,大塚町竹下５２２番地１,,45,201,8800951,,,,,,,2022-11-04,1,,,,,ケーシー,0
299,1370001049197,新規,0,2022-11-04,2022-11-04,株式会社雑談会議,,株式会社,宮城県,仙台市青葉区,国分町３丁目３番１号,,04,101,9800803,,,,,,,2022-11-04,1,,,,,ザツダンカイギ,0
300,1370001049206,新規,0,2022-11-04,2022-11-04,株式会社西里建設,,株式会社,宮城県,富谷市,富ケ丘３丁目１０番１４号,,04,216,9813352,,,,,,,2022-11-04,1,,,,,ニシザトケンセツ,0
304,1370003005883,新規,0,2022-11-04,2022-11-04,合同会社スカイシップ,,合同会社,宮城県,石巻市,水明北３丁目１０番１号,,04,202,9860801,,,,,,,2022-11-04,1,,,,,スカイシップ,0
309,1400001016053,新規,0,2022-11-04,2022-11-04,株式会社ひらつか,,株式会社,岩手県,奥州市,江刺広瀬字荒谷７１３番地２,,03,215,0231133,,,,,,,2022-11-04,1,,,,,ヒラツカ,0
312,1410001013314,新規,0,2022-11-04,2022-11-04,株式会社ＩＳＩ,,株式会社,秋田県,秋田市,旭川清澄町９番１４号,,05,201,0100831,,,,,,,2022-11-04,1,,,,,アイエスアイ,0
321,1430003014424,新規,0,2022-11-04,2022-11-04,合同会社ＵＭＥ,,合同会社,北海道,札幌市西区,二十四軒三条４丁目６番７号第３栄輪ビル４階Ｂ１,,01,107,0630803,,,,,,,2022-11-04,1,,,,,ユーエムイー,0
322,1430003014432,新規,0,2022-11-04,2022-11-04,合同会社ストアホーム,,合同会社,北海道,札幌市白石区,北郷九条７丁目３番１２号,,01,104,0030839,,,,,,,2022-11-04,1,,,,,ストアホーム,0
323,1430005014595,新規,0,2022-11-04,2022-11-04,一般社団法人空地空家再生協議会,,その他の設立登記法人,北海道,札幌市中央区,宮の森二条１７丁目１２番１６号,,01,101,0640952,,,,,,,2022-11-04,1,,,,,アキチアキヤサイセイキョウギカイ,0
325,1460003000925,新規,0,2022-11-04,2022-11-04,合同会社Ｍｂｌａｎｃｈｅ,,合同会社,北海道,釧路市,文苑２丁目４１番３８号,,01,206,0850063,,,,,,,2022-11-04,1,,,,,エムブロンシュ,0
326,1470001019314,新規,0,2022-11-04,2022-11-04,株式会社タカシマ,,株式会社,香川県,高松市,鬼無町山口７７１番地３６,,37,201,7618025,,,,,,,2022-11-04,1,,,,,タカシマ,0
327,1470001019322,新規,0,2022-11-04,2022-11-04,株式会社ＹＨ,,株式会社,香川県,高松市,東山崎町２８５番地３,,37,201,7610312,,,,,,,2022-11-04,1,,,,,ワイエイチ,0
328,1470003002276,新規,0,2022-11-04,2022-11-04,合同会社Ｐｉｎｋｅｙ,,合同会社,香川県,高松市,香川町川東上１４８９番地８,,37,201,7611706,,,,,,,2022-11-04,1,,,,,ピンキー,0
329,1480001011906,新規,0,2022-11-04,2022-11-04,株式会社岡工業,,株式会社,徳島県,徳島市,金沢２丁目１番１７－１０３号ココタウン金沢,,36,201,7700871,,,,,,,2022-11-04,1,,,,,オカコウギョウ,0
330,1480001011914,新規,0,2022-11-04,2022-11-04,株式会社トップライド,,株式会社,徳島県,徳島市,八万町法花５１番地７,,36,201,7708083,,,,,,,2022-11-04,1,,,,,トップライド,0
331,1480003001888,新規,0,2022-11-04,2022-11-04,合同会社マエルストロム,,合同会社,徳島県,板野郡上板町,七條字大辻１４番地６,00128364,36,405,7711302,,,,,,,2022-11-04,1,,,,,マエルストロム,0
342,2010001230493,新規,0,2022-11-04,2022-11-04,銘洋自動車株式会社,,株式会社,東京都,中央区,銀座７丁目１７番１８号,,13,102,1040061,,,,,,,2022-11-04,1,,,,,メイヨウジドウシャ,0
343,2010003038951,新規,0,2022-11-04,2022-11-04,合同会社空蝉,,合同会社,東京都,文京区,根津１丁目１－１４－４０２号,,13,105,1130031,,,,,,,2022-11-04,1,,,,,ウツセミ,0
344,2010003038984,新規,0,2022-11-04,2022-11-04,ＲＢソーラーハバナ合同会社,,合同会社,東京都,千代田区,麹町２丁目８番地ＭＬＣ麹町ビル４階フィンポート税理士法人内,,13,101,1020083,,,,,,,2022-11-04,1,,,,,アールビーソーラーハバナ,0
352,2010401170595,新規,0,2022-11-04,2022-11-04,株式会社ＡＫ　ｅｘｐｅｄｉｔｉｏｎ,,株式会社,東京都,港区,白金１丁目２５－１,,13,103,1080072,,,,,,,2022-11-04,1,,,,,エーケーエクスペディション,0
353,2010401170629,新規,0,2022-11-04,2022-11-04,株式会社ＩｎｆｉｎｉｔｅＪａｐａｎ,,株式会社,東京都,港区,西麻布１丁目８番１３号１Ｆ,,13,103,1060031,,,,,,,2022-11-04,1,,,,,インフィニットジャパン,0
356,2010403028841,新規,0,2022-11-04,2022-11-04,クレアシオンＦＰ合同会社,,合同会社,東京都,港区,赤坂９丁目７番１号,,13,103,1070052,,,,,,,2022-11-04,1,,,,,クレアシオンエフピー,0
358,2010501049574,新規,0,2022-11-04,2022-11-04,株式会社９８,,株式会社,東京都,台東区,千束３丁目１０ー３０,,13,106,1110031,,,,,,,2022-11-04,1,,,,,ナインエイト,0
360,2010603009815,新規,0,2022-11-04,2022-11-04,大城企画合同会社,,合同会社,東京都,墨田区,横川３丁目６番７号２－Ｂ室,,13,107,1300003,,,,,,,2022-11-04,1,,,,,ダイジョウキカク,0
364,2010701043410,新規,0,2022-11-04,2022-11-04,ＷＪＡＤ株式会社,,株式会社,東京都,品川区,東品川２丁目１番１１号,,13,109,1400002,,,,,,,2022-11-04,1,,,,,ダブリュージェイエーディー,0
372,2010901051873,新規,0,2022-11-04,2022-11-04,トアス株式会社,,株式会社,東京都,世田谷区,祖師谷３丁目３０番７－２１０号,,13,112,1570072,,,,,,,2022-11-04,1,,,,,トアス,0
373,2010901051898,新規,0,2022-11-04,2022-11-04,株式会社ライフジャーニー,,株式会社,東京都,世田谷区,成城３丁目８番２１号,,13,112,1570066,,,,,,,2022-11-04,1,,,,,ライフジャーニー,0
381,2011001150681,新規,0,2022-11-04,2022-11-04,株式会社ＰＡＲＫ　ＣＲＥＡＴＩＯＮ　ＵＮＩＶＥＲＳＡＬ,,株式会社,東京都,渋谷区,神宮前６丁目１７番１５号落合原宿ビル４階,,13,113,1500001,,,,,,,2022-11-04,1,,,,,パーククリエーションユニバーサル,0
382,2011001150715,新規,0,2022-11-04,2022-11-04,ＷＥＳＥＮ株式会社,,株式会社,東京都,渋谷区,神宮前６丁目２３番４号桑野ビル２階,,13,113,1500001,,,,,,,2022-11-04,1,,,,,ウィーセン,0
384,2011201024215,新規,0,2022-11-04,2022-11-04,株式会社カクニマル,,株式会社,東京都,中野区,若宮３丁目３６番１１号,,13,114,1650033,,,,,,,2022-11-04,1,,,,,カクニマル,0
388,2011501028626,新規,0,2022-11-04,2022-11-04,明佳芯源株式会社,,株式会社,東京都,荒川区,南千住３丁目２７－２浅草ビル５０８号室,,13,118,1160003,,,,,,,2022-11-04,1,,,,,メイカシンゲン,0
393,2011601026356,新規,0,2022-11-04,2022-11-04,株式会社村上電気,,株式会社,東京都,練馬区,豊玉南３丁目２４番７－１０６号,,13,120,1760014,,,,,,,2022-11-04,1,,,,,ムラカミデンキ,0
398,2011801041493,新規,0,2022-11-04,2022-11-04,株式会社ＥＢＩセーフティネット,,株式会社,東京都,葛飾区,新小岩１丁目８－２フェニックスハイツ７－２０１号室,,13,122,1240024,,,,,,,2022-11-04,1,,,,,イービーアイセーフティネット,0
399,2011801041502,新規,0,2022-11-04,2022-11-04,株式会社あいほーむ,,株式会社,東京都,葛飾区,東金町７丁目２６－１３,,13,122,1250041,,,,,,,2022-11-04,1,,,,,アイホーム,0
400,2011803005348,新規,0,2022-11-04,2022-11-04,合同会社わかさま,,合同会社,東京都,足立区,青井３丁目７－１９,,13,121,1200012,,,,,,,2022-11-04,1,,,,,ワカサマ,0
402,2012303001738,新規,0,2022-11-04,2022-11-04,合同会社アイシーアンドピーズ,,合同会社,東京都,町田市,中町１丁目１９番５－７０６号,,13,209,1940021,,,,,,,2022-11-04,1,,,,,アイシーアンドピーズ,0
404,2012401039812,新規,0,2022-11-04,2022-11-04,株式会社カチウム,,株式会社,東京都,府中市,宮西町２丁目３番地の１,,13,206,1830022,,,,,,,2022-11-04,1,,,,,カチウム,0
406,2012403005655,新規,0,2022-11-04,2022-11-04,Ｐｈｅｎｉｘ合同会社,,合同会社,東京都,小金井市,本町３丁目７番２号,,13,210,1840004,,,,,,,2022-11-04,1,,,,,フェニックス,0
407,2013101009048,新規,0,2022-11-04,2022-11-04,株式会社紬,,株式会社,東京都,羽村市,双葉町３丁目２番３号,,13,227,2050022,,,,,,,2022-11-04,1,,,,,ツムギ,0
409,2013301049884,新規,0,2022-11-04,2022-11-04,株式会社つつうら,,株式会社,東京都,豊島区,西池袋４丁目１９番１４号第二吉野荘１階,,13,116,1710021,,,,,,,2022-11-04,1,,,,,ツツウラ,0
415,2020001148768,新規,0,2022-11-04,2022-11-04,株式会社Ｌａｐｉｓｔ,,株式会社,神奈川県,横浜市中区,元町２丁目８３番地ブルームーンビル３階,,14,104,2310861,,,,,,,2022-11-04,1,,,,,ラピスト,0
416,2020001148784,新規,0,2022-11-04,2022-11-04,株式会社Ｗａｌｔｓ,,株式会社,神奈川県,横浜市緑区,三保町１３０７番地９,,14,113,2260015,,,,,,,2022-11-04,1,,,,,ウォルト,0
417,2020001148826,新規,0,2022-11-04,2022-11-04,株式会社ＳＴＡＲ　ＰＩＥＲ,,株式会社,神奈川県,横浜市神奈川区,栄町５番地１横浜クリエーションスクエア１４階,,14,102,2210052,,,,,,,2022-11-04,1,,,,,スターピアー,0
418,2020001148842,新規,0,2022-11-04,2022-11-04,株式会社ＢｅＲｅｂｏｒｎ,,株式会社,神奈川県,横浜市港北区,新吉田１３－１,,14,109,2220000,,,,,,,2022-11-04,1,,,,,ビーリボーン,0
419,2020001148859,新規,0,2022-11-04,2022-11-04,株式会社メンタルパートナーズ,,株式会社,神奈川県,横浜市戸塚区,舞岡町２９番地７５グランシティ戸塚舞岡６０１号,,14,110,2440813,,,,,,,2022-11-04,1,,,,,メンタルパートナーズ,0
420,2020001148867,新規,0,2022-11-04,2022-11-04,株式会社エイティング,,株式会社,神奈川県,川崎市中原区,上小田中６丁目４０番２３号,,14,133,2110053,,,,,,,2022-11-04,1,,,,,エイティング,0
431,2021003012318,新規,0,2022-11-04,2022-11-04,合同会社アダマケ,,合同会社,神奈川県,大和市,鶴間２丁目１６番１５号アムール・ヴィ・プラス１０６号,,14,213,2420004,,,,,,,2022-11-04,1,,,,,アダマケ,0
437,2030001150830,新規,0,2022-11-04,2022-11-04,株式会社ＴＡＴＬＡ　ＴＲＡＤＩＮＧ,,株式会社,埼玉県,鶴ヶ島市,脚折町３丁目３０－２４アベニュー坂戸Ｂ１０２,,11,241,3502211,,,,,,,2022-11-04,1,,,,,タトゥラトレーディング,0
447,2040001125716,新規,0,2022-11-04,2022-11-04,コスメドリーム株式会社,,株式会社,千葉県,千葉市花見川区,幕張本郷６丁目７番１号ハイツ本郷３０２号,,12,102,2620033,,,,,,,2022-11-04,1,,,,,コスメドリーム,0
449,2040003021178,新規,0,2022-11-04,2022-11-04,合同会社ＫＴＳ,,合同会社,千葉県,船橋市,飯山満町２丁目４８９－１３６,,12,204,2740822,,,,,,,2022-11-04,1,,,,,ケイティーエス,0
455,2050003006970,新規,0,2022-11-04,2022-11-04,合同会社ＧＴＳ,,合同会社,茨城県,水戸市,緑町２丁目１番５５号,,08,201,3100034,,,,,,,2022-11-04,1,,,,,ジーティーエス,0
456,2050003006979,新規,0,2022-11-04,2022-11-04,合同会社ＮＥＷ　ＬＩＦＥ,,合同会社,茨城県,筑西市,笹塚６２３番地,,08,227,3080065,,,,,,,2022-11-04,1,,,,,ニューライフ,0
458,2050005013164,新規,0,2022-11-04,2022-11-04,社会福祉法人同樹会,,その他の設立登記法人,茨城県,結城市,大字結城字健田１２７４４番地,,08,207,3070001,,,,,,,2022-11-04,1,,,,,ドウジュカイ,0
459,2070003004691,新規,0,2022-11-04,2022-11-04,合同会社再開発,,合同会社,群馬県,伊勢崎市,市場町１丁目１３３７番地,,10,204,3792211,,,,,,,2022-11-04,1,,,,,サイカイハツ,0
462,2080005007493,新規,0,2022-11-04,2022-11-04,税理士法人セカンドオピニオン,,その他の設立登記法人,静岡県,静岡市駿河区,丸子３丁目１２番１５号,,22,102,4210103,,,,,,,2022-11-04,1,,,,,セカンドオピニオン,0
469,2100001035834,新規,0,2022-11-04,2022-11-04,株式会社アズワン,,株式会社,長野県,安曇野市,豊科４４４９番地,,20,220,3998205,,,,,,,2022-11-04,1,,,,,アズワン,0
470,2100001035842,新規,0,2022-11-04,2022-11-04,株式会社Ｃａｒ　ｅｉｇｈｔ　ｇａｒａｇｅ,,株式会社,長野県,松本市,波田５５７２番地２,,20,202,3901401,,,,,,,2022-11-04,1,,,,,カーエイトガレージ,0
473,2100003006750,新規,0,2022-11-04,2022-11-04,合同会社ヒラソル,,合同会社,長野県,須坂市,大字日滝９４３番地１１,,20,207,3820000,,,,,,,2022-11-04,1,,,,,ヒラソル,0
490,2120001249993,新規,0,2022-11-04,2022-11-04,株式会社Ｙ’ｓ,,株式会社,大阪府,大阪市天王寺区,味原町１３－１０アップルグリーンビル５階,,27,109,5430023,,,,,,,2022-11-04,1,,,,,ワイズ,0
491,2120001250035,新規,0,2022-11-04,2022-11-04,株式会社ＯＴＦ,,株式会社,大阪府,大阪市北区,長柄西１丁目３番５４－６１９号,,27,127,5310061,,,,,,,2022-11-04,1,,,,,オーティエフ,0
492,2120001250043,新規,0,2022-11-04,2022-11-04,株式会社ＣＹＬ,,株式会社,大阪府,大阪市北区,中崎西１丁目９番１５号１０１号室,,27,127,5300015,,,,,,,2022-11-04,1,,,,,シーワイエル,0
493,2120001250051,新規,0,2022-11-04,2022-11-04,株式会社ＰＯＰＰＹ,,株式会社,大阪府,大阪市中央区,本町４丁目５番６号ＪＡＳＰＥＲ御堂筋本町１３０３,,27,128,5410053,,,,,,,2022-11-04,1,,,,,ポピー,0
499,2120003022787,新規,0,2022-11-04,2022-11-04,合同会社カラフルメイト,,合同会社,大阪府,大阪市北区,池田町３番２１－１３１２号,,27,127,5300033,,,,,,,2022-11-04,1,,,,,カラフルメイト,0
501,2120101066447,新規,0,2022-11-04,2022-11-04,株式会社ダニエル,,株式会社,大阪府,和泉市,はつが野２丁目１１番４１号,,27,219,5941106,,,,,,,2022-11-04,1,,,,,ダニエル,0
505,2120901046697,新規,0,2022-11-04,2022-11-04,ａｒｔｅ　ｄｅｓｉｇｎ　Ｌａｂ株式会社,,株式会社,大阪府,箕面市,牧落２丁目５番８号,,27,220,5620004,,,,,,,2022-11-04,1,,,,,アルテデザインラボ,0
507,2120903004356,新規,0,2022-11-04,2022-11-04,グループホーム坂合同会社,,合同会社,大阪府,摂津市,香露園１８番１８号,,27,224,5660034,,,,,,,2022-11-04,1,,,,,グループホームサカ,0
511,2122001036364,新規,0,2022-11-04,2022-11-04,株式会社ＳＥＧ,,株式会社,大阪府,大東市,南津の辺町２番４２号,,27,218,5740016,,,,,,,2022-11-04,1,,,,,セグ,0
512,2122003002447,新規,0,2022-11-04,2022-11-04,デンドロビューム合同会社,,合同会社,大阪府,東大阪市,荒川２丁目５番１４号,,27,227,5770843,,,,,,,2022-11-04,1,,,,,デンドロビューム,0
514,2130001072858,新規,0,2022-11-04,2022-11-04,寿ホールディングス株式会社,,株式会社,京都府,相楽郡精華町,大字祝園小字一丁田１２番地１５,,26,366,6190241,,,,,,,2022-11-04,1,,,,,コトブキホールディングス,0
515,2130001072957,新規,0,2022-11-04,2022-11-04,阿部商会株式会社,,株式会社,京都府,京都市北区,紫野西蓮台野町２２番地４,,26,101,6038245,,,,,,,2022-11-04,1,,,,,アベショウカイ,0
516,2130001072981,新規,0,2022-11-04,2022-11-04,株式会社オリーブ,,株式会社,京都府,京都市西京区,川島北裏町６９番地１８,,26,111,6158107,,,,,,,2022-11-04,1,,,,,オリーブ,0
517,2140001127859,新規,0,2022-11-04,2022-11-04,株式会社海良水産,,株式会社,兵庫県,赤穂市,坂越８６３番地,,28,212,6780172,,,,,,,2022-11-04,1,,,,,カイリョウスイサン,0
518,2140001127883,新規,0,2022-11-04,2022-11-04,株式会社官崎建設,00128345,株式会社,兵庫県,姫路市,香寺町中寺２５９番地２,,28,201,6792164,,,,,,,2022-11-04,1,,,,,カンザキケンセツ,0
519,2140001127891,新規,0,2022-11-04,2022-11-04,株式会社ディアラボ,,株式会社,兵庫県,伊丹市,北園３丁目１０番地１,,28,207,6640891,,,,,,,2022-11-04,1,,,,,ディアラボ,0
520,2140001127900,新規,0,2022-11-04,2022-11-04,株式会社赤松スチールプラント,,株式会社,兵庫県,姫路市,大津区恵美酒町１丁目２７番地３,,28,201,6711136,,,,,,,2022-11-04,1,,,,,アカマツスチールプラント,0
521,2140001127925,新規,0,2022-11-04,2022-11-04,株式会社ステラ,,株式会社,兵庫県,芦屋市,涼風町２３番１号,,28,206,6590036,,,,,,,2022-11-04,1,,,,,ステラ,0
522,2140001127958,新規,0,2022-11-04,2022-11-04,ＨＭＧ株式会社,,株式会社,兵庫県,神戸市長田区,東尻池町２丁目１４番１３号,,28,106,6530022,,,,,,,2022-11-04,1,,,,,エイチエムジー,0
523,2140001127966,新規,0,2022-11-04,2022-11-04,株式会社ｍｏｎｄｏ,,株式会社,兵庫県,揖保郡太子町,東出３７番地,,28,464,6711521,,,,,,,2022-11-04,1,,,,,モンド,0
524,2140001127974,新規,0,2022-11-04,2022-11-04,株式会社ｓｏｉｌ,,株式会社,兵庫県,明石市,朝霧北町１１２２番地の１２,,28,203,6730851,,,,,,,2022-11-04,1,,,,,ソイル,0
525,2140001127982,新規,0,2022-11-04,2022-11-04,株式会社ＴＲＩＮＩＴＹ,,株式会社,兵庫県,西宮市,甲陽園西山町１２番２５号,,28,204,6620017,,,,,,,2022-11-04,1,,,,,トリニティ,0
530,2140005026363,新規,0,2022-11-04,2022-11-04,一般財団法人兵庫県スキー連盟,,その他の設立登記法人,兵庫県,豊岡市,日高町山田６９１番地,,28,209,6695377,,,,,,,2022-11-04,1,,,,,ヒョウゴケンスキーレンメイ,0
531,2150001025921,新規,0,2022-11-04,2022-11-04,株式会社Ｌｉｆｅ　Ｐａｒｔｎｅｒ,,株式会社,奈良県,奈良市,高天町４３－１ＲＥＢＡＮＧＡ近鉄奈良駅高天町ビル５階,,29,201,6308241,,,,,,,2022-11-04,1,,,,,ライフパートナー,0
533,2160001024600,新規,0,2022-11-04,2022-11-04,株式会社リペアハウス,,株式会社,滋賀県,草津市,青地町６９２番地の１２,,25,206,5250041,,,,,,,2022-11-04,1,,,,,リペアハウス,0
534,2160001024609,新規,0,2022-11-04,2022-11-04,株式会社エクストラクツ・ジャパン,,株式会社,滋賀県,長浜市,田村町１２８１番地８,,25,203,5260829,,,,,,,2022-11-04,1,,,,,エクストラクツジャパン,0
535,2160001024617,新規,0,2022-11-04,2022-11-04,株式会社きよべじ,,株式会社,滋賀県,野洲市,市三宅１９９４番地,,25,210,5202362,,,,,,,2022-11-04,1,,,,,キヨベジ,0
536,2160001024625,新規,0,2022-11-04,2022-11-04,株式会社ＦＬＯＡＴ,,株式会社,滋賀県,米原市,樋口６番地,00128340,25,214,5210022,,,,,,,2022-11-04,1,,,,,,0
538,2170001017363,新規,0,2022-11-04,2022-11-04,株式会社みこや,,株式会社,和歌山県,和歌山市,鍋屋町１１－１,,30,201,6408009,,,,,,,2022-11-04,1,,,,,ミコヤ,0
554,2180001153620,新規,0,2022-11-04,2022-11-04,株式会社ＧＡ,,株式会社,愛知県,一宮市,大志１丁目１３番１１号,,23,203,4910852,,,,,,,2022-11-04,1,,,,,ジーエー,0
555,2180001153629,新規,0,2022-11-04,2022-11-04,株式会社コネクト,,株式会社,愛知県,名古屋市中区,栄２丁目２番１号広小路伏見中駒ビル２Ｆ－９,,23,106,4600008,,,,,,,2022-11-04,1,,,,,コネクト,0
556,2180001153694,新規,0,2022-11-04,2022-11-04,株式会社ワングレイン,,株式会社,愛知県,名古屋市中村区,長筬町１丁目２８番地,,23,105,4530839,,,,,,,2022-11-04,1,,,,,ワングレイン,0
560,2180003024431,新規,0,2022-11-04,2022-11-04,インアトゥ合同会社,,合同会社,愛知県,名古屋市北区,上飯田南町５丁目２０番地レグノ・アレッタ２０１,,23,103,4620804,,,,,,,2022-11-04,1,,,,,インアトゥ,0
567,2190001029877,新規,0,2022-11-04,2022-11-04,ＩＲＩＧＣＨＩ株式会社,,株式会社,三重県,伊勢市,御薗町高向２１１５番地３,,24,203,5160805,,,,,,,2022-11-04,1,,,,,イリグチ,0
568,2190001029893,新規,0,2022-11-04,2022-11-04,株式会社ひき田,,株式会社,三重県,志摩市,阿児町神明１１１３番地２８,,24,215,5170502,,,,,,,2022-11-04,1,,,,,ヒキタ,0
571,2200001040626,新規,0,2022-11-04,2022-11-04,株式会社ヤマテック,,株式会社,岐阜県,飛騨市,古川町上野５８４番地２６,,21,217,5094263,,,,,,,2022-11-04,1,,,,,ヤマテック,0
574,2220001025113,新規,0,2022-11-04,2022-11-04,株式会社ＮＯＳＴＲＡＩＤ,,株式会社,石川県,金沢市,新神田２丁目１番８号（フロル・ジェーノ・Ｂ棟ＩＩＩ号）,00128348,17,201,9218013,,,,,,,2022-11-04,1,,,,,ノストレイド,0
579,2230001019568,新規,0,2022-11-04,2022-11-04,ｍａｘｖｉｅｗ株式会社,,株式会社,富山県,富山市,南田町１丁目４番３号,,16,201,9300056,,,,,,,2022-11-04,1,,,,,マックスビュー,0
582,2240001060570,新規,0,2022-11-04,2022-11-04,株式会社敬真建工,,株式会社,広島県,福山市,御幸町大字森脇１０７３番地１,,34,207,7200003,,,,,,,2022-11-04,1,,,,,ケイシンケンコウ,0
583,2240001060587,新規,0,2022-11-04,2022-11-04,株式会社シュウエイ,,株式会社,広島県,呉市,広中町１１番１７－３０２号,,34,202,7370131,,,,,,,2022-11-04,1,,,,,シュウエイ,0
584,2240001060604,新規,0,2022-11-04,2022-11-04,株式会社ＮＥＸＵＳ,,株式会社,広島県,広島市西区,庚午南２丁目２２番１２－１０４号,,34,104,7330823,,,,,,,2022-11-04,1,,,,,ネクサス,0
585,2240001060620,新規,0,2022-11-04,2022-11-04,株式会社Ｓ＆ＣＨＯＩＣＥ,,株式会社,広島県,広島市南区,京橋町１番７号アスティ広島京橋ビルディング,,34,103,7320828,,,,,,,2022-11-04,1,,,,,エスアンドチョイス,0
586,2240003005879,新規,0,2022-11-04,2022-11-04,合同会社ドンベル,,合同会社,広島県,東広島市,西条本町１１番１８号,,34,212,7390011,,,,,,,2022-11-04,1,,,,,ドンベル,0
594,2260001037369,新規,0,2022-11-04,2022-11-04,株式会社市川工業,,株式会社,岡山県,和気郡和気町,本１４８番地１,,33,346,7090462,,,,,,,2022-11-04,1,,,,,イチカワコウギョウ,0
595,2260001037377,新規,0,2022-11-04,2022-11-04,カレオ瀬戸内株式会社,,株式会社,岡山県,岡山市南区,市場１丁目１番地水産加工棟１号,,33,104,7028052,,,,,,,2022-11-04,1,,,,,カレオセトウチ,0
596,2270003001454,新規,0,2022-11-04,2022-11-04,合同会社スミナイナ,,合同会社,鳥取県,鳥取市,鹿野町鹿野２４０７,,31,201,6890405,,,,,,,2022-11-04,1,,,,,スミナイナ,0
600,2290001099407,新規,0,2022-11-04,2022-11-04,株式会社福岡リムジンサービス,,株式会社,福岡県,福岡市中央区,赤坂１丁目１１番１３号１０１大稲ビル,,40,133,8100042,,,,,,,2022-11-04,1,,,,,フクオカリムジンサービス,0
601,2290001099423,新規,0,2022-11-04,2022-11-04,株式会社ＫＯＡ　ＰＬＡＮＮＩＮＧ,,株式会社,福岡県,福津市,福間南２丁目２番３７号,,40,224,8113212,,,,,,,2022-11-04,1,,,,,コアプランニング,0
602,2290001099456,新規,0,2022-11-04,2022-11-04,実体通貨株式会社,,株式会社,福岡県,福津市,光陽台２丁目４番１５号,,40,224,8113223,,,,,,,2022-11-04,1,,,,,ジッタイツウカ,0
603,2290001099472,新規,0,2022-11-04,2022-11-04,株式会社オニキス,,株式会社,福岡県,飯塚市,秋松９５番地アンデスハイツＡ－２０３,,40,205,8200083,,,,,,,2022-11-04,1,,,,,オニキス,0
605,2290003013142,新規,0,2022-11-04,2022-11-04,合同会社アービング,,合同会社,福岡県,福岡市中央区,港１丁目２－１８－２２０１,,40,133,8100075,,,,,,,2022-11-04,1,,,,,アービング,0
606,2290003013150,新規,0,2022-11-04,2022-11-04,合同会社あすなろ,,合同会社,福岡県,福岡市城南区,神松寺１丁目１９番１２号,,40,136,8140121,,,,,,,2022-11-04,1,,,,,アスナロ,0
608,2290805009602,新規,0,2022-11-04,2022-11-04,税理士法人志村会計パートナーズ,,その他の設立登記法人,福岡県,行橋市,門樋町３番１１号テゾーロ行橋１Ｆ,,40,213,8240006,,,,,,,2022-11-04,1,,,,,シムラカイケイパートナーズ,0
609,2300001013118,新規,0,2022-11-04,2022-11-04,株式会社グリード,,株式会社,佐賀県,佐賀市,若楠１丁目２番１３号,,41,201,8490928,,,,,,,2022-11-04,1,,,,,グリード,0
610,2310005008641,新規,0,2022-11-04,2022-11-04,一般社団法人ＮＥＸＴながさきごみゼロプロジェクト,,その他の設立登記法人,長崎県,長崎市,茂里町３番２号,,42,201,8528104,,,,,,,2022-11-04,1,,,,,ネクストナガサキゴミゼロプロジェクト,0
612,2330001030250,新規,0,2022-11-04,2022-11-04,株式会社Ｈ２,,株式会社,熊本県,熊本市中央区,平成３丁目１８－２２,,43,101,8600833,,,,,,,2022-11-04,1,,,,,エイチツー,0
617,2360001031130,新規,0,2022-11-04,2022-11-04,ＣＯｕｌｄ株式会社,,株式会社,沖縄県,中頭郡北谷町,字港９番地３３－１シャトーラメール３０２,,47,326,9040114,,,,,,,2022-11-04,1,,,,,クッド,0
620,2370001049205,新規,0,2022-11-04,2022-11-04,株式会社Ｄ’ｓ測量設計,,株式会社,宮城県,多賀城市,高橋３丁目５番２１号,,04,209,9850853,,,,,,,2022-11-04,1,,,,,ディーズソクリョウセッケイ,0
621,2370003005882,新規,0,2022-11-04,2022-11-04,合同会社リアンブルーコーチング舎,,合同会社,宮城県,仙台市青葉区,二日町１７－２２ＴＮＥＲ３２１,,04,101,9800802,,,,,,,2022-11-04,1,,,,,リアンブルーコーチングシャ,0
628,2400001016052,新規,0,2022-11-04,2022-11-04,株式会社酒と学校,,株式会社,岩手県,紫波郡紫波町,日詰字郡山駅６７番地,,03,321,0283305,,,,,,,2022-11-04,1,,,,,サケトガッコウ,0
630,2400602001080,新規,0,2022-11-04,2022-11-04,有限会社モードトネ,,有限会社,岩手県,奥州市,江刺南大通り１番１０号,,03,215,0231112,,,,,,,2022-11-04,1,,,,,モードトネ,0
637,2430001087801,新規,0,2022-11-04,2022-11-04,株式会社イトデザイン,,株式会社,北海道,札幌市東区,北二十六条東１６丁目１番４６－４０７号,,01,103,0650026,,,,,,,2022-11-04,1,,,,,イトデザイン,0
641,2460003000924,新規,0,2022-11-04,2022-11-04,合同会社ビーメック,,合同会社,北海道,釧路市,愛国東１丁目２３番１４号,,01,206,0850058,,,,,,,2022-11-04,1,,,,,ビーメック,0
642,2470001019321,新規,0,2022-11-04,2022-11-04,エリアール株式会社,,株式会社,香川県,高松市,屋島西町２３００番地１０,,37,201,7610113,,,,,,,2022-11-04,1,,,,,エリアール,0
663,3010001230567,新規,0,2022-11-04,2022-11-04,ＡＹ株式会社,,株式会社,東京都,中央区,日本橋堀留町１丁目１１－８－１３０２,,13,102,1030012,,,,,,,2022-11-04,1,,,,,エイワイ,0
664,3010001230583,新規,0,2022-11-04,2022-11-04,株式会社Ｓｔａｒｓ　Ｓｅｖｅｎ,,株式会社,東京都,千代田区,岩本町２丁目１９番９号,,13,101,1010032,,,,,,,2022-11-04,1,,,,,スターズセブン,0
671,3010003038942,新規,0,2022-11-04,2022-11-04,合同会社ａｉｂｏｌｅｔｙ,,合同会社,東京都,中央区,銀座１丁目１２番４号Ｎ＆ＥＢＬＤ．７階,,13,102,1040061,,,,,,,2022-11-04,1,,,,,アイボレティ,0
672,3010005035748,新規,0,2022-11-04,2022-11-04,ＮＩＨＯＮＢＡＳＨＩ４一般社団法人,,その他の設立登記法人,東京都,中央区,日本橋１丁目４番１号日本橋一丁目ビルディング,,13,102,1030027,,,,,,,2022-11-04,1,,,,,ニホンバシフォー,0
673,3010101015389,新規,0,2022-11-04,2022-11-04,株式会社ダイクハラセイシ,,株式会社,東京都,八王子市,兵衛１丁目１番７号,,13,201,1920918,,,,,,,2022-11-04,1,,,,,ダイクハラセイシ,0
682,3010401170561,新規,0,2022-11-04,2022-11-04,株式会社脱炭素化支援機構,,株式会社,東京都,港区,虎ノ門１丁目１番１２号,,13,103,1050001,,,,,,,2022-11-04,1,,,,,ダツタンソカシエンキコウ,0
683,3010401170611,新規,0,2022-11-04,2022-11-04,株式会社シン・アララト,,株式会社,東京都,港区,虎ノ門１丁目１０番５号,,13,103,1050001,,,,,,,2022-11-04,1,,,,,シンアララト,0
684,3010401170628,新規,0,2022-11-04,2022-11-04,株式会社ＭＵＳＥ,,株式会社,東京都,港区,南青山４丁目９番１号シンプル青山２Ｆ,,13,103,1070062,,,,,,,2022-11-04,1,,,,,ミューズ,0
692,3010803004334,新規,0,2022-11-04,2022-11-04,ＷＯＲＬＤ　ＡＧＥＮＣＹ合同会社,,合同会社,東京都,大田区,池上７丁目２番地７号,,13,111,1460082,,,,,,,2022-11-04,1,,,,,ワールドエージェンシー,0
694,3010903007749,新規,0,2022-11-04,2022-11-04,合同会社ＡＫＩ,,合同会社,東京都,世田谷区,奥沢３丁目３９番７号,,13,112,1580083,,,,,,,2022-11-04,1,,,,,アキ,0
695,3010903007757,新規,0,2022-11-04,2022-11-04,合同会社カリス,,合同会社,東京都,世田谷区,南烏山２丁目２５番１６号,,13,112,1570062,,,,,,,2022-11-04,1,,,,,カリス,0
697,3011001150656,新規,0,2022-11-04,2022-11-04,フォレストゲート株式会社,,株式会社,東京都,渋谷区,恵比寿南１丁目３番６号,,13,113,1500022,,,,,,,2022-11-04,1,,,,,フォレストゲート,0
698,3011001150763,新規,0,2022-11-04,2022-11-04,Ｆｕｎａｄｅ株式会社,,株式会社,東京都,渋谷区,道玄坂１丁目１０番８号渋谷道玄坂東急ビル２Ｆ－Ｃ,,13,113,1500043,,,,,,,2022-11-04,1,,,,,フナデ,0
718,3011601026355,新規,0,2022-11-04,2022-11-04,株式会社ＴＫプランニング,,株式会社,東京都,練馬区,西大泉６丁目１１番３号,,13,120,1780065,,,,,,,2022-11-04,1,,,,,ティーケープランニング,0
719,3011701025760,新規,0,2022-11-04,2022-11-04,ｎｏｖａ　ｔｒａｄｉｎｇ株式会社,,株式会社,東京都,江戸川区,小松川２丁目１０番１－６２２号,,13,123,1320034,,,,,,,2022-11-04,1,,,,,ノバトレーディング,0
721,3011801041501,新規,0,2022-11-04,2022-11-04,大功ワーク株式会社,,株式会社,東京都,足立区,宮城１丁目１７番９号,,13,121,1200047,,,,,,,2022-11-04,1,,,,,タイコウワーク,0
722,3012301013189,新規,0,2022-11-04,2022-11-04,株式会社Ｒｅａｌ　Ｍｉｎｄ,,株式会社,東京都,町田市,つくし野２丁目１７番地７,,13,209,1940001,,,,,,,2022-11-04,1,,,,,リアルマインド,0
723,3012301013197,新規,0,2022-11-04,2022-11-04,オリオンホルダー株式会社,,株式会社,東京都,町田市,中町１丁目２１番１１号中一ビル,,13,209,1940021,,,,,,,2022-11-04,1,,,,,オリオンホルダー,0
724,3012403005662,新規,0,2022-11-04,2022-11-04,Ｄｉｓｈ　Ａｐｐ合同会社,,合同会社,東京都,調布市,西つつじケ丘１丁目３６番地４,,13,208,1820006,,,,,,,2022-11-04,1,,,,,ディッシュアップ,0
727,3012703002566,新規,0,2022-11-04,2022-11-04,ＫＴ‐Ｆｒｏｎｔｉｅｒｓ合同会社,,合同会社,東京都,東村山市,久米川町２丁目６番地１０,,13,213,1890003,,,,,,,2022-11-04,1,,,,,ケーティーフロンティアーズ,0
730,3013305003399,新規,0,2022-11-04,2022-11-04,特定非営利活動法人トイミッケ,,その他の設立登記法人,東京都,豊島区,東池袋１丁目１７番１１号パークハイツ池袋１１０５号,,13,116,1700013,,,,,,,2022-11-04,1,,,,,トイミッケ,0
733,3020001148750,新規,0,2022-11-04,2022-11-04,株式会社スタジオ盆,,株式会社,神奈川県,横浜市港北区,篠原町１４８７番地,,14,109,2220026,,,,,,,2022-11-04,1,,,,,スタジオボン,0
734,3020001148759,新規,0,2022-11-04,2022-11-04,株式会社ＫＩＧＡＩ,,株式会社,神奈川県,横浜市南区,井土ケ谷下町３９－２９,,14,105,2320053,,,,,,,2022-11-04,1,,,,,キガイ,0
735,3020001148783,新規,0,2022-11-04,2022-11-04,株式会社Ｄｉｇｉｔａｌ　ＪＡＭ,,株式会社,神奈川県,横浜市金沢区,富岡西２丁目８番７号ライオンズマンション富岡５０１,,14,108,2360052,,,,,,,2022-11-04,1,,,,,デジタルジャム,0
736,3020001148858,新規,0,2022-11-04,2022-11-04,株式会社ＩＮＦＩＹ,,株式会社,神奈川県,横浜市中区,桜木町１丁目１０１番地１クロスゲート７階,,14,104,2310062,,,,,,,2022-11-04,1,,,,,インフィ,0
740,3021001077329,新規,0,2022-11-04,2022-11-04,株式会社ｍｅｅｍｅ　ｃｏ．,,株式会社,神奈川県,秦野市,落合３７番地の５,,14,211,2570025,,,,,,,2022-11-04,1,,,,,ミームカンパニー,0
741,3021001077337,新規,0,2022-11-04,2022-11-04,株式会社牧野青果店,,株式会社,神奈川県,藤沢市,辻堂６丁目１５番２号,,14,205,2510047,,,,,,,2022-11-04,1,,,,,マキノセイカテン,0
755,3030001150862,新規,0,2022-11-04,2022-11-04,株式会社ＳＹＴＹ,,株式会社,埼玉県,さいたま市西区,三橋６丁目１７３４番地５,,11,101,3310052,,,,,,,2022-11-04,1,,,,,エスワイティワイ,0
756,3030001150920,新規,0,2022-11-04,2022-11-04,株式会社彩心建設,,株式会社,埼玉県,春日部市,薄谷２７２番地２,,11,214,3440034,,,,,,,2022-11-04,1,,,,,サイシンケンセツ,0
757,3030001150953,新規,0,2022-11-04,2022-11-04,株式会社カーライフサポート,,株式会社,埼玉県,川越市,大字府川１１８９番地５,,11,201,3500831,,,,,,,2022-11-04,1,,,,,カーライフサポート,0
764,3040001125707,新規,0,2022-11-04,2022-11-04,篠塚空調工業株式会社,00128343,株式会社,千葉県,八街市,富山自１３１４至１３４３番地合併１８８０,,12,230,2891141,,,,,,,2022-11-04,1,,,,,,0
766,3040003021210,新規,0,2022-11-04,2022-11-04,合同会社ＡＺＵＲ,,合同会社,千葉県,市川市,曽谷３丁目３７番１１号,,12,203,2720832,,,,,,,2022-11-04,1,,,,,アジュール,0
769,3050001051893,新規,0,2022-11-04,2022-11-04,株式会社ｆａｍｉｌｌｅ,,株式会社,茨城県,筑西市,成田２７３番地３,,08,227,3080821,,,,,,,2022-11-04,1,,,,,フアミユ,0
771,3050003006978,新規,0,2022-11-04,2022-11-04,合同会社Ｆ５　ＷＯＲＫＳ,,合同会社,茨城県,ひたちなか市,大字中根３３２４－１シティハイム富士山Ｂ棟１０１,,08,221,3120011,,,,,,,2022-11-04,1,,,,,エフファイブワークス,0
774,3060001035400,新規,0,2022-11-04,2022-11-04,株式会社プレリュード,,株式会社,栃木県,宇都宮市,御幸ケ原町７７番地１９,,09,201,3210982,,,,,,,2022-11-04,1,,,,,プレリュード,0
775,3060001035417,新規,0,2022-11-04,2022-11-04,株式会社ＬＥＧＯＸ,,株式会社,栃木県,宇都宮市,池上町４番６号,,09,201,3200801,,,,,,,2022-11-04,1,,,,,レゴックス,0
781,3070001039796,新規,0,2022-11-04,2022-11-04,株式会社リモデル,,株式会社,群馬県,高崎市,足門町８２２番地２コーポＨＩＲＯ２０３号,,10,202,3703531,,,,,,,2022-11-04,1,,,,,リモデル,0
782,3070001039805,新規,0,2022-11-04,2022-11-04,明継株式会社,,株式会社,群馬県,高崎市,問屋町２丁目１０番地２６,,10,202,3700006,,,,,,,2022-11-04,1,,,,,メイケイ,0
783,3070003004666,新規,0,2022-11-04,2022-11-04,合同会社ＴＡＷＡＫＡＬ　ＧＥＮＥＲＡＬ　ＴＲＡＤＩＮＧ,,合同会社,群馬県,邑楽郡板倉町,大字板倉字藤ノ木９７５番１,,10,521,3740132,,,,,,,2022-11-04,1,,,,,タワカルジェネラルトレーディング,0
784,3070003004690,新規,0,2022-11-04,2022-11-04,合同会社サン・アベニュー,,合同会社,群馬県,前橋市,中内町１５１番地１１,,10,201,3792133,,,,,,,2022-11-04,1,,,,,サンアベニュー,0
785,3080001025267,新規,0,2022-11-04,2022-11-04,株式会社ＭＩＹＡＢＩ,,株式会社,静岡県,島田市,番生寺５１２番地の１,,22,209,4280011,,,,,,,2022-11-04,1,,,,,ミヤビ,0
786,3080001025275,新規,0,2022-11-04,2022-11-04,株式会社Ａｍ’ｓ　ｃｒｅｗ,,株式会社,静岡県,静岡市駿河区,国吉田４丁目５番２７号,,22,102,4228004,,,,,,,2022-11-04,1,,,,,アムズクルー,0
788,3080101023600,新規,0,2022-11-04,2022-11-04,川端株式会社,,株式会社,静岡県,伊東市,八幡野１７４１番地の１４３－２Ｆ,,22,208,4130232,,,,,,,2022-11-04,1,,,,,カワバタ,0
789,3080101023609,新規,0,2022-11-04,2022-11-04,株式会社ＹＯＬＯＬＯＤＧＥ,,株式会社,静岡県,伊豆市,柏久保６２５番地の９,,22,222,4102407,,,,,,,2022-11-04,1,,,,,ヨロロッジ,0
792,3080401026138,新規,0,2022-11-04,2022-11-04,株式会社ＡＫ‐ＳＴＹＬＥ,,株式会社,静岡県,浜松市中区,佐鳴台４丁目４０番３３号,,22,131,4328021,,,,,,,2022-11-04,1,,,,,エーケースタイル,0
799,3100001035833,新規,0,2022-11-04,2022-11-04,ＯＭ環境計画株式会社,,株式会社,長野県,長野市,吉田５丁目３１番２０－３号サンビレッジマウントＣ棟２０１号,,20,201,3810043,,,,,,,2022-11-04,1,,,,,オーエムカンキョウケイカク,0
815,3120001249976,新規,0,2022-11-04,2022-11-04,株式会社ＴＹリフォーム,,株式会社,大阪府,枚方市,香里園山之手町３８番３－２号,,27,210,5730087,,,,,,,2022-11-04,1,,,,,ティーワイリフォーム,0
816,3120001249984,新規,0,2022-11-04,2022-11-04,株式会社Ｈ．Ｃ,,株式会社,大阪府,大阪市淀川区,加島１丁目２２番４号－１０３号,,27,123,5320031,,,,,,,2022-11-04,1,,,,,エイチシー,0
817,3120001250018,新規,0,2022-11-04,2022-11-04,那岐株式会社,,株式会社,大阪府,門真市,島頭４丁目１７番２３号,,27,223,5710016,,,,,,,2022-11-04,1,,,,,ナギ,0
818,3120001250026,新規,0,2022-11-04,2022-11-04,株式会社リザレスト,,株式会社,大阪府,大阪市西成区,聖天下２丁目１０番１２－２０２号,,27,122,5570012,,,,,,,2022-11-04,1,,,,,リザレスト,0
819,3120001250059,新規,0,2022-11-04,2022-11-04,株式会社ビジョン,,株式会社,大阪府,大阪市中央区,南船場４丁目１０番５号南船場ＳＯＨＯビル７０２,,27,128,5420081,,,,,,,2022-11-04,1,,,,,ビジョン,0
826,3120101066479,新規,0,2022-11-04,2022-11-04,株式会社直慶水産,,株式会社,大阪府,高石市,羽衣１丁目３番１７号,,27,225,5920002,,,,,,,2022-11-04,1,,,,,ナオケイスイサン,0
835,3140001127858,新規,0,2022-11-04,2022-11-04,株式会社タイトフィールド,,株式会社,兵庫県,神戸市須磨区,若木町４丁目２番２７号,,28,107,6540014,,,,,,,2022-11-04,1,,,,,タイトフィールド,0
836,3140001127882,新規,0,2022-11-04,2022-11-04,株式会社ルーブルムーン,,株式会社,兵庫県,西宮市,剣谷町１９番７号,,28,204,6620099,,,,,,,2022-11-04,1,,,,,ルーブルムーン,0
837,3140001127890,新規,0,2022-11-04,2022-11-04,株式会社東播販売センター,,株式会社,兵庫県,加古川市,東神吉町神吉８２３番地の８２,,28,210,6750057,,,,,,,2022-11-04,1,,,,,トウバンハンバイセンター,0
838,3140001127973,新規,0,2022-11-04,2022-11-04,西堂株式会社,,株式会社,兵庫県,神戸市東灘区,住吉山手５丁目５番１－１０３号,,28,101,6580063,,,,,,,2022-11-04,1,,,,,サイトウ,0
839,3140001127981,新規,0,2022-11-04,2022-11-04,オンリーワン工業株式会社,,株式会社,兵庫県,加古川市,野口町長砂３６１番地の２０,,28,210,6750016,,,,,,,2022-11-04,1,,,,,オンリーワンコウギョウ,0
842,3150001025920,新規,0,2022-11-04,2022-11-04,株式会社アスカスタッフ,,株式会社,奈良県,橿原市,醍醐町２９６番地の１,,29,205,6340072,,,,,,,2022-11-04,1,,,,,アスカスタッフ,0
843,3150001025929,新規,0,2022-11-04,2022-11-04,株式会社天海建造,,株式会社,奈良県,北葛城郡広陵町,大字南郷３２４番地２,,29,426,6350814,,,,,,,2022-11-04,1,,,,,アマミケンゾウ,0
844,3150001025937,新規,0,2022-11-04,2022-11-04,株式会社ＭＳＭ,,株式会社,奈良県,生駒市,北新町１番５号,,29,209,6300245,,,,,,,2022-11-04,1,,,,,エムエスエム,0
847,3160001024616,新規,0,2022-11-04,2022-11-04,空央株式会社,,株式会社,滋賀県,野洲市,比留田１０１３番地,,25,210,5202422,,,,,,,2022-11-04,1,,,,,アオ,0
848,3160001024632,新規,0,2022-11-04,2022-11-04,林エンジニアリング株式会社,,株式会社,滋賀県,草津市,追分４丁目１４番２８－２号,,25,206,5250047,,,,,,,2022-11-04,1,,,,,ハヤシエンジニアリング,0
850,3170001017362,新規,0,2022-11-04,2022-11-04,株式会社鋼剣,,株式会社,和歌山県,岩出市,相谷１２４番地の２１,,30,209,6496257,,,,,,,2022-11-04,1,,,,,コウケン,0
862,3180001153611,新規,0,2022-11-04,2022-11-04,ファイナンシャル・パートナーズ株式会社,,株式会社,愛知県,名古屋市緑区,鳴子町３丁目４９番地の２４プレミスト鳴子北ブライトテラス１０５号,,23,114,4580041,,,,,,,2022-11-04,1,,,,,ファイナンシャルパートナーズ,0
863,3180001153628,新規,0,2022-11-04,2022-11-04,株式会社ＴＨＥ　ＯＮＥ,,株式会社,愛知県,名古屋市東区,東桜２丁目９番３１号,,23,102,4610005,,,,,,,2022-11-04,1,,,,,ザワン,0
873,3200001040617,新規,0,2022-11-04,2022-11-04,株式会社昌建工房,,株式会社,岐阜県,各務原市,鵜沼宝積寺町３丁目１１６番地,,21,213,5090123,,,,,,,2022-11-04,1,,,,,マサケンコウボウ,0
874,3200001040641,新規,0,2022-11-04,2022-11-04,株式会社プティ,,株式会社,岐阜県,大垣市,林町８丁目１７９２番地１,,21,202,5030015,,,,,,,2022-11-04,1,,,,,プティ,0
877,3200003005725,新規,0,2022-11-04,2022-11-04,合同会社ＷＡＴＳ,,合同会社,岐阜県,高山市,上切町３３４番地１,,21,203,5060044,,,,,,,2022-11-04,1,,,,,ワッツス,0
879,3220003003396,新規,0,2022-11-04,2022-11-04,合同会社いっくん,,合同会社,石川県,金沢市,片町１丁目４‐４,,17,201,9200981,,,,,,,2022-11-04,1,,,,,イックン,0
886,3260001037376,新規,0,2022-11-04,2022-11-04,株式会社Ａｍｖｉｓｉｏｎ,,株式会社,岡山県,岡山市北区,半田町２番２号,,33,101,7000003,,,,,,,2022-11-04,1,,,,,アンビジョン,0
887,3260003004093,新規,0,2022-11-04,2022-11-04,合同会社ＨＡＭＡＨＡＴＡ,,合同会社,岡山県,倉敷市,福田町古新田６４３番地１７,,33,202,7128046,,,,,,,2022-11-04,1,,,,,ハマハタ,0
889,3270003001453,新規,0,2022-11-04,2022-11-04,合同会社西村左官,,合同会社,鳥取県,鳥取市,美萩野５丁目５２７番地６７,,31,201,6890202,,,,,,,2022-11-04,1,,,,,ニシムラサカン,0
890,3270003001461,新規,0,2022-11-04,2022-11-04,合同会社Ｃ．Ｃ．Ｈ,,合同会社,鳥取県,米子市,上福原９１７番地２,,31,202,6830004,,,,,,,2022-11-04,1,,,,,シーシーエイチ,0
898,3290001099414,新規,0,2022-11-04,2022-11-04,株式会社ｄｉｇ,,株式会社,福岡県,福岡市城南区,片江１丁目１９番１４号,,40,136,8140142,,,,,,,2022-11-04,1,,,,,ディグ,0
899,3290001099422,新規,0,2022-11-04,2022-11-04,株式会社Ｒｉｃｘｕｓ,,株式会社,福岡県,福岡市東区,香椎照葉４丁目２番１－１１０１号セントラルパーク香椎照葉壱番館,,40,131,8130017,,,,,,,2022-11-04,1,,,,,リクサス,0
900,3290001099455,新規,0,2022-11-04,2022-11-04,株式会社ＢＲｉＧＨＴＥＲ＆ＡＲＴＳ,,株式会社,福岡県,筑紫野市,大字若江６１番地１（８０５号）,,40,217,8180023,,,,,,,2022-11-04,1,,,,,ブライターアンドアーツ,0
901,3290001099463,新規,0,2022-11-04,2022-11-04,株式会社ランデヴー,,株式会社,福岡県,福岡市中央区,薬院３丁目１０番４５号,,40,133,8100022,,,,,,,2022-11-04,1,,,,,ランデヴー,0
902,3290003013133,新規,0,2022-11-04,2022-11-04,エヌケイコーポレーション合同会社,,合同会社,福岡県,福岡市東区,筥松４丁目８番３１－１１０２号,,40,131,8120061,,,,,,,2022-11-04,1,,,,,エヌケイコーポレーション,0
903,3290003013141,新規,0,2022-11-04,2022-11-04,合同会社ｔｅｎｓｅｇｒｉｔｙ,,合同会社,福岡県,福岡市中央区,薬院４丁目１４番１－２０６号グランドメゾン浄水ガーデンシティセントラルフォレストＩ,00128346,40,133,8100022,,,,,,,2022-11-04,1,,,,,テンセグリティ,0
904,3290005018849,新規,0,2022-11-04,2022-11-04,弁護士法人米盛法律事務所,,その他の設立登記法人,福岡県,福岡市中央区,舞鶴１丁目１番１０号天神シルバービル,,40,133,8100073,,,,,,,2022-11-04,1,,,,,ヨネモリホウリツジムショ,0
907,3290801029000,新規,0,2022-11-04,2022-11-04,株式会社Ｍ’ｓエレクトリック,,株式会社,福岡県,北九州市小倉北区,浅野３丁目８番１号ＡＩＭビル６階,,40,106,8020001,,,,,,,2022-11-04,1,,,,,エムズエレクトリック,0
908,3290801029009,新規,0,2022-11-04,2022-11-04,株式会社リトア,,株式会社,福岡県,北九州市八幡西区,穴生２丁目１５番１６－１０６号,,40,109,8060049,,,,,,,2022-11-04,1,,,,,リトア,0
909,3290801029025,新規,0,2022-11-04,2022-11-04,株式会社ネクストビジョン,,株式会社,福岡県,京都郡みやこ町,下原５９３番地,,40,625,8240103,,,,,,,2022-11-04,1,,,,,ネクストビジョン,0
912,3320001019401,新規,0,2022-11-04,2022-11-04,株式会社Ｔ．Ｓ,,株式会社,大分県,大分市,大字松岡８２１３番地の４ロイヤルプラザ１０２,,44,201,8700125,,,,,,,2022-11-04,1,,,,,ティエス,0
913,3330001030266,新規,0,2022-11-04,2022-11-04,ＴＮＦアーネスト株式会社,,株式会社,熊本県,八代市,郡築一番町１９９番地２,,43,202,8660024,,,,,,,2022-11-04,1,,,,,ティーエヌエフアーネスト,0
916,3340001025117,新規,0,2022-11-04,2022-11-04,株式会社エスポワールあまみ,,株式会社,鹿児島県,大島郡龍郷町,浦５５８番地３,,46,527,8940104,,,,,,,2022-11-04,1,,,,,エスポワールアマミ,0
918,3340003003954,新規,0,2022-11-04,2022-11-04,合同会社ｏｎ．ＴＯＫＯＴＯＫＯ,,合同会社,鹿児島県,出水市,六月田町３８３番地２,,46,208,8990126,,,,,,,2022-11-04,1,,,,,オントコトコ,0
924,3390001017068,新規,0,2022-11-04,2022-11-04,株式会社華夕美日本海,,株式会社,山形県,鶴岡市,下川字窪畑１番地５２３,,06,203,9971117,,,,,,,2022-11-04,1,,,,,ハナユウビニホンカイ,0
929,3400001016051,新規,0,2022-11-04,2022-11-04,株式会社クボタテックアール,,株式会社,岩手県,盛岡市,山岸字外山岸８７番地６,,03,201,0200004,,,,,,,2022-11-04,1,,,,,クボタテックアール,0
939,3500001024564,新規,0,2022-11-04,2022-11-04,株式会社寺坂水産,,株式会社,愛媛県,宇和島市,津島町北灘乙１９０２番地１,,38,203,7983362,,,,,,,2022-11-04,1,,,,,テラサカスイサン,0
944,4010001230533,新規,0,2022-11-04,2022-11-04,ＮＯＵＳＥ株式会社,,株式会社,東京都,中央区,銀座１丁目１２番４号Ｎ＆ＥＢＬＤ．６Ｆ,,13,102,1040061,,,,,,,2022-11-04,1,,,,,ナウス,0
945,4010003038966,新規,0,2022-11-04,2022-11-04,合同会社ＶＥＲＴＵ,,合同会社,東京都,千代田区,西神田３丁目３番１２号－Ｂ１,,13,101,1010065,,,,,,,2022-11-04,1,,,,,ヴェルテュ,0
946,4010003038982,新規,0,2022-11-04,2022-11-04,合同会社ＭＬＢ,,合同会社,東京都,中央区,晴海３丁目１３番１号,,13,102,1040053,,,,,,,2022-11-04,1,,,,,エムエルビー,0
948,4010005035747,新規,0,2022-11-04,2022-11-04,一般社団法人施設環境評価機構,,その他の設立登記法人,東京都,千代田区,五番町６番地２,,13,101,1020076,,,,,,,2022-11-04,1,,,,,シセツカンキョウヒョウカキコウ,0
952,4010101015388,新規,0,2022-11-04,2022-11-04,株式会社ビスポークエンジニアリング,,株式会社,東京都,八王子市,横山町１０番７号ディナック八王子８０４号,,13,201,1920081,,,,,,,2022-11-04,1,,,,,ビスポークエンジニアリング,0
960,4010401170593,新規,0,2022-11-04,2022-11-04,ＳＭＦ株式会社,,株式会社,東京都,港区,高輪４丁目１５－２,,13,103,1080074,,,,,,,2022-11-04,1,,,,,エスエムエフ,0
961,4010401170602,新規,0,2022-11-04,2022-11-04,株式会社ｒｙｕ,,株式会社,東京都,港区,東新橋１丁目６番３号ＢＩＺｃｏｍｆｏｒｔ汐留,,13,103,1050021,,,,,,,2022-11-04,1,,,,,リュウ,0
964,4010403028550,新規,0,2022-11-04,2022-11-04,合同会社ハミングバード,,合同会社,東京都,港区,高輪２丁目１５―３１高輪グランドパームス１０１０,,13,103,1080074,,,,,,,2022-11-04,1,,,,,ハミングバード,0
965,4010403028815,新規,0,2022-11-04,2022-11-04,合同会社Ｒｕｎ　Ｗｉｔｈ　Ｔｈｅ　Ｂａｌｌ,,合同会社,東京都,港区,南麻布１丁目４番５－４０６号,,13,103,1060047,,,,,,,2022-11-04,1,,,,,ランウィズザボール,0
968,4010501049572,新規,0,2022-11-04,2022-11-04,株式会社ＯＲＩ,,株式会社,東京都,台東区,花川戸２丁目１４番３号,,13,106,1110033,,,,,,,2022-11-04,1,,,,,オリ,0
969,4010501049580,新規,0,2022-11-04,2022-11-04,株式会社Ｈａｖｉｎｇ,,株式会社,東京都,台東区,上野２丁目１２番７号進藤ビル２階,,13,106,1100005,,,,,,,2022-11-04,1,,,,,ハビング,0
974,4010701043417,新規,0,2022-11-04,2022-11-04,株式会社ＦＩＶＥ　ＳＴＡＲＳ,,株式会社,東京都,品川区,北品川３丁目６番４３－５０１号,,13,109,1400001,,,,,,,2022-11-04,1,,,,,ファイブスターズ,0
975,4010701043425,新規,0,2022-11-04,2022-11-04,ＰｕａＭｅｌｉａ株式会社,,株式会社,東京都,品川区,北品川５丁目５番１５号,,13,109,1410001,,,,,,,2022-11-04,1,,,,,プアメリア,0
977,4010703006446,新規,0,2022-11-04,2022-11-04,ＭＹｐｌｕｓ合同会社,,合同会社,東京都,品川区,東品川２丁目２番２５－６０３号,,13,109,1400002,,,,,,,2022-11-04,1,,,,,エムワイプラス,0
981,4010801033409,新規,0,2022-11-04,2022-11-04,株式会社ＷＰ,,株式会社,東京都,大田区,西蒲田５丁目１４番７号,,13,111,1440051,,,,,,,2022-11-04,1,,,,,ダブリューピー,0
982,4010901051905,新規,0,2022-11-04,2022-11-04,国際貿易システム株式会社,,株式会社,東京都,世田谷区,赤堤２丁目２２番１７号,,13,112,1560044,,,,,,,2022-11-04,1,,,,,コクサイボウエキシステム,0
983,4010901051913,新規,0,2022-11-04,2022-11-04,Ｄ２Ｃ株式会社,,株式会社,東京都,世田谷区,上馬４丁目２１番１号,,13,112,1540011,,,,,,,2022-11-04,1,,,,,,0
990,4011001150671,新規,0,2022-11-04,2022-11-04,株式会社リンクライム,,株式会社,東京都,渋谷区,渋谷２丁目１９番１５号宮益坂ビルディング６０９,,13,113,1500002,,,,,,,2022-11-04,1,,,,,リンクライム,0
991,4011001150746,新規,0,2022-11-04,2022-11-04,株式会社ｗｏｏｌ　ｄｅｓｉｇｎ　ｒｏｏｍ,,株式会社,東京都,渋谷区,富ヶ谷２丁目１９番１２－２０２号,,13,113,1510063,,,,,,,2022-11-04,1,,,,,ウールデザインルーム,0
992,4011001150754,新規,0,2022-11-04,2022-11-04,株式会社ママクオリア,,株式会社,東京都,渋谷区,道玄坂１丁目１０番８号渋谷道玄坂東急ビル２Ｆ－Ｃ,,13,113,1500043,,,,,,,2022-11-04,1,,,,,ママクオリア,0
997,4011101100675,新規,0,2022-11-04,2022-11-04,Ｆｌｏｒｅｓ株式会社,,株式会社,東京都,新宿区,西新宿８丁目１７番１号住友不動産新宿グランドタワー１２Ｆ,,13,104,1600023,,,,,,,2022-11-04,1,,,,,フローレス,0
998,4011101100691,新規,0,2022-11-04,2022-11-04,キークレア不動産株式会社,,株式会社,東京都,新宿区,四谷４丁目３番１号ワールド四谷ビル５階,,13,104,1600004,,,,,,,2022-11-04,1,,,,,キークレアフドウサン,0
999,4011103012332,新規,0,2022-11-04,2022-11-04,合同会社ホワイトボール,,合同会社,東京都,新宿区,歌舞伎町２丁目９番１８－８１０号,,13,104,1600021,,,,,,,2022-11-04,1,,,,,ホワイトボール,0
1000,4011103012349,新規,0,2022-11-04,2022-11-04,合同会社日本語ラーニングサポート,,合同会社,東京都,新宿区,新宿２丁目１２番１３号アントレサロンビル２階,,13,104,1600022,,,,,,,2022-11-04,1,,,,,ニホンゴラーニングサポート,0
1001,4011201024205,新規,0,2022-11-04,2022-11-04,株式会社ＦＬＡＴ,,株式会社,東京都,中野区,鷺宮４丁目２３番６号,,13,114,1650032,,,,,,,2022-11-04,1,,,,,フラット,0
1004,4011501028616,新規,0,2022-11-04,2022-11-04,株式会社ワンレビュー,,株式会社,東京都,荒川区,南千住４丁目７番３－６０８号ロイヤルパークスタワー南千住,,13,118,1160003,,,,,,,2022-11-04,1,,,,,ワンレビュー,0
1010,4011703003292,新規,0,2022-11-04,2022-11-04,ｎｉｈｏ’ｏｈｅ合同会社,,合同会社,東京都,江戸川区,西瑞江５丁目３番地６アーデルレジデンス一之江４０５,,13,123,1340015,,,,,,,2022-11-04,1,,,,,ニホヘ,0
1011,4011801041483,新規,0,2022-11-04,2022-11-04,株式会社ツリー設備工業,,株式会社,東京都,足立区,西綾瀬３丁目３４番８号,,13,121,1200014,,,,,,,2022-11-04,1,,,,,ツリーセツビコウギョウ,0
1012,4011801041491,新規,0,2022-11-04,2022-11-04,株式会社サマサマオーバーシーズ,,株式会社,東京都,葛飾区,高砂１丁目１８番１８－１０３号グレイスブリッサ,,13,122,1250054,,,,,,,2022-11-04,1,,,,,サマサマオーバーシーズ,0
1013,4012301013196,新規,0,2022-11-04,2022-11-04,株式会社ディーハイ,,株式会社,東京都,町田市,小野路町２５７２番地２９,,13,209,1950064,,,,,,,2022-11-04,1,,,,,ディーハイ,0
1015,4012401039819,新規,0,2022-11-04,2022-11-04,株式会社ｔｅｉａｎ‐ｌａｂ,,株式会社,東京都,武蔵野市,境南町２丁目２７番４号,,13,203,1800023,,,,,,,2022-11-04,1,,,,,テイアンラボ,0
1016,4012403005661,新規,0,2022-11-04,2022-11-04,トコロ合同会社,,合同会社,東京都,小金井市,緑町１丁目２番３４－３０９号ニッセイパレス東小金井,,13,210,1840003,,,,,,,2022-11-04,1,,,,,トコロ,0
1020,4012701017326,新規,0,2022-11-04,2022-11-04,株式会社ティーツリー,,株式会社,東京都,東村山市,久米川町２丁目２７番地２,,13,213,1890003,,,,,,,2022-11-04,1,,,,,ティーツリー,0
1022,4012801021938,新規,0,2022-11-04,2022-11-04,株式会社Ｍ・Ｋ‐ＳＩＤＥＫＩＣＫｓ,,株式会社,東京都,武蔵村山市,大南２丁目１４３番地の２,,13,223,2080013,,,,,,,2022-11-04,1,,,,,エムケイサイドキック,0
1023,4013101009046,新規,0,2022-11-04,2022-11-04,ａｉ・ｃａｒｅ株式会社,,株式会社,東京都,青梅市,師岡町３丁目６番地の３２,,13,205,1980031,,,,,,,2022-11-04,1,,,,,アイケア,0
1026,4013301049882,新規,0,2022-11-04,2022-11-04,株式会社ＲｗＨ,,株式会社,東京都,豊島区,目白２丁目２７番１９号,,13,116,1710031,,,,,,,2022-11-04,1,,,,,アールダブリューエイチ,0
1027,4013303006361,新規,0,2022-11-04,2022-11-04,合同会社ＨＯＲＩＧＵＣＨＩ,,合同会社,東京都,豊島区,高松１丁目６－８,,13,116,1710042,,,,,,,2022-11-04,1,,,,,ホリグチ,0
1031,4020001148782,新規,0,2022-11-04,2022-11-04,株式会社ＩＧホールディングス,,株式会社,神奈川県,川崎市幸区,堀川町５８０番地ソリッドスクエア,,14,132,2120013,,,,,,,2022-11-04,1,,,,,アイジーホールディングス,0
1032,4020001148849,新規,0,2022-11-04,2022-11-04,株式会社Ｋ＆Ｋ,,株式会社,神奈川県,横浜市南区,日枝町１丁目３５番２号６０４,,14,105,2320011,,,,,,,2022-11-04,1,,,,,ケーアンドケー,0
1033,4020001148857,新規,0,2022-11-04,2022-11-04,株式会社清水設備,,株式会社,神奈川県,川崎市中原区,新丸子東１丁目７９１番地３朝日サンライズ多摩川３０６号,,14,133,2110004,,,,,,,2022-11-04,1,,,,,シミズセツビ,0
1036,4020003022663,新規,0,2022-11-04,2022-11-04,合同会社ＮＡＭ,,合同会社,神奈川県,横浜市西区,浅間町１丁目４番３号ウィザードビル４０２,,14,103,2200072,,,,,,,2022-11-04,1,,,,,ナム,0
1047,4021003012324,新規,0,2022-11-04,2022-11-04,合同会社ＹＵＣＣＡ,,合同会社,神奈川県,高座郡寒川町,一之宮９丁目３番２号,,14,321,2530111,,,,,,,2022-11-04,1,,,,,,0
1050,4030001150812,新規,0,2022-11-04,2022-11-04,株式会社エクシードモート,,株式会社,埼玉県,八潮市,大字大曽根１４２７－１,,11,234,3400834,,,,,,,2022-11-04,1,,,,,エクシードモート,0
1051,4030003020501,新規,0,2022-11-04,2022-11-04,合同会社Ａｒｃｈｉｔｅｃｔ　Ｓｕｐｐｏｒｔ　ＯＲＩＯＮ,,合同会社,埼玉県,さいたま市浦和区,前地２丁目９番２１号,,11,107,3300053,,,,,,,2022-11-04,1,,,,,アーキテクトサポートオリオン,0
1057,4040001125714,新規,0,2022-11-04,2022-11-04,株式会社協伸工業,,株式会社,千葉県,千葉市中央区,川戸町２８５番地４,,12,101,2600802,,,,,,,2022-11-04,1,,,,,キョウシンコウギョウ,0
1060,4040003021192,新規,0,2022-11-04,2022-11-04,ＤＴセンター合同会社,,合同会社,千葉県,松戸市,西馬橋幸町１７番地八州建機（株）寮２０４号,00128351,12,207,2710047,,,,,,,2022-11-04,1,,,,,ディーティーセンター,0
1064,4050003006969,新規,0,2022-11-04,2022-11-04,茨城ＢＡＣＫＢＯＮＥ合同会社,,合同会社,茨城県,笠間市,笠間２２５５番地３,,08,216,3091611,,,,,,,2022-11-04,1,,,,,イバラキバックボーン,0
1065,4060001035416,新規,0,2022-11-04,2022-11-04,株式会社ＳＡＫＵＬＡＢＯ,,株式会社,栃木県,宇都宮市,白沢町１８２５番地１０,,09,201,3291102,,,,,,,2022-11-04,1,,,,,サクラボ,0
1068,4060003004294,新規,0,2022-11-04,2022-11-04,合同会社ローズ,,合同会社,栃木県,芳賀郡茂木町,大字茂木２７０番地,,09,343,3213531,,,,,,,2022-11-04,1,,,,,ローズ,0
1069,4070001039787,新規,0,2022-11-04,2022-11-04,株式会社ＹＧトラスト,,株式会社,群馬県,伊勢崎市,宮子町１４４４番地１,,10,204,3720801,,,,,,,2022-11-04,1,,,,,ワイジートラスト,0
1070,4070001039804,新規,0,2022-11-04,2022-11-04,株式会社ＴＰエンジニアリング,,株式会社,群馬県,桐生市,広沢町６丁目２３６－１－１０２,,10,203,3760013,,,,,,,2022-11-04,1,,,,,ティーピーエンジニアリング,0
1071,4070003004681,新規,0,2022-11-04,2022-11-04,合同会社ｈａｎｋ,,合同会社,群馬県,高崎市,山田町９番地１７,,10,202,3700066,,,,,,,2022-11-04,1,,,,,ハンク,0
1073,4080001025274,新規,0,2022-11-04,2022-11-04,ＲＳＳ株式会社,,株式会社,静岡県,静岡市駿河区,中島９０２,,22,102,4228046,,,,,,,2022-11-04,1,,,,,アールエスエス,0
1077,4080101023608,新規,0,2022-11-04,2022-11-04,株式会社遊心園,,株式会社,静岡県,伊豆市,熊坂４９番地の１５,,22,222,4102411,,,,,,,2022-11-04,1,,,,,ユウシンエン,0
1078,4080101023616,新規,0,2022-11-04,2022-11-04,株式会社ｔｅａｌ’ｓ,,株式会社,静岡県,富士宮市,大岩１７０６番地の３,,22,207,4180013,,,,,,,2022-11-04,1,,,,,ティールズ,0
1079,4080101023624,新規,0,2022-11-04,2022-11-04,株式会社ＯＮＥＳＥＬＦ,,株式会社,静岡県,沼津市,大手町５丁目５番３号森田ビル３Ｆ西,,22,203,4100801,,,,,,,2022-11-04,1,,,,,ワンセルフ,0
1081,4080105006294,新規,0,2022-11-04,2022-11-04,一般社団法人秀愛会,,その他の設立登記法人,静岡県,熱海市,和田浜南町７番１３号株式会社秀花園内,,22,205,4130023,,,,,,,2022-11-04,1,,,,,シュウアイカイ,0
1083,4090001017832,新規,0,2022-11-04,2022-11-04,株式会社ＴＳＳ,,株式会社,山梨県,甲府市,下石田２丁目２５番１３号,,19,201,4000046,,,,,,,2022-11-04,1,,,,,ティーエスエス,0
1084,4100001035832,新規,0,2022-11-04,2022-11-04,株式会社越商会,,株式会社,長野県,上高井郡高山村,大字高井２８番地１,,20,543,3820800,,,,,,,2022-11-04,1,,,,,コシショウカイ,0
1085,4100001035840,新規,0,2022-11-04,2022-11-04,株式会社リペア,,株式会社,長野県,長野市,大字鶴賀上千歳町１１３７番地２３長野１１３７ビル２階ＢＰＮ,,20,201,3800821,,,,,,,2022-11-04,1,,,,,リペア,0
1092,4120001249926,新規,0,2022-11-04,2022-11-04,株式会社ベト,,株式会社,大阪府,大阪市西成区,聖天下２丁目３番９号エイト聖天下２０８号,,27,122,5570012,,,,,,,2022-11-04,1,,,,,ベト,0
1093,4120001249975,新規,0,2022-11-04,2022-11-04,寛和寛泰株式会社,,株式会社,大阪府,大阪市淀川区,西宮原２丁目６－１６新大阪コーポビアネーズ１０２１号室,,27,123,5320004,,,,,,,2022-11-04,1,,,,,カンワカンタイ,0
1094,4120001249991,新規,0,2022-11-04,2022-11-04,株式会社ファーペン,,株式会社,大阪府,大阪市西成区,玉出中１丁目３番１４号,,27,122,5570044,,,,,,,2022-11-04,1,,,,,ファーペン,0
1095,4120001250009,新規,0,2022-11-04,2022-11-04,野村商店株式会社,,株式会社,大阪府,大阪市住之江区,西加賀屋４丁目５番１６号,,27,125,5590016,,,,,,,2022-11-04,1,,,,,ノムラショウテン,0
1096,4120001250058,新規,0,2022-11-04,2022-11-04,株式会社大河,,株式会社,大阪府,大阪市平野区,加美北９丁目４番４４号,,27,126,5470001,,,,,,,2022-11-04,1,,,,,タイガ,0
1097,4120001250066,新規,0,2022-11-04,2022-11-04,株式会社ＧＮＧ,,株式会社,大阪府,大阪市西区,新町１丁目７番３号戎四ツ橋ビル５Ｆ－３,,27,106,5500013,,,,,,,2022-11-04,1,,,,,ジーエヌジー,0
1098,4120001250082,新規,0,2022-11-04,2022-11-04,株式会社Ｌｙｓ,,株式会社,大阪府,大阪市旭区,千林２丁目１５番１２号,,27,117,5350012,,,,,,,2022-11-04,1,,,,,リース,0
1099,4120001250116,新規,0,2022-11-04,2022-11-04,株式会社ジャンプ,,株式会社,大阪府,枚方市,茄子作３丁目３６番２号,,27,210,5730071,,,,,,,2022-11-04,1,,,,,ジャンプ,0
1100,4120001250157,新規,0,2022-11-04,2022-11-04,株式会社アストラ,,株式会社,大阪府,大阪市中央区,南船場２丁目６番２号,,27,128,5420081,,,,,,,2022-11-04,1,,,,,アストラ,0
1106,4120003022760,新規,0,2022-11-04,2022-11-04,ＩＮＦＩＮＥＲＧＹ合同会社,,合同会社,大阪府,大阪市西区,南堀江３丁目７番１３－１１０３号インペリアルスイート南堀江,,27,106,5500015,,,,,,,2022-11-04,1,,,,,インフィナジー,0
1107,4120003022769,新規,0,2022-11-04,2022-11-04,合同会社ＳｍａｒｔｙＦｉｓｈ,,合同会社,大阪府,大阪市天王寺区,烏ケ辻１丁目２番２２号,,27,109,5430042,,,,,,,2022-11-04,1,,,,,スマーティフィッシュ,0
1108,4120003022785,新規,0,2022-11-04,2022-11-04,合同会社ｃｌｅｙｅｒａ,,合同会社,大阪府,大阪市西区,川口４丁目４番１８号,,27,106,5500021,,,,,,,2022-11-04,1,,,,,クレイラ,0
1112,4120101066453,新規,0,2022-11-04,2022-11-04,株式会社ＹＵＩＴＳＵＭＵＮＩ,,株式会社,大阪府,泉大津市,旭町２３番２０号レストハイツ旭Ｄ棟２０１号,,27,206,5950025,,,,,,,2022-11-04,1,,,,,ユイイツムニ,0
1115,4120903004354,新規,0,2022-11-04,2022-11-04,合同会社ＡＬＢＥＳ,,合同会社,大阪府,吹田市,長野東２６番８５号,,27,205,5650816,,,,,,,2022-11-04,1,,,,,アルベス,0
1116,4122003002445,新規,0,2022-11-04,2022-11-04,ｆａｎ合同会社,,合同会社,大阪府,柏原市,国分市場２丁目７番３６号５０２号室フローラルマンション,,27,221,5820022,,,,,,,2022-11-04,1,,,,,ファン,0
1118,4130001073012,新規,0,2022-11-04,2022-11-04,株式会社藤建,,株式会社,京都府,京都市左京区,岩倉幡枝町２００２番地,,26,103,6060015,,,,,,,2022-11-04,1,,,,,フジケン,0
1121,4140001127898,新規,0,2022-11-04,2022-11-04,株式会社ｓｌｏｗｌｙ,,株式会社,兵庫県,西宮市,甲子園七番町９番２５号,,28,204,6638177,,,,,,,2022-11-04,1,,,,,スローリー,0
1122,4140001127948,新規,0,2022-11-04,2022-11-04,Ｄ．ｇｒａｐｈ株式会社,,株式会社,兵庫県,姫路市,東駅前町１００番地１２０６号,,28,201,6700926,,,,,,,2022-11-04,1,,,,,ディーグラフ,0
1123,4140001127956,新規,0,2022-11-04,2022-11-04,株式会社ＮＩＶＥＮ,,株式会社,兵庫県,神戸市灘区,森後町２丁目３番１９号,,28,102,6570028,,,,,,,2022-11-04,1,,,,,ニーベン,0
1124,4140001127964,新規,0,2022-11-04,2022-11-04,オスモメディカル株式会社,,株式会社,兵庫県,高砂市,米田町古新１９０番地の３,,28,216,6760802,,,,,,,2022-11-04,1,,,,,オスモメディカル,0
1125,4140001127980,新規,0,2022-11-04,2022-11-04,株式会社ラクソン,,株式会社,兵庫県,川西市,水明台３丁目６番地の３３,,28,217,6660116,,,,,,,2022-11-04,1,,,,,ラクソン,0
1126,4140001127989,新規,0,2022-11-04,2022-11-04,株式会社一葉,,株式会社,兵庫県,高砂市,荒井町東本町１番５号,,28,216,6760017,,,,,,,2022-11-04,1,,,,,イチヨウ,0
1128,4140003018303,新規,0,2022-11-04,2022-11-04,合同会社ｒｕｋｋａ,,合同会社,兵庫県,宝塚市,仁川北３丁目７番９号,,28,214,6650061,,,,,,,2022-11-04,1,,,,,ルッカ,0
1130,4150001025928,新規,0,2022-11-04,2022-11-04,株式会社ＯＨＡＮＡ,,株式会社,奈良県,大和高田市,神楽２丁目６番２２号,,29,202,6350025,,,,,,,2022-11-04,1,,,,,オハナ,0
1131,4150001025936,新規,0,2022-11-04,2022-11-04,株式会社いつかきっと,,株式会社,奈良県,奈良市,六条西１丁目１２番８－２号,,29,201,6308044,,,,,,,2022-11-04,1,,,,,イツカキット,0
1135,4160001024607,新規,0,2022-11-04,2022-11-04,株式会社Ｇｉｎ２,,株式会社,滋賀県,東近江市,建部堺町２５８番地２０,,25,213,5270004,,,,,,,2022-11-04,1,,,,,ギンツー,0
1136,4160001024615,新規,0,2022-11-04,2022-11-04,株式会社田中庭園,,株式会社,滋賀県,野洲市,比留田６２０番地５,,25,210,5202422,,,,,,,2022-11-04,1,,,,,タナカテイエン,0
1137,4160003002718,新規,0,2022-11-04,2022-11-04,Ｋ１コマース合同会社,,合同会社,滋賀県,草津市,大路１丁目１１番１４号フロント草津ビル５Ｆ（シガコネクト内）,,25,206,5250032,,,,,,,2022-11-04,1,,,,,ケイワンコマース,0
1147,4180001153643,新規,0,2022-11-04,2022-11-04,株式会社アイワコーポレーション,,株式会社,愛知県,愛知郡東郷町,大字春木字白土１番地２９１,,23,302,4700162,,,,,,,2022-11-04,1,,,,,アイワコーポレーション,0
1148,4180001153668,新規,0,2022-11-04,2022-11-04,株式会社Ｇｒａｎｄ　ｍｅｒ,,株式会社,愛知県,稲沢市,重本２丁目３４番地,,23,220,4928261,,,,,,,2022-11-04,1,,,,,グランメール,0
1154,4190001029909,新規,0,2022-11-04,2022-11-04,ＲＩＳＥ株式会社,,株式会社,三重県,津市,桜橋１丁目６１４番地３,,24,201,5140003,,,,,,,2022-11-04,1,,,,,ライズ,0
1164,4220003003395,新規,0,2022-11-04,2022-11-04,合同会社ＳＷＥＥＰＥＲ,,合同会社,石川県,金沢市,神宮寺３丁目６番１号ガレージベースＡ棟,,17,201,9200806,,,,,,,2022-11-04,1,,,,,スウィーパー,0
1169,4240001060610,新規,0,2022-11-04,2022-11-04,株式会社ＮＩＴ,,株式会社,広島県,広島市南区,青崎１丁目１０番８－２号,,34,103,7340053,,,,,,,2022-11-04,1,,,,,エヌアイティー,0
1170,4240001060619,新規,0,2022-11-04,2022-11-04,株式会社風知草,,株式会社,広島県,広島市佐伯区,河内南２丁目３７番９号,,34,108,7315153,,,,,,,2022-11-04,1,,,,,フウチソウ,0
1178,4260001037375,新規,0,2022-11-04,2022-11-04,株式会社ナカタイ,,株式会社,岡山県,倉敷市,中畝７丁目５番２３号,,33,202,7128051,,,,,,,2022-11-04,1,,,,,ナカタイ,0
1181,4280001008812,新規,0,2022-11-04,2022-11-04,株式会社えがおライフ島根,,株式会社,島根県,出雲市,大社町修理免６８３番地６,,32,203,6990721,,,,,,,2022-11-04,1,,,,,エガオライフシマネ,0
1184,4290001099438,新規,0,2022-11-04,2022-11-04,株式会社ｓｏｉ,,株式会社,福岡県,福岡市中央区,平尾３丁目１７－１６－１０１,,40,133,8100014,,,,,,,2022-11-04,1,,,,,ソーイ,0
1185,4290001099454,新規,0,2022-11-04,2022-11-04,株式会社Ｒｅ‐ｎｏｗ,,株式会社,福岡県,福岡市博多区,博多駅南４丁目１２－３ルノアス博多３０６,,40,132,8120016,,,,,,,2022-11-04,1,,,,,リナウ,0
1186,4290001099462,新規,0,2022-11-04,2022-11-04,株式会社森税務会計研究所,,株式会社,福岡県,糸島市,神在東４丁目１番１１号,,40,230,8191120,,,,,,,2022-11-04,1,,,,,モリゼイムカイケイケンキュウショ,0
1188,4290005018848,新規,0,2022-11-04,2022-11-04,一般社団法人つなぐ共生会,,その他の設立登記法人,福岡県,福岡市南区,野間２丁目７番２２号,,40,134,8150041,,,,,,,2022-11-04,1,,,,,ツナグキョウセイカイ,0
1192,4300001013116,新規,0,2022-11-04,2022-11-04,株式会社ネクスト,,株式会社,佐賀県,唐津市,西寺町４９０番地２クラブエイリック唐津中央ロイヤルテラス３０５号,,41,202,8470815,,,,,,,2022-11-04,1,,,,,ネクスト,0
1193,4300001013124,新規,0,2022-11-04,2022-11-04,株式会社Ｍｓ,,株式会社,佐賀県,小城市,芦刈町下古賀２０４番地,00128356,41,208,8490312,,,,,,,2022-11-04,1,,,,,エムズ,0
1197,4310003004475,新規,0,2022-11-04,2022-11-04,合同会社ｂａｕｍ７７,,合同会社,長崎県,佐世保市,須田尾町４４９番地５,,42,202,8570831,,,,,,,2022-11-04,1,,,,,バームナナナナ,0
1200,4320003003939,新規,0,2022-11-04,2022-11-04,ＡＸＩＡＲＣ１３合同会社,,合同会社,大分県,大分市,明野西１丁目１１番３－１号,,44,201,8700164,,,,,,,2022-11-04,1,,,,,アクシアークサーティーン,0
1201,4330001030240,新規,0,2022-11-04,2022-11-04,株式会社ｍａｒｕｔａｋａ　Ｇｒｏｕｐ,,株式会社,熊本県,玉名市,岱明町高道２２４３番地,,43,206,8690202,,,,,,,2022-11-04,1,,,,,マルタカグループ,0
1202,4330001030265,新規,0,2022-11-04,2022-11-04,株式会社どろんこファーム,,株式会社,熊本県,熊本市北区,植木町味取９８番地１,,43,105,8610105,,,,,,,2022-11-04,1,,,,,ドロンコファーム,0
1208,4340001025149,新規,0,2022-11-04,2022-11-04,株式会社ｋｅｉ基,,株式会社,鹿児島県,南さつま市,加世田武田５１８番地２,,46,220,8970002,,,,,,,2022-11-04,1,,,,,ケイキ,0
1211,4350003004208,新規,0,2022-11-04,2022-11-04,合同会社ＳＫＹ,,合同会社,宮崎県,東諸県郡綾町,大字南俣２６３番地１４,,45,383,8801303,,,,,,,2022-11-04,1,,,,,スカイ,0
1212,4360001031137,新規,0,2022-11-04,2022-11-04,ユイエナジー株式会社,,株式会社,沖縄県,那覇市,首里鳥堀町４丁目６０番地９,,47,201,9030805,,,,,,,2022-11-04,1,,,,,ユイエナジー,0
1217,4370003005880,新規,0,2022-11-04,2022-11-04,合同会社ｂｒｉｇｈｔ,,合同会社,宮城県,仙台市宮城野区,岩切字小児４９－２マールシティ１０２,,04,102,9830821,,,,,,,2022-11-04,1,,,,,ブライト,0
1220,4390001017067,新規,0,2022-11-04,2022-11-04,株式会社式沢工業,,株式会社,山形県,天童市,中里３丁目３番２号,,06,210,9940064,,,,,,,2022-11-04,1,,,,,シキザワコウギョウ,0
1222,4400001016050,新規,0,2022-11-04,2022-11-04,株式会社ＴＨＤ,,株式会社,岩手県,花巻市,石鳥谷町八重畑第５地割３９番地１,,03,205,0283142,,,,,,,2022-11-04,1,,,,,ティーエイチディー,0
1226,4410003003715,新規,0,2022-11-04,2022-11-04,ＴｏｍｏＮｉｃｅ合同会社,,合同会社,秋田県,大仙市,藤木字乙新藤木６５番地９,,05,212,0141412,,,,,,,2022-11-04,1,,,,,トモナイス,0
1231,4430001087733,新規,0,2022-11-04,2022-11-04,株式会社松文,,株式会社,北海道,札幌市厚別区,厚別北五条４丁目４番２１号,,01,108,0040075,,,,,,,2022-11-04,1,,,,,マツモン,0
1238,4480001011911,新規,0,2022-11-04,2022-11-04,株式会社ＳＮＯＲＩＭＵ,,株式会社,徳島県,徳島市,論田町本浦下９４番地４,,36,201,7708011,,,,,,,2022-11-04,1,,,,,スノリム,0
1242,4500001024563,新規,0,2022-11-04,2022-11-04,株式会社Ｂｒａｉｄｓ＆Ｃｏ．,,株式会社,愛媛県,西予市,宇和町卯之町１丁目３６０番地１片岡ビル２０１号,,38,214,7970015,,,,,,,2022-11-04,1,,,,,ブレイズアンドコー,0
1243,4500001024571,新規,0,2022-11-04,2022-11-04,株式会社日本料理伊藤,,株式会社,愛媛県,今治市,常盤町７丁目４番４号,,38,202,7940015,,,,,,,2022-11-04,1,,,,,ニホンリョウリイトウ,0
1250,5010001230508,新規,0,2022-11-04,2022-11-04,株式会社イデアムーヴワークス,,株式会社,東京都,千代田区,鍛冶町２丁目１０番１１号,,13,101,1010044,,,,,,,2022-11-04,1,,,,,イデアムーヴワークス,0
1251,5010001230516,新規,0,2022-11-04,2022-11-04,瀧澤不動産株式会社,,株式会社,東京都,千代田区,神田須田町１丁目２４番１０号ＫＡＮＤＡＣＲＯＳＳビル５階,,13,101,1010041,,,,,,,2022-11-04,1,,,,,タキザワフドウサン,0
1252,5010001230540,新規,0,2022-11-04,2022-11-04,株式会社エスクロワール,,株式会社,東京都,中央区,銀座２丁目１６番２－２０２号,,13,102,1040061,,,,,,,2022-11-04,1,,,,,エスクロワール,0
1253,5010001230549,新規,0,2022-11-04,2022-11-04,株式会社Ｆｕｇａ,,株式会社,東京都,中央区,八丁堀２丁目６番１号日本生命東八重洲ビル５階,,13,102,1040032,,,,,,,2022-11-04,1,,,,,フーガ,0
1258,5010003038973,新規,0,2022-11-04,2022-11-04,柿元デザイン企画合同会社,,合同会社,東京都,千代田区,丸の内１丁目１１－１パシフィックセンチュリープレイス丸の内８階,,13,101,1000005,,,,,,,2022-11-04,1,,,,,カキモトデザインキカク,0
1261,5010005035738,新規,0,2022-11-04,2022-11-04,一般財団法人セレ奨学財団,,その他の設立登記法人,東京都,中央区,京橋３丁目７番１号相互館１１０タワー５階,,13,102,1040031,,,,,,,2022-11-04,1,,,,,セレショウガクザイダン,0
1272,5010401170584,新規,0,2022-11-04,2022-11-04,株式会社タイプ,,株式会社,東京都,港区,芝２丁目５番２２号坂詰ビル３階,,13,103,1050014,,,,,,,2022-11-04,1,,,,,タイプ,0
1273,5010401170626,新規,0,2022-11-04,2022-11-04,株式会社夏目,,株式会社,東京都,港区,西麻布１丁目１１番１０号ビルマーサ２０３号室,,13,103,1060031,,,,,,,2022-11-04,1,,,,,ナツメ,0
1274,5010401170683,新規,0,2022-11-04,2022-11-04,３Ｓ日本株式会社,,株式会社,東京都,港区,南青山４丁目１７番１３－１０６号,,13,103,1070062,,,,,,,2022-11-04,1,,,,,スリーエスニホン,0
1277,5010405021528,新規,0,2022-11-04,2022-11-04,ＥＳＲ本星崎２一般社団法人,,その他の設立登記法人,東京都,港区,浜松町１丁目２０番１０号ライオネス浜松町５０６号室,,13,103,1050013,,,,,,,2022-11-04,1,,,,,イーエスアールモトホシザキニ,0
1280,5010501049571,新規,0,2022-11-04,2022-11-04,グラウント株式会社,,株式会社,東京都,台東区,浅草橋３丁目５番８号,,13,106,1110053,,,,,,,2022-11-04,1,,,,,グラウント,0
1282,5010701043416,新規,0,2022-11-04,2022-11-04,株式会社メタニカ,,株式会社,東京都,品川区,東五反田２丁目２番２号８階,,13,109,1410022,,,,,,,2022-11-04,1,,,,,メタニカ,0
1283,5010701043424,新規,0,2022-11-04,2022-11-04,株式会社ＴｉｎＹ,,株式会社,東京都,品川区,旗の台２丁目１番１９号,,13,109,1420064,,,,,,,2022-11-04,1,,,,,タイニー,0
1287,5010801033408,新規,0,2022-11-04,2022-11-04,ＳｈｅＴｒａｎｓｌａｔｅｓ株式会社,,株式会社,東京都,大田区,田園調布本町３３番地７号,,13,111,1450072,,,,,,,2022-11-04,1,,,,,シートランスレーツ,0
1293,5010903007755,新規,0,2022-11-04,2022-11-04,Ｄ‐ｄｕｃｋ合同会社,,合同会社,東京都,世田谷区,玉堤１丁目９番１９号,,13,112,1580087,,,,,,,2022-11-04,1,,,,,ディーダック,0
1298,5011001150687,新規,0,2022-11-04,2022-11-04,株式会社ＣＯＥＤＡＳ,,株式会社,東京都,渋谷区,神宮前６丁目２３番４号桑野ビル２階,,13,113,1500001,,,,,,,2022-11-04,1,,,,,コエダス,0
1300,5011003015649,新規,0,2022-11-04,2022-11-04,合同会社ＥＬＬＥＤＳ,,合同会社,東京都,渋谷区,幡ヶ谷３丁目３８番１０－２０２号リビオレゾン渋谷笹塚,,13,113,1510072,,,,,,,2022-11-04,1,,,,,エルズ,0
1304,5011101100716,新規,0,2022-11-04,2022-11-04,一葉堂株式会社,,株式会社,東京都,新宿区,北新宿４丁目３５番１０号,,13,104,1690074,,,,,,,2022-11-04,1,,,,,イチヨウドウ,0
1305,5011101100732,新規,0,2022-11-04,2022-11-04,株式会社Ｆ・Ｔ・Ｆパートナーズ,,株式会社,東京都,新宿区,新宿３丁目３５番１１号あぜみビル４階,,13,104,1600022,,,,,,,2022-11-04,1,,,,,エフティーエフパートナーズ,0
1310,5011501028631,新規,0,2022-11-04,2022-11-04,株式会社Ｄ‐ＡＸＥ,,株式会社,東京都,北区,西ケ原１丁目４８－１３,,13,117,1140024,,,,,,,2022-11-04,1,,,,,ディーアクス,0
1311,5011601026345,新規,0,2022-11-04,2022-11-04,株式会社ＴＤＣＣ,,株式会社,東京都,練馬区,南大泉３丁目７番１１号,,13,120,1780064,,,,,,,2022-11-04,1,,,,,ティーディーシーシー,0
1312,5011601026353,新規,0,2022-11-04,2022-11-04,株式会社マザー・リシャ,,株式会社,東京都,練馬区,旭丘１丁目６７番５号森ビル２Ｆ,,13,120,1760005,,,,,,,2022-11-04,1,,,,,マザーリシャ,0
1313,5011801041499,新規,0,2022-11-04,2022-11-04,株式会社佐川工務店,,株式会社,東京都,足立区,保塚町１０番２３号,,13,121,1210072,,,,,,,2022-11-04,1,,,,,サガワコウムテン,0
1315,5012301013195,新規,0,2022-11-04,2022-11-04,大野設計株式会社,,株式会社,東京都,町田市,大蔵町１５９－３ローヤルシティ鶴川５０２,,13,209,1950062,,,,,,,2022-11-04,1,,,,,オオノセッケイ,0
1318,5012401039818,新規,0,2022-11-04,2022-11-04,株式会社バイオプラスワン,,株式会社,東京都,三鷹市,牟礼５丁目３番５号,,13,204,1810002,,,,,,,2022-11-04,1,,,,,バイオプラスワン,0
1319,5012701017333,新規,0,2022-11-04,2022-11-04,株式会社ＪＵＭＢＬＥ　ＧＡＲＡＧＥ,,株式会社,東京都,小平市,仲町６３２番地の７,,13,211,1870042,,,,,,,2022-11-04,1,,,,,ジャンブルガレージ,0
1324,5013301049881,新規,0,2022-11-04,2022-11-04,ネーションブリッジ株式会社,,株式会社,東京都,豊島区,上池袋３丁目４７－９－４Ｆ－６号室,,13,116,1700012,,,,,,,2022-11-04,1,,,,,ネーションブリッジ,0
1330,5020001148773,新規,0,2022-11-04,2022-11-04,株式会社ＡＭ,,株式会社,神奈川県,横浜市港北区,錦が丘二丁目１０番,,14,109,2220013,,,,,,,2022-11-04,1,,,,,エーエム,0
1331,5020001148848,新規,0,2022-11-04,2022-11-04,株式会社メインパートナー,,株式会社,神奈川県,横浜市鶴見区,北寺尾２丁目１３番１８号,,14,101,2300074,,,,,,,2022-11-04,1,,,,,メインパートナー,0
1332,5020001148864,新規,0,2022-11-04,2022-11-04,株式会社アップライト,,株式会社,神奈川県,川崎市宮前区,宮前平１丁目６－１２－２０５,,14,136,2160006,,,,,,,2022-11-04,1,,,,,アップライト,0
1338,5020003022646,新規,0,2022-11-04,2022-11-04,合同会社ネクストイノベーション,,合同会社,神奈川県,横浜市中区,曙町１丁目３番地－藤和伊勢佐木町ハイタウン２２４,,14,104,2310057,,,,,,,2022-11-04,1,,,,,ネクストイノベーション,0
1339,5020003022654,新規,0,2022-11-04,2022-11-04,合同会社ティーアイシー,,合同会社,神奈川県,横浜市南区,共進町１丁目１０番地,,14,105,2320015,,,,,,,2022-11-04,1,,,,,ティーアイシー,0
1340,5020003022662,新規,0,2022-11-04,2022-11-04,Ｇ＆Ａ合同会社,,合同会社,神奈川県,横浜市中区,福富町西通５番地５永島１階,,14,104,2310042,,,,,,,2022-11-04,1,,,,,ギアンドア,0
1346,5021001077343,新規,0,2022-11-04,2022-11-04,株式会社Ｑｕａｔｔｒｏ,,株式会社,神奈川県,藤沢市,本鵠沼５丁目３番１８－１号,00128344,14,205,2510028,,,,,,,2022-11-04,1,,,,,クアトロ,0
1350,5030001150852,新規,0,2022-11-04,2022-11-04,テクノアップ・ガーデン株式会社,,株式会社,埼玉県,春日部市,樋堀２０８番地７,00128342,11,214,3440005,,,,,,,2022-11-04,1,,,,,テクノアップガーデン,0
1351,5030001150935,新規,0,2022-11-04,2022-11-04,株式会社カンタービレ,,株式会社,埼玉県,吉川市,美南５丁目７番地１,,11,243,3420038,,,,,,,2022-11-04,1,,,,,カンタービレ,0
1366,5050001051891,新規,0,2022-11-04,2022-11-04,ＳｋｙＬａｎｃｅｒ株式会社,,株式会社,茨城県,那珂市,額田南郷３５８番地２,,08,226,3110107,,,,,,,2022-11-04,1,,,,,スカイランサー,0
1369,5050003006976,新規,0,2022-11-04,2022-11-04,アロフト合同会社,,合同会社,茨城県,土浦市,烏山３丁目９３６番地,,08,203,3000836,,,,,,,2022-11-04,1,,,,,アロフト,0
1372,5060005010026,新規,0,2022-11-04,2022-11-04,一般社団法人ガラット,,その他の設立登記法人,栃木県,宇都宮市,下栗町２２９１番地１３コーポアルファ１０５号室,,09,201,3210923,,,,,,,2022-11-04,1,,,,,ガラット,0
1375,5070001039786,新規,0,2022-11-04,2022-11-04,株式会社ナチュラルスイッチオン,,株式会社,群馬県,高崎市,貝沢町４７８番地１シャトレロザージュ１０１号,,10,202,3700042,,,,,,,2022-11-04,1,,,,,ナチュラルスイッチオン,0
1376,5070001039794,新規,0,2022-11-04,2022-11-04,株式会社リヴィナーワークス,,株式会社,群馬県,桐生市,相生町４丁目６５番地の３０,,10,203,3760011,,,,,,,2022-11-04,1,,,,,リヴィナーワークス,0
1380,5080101023607,新規,0,2022-11-04,2022-11-04,株式会社ｅｎｓｓｉｓｔ,,株式会社,静岡県,沼津市,下香貫前原１４７６番地の１,,22,203,4100822,,,,,,,2022-11-04,1,,,,,エンシスト,0
1401,5120001249974,新規,0,2022-11-04,2022-11-04,株式会社ＹＷＡ,,株式会社,大阪府,大阪市中央区,久太郎町１丁目９－１０プレサンス東本町ＶＯＬ．２、５０２号室,,27,128,5410056,,,,,,,2022-11-04,1,,,,,ワイダブリュエー,0
1402,5120001249982,新規,0,2022-11-04,2022-11-04,シクマ株式会社,,株式会社,大阪府,大阪市中央区,東心斎橋１丁目９番６号シティコーポ心斎橋２０１号,,27,128,5420083,,,,,,,2022-11-04,1,,,,,シクマ,0
1403,5120001250057,新規,0,2022-11-04,2022-11-04,株式会社アスヘコネクト,,株式会社,大阪府,大阪市中央区,平野町４丁目２番３号,,27,128,5410046,,,,,,,2022-11-04,1,,,,,アスヘコネクト,0
1404,5120001250065,新規,0,2022-11-04,2022-11-04,Ｅ．Ｇ．プロジェクト株式会社,,株式会社,大阪府,大阪市淀川区,東三国４丁目１０番２号,,27,123,5320002,,,,,,,2022-11-04,1,,,,,イージープロジェクト,0
1405,5120003022776,新規,0,2022-11-04,2022-11-04,合同会社アステックソリューション,,合同会社,大阪府,大阪市北区,梅田２丁目５－１３桜橋第一ビル３０４号,,27,127,5300001,,,,,,,2022-11-04,1,,,,,アステックソリューション,0
1407,5120901046678,新規,0,2022-11-04,2022-11-04,日本農園株式会社,,株式会社,大阪府,高槻市,安満東の町１番１号,,27,207,5691104,,,,,,,2022-11-04,1,,,,,ニホンノウエン,0
1408,5120901046694,新規,0,2022-11-04,2022-11-04,株式会社ＬＥＡＦ．ｐｌｕｓ,,株式会社,大阪府,茨木市,双葉町８番１９号の２,,27,211,5670829,,,,,,,2022-11-04,1,,,,,リーフプラス,0
1414,5140001127880,新規,0,2022-11-04,2022-11-04,株式会社互縁,,株式会社,兵庫県,姫路市,東山１６１番地１ソレイユ東山１－２０２,,28,201,6728014,,,,,,,2022-11-04,1,,,,,ゴエン,0
1415,5140001127939,新規,0,2022-11-04,2022-11-04,株式会社サードライフ,,株式会社,兵庫県,神戸市中央区,琴ノ緒町５丁目５番９号,,28,110,6510094,,,,,,,2022-11-04,1,,,,,サードライフ,0
1416,5140001127947,新規,0,2022-11-04,2022-11-04,株式会社Ｓｉｇｎ,,株式会社,兵庫県,姫路市,伊伝居３番地４ＭＡＧＩＸ３０１,,28,201,6700871,,,,,,,2022-11-04,1,,,,,サイン,0
1417,5140001127955,新規,0,2022-11-04,2022-11-04,株式会社ＳＵＮ・ＮＥＸＵＳ,,株式会社,兵庫県,たつの市,揖西町土師９４９－３,,28,229,6794017,,,,,,,2022-11-04,1,,,,,サンネクサス,0
1418,5140001127963,新規,0,2022-11-04,2022-11-04,株式会社山榮通商,,株式会社,兵庫県,加東市,南山４丁目１番地２６,,28,228,6731341,,,,,,,2022-11-04,1,,,,,サンエイツウショウ,0
1419,5140001127971,新規,0,2022-11-04,2022-11-04,株式会社リノア,,株式会社,兵庫県,尼崎市,立花町１丁目５－２０－２Ｆ,,28,202,6610025,,,,,,,2022-11-04,1,,,,,リノア,0
1421,5140003018302,新規,0,2022-11-04,2022-11-04,合同会社エムアンドティー,,合同会社,兵庫県,神戸市西区,井吹台西町８丁目２番地の１－１０９号,,28,111,6512243,,,,,,,2022-11-04,1,,,,,エムアンドティー,0
1424,5150001025919,新規,0,2022-11-04,2022-11-04,株式会社マスイ工務店,,株式会社,奈良県,五條市,田園２丁目１３番地の７,,29,207,6370093,,,,,,,2022-11-04,1,,,,,マスイコウムテン,0
1425,5150001025927,新規,0,2022-11-04,2022-11-04,株式会社Ｎｉｋｋｏ　Ａｕｔｏ,,株式会社,奈良県,奈良市,北之庄西町１丁目１２番地７,,29,201,6308452,,,,,,,2022-11-04,1,,,,,ニッコーオート,0
1429,5160001024597,新規,0,2022-11-04,2022-11-04,株式会社トータルサービス,,株式会社,滋賀県,彦根市,高宮町１２３９番地５,,25,202,5220201,,,,,,,2022-11-04,1,,,,,トータルサービス,0
1430,5160001024614,新規,0,2022-11-04,2022-11-04,株式会社テラムラ空調,,株式会社,滋賀県,彦根市,日夏町１９１２番地１,,25,202,5220047,,,,,,,2022-11-04,1,,,,,テラムラクウチョウ,0
1439,5180001153634,新規,0,2022-11-04,2022-11-04,３ＢＡＳＥ株式会社,,株式会社,愛知県,名古屋市中村区,松重町４番５５号,,23,105,4500004,,,,,,,2022-11-04,1,,,,,スリーベース,0
1440,5180001153642,新規,0,2022-11-04,2022-11-04,株式会社ＴＨＥ　ＣＡＲＥ,,株式会社,愛知県,名古屋市中川区,野田３丁目２００番地,,23,110,4540912,,,,,,,2022-11-04,1,,,,,ザケア,0
1441,5180001153667,新規,0,2022-11-04,2022-11-04,共栄テック株式会社,,株式会社,愛知県,名古屋市西区,市場木町４３９番地,,23,104,4520805,,,,,,,2022-11-04,1,,,,,キョウエイテック,0
1442,5180001153675,新規,0,2022-11-04,2022-11-04,カルテットコンサルティング株式会社,,株式会社,愛知県,名古屋市西区,名駅１丁目１番１７号名駅ダイヤメイテツビル１１階,,23,104,4510045,,,,,,,2022-11-04,1,,,,,カルテットコンサルティング,0
1446,5190001029908,新規,0,2022-11-04,2022-11-04,株式会社ブレインファシリテーション,,株式会社,三重県,津市,久居新町８６８番地１,,24,201,5141118,,,,,,,2022-11-04,1,,,,,ブレインファシリテーション,0
1452,5200001040615,新規,0,2022-11-04,2022-11-04,株式会社ＴＲＡＩＬ,,株式会社,岐阜県,岐阜市,下鵜飼１７４１番地,,21,201,5011172,,,,,,,2022-11-04,1,,,,,トレイル,0
1453,5200001040623,新規,0,2022-11-04,2022-11-04,株式会社長野農建,,株式会社,岐阜県,岐阜市,今嶺３丁目７番４－３号,,21,201,5008388,,,,,,,2022-11-04,1,,,,,ナガノノウケン,0
1459,5220003003394,新規,0,2022-11-04,2022-11-04,合同会社Ｆｅｌｉｘ　ｏｒｉｓ,,合同会社,石川県,白山市,山島台３丁目８７番地,,17,210,9240836,,,,,,,2022-11-04,1,,,,,フェリックスオリス,0
1463,5240001060592,新規,0,2022-11-04,2022-11-04,株式会社豊心工業,,株式会社,広島県,福山市,引野町５７４８番地５,,34,207,7210942,,,,,,,2022-11-04,1,,,,,ホウシンコウギョウ,0
1473,5260003004091,新規,0,2022-11-04,2022-11-04,合同会社サロン総美,,合同会社,岡山県,倉敷市,中庄３３０２,,33,202,7100016,,,,,,,2022-11-04,1,,,,,サロンソウビ,0
1482,5290001099395,新規,0,2022-11-04,2022-11-04,株式会社Ｔａｓｃａｌ,,株式会社,福岡県,福岡市中央区,警固２丁目１３番１７号,,40,133,8100023,,,,,,,2022-11-04,1,,,,,タスキャル,0
1483,5290001099429,新規,0,2022-11-04,2022-11-04,株式会社ライジングフロアー,,株式会社,福岡県,春日市,大谷２丁目１２０番地,,40,218,8160831,,,,,,,2022-11-04,1,,,,,ライジングフロアー,0
1484,5290001099437,新規,0,2022-11-04,2022-11-04,株式会社ＣｏＣ,,株式会社,福岡県,福岡市博多区,古門戸町８番１１－３０３号,,40,132,8120029,,,,,,,2022-11-04,1,,,,,シーオーシー,0
1485,5290001099445,新規,0,2022-11-04,2022-11-04,防災アスリート株式会社,,株式会社,福岡県,福岡市中央区,平尾１丁目１３番２５号国泰ビル３０１号,,40,133,8100014,,,,,,,2022-11-04,1,,,,,ボウサイアスリート,0
1486,5290001099461,新規,0,2022-11-04,2022-11-04,株式会社トニートニー,,株式会社,福岡県,福岡市東区,箱崎３丁目２６番１０－４０１号,,40,131,8120053,,,,,,,2022-11-04,1,,,,,トニートニー,0
1487,5290001099478,新規,0,2022-11-04,2022-11-04,ＵＰ　ＣＲＥＡＴＥ株式会社,,株式会社,福岡県,福岡市中央区,天神１丁目１－１アクロス福岡１Ｆ－ｆａｂｂｉｔ,,40,133,8100001,,,,,,,2022-11-04,1,,,,,アップクリエイト,0
1490,5290003013148,新規,0,2022-11-04,2022-11-04,ＡＰＥＸコンサルティング合同会社,,合同会社,福岡県,福岡市中央区,谷１丁目５番３－１０１号,,40,133,8100031,,,,,,,2022-11-04,1,,,,,アペックスコンサルティング,0
1492,5290801029015,新規,0,2022-11-04,2022-11-04,株式会社ゼロワン,,株式会社,福岡県,築上郡吉富町,大字今吉２０番地３,,40,642,8710822,,,,,,,2022-11-04,1,,,,,ゼロワン,0
1493,5290801029023,新規,0,2022-11-04,2022-11-04,株式会社ＧＳＴｅｃ,,株式会社,福岡県,田川郡糸田町,４０９６番地２,,40,604,8221300,,,,,,,2022-11-04,1,,,,,ジーエステック,0
1496,5320003003938,新規,0,2022-11-04,2022-11-04,合同会社ＳＥＭＵＩ,,合同会社,大分県,大分市,豊饒３丁目８番２０号,,44,201,8700855,,,,,,,2022-11-04,1,,,,,セムイ,0
1498,5330001030248,新規,0,2022-11-04,2022-11-04,塩塚架設株式会社,,株式会社,熊本県,球磨郡多良木町,大字久米１７０２番地１,,43,505,8680503,,,,,,,2022-11-04,1,,,,,シオツカカセツ,0
1501,5340001025123,新規,0,2022-11-04,2022-11-04,株式会社ｌａｍｐ,,株式会社,鹿児島県,鹿屋市,新川町５３９番地,,46,203,8930015,,,,,,,2022-11-04,1,,,,,ランプ,0
1505,5350003004215,新規,0,2022-11-04,2022-11-04,合同会社Ｏｃｃｔｏ．Ｐａｔｈ,,合同会社,宮崎県,北諸県郡三股町,大字宮村２９１８番地５,,45,341,8891912,,,,,,,2022-11-04,1,,,,,オクトパス,0
1506,5370001049210,新規,0,2022-11-04,2022-11-04,株式会社キタザワ,,株式会社,宮城県,仙台市太白区,日本平１３番３号,,04,104,9820221,,,,,,,2022-11-04,1,,,,,キタザワ,0
1509,5380005012642,新規,0,2022-11-04,2022-11-04,一般社団法人日中共同市場促進会,,その他の設立登記法人,福島県,いわき市,好間町下好間字一町坪６８番地の１,,07,204,9701151,,,,,,,2022-11-04,1,,,,,ニッチュウキョウドウシジョウソクシンカイ,0
1510,5390001017066,新規,0,2022-11-04,2022-11-04,株式会社フルセ,,株式会社,山形県,山形市,大野目１丁目１１番６２－６号,,06,201,9900073,,,,,,,2022-11-04,1,,,,,フルセ,0
1521,5430003014437,新規,0,2022-11-04,2022-11-04,アガールアップ合同会社,,合同会社,北海道,札幌市西区,八軒五条東１丁目２番２２,,01,107,0630865,,,,,,,2022-11-04,1,,,,,アガールアップ,0
1523,5450001013835,新規,0,2022-11-04,2022-11-04,株式会社シナブロ,,株式会社,北海道,勇払郡占冠村,字上トマムＧＧ人財研修センター,,01,463,0792205,,,,,,,2022-11-04,1,,,,,,0
1525,5460001005740,新規,0,2022-11-04,2022-11-04,株式会社長岡商店,,株式会社,北海道,釧路市,昭和町４丁目７番１号,,01,206,0840903,,,,,,,2022-11-04,1,,,,,ナガオカショウテン,0
1527,5470001019319,新規,0,2022-11-04,2022-11-04,株式会社ピース,,株式会社,香川県,高松市,上林町３０９番地１,,37,201,7610302,,,,,,,2022-11-04,1,,,,,ピース,0
1528,5470001019327,新規,0,2022-11-04,2022-11-04,株式会社ＴＫＧ　ＥａｒｔｈＭＯＤ,,株式会社,香川県,観音寺市,有明町５番５－６７号,,37,205,7680062,,,,,,,2022-11-04,1,,,,,ティケージーアースモッド,0
1532,5480001011902,新規,0,2022-11-04,2022-11-04,株式会社吉本塗装,,株式会社,徳島県,三好市,三野町加茂野宮６５４番地１,,36,208,7712302,,,,,,,2022-11-04,1,,,,,ヨシモトトソウ,0
1535,5490001010317,新規,0,2022-11-04,2022-11-04,株式会社ｆａｌｌ設備,,株式会社,高知県,高知市,潮新町２丁目６番６号－３０７,,39,201,7818008,,,,,,,2022-11-04,1,,,,,フォールセツビ,0
1536,5500001024562,新規,0,2022-11-04,2022-11-04,株式会社毛利木型,,株式会社,愛媛県,四国中央市,金田町金川１０４６番地１,,38,213,7990123,,,,,,,2022-11-04,1,,,,,モウリキガタ,0
1544,6010001230580,新規,0,2022-11-04,2022-11-04,ＭｘＨ株式会社,,株式会社,東京都,文京区,本郷５丁目３３番１１－４０１号,,13,105,1130033,,,,,,,2022-11-04,1,,,,,エムエックスエイチ,0
1548,6010003038956,新規,0,2022-11-04,2022-11-04,合同会社和田春,,合同会社,東京都,中央区,銀座１丁目２２番１１号銀座大竹ビジデンス２階,,13,102,1040061,,,,,,,2022-11-04,1,,,,,ワダハル,0
1549,6010003038964,新規,0,2022-11-04,2022-11-04,紀尾井町第二合同会社,,合同会社,東京都,千代田区,紀尾井町１番３号,,13,101,1020094,,,,,,,2022-11-04,1,,,,,キオイチョウダイニ,0
1551,6010005035753,新規,0,2022-11-04,2022-11-04,フォーリングススクエア特定目的会社,,その他の設立登記法人,東京都,千代田区,丸の内３丁目１番１号東京共同会計事務所内,,13,101,1000005,,,,,,,2022-11-04,1,,,,,フォーリングススクエア,0
1552,6010101015386,新規,0,2022-11-04,2022-11-04,株式会社ＡＳＡ北野,,株式会社,東京都,八王子市,絹ケ丘１丁目５１番６号,,13,201,1920912,,,,,,,2022-11-04,1,,,,,アサキタノ,0
1565,6010401170567,新規,0,2022-11-04,2022-11-04,日本家全七福酒家株式会社,,株式会社,東京都,港区,新橋１丁目２番６号第一ホテル東京２階,,13,103,1050004,,,,,,,2022-11-04,1,,,,,ニホンカゼンシチフクシュカ,0
1566,6010401170575,新規,0,2022-11-04,2022-11-04,株式会社半チャーハン,,株式会社,東京都,港区,浜松町２丁目２番１５号浜松町ダイヤビル２Ｆ,,13,103,1050013,,,,,,,2022-11-04,1,,,,,ハンチャーハン,0
1571,6010501049570,新規,0,2022-11-04,2022-11-04,株式会社３Ａプロジェクト,,株式会社,東京都,台東区,上野６丁目１番６－７０８号,,13,106,1100005,,,,,,,2022-11-04,1,,,,,スリーエープロジェクト,0
1572,6010501049579,新規,0,2022-11-04,2022-11-04,滝沢商会株式会社,,株式会社,東京都,台東区,上野６丁目１番６号御徒町グリーンハイツ３０７号,,13,106,1100005,,,,,,,2022-11-04,1,,,,,タキザワショウカイ,0
1573,6010501049587,新規,0,2022-11-04,2022-11-04,Ｍｅｔａｄｒｅａｍ株式会社,,株式会社,東京都,台東区,台東２丁目２７番３号ＮＳＫビル１０Ｆ,,13,106,1100016,,,,,,,2022-11-04,1,,,,,メタドリーム,0
1576,6010701043415,新規,0,2022-11-04,2022-11-04,Ａｓｐｈａｓｅ株式会社,,株式会社,東京都,品川区,東品川５丁目９番１５－１００２号,,13,109,1400002,,,,,,,2022-11-04,1,,,,,アスフェーズ,0
1577,6010705003448,新規,0,2022-11-04,2022-11-04,一般社団法人Ｄａｔａ　ｆｏｒ　Ｓｏｃｉａｌ　Ｔｒａｎｓｆｏｒｍａｔｉｏｎ,,その他の設立登記法人,東京都,品川区,大崎１丁目１１番２号,,13,109,1410032,,,,,,,2022-11-04,1,,,,,データフォーソーシャルトランスフォーメーション,0
1579,6010801033407,新規,0,2022-11-04,2022-11-04,株式会社ＢＡＳＩＣ,,株式会社,東京都,大田区,池上７丁目２－７,,13,111,1460082,,,,,,,2022-11-04,1,,,,,ベーシック,0
1581,6010805002985,新規,0,2022-11-04,2022-11-04,一般社団法人散走ネットワーク,,その他の設立登記法人,東京都,大田区,南六郷３丁目１０－１６六郷ＢＡＳＥ,,13,111,1440045,,,,,,,2022-11-04,1,,,,,サンソウネットワーク,0
1583,6010901051630,新規,0,2022-11-04,2022-11-04,株式会社Ｊｆｏｒｗａｒｄ,,株式会社,東京都,世田谷区,瀬田３丁目１１番２８号,,13,112,1580095,,,,,,,2022-11-04,1,,,,,ジェイフォワード,0
1584,6010901051911,新規,0,2022-11-04,2022-11-04,株式会社アップルーム,,株式会社,東京都,世田谷区,池尻２丁目３３番１４号クレストビル５Ｆ,,13,112,1540001,,,,,,,2022-11-04,1,,,,,アップルーム,0
1586,6010903007746,新規,0,2022-11-04,2022-11-04,合同会社ＪＡＴＨ,,合同会社,東京都,世田谷区,太子堂３丁目３－４ＳｉｌｖｅｒＰａｌｅｔｔａ２０１,,13,112,1540004,,,,,,,2022-11-04,1,,,,,ジャス,0
1587,6010903007762,新規,0,2022-11-04,2022-11-04,合同会社ＵＳ,,合同会社,東京都,世田谷区,池尻４丁目１０番１号グレンパーク駒場Ｅ３０８,,13,112,1540001,,,,,,,2022-11-04,1,,,,,アス,0
1598,6011101100707,新規,0,2022-11-04,2022-11-04,株式会社銀湾,,株式会社,東京都,新宿区,天神町６４－１４,,13,104,1620808,,,,,,,2022-11-04,1,,,,,ギンワン,0
1599,6011101100731,新規,0,2022-11-04,2022-11-04,株式会社Ｐｅａｃｈ　Ｔｅｃｈ,,株式会社,東京都,新宿区,新宿１丁目３６番２号新宿第七葉山ビル３階,,13,104,1600022,,,,,,,2022-11-04,1,,,,,ピーチテック,0
1602,6011201024203,新規,0,2022-11-04,2022-11-04,株式会社Ａ‐１,,株式会社,東京都,中野区,南台２丁目４６番１０号ウッドビレッジ１０３,,13,114,1640014,,,,,,,2022-11-04,1,,,,,エーワン,0
1603,6011201024211,新規,0,2022-11-04,2022-11-04,株式会社大伸,,株式会社,東京都,中野区,江原町３丁目２０番３号,,13,114,1650023,,,,,,,2022-11-04,1,,,,,ダイシン,0
1612,6011701025758,新規,0,2022-11-04,2022-11-04,株式会社ベルテック,,株式会社,東京都,江戸川区,北小岩２丁目１番１６－１００３号ラ・ベルティ小岩,,13,123,1330051,,,,,,,2022-11-04,1,,,,,ベルテック,0
1616,6012401039817,新規,0,2022-11-04,2022-11-04,株式会社シルバーバックス,,株式会社,東京都,調布市,深大寺東町３丁目１２番地１８,,13,208,1820012,,,,,,,2022-11-04,1,,,,,シルバーバックス,0
1617,6012401039825,新規,0,2022-11-04,2022-11-04,株式会社ＹＪＭ,,株式会社,東京都,武蔵野市,吉祥寺本町１丁目１１番２１号,,13,203,1800004,,,,,,,2022-11-04,1,,,,,ワイジェイエム,0
1619,6012703002563,新規,0,2022-11-04,2022-11-04,龍翔商事合同会社,,合同会社,東京都,東村山市,栄町２丁目１６番地１０,,13,213,1890013,,,,,,,2022-11-04,1,,,,,リュウガショウジ,0
1629,6020001148772,新規,0,2022-11-04,2022-11-04,株式会社Ｔｗｏｂｙ,,株式会社,神奈川県,横浜市中区,本牧大里町３番５２－２号,,14,104,2310823,,,,,,,2022-11-04,1,,,,,ツーバイ,0
1630,6020001148789,新規,0,2022-11-04,2022-11-04,株式会社ふくる,,株式会社,神奈川県,横浜市旭区,東希望が丘５２番地２,,14,112,2410826,,,,,,,2022-11-04,1,,,,,フクル,0
1631,6020001148806,新規,0,2022-11-04,2022-11-04,株式会社国際華文教育センター,,株式会社,神奈川県,横浜市中区,吉浜町２番地６６,,14,104,2310024,,,,,,,2022-11-04,1,,,,,コクサイカブンキョウイクセンター,0
1632,6020001148847,新規,0,2022-11-04,2022-11-04,株式会社あかさたな,,株式会社,神奈川県,川崎市川崎区,大島３丁目２８番２－１号,,14,131,2100834,,,,,,,2022-11-04,1,,,,,アカサタナ,0
1635,6020003022661,新規,0,2022-11-04,2022-11-04,ＹＯＣＯＹＯ商事合同会社,,合同会社,神奈川県,横浜市神奈川区,子安台１丁目９番１３－１０３号,,14,102,2210012,,,,,,,2022-11-04,1,,,,,ヨコヨショウジ,0
1636,6020005015705,新規,0,2022-11-04,2022-11-04,管理組合法人メゾンシャングリラ,,その他の設立登記法人,神奈川県,横浜市神奈川区,松本町３丁目２１番７号,,14,102,2210841,,,,,,,2022-11-04,1,,,,,メゾンシャングリラ,0
1639,6021001077334,新規,0,2022-11-04,2022-11-04,株式会社ＭＩＲＡＩ,,株式会社,神奈川県,座間市,相模が丘３丁目５５番１６号,,14,216,2520001,,,,,,,2022-11-04,1,,,,,ミライ,0
1640,6021001077342,新規,0,2022-11-04,2022-11-04,ビステリア株式会社,,株式会社,神奈川県,愛甲郡愛川町,角田６６７番地１,,14,401,2430301,,,,,,,2022-11-04,1,,,,,ビステリア,0
1644,6021003012314,新規,0,2022-11-04,2022-11-04,ＦＡＴ合同会社,,合同会社,神奈川県,藤沢市,大庭５５５９番地の２４,,14,205,2510861,,,,,,,2022-11-04,1,,,,,ファット,0
1651,6030001150835,新規,0,2022-11-04,2022-11-04,株式会社樹電工,,株式会社,埼玉県,深谷市,本田ケ谷５１番地,,11,218,3660022,,,,,,,2022-11-04,1,,,,,ジュデンコウ,0
1652,6030001150843,新規,0,2022-11-04,2022-11-04,株式会社ｇｒａｃｅ‐ｈｏｕｓｅ,,株式会社,埼玉県,川口市,桜町３丁目２１番１１号,,11,203,3340001,,,,,,,2022-11-04,1,,,,,グレイスハウス,0
1653,6030001150876,新規,0,2022-11-04,2022-11-04,株式会社北翔工業,,株式会社,埼玉県,上尾市,井戸木４丁目６番地１３,,11,219,3620071,,,,,,,2022-11-04,1,,,,,ホクショウコウギョウ,0
1654,6030001150884,新規,0,2022-11-04,2022-11-04,株式会社Ｙ２ＨＤ,,株式会社,埼玉県,草加市,吉町３丁目３番５５－２－１３０３号,,11,221,3400017,,,,,,,2022-11-04,1,,,,,ワイツーエイチディー,0
1655,6030001150892,新規,0,2022-11-04,2022-11-04,セカツナ・ソリューションズ株式会社,,株式会社,埼玉県,富士見市,鶴瀬東２丁目２７番２８号佐久間ビル１階,,11,235,3540024,,,,,,,2022-11-04,1,,,,,セカツナソリューションズ,0
1666,6050001051874,新規,0,2022-11-04,2022-11-04,シャーマルトレーディング株式会社,,株式会社,茨城県,坂東市,寺久１３４９番,,08,228,3060656,,,,,,,2022-11-04,1,,,,,シャーマルトレーディング,0
1667,6050001051890,新規,0,2022-11-04,2022-11-04,大創貿易株式会社,,株式会社,茨城県,那珂市,中台７４５番地１０,,08,226,3110113,,,,,,,2022-11-04,1,,,,,ダイソウボウエキ,0
1670,6060001035406,新規,0,2022-11-04,2022-11-04,株式会社一生創建,,株式会社,栃木県,栃木市,国府町７７６番地２,,09,203,3280006,,,,,,,2022-11-04,1,,,,,イツキソウケン,0
1672,6070001039777,新規,0,2022-11-04,2022-11-04,株式会社ＭＹＫ,,株式会社,群馬県,高崎市,吉井町多比良２６２７番地１,,10,202,3702115,,,,,,,2022-11-04,1,,,,,エムワイケー,0
1673,6070001039785,新規,0,2022-11-04,2022-11-04,株式会社エーアールアイ,,株式会社,群馬県,前橋市,五代町６７２番地４,,10,201,3710132,,,,,,,2022-11-04,1,,,,,エーアールアイ,0
1674,6070001039793,新規,0,2022-11-04,2022-11-04,株式会社馬場建築,,株式会社,群馬県,太田市,安良岡町甲４００,,10,205,3730811,,,,,,,2022-11-04,1,,,,,,0
1676,6080001025272,新規,0,2022-11-04,2022-11-04,株式会社ベルサイト,,株式会社,静岡県,焼津市,下江留１７１４番地,,22,212,4210218,,,,,,,2022-11-04,1,,,,,ベルサイト,0
1681,6080101023622,新規,0,2022-11-04,2022-11-04,株式会社チノ,,株式会社,静岡県,駿東郡清水町,長沢６９番地３ソフィアｋ２０１,,22,341,4110905,,,,,,,2022-11-04,1,,,,,チノ,0
1682,6080103002681,新規,0,2022-11-04,2022-11-04,合同会社アステール総合美術研究所,,合同会社,静岡県,三島市,泉町３番２号,,22,206,4110037,,,,,,,2022-11-04,1,,,,,アステールソウゴウビジュツケンキュウジョ,0
1686,6080401026135,新規,0,2022-11-04,2022-11-04,株式会社Ｎｉｋａベース,,株式会社,静岡県,浜松市中区,佐藤１丁目３８番１６号,,22,131,4300807,,,,,,,2022-11-04,1,,,,,ニカベース,0
1687,6100001035830,新規,0,2022-11-04,2022-11-04,株式会社エフ・ファイブ,,株式会社,長野県,長野市,松岡２丁目２１番４４号,,20,201,3810026,,,,,,,2022-11-04,1,,,,,エフファイブ,0
1688,6100001035839,新規,0,2022-11-04,2022-11-04,株式会社Ｎ．ｎ,,株式会社,長野県,小諸市,大字加増８１７番地１３,,20,208,3840061,,,,,,,2022-11-04,1,,,,,エヌドットエヌ,0
1690,6110001037082,新規,0,2022-11-04,2022-11-04,株式会社榎本商店,,株式会社,新潟県,魚沼市,細野６０５番地２,,15,225,9460213,,,,,,,2022-11-04,1,,,,,エノモトショウテン,0
1691,6110001037090,新規,0,2022-11-04,2022-11-04,株式会社渡邊産業,,株式会社,新潟県,長岡市,高見町８５３番地３,,15,202,9400004,,,,,,,2022-11-04,1,,,,,ワタナベサンギョウ,0
1692,6110003004907,新規,0,2022-11-04,2022-11-04,Ｈａｃｏｂｕ　ｎｅ合同会社,,合同会社,新潟県,上越市,新町８５番地１０,,15,222,9430822,,,,,,,2022-11-04,1,,,,,ハコブネ,0
1706,6120001249981,新規,0,2022-11-04,2022-11-04,株式会社フューチャー,,株式会社,大阪府,大阪市阿倍野区,文の里４丁目１６－２６,,27,119,5450004,,,,,,,2022-11-04,1,,,,,フューチャー,0
1707,6120001250015,新規,0,2022-11-04,2022-11-04,株式会社ＩＲＩＳ　ＧＡＲＤＥＮ,,株式会社,大阪府,大阪市鶴見区,緑１丁目９番８号７号室,,27,124,5380054,,,,,,,2022-11-04,1,,,,,イリスガーデン,0
1708,6120001250023,新規,0,2022-11-04,2022-11-04,株式会社労務パートナーズ,,株式会社,大阪府,大阪市北区,西天満３丁目５番１０号,,27,127,5300047,,,,,,,2022-11-04,1,,,,,ロウムパートナーズ,0
1709,6120001250080,新規,0,2022-11-04,2022-11-04,株式会社医療経営,,株式会社,大阪府,大阪市都島区,善源寺町２丁目２番８－４０１号,,27,102,5340015,,,,,,,2022-11-04,1,,,,,イリョウケイエイ,0
1710,6120001250089,新規,0,2022-11-04,2022-11-04,軒廷国際株式会社,,株式会社,大阪府,大阪市東成区,大今里西１丁目１４－１２ロフト今里５０２号室,,27,115,5370014,,,,,,,2022-11-04,1,,,,,ケンテイコクサイ,0
1714,6120003022767,新規,0,2022-11-04,2022-11-04,合同会社ココナ,,合同会社,大阪府,大阪市淀川区,西中島３丁目１６番１２－６０１号,,27,123,5320011,,,,,,,2022-11-04,1,,,,,ココナ,0
1717,6120005023268,新規,0,2022-11-04,2022-11-04,ＨＲＭ協同組合,,その他の設立登記法人,大阪府,大阪市西区,江之子島１丁目６番２号奥内第８ビル３０６号室,,27,106,5500006,,,,,,,2022-11-04,1,,,,,エイチアールエム,0
1719,6120101066468,新規,0,2022-11-04,2022-11-04,株式会社ユーズ,,株式会社,大阪府,岸和田市,小松里町２２８８番地,,27,202,5960821,,,,,,,2022-11-04,1,,,,,ユーズ,0
1720,6120101066484,新規,0,2022-11-04,2022-11-04,株式会社竹井設備,,株式会社,大阪府,堺市北区,金岡町３００６番地２７ブリッジフィールド３０１号,,27,146,5918022,,,,,,,2022-11-04,1,,,,,タケイセツビ,0
1723,6130001072961,新規,0,2022-11-04,2022-11-04,株式会社まちづくり井手,,株式会社,京都府,綴喜郡井手町,大字井手小字橋ノ本１４番地の３,,26,343,6100302,,,,,,,2022-11-04,1,,,,,マチヅクリイデ,0
1729,6140001127888,新規,0,2022-11-04,2022-11-04,株式会社井上動物病院,,株式会社,兵庫県,姫路市,神田町２丁目１０番地,,28,201,6700991,,,,,,,2022-11-04,1,,,,,イノウエドウブツビョウイン,0
1730,6140001127896,新規,0,2022-11-04,2022-11-04,株式会社ＥＸＣＥＥＤ,,株式会社,兵庫県,姫路市,別所町佐土１丁目１２７番地,,28,201,6710224,,,,,,,2022-11-04,1,,,,,エクシード,0
1731,6140001127946,新規,0,2022-11-04,2022-11-04,株式会社ＨｉｒａＫｅｎ,,株式会社,兵庫県,伊丹市,野間北６丁目４番１８号,,28,207,6640875,,,,,,,2022-11-04,1,,,,,ヒラケン,0
1732,6140001127979,新規,0,2022-11-04,2022-11-04,株式会社和みやび,,株式会社,兵庫県,西脇市,野村町１０２７番地,,28,213,6770054,,,,,,,2022-11-04,1,,,,,ミヤビ,0
1733,6140001127987,新規,0,2022-11-04,2022-11-04,株式会社レーベン,,株式会社,兵庫県,神戸市中央区,北長狭通２丁目５番９号グランドプラザトーアＢ１,,28,110,6500012,,,,,,,2022-11-04,1,,,,,レーベン,0
1737,6140003018318,新規,0,2022-11-04,2022-11-04,ワイドスカイ合同会社,,合同会社,兵庫県,姫路市,勝原区宮田６６６－１・４Ｆ,,28,201,6711213,,,,,,,2022-11-04,1,,,,,ワイドスカイ,0
1739,6150001025926,新規,0,2022-11-04,2022-11-04,株式会社マディ,,株式会社,奈良県,奈良市,青山４丁目３番地の２,,29,201,6308101,,,,,,,2022-11-04,1,,,,,マディ,0
1740,6150001025934,新規,0,2022-11-04,2022-11-04,株式会社Ｍ,,株式会社,奈良県,橿原市,一町６７８番地の５,,29,205,6340824,,,,,,,2022-11-04,1,,,,,エム,0
1741,6160001024596,新規,0,2022-11-04,2022-11-04,株式会社ｌｉｎｋ,,株式会社,滋賀県,彦根市,高宮町１２３９番地５,,25,202,5220201,,,,,,,2022-11-04,1,,,,,リンク,0
1742,6160001024605,新規,0,2022-11-04,2022-11-04,腺株式会社,,株式会社,滋賀県,草津市,追分南２丁目７番１９号,,25,206,5250048,,,,,,,2022-11-04,1,,,,,セン,0
1746,6180001153641,新規,0,2022-11-04,2022-11-04,株式会社Ｙ．Ｐ,,株式会社,愛知県,清須市,鍋片３丁目３２番地４,,23,233,4520907,,,,,,,2022-11-04,1,,,,,ワイピー,0
1750,6180003024452,新規,0,2022-11-04,2022-11-04,ＡＩカンパニー合同会社,,合同会社,愛知県,名古屋市西区,則武新町３丁目１番８６号ザ・パークハウス名古屋１１２５号,,23,104,4510051,,,,,,,2022-11-04,1,,,,,エーアイカンパニー,0
1752,6190003004131,新規,0,2022-11-04,2022-11-04,合同会社ＢＡＣＫ　ｏｆｆｉｃｅ．,,合同会社,三重県,桑名市,大字東方１４５２番地１５,,24,205,5110811,,,,,,,2022-11-04,1,,,,,バックオフィス,0
1753,6200001040606,新規,0,2022-11-04,2022-11-04,株式会社ファミール,,株式会社,岐阜県,瑞浪市,薬師町３丁目１３番地,,21,208,5096135,,,,,,,2022-11-04,1,,,,,ファミール,0
1754,6200001040614,新規,0,2022-11-04,2022-11-04,株式会社ＲＦＰ,,株式会社,岐阜県,多治見市,金岡町３丁目７４番地の２,,21,204,5070016,,,,,,,2022-11-04,1,,,,,アールエフピー,0
1755,6200001040630,新規,0,2022-11-04,2022-11-04,株式会社プラスロジップ,,株式会社,岐阜県,養老郡養老町,一色１３４３番地１,,21,341,5031264,,,,,,,2022-11-04,1,,,,,プラスロジップ,0
1757,6200003005722,新規,0,2022-11-04,2022-11-04,合同会社貴文総業,,合同会社,岐阜県,高山市,石浦町６丁目１４５番地６,,21,203,5060825,,,,,,,2022-11-04,1,,,,,キブンソウギョウ,0
1758,6200003005730,新規,0,2022-11-04,2022-11-04,兎羽合同会社,,合同会社,岐阜県,海津市,南濃町田鶴７０８番地７８,,21,221,5030533,,,,,,,2022-11-04,1,,,,,トバ,0
1763,6220001025118,新規,0,2022-11-04,2022-11-04,株式会社あらさぽ,,株式会社,石川県,金沢市,問屋町３丁目２７番地１,,17,201,9200061,,,,,,,2022-11-04,1,,,,,アラサポ,0
1771,6240001012279,新規,0,2022-11-04,2022-11-04,吉野産業株式会社,00128310,株式会社,広島県,広島市佐伯区,海老園１丁目１番１０号,,34,108,7315135,,,,,,,2022-11-04,1,,,,,ヨシノサンギョウ,0
1774,6240001060591,新規,0,2022-11-04,2022-11-04,ＳＫ警備株式会社,,株式会社,広島県,福山市,東手城町３丁目１４番２７号,,34,207,7210962,,,,,,,2022-11-04,1,,,,,エスケイケイビ,0
1775,6240001060600,新規,0,2022-11-04,2022-11-04,株式会社ビレッジ,,株式会社,広島県,山県郡北広島町,志路原甲１５２番地,,34,369,7311701,,,,,,,2022-11-04,1,,,,,ビレッジ,0
1776,6240001060609,新規,0,2022-11-04,2022-11-04,アイシン株式会社,,株式会社,広島県,安芸高田市,甲田町深瀬７７５番地,,34,214,7391108,,,,,,,2022-11-04,1,,,,,アイシン,0
1777,6240001060617,新規,0,2022-11-04,2022-11-04,株式会社ＥＮＪＯＹＷＯＲＫ,,株式会社,広島県,呉市,中央１丁目９番５号,,34,202,7370051,,,,,,,2022-11-04,1,,,,,エンジョイワーク,0
1784,6260001037357,新規,0,2022-11-04,2022-11-04,真和株式会社,,株式会社,岡山県,岡山市北区,神田町１丁目１１－３０－１０５,,33,101,7000935,,,,,,,2022-11-04,1,,,,,シンワ,0
1785,6260001037381,新規,0,2022-11-04,2022-11-04,株式会社コアンズデザイン,,株式会社,岡山県,岡山市北区,北長瀬表町２丁目１７番８０号ＢＲＡＮＣＨ岡山北長瀬ハッシュタグ岡山,,33,101,7000962,,,,,,,2022-11-04,1,,,,,コアンズデザイン,0
1794,6290001099394,新規,0,2022-11-04,2022-11-04,株式会社ｉｎｄｅｐｅｎｄｅｎｃｅ,,株式会社,福岡県,筑後市,大字久富１４９５番地１,,40,211,8330056,,,,,,,2022-11-04,1,,,,,インディペンデンス,0
1795,6290001099452,新規,0,2022-11-04,2022-11-04,株式会社ＶＩＡ・ＳＰＥＳ,,株式会社,福岡県,久留米市,御井旗崎５丁目１番１８号,,40,203,8390841,,,,,,,2022-11-04,1,,,,,ヴィアスペース,0
1796,6290001099460,新規,0,2022-11-04,2022-11-04,株式会社ＦＥＲＮＡＶＥＬ,,株式会社,福岡県,福岡市東区,香椎駅前１丁目１２番２号ＡＳＳＥＴ香椎２階,,40,131,8130013,,,,,,,2022-11-04,1,,,,,フェルナベル,0
1797,6290001099493,新規,0,2022-11-04,2022-11-04,株式会社１４１,,株式会社,福岡県,久留米市,通町３－１マーベラスビル１階,,40,203,8300018,,,,,,,2022-11-04,1,,,,,イシイ,0
1802,6290003013139,新規,0,2022-11-04,2022-11-04,合同会社アイナ,,合同会社,福岡県,飯塚市,枝国４６４番地２７,,40,205,8200081,,,,,,,2022-11-04,1,,,,,アイナ,0
1803,6290003013147,新規,0,2022-11-04,2022-11-04,合同会社ウインクル,,合同会社,福岡県,飯塚市,南尾６５番地４,,40,205,8200072,,,,,,,2022-11-04,1,,,,,ウインクル,0
1808,6290801029014,新規,0,2022-11-04,2022-11-04,株式会社現代人気美術作家年鑑,,株式会社,福岡県,北九州市八幡東区,上本町１丁目３番１号,,40,108,8050018,,,,,,,2022-11-04,1,,,,,ゲンダイニンキビジュツサッカネンカン,0
1812,6320001019407,新規,0,2022-11-04,2022-11-04,株式会社笹原組,,株式会社,大分県,中津市,大字高瀬１４４４番地,,44,203,8710026,,,,,,,2022-11-04,1,,,,,ササハラグミ,0
1814,6320005010031,新規,0,2022-11-04,2022-11-04,税理士法人グレープコンサルティング,,その他の設立登記法人,大分県,大分市,西大道４丁目１番２７号,,44,201,8700820,,,,,,,2022-11-04,1,,,,,グレープコンサルティング,0
1816,6330001030239,新規,0,2022-11-04,2022-11-04,株式会社高正,00128341,株式会社,熊本県,熊本市中央区,国府４丁目９番１８号,,43,101,8620949,,,,,,,2022-11-04,1,,,,,タカマサ,0
1817,6330001030263,新規,0,2022-11-04,2022-11-04,株式会社ＢｒｉｇｈｔＨａｐｐｙ,,株式会社,熊本県,熊本市中央区,上通町２番１７号びぷれす熊日会館７階,,43,101,8600845,,,,,,,2022-11-04,1,,,,,,0
1819,6330005010575,新規,0,2022-11-04,2022-11-04,税理士法人ブルーウィング,,その他の設立登記法人,熊本県,熊本市北区,清水新地３丁目１０３３番地５,,43,105,8618075,,,,,,,2022-11-04,1,,,,,ブルーウィング,0
1821,6350001018026,新規,0,2022-11-04,2022-11-04,株式会社ＭＴＤ,,株式会社,宮崎県,都城市,神之山町１７４７番地３,,45,202,8850005,,,,,,,2022-11-04,1,,,,,マツダ,0
1823,6360001031135,新規,0,2022-11-04,2022-11-04,Ｊａｃｋｙ事務所株式会社,,株式会社,沖縄県,国頭郡金武町,字金武４００５－４１２室,,47,314,9041201,,,,,,,2022-11-04,1,,,,,ジャッキージムショ,0
1824,6370001049218,新規,0,2022-11-04,2022-11-04,株式会社アイオーエージェント,,株式会社,宮城県,仙台市宮城野区,東仙台４丁目４番４１－３０１号,,04,102,9830833,,,,,,,2022-11-04,1,,,,,アイオーエージェント,0
1825,6370003005887,新規,0,2022-11-04,2022-11-04,メンバーズ合同会社,,合同会社,宮城県,仙台市宮城野区,岩切字鴻巣７５－５,,04,102,9830821,,,,,,,2022-11-04,1,,,,,メンバーズ,0
1828,6390001017065,新規,0,2022-11-04,2022-11-04,株式会社Ａ‐ｌｉｆｅ,,株式会社,山形県,新庄市,大字松本３９８番地の１３,,06,205,9960051,,,,,,,2022-11-04,1,,,,,アライフ,0
1837,6430001087764,新規,0,2022-11-04,2022-11-04,株式会社ｗｉｎｄｙ,,株式会社,北海道,札幌市中央区,大通西１４丁目３－４２－３０１号室,,01,101,0600042,,,,,,,2022-11-04,1,,,,,ウィンディ,0
1838,6430001087780,新規,0,2022-11-04,2022-11-04,株式会社ワイ・ディー,,株式会社,北海道,札幌市東区,東雁来八条１丁目１６番２３号,,01,103,0070828,,,,,,,2022-11-04,1,,,,,ワイディー,0
1839,6430001087797,新規,0,2022-11-04,2022-11-04,株式会社ＣＯＳＥ,,株式会社,北海道,札幌市手稲区,前田九条１５丁目１０番７号,,01,109,0060819,,,,,,,2022-11-04,1,,,,,コーセー,0
1841,6430005014590,新規,0,2022-11-04,2022-11-04,医療法人社団佑言会,,その他の設立登記法人,北海道,札幌市中央区,南八条西３丁目７番地１うるおいの家川の音３階,,01,101,0640808,,,,,,,2022-11-04,1,,,,,ユウゲンカイ,0
1845,6450003002265,新規,0,2022-11-04,2022-11-04,合同会社ＫｓＧ　ｆａｒｍ,,合同会社,北海道,稚内市,大字声問村字サラキトマナイ５２３１番地の１１,,01,214,0984582,,,,,,,2022-11-04,1,,,,,ケーエスジーファーム,0
1846,6470001019318,新規,0,2022-11-04,2022-11-04,株式会社ＨＯＴ　ＶＩＴ　ＬＯＮ,,株式会社,香川県,三豊市,山本町辻４００３番地４,00128358,37,208,7680101,,,,,,,2022-11-04,1,,,,,ホビロン,0
1847,6470001019326,新規,0,2022-11-04,2022-11-04,天満屋産業株式会社,,株式会社,香川県,丸亀市,川西町北１３５０番地１,,37,202,7630091,,,,,,,2022-11-04,1,,,,,テンマヤサンギョウ,0
1849,6490001010316,新規,0,2022-11-04,2022-11-04,株式会社みらい物流システムズ,,株式会社,高知県,高知市,百石町２丁目２２番１７号,,39,201,7808015,,,,,,,2022-11-04,1,,,,,ミライブツリュウシステムズ,0
1853,7010001230381,新規,0,2022-11-04,2022-11-04,株式会社千賀グループゴルフ,,株式会社,東京都,中央区,銀座１丁目１２番４号Ｎ＆ＥＢＬＤ．６Ｆ,,13,102,1040061,,,,,,,2022-11-04,1,,,,,センガグループゴルフ,0
1854,7010001230497,新規,0,2022-11-04,2022-11-04,ＣＫＧ　Ｆｉｎｅ　Ａｒｔ　Ｔｏｋｙｏ株式会社,,株式会社,東京都,中央区,銀座６丁目３番２号,,13,102,1040061,,,,,,,2022-11-04,1,,,,,シーケージーファインアートトウキョウ,0
1855,7010001230514,新規,0,2022-11-04,2022-11-04,ビューティホリック株式会社,,株式会社,東京都,中央区,銀座１丁目１６番７号銀座大栄ビル５階,,13,102,1040061,,,,,,,2022-11-04,1,,,,,ビューティホリック,0
1856,7010001230588,新規,0,2022-11-04,2022-11-04,株式会社ＧＲＯＷＴＨ　ＢＬＡＮＣ,,株式会社,東京都,千代田区,神田須田町１丁目１２番地１,,13,101,1010041,,,,,,,2022-11-04,1,,,,,グロースブラン,0
1861,7010003038963,新規,0,2022-11-04,2022-11-04,紀尾井町第一合同会社,,合同会社,東京都,千代田区,紀尾井町１番３号,,13,101,1020094,,,,,,,2022-11-04,1,,,,,キオイチョウダイイチ,0
1862,7010003038971,新規,0,2022-11-04,2022-11-04,ＷＡＶ合同会社,,合同会社,東京都,中央区,銀座１丁目１２―４Ｎ＆Ｅ、ＢＬＤ７階,,13,102,1040061,,,,,,,2022-11-04,1,,,,,ワブ,0
1863,7010003038996,新規,0,2022-11-04,2022-11-04,マロウ合同会社,,合同会社,東京都,中央区,銀座７丁目１３番６号サガミビル２階,,13,102,1040061,,,,,,,2022-11-04,1,,,,,マロウ,0
1864,7010005035736,新規,0,2022-11-04,2022-11-04,一般社団法人日本エクステリア学会,,その他の設立登記法人,東京都,千代田区,神田多町２丁目５番地喜助神田多町ビル４０１,,13,101,1010046,,,,,,,2022-11-04,1,,,,,ニホンエクステリアガッカイ,0
1865,7010005035744,新規,0,2022-11-04,2022-11-04,一般社団法人ライトハウスＤＸ支援協会,,その他の設立登記法人,東京都,千代田区,外神田６丁目１５番４号ＯｗｌｓｏｍｅＢｕｉｌｄｉｎｇ２階・Ａｉｒ－Ｅｒａ,,13,101,1010021,,,,,,,2022-11-04,1,,,,,ライトハウスディーエックスシエンキョウカイ,0
1866,7010005035752,新規,0,2022-11-04,2022-11-04,はなさき特定目的会社,,その他の設立登記法人,東京都,千代田区,丸の内３丁目１番１号東京共同会計事務所内,,13,101,1000005,,,,,,,2022-11-04,1,,,,,ハナサキ,0
1868,7010401088453,新規,0,2022-11-04,2022-11-04,日綜不動産株式会社,,株式会社,東京都,港区,新橋１丁目８番３号,,13,103,1050004,,,,,,,2022-11-04,1,,,,,ニッソウフドウサン,0
1872,7010401170590,新規,0,2022-11-04,2022-11-04,株式会社ＶＲメディア,,株式会社,東京都,港区,南青山２丁目２番１５号ウィン青山ビルＵＣＦ－９１７,,13,103,1070062,,,,,,,2022-11-04,1,,,,,ブイアールメディア,0
1873,7010401170608,新規,0,2022-11-04,2022-11-04,株式会社ＷＥＳＴ　ＷＥＬＬ,,株式会社,東京都,港区,南青山５丁目１０番１４号オークリッジ南青山２０１,,13,103,1070062,,,,,,,2022-11-04,1,,,,,ウエストウェル,0
1874,7010401170632,新規,0,2022-11-04,2022-11-04,株式会社Ｌａｃｔｙ,,株式会社,東京都,港区,浜松町２丁目２番１５号浜松町ダイヤビル２Ｆ,,13,103,1050013,,,,,,,2022-11-04,1,,,,,ラクティ,0
1875,7010403028820,新規,0,2022-11-04,2022-11-04,合同会社アプリコット,,合同会社,東京都,港区,港南３丁目６番２１号－１６０７,,13,103,1080075,,,,,,,2022-11-04,1,,,,,アプリコット,0
1879,7010501049578,新規,0,2022-11-04,2022-11-04,株式会社根本福祉,,株式会社,東京都,台東区,橋場１丁目３６番１５－１０１号藤和東浅草コープ,,13,106,1110023,,,,,,,2022-11-04,1,,,,,ネモトフクシ,0
1880,7010503006775,新規,0,2022-11-04,2022-11-04,合同会社エスエム,,合同会社,東京都,台東区,千束４丁目２８番５号,,13,106,1110031,,,,,,,2022-11-04,1,,,,,エスエム,0
1884,7010701043380,新規,0,2022-11-04,2022-11-04,ジーアンドジープランニング株式会社,,株式会社,東京都,品川区,北品川１丁目２４番６号,,13,109,1400001,,,,,,,2022-11-04,1,,,,,ジーアンドジープランニング,0
1885,7010701043406,新規,0,2022-11-04,2022-11-04,株式会社グレース,,株式会社,東京都,品川区,東五反田２丁目９番１－１１０１号,,13,109,1410022,,,,,,,2022-11-04,1,,,,,グレース,0
1887,7010903007753,新規,0,2022-11-04,2022-11-04,カジホールディングス合同会社,,合同会社,東京都,世田谷区,成城８丁目８番２２号,,13,112,1570066,,,,,,,2022-11-04,1,,,,,カジホールディングス,0
1893,7011201024210,新規,0,2022-11-04,2022-11-04,株式会社ＯＴＯＨＡ,,株式会社,東京都,中野区,中央５丁目４０番１５号,,13,114,1640011,,,,,,,2022-11-04,1,,,,,オトハ,0
1894,7011203003939,新規,0,2022-11-04,2022-11-04,合同会社Ｍａｋｏｔｏ,,合同会社,東京都,中野区,東中野２丁目３番３－４０２号,,13,114,1640003,,,,,,,2022-11-04,1,,,,,マコト,0
1902,7011801041489,新規,0,2022-11-04,2022-11-04,株式会社アベ技研,,株式会社,東京都,葛飾区,高砂１丁目１８番１８－１０３号グレイスブリッサ,,13,122,1250054,,,,,,,2022-11-04,1,,,,,アベギケン,0
1903,7011801041497,新規,0,2022-11-04,2022-11-04,株式会社ＧＧ,,株式会社,東京都,足立区,千住３丁目３５番地ベル・ハイツＩＩ１０１,00128362,13,121,1200034,,,,,,,2022-11-04,1,,,,,ジージー,0
1906,7012401039774,新規,0,2022-11-04,2022-11-04,株式会社ＣＡＲＲＩＥＲ　ＢＡＳＥ,,株式会社,東京都,稲城市,百村２１１９番地の２８,,13,225,2060804,,,,,,,2022-11-04,1,,,,,キャリアベース,0
1907,7012401039816,新規,0,2022-11-04,2022-11-04,Ｓｔａｒ　Ｃｏｍｐａｓｓ株式会社,,株式会社,東京都,武蔵野市,吉祥寺本町２丁目１５番３２号,,13,203,1800004,,,,,,,2022-11-04,1,,,,,スターコンパス,0
1908,7012401039824,新規,0,2022-11-04,2022-11-04,Ｂ．リフォームＬａｂ株式会社,,株式会社,東京都,府中市,小柳町２丁目１４番地の９,,13,206,1830013,,,,,,,2022-11-04,1,,,,,ビーリフォームラボ,0
1909,7012401039832,新規,0,2022-11-04,2022-11-04,株式会社マルコー総合建築,,株式会社,東京都,府中市,西府町５丁目２１番地の４第２明星ハイツ１０１,,13,206,1830031,,,,,,,2022-11-04,1,,,,,マルコーソウゴウケンチク,0
1910,7012403005659,新規,0,2022-11-04,2022-11-04,ハイブリッジエステート合同会社,,合同会社,東京都,武蔵野市,境４丁目１３番２５号,,13,203,1800022,,,,,,,2022-11-04,1,,,,,ハイブリッジエステート,0
1913,7012801021935,新規,0,2022-11-04,2022-11-04,株式会社野島,,株式会社,東京都,昭島市,大神町４丁目１０番３号,,13,207,1960013,,,,,,,2022-11-04,1,,,,,ノジマ,0
1914,7012801021943,新規,0,2022-11-04,2022-11-04,株式会社池田重機興業,,株式会社,東京都,東大和市,南街４丁目８番地の３,,13,220,2070014,,,,,,,2022-11-04,1,,,,,イケダジュウキコウギョウ,0
1918,7013301049888,新規,0,2022-11-04,2022-11-04,株式会社Ｎ．Ｙ．ドリーム,,株式会社,東京都,豊島区,南池袋２丁目４５番２－２１０９号,,13,116,1710022,,,,,,,2022-11-04,1,,,,,エヌワイドリーム,0
1920,7013303006359,新規,0,2022-11-04,2022-11-04,オーエイチエム合同会社,,合同会社,東京都,豊島区,要町３丁目４０番８号,,13,116,1710043,,,,,,,2022-11-04,1,,,,,オーエイチエム,0
1927,7020001148763,新規,0,2022-11-04,2022-11-04,株式会社デジタルマーケティングアウトリーチ,,株式会社,神奈川県,川崎市麻生区,王禅寺西５丁目１番３０号フォレスター新百合ヶ丘１Ｆ,,14,137,2150017,,,,,,,2022-11-04,1,,,,,デジタルマーケティングアウトリーチ,0
1928,7020001148771,新規,0,2022-11-04,2022-11-04,ＮＯＲＡ　Ｉｎｔｅｒｎａｔｉｏｎａｌ株式会社,,株式会社,神奈川県,横浜市神奈川区,金港町７番地３金港ビル７階,,14,102,2210056,,,,,,,2022-11-04,1,,,,,ノラインターナショナル,0
1929,7020001148788,新規,0,2022-11-04,2022-11-04,イン・レインボウズ株式会社,,株式会社,神奈川県,横浜市港北区,大倉山５丁目５番６号,,14,109,2220037,,,,,,,2022-11-04,1,,,,,インレインボウズ,0
1930,7020001148838,新規,0,2022-11-04,2022-11-04,株式会社ひらく,,株式会社,神奈川県,横浜市青葉区,梅が丘３７番地４３,,14,117,2270052,,,,,,,2022-11-04,1,,,,,ヒラク,0
1931,7020001148879,新規,0,2022-11-04,2022-11-04,株式会社アートプランニング,,株式会社,神奈川県,横浜市港北区,新羽１２３１番地２０１号室,,14,109,2220000,,,,,,,2022-11-04,1,,,,,アートプランニング,0
1935,7020003022669,新規,0,2022-11-04,2022-11-04,エリヨーン・キャピタル・カンパニー合同会社,,合同会社,神奈川県,横浜市南区,山谷５番地１７,,14,105,2320036,,,,,,,2022-11-04,1,,,,,エリヨーンキャピタルカンパニー,0
1936,7020003022677,新規,0,2022-11-04,2022-11-04,合同会社ＹＵＩ,,合同会社,神奈川県,横浜市西区,みなとみらい４丁目９番１－Ａ２３０４号,,14,103,2200012,,,,,,,2022-11-04,1,,,,,ユイ,0
1937,7020003022685,新規,0,2022-11-04,2022-11-04,合同会社Ｙｅｌｌｏｗ,,合同会社,神奈川県,横浜市神奈川区,松ケ丘３５番地１１,,14,102,2210843,,,,,,,2022-11-04,1,,,,,イエロー,0
1943,7030001150842,新規,0,2022-11-04,2022-11-04,株式会社ヤマモリ,,株式会社,埼玉県,さいたま市桜区,町谷３丁目２２番３号,,11,106,3380836,,,,,,,2022-11-04,1,,,,,ヤマモリ,0
1944,7030001150859,新規,0,2022-11-04,2022-11-04,株式会社Ｂｅ‐Ｌｉｎｋｓ,,株式会社,埼玉県,戸田市,上戸田４丁目１４番１４－１０１号,,11,224,3350022,,,,,,,2022-11-04,1,,,,,ビーリンクス,0
1945,7030001150875,新規,0,2022-11-04,2022-11-04,株式会社ＧＯリフォーム,,株式会社,埼玉県,さいたま市緑区,東浦和４丁目１０番地１２,,11,109,3360926,,,,,,,2022-11-04,1,,,,,ゴーリフォーム,0
1949,7030003020498,新規,0,2022-11-04,2022-11-04,Ｊｕｎｓ　ｍａｒｃ合同会社,,合同会社,埼玉県,草加市,長栄４丁目５番地５,,11,221,3400051,,,,,,,2022-11-04,1,,,,,ジュンズマーク,0
1954,7040003021207,新規,0,2022-11-04,2022-11-04,インカウンター合同会社,,合同会社,千葉県,柏市,戸張１０４２－６,,12,217,2770008,,,,,,,2022-11-04,1,,,,,インカウンター,0
1957,7060001035405,新規,0,2022-11-04,2022-11-04,アーテ株式会社,,株式会社,栃木県,真岡市,中郷１０番地,,09,209,3214308,,,,,,,2022-11-04,1,,,,,アーテ,0
1958,7060003004291,新規,0,2022-11-04,2022-11-04,エナジードッグ合同会社,,合同会社,栃木県,宇都宮市,山本２丁目１８番２０号,,09,201,3200012,,,,,,,2022-11-04,1,,,,,エナジードッグ,0
1961,7070001039784,新規,0,2022-11-04,2022-11-04,株式会社山口工業,,株式会社,群馬県,前橋市,粕川町込皆戸３７１番地,,10,201,3710216,,,,,,,2022-11-04,1,,,,,ヤマグチコウギョウ,0
1962,7070001039792,新規,0,2022-11-04,2022-11-04,株式会社ＳＳＳ　ＴＥＣＨ,,株式会社,群馬県,館林市,堀工町１９１７番地の１０,,10,207,3740033,,,,,,,2022-11-04,1,,,,,エスエスエステック,0
1963,7070001039801,新規,0,2022-11-04,2022-11-04,株式会社アトレカンパニー,,株式会社,群馬県,高崎市,島野町３７９番地３,,10,202,3700015,,,,,,,2022-11-04,1,,,,,アトレカンパニー,0
1967,7080101023605,新規,0,2022-11-04,2022-11-04,株式会社キララ,,株式会社,静岡県,御殿場市,川島田１６７番地の３,,22,215,4120045,,,,,,,2022-11-04,1,,,,,キララ,0
1968,7080101023613,新規,0,2022-11-04,2022-11-04,株式会社勇庄工業,,株式会社,静岡県,富士市,厚原４６５番地の６,,22,210,4190201,,,,,,,2022-11-04,1,,,,,ユウショウコウギョウ,0
1969,7080103002680,新規,0,2022-11-04,2022-11-04,ＬｔＧ合同会社,,合同会社,静岡県,三島市,本町２－４,,22,206,4110855,,,,,,,2022-11-04,1,,,,,エルティジー,0
1979,7100001035821,新規,0,2022-11-04,2022-11-04,株式会社Ａｕｂｅ,,株式会社,長野県,駒ヶ根市,赤穂４０１５－５,,20,210,3994117,,,,,,,2022-11-04,1,,,,,オーブ,0
1980,7100001035838,新規,0,2022-11-04,2022-11-04,アース株式会社,,株式会社,長野県,大町市,社５０１７番地,,20,212,3980003,,,,,,,2022-11-04,1,,,,,アース,0
1986,7110001037081,新規,0,2022-11-04,2022-11-04,株式会社外山建設,,株式会社,新潟県,三条市,西潟１４番２３号,,15,204,9550014,,,,,,,2022-11-04,1,,,,,トヤマケンセツ,0
1987,7110001037098,新規,0,2022-11-04,2022-11-04,株式会社アクシア・トラスト,,株式会社,新潟県,長岡市,日赤町２丁目４番１２号,,15,202,9400095,,,,,,,2022-11-04,1,,,,,アクシアトラスト,0
1988,7110003004906,新規,0,2022-11-04,2022-11-04,合同会社萬鳶建翔,,合同会社,新潟県,妙高市,学校町１７番１５号,,15,217,9440037,,,,,,,2022-11-04,1,,,,,ヨロズトビケンショウ,0
1998,7120001249948,新規,0,2022-11-04,2022-11-04,鳳凰株式会社,,株式会社,大阪府,大阪市中央区,松屋町９番２０号ローレルステート松屋町１３０４Ａ,,27,128,5420067,,,,,,,2022-11-04,1,,,,,ホウオウ,0
1999,7120001250014,新規,0,2022-11-04,2022-11-04,株式会社ＧＢ‐ＤＡＣ,,株式会社,大阪府,大阪市住之江区,浜口西３丁目１番２－１１０１号,,27,125,5590006,,,,,,,2022-11-04,1,,,,,ジービーダック,0
2000,7120001250055,新規,0,2022-11-04,2022-11-04,株式会社マルヤス,,株式会社,大阪府,大阪市福島区,野田３丁目１３番１９号,,27,103,5530005,,,,,,,2022-11-04,1,,,,,マルヤス,0
2001,7120001250113,新規,0,2022-11-04,2022-11-04,株式会社スリーピース,,株式会社,大阪府,大阪市中央区,大手通３丁目２－３グランドメゾン大手通１０３,,27,128,5400021,,,,,,,2022-11-04,1,,,,,スリーピース,0
2012,7120101066475,新規,0,2022-11-04,2022-11-04,株式会社古室設備,,株式会社,大阪府,羽曳野市,南古市１丁目１２番４号,,27,222,5830858,,,,,,,2022-11-04,1,,,,,コムロセツビ,0
2024,7140001127879,新規,0,2022-11-04,2022-11-04,株式会社Ｏｈａｎａ,,株式会社,兵庫県,尼崎市,武庫町３丁目１５番２１号,,28,202,6610044,,,,,,,2022-11-04,1,,,,,オハナ,0
2025,7140001127895,新規,0,2022-11-04,2022-11-04,株式会社イノショウ,,株式会社,兵庫県,神崎郡市川町,近平６６番地の１,,28,442,6792327,,,,,,,2022-11-04,1,,,,,イノショウ,0
2026,7140001127904,新規,0,2022-11-04,2022-11-04,たなか不動産株式会社,,株式会社,兵庫県,加古川市,野口町二屋４０－１４,,28,210,6750013,,,,,,,2022-11-04,1,,,,,タナカフドウサン,0
2027,7140001127920,新規,0,2022-11-04,2022-11-04,フライデー株式会社,,株式会社,兵庫県,神戸市中央区,脇浜町３丁目５番１０号カサベラエステ三宮１０１０号室,,28,110,6510072,,,,,,,2022-11-04,1,,,,,フライデー,0
2028,7140001127953,新規,0,2022-11-04,2022-11-04,ココログミ株式会社,,株式会社,兵庫県,神戸市中央区,上筒井通１丁目１番１６号,,28,110,6510061,,,,,,,2022-11-04,1,,,,,ココログミ,0
2029,7140001127961,新規,0,2022-11-04,2022-11-04,株式会社キミック,,株式会社,兵庫県,神戸市灘区,新在家南町４丁目４番１５号,,28,102,6570864,,,,,,,2022-11-04,1,,,,,キミック,0
2030,7140001127978,新規,0,2022-11-04,2022-11-04,株式会社はしま,,株式会社,兵庫県,加古川市,米田町船頭３９０番地の１,,28,210,6750053,,,,,,,2022-11-04,1,,,,,ハシマ,0
2031,7140001127986,新規,0,2022-11-04,2022-11-04,株式会社フォーカスレッド,,株式会社,兵庫県,西宮市,枝川町１７番１０３号,,28,204,6638143,,,,,,,2022-11-04,1,,,,,フォーカスレッド,0
2033,7140003018317,新規,0,2022-11-04,2022-11-04,合同会社マンカツ,,合同会社,兵庫県,尼崎市,久々知３丁目１５番６号,,28,202,6610977,,,,,,,2022-11-04,1,,,,,マンカツ,0
2034,7140003018325,新規,0,2022-11-04,2022-11-04,合同会社ＩＰワークス,,合同会社,兵庫県,神戸市須磨区,外浜町２丁目５－８ファーストレジデンス須磨海浜公園８０４号室,,28,107,6540043,,,,,,,2022-11-04,1,,,,,アイピーワークス,0
2035,7140003018333,新規,0,2022-11-04,2022-11-04,ＫＧ合同会社,,合同会社,兵庫県,神戸市長田区,大谷町３丁目１６番７号,,28,106,6530838,,,,,,,2022-11-04,1,,,,,ケージー,0
2038,7150001025933,新規,0,2022-11-04,2022-11-04,株式会社Ｃａｌｍ．,,株式会社,奈良県,香芝市,狐井１２５－５,,29,210,6390234,,,,,,,2022-11-04,1,,,,,カーム,0
2040,7160001024612,新規,0,2022-11-04,2022-11-04,ＳＨ制御株式会社,,株式会社,滋賀県,彦根市,高宮町１６９８番地１３,,25,202,5220201,,,,,,,2022-11-04,1,,,,,エスエイチセイギョ,0
2041,7160001024620,新規,0,2022-11-04,2022-11-04,株式会社ワークスユー,,株式会社,滋賀県,栗東市,御園２０２９番地５,,25,208,5203005,,,,,,,2022-11-04,1,,,,,ワークスユーユー,0
2042,7160001024629,新規,0,2022-11-04,2022-11-04,株式会社丸天,,株式会社,滋賀県,愛知郡愛荘町,東円堂２５１７番地５,,25,425,5291325,,,,,,,2022-11-04,1,,,,,マルテン,0
2045,7160003002723,新規,0,2022-11-04,2022-11-04,ｕ．ＫＥＩ合同会社,,合同会社,滋賀県,大津市,逢坂２丁目６番２７－３０２号,00128363,25,201,5200054,,,,,,,2022-11-04,1,,,,,ユーケイ,0
2060,7180001153582,新規,0,2022-11-04,2022-11-04,エンハンス株式会社,,株式会社,愛知県,清須市,春日落合６８０番地,,23,233,4520961,,,,,,,2022-11-04,1,,,,,エンハンス,0
2061,7180001153608,新規,0,2022-11-04,2022-11-04,ＥＮＴＥＮＴＥ６６６株式会社,,株式会社,愛知県,名古屋市中村区,名駅３丁目２６－８ＫＤＸ名古屋駅前ビル１３Ｆ,,23,105,4500002,,,,,,,2022-11-04,1,,,,,アンタントロクロクロク,0
2062,7180001153616,新規,0,2022-11-04,2022-11-04,株式会社ＫＨＣ,,株式会社,愛知県,名古屋市西区,花の木１丁目１３－１８－６０３,,23,104,4510062,,,,,,,2022-11-04,1,,,,,ケーエイチシー,0
2063,7180001153640,新規,0,2022-11-04,2022-11-04,株式会社ＦＹＴ,,株式会社,愛知県,名古屋市熱田区,神宮２丁目５番２２号,,23,109,4560031,,,,,,,2022-11-04,1,,,,,エフワイティ,0
2064,7180001153657,新規,0,2022-11-04,2022-11-04,株式会社東林,,株式会社,愛知県,名古屋市守山区,川宮町６番地,,23,113,4630081,,,,,,,2022-11-04,1,,,,,トウリン,0
2065,7180003024427,新規,0,2022-11-04,2022-11-04,合同会社ジェミニ・ジェミニ,,合同会社,愛知県,春日井市,西本町１丁目５番地１２ラ・フォーレＩＩ２０１号,00128357,23,206,4860958,,,,,,,2022-11-04,1,,,,,ジェミニジェミニ,0
2068,7180305009407,新規,0,2022-11-04,2022-11-04,一般社団法人ＭＹＴＨＳ,,その他の設立登記法人,愛知県,豊川市,長沢町関屋５５番地１,,23,207,4410203,,,,,,,2022-11-04,1,,,,,ミース,0
2070,7190001029872,新規,0,2022-11-04,2022-11-04,株式会社Ｃｒａｚｙ　Ｄｉａｍｏｎｄ,,株式会社,三重県,四日市市,西新地６番４号,,24,202,5100087,,,,,,,2022-11-04,1,,,,,クレイジーダイヤモンド,0
2071,7190001029906,新規,0,2022-11-04,2022-11-04,株式会社カギテックホールディングス,,株式会社,三重県,松阪市,田村町３４１番地の１,,24,204,5150055,,,,,,,2022-11-04,1,,,,,カギテックホールディングス,0
2073,7200001040605,新規,0,2022-11-04,2022-11-04,ＳＯＲＡ株式会社,,株式会社,岐阜県,岐阜市,中鶉６丁目１１０番地１,,21,201,5008288,,,,,,,2022-11-04,1,,,,,ソラ,0
2079,7240001060541,新規,0,2022-11-04,2022-11-04,株式会社ＢＥＥＦＦＥＣＴ,,株式会社,広島県,安芸高田市,美土里町横田２０５１,,34,214,7310611,,,,,,,2022-11-04,1,,,,,ビーフェクト,0
2080,7240001060590,新規,0,2022-11-04,2022-11-04,株式会社オッジドマーニ,,株式会社,広島県,福山市,水呑町１５１番地２３,,34,207,7200832,,,,,,,2022-11-04,1,,,,,オッジドマーニ,0
2081,7240001060616,新規,0,2022-11-04,2022-11-04,株式会社イチカワターニング,,株式会社,広島県,呉市,広白岳５丁目５番２９号,,34,202,7370144,,,,,,,2022-11-04,1,,,,,イチカワターニング,0
2088,7260001037356,新規,0,2022-11-04,2022-11-04,株式会社ＡＳＴＢＡＮ,,株式会社,岡山県,倉敷市,松島１１４１－５ガレリア１Ｆ,,33,202,7010114,,,,,,,2022-11-04,1,,,,,アスティバン,0
2089,7260001037372,新規,0,2022-11-04,2022-11-04,株式会社アライブオン,,株式会社,岡山県,岡山市北区,北長瀬表町３丁目１７番１号,,33,101,7000962,,,,,,,2022-11-04,1,,,,,アライブオン,0
2091,7280003001663,新規,0,2022-11-04,2022-11-04,合同会社琴鳴御塩ル,,合同会社,島根県,大田市,仁摩町馬路１５４６番地５１,,32,205,6992304,,,,,,,2022-11-04,1,,,,,コトナキヲエル,0
2098,7290001099419,新規,0,2022-11-04,2022-11-04,ｔｈａｎｋｓｅｅｄ株式会社,,株式会社,福岡県,福岡市東区,馬出１丁目１０－２メディカルセンタービル九大病院前７Ｆ,,40,131,8120054,,,,,,,2022-11-04,1,,,,,サンクシード,0
2099,7290001099435,新規,0,2022-11-04,2022-11-04,アジサイ株式会社,,株式会社,福岡県,福岡市早良区,百道浜１丁目３－７０－５８０６号ザ・レジデンシャルスイート・福岡オフィスタワー５号棟,,40,137,8140001,,,,,,,2022-11-04,1,,,,,アジサイ,0
2100,7290001099443,新規,0,2022-11-04,2022-11-04,ＰＦメディカル株式会社,,株式会社,福岡県,福岡市中央区,天神４丁目６番２８号天神ファーストビル７階,,40,133,8100001,,,,,,,2022-11-04,1,,,,,ピーエフメディカル,0
2101,7290001099468,新規,0,2022-11-04,2022-11-04,オギハラ建設株式会社,,株式会社,福岡県,福岡市南区,長丘１丁目６番２６号,,40,134,8150075,,,,,,,2022-11-04,1,,,,,オギハラケンセツ,0
2102,7290001099476,新規,0,2022-11-04,2022-11-04,株式会社ウィルビルド,,株式会社,福岡県,福岡市博多区,浦田１丁目５番３９－１６号,,40,132,8120861,,,,,,,2022-11-04,1,,,,,ウィルビルド,0
2104,7290003013146,新規,0,2022-11-04,2022-11-04,合同会社ＳＯＨ,,合同会社,福岡県,福岡市東区,下原２丁目３０番９号,,40,131,8130002,,,,,,,2022-11-04,1,,,,,ソウ,0
2105,7290005018845,新規,0,2022-11-04,2022-11-04,一般社団法人ＥＨＣ．２４,,その他の設立登記法人,福岡県,福岡市南区,野間４丁目２９番１号,,40,134,8150041,,,,,,,2022-11-04,1,,,,,イーエイチシードットニジュウヨン,0
2107,7290801029005,新規,0,2022-11-04,2022-11-04,エスケイ海運株式会社,,株式会社,福岡県,北九州市若松区,本町２丁目１０番８号,,40,103,8080034,,,,,,,2022-11-04,1,,,,,エスケイカイウン,0
2112,7300001013113,新規,0,2022-11-04,2022-11-04,株式会社Ｒｉｔｙ,,株式会社,佐賀県,佐賀市,若楠２丁目１３番３号,,41,201,8490928,,,,,,,2022-11-04,1,,,,,リティ,0
2114,7310001018103,新規,0,2022-11-04,2022-11-04,株式会社カーウォッシュマスター,,株式会社,長崎県,諫早市,久山町１７８５番地５,,42,204,8540066,,,,,,,2022-11-04,1,,,,,カーウォッシュマスター,0
2117,7310005008645,新規,0,2022-11-04,2022-11-04,一般社団法人九十九島ねこの郷,,その他の設立登記法人,長崎県,佐世保市,柚木町２７８８番地,,42,202,8570112,,,,,,,2022-11-04,1,,,,,クジュウクシマネコノサト,0
2122,7330001030238,新規,0,2022-11-04,2022-11-04,株式会社ＹＵＭＥＷＡＣ,,株式会社,熊本県,熊本市北区,植木町舞尾４８４番地８,,43,105,8610134,,,,,,,2022-11-04,1,,,,,ユメワク,0
2123,7330001030254,新規,0,2022-11-04,2022-11-04,株式会社３５０,,株式会社,熊本県,熊本市中央区,坪井６丁目２８番８－３０２号,,43,101,8600863,,,,,,,2022-11-04,1,,,,,サンゴウマル,0
2124,7330001030262,新規,0,2022-11-04,2022-11-04,株式会社ｓｙｎｅｒｇｙ,,株式会社,熊本県,熊本市南区,無田口町１４７７番地１,,43,104,8615261,,,,,,,2022-11-04,1,,,,,シナジー,0
2133,7350001018017,新規,0,2022-11-04,2022-11-04,株式会社竹本工業,,株式会社,宮崎県,延岡市,富美山町９５１番地７１,,45,203,8820051,,,,,,,2022-11-04,1,,,,,タケモトコウギョウ,0
2134,7350001018025,新規,0,2022-11-04,2022-11-04,株式会社イマル設計,,株式会社,宮崎県,日向市,大字富高６４４４番地１００,,45,206,8830034,,,,,,,2022-11-04,1,,,,,イマルセッケイ,0
2153,7430001087771,新規,0,2022-11-04,2022-11-04,株式会社ＮｏＤｉｓｔ,,株式会社,北海道,札幌市中央区,南二条西１０丁目１０００番－３０　ｆｅｅｌ２０１　９０３号室,,01,101,0600062,,,,,,,2022-11-04,1,,,,,ノディスト,0
2159,7450001013833,新規,0,2022-11-04,2022-11-04,株式会社Ｗｉｎｓ,,株式会社,北海道,旭川市,八条通１５丁目７４番地３０,,01,204,0700038,,,,,,,2022-11-04,1,,,,,ウインズ,0
2160,7450003002264,新規,0,2022-11-04,2022-11-04,合同会社Ｂｅｎｃｈｔｉｍｅ,,合同会社,北海道,旭川市,工業団地一条１丁目１番２６号,,01,204,0788271,,,,,,,2022-11-04,1,,,,,ベンチタイム,0
2163,7470001019317,新規,0,2022-11-04,2022-11-04,株式会社ＴＫ商事,,株式会社,香川県,高松市,川島本町４２０番地２,,37,201,7610442,,,,,,,2022-11-04,1,,,,,ティーケーショウジ,0
2164,7470001019325,新規,0,2022-11-04,2022-11-04,ジャパングリーンエナジー株式会社,,株式会社,香川県,丸亀市,川西町北１３５０番地１,,37,202,7630091,,,,,,,2022-11-04,1,,,,,ジャパングリーンエナジー,0
2176,7500001024569,新規,0,2022-11-04,2022-11-04,株式会社友明総業,,株式会社,愛媛県,越智郡上島町,岩城１９０４番地,,38,356,7942410,,,,,,,2022-11-04,1,,,,,ユウメイソウギョウ,0
2177,7500001024577,新規,0,2022-11-04,2022-11-04,株式会社カナヤタマ,,株式会社,愛媛県,松山市,南梅本町７７７番地,,38,201,7910245,,,,,,,2022-11-04,1,,,,,,0
2196,8010001230521,新規,0,2022-11-04,2022-11-04,株式会社ＤＭＰ　Ａｘｙｚ,,株式会社,東京都,中央区,日本橋室町４丁目１番２１号近三ビルヂング６階,,13,102,1030022,,,,,,,2022-11-04,1,,,,,ディーエムピーアクシズ,0
2197,8010001230554,新規,0,2022-11-04,2022-11-04,Ｎｅｗ　Ｇｒｏｗｔｈ　Ｔｈｅｏｒｙ株式会社,,株式会社,東京都,中央区,築地３丁目７番１号,,13,102,1040045,,,,,,,2022-11-04,1,,,,,ニューグロースセオリー,0
2200,8010002029021,新規,0,2022-11-04,2022-11-04,有限会社メインテナンスサービス,,有限会社,東京都,文京区,千駄木３丁目４７番３号,,13,105,1130022,,,,,,,2022-11-04,1,,,,,メインテナンスサービス,0
2203,8010003038954,新規,0,2022-11-04,2022-11-04,合同会社オルタナ１８,,合同会社,東京都,千代田区,丸の内３丁目１番１号東京共同会計事務所内,,13,101,1000005,,,,,,,2022-11-04,1,,,,,オルタナエイティーン,0
2204,8010003038987,新規,0,2022-11-04,2022-11-04,ＲＢソーラーセラム合同会社,,合同会社,東京都,千代田区,麹町２丁目８番地ＭＬＣ麹町ビル４階フィンポート税理士法人内,,13,101,1020083,,,,,,,2022-11-04,1,,,,,アールビーソーラーセラム,0
2209,8010101015401,新規,0,2022-11-04,2022-11-04,株式会社カズコーポレーション,,株式会社,東京都,八王子市,明神町１丁目２６番２号ファミール八王子１０４号,,13,201,1920046,,,,,,,2022-11-04,1,,,,,カズコーポレーション,0
2218,8010401170573,新規,0,2022-11-04,2022-11-04,株式会社ＪＥＮＮＩ,,株式会社,東京都,港区,赤坂２丁目１３番１９－１１０１号,,13,103,1070052,,,,,,,2022-11-04,1,,,,,ジェニ,0
2219,8010401170598,新規,0,2022-11-04,2022-11-04,ｍｏｃｈａｎｎａ株式会社,,株式会社,東京都,港区,南青山３丁目１番３６号青山丸竹ビル６Ｆ,,13,103,1070062,,,,,,,2022-11-04,1,,,,,モカンナ,0
2225,8010501049569,新規,0,2022-11-04,2022-11-04,株式会社ＮＯＡＨ　ＰＬＵＳ,,株式会社,東京都,台東区,上野２丁目１１番２－２階Ｄ号,,13,106,1100005,,,,,,,2022-11-04,1,,,,,ノアプラス,0
2226,8010501049577,新規,0,2022-11-04,2022-11-04,株式会社ＩＴ総合人材育成センター,,株式会社,東京都,台東区,台東２丁目６番６号陽輪台みかみビル４Ｆ－４０４,,13,106,1100016,,,,,,,2022-11-04,1,,,,,アイティソウゴウジンザイイクセイセンター,0
2227,8010501049585,新規,0,2022-11-04,2022-11-04,株式会社エンカレ,,株式会社,東京都,台東区,下谷３丁目１番２４号,,13,106,1100004,,,,,,,2022-11-04,1,,,,,エンカレ,0
2231,8010503006774,新規,0,2022-11-04,2022-11-04,合同会社宮田産業,,合同会社,東京都,台東区,千束４丁目２８番５号,,13,106,1110031,,,,,,,2022-11-04,1,,,,,ミヤタサンギョウ,0
2233,8010603009818,新規,0,2022-11-04,2022-11-04,ネクシードコンサルティング合同会社,,合同会社,東京都,江東区,東雲１丁目１０番地１４－７１２号,,13,108,1350062,,,,,,,2022-11-04,1,,,,,ネクシードコンサルティング,0
2234,8010605004148,新規,0,2022-11-04,2022-11-04,一般社団法人なかよし,,その他の設立登記法人,東京都,江東区,亀戸６丁目５５番１８－９０２号,,13,108,1360071,,,,,,,2022-11-04,1,,,,,ナカヨシ,0
2239,8010901051901,新規,0,2022-11-04,2022-11-04,株式会社ディテール,,株式会社,東京都,世田谷区,下馬５丁目３４番２６号,,13,112,1540002,,,,,,,2022-11-04,1,,,,,ディテール,0
2241,8010903007752,新規,0,2022-11-04,2022-11-04,合同会社オランジュ,,合同会社,東京都,世田谷区,太子堂１丁目４番３２－９０６,,13,112,1540004,,,,,,,2022-11-04,1,,,,,オランジュ,0
2243,8011001150437,新規,0,2022-11-04,2022-11-04,株式会社ノイエ,,株式会社,東京都,目黒区,下目黒１丁目２－２１,,13,110,1530064,,,,,,,2022-11-04,1,,,,,ノイエ,0
2244,8011001150668,新規,0,2022-11-04,2022-11-04,株式会社星野屋,,株式会社,東京都,渋谷区,初台１丁目３０番１－８０５号,,13,113,1510061,,,,,,,2022-11-04,1,,,,,ホシノヤ,0
2245,8011001150775,新規,0,2022-11-04,2022-11-04,株式会社ＣＯＫＵ,,株式会社,東京都,渋谷区,道玄坂１丁目１０番８号渋谷道玄坂東急ビル２Ｆ－Ｃ,,13,113,1500043,,,,,,,2022-11-04,1,,,,,コク,0
2246,8011003015646,新規,0,2022-11-04,2022-11-04,ＨＡマネジメント合同会社,,合同会社,東京都,渋谷区,猿楽町２９番１８号,,13,113,1500033,,,,,,,2022-11-04,1,,,,,エイチエーマネジメント,0
2256,8011301028218,新規,0,2022-11-04,2022-11-04,株式会社Ｒｅａｌｉｚｅ,,株式会社,東京都,杉並区,高円寺北２丁目４番１１－５０１号,,13,115,1660002,,,,,,,2022-11-04,1,,,,,リアライズ,0
2259,8011701025756,新規,0,2022-11-04,2022-11-04,株式会社Ｃｅｒａｍｉｃ　Ｓｔｕｄｉｏ　Ｈｙａｎｇ,,株式会社,東京都,江戸川区,中央４丁目１１番８号,,13,123,1320021,,,,,,,2022-11-04,1,,,,,セラミックスタジオヒャン,0
2264,8011803005350,新規,0,2022-11-04,2022-11-04,合同会社ｎａｌｕ　ｈａｉｒ,,合同会社,東京都,足立区,舎人２丁目１４番６号,,13,121,1210831,,,,,,,2022-11-04,1,,,,,ナルヘアー,0
2265,8012303001740,新規,0,2022-11-04,2022-11-04,くうたろう合同会社,,合同会社,東京都,町田市,本町田１９６－４,,13,209,1940032,,,,,,,2022-11-04,1,,,,,クウタロウ,0
2269,8012401039823,新規,0,2022-11-04,2022-11-04,株式会社ＬｉＦｉｘ,,株式会社,東京都,府中市,府中町２丁目２２番地の１－３０１号室,,13,206,1830055,,,,,,,2022-11-04,1,,,,,ライフィックス,0
2272,8012701017330,新規,0,2022-11-04,2022-11-04,株式会社積成工業,,株式会社,東京都,小平市,大沼町１丁目７番４３号,,13,211,1870001,,,,,,,2022-11-04,1,,,,,セキセイコウギョウ,0
2275,8013301049879,新規,0,2022-11-04,2022-11-04,株式会社ＳＡＫＡＥトータルマネジメント,,株式会社,東京都,豊島区,南池袋２丁目２９番１２号,,13,116,1710022,,,,,,,2022-11-04,1,,,,,サカエトータルマネジメント,0
2276,8013301049887,新規,0,2022-11-04,2022-11-04,株式会社ドラゴン・ニュー,,株式会社,東京都,豊島区,南池袋２丁目４５番２－２１０９号,,13,116,1710022,,,,,,,2022-11-04,1,,,,,ドラゴンニュー,0
2278,8013303006358,新規,0,2022-11-04,2022-11-04,合同会社ハイデルベーレ,,合同会社,東京都,豊島区,高田３丁目３０番３号グランパセオ高田馬場４０１号,,13,116,1710033,,,,,,,2022-11-04,1,,,,,ハイデルベーレ,0
2286,8020001148754,新規,0,2022-11-04,2022-11-04,株式会社ファーストクルー・テクニカル,,株式会社,神奈川県,横浜市都筑区,仲町台５丁目２番２５号,,14,118,2240041,,,,,,,2022-11-04,1,,,,,ファーストクルーテクニカル,0
2287,8020001148812,新規,0,2022-11-04,2022-11-04,ＵＩＨ株式会社,,株式会社,神奈川県,横浜市港北区,綱島西２丁目６－１７黒川ビル７０２,,14,109,2230053,,,,,,,2022-11-04,1,,,,,ユーアイエイチ,0
2291,8020003022619,新規,0,2022-11-04,2022-11-04,合同会社Ｓｉｄｅ　Ｊｏｂ,,合同会社,神奈川県,川崎市多摩区,登戸２０４－２セントヒルズ向ヶ丘遊園４０８,,14,135,2140014,,,,,,,2022-11-04,1,,,,,サイドジョブ,0
2292,8020003022668,新規,0,2022-11-04,2022-11-04,合同会社ＢＬＯＯＭ,,合同会社,神奈川県,横浜市金沢区,六浦南２丁目２６番４６号,,14,108,2360038,,,,,,,2022-11-04,1,,,,,ブルーム,0
2293,8020003022676,新規,0,2022-11-04,2022-11-04,合同会社ＩＳコンサルティング,,合同会社,神奈川県,横浜市中区,真砂町３丁目３１アクティオーレ関内７階,,14,104,2310016,,,,,,,2022-11-04,1,,,,,アイエスコンサルティング,0
2294,8020005015703,新規,0,2022-11-04,2022-11-04,一般財団法人Ｎｉｇｈｔｉｎｇａｌｅ,,その他の設立登記法人,神奈川県,川崎市多摩区,南生田４丁目６番６号医療モール１Ｆ,,14,135,2140036,,,,,,,2022-11-04,1,,,,,ナイチンゲール,0
2303,8030001150841,新規,0,2022-11-04,2022-11-04,株式会社ライデンコウ,,株式会社,埼玉県,富士見市,大字東大久保８９番地４,,11,235,3540001,,,,,,,2022-11-04,1,,,,,ライデンコウ,0
2304,8030001150874,新規,0,2022-11-04,2022-11-04,株式会社パラダイスガレージ,,株式会社,埼玉県,朝霞市,栄町４丁目２番８号,,11,227,3510012,,,,,,,2022-11-04,1,,,,,パラダイスガレージ,0
2305,8030001150890,新規,0,2022-11-04,2022-11-04,株式会社アイシン,,株式会社,埼玉県,さいたま市岩槻区,大字飯塚１０２０番地１１,,11,110,3390031,,,,,,,2022-11-04,1,,,,,アイシン,0
2306,8030001150940,新規,0,2022-11-04,2022-11-04,株式会社ＬＩＮＫ企画,,株式会社,埼玉県,所沢市,三ケ島４丁目２３７９番地の１０,,11,208,3591164,,,,,,,2022-11-04,1,,,,,リンクキカク,0
2309,8030003020489,新規,0,2022-11-04,2022-11-04,合同会社ビーフン屋,,合同会社,埼玉県,越谷市,大間野町３丁目１２７番地,,11,222,3430844,,,,,,,2022-11-04,1,,,,,ビーフンヤ,0
2310,8030003020497,新規,0,2022-11-04,2022-11-04,ＢＩＮＨ　ＭＩＮＨ合同会社,,合同会社,埼玉県,蕨市,中央１丁目３３番３号レジデンスＬＩＮＤＯ４０２号,,11,223,3350004,,,,,,,2022-11-04,1,,,,,ビンミン,0
2317,8040001125644,新規,0,2022-11-04,2022-11-04,株式会社サラス・インターナショナル,,株式会社,千葉県,柏市,藤心１丁目１５番１４号,,12,217,2770034,,,,,,,2022-11-04,1,,,,,サラスインターナショナル,0
2318,8040001125693,新規,0,2022-11-04,2022-11-04,株式会社メディエステート,,株式会社,千葉県,千葉市緑区,おゆみ野南６丁目４９番地４,,12,105,2660033,,,,,,,2022-11-04,1,,,,,メディエステート,0
2319,8040001125702,新規,0,2022-11-04,2022-11-04,株式会社クリシア,,株式会社,千葉県,市川市,鬼高３丁目１２番１８号,,12,203,2720015,,,,,,,2022-11-04,1,,,,,クリシア,0
2324,8060001035404,新規,0,2022-11-04,2022-11-04,株式会社ｓａｍｅ．ｃ,,株式会社,栃木県,小山市,大字土塔２１７番地１,,09,208,3230812,,,,,,,2022-11-04,1,,,,,セイムドットシー,0
2325,8060001035412,新規,0,2022-11-04,2022-11-04,株式会社サトウ工業,,株式会社,栃木県,宇都宮市,西刑部町２４３５番地８,,09,201,3210917,,,,,,,2022-11-04,1,,,,,サトウコウギョウ,0
2326,8060001035420,新規,0,2022-11-04,2022-11-04,株式会社パクマケ,,株式会社,栃木県,宇都宮市,中今泉５丁目３２番１１号,,09,201,3210968,,,,,,,2022-11-04,1,,,,,パクマケ,0
2328,8070003004678,新規,0,2022-11-04,2022-11-04,ＳＯＬＥ合同会社,,合同会社,群馬県,伊勢崎市,波志江町３８８番地２,,10,204,3720001,,,,,,,2022-11-04,1,,,,,ソーレ,0
2329,8080001025279,新規,0,2022-11-04,2022-11-04,株式会社ｍ‐ｔｅｃｈ,,株式会社,静岡県,静岡市清水区,天王南５番２１号,,22,103,4240014,,,,,,,2022-11-04,1,,,,,エムテック,0
2335,8080101023604,新規,0,2022-11-04,2022-11-04,ＪＣコーポレーション株式会社,,株式会社,静岡県,御殿場市,清後２０３番地の６,,22,215,4120022,,,,,,,2022-11-04,1,,,,,ジェイシーコーポレーション,0
2336,8080101023612,新規,0,2022-11-04,2022-11-04,太陽精工株式会社,,株式会社,静岡県,伊豆市,修善寺３１２５番地の１１,,22,222,4102416,,,,,,,2022-11-04,1,,,,,タイヨウセイコウ,0
2337,8080101023620,新規,0,2022-11-04,2022-11-04,株式会社ＭＳＹ陸送,,株式会社,静岡県,沼津市,青野１７８番地の３,,22,203,4100307,,,,,,,2022-11-04,1,,,,,エムエスワイリクソウ,0
2341,8090002015757,新規,0,2022-11-04,2022-11-04,有限会社徳乃イオンサロン,,有限会社,山梨県,北都留郡小菅村,３２７５番地,,19,442,4090211,,,,,,,2022-11-04,1,,,,,,0
2344,8100001035829,新規,0,2022-11-04,2022-11-04,株式会社あらさ,,株式会社,長野県,安曇野市,穂高有明１１５２番地,,20,220,3998301,,,,,,,2022-11-04,1,,,,,アラサ,0
2350,8110001037072,新規,0,2022-11-04,2022-11-04,Ｔｒｅｓ株式会社,,株式会社,新潟県,新潟市中央区,関屋下川原町２丁目１０番地３,,15,103,9518127,,,,,,,2022-11-04,1,,,,,トレス,0
2351,8110001037080,新規,0,2022-11-04,2022-11-04,いちご想い株式会社,,株式会社,新潟県,新潟市北区,樋ノ入５２３番地１,00128349,15,101,9503307,,,,,,,2022-11-04,1,,,,,イチゴオモイ,0
2352,8110001037097,新規,0,2022-11-04,2022-11-04,株式会社ＩＢＳ,,株式会社,新潟県,長岡市,新保町６９８番地４,,15,202,9400876,,,,,,,2022-11-04,1,,,,,アイビーエス,0
2367,8120001249947,新規,0,2022-11-04,2022-11-04,前訊株式会社,,株式会社,大阪府,大阪市中央区,松屋町９番２０号ローレルステート松屋町７１０Ａ,,27,128,5420067,,,,,,,2022-11-04,1,,,,,ゼンジン,0
2368,8120001249996,新規,0,2022-11-04,2022-11-04,株式会社Ｍｅｒｌｙ,,株式会社,大阪府,大阪市西区,北堀江１丁目２－１６おおきにサイタ・サイタビルヂング新館２階,,27,106,5500014,,,,,,,2022-11-04,1,,,,,メリー,0
2369,8120001250079,新規,0,2022-11-04,2022-11-04,株式会社ＷｉｓｅＩＰテクノ,,株式会社,大阪府,大阪市淀川区,宮原３丁目５番３６号,,27,123,5320003,,,,,,,2022-11-04,1,,,,,ワイズアイピーテクノ,0
2370,8120001250095,新規,0,2022-11-04,2022-11-04,株式会社プロスティア,,株式会社,大阪府,大阪市中央区,平野町１丁目８番５－４０３号,,27,128,5410046,,,,,,,2022-11-04,1,,,,,プロスティア,0
2371,8120001250137,新規,0,2022-11-04,2022-11-04,株式会社ＨＵＭ,,株式会社,大阪府,大阪市北区,豊崎５丁目７番１５号リゾーン中津０２、２０９号室,,27,127,5310072,,,,,,,2022-11-04,1,,,,,ハム,0
2378,8120003022798,新規,0,2022-11-04,2022-11-04,アークコンサルティング合同会社,,合同会社,大阪府,大阪市北区,梅田１丁目１番３－２００号大阪駅前第３ビル２階３４号室,,27,127,5300001,,,,,,,2022-11-04,1,,,,,アークコンサルティング,0
2384,8120101066466,新規,0,2022-11-04,2022-11-04,株式会社こころ,,株式会社,大阪府,大阪狭山市,茱萸木６丁目９８４番地の１,,27,231,5890013,,,,,,,2022-11-04,1,,,,,ココロ,0
2387,8120103004911,新規,0,2022-11-04,2022-11-04,ＮＴＨ合同会社,,合同会社,大阪府,藤井寺市,北條町八丁目２１番地,,27,226,5830002,,,,,,,2022-11-04,1,,,,,エヌティーエイチ,0
2392,8130005016624,新規,0,2022-11-04,2022-11-04,一般社団法人日本騒音対策協会,,その他の設立登記法人,京都府,宇治市,槇島町中川原５２,,26,204,6110041,,,,,,,2022-11-04,1,,,,,ニホンソウオンタイサクキョウカイ,0
2397,8140001127886,新規,0,2022-11-04,2022-11-04,株式会社西岡建窓,,株式会社,兵庫県,伊丹市,梅ノ木１丁目３番７－２号,,28,207,6640856,,,,,,,2022-11-04,1,,,,,ニシオカケンソウ,0
2398,8140001127894,新規,0,2022-11-04,2022-11-04,ＣｏＬａｂ，Ｉ株式会社,,株式会社,兵庫県,加古川市,上荘町小野９５２番地,,28,210,6751218,,,,,,,2022-11-04,1,,,,,コラボアイ,0
2399,8140001127903,新規,0,2022-11-04,2022-11-04,株式会社Ｋ．Ｅｎｇｉ．,,株式会社,兵庫県,神戸市北区,広陵町６丁目１６６番地の２,,28,109,6511213,,,,,,,2022-11-04,1,,,,,ケイエンジ,0
2400,8140001127944,新規,0,2022-11-04,2022-11-04,稲葉グリーン株式会社,,株式会社,兵庫県,尼崎市,稲葉荘４丁目８番５号,,28,202,6600064,,,,,,,2022-11-04,1,,,,,イナバグリーン,0
2401,8140001127952,新規,0,2022-11-04,2022-11-04,ファクトリッシュ株式会社,,株式会社,兵庫県,伊丹市,千僧６丁目１７０番地,,28,207,6640898,,,,,,,2022-11-04,1,,,,,ファクトリッシュ,0
2402,8140001127969,新規,0,2022-11-04,2022-11-04,株式会社泰成食品,,株式会社,兵庫県,神戸市中央区,北本町通６丁目４番１４号,,28,110,6510075,,,,,,,2022-11-04,1,,,,,タイセイショクヒン,0
2403,8140001127977,新規,0,2022-11-04,2022-11-04,株式会社ＳＰＥＬＥＸ,,株式会社,兵庫県,神戸市北区,鈴蘭台北町２丁目７番９号,,28,109,6511111,,,,,,,2022-11-04,1,,,,,スペレックス,0
2404,8140001127985,新規,0,2022-11-04,2022-11-04,株式会社スペース,,株式会社,兵庫県,神戸市兵庫区,金平町１丁目５番２号－３０２号,,28,105,6520873,,,,,,,2022-11-04,1,,,,,スペース,0
2406,8140003018299,新規,0,2022-11-04,2022-11-04,合同会社ＧＵＮＪＯ,,合同会社,兵庫県,神戸市東灘区,向洋町中１丁目４番地の１２５,,28,101,6580032,,,,,,,2022-11-04,1,,,,,グンジョウ,0
2407,8140003018308,新規,0,2022-11-04,2022-11-04,錦兮商事合同会社,,合同会社,兵庫県,神戸市兵庫区,梅元町９番２０号－１号,,28,105,6520003,,,,,,,2022-11-04,1,,,,,キンカショウジ,0
2408,8140003018324,新規,0,2022-11-04,2022-11-04,合同会社きずな,,合同会社,兵庫県,三田市,駅前町３－１０ルネ三田駅前ハートシティ８１０号室,,28,219,6691528,,,,,,,2022-11-04,1,,,,,キズナ,0
2409,8140003018332,新規,0,2022-11-04,2022-11-04,合同会社Ｃｅｌｅｂｒａｔｅ,,合同会社,兵庫県,神戸市中央区,山本通２丁目２－２レジデンス明信４０２,,28,110,6500003,,,,,,,2022-11-04,1,,,,,セレブレート,0
2411,8150001025924,新規,0,2022-11-04,2022-11-04,株式会社ナラヤマ・オート,,株式会社,奈良県,奈良市,佐保台西町９４番地,,29,201,6308106,,,,,,,2022-11-04,1,,,,,ナラヤマオート,0
2412,8150001025932,新規,0,2022-11-04,2022-11-04,株式会社ＷＩＬＬ,,株式会社,奈良県,御所市,大字櫛羅２８１－１,00128350,29,208,6392312,,,,,,,2022-11-04,1,,,,,ウィル,0
2413,8160001024611,新規,0,2022-11-04,2022-11-04,株式会社グロウセキュリティ,,株式会社,滋賀県,彦根市,東沼波町１２１５番地６,,25,202,5220027,,,,,,,2022-11-04,1,,,,,グロウセキュリティ,0
2414,8160001024628,新規,0,2022-11-04,2022-11-04,株式会社Ｍ’ｓ　ｇｌｏｗ,,株式会社,滋賀県,大津市,一里山１丁目１５番３号,,25,201,5202153,,,,,,,2022-11-04,1,,,,,エムズグロー,0
2416,8170001017366,新規,0,2022-11-04,2022-11-04,株式会社春夏秋冬,,株式会社,和歌山県,有田郡湯浅町,大字湯浅１９１４番地１２,,30,361,6430004,,,,,,,2022-11-04,1,,,,,シュンカシュウトウ,0
2422,8180001153623,新規,0,2022-11-04,2022-11-04,株式会社ＭａＶｉｅ,,株式会社,愛知県,名古屋市昭和区,丸屋町６丁目８９番地,,23,107,4660045,,,,,,,2022-11-04,1,,,,,メヴィ,0
2423,8180001153648,新規,0,2022-11-04,2022-11-04,Ｅ‐ＰＡＬＥＴＴＥ株式会社,,株式会社,愛知県,名古屋市守山区,四軒家２丁目７２２番地,,23,113,4630034,,,,,,,2022-11-04,1,,,,,イーパレット,0
2424,8180001153680,新規,0,2022-11-04,2022-11-04,株式会社ｓｔａｒｔ　ｅｄｇｅ,,株式会社,愛知県,豊明市,西川町横井２番地１５,,23,229,4701121,,,,,,,2022-11-04,1,,,,,スタートエッジ,0
2428,8180003024434,新規,0,2022-11-04,2022-11-04,レオ・プロダクツ合同会社,,合同会社,愛知県,名古屋市天白区,原２丁目３４１４番地１Ｆ,,23,116,4680015,,,,,,,2022-11-04,1,,,,,レオプロダクツ,0
2433,8190001029871,新規,0,2022-11-04,2022-11-04,株式会社ニューケーション,,株式会社,三重県,津市,一身田平野３６６番地,,24,201,5140111,,,,,,,2022-11-04,1,,,,,ニューケーション,0
2434,8190001029896,新規,0,2022-11-04,2022-11-04,株式会社長太夫,,株式会社,三重県,志摩市,阿児町鵜方２４１７番地８,,24,215,5170501,,,,,,,2022-11-04,1,,,,,チョウダユウ,0
2435,8190001029905,新規,0,2022-11-04,2022-11-04,モトムラ工業株式会社,,株式会社,三重県,鈴鹿市,池田町１１２３番地,,24,207,5130032,,,,,,,2022-11-04,1,,,,,モトムラコウギョウ,0
2438,8200001040612,新規,0,2022-11-04,2022-11-04,株式会社オリベホールディングス,,株式会社,岐阜県,土岐市,泉町大富１８５３番地の４４,,21,212,5095132,,,,,,,2022-11-04,1,,,,,オリベホールディングス,0
2439,8200001040645,新規,0,2022-11-04,2022-11-04,Ｓｅｖｅｎｔｈ　ｈｅａｖｅｎ株式会社,,株式会社,岐阜県,岐阜市,茜部菱野４丁目３５番地１モアグレース茜部ＩＶ１１０１,00128361,21,201,5008268,,,,,,,2022-11-04,1,,,,,セブンスヘブン,0
2442,8200005013408,新規,0,2022-11-04,2022-11-04,社会保険労務士法人すこやか経営,,その他の設立登記法人,岐阜県,大垣市,宮町１丁目１０番地ＩＴＯビル７号,,21,202,5030905,,,,,,,2022-11-04,1,,,,,スコヤカケイエイ,0
2443,8210001019143,新規,0,2022-11-04,2022-11-04,株式会社ＳＴＡＮＤ．,,株式会社,福井県,越前市,行松町１７－３－２・２Ｆ,,18,209,9150853,,,,,,,2022-11-04,1,,,,,スタンド,0
2445,8210003001578,新規,0,2022-11-04,2022-11-04,合同会社ＵＳＥ　ＣＡＳＥ,,合同会社,福井県,福井市,栗森２丁目１７０４番地ＳｐｉｎｅｌＢ号,,18,201,9100137,,,,,,,2022-11-04,1,,,,,ユースケース,0
2450,8230001019570,新規,0,2022-11-04,2022-11-04,フルハウス株式会社,,株式会社,富山県,富山市,下新町３０番１８号ＩＡ,00128347,16,201,9300804,,,,,,,2022-11-04,1,,,,,フルハウス,0
2455,8240001060598,新規,0,2022-11-04,2022-11-04,株式会社福本商店,,株式会社,広島県,呉市,蒲刈町田戸１０３３番地１,,34,202,7370403,,,,,,,2022-11-04,1,,,,,フクモトショウテン,0
2460,8260003004089,新規,0,2022-11-04,2022-11-04,Ｓａｎ　Ｃｌｅｍｅｎｔｅ合同会社,,合同会社,岡山県,倉敷市,新田２９７１番地１,,33,202,7100038,,,,,,,2022-11-04,1,,,,,サンクレメンテ,0
2462,8280003001662,新規,0,2022-11-04,2022-11-04,合同会社ライトカーゴ,,合同会社,島根県,松江市,東出雲町出雲郷７２２番地１パークプレイス２０５号,,32,201,6990108,,,,,,,2022-11-04,1,,,,,,0
2465,8290001099401,新規,0,2022-11-04,2022-11-04,ＷＡＡＭ株式会社,,株式会社,福岡県,福岡市東区,香椎浜３丁目３－５－１０２０,,40,131,8130016,,,,,,,2022-11-04,1,,,,,ワーム,0
2466,8290001099426,新規,0,2022-11-04,2022-11-04,株式会社Ｓｐｉｃｅ　ｕｐ．,,株式会社,福岡県,久留米市,東町３９番地１１,,40,203,8300032,,,,,,,2022-11-04,1,,,,,スパイスアップ,0
2467,8290001099442,新規,0,2022-11-04,2022-11-04,株式会社ＩＦＤ,,株式会社,福岡県,福岡市南区,大楠２丁目２３番１２－２０１号,,40,134,8150082,,,,,,,2022-11-04,1,,,,,アイエフディー,0
2468,8290001099459,新規,0,2022-11-04,2022-11-04,株式会社ＫＴＦ,,株式会社,福岡県,古賀市,天神６丁目７番２３－２０８号,,40,223,8113101,,,,,,,2022-11-04,1,,,,,ケーティーエフ,0
2469,8290001099467,新規,0,2022-11-04,2022-11-04,福岡貿易株式会社,,株式会社,福岡県,福岡市中央区,高砂２丁目６番４号,,40,133,8100011,,,,,,,2022-11-04,1,,,,,フクオカボウエキ,0
2470,8290001099483,新規,0,2022-11-04,2022-11-04,株式会社かなた,,株式会社,福岡県,那珂川市,王塚台２丁目３４８番地,,40,231,8111221,,,,,,,2022-11-04,1,,,,,カナタ,0
2477,8300001013112,新規,0,2022-11-04,2022-11-04,株式会社ヨゾラ,,株式会社,佐賀県,杵島郡江北町,大字山口１３９９番地５ユメックスマンション江北８０３号,,41,424,8490501,,,,,,,2022-11-04,1,,,,,ヨゾラ,0
2478,8310001018110,新規,0,2022-11-04,2022-11-04,株式会社プリージングカンパニー,,株式会社,長崎県,諫早市,小川町４３３番地３,,42,204,8540053,,,,,,,2022-11-04,1,,,,,プリージングカンパニー,0
2479,8320001019405,新規,0,2022-11-04,2022-11-04,株式会社オカモト農建,,株式会社,大分県,大分市,大字木田１１２５の１番地,,44,201,8700311,,,,,,,2022-11-04,1,,,,,オカモトノウケン,0
2481,8320003003943,新規,0,2022-11-04,2022-11-04,合同会社Ｐｒａｙ　Ｓｔａｔｉｏｎ,,合同会社,大分県,杵築市,大字八坂１９５７番地４,,44,210,8730015,,,,,,,2022-11-04,1,,,,,プレイステーション,0
2482,8330001030245,新規,0,2022-11-04,2022-11-04,西山建設株式会社,,株式会社,熊本県,上益城郡益城町,大字寺中４０７番地２,,43,443,8612201,,,,,,,2022-11-04,1,,,,,ニシヤマケンセツ,0
2483,8330001030253,新規,0,2022-11-04,2022-11-04,株式会社ひご水産,,株式会社,熊本県,玉名市,岱明町高道２７７６番地１,,43,206,8690202,,,,,,,2022-11-04,1,,,,,ヒゴスイサン,0
2484,8330001030261,新規,0,2022-11-04,2022-11-04,株式会社１ｓｔ　ｉｎｎｏｖａｔｉｏｎ,,株式会社,熊本県,熊本市東区,秋津１丁目１番９４号,,43,102,8612104,,,,,,,2022-11-04,1,,,,,ファーストイノベーション,0
2485,8330003009576,新規,0,2022-11-04,2022-11-04,合同会社押忍ファーム,,合同会社,熊本県,宇城市,松橋町両仲間１１０８番地,,43,213,8690533,,,,,,,2022-11-04,1,,,,,オスファーム,0
2493,8350001018016,新規,0,2022-11-04,2022-11-04,株式会社高千穂梅園,,株式会社,宮崎県,宮崎市,日ノ出町９５番地１,,45,201,8800856,,,,,,,2022-11-04,1,,,,,タカチホバイエン,0
2494,8350001018024,新規,0,2022-11-04,2022-11-04,南九州林機株式会社,,株式会社,宮崎県,小林市,細野２９５２番地１,,45,205,8860004,,,,,,,2022-11-04,1,,,,,ミナミキュウシュウリンキ,0
2495,8350003004212,新規,0,2022-11-04,2022-11-04,合同会社ＵＮＩＭＵＧＩ,,合同会社,宮崎県,宮崎市,まなび野２丁目１１番地４,,45,201,8800929,,,,,,,2022-11-04,1,,,,,ウニムギ,0
2497,8360001031141,新規,0,2022-11-04,2022-11-04,株式会社いっぱい,,株式会社,沖縄県,那覇市,久米２丁目１６番３０号５０２,,47,201,9000033,,,,,,,2022-11-04,1,,,,,イッパイ,0
2499,8370001049208,新規,0,2022-11-04,2022-11-04,株式会社ＮＣＬ企画,,株式会社,宮城県,仙台市青葉区,一番町１丁目１－３１－２Ｆ,,04,101,9800811,,,,,,,2022-11-04,1,,,,,エヌシーエルキカク,0
2500,8370001049224,新規,0,2022-11-04,2022-11-04,株式会社枝樹,,株式会社,宮城県,刈田郡蔵王町,遠刈田温泉字小妻坂５３番地１５０,,04,301,9890916,,,,,,,2022-11-04,1,,,,,シジュ,0
2502,8370003005885,新規,0,2022-11-04,2022-11-04,合同会社Ｇ‐Ｐｒｅｓｓ,,合同会社,宮城県,名取市,名取が丘３丁目２３番４号,,04,207,9811235,,,,,,,2022-11-04,1,,,,,ジープレス,0
2513,8430001087787,新規,0,2022-11-04,2022-11-04,株式会社あおぞら・ワークス,,株式会社,北海道,札幌市中央区,北二条東７丁目９番地２５,,01,101,0600032,,,,,,,2022-11-04,1,,,,,アオゾラワークス,0
2514,8430003014434,新規,0,2022-11-04,2022-11-04,ＳＨＩＮＫＯ合同会社,,合同会社,北海道,岩見沢市,幌向南三条１丁目２１５番地５２,,01,210,0690373,,,,,,,2022-11-04,1,,,,,シンコー,0
2516,8460305001986,新規,0,2022-11-04,2022-11-04,小清水村農業會,,その他の設立登記法人,北海道,斜里郡小清水町,大字止別村字小清水市街東一条通四丁目１８番地,,01,547,0993600,,,,,,,2022-11-04,1,,,,,コシミズムラ,0
2519,8470001019316,新規,0,2022-11-04,2022-11-04,株式会社ルポ,,株式会社,香川県,三豊市,三野町下高瀬１０２６番地,,37,208,7670032,,,,,,,2022-11-04,1,,,,,ルポ,0
2520,8470001019324,新規,0,2022-11-04,2022-11-04,株式会社環境事業リヤン,,株式会社,香川県,高松市,牟礼町牟礼２５７５番地５８,,37,201,7610121,,,,,,,2022-11-04,1,,,,,カンキョウジギョウリヤン,0
2523,8480001011916,新規,0,2022-11-04,2022-11-04,株式会社栗尾官業,,株式会社,徳島県,美馬市,美馬町字滝ノ宮１４０番地,,36,207,7712105,,,,,,,2022-11-04,1,,,,,クリオカンギョウ,0
2524,8500001024568,新規,0,2022-11-04,2022-11-04,株式会社ＥＸｔｒａＳｔａｇｅ,,株式会社,愛媛県,新居浜市,喜光地町１丁目５番２号,,38,205,7920826,,,,,,,2022-11-04,1,,,,,エクストラステージ,0
2525,8500001024576,新規,0,2022-11-04,2022-11-04,株式会社友栄工業,,株式会社,愛媛県,新居浜市,桜木町１３番５２号,,38,205,7920865,,,,,,,2022-11-04,1,,,,,,0
2531,9010001230512,新規,0,2022-11-04,2022-11-04,カキランヘルスケア株式会社,,株式会社,東京都,中央区,銀座１丁目１５－４銀座一丁目ビル７階,,13,102,1040061,,,,,,,2022-11-04,1,,,,,カキランヘルスケア,0
2532,9010001230520,新規,0,2022-11-04,2022-11-04,株式会社シトラスムーン,,株式会社,東京都,千代田区,紀尾井町１番５号,,13,101,1020094,,,,,,,2022-11-04,1,,,,,シトラスムーン,0
2533,9010001230545,新規,0,2022-11-04,2022-11-04,株式会社Ｆｕｎ　Ｖｉｖｉｄ,,株式会社,東京都,中央区,東日本橋２丁目２８番４号日本橋ＣＥＴビル２階,,13,102,1030004,,,,,,,2022-11-04,1,,,,,ファンビビッド,0
2534,9010001230561,新規,0,2022-11-04,2022-11-04,株式会社Ａｌｌｓｔａｒ　Ａｌｌｉａｎｃｅ　Ｃｏｒｐｏｒａｔｉｏｎ,,株式会社,東京都,中央区,銀座７丁目１３番２０号銀座ＴＨビル９階,,13,102,1040061,,,,,,,2022-11-04,1,,,,,オールスターアライアンスコーポレーション,0
2535,9010001230603,新規,0,2022-11-04,2022-11-04,株式会社日豊美化,,株式会社,東京都,中央区,日本橋蛎殻町２丁目８番４号,,13,102,1030014,,,,,,,2022-11-04,1,,,,,ニッポウビカ,0
2536,9010001230644,新規,0,2022-11-04,2022-11-04,株式会社Ｂｅａｃｈ,,株式会社,東京都,千代田区,飯田橋２丁目９番３号かすがビル２階Ｂ号室,,13,101,1020072,,,,,,,2022-11-04,1,,,,,ビーチ,0
2541,9010003038953,新規,0,2022-11-04,2022-11-04,合同会社オルタナ１９,,合同会社,東京都,千代田区,丸の内３丁目１番１号東京共同会計事務所内,,13,101,1000005,,,,,,,2022-11-04,1,,,,,オルタナナインティーン,0
2542,9010003038986,新規,0,2022-11-04,2022-11-04,ＲＢソーラールソン合同会社,,合同会社,東京都,千代田区,麹町２丁目８番地ＭＬＣ麹町ビル４階フィンポート税理士法人内,,13,101,1020083,,,,,,,2022-11-04,1,,,,,アールビーソーラールソン,0
2543,9010005035750,新規,0,2022-11-04,2022-11-04,一般社団法人日本シングルマザーエステティック協会,,その他の設立登記法人,東京都,中央区,銀座２丁目１１－１５ＳＦ銀座ビルＢ２Ｆ,,13,102,1040061,,,,,,,2022-11-04,1,,,,,ニホンシングルマザーエステティックキョウカイ,0
2545,9010103002017,新規,0,2022-11-04,2022-11-04,レディバグエフェクト合同会社,,合同会社,東京都,八王子市,片倉町９３９番地１００,,13,201,1920914,,,,,,,2022-11-04,1,,,,,レディバグエフェクト,0
2555,9010401170580,新規,0,2022-11-04,2022-11-04,株式会社スルガスクリーン,,株式会社,東京都,港区,虎ノ門４丁目３番１号城山トラストタワー３１階,,13,103,1050001,,,,,,,2022-11-04,1,,,,,スルガスクリーン,0
2556,9010401170589,新規,0,2022-11-04,2022-11-04,株式会社エーピーシーアンドサンズ,,株式会社,東京都,港区,南麻布３丁目１９－２１グランドガーラ南麻布８０１,,13,103,1060047,,,,,,,2022-11-04,1,,,,,エーピーシーアンドサンズ,0
2557,9010401170622,新規,0,2022-11-04,2022-11-04,ＦＲＥＹＪＡ株式会社,,株式会社,東京都,港区,東麻布１丁目２６番５－７０３号,,13,103,1060044,,,,,,,2022-11-04,1,,,,,フレイヤ,0
2558,9010401170647,新規,0,2022-11-04,2022-11-04,叢雲技研株式会社,,株式会社,東京都,港区,南麻布２丁目８番２１号ＳＮＵＧＭＩＮＡＭＩ－ＡＺＡＢＵ６０４,,13,103,1060047,,,,,,,2022-11-04,1,,,,,ムラクモギケン,0
2564,9010501049576,新規,0,2022-11-04,2022-11-04,進華株式会社,,株式会社,東京都,台東区,上野２丁目１１番１２号４Ｆ,,13,106,1100005,,,,,,,2022-11-04,1,,,,,シンカ,0
2566,9010701043379,新規,0,2022-11-04,2022-11-04,株式会社ジーティーデザイン,,株式会社,東京都,品川区,東五反田１丁目７番６号,,13,109,1410022,,,,,,,2022-11-04,1,,,,,ジーティーデザイン,0
2567,9010701043412,新規,0,2022-11-04,2022-11-04,株式会社てくてくの森,,株式会社,東京都,品川区,西中延２丁目１１－１８,,13,109,1420054,,,,,,,2022-11-04,1,,,,,テクテクノモリ,0
2570,9010705003445,新規,0,2022-11-04,2022-11-04,一般社団法人Ｐ’ｓＧＵＡＲＤライフサイエンスセンター,,その他の設立登記法人,東京都,品川区,西大井６丁目８番１８号,,13,109,1400015,,,,,,,2022-11-04,1,,,,,ピーズガードライフサイエンスセンター,0
2583,9011001150659,新規,0,2022-11-04,2022-11-04,株式会社Ｂｆｏｒｃｅ　ＧＯＬＦ,,株式会社,東京都,渋谷区,広尾１丁目３番１２号ハイネス恵比寿１０１,,13,113,1500012,,,,,,,2022-11-04,1,,,,,ビーフォースゴルフ,0
2584,9011001150667,新規,0,2022-11-04,2022-11-04,株式会社ｈｏｌｉｃ,,株式会社,東京都,渋谷区,神泉町２２番地３ピアース渋谷ＷＥＳＴ１６０２号室,,13,113,1500045,,,,,,,2022-11-04,1,,,,,ホリック,0
2585,9011001150675,新規,0,2022-11-04,2022-11-04,株式会社ＬＯＮＧＴＩＭＥ,,株式会社,東京都,渋谷区,桜丘町２３番１７号シティーコート４０８,,13,113,1500031,,,,,,,2022-11-04,1,,,,,ロングタイム,0
2594,9011105010461,新規,0,2022-11-04,2022-11-04,弁護士法人首都圏ネットワーク,,その他の設立登記法人,東京都,新宿区,新宿４丁目３番１５－１２０１号,,13,104,1600022,,,,,,,2022-11-04,1,,,,,シュトケンネットワーク,0
2597,9011501028628,新規,0,2022-11-04,2022-11-04,ＡＢＬＥ　ＷＥＡＬＴＨＹ　ＩＮＴＥＲＮＡＴＩＯＮＡＬ株式会社,,株式会社,東京都,荒川区,南千住３丁目２７－２浅草ビル５０８号室,,13,118,1160003,,,,,,,2022-11-04,1,,,,,エイブルウェルシーインタナショナル,0
2599,9011601026333,新規,0,2022-11-04,2022-11-04,株式会社ホシコウ,,株式会社,東京都,練馬区,田柄３丁目１４番２０号５０２,,13,120,1790073,,,,,,,2022-11-04,1,,,,,ホシコウ,0
2600,9011701025755,新規,0,2022-11-04,2022-11-04,株式会社幸輪,,株式会社,東京都,江戸川区,上一色１丁目４番１９号,,13,123,1330041,,,,,,,2022-11-04,1,,,,,コウワ,0
2601,9011801041487,新規,0,2022-11-04,2022-11-04,株式会社クリントントレーディング,,株式会社,東京都,葛飾区,高砂１丁目１８番１８－１０３号グレイスブリッサ,,13,122,1250054,,,,,,,2022-11-04,1,,,,,クリントントレーディング,0
2605,9012403005649,新規,0,2022-11-04,2022-11-04,Ｂｕｆｆｙ合同会社,,合同会社,東京都,府中市,緑町２丁目３３番地の５シェルゼ府中の森公園５０１,,13,206,1830006,,,,,,,2022-11-04,1,,,,,バフィ,0
2607,9012801021933,新規,0,2022-11-04,2022-11-04,株式会社サンピア,,株式会社,東京都,東大和市,南街３丁目５６番地の４４,,13,220,2070014,,,,,,,2022-11-04,1,,,,,サンピア,0
2621,9020001148778,新規,0,2022-11-04,2022-11-04,株式会社ちゃる,,株式会社,神奈川県,横浜市緑区,十日市場町１７２７番地２４,,14,113,2260025,,,,,,,2022-11-04,1,,,,,チャル,0
2623,9020003022667,新規,0,2022-11-04,2022-11-04,ＨＡ　ＮＯＩ　ＦＯＯＤ合同会社,,合同会社,神奈川県,川崎市川崎区,貝塚１丁目４番１７号グランコート川崎１０１一階,,14,131,2100014,,,,,,,2022-11-04,1,,,,,ハノイフーズ,0
2627,9021001077348,新規,0,2022-11-04,2022-11-04,十色株式会社,,株式会社,神奈川県,鎌倉市,稲村ガ崎３丁目５番２２号,,14,204,2480024,,,,,,,2022-11-04,1,,,,,トイロ,0
2628,9021001077364,新規,0,2022-11-04,2022-11-04,株式会社丸佐,,株式会社,神奈川県,相模原市中央区,田名８５６８番地１,,14,152,2520244,,,,,,,2022-11-04,1,,,,,マルサ,0
2634,9030001150832,新規,0,2022-11-04,2022-11-04,ＫＩＳＷＡＨ　ＴＲＡＤＩＮＧ株式会社,,株式会社,埼玉県,春日部市,東中野１５７３番地４２－１階,,11,214,3440114,,,,,,,2022-11-04,1,,,,,キスワートレーディング,0
2638,9030003020463,新規,0,2022-11-04,2022-11-04,康合同会社,,合同会社,埼玉県,越谷市,新越谷１丁目５番地２２,,11,222,3430857,,,,,,,2022-11-04,1,,,,,コウ,0
2655,9050003006980,新規,0,2022-11-04,2022-11-04,合同会社ＴＳＣ,,合同会社,茨城県,水戸市,東原１丁目２番４０－３０３号,,08,201,3100035,,,,,,,2022-11-04,1,,,,,ティーエスシー,0
2660,9060001035403,新規,0,2022-11-04,2022-11-04,株式会社ＲｅｇａＬｏ,,株式会社,栃木県,宇都宮市,インターパーク３丁目４番１号－Ａ１０２,,09,201,3210118,,,,,,,2022-11-04,1,,,,,レガロ,0
2665,9070001039790,新規,0,2022-11-04,2022-11-04,株式会社ＳＴ　ＷＯＲＫＥＲＳ,,株式会社,群馬県,前橋市,富士見町小暮１６９６番地５,,10,201,3710103,,,,,,,2022-11-04,1,,,,,エスティーワーカーズ,0
2667,9080001025278,新規,0,2022-11-04,2022-11-04,株式会社片寄設備,,株式会社,静岡県,静岡市駿河区,広野１丁目６番３－２号,,22,102,4210121,,,,,,,2022-11-04,1,,,,,カタヨセセツビ,0
2671,9080101023603,新規,0,2022-11-04,2022-11-04,株式会社正成工業,,株式会社,静岡県,富士市,鮫島２５０番地の１,,22,210,4160934,,,,,,,2022-11-04,1,,,,,セイセイコウギョウ,0
2672,9080101023611,新規,0,2022-11-04,2022-11-04,株式会社Ｐｒｉｍａ　Ｓｔｅｌｌａ．,,株式会社,静岡県,三島市,南二日町７番９号,,22,206,4110832,,,,,,,2022-11-04,1,,,,,プリマステラ,0
2673,9080103002679,新規,0,2022-11-04,2022-11-04,合同会社斎藤左官管理工業,,合同会社,静岡県,賀茂郡松崎町,小杉原１７４番地,,22,305,4103602,,,,,,,2022-11-04,1,,,,,サイトウサカンカンリコウギョウ,0
2679,9090003002191,新規,0,2022-11-04,2022-11-04,合同会社中村軽鉄,,合同会社,山梨県,甲斐市,竜王１１５９番地２,,19,210,4000118,,,,,,,2022-11-04,1,,,,,ナカムラケイテツ,0
2680,9100001035836,新規,0,2022-11-04,2022-11-04,株式会社笹よし,,株式会社,長野県,長野市,吉田４丁目１８番３３－４号,,20,201,3810043,,,,,,,2022-11-04,1,,,,,ササヨシ,0
2681,9110003004904,新規,0,2022-11-04,2022-11-04,合同会社Ｃａｌｍｅ,,合同会社,新潟県,新潟市秋葉区,古津２１２０,,15,105,9560847,,,,,,,2022-11-04,1,,,,,カルム,0
2693,9120001249946,新規,0,2022-11-04,2022-11-04,尚澤株式会社,,株式会社,大阪府,大阪市中央区,松屋町９番２０号ローレルステート松屋町７０９Ｂ,,27,128,5420067,,,,,,,2022-11-04,1,,,,,ショウタク,0
2694,9120001250004,新規,0,2022-11-04,2022-11-04,株式会社ａｔ,,株式会社,大阪府,大阪市此花区,高見３丁目８番１６号,,27,104,5540001,,,,,,,2022-11-04,1,,,,,アット,0
2695,9120001250037,新規,0,2022-11-04,2022-11-04,ＢＬＵＥ　ＴＲＡＤＥ株式会社,,株式会社,大阪府,大阪市西区,京町堀１丁目７番２１号Ｕ２Ｂ２０２,,27,106,5500003,,,,,,,2022-11-04,1,,,,,ブルートレイド,0
2696,9120001250094,新規,0,2022-11-04,2022-11-04,株式会社ａｔｅｌｉｅｒ　ｌａｐｉｎ,,株式会社,大阪府,大阪市北区,豊崎５丁目７番１５号２０５,,27,127,5310072,,,,,,,2022-11-04,1,,,,,アトリエラパン,0
2702,9120003022780,新規,0,2022-11-04,2022-11-04,合同会社神戸山の街プロジェクト,,合同会社,大阪府,大阪市西区,北堀江１丁目１番２１号,,27,106,5500014,,,,,,,2022-11-04,1,,,,,コウベヤマノマチプロジェクト,0
2703,9120003022789,新規,0,2022-11-04,2022-11-04,インフィニープラス合同会社,,合同会社,大阪府,大阪市天王寺区,勝山１丁目８番２９号,,27,109,5430043,,,,,,,2022-11-04,1,,,,,インフィニープラス,0
2706,9120901046690,新規,0,2022-11-04,2022-11-04,株式会社オールファシリティーズ,,株式会社,大阪府,茨木市,郡５丁目２０番２０号の５,,27,211,5670072,,,,,,,2022-11-04,1,,,,,オールファシリティーズ,0
2707,9120903004358,新規,0,2022-11-04,2022-11-04,合同会社ルード,,合同会社,大阪府,摂津市,正雀本町１丁目１番９－１号,,27,224,5660024,,,,,,,2022-11-04,1,,,,,ルード,0
2708,9122001036358,新規,0,2022-11-04,2022-11-04,株式会社八尾プラスチック,,株式会社,大阪府,八尾市,竹渕東１丁目２４８番地,,27,212,5810053,,,,,,,2022-11-04,1,,,,,ヤオプラスチック,0
2710,9130001072959,新規,0,2022-11-04,2022-11-04,株式会社京都メディケアシステム,,株式会社,京都府,京都市伏見区,越前町６０９番地,,26,109,6128321,,,,,,,2022-11-04,1,,,,,キョウトメディケアシステム,0
2711,9130001073032,新規,0,2022-11-04,2022-11-04,きょうとあした株式会社,,株式会社,京都府,京都市上京区,油小路通中立売下る甲斐守町９７番地西陣産業創造會館２Ｆ,,26,102,6028061,,,,,,,2022-11-04,1,,,,,キョウトアシタ,0
2716,9140001127893,新規,0,2022-11-04,2022-11-04,株式会社四葉産業,,株式会社,兵庫県,加古川市,加古川町篠原町１６２番地の１,,28,210,6750065,,,,,,,2022-11-04,1,,,,,ヨツバサンギョウ,0
2717,9140001127902,新規,0,2022-11-04,2022-11-04,株式会社ＳＹＭ,,株式会社,兵庫県,神戸市東灘区,向洋町中５丁目１１番地５０２号棟１００４号室,,28,101,6580032,,,,,,,2022-11-04,1,,,,,エスワイエム,0
2718,9140001127951,新規,0,2022-11-04,2022-11-04,株式会社Ｎｅｕｔｒａｌｓ,,株式会社,兵庫県,三田市,けやき台３丁目７８番地７９,,28,219,6691321,,,,,,,2022-11-04,1,,,,,ニュートラル,0
2719,9140001127992,新規,0,2022-11-04,2022-11-04,伊波商事株式会社,,株式会社,兵庫県,神戸市東灘区,渦森台３丁目１４番５号,,28,101,6580066,,,,,,,2022-11-04,1,,,,,イナミショウジ,0
2720,9140003018323,新規,0,2022-11-04,2022-11-04,合同会社ｂｒｉｇｈｔ　ｆｕｔｕｒｅ,,合同会社,兵庫県,神戸市垂水区,名谷町３０３－１,,28,108,6550852,,,,,,,2022-11-04,1,,,,,ブライトフューチャー,0
2721,9140003018331,新規,0,2022-11-04,2022-11-04,合同会社ＮＵＰＩ　ＰＬＡＣＥ,,合同会社,兵庫県,尼崎市,武庫之荘５丁目４５番１号,,28,202,6610035,,,,,,,2022-11-04,1,,,,,ヌピプレイス,0
2722,9140005026365,新規,0,2022-11-04,2022-11-04,一般社団法人藤の木会,,その他の設立登記法人,兵庫県,揖保郡太子町,糸井２８４番地２,,28,464,6711532,,,,,,,2022-11-04,1,,,,,フジノキカイ,0
2724,9150001025923,新規,0,2022-11-04,2022-11-04,株式会社クラン,,株式会社,奈良県,大和高田市,東中２丁目５番１２－７号,,29,202,6350065,,,,,,,2022-11-04,1,,,,,クラン,0
2725,9160001024602,新規,0,2022-11-04,2022-11-04,株式会社クリフリ,,株式会社,滋賀県,大津市,萱野浦２番３０号ゼファー７０２,,25,201,5202143,,,,,,,2022-11-04,1,,,,,クリフリ,0
2726,9160001024610,新規,0,2022-11-04,2022-11-04,株式会社古川工務店,,株式会社,滋賀県,守山市,今宿４丁目５番３１号,,25,207,5240046,,,,,,,2022-11-04,1,,,,,フルカワコウムテン,0
2727,9160001024619,新規,0,2022-11-04,2022-11-04,株式会社エイチコネクション,,株式会社,滋賀県,草津市,大路２丁目１番２７－１５１６号,,25,206,5250032,,,,,,,2022-11-04,1,,,,,エイチコネクション,0
2742,9180001153663,新規,0,2022-11-04,2022-11-04,株式会社ＥＳＰＲＥＳＳＯ　Ｄ　ＷＯＲＫＳ,,株式会社,愛知県,一宮市,八幡２丁目７番地１,,23,203,4910903,,,,,,,2022-11-04,1,,,,,エスプレッソディーワークス,0
2743,9180001153671,新規,0,2022-11-04,2022-11-04,株式会社東海マリン,,株式会社,愛知県,名古屋市千種区,内山３丁目２６番１６号ＰＲＯＸＹ千種８Ｃ,,23,101,4640075,,,,,,,2022-11-04,1,,,,,トウカイマリン,0
2750,9190001029887,新規,0,2022-11-04,2022-11-04,サステナブル・インベストメント・ストラテジー株式会社,,株式会社,三重県,松阪市,久保町９９０番地,,24,204,5150044,,,,,,,2022-11-04,1,,,,,サステナブルインベストメントストラテジー,0
2751,9190001029895,新規,0,2022-11-04,2022-11-04,株式会社第一ＤＧホールディングス,,株式会社,三重県,四日市市,笹川３丁目３３番地,,24,202,5100944,,,,,,,2022-11-04,1,,,,,ダイイチデージーホールディングス,0
2752,9190001029904,新規,0,2022-11-04,2022-11-04,株式会社森本武治,,株式会社,三重県,松阪市,飯南町深野２４６０番地,,24,204,5151301,,,,,,,2022-11-04,1,,,,,モリモトタケジ,0
2754,9200001040611,新規,0,2022-11-04,2022-11-04,株式会社Ｍｉｚ‐ｄｅｓｉｇｎ,,株式会社,岐阜県,多治見市,上野町１丁目１０番地,,21,204,5070027,,,,,,,2022-11-04,1,,,,,ミズデザイン,0
2755,9200001040628,新規,0,2022-11-04,2022-11-04,株式会社ＴＳＷ,,株式会社,岐阜県,大垣市,笠木町４４４番地,,21,202,5030023,,,,,,,2022-11-04,1,,,,,ティーエスダブリュー,0
2760,9220001025115,新規,0,2022-11-04,2022-11-04,ＴＭＲ株式会社,,株式会社,石川県,金沢市,神田２丁目６番１９号,,17,201,9218027,,,,,,,2022-11-04,1,,,,,ティーエムアール,0
2767,9240001060606,新規,0,2022-11-04,2022-11-04,株式会社清水園芸,,株式会社,広島県,呉市,阿賀南８丁目４番１号,,34,202,7370004,,,,,,,2022-11-04,1,,,,,シミズエンゲイ,0
2768,9240001060622,新規,0,2022-11-04,2022-11-04,株式会社ＫＯＣＨＡＮ,,株式会社,広島県,福山市,南蔵王町３丁目１番３４号,,34,207,7210973,,,,,,,2022-11-04,1,,,,,コチャン,0
2770,9240005015481,新規,0,2022-11-04,2022-11-04,社会保険労務士法人加藤労務管理事務所,,その他の設立登記法人,広島県,呉市,阿賀中央５丁目１３番１２号,,34,202,7370003,,,,,,,2022-11-04,1,,,,,カトウロウムカンリジムショ,0
2775,9260001037370,新規,0,2022-11-04,2022-11-04,日台経済貿易株式会社,,株式会社,岡山県,岡山市中区,西川原６８番地１,,33,102,7038258,,,,,,,2022-11-04,1,,,,,ニッタイケイザイボウエキ,0
2784,9290001099425,新規,0,2022-11-04,2022-11-04,株式会社ｍｉｃｏｏ,,株式会社,福岡県,福岡市中央区,渡辺通５丁目１４番１２号南天神ビル３階,,40,133,8100004,,,,,,,2022-11-04,1,,,,,ミコー,0
2785,9290001099441,新規,0,2022-11-04,2022-11-04,Ｐｒｅｃｉｏｕｓ＆Ｃｏ．株式会社,,株式会社,福岡県,糟屋郡志免町,東公園台２丁目１１番２５号,,40,343,8112241,,,,,,,2022-11-04,1,,,,,プレシャスアンドコー,0
2786,9290001099458,新規,0,2022-11-04,2022-11-04,株式会社ＩＴＳ,,株式会社,福岡県,春日市,昇町３丁目１６２－２,,40,218,8160851,,,,,,,2022-11-04,1,,,,,アイティエス,0
2787,9290001099466,新規,0,2022-11-04,2022-11-04,株式会社國武コーポレーション,,株式会社,福岡県,福岡市南区,柳河内２丁目６番１０号,,40,134,8150063,,,,,,,2022-11-04,1,,,,,クニタケコーポレーション,0
2788,9290001099482,新規,0,2022-11-04,2022-11-04,株式会社ミライバ,,株式会社,福岡県,福岡市中央区,薬院３丁目６番５号,,40,133,8100022,,,,,,,2022-11-04,1,,,,,ミライバ,0
2789,9290001099490,新規,0,2022-11-04,2022-11-04,株式会社ＢＩＴＡＮＱ,,株式会社,福岡県,福岡市博多区,住吉２丁目１１番１３号１ＮＪＫミュトス１０１,,40,132,8120018,,,,,,,2022-11-04,1,,,,,ビタンキュー,0
2790,9290003013136,新規,0,2022-11-04,2022-11-04,合同会社人生日々笑歩,,合同会社,福岡県,福岡市中央区,草香江１丁目８番１９号,,40,133,8100045,,,,,,,2022-11-04,1,,,,,ジンセイヒビショウブ,0
2794,9290803004243,新規,0,2022-11-04,2022-11-04,合同会社Ｆｉｌｌｉｎｇ　ｌｏｏｐ,,合同会社,福岡県,北九州市小倉北区,熊谷２丁目６番２－４０２号,,40,106,8030864,,,,,,,2022-11-04,1,,,,,フィリングループ,0
2796,9290805009604,新規,0,2022-11-04,2022-11-04,一般社団法人海水温熱協会ブルーポンド,,その他の設立登記法人,福岡県,北九州市八幡西区,則松６丁目７番３２号,,40,109,8070831,,,,,,,2022-11-04,1,,,,,カイスイオンネツキョウカイブルーポンド,0
2797,9310001018101,新規,0,2022-11-04,2022-11-04,白石商事株式会社,,株式会社,長崎県,平戸市,田平町岳崎免６９６番地,,42,207,8594801,,,,,,,2022-11-04,1,,,,,シライシショウジ,0
2802,9320001019412,新規,0,2022-11-04,2022-11-04,株式会社フィカス,,株式会社,大分県,由布市,挾間町向原７１４番地１Ｄ＆Ｃ　ＨＯＵＳＥＩＩＩ２０３,00128359,44,213,8795502,,,,,,,2022-11-04,1,,,,,フィカス,0
2803,9330001030252,新規,0,2022-11-04,2022-11-04,日昇技建株式会社,,株式会社,熊本県,玉名市,大浜町７１２番地,,43,206,8650055,,,,,,,2022-11-04,1,,,,,ニッショウギケン,0
2804,9330001030260,新規,0,2022-11-04,2022-11-04,株式会社プラスチックライン,,株式会社,熊本県,八代市,鏡町両出９９５番地,,43,202,8694222,,,,,,,2022-11-04,1,,,,,プラスチックライン,0
2809,9340001025128,新規,0,2022-11-04,2022-11-04,株式会社錦江湾クルーズ,,株式会社,鹿児島県,鹿児島市,城南町２４番７８,,46,201,8920835,,,,,,,2022-11-04,1,,,,,キンコウワンクルーズ,0
2812,9340005009523,新規,0,2022-11-04,2022-11-04,一般社団法人こどもの居場所総合研究所,,その他の設立登記法人,鹿児島県,鹿児島市,堀江町６番１５－５０５号,,46,201,8920824,,,,,,,2022-11-04,1,,,,,コドモノイバショソウゴウケンキュウジョ,0
2817,9360001031132,新規,0,2022-11-04,2022-11-04,株式会社安里工務店,,株式会社,沖縄県,中頭郡北谷町,字桑江６４６番地３玉那覇アパート２０３,,47,326,9040103,,,,,,,2022-11-04,1,,,,,アサトコウムテン,0
2818,9360001031140,新規,0,2022-11-04,2022-11-04,Ｌｉｂｅｒｔｅ　Ｊａｐａｎ株式会社,,株式会社,沖縄県,浦添市,仲西１丁目３番地２５－５階５０２の５,,47,208,9012125,,,,,,,2022-11-04,1,,,,,リベルテジャパン,0
2819,9360001031157,新規,0,2022-11-04,2022-11-04,株式会社ここちエステート,,株式会社,沖縄県,浦添市,城間３丁目４番８号,,47,208,9012133,,,,,,,2022-11-04,1,,,,,ココチエステート,0
2821,9370003005884,新規,0,2022-11-04,2022-11-04,ハノイ合同会社,,合同会社,宮城県,仙台市青葉区,土樋１丁目５番２－２号,,04,101,9800065,,,,,,,2022-11-04,1,,,,,ハノイ,0
2827,9400003002993,新規,0,2022-11-04,2022-11-04,十八子合同会社,,合同会社,岩手県,盛岡市,仙北２丁目１番２０号,,03,201,0200861,,,,,,,2022-11-04,1,,,,,,0
2828,9410005006488,新規,0,2022-11-04,2022-11-04,税理士法人サンスマイル,,その他の設立登記法人,秋田県,由利本荘市,瓦谷地３２番地２,,05,210,0150872,,,,,,,2022-11-04,1,,,,,,0
2829,9420001018057,新規,0,2022-11-04,2022-11-04,株式会社三戸米穀店,,株式会社,青森県,北津軽郡板柳町,大字大俵字和田４５３番地２,,02,381,0383635,,,,,,,2022-11-04,1,,,,,サンノヘベイコクテン,0
2831,9430001087761,新規,0,2022-11-04,2022-11-04,株式会社ラストリゾート,,株式会社,北海道,札幌市豊平区,中の島一条２丁目３番５－７０３号,,01,105,0620921,,,,,,,2022-11-04,1,,,,,ラストリゾート,0
2832,9430001087786,新規,0,2022-11-04,2022-11-04,株式会社うるら,,株式会社,北海道,札幌市南区,南沢四条３丁目７－７,,01,106,0050824,,,,,,,2022-11-04,1,,,,,ウルラ,0
2833,9430003014425,新規,0,2022-11-04,2022-11-04,サンコークリエイト合同会社,,合同会社,北海道,札幌市中央区,北一条西２５丁目２番７－１０１２号,,01,101,0640821,,,,,,,2022-11-04,1,,,,,サンコークリエイト,0
2837,9470001019315,新規,0,2022-11-04,2022-11-04,株式会社Ｓ＆Ｙ,,株式会社,香川県,丸亀市,大手町３丁目７番９号,,37,202,7630034,,,,,,,2022-11-04,1,,,,,エスアンドワイ,0
2839,9480001011915,新規,0,2022-11-04,2022-11-04,株式会社ＥＮ,,株式会社,徳島県,板野郡藍住町,住吉字神蔵１６１番地２８立川ハイツ２０１号,,36,403,7711265,,,,,,,2022-11-04,1,,,,,エン,0
2841,9490005006869,新規,0,2022-11-04,2022-11-04,一般社団法人いのちの森となりわい,,その他の設立登記法人,高知県,香美市,香北町西川乙３０８番地,,39,212,7814207,,,,,,,2022-11-04,1,,,,,,0
2843,9500003002918,新規,0,2022-11-04,2022-11-04,合同会社白王,,合同会社,愛媛県,宇和島市,遊子２３４０番地,,38,203,7980103,,,,,,,2022-11-04,1,,,,,ハクオウ,0
