sequenceNumber,corporateNumber,process,correct,updateDate,changeDate,name,nameImageId,kind,prefectureName,cityName,streetNumber,addressImageId,prefectureCode,cityCode,postCode,addressOutside,addressOutsideImageId,closeDate,closeCause,successorCorporateNumber,changeCause,assignmentDate,latest,enName,enPrefectureName,enCityName,enAddressOutside,furigana,hihyoji
5,1010001193725,登記記録の閉鎖等,0,2024-08-23,2024-08-13,龍ヶ崎ソーラーパワー株式会社,,株式会社,東京都,千代田区,大手町２丁目１番１号,,13,101,1000004,,,2024-08-13,清算の結了等,,,2018-08-01,1,,,,,リュウガサキソーラーパワー,0
11,1010005024570,登記記録の閉鎖等,0,2024-08-23,2024-08-08,特定非営利活動法人夢のかけはし,,その他の設立登記法人,東京都,千代田区,岩本町２丁目９番９号ＴＳビル１Ｆ,,13,101,1010032,,,2024-08-08,清算の結了等,,,2015-10-29,1,,,,,ユメノカケハシ,0
12,1010005026996,登記記録の閉鎖等,0,2024-08-23,2024-08-09,ＳＫＤ７特定目的会社,,その他の設立登記法人,東京都,千代田区,丸の内３丁目１番１号東京共同会計事務所内,,13,101,1000005,,,2024-08-09,清算の結了等,,,2017-06-21,1,,,,,エスケイディセブン,0
15,1010005036681,登記記録の閉鎖等,0,2024-08-23,2024-08-09,一般社団法人天神西インベストメント,,その他の設立登記法人,東京都,中央区,日本橋１丁目４番１号,,13,102,1030027,,,2024-08-09,清算の結了等,,,2023-05-16,1,,,,,テンジンニシインベストメント,0
17,1010401033068,登記記録の閉鎖等,0,2024-08-23,2024-08-01,テラ・ワークス株式会社,,株式会社,東京都,港区,南青山５丁目９番６号,,13,103,1070062,,,2024-08-01,合併による解散等,4010401015501,令和６年８月１日東京都港区南青山五丁目９番６号株式会社セイナン（4010401015501）に合併し解散,2015-10-05,1,,,,,テラワークス,0
27,1010405009469,登記記録の閉鎖等,0,2024-08-23,2024-08-01,特定非営利活動法人地球兄弟プロジェクト,,その他の設立登記法人,東京都,港区,麻布狸穴町６１番地７若山ハウス狸穴２０１号,,13,103,1060042,,,2024-08-01,清算の結了等,,,2015-10-05,1,,,,,,0
38,1010801001707,登記記録の閉鎖等,0,2024-08-23,2024-08-15,株式会社恵比寿,,株式会社,東京都,大田区,中馬込１丁目１２番２１号,,13,111,1430027,,,2024-08-15,清算の結了等,,,2015-10-05,1,,,,,,0
39,1010802005987,登記記録の閉鎖等,0,2024-08-23,2024-08-19,有限会社坂下事務所,,有限会社,東京都,大田区,上池台１丁目４９番７号,,13,111,1450064,,,2024-08-19,清算の結了等,,,2015-10-05,1,,,,,サカシタジムショ,0
41,1010805001100,登記記録の閉鎖等,0,2024-08-23,2024-08-14,特定非営利活動法人ゆうえふ,,その他の設立登記法人,東京都,大田区,大森本町２丁目５番１７－８０９号,,13,111,1430011,,,2024-08-14,清算の結了等,,,2015-10-05,1,,,,,ユウエフ,0
49,1011001117731,登記記録の閉鎖等,0,2024-08-23,2024-08-01,株式会社アジアンスマイル,,株式会社,東京都,目黒区,東山３丁目１５番２号ソナー第２ビル２階,,13,110,1530043,,,2024-08-01,合併による解散等,2013201015565,令和６年８月１日東京都目黒区東山三丁目１５番２号ソナー第２ビル２階株式会社フロムエイジア（2013201015565）に合併し解散,2017-08-14,1,,,,,アジアンスマイル,0
64,1011403001533,登記記録の閉鎖等,0,2024-08-23,2024-08-02,合同会社アース,,合同会社,東京都,板橋区,幸町１番１６－６０５号,,13,119,1730034,,,2024-08-02,清算の結了等,,,2015-10-05,1,,,,,アース,0
74,1012403005417,登記記録の閉鎖等,0,2024-08-23,2024-08-20,合同会社ＢＯＡＲＤ,,合同会社,東京都,武蔵野市,吉祥寺東町２丁目２６番３号,,13,203,1800002,,,2024-08-20,清算の結了等,,,2022-06-07,1,,,,,ボード,0
77,1012702009341,登記記録の閉鎖等,0,2024-08-23,2024-08-14,有限会社アイコム,,有限会社,東京都,国分寺市,北町３丁目５番地２０,,13,214,1850001,,,2024-08-14,清算の結了等,,,2015-10-05,1,,,,,アイコム,0
101,1030001061558,登記記録の閉鎖等,0,2024-08-23,2024-08-21,国立ファームソルトリーフ農場株式会社,,株式会社,埼玉県,児玉郡上里町,大字嘉美５１４番地,,11,385,3690307,,,2024-08-21,清算の結了等,,,2015-10-05,1,,,,,,0
103,1030001132012,登記記録の閉鎖等,0,2024-08-23,2024-08-07,ｐｌｏｗ株式会社,,株式会社,東京都,新宿区,早稲田鶴巻町３０８ラパン平倉３０１,,13,104,1620041,,,2024-08-07,清算の結了等,,,2019-07-17,1,,,,,プラウ,0
119,1080002013132,登記記録の閉鎖等,0,2024-08-23,2024-08-13,有限会社静岡レイラ,,有限会社,静岡県,静岡市葵区,北安東１丁目８番８号,,22,101,4200881,,,2024-08-13,清算の結了等,,,2015-10-05,1,,,,,シズオカレイラ,0
120,1080002018346,登記記録の閉鎖等,0,2024-08-23,2024-08-16,有限会社フィールドサービス静岡,,有限会社,静岡県,静岡市清水区,宮加三８０８番地の１,,22,103,4240911,,,2024-08-16,清算の結了等,,,2015-10-05,1,,,,,フィールドサービスシズオカ,0
121,1080401011505,登記記録の閉鎖等,0,2024-08-23,2024-08-21,株式会社ギネス,,株式会社,静岡県,浜松市中央区,小池町１４８６番地,,22,138,4350056,,,2024-08-21,清算の結了等,,,2015-10-05,1,,,,,ギネス,0
124,1090002003181,登記記録の閉鎖等,0,2024-08-23,2024-08-22,有限会社山梨損保サービス,,有限会社,山梨県,笛吹市,春日居町小松１２４０番地７,,19,211,4060004,,,2024-08-22,清算の結了等,,,2015-10-05,1,,,,,ヤマナシソンポサービス,0
153,1130001073733,登記記録の閉鎖等,0,2024-08-23,2024-08-21,株式会社新建住宅,,株式会社,京都府,宇治市,宇治野神７２番地の２,,26,204,6110021,,,2024-08-21,清算の結了等,,,2023-02-22,1,,,,,シンケンジュウタク,0
166,1180001053466,登記記録の閉鎖等,0,2024-08-23,2024-08-20,大友アソシエーツ株式会社,,株式会社,神奈川県,横浜市戸塚区,品濃町５５８番地丘の街１号棟１０３号,,14,110,2440801,,,2024-08-20,合併による解散等,5011001061777,令和６年７月３１日東京都渋谷区道玄坂二丁目１０番７号株式会社レイズ（5011001061777）に合併し解散,2015-10-05,1,,,,,オオトモアソシエーツ,0
183,1220001006196,登記記録の閉鎖等,0,2024-08-23,2024-08-15,北国コンピュータ株式会社,,株式会社,石川県,金沢市,北安江３丁目６番６号,,17,201,9200022,,,2024-08-15,清算の結了等,,,2015-10-05,1,,,,,,0
188,1240003005525,登記記録の閉鎖等,0,2024-08-23,2024-08-21,宏立商事合同会社,,合同会社,広島県,福山市,沼隈町大字草深１８９９番地３,,34,207,7200311,,,2024-08-21,清算の結了等,,,2022-02-28,1,,,,,コウリツショウジ,0
191,1260002003453,登記記録の閉鎖等,0,2024-08-23,2024-08-16,有限会社ケイ・エフ設計,,有限会社,岡山県,岡山市北区,厚生町２丁目１３番８号,,33,101,7000985,,,2024-08-16,清算の結了等,,,2015-10-05,1,,,,,ケイエフセッケイ,0
192,1260002005342,登記記録の閉鎖等,0,2024-08-23,2024-08-14,有限会社すし茶屋銀八,,有限会社,岡山県,岡山市北区,岩田町二丁目３１番,,33,101,7000022,,,2024-08-14,清算の結了等,,,2015-10-05,1,,,,,スシヂャヤギンパチ,0
195,1290001003245,登記記録の閉鎖等,0,2024-08-23,2024-07-09,株式会社シーフーズなた,,株式会社,福岡県,福岡市東区,三苫４丁目２番１６号,,40,131,8110201,,,2024-07-09,清算の結了等,,,2015-10-05,1,,,,,シーフーズナタ,0
212,1340001019368,登記記録の閉鎖等,0,2024-08-23,2024-08-19,トレスジャパン株式会社,,株式会社,静岡県,藤枝市,田沼２丁目２２番２６号,,22,214,4260061,,,2024-08-19,清算の結了等,,,2016-06-06,1,,,,,トレスジャパン,0
231,1470001010883,登記記録の閉鎖等,0,2024-08-23,2024-08-16,株式会社ワイエヌサービス,,株式会社,香川県,三豊市,詫間町詫間１９３５番地,,37,208,7691101,,,2024-08-16,清算の結了等,,,2015-10-05,1,,,,,ワイエヌサービス,0
232,1470003000825,登記記録の閉鎖等,0,2024-08-23,2024-08-20,堤木工所合同会社,,合同会社,香川県,東かがわ市,川東７０８番地１,,37,207,7692602,,,2024-08-20,清算の結了等,,,2015-10-05,1,,,,,ツツミモッコウショ,0
240,2010001125628,登記記録の閉鎖等,0,2024-08-23,2024-08-08,株式会社順栄企画,,株式会社,東京都,中央区,銀座７丁目３番９号,,13,102,1040061,,,2024-08-08,清算の結了等,,,2015-10-05,1,,,,,ジュンエイキカク,0
241,2010001193724,登記記録の閉鎖等,0,2024-08-23,2024-08-13,札幌ソーラーパワー株式会社,,株式会社,東京都,千代田区,大手町２丁目１番１号,,13,101,1000004,,,2024-08-13,清算の結了等,,,2018-08-01,1,,,,,サッポロソーラーパワー,0
250,2010003029827,登記記録の閉鎖等,0,2024-08-23,2024-08-09,日光ベル合同会社７,,合同会社,東京都,千代田区,丸の内３丁目１番１号東京共同会計事務所内,,13,101,1000005,,,2024-08-09,清算の結了等,,,2019-05-16,1,,,,,ニッコウベルナナ,0
260,2010401097260,登記記録の閉鎖等,0,2024-08-23,2024-08-05,株式会社大手町広告,,株式会社,東京都,港区,六本木１丁目６番１号泉ガーデンタワー,,13,103,1060032,,,2024-08-05,清算の結了等,,,2015-10-05,1,,,,,オオテマチコウコク,0
263,2010401126151,登記記録の閉鎖等,0,2024-08-23,2024-08-01,ＪＷＧキャプティブマネジメント株式会社,,株式会社,東京都,港区,新橋６丁目９番２号,,13,103,1050004,,,2024-08-01,合併による解散等,6010401133326,令和６年８月１日東京都港区新橋六丁目９番２号ＪＷＧホールディングス株式会社（6010401133326）に合併し解散,2016-08-02,1,,,,,ジェーダブルジーキャプティブマネジメント,0
289,2011105009188,登記記録の閉鎖等,0,2024-08-23,2024-08-06,一般社団法人東京文化倶楽部,,その他の設立登記法人,東京都,新宿区,矢来町４３番地１３ライオンズマンション矢来町５０３,,13,104,1620805,,,2024-08-06,清算の結了等,,,2019-12-10,1,,,,,トウキョウブンカクラブ,0
290,2011301027209,登記記録の閉鎖等,0,2024-08-23,2024-08-08,ＥＦ株式会社,,株式会社,千葉県,千葉市中央区,市場町２－５シティビル３０３,,12,101,2600855,,,2024-08-08,清算の結了等,,,2021-10-19,1,,,,,イーエフ,0
294,2011701023071,登記記録の閉鎖等,0,2024-08-23,2024-08-19,株式会社カンイチ,,株式会社,東京都,江戸川区,中央３丁目７番２号２階,,13,123,1320021,,,2024-08-19,清算の結了等,,,2019-11-07,1,,,,,カンイチ,0
334,2030001144642,登記記録の閉鎖等,0,2024-08-23,2024-08-21,株式会社秩父ひなた村興産,,株式会社,埼玉県,秩父市,上吉田２５２５番地,,11,207,3691505,,,2024-08-21,清算の結了等,,,2021-10-06,1,,,,,チチブヒナタムラコウサン,0
341,2030005018999,登記記録の閉鎖等,0,2024-08-23,2024-08-21,特定非営利活動法人栄養サポートみかん,,その他の設立登記法人,埼玉県,鴻巣市,本町６丁目５番２１号,,11,217,3650038,,,2024-08-21,清算の結了等,,,2018-04-25,1,,,,,エイヨウサポートミカン,0
344,2040001102228,登記記録の閉鎖等,0,2024-08-23,2024-08-08,株式会社星友,,株式会社,千葉県,柏市,手賀の杜３丁目９番地２３,,12,217,2701447,,,2024-08-08,清算の結了等,,,2017-10-23,1,,,,,ホシトモ,0
355,2040003019429,登記記録の閉鎖等,0,2024-08-23,2024-08-09,合同会社イッツサニー,,合同会社,千葉県,船橋市,浜町１丁目５番３号ファミリータウン３号棟１２０,,12,204,2730012,,,2024-08-09,清算の結了等,,,2022-02-03,1,,,,,イッツサニー,0
371,2080002003099,登記記録の閉鎖等,0,2024-08-23,2024-08-13,有限会社静岡科学,,有限会社,静岡県,静岡市駿河区,池田２２１８番地の２,,22,102,4228005,,,2024-08-13,清算の結了等,,,2015-10-05,1,,,,,シズオカカガク,0
372,2080005003154,登記記録の閉鎖等,0,2024-08-23,2024-08-15,特定非営利活動法人精神障害者生活支援よもぎ会,,その他の設立登記法人,静岡県,静岡市清水区,辻５丁目３番２３号,00067652,22,103,4240806,,,2024-08-15,清算の結了等,,,2015-10-05,1,,,,,セイシンショウガイシャセイカツシエンヨモギカイ,0
377,2110002027482,登記記録の閉鎖等,0,2024-08-23,2024-08-16,有限会社ケイ・ディ・エス,,有限会社,新潟県,長岡市,上除町甲１０５番地６,,15,202,9402033,,,2024-08-16,清算の結了等,,,2015-10-05,1,,,,,,0
404,2180001100960,登記記録の閉鎖等,0,2024-08-23,2024-08-21,株式会社エイディーアール,,株式会社,愛知県,岡崎市,日名北町４番地４６アピタ岡崎北店２階,,23,202,4440911,,,2024-08-21,合併による解散等,8180001113024,令和６年７月３１日名古屋市東区葵二丁目３番１５号株式会社ＮＥＸＴ　ＩＮＮＯＶＡＴＩＯＮ（8180001113024）に合併し解散,2015-10-05,1,,,,,エイディーアール,0
407,2180001123144,登記記録の閉鎖等,0,2024-08-23,2024-08-20,ＥＵＧＥＮＩＯ株式会社,,株式会社,愛知県,弥富市,鯏浦町南前新田６－４,,23,235,4980027,,,2024-08-20,清算の結了等,,,2016-04-27,1,,,,,エウジェニオ,0
423,2250002015242,登記記録の閉鎖等,0,2024-08-23,2024-08-20,有限会社福田鉄工所,,有限会社,山口県,周南市,権現町５番１２号,,35,215,7450046,,,2024-08-20,清算の結了等,,,2015-10-05,1,,,,,,0
438,2290001047398,登記記録の閉鎖等,0,2024-08-23,2024-07-16,株式会社サチコ・コミニュケーションズ,,株式会社,福岡県,八女市,立花町下辺春２２５４番地,,40,210,8340073,,,2024-07-16,清算の結了等,,,2015-10-05,1,,,,,サチココミニュケーションズ,0
451,2290802002733,登記記録の閉鎖等,0,2024-08-23,2024-08-22,有限会社段式経理,,有限会社,福岡県,北九州市小倉南区,葛原２丁目６番７号,,40,107,8000251,,,2024-08-22,清算の結了等,,,2015-10-05,1,,,,,ダンシキケイリ,0
455,2330001021225,登記記録の閉鎖等,0,2024-08-23,2024-08-14,熊本カーハイテクセンター保険株式会社,,株式会社,熊本県,熊本市中央区,新町４丁目４番２１号,,43,101,8600004,,,2024-08-14,清算の結了等,,,2015-10-05,1,,,,,クマモトカーハイテクセンターホケン,0
472,2380002025609,登記記録の閉鎖等,0,2024-08-23,2024-08-09,有限会社ピノキオ,,有限会社,福島県,いわき市,平北白土字穂積４８番地の３,,07,204,9708024,,,2024-08-09,清算の結了等,,,2015-10-05,1,,,,,ピノキオ,0
477,2410005006437,登記記録の閉鎖等,0,2024-08-23,2024-03-27,税理士法人佐藤・進藤,,その他の設立登記法人,秋田県,秋田市,外旭川字八幡田１２２番１号第２キャニオンビル２階Ｅ号,,05,201,0100802,,,2024-03-27,清算の結了等,,,2021-11-08,1,,,,,サトウシンドウ,0
499,3010401069928,登記記録の閉鎖等,0,2024-08-23,2024-08-01,株式会社フロントライン,,株式会社,東京都,港区,西麻布３丁目２番１６号,,13,103,1060031,,,2024-08-01,清算の結了等,,,2015-10-05,1,,,,,フロントライン,0
501,3010401156271,登記記録の閉鎖等,0,2024-08-23,2024-08-13,ＭＡＴＲＩＣＸ　ＩＮＴＥＲＮＡＴＩＯＮＡＬ　ＨＯＴＥＬ株式会社,,株式会社,愛知県,名古屋市千種区,内山３丁目４番４号,,23,101,4640075,,,2024-08-13,清算の結了等,,,2020-11-16,1,,,,,マトリックスインターナショナルホテル,0
511,3010501048476,登記記録の閉鎖等,0,2024-08-23,2024-08-19,株式会社Ｗａｌｌｅｓｓ,,株式会社,東京都,台東区,三ノ輪１丁目２８番１６号,,13,106,1100011,,,2024-08-19,清算の結了等,,,2022-02-24,1,,,,,ウォレス,0
547,3011301027389,登記記録の閉鎖等,0,2024-08-23,2024-08-20,株式会社ＭＡＥＤＡＹＡ,,株式会社,東京都,杉並区,阿佐谷北４丁目２４番１１－６０３号,,13,115,1660001,,,2024-08-20,清算の結了等,,,2021-12-02,1,,,,,マエダヤ,0
554,3012402018038,登記記録の閉鎖等,0,2024-08-23,2024-08-21,有限会社よろづや呉服店,,有限会社,東京都,武蔵野市,吉祥寺本町１丁目１２番３号,,13,203,1800004,,,2024-08-21,清算の結了等,,,2015-10-05,1,,,,,ヨロヅヤゴフクテン,0
557,3013303006577,登記記録の閉鎖等,0,2024-08-23,2024-08-14,合同会社ＭＭＣ,,合同会社,東京都,豊島区,目白５丁目２番１０号,,13,116,1710031,,,2024-08-14,清算の結了等,,,2023-04-11,1,,,,,エムエムシー,0
558,3013402006206,登記記録の閉鎖等,0,2024-08-23,2024-08-15,有限会社トラスト・ビート,,有限会社,東京都,日野市,大字日野７７７３番地７１７,,13,212,1910012,,,2024-08-15,清算の結了等,,,2015-10-05,1,,,,,,0
572,3021001061778,登記記録の閉鎖等,0,2024-08-23,2024-08-22,株式会社Ａｃａｕｓｅ,,株式会社,神奈川県,伊勢原市,大住台１丁目１２番地の１３,,14,214,2591105,,,2024-08-22,清算の結了等,,,2017-04-06,1,,,,,アコーズ,0
589,3030003019858,登記記録の閉鎖等,0,2024-08-23,2024-08-21,芸海合同会社,,合同会社,埼玉県,川口市,南町２丁目６番４６号,,11,203,3320026,,,2024-08-21,清算の結了等,,,2022-07-27,1,,,,,ゲイカイ,0
595,3040002019528,登記記録の閉鎖等,0,2024-08-23,2024-08-08,有限会社バッシライン,,有限会社,千葉県,習志野市,秋津４丁目１４番１１号,,12,216,2750025,,,2024-08-08,清算の結了等,,,2015-10-05,1,,,,,バッシライン,0
596,3040002046209,登記記録の閉鎖等,0,2024-08-23,2024-08-08,有限会社新高運送,,有限会社,千葉県,松戸市,稔台２丁目６０番地の３,,12,207,2702231,,,2024-08-08,清算の結了等,,,2015-10-05,1,,,,,シンコウウンソウ,0
607,3070001006227,登記記録の閉鎖等,0,2024-08-23,2024-08-22,株式会社イマイエンジニアリング,,株式会社,群馬県,高崎市,阿久津町１２１７番地,,10,202,3701211,,,2024-08-22,清算の結了等,,,2015-10-05,1,,,,,イマイエンジニアリング,0
609,3080001023502,登記記録の閉鎖等,0,2024-08-23,2024-08-15,株式会社デサフィオ,,株式会社,静岡県,静岡市葵区,吉野町４番７号,,22,101,4200046,,,2024-08-15,清算の結了等,,,2020-04-09,1,,,,,デサフィオ,0
611,3080102003816,登記記録の閉鎖等,0,2024-08-23,2024-08-20,有限会社ランドプランニング,,有限会社,静岡県,裾野市,平松４２８番地の８,,22,220,4101127,,,2024-08-20,清算の結了等,,,2015-10-05,1,,,,,ランドプランニング,0
618,3100005007060,登記記録の閉鎖等,0,2024-08-23,2024-08-13,特定非営利活動法人あずみ野の風,,その他の設立登記法人,長野県,安曇野市,穂高有明２０９９番地３０,,20,220,3998301,,,2024-08-13,清算の結了等,,,2015-10-05,1,,,,,アズミノノカゼ,0
620,3110001013334,登記記録の閉鎖等,0,2024-08-23,2024-08-16,株式会社コスモコープ,,株式会社,新潟県,新発田市,藤塚浜２０１１番地３,,15,206,9570231,,,2024-08-16,清算の結了等,,,2015-10-05,1,,,,,コスモコープ,0
645,3130001046522,登記記録の閉鎖等,0,2024-08-23,2024-08-22,株式会社エニシス,,株式会社,京都府,京都市下京区,四条通新町東入月鉾町３９－１,,26,106,6008492,,,2024-08-22,清算の結了等,,,2015-10-05,1,,,,,,0
662,3180001006570,登記記録の閉鎖等,0,2024-08-23,2024-08-14,株式会社神野鈑金工業,,株式会社,愛知県,名古屋市港区,東海通３丁目４番地,,23,111,4550002,,,2024-08-14,清算の結了等,,,2015-10-05,1,,,,,ジンノバンキンコウギョウ,0
666,3180001108986,登記記録の閉鎖等,0,2024-08-23,2024-08-22,株式会社マジカルプロセス,,株式会社,愛知県,豊明市,阿野町大高道１０番地１,,23,229,4701141,,,2024-08-22,清算の結了等,,,2015-10-05,1,,,,,マジカルプロセス,0
673,3190001017864,登記記録の閉鎖等,0,2024-08-23,2024-08-02,株式会社鍛冶宗,,株式会社,三重県,四日市市,高浜町９番３０号,,24,202,5100026,,,2024-08-02,清算の結了等,,,2024-04-04,1,,,,,,0
674,3190005003092,登記記録の閉鎖等,0,2024-08-23,2024-08-21,一般社団法人三重イスラム文化センター,,その他の設立登記法人,三重県,津市,栗真町屋町１４２６番地１,,24,201,5140102,,,2024-08-21,清算の結了等,,,2015-10-05,1,,,,,ミエイスラムブンカセンター,0
676,3200001006353,登記記録の閉鎖等,0,2024-08-23,2024-08-16,フェアリー株式会社,,株式会社,岐阜県,岐阜市,問屋町４丁目１５番地,,21,201,5008845,,,2024-08-16,清算の結了等,,,2015-10-05,1,,,,,フェアリー,0
692,3260005001452,登記記録の閉鎖等,0,2024-08-23,2024-08-16,岡山県資源リサイクル事業協同組合連合会,,その他の設立登記法人,岡山県,倉敷市,中島１３９５番地,,33,202,7100803,,,2024-08-16,清算の結了等,,,2015-10-05,1,,,,,オカヤマケンシゲンリサイクル,0
695,3290001081041,登記記録の閉鎖等,0,2024-08-23,2024-07-16,株式会社ナインパーワン,,株式会社,福岡県,福岡市東区,松田３丁目２０番１号,,40,131,8120064,,,2024-07-16,清算の結了等,,,2018-04-04,1,,,,,ナインパーワン,0
716,3370001007525,登記記録の閉鎖等,0,2024-08-23,2024-08-08,カオルインターナショナル株式会社,,株式会社,宮城県,仙台市青葉区,春日町３番８号,,04,101,9800821,,,2024-08-08,清算の結了等,,,2015-10-05,1,,,,,カオルインターナショナル,0
729,4010001139287,登記記録の閉鎖等,0,2024-08-23,2024-08-07,株式会社イエスタデイ,,株式会社,千葉県,浦安市,舞浜３丁目２４番１０号,,12,227,2790031,,,2024-08-07,合併による解散等,5010601047252,令和６年８月１日千葉県浦安市舞浜三丁目２４番１０号ＮＳＫ株式会社（5010601047252）に合併し解散,2015-10-05,1,,,,,イエスタデイ,0
730,4010001164161,登記記録の閉鎖等,0,2024-08-23,2024-08-13,株式会社再エネバンク,,株式会社,東京都,千代田区,大手町２丁目１番１号,,13,101,1000004,,,2024-08-13,清算の結了等,,,2015-10-05,1,,,,,サイエネバンク,0
736,4010002040527,登記記録の閉鎖等,0,2024-08-23,2024-08-09,有限会社かみじま,,有限会社,東京都,文京区,根津１丁目１番２１号,,13,105,1130031,,,2024-08-09,清算の結了等,,,2015-10-05,1,,,,,カミジマ,0
740,4010003029825,登記記録の閉鎖等,0,2024-08-23,2024-08-09,日光ベル合同会社５,,合同会社,東京都,千代田区,丸の内３丁目１番１号東京共同会計事務所内,,13,101,1000005,,,2024-08-09,清算の結了等,,,2019-05-16,1,,,,,ニッコウベルゴ,0
746,4010401080792,登記記録の閉鎖等,0,2024-08-23,2024-08-01,株式会社イグジスタンス,,株式会社,東京都,港区,港南２丁目１６番７‐２１０３号,,13,103,1080075,,,2024-08-01,清算の結了等,,,2015-10-05,1,,,,,イグジスタンス,0
751,4010401160891,登記記録の閉鎖等,0,2024-08-23,2024-08-21,株式会社Ａｎｔｏｏ,,株式会社,東京都,港区,南青山５丁目１７番２号,,13,103,1070062,,,2024-08-21,合併による解散等,9010701042182,令和６年８月１日東京都品川区上大崎二丁目２４番９号ノバセル株式会社（9010701042182）に合併し解散,2021-06-21,1,,,,,アントゥー,0
758,4010402034137,登記記録の閉鎖等,0,2024-08-23,2024-08-07,両コマース有限会社,,有限会社,東京都,新宿区,西新宿１丁目２６番２号新宿野村ビルＢ１階,,13,104,1600023,,,2024-08-07,清算の結了等,,,2015-10-05,1,,,,,リョウコマース,0
769,4011001023654,登記記録の閉鎖等,0,2024-08-23,2024-08-01,株式会社ヤマノ,,株式会社,東京都,渋谷区,代々木１丁目１３番８号,,13,113,1510053,,,2024-08-01,合併による解散等,4011001044114,令和６年８月１日東京都渋谷区代々木一丁目１３番８号山野美容商事株式会社（4011001044114）に合併し解散,2015-10-05,1,,,,,ヤマノ,0
775,4011101006988,登記記録の閉鎖等,0,2024-08-23,2024-08-07,五十音設計株式会社,,株式会社,東京都,新宿区,神楽坂５丁目３７番地,,13,104,1620825,,,2024-08-07,清算の結了等,,,2015-10-05,1,,,,,,0
782,4011301028007,登記記録の閉鎖等,0,2024-08-23,2024-08-19,株式会社盛和,,株式会社,東京都,杉並区,下高井戸２丁目１０番３－Ｂ１,,13,115,1680073,,,2024-08-19,清算の結了等,,,2022-08-08,1,,,,,セイワ,0
790,4011801000084,登記記録の閉鎖等,0,2024-08-23,2024-08-20,アイテック株式会社,,株式会社,東京都,葛飾区,新小岩２丁目４０番１３号グランベル新小岩３０２号,,13,122,1240024,,,2024-08-20,清算の結了等,,,2015-10-05,1,,,,,アイテック,0
791,4011802002864,登記記録の閉鎖等,0,2024-08-23,2024-08-19,有限会社近藤薬局,,有限会社,東京都,葛飾区,立石４丁目１９番１号,,13,122,1240012,,,2024-08-19,清算の結了等,,,2015-10-05,1,,,,,コンドウヤッキョク,0
792,4011802008977,登記記録の閉鎖等,0,2024-08-23,2024-08-19,有限会社アイリス,,有限会社,東京都,足立区,千住３丁目３８番地,,13,121,1200034,,,2024-08-19,清算の結了等,,,2015-10-05,1,,,,,,0
799,4013103001117,登記記録の閉鎖等,0,2024-08-23,2024-08-21,合同会社リアン,,合同会社,東京都,羽村市,双葉町２丁目３番３１号,,13,227,2050022,,,2024-08-21,清算の結了等,,,2022-03-17,1,,,,,リアン,0
804,4020001075044,登記記録の閉鎖等,0,2024-08-23,2024-08-13,株式会社アートプラス,,株式会社,沖縄県,中頭郡読谷村,字長浜１５９２番地１－１０２,,47,324,9040324,,,2024-08-13,清算の結了等,,,2015-10-05,1,,,,,,0
833,4030005003594,登記記録の閉鎖等,0,2024-08-23,2024-08-19,所沢松郷工業団地協同組合,,その他の設立登記法人,埼玉県,所沢市,大字松郷１５２番地３,,11,208,3590027,,,2024-08-19,清算の結了等,,,2015-10-05,1,,,,,トコロザワマツゴウコウギョウダンチ,0
843,4040003017273,登記記録の閉鎖等,0,2024-08-23,2024-08-06,合同会社みんなの場所ｃｈａｉｎ　ｏｆ　ｓｍｉｌｅｓ,,合同会社,千葉県,市川市,福栄３丁目２２番５－１０５号,,12,203,2720137,,,2024-08-06,清算の結了等,,,2021-03-23,1,,,,,ミンナノバショチェインオブスマイルズ,0
853,4080001019937,登記記録の閉鎖等,0,2024-08-23,2024-08-16,株式会社リッチランド,,株式会社,静岡県,藤枝市,宮原５４６番地の２,,22,214,4260133,,,2024-08-16,清算の結了等,,,2015-10-05,1,,,,,リッチランド,0
859,4100002026772,登記記録の閉鎖等,0,2024-08-23,2024-08-07,有限会社深井組,,有限会社,長野県,大町市,大町３２８９番地,,20,212,3980002,,,2024-08-07,清算の結了等,,,2015-10-05,1,,,,,フカイグミ,0
863,4110001029767,登記記録の閉鎖等,0,2024-08-23,2024-08-19,株式会社窪田町福祉会,,株式会社,新潟県,新潟市中央区,窪田町１丁目１番１,,15,103,9518008,,,2024-08-19,清算の結了等,,,2015-10-05,1,,,,,クボタマチフクシカイ,0
881,4130001020468,登記記録の閉鎖等,0,2024-08-23,2024-08-20,株式会社京彩苑,,株式会社,京都府,京都市右京区,嵯峨大覚寺門前六道町６３番地１,,26,108,6168417,,,2024-08-20,清算の結了等,,,2015-10-05,1,,,,,キョウサイエン,0
885,4130002026704,登記記録の閉鎖等,0,2024-08-23,2024-08-20,有限会社西川禎一事務所,,有限会社,京都府,宇治市,木幡内畑３４番地の６,,26,204,6110002,,,2024-08-20,清算の結了等,,,2015-10-05,1,,,,,ニシカワテイイチジムショ,0
888,4140001096301,登記記録の閉鎖等,0,2024-08-23,2024-08-22,株式会社金稲,,株式会社,兵庫県,明石市,西明石北町３丁目４番３号ゼフィール１Ｆ,,28,203,6730018,,,2024-08-22,清算の結了等,,,2015-10-05,1,,,,,,0
894,4180001120346,登記記録の閉鎖等,0,2024-08-23,2024-08-13,オリハルコン株式会社,,株式会社,愛知県,名古屋市瑞穂区,洲山町１丁目５５番地３内堀ビル４１１,,23,108,4670066,,,2024-08-13,清算の結了等,,,2015-10-05,1,,,,,オリハルコン,0
901,4180301038098,登記記録の閉鎖等,0,2024-08-23,2024-08-20,ＡＲ株式会社,,株式会社,愛知県,岡崎市,連尺通２丁目２１番地１,,23,202,4440046,,,2024-08-20,清算の結了等,,,2023-12-07,1,,,,,エーアール,0
903,4180302026564,登記記録の閉鎖等,0,2024-08-23,2024-08-20,有限会社渡辺鉄工所,,有限会社,愛知県,西尾市,志貴野町福部７０番地,,23,213,4450084,,,2024-08-20,清算の結了等,,,2015-10-05,1,,,,,ワタナベテッコウジョ,0
905,4200001012425,登記記録の閉鎖等,0,2024-08-23,2024-08-13,株式会社スタッフ・ＰＣ,,株式会社,岐阜県,岐阜市,清本町１０丁目８番地,,21,201,5008351,,,2024-08-13,清算の結了等,,,2015-10-05,1,,,,,スタッフピーシー,0
913,4250002002560,登記記録の閉鎖等,0,2024-08-23,2024-08-21,有限会社佐山ファーム,,有限会社,山口県,山口市,佐山１４０１番地,,35,203,7540894,,,2024-08-21,清算の結了等,,,2015-10-05,1,,,,,サヤマファーム,0
916,4270002004935,登記記録の閉鎖等,0,2024-08-23,2024-08-20,有限会社Ｔ・Ｔ・Ｅ,,有限会社,鳥取県,鳥取市,富安１丁目１８番地ＮＴＴ－コム鳥取南ビル,,31,201,6800845,,,2024-08-20,清算の結了等,,,2015-10-05,1,,,,,ティーティーイー,0
935,4290802025625,登記記録の閉鎖等,0,2024-08-23,2024-08-09,有限会社国本開発エンジニアリング,,有限会社,福岡県,田川郡福智町,赤池９７０番地８２,,40,610,8221101,,,2024-08-09,清算の結了等,,,2015-10-05,1,,,,,クニモトカイハツエンジニアリング,0
936,4310005007377,登記記録の閉鎖等,0,2024-08-23,2024-08-16,特定非営利活動法人ＹＨＣ,,その他の設立登記法人,長崎県,東彼杵郡波佐見町,宿郷５８９番地,,42,323,8593715,,,2024-08-16,清算の結了等,,,2015-10-05,1,,,,,ワイエイチシー,0
937,4320002017816,登記記録の閉鎖等,0,2024-08-23,2024-08-21,有限会社荻急配運送,,有限会社,大分県,竹田市,荻町馬場４１９番地３,,44,208,8796115,,,2024-08-21,清算の結了等,,,2015-10-05,1,,,,,,0
943,4350001016816,登記記録の閉鎖等,0,2024-08-23,2024-08-20,株式会社エース,,株式会社,宮崎県,宮崎市,中央通１番１９号,,45,201,8800002,,,2024-08-20,清算の結了等,,,2021-01-07,1,,,,,エース,0
956,4390002001607,登記記録の閉鎖等,0,2024-08-23,2024-08-08,有限会社高橋アルミ工業,,有限会社,山形県,東村山郡山辺町,近江２１番地８,,06,301,9900311,,,2024-08-08,清算の結了等,,,2015-10-05,1,,,,,タカハシアルミコウギョウ,0
965,4500002019307,登記記録の閉鎖等,0,2024-08-23,2024-08-20,有限会社矢野商会,,有限会社,愛媛県,今治市,高橋甲１１９２番地７,,38,202,7940066,,,2024-08-20,清算の結了等,,,2015-10-05,1,,,,,ヤノショウカイ,0
981,5010003023835,登記記録の閉鎖等,0,2024-08-23,2024-08-13,エコ事業開発合同会社,,合同会社,東京都,千代田区,大手町２丁目１番１号大手町野村ビル１６階,,13,101,1000004,,,2024-08-13,清算の結了等,,,2016-07-15,1,,,,,エコジギョウカイハツ,0
982,5010003035525,登記記録の閉鎖等,0,2024-08-23,2024-08-13,合同会社ＡＳ水戸成沢太陽光発電所,,合同会社,東京都,千代田区,大手町２丁目１番地１号大手町野村ビル１６階,,13,101,1000004,,,2024-08-13,清算の結了等,,,2021-08-10,1,,,,,エーエスミトナルサワタイヨウコウハツデンショ,0
984,5010005010245,登記記録の閉鎖等,0,2024-08-23,2024-08-01,医療法人社団聖晴会,,その他の設立登記法人,東京都,渋谷区,広尾４丁目１番１２－９０６号,,13,113,1500012,,,2024-08-01,清算の結了等,,,2015-10-05,1,,,,,セイセイカイ,0
996,5010403029036,登記記録の閉鎖等,0,2024-08-23,2024-08-01,合同会社ソーラーパーク２９号,,合同会社,東京都,港区,六本木３丁目２番１号,,13,103,1060032,,,2024-08-01,合併による解散等,3011001038942,令和６年８月１日東京都港区六本木三丁目２番１号合同会社ＤＭＭ．ｃｏｍ（3011001038942）に合併し解散,2022-12-01,1,,,,,ソーラーパークニジュウキュウゴウ,0
1005,5010801002049,登記記録の閉鎖等,0,2024-08-23,2024-08-19,大田印刷株式会社,,株式会社,東京都,大田区,池上１丁目２８番５号,,13,111,1460082,,,2024-08-19,清算の結了等,,,2015-10-05,1,,,,,オオタインサツ,0
1015,5011001134590,登記記録の閉鎖等,0,2024-08-23,2024-08-01,株式会社ＦｔｏＣ,,株式会社,東京都,港区,西麻布２丁目１３番６号ケイズ西麻布７階,,13,103,1060031,,,2024-08-01,合併による解散等,3011001112268,令和６年８月１日東京都港区西麻布二丁目１３番６号ケイズ西麻布７階株式会社フェリエスト（3011001112268）に合併し解散,2020-07-07,1,,,,,エフトゥーシー,0
1032,5011702008498,登記記録の閉鎖等,0,2024-08-23,2024-08-14,中島有機有限会社,,有限会社,東京都,江戸川区,江戸川２丁目６番２１号,,13,123,1320013,,,2024-08-14,清算の結了等,,,2015-10-05,1,,,,,ナカジマユウキ,0
1042,5020001082295,登記記録の閉鎖等,0,2024-08-23,2024-08-01,株式会社宿場,,株式会社,神奈川県,川崎市多摩区,中野島５丁目１番１－１３１０号,,14,135,2140012,,,2024-08-01,清算の結了等,,,2015-10-05,1,,,,,シュクバ,0
1050,5020002048329,登記記録の閉鎖等,0,2024-08-23,2024-07-31,有限会社ロイヤルフラワー,,有限会社,神奈川県,横浜市港南区,日野南５丁目４８番３号,,14,111,2340055,,,2024-07-31,清算の結了等,,,2015-10-05,1,,,,,ロイヤルフラワー,0
1095,5120005011629,登記記録の閉鎖等,0,2024-08-23,2024-08-22,特定非営利活動法人洞窟環境ＮＥＴ学会,,その他の設立登記法人,大阪府,大阪市西淀川区,野里１丁目１６番２３号,,27,113,5550024,,,2024-08-22,清算の結了等,,,2015-10-05,1,,,,,ドウクツカンキョウネットガッカイ,0
1096,5120005016735,登記記録の閉鎖等,0,2024-08-23,2024-08-20,ＮＰＯ法人コスモス・サークル,,その他の設立登記法人,大阪府,大阪市中央区,谷町１丁目３番２３号,,27,128,5400012,,,2024-08-20,清算の結了等,,,2015-10-05,1,,,,,コスモスサークル,0
1098,5120005020043,登記記録の閉鎖等,0,2024-08-23,2024-08-06,一般社団法人日本イノベートソリューション協会,,その他の設立登記法人,大阪府,大阪市北区,末広町３番２１号扇町センタービル７０７号,,27,127,5300053,,,2024-08-06,清算の結了等,,,2018-02-27,1,,,,,ニホンイノベートソリューション,0
1101,5120901007408,登記記録の閉鎖等,0,2024-08-23,2024-08-19,太陽テクノス株式会社,,株式会社,大阪府,吹田市,山田西３丁目３３番Ｃ－２１１号,,27,205,5650824,,,2024-08-19,清算の結了等,,,2015-10-05,1,,,,,タイヨウテクノス,0
1121,5160003001702,登記記録の閉鎖等,0,2024-08-23,2024-08-21,ＤｅｅｐＬｅｔ’ｓ株式会社,,株式会社,滋賀県,大津市,坂本７丁目２８－３ユニヴェール１０１,,25,201,5200113,,,2024-08-21,清算の結了等,,,2018-07-18,1,,,,,ディープレッツ,0
1123,5180001065689,登記記録の閉鎖等,0,2024-08-23,2024-08-22,株式会社インターキャリア,,株式会社,愛知県,安城市,美園町２丁目７番地４,,23,212,4460076,,,2024-08-22,清算の結了等,,,2015-10-05,1,,,,,インターキャリア,0
1136,5200005007313,登記記録の閉鎖等,0,2024-08-23,2024-08-13,特定非営利活動法人ａｌａクルーズ,,その他の設立登記法人,岐阜県,可児市,下恵土３４３３番地１３９可児市文化創造センター内,,21,214,5090203,,,2024-08-13,清算の結了等,,,2015-10-05,1,,,,,アーラクルーズ,0
1139,5220001019888,登記記録の閉鎖等,0,2024-08-23,2024-08-13,株式会社まゆみ,,株式会社,石川県,金沢市,小立野４丁目９番１６号,,17,201,9200942,,,2024-08-13,清算の結了等,,,2015-10-05,1,,,,,マユミ,0
1143,5260002005512,登記記録の閉鎖等,0,2024-08-23,2024-08-16,有限会社誠和釣具,,有限会社,岡山県,岡山市南区,東畦１２９番地の５,,33,104,7010211,,,2024-08-16,清算の結了等,,,2015-10-05,1,,,,,セイワツリグ,0
1145,5260002027003,登記記録の閉鎖等,0,2024-08-23,2024-08-14,有限会社八代養豚,,有限会社,岡山県,高梁市,備中町東油野９０１番地,,33,209,7160321,,,2024-08-14,清算の結了等,,,2015-10-05,1,,,,,ヤシロヨウトン,0
1150,5290001066882,登記記録の閉鎖等,0,2024-08-23,2024-08-02,株式会社福岡ビル総研,,株式会社,福岡県,福岡市中央区,大名２丁目６番１号,,40,133,8100041,,,2024-08-02,清算の結了等,,,2015-10-05,1,,,,,フクオカビルソウケン,0
1169,5370201002621,登記記録の閉鎖等,0,2024-08-23,2024-08-06,株式会社タクエツ技研,,株式会社,宮城県,大崎市,古川北稲葉１丁目６番６号,,04,215,9896145,,,2024-08-06,清算の結了等,,,2015-10-05,1,,,,,タクエツギケン,0
1175,5400001013492,登記記録の閉鎖等,0,2024-08-23,2024-08-08,岩手中央エネルギー株式会社,,株式会社,岩手県,紫波郡紫波町,北日詰字白旗１０７番地１の８,,03,321,0283309,,,2024-08-08,清算の結了等,,,2016-12-14,1,,,,,イワテチュウオウエネルギー,0
1178,5420002003053,登記記録の閉鎖等,0,2024-08-23,2024-08-21,有限会社ヤマザキ家電,,有限会社,青森県,青森市,筒井１丁目１１番１３号,,02,201,0300944,,,2024-08-21,清算の結了等,,,2015-10-05,1,,,,,ヤマザキカデン,0
1183,5430001080836,登記記録の閉鎖等,0,2024-08-23,2024-08-22,株式会社ジュニット,,株式会社,北海道,札幌市豊平区,豊平二条８丁目１－２５ファミリー豊平１Ｆ,,01,105,0620902,,,2024-08-22,清算の結了等,,,2020-02-06,1,,,,,ジュニット,0
1185,5430003016359,登記記録の閉鎖等,0,2024-08-23,2024-08-21,合同会社皎之島,,合同会社,北海道,札幌市西区,宮の沢三条３丁目９番７号エクセルＡハイツ２０３号,,01,107,0630053,,,2024-08-21,清算の結了等,,,2024-05-21,1,,,,,コウノトウ,0
1189,6010001166172,登記記録の閉鎖等,0,2024-08-23,2024-08-13,株式会社関東ソーラー発電,,株式会社,東京都,千代田区,大手町２丁目１番１号,,13,101,1000004,,,2024-08-13,清算の結了等,,,2015-10-05,1,,,,,カントウソーラーハツデン,0
1201,6010401116248,商号の登記の抹消,0,2024-08-23,2024-07-23,株式会社６ｔｈ　Ｓｅｎｓｅ,,株式会社,東京都,港区,六本木７丁目７番７号Ｔｒｉ－ＳｅｖｅｎＲｏｐｐｏｎｇｉ８階,,13,103,1060032,,,,,,,2015-10-05,1,,,,,シックスセンス,0
1202,6010401132311,登記記録の閉鎖等,0,2024-08-23,2024-07-04,株式会社ギブスター,,株式会社,東京都,港区,六本木６丁目１番２０号,,13,103,1060032,,,2024-07-04,清算の結了等,,,2017-07-03,1,,,,,,0
1215,6010801021064,登記記録の閉鎖等,0,2024-08-23,2024-08-09,株式会社ＪＭＳ,,株式会社,東京都,中央区,銀座１丁目２２番１１号銀座大竹ビジデンス２階,,13,102,1040061,,,2024-08-09,清算の結了等,,,2015-10-05,1,,,,,ジェイエムエス,0
1234,6011501017583,登記記録の閉鎖等,0,2024-08-23,2024-08-20,株式会社スカイ・プロジェクト,,株式会社,東京都,台東区,上野６丁目８番１９号小野田ビル３０１号,,13,106,1100005,,,2024-08-20,清算の結了等,,,2015-10-05,1,,,,,スカイプロジェクト,0
1250,6020001033314,登記記録の閉鎖等,0,2024-08-23,2024-07-31,株式会社海洋機械設計,,株式会社,神奈川県,横浜市戸塚区,品濃町５５３番地１パークヒルズＨ棟４０７号,,14,110,2440801,,,2024-07-31,清算の結了等,,,2015-10-05,1,,,,,カイヨウキカイセッケイ,0
1253,6020001143501,登記記録の閉鎖等,0,2024-08-23,2024-08-21,天桜綜業株式会社,,株式会社,神奈川県,藤沢市,亀井野３２３８－２７－２０１,,14,205,2520813,,,2024-08-21,清算の結了等,,,2021-10-15,1,,,,,,0
1259,6020002095857,登記記録の閉鎖等,0,2024-08-23,2024-08-01,有限会社エービーケー,,有限会社,神奈川県,川崎市川崎区,中島２丁目１番１７号,,14,131,2100806,,,2024-08-01,清算の結了等,,,2015-10-05,1,,,,,エービーケー,0
1274,6030001069588,登記記録の閉鎖等,0,2024-08-23,2024-08-21,中谷総合研究所株式会社,,株式会社,埼玉県,鶴ヶ島市,大字上広谷２５０番地６,,11,241,3502203,,,2024-08-21,清算の結了等,,,2015-10-05,1,,,,,ナカタニソウゴウケンキュウショ,0
1280,6040001022653,登記記録の閉鎖等,0,2024-08-23,2024-08-08,株式会社ＺＡＰ,,株式会社,千葉県,船橋市,飯山満町３丁目１３１６番地６,,12,204,2740822,,,2024-08-08,清算の結了等,,,2015-10-05,1,,,,,,0
1285,6040003022577,登記記録の閉鎖等,0,2024-08-23,2024-08-08,家福製図合同会社,,合同会社,千葉県,富里市,十倉３７４番地７８,,12,233,2860212,,,2024-08-08,清算の結了等,,,2023-05-16,1,,,,,ヤフクセイズ,0
1290,6060002009862,登記記録の閉鎖等,0,2024-08-23,2024-08-09,有限会社ロクブンブックステーション,,有限会社,栃木県,宇都宮市,花園町３番３号,,09,201,3200843,,,2024-08-09,清算の結了等,,,2015-10-05,1,,,,,ロクブンブックステーション,0
1321,6140001033608,登記記録の閉鎖等,0,2024-08-23,2024-08-19,株式会社セルネス,,株式会社,兵庫県,神戸市北区,惣山町２丁目８番地の８,,28,109,6511145,,,2024-08-19,清算の結了等,,,2015-10-05,1,,,,,セルネス,0
1325,6140001085046,登記記録の閉鎖等,0,2024-08-23,2024-08-21,株式会社インテリアサロン城古,,株式会社,兵庫県,淡路市,志筑新島６番地の１２,,28,226,6562132,,,2024-08-21,清算の結了等,,,2015-10-05,1,,,,,インテリアサロンジョウコ,0
1332,6150001006348,登記記録の閉鎖等,0,2024-08-23,2024-08-22,株式会社旭,,株式会社,奈良県,天理市,嘉幡町４４０番地の５,,29,204,6320084,,,2024-08-22,清算の結了等,,,2015-10-05,1,,,,,アサヒ,0
1333,6150002006223,登記記録の閉鎖等,0,2024-08-23,2024-08-21,国見工業有限会社,,有限会社,奈良県,生駒郡斑鳩町,神南１丁目１８５番地の１,,29,344,6360143,,,2024-08-21,清算の結了等,,,2015-10-05,1,,,,,クニミコウギョウ,0
1337,6180001103407,登記記録の閉鎖等,0,2024-08-23,2024-08-13,アトレー株式会社,,株式会社,愛知県,名古屋市港区,木場町８番地の５３,,23,111,4550021,,,2024-08-13,清算の結了等,,,2015-10-05,1,,,,,アトレー,0
1342,6180001146059,登記記録の閉鎖等,0,2024-08-23,2024-08-13,株式会社ＥＭＩＴ,,株式会社,愛知県,名古屋市中村区,名駅３丁目２６番８号ＫＤＸ名古屋駅前ビル１３階,,23,105,4500002,,,2024-08-13,清算の結了等,,,2021-05-17,1,,,,,エミット,0
1344,6180002066058,登記記録の閉鎖等,0,2024-08-23,2024-08-13,三進荷役有限会社,,有限会社,愛知県,春日井市,東山町字平橋２３１１番地の３２,,23,206,4860811,,,2024-08-13,清算の結了等,,,2015-10-05,1,,,,,サンシンニヤク,0
1348,6180301006722,登記記録の閉鎖等,0,2024-08-23,2024-08-20,日工建設株式会社,,株式会社,愛知県,豊橋市,王ケ崎町字汐崎２４番地５,,23,201,4418066,,,2024-08-20,清算の結了等,,,2015-10-05,1,,,,,ニッコウケンセツ,0
1352,6200001012480,登記記録の閉鎖等,0,2024-08-23,2024-08-15,株式会社住まい’Ｓ　ＤＥＰＯ．ねっと,,株式会社,岐阜県,岐阜市,旦島中１丁目５番２５号,,21,201,5020928,,,2024-08-15,清算の結了等,,,2015-10-05,1,,,,,スマイズデポネット,0
1366,6290001068630,登記記録の閉鎖等,0,2024-08-23,2024-08-19,株式会社ネクスト,,株式会社,宮崎県,串間市,西浜１丁目１９番地８,,45,207,8880012,,,2024-08-19,清算の結了等,,,2015-10-05,1,,,,,ネクスト,0
1370,6290802017447,登記記録の閉鎖等,0,2024-08-23,2024-08-20,有限会社船場,,有限会社,福岡県,中間市,朝霧１丁目２番１２号,,40,215,8090021,,,2024-08-20,清算の結了等,,,2015-10-05,1,,,,,センバ,0
1372,6290803004188,登記記録の閉鎖等,0,2024-08-23,2024-08-22,合同会社マリンアート,,合同会社,福岡県,北九州市小倉北区,東篠崎１丁目１－３７－１００５,,40,106,8020072,,,2024-08-22,清算の結了等,,,2022-08-31,1,,,,,マリンアート,0
1375,6310002014713,登記記録の閉鎖等,0,2024-08-23,2024-08-19,有限会社シオミ薬局,,有限会社,長崎県,佐世保市,白南風町１番１６号,,42,202,8570862,,,2024-08-19,清算の結了等,,,2015-10-05,1,,,,,シオミヤッキョク,0
1380,6340002012648,登記記録の閉鎖等,0,2024-08-23,2024-08-21,有限会社松尾土木,,有限会社,鹿児島県,日置市,東市来町湯田１７５２番地１,,46,216,8992201,,,2024-08-21,清算の結了等,,,2015-10-05,1,,,,,マツオドボク,0
1398,6390005003755,登記記録の閉鎖等,0,2024-08-23,2024-08-09,医療法人奥山医院,,その他の設立登記法人,山形県,東田川郡庄内町,狩川字小野里１１７番地,,06,428,9996601,,,2024-08-09,清算の結了等,,,2015-10-05,1,,,,,オクヤマイイン,0
1403,6430001007367,登記記録の閉鎖等,0,2024-08-23,2024-08-19,新成産業株式会社,,株式会社,北海道,札幌市南区,澄川四条３丁目５番１号,,01,106,0050004,,,2024-08-19,清算の結了等,,,2015-10-05,1,,,,,シンセイサンギョウ,0
1423,7010003030986,登記記録の閉鎖等,0,2024-08-23,2024-08-09,ＣＬＦ１合同会社,,合同会社,東京都,中央区,日本橋１丁目４番１号,,13,102,1030027,,,2024-08-09,清算の結了等,,,2019-11-06,1,,,,,シーエルエフワン,0
1436,7010501028474,登記記録の閉鎖等,0,2024-08-23,2024-08-20,株式会社オオカタ,,株式会社,東京都,台東区,池之端２丁目１番１－２２０３号,,13,106,1100008,,,2024-08-20,清算の結了等,,,2015-10-05,1,,,,,オオカタ,0
1447,7010701042317,登記記録の閉鎖等,0,2024-08-23,2024-08-08,株式会社ｅｄｕｌｅａｐ,,株式会社,東京都,品川区,大崎１丁目２番２号,,13,109,1410032,,,2024-08-08,合併による解散等,8013201016723,令和６年８月８日東京都品川区大崎一丁目２番２号ＡＭＢＬ株式会社（8013201016723）に合併し解散,2022-03-04,1,,,,,エドリープ,0
1473,7011801028065,登記記録の閉鎖等,0,2024-08-23,2024-08-21,株式会社バズトランスポート,,株式会社,東京都,足立区,西新井本町３丁目７番１５－１０３号,,13,121,1230845,,,2024-08-21,清算の結了等,,,2015-10-05,1,,,,,バズトランスポート,0
1474,7011801036159,登記記録の閉鎖等,0,2024-08-23,2024-08-21,株式会社ＡＲＵＣＵＳ,,株式会社,東京都,足立区,日ノ出町２８番９号メゾン・晴れ２０２,,13,121,1200021,,,2024-08-21,清算の結了等,,,2019-05-21,1,,,,,アルカス,0
1479,7012402023422,登記記録の閉鎖等,0,2024-08-23,2024-08-15,有限会社Ｄｏｎａｔｅ　ｔｏ　Ｓｏｃｉｅｔｙ,,有限会社,東京都,立川市,羽衣町３丁目２１番１７号,,13,202,1900021,,,2024-08-15,清算の結了等,,,2015-10-05,1,,,,,ドネイトトゥソサイエティ,0
1480,7012801010194,登記記録の閉鎖等,0,2024-08-23,2024-08-07,株式会社ＩＢＺ,,株式会社,千葉県,成田市,花崎町８３９番地４０芙蓉ビル２階,,12,211,2860033,,,2024-08-07,清算の結了等,,,2015-10-05,1,,,,,アイビーゼット,0
1504,7021002029688,登記記録の閉鎖等,0,2024-08-23,2024-08-21,有限会社南部ハウジング,,有限会社,神奈川県,相模原市緑区,町屋２丁目１３番６号,,14,151,2520101,,,2024-08-21,清算の結了等,,,2015-10-05,1,,,,,,0
1518,7040001045380,登記記録の閉鎖等,0,2024-08-23,2024-08-06,株式会社マックユーエン・プロ,,株式会社,千葉県,印西市,戸神台１丁目１番地Ｆ棟２００１号,,12,231,2701349,,,2024-08-06,清算の結了等,,,2015-10-05,1,,,,,マックユーエンプロ,0
1520,7040001063878,登記記録の閉鎖等,0,2024-08-23,2024-08-07,株式会社明治堂,,株式会社,千葉県,香取市,小見川２５０番地,,12,236,2890313,,,2024-08-07,清算の結了等,,,2015-10-05,1,,,,,メイジドウ,0
1536,7080001001066,登記記録の閉鎖等,0,2024-08-23,2024-08-14,株式会社カネキ小林工務店,,株式会社,静岡県,静岡市葵区,安西１丁目５７番地,,22,101,4200011,,,2024-08-14,清算の結了等,,,2015-10-05,1,,,,,カネキコバヤシコウムテン,0
1544,7110002017999,登記記録の閉鎖等,0,2024-08-23,2024-08-15,有限会社ケインズ,,有限会社,新潟県,三条市,林町１丁目１８番１７号,,15,204,9550061,,,2024-08-15,清算の結了等,,,2015-10-05,1,,,,,ケインズ,0
1545,7110002019137,登記記録の閉鎖等,0,2024-08-23,2024-08-16,有限会社金正建設,,有限会社,新潟県,燕市,小高１１３４番地,,15,213,9591241,,,2024-08-16,清算の結了等,,,2015-10-05,1,,,,,カネマサケンセツ,0
1551,7120001205034,登記記録の閉鎖等,0,2024-08-23,2024-08-21,株式会社ＰＭ　ＬＡＢＯ,,株式会社,大阪府,大阪市城東区,今福東２丁目１３番９号,,27,118,5360002,,,2024-08-21,清算の結了等,,,2017-04-17,1,,,,,ピーエムラボ,0
1575,7130005015874,登記記録の閉鎖等,0,2024-08-23,2024-08-21,一般社団法人福知山ワンダーマーケット,,その他の設立登記法人,京都府,福知山市,字下新１０番地,,26,201,6200029,,,2024-08-21,清算の結了等,,,2020-04-09,1,,,,,フクチヤマワンダーマーケット,0
1579,7140002007733,登記記録の閉鎖等,0,2024-08-23,2024-08-22,日の本商事有限会社,,有限会社,兵庫県,神戸市垂水区,本多聞２丁目１３番１５号,,28,108,6550006,,,2024-08-22,清算の結了等,,,2015-10-05,1,,,,,,0
1597,7180301005814,登記記録の閉鎖等,0,2024-08-23,2024-08-20,株式会社ジューコー電設,,株式会社,愛知県,豊橋市,西幸町字浜池３２１番地の１,,23,201,4418113,,,2024-08-20,清算の結了等,,,2015-10-05,1,,,,,ジューコーデンセツ,0
1601,7200005012831,登記記録の閉鎖等,0,2024-08-23,2024-08-19,特定非営利活動法人こけいざん森の家,,その他の設立登記法人,岐阜県,多治見市,弁天町４丁目２番地,,21,204,5070028,,,2024-08-19,清算の結了等,,,2018-07-03,1,,,,,コケイザンモリノイエ,0
1624,7330003005238,登記記録の閉鎖等,0,2024-08-23,2024-08-14,合同会社洋公富士,,合同会社,熊本県,熊本市北区,鹿子木町５６０番地,,43,105,8615521,,,2024-08-14,清算の結了等,,,2015-10-05,1,,,,,,0
1649,7430001090024,登記記録の閉鎖等,0,2024-08-23,2024-08-20,株式会社ＳＵＭＭＥＲ,,株式会社,北海道,札幌市中央区,南四条西２１丁目１番１２号,,01,101,0640804,,,2024-08-20,清算の結了等,,,2023-09-21,1,,,,,サマー,0
1652,7490001010422,登記記録の閉鎖等,0,2024-08-23,2024-08-01,株式会社ワンダーウェーブ,,株式会社,東京都,港区,赤坂２丁目１４番４号森崎ビル３Ｆ,,13,103,1070052,,,2024-08-01,合併による解散等,8010401146417,令和６年８月１日東京都港区赤坂二丁目１４番４号森崎ビル３階株式会社ワールドエッグス（8010401146417）に合併し解散,2023-03-08,1,,,,,ワンダーウェーブ,0
1657,7500001019478,登記記録の閉鎖等,0,2024-08-23,2024-08-20,株式会社ＥＤＧＥ,,株式会社,愛媛県,松山市,北井門５丁目５４２－１,,38,201,7911105,,,2024-08-20,清算の結了等,,,2015-12-03,1,,,,,エッジ,0
1663,8010001119830,登記記録の閉鎖等,0,2024-08-23,2024-08-13,株式会社ＪＡＫ,,株式会社,東京都,千代田区,神田鍛冶町３丁目５番地４号,,13,101,1010045,,,2024-08-13,清算の結了等,,,2015-10-05,1,,,,,ジェイエイケイ,0
1672,8010001216090,登記記録の閉鎖等,0,2024-08-23,2024-08-13,ＮＥＸＴＥＣ　ＢＵＺＺ株式会社,,株式会社,東京都,中央区,晴海５丁目１－１７－１５１９,,13,102,1040053,,,2024-08-13,清算の結了等,,,2021-02-26,1,,,,,ネクステックバズ,0
1680,8010003031802,登記記録の閉鎖等,0,2024-08-23,2024-08-09,ＡＦ　ＩＶ合同会社,,合同会社,東京都,中央区,銀座１丁目６番１１号アースタックス税理士法人内,,13,102,1040061,,,2024-08-09,清算の結了等,,,2020-03-11,1,,,,,エイエフフォー,0
1684,8010005001002,登記記録の閉鎖等,0,2024-08-23,2024-08-08,中央ビルト工業労働組合,,その他の設立登記法人,東京都,中央区,日本橋蛎殻町１丁目３２番４号泉山ビル３０２号,,13,102,1030014,,,2024-08-08,清算の結了等,,,2015-10-05,1,,,,,チュウオウビルトコウギョウ,0
1687,8010401107484,登記記録の閉鎖等,0,2024-08-23,2024-08-01,ＲＢＩ　ＳＯＬＡＲ株式会社,00050803,株式会社,東京都,港区,西新橋１丁目５番９号,,13,103,1050003,,,2024-08-01,合併による解散等,3010601063796,令和６年８月１日東京都港区西新橋一丁目５番９号株式会社ＲＢＧＰ１（3010601063796）に合併し解散,2015-10-05,1,,,,,アールビーアイソーラー,0
1688,8010401108854,登記記録の閉鎖等,0,2024-08-23,2024-08-21,株式会社玉清,,株式会社,東京都,足立区,栗原３丁目２－１１,,13,121,1230842,,,2024-08-21,清算の結了等,,,2015-10-05,1,,,,,ギョクセイ,0
1689,8010401144189,登記記録の閉鎖等,0,2024-08-23,2024-08-01,株式会社ＤＥＡＲ－ＬＯＧＵＥ　ｂｅａｕｔｙ,,株式会社,東京都,渋谷区,渋谷３丁目８番１２号渋谷第一生命ビルディング７階,,13,113,1500002,,,2024-08-01,合併による解散等,1013201013784,令和６年８月１日東京都渋谷区渋谷三丁目８番１２号渋谷第一生命ビルディング７階株式会社ディアローグ（1013201013784）に合併し解散,2019-03-07,1,,,,,ディアローグビューティー,0
1695,8010403014605,登記記録の閉鎖等,0,2024-08-23,2024-08-09,合同会社ＣＲＴ佐賀,,合同会社,東京都,千代田区,丸の内３丁目１番１号東京共同会計事務所内,,13,101,1000005,,,2024-08-09,清算の結了等,,,2016-03-23,1,,,,,シーアールティーサガ,0
1698,8010501044207,登記記録の閉鎖等,0,2024-08-23,2024-08-15,ＤＥＳＫ株式会社,,株式会社,東京都,大田区,西蒲田７丁目４番４号小山第二ビル６Ｆ,,13,111,1440051,,,2024-08-15,清算の結了等,,,2019-06-05,1,,,,,デスク,0
1704,8010802000890,登記記録の閉鎖等,0,2024-08-23,2024-08-19,有限会社有田金属工業,,有限会社,東京都,大田区,東蒲田１丁目９番６号,,13,111,1440031,,,2024-08-19,清算の結了等,,,2015-10-05,1,,,,,アリタキンゾクコウギョウ,0
1743,8013301042875,登記記録の閉鎖等,0,2024-08-23,2024-08-15,オルピナ・パートナーズ株式会社,,株式会社,東京都,豊島区,東池袋１丁目３４番５号いちご東池袋ビル６階,,13,116,1700013,,,2024-08-15,清算の結了等,,,2018-10-03,1,,,,,オルピナパートナーズ,0
1760,8021001065997,登記記録の閉鎖等,0,2024-08-23,2024-08-21,まさる建設株式会社,,株式会社,神奈川県,相模原市緑区,長竹２８４９番地１,,14,151,2520154,,,2024-08-21,清算の結了等,,,2018-11-07,1,,,,,マサルケンセツ,0
1797,8060002015405,登記記録の閉鎖等,0,2024-08-23,2024-08-09,有限会社明治屋,,有限会社,栃木県,日光市,今市５０２番地１,,09,206,3211261,,,2024-08-09,清算の結了等,,,2015-10-05,1,,,,,メイジヤ,0
1807,8100002003586,登記記録の閉鎖等,0,2024-08-23,2024-08-05,有限会社長野ズーム,,有限会社,長野県,長野市,大字高田字守田沖４６１番地の２号,,20,201,3810034,,,2024-08-05,清算の結了等,,,2015-10-05,1,,,,,ナガノズーム,0
1825,8130002008038,登記記録の閉鎖等,0,2024-08-23,2024-08-22,有限会社メディアプラザ日昭,,有限会社,京都府,京都市下京区,西七条南衣田町４２番地１７,,26,106,6008884,,,2024-08-22,清算の結了等,,,2015-10-05,1,,,,,,0
1841,8180001053567,登記記録の閉鎖等,0,2024-08-23,2024-08-01,株式会社ジャーニー,,株式会社,東京都,港区,六本木４丁目３番３５－２０９号,,13,103,1060032,,,2024-08-01,合併による解散等,7180001147386,令和６年８月１日東京都港区六本木四丁目３番３５－２０９号株式会社Ｑ’ｄｓ　Ｉｎｖｅｓｔｍｅｎｔ（7180001147386）に合併し解散,2015-10-05,1,,,,,ジャーニー,0
1852,8180001139127,登記記録の閉鎖等,0,2024-08-23,2024-08-13,株式会社ＰＲＩＭＥ　ＦＯＯＤ　ＤＥＳＩＧＮ,,株式会社,愛知県,名古屋市東区,泉３丁目１７番１０号泉ビル３Ｆ,,23,102,4610001,,,2024-08-13,清算の結了等,,,2019-12-04,1,,,,,,0
1870,8230002009802,登記記録の閉鎖等,0,2024-08-23,2024-08-21,有限会社ナカタ,,有限会社,富山県,南砺市,福光６９１２番地,,16,210,9391610,,,2024-08-21,清算の結了等,,,2015-10-05,1,,,,,ナカタ,0
1893,8290005004142,登記記録の閉鎖等,0,2024-08-23,2024-08-06,平成石綿除去工事業協同組合,,その他の設立登記法人,福岡県,福岡市南区,清水３丁目７番７号,,40,134,8150031,,,2024-08-06,清算の結了等,,,2015-10-05,1,,,,,ヘイセイイシワタジョキョコウジギョウ,0
1900,8350001014650,登記記録の閉鎖等,0,2024-08-23,2024-08-19,株式会社ＲＩＴ,,株式会社,宮崎県,延岡市,大貫町４丁目２９２６－２住マイル館大貫１０３,,45,203,8820803,,,2024-08-19,清算の結了等,,,2017-05-10,1,,,,,アールアイティー,0
1904,8360002008378,登記記録の閉鎖等,0,2024-08-23,2024-08-21,有限会社新芽開発,,有限会社,沖縄県,島尻郡八重瀬町,字屋宜原７５番地５,,47,362,9010406,,,2024-08-21,清算の結了等,,,2015-10-05,1,,,,,シンメカイハツ,0
1918,8430001021110,登記記録の閉鎖等,0,2024-08-23,2024-08-16,日本リフォーム株式会社,,株式会社,北海道,札幌市中央区,北三条東４丁目１番地,,01,101,0600033,,,2024-08-16,清算の結了等,,,2015-10-05,1,,,,,ニホンリフォーム,0
1919,8430001042800,登記記録の閉鎖等,0,2024-08-23,2024-08-15,株式会社開建工業,,株式会社,北海道,石狩郡新篠津村,第４５線北１１番地,,01,304,0681100,,,2024-08-15,清算の結了等,,,2015-10-05,1,,,,,カイケンコウギョウ,0
1926,8430002061601,登記記録の閉鎖等,0,2024-08-23,2024-08-20,有限会社大和建設,,有限会社,北海道,新冠郡新冠町,字中央町２番地の２,,01,604,0592402,,,2024-08-20,清算の結了等,,,2015-10-05,1,,,,,ダイワケンセツ,0
1932,8470001015265,登記記録の閉鎖等,0,2024-08-23,2024-08-20,株式会社ケアドルフ,,株式会社,香川県,高松市,丸亀町１番地１,,37,201,7600029,,,2024-08-20,合併による解散等,5470002014038,令和６年８月１日香川県丸亀市土器町西四丁目２４７番地２株式会社ケアファーマシー（5470002014038）に合併し解散,2015-10-05,1,,,,,ケアドルフ,0
1938,8500001005881,登記記録の閉鎖等,0,2024-08-23,2024-08-14,株式会社ＡＥＲ,,株式会社,愛媛県,松山市,福音寺町６９５番地,,38,201,7900921,,,2024-08-14,合併による解散等,7500001002161,令和６年７月３１日愛媛県松山市白水台三丁目乙５３３番地１城東開発株式会社（7500001002161）に合併し解散,2015-10-05,1,,,,,アエル,0
1949,9010003031124,登記記録の閉鎖等,0,2024-08-23,2024-08-13,東海村ソーラーパワー合同会社,,合同会社,東京都,千代田区,大手町２丁目１番１号株式会社Ａ－スタイル内,,13,101,1000004,,,2024-08-13,清算の結了等,,,2019-11-26,1,,,,,トウカイムラソーラーパワー,0
1952,9010003038136,登記記録の閉鎖等,0,2024-08-23,2024-08-05,Ｍ２トレーディング合同会社,,合同会社,東京都,中央区,日本橋浜町２丁目５７番１号,,13,102,1030007,,,2024-08-05,清算の結了等,,,2022-07-12,1,,,,,エムツートレーディング,0
1956,9010005029199,登記記録の閉鎖等,0,2024-08-23,2024-08-09,一般社団法人ｉＢＴＡ再生医療研究会,,その他の設立登記法人,東京都,中央区,新川２丁目１３番１１号内田ビル４階,,13,102,1040033,,,2024-08-09,清算の結了等,,,2018-10-10,1,,,,,アイビータサイセイイリョウケンキュウカイ,0
1961,9010102005334,登記記録の閉鎖等,0,2024-08-23,2024-08-21,有限会社野崎理容所,,有限会社,東京都,八王子市,本町１９番９号,,13,201,1920066,,,2024-08-21,清算の結了等,,,2015-10-05,1,,,,,,0
1962,9010401095027,登記記録の閉鎖等,0,2024-08-23,2024-08-09,Ｎｅｗｃｏｐｉａ　Ｃａｐｉｔａｌ　Ｍａｎａｇｅｍｅｎｔ　Ｊａｐａｎ株式会社,,株式会社,東京都,千代田区,紀尾井町１番３号,,13,101,1020094,,,2024-08-09,清算の結了等,,,2015-10-05,1,,,,,,0
1963,9010401099449,登記記録の閉鎖等,0,2024-08-23,2024-08-01,株式会社ホワイトボックス,,株式会社,東京都,港区,赤坂４丁目８番１０号,,13,103,1070052,,,2024-08-01,清算の結了等,,,2015-10-05,1,,,,,ホワイトボックス,0
1975,9010601041219,商号の登記の抹消,0,2024-08-23,2024-08-05,昭産建設株式会社,,株式会社,東京都,江戸川区,中葛西５丁目３４番７号,,13,123,1340083,,,,,,,2015-10-05,1,,,,,ショウサンケンセツ,0
1979,9010801017076,登記記録の閉鎖等,0,2024-08-23,2024-08-15,株式会社Ｐａｔ　ａｎｄ　Ｃｏｍｐａｎｙ,,株式会社,東京都,大田区,東六郷２丁目１９番８号,,13,111,1440046,,,2024-08-15,清算の結了等,,,2015-10-05,1,,,,,パットアンドカンパニー,0
1980,9010801018116,登記記録の閉鎖等,0,2024-08-23,2024-08-06,株式会社スガワラデザイン室,,株式会社,山形県,酒田市,本町３丁目３番２１号,,06,204,9980043,,,2024-08-06,清算の結了等,,,2015-10-05,1,,,,,スガワラデザインシツ,0
1998,9011701009543,商号の登記の抹消,0,2024-08-23,2024-08-05,ＳＨＯＳＡＮ．ＲＥＭ株式会社,,株式会社,東京都,江戸川区,中葛西５丁目３４番７号,00056467,13,123,1340083,,,,,,,2015-10-05,1,,,,,ショウサンアールイーエム,0
2007,9012701010929,登記記録の閉鎖等,0,2024-08-23,2024-08-21,株式会社くろおび,,株式会社,神奈川県,相模原市南区,新磯野２丁目１番５号,,14,153,2520325,,,2024-08-21,清算の結了等,,,2015-10-05,1,,,,,クロオビ,0
2025,9021001023244,登記記録の閉鎖等,0,2024-08-23,2024-08-21,アスレティクス・ジャパン株式会社,,株式会社,神奈川県,伊勢原市,桜台２丁目１４番７号,,14,214,2591132,,,2024-08-21,清算の結了等,,,2015-10-05,1,,,,,アスレティクスジャパン,0
2026,9021003008821,登記記録の閉鎖等,0,2024-08-23,2024-08-20,合同会社宝豊,,合同会社,神奈川県,足柄上郡開成町,円通寺３０－１,,14,366,2580025,,,2024-08-20,清算の結了等,,,2019-10-31,1,,,,,ホウホウ,0
2065,9100001007208,登記記録の閉鎖等,0,2024-08-23,2024-08-09,ＬＫＳ１号株式会社,,株式会社,東京都,千代田区,麹町４丁目３番２９号ＶＯＲＴ紀尾井坂６階,,13,101,1020083,,,2024-08-09,清算の結了等,,,2015-10-05,1,,,,,エルケーエスイチゴウ,0
2068,9110002033383,登記記録の閉鎖等,0,2024-08-23,2024-08-19,有限会社ヤマノ,,有限会社,新潟県,南魚沼市,山谷３２５番地,,15,226,9496763,,,2024-08-19,清算の結了等,,,2015-10-05,1,,,,,ヤマノ,0
2071,9120001110059,登記記録の閉鎖等,0,2024-08-23,2024-08-21,ＦＥＰ株式会社,,株式会社,大阪府,大阪市中央区,南本町３丁目３番５号,,27,128,5410054,,,2024-08-21,清算の結了等,,,2015-10-05,1,,,,,,0
2072,9120001138100,登記記録の閉鎖等,0,2024-08-23,2024-08-21,株式会社ビンビス,,株式会社,大阪府,大阪市平野区,長吉川辺２丁目３番５３号,,27,126,5470014,,,2024-08-21,清算の結了等,,,2015-10-05,1,,,,,ビンビス,0
2077,9120001255894,登記記録の閉鎖等,0,2024-08-23,2024-08-21,株式会社ＴＥＡＭたかちゃん,,株式会社,大阪府,大阪市生野区,新今里３丁目１番４－３０４号,,27,116,5440001,,,2024-08-21,清算の結了等,,,2023-06-21,1,,,,,チームタカチャン,0
2087,9140001016956,登記記録の閉鎖等,0,2024-08-23,2024-08-21,株式会社ミヤザキ,,株式会社,兵庫県,神戸市長田区,檜川町１丁目７番２４号,,28,106,6530887,,,2024-08-21,清算の結了等,,,2015-10-05,1,,,,,ミヤザキ,0
2089,9140001103515,登記記録の閉鎖等,0,2024-08-23,2024-08-21,株式会社ぼんぼん,,株式会社,兵庫県,神戸市垂水区,多聞台２丁目１６番３３号,,28,108,6550007,,,2024-08-21,清算の結了等,,,2016-09-28,1,,,,,ボンボン,0
2099,9180001072814,登記記録の閉鎖等,0,2024-08-23,2024-08-13,株式会社ガーデンエクステリア,,株式会社,愛知県,北名古屋市,六ツ師松戸４２番地１,,23,234,4810001,,,2024-08-13,清算の結了等,,,2015-10-05,1,,,,,ガーデンエクステリア,0
2106,9180002030696,登記記録の閉鎖等,0,2024-08-23,2024-08-15,有限会社こうこくプラン,,有限会社,愛知県,名古屋市中区,栄５丁目２６番１５号,,23,106,4600008,,,2024-08-15,清算の結了等,,,2015-10-05,1,,,,,コウコクプラン,0
2110,9200001005572,登記記録の閉鎖等,0,2024-08-23,2024-08-16,株式会社山一建材,,株式会社,岐阜県,岐阜市,徹明通８丁目４番地,,21,201,5008879,,,2024-08-16,清算の結了等,,,2015-10-05,1,,,,,ヤマイチケンザイ,0
2125,9280001000467,登記記録の閉鎖等,0,2024-08-23,2024-08-22,株式会社タワー,,株式会社,島根県,松江市,砂子町２４１番地８,,32,201,6900878,,,2024-08-22,清算の結了等,,,2015-10-05,1,,,,,タワー,0
2126,9290001035256,登記記録の閉鎖等,0,2024-08-23,2024-08-09,ヒューマン＆クォリティー株式会社,,株式会社,福岡県,福岡市博多区,新和町２丁目１番２２－３０１号,,40,132,8120875,,,2024-08-09,清算の結了等,,,2015-10-05,1,,,,,ヒューマンアンドクォリティー,0
2135,9330001011946,登記記録の閉鎖等,0,2024-08-23,2024-08-14,株式会社マルトク,,株式会社,熊本県,玉名市,松木３番地２１,,43,206,8650052,,,2024-08-14,清算の結了等,,,2015-10-05,1,,,,,マルトク,0
2143,9350002005689,登記記録の閉鎖等,0,2024-08-23,2024-08-19,有限会社ゼオエンジニアリング,,有限会社,宮崎県,宮崎市,大字恒久４１８３番地３－３１０号,,45,201,8800916,,,2024-08-19,清算の結了等,,,2015-10-05,1,,,,,ゼオエンジニアリング,0
2144,9350005002428,登記記録の閉鎖等,0,2024-08-23,2024-08-13,日向入郷地区素材生産事業協同組合,,その他の設立登記法人,宮崎県,日向市,東郷町山陰乙１０２８番地１,,45,206,8830101,,,2024-08-13,清算の結了等,,,2015-10-05,1,,,,,ヒュウガイリゴウチクソザイセイサン,0
2157,9410002011210,登記記録の閉鎖等,0,2024-08-23,2024-08-21,有限会社安達住建,,有限会社,秋田県,大仙市,太田町横沢字堤田５５４番地２,,05,212,0191601,,,2024-08-21,清算の結了等,,,2015-10-05,1,,,,,アダチジュウケン,0
