sequenceNumber,corporateNumber,process,correct,updateDate,changeDate,name,nameImageId,kind,prefectureName,cityName,streetNumber,addressImageId,prefectureCode,cityCode,postCode,addressOutside,addressOutsideImageId,closeDate,closeCause,successorCorporateNumber,changeCause,assignmentDate,latest,enName,enPrefectureName,enCityName,enAddressOutside,furigana,hihyoji
8,1010003031932,登記記録の閉鎖等,0,2024-03-27,2024-03-22,合同会社ＲＦ１,,合同会社,東京都,千代田区,内幸町２丁目１番６号,,13,101,1000011,,,2024-03-22,清算の結了等,,,2020-03-19,1,,,,,アールエフワン,0
11,1010005034116,登記記録の閉鎖等,0,2024-03-27,2024-03-25,一般社団法人加須プロパティ,,その他の設立登記法人,東京都,千代田区,丸の内３丁目１番１号東京共同会計事務所内,,13,101,1000005,,,2024-03-25,清算の結了等,,,2021-10-20,1,,,,,カゾプロパティ,0
20,1010401150912,登記記録の閉鎖等,0,2024-03-27,2024-03-22,株式会社ＴｅｌｌｉＸ　Ｍａｒｋｅｔｉｎｇ,,株式会社,北海道,河西郡更別村,字更別南一線９３番地４,,01,639,0891542,,,2024-03-22,清算の結了等,,,2020-02-07,1,,,,,テリックスマーケティング,0
21,1010401172650,登記記録の閉鎖等,0,2024-03-27,2024-03-19,株式会社Ｔａｉｌｏｒ　Ｍｅａｌ,,株式会社,東京都,港区,南青山３丁目１番３６号青山丸竹ビル６Ｆ,,13,103,1070062,,,2024-03-19,清算の結了等,,,2023-02-22,1,,,,,テイラーミール,0
23,1010403008464,登記記録の閉鎖等,0,2024-03-27,2024-03-19,Ｃｈｅｅｒｓ株式会社,,株式会社,東京都,港区,六本木１丁目４番５号,,13,103,1060032,,,2024-03-19,合併による解散等,8010401135287,令和６年３月１５日東京都港区六本木一丁目４番５号株式会社ＭＡＩＡ（8010401135287）に合併し解散,2015-10-05,1,,,,,チアーズ,0
30,1010601058542,登記記録の閉鎖等,0,2024-03-27,2024-03-19,株式会社プライム,,株式会社,東京都,墨田区,菊川３丁目１３番３号Ｋ’ｓビル３階,,13,107,1300024,,,2024-03-19,清算の結了等,,,2020-12-23,1,,,,,プライム,0
33,1010702013909,登記記録の閉鎖等,0,2024-03-27,2024-03-22,有限会社ルナジャパン,,有限会社,東京都,品川区,小山１丁目３番９号,,13,109,1420062,,,2024-03-22,清算の結了等,,,2015-10-05,1,,,,,ルナジャパン,0
35,1010901031752,登記記録の閉鎖等,0,2024-03-27,2024-03-19,株式会社マルコス,,株式会社,東京都,港区,西新橋２丁目３５番２号ハビウル西新橋５階,,13,103,1050003,,,2024-03-19,清算の結了等,,,2015-10-05,1,,,,,マルコス,0
66,1011801021364,登記記録の閉鎖等,0,2024-03-27,2024-03-25,株式会社恵春工建,,株式会社,東京都,足立区,皿沼３丁目２１番１５号,,13,121,1230862,,,2024-03-25,清算の結了等,,,2015-10-05,1,,,,,ケイシュンコウケン,0
70,1011802002248,登記記録の閉鎖等,0,2024-03-27,2024-03-22,有限会社木村金型製作所,,有限会社,東京都,葛飾区,東立石４丁目１１番３０号,,13,122,1240013,,,2024-03-22,清算の結了等,,,2015-10-05,1,,,,,キムラカナガタセイサクショ,0
79,1013301010153,登記記録の閉鎖等,0,2024-03-27,2024-03-22,羽生田株式会社,00059894,株式会社,東京都,豊島区,長崎６丁目１８番８号,,13,116,1710051,,,2024-03-22,清算の結了等,,,2015-10-05,1,,,,,ハニュウダ,0
80,1013301044903,登記記録の閉鎖等,0,2024-03-27,2024-03-15,株式会社ユニ・エンターテイメント,,株式会社,東京都,渋谷区,道玄坂１丁目６番２号渋谷ファイブビル４Ｆ,,13,113,1500043,,,2024-03-15,清算の結了等,,,2019-12-10,1,,,,,ユニエンターテイメント,0
88,1020002063199,登記記録の閉鎖等,0,2024-03-27,2024-03-22,有限会社隆伸,,有限会社,神奈川県,横浜市金沢区,富岡西４丁目６９番６号,,14,108,2360052,,,2024-03-22,清算の結了等,,,2015-10-05,1,,,,,タカノブ,0
94,1021002030825,登記記録の閉鎖等,0,2024-03-27,2024-03-19,有限会社井上塗装,,有限会社,神奈川県,厚木市,長谷６６３番地４,,14,212,2430036,,,2024-03-19,清算の結了等,,,2015-10-05,1,,,,,イノウエトソウ,0
104,1030003010876,登記記録の閉鎖等,0,2024-03-27,2024-03-22,ＥＡＣトレーディング合同会社,,合同会社,埼玉県,さいたま市北区,土呂町２丁目４３番地１１アーバンレジデンスＢ棟２０１号,,11,102,3310804,,,2024-03-22,清算の結了等,,,2017-10-11,1,EAC Trading LLC,Saitama,"B201 Urban Residence, 2-43-11,Toro-Cho, Kita ku Saitama shi",,イーエーシートレーディング,0
131,1120001252404,登記記録の閉鎖等,0,2024-03-27,2024-03-25,株式会社あすてな,,株式会社,大阪府,枚方市,東田宮１丁目８番５号,,27,210,5730023,,,2024-03-25,清算の結了等,,,2023-02-09,1,,,,,アステナ,0
144,1120101029958,登記記録の閉鎖等,0,2024-03-27,2024-03-25,株式会社フォース・アイ,,株式会社,大阪府,堺市東区,丈六４４５番地２２,,27,143,5998122,,,2024-03-25,清算の結了等,,,2015-10-05,1,,,,,フォースアイ,0
158,1130001057125,登記記録の閉鎖等,0,2024-03-27,2024-03-25,株式会社ＣｅｓｔＣｅｌａ,,株式会社,京都府,京都市下京区,神明町２７４－１,,26,106,6008092,,,2024-03-25,清算の結了等,,,2016-03-30,1,,,,,,0
161,1130002025378,登記記録の閉鎖等,0,2024-03-27,2024-03-26,ダイヤス加工有限会社,,有限会社,京都府,乙訓郡大山崎町,字下植野小字宮脇１０４番地の２,,26,303,6180081,,,2024-03-26,清算の結了等,,,2015-10-05,1,,,,,ダイヤスカコウ,0
180,1180001088818,登記記録の閉鎖等,0,2024-03-27,2024-03-25,生き生き住宅株式会社,,株式会社,愛知県,名古屋市緑区,神沢３丁目９１４番地,,23,114,4580014,,,2024-03-25,清算の結了等,,,2015-10-05,1,,,,,イキイキジュウタク,0
184,1180002089328,登記記録の閉鎖等,0,2024-03-27,2024-03-21,有限会社セイコーフーズ,,有限会社,愛知県,津島市,中地町３丁目２３番地３,,23,208,4960847,,,2024-03-21,清算の結了等,,,2015-10-05,1,,,,,セイコーフーズ,0
186,1180003022857,登記記録の閉鎖等,0,2024-03-27,2024-03-25,合同会社ＮＯＲＴＨ　ＵＰ,,合同会社,愛知県,あま市,坂牧向江１３番地１,,23,237,4901115,,,2024-03-25,清算の結了等,,,2021-08-16,1,,,,,ノースアップ,0
200,1250002000765,登記記録の閉鎖等,0,2024-03-27,2024-03-27,有限会社ジャストプロダクション,,有限会社,山口県,山口市,本町１丁目１番２３号,,35,203,7530046,,,2024-03-27,清算の結了等,,,2015-10-05,1,,,,,ジャストプロダクション,0
206,1290001050964,登記記録の閉鎖等,0,2024-03-27,2024-03-25,株式会社フェニックスゴルフ,,株式会社,福岡県,久留米市,高良内町４５９６番地５０,,40,203,8390852,,,2024-03-25,合併による解散等,7350001004966,令和６年３月２０日宮崎市池内町３５３５番地株式会社いけうちゴルフ（7350001004966）に合併し解散,2015-10-05,1,,,,,,0
254,1410001006796,登記記録の閉鎖等,0,2024-03-27,2024-03-21,オートリサイクル秋田株式会社,,株式会社,秋田県,鹿角郡小坂町,小坂鉱山字杉沢９６番地,,05,303,0170202,,,2024-03-21,清算の結了等,,,2015-10-05,1,,,,,オートリサイクルアキタ,0
265,1440002007650,登記記録の閉鎖等,0,2024-03-27,2024-03-19,有限会社ショップワイ．エス,,有限会社,北海道,亀田郡七飯町,字大沼８１７番地,,01,337,0411100,,,2024-03-19,清算の結了等,,,2015-10-05,1,,,,,ショップワイエス,0
278,2010003032839,登記記録の閉鎖等,0,2024-03-27,2024-03-21,合同会社佐藤,,合同会社,東京都,千代田区,神田多町２丁目４番地２,,13,101,1010046,,,2024-03-21,清算の結了等,,,2020-08-14,1,,,,,,0
305,2010901047962,登記記録の閉鎖等,0,2024-03-27,2024-03-21,東京明艶美容貿易株式会社,,株式会社,東京都,港区,白金台３丁目４番２３号,,13,103,1080071,,,2024-03-21,清算の結了等,,,2021-02-01,1,,,,,トウキョウメイエンビヨウボウエキ,0
326,2011103005619,登記記録の閉鎖等,0,2024-03-27,2024-03-26,合同会社武蔵小杉インベスターズ,,合同会社,東京都,新宿区,西新宿８丁目５番１号,,13,104,1600023,,,2024-03-26,清算の結了等,,,2015-10-05,1,,,,,ムサシコスギインベスターズ,0
350,2020001060527,登記記録の閉鎖等,0,2024-03-27,2024-03-21,株式会社ＥＬＰ,,株式会社,神奈川県,横浜市港北区,日吉本町５丁目２１番３号,,14,109,2230062,,,2024-03-21,清算の結了等,,,2015-10-05,1,,,,,,0
360,2020003011511,登記記録の閉鎖等,0,2024-03-27,2024-03-22,ジゾラボ合同会社,,合同会社,神奈川県,横浜市戸塚区,品濃町５２５番１東の街４－９０８,,14,110,2440801,,,2024-03-22,清算の結了等,,,2016-07-11,1,,,,,ジゾラボ,0
369,2030001032401,登記記録の閉鎖等,0,2024-03-27,2024-03-22,株式会社久喜メール,,株式会社,埼玉県,久喜市,栗原４丁目９番地１５,,11,232,3460012,,,2024-03-22,清算の結了等,,,2015-10-05,1,,,,,クキメール,0
377,2030002050121,登記記録の閉鎖等,0,2024-03-27,2024-03-21,有限会社ユー・エス・アイ,,有限会社,埼玉県,三郷市,高州１丁目３１６番地４,,11,237,3410037,,,2024-03-21,清算の結了等,,,2015-10-05,1,,,,,ユーエスアイ,0
386,2040001119222,登記記録の閉鎖等,0,2024-03-27,2024-03-18,株式会社オーシャンドライブ,,株式会社,千葉県,松戸市,古ケ崎２丁目３１６２番地の１４,,12,207,2710068,,,2024-03-18,清算の結了等,,,2021-07-06,1,,,,,オーシャンドライブ,0
396,2050002018372,登記記録の閉鎖等,0,2024-03-27,2024-03-25,有限会社木村自動車工業,,有限会社,茨城県,猿島郡境町,大字塚崎２６１５番地,,08,546,3060405,,,2024-03-25,清算の結了等,,,2015-10-05,1,,,,,キムラジドウシャコウギョウ,0
397,2050002020436,登記記録の閉鎖等,0,2024-03-27,2024-03-25,有限会社椎名運送,,有限会社,茨城県,猿島郡境町,２１６２番地５,,08,546,3060433,,,2024-03-25,清算の結了等,,,2015-10-05,1,,,,,シイナウンソウ,0
415,2080405006896,登記記録の閉鎖等,0,2024-03-27,2024-03-22,一般社団法人ｂｒｕｓｈ,,その他の設立登記法人,静岡県,浜松市中央区,本郷町１３６１番地の３,,22,138,4300812,,,2024-03-22,清算の結了等,,,2016-09-07,1,,,,,ブラッシュ,0
417,2090005007534,登記記録の閉鎖等,0,2024-03-27,2024-03-26,特定非営利活動法人教室のセラピスト,,その他の設立登記法人,山梨県,南都留郡忍野村,忍草１３５５番地１,,19,424,4010511,,,2024-03-26,清算の結了等,,,2023-01-17,1,,,,,キョウシツノセラピスト,0
440,2122001016192,登記記録の閉鎖等,0,2024-03-27,2024-03-25,株式会社興友建設,,株式会社,大阪府,四條畷市,岡山２丁目１８番２６号,,27,229,5750002,,,2024-03-25,清算の結了等,,,2015-10-05,1,,,,,コウユウケンセツ,0
449,2140001026680,登記記録の閉鎖等,0,2024-03-27,2024-03-19,ＳＴＡＲ－ＮＥＴ株式会社,,株式会社,兵庫県,神戸市中央区,二宮町１丁目２番３号,,28,110,6510093,,,2024-03-19,清算の結了等,,,2015-10-05,1,,,,,スターネット,0
461,2140002007713,登記記録の閉鎖等,0,2024-03-27,2024-03-25,有限会社播磨電工,,有限会社,兵庫県,神戸市須磨区,南落合２丁目２番５１２号棟２０３号室,,28,107,6540153,,,2024-03-25,清算の結了等,,,2015-10-05,1,,,,,ハリマデンコウ,0
466,2160005007527,登記記録の閉鎖等,0,2024-03-27,2024-03-25,今津漁業協同組合,,その他の設立登記法人,滋賀県,高島市,今津町今津９５番地,,25,212,5201621,,,2024-03-25,清算の結了等,,,2015-10-05,1,,,,,イマヅ,0
472,2180001149494,登記記録の閉鎖等,0,2024-03-27,2024-03-21,株式会社Ｎａｔｕｒａｌ,,株式会社,愛知県,名古屋市中区,新栄１丁目１６番２号,,23,106,4600007,,,2024-03-21,清算の結了等,,,2022-01-12,1,,,,,ナチュラル,0
474,2180002026775,登記記録の閉鎖等,0,2024-03-27,2024-03-22,有限会社山口製作所,,有限会社,愛知県,名古屋市緑区,野末町９１１番地,,23,114,4580915,,,2024-03-22,清算の結了等,,,2015-10-05,1,,,,,ヤマグチセイサクショ,0
480,2180003008979,登記記録の閉鎖等,0,2024-03-27,2024-03-19,石田乳業合資会社,,合資会社,愛知県,名古屋市中川区,澄池町２０番１３号,,23,110,4540806,,,2024-03-19,清算の結了等,,,2015-10-05,1,,,,,イシダニュウギョウ,0
482,2180005008812,登記記録の閉鎖等,0,2024-03-27,2024-03-21,瀬戸旭小売酒販組合,,その他の設立登記法人,愛知県,瀬戸市,平町３丁目７番地,,23,204,4890916,,,2024-03-21,清算の結了等,,,2015-10-05,1,,,,,セトアサヒコウリ,0
500,2280001006454,登記記録の閉鎖等,0,2024-03-27,2024-03-25,株式会社未来サポートさだ,,株式会社,島根県,出雲市,佐田町反邊１３９１番地１,,32,203,6930506,,,2024-03-25,清算の結了等,,,2015-10-05,1,,,,,ミライサポートサダ,0
512,2300002007093,登記記録の閉鎖等,0,2024-03-27,2024-03-22,有限会社大栄潜水工業,,有限会社,佐賀県,佐賀市,松原１丁目４番１７号,,41,201,8400831,,,2024-03-22,清算の結了等,,,2015-10-05,1,,,,,ダイエイセンスイコウギョウ,0
525,2340002024804,登記記録の閉鎖等,0,2024-03-27,2024-03-26,有限会社有村商店,,有限会社,鹿児島県,鹿屋市,新生町１番２２号,,46,203,8930062,,,2024-03-26,清算の結了等,,,2015-10-05,1,,,,,,0
535,2360003007566,登記記録の閉鎖等,0,2024-03-27,2024-03-25,合同会社フロント,,合同会社,沖縄県,沖縄市,南桃原３丁目３６番６号桃山マンション９０３,,47,211,9040035,,,2024-03-25,清算の結了等,,,2016-04-20,1,,,,,フロント,0
544,2390002009379,登記記録の閉鎖等,0,2024-03-27,2024-03-25,有限会社佐藤正栄堂,,有限会社,山形県,鶴岡市,本町２丁目２番１０号,,06,203,9970034,,,2024-03-25,清算の結了等,,,2015-10-05,1,,,,,,0
545,2390005003767,登記記録の閉鎖等,0,2024-03-27,2024-03-25,農事組合法人ラ・ファーム,,その他の設立登記法人,山形県,東田川郡庄内町,狩川字今岡１３４番地１,,06,428,9996601,,,2024-03-25,清算の結了等,,,2015-10-05,1,,,,,ラファーム,0
549,2430001074741,登記記録の閉鎖等,0,2024-03-27,2024-03-19,株式会社カステラ,,株式会社,北海道,札幌市中央区,南一条西４丁目５番１号大手町ビル３階,,01,101,0600061,,,2024-03-19,清算の結了等,,,2017-08-09,1,,,,,カステラ,0
550,2430001077703,登記記録の閉鎖等,0,2024-03-27,2024-03-21,株式会社Ｃプランニング,,株式会社,北海道,札幌市豊平区,羊ケ丘１番地さっぽろ羊ヶ丘展望台内,,01,105,0620045,,,2024-03-21,清算の結了等,,,2018-11-06,1,,,,,シープランニング,0
557,2500001002331,登記記録の閉鎖等,0,2024-03-27,2024-03-19,株式会社清友建設,,株式会社,愛媛県,松山市,北土居５丁目１１番５号,,38,201,7911104,,,2024-03-19,清算の結了等,,,2016-01-07,1,,,,,セイユウケンセツ,0
569,3010005009768,登記記録の閉鎖等,0,2024-03-27,2024-03-25,一般社団法人エビス・プロパティーズ,,その他の設立登記法人,東京都,千代田区,神田神保町１丁目１１番地さくら綜合事務所内,,13,101,1010051,,,2024-03-25,清算の結了等,,,2015-10-05,1,,,,,エビスプロパティーズ,0
589,3010403022975,登記記録の閉鎖等,0,2024-03-27,2024-03-21,合同会社ＭＡＨＡＮＡ５,,合同会社,東京都,港区,芝４丁目７番６号芝ビルディング７０４,,13,103,1080014,,,2024-03-21,合併による解散等,9010403026211,令和６年３月１日東京都港区南青山二丁目２番６号７０２号室Ｂｒｉｄｇｅ　Ｃａｐｉｔａｌ合同会社（9010403026211）に合併し解散,2020-05-19,1,,,,,マハナファイブ,0
590,3010403024030,登記記録の閉鎖等,0,2024-03-27,2024-03-21,合同会社天神ホテル管理,,合同会社,東京都,港区,虎ノ門５丁目１番４号,,13,103,1050001,,,2024-03-21,清算の結了等,,,2020-11-02,1,,,,,テンジンホテルカンリ,0
592,3010403025755,登記記録の閉鎖等,0,2024-03-27,2024-03-19,ＳＳ光２９合同会社,,合同会社,東京都,港区,芝公園１丁目３番１号留園ビル６階,,13,103,1050011,,,2024-03-19,合併による解散等,9010403020882,令和６年３月１９日東京都港区芝公園一丁目３番１号留園ビル６階Ｓｕｎ　Ｓｔａｔｉｏｎ　Ｈｉｋａｒｉ　ＸＸＩ合同会社（9010403020882）に合併し解散,2021-07-19,1,,,,,エスエスヒカリトゥウェンティナイン,0
602,3010801021752,登記記録の閉鎖等,0,2024-03-27,2024-03-19,ＨＹＵＮＤＡＩ　ＴＥＬＥＣＯＭ　ＪＡＰＡＮ株式会社,,株式会社,東京都,大田区,上池台１丁目５２番１１号,,13,111,1450064,,,2024-03-19,清算の結了等,,,2015-10-05,1,,,,,ヒュンダイテレコムジャパン,0
608,3011001004069,登記記録の閉鎖等,0,2024-03-27,2024-03-21,株式会社エネックス,,株式会社,東京都,渋谷区,元代々木町１７番９号,,13,113,1510062,,,2024-03-21,清算の結了等,,,2015-10-05,1,,,,,エネックス,0
624,3011101080869,登記記録の閉鎖等,0,2024-03-27,2024-03-22,株式会社Ｉ．Ｒ．Ａ．,,株式会社,東京都,新宿区,早稲田鶴巻町５２５黒沼ビル１Ｆ,,13,104,1620041,,,2024-03-22,清算の結了等,,,2017-06-21,1,,,,,アイアールエー,0
640,3020001071928,登記記録の閉鎖等,0,2024-03-27,2024-03-22,株式会社有明商事,,株式会社,神奈川県,川崎市川崎区,藤崎４丁目３３番６号,,14,131,2100804,,,2024-03-22,清算の結了等,,,2015-10-05,1,,,,,アリアケショウジ,0
648,3021001021121,登記記録の閉鎖等,0,2024-03-27,2024-03-21,湘南広告資材株式会社,,株式会社,神奈川県,厚木市,岡田４丁目１９番１０号,,14,212,2430021,,,2024-03-21,清算の結了等,,,2015-10-05,1,,,,,,0
653,3021005004353,登記記録の閉鎖等,0,2024-03-27,2024-03-22,一般財団法人秦野市学校保全公社,,その他の設立登記法人,神奈川県,秦野市,桜町１丁目３番２号,,14,211,2570045,,,2024-03-22,清算の結了等,,,2015-10-05,1,,,,,ハダノシガッコウホゼンコウシャ,0
656,3030001082024,登記記録の閉鎖等,0,2024-03-27,2024-03-25,株式会社鈴木工業,,株式会社,埼玉県,川口市,大字赤芝新田２２６番地の３,,11,203,3330824,,,2024-03-25,清算の結了等,,,2015-10-05,1,,,,,スズキコウギョウ,0
691,3080002010144,登記記録の閉鎖等,0,2024-03-27,2024-03-25,有限会社白岩荘,,有限会社,静岡県,静岡市清水区,矢倉町５番５３号,,22,103,4240802,,,2024-03-25,清算の結了等,,,2015-10-05,1,,,,,シライワソウ,0
693,3080102003139,登記記録の閉鎖等,0,2024-03-27,2024-03-26,有限会社藤原精工,,有限会社,静岡県,沼津市,大岡４５番地の１０,,22,203,4100022,,,2024-03-26,清算の結了等,,,2015-10-05,1,,,,,フジワラセイコウ,0
722,3120002071272,登記記録の閉鎖等,0,2024-03-27,2024-03-21,有限会社ブランニュー,,有限会社,大阪府,大阪市中央区,南船場３丁目１０番２８号,,27,128,5420081,,,2024-03-21,清算の結了等,,,2015-10-05,1,,,,,ブランニュー,0
749,3140001115945,登記記録の閉鎖等,0,2024-03-27,2024-03-21,株式会社メディカルユアーズホールディングス,,株式会社,兵庫県,神戸市灘区,桜口町４丁目１番１号ウェルブ六甲道４番街１番館３０１号,,28,102,6570036,,,2024-03-21,合併による解散等,1140001102169,令和６年３月１５日神戸市灘区桜口町四丁目１番１号ウェルブ六甲道４番街１番館３０１号株式会社メディカルユアーズ（1140001102169）に合併し解散,2019-12-25,1,,,,,メディカルユアーズホールディングス,0
773,3210002005056,登記記録の閉鎖等,0,2024-03-27,2024-03-25,有限会社オファー,,有限会社,福井県,あわら市,前谷第８号８番地,,18,208,9190725,,,2024-03-25,清算の結了等,,,2015-10-05,1,,,,,オファー,0
777,3220002010179,登記記録の閉鎖等,0,2024-03-27,2024-03-21,粟津観光有限会社金閣,,有限会社,石川県,小松市,井口町ヘ１４番地１,,17,203,9230316,,,2024-03-21,清算の結了等,,,2015-10-05,1,,,,,アワズカンコウキンカク,0
778,3230002003867,登記記録の閉鎖等,0,2024-03-27,2024-03-21,有限会社光成,,有限会社,富山県,富山市,水橋市田袋１５３番地７,,16,201,9393555,,,2024-03-21,合併による解散等,1230001014611,令和６年３月２１日富山市水橋市田袋１５３番地１株式会社ワイム（1230001014611）に合併し解散,2015-10-05,1,,,,,ミツナリ,0
780,3250002010424,登記記録の閉鎖等,0,2024-03-27,2024-03-26,有限会社のはら写真館,,有限会社,山口県,下関市,今浦町６番１１号,,35,201,7500064,,,2024-03-26,清算の結了等,,,2015-10-05,1,,,,,ノハラシャシンカン,0
791,3290801013409,登記記録の閉鎖等,0,2024-03-27,2024-03-22,キャドバンテック株式会社,,株式会社,福岡県,北九州市八幡西区,浅川学園台１丁目５番７号,,40,109,8070871,,,2024-03-22,清算の結了等,,,2015-10-05,1,,,,,キャドバンテック,0
807,3340002009993,登記記録の閉鎖等,0,2024-03-27,2024-03-22,有限会社山田タイル,,有限会社,鹿児島県,鹿児島市,清和１丁目２１番１５号,,46,201,8910109,,,2024-03-22,清算の結了等,,,2015-10-05,1,,,,,ヤマダタイル,0
808,3350002000225,登記記録の閉鎖等,0,2024-03-27,2024-03-21,有限会社アンド,,有限会社,宮崎県,宮崎市,江平西２丁目１番３９号グランドパレス江平５０２号,,45,201,8800051,,,2024-03-21,清算の結了等,,,2015-10-05,1,,,,,アンド,0
820,3400001014377,登記記録の閉鎖等,0,2024-03-27,2024-03-25,株式会社Ｓｐｉｃａｍａｎａ,,株式会社,岩手県,盛岡市,永井２５地割５３番地９,,03,201,0200834,,,2024-03-25,清算の結了等,,,2018-11-02,1,,,,,スピカマナ,0
831,3460001001361,登記記録の閉鎖等,0,2024-03-27,2024-03-26,株式会社八紘建具家具製作所,00090904,株式会社,北海道,釧路郡釧路町,桂３丁目１３番地,,01,661,0880626,,,2024-03-26,清算の結了等,,,2015-10-05,1,,,,,ハッコウタテグカグセイサクショ,0
841,4010001174986,登記記録の閉鎖等,0,2024-03-27,2024-03-21,株式会社グラスホッパーマネジメント,,株式会社,東京都,千代田区,神田平河町１番地,,13,101,1010027,,,2024-03-21,清算の結了等,,,2016-04-18,1,,,,,グラスホッパーマネジメント,0
854,4010401099569,登記記録の閉鎖等,0,2024-03-27,2024-03-19,株式会社パーソナルカラー研究所スタジオハウ,,株式会社,東京都,港区,白金台５丁目１５番１号ＡＡＤＯ白金台３１２号,,13,103,1080071,,,2024-03-19,清算の結了等,,,2015-10-05,1,,,,,,0
866,4010405021677,登記記録の閉鎖等,0,2024-03-27,2024-03-21,特定目的会社三郷半田組合,,その他の設立登記法人,東京都,港区,虎ノ門３丁目２２番１０－２０１号,,13,103,1050001,,,2024-03-21,清算の結了等,,,2022-12-16,1,,,,,ミサトハンダクミアイ,0
873,4010802013509,登記記録の閉鎖等,0,2024-03-27,2024-03-21,有限会社ＭＴ管理会社,,有限会社,東京都,大田区,西六郷２丁目４７番９号,,13,111,1440056,,,2024-03-21,清算の結了等,,,2015-10-05,1,,,,,エムテイカンリカイシャ,0
881,4011101085999,登記記録の閉鎖等,0,2024-03-27,2024-03-25,株式会社Ｆｒｅｅ　Ｊａｐａｎ,,株式会社,東京都,新宿区,西新宿４丁目２９番４号西新宿ハウス１０３,,13,104,1600023,,,2024-03-25,清算の結了等,,,2018-11-15,1,,,,,フリージャパン,0
890,4012301008122,登記記録の閉鎖等,0,2024-03-27,2024-03-25,株式会社アイアール,,株式会社,東京都,町田市,小川６丁目１４番６号,,13,209,1940003,,,2024-03-25,清算の結了等,,,2015-10-05,1,,,,,アイアール,0
913,4021002046703,登記記録の閉鎖等,0,2024-03-27,2024-03-21,有限会社中尾商店,,有限会社,神奈川県,綾瀬市,深谷上８丁目２１番２６号,,14,218,2521108,,,2024-03-21,清算の結了等,,,2015-10-05,1,,,,,,0
915,4021002050928,登記記録の閉鎖等,0,2024-03-27,2024-03-21,有限会社池谷モーター,,有限会社,神奈川県,小田原市,小八幡３丁目１７番２号,,14,206,2560815,,,2024-03-21,清算の結了等,,,2015-10-05,1,,,,,イケヤモーター,0
918,4030001054303,登記記録の閉鎖等,0,2024-03-27,2024-03-25,飯野産業株式会社,,株式会社,埼玉県,川越市,旭町２丁目２番地５,,11,201,3501126,,,2024-03-25,清算の結了等,,,2015-10-05,1,,,,,イイノサンギョウ,0
933,4030005011820,登記記録の閉鎖等,0,2024-03-27,2024-03-21,特定非営利活動法人ケアサポートラベンダー,,その他の設立登記法人,埼玉県,東松山市,大字東平２０７９番地３,,11,212,3550002,,,2024-03-21,清算の結了等,,,2015-10-05,1,,,,,ケアサポートラベンダー,0
957,4070003003403,登記記録の閉鎖等,0,2024-03-27,2024-03-19,エスエス２合同会社,,合同会社,東京都,港区,芝公園１丁目３番１号留園ビル６階,,13,103,1050011,,,2024-03-19,合併による解散等,9010403020882,令和６年３月１９日東京都港区芝公園一丁目３番１号留園ビル６階Ｓｕｎ　Ｓｔａｔｉｏｎ　Ｈｉｋａｒｉ　ＸＸＩ合同会社（9010403020882）に合併し解散,2019-03-18,1,,,,,エスエスツー,0
959,4080003001620,登記記録の閉鎖等,0,2024-03-27,2024-03-19,合同会社ベジタブルスマイル,,合同会社,静岡県,静岡市葵区,浅間町２丁目１２番地の１,,22,101,4200862,,,2024-03-19,清算の結了等,,,2015-10-05,1,,,,,ベジタブルスマイル,0
960,4080005000991,登記記録の閉鎖等,0,2024-03-27,2024-03-19,静岡県スポーツ用品商業協同組合,,その他の設立登記法人,静岡県,静岡市駿河区,下川原５丁目３５番９号,,22,102,4210113,,,2024-03-19,清算の結了等,,,2015-10-05,1,,,,,シズオカケンスポーツヨウヒンショウギョウ,0
964,4090001010052,登記記録の閉鎖等,0,2024-03-27,2024-03-25,ファナック興産株式会社,,株式会社,山梨県,南都留郡忍野村,忍草字古馬場３５５８番地２,,19,424,4010511,,,2024-03-25,清算の結了等,,,2015-10-05,1,,,,,ファナックコウサン,0
971,4110001025576,登記記録の閉鎖等,0,2024-03-27,2024-03-22,株式会社ＳＡＮＷＡ,,株式会社,新潟県,小千谷市,本町２丁目１番２６号,,15,208,9470021,,,2024-03-22,清算の結了等,,,2015-10-05,1,,,,,サンワ,0
985,4120001209665,登記記録の閉鎖等,0,2024-03-27,2024-03-22,株式会社ファインテックラボ,,株式会社,大阪府,大阪市西区,南堀江１丁目１６番１１号,,27,106,5500015,,,2024-03-22,清算の結了等,,,2017-11-22,1,,,,,ファインテックラボ,0
1013,4140001057889,登記記録の閉鎖等,0,2024-03-27,2024-03-21,株式会社ヴァントランスポート,,株式会社,兵庫県,姫路市,飾磨区野田町２０番地,,28,201,6728040,,,2024-03-21,清算の結了等,,,2015-10-05,1,,,,,ヴァントランスポート,0
1018,4150002000087,登記記録の閉鎖等,0,2024-03-27,2024-03-25,有限会社アザレ奈良本舗,,有限会社,奈良県,奈良市,帝塚山１丁目３４番２４号,,29,201,6310062,,,2024-03-25,清算の結了等,,,2015-10-05,1,,,,,アザレナラホンポ,0
1024,4180002070111,登記記録の閉鎖等,0,2024-03-27,2024-03-22,有限会社森組土木,,有限会社,愛知県,小牧市,篠岡１丁目６番地,,23,219,4850815,,,2024-03-22,清算の結了等,,,2015-10-05,1,,,,,モリグミドボク,0
1025,4180005011541,登記記録の閉鎖等,0,2024-03-27,2024-03-22,医療法人六星会,,その他の設立登記法人,愛知県,一宮市,長島町１丁目１８番地１４,,23,203,4910071,,,2024-03-22,清算の結了等,,,2015-10-05,1,,,,,ロクセイカイ,0
1034,4190002021419,登記記録の閉鎖等,0,2024-03-27,2024-03-22,日南開発株式会社,,株式会社,三重県,四日市市,伊坂町９２番地１,,24,202,5128064,,,2024-03-22,清算の結了等,,,2015-10-05,1,,,,,ニチナンカイハツ,0
1036,4200001028660,登記記録の閉鎖等,0,2024-03-27,2024-03-25,株式会社コウケン,,株式会社,岐阜県,関市,宮河町２丁目１番１３号,,21,205,5013912,,,2024-03-25,清算の結了等,,,2015-10-05,1,,,,,コウケン,0
1081,4390001012497,登記記録の閉鎖等,0,2024-03-27,2024-03-25,株式会社ふたばライフアシスト,,株式会社,山形県,鶴岡市,双葉町１５番３４号,,06,203,9970822,,,2024-03-25,清算の結了等,,,2015-10-05,1,,,,,フタバライフアシスト,0
1111,5010005029938,登記記録の閉鎖等,0,2024-03-27,2024-03-19,兵庫小野施設開発特定目的会社,,その他の設立登記法人,東京都,千代田区,飯田橋４丁目７番１号結和税理士法人内,,13,101,1020072,,,2024-03-19,清算の結了等,,,2019-03-29,1,,,,,ヒョウゴオノシセツカイハツ,0
1121,5010403015779,登記記録の閉鎖等,0,2024-03-27,2024-03-19,Ｓｕｎ　Ｓｔａｔｉｏｎ　Ｈｉｋａｒｉ　ＸＶＩ合同会社,,合同会社,東京都,港区,芝公園１丁目３番１号留園ビル６階,,13,103,1050011,,,2024-03-19,合併による解散等,9010403020882,令和６年３月１９日東京都港区芝公園一丁目３番１号留園ビル６階Ｓｕｎ　Ｓｔａｔｉｏｎ　Ｈｉｋａｒｉ　ＸＸＩ合同会社（9010403020882）に合併し解散,2016-12-15,1,,,,,サンステーションヒカリシックスティーン,0
1124,5010502011844,登記記録の閉鎖等,0,2024-03-27,2024-03-26,有限会社山びこ,,有限会社,東京都,台東区,千束４丁目２３番７号,,13,106,1110031,,,2024-03-26,清算の結了等,,,2015-10-05,1,,,,,ヤマビコ,0
1126,5010503005218,登記記録の閉鎖等,0,2024-03-27,2024-03-18,合同会社ＫＳＭＨ,,合同会社,東京都,台東区,西浅草２丁目２５番１５－５０３号ブランシール浅草,,13,106,1110035,,,2024-03-18,清算の結了等,,,2018-02-27,1,,,,,ケイエスエムエイチ,0
1132,5010901042787,登記記録の閉鎖等,0,2024-03-27,2024-03-25,株式会社ＴＡＬＥＮＴＥＸ,,株式会社,東京都,世田谷区,等々力３丁目２９番３号,,13,112,1580082,,,2024-03-25,清算の結了等,,,2018-09-20,1,,,,,タレンテックス,0
1160,5011802009941,登記記録の閉鎖等,0,2024-03-27,2024-03-25,有限会社岩河塗装店,,有限会社,東京都,足立区,舎人１丁目３番１１号,,13,121,1210831,,,2024-03-25,清算の結了等,,,2015-10-05,1,,,,,,0
1170,5020001052686,登記記録の閉鎖等,0,2024-03-27,2024-03-21,株式会社アット高島,,株式会社,神奈川県,横浜市西区,北幸２丁目７番１０号,,14,103,2200004,,,2024-03-21,清算の結了等,,,2015-10-05,1,,,,,アットタカシマ,0
1173,5020001147511,登記記録の閉鎖等,0,2024-03-27,2024-03-21,株式会社ＢＥＬＬ,,株式会社,神奈川県,横浜市神奈川区,鶴屋町３丁目３３番地の８アサヒビル３Ｆ,,14,102,2210835,,,2024-03-21,合併による解散等,8020001044862,令和６年３月２１日横浜市神奈川区鶴屋町三丁目３３番地の８アサヒビル３Ｆ株式会社ザシティ（8020001044862）に合併し解散,2022-07-29,1,,,,,ベル,0
1184,5021001052420,登記記録の閉鎖等,0,2024-03-27,2024-03-21,湘南土地家株式会社,,株式会社,神奈川県,藤沢市,朝日町１１番地の２,,14,205,2510054,,,2024-03-21,清算の結了等,,,2015-10-05,1,,,,,ショウナントチヤ,0
1188,5021002060083,登記記録の閉鎖等,0,2024-03-27,2024-03-21,有限会社ユーミー技研,,有限会社,神奈川県,平塚市,万田１丁目２１番１－５０１号マイメゾン湘南十番館,,14,203,2540913,,,2024-03-21,清算の結了等,,,2015-10-05,1,,,,,ユーミーギケン,0
1195,5040001098827,登記記録の閉鎖等,0,2024-03-27,2024-03-18,株式会社佐久間総業,,株式会社,千葉県,市原市,姉崎９８番地６,,12,219,2990111,,,2024-03-18,清算の結了等,,,2017-02-14,1,,,,,サクマソウギョウ,0
1210,5070001013808,登記記録の閉鎖等,0,2024-03-27,2024-03-21,株式会社山崎製作所,,株式会社,群馬県,伊勢崎市,中町７０６番地,,10,204,3720822,,,2024-03-21,清算の結了等,,,2015-10-05,1,,,,,ヤマザキセイサクジョ,0
1220,5080402014965,登記記録の閉鎖等,0,2024-03-27,2024-03-26,加藤配管有限会社,,有限会社,静岡県,浜松市浜名区,内野１３００番地,,22,139,4340044,,,2024-03-26,清算の結了等,,,2015-10-05,1,,,,,カトウハイカン,0
1224,5100002018760,登記記録の閉鎖等,0,2024-03-27,2024-03-21,有限会社ヤマソウ,,有限会社,長野県,下高井郡山ノ内町,大字夜間瀬４６３５番地１,,20,561,3810405,,,2024-03-21,清算の結了等,,,2015-10-05,1,,,,,ヤマソウ,0
1229,5120001072377,登記記録の閉鎖等,0,2024-03-27,2024-03-25,株式会社渡邊商店,,株式会社,大阪府,大阪市北区,天神橋７丁目６番１９号,,27,127,5310041,,,2024-03-25,合併による解散等,8120001021224,令和６年３月１日大阪府八尾市南亀井町二丁目１番５０号日建株式会社（8120001021224）に合併し解散,2015-10-05,1,,,,,ワタナベショウテン,0
1236,5120001191474,登記記録の閉鎖等,0,2024-03-27,2024-03-25,株式会社Ｓ・Ｇ・ＢＡＩＴ,,株式会社,大阪府,大阪市浪速区,湊町２丁目２番５－１８２２号,,27,111,5560017,,,2024-03-25,清算の結了等,,,2015-10-05,1,,,,,エスジーバイト,0
1238,5120001233284,登記記録の閉鎖等,0,2024-03-27,2024-03-26,株式会社アダチトラスト,,株式会社,大阪府,大阪市中央区,内平野町３丁目２番１０号,,27,128,5400037,,,2024-03-26,清算の結了等,,,2020-11-24,1,,,,,アダチトラスト,0
1248,5120002080032,登記記録の閉鎖等,0,2024-03-27,2024-03-21,有限会社中岡運輸,,有限会社,大阪府,門真市,岸和田４丁目９番１０号,,27,223,5710002,,,2024-03-21,清算の結了等,,,2015-10-05,1,,,,,ナカオカウンユ,0
1251,5120901017027,登記記録の閉鎖等,0,2024-03-27,2024-03-26,株式会社大誠通商,,株式会社,大阪府,摂津市,鳥飼本町３丁目８番３１号,,27,224,5660052,,,2024-03-26,清算の結了等,,,2015-10-05,1,,,,,ダイセイツウショウ,0
1258,5130001021572,登記記録の閉鎖等,0,2024-03-27,2024-03-19,株式会社コンサルタント京都,,株式会社,京都府,京都市中京区,新町通丸太町下る大炊町１９６番地アーバネックス御所南５１３,,26,104,6040092,,,2024-03-19,清算の結了等,,,2015-10-05,1,,,,,コンサルタントキョウト,0
1263,5130002003974,登記記録の閉鎖等,0,2024-03-27,2024-03-25,有限会社タケマツ,,有限会社,京都府,京都市北区,等持院北町６１番地,,26,101,6038346,,,2024-03-25,清算の結了等,,,2015-10-05,1,,,,,,0
1269,5150003002800,登記記録の閉鎖等,0,2024-03-27,2024-03-26,合同会社メテオール,,合同会社,奈良県,北葛城郡河合町,大字薬井１６番地２,,29,427,6360082,,,2024-03-26,清算の結了等,,,2022-10-20,1,,,,,メテオール,0
1271,5160005004199,登記記録の閉鎖等,0,2024-03-27,2024-03-26,薬師寺,,その他の設立登記法人,滋賀県,米原市,寺倉２５４番地の２,,25,214,5210093,,,2024-03-26,清算の結了等,,,2015-10-05,1,,,,,ヤクシジ,0
1278,5180002056332,登記記録の閉鎖等,0,2024-03-27,2024-03-21,有限会社Ｊ・クレオ,,有限会社,愛知県,名古屋市名東区,極楽５丁目１１番地１,,23,115,4650053,,,2024-03-21,清算の結了等,,,2015-10-05,1,,,,,ジェイクレオ,0
1279,5180002093251,登記記録の閉鎖等,0,2024-03-27,2024-03-21,有限会社ガデス岐阜,,有限会社,愛知県,名古屋市中区,上前津２丁目３番２６号,,23,106,4600013,,,2024-03-21,清算の結了等,,,2015-10-05,1,,,,,ガデスギフ,0
1289,5220001011028,登記記録の閉鎖等,0,2024-03-27,2024-03-21,株式会社カトラス,,株式会社,石川県,金沢市,東山３丁目１１番２３号,,17,201,9200831,,,2024-03-21,清算の結了等,,,2015-10-05,1,,,,,カトラス,0
1290,5220001014204,登記記録の閉鎖等,0,2024-03-27,2024-03-21,株式会社十印青果,,株式会社,石川県,小松市,本江町ホ１番地,,17,203,9230841,,,2024-03-21,清算の結了等,,,2015-10-05,1,,,,,ジュウインセイカ,0
1292,5230001009707,登記記録の閉鎖等,0,2024-03-27,2024-03-25,今井繊維株式会社,,株式会社,富山県,高岡市,問屋町３１番地,,16,202,9330804,,,2024-03-25,清算の結了等,,,2015-10-05,1,,,,,イマイセンイ,0
1293,5240001007718,登記記録の閉鎖等,0,2024-03-27,2024-03-25,株式会社レンタサービス中国,,株式会社,広島県,広島市西区,観音町７番８号,,34,104,7330031,,,2024-03-25,清算の結了等,,,2015-10-05,1,,,,,レンタサービスチュウゴク,0
1298,5250003001115,登記記録の閉鎖等,0,2024-03-27,2024-03-11,合資会社天神ネットハウス,,合資会社,山口県,柳井市,天神１３番１号,,35,212,7420005,,,2024-03-11,清算の結了等,,,2015-10-05,1,,,,,テンジンネットハウス,0
1305,5290002022620,登記記録の閉鎖等,0,2024-03-27,2024-03-26,北海道媚山商事株式会社,,株式会社,北海道,旭川市,七条通５丁目２５００番地の１７５,,01,204,0700037,,,2024-03-26,清算の結了等,,,2015-10-05,1,,,,,ホッカイドウコビヤマショウジ,0
1314,5310002003758,登記記録の閉鎖等,0,2024-03-27,2024-03-25,有限会社長崎新聞深堀販売センター,,有限会社,長崎県,長崎市,深堀町２丁目１７７番地１,,42,201,8510301,,,2024-03-25,清算の結了等,,,2015-10-05,1,,,,,,0
1349,5500003001766,登記記録の閉鎖等,0,2024-03-27,2024-03-26,そこそこポーター合同会社,,合同会社,愛媛県,西宇和郡伊方町,正野１２５４番地１,,38,442,7960823,,,2024-03-26,清算の結了等,,,2016-02-25,1,,,,,ソコソコポーター,0
1360,6010003020443,登記記録の閉鎖等,0,2024-03-27,2024-03-25,株式会社アトラスドライブ,,株式会社,東京都,千代田区,丸の内３丁目１番１号東京共同会計事務所内,,13,101,1000005,,,2024-03-25,清算の結了等,,,2015-10-05,1,,,,,アトラスドライブ,0
1365,6010401087118,登記記録の閉鎖等,0,2024-03-27,2024-03-21,エヌピーディー・ジャパン・ホールディングス株式会社,,株式会社,東京都,港区,芝浦３丁目６番５号ＢｉｚＦｅｅｌ田町,,13,103,1080023,,,2024-03-21,清算の結了等,,,2015-10-05,1,,,,,エヌピーディージャパンホールディングス,0
1371,6010403012164,登記記録の閉鎖等,0,2024-03-27,2024-03-19,Ｓｕｎ　Ｓｔａｔｉｏｎ　Ｈｉｋａｒｉ　ＶＩＩＩ合同会社,,合同会社,東京都,港区,芝公園１丁目３番１号留園ビル６階,,13,103,1050011,,,2024-03-19,合併による解散等,9010403020882,令和６年３月１９日東京都港区芝公園一丁目３番１号留園ビル６階Ｓｕｎ　Ｓｔａｔｉｏｎ　Ｈｉｋａｒｉ　ＸＸＩ合同会社（9010403020882）に合併し解散,2015-10-05,1,,,,,サンステーションヒカリエイト,0
1386,6010705002796,登記記録の閉鎖等,0,2024-03-27,2024-03-22,一般社団法人品川会,,その他の設立登記法人,東京都,品川区,上大崎２丁目７番２６号,,13,109,1410021,,,2024-03-22,清算の結了等,,,2018-07-19,1,,,,,シナガワカイ,0
1393,6010903006491,登記記録の閉鎖等,0,2024-03-27,2024-03-21,合同会社ｉｕｄｉｃｉｕｍ,,合同会社,東京都,港区,南青山２丁目２番１５号,,13,103,1070062,,,2024-03-21,清算の結了等,,,2021-04-26,1,,,,,ユーディキウム,0
1401,6011003007307,登記記録の閉鎖等,0,2024-03-27,2024-03-19,合同会社ランコン,,合同会社,東京都,渋谷区,円山町６番７号渋谷アムフラット１階,,13,113,1500044,,,2024-03-19,清算の結了等,,,2016-12-15,1,,,,,ランコン,0
1405,6011102029367,登記記録の閉鎖等,0,2024-03-27,2024-03-22,有限会社中野まさし企業行動テラス,,有限会社,東京都,新宿区,西新宿４丁目２９番４号,,13,104,1600023,,,2024-03-22,清算の結了等,,,2015-10-05,1,,,,,ナカノマサシキギョウコウドウテラス,0
1406,6011103011704,登記記録の閉鎖等,0,2024-03-27,2024-03-22,ＲＡＳ合同会社,,合同会社,東京都,新宿区,四谷４丁目３２番８号ＹＫＢサニービル６階,,13,104,1600004,,,2024-03-22,清算の結了等,,,2022-04-27,1,,,,,アールエーエス,0
1411,6011401022923,登記記録の閉鎖等,0,2024-03-27,2024-03-22,株式会社ティーディーアイ,,株式会社,東京都,板橋区,前野町２丁目２番７号,,13,119,1740063,,,2024-03-22,清算の結了等,,,2020-11-02,1,,,,,ティーディーアイ,0
1419,6012702008339,登記記録の閉鎖等,0,2024-03-27,2024-03-22,イシダ有限会社,,有限会社,東京都,東村山市,富士見町１丁目１２番地２ヴィラージュ・ヴェール七番館３１１,,13,213,1890024,,,2024-03-22,清算の結了等,,,2015-10-05,1,,,,,イシダ,0
1462,6050005002469,登記記録の閉鎖等,0,2024-03-27,2024-03-25,特定非営利活動法人くらし協同館なかよし,,その他の設立登記法人,茨城県,ひたちなか市,大字馬渡２５２５番地の４９８,,08,221,3120012,,,2024-03-25,清算の結了等,,,2015-10-05,1,,,,,クラシキョウドウカンナカヨシ,0
1466,6060001034168,登記記録の閉鎖等,0,2024-03-27,2024-03-22,株式会社マンタップ,,株式会社,栃木県,宇都宮市,陽東４丁目９番１７号,,09,201,3210904,,,2024-03-22,清算の結了等,,,2021-10-07,1,,,,,マンタップ,0
1488,6120001023874,登記記録の閉鎖等,0,2024-03-27,2024-03-22,末廣金属株式会社,,株式会社,大阪府,大阪市天王寺区,玉造本町１１番２７号,,27,109,5430013,,,2024-03-22,清算の結了等,,,2015-10-05,1,,,,,スエヒロキンゾク,0
1489,6120001123419,登記記録の閉鎖等,0,2024-03-27,2024-03-21,株式会社ビースペース,,株式会社,大阪府,守口市,大久保町４丁目３１番２７号,,27,209,5700012,,,2024-03-21,清算の結了等,,,2015-10-05,1,,,,,,0
1506,6130002014657,登記記録の閉鎖等,0,2024-03-27,2024-03-25,有限会社ハプロ,,有限会社,京都府,京都市上京区,元誓願寺通七本松東入元観音町４５９番地３,,26,102,6028324,,,2024-03-25,清算の結了等,,,2015-10-05,1,,,,,,0
1508,6140001049100,登記記録の閉鎖等,0,2024-03-27,2024-03-25,ジェミニ工業株式会社,,株式会社,兵庫県,尼崎市,次屋３丁目１４番２４号,,28,202,6610965,,,2024-03-25,清算の結了等,,,2015-10-05,1,,,,,ジェミニコウギョウ,0
1513,6140001102718,登記記録の閉鎖等,0,2024-03-27,2024-03-25,株式会社グリーンライト,,株式会社,兵庫県,姫路市,飾磨区加茂東９７番地,,28,201,6728070,,,2024-03-25,清算の結了等,,,2016-07-12,1,,,,,グリーンライト,0
1522,6150001008699,登記記録の閉鎖等,0,2024-03-27,2024-03-19,株式会社ＳＢＳ＆Ｐ,,株式会社,大阪府,大阪市北区,本庄東１丁目２３番２－１３０２号,,27,127,5310074,,,2024-03-19,清算の結了等,,,2015-10-05,1,,,,,エスビーエスアンドピー,0
1525,6180001071380,登記記録の閉鎖等,0,2024-03-27,2024-03-21,株式会社ＳＩＪ製作所,,株式会社,愛知県,名古屋市西区,十方町１１５番地,,23,104,4520837,,,2024-03-21,清算の結了等,,,2015-10-05,1,,,,,エスアイジェイセイサクショ,0
1527,6180001115047,登記記録の閉鎖等,0,2024-03-27,2024-03-21,株式会社Ｂａｏｂａｂ,,株式会社,愛知県,名古屋市中区,丸の内２丁目１０番１１号リブラ丸の内６号館３０１号室,,23,106,4600002,,,2024-03-21,清算の結了等,,,2015-10-05,1,,,,,バオバブ,0
1535,6180003023438,登記記録の閉鎖等,0,2024-03-27,2024-03-22,こころ結ぶ福祉合同会社,,合同会社,愛知県,知多郡武豊町,字長尾山７６番地第二福屋ビル３０１号室,,23,447,4702346,,,2024-03-22,清算の結了等,,,2022-02-01,1,,,,,ココロムスブフクシ,0
1548,6220001012306,登記記録の閉鎖等,0,2024-03-27,2024-03-26,濱産業株式会社,,株式会社,石川県,小松市,長崎町チ１７番地の１,,17,203,9230004,,,2024-03-26,清算の結了等,,,2015-10-05,1,,,,,ハマサンギョウ,0
1558,6240001042508,登記記録の閉鎖等,0,2024-03-27,2024-03-25,株式会社ＤＥＣＯ,,株式会社,広島県,広島市中区,舟入本町６番５号,,34,101,7300843,,,2024-03-25,清算の結了等,,,2015-10-05,1,,,,,デコ,0
1561,6260002020964,登記記録の閉鎖等,0,2024-03-27,2024-03-26,有限会社ブライダルオフィスチュチュ,,有限会社,岡山県,倉敷市,中島２６２４番地の２エメラルドマンション３０４号,,33,202,7100803,,,2024-03-26,清算の結了等,,,2015-10-05,1,,,,,ブライダルオフィスチュチュ,0
1577,6310005008183,登記記録の閉鎖等,0,2024-03-27,2024-03-25,一般社団法人県央土地建物,,その他の設立登記法人,長崎県,諫早市,多良見町化屋４６７番地３化屋櫻ハイツ２Ｆ,,42,204,8590401,,,2024-03-25,清算の結了等,,,2018-02-21,1,,,,,,0
1594,6370003005895,登記記録の閉鎖等,0,2024-03-27,2024-03-21,合同会社スマデリ,,合同会社,宮城県,仙台市青葉区,落合２丁目６番７号ウェルステージ丸浩６０８,,04,101,9893126,,,2024-03-21,清算の結了等,,,2022-11-09,1,,,,,スマデリ,0
1596,6380001026224,登記記録の閉鎖等,0,2024-03-27,2024-03-25,株式会社イーストブルー,,株式会社,福島県,郡山市,安積荒井２丁目２９０番地,,07,203,9630117,,,2024-03-25,清算の結了等,,,2015-12-09,1,,,,,イーストブルー,0
1598,6390002005936,登記記録の閉鎖等,0,2024-03-27,2024-03-25,有限会社たいき,,有限会社,山形県,山形市,大字漆山４１０９番地２,,06,201,9902161,,,2024-03-25,清算の結了等,,,2015-10-05,1,,,,,,0
1605,6430002051125,登記記録の閉鎖等,0,2024-03-27,2024-03-22,有限会社クリーニングジョイ,,有限会社,北海道,夕張市,本町２丁目２０２番地,,01,209,0680403,,,2024-03-22,清算の結了等,,,2015-10-05,1,,,,,クリーニングジョイ,0
1612,6460102006364,登記記録の閉鎖等,0,2024-03-27,2024-03-21,有限会社吉田鉄工,,有限会社,北海道,中川郡本別町,北５丁目３番地３,,01,646,0893334,,,2024-03-21,清算の結了等,,,2015-10-05,1,,,,,ヨシダテッコウ,0
1626,7010001168969,登記記録の閉鎖等,0,2024-03-27,2024-03-21,株式会社ところざわサクラタウン,,株式会社,東京都,千代田区,富士見２丁目１３番３号,,13,101,1020071,,,2024-03-21,清算の結了等,,,2015-10-05,1,,,,,トコロザワサクラタウン,0
1641,7010403028366,登記記録の閉鎖等,0,2024-03-27,2024-03-22,Ｖｏｔｉｏｎ　Ｌｉｍｉｔｅｄ合同会社,,合同会社,東京都,渋谷区,道玄坂１丁目１０番８号渋谷道玄坂東急ビル２Ｆ－Ｃ,,13,113,1500043,,,2024-03-22,清算の結了等,,,2022-08-29,1,,,,,ボーションリミテッド,0
1677,7011101079791,登記記録の閉鎖等,0,2024-03-27,2024-03-21,株式会社Ｉｄｒａｇｏｎｓ　Ａｎｉｍａｔｉｏｎ,,株式会社,東京都,渋谷区,千駄ヶ谷５丁目１６番１０号４０３,,13,113,1510051,,,2024-03-21,清算の結了等,,,2017-03-13,1,,,,,アイドラゴンズアニメーション,0
1693,7012402010016,登記記録の閉鎖等,0,2024-03-27,2024-03-22,有限会社咲建装,,有限会社,東京都,稲城市,長峰３丁目３番地杜の二番街５－８０１,,13,225,2060821,,,2024-03-22,清算の結了等,,,2015-10-05,1,,,,,サキケンソウ,0
1710,7020001150315,登記記録の閉鎖等,0,2024-03-27,2024-03-21,株式会社ａｎｄ　Ｎｏａ,,株式会社,神奈川県,横浜市中区,桜木町１丁目１番地７ヒューリックみなとみらい１０階,,14,104,2310062,,,2024-03-21,清算の結了等,,,2023-02-16,1,,,,,アンドノア,0
1717,7021001010896,登記記録の閉鎖等,0,2024-03-27,2024-03-25,株式会社ミズウェーブ,,株式会社,神奈川県,鎌倉市,由比ガ浜２丁目２０番１４号,,14,204,2480014,,,2024-03-25,清算の結了等,,,2015-10-05,1,,,,,ミズウェーブ,0
1733,7040001084123,登記記録の閉鎖等,0,2024-03-27,2024-03-19,日建測量株式会社,,株式会社,千葉県,市川市,南八幡２丁目１６番２３号幸水荘Ｃ号室,,12,203,2720023,,,2024-03-19,清算の結了等,,,2015-10-05,1,,,,,ニッケンソクリョウ,0
1734,7040001120241,登記記録の閉鎖等,0,2024-03-27,2024-03-18,丸美株式会社,,株式会社,千葉県,船橋市,西習志野３丁目１０番１３号,,12,204,2740815,,,2024-03-18,清算の結了等,,,2021-09-21,1,,,,,マルミ,0
1769,7120001024608,登記記録の閉鎖等,0,2024-03-27,2024-03-25,株式会社ないんていないん,,株式会社,大阪府,大阪市天王寺区,大道２丁目１２番１８号,,27,109,5430052,,,2024-03-25,清算の結了等,,,2015-10-05,1,,,,,ナインテイナイン,0
1795,7130001041429,登記記録の閉鎖等,0,2024-03-27,2024-03-25,大江観光株式会社,,株式会社,京都府,福知山市,大江町河守３９８番地,,26,201,6200301,,,2024-03-25,清算の結了等,,,2015-10-05,1,,,,,オオエカンコウ,0
1797,7130002000540,登記記録の閉鎖等,0,2024-03-27,2024-03-26,有限会社久保染色補正,,有限会社,京都府,京都市右京区,西京極徳大寺団子田町８４番地２１,,26,108,6150846,,,2024-03-26,清算の結了等,,,2015-10-05,1,,,,,クボセンショクホセイ,0
1815,7170002006170,登記記録の閉鎖等,0,2024-03-27,2024-03-26,有限会社上川デイサービス,,有限会社,和歌山県,和歌山市,野崎６８番地の１５,,30,201,6408402,,,2024-03-26,清算の結了等,,,2015-10-05,1,,,,,カミカワデイサービス,0
1817,7180001002814,登記記録の閉鎖等,0,2024-03-27,2024-03-21,美容商事アイチ株式会社,,株式会社,愛知県,名古屋市名東区,高針台１丁目３０１番地,,23,115,4650054,,,2024-03-21,清算の結了等,,,2015-10-05,1,,,,,ビヨウショウジアイチ,0
1839,7240005014295,登記記録の閉鎖等,0,2024-03-27,2024-03-21,一般社団法人福山トライアスロン協会,,その他の設立登記法人,広島県,福山市,西町１丁目１番１号エフピコＲｉＭ地下２階,,34,207,7200067,,,2024-03-21,清算の結了等,,,2016-12-27,1,,,,,フクヤマトライアスロンキョウカイ,0
1840,7250005008643,登記記録の閉鎖等,0,2024-03-27,2024-03-25,一般社団法人相続後見設計,,その他の設立登記法人,山口県,周南市,大字徳山字三田川５８１１番地の１０,,35,215,7450873,,,2024-03-25,清算の結了等,,,2021-02-04,1,,,,,ソウゾクコウケンセッケイ,0
1867,7330002003820,登記記録の閉鎖等,0,2024-03-27,2024-03-15,有限会社合志塗装,,有限会社,熊本県,熊本市東区,長嶺南６丁目１７番２０号,,43,102,8618039,,,2024-03-15,清算の結了等,,,2015-10-05,1,,,,,,0
1873,7340001020411,登記記録の閉鎖等,0,2024-03-27,2024-03-21,産興商事株式会社,,株式会社,鹿児島県,日置市,東市来町湯田５４１８番地,,46,216,8992201,,,2024-03-21,清算の結了等,,,2017-07-06,1,,,,,,0
1905,7450002003973,登記記録の閉鎖等,0,2024-03-27,2024-03-25,有限会社西村商亊,,有限会社,北海道,上川郡東川町,西町４丁目２番地２０,,01,458,0711425,,,2024-03-25,清算の結了等,,,2015-10-05,1,,,,,ニシムラショウジ,0
1906,7480001002486,登記記録の閉鎖等,0,2024-03-27,2024-03-26,ミヤモトコーポレーション株式会社,,株式会社,徳島県,徳島市,南昭和町６丁目２２番地,,36,201,7700944,,,2024-03-26,清算の結了等,,,2015-10-05,1,,,,,ミヤモトコーポレーション,0
1915,8010001113387,登記記録の閉鎖等,0,2024-03-27,2024-03-21,シアップ株式会社,,株式会社,東京都,中央区,日本橋３丁目１３番６号,,13,102,1030027,,,2024-03-21,清算の結了等,,,2015-10-05,1,,,,,シアップ,0
1927,8010401007197,登記記録の閉鎖等,0,2024-03-27,2024-03-21,蒲生鉱業株式会社,,株式会社,東京都,港区,新橋５丁目１１番３号,,13,103,1050004,,,2024-03-21,清算の結了等,,,2015-10-05,1,,,,,カモウコウギョウ,0
1934,8010401167652,登記記録の閉鎖等,0,2024-03-27,2024-03-21,株式会社ＧＯＹＡ,,株式会社,東京都,港区,南青山３丁目１０番４１号ジュエル青山ビル２階,,13,103,1070062,,,2024-03-21,清算の結了等,,,2022-06-02,1,,,,,ゴヤ,0
1942,8010502020909,登記記録の閉鎖等,0,2024-03-27,2024-03-07,有限会社ティーレックス,,有限会社,東京都,台東区,三筋１丁目５番１６号－ＩＩ,00051358,13,106,1110055,,,2024-03-07,清算の結了等,,,2015-10-05,1,,,,,,0
1955,8011001152706,登記記録の閉鎖等,0,2024-03-27,2024-03-21,株式会社Ｋ＆Ｎ,,株式会社,東京都,渋谷区,宇田川町４１番地２３第二大久保ビル３０２,,13,113,1500042,,,2024-03-21,清算の結了等,,,2023-02-22,1,,,,,ケイアンドエヌ,0
1957,8011003006661,登記記録の閉鎖等,0,2024-03-27,2024-03-21,合同会社ＭＩＮＥコンサルティング,,合同会社,東京都,目黒区,下目黒４丁目２番１９号,,13,110,1530064,,,2024-03-21,清算の結了等,,,2016-03-24,1,,,,,ミネコンサルティング,0
1975,8012401039625,登記記録の閉鎖等,0,2024-03-27,2024-03-25,吉村不動産株式会社,,株式会社,東京都,府中市,白糸台４丁目２－４,,13,206,1830011,,,2024-03-25,清算の結了等,,,2022-09-09,1,,,,,ヨシムラフドウサン,0
1978,8013205001671,登記記録の閉鎖等,0,2024-03-27,2024-03-18,特定非営利活動法人読み聞かせ文庫,,その他の設立登記法人,東京都,目黒区,上目黒２丁目９番３５号中目黒ＧＳ第２ビル４階,,13,110,1530051,,,2024-03-18,清算の結了等,,,2015-10-05,1,,,,,ヨミキカセブンコ,0
1987,8020002061188,登記記録の閉鎖等,0,2024-03-27,2024-03-25,有限会社ケー・エヌ・ティー,,有限会社,神奈川県,横浜市中区,弁天通３丁目３６番地１,,14,104,2310007,,,2024-03-25,清算の結了等,,,2015-10-05,1,,,,,ケーエヌティー,0
1991,8020002088009,登記記録の閉鎖等,0,2024-03-27,2024-03-22,有限会社飯村製作所,,有限会社,神奈川県,川崎市高津区,下野毛３丁目４番１３号,,14,134,2130006,,,2024-03-22,清算の結了等,,,2015-10-05,1,,,,,イイムラセイサクショ,0
1998,8030001095657,登記記録の閉鎖等,0,2024-03-27,2024-03-21,株式会社セールスブレイン,,株式会社,埼玉県,戸田市,上戸田１丁目１９番２２号,,11,224,3350022,,,2024-03-21,清算の結了等,,,2015-10-05,1,,,,,セールスブレイン,0
2026,8050002044586,登記記録の閉鎖等,0,2024-03-27,2024-03-25,有限会社小林鐵工所,,有限会社,茨城県,結城市,大字結城１７２６番地,,08,207,3070001,,,2024-03-25,清算の結了等,,,2015-10-05,1,,,,,コバヤシテッコウジョ,0
2041,8110001025861,登記記録の閉鎖等,0,2024-03-27,2024-03-25,長岡製粉株式会社,,株式会社,新潟県,長岡市,蓮潟３丁目７番３１号,00070513,15,202,9402023,,,2024-03-25,清算の結了等,,,2015-10-05,1,,,,,ナガオカセイフン,0
2059,8120002032336,登記記録の閉鎖等,0,2024-03-27,2024-03-21,株式会社ピー・アイ・シー,,株式会社,大阪府,大阪市北区,東天満１丁目１１番９号和気ビル１０階,,27,127,5300044,,,2024-03-21,清算の結了等,,,2015-10-05,1,,,,,,0
2073,8140001030702,登記記録の閉鎖等,0,2024-03-27,2024-03-25,株式会社油研,,株式会社,兵庫県,神戸市西区,学園西町２丁目５番地の１３４,,28,111,6512103,,,2024-03-25,清算の結了等,,,2015-10-05,1,,,,,ユケン,0
2087,8180001016367,登記記録の閉鎖等,0,2024-03-27,2024-03-19,柿本株式会社,,株式会社,愛知県,名古屋市東区,代官町３９番２２号,,23,102,4610002,,,2024-03-19,清算の結了等,,,2015-10-05,1,,,,,カキモト,0
2088,8180001029781,登記記録の閉鎖等,0,2024-03-27,2024-03-21,株式会社オサラギ,,株式会社,愛知県,名古屋市中村区,稲西町１６４番地の２,,23,105,4530849,,,2024-03-21,清算の結了等,,,2015-10-05,1,,,,,オサラギ,0
2094,8180001136009,登記記録の閉鎖等,0,2024-03-27,2024-03-21,株式会社Ｋ７,,株式会社,愛知県,春日井市,玉野台１丁目１２番地１２,,23,206,4870007,,,2024-03-21,清算の結了等,,,2019-04-03,1,,,,,ケイセブン,0
2106,8220001017443,登記記録の閉鎖等,0,2024-03-27,2024-03-25,岡田鉄工株式会社,,株式会社,石川県,かほく市,高松ル１１番地６,,17,209,9291215,,,2024-03-25,清算の結了等,,,2015-10-05,1,,,,,オカダテッコウ,0
2139,8370001005887,登記記録の閉鎖等,0,2024-03-27,2024-03-21,株式会社パルシティ,,株式会社,宮城県,仙台市宮城野区,榴岡４丁目１番８号,,04,102,9830852,,,2024-03-21,清算の結了等,,,2015-10-05,1,,,,,パルシティ,0
2145,8380001033796,登記記録の閉鎖等,0,2024-03-27,2024-03-22,株式会社まる吉,,株式会社,福島県,福島市,御山字中屋敷１１５番地の１,,07,201,9608252,,,2024-03-22,清算の結了等,,,2023-06-19,1,,,,,マルキチ,0
2146,8400005002588,登記記録の閉鎖等,0,2024-03-27,2024-03-21,企業組合ライフサポート・盛岡みなみ,,その他の設立登記法人,岩手県,紫波郡矢巾町,流通センター南４丁目１４番１５号,,03,322,0200891,,,2024-03-21,清算の結了等,,,2015-10-05,1,,,,,ライフサポートモリオカミナミ,0
2159,8450001011266,登記記録の閉鎖等,0,2024-03-27,2024-03-25,株式会社ＹＯＵ＆Ｉ,,株式会社,北海道,旭川市,三条通６丁目３３２番地１アークヒルズビル８階,,01,204,0700033,,,2024-03-25,清算の結了等,,,2015-10-05,1,,,,,ユーアンドアイ,0
2172,9010005025322,登記記録の閉鎖等,0,2024-03-27,2024-03-25,一般社団法人ユナイトアニメーション,,その他の設立登記法人,東京都,千代田区,丸の内３丁目１番１号東京共同会計事務所内,,13,101,1000005,,,2024-03-25,清算の結了等,,,2016-05-12,1,,,,,ユナイトアニメーション,0
2179,9010401110322,登記記録の閉鎖等,0,2024-03-27,2024-03-21,メルコフィナンシャルホールディングス株式会社,,株式会社,東京都,千代田区,丸の内１丁目１１番１号パシフィックセンチュリープレイス丸の内,,13,101,1000005,,,2024-03-21,清算の結了等,,,2015-10-05,1,,,,,,0
2185,9010403020362,登記記録の閉鎖等,0,2024-03-27,2024-03-19,Ｓｕｎ　Ｓｔａｔｉｏｎ　Ｈｉｋａｒｉ　ＸＸ合同会社,,合同会社,東京都,港区,芝公園１丁目３番１号留園ビル６階,,13,103,1050011,,,2024-03-19,合併による解散等,9010403020882,令和６年３月１９日東京都港区芝公園一丁目３番１号留園ビル６階Ｓｕｎ　Ｓｔａｔｉｏｎ　Ｈｉｋａｒｉ　ＸＸＩ合同会社（9010403020882）に合併し解散,2019-03-14,1,,,,,サンステーションヒカリトウェンティ,0
2222,9011302016154,登記記録の閉鎖等,0,2024-03-27,2024-03-15,有限会社ワイ・ケイ・ケイ,,有限会社,東京都,杉並区,高円寺南１丁目１８番１１－８０２号,,13,115,1660003,,,2024-03-15,清算の結了等,,,2015-10-05,1,,,,,ワイケイケイ,0
2223,9011303003432,登記記録の閉鎖等,0,2024-03-27,2024-03-19,合同会社ＴＡＫＡＳＡＫＩ,,合同会社,東京都,杉並区,西荻南４丁目８番１６号２階,,13,115,1670053,,,2024-03-19,清算の結了等,,,2019-09-25,1,,,,,タカサキ,0
2226,9011405000542,登記記録の閉鎖等,0,2024-03-27,2024-03-22,城北青果協同組合,,その他の設立登記法人,東京都,板橋区,高島平６丁目１番５号,,13,119,1750082,,,2024-03-22,清算の結了等,,,2015-10-05,1,,,,,ジョウホクセイカ,0
2238,9012301012235,登記記録の閉鎖等,0,2024-03-27,2024-03-22,株式会社Ｙ－ＰＬＡＮ,,株式会社,東京都,町田市,中町４丁目９番８号,,13,209,1940021,,,2024-03-22,清算の結了等,,,2020-08-19,1,,,,,ワイプラン,0
2268,9030001156573,登記記録の閉鎖等,0,2024-03-27,2024-03-21,株式会社ＣｏＣｏハウス,,株式会社,埼玉県,さいたま市浦和区,高砂２丁目１３番２１号,,11,107,3300063,,,2024-03-21,清算の結了等,,,2023-10-13,1,,,,,ココハウス,0
2292,9060001014448,登記記録の閉鎖等,0,2024-03-27,2024-03-21,富士交通株式会社,,株式会社,栃木県,小山市,大字大行寺９９５番地３９,,09,208,3230041,,,2024-03-21,清算の結了等,,,2015-10-05,1,,,,,フジコウツウ,0
2296,9070003005048,登記記録の閉鎖等,0,2024-03-27,2024-03-22,合同会社ｍｍｓ,,合同会社,群馬県,前橋市,亀泉町３１９番地４,,10,201,3710004,,,2024-03-22,清算の結了等,,,2023-07-31,1,,,,,エムエムエス,0
2304,9090002015491,登記記録の閉鎖等,0,2024-03-27,2024-03-25,有限会社南部保険代理店,,有限会社,山梨県,南巨摩郡南部町,南部８１７０番地,,19,366,4092212,,,2024-03-25,清算の結了等,,,2015-10-05,1,,,,,ナンブホケンダイリテン,0
2306,9110005009406,登記記録の閉鎖等,0,2024-03-27,2024-03-25,上越資源リサイクル協同組合,,その他の設立登記法人,新潟県,上越市,大字下名柄１６１８番地１,,15,222,9420253,,,2024-03-25,清算の結了等,,,2015-10-05,1,,,,,ジョウエツシゲンリサイクル,0
2309,9120001093485,登記記録の閉鎖等,0,2024-03-27,2024-03-19,株式会社日本ロジファクトリー,,株式会社,大阪府,大阪市中央区,南船場２丁目１１番１８号,,27,128,5420081,,,2024-03-19,清算の結了等,,,2015-10-05,1,,,,,ニホンロジファクトリー,0
2313,9120001165631,登記記録の閉鎖等,0,2024-03-27,2024-03-22,株式会社アイエムシー,,株式会社,大阪府,大阪市北区,西天満４丁目３番１号,,27,127,5300047,,,2024-03-22,清算の結了等,,,2015-10-05,1,,,,,アイエムシー,0
2327,9120002004672,登記記録の閉鎖等,0,2024-03-27,2024-03-19,有限会社畠山建装,,有限会社,大阪府,大阪市都島区,友渕町３丁目３番２１号,,27,102,5340016,,,2024-03-19,清算の結了等,,,2015-10-05,1,,,,,ハタケヤマケンソウ,0
2342,9130002032144,登記記録の閉鎖等,0,2024-03-27,2024-03-19,有限会社マルイ洋服店,,有限会社,京都府,宮津市,字本町７４９番地,,26,205,6260018,,,2024-03-19,清算の結了等,,,2015-10-05,1,,,,,,0
2344,9140001059617,登記記録の閉鎖等,0,2024-03-27,2024-03-25,清和木材株式会社,,株式会社,兵庫県,姫路市,網干区浜田１５８５番地,,28,201,6711242,,,2024-03-25,清算の結了等,,,2015-10-05,1,,,,,,0
2346,9140001118926,登記記録の閉鎖等,0,2024-03-27,2024-03-25,株式会社ＳＡＳＳ　ＪＡＰＡＮ，Ｉｎｃ．,,株式会社,兵庫県,神戸市灘区,長峰台２丁目３番２－８０７号,,28,102,6570811,,,2024-03-25,清算の結了等,,,2020-10-07,1,,,,,サスジャパン,0
2350,9140002038578,登記記録の閉鎖等,0,2024-03-27,2024-03-22,有限会社関西ロジ．サービス,,有限会社,兵庫県,加古川市,平岡町西谷９２番地の１,,28,210,6750102,,,2024-03-22,清算の結了等,,,2015-10-05,1,,,,,カンサイロジサービス,0
2353,9160002010650,登記記録の閉鎖等,0,2024-03-27,2024-03-18,有限会社トーホー電設,,有限会社,滋賀県,近江八幡市,上田町９７１番地の２８,,25,204,5230015,,,2024-03-18,清算の結了等,,,2015-10-05,1,,,,,トーホーデンセツ,0
2355,9160003002812,登記記録の閉鎖等,0,2024-03-27,2024-03-26,合同会社ＯＮＥＣＬＥ,,合同会社,滋賀県,犬上郡多賀町,大字一円１８９番地,,25,443,5220317,,,2024-03-26,清算の結了等,,,2023-03-14,1,,,,,ワンクル,0
2374,9190001010418,登記記録の閉鎖等,0,2024-03-27,2024-03-25,株式会社ナウ工房,,株式会社,三重県,松阪市,久保町１７７６番地の３,,24,204,5150044,,,2024-03-25,清算の結了等,,,2015-10-05,1,,,,,ナウコウボウ,0
2377,9220003002574,登記記録の閉鎖等,0,2024-03-27,2024-03-21,合同会社ハニーグロウ,,合同会社,石川県,野々市市,御経塚１丁目６３番地,,17,212,9218801,,,2024-03-21,清算の結了等,,,2019-03-22,1,,,,,ハニーグロウ,0
2378,9230001007161,登記記録の閉鎖等,0,2024-03-27,2024-03-25,株式会社若林工房,,株式会社,富山県,魚津市,新金屋１丁目１番１１号,,16,204,9370801,,,2024-03-25,清算の結了等,,,2015-10-05,1,,,,,ワカバヤシコウボウ,0
2412,9370805000100,登記記録の閉鎖等,0,2024-03-27,2024-03-07,岩沼青果商業協同組合,,その他の設立登記法人,宮城県,岩沼市,末広１丁目６番４０号,,04,211,9892426,,,2024-03-07,清算の結了等,,,2015-10-05,1,,,,,イワヌマセイカショウギョウ,0
2413,9380003000967,登記記録の閉鎖等,0,2024-03-27,2024-03-22,合名会社フタバ商会,,合名会社,福島県,いわき市,平字新川町１５番地,,07,204,9708026,,,2024-03-22,清算の結了等,,,2015-10-05,1,,,,,フタバショウカイ,0
2417,9410005002396,登記記録の閉鎖等,0,2024-03-27,2024-03-18,湯沢骨材生産協同組合,,その他の設立登記法人,秋田県,湯沢市,山田字福島尻５７番地１,,05,207,0120055,,,2024-03-18,清算の結了等,,,2015-10-05,1,,,,,ユザワコツザイセイサン,0
2430,9500001004478,登記記録の閉鎖等,0,2024-03-27,2024-03-26,のうみん株式会社,,株式会社,愛媛県,松山市,勝岡町１５４番地２,,38,201,7992661,,,2024-03-26,清算の結了等,,,2015-10-05,1,,,,,ノウミン,0
