sequenceNumber,corporateNumber,process,correct,updateDate,changeDate,name,nameImageId,kind,prefectureName,cityName,streetNumber,addressImageId,prefectureCode,cityCode,postCode,addressOutside,addressOutsideImageId,closeDate,closeCause,successorCorporateNumber,changeCause,assignmentDate,latest,enName,enPrefectureName,enCityName,enAddressOutside,furigana,hihyoji
14,1010003046030,新規,0,2025-01-16,2025-01-16,Ｌｅｅｇｉｎｚａ合同会社,,合同会社,東京都,千代田区,麹町２丁目２番２２号（Ｃ／ＯＪｏｏ－ｒｅａｌｅｓｔａｔｅ－ｏｆｆｉｃｅ）,,13,101,1020083,,,,,,,2025-01-16,1,,,,,イギンザ,0
15,1010003046105,新規,0,2025-01-16,2025-01-16,合同会社Ｒ,,合同会社,東京都,中央区,銀座１丁目１２－４Ｎ＆ＥＢＬＤ．６Ｆ,,13,102,1040061,,,,,,,2025-01-16,1,,,,,アール,0
18,1010005039404,新規,0,2025-01-16,2025-01-16,一般社団法人Ｍｉｘ　Ｓａｎｄ　Ｈｉｔａｃｈｉ００３,,その他の設立登記法人,東京都,千代田区,霞が関３丁目２番５号,,13,101,1000013,,,,,,,2025-01-16,1,,,,,ミックスサンドヒタチゼロゼロスリー,0
32,1010401187491,新規,0,2025-01-16,2025-01-16,株式会社ｃｙＱｌｅ‐Ｌａｂ,,株式会社,東京都,港区,芝浦４丁目２０番２号,,13,103,1080023,,,,,,,2025-01-16,1,,,,,サイクルラボ,0
33,1010401187525,新規,0,2025-01-16,2025-01-16,株式会社Ｂｅａｎｓ‐ｅ,,株式会社,東京都,港区,南青山２丁目２番１５号,,13,103,1070062,,,,,,,2025-01-16,1,,,,,ビーンズイー,0
34,1010401187624,新規,0,2025-01-16,2025-01-16,ＡＮ　Ｃｏｒｐｏｒａｔｉｏｎ株式会社,,株式会社,東京都,港区,三田１丁目１１番４５号三田清風ガーデン６０７,,13,103,1080073,,,,,,,2025-01-16,1,,,,,アンコーポレーション,0
37,1010403034155,新規,0,2025-01-16,2025-01-16,合同会社Ｓｅｎｓｕ　Ｓｔｕｄｉｏ,,合同会社,東京都,港区,浜松町２丁目２番１５号浜松町ダイヤビル２Ｆ,,13,103,1050013,,,,,,,2025-01-16,1,,,,,センススタジオ,0
42,1010501053412,新規,0,2025-01-16,2025-01-16,ディープドリーム株式会社,,株式会社,東京都,台東区,千束２丁目７番７－８０８号メインステージ浅草入谷ＩＩ,00137657,13,106,1110031,,,,,,,2025-01-16,1,,,,,ディープドリーム,0
43,1010501053461,新規,0,2025-01-16,2025-01-16,イノービス株式会社,,株式会社,東京都,台東区,東上野３丁目１８番１号４０６,,13,106,1100015,,,,,,,2025-01-16,1,,,,,イノービス,0
47,1010601066603,新規,0,2025-01-16,2025-01-16,株式会社Ｈ．Ｌ．Ｊクリエイト,,株式会社,東京都,江東区,東陽４丁目７番３５－１１０２号,,13,108,1350016,,,,,,,2025-01-16,1,,,,,エイチエルジェイクリエイト,0
48,1010603011326,新規,0,2025-01-16,2025-01-16,合同会社ＭＩＢＡ,,合同会社,東京都,墨田区,立花１丁目３０－６,,13,107,1310043,,,,,,,2025-01-16,1,,,,,ミーバ,0
49,1010701047073,新規,0,2025-01-16,2025-01-16,株式会社Ｕｎｉｔｅ　Ａｐｐ,,株式会社,東京都,品川区,二葉４丁目１７番６号,,13,109,1420043,,,,,,,2025-01-16,1,,,,,ユナイトアップ,0
50,1010701047098,新規,0,2025-01-16,2025-01-16,株式会社軸,,株式会社,東京都,品川区,西五反田８丁目１０番６号２０３号室,,13,109,1410031,,,,,,,2025-01-16,1,,,,,ジク,0
58,1010901056659,新規,0,2025-01-16,2025-01-16,株式会社宇留賀,,株式会社,東京都,世田谷区,赤堤１丁目１５番２１号,,13,112,1560044,,,,,,,2025-01-16,1,,,,,ウルガ,0
64,1011001167165,新規,0,2025-01-16,2025-01-16,株式会社ｍａｙｃｌａｓｓ,,株式会社,東京都,渋谷区,神南１丁目１１番４号ＦＰＧリンクス神南５階,,13,113,1500041,,,,,,,2025-01-16,1,,,,,メイクラス,0
65,1011001167173,新規,0,2025-01-16,2025-01-16,株式会社晨,,株式会社,東京都,渋谷区,恵比寿西２丁目４番８号ウィンド恵比寿ビル８Ｆ,,13,113,1500021,,,,,,,2025-01-16,1,,,,,シン,0
67,1011101110223,新規,0,2025-01-16,2025-01-16,株式会社ＤＵＢＨＥ　ＪＡＰＡＮ,,株式会社,東京都,新宿区,住吉町１－１９サトクラ曙橋ビル２階,,13,104,1620065,,,,,,,2025-01-16,1,,,,,ドゥベジャパン,0
68,1011101110280,新規,0,2025-01-16,2025-01-16,株式会社Ｋ３,,株式会社,東京都,新宿区,若松町２５番２２－４０６号,,13,104,1620056,,,,,,,2025-01-16,1,,,,,ケースリー,0
70,1011103015387,新規,0,2025-01-16,2025-01-16,ＨＡＧＨＩＲＩＡＮ　ＣＯＲＰＯＲＡＴＩＯＮ合同会社,,合同会社,東京都,新宿区,原町１丁目６３番地８,,13,104,1620053,,,,,,,2025-01-16,1,,,,,ハギリアンコーポレーション,0
72,1011301030270,新規,0,2025-01-16,2025-01-16,智連堂株式会社,,株式会社,東京都,杉並区,高円寺南２丁目３７番１４号クレシェンド高円寺４０４,,13,115,1660003,,,,,,,2025-01-16,1,,,,,チレンドウ,0
77,1011501031589,新規,0,2025-01-16,2025-01-16,宏恩株式会社,,株式会社,東京都,北区,十条仲原２丁目６番８号サンハイツ十条４０３,,13,117,1140031,,,,,,,2025-01-16,1,,,,,コウオン,0
96,1020001160798,新規,0,2025-01-16,2025-01-16,株式会社９コンサルティング,,株式会社,神奈川県,横浜市港北区,日吉本町６丁目５７番５号,,14,109,2230062,,,,,,,2025-01-16,1,,,,,ナインコンサルティング,0
97,1020001160807,新規,0,2025-01-16,2025-01-16,ＦＤＡ株式会社,,株式会社,神奈川県,横浜市神奈川区,反町４丁目２７番地１５ウィンディーポート２０１,,14,102,2210825,,,,,,,2025-01-16,1,,,,,エフディーエー,0
98,1020001160880,新規,0,2025-01-16,2025-01-16,株式会社ＴＩＥ,,株式会社,神奈川県,川崎市高津区,二子６丁目１３番１０号,,14,134,2130002,,,,,,,2025-01-16,1,,,,,ティーアイイー,0
99,1020001160947,新規,0,2025-01-16,2025-01-16,株式会社はっち,,株式会社,神奈川県,横浜市中区,相生町４丁目６９番地関内和孝ビル４階,,14,104,2310012,,,,,,,2025-01-16,1,,,,,ハッチ,0
100,1020001160963,新規,0,2025-01-16,2025-01-16,株式会社ＳＳＲ,,株式会社,神奈川県,横浜市磯子区,滝頭１丁目４番６１号,,14,107,2350012,,,,,,,2025-01-16,1,,,,,エスエスアール,0
104,1020003027541,新規,0,2025-01-16,2025-01-16,合同会社ＵＮｉ‐ｍｉｇｎＯＮ,,合同会社,神奈川県,川崎市麻生区,白鳥４丁目１４番２０号ビューテラス白鳥１０６,,14,137,2150024,,,,,,,2025-01-16,1,,,,,ユニミグノン,0
105,1020003027558,新規,0,2025-01-16,2025-01-16,合同会社ヒューマンインフィニティ,,合同会社,神奈川県,横浜市都筑区,牛久保西２丁目２５番Ｇ－１０３号,,14,118,2240015,,,,,,,2025-01-16,1,,,,,ヒューマンインフィニティ,0
106,1020003027582,新規,0,2025-01-16,2025-01-16,Ａｌｕｒｅ合同会社,,合同会社,神奈川県,横浜市港北区,大倉山７丁目５番１号,,14,109,2220037,,,,,,,2025-01-16,1,,,,,アルレ,0
111,1021001084161,新規,0,2025-01-16,2025-01-16,株式会社湘南シンボルツリー,,株式会社,神奈川県,平塚市,中原３丁目１９番３号,,14,203,2540075,,,,,,,2025-01-16,1,,,,,ショウナンシンボルツリー,0
115,1030001164385,新規,0,2025-01-16,2025-01-16,株式会社一歩,,株式会社,埼玉県,さいたま市南区,白幡５丁目３番３０号ＧｒａｎＢｌｉｓｓ武蔵浦和１０２号,,11,108,3360022,,,,,,,2025-01-16,1,,,,,イップ,0
124,1040001136945,新規,0,2025-01-16,2025-01-16,株式会社Ａｒｉｌｉｅｎ,,株式会社,千葉県,柏市,あけぼの１丁目８－２３ベルヴューコート柏６０６号室,,12,217,2770841,,,,,,,2025-01-16,1,,,,,アリリアン,0
125,1040001136994,新規,0,2025-01-16,2025-01-16,株式会社ｂｏｎｄ,,株式会社,千葉県,千葉市中央区,星久喜町１１５７－４８－２０１,,12,101,2600808,,,,,,,2025-01-16,1,,,,,ボンド,0
126,1040001137010,新規,0,2025-01-16,2025-01-16,絆グループ株式会社,,株式会社,千葉県,船橋市,本町４丁目５番１８号有限会社小泉ビル１階,,12,204,2730005,,,,,,,2025-01-16,1,,,,,キズナグループ,0
127,1040001137043,新規,0,2025-01-16,2025-01-16,サスエネ株式会社,,株式会社,千葉県,流山市,おおたかの森北１丁目２０―１、Ｖ―２０６,,12,220,2700119,,,,,,,2025-01-16,1,,,,,サスエネ,0
128,1040003026582,新規,0,2025-01-16,2025-01-16,英鍛アセット合同会社,,合同会社,千葉県,千葉市中央区,新宿２丁目７番３３号タイムズアリーナ千葉中央アクティタワー４１７号,,12,101,2600021,,,,,,,2025-01-16,1,,,,,エイタンアセット,0
129,1040003026608,新規,0,2025-01-16,2025-01-16,合同会社アカシア,,合同会社,千葉県,千葉市若葉区,小倉町９２８番地１０,,12,104,2640007,,,,,,,2025-01-16,1,,,,,アカシア,0
133,1050001056003,新規,0,2025-01-16,2025-01-16,株式会社ＴＡＫＩ,,株式会社,茨城県,水戸市,吉沢町１０４８番地の１,,08,201,3100845,,,,,,,2025-01-16,1,,,,,タキ,0
135,1060001037828,新規,0,2025-01-16,2025-01-16,株式会社らなくーだ,,株式会社,栃木県,足利市,大月町２２４番地２,,09,202,3260005,,,,,,,2025-01-16,1,,,,,ラナクーダ,0
139,1070001042538,新規,0,2025-01-16,2025-01-16,紀鉄軽井沢管理株式会社,,株式会社,群馬県,吾妻郡嬬恋村,大字鎌原１５２８番地４３１,,10,425,3771524,,,,,,,2025-01-16,1,,,,,キテツカルイザワカンリ,0
140,1070001042546,新規,0,2025-01-16,2025-01-16,株式会社ＹＡＭＯＲＩ,,株式会社,群馬県,高崎市,矢中町４１番地６,,10,202,3701203,,,,,,,2025-01-16,1,,,,,ヤモリ,0
146,1080001026713,新規,0,2025-01-16,2025-01-16,株式会社ｅｎＲｉｃｈ,,株式会社,静岡県,静岡市駿河区,曲金６丁目６番４１号アトラース東静岡７０５,,22,102,4228006,,,,,,,2025-01-16,1,,,,,エンリッチ,0
154,1090001019096,新規,0,2025-01-16,2025-01-16,クックデポ株式会社,,株式会社,山梨県,南都留郡富士河口湖町,船津２４９２番地１,,19,430,4010301,,,,,,,2025-01-16,1,,,,,クックデポ,0
162,1120001271800,新規,0,2025-01-16,2025-01-16,ＳＶ株式会社,,株式会社,大阪府,大阪市東淀川区,西淡路３丁目９－３４,,27,114,5330031,,,,,,,2025-01-16,1,,,,,エスブィ,0
163,1120001271817,新規,0,2025-01-16,2025-01-16,株式会社桜輝工務店,,株式会社,大阪府,大阪市淀川区,十三東１丁目１７－２１ウィンズビル２０４号,,27,123,5320023,,,,,,,2025-01-16,1,,,,,サクラキコウムテン,0
164,1120001271825,新規,0,2025-01-16,2025-01-16,株式会社ＬＯＩＧ,,株式会社,大阪府,大阪市北区,梅田１丁目２番２号大阪駅前第２ビル１２－１２,,27,127,5300001,,,,,,,2025-01-16,1,,,,,ロイグ,0
165,1120001271874,新規,0,2025-01-16,2025-01-16,株式会社ニコニコホーム,,株式会社,大阪府,大阪市西成区,玉出西２丁目３番２０号３０２号室,,27,122,5570045,,,,,,,2025-01-16,1,,,,,ニコニコホーム,0
166,1120001271882,新規,0,2025-01-16,2025-01-16,株式会社ナタサービス,,株式会社,大阪府,大阪市西成区,千本南１丁目２３番１６号ラフォーレ玉出５Ａ号,,27,122,5570055,,,,,,,2025-01-16,1,,,,,ナタサービス,0
167,1120001271899,新規,0,2025-01-16,2025-01-16,匯天株式会社,,株式会社,大阪府,大阪市北区,西天満３丁目４番２１号ＧＳハイム中之島１０７号,,27,127,5300047,,,,,,,2025-01-16,1,,,,,カイテン,0
168,1120001271916,新規,0,2025-01-16,2025-01-16,株式会社ＡＯＴ,,株式会社,大阪府,大阪市北区,豊崎４丁目１１番２号プラウドタワー梅田豊崎２７０４,,27,127,5310072,,,,,,,2025-01-16,1,,,,,エーオーティー,0
169,1120001271940,新規,0,2025-01-16,2025-01-16,康弘株式会社,,株式会社,大阪府,大阪市東淀川区,瑞光４丁目２－２１プレアール瑞光４０８,,27,114,5330005,,,,,,,2025-01-16,1,,,,,ヤスヒロ,0
170,1120001272006,新規,0,2025-01-16,2025-01-16,豊洲アンティーク株式会社,,株式会社,大阪府,大阪市淀川区,東三国２丁目１８番２０－１０６号,,27,123,5320002,,,,,,,2025-01-16,1,,,,,トヨスアンティーク,0
172,1120003028372,新規,0,2025-01-16,2025-01-16,ＴｏｋｉＬｉｆｅ合同会社,,合同会社,大阪府,大阪市北区,大淀北１丁目６番２１－２１３号,,27,127,5310077,,,,,,,2025-01-16,1,,,,,トキライフ,0
173,1120005024709,新規,0,2025-01-16,2025-01-16,医療法人優誠会,,その他の設立登記法人,大阪府,大阪市北区,梅田１丁目１番３号大阪駅前第３ビル１８階,,27,127,5300001,,,,,,,2025-01-16,1,,,,,ユウセイカイ,0
175,1120101070854,新規,0,2025-01-16,2025-01-16,株式会社友興,,株式会社,大阪府,堺市北区,百舌鳥陵南町３丁１６４番地,,27,146,5918034,,,,,,,2025-01-16,1,,,,,ユウコウ,0
176,1120101070887,新規,0,2025-01-16,2025-01-16,株式会社ｍｅｔａｌｌｏ,,株式会社,大阪府,貝塚市,名越８０８－１３,,27,208,5970042,,,,,,,2025-01-16,1,,,,,メタロ,0
177,1120901050304,新規,0,2025-01-16,2025-01-16,株式会社ユーカリ,,株式会社,大阪府,高槻市,中川町５番６０号,,27,207,5690066,,,,,,,2025-01-16,1,,,,,ユーカリ,0
181,1130001078682,新規,0,2025-01-16,2025-01-16,Ａ＆Ｓエンジニアリング株式会社,,株式会社,京都府,京都市伏見区,深草泓ノ壺町２８－６,,26,109,6128435,,,,,,,2025-01-16,1,,,,,エーアンドエスエンジニアリング,0
182,1130001078773,新規,0,2025-01-16,2025-01-16,株式会社Ｒ‐ｓｔｕｄｉｏ,,株式会社,京都府,京都市上京区,衣棚通今出川上る畠山町１８７,,26,102,6020035,,,,,,,2025-01-16,1,,,,,アールスタジオ,0
184,1140001137090,新規,0,2025-01-16,2025-01-16,株式会社モア,,株式会社,兵庫県,神戸市中央区,旭通４丁目１番３－３３０８号,,28,110,6510095,,,,,,,2025-01-16,1,,,,,モア,0
186,1140003021540,新規,0,2025-01-16,2025-01-16,合同会社Ｔグローバル,,合同会社,兵庫県,姫路市,忍町１２番地２階,,28,201,6700917,,,,,,,2025-01-16,1,,,,,ティグローバル,0
187,1140003021549,新規,0,2025-01-16,2025-01-16,合同会社うめ商,,合同会社,兵庫県,明石市,中崎２丁目５番４－４０２号,,28,203,6730883,,,,,,,2025-01-16,1,,,,,ウメショウ,0
202,1180001164998,新規,0,2025-01-16,2025-01-16,株式会社Ｔｕｌｉｐ,,株式会社,愛知県,知多市,大草字西屋敷５番地の１,,23,224,4780035,,,,,,,2025-01-16,1,,,,,チューリップ,0
203,1180001165039,新規,0,2025-01-16,2025-01-16,株式会社ビューティーコーポレーション,,株式会社,愛知県,名古屋市東区,葵３丁目８番８号ＳＬＸ葵２０１,,23,102,4610004,,,,,,,2025-01-16,1,,,,,ビューティーコーポレーション,0
219,1180003027864,新規,0,2025-01-16,2025-01-16,合同会社カウンターアタック,,合同会社,愛知県,名古屋市中川区,十番町３丁目１２番地,,23,110,4540055,,,,,,,2025-01-16,1,,,,,カウンターアタック,0
227,1180301039421,新規,0,2025-01-16,2025-01-16,株式会社マースマイル,,株式会社,愛知県,安城市,朝日町１１番８号,,23,212,4460031,,,,,,,2025-01-16,1,,,,,マースマイル,0
228,1180301039438,新規,0,2025-01-16,2025-01-16,株式会社セブンスワロー,,株式会社,愛知県,岡崎市,上地４丁目１６番地１２,,23,202,4440823,,,,,,,2025-01-16,1,,,,,セブンスワロー,0
254,1230001020709,新規,0,2025-01-16,2025-01-16,株式会社陽咲玲,,株式会社,富山県,中新川郡立山町,岩峅野１２０番地,,16,323,9301369,,,,,,,2025-01-16,1,,,,,ハルザレ,0
264,1260001039804,新規,0,2025-01-16,2025-01-16,株式会社ＤａｎｃｅＳｔｕｄｉｏＮＥＸＴ,,株式会社,岡山県,津山市,川崎１７５３番地３,,33,203,7080841,,,,,,,2025-01-16,1,,,,,ダンススタジオネクスト,0
267,1290001108498,新規,0,2025-01-16,2025-01-16,株式会社Ｌｉｂｒｅｎｉａ,,株式会社,福岡県,朝倉市,柿原７２５番地１,,40,228,8380026,,,,,,,2025-01-16,1,,,,,リブレニア,0
268,1290001108597,新規,0,2025-01-16,2025-01-16,株式会社オーラ,,株式会社,福岡県,福岡市東区,箱崎１丁目２０番２３－３０５号,,40,131,8120053,,,,,,,2025-01-16,1,,,,,オーラ,0
269,1290001108630,新規,0,2025-01-16,2025-01-16,源豊株式会社,,株式会社,福岡県,福岡市東区,香椎照葉７丁目６番３３号,,40,131,8130017,,,,,,,2025-01-16,1,,,,,ゲンポウ,0
270,1290001108639,新規,0,2025-01-16,2025-01-16,ＮＮＴ株式会社,,株式会社,福岡県,糸島市,前原中央２丁目３番６０－３０２号,,40,230,8191116,,,,,,,2025-01-16,1,,,,,エヌエヌティー,0
271,1290001108647,新規,0,2025-01-16,2025-01-16,株式会社出島,,株式会社,福岡県,福岡市早良区,室見４丁目４番１０号,,40,137,8140015,,,,,,,2025-01-16,1,,,,,デジマ,0
272,1290003016294,新規,0,2025-01-16,2025-01-16,合同会社シエラワークス,,合同会社,福岡県,福岡市早良区,原１丁目４１番２４－８０１号,,40,137,8140022,,,,,,,2025-01-16,1,,,,,シエラワークス,0
282,1310001019412,新規,0,2025-01-16,2025-01-16,株式会社ＷｏｒｋＤｅｓｉｇｎＬａｂ長崎,,株式会社,長崎県,長崎市,茂木町２１９０番地１１,,42,201,8510241,,,,,,,2025-01-16,1,,,,,ワークデザインラボナガサキ,0
299,1340001027057,新規,0,2025-01-16,2025-01-16,株式会社Ｖａｍｏｓ,,株式会社,鹿児島県,鹿児島市,唐湊４丁目２４番１号,,46,201,8900081,,,,,,,2025-01-16,1,,,,,バモス,0
303,1360003014596,新規,0,2025-01-16,2025-01-16,沖縄龍神ファーム合同会社,,合同会社,沖縄県,糸満市,字糸満２０３９番地４７号,,47,210,9010361,,,,,,,2025-01-16,1,,,,,オキナワリュウジンファーム,0
310,1380001035023,新規,0,2025-01-16,2025-01-16,アグリデンシン株式会社,,株式会社,福島県,会津若松市,河東町郡山字金道５番地,,07,202,9693481,,,,,,,2025-01-16,1,,,,,アグリデンシン,0
312,1400001016904,新規,0,2025-01-16,2025-01-16,株式会社ウスイ不動産,,株式会社,岩手県,北上市,村崎野１５地割５３２番地２０,,03,206,0240004,,,,,,,2025-01-16,1,,,,,ウスイフドウサン,0
314,1420001018980,新規,0,2025-01-16,2025-01-16,株式会社高藤建設,00137658,株式会社,青森県,上北郡七戸町,字鉢森平１５３番地１,,02,402,0392752,,,,,,,2025-01-16,1,,,,,タカフジケンセツ,0
317,1430001093395,新規,0,2025-01-16,2025-01-16,ＤＴＣ株式会社,,株式会社,北海道,札幌市中央区,北五条西５丁目１－５ＪＲ５５ＳＡＰＰＯＲＯビル８Ｆ,,01,101,0600005,,,,,,,2025-01-16,1,,,,,ディーティーシー,0
319,1430003017179,新規,0,2025-01-16,2025-01-16,合同会社ヨシケア,,合同会社,北海道,札幌市中央区,南六条西２丁目５番地２５ＫＧ　Ｓｑｕａｒｅ　Ｓ６－８０４号,,01,101,0640806,,,,,,,2025-01-16,1,,,,,ヨシケア,0
324,1470001020536,新規,0,2025-01-16,2025-01-16,株式会社松幸,,株式会社,香川県,高松市,高松町２２０１番地４　７号室,,37,201,7610104,,,,,,,2025-01-16,1,,,,,マツコウ,0
326,1480003002218,新規,0,2025-01-16,2025-01-16,貞光チキンファーム合同会社,,合同会社,徳島県,美馬市,脇町字東俣名１０８５番地１０,,36,207,7793745,,,,,,,2025-01-16,1,,,,,サダミツチキンファーム,0
327,1500001026059,新規,0,2025-01-16,2025-01-16,スノーアセット株式会社,,株式会社,愛媛県,四国中央市,土居町土居１６０２番地４,,38,213,7990711,,,,,,,2025-01-16,1,,,,,スノーアセット,0
328,1500001026091,新規,0,2025-01-16,2025-01-16,株式会社Ｊｕｇａａｄ,,株式会社,愛媛県,松山市,東野１丁目５番５６号,,38,201,7900903,,,,,,,2025-01-16,1,,,,,ジュガード,0
331,1700150128750,新規,0,2025-01-16,2025-01-16,ＳＩＴＣ　Ｉｎｔｅｒｎａｔｉｏｎａｌ　Ｌｏｇｉｓｔｉｃｓ,,外国会社等,,,,,,,,９ｔｈ　Ｆｌｏｏｒ，９４８　Ｄｏｎｇｄａｍｉｎｇ　Ｒｏａｄ，Ｈｏｎｇｋｏｕ　Ｄｉｓｔｒｉｃｔ，Ｓｈａｎｇｈａｉ，ＣＨＩＮＡ,,,,,,2025-01-16,1,,,,,エスアイテイーシーインターナシヨナルロジステイツクス,0
337,2010001251110,新規,0,2025-01-16,2025-01-16,株式会社成和サービス,,株式会社,東京都,中央区,銀座１丁目１２番４号Ｎ＆ＥＢＬＤ．７階,,13,102,1040061,,,,,,,2025-01-16,1,,,,,セイワサービス,0
338,2010001251408,新規,0,2025-01-16,2025-01-16,株式会社エスサポート,,株式会社,東京都,千代田区,内神田１丁目１８番１１号東京ロイヤルプラザ１００２号,,13,101,1010047,,,,,,,2025-01-16,1,,,,,エスサポート,0
340,2010003046095,新規,0,2025-01-16,2025-01-16,ＣＴ＆ＢｉＺ合同会社,,合同会社,東京都,中央区,八重洲２丁目１－１ＹＡＮＭＡＲＴＯＫＹＯ１２階,,13,102,1040028,,,,,,,2025-01-16,1,,,,,シーティービズ,0
341,2010005039411,新規,0,2025-01-16,2025-01-16,斑尾ホールディングス特定目的会社,,その他の設立登記法人,東京都,中央区,銀座１丁目６番１１号土志田ビルディング３Ｆ,,13,102,1040061,,,,,,,2025-01-16,1,,,,,マダラオホールディングス,0
342,2010101016487,新規,0,2025-01-16,2025-01-16,株式会社ＰＳＣ,,株式会社,東京都,八王子市,小比企町１２９２番地１５,,13,201,1930934,,,,,,,2025-01-16,1,,,,,ピーエスシー,0
358,2010401187516,新規,0,2025-01-16,2025-01-16,株式会社Ｉｎｆｉｎｉｔｙ　Ｃｌｉｍｂ,,株式会社,東京都,港区,新橋４丁目１４番１新橋ＡＵＮＢＬＤＧ４階,,13,103,1050004,,,,,,,2025-01-16,1,,,,,インフィニティクライム,0
359,2010401187524,新規,0,2025-01-16,2025-01-16,株式会社竹富,,株式会社,東京都,港区,西麻布１丁目１１番６－１２０５号,,13,103,1060031,,,,,,,2025-01-16,1,,,,,タケトミ,0
360,2010401187607,新規,0,2025-01-16,2025-01-16,株式会社ａｃ,,株式会社,東京都,港区,新橋６丁目１３番９号１階,,13,103,1050004,,,,,,,2025-01-16,1,,,,,エーシー,0
381,2010601066569,新規,0,2025-01-16,2025-01-16,株式会社ｎｏｔｅ　ａｒｃｈｉｔｅｃｔｓ一級建築士事務所,,株式会社,東京都,江東区,塩浜１丁目１番１３－７０９号,,13,108,1350043,,,,,,,2025-01-16,1,,,,,ノートアーキテクツイッキュウケンチクシジムショ,0
382,2010601066593,新規,0,2025-01-16,2025-01-16,Ｔｅｉｍｅ株式会社,,株式会社,東京都,墨田区,太平４丁目２２番６,,13,107,1300012,,,,,,,2025-01-16,1,,,,,テイム,0
384,2010603011325,新規,0,2025-01-16,2025-01-16,ＴＮ　Ｌｅｉｓｕｒｅ　Ｃｒｅａｔｅ合同会社,,合同会社,東京都,墨田区,押上２丁目１８番１２号,,13,107,1310045,,,,,,,2025-01-16,1,,,,,ティーエヌレジャークリエイト,0
385,2010701047106,新規,0,2025-01-16,2025-01-16,株式会社アスカトレーディング,,株式会社,東京都,品川区,南大井６丁目１番８号アスカビル２Ｆ,,13,109,1400013,,,,,,,2025-01-16,1,,,,,アスカトレーディング,0
386,2010803005234,新規,0,2025-01-16,2025-01-16,合同会社ｅｌｅｖｅｎ　ｌｏｇｉｃｓ,,合同会社,東京都,大田区,田園調布１丁目４１番６号,,13,111,1450071,,,,,,,2025-01-16,1,,,,,エレブンロジックス,0
388,2010901056658,新規,0,2025-01-16,2025-01-16,株式会社エスエスシー,,株式会社,東京都,世田谷区,玉川田園調布２丁目９番３号,,13,112,1580085,,,,,,,2025-01-16,1,,,,,エスエスシー,0
395,2011001166901,新規,0,2025-01-16,2025-01-16,株式会社Ｇｒｉｐ,,株式会社,東京都,渋谷区,道玄坂１丁目１０番８号渋谷道玄坂東急ビル２Ｆ－Ｃ,,13,113,1500043,,,,,,,2025-01-16,1,,,,,グリップ,0
396,2011003020809,新規,0,2025-01-16,2025-01-16,合同会社ＯＤＭ,,合同会社,東京都,渋谷区,神南１丁目１１番４号ＦＰＧリンクス神南５階,,13,113,1500041,,,,,,,2025-01-16,1,,,,,オーディーエム,0
402,2011105011301,新規,0,2025-01-16,2025-01-16,アイエクシード社会保険労務士法人,,その他の設立登記法人,東京都,新宿区,高田馬場１丁目２７番１３号プラムスビル２階,,13,104,1690075,,,,,,,2025-01-16,1,,,,,アイエクシード,0
403,2011301030294,新規,0,2025-01-16,2025-01-16,株式会社楽匠,,株式会社,東京都,杉並区,西荻北３丁目１２番６号３階,,13,115,1670042,,,,,,,2025-01-16,1,,,,,ラクショウ,0
407,2011403004592,新規,0,2025-01-16,2025-01-16,明皇合同会社,,合同会社,東京都,板橋区,前野町６丁目２６番７号ヴィラサンベルナールときわ台１０１号,,13,119,1740063,,,,,,,2025-01-16,1,,,,,メイコウ,0
410,2011701027956,新規,0,2025-01-16,2025-01-16,思奕株式会社,,株式会社,東京都,江戸川区,西葛西５丁目７番６号－３０５,,13,123,1340088,,,,,,,2025-01-16,1,,,,,シエキ,0
430,2020001160822,新規,0,2025-01-16,2025-01-16,株式会社ｅ‐ｃｒａｆｔ．,,株式会社,神奈川県,川崎市高津区,蟹ケ谷１６８番地１０,,14,134,2130025,,,,,,,2025-01-16,1,,,,,イークラフト,0
431,2020001160979,新規,0,2025-01-16,2025-01-16,株式会社ナスシル,,株式会社,神奈川県,横浜市旭区,上白根１丁目３番１５号,,14,112,2410002,,,,,,,2025-01-16,1,,,,,ナスシル,0
433,2020003027557,新規,0,2025-01-16,2025-01-16,合同会社カワサキサクラテラス,,合同会社,神奈川県,川崎市川崎区,小田栄２丁目２番２－６２３号,,14,131,2100843,,,,,,,2025-01-16,1,,,,,カワサキサクラテラス,0
434,2020003027565,新規,0,2025-01-16,2025-01-16,西脇商会合同会社,,合同会社,神奈川県,横浜市旭区,今宿２丁目６１番１号,,14,112,2410817,,,,,,,2025-01-16,1,,,,,ニシワキショウカイ,0
440,2021003015460,新規,0,2025-01-16,2025-01-16,Ｎａｙｒａ　Ｍｏｔｏｒ　Ｔｒａｄｉｎｇ合同会社,,合同会社,神奈川県,海老名市,杉久保南１丁目６番１－２０６号,,14,215,2430427,,,,,,,2025-01-16,1,,,,,ナイラモータートレーディング,0
444,2030001164384,新規,0,2025-01-16,2025-01-16,株式会社一信,,株式会社,埼玉県,入間市,大字寺竹８０７番地１,,11,225,3580045,,,,,,,2025-01-16,1,,,,,イッシン,0
449,2030005022002,新規,0,2025-01-16,2025-01-16,社会保険労務士法人アラヰ事務所,,その他の設立登記法人,埼玉県,熊谷市,石原２丁目６７番地,,11,202,3600816,,,,,,,2025-01-16,1,,,,,アライジムショ,0
455,2040001136985,新規,0,2025-01-16,2025-01-16,株式会社ベース,,株式会社,千葉県,鎌ケ谷市,佐津間７３４番１号,,12,224,2730136,,,,,,,2025-01-16,1,,,,,ベース,0
456,2040001136993,新規,0,2025-01-16,2025-01-16,オダ建設工業株式会社,,株式会社,千葉県,柏市,豊四季台１丁目４番４７号,,12,217,2770845,,,,,,,2025-01-16,1,,,,,オダケンセツコウギョウ,0
460,2040003026565,新規,0,2025-01-16,2025-01-16,合同会社ＫＪプランニング,,合同会社,千葉県,松戸市,樋野口８８５番地グランピニエール松戸３０２号,,12,207,2710067,,,,,,,2025-01-16,1,,,,,ケージェープランニング,0
461,2040003026581,新規,0,2025-01-16,2025-01-16,合同会社ＭａｕＬｏａ,,合同会社,千葉県,市川市,八幡３丁目９番１６－２０２号（メゾンバリュアブル）,,12,203,2720021,,,,,,,2025-01-16,1,,,,,マウロア,0
463,2040005022629,新規,0,2025-01-16,2025-01-16,司法書士法人ＬＥＧＡＬＭＯＴ,,その他の設立登記法人,千葉県,船橋市,前原西２丁目１２－１－１２０２,,12,204,2740825,,,,,,,2025-01-16,1,,,,,リーガルモット,0
469,2070001042537,新規,0,2025-01-16,2025-01-16,清水空調設備株式会社,,株式会社,群馬県,安中市,原市３４７３番地７,,10,211,3790133,,,,,,,2025-01-16,1,,,,,シミズクウチョウセツビ,0
472,2080101025242,新規,0,2025-01-16,2025-01-16,ＩＮＤＯＮＥＳＩＡ　ＳＰＩＣＥＳＨＩＰ株式会社,,株式会社,静岡県,駿東郡小山町,大胡田９６０番地１,,22,344,4101317,,,,,,,2025-01-16,1,,,,,インドネシアスパイスシップ,0
476,2090001019095,新規,0,2025-01-16,2025-01-16,つむぐ舎株式会社,,株式会社,山梨県,南アルプス市,六科５５７番地５,,19,208,4000206,,,,,,,2025-01-16,1,,,,,ツムグヤ,0
484,2120001271675,新規,0,2025-01-16,2025-01-16,株式会社ＯＮＥ　ＬＡＭＰ,,株式会社,大阪府,大阪市西成区,太子１丁目４番５号,,27,122,5570002,,,,,,,2025-01-16,1,,,,,ワンランプ,0
485,2120001271873,新規,0,2025-01-16,2025-01-16,株式会社フラットワークス,,株式会社,大阪府,大阪市阿倍野区,阪南町４丁目４番１８号,,27,119,5450021,,,,,,,2025-01-16,1,,,,,フラットワークス,0
486,2120001271881,新規,0,2025-01-16,2025-01-16,株式会社Ａｖｅｎｉｒ,,株式会社,大阪府,大阪市北区,豊崎４丁目１番１７－５０９号,,27,127,5310072,,,,,,,2025-01-16,1,,,,,アベニール,0
487,2120001271898,新規,0,2025-01-16,2025-01-16,株式会社ＪＨシャイングライフ,,株式会社,大阪府,大阪市住之江区,安立１丁目２番１３号,,27,125,5590003,,,,,,,2025-01-16,1,,,,,ジェーエイチシャイングライフ,0
488,2120001271923,新規,0,2025-01-16,2025-01-16,晨＿株式会社,00137661,株式会社,大阪府,大阪市西成区,天下茶屋東２丁目１１－３,,27,122,5570011,,,,,,,2025-01-16,1,,,,,チンユウ,0
489,2120001272013,新規,0,2025-01-16,2025-01-16,株式会社Ｃｉｅｌｏ,,株式会社,大阪府,大阪市都島区,東野田町２丁目７番１２号タワーレジデンス１２０３号室,,27,102,5340024,,,,,,,2025-01-16,1,,,,,シエロ,0
490,2120003028248,新規,0,2025-01-16,2025-01-16,合同会社ＦＯＲＴＥ,,合同会社,大阪府,大阪市城東区,鴫野西２丁目１番３－６０１号,,27,118,5360014,,,,,,,2025-01-16,1,,,,,フォルテ,0
491,2120003028355,新規,0,2025-01-16,2025-01-16,合同会社Ｋｏｊｉｍａ,,合同会社,大阪府,大阪市北区,豊崎３丁目１８番３－１５０６号,,27,127,5310072,,,,,,,2025-01-16,1,,,,,コジマ,0
504,2130001078780,新規,0,2025-01-16,2025-01-16,株式会社Ｄａｙ　Ｍａｎｏｒ　Ｃｌｕｂ　Ｊａｐａｎ,,株式会社,京都府,京都市中京区,西洞院通夷川下る薬師町６４４番地１－２０５,,26,104,6040062,,,,,,,2025-01-16,1,,,,,デイマナークラブジャパン,0
513,2140001137065,新規,0,2025-01-16,2025-01-16,株式会社ＡＴＡＲＩ,,株式会社,兵庫県,尼崎市,武庫元町２丁目１８番８号,,28,202,6610043,,,,,,,2025-01-16,1,,,,,アタリ,0
537,2180001164931,新規,0,2025-01-16,2025-01-16,優和電設株式会社,,株式会社,愛知県,あま市,七宝町秋竹杁先７５０番地２,,23,237,4970003,,,,,,,2025-01-16,1,,,,,ユウワデンセツ,0
545,2180003027839,新規,0,2025-01-16,2025-01-16,合同会社Ｄｏｒｉｃａ,,合同会社,愛知県,長久手市,打越１０９サンメイト３Ｃ号室,,23,238,4801152,,,,,,,2025-01-16,1,,,,,ドリカ,0
550,2180005020916,新規,0,2025-01-16,2025-01-16,一般社団法人名駅南エリアマネジメント,,その他の設立登記法人,愛知県,名古屋市中村区,名駅南２丁目１１番４２号,,23,105,4500003,,,,,,,2025-01-16,1,,,,,メイエキミナミエリアマネジメント,0
578,2200003006658,新規,0,2025-01-16,2025-01-16,合同会社ふるさとリニューアル,,合同会社,岐阜県,大垣市,室村町１丁目１７５番地７,,21,202,5030026,,,,,,,2025-01-16,1,,,,,フルサトリニューアル,0
583,2230001020708,新規,0,2025-01-16,2025-01-16,株式会社文淵,,株式会社,富山県,富山市,銀嶺町１４番１５号,,16,201,9318451,,,,,,,2025-01-16,1,,,,,ブンエン,0
599,2280003001908,新規,0,2025-01-16,2025-01-16,合同会社てのひら,,合同会社,島根県,松江市,矢田町８８番地１,,32,201,6900021,,,,,,,2025-01-16,1,,,,,テノヒラ,0
613,2290001108530,新規,0,2025-01-16,2025-01-16,ＳＡＮＮＯ株式会社,,株式会社,福岡県,久留米市,国分町８２８番地９,,40,203,8390863,,,,,,,2025-01-16,1,,,,,サンノウ,0
614,2290001108613,新規,0,2025-01-16,2025-01-16,株式会社ベリタストレード,,株式会社,福岡県,福岡市中央区,天神４丁目６－２８天神ファーストビル７階,,40,133,8100001,,,,,,,2025-01-16,1,,,,,ベリタストレード,0
615,2290001108638,新規,0,2025-01-16,2025-01-16,株式会社レアライン,,株式会社,福岡県,福岡市中央区,警固１丁目６番２６号、２０６号室,,40,133,8100023,,,,,,,2025-01-16,1,,,,,レアライン,0
620,2290801031188,新規,0,2025-01-16,2025-01-16,株式会社メルシア,,株式会社,福岡県,北九州市八幡東区,清田２丁目１４番２７号,,40,108,8050034,,,,,,,2025-01-16,1,,,,,メルシア,0
623,2300001014033,新規,0,2025-01-16,2025-01-16,株式会社ＨＯＰＥ,,株式会社,佐賀県,佐賀市,水ヶ江１丁目４番４１－２０１号,,41,201,8400054,,,,,,,2025-01-16,1,,,,,ホープ,0
640,2330001032809,新規,0,2025-01-16,2025-01-16,株式会社ＵＴＧエンターテイメント,,株式会社,熊本県,熊本市中央区,島崎１丁目３１番１－４０９号,,43,101,8600073,,,,,,,2025-01-16,1,,,,,ユーティージーエンターテイメント,0
642,2340003004706,新規,0,2025-01-16,2025-01-16,神門合同会社,,合同会社,鹿児島県,鹿児島市,谷山中央２丁目５９２番地３トーカンマンション谷山中央２０５号,,46,201,8910141,,,,,,,2025-01-16,1,,,,,カミド,0
645,2360003014570,新規,0,2025-01-16,2025-01-16,合同会社皆良空調,,合同会社,沖縄県,うるま市,字仲嶺５３０番地９仲嶺ハイツＡ－９,,47,213,9042226,,,,,,,2025-01-16,1,,,,,カイラクウチョウ,0
646,2380001035030,新規,0,2025-01-16,2025-01-16,株式会社孝來創建,,株式会社,福島県,相馬市,今田字土武５９番地,,07,209,9792541,,,,,,,2025-01-16,1,,,,,コウライソウケン,0
650,2390003002341,新規,0,2025-01-16,2025-01-16,合同会社ルピナス,,合同会社,山形県,米沢市,大字花沢４８０番地の１,,06,202,9920021,,,,,,,2025-01-16,1,,,,,ルピナス,0
660,2470001020535,新規,0,2025-01-16,2025-01-16,株式会社アイデアバンク,,株式会社,香川県,さぬき市,造田宮西１７００番地１０２,,37,206,7692311,,,,,,,2025-01-16,1,,,,,アイデアバンク,0
664,2700150128758,新規,0,2025-01-16,2025-01-16,ＳｈｅｎＺｈｅｎＳｈｉＸｉＥｒＷｏＫｅＪｉＹｏｕＸｉａｎＧｏｎｇＳｉ,,外国会社等,,,,,,,,Ｂｕｉｌｄｉｎｇ　７，１４ｔｈ　Ｆｌｏｏｒ，Ｕｎｉｔ　Ｂ－Ｈ，Ｂａｏｎｅｎｇ　Ｔｅｃｈｎｏｌｏｇｙ　Ｐａｒｋ，Ｑｉｎｇｈｕ　Ｃｏｍｍｕｎｉｔｙ，Ｑｉｎｇｈｕ　Ｖｉｌｌａｇｅ，Ｌｏｎｇｈｕａ　Ｓｔｒｅｅｔ，Ｌｏｎｇｈｕａ　Ｄｉｓｔｒｉｃｔ，Ｓｈｅｎｚｈｅｎ　Ｃｉｔｙ,,,,,,2025-01-16,1,,,,,シンセンシシエルウォカギユウゲンコウシ,0
675,3010003046078,新規,0,2025-01-16,2025-01-16,合同会社そわか総合研究所,,合同会社,東京都,千代田区,神田和泉町１番地６－１６ヤマトビル４０５,,13,101,1010024,,,,,,,2025-01-16,1,,,,,ソワカソウゴウケンキュウジョ,0
676,3010003046094,新規,0,2025-01-16,2025-01-16,エンパワーメント・ラボ合同会社,,合同会社,東京都,中央区,晴海５丁目５－１－９０３,,13,102,1040053,,,,,,,2025-01-16,1,,,,,エンパワーメントラボ,0
679,3010005039410,新規,0,2025-01-16,2025-01-16,一般社団法人プロスパーワン,,その他の設立登記法人,東京都,千代田区,二番町１番地２・番町ハイム９０４号室,,13,101,1020084,,,,,,,2025-01-16,1,,,,,プロスパーワン,0
704,3010401187507,新規,0,2025-01-16,2025-01-16,グローブ・キャピタル・インベストメント株式会社,,株式会社,東京都,港区,白金１丁目２５番１１－１７０７号,,13,103,1080072,,,,,,,2025-01-16,1,,,,,グローブキャピタルインベストメント,0
705,3010401187597,新規,0,2025-01-16,2025-01-16,運賢企業株式会社,,株式会社,東京都,港区,六本木４丁目３番２１－ブランズ六本木ザ・レジデンス６０４号,,13,103,1060032,,,,,,,2025-01-16,1,,,,,ウンケンキギョウ,0
710,3010403034153,新規,0,2025-01-16,2025-01-16,まるごと経理合同会社,,合同会社,東京都,港区,新橋４丁目１４番１新橋ＡＵＮＢＬＤＧ４階,,13,103,1050004,,,,,,,2025-01-16,1,,,,,マルゴトケイリ,0
712,3010501053468,新規,0,2025-01-16,2025-01-16,株式会社ゼリーハウス,,株式会社,東京都,台東区,竜泉２丁目１９番１４－４０１号,,13,106,1100012,,,,,,,2025-01-16,1,,,,,ゼリーハウス,0
715,3010601066584,新規,0,2025-01-16,2025-01-16,株式会社フルスト,,株式会社,東京都,江東区,大島３丁目１番１１号,,13,108,1360072,,,,,,,2025-01-16,1,,,,,フルスト,0
716,3010601066592,新規,0,2025-01-16,2025-01-16,Ｓｔｒｉｋｅ　ｗａｖｅ株式会社,,株式会社,東京都,江東区,大島７丁目１９番７号－２０５,,13,108,1360072,,,,,,,2025-01-16,1,,,,,ストライクウェブ,0
718,3010603011324,新規,0,2025-01-16,2025-01-16,合同会社Ｅｎｖｉｓｉｏｎ,,合同会社,東京都,江東区,越中島１丁目３番１－３２８号,,13,108,1350044,,,,,,,2025-01-16,1,,,,,エンビジョン,0
720,3010801035736,新規,0,2025-01-16,2025-01-16,株式会社ｉｎｃｏｍｐｌｅｔｅ,,株式会社,東京都,大田区,山王２丁目５番１３号５Ｆ,,13,111,1430023,,,,,,,2025-01-16,1,,,,,インコンプリート,0
721,3010805003152,新規,0,2025-01-16,2025-01-16,一般財団法人東京シューレ財団,,その他の設立登記法人,東京都,大田区,仲六郷２丁目７番１１号,,13,111,1440055,,,,,,,2025-01-16,1,,,,,トウキョウシューレザイダン,0
722,3010901056599,新規,0,2025-01-16,2025-01-16,株式会社ＫＩＭＯＮＯ　ＤＡＮＣＥ　ＪＡＰＡＮ,,株式会社,東京都,世田谷区,太子堂２丁目１７‐５佐藤ビル３階,,13,112,1540004,,,,,,,2025-01-16,1,,,,,キモノダンスジャパン,0
723,3010901056649,新規,0,2025-01-16,2025-01-16,ＹＯＵ‐ＭＥ株式会社,,株式会社,東京都,世田谷区,代沢５丁目３２－３,,13,112,1550032,,,,,,,2025-01-16,1,,,,,ユーミー,0
730,3011001166958,新規,0,2025-01-16,2025-01-16,株式会社ＭＫＳ,,株式会社,東京都,渋谷区,恵比寿４丁目１２番１３号４０１,,13,113,1500013,,,,,,,2025-01-16,1,,,,,エムケーエス,0
737,3011101110147,新規,0,2025-01-16,2025-01-16,株式会社ＹＳ　Ｌａｂｏ,,株式会社,東京都,新宿区,若松町２５－１０田代ビル第６－１０１,,13,104,1620056,,,,,,,2025-01-16,1,,,,,ワイエスラボ,0
738,3011101110238,新規,0,2025-01-16,2025-01-16,株式会社ＤＲＬ,,株式会社,東京都,新宿区,四谷２丁目８番地藤井ビル５Ｆ、Ｔ．Ｒ＆Ｄ内,,13,104,1600004,,,,,,,2025-01-16,1,,,,,ディーアールエル,0
739,3011101110279,新規,0,2025-01-16,2025-01-16,株式会社ＲＩＢＥＳＴ,,株式会社,東京都,新宿区,原町１丁目１番地ウィルローズ市谷柳町２０４,,13,104,1620053,,,,,,,2025-01-16,1,,,,,リベスト,0
740,3011101110287,新規,0,2025-01-16,2025-01-16,株式会社Ｎｅｏ．Ｌｉｎｋ,,株式会社,東京都,新宿区,西落合３丁目１番２１号マウンテンハイム２０５,,13,104,1610031,,,,,,,2025-01-16,1,,,,,ネオリンク,0
741,3011101110295,新規,0,2025-01-16,2025-01-16,ＣＩＲＸ株式会社,,株式会社,東京都,新宿区,百人町１丁目１８番８号大久保カドビル２階ＬｉｎｋＳｐａｃｅ百人町Ｗ０８号室,,13,104,1690073,,,,,,,2025-01-16,1,,,,,シアックス,0
750,3011701027955,新規,0,2025-01-16,2025-01-16,全通株式会社,,株式会社,東京都,江戸川区,西葛西５丁目７番６号－５０７,,13,123,1340088,,,,,,,2025-01-16,1,,,,,ゼンツウ,0
751,3011701027963,新規,0,2025-01-16,2025-01-16,宝麗＿株式会社,00137662,株式会社,東京都,江戸川区,東小岩４丁目１３番１１号,,13,123,1330052,,,,,,,2025-01-16,1,,,,,ホウレイキン,0
755,3011801045460,新規,0,2025-01-16,2025-01-16,株式会社古山総業,,株式会社,東京都,葛飾区,西水元３丁目２１番１８号,,13,122,1250031,,,,,,,2025-01-16,1,,,,,フルヤマソウギョウ,0
773,3020001160771,新規,0,2025-01-16,2025-01-16,イチ星リフォーム株式会社,,株式会社,神奈川県,川崎市中原区,中丸子４６１番地ワカバパレス３０１,,14,133,2110012,,,,,,,2025-01-16,1,,,,,イチボシリフォーム,0
774,3020001160846,新規,0,2025-01-16,2025-01-16,ＩＮＤＯＧＯ株式会社,,株式会社,神奈川県,横浜市西区,浅間町１丁目４番３号ウィザードビル４０２,,14,103,2200072,,,,,,,2025-01-16,1,,,,,インドゴ,0
775,3020001160887,新規,0,2025-01-16,2025-01-16,株式会社トリニティ,,株式会社,神奈川県,川崎市川崎区,昭和２丁目６番２２号,,14,131,2100813,,,,,,,2025-01-16,1,,,,,トリニティ,0
776,3020001160920,新規,0,2025-01-16,2025-01-16,株式会社ＺＩＢＡＮ,,株式会社,神奈川県,横浜市金沢区,大道２丁目２２番４２号,,14,108,2360035,,,,,,,2025-01-16,1,,,,,ジバン,0
777,3020001160994,新規,0,2025-01-16,2025-01-16,株式会社モトリタ,,株式会社,神奈川県,横浜市港北区,下田町５丁目３７番３６号,,14,109,2230064,,,,,,,2025-01-16,1,,,,,モトリタ,0
778,3020001161010,新規,0,2025-01-16,2025-01-16,株式会社花一石材工業,,株式会社,神奈川県,横浜市西区,中央１丁目３番１１号,,14,103,2200051,,,,,,,2025-01-16,1,,,,,ハナイチセキザイコウギョウ,0
780,3020003027564,新規,0,2025-01-16,2025-01-16,ＴＧ投資合同会社,,合同会社,神奈川県,横浜市港北区,高田東４丁目１４番６号,,14,109,2230065,,,,,,,2025-01-16,1,,,,,ティージートウシ,0
785,3021003015410,新規,0,2025-01-16,2025-01-16,Ｓ‐ＪＭ合同会社,,合同会社,神奈川県,藤沢市,弥勒寺１丁目２１番１１～３１１号,,14,205,2510016,,,,,,,2025-01-16,1,,,,,エスジェイエム,0
786,3021003015476,新規,0,2025-01-16,2025-01-16,合同会社Ｍｅｇｕ　Ｇｅｌａｔｏ,,合同会社,神奈川県,相模原市緑区,太井２４３－１,,14,151,2520152,,,,,,,2025-01-16,1,,,,,メグジェラート,0
789,3030001164227,新規,0,2025-01-16,2025-01-16,Ｓｅｒｅｎｉｔｙ株式会社,,株式会社,埼玉県,児玉郡美里町,大字甘粕７５０－１,,11,381,3670113,,,,,,,2025-01-16,1,,,,,セレニティ,0
790,3030001164383,新規,0,2025-01-16,2025-01-16,ダイヤモンドハウス株式会社,,株式会社,埼玉県,朝霞市,膝折町２丁目１７－５６,,11,227,3510014,,,,,,,2025-01-16,1,,,,,ダイヤモンドハウス,0
806,3040001136992,新規,0,2025-01-16,2025-01-16,株式会社ＢＩＧ　ＡＳＩＡ,,株式会社,千葉県,白井市,復１４４９－８,,12,232,2701422,,,,,,,2025-01-16,1,,,,,ビッグアジア,0
807,3040001137000,新規,0,2025-01-16,2025-01-16,株式会社宮コーポレーション,,株式会社,千葉県,流山市,大字西深井８４５番地の４,,12,220,2700107,,,,,,,2025-01-16,1,,,,,ミヤコーポレーション,0
808,3040001137009,新規,0,2025-01-16,2025-01-16,株式会社ＭＳＹ,,株式会社,千葉県,千葉市中央区,富士見２丁目２１番１号第二東和商事ビル２階,,12,101,2600015,,,,,,,2025-01-16,1,,,,,エムエスワイ,0
812,3040003026556,新規,0,2025-01-16,2025-01-16,ＮＥＰＡ　ＥＮＴＥＲＰＲＩＳＥ合同会社,,合同会社,千葉県,富里市,日吉台２丁目１９番地１５,,12,233,2860201,,,,,,,2025-01-16,1,,,,,ネパエンタープライズ,0
816,3050001055969,新規,0,2025-01-16,2025-01-16,株式会社匯成,,株式会社,茨城県,かすみがうら市,新治８９２－１,,08,230,3150051,,,,,,,2025-01-16,1,,,,,カイセイ,0
820,3070001042486,新規,0,2025-01-16,2025-01-16,株式会社イシダホールディングス,,株式会社,群馬県,太田市,由良町１０３７番地７,,10,205,3730036,,,,,,,2025-01-16,1,,,,,イシダホールディングス,0
826,3090003002718,新規,0,2025-01-16,2025-01-16,ＫＳパートナーズ合同会社,,合同会社,山梨県,南アルプス市,鏡中條１４４番地１,,19,208,4000332,,,,,,,2025-01-16,1,,,,,ケイエスパートナーズ,0
827,3090005007673,新規,0,2025-01-16,2025-01-16,パストラルびゅう桂台団地管理組合法人,,その他の設立登記法人,山梨県,大月市,猿橋町桂台１丁目２０番地５,,19,206,4090618,,,,,,,2025-01-16,1,,,,,パストラルビュウカツラダイ,0
830,3100001038209,新規,0,2025-01-16,2025-01-16,大きな森株式会社,,株式会社,長野県,小諸市,大字柏木３番地１７,,20,208,3840055,,,,,,,2025-01-16,1,,,,,オオキナモリ,0
848,3120001271740,新規,0,2025-01-16,2025-01-16,恒誠株式会社,,株式会社,大阪府,大阪市阿倍野区,阿倍野筋４丁目５－１３－２階,,27,119,5450052,,,,,,,2025-01-16,1,,,,,コウセイ,0
849,3120001271889,新規,0,2025-01-16,2025-01-16,一級建築士事務所株式会社Ｓｏｂｕ,,株式会社,大阪府,大阪市淀川区,西中島４丁目３番４－５０３号,,27,123,5320011,,,,,,,2025-01-16,1,,,,,イッキュウケンチクシジムショソブ,0
850,3120001271939,新規,0,2025-01-16,2025-01-16,ウェルメイド仮設株式会社,,株式会社,大阪府,大阪市浪速区,敷津二丁目１３番地２－３０１室,,27,111,5560000,,,,,,,2025-01-16,1,,,,,ウェルメイドカセツ,0
851,3120001271955,新規,0,2025-01-16,2025-01-16,九三株式会社,,株式会社,大阪府,大阪市城東区,東中浜１丁目７番２２号、２０２号室,,27,118,5360023,,,,,,,2025-01-16,1,,,,,キュウサン,0
853,3120003028412,新規,0,2025-01-16,2025-01-16,ＭＯ企画合同会社,,合同会社,大阪府,大阪市城東区,鴫野西４丁目９番１７－５１１号,,27,118,5360014,,,,,,,2025-01-16,1,,,,,エムオーキカク,0
858,3120901050277,新規,0,2025-01-16,2025-01-16,株式会社Ｔｈｒｅｅ‐Ｋ一級建築士事務所,,株式会社,大阪府,豊中市,北条町１丁目１４番１２号,,27,203,5610812,,,,,,,2025-01-16,1,,,,,スリーケーイッキュウケンチクシジムショ,0
860,3120903005510,新規,0,2025-01-16,2025-01-16,ＭアンドＭプラス１合同会社,,合同会社,大阪府,摂津市,東正雀２番１５－１号,,27,224,5660025,,,,,,,2025-01-16,1,,,,,エムアンドエムプラスワン,0
864,3130003010138,新規,0,2025-01-16,2025-01-16,合同会社ＧＵＴＳ,,合同会社,京都府,宇治市,小倉町天王４８,,26,204,6110042,,,,,,,2025-01-16,1,,,,,ガッツ,0
866,3130005017271,新規,0,2025-01-16,2025-01-16,医療法人高仁会,00137656,その他の設立登記法人,京都府,京都市伏見区,醍醐高畑町３０－１－２－２２パセオ・ダイゴロー西館１階,,26,109,6011375,,,,,,,2025-01-16,1,,,,,コウジンカイ,0
871,3140001137089,新規,0,2025-01-16,2025-01-16,株式会社グレイス,,株式会社,兵庫県,加古郡播磨町,宮西１丁目４－５,,28,382,6750145,,,,,,,2025-01-16,1,,,,,グレイス,0
872,3140001137122,新規,0,2025-01-16,2025-01-16,ＫＡＣ株式会社,,株式会社,兵庫県,西宮市,神呪町７番３－１号,,28,204,6620823,,,,,,,2025-01-16,1,,,,,ケーエーシー,0
873,3140003021555,新規,0,2025-01-16,2025-01-16,合同会社Ｏｎ　ｔｈｅ　Ｂｅａｃｈ,,合同会社,兵庫県,西宮市,西平町２番１７－２０５,,28,204,6620093,,,,,,,2025-01-16,1,,,,,オンザビーチ,0
874,3150001027818,新規,0,2025-01-16,2025-01-16,株式会社カナエル,,株式会社,奈良県,生駒市,小平尾町３８６番地１第６サンコウヒルズ東館３０１,,29,209,6300226,,,,,,,2025-01-16,1,,,,,カナエル,0
897,3180001164856,新規,0,2025-01-16,2025-01-16,株式会社ＹＯＡＫＥ,,株式会社,愛知県,名古屋市西区,那古野２丁目１４番１号なごのキャンパス,,23,104,4510042,,,,,,,2025-01-16,1,,,,,ヨアケ,0
898,3180001164906,新規,0,2025-01-16,2025-01-16,株式会社アップホーム,,株式会社,愛知県,尾張旭市,緑町緑ケ丘１２３番地７５,,23,226,4880822,,,,,,,2025-01-16,1,,,,,アップホーム,0
899,3180001164955,新規,0,2025-01-16,2025-01-16,株式会社ＩＴＯ‐ｗｏｒｋｓ,,株式会社,愛知県,名古屋市北区,丸新町４０７－１,,23,103,4620063,,,,,,,2025-01-16,1,,,,,イトウワークス,0
900,3180001165004,新規,0,2025-01-16,2025-01-16,株式会社ｏｆｆｉｃｅ　Ｙ,,株式会社,愛知県,名古屋市千種区,京命２丁目１１番５号,,23,101,4640004,,,,,,,2025-01-16,1,,,,,オフィスワイ,0
910,3180003027862,新規,0,2025-01-16,2025-01-16,合同会社新章,,合同会社,愛知県,稲沢市,子生和住吉町７番地２,,23,220,4928107,,,,,,,2025-01-16,1,,,,,シンショウ,0
924,3180301039436,新規,0,2025-01-16,2025-01-16,株式会社ポンパドール,,株式会社,愛知県,新城市,市場台３丁目８番地２,,23,221,4411348,,,,,,,2025-01-16,1,,,,,ポンパドール,0
937,3200001043339,新規,0,2025-01-16,2025-01-16,株式会社庭の木,,株式会社,岐阜県,養老郡養老町,石畑１３７５番地５ヴィーブル養老１０３号室,,21,341,5031251,,,,,,,2025-01-16,1,,,,,ニワノキ,0
944,3200003006657,新規,0,2025-01-16,2025-01-16,合同会社イベントホース,,合同会社,岐阜県,羽島郡岐南町,薬師寺７丁目４５番地,,21,302,5016014,,,,,,,2025-01-16,1,,,,,イベントホース,0
948,3220001026424,新規,0,2025-01-16,2025-01-16,株式会社ＲＲＲ‐ＩＮＴＥＲＩＯＲ,,株式会社,石川県,白山市,宮永町２７３５番地,,17,210,9240017,,,,,,,2025-01-16,1,,,,,アールインテリア,0
949,3220001026432,新規,0,2025-01-16,2025-01-16,株式会社のと産業,,株式会社,石川県,珠洲市,若山町出田２０部６番地１,,17,205,9271233,,,,,,,2025-01-16,1,,,,,ノトサンギョウ,0
955,3240001064389,新規,0,2025-01-16,2025-01-16,株式会社ｓｈｉｍａｊｉ　ｃｏｆｆｅｅ,,株式会社,広島県,広島市南区,京橋町８番１１号,,34,103,7320828,,,,,,,2025-01-16,1,,,,,シマジコーヒー,0
958,3250003003625,新規,0,2025-01-16,2025-01-16,合同会社Ｍｅｌｉａ,,合同会社,山口県,周南市,銀座１丁目１５－３,,35,215,7450032,,,,,,,2025-01-16,1,,,,,メリア,0
960,3260001039810,新規,0,2025-01-16,2025-01-16,Ｎｉｎｅ株式会社,,株式会社,岡山県,倉敷市,真備町下二万１８１３番地３,,33,202,7101314,,,,,,,2025-01-16,1,,,,,ナイン,0
966,3290001108604,新規,0,2025-01-16,2025-01-16,株式会社アンジェロルーチェ,,株式会社,福岡県,福岡市中央区,港１丁目２番１８号ＫＤＸレジデンス大濠ハーバービュータワー２４１０号,,40,133,8100075,,,,,,,2025-01-16,1,,,,,アンジェロルーチェ,0
967,3290001108629,新規,0,2025-01-16,2025-01-16,株式会社アットオフィス,,株式会社,福岡県,飯塚市,立岩１６２５番地１２,,40,205,8200003,,,,,,,2025-01-16,1,,,,,アットオフィス,0
982,3330001032808,新規,0,2025-01-16,2025-01-16,株式会社火乃國薬品,,株式会社,熊本県,熊本市南区,中無田町１０４７番地１,,43,104,8614116,,,,,,,2025-01-16,1,,,,,ヒノクニヤクヒン,0
991,3360003014603,新規,0,2025-01-16,2025-01-16,合同会社ＴＨ企画,,合同会社,沖縄県,宮古島市,城辺字友利１４６１番地,,47,214,9060107,,,,,,,2025-01-16,1,,,,,ティーエッチキカク,0
993,3370001052133,新規,0,2025-01-16,2025-01-16,インターリム株式会社,,株式会社,宮城県,仙台市青葉区,大町２丁目９番８―４０６号,,04,101,9800804,,,,,,,2025-01-16,1,,,,,インターリム,0
994,3370003006896,新規,0,2025-01-16,2025-01-16,アキウエステート合同会社,,合同会社,宮城県,仙台市太白区,秋保町湯元字釜土南１－１,,04,104,9820241,,,,,,,2025-01-16,1,,,,,アキウエステート,0
1009,3470001020534,新規,0,2025-01-16,2025-01-16,株式会社タカクウ,,株式会社,香川県,高松市,仏生山町甲２５２５番地５,,37,201,7618078,,,,,,,2025-01-16,1,,,,,,0
1012,3500001026098,新規,0,2025-01-16,2025-01-16,株式会社杢ラボ,,株式会社,愛媛県,伊予市,下吾川１３４０番地６,,38,210,7993111,,,,,,,2025-01-16,1,,,,,モクラボ,0
1014,3700150128749,新規,0,2025-01-16,2025-01-16,Ｔｅｎｏｖａ　Ｓ．ｐ．Ａ．,,外国会社等,茨城県,神栖市,砂山１６－１,,08,232,3140255,Ｖｉａ　Ｇｅｒｅｎｚａｎｏ，５８－２１０５３　Ｃａｓｔｅｌｌａｎｚａ－Ｉｔａｌｙ,,,,,,2025-01-16,1,,,,,テノヴア,0
1015,3700150128757,新規,0,2025-01-16,2025-01-16,ＨｅＢｅｉＡｏＷｅｉＳｉＢａｎｇＭａｏＹｉＹｏｕＸｉａｎＧｏｎｇＳｉ,,外国会社等,,,,,,,,ｃｈａｎｇａｎｑｕｊｉａｎｈｕａｂｅｉｄａｊｉｅｙｕｚｈｏｎｇｓｈａｎｌｕｊｉａｏｋｏｕｘｉｎｓｈｉｊｉｚｕａｎｓｈｉｇｕａｎｇｃｈａｎｇ１４０４　ｓｈｉｊｉａｚｈｕａｎｇｓｈｉ　ｈｅｂｅｉｓｈｅｎｇ,,,,,,2025-01-16,1,,,,,ヘベイアオウェイシバンマオイユウゲンコウシ,0
1024,4010001251281,新規,0,2025-01-16,2025-01-16,株式会社コンフォート・アット,,株式会社,東京都,中央区,月島２丁目１４番１２号,,13,102,1040052,,,,,,,2025-01-16,1,,,,,コンフォートアット,0
1025,4010001251389,新規,0,2025-01-16,2025-01-16,まるバックオフィス株式会社,,株式会社,東京都,千代田区,麹町３丁目５番地４,,13,101,1020083,,,,,,,2025-01-16,1,,,,,マルバックオフィス,0
1038,4010401187522,新規,0,2025-01-16,2025-01-16,ＬＢＢホールディングス株式会社,,株式会社,東京都,港区,虎ノ門１丁目１７番１号虎ノ門ヒルズビジネスタワー１５階,,13,103,1050001,,,,,,,2025-01-16,1,,,,,エルビービーホールディングス,0
1046,4010403034152,新規,0,2025-01-16,2025-01-16,合同会社ＩＧＮＩＴＡ,,合同会社,東京都,港区,新橋４丁目１４番１新橋ＡＵＮＢＬＤＧ４階,,13,103,1050004,,,,,,,2025-01-16,1,,,,,イグニタ,0
1047,4010403034160,新規,0,2025-01-16,2025-01-16,Ｙ．Ｎ．Ｉｎｃｏｒｐｏｒａｔｅｄ合同会社,,合同会社,東京都,港区,南青山３丁目１番３６号青山丸竹ビル６Ｆ,,13,103,1070062,,,,,,,2025-01-16,1,,,,,ワイエヌインコーポレイテッド,0
1064,4010603011315,新規,0,2025-01-16,2025-01-16,合同会社ハバリ,,合同会社,東京都,江東区,豊洲３丁目６番８‐７１４号,,13,108,1350061,,,,,,,2025-01-16,1,,,,,ハバリ,0
1069,4010701047095,新規,0,2025-01-16,2025-01-16,株式会社ブーケマーケティング,,株式会社,東京都,品川区,中延５丁目５番２０号,,13,109,1420053,,,,,,,2025-01-16,1,,,,,ブーケマーケティング,0
1070,4010703007527,新規,0,2025-01-16,2025-01-16,合同会社あきぱんだ商会,,合同会社,東京都,品川区,戸越５丁目１９－１－２３０１,,13,109,1420041,,,,,,,2025-01-16,1,,,,,,0
1072,4010801035751,新規,0,2025-01-16,2025-01-16,株式会社ＹＯＬＯＴＲＡＶＥＬ,,株式会社,東京都,大田区,南六郷３丁目１０番１６号六郷ＢＡＳＥ,,13,111,1440045,,,,,,,2025-01-16,1,,,,,ヨロトラベル,0
1076,4010901056648,新規,0,2025-01-16,2025-01-16,株式会社ユーユデザイン,,株式会社,東京都,世田谷区,桜丘５丁目２９番１３号,,13,112,1560054,,,,,,,2025-01-16,1,,,,,ユーユデザイン,0
1082,4011001167204,新規,0,2025-01-16,2025-01-16,株式会社Ｊｅｗｅｌｓ’ｆａｍｉｌｉａｒ,,株式会社,東京都,渋谷区,大山町２５番１２－４０１号パークコート渋谷大山町ザ・プラネ悠邸,,13,113,1510065,,,,,,,2025-01-16,1,,,,,ジュエルズファミリア,0
1087,4011305003022,新規,0,2025-01-16,2025-01-16,一般社団法人中小企業デジタル経営推進機構,,その他の設立登記法人,東京都,杉並区,高円寺南３丁目４６番９号,,13,115,1660003,,,,,,,2025-01-16,1,,,,,チュウショウキギョウデジタルケイエイスイシンキコウ,0
1089,4011601028359,新規,0,2025-01-16,2025-01-16,株式会社二科電設,,株式会社,東京都,練馬区,高松６丁目３７番２号,,13,120,1790075,,,,,,,2025-01-16,1,,,,,ニシナデンセツ,0
1095,4012703003175,新規,0,2025-01-16,2025-01-16,合同会社ＡＮＺ,,合同会社,東京都,西東京市,南町５丁目２０番７号,,13,229,1880012,,,,,,,2025-01-16,1,,,,,アンズ,0
1096,4012801023686,新規,0,2025-01-16,2025-01-16,株式会社セカンドゲート,,株式会社,東京都,東大和市,高木３丁目４３１－４,,13,220,2070005,,,,,,,2025-01-16,1,,,,,セカンドゲート,0
1097,4013101009608,新規,0,2025-01-16,2025-01-16,株式会社ＪＣリハビリ研究所,,株式会社,東京都,青梅市,師岡町２丁目２番地の１８,,13,205,1980031,,,,,,,2025-01-16,1,,,,,ジェシーリハビリケンキュウショ,0
1105,4020001160696,新規,0,2025-01-16,2025-01-16,株式会社管狐,,株式会社,神奈川県,横浜市西区,みなとみらい４丁目４番２号,,14,103,2200012,,,,,,,2025-01-16,1,,,,,クダギツネ,0
1106,4020001160845,新規,0,2025-01-16,2025-01-16,株式会社ＣＡＲ　ｗｉｔｈ　Ｙｏｕ,,株式会社,神奈川県,横浜市青葉区,青葉台２丁目１５番地１６,,14,117,2270062,,,,,,,2025-01-16,1,,,,,カーウィズユー,0
1107,4020001160886,新規,0,2025-01-16,2025-01-16,株式会社Ｔａｔｓｕｓｈｉｒｏ　ｃｏｒｐｏｒａｔｉｏｎ,,株式会社,神奈川県,横浜市神奈川区,七島町１番地３６,,14,102,2210061,,,,,,,2025-01-16,1,,,,,タツシロコーポレーション,0
1108,4020001160903,新規,0,2025-01-16,2025-01-16,株式会社甲辰ビルディング,,株式会社,神奈川県,横浜市神奈川区,栗田谷５番４５号,,14,102,2210804,,,,,,,2025-01-16,1,,,,,コウシンビルディング,0
1109,4020001160977,新規,0,2025-01-16,2025-01-16,株式会社ＭＯＵＮＴＡＩＮ　ＳＴＲＥＡＭ,,株式会社,神奈川県,川崎市麻生区,王禅寺東３丁目２６番２号王禅寺ショッピングプラザＡ－５,,14,137,2150018,,,,,,,2025-01-16,1,,,,,マウンテンストリーム,0
1111,4020003027547,新規,0,2025-01-16,2025-01-16,合同会社リベルイノベーションズ,,合同会社,神奈川県,横浜市中区,桜木町１丁目１０１番地１クロスゲート７階,,14,104,2310062,,,,,,,2025-01-16,1,,,,,リベルイノベーションズ,0
1112,4020003027563,新規,0,2025-01-16,2025-01-16,アビエント合同会社,,合同会社,神奈川県,川崎市麻生区,王禅寺西３丁目１０－２５,,14,137,2150017,,,,,,,2025-01-16,1,,,,,アビエント,0
1113,4020003027605,新規,0,2025-01-16,2025-01-16,合同会社ｉｎｇ,,合同会社,神奈川県,川崎市高津区,二子２丁目１番４号ＦＳビル２Ｆ－Ａ,,14,134,2130002,,,,,,,2025-01-16,1,,,,,イング,0
1115,4021001084217,新規,0,2025-01-16,2025-01-16,株式会社都築組,,株式会社,神奈川県,横須賀市,粟田１丁目１９番１号,,14,201,2390845,,,,,,,2025-01-16,1,,,,,ツヅキグミ,0
1116,4021001084225,新規,0,2025-01-16,2025-01-16,株式会社Ｍｏｖｅ　ａｎｄ　Ｌｉｖｅ,,株式会社,神奈川県,茅ヶ崎市,東海岸北４丁目１３番１７－２号,,14,207,2530053,,,,,,,2025-01-16,1,,,,,ムーブアンドライブ,0
1117,4021001084241,新規,0,2025-01-16,2025-01-16,株式会社シーアンドウェルネス,,株式会社,神奈川県,茅ヶ崎市,浜之郷３００,,14,207,2530086,,,,,,,2025-01-16,1,,,,,シーアンドウェルネス,0
1120,4021003015459,新規,0,2025-01-16,2025-01-16,フジ７モータース合同会社,,合同会社,神奈川県,綾瀬市,深谷上７丁目２１番１４号,,14,218,2521108,,,,,,,2025-01-16,1,,,,,フジセブンモータース,0
1132,4030005022009,新規,0,2025-01-16,2025-01-16,一般社団法人ａｒａｋａｗａ,,その他の設立登記法人,埼玉県,川口市,川口２丁目１６番１８－２０２号ブルジョン８,,11,203,3320015,,,,,,,2025-01-16,1,,,,,アラカワ,0
1140,4040001136950,新規,0,2025-01-16,2025-01-16,株式会社ＡＬＡＮ,,株式会社,千葉県,習志野市,鷲沼台二丁目２２番３４号,,12,216,2750000,,,,,,,2025-01-16,1,,,,,アラン,0
1141,4040001137008,新規,0,2025-01-16,2025-01-16,株式会社スタークレスト,,株式会社,千葉県,市川市,塩焼２丁目２番２号棟７１７号,,12,203,2720114,,,,,,,2025-01-16,1,,,,,スタークレスト,0
1144,4040003026539,新規,0,2025-01-16,2025-01-16,合同会社ＬＯＮＧＲＯＷＳ,,合同会社,千葉県,君津市,東坂田１丁目１番６－１４０５号,,12,225,2991144,,,,,,,2025-01-16,1,,,,,ロングロウス,0
1147,4050001055927,新規,0,2025-01-16,2025-01-16,株式会社ＭＩＹＡＢＩ,,株式会社,茨城県,神栖市,木崎２４０６番地１５８Ｎ－Ｂ－００６,,08,232,3140127,,,,,,,2025-01-16,1,,,,,ミヤビ,0
1148,4060001037825,新規,0,2025-01-16,2025-01-16,光和商事株式会社,,株式会社,栃木県,栃木市,片柳町１丁目２４番１８号,,09,203,3280053,,,,,,,2025-01-16,1,,,,,コウワショウジ,0
1149,4060001037833,新規,0,2025-01-16,2025-01-16,株式会社山之創建,,株式会社,栃木県,宇都宮市,鶴田町１４６１番地Ｙ＆Ｍグランメゾン３０５号,,09,201,3200851,,,,,,,2025-01-16,1,,,,,ヤマノソウケン,0
1152,4070001042535,新規,0,2025-01-16,2025-01-16,株式会社ＦＩＸ　ＡＲＴ,,株式会社,群馬県,高崎市,新保町１７１９番地１,,10,202,3700018,,,,,,,2025-01-16,1,,,,,フィックスアート,0
1166,4120001271789,新規,0,2025-01-16,2025-01-16,株式会社ＡＧＳスキルパートナーズ,,株式会社,大阪府,大阪市北区,梅田２丁目２番２号ヒルトンプラザウエストオフィスタワー,,27,127,5300001,,,,,,,2025-01-16,1,,,,,エイジーエススキルパートナーズ,0
1167,4120001271839,新規,0,2025-01-16,2025-01-16,株式会社ｏｎ,,株式会社,大阪府,大阪市北区,万歳町３番３９号ロジュマンタワー梅田１３０１,,27,127,5300028,,,,,,,2025-01-16,1,,,,,オン,0
1168,4120001271905,新規,0,2025-01-16,2025-01-16,株式会社イタリア機械,,株式会社,大阪府,大阪市鶴見区,茨田大宮３丁目５番２５号,,27,124,5380031,,,,,,,2025-01-16,1,,,,,イタリアキカイ,0
1169,4120001271913,新規,0,2025-01-16,2025-01-16,株式会社Ｌｉｒｉｃ　Ｗｏｒｋｓ,,株式会社,大阪府,大阪市北区,天神橋２丁目北１番１２号パティオ南森町７Ｆ－Ｂ,,27,127,5300041,,,,,,,2025-01-16,1,,,,,リリックワークス,0
1170,4120001271938,新規,0,2025-01-16,2025-01-16,星の夢株式会社,,株式会社,大阪府,大阪市東淀川区,瑞光４丁目２－２１プレアール瑞光５０２,,27,114,5330005,,,,,,,2025-01-16,1,,,,,ホシノユメ,0
1174,4120003028320,新規,0,2025-01-16,2025-01-16,合同会社天,,合同会社,大阪府,大阪市中央区,農人橋２丁目３番８－５０４号,,27,128,5400011,,,,,,,2025-01-16,1,,,,,テン,0
1175,4120003028378,新規,0,2025-01-16,2025-01-16,虹色合同会社,,合同会社,大阪府,大阪市生野区,勝山北５丁目１１番３号ハイツ勝山１０２号室,,27,116,5440033,,,,,,,2025-01-16,1,,,,,ニジイロ,0
1176,4120003028394,新規,0,2025-01-16,2025-01-16,合同会社フォルテ,,合同会社,大阪府,大阪市東住吉区,住道矢田１丁目９－１４－１０１,,27,121,5460022,,,,,,,2025-01-16,1,,,,,フォルテ,0
1177,4120005024714,新規,0,2025-01-16,2025-01-16,医療法人信,,その他の設立登記法人,大阪府,枚方市,津田駅前１丁目２８番１６号メディカルガーデン津田駅前１０１号,,27,210,5730125,,,,,,,2025-01-16,1,,,,,シン,0
1181,4120901050284,新規,0,2025-01-16,2025-01-16,株式会社Ａｎｏｔｈｅｒ　ｓｋｙ,,株式会社,大阪府,豊中市,曽根西町２丁目１５番６号,,27,203,5610801,,,,,,,2025-01-16,1,,,,,アナザースカイ,0
1185,4130001078754,新規,0,2025-01-16,2025-01-16,株式会社Ｈ．Ｅ．Ｙ,,株式会社,京都府,南丹市,八木町八木東所１１６番地６,,26,213,6290141,,,,,,,2025-01-16,1,,,,,エイチイーワイ,0
1186,4130003010120,新規,0,2025-01-16,2025-01-16,合同会社ＥＡＳＴ,,合同会社,京都府,向日市,寺戸町西田中瀬３番地２,,26,208,6170002,,,,,,,2025-01-16,1,,,,,イースト,0
1191,4140003021538,新規,0,2025-01-16,2025-01-16,合同会社ワーク本舗,,合同会社,兵庫県,姫路市,書写１０１９番地３３８,,28,201,6712201,,,,,,,2025-01-16,1,,,,,ワークホンポ,0
1199,4170001018450,新規,0,2025-01-16,2025-01-16,株式会社ＳＫマネジメント,,株式会社,和歌山県,和歌山市,中島４９５番地１５,,30,201,6410006,,,,,,,2025-01-16,1,,,,,エスケイマネジメント,0
1205,4180001164979,新規,0,2025-01-16,2025-01-16,株式会社１,,株式会社,愛知県,名古屋市中区,丸の内１丁目７－１９プラウドタワー名古屋丸の内ステーションマークス２４０１,,23,106,4600002,,,,,,,2025-01-16,1,,,,,ワン,0
1206,4180001164987,新規,0,2025-01-16,2025-01-16,株式会社Ａｍａｚｅ,,株式会社,愛知県,名古屋市中村区,名駅南３丁目３番１６号,,23,105,4500003,,,,,,,2025-01-16,1,,,,,アメイズ,0
1207,4180001164995,新規,0,2025-01-16,2025-01-16,株式会社ＢＣコネクト,,株式会社,愛知県,名古屋市中区,大須３丁目３２番１１号‐２Ｆ,,23,106,4600011,,,,,,,2025-01-16,1,,,,,ビーシーコネクト,0
1208,4180001165011,新規,0,2025-01-16,2025-01-16,株式会社Ｓｏｎｎｅｃｔ,,株式会社,愛知県,名古屋市中村区,名駅３丁目４－１０アルティメイト名駅１ｓｔ２階,,23,105,4500002,,,,,,,2025-01-16,1,,,,,ソネクト,0
1224,4180003027829,新規,0,2025-01-16,2025-01-16,合同会社Ｐｕｓｈ　ｆｏｒｗａｒｄ,,合同会社,愛知県,名古屋市中区,松原２丁目２番１５号ハイムアスカ９０２号,,23,106,4600017,,,,,,,2025-01-16,1,,,,,プッシュフォワード,0
1225,4180003027845,新規,0,2025-01-16,2025-01-16,ＣｌｅａｒＰａｔｈ合同会社,,合同会社,愛知県,名古屋市西区,名駅２丁目２７番８号名古屋プライムセントラルタワー３階,,23,104,4510045,,,,,,,2025-01-16,1,,,,,クリアパス,0
1239,4180303006417,新規,0,2025-01-16,2025-01-16,合同会社岩永林業,,合同会社,愛知県,新城市,作手高里字平ノ山４８番地１,,23,221,4411423,,,,,,,2025-01-16,1,,,,,イワナガリンギョウ,0
1242,4190005012010,新規,0,2025-01-16,2025-01-16,一般社団法人終活支援協議会むすびと,,その他の設立登記法人,三重県,伊勢市,一之木２丁目５番２９号,,24,203,5160071,,,,,,,2025-01-16,1,,,,,シュウカツシエンキョウギカイムスビト,0
1250,4200003006656,新規,0,2025-01-16,2025-01-16,グリーンリラクシング合同会社,,合同会社,岐阜県,高山市,松之木町３０７－８,,21,203,5060802,,,,,,,2025-01-16,1,,,,,グリーンリラクシング,0
1261,4240001064396,新規,0,2025-01-16,2025-01-16,株式会社ＡＫＥＲＵＴＯ,,株式会社,広島県,広島市中区,土橋町７番１号,,34,101,7300854,,,,,,,2025-01-16,1,,,,,アケルト,0
1276,4290001108636,新規,0,2025-01-16,2025-01-16,株式会社Ｓｈｉｋｕｍｕ,,株式会社,福岡県,福岡市中央区,天神４丁目６番２８号天神ファーストビル７階,,40,133,8100001,,,,,,,2025-01-16,1,,,,,シクム,0
1282,4290003016291,新規,0,2025-01-16,2025-01-16,合同会社Ｒａｄｉｏｌｏｇｙ　Ｎｅｔ,,合同会社,福岡県,福岡市博多区,冷泉町５番１３号ＬＹＦＡＲＴビル４階,,40,132,8120039,,,,,,,2025-01-16,1,,,,,ラジオロジーネット,0
1302,4330001032807,新規,0,2025-01-16,2025-01-16,令和環境リサイクル株式会社,,株式会社,熊本県,八代市,敷川内町６８５番地３,,43,202,8695151,,,,,,,2025-01-16,1,,,,,レイワカンキョウリサイクル,0
1304,4330003010736,新規,0,2025-01-16,2025-01-16,合同会社Ｋ＆Ｔ悠遊,,合同会社,熊本県,菊池市,旭志弁利２４１番地１,,43,210,8691201,,,,,,,2025-01-16,1,,,,,ケイアンドティユウユウ,0
1308,4370001052149,新規,0,2025-01-16,2025-01-16,株式会社ｂｒｉｎｇ　ｎｅｘｔ,,株式会社,宮城県,仙台市泉区,泉中央３丁目２７番７号,,04,105,9813133,,,,,,,2025-01-16,1,,,,,ブリングネクスト,0
1309,4370003006895,新規,0,2025-01-16,2025-01-16,合同会社ケミーサービス,,合同会社,宮城県,仙台市泉区,将監１０丁目３４番６号,,04,105,9813132,,,,,,,2025-01-16,1,,,,,ケミーサービス,0
1311,4380003005938,新規,0,2025-01-16,2025-01-16,みかん合同会社,,合同会社,福島県,いわき市,小名浜港ケ丘６番地の３,,07,204,9718102,,,,,,,2025-01-16,1,,,,,ミカン,0
1318,4410001014037,新規,0,2025-01-16,2025-01-16,株式会社ラ・リュミエール,,株式会社,秋田県,秋田市,下新城長岡字耳取６３番地９,,05,201,0100141,,,,,,,2025-01-16,1,,,,,ラリュミエール,0
1321,4420003003053,新規,0,2025-01-16,2025-01-16,合同会社對馬アセット,,合同会社,青森県,青森市,浪館前田１丁目２３番１９号,,02,201,0380024,,,,,,,2025-01-16,1,,,,,タイマアセット,0
1324,4430005015137,新規,0,2025-01-16,2025-01-16,特定非営利活動法人ニセコ羊蹄山岳会,,その他の設立登記法人,北海道,虻田郡倶知安町,北四条東８丁目２１番地５,,01,400,0440004,,,,,,,2025-01-16,1,,,,,ニセコヨウテイサンガクカイ,0
1326,4450001014495,新規,0,2025-01-16,2025-01-16,株式会社都衣雑貨,,株式会社,北海道,旭川市,近文町２４丁目１１７８番地の１３ロンデニオン１０２号室,,01,204,0700821,,,,,,,2025-01-16,1,,,,,トイザッカ,0
1330,4480001012703,新規,0,2025-01-16,2025-01-16,株式会社北斗設計,,株式会社,徳島県,美馬市,脇町大字猪尻字西分１１６番地１,,36,207,7793602,,,,,,,2025-01-16,1,,,,,ホクトセッケイ,0
1331,4500001026089,新規,0,2025-01-16,2025-01-16,株式会社フジワラ工業,,株式会社,愛媛県,新居浜市,松の木町１３－４６,,38,205,7920868,,,,,,,2025-01-16,1,,,,,フジワラコウギョウ,0
1332,4500001026097,新規,0,2025-01-16,2025-01-16,株式会社エイト,,株式会社,愛媛県,新居浜市,本郷３丁目４番２３号,,38,205,7920042,,,,,,,2025-01-16,1,,,,,エイト,0
1336,4700150128748,新規,0,2025-01-16,2025-01-16,ＶＨＢＧ　メカニカルプレシジョンカンパニーリミテッド,,外国会社等,兵庫県,加古川市,野口町坂井２０１番地の１３,,28,210,6750015,８１番地，Ａｐ　６，Ｘａ　Ｔｏｃ　Ｔｉｅｎ，Ｔｈｉ　Ｘａ　Ｐｈｕ　Ｍｙ，Ｂａ　Ｒｉａ－Ｖｕｎｇ　Ｔａｕ，ベトナム,,,,,,2025-01-16,1,,,,,ブイエイチビージーメカニカルプレシジヨンカンパニーリミテツド,0
1337,4700150128756,新規,0,2025-01-16,2025-01-16,Ｓｈｅｎ　Ｚｈｅｎ　Ｇｅｅｍｏｏ　Ｔｅｃｈｎｏｌｏｇｙ　Ｃｏｍｐａｎｙ　Ｌｉｍｉｔｅｄ,,外国会社等,,,,,,,,ｓｈｅｎｚｈｅｎｓｈｉｌｏｎｇｇａｎｇｑｕｂａｏｌｏｎｇｊｉｅｄａｏｌｏｎｇｘｉｎｓｈｅｑｕ　ｓｈｅｎｓｈａｎｌｕ（ｌｏｎｇｇａｎｇｄｕａｎ）２１７ｈａｏｚｈｏｎｇｘｉｎｌｏｎｇｓｈｅｎｇｇｕａｎｇｃｈａｎｇ１ｄｏｎｇｅｒｄａｎｙｕａｎ５０９,,,,,,2025-01-16,1,,,,,シンセンジームーテクノロジーカンパニーリミテッド,0
1345,5010001251495,新規,0,2025-01-16,2025-01-16,Ｓｙｍｂｉａ株式会社,,株式会社,東京都,中央区,銀座６丁目１３番１６号銀座ＷａｌｌビルＵＣＦ５階,,13,102,1040061,,,,,,,2025-01-16,1,,,,,シンビア,0
1347,5010003046019,新規,0,2025-01-16,2025-01-16,Ｍｏｍｅｎｔｕｍ　Ｇｒｏｗｔｈ合同会社,,合同会社,東京都,中央区,新川１丁目３－１７新川三幸ビル５０１号室,,13,102,1040033,,,,,,,2025-01-16,1,,,,,モメンタムグロース,0
1361,5010401187513,新規,0,2025-01-16,2025-01-16,ＴＳＡＮコンサルティング株式会社,,株式会社,東京都,港区,南青山５丁目４番２４号南青山Ｍ＆Ｍビル地下１階,,13,103,1070062,,,,,,,2025-01-16,1,,,,,ティーサンコンサルティング,0
1362,5010401187521,新規,0,2025-01-16,2025-01-16,Ｌｅｉクッキング株式会社,,株式会社,東京都,港区,新橋４丁目１４番１新橋ＡＵＮＢＬＤＧ４階,,13,103,1050004,,,,,,,2025-01-16,1,,,,,レイクッキング,0
1363,5010401187620,新規,0,2025-01-16,2025-01-16,株式会社ＰＲＩＭＡＶＥＲＡ　ＭＡＲＫＥＴＩＮＧ　ＪＡＰＡＮ,,株式会社,東京都,港区,港南２丁目１５－１品川インターシティＡ棟２８階,,13,103,1080075,,,,,,,2025-01-16,1,,,,,プリマベラマーケティングジャパン,0
1367,5010403034127,新規,0,2025-01-16,2025-01-16,合同会社なりほか,,合同会社,東京都,港区,東麻布２丁目２０番１号ライオンズ麻布十番スペリア８０２号,,13,103,1060044,,,,,,,2025-01-16,1,,,,,ナリホカ,0
1373,5010603011330,新規,0,2025-01-16,2025-01-16,合同会社ＴＳＫ,,合同会社,東京都,江東区,東陽７丁目２番３６－７０６号,,13,108,1350016,,,,,,,2025-01-16,1,,,,,ティーエスケー,0
1377,5010901056630,新規,0,2025-01-16,2025-01-16,桑田プロダクション株式会社,,株式会社,東京都,世田谷区,北烏山７丁目２５番６－６０４号,,13,112,1570061,,,,,,,2025-01-16,1,,,,,クワタプロダクション,0
1378,5010903009652,新規,0,2025-01-16,2025-01-16,Ｇｕｐｐｙ　Ｗｅｂ　Ｓｅｒｖｉｃｅ合同会社,,合同会社,東京都,世田谷区,北沢３丁目２７―４立木ビル２Ｆ,,13,112,1550031,,,,,,,2025-01-16,1,,,,,グッピーウェブサービス,0
1383,5011001167104,新規,0,2025-01-16,2025-01-16,Ｓｏｌｅｉｌ株式会社,,株式会社,東京都,渋谷区,広尾２丁目２番１５－３０５号,,13,113,1500012,,,,,,,2025-01-16,1,,,,,ソレイユ,0
1384,5011001167186,新規,0,2025-01-16,2025-01-16,株式会社Ｕｎｌｏｃｋ,,株式会社,東京都,渋谷区,道玄坂１丁目１０番８号渋谷道玄坂東急ビル２Ｆ－Ｃ,,13,113,1500043,,,,,,,2025-01-16,1,,,,,アンロック,0
1387,5011101110137,新規,0,2025-01-16,2025-01-16,株式会社Ｋｌｅａｒ　Ｗｏｒｌｄ,,株式会社,東京都,新宿区,新宿３丁目２－１,,13,104,1600022,,,,,,,2025-01-16,1,,,,,クリアワールド,0
1390,5011103015400,新規,0,2025-01-16,2025-01-16,合同会社アトリエ八甲,,合同会社,東京都,新宿区,西新宿３丁目３番１３号西新宿水間ビル２Ｆ,,13,104,1600023,,,,,,,2025-01-16,1,,,,,アトリエハチコウ,0
1394,5011603004571,新規,0,2025-01-16,2025-01-16,合同会社夏休みの工作,,合同会社,東京都,練馬区,南田中１丁目１番１０号,,13,120,1770035,,,,,,,2025-01-16,1,,,,,ナツヤスミノコウサク,0
1407,5013303007482,新規,0,2025-01-16,2025-01-16,合同会社Ｒ,,合同会社,東京都,豊島区,巣鴨２丁目２番１号,,13,116,1700002,,,,,,,2025-01-16,1,,,,,アール,0
1413,5020001160794,新規,0,2025-01-16,2025-01-16,リープスサポート株式会社,,株式会社,神奈川県,横浜市旭区,鶴ケ峰１丁目１－６,,14,112,2410022,,,,,,,2025-01-16,1,,,,,リープスサポート,0
1414,5020001160869,新規,0,2025-01-16,2025-01-16,ＭＴＢアセット株式会社,,株式会社,神奈川県,横浜市神奈川区,栄町５番地１横浜クリエーションスクエア１４階,,14,102,2210052,,,,,,,2025-01-16,1,,,,,エムティービーアセット,0
1415,5020001160893,新規,0,2025-01-16,2025-01-16,株式会社ＲｅＣＲＥＡ,,株式会社,神奈川県,横浜市旭区,上川井町３２７番地,,14,112,2410802,,,,,,,2025-01-16,1,,,,,レクリア,0
1419,5020003027579,新規,0,2025-01-16,2025-01-16,合同会社２２３,,合同会社,神奈川県,横浜市西区,北幸２丁目１０番４８号むつみビル３Ｆ,,14,103,2200004,,,,,,,2025-01-16,1,,,,,ニーニーサン,0
1420,5020003027620,新規,0,2025-01-16,2025-01-16,合同会社Ｈａｃｈｉ,,合同会社,神奈川県,横浜市南区,花之木町２丁目２３番地１５フリュイ花之木２０２,,14,105,2320018,,,,,,,2025-01-16,1,,,,,ハチ,0
1422,5021001084224,新規,0,2025-01-16,2025-01-16,株式会社壹乃夢,,株式会社,神奈川県,鎌倉市,津１０６９番地１０２,,14,204,2480032,,,,,,,2025-01-16,1,,,,,イチノユメ,0
1431,5030001164357,新規,0,2025-01-16,2025-01-16,青騰株式会社,,株式会社,埼玉県,蕨市,塚越７丁目３７番２号ブリーズコート蕨塚越テラス４０４号,,11,223,3350002,,,,,,,2025-01-16,1,,,,,アオトウ,0
1432,5030001164365,新規,0,2025-01-16,2025-01-16,株式会社Ｒ．Ｓ,,株式会社,埼玉県,川口市,大字安行領根岸１８２６番地の８,,11,203,3330834,,,,,,,2025-01-16,1,,,,,アールエス,0
1439,5040003026595,新規,0,2025-01-16,2025-01-16,マツイリアルエステート合同会社,,合同会社,千葉県,浦安市,東野３丁目２７ー１８,,12,227,2790042,,,,,,,2025-01-16,1,,,,,マツイリアルエステート,0
1440,5040003026604,新規,0,2025-01-16,2025-01-16,合同会社Ｓｔａｒｒｙ　Ｈｏｍｅ,,合同会社,千葉県,柏市,八幡町３番６２－５号,,12,217,2770016,,,,,,,2025-01-16,1,,,,,スターリーホーム,0
1441,5040005022626,新規,0,2025-01-16,2025-01-16,医療法人社団さくら胃と腸のクリニック,,その他の設立登記法人,千葉県,佐倉市,寺崎北１丁目５番地１,,12,212,2850819,,,,,,,2025-01-16,1,,,,,サクライトチョウノクリニック,0
1444,5060003005390,新規,0,2025-01-16,2025-01-16,アクツウェルディング合同会社,,合同会社,栃木県,大田原市,佐良土８５８番地,,09,210,3240404,,,,,,,2025-01-16,1,,,,,アクツウェルディング,0
1448,5080001026718,新規,0,2025-01-16,2025-01-16,株式会社美凝,,株式会社,静岡県,藤枝市,青南町５丁目２－５６,,22,214,4260063,,,,,,,2025-01-16,1,,,,,ビギョウ,0
1451,5090001019092,新規,0,2025-01-16,2025-01-16,信コンサルティングオフィス株式会社,,株式会社,山梨県,甲府市,北口１丁目９番２４号ＵＫビル１－Ａ,,19,201,4000024,,,,,,,2025-01-16,1,,,,,シンコンサルティングオフィス,0
1452,5090005007671,新規,0,2025-01-16,2025-01-16,特定非営利活動法人ｂａｓｅ　ｗｉｔｈ　Ｙｏｕｔｈ,,その他の設立登記法人,山梨県,甲府市,貢川本町１９番２２号,,19,201,4000048,,,,,,,2025-01-16,1,,,,,,0
1453,5100001038207,新規,0,2025-01-16,2025-01-16,株式会社４ｎｅｔ,,株式会社,長野県,北佐久郡御代田町,大字御代田３９８６－１,,20,323,3890206,,,,,,,2025-01-16,1,,,,,フォーネット,0
1458,5110001038998,新規,0,2025-01-16,2025-01-16,株式会社ビーアイデザイン,,株式会社,新潟県,新潟市西区,坂井７０６番地１,,15,107,9502042,,,,,,,2025-01-16,1,,,,,ビーアイデザイン,0
1459,5110005017172,新規,0,2025-01-16,2025-01-16,農事組合法人五十公野,,その他の設立登記法人,新潟県,新発田市,上新保５９６番地,,15,206,9570024,,,,,,,2025-01-16,1,,,,,イジミノ,0
1466,5120001271623,新規,0,2025-01-16,2025-01-16,ＬＴ　Ｗｏｒｋｓ株式会社,,株式会社,大阪府,大阪市淀川区,西宮原１丁目５－３３新大阪飯田ビル１Ｆ,,27,123,5320004,,,,,,,2025-01-16,1,,,,,エルティーワークス,0
1467,5120001271664,新規,0,2025-01-16,2025-01-16,株式会社余白,,株式会社,大阪府,大阪市中央区,粉川町４番８－２０１号,,27,128,5400018,,,,,,,2025-01-16,1,,,,,ヨハク,0
1468,5120001271739,新規,0,2025-01-16,2025-01-16,ＣＦ‐ＨＴＡＹ株式会社,,株式会社,大阪府,大阪市西成区,北津守４丁目５番３号,,27,122,5570061,,,,,,,2025-01-16,1,,,,,シーエフーティ,0
1469,5120001271895,新規,0,2025-01-16,2025-01-16,株式会社ピリドット,,株式会社,大阪府,大阪市中央区,備後町３丁目４番８号,,27,128,5410051,,,,,,,2025-01-16,1,,,,,ピリドット,0
1470,5120001271920,新規,0,2025-01-16,2025-01-16,騰雲株式会社,,株式会社,大阪府,大阪市東成区,大今里西１丁目７番３号,,27,115,5370014,,,,,,,2025-01-16,1,,,,,トウウン,0
1471,5120001271945,新規,0,2025-01-16,2025-01-16,株式会社博,,株式会社,大阪府,大阪市東成区,中本１丁目１１番１０号３Ｆ,,27,115,5370022,,,,,,,2025-01-16,1,,,,,ヒロシ,0
1472,5120001271953,新規,0,2025-01-16,2025-01-16,株式会社ミライスタイル,,株式会社,大阪府,大阪市城東区,鴫野西４丁目１－３３ｗｅｌｆａｒｅ大阪京橋ビル５０２号室,,27,118,5360014,,,,,,,2025-01-16,1,,,,,ミライスタイル,0
1474,5120003028369,新規,0,2025-01-16,2025-01-16,旺業合同会社,,合同会社,大阪府,大阪市西成区,萩之茶屋１丁目１２番７号万葉ビル８１号室,,27,122,5570004,,,,,,,2025-01-16,1,,,,,オウギョウ,0
1475,5120003028393,新規,0,2025-01-16,2025-01-16,合同会社焼きハッピー,,合同会社,大阪府,大阪市港区,南市岡３丁目６番５９－４０８号,,27,107,5520011,,,,,,,2025-01-16,1,,,,,ヤキハッピー,0
1479,5120005024705,新規,0,2025-01-16,2025-01-16,一般社団法人グリーンハート南市岡福祉会,,その他の設立登記法人,大阪府,大阪市港区,市岡元町２丁目５番１－１０２号,,27,107,5520002,,,,,,,2025-01-16,1,,,,,グリーンハートミナミイチオカフクシカイ,0
1480,5120005024721,新規,0,2025-01-16,2025-01-16,医療法人親美会,,その他の設立登記法人,大阪府,大阪市中央区,心斎橋筋１丁目１０番１１号敬和ビルルフレ２１・４階,,27,128,5420085,,,,,,,2025-01-16,1,,,,,シンビカイ,0
1486,5120901050309,新規,0,2025-01-16,2025-01-16,株式会社ＶＩＳＩＯＮ　ＬＩＦＥ　ＨＯＬＤＩＮＧＳ,,株式会社,大阪府,摂津市,鳥飼銘木町１１番８号,,27,224,5660063,,,,,,,2025-01-16,1,,,,,ビジョンライフホールディングス,0
1488,5130001078778,新規,0,2025-01-16,2025-01-16,株式会社長谷川,,株式会社,京都府,八幡市,西山足立６番地１１,,26,210,6148351,,,,,,,2025-01-16,1,,,,,ハセガワ,0
1489,5130001078786,新規,0,2025-01-16,2025-01-16,株式会社一平エステート,,株式会社,京都府,宇治市,宇治宇文字２番地の４２一千堂ビル４階,,26,204,6110021,,,,,,,2025-01-16,1,,,,,イッペイエステート,0
1492,5140001137079,新規,0,2025-01-16,2025-01-16,株式会社町中華ＪＡＰＡＮ,,株式会社,兵庫県,芦屋市,若葉町４番１－１１６４号,,28,206,6590041,,,,,,,2025-01-16,1,,,,,マチチュウカジャパン,0
1493,5140001137087,新規,0,2025-01-16,2025-01-16,株式会社ユーハイムサービス,,株式会社,兵庫県,神戸市中央区,元町通１丁目４番１３,,28,110,6500022,,,,,,,2025-01-16,1,,,,,ユーハイムサービス,0
1494,5140001137104,新規,0,2025-01-16,2025-01-16,株式会社生活創造館,,株式会社,兵庫県,高砂市,荒井町御旅１丁目１２番４号４Ａ,,28,216,6760005,,,,,,,2025-01-16,1,,,,,セイカツソウゾウカン,0
1498,5140003021537,新規,0,2025-01-16,2025-01-16,合同会社Ｃａｍｐｈｏｒｔ,,合同会社,兵庫県,姫路市,香寺町溝口８１１番地１,,28,201,6792161,,,,,,,2025-01-16,1,,,,,カンファート,0
1519,5180001164929,新規,0,2025-01-16,2025-01-16,株式会社Ｌｉｆｅ　Ｂｌｏｏｍ,,株式会社,愛知県,小牧市,岩崎原３丁目７５番地１０,,23,219,4850017,,,,,,,2025-01-16,1,,,,,ライフブルーム,0
1520,5180001164937,新規,0,2025-01-16,2025-01-16,株式会社ｂ＆ｈ７,,株式会社,愛知県,一宮市,開明字郷東６９番地,,23,203,4940001,,,,,,,2025-01-16,1,,,,,ビーアンドエイチ,0
1521,5180001165002,新規,0,2025-01-16,2025-01-16,株式会社ＢｅＡｂｌｅ,,株式会社,愛知県,名古屋市中川区,柳森町２２０５番地の２,,23,110,4540871,,,,,,,2025-01-16,1,,,,,ビアブル,0
1529,5180003027803,新規,0,2025-01-16,2025-01-16,ＮＥＲＶ合同会社,,合同会社,愛知県,名古屋市中村区,名駅南１丁目１４番９号エルザビル名古屋駅前１１０３号室,,23,105,4500003,,,,,,,2025-01-16,1,,,,,ネルフ,0
1530,5180003027844,新規,0,2025-01-16,2025-01-16,合同会社ｎｏｔａｂａ,,合同会社,愛知県,春日井市,篠木町６丁目２４８４番地８,,23,206,4860851,,,,,,,2025-01-16,1,,,,,ノタバ,0
1540,5180303006390,新規,0,2025-01-16,2025-01-16,ＤＯＴＳ．合同会社,,合同会社,愛知県,碧南市,山神町８丁目１２番地,,23,209,4470869,,,,,,,2025-01-16,1,,,,,ドッツ,0
1541,5180303006408,新規,0,2025-01-16,2025-01-16,合同会社ゆかりの寺子屋,,合同会社,愛知県,岡崎市,稲熊町字８丁目５６番地１,,23,202,4440071,,,,,,,2025-01-16,1,,,,,ユカリノテラコヤ,0
1545,5200001043329,新規,0,2025-01-16,2025-01-16,ジェイアールヘルス株式会社,,株式会社,岐阜県,可児市,光陽台７丁目８１番地,,21,214,5090255,,,,,,,2025-01-16,1,,,,,ジェイアールヘルス,0
1546,5200001043337,新規,0,2025-01-16,2025-01-16,株式会社ＫＡＴ,,株式会社,岐阜県,各務原市,那加新加納町２２２２番地,,21,213,5040958,,,,,,,2025-01-16,1,,,,,ケーエーティー,0
1547,5200001043345,新規,0,2025-01-16,2025-01-16,株式会社ＲＩＳＥ　Ｈｏｒｉｂｅ,,株式会社,岐阜県,瑞浪市,一色町４丁目５２番地の１,,21,208,5096124,,,,,,,2025-01-16,1,,,,,ライズホリベ,0
1552,5210003001878,新規,0,2025-01-16,2025-01-16,ＭＴ　Ｂｏｒｄｅｒｌｅｓｓ合同会社,,合同会社,福井県,越前市,府中１丁目６－１０岩端ビル２Ｆ,,18,209,9150071,,,,,,,2025-01-16,1,,,,,エムティーボーダーレス,0
1555,5220003003931,新規,0,2025-01-16,2025-01-16,合同会社孔明,,合同会社,石川県,かほく市,松浜ハ２２番地７,,17,209,9291172,,,,,,,2025-01-16,1,,,,,コウメイ,0
1558,5240001064379,新規,0,2025-01-16,2025-01-16,ＨＩＲＯＬＩＮＸ株式会社,,株式会社,広島県,福山市,駅家町大字江良８０３番地３,,34,207,7201141,,,,,,,2025-01-16,1,,,,,ヒロリンクス,0
1562,5240003007022,新規,0,2025-01-16,2025-01-16,ＥＤＦ合同会社,,合同会社,広島県,広島市西区,己斐中３丁目１１－２７,,34,104,7330813,,,,,,,2025-01-16,1,,,,,エーディーエフ,0
1565,5250001020975,新規,0,2025-01-16,2025-01-16,久保建設株式会社,,株式会社,山口県,山口市,元町３番４１号,,35,203,7530063,,,,,,,2025-01-16,1,,,,,クボケンセツ,0
1566,5260001039817,新規,0,2025-01-16,2025-01-16,山東フーズ株式会社,,株式会社,岡山県,岡山市中区,円山１９９番地２,,33,102,7038271,,,,,,,2025-01-16,1,,,,,サントンフーズ,0
1573,5290003016290,新規,0,2025-01-16,2025-01-16,合同会社ｙｕｎｉｅｌｌａ,,合同会社,福岡県,福岡市早良区,野芥３丁目２４－１９,,40,137,8140171,,,,,,,2025-01-16,1,,,,,ユニエラ,0
1588,5310005008820,新規,0,2025-01-16,2025-01-16,あじさい・波多野税理士法人,,その他の設立登記法人,長崎県,長崎市,万才町６番３５号－２Ｆ,,42,201,8500033,,,,,,長崎市万才町６番３５号－２Ｆ税理士法人波多野アンドパートナーズ会計事務所（3310005001612）と長崎市麹屋町１番６号あじさい税理士法人（6310005007870）の合併により設立,2025-01-16,1,,,,,アジサイハタノ,0
1594,5330001032806,新規,0,2025-01-16,2025-01-16,株式会社ＨＡＭ,,株式会社,熊本県,玉名郡南関町,大字関町１２８７番地２,,43,367,8610803,,,,,,,2025-01-16,1,,,,,ハム,0
1596,5330003010702,新規,0,2025-01-16,2025-01-16,ＩＭ１号畜電所合同会社,,合同会社,熊本県,球磨郡あさぎり町,深田西２３２６番地１６８,,43,514,8680444,,,,,,,2025-01-16,1,,,,,アイエムイチゴウチクデンショ,0
1597,5330005010865,新規,0,2025-01-16,2025-01-16,税理士法人ＳＡＳＡＥＡＩ,,その他の設立登記法人,熊本県,熊本市東区,若葉３丁目１５番８号,,43,102,8620903,,,,,,,2025-01-16,1,,,,,ササエアイ,0
1603,5340005009808,新規,0,2025-01-16,2025-01-16,一般財団法人日本建設労働技能育成センター,,その他の設立登記法人,鹿児島県,出水市,大野原町２０８０番地,,46,208,8990216,,,,,,,2025-01-16,1,,,,,ニホンケンセツロウドウギノウイクセイセンター,0
1605,5350001019371,新規,0,2025-01-16,2025-01-16,株式会社ＨＩＮＡＴＡ　ＷＥＤＤＩＮＧ,,株式会社,宮崎県,宮崎市,阿波岐原町前田２６３８番地１,,45,201,8800835,,,,,,,2025-01-16,1,,,,,ヒナタウエディング,0
1606,5360001034659,新規,0,2025-01-16,2025-01-16,ＪＷ株式会社,,株式会社,沖縄県,宜野湾市,伊佐３丁目１３番７号,,47,205,9012221,,,,,,,2025-01-16,1,,,,,ジェイダブリュー,0
1609,5370001052148,新規,0,2025-01-16,2025-01-16,株式会社文景社,,株式会社,宮城県,仙台市青葉区,本町３丁目５番２２号宮城県管工事会館７階協同組合第２編集部内,,04,101,9800014,,,,,,,2025-01-16,1,,,,,ブンケイシャ,0
1610,5370003006894,新規,0,2025-01-16,2025-01-16,Ｓ．Ｏ．Ｌ．Ｉ．Ｄ　Ｗｏｒｋｓ合同会社,,合同会社,宮城県,仙台市太白区,あすと長町１丁目５番４２‐１５０６号,,04,104,9820007,,,,,,,2025-01-16,1,,,,,ソリッドワークス,0
1612,5380003005937,新規,0,2025-01-16,2025-01-16,合同会社花の湯,,合同会社,福島県,福島市,飯坂町湯野字切湯ノ上３２番地,,07,201,9600211,,,,,,,2025-01-16,1,,,,,ハナノユ,0
1615,5410001014036,新規,0,2025-01-16,2025-01-16,ｔｅＲＩＣＥ株式会社,,株式会社,秋田県,山本郡八峰町,峰浜石川字石川４９８番地３,,05,349,0182504,,,,,,,2025-01-16,1,,,,,テライス,0
1619,5450001014494,新規,0,2025-01-16,2025-01-16,株式会社松浦石材,,株式会社,北海道,旭川市,旭町一条５丁目２７７４番地の４,,01,204,0700831,,,,,,,2025-01-16,1,,,,,マツウラセキザイ,0
1620,5470001020532,新規,0,2025-01-16,2025-01-16,瀬戸内経営パートナーズ株式会社,,株式会社,香川県,丸亀市,綾歌町岡田下１０８番地１,,37,202,7612402,,,,,,,2025-01-16,1,,,,,セトウチケイエイパートナーズ,0
1627,5500001026096,新規,0,2025-01-16,2025-01-16,株式会社ａｖｅｎｉｒ,,株式会社,愛媛県,新居浜市,中須賀町２丁目４番３号,,38,205,7920012,,,,,,,2025-01-16,1,,,,,アヴニール,0
1628,5500003003399,新規,0,2025-01-16,2025-01-16,合同会社Ｌｅ　Ｌｉｅｎ,,合同会社,愛媛県,四国中央市,金生町下分１８２番地１フォーレス高橋Ａ棟１０２号,,38,213,7990111,,,,,,,2025-01-16,1,,,,,ルリアン,0
1630,5700150128747,新規,0,2025-01-16,2025-01-16,Ｍｅｒｃａｔｏｒ　Ｍｅｄｉａ　Ｌｉｍｉｔｅｄ,,外国会社等,,,,,,,,Ｓｐｉｎｎａｋｅｒ　Ｈｏｕｓｅ，Ｗａｔｅｒｓｉｄｅ　Ｇａｒｄｅｎｓ，Ｆａｒｅｈａｍ，Ｈａｍｐｓｈｉｒｅ，Ｅｎｇｌａｎｄ,,,,,,2025-01-16,1,,,,,メルカトールメデイアリミテツド,0
1631,5700150128755,新規,0,2025-01-16,2025-01-16,ＳｈａｎｇＨａｉＧｕｏＹｕｎＳｈｉＹｅＹｏｕＸｉａｎＧｏｎｇＳｉ,,外国会社等,,,,,,,,Ｒｏｏｍ　１０３，１ｓｔ　Ｆｌｏｏｒ，Ｎｏ．１　Ｂｕｉｌｄｉｎｇ，４８０－４８６　Ｈｏｎｇｘｕ　Ｒｏａｄ，Ｍｉｎｈａｎｇ　Ｄｉｓｔｒｉｃｔ，Ｓｈａｎｇｈａｉ,,,,,,2025-01-16,1,,,,,シャンハイゴウユンジツギョウユウゲンコウシ,0
1632,5700150128763,新規,0,2025-01-16,2025-01-16,Ａｄｖａｎｃｅ　Ｔｅｃｈｎｏｌｏｇｙ　Ｃｏｎｓｕｌｔｉｎｇ　Ｓｅｒｖｉｃｅｓ　Ｐｖｔ．Ｌｔｄ,,外国会社等,東京都,渋谷区,道玄坂１丁目１２番１号　渋谷マークシティウエスト２２階,,13,113,1500043,ＩＴ／ＩＴＥＳ　ＳＥＺ　Ｍ／ｓ　Ｍａｈｉｎｄｒａ　Ｗｏｒｌｄ　Ｃｉｔｙ　Ｌｔｄ．Ｖｉｌｌａｇｅ　Ｋａｗａｒａ　Ｔｅｈｓｉｌ　Ｓａｎｇａｎｅｒ　Ｊａｉｐｕｒ　ＲＪ，Ｉｎｄｉａ,,,,,,2025-01-16,1,,,,,アドバンステクノロジーコンサルテイングサービス,0
1647,6010001251412,新規,0,2025-01-16,2025-01-16,株式会社ＳＡＩＫＯＯＯ,,株式会社,東京都,中央区,銀座１丁目１２番４号Ｎ＆ＥＢＬＤ．６Ｆ,,13,102,1040061,,,,,,,2025-01-16,1,,,,,サイコー,0
1670,6010401187504,新規,0,2025-01-16,2025-01-16,株式会社ＭＮＬ４８,,株式会社,東京都,港区,西麻布４丁目１番４号西麻布ＭＫビル５階,,13,103,1060031,,,,,,,2025-01-16,1,,,,,エムエヌエルフォーティーエイト,0
1671,6010401187512,新規,0,2025-01-16,2025-01-16,東亜光学株式会社,,株式会社,東京都,港区,南青山３丁目１番３６号青山丸竹ビル６Ｆ,,13,103,1070062,,,,,,,2025-01-16,1,,,,,トウアコウガク,0
1688,6010601066607,新規,0,2025-01-16,2025-01-16,Ｓｕｎ＆Ｃｏｍｐａｎｙ株式会社,,株式会社,東京都,墨田区,江東橋４丁目２７番１４号,,13,107,1300022,,,,,,,2025-01-16,1,,,,,サンアンドカンパニー,0
1689,6010603011321,新規,0,2025-01-16,2025-01-16,プラネッツ・ホールディングス合同会社,,合同会社,東京都,江東区,富岡１丁目７番１２号アンプレジール３０１,,13,108,1350047,,,,,,,2025-01-16,1,,,,,プラネッツホールディングス,0
1691,6010703007533,新規,0,2025-01-16,2025-01-16,合同会社ｓｉｇｎｐｏｓｔ,,合同会社,東京都,品川区,大井５丁目１９番１９号,,13,109,1400014,,,,,,,2025-01-16,1,,,,,サインポスト,0
1695,6010901056646,新規,0,2025-01-16,2025-01-16,株式会社Ａｐｐｌａｕｓｅ,,株式会社,東京都,世田谷区,大原２丁目１３番１３号,,13,112,1560041,,,,,,,2025-01-16,1,,,,,アプローズ,0
1696,6010901056654,新規,0,2025-01-16,2025-01-16,株式会社ＷＯＬＤ,,株式会社,東京都,世田谷区,上野毛４丁目３９番８－５０３号,,13,112,1580093,,,,,,,2025-01-16,1,,,,,ウォルド,0
1697,6010903009643,新規,0,2025-01-16,2025-01-16,合同会社セサンタオフィス,,合同会社,東京都,世田谷区,桜上水４丁目１番Ｇ－３０１号,,13,112,1560045,,,,,,,2025-01-16,1,,,,,セサンタオフィス,0
1703,6011001167185,新規,0,2025-01-16,2025-01-16,株式会社Ｆａｎｇ　Ｐｕｌｓｅ,,株式会社,東京都,渋谷区,渋谷２丁目１９番１９号ワコー宮益坂ビル５階,,13,113,1500002,,,,,,,2025-01-16,1,,,,,ファングパルス,0
1704,6011001167202,新規,0,2025-01-16,2025-01-16,株式会社アスタス,,株式会社,東京都,渋谷区,代々木１丁目３０番１５号Ｓ２０７号室,,13,113,1510053,,,,,,,2025-01-16,1,,,,,アスタス,0
1708,6011101110235,新規,0,2025-01-16,2025-01-16,アイペジャパン株式会社,,株式会社,東京都,新宿区,西新宿３丁目３番１３号西新宿水間ビル６階,,13,104,1600023,,,,,,,2025-01-16,1,,,,,アイペジャパン,0
1709,6011103015399,新規,0,2025-01-16,2025-01-16,合同会社ＡＭＧ,,合同会社,東京都,新宿区,愛住町１９番地１３泰美ビル６階,,13,104,1600005,,,,,,,2025-01-16,1,,,,,エーエムジー,0
1710,6011301030290,新規,0,2025-01-16,2025-01-16,株式会社南極,,株式会社,東京都,杉並区,高円寺南４丁目７番３号サンシャイン高円寺８０３号,,13,115,1660003,,,,,,,2025-01-16,1,,,,,ナンキョク,0
1712,6011403004589,新規,0,2025-01-16,2025-01-16,合同会社ＧＯＲＯＰＲＩ,,合同会社,東京都,板橋区,蓮根３丁目１１番２０号コーポリリック３０３号,,13,119,1740046,,,,,,,2025-01-16,1,,,,,ゴロプリ,0
1713,6011503006378,新規,0,2025-01-16,2025-01-16,合同会社ｎｏｗｎｉｑｕｅ,,合同会社,東京都,北区,田端１丁目２０番２８－３０７号,,13,117,1140014,,,,,,,2025-01-16,1,,,,,ナウニーク,0
1731,6020001160827,新規,0,2025-01-16,2025-01-16,株式会社ニューブレイスファクトリー,,株式会社,神奈川県,川崎市中原区,上小田中６丁目２７番２７号Ｄｅｌｔａ－Ｔ２０５,,14,133,2110053,,,,,,,2025-01-16,1,,,,,ニューブレイスファクトリー,0
1732,6020001160843,新規,0,2025-01-16,2025-01-16,ＮＥＥＮＡＮＹ株式会社,,株式会社,神奈川県,横浜市青葉区,松風台２２番地６０,,14,117,2270067,,,,,,,2025-01-16,1,,,,,ニーナニ,0
1733,6020001160868,新規,0,2025-01-16,2025-01-16,株式会社Ａｍｏｎｅ,,株式会社,神奈川県,横浜市都筑区,牛久保西２丁目７番６号,,14,118,2240015,,,,,,,2025-01-16,1,,,,,アモネ,0
1734,6020001160884,新規,0,2025-01-16,2025-01-16,株式会社Ｇインダストリーズ,,株式会社,神奈川県,横浜市保土ケ谷区,常盤台８６－１アンジュの丘常盤台６１９,,14,106,2400067,,,,,,,2025-01-16,1,,,,,ジーインダストリーズ,0
1735,6020001160892,新規,0,2025-01-16,2025-01-16,株式会社ビヨンドタイム,,株式会社,神奈川県,横浜市西区,北幸２丁目１０番４８号むつみビル３階,,14,103,2200004,,,,,,,2025-01-16,1,,,,,ビヨンドタイム,0
1736,6020001160959,新規,0,2025-01-16,2025-01-16,Ｋｅｎ　Ｇｌｏｂａｌ　Ｓｔｕｄｉｏ株式会社,,株式会社,神奈川県,川崎市麻生区,向原２丁目１４番３３号,,14,137,2150007,,,,,,,2025-01-16,1,,,,,ケングローバルスタジオ,0
1737,6020003027545,新規,0,2025-01-16,2025-01-16,合同会社Ｋ‐Ｌｉｎｋ,,合同会社,神奈川県,横浜市西区,藤棚町２丁目２１２－５,,14,103,2200053,,,,,,,2025-01-16,1,,,,,ケイリンク,0
1738,6020003027594,新規,0,2025-01-16,2025-01-16,合同会社ノー色恋,,合同会社,神奈川県,横浜市神奈川区,星野町１０番地ヒストリアレジデンス海舟３０７号,,14,102,2210035,,,,,,,2025-01-16,1,,,,,ノーイロコイ,0
1739,6020003027611,新規,0,2025-01-16,2025-01-16,合同会社匠工房,,合同会社,神奈川県,横浜市青葉区,美しが丘４丁目２５番地７第２栄和ビル１０１,,14,117,2250002,,,,,,,2025-01-16,1,,,,,タクミコウボウ,0
1740,6020005016678,新規,0,2025-01-16,2025-01-16,医療法人社団慶哲会,,その他の設立登記法人,神奈川県,川崎市麻生区,万福寺１丁目７番１号ＴＷビル２Ｆ,,14,137,2150004,,,,,,,2025-01-16,1,,,,,ケイテツカイ,0
1742,6021001084223,新規,0,2025-01-16,2025-01-16,株式会社スタイルホーム,,株式会社,神奈川県,平塚市,根坂間３６４－１０４,,14,203,2540904,,,,,,,2025-01-16,1,,,,,スタイルホーム,0
1743,6021001084231,新規,0,2025-01-16,2025-01-16,株式会社中村冷熱,,株式会社,神奈川県,厚木市,戸田１０３６番地１１,,14,212,2430023,,,,,,,2025-01-16,1,,,,,ナカムラレイネツ,0
1745,6021003015341,新規,0,2025-01-16,2025-01-16,合同会社Ｍｉｉ．ｌｉｆｅ,,合同会社,神奈川県,鎌倉市,台５丁目４－２３－４,,14,204,2470061,,,,,,,2025-01-16,1,,,,,ミーライフ,0
1746,6021003015457,新規,0,2025-01-16,2025-01-16,合同会社ポチブクロ,,合同会社,神奈川県,藤沢市,鵠沼海岸７丁目１６番２１～７号,,14,205,2510037,,,,,,,2025-01-16,1,,,,,ポチブクロ,0
1751,6030001164389,新規,0,2025-01-16,2025-01-16,株式会社Ｏｎｅ,,株式会社,埼玉県,蕨市,錦町５丁目４番３号,,11,223,3350005,,,,,,,2025-01-16,1,,,,,ワン,0
1760,6030005022007,新規,0,2025-01-16,2025-01-16,一般社団法人西東京バスケットボール育成推進クラブ,,その他の設立登記法人,埼玉県,新座市,野寺１丁目３番２９号,,11,230,3520034,,,,,,,2025-01-16,1,,,,,ニシトウキョウバスケットボールイクセイスイシンクラブ,0
1763,6040001136957,新規,0,2025-01-16,2025-01-16,プラスエイト株式会社,,株式会社,千葉県,松戸市,高塚新田５２６番地の６９,,12,207,2702222,,,,,,,2025-01-16,1,,,,,プラスエイト,0
1764,6040001136973,新規,0,2025-01-16,2025-01-16,世茂株式会社,,株式会社,千葉県,柏市,南柏１丁目２－５号グランデ南柏５０２,,12,217,2770855,,,,,,,2025-01-16,1,,,,,シマオ,0
1765,6040001136998,新規,0,2025-01-16,2025-01-16,Ｇｒｏｗｔｈ　Ｐｌａｃｅ株式会社,,株式会社,千葉県,市川市,南八幡４丁目３番７－１０４号（グリーンターフ南八幡第ＩＩＩ）,00137660,12,203,2720023,,,,,,,2025-01-16,1,,,,,グロウスプレイス,0
1766,6040001137014,新規,0,2025-01-16,2025-01-16,株式会社グッドライフサービス,,株式会社,千葉県,流山市,向小金３丁目１７９番地水代オーチャードＩＩ２０１号室,00137664,12,220,2700143,,,,,,,2025-01-16,1,,,,,グッドライフサービス,0
1770,6040003026462,新規,0,2025-01-16,2025-01-16,合同会社ＣＥＮＴＲＡＬ,,合同会社,千葉県,松戸市,松戸２１０３ルヴィアン松戸３０３,,12,207,2710092,,,,,,,2025-01-16,1,,,,,セントラル,0
1771,6040003026578,新規,0,2025-01-16,2025-01-16,ＰｒｏｕＤＣｏｍｍＵｎｉｔｙ合同会社,,合同会社,千葉県,千葉市緑区,高津戸町４１３番地６,,12,105,2670053,,,,,,,2025-01-16,1,,,,,プラウドコミュニティ,0
1772,6040003026611,新規,0,2025-01-16,2025-01-16,フォーチュンハマー合同会社,,合同会社,千葉県,船橋市,坪井東５丁目１８番１２号,,12,204,2740060,,,,,,,2025-01-16,1,,,,,フォーチュンハマー,0
1773,6050001055966,新規,0,2025-01-16,2025-01-16,株式会社Ｏｎｅ　Ｓｈｏｔ逆転カンパニー,,株式会社,茨城県,つくば市,学園の森２丁目２０番地３,,08,220,3050816,,,,,,,2025-01-16,1,,,,,ワンショットギャクテンカンパニー,0
1774,6050001056015,新規,0,2025-01-16,2025-01-16,株式会社智勇,,株式会社,茨城県,つくばみらい市,東栗山４３９番地,,08,235,3002313,,,,,,,2025-01-16,1,,,,,チユウ,0
1775,6050001056023,新規,0,2025-01-16,2025-01-16,ＳｔｅｌｌａｒＴｅｃｈ　Ｒｏｂｏｔｉｃｓ株式会社,,株式会社,茨城県,那珂市,菅谷１５３３番地３トゥルスＩ－１０１号室,00137655,08,226,3110105,,,,,,,2025-01-16,1,,,,,ステラテックロボティックス,0
1776,6070001042541,新規,0,2025-01-16,2025-01-16,株式会社ヒカリエ,,株式会社,群馬県,太田市,下浜田町１０８５番地８８,,10,205,3730821,,,,,,,2025-01-16,1,,,,,ヒカリエ,0
1781,6080001026717,新規,0,2025-01-16,2025-01-16,株式会社タカハシソーコ,,株式会社,静岡県,藤枝市,高柳１丁目１９番８号,,22,214,4260041,,,,,,,2025-01-16,1,,,,,タカハシソーコ,0
1800,6120001271795,新規,0,2025-01-16,2025-01-16,日本光流美慧株式会社,,株式会社,大阪府,大阪市旭区,清水１丁目１２番１４号,,27,117,5350021,,,,,,,2025-01-16,1,,,,,ニッポンヒカルミケイ,0
1801,6120001271894,新規,0,2025-01-16,2025-01-16,株式会社Ｎｅｏ　Ｔｈａｎｋｓ,,株式会社,大阪府,大阪市住之江区,北島３丁目６番２５号,,27,125,5590014,,,,,,,2025-01-16,1,,,,,ネオサンクス,0
1802,6120001271903,新規,0,2025-01-16,2025-01-16,株式会社ＨＡＣＣＨＩ,,株式会社,大阪府,大阪市東住吉区,駒川５丁目４番２１号,,27,121,5460043,,,,,,,2025-01-16,1,,,,,ハッチ,0
1803,6120001271911,新規,0,2025-01-16,2025-01-16,株式会社Ｇｒａｎｔ,,株式会社,大阪府,枚方市,香里ケ丘１２丁目１４番２９号,,27,210,5730084,,,,,,,2025-01-16,1,,,,,グラント,0
1804,6120001271936,新規,0,2025-01-16,2025-01-16,三明株式会社,,株式会社,大阪府,大阪市西成区,橘１丁目１１－２８オフィスポート橘４０４号室,,27,122,5570051,,,,,,,2025-01-16,1,,,,,サンメイ,0
1805,6120001271952,新規,0,2025-01-16,2025-01-16,株式会社ＮＰ　ＧＲＯＵＰ,,株式会社,大阪府,大阪市西成区,太子２丁目２番２７号２０３号,,27,122,5570002,,,,,,,2025-01-16,1,,,,,エヌピーグループ,0
1810,6120901050299,新規,0,2025-01-16,2025-01-16,株式会社Ｎｅｘｔ　Ｈｏｍｅ,,株式会社,大阪府,豊中市,曽根南町３丁目３番１号１０２号室,,27,203,5610804,,,,,,,2025-01-16,1,,,,,ネクストホーム,0
1811,6122001038786,新規,0,2025-01-16,2025-01-16,株式会社セシルコム,,株式会社,大阪府,東大阪市,長堂１丁目８番３７号ヴェル・ノール布施３階,,27,227,5770056,,,,,,,2025-01-16,1,,,,,セシルコム,0
1813,6122003003094,新規,0,2025-01-16,2025-01-16,ＡＡ合同会社,,合同会社,大阪府,東大阪市,日下町１丁目６番１５号,,27,227,5798003,,,,,,,2025-01-16,1,,,,,エーエー,0
1817,6130001078744,新規,0,2025-01-16,2025-01-16,株式会社ＥＡＣＨ,,株式会社,京都府,京都市中京区,錦屋町５３６ＡＬＢＡ烏丸御池４０５,,26,104,6040000,,,,,,,2025-01-16,1,,,,,イーチ,0
1818,6130001078769,新規,0,2025-01-16,2025-01-16,株式会社富士星辰,,株式会社,京都府,京都市伏見区,醍醐下山口町２０－５,,26,109,6011343,,,,,,,2025-01-16,1,,,,,フジホシタツ,0
1822,6140001136831,新規,0,2025-01-16,2025-01-16,Ｔｒａｖｅｌｅｔｓ株式会社,,株式会社,兵庫県,神戸市東灘区,御影中町１丁目９－３カネヨシビル４Ｆ,,28,101,6580054,,,,,,,2025-01-16,1,,,,,トラベレッツ,0
1823,6140001136963,新規,0,2025-01-16,2025-01-16,ＫＯＴＡ　ＢＡＳＥ株式会社,,株式会社,兵庫県,神戸市長田区,長田町４丁目２番２１号,,28,106,6530812,,,,,,,2025-01-16,1,,,,,コタベース,0
1824,6140001137078,新規,0,2025-01-16,2025-01-16,音悦株式会社,,株式会社,兵庫県,神戸市中央区,熊内町１丁目１番１５－２０３号,,28,110,6510056,,,,,,,2025-01-16,1,,,,,オンエツ,0
1825,6140001137103,新規,0,2025-01-16,2025-01-16,株式会社ＮＥＷＯＬＤ,,株式会社,兵庫県,神戸市垂水区,舞多聞西５丁目６番２４号,,28,108,6550051,,,,,,,2025-01-16,1,,,,,ニューオールド,0
1828,6140003021536,新規,0,2025-01-16,2025-01-16,合同会社縁優,,合同会社,兵庫県,明石市,二見町東二見４８７－１グリーンハイツ川上３０１号,,28,203,6740092,,,,,,,2025-01-16,1,,,,,エンユウ,0
1831,6150003003475,新規,0,2025-01-16,2025-01-16,スパークル合同会社,,合同会社,奈良県,御所市,代官町１４２１－１シャーメゾン代官町１０１,,29,208,6392236,,,,,,,2025-01-16,1,,,,,スパークル,0
1844,6180001164911,新規,0,2025-01-16,2025-01-16,株式会社エルエス,,株式会社,愛知県,名古屋市北区,若葉通１丁目１３番地,,23,103,4620854,,,,,,,2025-01-16,1,,,,,エルエス,0
1845,6180001164985,新規,0,2025-01-16,2025-01-16,株式会社みらいんホールディングス,,株式会社,愛知県,名古屋市中川区,万町４１３番地,,23,110,4540872,,,,,,,2025-01-16,1,,,,,ミラインホールディングス,0
1846,6180001164993,新規,0,2025-01-16,2025-01-16,株式会社アシストアロウ,,株式会社,愛知県,小牧市,若草町１９０番地,,23,219,4850031,,,,,,,2025-01-16,1,,,,,アシストアロウ,0
1868,6180003027835,新規,0,2025-01-16,2025-01-16,ＥＰファンド第０１号合同会社,,合同会社,愛知県,名古屋市東区,泉１丁目１８‐３泉ステイトリービル８０１,,23,102,4610001,,,,,,,2025-01-16,1,,,,,イーピーファンドダイイチゴウ,0
1888,6200001043328,新規,0,2025-01-16,2025-01-16,ＮＨＩ株式会社,,株式会社,岐阜県,土岐市,土岐津町土岐口１２３８番地の１グリーングラス土岐２０１号,,21,212,5095122,,,,,,,2025-01-16,1,,,,,エヌエイチアイ,0
1906,6250001020974,新規,0,2025-01-16,2025-01-16,株式会社ＳＥＡＴＲＯＩＳ,,株式会社,山口県,下関市,秋根本町２丁目１０番１０－７０６号,,35,201,7510875,,,,,,,2025-01-16,1,,,,,シートロワ,0
1908,6250005008974,新規,0,2025-01-16,2025-01-16,一般社団法人上宇部学童保育クラブ,,その他の設立登記法人,山口県,宇部市,開２丁目２番１７号,,35,202,7550096,,,,,,,2025-01-16,1,,,,,カミウベガクドウホイククラブ,0
1912,6290001108618,新規,0,2025-01-16,2025-01-16,株式会社ＬＩＯ,,株式会社,福岡県,福岡市中央区,天神４丁目６番２８号天神ファーストビル７階,,40,133,8100001,,,,,,,2025-01-16,1,,,,,リオ,0
1913,6290001108634,新規,0,2025-01-16,2025-01-16,株式会社Ｌｖ．,,株式会社,福岡県,福岡市博多区,博多駅南３丁目２２番２号３Ｆ,,40,132,8120016,,,,,,,2025-01-16,1,,,,,リブ,0
1928,6330001032788,新規,0,2025-01-16,2025-01-16,株式会社コクピットＦ‐１,,株式会社,熊本県,熊本市東区,新南部４丁目７番３７号,,43,102,8618028,,,,,,,2025-01-16,1,,,,,コクピットエフワン,0
1929,6330003010734,新規,0,2025-01-16,2025-01-16,合同会社美波,,合同会社,熊本県,熊本市中央区,草葉町２番３２－７０２号,,43,101,8600843,,,,,,,2025-01-16,1,,,,,ミナミ,0
1932,6350001019362,新規,0,2025-01-16,2025-01-16,株式会社ホールインワンサポート,,株式会社,宮崎県,宮崎市,橘通東４丁目２番３１号－８０６号,,45,201,8800805,,,,,,,2025-01-16,1,,,,,ホールインワンサポート,0
1935,6370003006893,新規,0,2025-01-16,2025-01-16,合同会社イチロクイチハチ,,合同会社,宮城県,岩沼市,土ケ崎４丁目１２番４０－１２号,,04,211,9892451,,,,,,,2025-01-16,1,,,,,イチロクイチハチ,0
1938,6380003005936,新規,0,2025-01-16,2025-01-16,合同会社ＤｏｔｔｅｔｅＤｅｓｉｇｎ,,合同会社,福島県,石川郡玉川村,大字中字下谷地４６番地の１１,,07,502,9636315,,,,,,,2025-01-16,1,,,,,ドッテテデザイン,0
1942,6400005008463,新規,0,2025-01-16,2025-01-16,税理士法人大沢会計＆Ｎｅｘｔ,,その他の設立登記法人,岩手県,盛岡市,天昌寺町７番２５号,,03,201,0200137,,,,,,,2025-01-16,1,,,,,オオサワカイケイアンドネクスト,0
1947,6420003003051,新規,0,2025-01-16,2025-01-16,合同会社Ｍｏｃｋ,,合同会社,青森県,八戸市,大字鳥屋部町１番地１４,,02,203,0310039,,,,,,,2025-01-16,1,,,,,モック,0
1950,6430001093449,新規,0,2025-01-16,2025-01-16,ユニコーンブリーダーズクラブ株式会社,,株式会社,北海道,新冠郡新冠町,字東町２３番地３３,,01,604,0592404,,,,,,,2025-01-16,1,,,,,ユニコーンブリーダーズクラブ,0
1951,6430001093465,新規,0,2025-01-16,2025-01-16,株式会社畠山漁業,,株式会社,北海道,白老郡白老町,字社台１８４番地１,,01,578,0590901,,,,,,,2025-01-16,1,,,,,ハタケヤマギョギョウ,0
1959,6500001026095,新規,0,2025-01-16,2025-01-16,株式会社愛智運輸興業,,株式会社,愛媛県,南宇和郡愛南町,御荘長月４３３番地２,,38,506,7984105,,,,,,,2025-01-16,1,,,,,アイチウンユコウギョウ,0
1961,6700150128754,新規,0,2025-01-16,2025-01-16,ＳｈｅｎＺｈｅｎＳｈｉＭｅｉＹａＤｉａｎＺｉＳｈａｎｇＷｕＹｏｕＸｉａｎＧｏｎｇＳｉ,,外国会社等,,,,,,,,Ｎｉｕｌａｎｑｉａｎ　Ｂｕｉｌｄｉｎｇ　Ｂ５１３，Ｍｉｎｚｈｉ　Ａｖｅｎｕｅ，Ｘｉｎｎｉｕ　Ｃｏｍｍｕｎｉｔｙ，Ｍｉｎｚｈｉ　Ｓｔｒｅｅｔ，Ｌｏｎｇｈｕａ　Ｄｉｓｔｒｉｃｔ，Ｓｈｅｎｚｈｅｎ，ＣＮ,,,,,,2025-01-16,1,,,,,シンセンシメイヤデンシシャンウユウゲンコウシ,0
1962,6700150128762,新規,0,2025-01-16,2025-01-16,ＰａｙＰａｙ　Ｉｎｄｉａ　Ｐｒｉｖａｔｅ　Ｌｉｍｉｔｅｄ,,外国会社等,,,,,,,,０３－１１７／１１９，ＷｅＷｏｒｋ　Ｆｏｒｕｍ，ＤＬＦ　Ｃｙｂｅｒ　Ｃｉｔｙ　Ｒｄ，ＤＬＦ　Ｐｈａｓｅ　３，Ｇｕｒｕｇｒａｍ，Ｈａｒｙａｎａ－１２２００２，Ｉｎｄｉａ,,,,,,2025-01-16,1,,,,,ペイペイインデイアプライベートリミテツド,0
1970,7010003046082,新規,0,2025-01-16,2025-01-16,プライバシーク合同会社,,合同会社,東京都,中央区,八重洲２丁目１番１号ＹＡＮＭＡＲＴＯＫＹＯ１２階,,13,102,1040028,,,,,,,2025-01-16,1,,,,,プライバシーク,0
1971,7010005039398,新規,0,2025-01-16,2025-01-16,一般社団法人東大看護学実装普及研究所,,その他の設立登記法人,東京都,文京区,本郷５丁目１番１１号ＫＩＩＨＯＵＳＥ２０２,,13,105,1130033,,,,,,,2025-01-16,1,,,,,トウダイカンゴガクジッソウフキュウケンキュウジョ,0
1972,7010101016482,新規,0,2025-01-16,2025-01-16,株式会社偉高,,株式会社,東京都,八王子市,平岡町２２番５－２０３号,,13,201,1920061,,,,,,,2025-01-16,1,,,,,イコウ,0
1983,7010401187503,新規,0,2025-01-16,2025-01-16,ｉＡｕｔｏ　ＴＯＫＹＯ株式会社,,株式会社,東京都,港区,港南３丁目６番２１号,,13,103,1080075,,,,,,,2025-01-16,1,,,,,アイオートトウキョウ,0
1984,7010401187511,新規,0,2025-01-16,2025-01-16,株式会社Ｌａｎｄａｕ,,株式会社,東京都,港区,芝５丁目３２番１２号シャーメゾンステージ田町３Ｆ,,13,103,1080014,,,,,,,2025-01-16,1,,,,,ランダウ,0
1985,7010401187585,新規,0,2025-01-16,2025-01-16,株式会社ｖａｌｕｅ　ｔｈｅ　ｃｏｎｎｅｃｔｉｏｎ,,株式会社,東京都,港区,南麻布３丁目１９番２１－１５０３号,,13,103,1060047,,,,,,,2025-01-16,1,,,,,バリューザコネクション,0
1993,7010403034158,新規,0,2025-01-16,2025-01-16,合同会社ＮｏＮａｍｅ,,合同会社,東京都,港区,東麻布２丁目６番５号タトルビル１階,,13,103,1060044,,,,,,,2025-01-16,1,,,,,ノーネーム,0
1998,7010503007690,新規,0,2025-01-16,2025-01-16,合同会社ｍｅｌｌｐｌｕｍｅ,,合同会社,東京都,台東区,千束３丁目２７番１３－１００７号ジェノヴィア浅草ＩＩＩグリーンヴェール,00137659,13,106,1110031,,,,,,,2025-01-16,1,,,,,メルプルーム,0
2002,7010603011320,新規,0,2025-01-16,2025-01-16,合同会社Ｒ＆Ｍ　Ｃｏｎｓｕｌｔｉｎｇ,,合同会社,東京都,江東区,新砂３丁目４番４３号グランエスタ２２５号室,,13,108,1360075,,,,,,,2025-01-16,1,,,,,アールアンドエムコンサルティング,0
2004,7010701047101,新規,0,2025-01-16,2025-01-16,盛和源株式会社,,株式会社,東京都,品川区,東五反田１丁目１９番４号,,13,109,1410022,,,,,,,2025-01-16,1,,,,,セイワゲン,0
2007,7010901056653,新規,0,2025-01-16,2025-01-16,株式会社ＫＵＷＡＴＡ　ＦＩＬＭ,,株式会社,東京都,世田谷区,上北沢４丁目２３番１７号くれいんハウス３０３,,13,112,1560057,,,,,,,2025-01-16,1,,,,,クワタフィルム,0
2016,7011001167102,新規,0,2025-01-16,2025-01-16,株式会社ｐａｉｒ　Ｃｏｍｐａｎｙ,,株式会社,東京都,渋谷区,神南１丁目１１番４号ＦＰＧリンクス神南５階,,13,113,1500041,,,,,,,2025-01-16,1,,,,,ペアカンバニー,0
2017,7011001167168,新規,0,2025-01-16,2025-01-16,株式会社アイケアＬａＢｏ,,株式会社,東京都,渋谷区,代々木３丁目４６－１６小野木ビル４０２,,13,113,1510053,,,,,,,2025-01-16,1,,,,,アイケアラボ,0
2020,7011003020795,新規,0,2025-01-16,2025-01-16,合同会社ＧＦＡ,,合同会社,東京都,渋谷区,恵比寿西２丁目８番４号,,13,113,1500021,,,,,,,2025-01-16,1,,,,,ジーエフエー,0
2028,7011303005380,新規,0,2025-01-16,2025-01-16,合同会社ｓｔａｍｐ,,合同会社,東京都,杉並区,浜田山１丁目１３番５号,,13,115,1680065,,,,,,,2025-01-16,1,,,,,スタンプ,0
2030,7011401026709,新規,0,2025-01-16,2025-01-16,板橋工房株式会社,,株式会社,東京都,板橋区,高島平１丁目５番１６号,,13,119,1750082,,,,,,,2025-01-16,1,,,,,イタバシコウボウ,0
2031,7011603004545,新規,0,2025-01-16,2025-01-16,合同会社絆パートナーズ,,合同会社,東京都,練馬区,関町北３丁目９番地３号３０２号室,,13,120,1770051,,,,,,,2025-01-16,1,,,,,キズナパートナーズ,0
2032,7011603004578,新規,0,2025-01-16,2025-01-16,合同会社ＴＦプサイ,,合同会社,東京都,練馬区,氷川台４丁目４７番１８号,,13,120,1790084,,,,,,,2025-01-16,1,,,,,ティーエフプサイ,0
2036,7011701027992,新規,0,2025-01-16,2025-01-16,株式会社サステナブルＯｎｅ,,株式会社,東京都,江戸川区,西葛西３丁目７番７号ベル西葛西１階１０１号室,,13,123,1340088,,,,,,,2025-01-16,1,,,,,サステナブルワン,0
2039,7012401042670,新規,0,2025-01-16,2025-01-16,株式会社Ｒ．Ｙ．ｃｌｅａｎ,,株式会社,東京都,武蔵野市,境１丁目１６番２９号－１０１,,13,203,1800022,,,,,,,2025-01-16,1,,,,,アールワイクリーン,0
2041,7012701018651,新規,0,2025-01-16,2025-01-16,株式会社一翠システム,,株式会社,東京都,小平市,学園西町２丁目２８番１１－４０５号,,13,211,1870045,,,,,,,2025-01-16,1,,,,,イッスイシステム,0
2050,7012703003164,新規,0,2025-01-16,2025-01-16,合同会社ＡＺ,,合同会社,東京都,清瀬市,野塩４丁目６３－６,,13,221,2040004,,,,,,,2025-01-16,1,,,,,アズ,0
2051,7012703003172,新規,0,2025-01-16,2025-01-16,合同会社Ｔ‐ＣＯＬＯＲ’Ｓ,,合同会社,東京都,東久留米市,下里３丁目２２番１１号クレスト中島３０４号,,13,222,2030043,,,,,,,2025-01-16,1,,,,,ティーカラーズ,0
2052,7012803003592,新規,0,2025-01-16,2025-01-16,合同会社フェルトクライス,,合同会社,東京都,立川市,西砂町２丁目４６番地の４クレール清水３０２号,,13,202,1900034,,,,,,,2025-01-16,1,,,,,フェルトクライス,0
2055,7013103001394,新規,0,2025-01-16,2025-01-16,合同会社ＳＬ　ＪＡＰＡＮ　ＭＯＴＯＲＳ,,合同会社,東京都,福生市,南田園２丁目１６番地福生団地１２－５０１,,13,218,1970004,,,,,,,2025-01-16,1,,,,,エスエルジャパンモーターズ,0
2065,7020001160669,新規,0,2025-01-16,2025-01-16,株式会社アクト,,株式会社,神奈川県,横浜市港南区,上永谷２丁目２２番２４号,,14,111,2330012,,,,,,,2025-01-16,1,,,,,アクト,0
2066,7020001160792,新規,0,2025-01-16,2025-01-16,株式会社ｃａｖｉ,,株式会社,神奈川県,川崎市宮前区,野川本町１丁目２７番３１号,,14,136,2160041,,,,,,,2025-01-16,1,,,,,キャヴィ,0
2067,7020001160933,新規,0,2025-01-16,2025-01-16,株式会社ｅｑｕｉｐｅ　Ａ,,株式会社,神奈川県,横浜市青葉区,あざみ野２丁目２４番地１ヴィラあざみ野２０２,,14,117,2250011,,,,,,,2025-01-16,1,,,,,エキップアルファ,0
2068,7020001160966,新規,0,2025-01-16,2025-01-16,ソリューションキューブコンサルティングサービス株式会社,,株式会社,神奈川県,横浜市青葉区,あかね台２丁目１０番地１,,14,117,2270066,,,,,,,2025-01-16,1,,,,,ソリューションキューブコンサルティングサービス,0
2069,7020001160974,新規,0,2025-01-16,2025-01-16,株式会社内藤企画,,株式会社,神奈川県,川崎市中原区,上丸子山王町１丁目１４０９番地１８,,14,133,2110002,,,,,,,2025-01-16,1,,,,,ナイトウキカク,0
2072,7020003027602,新規,0,2025-01-16,2025-01-16,かまち運送合同会社,,合同会社,神奈川県,横浜市港北区,新吉田東８丁目４３番２７号,,14,109,2230058,,,,,,,2025-01-16,1,,,,,カマチウンソウ,0
2073,7020005016677,新規,0,2025-01-16,2025-01-16,ＮＰＯ法人ＲＥＮＥＣＯ,,その他の設立登記法人,神奈川県,川崎市川崎区,観音２丁目１８番１５号,,14,131,2100831,,,,,,,2025-01-16,1,,,,,リネコ,0
2077,7021001084206,新規,0,2025-01-16,2025-01-16,株式会社Ｎｉｃｅ　Ｄｒｅａｍ,,株式会社,神奈川県,三浦郡葉山町,堀内１１０７－１－１－Ａ,,14,301,2400112,,,,,,,2025-01-16,1,,,,,ナイスドリーム,0
2078,7021001084214,新規,0,2025-01-16,2025-01-16,株式会社ＮＥＸＴ,,株式会社,神奈川県,三浦市,南下浦町上宮田１３８７番地２コスモ三浦海岸,,14,210,2380101,,,,,,,2025-01-16,1,,,,,ネクスト,0
2079,7021001084230,新規,0,2025-01-16,2025-01-16,株式会社スターフィールド,,株式会社,神奈川県,三浦市,南下浦町上宮田１３３４番地１２三浦海岸ハイツ５－５４３,,14,210,2380101,,,,,,,2025-01-16,1,,,,,スターフィールド,0
2082,7021003015464,新規,0,2025-01-16,2025-01-16,合同会社アンリ＆ムーラ,,合同会社,神奈川県,相模原市中央区,相模原５丁目２番１７号６Ｆ,,14,152,2520231,,,,,,,2025-01-16,1,,,,,アンリアンドムーラ,0
2086,7030001164388,新規,0,2025-01-16,2025-01-16,ゼロ株式会社,,株式会社,埼玉県,深谷市,小前田４０９番地２,,11,218,3691246,,,,,,,2025-01-16,1,,,,,ゼロ,0
2092,7040001136972,新規,0,2025-01-16,2025-01-16,木羽清風株式会社,,株式会社,千葉県,船橋市,二宮１丁目５９－７－１ＦＢ,,12,204,2740823,,,,,,,2025-01-16,1,,,,,キハネセイフウ,0
2093,7040001137005,新規,0,2025-01-16,2025-01-16,株式会社ＩＬＩＯ,,株式会社,千葉県,千葉市若葉区,小倉台３丁目２７番７‐１号,,12,104,2640006,,,,,,,2025-01-16,1,,,,,イーリオ,0
2099,7060001037830,新規,0,2025-01-16,2025-01-16,株式会社ケミカル・リスクアセス・ソリューションズ,,株式会社,栃木県,真岡市,古山８５７番地１,,09,209,3214535,,,,,,,2025-01-16,1,,,,,ケミカルリスクアセスソリューションズ,0
2100,7070001042524,新規,0,2025-01-16,2025-01-16,株式会社エコランド,,株式会社,群馬県,邑楽郡大泉町,大字寄木戸１４３４番地２,,10,524,3700535,,,,,,,2025-01-16,1,,,,,エコランド,0
2101,7070001042549,新規,0,2025-01-16,2025-01-16,株式会社ケィエックス,,株式会社,群馬県,前橋市,元総社町２１４０番地,,10,201,3710846,,,,,,,2025-01-16,1,,,,,ケィエックス,0
2104,7080003003374,新規,0,2025-01-16,2025-01-16,オクシズ未来合同会社,,合同会社,静岡県,静岡市清水区,相生町６番１７号７０９,,22,103,4240821,,,,,,,2025-01-16,1,,,,,オクシズミライ,0
2105,7080401027685,新規,0,2025-01-16,2025-01-16,株式会社ＪＧ,,株式会社,静岡県,浜松市中央区,佐藤１丁目３１番２９号Ａｄｖａｎｃｅ２０１,,22,138,4300807,,,,,,,2025-01-16,1,,,,,ジェイジー,0
2109,7080405007700,新規,0,2025-01-16,2025-01-16,一般社団法人個人事業主情報組合,,その他の設立登記法人,静岡県,浜松市中央区,幸４丁目１３番１０号,,22,138,4338123,,,,,,,2025-01-16,1,,,,,コジンジギョウヌシジョウホウクミアイ,0
2111,7090003002714,新規,0,2025-01-16,2025-01-16,大国メディトレ・パートナーズ合同会社,,合同会社,山梨県,甲府市,大里町１２４５番地４,,19,201,4000053,,,,,,,2025-01-16,1,,,,,オオクニメディトレパートナーズ,0
2134,7120001271803,新規,0,2025-01-16,2025-01-16,ＷＺＹ株式会社,,株式会社,大阪府,大阪市中央区,淡路町１丁目３番７号キタデビル２０１号,,27,128,5410047,,,,,,,2025-01-16,1,,,,,ダブルゼットワイ,0
2135,7120001271877,新規,0,2025-01-16,2025-01-16,株式会社Ｎ‐ＴＥＣ,,株式会社,大阪府,大阪市北区,梅田１丁目１－３大阪駅前第３ビル２９階１－１－１号室,,27,127,5300001,,,,,,,2025-01-16,1,,,,,エヌテック,0
2136,7120001271893,新規,0,2025-01-16,2025-01-16,株式会社ＷＡＤＡＩ　ＰＲＯＤＵＣＴＳ,,株式会社,大阪府,大阪市浪速区,恵美須東２丁目１番１１号,,27,111,5560002,,,,,,,2025-01-16,1,,,,,ワダイプロダクツ,0
2137,7120001271943,新規,0,2025-01-16,2025-01-16,ＷＨＩＴＥコーポレーション株式会社,,株式会社,大阪府,大阪市中央区,城見２丁目１番６１号ツイン２１ＭＩＤタワー３８階ＲｅｑｒｅｅＯＢＰ,,27,128,5400001,,,,,,,2025-01-16,1,,,,,ホワイトコーポレーション,0
2138,7120001271951,新規,0,2025-01-16,2025-01-16,株式会社ＮＰＬＡＮＴ,,株式会社,大阪府,枚方市,伊加賀西町８６番６号,,27,210,5730066,,,,,,,2025-01-16,1,,,,,エヌプラント,0
2154,7130001078776,新規,0,2025-01-16,2025-01-16,株式会社盛京,,株式会社,京都府,京都市左京区,一乗寺清水町１６番地１ソレイユダイサン６０１号室,,26,103,6068125,,,,,,,2025-01-16,1,,,,,セイキョウ,0
2161,7140001137036,新規,0,2025-01-16,2025-01-16,株式会社ＦＯＧＵ,,株式会社,兵庫県,豊岡市,中央町９番５号,,28,209,6680033,,,,,,,2025-01-16,1,,,,,フォグ,0
2162,7140001137060,新規,0,2025-01-16,2025-01-16,株式会社卵丸,,株式会社,兵庫県,宝塚市,小林５丁目９番１０５号,,28,214,6650034,,,,,,,2025-01-16,1,,,,,ランマル,0
2165,7140003021543,新規,0,2025-01-16,2025-01-16,ベルガモットノーツ合同会社,,合同会社,兵庫県,芦屋市,清水町２番１９－３０１号,,28,206,6590076,,,,,,,2025-01-16,1,,,,,ベルガモットノーツ,0
2166,7140005027349,新規,0,2025-01-16,2025-01-16,特定非営利活動法人サイエンス＆アート,,その他の設立登記法人,兵庫県,川西市,緑台４丁目３番４１号,,28,217,6660129,,,,,,,2025-01-16,1,,,,,サイエンスアンドアート,0
2167,7150003003474,新規,0,2025-01-16,2025-01-16,合同会社ＫｉｄｄｉＷｉｎｋｓ,,合同会社,奈良県,奈良市,富雄北１丁目５番７号,,29,201,6310076,,,,,,,2025-01-16,1,,,,,キディウィンクス,0
2186,7180003027818,新規,0,2025-01-16,2025-01-16,Ｊａｐａｎ　Ｃｅｒａｍｉｃｓ合同会社,,合同会社,愛知県,名古屋市守山区,翠松園２丁目１４０１番地,,23,113,4630010,,,,,,,2025-01-16,1,,,,,ジャパンセラミックス,0
2195,7180005020911,新規,0,2025-01-16,2025-01-16,覚王山税理士法人,,その他の設立登記法人,愛知県,名古屋市中区,丸の内３丁目１９番１４号,,23,106,4600002,,,,,,,2025-01-16,1,,,,,カクオウザン,0
2215,7200001043335,新規,0,2025-01-16,2025-01-16,南濃コンクリート工業株式会社,,株式会社,岐阜県,海津市,南濃町上野河戸１０５６番地,,21,221,5030414,,,,,,,2025-01-16,1,,,,,ナンノウコンクリートコウギョウ,0
2216,7200001043343,新規,0,2025-01-16,2025-01-16,ＨＥＬＬＡ　ＧＲＥＥＮ株式会社,,株式会社,岐阜県,関市,山田１０４５番地２１,,21,205,5013944,,,,,,,2025-01-16,1,,,,,ヘラグリーン,0
2223,7200005013706,新規,0,2025-01-16,2025-01-16,一般社団法人Ｒｅ・フレ,,その他の設立登記法人,岐阜県,瑞穂市,十八条２９番地５,,21,216,5010314,,,,,,,2025-01-16,1,,,,,リフレ,0
2234,7250001020973,新規,0,2025-01-16,2025-01-16,株式会社ＴＯＴＡＬ　ＣＡＲ　ＳＨＯＰ優希,,株式会社,山口県,光市,上島田４丁目６番１号,,35,210,7430065,,,,,,,2025-01-16,1,,,,,トータルカーショップユウキ,0
2238,7260001039815,新規,0,2025-01-16,2025-01-16,株式会社Ｖｉｔａ,,株式会社,岡山県,倉敷市,新田２９９６番地４,,33,202,7100038,,,,,,,2025-01-16,1,,,,,ヴィータ,0
2241,7260003005030,新規,0,2025-01-16,2025-01-16,ナトリビルド合同会社,,合同会社,岡山県,勝田郡奈義町,関本２５０番地１,,33,623,7081304,,,,,,,2025-01-16,1,,,,,ナトリビルド,0
2247,7290001108609,新規,0,2025-01-16,2025-01-16,徳潤株式会社,00137668,株式会社,福岡県,福岡市中央区,天神３丁目１０番６－５０１号,,40,133,8100001,,,,,,,2025-01-16,1,,,,,トクジュン,0
2252,7290005019612,新規,0,2025-01-16,2025-01-16,医療法人松尾歯科クリニック,,その他の設立登記法人,福岡県,福岡市南区,高宮１丁目２番３３号,,40,134,8150083,,,,,,,2025-01-16,1,,,,,マツオシカクリニック,0
2253,7290801031191,新規,0,2025-01-16,2025-01-16,株式会社うつら農園,,株式会社,福岡県,遠賀郡岡垣町,大字内浦９８１番地,,40,383,8114203,,,,,,,2025-01-16,1,,,,,ウツラノウエン,0
2266,7350001019361,新規,0,2025-01-16,2025-01-16,アグリ樹脂リサイクル株式会社,,株式会社,宮崎県,西都市,大字下三財字新原二８５０７番１,,45,208,8810113,,,,,,,2025-01-16,1,,,,,アグリジュシリサイクル,0
2268,7360001034624,新規,0,2025-01-16,2025-01-16,農業生産法人株式会社カビラ農産,,株式会社,沖縄県,石垣市,字平得１５３５番地３５,,47,207,9070003,,,,,,,2025-01-16,1,,,,,カビラノウサン,0
2269,7360001034649,新規,0,2025-01-16,2025-01-16,株式会社Ｃｕｒｉｍｅ,,株式会社,沖縄県,那覇市,牧志１丁目１番３９号ステップビルＡ－１,,47,201,9000013,,,,,,,2025-01-16,1,,,,,クリミ,0
2270,7360003014599,新規,0,2025-01-16,2025-01-16,合同会社前原興業,,合同会社,沖縄県,糸満市,字喜屋武５番地キャロットハウス２０２,,47,210,9010354,,,,,,,2025-01-16,1,,,,,マエハラコウギョウ,0
2274,7370001052146,新規,0,2025-01-16,2025-01-16,株式会社ＣＡＤＥＬ,,株式会社,宮城県,仙台市泉区,実沢字立田屋敷１４番地４,,04,105,9813217,,,,,,,2025-01-16,1,,,,,カデル,0
2275,7370003006892,新規,0,2025-01-16,2025-01-16,合同会社ぽぷら,,合同会社,宮城県,仙台市青葉区,旭ケ丘４丁目２６－２９,,04,101,9810904,,,,,,,2025-01-16,1,,,,,ポプラ,0
2281,7430001093472,新規,0,2025-01-16,2025-01-16,株式会社彩琥,,株式会社,北海道,札幌市東区,伏古九条５丁目２番２号レジデンス和晃Ａ１０１号,,01,103,0070869,,,,,,,2025-01-16,1,,,,,サイコ,0
2282,7430005015134,新規,0,2025-01-16,2025-01-16,一般社団法人苫小牧文化応援隊,,その他の設立登記法人,北海道,苫小牧市,表町５丁目１番１８号,,01,213,0530022,,,,,,,2025-01-16,1,,,,,トマコマイブンカオウエンタイ,0
2288,7700150128266,新規,0,2025-01-16,2025-01-16,ＦＵＬＬＨＯＵＳＥ　ＩＮＶＥＳＴＭＥＮＴ　ＰＴＥ．　ＬＴＤ,,外国会社等,,,,,,,,２７　ＷＯＯＤＬＡＮＤＳ　ＬＩＮＫ＃０４－０１，ＣＨＡＮＧ　ＣＨＥＮＧ　ＨＱ，ＳＩＮＧＡＰＯＲＥ,,,,,,2025-01-16,1,,,,,フルハウスインベストメントプライベートリミテツド,0
2289,7700150128753,新規,0,2025-01-16,2025-01-16,ＺＥＣＨＥＮＧＤＩＡＮＺＩＺＨＯＮＧＳＨＡＮＹＯＵＸＩＡＮＧＯＮＧＳＩ,,外国会社等,,,,,,,,Ｚｈｏｎｇｓｈａｎｓｈｉ　Ｈｕｏｊｕ　Ｋａｉｆａｑｕ　Ｚｈｏｎｇｓｈａｎｇａｎｇ　Ｄａｄａｏ　７０　Ｈａｏ　Ｚｈａｎｇｑｉｋｅｊｉｑｉｙｅｆｕｈｕａｑｉ　７Ｄｏｎｇ　３Ｌｏｕ　３０６Ｂ,,,,,,2025-01-16,1,,,,,ゼチェンデンジゾンサンユウゲンコウシ,0
2290,7700150128761,新規,0,2025-01-16,2025-01-16,ＹＮＳ　ＴＲＡＤＥＲＳ　ＰＲＩＶＡＴＥ　ＬＩＭＩＴＥＤ,,外国会社等,新潟県,妙高市,大字小濁７３１　レンタルスペース２Ｆ－４,,15,217,9440221,スリランカ民主社会主義共和国、キャンディ、アクラナ、デマタガハムラテンネ、２４６番,,,,,,2025-01-16,1,,,,,ワイエヌエストレーデスプライベートリミテツド,0
2296,8010001251328,新規,0,2025-01-16,2025-01-16,株式会社Ａｔｒｅｅａｍ,,株式会社,東京都,文京区,小石川１丁目５番１－３８０３号,,13,105,1120002,,,,,,,2025-01-16,1,,,,,エイトリアム,0
2315,8010401187510,新規,0,2025-01-16,2025-01-16,株式会社オーロリカ,,株式会社,東京都,港区,南麻布４丁目９番１７号レフィール南麻布２０２,,13,103,1060047,,,,,,,2025-01-16,1,,,,,オーロリカ,0
2328,8010601066588,新規,0,2025-01-16,2025-01-16,株式会社ｊｅｗｅｌ,,株式会社,東京都,江東区,木場２丁目６番７－１０５号,,13,108,1350042,,,,,,,2025-01-16,1,,,,,ジュエル,0
2329,8010605004404,新規,0,2025-01-16,2025-01-16,りそなプライベートリート投資法人,,その他の設立登記法人,東京都,江東区,木場１丁目５番２５号,,13,108,1350042,,,,,,,2025-01-16,1,,,,,リソナプライベートリート,0
2333,8010901056611,新規,0,2025-01-16,2025-01-16,株式会社あんはるテクノロジーズ,,株式会社,東京都,世田谷区,太子堂４丁目１８番１５号マガザン三軒茶屋２、３Ｆ－３,,13,112,1540004,,,,,,,2025-01-16,1,,,,,アンハルテクノロジーズ,0
2339,8011001167175,新規,0,2025-01-16,2025-01-16,株式会社アルティミール,,株式会社,東京都,渋谷区,渋谷１丁目１２番１２号宮益坂東豊エステート１０１号室,,13,113,1500002,,,,,,,2025-01-16,1,,,,,アルティミール,0
2340,8011001167183,新規,0,2025-01-16,2025-01-16,フィールドノバ株式会社,,株式会社,東京都,渋谷区,桜丘町１４－１,,13,113,1500031,,,,,,,2025-01-16,1,,,,,フィールドノバ,0
2342,8011003020794,新規,0,2025-01-16,2025-01-16,合同会社カムナリ,,合同会社,東京都,目黒区,東山１丁目１６番５号アークウィル１０１号室,,13,110,1530043,,,,,,,2025-01-16,1,,,,,カムナリ,0
2347,8011101110282,新規,0,2025-01-16,2025-01-16,株式会社ＬＩＶＡＮＴ,,株式会社,東京都,新宿区,西新宿３丁目３番１３号西新宿水間ビル２Ｆ,,13,104,1600023,,,,,,,2025-01-16,1,,,,,リバント,0
2349,8011103015406,新規,0,2025-01-16,2025-01-16,合同会社千陽,,合同会社,東京都,新宿区,西新宿８丁目１１－１０星野ビル３階Ｓ－０９号室,,13,104,1600023,,,,,,,2025-01-16,1,,,,,センヨウ,0
2350,8011205002657,新規,0,2025-01-16,2025-01-16,一般社団法人佐藤史織研究所,,その他の設立登記法人,東京都,中野区,東中野４丁目２０番１９号,,13,114,1640003,,,,,,,2025-01-16,1,,,,,サトウシオリケンキュウジョ,0
2353,8011601028363,新規,0,2025-01-16,2025-01-16,ルマルメ株式会社,,株式会社,東京都,練馬区,東大泉５丁目３４番１１号ガーデンテラス大泉学園２０６,,13,120,1780063,,,,,,,2025-01-16,1,,,,,ルマルメ,0
2354,8011603004577,新規,0,2025-01-16,2025-01-16,合同会社ＴＦニュー,,合同会社,東京都,練馬区,氷川台４丁目４７番１８号,,13,120,1790084,,,,,,,2025-01-16,1,,,,,ティーエフニュー,0
2358,8011801045464,新規,0,2025-01-16,2025-01-16,五豊実業株式会社,,株式会社,東京都,足立区,扇１丁目２６番１４号シャトー小宮１０６,,13,121,1230873,,,,,,,2025-01-16,1,,,,,ゴホウジツギョウ,0
2361,8012703003171,新規,0,2025-01-16,2025-01-16,合同会社Ｎ,,合同会社,東京都,清瀬市,中里３丁目１０９５番地,,13,221,2040003,,,,,,,2025-01-16,1,,,,,エヌ,0
2364,8020001160791,新規,0,2025-01-16,2025-01-16,恒澤株式会社,,株式会社,神奈川県,横浜市南区,白妙町４丁目４３－１７ルセアン白妙１０５号室,,14,105,2320023,,,,,,,2025-01-16,1,,,,,ツネサワ,0
2365,8020001160833,新規,0,2025-01-16,2025-01-16,シアン株式会社,,株式会社,神奈川県,横浜市中区,石川町１丁目１３番２号ＴＨＥＨＵＢ横浜元町４０１号室,,14,104,2310868,,,,,,,2025-01-16,1,,,,,シアン,0
2366,8020001160965,新規,0,2025-01-16,2025-01-16,風義株式会社,,株式会社,神奈川県,川崎市中原区,木月住吉町２１番１号,,14,133,2110021,,,,,,,2025-01-16,1,,,,,フウギ,0
2367,8020001160981,新規,0,2025-01-16,2025-01-16,株式会社おおしま,,株式会社,神奈川県,川崎市麻生区,細山入八丁目１８番１号,,14,137,2150001,,,,,,,2025-01-16,1,,,,,オオシマ,0
2369,8020003027551,新規,0,2025-01-16,2025-01-16,Ｋ’ＬＵＸＥ　ＪＡＰＡＮ合同会社,,合同会社,神奈川県,横浜市港北区,篠原町１０７４番７０,,14,109,2220026,,,,,,,2025-01-16,1,,,,,ケールクスジャパン,0
2370,8020003027592,新規,0,2025-01-16,2025-01-16,大山ツアーズ合同会社,,合同会社,神奈川県,川崎市宮前区,南野川２丁目１８番１４号,,14,136,2160042,,,,,,,2025-01-16,1,,,,,オオヤマツアーズ,0
2371,8020005016676,新規,0,2025-01-16,2025-01-16,医療法人寛繋会,00137666,その他の設立登記法人,神奈川県,川崎市多摩区,南生田４丁目６番６号南生田医療モール１Ｆ,,14,135,2140036,,,,,,,2025-01-16,1,,,,,カンケイカイ,0
2377,8021001084238,新規,0,2025-01-16,2025-01-16,株式会社ｖｏｓｔｏｋ,,株式会社,神奈川県,藤沢市,高倉２２９８番地３１,,14,205,2520802,,,,,,,2025-01-16,1,,,,,ボストーク,0
2381,8021003015463,新規,0,2025-01-16,2025-01-16,湘南レンジャーズ合同会社,,合同会社,神奈川県,鎌倉市,大船１丁目１２番１０号湘南第５ビル４階,,14,204,2470056,,,,,,,2025-01-16,1,,,,,ショウナンレンジャーズ,0
2389,8030003025868,新規,0,2025-01-16,2025-01-16,合同会社ネオグリーン,,合同会社,埼玉県,草加市,松原３丁目８番１－５１８号,,11,221,3400041,,,,,,,2025-01-16,1,,,,,ネオグリーン,0
2392,8040001136922,新規,0,2025-01-16,2025-01-16,株式会社ＬＩＮＫＳ,,株式会社,千葉県,千葉市稲毛区,園生町２３８番地５７,,12,103,2630051,,,,,,,2025-01-16,1,,,,,リンクス,0
2393,8040001136996,新規,0,2025-01-16,2025-01-16,株式会社ＷＩＳＥＲＡ,,株式会社,千葉県,佐倉市,ユーカリが丘４丁目１番１号スカイプラザ・モール３Ｆ,,12,212,2850858,,,,,,,2025-01-16,1,,,,,ウィセラ,0
2394,8040001137004,新規,0,2025-01-16,2025-01-16,川合ＭＥＤＩＡ株式会社,,株式会社,千葉県,松戸市,樋野口４９０番地の１,,12,207,2710067,,,,,,,2025-01-16,1,,,,,,0
2395,8040001137012,新規,0,2025-01-16,2025-01-16,株式会社ＲＸ,,株式会社,千葉県,袖ケ浦市,勝３４番地,,12,229,2990252,,,,,,,2025-01-16,1,,,,,アールエックス,0
2400,8040003026626,新規,0,2025-01-16,2025-01-16,うみがめアセット合同会社,,合同会社,千葉県,千葉市美浜区,打瀬２丁目１６番地パティオス１７番街６１４号,,12,106,2610013,,,,,,,2025-01-16,1,,,,,ウミガメアセット,0
2401,8050001056021,新規,0,2025-01-16,2025-01-16,一航株式会社,,株式会社,茨城県,鉾田市,徳宿２４３６番地５５,,08,234,3111503,,,,,,,2025-01-16,1,,,,,イッコウ,0
2402,8050003008929,新規,0,2025-01-16,2025-01-16,合同会社たみや,,合同会社,茨城県,筑西市,甲９２４番地,,08,227,3080021,,,,,,,2025-01-16,1,,,,,タミヤ,0
2403,8050005013539,新規,0,2025-01-16,2025-01-16,東日本肉牛出荷事業協同組合,,その他の設立登記法人,茨城県,水戸市,見川町１８２２番地の１,,08,201,3100913,,,,,,,2025-01-16,1,,,,,ヒガシニホンニクギュウシッカジギョウ,0
2408,8080003003373,新規,0,2025-01-16,2025-01-16,合同会社マーシーけあちょいす,,合同会社,静岡県,藤枝市,駿河台１丁目１７番１０号,,22,214,4260077,,,,,,,2025-01-16,1,,,,,マーシーケアチョイス,0
2409,8080101025245,新規,0,2025-01-16,2025-01-16,株式会社キナリＧａｒｄｅｎ,,株式会社,静岡県,富士市,平垣本町１４番１１号,,22,210,4160913,,,,,,,2025-01-16,1,,,,,キナリガーデン,0
2410,8080101025253,新規,0,2025-01-16,2025-01-16,Ａ２メディテックス株式会社,,株式会社,静岡県,富士宮市,山宮８６０番地の６,,22,207,4180111,,,,,,,2025-01-16,1,,,,,エーツーメディテックス,0
2425,8120001271471,新規,0,2025-01-16,2025-01-16,薈遠徳株式会社,,株式会社,大阪府,大阪市西成区,南津守７丁目１番１６－１０３室,,27,122,5570063,,,,,,,2025-01-16,1,,,,,ワイエントク,0
2426,8120001271819,新規,0,2025-01-16,2025-01-16,株式会社サイドストーリー,,株式会社,大阪府,大阪市北区,天満１丁目７番１２号,,27,127,5300043,,,,,,,2025-01-16,1,,,,,サイドストーリー,0
2427,8120001271926,新規,0,2025-01-16,2025-01-16,株式会社エスティ不動産,,株式会社,大阪府,大阪市阿倍野区,松崎町４丁目１１番２３－５０４号,,27,119,5450053,,,,,,,2025-01-16,1,,,,,エスティフドウサン,0
2428,8120001271934,新規,0,2025-01-16,2025-01-16,株式会社山市,,株式会社,大阪府,大阪市西成区,橘１丁目１１－２８オフィスポート橘３０３,,27,122,5570051,,,,,,,2025-01-16,1,,,,,サンシ,0
2429,8120003028358,新規,0,2025-01-16,2025-01-16,三石合同会社,,合同会社,大阪府,大阪市西成区,千本中２丁目１０番２０号,,27,122,5570054,,,,,,,2025-01-16,1,,,,,ミツイシ,0
2430,8120003028399,新規,0,2025-01-16,2025-01-16,合同会社地彩,,合同会社,大阪府,大阪市北区,南扇町４０‐２エスライズ梅田東３０１,,27,127,5300052,,,,,,,2025-01-16,1,,,,,チサイ,0
2437,8120901050223,新規,0,2025-01-16,2025-01-16,１ｓｔ　ＷＩＮＴＯＰ　ＦＲＥＩＧＨＴ　ＪＡＰＡＮ株式会社,,株式会社,大阪府,豊中市,本町５丁目１１番２６－２０１号,,27,203,5600021,,,,,,,2025-01-16,1,,,,,ファーストウイントップフレイトジャパン,0
2438,8120901050306,新規,0,2025-01-16,2025-01-16,株式会社ＲＳＳ,,株式会社,大阪府,箕面市,小野原西３丁目３６－３６,,27,220,5620032,,,,,,,2025-01-16,1,,,,,アールエスエス,0
2446,8130001078742,新規,0,2025-01-16,2025-01-16,株式会社ｎａｍｉｋａｚｅ,,株式会社,京都府,京都市上京区,千本通二条下る聚楽町８５０番地エクスフォート京都聚楽町２０４号室,,26,102,6028156,,,,,,,2025-01-16,1,,,,,ナミカゼ,0
2447,8130001078767,新規,0,2025-01-16,2025-01-16,株式会社ピース・ケア,,株式会社,京都府,綾部市,旭町中ノ下９番地,,26,203,6291261,,,,,,,2025-01-16,1,,,,,ピースケア,0
2449,8130003010100,新規,0,2025-01-16,2025-01-16,合同会社京都将軍堂,,合同会社,京都府,京都市中京区,雁金町３７３みよいビル３０７,,26,104,6048115,,,,,,,2025-01-16,1,,,,,キョウトショウグンドウ,0
2453,8140001136961,新規,0,2025-01-16,2025-01-16,株式会社ケタケタ,,株式会社,兵庫県,尼崎市,七松町２丁目７番２５号,,28,202,6600052,,,,,,,2025-01-16,1,,,,,ケタケタ,0
2454,8140001137068,新規,0,2025-01-16,2025-01-16,株式会社ＧＡ・トレーディング,,株式会社,兵庫県,西宮市,津田町２番２０－１１０号,,28,204,6620853,,,,,,,2025-01-16,1,,,,,ジーエートレーディング,0
2455,8140001137101,新規,0,2025-01-16,2025-01-16,太陽鉱工投資開発株式会社,,株式会社,兵庫県,神戸市中央区,磯辺通１丁目１番３９号,,28,110,6510084,,,,,,,2025-01-16,1,,,,,タイヨウコウコウトウシカイハツ,0
2461,8140003021492,新規,0,2025-01-16,2025-01-16,合同会社Ｔ’ｓコンサルティング,,合同会社,兵庫県,西宮市,六湛寺町１４番５号ハイス西宮ビル８階,,28,204,6620918,,,,,,,2025-01-16,1,,,,,ティーズコンサルティング,0
2462,8140003021542,新規,0,2025-01-16,2025-01-16,合同会社ノア,,合同会社,兵庫県,神戸市西区,大津和１丁目４－２７,,28,111,6512112,,,,,,,2025-01-16,1,,,,,ノア,0
2481,8180001164950,新規,0,2025-01-16,2025-01-16,祥遠株式会社,,株式会社,愛知県,名古屋市西区,五才美町６番地メゾンヤスフク３０５号,,23,104,4520806,,,,,,,2025-01-16,1,,,,,ショウエン,0
2482,8180001164983,新規,0,2025-01-16,2025-01-16,株式会社Ｇｒｏｗ　Ｒｅａｌ,,株式会社,愛知県,名古屋市中区,栄１丁目７番２８－１６０４号,,23,106,4600008,,,,,,,2025-01-16,1,,,,,グローリアル,0
2483,8180001164991,新規,0,2025-01-16,2025-01-16,重建株式会社,,株式会社,愛知県,名古屋市港区,東茶屋２丁目４２３番地,,23,111,4550851,,,,,,,2025-01-16,1,,,,,ジュウケン,0
2484,8180001165008,新規,0,2025-01-16,2025-01-16,株式会社ＢＩＡＮＣＡ,,株式会社,愛知県,名古屋市西区,牛島町６－１名古屋ルーセントタワー４０階,,23,104,4510046,,,,,,,2025-01-16,1,,,,,ビアンカ,0
2491,8180003027833,新規,0,2025-01-16,2025-01-16,合同会社ウェステイル,,合同会社,愛知県,春日井市,東野町字茨沢６１番地６,,23,206,4860817,,,,,,,2025-01-16,1,,,,,ウェステイル,0
2492,8180003027866,新規,0,2025-01-16,2025-01-16,元気合同会社,,合同会社,愛知県,稲沢市,平和町法立北瀬古３０５番地２,,23,220,4901304,,,,,,,2025-01-16,1,,,,,ゲンキ,0
2514,8200003006660,新規,0,2025-01-16,2025-01-16,合同会社ユニフルジャパン,,合同会社,岐阜県,羽島郡岐南町,伏屋３丁目４７－８,,21,302,5016006,,,,,,,2025-01-16,1,,,,,ユニフルジャパン,0
2515,8210003001875,新規,0,2025-01-16,2025-01-16,合同会社ＧＥＮＴＥＮ,,合同会社,福井県,福井市,開発４丁目２１５番地,,18,201,9100842,,,,,,,2025-01-16,1,,,,,ゲンテン,0
2516,8220001026436,新規,0,2025-01-16,2025-01-16,株式会社ｎｕｍｂｅｒ,,株式会社,石川県,能美市,粟生町チ７１番地,,17,211,9231101,,,,,,,2025-01-16,1,,,,,ナンバー,0
2517,8220003003929,新規,0,2025-01-16,2025-01-16,合同会社笑福,,合同会社,石川県,白山市,宮永市町１５番地２,,17,210,9240016,,,,,,,2025-01-16,1,,,,,ショウフク,0
2526,8250001020972,新規,0,2025-01-16,2025-01-16,株式会社リル,,株式会社,山口県,下関市,王司神田６丁目３番４２号,,35,201,7520911,,,,,,,2025-01-16,1,,,,,リル,0
2527,8260003005021,新規,0,2025-01-16,2025-01-16,合同会社ｃｏｏｄｅ,,合同会社,岡山県,岡山市北区,大元１丁目１２－１６,,33,101,7000924,,,,,,,2025-01-16,1,,,,,コーデ,0
2530,8270003001705,新規,0,2025-01-16,2025-01-16,合同会社プレミアムカーファンド３号,,合同会社,鳥取県,米子市,加茂町２丁目１８０番地国際ファミリープラザ７１０号,,31,202,6830823,,,,,,,2025-01-16,1,,,,,プレミアムカーファンドサンゴウ,0
2531,8280005007641,新規,0,2025-01-16,2025-01-16,医療法人社団晴桜会,,その他の設立登記法人,島根県,浜田市,相生町３９２１番地,,32,202,6970034,,,,,,,2025-01-16,1,,,,,セイオウカイ,0
2534,8290001108517,新規,0,2025-01-16,2025-01-16,株式会社ＨＡＫＡＴＡＹＡ,,株式会社,福岡県,うきは市,吉井町鷹取２３６番８,,40,225,8391343,,,,,,,2025-01-16,1,,,,,,0
2535,8290001108558,新規,0,2025-01-16,2025-01-16,株式会社ＭＬＣ,,株式会社,福岡県,久留米市,北野町金島４７０番地４,,40,203,8301103,,,,,,,2025-01-16,1,,,,,エムエルシー,0
2536,8290001108608,新規,0,2025-01-16,2025-01-16,株式会社トラベルインク,,株式会社,福岡県,宗像市,曲１６８９番地１４,,40,220,8113413,,,,,,,2025-01-16,1,,,,,,0
2537,8290001108632,新規,0,2025-01-16,2025-01-16,株式会社翔建,,株式会社,福岡県,筑紫野市,大字阿志岐２４２６番地１１０,,40,217,8180011,,,,,,,2025-01-16,1,,,,,ショウケン,0
2538,8290001108640,新規,0,2025-01-16,2025-01-16,株式会社ｃｏｃｏａｒｉｔｅ,,株式会社,福岡県,福岡市中央区,天神２丁目２番１２号Ｔ＆Ｊビルディング７Ｆ,,40,133,8100001,,,,,,,2025-01-16,1,,,,,ココアリテ,0
2541,8290801031199,新規,0,2025-01-16,2025-01-16,株式会社斉藤興業,,株式会社,福岡県,北九州市若松区,中畑町１５番１号,,40,103,8080047,,,,,,,2025-01-16,1,,,,,サイトウコウギョウ,0
2549,8310003004926,新規,0,2025-01-16,2025-01-16,合同会社Ｎａｎｎｙいっしょ,,合同会社,長崎県,長崎市,三和町２１８番地７５,,42,201,8500975,,,,,,,2025-01-16,1,,,,,ナニーイッショ,0
2559,8330001032811,新規,0,2025-01-16,2025-01-16,株式会社たしろファーム,,株式会社,熊本県,阿蘇郡西原村,大字布田６８２番地６,,43,432,8612403,,,,,,,2025-01-16,1,,,,,タシロファーム,0
2563,8330003010716,新規,0,2025-01-16,2025-01-16,合同会社Ｈ・Ｒ・Ｄ,,合同会社,熊本県,上益城郡益城町,大字惣領９７１番地１,,43,443,8612233,,,,,,,2025-01-16,1,,,,,エイチアールディー,0
2564,8330003010724,新規,0,2025-01-16,2025-01-16,合同会社Ｍｅｉｙｕ,,合同会社,熊本県,熊本市東区,秋津町秋田３２９８番地２市営秋津団地２Ｃ－６－１０３,,43,102,8612105,,,,,,,2025-01-16,1,,,,,メイユー,0
2565,8330005010862,新規,0,2025-01-16,2025-01-16,一般社団法人広安学童クラブ,,その他の設立登記法人,熊本県,上益城郡益城町,大字馬水３５広安小内,,43,443,8612232,,,,,,,2025-01-16,1,,,,,ヒロヤスガクドウクラブ,0
2569,8360001034664,新規,0,2025-01-16,2025-01-16,株式会社パレス沖縄,,株式会社,沖縄県,糸満市,字照屋１２０１番地１,,47,210,9010315,,,,,,,2025-01-16,1,,,,,パレスオキナワ,0
2572,8370001052137,新規,0,2025-01-16,2025-01-16,株式会社くりの花,,株式会社,宮城県,仙台市青葉区,栗生１丁目１７番地の２２,,04,101,9893122,,,,,,,2025-01-16,1,,,,,クリノハナ,0
2573,8370001052145,新規,0,2025-01-16,2025-01-16,株式会社晃陽燃料,,株式会社,宮城県,仙台市宮城野区,東仙台５丁目３７番１６号２０６,,04,102,9830833,,,,,,,2025-01-16,1,,,,,コウヨウネンリョウ,0
2585,8390003002336,新規,0,2025-01-16,2025-01-16,合同会社くろかわファーム,,合同会社,山形県,東置賜郡川西町,大字黒川１１０１番地,,06,382,9990131,,,,,,,2025-01-16,1,,,,,クロカワファーム,0
2597,8480001012708,新規,0,2025-01-16,2025-01-16,株式会社ＴＰＣ西部,,株式会社,徳島県,吉野川市,鴨島町知恵島字四ツ屋１５８６番地１,,36,205,7760014,,,,,,,2025-01-16,1,,,,,テーピーシーセイブ,0
2599,8700150064428,新規,0,2025-01-16,2015-10-09,鹿児島県保険医協会,,その他,鹿児島県,鹿児島市,金生町７－８－７階,,46,201,8920828,,,,,,,2015-10-09,1,,,,,カゴシマケンホケンイキヨウカイ,0
2600,8700150128752,新規,0,2025-01-16,2025-01-16,Ｇａｎｚｈｏｕｍｕｘｉｎｇｋｅｊｉｙｏｕｘｉａｎｇｏｎｇｓｉ,,外国会社等,,,,,,,,Ｊｉａｎｇｘｉｓｈｅｎｇｇａｎｚｈｏｕｓｈｉｚｈａｎｇｇｏｎｇｑｕｘｉｎｇａｎｚｈｏｕｄａｄａｏ８ｈａｏｈｕａｒｕｎｗａｎｘｉａｎｇＳＯＨＯ５１０３ｇｏｎｇｙｕ,,,,,,2025-01-16,1,,,,,ガンゾウムシンカギユウゲンコウシ,0
2601,8700150128760,新規,0,2025-01-16,2025-01-16,Ｈａｆｅｌｅ　Ｋｏｒｅａ　Ｉｎｃ．,,外国会社等,神奈川県,横浜市戸塚区,上品濃１４－１７,,14,110,2440806,１５９，Ｇｕｋｓａｂｏｎｇ－ｒｏ，Ｄｏｃｈｅｏｋ－ｍｙｅｏｎ，Ｇｗａｎｇｊｕ－ｃｉｔｙ，Ｇｙｅｏｎｇｇｉ－ｄｏ，Ｒｅｐｕｂｌｉｃ　ｏｆ　Ｋｏｒｅａ,,,,,,2025-01-16,1,,,,,ハーフエレコリアインク,0
2610,9010001251120,新規,0,2025-01-16,2025-01-16,株式会社Ｕｎｉｔｅｄ　Ｓｔｏｒｉｅｓ,,株式会社,東京都,中央区,日本橋富沢町４番１０号,,13,102,1030006,,,,,,,2025-01-16,1,,,,,ユナイテッドストーリーズ,0
2611,9010001251129,新規,0,2025-01-16,2025-01-16,ランタンアドバイザリーグループ株式会社,,株式会社,東京都,中央区,銀座１丁目１２番４号Ｎ＆Ｅ・ＢＬＤ．７階,,13,102,1040061,,,,,,,2025-01-16,1,,,,,ランタンアドバイザリーグループ,0
2612,9010001251450,新規,0,2025-01-16,2025-01-16,ＤＸｏｐｔｉｍｉｚａｔｉｏｎ株式会社,,株式会社,東京都,千代田区,神田和泉町１番地６の１６ヤマトビル４０５,,13,101,1010024,,,,,,,2025-01-16,1,,,,,ディーエックスオプティマイゼーション,0
2613,9010001251459,新規,0,2025-01-16,2025-01-16,Ｍａｓｏｕｒｉ　Ｃａｐｉｔａｌ株式会社,,株式会社,東京都,千代田区,四番町４番地９新東京国際リーガル内,,13,101,1020081,,,,,,,2025-01-16,1,,,,,マソウリキャピタル,0
2625,9010401187484,新規,0,2025-01-16,2025-01-16,クリエイティブラボクリエ株式会社,,株式会社,東京都,港区,東麻布２丁目２３－３,,13,103,1060044,,,,,,,2025-01-16,1,,,,,クリエイティブラボクリエ,0
2626,9010401187617,新規,0,2025-01-16,2025-01-16,株式会社ｌｉｌｉｉ＆Ｃｏｍｐａｎｙ,,株式会社,東京都,港区,芝浦４丁目２２番１－１６０６号,,13,103,1080023,,,,,,,2025-01-16,1,,,,,リリイアンドカンパニー,0
2627,9010401187633,新規,0,2025-01-16,2025-01-16,株式会社ＫｅｙＳｔｏｎｅ,,株式会社,東京都,港区,北青山２丁目７番１３号プラセオ青山ビル３階,,13,103,1070061,,,,,,,2025-01-16,1,,,,,キーストーン,0
2631,9010405023933,新規,0,2025-01-16,2025-01-16,行政書士法人外国人雇用サポートセンター,,その他の設立登記法人,東京都,港区,赤坂１丁目１２番３２号アーク森ビル３２階,,13,103,1070052,,,,,,,2025-01-16,1,,,,,ガイコクジンコヨウサポートセンター,0
2635,9010505003579,新規,0,2025-01-16,2025-01-16,一般社団法人ピーアンドシー,,その他の設立登記法人,東京都,台東区,上野６丁目３番４号フタバビル３階,,13,106,1100005,,,,,,,2025-01-16,1,,,,,ピーアンドシー,0
2637,9010601066587,新規,0,2025-01-16,2025-01-16,株式会社スマイル１,,株式会社,東京都,墨田区,両国４丁目３番４－８０３号,,13,107,1300026,,,,,,,2025-01-16,1,,,,,スマイルワン,0
2638,9010603011319,新規,0,2025-01-16,2025-01-16,Ｋｉｒｅｈａｓｈｉ合同会社,,合同会社,東京都,江東区,北砂５丁目２０－４－８１２,,13,108,1360073,,,,,,,2025-01-16,1,,,,,キレハシ,0
2639,9010603011327,新規,0,2025-01-16,2025-01-16,合同会社フードライフ,,合同会社,東京都,墨田区,両国４丁目２７－３,,13,107,1300026,,,,,,,2025-01-16,1,,,,,フードライフ,0
2643,9010701047082,新規,0,2025-01-16,2025-01-16,株式会社Ｎｆｌａｎ,,株式会社,東京都,品川区,上大崎１丁目１０番１９号ＰＲＥＭＩＵＭＣＵＢＥＧ白金台３０７,,13,109,1410021,,,,,,,2025-01-16,1,,,,,エヌフラン,0
2645,9010703007539,新規,0,2025-01-16,2025-01-16,合同会社ＩＴブリコラージュ,,合同会社,東京都,品川区,大井６丁目１８番２４号,,13,109,1400014,,,,,,,2025-01-16,1,,,,,アイティーブリコラージュ,0
2647,9010901056643,新規,0,2025-01-16,2025-01-16,株式会社ＳＡＣＲＵＭ,,株式会社,東京都,世田谷区,池尻３丁目５－１－４０５,,13,112,1540001,,,,,,,2025-01-16,1,,,,,セイクラム,0
2657,9011001167026,新規,0,2025-01-16,2025-01-16,ＨＲＩＴＳＴＵＤＩＯ株式会社,,株式会社,東京都,渋谷区,渋谷２丁目１９番１５号宮益坂ビルディング６０９,,13,113,1500002,,,,,,,2025-01-16,1,,,,,エイチアールアイティースタジオ,0
2658,9011001167050,新規,0,2025-01-16,2025-01-16,株式会社ＰＭＡ,,株式会社,東京都,目黒区,柿の木坂１丁目１３番１９号,,13,110,1520022,,,,,,,2025-01-16,1,,,,,ピーエムエー,0
2659,9011001167166,新規,0,2025-01-16,2025-01-16,一然株式会社,,株式会社,東京都,渋谷区,神泉町８番１０号メゾン神泉２０７,,13,113,1500045,,,,,,,2025-01-16,1,,,,,イチゼン,0
2660,9011001167190,新規,0,2025-01-16,2025-01-16,株式会社ツカリマクリ,,株式会社,東京都,渋谷区,渋谷２丁目１９番１５－６０９号宮益坂ビルディング,,13,113,1500002,,,,,,,2025-01-16,1,,,,,ツカリマクリ,0
2664,9011003020653,新規,0,2025-01-16,2025-01-16,Ｔｗｉｎｋｌｅ　Ｅｎｔｅｒｔａｉｎｍｅｎｔ　Ａｔｅｌｉｅｒ合同会社,,合同会社,東京都,渋谷区,道玄坂１丁目１０番８号渋谷道玄坂東急ビル２Ｆ－Ｃ,,13,113,1500043,,,,,,,2025-01-16,1,,,,,トゥインクルエンターテインメントアトリエ,0
2665,9011003020793,新規,0,2025-01-16,2025-01-16,合同会社ＦＥＴＡ,,合同会社,東京都,渋谷区,広尾５丁目４―１６―３Ｆ,,13,113,1500012,,,,,,,2025-01-16,1,,,,,フェタ,0
2668,9011101110249,新規,0,2025-01-16,2025-01-16,ＳＴＡＲＴＥＣ株式会社,,株式会社,東京都,新宿区,四谷４丁目８番地,,13,104,1600004,,,,,,,2025-01-16,1,,,,,スターテック,0
2674,9011501031581,新規,0,2025-01-16,2025-01-16,ＡＢＣ株式会社,,株式会社,東京都,荒川区,町屋３丁目２４番２号面川ビル２０５号室,,13,118,1160001,,,,,,,2025-01-16,1,,,,,エイビーシー,0
2677,9011603004576,新規,0,2025-01-16,2025-01-16,合同会社ＴＦパイ,,合同会社,東京都,練馬区,氷川台４丁目４７番１８号,,13,120,1790084,,,,,,,2025-01-16,1,,,,,ティーエフパイ,0
2683,9012703003179,新規,0,2025-01-16,2025-01-16,合同会社Ｓｎｏｗ　ｔｒｅｅ,,合同会社,東京都,小平市,花小金井南町１丁目３番１１－Ｃ３６１号,,13,211,1870003,,,,,,,2025-01-16,1,,,,,スノーツリー,0
2693,9020001160824,新規,0,2025-01-16,2025-01-16,株式会社翔,,株式会社,神奈川県,横浜市西区,浅間町１丁目４番３号ウィザードビル４０２,,14,103,2200072,,,,,,,2025-01-16,1,,,,,カケル,0
2694,9020001160865,新規,0,2025-01-16,2025-01-16,株式会社ｎｏ‐ｂｌｅ,,株式会社,神奈川県,横浜市港北区,綱島東１丁目１５番１２号メゾンカトーレ４０１,,14,109,2230052,,,,,,,2025-01-16,1,,,,,ノーブル,0
2695,9020001161005,新規,0,2025-01-16,2025-01-16,株式会社Ｒｉｖｅｒ,,株式会社,神奈川県,横浜市保土ケ谷区,峰岡町２丁目２１５番地１サンライズ峰岡Ｉ棟１０３号,00137663,14,106,2400064,,,,,,,2025-01-16,1,,,,,リバー,0
2700,9020003027559,新規,0,2025-01-16,2025-01-16,みろく合同会社,,合同会社,神奈川県,横浜市青葉区,しらとり台４５－１－２１１,,14,117,2270054,,,,,,,2025-01-16,1,,,,,ミロク,0
2709,9021001084121,新規,0,2025-01-16,2025-01-16,株式会社ｖｉｂｒａｔｉｏｎ,,株式会社,神奈川県,相模原市中央区,千代田３丁目１５番１０号,,14,152,2520237,,,,,,,2025-01-16,1,,,,,バイブレーション,0
2711,9021003015462,新規,0,2025-01-16,2025-01-16,Ｂｅｌｌｉｓｓｉｍａ合同会社,,合同会社,神奈川県,厚木市,鳶尾２丁目３番２３－１号,,14,212,2430204,,,,,,,2025-01-16,1,,,,,ベリッシマ,0
2712,9021003015470,新規,0,2025-01-16,2025-01-16,合同会社Ｓａｃｈｉコーポレーション,,合同会社,神奈川県,大和市,渋谷８丁目１番地１０渋谷スクエアエル５０１,,14,213,2420023,,,,,,,2025-01-16,1,,,,,サチコーポレーション,0
2718,9040001137003,新規,0,2025-01-16,2025-01-16,ピカピカ株式会社,,株式会社,千葉県,市原市,五井２２４５番地１１,,12,219,2900056,,,,,,,2025-01-16,1,,,,,ピカピカ,0
2719,9040001137011,新規,0,2025-01-16,2025-01-16,株式会社ＡＶＩＤ,,株式会社,千葉県,流山市,大字東深井４０８－１－１０３,,12,220,2700101,,,,,,,2025-01-16,1,,,,,アビッド,0
2725,9040003026609,新規,0,2025-01-16,2025-01-16,合同会社ＣＨＩＢＡ　ＨＯＫＵＳＥＩ　ＩＮＴＥＲＮＡＴＩＯＮＡＬ,,合同会社,千葉県,山武市,木原１７００番地１,,12,237,2891212,,,,,,,2025-01-16,1,,,,,チバホクセイインターナショナル,0
2738,9110001038994,新規,0,2025-01-16,2025-01-16,株式会社美匠,,株式会社,新潟県,燕市,花見３８３番地,,15,213,9591280,,,,,,,2025-01-16,1,,,,,ビショウ,0
2745,9120001271685,新規,0,2025-01-16,2025-01-16,株式会社Ａｌｔｅｏｎ,,株式会社,大阪府,大阪市北区,東天満１丁目７－２２－１３０５,,27,127,5300044,,,,,,,2025-01-16,1,,,,,アルテオン,0
2746,9120001271909,新規,0,2025-01-16,2025-01-16,株式会社大阪国際産業医事務所,,株式会社,大阪府,大阪市西区,西本町１丁目４番１号オリックス本町ビル４階,,27,106,5500005,,,,,,,2025-01-16,1,,,,,オオサカコクサイサンギョウイジムショ,0
2747,9120001272031,新規,0,2025-01-16,2025-01-16,株式会社アオ,,株式会社,大阪府,大阪市生野区,新今里４丁目３番９号,,27,116,5440001,,,,,,,2025-01-16,1,,,,,アオ,0
2748,9120003028357,新規,0,2025-01-16,2025-01-16,合同会社ヒカリ,,合同会社,大阪府,大阪市生野区,小路３丁目１０番１９号,,27,116,5440002,,,,,,,2025-01-16,1,,,,,ヒカリ,0
2749,9120005024718,新規,0,2025-01-16,2025-01-16,一般社団法人全日本紳士服デザイナー協会,,その他の設立登記法人,大阪府,大阪市中央区,東高麗橋２番３１号,,27,128,5400039,,,,,,,2025-01-16,1,,,,,ゼンニホンシンシフクデザイナーキョウカイ,0
2752,9120103006238,新規,0,2025-01-16,2025-01-16,紫織工房合同会社,,合同会社,大阪府,堺市堺区,柳之町西３丁２番６号,,27,141,5900930,,,,,,,2025-01-16,1,,,,,シオリコウボウ,0
2753,9120901050263,新規,0,2025-01-16,2025-01-16,株式会社ｎｅｕ,,株式会社,大阪府,高槻市,氷室町１丁目２０番４号,,27,207,5691141,,,,,,,2025-01-16,1,,,,,ノイ,0
2754,9120901050296,新規,0,2025-01-16,2025-01-16,ｂｂ．ｇｒｉｎ株式会社,,株式会社,大阪府,吹田市,千里山竹園１丁目１８番２－５０１号,,27,205,5650852,,,,,,,2025-01-16,1,,,,,,0
2761,9130001078733,新規,0,2025-01-16,2025-01-16,株式会社カレント,,株式会社,京都府,京都市伏見区,下鳥羽南三町１６番地,,26,109,6128478,,,,,,,2025-01-16,1,,,,,カレント,0
2762,9130001078774,新規,0,2025-01-16,2025-01-16,株式会社ＳＡＭＵＲＡＩ　ＢＡＳＥＢＡＬＬ　ＣＬＵＢ,,株式会社,京都府,福知山市,字堀２４２８番地の２,,26,201,6200000,,,,,,,2025-01-16,1,,,,,サムライベースボールクラブ,0
2763,9130001078782,新規,0,2025-01-16,2025-01-16,株式会社ＯｗｌＬｏｇｉｃ,,株式会社,京都府,京都市中京区,西ノ京左馬寮町９,,26,104,6048491,,,,,,,2025-01-16,1,,,,,オウルロジック,0
2765,9130003010108,新規,0,2025-01-16,2025-01-16,しののめ合同会社,,合同会社,京都府,京都市南区,久世東土川町１７－３－３０３,,26,107,6018204,,,,,,,2025-01-16,1,,,,,シノノメ,0
2780,9140001137059,新規,0,2025-01-16,2025-01-16,株式会社ブルームノート,,株式会社,兵庫県,明石市,東野町２０４３番地の１７リベール明石ラ・メール６０５号,,28,203,6730844,,,,,,,2025-01-16,1,,,,,ブルームノート,0
2781,9140001137067,新規,0,2025-01-16,2025-01-16,株式会社センターフィールド,,株式会社,兵庫県,神戸市北区,泉台７丁目２－１－４－１０６,,28,109,6511141,,,,,,,2025-01-16,1,,,,,センターフィールド,0
2782,9140001137075,新規,0,2025-01-16,2025-01-16,株式会社Ｍｓ　ＡＮＤ１,,株式会社,兵庫県,尼崎市,武庫元町２丁目１８番６－２号,,28,202,6610043,,,,,,,2025-01-16,1,,,,,エムズエンドワン,0
2783,9140001137100,新規,0,2025-01-16,2025-01-16,Ｆｉｒｓｔ　Ｓｔａｒ株式会社,,株式会社,兵庫県,尼崎市,浜田町４丁目２０－５,,28,202,6600062,,,,,,,2025-01-16,1,,,,,ファーストスター,0
2785,9140003021541,新規,0,2025-01-16,2025-01-16,合同会社彩使,,合同会社,兵庫県,姫路市,北原７８１,,28,201,6728002,,,,,,,2025-01-16,1,,,,,サイシ,0
2786,9140005027347,新規,0,2025-01-16,2025-01-16,一般社団法人ｐ．ｏ．ｍ,,その他の設立登記法人,兵庫県,姫路市,田寺東２丁目３０番２２－２号,,28,201,6700081,,,,,,,2025-01-16,1,,,,,ピーオーエム,0
2788,9160001026490,新規,0,2025-01-16,2025-01-16,株式会社八十八ファーム,,株式会社,滋賀県,犬上郡多賀町,大字敏満寺１９２番地,,25,443,5220342,,,,,,,2025-01-16,1,,,,,ヤソハチファーム,0
2790,9160003003380,新規,0,2025-01-16,2025-01-16,合同会社ＰＫＢ,,合同会社,滋賀県,大津市,柳川１丁目１３番１０号,,25,201,5200014,,,,,,,2025-01-16,1,,,,,ピーケービー,0
2805,9180001164859,新規,0,2025-01-16,2025-01-16,株式会社雲集社,,株式会社,愛知県,名古屋市中村区,名駅４丁目２４番５号第２森ビル４０１,,23,105,4500002,,,,,,,2025-01-16,1,,,,,ウンシュウシャ,0
2825,9180301039439,新規,0,2025-01-16,2025-01-16,株式会社ＮＥＸＵＳ,,株式会社,愛知県,西尾市,緑町１丁目１８番地１６,,23,213,4450804,,,,,,,2025-01-16,1,,,,,ネクサス,0
2832,9180303006420,新規,0,2025-01-16,2025-01-16,合同会社トータルプロ,,合同会社,愛知県,岡崎市,渡町字圦口１番地１,,23,202,4440933,,,,,,,2025-01-16,1,,,,,トータルプロ,0
2834,9190001031942,新規,0,2025-01-16,2025-01-16,株式会社ＫＯＩＫＥ,,株式会社,三重県,鈴鹿市,長太栄町２丁目７‐１３,,24,207,5130043,,,,,,,2025-01-16,1,,,,,コイケ,0
2842,9200001043333,新規,0,2025-01-16,2025-01-16,株式会社Ａ‐ＢＡＯ‐Ａ‐ＱＵ,,株式会社,岐阜県,瑞穂市,野田新田３９２１番地１,,21,216,5010232,,,,,,,2025-01-16,1,,,,,アバオアクー,0
2849,9220005008917,新規,0,2025-01-16,2025-01-16,一般社団法人はくさん２号,,その他の設立登記法人,石川県,金沢市,新神田５丁目５番地,,17,201,9218013,,,,,,,2025-01-16,1,,,,,ハクサンニゴウ,0
2852,9240001064391,新規,0,2025-01-16,2025-01-16,蓮見工業株式会社,,株式会社,広島県,広島市安佐南区,大町東２丁目３番２－１０１号,,34,105,7310124,,,,,,,2025-01-16,1,,,,,ハスミコウギョウ,0
2857,9250001020971,新規,0,2025-01-16,2025-01-16,ＡＧ株式会社,,株式会社,山口県,萩市,大字高佐下１０番地１０,,35,204,7580303,,,,,,,2025-01-16,1,,,,,エージー,0
2861,9260001039813,新規,0,2025-01-16,2025-01-16,株式会社福真,,株式会社,岡山県,倉敷市,亀島２丁目１５番１９号,,33,202,7128013,,,,,,,2025-01-16,1,,,,,フクシン,0
2863,9280005007640,新規,0,2025-01-16,2025-01-16,農事組合法人八所,,その他の設立登記法人,島根県,雲南市,大東町須賀６３１番地３,,32,209,6991205,,,,,,,2025-01-16,1,,,,,ハッソ,0
2870,9290001108540,新規,0,2025-01-16,2025-01-16,株式会社ＨＩＲＯ’Ｓ‐ＦＸ,,株式会社,福岡県,大野城市,平野台３丁目１６番１７号,,40,219,8160972,,,,,,,2025-01-16,1,,,,,ヒロズエフエックス,0
2871,9290001108623,新規,0,2025-01-16,2025-01-16,株式会社Ｃｅｋａｉｗａ,,株式会社,福岡県,糸島市,潤３丁目２番５号,,40,230,8191105,,,,,,,2025-01-16,1,,,,,セカイワ,0
2872,9290001108631,新規,0,2025-01-16,2025-01-16,五豊株式会社,,株式会社,福岡県,柳川市,三橋町吉開６７－２－２０２室,,40,207,8320802,,,,,,,2025-01-16,1,,,,,ゴホウ,0
2874,9290801031198,新規,0,2025-01-16,2025-01-16,株式会社ＴＳＵＢＡＳＡ,,株式会社,福岡県,宮若市,鶴田１７７７番地,,40,226,8230002,,,,,,,2025-01-16,1,,,,,ツバサ,0
2883,9330001032785,新規,0,2025-01-16,2025-01-16,株式会社Ｔ．Ｄ．Ｓ,,株式会社,熊本県,上益城郡甲佐町,大字糸田１３８１番地１,,43,444,8613242,,,,,,,2025-01-16,1,,,,,ティーディーエス,0
2885,9340001027058,新規,0,2025-01-16,2025-01-16,株式会社ＥＳＴＡＴＥ　ＵＰ,,株式会社,鹿児島県,鹿児島市,荒田２丁目４１番１４号ＰＲＥＭＩＵＭ　ＡＲＡＴＡ１Ｆ,,46,201,8900054,,,,,,,2025-01-16,1,,,,,エステートアップ,0
2889,9360001034655,新規,0,2025-01-16,2025-01-16,株式会社Ｔｈｒｉｖｅ,,株式会社,沖縄県,浦添市,仲間２丁目４２番１－２０３号,,47,208,9012103,,,,,,,2025-01-16,1,,,,,スライブ,0
2891,9360003014597,新規,0,2025-01-16,2025-01-16,合同会社Ｓ．ｉ．ｃ,,合同会社,沖縄県,豊見城市,字伊良波１５１番地２,,47,212,9010232,,,,,,,2025-01-16,1,,,,,エスアイシー,0
2892,9370001052144,新規,0,2025-01-16,2025-01-16,株式会社Ｅｔｅｒｎａｌ,,株式会社,宮城県,仙台市青葉区,愛子東１丁目８番３３号,,04,101,9893127,,,,,,,2025-01-16,1,,,,,エターナル,0
2897,9380001035032,新規,0,2025-01-16,2025-01-16,株式会社楠板金工業,,株式会社,福島県,郡山市,田村町金沢字仲原１７４番地の１,,07,203,9631151,,,,,,,2025-01-16,1,,,,,クスノキバンキンコウギョウ,0
2902,9420003003049,新規,0,2025-01-16,2025-01-16,合同会社くすのき,,合同会社,青森県,青森市,桜川２丁目１番２１号,,02,201,0300945,,,,,,,2025-01-16,1,,,,,クスノキ,0
2906,9500005008756,新規,0,2025-01-16,2025-01-16,ＮＰＯ法人ちょこっと多縁よど,,その他の設立登記法人,愛媛県,松山市,余戸南３丁目８番９号,,38,201,7900047,,,,,,,2025-01-16,1,,,,,チョコットオウエンヨド,0
2907,9700150128751,新規,0,2025-01-16,2025-01-16,Ｓｈｅｎ　Ｚｈｅｎ　Ｓｈｉ　Ｘｉｎ　Ｆｅｉ　Ｙｉ　Ｋｅ　Ｊｉ　Ｙｏｕ　Ｘｉａｎ　Ｇｏｎｇ　Ｓｉ,,外国会社等,,,,,,,,ＬＯＮＧＧＡＮＧＱＵ　ＢＡＮＴＩＡＮＪＩＥＤＡＯ　ＧＡＮＧＴＯＵＳＨＥＱＵ　ＴＩＡＮＡＮＹＵＮＧＵＣＨＡＮＹＥＹＵＡＮ　ＥＲＱＩ　４ＤＯＮＧ　２００８－０１．ＳＨＥＮＺＨＥＮ,,,,,,2025-01-16,1,,,,,シンセンシシンフェイイカギユウゲンコウシ,0
