sequenceNumber,corporateNumber,process,correct,updateDate,changeDate,name,nameImageId,kind,prefectureName,cityName,streetNumber,addressImageId,prefectureCode,cityCode,postCode,addressOutside,addressOutsideImageId,closeDate,closeCause,successorCorporateNumber,changeCause,assignmentDate,latest,enName,enPrefectureName,enCityName,enAddressOutside,furigana,hihyoji
15,1010001222252,新規,0,2021-11-08,2021-11-08,スタンダードネットワーク株式会社,,株式会社,東京都,中央区,佃２丁目９番１－１１０６号,,13,102,1040051,,,,,,,2021-11-08,1,,,,,スタンダードネットワーク,0
16,1010001222269,新規,0,2021-11-08,2021-11-08,株式会社アプローズ・スクウェア,,株式会社,東京都,千代田区,神田三崎町３丁目１０番４号千代田ビル５階,,13,101,1010061,,,,,,,2021-11-08,1,,,,,アプローズスクウェア,0
17,1010001222277,新規,0,2021-11-08,2021-11-08,株式会社ティーケーケー,,株式会社,東京都,中央区,銀座１丁目２２番１１号銀座大竹ビジデンス２階,,13,102,1040061,,,,,,,2021-11-08,1,,,,,ティーケーケー,0
18,1010001222319,新規,0,2021-11-08,2021-11-08,株式会社ＮｅｖｅｒＢｅｅｎＢｅｔｔｅｒ,,株式会社,東京都,中央区,日本橋室町４丁目１番１４号,,13,102,1030022,,,,,,,2021-11-08,1,,,,,ネバービーンベター,0
23,1010005034173,新規,0,2021-11-08,2021-11-08,Ｙｙキャピタル一般社団法人,,その他の設立登記法人,東京都,中央区,日本橋１丁目４番１号日本橋一丁目ビルディング,,13,102,1030027,,,,,,,2021-11-08,1,,,,,ワイワイキャピタル,0
31,1010401163641,新規,0,2021-11-08,2021-11-08,株式会社ＥＮ,,株式会社,東京都,港区,六本木４丁目１番１８号ニュー麻布ビル６Ｆ,,13,103,1060032,,,,,,,2021-11-08,1,,,,,エン,0
32,1010401163682,新規,0,2021-11-08,2021-11-08,株式会社Ｗｏｎｄｅｒｄｏｔｓ,,株式会社,東京都,港区,赤坂８丁目４－１４青山タワープレイス８Ｆ,,13,103,1070052,,,,,,,2021-11-08,1,,,,,ワンダードッツ,0
33,1010401163708,新規,0,2021-11-08,2021-11-08,Ａｏｙａｍａ　Ｉｎｔｅｒｎａｔｉｏｎａｌ　Ａｄｖｉｓｏｒｙ株式会社,,株式会社,東京都,港区,南青山２丁目１３番２号,,13,103,1070062,,,,,,,2021-11-08,1,,,,,アオヤマインターナショナルアドバイザリー,0
38,1010501048073,新規,0,2021-11-08,2021-11-08,Ｒｅａｌ　Ｐａｒｔｎｅｒｓ株式会社,,株式会社,東京都,台東区,寿１丁目１９番７号浅草コヤマハイツ６０２号室,,13,106,1110042,,,,,,,2021-11-08,1,,,,,リアルパートナーズ,0
44,1010601060168,新規,0,2021-11-08,2021-11-08,株式会社ＮＡＮＡ,,株式会社,東京都,江東区,有明１丁目４番２０号,,13,108,1350063,,,,,,,2021-11-08,1,,,,,ナナ,0
47,1010701041737,新規,0,2021-11-08,2021-11-08,ジェイズ株式会社,,株式会社,東京都,品川区,西大井４丁目１３番１２号,,13,109,1400015,,,,,,,2021-11-08,1,,,,,ジェイズ,0
62,1011001143728,新規,0,2021-11-08,2021-11-08,株式会社ｆｏｒｍｕｌａｓ,,株式会社,東京都,渋谷区,渋谷２丁目１９番１５号宮益坂ビルディング６０９,,13,113,1500002,,,,,,,2021-11-08,1,,,,,フォーミュラス,0
63,1011001143777,新規,0,2021-11-08,2021-11-08,株式会社マーキュリー・スプラウト,,株式会社,東京都,渋谷区,神宮前４丁目９番１７－５０３号パークアクシスプレミア表参道,,13,113,1500001,,,,,,,2021-11-08,1,,,,,マーキュリースプラウト,0
64,1011001143884,新規,0,2021-11-08,2021-11-08,株式会社トライブ企画,,株式会社,東京都,目黒区,上目黒１丁目２６番１－２４０３号,,13,110,1530051,,,,,,,2021-11-08,1,,,,,トライブキカク,0
66,1011101096784,新規,0,2021-11-08,2021-11-08,ＳＴＵＤＩＯ　ＮＵＬＬ株式会社,,株式会社,東京都,新宿区,袋町５番地１ＦＡＲＯ神楽坂１階,,13,104,1620828,,,,,,,2021-11-08,1,,,,,スタジオヌル,0
67,1011101096792,新規,0,2021-11-08,2021-11-08,株式会社ＭＭＩ,,株式会社,東京都,新宿区,新宿５丁目１８番２０－８０３号,,13,104,1600022,,,,,,,2021-11-08,1,,,,,エムエムアイ,0
68,1011101096801,新規,0,2021-11-08,2021-11-08,株式会社ＵｎｄｅｒＴａｋｅ,,株式会社,東京都,新宿区,戸山１丁目６番５号,,13,104,1620052,,,,,,,2021-11-08,1,,,,,アンダーテイク,0
69,1011101096818,新規,0,2021-11-08,2021-11-08,Ｍｓ．Ｅｎｇｉｎｅｅｒ株式会社,,株式会社,東京都,新宿区,神楽坂５丁目２０番地５,,13,104,1620825,,,,,,,2021-11-08,1,,,,,ミズエンジニア,0
71,1011103011122,新規,0,2021-11-08,2021-11-08,合同会社キャストアンドビルド,,合同会社,東京都,新宿区,西新宿４丁目３５番２１号エスパシオ西新宿１０６,,13,104,1600023,,,,,,,2021-11-08,1,,,,,キャストアンドビルド,0
72,1011103011139,新規,0,2021-11-08,2021-11-08,合同会社施設調剤薬局,,合同会社,東京都,新宿区,中落合３丁目１２番７号ゾネンハイム中落合１０１,,13,104,1610032,,,,,,,2021-11-08,1,,,,,シセツチョウザイヤッキョク,0
74,1011201023390,新規,0,2021-11-08,2021-11-08,ＦＥＬＩＣＥ株式会社,,株式会社,東京都,中野区,中野１丁目３２番７号第３新栄ビル１Ｆ,,13,114,1640001,,,,,,,2021-11-08,1,,,,,フェリーチェ,0
79,1011601025524,新規,0,2021-11-08,2021-11-08,株式会社Ｒ．Ｍ．Ａ,,株式会社,東京都,練馬区,東大泉６丁目２７番４号,,13,120,1780063,,,,,,,2021-11-08,1,,,,,アールエムエー,0
85,1012303001607,新規,0,2021-11-08,2021-11-08,合同会社ＷｅＭｏｖｅ,,合同会社,東京都,町田市,原町田３丁目１０番１号,,13,209,1940013,,,,,,,2021-11-08,1,,,,,ウィムーブ,0
89,1013103001086,新規,0,2021-11-08,2021-11-08,合同会社ＰＫＳ　ＳＨＯＰ,,合同会社,東京都,青梅市,河辺町９丁目９番地の７ルミネ河辺１０８,,13,205,1980036,,,,,,,2021-11-08,1,,,,,ピーケーエスショップ,0
90,1013201001649,新規,0,2021-11-08,2021-11-08,株式会社綺羅,,株式会社,東京都,目黒区,大橋１丁目７番４号,,13,110,1530044,,,,,,,2021-11-08,1,,,,,キラ,0
104,1020001143745,新規,0,2021-11-08,2021-11-08,株式会社アクティ,,株式会社,神奈川県,横浜市都筑区,牛久保西２丁目１番３３号,,14,118,2240015,,,,,,,2021-11-08,1,,,,,アクティ,0
105,1020001143761,新規,0,2021-11-08,2021-11-08,株式会社Ｔ－Ｓｑｕａｄ,,株式会社,神奈川県,川崎市宮前区,宮崎１丁目９番地１,,14,136,2160033,,,,,,,2021-11-08,1,,,,,ティースクワッド,0
114,1021001074435,新規,0,2021-11-08,2021-11-08,株式会社なるみ,,株式会社,神奈川県,綾瀬市,寺尾北１丁目１１番１６－２号,,14,218,2521131,,,,,,,2021-11-08,1,,,,,ナルミ,0
119,1021003011048,新規,0,2021-11-08,2021-11-08,合同会社レセーナ,,合同会社,神奈川県,相模原市緑区,大島３３３６番地７,,14,151,2520135,,,,,,,2021-11-08,1,,,,,レセーナ,0
120,1021003011064,新規,0,2021-11-08,2021-11-08,合同会社ＮｉＣＯパートナーズ,,合同会社,神奈川県,秦野市,鶴巻北１丁目１５―１,,14,211,2570001,,,,,,,2021-11-08,1,,,,,ニコパートナーズ,0
125,1030001145096,新規,0,2021-11-08,2021-11-08,株式会社宮城家,,株式会社,埼玉県,川口市,飯塚２丁目８番２４－２０２号オークガーデン,,11,203,3320023,,,,,,,2021-11-08,1,,,,,ミヤギヤ,0
126,1030001145253,新規,0,2021-11-08,2021-11-08,株式会社Ｔｒｕｍｐ　Ｇａｒａｇｅ,,株式会社,埼玉県,川口市,芝高木１丁目１４番３０号,,11,203,3330868,,,,,,,2021-11-08,1,,,,,トランプガレージ,0
131,1030005020626,新規,0,2021-11-08,2021-11-08,一般社団法人ＺＵＡＮ　ＵＮＩＯＮ,,その他の設立登記法人,埼玉県,比企郡滑川町,大字都１４番地２７,,11,341,3550812,,,,,,,2021-11-08,1,,,,,ズアンユニオン,0
138,1040001120841,新規,0,2021-11-08,2021-11-08,株式会社ワンリンク,,株式会社,千葉県,松戸市,常盤平２丁目２１番地の８,,12,207,2702261,,,,,,,2021-11-08,1,,,,,ワンリンク,0
139,1040001120874,新規,0,2021-11-08,2021-11-08,Ｋ－ＳＴＹＬＥ株式会社,,株式会社,千葉県,柏市,南逆井１丁目１０番１５号Ｂ棟２０１,,12,217,2770043,,,,,,,2021-11-08,1,,,,,ケースタイル,0
140,1040001120882,新規,0,2021-11-08,2021-11-08,株式会社ｆｌａｎｎｅｌ,,株式会社,千葉県,佐倉市,ユーカリが丘４丁目１番Ｃ－４０７号,,12,212,2850858,,,,,,,2021-11-08,1,,,,,フランネル,0
141,1040001120899,新規,0,2021-11-08,2021-11-08,予約窓口株式会社,,株式会社,千葉県,館山市,北条９６３番地,,12,205,2940045,,,,,,,2021-11-08,1,,,,,ヨヤクマドグチ,0
146,1040005021417,新規,0,2021-11-08,2021-11-08,医療法人社団優凪会,,その他の設立登記法人,千葉県,松戸市,東松戸２丁目５番１号ファインシティ東松戸１階,,12,207,2702225,,,,,,,2021-11-08,1,,,,,ユウナギカイ,0
150,1050001050063,新規,0,2021-11-08,2021-11-08,Ｏｌｄ　Ｒｉｖｅｒ　Ｓｔｏｒｙ株式会社,,株式会社,茨城県,古河市,三杉町１丁目９番１号,,08,204,3060002,,,,,,,2021-11-08,1,,,,,オールドリバーストーリー,0
151,1050001050113,新規,0,2021-11-08,2021-11-08,鼎豊株式会社,,株式会社,茨城県,結城郡八千代町,大字西大山６１３番地２１,,08,521,3003504,,,,,,,2021-11-08,1,,,,,テイホウ,0
157,1070001038619,新規,0,2021-11-08,2021-11-08,株式会社Ｒａｎｃｅ,,株式会社,群馬県,高崎市,双葉町１２番地１０ポレスター高崎レジデンス１１０６号室,,10,202,3700843,,,,,,,2021-11-08,1,,,,,ランス,0
188,1120001241712,新規,0,2021-11-08,2021-11-08,株式会社ＢＥＬＬＹ　ＧＯＯＤＳ,,株式会社,大阪府,大阪市西区,南堀江１丁目１４番２６号中澤唐木ビル１階Ｄ号室,,27,106,5500015,,,,,,,2021-11-08,1,,,,,ベリーグッズ,0
190,1120003020552,新規,0,2021-11-08,2021-11-08,Ｅｎ合同会社,,合同会社,大阪府,大阪市北区,豊崎３丁目１６番１６－１９０３号,,27,127,5310072,,,,,,,2021-11-08,1,,,,,エン,0
191,1120005022596,新規,0,2021-11-08,2021-11-08,一般社団法人ふぁみりーサポートひなた,,その他の設立登記法人,大阪府,大阪市中央区,鎗屋町１丁目３番１３号,,27,128,5400027,,,,,,,2021-11-08,1,,,,,ファミリーサポートヒナタ,0
198,1120101064609,新規,0,2021-11-08,2021-11-08,美成工務店株式会社,,株式会社,大阪府,貝塚市,海塚２８番地,,27,208,5970083,,,,,,,2021-11-08,1,,,,,ビセイコウムテン,0
203,1120901045163,新規,0,2021-11-08,2021-11-08,奄美梱包運輸株式会社,,株式会社,大阪府,茨木市,井口台１７番２号,,27,211,5670076,,,,,,,2021-11-08,1,,,,,アマミコンポウウンユ,0
206,1122003002209,新規,0,2021-11-08,2021-11-08,合同会社ｈａｎａｈａｎａ,,合同会社,大阪府,八尾市,東山本町８丁目３番２４号,,27,212,5810847,,,,,,,2021-11-08,1,,,,,ハナハナ,0
214,1130001070474,新規,0,2021-11-08,2021-11-08,株式会社テラーノ,,株式会社,京都府,亀岡市,下矢田町４丁目２７番２１号,,26,206,6210854,,,,,,,2021-11-08,1,,,,,テラーノ,0
220,1140001123693,新規,0,2021-11-08,2021-11-08,松岡運送株式会社,,株式会社,兵庫県,尼崎市,昭和通７丁目２３６番３号弘末ビル３階,,28,202,6600881,,,,,,,2021-11-08,1,,,,,マツオカウンソウ,0
221,1140001123801,新規,0,2021-11-08,2021-11-08,ひめじ手柄山ＰＦＩ株式会社,,株式会社,兵庫県,姫路市,網干区新在家１２６１番地の１２,,28,201,6711234,,,,,,,2021-11-08,1,,,,,ヒメジテガラヤマピーエフアイ,0
223,1150005009343,新規,0,2021-11-08,2021-11-08,一般社団法人王寺まちづくり,,その他の設立登記法人,奈良県,北葛城郡王寺町,本町２丁目５－２雪丸茶屋内,,29,425,6360012,,,,,,,2021-11-08,1,,,,,オウジマチヅクリ,0
226,1160001023792,新規,0,2021-11-08,2021-11-08,株式会社レイクワンケンネル,,株式会社,滋賀県,彦根市,犬方町８４５番地２３,,25,202,5220236,,,,,,,2021-11-08,1,,,,,レイクワンケンネル,0
239,1180001148588,新規,0,2021-11-08,2021-11-08,株式会社美創,,株式会社,愛知県,名古屋市東区,葵１丁目１４番２０号エスティメゾン葵６０２号,,23,102,4610004,,,,,,,2021-11-08,1,,,,,ビソウ,0
240,1180001148596,新規,0,2021-11-08,2021-11-08,株式会社リンク,,株式会社,愛知県,名古屋市中区,栄３丁目１５番３３号,,23,106,4600008,,,,,,,2021-11-08,1,,,,,リンク,0
241,1180003023153,新規,0,2021-11-08,2021-11-08,合同会社プロスペリティ,,合同会社,愛知県,津島市,白浜町字八升川田５５番地,,23,208,4960016,,,,,,,2021-11-08,1,,,,,プロスペリティ,0
243,1180301035602,新規,0,2021-11-08,2021-11-08,株式会社ＴＡＳ　ＥＡＴＳ,,株式会社,愛知県,豊田市,浄水町南平１７８番地,,23,211,4700343,,,,,,,2021-11-08,1,,,,,タスイート,0
253,1200005013273,新規,0,2021-11-08,2021-11-08,けやきパートナーズ社会保険労務士法人,,その他の設立登記法人,岐阜県,揖斐郡揖斐川町,三輪８７番地１,,21,401,5010619,,,,,,,2021-11-08,1,,,,,ケヤキパートナーズ,0
254,1220001024504,新規,0,2021-11-08,2021-11-08,株式会社Ｓｅｖｉ　Ａｓｓｉｓｔ,,株式会社,石川県,羽咋市,中川町に１２番地１,,17,207,9250614,,,,,,,2021-11-08,1,,,,,セヴィアシスト,0
255,1230001019073,新規,0,2021-11-08,2021-11-08,ｄｏｔ　ＤＵＣＫ株式会社,,株式会社,富山県,富山市,新園町９７番地１,,16,201,9390000,,,,,,,2021-11-08,1,,,,,ドットダック,0
260,1240001058863,新規,0,2021-11-08,2021-11-08,株式会社アール・クリエイト,,株式会社,広島県,三次市,十日市西４丁目２番６号,,34,209,7280011,,,,,,,2021-11-08,1,,,,,アールクリエイト,0
261,1240001058888,新規,0,2021-11-08,2021-11-08,株式会社読売ＹＣ福山東,,株式会社,広島県,福山市,今町３番７号,,34,207,7200046,,,,,,,2021-11-08,1,,,,,ヨミウリワイシーフクヤマヒガシ,0
270,1290001095290,新規,0,2021-11-08,2021-11-08,株式会社岡田電気,,株式会社,福岡県,久留米市,三潴町田川２０１６番地３,,40,203,8300102,,,,,,,2021-11-08,1,,,,,オカダデンキ,0
271,1290003011799,新規,0,2021-11-08,2021-11-08,合同会社ミュゼドモーツアルト,,合同会社,福岡県,福岡市東区,松崎３丁目３６番１７号,,40,131,8130035,,,,,,,2021-11-08,1,,,,,ミュゼドモーツアルト,0
273,1290801027955,新規,0,2021-11-08,2021-11-08,株式会社アネストエンジニア,,株式会社,福岡県,北九州市小倉北区,緑ケ丘１丁目１３番４－１０１号,,40,106,8030827,,,,,,,2021-11-08,1,,,,,アネストエンジニア,0
275,1300001012698,新規,0,2021-11-08,2021-11-08,株式会社ムラヤマ電機,,株式会社,佐賀県,佐賀市,大財３丁目６番１１号,,41,201,8400811,,,,,,,2021-11-08,1,,,,,ムラヤマデンキ,0
282,1330001029145,新規,0,2021-11-08,2021-11-08,株式会社レゴリス,,株式会社,熊本県,八代市,古閑中町８４６番地１８,,43,202,8660898,,,,,,,2021-11-08,1,,,,,レゴリス,0
283,1330005010423,新規,0,2021-11-08,2021-11-08,医療法人碧生会,,その他の設立登記法人,熊本県,玉名市,六田２９番地４,,43,206,8650058,,,,,,,2021-11-08,1,,,,,アオイカイ,0
286,1350001017404,新規,0,2021-11-08,2021-11-08,龍工業株式会社,,株式会社,宮崎県,宮崎市,大塚町地蔵田４６７６番地５,,45,201,8800951,,,,,,,2021-11-08,1,,,,,タツコウギョウ,0
287,1350001017412,新規,0,2021-11-08,2021-11-08,株式会社坂本商店,,株式会社,宮崎県,宮崎市,大工３丁目１５２番地村田コーポ１０２号,,45,201,8800015,,,,,,,2021-11-08,1,,,,,サカモトショウテン,0
291,1360001029596,新規,0,2021-11-08,2021-11-08,株式会社琉球クラシ,,株式会社,沖縄県,沖縄市,中央３丁目１９番１６号,,47,211,9040004,,,,,,,2021-11-08,1,,,,,リュウキュウクラシ,0
299,1380001032326,新規,0,2021-11-08,2021-11-08,株式会社センウェイ金属,,株式会社,福島県,白河市,東深仁井田字天上林２７番地,,07,205,9610309,,,,,,,2021-11-08,1,,,,,センウェイキンゾク,0
300,1390001016674,新規,0,2021-11-08,2021-11-08,布川建築株式会社,,株式会社,山形県,西村山郡河北町,谷地中央５丁目８番地の７,,06,321,9993512,,,,,,,2021-11-08,1,,,,,ヌノカワケンチク,0
303,1390005008924,新規,0,2021-11-08,2021-11-08,特定非営利活動法人市民社会サポートやまがた,,その他の設立登記法人,山形県,山形市,小立３丁目８番３９－１０号,,06,201,9902402,,,,,,,2021-11-08,1,,,,,シミンシャカイサポートヤマガタ,0
309,1430001085310,新規,0,2021-11-08,2021-11-08,株式会社エム企画,,株式会社,北海道,室蘭市,中島町３丁目４０番１３号,,01,205,0500074,,,,,,,2021-11-08,1,,,,,エムキカク,0
310,1430001085327,新規,0,2021-11-08,2021-11-08,株式会社日章内装,,株式会社,北海道,札幌市北区,屯田八条１２丁目８番１４号,,01,102,0020858,,,,,,,2021-11-08,1,,,,,ニッショウナイソウ,0
312,1430003013327,新規,0,2021-11-08,2021-11-08,合同会社シティドリーム,,合同会社,北海道,札幌市中央区,大通西１０丁目４番地南大通ビル５階,,01,101,0600042,,,,,,,2021-11-08,1,,,,,シティドリーム,0
320,1500001023774,新規,0,2021-11-08,2021-11-08,株式会社美月,,株式会社,愛媛県,宇和島市,三間町黒井地１５９４番地３７,,38,203,7981116,,,,,,,2021-11-08,1,,,,,ミヅキ,0
323,1700150105634,新規,0,2021-11-08,2021-11-08,ＳＫＹ　ＨＡＰＰＹ　ＩＮＶＥＳＴＭＥＮＴ　ＬＩＭＩＴＥＤ,,外国会社等,大阪府,大阪市中央区,道頓堀１丁目東５－１８,,27,128,5420071,中国香港特別行政区茘枝角永康街２６號順昌工業大廈５樓Ａ室,00124801,,,,,2021-11-08,1,,,,,スカイハツピーインベストメントリミテツド,0
334,2010001222235,新規,0,2021-11-08,2021-11-08,ＬｅａＡｋｉ株式会社,,株式会社,東京都,千代田区,富士見２丁目４番６号,,13,101,1020071,,,,,,,2021-11-08,1,,,,,レアアキ,0
335,2010001222243,新規,0,2021-11-08,2021-11-08,株式会社オープンハウスみなかみ,,株式会社,東京都,千代田区,丸の内３丁目３番１号,,13,101,1000005,,,,,,,2021-11-08,1,,,,,オープンハウスミナカミ,0
336,2010001222251,新規,0,2021-11-08,2021-11-08,株式会社ヒカリサポート,,株式会社,東京都,中央区,銀座４丁目１２番２号クリエイト東銀座ビル３階,,13,102,1040061,,,,,,,2021-11-08,1,,,,,ヒカリサポート,0
339,2010005034180,新規,0,2021-11-08,2021-11-08,一般社団法人日本心臓血管内視鏡学会,,その他の設立登記法人,東京都,千代田区,一ツ橋１丁目１番１号パレスサイドビル株式会社毎日学術フォーラム内,,13,101,1000003,,,,,,,2021-11-08,1,,,,,ニホンシンゾウケッカンナイシキョウガッカイ,0
348,2010401163665,新規,0,2021-11-08,2021-11-08,株式会社Ｐｒｅｃｉｏｕｓ,,株式会社,東京都,港区,南麻布４丁目５－４８フォーサイト南麻布４ＦグラマラスＨ内,,13,103,1060047,,,,,,,2021-11-08,1,,,,,プレシャス,0
351,2010403026449,新規,0,2021-11-08,2021-11-08,Ｍａｒｒｏｎｎｉｅｒ合同会社,,合同会社,東京都,港区,芝浦２丁目６番１１－１４０５号,,13,103,1080023,,,,,,,2021-11-08,1,,,,,マロニエ,0
354,2010601060191,新規,0,2021-11-08,2021-11-08,株式会社Ｙ’ｓ　ｔｅｃｈ,,株式会社,東京都,墨田区,東向島６丁目１４番８号,,13,107,1310032,,,,,,,2021-11-08,1,,,,,ワイズテック,0
357,2010701041736,新規,0,2021-11-08,2021-11-08,エヌズ株式会社,,株式会社,東京都,品川区,西大井４丁目１３番１２号,,13,109,1400015,,,,,,,2021-11-08,1,,,,,エヌズ,0
359,2010703005994,新規,0,2021-11-08,2021-11-08,合同会社アアシー,,合同会社,東京都,品川区,西五反田４丁目２８番６－３１１号,,13,109,1410031,,,,,,,2021-11-08,1,,,,,アアシー,0
379,2011001143801,新規,0,2021-11-08,2021-11-08,株式会社デザインユー,,株式会社,東京都,目黒区,五本木１丁目３０番１５号Ｋ・ＦＬＡＴ２０１,,13,110,1530053,,,,,,,2021-11-08,1,,,,,デザインユー,0
380,2011001143834,新規,0,2021-11-08,2021-11-08,株式会社松本新聞店,,株式会社,東京都,渋谷区,本町６丁目４１番１０号,,13,113,1510071,,,,,,,2021-11-08,1,,,,,マツモトシンブンテン,0
381,2011101096800,新規,0,2021-11-08,2021-11-08,匠洗美株式会社,,株式会社,東京都,新宿区,歌舞伎町２丁目９番１５号,,13,104,1600021,,,,,,,2021-11-08,1,,,,,タクミセンビ,0
382,2011101096809,新規,0,2021-11-08,2021-11-08,株式会社ＡＧＡＴＯ,,株式会社,東京都,新宿区,西早稲田２丁目２０番１２号,,13,104,1690051,,,,,,,2021-11-08,1,,,,,アガト,0
383,2011101096817,新規,0,2021-11-08,2021-11-08,株式会社ソレラ,,株式会社,東京都,新宿区,歌舞伎町２丁目４５番７号石井ビル５Ｆ,,13,104,1600021,,,,,,,2021-11-08,1,,,,,ソレラ,0
384,2011103011138,新規,0,2021-11-08,2021-11-08,Ｂ＆Ｂ　Ｉｎｔｅｒｎａｔｉｏｎａｌ合同会社,,合同会社,東京都,新宿区,百人町２丁目１３番１７号フラット・アイ１０３,,13,104,1690073,,,,,,,2021-11-08,1,,,,,ビーアンドビーインターナショナル,0
389,2011401023818,新規,0,2021-11-08,2021-11-08,ＪＣ商事株式会社,,株式会社,東京都,板橋区,熊野町１８番１０号,,13,119,1730025,,,,,,,2021-11-08,1,,,,,ジェーシー,0
390,2011401023826,新規,0,2021-11-08,2021-11-08,株式会社いろは,,株式会社,東京都,板橋区,前野町２丁目９番１４号３０１,,13,119,1740063,,,,,,,2021-11-08,1,,,,,イロハ,0
392,2011501027462,新規,0,2021-11-08,2021-11-08,株式会社イニシアチブ,,株式会社,東京都,北区,王子１丁目１３番１４号,,13,117,1140002,,,,,,,2021-11-08,1,,,,,イニシアチブ,0
394,2011801039942,新規,0,2021-11-08,2021-11-08,株式会社たかんこ不動産,,株式会社,東京都,足立区,鹿浜５丁目２番８号新進ビル２Ｆ,,13,121,1230864,,,,,,,2021-11-08,1,,,,,タカンコフドウサン,0
400,2013301048234,新規,0,2021-11-08,2021-11-08,１０１ｐｃｔ．株式会社,,株式会社,東京都,豊島区,池袋２丁目２４番４号サン池袋ＩＩビル１Ｆ,00124794,13,116,1710014,,,,,,,2021-11-08,1,,,,,ヒャクイチパーセント,0
401,2013301048242,新規,0,2021-11-08,2021-11-08,株式会社Ｖｉｔａｌｉｔｙ,,株式会社,東京都,豊島区,北大塚２丁目３４番１８号,,13,116,1700004,,,,,,,2021-11-08,1,,,,,バイタリティ,0
409,2020005015262,新規,0,2021-11-08,2021-11-08,税理士法人アナンダ,,その他の設立登記法人,神奈川県,横浜市港北区,大豆戸町５３５番地の５,,14,109,2220032,,,,,,,2021-11-08,1,,,,,アナンダ,0
416,2021001074384,新規,0,2021-11-08,2021-11-08,Ｓｍｉｌ株式会社,,株式会社,神奈川県,鎌倉市,岩瀬１０４８－１,,14,204,2470051,,,,,,,2021-11-08,1,,,,,スミール,0
417,2021001074418,新規,0,2021-11-08,2021-11-08,株式会社クレディアンス,,株式会社,神奈川県,厚木市,飯山６５４番地４,,14,212,2430213,,,,,,,2021-11-08,1,,,,,クレディアンス,0
428,2021005012340,新規,0,2021-11-08,2021-11-08,一般社団法人ＬＯＣＡＬ　ＩＮＮＯＶＡＴＩＯＮ,,その他の設立登記法人,神奈川県,三浦郡葉山町,下山口１９３６番地,,14,301,2400116,,,,,,,2021-11-08,1,,,,,ローカルイノベーション,0
432,2030001145153,新規,0,2021-11-08,2021-11-08,株式会社テツコーポレーション,,株式会社,埼玉県,さいたま市南区,曲本５丁目３番１５号,,11,108,3360033,,,,,,,2021-11-08,1,,,,,テツコーポレーション,0
433,2030001145186,新規,0,2021-11-08,2021-11-08,三宏建装株式会社,,株式会社,埼玉県,所沢市,南住吉１６番１７－１号,,11,208,3591125,,,,,,,2021-11-08,1,,,,,サンコウケンソウ,0
434,2030001145203,新規,0,2021-11-08,2021-11-08,Ｓ＆Ｋ．ＬＩＦＥ株式会社,,株式会社,埼玉県,さいたま市西区,大字飯田２５９番地,,11,101,3310058,,,,,,,2021-11-08,1,,,,,エスアンドケイライフ,0
446,2030003018274,新規,0,2021-11-08,2021-11-08,チルワーク合同会社,,合同会社,埼玉県,戸田市,本町４丁目１４－１２田部井ビル２Ｆ,,11,224,3350023,,,,,,,2021-11-08,1,,,,,チルワーク,0
447,2030005020625,新規,0,2021-11-08,2021-11-08,社会福祉法人美光会,,その他の設立登記法人,埼玉県,さいたま市緑区,美園２丁目１６番１,,11,109,3360967,,,,,,,2021-11-08,1,,,,,ビコウカイ,0
452,2040001120832,新規,0,2021-11-08,2021-11-08,ＪＰ　ＷＯＲＫＳ株式会社,,株式会社,千葉県,市原市,国分寺台中央４丁目３番地３１,,12,219,2900073,,,,,,,2021-11-08,1,,,,,ジェイピーワークス,0
453,2040001120840,新規,0,2021-11-08,2021-11-08,株式会社ＨＡＤ,,株式会社,千葉県,千葉市花見川区,朝日ケ丘２丁目２番２棟３０１号,,12,102,2620019,,,,,,,2021-11-08,1,,,,,ハド,0
454,2040001120873,新規,0,2021-11-08,2021-11-08,株式会社Ｔ．ＰＲＩＣＥ,,株式会社,千葉県,市原市,島野１５２５番地４,,12,219,2900034,,,,,,,2021-11-08,1,,,,,ティープライス,0
457,2050001050070,新規,0,2021-11-08,2021-11-08,株式会社どうぶつのもり,,株式会社,茨城県,守谷市,けやき台６丁目１６番地１６,,08,224,3020128,,,,,,,2021-11-08,1,,,,,ドウブツノモリ,0
458,2050001050112,新規,0,2021-11-08,2021-11-08,株式会社ＴＲＵＣＫ　ＪＰ,,株式会社,茨城県,かすみがうら市,下土田８０番地２,,08,230,3150058,,,,,,,2021-11-08,1,,,,,トラックジェイピー,0
459,2050001050120,新規,0,2021-11-08,2021-11-08,株式会社若本住建,,株式会社,茨城県,筑西市,伊讃美８６４番地４,,08,227,3080853,,,,,,,2021-11-08,1,,,,,ワカモトジュウケン,0
461,2050003006186,新規,0,2021-11-08,2021-11-08,Ｒモータース合同会社,,合同会社,茨城県,常総市,崎房１３５６番地１,,08,211,3002747,,,,,,,2021-11-08,1,,,,,アールモータース,0
462,2050005012967,新規,0,2021-11-08,2021-11-08,一般社団法人六行,,その他の設立登記法人,茨城県,常陸太田市,大菅町５８８番地,,08,212,3110508,,,,,,,2021-11-08,1,,,,,リクコウ,0
464,2060001034254,新規,0,2021-11-08,2021-11-08,株式会社凜和興業,,株式会社,栃木県,宇都宮市,兵庫塚３丁目３５番７号,,09,201,3210138,,,,,,,2021-11-08,1,,,,,リンワコウギョウ,0
465,2060001034262,新規,0,2021-11-08,2021-11-08,株式会社ＳＡＩＴＯ　ＴＲＵＳＴ,,株式会社,栃木県,小山市,大字飯塚４８４番地,,09,208,3230017,,,,,,,2021-11-08,1,,,,,サイトウトラスト,0
466,2070001038618,新規,0,2021-11-08,2021-11-08,株式会社昭和アドバイザリー,,株式会社,群馬県,伊勢崎市,田中島町１４００番地７グランディールビル２０３,,10,204,3720802,,,,,,,2021-11-08,1,,,,,ショウワアドバイザリー,0
468,2070005009912,新規,0,2021-11-08,2021-11-08,税理士法人箱田総合会計,,その他の設立登記法人,群馬県,高崎市,新保町１６３番地,,10,202,3700018,,,,,,,2021-11-08,1,,,,,ハコダソウゴウカイケイ,0
471,2080001024559,新規,0,2021-11-08,2021-11-08,株式会社Ｌｕｃｋｉｌｙ,,株式会社,静岡県,静岡市葵区,上足洗４丁目１番２４－５号コーポイトウ１０１号,,22,101,4200841,,,,,,,2021-11-08,1,,,,,ラッキリー,0
472,2080001024567,新規,0,2021-11-08,2021-11-08,ｉｒｏ株式会社,,株式会社,静岡県,榛原郡吉田町,川尻３０５０－４０,,22,424,4210302,,,,,,,2021-11-08,1,,,,,イロ,0
510,2120101064608,新規,0,2021-11-08,2021-11-08,オートステージグローリー株式会社,,株式会社,大阪府,松原市,天美我堂２丁目２５０番地,,27,217,5800026,,,,,,,2021-11-08,1,,,,,オートステージグローリー,0
511,2120103004421,新規,0,2021-11-08,2021-11-08,わしら合同会社,,合同会社,大阪府,泉南郡熊取町,朝代東４丁目６番２１号,,27,361,5900457,,,,,,,2021-11-08,1,,,,,ワシラ,0
513,2122001035317,新規,0,2021-11-08,2021-11-08,Ｕｎｉｃｏｒｎ　ｃｏｒｐｏｒａｔｉｏｎ株式会社,,株式会社,大阪府,八尾市,東山本新町８丁目１３番２２号,,27,212,5810866,,,,,,,2021-11-08,1,,,,,ユニコーンコーポレーション,0
523,2130005016308,新規,0,2021-11-08,2021-11-08,一般社団法人京丹波町観光協会,,その他の設立登記法人,京都府,船井郡京丹波町,須知色紙田１番地１,,26,407,6220213,,,,,,,2021-11-08,1,,,,,キョウタンバチョウカンコウキョウカイ,0
538,2140003016952,新規,0,2021-11-08,2021-11-08,合同会社ニコニコ商事,,合同会社,兵庫県,尼崎市,立花町２丁目１４番３１号,,28,202,6610025,,,,,,,2021-11-08,1,,,,,ニコニコショウジ,0
542,2160001023775,新規,0,2021-11-08,2021-11-08,株式会社ナカムラ,,株式会社,滋賀県,栗東市,野尻２７４番地１,,25,208,5203027,,,,,,,2021-11-08,1,,,,,ナカムラ,0
552,2180001148538,新規,0,2021-11-08,2021-11-08,株式会社エイト,,株式会社,愛知県,名古屋市緑区,神沢１丁目３３１２番地の１,,23,114,4580014,,,,,,,2021-11-08,1,,,,,エイト,0
553,2180001148579,新規,0,2021-11-08,2021-11-08,株式会社ＷＹＳ,,株式会社,愛知県,名古屋市緑区,相原郷２丁目１１０３番地の１,,23,114,4580033,,,,,,,2021-11-08,1,,,,,ワイズ,0
554,2180001148595,新規,0,2021-11-08,2021-11-08,株式会社エデンプロジェクト,,株式会社,愛知県,名古屋市千種区,内山３丁目３１番２３号,,23,101,4640075,,,,,,,2021-11-08,1,,,,,エデンプロジェクト,0
555,2180001148604,新規,0,2021-11-08,2021-11-08,株式会社ＳＴＹＬＥ　ＯＮＥ　ＩＮＮＯＶＡＴＩＯＮ,,株式会社,愛知県,名古屋市天白区,梅が丘２丁目２０８,,23,116,4680004,,,,,,,2021-11-08,1,,,,,スタイルワンイノベーション,0
556,2180001148612,新規,0,2021-11-08,2021-11-08,株式会社すずらんコンサルティング,,株式会社,愛知県,名古屋市東区,泉１丁目１２番２５号,,23,102,4610001,,,,,,,2021-11-08,1,,,,,スズランコンサルティング,0
557,2180001148653,新規,0,2021-11-08,2021-11-08,株式会社ＫＩ工業,,株式会社,愛知県,一宮市,定水寺字山ケ作４３番地１,,23,203,4910004,,,,,,,2021-11-08,1,,,,,ケーアイコウギョウ,0
558,2180003023144,新規,0,2021-11-08,2021-11-08,合同会社Ｒｏｏｍ　Ｃｒｅａｔｅ,,合同会社,愛知県,名古屋市中川区,江松１丁目９０２サニーハイム江松２０２,,23,110,4540954,,,,,,,2021-11-08,1,,,,,ルームクリエイト,0
559,2180003023152,新規,0,2021-11-08,2021-11-08,合同会社マーベリック,,合同会社,愛知県,長久手市,杁ケ池１０７番地メゾンアイレス１Ｆ,,23,238,4801116,,,,,,,2021-11-08,1,,,,,マーベリック,0
560,2180003023160,新規,0,2021-11-08,2021-11-08,マーケティングマップ合同会社,,合同会社,愛知県,名古屋市昭和区,山手通３丁目４番地の１,,23,107,4660815,,,,,,,2021-11-08,1,,,,,マーケティングマップ,0
565,2180301035584,新規,0,2021-11-08,2021-11-08,株式会社エルシュート,,株式会社,愛知県,豊橋市,牟呂町字松崎１番地４（２－８０１）,,23,201,4418087,,,,,,,2021-11-08,1,,,,,エルシュート,0
566,2180301035592,新規,0,2021-11-08,2021-11-08,株式会社ノビ,,株式会社,愛知県,刈谷市,元町５丁目４６番地,,23,210,4480825,,,,,,,2021-11-08,1,,,,,ノビ,0
567,2180301035601,新規,0,2021-11-08,2021-11-08,株式会社ＯＧ,,株式会社,愛知県,みよし市,東山台５０番地５,,23,236,4700212,,,,,,,2021-11-08,1,,,,,オージー,0
568,2180303005156,新規,0,2021-11-08,2021-11-08,合同会社ＴＰａｄｍｉｎ,,合同会社,愛知県,豊田市,常盤町１丁目８８番地,,23,211,4710867,,,,,,,2021-11-08,1,,,,,ティーピーアドミン,0
569,2180305009262,新規,0,2021-11-08,2021-11-08,一般社団法人渥美半島観光ビューロー,,その他の設立登記法人,愛知県,田原市,東赤石５丁目７４番地,,23,231,4413416,,,,,,,2021-11-08,1,,,,,アツミハントウカンコウビューロー,0
570,2190001028846,新規,0,2021-11-08,2021-11-08,ＭＭ　ＮＩＫＫＥＮサポート株式会社,,株式会社,三重県,四日市市,富士町８番６６号日建ビル１Ｂ,,24,202,5100013,,,,,,,2021-11-08,1,,,,,エムエムニッケンサポート,0
573,2200001039387,新規,0,2021-11-08,2021-11-08,ＳＮＫ株式会社,,株式会社,岐阜県,大垣市,林町６丁目８０番地２１６,,21,202,5030015,,,,,,,2021-11-08,1,,,,,エスエヌケイ,0
577,2200005013272,新規,0,2021-11-08,2021-11-08,行政書士法人ＨＡＬ,,その他の設立登記法人,岐阜県,岐阜市,白菊町４丁目１６番地１,,21,201,5020909,,,,,,,2021-11-08,1,,,,,ハル,0
582,2230001019072,新規,0,2021-11-08,2021-11-08,株式会社富山ビジネスマネジメント,,株式会社,富山県,富山市,新富町２丁目４番２５号,,16,201,9300002,,,,,,,2021-11-08,1,,,,,トヤマビジネスマネジメント,0
587,2240001058854,新規,0,2021-11-08,2021-11-08,株式会社Ｈｉｌｌｄｉｒｅｃｔｉｏｎ,,株式会社,広島県,福山市,内海町１５５４番地３,,34,207,7222641,,,,,,,2021-11-08,1,,,,,ヒルディレクション,0
592,2240003005359,新規,0,2021-11-08,2021-11-08,合同会社エスイー,,合同会社,広島県,東広島市,高屋町杵原２３１２番地２リバブールコートＢ１０１号,,34,212,7392102,,,,,,,2021-11-08,1,,,,,エスイー,0
597,2290001095232,新規,0,2021-11-08,2021-11-08,Ｌｉｖｅｓ＆Ｒｅｃｏｒｄｓ株式会社,,株式会社,福岡県,福岡市早良区,百道浜４丁目３番３－３０３号シーサイドももちサウスステージ３棟,,40,137,8140001,,,,,,,2021-11-08,1,,,,,ライブズアンドレコーズ,0
598,2290001095249,新規,0,2021-11-08,2021-11-08,株式会社ジェイビル,,株式会社,福岡県,福岡市城南区,樋井川４丁目８－２３－２,,40,136,8140153,,,,,,,2021-11-08,1,,,,,ジェイビル,0
599,2290001095298,新規,0,2021-11-08,2021-11-08,株式会社ペアレント,,株式会社,福岡県,福岡市西区,姪浜駅南４丁目１０番２５号,,40,135,8190006,,,,,,,2021-11-08,1,,,,,ペアレント,0
600,2290001095307,新規,0,2021-11-08,2021-11-08,株式会社Ｏ・Ｋ，Ｓ,,株式会社,福岡県,福岡市東区,香住ヶ丘３丁目１９番３号,,40,131,8130003,,,,,,,2021-11-08,1,,,,,オーケーエス,0
601,2290001095315,新規,0,2021-11-08,2021-11-08,ララ・クゥール株式会社,,株式会社,福岡県,糟屋郡志免町,片峰３丁目６番５号,,40,343,8112245,,,,,,,2021-11-08,1,,,,,ララクゥール,0
610,2320003003651,新規,0,2021-11-08,2021-11-08,合同会社湖畔,,合同会社,大分県,由布市,湯布院町川上１７６１番地５,,44,213,8795102,,,,,,,2021-11-08,1,,,,,コハン,0
613,2330001029169,新規,0,2021-11-08,2021-11-08,株式会社イージャパン,,株式会社,熊本県,宇城市,豊野町糸石１２番地,,43,213,8614301,,,,,,,2021-11-08,1,,,,,イージャパン,0
614,2330005010422,新規,0,2021-11-08,2021-11-08,医療法人武藤会,,その他の設立登記法人,熊本県,上益城郡甲佐町,大字岩下６８番地１３,,43,444,8614601,,,,,,,2021-11-08,1,,,,,ムトウカイ,0
616,2350001017411,新規,0,2021-11-08,2021-11-08,株式会社宮崎リサイクル館,,株式会社,宮崎県,宮崎市,大字島之内７３３８番地,,45,201,8800121,,,,,,,2021-11-08,1,,,,,ミヤザキリサイクルカン,0
617,2360001029595,新規,0,2021-11-08,2021-11-08,株式会社Ｂｒａｉｎ　Ｂａｎｋ,,株式会社,沖縄県,宜野湾市,字宇地泊２７５番地,,47,205,9012227,,,,,,,2021-11-08,1,,,,,ブレインバンク,0
625,2370001047803,新規,0,2021-11-08,2021-11-08,仙台相続サポートセンター株式会社,,株式会社,宮城県,仙台市青葉区,一番町２丁目８番１０号,,04,101,9800811,,,,,,,2021-11-08,1,,,,,センダイソウゾクサポートセンター,0
634,2380001032309,新規,0,2021-11-08,2021-11-08,株式会社Ｍｅｌｉａ　Ｐｌｕｓ,,株式会社,福島県,いわき市,平字月見町３３番地の２デュオヒルズ平月見町２０４,,07,204,9708026,,,,,,,2021-11-08,1,,,,,メリアプラス,0
639,2400001015657,新規,0,2021-11-08,2021-11-08,株式会社ｈａｃｈｉ　ｈａｃｈｉ,,株式会社,岩手県,盛岡市,仙北２丁目１０－１７,,03,201,0200861,,,,,,,2021-11-08,1,,,,,ハチハチ,0
641,2410005006437,新規,0,2021-11-08,2021-11-08,税理士法人佐藤・進藤,,その他の設立登記法人,秋田県,秋田市,外旭川字八幡田１２２番１号第２キャニオンビル２階Ｅ号,,05,201,0100802,,,,,,,2021-11-08,1,,,,,サトウシンドウ,0
646,2430001085284,新規,0,2021-11-08,2021-11-08,株式会社フォローアップ,,株式会社,北海道,札幌市中央区,南四条西４丁目１６番地恵愛ビル８階,,01,101,0640804,,,,,,,2021-11-08,1,,,,,フォローアップ,0
648,2430002021123,新規,0,2021-11-08,2021-11-08,有限会社ユニバーサルオート,,有限会社,北海道,札幌市東区,伏古十四条３丁目１１番１３号,,01,103,0070874,,,,,,,2021-11-08,1,,,,,,0
650,2430003013342,新規,0,2021-11-08,2021-11-08,合同会社てらこや,,合同会社,北海道,札幌市北区,新琴似一条１０丁目２番１２号１階,,01,102,0010901,,,,,,,2021-11-08,1,,,,,テラコヤ,0
660,2700150105633,新規,0,2021-11-08,2021-11-08,ＧＬＯＢＡＬ　ＬＥＧＡＬ　ＥＮＴＩＴＹ　ＩＤＥＮＴＩＦＩＥＲ　ＦＯＵＮＤＡＴＩＯＮ　ＪＡＰＡＮ,,外国会社等,東京都,千代田区,丸の内１丁目１－３,,13,101,1000005,Ｓｔ．Ａｌｂａｎ－Ｖｏｒｓｔａｄｔ５，ＣＨ－４０５２　Ｂａｓｅｌ，Ｓｗｉｔｚｅｒｌａｎｄ,,,,,,2021-11-08,1,,,,,グローバルリーガルエンテイテイアイデンテイフアイアーフアウンデーシヨンジヤパン,0
666,3010001222234,新規,0,2021-11-08,2021-11-08,ＭＥＴＥ　ＢＡＮＫ株式会社,,株式会社,東京都,中央区,佃２丁目１番２－７１２号,,13,102,1040051,,,,,,,2021-11-08,1,,,,,メタバンク,0
667,3010001222250,新規,0,2021-11-08,2021-11-08,株式会社ＲＥ－Ｆｏｏｄｓ,,株式会社,東京都,千代田区,神田錦町１丁目２３番地８号ＴＨＥＳＫＹＧｒａｎＤＥＡＲ神田錦町５階,,13,101,1010054,,,,,,,2021-11-08,1,,,,,アールイーフーズ,0
668,3010001222309,新規,0,2021-11-08,2021-11-08,株式会社ＴＡＣＣＯ,,株式会社,東京都,中央区,銀座６丁目１３番１６号銀座ＷａｌｌビルＵＣＦ５階,,13,102,1040061,,,,,,,2021-11-08,1,,,,,タコ,0
671,3010005034188,新規,0,2021-11-08,2021-11-08,一般社団法人東京マーケティング研究所,,その他の設立登記法人,東京都,文京区,湯島３丁目１０番６号,,13,105,1130034,,,,,,,2021-11-08,1,,,,,トウキョウマーケティングケンキュウジョ,0
683,3010403026456,新規,0,2021-11-08,2021-11-08,レギスタン合同会社,,合同会社,東京都,港区,六本木４丁目１番２六本木メイフラワーハウス５０８,,13,103,1060032,,,,,,,2021-11-08,1,,,,,レギスタン,0
684,3010403026464,新規,0,2021-11-08,2021-11-08,大分太陽光発電事業合同会社,,合同会社,東京都,港区,六本木４丁目１２－８,,13,103,1060032,,,,,,,2021-11-08,1,,,,,オオイタタイヨウコウハツデンジギョウ,0
685,3010405020366,新規,0,2021-11-08,2021-11-08,一般社団法人幸年期マチュアライフ協会,,その他の設立登記法人,東京都,港区,南青山６丁目１２番４－７０３号,,13,103,1070062,,,,,,,2021-11-08,1,,,,,コウネンキマチュアライフキョウカイ,0
689,3010503006424,新規,0,2021-11-08,2021-11-08,合同会社Ｂｅｙｏｎｄ　Ｈｕｍａｎ,,合同会社,東京都,台東区,池之端２丁目１番１－１６０１号パークタワー上野池之端,,13,106,1100008,,,,,,,2021-11-08,1,,,,,ビヨンドヒューマン,0
691,3010601060158,新規,0,2021-11-08,2021-11-08,株式会社石戸諭事務所,,株式会社,東京都,墨田区,石原２丁目２６番８－７０１号,,13,107,1300011,,,,,,,2021-11-08,1,,,,,イシドサトルジムショ,0
692,3010601060190,新規,0,2021-11-08,2021-11-08,株式会社ＪＸＹ,,株式会社,東京都,江東区,豊洲３丁目６番８－１４２１号,,13,108,1350061,,,,,,,2021-11-08,1,,,,,ジェーエックスワイ,0
696,3010703005993,新規,0,2021-11-08,2021-11-08,合同会社ＣＨＵＭ　Ｐｒｏｍｏｔｉｏｎ,,合同会社,東京都,品川区,荏原３丁目８番１７号,,13,109,1420063,,,,,,,2021-11-08,1,,,,,チャムプロモーション,0
717,3011001143759,新規,0,2021-11-08,2021-11-08,株式会社テレサ・イニエスタ２４ネットワークサービス,,株式会社,東京都,渋谷区,神宮前６丁目２３番４号桑野ビル２階,,13,113,1500001,,,,,,,2021-11-08,1,,,,,テレサイニエスタトゥエンティフォーネットワークサービス,0
718,3011001143809,新規,0,2021-11-08,2021-11-08,株式会社ライズクリエーション,,株式会社,東京都,渋谷区,神宮前６丁目２８番９号東武ビル６Ｆ,,13,113,1500001,,,,,,,2021-11-08,1,,,,,ライズクリエーション,0
719,3011001143833,新規,0,2021-11-08,2021-11-08,てんじく株式会社,,株式会社,東京都,渋谷区,道玄坂１丁目１２番１号渋谷マークシティＷ２２階,,13,113,1500043,,,,,,,2021-11-08,1,,,,,テンジク,0
721,3011003013679,新規,0,2021-11-08,2021-11-08,合同会社シブースト,,合同会社,東京都,渋谷区,渋谷２丁目１９番１５号,,13,113,1500002,,,,,,,2021-11-08,1,,,,,シブースト,0
725,3011101096782,新規,0,2021-11-08,2021-11-08,株式会社国土総合開発,,株式会社,東京都,新宿区,四谷４丁目６番１号,,13,104,1600004,,,,,,,2021-11-08,1,,,,,コクドソウゴウカイハツ,0
726,3011101096790,新規,0,2021-11-08,2021-11-08,株式会社リライアブル１００パーセント,,株式会社,東京都,新宿区,新宿１丁目１５番８号,,13,104,1600022,,,,,,,2021-11-08,1,,,,,リライアブルヒャクパーセント,0
730,3011201023389,新規,0,2021-11-08,2021-11-08,株式会社Ｐｏｎｇｅｅ,,株式会社,東京都,中野区,東中野３丁目１６番１４号,,13,114,1640003,,,,,,,2021-11-08,1,,,,,ポンジー,0
735,3011403003494,新規,0,2021-11-08,2021-11-08,ＳＨＯＷ　ＵＰ　ＭＥＤＩＣＡＬ合同会社,,合同会社,東京都,板橋区,大和町２６－８,,13,119,1730012,,,,,,,2021-11-08,1,,,,,ショウアップメディカル,0
750,3011801039883,新規,0,2021-11-08,2021-11-08,友伴株式会社,,株式会社,東京都,足立区,西伊興３丁目１８－１４－１０４号室,,13,121,1210824,,,,,,,2021-11-08,1,,,,,ユウハン,0
756,3012801021204,新規,0,2021-11-08,2021-11-08,株式会社ＨＥＡＤＷＯＲＸ,,株式会社,東京都,立川市,曙町２丁目１１番２号フロム中武６階,00124796,13,202,1900012,,,,,,,2021-11-08,1,,,,,ヘッドワークス,0
762,3013301048233,新規,0,2021-11-08,2021-11-08,ＭＹＫｐｒｏｊｅｃｔ株式会社,,株式会社,東京都,豊島区,西巣鴨３丁目２２番８号,,13,116,1700001,,,,,,,2021-11-08,1,,,,,エムワイケイプロジェクト,0
763,3013301048241,新規,0,2021-11-08,2021-11-08,株式会社篠田,,株式会社,東京都,豊島区,南長崎６丁目１０番１号篠田ビル２０１号,,13,116,1710052,,,,,,,2021-11-08,1,,,,,シノダ,0
764,3013303005892,新規,0,2021-11-08,2021-11-08,ＭＯＡ合同会社,,合同会社,東京都,豊島区,南大塚２丁目１１－１０ミモザビル３Ｆ,,13,116,1700005,,,,,,,2021-11-08,1,,,,,モア,0
771,3020001143669,新規,0,2021-11-08,2021-11-08,株式会社ファンノーヴァ,,株式会社,神奈川県,川崎市麻生区,はるひ野１丁目１５番１の６４５,,14,137,2150036,,,,,,,2021-11-08,1,,,,,ファンノーヴァ,0
772,3020001143735,新規,0,2021-11-08,2021-11-08,ＮｅｖｅｒＮｅｖｅｒ　Ｌａｎｄ株式会社,,株式会社,神奈川県,横浜市南区,榎町２丁目７５番地７,,14,105,2320044,,,,,,,2021-11-08,1,,,,,ネバーネバーランド,0
773,3020001143776,新規,0,2021-11-08,2021-11-08,株式会社じょんじょこ,,株式会社,神奈川県,川崎市多摩区,登戸２０６４番地３,,14,135,2140014,,,,,,,2021-11-08,1,,,,,ジョンジョコ,0
777,3021001074391,新規,0,2021-11-08,2021-11-08,株式会社ＭｙＤｅａｒ,,株式会社,神奈川県,横須賀市,大矢部３丁目１２番２１号,,14,201,2380024,,,,,,,2021-11-08,1,,,,,マイディアー,0
778,3021001074433,新規,0,2021-11-08,2021-11-08,株式会社クエストワークス,,株式会社,神奈川県,厚木市,妻田東３丁目３９番５号アパートメントスペースＩ－２０１,00124791,14,212,2430813,,,,,,,2021-11-08,1,,,,,クエストワークス,0
783,3021003011062,新規,0,2021-11-08,2021-11-08,合同会社一,,合同会社,神奈川県,愛甲郡愛川町,三増３５０番地の８,,14,401,2430308,,,,,,,2021-11-08,1,,,,,ハジメ,0
785,3030001145037,新規,0,2021-11-08,2021-11-08,株式会社ＯＲＩＧＩＮＡＬ,,株式会社,埼玉県,鴻巣市,宮前２０５番地６,,11,217,3650051,,,,,,,2021-11-08,1,,,,,,0
794,3030003018257,新規,0,2021-11-08,2021-11-08,ブラウンズベイアドバイザリー合同会社,,合同会社,埼玉県,吉川市,大字川藤３９７８番地,,11,243,3420005,,,,,,,2021-11-08,1,,,,,ブラウンズベイアドバイザリー,0
796,3030005020624,新規,0,2021-11-08,2021-11-08,医療法人ＭＤＣ,,その他の設立登記法人,埼玉県,上尾市,泉台２丁目１０番地１４,,11,219,3620062,,,,,,,2021-11-08,1,,,,,エムディーシー,0
805,3040001120848,新規,0,2021-11-08,2021-11-08,株式会社八街未来都市,,株式会社,千葉県,八街市,小谷流６２４番地,,12,230,2891135,,,,,,,2021-11-08,1,,,,,ヤチマタミライトシ,0
806,3040001120856,新規,0,2021-11-08,2021-11-08,株式会社加来工業,,株式会社,千葉県,市原市,国分寺台中央７丁目１２番地１７,,12,219,2900073,,,,,,,2021-11-08,1,,,,,カクコウギョウ,0
807,3040001120872,新規,0,2021-11-08,2021-11-08,株式会社ケモカインフロンティア,,株式会社,千葉県,柏市,中央町５番１６－３０５号穂高第２ブラザーズ柏,,12,217,2770021,,,,,,,2021-11-08,1,,,,,ケモカインフロンティア,0
808,3040001120880,新規,0,2021-11-08,2021-11-08,逢仲物流株式会社,,株式会社,千葉県,松戸市,松戸１２２８－１松戸ステーションビル５Ｆ,,12,207,2710092,,,,,,,2021-11-08,1,,,,,アイナカブツリュウ,0
809,3040001120889,新規,0,2021-11-08,2021-11-08,株式会社アウラ,,株式会社,千葉県,市原市,八幡２０８７番地４,,12,219,2900062,,,,,,,2021-11-08,1,,,,,アウラ,0
810,3040001120897,新規,0,2021-11-08,2021-11-08,株式会社ＰＯＴＡＴＯ,,株式会社,千葉県,佐倉市,石川５５９番地６２,,12,212,2850813,,,,,,,2021-11-08,1,,,,,ポテト,0
811,3040003018867,新規,0,2021-11-08,2021-11-08,合同会社ＤＯＧ　ＴＯＷＮ　ＣＯＣＯ,,合同会社,千葉県,流山市,大字東深井７７３番地の３８,,12,220,2700101,,,,,,,2021-11-08,1,,,,,ドッグタウンココ,0
814,3050001050103,新規,0,2021-11-08,2021-11-08,和建産業株式会社,,株式会社,茨城県,笠間市,南小泉５１９番地６４,,08,216,3091725,,,,,,,2021-11-08,1,,,,,ワケンサンギョウ,0
815,3050001050111,新規,0,2021-11-08,2021-11-08,株式会社ユート,,株式会社,茨城県,稲敷郡美浦村,大字舟子２８０８番地９,,08,442,3000428,,,,,,,2021-11-08,1,,,,,ユート,0
817,3050005012966,新規,0,2021-11-08,2021-11-08,一般社団法人茨城県住宅塗装機構,,その他の設立登記法人,茨城県,水戸市,笠原町１１８９番地２グリーンヒル西野ビル２Ｆ,,08,201,3100852,,,,,,,2021-11-08,1,,,,,イバラギケンジュウタクトソウキコウ,0
818,3060001034261,新規,0,2021-11-08,2021-11-08,わたらせリハ株式会社,,株式会社,栃木県,足利市,小俣町１３７１番地,,09,202,3260141,,,,,,,2021-11-08,1,,,,,ワタラセリハ,0
849,3120001241702,新規,0,2021-11-08,2021-11-08,株式会社Ｔ・Ｃｕｓｔｏｍ,,株式会社,大阪府,守口市,金下町２丁目１２番５号,,27,209,5700079,,,,,,,2021-11-08,1,,,,,ティーカスタム,0
856,3120101064598,新規,0,2021-11-08,2021-11-08,株式会社広綾,,株式会社,大阪府,岸和田市,内畑町３２３番地の３,,27,202,5960105,,,,,,,2021-11-08,1,,,,,コウリョウ,0
857,3120101064607,新規,0,2021-11-08,2021-11-08,株式会社ｇｌｏｒｉｕｓ,,株式会社,大阪府,和泉市,府中町４丁目１１番１５号ウィズコート３０４号,,27,219,5940071,,,,,,,2021-11-08,1,,,,,グロリアス,0
863,3120901045153,新規,0,2021-11-08,2021-11-08,株式会社Ｈ＆Ｓ商会,,株式会社,大阪府,吹田市,津雲台６丁目１番５号,,27,205,5650862,,,,,,,2021-11-08,1,,,,,エイチアンドエスショウカイ,0
864,3120903003902,新規,0,2021-11-08,2021-11-08,合同会社メルジェ,,合同会社,大阪府,高槻市,川西町２丁目２２番１３号,,27,207,5691133,,,,,,,2021-11-08,1,,,,,メルジェ,0
870,3130003007571,新規,0,2021-11-08,2021-11-08,合同会社ＳＳＣ,,合同会社,京都府,京都市西京区,上桂三ノ宮町２６－４３,,26,111,6158224,,,,,,,2021-11-08,1,,,,,エスエスシー,0
878,3140001123799,新規,0,2021-11-08,2021-11-08,株式会社風音Ｆｕ－ｎｅ,,株式会社,兵庫県,西宮市,西宮浜４丁目１２－８－６１５,,28,204,6620934,,,,,,,2021-11-08,1,,,,,フウネ,0
882,3140005025876,新規,0,2021-11-08,2021-11-08,一般社団法人オフロードパス,,その他の設立登記法人,兵庫県,神戸市中央区,磯上通８丁目１番２９号カサベラビルＣ＆Ｍ４０３号室,,28,110,6510086,,,,,,,2021-11-08,1,,,,,オフロードパス,0
885,3150001025078,新規,0,2021-11-08,2021-11-08,株式会社ｔｅｔｅｔｅ,,株式会社,奈良県,北葛城郡王寺町,南元町１丁目８番２２号,,29,425,6360015,,,,,,,2021-11-08,1,,,,,テテテ,0
896,3180001148644,新規,0,2021-11-08,2021-11-08,株式会社サンライズ,,株式会社,愛知県,岩倉市,神野町平久田１６番地,,23,228,4820033,,,,,,,2021-11-08,1,,,,,サンライズ,0
897,3180001148669,新規,0,2021-11-08,2021-11-08,ＫＳ　ＴＲＡＤＩＮＧ株式会社,,株式会社,愛知県,弥富市,稲荷崎３丁目４１番地１,,23,235,4980056,,,,,,,2021-11-08,1,,,,,ケーエストレーディング,0
899,3180003023151,新規,0,2021-11-08,2021-11-08,合同会社幸村,,合同会社,愛知県,日進市,岩崎町ケカチ１７０番地１,,23,230,4700131,,,,,,,2021-11-08,1,,,,,コウムラ,0
900,3180003023176,新規,0,2021-11-08,2021-11-08,合同会社リアルエステート,,合同会社,愛知県,一宮市,栄１丁目７－１０,,23,203,4910858,,,,,,,2021-11-08,1,,,,,リアルエステート,0
905,3180301035591,新規,0,2021-11-08,2021-11-08,株式会社ピアース,,株式会社,愛知県,刈谷市,一色町１丁目４番地３リンピア八千代２０１号,,23,210,4480022,,,,,,,2021-11-08,1,,,,,ピアース,0
906,3180301035600,新規,0,2021-11-08,2021-11-08,株式会社クリア,,株式会社,愛知県,豊田市,土橋町４丁目２５豊徳マンション２Ａ,,23,211,4710842,,,,,,,2021-11-08,1,,,,,クリア,0
908,3180305009261,新規,0,2021-11-08,2021-11-08,農事組合法人阿摺,,その他の設立登記法人,愛知県,豊田市,足助町岡田５番地２,,23,211,4442424,,,,,,,2021-11-08,1,,,,,アスリ,0
912,3200001039386,新規,0,2021-11-08,2021-11-08,加藤電機株式会社,,株式会社,岐阜県,郡上市,和良町方須１３７番地４,,21,219,5014515,,,,,,,2021-11-08,1,,,,,カトウデンキ,0
920,3200005013271,新規,0,2021-11-08,2021-11-08,特定非営利活動法人風の時代の学校,,その他の設立登記法人,岐阜県,高山市,下二之町４２番地,,21,203,5060842,,,,,,,2021-11-08,1,,,,,カゼノジダイノガッコウ,0
935,3290001095264,新規,0,2021-11-08,2021-11-08,株式会社ＳＫＹ,,株式会社,福岡県,那珂川市,中原２丁目７番地那珂川レジデンス１０３,,40,231,8111213,,,,,,,2021-11-08,1,,,,,スカイ,0
936,3290001095280,新規,0,2021-11-08,2021-11-08,不動産バンクグループ株式会社,,株式会社,福岡県,福岡市中央区,荒戸１丁目２番２１－２１０号,,40,133,8100062,,,,,,,2021-11-08,1,,,,,フドウサンバンクグループ,0
937,3290001095306,新規,0,2021-11-08,2021-11-08,株式会社Ａ＆Ｅ,,株式会社,福岡県,筑紫野市,大字原３６３番地１,,40,217,8180005,,,,,,,2021-11-08,1,,,,,エーアンドイー,0
938,3290001095314,新規,0,2021-11-08,2021-11-08,Ａｍｂｉｈｏｎｅ株式会社,,株式会社,福岡県,糟屋郡志免町,片峰３丁目６番５号,,40,343,8112245,,,,,,,2021-11-08,1,,,,,アンビオーネ,0
939,3290001095322,新規,0,2021-11-08,2021-11-08,株式会社ｆｒｏｍ１ｐｌｕｓ,,株式会社,福岡県,福岡市博多区,博多駅南１丁目３番１０号美咲第２ビル２Ｆ,,40,132,8120016,,,,,,,2021-11-08,1,,,,,フロムワンプラス,0
941,3290003011806,新規,0,2021-11-08,2021-11-08,合同会社アーホルン,,合同会社,福岡県,糟屋郡宇美町,明神坂１丁目１１－２６,,40,341,8112122,,,,,,,2021-11-08,1,,,,,アーホルン,0
942,3290801027978,新規,0,2021-11-08,2021-11-08,株式会社Ｒｅ’ｓ,,株式会社,福岡県,北九州市小倉北区,高峰町３番２８－２号,,40,106,8030826,,,,,,,2021-11-08,1,,,,,リーズ,0
945,3300001012696,新規,0,2021-11-08,2021-11-08,株式会社ニコル,,株式会社,佐賀県,小城市,牛津町勝１２５７番地１,,41,208,8490306,,,,,,,2021-11-08,1,,,,,ニコル,0
953,3340001024218,新規,0,2021-11-08,2021-11-08,株式会社ティダファーム,,株式会社,鹿児島県,奄美市,名瀬浦上７４２番地１,,46,222,8940000,,,,,,,2021-11-08,1,,,,,ティダファーム,0
955,3340003003624,新規,0,2021-11-08,2021-11-08,合同会社Ｋｅｎｋｉｃｈｉ　ｃｏｆｆｅｅ,,合同会社,鹿児島県,大島郡伊仙町,大字木之香１７３－１０,,46,532,8918323,,,,,,,2021-11-08,1,,,,,,0
958,3360001029594,新規,0,2021-11-08,2021-11-08,ＩＱＩ株式会社,,株式会社,沖縄県,糸満市,字真栄里２００２番地の６,,47,210,9010362,,,,,,,2021-11-08,1,,,,,アイキューアイ,0
969,3370001047793,新規,0,2021-11-08,2021-11-08,Ｓｔａｒｒｙ　Ｔｅｃｈ株式会社,,株式会社,宮城県,仙台市青葉区,北山２丁目１番１８号渋谷アパート２号室,,04,101,9810931,,,,,,,2021-11-08,1,,,,,スターリーテック,0
970,3370001047810,新規,0,2021-11-08,2021-11-08,株式会社Ｔ・Ｍプランニング,,株式会社,宮城県,黒川郡大和町,もみじケ丘３丁目１９番地の８,,04,421,9813622,,,,,,,2021-11-08,1,,,,,ティーエムプランニング,0
985,3430001085325,新規,0,2021-11-08,2021-11-08,株式会社ファーム青い鳥,,株式会社,北海道,札幌市厚別区,厚別南７丁目２番３号,,01,108,0040022,,,,,,,2021-11-08,1,,,,,ファームアオイトリ,0
986,3430001085333,新規,0,2021-11-08,2021-11-08,株式会社コンパス,,株式会社,北海道,札幌市豊平区,美園三条８丁目４番１号,,01,105,0620003,,,,,,,2021-11-08,1,,,,,コンパス,0
987,3430001085341,新規,0,2021-11-08,2021-11-08,株式会社Ｃ＆Ｆ,,株式会社,北海道,札幌市白石区,北郷二条４丁目６番２０－１０１号,,01,104,0030832,,,,,,,2021-11-08,1,,,,,シーアンドエフ,0
991,3430003013325,新規,0,2021-11-08,2021-11-08,合同会社ＵＭＫ,,合同会社,北海道,虻田郡倶知安町,北六条西１丁目５番地７,,01,400,0440056,,,,,,,2021-11-08,1,,,,,ユーエムケー,0
996,3470001018818,新規,0,2021-11-08,2021-11-08,株式会社ＬＥＡＰ,,株式会社,香川県,高松市,多肥上町３７３番地３,,37,201,7618076,,,,,,,2021-11-08,1,,,,,リープ,0
1002,3500003002717,新規,0,2021-11-08,2021-11-08,合同会社宮田林業,,合同会社,愛媛県,伊予市,中山町中山子３７１番地２,,38,210,7913206,,,,,,,2021-11-08,1,,,,,ミヤタリンギョウ,0
1004,3700150105632,新規,0,2021-11-08,2021-11-08,深セン市天晟通達貿易有限会社,,外国会社等,,,,,,,,中国深セン市南山区西麗民企科技園北門卓翼大厦５楼,,,,,,2021-11-08,1,,,,,シンセンシテンセイツウタツボウエキユウゲンガイシヤ,0
1005,3700150105640,新規,0,2021-11-08,2021-11-08,ＬＩＮＫＵＰ　Ｔｅｃｈｎｏｌｏｇｙ　Ｉｎｃ．,,外国会社等,,,,,,,,７０　Ｅａｓｔ　Ｂｅａｖｅｒ　Ｃｒｅｅｋ　ＲＤ．Ｕｎｉｔ４，Ｒｉｃｈｍｏｎｄ　Ｈｉｌｌ，Ｏｎｔａｒｉｏ．Ｌ４Ｂ３Ｂ２，Ｃａｎａｄａ,,,,,,2021-11-08,1,,,,,リンクアツプテクノロジーインク,0
1015,4010001222290,新規,0,2021-11-08,2021-11-08,株式会社ＦＧＢ,,株式会社,東京都,千代田区,平河町１丁目７番２１号平河町昭和ビル７階,,13,101,1020093,,,,,,,2021-11-08,1,,,,,エフジービー,0
1016,4010001222324,新規,0,2021-11-08,2021-11-08,桜趣食町株式会社,,株式会社,東京都,中央区,東日本橋２丁目２８番５号５０８,,13,102,1030004,,,,,,,2021-11-08,1,,,,,サクラシュショクチョウ,0
1020,4010005034179,新規,0,2021-11-08,2021-11-08,一般社団法人現代文明研究所,,その他の設立登記法人,東京都,千代田区,大手町１丁目５番１号大手町ファーストスクエアイーストタワー４階,,13,101,1000004,,,,,,,2021-11-08,1,,,,,ゲンダイブンメイケンキュウショ,0
1029,4010403026463,新規,0,2021-11-08,2021-11-08,合同会社ロングステイイニシアティブ,,合同会社,東京都,港区,北青山２丁目７番１３号プラセオ青山ビル３階,,13,103,1070061,,,,,,,2021-11-08,1,,,,,ロングステイイニシアティブ,0
1030,4010405020365,新規,0,2021-11-08,2021-11-08,社会保険労務士法人志－こころ－特定社労士事務所,,その他の設立登記法人,東京都,港区,東麻布２丁目１３番３号,,13,103,1060044,,,,,,,2021-11-08,1,,,,,ココロトクテイシャロウシジムショ,0
1032,4010503006423,新規,0,2021-11-08,2021-11-08,合同会社ＯＭＯＳＨＩＲＯ,,合同会社,東京都,台東区,小島２丁目１番１１号,,13,106,1110056,,,,,,,2021-11-08,1,,,,,オモシロ,0
1035,4010601060181,新規,0,2021-11-08,2021-11-08,株式会社金田屋,,株式会社,東京都,墨田区,業平２丁目１５番５号,,13,107,1300002,,,,,,,2021-11-08,1,,,,,カネダヤ,0
1037,4010603009243,新規,0,2021-11-08,2021-11-08,合同会社ＳＵＤＯ,,合同会社,東京都,江東区,豊洲５丁目５番１－３６０９号,,13,108,1350061,,,,,,,2021-11-08,1,,,,,スドウ,0
1058,4011001143832,新規,0,2021-11-08,2021-11-08,株式会社ＭＢＨグローバル,,株式会社,東京都,渋谷区,神宮前４丁目１１番６号表参道千代田ビル９階,,13,113,1500001,,,,,,,2021-11-08,1,,,,,エムビーエイチグローバル,0
1059,4011001143840,新規,0,2021-11-08,2021-11-08,ｗｉｔｈ　Ｓｔｙｌｅ　Ｇｒｏｕｐ株式会社,,株式会社,東京都,渋谷区,神宮前６丁目２３番４号桑野ビル２階,,13,113,1500001,,,,,,,2021-11-08,1,,,,,ウィズスタイルグループ,0
1060,4011001143857,新規,0,2021-11-08,2021-11-08,温度っち株式会社,,株式会社,東京都,目黒区,下目黒２丁目２１番１９号目黒グリーンコープ９０３号室,,13,110,1530064,,,,,,,2021-11-08,1,,,,,オンドッチ,0
1062,4011003013686,新規,0,2021-11-08,2021-11-08,ＨＩ合同会社,,合同会社,東京都,目黒区,青葉台３丁目１番２１号,,13,110,1530042,,,,,,,2021-11-08,1,,,,,ハイ,0
1067,4011101096815,新規,0,2021-11-08,2021-11-08,株式会社ユヴェンタ,,株式会社,東京都,新宿区,岩戸町５番地１－９０１,,13,104,1620832,,,,,,,2021-11-08,1,,,,,ユヴェンダ,0
1069,4011201023355,新規,0,2021-11-08,2021-11-08,株式会社ＤＥＥＰ　ＣＵＲＲＥＮＴ,,株式会社,東京都,中野区,沼袋４丁目２５番３号朝日ラ・パリオ沼袋２０５,,13,114,1650025,,,,,,,2021-11-08,1,,,,,ディープカレント,0
1070,4011201023388,新規,0,2021-11-08,2021-11-08,株式会社はたもと商事,,株式会社,東京都,中野区,中央４丁目５５番９号中野壱番館１０１,,13,114,1640011,,,,,,,2021-11-08,1,,,,,ハタモトショウジ,0
1071,4011301027322,新規,0,2021-11-08,2021-11-08,株式会社シーエスソリューション,,株式会社,東京都,杉並区,松庵２丁目６番３２号,,13,115,1670054,,,,,,,2021-11-08,1,,,,,シーエスソリューション,0
1072,4011401023824,新規,0,2021-11-08,2021-11-08,ＢＦＰ株式会社,,株式会社,東京都,板橋区,志村１丁目１２番１３－２０２,,13,119,1740056,,,,,,,2021-11-08,1,,,,,ビーエフピー,0
1073,4011503004945,新規,0,2021-11-08,2021-11-08,ＴＭＣ合同会社,,合同会社,東京都,荒川区,町屋７丁目８－１１,,13,118,1160001,,,,,,,2021-11-08,1,,,,,ティーエムシー,0
1074,4011503004961,新規,0,2021-11-08,2021-11-08,合同会社ＳＫパートナーズ,,合同会社,東京都,北区,田端１丁目４番２－８０１号,,13,117,1140014,,,,,,,2021-11-08,1,,,,,エスケーパートナーズ,0
1081,4012403005083,新規,0,2021-11-08,2021-11-08,合同会社マイアジアエンターテインメント,,合同会社,東京都,小金井市,東町４丁目２２－７ヌーベルシャトー２０２,,13,210,1840011,,,,,,,2021-11-08,1,,,,,マイアジアエンターテイメント,0
1084,4012701016757,新規,0,2021-11-08,2021-11-08,株式会社ビーファイン・ケア,,株式会社,東京都,東久留米市,南沢５丁目３番４号フィーラ南沢２０２号,,13,222,2030023,,,,,,,2021-11-08,1,,,,,ビーファインケア,0
1085,4012801021203,新規,0,2021-11-08,2021-11-08,株式会社情ＤｉＮｉＮＧ時,,株式会社,東京都,国分寺市,泉町２丁目６番１－５０５号トミンハイム国分寺泉町,,13,214,1850024,,,,,,,2021-11-08,1,,,,,ジョウダイニングトキ,0
1095,4013301048232,新規,0,2021-11-08,2021-11-08,株式会社ＥＤＯ＆ＡＲＫ,,株式会社,東京都,豊島区,池袋２丁目５３番１０号,,13,116,1710014,,,,,,,2021-11-08,1,,,,,エドアーク,0
1099,4013303005891,新規,0,2021-11-08,2021-11-08,合同会社ｔａｎｅ,,合同会社,東京都,豊島区,長崎４丁目２２番１１号,,13,116,1710051,,,,,,,2021-11-08,1,,,,,タネ,0
1104,4020001143800,新規,0,2021-11-08,2021-11-08,株式会社トダイ電機,,株式会社,神奈川県,横浜市緑区,西八朔町７１９番地５,,14,113,2260024,,,,,,,2021-11-08,1,,,,,トダイデンキ,0
1105,4020001143809,新規,0,2021-11-08,2021-11-08,株式会社アヴェニア,,株式会社,神奈川県,川崎市中原区,下小田中２丁目１８－１３,,14,133,2110041,,,,,,,2021-11-08,1,,,,,アヴェニア,0
1116,4021001074432,新規,0,2021-11-08,2021-11-08,株式会社ファーストアプローチ,,株式会社,神奈川県,秦野市,東田原６１２番地の１０,,14,211,2570028,,,,,,,2021-11-08,1,,,,,ファーストアプローチ,0
1121,4030001145192,新規,0,2021-11-08,2021-11-08,株式会社ファンタイムリテール,,株式会社,埼玉県,戸田市,本町４丁目４番６号,,11,224,3350023,,,,,,,2021-11-08,1,,,,,ファンタイムリテール,0
1122,4030001145226,新規,0,2021-11-08,2021-11-08,株式会社山之内工業,,株式会社,埼玉県,さいたま市西区,西大宮４丁目３１番地８,,11,101,3310078,,,,,,,2021-11-08,1,,,,,ヤマノウチコウギョウ,0
1123,4030001145234,新規,0,2021-11-08,2021-11-08,株式会社アルトラ,,株式会社,埼玉県,さいたま市大宮区,東町２丁目２８８－２,,11,103,3300841,,,,,,,2021-11-08,1,,,,,アルトラ,0
1130,4030005020623,新規,0,2021-11-08,2021-11-08,一般社団法人はるかイキイキくらぶ,,その他の設立登記法人,埼玉県,さいたま市南区,白幡５丁目４番１６号,,11,108,3360022,,,,,,,2021-11-08,1,,,,,ハルカイキイキクラブ,0
1134,4040001120839,新規,0,2021-11-08,2021-11-08,ケイズ株式会社,,株式会社,千葉県,八街市,勢田３４０番地３４,,12,230,2891132,,,,,,,2021-11-08,1,,,,,ケイズ,0
1135,4040001120847,新規,0,2021-11-08,2021-11-08,ワイケイ株式会社,,株式会社,千葉県,白井市,河原子２９５番地の２,,12,232,2701403,,,,,,,2021-11-08,1,,,,,ワイケイ,0
1136,4040001120871,新規,0,2021-11-08,2021-11-08,株式会社はる会計サポート,,株式会社,千葉県,松戸市,岩瀬１１４番地,,12,207,2710076,,,,,,,2021-11-08,1,,,,,ハルカイケイサポート,0
1137,4040001120896,新規,0,2021-11-08,2021-11-08,株式会社Ｋ’ｓ　Ｈａｒｖｅｓｔ,,株式会社,千葉県,習志野市,津田沼３丁目１０番１３－５０２号,,12,216,2750016,,,,,,,2021-11-08,1,,,,,ケーズハーベスト,0
1145,4050001050085,新規,0,2021-11-08,2021-11-08,株式会社用地アシストつくば,,株式会社,茨城県,つくば市,下別府４０１番地１,,08,220,3002666,,,,,,,2021-11-08,1,,,,,ヨウチアシストツクバ,0
1146,4050001050110,新規,0,2021-11-08,2021-11-08,株式会社ＴＬＣソリューション,,株式会社,茨城県,小美玉市,栗又四ケ１０４２番地,,08,236,3113434,,,,,,,2021-11-08,1,,,,,ティーエルシーソリューション,0
1147,4050001050119,新規,0,2021-11-08,2021-11-08,建機レンタル株式会社,,株式会社,茨城県,稲敷郡美浦村,大字舟子６００番,,08,442,3000428,,,,,,,2021-11-08,1,,,,,ケンキレンタル,0
1149,4050003006176,新規,0,2021-11-08,2021-11-08,晃建商合同会社,,合同会社,茨城県,小美玉市,羽鳥２３５２－１７９エクセレント２０５,,08,236,3190123,,,,,,,2021-11-08,1,,,,,アキラケンショウ,0
1150,4060001034260,新規,0,2021-11-08,2021-11-08,ｆｍｌｐ株式会社,,株式会社,栃木県,栃木市,藤岡町藤岡６４６６番地７,,09,203,3231104,,,,,,,2021-11-08,1,,,,,エフエムエルピー,0
1151,4060001034269,新規,0,2021-11-08,2021-11-08,株式会社Ｗ,,株式会社,栃木県,宇都宮市,今泉町３００６番地２５－１０２,,09,201,3210962,,,,,,,2021-11-08,1,,,,,ダブル,0
1191,4120005022593,新規,0,2021-11-08,2021-11-08,一般社団法人ＦＥＥＬ　Ｄｏ,,その他の設立登記法人,大阪府,大阪市城東区,鴫野西４丁目９番１７－９０２号,,27,118,5360014,,,,,,,2021-11-08,1,,,,,フィールド,0
1195,4120101064597,新規,0,2021-11-08,2021-11-08,株式会社ＳＡＫ,,株式会社,大阪府,泉南郡熊取町,つばさが丘北３丁目１１番１号,,27,361,5900444,,,,,,,2021-11-08,1,,,,,エスエーケイ,0
1196,4120101064614,新規,0,2021-11-08,2021-11-08,株式会社あおいうみのケア,,株式会社,大阪府,和泉市,はつが野１丁目２５番１号,,27,219,5941106,,,,,,,2021-11-08,1,,,,,アオイウミノケア,0
1198,4120103004428,新規,0,2021-11-08,2021-11-08,合同会社Ｙ－Ｌｉｎｋ,,合同会社,大阪府,藤井寺市,北岡１丁目７番９号,,27,226,5830035,,,,,,,2021-11-08,1,,,,,ワイリンク,0
1200,4120903003901,新規,0,2021-11-08,2021-11-08,伊藤電算計装合同会社,,合同会社,大阪府,豊中市,新千里東町１丁目４番１号阪急千里中央ビル８Ｆ,,27,203,5600082,,,,,,,2021-11-08,1,,,,,イトウデンサンケイソウ,0
1203,4122001035331,新規,0,2021-11-08,2021-11-08,株式会社絆,,株式会社,大阪府,東大阪市,東山町８番１９号,,27,227,5798027,,,,,,,2021-11-08,1,,,,,キズナ,0
1212,4140001123699,新規,0,2021-11-08,2021-11-08,株式会社ＥＱＸＩＡ,,株式会社,兵庫県,姫路市,御国野町御着９９８番地１５,,28,201,6710232,,,,,,,2021-11-08,1,,,,,エクシア,0
1228,4180001148503,新規,0,2021-11-08,2021-11-08,株式会社Ｔｏｋｉｓｅｔｓｕ,,株式会社,愛知県,半田市,青山２丁目２６番地の８キャッツ青山４０３,,23,205,4750836,,,,,,,2021-11-08,1,,,,,トキセツ,0
1229,4180001148511,新規,0,2021-11-08,2021-11-08,ＡＴ．ＣＯＭＭ株式会社,,株式会社,愛知県,常滑市,北条１丁目５０番地１,,23,216,4790833,,,,,,,2021-11-08,1,,,,,エーティドットコム,0
1230,4180001148536,新規,0,2021-11-08,2021-11-08,株式会社田原工業,,株式会社,愛知県,名古屋市西区,五才美町９２番地,,23,104,4520806,,,,,,,2021-11-08,1,,,,,タハラコウギョウ,0
1231,4180001148544,新規,0,2021-11-08,2021-11-08,株式会社真通信,,株式会社,愛知県,清須市,阿原星の宮１８２番地,,23,233,4520901,,,,,,,2021-11-08,1,,,,,シンツウシン,0
1232,4180001148560,新規,0,2021-11-08,2021-11-08,株式会社一,,株式会社,愛知県,一宮市,森本３丁目１７番１０号,,23,203,4910831,,,,,,,2021-11-08,1,,,,,イチ,0
1233,4180001148577,新規,0,2021-11-08,2021-11-08,Ｆｕｎ　ｅｖｅｒｙｄａｙ株式会社,,株式会社,愛知県,名古屋市天白区,土原１丁目２２０番地,,23,116,4680026,,,,,,,2021-11-08,1,,,,,ファンエブリデイ,0
1234,4180001148585,新規,0,2021-11-08,2021-11-08,株式会社ＷＯＲＫＳ,,株式会社,愛知県,長久手市,前熊根ノ上６番地２,,23,238,4801102,,,,,,,2021-11-08,1,,,,,ワークス,0
1235,4180001148610,新規,0,2021-11-08,2021-11-08,株式会社Ｍ＆Ｍ,,株式会社,愛知県,名古屋市天白区,平針１丁目６０１番地２－４１６号,,23,116,4680011,,,,,,,2021-11-08,1,,,,,エムアンドエム,0
1236,4180001148635,新規,0,2021-11-08,2021-11-08,株式会社倉田電設,,株式会社,愛知県,尾張旭市,東大久手町３丁目６番地２６,,23,226,4880003,,,,,,,2021-11-08,1,,,,,クラタデンセツ,0
1238,4180003023159,新規,0,2021-11-08,2021-11-08,緑星ノ希合同会社,,合同会社,愛知県,春日井市,大和通１丁目１８番地４,,23,206,4860944,,,,,,,2021-11-08,1,,,,,リョクセイノマレ,0
1240,4180301035582,新規,0,2021-11-08,2021-11-08,株式会社服部自動車,,株式会社,愛知県,豊橋市,牟呂町字築根２６番地,,23,201,4418087,,,,,,,2021-11-08,1,,,,,ハットリジドウシャ,0
1241,4180301035599,新規,0,2021-11-08,2021-11-08,株式会社ヨモヤマデザイン,,株式会社,愛知県,豊田市,志賀町香九礼１番地５４,,23,211,4710802,,,,,,,2021-11-08,1,,,,,ヨモヤマデザイン,0
1242,4180301035608,新規,0,2021-11-08,2021-11-08,株式会社ＬＥＯ．,,株式会社,愛知県,岡崎市,若松町字大廻４３番地２,,23,202,4440826,,,,,,,2021-11-08,1,,,,,レオ,0
1246,4180305009260,新規,0,2021-11-08,2021-11-08,行政書士法人小川事務所,,その他の設立登記法人,愛知県,豊田市,田中町４丁目１３番地,,23,211,4710845,,,,,,,2021-11-08,1,,,,,オガワジムショ,0
1250,4210001018693,新規,0,2021-11-08,2021-11-08,株式会社若狭の国タナベ,,株式会社,福井県,三方上中郡若狭町,田井第１１４号９番地,,18,501,9191462,,,,,,,2021-11-08,1,,,,,ワカサノクニタナベ,0
1254,4230001019070,新規,0,2021-11-08,2021-11-08,株式会社希々工房,,株式会社,富山県,砺波市,石丸７２番地,,16,208,9391301,,,,,,,2021-11-08,1,,,,,キキコウボウ,0
1265,4290001095197,新規,0,2021-11-08,2021-11-08,株式会社古野工業,,株式会社,福岡県,朝倉郡筑前町,朝日７３７番地２,,40,447,8380227,,,,,,,2021-11-08,1,,,,,フルノコウギョウ,0
1266,4290001095263,新規,0,2021-11-08,2021-11-08,株式会社マーメイドジェムコーポレーション,,株式会社,福岡県,福岡市博多区,博多駅前４丁目１６番６－２０８号,,40,132,8120011,,,,,,,2021-11-08,1,,,,,マーメイドジェムコーポレーション,0
1267,4290001095296,新規,0,2021-11-08,2021-11-08,株式会社ＴＥＣ,,株式会社,福岡県,那珂川市,中原３丁目１４６番地２階,,40,231,8111213,,,,,,,2021-11-08,1,,,,,テック,0
1268,4290001095313,新規,0,2021-11-08,2021-11-08,経営よくする株式会社,,株式会社,福岡県,福岡市博多区,博多駅前３丁目２５番２４号八百治ビル２階,,40,132,8120011,,,,,,,2021-11-08,1,,,,,ケイエイヨクスル,0
1272,4290003011805,新規,0,2021-11-08,2021-11-08,合同会社堀江セメント工業,,合同会社,福岡県,久留米市,北野町十郎丸１３４４番地１,,40,203,8301121,,,,,,,2021-11-08,1,,,,,ホリエセメントコウギョウ,0
1275,4290801027977,新規,0,2021-11-08,2021-11-08,健匠株式会社,,株式会社,福岡県,北九州市小倉北区,宇佐町２丁目６－９－Ａ３,,40,106,8020016,,,,,,,2021-11-08,1,,,,,ケンショウ,0
1288,4330001029159,新規,0,2021-11-08,2021-11-08,株式会社ＭＯＤアソシエイト,,株式会社,熊本県,菊池郡菊陽町,武蔵ヶ丘北２丁目１５番８号４,,43,404,8691112,,,,,,,2021-11-08,1,,,,,エムオーディーアソシエイト,0
1289,4330005010429,新規,0,2021-11-08,2021-11-08,医療法人みよし歯科クリニック,,その他の設立登記法人,熊本県,合志市,御代志１６７２－１,,43,216,8611104,,,,,,,2021-11-08,1,,,,,ミヨシシカクリニック,0
1291,4360001029585,新規,0,2021-11-08,2021-11-08,三鶴溶接株式会社,,株式会社,沖縄県,島尻郡八重瀬町,字仲座１番地２,,47,362,9010516,,,,,,,2021-11-08,1,,,,,ミツルヨウセツ,0
1292,4360001029593,新規,0,2021-11-08,2021-11-08,株式会社瀬塗工業,00124795,株式会社,沖縄県,島尻郡与那原町,字板良敷７４２番地,,47,348,9011301,,,,,,,2021-11-08,1,,,,,セトコウギョウ,0
1295,4370001047768,新規,0,2021-11-08,2021-11-08,株式会社アーツ,,株式会社,宮城県,石巻市,南中里３丁目１２番９号,,04,202,9860814,,,,,,,2021-11-08,1,,,,,アーツ,0
1296,4370001047784,新規,0,2021-11-08,2021-11-08,株式会社イー・ワールド,,株式会社,宮城県,塩竈市,牛生町１９番３号,,04,203,9850013,,,,,,,2021-11-08,1,,,,,イーワールド,0
1302,4380001032298,新規,0,2021-11-08,2021-11-08,株式会社ブリス,,株式会社,福島県,郡山市,朝日２丁目２３番１０号,,07,203,9638024,,,,,,,2021-11-08,1,,,,,ブリス,0
1311,4430001085299,新規,0,2021-11-08,2021-11-08,株式会社濱本合同委員会,,株式会社,北海道,札幌市中央区,南二条西２１丁目１番４０－１５０５号,,01,101,0640802,,,,,,,2021-11-08,1,,,,,ハマモトゴウドウイインカイ,0
1312,4430001085308,新規,0,2021-11-08,2021-11-08,加賀シート株式会社,,株式会社,北海道,江別市,ゆめみ野東町６番地の２１,,01,217,0670065,,,,,,,2021-11-08,1,,,,,カガシート,0
1313,4430001085332,新規,0,2021-11-08,2021-11-08,株式会社コンテンダー,,株式会社,北海道,沙流郡日高町,字福満８５番地の１,,01,601,0550003,,,,,,,2021-11-08,1,,,,,コンテンダー,0
1316,4470001018825,新規,0,2021-11-08,2021-11-08,さぬき金属株式会社,,株式会社,香川県,さぬき市,大川町富田西１８３７番地８,,37,206,7610901,,,,,,,2021-11-08,1,,,,,サヌキキンゾク,0
1330,5010001222249,新規,0,2021-11-08,2021-11-08,株式会社ＲＥ－Ｍａｒｋｅｔｓ,,株式会社,東京都,千代田区,神田錦町１丁目２３番地８号ＴＨＥＳＫＹＧｒａｎＤＥＡＲ神田錦町５階,,13,101,1010054,,,,,,,2021-11-08,1,,,,,アールイーマーケッツ,0
1331,5010001222265,新規,0,2021-11-08,2021-11-08,株式会社ＹＯＫＩＹＯＫＩ,,株式会社,東京都,中央区,銀座７丁目１３番６号サガミビル２階,,13,102,1040061,,,,,,,2021-11-08,1,,,,,ヨキヨキ,0
1332,5010001222281,新規,0,2021-11-08,2021-11-08,株式会社ＷｅｌｌＴｈｒｉｖｅ,,株式会社,東京都,千代田区,神田須田町１丁目１０番地５１,,13,101,1010041,,,,,,,2021-11-08,1,,,,,ウェルスライブ,0
1333,5010001222298,新規,0,2021-11-08,2021-11-08,株式会社村松,,株式会社,東京都,中央区,日本橋浜町１丁目１番１号,,13,102,1030007,,,,,,,2021-11-08,1,,,,,ムラマツ,0
1334,5010001222323,新規,0,2021-11-08,2021-11-08,日本山井生物薬粧研究所株式会社,,株式会社,東京都,中央区,東日本橋２丁目２５番８号５０８,,13,102,1030004,,,,,,,2021-11-08,1,,,,,ニホンヤマイセイブツヤクショウケンキュウショウ,0
1342,5010003036192,新規,0,2021-11-08,2021-11-08,Ｙ　Ｃａｐｉｔａｌ合同会社,,合同会社,東京都,中央区,湊３丁目１５－１０－４０２,,13,102,1040043,,,,,,,2021-11-08,1,,,,,ワイキャピタル,0
1345,5010103001807,新規,0,2021-11-08,2021-11-08,ノーブル合同会社,,合同会社,東京都,八王子市,清川町４８番地の６,,13,201,1930804,,,,,,,2021-11-08,1,,,,,ノーブル,0
1356,5010601060172,新規,0,2021-11-08,2021-11-08,株式会社輪緒良,,株式会社,東京都,江東区,牡丹２丁目１０番１号ジーミネルバＢ１,,13,108,1350046,,,,,,,2021-11-08,1,,,,,ワッショイ,0
1357,5010603009242,新規,0,2021-11-08,2021-11-08,江東福祉送迎合同会社,,合同会社,東京都,江東区,北砂３丁目４番３３号７０９,,13,108,1360073,,,,,,,2021-11-08,1,,,,,コウトウフクシソウゲイ,0
1367,5010903006922,新規,0,2021-11-08,2021-11-08,合同会社ＣＩＣＬＯ,,合同会社,東京都,世田谷区,深沢２丁目１５番１２号,,13,112,1580081,,,,,,,2021-11-08,1,,,,,シクロ,0
1378,5011003013594,新規,0,2021-11-08,2021-11-08,合同会社山伏,,合同会社,東京都,目黒区,下目黒２丁目９番２－９１４号パークホームズ目黒ザレジデンス,,13,110,1530064,,,,,,,2021-11-08,1,,,,,ヤマブシ,0
1379,5011003013660,新規,0,2021-11-08,2021-11-08,合同会社ｆｅｖｅｒ,,合同会社,東京都,渋谷区,神宮前６丁目２３番４号桑野ビル２階,,13,113,1500001,,,,,,,2021-11-08,1,,,,,フィーバー,0
1385,5011401023807,新規,0,2021-11-08,2021-11-08,ネクストステップテクノロジーズ株式会社,,株式会社,東京都,板橋区,前野町２丁目１６番１－１５１６号,,13,119,1740063,,,,,,,2021-11-08,1,,,,,ネクストステップテクノロジーズ,0
1386,5011401023815,新規,0,2021-11-08,2021-11-08,株式会社三石,,株式会社,東京都,板橋区,志村１丁目３５番３－３０５号,,13,119,1740056,,,,,,,2021-11-08,1,,,,,ミツイシ,0
1390,5011603003433,新規,0,2021-11-08,2021-11-08,ＥＢｏｎｄｓ合同会社,,合同会社,東京都,練馬区,田柄２丁目１９番２９－２０５号,,13,120,1790073,,,,,,,2021-11-08,1,,,,,エバンス,0
1392,5011703002987,新規,0,2021-11-08,2021-11-08,わらや合同会社,,合同会社,東京都,江戸川区,江戸川２丁目２９番１号４０７号室,,13,123,1320013,,,,,,,2021-11-08,1,,,,,ワラヤ,0
1399,5011801039948,新規,0,2021-11-08,2021-11-08,株式会社ａｔｅｌｉｅｒ　Ｄｅｓｉｇｎ　Ｐａｌｅｔｔｅ一級建築士事務所,,株式会社,東京都,葛飾区,柴又１丁目１８番４号,,13,122,1250052,,,,,,,2021-11-08,1,,,,,アトリエデザインパレットイッキュウケンチクシジムショ,0
1403,5011803004859,新規,0,2021-11-08,2021-11-08,鴻燦合同会社,,合同会社,東京都,葛飾区,新小岩３丁目２１番１９号,,13,122,1240024,,,,,,,2021-11-08,1,,,,,コウサン,0
1404,5012301012759,新規,0,2021-11-08,2021-11-08,株式会社ハイジェア,,株式会社,東京都,町田市,鶴川５丁目１０－２４,,13,209,1950061,,,,,,,2021-11-08,1,,,,,ハイジェア,0
1408,5012701016756,新規,0,2021-11-08,2021-11-08,ウィルフリート株式会社,,株式会社,東京都,東村山市,諏訪町１丁目１３番地１３,,13,213,1890021,,,,,,,2021-11-08,1,,,,,ウィルフリート,0
1409,5012801021202,新規,0,2021-11-08,2021-11-08,株式会社伊藤興業,,株式会社,東京都,東大和市,奈良橋５丁目８１２番地の２８,,13,220,2070031,,,,,,,2021-11-08,1,,,,,イトウコウギョウ,0
1416,5013301048231,新規,0,2021-11-08,2021-11-08,株式会社神田屋ＨＤ,,株式会社,東京都,豊島区,池袋３丁目６４番６号,,13,116,1710014,,,,,,,2021-11-08,1,,,,,カンダヤホールディングス,0
1417,5013303005890,新規,0,2021-11-08,2021-11-08,合同会社ＨＡＲＥＲＵ,,合同会社,東京都,豊島区,西池袋２丁目３９番９号ロイヤル池袋６０５,,13,116,1710021,,,,,,,2021-11-08,1,,,,,ハレル,0
1418,5013305003281,新規,0,2021-11-08,2021-11-08,一般社団法人Ｗｉｓｈ,,その他の設立登記法人,東京都,豊島区,東池袋１丁目３１番６－４０２号,,13,116,1700013,,,,,,,2021-11-08,1,,,,,ウィッシュ,0
1423,5020001143741,新規,0,2021-11-08,2021-11-08,株式会社Ｗ－ｉｎｇ,,株式会社,神奈川県,横浜市泉区,弥生台２５番地１,,14,116,2450008,,,,,,,2021-11-08,1,,,,,ウイング,0
1424,5020001143782,新規,0,2021-11-08,2021-11-08,株式会社医療デザインラボ,,株式会社,神奈川県,横浜市港北区,大豆戸町１７番地１１グローリア初穂大倉山３０９号,,14,109,2220032,,,,,,,2021-11-08,1,,,,,イリョウデザインラボ,0
1427,5020003020749,新規,0,2021-11-08,2021-11-08,合同会社Ｋｏｂｅ,,合同会社,神奈川県,横浜市鶴見区,鶴見中央２丁目１２番３０－４１３号,,14,101,2300051,,,,,,,2021-11-08,1,,,,,コービー,0
1432,5021001074423,新規,0,2021-11-08,2021-11-08,株式会社ＳＧ,,株式会社,神奈川県,大和市,大和東１丁目８番６号,,14,213,2420017,,,,,,,2021-11-08,1,,,,,エスジー,0
1433,5021001074431,新規,0,2021-11-08,2021-11-08,株式会社栄商産業,,株式会社,神奈川県,鎌倉市,大船１丁目２５番２３号第９１東京ビル４Ｆ,,14,204,2470056,,,,,,,2021-11-08,1,,,,,エイショウサンギョウ,0
1437,5021003011060,新規,0,2021-11-08,2021-11-08,Ａｎｕｅｎｕｅ合同会社,,合同会社,神奈川県,藤沢市,辻堂西海岸２丁目１３番２－４０５号,,14,205,2510046,,,,,,,2021-11-08,1,,,,,アヌエヌエ,0
1438,5021003011077,新規,0,2021-11-08,2021-11-08,ＰＲＯＭＡＸ　ＪＡＰＡＮ合同会社,,合同会社,神奈川県,相模原市中央区,横山３丁目７番１－４０１号,,14,152,2520242,,,,,,,2021-11-08,1,,,,,プロマックスジャパン,0
1444,5030001145233,新規,0,2021-11-08,2021-11-08,株式会社マイナーセブン,,株式会社,埼玉県,越谷市,蒲生西町２丁目１８番地の１５－２０６,,11,222,3430835,,,,,,,2021-11-08,1,,,,,マイナーセブン,0
1445,5030001145241,新規,0,2021-11-08,2021-11-08,株式会社東鉄建設,,株式会社,埼玉県,川口市,江戸３丁目２５－２１,,11,203,3340074,,,,,,,2021-11-08,1,,,,,トウテツケンセツ,0
1449,5030003018255,新規,0,2021-11-08,2021-11-08,合同会社瀬島園,,合同会社,埼玉県,入間郡三芳町,大字上富１１５２番地,,11,324,3540045,,,,,,,2021-11-08,1,,,,,セシマエン,0
1452,5040001120846,新規,0,2021-11-08,2021-11-08,株式会社ＸＩ－Ｈｕａｎ,,株式会社,千葉県,船橋市,宮本１丁目９番３号,,12,204,2730003,,,,,,,2021-11-08,1,,,,,シーホアン,0
1453,5040001120854,新規,0,2021-11-08,2021-11-08,株式会社細川タイヤ,,株式会社,千葉県,佐倉市,上勝田６５８番地２,,12,212,2850054,,,,,,,2021-11-08,1,,,,,ホソカワタイヤ,0
1454,5040001120862,新規,0,2021-11-08,2021-11-08,勝浦野菜工房株式会社,,株式会社,千葉県,勝浦市,名木１１８番地,,12,218,2995253,,,,,,,2021-11-08,1,,,,,カツウラヤサイコウボウ,0
1455,5040001120895,新規,0,2021-11-08,2021-11-08,株式会社スマイル,,株式会社,千葉県,船橋市,前原西２丁目１３番１号藤和津田沼コープ１０２,,12,204,2740825,,,,,,,2021-11-08,1,,,,,スマイル,0
1460,5050001050118,新規,0,2021-11-08,2021-11-08,株式会社ゆめひろ,,株式会社,茨城県,水戸市,河和田町１１１０番地の３,,08,201,3114153,,,,,,,2021-11-08,1,,,,,ユメヒロ,0
1463,5050003006183,新規,0,2021-11-08,2021-11-08,合同会社鈴木電気,,合同会社,茨城県,石岡市,東石岡４丁目７番２６号,,08,205,3150037,,,,,,,2021-11-08,1,,,,,スズキデンキ,0
1468,5060003003857,新規,0,2021-11-08,2021-11-08,合同会社佐藤,,合同会社,栃木県,足利市,葉鹿町５５８番地２アキハウスＩ１０２号室,00124793,09,202,3260143,,,,,,,2021-11-08,1,,,,,サトウ,0
1471,5070001038615,新規,0,2021-11-08,2021-11-08,株式会社ＢＡＳＴＥＴ,,株式会社,群馬県,高崎市,上並榎町５５６番地１５,,10,202,3700801,,,,,,,2021-11-08,1,,,,,バステト,0
1475,5070003004284,新規,0,2021-11-08,2021-11-08,合同会社あすえみ,,合同会社,群馬県,太田市,新田小金井町１６５８番地２,,10,205,3700303,,,,,,,2021-11-08,1,,,,,アスエミ,0
1507,5120001241601,新規,0,2021-11-08,2021-11-08,積水ハウス不動産ホールディングス株式会社,,株式会社,大阪府,大阪市北区,大淀中１丁目１番９０号,,27,127,5310076,,,,,,,2021-11-08,1,,,,,セキスイハウスフドウサンホールディングス,0
1508,5120001241626,新規,0,2021-11-08,2021-11-08,株式会社ＶＡＮＣＡＳＴ　ＣＯＲＰＯＲＡＴＩＯＮ,,株式会社,大阪府,大阪市淀川区,西宮原３丁目３番４－２０７号,,27,123,5320004,,,,,,,2021-11-08,1,,,,,ヴァンキャストコーポレーション,0
1510,5120003020565,新規,0,2021-11-08,2021-11-08,合同会社ＢＥＬＬ７,,合同会社,大阪府,枚方市,長尾谷町３丁目４３－２,,27,210,5730164,,,,,,,2021-11-08,1,,,,,ベルセブン,0
1519,5120101064613,新規,0,2021-11-08,2021-11-08,株式会社大鳥自動車,,株式会社,大阪府,南河内郡太子町,大字春日６０番地,,27,381,5830991,,,,,,,2021-11-08,1,,,,,オオトリジドウシャ,0
1521,5120903003900,新規,0,2021-11-08,2021-11-08,ＮｅｔＲＳ合同会社,,合同会社,大阪府,豊中市,穂積２丁目１４番４５号リヴェール２０８,,27,203,5610856,,,,,,,2021-11-08,1,,,,,ネットアールエス,0
1529,5130001070479,新規,0,2021-11-08,2021-11-08,株式会社和ｐｌｕｓ,,株式会社,京都府,京都市左京区,岩倉幡枝町２６５４番地,,26,103,6060015,,,,,,,2021-11-08,1,,,,,カズプラス,0
1541,5150003002536,新規,0,2021-11-08,2021-11-08,合同会社保険エージェンシー,,合同会社,奈良県,奈良市,石木町１５７番地の４,,29,201,6310054,,,,,,,2021-11-08,1,,,,,ホケンエージェンシー,0
1555,5180001148519,新規,0,2021-11-08,2021-11-08,株式会社クローズループ,,株式会社,愛知県,名古屋市南区,松城町３丁目４６番地,,23,112,4570045,,,,,,,2021-11-08,1,,,,,クローズループ,0
1556,5180001148543,新規,0,2021-11-08,2021-11-08,株式会社５ＴＡＰ,,株式会社,愛知県,名古屋市中区,新栄２丁目４４番２０号,,23,106,4600007,,,,,,,2021-11-08,1,,,,,ファイブタップ,0
1557,5180001148584,新規,0,2021-11-08,2021-11-08,株式会社怜実住建,,株式会社,愛知県,豊明市,栄町下原３番地６,,23,229,4701161,,,,,,,2021-11-08,1,,,,,レイミジュウケン,0
1558,5180001148642,新規,0,2021-11-08,2021-11-08,株式会社ＯＮＥ　ＨＵＮＤＲＥＤ　ＢＡＫＥＲＹ,,株式会社,愛知県,一宮市,八幡２丁目７番地１,,23,203,4910903,,,,,,,2021-11-08,1,,,,,ワンハンドレッドベーカリー,0
1559,5180001148650,新規,0,2021-11-08,2021-11-08,株式会社ＣＯＺＹ,,株式会社,愛知県,小牧市,小松寺２丁目２７０番地,,23,219,4850828,,,,,,,2021-11-08,1,,,,,コージー,0
1560,5180001148659,新規,0,2021-11-08,2021-11-08,株式会社ｅＮ,,株式会社,愛知県,名古屋市中区,栄３丁目１０番６号ルネッサンスビルＢ１Ｆ－Ａ号,,23,106,4600008,,,,,,,2021-11-08,1,,,,,イーエヌ,0
1564,5180003023166,新規,0,2021-11-08,2021-11-08,合同会社ＹＴＳ,,合同会社,愛知県,名古屋市中村区,名駅南３丁目１２番１６号ルポゼ名駅南５０５号室,,23,105,4500003,,,,,,,2021-11-08,1,,,,,ワイティエス,0
1585,5200001039376,新規,0,2021-11-08,2021-11-08,株式会社ＰＯＮ　ｃｈａｎｃｅ,,株式会社,岐阜県,大垣市,宮町１丁目１番地ライオンズ大垣駅前ローレルタワー１２０４,,21,202,5030905,,,,,,,2021-11-08,1,,,,,ポンチャン,0
1589,5210001018692,新規,0,2021-11-08,2021-11-08,株式会社ラプラス,,株式会社,福井県,坂井市,三国町三国東５丁目２番６号,,18,210,9130016,,,,,,,2021-11-08,1,,,,,ラプラス,0
1596,5240001058868,新規,0,2021-11-08,2021-11-08,株式会社Ｔ＆Ａ,,株式会社,広島県,福山市,神村町字東竹５３３０番地１,,34,207,7290112,,,,,,,2021-11-08,1,,,,,ティーアンドエー,0
1597,5240001058901,新規,0,2021-11-08,2021-11-08,株式会社ＣＵＥ　ＲＥＡＬＩＺＥ,,株式会社,広島県,広島市佐伯区,屋代３丁目１５番３５－３号,,34,108,7315146,,,,,,,2021-11-08,1,,,,,,0
1598,5240003005356,新規,0,2021-11-08,2021-11-08,合同会社ＴＳＯ,,合同会社,広島県,広島市佐伯区,利松１丁目１２番４７号,,34,108,7315106,,,,,,,2021-11-08,1,,,,,ティーエスオー,0
1611,5290001095262,新規,0,2021-11-08,2021-11-08,シモテック株式会社,,株式会社,福岡県,糟屋郡志免町,御手洗１丁目１番１－５０３号,,40,343,8112206,,,,,,,2021-11-08,1,,,,,シモテック,0
1612,5290001095270,新規,0,2021-11-08,2021-11-08,ＮＥＸＴＬＹＮＫＳ株式会社,,株式会社,福岡県,久留米市,田主丸町以真恵８１１番地１,,40,203,8391223,,,,,,,2021-11-08,1,,,,,ネクストリンクス,0
1613,5290001095279,新規,0,2021-11-08,2021-11-08,株式会社ＡＺＯＸ,,株式会社,福岡県,福岡市中央区,大名２丁目４番３８－２１６号,,40,133,8100041,,,,,,,2021-11-08,1,,,,,アゾックス,0
1614,5290001095287,新規,0,2021-11-08,2021-11-08,株式会社ＫＭＴ,,株式会社,福岡県,福岡市早良区,有田２丁目２４番１４号,,40,137,8140033,,,,,,,2021-11-08,1,,,,,ケーエムティー,0
1615,5290001095312,新規,0,2021-11-08,2021-11-08,株式会社マハルリカ,,株式会社,福岡県,久留米市,日吉町１３番地１９キャニオンシティービルＢ棟２階,,40,203,8300017,,,,,,,2021-11-08,1,,,,,マハルリカ,0
1618,5290003011795,新規,0,2021-11-08,2021-11-08,合同会社インサイド,,合同会社,福岡県,福岡市西区,今宿町５３９番地３８,,40,135,8190164,,,,,,,2021-11-08,1,,,,,インサイド,0
1619,5290003011804,新規,0,2021-11-08,2021-11-08,サカエデジタル合同会社,,合同会社,福岡県,太宰府市,朱雀１丁目８番１３号プランドゥ五条１０３号室,,40,221,8180103,,,,,,,2021-11-08,1,,,,,サカエデジタル,0
1620,5290005018418,新規,0,2021-11-08,2021-11-08,社会福祉法人みづま福祉会,,その他の設立登記法人,福岡県,久留米市,三潴町玉満２３７１番地,,40,203,8300112,,,,,,,2021-11-08,1,,,,,ミヅマフクシカイ,0
1632,5330001029166,新規,0,2021-11-08,2021-11-08,株式会社萬吉屋,,株式会社,熊本県,熊本市南区,砂原町２０番地１,,43,104,8615255,,,,,,,2021-11-08,1,,,,,マンキチヤ,0
1635,5330003009125,新規,0,2021-11-08,2021-11-08,合同会社ステップアップ,,合同会社,熊本県,熊本市西区,河内町船津１３００番地,,43,103,8615347,,,,,,,2021-11-08,1,,,,,ステップアップ,0
1639,5360001029592,新規,0,2021-11-08,2021-11-08,株式会社Ｐｈｏｅｎｉｘ,,株式会社,沖縄県,宜野湾市,大謝名１丁目２番３号,,47,205,9012225,,,,,,,2021-11-08,1,,,,,フェニックス,0
1644,5370001047809,新規,0,2021-11-08,2021-11-08,株式会社３ＲＩＳＥ,,株式会社,宮城県,仙台市太白区,大谷地１番９号,,04,104,9820035,,,,,,,2021-11-08,1,,,,,サンライズ,0
1657,5430001085298,新規,0,2021-11-08,2021-11-08,株式会社ＭアンドＪ,,株式会社,北海道,苫小牧市,日新町２丁目６番９－３号,,01,213,0530833,,,,,,,2021-11-08,1,,,,,エムアンドジェー,0
1666,5480001011547,新規,0,2021-11-08,2021-11-08,株式会社徳島さわやかファーム,,株式会社,徳島県,鳴門市,大津町長江字北蛭子２７番地,,36,202,7720033,,,,,,,2021-11-08,1,,,,,トクシマサワヤカファーム,0
1670,5490001010028,新規,0,2021-11-08,2021-11-08,株式会社アストラストコンサルティング,,株式会社,高知県,高知市,愛宕町２丁目１６番１０号,,39,201,7800051,,,,,,,2021-11-08,1,,,,,アストラストコンサルティング,0
1674,5700150105639,新規,0,2021-11-08,2021-11-08,ＯＤＧＫ　Ｈｏｌｄｉｎｇｓ　ＬＣＣ,,外国会社等,,,,,,,,２５５　Ｓｔａｔｅ　Ｓｔｒｅｅｔ　Ｂｏｓｔｏｎ，ＭＡ　０２１０９　ＵＳＡ,,,,,,2021-11-08,1,,,,,オーデイージーケーホールデイングスエルエルシー,0
1681,6010001222248,新規,0,2021-11-08,2021-11-08,株式会社ＲＥ電力,,株式会社,東京都,千代田区,神田錦町１丁目２３番地８号ＴＨＥＳＫＹＧｒａｎＤＥＡＲ神田錦町５階,,13,101,1010054,,,,,,,2021-11-08,1,,,,,アールイーデンリョク,0
1682,6010001222256,新規,0,2021-11-08,2021-11-08,株式会社アスベスト建物改修総研,,株式会社,東京都,中央区,湊３丁目５番１０号,,13,102,1040043,,,,,,,2021-11-08,1,,,,,アスベストタテモノカイシュウソウケン,0
1683,6010001222264,新規,0,2021-11-08,2021-11-08,株式会社ＫＥＮＳＥＩＳＹＡ,,株式会社,東京都,中央区,日本橋室町１丁目１１番２号,,13,102,1030022,,,,,,,2021-11-08,1,,,,,ケンセイシャ,0
1684,6010001222272,新規,0,2021-11-08,2021-11-08,Ｊ　Ｐａｖｅｌ株式会社,,株式会社,東京都,中央区,八重洲１丁目８番１７号,,13,102,1030028,,,,,,,2021-11-08,1,,,,,ジェイパベル,0
1685,6010001222280,新規,0,2021-11-08,2021-11-08,株式会社ＳＡＬＵＴＥ,,株式会社,東京都,中央区,築地７丁目１６番３－３０６号,,13,102,1040045,,,,,,,2021-11-08,1,,,,,サリュート,0
1686,6010001222289,新規,0,2021-11-08,2021-11-08,リライアブル・リアルエステート株式会社,,株式会社,東京都,中央区,日本橋蛎殻町１丁目３９番５号,,13,102,1030014,,,,,,,2021-11-08,1,,,,,リライアブルリアルエステート,0
1691,6010005034169,新規,0,2021-11-08,2021-11-08,Ｈａｎａ税理士法人,,その他の設立登記法人,東京都,中央区,日本橋小網町８番２号,,13,102,1030016,,,,,,,2021-11-08,1,,,,,ハナ,0
1701,6010401163703,新規,0,2021-11-08,2021-11-08,酒ノ宮株式会社,,株式会社,東京都,港区,元麻布３丁目２番１９号,,13,103,1060046,,,,,,,2021-11-08,1,,,,,サケノミヤ,0
1710,6010405020306,新規,0,2021-11-08,2021-11-08,一般社団法人Ｚ世代,,その他の設立登記法人,東京都,港区,南青山１丁目１５－２越山ビル５階,,13,103,1070062,,,,,,,2021-11-08,1,,,,,ゼットセダイ,0
1711,6010405020396,新規,0,2021-11-08,2021-11-08,ＧＡＲＮＥＴ日本橋一般社団法人,,その他の設立登記法人,東京都,港区,六本木１丁目６番１号泉ガーデンタワー１２階,,13,103,1060032,,,,,,,2021-11-08,1,,,,,ガーネットニホンバシ,0
1713,6010601060196,新規,0,2021-11-08,2021-11-08,株式会社宸軒,,株式会社,東京都,江東区,亀戸１丁目１１番５－８０６号,,13,108,1360071,,,,,,,2021-11-08,1,,,,,シンケン,0
1730,6011001143806,新規,0,2021-11-08,2021-11-08,株式会社キャスバルメディカルサービス,,株式会社,東京都,目黒区,青葉台１丁目１４番１５号,,13,110,1530042,,,,,,,2021-11-08,1,,,,,キャスバルメディカルサービス,0
1731,6011001143814,新規,0,2021-11-08,2021-11-08,株式会社エヌフラット,,株式会社,東京都,目黒区,中目黒１丁目６番１５号,,13,110,1530061,,,,,,,2021-11-08,1,,,,,エヌフラット,0
1738,6011101096796,新規,0,2021-11-08,2021-11-08,ＧＯＬＤ・ＳＴＡＲ株式会社,,株式会社,東京都,新宿区,百人町１丁目２２番２８号,,13,104,1690073,,,,,,,2021-11-08,1,,,,,ゴールドスター,0
1739,6011101096813,新規,0,2021-11-08,2021-11-08,株式会社ｗｉｔｃｈ,,株式会社,東京都,新宿区,歌舞伎町１丁目８番３号,,13,104,1600021,,,,,,,2021-11-08,1,,,,,ウィッチ,0
1740,6011103011142,新規,0,2021-11-08,2021-11-08,合同会社Ａ．Ｍ．Ｔ．,,合同会社,東京都,新宿区,百人町４丁目４番１６－１０１０号,,13,104,1690073,,,,,,,2021-11-08,1,,,,,エーエムティー,0
1753,6011801039947,新規,0,2021-11-08,2021-11-08,株式会社伸架工業,,株式会社,東京都,葛飾区,堀切１丁目２９番１８号,,13,122,1240006,,,,,,,2021-11-08,1,,,,,シンカコウギョウ,0
1759,6012703002340,新規,0,2021-11-08,2021-11-08,サムエルフーズ合同会社,,合同会社,東京都,西東京市,保谷町３丁目９番７号柳沢ゴールデンハイツ３階,,13,229,2020015,,,,,,,2021-11-08,1,,,,,サムエルフーズ,0
1764,6013301048230,新規,0,2021-11-08,2021-11-08,株式会社Ｍスリー,,株式会社,東京都,豊島区,南池袋１丁目９番１８－１２０号,,13,116,1710022,,,,,,,2021-11-08,1,,,,,エムスリー,0
1765,6013301048239,新規,0,2021-11-08,2021-11-08,株式会社Ｖｅｒｔｅｘ,,株式会社,東京都,豊島区,南長崎３丁目３４番１３号,,13,116,1710052,,,,,,,2021-11-08,1,,,,,バーテックス,0
1768,6020001143757,新規,0,2021-11-08,2021-11-08,ネイビーＧサービス株式会社,,株式会社,神奈川県,横浜市保土ケ谷区,川島町１２２７番地,,14,106,2400045,,,,,,,2021-11-08,1,,,,,ネイビージーサービス,0
1769,6020001143807,新規,0,2021-11-08,2021-11-08,株式会社ＢＲＩＤＧＥ　Ｃｏｒｐｏｒａｔｉｏｎ,,株式会社,神奈川県,横浜市都筑区,富士見が丘１７番５号,,14,118,2240051,,,,,,,2021-11-08,1,,,,,ブリッジコーポレーション,0
1771,6020003020764,新規,0,2021-11-08,2021-11-08,合同会社ＡＬＭｇｒｏｕｐ,,合同会社,神奈川県,横浜市中区,太田町４丁目４９番地ＮＧＳ横浜馬車道４Ｆ,,14,104,2310011,,,,,,,2021-11-08,1,,,,,アルムグループ,0
1780,6021003011076,新規,0,2021-11-08,2021-11-08,Ａ＆Ａ商会合同会社,,合同会社,神奈川県,相模原市緑区,川尻字小野４４０５－１４－Ｃ,,14,151,2520111,,,,,,,2021-11-08,1,,,,,エーアンドエーショウカイ,0
1788,6030001145182,新規,0,2021-11-08,2021-11-08,フェリッチ株式会社,,株式会社,埼玉県,熊谷市,箱田３丁目２－１２,,11,202,3600014,,,,,,,2021-11-08,1,,,,,フェリッチ,0
1789,6030001145224,新規,0,2021-11-08,2021-11-08,株式会社倉茂興業,,株式会社,埼玉県,加須市,多門寺４８２番地１３,,11,210,3470012,,,,,,,2021-11-08,1,,,,,クラシゲコウギョウ,0
1790,6030001145232,新規,0,2021-11-08,2021-11-08,株式会社ニード,,株式会社,埼玉県,秩父郡皆野町,大字国神８３９番地４,,11,362,3691622,,,,,,,2021-11-08,1,,,,,ニード,0
1794,6030003018279,新規,0,2021-11-08,2021-11-08,ａｋｍｉｃ合同会社,,合同会社,埼玉県,鶴ヶ島市,新町２丁目１７－１６,,11,241,3502227,,,,,,,2021-11-08,1,,,,,アクミック,0
1801,6040001120837,新規,0,2021-11-08,2021-11-08,株式会社ナルシマ,,株式会社,千葉県,我孫子市,布施２６５５番地の９,,12,222,2701162,,,,,,,2021-11-08,1,,,,,ナルシマ,0
1802,6040001120845,新規,0,2021-11-08,2021-11-08,株式会社ブルズ,,株式会社,千葉県,松戸市,大谷口５６７番地の１エクセレントシティ新松戸２０７号,,12,207,2700005,,,,,,,2021-11-08,1,,,,,ブルズ,0
1803,6040001120894,新規,0,2021-11-08,2021-11-08,株式会社コムグローバル,,株式会社,千葉県,我孫子市,緑２丁目３番２７号,,12,222,2701153,,,,,,,2021-11-08,1,,,,,コムグローバル,0
1804,6040001120911,新規,0,2021-11-08,2021-11-08,株式会社Ｒ＆Ａ,,株式会社,千葉県,習志野市,津田沼５丁目１２番１２号サンロード津田沼１０５号,,12,216,2750016,,,,,,,2021-11-08,1,,,,,アールアンドエー,0
1806,6040003018848,新規,0,2021-11-08,2021-11-08,合同会社まつど保健整骨院,,合同会社,千葉県,松戸市,常盤平陣屋前６番地６,,12,207,2702265,,,,,,,2021-11-08,1,,,,,マツドホケンセイコツイン,0
1807,6040003018872,新規,0,2021-11-08,2021-11-08,合同会社レアコレクション,,合同会社,千葉県,千葉市花見川区,横戸町１５９０番地４３,,12,102,2620001,,,,,,,2021-11-08,1,,,,,レアコレクション,0
1811,6050001050075,新規,0,2021-11-08,2021-11-08,株式会社ロンフィール,,株式会社,茨城県,土浦市,国分町２番４９号,,08,203,3000814,,,,,,,2021-11-08,1,,,,,ロンフィール,0
1817,6050003006182,新規,0,2021-11-08,2021-11-08,合同会社ＨＢＬＦパートナーズ,,合同会社,茨城県,つくば市,研究学園５丁目８番地４,,08,220,3050817,,,,,,,2021-11-08,1,,,,,エイチビーエルエフパートナーズ,0
1818,6050005012963,新規,0,2021-11-08,2021-11-08,一般社団法人デイジーライフ,,その他の設立登記法人,茨城県,潮来市,日の出６丁目２番１号,,08,223,3112423,,,,,,,2021-11-08,1,,,,,デイジーライフ,0
1819,6060001034267,新規,0,2021-11-08,2021-11-08,株式会社ＴＴＳ,,株式会社,栃木県,下野市,緑１丁目１２番地１２,,09,216,3290433,,,,,,,2021-11-08,1,,,,,ティーティーエス,0
1820,6060001034275,新規,0,2021-11-08,2021-11-08,株式会社なないろ不動産,,株式会社,栃木県,真岡市,下高間木１丁目８番地１１,,09,209,3214335,,,,,,,2021-11-08,1,,,,,ナナイロフドウサン,0
1822,6060003003856,新規,0,2021-11-08,2021-11-08,合同会社両毛抗菌サービス,,合同会社,栃木県,佐野市,富岡町１９３番地５,,09,204,3270844,,,,,,,2021-11-08,1,,,,,リョウモウコウキンサービス,0
1830,6080401025459,新規,0,2021-11-08,2021-11-08,株式会社海商,,株式会社,静岡県,浜松市南区,新貝町２３９番地の１,,22,134,4350023,,,,,,,2021-11-08,1,,,,,カイショウ,0
1831,6080401025467,新規,0,2021-11-08,2021-11-08,株式会社岡田水産,,株式会社,静岡県,浜松市西区,雄踏町宇布見５０２５番地の１,,22,133,4310102,,,,,,,2021-11-08,1,,,,,オカダスイサン,0
1841,6100005012792,新規,0,2021-11-08,2021-11-08,医療法人聖美会,,その他の設立登記法人,長野県,長野市,末広町１３６０番地１長野スエヒロビル３階,,20,201,3810000,,,,,,,2021-11-08,1,,,,,セイビカイ,0
1867,6120001241674,新規,0,2021-11-08,2021-11-08,キャリアウィングス株式会社,,株式会社,大阪府,大阪市阿倍野区,阿倍野筋１丁目１番４３号あべのハルカス３１Ｆ,,27,119,5450052,,,,,,,2021-11-08,1,,,,,キャリアウィングス,0
1868,6120001241732,新規,0,2021-11-08,2021-11-08,株式会社ＮＥＯ　ＦＯＸ,,株式会社,大阪府,守口市,南寺方南通１丁目９番１６号,,27,209,5700044,,,,,,,2021-11-08,1,,,,,ネオフォックス,0
1875,6120101064595,新規,0,2021-11-08,2021-11-08,ハルオート株式会社,,株式会社,大阪府,阪南市,自然田８９９番地の５,,27,232,5990212,,,,,,,2021-11-08,1,,,,,ハルオート,0
1876,6120101064612,新規,0,2021-11-08,2021-11-08,株式会社プレジデント,,株式会社,大阪府,堺市西区,浜寺諏訪森町西３丁２３８番地,,27,144,5928347,,,,,,,2021-11-08,1,,,,,プレジデント,0
1877,6120101064620,新規,0,2021-11-08,2021-11-08,株式会社ＫＢ４,,株式会社,大阪府,藤井寺市,陵南町２番２１号,,27,226,5830016,,,,,,,2021-11-08,1,,,,,ケービーフォー,0
1883,6120901045167,新規,0,2021-11-08,2021-11-08,糸島製菓株式会社,,株式会社,大阪府,豊中市,東泉丘２丁目１３－３,,27,203,5610861,,,,,,,2021-11-08,1,,,,,イトシマセイカ,0
1887,6122005003588,新規,0,2021-11-08,2021-11-08,一般社団法人Ｓｍｉｌｅ　Ｂｌｏｏｍ　Ｅｎｔｅｒｔａｉｎｍｅｎｔ,,その他の設立登記法人,大阪府,八尾市,山本町南６丁目６番１９号,,27,212,5810013,,,,,,,2021-11-08,1,,,,,スマイルブルームエンターテイメント,0
1892,6130001070478,新規,0,2021-11-08,2021-11-08,おのえメモリアル株式会社,,株式会社,京都府,与謝郡与謝野町,字算所２２９番地１,,26,465,6292402,,,,,,,2021-11-08,1,,,,,オノエメモリアル,0
1897,6140001123747,新規,0,2021-11-08,2021-11-08,ＴＤＨ株式会社,,株式会社,兵庫県,赤穂市,松原町９番地７,,28,212,6780228,,,,,,,2021-11-08,1,,,,,ティーディーエイチ,0
1899,6140003016932,新規,0,2021-11-08,2021-11-08,合同会社Ｒａｎａ　Ｍｅｄｉｃｕｓ,,合同会社,兵庫県,神戸市東灘区,住吉東町２丁目３番３３－１６０５号,,28,101,6580052,,,,,,,2021-11-08,1,,,,,ラナメディカス,0
1911,6180001148468,新規,0,2021-11-08,2021-11-08,株式会社大黒天,,株式会社,愛知県,東海市,荒尾町本郷３６番地,,23,222,4760003,,,,,,,2021-11-08,1,,,,,ダイコクテン,0
1912,6180001148559,新規,0,2021-11-08,2021-11-08,株式会社ｍｏｉ,,株式会社,愛知県,名古屋市天白区,植田西３丁目３１４番地,,23,116,4680058,,,,,,,2021-11-08,1,,,,,モイ,0
1913,6180001148583,新規,0,2021-11-08,2021-11-08,株式会社越前,,株式会社,愛知県,春日井市,弥生町２丁目８０番地１０,,23,206,4860838,,,,,,,2021-11-08,1,,,,,エチゼン,0
1914,6180001148591,新規,0,2021-11-08,2021-11-08,ベルフォート株式会社,,株式会社,愛知県,名古屋市中区,丸の内２丁目１７－１３ＮＫ丸の内ビル２階,,23,106,4600002,,,,,,,2021-11-08,1,,,,,ベルフォート,0
1915,6180001148617,新規,0,2021-11-08,2021-11-08,そくせき株式会社,,株式会社,愛知県,一宮市,花池１丁目２６番６－５０１号リネット大和花池,,23,203,4910914,,,,,,,2021-11-08,1,,,,,ソクセキ,0
1919,6180003023157,新規,0,2021-11-08,2021-11-08,合同会社Ｋ－ＳＨＩＮＳＥＩ,,合同会社,愛知県,名古屋市昭和区,南山町３番地の１,,23,107,4660835,,,,,,,2021-11-08,1,,,,,ケーシンセイ,0
1920,6180003023165,新規,0,2021-11-08,2021-11-08,合同会社ＫＷＪＴ,,合同会社,愛知県,春日井市,勝川町９丁目３番地４,,23,206,4860945,,,,,,,2021-11-08,1,,,,,ケイダブリュジェイティ,0
1926,6180301035589,新規,0,2021-11-08,2021-11-08,株式会社Ｈａｎｄ　ＡＩＤ,,株式会社,愛知県,刈谷市,東刈谷町３丁目１２番地７‐３Ｆ‐１,,23,210,4480807,,,,,,,2021-11-08,1,,,,,ハンドエイド,0
1928,6180303005152,新規,0,2021-11-08,2021-11-08,合同会社志賀牧場,,合同会社,愛知県,豊田市,和合町田螺池３３４番地１,,23,211,4443211,,,,,,,2021-11-08,1,,,,,シガボクジョウ,0
1929,6180303005160,新規,0,2021-11-08,2021-11-08,合同会社ＷＫ,,合同会社,愛知県,西尾市,一色町前野東浦２９‐２,,23,213,4440407,,,,,,,2021-11-08,1,,,,,ダブリューケー,0
1938,6200001039350,新規,0,2021-11-08,2021-11-08,グラフィットデザインワークス株式会社,,株式会社,岐阜県,岐阜市,中鶉５丁目１８番地,,21,201,5008288,,,,,,,2021-11-08,1,,,,,グラフィットデザインワークス,0
1939,6200001039367,新規,0,2021-11-08,2021-11-08,ボディーメイクスタジオ株式会社,,株式会社,岐阜県,関市,大杉４２２番地３,,21,205,5013922,,,,,,,2021-11-08,1,,,,,ボディーメイクスタジオ,0
1960,6290001095294,新規,0,2021-11-08,2021-11-08,株式会社イケガミ,,株式会社,福岡県,大川市,大字三丸１２２８番地１,,40,212,8310026,,,,,,,2021-11-08,1,,,,,イケガミ,0
1961,6290003011794,新規,0,2021-11-08,2021-11-08,ＢＵＬＬ合同会社,,合同会社,福岡県,福岡市中央区,大宮２丁目５番２１－８０２号,,40,133,8100013,,,,,,,2021-11-08,1,,,,,ブル,0
1963,6290803003974,新規,0,2021-11-08,2021-11-08,合同会社とうぇいん,,合同会社,福岡県,直方市,大字感田３８５番地１８,,40,204,8220001,,,,,,,2021-11-08,1,,,,,トウェイン,0
1965,6300001012693,新規,0,2021-11-08,2021-11-08,株式会社ひかる建築設計企画,,株式会社,佐賀県,鳥栖市,神辺町１４３２番地２ディ－バス神辺１０１,,41,203,8410004,,,,,,,2021-11-08,1,,,,,ヒカルケンチクセッケイキカク,0
1966,6300003001744,新規,0,2021-11-08,2021-11-08,合同会社ＳａｇＡｃｃｏｕｎｔｉｎｇ,,合同会社,佐賀県,鳥栖市,土井町１９６－５,,41,203,8410039,,,,,,,2021-11-08,1,,,,,サッグアカウンティング,0
1978,6340003003621,新規,0,2021-11-08,2021-11-08,合同会社ナンバーファイブ,,合同会社,鹿児島県,奄美市,名瀬井根町１８番６２号,,46,222,8940024,,,,,,,2021-11-08,1,,,,,,0
1981,6350003003967,新規,0,2021-11-08,2021-11-08,Ｈｉｎａｔａ　Ｏｒｇａｎｉｃ　Ｅｌｅｍｅｎｔｓ合同会社,,合同会社,宮崎県,日向市,大字財光寺往還町１１７番地２,,45,206,8830024,,,,,,,2021-11-08,1,,,,,ヒナタオーガニックエレメンツ,0
1985,6360003011548,新規,0,2021-11-08,2021-11-08,合同会社ネバーランド,,合同会社,沖縄県,那覇市,若狭２丁目３番１５号、１Ｆ,,47,201,9000031,,,,,,,2021-11-08,1,,,,,ネバーランド,0
1988,6380001032321,新規,0,2021-11-08,2021-11-08,株式会社Ｙ・Ｔ企画,,株式会社,福島県,いわき市,内郷御厩町川向１９番地の８イエローコートＡ,00124789,07,204,9738402,,,,,,,2021-11-08,1,,,,,ワイティーキカク,0
2003,6430001085289,新規,0,2021-11-08,2021-11-08,コントローラーガストロノミー株式会社,,株式会社,北海道,夕張郡由仁町,中央１４９番地１,,01,427,0691205,,,,,,,2021-11-08,1,,,,,コントローラーガストロノミー,0
2004,6430001085322,新規,0,2021-11-08,2021-11-08,株式会社明進工業,,株式会社,北海道,札幌市東区,東苗穂十一条１丁目５番１８号,,01,103,0070811,,,,,,,2021-11-08,1,,,,,メイシンコウギョウ,0
2005,6430001085355,新規,0,2021-11-08,2021-11-08,株式会社ミライリス,,株式会社,北海道,札幌市北区,新川八条１７丁目７６９番地７,,01,102,0010928,,,,,,,2021-11-08,1,,,,,ミライリス,0
2012,6700150105638,新規,0,2021-11-08,2021-11-08,２４　ａｐｐｓ　ＧｍｂＨ,,外国会社等,,,,,,,,８０１０　Ｇｒａｚ，Ｇａｄｏｌｌａｐｌａｔｚ　１，Ａｕｓｔｒｉａ,,,,,,2021-11-08,1,,,,,トウエンテイーフオーアツプスゲーエムベーハー,0
2023,7010001222247,新規,0,2021-11-08,2021-11-08,上村資産管理株式会社,,株式会社,東京都,中央区,銀座５丁目１０番６号,,13,102,1040061,,,,,,,2021-11-08,1,,,,,ウエムラシサンカンリ,0
2024,7010001222255,新規,0,2021-11-08,2021-11-08,株式会社Ｒｕｌｕｃｃａ,,株式会社,東京都,中央区,京橋１丁目６番７号,,13,102,1040031,,,,,,,2021-11-08,1,,,,,ルルッカ,0
2025,7010001222263,新規,0,2021-11-08,2021-11-08,ＮＥＷＩＮＧＳ　ＨＯＬＤＩＮＧＳ株式会社,,株式会社,東京都,中央区,築地２丁目２番７号,,13,102,1040045,,,,,,,2021-11-08,1,,,,,ニューイングホールディングス,0
2027,7010003036166,新規,0,2021-11-08,2021-11-08,合同会社ちょこさんち,,合同会社,東京都,中央区,湊１丁目２番４号ウィルローズ八丁堀レジデンス４０２号,,13,102,1040043,,,,,,,2021-11-08,1,,,,,チョコサンチ,0
2036,7010401163628,新規,0,2021-11-08,2021-11-08,株式会社再生工場,,株式会社,東京都,港区,西麻布３丁目２番１２号ソニックＢｌｄｇ６階,,13,103,1060031,,,,,,,2021-11-08,1,,,,,サイセイコウジョウ,0
2037,7010401163685,新規,0,2021-11-08,2021-11-08,株式会社ＭＥマニュファクチャリング,,株式会社,東京都,港区,芝４丁目１番２３号,,13,103,1080014,,,,,,,2021-11-08,1,,,,,エムイーマニュファクチャリング,0
2040,7010403026436,新規,0,2021-11-08,2021-11-08,Ｍａｒｋ　Ｄｏｏｒ合同会社,,合同会社,東京都,港区,南青山２丁目２番１５号,,13,103,1070062,,,,,,,2021-11-08,1,,,,,マークドア,0
2041,7010403026452,新規,0,2021-11-08,2021-11-08,合同会社ＧＭ,,合同会社,東京都,港区,赤坂３丁目２１番１７号,,13,103,1070052,,,,,,,2021-11-08,1,,,,,ジーエム,0
2044,7010501048043,新規,0,2021-11-08,2021-11-08,株式会社Ｔ２テクニカル,,株式会社,東京都,台東区,小島２丁目２１番１２号,,13,106,1110056,,,,,,,2021-11-08,1,,,,,ティーツーテクニカル,0
2045,7010601060170,新規,0,2021-11-08,2021-11-08,株式会社ミー,,株式会社,東京都,江東区,有明１丁目４番２０号,,13,108,1350063,,,,,,,2021-11-08,1,,,,,ミー,0
2054,7010801032473,新規,0,2021-11-08,2021-11-08,ＳＡＴＯ　ＩＮＴＥＲＮＡＴＩＯＮＡＬ株式会社,,株式会社,東京都,大田区,池上３丁目４１番８号指田ソーシャルビル２階,,13,111,1460082,,,,,,,2021-11-08,1,,,,,サトインターナショナル,0
2055,7010803003943,新規,0,2021-11-08,2021-11-08,ＡＵＤＹ合同会社,,合同会社,東京都,大田区,東嶺町１２－２７クランテラス久が原１０７号室,,13,111,1450074,,,,,,,2021-11-08,1,,,,,アンディー,0
2058,7010901049748,新規,0,2021-11-08,2021-11-08,田中里熙株式会社,,株式会社,東京都,世田谷区,世田谷１丁目４１番２号,,13,112,1540017,,,,,,,2021-11-08,1,,,,,タナカリキ,0
2061,7011001143598,新規,0,2021-11-08,2021-11-08,株式会社ベストリーヴス,,株式会社,東京都,目黒区,目黒２丁目１３番２５号,,13,110,1530063,,,,,,,2021-11-08,1,,,,,ベストリーヴス,0
2062,7011001143805,新規,0,2021-11-08,2021-11-08,株式会社８－ＣＥＬＬ,,株式会社,東京都,渋谷区,神山町１６番９－００４号,,13,113,1500047,,,,,,,2021-11-08,1,,,,,エイトセル,0
2063,7011001143813,新規,0,2021-11-08,2021-11-08,モニカ株式会社,,株式会社,東京都,渋谷区,富ヶ谷１丁目５３番４号ラ・ツール・ド・ル・パン４０１,,13,113,1510063,,,,,,,2021-11-08,1,,,,,モニカ,0
2064,7011003013650,新規,0,2021-11-08,2021-11-08,合同会社ヤム,,合同会社,東京都,渋谷区,神宮前６丁目２３番４号桑野ビル２階,,13,113,1500001,,,,,,,2021-11-08,1,,,,,ヤム,0
2065,7011003013667,新規,0,2021-11-08,2021-11-08,合同会社まさのゆえん,,合同会社,東京都,渋谷区,神宮前６丁目２３番４号桑野ビル２Ｆ,,13,113,1500001,,,,,,,2021-11-08,1,,,,,マサノユエン,0
2069,7011101096787,新規,0,2021-11-08,2021-11-08,株式会社ロータリーインターナショナル,,株式会社,東京都,新宿区,新宿１丁目１８番８号,,13,104,1600022,,,,,,,2021-11-08,1,,,,,ロータリーインターナショナル,0
2070,7011101096795,新規,0,2021-11-08,2021-11-08,ベジフル市場株式会社,,株式会社,東京都,新宿区,北新宿３丁目１番５号,,13,104,1690074,,,,,,,2021-11-08,1,,,,,ベジフルイチバ,0
2071,7011101096812,新規,0,2021-11-08,2021-11-08,株式会社ＮＩＭ,,株式会社,東京都,新宿区,若松町８番８－３１０号,,13,104,1620056,,,,,,,2021-11-08,1,,,,,ニム,0
2074,7011103011141,新規,0,2021-11-08,2021-11-08,合同会社ネクストストーリー,,合同会社,東京都,新宿区,中落合２丁目８番２１号ワンズビル１０１,,13,104,1610032,,,,,,,2021-11-08,1,,,,,ネクストストーリー,0
2075,7011103011166,新規,0,2021-11-08,2021-11-08,ナットシェル合同会社,,合同会社,東京都,新宿区,西新宿６丁目１２番１６－１３０３号,,13,104,1600023,,,,,,,2021-11-08,1,,,,,ナットシェル,0
2084,7011701024833,新規,0,2021-11-08,2021-11-08,株式会社ＳＡＣＴＳ,,株式会社,東京都,江戸川区,篠崎町３丁目２４番５号セジュール小島ＩＩ２０１,00124792,13,123,1330061,,,,,,,2021-11-08,1,,,,,サクトス,0
2085,7012301012757,新規,0,2021-11-08,2021-11-08,泓洋株式会社,,株式会社,東京都,町田市,成瀬１丁目５番地５３,,13,209,1940044,,,,,,,2021-11-08,1,,,,,ホンヤン,0
2088,7012401038479,新規,0,2021-11-08,2021-11-08,株式会社ＴＯＫＹＯ　ＧＡＴＥ,,株式会社,東京都,府中市,白糸台２丁目３番８号,,13,206,1830011,,,,,,,2021-11-08,1,,,,,トウキョウゲート,0
2092,7012801021191,新規,0,2021-11-08,2021-11-08,株式会社モリヤ,,株式会社,東京都,日野市,百草５２８番地,,13,212,1910033,,,,,,,2021-11-08,1,,,,,モリヤ,0
2093,7012803002636,新規,0,2021-11-08,2021-11-08,合同会社整体院立花,,合同会社,東京都,立川市,上砂町５丁目６３番地の５,,13,202,1900032,,,,,,,2021-11-08,1,,,,,セイタイインリッカ,0
2094,7020001143780,新規,0,2021-11-08,2021-11-08,株式会社薬局ウェルネス研究所,,株式会社,神奈川県,横浜市青葉区,みたけ台４５番１号シクルード４０２,,14,117,2270047,,,,,,,2021-11-08,1,,,,,ヤッキョクウェルネスケンキュウジョ,0
2095,7020001143806,新規,0,2021-11-08,2021-11-08,株式会社ｋｉｎｄｎｅｓｓ,,株式会社,神奈川県,横浜市戸塚区,汲沢６丁目３３番３３号,,14,110,2450061,,,,,,,2021-11-08,1,,,,,カインドネス,0
2102,7020003020755,新規,0,2021-11-08,2021-11-08,合同会社土橋アクシア,,合同会社,神奈川県,川崎市宮前区,土橋３丁目３番地５鷺沼ガーデンハウス５０２,,14,136,2160005,,,,,,,2021-11-08,1,,,,,ツチハシアクシア,0
2110,7021001074413,新規,0,2021-11-08,2021-11-08,株式会社ｇｌｏｗ,,株式会社,神奈川県,相模原市中央区,相模原６丁目２２番９号朝日相模原ビル７０５,,14,152,2520231,,,,,,,2021-11-08,1,,,,,グロウ,0
2111,7021001074421,新規,0,2021-11-08,2021-11-08,株式会社エムコネクト,,株式会社,神奈川県,足柄上郡大井町,金子１４８８番地２０,,14,362,2580019,,,,,,,2021-11-08,1,,,,,エムコネクト,0
2117,7021003011075,新規,0,2021-11-08,2021-11-08,合同会社ｓｉｒｏｉｒｏ,,合同会社,神奈川県,藤沢市,立石２丁目６番１２号,,14,205,2510872,,,,,,,2021-11-08,1,,,,,シロイロ,0
2118,7021005012344,新規,0,2021-11-08,2021-11-08,一般社団法人マモリヤ,,その他の設立登記法人,神奈川県,伊勢原市,粟窪１０番地の１４,,14,214,2591113,,,,,,,2021-11-08,1,,,,,マモリヤ,0
2127,7030001145140,新規,0,2021-11-08,2021-11-08,株式会社リバティチョイス,,株式会社,埼玉県,和光市,白子１丁目１番９号１Ｆ,,11,229,3510101,,,,,,,2021-11-08,1,,,,,リバティチョイス,0
2128,7030001145198,新規,0,2021-11-08,2021-11-08,株式会社ＮＯＲＵＣＡ,,株式会社,埼玉県,入間市,大字下藤沢１０９０番地２－８０６,,11,225,3580011,,,,,,,2021-11-08,1,,,,,ノルカ,0
2129,7030001145215,新規,0,2021-11-08,2021-11-08,株式会社ライズサポート会計,,株式会社,埼玉県,比企郡吉見町,大字北下砂２２４番地６,,11,347,3550111,,,,,,,2021-11-08,1,,,,,ライズサポートカイケイ,0
2130,7030001145223,新規,0,2021-11-08,2021-11-08,日本橋興業株式会社,,株式会社,埼玉県,朝霞市,本町１丁目７番７号,,11,227,3510011,,,,,,,2021-11-08,1,,,,,ニホンバシコウギョウ,0
2133,7030003018261,新規,0,2021-11-08,2021-11-08,合同会社ＥＮＧＩ,,合同会社,埼玉県,児玉郡神川町,大字下阿久原字幹沢５２５番地１,,11,383,3670311,,,,,,,2021-11-08,1,,,,,エンギ,0
2134,7030003018278,新規,0,2021-11-08,2021-11-08,レイモ合同会社,,合同会社,埼玉県,上尾市,栄町２番２４号,,11,219,3620033,,,,,,,2021-11-08,1,,,,,レイモ,0
2141,7040001120836,新規,0,2021-11-08,2021-11-08,ＡＧＲＩＴＥＬＬＵＳ株式会社,,株式会社,千葉県,我孫子市,中里７２番地１,,12,222,2701122,,,,,,,2021-11-08,1,,,,,アグリテラス,0
2142,7040001120885,新規,0,2021-11-08,2021-11-08,ＫＯＳＥ株式会社,,株式会社,千葉県,市川市,八幡５丁目１３番２９号,,12,203,2720021,,,,,,,2021-11-08,1,,,,,コセ,0
2147,7040003018896,新規,0,2021-11-08,2021-11-08,ＶＭＯＯＮ合同会社,,合同会社,千葉県,千葉市美浜区,磯辺４丁目８番６－２号,,12,106,2610012,,,,,,,2021-11-08,1,,,,,ウィムーン,0
2154,7060001034258,新規,0,2021-11-08,2021-11-08,株式会社ＶＡＬＵＥＴＩＯＮ,,株式会社,栃木県,小山市,城東６丁目１番４２号,,09,208,3230807,,,,,,,2021-11-08,1,,,,,バリューション,0
2156,7060003003855,新規,0,2021-11-08,2021-11-08,合同会社ＹＡＭＡ,,合同会社,栃木県,宇都宮市,鶴田町９９６番地３,,09,201,3200851,,,,,,,2021-11-08,1,,,,,ヤマ,0
2160,7070005009916,新規,0,2021-11-08,2021-11-08,一般社団法人全国住宅用太陽光発電施工協会,,その他の設立登記法人,群馬県,前橋市,下小出町３丁目２０番地の９,,10,201,3710031,,,,,,,2021-11-08,1,,,,,ゼンコクジュウタクヨウタイヨウコウハツデンセコウキョウカイ,0
2165,7080105006192,新規,0,2021-11-08,2021-11-08,一般財団法人Ｕ－Ｔｅｃｈ,,その他の設立登記法人,静岡県,沼津市,岡宮９９１番地の１,,22,203,4100011,,,,,,,2021-11-08,1,,,,,ユーテック,0
2171,7100001034781,新規,0,2021-11-08,2021-11-08,株式会社双匠,,株式会社,長野県,塩尻市,大門八番町５番地９,,20,215,3990737,,,,,,,2021-11-08,1,,,,,ソウショウ,0
2192,7120001241632,新規,0,2021-11-08,2021-11-08,株式会社ボストン・ブロッサム,,株式会社,大阪府,大阪市阿倍野区,阪南町１丁目５０番５号,,27,119,5450021,,,,,,,2021-11-08,1,,,,,ボストンブロッサム,0
2193,7120001241673,新規,0,2021-11-08,2021-11-08,株式会社Ｇｒａｎｄ　Ｊｅｔｅ,,株式会社,大阪府,大阪市旭区,清水２丁目１番６号,,27,117,5350021,,,,,,,2021-11-08,1,,,,,グランジュッテ,0
2197,7120003020563,新規,0,2021-11-08,2021-11-08,合同会社かわい塾,,合同会社,大阪府,大阪市西区,新町２丁目１－２ワコーレ大阪新町タワーレジデンス９０５号,,27,106,5500013,,,,,,,2021-11-08,1,,,,,カワイジュク,0
2199,7120005022590,新規,0,2021-11-08,2021-11-08,税理士法人江崎総合会計,,その他の設立登記法人,大阪府,大阪市北区,南森町１丁目４番１９号,,27,127,5300054,,,,,,,2021-11-08,1,,,,,エザキソウゴウカイケイ,0
2202,7120903003898,新規,0,2021-11-08,2021-11-08,合同会社メディエイト,,合同会社,大阪府,茨木市,舟木町８番２７号,,27,211,5670828,,,,,,,2021-11-08,1,,,,,メディエイト,0
2208,7130001070477,新規,0,2021-11-08,2021-11-08,株式会社パブリックサービス,,株式会社,京都府,京都市中京区,古城町３５５番地５,,26,104,6040045,,,,,,,2021-11-08,1,,,,,パブリックサービス,0
2210,7130005016311,新規,0,2021-11-08,2021-11-08,一般社団法人和繋ぎ会,,その他の設立登記法人,京都府,京都市伏見区,竹田桶ノ井町１８番地２０,,26,109,6128421,,,,,,,2021-11-08,1,,,,,ワツナギカイ,0
2217,7140001123787,新規,0,2021-11-08,2021-11-08,株式会社ペットハウスぴえろ,,株式会社,兵庫県,神戸市西区,押部谷町木津５６０番地,,28,111,6512222,,,,,,,2021-11-08,1,,,,,ペットハウスピエロ,0
2234,7180001148541,新規,0,2021-11-08,2021-11-08,株式会社近藤商店,,株式会社,愛知県,愛西市,町方町北堤外１３０番地１,,23,232,4968014,,,,,,,2021-11-08,1,,,,,コンドウショウテン,0
2235,7180001148608,新規,0,2021-11-08,2021-11-08,株式会社Ｍａｎａ　Ｂｅ,,株式会社,愛知県,名古屋市西区,坂井戸町１９６番地の７,,23,104,4520804,,,,,,,2021-11-08,1,,,,,マナビ,0
2236,7180001148616,新規,0,2021-11-08,2021-11-08,ＷＯＮＥ株式会社,,株式会社,愛知県,名古屋市東区,泉１丁目１１番６号ミソカビル２Ｆ,,23,102,4610001,,,,,,,2021-11-08,1,,,,,ウォーン,0
2237,7180001148649,新規,0,2021-11-08,2021-11-08,株式会社ＮＫテクニカ,,株式会社,愛知県,名古屋市熱田区,六番２丁目２番１号,,23,109,4560058,,,,,,,2021-11-08,1,,,,,エヌケーテクニカ,0
2239,7180003023164,新規,0,2021-11-08,2021-11-08,ＯＭプロモーション合同会社,,合同会社,愛知県,春日井市,大手町２丁目９４番地１,,23,206,4860807,,,,,,,2021-11-08,1,,,,,オーエムプロモーション,0
2240,7180003023172,新規,0,2021-11-08,2021-11-08,合同会社海老田屋,,合同会社,愛知県,名古屋市天白区,海老山町２００２番地の４,,23,116,4680042,,,,,,,2021-11-08,1,,,,,エビタヤ,0
2244,7180301035571,新規,0,2021-11-08,2021-11-08,株式会社ソルテック,,株式会社,愛知県,豊川市,上長山町西水神平８０番地２７,,23,207,4411202,,,,,,,2021-11-08,1,,,,,ソルテック,0
2245,7180301035605,新規,0,2021-11-08,2021-11-08,株式会社ＡｇＵ,,株式会社,愛知県,刈谷市,半城土中町３丁目５番地５,,23,210,4480805,,,,,,,2021-11-08,1,,,,,アグー,0
2249,7200001039341,新規,0,2021-11-08,2021-11-08,Ｔｒｉｎｉｔｙ株式会社,,株式会社,岐阜県,揖斐郡揖斐川町,房島１４４２番地１,,21,401,5010606,,,,,,,2021-11-08,1,,,,,トリニティ,0
2250,7200001039382,新規,0,2021-11-08,2021-11-08,株式会社ＨＭＨＹ,,株式会社,岐阜県,美濃加茂市,伊深町１８１２番地１,,21,211,5050008,,,,,,,2021-11-08,1,,,,,エイチエムエイチワイ,0
2257,7230001019068,新規,0,2021-11-08,2021-11-08,トヨタ産業株式会社,,株式会社,富山県,富山市,豊田本町４丁目１７番１号,,16,201,9318312,,,,,,,2021-11-08,1,,,,,トヨタサンギョウ,0
2258,7230001019084,新規,0,2021-11-08,2021-11-08,株式会社オレンジホーム,,株式会社,富山県,富山市,上袋８２番地１１,,16,201,9398071,,,,,,,2021-11-08,1,,,,,オレンジホーム,0
2262,7240001058874,新規,0,2021-11-08,2021-11-08,株式会社Ｇ‐１,,株式会社,広島県,東広島市,西条町寺家７７５５－１,,34,212,7390041,,,,,,,2021-11-08,1,,,,,ジーワン,0
2263,7240001058890,新規,0,2021-11-08,2021-11-08,建築業モリワカ株式会社,,株式会社,広島県,豊田郡大崎上島町,東野１３８０番地１,,34,431,7250231,,,,,,,2021-11-08,1,,,,,ケンチクギョウモリワカ,0
2264,7240001058899,新規,0,2021-11-08,2021-11-08,株式会社テイクハウス,,株式会社,広島県,広島市西区,古江東町２－１－１,,34,104,7330872,,,,,,,2021-11-08,1,,,,,テイクハウス,0
2268,7260001036184,新規,0,2021-11-08,2021-11-08,株式会社オカモタックス,,株式会社,岡山県,岡山市北区,問屋町７番地１０１（１２０４）,,33,101,7000977,,,,,,,2021-11-08,1,,,,,オカモタックス,0
2275,7290001095277,新規,0,2021-11-08,2021-11-08,株式会社石井不動産,,株式会社,福岡県,大川市,大字向島１３８９番地,,40,212,8310005,,,,,,,2021-11-08,1,,,,,イシイフドウサン,0
2276,7290003011793,新規,0,2021-11-08,2021-11-08,合同会社かわの,,合同会社,福岡県,太宰府市,宰府３丁目１番１８号,,40,221,8180117,,,,,,,2021-11-08,1,,,,,カワノ,0
2283,7290803003973,新規,0,2021-11-08,2021-11-08,合同会社Ｋｕｍａガーデンプランナー,,合同会社,福岡県,直方市,大字感田１８３８番地３,,40,204,8220001,,,,,,,2021-11-08,1,,,,,クマガーデンプランナー,0
2284,7300003001743,新規,0,2021-11-08,2021-11-08,合同会社川久保,,合同会社,佐賀県,伊万里市,山代町立岩１６６１番地２,,41,205,8494261,,,,,,,2021-11-08,1,,,,,カワクボ,0
2298,7350001017407,新規,0,2021-11-08,2021-11-08,株式会社中武林建,,株式会社,宮崎県,日南市,大字平野４２７９番地２,,45,204,8870015,,,,,,,2021-11-08,1,,,,,ナカタケリンケン,0
2305,7360001029574,新規,0,2021-11-08,2021-11-08,株式会社Ｅｍｉｌｙ　Ｌｉｆｅ,,株式会社,沖縄県,南城市,大里字稲嶺２１２７番地１９３,,47,215,9011204,,,,,,,2021-11-08,1,,,,,エミリーライフ,0
2306,7360001029599,新規,0,2021-11-08,2021-11-08,株式会社ＫＤＣ経理代行センター,,株式会社,沖縄県,島尻郡八重瀬町,字伊覇１１４番地２－Ａ,,47,362,9010405,,,,,,,2021-11-08,1,,,,,ケイディーシーケイリダイコウセンター,0
2310,7360003011555,新規,0,2021-11-08,2021-11-08,合同会社インパクト,,合同会社,沖縄県,那覇市,山下町８番８号,,47,201,9000027,,,,,,,2021-11-08,1,,,,,インパクト,0
2313,7370001047798,新規,0,2021-11-08,2021-11-08,エムズガーデン株式会社,,株式会社,宮城県,名取市,高舘熊野堂字余方上３,,04,207,9811241,,,,,,,2021-11-08,1,,,,,エムズガーデン,0
2314,7370001047807,新規,0,2021-11-08,2021-11-08,高田電気サービス株式会社,00124790,株式会社,宮城県,仙台市宮城野区,燕沢東１丁目１番１５号,,04,102,9830822,,,,,,,2021-11-08,1,,,,,タカダデンキサービス,0
2315,7370003005473,新規,0,2021-11-08,2021-11-08,合同会社ユリシス,,合同会社,宮城県,名取市,那智が丘５丁目１８番地の８,,04,207,9811244,,,,,,,2021-11-08,1,,,,,ユリシス,0
2325,7420001009727,新規,0,2021-11-08,2021-11-08,株式会社ひまわり通商,,株式会社,青森県,弘前市,大字金属町６番地３,,02,202,0368245,,,,,,,2021-11-08,1,,,,,ヒマワリツウショウ,0
2332,7430001085305,新規,0,2021-11-08,2021-11-08,株式会社寅乃虎,,株式会社,北海道,札幌市中央区,南五条西２４丁目１番１７号藤栄ビル,,01,101,0640805,,,,,,,2021-11-08,1,,,,,トラノコ,0
2333,7430001085346,新規,0,2021-11-08,2021-11-08,株式会社こんさるてぃんぐおふぃす,,株式会社,北海道,札幌市中央区,南二十六条西７丁目２番１０－８０４号,,01,101,0640926,,,,,,,2021-11-08,1,,,,,コンサルティングオフィス,0
2349,7700150105637,新規,0,2021-11-08,2021-11-08,Ｅｓｔｅｅｍｅｄ　Ｅｓｔａｔｅ　Ｉｎｃ,,外国会社等,北海道,虻田郡倶知安町,字山田３番１,,01,400,0440081,Ｃｒａｉｇｍｕｉｒ　Ｃｈａｍｂｅｒｓ，Ｒｏａｄ　Ｔｏｗｎ，Ｔｏｒｔｏｌａ　ＶＧ１１１０，Ｂｒｉｔｉｓｈ　Ｖｉｒｇｉｎ　Ｉｓｌａｎｄｓ,,,,,,2021-11-08,1,,,,,エステムドエステトインク,0
2361,8010001222246,新規,0,2021-11-08,2021-11-08,ＴＥＲＡＫＯＹＡヒューマンログ株式会社,,株式会社,東京都,中央区,日本橋２丁目１番１０号,,13,102,1030027,,,,,,,2021-11-08,1,,,,,テラコヤヒューマンログ,0
2362,8010001222279,新規,0,2021-11-08,2021-11-08,株式会社７１６Ａｇｅｎｃｙ,,株式会社,東京都,中央区,銀座１丁目１２番４号Ｎ＆ＥＢＬＤ．７階,,13,102,1040061,,,,,,,2021-11-08,1,,,,,ナナイロエージェンシー,0
2363,8010001222312,新規,0,2021-11-08,2021-11-08,境港昭和町バイオマス発電株式会社,,株式会社,東京都,中央区,八重洲１丁目５番１５号田中八重洲ビル２階,,13,102,1030028,,,,,,,2021-11-08,1,,,,,サカイミナトショウワマチバイオマスハツデン,0
2366,8010003036165,新規,0,2021-11-08,2021-11-08,合同会社ｕｎｉ,,合同会社,東京都,千代田区,九段南１丁目５番６号りそな九段ビル５Ｆ，ＫＳフロア,,13,101,1020074,,,,,,,2021-11-08,1,,,,,ユニ,0
2374,8010401163684,新規,0,2021-11-08,2021-11-08,株式会社ＲＴ　Ｃａｐｉｔａｌ　Ｐａｒｔｎｅｒｓ,,株式会社,東京都,港区,芝５丁目１２番１５号ＫＮビル２階,,13,103,1080014,,,,,,,2021-11-08,1,,,,,アールティーキャピタルパートナーズ,0
2375,8010401163701,新規,0,2021-11-08,2021-11-08,パラディグマ株式会社,,株式会社,東京都,港区,赤坂２丁目５番８号,,13,103,1070052,,,,,,,2021-11-08,1,,,,,パラディグマ,0
2381,8010501048042,新規,0,2021-11-08,2021-11-08,株式会社ｉＣｒｅａｔｉｖｅ　Ｌａｂ,,株式会社,東京都,台東区,上野６丁目１番６号,,13,106,1100005,,,,,,,2021-11-08,1,,,,,アイクリエイティブラボ,0
2385,8010701041747,新規,0,2021-11-08,2021-11-08,株式会社ベストキーワード,,株式会社,東京都,品川区,西品川１丁目１－１大崎ガーデンタワー９Ｆ,,13,109,1410033,,,,,,,2021-11-08,1,,,,,ベストキーワード,0
2388,8010803003950,新規,0,2021-11-08,2021-11-08,合同会社旅立ち,,合同会社,東京都,大田区,大森西４丁目４番１５－１０３号,,13,111,1430015,,,,,,,2021-11-08,1,,,,,タビダチ,0
2391,8010901049714,新規,0,2021-11-08,2021-11-08,松之島株式会社,,株式会社,東京都,世田谷区,世田谷１丁目４１番２号,,13,112,1540017,,,,,,,2021-11-08,1,,,,,マツノシマ,0
2392,8010901049747,新規,0,2021-11-08,2021-11-08,アミノ酸専門肥料株式会社,,株式会社,東京都,世田谷区,世田谷１丁目４１番２号,,13,112,1540017,,,,,,,2021-11-08,1,,,,,アミノサンセンモンヒリョウ,0
2396,8011001143779,新規,0,2021-11-08,2021-11-08,株式会社ｎｏｒｍ,,株式会社,東京都,渋谷区,上原２丁目４２番１０号,,13,113,1510064,,,,,,,2021-11-08,1,,,,,ノルム,0
2397,8011001143812,新規,0,2021-11-08,2021-11-08,ＩｎＸｓ株式会社,,株式会社,東京都,渋谷区,元代々木町２２番７号萩原ビル４０５,,13,113,1510062,,,,,,,2021-11-08,1,,,,,インクス,0
2398,8011001143894,新規,0,2021-11-08,2021-11-08,ＧＯＧＥＮ株式会社,,株式会社,東京都,渋谷区,渋谷２丁目１９番１５－６０９号宮益坂ビルディング,,13,113,1500002,,,,,,,2021-11-08,1,,,,,ゴゲン,0
2400,8011003013666,新規,0,2021-11-08,2021-11-08,合同会社一香堂,,合同会社,東京都,渋谷区,神宮前６丁目２３番４号桑野ビル２Ｆ,,13,113,1500001,,,,,,,2021-11-08,1,,,,,イッカドウ,0
2403,8011101096786,新規,0,2021-11-08,2021-11-08,株式会社ジャルダンノスタルジック,,株式会社,東京都,新宿区,天神町６６番地２高田ビル１階,,13,104,1620808,,,,,,,2021-11-08,1,,,,,ジャルダンノスタルジック,0
2404,8011101096811,新規,0,2021-11-08,2021-11-08,株式会社ＶＯＧＵＥ,,株式会社,東京都,新宿区,歌舞伎町２丁目１４番８号,,13,104,1600021,,,,,,,2021-11-08,1,,,,,ヴォーグ,0
2405,8011101096828,新規,0,2021-11-08,2021-11-08,Ｓｈｉｓｈａ　Ｃｌｕｂ株式会社,,株式会社,東京都,新宿区,北新宿４丁目８番１２号,,13,104,1690074,,,,,,,2021-11-08,1,,,,,シーシャクラブ,0
2406,8011103011140,新規,0,2021-11-08,2021-11-08,合同会社脅威分析研究所,,合同会社,東京都,新宿区,新宿２丁目１５－２５カテリーナ御苑８０３号,,13,104,1600022,,,,,,,2021-11-08,1,,,,,キョウイブンセキケンキュウジョ,0
2408,8011301027310,新規,0,2021-11-08,2021-11-08,株式会社きりのはな,,株式会社,東京都,杉並区,善福寺４丁目１３番５号,,13,115,1670041,,,,,,,2021-11-08,1,,,,,キリノハナ,0
2409,8011303004217,新規,0,2021-11-08,2021-11-08,合同会社Ｌｉｂｅｒｔｅ,,合同会社,東京都,杉並区,今川４丁目２４番１０号ハイムムラタ１Ｆ,,13,115,1670035,,,,,,,2021-11-08,1,,,,,リーベルテ,0
2413,8011601025526,新規,0,2021-11-08,2021-11-08,株式会社スクエアスポーツジャパン,,株式会社,東京都,練馬区,立野町１５番４５－１０６号,,13,120,1770054,,,,,,,2021-11-08,1,,,,,スクエアスポーツジャパン,0
2421,8011801039929,新規,0,2021-11-08,2021-11-08,株式会社ヴェルデ,,株式会社,東京都,葛飾区,奥戸５丁目６番８号,,13,122,1240022,,,,,,,2021-11-08,1,,,,,ヴェルデ,0
2423,8012301012756,新規,0,2021-11-08,2021-11-08,あいおいサービス株式会社,,株式会社,東京都,町田市,相原町１３８番地１０,,13,209,1940211,,,,,,,2021-11-08,1,,,,,アイオイサービス,0
2442,8020001143813,新規,0,2021-11-08,2021-11-08,株式会社ＧＥＭＢＡコンサルティング,,株式会社,神奈川県,川崎市麻生区,王禅寺西７丁目１４番２５－２号,,14,137,2150017,,,,,,,2021-11-08,1,,,,,ゲンバコンサルティング,0
2443,8020001143821,新規,0,2021-11-08,2021-11-08,株式会社ホールグレイ,,株式会社,神奈川県,川崎市麻生区,百合丘１丁目１８番地１２ハウスポンタルバ２階,,14,137,2150011,,,,,,,2021-11-08,1,,,,,ホールグレイ,0
2453,8021001074437,新規,0,2021-11-08,2021-11-08,株式会社電玄,,株式会社,神奈川県,座間市,栗原中央３丁目３１番４６号,,14,216,2520014,,,,,,,2021-11-08,1,,,,,デンゲン,0
2458,8021003011066,新規,0,2021-11-08,2021-11-08,合同会社レベンディス,,合同会社,神奈川県,相模原市中央区,田名１８４９番地１,,14,152,2520244,,,,,,,2021-11-08,1,,,,,レベンディス,0
2459,8021003011074,新規,0,2021-11-08,2021-11-08,合同会社楽農大井,,合同会社,神奈川県,足柄上郡大井町,山田１０７７番地,,14,362,2580015,,,,,,,2021-11-08,1,,,,,ラクノウオオイ,0
2469,8030001145123,新規,0,2021-11-08,2021-11-08,株式会社Ａｖａｎｃｅ,,株式会社,埼玉県,川口市,大字榛松７７１番地,,11,203,3340062,,,,,,,2021-11-08,1,,,,,アヴァンス,0
2470,8030001145156,新規,0,2021-11-08,2021-11-08,株式会社ＣＲＥＩＳ,,株式会社,埼玉県,鶴ヶ島市,大字下新田１０５番地１０,,11,241,3502222,,,,,,,2021-11-08,1,,,,,クライス,0
2471,8030001145172,新規,0,2021-11-08,2021-11-08,株式会社アースグリップ,,株式会社,埼玉県,北葛飾郡松伏町,大字松伏２６４６番地２,,11,465,3430111,,,,,,,2021-11-08,1,,,,,アースグリップ,0
2474,8030003018244,新規,0,2021-11-08,2021-11-08,合同会社ＮＡＩＢＩＳ,,合同会社,埼玉県,川口市,大字東本郷１０２８番地の１,,11,203,3340063,,,,,,,2021-11-08,1,,,,,,0
2475,8030003018277,新規,0,2021-11-08,2021-11-08,合同会社シンカ,,合同会社,埼玉県,上尾市,井戸木１丁目３番地１６シティハイム寿光２０１,,11,219,3620071,,,,,,,2021-11-08,1,,,,,シンカ,0
2479,8040001120843,新規,0,2021-11-08,2021-11-08,株式会社犬神,,株式会社,千葉県,大網白里市,細草３２４８番地５,,12,239,2993211,,,,,,,2021-11-08,1,,,,,イヌガミ,0
2482,8040003018854,新規,0,2021-11-08,2021-11-08,合同会社ＤＭＳ,,合同会社,千葉県,松戸市,東松戸１丁目７番地の１グランマークス東松戸４０８号,,12,207,2702225,,,,,,,2021-11-08,1,,,,,ディーエムエス,0
2484,8050001050115,新規,0,2021-11-08,2021-11-08,株式会社パッション,,株式会社,茨城県,神栖市,大野原中央３丁目７番４８号,,08,232,3140128,,,,,,,2021-11-08,1,,,,,パッション,0
2485,8050003006180,新規,0,2021-11-08,2021-11-08,合同会社中井企画,,合同会社,茨城県,常総市,菅生町中郷１５９２番地１,,08,211,3030044,,,,,,,2021-11-08,1,,,,,ナカイキカク,0
2486,8060001034257,新規,0,2021-11-08,2021-11-08,株式会社ミヤメディカルプランニング,,株式会社,栃木県,栃木市,大平町西水代１７９１番地１,,09,203,3294423,,,,,,,2021-11-08,1,,,,,ミヤメディカルプランニング,0
2487,8060001034265,新規,0,2021-11-08,2021-11-08,株式会社ＷＩＮエージェント,,株式会社,栃木県,宇都宮市,中今泉１丁目１８番１９号,,09,201,3210968,,,,,,,2021-11-08,1,,,,,ウィンエージェント,0
2489,8080001024561,新規,0,2021-11-08,2021-11-08,株式会社この花,,株式会社,静岡県,静岡市葵区,足久保口組１５１番地の７７,,22,101,4212124,,,,,,,2021-11-08,1,,,,,コノハナ,0
2498,8100001034797,新規,0,2021-11-08,2021-11-08,株式会社ラクマリコーポレーション,,株式会社,長野県,北佐久郡御代田町,大字御代田１８５５番地１,,20,323,3890206,,,,,,,2021-11-08,1,,,,,ラクマリコーポレーション,0
2503,8110001036181,新規,0,2021-11-08,2021-11-08,株式会社ＢａｓｉｃＢｏｘ,,株式会社,新潟県,新潟市中央区,沼垂西１丁目４番１８号カスターノビル１０１,,15,103,9500076,,,,,,,2021-11-08,1,,,,,ベーシックボックス,0
2505,8110003004616,新規,0,2021-11-08,2021-11-08,カーネーション合同会社,,合同会社,新潟県,新発田市,舟入町１丁目９－１４,,15,206,9570065,,,,,,,2021-11-08,1,,,,,カーネーション,0
2515,8120005022573,新規,0,2021-11-08,2021-11-08,司法書士法人ＬＳＯ,,その他の設立登記法人,大阪府,大阪市北区,梅田１丁目１１番４大阪駅前第４ビル５階,,27,127,5300001,,,,,,,2021-11-08,1,,,,,エルエスオー,0
2517,8120101064577,新規,0,2021-11-08,2021-11-08,株式会社Ｇｉｖｅｒ　Ｉｎｃ．,,株式会社,大阪府,藤井寺市,野中１丁目２５９－１,,27,226,5830014,,,,,,,2021-11-08,1,,,,,ギバーインク,0
2518,8120101064619,新規,0,2021-11-08,2021-11-08,鎌田カンパニー株式会社,,株式会社,大阪府,堺市中区,土塔町３１０４番地２,,27,142,5998234,,,,,,,2021-11-08,1,,,,,カマタカンパニー,0
2527,8122003002210,新規,0,2021-11-08,2021-11-08,合同会社ｈａｎａｂａｂｙ,,合同会社,大阪府,東大阪市,上小阪３丁目１番１９号,,27,227,5770806,,,,,,,2021-11-08,1,,,,,ハナベイビー,0
2531,8130001070468,新規,0,2021-11-08,2021-11-08,株式会社ＮＥＵＦ,,株式会社,京都府,京都市中京区,夷川通高倉西入山中町５５０番地１,,26,104,6040815,,,,,,,2021-11-08,1,,,,,ヌフ,0
2539,8140001123811,新規,0,2021-11-08,2021-11-08,株式会社Ｒｅｌｉｃｓ,,株式会社,兵庫県,神戸市兵庫区,佐比江町１２番地,,28,105,6520821,,,,,,,2021-11-08,1,,,,,レリックス,0
2546,8140003016939,新規,0,2021-11-08,2021-11-08,ＬＩＣＥＮＳＥ　ＧＡＴＥ合同会社,,合同会社,兵庫県,赤穂市,砂子１２０番地１,,28,212,6780174,,,,,,,2021-11-08,1,,,,,ライセンスゲート,0
2547,8140003016955,新規,0,2021-11-08,2021-11-08,Ｒｉｖｉｅｒｅ合同会社,,合同会社,兵庫県,神戸市東灘区,魚崎北町１丁目７番１０－２号,,28,101,6580082,,,,,,,2021-11-08,1,,,,,リビエール,0
2558,8180001148540,新規,0,2021-11-08,2021-11-08,Ｎａｓｓｅｔ株式会社,,株式会社,愛知県,名古屋市東区,古出来１丁目３番１９号,,23,102,4610049,,,,,,,2021-11-08,1,,,,,ナセット,0
2559,8180001148549,新規,0,2021-11-08,2021-11-08,株式会社藤管,,株式会社,愛知県,東海市,中ノ池６丁目８番地２,,23,222,4770033,,,,,,,2021-11-08,1,,,,,フジカン,0
2560,8180001148623,新規,0,2021-11-08,2021-11-08,株式会社ＴＡＮＯＳＹＳＴＥＭ,,株式会社,愛知県,半田市,岩滑中町１丁目２番地４－２０６,,23,205,4750961,,,,,,,2021-11-08,1,,,,,タノシステム,0
2561,8180001148648,新規,0,2021-11-08,2021-11-08,株式会社ＭＳＩ,,株式会社,愛知県,一宮市,神山２丁目１２番２３号－１１０２,,23,203,4910904,,,,,,,2021-11-08,1,,,,,エムエスアイ,0
2566,8180003023163,新規,0,2021-11-08,2021-11-08,合同会社エヌプラスワーク,,合同会社,愛知県,名古屋市中区,栄３丁目２番３号名古屋日興証券ビル４階,,23,106,4600008,,,,,,,2021-11-08,1,,,,,エヌプラスワーク,0
2572,8180301035595,新規,0,2021-11-08,2021-11-08,株式会社京誠堂,,株式会社,愛知県,岡崎市,細川町字窪地７７番地１９,,23,202,4442149,,,,,,,2021-11-08,1,,,,,キョウセイドウ,0
2573,8180301035604,新規,0,2021-11-08,2021-11-08,株式会社ＮＩＮＪＡ,,株式会社,愛知県,刈谷市,今川町鍋田６７番地１,,23,210,4480005,,,,,,,2021-11-08,1,,,,,ニンジャ,0
2583,8200003005365,新規,0,2021-11-08,2021-11-08,合同会社ＯＺ,,合同会社,岐阜県,岐阜市,上土居３丁目３番１５号,,21,201,5020803,,,,,,,2021-11-08,1,,,,,オズ,0
2589,8230001019067,新規,0,2021-11-08,2021-11-08,株式会社新誠機工,,株式会社,富山県,黒部市,飛騨５４７番地,,16,207,9380002,,,,,,,2021-11-08,1,,,,,シンセイキコウ,0
2597,8240001058857,新規,0,2021-11-08,2021-11-08,丸正運送株式会社,,株式会社,広島県,庄原市,東本町２丁目２２７番地１４,,34,210,7270011,,,,,,,2021-11-08,1,,,,,マルショウウンソウ,0
2599,8240003005345,新規,0,2021-11-08,2021-11-08,大崎鉱商合同会社,,合同会社,広島県,豊田郡大崎上島町,木江５２２９番地８,,34,431,7250401,,,,,,,2021-11-08,1,,,,,オオサキコウショウ,0
2600,8240003005361,新規,0,2021-11-08,2021-11-08,合同会社Ｌ＆Ｓ,,合同会社,広島県,呉市,本通４丁目８番１８号ダイアナビル１Ｆ,,34,202,7370045,,,,,,,2021-11-08,1,,,,,,0
2609,8290001095251,新規,0,2021-11-08,2021-11-08,株式会社Ｒｅｌａｔｉｏｎ,,株式会社,福岡県,久留米市,東櫛原町２６３３番地１のばらビル２Ｆ,00124802,40,203,8300003,,,,,,,2021-11-08,1,,,,,リレイション,0
2610,8290001095268,新規,0,2021-11-08,2021-11-08,株式会社よもぎ,,株式会社,福岡県,太宰府市,国分４丁目２番３０号,,40,221,8180132,,,,,,,2021-11-08,1,,,,,ヨモギ,0
2611,8290003011776,新規,0,2021-11-08,2021-11-08,合同会社ＴＫ,,合同会社,福岡県,朝倉郡筑前町,砥上８０５番地２,,40,447,8380223,,,,,,,2021-11-08,1,,,,,ティーケー,0
2612,8290003011792,新規,0,2021-11-08,2021-11-08,合同会社２９０運送,,合同会社,福岡県,福津市,津屋崎５丁目１４番１１号,,40,224,8113304,,,,,,,2021-11-08,1,,,,,フクマルウンソウ,0
2613,8290005018415,新規,0,2021-11-08,2021-11-08,行政書士法人なかがわ,,その他の設立登記法人,福岡県,那珂川市,片縄北４丁目１２番１０号,,40,231,8111203,,,,,,,2021-11-08,1,,,,,ナカガワ,0
2627,8340001024246,新規,0,2021-11-08,2021-11-08,株式会社中央観光旅行社,,株式会社,鹿児島県,霧島市,国分野口東１２９３番地８号,,46,218,8994341,,,,,,,2021-11-08,1,,,,,チュウオウカンコウリョコウシャ,0
2637,8360001029573,新規,0,2021-11-08,2021-11-08,株式会社Ｈｏｗｄｙ,,株式会社,沖縄県,中頭郡北谷町,字美浜３４番地５アメリカンビレッジデポセントラル５Ｆ,,47,326,9040115,,,,,,,2021-11-08,1,,,,,ハウディ,0
2639,8370001047797,新規,0,2021-11-08,2021-11-08,株式会社佐藤電気設備,,株式会社,宮城県,柴田郡川崎町,支倉台１丁目２番２４,,04,324,9891506,,,,,,,2021-11-08,1,,,,,サトウデンキセツビ,0
2640,8370001047814,新規,0,2021-11-08,2021-11-08,暮らし１１０番株式会社,,株式会社,宮城県,仙台市若林区,かすみ町２１－１,,04,103,9840822,,,,,,,2021-11-08,1,,,,,クラシヒャクトウバン,0
2652,8430001085287,新規,0,2021-11-08,2021-11-08,株式会社ＦＥＳＰＯ,,株式会社,北海道,札幌市白石区,平和通１０丁目北１番９号,,01,104,0030029,,,,,,,2021-11-08,1,,,,,フェスポ,0
2653,8430001085312,新規,0,2021-11-08,2021-11-08,株式会社スリーオークス,,株式会社,北海道,札幌市東区,北二十八条東１６丁目３番６－２０１号,,01,103,0650028,,,,,,,2021-11-08,1,,,,,スリーオークス,0
2654,8430001085337,新規,0,2021-11-08,2021-11-08,食創カルチュア株式会社,,株式会社,北海道,札幌市白石区,東札幌四条６丁目４番１２号,,01,104,0030004,,,,,,,2021-11-08,1,,,,,ショクソウカルチュア,0
2655,8430001085345,新規,0,2021-11-08,2021-11-08,株式会社Ｆａｖ　ｍｕｓｉｃ,,株式会社,北海道,札幌市豊平区,西岡一条６丁目１１番１４号,,01,105,0620031,,,,,,,2021-11-08,1,,,,,ファヴミュジック,0
2656,8430001085353,新規,0,2021-11-08,2021-11-08,株式会社ＡＳＴＲＡ,,株式会社,北海道,札幌市白石区,菊水元町六条２丁目１番１４号,,01,104,0030826,,,,,,,2021-11-08,1,,,,,アストラ,0
2661,8430003013337,新規,0,2021-11-08,2021-11-08,合同会社自足,,合同会社,北海道,札幌市北区,北二十七条西７丁目３－７－５,,01,102,0010027,,,,,,,2021-11-08,1,,,,,ジソク,0
2663,8460001005622,新規,0,2021-11-08,2021-11-08,北新工機株式会社,,株式会社,北海道,釧路市,昭和南４丁目４番１２号,,01,206,0840909,,,,,,,2021-11-08,1,,,,,ホクシンコウキ,0
2681,8700150105636,新規,0,2021-11-08,2021-11-08,１６６１，ＩＮＣ．ＤＢＡ　ＧＯＡＴ,,外国会社等,,,,,,,,３４３３　Ｗ．ＥＸＰＯＳＩＴＩＯＮ　ＰＬＡＣＥ，ＬＯＳ　ＡＮＧＥＬＥＳ　ＣＡ，９００１８－４０３６　ＵＮＩＴＥＤ　ＳＴＡＴＥＳ,,,,,,2021-11-08,1,,,,,シツクステイーンシツクステイワンインクデイービーエーゴート,0
2696,9010001222195,新規,0,2021-11-08,2021-11-08,株式会社シングル,,株式会社,東京都,中央区,銀座１丁目２２番１１号銀座大竹ビジデンス２階,,13,102,1040061,,,,,,,2021-11-08,1,,,,,シングル,0
2697,9010001222212,新規,0,2021-11-08,2021-11-08,株式会社Ｍホールディングス,,株式会社,東京都,中央区,銀座２丁目８－１８,,13,102,1040061,,,,,,,2021-11-08,1,,,,,エムホールディングス,0
2698,9010001222245,新規,0,2021-11-08,2021-11-08,株式会社Ｂｒａｃｅ．,,株式会社,東京都,中央区,築地２丁目１番２－２０１号秀和築地レジデンス,,13,102,1040045,,,,,,,2021-11-08,1,,,,,ブレイス,0
2699,9010001222253,新規,0,2021-11-08,2021-11-08,ＤＸＥ株式会社,,株式会社,東京都,千代田区,丸の内１丁目７番１２号,,13,101,1000005,,,,,,,2021-11-08,1,,,,,ディーエックスイー,0
2700,9010001222303,新規,0,2021-11-08,2021-11-08,株式会社スリートップ,,株式会社,東京都,中央区,銀座８丁目２番１１号３階,,13,102,1040061,,,,,,,2021-11-08,1,,,,,スリートップ,0
2702,9010003036156,新規,0,2021-11-08,2021-11-08,合同会社ＦＵＮＬＹ,,合同会社,東京都,中央区,銀座１丁目２２番１１号銀座大竹ビジデンス２階,,13,102,1040061,,,,,,,2021-11-08,1,,,,,ファンリー,0
2711,9010401163683,新規,0,2021-11-08,2021-11-08,株式会社夢日本ホールディングス,,株式会社,東京都,港区,浜松町１丁目１９番１０号第二古橋ビル２Ｆ,,13,103,1050013,,,,,,,2021-11-08,1,,,,,ユメニッポンホールディングス,0
2712,9010401163709,新規,0,2021-11-08,2021-11-08,バリタス株式会社,,株式会社,東京都,港区,三田３丁目４番６号,,13,103,1080073,,,,,,,2021-11-08,1,,,,,バリタス,0
2715,9010403026459,新規,0,2021-11-08,2021-11-08,合同会社ユーラス釜石広域第二風力,,合同会社,東京都,港区,虎ノ門４丁目３番１３号,,13,103,1050001,,,,,,,2021-11-08,1,,,,,ユーラスカマイシコウイキダイニフウリョク,0
2716,9010403026467,新規,0,2021-11-08,2021-11-08,合同会社ＢＨ高萩,,合同会社,東京都,港区,赤坂２丁目１６番８号,,13,103,1070052,,,,,,,2021-11-08,1,,,,,,0
2725,9010601060169,新規,0,2021-11-08,2021-11-08,株式会社ザム,,株式会社,東京都,江東区,有明１丁目４番２０号,,13,108,1350063,,,,,,,2021-11-08,1,,,,,ザム,0
2726,9010601060193,新規,0,2021-11-08,2021-11-08,ＳＴＡＲ　ＶＥＮＴＵＲＥ　ＪＡＰＡＮ株式会社,,株式会社,東京都,江東区,有明３丁目７番２６号有明フロンティアビルＢ棟９階,,13,108,1350063,,,,,,,2021-11-08,1,,,,,スターベンチャージャパン,0
2728,9010701041746,新規,0,2021-11-08,2021-11-08,Ｋ２ファイナンシャルアドバイザリー株式会社,,株式会社,東京都,品川区,西五反田２丁目１３－８－４０６,,13,109,1410031,,,,,,,2021-11-08,1,,,,,ケーツーファイナンシャルアドバイザリー,0
2731,9010801032463,新規,0,2021-11-08,2021-11-08,株式会社Ｒｏａｄ　ｓｉｇｎ,,株式会社,東京都,大田区,西糀谷３丁目４番７号,,13,111,1440034,,,,,,,2021-11-08,1,,,,,ロードサイン,0
2734,9010901049721,新規,0,2021-11-08,2021-11-08,株式会社小倉総合硝子,,株式会社,東京都,世田谷区,太子堂４丁目４番１９号,,13,112,1540004,,,,,,,2021-11-08,1,,,,,オグラソウゴウガラス,0
2739,9010903006919,新規,0,2021-11-08,2021-11-08,Ｎｏｄｅ合同会社,,合同会社,東京都,世田谷区,上野毛４丁目４番１７－１０４号,,13,112,1580093,,,,,,,2021-11-08,1,,,,,ノード,0
2743,9011001143778,新規,0,2021-11-08,2021-11-08,株式会社マーキュリー・リーフ,,株式会社,東京都,渋谷区,神宮前４丁目９番１７－５０３号パークアクシスプレミア表参道,,13,113,1500001,,,,,,,2021-11-08,1,,,,,マーキュリーリーフ,0
2744,9011003013665,新規,0,2021-11-08,2021-11-08,合同会社ＳａＲａＴｏ,,合同会社,東京都,渋谷区,神宮前６丁目２３番４号桑野ビル２階,,13,113,1500001,,,,,,,2021-11-08,1,,,,,サラト,0
2750,9011101096793,新規,0,2021-11-08,2021-11-08,株式会社ロックンロールジャーニー,,株式会社,東京都,新宿区,西新宿６丁目１６番６号,,13,104,1600023,,,,,,,2021-11-08,1,,,,,ロックンロールジャーニー,0
2751,9011101096802,新規,0,2021-11-08,2021-11-08,株式会社ＰＬＡＳ,,株式会社,東京都,新宿区,四谷４丁目３３番２号マーキュリースクエア７階,,13,104,1600004,,,,,,,2021-11-08,1,,,,,プラス,0
2752,9011101096819,新規,0,2021-11-08,2021-11-08,株式会社リルアンドワン,,株式会社,東京都,新宿区,北新宿１丁目１２番１１号エトワールビル５階,,13,104,1690074,,,,,,,2021-11-08,1,,,,,リルアンドワン,0
2753,9011101096827,新規,0,2021-11-08,2021-11-08,株式会社Ｋａｍｏｌｉｚｅ,,株式会社,東京都,新宿区,岩戸町５番地１－２０３号ブリリアンコート神楽坂,,13,104,1620832,,,,,,,2021-11-08,1,,,,,カモライズ,0
2761,9011601025500,新規,0,2021-11-08,2021-11-08,株式会社リクーム,,株式会社,東京都,練馬区,富士見台１丁目１８番１１号アジュール富士見台１０２,,13,120,1770034,,,,,,,2021-11-08,1,,,,,リクーム,0
2762,9011601025525,新規,0,2021-11-08,2021-11-08,エルボスケ株式会社,,株式会社,東京都,練馬区,東大泉５丁目２０番１４号,,13,120,1780063,,,,,,,2021-11-08,1,,,,,エルボスケ,0
2769,9011801039944,新規,0,2021-11-08,2021-11-08,株式会社ＰＲＭ,,株式会社,東京都,足立区,花畑３丁目３２番１－６０３号,,13,121,1210061,,,,,,,2021-11-08,1,,,,,,0
2771,9012301012763,新規,0,2021-11-08,2021-11-08,株式会社つげやカネツ,,株式会社,東京都,町田市,木曽西４丁目３６番３８号,,13,209,1940037,,,,,,,2021-11-08,1,,,,,ツゲヤカネツ,0
2777,9012703002346,新規,0,2021-11-08,2021-11-08,ムーニン合同会社,,合同会社,東京都,東久留米市,学園町２丁目１５－２０コンフィー２０１号,,13,222,2030021,,,,,,,2021-11-08,1,,,,,ムーニン,0
2782,9013301048244,新規,0,2021-11-08,2021-11-08,株式会社悦墨商事,,株式会社,東京都,豊島区,池袋２丁目５６番１号ＴＯＰ池袋４０７号室,,13,116,1710014,,,,,,,2021-11-08,1,,,,,エツスミショウジ,0
2788,9020003020753,新規,0,2021-11-08,2021-11-08,合同会社ＱＱ,,合同会社,神奈川県,横浜市港北区,新横浜３丁目１６番１５号新横浜磯英ビル９Ｆ－Ａ号室,,14,109,2220033,,,,,,,2021-11-08,1,,,,,クインズ,0
2798,9021003011065,新規,0,2021-11-08,2021-11-08,ひまわり合同会社,,合同会社,神奈川県,藤沢市,柄沢５６０番４,,14,205,2510003,,,,,,,2021-11-08,1,,,,,ヒマワリ,0
2799,9021003011073,新規,0,2021-11-08,2021-11-08,合同会社みどり,,合同会社,神奈川県,相模原市緑区,青山９３０番地２,,14,151,2520156,,,,,,,2021-11-08,1,,,,,ミドリ,0
2805,9030001145205,新規,0,2021-11-08,2021-11-08,株式会社アークジョブズ,,株式会社,埼玉県,坂戸市,にっさい花みず木７丁目２番地８１,,11,239,3500269,,,,,,,2021-11-08,1,,,,,アークジョブスズ,0
2808,9030003018268,新規,0,2021-11-08,2021-11-08,合同会社Ｔ‐ＢＡＳＥ,,合同会社,埼玉県,さいたま市大宮区,桜木町４丁目６６７番地１７,,11,103,3300854,,,,,,,2021-11-08,1,,,,,ティーベース,0
2809,9030003018276,新規,0,2021-11-08,2021-11-08,合同会社ＭａｒＣｈ,,合同会社,埼玉県,さいたま市大宮区,桜木町２丁目３番地大宮マルイ７階,,11,103,3300854,,,,,,,2021-11-08,1,,,,,マーチ,0
2815,9030005020627,新規,0,2021-11-08,2021-11-08,一般社団法人エルベテーク学園,,その他の設立登記法人,埼玉県,川口市,本町４丁目１３番１１号デュオプラザ川口弐番館１０４,,11,203,3320012,,,,,,,2021-11-08,1,,,,,エルベテークガクエン,0
2818,9040001120784,新規,0,2021-11-08,2021-11-08,株式会社サラエマ,,株式会社,千葉県,佐倉市,中志津７丁目２９番１２号,,12,212,2850843,,,,,,,2021-11-08,1,,,,,サラエマ,0
2819,9040001120842,新規,0,2021-11-08,2021-11-08,株式会社サードドア,,株式会社,千葉県,松戸市,古ケ崎４丁目３６１３番地の８,,12,207,2710068,,,,,,,2021-11-08,1,,,,,サードドア,0
2820,9040001120875,新規,0,2021-11-08,2021-11-08,株式会社タキノボリ,,株式会社,千葉県,浦安市,日の出５丁目３番Ｄ－１０２号,,12,227,2790013,,,,,,,2021-11-08,1,,,,,タキノボリ,0
2821,9040001120883,新規,0,2021-11-08,2021-11-08,株式会社ｍｅｗｇｕｌｌ,,株式会社,千葉県,佐倉市,下根２番地２,,12,212,2850006,,,,,,,2021-11-08,1,,,,,ミューガル,0
2822,9040001120891,新規,0,2021-11-08,2021-11-08,株式会社ＫＴＬ,,株式会社,千葉県,野田市,桜の里２丁目５番地の６２,,12,208,2780048,,,,,,,2021-11-08,1,,,,,ケイティエル,0
2826,9040003018861,新規,0,2021-11-08,2021-11-08,合同会社Ｔｅｄｄｙ　Ｂｏｙ,,合同会社,千葉県,香取市,沢１０６０番地１,,12,236,2870105,,,,,,,2021-11-08,1,,,,,テディボーイ,0
2829,9050001050072,新規,0,2021-11-08,2021-11-08,ＡＳＩＡ　ＴＲＡＤＩＮＧ株式会社,,株式会社,茨城県,土浦市,並木１丁目１２番７号,,08,203,3000061,,,,,,,2021-11-08,1,,,,,アジアトレーディング,0
2830,9050001050089,新規,0,2021-11-08,2021-11-08,株式会社アルフロー,,株式会社,茨城県,水戸市,城南２丁目５番１９号黄門ビル２階,,08,201,3100803,,,,,,,2021-11-08,1,,,,,アルフロー,0
2831,9050001050114,新規,0,2021-11-08,2021-11-08,株式会社ＨＡＺＡＫＡ,,株式会社,茨城県,鹿嶋市,大字宮中４６２５番地３,,08,222,3140031,,,,,,,2021-11-08,1,,,,,ハザカ,0
2834,9060001034264,新規,0,2021-11-08,2021-11-08,株式会社ライトアップ,,株式会社,栃木県,小山市,大字平和２３３番地９,,09,208,3290212,,,,,,,2021-11-08,1,,,,,ライトアップ,0
2835,9060001034272,新規,0,2021-11-08,2021-11-08,株式会社ｉ－ｈｏｎｅｓｔ,,株式会社,栃木県,宇都宮市,下荒針町３５６６番地２２,,09,201,3210346,,,,,,,2021-11-08,1,,,,,アイオネスト,0
2837,9060003003853,新規,0,2021-11-08,2021-11-08,合同会社たむら畜産,,合同会社,栃木県,栃木市,樋ノ口町３６３番地,,09,203,3280024,,,,,,,2021-11-08,1,,,,,タムラチクサン,0
2863,9110003004615,新規,0,2021-11-08,2021-11-08,ＤＥＮＺＡＩアウトレットパーク合同会社,,合同会社,新潟県,新潟市中央区,鐙西２丁目３５番３０号,,15,103,9500915,,,,,,,2021-11-08,1,,,,,デンザイアウトレットパーク,0
2878,9120005022597,新規,0,2021-11-08,2021-11-08,グリーン行政書士法人,,その他の設立登記法人,大阪府,大阪市中央区,高麗橋４丁目５番２号高麗橋ウエストビル２階,,27,128,5410043,,,,,,,2021-11-08,1,,,,,グリーン,0
2882,9120101064592,新規,0,2021-11-08,2021-11-08,ＫＵＲＡおさかなファーム株式会社,,株式会社,大阪府,貝塚市,小瀬１８８番地,,27,208,5970021,,,,,,,2021-11-08,1,,,,,クラオサカナファーム,0
2883,9120103004431,新規,0,2021-11-08,2021-11-08,コスモオート合同会社,,合同会社,大阪府,泉南市,幡代１丁目４番１２号,,27,228,5900524,,,,,,,2021-11-08,1,,,,,コスモオート,0
2887,9120901045172,新規,0,2021-11-08,2021-11-08,株式会社ｉｂＳｔａｔｅｓ,,株式会社,大阪府,茨木市,大手町１番地２奥村マンション２０１,,27,211,5670883,,,,,,,2021-11-08,1,,,,,アイビーステイツ,0
2893,9122001035310,新規,0,2021-11-08,2021-11-08,株式会社我妻塗装,,株式会社,大阪府,東大阪市,鷹殿町４番１９号,,27,227,5798036,,,,,,,2021-11-08,1,,,,,アヅマトソウ,0
2894,9122001035327,新規,0,2021-11-08,2021-11-08,株式会社インテック,,株式会社,大阪府,大東市,氷野３丁目３番５７号,,27,218,5740062,,,,,,,2021-11-08,1,,,,,インテック,0
2895,9122001035335,新規,0,2021-11-08,2021-11-08,株式会社ＳＰ,,株式会社,大阪府,東大阪市,瓜生堂２丁目２４番１４号,,27,227,5780946,,,,,,,2021-11-08,1,,,,,セオプランナー,0
2902,9130001070483,新規,0,2021-11-08,2021-11-08,ＪｏｇＬｉｎｅ株式会社,,株式会社,京都府,与謝郡与謝野町,字石川９７７－３－２Ｆ,,26,465,6292303,,,,,,,2021-11-08,1,,,,,ジョグライン,0
2903,9130001070500,新規,0,2021-11-08,2021-11-08,株式会社Ｓ．Ｕ．Ｋ,,株式会社,京都府,京都市右京区,西京極東大丸町３４,,26,108,6150807,,,,,,,2021-11-08,1,,,,,エスユーケー,0
2904,9130003007582,新規,0,2021-11-08,2021-11-08,合同会社オグラ,,合同会社,京都府,宇治市,木幡北畠３３番地の２１,,26,204,6110002,,,,,,,2021-11-08,1,,,,,オグラ,0
2913,9140001123744,新規,0,2021-11-08,2021-11-08,株式会社ネクスト,,株式会社,兵庫県,芦屋市,若葉町２番２－１４３１号,,28,206,6590041,,,,,,,2021-11-08,1,,,,,ネクスト,0
2914,9140001123769,新規,0,2021-11-08,2021-11-08,株式会社ダイネンフーズ,,株式会社,兵庫県,姫路市,本町２４０番地大手前ダイネンＢＬＤ．５階,,28,201,6700012,,,,,,,2021-11-08,1,,,,,ダイネンフーズ,0
2926,9160001023793,新規,0,2021-11-08,2021-11-08,株式会社平賀工務店,,株式会社,滋賀県,草津市,岡本町４２３番地６,,25,206,5250044,,,,,,,2021-11-08,1,,,,,ヒラガコウムテン,0
2935,9180001148614,新規,0,2021-11-08,2021-11-08,株式会社ジンネ,,株式会社,愛知県,春日井市,朝宮町３丁目１１番地３,,23,206,4860846,,,,,,,2021-11-08,1,,,,,ジンネ,0
2936,9180001148630,新規,0,2021-11-08,2021-11-08,ＯＫＡＧＥ不動産株式会社,,株式会社,愛知県,名古屋市中区,栄１丁目１２番６号,,23,106,4600008,,,,,,,2021-11-08,1,,,,,オカゲフドウサン,0
2937,9180001148655,新規,0,2021-11-08,2021-11-08,株式会社オスマン工業,,株式会社,愛知県,名古屋市西区,市場木町１番地の２,,23,104,4520805,,,,,,,2021-11-08,1,,,,,オスマンコウギョウ,0
2939,9180003023146,新規,0,2021-11-08,2021-11-08,合同会社ジャスト,,合同会社,愛知県,名古屋市西区,二方町４５番地,,23,104,4520817,,,,,,,2021-11-08,1,,,,,ジャスト,0
2940,9180003023154,新規,0,2021-11-08,2021-11-08,合同会社ＡＭＳ,,合同会社,愛知県,名古屋市熱田区,六野２丁目６番１６－５０１号,,23,109,4560023,,,,,,,2021-11-08,1,,,,,エーエムエス,0
2942,9180301035603,新規,0,2021-11-08,2021-11-08,株式会社ＲＭＭグループ,,株式会社,愛知県,西尾市,平坂町一ノ切３２番地,,23,213,4440305,,,,,,,2021-11-08,1,,,,,アルエムエムグループ,0
2945,9180303005158,新規,0,2021-11-08,2021-11-08,合同会社ＧＩＺＺＡＲＤ,,合同会社,愛知県,西尾市,桜町中新田７０番地２,,23,213,4450803,,,,,,,2021-11-08,1,,,,,ギザード,0
2956,9230001019074,新規,0,2021-11-08,2021-11-08,株式会社ｇｌｉｍ,,株式会社,富山県,富山市,本郷町９８番地１５,,16,201,9398045,,,,,,,2021-11-08,1,,,,,グリム,0
2966,9290001095242,新規,0,2021-11-08,2021-11-08,大坪製茶工場株式会社,,株式会社,福岡県,八女市,蒲原５２８番地,,40,210,8340064,,,,,,,2021-11-08,1,,,,,オオツボセイチャコウジョウ,0
2967,9290001095250,新規,0,2021-11-08,2021-11-08,Ｔプランニング株式会社,,株式会社,福岡県,福岡市南区,寺塚２丁目４番２２－６０３号,,40,134,8150074,,,,,,,2021-11-08,1,,,,,ティープランニング,0
2968,9290001095291,新規,0,2021-11-08,2021-11-08,株式会社アムコーポレーション,,株式会社,福岡県,福岡市南区,五十川１丁目１２番２１号,,40,134,8150001,,,,,,,2021-11-08,1,,,,,アムコーポレーション,0
2969,9290001095317,新規,0,2021-11-08,2021-11-08,うるう未来農業建設株式会社,,株式会社,福岡県,久留米市,三潴町高三潴１７８０－１,,40,203,8300103,,,,,,,2021-11-08,1,,,,,ウルウミライノウギョウケンセツ,0
2971,9290003011783,新規,0,2021-11-08,2021-11-08,ＳＡＮ　ＬＩＦＥ合同会社,,合同会社,福岡県,福岡市早良区,有田１丁目４－８,,40,137,8140033,,,,,,,2021-11-08,1,,,,,サンライフ,0
2972,9290003011800,新規,0,2021-11-08,2021-11-08,合同会社松永トータルプランニング,,合同会社,福岡県,福岡市中央区,小笹４丁目５番１－３０７号クラシオン小笹山手１番館,,40,133,8100033,,,,,,,2021-11-08,1,,,,,マツナガトータルプランニング,0
2975,9300001012690,新規,0,2021-11-08,2021-11-08,株式会社リドレイ,,株式会社,佐賀県,伊万里市,新天町４８８番地１４－４０１号,,41,205,8480041,,,,,,,2021-11-08,1,,,,,リドレイ,0
2984,9340001024229,新規,0,2021-11-08,2021-11-08,株式会社昌輝,,株式会社,鹿児島県,霧島市,隼人町西光寺２５０２－２,,46,218,8995114,,,,,,,2021-11-08,1,,,,,ショウキ,0
2985,9340001024253,新規,0,2021-11-08,2021-11-08,株式会社リスライト,,株式会社,鹿児島県,鹿児島市,東千石町１１番３号中村ビル３階,,46,201,8920842,,,,,,,2021-11-08,1,,,,,,0
2988,9340005009366,新規,0,2021-11-08,2021-11-08,税理士法人アーク,,その他の設立登記法人,鹿児島県,鹿児島市,西千石町１番３２号Ｗビルディング西千石町９階,,46,201,8920847,,,,,,,2021-11-08,1,,,,,アーク,0
2991,9360001029572,新規,0,2021-11-08,2021-11-08,株式会社Ｄｒｅａｍ,,株式会社,沖縄県,那覇市,泊１丁目１９番地１７・１Ｆ,,47,201,9000012,,,,,,,2021-11-08,1,,,,,ドリーム,0
2992,9360001029597,新規,0,2021-11-08,2021-11-08,株式会社ＳＩＯ　ＣＯ　ＳＨＯＷ,,株式会社,沖縄県,那覇市,久茂地３丁目５番１０号（１０２）,,47,201,9000015,,,,,,,2021-11-08,1,,,,,シオコショウ,0
2995,9370001047805,新規,0,2021-11-08,2021-11-08,株式会社Ｇセブン,,株式会社,宮城県,石巻市,わかば２丁目１番１号,,04,202,9860867,,,,,,,2021-11-08,1,,,,,ジーセブン,0
2996,9370003005471,新規,0,2021-11-08,2021-11-08,ＮＯＲＴＨ　ＲＥＰＲＯ合同会社,,合同会社,宮城県,黒川郡大和町,吉岡字下町６０番地１,,04,421,9813621,,,,,,,2021-11-08,1,,,,,ノースリプロ,0
2998,9380001032310,新規,0,2021-11-08,2021-11-08,Ｈａｎａ　Ｔｕｔｕｍｉ　Ｄｅｓｉｇｎ株式会社,,株式会社,福島県,喜多方市,熊倉町都字宮ノ前丙７７番地,,07,208,9660021,,,,,,,2021-11-08,1,,,,,ハナツツミデザイン,0
3008,9390001016675,新規,0,2021-11-08,2021-11-08,株式会社ｌｉｎｋ,,株式会社,山形県,東根市,大字島大堀２７０番地,,06,211,9993773,,,,,,,2021-11-08,1,,,,,リンク,0
3011,9390005008925,新規,0,2021-11-08,2021-11-08,特定非営利活動法人かさふく,,その他の設立登記法人,山形県,酒田市,日吉町２丁目２番２５号,,06,204,9980037,,,,,,,2021-11-08,1,,,,,カサフク,0
3017,9430001085311,新規,0,2021-11-08,2021-11-08,ＨＯＫＫＯホールディングス株式会社,,株式会社,北海道,札幌市東区,北四十七条東１８丁目２番５号,,01,103,0070847,,,,,,,2021-11-08,1,,,,,ホッコーホールディングス,0
3018,9430001085336,新規,0,2021-11-08,2021-11-08,ＳＣＷ株式会社,,株式会社,北海道,札幌市白石区,東札幌四条４丁目６番３号,,01,104,0030004,,,,,,,2021-11-08,1,,,,,エスシーダブリュー,0
3019,9430001085344,新規,0,2021-11-08,2021-11-08,株式会社ＳＫＹ,,株式会社,北海道,札幌市中央区,南三条東３丁目８ラフィネタワー１９０２号室,,01,101,0600053,,,,,,,2021-11-08,1,,,,,スカイ,0
3031,9700150105635,新規,0,2021-11-08,2021-11-08,ＥＸＩＣＵＣＩ　ＨＯＬＤＩＮＧＳ　ＰＴＥ．ＬＴＤ,,外国会社等,神奈川県,横浜市青葉区,すすき野３丁目６－２・６－３号棟４０２号室,,14,117,2250021,シンガポール共和国０７９９０アンソンロード１０、インターナショナルプラザ３４－１０,,,,,,2021-11-08,1,,,,,エクスカシーホールデイングスピーテイーイーエルテイーデイー,0
