sequenceNumber,corporateNumber,process,correct,updateDate,changeDate,name,nameImageId,kind,prefectureName,cityName,streetNumber,addressImageId,prefectureCode,cityCode,postCode,addressOutside,addressOutsideImageId,closeDate,closeCause,successorCorporateNumber,changeCause,assignmentDate,latest,enName,enPrefectureName,enCityName,enAddressOutside,furigana,hihyoji
10,1010001249477,新規,0,2024-11-06,2024-11-06,株式会社ミレニアム,,株式会社,東京都,中央区,日本橋室町１丁目１１－１２日本橋水野ビル７階,,13,102,1030022,,,,,,,2024-11-06,1,,,,,ミレニアム,0
11,1010001249584,新規,0,2024-11-06,2024-11-06,株式会社Ｅｓｃａｐｅ,,株式会社,東京都,千代田区,飯田橋１丁目６番８号,,13,101,1020072,,,,,,,2024-11-06,1,,,,,エスケープ,0
12,1010001249601,新規,0,2024-11-06,2024-11-06,富有貿易株式会社,,株式会社,東京都,千代田区,六番町１５番地２号,,13,101,1020085,,,,,,,2024-11-06,1,,,,,フユウボウエキ,0
13,1010001249650,新規,0,2024-11-06,2024-11-06,株式会社スナネコ,,株式会社,東京都,中央区,銀座１丁目１２番４号Ｎ＆ＥＢＬＤ．６Ｆ,,13,102,1040061,,,,,,,2024-11-06,1,,,,,スナネコ,0
15,1010003045370,新規,0,2024-11-06,2024-11-06,合同会社ＨＭＺＥＨ３,,合同会社,東京都,中央区,銀座４丁目６番１号三幸アセットマネジメント株式会社内,,13,102,1040061,,,,,,,2024-11-06,1,,,,,エイチエムゼッチスリー,0
16,1010003045395,新規,0,2024-11-06,2024-11-06,Ｘ‐Ｅｌｉｏ３４合同会社,,合同会社,東京都,中央区,銀座４丁目１４番１１号七十七銀座ビル８階,,13,102,1040061,,,,,,,2024-11-06,1,,,,,エクセリオサーティーフォー,0
36,1010405023718,新規,0,2024-11-06,2024-11-06,一般社団法人ＢＴＥＣ　ＪＡＰＡＮ,,その他の設立登記法人,東京都,港区,赤坂１丁目１２番３２号アーク森ビル２３階,,13,103,1070052,,,,,,,2024-11-06,1,,,,,ビーテックジャパン,0
39,1010601066215,新規,0,2024-11-06,2024-11-06,株式会社両国四丁目プロジェクト,,株式会社,東京都,墨田区,両国４丁目３０番１８号,,13,107,1300026,,,,,,,2024-11-06,1,,,,,リョウゴクヨンチョウメプロジェクト,0
40,1010601066231,新規,0,2024-11-06,2024-11-06,株式会社トキワ商店,,株式会社,東京都,墨田区,墨田２丁目１９－２,,13,107,1310031,,,,,,,2024-11-06,1,,,,,トキワショウテン,0
42,1010603011193,新規,0,2024-11-06,2024-11-06,合同会社コレクション,,合同会社,東京都,墨田区,石原３丁目１４番９－２０１号,,13,107,1300011,,,,,,,2024-11-06,1,,,,,コレクション,0
45,1010701046777,新規,0,2024-11-06,2024-11-06,株式会社Ｐｒｅｃｌｏｓｅ,,株式会社,東京都,品川区,西五反田８丁目２番１０－４０７号,,13,109,1410031,,,,,,,2024-11-06,1,,,,,プレクロス,0
47,1010703007422,新規,0,2024-11-06,2024-11-06,合同会社とーか,,合同会社,東京都,品川区,南大井５丁目２３番５号１０２,,13,109,1400013,,,,,,,2024-11-06,1,,,,,トーカ,0
54,1010903009466,新規,0,2024-11-06,2024-11-06,合同会社ＴＫ,,合同会社,東京都,世田谷区,代田５丁目２５－２７,,13,112,1550033,,,,,,,2024-11-06,1,,,,,ティーケー,0
60,1011001165540,新規,0,2024-11-06,2024-11-06,株式会社ルッソリアルティ,,株式会社,東京都,渋谷区,宇田川町３６－２ノア渋谷６１２号室,,13,113,1500042,,,,,,,2024-11-06,1,,,,,ルッソリアルティ,0
61,1011001165565,新規,0,2024-11-06,2024-11-06,株式会社ドインド,,株式会社,東京都,渋谷区,渋谷２丁目１９番１５号宮益坂ビルディング６０９,,13,113,1500002,,,,,,,2024-11-06,1,,,,,ドインド,0
62,1011001165598,新規,0,2024-11-06,2024-11-06,株式会社ＡＮＰ,,株式会社,東京都,渋谷区,渋谷２丁目１９番１５号宮益坂ビルディング６０９,,13,113,1500002,,,,,,,2024-11-06,1,,,,,エイエヌピー,0
64,1011003020272,新規,0,2024-11-06,2024-11-06,ファーマンキャピタル合同会社,,合同会社,東京都,渋谷区,恵比寿３丁目４４番１２号,,13,113,1500013,,,,,,,2024-11-06,1,,,,,ファーマンキャピタル,0
65,1011003020280,新規,0,2024-11-06,2024-11-06,ＢＳＩ　Ｍｅｒｃｈ合同会社,,合同会社,東京都,渋谷区,神南１丁目１２番１４号渋谷宮田ビル６Ｆ／７Ｆ／８Ｆ,,13,113,1500041,,,,,,,2024-11-06,1,,,,,ビーエスアイマーチ,0
66,1011003020297,新規,0,2024-11-06,2024-11-06,ペンギンキャノン合同会社,,合同会社,東京都,渋谷区,道玄坂１丁目１０番８号渋谷道玄坂東急ビル２Ｆ－Ｃ,,13,113,1500043,,,,,,,2024-11-06,1,,,,,ペンギンキャノン,0
69,1011101109439,新規,0,2024-11-06,2024-11-06,ＥＭＰｒｏｍｏｔｉｏｎ株式会社,,株式会社,東京都,新宿区,新宿５丁目１８番２０号,,13,104,1600022,,,,,,,2024-11-06,1,,,,,イーエムプロモーション,0
70,1011101109463,新規,0,2024-11-06,2024-11-06,株式会社ＡＳＡＧＩ　Ｌａｂｓ,,株式会社,東京都,新宿区,信濃町３５番地慶應義塾大学信濃町キャンパス２号館９階ＣＲＩＫ信濃町,,13,104,1600016,,,,,,,2024-11-06,1,,,,,アサギラブス,0
77,1011803006529,新規,0,2024-11-06,2024-11-06,ＮＮＳ合同会社,,合同会社,東京都,足立区,大谷田３丁目１０番１５－１０４,,13,121,1200001,,,,,,,2024-11-06,1,,,,,エヌエヌエス,0
80,1012403006811,新規,0,2024-11-06,2024-11-06,合同会社渡邊商事,,合同会社,東京都,三鷹市,新川６丁目３６－３６,,13,204,1810004,,,,,,,2024-11-06,1,,,,,ワタナベショウジ,0
81,1012403006828,新規,0,2024-11-06,2024-11-06,合同会社Ｗｅｌｉｃｉ　ＡｒｃＸ,,合同会社,東京都,三鷹市,上連雀２丁目９番２３号,,13,204,1810012,,,,,,,2024-11-06,1,,,,,ウェリシアークス,0
82,1013103001383,新規,0,2024-11-06,2024-11-06,奥多摩クリエイティブスタジオ合同会社,,合同会社,東京都,西多摩郡奥多摩町,小丹波３４,,13,308,1980105,,,,,,,2024-11-06,1,,,,,オクタマクリエイティブスタジオ,0
89,1020001159931,新規,0,2024-11-06,2024-11-06,株式会社オフィスＫ,,株式会社,神奈川県,横浜市西区,浜松町１１番３２号,,14,103,2200055,,,,,,,2024-11-06,1,,,,,オフィスケイ,0
90,1020001159948,新規,0,2024-11-06,2024-11-06,株式会社ＡＩＳ　Ｌａｂ,,株式会社,神奈川県,横浜市泉区,領家２丁目７番地２１,,14,116,2450004,,,,,,,2024-11-06,1,,,,,エーアイエスラボ,0
104,1030001163263,新規,0,2024-11-06,2024-11-06,株式会社オフィス大宮,,株式会社,埼玉県,さいたま市大宮区,仲町２丁目５５番地大宮仲町ビル３階,,11,103,3300845,,,,,,,2024-11-06,1,,,,,オフィスオオミヤ,0
105,1030001163305,新規,0,2024-11-06,2024-11-06,株式会社ＤＥＥＰ　ＢＬＵＥ,,株式会社,埼玉県,桶川市,東２丁目３－６,,11,231,3630013,,,,,,,2024-11-06,1,,,,,ディープブルー,0
110,1030003025429,新規,0,2024-11-06,2024-11-06,合同会社ワタセツ,,合同会社,埼玉県,草加市,青柳８丁目３０番８－１０４号,,11,221,3400002,,,,,,,2024-11-06,1,,,,,ワタセツ,0
117,1040001136012,新規,0,2024-11-06,2024-11-06,ＡＣＤ株式会社,,株式会社,千葉県,山武市,松尾町八田８３番地２,,12,237,2891512,,,,,,,2024-11-06,1,,,,,エーシーディー,0
120,1040005022563,新規,0,2024-11-06,2024-11-06,特定非営利活動法人エイド,,その他の設立登記法人,千葉県,市原市,南岩崎６３０番地１０,,12,219,2900244,,,,,,,2024-11-06,1,,,,,エイド,0
121,1050001055649,新規,0,2024-11-06,2024-11-06,下妻ミートセンター株式会社,,株式会社,茨城県,下妻市,小島９５０番地,,08,210,3040051,,,,,,,2024-11-06,1,,,,,シモツマミートセンター,0
124,1060001037613,新規,0,2024-11-06,2024-11-06,ハピシャイン株式会社,,株式会社,栃木県,宇都宮市,戸祭台１６番地２,,09,201,3200017,,,,,,,2024-11-06,1,,,,,ハピシャイン,0
132,1080401027542,新規,0,2024-11-06,2024-11-06,カルペ・ディエム株式会社,,株式会社,静岡県,浜松市中央区,有玉南町７５６番地,,22,138,4313122,,,,,,,2024-11-06,1,,,,,カルペディエム,0
134,1100001037988,新規,0,2024-11-06,2024-11-06,株式会社ＳＭＡＲＴ,,株式会社,長野県,長野市,大字栗田２１２５長栄長野東口ビル１Ｆ、２Ｆ,,20,201,3800921,,,,,,,2024-11-06,1,,,,,スマート,0
138,1110001038820,新規,0,2024-11-06,2024-11-06,株式会社ホワイトギルド,,株式会社,新潟県,長岡市,喜多町９９５番地６－２０１,,15,202,9402121,,,,,,,2024-11-06,1,,,,,ホワイトギルド,0
140,1110003005570,新規,0,2024-11-06,2024-11-06,ルモニ合同会社,,合同会社,新潟県,十日町市,倉俣甲１４９２番地１,,15,210,9498412,,,,,,,2024-11-06,1,,,,,ルモニ,0
151,1120001269968,新規,0,2024-11-06,2024-11-06,ＧＰ株式会社,,株式会社,大阪府,大阪市浪速区,大国１丁目５－４－４０２号室,,27,111,5560014,,,,,,,2024-11-06,1,,,,,ジーピー,0
152,1120001270083,新規,0,2024-11-06,2024-11-06,宋氏株式会社,,株式会社,大阪府,大阪市東住吉区,西今川３丁目３３番２０号１０４号室,,27,121,5460042,,,,,,,2024-11-06,1,,,,,ソンシ,0
153,1120001270091,新規,0,2024-11-06,2024-11-06,株式会社ＴＳＴ,,株式会社,大阪府,大阪市西区,江戸堀２丁目１番１号江戸堀センタービルＢ１階,,27,106,5500002,,,,,,,2024-11-06,1,,,,,ティーエスティー,0
158,1120101070549,新規,0,2024-11-06,2024-11-06,株式会社セラヴィ,,株式会社,大阪府,和泉市,府中町１丁目２０番３－１４０６号,,27,219,5940071,,,,,,,2024-11-06,1,,,,,セラヴィ,0
161,1122001038592,新規,0,2024-11-06,2024-11-06,株式会社ハマケンペイント,,株式会社,大阪府,東大阪市,御厨３丁目７番２５号,,27,227,5770032,,,,,,,2024-11-06,1,,,,,ハマケンペイント,0
162,1122001038601,新規,0,2024-11-06,2024-11-06,株式会社Ｆａｍｉｌｉａ,,株式会社,大阪府,東大阪市,大蓮南４丁目１３番１２号,,27,227,5770825,,,,,,,2024-11-06,1,,,,,ファミリア,0
169,1140001136332,新規,0,2024-11-06,2024-11-06,ミラクルビジョン株式会社,,株式会社,兵庫県,川西市,花屋敷１丁目１５番８－１号,,28,217,6660035,,,,,,,2024-11-06,1,,,,,ミラクルビジョン,0
170,1140001136349,新規,0,2024-11-06,2024-11-06,株式会社ピーパタ,,株式会社,兵庫県,神戸市中央区,磯辺通１丁目１番１８号カサベラ国際プラザビル７０７,,28,110,6510084,,,,,,,2024-11-06,1,,,,,ピーパタ,0
171,1140003021268,新規,0,2024-11-06,2024-11-06,合同会社同心,,合同会社,兵庫県,神戸市兵庫区,西出町２丁目１７番１７ＡＱＵＡＢＥＡＵＴＹビル,,28,105,6520822,,,,,,,2024-11-06,1,,,,,ドウシン,0
172,1140003021284,新規,0,2024-11-06,2024-11-06,合同会社田沼商会,,合同会社,兵庫県,神戸市兵庫区,菊水町１０丁目３９番地の１６夢野台住宅２－４０１号,,28,105,6520058,,,,,,,2024-11-06,1,,,,,タヌマショウカイ,0
175,1150001027646,新規,0,2024-11-06,2024-11-06,株式会社ＨＲ　ＢＲＩＤＧＥ,,株式会社,奈良県,奈良市,小西町２５番地の１ファインフラッツ奈良ザ・レジデンス１１３号,,29,201,6308226,,,,,,,2024-11-06,1,,,,,エッチアールブリッジ,0
176,1150003003406,新規,0,2024-11-06,2024-11-06,合同会社ｓａｎｔｅ,,合同会社,奈良県,奈良市,二条町２丁目１－２２,,29,201,6308002,,,,,,,2024-11-06,1,,,,,サンテ,0
195,1180005020826,新規,0,2024-11-06,2024-11-06,一般社団法人日本ペットホテル協会,,その他の設立登記法人,愛知県,名古屋市中区,栄３丁目２１番２７号４階,,23,106,4600008,,,,,,,2024-11-06,1,,,,,ニホンペットホテルキョウカイ,0
201,1190001031776,新規,0,2024-11-06,2024-11-06,株式会社森岡建設,,株式会社,三重県,松阪市,東町１５７番地３,,24,204,5150012,,,,,,,2024-11-06,1,,,,,モリオカケンセツ,0
204,1200001043092,新規,0,2024-11-06,2024-11-06,株式会社ＲＥ,,株式会社,岐阜県,岐阜市,北鶉１丁目６０番地１,,21,201,5008287,,,,,,,2024-11-06,1,,,,,アールイー,0
207,1200003006568,新規,0,2024-11-06,2024-11-06,Ｊａｂｂａｒ　Ｎａｇｏｙａ　Ｔｒａｄｉｎｇ合同会社,,合同会社,岐阜県,美濃加茂市,加茂野町今泉１５４７番地２４コーポモナリザ２０３号室,,21,211,5050052,,,,,,,2024-11-06,1,,,,,ジャバーナゴヤトレーディング,0
214,1220005008899,新規,0,2024-11-06,2024-11-06,一般社団法人みんなの馬,,その他の設立登記法人,石川県,珠洲市,蛸島町鉢ケ崎３６番地３,,17,205,9271204,,,,,,,2024-11-06,1,,,,,ミンナノウマ,0
218,1240001064060,新規,0,2024-11-06,2024-11-06,株式会社イリスホールディングス,,株式会社,広島県,広島市西区,横川町２丁目９番１号,,34,104,7330011,,,,,,,2024-11-06,1,,,,,イリスホールディングス,0
219,1240001064069,新規,0,2024-11-06,2024-11-06,株式会社ｓｈｉｎグループ,,株式会社,広島県,広島市南区,皆実町３丁目６番２１号,,34,103,7340007,,,,,,,2024-11-06,1,,,,,シングループ,0
224,1260001039589,新規,0,2024-11-06,2024-11-06,株式会社クラリオ,,株式会社,岡山県,岡山市北区,大窪５０１番地１,,33,101,7011223,,,,,,,2024-11-06,1,,,,,クラリオ,0
230,1290001107863,新規,0,2024-11-06,2024-11-06,ＴＭエンジニアリング株式会社,,株式会社,福岡県,福岡市早良区,飯倉２丁目１１番５２－３１０号アーサーヒルズ飯倉,,40,137,8140161,,,,,,,2024-11-06,1,,,,,ティーエムエンジニアリング,0
231,1290001107896,新規,0,2024-11-06,2024-11-06,株式会社縁,,株式会社,福岡県,福岡市西区,下山門３丁目１８番８号,,40,135,8190052,,,,,,,2024-11-06,1,,,,,ユカリ,0
232,1290001107905,新規,0,2024-11-06,2024-11-06,株式会社シャイニーラボ,,株式会社,福岡県,福岡市中央区,天神４丁目６－２８－７Ｆ,,40,133,8100001,,,,,,,2024-11-06,1,,,,,シャイニーラボ,0
237,1290003016006,新規,0,2024-11-06,2024-11-06,合同会社マリンネット,,合同会社,福岡県,福岡市中央区,天神２丁目２番１２号Ｔ＆Ｊビルディング７Ｆ,,40,133,8100001,,,,,,,2024-11-06,1,,,,,マリンネット,0
240,1290803004878,新規,0,2024-11-06,2024-11-06,合同会社白英,,合同会社,福岡県,田川郡添田町,大字桝田１４８４番地,,40,602,8240723,,,,,,,2024-11-06,1,,,,,ハクエイ,0
241,1310001019305,新規,0,2024-11-06,2024-11-06,株式会社１１かんきょう,,株式会社,長崎県,長崎市,現川町２７２７番地１,,42,201,8510135,,,,,,,2024-11-06,1,,,,,イチイチカンキョウ,0
246,1340003004649,新規,0,2024-11-06,2024-11-06,合同会社ぽかぽか,,合同会社,鹿児島県,鹿児島市,星ヶ峯６丁目６２番地１,,46,201,8910102,,,,,,,2024-11-06,1,,,,,ポカポカ,0
247,1350001019276,新規,0,2024-11-06,2024-11-06,ユメミール株式会社,,株式会社,宮崎県,都城市,山田町山田３９８３番地７,,45,202,8894601,,,,,,,2024-11-06,1,,,,,ユメミール,0
254,1360003014357,新規,0,2024-11-06,2024-11-06,合同会社ＲＹファンド,,合同会社,沖縄県,宜野湾市,大謝名１丁目７－１プレミスト宜野湾大謝名１４０５,,47,205,9012225,,,,,,,2024-11-06,1,,,,,アールワイファンド,0
255,1360003014423,新規,0,2024-11-06,2024-11-06,合同会社ｓｏｙｓｏｙ,,合同会社,沖縄県,国頭郡本部町,字渡久地６２７番地１,,47,308,9050214,,,,,,,2024-11-06,1,,,,,ソイソイ,0
263,1380005012893,新規,0,2024-11-06,2024-11-06,司法書士法人あおば事務所,,その他の設立登記法人,福島県,福島市,南中央３丁目７番地の２鶴島ガーデン１０２号,,07,201,9608073,,,,,,,2024-11-06,1,,,,,アオバジムショ,0
271,1430001092991,新規,0,2024-11-06,2024-11-06,株式会社ＳＵＣＣＥＥＤ,,株式会社,北海道,札幌市東区,北二十条東１丁目１－１－１１０,,01,103,0650020,,,,,,,2024-11-06,1,,,,,サクシード,0
272,1430001093008,新規,0,2024-11-06,2024-11-06,株式会社Ｓｎｏｗ　ｐａｗ’ｓ　ｌａｎｄ,,株式会社,北海道,札幌市西区,山の手六条３丁目３番１０号,,01,107,0630006,,,,,,,2024-11-06,1,,,,,スノーポウズランド,0
273,1430001093016,新規,0,2024-11-06,2024-11-06,北星総合維持管理株式会社,,株式会社,北海道,沙流郡日高町,富川南１丁目２番１４号,,01,601,0550006,,,,,,,2024-11-06,1,,,,,ホクセイソウゴウイジカンリ,0
275,1430003016965,新規,0,2024-11-06,2024-11-06,合同会社ｉＬ,,合同会社,北海道,札幌市西区,宮の沢四条５丁目１９番５０－９１８号,,01,107,0630054,,,,,,,2024-11-06,1,,,,,イル,0
280,1470001020445,新規,0,2024-11-06,2024-11-06,株式会社クールエイト高松,,株式会社,香川県,高松市,伏石町２１５２番地４,,37,201,7618071,,,,,,,2024-11-06,1,,,,,クールエイトタカマツ,0
293,2010001249617,新規,0,2024-11-06,2024-11-06,ＤＭ株式会社,,株式会社,東京都,中央区,銀座１丁目１４番１４号,,13,102,1040061,,,,,,,2024-11-06,1,,,,,ディーエム,0
297,2010003045394,新規,0,2024-11-06,2024-11-06,Ｘ‐Ｅｌｉｏ３３合同会社,,合同会社,東京都,中央区,銀座４丁目１４番１１号七十七銀座ビル８階,,13,102,1040061,,,,,,,2024-11-06,1,,,,,エクセリオサーティースリー,0
309,2010401185916,新規,0,2024-11-06,2024-11-06,ＧｅｎＵｐ株式会社,,株式会社,東京都,港区,北青山２丁目７番１３号プラセオ青山ビル３階,,13,103,1070061,,,,,,,2024-11-06,1,,,,,ジェナップ,0
310,2010401186071,新規,0,2024-11-06,2024-11-06,株式会社関係人口,,株式会社,東京都,港区,南青山１丁目３－１,,13,103,1070062,,,,,,,2024-11-06,1,,,,,カンケイジンコウ,0
311,2010401186113,新規,0,2024-11-06,2024-11-06,株式会社Ｇａｋｕｎａｎ,,株式会社,東京都,港区,東新橋１丁目１０番１－１４０６号,,13,103,1050021,,,,,,,2024-11-06,1,,,,,ガクナン,0
315,2010701046784,新規,0,2024-11-06,2024-11-06,品川地所株式会社,,株式会社,東京都,品川区,中延５丁目１０番２号,,13,109,1420053,,,,,,,2024-11-06,1,,,,,シナガワジショ,0
325,2011003020271,新規,0,2024-11-06,2024-11-06,合同会社ＦＡＣＨ,,合同会社,東京都,渋谷区,神宮前６丁目１４－１５メゾン原宿２０１,,13,113,1500001,,,,,,,2024-11-06,1,,,,,ファッチ,0
331,2011301030138,新規,0,2024-11-06,2024-11-06,株式会社スタートデイ,,株式会社,東京都,杉並区,久我山４丁目４０番２７ー１０１号,,13,115,1680082,,,,,,,2024-11-06,1,,,,,,0
333,2011303005336,新規,0,2024-11-06,2024-11-06,ＳＩＢＳパートナーズ合同会社,,合同会社,東京都,杉並区,本天沼３丁目２－５,,13,115,1670031,,,,,,,2024-11-06,1,,,,,,0
349,2020001159939,新規,0,2024-11-06,2024-11-06,ＭａｄｇｅＴｅｃｈ　Ａｓｉａ株式会社,,株式会社,神奈川県,横浜市戸塚区,戸塚町１５００番地,,14,110,2440003,,,,,,,2024-11-06,1,,,,,マッジテックアジア,0
350,2020001159947,新規,0,2024-11-06,2024-11-06,ダイバーシティコード株式会社,,株式会社,神奈川県,横浜市緑区,霧が丘６丁目１３番地,,14,113,2260016,,,,,,,2024-11-06,1,,,,,ダイバーシティコード,0
352,2020005016582,新規,0,2024-11-06,2024-11-06,一般社団法人木の実会,,その他の設立登記法人,神奈川県,川崎市宮前区,宮崎１丁目８番２１号,,14,136,2160033,,,,,,,2024-11-06,1,,,,,キノミカイ,0
353,2020005016590,新規,0,2024-11-06,2024-11-06,一般社団法人ＪＳＫ,,その他の設立登記法人,神奈川県,横浜市中区,本牧原２０－１０－５０３,,14,104,2310821,,,,,,,2024-11-06,1,,,,,ジェーエスケイ,0
366,2030001163287,新規,0,2024-11-06,2024-11-06,株式会社フラットハウス,,株式会社,埼玉県,さいたま市北区,植竹町１丁目１５６番地１３,,11,102,3310813,,,,,,,2024-11-06,1,,,,,フラットハウス,0
367,2030001163329,新規,0,2024-11-06,2024-11-06,秀和農園株式会社,,株式会社,埼玉県,さいたま市西区,大字飯田新田５０９－１,,11,101,3310068,,,,,,,2024-11-06,1,,,,,シュウワノウエン,0
370,2030003025411,新規,0,2024-11-06,2024-11-06,合同会社Ｃｈｉｉ　Ｌａｂ,,合同会社,埼玉県,南埼玉郡宮代町,中央２丁目１８－８,,11,442,3450821,,,,,,,2024-11-06,1,,,,,チーラボ,0
382,2040003026128,新規,0,2024-11-06,2024-11-06,合同会社アイヴィス,,合同会社,千葉県,野田市,岡田８５１－２,,12,208,2700223,,,,,,,2024-11-06,1,,,,,,0
387,2050001055648,新規,0,2024-11-06,2024-11-06,紫峰牧場株式会社,,株式会社,茨城県,筑西市,新井神田１５番地１,,08,227,3080000,,,,,,,2024-11-06,1,,,,,シホウボクジョウ,0
390,2050003008785,新規,0,2024-11-06,2024-11-06,合同会社アウロラ,,合同会社,茨城県,取手市,駒場１丁目１４番４号,,08,217,3020027,,,,,,,2024-11-06,1,,,,,アウロラ,0
391,2060001037620,新規,0,2024-11-06,2024-11-06,株式会社めぐみ訪問介護,,株式会社,栃木県,下野市,祇園３丁目２番地７,00136887,09,216,3290434,,,,,,,2024-11-06,1,,,,,メグミホウモンカイゴ,0
392,2060001037637,新規,0,2024-11-06,2024-11-06,株式会社ミューチュアレイド,,株式会社,栃木県,大田原市,加治屋８７―８３,,09,210,3240046,,,,,,,2024-11-06,1,,,,,ミューチュアレイド,0
393,2060003005311,新規,0,2024-11-06,2024-11-06,スプートニク合同会社,,合同会社,栃木県,宇都宮市,西川田本町２丁目６－１８,,09,201,3210158,,,,,,,2024-11-06,1,,,,,スプートニク,0
396,2080101025102,新規,0,2024-11-06,2024-11-06,株式会社Ｙプロジェクト,,株式会社,静岡県,沼津市,岡宮９９１番地の１,,22,203,4100011,,,,,,,2024-11-06,1,,,,,ワイプロジェクト,0
398,2080401027541,新規,0,2024-11-06,2024-11-06,株式会社ＮＡＶＹ．,,株式会社,静岡県,浜松市浜名区,小松２２２４番地の１,,22,139,4340042,,,,,,,2024-11-06,1,,,,,ネイビー,0
399,2080405007688,新規,0,2024-11-06,2024-11-06,一般社団法人いきいきライフ協会浜松,,その他の設立登記法人,静岡県,浜松市中央区,富塚町３１５番地,,22,138,4328002,,,,,,,2024-11-06,1,,,,,イキイキライフキョウカイハママツ,0
420,2120001269959,新規,0,2024-11-06,2024-11-06,錦瑞株式会社,,株式会社,大阪府,大阪市中央区,松屋町９番２０号ローレルステート松屋町９０４Ｂ,,27,128,5420067,,,,,,,2024-11-06,1,,,,,キンスイ,0
421,2120001269991,新規,0,2024-11-06,2024-11-06,株式会社ネクストイノベーション,,株式会社,大阪府,大阪市中央区,谷町３丁目４番５号リアライズ谷町ビル３０８号,,27,128,5400012,,,,,,,2024-11-06,1,,,,,ネクストイノベーション,0
422,2120001270074,新規,0,2024-11-06,2024-11-06,株式会社ｆｒｅｒｅ,,株式会社,大阪府,大阪市東住吉区,公園南矢田２丁目１６－１９－Ｃ号,,27,121,5460024,,,,,,,2024-11-06,1,,,,,フレール,0
427,2120101070515,新規,0,2024-11-06,2024-11-06,株式会社Ｂｒｉｄｇｅ　ｈｏｍｅ,,株式会社,大阪府,堺市中区,深阪５丁１４番３５号,,27,142,5998253,,,,,,,2024-11-06,1,,,,,ブリッジホーム,0
436,2122001038591,新規,0,2024-11-06,2024-11-06,大川株式会社,,株式会社,大阪府,東大阪市,西堤西３－１９－９０３号室,,27,227,5770048,,,,,,,2024-11-06,1,,,,,オオカワ,0
438,2130001078277,新規,0,2024-11-06,2024-11-06,ＡＳＯＧＩ株式会社,,株式会社,京都府,京都市南区,西九条東島町５０番地２８,,26,107,6018432,,,,,,,2024-11-06,1,,,,,アソウギ,0
439,2130001078285,新規,0,2024-11-06,2024-11-06,株式会社新ケンキュウ,,株式会社,京都府,京都市上京区,丸太町通堀川西入西丸太町１７３番地メロディハイム二条城２０２号,,26,102,6028148,,,,,,,2024-11-06,1,,,,,シンケンキュウ,0
440,2130001078293,新規,0,2024-11-06,2024-11-06,株式会社鳥嶋,,株式会社,京都府,京都市西京区,下津林南大般若町３２番地１０２号,,26,111,6158036,,,,,,,2024-11-06,1,,,,,トリシマ,0
441,2130001078302,新規,0,2024-11-06,2024-11-06,株式会社朗,,株式会社,京都府,京都市左京区,聖護院山王町１８番地３正春ビル２Ｆ,,26,103,6068392,,,,,,,2024-11-06,1,,,,,ホガラカ,0
442,2130001078310,新規,0,2024-11-06,2024-11-06,錦株式会社,,株式会社,京都府,京都市東山区,新橋通大和大路東入２丁目橋本町４１６番地,,26,105,6050083,,,,,,,2024-11-06,1,,,,,ニシキ,0
443,2130003009973,新規,0,2024-11-06,2024-11-06,合同会社ＳＳホールディングス,,合同会社,京都府,京都市下京区,七条通油小路東入大黒町２２７番地第２キョートビル４０２,,26,106,6008223,,,,,,,2024-11-06,1,,,,,エスエスホールディングス,0
444,2130003009981,新規,0,2024-11-06,2024-11-06,合同会社ハウジング水上管理,,合同会社,京都府,京都市左京区,丸太町通川端東入東丸太町２１番４,,26,103,6068395,,,,,,,2024-11-06,1,,,,,ハウジングミズカミカンリ,0
448,2140001136307,新規,0,2024-11-06,2024-11-06,株式会社Ｒｅｊｏｉｃｅ,,株式会社,兵庫県,加古郡播磨町,古田２丁目２２番２９号,,28,382,6750146,,,,,,,2024-11-06,1,,,,,リジョイス,0
449,2140001136323,新規,0,2024-11-06,2024-11-06,電脳工業株式会社,,株式会社,兵庫県,神戸市東灘区,鴨子ヶ原３丁目１４－８,,28,101,6580064,,,,,,,2024-11-06,1,,,,,デンノウコウギョウ,0
452,2140003021283,新規,0,2024-11-06,2024-11-06,合同会社ハナサイエンス,,合同会社,兵庫県,西宮市,松原町７－８,,28,204,6620912,,,,,,,2024-11-06,1,,,,,ハナサイエンス,0
456,2160001026332,新規,0,2024-11-06,2024-11-06,ニューライフ株式会社,,株式会社,滋賀県,彦根市,大藪町２７４番地４２,,25,202,5220053,,,,,,,2024-11-06,1,,,,,ニューライフ,0
469,2180001163941,新規,0,2024-11-06,2024-11-06,Ｓ・Ｔ・Ｃ株式会社,,株式会社,愛知県,半田市,更生町２丁目１５２番地の１２協和ビル３０２,,23,205,4750856,,,,,,,2024-11-06,1,,,,,エスティーシー,0
482,2190001031775,新規,0,2024-11-06,2024-11-06,株式会社ｉ　Ｄｒｅａｍ,,株式会社,三重県,松阪市,平成町４９番地１,,24,204,5150824,,,,,,,2024-11-06,1,,,,,アイドリーム,0
488,2230001020609,新規,0,2024-11-06,2024-11-06,ボルトワークス株式会社,,株式会社,富山県,富山市,蓮町１丁目７番３‐４０２号室ＳＣＯＰＴＯＹＡＭＡ創業支援センター棟,00136900,16,201,9318333,,,,,,,2024-11-06,1,,,,,ボルトワークス,0
491,2260001039605,新規,0,2024-11-06,2024-11-06,株式会社杣耕社,,株式会社,岡山県,岡山市北区,御津紙工２７７３番地,,33,101,7092136,,,,,,,2024-11-06,1,,,,,ソマコウシャ,0
498,2290001107854,新規,0,2024-11-06,2024-11-06,奥本商会株式会社,,株式会社,福岡県,福岡市東区,和白丘１丁目２２番２０号,,40,131,8110213,,,,,,,2024-11-06,1,,,,,オクモトショウカイ,0
499,2290001107862,新規,0,2024-11-06,2024-11-06,チョコボールディングス株式会社,,株式会社,福岡県,福岡市南区,野間１丁目９番３－８１０号,,40,134,8150041,,,,,,,2024-11-06,1,,,,,チョコボールディングス,0
501,2290003016013,新規,0,2024-11-06,2024-11-06,合同会社羽化,,合同会社,福岡県,福岡市中央区,白金２丁目１０番地２号,,40,133,8100012,,,,,,,2024-11-06,1,,,,,ウカ,0
503,2290005019550,新規,0,2024-11-06,2024-11-06,一般社団法人ＫＡＮＮＯＡ　ｍｅｄｉｃａｌ,,その他の設立登記法人,福岡県,福岡市中央区,大名２丁目１番１８号,,40,133,8100041,,,,,,,2024-11-06,1,,,,,カノアメディカル,0
504,2290801031007,新規,0,2024-11-06,2024-11-06,株式会社松尾興産,,株式会社,福岡県,北九州市小倉北区,緑ケ丘２丁目８番２７号,,40,106,8030827,,,,,,,2024-11-06,1,,,,,マツオコウサン,0
505,2290801031015,新規,0,2024-11-06,2024-11-06,株式会社ＣＯＯＬＥＳＴ,,株式会社,福岡県,田川郡香春町,大字香春２５９番地,,40,601,8221406,,,,,,,2024-11-06,1,,,,,クーレスト,0
507,2320001020789,新規,0,2024-11-06,2024-11-06,株式会社ＳＴＦ,,株式会社,大分県,日田市,大字小迫１４８３番地９,,44,204,8770000,,,,,,,2024-11-06,1,,,,,エスティーエフ,0
510,2330001032619,新規,0,2024-11-06,2024-11-06,株式会社八鳥,,株式会社,熊本県,荒尾市,東屋形４丁目１４番地１２,,43,204,8640042,,,,,,,2024-11-06,1,,,,,ハッチョウ,0
512,2340001026900,新規,0,2024-11-06,2024-11-06,株式会社ｅｎ‐ｃｉｅｌ,,株式会社,鹿児島県,出水市,高尾野町上水流８２５番地７,,46,208,8990406,,,,,,,2024-11-06,1,,,,,アンシェール,0
513,2340001026909,新規,0,2024-11-06,2024-11-06,株式会社ＳＴＯＮＥＳ,,株式会社,鹿児島県,鹿児島市,西千石町１０番２５号レーベン西千石ミッドスクエア１１０３号,,46,201,8920847,,,,,,,2024-11-06,1,,,,,ストーンズ,0
514,2340003004648,新規,0,2024-11-06,2024-11-06,西田文栄堂合同会社,00136903,合同会社,鹿児島県,出水市,昭和町４５番１６号,,46,208,8990202,,,,,,,2024-11-06,1,,,,,ニシダブンエイドウ,0
515,2350001019259,新規,0,2024-11-06,2024-11-06,株式会社アイティーグローバル,,株式会社,宮崎県,延岡市,卸本町９番１４号,,45,203,8820855,,,,,,,2024-11-06,1,,,,,アイティーグローバル,0
520,2360003014422,新規,0,2024-11-06,2024-11-06,合同会社山城豆腐店,,合同会社,沖縄県,国頭郡本部町,字崎本部７３番地,,47,308,9050225,,,,,,,2024-11-06,1,,,,,ヤマシロトウフテン,0
525,2380001034882,新規,0,2024-11-06,2024-11-06,株式会社中硼テクノロジー,,株式会社,福島県,双葉郡楢葉町,大字山田岡字仲丸１－７,,07,542,9790513,,,,,,,2024-11-06,1,,,,,チュウホウテクノロジー,0
528,2380005012892,新規,0,2024-11-06,2024-11-06,一般社団法人北屋敷ドリームファーム,,その他の設立登記法人,福島県,石川郡平田村,大字上蓬田字古屋敷２９番地,00136902,07,503,9638202,,,,,,,2024-11-06,1,,,,,キタヤシキドリームファーム,0
531,2410001013981,新規,0,2024-11-06,2024-11-06,ファセット株式会社,,株式会社,秋田県,湯沢市,三梨町字烏帽子橋７１－２,,05,207,0120106,,,,,,,2024-11-06,1,,,,,ファセット,0
534,2430001092990,新規,0,2024-11-06,2024-11-06,株式会社Ｂｕｄｄｙ,,株式会社,北海道,札幌市手稲区,富丘二条３丁目１８番２５号,,01,109,0060012,,,,,,,2024-11-06,1,,,,,バディ,0
535,2430001092999,新規,0,2024-11-06,2024-11-06,株式会社ＮＯＡ,,株式会社,北海道,札幌市中央区,北二条東３丁目２番２号マルタビル札幌７階,,01,101,0600032,,,,,,,2024-11-06,1,,,,,ノア,0
536,2430001093007,新規,0,2024-11-06,2024-11-06,株式会社メディシアス,,株式会社,北海道,札幌市中央区,南九条西１１丁目１番５号Ｓｔｅｌｌａ９１１・２階Ｒ号室,,01,101,0640809,,,,,,,2024-11-06,1,,,,,メディシアス,0
537,2430001093015,新規,0,2024-11-06,2024-11-06,株式会社アイリスパーク,,株式会社,北海道,北広島市,虹ヶ丘６丁目５番地３,,01,234,0611103,,,,,,,2024-11-06,1,,,,,アイリスパーク,0
539,2430003016956,新規,0,2024-11-06,2024-11-06,合同会社ロカレッジ,,合同会社,北海道,札幌市白石区,川下一条７丁目１番８－３０２号,,01,104,0030861,,,,,,,2024-11-06,1,,,,,ロカレッジ,0
540,2430003016972,新規,0,2024-11-06,2024-11-06,合同会社ワークコネクト,,合同会社,北海道,札幌市白石区,菊水三条２丁目１－１０リネット丸友２Ｆ,,01,104,0030803,,,,,,,2024-11-06,1,,,,,ワークコネクト,0
544,2470001020444,新規,0,2024-11-06,2024-11-06,株式会社良心,,株式会社,香川県,高松市,成合町４５１番地１中原マンション１０２,,37,201,7618081,,,,,,,2024-11-06,1,,,,,リョウシン,0
545,2480001012639,新規,0,2024-11-06,2024-11-06,株式会社Ｏ．Ｐ．Ｔ,,株式会社,徳島県,阿南市,羽ノ浦町古毛三百歩４８番地５,,36,204,7791109,,,,,,,2024-11-06,1,,,,,オーピーティー,0
546,2500001025984,新規,0,2024-11-06,2024-11-06,株式会社エビス．,,株式会社,愛媛県,松山市,竹原４丁目１０番４６号,,38,201,7900053,,,,,,,2024-11-06,1,,,,,エビス,0
551,3010001249608,新規,0,2024-11-06,2024-11-06,株式会社Ｏｐｅｎ　ｏｒａｎｇｅ,,株式会社,東京都,文京区,湯島３丁目１３－８湯島不二ビル２０１室,,13,105,1130034,,,,,,,2024-11-06,1,,,,,,0
552,3010001249616,新規,0,2024-11-06,2024-11-06,株式会社ゴート・イノベーション・パートナーズ,,株式会社,東京都,文京区,千石３丁目９番９号,,13,105,1120011,,,,,,,2024-11-06,1,,,,,ゴートイノベーションパートナーズ,0
553,3010001249657,新規,0,2024-11-06,2024-11-06,フィルムテック・ジャパン・ホールディング株式会社,,株式会社,東京都,千代田区,永田町２丁目１１番１号,,13,101,1000014,,,,,,,2024-11-06,1,,,,,フィルムテックジャパンホールディング,0
554,3010001249681,新規,0,2024-11-06,2024-11-06,株式会社ＩＦＫＡ,,株式会社,東京都,中央区,日本橋小舟町９番１０号,,13,102,1030024,,,,,,,2024-11-06,1,,,,,アイエフケイエイ,0
555,3010003045393,新規,0,2024-11-06,2024-11-06,Ｘ‐Ｅｌｉｏ３２合同会社,,合同会社,東京都,中央区,銀座４丁目１４番１１号七十七銀座ビル８階,,13,102,1040061,,,,,,,2024-11-06,1,,,,,エクセリオサーティーツー,0
571,3010401186145,新規,0,2024-11-06,2024-11-06,株式会社ＧＸホールディングス,,株式会社,東京都,港区,赤坂９丁目７番１号,,13,103,1070052,,,,,,,2024-11-06,1,,,,,ジーエックスホールディングス,0
572,3010401186228,新規,0,2024-11-06,2024-11-06,ＳｕｎｆＬＯＷＥｒｓ株式会社,,株式会社,東京都,港区,西新橋２丁目３３番４－１００１号,,13,103,1050003,,,,,,,2024-11-06,1,,,,,サンフラワー,0
582,3010503007620,新規,0,2024-11-06,2024-11-06,ルーキー１４合同会社,,合同会社,東京都,台東区,東浅草１丁目４番４－９０５号ジニア浅草,,13,106,1110025,,,,,,,2024-11-06,1,,,,,ルーキージユウヨン,0
586,3011001165571,新規,0,2024-11-06,2024-11-06,株式会社ｂｌａｈ　ｂｌａｈ　ｂｌａｈ,,株式会社,東京都,渋谷区,恵比寿西１丁目１４番２号,,13,113,1500021,,,,,,,2024-11-06,1,,,,,ブラーブラーブラー,0
588,3011003020304,新規,0,2024-11-06,2024-11-06,ハチハチ合同会社,,合同会社,東京都,渋谷区,猿楽町１５番９ー３０５号,,13,113,1500033,,,,,,,2024-11-06,1,,,,,ハチハチ,0
589,3011003020320,新規,0,2024-11-06,2024-11-06,合同会社八州会,,合同会社,東京都,渋谷区,本町１丁目２７番４号Ａ３０５,,13,113,1510071,,,,,,,2024-11-06,1,,,,,ハッシュウカイ,0
591,3011101109412,新規,0,2024-11-06,2024-11-06,ｙｇｍｔ株式会社,,株式会社,東京都,新宿区,富久町１５番１－３９０７号,,13,104,1620067,,,,,,,2024-11-06,1,,,,,ワイジーエムティー,0
595,3011201025906,新規,0,2024-11-06,2024-11-06,株式会社Ｃｏｐａｎ,,株式会社,東京都,中野区,東中野１丁目５０番２号,,13,114,1640003,,,,,,,2024-11-06,1,,,,,コパン,0
596,3011203004511,新規,0,2024-11-06,2024-11-06,合同会社Ｍｉｒａｋｉ　ＡＩ,,合同会社,東京都,中野区,東中野４丁目２７－２５ザ・パークハウスアーバンス東中野３０２,,13,114,1640003,,,,,,,2024-11-06,1,,,,,ミラキエーアイ,0
599,3011403004542,新規,0,2024-11-06,2024-11-06,Ｈｅａｒｔ　ｔｏ　Ｈｅａｒｔ合同会社,,合同会社,東京都,板橋区,徳丸６丁目３０番２号,,13,119,1750083,,,,,,,2024-11-06,1,,,,,ハートトゥーハート,0
606,3011801045097,新規,0,2024-11-06,2024-11-06,ＯＡＳｉＳ株式会社,,株式会社,東京都,足立区,千住仲町３番３－５０４号,,13,121,1200036,,,,,,,2024-11-06,1,,,,,オアシス,0
609,3012405005058,新規,0,2024-11-06,2024-11-06,一般社団法人ＣＨＵＯ　ＡＴＨＬＥＴＩＣＳ　ＣＬＵＢ,,その他の設立登記法人,東京都,小金井市,本町１丁目９番１０－１４０１号,,13,210,1840004,,,,,,,2024-11-06,1,,,,,チュウオウアスレティックスクラブ,0
613,3012701018531,新規,0,2024-11-06,2024-11-06,株式会社ＷＩＳＴＥＬＬｉＡ,,株式会社,東京都,西東京市,東伏見２丁目４番４号東仁ビル４階,,13,229,2020021,,,,,,,2024-11-06,1,,,,,ウィステリア,0
614,3012703003127,新規,0,2024-11-06,2024-11-06,合同会社Ｓｅｎｊｕ　Ｐｒｏｄｕｃｅ,,合同会社,東京都,小平市,学園西町２丁目１０番１９号,,13,211,1870045,,,,,,,2024-11-06,1,,,,,センジュプロデュース,0
627,3020001159822,新規,0,2024-11-06,2024-11-06,Ｔａｕｒｕｓ＆Ｖｉｒｇｏ　Ｃａｐｉｔａｌ株式会社,,株式会社,神奈川県,横浜市青葉区,田奈町３０番地２０,,14,117,2270064,,,,,,,2024-11-06,1,,,,,トーラスアンドヴァーゴキャピタル,0
632,3020003027192,新規,0,2024-11-06,2024-11-06,合同会社はちはち,,合同会社,神奈川県,横浜市西区,北幸２丁目１０番４８号むつみビル３階,,14,103,2200004,,,,,,,2024-11-06,1,,,,,ハチハチ,0
636,3021001083673,新規,0,2024-11-06,2024-11-06,Ｍａｄｅ　ｉｎ　Ｊａｐａｎ　Ａｍｂａｓｓａｄｏｒ株式会社,,株式会社,神奈川県,小田原市,栄町２丁目１２－１０Ｓｑｕａｒｅ０２－１階,,14,206,2500011,,,,,,,2024-11-06,1,,,,,メイドインジャパンアンバサダー,0
639,3021003015187,新規,0,2024-11-06,2024-11-06,合同会社美博サイディング,,合同会社,神奈川県,小田原市,高田２７番地の１,,14,206,2500216,,,,,,,2024-11-06,1,,,,,ミヒロサイディング,0
640,3021003015195,新規,0,2024-11-06,2024-11-06,合同会社神奈川商会,,合同会社,神奈川県,相模原市南区,新戸２０１２番地１４,,14,153,2520326,,,,,,,2024-11-06,1,,,,,カナガワショウカイ,0
652,3030001163253,新規,0,2024-11-06,2024-11-06,株式会社Ｇａｎｂａｒｕｚ,,株式会社,埼玉県,上尾市,大字小泉８番地２５,,11,219,3620063,,,,,,,2024-11-06,1,,,,,ガンバルズ,0
653,3030001163261,新規,0,2024-11-06,2024-11-06,株式会社絆,,株式会社,埼玉県,越谷市,大字増林３６６２,,11,222,3430011,,,,,,,2024-11-06,1,,,,,キズナ,0
654,3030001163303,新規,0,2024-11-06,2024-11-06,株式会社ＢＩＳＨＯＰ　ＳＵＮＲＩＳＥ,,株式会社,埼玉県,川口市,栄町１丁目７番４－８０３号サンクレイドル川口ＩＩ,00136886,11,203,3320017,,,,,,,2024-11-06,1,,,,,ビショップサンライズ,0
655,3030001163328,新規,0,2024-11-06,2024-11-06,株式会社綜合ビジネスサービス,,株式会社,埼玉県,さいたま市岩槻区,南平野４丁目８番地１４,,11,110,3390051,,,,,,,2024-11-06,1,,,,,ソウゴウビジネスサービス,0
670,3060001037628,新規,0,2024-11-06,2024-11-06,長田防災株式会社,,株式会社,栃木県,宇都宮市,八千代２丁目１６番３号,,09,201,3210169,,,,,,,2024-11-06,1,,,,,オサダボウサイ,0
678,3080001026570,新規,0,2024-11-06,2024-11-06,株式会社ＢＵＩＬＤＵＰ,,株式会社,静岡県,静岡市清水区,江尻台町４番１号,,22,103,4240044,,,,,,,2024-11-06,1,,,,,ビルドアップ,0
681,3100001037978,新規,0,2024-11-06,2024-11-06,株式会社とらいろ,,株式会社,長野県,東筑摩郡生坂村,３０３４番地１,,20,448,3997201,,,,,,,2024-11-06,1,,,,,トライロ,0
692,3120001269826,新規,0,2024-11-06,2024-11-06,ＪＷＺ株式会社,,株式会社,大阪府,大阪市住之江区,西住之江４丁目４－１１－２０２号室,,27,125,5590005,,,,,,,2024-11-06,1,,,,,ジェイダブリュゼット,0
693,3120001270032,新規,0,2024-11-06,2024-11-06,Ｓｔｅｌｌａ　Ｌｕｃｅ株式会社,,株式会社,大阪府,大阪市北区,梅田２丁目５番１３号桜橋第一ビル３０４号,,27,127,5300001,,,,,,,2024-11-06,1,,,,,ステッラルーチェ,0
694,3120001270098,新規,0,2024-11-06,2024-11-06,株式会社ワンオフコーニッシュ,,株式会社,大阪府,大阪市中央区,西心斎橋１丁目１３番２１号コーニッシュビル５Ｆ,,27,128,5420086,,,,,,,2024-11-06,1,,,,,ワンオフコーニッシュ,0
698,3120003027892,新規,0,2024-11-06,2024-11-06,合同会社太成,,合同会社,大阪府,大阪市淀川区,塚本３丁目６番７号ロイヤルオーク２０１号,,27,123,5320026,,,,,,,2024-11-06,1,,,,,タイセイ,0
699,3120003027918,新規,0,2024-11-06,2024-11-06,合同会社ｎｕｔｓ,,合同会社,大阪府,大阪市福島区,海老江５丁目７番６号６階,,27,103,5530001,,,,,,,2024-11-06,1,,,,,ナッツ,0
701,3120005024590,新規,0,2024-11-06,2024-11-06,一般社団法人のぞみ,,その他の設立登記法人,大阪府,大阪市浪速区,元町１丁目３番８号ナンバビル４階,,27,111,5560016,,,,,,,2024-11-06,1,,,,,ノゾミ,0
704,3120101070547,新規,0,2024-11-06,2024-11-06,株式会社ＦＩＲＳＴ　Ｍ,,株式会社,大阪府,泉南市,信達大苗代１１３０番地の２６,,27,228,5900505,,,,,,,2024-11-06,1,,,,,ファーストエム,0
711,3130001078276,新規,0,2024-11-06,2024-11-06,株式会社Ｂｌｕｅ　ｈｏｍｅ,,株式会社,京都府,京都市下京区,中野之町１６４,,26,106,6008435,,,,,,,2024-11-06,1,,,,,ブルーホーム,0
714,3130003009980,新規,0,2024-11-06,2024-11-06,合同会社スタンス,,合同会社,京都府,京都市中京区,西ノ京銅駝町５３番地１０,,26,104,6048425,,,,,,,2024-11-06,1,,,,,スタンス,0
716,3140001136297,新規,0,2024-11-06,2024-11-06,株式会社ｋｕｌｉ‐ｋｕｌｉ,,株式会社,兵庫県,神戸市灘区,城内通５丁目７番４２,,28,102,6570836,,,,,,,2024-11-06,1,,,,,,0
720,3150001027652,新規,0,2024-11-06,2024-11-06,株式会社ｓｔｏｉｃｏ,,株式会社,奈良県,大和郡山市,若槻町３０番地８,,29,203,6391107,,,,,,,2024-11-06,1,,,,,ストイコ,0
723,3160001026323,新規,0,2024-11-06,2024-11-06,株式会社Ｈａｒｅｔｏ‐Ｋｅｔｏ,,株式会社,滋賀県,彦根市,芹橋２丁目６番５４号,,25,202,5220087,,,,,,,2024-11-06,1,,,,,ハレトケト,0
724,3160001026331,新規,0,2024-11-06,2024-11-06,株式会社ＴＨＥ　ＨＩＤＥＡＷＡＹ　ＦＯＯＤＳ,,株式会社,滋賀県,栗東市,小柿３丁目９番２７号,,25,208,5203024,,,,,,,2024-11-06,1,,,,,ザハイドアウェイフーズ,0
727,3170003002115,新規,0,2024-11-06,2024-11-06,合同会社Ｋ３コンサルティング,,合同会社,和歌山県,橋本市,高野口町名古曽５１番地１,,30,203,6497203,,,,,,,2024-11-06,1,,,,,ケースリーコンサルティング,0
737,3180301039213,新規,0,2024-11-06,2024-11-06,万屋喜入株式会社,,株式会社,愛知県,豊田市,曙町２丁目３７番地１かいか３０１号,,23,211,4710835,,,,,,,2024-11-06,1,,,,,ヨロズキイル,0
739,3190001031774,新規,0,2024-11-06,2024-11-06,ショルボデー株式会社,,株式会社,三重県,いなべ市,大安町丹生川上１２３４番地,,24,214,5110261,,,,,,,2024-11-06,1,,,,,ショルボデー,0
741,3190005011995,新規,0,2024-11-06,2024-11-06,一般社団法人Ｈ＆Ｊ,,その他の設立登記法人,三重県,津市,羽所町３４５番地第一ビル４Ｆ,,24,201,5140009,,,,,,,2024-11-06,1,,,,,エイチアンドジェイ,0
746,3220001026300,新規,0,2024-11-06,2024-11-06,株式会社ＬＭＭ,,株式会社,石川県,金沢市,片町２丁目２９番７号,,17,201,9200981,,,,,,,2024-11-06,1,,,,,エルエムエム,0
751,3240001064059,新規,0,2024-11-06,2024-11-06,株式会社ケイトライム,,株式会社,広島県,広島市中区,銀山町３番１号,,34,101,7300022,,,,,,,2024-11-06,1,,,,,ケイトライム,0
752,3240001064075,新規,0,2024-11-06,2024-11-06,海外支援交流広島センター株式会社,,株式会社,広島県,広島市佐伯区,吉見園１番９号児玉ビル２１０,,34,108,7315132,,,,,,,2024-11-06,1,,,,,カイガイシエンコウリュウヒロシマセンター,0
755,3240003006926,新規,0,2024-11-06,2024-11-06,合同会社安芸三國屋,,合同会社,広島県,安芸高田市,甲田町上甲立７２７番地,,34,214,7391104,,,,,,,2024-11-06,1,,,,,アキミクニヤ,0
756,3250001020886,新規,0,2024-11-06,2024-11-06,株式会社Ｔｉｍｅ　ａｎｄ　Ａｇａｉｎ,,株式会社,山口県,宇部市,大字東岐波９６９番地,,35,202,7550241,,,,,,,2024-11-06,1,,,,,タイムアンドアゲイン,0
760,3260005011419,新規,0,2024-11-06,2024-11-06,一般社団法人レムリアの雫,,その他の設立登記法人,岡山県,岡山市北区,平田１２８番地１０５コーラルリーフＭ２０３,,33,101,7000952,,,,,,,2024-11-06,1,,,,,レムリアノシズク,0
769,3290001107820,新規,0,2024-11-06,2024-11-06,株式会社ＴＩＹ,,株式会社,福岡県,筑紫野市,大字俗明院１５８番地,,40,217,8180067,,,,,,,2024-11-06,1,,,,,ティーアイワイ,0
770,3290001107861,新規,0,2024-11-06,2024-11-06,株式会社ブルーオーシャン,,株式会社,福岡県,福岡市南区,屋形原１丁目２８番３２号２Ｆ,,40,134,8111351,,,,,,,2024-11-06,1,,,,,ブルーオーシャン,0
771,3290001107886,新規,0,2024-11-06,2024-11-06,株式会社ステアーズ,,株式会社,福岡県,大野城市,山田２丁目９番３３号,,40,219,8160922,,,,,,,2024-11-06,1,,,,,ステアーズ,0
772,3290001107894,新規,0,2024-11-06,2024-11-06,株式会社Ｓｕｎホアシ,,株式会社,福岡県,福岡市南区,塩原３丁目７番１１号,,40,134,8150032,,,,,,,2024-11-06,1,,,,,サンホアシ,0
777,3290801031006,新規,0,2024-11-06,2024-11-06,株式会社オペチョク,,株式会社,福岡県,北九州市小倉北区,京町３丁目１０番２５号３階,,40,106,8020002,,,,,,,2024-11-06,1,,,,,オペチョク,0
778,3290801031014,新規,0,2024-11-06,2024-11-06,株式会社ＫＩＲＡＭＥＫＩ　ＨＯＭＥ,,株式会社,福岡県,北九州市戸畑区,牧山３丁目１番３４号,,40,105,8040053,,,,,,,2024-11-06,1,,,,,キラメキホーム,0
780,3310001019294,新規,0,2024-11-06,2024-11-06,尾上工業株式会社,,株式会社,長崎県,長崎市,江川町５０番地３８,,42,201,8500992,,,,,,,2024-11-06,1,,,,,オノウエコウギョウ,0
781,3320001020788,新規,0,2024-11-06,2024-11-06,株式会社二軸屋,,株式会社,大分県,宇佐市,大字川部１０６２番地の１,,44,211,8790452,,,,,,,2024-11-06,1,,,,,フタジクヤ,0
784,3340001026908,新規,0,2024-11-06,2024-11-06,株式会社二俣自動車,,株式会社,鹿児島県,鹿児島市,四元町１２６３番地３,,46,201,8992708,,,,,,,2024-11-06,1,,,,,フタツマタジドウシャ,0
789,3360001034405,新規,0,2024-11-06,2024-11-06,株式会社沖縄的雑貨,,株式会社,沖縄県,那覇市,長田１丁目１８番１７号城間アパート１０５,,47,201,9020077,,,,,,,2024-11-06,1,,,,,オキナワテキザッカ,0
790,3360001034413,新規,0,2024-11-06,2024-11-06,株式会社ＭＪ　ＯＫＩＮＡＷＡ,,株式会社,沖縄県,那覇市,松山１丁目１２番１２－１０１,,47,201,9000032,,,,,,,2024-11-06,1,,,,,エムジェイオキナワ,0
799,3380005012891,新規,0,2024-11-06,2024-11-06,特定非営利活動法人未来サポートふくしま,,その他の設立登記法人,福島県,郡山市,安積荒井１丁目１０番地２Ｆ,,07,203,9630117,,,,,,,2024-11-06,1,,,,,ミライサポートフクシマ,0
805,3430001092965,新規,0,2024-11-06,2024-11-06,株式会社Ｋｃｏｎｎｅｃｔ,,株式会社,北海道,札幌市豊平区,月寒東一条１５丁目４番５－２０８号,,01,105,0620051,,,,,,,2024-11-06,1,,,,,ケイコネクト,0
806,3430001093022,新規,0,2024-11-06,2024-11-06,株式会社ヨーネット,,株式会社,北海道,札幌市東区,北二十三条東１４丁目４番１２号明成ビル４０１,,01,103,0650023,,,,,,,2024-11-06,1,,,,,ヨーネット,0
807,3430003016963,新規,0,2024-11-06,2024-11-06,合同会社ｍｕｒａｔｏｔａ,,合同会社,北海道,札幌市西区,西野七条９丁目８番１６号３Ｆ,,01,107,0630037,,,,,,,2024-11-06,1,,,,,ムラトタ,0
812,4010001249607,新規,0,2024-11-06,2024-11-06,株式会社ＧＭＤホールディングス,,株式会社,東京都,千代田区,有楽町１丁目１３番２号第一生命日比谷ファースト１８階,,13,101,1000006,,,,,,,2024-11-06,1,,,,,ジーエムディーホールディングス,0
813,4010001249615,新規,0,2024-11-06,2024-11-06,ＢＡＯ　ＫＩＭ株式会社,,株式会社,東京都,文京区,本駒込６丁目６番２号万華ビル２階２０１号室,,13,105,1130021,,,,,,,2024-11-06,1,,,,,バオキム,0
814,4010001249656,新規,0,2024-11-06,2024-11-06,デュポン・ジャパン・ホールディング株式会社,,株式会社,東京都,千代田区,永田町２丁目１１番１号,,13,101,1000014,,,,,,,2024-11-06,1,,,,,デュポンジャパンホールディング,0
815,4010001249697,新規,0,2024-11-06,2024-11-06,ＡＮＮＡ　ＢＥＬＬＥＦＩＮＥ株式会社,,株式会社,東京都,文京区,湯島１丁目２番１２－３０４号,,13,105,1130034,,,,,,,2024-11-06,1,,,,,アンナベルフィーヌ,0
818,4010003045392,新規,0,2024-11-06,2024-11-06,Ｂ１０　Ｊａｐａｎ合同会社,,合同会社,東京都,中央区,銀座４丁目１４番１１号七十七銀座ビル８階,,13,102,1040061,,,,,,,2024-11-06,1,,,,,ビーテンジャパン,0
830,4010101016386,新規,0,2024-11-06,2024-11-06,株式会社マイム,,株式会社,東京都,八王子市,打越町１３１２番地１８,,13,201,1920911,,,,,,,2024-11-06,1,,,,,マイム,0
836,4010401186160,新規,0,2024-11-06,2024-11-06,株式会社ｔｅｒｚｏ,,株式会社,東京都,港区,西麻布４丁目１６番３号リビオレジデンス西麻布３１０２,,13,103,1060031,,,,,,,2024-11-06,1,,,,,テルゾ,0
840,4010405023748,新規,0,2024-11-06,2024-11-06,元離宮二条城前特定目的会社,,その他の設立登記法人,東京都,港区,虎ノ門３丁目２２番１０－２０１号,,13,103,1050001,,,,,,,2024-11-06,1,,,,,モトリキュウニジョウジョウマエ,0
843,4010601066220,新規,0,2024-11-06,2024-11-06,株式会社大栄建設,,株式会社,東京都,江東区,冬木１７番１５－３０４号,,13,108,1350041,,,,,,,2024-11-06,1,,,,,ダイエイケンセツ,0
845,4010701046790,新規,0,2024-11-06,2024-11-06,ＲｅＦｉｌｔｅｒ株式会社,,株式会社,東京都,品川区,西五反田８丁目２－１２アール五反田７Ａ,,13,109,1410031,,,,,,,2024-11-06,1,,,,,リフィルター,0
847,4010903009439,新規,0,2024-11-06,2024-11-06,合同会社ＨＭＷＤ,,合同会社,東京都,世田谷区,南烏山１丁目１４－３１－６,,13,112,1570062,,,,,,,2024-11-06,1,,,,,エイチエムダブリューディー,0
853,4011001165521,新規,0,2024-11-06,2024-11-06,Ｗｏｂｉａｓ株式会社,,株式会社,東京都,渋谷区,道玄坂１丁目１０番８号渋谷道玄坂東急ビル２Ｆ－Ｃ,,13,113,1500043,,,,,,,2024-11-06,1,,,,,ウォビアス,0
854,4011001165538,新規,0,2024-11-06,2024-11-06,Ｒ＆Ｊ株式会社,,株式会社,東京都,渋谷区,恵比寿西２丁目３番１１－１００７号,,13,113,1500021,,,,,,,2024-11-06,1,,,,,アールアンドジェー,0
855,4011001165554,新規,0,2024-11-06,2024-11-06,東京電子電気化学機械株式会社,,株式会社,東京都,渋谷区,広尾３丁目５番２５号Ｂ１階－１階,,13,113,1500012,,,,,,,2024-11-06,1,,,,,トウキョウデンシデンキカガクキカイ,0
856,4011001165587,新規,0,2024-11-06,2024-11-06,株式会社ＲＥＶＯＬＴＡ,,株式会社,東京都,渋谷区,渋谷２丁目１９番１５号宮益坂ビルディング６０９,,13,113,1500002,,,,,,,2024-11-06,1,,,,,レヴォルタ,0
859,4011003020278,新規,0,2024-11-06,2024-11-06,ＮＯＴ　Ａ　ＨＯＴＥＬ　ＹＵＧＡＷＡＲＡ合同会社,,合同会社,東京都,渋谷区,千駄ヶ谷３丁目１１番８号（ＴＯＳグループ内）,,13,113,1510051,,,,,,,2024-11-06,1,,,,,ノットアホテルユガワラ,0
860,4011003020286,新規,0,2024-11-06,2024-11-06,ドルビアン合同会社,,合同会社,東京都,渋谷区,道玄坂１丁目１０番８号渋谷道玄坂東急ビル２Ｆ－Ｃ,,13,113,1500043,,,,,,,2024-11-06,1,,,,,ドルビアン,0
865,4011101109114,新規,0,2024-11-06,2024-11-06,ｉｎｎｏｖ８株式会社,,株式会社,東京都,新宿区,市谷台町３－５プラネット市ヶ谷４０２号室,,13,104,1620066,,,,,,,2024-11-06,1,,,,,イノベイト,0
866,4011105011217,新規,0,2024-11-06,2024-11-06,一般社団法人美の匠会,,その他の設立登記法人,東京都,新宿区,新宿３丁目２６番１８号３Ｆ,,13,104,1600022,,,,,,,2024-11-06,1,,,,,ビノタクミカイ,0
868,4011201025905,新規,0,2024-11-06,2024-11-06,株式会社ＮＫＮセラミックス,,株式会社,東京都,中野区,中野４丁目１０番２号中野セントラルパークサウス２Ｆ,,13,114,1640001,,,,,,,2024-11-06,1,,,,,エヌケーエヌセラミックス,0
869,4011301030136,新規,0,2024-11-06,2024-11-06,株式会社Ｖａｌｕｅ　Ｄｒｉｖｅ,,株式会社,東京都,杉並区,高円寺南４丁目６番５号,,13,115,1660003,,,,,,,2024-11-06,1,,,,,バリュードライブ,0
875,4011801045105,新規,0,2024-11-06,2024-11-06,桜木商事株式会社,,株式会社,東京都,足立区,小台１丁目１８番８―１９０１号,,13,121,1200046,,,,,,,2024-11-06,1,,,,,サクラギショウジ,0
879,4012401042442,新規,0,2024-11-06,2024-11-06,株式会社ＨＵＧＯＤ,,株式会社,東京都,多摩市,和田２０００番地１２号,,13,224,2060001,,,,,,,2024-11-06,1,,,,,ハゴット,0
880,4012401042450,新規,0,2024-11-06,2024-11-06,株式会社３ｃｈｕｎ,,株式会社,東京都,多摩市,鶴牧５丁目１３番地の８,,13,224,2060034,,,,,,,2024-11-06,1,,,,,スリーチュン,0
883,4013103001380,新規,0,2024-11-06,2024-11-06,ＡＹＳ合同会社,,合同会社,東京都,羽村市,五ノ神４丁目１４番地１ルミエール地上１階Ｃ店舗,,13,227,2050011,,,,,,,2024-11-06,1,,,,,エイワイエス,0
894,4021001083706,新規,0,2024-11-06,2024-11-06,Ｌｏｎｇｈｏｔ株式会社,,株式会社,神奈川県,厚木市,中町４丁目１４－１サクセス本厚木ビル６Ｆ６１６号室,,14,212,2430018,,,,,,,2024-11-06,1,,,,,ロングホット,0
899,4021003015145,新規,0,2024-11-06,2024-11-06,合同会社レミナート,,合同会社,神奈川県,三浦市,南下浦町金田９９８番地１,,14,210,2380103,,,,,,,2024-11-06,1,,,,,レミナート,0
900,4021003015194,新規,0,2024-11-06,2024-11-06,合同会社ＴＡＢＥｃａｔｉｏｎ雨,,合同会社,神奈川県,秦野市,南矢名１丁目１４－８メゾンスヤマ１０２,,14,211,2570003,,,,,,,2024-11-06,1,,,,,タベケーションアメ,0
904,4030001163236,新規,0,2024-11-06,2024-11-06,株式会社ＴＭＧ,,株式会社,埼玉県,川越市,新富町１丁目２番４号－５階,,11,201,3500043,,,,,,,2024-11-06,1,,,,,ティーエムジー,0
905,4030001163260,新規,0,2024-11-06,2024-11-06,株式会社Ｂｌｉｓｓｆｕｌ　Ｊｏｕｒｎｅｙｓ,,株式会社,埼玉県,さいたま市緑区,大字中尾２１番地,,11,109,3360932,,,,,,,2024-11-06,1,,,,,ブリスフルジャーニーズ,0
906,4030001163327,新規,0,2024-11-06,2024-11-06,株式会社ＹＥＢＩＳＵ興業,,株式会社,埼玉県,川口市,東川口４丁目２９番３９号ラデヴィーナ東川口１０５,,11,203,3330801,,,,,,,2024-11-06,1,,,,,エビスコウギョウ,0
921,4040003026118,新規,0,2024-11-06,2024-11-06,合同会社ＧＢＺ,,合同会社,千葉県,習志野市,袖ケ浦５丁目１３番１４号,,12,216,2750021,,,,,,,2024-11-06,1,,,,,ジービーゼット,0
925,4060001037610,新規,0,2024-11-06,2024-11-06,株式会社Ｂｒａｖｅ,,株式会社,栃木県,小山市,大字千駄塚２３５番地９,,09,208,3290202,,,,,,,2024-11-06,1,,,,,ブレイブ,0
926,4060001037627,新規,0,2024-11-06,2024-11-06,松本解体工業株式会社,,株式会社,栃木県,小山市,犬塚４丁目１６番地９,,09,208,3230811,,,,,,,2024-11-06,1,,,,,マツモトカイタイコウギョウ,0
928,4070003005647,新規,0,2024-11-06,2024-11-06,ビーワンソフトウェアテクノロジー合同会社,,合同会社,群馬県,高崎市,片岡町２丁目９番１２号,,10,202,3700862,,,,,,,2024-11-06,1,,,,,ビーワンソフトウェアテクノロジー,0
930,4080401027548,新規,0,2024-11-06,2024-11-06,株式会社なごみ,,株式会社,静岡県,浜松市中央区,大島町１５３０番地,,22,138,4313112,,,,,,,2024-11-06,1,,,,,ナゴミ,0
957,4120003027818,新規,0,2024-11-06,2024-11-06,天青ミュージアム合同会社,,合同会社,大阪府,大阪市城東区,鴫野西２丁目１０番２７‐９０３,,27,118,5360014,,,,,,,2024-11-06,1,,,,,テンセイミュージアム,0
958,4120003027917,新規,0,2024-11-06,2024-11-06,合同会社白土整骨院,,合同会社,大阪府,大阪市中央区,平野町２丁目２－１２,,27,128,5410046,,,,,,,2024-11-06,1,,,,,シラツチセイコツイン,0
961,4120101070546,新規,0,2024-11-06,2024-11-06,株式会社仁工房,,株式会社,大阪府,高石市,綾園２丁目６－３２,,27,225,5920014,,,,,,,2024-11-06,1,,,,,ジンコウボウ,0
967,4122003003030,新規,0,2024-11-06,2024-11-06,合同会社Ｍａｌａｍａ,,合同会社,大阪府,柏原市,古町１丁目５番３号,,27,221,5820008,,,,,,,2024-11-06,1,,,,,マラマ,0
973,4140001136338,新規,0,2024-11-06,2024-11-06,Ａｙｕｄａ株式会社,,株式会社,兵庫県,明石市,魚住町住吉３丁目１２９１番地の１,,28,203,6740083,,,,,,,2024-11-06,1,,,,,アジューダ,0
977,4150001027643,新規,0,2024-11-06,2024-11-06,株式会社ＩＤ‐ｆｏｏｄｓ,,株式会社,奈良県,奈良市,下三条町４４番地,,29,201,6308236,,,,,,,2024-11-06,1,,,,,アイディーフーズ,0
979,4150003003411,新規,0,2024-11-06,2024-11-06,あすか企画合同会社,,合同会社,奈良県,高市郡明日香村,大字真弓１６０４番地の２,,29,402,6340137,,,,,,,2024-11-06,1,,,,,アスカキカク,0
982,4160001026322,新規,0,2024-11-06,2024-11-06,株式会社ラーメン大学都,,株式会社,滋賀県,長浜市,南呉服町９番１１号,,25,203,5260058,,,,,,,2024-11-06,1,,,,,ラーメンダイガクミヤコ,0
983,4160001026339,新規,0,2024-11-06,2024-11-06,株式会社Ｂ‐ＷＥＳＴ,,株式会社,滋賀県,大津市,坂本７丁目２３－２４,,25,201,5200113,,,,,,,2024-11-06,1,,,,,ビーウェスト,0
996,4180001163964,新規,0,2024-11-06,2024-11-06,ＤＲＥＡＭＳＷＡＹ株式会社,,株式会社,愛知県,名古屋市緑区,若田３丁目１０６番地－１０３号室,,23,114,4580034,,,,,,,2024-11-06,1,,,,,ドリームズウェイ,0
997,4180001163997,新規,0,2024-11-06,2024-11-06,未来都市企画株式会社,,株式会社,愛知県,北名古屋市,西之保光明田１４４番地,,23,234,4810033,,,,,,,2024-11-06,1,,,,,ミライトシキカク,0
1005,4180301039195,新規,0,2024-11-06,2024-11-06,株式会社ｂｅ　ｈｅｒｏｉｎｅ．,,株式会社,愛知県,知立市,山屋敷町富士塚１２番地２０,,23,225,4720022,,,,,,,2024-11-06,1,,,,,ビーヒロイン,0
1007,4190001031773,新規,0,2024-11-06,2024-11-06,株式会社ＴＬＳ,,株式会社,三重県,松阪市,舞出町５５７番地,,24,204,5152107,,,,,,,2024-11-06,1,,,,,ティーエルエス,0
1008,4190001031781,新規,0,2024-11-06,2024-11-06,株式会社丸宏庭園管理,,株式会社,三重県,四日市市,西山町７４２９番地,,24,202,5121103,,,,,,,2024-11-06,1,,,,,マルヒロテイエンカンリ,0
1010,4200001043098,新規,0,2024-11-06,2024-11-06,株式会社広瀬土建,,株式会社,岐阜県,羽島市,小熊町内粟野６１４２番地１,,21,209,5016262,,,,,,,2024-11-06,1,,,,,ヒロセドケン,0
1023,4250001020885,新規,0,2024-11-06,2024-11-06,株式会社ＣＯＣＯＣＬＡＳＳ,,株式会社,山口県,山口市,大内御堀６丁目２番１４号,,35,203,7530214,,,,,,,2024-11-06,1,,,,,ココクラス,0
1032,4290001107836,新規,0,2024-11-06,2024-11-06,株式会社Ｇ‐ｂｅｒｒｉｅｓ,,株式会社,福岡県,三潴郡大木町,大字蛭池１１４６番地,,40,522,8300411,,,,,,,2024-11-06,1,,,,,ジーベリーズ,0
1033,4290001107860,新規,0,2024-11-06,2024-11-06,株式会社Ｓａｉｌ　ａｗａｙ,,株式会社,福岡県,福岡市中央区,天神１丁目９番１７号福岡天神フコク生命ビル１５階,,40,133,8100001,,,,,,,2024-11-06,1,,,,,セイルアウェイ,0
1034,4290001107869,新規,0,2024-11-06,2024-11-06,株式会社燕商事,,株式会社,福岡県,福岡市博多区,美野島２丁目２番１号,,40,132,8120017,,,,,,,2024-11-06,1,,,,,ツバメショウジ,0
1035,4290001107910,新規,0,2024-11-06,2024-11-06,株式会社九拓クリーンサービス,,株式会社,福岡県,嘉麻市,平８３番地,,40,227,8200203,,,,,,,2024-11-06,1,,,,,キュウタククリーンサービス,0
1039,4290003016028,新規,0,2024-11-06,2024-11-06,合同会社ＭＩＡ,,合同会社,福岡県,福岡市南区,寺塚２丁目２６番１９－３０４号ヒルクレスト寺塚,,40,134,8150074,,,,,,,2024-11-06,1,,,,,ミア,0
1044,4290801031013,新規,0,2024-11-06,2024-11-06,株式会社Ｏｍｏｔｅｎａｓｈｉ,,株式会社,福岡県,北九州市門司区,中町５番２８－５０５号,,40,101,8000039,,,,,,,2024-11-06,1,,,,,オモテナシ,0
1048,4310001019310,新規,0,2024-11-06,2024-11-06,株式会社アートハウス,,株式会社,長崎県,西彼杵郡時津町,西時津郷９１２番地８,,42,308,8512101,,,,,,,2024-11-06,1,,,,,アートハウス,0
1049,4320001020787,新規,0,2024-11-06,2024-11-06,株式会社ＩＰフードサービス,,株式会社,大分県,日田市,若宮町４４０番地１,,44,204,8770037,,,,,,,2024-11-06,1,,,,,アイピーフードサービス,0
1050,4330001032617,新規,0,2024-11-06,2024-11-06,株式会社ＷＡＲＡＫＵＲＵ,,株式会社,熊本県,熊本市中央区,帯山２丁目１４番３７－２０５号,,43,101,8620924,,,,,,,2024-11-06,1,,,,,ワラクル,0
1051,4340001026907,新規,0,2024-11-06,2024-11-06,株式会社Ｙｏｕｒ　ｅａｒｔｈ　ｓｔａｎｄａｒｄ,,株式会社,鹿児島県,霧島市,溝辺町麓２丁目７番,,46,218,8996404,,,,,,,2024-11-06,1,,,,,ユアアーススタンダード,0
1052,4340005009783,新規,0,2024-11-06,2024-11-06,一般社団法人ことこのもへじ,,その他の設立登記法人,鹿児島県,鹿児島市,星ヶ峯２丁目４７番１号,,46,201,8910102,,,,,,,2024-11-06,1,,,,,コトコノモヘジ,0
1053,4350003004777,新規,0,2024-11-06,2024-11-06,合同会社モナ,,合同会社,宮崎県,都城市,梅北町６３７６番地１,,45,202,8850063,,,,,,,2024-11-06,1,,,,,モナ,0
1057,4360003014437,新規,0,2024-11-06,2024-11-06,合同会社ルリアン,,合同会社,沖縄県,沖縄市,海邦１丁目１４番１７号Ａ－３４,,47,211,9042162,,,,,,,2024-11-06,1,,,,,ルリアン,0
1060,4370003006796,新規,0,2024-11-06,2024-11-06,合同会社ギフセット,,合同会社,宮城県,栗原市,若柳字川南南町１１２,,04,213,9895502,,,,,,,2024-11-06,1,,,,,ギフセット,0
1064,4410003004003,新規,0,2024-11-06,2024-11-06,合同会社あかでみあーと,,合同会社,秋田県,秋田市,広面字蓮沼４４番地２,00136901,05,201,0100041,,,,,,,2024-11-06,1,,,,,アカデミアート,0
1073,4430001092989,新規,0,2024-11-06,2024-11-06,クレール株式会社,,株式会社,北海道,苫小牧市,小糸井町１丁目６番２３号,,01,213,0530813,,,,,,,2024-11-06,1,,,,,クレール,0
1074,4430001093005,新規,0,2024-11-06,2024-11-06,株式会社ｏｎｅ　ｐａｒｋ,,株式会社,北海道,札幌市中央区,南七条西８丁目１番１１号ローレル７・８,,01,101,0640807,,,,,,,2024-11-06,1,,,,,ワンパーク,0
1075,4430003016962,新規,0,2024-11-06,2024-11-06,合同会社Ｙ’ｓ　Ａｓｓｅｔ　Ｍａｎａｇｅｍｅｎｔ,,合同会社,北海道,札幌市中央区,北二条東７丁目８２番地,,01,101,0600032,,,,,,,2024-11-06,1,,,,,ワイズアセットマネージメント,0
1076,4430003016970,新規,0,2024-11-06,2024-11-06,合同会社インフィニス,,合同会社,北海道,札幌市中央区,南十一条西７丁目１０４６番地６タカラビル３０７,,01,101,0640811,,,,,,,2024-11-06,1,,,,,インフィニス,0
1078,4470001020450,新規,0,2024-11-06,2024-11-06,株式会社ＵＮＳＣＡＬＥ,,株式会社,香川県,高松市,西ハゼ町２８４番地１,,37,201,7618053,,,,,,,2024-11-06,1,,,,,アンスケール,0
1081,4500001025982,新規,0,2024-11-06,2024-11-06,株式会社ぴーす,,株式会社,愛媛県,松山市,三番町５丁目５番地１０和泉ビル３０２号,,38,201,7900003,,,,,,,2024-11-06,1,,,,,ピース,0
1083,5010001249606,新規,0,2024-11-06,2024-11-06,株式会社デコポン,,株式会社,東京都,千代田区,丸の内２丁目２番１号岸本ビル７階,,13,101,1000005,,,,,,,2024-11-06,1,,,,,デコポン,0
1084,5010001249622,新規,0,2024-11-06,2024-11-06,クリエイトキャピタル株式会社,,株式会社,東京都,千代田区,丸の内２丁目２番１号,,13,101,1000005,,,,,,,2024-11-06,1,,,,,クリエイトキャピタル,0
1085,5010001249630,新規,0,2024-11-06,2024-11-06,株式会社船井総研ＦＡＳ分割準備会社,,株式会社,東京都,中央区,八重洲２丁目２番１号,,13,102,1040028,,,,,,,2024-11-06,1,,,,,フナイソウケンファスブンカツジュンビガイシャ,0
1088,5010003045326,新規,0,2024-11-06,2024-11-06,合同会社Ｓｅｐｔ　Ｂｒａｎｄ,,合同会社,東京都,中央区,銀座１丁目２２番１１号銀座大竹ビジデンス２Ｆ,,13,102,1040061,,,,,,,2024-11-06,1,,,,,セットブランド,0
1089,5010003045391,新規,0,2024-11-06,2024-11-06,Ｂ９　Ｊａｐａｎ合同会社,,合同会社,東京都,中央区,銀座４丁目１４番１１号七十七銀座ビル８階,,13,102,1040061,,,,,,,2024-11-06,1,,,,,ビーナインジャパン,0
1090,5010003045400,新規,0,2024-11-06,2024-11-06,合同会社なぎさオートミール,,合同会社,東京都,中央区,日本橋人形町２丁目２番９号,,13,102,1030013,,,,,,,2024-11-06,1,,,,,ナギサオートミール,0
1112,5010401186102,新規,0,2024-11-06,2024-11-06,株式会社ＧＲＯＷＳＰＯＴ,,株式会社,東京都,港区,南青山４丁目１８－２１－１１２,,13,103,1070062,,,,,,,2024-11-06,1,,,,,グロウスポット,0
1113,5010401186226,新規,0,2024-11-06,2024-11-06,株式会社ＲＩＯＴ,,株式会社,東京都,港区,赤坂６丁目１４番３号近文ビル５階,,13,103,1070052,,,,,,,2024-11-06,1,,,,,ライオット,0
1117,5010601066211,新規,0,2024-11-06,2024-11-06,ＳＥＩＫＡ　ＷＯＲＫＳ株式会社,,株式会社,東京都,江東区,亀戸９丁目３５－６,,13,108,1360071,,,,,,,2024-11-06,1,,,,,セイカワークス,0
1118,5010601066228,新規,0,2024-11-06,2024-11-06,株式会社ＮＩＳ,,株式会社,東京都,江東区,豊洲３丁目６－８－１１２２,,13,108,1350061,,,,,,,2024-11-06,1,,,,,エヌアイエス,0
1120,5010703007427,新規,0,2024-11-06,2024-11-06,合同会社キャパシテックジャパン,,合同会社,東京都,品川区,八潮５丁目３番１１－１０４号,,13,109,1400003,,,,,,,2024-11-06,1,,,,,キャパシテックジャパン,0
1127,5010901056259,新規,0,2024-11-06,2024-11-06,株式会社オフィスノエル,,株式会社,東京都,世田谷区,等々力４丁目２４－３,,13,112,1580082,,,,,,,2024-11-06,1,,,,,オフィスノエル,0
1129,5010903009470,新規,0,2024-11-06,2024-11-06,ミューズコンサルティング合同会社,,合同会社,東京都,世田谷区,赤堤１丁目２５番９号,,13,112,1560044,,,,,,,2024-11-06,1,,,,,ミューズコンサルティング,0
1130,5010905004692,新規,0,2024-11-06,2024-11-06,一般社団法人ドゥイブス評議会,,その他の設立登記法人,東京都,世田谷区,宮坂３丁目２０番１９号,,13,112,1560051,,,,,,,2024-11-06,1,,,,,ドゥイブスヒョウギカイ,0
1137,5011001165578,新規,0,2024-11-06,2024-11-06,株式会社Ｕｎｉｃｕｍ,,株式会社,東京都,渋谷区,恵比寿南１丁目１番１号ヒューマックス恵比寿ビル８階,,13,113,1500022,,,,,,,2024-11-06,1,,,,,ウニクム,0
1138,5011001165594,新規,0,2024-11-06,2024-11-06,株式会社ＦＪパートナーズ,,株式会社,東京都,渋谷区,宇田川町３６番６号ワールド宇田川ビル７Ｆ,,13,113,1500042,,,,,,,2024-11-06,1,,,,,エフジェーパートナーズ,0
1139,5011001165743,新規,0,2024-11-06,2024-11-06,ＭＡＫＩ　ＰＬＡＮＥＴＳ株式会社,,株式会社,東京都,渋谷区,恵比寿西１丁目８－８,,13,113,1500021,,,,,,,2024-11-06,1,,,,,マキプラネッツ,0
1140,5011003020285,新規,0,2024-11-06,2024-11-06,ウエスト・フィールド合同会社,,合同会社,東京都,渋谷区,道玄坂１丁目１０番８号渋谷道玄坂東急ビル２Ｆ－Ｃ,,13,113,1500043,,,,,,,2024-11-06,1,,,,,ウエストフィールド,0
1141,5011003020302,新規,0,2024-11-06,2024-11-06,おにぎり合同会社,,合同会社,東京都,目黒区,原町１丁目２４番２号,,13,110,1520011,,,,,,,2024-11-06,1,,,,,オニギリ,0
1143,5011101109443,新規,0,2024-11-06,2024-11-06,株式会社Ｖｉ‐Ｃｈｅ,,株式会社,東京都,新宿区,下落合３丁目２－１６,,13,104,1610033,,,,,,,2024-11-06,1,,,,,ヴィーチェ,0
1144,5011201025904,新規,0,2024-11-06,2024-11-06,ツカサドルフィンテクノロジーズ株式会社,,株式会社,東京都,中野区,本町６丁目２７番１２号,,13,114,1640012,,,,,,,2024-11-06,1,,,,,ツカサドルフィンテクノロジーズ,0
1147,5011301030143,新規,0,2024-11-06,2024-11-06,株式会社アロットオブリンゴス,,株式会社,東京都,杉並区,松ノ木１丁目１番２２号ハイツスワン１０２,,13,115,1660014,,,,,,,2024-11-06,1,,,,,アロットオブリンゴス,0
1149,5011603004497,新規,0,2024-11-06,2024-11-06,保健師ｏｆｆｉｃｅ　Ｃｈｅｅｒ　ＵＰ合同会社,,合同会社,東京都,練馬区,北町７丁目４－２４,,13,120,1790081,,,,,,,2024-11-06,1,,,,,ホケンシオフィスチアアップ,0
1158,5012401042433,新規,0,2024-11-06,2024-11-06,セルマ株式会社,,株式会社,東京都,三鷹市,上連雀２丁目１５番２５号,,13,204,1810012,,,,,,,2024-11-06,1,,,,,セルマ,0
1159,5012401042441,新規,0,2024-11-06,2024-11-06,株式会社ＢＥＲＩＣＨ,,株式会社,東京都,多摩市,和田２０００番地１２号,,13,224,2060001,,,,,,,2024-11-06,1,,,,,ベリッチ,0
1180,5030003025417,新規,0,2024-11-06,2024-11-06,合同会社アシスト,,合同会社,埼玉県,さいたま市大宮区,桜木町１丁目２６６番地３シンワＫＩビル２Ｆ－５Ｆ,,11,103,3300854,,,,,,,2024-11-06,1,,,,,アシスト,0
1194,5040003026091,新規,0,2024-11-06,2024-11-06,合同会社まてばしい,,合同会社,千葉県,船橋市,習志野台２丁目４５番４号,,12,204,2740063,,,,,,,2024-11-06,1,,,,,マテバシイ,0
1195,5040003026125,新規,0,2024-11-06,2024-11-06,合同会社ＳＥＬＴＥＥＭ,,合同会社,千葉県,袖ケ浦市,長浦駅前８丁目３番地７,,12,229,2990246,,,,,,,2024-11-06,1,,,,,セルティーム,0
1196,5050001055645,新規,0,2024-11-06,2024-11-06,株式会社高橋制御,,株式会社,茨城県,古河市,雷電町１２番８号,,08,204,3060004,,,,,,,2024-11-06,1,,,,,タカハシセイギョ,0
1197,5060001037626,新規,0,2024-11-06,2024-11-06,ＺＥＲＯ　ＳＥＣＵＲＩＴＹ株式会社,,株式会社,栃木県,宇都宮市,双葉１丁目１１番５号宇電工ビル２Ｆ,,09,201,3210164,,,,,,,2024-11-06,1,,,,,ゼロセキュリティ,0
1198,5070001042328,新規,0,2024-11-06,2024-11-06,株式会社藤設備機工,,株式会社,群馬県,みどり市,笠懸町阿左美５０９番地５,,10,212,3792311,,,,,,,2024-11-06,1,,,,,フジセツビキコウ,0
1199,5070001042336,新規,0,2024-11-06,2024-11-06,Ｄｅａｉ　Ｓｏｓｈｉｔｅ　Ｍｉｒａｉｅ株式会社,,株式会社,群馬県,高崎市,下之城町５８４番地７０,,10,202,3700854,,,,,,,2024-11-06,1,,,,,デアイソシテミライエ,0
1200,5080001026577,新規,0,2024-11-06,2024-11-06,株式会社ライズ,,株式会社,静岡県,静岡市葵区,城北２丁目２番１９号伊藤ビル１０４,,22,101,4200805,,,,,,,2024-11-06,1,,,,,ライズ,0
1228,5120001269956,新規,0,2024-11-06,2024-11-06,新代株式会社,,株式会社,大阪府,大阪市中央区,内本町２丁目３－１１内本町グリーンビル７Ｆ,,27,128,5400026,,,,,,,2024-11-06,1,,,,,シンダイ,0
1229,5120001269972,新規,0,2024-11-06,2024-11-06,ブラスリング株式会社,,株式会社,大阪府,大阪市淀川区,宮原４丁目１番４６号新大阪北ビル８０２号室,,27,123,5320003,,,,,,,2024-11-06,1,,,,,ブラスリング,0
1230,5120001270022,新規,0,2024-11-06,2024-11-06,株式会社テックネクスト,,株式会社,大阪府,大阪市西区,西本町１丁目５番２０号サーミー本町ビル５階,,27,106,5500005,,,,,,,2024-11-06,1,,,,,テックネクスト,0
1231,5120001270030,新規,0,2024-11-06,2024-11-06,株式会社Ｔｒａｎｓ　Ｉｎ,,株式会社,大阪府,大阪市東住吉区,中野１丁目４番１号,,27,121,5460012,,,,,,,2024-11-06,1,,,,,トランスイン,0
1239,5120101070545,新規,0,2024-11-06,2024-11-06,クロスエスト株式会社,,株式会社,大阪府,南河内郡太子町,大字山田６２番地の１０,,27,381,5830992,,,,,,,2024-11-06,1,,,,,クロスエスト,0
1246,5120901049978,新規,0,2024-11-06,2024-11-06,株式会社Ｍｉｄｄｌｅ　Ｆｌａｔ　Ｌａｂ,,株式会社,大阪府,茨木市,北春日丘２丁目１９番１０号,,27,211,5670048,,,,,,,2024-11-06,1,,,,,ミドルフラットラボ,0
1252,5130001078290,新規,0,2024-11-06,2024-11-06,株式会社バウンスバック,,株式会社,京都府,京都市南区,吉祥院菅原町２７番地,,26,107,6018336,,,,,,,2024-11-06,1,,,,,バウンスバック,0
1257,5130005017229,新規,0,2024-11-06,2024-11-06,特定非営利活動法人Ｌｅｇａｒｅ,,その他の設立登記法人,京都府,京都市伏見区,日野畑出町３８番地９,,26,109,6011412,,,,,,,2024-11-06,1,,,,,レガーレ,0
1258,5140001136312,新規,0,2024-11-06,2024-11-06,株式会社カワカミ,,株式会社,兵庫県,丹波市,山南町北和田１０５３番地５,,28,223,6693152,,,,,,,2024-11-06,1,,,,,カワカミ,0
1259,5140001136353,新規,0,2024-11-06,2024-11-06,株式会社チームユノケイ,,株式会社,兵庫県,宝塚市,栄町１丁目１３－９－１０３,,28,214,6650845,,,,,,,2024-11-06,1,,,,,チームユノケイ,0
1260,5140003021280,新規,0,2024-11-06,2024-11-06,合同会社心,,合同会社,兵庫県,尼崎市,南武庫之荘４丁目６番２０号,,28,202,6610033,,,,,,,2024-11-06,1,,,,,シン,0
1261,5140003021289,新規,0,2024-11-06,2024-11-06,Ｍマート合同会社,,合同会社,兵庫県,神戸市長田区,五番町３丁目７番地の１市住３３－６０６号,,28,106,6530003,,,,,,,2024-11-06,1,,,,,エムマート,0
1265,5150003003410,新規,0,2024-11-06,2024-11-06,Ｅｔｅｒｎａｌ　Ｒｅｔｕｒｎ合同会社,,合同会社,奈良県,生駒市,鹿ノ台北３丁目１１番地２０,,29,209,6300111,,,,,,,2024-11-06,1,,,,,エターナルリターン,0
1266,5160001026321,新規,0,2024-11-06,2024-11-06,株式会社土井ポンプ店,,株式会社,滋賀県,高島市,新旭町熊野本１丁目１４番地１２,,25,212,5201532,,,,,,,2024-11-06,1,,,,,ドイポンプテン,0
1280,5180003027571,新規,0,2024-11-06,2024-11-06,合同会社ＹＭＤ,,合同会社,愛知県,知多郡阿久比町,大字卯坂字小曽ケ脇１３４番地,,23,441,4702212,,,,,,,2024-11-06,1,,,,,ワイエムディー,0
1283,5180301039194,新規,0,2024-11-06,2024-11-06,株式会社ヒーリング・サポート,,株式会社,愛知県,岡崎市,東蔵前町字五反畑８４番地４,,23,202,4442146,,,,,,,2024-11-06,1,,,,,ヒーリングサポート,0
1284,5190001031772,新規,0,2024-11-06,2024-11-06,株式会社堀断熱,,株式会社,三重県,伊勢市,小俣町明野４７８番地７,,24,203,5190501,,,,,,,2024-11-06,1,,,,,ホリダンネツ,0
1285,5190001031780,新規,0,2024-11-06,2024-11-06,株式会社タニガワ建設,,株式会社,三重県,四日市市,塩浜本町１丁目９５番地１塩浜駅前マンション４０１,,24,202,5100854,,,,,,,2024-11-06,1,,,,,タニガワケンセツ,0
1286,5190003004850,新規,0,2024-11-06,2024-11-06,合同会社Ｐａｂｌｏ,,合同会社,三重県,四日市市,諏訪栄町１０番１６号,,24,202,5100086,,,,,,,2024-11-06,1,,,,,パブロ,0
1294,5230001020606,新規,0,2024-11-06,2024-11-06,株式会社改王リフォーム,,株式会社,富山県,射水市,赤井１１５番地１,,16,211,9390287,,,,,,,2024-11-06,1,,,,,カイオウリフォーム,0
1302,5240001064065,新規,0,2024-11-06,2024-11-06,いちご企画株式会社,,株式会社,広島県,福山市,加茂町下加茂７６９番地１１,,34,207,7210000,,,,,,,2024-11-06,1,,,,,イチゴキカク,0
1303,5240001064073,新規,0,2024-11-06,2024-11-06,株式会社フォルスシッピング,,株式会社,広島県,広島市南区,比治山町７番２８－１号,,34,103,7320817,,,,,,,2024-11-06,1,,,,,フォルスシッピング,0
1309,5270001009083,新規,0,2024-11-06,2024-11-06,株式会社Ｓ　ＩＮＦＩＮＩＴＹ,,株式会社,鳥取県,米子市,万能町１７７番地　パワービル２階,,31,202,6830065,,,,,,,2024-11-06,1,,,,,エスインフィニティ,0
1311,5280005007628,新規,0,2024-11-06,2024-11-06,一般社団法人隠岐まちづくり研究所,,その他の設立登記法人,島根県,隠岐郡隠岐の島町,西町八尾の一５番地３,,32,528,6850014,,,,,,,2024-11-06,1,,,,,オキマチヅクリケンキュウショ,0
1315,5290001107843,新規,0,2024-11-06,2024-11-06,株式会社Ｂｅ,,株式会社,福岡県,古賀市,花見東１丁目８番１－５０３号,,40,223,8113112,,,,,,,2024-11-06,1,,,,,ビーイー,0
1316,5290001107868,新規,0,2024-11-06,2024-11-06,株式会社ライジング,,株式会社,福岡県,福岡市博多区,博多駅南２丁目７番１５号,,40,132,8120016,,,,,,,2024-11-06,1,,,,,ライジング,0
1321,5290801031004,新規,0,2024-11-06,2024-11-06,株式会社アイベース,,株式会社,福岡県,北九州市八幡東区,諏訪１丁目２番５ー１号,,40,108,8050006,,,,,,,2024-11-06,1,,,,,アイベース,0
1322,5290801031012,新規,0,2024-11-06,2024-11-06,株式会社オーガスタ,,株式会社,福岡県,北九州市小倉北区,香春口１丁目２－１１－２０１,,40,106,8020084,,,,,,,2024-11-06,1,,,,,オーガスタ,0
1324,5300001013957,新規,0,2024-11-06,2024-11-06,株式会社Ｆ　ｔｏ　Ｃ,,株式会社,佐賀県,唐津市,浜玉町横田上７７２番地１２,,41,202,8495121,,,,,,,2024-11-06,1,,,,,エフトゥーシー,0
1332,5330001032616,新規,0,2024-11-06,2024-11-06,株式会社白龍建設,,株式会社,熊本県,八代郡氷川町,高塚１８６４番地３,,43,468,8694802,,,,,,,2024-11-06,1,,,,,ハクリュウケンセツ,0
1335,5350001019264,新規,0,2024-11-06,2024-11-06,株式会社設備サービス,,株式会社,宮崎県,宮崎市,大島町野田２１２３番地４,,45,201,8800824,,,,,,,2024-11-06,1,,,,,セツビサービス,0
1337,5360001034394,新規,0,2024-11-06,2024-11-06,株式会社ガレージムゲン,,株式会社,沖縄県,うるま市,字塩屋２８４番地６,,47,213,9042231,,,,,,,2024-11-06,1,,,,,ガレージムゲン,0
1344,5410001013979,新規,0,2024-11-06,2024-11-06,株式会社Ａｇｒｉ‐ｅ,,株式会社,秋田県,仙北郡美郷町,六郷東根字上中村２７番地,,05,434,0191403,,,,,,,2024-11-06,1,,,,,アグリイー,0
1345,5410001013987,新規,0,2024-11-06,2024-11-06,株式会社Ｒｅｎｏｎ,,株式会社,秋田県,秋田市,山王中島町７番３０号,,05,201,0100955,,,,,,,2024-11-06,1,,,,,レノン,0
1351,5430001092988,新規,0,2024-11-06,2024-11-06,田村商事株式会社,,株式会社,北海道,札幌市中央区,南一条西２２丁目２番２１号,,01,101,0640801,,,,,,,2024-11-06,1,,,,,タムラショウジ,0
1352,5430001093012,新規,0,2024-11-06,2024-11-06,株式会社北日本創建,,株式会社,北海道,札幌市南区,藤野二条１３丁目２番１５号,,01,106,0612282,,,,,,,2024-11-06,1,,,,,キタニホンソウケン,0
1353,5430001093020,新規,0,2024-11-06,2024-11-06,株式会社ＧＬＯ,,株式会社,北海道,札幌市中央区,南五条東２丁目１３－１セントポーリアスィート１１０２号,,01,101,0600055,,,,,,,2024-11-06,1,,,,,ジーエルオー,0
1354,5430003016929,新規,0,2024-11-06,2024-11-06,Ｈｏｋｋａｉｄｏ　Ａｄｖｉｓｏｒｙ合同会社,,合同会社,北海道,札幌市中央区,北十条西１５丁目１番地５７ブランズ札幌桑園駅前ウエスト１３０１号,,01,101,0600010,,,,,,,2024-11-06,1,,,,,ホッカイドウアドバイザリー,0
1355,5430003016953,新規,0,2024-11-06,2024-11-06,合同会社ＢＨ,,合同会社,北海道,恵庭市,島松東町２丁目９番７号,,01,231,0611351,,,,,,,2024-11-06,1,,,,,ビーエイチ,0
1356,5430003016961,新規,0,2024-11-06,2024-11-06,隅っこグローバル合同会社,,合同会社,北海道,札幌市中央区,北一条西１８丁目２－１アートサイドテラス８０７号室,,01,101,0600001,,,,,,,2024-11-06,1,,,,,スミッコグローバル,0
1358,5430005015103,新規,0,2024-11-06,2024-11-06,一般社団法人北海道バレーボール協会,,その他の設立登記法人,北海道,札幌市豊平区,豊平五条１１丁目１番１号北海道立総合体育センター内,,01,105,0620905,,,,,,,2024-11-06,1,,,,,ホッカイドウバレーボールキョウカイ,0
1366,6010001249596,新規,0,2024-11-06,2024-11-06,偕成再開発株式会社,,株式会社,東京都,中央区,日本橋兜町１３番２号,,13,102,1030026,,,,,,,2024-11-06,1,,,,,カイセイサイカイハツ,0
1367,6010001249613,新規,0,2024-11-06,2024-11-06,ＤＣＩＰ３株式会社,,株式会社,東京都,千代田区,丸の内１丁目９番１号,,13,101,1000005,,,,,,,2024-11-06,1,,,,,ディーシーアイピースリー,0
1368,6010001249621,新規,0,2024-11-06,2024-11-06,泰安商事株式会社,,株式会社,東京都,文京区,白山１丁目６番４－２０９号,,13,105,1130001,,,,,,,2024-11-06,1,,,,,タイアンショウジ,0
1369,6010001249712,新規,0,2024-11-06,2024-11-06,株式会社カーボンクライオキャプチャー,,株式会社,東京都,中央区,築地１丁目１２－２２コンワビル２階,,13,102,1040045,,,,,,,2024-11-06,1,,,,,カーボンクライオキャプチャー,0
1371,6010003045382,新規,0,2024-11-06,2024-11-06,デュポン・ジャパン・ホールディング合同会社,,合同会社,東京都,千代田区,永田町２丁目１１番１号,,13,101,1000014,,,,,,,2024-11-06,1,,,,,デュポンジャパンホールディング,0
1372,6010003045390,新規,0,2024-11-06,2024-11-06,Ｂ８　Ｊａｐａｎ合同会社,,合同会社,東京都,中央区,銀座４丁目１４番１１号七十七銀座ビル８階,,13,102,1040061,,,,,,,2024-11-06,1,,,,,ビーエイトジャパン,0
1394,6010403033730,新規,0,2024-11-06,2024-11-06,合同会社Ｐｒｏｊｅｃｔｉｏｎ,,合同会社,東京都,港区,南青山２丁目２番１５号,,13,103,1070062,,,,,,,2024-11-06,1,,,,,プロジェクション,0
1401,6010601066210,新規,0,2024-11-06,2024-11-06,株式会社Ｒｏｏｔｓ,,株式会社,東京都,墨田区,両国２丁目１７番１７号両国ダイヤハイツ２０２－１１号室,,13,107,1300026,,,,,,,2024-11-06,1,,,,,ルーツ,0
1402,6010601066227,新規,0,2024-11-06,2024-11-06,株式会社ＳＥＡ,,株式会社,東京都,墨田区,江東橋２丁目６－６－６０１,,13,107,1300022,,,,,,,2024-11-06,1,,,,,エスイーエー,0
1403,6010601066235,新規,0,2024-11-06,2024-11-06,株式会社鼎談社,,株式会社,東京都,江東区,有明１丁目５－２,,13,108,1350063,,,,,,,2024-11-06,1,,,,,テイダンシャ,0
1408,6010701046789,新規,0,2024-11-06,2024-11-06,株式会社ＢＡＮＤＯ８,,株式会社,東京都,品川区,西五反田６丁目２２番１１号西五反田ハイム１Ｆ,,13,109,1410031,,,,,,,2024-11-06,1,,,,,バンドエイト,0
1411,6010803005156,新規,0,2024-11-06,2024-11-06,合同会社Ｋ＆Ｓ,,合同会社,東京都,大田区,南六郷１丁目３番８号,,13,111,1440045,,,,,,,2024-11-06,1,,,,,ケーアンドエス,0
1419,6010905004691,新規,0,2024-11-06,2024-11-06,一般社団法人ＩＺＵＭＩ　ＤＲＥＡＭ　ＦＬＡＴ,,その他の設立登記法人,東京都,世田谷区,下馬１丁目２９番８号,,13,112,1540002,,,,,,,2024-11-06,1,,,,,イズミドリームフラット,0
1422,6011001165560,新規,0,2024-11-06,2024-11-06,株式会社Ｈｅｎｙｏｈ,,株式会社,東京都,渋谷区,道玄坂１丁目１０番８号渋谷道玄坂東急ビル２Ｆ－Ｃ,,13,113,1500043,,,,,,,2024-11-06,1,,,,,ヘンヨー,0
1423,6011001165585,新規,0,2024-11-06,2024-11-06,株式会社ＮＡＴＡＥＳ　Ｊａｐａｎ,,株式会社,東京都,渋谷区,渋谷２丁目１９番１９号ワコー宮益坂ビル５階,,13,113,1500002,,,,,,,2024-11-06,1,,,,,ナタイーエスジャパン,0
1424,6011001165593,新規,0,2024-11-06,2024-11-06,株式会社２Ｄ　Ｐｒｏｄｕｃｔｉｏｎ,,株式会社,東京都,渋谷区,恵比寿４丁目２０－３恵比寿ガーデンプレイスタワー１８階,,13,113,1500013,,,,,,,2024-11-06,1,,,,,ツーディープロダクション,0
1425,6011001165602,新規,0,2024-11-06,2024-11-06,株式会社ＯＨＡＫＯ　ＳＥＬＥＣＴＳ,,株式会社,東京都,目黒区,東山３丁目１番１９－４０３号,,13,110,1530043,,,,,,,2024-11-06,1,,,,,オハコセレクツ,0
1426,6011001165750,新規,0,2024-11-06,2024-11-06,株式会社ｓｅｎｚｕｉ,,株式会社,東京都,渋谷区,道玄坂１丁目１０番８号渋谷道玄坂東急ビル２Ｆ―Ｃ,,13,113,1500043,,,,,,,2024-11-06,1,,,,,センズイ,0
1427,6011003020292,新規,0,2024-11-06,2024-11-06,合同会社マルオレラボ,,合同会社,東京都,目黒区,中目黒３丁目６番２号中目黒ＦＳビル５Ｆ,,13,110,1530061,,,,,,,2024-11-06,1,,,,,マルオレオラボ,0
1428,6011003020301,新規,0,2024-11-06,2024-11-06,合同会社ＳＫＯ,,合同会社,東京都,渋谷区,上原２丁目２９番５－３０１号,,13,113,1510064,,,,,,,2024-11-06,1,,,,,エスケーオー,0
1432,6011101109418,新規,0,2024-11-06,2024-11-06,富士田産業株式会社,,株式会社,東京都,新宿区,西新宿４丁目１１番２０号,,13,104,1600023,,,,,,,2024-11-06,1,,,,,フジタサンギョウ,0
1436,6011203004517,新規,0,2024-11-06,2024-11-06,合同会社イルカ,,合同会社,東京都,中野区,中央１丁目６番１４号ツーウイングスサンキン３０２,,13,114,1640011,,,,,,,2024-11-06,1,,,,,イルカ,0
1442,6011503006287,新規,0,2024-11-06,2024-11-06,合同会社ＹＫ,,合同会社,東京都,荒川区,荒川２丁目５－１１ＧＴハウス２０１,,13,118,1160002,,,,,,,2024-11-06,1,,,,,ワイケー,0
1449,6012403006831,新規,0,2024-11-06,2024-11-06,ＴＩＭＥ　ＳＫＹ合同会社,,合同会社,東京都,調布市,西つつじケ丘４丁目２３番地１９－１０５号,,13,208,1820006,,,,,,,2024-11-06,1,,,,,タイムスカイ,0
1457,6013301053338,新規,0,2024-11-06,2024-11-06,富川産業株式会社,,株式会社,東京都,豊島区,南池袋３丁目１８番４０号,,13,116,1710022,,,,,,,2024-11-06,1,,,,,トミカワサンギョウ,0
1470,6021001083695,新規,0,2024-11-06,2024-11-06,株式会社匠研,,株式会社,神奈川県,藤沢市,高倉５８２番地の２４,,14,205,2520802,,,,,,,2024-11-06,1,,,,,タクケン,0
1471,6021001083704,新規,0,2024-11-06,2024-11-06,株式会社フィードワールド,,株式会社,神奈川県,厚木市,妻田東３丁目１７番１５－２号,,14,212,2430813,,,,,,,2024-11-06,1,,,,,フィードワールド,0
1473,6021003015176,新規,0,2024-11-06,2024-11-06,Ａｇｏｎ　Ｍａｎａｇｅｍｅｎｔ合同会社,,合同会社,神奈川県,相模原市中央区,氷川町２－１１,,14,152,2520215,,,,,,,2024-11-06,1,,,,,アゴンマネジメント,0
1474,6021003015184,新規,0,2024-11-06,2024-11-06,合同会社Ｓａｌｏｎ　ｄｅ　Ｅｌｅｇａｎｃｅ,,合同会社,神奈川県,海老名市,めぐみ町５番６－１９０４号,,14,215,2430438,,,,,,,2024-11-06,1,,,,,サロンドエレガンス,0
1475,6021005013178,新規,0,2024-11-06,2024-11-06,一般社団法人日本留学生保障協会,,その他の設立登記法人,神奈川県,座間市,相模が丘６丁目３３－１－６０１ライオンズ小田急相模原アクアルーナ,,14,216,2520001,,,,,,,2024-11-06,1,,,,,ニホンリュウガクセイホショウキョウカイ,0
1476,6021005013211,新規,0,2024-11-06,2024-11-06,一般社団法人ＧＲサイクリング,,その他の設立登記法人,神奈川県,厚木市,林５丁目１４番１号ネムスＩ－１０２,00136888,14,212,2430816,,,,,,,2024-11-06,1,,,,,ジーアールサイクリング,0
1482,6030001163259,新規,0,2024-11-06,2024-11-06,株式会社ＺＥＲＯ機械商事,,株式会社,埼玉県,幸手市,東１丁目１５番１４,,11,240,3400114,,,,,,,2024-11-06,1,,,,,ゼロキカイショウジ,0
1483,6030001163267,新規,0,2024-11-06,2024-11-06,株式会社Ｍａｒｉｏ,,株式会社,埼玉県,飯能市,大字笠縫３８３番地１,,11,209,3570045,,,,,,,2024-11-06,1,,,,,マリオ,0
1484,6030001163325,新規,0,2024-11-06,2024-11-06,株式会社心和屋,,株式会社,埼玉県,川口市,鳩ヶ谷本町２丁目１番４号,,11,203,3340002,,,,,,,2024-11-06,1,,,,,ココナヤ,0
1488,6030003025374,新規,0,2024-11-06,2024-11-06,合同会社スマイルパートナー,,合同会社,埼玉県,さいたま市桜区,南元宿２丁目２８番２号,,11,106,3380831,,,,,,,2024-11-06,1,,,,,スマイルパートナー,0
1489,6030003025408,新規,0,2024-11-06,2024-11-06,合同会社マルミ商事,,合同会社,埼玉県,熊谷市,平塚新田４６４番地１,,11,202,3600163,,,,,,,2024-11-06,1,,,,,マルミショウジ,0
1496,6040001135975,新規,0,2024-11-06,2024-11-06,株式会社ＫＹＯＪＵ　ＪＡＰＡＮ,,株式会社,千葉県,千葉市花見川区,南花園２丁目２－１３アーバンヴィラそうみえん２０１号室,,12,102,2620022,,,,,,,2024-11-06,1,,,,,キョウジュジャパン,0
1497,6040001136032,新規,0,2024-11-06,2024-11-06,ＰＯＲＴＥＲ　ＣＯＭＰＡＮＹ株式会社,,株式会社,千葉県,市原市,西広６丁目１３番地８,,12,219,2900022,,,,,,,2024-11-06,1,,,,,ポーターカンパニー,0
1498,6040001136057,新規,0,2024-11-06,2024-11-06,株式会社ワンウェイグループ,,株式会社,千葉県,白井市,神々廻１９１７番１,,12,232,2701416,,,,,,,2024-11-06,1,,,,,ワンウェイグループ,0
1501,6040003026108,新規,0,2024-11-06,2024-11-06,合同会社Ｙｏｓｅｍｉｔｅ,,合同会社,千葉県,千葉市稲毛区,小中台町３５３番地１レオパレスやませ２０９号,,12,103,2630044,,,,,,,2024-11-06,1,,,,,ヨセミテ,0
1502,6040003026124,新規,0,2024-11-06,2024-11-06,ＲＡ＆ＫＵ合同会社,,合同会社,千葉県,佐倉市,六崎１０７８番地１７,,12,212,2850812,,,,,,,2024-11-06,1,,,,,,0
1505,6060001037625,新規,0,2024-11-06,2024-11-06,株式会社ＨＯＰＥ,,株式会社,栃木県,下都賀郡壬生町,駅東町８番２９号,,09,361,3210222,,,,,,,2024-11-06,1,,,,,ホープ,0
1515,6080403005137,新規,0,2024-11-06,2024-11-06,合同会社坪井商店,,合同会社,静岡県,浜松市中央区,泉１丁目１２番５号,,22,138,4338124,,,,,,,2024-11-06,1,,,,,ツボイショウテン,0
1517,6100001037967,新規,0,2024-11-06,2024-11-06,株式会社ＷＡＮ,,株式会社,長野県,下伊那郡豊丘村,大字神稲３９３－５,,20,416,3993202,,,,,,,2024-11-06,1,,,,,ワン,0
1539,6120001269988,新規,0,2024-11-06,2024-11-06,株式会社ｅ‐ｆａｃｅ,,株式会社,大阪府,大阪市中央区,西心斎橋２丁目４番２号難波日興ビル７階,,27,128,5420086,,,,,,,2024-11-06,1,,,,,イーフェイス,0
1543,6120101070544,新規,0,2024-11-06,2024-11-06,株式会社ＧＯＬＤ　ＳＨＩＰ,,株式会社,大阪府,堺市中区,深井清水町３９９０プロフォンド１Ｆ,,27,142,5998273,,,,,,,2024-11-06,1,,,,,ゴールドシップ,0
1547,6122003003029,新規,0,2024-11-06,2024-11-06,合同会社ＮＡＰ,,合同会社,大阪府,東大阪市,旭町１５－９,,27,227,5798048,,,,,,,2024-11-06,1,,,,,ナップ,0
1553,6130003009986,新規,0,2024-11-06,2024-11-06,合同会社ＮＮコーポレーション,,合同会社,京都府,京都市左京区,南禅寺北ノ坊町１０番地４,,26,103,6068446,,,,,,,2024-11-06,1,,,,,エヌエヌコーポレーション,0
1561,6140001136311,新規,0,2024-11-06,2024-11-06,株式会社リシャーム,,株式会社,兵庫県,神戸市西区,北別府１丁目１３番地の１グランシャリオ西神戸Ｂ２０１号,,28,111,6512117,,,,,,,2024-11-06,1,,,,,,0
1562,6140001136352,新規,0,2024-11-06,2024-11-06,株式会社後藤興業,,株式会社,兵庫県,相生市,緑ケ丘２丁目４番２０号,,28,208,6780071,,,,,,,2024-11-06,1,,,,,ゴトウコウギョウ,0
1563,6140003021271,新規,0,2024-11-06,2024-11-06,合同会社ふどうさんの総合医,,合同会社,兵庫県,西宮市,神園町２番７０－１０８号,,28,204,6620027,,,,,,,2024-11-06,1,,,,,フドウサンノソウゴウイ,0
1564,6140003021288,新規,0,2024-11-06,2024-11-06,ウエスト合同会社,,合同会社,兵庫県,神戸市須磨区,車字道谷山２番地の１市住１－８０５号,,28,107,6540111,,,,,,,2024-11-06,1,,,,,ウエスト,0
1565,6140005027259,新規,0,2024-11-06,2024-11-06,特定非営利活動法人ゲニー,,その他の設立登記法人,兵庫県,明石市,北王子町２番８－１号,,28,203,6730021,,,,,,,2024-11-06,1,,,,,ゲニー,0
1569,6150005009636,新規,0,2024-11-06,2024-11-06,一般社団法人ならリガレーション,,その他の設立登記法人,奈良県,北葛城郡広陵町,大字百済１７７９番３,,29,426,6350813,,,,,,,2024-11-06,1,,,,,ナラリガレーション,0
1570,6160001026337,新規,0,2024-11-06,2024-11-06,株式会社ＯｎｅＳｔｅｐ,,株式会社,滋賀県,彦根市,彦富町７８２－３,,25,202,5211114,,,,,,,2024-11-06,1,,,,,ワンステップ,0
1582,6180301039202,新規,0,2024-11-06,2024-11-06,株式会社竜魅商會,,株式会社,愛知県,豊川市,伊奈町南山新田１０２番地２１,,23,207,4410105,,,,,,,2024-11-06,1,,,,,タツミショウカイ,0
1586,6190001031771,新規,0,2024-11-06,2024-11-06,株式会社ＡＲＵＧＯＤ,,株式会社,三重県,伊勢市,船江４丁目３－１,,24,203,5160008,,,,,,,2024-11-06,1,,,,,アルゴッド,0
1593,6210001019962,新規,0,2024-11-06,2024-11-06,株式会社グローアップ,,株式会社,福井県,敦賀市,木崎５５号１番地の１,,18,202,9140814,,,,,,,2024-11-06,1,,,,,グローアップ,0
1594,6220003003880,新規,0,2024-11-06,2024-11-06,合同会社おもての会計,,合同会社,石川県,金沢市,木曳野４丁目１６３番地５,,17,201,9200339,,,,,,,2024-11-06,1,,,,,オモテノカイケイ,0
1599,6230001020596,新規,0,2024-11-06,2024-11-06,株式会社よねや,,株式会社,富山県,魚津市,中央通り２丁目６番９号,,16,204,9370055,,,,,,,2024-11-06,1,,,,,ヨネヤ,0
1600,6230003002329,新規,0,2024-11-06,2024-11-06,合同会社Ｓｉｅｒｉｓ,,合同会社,富山県,富山市,北代３８２１番地１６,,16,201,9300103,,,,,,,2024-11-06,1,,,,,シエリス,0
1604,6240001064064,新規,0,2024-11-06,2024-11-06,株式会社ｔａｓｔｅｅ,,株式会社,広島県,広島市中区,橋本町９－７ビル博丈５Ｆ・８Ｆ,,34,101,7300015,,,,,,,2024-11-06,1,,,,,テイスティ,0
1607,6240005015856,新規,0,2024-11-06,2024-11-06,一般社団法人３６９ニはこぶね,,その他の設立登記法人,広島県,広島市中区,上八丁堀５番２７－１２０１号,,34,101,7300012,,,,,,,2024-11-06,1,,,,,ミロクニハコブネ,0
1609,6260001039618,新規,0,2024-11-06,2024-11-06,伊一商事株式会社,,株式会社,岡山県,岡山市東区,浅越５０４番地,,33,103,7048181,,,,,,,2024-11-06,1,,,,,イイショウジ,0
1613,6290001107842,新規,0,2024-11-06,2024-11-06,株式会社ＥＸ‐ＡＩＤ　ＲＩＤＥＲＳ,,株式会社,福岡県,那珂川市,松木１丁目１０番地コーポ宮内１Ｆ,,40,231,8111251,,,,,,,2024-11-06,1,,,,,エグゼイドライダーズ,0
1614,6290001107859,新規,0,2024-11-06,2024-11-06,株式会社みぞぐち工務店,,株式会社,福岡県,福岡市西区,野方２丁目５番８－１号マノワールＡ棟１０１号,,40,135,8190043,,,,,,,2024-11-06,1,,,,,ミゾグチコウムテン,0
1615,6290001107891,新規,0,2024-11-06,2024-11-06,小河内電器株式会社,,株式会社,福岡県,太宰府市,五条２丁目５－２０,,40,221,8180125,,,,,,,2024-11-06,1,,,,,オガウチデンキ,0
1616,6290001107909,新規,0,2024-11-06,2024-11-06,株式会社ｐｏｔｅ,,株式会社,福岡県,糸島市,志摩師吉３９番地１９,,40,230,8191314,,,,,,,2024-11-06,1,,,,,ポテ,0
1618,6290003016018,新規,0,2024-11-06,2024-11-06,合同会社ちあき,,合同会社,福岡県,福岡市博多区,博多駅南２丁目１４番２８－１２０６号,,40,132,8120016,,,,,,,2024-11-06,1,,,,,チアキ,0
1619,6290003016034,新規,0,2024-11-06,2024-11-06,合同会社学ぶ歓び研究所,,合同会社,福岡県,久留米市,藤光１丁目１５番６号,,40,203,8300057,,,,,,,2024-11-06,1,,,,,マナブヨロコビケンキュウジョ,0
1621,6290005019555,新規,0,2024-11-06,2024-11-06,一般社団法人全国事業者連盟,,その他の設立登記法人,福岡県,福岡市中央区,天神２丁目２番１２号Ｔ＆Ｊビルディング７Ｆ,,40,133,8100001,,,,,,,2024-11-06,1,,,,,ゼンコクジギョウシャレンメイ,0
1624,6290801031011,新規,0,2024-11-06,2024-11-06,株式会社イワコウチ,,株式会社,福岡県,鞍手郡鞍手町,大字新北１０６０番地１,,40,402,8071313,,,,,,,2024-11-06,1,,,,,イワコウチ,0
1626,6290803004881,新規,0,2024-11-06,2024-11-06,合同会社メイクスタディー,,合同会社,福岡県,北九州市小倉北区,日明３丁目５番２号第６廣木興産ビル１０２,,40,106,8030831,,,,,,,2024-11-06,1,,,,,メイクスタディー,0
1627,6300001013956,新規,0,2024-11-06,2024-11-06,株式会社エールコーポレーション,,株式会社,佐賀県,伊万里市,伊万里町甲７０９番地１,,41,205,8480047,,,,,,,2024-11-06,1,,,,,エールコーポレーション,0
1628,6300003002197,新規,0,2024-11-06,2024-11-06,合同会社コツコツ,,合同会社,佐賀県,佐賀市,本庄町鹿子２５６番地１アーバン栗山１０３号,,41,201,8490000,,,,,,,2024-11-06,1,,,,,コツコツ,0
1629,6310001019300,新規,0,2024-11-06,2024-11-06,株式会社ＴＳＲ,,株式会社,長崎県,長崎市,田上３丁目１８－１６,,42,201,8510251,,,,,,,2024-11-06,1,,,,,ティーエスアール,0
1632,6320001020793,新規,0,2024-11-06,2024-11-06,株式会社Ｙ・Ｕ・Ｄ,,株式会社,大分県,大分市,大字上戸次３８６７番地の６,,44,201,8797764,,,,,,,2024-11-06,1,,,,,ワイユーディー,0
1633,6320003004506,新規,0,2024-11-06,2024-11-06,合同会社安星,,合同会社,大分県,別府市,大字北石垣字竹ノ畑４７番地１,,44,202,8740000,,,,,,,2024-11-06,1,,,,,アンジョウ,0
1635,6330001032573,新規,0,2024-11-06,2024-11-06,株式会社凪,,株式会社,熊本県,熊本市中央区,黒髪４丁目４３６番地１パークヒルズ１１号室,,43,101,8600862,,,,,,,2024-11-06,1,,,,,ナギ,0
1636,6330001032615,新規,0,2024-11-06,2024-11-06,株式会社こんどうポンプ,,株式会社,熊本県,熊本市東区,尾ノ上４丁目１２番４３号アンリシールＩ１０２,00136889,43,102,8620913,,,,,,,2024-11-06,1,,,,,コンドウポンプ,0
1637,6330001032623,新規,0,2024-11-06,2024-11-06,株式会社ＨＹＮＥＸＵＳ,,株式会社,熊本県,熊本市中央区,神水２丁目２０番８号,,43,101,8620954,,,,,,,2024-11-06,1,,,,,ハイネクサス,0
1642,6350001019263,新規,0,2024-11-06,2024-11-06,株式会社Ｒｉｃｋｙ,,株式会社,宮崎県,西諸県郡高原町,大字広原４９５０番地３,,45,361,8894411,,,,,,,2024-11-06,1,,,,,,0
1644,6350005006258,新規,0,2024-11-06,2024-11-06,無限責任上小路負債整理組合,,その他の設立登記法人,宮崎県,児湯郡高鍋町,,,45,401,8840000,,,,,,,2024-11-06,1,,,,,,0
1649,6390003002305,新規,0,2024-11-06,2024-11-06,ＢＫ　Ｔｒａｄｉｎｇ合同会社,,合同会社,山形県,飽海郡遊佐町,遊佐字前田４０番地,,06,461,9998301,,,,,,,2024-11-06,1,,,,,ビケトレーディング,0
1650,6410001013986,新規,0,2024-11-06,2024-11-06,フィデアエナジー株式会社,,株式会社,秋田県,秋田市,中通３丁目１番４１号,,05,201,0100001,,,,,,,2024-11-06,1,,,,,フィデアエナジー,0
1651,6410003004001,新規,0,2024-11-06,2024-11-06,合同会社あらこう,,合同会社,秋田県,秋田市,保戸野原の町７－６８,,05,201,0100904,,,,,,,2024-11-06,1,,,,,アラコウ,0
1659,6430001092987,新規,0,2024-11-06,2024-11-06,くりんラボ株式会社,,株式会社,北海道,札幌市白石区,北郷七条３丁目１２番１５－６０３号,,01,104,0030837,,,,,,,2024-11-06,1,,,,,クリンラボ,0
1662,6430003016969,新規,0,2024-11-06,2024-11-06,ｏｆｆｉｃｅ　ｎａｎａ合同会社,,合同会社,北海道,札幌市清田区,平岡二条２丁目４－３４,,01,110,0040872,,,,,,,2024-11-06,1,,,,,オフィスナナ,0
1663,6430003016977,新規,0,2024-11-06,2024-11-06,合同会社Ｍ．Ｋ．Ｂｕｓｉｎｅｓｓ,,合同会社,北海道,札幌市手稲区,富丘三条４丁目１番２２－２０３号,,01,109,0060013,,,,,,,2024-11-06,1,,,,,エムケービジネス,0
1666,6480001012643,新規,0,2024-11-06,2024-11-06,株式会社笠井工業,,株式会社,徳島県,板野郡藍住町,勝瑞字幸島５１番地３,,36,403,7711271,,,,,,,2024-11-06,1,,,,,カサイコウギョウ,0
1670,6490001010902,新規,0,2024-11-06,2024-11-06,株式会社Ｌａｓａｔｙ,,株式会社,高知県,高知市,愛宕町２丁目９番１７号,,39,201,7800051,,,,,,,2024-11-06,1,,,,,ラサティー,0
1682,7010001249570,新規,0,2024-11-06,2024-11-06,株式会社ＦａｎｔａｓｔｉｃＦｏｏｄｓ社,,株式会社,東京都,中央区,銀座６丁目１３番１６号銀座ＷａｌｌビルＵＣＦ５階,,13,102,1040061,,,,,,,2024-11-06,1,,,,,ファンタスティックフーズシャ,0
1684,7010003045308,新規,0,2024-11-06,2024-11-06,Ｉｎｓｐｉｒｅ　Ｃｏｎｎｅｃｔ合同会社,,合同会社,東京都,千代田区,丸の内１丁目８－３トラストタワー本館２０階,,13,101,1000005,,,,,,,2024-11-06,1,,,,,インスパイアコネクト,0
1685,7010003045365,新規,0,2024-11-06,2024-11-06,Ｅｎｉｓｈｉ　Ｏｓａｋａ合同会社,,合同会社,東京都,中央区,銀座２丁目１０番８号マニエラ銀座ビル４階,,13,102,1040061,,,,,,,2024-11-06,1,,,,,エニシオオサカ,0
1686,7010003045381,新規,0,2024-11-06,2024-11-06,合同会社フォレスト,,合同会社,東京都,千代田区,丸の内２丁目３番２号郵船ビルディング１階,,13,101,1000005,,,,,,,2024-11-06,1,,,,,フォレスト,0
1687,7010003045407,新規,0,2024-11-06,2024-11-06,合同会社セレニティー,,合同会社,東京都,中央区,銀座１丁目１２－４－７Ｆ,,13,102,1040061,,,,,,,2024-11-06,1,,,,,セレニティー,0
1705,7010401186125,新規,0,2024-11-06,2024-11-06,ＡＺＡＢＵＤＡＩキャピタル株式会社,,株式会社,東京都,港区,麻布台２丁目３番２２号一乗寺ビル２階,,13,103,1060041,,,,,,,2024-11-06,1,,,,,アザブダイキャピタル,0
1710,7010501053118,新規,0,2024-11-06,2024-11-06,株式会社新キャリア,,株式会社,東京都,台東区,上野７丁目１１番７号川村ビル３０２号室,,13,106,1100005,,,,,,,2024-11-06,1,,,,,シンキャリア,0
1714,7010601066226,新規,0,2024-11-06,2024-11-06,飛影株式会社,,株式会社,東京都,墨田区,千歳３丁目６番５号３０３室プロス森下,,13,107,1300025,,,,,,,2024-11-06,1,,,,,ヒエイ,0
1718,7010901056257,新規,0,2024-11-06,2024-11-06,ジョーゼン株式会社,,株式会社,東京都,世田谷区,弦巻４丁目３４番１１号１０１,,13,112,1540016,,,,,,,2024-11-06,1,,,,,ジョーゼン,0
1719,7010901056265,新規,0,2024-11-06,2024-11-06,株式会社ＭＡＮＡＱＵＡ,,株式会社,東京都,世田谷区,深沢１丁目１５番２号,,13,112,1580081,,,,,,,2024-11-06,1,,,,,マナクア,0
1725,7011001165519,新規,0,2024-11-06,2024-11-06,株式会社ＥｎＺｎ,,株式会社,東京都,渋谷区,道玄坂１丁目１０番８号渋谷道玄坂東急ビル２Ｆ－Ｃ,,13,113,1500043,,,,,,,2024-11-06,1,,,,,エンジン,0
1726,7011001165576,新規,0,2024-11-06,2024-11-06,Ｃｒａｆｔ　Ｔｅｋ株式会社,,株式会社,東京都,渋谷区,道玄坂１丁目１０番８号渋谷道玄坂東急ビル２Ｆ－Ｃ,,13,113,1500043,,,,,,,2024-11-06,1,,,,,クラフトテック,0
1728,7011003020283,新規,0,2024-11-06,2024-11-06,Ｃｈａｌｎｏｖａ合同会社,,合同会社,東京都,目黒区,下目黒１丁目１番１４号コノトラビル７Ｆ,,13,110,1530064,,,,,,,2024-11-06,1,,,,,チャルノバ,0
1729,7011101109425,新規,0,2024-11-06,2024-11-06,海外ＦＸ　Ｗｉｋｉ株式会社,,株式会社,東京都,新宿区,西新宿６丁目１５番１号,,13,104,1600023,,,,,,,2024-11-06,1,,,,,カイガイエフエックスウィキ,0
1731,7011301030141,新規,0,2024-11-06,2024-11-06,ＭＡサポート株式会社,,株式会社,東京都,杉並区,方南１丁目５０－２０ハイツ方南２１２,,13,115,1680062,,,,,,,2024-11-06,1,,,,,,0
1739,7012401042448,新規,0,2024-11-06,2024-11-06,株式会社スリーエイトＬＩＦＥ,,株式会社,東京都,調布市,深大寺東町７丁目１５番地１９,,13,208,1820012,,,,,,,2024-11-06,1,,,,,スリーエイトライフ,0
1755,7021003015183,新規,0,2024-11-06,2024-11-06,合同会社ＭＴコーポレーション,,合同会社,神奈川県,茅ヶ崎市,幸町１９番４号,,14,207,2530052,,,,,,,2024-11-06,1,,,,,エムティコーポレーション,0
1767,7030001163266,新規,0,2024-11-06,2024-11-06,株式会社ワコーメディカルサービス,,株式会社,埼玉県,さいたま市岩槻区,大字相野原２１１番地３,,11,110,3390071,,,,,,,2024-11-06,1,,,,,ワコーメディカルサービス,0
1768,7030001163308,新規,0,2024-11-06,2024-11-06,アマノホーム株式会社,,株式会社,埼玉県,さいたま市大宮区,吉敷町２丁目１０８－４－６０９,,11,103,3300843,,,,,,,2024-11-06,1,,,,,アマノホーム,0
1769,7030001163332,新規,0,2024-11-06,2024-11-06,株式会社ＭＵＳＯ,,株式会社,埼玉県,さいたま市南区,辻７丁目１１番２１号,00136890,11,108,3360026,,,,,,,2024-11-06,1,,,,,ムソウ,0
1781,7040001135982,新規,0,2024-11-06,2024-11-06,今村工業株式会社,,株式会社,千葉県,袖ケ浦市,神納８１８番地１０,,12,229,2990257,,,,,,,2024-11-06,1,,,,,イマムラコウギョウ,0
1782,7040001135999,新規,0,2024-11-06,2024-11-06,ファミリー株式会社,,株式会社,千葉県,松戸市,小金清志町３丁目３４番地の６,,12,207,2700016,,,,,,,2024-11-06,1,,,,,ファミリー,0
1783,7040001136031,新規,0,2024-11-06,2024-11-06,株式会社ＥＭＡＮＯＡ,,株式会社,千葉県,船橋市,前原東１丁目１０番５号ストーンパビヨン１Ｆ,,12,204,2740824,,,,,,,2024-11-06,1,,,,,エマノア,0
1785,7040003026107,新規,0,2024-11-06,2024-11-06,合同会社安田工業,,合同会社,千葉県,船橋市,田喜野井１丁目２８番２号,,12,204,2740073,,,,,,,2024-11-06,1,,,,,ヤスダコウギョウ,0
1786,7040003026131,新規,0,2024-11-06,2024-11-06,合同会社コウドウ,,合同会社,千葉県,千葉市中央区,中央３丁目１７―１―１００８,,12,101,2600013,,,,,,,2024-11-06,1,,,,,コウドウ,0
1792,7060001037624,新規,0,2024-11-06,2024-11-06,株式会社メイ犬猫クリニック,,株式会社,栃木県,佐野市,堀米町３１９４番地,,09,204,3270843,,,,,,,2024-11-06,1,,,,,メイイヌネコクリニック,0
1793,7070001042334,新規,0,2024-11-06,2024-11-06,株式会社ＰＯＬＹＬＯＧＵＥ,,株式会社,群馬県,前橋市,新前橋町１８番地３０松原Ｍ１ビル２Ｆ,,10,201,3710843,,,,,,,2024-11-06,1,,,,,ポリローグ,0
1796,7080001026575,新規,0,2024-11-06,2024-11-06,株式会社Ｍａｇｏ,,株式会社,静岡県,焼津市,焼津５丁目１１番２６号,,22,212,4250026,,,,,,,2024-11-06,1,,,,,マーゴ,0
1803,7100003007851,新規,0,2024-11-06,2024-11-06,合同会社ミヤコート,,合同会社,長野県,松本市,大字内田６２番地６,,20,202,3990023,,,,,,,2024-11-06,1,,,,,ミヤコート,0
1805,7110005017154,新規,0,2024-11-06,2024-11-06,一般社団法人ワンドロップアロマ協会,,その他の設立登記法人,新潟県,北蒲原郡聖籠町,大字網代浜９３１番地１,,15,307,9570103,,,,,,,2024-11-06,1,,,,,ワンドロップアロマキョウカイ,0
1816,7120001269995,新規,0,2024-11-06,2024-11-06,株式会社スリーアップ・テクノロジー,,株式会社,大阪府,大阪市北区,天満橋３丁目３番５号天満インキュベーションラボ４０６,,27,127,5300042,,,,,,,2024-11-06,1,,,,,スリーアップテクノロジー,0
1817,7120001270004,新規,0,2024-11-06,2024-11-06,株式会社ＴＳ,,株式会社,大阪府,寝屋川市,黒原橘町２１番２５号,,27,215,5720058,,,,,,,2024-11-06,1,,,,,ティーエス,0
1818,7120001270012,新規,0,2024-11-06,2024-11-06,正和泰株式会社,,株式会社,大阪府,大阪市浪速区,恵美須東２丁目６番１５－６０１号,,27,111,5560002,,,,,,,2024-11-06,1,,,,,セイワタイ,0
1819,7120001270020,新規,0,2024-11-06,2024-11-06,株式会社自在,,株式会社,大阪府,大阪市天王寺区,味原本町１２－５,,27,109,5430022,,,,,,,2024-11-06,1,,,,,ジザイ,0
1820,7120001270037,新規,0,2024-11-06,2024-11-06,株式会社Ｕ．Ｔ．コーポレーション,,株式会社,大阪府,大阪市天王寺区,上汐５丁目６番１６号,,27,109,5430002,,,,,,,2024-11-06,1,,,,,ユーティーコーポレーション,0
1821,7120001270078,新規,0,2024-11-06,2024-11-06,株式会社ｈｅｌｉｘ,,株式会社,大阪府,大阪市中央区,宗右衛門町１－１５大黒屋本店ビル１階,,27,128,5420084,,,,,,,2024-11-06,1,,,,,ヘリックス,0
1826,7120003027914,新規,0,2024-11-06,2024-11-06,いろはプロモーション合同会社,,合同会社,大阪府,大阪市中央区,南船場３丁目２番２２号おおきに南船場ビル２０５,,27,128,5420081,,,,,,,2024-11-06,1,,,,,イロハプロモーション,0
1828,7120101070543,新規,0,2024-11-06,2024-11-06,株式会社ミネラル,,株式会社,大阪府,富田林市,伏山３丁目２３番１６号,,27,214,5840061,,,,,,,2024-11-06,1,,,,,ミネラル,0
1832,7122001038579,新規,0,2024-11-06,2024-11-06,株式会社ｓｙｕｎ　ｃｏｏｋｉｎｇ,,株式会社,大阪府,東大阪市,西鴻池町２丁目２番２８号ｑｕａｔｒｅ・Ｙｏｓｈｉｄａ４０３号,,27,227,5780976,,,,,,,2024-11-06,1,,,,,シュンクッキング,0
1835,7130001078272,新規,0,2024-11-06,2024-11-06,株式会社ＡＩＢＯＳ,,株式会社,京都府,京都市左京区,田中門前町４４番地有斐閣京都ビル３階,,26,103,6068225,,,,,,,2024-11-06,1,,,,,アイボス,0
1836,7130001078297,新規,0,2024-11-06,2024-11-06,株式会社ニューイノベーション,,株式会社,京都府,京都市左京区,浄土寺下馬場町８５番地Ｓｕｐｒｅｍｅ浄土寺１０５号室,,26,103,6068413,,,,,,,2024-11-06,1,,,,,ニューイノベーション,0
1837,7130001078314,新規,0,2024-11-06,2024-11-06,株式会社Ｔ‐ＢＡＳＳ,,株式会社,京都府,宇治市,槇島町五才田９－１,,26,204,6110041,,,,,,,2024-11-06,1,,,,,ティーバス,0
1840,7130003009977,新規,0,2024-11-06,2024-11-06,合同会社リュミエ,,合同会社,京都府,舞鶴市,字常３６３番地－１棟４０７号,,26,202,6250072,,,,,,,2024-11-06,1,,,,,リュミエ,0
1848,7140001136228,新規,0,2024-11-06,2024-11-06,株式会社フルゲンス,,株式会社,兵庫県,神戸市灘区,記田町４丁目２番１３－４０２号,,28,102,6570034,,,,,,,2024-11-06,1,,,,,フルゲンス,0
1849,7140001136310,新規,0,2024-11-06,2024-11-06,株式会社よりそいたい,,株式会社,兵庫県,神戸市中央区,御幸通８丁目１－６神戸国際会館２２Ｆ,,28,110,6510087,,,,,,,2024-11-06,1,,,,,ヨリソイタイ,0
1850,7140001136319,新規,0,2024-11-06,2024-11-06,株式会社ＳＨＩＮＯ,,株式会社,兵庫県,芦屋市,公光町１番１１号３０２,,28,206,6590065,,,,,,,2024-11-06,1,,,,,シノ,0
1851,7140003021287,新規,0,2024-11-06,2024-11-06,合同会社二宮企画,,合同会社,兵庫県,神戸市須磨区,前池町４丁目４番１号セルブ板宿２０１,,28,107,6540011,,,,,,,2024-11-06,1,,,,,ニノミヤキカク,0
1853,7150001027649,新規,0,2024-11-06,2024-11-06,シグマ技術コンサルタント株式会社,,株式会社,奈良県,奈良市,法蓮町１６３番地の１新大宮愛正寺ビル,,29,201,6308113,,,,,,,2024-11-06,1,,,,,シグマギジュツコンサルタント,0
1854,7150001027657,新規,0,2024-11-06,2024-11-06,ＬＭＫヘルスケア株式会社,,株式会社,奈良県,桜井市,大字桜井１０５９,,29,206,6330091,,,,,,,2024-11-06,1,,,,,エルエムケイヘルスケア,0
1855,7150003003409,新規,0,2024-11-06,2024-11-06,合同会社Ｅ．Ｔ．,,合同会社,奈良県,奈良市,富雄元町１丁目２１－１サーパス富雄駅前４１３,,29,201,6310078,,,,,,,2024-11-06,1,,,,,イーティー,0
1870,7180303006331,新規,0,2024-11-06,2024-11-06,ＺＩＯＮ合同会社,,合同会社,愛知県,豊田市,三軒町５丁目１番地１７,,23,211,4710037,,,,,,,2024-11-06,1,,,,,ザイオン,0
1872,7190001031779,新規,0,2024-11-06,2024-11-06,株式会社ｗｏｎｄｅｒ　ｌｉｆｅ,,株式会社,三重県,桑名市,大字大仲新田４９１番地２,,24,205,5110947,,,,,,,2024-11-06,1,,,,,ワンダーライフ,0
1874,7190003004849,新規,0,2024-11-06,2024-11-06,合同会社Ｕｎｉｔｅ,,合同会社,三重県,三重郡菰野町,大字田光１４９８番地１,,24,341,5101324,,,,,,,2024-11-06,1,,,,,ユナイト,0
1878,7210001019961,新規,0,2024-11-06,2024-11-06,株式会社ゼロウィル,,株式会社,福井県,坂井市,春江町江留上新町７８番地４,,18,210,9190465,,,,,,,2024-11-06,1,,,,,ゼロウィル,0
1880,7230001020595,新規,0,2024-11-06,2024-11-06,株式会社一工業,,株式会社,富山県,富山市,東老田１１９５番地,,16,201,9300161,,,,,,,2024-11-06,1,,,,,イチコウギョウ,0
1885,7240001064071,新規,0,2024-11-06,2024-11-06,株式会社ＡＮＮＥ,,株式会社,広島県,広島市中区,国泰寺町１丁目９－５,,34,101,7300042,,,,,,,2024-11-06,1,,,,,アンネ,0
1888,7260001039609,新規,0,2024-11-06,2024-11-06,株式会社Ｌｅａｔｓ,,株式会社,岡山県,岡山市北区,田中１０２－１０３,,33,101,7000951,,,,,,,2024-11-06,1,,,,,リーツ,0
1892,7280001009287,新規,0,2024-11-06,2024-11-06,株式会社Ａｍａｔｅｒａｓｕ,,株式会社,島根県,松江市,古志原６丁目９番５０号,,32,201,6900012,,,,,,,2024-11-06,1,,,,,アマテラス,0
1894,7280003001894,新規,0,2024-11-06,2024-11-06,合同会社ＫＩＬＴ,,合同会社,島根県,出雲市,塩冶町６６１番地３,,32,203,6930021,,,,,,,2024-11-06,1,,,,,キルト,0
1908,7290001107858,新規,0,2024-11-06,2024-11-06,株式会社ＨＡＴＴＥＮ,,株式会社,福岡県,福岡市早良区,荒江２丁目１５番５号,,40,137,8140021,,,,,,,2024-11-06,1,,,,,ハッテン,0
1909,7290001107882,新規,0,2024-11-06,2024-11-06,株式会社みかづきビルディング,,株式会社,福岡県,福岡市西区,拾六町３丁目３番３号,,40,135,8190041,,,,,,,2024-11-06,1,,,,,ミカヅキビルディング,0
1910,7290003016033,新規,0,2024-11-06,2024-11-06,ＳＹトラスト合同会社,,合同会社,福岡県,福岡市早良区,百道３丁目１２番２２－１０１号,,40,137,8140006,,,,,,,2024-11-06,1,,,,,エスワイトラスト,0
1914,7290801031010,新規,0,2024-11-06,2024-11-06,株式会社令和商会,,株式会社,福岡県,田川郡福智町,弁城２２３７番地２７,,40,610,8221212,,,,,,,2024-11-06,1,,,,,レイワショウカイ,0
1917,7290803004880,新規,0,2024-11-06,2024-11-06,合同会社ＬＩＦＥサポート,,合同会社,福岡県,北九州市八幡西区,穴生１丁目１８番５－１１０２号,,40,109,8060049,,,,,,,2024-11-06,1,,,,,ライフサポート,0
1918,7300001013955,新規,0,2024-11-06,2024-11-06,株式会社Ｈ．Ａ．Ｐ,,株式会社,佐賀県,唐津市,山本１５３５番地２,,41,202,8470002,,,,,,,2024-11-06,1,,,,,ハップ,0
1919,7310001019308,新規,0,2024-11-06,2024-11-06,株式会社ウサミカイリ,,株式会社,長崎県,長崎市,築町５番１７号サイモンサウスビル１１１号,,42,201,8500877,,,,,,,2024-11-06,1,,,,,ウサミカイリ,0
1921,7320003004505,新規,0,2024-11-06,2024-11-06,合同会社三光ももファーム,,合同会社,大分県,中津市,大字野依３６８番地２,,44,203,8790104,,,,,,,2024-11-06,1,,,,,サンコウモモファーム,0
1923,7330001032630,新規,0,2024-11-06,2024-11-06,株式会社ＷＯＲＫ’Ｓ,,株式会社,熊本県,熊本市中央区,下通１丁目６番１０号,,43,101,8600807,,,,,,,2024-11-06,1,,,,,ワークス,0
1924,7330003010626,新規,0,2024-11-06,2024-11-06,合同会社Ｋ２ＹＴ,,合同会社,熊本県,熊本市東区,長嶺東５丁目２０番４１号,,43,102,8618038,,,,,,,2024-11-06,1,,,,,ケイケイワイティ,0
1926,7340001026912,新規,0,2024-11-06,2024-11-06,ユートピアエステート株式会社,,株式会社,鹿児島県,西之表市,西之表１５１９４番地１,,46,213,8913101,,,,,,,2024-11-06,1,,,,,ユートピアエステート,0
1929,7350001019262,新規,0,2024-11-06,2024-11-06,株式会社ファーメックス,,株式会社,宮崎県,都城市,志比田町４９０７番地３,,45,202,8850093,,,,,,,2024-11-06,1,,,,,ファーメックス,0
1931,7360001034392,新規,0,2024-11-06,2024-11-06,株式会社南都ファーム,,株式会社,沖縄県,石垣市,字石垣１６６６番地,,47,207,9070023,,,,,,,2024-11-06,1,,,,,ナントファーム,0
1947,7380003005885,新規,0,2024-11-06,2024-11-06,合同会社ＷＯＲＬＤ　ＧＲＡＹＺ,,合同会社,福島県,伊達郡桑折町,大字南半田字行人段２５番地の６,,07,301,9691641,,,,,,,2024-11-06,1,,,,,ワールドグレイズ,0
1949,7390003002304,新規,0,2024-11-06,2024-11-06,ファクター合同会社,,合同会社,山形県,酒田市,富士見町１丁目７番地の７,,06,204,9980861,,,,,,,2024-11-06,1,,,,,ファクター,0
1950,7390005009090,新規,0,2024-11-06,2024-11-06,一般社団法人いいづかＳＵＮ,,その他の設立登記法人,山形県,天童市,乱川４丁目６番１１号,,06,210,9940002,,,,,,,2024-11-06,1,,,,,イイヅカサン,0
1954,7430001092978,新規,0,2024-11-06,2024-11-06,大管株式会社,,株式会社,北海道,札幌市北区,屯田七条１丁目４番２２号,,01,102,0020857,,,,,,,2024-11-06,1,,,,,ダイカン,0
1955,7430001092994,新規,0,2024-11-06,2024-11-06,株式会社ＵＮｉＺＥ,,株式会社,北海道,札幌市白石区,東札幌二条５丁目１０番１３－３０１号,,01,104,0030002,,,,,,,2024-11-06,1,,,,,ユナイズ,0
1956,7430001093010,新規,0,2024-11-06,2024-11-06,株式会社ＫＧクリエイト,,株式会社,北海道,江別市,角山４２６番地１４,,01,217,0670052,,,,,,,2024-11-06,1,,,,,ケージークリエイト,0
1957,7430001093019,新規,0,2024-11-06,2024-11-06,ＹＧアセプト株式会社,,株式会社,北海道,苫小牧市,北栄町４丁目２番２０号,,01,213,0591304,,,,,,,2024-11-06,1,,,,,ワイジーアセプト,0
1959,7430003016968,新規,0,2024-11-06,2024-11-06,合同会社アール,,合同会社,北海道,札幌市中央区,南十三条西１３丁目１番１５－１０５号,,01,101,0640913,,,,,,,2024-11-06,1,,,,,アール,0
1965,7480001012642,新規,0,2024-11-06,2024-11-06,株式会社やまと,,株式会社,徳島県,板野郡上板町,七條字大辻８番地１,,36,405,7711302,,,,,,,2024-11-06,1,,,,,ヤマト,0
1966,7490001010901,新規,0,2024-11-06,2024-11-06,株式会社ｊｕｎｏｓ,,株式会社,高知県,安芸郡奈半利町,乙２６５２番地８,,39,302,7816402,,,,,,,2024-11-06,1,,,,,,0
1975,8010001249719,新規,0,2024-11-06,2024-11-06,株式会社ＹＭ,,株式会社,東京都,中央区,銀座１丁目２２番１１号銀座大竹ビジデンス２Ｆ,,13,102,1040061,,,,,,,2024-11-06,1,,,,,ワイエム,0
2003,8010405023728,新規,0,2024-11-06,2024-11-06,大府リテールホールディング２一般社団法人,,その他の設立登記法人,東京都,港区,虎ノ門３丁目２２番１０－２０１号,,13,103,1050001,,,,,,,2024-11-06,1,,,,,オオブリテールホールディングツー,0
2008,8010701046762,新規,0,2024-11-06,2024-11-06,株式会社エトス,,株式会社,東京都,品川区,東品川５丁目９番１５－８２０号,,13,109,1400002,,,,,,,2024-11-06,1,,,,,エトス,0
2009,8010701046787,新規,0,2024-11-06,2024-11-06,ｍｉｈａＲａｓｈｉ株式会社,,株式会社,東京都,品川区,西五反田６丁目１７番２－１０１号,,13,109,1410031,,,,,,,2024-11-06,1,,,,,ミハラシ,0
2016,8010901056264,新規,0,2024-11-06,2024-11-06,株式会社クリームスパ,,株式会社,東京都,世田谷区,奥沢６丁目１１番４号レピュートハイツ１０５,,13,112,1580083,,,,,,,2024-11-06,1,,,,,クリームスパ,0
2019,8010903009468,新規,0,2024-11-06,2024-11-06,嶋田電気合同会社,,合同会社,東京都,世田谷区,北烏山７丁目２－５－２０７,,13,112,1570061,,,,,,,2024-11-06,1,,,,,シマダデンキ,0
2023,8011001165410,新規,0,2024-11-06,2024-11-06,株式会社ニューヨーク予備校,,株式会社,東京都,渋谷区,代々木１丁目３８－１８,,13,113,1510053,,,,,,,2024-11-06,1,,,,,ニューヨークヨビコウ,0
2024,8011001165575,新規,0,2024-11-06,2024-11-06,株式会社ＴＨＥ　ＭＯＤＥ,,株式会社,東京都,渋谷区,恵比寿西１丁目２０番８号コンド恵比寿４０１,,13,113,1500021,,,,,,,2024-11-06,1,,,,,ザモード,0
2025,8011001165749,新規,0,2024-11-06,2024-11-06,株式会社ｋａｍａＴ,,株式会社,東京都,渋谷区,神泉町１０番１５号アネックス神泉３０１,,13,113,1500045,,,,,,,2024-11-06,1,,,,,カマティ,0
2027,8011003020282,新規,0,2024-11-06,2024-11-06,Ｍｕｇｕｅｔ合同会社,,合同会社,東京都,目黒区,下目黒２丁目２１－１９目黒グリーンコープ８０３,,13,110,1530064,,,,,,,2024-11-06,1,,,,,ミュゲ,0
2028,8011003020299,新規,0,2024-11-06,2024-11-06,合同会社Ｆｉｅｌｄ　ｕｐ,,合同会社,東京都,渋谷区,神宮前６丁目２３－４桑野ビル２階,,13,113,1500001,,,,,,,2024-11-06,1,,,,,フィールドアップ,0
2031,8011005010744,新規,0,2024-11-06,2024-11-06,一般社団法人フジ未来共創,,その他の設立登記法人,東京都,渋谷区,神宮前１丁目５番８号,,13,113,1500001,,,,,,,2024-11-06,1,,,,,フジミライキョウソウ,0
2039,8011103015141,新規,0,2024-11-06,2024-11-06,Ａｓｈｌｅｙ　Ｈａｒｖｅｙ合同会社,,合同会社,東京都,新宿区,住吉町５番４号６０３,,13,104,1620065,,,,,,,2024-11-06,1,,,,,アシュリーハーヴィー,0
2042,8011401026559,新規,0,2024-11-06,2024-11-06,株式会社ＴＨＲＥＥ　Ｊ,,株式会社,東京都,板橋区,常盤台２丁目２７番１０号,,13,119,1740071,,,,,,,2024-11-06,1,,,,,スリージェイ,0
2045,8011601028165,新規,0,2024-11-06,2024-11-06,株式会社Ａ．Ｎ．Ｋ,,株式会社,東京都,練馬区,関町北１丁目２０番１７号,,13,120,1770051,,,,,,,2024-11-06,1,,,,,アンク,0
2046,8011701027777,新規,0,2024-11-06,2024-11-06,申東フォーチュン株式会社,,株式会社,東京都,江戸川区,西葛西５丁目８番５－９１６号,,13,123,1340088,,,,,,,2024-11-06,1,,,,,シントウフォーチュン,0
2047,8011701027785,新規,0,2024-11-06,2024-11-06,ＹａｍａＶｉｓｔａ株式会社,,株式会社,東京都,江戸川区,南小岩３丁目１－１４プランドールＭ１０５号室,,13,123,1330056,,,,,,,2024-11-06,1,,,,,ヤマビスタ,0
2050,8012401042447,新規,0,2024-11-06,2024-11-06,株式会社やすまろ,,株式会社,東京都,府中市,府中町１丁目１５番地の１シティハウス府中けやき通り１１０２,,13,206,1830055,,,,,,,2024-11-06,1,,,,,ヤスマロ,0
2067,8020003027205,新規,0,2024-11-06,2024-11-06,ＪＪコンサルジャパン合同会社,,合同会社,神奈川県,横浜市都筑区,茅ケ崎南３丁目１４番１号,,14,118,2240037,,,,,,,2024-11-06,1,,,,,ジェイジェイコンサルジャパン,0
2071,8021001083685,新規,0,2024-11-06,2024-11-06,株式会社ＪＳ,,株式会社,神奈川県,小田原市,蓮正寺２５３番地,,14,206,2500865,,,,,,,2024-11-06,1,,,,,ジェイエス,0
2072,8021001083710,新規,0,2024-11-06,2024-11-06,株式会社ＬＩＭＰＩＥＺＡ,,株式会社,神奈川県,横須賀市,森崎２丁目１３番１０号,,14,201,2380023,,,,,,,2024-11-06,1,,,,,リンピエサ,0
2074,8021003015190,新規,0,2024-11-06,2024-11-06,合同会社児童発達支援事業所あお,,合同会社,神奈川県,足柄上郡大井町,大井中央７７番地,,14,362,2580010,,,,,,,2024-11-06,1,,,,,ジドウハッタツシエンジギョウショアオ,0
2085,8030003025430,新規,0,2024-11-06,2024-11-06,合同会社アーティザン,,合同会社,埼玉県,新座市,東北２丁目３１番３号ロイヤル花野１Ｆ－３号,,11,230,3520001,,,,,,,2024-11-06,1,,,,,アーティザン,0
2086,8030003025447,新規,0,2024-11-06,2024-11-06,ＡＬＯＨＡＳ合同会社,,合同会社,埼玉県,坂戸市,日の出町１－２７日の出ビル５０２,,11,239,3500225,,,,,,,2024-11-06,1,,,,,アロハス,0
2089,8040001136014,新規,0,2024-11-06,2024-11-06,株式会社ＧＢＣ観光,,株式会社,千葉県,船橋市,習志野台５丁目１３番１５号,,12,204,2740063,,,,,,,2024-11-06,1,,,,,ジービーシーカンコウ,0
2096,8040003026072,新規,0,2024-11-06,2024-11-06,合同会社Ｗｅｌｌｆｏｏｄ,,合同会社,千葉県,千葉市中央区,登戸１丁目１８番２８号,,12,101,2600032,,,,,,,2024-11-06,1,,,,,ウエルフード,0
2097,8040003026130,新規,0,2024-11-06,2024-11-06,合同会社Ｃｉｅｌ,,合同会社,千葉県,我孫子市,高野山１２３番地の１７,,12,222,2701145,,,,,,,2024-11-06,1,,,,,シエル,0
2100,8050001055659,新規,0,2024-11-06,2024-11-06,株式会社きよ継,,株式会社,茨城県,石岡市,田島１丁目１番４０号,,08,205,3150041,,,,,,,2024-11-06,1,,,,,キヨツグ,0
2101,8060001037623,新規,0,2024-11-06,2024-11-06,株式会社ｍｅｕｌｕ,,株式会社,栃木県,宇都宮市,今泉３丁目６番１１号テック宇都宮ビル１階,,09,201,3210966,,,,,,,2024-11-06,1,,,,,ミュール,0
2105,8070003005643,新規,0,2024-11-06,2024-11-06,合同会社ＡＳＴＲＡＬ,,合同会社,群馬県,高崎市,上佐野町６３２－４サンクタス高崎ドリームコート８０９号,,10,202,3700857,,,,,,,2024-11-06,1,,,,,アストラル,0
2109,8080003003324,新規,0,2024-11-06,2024-11-06,合同会社ＦｍＡ,,合同会社,静岡県,焼津市,一色２９０番地の１コンチェルト２０２,,22,212,4250054,,,,,,,2024-11-06,1,,,,,エフエムエー,0
2113,8080103003190,新規,0,2024-11-06,2024-11-06,合同会社Ｒｉｓｅ,,合同会社,静岡県,伊豆の国市,富士見７６４番地の２,,22,225,4102205,,,,,,,2024-11-06,1,,,,,ライズ,0
2115,8080401027544,新規,0,2024-11-06,2024-11-06,株式会社Ｂ．Ｈ．Ｐ,,株式会社,静岡県,浜松市中央区,入野町１６１０１番地の８,,22,138,4328061,,,,,,,2024-11-06,1,,,,,ビーエイチピー,0
2116,8080403005135,新規,0,2024-11-06,2024-11-06,合同会社カワシマ,,合同会社,静岡県,浜松市中央区,鴨江１丁目１３番３号,,22,138,4328023,,,,,,,2024-11-06,1,,,,,カワシマ,0
2130,8120001269598,新規,0,2024-11-06,2024-11-06,ＨＥＲＯ　ａｓｓｃｈ株式会社,,株式会社,大阪府,大阪市北区,梅田１丁目３番１号大阪駅前第１ビル８階５号,,27,127,5300001,,,,,,,2024-11-06,1,,,,,ヒーローアッシュ,0
2131,8120001269805,新規,0,2024-11-06,2024-11-06,タンワンゲーム株式会社,,株式会社,大阪府,大阪市浪速区,恵美須西２丁目１４－３０－５Ｆ,,27,111,5560003,,,,,,,2024-11-06,1,,,,,タンワンゲーム,0
2132,8120001269929,新規,0,2024-11-06,2024-11-06,Ｈｏｏｒａｙ株式会社,,株式会社,大阪府,大阪市東淀川区,西淡路５丁目１番１号２階２０４－１０号室,,27,114,5330031,,,,,,,2024-11-06,1,,,,,フーレイ,0
2133,8120001269994,新規,0,2024-11-06,2024-11-06,Ｓｔａｒｓ株式会社,,株式会社,大阪府,大阪市北区,梅田１丁目２番２号大阪駅前第２ビル２階５－６号室,,27,127,5300001,,,,,,,2024-11-06,1,,,,,スターズ,0
2134,8120001270077,新規,0,2024-11-06,2024-11-06,株式会社上海国際商事,,株式会社,大阪府,大阪市浪速区,桜川２丁目１２番１７号３０２号室,,27,111,5560022,,,,,,,2024-11-06,1,,,,,シャンハイコクサイショウジ,0
2136,8120003027896,新規,0,2024-11-06,2024-11-06,善游合同会社,,合同会社,大阪府,大阪市西成区,橘３丁目１７－１０－１０１号室,,27,122,5570051,,,,,,,2024-11-06,1,,,,,ゼンユウ,0
2139,8120101070542,新規,0,2024-11-06,2024-11-06,株式会社Ｋ‐ｃｒａｎｅ,,株式会社,大阪府,富田林市,寿町２丁目７番３号（２０３）,,27,214,5840031,,,,,,,2024-11-06,1,,,,,ケークレイン,0
2140,8120103006123,新規,0,2024-11-06,2024-11-06,合同会社やるしか,,合同会社,大阪府,堺市堺区,永代町６丁２番７号,,27,141,5900065,,,,,,,2024-11-06,1,,,,,ヤルシカ,0
2148,8130003009984,新規,0,2024-11-06,2024-11-06,Ｓｃｅｎｔ合同会社,,合同会社,京都府,京都市下京区,小稲荷町８５－２Ｇｒａｎｄ－Ｋ京都駅前ビル２０１,,26,106,6008208,,,,,,,2024-11-06,1,,,,,セント,0
2150,8140001136276,新規,0,2024-11-06,2024-11-06,株式会社翔明,,株式会社,兵庫県,神戸市北区,藤原台南町３丁目５番７－１号,,28,109,6511303,,,,,,,2024-11-06,1,,,,,ショウメイ,0
2151,8140001136284,新規,0,2024-11-06,2024-11-06,株式会社Ｌａ・ｊｏｕｒｎｅｅ,,株式会社,兵庫県,神戸市中央区,三宮町１丁目４－９,,28,110,6500021,,,,,,,2024-11-06,1,,,,,ラジュルネ,0
2152,8140001136350,新規,0,2024-11-06,2024-11-06,株式会社ＡＷＥＳＯＭＥＳＴ,,株式会社,兵庫県,神戸市中央区,御幸通２丁目１番６号,,28,110,6510087,,,,,,,2024-11-06,1,,,,,オーサメスト,0
2153,8140005027257,新規,0,2024-11-06,2024-11-06,あおぞら協同組合,,その他の設立登記法人,兵庫県,芦屋市,翠ケ丘町２０番９－１０６号,,28,206,6590014,,,,,,,2024-11-06,1,,,,,アオゾラ,0
2158,8160003003324,新規,0,2024-11-06,2024-11-06,合同会社幾何学デザイン研究所,,合同会社,滋賀県,東近江市,栄町６番１０号,,25,213,5270027,,,,,,,2024-11-06,1,,,,,キカガクデザインケンキュウショ,0
2160,8170001018364,新規,0,2024-11-06,2024-11-06,株式会社グランブルー味村,,株式会社,和歌山県,和歌山市,和歌浦南１丁目４－１０,,30,201,6410022,,,,,,,2024-11-06,1,,,,,グランブルーミムラ,0
2168,8180001163977,新規,0,2024-11-06,2024-11-06,仁株式会社,,株式会社,愛知県,名古屋市中村区,則武１丁目９番１８号エステムプラザ名古屋Ｄ．Ｃ２０２７、９０３号室,,23,105,4530014,,,,,,,2024-11-06,1,,,,,ジン,0
2174,8180301039200,新規,0,2024-11-06,2024-11-06,株式会社ＺＥＮＧ,,株式会社,愛知県,西尾市,永吉２丁目８４番地,,23,213,4450870,,,,,,,2024-11-06,1,,,,,ゼンジ,0
2176,8190001031778,新規,0,2024-11-06,2024-11-06,株式会社アップソン,,株式会社,三重県,伊勢市,岩渕１丁目５番２３号,,24,203,5160037,,,,,,,2024-11-06,1,,,,,アップソン,0
2177,8190003004848,新規,0,2024-11-06,2024-11-06,合同会社ＪＫＧｒｏｕｐ,,合同会社,三重県,伊賀市,四十九町１０９６番地の３２,,24,216,5180823,,,,,,,2024-11-06,1,,,,,ジェイケイグループ,0
2178,8200001043094,新規,0,2024-11-06,2024-11-06,株式会社Ｆｕｌｌ　ｓｔｏｐ,,株式会社,岐阜県,多治見市,小名田町西ケ洞１番地の４１７,,21,204,5070007,,,,,,,2024-11-06,1,,,,,フルストップ,0
2181,8210003001850,新規,0,2024-11-06,2024-11-06,合同会社ベスヴィ,,合同会社,福井県,福井市,光陽３丁目４番５号ブレシア１０６,,18,201,9100026,,,,,,,2024-11-06,1,,,,,ベスヴィ,0
2183,8220001026304,新規,0,2024-11-06,2024-11-06,株式会社千原工務店,,株式会社,石川県,鹿島郡中能登町,羽坂を８番地,,17,407,9291714,,,,,,,2024-11-06,1,,,,,チハラコウムテン,0
2184,8220001026312,新規,0,2024-11-06,2024-11-06,株式会社高木工業,,株式会社,石川県,野々市市,菅原町１７番７号アメニティータウン９０Ｃ１０７号,,17,212,9218814,,,,,,,2024-11-06,1,,,,,タカギコウギョウ,0
2191,8260001039582,新規,0,2024-11-06,2024-11-06,株式会社ＳＨＩＮＭＡ,,株式会社,岡山県,笠岡市,大井南１４番地２,,33,205,7140013,,,,,,,2024-11-06,1,,,,,シンマ,0
2192,8260003004956,新規,0,2024-11-06,2024-11-06,合同会社Ｃｌｏｕｄ．Ｗｉｎｄ,,合同会社,岡山県,都窪郡早島町,前潟１０番地４,,33,423,7010303,,,,,,,2024-11-06,1,,,,,クラウドウインド,0
2194,8280001009286,新規,0,2024-11-06,2024-11-06,株式会社フォレストファーム,,株式会社,島根県,出雲市,古志町２１２９番地５９,,32,203,6930031,,,,,,,2024-11-06,1,,,,,フォレストファーム,0
2197,8280003001893,新規,0,2024-11-06,2024-11-06,合同会社ＹＡＭＡＭＯＴＯ,,合同会社,島根県,浜田市,生湯町１９８４番地２,,32,202,6970002,,,,,,,2024-11-06,1,,,,,ヤマモト,0
2198,8290001107857,新規,0,2024-11-06,2024-11-06,ビーダッシュ株式会社,,株式会社,福岡県,朝倉郡筑前町,中牟田１５４番地１９,,40,447,8380226,,,,,,,2024-11-06,1,,,,,ビーダッシュ,0
2199,8290001107865,新規,0,2024-11-06,2024-11-06,株式会社Ｅｓｃｒｏｗ,,株式会社,福岡県,福岡市西区,小戸３丁目２番１２－５０２号,,40,135,8190001,,,,,,,2024-11-06,1,,,,,エスクロー,0
2200,8290001107898,新規,0,2024-11-06,2024-11-06,株式会社ａｒｔｉ,,株式会社,福岡県,福岡市中央区,六本松１丁目３番１５号,,40,133,8100044,,,,,,,2024-11-06,1,,,,,アルティ,0
2203,8290003016032,新規,0,2024-11-06,2024-11-06,ＳＡＣＨＩＮＡＭ合同会社,,合同会社,福岡県,朝倉郡筑前町,篠隈１９０番地３,,40,447,8380215,,,,,,,2024-11-06,1,,,,,シャチナム,0
2213,8300001013954,新規,0,2024-11-06,2024-11-06,株式会社ＰｉｃａＰｉｃａ,,株式会社,佐賀県,西松浦郡有田町,立部甲５５番地８メゾン・フェルベール１０５号,,41,401,8494153,,,,,,,2024-11-06,1,,,,,ピカピカ,0
2214,8310001019307,新規,0,2024-11-06,2024-11-06,株式会社ＫＯＥＩ,,株式会社,長崎県,大村市,岩松町９４５番地５,,42,205,8560044,,,,,,,2024-11-06,1,,,,,コウエイ,0
2222,8330001032613,新規,0,2024-11-06,2024-11-06,株式会社マルエイ工業,,株式会社,熊本県,上益城郡益城町,大字平田５６３番地１,,43,443,8612212,,,,,,,2024-11-06,1,,,,,マルエイコウギョウ,0
2227,8330003010625,新規,0,2024-11-06,2024-11-06,合同会社建築食堂,,合同会社,熊本県,熊本市中央区,河原町２,,43,101,8600023,,,,,,,2024-11-06,1,,,,,ケンチクショクドウ,0
2228,8330003010633,新規,0,2024-11-06,2024-11-06,ＧｒａｃｅＵｐ合同会社,,合同会社,熊本県,熊本市中央区,京町本丁８番８号,,43,101,8600081,,,,,,,2024-11-06,1,,,,,グレイスアップ,0
2229,8340001026911,新規,0,2024-11-06,2024-11-06,株式会社ルポフーズ,,株式会社,鹿児島県,鹿児島市,広木３丁目２０番２５号,,46,201,8900037,,,,,,,2024-11-06,1,,,,,ルポフーズ,0
2231,8360001034400,新規,0,2024-11-06,2024-11-06,ＨＹＰＥ株式会社,,株式会社,沖縄県,那覇市,久米１丁目１番２４号,,47,201,9000033,,,,,,,2024-11-06,1,,,,,ハイプ,0
2232,8360003014441,新規,0,2024-11-06,2024-11-06,合同会社ＦＡＭＩＬＩＡ,,合同会社,沖縄県,名護市,宮里７丁目３番５８－３号,,47,209,9050011,,,,,,,2024-11-06,1,,,,,ファミリア,0
2236,8370003006801,新規,0,2024-11-06,2024-11-06,合同会社ワークス,,合同会社,宮城県,仙台市太白区,西の平２丁目２７番３２号,,04,104,9820825,,,,,,,2024-11-06,1,,,,,ワークス,0
2243,8410001013984,新規,0,2024-11-06,2024-11-06,Ｇｌｏｃａｌ　Ｖｉｓｉｏｎ株式会社,,株式会社,秋田県,秋田市,大町２丁目１番１１号,,05,201,0100921,,,,,,,2024-11-06,1,,,,,グローカルビジョン,0
2254,8430001092985,新規,0,2024-11-06,2024-11-06,株式会社Ｈｏｋｋａｉｄｏ　Ｅｘｃｕｒｓｉｏｎｓ,,株式会社,北海道,札幌市中央区,大通西１８丁目１番地１４藪商事ＢＬＤＧ４階,,01,101,0600042,,,,,,,2024-11-06,1,,,,,ホッカイドウエクスクルージョンズ,0
2255,8430001093018,新規,0,2024-11-06,2024-11-06,株式会社山口ホールディングス,,株式会社,北海道,札幌市白石区,米里五条１丁目６番５号,,01,104,0030875,,,,,,,2024-11-06,1,,,,,ヤマグチホールディングス,0
2256,8430003016967,新規,0,2024-11-06,2024-11-06,ＦｏｒｅｓｔＸ合同会社,,合同会社,北海道,虻田郡倶知安町,南六条東４丁目３番地羊蹄ビジョン１０１,,01,400,0440016,,,,,,,2024-11-06,1,,,,,フォレストエクス,0
2257,8430003016975,新規,0,2024-11-06,2024-11-06,合同会社ｍｉｕｆ　ｐｌｕｓ,,合同会社,北海道,札幌市中央区,大通西１３丁目４番地１１２札幌ＡＢＥビル３０１,,01,101,0600042,,,,,,,2024-11-06,1,,,,,ミューフプラス,0
2259,8460101007626,新規,0,2024-11-06,2024-11-06,株式会社たむテック,,株式会社,北海道,帯広市,西二十条南４丁目３６番１９号,,01,207,0802470,,,,,,,2024-11-06,1,,,,,タムテック,0
2262,8480001012641,新規,0,2024-11-06,2024-11-06,株式会社リノヴェーション研究所,,株式会社,徳島県,阿南市,富岡町今福寺４９番地１０ミラビル２Ｆ,,36,204,7740030,,,,,,,2024-11-06,1,,,,,リノヴェーションケンキュウショ,0
2263,8480003002203,新規,0,2024-11-06,2024-11-06,合同会社キャレドオランジュ,,合同会社,徳島県,徳島市,八万町沖須賀５８番地の１,,36,201,7708070,,,,,,,2024-11-06,1,,,,,キャレドオランジュ,0
2275,9010001249577,新規,0,2024-11-06,2024-11-06,ライフリングス株式会社,,株式会社,東京都,中央区,銀座１丁目１２番４号Ｎ＆ＥＢＬＤ．７階,,13,102,1040061,,,,,,,2024-11-06,1,,,,,ライフリングス,0
2276,9010001249585,新規,0,2024-11-06,2024-11-06,東日物業発展管理株式会社,,株式会社,東京都,文京区,水道２丁目９番８号江戸川ハイツ２１７号室,,13,105,1120005,,,,,,,2024-11-06,1,,,,,トウニチブツギョウハッテンカンリ,0
2277,9010001249643,新規,0,2024-11-06,2024-11-06,株式会社Ｉｎｆｉｎｉｔｙ　Ｅｄｇｅ　Ｔｅｃｈｎｏｌｏｇｙ,,株式会社,東京都,千代田区,九段南１丁目５番６号りそな九段ビル５Ｆ,,13,101,1020074,,,,,,,2024-11-06,1,,,,,インフィニティエッジテクノロジー,0
2278,9010001249718,新規,0,2024-11-06,2024-11-06,株式会社ネクサスエンターテイメント,,株式会社,東京都,中央区,銀座６丁目１３番９号ＧＩＲＡＣＧＩＮＺＡ８Ｆｂｉｚｃｕｂｅ,,13,102,1040061,,,,,,,2024-11-06,1,,,,,ネクサスエンターテイメント,0
2283,9010003045363,新規,0,2024-11-06,2024-11-06,合同会社アウルコンサルティング,,合同会社,東京都,千代田区,神田佐久間町１丁目８番４号アルテール秋葉原７０８,,13,101,1010025,,,,,,,2024-11-06,1,,,,,アウルコンサルティング,0
2284,9010003045405,新規,0,2024-11-06,2024-11-06,パブリックトラスト合同会社,,合同会社,東京都,中央区,築地４丁目４番１５号７０８,,13,102,1040045,,,,,,,2024-11-06,1,,,,,パブリックトラスト,0
2296,9010005039017,新規,0,2024-11-06,2024-11-06,一般社団法人日本先端心臓血管外科‐ＯＰＣＡＢ学会,,その他の設立登記法人,東京都,千代田区,神田和泉町１－１３住友商事神田和泉町ビル１４階,,13,101,1010024,,,,,,,2024-11-06,1,,,,,,0
2303,9010401186164,新規,0,2024-11-06,2024-11-06,株式会社エンヴァリュー,,株式会社,東京都,港区,芝３丁目１５番５号,,13,103,1050014,,,,,,,2024-11-06,1,,,,,エンヴァリュー,0
2316,9010701046778,新規,0,2024-11-06,2024-11-06,株式会社やまひがし,,株式会社,東京都,品川区,西品川１丁目２９番１２号,,13,109,1410033,,,,,,,2024-11-06,1,,,,,ヤマヒガシ,0
2319,9010901056263,新規,0,2024-11-06,2024-11-06,ぽこころ株式会社,,株式会社,東京都,世田谷区,祖師谷４丁目４番１６号,,13,112,1570072,,,,,,,2024-11-06,1,,,,,ポココロ,0
2323,9011001165541,新規,0,2024-11-06,2024-11-06,Ｘ　ＴＯＷＮ株式会社,,株式会社,東京都,目黒区,東山１丁目３－１２日神プラザ２０８,,13,110,1530043,,,,,,,2024-11-06,1,,,,,クロスタウン,0
2324,9011001165574,新規,0,2024-11-06,2024-11-06,株式会社オーウェル,,株式会社,東京都,渋谷区,渋谷２丁目１９番１５－６０９号宮益坂ビルディング,,13,113,1500002,,,,,,,2024-11-06,1,,,,,,0
2325,9011001165590,新規,0,2024-11-06,2024-11-06,株式会社Ｍｕ,,株式会社,東京都,渋谷区,桜丘町４番８号,,13,113,1500031,,,,,,,2024-11-06,1,,,,,ムー,0
2326,9011001165599,新規,0,2024-11-06,2024-11-06,株式会社Ｉｎ　Ｎａｔｕｒａ,,株式会社,東京都,渋谷区,恵比寿西１丁目１３番２号サンキビル１Ｆ,,13,113,1500021,,,,,,,2024-11-06,1,,,,,インナチュラ,0
2327,9011001165715,新規,0,2024-11-06,2024-11-06,株式会社Ｌｕｘｅｎｏｓａ,,株式会社,東京都,渋谷区,道玄坂１丁目１２番１号,,13,113,1500043,,,,,,,2024-11-06,1,,,,,ラクセノーザ,0
2329,9011003020273,新規,0,2024-11-06,2024-11-06,合同会社Ａｓｔｅｒｌｉａｎａ,,合同会社,東京都,渋谷区,恵比寿西２丁目４番８号ウィンド恵比寿ビル８Ｆ,,13,113,1500021,,,,,,,2024-11-06,1,,,,,アステリアナ,0
2330,9011003020281,新規,0,2024-11-06,2024-11-06,合同会社Ｍａｒｋｅｎｉｚｅ,,合同会社,東京都,渋谷区,道玄坂１丁目１０番８号渋谷道玄坂東急ビル２Ｆ－Ｃ,,13,113,1500043,,,,,,,2024-11-06,1,,,,,マルケナイズ,0
2331,9011003020298,新規,0,2024-11-06,2024-11-06,ｉｒｏｄｏｒｉ合同会社,,合同会社,東京都,渋谷区,円山町５番５号Ｎａｖｉ渋谷Ｖ３階,00136893,13,113,1500044,,,,,,,2024-11-06,1,,,,,イロドリ,0
2333,9011103015140,新規,0,2024-11-06,2024-11-06,合同会社ＮＥＥＤ‐ＬＥ,,合同会社,東京都,新宿区,西新宿３丁目３番１３号西新宿水間ビル２Ｆ,,13,104,1600023,,,,,,,2024-11-06,1,,,,,ニードル,0
2337,9011503006284,新規,0,2024-11-06,2024-11-06,龍華合同会社,,合同会社,東京都,荒川区,西日暮里１丁目４－３－７０１,,13,118,1160013,,,,,,,2024-11-06,1,,,,,リュウカ,0
2338,9011601028180,新規,0,2024-11-06,2024-11-06,株式会社ＭＹＬＥ,,株式会社,東京都,練馬区,光が丘３丁目３番６－６０２号,,13,120,1790072,,,,,,,2024-11-06,1,,,,,マイレ,0
2340,9012401042446,新規,0,2024-11-06,2024-11-06,ＧＫｌａｂ株式会社,,株式会社,東京都,武蔵野市,吉祥寺東町３丁目２１番６号,,13,203,1800002,,,,,,,2024-11-06,1,,,,,ジーケーラボ,0
2342,9012403006829,新規,0,2024-11-06,2024-11-06,合同会社Ａｒｃ　ＬｉｎｋＸ,,合同会社,東京都,三鷹市,上連雀２丁目９番２３号,,13,204,1810012,,,,,,,2024-11-06,1,,,,,アークリンクス,0
2344,9012801023541,新規,0,2024-11-06,2024-11-06,株式会社ＴｚＫＣ,,株式会社,東京都,国分寺市,日吉町２丁目１７－１０,,13,214,1850032,,,,,,,2024-11-06,1,,,,,ティーゼッドケーシー,0
2345,9012803003541,新規,0,2024-11-06,2024-11-06,ＫａＫａＲａＫａ合同会社,,合同会社,東京都,立川市,栄町４丁目２－１５立川ピュアコート１０１,,13,202,1900003,,,,,,,2024-11-06,1,,,,,カカラカ,0
2346,9013303007355,新規,0,2024-11-06,2024-11-06,ＮＴＵ合同会社,,合同会社,東京都,豊島区,巣鴨３丁目３３－６ＧＳハイム巣鴨２０１号室,,13,116,1700002,,,,,,,2024-11-06,1,,,,,エヌティーユー,0
2353,9020005016584,新規,0,2024-11-06,2024-11-06,一般社団法人虹の華,,その他の設立登記法人,神奈川県,横浜市都筑区,早渕１丁目２番４,,14,118,2240025,,,,,,,2024-11-06,1,,,,,ニジノハナ,0
2354,9020005016592,新規,0,2024-11-06,2024-11-06,特定非営利活動法人神奈川スポーツメディカルサポート,,その他の設立登記法人,神奈川県,横浜市神奈川区,白幡上町一丁目７番横浜ベースボール整骨院内,,14,102,2210075,,,,,,,2024-11-06,1,,,,,カナガワスポーツメディカルサポート,0
2359,9021001083569,新規,0,2024-11-06,2024-11-06,株式会社ｆｅｅｌｉｇｈｔ,,株式会社,神奈川県,厚木市,中町２丁目７―１９山崎商事ビル４階,,14,212,2430018,,,,,,,2024-11-06,1,,,,,フィーライト,0
2360,9021001083676,新規,0,2024-11-06,2024-11-06,株式会社柔走,,株式会社,神奈川県,小田原市,栄町２丁目１２－１０，ＳｑｕａｒｅＯ２，１階ＡＲＵＹＯＯＤＡＷＡＲＡ,,14,206,2500011,,,,,,,2024-11-06,1,,,,,ジュウソウ,0
2361,9021001083684,新規,0,2024-11-06,2024-11-06,ＯＲＣＨＥ株式会社,,株式会社,神奈川県,茅ヶ崎市,松浪１丁目７番３１号,,14,207,2530022,,,,,,,2024-11-06,1,,,,,オーク,0
2370,9030001163280,新規,0,2024-11-06,2024-11-06,株式会社ナカワ建装,,株式会社,埼玉県,さいたま市見沼区,大字中川６２３番地１２,,11,104,3370043,,,,,,,2024-11-06,1,,,,,ナカワケンソウ,0
2375,9030003025396,新規,0,2024-11-06,2024-11-06,合同会社サンフェースモータース,,合同会社,埼玉県,草加市,旭町６丁目１番１７－４０２号,,11,221,3400053,,,,,,,2024-11-06,1,,,,,サンフェースモータース,0
2386,9040003026096,新規,0,2024-11-06,2024-11-06,合同会社ｒｉｔｓｕ．,,合同会社,千葉県,習志野市,花咲１丁目４－２０,,12,216,2750013,,,,,,,2024-11-06,1,,,,,リツ,0
2388,9040005022564,新規,0,2024-11-06,2024-11-06,特定非営利活動法人日本構音障害協会,,その他の設立登記法人,千葉県,千葉市中央区,南生実町１１４番地１１３,,12,101,2600814,,,,,,,2024-11-06,1,,,,,ニホンコウオンショウガイキョウカイ,0
2389,9050001055658,新規,0,2024-11-06,2024-11-06,株式会社野生動物医科学ラボラトリー,,株式会社,茨城県,つくば市,小野川１６番地２,,08,220,3050053,,,,,,,2024-11-06,1,,,,,ヤセイドウブツイカガクラボラトリー,0
2390,9050001055690,新規,0,2024-11-06,2024-11-06,橋本コーポレーション株式会社,,株式会社,茨城県,神栖市,波崎９０５３番地３,,08,232,3140408,,,,,,,2024-11-06,1,,,,,ハシモトコーポレーション,0
2393,9060001037622,新規,0,2024-11-06,2024-11-06,株式会社空衛,,株式会社,栃木県,宇都宮市,江曽島５丁目１０番１１号,,09,201,3210107,,,,,,,2024-11-06,1,,,,,クウエイ,0
2394,9060001037630,新規,0,2024-11-06,2024-11-06,株式会社ＯＳ’ｔｅｃｈ,,株式会社,栃木県,那須塩原市,埼玉３番地１３９,,09,213,3250033,,,,,,,2024-11-06,1,,,,,オーエステック,0
2402,9080003003323,新規,0,2024-11-06,2024-11-06,未来ｐｅｄｉａ　Ｋ合同会社,,合同会社,静岡県,静岡市葵区,安東３丁目７番８号,,22,101,4200882,,,,,,,2024-11-06,1,,,,,ミライペディアケー,0
2406,9080403005134,新規,0,2024-11-06,2024-11-06,カイズミエコサービス合同会社,,合同会社,静岡県,袋井市,湊１２６１番地の３,,22,216,4371115,,,,,,,2024-11-06,1,,,,,カイズミエコサービス,0
2415,9110001038821,新規,0,2024-11-06,2024-11-06,Ｔｅｒｒａｃｅ株式会社,,株式会社,新潟県,新潟市中央区,上大川前通５番町６３番地２３エイルマンション上大川前１５０５号,,15,103,9518068,,,,,,,2024-11-06,1,,,,,テラス,0
2418,9110003005563,新規,0,2024-11-06,2024-11-06,合同会社アンドリー,,合同会社,新潟県,新潟市北区,彩野３丁目１番地２９,,15,101,9503377,,,,,,,2024-11-06,1,,,,,アンドリー,0
2439,9120001269928,新規,0,2024-11-06,2024-11-06,川之匯貿易株式会社,,株式会社,大阪府,大阪市東淀川区,西淡路５丁目１番１号２階２０４－６号室,,27,114,5330031,,,,,,,2024-11-06,1,,,,,カワノカイボウエキ,0
2440,9120001269936,新規,0,2024-11-06,2024-11-06,株式会社リアルタＭＫＣＴ,,株式会社,大阪府,大阪市東住吉区,針中野１丁目１９番１４号,,27,121,5460011,,,,,,,2024-11-06,1,,,,,リアルタエムケーシーティー,0
2441,9120001270019,新規,0,2024-11-06,2024-11-06,ＬＡＮＧＯ　ＪＡＰＡＮ株式会社,,株式会社,大阪府,大阪市住之江区,東加賀屋１丁目７番９号ファミール東加賀屋ウイングス１２階１２０５号室,,27,125,5590012,,,,,,,2024-11-06,1,,,,,ランゴジャパン,0
2442,9120001270068,新規,0,2024-11-06,2024-11-06,Ａｉｓｅ株式会社,,株式会社,大阪府,大阪市中央区,難波４丁目１番１５号近鉄難波ビル１階,,27,128,5420076,,,,,,,2024-11-06,1,,,,,エイス,0
2456,9130001078287,新規,0,2024-11-06,2024-11-06,株式会社ビューティヘルパー,,株式会社,京都府,京都市右京区,西院安塚町２４番地,,26,108,6150051,,,,,,,2024-11-06,1,,,,,ビューティヘルパー,0
2464,9140001136317,新規,0,2024-11-06,2024-11-06,ｅ‐ＰＯＲＴ株式会社,,株式会社,兵庫県,姫路市,勝原区丁９９－５,,28,201,6711203,,,,,,,2024-11-06,1,,,,,イーポート,0
2465,9140003021285,新規,0,2024-11-06,2024-11-06,合同会社博,,合同会社,兵庫県,神戸市中央区,東雲通１丁目４番２５号サンコート春日野ＩＩ７０１,00136898,28,110,6510079,,,,,,,2024-11-06,1,,,,,ヒロ,0
2466,9150001027647,新規,0,2024-11-06,2024-11-06,株式会社Ｘ‐Ｓｔｙｌｅ,,株式会社,奈良県,生駒郡斑鳩町,龍田西５丁目８番１６号,00136891,29,344,6360154,,,,,,,2024-11-06,1,,,,,エックススタイル,0
2468,9160001026301,新規,0,2024-11-06,2024-11-06,Ｇｌｏｂａｌ　Ｍａｒｋｅｒｓ株式会社,,株式会社,滋賀県,彦根市,新海浜２丁目１０番地８,,25,202,5211136,,,,,,,2024-11-06,1,,,,,グローバルマーカーズ,0
2469,9160001026326,新規,0,2024-11-06,2024-11-06,ＬｉｂｅｎＴｒａｖｅｌ株式会社,,株式会社,滋賀県,大津市,千野３丁目１番９号,,25,201,5200111,,,,,,,2024-11-06,1,,,,,リベントラベル,0
2470,9160001026334,新規,0,2024-11-06,2024-11-06,株式会社Ｌｉｂｒａ,,株式会社,滋賀県,彦根市,旭町９番６号,,25,202,5220073,,,,,,,2024-11-06,1,,,,,リブラ,0
2474,9170001018363,新規,0,2024-11-06,2024-11-06,株式会社貴嶋,,株式会社,和歌山県,有田市,初島町浜１７６９番地２２,,30,204,6490306,,,,,,,2024-11-06,1,,,,,キシマ,0
2479,9180001163992,新規,0,2024-11-06,2024-11-06,株式会社クニケン,,株式会社,愛知県,名古屋市港区,明正１丁目７４番地の２,,23,111,4550806,,,,,,,2024-11-06,1,,,,,クニケン,0
2487,9190001031777,新規,0,2024-11-06,2024-11-06,株式会社ケーエスエフ,,株式会社,三重県,四日市市,桜台１丁目５４番地６,,24,202,5121214,,,,,,,2024-11-06,1,,,,,ケーエスエフ,0
2489,9200001043093,新規,0,2024-11-06,2024-11-06,株式会社アルフ２１,,株式会社,岐阜県,可児市,下恵土１丁目７１番地,,21,214,5090209,,,,,,,2024-11-06,1,,,,,アルフニジュウイチ,0
2491,9200003006569,新規,0,2024-11-06,2024-11-06,合同会社加藤商会,,合同会社,岐阜県,下呂市,東上田３２９番地,,21,220,5092201,,,,,,,2024-11-06,1,,,,,カトウショウカイ,0
2493,9220001026311,新規,0,2024-11-06,2024-11-06,シンエステート株式会社,,株式会社,石川県,羽咋市,釜屋町ヰ１８番地,,17,207,9250014,,,,,,,2024-11-06,1,,,,,シンエステート,0
2495,9220003003878,新規,0,2024-11-06,2024-11-06,合同会社ｃｏｒｓａｇｅｓ,,合同会社,石川県,河北郡内灘町,字旭ケ丘９３番地１,,17,365,9200275,,,,,,,2024-11-06,1,,,,,コサージュ,0
2497,9220005008900,新規,0,2024-11-06,2024-11-06,税理士法人アーマス,,その他の設立登記法人,石川県,野々市市,御経塚３丁目３７番地,,17,212,9218801,,,,,,,2024-11-06,1,,,,,アーマス,0
2502,9250001020880,新規,0,2024-11-06,2024-11-06,株式会社酒のパンチ,,株式会社,山口県,周南市,飯島町１丁目４２番,,35,215,7450014,,,,,,,2024-11-06,1,,,,,サケノパンチ,0
2508,9260003004955,新規,0,2024-11-06,2024-11-06,タスクマネジメント合同会社,,合同会社,岡山県,倉敷市,藤戸町藤戸１４９１番地３０,,33,202,7100133,,,,,,,2024-11-06,1,,,,,タスクマネジメント,0
2509,9280001009285,新規,0,2024-11-06,2024-11-06,株式会社みの吉,,株式会社,島根県,益田市,駅前町２１番９号,,32,204,6980024,,,,,,,2024-11-06,1,,,,,ミノキチ,0
2510,9280003001892,新規,0,2024-11-06,2024-11-06,合同会社ジビエール,,合同会社,島根県,出雲市,稗原町２１５５番地２,,32,203,6930104,,,,,,,2024-11-06,1,,,,,ジビエール,0
2521,9290001107880,新規,0,2024-11-06,2024-11-06,株式会社Ｃ・ｎｅｔ,,株式会社,福岡県,福岡市南区,大池１丁目１５番８号,,40,134,8150073,,,,,,,2024-11-06,1,,,,,シーネット,0
2522,9290001107889,新規,0,2024-11-06,2024-11-06,株式会社こてつ,,株式会社,福岡県,福岡市早良区,室見３丁目１番２０号,,40,137,8140015,,,,,,,2024-11-06,1,,,,,コテツ,0
2523,9290003016031,新規,0,2024-11-06,2024-11-06,合同会社ヤマダイ,,合同会社,福岡県,大野城市,緑ケ丘４丁目１６番２号,,40,219,8160961,,,,,,,2024-11-06,1,,,,,ヤマダイ,0
2525,9290801030951,新規,0,2024-11-06,2024-11-06,アイコンナビ株式会社,,株式会社,福岡県,北九州市八幡西区,日吉台２丁目８番１号（１０１号）,,40,109,8070866,,,,,,,2024-11-06,1,,,,,アイコンナビ,0
2526,9300001013953,新規,0,2024-11-06,2024-11-06,株式会社創希舎,,株式会社,佐賀県,武雄市,若木町大字川古７４１６番地３,,41,206,8430151,,,,,,,2024-11-06,1,,,,,ソウキシャ,0
2528,9320001020790,新規,0,2024-11-06,2024-11-06,株式会社Ｔｒｉｎｉｔｙ　Ｒｉｎｇ,,株式会社,大分県,別府市,餅ケ浜町８番２６号ロフティ餅ヶ浜シーサイド１２０１号,,44,202,8740924,,,,,,,2024-11-06,1,,,,,トリニティーリング,0
2531,9330001032620,新規,0,2024-11-06,2024-11-06,株式会社グリーンファースト,,株式会社,熊本県,熊本市北区,徳王２丁目１９番５号,,43,105,8615525,,,,,,,2024-11-06,1,,,,,グリーンファースト,0
2532,9330003010624,新規,0,2024-11-06,2024-11-06,合同会社纏,,合同会社,熊本県,熊本市中央区,帯山５丁目１０番１８号,,43,101,8620924,,,,,,,2024-11-06,1,,,,,マトイ,0
2537,9360001034399,新規,0,2024-11-06,2024-11-06,株式会社ＢＬＵＥ　ＭＩＹＡＫＯ,,株式会社,沖縄県,宮古島市,平良字西里２４０番地２,,47,214,9060012,,,,,,,2024-11-06,1,,,,,ブルーミヤコ,0
2538,9360005007129,新規,0,2024-11-06,2024-11-06,沖縄県建設業移動式クレーン協同組合,,その他の設立登記法人,沖縄県,那覇市,曙２丁目３番２０号２階,,47,201,9000002,,,,,,,2024-11-06,1,,,,,オキナワケンケンセツギョウイドウシキクレーン,0
2540,9370003006800,新規,0,2024-11-06,2024-11-06,合同会社フライトパス,,合同会社,宮城県,仙台市青葉区,本町１丁目５番２８号カーニープレイス仙台駅前通６０３号室,,04,101,9800014,,,,,,,2024-11-06,1,,,,,フライトパス,0
2543,9390005009089,新規,0,2024-11-06,2024-11-06,一般社団法人遊ばざるもの学ぶべからず,,その他の設立登記法人,山形県,飽海郡遊佐町,当山字上戸１５番地の１,,06,461,9998523,,,,,,,2024-11-06,1,,,,,アソバザルモノマナブベカラズ,0
2549,9430001092984,新規,0,2024-11-06,2024-11-06,株式会社凌健,,株式会社,北海道,苫小牧市,緑町２丁目２４番８号,,01,213,0530032,,,,,,,2024-11-06,1,,,,,リョウケン,0
2552,9430003016966,新規,0,2024-11-06,2024-11-06,合同会社Ａ．Ｋ　ＴＲＡＤＩＮＧ,,合同会社,北海道,江別市,野幌屯田町２０番地の１５,,01,217,0690803,,,,,,,2024-11-06,1,,,,,エーケートレーディング,0
2553,9450001014441,新規,0,2024-11-06,2024-11-06,株式会社ＨＡＬ,,株式会社,北海道,旭川市,台場一条４丁目２番９号,,01,204,0708071,,,,,,,2024-11-06,1,,,,,エイチエーエル,0
2557,9470001020446,新規,0,2024-11-06,2024-11-06,株式会社ｕｎｌｏｃｋ,,株式会社,香川県,高松市,田村町９３０番地３,,37,201,7618057,,,,,,,2024-11-06,1,,,,,アンロック,0
2558,9480001012640,新規,0,2024-11-06,2024-11-06,株式会社ＨＥＫ,,株式会社,徳島県,徳島市,北矢三町１丁目１番６７－４号,,36,201,7700006,,,,,,,2024-11-06,1,,,,,エイチイーケー,0
