sequenceNumber,corporateNumber,process,correct,updateDate,changeDate,name,nameImageId,kind,prefectureName,cityName,streetNumber,addressImageId,prefectureCode,cityCode,postCode,addressOutside,addressOutsideImageId,closeDate,closeCause,successorCorporateNumber,changeCause,assignmentDate,latest,enName,enPrefectureName,enCityName,enAddressOutside,furigana,hihyoji
7,1010001236013,新規,0,2023-06-08,2023-06-08,株式会社ｄｃ,,株式会社,東京都,千代田区,富士見２丁目２番１４－２０３号,,13,101,1020071,,,,,,,2023-06-08,1,,,,,ディーシー,0
8,1010001236021,新規,0,2023-06-08,2023-06-08,馬可波羅株式会社,,株式会社,東京都,千代田区,霞が関３丁目２番５号,,13,101,1000013,,,,,,,2023-06-08,1,,,,,マコポロ,0
13,1010003040784,新規,0,2023-06-08,2023-06-08,合同会社御福プロパティーズ,,合同会社,東京都,千代田区,丸の内３丁目１番１号東京共同会計事務所内,,13,101,1000005,,,,,,,2023-06-08,1,,,,,オフクプロパティーズ,0
16,1010005036806,新規,0,2023-06-08,2023-06-08,一般社団法人日本消波根固ブロック協会,,その他の設立登記法人,東京都,千代田区,神田錦町３丁目６番地,,13,101,1010054,,,,,,,2023-06-08,1,,,,,ニホンショウハネガタメブロックキョウカイ,0
21,1010401174829,新規,0,2023-06-08,2023-06-08,株式会社インターリレイト,,株式会社,東京都,港区,南麻布５丁目１０番２７‐２１８号,,13,103,1060047,,,,,,,2023-06-08,1,,,,,インターリレイト,0
22,1010401174878,新規,0,2023-06-08,2023-06-08,Ｂ‐ＴＲＩＰ株式会社,,株式会社,東京都,港区,北青山２丁目７番９号,,13,103,1070061,,,,,,,2023-06-08,1,,,,,ビートリップ,0
26,1010403030229,新規,0,2023-06-08,2023-06-08,合同会社ａｗａｉ,,合同会社,東京都,港区,南青山２丁目２番１５号,,13,103,1070062,,,,,,,2023-06-08,1,,,,,アワイ,0
27,1010405022216,新規,0,2023-06-08,2023-06-08,司法書士法人青葉リーガルオフィス,,その他の設立登記法人,東京都,港区,北青山２丁目７番１３号プラセオ青山ビル３階,,13,103,1070061,,,,,,,2023-06-08,1,,,,,アオバリーガルオフィス,0
39,1010701044351,新規,0,2023-06-08,2023-06-08,株式会社ＪＴＭＲ,,株式会社,東京都,品川区,大井４丁目８番１号,,13,109,1400014,,,,,,,2023-06-08,1,,,,,ジェイティーエムアール,0
40,1010701044392,新規,0,2023-06-08,2023-06-08,ＬＩＲＥＴＹ株式会社,,株式会社,東京都,品川区,小山３丁目１４－２シティタワー武蔵小山２５１２号室,,13,109,1420062,,,,,,,2023-06-08,1,,,,,リレティ,0
44,1010901053185,新規,0,2023-06-08,2023-06-08,ナウド・アドバイザリー株式会社,,株式会社,東京都,世田谷区,池尻１丁目８－４,,13,112,1540001,,,,,,,2023-06-08,1,,,,,ナウドアドバイザリー,0
46,1010903008204,新規,0,2023-06-08,2023-06-08,合同会社モンステラ,,合同会社,東京都,世田谷区,北烏山３丁目２２－１,,13,112,1570061,,,,,,,2023-06-08,1,,,,,モンステラ,0
47,1010903008220,新規,0,2023-06-08,2023-06-08,Ｃｈｅｒ　ｂｒｕｎ合同会社,,合同会社,東京都,世田谷区,上用賀６丁目１５番１５号,,13,112,1580098,,,,,,,2023-06-08,1,,,,,シェルブラン,0
53,1011001154964,新規,0,2023-06-08,2023-06-08,株式会社ＢＬＥＥＣＫＥＲ,,株式会社,東京都,目黒区,中目黒２丁目５番２５号ハウス中目黒５０３,,13,110,1530061,,,,,,,2023-06-08,1,,,,,ブリーカー,0
54,1011001154972,新規,0,2023-06-08,2023-06-08,株式会社Ｗｅ　Ｍｅｔ,,株式会社,東京都,渋谷区,千駄ヶ谷５丁目２１番１４号バリューＨＲビル２階,,13,113,1510051,,,,,,,2023-06-08,1,,,,,ウィーメット,0
55,1011001155005,新規,0,2023-06-08,2023-06-08,株式会社エスエスコンサルティング,,株式会社,東京都,渋谷区,渋谷１丁目１１番３号第一小山ビル３階,,13,113,1500002,,,,,,,2023-06-08,1,,,,,エスエスコンサルティング,0
59,1011003016948,新規,0,2023-06-08,2023-06-08,合同会社ＰＯＤ,,合同会社,東京都,渋谷区,千駄ヶ谷３丁目２０番１０号２階,,13,113,1510051,,,,,,,2023-06-08,1,,,,,ポッド,0
63,1011101103177,新規,0,2023-06-08,2023-06-08,株式会社Ｆｕｎ　Ｄｉｍｅｎｓｉｏｎ,,株式会社,東京都,新宿区,新小川町８－１３－３０１,,13,104,1620814,,,,,,,2023-06-08,1,,,,,ファンディメンション,0
64,1011101103202,新規,0,2023-06-08,2023-06-08,株式会社ｆｉｎｅ　ｗｅａｔｈｅｒ,,株式会社,東京都,新宿区,戸山３丁目２１番５号,,13,104,1620052,,,,,,,2023-06-08,1,,,,,ファインウェザー,0
66,1011201024703,新規,0,2023-06-08,2023-06-08,三木グループホールディングス株式会社,,株式会社,東京都,中野区,大和町３丁目４３番１３号,,13,114,1650034,,,,,,,2023-06-08,1,,,,,ミキグループホールディングス,0
69,1011301028744,新規,0,2023-06-08,2023-06-08,株式会社トラストケムジャパン,,株式会社,東京都,杉並区,井草３丁目２２番２号２０３,,13,115,1670021,,,,,,,2023-06-08,1,,,,,トラストケムジャパン,0
70,1011301028760,新規,0,2023-06-08,2023-06-08,株式会社まるみ屋,,株式会社,東京都,杉並区,高円寺南２丁目１６番２号,,13,115,1660003,,,,,,,2023-06-08,1,,,,,マルミヤ,0
74,1011501029377,新規,0,2023-06-08,2023-06-08,Ｇ’Ｆｉｖｅ株式会社,,株式会社,東京都,荒川区,東日暮里６丁目１２番５号,,13,118,1160014,,,,,,,2023-06-08,1,,,,,ジーファイブ,0
76,1011503005632,新規,0,2023-06-08,2023-06-08,起動力合同会社,,合同会社,東京都,北区,浮間１丁目１番１４号リムジンビル１０３,,13,117,1150051,,,,,,,2023-06-08,1,,,,,キドウリョク,0
77,1011701026298,新規,0,2023-06-08,2023-06-08,株式会社ステイヤー,,株式会社,東京都,江戸川区,松江２丁目１０番１２号,,13,123,1320025,,,,,,,2023-06-08,1,,,,,ステイヤー,0
79,1012401040614,新規,0,2023-06-08,2023-06-08,株式会社ティーケーエアシステム,,株式会社,東京都,多摩市,豊ヶ丘１丁目３５番地の２７,,13,224,2060031,,,,,,,2023-06-08,1,,,,,ティーケーエアシステム,0
82,1012801022419,新規,0,2023-06-08,2023-06-08,株式会社ＳＡＫＩＧＡＫＥ,,株式会社,東京都,立川市,錦町２丁目１番２１号シャトー丸山２Ｆ－Ａ,,13,202,1900022,,,,,,,2023-06-08,1,,,,,サキガケ,0
87,1013305003483,新規,0,2023-06-08,2023-06-08,一般社団法人上場を目指す会,,その他の設立登記法人,東京都,豊島区,高松２丁目５２－９アンジュール高松１０２,,13,116,1710042,,,,,,,2023-06-08,1,,,,,ジョウジョウヲメザスカイ,0
95,1020001151954,新規,0,2023-06-08,2023-06-08,株式会社フジトヨホールディングス,,株式会社,神奈川県,横浜市鶴見区,鶴見中央１丁目３１番２２－３００９号,,14,101,2300051,,,,,,,2023-06-08,1,,,,,フジトヨホールディングス,0
96,1020001151979,新規,0,2023-06-08,2023-06-08,株式会社高橋葬祭,,株式会社,神奈川県,横浜市磯子区,杉田２丁目８番２２－Ａ２０２号,,14,107,2350033,,,,,,,2023-06-08,1,,,,,タカハシソウサイ,0
100,1020003024019,新規,0,2023-06-08,2023-06-08,合同会社クラフトジャパン,,合同会社,神奈川県,横浜市中区,扇町４丁目１１番１３号,,14,104,2310027,,,,,,,2023-06-08,1,,,,,クラフトジャパン,0
102,1020005016022,新規,0,2023-06-08,2023-06-08,ＮＰＯ法人ソナフル,,その他の設立登記法人,神奈川県,川崎市宮前区,菅生１丁目１番８号シャトレー菅生２０２号室,,14,136,2160015,,,,,,,2023-06-08,1,,,,,ソナフル,0
104,1021001079236,新規,0,2023-06-08,2023-06-08,株式会社福新ホールディングス,,株式会社,神奈川県,足柄下郡箱根町,仙石原１２４６番地の５８４,,14,382,2500631,,,,,,,2023-06-08,1,,,,,フクシンホールディングス,0
105,1021001079244,新規,0,2023-06-08,2023-06-08,株式会社下川工務店,,株式会社,神奈川県,小田原市,田島９５２番地の１,,14,206,2560811,,,,,,,2023-06-08,1,,,,,シモカワコウムテン,0
106,1021001079252,新規,0,2023-06-08,2023-06-08,株式会社ろーたす,,株式会社,神奈川県,大和市,下鶴間２２０２番地１６,,14,213,2420001,,,,,,,2023-06-08,1,,,,,ロータス,0
107,1021001079277,新規,0,2023-06-08,2023-06-08,株式会社中村商事,,株式会社,神奈川県,伊勢原市,東富岡５８４番地の２,,14,214,2591112,,,,,,,2023-06-08,1,,,,,ナカムラショウジ,0
112,1021003013192,新規,0,2023-06-08,2023-06-08,みち合同会社,,合同会社,神奈川県,茅ヶ崎市,矢畑２４番地８,,14,207,2530085,,,,,,,2023-06-08,1,,,,,ミチ,0
120,1030001154254,新規,0,2023-06-08,2023-06-08,株式会社ヨコテ住設,,株式会社,埼玉県,南埼玉郡宮代町,字山崎３２２番地,,11,442,3450824,,,,,,,2023-06-08,1,,,,,ヨコテジュウセツ,0
121,1030001154279,新規,0,2023-06-08,2023-06-08,株式会社ベストトップ,,株式会社,埼玉県,幸手市,東１丁目３－２０,,11,240,3400114,,,,,,,2023-06-08,1,,,,,ベストトップ,0
122,1030001154329,新規,0,2023-06-08,2023-06-08,株式会社３３,,株式会社,埼玉県,さいたま市浦和区,神明１丁目２７番２５号,,11,107,3300065,,,,,,,2023-06-08,1,,,,,サーティースリー,0
123,1030005021277,新規,0,2023-06-08,2023-06-08,一般社団法人埼玉リリーフセンター,,その他の設立登記法人,埼玉県,さいたま市大宮区,桜木町２丁目３番地,,11,103,3300854,,,,,,,2023-06-08,1,,,,,サイタマリリーフセンター,0
128,1040001128703,新規,0,2023-06-08,2023-06-08,株式会社ＬＤＫ,,株式会社,千葉県,船橋市,駿河台１丁目３２番８号パークワンモア東船橋アネックス１０２号室,,12,204,2730862,,,,,,,2023-06-08,1,,,,,エルディーケー,0
131,1040003022763,新規,0,2023-06-08,2023-06-08,合同会社Ｇｏｏｄ　ｌｕｃｋ,,合同会社,千葉県,旭市,清和甲１６９４番地,,12,215,2890507,,,,,,,2023-06-08,1,,,,,グッドラック,0
132,1050001052919,新規,0,2023-06-08,2023-06-08,ＣＡＲ　ＲＥＳＴ　ＴＳＵＫＵＢＡ株式会社,,株式会社,茨城県,つくば市,上河原崎４９番地４（高山Ｃ６街区３）,,08,220,3002661,,,,,,,2023-06-08,1,,,,,カーレストツクバ,0
133,1050001052935,新規,0,2023-06-08,2023-06-08,タワフトレーディング株式会社,,株式会社,茨城県,常総市,小保川１３３０番地,,08,211,3002703,,,,,,,2023-06-08,1,,,,,タワフトレーディング,0
134,1050001052951,新規,0,2023-06-08,2023-06-08,株式会社総建,,株式会社,茨城県,東茨城郡茨城町,大字上雨ヶ谷９２２番地１,,08,302,3113145,,,,,,,2023-06-08,1,,,,,ソウケン,0
135,1050003007549,新規,0,2023-06-08,2023-06-08,合同会社ハピネス,,合同会社,茨城県,取手市,上高井３５２番地２１コーポ廣瀬１０１号室,,08,217,3020035,,,,,,,2023-06-08,1,,,,,,0
136,1050003007565,新規,0,2023-06-08,2023-06-08,Ｙ＆Ｌ合同会社,,合同会社,茨城県,笠間市,東平２丁目６番９号,,08,216,3091705,,,,,,,2023-06-08,1,,,,,ワイアンドエル,0
141,1060003004594,新規,0,2023-06-08,2023-06-08,合同会社ファースト,,合同会社,栃木県,那須塩原市,下永田２丁目１０５１番地１,,09,213,3292712,,,,,,,2023-06-08,1,,,,,ファースト,0
142,1070001040525,新規,0,2023-06-08,2023-06-08,株式会社宮下不動産,,株式会社,群馬県,渋川市,白井５８１番地２,,10,208,3770204,,,,,,,2023-06-08,1,,,,,ミヤシタフドウサン,0
146,1080405007549,新規,0,2023-06-08,2023-06-08,土地家屋調査士法人田内工務所,,その他の設立登記法人,静岡県,湖西市,鷲津７９５番地の１,,22,221,4310431,,,,,,,2023-06-08,1,,,,,タナイコウムショ,0
149,1100001036486,新規,0,2023-06-08,2023-06-08,株式会社ＢＬＣホールディングス,,株式会社,長野県,安曇野市,豊科南穂高３７４番地２,,20,220,3998201,,,,,,,2023-06-08,1,,,,,ビーエルシーホールディングス,0
153,1120001255448,新規,0,2023-06-08,2023-06-08,株式会社７クルール,,株式会社,大阪府,大阪市生野区,桃谷４丁目１８番１５号,,27,116,5440034,,,,,,,2023-06-08,1,,,,,セブンクルール,0
154,1120001255456,新規,0,2023-06-08,2023-06-08,株式会社ＨＡＩＬ,,株式会社,大阪府,大阪市中央区,上本町西３丁目２番８－３０２号,,27,128,5420062,,,,,,,2023-06-08,1,,,,,ヘイル,0
155,1120001255514,新規,0,2023-06-08,2023-06-08,株式会社クイックステーション,,株式会社,大阪府,大阪市中央区,南船場４丁目７番２１号,,27,128,5420081,,,,,,,2023-06-08,1,,,,,クイックステーション,0
156,1120001255522,新規,0,2023-06-08,2023-06-08,株式会社ありのまま,,株式会社,大阪府,大阪市中央区,道修町２丁目２番５号イヌイ第二ビル２階,,27,128,5410045,,,,,,,2023-06-08,1,,,,,アリノママ,0
158,1120101067685,新規,0,2023-06-08,2023-06-08,株式会社アイティフォースホールディングス,,株式会社,大阪府,堺市東区,西野２８８番地６５,,27,143,5998125,,,,,,,2023-06-08,1,,,,,アイティフォースホールディングス,0
159,1120101067693,新規,0,2023-06-08,2023-06-08,ステラホーム株式会社,,株式会社,大阪府,堺市堺区,榎元町６丁５番５号,,27,141,5900027,,,,,,,2023-06-08,1,,,,,ステラホーム,0
164,1120901047622,新規,0,2023-06-08,2023-06-08,株式会社ＲＯＳＳＹ,,株式会社,大阪府,豊中市,長興寺南３丁目１３番１５－３０２号,,27,203,5610874,,,,,,,2023-06-08,1,,,,,ロッシー,0
165,1120901047639,新規,0,2023-06-08,2023-06-08,株式会社Ｄｕｒａｃｌｅ　ＨＤ,,株式会社,大阪府,高槻市,高槻町１６－５,,27,207,5690803,,,,,,,2023-06-08,1,,,,,デュラクルホールディングス,0
166,1120903004662,新規,0,2023-06-08,2023-06-08,フルオブワンダーホールディングス合同会社,,合同会社,大阪府,吹田市,豊津町９番２２号大同門本部ビル６Ｆ,,27,205,5640051,,,,,,,2023-06-08,1,,,,,フルオブワンダーホールディングス,0
168,1122001037058,新規,0,2023-06-08,2023-06-08,株式会社おふとん,,株式会社,大阪府,東大阪市,花園本町１丁目７番１３号,,27,227,5780937,,,,,,,2023-06-08,1,,,,,オフトン,0
169,1130001074467,新規,0,2023-06-08,2023-06-08,株式会社Ｅ２,,株式会社,京都府,宇治市,伊勢田町浮面４４番地の５,,26,204,6110043,,,,,,,2023-06-08,1,,,,,イーツー,0
173,1140001130351,新規,0,2023-06-08,2023-06-08,西播未来創造株式会社,,株式会社,兵庫県,宍粟市,山崎町門前７６番地１－５０１,,28,227,6712579,,,,,,,2023-06-08,1,,,,,セイバンミライソウゾウ,0
174,1140001130376,新規,0,2023-06-08,2023-06-08,金川経営コンサルティング株式会社,,株式会社,兵庫県,尼崎市,東園田町９丁目２５番地の５－２０５号,,28,202,6610953,,,,,,,2023-06-08,1,,,,,カナガワケイエイコンサルティング,0
175,1140001130418,新規,0,2023-06-08,2023-06-08,株式会社ＲＯＸ,,株式会社,兵庫県,尼崎市,食満３丁目１４番８号,,28,202,6610982,,,,,,,2023-06-08,1,,,,,ロックス,0
176,1140001130434,新規,0,2023-06-08,2023-06-08,株式会社加藤,,株式会社,兵庫県,芦屋市,船戸町５－１８－１０４,,28,206,6590093,,,,,,,2023-06-08,1,,,,,カトウ,0
186,1160001025104,新規,0,2023-06-08,2023-06-08,株式会社デルファイ,,株式会社,滋賀県,大津市,相模町４番５－Ａ１０４号,,25,201,5200816,,,,,,,2023-06-08,1,,,,,デルファイ,0
187,1170001017637,新規,0,2023-06-08,2023-06-08,株式会社奥林工業,,株式会社,和歌山県,和歌山市,毛見１０２４番地３,,30,201,6410014,,,,,,,2023-06-08,1,,,,,オクバヤシコウギョウ,0
200,1180001156517,新規,0,2023-06-08,2023-06-08,マインズ株式会社,,株式会社,愛知県,名古屋市中村区,名駅３丁目４番１０号アルティメイト名駅１ｓｔ２階,,23,105,4500002,,,,,,,2023-06-08,1,,,,,マインズ,0
201,1180001156574,新規,0,2023-06-08,2023-06-08,和舟株式会社,,株式会社,愛知県,名古屋市中川区,南脇町３丁目３２番地の１,,23,110,4540817,,,,,,,2023-06-08,1,,,,,ワシュウ,0
202,1180001156590,新規,0,2023-06-08,2023-06-08,株式会社ＦＵＮＮＹ,,株式会社,愛知県,名古屋市中区,栄４丁目１６番１５号（プレサンスグラン栄ザタワー７０５号）,,23,106,4600008,,,,,,,2023-06-08,1,,,,,ファニー,0
203,1180001156632,新規,0,2023-06-08,2023-06-08,株式会社ＺＥＵＳ,,株式会社,愛知県,名古屋市中村区,名駅５丁目３１番１０号リンクス名駅ビル５Ｆ、６Ｆ,,23,105,4500002,,,,,,,2023-06-08,1,,,,,ゼウス,0
204,1180001156640,新規,0,2023-06-08,2023-06-08,株式会社ユナイテッドウェルネス,,株式会社,愛知県,名古屋市中区,金山４丁目１番７号,,23,106,4600022,,,,,,,2023-06-08,1,,,,,ユナイテッドウェルネス,0
205,1180001156715,新規,0,2023-06-08,2023-06-08,ＣＨＥＦ株式会社,,株式会社,愛知県,名古屋市中村区,名駅１丁目１番１号ＪＰタワー名古屋２１階,,23,105,4500002,,,,,,,2023-06-08,1,,,,,シェフ,0
212,1190001030464,新規,0,2023-06-08,2023-06-08,株式会社オータム,,株式会社,三重県,四日市市,笹川２丁目１５０番地ノートルメゾンＡ－２０２,,24,202,5100944,,,,,,,2023-06-08,1,,,,,オータム,0
213,1190001030472,新規,0,2023-06-08,2023-06-08,株式会社鳥黒,,株式会社,三重県,四日市市,西新地７番３号,,24,202,5100087,,,,,,,2023-06-08,1,,,,,トリクロ,0
215,1190003004342,新規,0,2023-06-08,2023-06-08,合同会社ＴＲｕｕＮＫ,,合同会社,三重県,伊賀市,新堂５６５番地１,,24,216,5191416,,,,,,,2023-06-08,1,,,,,トランク,0
220,1200003005982,新規,0,2023-06-08,2023-06-08,合同会社ＢＩＮＨ　ＭＩＮＨ,,合同会社,岐阜県,可児市,広見６０６番地、可児第一マンション１０２号,,21,214,5090214,,,,,,,2023-06-08,1,,,,,ビンミン,0
227,1230001019874,新規,0,2023-06-08,2023-06-08,Ｌ＆Ｌ産業株式会社,,株式会社,富山県,富山市,新庄町１７番地９,,16,201,9300992,,,,,,,2023-06-08,1,,,,,エルアンドエルサンギョウ,0
232,1230003002028,新規,0,2023-06-08,2023-06-08,合同会社ＮＴアクティブ,,合同会社,富山県,砺波市,石丸３１番地,,16,208,9391301,,,,,,,2023-06-08,1,,,,,エヌテイアクティブ,0
239,1250001020129,新規,0,2023-06-08,2023-06-08,株式会社エフテック,,株式会社,山口県,山口市,朝田２９６番地７,,35,203,7530871,,,,,,,2023-06-08,1,,,,,エフテック,0
242,1260005011239,新規,0,2023-06-08,2023-06-08,一般社団法人岡山県酒問題ゼロＬａｂ,,その他の設立登記法人,岡山県,岡山市北区,東島田町１丁目８番５号,,33,101,7000983,,,,,,,2023-06-08,1,,,,,オカヤマケンサケモンダイゼロラボ,0
243,1270001008790,新規,0,2023-06-08,2023-06-08,ＳｔａｒＳｈｉｐ株式会社,,株式会社,鳥取県,鳥取市,湖山町東４丁目２７番地２,,31,201,6800942,,,,,,,2023-06-08,1,,,,,スターシップ,0
252,1290001101825,新規,0,2023-06-08,2023-06-08,株式会社スマートスタッフ,,株式会社,福岡県,福岡市中央区,平尾４丁目１４番２７号,,40,133,8100014,,,,,,,2023-06-08,1,,,,,スマートスタッフ,0
253,1290001101833,新規,0,2023-06-08,2023-06-08,株式会社グランディールプラス,,株式会社,福岡県,春日市,春日原南町２丁目４番地,,40,218,8160803,,,,,,,2023-06-08,1,,,,,グランディールプラス,0
255,1290003013969,新規,0,2023-06-08,2023-06-08,Ｃ＆Ｆ合同会社,,合同会社,福岡県,福岡市中央区,春吉２丁目１０－６モントーレ天神１４０６,,40,133,8100003,,,,,,,2023-06-08,1,,,,,シーアンドエフ,0
256,1290003013993,新規,0,2023-06-08,2023-06-08,合同会社協和メディカル,,合同会社,福岡県,福岡市早良区,百道２丁目９－６－１００２号室グランドメゾン百道プレイス,,40,137,8140006,,,,,,,2023-06-08,1,,,,,キョウワメディカル,0
259,1290801029588,新規,0,2023-06-08,2023-06-08,株式会社西小倉ホールディングス,,株式会社,福岡県,北九州市小倉北区,西港町１２２番地の２２,,40,106,8030801,,,,,,,2023-06-08,1,,,,,ニシコクラホールディングス,0
265,1330001030920,新規,0,2023-06-08,2023-06-08,西野宮住設株式会社,,株式会社,熊本県,玉名市,横田２１９番地,,43,206,8650043,,,,,,,2023-06-08,1,,,,,ニシノミヤジュウセツ,0
266,1330001030937,新規,0,2023-06-08,2023-06-08,株式会社濱岡不動産,00130773,株式会社,熊本県,玉名郡長洲町,大字清源寺１３７２番地,,43,368,8690105,,,,,,,2023-06-08,1,,,,,ハマオカフドウサン,0
277,1370001050048,新規,0,2023-06-08,2023-06-08,株式会社まるふく不動産,,株式会社,宮城県,東松島市,牛網字駅前一丁目１０番地１８,,04,214,9810301,,,,,,,2023-06-08,1,,,,,マルフクフドウサン,0
283,1390005009014,新規,0,2023-06-08,2023-06-08,一般社団法人じゆうのもり,,その他の設立登記法人,山形県,飽海郡遊佐町,小松字佐渡１番地の２,,06,461,9998317,,,,,,,2023-06-08,1,,,,,ジユウノモリ,0
301,1490001010502,新規,0,2023-06-08,2023-06-08,株式会社ＬＳ,,株式会社,高知県,高知市,伊勢崎町２番３号,,39,201,7800046,,,,,,,2023-06-08,1,,,,,エルエス,0
303,1500005008615,新規,0,2023-06-08,2023-06-08,行政書士法人すみれ,,その他の設立登記法人,愛媛県,松山市,森松町１０５４番地５,,38,201,7911113,,,,,,,2023-06-08,1,,,,,,0
304,1700150117043,新規,0,2023-06-08,2023-06-08,ＰＵＳＨ　ＳＡＬＥ,,外国会社等,栃木県,栃木市,岩舟町新里１３０４－４２,,09,203,3294316,パキスタン、パンジャブ、グジュランワラ、アループ、グジュランワラ、カント、チェナブ門、カナル公園の近く,,,,,,2023-06-08,1,,,,,プッシュセール,0
314,2010001235815,新規,0,2023-06-08,2023-06-08,株式会社タカゾノホールディングス,,株式会社,東京都,中央区,勝どき３丁目１２番１号,,13,102,1040054,,,,,,,2023-06-08,1,,,,,タカゾノホールディングス,0
315,2010001235939,新規,0,2023-06-08,2023-06-08,東京築城株式会社,,株式会社,東京都,中央区,明石町５－１３シャルマン築地明石町４１７,,13,102,1040044,,,,,,,2023-06-08,1,,,,,トウキョウチクジョウ,0
316,2010001235996,新規,0,2023-06-08,2023-06-08,ダブルアール株式会社,,株式会社,東京都,中央区,銀座１丁目１２番４号Ｎ＆ＥＢＬＤ．６Ｆ,,13,102,1040061,,,,,,,2023-06-08,1,,,,,ダブルアール,0
317,2010001236020,新規,0,2023-06-08,2023-06-08,好日株式会社,,株式会社,東京都,千代田区,霞が関３丁目２番５号,,13,101,1000013,,,,,,,2023-06-08,1,,,,,コウニチ,0
318,2010001236053,新規,0,2023-06-08,2023-06-08,株式会社ＫＳＦＲ８,,株式会社,東京都,千代田区,内幸町２丁目１番６号,,13,101,1000011,,,,,,,2023-06-08,1,,,,,ケイエスエフアールエイト,0
320,2010003040800,新規,0,2023-06-08,2023-06-08,合同会社新札,,合同会社,東京都,千代田区,霞が関３丁目２番５号,,13,101,1000013,,,,,,,2023-06-08,1,,,,,シンサツ,0
321,2010003040809,新規,0,2023-06-08,2023-06-08,合同会社Ｕｍａｎ,,合同会社,東京都,中央区,日本橋兜町１７－２兜町第６葉山ビル４Ｆ,,13,102,1030026,,,,,,,2023-06-08,1,,,,,ユーマン,0
323,2010005036771,新規,0,2023-06-08,2023-06-08,税理士法人トラスティル,,その他の設立登記法人,東京都,中央区,京橋２丁目２番１号京橋エドグランサウス４階,,13,102,1040031,,,,,,,2023-06-08,1,,,,,トラスティル,0
327,2010401174836,新規,0,2023-06-08,2023-06-08,株式会社ラピスラズリ,,株式会社,東京都,港区,西麻布４丁目２０番６号,,13,103,1060031,,,,,,,2023-06-08,1,,,,,ラピスラズリ,0
328,2010401174869,新規,0,2023-06-08,2023-06-08,リノワレンタカー株式会社,,株式会社,東京都,港区,六本木７丁目７番７号トライセブンロッポンギ８階,,13,103,1060032,,,,,,,2023-06-08,1,,,,,リノワレンタカー,0
330,2010403030244,新規,0,2023-06-08,2023-06-08,合同会社ｓｅｋｉｎｏ,,合同会社,東京都,港区,元麻布３丁目１番３５号ＶＯＲＴ元麻布５階,,13,103,1060046,,,,,,,2023-06-08,1,,,,,セキノ,0
333,2010501050557,新規,0,2023-06-08,2023-06-08,株式会社Ｈ,,株式会社,東京都,台東区,浅草橋１丁目７番７号,,13,106,1110053,,,,,,,2023-06-08,1,,,,,エイチ,0
337,2010601063211,新規,0,2023-06-08,2023-06-08,Ｎｅｘｔ‐Ｔｅｋ株式会社,,株式会社,東京都,墨田区,文花１丁目１８－１３,,13,107,1310044,,,,,,,2023-06-08,1,,,,,ネクストテック,0
338,2010603010186,新規,0,2023-06-08,2023-06-08,合同会社マルジナリア,,合同会社,東京都,江東区,東陽２丁目３番１６－３１２号,,13,108,1350016,,,,,,,2023-06-08,1,,,,,マルジナリア,0
344,2010701044350,新規,0,2023-06-08,2023-06-08,株式会社ＫＡＩＳＨＯＷ,,株式会社,東京都,品川区,西五反田８丁目３番１４号ライオンズフォーシア五反田２０２,,13,109,1410031,,,,,,,2023-06-08,1,,,,,カイショウ,0
345,2010701044391,新規,0,2023-06-08,2023-06-08,株式会社さいかち財託,,株式会社,東京都,品川区,旗の台６丁目２４番１２号６０３号室,,13,109,1420064,,,,,,,2023-06-08,1,,,,,サイカチザイタク,0
350,2010801034029,新規,0,2023-06-08,2023-06-08,株式会社ｒｅｃｌａ,,株式会社,東京都,大田区,大森北６丁目１４－３,,13,111,1430016,,,,,,,2023-06-08,1,,,,,リクラ,0
363,2011001154889,新規,0,2023-06-08,2023-06-08,ブリングコンサルティング株式会社,,株式会社,東京都,渋谷区,渋谷２丁目１０番１５号,,13,113,1500002,,,,,,,2023-06-08,1,,,,,ブリングコンサルティング,0
364,2011001154955,新規,0,2023-06-08,2023-06-08,株式会社ＦＯＯＤ　ＲＥＣＯＲＤＳ,,株式会社,東京都,渋谷区,神宮前６丁目２３番４号桑野ビル２階,,13,113,1500001,,,,,,,2023-06-08,1,,,,,フードレコーズ,0
376,2011201024702,新規,0,2023-06-08,2023-06-08,株式会社サクラビット不動産,,株式会社,東京都,中野区,東中野１丁目４番４号,,13,114,1640003,,,,,,,2023-06-08,1,,,,,サクラビットフドウサン,0
377,2011203004099,新規,0,2023-06-08,2023-06-08,合同会社ＳＭＣ,,合同会社,東京都,中野区,中野２丁目１１番６号丸由ビル１０２号,,13,114,1640001,,,,,,,2023-06-08,1,,,,,エスエムシー,0
378,2011303004791,新規,0,2023-06-08,2023-06-08,合同会社歴々,,合同会社,東京都,杉並区,上荻４丁目１１番８－２０１号テラス西荻窪,,13,115,1670043,,,,,,,2023-06-08,1,,,,,レキレキ,0
381,2011601026876,新規,0,2023-06-08,2023-06-08,株式会社ピアハーモニー,,株式会社,東京都,練馬区,桜台１丁目３８－６,,13,120,1760002,,,,,,,2023-06-08,1,,,,,ピアハーモニー,0
383,2011701026314,新規,0,2023-06-08,2023-06-08,スタロワ企画株式会社,,株式会社,東京都,江戸川区,西小松川町８番２号,,13,123,1320032,,,,,,,2023-06-08,1,,,,,スタロワキカク,0
387,2011803005678,新規,0,2023-06-08,2023-06-08,大洋トレーディング合同会社,,合同会社,東京都,葛飾区,高砂３丁目１－４６－２１６,,13,122,1250054,,,,,,,2023-06-08,1,,,,,タイヨウトレーディング,0
392,2012401040613,新規,0,2023-06-08,2023-06-08,株式会社ｍｉｌｌ,,株式会社,東京都,三鷹市,新川１丁目１０番３３号ＡＮレジデンス１０２,,13,204,1810004,,,,,,,2023-06-08,1,,,,,ミル,0
394,2012701017690,新規,0,2023-06-08,2023-06-08,株式会社バリューサポート,,株式会社,東京都,小平市,天神町４丁目１８番３号,,13,211,1870004,,,,,,,2023-06-08,1,,,,,バリューサポート,0
396,2012801022418,新規,0,2023-06-08,2023-06-08,株式会社Ｋａｉｍａｒｕ,,株式会社,東京都,東大和市,桜が丘４丁目２９番地の１２７,,13,220,2070022,,,,,,,2023-06-08,1,,,,,カイマル,0
403,2013301050883,新規,0,2023-06-08,2023-06-08,株式会社ナマシヴァーヤ,,株式会社,東京都,豊島区,雑司が谷２丁目３番１３号サンハイム中島１Ｆ,,13,116,1710032,,,,,,,2023-06-08,1,,,,,ナマシヴァーヤ,0
404,2013303006644,新規,0,2023-06-08,2023-06-08,きいてかく合同会社,,合同会社,東京都,豊島区,池袋２丁目３６－１,,13,116,1710014,,,,,,,2023-06-08,1,,,,,キイテカク,0
409,2020001151937,新規,0,2023-06-08,2023-06-08,株式会社Ａｒｔｉ　Ｊｏｕｒｎｅｙ,,株式会社,神奈川県,川崎市多摩区,生田７丁目２５番２１号１０４号室,,14,135,2140038,,,,,,,2023-06-08,1,,,,,アルティジャーニー,0
416,2021001079235,新規,0,2023-06-08,2023-06-08,産後ケア株式会社,,株式会社,神奈川県,小田原市,国府津２丁目８番２７号,,14,206,2560812,,,,,,,2023-06-08,1,,,,,サンゴケア,0
417,2021001079243,新規,0,2023-06-08,2023-06-08,株式会社川口設備工業,,株式会社,神奈川県,厚木市,温水２００６番地３８,,14,212,2430033,,,,,,,2023-06-08,1,,,,,カワグチセツビコウギョウ,0
418,2021001079268,新規,0,2023-06-08,2023-06-08,株式会社ＷＩＮ　Ｉｎｔｅｒｎａｔｉｏｎａｌ　Ｊａｐａｎ,,株式会社,神奈川県,茅ヶ崎市,本村３丁目１３番１８号,,14,207,2530042,,,,,,,2023-06-08,1,,,,,ウィンインターネットジャパン,0
419,2021003013175,新規,0,2023-06-08,2023-06-08,合同会社ＬＵＣＩＡＺ,,合同会社,神奈川県,厚木市,中町２丁目１１番１０号ダイヤモンドビル３Ｆ,,14,212,2430018,,,,,,,2023-06-08,1,,,,,ルシアス,0
420,2021003013191,新規,0,2023-06-08,2023-06-08,リンクス合同会社,,合同会社,神奈川県,鎌倉市,大町１丁目８番３号,,14,204,2480007,,,,,,,2023-06-08,1,,,,,リンクス,0
428,2030001154220,新規,0,2023-06-08,2023-06-08,株式会社アクセント,,株式会社,埼玉県,東松山市,箭弓町２丁目２番２３号,,11,212,3550028,,,,,,,2023-06-08,1,,,,,アクセント,0
429,2030001154237,新規,0,2023-06-08,2023-06-08,株式会社オフィス吉野,,株式会社,埼玉県,さいたま市浦和区,元町１丁目２７番８号ゼブリナス元町１００,,11,107,3300073,,,,,,,2023-06-08,1,,,,,オフィスヨシノ,0
430,2030001154261,新規,0,2023-06-08,2023-06-08,株式会社ＭＴＳ,,株式会社,埼玉県,吉川市,吉川２丁目２３番地１,,11,243,3420055,,,,,,,2023-06-08,1,,,,,エムティーエス,0
431,2030001154278,新規,0,2023-06-08,2023-06-08,さいたまベスト株式会社,,株式会社,埼玉県,さいたま市北区,奈良町３番地７パールマンションＢ棟１１２,,11,102,3310822,,,,,,,2023-06-08,1,,,,,サイタマベスト,0
435,2030003021880,新規,0,2023-06-08,2023-06-08,合同会社ＬＥＧＩＴ,,合同会社,埼玉県,志木市,下宗岡４丁目１４番４５号,,11,228,3530003,,,,,,,2023-06-08,1,,,,,レジット,0
438,2040001128660,新規,0,2023-06-08,2023-06-08,中益株式会社,,株式会社,千葉県,印旛郡酒々井町,中川１１－３足立ビル３階,,12,322,2850921,,,,,,,2023-06-08,1,,,,,チュウエキ,0
439,2040001128751,新規,0,2023-06-08,2023-06-08,Ｗｉｓｅ５３エステート株式会社,,株式会社,千葉県,千葉市花見川区,幕張町５丁目４１７番地１５４－５０３号,,12,102,2620032,,,,,,,2023-06-08,1,,,,,ワイズファイブスリーエステート,0
445,2050001052942,新規,0,2023-06-08,2023-06-08,玉川建工株式会社,,株式会社,茨城県,牛久市,さくら台１丁目２３番地１１,,08,219,3001217,,,,,,,2023-06-08,1,,,,,タマガワケンコウ,0
446,2050001052950,新規,0,2023-06-08,2023-06-08,増渕商事株式会社,,株式会社,茨城県,常総市,内守谷町３９８７番地４,,08,211,3030043,,,,,,,2023-06-08,1,,,,,マスブチショウジ,0
447,2050001052959,新規,0,2023-06-08,2023-06-08,株式会社ＮＧＫ,,株式会社,茨城県,石岡市,柿岡１８３４番地,,08,205,3150116,,,,,,,2023-06-08,1,,,,,エヌジーケー,0
449,2050003007564,新規,0,2023-06-08,2023-06-08,合同会社ＨＩＧＨ　ＧＬＯＷ,,合同会社,茨城県,結城市,みどり町１丁目１番地１１,,08,207,3070004,,,,,,,2023-06-08,1,,,,,ハイグロー,0
462,2090003002330,新規,0,2023-06-08,2023-06-08,合同会社ワダチ創研,,合同会社,山梨県,南都留郡西桂町,小沼２７２４番地１,,19,423,4030022,,,,,,,2023-06-08,1,,,,,ワダチソウケン,0
468,2110001037598,新規,0,2023-06-08,2023-06-08,株式会社ミネラル創和,,株式会社,新潟県,燕市,吉田法花堂１３７３番地,,15,213,9590214,,,,,,,2023-06-08,1,,,,,ミネラルソウワ,0
485,2120001255414,新規,0,2023-06-08,2023-06-08,株式会社ＨａｒｕＴｏＮａ,,株式会社,大阪府,枚方市,西船橋２丁目１１番６号,,27,210,5731122,,,,,,,2023-06-08,1,,,,,ハルトナ,0
486,2120001255447,新規,0,2023-06-08,2023-06-08,株式会社にこうえ,,株式会社,大阪府,大阪市中央区,安堂寺町２丁目６番１１－２３０６号,,27,128,5420061,,,,,,,2023-06-08,1,,,,,ニコウエ,0
487,2120001255513,新規,0,2023-06-08,2023-06-08,株式会社Ｋａｒａｋｕｒｕ,,株式会社,大阪府,大阪市城東区,今福東２丁目１５－３０ｙ’ｓコート３０２,,27,118,5360002,,,,,,,2023-06-08,1,,,,,カラクル,0
488,2120001255538,新規,0,2023-06-08,2023-06-08,株式会社ＴＹＯ,,株式会社,大阪府,大阪市天王寺区,空堀町５番１５－１００３号,,27,109,5430012,,,,,,,2023-06-08,1,,,,,ティーワイオー,0
491,2120005023668,新規,0,2023-06-08,2023-06-08,一般社団法人ユニットＷＯＷカンパニー,,その他の設立登記法人,大阪府,大阪市城東区,森之宮２丁目６番３３７号,,27,118,5360025,,,,,,,2023-06-08,1,,,,,ユニットワオカンパニー,0
496,2120101067692,新規,0,2023-06-08,2023-06-08,株式会社Ｎ‐ｍａｎａｇｅ,,株式会社,大阪府,高石市,羽衣４丁目２番３７－４０１号,,27,225,5920002,,,,,,,2023-06-08,1,,,,,エヌマネージ,0
497,2120101067701,新規,0,2023-06-08,2023-06-08,株式会社天一商事,,株式会社,大阪府,岸和田市,土生町４１７４番地の１－１０１号,,27,202,5960825,,,,,,,2023-06-08,1,,,,,テンイチショウジ,0
498,2120901047613,新規,0,2023-06-08,2023-06-08,山田商事株式会社,,株式会社,大阪府,豊中市,上新田４丁目２２番１－２０４号,,27,203,5600085,,,,,,,2023-06-08,1,,,,,ヤマダショウジ,0
499,2120901047646,新規,0,2023-06-08,2023-06-08,株式会社テシ政宗,,株式会社,大阪府,豊能郡豊能町,希望ケ丘２丁目２８番１１号,,27,321,5630214,,,,,,,2023-06-08,1,,,,,テシマサムネ,0
500,2122001037057,新規,0,2023-06-08,2023-06-08,株式会社小阪,,株式会社,大阪府,東大阪市,菱屋西６丁目１番３８号,,27,227,5770807,,,,,,,2023-06-08,1,,,,,コサカ,0
503,2130003008769,新規,0,2023-06-08,2023-06-08,合同会社アセンブル,,合同会社,京都府,京都市伏見区,羽束師志水町１６５－２１３,,26,109,6128485,,,,,,,2023-06-08,1,,,,,アセンブル,0
508,2140001130367,新規,0,2023-06-08,2023-06-08,株式会社Ｍ＆Ｌ,,株式会社,兵庫県,神戸市北区,星和台６丁目１１番地の８,,28,109,6511121,,,,,,,2023-06-08,1,,,,,エムアンドエル,0
509,2140001130391,新規,0,2023-06-08,2023-06-08,ＭＫＫ株式会社,,株式会社,兵庫県,神戸市中央区,熊内町４丁目１３番１７－１５０６号,,28,110,6510056,,,,,,,2023-06-08,1,,,,,エムケイケイ,0
521,2180001156607,新規,0,2023-06-08,2023-06-08,プロシードテック株式会社,,株式会社,愛知県,名古屋市西区,八筋町２６０番地,,23,104,4520815,,,,,,,2023-06-08,1,,,,,プロシードテック,0
522,2180001156615,新規,0,2023-06-08,2023-06-08,株式会社ケイマン運輸,,株式会社,愛知県,弥富市,稲荷４丁目５３番地,,23,235,4980052,,,,,,,2023-06-08,1,,,,,ケイマンウンユ,0
529,2180005020239,新規,0,2023-06-08,2023-06-08,一般社団法人いきいきライフ協会知多,,その他の設立登記法人,愛知県,常滑市,新開町４丁目７番地,,23,216,4790837,,,,,,,2023-06-08,1,,,,,イキイキライフキョウカイチタ,0
530,2180301037457,新規,0,2023-06-08,2023-06-08,株式会社Ｏ’ｓ　Ｇ．Ｋ　ＩＺＭ,,株式会社,愛知県,額田郡幸田町,大字荻字研山２１番地,,23,501,4440115,,,,,,,2023-06-08,1,,,,,エンズジーケーイズモ,0
534,2190001030447,新規,0,2023-06-08,2023-06-08,株式会社ハリーエンタープライズ,,株式会社,三重県,津市,高茶屋７丁目１０番２５号,,24,201,5140819,,,,,,,2023-06-08,1,,,,,ハリーエンタープライズ,0
535,2190001030471,新規,0,2023-06-08,2023-06-08,株式会社ＫｏｍｕｒｉｃｅＨＤ,,株式会社,三重県,桑名郡木曽岬町,大字和泉１５１番地,,24,303,4980803,,,,,,,2023-06-08,1,,,,,コムライスホールディングス,0
542,2220001025451,新規,0,2023-06-08,2023-06-08,株式会社宮川ファーム,,株式会社,石川県,加賀市,庄町ル１０３番地１,,17,206,9220332,,,,,,,2023-06-08,1,,,,,ミヤカワファーム,0
547,2240003006175,新規,0,2023-06-08,2023-06-08,合同会社エマコンサルティング,,合同会社,広島県,広島市中区,上幟町９番３２－１５０３号,,34,101,7300014,,,,,,,2023-06-08,1,,,,,エマコンサルティング,0
549,2250001020128,新規,0,2023-06-08,2023-06-08,株式会社ＧＲＣ,,株式会社,山口県,長門市,東深川２５３２番地４,,35,211,7594101,,,,,,,2023-06-08,1,,,,,ジーアールシー,0
557,2290001101849,新規,0,2023-06-08,2023-06-08,セカンドフィドル株式会社,,株式会社,福岡県,福岡市中央区,天神４丁目６番２８号天神ファーストビル７階,,40,133,8100001,,,,,,,2023-06-08,1,,,,,セカンドフィドル,0
558,2290001101857,新規,0,2023-06-08,2023-06-08,株式会社アーチ,,株式会社,福岡県,福岡市博多区,山王２丁目６番１２－６０２号,,40,132,8120015,,,,,,,2023-06-08,1,,,,,アーチ,0
559,2290003014009,新規,0,2023-06-08,2023-06-08,合同会社桜ケアプランサービス,,合同会社,福岡県,宗像市,桜１丁目１５７１番地２４,,40,220,8114166,,,,,,,2023-06-08,1,,,,,サクラケアプランサービス,0
560,2290005019055,新規,0,2023-06-08,2023-06-08,一般社団法人向野石地管理,,その他の設立登記法人,福岡県,福岡市南区,向野２丁目２５番１３号,,40,134,8150035,,,,,,,2023-06-08,1,,,,,ムカイノセキチカンリ,0
564,2300001013316,新規,0,2023-06-08,2023-06-08,株式会社ＣＲＥＣＴ,,株式会社,佐賀県,杵島郡江北町,大字山口１３６３－９Ａ１,,41,424,8490501,,,,,,,2023-06-08,1,,,,,クリクト,0
571,2330001030944,新規,0,2023-06-08,2023-06-08,株式会社クロスコアット,,株式会社,熊本県,熊本市東区,八反田２丁目２０番１０号,,43,102,8618034,,,,,,,2023-06-08,1,,,,,クロスコアット,0
572,2330001030952,新規,0,2023-06-08,2023-06-08,優浬製作株式会社,,株式会社,熊本県,上益城郡嘉島町,大字井寺６８９番地,,43,442,8613103,,,,,,,2023-06-08,1,,,,,ユウリセイサク,0
580,2360001032137,新規,0,2023-06-08,2023-06-08,株式会社琉聖,,株式会社,沖縄県,糸満市,字糸満１６７９番地の１クローバー糸満小前１０１号室,,47,210,9010361,,,,,,,2023-06-08,1,,,,,リュウショウ,0
582,2360003013044,新規,0,2023-06-08,2023-06-08,Ｓｔｅｌｌａｒｉｘ合同会社,,合同会社,沖縄県,糸満市,字兼城７５４番地の２,,47,210,9010303,,,,,,,2023-06-08,1,,,,,ステラリックス,0
586,2360005006863,新規,0,2023-06-08,2023-06-08,一般社団法人ＢＴＯＬ,,その他の設立登記法人,沖縄県,那覇市,鏡原町１３番１３号岸本ハイツ３階,,47,201,9010151,,,,,,,2023-06-08,1,,,,,ビートル,0
588,2370001050063,新規,0,2023-06-08,2023-06-08,株式会社Ｋ’ｓコーポレーション,,株式会社,宮城県,仙台市青葉区,高松１丁目１６番１号,,04,101,9810907,,,,,,,2023-06-08,1,,,,,ケーズコーポレーション,0
595,2370003006162,新規,0,2023-06-08,2023-06-08,Ｍ’ｓ　ｈｏｍｅ合同会社,,合同会社,宮城県,仙台市泉区,八乙女１丁目４番地の１エクメーネ八乙女２０１,,04,105,9813112,,,,,,,2023-06-08,1,,,,,エムズホーム,0
599,2380001033752,新規,0,2023-06-08,2023-06-08,株式会社シロハナ,,株式会社,福島県,耶麻郡猪苗代町,字本町３３番地１,,07,408,9693122,,,,,,,2023-06-08,1,,,,,シロハナ,0
600,2380001033777,新規,0,2023-06-08,2023-06-08,株式会社ＮＥＯ　ＲＥＶＩＶＡＬ,,株式会社,福島県,会津若松市,材木町２丁目３番８８号,,07,202,9650853,,,,,,,2023-06-08,1,,,,,ネオリバイバル,0
614,2470003002440,新規,0,2023-06-08,2023-06-08,合同会社創和テック,,合同会社,香川県,丸亀市,郡家町１８７１番地１,,37,202,7630093,,,,,,,2023-06-08,1,,,,,ソウワテック,0
617,2490001010501,新規,0,2023-06-08,2023-06-08,一株式会社,,株式会社,高知県,高知市,東秦泉寺７８番地１,,39,201,7800023,,,,,,,2023-06-08,1,,,,,カツ,0
624,2700150117042,新規,0,2023-06-08,2023-06-08,Ｌｅｏｎａｒｄｏ　Ｓ．ｐ．ａ．,,外国会社等,東京都,千代田区,霞が関３丁目２番１号霞が関コモンゲート西館２４階,,13,101,1000013,イタリア共和国００１９５ローマ、ピアッツァ・モンテ・グラッパ４,,,,,,2023-06-08,1,,,,,レオナルドエスピーエー,0
632,3010001235913,新規,0,2023-06-08,2023-06-08,株式会社正力,,株式会社,東京都,中央区,日本橋室町１丁目１１番１２号日本橋水野ビル７階,,13,102,1030022,,,,,,,2023-06-08,1,,,,,セイリキ,0
633,3010001235962,新規,0,2023-06-08,2023-06-08,株式会社キャリアエージェントホールディングス,,株式会社,東京都,中央区,築地３丁目１２番５号＋ＳＨＩＦＴ・ＴＳＵＫＩＪＩ２階,,13,102,1040045,,,,,,,2023-06-08,1,,,,,キャリアエージェントホールディングス,0
634,3010001235995,新規,0,2023-06-08,2023-06-08,ＫＯＮ株式会社,,株式会社,東京都,千代田区,神田小川町２丁目４番１４号フィールドクレストビル８階,,13,101,1010052,,,,,,,2023-06-08,1,,,,,ケイオーエヌ,0
640,3010401174819,新規,0,2023-06-08,2023-06-08,株式会社Ｔｈｉｎｋ　Ｆｏｒ　Ｙｏｕｒｓｅｌｆ,,株式会社,東京都,港区,南青山３丁目１番３６号青山丸竹ビル６Ｆ,,13,103,1070062,,,,,,,2023-06-08,1,,,,,シンクフォーユアセルフ,0
641,3010401174827,新規,0,2023-06-08,2023-06-08,Ｖｉｒｔｕｏｓ　Ｊａｐａｎ株式会社,,株式会社,東京都,港区,南青山２丁目４番９号ＫＬＯ南青山ビル,,13,103,1070062,,,,,,,2023-06-08,1,,,,,ヴァーチュオスジャパン,0
642,3010401174843,新規,0,2023-06-08,2023-06-08,株式会社エディットシフト,,株式会社,東京都,港区,芝５丁目３２番１２号シャーメゾンステージ田町３Ｆ,,13,103,1080014,,,,,,,2023-06-08,1,,,,,エディットシフト,0
643,3010401174876,新規,0,2023-06-08,2023-06-08,株式会社ＳｈｏｗｃａｓｅＴｏｋｙｏ,,株式会社,東京都,港区,南青山２丁目２－１５ウィン青山９４２,,13,103,1070062,,,,,,,2023-06-08,1,,,,,ショーケーストーキョー,0
645,3010501050564,新規,0,2023-06-08,2023-06-08,ｓａｎａｔａｎａ　ｄｅｓｉｇｎ株式会社,,株式会社,東京都,台東区,松が谷４丁目２１番１号辰巳マンション６０２,,13,106,1110036,,,,,,,2023-06-08,1,,,,,サナータナデザイン,0
649,3010601063235,新規,0,2023-06-08,2023-06-08,ａｒｃｌｏｕｄ株式会社,,株式会社,東京都,墨田区,東駒形２丁目２０番５－７０１号,,13,107,1300005,,,,,,,2023-06-08,1,,,,,アークラウド,0
654,3010701044390,新規,0,2023-06-08,2023-06-08,株式会社ＳＮＫＩ,,株式会社,東京都,品川区,豊町１丁目１３番１４－１０１号,,13,109,1420042,,,,,,,2023-06-08,1,,,,,サンケイ,0
660,3010801034028,新規,0,2023-06-08,2023-06-08,株式会社Ｋ‐ｃｒｅｗ,,株式会社,東京都,大田区,大森北１丁目１１番１０－３０３号,,13,111,1430016,,,,,,,2023-06-08,1,,,,,ケークルー,0
661,3010805003029,新規,0,2023-06-08,2023-06-08,一般社団法人ウィーン国際音楽文化協会,,その他の設立登記法人,東京都,大田区,蒲田５丁目４６番１１号,,13,111,1440052,,,,,,,2023-06-08,1,,,,,ウィーンコクサイオンガクブンカキョウカイ,0
664,3010903008219,新規,0,2023-06-08,2023-06-08,エイトユアーズ合同会社,,合同会社,東京都,世田谷区,池尻２丁目２６番７号フラッツ池尻３０１,,13,112,1540001,,,,,,,2023-06-08,1,,,,,エイトユアーズ,0
667,3011001154954,新規,0,2023-06-08,2023-06-08,株式会社Ｔｅｃｈｔｉｃａｌ,,株式会社,東京都,渋谷区,道玄坂１丁目１０番８号渋谷道玄坂東急ビル２Ｆ－Ｃ,,13,113,1500043,,,,,,,2023-06-08,1,,,,,テクティカル,0
668,3011001154995,新規,0,2023-06-08,2023-06-08,ギャランティ・インベストメント株式会社,,株式会社,東京都,目黒区,下目黒３丁目１０番２９号,,13,110,1530064,,,,,,,2023-06-08,1,,,,,ギャランティインベストメント,0
672,3011003016946,新規,0,2023-06-08,2023-06-08,合同会社Ｐ‐ＦＬＡＳＨ,,合同会社,東京都,渋谷区,渋谷２丁目１９番１５号宮益坂ビルディング６０９,,13,113,1500002,,,,,,,2023-06-08,1,,,,,ピーフラッシュ,0
681,3011101103175,新規,0,2023-06-08,2023-06-08,株式会社２ＮＥ８,,株式会社,東京都,新宿区,横寺町２８番地ＳＡＮ神楽坂１階,,13,104,1620831,,,,,,,2023-06-08,1,,,,,トゥエニーエイト,0
684,3011201024692,新規,0,2023-06-08,2023-06-08,株式会社サラソタ,,株式会社,東京都,中野区,中央５丁目２５番２号,,13,114,1640011,,,,,,,2023-06-08,1,,,,,サラソタ,0
687,3011301028759,新規,0,2023-06-08,2023-06-08,株式会社ゼロ,,株式会社,東京都,杉並区,上荻３丁目２５番１０号ダイヤモンドマンション５０４号,,13,115,1670043,,,,,,,2023-06-08,1,,,,,ゼロ,0
688,3011301028767,新規,0,2023-06-08,2023-06-08,株式会社ＳＰＹＳ,,株式会社,東京都,杉並区,高円寺北２丁目３番１１号,,13,115,1660002,,,,,,,2023-06-08,1,,,,,スパイス,0
692,3011601026883,新規,0,2023-06-08,2023-06-08,株式会社ＨＩＶＩ　ＩＮＤＵＳＴＲＩＥＳ,,株式会社,東京都,練馬区,東大泉１丁目２０番８号フォルトゥナート４０２,,13,120,1780063,,,,,,,2023-06-08,1,,,,,ハイヴィインダストリーズ,0
697,3011701026305,新規,0,2023-06-08,2023-06-08,株式会社Ｒｏｕｎｄ　Ｅｌｅｍｅｎｔ,,株式会社,東京都,江戸川区,上篠崎３丁目８番１１号,,13,123,1330054,,,,,,,2023-06-08,1,,,,,ラウンドエレメント,0
699,3011801042540,新規,0,2023-06-08,2023-06-08,株式会社なかまる,,株式会社,東京都,葛飾区,堀切６丁目６番４号,,13,122,1240006,,,,,,,2023-06-08,1,,,,,ナカマル,0
708,3012801022400,新規,0,2023-06-08,2023-06-08,株式会社Ｍｙオフィス,,株式会社,東京都,立川市,錦町２丁目１０番１３号,,13,202,1900022,,,,,,,2023-06-08,1,,,,,マイオフィス,0
709,3012803003101,新規,0,2023-06-08,2023-06-08,合同会社Ｃｅｄａｒ,,合同会社,東京都,立川市,錦町１丁目３番２１号ライオンビル４０４号室,,13,202,1900022,,,,,,,2023-06-08,1,,,,,シェダー,0
712,3013301050866,新規,0,2023-06-08,2023-06-08,株式会社星野商事,,株式会社,東京都,豊島区,北大塚２丁目７－７第五市田ビル３Ｆ,,13,116,1700004,,,,,,,2023-06-08,1,,,,,ホシノショウジ,0
721,3020001151952,新規,0,2023-06-08,2023-06-08,株式会社キミラボ,,株式会社,神奈川県,横浜市西区,高島２丁目１９－１２横浜スカイビル２０Ｆ,,14,103,2200011,,,,,,,2023-06-08,1,,,,,キミラボ,0
722,3020001151960,新規,0,2023-06-08,2023-06-08,匠株式会社,,株式会社,神奈川県,横浜市都筑区,川和町２３３０－１,,14,118,2240057,,,,,,,2023-06-08,1,,,,,タクミ,0
725,3020003024017,新規,0,2023-06-08,2023-06-08,合同会社ヴィント,,合同会社,神奈川県,川崎市宮前区,土橋３丁目２７番地１２,,14,136,2160005,,,,,,,2023-06-08,1,,,,,ヴィント,0
726,3020003024025,新規,0,2023-06-08,2023-06-08,合同会社センス,,合同会社,神奈川県,横浜市青葉区,あざみ野４丁目１６番地５黒沼ハイツ１０１,,14,117,2250011,,,,,,,2023-06-08,1,,,,,センス,0
727,3020005016029,新規,0,2023-06-08,2023-06-08,一般社団法人修理部品品質評価協会,,その他の設立登記法人,神奈川県,横浜市中区,伊勢佐木町３丁目１０４登美屋第７ビル,,14,104,2310045,,,,,,,2023-06-08,1,,,,,シュウリブヒンヒンシツヒョウカキョウカイ,0
731,3021001079168,新規,0,2023-06-08,2023-06-08,株式会社凱陽,,株式会社,神奈川県,鎌倉市,手広５丁目４番１－１１９号,,14,204,2480036,,,,,,,2023-06-08,1,,,,,カイヨウ,0
732,3021001079234,新規,0,2023-06-08,2023-06-08,株式会社ひなた防水,,株式会社,神奈川県,茅ヶ崎市,鶴が台９番８－４０１号,,14,207,2530003,,,,,,,2023-06-08,1,,,,,ヒナタボウスイ,0
733,3021001079242,新規,0,2023-06-08,2023-06-08,株式会社ＯＴＯ　Ｆｏｏｄｓ,,株式会社,神奈川県,相模原市中央区,相模原６丁目１番１５号,,14,152,2520231,,,,,,,2023-06-08,1,,,,,オトフーズ,0
735,3021003013174,新規,0,2023-06-08,2023-06-08,合同会社Ｆｏｌｋ,,合同会社,神奈川県,相模原市緑区,青山４３８番地２,,14,151,2520156,,,,,,,2023-06-08,1,,,,,フォーク,0
738,3030001154244,新規,0,2023-06-08,2023-06-08,株式会社まつも塗装,,株式会社,埼玉県,さいたま市大宮区,三橋４丁目２２９番地５,,11,103,3300856,,,,,,,2023-06-08,1,,,,,マツモトソウ,0
739,3030001154269,新規,0,2023-06-08,2023-06-08,株式会社雷鳥,,株式会社,埼玉県,川口市,川口１丁目３番４号,,11,203,3320015,,,,,,,2023-06-08,1,,,,,ライチョウ,0
744,3040003022761,新規,0,2023-06-08,2023-06-08,肥達代購合同会社,,合同会社,千葉県,千葉市緑区,誉田町２丁目２番地８０１,,12,105,2660005,,,,,,,2023-06-08,1,,,,,ヒタツダイコウ,0
749,3050001052941,新規,0,2023-06-08,2023-06-08,株式会社キッチンフィールド,,株式会社,茨城県,つくば市,松代５丁目７番地６,,08,220,3050035,,,,,,,2023-06-08,1,,,,,キッチンフィールド,0
750,3050001052958,新規,0,2023-06-08,2023-06-08,株式会社ＡＳＤ,,株式会社,茨城県,つくばみらい市,陽光台４丁目３番地４,,08,235,3002358,,,,,,,2023-06-08,1,,,,,エーエスディー,0
751,3050003007563,新規,0,2023-06-08,2023-06-08,合同会社レック・カンパニー,,合同会社,茨城県,牛久市,さくら台２丁目３１番地２５,,08,219,3001217,,,,,,,2023-06-08,1,,,,,レックカンパニー,0
752,3050003007571,新規,0,2023-06-08,2023-06-08,合同会社ＣＨＡＮＣＥ,,合同会社,茨城県,東茨城郡城里町,大字増井１４７７番地の２,,08,310,3114311,,,,,,,2023-06-08,1,,,,,チャンス,0
753,3060001036068,新規,0,2023-06-08,2023-06-08,泰洋恒業株式会社,,株式会社,栃木県,足利市,田中町５７－２－６０５,,09,202,3260822,,,,,,,2023-06-08,1,,,,,タイヨウコウギョウ,0
759,3070001040523,新規,0,2023-06-08,2023-06-08,株式会社ＹＯＯＬ,,株式会社,群馬県,前橋市,本町３丁目２番１１号,,10,201,3710023,,,,,,,2023-06-08,1,,,,,ユール,0
775,3100003007046,新規,0,2023-06-08,2023-06-08,合同会社尖石,,合同会社,長野県,茅野市,湖東８１１１番地１,,20,214,3910211,,,,,,,2023-06-08,1,,,,,トガリイシ,0
790,3120001255314,新規,0,2023-06-08,2023-06-08,株式会社アンカー,,株式会社,大阪府,大阪市旭区,高殿３丁目２番１４号,,27,117,5350031,,,,,,,2023-06-08,1,,,,,アンカー,0
791,3120001255413,新規,0,2023-06-08,2023-06-08,レグルスアルファ株式会社,,株式会社,大阪府,大阪市東住吉区,桑津３丁目１番１４号,,27,121,5460041,,,,,,,2023-06-08,1,,,,,レグルスアルファ,0
792,3120001255421,新規,0,2023-06-08,2023-06-08,株式会社長川商事,,株式会社,大阪府,守口市,藤田町１丁目３７番６号ロイヤルオーディン藤田町１０５Ｂ号室,,27,209,5700014,,,,,,,2023-06-08,1,,,,,ナガカワショウジ,0
793,3120001255454,新規,0,2023-06-08,2023-06-08,株式会社七穂,,株式会社,大阪府,大阪市中央区,備後町２丁目５番８号,,27,128,5410051,,,,,,,2023-06-08,1,,,,,ナナスイ,0
794,3120001255495,新規,0,2023-06-08,2023-06-08,株式会社Ｂｒｉｇｈｔｂｙｔｅ,,株式会社,大阪府,大阪市阿倍野区,三明町１丁目８番１７号プライド阿倍野ノースガーデン３０２号,,27,119,5450005,,,,,,,2023-06-08,1,,,,,ブライトバイト,0
798,3120003024238,新規,0,2023-06-08,2023-06-08,合同会社ｅ‐Ｐｌａｎ,,合同会社,大阪府,大阪市此花区,春日出中２丁目１５番１５号,,27,104,5540022,,,,,,,2023-06-08,1,,,,,イープラン,0
799,3120003024254,新規,0,2023-06-08,2023-06-08,Ｍａｔ合同会社,,合同会社,大阪府,大阪市東淀川区,東中島１丁目１９－１１大城ビル２Ｆ,,27,114,5330033,,,,,,,2023-06-08,1,,,,,マット,0
800,3120005023675,新規,0,2023-06-08,2023-06-08,一般社団法人みなとスクール,,その他の設立登記法人,大阪府,大阪市港区,波除２丁目１２－６,,27,107,5520001,,,,,,,2023-06-08,1,,,,,ミナトスクール,0
801,3120101067683,新規,0,2023-06-08,2023-06-08,株式会社Ｉｎｏｔｅｃｈ,,株式会社,大阪府,岸和田市,岡山町４６１番地の７ハナハウスＩＩ－２０１号,00130776,27,202,5960814,,,,,,,2023-06-08,1,,,,,イノテック,0
802,3120901047612,新規,0,2023-06-08,2023-06-08,株式会社ｃｏｎｎｅｃｔｉｏｎ,,株式会社,大阪府,高槻市,西真上１丁目２４番５－２０５号,,27,207,5691127,,,,,,,2023-06-08,1,,,,,コネクション,0
803,3120901047645,新規,0,2023-06-08,2023-06-08,株式会社Ｌｉｌｙ　Ｂｅｌｌ,,株式会社,大阪府,茨木市,大池１丁目１２番２－２０４号,,27,211,5670826,,,,,,,2023-06-08,1,,,,,リリーベル,0
805,3122001037056,新規,0,2023-06-08,2023-06-08,株式会社松下測量設計事務所,,株式会社,大阪府,八尾市,太田新町３丁目１７５－１ダイヤ八尾１０４号,,27,212,5810039,,,,,,,2023-06-08,1,,,,,マツシタソクリョウセッケイジムショ,0
808,3130003008776,新規,0,2023-06-08,2023-06-08,合同会社とよ,,合同会社,京都府,京都市北区,紫野上石龍町１６番地,,26,101,6038211,,,,,,,2023-06-08,1,,,,,トヨ,0
810,3140001130382,新規,0,2023-06-08,2023-06-08,メモリーワン株式会社,,株式会社,兵庫県,三田市,南が丘２丁目３番２３号,,28,219,6691535,,,,,,,2023-06-08,1,,,,,メモリーワン,0
811,3140001130449,新規,0,2023-06-08,2023-06-08,Ｋ８株式会社,,株式会社,兵庫県,姫路市,北条口２丁目８１番地２,,28,201,6700935,,,,,,,2023-06-08,1,,,,,ケイエイト,0
812,3140003019161,新規,0,2023-06-08,2023-06-08,合同会社ｍ‐ＢＡＳＥ,,合同会社,兵庫県,明石市,上ノ丸３丁目１０番２２号,,28,203,6730846,,,,,,,2023-06-08,1,,,,,エムベース,0
814,3140005026643,新規,0,2023-06-08,2023-06-08,一般社団法人向日葵,,その他の設立登記法人,兵庫県,神戸市須磨区,妙法寺字女夫岩１０９４－７,,28,107,6540121,,,,,,,2023-06-08,1,,,,,ヒマワリ,0
817,3160001025077,新規,0,2023-06-08,2023-06-08,株式会社森島,,株式会社,滋賀県,甲賀市,甲南町野田５８５番地１,,25,209,5203308,,,,,,,2023-06-08,1,,,,,モリシマ,0
824,3180001156556,新規,0,2023-06-08,2023-06-08,株式会社サワセイ,,株式会社,愛知県,小牧市,中央１丁目２００番地,,23,219,4850029,,,,,,,2023-06-08,1,,,,,サワセイ,0
825,3180001156622,新規,0,2023-06-08,2023-06-08,株式会社谷津テクノス,,株式会社,愛知県,春日井市,押沢台３丁目８番地４,,23,206,4870005,,,,,,,2023-06-08,1,,,,,ヤツテクノス,0
826,3180001156671,新規,0,2023-06-08,2023-06-08,株式会社ＡＫ　ＴＲＡＤＩＮＧ,,株式会社,愛知県,弥富市,前ケ須町勘助走２９番地１プレジオＢ－１０２,,23,235,4980017,,,,,,,2023-06-08,1,,,,,エーケートレーディング,0
830,3180003025305,新規,0,2023-06-08,2023-06-08,さくらいカンパニー合同会社,,合同会社,愛知県,小牧市,大字二重堀９８１番地１,,23,219,4850021,,,,,,,2023-06-08,1,,,,,サクライカンパニー,0
831,3180003025338,新規,0,2023-06-08,2023-06-08,合同会社クールアンクル３,,合同会社,愛知県,名古屋市緑区,桶狭間森前２００５番地,,23,114,4580910,,,,,,,2023-06-08,1,,,,,クールアンクルスリー,0
834,3180005020246,新規,0,2023-06-08,2023-06-08,特定非営利活動法人ＣＯＭＩＮＩ,,その他の設立登記法人,愛知県,名古屋市北区,西味鋺１丁目８１５番地の３,,23,103,4620016,,,,,,,2023-06-08,1,,,,,コミニ,0
836,3190001030470,新規,0,2023-06-08,2023-06-08,株式会社向井企業,,株式会社,三重県,松阪市,久保町１８５５番地１６７４,,24,204,5150044,,,,,,,2023-06-08,1,,,,,ムカイキギョウ,0
837,3190001030479,新規,0,2023-06-08,2023-06-08,株式会社フィオキュリ,,株式会社,三重県,四日市市,日永２丁目１番１０号,,24,202,5100885,,,,,,,2023-06-08,1,,,,,フィオキュリ,0
838,3190003004349,新規,0,2023-06-08,2023-06-08,合同会社すいーとぴぃ,,合同会社,三重県,四日市市,野田２丁目５番２１号,,24,202,5100815,,,,,,,2023-06-08,1,,,,,スイートピィ,0
839,3190005011830,新規,0,2023-06-08,2023-06-08,一般社団法人三重県山岳・スポーツクライミング連盟,,その他の設立登記法人,三重県,津市,観音寺町６０４番地３８,,24,201,5140062,,,,,,,2023-06-08,1,,,,,,0
841,3200003005980,新規,0,2023-06-08,2023-06-08,合同会社ＭＯＳＳ,,合同会社,岐阜県,郡上市,和良町宮代１０３８番地２,,21,219,5014502,,,,,,,2023-06-08,1,,,,,モス,0
848,3230001019872,新規,0,2023-06-08,2023-06-08,株式会社笑美友,,株式会社,富山県,魚津市,相木２０９番地１,,16,204,9370045,,,,,,,2023-06-08,1,,,,,エミュ,0
849,3230003002026,新規,0,2023-06-08,2023-06-08,合同会社佐野商店,,合同会社,富山県,高岡市,丸の内５番１０号,,16,202,9330912,,,,,,,2023-06-08,1,,,,,サノショウテン,0
852,3240001061576,新規,0,2023-06-08,2023-06-08,株式会社めじ,,株式会社,広島県,尾道市,土堂１丁目１１－１６,,34,205,7220035,,,,,,,2023-06-08,1,,,,,メジ,0
853,3240001061642,新規,0,2023-06-08,2023-06-08,株式会社Ａｇｒｉ　Ｌｏｒｅ　Ｌａｂ．,,株式会社,広島県,三次市,下志和地町７７６番地１,,34,209,7296331,,,,,,,2023-06-08,1,,,,,アグリロアーラボ,0
856,3240003006174,新規,0,2023-06-08,2023-06-08,祐屋合同会社,,合同会社,広島県,福山市,柳津町７２９番地,,34,207,7290114,,,,,,,2023-06-08,1,,,,,ユウヤ,0
857,3240005015594,新規,0,2023-06-08,2023-06-08,司法書士法人ありがとう,,その他の設立登記法人,広島県,広島市中区,基町５番４４号,,34,101,7300011,,,,,,,2023-06-08,1,,,,,アリガトウ,0
870,3290001101757,新規,0,2023-06-08,2023-06-08,株式会社太翔工業,,株式会社,福岡県,柳川市,久々原３６９番地２,,40,207,8320086,,,,,,,2023-06-08,1,,,,,オオショウコウギョウ,0
871,3290001101856,新規,0,2023-06-08,2023-06-08,株式会社ＬｉＶ,,株式会社,福岡県,大野城市,大城４丁目１３番１４－１号,,40,219,8160911,,,,,,,2023-06-08,1,,,,,リブ,0
875,3300001013323,新規,0,2023-06-08,2023-06-08,ＳＴＰホールディングス株式会社,,株式会社,佐賀県,佐賀市,鍋島町大字八戸溝１５０番地５,,41,201,8490932,,,,,,,2023-06-08,1,,,,,エスティーピーホールディングス,0
877,3310001018437,新規,0,2023-06-08,2023-06-08,葉港ホールディングス株式会社,,株式会社,長崎県,佐世保市,万津町５番８号,,42,202,8570877,,,,,,,2023-06-08,1,,,,,ヨウコウホールディングス,0
878,3320001019797,新規,0,2023-06-08,2023-06-08,株式会社おおまじめ,,株式会社,大分県,中津市,大字合馬４１７－２,,44,203,8710005,,,,,,,2023-06-08,1,,,,,オオマジメ,0
879,3320001019822,新規,0,2023-06-08,2023-06-08,ｊｕｊｕｂｅ株式会社,,株式会社,大分県,別府市,北浜１丁目４番２９号,,44,202,8740920,,,,,,,2023-06-08,1,,,,,ジュジュベ,0
880,3320001019830,新規,0,2023-06-08,2023-06-08,株式会社ＫＣ　ＷＩＮＧ,,株式会社,大分県,別府市,餅ケ浜町５番８号,,44,202,8740924,,,,,,,2023-06-08,1,,,,,,0
891,3360001032136,新規,0,2023-06-08,2023-06-08,株式会社琥珀,,株式会社,沖縄県,糸満市,字阿波根６６番地の８,,47,210,9010301,,,,,,,2023-06-08,1,,,,,コハク,0
892,3360001032144,新規,0,2023-06-08,2023-06-08,株式会社クリアテック,,株式会社,沖縄県,那覇市,安謝１丁目３番１９号ＷＡＫＵＷＡＫＵガーデン１、３０１,,47,201,9000003,,,,,,,2023-06-08,1,,,,,クリアテック,0
894,3360003013051,新規,0,2023-06-08,2023-06-08,エンヲデザイン合同会社,,合同会社,沖縄県,那覇市,牧志２丁目１７番２７号４０１号室,,47,201,9000013,,,,,,,2023-06-08,1,,,,,エンヲデザイン,0
895,3360005006862,新規,0,2023-06-08,2023-06-08,一般社団法人沖縄アメリカンフットボール協会,,その他の設立登記法人,沖縄県,那覇市,旭町１１２番地２９・１５０３,,47,201,9000029,,,,,,,2023-06-08,1,,,,,オキナワアメリカンフットボールキョウカイ,0
901,3380005012719,新規,0,2023-06-08,2023-06-08,一般財団法人小池駿介奨学基金,,その他の設立登記法人,福島県,会津若松市,栄町２番１４号,,07,202,9650871,,,,,,,2023-06-08,1,,,,,コイケシュンスケショウガクキキン,0
908,3430001089301,新規,0,2023-06-08,2023-06-08,株式会社Ｔｅｅ’ｓ　Ｎｅｘｔ,,株式会社,北海道,札幌市北区,新琴似五条１３丁目４番５号,,01,102,0010905,,,,,,,2023-06-08,1,,,,,ティーズネクスト,0
910,3440005002754,新規,0,2023-06-08,2023-06-08,一般社団法人共同学童保育所ききょうクラブ,,その他の設立登記法人,北海道,函館市,桔梗町４００番地１,,01,202,0410801,,,,,,,2023-06-08,1,,,,,キョウドウガクドウホイクショキキョウクラブ,0
914,3460301005153,新規,0,2023-06-08,2023-06-08,株式会社ＦａｒＧａｌｕ,,株式会社,北海道,紋別郡遠軽町,南町４丁目１３番地,,01,555,0990414,,,,,,,2023-06-08,1,,,,,ファーガル,0
918,3490003001786,新規,0,2023-06-08,2023-06-08,合同会社ＴＯＳＡ　ＨＯＰＥ,,合同会社,高知県,高知市,東城山町１２６番地１７,,39,201,7808036,,,,,,,2023-06-08,1,,,,,トサホープ,0
929,4010001235929,新規,0,2023-06-08,2023-06-08,株式会社ＢＲＡ,,株式会社,東京都,中央区,入船３丁目２番９号－６０４号,,13,102,1040042,,,,,,,2023-06-08,1,,,,,ビーアールエー,0
930,4010001235961,新規,0,2023-06-08,2023-06-08,株式会社アイネットリリーネクスト,,株式会社,東京都,千代田区,丸の内１丁目１番３号,,13,101,1000005,,,,,,,2023-06-08,1,,,,,アイネットリリーネクスト,0
931,4010001236027,新規,0,2023-06-08,2023-06-08,ＴＯＲＣＨ株式会社,,株式会社,東京都,千代田区,丸の内３丁目２番２号,,13,101,1000005,,,,,,,2023-06-08,1,,,,,トーチ,0
932,4010003040781,新規,0,2023-06-08,2023-06-08,ＡＺＩＯ　Ｊａｐａｎ合同会社,,合同会社,東京都,中央区,京橋２丁目７－８,,13,102,1040031,,,,,,,2023-06-08,1,,,,,エジオジャパン,0
933,4010005036811,新規,0,2023-06-08,2023-06-08,一般社団法人ＧＯＴＯ,,その他の設立登記法人,東京都,千代田区,丸の内３丁目１番１号東京共同会計事務所内,,13,101,1000005,,,,,,,2023-06-08,1,,,,,ゴートゥー,0
939,4010401174818,新規,0,2023-06-08,2023-06-08,ジャスミーラボ株式会社,,株式会社,東京都,港区,北青山１丁目２番３号,,13,103,1070061,,,,,,,2023-06-08,1,,,,,ジャスミーラボ,0
940,4010401174842,新規,0,2023-06-08,2023-06-08,株式会社テラ・ノーチェ,,株式会社,東京都,港区,浜松町２丁目２番１５号浜松町ダイヤビル２Ｆ,,13,103,1050013,,,,,,,2023-06-08,1,,,,,テラノーチェ,0
941,4010401174883,新規,0,2023-06-08,2023-06-08,シェアリングＤＡＯサポート株式会社,,株式会社,東京都,港区,虎ノ門４丁目３番２０号神谷町ＭＴビル１４Ｆ,,13,103,1050001,,,,,,,2023-06-08,1,,,,,シェアリングダオサポート,0
945,4010403030226,新規,0,2023-06-08,2023-06-08,合同会社流,,合同会社,東京都,港区,西麻布４丁目１１番２－１０１号,,13,103,1060031,,,,,,,2023-06-08,1,,,,,ナガレ,0
946,4010403030250,新規,0,2023-06-08,2023-06-08,合同会社Ｃａｐｅｌｌａ,,合同会社,東京都,港区,南青山４丁目２３－１カーザベラ３０１号室,,13,103,1070062,,,,,,,2023-06-08,1,,,,,カペラ,0
951,4010601063201,新規,0,2023-06-08,2023-06-08,安沁株式会社,,株式会社,東京都,墨田区,横川３丁目６番７号３－Ｇ室,,13,107,1300003,,,,,,,2023-06-08,1,,,,,アンシン,0
952,4010601063226,新規,0,2023-06-08,2023-06-08,株式会社５８,,株式会社,東京都,江東区,枝川３丁目９番１０－２２１号,,13,108,1350051,,,,,,,2023-06-08,1,,,,,ゴジュウハチ,0
954,4010701044381,新規,0,2023-06-08,2023-06-08,株式会社カグー,,株式会社,東京都,品川区,東五反田５丁目２１番１５号,,13,109,1410022,,,,,,,2023-06-08,1,,,,,カグー,0
964,4011001154862,新規,0,2023-06-08,2023-06-08,株式会社ロータス,,株式会社,東京都,渋谷区,恵比寿１丁目１５番９号日宝恵比寿ビル４０３,,13,113,1500013,,,,,,,2023-06-08,1,,,,,ロータス,0
965,4011001154870,新規,0,2023-06-08,2023-06-08,ＫＡＡＭ株式会社,,株式会社,東京都,渋谷区,神宮前６丁目２３番４号桑野ビル２階,,13,113,1500001,,,,,,,2023-06-08,1,,,,,カーム,0
966,4011001154904,新規,0,2023-06-08,2023-06-08,株式会社東京リライフ,,株式会社,東京都,目黒区,八雲５丁目１５番２１号,,13,110,1520023,,,,,,,2023-06-08,1,,,,,トウキョウリライフ,0
967,4011001154953,新規,0,2023-06-08,2023-06-08,株式会社Ａｔｌａｚ,,株式会社,東京都,目黒区,東山１丁目６番５号,,13,110,1530043,,,,,,,2023-06-08,1,,,,,アトラス,0
981,4011301028766,新規,0,2023-06-08,2023-06-08,株式会社Ｎｏｔｈａｓ,,株式会社,東京都,杉並区,高円寺南３丁目１番１０－３０１号ブラン・セル高円寺,,13,115,1660003,,,,,,,2023-06-08,1,,,,,ノータス,0
982,4011401025192,新規,0,2023-06-08,2023-06-08,スマイルホーム株式会社,,株式会社,東京都,板橋区,成増３丁目２５番１－９１０号,,13,119,1750094,,,,,,,2023-06-08,1,,,,,スマイルホーム,0
985,4011601026882,新規,0,2023-06-08,2023-06-08,株式会社ＲＭ２,,株式会社,東京都,練馬区,関町北３丁目１６番１０号,,13,120,1770051,,,,,,,2023-06-08,1,,,,,アールエムツー,0
989,4011703003490,新規,0,2023-06-08,2023-06-08,合同会社Ｂａｒｋａｄａ,,合同会社,東京都,江戸川区,西小岩４丁目６番１９号エルカーサ西小岩３０１,,13,123,1330057,,,,,,,2023-06-08,1,,,,,,0
991,4011803005684,新規,0,2023-06-08,2023-06-08,合同会社アンダースリー,,合同会社,東京都,葛飾区,亀有３丁目４２番１７－３０２号ガーデンホーム亀有パークフォート,,13,122,1250061,,,,,,,2023-06-08,1,,,,,アンダースリー,0
994,4012803003100,新規,0,2023-06-08,2023-06-08,ＣＬＥＡＤ合同会社,,合同会社,東京都,国分寺市,東元町１丁目１９－２７メゾンアンソレイエ２０３,,13,214,1850022,,,,,,,2023-06-08,1,,,,,クリード,0
998,4013303006642,新規,0,2023-06-08,2023-06-08,合同会社アシスト,,合同会社,東京都,豊島区,池袋本町１丁目２１－８アネックスハナブサ１Ｂ,,13,116,1700011,,,,,,,2023-06-08,1,,,,,アシスト,0
1000,4020001030288,新規,0,2023-06-08,2023-06-08,株式会社サン・エー,,株式会社,神奈川県,横浜市青葉区,たちばな台２丁目１８番４４号,,14,117,2270046,,,,,,,2023-06-08,1,,,,,サンエー,0
1004,4020001151910,新規,0,2023-06-08,2023-06-08,株式会社ライズ,,株式会社,神奈川県,川崎市川崎区,南町８－２－８０１,,14,131,2100015,,,,,,,2023-06-08,1,,,,,ライズ,0
1005,4020001151927,新規,0,2023-06-08,2023-06-08,ＢｉｚＤｅｓｉｇｎ株式会社,,株式会社,神奈川県,横浜市金沢区,能見台２丁目２７－１８,,14,108,2360057,,,,,,,2023-06-08,1,,,,,ビズデザイン,0
1006,4020001151935,新規,0,2023-06-08,2023-06-08,株式会社ココピー,,株式会社,神奈川県,横浜市中区,桜木町１丁目１０１番地１クロスゲート７階,,14,104,2310062,,,,,,,2023-06-08,1,,,,,ココピー,0
1007,4020001151951,新規,0,2023-06-08,2023-06-08,株式会社グレイスライン,,株式会社,神奈川県,横浜市金沢区,六浦２丁目９－２３－６０７,,14,108,2360031,,,,,,,2023-06-08,1,,,,,グレイスライン,0
1014,4020003024024,新規,0,2023-06-08,2023-06-08,合同会社みずべ,,合同会社,神奈川県,横浜市西区,北幸２丁目１０番地２８むつみビル３Ｆ,,14,103,2200004,,,,,,,2023-06-08,1,,,,,ミズベ,0
1019,4021001079274,新規,0,2023-06-08,2023-06-08,株式会社Ｏ．Ｓ,,株式会社,神奈川県,相模原市中央区,上溝８６９番地３,,14,152,2520243,,,,,,,2023-06-08,1,,,,,オーエス,0
1022,4021003013173,新規,0,2023-06-08,2023-06-08,合同会社三徳会,,合同会社,神奈川県,厚木市,森の里４丁目２６番５号,,14,212,2430122,,,,,,,2023-06-08,1,,,,,サントクカイ,0
1029,4030001154185,新規,0,2023-06-08,2023-06-08,株式会社トヨシマ開発,,株式会社,埼玉県,川口市,並木３丁目９－１０ＣＫハウス西川口１０２号,,11,203,3320034,,,,,,,2023-06-08,1,,,,,トヨシマカイハツ,0
1030,4030001154219,新規,0,2023-06-08,2023-06-08,株式会社雪ラボ,,株式会社,埼玉県,幸手市,上高野１丁目１５番地２０,,11,240,3400155,,,,,,,2023-06-08,1,,,,,ユキラボ,0
1031,4030001154227,新規,0,2023-06-08,2023-06-08,株式会社ＡＤＣ,,株式会社,埼玉県,桶川市,大字舎人新田５５４番地の１,,11,231,3630005,,,,,,,2023-06-08,1,,,,,エーディーシー,0
1032,4030001154235,新規,0,2023-06-08,2023-06-08,株式会社ｓｏｓｏ,,株式会社,埼玉県,さいたま市浦和区,針ヶ谷３丁目１５番９号,,11,107,3300075,,,,,,,2023-06-08,1,,,,,ソソ,0
1040,4040001128758,新規,0,2023-06-08,2023-06-08,株式会社Ｌ．Ｂ,,株式会社,千葉県,千葉市若葉区,川井町１２４番地３,,12,104,2650062,,,,,,,2023-06-08,1,,,,,エルビー,0
1044,4040005022032,新規,0,2023-06-08,2023-06-08,税理士法人Ｓｔａｘ,,その他の設立登記法人,千葉県,千葉市中央区,村田町７１５番地,,12,101,2600825,,,,,,,2023-06-08,1,,,,,エスタックス,0
1045,4050001052924,新規,0,2023-06-08,2023-06-08,株式会社美惠,,株式会社,茨城県,結城郡八千代町,大字平塚１４２２番地１,,08,521,3003561,,,,,,,2023-06-08,1,,,,,ミサト,0
1046,4050001052940,新規,0,2023-06-08,2023-06-08,清水工業株式会社,,株式会社,茨城県,小美玉市,三箇１１５番地６,,08,236,3190104,,,,,,,2023-06-08,1,,,,,シミズコウギョウ,0
1047,4050001052949,新規,0,2023-06-08,2023-06-08,株式会社ＨａｇｉｙａＫｏｕｇｙｏ,,株式会社,茨城県,日立市,諏訪町１丁目１６番９号,,08,202,3160001,,,,,,,2023-06-08,1,,,,,ハギヤコウギョウ,0
1048,4050001052957,新規,0,2023-06-08,2023-06-08,株式会社みすず,,株式会社,茨城県,取手市,中原町１２－１９,,08,217,3020016,,,,,,,2023-06-08,1,,,,,ミスズ,0
1049,4050003007570,新規,0,2023-06-08,2023-06-08,アドバンス合同会社,,合同会社,茨城県,常総市,中妻町４２３０番地７,,08,211,3002505,,,,,,,2023-06-08,1,,,,,,0
1055,4070001040522,新規,0,2023-06-08,2023-06-08,ＳＨＩＮＲＡＩ株式会社,,株式会社,群馬県,前橋市,南町２丁目６３番地３（３Ｄ）,,10,201,3710805,,,,,,,2023-06-08,1,,,,,シンライ,0
1078,4120001255313,新規,0,2023-06-08,2023-06-08,スズメ株式会社,,株式会社,大阪府,大阪市中央区,船場中央２丁目１番４号船場センタービル４号館地下一階Ｂ１０８ＲＯＹＡＬＯＦＦＩＣＥ内,,27,128,5410055,,,,,,,2023-06-08,1,,,,,スズメ,0
1079,4120001255437,新規,0,2023-06-08,2023-06-08,株式会社ＨＩＧＨＥＳＴ,,株式会社,大阪府,枚方市,養父東町８番７号,,27,210,5731124,,,,,,,2023-06-08,1,,,,,ハイエスト,0
1080,4120001255445,新規,0,2023-06-08,2023-06-08,株式会社クローバー不動産,,株式会社,大阪府,大阪市北区,芝田２丁目８番１０号６階,,27,127,5300012,,,,,,,2023-06-08,1,,,,,クローバーフドウサン,0
1081,4120001255461,新規,0,2023-06-08,2023-06-08,ＲＥＩＷＡ　ＥＳＴＡＴＥ株式会社,,株式会社,大阪府,大阪市西区,新町３丁目４番１１－５０４号,,27,106,5500013,,,,,,,2023-06-08,1,,,,,レイワエステート,0
1082,4120001255486,新規,0,2023-06-08,2023-06-08,株式会社セイワホーム,,株式会社,大阪府,寝屋川市,寝屋南２丁目１９番１号,,27,215,5720855,,,,,,,2023-06-08,1,,,,,セイワホーム,0
1083,4120001255536,新規,0,2023-06-08,2023-06-08,株式会社ゆいせい,,株式会社,大阪府,大阪市東住吉区,照ケ丘矢田４丁目４番１５号,,27,121,5460021,,,,,,,2023-06-08,1,,,,,ユイセイ,0
1089,4120003024229,新規,0,2023-06-08,2023-06-08,合同会社大鹿産業,,合同会社,大阪府,大阪市北区,梅田１丁目２番２号大阪駅前第２ビル１２－１２,,27,127,5300001,,,,,,,2023-06-08,1,,,,,オオジカサンギョウ,0
1090,4120101067682,新規,0,2023-06-08,2023-06-08,株式会社織彩,,株式会社,大阪府,富田林市,高辺台１丁目２０番３５号,,27,214,5840072,,,,,,,2023-06-08,1,,,,,オリイロ,0
1096,4122001037063,新規,0,2023-06-08,2023-06-08,株式会社ｍｏｃｏ,,株式会社,大阪府,東大阪市,花園東町１丁目１６番１９号,,27,227,5780931,,,,,,,2023-06-08,1,,,,,モコ,0
1100,4130001074489,新規,0,2023-06-08,2023-06-08,株式会社結,,株式会社,京都府,京都市山科区,北花山中道町７６番地１２,,26,110,6078481,,,,,,,2023-06-08,1,,,,,ムスビ,0
1101,4130003008767,新規,0,2023-06-08,2023-06-08,合同会社みあれ,,合同会社,京都府,京都市西京区,川島莚田町９番地３Ｄ－０２,,26,111,6158105,,,,,,,2023-06-08,1,,,,,ミアレ,0
1102,4130003008775,新規,0,2023-06-08,2023-06-08,ジェネシスソフトウェア開発合同会社,,合同会社,京都府,京都市上京区,三本木通西入ル宮垣町９１番１０２,,26,102,6020000,,,,,,,2023-06-08,1,,,,,ジェネシスソフトウェアカイハツ,0
1106,4140001130357,新規,0,2023-06-08,2023-06-08,株式会社ＫＡＭＡＫＥＮ,,株式会社,兵庫県,伊丹市,春日丘１丁目４３番地１,,28,207,6640893,,,,,,,2023-06-08,1,,,,,カマケン,0
1107,4140001130407,新規,0,2023-06-08,2023-06-08,ＫＥＩＨＡＣＨＩ株式会社,,株式会社,兵庫県,丹波市,柏原町柏原２９３番地４,,28,223,6693309,,,,,,,2023-06-08,1,,,,,ケイハチ,0
1108,4140001130448,新規,0,2023-06-08,2023-06-08,株式会社テクノフルール,,株式会社,兵庫県,姫路市,東今宿３丁目９番１７－８０３号メゾン中村東今宿,,28,201,6700056,,,,,,,2023-06-08,1,,,,,テクノフルール,0
1111,4150001026471,新規,0,2023-06-08,2023-06-08,株式会社ＳＳｓｔｙｌｅ,,株式会社,奈良県,宇陀市,榛原長峯１１番地の５,,29,212,6330203,,,,,,,2023-06-08,1,,,,,エスエススタイル,0
1114,4150005009489,新規,0,2023-06-08,2023-06-08,一般社団法人青少年育成アスリートプロジェクト,,その他の設立登記法人,奈良県,生駒市,萩の台７９３番地１ハイツ萩の台１０１号室,,29,209,6300224,,,,,,,2023-06-08,1,,,,,セイショウネンイクセイアスリートプロジェクト,0
1115,4160003002890,新規,0,2023-06-08,2023-06-08,合同会社Ｃｒａｆｔｓｍａｎｓｈｉｐ,,合同会社,滋賀県,草津市,青地町６０７番地１０,,25,206,5250041,,,,,,,2023-06-08,1,,,,,クラフトマンシップ,0
1123,4180001156605,新規,0,2023-06-08,2023-06-08,株式会社ｎａｔｓｕｍｅｇｕｍｉ,,株式会社,愛知県,名古屋市港区,宝神町字西屋敷１１２１番地の２,,23,111,4550833,,,,,,,2023-06-08,1,,,,,ナツメグミ,0
1124,4180001156613,新規,0,2023-06-08,2023-06-08,株式会社リベロ,,株式会社,愛知県,名古屋市中村区,名駅５丁目２９番１０号,,23,105,4500002,,,,,,,2023-06-08,1,,,,,リベロ,0
1125,4180001156654,新規,0,2023-06-08,2023-06-08,株式会社アイディールワールド,,株式会社,愛知県,小牧市,新町１丁目３２０番地,,23,219,4850013,,,,,,,2023-06-08,1,,,,,アイディールワールド,0
1126,4180001156662,新規,0,2023-06-08,2023-06-08,株式会社バラカグループ,,株式会社,愛知県,春日井市,知多町１丁目１２１,,23,206,4860947,,,,,,,2023-06-08,1,,,,,バラカグループ,0
1127,4180001156670,新規,0,2023-06-08,2023-06-08,株式会社ＹＳ,,株式会社,愛知県,一宮市,定水寺字小脇２７番地１,,23,203,4910004,,,,,,,2023-06-08,1,,,,,ワイエス,0
1128,4180001156704,新規,0,2023-06-08,2023-06-08,アンドエー株式会社,,株式会社,愛知県,名古屋市中村区,名駅３丁目４番１０号アルティメイト名駅１ｓｔ２階,,23,105,4500002,,,,,,,2023-06-08,1,,,,,アンドエー,0
1133,4180003025337,新規,0,2023-06-08,2023-06-08,ＣＯＮＮＥＣＴ合同会社,,合同会社,愛知県,名古屋市北区,上飯田北町２丁目２８－１,,23,103,4620802,,,,,,,2023-06-08,1,,,,,コネクト,0
1138,4180303005732,新規,0,2023-06-08,2023-06-08,合同会社Ｄｒｅａｍ,,合同会社,愛知県,豊田市,上郷町島姫２６番地３,,23,211,4701218,,,,,,,2023-06-08,1,,,,,ドリーム,0
1145,4190001030461,新規,0,2023-06-08,2023-06-08,ＳＳＧ　ＡＵＴＯ　ＪＡＰＡＮ株式会社,,株式会社,三重県,松阪市,上川町１６５５番地１,,24,204,5150041,,,,,,,2023-06-08,1,,,,,エスエスジーオートジャパン,0
1146,4190001030478,新規,0,2023-06-08,2023-06-08,ＡＣＥサービス株式会社,,株式会社,三重県,松阪市,飯高町野々口１３４番地,,24,204,5151503,,,,,,,2023-06-08,1,,,,,エースサービス,0
1148,4190003004348,新規,0,2023-06-08,2023-06-08,合同会社大山,,合同会社,三重県,鈴鹿市,東旭が丘１丁目４番２６号,,24,207,5100211,,,,,,,2023-06-08,1,,,,,オオヤマ,0
1163,4240003006165,新規,0,2023-06-08,2023-06-08,ＴＯＹ　Ｎｉｐｐｏｎ合同会社,,合同会社,広島県,呉市,広吉松２丁目２－６,,34,202,7370121,,,,,,,2023-06-08,1,,,,,トイニッポン,0
1164,4240003006173,新規,0,2023-06-08,2023-06-08,合同会社アイケー,,合同会社,広島県,広島市安芸区,中野東６丁目２３番８１－１２号,,34,107,7390323,,,,,,,2023-06-08,1,,,,,アイケー,0
1183,4290001101871,新規,0,2023-06-08,2023-06-08,株式会社Ｙ’ｓ不動産,,株式会社,福岡県,福岡市西区,愛宕３丁目３番４８号,,40,135,8190015,,,,,,,2023-06-08,1,,,,,ワイズフドウサン,0
1187,4290003013982,新規,0,2023-06-08,2023-06-08,合同会社ＭＩＳＡＫＩ,,合同会社,福岡県,福岡市博多区,光丘町３丁目１番１２号,,40,132,8120874,,,,,,,2023-06-08,1,,,,,ミサキ,0
1189,4290801029585,新規,0,2023-06-08,2023-06-08,株式会社田端電気,,株式会社,福岡県,中間市,通谷６丁目４番８号,,40,215,8090018,,,,,,,2023-06-08,1,,,,,タバタデンキ,0
1190,4290801029602,新規,0,2023-06-08,2023-06-08,株式会社アロー,,株式会社,福岡県,北九州市八幡西区,陣原１丁目９番４号,,40,109,8070821,,,,,,,2023-06-08,1,,,,,アロー,0
1201,4360003013050,新規,0,2023-06-08,2023-06-08,南城モバイル合同会社,,合同会社,沖縄県,南城市,大里字大里１７０６番地２,,47,215,9011202,,,,,,,2023-06-08,1,,,,,ナンジョウモバイル,0
1203,4370001050037,新規,0,2023-06-08,2023-06-08,株式会社エスアールシー,,株式会社,宮城県,東松島市,矢本字町浦１００番地２６,,04,214,9810503,,,,,,,2023-06-08,1,,,,,エスアールシー,0
1204,4370001050045,新規,0,2023-06-08,2023-06-08,株式会社山寨造型,,株式会社,宮城県,仙台市青葉区,堤町３丁目１２番１６号高橋ビル２０５,,04,101,9810912,,,,,,,2023-06-08,1,,,,,サンサイゾウケイ,0
1205,4370001050053,新規,0,2023-06-08,2023-06-08,株式会社咲間サッシ工業,,株式会社,宮城県,角田市,横倉字左関１２１番地３,,04,208,9811512,,,,,,,2023-06-08,1,,,,,サクマサッシコウギョウ,0
1207,4380001033759,新規,0,2023-06-08,2023-06-08,株式会社サークルウェル,,株式会社,福島県,伊達市,梁川町字中町４２番地３,,07,213,9600782,,,,,,,2023-06-08,1,,,,,サークルウェル,0
1208,4380001033767,新規,0,2023-06-08,2023-06-08,株式会社あくあえんたーぷらいず,,株式会社,福島県,郡山市,久留米６丁目７１番地５,,07,203,9638846,,,,,,,2023-06-08,1,,,,,アクアエンタープライズ,0
1209,4380001033775,新規,0,2023-06-08,2023-06-08,Ｄ．Ｓ阿武隈株式会社,,株式会社,福島県,須賀川市,前田川字兎田１２３番地,,07,207,9620814,,,,,,,2023-06-08,1,,,,,ダイレクトサポートアブクマ,0
1212,4390001017281,新規,0,2023-06-08,2023-06-08,株式会社ＡＯＩ,,株式会社,山形県,米沢市,広幡町成島１２０９番地１,,06,202,9920083,,,,,,,2023-06-08,1,,,,,アオイ,0
1222,4430003015139,新規,0,2023-06-08,2023-06-08,合同会社エスピナロサ,,合同会社,北海道,札幌市清田区,北野六条５丁目１２番２１号,,01,110,0040866,,,,,,,2023-06-08,1,,,,,エスピナロサ,0
1225,4470001019641,新規,0,2023-06-08,2023-06-08,日本山川モータース株式会社,,株式会社,香川県,仲多度郡多度津町,西港町１６番地７,,37,404,7640017,,,,,,,2023-06-08,1,,,,,ニホンヤマカワモータース,0
1227,4480001012117,新規,0,2023-06-08,2023-06-08,株式会社千里,,株式会社,徳島県,吉野川市,美郷字川俣７番地２,,36,205,7793503,,,,,,,2023-06-08,1,,,,,チサト,0
1229,4490001010499,新規,0,2023-06-08,2023-06-08,株式会社フリーダム,,株式会社,高知県,高知市,介良甲７５９番地,,39,201,7815105,,,,,,,2023-06-08,1,,,,,フリーダム,0
1236,4500001025000,新規,0,2023-06-08,2023-06-08,株式会社エムアイ電興,,株式会社,愛媛県,松山市,松ノ木１丁目２番４０号,,38,201,7918071,,,,,,,2023-06-08,1,,,,,エムアイデンコウ,0
1243,5010001235969,新規,0,2023-06-08,2023-06-08,株式会社ローズバルコニー,,株式会社,東京都,文京区,小石川３丁目１２番３号,,13,105,1120002,,,,,,,2023-06-08,1,,,,,ローズバルコニー,0
1244,5010001236001,新規,0,2023-06-08,2023-06-08,株式会社Ｈｕｒｕ　Ｈｕｒｕ,,株式会社,東京都,中央区,日本橋小舟町８番１４－３０５号,,13,102,1030024,,,,,,,2023-06-08,1,,,,,フルフル,0
1246,5010005036810,新規,0,2023-06-08,2023-06-08,一般社団法人ＳＵＫＥＲＯＫＵ,,その他の設立登記法人,東京都,千代田区,丸の内３丁目１番１号東京共同会計事務所内,,13,101,1000005,,,,,,,2023-06-08,1,,,,,スケロク,0
1259,5010401174817,新規,0,2023-06-08,2023-06-08,株式会社Ｌｉｎｇｅｒｉｅ　Ｃｏｓｍｅｔｉｃｓ,,株式会社,東京都,港区,赤坂１丁目１４番５号アークヒルズエグゼクティブタワー３０２,,13,103,1070052,,,,,,,2023-06-08,1,,,,,ランジェリーコスメティックス,0
1260,5010401174866,新規,0,2023-06-08,2023-06-08,株式会社ａｌｂｍ,,株式会社,東京都,港区,港南３丁目６番２１－１８１３号Ａ,,13,103,1080075,,,,,,,2023-06-08,1,,,,,アルム,0
1261,5010401174874,新規,0,2023-06-08,2023-06-08,ＮｏｔＡｖｅｒａｇｅ株式会社,,株式会社,東京都,港区,麻布十番２丁目１９番８号２階,,13,103,1060045,,,,,,,2023-06-08,1,,,,,ノットアベレージ,0
1262,5010403030274,新規,0,2023-06-08,2023-06-08,合同会社イースリー,,合同会社,東京都,港区,南青山３丁目１番３６号青山丸竹ビル６Ｆ,,13,103,1070062,,,,,,,2023-06-08,1,,,,,イースリー,0
1263,5010403030299,新規,0,2023-06-08,2023-06-08,合同会社オーパス,,合同会社,東京都,港区,南青山３丁目６番４号新幸ビルディング２２号室,,13,103,1070062,,,,,,,2023-06-08,1,,,,,オーパス,0
1269,5010701044380,新規,0,2023-06-08,2023-06-08,株式会社Ｍｓｔａｇｅ,,株式会社,東京都,品川区,西五反田２丁目９番７号ドルミ五反田アンメゾン８０２号室,,13,109,1410031,,,,,,,2023-06-08,1,,,,,エムステージ,0
1273,5010801034018,新規,0,2023-06-08,2023-06-08,フォレスト株式会社,,株式会社,東京都,大田区,東嶺町４４番１号,,13,111,1450074,,,,,,,2023-06-08,1,,,,,フォレスト,0
1274,5010801034026,新規,0,2023-06-08,2023-06-08,ハネソル株式会社,,株式会社,東京都,大田区,池上７丁目２－７,,13,111,1460082,,,,,,,2023-06-08,1,,,,,ハネソル,0
1276,5010803004571,新規,0,2023-06-08,2023-06-08,ＧＣ合同会社,,合同会社,東京都,大田区,中央１丁目１１－２３－１０１,,13,111,1430024,,,,,,,2023-06-08,1,,,,,ジーシー,0
1290,5011001154894,新規,0,2023-06-08,2023-06-08,Ｈ＆Ｃ　Ｇｌｏｂａｌ　Ｃａｐｉｔａｌ株式会社,,株式会社,東京都,渋谷区,恵比寿１丁目２４番１４号ＥＸＯＳ恵比寿５階,,13,113,1500013,,,,,,,2023-06-08,1,,,,,エイチアンドシーグローバルキャピタル,0
1291,5011001154960,新規,0,2023-06-08,2023-06-08,株式会社だん,,株式会社,東京都,渋谷区,神山町３８番８号インナートリッププラザ神山町１０１,,13,113,1500047,,,,,,,2023-06-08,1,,,,,ダン,0
1292,5011001154969,新規,0,2023-06-08,2023-06-08,ＢＲＡＮＤ株式会社,,株式会社,東京都,目黒区,大橋１丁目５番１号,,13,110,1530044,,,,,,,2023-06-08,1,,,,,ブランド,0
1293,5011001154977,新規,0,2023-06-08,2023-06-08,株式会社Ｇｅｍｉｎｉ,,株式会社,東京都,渋谷区,代々木１丁目４４番４号,,13,113,1510053,,,,,,,2023-06-08,1,,,,,ジェミニ,0
1295,5011003016960,新規,0,2023-06-08,2023-06-08,合同会社誠商店,,合同会社,東京都,目黒区,洗足１丁目７番６号,,13,110,1520012,,,,,,,2023-06-08,1,,,,,マコトショウテン,0
1301,5011201024699,新規,0,2023-06-08,2023-06-08,株式会社ｍｋｉ,,株式会社,東京都,中野区,上高田５丁目３７番５号パブリック・ハイツアネックス２００,,13,114,1640002,,,,,,,2023-06-08,1,,,,,エムケイアイ,0
1305,5011303004789,新規,0,2023-06-08,2023-06-08,合同会社やまぶき,,合同会社,東京都,杉並区,荻窪３丁目４６番１９号,,13,115,1670051,,,,,,,2023-06-08,1,,,,,ヤマブキ,0
1309,5011501029373,新規,0,2023-06-08,2023-06-08,三水株式会社,,株式会社,東京都,荒川区,町屋３丁目２４番２号面川ビル二階２１８号室,,13,118,1160001,,,,,,,2023-06-08,1,,,,,サンスイ,0
1310,5011501029381,新規,0,2023-06-08,2023-06-08,株式会社スターリング,,株式会社,東京都,北区,王子本町１丁目２２－１ＫＳＧビル３０５,,13,117,1140022,,,,,,,2023-06-08,1,,,,,スターリング,0
1311,5011501029398,新規,0,2023-06-08,2023-06-08,株式会社クオリア,,株式会社,東京都,北区,王子１丁目１０番１７号ヒューリック王子ビル５階Ａ－１区画,,13,117,1140002,,,,,,,2023-06-08,1,,,,,クオリア,0
1315,5011803005675,新規,0,2023-06-08,2023-06-08,祥和合同会社,,合同会社,東京都,足立区,綾瀬５丁目２３番８－２０１号,,13,121,1200005,,,,,,,2023-06-08,1,,,,,ショウワ,0
1317,5012701017688,新規,0,2023-06-08,2023-06-08,株式会社ビッグサン,,株式会社,東京都,西東京市,富士町４丁目７番１８号,,13,229,2020014,,,,,,,2023-06-08,1,,,,,ビッグサン,0
1318,5012801022407,新規,0,2023-06-08,2023-06-08,株式会社ＳｔａｎｄＳｔａｒｔ,,株式会社,東京都,立川市,曙町２丁目８番２８号,,13,202,1900012,,,,,,,2023-06-08,1,,,,,スタンドスタート,0
1319,5012801022423,新規,0,2023-06-08,2023-06-08,株式会社ベルフィーヌ,,株式会社,東京都,立川市,錦町２丁目２番１号ＳＫ錦町ビル４階,,13,202,1900022,,,,,,,2023-06-08,1,,,,,ベルフィーヌ,0
1326,5020001151793,新規,0,2023-06-08,2023-06-08,株式会社Ｔｅｃｈｎｏｌｏｇｙ　Ｔｒａｎｓｆｅｒ　ａｎｄ　Ｃｏｍｍｕｎｉｃａｔｉｏｎ　Ｉｎｔｅｒｎａｔｉｏｎａｌ,,株式会社,神奈川県,横浜市磯子区,磯子５丁目９番５号,,14,107,2350016,,,,,,,2023-06-08,1,,,,,テクノロジートランスファーアンドコミュニケーションインターナショナル,0
1327,5020001151901,新規,0,2023-06-08,2023-06-08,ＵＰＰ株式会社,,株式会社,神奈川県,横浜市青葉区,若草台１７番地１１,,14,117,2270045,,,,,,,2023-06-08,1,,,,,ユーピーピー,0
1328,5020001151926,新規,0,2023-06-08,2023-06-08,アイズリアルエステート株式会社,,株式会社,神奈川県,横浜市鶴見区,鶴見中央４丁目２６番１３号ドメイン横濱鶴見弐番館１００１,,14,101,2300051,,,,,,,2023-06-08,1,,,,,アイズリアルエステート,0
1329,5020001151950,新規,0,2023-06-08,2023-06-08,ＬｕｕＴｓ株式会社,,株式会社,神奈川県,横浜市保土ケ谷区,上菅田町１３３５－１,,14,106,2400051,,,,,,,2023-06-08,1,,,,,ルーツ,0
1330,5020001151967,新規,0,2023-06-08,2023-06-08,株式会社きずな,,株式会社,神奈川県,川崎市川崎区,京町２丁目３番１－４０１号,,14,131,2100848,,,,,,,2023-06-08,1,,,,,キズナ,0
1338,5021001079240,新規,0,2023-06-08,2023-06-08,株式会社ＪＵＭＢＯ,,株式会社,神奈川県,伊勢原市,岡崎６９３９番地４３,,14,214,2591135,,,,,,,2023-06-08,1,,,,,ジャンボ,0
1339,5021001079249,新規,0,2023-06-08,2023-06-08,株式会社オオタアーキテック,,株式会社,神奈川県,相模原市中央区,東淵野辺４丁目１６番１１－３０３号,,14,152,2520203,,,,,,,2023-06-08,1,,,,,オオタアーキテック,0
1340,5021001079257,新規,0,2023-06-08,2023-06-08,株式会社川口電気,,株式会社,神奈川県,平塚市,北豊田６４９番地の９,,14,203,2540088,,,,,,,2023-06-08,1,,,,,カワグチデンキ,0
1341,5021001079265,新規,0,2023-06-08,2023-06-08,株式会社ＧｏｏｄＲａｈｔ　Ｊａｐａｎ,,株式会社,神奈川県,三浦郡葉山町,木古庭５３９番地の２,,14,301,2400114,,,,,,,2023-06-08,1,,,,,グッドラートジャパン,0
1342,5021001079273,新規,0,2023-06-08,2023-06-08,株式会社津久井商事,,株式会社,神奈川県,大和市,下鶴間２丁目１０番１４号,,14,213,2420001,,,,,,,2023-06-08,1,,,,,ツクイショウジ,0
1344,5021003013180,新規,0,2023-06-08,2023-06-08,Ｇ＆ｉｔｅｃ合同会社,,合同会社,神奈川県,鎌倉市,由比ガ浜２丁目１７番１５号,,14,204,2480014,,,,,,,2023-06-08,1,,,,,ジーアンドアイテック,0
1346,5030001154218,新規,0,2023-06-08,2023-06-08,るきえま株式会社,,株式会社,埼玉県,さいたま市西区,大字中野林８７３番地３１,,11,101,3310057,,,,,,,2023-06-08,1,,,,,ルキエマ,0
1347,5030001154259,新規,0,2023-06-08,2023-06-08,アステル株式会社,,株式会社,埼玉県,川口市,並木３丁目２８番９－２０３号,,11,203,3320034,,,,,,,2023-06-08,1,,,,,アステル,0
1348,5030001154399,新規,0,2023-06-08,2023-06-08,株式会社ハモニカ,,株式会社,埼玉県,所沢市,東所沢和田２丁目３７番地の４アドグランデ所沢イ－スト６０７,,11,208,3590023,,,,,,,2023-06-08,1,,,,,ハモニカ,0
1355,5040005022023,新規,0,2023-06-08,2023-06-08,弁護士法人大友法律事務所,,その他の設立登記法人,千葉県,千葉市中央区,本千葉町４－１４内海ビル２階,,12,101,2600014,,,,,,,2023-06-08,1,,,,,オオトモホウリツジムショ,0
1358,5050003007561,新規,0,2023-06-08,2023-06-08,クラージュ合同会社,,合同会社,茨城県,つくば市,並木２丁目９番地,,08,220,3050044,,,,,,,2023-06-08,1,,,,,クラージュ,0
1359,5050005013277,新規,0,2023-06-08,2023-06-08,一般社団法人ハルノヒ,,その他の設立登記法人,茨城県,水戸市,南町３丁目３番３５号,,08,201,3100021,,,,,,,2023-06-08,1,,,,,ハルノヒ,0
1366,5070001040496,新規,0,2023-06-08,2023-06-08,株式会社ＨＡＲＥ,,株式会社,群馬県,吾妻郡中之条町,大字西中之条４５７番地,,10,421,3770425,,,,,,,2023-06-08,1,,,,,ハレ,0
1370,5080101024068,新規,0,2023-06-08,2023-06-08,株式会社篠田建設,,株式会社,静岡県,田方郡函南町,上沢４８１番地,,22,325,4190122,,,,,,,2023-06-08,1,,,,,シノダケンセツ,0
1372,5080403004800,新規,0,2023-06-08,2023-06-08,合同会社寿福,,合同会社,静岡県,浜松市浜北区,染地台２丁目５－２１,,22,136,4340046,,,,,,,2023-06-08,1,,,,,ジュフク,0
1376,5100003007044,新規,0,2023-06-08,2023-06-08,合同会社ＪＩＣＣＯ,,合同会社,長野県,佐久市,長土呂１１８３番地９,,20,217,3850021,,,,,,,2023-06-08,1,,,,,ジッコ,0
1377,5100005013032,新規,0,2023-06-08,2023-06-08,朝日社会保険労務士法人,,その他の設立登記法人,長野県,上伊那郡宮田村,１５７番地,,20,388,3994301,,,,,,,2023-06-08,1,,,,,アサヒ,0
1380,5110001037587,新規,0,2023-06-08,2023-06-08,株式会社ＦａｚｅｒＡｇｏｒａ,,株式会社,新潟県,三条市,月岡２丁目２７－３４,,15,204,9550803,,,,,,,2023-06-08,1,,,,,ファジーアゴーラ,0
1388,5120001255361,新規,0,2023-06-08,2023-06-08,晟ＹＩ株式会社,,株式会社,大阪府,大阪市東住吉区,鷹合４丁目２１番１６号１Ｆ－Ｅ,,27,121,5460014,,,,,,,2023-06-08,1,,,,,セイイ,0
1389,5120001255485,新規,0,2023-06-08,2023-06-08,株式会社シエナ,,株式会社,大阪府,大阪市住吉区,山之内１丁目１０番２８－１９０５号,,27,120,5580023,,,,,,,2023-06-08,1,,,,,シエナ,0
1390,5120001255535,新規,0,2023-06-08,2023-06-08,株式会社真昇興業,,株式会社,大阪府,大阪市東淀川区,大桐５丁目１３番１６号,,27,114,5330011,,,,,,,2023-06-08,1,,,,,シンショウコウギョウ,0
1392,5120003024194,新規,0,2023-06-08,2023-06-08,合同会社ＹＳ,,合同会社,大阪府,大阪市北区,神山町８番１号,,27,127,5300026,,,,,,,2023-06-08,1,,,,,ワイエス,0
1393,5120003024244,新規,0,2023-06-08,2023-06-08,合同会社ＩＬＭ,,合同会社,大阪府,大阪市都島区,都島中通３丁目５番４３－１５０３号,,27,102,5340022,,,,,,,2023-06-08,1,,,,,アイエルエム,0
1396,5120101067698,新規,0,2023-06-08,2023-06-08,株式会社Ｗｅｓｔ　Ｖｉｌｌａｇｅ　Ｃｏｍｍｕｎｉｔｙ,,株式会社,大阪府,堺市堺区,大町東３丁２番２８号永木ビル２階,,27,141,5900954,,,,,,,2023-06-08,1,,,,,ウエストビレッジコミュニティ,0
1399,5120901047635,新規,0,2023-06-08,2023-06-08,株式会社ｔｏｋｉｏｇｒａｐｈ,,株式会社,大阪府,茨木市,沢良宜西４丁目１４番１号,,27,211,5670868,,,,,,,2023-06-08,1,,,,,トキオグラフ,0
1400,5120903004675,新規,0,2023-06-08,2023-06-08,ＲＯＬ合同会社,,合同会社,大阪府,高槻市,淀の原町４７番２号,,27,207,5690001,,,,,,,2023-06-08,1,,,,,アールオーエル,0
1401,5122001037054,新規,0,2023-06-08,2023-06-08,株式会社Ｃａｃｈｅｔｔｅ,,株式会社,大阪府,東大阪市,本庄１丁目３番１３号,,27,227,5780953,,,,,,,2023-06-08,1,,,,,カシェット,0
1402,5122001037062,新規,0,2023-06-08,2023-06-08,株式会社ｃｏｃｏ‐ｎｏ‐ｗａ,,株式会社,大阪府,八尾市,東町６丁目１２６番地の４５,,27,212,5810861,,,,,,,2023-06-08,1,,,,,ココノワ,0
1406,5130001074430,新規,0,2023-06-08,2023-06-08,株式会社Ｆ‐ｒｅｅ,,株式会社,京都府,京都市伏見区,塩屋町２３８－２Ｆ,,26,109,6128046,,,,,,,2023-06-08,1,,,,,エフリー,0
1407,5130001074488,新規,0,2023-06-08,2023-06-08,株式会社京都コネクト,,株式会社,京都府,京都市左京区,岩倉忠在地町２７７番地１,,26,103,6060021,,,,,,,2023-06-08,1,,,,,キョウトコネクト,0
1408,5130001074505,新規,0,2023-06-08,2023-06-08,桜橋文化会館株式会社,,株式会社,京都府,京都市左京区,鹿ケ谷法然院町１５,,26,103,6068421,,,,,,,2023-06-08,1,,,,,サクラバシブンカカイカン,0
1409,5130003008774,新規,0,2023-06-08,2023-06-08,合同会社ＳＧ,,合同会社,京都府,京都市中京区,柿本町３９５,,26,104,6048173,,,,,,,2023-06-08,1,,,,,エスジー,0
1410,5130005016791,新規,0,2023-06-08,2023-06-08,一般社団法人柏野学区自治連合福祉協議会,,その他の設立登記法人,京都府,京都市北区,紫野中柏野町２３－５番地,,26,101,6038312,,,,,,,2023-06-08,1,,,,,カシワノガックジチレンゴウフクシキョウギカイ,0
1415,5140001130356,新規,0,2023-06-08,2023-06-08,株式会社Ｍｒ,,株式会社,兵庫県,丹波市,春日町松森９３２番地１,,28,223,6694264,,,,,,,2023-06-08,1,,,,,ミスター,0
1416,5140001130364,新規,0,2023-06-08,2023-06-08,株式会社アン・ムール,,株式会社,兵庫県,たつの市,御津町釜屋３８１番地２,,28,229,6711341,,,,,,,2023-06-08,1,,,,,アンムール,0
1417,5140001130406,新規,0,2023-06-08,2023-06-08,株式会社トムウィン,,株式会社,兵庫県,明石市,本町１丁目２番３３号,,28,203,6730892,,,,,,,2023-06-08,1,,,,,トムウィン,0
1418,5140001130439,新規,0,2023-06-08,2023-06-08,株式会社すももテラス,,株式会社,兵庫県,芦屋市,西蔵町１０番１１－４１４号,,28,206,6590026,,,,,,,2023-06-08,1,,,,,スモモテラス,0
1419,5140001130447,新規,0,2023-06-08,2023-06-08,株式会社喜多,,株式会社,兵庫県,姫路市,飾磨区中野田２丁目１６４番地,,28,201,6728045,,,,,,,2023-06-08,1,,,,,キタ,0
1424,5150001026470,新規,0,2023-06-08,2023-06-08,株式会社ＣＳＣ,,株式会社,奈良県,生駒郡平群町,大字梨本５６２番地の６,,29,342,6360931,,,,,,,2023-06-08,1,,,,,シーエスシー,0
1425,5150005009488,新規,0,2023-06-08,2023-06-08,一般社団法人青少年育成柔道プロジェクト,,その他の設立登記法人,奈良県,生駒市,萩の台７９３番地１ハイツ萩の台１０１号室,,29,209,6300224,,,,,,,2023-06-08,1,,,,,セイショウネンイクセイジュウドウプロジェクト,0
1426,5160003002898,新規,0,2023-06-08,2023-06-08,ＭＡＲＫＳ合同会社,,合同会社,滋賀県,大津市,におの浜３丁目２番７－１６０２号,,25,201,5200801,,,,,,,2023-06-08,1,,,,,マークス,0
1433,5180001156521,新規,0,2023-06-08,2023-06-08,株式会社ＮＥＯＮ,,株式会社,愛知県,名古屋市中区,栄３丁目１２番３２号レジャーセンタービル２階,,23,106,4600008,,,,,,,2023-06-08,1,,,,,ネオン,0
1434,5180001156587,新規,0,2023-06-08,2023-06-08,株式会社ＨＦＣ,,株式会社,愛知県,名古屋市中村区,松重町４番５５号,,23,105,4500004,,,,,,,2023-06-08,1,,,,,エイチエフシー,0
1435,5180001156604,新規,0,2023-06-08,2023-06-08,株式会社小川,,株式会社,愛知県,名古屋市北区,東味鋺１丁目７１５番地,,23,103,4620013,,,,,,,2023-06-08,1,,,,,オガワ,0
1436,5180001156620,新規,0,2023-06-08,2023-06-08,株式会社ＳＥＲＩＯ　ｉｌｏ,,株式会社,愛知県,名古屋市中区,葵２丁目１３番２４号メゾンドール上泉５０５号,,23,106,4600006,,,,,,,2023-06-08,1,,,,,セリオイロ,0
1437,5180001156711,新規,0,2023-06-08,2023-06-08,株式会社和宙,,株式会社,愛知県,日進市,赤池町箕ノ手２番地１５２１,,23,230,4700126,,,,,,,2023-06-08,1,,,,,ワソラ,0
1444,5180003025328,新規,0,2023-06-08,2023-06-08,合同会社かとう,,合同会社,愛知県,半田市,向山町１丁目１１０番地,,23,205,4750084,,,,,,,2023-06-08,1,,,,,カトウ,0
1447,5190001030469,新規,0,2023-06-08,2023-06-08,株式会社ＡＲＩＧＡＴＯＵ　ＡＣＥ,,株式会社,三重県,松阪市,射和町５６５番地１,,24,204,5192145,,,,,,,2023-06-08,1,,,,,アリガトウエース,0
1453,5220003003527,新規,0,2023-06-08,2023-06-08,合同会社ＫＣ,,合同会社,石川県,金沢市,高畠１丁目５２７番地ランプロス１０２,,17,201,9218001,,,,,,,2023-06-08,1,,,,,ケーシー,0
1460,5240001061616,新規,0,2023-06-08,2023-06-08,Ｋプラン株式会社,,株式会社,広島県,広島市佐伯区,五日市駅前２丁目６番８号,,34,108,7315125,,,,,,,2023-06-08,1,,,,,ケープラン,0
1461,5240001061649,新規,0,2023-06-08,2023-06-08,株式会社スト・ライク,,株式会社,広島県,広島市南区,松原町３番２－３６０５号,,34,103,7320822,,,,,,,2023-06-08,1,,,,,ストライク,0
1462,5250001020125,新規,0,2023-06-08,2023-06-08,秋本水産株式会社,,株式会社,山口県,長門市,仙崎１４０番地３,,35,211,7594106,,,,,,,2023-06-08,1,,,,,アキモトスイサン,0
1463,5260001038018,新規,0,2023-06-08,2023-06-08,株式会社ＹＨ,,株式会社,岡山県,赤磐市,桜が丘東６丁目６番地１１,,33,213,7090721,,,,,,,2023-06-08,1,,,,,ワイエイチ,0
1464,5260001038026,新規,0,2023-06-08,2023-06-08,株式会社悠善,,株式会社,岡山県,倉敷市,白楽町３２９番地フォブールＱＵＡ（Ｂ棟１０２）,,33,202,7100824,,,,,,,2023-06-08,1,,,,,ユウゼン,0
1468,5290001101813,新規,0,2023-06-08,2023-06-08,株式会社カワサキコンサルト,,株式会社,福岡県,福岡市中央区,赤坂１丁目１５番１号,,40,133,8100042,,,,,,,2023-06-08,1,,,,,カワサキコンサルト,0
1471,5290003013973,新規,0,2023-06-08,2023-06-08,徳雲貿易合同会社,,合同会社,福岡県,福岡市西区,愛宕３丁目４番１２号,,40,135,8190015,,,,,,,2023-06-08,1,,,,,トクウンボウエキ,0
1472,5290003013998,新規,0,2023-06-08,2023-06-08,合同会社アイエスクリエイト,,合同会社,福岡県,那珂川市,片縄北６丁目５番１５号,,40,231,8111203,,,,,,,2023-06-08,1,,,,,アイエスクリエイト,0
1473,5290005019052,新規,0,2023-06-08,2023-06-08,特定非営利活動法人あいむ,,その他の設立登記法人,福岡県,福岡市中央区,大名２丁目１０番４号シャンボール大名Ｄ４０６,,40,133,8100041,,,,,,,2023-06-08,1,,,,,アイム,0
1483,5320005010081,新規,0,2023-06-08,2023-06-08,企業組合Ｃｉｅｌｏ　Ｂｌｕ,,その他の設立登記法人,大分県,大分市,上田町１丁目３番１－９１３号ロフティ羽屋,,44,201,8700886,,,,,,,2023-06-08,1,,,,,チエロブル,0
1487,5360001032142,新規,0,2023-06-08,2023-06-08,４４‐ｐｒｏｊｅｃｔ株式会社,,株式会社,沖縄県,宮古島市,平良字西里２７番地,,47,214,9060012,,,,,,,2023-06-08,1,,,,,フォーティーフォープロジェクト,0
1501,5380001033758,新規,0,2023-06-08,2023-06-08,ターシャ株式会社,,株式会社,福島県,いわき市,平字田町１２０番地ＬＡＴＯＶ６階,,07,204,9708026,,,,,,,2023-06-08,1,,,,,ターシャ,0
1502,5380001033766,新規,0,2023-06-08,2023-06-08,株式会社ＭＯＲ,,株式会社,福島県,南相馬市,原町区西町１丁目４６番地の１,,07,212,9750014,,,,,,,2023-06-08,1,,,,,モア,0
1506,5380003005482,新規,0,2023-06-08,2023-06-08,カンノ・ワークス合同会社,,合同会社,福島県,郡山市,安積２丁目３６９－１,,07,203,9630107,,,,,,,2023-06-08,1,,,,,カンノワークス,0
1508,5390001017280,新規,0,2023-06-08,2023-06-08,株式会社ｓｕｎｓ,,株式会社,山形県,鶴岡市,末広町１５－３ＲＹＵビル２Ｆ,,06,203,9970015,,,,,,,2023-06-08,1,,,,,サンズ,0
1511,5420001018291,新規,0,2023-06-08,2023-06-08,株式会社金虎,,株式会社,青森県,八戸市,東白山台４丁目１０番１０号,,02,203,0391111,,,,,,,2023-06-08,1,,,,,キントラ,0
1515,5430003015088,新規,0,2023-06-08,2023-06-08,合同会社Ｍｉｎｅｒｖａ,,合同会社,北海道,札幌市中央区,南五条西６丁目１８番１号ＨＢＮビル３階Ｄ号室,,01,101,0640805,,,,,,,2023-06-08,1,,,,,ミネルヴァ,0
1521,5470001019657,新規,0,2023-06-08,2023-06-08,株式会社ＷＡＶＩＣ,,株式会社,香川県,坂出市,文京町１丁目１番２号,,37,203,7620031,,,,,,,2023-06-08,1,,,,,ウェーヴィック,0
1523,5470005006511,新規,0,2023-06-08,2023-06-08,一般社団法人四国文化研究所,,その他の設立登記法人,香川県,丸亀市,城東町３丁目１０番１９,,37,202,7630013,,,,,,,2023-06-08,1,,,,,シコクブンカケンキュウジョ,0
1535,5700150117048,新規,0,2023-06-08,2023-06-08,マウントロイヤルホリデーズ,,外国会社等,東京都,新宿区,百人町１丁目１１番２８号プラット１００・２０６号室,,13,104,1690073,ネパール連邦民主共和国カトマンズ首都圏カトマンズ地区第３２区,,,,,,2023-06-08,1,,,,,マウントロイヤルホリデーズ,0
1547,6010001235893,新規,0,2023-06-08,2023-06-08,エムプレイスメント株式会社,,株式会社,東京都,千代田区,神田小川町３丁目１４番地,,13,101,1010052,,,,,,,2023-06-08,1,,,,,エムプレイスメント,0
1548,6010001235935,新規,0,2023-06-08,2023-06-08,株式会社ＫＦキャピタル,,株式会社,東京都,千代田区,平河町２丁目４番７号,,13,101,1020093,,,,,,,2023-06-08,1,,,,,ケイエフキャピタル,0
1549,6010001235976,新規,0,2023-06-08,2023-06-08,ＫｏｎｄａｔｅＸ株式会社,,株式会社,東京都,中央区,日本橋室町１丁目１１番１２号日本橋水野ビル７階,,13,102,1030022,,,,,,,2023-06-08,1,,,,,コンダテエックス,0
1550,6010001236017,新規,0,2023-06-08,2023-06-08,株式会社オフィスイデア,,株式会社,東京都,中央区,新川２丁目１０番１－１９０７号,,13,102,1040033,,,,,,,2023-06-08,1,,,,,オフィスイデア,0
1552,6010003040788,新規,0,2023-06-08,2023-06-08,ＡＯアカウンテイング合同会社,,合同会社,東京都,中央区,日本橋蛎殻町１丁目２８番７号３０１号室,,13,102,1030014,,,,,,,2023-06-08,1,,,,,アオアカウンティング,0
1553,6010003040805,新規,0,2023-06-08,2023-06-08,合同会社妙な少女,,合同会社,東京都,中央区,築地７丁目１２－１３－７０２,,13,102,1040045,,,,,,,2023-06-08,1,,,,,ミョウナショウジョ,0
1559,6010005036801,新規,0,2023-06-08,2023-06-08,一般社団法人予防カウンセリング協会,,その他の設立登記法人,東京都,中央区,銀座１丁目３番９号,,13,102,1040061,,,,,,,2023-06-08,1,,,,,ヨボウカウンセリングキョウカイ,0
1561,6010401174799,新規,0,2023-06-08,2023-06-08,株式会社エッセンシャルピクチャーズ,,株式会社,東京都,港区,南青山３丁目１番３６号青山丸竹ビル６Ｆ,,13,103,1070062,,,,,,,2023-06-08,1,,,,,エッセンシャルピクチャーズ,0
1562,6010401174881,新規,0,2023-06-08,2023-06-08,Ｓｔｙｌｅ　Ｌａｂｏ株式会社,,株式会社,東京都,港区,南青山３丁目３番３号,,13,103,1070062,,,,,,,2023-06-08,1,,,,,スタイルラボ,0
1563,6010403030298,新規,0,2023-06-08,2023-06-08,合同会社ハーラン,,合同会社,東京都,港区,南青山３丁目６番４号新幸ビルディング２１号室,,13,103,1070062,,,,,,,2023-06-08,1,,,,,ハーラン,0
1568,6010503007031,新規,0,2023-06-08,2023-06-08,合同会社シアテック,,合同会社,東京都,台東区,上野７丁目３番９－７１９号アルベルゴ上野,,13,106,1100005,,,,,,,2023-06-08,1,,,,,シアテック,0
1573,6010603010190,新規,0,2023-06-08,2023-06-08,合同会社キャッシュクリエイト,,合同会社,東京都,江東区,高橋１４－１６,,13,108,1350005,,,,,,,2023-06-08,1,,,,,キャッシュクリエイト,0
1585,6011001154869,新規,0,2023-06-08,2023-06-08,株式会社キュリオ,,株式会社,東京都,渋谷区,道玄坂１丁目１２番１号,,13,113,1500043,,,,,,,2023-06-08,1,,,,,キュリオ,0
1586,6011003016943,新規,0,2023-06-08,2023-06-08,マーク・インターナショナル・ジャパン合同会社,,合同会社,東京都,渋谷区,神宮前６丁目２３番４号桑野ビル２階,,13,113,1500001,,,,,,,2023-06-08,1,,,,,マークインターナショナルジャパン,0
1590,6011101103180,新規,0,2023-06-08,2023-06-08,株式会社エージェント・ワン,,株式会社,東京都,新宿区,西新宿３丁目８番１３号,,13,104,1600023,,,,,,,2023-06-08,1,,,,,エージェントワン,0
1598,6011301028764,新規,0,2023-06-08,2023-06-08,三譲株式会社,,株式会社,東京都,杉並区,梅里２丁目２５番１３号高円寺プラザ,,13,115,1660011,,,,,,,2023-06-08,1,,,,,サンジョウ,0
1602,6011501029372,新規,0,2023-06-08,2023-06-08,開源国際商貿株式会社,,株式会社,東京都,荒川区,町屋３丁目２４番２号面川ビル３０１号室,,13,118,1160001,,,,,,,2023-06-08,1,,,,,カイゲンコクサイショウボウ,0
1603,6011503005644,新規,0,2023-06-08,2023-06-08,大基合同会社,,合同会社,東京都,荒川区,西尾久８丁目３０－１－５２４,,13,118,1160011,,,,,,,2023-06-08,1,,,,,ダイキ,0
1611,6012301013467,新規,0,2023-06-08,2023-06-08,オーサムウェア株式会社,,株式会社,東京都,町田市,つくし野１丁目１番地１,,13,209,1940001,,,,,,,2023-06-08,1,,,,,オーサムウェア,0
1616,6012701017687,新規,0,2023-06-08,2023-06-08,コカ機工株式会社,,株式会社,東京都,小平市,仲町４０７番地の１４,,13,211,1870042,,,,,,,2023-06-08,1,,,,,コカキコウ,0
1620,6012801022422,新規,0,2023-06-08,2023-06-08,株式会社ＳＴＹＬＥＹ　ＬＩＮＫＳ,,株式会社,東京都,立川市,柏町３丁目２番地の５８,,13,202,1900004,,,,,,,2023-06-08,1,,,,,スタイリーリンクス,0
1623,6012803003098,新規,0,2023-06-08,2023-06-08,合同会社寿咲,,合同会社,東京都,立川市,富士見町１丁目３３番８号,,13,202,1900013,,,,,,,2023-06-08,1,,,,,コトサク,0
1634,6020001151933,新規,0,2023-06-08,2023-06-08,株式会社ＱＬＡＵ,,株式会社,神奈川県,横浜市青葉区,あざみ野４丁目２８－５０,,14,117,2250011,,,,,,,2023-06-08,1,,,,,クラウ,0
1635,6020001151974,新規,0,2023-06-08,2023-06-08,株式会社ＷｅＲ,,株式会社,神奈川県,川崎市高津区,東野川２丁目１５番１０号,,14,134,2130029,,,,,,,2023-06-08,1,,,,,ウィーアー,0
1638,6020003024014,新規,0,2023-06-08,2023-06-08,合同会社Ｌｉｎｋ,,合同会社,神奈川県,横浜市栄区,笠間３丁目９番１９－１０１号,,14,115,2470006,,,,,,,2023-06-08,1,,,,,リンク,0
1639,6020003024022,新規,0,2023-06-08,2023-06-08,合同会社えんぴつ,,合同会社,神奈川県,横浜市西区,浅間町１丁目４番地３,,14,103,2200072,,,,,,,2023-06-08,1,,,,,エンピツ,0
1644,6021001079256,新規,0,2023-06-08,2023-06-08,株式会社ＳＫペイント,,株式会社,神奈川県,高座郡寒川町,一之宮８丁目３番１０号,,14,321,2530111,,,,,,,2023-06-08,1,,,,,エスケイペイント,0
1645,6021001079272,新規,0,2023-06-08,2023-06-08,畜産トータルサポート株式会社,,株式会社,神奈川県,相模原市南区,下溝９３２番地６,,14,153,2520335,,,,,,,2023-06-08,1,,,,,チクサントータルサポート,0
1646,6021001079280,新規,0,2023-06-08,2023-06-08,ＡＵＮ株式会社,,株式会社,神奈川県,平塚市,宮の前４番４号,,14,203,2540035,,,,,,,2023-06-08,1,,,,,アウン,0
1655,6030001154241,新規,0,2023-06-08,2023-06-08,株式会社ＫＳＫＤＥＳＩＧＮ,,株式会社,埼玉県,新座市,野火止３丁目１１番４４－７号,,11,230,3520011,,,,,,,2023-06-08,1,,,,,ケーエスケーデザイン,0
1656,6030001154258,新規,0,2023-06-08,2023-06-08,株式会社ＳＳエンジニアリング,,株式会社,埼玉県,さいたま市見沼区,東大宮６丁目１９番地６,,11,104,3370051,,,,,,,2023-06-08,1,,,,,エスエスエンジニアリング,0
1657,6030001154274,新規,0,2023-06-08,2023-06-08,はにわ観光株式会社,,株式会社,埼玉県,所沢市,大字下安松１５８８番地の１カサブランカ２－２０７,,11,208,3590024,,,,,,,2023-06-08,1,,,,,ハニワカンコウ,0
1666,6040001128707,新規,0,2023-06-08,2023-06-08,株式会社アズサソリューション,,株式会社,千葉県,印西市,滝野６丁目６番１２号,,12,231,2702329,,,,,,,2023-06-08,1,,,,,アズサソリューション,0
1667,6040001128731,新規,0,2023-06-08,2023-06-08,株式会社ＬＩＮＫ,,株式会社,千葉県,船橋市,薬円台３丁目１６番５－４１２号,,12,204,2740077,,,,,,,2023-06-08,1,,,,,リンク,0
1668,6040001128748,新規,0,2023-06-08,2023-06-08,株式会社畠山美装,,株式会社,千葉県,鎌ケ谷市,南初富５丁目９番１８号ヴェルド・ミール１０１号,,12,224,2730123,,,,,,,2023-06-08,1,,,,,ハタケヤマビソウ,0
1669,6040001128772,新規,0,2023-06-08,2023-06-08,飛虎株式会社,,株式会社,千葉県,東金市,田間１丁目１２板倉ハイツ１０１,,12,213,2830005,,,,,,,2023-06-08,1,,,,,ヒコ,0
1674,6040003022759,新規,0,2023-06-08,2023-06-08,合同会社ＨＰ　Ｍｏｂｉｌｅ,,合同会社,千葉県,八千代市,八千代台北１丁目９－３コーポ総３０１号,,12,221,2760031,,,,,,,2023-06-08,1,,,,,エイチピーモバイル,0
1675,6040003022775,新規,0,2023-06-08,2023-06-08,合同会社Ａ‐ｊｕ,,合同会社,千葉県,長生郡一宮町,一宮２４６８番地２,,12,421,2994301,,,,,,,2023-06-08,1,,,,,アージュ,0
1678,6050001052765,新規,0,2023-06-08,2023-06-08,株式会社日立産業,,株式会社,茨城県,日立市,十王町伊師１７５５－３７,,08,202,3191301,,,,,,,2023-06-08,1,,,,,ヒタチサンギョウ,0
1679,6050001052930,新規,0,2023-06-08,2023-06-08,株式会社ＡＫ　ＪＡＰＡＮ　ＴＲＡＤＩＮＧ　ＣＯ,,株式会社,茨城県,坂東市,中里１２０番地２Ｃ,,08,228,3060634,,,,,,,2023-06-08,1,,,,,エーケージャパントレーディングシーオー,0
1680,6050001052947,新規,0,2023-06-08,2023-06-08,ＨＯＭＩＥ株式会社,,株式会社,茨城県,筑西市,辻２３７７番地,,08,227,3080103,,,,,,,2023-06-08,1,,,,,,0
1683,6050003007569,新規,0,2023-06-08,2023-06-08,合同会社森のくろくま,,合同会社,茨城県,水戸市,青柳町６６７番地の１５,,08,201,3100004,,,,,,,2023-06-08,1,,,,,モリノクロクマ,0
1701,6090001018151,新規,0,2023-06-08,2023-06-08,株式会社ＪＩＮコーポレーション,,株式会社,山梨県,韮崎市,藤井町坂井６０３番地２,,19,207,4070002,,,,,,,2023-06-08,1,,,,,ジンコーポレーション,0
1702,6100001036481,新規,0,2023-06-08,2023-06-08,フィールドアップ株式会社,,株式会社,長野県,上伊那郡宮田村,３３５６番地５,,20,388,3994301,,,,,,,2023-06-08,1,,,,,フィールドアップ,0
1703,6100001036498,新規,0,2023-06-08,2023-06-08,株式会社ぽれぽれ,,株式会社,長野県,上伊那郡中川村,大草３２８０－７,,20,386,3993801,,,,,,,2023-06-08,1,,,,,ポレポレ,0
1705,6100005013031,新規,0,2023-06-08,2023-06-08,税理士法人笠原会計,,その他の設立登記法人,長野県,上伊那郡辰野町,大字平出１７１７番地１,,20,382,3990422,,,,,,,2023-06-08,1,,,,,カサハラカイケイ,0
1706,6110001037586,新規,0,2023-06-08,2023-06-08,株式会社ＳＴＰ,,株式会社,新潟県,北蒲原郡聖籠町,大字網代浜１４５４番地３,,15,307,9570103,,,,,,,2023-06-08,1,,,,,エスティーピー,0
1716,6120001255336,新規,0,2023-06-08,2023-06-08,友成株式会社,,株式会社,大阪府,大阪市天王寺区,悲田院町９－１７阪和ビル３０１号室,,27,109,5430055,,,,,,,2023-06-08,1,,,,,トモナリ,0
1717,6120001255451,新規,0,2023-06-08,2023-06-08,株式会社Ｔ‐ＧＲＯＷ,,株式会社,大阪府,大阪市生野区,小路東３丁目４番１６号,,27,116,5440003,,,,,,,2023-06-08,1,,,,,ティーグロウ,0
1718,6120001255526,新規,0,2023-06-08,2023-06-08,株式会社スマイル,,株式会社,大阪府,大阪市阿倍野区,天王寺町北３丁目１０番４号,,27,119,5450001,,,,,,,2023-06-08,1,,,,,スマイル,0
1719,6120001255550,新規,0,2023-06-08,2023-06-08,株式会社アイオーエヌ,,株式会社,大阪府,大阪市中央区,内本町２丁目３番８号,,27,128,5400026,,,,,,,2023-06-08,1,,,,,アイオーエヌ,0
1721,6120003024210,新規,0,2023-06-08,2023-06-08,合同会社吉門,,合同会社,大阪府,大阪市西成区,天下茶屋東２丁目８番６号,,27,122,5570011,,,,,,,2023-06-08,1,,,,,ヨシモン,0
1722,6120003024227,新規,0,2023-06-08,2023-06-08,成行合同会社,,合同会社,大阪府,大阪市中央区,道修町３丁目３番８－１４０３号,,27,128,5410045,,,,,,,2023-06-08,1,,,,,セイコウ,0
1723,6120003024235,新規,0,2023-06-08,2023-06-08,Ｄｏｊａ合同会社,,合同会社,大阪府,大阪市北区,東天満２丁目７－４イシモトビル４Ｆ,,27,127,5300044,,,,,,,2023-06-08,1,,,,,ドウジャ,0
1724,6120005023656,新規,0,2023-06-08,2023-06-08,社会保険労務士法人島谷事務所,,その他の設立登記法人,大阪府,大阪市北区,天神橋３丁目３番３号,,27,127,5300041,,,,,,,2023-06-08,1,,,,,シマタニジムショ,0
1727,6120101067689,新規,0,2023-06-08,2023-06-08,株式会社ＥＣＬＡＴ　ＦＩＥＲＴＥ,,株式会社,大阪府,堺市北区,百舌鳥梅北町５丁４４９－１－１Ｆ,,27,146,5918031,,,,,,,2023-06-08,1,,,,,エクラフィエルテ,0
1728,6120101067706,新規,0,2023-06-08,2023-06-08,ソセイ株式会社,,株式会社,大阪府,松原市,田井城５丁目２番８号,,27,217,5800044,,,,,,,2023-06-08,1,,,,,ソセイ,0
1738,6130001074470,新規,0,2023-06-08,2023-06-08,株式会社Ｄｅ　Ｈｉｓｔｏｒｉａ,,株式会社,京都府,京都市東山区,一橋宮ノ内町１５番地２３,,26,105,6050994,,,,,,,2023-06-08,1,,,,,デヒストリア,0
1739,6130001074495,新規,0,2023-06-08,2023-06-08,株式会社ホウデン,,株式会社,京都府,京都市右京区,西京極東衣手町１９,,26,108,6150871,,,,,,,2023-06-08,1,,,,,ホウデン,0
1740,6130001074504,新規,0,2023-06-08,2023-06-08,株式会社イベ専,,株式会社,京都府,京都市北区,鷹峯黒門町２７番地の９６,,26,101,6038464,,,,,,,2023-06-08,1,,,,,イベセン,0
1744,6140001130405,新規,0,2023-06-08,2023-06-08,株式会社トラストソリューション,,株式会社,兵庫県,神戸市北区,小倉台５丁目２番地の４２,,28,109,6511211,,,,,,,2023-06-08,1,,,,,トラストソリューション,0
1745,6140001130446,新規,0,2023-06-08,2023-06-08,株式会社ワコ,,株式会社,兵庫県,尼崎市,塚口町３丁目４１番地の１８,00130774,28,202,6610002,,,,,,,2023-06-08,1,,,,,ワコ,0
1747,6140003019159,新規,0,2023-06-08,2023-06-08,合同会社ＳＨＩＫＩ,,合同会社,兵庫県,姫路市,青山西５丁目９番１２号,,28,201,6712224,,,,,,,2023-06-08,1,,,,,シキ,0
1767,6180001156553,新規,0,2023-06-08,2023-06-08,株式会社Ｆ,,株式会社,愛知県,東海市,名和町北脇３０番地華小路（２０２号）,,23,222,4760002,,,,,,,2023-06-08,1,,,,,エフ,0
1768,6180001156561,新規,0,2023-06-08,2023-06-08,株式会社ＮＳＤ設備,,株式会社,愛知県,名古屋市北区,東味鋺２丁目４０８番地の１,,23,103,4620013,,,,,,,2023-06-08,1,,,,,エヌエスディセツビ,0
1769,6180001156628,新規,0,2023-06-08,2023-06-08,株式会社ココレラボ,,株式会社,愛知県,名古屋市中村区,横前町１００番地,,23,105,4530864,,,,,,,2023-06-08,1,,,,,ココレラボ,0
1770,6180001156636,新規,0,2023-06-08,2023-06-08,株式会社フィルコンセプト,,株式会社,愛知県,江南市,小折町八反畑１９７番地４,,23,217,4838131,,,,,,,2023-06-08,1,,,,,フィルコンセプト,0
1771,6180001156644,新規,0,2023-06-08,2023-06-08,株式会社博智工業,,株式会社,愛知県,愛知郡東郷町,兵庫１丁目１４番地４,,23,302,4700166,,,,,,,2023-06-08,1,,,,,ヒロトモコウギョウ,0
1772,6180001156652,新規,0,2023-06-08,2023-06-08,田中内装株式会社,,株式会社,愛知県,津島市,青塚町６丁目７番地,,23,208,4960001,,,,,,,2023-06-08,1,,,,,タナカナイソウ,0
1774,6180003025319,新規,0,2023-06-08,2023-06-08,合同会社ＧＯ　ＴＯ　ＷＥＬＬ,,合同会社,愛知県,名古屋市東区,白壁３丁目１番３０号プレミアマルシェ白壁９０１号,,23,102,4610011,,,,,,,2023-06-08,1,,,,,ゴートゥーウェル,0
1776,6180005020243,新規,0,2023-06-08,2023-06-08,一般社団法人地域まちもり,,その他の設立登記法人,愛知県,名古屋市中村区,名駅南２丁目３番３７号,,23,105,4500003,,,,,,,2023-06-08,1,,,,,チイキマチモリ,0
1779,6180301037461,新規,0,2023-06-08,2023-06-08,株式会社アッセンブリープラス,,株式会社,愛知県,高浜市,田戸町７丁目２番地３９,,23,227,4441323,,,,,,,2023-06-08,1,,,,,アッセンブリープラス,0
1782,6190003004346,新規,0,2023-06-08,2023-06-08,合同会社Ｋ　ＡＮＤ　Ｋラボ,,合同会社,三重県,三重郡菰野町,大字神森７８７番地１７,,24,341,5101231,,,,,,,2023-06-08,1,,,,,ケーアンドケーラボ,0
1795,6240001061648,新規,0,2023-06-08,2023-06-08,國信組株式会社,,株式会社,広島県,三原市,須波ハイツ３丁目１８番２１号,,34,204,7230035,,,,,,,2023-06-08,1,,,,,クニノブグミ,0
1798,6240005015591,新規,0,2023-06-08,2023-06-08,一般社団法人ＤＥＮＣＹ,,その他の設立登記法人,広島県,広島市南区,宇品神田３丁目７番２号,,34,103,7340004,,,,,,,2023-06-08,1,,,,,デンシー,0
1799,6250001020124,新規,0,2023-06-08,2023-06-08,吉村林業株式会社,,株式会社,山口県,美祢市,西厚保町原１２５４番地,,35,213,7592152,,,,,,,2023-06-08,1,,,,,ヨシムラリンギョウ,0
1802,6260001038025,新規,0,2023-06-08,2023-06-08,株式会社グランパークせとうち農園,,株式会社,岡山県,岡山市北区,大内田８２０番地７,,33,101,7010165,,,,,,,2023-06-08,1,,,,,グランパークセトウチノウエン,0
1806,6270003001533,新規,0,2023-06-08,2023-06-08,合同会社ＴＵＧＩＨＡＧＩ,,合同会社,鳥取県,鳥取市,吉岡温泉町２３２番地,,31,201,6801442,,,,,,,2023-06-08,1,,,,,ツギハギ,0
1807,6280001008959,新規,0,2023-06-08,2023-06-08,株式会社Ｔ＆Ｃエンタープライズ,,株式会社,島根県,雲南市,木次町新市３９番地,,32,209,6991334,,,,,,,2023-06-08,1,,,,,ティーアンドシーエンタープライズ,0
1815,6320001019794,新規,0,2023-06-08,2023-06-08,株式会社クチュールアシュテ,,株式会社,大分県,大分市,緑が丘５丁目４番６号,,44,201,8701172,,,,,,,2023-06-08,1,,,,,クチュールアシュテ,0
1817,6320001019828,新規,0,2023-06-08,2023-06-08,株式会社ＫＢ,,株式会社,大分県,大分市,南津留９番２０号,,44,201,8700937,,,,,,,2023-06-08,1,,,,,,0
1822,6350001018380,新規,0,2023-06-08,2023-06-08,株式会社やいま,,株式会社,宮崎県,都城市,久保原町９街区３の２６号Ｔ－ＹＡＩＭＡ　Ａ－１０１,,45,202,8850086,,,,,,,2023-06-08,1,,,,,ヤイマ,0
1826,6360001032083,新規,0,2023-06-08,2023-06-08,株式会社Ｅ．ｂｏｕｎｃｅ,,株式会社,沖縄県,那覇市,首里石嶺町２丁目２３２番地１,,47,201,9030804,,,,,,,2023-06-08,1,,,,,イーバウンス,0
1828,6360003013049,新規,0,2023-06-08,2023-06-08,ブルーバードコンサルティング合同会社,,合同会社,沖縄県,沖縄市,泡瀬３丁目４４番２６号－２０５号,,47,211,9042172,,,,,,,2023-06-08,1,,,,,ブルーバードコンサルティング,0
1830,6370003006167,新規,0,2023-06-08,2023-06-08,ｐｒｅｓｅｎｔ合同会社,,合同会社,宮城県,岩沼市,あさひ野１丁目４番地の５,,04,211,9892478,,,,,,,2023-06-08,1,,,,,プレゼント,0
1831,6370005010638,新規,0,2023-06-08,2023-06-08,医療法人Ｔｒｉ‐ＮＥＸＴ,,その他の設立登記法人,宮城県,仙台市青葉区,中央１丁目２番３号,,04,101,9800021,,,,,,,2023-06-08,1,,,,,トライネクスト,0
1835,6380003005481,新規,0,2023-06-08,2023-06-08,合同会社ｋｎｏｔ,,合同会社,福島県,双葉郡富岡町,大字上手岡字下千里７０,,07,543,9791141,,,,,,,2023-06-08,1,,,,,ノット,0
1844,6430001089307,新規,0,2023-06-08,2023-06-08,株式会社ＲＥＤ,,株式会社,北海道,札幌市白石区,中央二条６丁目１－３８ＳＯＣ白石ビル１Ｆ,,01,104,0030012,,,,,,,2023-06-08,1,,,,,レッド,0
1853,6490001010506,新規,0,2023-06-08,2023-06-08,株式会社Ｑｕａｔｔｒｏ,,株式会社,高知県,宿毛市,南沖須賀二丁目６番１号,,39,208,7880002,,,,,,,2023-06-08,1,,,,,クアトロ,0
1870,7010001235901,新規,0,2023-06-08,2023-06-08,株式会社スタートアップラボ,,株式会社,東京都,中央区,銀座７丁目１３番６号サガミビル２階,,13,102,1040061,,,,,,,2023-06-08,1,,,,,スタートアップラボ,0
1871,7010001235918,新規,0,2023-06-08,2023-06-08,株式会社プント,,株式会社,東京都,千代田区,五番町２番地１４カーサ五番町２０２号,,13,101,1020076,,,,,,,2023-06-08,1,,,,,プント,0
1872,7010001235934,新規,0,2023-06-08,2023-06-08,愛実不動産株式会社,,株式会社,東京都,中央区,築地２丁目１５番１５－１００５号,,13,102,1040045,,,,,,,2023-06-08,1,,,,,アイミフドウサン,0
1877,7010003040779,新規,0,2023-06-08,2023-06-08,ケンズ・チョイス・ジャパン合同会社,,合同会社,東京都,中央区,八丁堀３丁目１１番１２号,,13,102,1040032,,,,,,,2023-06-08,1,,,,,ケンズチョイスジャパン,0
1878,7010003040804,新規,0,2023-06-08,2023-06-08,合同会社ＳＫＹＲＯＣＫＥＴ,,合同会社,東京都,中央区,銀座１丁目１２－４Ｎ＆ＥＢＬＤ．７階,,13,102,1040061,,,,,,,2023-06-08,1,,,,,スカイロケット,0
1889,7010401174864,新規,0,2023-06-08,2023-06-08,株式会社Ｍｕｌｔｉｐｌｅ　Ｔｏｋｙｏ,,株式会社,東京都,港区,西麻布４丁目１３番２３－３０２号,,13,103,1060031,,,,,,,2023-06-08,1,,,,,マルチプルトウキョウ,0
1890,7010401174872,新規,0,2023-06-08,2023-06-08,株式会社Ｌｕｓｔｅｒ,,株式会社,東京都,港区,南青山５丁目１８番４号地下１階,,13,103,1070062,,,,,,,2023-06-08,1,,,,,ラスター,0
1891,7010405022202,新規,0,2023-06-08,2023-06-08,西松プライベートリート投資法人,,その他の設立登記法人,東京都,港区,虎ノ門１丁目１６番１７号,,13,103,1050001,,,,,,,2023-06-08,1,,,,,ニシマツプライベートリート,0
1897,7010501050552,新規,0,2023-06-08,2023-06-08,アイボットインベストインティ株式会社,,株式会社,東京都,台東区,西浅草３丁目９番２－３０２号,,13,106,1110035,,,,,,,2023-06-08,1,,,,,アイボットインベストインティ,0
1902,7010701044354,新規,0,2023-06-08,2023-06-08,株式会社エース,,株式会社,東京都,品川区,南品川４丁目１５番３号５０１,,13,109,1400004,,,,,,,2023-06-08,1,,,,,エース,0
1903,7010701044379,新規,0,2023-06-08,2023-06-08,株式会社ホンキジク,,株式会社,東京都,品川区,大崎２丁目５番６号ザ・パークハウス大崎２０９,,13,109,1410032,,,,,,,2023-06-08,1,,,,,ホンキジク,0
1904,7010703006732,新規,0,2023-06-08,2023-06-08,合同会社Ａｖａｌｏｎ,,合同会社,東京都,品川区,平塚１丁目７番３号ファインクレスト戸越４０３,,13,109,1420051,,,,,,,2023-06-08,1,,,,,アヴァロン,0
1908,7010901053205,新規,0,2023-06-08,2023-06-08,株式会社博越,,株式会社,東京都,世田谷区,北烏山１丁目３１番２２号,,13,112,1570061,,,,,,,2023-06-08,1,,,,,ヒロコシ,0
1911,7011001154959,新規,0,2023-06-08,2023-06-08,株式会社プロンプトマーケット,,株式会社,東京都,渋谷区,神宮前６丁目２３番４号桑野ビル２階,,13,113,1500001,,,,,,,2023-06-08,1,,,,,プロンプトマーケット,0
1912,7011003016926,新規,0,2023-06-08,2023-06-08,合同会社ＢｅｌｌとＬｏｖｅ,,合同会社,東京都,渋谷区,桜丘町２３番１７号シティーコート桜丘,,13,113,1500031,,,,,,,2023-06-08,1,,,,,,0
1913,7011003016967,新規,0,2023-06-08,2023-06-08,合同会社ワイ・エム・シー,,合同会社,東京都,渋谷区,桜丘町２３番１７号シティコート桜丘４０８,,13,113,1500031,,,,,,,2023-06-08,1,,,,,ワイエムシー,0
1921,7011103013121,新規,0,2023-06-08,2023-06-08,合同会社佐野,,合同会社,東京都,新宿区,四谷坂町１２－１４－１１０３,,13,104,1600002,,,,,,,2023-06-08,1,,,,,サノ,0
1923,7011105010678,新規,0,2023-06-08,2023-06-08,ＭＸ一般社団法人,,その他の設立登記法人,東京都,新宿区,四谷２丁目９番地１５東京ユナイテッド綜合事務所内,,13,104,1600004,,,,,,,2023-06-08,1,,,,,エムエックス,0
1927,7011301028763,新規,0,2023-06-08,2023-06-08,株式会社ＫＡＯＲＵ,,株式会社,東京都,杉並区,高円寺北１丁目２１番５号高円寺ＬＯＯＰ７－２Ｆ－０４,,13,115,1660002,,,,,,,2023-06-08,1,,,,,カオル,0
1928,7011303004779,新規,0,2023-06-08,2023-06-08,合同会社ＭｉｔｚｕＬａｂ,,合同会社,東京都,杉並区,成田東１丁目４９－７ハイネス阿佐ヶ谷６０６号室,,13,115,1660015,,,,,,,2023-06-08,1,,,,,ミッツラボ,0
1929,7011303004787,新規,0,2023-06-08,2023-06-08,兒玉勝之合同会社,,合同会社,東京都,杉並区,和田３丁目６番２号ＥＭＳＩＩ２０３,00130771,13,115,1660012,,,,,,,2023-06-08,1,,,,,コダマカツユキ,0
1931,7011501029371,新規,0,2023-06-08,2023-06-08,ＬＨ株式会社,,株式会社,東京都,荒川区,町屋３丁目２４番２号面川ビル二階２１９号室,,13,118,1160001,,,,,,,2023-06-08,1,,,,,エルエッチ,0
1934,7011503005635,新規,0,2023-06-08,2023-06-08,Ｉｍａｇｉｎａｔｉｏｎ合同会社,,合同会社,東京都,北区,浮間１丁目１番１４号リムジンビル１０７,,13,117,1150051,,,,,,,2023-06-08,1,,,,,イマジネーション,0
1944,7012401040617,新規,0,2023-06-08,2023-06-08,ＭＯＴＯＲＢＩＫＩＮＧ株式会社,,株式会社,東京都,狛江市,東野川２丁目２２番７－４０３号,,13,219,2010002,,,,,,,2023-06-08,1,,,,,モトバイキング,0
1945,7012801022421,新規,0,2023-06-08,2023-06-08,株式会社ＡＣＥＳ,,株式会社,東京都,昭島市,緑町３丁目１番１号,,13,207,1960004,,,,,,,2023-06-08,1,,,,,エイシーズ,0
1950,7013301050854,新規,0,2023-06-08,2023-06-08,株式会社フードゲート,,株式会社,東京都,豊島区,南池袋２丁目２４番７号ＭＫビル３階,,13,116,1710022,,,,,,,2023-06-08,1,,,,,フードゲート,0
1951,7013301050862,新規,0,2023-06-08,2023-06-08,合豊株式会社,,株式会社,東京都,豊島区,雑司が谷３丁目８－２コモンシティ目白６０１号室,,13,116,1710032,,,,,,,2023-06-08,1,,,,,ゴウホウ,0
1952,7013301050870,新規,0,2023-06-08,2023-06-08,株式会社ＷＥＬＬＶＹ,,株式会社,東京都,豊島区,目白５丁目１４番１号,,13,116,1710031,,,,,,,2023-06-08,1,,,,,ウェルビー,0
1953,7013301050879,新規,0,2023-06-08,2023-06-08,ｈｓｈ株式会社,,株式会社,東京都,豊島区,東池袋３丁目１５番１４号クレール東池袋２０６号,,13,116,1700013,,,,,,,2023-06-08,1,,,,,エイチエスエイチ,0
1957,7020001151940,新規,0,2023-06-08,2023-06-08,株式会社バリュー・ファインダー,,株式会社,神奈川県,横浜市西区,北幸１丁目１１番１号水信ビル７階,,14,103,2200004,,,,,,,2023-06-08,1,,,,,バリューファインダー,0
1958,7021001079255,新規,0,2023-06-08,2023-06-08,株式会社ＤＥＢＵ,,株式会社,神奈川県,小田原市,栄町１丁目４番２号第１２松本ビル５階,,14,206,2500011,,,,,,,2023-06-08,1,,,,,デブ,0
1959,7021001079271,新規,0,2023-06-08,2023-06-08,コミュナルテクノロジーサービス株式会社,,株式会社,神奈川県,相模原市緑区,西橋本５丁目４番２１号,,14,151,2520131,,,,,,,2023-06-08,1,,,,,コミュナルテクノロジーサービス,0
1961,7021003013170,新規,0,2023-06-08,2023-06-08,合同会社ＢｏｏＢｏｏ,,合同会社,神奈川県,茅ヶ崎市,室田１丁目１５番４５号２０２,,14,207,2530018,,,,,,,2023-06-08,1,,,,,ブーブー,0
1967,7030001154216,新規,0,2023-06-08,2023-06-08,相馬設備工業株式会社,,株式会社,埼玉県,所沢市,東所沢和田１丁目２７番地の１６,,11,208,3590023,,,,,,,2023-06-08,1,,,,,ソウマセツビコウギョウ,0
1968,7030001154240,新規,0,2023-06-08,2023-06-08,栄塗装株式会社,,株式会社,埼玉県,さいたま市大宮区,三橋１丁目５９９番地大成第二マンション５０２,,11,103,3300856,,,,,,,2023-06-08,1,,,,,サカエトソウ,0
1969,7030001154249,新規,0,2023-06-08,2023-06-08,株式会社Ｃｈｉｅｚ,,株式会社,埼玉県,加須市,根古屋４７８番地３,,11,210,3470104,,,,,,,2023-06-08,1,,,,,チーズ,0
1970,7030001154257,新規,0,2023-06-08,2023-06-08,株式会社スタートチャレンジ,,株式会社,埼玉県,所沢市,緑町４丁目４６－１１,,11,208,3591111,,,,,,,2023-06-08,1,,,,,スタートチャレンジ,0
1972,7030003021835,新規,0,2023-06-08,2023-06-08,合同会社ポラリス,,合同会社,埼玉県,川越市,南大塚２丁目１７番地２５ゴールドクレスト４０６,,11,201,3501162,,,,,,,2023-06-08,1,,,,,ポラリス,0
1974,7030005021288,新規,0,2023-06-08,2023-06-08,一般社団法人電気災害防止協会,,その他の設立登記法人,埼玉県,八潮市,大字浮塚４３０番地１,,11,234,3400835,,,,,,,2023-06-08,1,,,,,デンキサイガイボウシキョウカイ,0
1979,7040001128730,新規,0,2023-06-08,2023-06-08,株式会社翔志,,株式会社,千葉県,船橋市,本郷町７１９番地５,,12,204,2730033,,,,,,,2023-06-08,1,,,,,ショウシ,0
1980,7040001128739,新規,0,2023-06-08,2023-06-08,株式会社永井建装,,株式会社,千葉県,市原市,加茂２丁目２番地１０ノーブルヴィラＣ棟,,12,219,2900025,,,,,,,2023-06-08,1,,,,,ナガイケンソウ,0
1982,7040003022741,新規,0,2023-06-08,2023-06-08,合同会社Ｓ．Ｋ,,合同会社,千葉県,市川市,妙典２丁目１６番１１－１０７号（ジュピテール）,,12,203,2720111,,,,,,,2023-06-08,1,,,,,エスケー,0
1983,7050001052938,新規,0,2023-06-08,2023-06-08,株式会社篠塚保温,00130775,株式会社,茨城県,古河市,尾崎３９７３番地,,08,204,3060101,,,,,,,2023-06-08,1,,,,,シノヅカホオン,0
1984,7050001052946,新規,0,2023-06-08,2023-06-08,四葉株式会社,,株式会社,茨城県,つくば市,研究学園５丁目３０番地１４,,08,220,3050817,,,,,,,2023-06-08,1,,,,,ヨツバ,0
1985,7050001052954,新規,0,2023-06-08,2023-06-08,株式会社ＬＩＦＥ　ＡＲＴ,,株式会社,茨城県,稲敷郡阿見町,大字阿見４７５２番地１８,,08,443,3000331,,,,,,,2023-06-08,1,,,,,ライフアート,0
1986,7050001052962,新規,0,2023-06-08,2023-06-08,株式会社土田電気,,株式会社,茨城県,日立市,小木津町４丁目５番１９号,,08,202,3191413,,,,,,,2023-06-08,1,,,,,ツチダデンキ,0
1987,7060001036048,新規,0,2023-06-08,2023-06-08,株式会社セリエメンテナンス,,株式会社,栃木県,宇都宮市,下荒針町３７８７番地,,09,201,3210346,,,,,,,2023-06-08,1,,,,,セリエメンテナンス,0
1990,7060003004589,新規,0,2023-06-08,2023-06-08,エイエンタープライズ合同会社,,合同会社,栃木県,栃木市,都賀町平川１０８番地３,,09,203,3280112,,,,,,,2023-06-08,1,,,,,エイエンタープライズ,0
1995,7070001040528,新規,0,2023-06-08,2023-06-08,株式会社ＭａｕＬｏａ　Ｌｉｆｅ,,株式会社,群馬県,桐生市,広沢町１丁目２７７８番地の１,,10,203,3760013,,,,,,,2023-06-08,1,,,,,マウロアライフ,0
1997,7070003004976,新規,0,2023-06-08,2023-06-08,合同会社ＩＣＨＩ,,合同会社,群馬県,館林市,富士見町１４－２５,,10,207,3740027,,,,,,,2023-06-08,1,,,,,,0
2001,7080101024066,新規,0,2023-06-08,2023-06-08,株式会社クリエイトワーク,,株式会社,静岡県,沼津市,東椎路３６３番地の１,,22,203,4100302,,,,,,,2023-06-08,1,,,,,クリエイトワーク,0
2004,7100001036480,新規,0,2023-06-08,2023-06-08,株式会社リアルエステート,,株式会社,長野県,塩尻市,大字広丘堅石１１９０番地２,,20,215,3990705,,,,,,,2023-06-08,1,,,,,リアルエステート,0
2008,7100003007050,新規,0,2023-06-08,2023-06-08,合同会社ｉｚｍ,,合同会社,長野県,松本市,本庄１丁目７番１２号,,20,202,3900814,,,,,,,2023-06-08,1,,,,,イズム,0
2016,7120001255384,新規,0,2023-06-08,2023-06-08,オレンジ株式会社,,株式会社,大阪府,大阪市北区,西天満３丁目１１－１５Ｓ－ＲＥＳＩＤＥＮＣＥ西天満グランジュール１５０５室,,27,127,5300047,,,,,,,2023-06-08,1,,,,,オレンジ,0
2017,7120001255450,新規,0,2023-06-08,2023-06-08,株式会社オフィスエンニチ,,株式会社,大阪府,大阪市住之江区,南港北２丁目１番１０号１０階,,27,125,5590034,,,,,,,2023-06-08,1,,,,,オフィスエンニチ,0
2018,7120001255467,新規,0,2023-06-08,2023-06-08,株式会社エイチ・アール・エム,,株式会社,大阪府,寝屋川市,春日町２１番１５号,,27,215,5720063,,,,,,,2023-06-08,1,,,,,エイチアールエム,0
2019,7120001255483,新規,0,2023-06-08,2023-06-08,Ｂｅａｕｔｉｆｕｌ　Ｂｒｏｗ株式会社,,株式会社,大阪府,大阪市西区,京町堀１丁目１６番８号ＲＥ－０２１ビル５０２,,27,106,5500003,,,,,,,2023-06-08,1,,,,,ビューティフルブロー,0
2020,7120001255491,新規,0,2023-06-08,2023-06-08,株式会社宏和組,,株式会社,大阪府,門真市,東江端町１２番２５－８０２号,,27,223,5710008,,,,,,,2023-06-08,1,,,,,コウワグミ,0
2021,7120001255500,新規,0,2023-06-08,2023-06-08,株式会社ＳＧ,,株式会社,大阪府,枚方市,宮之阪４丁目３１番１６号,,27,210,5730022,,,,,,,2023-06-08,1,,,,,エスジー,0
2025,7120005023671,新規,0,2023-06-08,2023-06-08,一般社団法人Ｄ．Ｂ．Ｌ．Ｓｔｙｌｅ協会,,その他の設立登記法人,大阪府,大阪市住之江区,住之江２丁目５番７号,,27,125,5590004,,,,,,,2023-06-08,1,,,,,ディービーエルスタイルキョウカイ,0
2030,7120101067696,新規,0,2023-06-08,2023-06-08,株式会社飛翔,,株式会社,大阪府,和泉市,鍛治屋町４７番地の１０,,27,219,5941117,,,,,,,2023-06-08,1,,,,,ヒショウ,0
2032,7120103005258,新規,0,2023-06-08,2023-06-08,桜三合同会社,,合同会社,大阪府,岸和田市,岡山町２３８番地の３０,,27,202,5960814,,,,,,,2023-06-08,1,,,,,オウミ,0
2034,7120901047617,新規,0,2023-06-08,2023-06-08,株式会社松田製作所,,株式会社,大阪府,豊中市,服部寿町５丁目４９番地,,27,203,5610857,,,,,,,2023-06-08,1,,,,,マツダセイサクショ,0
2035,7120903004665,新規,0,2023-06-08,2023-06-08,合同会社ニトルス,,合同会社,大阪府,高槻市,天神町１丁目８番２号,,27,207,5691117,,,,,,,2023-06-08,1,,,,,ニトルス,0
2037,7130001074478,新規,0,2023-06-08,2023-06-08,株式会社ｔａｎｅ,,株式会社,京都府,京都市上京区,油小路中立売西入ル甲斐守町９７西陣産業創造會館２階,,26,102,6020000,,,,,,,2023-06-08,1,,,,,タネ,0
2042,7140001130362,新規,0,2023-06-08,2023-06-08,株式会社大谷工作室,,株式会社,兵庫県,南あわじ市,津井１３２４番地２,,28,224,6560341,,,,,,,2023-06-08,1,,,,,オオタニコウサクシツ,0
2043,7140001130370,新規,0,2023-06-08,2023-06-08,株式会社フレアデザイン,,株式会社,兵庫県,淡路市,多賀９９４番地１,,28,226,6561521,,,,,,,2023-06-08,1,,,,,フレアデザイン,0
2044,7140001130404,新規,0,2023-06-08,2023-06-08,株式会社ＢＳＣ企画,,株式会社,兵庫県,神戸市東灘区,魚崎南町５丁目２－１２－１０５,,28,101,6580025,,,,,,,2023-06-08,1,,,,,ビーエスシーキカク,0
2046,7140003019166,新規,0,2023-06-08,2023-06-08,合同会社Ｌａ　ｐｏｒｔ’ｅ,,合同会社,兵庫県,神戸市長田区,片山町２丁目６番１４号,,28,106,6530805,,,,,,,2023-06-08,1,,,,,ラポルテ,0
2047,7140003019182,新規,0,2023-06-08,2023-06-08,合同会社もんでん,,合同会社,兵庫県,神戸市中央区,磯辺通１丁目１番１８号カサベラ国際プラザビル７０７号室,,28,110,6510084,,,,,,,2023-06-08,1,,,,,モンデン,0
2049,7150001026469,新規,0,2023-06-08,2023-06-08,なかやまノブヒロ株式会社,,株式会社,奈良県,香芝市,すみれ野１丁目１８－１６,,29,210,6390237,,,,,,,2023-06-08,1,,,,,ナカヤマノブヒロ,0
2053,7180001156560,新規,0,2023-06-08,2023-06-08,株式会社Ｓｐｅｚｉｅ,,株式会社,愛知県,丹羽郡大口町,替地１丁目３４６番地,,23,361,4800133,,,,,,,2023-06-08,1,,,,,スペッツェ,0
2054,7180001156619,新規,0,2023-06-08,2023-06-08,株式会社オンワードプラス,,株式会社,愛知県,知多郡武豊町,字塩田２２２番地５,,23,447,4702322,,,,,,,2023-06-08,1,,,,,オンワードプラス,0
2055,7180001156643,新規,0,2023-06-08,2023-06-08,株式会社松井建総,,株式会社,愛知県,犬山市,桃山台２丁目８８番地,,23,215,4840839,,,,,,,2023-06-08,1,,,,,マツイケンソウ,0
2056,7180001156668,新規,0,2023-06-08,2023-06-08,株式会社ＡＣサポート,,株式会社,愛知県,名古屋市守山区,廿軒家１５番２２号エレストビル３Ｆ,,23,113,4630065,,,,,,,2023-06-08,1,,,,,エーシーサポート,0
2059,7180003025342,新規,0,2023-06-08,2023-06-08,合同会社わくわく,,合同会社,愛知県,名古屋市北区,清水２丁目２２番７号,,23,103,4620844,,,,,,,2023-06-08,1,,,,,ワクワク,0
2067,7190001030475,新規,0,2023-06-08,2023-06-08,株式会社ＲＩＣＯ　ＴＥＣ,,株式会社,三重県,松阪市,丹生寺町１２７番地２,,24,204,5150832,,,,,,,2023-06-08,1,,,,,リコテック,0
2068,7190001030483,新規,0,2023-06-08,2023-06-08,Ｋ＆Ｋ株式会社,,株式会社,三重県,四日市市,別山３丁目１０６,,24,202,5120936,,,,,,,2023-06-08,1,,,,,ケーアンドケー,0
2088,7250001020131,新規,0,2023-06-08,2023-06-08,株式会社ＡＺ　ＣＡＲＧＯ,,株式会社,山口県,宇部市,大字西岐波１２６９番地１,,35,202,7550151,,,,,,,2023-06-08,1,,,,,エーゼットカーゴ,0
2091,7290001101803,新規,0,2023-06-08,2023-06-08,株式会社Ａ．Ｔ,,株式会社,福岡県,福岡市博多区,中洲５丁目６番１０号ＬＡ博多１階Ａ,,40,132,8100801,,,,,,,2023-06-08,1,,,,,エードットティー,0
2092,7290001101844,新規,0,2023-06-08,2023-06-08,株式会社徳丸屋,,株式会社,福岡県,大野城市,雑餉隈町５丁目３－１４平岡コーポ１０２,,40,219,8160923,,,,,,,2023-06-08,1,,,,,トクマルヤ,0
2093,7290001101877,新規,0,2023-06-08,2023-06-08,株式会社江南商事,,株式会社,福岡県,福岡市東区,香椎照葉３丁目１番１３－１６１７号,,40,131,8130017,,,,,,,2023-06-08,1,,,,,コウナンショウジ,0
2101,7300001013328,新規,0,2023-06-08,2023-06-08,株式会社広栄,,株式会社,佐賀県,唐津市,和多田本村７番２７号,,41,202,8470085,,,,,,,2023-06-08,1,,,,,コウエイ,0
2104,7310003004588,新規,0,2023-06-08,2023-06-08,中道合同会社,,合同会社,長崎県,大村市,三城町６３３－１エスポワールＢ棟１０２号,,42,205,8560031,,,,,,,2023-06-08,1,,,,,ナカミチ,0
2106,7320001019827,新規,0,2023-06-08,2023-06-08,株式会社ＣＨＡＩＮ,,株式会社,大分県,日田市,大字渡里４１－１１,,44,204,8770000,,,,,,,2023-06-08,1,,,,,チェイン,0
2110,7330003009866,新規,0,2023-06-08,2023-06-08,合同会社真成工業,,合同会社,熊本県,八代市,高下東町１７５番地（Ｉ１０１）,00130772,43,202,8660071,,,,,,,2023-06-08,1,,,,,シンセイコウギョウ,0
2111,7330003009874,新規,0,2023-06-08,2023-06-08,合同会社まるけい,,合同会社,熊本県,菊池郡大津町,大字平川１４８番地,,43,403,8691231,,,,,,,2023-06-08,1,,,,,マルケイ,0
2119,7360001032132,新規,0,2023-06-08,2023-06-08,株式会社ゆくい,,株式会社,沖縄県,浦添市,港川２丁目２５番１－１００６号ミルコマンション浦添港川ビュー,,47,208,9012134,,,,,,,2023-06-08,1,,,,,ユクイ,0
2120,7360003013048,新規,0,2023-06-08,2023-06-08,合同会社あいあーる,,合同会社,沖縄県,宮古島市,平良字西里６８３番地３,,47,214,9060012,,,,,,,2023-06-08,1,,,,,アイアール,0
2122,7370001050050,新規,0,2023-06-08,2023-06-08,株式会社セガワ,,株式会社,宮城県,石巻市,渡波字新沼７２番地１,,04,202,9862135,,,,,,,2023-06-08,1,,,,,セガワ,0
2123,7370001050067,新規,0,2023-06-08,2023-06-08,株式会社社長のミギウデ,,株式会社,宮城県,仙台市青葉区,木町１６番４３－１０２号,,04,101,9810932,,,,,,,2023-06-08,1,,,,,シャチョウノミギウデ,0
2126,7380001033756,新規,0,2023-06-08,2023-06-08,株式会社りのべる,,株式会社,福島県,福島市,丸子字冨塚１３番地の１,,07,201,9600111,,,,,,,2023-06-08,1,,,,,リノベル,0
2127,7380003005480,新規,0,2023-06-08,2023-06-08,合同会社Ｉｓｏｌａ　Ｆｏｒｔｕｎａ,,合同会社,福島県,南相馬市,小高区井田川字西迫７９番地の３,,07,212,9792144,,,,,,,2023-06-08,1,,,,,イゾラフォルトゥーナ,0
2133,7410005006523,新規,0,2023-06-08,2023-06-08,ＮＰＯ法人出会いの杜プロジェクト,,その他の設立登記法人,秋田県,北秋田市,住吉町４番２３号鷹巣スポーツビル７号室,,05,213,0183322,,,,,,,2023-06-08,1,,,,,デアイノモリプロジェクト,0
2145,7430001089297,新規,0,2023-06-08,2023-06-08,株式会社ＡＴＮＯＳ,,株式会社,北海道,札幌市南区,南沢六条４丁目１６－１０,,01,106,0050826,,,,,,,2023-06-08,1,,,,,アトノス,0
2146,7430001089314,新規,0,2023-06-08,2023-06-08,株式会社Ｎｉｇｈｔ＆ｄａｙ,,株式会社,北海道,札幌市中央区,南四条西１４丁目１番３２号,,01,101,0640804,,,,,,,2023-06-08,1,,,,,ナイトアンドデー,0
2149,7430005014730,新規,0,2023-06-08,2023-06-08,一般社団法人北海道北広島キッチンカー協会,,その他の設立登記法人,北海道,北広島市,大曲緑ヶ丘２丁目１２番地９,,01,234,0611276,,,,,,,2023-06-08,1,,,,,ホッカイドウキタヒロシマキッチンカーキョウカイ,0
2153,7470001019639,新規,0,2023-06-08,2023-06-08,株式会社ダイスアクセスネットワークサービス,,株式会社,香川県,丸亀市,川西町北９６８－２,,37,202,7630091,,,,,,,2023-06-08,1,,,,,ダイスアクセスネットワークサービス,0
2155,7490001010505,新規,0,2023-06-08,2023-06-08,ＲＥＮＴ　Ａ　ＶＥＨＩＣＬＥ株式会社,,株式会社,高知県,香美市,土佐山田町旭町５丁目３番８号,,39,212,7820033,,,,,,,2023-06-08,1,,,,,レンタビークル,0
2171,8010001235891,新規,0,2023-06-08,2023-06-08,株式会社アジューダパートナーズ,,株式会社,東京都,中央区,日本橋２丁目２番３号ＲＩＳＨＥビルＵＣＦ４階,,13,102,1030027,,,,,,,2023-06-08,1,,,,,アジューダパートナーズ,0
2172,8010001235917,新規,0,2023-06-08,2023-06-08,株式会社Ｓｐｏｒｔｓ　Ｖａｌｕｅ　Ｃｒｅａｔｉｏｎ,,株式会社,東京都,中央区,日本橋室町１丁目１１番１２号日本橋水野ビル７階,,13,102,1030022,,,,,,,2023-06-08,1,,,,,スポーツバリュークリエーション,0
2173,8010001235933,新規,0,2023-06-08,2023-06-08,株式会社のほん,,株式会社,東京都,文京区,千石３丁目３２－１０,,13,105,1120011,,,,,,,2023-06-08,1,,,,,ノホン,0
2174,8010001235990,新規,0,2023-06-08,2023-06-08,株式会社ＤＲＥＡＭＤＯＯＲ,,株式会社,東京都,中央区,銀座１丁目２２番１１号銀座大竹ビジデンス２階,,13,102,1040061,,,,,,,2023-06-08,1,,,,,ドリームドアー,0
2175,8010001236023,新規,0,2023-06-08,2023-06-08,ＢｌｕＯｃｅａｎ　Ｓｅｃｕｒｉｔｙ　Ｊａｐａｎ株式会社,,株式会社,東京都,千代田区,霞が関１丁目４番１号日土地ビル４階,,13,101,1000013,,,,,,,2023-06-08,1,,,,,ブルーオーシャンセキュリティジャパン,0
2178,8010003040811,新規,0,2023-06-08,2023-06-08,合同会社昇龍,,合同会社,東京都,中央区,銀座６丁目６番１号銀座風月堂ビル５Ｆ,,13,102,1040061,,,,,,,2023-06-08,1,,,,,ショウリュウ,0
2183,8010005036799,新規,0,2023-06-08,2023-06-08,一般社団法人新札,,その他の設立登記法人,東京都,千代田区,霞が関３丁目２番５号,,13,101,1000013,,,,,,,2023-06-08,1,,,,,シンサツ,0
2184,8010005036808,新規,0,2023-06-08,2023-06-08,一般社団法人ＴＨＹＭＥ,,その他の設立登記法人,東京都,中央区,日本橋３丁目２番１４号,,13,102,1030027,,,,,,,2023-06-08,1,,,,,タイム,0
2185,8010101015681,新規,0,2023-06-08,2023-06-08,株式会社翠陽住設,,株式会社,東京都,八王子市,大谷町４５３番地３,,13,201,1920034,,,,,,,2023-06-08,1,,,,,スイヨウジュウセツ,0
2191,8010401174789,新規,0,2023-06-08,2023-06-08,株式会社Ｊｓ６ｘ,,株式会社,東京都,港区,南麻布２丁目２番２４号,,13,103,1060047,,,,,,,2023-06-08,1,,,,,ジェイシックス,0
2192,8010401174855,新規,0,2023-06-08,2023-06-08,株式会社Ｓｉｎｇｌｅ　Ｇｏｌｆ,,株式会社,東京都,港区,海岸３丁目７番３－５０１号,,13,103,1080022,,,,,,,2023-06-08,1,,,,,シングルゴルフ,0
2193,8010401174888,新規,0,2023-06-08,2023-06-08,ＩＮＴＥＲ　ＤＯＯＲ株式会社,,株式会社,東京都,港区,南青山５丁目４番３０号南青山ＹＳＳビル７階,,13,103,1070062,,,,,,,2023-06-08,1,,,,,インタードアー,0
2195,8010403030247,新規,0,2023-06-08,2023-06-08,ＮＥＸＴ合同会社,,合同会社,東京都,港区,芝５丁目１６－１４三田ノックスビル３Ｆ,,13,103,1080014,,,,,,,2023-06-08,1,,,,,ネクスト,0
2196,8010405022184,新規,0,2023-06-08,2023-06-08,一般社団法人ＭＩＲＯＣＵ,,その他の設立登記法人,東京都,港区,芝３丁目１２番１３－７０４号,,13,103,1050014,,,,,,,2023-06-08,1,,,,,ミロク,0
2200,8010701044361,新規,0,2023-06-08,2023-06-08,ライフネクスト株式会社,,株式会社,東京都,品川区,西五反田１丁目２６番２号五反田サンハイツ９１１,,13,109,1410031,,,,,,,2023-06-08,1,,,,,ライフネクスト,0
2205,8010901053195,新規,0,2023-06-08,2023-06-08,株式会社ガーデンケア,,株式会社,東京都,世田谷区,北烏山７丁目２２番２１号,,13,112,1570061,,,,,,,2023-06-08,1,,,,,ガーデンケア,0
2206,8010903008222,新規,0,2023-06-08,2023-06-08,ＳＡＥＡ合同会社,,合同会社,東京都,世田谷区,下馬５丁目２７番４号,,13,112,1540002,,,,,,,2023-06-08,1,,,,,エスエーイーエー,0
2215,8011001154850,新規,0,2023-06-08,2023-06-08,株式会社アドドットコム,,株式会社,東京都,渋谷区,渋谷２丁目２４番１２号渋谷スクランブルスクエア３９Ｆ,,13,113,1500002,,,,,,,2023-06-08,1,,,,,アドドットコム,0
2216,8011001154875,新規,0,2023-06-08,2023-06-08,株式会社ＳＡＴＯＹＡ,,株式会社,東京都,渋谷区,道玄坂１丁目１０番８号渋谷道玄坂東急ビル２Ｆ－Ｃ,,13,113,1500043,,,,,,,2023-06-08,1,,,,,,0
2217,8011001154900,新規,0,2023-06-08,2023-06-08,ＶｉｃＯｎｅ株式会社,,株式会社,東京都,渋谷区,代々木２丁目１番１号新宿マインズタワー,,13,113,1510053,,,,,,,2023-06-08,1,,,,,ヴィックワン,0
2218,8011001154958,新規,0,2023-06-08,2023-06-08,株式会社ＧＯＯＤＷＩＬＬ,,株式会社,東京都,渋谷区,幡ヶ谷３丁目３９番１２号渋谷ウェストビル１階,,13,113,1510072,,,,,,,2023-06-08,1,,,,,グッドウィル,0
2219,8011001154966,新規,0,2023-06-08,2023-06-08,株式会社ＰｒｏＧｏｏｄ,,株式会社,東京都,渋谷区,道玄坂１丁目１０番８号渋谷道玄坂東急ビル２Ｆ－Ｃ,,13,113,1500043,,,,,,,2023-06-08,1,,,,,プログッド,0
2223,8011005010109,新規,0,2023-06-08,2023-06-08,一般社団法人厚生医療機構,,その他の設立登記法人,東京都,渋谷区,神宮前６丁目２３番１０号,,13,113,1500001,,,,,,,2023-06-08,1,,,,,コウセイイリョウキコウ,0
2235,8011101103170,新規,0,2023-06-08,2023-06-08,株式会社スターリスト,,株式会社,東京都,新宿区,西新宿３丁目３番１３号西新宿水間ビル６階,,13,104,1600023,,,,,,,2023-06-08,1,,,,,スターリスト,0
2236,8011103013129,新規,0,2023-06-08,2023-06-08,合同会社ＤｍａｃｋＪａｐａｎ,,合同会社,東京都,新宿区,北新宿１丁目２８番３号今西ハイツ１０３号,,13,104,1690074,,,,,,,2023-06-08,1,,,,,ディーマックジャパン,0
2245,8011601026887,新規,0,2023-06-08,2023-06-08,株式会社Ｓｅｃｒｅｔａｒｙ,,株式会社,東京都,練馬区,東大泉７丁目４９番１６号,,13,120,1780063,,,,,,,2023-06-08,1,,,,,セクレタリー,0
2249,8011701026300,新規,0,2023-06-08,2023-06-08,株式会社田中エスポワール,,株式会社,東京都,江戸川区,江戸川６丁目４番地２,,13,123,1340013,,,,,,,2023-06-08,1,,,,,タナカエスポワール,0
2256,8011801042511,新規,0,2023-06-08,2023-06-08,株式会社ＭｉＣａｓｅ,,株式会社,東京都,足立区,梅島３丁目３３－６エンブレム西新井２Ｆ,,13,121,1210816,,,,,,,2023-06-08,1,,,,,マイケース,0
2262,8012401040616,新規,0,2023-06-08,2023-06-08,株式会社誉や商店,,株式会社,東京都,府中市,矢崎町１丁目３６番地の３１,,13,206,1830025,,,,,,,2023-06-08,1,,,,,ホマレヤショウテン,0
2278,8020001151931,新規,0,2023-06-08,2023-06-08,株式会社グランドール,,株式会社,神奈川県,横浜市鶴見区,下末吉４丁目９－１７ユナイト鶴見サンドラの杜１０３号,,14,101,2300012,,,,,,,2023-06-08,1,,,,,グランドール,0
2279,8020001151948,新規,0,2023-06-08,2023-06-08,ＭＯＮＯ　ＣＯＬＯＲ株式会社,,株式会社,神奈川県,川崎市中原区,上丸子山王町２丁目１３３２グランデュール山王１０２,,14,133,2110002,,,,,,,2023-06-08,1,,,,,モノカラー,0
2280,8020001151972,新規,0,2023-06-08,2023-06-08,株式会社ＰＬＥＡＳＡＮＴ,,株式会社,神奈川県,横浜市港北区,大曽根３丁目１６番５６－４号,,14,109,2220003,,,,,,,2023-06-08,1,,,,,プレサント,0
2281,8020003024020,新規,0,2023-06-08,2023-06-08,合同会社ハンブル,,合同会社,神奈川県,川崎市麻生区,高石３丁目１２－１３－９,,14,137,2150003,,,,,,,2023-06-08,1,,,,,ハンブル,0
2282,8020005016024,新規,0,2023-06-08,2023-06-08,労働者協同組合ワーカーズコレクティブデポット,,その他の設立登記法人,神奈川県,横浜市港北区,新横浜２丁目８－４オルタナティブ生活館１Ｆ,,14,109,2220033,,,,,,,2023-06-08,1,,,,,ワーカーズコレクティブデポット,0
2293,8021001079238,新規,0,2023-06-08,2023-06-08,Ｒｅワーク株式会社,,株式会社,神奈川県,小田原市,荻窪１１０８－８,,14,206,2500042,,,,,,,2023-06-08,1,,,,,リワーク,0
2294,8021001079262,新規,0,2023-06-08,2023-06-08,株式会社Ｒｅｖｅ,,株式会社,神奈川県,厚木市,中町４丁目４番１５号,,14,212,2430018,,,,,,,2023-06-08,1,,,,,レーヴ,0
2295,8021001079270,新規,0,2023-06-08,2023-06-08,株式会社ＪＬａｚｏ,,株式会社,神奈川県,小田原市,中新田３１８番地の１９,,14,206,2500876,,,,,,,2023-06-08,1,,,,,ジェイラッソ,0
2303,8030001154215,新規,0,2023-06-08,2023-06-08,株式会社デキタ,,株式会社,埼玉県,春日部市,粕壁東２丁目３番３９号紅雲堂ビル２階,,11,214,3440062,,,,,,,2023-06-08,1,,,,,デキタ,0
2304,8030001154248,新規,0,2023-06-08,2023-06-08,株式会社小江戸よろず屋,,株式会社,埼玉県,川越市,宮元町１５番地８,,11,201,3500838,,,,,,,2023-06-08,1,,,,,コエドヨロズヤ,0
2305,8030001154256,新規,0,2023-06-08,2023-06-08,株式会社エンデヴァー,,株式会社,埼玉県,八潮市,伊草１丁目４番地１３,,11,234,3400806,,,,,,,2023-06-08,1,,,,,エンデヴァー,0
2306,8030001154264,新規,0,2023-06-08,2023-06-08,株式会社武甲,,株式会社,埼玉県,さいたま市北区,日進町１丁目１８６番地１,,11,102,3310823,,,,,,,2023-06-08,1,,,,,ブコウ,0
2307,8030001154280,新規,0,2023-06-08,2023-06-08,株式会社Ｔ‐Ａｓｓｉｓｔ,,株式会社,埼玉県,桶川市,北１丁目２－２３エンドウマンション２０１,,11,231,3630011,,,,,,,2023-06-08,1,,,,,ティーアシスト,0
2310,8030003021883,新規,0,2023-06-08,2023-06-08,合同会社Ｖ＆Ｈ,,合同会社,埼玉県,朝霞市,三原２丁目４番３３号ＪＮハイツ１０１Ｂ号,,11,227,3510025,,,,,,,2023-06-08,1,,,,,ブイアンドエイチ,0
2311,8030003021917,新規,0,2023-06-08,2023-06-08,合同会社ＤＥＫＡＩＳＵＫＥ,,合同会社,埼玉県,越谷市,東越谷２丁目１６番地５０,,11,222,3430023,,,,,,,2023-06-08,1,,,,,デカイスケ,0
2318,8040001128663,新規,0,2023-06-08,2023-06-08,株式会社美亜工業,,株式会社,千葉県,千葉市若葉区,千城台北１丁目２番１３号アルカンシエルＡ館１０３号,,12,104,2640005,,,,,,,2023-06-08,1,,,,,ミアコウギョウ,0
2319,8040001128746,新規,0,2023-06-08,2023-06-08,青葉商業株式会社,,株式会社,千葉県,松戸市,秋山４２９番地の３,,12,207,2702223,,,,,,,2023-06-08,1,,,,,アオバショウギョウ,0
2322,8040003022740,新規,0,2023-06-08,2023-06-08,合同会社エアサポート,,合同会社,千葉県,船橋市,飯山満町３丁目１５１９番地１,,12,204,2740822,,,,,,,2023-06-08,1,,,,,エアサポート,0
2326,8050001052929,新規,0,2023-06-08,2023-06-08,株式会社ＥＡＳＴ,,株式会社,茨城県,那珂市,津田２４９８番地４９,,08,226,3110112,,,,,,,2023-06-08,1,,,,,イースト,0
2327,8050001052937,新規,0,2023-06-08,2023-06-08,株式会社翔真,,株式会社,茨城県,稲敷郡美浦村,大字土屋１９７７番地２００,,08,442,3000426,,,,,,,2023-06-08,1,,,,,ショウシン,0
2328,8050001052945,新規,0,2023-06-08,2023-06-08,株式会社Ｙ’ｓ　Ｐｈａｒｍ,,株式会社,茨城県,つくば市,二の宮２丁目２番地２０－１０２号,,08,220,3050051,,,,,,,2023-06-08,1,,,,,ワイズファーマ,0
2329,8050001052961,新規,0,2023-06-08,2023-06-08,株式会社マテリアルマジック,,株式会社,茨城県,つくば市,赤塚５０２番地５７ハーマナイズ２１赤塚２０１号,,08,220,3050062,,,,,,,2023-06-08,1,,,,,マテリアルマジック,0
2331,8050003007559,新規,0,2023-06-08,2023-06-08,ＤＯＧＯＴＯＣＫ合同会社,,合同会社,茨城県,水戸市,石川２丁目４２９９番地の１３,,08,201,3100905,,,,,,,2023-06-08,1,,,,,ドゴトック,0
2332,8050003007567,新規,0,2023-06-08,2023-06-08,合同会社Ｒｅｓｔａｒｔ,,合同会社,茨城県,取手市,井野８９６－６,,08,217,3020011,,,,,,,2023-06-08,1,,,,,リスタート,0
2336,8070001040519,新規,0,2023-06-08,2023-06-08,株式会社初雪堂,,株式会社,群馬県,前橋市,富士見町赤城山１７１１番地２,,10,201,3710101,,,,,,,2023-06-08,1,,,,,ハツユキドウ,0
2337,8070001040527,新規,0,2023-06-08,2023-06-08,Ｊフラッグホールディングス株式会社,,株式会社,群馬県,太田市,緑町８１－３,,10,205,3730073,,,,,,,2023-06-08,1,,,,,ジェイフラッグホールディングス,0
2342,8080003002994,新規,0,2023-06-08,2023-06-08,合同会社小川リメイク,,合同会社,静岡県,静岡市駿河区,豊田２丁目５番２５号,,22,102,4228027,,,,,,,2023-06-08,1,,,,,オガワリメイク,0
2347,8080101024065,新規,0,2023-06-08,2023-06-08,株式会社ディテラート,,株式会社,静岡県,富士市,大淵３４５９番地の１,,22,210,4170801,,,,,,,2023-06-08,1,,,,,ディテラート,0
2362,8120001255409,新規,0,2023-06-08,2023-06-08,日本サイバーセキュリティ株式会社,,株式会社,大阪府,大阪市中央区,難波５丁目１番６０号なんばスカイオ２７階,,27,128,5420076,,,,,,,2023-06-08,1,,,,,ニホンサイバーセキュリティ,0
2363,8120001255425,新規,0,2023-06-08,2023-06-08,エクセレント国際株式会社,,株式会社,大阪府,大阪市中央区,谷町６丁目６番７号第五松屋ビル１０６７号室,,27,128,5420012,,,,,,,2023-06-08,1,,,,,エクセレントコクサイ,0
2364,8120001255458,新規,0,2023-06-08,2023-06-08,株式会社ユウキ住宅販売,,株式会社,大阪府,大阪市淀川区,西宮原３丁目３番３号,,27,123,5320004,,,,,,,2023-06-08,1,,,,,ユウキジュウタクハンバイ,0
2365,8120001255482,新規,0,2023-06-08,2023-06-08,恒勝商事株式会社,,株式会社,大阪府,大阪市平野区,加美北１丁目１８番９号,,27,126,5470001,,,,,,,2023-06-08,1,,,,,コウショウショウジ,0
2366,8120001255540,新規,0,2023-06-08,2023-06-08,ネゴシエーターズ株式会社,,株式会社,大阪府,枚方市,西禁野１丁目１－２５－３０２,,27,210,5731192,,,,,,,2023-06-08,1,,,,,ネゴシエーターズ,0
2368,8120003024200,新規,0,2023-06-08,2023-06-08,ＭＯＭＯ合同会社,,合同会社,大阪府,枚方市,田口２丁目１０番２号,,27,210,5731162,,,,,,,2023-06-08,1,,,,,モモ,0
2369,8120003024209,新規,0,2023-06-08,2023-06-08,ＵＮＩＣＯＲＮＣＲＯＳＳ　ＮＥＴＷＯＲＫ合同会社,,合同会社,大阪府,大阪市住吉区,長居東４丁目１５番２０－４０３号,,27,120,5580004,,,,,,,2023-06-08,1,,,,,ユニコーンクロスネットワーク,0
2370,8120003024241,新規,0,2023-06-08,2023-06-08,合同会社ＪＡＭ,,合同会社,大阪府,交野市,東倉治１丁目７番２－３０５号,,27,230,5760061,,,,,,,2023-06-08,1,,,,,ジャム,0
2377,8120101067687,新規,0,2023-06-08,2023-06-08,株式会社ＴＩＥＳ,,株式会社,大阪府,藤井寺市,小山５丁目１７番２号,,27,226,5830033,,,,,,,2023-06-08,1,,,,,タイズ,0
2380,8120103005257,新規,0,2023-06-08,2023-06-08,ＴＵＫ合同会社,,合同会社,大阪府,松原市,北新町５丁目３番４号,,27,217,5800025,,,,,,,2023-06-08,1,,,,,ティーユーケー,0
2381,8130001074493,新規,0,2023-06-08,2023-06-08,株式会社ＬＵＤＥＮＳ　ＫＹＯＴＯ,,株式会社,京都府,京都市中京区,間之町通二条上る夷町５６０－８,,26,104,6040813,,,,,,,2023-06-08,1,,,,,ルーデンスキョウト,0
2382,8140001130378,新規,0,2023-06-08,2023-06-08,株式会社メラノレウカ,,株式会社,兵庫県,宝塚市,逆瀬川１丁目１１番１号アピア２－１４１,,28,214,6650035,,,,,,,2023-06-08,1,,,,,メラノレウカ,0
2383,8140001130444,新規,0,2023-06-08,2023-06-08,株式会社パソコンＨＥＬＰ王,,株式会社,兵庫県,加古郡稲美町,国岡２丁目１０１番地,,28,381,6751115,,,,,,,2023-06-08,1,,,,,パソコンヘルプオウ,0
2385,8150001026451,新規,0,2023-06-08,2023-06-08,株式会社グランディール,,株式会社,奈良県,奈良市,中登美ヶ丘５丁目１１番９号,,29,201,6310003,,,,,,,2023-06-08,1,,,,,グランディール,0
2386,8150001026468,新規,0,2023-06-08,2023-06-08,株式会社Ａｋｓｈｕ,,株式会社,奈良県,奈良市,南京終町６８１番地,,29,201,6308141,,,,,,,2023-06-08,1,,,,,アクシュ,0
2407,8180001156576,新規,0,2023-06-08,2023-06-08,株式会社ゼロイチ塗装,,株式会社,愛知県,名古屋市南区,芝町６０番地グレース芝５０３号,,23,112,4570023,,,,,,,2023-06-08,1,,,,,ゼロイチトソウ,0
2408,8180001156650,新規,0,2023-06-08,2023-06-08,株式会社Ｌｏｖｅｌｙｂｏｎｅ,,株式会社,愛知県,名古屋市南区,宝生町４丁目５番地の１,,23,112,4570828,,,,,,,2023-06-08,1,,,,,ラブリーボーン,0
2409,8180001156667,新規,0,2023-06-08,2023-06-08,三幸不動産株式会社,,株式会社,愛知県,名古屋市天白区,平針２丁目１１１１番地Ａ２ビル５０１,,23,116,4680011,,,,,,,2023-06-08,1,,,,,サンコウフドウサン,0
2410,8180001156709,新規,0,2023-06-08,2023-06-08,株式会社Ａ＆Ｍ,,株式会社,愛知県,名古屋市緑区,滝ノ水２丁目２０１８番地の２,,23,114,4580021,,,,,,,2023-06-08,1,,,,,エーアンドエム,0
2413,8180003025317,新規,0,2023-06-08,2023-06-08,合同会社暖和,,合同会社,愛知県,常滑市,阿野町２丁目１０７番地,,23,216,4790814,,,,,,,2023-06-08,1,,,,,ダンワ,0
2422,8220001025446,新規,0,2023-06-08,2023-06-08,株式会社ヤマキシ不動産,,株式会社,石川県,野々市市,本町６丁目１２番７０号,,17,212,9218815,,,,,,,2023-06-08,1,,,,,ヤマキシフドウサン,0
2423,8220001025454,新規,0,2023-06-08,2023-06-08,株式会社かなざわＴＡＫＥＹＡ,,株式会社,石川県,金沢市,疋田２丁目２９番地,,17,201,9200003,,,,,,,2023-06-08,1,,,,,カナザワタケヤ,0
2429,8240001061646,新規,0,2023-06-08,2023-06-08,株式会社バウンスマート,,株式会社,広島県,広島市中区,十日市町１丁目４番２４号,,34,101,7300805,,,,,,,2023-06-08,1,,,,,バウンスマート,0
2434,8250001020130,新規,0,2023-06-08,2023-06-08,株式会社ＡＩＭＳ,,株式会社,山口県,宇部市,浜田３丁目４番１４号,,35,202,7550806,,,,,,,2023-06-08,1,,,,,アイムス,0
2435,8260001038007,新規,0,2023-06-08,2023-06-08,株式会社長滝林業,,株式会社,岡山県,津山市,阿波１０６０番地,,33,203,7093951,,,,,,,2023-06-08,1,,,,,ナガタキリンギョウ,0
2436,8260001038023,新規,0,2023-06-08,2023-06-08,株式会社ＦｉｔＭｅ,,株式会社,岡山県,笠岡市,高島５２０８,,33,205,7140035,,,,,,,2023-06-08,1,,,,,フィットミー,0
2439,8260003004329,新規,0,2023-06-08,2023-06-08,合同会社リセスタ,,合同会社,岡山県,岡山市南区,箕島１３４６‐２,,33,104,7010206,,,,,,,2023-06-08,1,,,,,リセスタ,0
2449,8290001101785,新規,0,2023-06-08,2023-06-08,株式会社ケイプロック,,株式会社,福岡県,福岡市中央区,薬院３丁目１６－２７－４,,40,133,8100022,,,,,,,2023-06-08,1,,,,,ケイプロック,0
2450,8290001101793,新規,0,2023-06-08,2023-06-08,株式会社十美,,株式会社,福岡県,福岡市南区,屋形原１丁目１４番３－１０２号,,40,134,8111351,,,,,,,2023-06-08,1,,,,,ジュウビ,0
2451,8290001101876,新規,0,2023-06-08,2023-06-08,株式会社デイアクロス,,株式会社,福岡県,宗像市,朝町３０１番地２,,40,220,8114161,,,,,,,2023-06-08,1,,,,,デイアクロス,0
2459,8310003004587,新規,0,2023-06-08,2023-06-08,合同会社グレンアード建築研究所,,合同会社,長崎県,島原市,城内３丁目１０７８－１エクセレント城内Ａ棟,,42,203,8550036,,,,,,,2023-06-08,1,,,,,グレンアードケンチクケンキュウショ,0
2466,8330001030939,新規,0,2023-06-08,2023-06-08,株式会社八州工業,,株式会社,熊本県,阿蘇市,一の宮町坂梨２４４９番地４,,43,214,8692611,,,,,,,2023-06-08,1,,,,,ハッシュウコウギョウ,0
2467,8330001030955,新規,0,2023-06-08,2023-06-08,株式会社ＢＲＯＳＫＯＡ,,株式会社,熊本県,熊本市北区,弓削５丁目３番６６号トミーマンション２０３,,43,105,8618002,,,,,,,2023-06-08,1,,,,,,0
2470,8330003009873,新規,0,2023-06-08,2023-06-08,合同会社ＴＣＹＭ,,合同会社,熊本県,合志市,須屋１８９１番地１－１０２号,,43,216,8611102,,,,,,,2023-06-08,1,,,,,ティーシーワイエム,0
2477,8370001050041,新規,0,2023-06-08,2023-06-08,株式会社川商グレイン,,株式会社,宮城県,登米市,南方町大袋２１０番地,,04,212,9870426,,,,,,,2023-06-08,1,,,,,カワショウグレイン,0
2478,8370001050066,新規,0,2023-06-08,2023-06-08,Ｌｏｎｅｋｉｔｅ株式会社,,株式会社,宮城県,栗原市,高清水中の茎９４番地５１０,,04,213,9872157,,,,,,,2023-06-08,1,,,,,ローンカイト,0
2482,8380001033747,新規,0,2023-06-08,2023-06-08,株式会社ＣｉｅｌＢｌｅｕ,,株式会社,福島県,相馬市,中村字川沼３１１番地の１,,07,209,9760042,,,,,,,2023-06-08,1,,,,,シエルブルー,0
2483,8380001033763,新規,0,2023-06-08,2023-06-08,株式会社福島Ｎｅｘｔ,,株式会社,福島県,双葉郡楢葉町,大字山田岡字駅内５８番地,,07,542,9790513,,,,,,,2023-06-08,1,,,,,フクシマネクスト,0
2484,8380001033771,新規,0,2023-06-08,2023-06-08,株式会社ウッドベル,,株式会社,福島県,二本松市,上川崎字三ッ石６８番地１,,07,210,9691512,,,,,,,2023-06-08,1,,,,,ウッドベル,0
2493,8400005008338,新規,0,2023-06-08,2023-06-08,協同組合イースタンハウジンググループ,,その他の設立登記法人,岩手県,宮古市,山口１丁目２番２７号,,03,202,0270063,,,,,,,2023-06-08,1,,,,,イースタンハウジンググループ,0
2498,8470001019646,新規,0,2023-06-08,2023-06-08,株式会社ＷＡＩＷＡＩ,,株式会社,香川県,高松市,木太町２７６０番地１プルミエール木太町２０１,,37,201,7600080,,,,,,,2023-06-08,1,,,,,ワイワイ,0
2499,8470001019654,新規,0,2023-06-08,2023-06-08,株式会社ＦＥＮＴＺ,,株式会社,香川県,高松市,楠上町２丁目３－７アルファパーク栗林駅南１４０２,,37,201,7600075,,,,,,,2023-06-08,1,,,,,フェンツ,0
2506,8700150013599,新規,0,2023-06-08,2015-10-09,川崎北青色申告会,,その他,神奈川県,川崎市高津区,新作６丁目１６－１２,,14,134,2130014,,,,,,,2015-10-09,1,,,,,カワサキキタアオイロシンコクカイ,0
2507,8700150117045,新規,0,2023-06-08,2023-06-08,ＹＡＳＩＮ　ＰＴＹ　ＬＴＤ,,外国会社等,沖縄県,中頭郡西原町,字千原１６６番地１,,47,329,9030129,オーストラリア連邦２１１４ニューサウスウェールズ州メルローズパーク、ワラタストリート４／９,,,,,,2023-06-08,1,,,,,ヤジンピーティーワイエルティーディー,0
2517,9010001235924,新規,0,2023-06-08,2023-06-08,株式会社維苑,,株式会社,東京都,中央区,日本橋箱崎町５番１１号ユニバーサルビル,,13,102,1030015,,,,,,,2023-06-08,1,,,,,ヨウエン,0
2518,9010001235973,新規,0,2023-06-08,2023-06-08,株式会社Ｆｒａｎｃａ　ＡＩ,,株式会社,東京都,中央区,銀座１丁目１２番４号Ｎ＆ＥＢＬＤ．６Ｆ,,13,102,1040061,,,,,,,2023-06-08,1,,,,,フランカエーアイ,0
2520,9010003040819,新規,0,2023-06-08,2023-06-08,ファースト・コンパス合同会社,,合同会社,東京都,千代田区,神田淡路町２丁目１０５ワテラスアネックス１２０５,,13,101,1010063,,,,,,,2023-06-08,1,,,,,ファーストコンパス,0
2523,9010005036798,新規,0,2023-06-08,2023-06-08,一般財団法人月経前症候群社会認知普及協会,,その他の設立登記法人,東京都,千代田区,霞が関３丁目６－１５,,13,101,1000013,,,,,,,2023-06-08,1,,,,,ゲッケイマエショウコウグンシャカイニンチフキュウキョウカイ,0
2524,9010005036807,新規,0,2023-06-08,2023-06-08,一般社団法人フラワーライフ振興協議会,,その他の設立登記法人,東京都,中央区,銀座８丁目４番２７号菊乃香銀座１階,,13,102,1040061,,,,,,,2023-06-08,1,,,,,フラワーライフシンコウキョウギカイ,0
2533,9010401174838,新規,0,2023-06-08,2023-06-08,株式会社エル,,株式会社,東京都,港区,新橋４丁目１５番１号ウイング新橋ビル２階Ｃ号室,,13,103,1050004,,,,,,,2023-06-08,1,,,,,エル,0
2534,9010401174895,新規,0,2023-06-08,2023-06-08,トウセイデバイス株式会社,,株式会社,東京都,港区,浜松町２丁目２番１５号２Ｆ,,13,103,1050013,,,,,,,2023-06-08,1,,,,,トウセイデバイス,0
2535,9010403030279,新規,0,2023-06-08,2023-06-08,Ｍｉｙａｋｏ　Ｎｅｘｔ　ＰＳ合同会社,,合同会社,東京都,港区,六本木１丁目６番１号泉ガーデンタワーＫＰＭＧ税理士法人内,,13,103,1060032,,,,,,,2023-06-08,1,,,,,ミヤコネクストピーエス,0
2538,9010405022159,新規,0,2023-06-08,2023-06-08,一般社団法人シーシャ協議会,,その他の設立登記法人,東京都,港区,南青山１丁目１０番３南青山Ｄビル４階,,13,103,1070062,,,,,,,2023-06-08,1,,,,,シーシャキョウギカイ,0
2539,9010405022217,新規,0,2023-06-08,2023-06-08,一般社団法人セーブ・ザ・リーフ,,その他の設立登記法人,東京都,港区,白金２丁目７番１２号,,13,103,1080072,,,,,,,2023-06-08,1,,,,,セーブザリーフ,0
2542,9010703006730,新規,0,2023-06-08,2023-06-08,合同会社ヒカルミズ,,合同会社,東京都,品川区,東五反田２丁目９番１－７０１号,,13,109,1410022,,,,,,,2023-06-08,1,,,,,ヒカルミズ,0
2546,9010801034030,新規,0,2023-06-08,2023-06-08,株式会社ギミック,,株式会社,東京都,大田区,北千束１丁目５１－３,,13,111,1450062,,,,,,,2023-06-08,1,,,,,,0
2555,9011001154924,新規,0,2023-06-08,2023-06-08,株式会社キャリアドバンス,,株式会社,東京都,渋谷区,道玄坂１丁目１０番８号渋谷道玄坂東急ビル２Ｆ－Ｃ,,13,113,1500043,,,,,,,2023-06-08,1,,,,,キャリアドバンス,0
2557,9011003016940,新規,0,2023-06-08,2023-06-08,合同会社ｅｍｂｒａｃｅ,,合同会社,東京都,渋谷区,道玄坂１丁目１０番８号渋谷道玄坂東急ビル２Ｆ－Ｃ,,13,113,1500043,,,,,,,2023-06-08,1,,,,,エンブレイス,0
2564,9011101103178,新規,0,2023-06-08,2023-06-08,株式会社Ｏｎｅ　ｂｙ　Ｏｎｅ　Ｍｕｓｉｃ,,株式会社,東京都,新宿区,高田馬場１丁目３２番地１０号,,13,104,1690075,,,,,,,2023-06-08,1,,,,,ワンバイワンミュージック,0
2567,9011103013136,新規,0,2023-06-08,2023-06-08,合同会社あさひ商店,,合同会社,東京都,新宿区,西新宿３丁目３番１３号西新宿水間ビル２Ｆ,,13,104,1600023,,,,,,,2023-06-08,1,,,,,アサヒショウテン,0
2570,9011201024704,新規,0,2023-06-08,2023-06-08,株式会社情動,,株式会社,東京都,中野区,中野５丁目２番７号ＣｒａｆｔＰａｃｋ中野２０２,,13,114,1640001,,,,,,,2023-06-08,1,,,,,ジョウドウ,0
2572,9011301028761,新規,0,2023-06-08,2023-06-08,株式会社Ｑｕｄａｎ,,株式会社,東京都,杉並区,上荻３丁目７番５号,,13,115,1670043,,,,,,,2023-06-08,1,,,,,クダン,0
2577,9011601026886,新規,0,2023-06-08,2023-06-08,株式会社Ｎｅｗｔｏｎｅ,,株式会社,東京都,練馬区,中村北４丁目２４番１５－２０２号,,13,120,1760023,,,,,,,2023-06-08,1,,,,,ニュートーン,0
2582,9011801042535,新規,0,2023-06-08,2023-06-08,株式会社ＫＡＺ‐ｎｅｔ,,株式会社,東京都,足立区,日ノ出町６番４号,,13,121,1200021,,,,,,,2023-06-08,1,,,,,カズネット,0
2583,9011801042543,新規,0,2023-06-08,2023-06-08,株式会社セット・アップ,,株式会社,東京都,葛飾区,東新小岩５丁目１５番１８号,,13,122,1240023,,,,,,,2023-06-08,1,,,,,セットアップ,0
2584,9012703002726,新規,0,2023-06-08,2023-06-08,合同会社つなぐ,,合同会社,東京都,東久留米市,柳窪５丁目７番４号,,13,222,2030044,,,,,,,2023-06-08,1,,,,,ツナグ,0
2594,9013301050860,新規,0,2023-06-08,2023-06-08,ＷＩＩＰＡＫ株式会社,,株式会社,東京都,豊島区,北大塚２丁目２３番３－１５０４号,,13,116,1700004,,,,,,,2023-06-08,1,,,,,ウィパク,0
2595,9013301050869,新規,0,2023-06-08,2023-06-08,株式会社ＲＥＡＬ　ＴＩＭＥ,,株式会社,東京都,豊島区,駒込１丁目３９番５号,,13,116,1700003,,,,,,,2023-06-08,1,,,,,リアルタイム,0
2602,9020001151922,新規,0,2023-06-08,2023-06-08,株式会社ｆｏｒｐｌａｃｅ,,株式会社,神奈川県,横浜市南区,六ツ川２丁目２４番地泉タウン３４－２０２,,14,105,2320066,,,,,,,2023-06-08,1,,,,,,0
2603,9020001151963,新規,0,2023-06-08,2023-06-08,株式会社Ｔｕｔｔｉ　Ｃｒｅａｔｅ,,株式会社,神奈川県,横浜市青葉区,あざみ野１丁目２７番地１イディオスあざみ野Ｃ棟２０３号,,14,117,2250011,,,,,,,2023-06-08,1,,,,,,0
2604,9020001151971,新規,0,2023-06-08,2023-06-08,株式会社フルカワ,,株式会社,神奈川県,横浜市保土ケ谷区,星川３丁目１９番２２号,,14,106,2400006,,,,,,,2023-06-08,1,,,,,フルカワ,0
2605,9020005016031,新規,0,2023-06-08,2023-06-08,横浜市ＳＤＧｓ事業協同組合,,その他の設立登記法人,神奈川県,横浜市中区,住吉町１丁目１３番地,,14,104,2310013,,,,,,,2023-06-08,1,,,,,ヨコハマシエスディージーズ,0
2607,9021001079195,新規,0,2023-06-08,2023-06-08,ユニオンエコ株式会社,,株式会社,神奈川県,藤沢市,用田１１１８,,14,205,2520821,,,,,,,2023-06-08,1,,,,,ユニオンエコ,0
2608,9021001079237,新規,0,2023-06-08,2023-06-08,株式会社ミツヅカ家,,株式会社,神奈川県,秦野市,菩提２６３番地の１０,,14,211,2591302,,,,,,,2023-06-08,1,,,,,ミツヅカヤ,0
2609,9021001079253,新規,0,2023-06-08,2023-06-08,株式会社メレンワン,,株式会社,神奈川県,相模原市中央区,相模原３丁目７番３号,,14,152,2520231,,,,,,,2023-06-08,1,,,,,メレンワン,0
2610,9021001079278,新規,0,2023-06-08,2023-06-08,株式会社由鎌倉,,株式会社,神奈川県,鎌倉市,御成町１１番５－４０２号,,14,204,2480012,,,,,,,2023-06-08,1,,,,,ユイカマクラ,0
2612,9021003013177,新規,0,2023-06-08,2023-06-08,合同会社Ｄｏｔ．ｃｏｌｌｅｃｔｏｒ,,合同会社,神奈川県,藤沢市,片瀬海岸１丁目７番２５～４０１号,,14,205,2510035,,,,,,,2023-06-08,1,,,,,ドットコレクター,0
2614,9030001154214,新規,0,2023-06-08,2023-06-08,株式会社瀬川塗装店,,株式会社,埼玉県,新座市,池田５丁目９番４号,,11,230,3520015,,,,,,,2023-06-08,1,,,,,セガワトソウテン,0
2616,9030003021841,新規,0,2023-06-08,2023-06-08,合同会社Ａ　Ｌｉｆｅ　ＬＡＢ,,合同会社,埼玉県,入間市,久保稲荷１丁目１０番地１－１７－１０１,,11,225,3580024,,,,,,,2023-06-08,1,,,,,エーライフラボ,0
2617,9030003021916,新規,0,2023-06-08,2023-06-08,合同会社Ｓａｌｉｒ,,合同会社,埼玉県,蕨市,南町１丁目１９番２号ブランノーヴァ蕨（ＩＩ）３０１号,00130770,11,223,3350003,,,,,,,2023-06-08,1,,,,,サリール,0
2628,9040001128745,新規,0,2023-06-08,2023-06-08,株式会社Ｓｔａｒ‐ｓｐａｃｅ,,株式会社,千葉県,柏市,若柴１番地４８９,,12,217,2770871,,,,,,,2023-06-08,1,,,,,スタースペース,0
2632,9040003022764,新規,0,2023-06-08,2023-06-08,インテリアコダカ合同会社,,合同会社,千葉県,我孫子市,湖北台１０丁目６番１８号,,12,222,2701132,,,,,,,2023-06-08,1,,,,,インテリアコダカ,0
2633,9050001052944,新規,0,2023-06-08,2023-06-08,株式会社Ｕｎｓ,,株式会社,茨城県,鹿嶋市,大字爪木８０９番地６,,08,222,3140046,,,,,,,2023-06-08,1,,,,,ユーエヌエス,0
2634,9050001052960,新規,0,2023-06-08,2023-06-08,株式会社心制電,,株式会社,茨城県,那珂郡東海村,大字須和間１７４番地１２２,,08,341,3191114,,,,,,,2023-06-08,1,,,,,シンセイデン,0
2639,9060001036062,新規,0,2023-06-08,2023-06-08,株式会社アイケーテック,,株式会社,栃木県,足利市,伊勢町４丁目４番地１０,,09,202,3260053,,,,,,,2023-06-08,1,,,,,アイケーテック,0
2640,9070001040501,新規,0,2023-06-08,2023-06-08,株式会社田部井商事,,株式会社,群馬県,伊勢崎市,五目牛町１１番地１,,10,204,3792213,,,,,,,2023-06-08,1,,,,,タベイショウジ,0
2641,9070001040526,新規,0,2023-06-08,2023-06-08,株式会社ＭＥＹＴ,,株式会社,群馬県,北群馬郡吉岡町,大字大久保３６４番地１、２階,,10,345,3703602,,,,,,,2023-06-08,1,,,,,メイト,0
2642,9070001040534,新規,0,2023-06-08,2023-06-08,株式会社秀和,,株式会社,群馬県,藤岡市,本郷１３４９番地２,,10,209,3750023,,,,,,,2023-06-08,1,,,,,ヒデワ,0
2643,9070003004974,新規,0,2023-06-08,2023-06-08,合同会社アソシエイト,,合同会社,群馬県,太田市,東別所町５００番地４ハイツライブリー１０１号,,10,205,3730815,,,,,,,2023-06-08,1,,,,,,0
2650,9080401026529,新規,0,2023-06-08,2023-06-08,株式会社Ｋデザイン,,株式会社,静岡県,磐田市,豊岡３９４６番地１,,22,211,4380231,,,,,,,2023-06-08,1,,,,,ケイデザイン,0
2654,9100005013029,新規,0,2023-06-08,2023-06-08,特定非営利活動法人グランツ,,その他の設立登記法人,長野県,長野市,戸隠祖山４４７０番地,,20,201,3814103,,,,,,,2023-06-08,1,,,,,グランツ,0
2661,9120001255390,新規,0,2023-06-08,2023-06-08,絢水産業株式会社,,株式会社,大阪府,大阪市北区,南森町２丁目２番７－１１０１号,,27,127,5300054,,,,,,,2023-06-08,1,,,,,アヤミサンギョウ,0
2662,9120001255424,新規,0,2023-06-08,2023-06-08,株式会社逸,,株式会社,大阪府,大阪市中央区,島之内１丁目１１番２２－５１０号,,27,128,5420082,,,,,,,2023-06-08,1,,,,,イチ,0
2665,9120003024224,新規,0,2023-06-08,2023-06-08,合同会社真西電設,,合同会社,大阪府,大阪市住吉区,清水丘２丁目４番７－２０１号,,27,120,5580033,,,,,,,2023-06-08,1,,,,,シンセイデンセツ,0
2666,9120003024249,新規,0,2023-06-08,2023-06-08,合同会社ミナト,,合同会社,大阪府,大阪市生野区,巽南１丁目９番２５号,00130778,27,116,5440015,,,,,,,2023-06-08,1,,,,,ミナト,0
2670,9120101067694,新規,0,2023-06-08,2023-06-08,株式会社ＷＩＳＫＹ,,株式会社,大阪府,松原市,北新町３丁目５番１０－２０６号,,27,217,5800025,,,,,,,2023-06-08,1,,,,,ウィスキー,0
2673,9120901047631,新規,0,2023-06-08,2023-06-08,株式会社ＫＫＳ,,株式会社,大阪府,茨木市,島３丁目３番１６号,,27,211,5670854,,,,,,,2023-06-08,1,,,,,ケーケーエス,0
2677,9122005003684,新規,0,2023-06-08,2023-06-08,一般社団法人おもしろ総合研究所,,その他の設立登記法人,大阪府,東大阪市,水走３丁目３番７号,,27,227,5780921,,,,,,,2023-06-08,1,,,,,オモシロソウゴウケンキュウジョ,0
2681,9130001074492,新規,0,2023-06-08,2023-06-08,中村商店株式会社,,株式会社,京都府,京都市伏見区,桃山町金井戸島２番地の１９,,26,109,6128226,,,,,,,2023-06-08,1,,,,,ナカムラショウテン,0
2685,9130003008770,新規,0,2023-06-08,2023-06-08,ｒｉｇｈｔ　ｈａｎｄ合同会社,,合同会社,京都府,京都市南区,西九条藤ノ木町２５,,26,107,6018421,,,,,,,2023-06-08,1,,,,,ライトハンド,0
2689,9140001130352,新規,0,2023-06-08,2023-06-08,ＡＫＹコーポレーション株式会社,,株式会社,兵庫県,神戸市長田区,若松町３丁目２番４号アトレ新長田駅前９０３号室,,28,106,6530038,,,,,,,2023-06-08,1,,,,,エーケイワイコーポレーション,0
2690,9140001130419,新規,0,2023-06-08,2023-06-08,株式会社エンハビ,,株式会社,兵庫県,神戸市中央区,北野町２丁目６番２号,,28,110,6500002,,,,,,,2023-06-08,1,,,,,エンハビ,0
2692,9140003019156,新規,0,2023-06-08,2023-06-08,合同会社ＴＶイエロー,,合同会社,兵庫県,神戸市西区,今寺２４番地の２２,,28,111,6512114,,,,,,,2023-06-08,1,,,,,ティーヴィーイエロー,0
2693,9140003019172,新規,0,2023-06-08,2023-06-08,エヌエー合同会社,,合同会社,兵庫県,西宮市,和上町６番２４号オリーブハイツ３Ｆ,,28,204,6620971,,,,,,,2023-06-08,1,,,,,エヌエー,0
2694,9160001025096,新規,0,2023-06-08,2023-06-08,株式会社光琉,,株式会社,滋賀県,甲賀市,甲賀町高嶺１１９０番地,,25,209,5203424,,,,,,,2023-06-08,1,,,,,コウリュウ,0
2703,9180001156534,新規,0,2023-06-08,2023-06-08,東海白金ホールディングス株式会社,,株式会社,愛知県,名古屋市中区,錦１丁目５番１１号,,23,106,4600003,,,,,,,2023-06-08,1,,,,,トウカイシラガネホールディングス,0
2704,9180001156617,新規,0,2023-06-08,2023-06-08,株式会社ストラリズモ,,株式会社,愛知県,名古屋市中区,錦３丁目２番３２号,,23,106,4600003,,,,,,,2023-06-08,1,,,,,ストラリズモ,0
2705,9180001156633,新規,0,2023-06-08,2023-06-08,コージィラボ株式会社,,株式会社,愛知県,名古屋市中村区,名駅３丁目４－１０アルティメイト名駅１ｓｔ　２階,,23,105,4500002,,,,,,,2023-06-08,1,,,,,コージィラボ,0
2706,9180001156658,新規,0,2023-06-08,2023-06-08,株式会社Ｔ・Ａ・ＧＨＤ,,株式会社,愛知県,海部郡蟹江町,本町６丁目２２０番地,,23,425,4970034,,,,,,,2023-06-08,1,,,,,ティーエージーホールディングス,0
2707,9180001156690,新規,0,2023-06-08,2023-06-08,株式会社中野エージェント,,株式会社,愛知県,名古屋市中村区,名駅４丁目２４番５号第２森ビル４０１,,23,105,4500002,,,,,,,2023-06-08,1,,,,,ナカノエージェント,0
2708,9180001156716,新規,0,2023-06-08,2023-06-08,株式会社Ｂｒｉａ,,株式会社,愛知県,名古屋市名東区,社台１丁目１７０番地,,23,115,4650092,,,,,,,2023-06-08,1,,,,,ブライア,0
2711,9180003025241,新規,0,2023-06-08,2023-06-08,合同会社極美,,合同会社,愛知県,豊明市,栄町大根１－１３１０,,23,229,4701166,,,,,,,2023-06-08,1,,,,,キワミ,0
2712,9180003025316,新規,0,2023-06-08,2023-06-08,合同会社魁皇塾,,合同会社,愛知県,名古屋市西区,幅下１丁目１５番３号－２,,23,104,4510041,,,,,,,2023-06-08,1,,,,,カイオウジュク,0
2713,9180003025324,新規,0,2023-06-08,2023-06-08,Ｇｌｏｂａｌ　Ｃｏｎｓｕｌｔｉｎｇ合同会社,,合同会社,愛知県,名古屋市中村区,名駅３丁目４番１０号アルティメイト名駅１ｓｔ２階,,23,105,4500002,,,,,,,2023-06-08,1,,,,,グローバルコンサルティング,0
2714,9180003025340,新規,0,2023-06-08,2023-06-08,常滑文化振興合同会社,,合同会社,愛知県,常滑市,多屋町５丁目４０番地,,23,216,4790839,,,,,,,2023-06-08,1,,,,,トコナメブンカシンコウ,0
2720,9190001030473,新規,0,2023-06-08,2023-06-08,株式会社計器工業,,株式会社,三重県,三重郡朝日町,大字縄生４７２番地５,,24,343,5108101,,,,,,,2023-06-08,1,,,,,ケイキコウギョウ,0
2721,9190001030481,新規,0,2023-06-08,2023-06-08,ＭＩＲＡＩＯ株式会社,,株式会社,三重県,津市,丸之内２１番２５号,,24,201,5140033,,,,,,,2023-06-08,1,,,,,ミライオ,0
2726,9210001019349,新規,0,2023-06-08,2023-06-08,株式会社安久,,株式会社,福井県,福井市,宝永３丁目１０番７号,,18,201,9100004,,,,,,,2023-06-08,1,,,,,アンキュウ,0
2729,9230003002029,新規,0,2023-06-08,2023-06-08,合同会社アヤネ＆ｙｕｋｅｙ,,合同会社,富山県,富山市,下冨居１丁目１５番１８号,,16,201,9300814,,,,,,,2023-06-08,1,,,,,アヤネアンドユッキー,0
2734,9250003003280,新規,0,2023-06-08,2023-06-08,合同会社Ｒｉｎｇ’ｓ,,合同会社,山口県,周南市,花陽２丁目１０番８号ベルハイム花陽１０１号,,35,215,7450858,,,,,,,2023-06-08,1,,,,,リングス,0
2740,9290001101792,新規,0,2023-06-08,2023-06-08,株式会社ＦＴウィング,,株式会社,福岡県,糟屋郡久山町,大字久原２７２９番地１１,,40,348,8112501,,,,,,,2023-06-08,1,,,,,エフティウィング,0
2741,9290001101826,新規,0,2023-06-08,2023-06-08,株式会社Ｓｕｎ．ｃｒａｎｅ,,株式会社,福岡県,福岡市中央区,大手門２丁目５番２８－９０３号ル・サンク大濠公園,,40,133,8100074,,,,,,,2023-06-08,1,,,,,サンクレイン,0
2742,9290001101834,新規,0,2023-06-08,2023-06-08,ブルーエステート株式会社,,株式会社,福岡県,福岡市南区,平和２丁目７番３５－５０２号,,40,134,8150071,,,,,,,2023-06-08,1,,,,,ブルーエステート,0
2743,9290001101842,新規,0,2023-06-08,2023-06-08,株式会社コマチ,,株式会社,福岡県,福岡市東区,名島２丁目２３番５号,,40,131,8130043,,,,,,,2023-06-08,1,,,,,コマチ,0
2744,9290005019057,新規,0,2023-06-08,2023-06-08,一般社団法人ぐれーとたいむ,,その他の設立登記法人,福岡県,福津市,中央２丁目１１番３号,,40,224,8113217,,,,,,,2023-06-08,1,,,,,グレートタイム,0
2750,9340005009614,新規,0,2023-06-08,2023-06-08,一般社団法人鹿児島ＥＶチャージ協会,,その他の設立登記法人,鹿児島県,鹿児島市,西千石町７番３３－７０６号,,46,201,8920847,,,,,,,2023-06-08,1,,,,,カゴシマイーブイチャージキョウカイ,0
2752,9350001018386,新規,0,2023-06-08,2023-06-08,サンテルホールディングス株式会社,,株式会社,宮崎県,宮崎市,清水２丁目２番１０号３１０６Ｂｌｄｇ．,,45,201,8800021,,,,,,,2023-06-08,1,,,,,サンテルホールディングス,0
2757,9370001050049,新規,0,2023-06-08,2023-06-08,株式会社ＡＺＡＤ　ＴＲＡＤＩＮＧ,,株式会社,宮城県,伊具郡丸森町,金山字下片山１６５番地１,,04,341,9812402,,,,,,,2023-06-08,1,,,,,アザードトレーディング,0
2762,9380001033746,新規,0,2023-06-08,2023-06-08,クライム株式会社,,株式会社,福島県,双葉郡富岡町,大字本岡字王塚５４１番地,,07,543,9791151,,,,,,,2023-06-08,1,,,,,クライム,0
2763,9380001033754,新規,0,2023-06-08,2023-06-08,南相土木株式会社,,株式会社,福島県,双葉郡浪江町,大字幾世橋字辻７４番地１,,07,547,9791513,,,,,,,2023-06-08,1,,,,,ナンソウドボク,0
2764,9380001033770,新規,0,2023-06-08,2023-06-08,日工建設株式会社,,株式会社,福島県,いわき市,江畑町江ノ上３６番地,,07,204,9748201,,,,,,,2023-06-08,1,,,,,ニッコウケンセツ,0
2765,9380005012721,新規,0,2023-06-08,2023-06-08,ベストユニオン事業協同組合,,その他の設立登記法人,福島県,郡山市,安積町日出山４丁目１４４番地,,07,203,9630101,,,,,,,2023-06-08,1,,,,,ベストユニオン,0
2770,9430001089270,新規,0,2023-06-08,2023-06-08,株式会社Ｌｉｆｏｘ,,株式会社,北海道,登別市,登別温泉町７６番地,,01,230,0590551,,,,,,,2023-06-08,1,,,,,リフォックス,0
2771,9430001089295,新規,0,2023-06-08,2023-06-08,ウィングフィールド株式会社,,株式会社,北海道,江別市,大麻ひかり町６番地の１１,,01,217,0690847,,,,,,,2023-06-08,1,,,,,ウィングフィールド,0
2773,9430003015134,新規,0,2023-06-08,2023-06-08,スズヒロ合同会社,,合同会社,北海道,札幌市白石区,菊水元町四条２丁目５番７号,,01,104,0030824,,,,,,,2023-06-08,1,,,,,スズヒロ,0
2774,9450003002345,新規,0,2023-06-08,2023-06-08,合同会社ＭＩＲＩＺＥ,,合同会社,北海道,旭川市,永山九条１０丁目４－９,,01,204,0798419,,,,,,,2023-06-08,1,,,,,ミライズ,0
2776,9490001010494,新規,0,2023-06-08,2023-06-08,株式会社ブランティー,,株式会社,高知県,高知市,桜馬場２番２８－９０７号,,39,201,7800929,,,,,,,2023-06-08,1,,,,,ブランティー,0
2777,9490001010503,新規,0,2023-06-08,2023-06-08,ゼロ・コネクション株式会社,,株式会社,高知県,高知市,東石立町５３番地４,,39,201,7808039,,,,,,,2023-06-08,1,,,,,ゼロコネクション,0
2780,9700150117044,新規,0,2023-06-08,2023-06-08,ＰＣＣ　Ａｓｉａ　Ｌｉｍｉｔｅｄ．,,外国会社等,東京都,渋谷区,神宮前１丁目５－８神宮前タワービルディング１４階,,13,113,1500001,香港特別行政区、クントン九龍、フントゥーロード８１、コンテンポプレイス５－７／Ｆ,,,,,,2023-06-08,1,,,,,ピーシーシーアジアリミテツド,0
