sequenceNumber,corporateNumber,process,correct,updateDate,changeDate,name,nameImageId,kind,prefectureName,cityName,streetNumber,addressImageId,prefectureCode,cityCode,postCode,addressOutside,addressOutsideImageId,closeDate,closeCause,successorCorporateNumber,changeCause,assignmentDate,latest,enName,enPrefectureName,enCityName,enAddressOutside,furigana,hihyoji
9,1010001232318,新規,0,2023-01-20,2023-01-20,ＪＰＡ第２７１号株式会社,,株式会社,東京都,千代田区,霞が関３丁目２番１号,,13,101,1000013,,,,,,,2023-01-20,1,,,,,ジェイピーエーダイニヒャクナナジュウイチゴウ,0
10,1010001232350,新規,0,2023-01-20,2023-01-20,株式会社ＳＴＵＤＩＯ　ＩＲＯＨＡ,,株式会社,東京都,中央区,銀座１丁目２２－１１銀座大竹ビジデンス２Ｆ,,13,102,1040061,,,,,,,2023-01-20,1,,,,,スタジオイロハ,0
13,1010003039637,新規,0,2023-01-20,2023-01-20,合同会社プリントボード,,合同会社,東京都,千代田区,丸の内３丁目１番１号東京共同会計事務所内,,13,101,1000005,,,,,,,2023-01-20,1,,,,,プリントボード,0
22,1010401171999,新規,0,2023-01-20,2023-01-20,株式会社ＣｏｎｃｅＰｉｏｎｅ,,株式会社,東京都,港区,南青山５丁目５－１１－３０２,,13,103,1070062,,,,,,,2023-01-20,1,,,,,コンセピオン,0
23,1010403029329,新規,0,2023-01-20,2023-01-20,ミリラバ合同会社,,合同会社,東京都,港区,南麻布２丁目２－１６フトゥールス南麻布６０２,,13,103,1060047,,,,,,,2023-01-20,1,,,,,ミリラバ,0
24,1010405021705,新規,0,2023-01-20,2023-01-20,秋元・吉澤弁理士法人,,その他の設立登記法人,東京都,港区,南青山１丁目１番１号新青山ビル東館１９階,,13,103,1070062,,,,,,,2023-01-20,1,,,,,アキモトヨシザワ,0
38,1010503006855,新規,0,2023-01-20,2023-01-20,合同会社華,,合同会社,東京都,台東区,東上野１丁目２２番１号,,13,106,1100015,,,,,,,2023-01-20,1,,,,,ハナ,0
40,1010701043733,新規,0,2023-01-20,2023-01-20,株式会社フミダス,,株式会社,東京都,品川区,西中延３丁目１５番２号,,13,109,1420054,,,,,,,2023-01-20,1,,,,,フミダス,0
43,1010803004427,新規,0,2023-01-20,2023-01-20,合同会社Ｔハイヤー,,合同会社,東京都,大田区,大森北３丁目２２番４号,,13,111,1430016,,,,,,,2023-01-20,1,,,,,ティーハイヤー,0
49,1011001151953,新規,0,2023-01-20,2023-01-20,株式会社ａｌｌｉｃａ,,株式会社,東京都,渋谷区,神宮前６丁目１２番１８号ＷｅＷｏｒｋアイスバーグ,,13,113,1500001,,,,,,,2023-01-20,1,,,,,アリカ,0
50,1011001152002,新規,0,2023-01-20,2023-01-20,株式会社ｔｏｒｉｃｏｔｉｓｍ,,株式会社,東京都,目黒区,南３丁目２番１６号,,13,110,1520013,,,,,,,2023-01-20,1,,,,,トリコティズム,0
51,1011001152027,新規,0,2023-01-20,2023-01-20,Ｚａｉｍｏ株式会社,,株式会社,東京都,目黒区,中目黒４丁目８番８シティハウス中目黒テラス１３０３号,,13,110,1530061,,,,,,,2023-01-20,1,,,,,ザイモ,0
52,1011001152150,新規,0,2023-01-20,2023-01-20,宇田川不動産株式会社,,株式会社,東京都,目黒区,東が丘１丁目７番８号,,13,110,1520021,,,,,,,2023-01-20,1,,,,,ウダガワフドウサン,0
53,1011003016139,新規,0,2023-01-20,2023-01-20,合同会社エムエムティ,,合同会社,東京都,渋谷区,広尾３丁目４番１号１―２０２号室,,13,113,1500012,,,,,,,2023-01-20,1,,,,,エムエムティ,0
56,1011101101544,新規,0,2023-01-20,2023-01-20,クラフテクス株式会社,,株式会社,東京都,新宿区,西新宿３丁目３－１３西新宿水間ビル６階,,13,104,1600023,,,,,,,2023-01-20,1,,,,,クラフテクス,0
57,1011101101560,新規,0,2023-01-20,2023-01-20,株式会社ＳＨｉＲｏ‐Ｌｅｆｏｎｄ,,株式会社,東京都,新宿区,百人町１丁目２１番８号,,13,104,1690073,,,,,,,2023-01-20,1,,,,,シロルフォン,0
58,1011101101569,新規,0,2023-01-20,2023-01-20,株式会社Ｄ‐ｉｎｎｏｖａｔｉｏｎ,,株式会社,東京都,新宿区,大久保１丁目１２番３号,,13,104,1690072,,,,,,,2023-01-20,1,,,,,ディーイノベーション,0
63,1011401024841,新規,0,2023-01-20,2023-01-20,スワンテイル株式会社,,株式会社,東京都,板橋区,常盤台２丁目３１番６号,,13,119,1740071,,,,,,,2023-01-20,1,,,,,スワンテイル,0
69,1011601026514,新規,0,2023-01-20,2023-01-20,株式会社建電社,,株式会社,東京都,練馬区,上石神井４丁目１８番８号,,13,120,1770044,,,,,,,2023-01-20,1,,,,,ケンデンシャ,0
73,1011803005472,新規,0,2023-01-20,2023-01-20,カイ＆メタン合同会社,,合同会社,東京都,足立区,東和２丁目１番４号ドーミー亀有,,13,121,1200003,,,,,,,2023-01-20,1,,,,,,0
98,1020001149899,新規,0,2023-01-20,2023-01-20,Ｆ・Ｋ・Ｓホールディングス株式会社,,株式会社,神奈川県,川崎市高津区,下作延７丁目４番地１号１０３,,14,134,2130033,,,,,,,2023-01-20,1,,,,,エフケーエスホールディングス,0
99,1020001149908,新規,0,2023-01-20,2023-01-20,株式会社スプーン,,株式会社,神奈川県,横浜市西区,高島２丁目１１番２号スカイメナー横浜５１９,,14,103,2200011,,,,,,,2023-01-20,1,,,,,スプーン,0
102,1020003023144,新規,0,2023-01-20,2023-01-20,合同会社ワタナベ宅建士事務所,,合同会社,神奈川県,横浜市神奈川区,六角橋６丁目２９－３－２０２,,14,102,2210802,,,,,,,2023-01-20,1,,,,,ワタナベタクケンシジムショ,0
104,1021001078007,新規,0,2023-01-20,2023-01-20,株式会社海渡商事,,株式会社,神奈川県,平塚市,城所５４６番地１,,14,203,2540005,,,,,,,2023-01-20,1,,,,,カイトショウジ,0
115,1030001152019,新規,0,2023-01-20,2023-01-20,創美国際株式会社,,株式会社,埼玉県,坂戸市,清水町１１番２１号,,11,239,3500222,,,,,,,2023-01-20,1,,,,,ソウビコクサイ,0
116,1030001152027,新規,0,2023-01-20,2023-01-20,株式会社アイビー,,株式会社,埼玉県,加須市,花崎北２丁目１６番地１,,11,210,3470016,,,,,,,2023-01-20,1,,,,,アイビー,0
117,1030001152051,新規,0,2023-01-20,2023-01-20,株式会社ＶＡＭＯＳ,,株式会社,埼玉県,川口市,西青木３丁目１１番２９号エスペランサ１０１号,,11,203,3320035,,,,,,,2023-01-20,1,,,,,ヴァモス,0
126,1040003021708,新規,0,2023-01-20,2023-01-20,ＮＯＺＯＭＩ　ＡＵＴＯ合同会社,,合同会社,千葉県,八街市,朝日２２６番地２２コーポ朝日ＩＩ１０５,00129144,12,230,2891101,,,,,,,2023-01-20,1,,,,,ノゾミオート,0
127,1040003021740,新規,0,2023-01-20,2023-01-20,合同会社ＡＷＡドロップス,,合同会社,千葉県,館山市,北条１７１２,,12,205,2940045,,,,,,,2023-01-20,1,,,,,アワドロップス,0
128,1040005021879,新規,0,2023-01-20,2023-01-20,Ｊ‐ＣＯＮＮＥＣＴ協同組合,,その他の設立登記法人,千葉県,八街市,八街ほ２２５－１０,,12,230,2891115,,,,,,,2023-01-20,1,,,,,ジェイコネクト,0
130,1050001052282,新規,0,2023-01-20,2023-01-20,ＩＮＡＭ　ＴＲＡＤＩＮＧ株式会社,,株式会社,茨城県,筑西市,玉戸１３０９番地２７（６）,,08,227,3080847,,,,,,,2023-01-20,1,,,,,イナムトレーディング,0
139,1070001040054,新規,0,2023-01-20,2023-01-20,カーサ・ヌーノ株式会社,,株式会社,群馬県,高崎市,柳川町９番地５サラ・デ・エスタル２Ｆ,,10,202,3700815,,,,,,,2023-01-20,1,,,,,カーサヌーノ,0
141,1080001025418,新規,0,2023-01-20,2023-01-20,株式会社光栄産業,,株式会社,静岡県,静岡市葵区,山崎２丁目３１番地の１２,,22,101,4211213,,,,,,,2023-01-20,1,,,,,コウエイサンギョウ,0
145,1080401026263,新規,0,2023-01-20,2023-01-20,株式会社Ｋｅｉホーム,,株式会社,静岡県,浜松市中区,和合町１０８４番地の１テラスハウス八王子の森Ａ－２,,22,131,4338125,,,,,,,2023-01-20,1,,,,,ケイホーム,0
147,1090001017942,新規,0,2023-01-20,2023-01-20,まるつう保険ひろば株式会社,,株式会社,山梨県,山梨市,上石森１０４８番地,,19,205,4050014,,,,,,,2023-01-20,1,,,,,マルツウホケンヒロバ,0
150,1100001036073,新規,0,2023-01-20,2023-01-20,株式会社ミゴエイト,,株式会社,長野県,上水内郡飯綱町,大字芋川２７３０－２,,20,590,3891201,,,,,,,2023-01-20,1,,,,,ミゴエイト,0
152,1110003004969,新規,0,2023-01-20,2023-01-20,合同会社Ｌ・Ｏ・Ｌ,,合同会社,新潟県,北蒲原郡聖籠町,大字次第浜５２１７番地１,,15,307,9570105,,,,,,,2023-01-20,1,,,,,エルオーエル,0
160,1120001251835,新規,0,2023-01-20,2023-01-20,珠羽堂株式会社,,株式会社,大阪府,大阪市東住吉区,鷹合４丁目２１番１６号１Ｆ－Ｆ,,27,121,5460014,,,,,,,2023-01-20,1,,,,,シュウドウ,0
161,1120001251934,新規,0,2023-01-20,2023-01-20,株式会社めいてん,,株式会社,大阪府,門真市,泉町１１番１５号,,27,223,5710053,,,,,,,2023-01-20,1,,,,,メイテン,0
165,1120003023299,新規,0,2023-01-20,2023-01-20,合同会社ＬｅａＬｅａ,,合同会社,大阪府,大阪市中央区,東心斎橋１丁目８番地１１－３２０１,,27,128,5420083,,,,,,,2023-01-20,1,,,,,レアレア,0
167,1120101066852,新規,0,2023-01-20,2023-01-20,株式会社ニシオ通商,,株式会社,大阪府,堺市西区,鳳西町３丁９番地３（３０１）,,27,144,5938326,,,,,,,2023-01-20,1,,,,,ニシオツウショウ,0
168,1120101066860,新規,0,2023-01-20,2023-01-20,株式会社杜星建設,,株式会社,大阪府,松原市,阿保７丁目２番１０号,,27,217,5800043,,,,,,,2023-01-20,1,,,,,トウセイケンセツ,0
170,1120103005040,新規,0,2023-01-20,2023-01-20,合同会社ＩＫＫＯＨ,,合同会社,大阪府,大阪狭山市,半田６丁目８４８番地の４,,27,231,5890011,,,,,,,2023-01-20,1,,,,,イッコー,0
171,1122001036605,新規,0,2023-01-20,2023-01-20,ＮＥｘＴ　ＬＩＦＩＸ株式会社,,株式会社,大阪府,大東市,灰塚５丁目１１－１７,,27,218,5740043,,,,,,,2023-01-20,1,,,,,ネクストリフィックス,0
173,1130003008472,新規,0,2023-01-20,2023-01-20,合同会社彩り,,合同会社,京都府,城陽市,長池河原１３番地の１０,,26,207,6100112,,,,,,,2023-01-20,1,,,,,イロドリ,0
178,1140001128742,新規,0,2023-01-20,2023-01-20,株式会社マイエム,,株式会社,兵庫県,川西市,錦松台１５番３号,,28,217,6660135,,,,,,,2023-01-20,1,,,,,マイエム,0
179,1140001128817,新規,0,2023-01-20,2023-01-20,株式会社フォルトゥーナ,,株式会社,兵庫県,神戸市長田区,日吉町４丁目１－１,,28,106,6530039,,,,,,,2023-01-20,1,,,,,フォルトゥーナ,0
184,1170001017447,新規,0,2023-01-20,2023-01-20,紀州太陽木材株式会社,,株式会社,和歌山県,和歌山市,北ノ新地榎丁３番地,,30,201,6408353,,,,,,,2023-01-20,1,,,,,キシュウタイヨウモクザイ,0
192,1180003024738,新規,0,2023-01-20,2023-01-20,合同会社Ａｃｔｉｖａｔｉｏｎ　Ｗｏｒｋｓ,,合同会社,愛知県,大府市,北崎町井田４８番地の２,,23,223,4740001,,,,,,,2023-01-20,1,,,,,アクティベーションワークス,0
193,1180005020082,新規,0,2023-01-20,2023-01-20,一般社団法人ＰＬＡＩＮＥ,,その他の設立登記法人,愛知県,名古屋市南区,呼続５丁目１５番６号,,23,112,4570014,,,,,,,2023-01-20,1,,,,,プレイン,0
205,1230001019684,新規,0,2023-01-20,2023-01-20,唐朝株式会社,,株式会社,富山県,富山市,五福３３８３番地４西部ビル２階,,16,201,9300887,,,,,,,2023-01-20,1,,,,,トウチョウ,0
214,1270001008717,新規,0,2023-01-20,2023-01-20,株式会社拜藤不動産鑑定事務所,,株式会社,鳥取県,米子市,加茂町２丁目１１３番地,,31,202,6830823,,,,,,,2023-01-20,1,,,,,ハイトウフドウサンカンテイジムショ,0
220,1290001100257,新規,0,2023-01-20,2023-01-20,株式会社みどりプランニング,,株式会社,福岡県,福岡市早良区,西新２丁目１５番１３－２０２号,,40,137,8140002,,,,,,,2023-01-20,1,,,,,ミドリプランニング,0
221,1290001100298,新規,0,2023-01-20,2023-01-20,株式会社ソトヘ,,株式会社,福岡県,福岡市城南区,西片江１丁目１番１３号アーバンハウス１０２号室,,40,136,8140141,,,,,,,2023-01-20,1,,,,,ソトヘ,0
227,1290005018917,新規,0,2023-01-20,2023-01-20,ＦＪプライベートリート投資法人,,その他の設立登記法人,福岡県,福岡市博多区,住吉１丁目２番２５号,,40,132,8120018,,,,,,,2023-01-20,1,,,,,エフジェイプライベートリート,0
229,1290801029225,新規,0,2023-01-20,2023-01-20,株式会社ＵＣメンテナンス,,株式会社,福岡県,北九州市小倉北区,下富野５丁目４番１８号,,40,106,8020023,,,,,,,2023-01-20,1,,,,,ユーシーメンテナンス,0
233,1340001025309,新規,0,2023-01-20,2023-01-20,株式会社ファーストゲート,,株式会社,鹿児島県,日置市,東市来町神之川１０７８番地３,,46,216,8992204,,,,,,,2023-01-20,1,,,,,ファーストゲート,0
249,1420001018130,新規,0,2023-01-20,2023-01-20,広和建設株式会社,,株式会社,青森県,上北郡六ヶ所村,大字倉内字笹崎４６２番地,,02,411,0393215,,,,,,,2023-01-20,1,,,,,コウワケンセツ,0
254,1430001088255,新規,0,2023-01-20,2023-01-20,株式会社環栄,,株式会社,北海道,江別市,緑ケ丘５１番地の８,,01,217,0690823,,,,,,,2023-01-20,1,,,,,カンエイ,0
255,1430001088263,新規,0,2023-01-20,2023-01-20,株式会社ＯｎｅＤｒａｆｔ,,株式会社,北海道,札幌市東区,北十条東１７丁目１番２６－４０２号,,01,103,0650010,,,,,,,2023-01-20,1,,,,,ワンドラフト,0
256,1430001088271,新規,0,2023-01-20,2023-01-20,株式会社ＰＥＡＫ,,株式会社,北海道,札幌市北区,北二十四条西５丁目１番２１－６０２号,,01,102,0010024,,,,,,,2023-01-20,1,,,,,ピーク,0
263,1462501000943,新規,0,2023-01-20,2023-01-20,株式会社マルシメ宗山漁業,,株式会社,北海道,目梨郡羅臼町,共栄町３１２番地,,01,694,0861816,,,,,,,2023-01-20,1,,,,,マルシメソウヤマギョギョウ,0
268,1500003002958,新規,0,2023-01-20,2023-01-20,田舎倶楽部合同会社,,合同会社,愛媛県,北宇和郡松野町,大字吉野２３９５番地,,38,484,7982111,,,,,,,2023-01-20,1,,,,,イナカクラブ,0
270,1700150113843,新規,0,2023-01-20,2023-01-20,深セン市通銘凱科技有限公司,,外国会社等,,,,,,,,中国広東省深＿市宝安区福永鎮橋頭新村一巷一棟１００６室,00129157,,,,,2023-01-20,1,,,,,シンセンシトウメイカイカギユウゲンコウシ,0
280,2010001232317,新規,0,2023-01-20,2023-01-20,ＪＰＡ第２７０号株式会社,,株式会社,東京都,千代田区,霞が関３丁目２番１号,,13,101,1000013,,,,,,,2023-01-20,1,,,,,ジェイピーエーダイニヒャクナナジュウゴウ,0
281,2010001232325,新規,0,2023-01-20,2023-01-20,ＪＰＡ第２７８号株式会社,,株式会社,東京都,千代田区,霞が関３丁目２番１号,,13,101,1000013,,,,,,,2023-01-20,1,,,,,ジェイピーエーダイニヒャクナナジュウハチゴウ,0
282,2010001232341,新規,0,2023-01-20,2023-01-20,株式会社ＦＲＯＤＯ,,株式会社,東京都,中央区,日本橋３丁目２番１４号新槇町ビル別館第一２階,,13,102,1030027,,,,,,,2023-01-20,1,,,,,フロド,0
283,2010001232382,新規,0,2023-01-20,2023-01-20,株式会社プランハウス,,株式会社,東京都,千代田区,神田須田町１丁目１８番地７プランハウス東京神田１００１号,,13,101,1010041,,,,,,,2023-01-20,1,,,,,プランハウス,0
286,2010003039636,新規,0,2023-01-20,2023-01-20,ＯｐｅｎＫａｎａｌ合同会社,,合同会社,東京都,中央区,銀座１丁目１２番４号Ｎ＆ＥＢＬＤ．６Ｆ,,13,102,1040061,,,,,,,2023-01-20,1,,,,,オープンカナル,0
287,2010003039652,新規,0,2023-01-20,2023-01-20,合同会社すみれ,,合同会社,東京都,千代田区,一ツ橋２丁目６番３号アクシスインベストメントアドバイザーズ株式会社内,,13,101,1010003,,,,,,,2023-01-20,1,,,,,スミレ,0
296,2010401171965,新規,0,2023-01-20,2023-01-20,株式会社ベルテクス・エンターテインメント,,株式会社,東京都,港区,赤坂９丁目７番１号,,13,103,1070052,,,,,,,2023-01-20,1,,,,,ベルテクスエンターテインメント,0
297,2010401171973,新規,0,2023-01-20,2023-01-20,アートオブピース株式会社,,株式会社,東京都,港区,南青山５丁目１１番２４号グレイセス２Ｆ,,13,103,1070062,,,,,,,2023-01-20,1,,,,,アートオブピース,0
298,2010401171981,新規,0,2023-01-20,2023-01-20,株式会社インプラット,,株式会社,東京都,港区,芝５丁目３６番４号札の辻スクエア９階,,13,103,1080014,,,,,,,2023-01-20,1,,,,,インプラット,0
299,2010401172014,新規,0,2023-01-20,2023-01-20,株式会社Ｂｏｇｅｙ,,株式会社,東京都,港区,浜松町２丁目２－１５浜松町ダイヤビル２階,,13,103,1050013,,,,,,,2023-01-20,1,,,,,ボギー,0
301,2010403029253,新規,0,2023-01-20,2023-01-20,合同会社ＨＡＵＫＥＬＩ,,合同会社,東京都,港区,南青山３丁目１番３６号青山丸竹ビル６Ｆ,,13,103,1070062,,,,,,,2023-01-20,1,,,,,ハウケリ,0
307,2010501049896,新規,0,2023-01-20,2023-01-20,株式会社リフラ,,株式会社,東京都,台東区,上野６丁目１番６号御徒町グリーンハイツ１００５号,,13,106,1100005,,,,,,,2023-01-20,1,,,,,リフラ,0
315,2010705003468,新規,0,2023-01-20,2023-01-20,一般社団法人三晃化成,,その他の設立登記法人,東京都,品川区,上大崎３丁目１番１号目黒セントラルスクエア１５階,,13,109,1410021,,,,,,,2023-01-20,1,,,,,サンコウカセイ,0
316,2010903007915,新規,0,2023-01-20,2023-01-20,合同会社ＵＭＥ,,合同会社,東京都,世田谷区,豪徳寺１丁目４１番１６号パルトネール豪徳寺Ａ棟１０２,,13,112,1540021,,,,,,,2023-01-20,1,,,,,ウメ,0
319,2011001152001,新規,0,2023-01-20,2023-01-20,ＢｏｄｙＶｏｉｃｅ株式会社,,株式会社,東京都,目黒区,鷹番３丁目１１－１６ルミエ学芸大学２０５,,13,110,1520004,,,,,,,2023-01-20,1,,,,,ボディボイス,0
320,2011001152083,新規,0,2023-01-20,2023-01-20,ＭＳＫＤ株式会社,,株式会社,東京都,渋谷区,桜丘町２３－１７シティコート桜町４０８,,13,113,1500031,,,,,,,2023-01-20,1,,,,,エムエスケーディー,0
321,2011001152117,新規,0,2023-01-20,2023-01-20,株式会社ＴＡＮＴＡＮ,,株式会社,東京都,目黒区,碑文谷２丁目９番５号,,13,110,1520003,,,,,,,2023-01-20,1,,,,,タンタン,0
322,2011003016039,新規,0,2023-01-20,2023-01-20,合同会社季と清,,合同会社,東京都,渋谷区,恵比寿南１丁目１１番１０号プラウド恵比寿南５０２,,13,113,1500022,,,,,,,2023-01-20,1,,,,,キトセイ,0
323,2011003016088,新規,0,2023-01-20,2023-01-20,ＺｅｒｏＺｅｒｏ合同会社,,合同会社,東京都,渋谷区,神泉町１０番１５号,,13,113,1500045,,,,,,,2023-01-20,1,,,,,ゼロゼロ,0
324,2011003016096,新規,0,2023-01-20,2023-01-20,合同会社ＢＥＥＤＳ,,合同会社,東京都,渋谷区,神宮前６丁目２３番４号桑野ビル２階,,13,113,1500001,,,,,,,2023-01-20,1,,,,,ビーズ,0
325,2011003016146,新規,0,2023-01-20,2023-01-20,シーピンク合同会社,,合同会社,東京都,渋谷区,神宮前６丁目２３番４号桑野ビル２階,,13,113,1500001,,,,,,,2023-01-20,1,,,,,シーピンク,0
329,2011101101543,新規,0,2023-01-20,2023-01-20,ＬＵＹＡＯ株式会社,,株式会社,東京都,新宿区,西新宿４丁目１６番３号－２０５Ｄ,,13,104,1600023,,,,,,,2023-01-20,1,,,,,ルウヤオ,0
330,2011101101568,新規,0,2023-01-20,2023-01-20,知見貿易株式会社,,株式会社,東京都,新宿区,高田馬場１丁目３１－１６ワイムビジネスプラザ高田馬場,,13,104,1690075,,,,,,,2023-01-20,1,,,,,チケンボウエキ,0
331,2011101101576,新規,0,2023-01-20,2023-01-20,株式会社ＦＯＳ,,株式会社,東京都,新宿区,西新宿１丁目４番７号,,13,104,1600023,,,,,,,2023-01-20,1,,,,,エフオーエス,0
333,2011303004643,新規,0,2023-01-20,2023-01-20,テイクミーホーム合同会社,,合同会社,東京都,杉並区,阿佐谷北６丁目２２番１９号,,13,115,1660001,,,,,,,2023-01-20,1,,,,,テイクミーホーム,0
336,2011601026505,新規,0,2023-01-20,2023-01-20,浩然株式会社,,株式会社,東京都,練馬区,関町北５丁目６番７号関町マンション４０１Ｂ,,13,120,1770051,,,,,,,2023-01-20,1,,,,,コウゼン,0
341,2011703003369,新規,0,2023-01-20,2023-01-20,合同会社ラウ,,合同会社,東京都,江戸川区,一之江８丁目３番１号ＴＳビル１階,,13,123,1320024,,,,,,,2023-01-20,1,,,,,ラウ,0
342,2011801041816,新規,0,2023-01-20,2023-01-20,ＥｌｅｋｓＭａｋｅｒ株式会社,,株式会社,東京都,足立区,竹の塚１丁目１３－１３小林ビル３０３号,,13,121,1210813,,,,,,,2023-01-20,1,,,,,エレクスメーカー,0
355,2020001149898,新規,0,2023-01-20,2023-01-20,世紀工業株式会社,,株式会社,神奈川県,横浜市南区,白金町１丁目２２番地２横浜祥ビル２０１,,14,105,2320005,,,,,,,2023-01-20,1,,,,,セイキコウギョウ,0
356,2020001149907,新規,0,2023-01-20,2023-01-20,九越株式会社,,株式会社,神奈川県,横浜市保土ケ谷区,和田２丁目１５番地２プレセランス和田町１０８号室,,14,106,2400065,,,,,,,2023-01-20,1,,,,,,0
368,2030001152026,新規,0,2023-01-20,2023-01-20,株式会社Ｍ　ｐｒｉｄｅ,,株式会社,埼玉県,川口市,差間１丁目２２番２６－２０１号,,11,203,3330816,,,,,,,2023-01-20,1,,,,,エムプライド,0
369,2030001152050,新規,0,2023-01-20,2023-01-20,Ａｒｂｒｅ不動産株式会社,,株式会社,埼玉県,坂戸市,仲町１８番地５,,11,239,3500227,,,,,,,2023-01-20,1,,,,,アルブルフドウサン,0
379,2040001126607,新規,0,2023-01-20,2023-01-20,株式会社ＨＯ,,株式会社,千葉県,千葉市稲毛区,山王町７２番地１８,,12,103,2630002,,,,,,,2023-01-20,1,,,,,エイチオー,0
380,2040001126706,新規,0,2023-01-20,2023-01-20,株式会社テクノトラスト,,株式会社,千葉県,船橋市,新高根２丁目１９番４号,,12,204,2740814,,,,,,,2023-01-20,1,,,,,テクノトラスト,0
400,2060001035640,新規,0,2023-01-20,2023-01-20,アリキン株式会社,,株式会社,栃木県,真岡市,東郷１５０９番地,,09,209,3214304,,,,,,,2023-01-20,1,,,,,アリキン,0
415,2090001017941,新規,0,2023-01-20,2023-01-20,株式会社ＭＩＲＡＩ,,株式会社,山梨県,甲府市,小瀬町６８番地６－５,,19,201,4000836,,,,,,,2023-01-20,1,,,,,ミライ,0
419,2100001036072,新規,0,2023-01-20,2023-01-20,株式会社ウエダローカルファクトリー,,株式会社,長野県,上田市,緑が丘３丁目２３番２１号そら風緑ケ丘３号,,20,203,3860022,,,,,,,2023-01-20,1,,,,,ウエダローカルファクトリー,0
426,2120001251834,新規,0,2023-01-20,2023-01-20,青陳株式会社,,株式会社,大阪府,大阪市東住吉区,鷹合４丁目２１番１６号３Ｆ－Ｆ,,27,121,5460014,,,,,,,2023-01-20,1,,,,,セイチン,0
427,2120001251842,新規,0,2023-01-20,2023-01-20,ＪＡＺＩ株式会社,,株式会社,大阪府,大阪市西成区,玉出中２丁目１４－９エキスポマンション５０６,,27,122,5570044,,,,,,,2023-01-20,1,,,,,ジャズ,0
428,2120001251891,新規,0,2023-01-20,2023-01-20,株式会社ＹＲマネジメント,,株式会社,大阪府,大阪市中央区,玉造１丁目１番２５－７０９号,,27,128,5400004,,,,,,,2023-01-20,1,,,,,ワイアールマネジメント,0
429,2120001251925,新規,0,2023-01-20,2023-01-20,株式会社ＩＺＵＥＬ,,株式会社,大阪府,大阪市中央区,北久宝寺町１丁目５番６号,,27,128,5410057,,,,,,,2023-01-20,1,,,,,イズエル,0
430,2120001251933,新規,0,2023-01-20,2023-01-20,和睿元株式会社,,株式会社,大阪府,大阪市中央区,南船場１丁目１３－４－４０２号,,27,128,5420081,,,,,,,2023-01-20,1,,,,,ワエイゲン,0
436,2120101066868,新規,0,2023-01-20,2023-01-20,株式会社イトウ,,株式会社,大阪府,堺市中区,深井東町２９６３番地１,,27,142,5998235,,,,,,,2023-01-20,1,,,,,イトウ,0
439,2120901047027,新規,0,2023-01-20,2023-01-20,株式会社ＧＰ３,,株式会社,大阪府,高槻市,紺屋町３番１－３２２号,,27,207,5690804,,,,,,,2023-01-20,1,,,,,ジーピースリー,0
440,2120903004463,新規,0,2023-01-20,2023-01-20,合同会社ｗｉｔ,,合同会社,大阪府,高槻市,北園町１８番１号コーケンビル１Ｆ,,27,207,5690802,,,,,,,2023-01-20,1,,,,,ウィット,0
444,2122001036604,新規,0,2023-01-20,2023-01-20,株式会社Ｌｅｇａｃｙ’ｌｌ,,株式会社,大阪府,東大阪市,長田西２丁目６番３０,,27,227,5770016,,,,,,,2023-01-20,1,,,,,レガシル,0
447,2130001073526,新規,0,2023-01-20,2023-01-20,株式会社Ｒ・Ａ,,株式会社,京都府,京都市北区,大宮薬師山東町２９番地２１,,26,101,6038474,,,,,,,2023-01-20,1,,,,,アールエー,0
458,2140001128774,新規,0,2023-01-20,2023-01-20,株式会社ＲＥＬＡＴＩＯＮ,,株式会社,兵庫県,伊丹市,鈴原町６丁目２６ベルフィールド１０７,,28,207,6640882,,,,,,,2023-01-20,1,,,,,リレーション,0
461,2140003018619,新規,0,2023-01-20,2023-01-20,合同会社Ｇｏ・Ｔｏ,,合同会社,兵庫県,神戸市中央区,熊内橋通１丁目２番１－２０３号,,28,110,6510055,,,,,,,2023-01-20,1,,,,,ゴートゥー,0
465,2180001154619,新規,0,2023-01-20,2023-01-20,株式会社Ｔｅａｌｓ,,株式会社,愛知県,小牧市,中央１丁目２２８番地１ライオンズ小牧ステーションレジデンス１２０１,,23,219,4850029,,,,,,,2023-01-20,1,,,,,ティールズ,0
467,2180003024745,新規,0,2023-01-20,2023-01-20,合同会社ねはん,,合同会社,愛知県,名古屋市中区,大須１丁目７番１４号パークＩＭビル２Ｆ,,23,106,4600011,,,,,,,2023-01-20,1,,,,,ネハン,0
474,2230001019683,新規,0,2023-01-20,2023-01-20,株式会社ＡＭＥＳ‐Ｔｒａｄｅ,,株式会社,富山県,富山市,根塚町３丁目７番地６フォンティーヌ今泉Ａ棟２０１号,00129148,16,201,9398204,,,,,,,2023-01-20,1,,,,,アメストレード,0
489,2320003003998,新規,0,2023-01-20,2023-01-20,合同会社工房ＮＥＸＴ４４,,合同会社,大分県,大分市,大字毛井３１４番地の５,,44,201,8700124,,,,,,,2023-01-20,1,,,,,コウボウネクストヨンジュウヨン,0
494,2360003012657,新規,0,2023-01-20,2023-01-20,禅の火合同会社,,合同会社,沖縄県,那覇市,松尾１丁目１０番２４号ホークシティ那覇ビル１階,,47,201,9000014,,,,,,,2023-01-20,1,,,,,ゼンノヒ,0
502,2410001013379,新規,0,2023-01-20,2023-01-20,株式会社ＯＩＣ,,株式会社,秋田県,大館市,字桂城２９明星ビル３Ｆ,,05,204,0170893,,,,,,,2023-01-20,1,,,,,オーアイシー,0
508,2430001088254,新規,0,2023-01-20,2023-01-20,株式会社Ｅ‐ｓｔｙｌｅ,,株式会社,北海道,苫小牧市,ウトナイ南７丁目６番４８号,,01,213,0591307,,,,,,,2023-01-20,1,,,,,イースタイル,0
509,2430001088262,新規,0,2023-01-20,2023-01-20,株式会社ＳＩＧＮＡＬ,,株式会社,北海道,札幌市中央区,南五条西１３丁目２番２０号ＭＡＭＥＧＵＲＡビル２Ｆ,,01,101,0640805,,,,,,,2023-01-20,1,,,,,シグナル,0
522,2500001024730,新規,0,2023-01-20,2023-01-20,藤谷興業株式会社,,株式会社,愛媛県,松山市,西石井１丁目９番２７号,,38,201,7900931,,,,,,,2023-01-20,1,,,,,フジタニコウギョウ,0
523,2500003002957,新規,0,2023-01-20,2023-01-20,合同会社やす,,合同会社,愛媛県,今治市,大浜町３丁目６番１１号,,38,202,7940002,,,,,,,2023-01-20,1,,,,,ヤス,0
525,2700150113842,新規,0,2023-01-20,2023-01-20,温州卓尚家居有限公司,,外国会社等,,,,,,,,中国浙江省温州市温州経済技術開発区海域街道西川路７８号,,,,,,2023-01-20,1,,,,,オンシユウタクシヨウカキヨユウゲンコウシ,0
546,3010001232316,新規,0,2023-01-20,2023-01-20,ＪＰＡ第２６９号株式会社,,株式会社,東京都,千代田区,霞が関３丁目２番１号,,13,101,1000013,,,,,,,2023-01-20,1,,,,,ジェイピーエーダイニヒャクロクジュウキュウゴウ,0
547,3010001232324,新規,0,2023-01-20,2023-01-20,ＪＰＡ第２７７号株式会社,,株式会社,東京都,千代田区,霞が関３丁目２番１号,,13,101,1000013,,,,,,,2023-01-20,1,,,,,ジェイピーエーダイニヒャクナナジュウナナゴウ,0
548,3010001232340,新規,0,2023-01-20,2023-01-20,株式会社Ｎｅｋｏｎｏｔｅ,,株式会社,東京都,千代田区,岩本町２丁目３番１２－２０６号,,13,101,1010032,,,,,,,2023-01-20,1,,,,,ネコノテ,0
549,3010001232349,新規,0,2023-01-20,2023-01-20,シエルエージェンシー株式会社,,株式会社,東京都,千代田区,丸の内１丁目６番５号丸の内北口ビルディング,,13,101,1000005,,,,,,,2023-01-20,1,,,,,シエルエージェンシー,0
550,3010003039635,新規,0,2023-01-20,2023-01-20,Ｗｏｒｌｄ　Ｔｅａ　Ｅｘｐｅｒｔ合同会社,,合同会社,東京都,中央区,銀座６丁目６番１号銀座風月堂ビル５Ｆ,,13,102,1040061,,,,,,,2023-01-20,1,,,,,ワールドティーエキスパート,0
551,3010003039651,新規,0,2023-01-20,2023-01-20,合同会社すずらん,,合同会社,東京都,千代田区,一ツ橋２丁目６番３号アクシスインベストメントアドバイザーズ株式会社内,,13,101,1010003,,,,,,,2023-01-20,1,,,,,スズラン,0
565,3010401172013,新規,0,2023-01-20,2023-01-20,日本プリンステル株式会社,,株式会社,東京都,港区,赤坂２丁目２３番１号アークヒルズ・フロントタワーＩｎＣｏｎｔｒｏｌ内,,13,103,1070052,,,,,,,2023-01-20,1,,,,,,0
566,3010401172021,新規,0,2023-01-20,2023-01-20,ｏｎｅｄｏｇ株式会社,,株式会社,東京都,港区,北青山２丁目１４番４号,,13,103,1070061,,,,,,,2023-01-20,1,,,,,ワンドッグ,0
567,3010403029351,新規,0,2023-01-20,2023-01-20,日本環境開発合同会社,,合同会社,東京都,港区,芝大門２丁目１２番３号,,13,103,1050012,,,,,,,2023-01-20,1,,,,,ニホンカンキョウカイハツ,0
576,3010501049895,新規,0,2023-01-20,2023-01-20,株式会社ＫＮ　ＥＮＴＥＲＴＡＩＮＭＥＮＴ,,株式会社,東京都,台東区,浅草橋１丁目１３－６,,13,106,1110053,,,,,,,2023-01-20,1,,,,,ケイエヌエンターテインメント,0
596,3011001151935,新規,0,2023-01-20,2023-01-20,株式会社ルキナ,,株式会社,東京都,渋谷区,神宮前６丁目２３番４号桑野ビル２階,,13,113,1500001,,,,,,,2023-01-20,1,,,,,ルキナ,0
597,3011001151976,新規,0,2023-01-20,2023-01-20,正伍株式会社,,株式会社,東京都,渋谷区,円山町５番５号,,13,113,1500044,,,,,,,2023-01-20,1,,,,,マサクミ,0
598,3011001152033,新規,0,2023-01-20,2023-01-20,株式会社ｉｎＳａｎｅ,,株式会社,東京都,目黒区,南２丁目１０－６,,13,110,1520013,,,,,,,2023-01-20,1,,,,,インセイン,0
599,3011001152099,新規,0,2023-01-20,2023-01-20,株式会社Ｆａｃｅｎｄｏ,,株式会社,東京都,目黒区,中目黒５丁目７番１５号ｃｏｌｌｉｓ中目黒１０１,,13,110,1530061,,,,,,,2023-01-20,1,,,,,ファチェンド,0
600,3011001152140,新規,0,2023-01-20,2023-01-20,株式会社ＥＤＷ,,株式会社,東京都,渋谷区,神宮前５丁目４６番１６号ＩＬＣＥＮＴＲＯＳＥＲＥＮＯ５０２,,13,113,1500001,,,,,,,2023-01-20,1,,,,,イーディーダブリュー,0
601,3011001152149,新規,0,2023-01-20,2023-01-20,ヴェンティ株式会社,,株式会社,東京都,渋谷区,道玄坂１丁目１０番８号渋谷道玄坂東急ビル２Ｆ－Ｃ,,13,113,1500043,,,,,,,2023-01-20,1,,,,,ヴェンティ,0
603,3011005009907,新規,0,2023-01-20,2023-01-20,Ｍｏｆｆｙ社会保険労務士法人,,その他の設立登記法人,東京都,渋谷区,恵比寿１丁目１９番１５号ウノサワ東急ビル３Ｆ,,13,113,1500013,,,,,,,2023-01-20,1,,,,,モフィー,0
613,3011503005432,新規,0,2023-01-20,2023-01-20,合同会社Ｎｙｓ,,合同会社,東京都,荒川区,西日暮里２丁目１４番５号,,13,118,1160013,,,,,,,2023-01-20,1,,,,,エヌワイエス,0
614,3011801041781,新規,0,2023-01-20,2023-01-20,星元株式会社,,株式会社,東京都,足立区,千住緑町２丁目２７番７号,,13,121,1200044,,,,,,,2023-01-20,1,,,,,ホシモト,0
615,3011801041815,新規,0,2023-01-20,2023-01-20,株式会社恒泰,,株式会社,東京都,葛飾区,お花茶屋２丁目２番５－４０９号,,13,122,1240003,,,,,,,2023-01-20,1,,,,,コウタイ,0
637,3020001149856,新規,0,2023-01-20,2023-01-20,株式会社ＣＯＣＯＲＯｗａｒｋｓ,,株式会社,神奈川県,横浜市西区,西戸部町２丁目２０３番地２９,,14,103,2200046,,,,,,,2023-01-20,1,,,,,ココロワークス,0
638,3020001149906,新規,0,2023-01-20,2023-01-20,ＷＡＫＯＨ＆ＣＯ．株式会社,,株式会社,神奈川県,横浜市中区,桜木町１丁目１０１－１クロスゲート７Ｆ,,14,104,2310062,,,,,,,2023-01-20,1,,,,,ワコーアンドカンパニー,0
639,3020001149914,新規,0,2023-01-20,2023-01-20,株式会社ＺＥＲＯ,,株式会社,神奈川県,横浜市西区,高島２丁目１１番２号スカイメナー横浜５１９,,14,103,2200011,,,,,,,2023-01-20,1,,,,,ゼロ,0
643,3020003023159,新規,0,2023-01-20,2023-01-20,合同会社システム医療研究所,,合同会社,神奈川県,横浜市神奈川区,栄町５－１横浜クリエーションスクエア１４Ｆ,,14,102,2210052,,,,,,,2023-01-20,1,,,,,システムイリョウケンキュウショ,0
653,3030001152017,新規,0,2023-01-20,2023-01-20,株式会社上田工業,,株式会社,埼玉県,新座市,畑中１丁目８番８号,,11,230,3520012,,,,,,,2023-01-20,1,,,,,ウエダコウギョウ,0
656,3030003020972,新規,0,2023-01-20,2023-01-20,ＪＰＣＡ合同会社,,合同会社,埼玉県,深谷市,長在家２６７３－４,,11,218,3691101,,,,,,,2023-01-20,1,,,,,ジェィピーシーエー,0
662,3040001126713,新規,0,2023-01-20,2023-01-20,壹元株式会社,,株式会社,千葉県,八千代市,上高野２３０－１,,12,221,2760022,,,,,,,2023-01-20,1,,,,,イチゲン,0
663,3040001126721,新規,0,2023-01-20,2023-01-20,株式会社ＮＥＸＴ　ＩＮＮＯＶＡＴＩＯＮ,,株式会社,千葉県,君津市,糠田１１５番地１,,12,225,2991104,,,,,,,2023-01-20,1,,,,,ネクストイノベーション,0
677,3050003007167,新規,0,2023-01-20,2023-01-20,ＧＩＬＬＡＮＩ　ＴＲＡＤＩＮＧ合同会社,,合同会社,茨城県,筑西市,玉戸１３０９番地５５大吉亭１０９,,08,227,3080847,,,,,,,2023-01-20,1,,,,,ジラーニトレーディング,0
689,3080401026245,新規,0,2023-01-20,2023-01-20,ＸｉｎＣｈａｏ株式会社,,株式会社,静岡県,浜松市中区,田町２２３番地２１,,22,131,4300944,,,,,,,2023-01-20,1,,,,,シンチャオ,0
690,3080403004703,新規,0,2023-01-20,2023-01-20,合同会社図南の翼農園,,合同会社,静岡県,浜松市中区,板屋町１０２―１５,,22,131,4300928,,,,,,,2023-01-20,1,,,,,トナンノツバサノウエン,0
695,3100003006849,新規,0,2023-01-20,2023-01-20,ゆるりと合同会社,,合同会社,長野県,松本市,元町１丁目６番１８号,,20,202,3900803,,,,,,,2023-01-20,1,,,,,ユルリト,0
696,3100003006857,新規,0,2023-01-20,2023-01-20,日豪ラボ合同会社,,合同会社,長野県,茅野市,北山４０３５番地８１２,,20,214,3910301,,,,,,,2023-01-20,1,,,,,ニチゴウラボ,0
708,3120001251882,新規,0,2023-01-20,2023-01-20,株式会社Ｒｅｐａｉｒ,,株式会社,大阪府,大阪市中央区,谷町６丁目１７番５０号,,27,128,5420012,,,,,,,2023-01-20,1,,,,,リペア,0
710,3120003023306,新規,0,2023-01-20,2023-01-20,合同会社８８,,合同会社,大阪府,大阪市北区,梅田１丁目１－３大阪駅前第３ビル２９階１－１－１号室,,27,127,5300001,,,,,,,2023-01-20,1,,,,,ハチハチ,0
723,3130001073525,新規,0,2023-01-20,2023-01-20,宗介株式会社,,株式会社,京都府,京都市南区,吉祥院三ノ宮西町１３番地１西大路マンション１０２,,26,107,6018318,,,,,,,2023-01-20,1,,,,,ソウスケ,0
727,3130003008470,新規,0,2023-01-20,2023-01-20,ＤＩＹ　ＤＩＳＴＲＩＣＴ合同会社,,合同会社,京都府,京都市中京区,壬生高樋町４６番地ハイツ聖１階,00129162,26,104,6048824,,,,,,,2023-01-20,1,,,,,ディアイワイディストリクト,0
729,3140001128815,新規,0,2023-01-20,2023-01-20,株式会社ベイコローレ,,株式会社,兵庫県,三木市,末広１丁目１番５０号,,28,215,6730403,,,,,,,2023-01-20,1,,,,,ベイコローレ,0
730,3140001128823,新規,0,2023-01-20,2023-01-20,株式会社フォルトゥーナ,,株式会社,兵庫県,川西市,小花１丁目１番１０号,,28,217,6660015,,,,,,,2023-01-20,1,,,,,フォルトゥーナ,0
732,3150005009449,新規,0,2023-01-20,2023-01-20,一般社団法人つむぎ,,その他の設立登記法人,奈良県,奈良市,西大寺東町１丁目４－４６,,29,201,6310821,,,,,,,2023-01-20,1,,,,,ツムギ,0
747,3180303005576,新規,0,2023-01-20,2023-01-20,セルエイド合同会社,,合同会社,愛知県,安城市,住吉町５丁目２７番地３,,23,212,4460072,,,,,,,2023-01-20,1,,,,,セルエイド,0
748,3190001030108,新規,0,2023-01-20,2023-01-20,株式会社アズマランカ,,株式会社,三重県,津市,森町２４６１番地４,,24,201,5141254,,,,,,,2023-01-20,1,,,,,アズマランカ,0
754,3220003003438,新規,0,2023-01-20,2023-01-20,合同会社チャイムカンパニー,,合同会社,石川県,加賀市,大聖寺荒町３２,,17,206,9220034,,,,,,,2023-01-20,1,,,,,チャイムカンパニー,0
756,3230001019682,新規,0,2023-01-20,2023-01-20,株式会社ファーストアシスト,,株式会社,富山県,富山市,藤木２５３８番地５,,16,201,9300936,,,,,,,2023-01-20,1,,,,,ファーストアシスト,0
776,3290801029231,新規,0,2023-01-20,2023-01-20,株式会社ＩＮＮＯＶＡＴＩＯＮ　ＡＣＴ,,株式会社,福岡県,北九州市門司区,上二十町８番４号,,40,101,8000016,,,,,,,2023-01-20,1,,,,,イノベーションアクト,0
777,3310001018230,新規,0,2023-01-20,2023-01-20,ＣＥＧ株式会社,,株式会社,長崎県,五島市,吉田町２５６３番地１,,42,211,8530042,,,,,,,2023-01-20,1,,,,,シーイージー,0
780,3320003003997,新規,0,2023-01-20,2023-01-20,合同会社特殊美装,,合同会社,大分県,大分市,畑中５丁目３番５２号,,44,201,8700856,,,,,,,2023-01-20,1,,,,,トクシュビソウ,0
781,3330003009671,新規,0,2023-01-20,2023-01-20,合同会社注文の多い料理店,,合同会社,熊本県,熊本市西区,上代８丁目６番２０号ウィルモア上代１０２,,43,103,8600068,,,,,,,2023-01-20,1,,,,,チュウモンノオオイリョウリテン,0
785,3360001031476,新規,0,2023-01-20,2023-01-20,Ｓｐｉｎｄｌｅ　Ｊａｐａｎ株式会社,,株式会社,沖縄県,沖縄市,中央１丁目８番９号１階,,47,211,9040004,,,,,,,2023-01-20,1,,,,,スピンドルジャパン,0
788,3370001049518,新規,0,2023-01-20,2023-01-20,ウェブ２株式会社,,株式会社,宮城県,加美郡加美町,羽場字屋敷６６番地３,,04,445,9814271,,,,,,,2023-01-20,1,,,,,ウェブツー,0
805,3400001016134,新規,0,2023-01-20,2023-01-20,株式会社ＤＭＴいわて,,株式会社,岩手県,北上市,大通り１丁目３番１号,,03,206,0240061,,,,,,,2023-01-20,1,,,,,ディーエムティーイワテ,0
808,3410003003749,新規,0,2023-01-20,2023-01-20,合同会社ＭＴ４,,合同会社,秋田県,大館市,中道３丁目１番８５号,,05,204,0170045,,,,,,,2023-01-20,1,,,,,エムティーフォー,0
815,3430001088245,新規,0,2023-01-20,2023-01-20,ＩＧＵ株式会社,,株式会社,北海道,札幌市西区,宮の沢三条５丁目８番５号,,01,107,0630053,,,,,,,2023-01-20,1,,,,,アイジーユー,0
817,3430005014627,新規,0,2023-01-20,2023-01-20,一般社団法人世代間交流文化推進協議会,,その他の設立登記法人,北海道,白老郡白老町,字石山１番地１,,01,578,0590921,,,,,,,2023-01-20,1,,,,,セダイカンコウリュウブンカスイシンキョウギカイ,0
821,3470001019436,新規,0,2023-01-20,2023-01-20,株式会社ヤマグチモーターサービス,,株式会社,香川県,三豊市,詫間町大浜甲１３２５番地１,,37,208,7691104,,,,,,,2023-01-20,1,,,,,ヤマグチモーターサービス,0
824,3490003001729,新規,0,2023-01-20,2023-01-20,ＰＯＰコミュニケーション合同会社,,合同会社,高知県,吾川郡いの町,枝川２６０１番地１０６,,39,386,7812120,,,,,,,2023-01-20,1,,,,,ポップコミュニケーション,0
825,3700150023628,新規,0,2023-01-20,2015-10-09,天保山マーケットプレース会,,その他,大阪府,大阪市港区,海岸通１丁目１－１０株式会社海遊館　内,,27,107,5520022,,,,,,,2015-10-09,1,,,,,テンポウザンマーケツトプレースカイ,0
826,3700150097746,新規,0,2023-01-20,2020-02-04,百舌鳥・古市古墳群世界遺産協議会,,その他,大阪府,大阪市住之江区,南港北１丁目１４－１６大阪府咲洲庁舎３７階,,27,125,5590034,,,,,,,2020-02-04,1,,,,,モズフルイチコフングンセカイイサンキヨウギカイ,0
827,3700150113115,新規,0,2023-01-20,2022-11-30,ＴＨＥ　だいじょぶズ,,その他,東京都,世田谷区,千歳台４丁目２６番１９－３０４,,13,112,1570071,,,,,,,2022-11-30,1,,,,,ザダイジヨブズ,0
842,4010001232323,新規,0,2023-01-20,2023-01-20,ＪＰＡ第２７６号株式会社,,株式会社,東京都,千代田区,霞が関３丁目２番１号,,13,101,1000013,,,,,,,2023-01-20,1,,,,,ジェイピーエーダイニヒャクナナジュウロクゴウ,0
843,4010001232364,新規,0,2023-01-20,2023-01-20,株式会社ＤＥＦＴ,,株式会社,東京都,千代田区,神田三崎町３丁目１０番４号ウィスク三崎町ビル７階,,13,101,1010061,,,,,,,2023-01-20,1,,,,,デフト,0
844,4010001232389,新規,0,2023-01-20,2023-01-20,株式会社ＭＦＣＪ,,株式会社,東京都,中央区,京橋３丁目９番９号,,13,102,1040031,,,,,,,2023-01-20,1,,,,,エムエフシージェイ,0
854,4010401171848,新規,0,2023-01-20,2023-01-20,株式会社ＮＯＲＴＨＬＩＢＥＲＴＹ,,株式会社,東京都,港区,浜松町２丁目２番１５号,,13,103,1050013,,,,,,,2023-01-20,1,,,,,ノースリバティー,0
855,4010401171930,新規,0,2023-01-20,2023-01-20,彩虹橋株式会社,,株式会社,東京都,港区,新橋６丁目８番１－３０５号,,13,103,1050004,,,,,,,2023-01-20,1,,,,,サイコウキョウ,0
856,4010401171996,新規,0,2023-01-20,2023-01-20,Ｌｅ７ｅｍｅ株式会社,,株式会社,東京都,港区,南青山７丁目１３番２－２１４号,,13,103,1070062,,,,,,,2023-01-20,1,,,,,ルセッティエム,0
857,4010401172012,新規,0,2023-01-20,2023-01-20,株式会社Ｍ・ＲＡＭ,,株式会社,東京都,港区,新橋３丁目１１－８,,13,103,1050004,,,,,,,2023-01-20,1,,,,,エムドットラム,0
861,4010403029202,新規,0,2023-01-20,2023-01-20,Ｃｌｏｃｋｗｏｒｋｓ合同会社,,合同会社,東京都,港区,南青山３丁目１番３６号青山丸竹ビル６Ｆ,,13,103,1070062,,,,,,,2023-01-20,1,,,,,クロックワークス,0
862,4010403029292,新規,0,2023-01-20,2023-01-20,合同会社ｗｉｔｈ　ｍｅ,,合同会社,東京都,港区,高輪２丁目１６番２８号,,13,103,1080074,,,,,,,2023-01-20,1,,,,,,0
878,4010603009953,新規,0,2023-01-20,2023-01-20,ＮＡＮＹＫＡ合同会社,,合同会社,東京都,江東区,亀戸７丁目４４－２,,13,108,1360071,,,,,,,2023-01-20,1,,,,,ナニカ,0
885,4010901052366,新規,0,2023-01-20,2023-01-20,株式会社ＯＳＡＴＳＵ,,株式会社,東京都,世田谷区,北沢１丁目２７番４号フラットキタザワ２０３,,13,112,1550031,,,,,,,2023-01-20,1,,,,,オサツ,0
886,4010903007896,新規,0,2023-01-20,2023-01-20,ＡＷＥＳＯＭＥ　ＡＲＴ　ＢＯＹ合同会社,,合同会社,東京都,世田谷区,玉川４丁目２１番１‐１０６号,,13,112,1580094,,,,,,,2023-01-20,1,,,,,オーサムアートボーイ,0
891,4011001151793,新規,0,2023-01-20,2023-01-20,株式会社ＣｏｒｅＬａｂｏ　Ｐｒｏｍｏｔｉｏｎ,,株式会社,東京都,渋谷区,神宮前６丁目２３－４桑野ビル２階,,13,113,1500001,,,,,,,2023-01-20,1,,,,,コアラボプロモーション,0
892,4011001151918,新規,0,2023-01-20,2023-01-20,株式会社ニリック,,株式会社,東京都,渋谷区,渋谷２丁目１９－１５宮益坂ビルディング６０９,,13,113,1500002,,,,,,,2023-01-20,1,,,,,ニリック,0
894,4011003015848,新規,0,2023-01-20,2023-01-20,合同会社ＬＯＯＰＥＲ,,合同会社,東京都,渋谷区,恵比寿西１丁目８－８ライオンズマンション小川恵比寿９０４,,13,113,1500021,,,,,,,2023-01-20,1,,,,,ルーパー,0
895,4011003016103,新規,0,2023-01-20,2023-01-20,Ｂａｌｃｏｎｙ合同会社,,合同会社,東京都,渋谷区,恵比寿西１丁目３６－２コノエ代官山４１１,,13,113,1500021,,,,,,,2023-01-20,1,,,,,バルコニー,0
896,4011003016152,新規,0,2023-01-20,2023-01-20,Ｄｏｓ合同会社,,合同会社,東京都,渋谷区,道玄坂１丁目１０番８号渋谷道玄坂東急ビル２Ｆ－Ｃ,,13,113,1500043,,,,,,,2023-01-20,1,,,,,ドス,0
902,4011101101566,新規,0,2023-01-20,2023-01-20,富盛株式会社,,株式会社,東京都,新宿区,西新宿４丁目２５番１６号後藤マンション３０１,,13,104,1600023,,,,,,,2023-01-20,1,,,,,トミモリ,0
906,4011201024361,新規,0,2023-01-20,2023-01-20,誠福商貿株式会社,,株式会社,東京都,中野区,上高田２丁目４６－３杏ハウス２０１号,,13,114,1640002,,,,,,,2023-01-20,1,,,,,セイフクショウボウ,0
908,4011401024839,新規,0,2023-01-20,2023-01-20,株式会社たなと住宅,,株式会社,東京都,板橋区,東新町１丁目７番１１号,,13,119,1740074,,,,,,,2023-01-20,1,,,,,タナトジュウタク,0
912,4011501028888,新規,0,2023-01-20,2023-01-20,東江株式会社,,株式会社,東京都,荒川区,町屋３丁目２４番２号面川ビル３０２号室,,13,118,1160001,,,,,,,2023-01-20,1,,,,,トウエ,0
914,4011601026511,新規,0,2023-01-20,2023-01-20,株式会社ＦＵＶＥＮＴ,,株式会社,東京都,練馬区,関町北５丁目１７番１７号,,13,120,1770051,,,,,,,2023-01-20,1,,,,,フューベント,0
915,4011701025958,新規,0,2023-01-20,2023-01-20,株式会社Ｓ‐ＴＥＣ,,株式会社,東京都,江戸川区,東葛西９丁目３番１４－２０４号,,13,123,1340084,,,,,,,2023-01-20,1,,,,,エステック,0
918,4011801041814,新規,0,2023-01-20,2023-01-20,界立産業株式会社,,株式会社,東京都,葛飾区,四つ木４丁目３０番３０号,,13,122,1240011,,,,,,,2023-01-20,1,,,,,カイリツサンギョウ,0
928,4013301050213,新規,0,2023-01-20,2023-01-20,株式会社エース,,株式会社,東京都,豊島区,西池袋３丁目１７－１９,,13,116,1710021,,,,,,,2023-01-20,1,,,,,エース,0
938,4020001149913,新規,0,2023-01-20,2023-01-20,株式会社ＡＺ　ＳＴＹＬＥ,,株式会社,神奈川県,横浜市鶴見区,仲通２丁目６４－９,,14,101,2300042,,,,,,,2023-01-20,1,,,,,アズスタイル,0
946,4030001152024,新規,0,2023-01-20,2023-01-20,マタケ企画株式会社,,株式会社,埼玉県,志木市,本町４丁目７－２０,,11,228,3530004,,,,,,,2023-01-20,1,,,,,マタケキカク,0
947,4030001152049,新規,0,2023-01-20,2023-01-20,株式会社ホワイトサービス,,株式会社,埼玉県,八潮市,大字八條１７５番地５,,11,234,3400801,,,,,,,2023-01-20,1,,,,,ホワイトサービス,0
953,4040001126729,新規,0,2023-01-20,2023-01-20,工藝新潮株式会社,,株式会社,千葉県,柏市,西原５丁目１４番４５号スウィートホーム柏８８Ａ－２０４室,,12,217,2770885,,,,,,,2023-01-20,1,,,,,コウゲイシンチョウ,0
959,4040003021738,新規,0,2023-01-20,2023-01-20,合同会社おさかな治療院,,合同会社,千葉県,市原市,加茂１丁目７番地９,,12,219,2900025,,,,,,,2023-01-20,1,,,,,オサカナチリョウイン,0
965,4050003007174,新規,0,2023-01-20,2023-01-20,合同会社ＳＨＡＨＩＤ　ＪＡＰＡＮ,,合同会社,茨城県,筑西市,門井１４５８番地１リードハイツ２０１,,08,227,3091107,,,,,,,2023-01-20,1,,,,,シャヒドジャパン,0
976,4080401026260,新規,0,2023-01-20,2023-01-20,不動産ミック株式会社,,株式会社,静岡県,袋井市,旭町１丁目１８番地の２７,,22,216,4370015,,,,,,,2023-01-20,1,,,,,フドウサンミック,0
977,4080405007521,新規,0,2023-01-20,2023-01-20,一般社団法人波なり,,その他の設立登記法人,静岡県,御前崎市,白羽５７５４番地の２,,22,223,4371622,,,,,,,2023-01-20,1,,,,,ナミナリ,0
980,4100001036054,新規,0,2023-01-20,2023-01-20,ハウスイノベーション株式会社,,株式会社,長野県,飯田市,上郷黒田３４７０番地１,,20,205,3950004,,,,,,,2023-01-20,1,,,,,ハウスイノベーション,0
983,4110003004966,新規,0,2023-01-20,2023-01-20,石山商事合同会社,,合同会社,新潟県,新潟市東区,中野山６丁目２－１０－１０６号,,15,102,9500841,,,,,,,2023-01-20,1,,,,,イシヤマショウジ,0
988,4120001251865,新規,0,2023-01-20,2023-01-20,スタートライフ株式会社,,株式会社,大阪府,大阪市淀川区,西中島１丁目１４番１７号,,27,123,5320011,,,,,,,2023-01-20,1,,,,,スタートライフ,0
989,4120001251907,新規,0,2023-01-20,2023-01-20,株式会社エイリアン,,株式会社,大阪府,大阪市淀川区,新北野３丁目７－２３－１１１,,27,123,5320025,,,,,,,2023-01-20,1,,,,,エイリアン,0
990,4120001251923,新規,0,2023-01-20,2023-01-20,毅通株式会社,,株式会社,大阪府,大阪市城東区,中浜１丁目１７－１４－４Ｃ,,27,118,5360024,,,,,,,2023-01-20,1,,,,,キツウ,0
992,4120003023288,新規,0,2023-01-20,2023-01-20,合同会社Ｌｉｎｋ＆Ａ,,合同会社,大阪府,大阪市中央区,安土町３丁目３番９号田村駒ビル４階,,27,128,5410052,,,,,,,2023-01-20,1,,,,,リンクアンドエイ,0
993,4120101066866,新規,0,2023-01-20,2023-01-20,佐一商事株式会社,,株式会社,大阪府,高石市,千代田１丁目２５番１８号,,27,225,5920005,,,,,,,2023-01-20,1,,,,,サイチショウジ,0
995,4120103005038,新規,0,2023-01-20,2023-01-20,合同会社フジコウ,,合同会社,大阪府,堺市東区,北野田５２５番地１３,,27,143,5998123,,,,,,,2023-01-20,1,,,,,フジコウ,0
998,4120901047025,新規,0,2023-01-20,2023-01-20,株式会社ｓｐａｒｋｌｅ,,株式会社,大阪府,高槻市,芝谷町３４番２５号,,27,207,5691025,,,,,,,2023-01-20,1,,,,,スパークル,0
999,4120905006407,新規,0,2023-01-20,2023-01-20,一般社団法人日本臨床バイオメカニクス学会,,その他の設立登記法人,大阪府,吹田市,山田丘２番２号,,27,205,5650871,,,,,,,2023-01-20,1,,,,,ニホンリンショウバイオメカニクスガッカイ,0
1003,4130001073516,新規,0,2023-01-20,2023-01-20,ＳＴＡＲＳ株式会社,,株式会社,京都府,京都市伏見区,桃山町泰長老１６０番地４,,26,109,6128034,,,,,,,2023-01-20,1,,,,,スターズ,0
1006,4130003008461,新規,0,2023-01-20,2023-01-20,合同会社ＳＨＯＷＴＡ,,合同会社,京都府,京都市伏見区,深草西伊達町８７－９２,,26,109,6120876,,,,,,,2023-01-20,1,,,,,ショウタ,0
1011,4140001128582,新規,0,2023-01-20,2023-01-20,宝塚霊園グループ株式会社,,株式会社,兵庫県,宝塚市,御殿山４丁目２０番４３号,,28,214,6650841,,,,,,,2023-01-20,1,,,,,タカラヅカレイエングループ,0
1013,4140003018617,新規,0,2023-01-20,2023-01-20,神戸日の出合同会社,,合同会社,兵庫県,神戸市兵庫区,西出町２丁目１２番２－２号,,28,105,6520822,,,,,,,2023-01-20,1,,,,,コウベヒノデ,0
1019,4170001017444,新規,0,2023-01-20,2023-01-20,株式会社タイジＡＰ,,株式会社,和歌山県,日高郡みなべ町,山内１３３９番地,,30,391,6450012,,,,,,,2023-01-20,1,,,,,タイジエーピー,0
1038,4240001060981,新規,0,2023-01-20,2023-01-20,株式会社広島アニメーション,,株式会社,広島県,廿日市市,宮園５丁目１１番地１５,,34,213,7380035,,,,,,,2023-01-20,1,,,,,ヒロシマアニメーション,0
1040,4240003005927,新規,0,2023-01-20,2023-01-20,尾道メディカルグループ合同会社,,合同会社,広島県,尾道市,因島土生町２４１６－２,,34,205,7222323,,,,,,,2023-01-20,1,,,,,,0
1046,4260003004167,新規,0,2023-01-20,2023-01-20,合同会社ＳＳ,,合同会社,岡山県,岡山市南区,藤田６６７番地１３（２０３号）,,33,104,7010221,,,,,,,2023-01-20,1,,,,,エスエス,0
1054,4290001100287,新規,0,2023-01-20,2023-01-20,株式会社キラリラボ,,株式会社,福岡県,福岡市西区,小戸４丁目１４番１８－２０１号,,40,135,8190001,,,,,,,2023-01-20,1,,,,,キラリラボ,0
1065,4340001025306,新規,0,2023-01-20,2023-01-20,株式会社ＬｉＰ,,株式会社,鹿児島県,鹿児島市,西千石町１１番２１号鹿児島ＭＳビル５階,,46,201,8920847,,,,,,,2023-01-20,1,,,,,リップ,0
1067,4350003004273,新規,0,2023-01-20,2023-01-20,レイドベース合同会社,,合同会社,宮崎県,宮崎市,吉村町上西中甲１４００番地１８,,45,201,8800841,,,,,,,2023-01-20,1,,,,,レイドベース,0
1073,4370001049517,新規,0,2023-01-20,2023-01-20,株式会社ｖｉａｓ,,株式会社,宮城県,仙台市太白区,中田５丁目１６番１７号Ｕステージ２,,04,104,9811104,,,,,,,2023-01-20,1,,,,,ヴィアス,0
1074,4370001049525,新規,0,2023-01-20,2023-01-20,株式会社タンブルウィード,,株式会社,宮城県,大崎市,鳴子温泉字沢目木４２番地１,,04,215,9896712,,,,,,,2023-01-20,1,,,,,タンブルウィード,0
1078,4370003005955,新規,0,2023-01-20,2023-01-20,近未来合同会社,,合同会社,宮城県,登米市,迫町北方字石打坂１３６番地１,,04,212,9870513,,,,,,,2023-01-20,1,,,,,キンミライ,0
1086,4400001016133,新規,0,2023-01-20,2023-01-20,株式会社ウッディライフサービス,,株式会社,岩手県,花巻市,大迫町内川目第５地割８７番地,,03,205,0283201,,,,,,,2023-01-20,1,,,,,,0
1090,4430001088252,新規,0,2023-01-20,2023-01-20,株式会社とことこ,,株式会社,北海道,札幌市白石区,東札幌三条６丁目１番２号第１小竹ビル３階,,01,104,0030003,,,,,,,2023-01-20,1,,,,,トコトコ,0
1095,4460001005766,新規,0,2023-01-20,2023-01-20,株式会社リーチ,,株式会社,北海道,釧路市,治水町１０番１０号,,01,206,0850055,,,,,,,2023-01-20,1,,,,,リーチ,0
1096,4460103001507,新規,0,2023-01-20,2023-01-20,合同会社ＩＣＨＩ　ＫＡＫＵ,,合同会社,北海道,帯広市,西十二条南３丁目１番地３９,,01,207,0800022,,,,,,,2023-01-20,1,,,,,イチカク,0
1104,4700150113840,新規,0,2023-01-20,2023-01-20,北京華茂中天建築規劃設計有限公司,,外国会社等,東京都,台東区,千束３丁目２１－１２キートスビル２０５,,13,106,1110031,中国北京市門頭溝区石龍経済開発区永安路２０号３号楼一層１０３室,,,,,,2023-01-20,1,,,,,ペキンカモチユウテンケンチクキカクセツケイユウゲンコウシ,0
1111,5010001232322,新規,0,2023-01-20,2023-01-20,ＪＰＡ第２７５号株式会社,,株式会社,東京都,千代田区,霞が関３丁目２番１号,,13,101,1000013,,,,,,,2023-01-20,1,,,,,ジェイピーエーダイニヒャクナナジュウゴゴウ,0
1112,5010001232330,新規,0,2023-01-20,2023-01-20,株式会社ＡＶＡＴＡＲ,,株式会社,東京都,中央区,八丁堀４丁目８番１号,,13,102,1040032,,,,,,,2023-01-20,1,,,,,アバター,0
1115,5010003039492,新規,0,2023-01-20,2023-01-20,ＯＶＥＲＬＡＰ合同会社,,合同会社,東京都,千代田区,神田須田町１丁目７番地１,,13,101,1010041,,,,,,,2023-01-20,1,,,,,オーバーラップ,0
1116,5010003039583,新規,0,2023-01-20,2023-01-20,合同会社ＯＵＤ　Ｐｒｏ．,,合同会社,東京都,文京区,白山４丁目３６番１６－６０１号,,13,105,1120001,,,,,,,2023-01-20,1,,,,,オードプロ,0
1125,5010401171855,新規,0,2023-01-20,2023-01-20,ＲＩＮＮＥ株式会社,,株式会社,東京都,港区,南麻布２丁目５－２１イデア南麻布６階,,13,103,1060047,,,,,,,2023-01-20,1,,,,,リンネ,0
1126,5010401171863,新規,0,2023-01-20,2023-01-20,株式会社メカル開発研究所,,株式会社,東京都,港区,南青山３丁目１６番１４号プラサーダ青山２０２,,13,103,1070062,,,,,,,2023-01-20,1,,,,,メカルカイハツケンキュウジョ,0
1127,5010401171995,新規,0,2023-01-20,2023-01-20,Ｆｌｏｗ株式会社,,株式会社,東京都,港区,高輪１丁目２３番１－６０２号,,13,103,1080074,,,,,,,2023-01-20,1,,,,,フロウ,0
1128,5010401172011,新規,0,2023-01-20,2023-01-20,ＹＳＰ株式会社,,株式会社,東京都,港区,海岸１丁目１－１－３８０６,,13,103,1050022,,,,,,,2023-01-20,1,,,,,ワイエスピー,0
1145,5010601062433,新規,0,2023-01-20,2023-01-20,株式会社栄興商事,,株式会社,東京都,墨田区,江東橋４丁目２１－６－１２０８,,13,107,1300022,,,,,,,2023-01-20,1,,,,,エイコウショウジ,0
1161,5011001151875,新規,0,2023-01-20,2023-01-20,Ｓｉｌｋ　ａｎｄ　Ｄｅｎｉｍ株式会社,,株式会社,東京都,渋谷区,神南１丁目１３－８パーク・アヴェニュー神南９０１,,13,113,1500041,,,,,,,2023-01-20,1,,,,,シルクアンドデニム,0
1162,5011001151933,新規,0,2023-01-20,2023-01-20,株式会社テンリュウエナジー,,株式会社,東京都,渋谷区,神宮前６丁目２３番４号桑野ビル２階,,13,113,1500001,,,,,,,2023-01-20,1,,,,,テンリュウエナジー,0
1163,5011001151958,新規,0,2023-01-20,2023-01-20,ＮＥＷ　ＳＴＡＮＤＡＲＤ株式会社,,株式会社,東京都,渋谷区,代官山町８－７,,13,113,1500034,,,,,,,2023-01-20,1,,,,,ニュースタンダード,0
1164,5011001152114,新規,0,2023-01-20,2023-01-20,株式会社Ａｌｍａ　Ｆａｍｉｌｉａ,,株式会社,東京都,渋谷区,恵比寿１丁目２３番９号,,13,113,1500013,,,,,,,2023-01-20,1,,,,,アルマファミリア,0
1167,5011003016102,新規,0,2023-01-20,2023-01-20,合同会社ＴＲ３,,合同会社,東京都,渋谷区,神宮前３丁目３７番１－１１０７号ザ・神宮前レジデンス,,13,113,1500001,,,,,,,2023-01-20,1,,,,,ティーアールスリー,0
1172,5011101101557,新規,0,2023-01-20,2023-01-20,株式会社Ｂａｙ,,株式会社,東京都,新宿区,歌舞伎町１丁目１番１９号,,13,104,1600021,,,,,,,2023-01-20,1,,,,,ベイ,0
1173,5011101101565,新規,0,2023-01-20,2023-01-20,株式会社ＣＸ,,株式会社,東京都,新宿区,西新宿３丁目３番１３号,,13,104,1600023,,,,,,,2023-01-20,1,,,,,シーエックス,0
1174,5011103012620,新規,0,2023-01-20,2023-01-20,合同会社Ｂｅｃａｒｎｅｔ,,合同会社,東京都,新宿区,西新宿７丁目５－１４井上ビル１２号館７Ｆ７０２,,13,104,1600023,,,,,,,2023-01-20,1,,,,,ビカルネ,0
1179,5011401024838,新規,0,2023-01-20,2023-01-20,株式会社ＷａｇａＭａｍａ,,株式会社,東京都,板橋区,西台４丁目２番３号,,13,119,1750045,,,,,,,2023-01-20,1,,,,,ワガママ,0
1183,5011501028887,新規,0,2023-01-20,2023-01-20,株式会社幸健,,株式会社,東京都,荒川区,町屋４丁目３６番１５号パールシティ町屋７０１号室,,13,118,1160001,,,,,,,2023-01-20,1,,,,,コウケン,0
1190,5012301013286,新規,0,2023-01-20,2023-01-20,株式会社港住建,,株式会社,東京都,町田市,西成瀬２丁目３２番６号,,13,209,1940046,,,,,,,2023-01-20,1,,,,,ミナトジュウケン,0
1196,5012403005784,新規,0,2023-01-20,2023-01-20,合同会社ＮＥＯ,,合同会社,東京都,小金井市,緑町５丁目１７－２０小針ビル,,13,210,1840003,,,,,,,2023-01-20,1,,,,,ネオ,0
1208,5020001149912,新規,0,2023-01-20,2023-01-20,株式会社Ｆａｄｏ　ｂ．,,株式会社,神奈川県,横浜市南区,吉野町５丁目２７番地７シャトレ吉野町１００４号,,14,105,2320014,,,,,,,2023-01-20,1,,,,,ファドビー,0
1209,5020001149920,新規,0,2023-01-20,2023-01-20,Ｓｕｐｐｏｒｔ　Ａｎｄ株式会社,,株式会社,神奈川県,横浜市西区,浅間町１丁目７－１ＢＩＺｃｏｍｆｏｒｔ横浜西口３Ｆ,,14,103,2200072,,,,,,,2023-01-20,1,,,,,サポートアンド,0
1210,5020001149929,新規,0,2023-01-20,2023-01-20,株式会社お見合い横丁,,株式会社,神奈川県,横浜市西区,北幸２丁目１０番２８号むつみビル３Ｆ,,14,103,2200004,,,,,,,2023-01-20,1,,,,,オミアイヨコチョウ,0
1224,5030001151966,新規,0,2023-01-20,2023-01-20,Ｉ．Ｋ．Ｉ株式会社,,株式会社,埼玉県,川越市,新富町１丁目１７番地１５文明堂ビル１階,,11,201,3500043,,,,,,,2023-01-20,1,,,,,アイケイアイ,0
1225,5030001152015,新規,0,2023-01-20,2023-01-20,株式会社ｍａｍｅｒｕ　ｍａｒｃｈｅ,,株式会社,埼玉県,さいたま市北区,宮原町４丁目４６番地５,,11,102,3310812,,,,,,,2023-01-20,1,,,,,マメルマルシェ,0
1236,5040001126744,新規,0,2023-01-20,2023-01-20,株式会社メイク,,株式会社,千葉県,船橋市,習志野１丁目１３番２５号,,12,204,2740071,,,,,,,2023-01-20,1,,,,,メイク,0
1237,5040003021613,新規,0,2023-01-20,2023-01-20,合同会社ＴＳＣ,,合同会社,千葉県,柏市,若柴１７８番地４柏の葉キャンパス１４８街区１,,12,217,2770871,,,,,,,2023-01-20,1,,,,,ティエスシー,0
1239,5050001052246,新規,0,2023-01-20,2023-01-20,株式会社ｎｏｗｎｅｘｔ,,株式会社,茨城県,守谷市,松並青葉１丁目１番地１レーベン守谷ＴＨＥＳＱＵＡＲＥ６２６,,08,224,3020132,,,,,,,2023-01-20,1,,,,,ナウネクスト,0
1241,5050003007165,新規,0,2023-01-20,2023-01-20,ＳＲＳ　ｓｐｉｃｙ　ｓｈｏｐ合同会社,,合同会社,茨城県,龍ケ崎市,佐貫４丁目１５番地１０ウイングＣ・Ｄ号室,,08,208,3010032,,,,,,,2023-01-20,1,,,,,エスアールエススパイシーショップ,0
1255,5100003006855,新規,0,2023-01-20,2023-01-20,合同会社コネクト,,合同会社,長野県,下伊那郡松川町,元大島９３２－４,,20,402,3993303,,,,,,,2023-01-20,1,,,,,コネクト,0
1265,5120001251848,新規,0,2023-01-20,2023-01-20,株式会社ＧｌｏｗＢｅｅ,,株式会社,大阪府,大阪市淀川区,新北野１丁目１３番１３号,,27,123,5320025,,,,,,,2023-01-20,1,,,,,グロービー,0
1266,5120001251864,新規,0,2023-01-20,2023-01-20,株式会社ＳｏＬｕｎＡ,,株式会社,大阪府,大阪市天王寺区,筆ケ崎町５番３９－２００４号,,27,109,5430027,,,,,,,2023-01-20,1,,,,,ソルナ,0
1267,5120001251930,新規,0,2023-01-20,2023-01-20,株式会社ＬＩＭ,,株式会社,大阪府,大阪市淀川区,十三東１丁目１２－２７－１階,,27,123,5320023,,,,,,,2023-01-20,1,,,,,リム,0
1271,5120101066865,新規,0,2023-01-20,2023-01-20,株式会社ｐｒｕｗｉｓ,,株式会社,大阪府,泉大津市,池浦町３丁目１７番１５号,,27,206,5950024,,,,,,,2023-01-20,1,,,,,プリュウィス,0
1274,5130001073523,新規,0,2023-01-20,2023-01-20,株式会社ＵＭＥＺＥＮ,,株式会社,京都府,京都市上京区,元誓願寺通千本西入松屋町３９１番地,,26,102,6028465,,,,,,,2023-01-20,1,,,,,ウメゼン,0
1276,5130003008460,新規,0,2023-01-20,2023-01-20,合同会社アワーファーム,,合同会社,京都府,京都市下京区,東塩小路町６０７番地辰巳ビル１階,,26,106,6000000,,,,,,,2023-01-20,1,,,,,アワーファーム,0
1286,5140001128805,新規,0,2023-01-20,2023-01-20,株式会社新辰,,株式会社,兵庫県,神戸市中央区,坂口通４丁目２番１４号,,28,110,6510062,,,,,,,2023-01-20,1,,,,,シンタツ,0
1287,5140001128813,新規,0,2023-01-20,2023-01-20,株式会社ベアズガーデン,,株式会社,兵庫県,姫路市,田寺東２丁目１７番１４号,,28,201,6700081,,,,,,,2023-01-20,1,,,,,ベアズガーデン,0
1304,5180001154632,新規,0,2023-01-20,2023-01-20,尊蓮商事株式会社,,株式会社,愛知県,名古屋市昭和区,白金２丁目８番１－４０４,,23,107,4660058,,,,,,,2023-01-20,1,,,,,タカハスショウジ,0
1305,5180001154640,新規,0,2023-01-20,2023-01-20,株式会社ＫＳＧ,,株式会社,愛知県,名古屋市中川区,東中島町２丁目８７番地,,23,110,4540866,,,,,,,2023-01-20,1,,,,,ケーエスジー,0
1312,5190001030114,新規,0,2023-01-20,2023-01-20,株式会社ｃｒｏｓｓＺＥＲＯ,,株式会社,三重県,伊賀市,外山９２番地,,24,216,5180011,,,,,,,2023-01-20,1,,,,,クロスゼロ,0
1316,5210003001606,新規,0,2023-01-20,2023-01-20,庵戸まなぶ合同会社,,合同会社,福井県,大野市,田野４－４２,,18,205,9120827,,,,,,,2023-01-20,1,,,,,イオトマナブ,0
1324,5240001060980,新規,0,2023-01-20,2023-01-20,株式会社ＡｒａｉｆａＭ,,株式会社,広島県,庄原市,板橋町６９番地９,,34,210,7270014,,,,,,,2023-01-20,1,,,,,アライファム,0
1328,5250003003210,新規,0,2023-01-20,2023-01-20,ＯＨＭＩ合同会社,,合同会社,山口県,下関市,彦島江の浦町９丁目１番地５号,,35,201,7500075,,,,,,,2023-01-20,1,,,,,オウミ,0
1329,5260001037597,新規,0,2023-01-20,2023-01-20,株式会社アクティナ,,株式会社,岡山県,岡山市北区,西崎１丁目１０番２７号,,33,101,7000055,,,,,,,2023-01-20,1,,,,,アクティナ,0
1330,5260003004166,新規,0,2023-01-20,2023-01-20,合同会社ＭＫＴ,,合同会社,岡山県,岡山市南区,大福４７５番地５南棟１０２,,33,104,7010204,,,,,,,2023-01-20,1,,,,,エムケイティー,0
1332,5270003001476,新規,0,2023-01-20,2023-01-20,合同会社アイオライト,,合同会社,鳥取県,米子市,河岡３８番地４７,,31,202,6893521,,,,,,,2023-01-20,1,,,,,アイオライト,0
1340,5290001100303,新規,0,2023-01-20,2023-01-20,株式会社いちむじん,,株式会社,福岡県,福岡市博多区,榎田２丁目３番１号,,40,132,8120004,,,,,,,2023-01-20,1,,,,,イチムジン,0
1342,5290005018921,新規,0,2023-01-20,2023-01-20,医療法人唯璃会,,その他の設立登記法人,福岡県,福岡市中央区,笹丘１丁目２８番７４号２階,,40,133,8100034,,,,,,,2023-01-20,1,,,,,ユイリカイ,0
1346,5310001018229,新規,0,2023-01-20,2023-01-20,株式会社プレイフィールド,,株式会社,長崎県,大村市,向木場町１１９７番地２,,42,205,8560045,,,,,,,2023-01-20,1,,,,,プレイフィールド,0
1347,5320001019531,新規,0,2023-01-20,2023-01-20,株式会社ＥＥＡ,,株式会社,大分県,中津市,１３００番地１サーパス中津城内４０２号室,,44,203,8710099,,,,,,,2023-01-20,1,,,,,イーイーエー,0
1354,5350003004272,新規,0,2023-01-20,2023-01-20,Ｇｌｏｖｉｎｇ合同会社,,合同会社,宮崎県,宮崎市,橘通東３丁目１－１１,,45,201,8800805,,,,,,,2023-01-20,1,,,,,グロービング,0
1356,5360001031474,新規,0,2023-01-20,2023-01-20,株式会社沖縄建設機械技能センター,,株式会社,沖縄県,中頭郡中城村,字南上原１０５６番地２,,47,328,9012424,,,,,,,2023-01-20,1,,,,,オキナワケンセツキカイギノウセンター,0
1358,5360003012646,新規,0,2023-01-20,2023-01-20,合同会社貴琉システムズ,,合同会社,沖縄県,那覇市,小禄１丁目３５番１１号,,47,201,9010152,,,,,,,2023-01-20,1,,,,,キリュウシステムズ,0
1360,5370001049516,新規,0,2023-01-20,2023-01-20,株式会社エムビーナガマチ,,株式会社,宮城県,仙台市太白区,長町８丁目２０番７号,,04,104,9820011,,,,,,,2023-01-20,1,,,,,エムビーナガマチ,0
1378,5430001088268,新規,0,2023-01-20,2023-01-20,株式会社カオル建設,,株式会社,北海道,札幌市白石区,菊水元町七条３丁目４番１６号,,01,104,0030827,,,,,,,2023-01-20,1,,,,,カオルケンセツ,0
1384,5430003014676,新規,0,2023-01-20,2023-01-20,合同会社ＣａｒＡｒｔＬａｂｓ,,合同会社,北海道,札幌市白石区,本郷通３丁目南２番３４号第２筒井コーポ２０３号,,01,104,0030024,,,,,,,2023-01-20,1,,,,,カーアートラボ,0
1393,5470005006486,新規,0,2023-01-20,2023-01-20,一般社団法人讃岐ＧａｍｅＮ,,その他の設立登記法人,香川県,高松市,亀井町１０番地３,,37,201,7600050,,,,,,,2023-01-20,1,,,,,サヌキゲーメン,0
1398,5700150079890,新規,0,2023-01-20,2017-01-13,超高層ビルに木材を使用する研究会,,その他,鹿児島県,肝属郡肝付町,前田２０９０,,46,492,8931206,,,,,,,2017-01-13,1,,,,,チョウコウソウビルニモクザイヲシヨウスルケンキュウカイ,0
1411,6010001232321,新規,0,2023-01-20,2023-01-20,ＪＰＡ第２７４号株式会社,,株式会社,東京都,千代田区,霞が関３丁目２番１号,,13,101,1000013,,,,,,,2023-01-20,1,,,,,ジェイピーエーダイニヒャクナナジュウヨンゴウ,0
1413,6010001232404,新規,0,2023-01-20,2023-01-20,ｄａｎａｇｒａｍ株式会社,,株式会社,東京都,中央区,銀座８丁目１０番５号ＤＥＮＳＡＮビルＧ－５４５９３,,13,102,1040061,,,,,,,2023-01-20,1,,,,,ダナグラム,0
1414,6010001232420,新規,0,2023-01-20,2023-01-20,株式会社ディーシア,,株式会社,東京都,中央区,日本橋蛎殻町１丁目３３番４号－２階,,13,102,1030014,,,,,,,2023-01-20,1,,,,,ディーシア,0
1417,6010003039649,新規,0,2023-01-20,2023-01-20,コレクターズアイテム合同会社,,合同会社,東京都,中央区,勝どき１丁目８番１号勝どきビュータワー３９１０号室,,13,102,1040054,,,,,,,2023-01-20,1,,,,,コレクターズアイテム,0
1419,6010005036157,新規,0,2023-01-20,2023-01-20,一般財団法人ハヤブサ財団,,その他の設立登記法人,東京都,中央区,日本橋室町１丁目１３番７号,,13,102,1030022,,,,,,,2023-01-20,1,,,,,ハヤブサザイダン,0
1428,6010401171929,新規,0,2023-01-20,2023-01-20,碧雲株式会社,,株式会社,東京都,港区,新橋６丁目８番１－３０４号,,13,103,1050004,,,,,,,2023-01-20,1,,,,,ヘキウン,0
1429,6010401171994,新規,0,2023-01-20,2023-01-20,ＳＯＯＧ株式会社,,株式会社,東京都,港区,北青山３丁目５番１４号青山鈴木硝子ビル７階,,13,103,1070061,,,,,,,2023-01-20,1,,,,,ソーグ,0
1430,6010401172019,新規,0,2023-01-20,2023-01-20,Ｂｅｌｌａ　Ｂｏｓｃｏ株式会社,,株式会社,東京都,港区,東麻布１丁目１２番９号サンマルティーノ東麻布４０１,,13,103,1060044,,,,,,,2023-01-20,1,,,,,ベラボスコ,0
1433,6010403029365,新規,0,2023-01-20,2023-01-20,ハイヴ合同会社,,合同会社,東京都,港区,浜松町２丁目２番１５号浜松町ダイヤビル２Ｆ,,13,103,1050013,,,,,,,2023-01-20,1,,,,,ハイヴ,0
1442,6010501049892,新規,0,2023-01-20,2023-01-20,ＳＨＯＰＳＭＡＴＥＲ株式会社,,株式会社,東京都,台東区,柳橋１丁目３番３号東宏ビル３０６号,,13,106,1110052,,,,,,,2023-01-20,1,,,,,ショップスマター,0
1454,6010803004422,新規,0,2023-01-20,2023-01-20,合同会社Ｂｌｕｅ　Ｓａｐｉｅｎｓ,,合同会社,東京都,大田区,山王３丁目２４番３号ハーモニーレジデンス大森山王５０１号室,,13,111,1430023,,,,,,,2023-01-20,1,,,,,ブルーサピエンス,0
1463,6011101101481,新規,0,2023-01-20,2023-01-20,株式会社Ｌｉｂｅｒａｒｔｅ,,株式会社,東京都,新宿区,四谷三栄町２番８号メゾン・ド・マリー２Ｆ,,13,104,1600008,,,,,,,2023-01-20,1,,,,,リベラルテ,0
1464,6011101101580,新規,0,2023-01-20,2023-01-20,株式会社Ｍｉｚｕｉｒｏ,,株式会社,東京都,新宿区,新宿３丁目４番８号京王フレンテ新宿三丁目４階１２ＳＨＩＮＪＵＫＵ３ＣＨＯＭＥ４１８,,13,104,1600022,,,,,,,2023-01-20,1,,,,,ミズイロ,0
1466,6011301028401,新規,0,2023-01-20,2023-01-20,ＣＡＮ’ＴＳＴＯＰ株式会社,,株式会社,東京都,杉並区,阿佐谷北５丁目２３番３号,,13,115,1660001,,,,,,,2023-01-20,1,,,,,キャントストップ,0
1477,6012401040089,新規,0,2023-01-20,2023-01-20,株式会社フライングＢ,,株式会社,東京都,三鷹市,野崎３丁目９番２７号,,13,204,1810014,,,,,,,2023-01-20,1,,,,,フライングビー,0
1478,6012401040097,新規,0,2023-01-20,2023-01-20,株式会社ＡＸＩＳ,,株式会社,東京都,稲城市,矢野口２６３７番地の１リヴィエール２０２,,13,225,2060812,,,,,,,2023-01-20,1,,,,,アクシズ,0
1482,6012803002975,新規,0,2023-01-20,2023-01-20,ウィステリア会計合同会社,,合同会社,東京都,国立市,北１丁目５番１７,,13,215,1860001,,,,,,,2023-01-20,1,,,,,ウィステリアカイケイ,0
1483,6012803002983,新規,0,2023-01-20,2023-01-20,合同会社ＳＨＡＦＴ,,合同会社,東京都,日野市,万願寺３丁目１３番地の７レオネクストレーヴ１０１,,13,212,1910024,,,,,,,2023-01-20,1,,,,,シャフト,0
1484,6012805003170,新規,0,2023-01-20,2023-01-20,特定非営利活動法人国際がん患者回復支援機構,,その他の設立登記法人,東京都,立川市,幸町５丁目１０番地の２,,13,202,1900002,,,,,,,2023-01-20,1,,,,,コクサイガンカンジャカイフクシエンキコウ,0
1491,6020001149903,新規,0,2023-01-20,2023-01-20,株式会社平福,,株式会社,神奈川県,横浜市中区,山下町８０番地２シルクプラザ１階,,14,104,2310023,,,,,,,2023-01-20,1,,,,,ヘイフク,0
1492,6020001149911,新規,0,2023-01-20,2023-01-20,株式会社グランメゾン,,株式会社,神奈川県,横浜市中区,太田町２丁目３２番地１ビラ・アペックス横浜関内２階,,14,104,2310011,,,,,,,2023-01-20,1,,,,,グランメゾン,0
1493,6020001149928,新規,0,2023-01-20,2023-01-20,株式会社ＰＲＯＴＥＣＴ,,株式会社,神奈川県,川崎市高津区,久末１３６６番地２２,,14,134,2130026,,,,,,,2023-01-20,1,,,,,プロテクト,0
1505,6030001152030,新規,0,2023-01-20,2023-01-20,丸仁株式会社,,株式会社,埼玉県,川口市,川口１丁目２番８－１８０４号リビオタワー川口ミドリノ,,11,203,3320015,,,,,,,2023-01-20,1,,,,,マルジン,0
1511,6040001126719,新規,0,2023-01-20,2023-01-20,ＹＤＫキャピタル株式会社,,株式会社,千葉県,松戸市,松飛台２５４番地,,12,207,2702214,,,,,,,2023-01-20,1,,,,,ワイディーケーキャピタル,0
1514,6050003007164,新規,0,2023-01-20,2023-01-20,ラグジュアリーワールド合同会社,,合同会社,茨城県,結城市,大字上山川１５番地３,,08,207,3070021,,,,,,,2023-01-20,1,,,,,ラグジュアリーワールド,0
1518,6060001035637,新規,0,2023-01-20,2023-01-20,株式会社輝星工業,,株式会社,栃木県,小山市,乙女１丁目２９番１７号,,09,208,3290214,,,,,,,2023-01-20,1,,,,,コウセイコウギョウ,0
1534,6120001251780,新規,0,2023-01-20,2023-01-20,ＹＵＧＵ．株式会社,,株式会社,大阪府,大阪市北区,芝田２丁目８－１１共栄ビル３階,,27,127,5300012,,,,,,,2023-01-20,1,,,,,ユーグ,0
1535,6120001251863,新規,0,2023-01-20,2023-01-20,株式会社きなこ,,株式会社,大阪府,大阪市西区,南堀江３丁目１３番５－９０３号,,27,106,5500015,,,,,,,2023-01-20,1,,,,,キナコ,0
1536,6120001251871,新規,0,2023-01-20,2023-01-20,ファイブキャピタル株式会社,,株式会社,大阪府,大阪市西区,南堀江４丁目２４番１８号,,27,106,5500015,,,,,,,2023-01-20,1,,,,,ファイブキャピタル,0
1537,6120001251896,新規,0,2023-01-20,2023-01-20,株式会社ＥＭＰＴＹ　ＳＥＴ,,株式会社,大阪府,大阪市平野区,長吉長原西２丁目２番２４－４０２号,,27,126,5470015,,,,,,,2023-01-20,1,,,,,エンプティーセット,0
1538,6120001251913,新規,0,2023-01-20,2023-01-20,株式会社ノアール,,株式会社,大阪府,寝屋川市,八幡台５番２３号,,27,215,5720014,,,,,,,2023-01-20,1,,,,,ノアール,0
1539,6120001251921,新規,0,2023-01-20,2023-01-20,アイグッドサポート株式会社,,株式会社,大阪府,大阪市淀川区,三国本町２丁目１８－４１メゾンパンデュール２０１号,,27,123,5320005,,,,,,,2023-01-20,1,,,,,アイグッドサポート,0
1542,6120005023409,新規,0,2023-01-20,2023-01-20,医療法人Ｐｅａｒｌ,,その他の設立登記法人,大阪府,大阪市西区,南堀江２丁目４番１号はなさきビル３階,,27,106,5500015,,,,,,,2023-01-20,1,,,,,パール,0
1543,6120101066864,新規,0,2023-01-20,2023-01-20,勇建株式会社,,株式会社,大阪府,堺市西区,鳳西町３丁８番地３,,27,144,5938326,,,,,,,2023-01-20,1,,,,,ユウケン,0
1549,6122003002492,新規,0,2023-01-20,2023-01-20,合同会社ＦＡＮ,,合同会社,大阪府,東大阪市,横小路町５丁目１番２８号,,27,227,5798063,,,,,,,2023-01-20,1,,,,,ファン,0
1556,6130001073522,新規,0,2023-01-20,2023-01-20,ＴＨＥ　ＴＡＮＡＫＡ株式会社,,株式会社,京都府,京都市山科区,安朱東海道町１０番地１,,26,110,6078008,,,,,,,2023-01-20,1,,,,,ザタナカ,0
1560,6130005016683,新規,0,2023-01-20,2023-01-20,医療法人たえ子耳鼻咽喉科めまいクリニック,,その他の設立登記法人,京都府,久世郡久御山町,栄４丁目１番地５１,,26,322,6130032,,,,,,,2023-01-20,1,,,,,タエコジビインコウカメマイクリニック,0
1565,6140001128820,新規,0,2023-01-20,2023-01-20,株式会社ＴＮＫコネクション,,株式会社,兵庫県,伊丹市,南町１丁目５番３－２０１号,,28,207,6640854,,,,,,,2023-01-20,1,,,,,ティエヌケイコネクション,0
1566,6140001128837,新規,0,2023-01-20,2023-01-20,ＮＴＮ株式会社,,株式会社,兵庫県,神戸市灘区,灘南通６丁目１番８号ハイムタカバシ店舗Ｂ１号室,,28,102,6570841,,,,,,,2023-01-20,1,,,,,エヌティーエヌ,0
1571,6140003018615,新規,0,2023-01-20,2023-01-20,寺田印刷合同会社,,合同会社,兵庫県,神戸市北区,鳴子１丁目６番地の７,,28,109,6511133,,,,,,,2023-01-20,1,,,,,テラダインサツ,0
1572,6140003018623,新規,0,2023-01-20,2023-01-20,合同会社ｆｅｌ’ｔａ,,合同会社,兵庫県,西宮市,羽衣町７－３０夙川グリーンタウン３階,,28,204,6620051,,,,,,,2023-01-20,1,,,,,フェルタ,0
1577,6150005009454,新規,0,2023-01-20,2023-01-20,医療法人ＧＲＤ,,その他の設立登記法人,奈良県,大和高田市,大字藤森１７１－７,,29,202,6350004,,,,,,,2023-01-20,1,,,,,ジーアールディー,0
1582,6180001154573,新規,0,2023-01-20,2023-01-20,木曽川商会株式会社,,株式会社,愛知県,犬山市,大字犬山字南古券１８４番地ビラザイヤビル２階,,23,215,4840084,,,,,,,2023-01-20,1,,,,,キソガワシヨウカイ,0
1601,6240003005974,新規,0,2023-01-20,2023-01-20,合同会社コト暮らし,,合同会社,広島県,福山市,鞆町後地１９３３番地４,,34,207,7200202,,,,,,,2023-01-20,1,,,,,コトグラシ,0
1607,6260001037596,新規,0,2023-01-20,2023-01-20,株式会社抹茶小豆,,株式会社,岡山県,岡山市北区,建部町福渡９４７番地,,33,101,7093111,,,,,,,2023-01-20,1,,,,,マッチャアズキ,0
1619,6290001100302,新規,0,2023-01-20,2023-01-20,昊和貿易株式会社,,株式会社,福岡県,福岡市南区,花畑３丁目４１番２９号,,40,134,8111356,,,,,,,2023-01-20,1,,,,,イワボウエキ,0
1626,6290005018920,新規,0,2023-01-20,2023-01-20,一般社団法人Ｌｅｇａｌ　ａｓｓｏｃｉａｔｅｓ,,その他の設立登記法人,福岡県,太宰府市,国分５丁目１０番２５号,,40,221,8180132,,,,,,,2023-01-20,1,,,,,リーガルアソシエイツ,0
1627,6290805009631,新規,0,2023-01-20,2023-01-20,医療法人喜友会,,その他の設立登記法人,福岡県,北九州市小倉北区,金田１丁目２番６号,,40,106,8030816,,,,,,,2023-01-20,1,,,,,ヨシトモカイ,0
1628,6300001013196,新規,0,2023-01-20,2023-01-20,株式会社ＳＯＲＡ,,株式会社,佐賀県,三養基郡基山町,大字小倉５０４番地１４,,41,341,8410201,,,,,,,2023-01-20,1,,,,,ソラ,0
1629,6320003003994,新規,0,2023-01-20,2023-01-20,合同会社ＳＨＡＤＭＡＮ　ＴＲＡＤＩＮＧ,,合同会社,大分県,別府市,田の湯町３番７号４階,,44,202,8740909,,,,,,,2023-01-20,1,,,,,シャドマントレーディング,0
1638,6350001018141,新規,0,2023-01-20,2023-01-20,株式会社サムフィールド,,株式会社,宮崎県,宮崎市,大字恒久５６６番地,,45,201,8800916,,,,,,,2023-01-20,1,,,,,サムフィールド,0
1639,6360003012645,新規,0,2023-01-20,2023-01-20,Ｍａｒｙｎｏｗｓｋｉ　ＧＲＯＵＰ合同会社,,合同会社,沖縄県,中頭郡北谷町,字渡具知１２６番地１ＳｅａｔｏｐｉａＭａｎｓｉｏｎＢ－２,,47,326,9040100,,,,,,,2023-01-20,1,,,,,マリノスカーグループ,0
1643,6370001049523,新規,0,2023-01-20,2023-01-20,株式会社ｒｅｘ　ＥＭＩ,,株式会社,宮城県,仙台市太白区,南大野田８番地の１プロスペール森７０２,,04,104,9820015,,,,,,,2023-01-20,1,,,,,レクスイーエムアイ,0
1644,6370003005953,新規,0,2023-01-20,2023-01-20,Ｆｉｎｅ　ｐｒｏｖｅ合同会社,,合同会社,宮城県,仙台市青葉区,米ケ袋２丁目４番３６－２０１号,,04,101,9800813,,,,,,,2023-01-20,1,,,,,ファインプルーブ,0
1653,6380005012666,新規,0,2023-01-20,2023-01-20,一般社団法人ライステラス大谷,,その他の設立登記法人,福島県,耶麻郡磐梯町,大字大谷字北原４０６０番地,,07,407,9693304,,,,,,,2023-01-20,1,,,,,ライステラスオオタニ,0
1654,6390005008985,新規,0,2023-01-20,2023-01-20,一般社団法人ティエル,,その他の設立登記法人,山形県,東田川郡庄内町,余目字猿田１０５番地,,06,428,9997781,,,,,,,2023-01-20,1,,,,,ティエル,0
1660,6430001088259,新規,0,2023-01-20,2023-01-20,株式会社ティーエム総業,,株式会社,北海道,石狩市,花川南六条３丁目４０番地,,01,235,0613206,,,,,,,2023-01-20,1,,,,,ティーエムソウギョウ,0
1663,6470001019433,新規,0,2023-01-20,2023-01-20,株式会社パルシー,,株式会社,香川県,高松市,桜町１丁目１０番１号,,37,201,7600074,,,,,,,2023-01-20,1,,,,,パルシー,0
1671,6700150113839,新規,0,2023-01-20,2023-01-20,上海亜美利加実業有限公司,,外国会社等,東京都,台東区,千束３丁目２１－１２キートスビル４０１号室,,13,106,1110031,上海市閔行区中春路７００１号２幢３楼,,,,,,2023-01-20,1,,,,,シヤンハイアミリカジツギヨウユウゲンコウシ,0
1678,7010001232304,新規,0,2023-01-20,2023-01-20,Ａｍｏｕｒ株式会社,,株式会社,東京都,中央区,銀座１丁目２０－３ウィンド銀座ＩＩ２Ｆ,00129146,13,102,1040061,,,,,,,2023-01-20,1,,,,,アムール,0
1679,7010001232320,新規,0,2023-01-20,2023-01-20,ＪＰＡ第２７３号株式会社,,株式会社,東京都,千代田区,霞が関３丁目２番１号,,13,101,1000013,,,,,,,2023-01-20,1,,,,,ジェイピーエーダイニヒャクナナジュウサンゴウ,0
1682,7010005036156,新規,0,2023-01-20,2023-01-20,ドリーム・ロジスティクス３一般社団法人,,その他の設立登記法人,東京都,中央区,日本橋１丁目４番１号日本橋一丁目ビルディング,,13,102,1030027,,,,,,,2023-01-20,1,,,,,ドリームロジスティクススリー,0
1690,7010401171985,新規,0,2023-01-20,2023-01-20,南山株式会社,,株式会社,東京都,港区,赤坂４丁目９番１９号,,13,103,1070052,,,,,,,2023-01-20,1,,,,,ナンザン,0
1691,7010401171993,新規,0,2023-01-20,2023-01-20,株式会社ＫＯＴＯＨＯＧＵ,,株式会社,東京都,港区,芝５丁目３６番４号札の辻スクエア９階,,13,103,1080014,,,,,,,2023-01-20,1,,,,,コトホグ,0
1693,7010403029348,新規,0,2023-01-20,2023-01-20,Ｘｖｅｒｓｅ合同会社,,合同会社,東京都,港区,六本木５丁目２番１号,,13,103,1060032,,,,,,,2023-01-20,1,,,,,エクスバース,0
1706,7010501049891,新規,0,2023-01-20,2023-01-20,盛商事株式会社,,株式会社,東京都,台東区,北上野１丁目１番１１号,,13,106,1100014,,,,,,,2023-01-20,1,,,,,モリショウジ,0
1715,7010801033612,新規,0,2023-01-20,2023-01-20,株式会社ＬＩＦＥサポート,,株式会社,東京都,大田区,多摩川１丁目２３－２０,,13,111,1460095,,,,,,,2023-01-20,1,,,,,ライフサポート,0
1726,7011001151980,新規,0,2023-01-20,2023-01-20,株式会社Ｐａｓｓａｇｅ　ｕｎｉｏｎ,,株式会社,東京都,渋谷区,渋谷１丁目８番５号,,13,113,1500002,,,,,,,2023-01-20,1,,,,,パッセージユニオン,0
1727,7011001151989,新規,0,2023-01-20,2023-01-20,株式会社ＦＩＧＯ,,株式会社,東京都,渋谷区,道玄坂１丁目１０番８号渋谷道玄坂東急ビル２Ｆ－Ｃ,,13,113,1500043,,,,,,,2023-01-20,1,,,,,フィーゴ,0
1728,7011001152153,新規,0,2023-01-20,2023-01-20,株式会社ＮＥＸＳＵＳ,,株式会社,東京都,目黒区,洗足２丁目８番２－２０８号関興パークハイツ,,13,110,1520012,,,,,,,2023-01-20,1,,,,,ネクサス,0
1729,7011003016100,新規,0,2023-01-20,2023-01-20,Ａｎｏｔｈｅｒ　Ｂｉｒｄ合同会社,,合同会社,東京都,渋谷区,道玄坂１丁目１０番８号渋谷道玄坂東急ビル２Ｆ－Ｃ,,13,113,1500043,,,,,,,2023-01-20,1,,,,,アナザーバード,0
1731,7011005009911,新規,0,2023-01-20,2023-01-20,社会保険労務士法人ＣＬＳ,,その他の設立登記法人,東京都,渋谷区,幡ヶ谷２丁目１３番６号富士マンション５０３,,13,113,1510072,,,,,,,2023-01-20,1,,,,,シーエルエス,0
1733,7011101101563,新規,0,2023-01-20,2023-01-20,株式会社八十八研究所,,株式会社,東京都,新宿区,新宿６丁目２９番１１号新宿イーストクロスタワー１０Ｆ,,13,104,1600022,,,,,,,2023-01-20,1,,,,,ハチジュウハチケンキュウジョ,0
1734,7011101101571,新規,0,2023-01-20,2023-01-20,株式会社Ｐｒｅｃｉｏｕｓ,,株式会社,東京都,新宿区,西新宿３丁目３番－１３号西新宿水間ビル６階,,13,104,1600023,,,,,,,2023-01-20,1,,,,,プレシャス,0
1739,7011503005445,新規,0,2023-01-20,2023-01-20,合同会社マウンド,,合同会社,東京都,北区,赤羽南１丁目５番７号,,13,117,1150044,,,,,,,2023-01-20,1,,,,,マウンド,0
1740,7011701025963,新規,0,2023-01-20,2023-01-20,株式会社共創,,株式会社,東京都,江戸川区,中央１丁目２３－１６,,13,123,1320021,,,,,,,2023-01-20,1,,,,,キョウソウ,0
1741,7011703003364,新規,0,2023-01-20,2023-01-20,合同会社ＴＲＩＳＴＡＮ,,合同会社,東京都,江戸川区,南小岩８丁目１６番２３号,,13,123,1330056,,,,,,,2023-01-20,1,,,,,トリスタン,0
1749,7012401040096,新規,0,2023-01-20,2023-01-20,株式会社ファースト,,株式会社,東京都,調布市,布田４丁目２７番地２２,,13,208,1820024,,,,,,,2023-01-20,1,,,,,ファースト,0
1765,7020001149902,新規,0,2023-01-20,2023-01-20,イデアプロデュース株式会社,,株式会社,神奈川県,横浜市金沢区,西柴２丁目３１番Ｆ－１０６号,,14,108,2360017,,,,,,,2023-01-20,1,,,,,イデアプロデュース,0
1770,7020003023048,新規,0,2023-01-20,2023-01-20,合同会社ａｌｌ．ｍ,,合同会社,神奈川県,川崎市川崎区,浜町１丁目１１番７号ｓｓ．ｃｏｕｒｔ川崎２０５,,14,131,2100851,,,,,,,2023-01-20,1,,,,,オールドットエム,0
1771,7020003023147,新規,0,2023-01-20,2023-01-20,合同会社耐震設計,,合同会社,神奈川県,横浜市港北区,新横浜３丁目１７番１２号アルファスペース新横浜３階,,14,109,2220033,,,,,,,2023-01-20,1,,,,,タイシンセッケイ,0
1780,7030001151700,新規,0,2023-01-20,2023-01-20,株式会社ＳＫＲ,,株式会社,埼玉県,上尾市,緑丘３丁目１－７－２０１,,11,219,3620015,,,,,,,2023-01-20,1,,,,,エスケイアール,0
1781,7030001151931,新規,0,2023-01-20,2023-01-20,株式会社川上設備,,株式会社,埼玉県,入間市,大字下藤沢６２２番地１０,,11,225,3580011,,,,,,,2023-01-20,1,,,,,カワカミセツビ,0
1782,7030001152038,新規,0,2023-01-20,2023-01-20,宏伸工業株式会社,,株式会社,埼玉県,加須市,下崎５６９番地,,11,210,3470123,,,,,,,2023-01-20,1,,,,,コウシンコウギョウ,0
1784,7030005021115,新規,0,2023-01-20,2023-01-20,一般社団法人日本珠取連盟,,その他の設立登記法人,埼玉県,所沢市,大字荒幡３０６番地の３,,11,208,3591133,,,,,,,2023-01-20,1,,,,,ニホンシュシュレンメイ,0
1790,7040001126668,新規,0,2023-01-20,2023-01-20,株式会社ビバーチェ,,株式会社,千葉県,流山市,野々下６丁目６５９番１４号,,12,220,2700135,,,,,,,2023-01-20,1,,,,,ビバーチェ,0
1791,7040001126742,新規,0,2023-01-20,2023-01-20,アークリフォーム株式会社,,株式会社,千葉県,松戸市,松飛台１２２番地の４７,,12,207,2702214,,,,,,,2023-01-20,1,,,,,アークリフォーム,0
1795,7040003021727,新規,0,2023-01-20,2023-01-20,東京ストーリー合同会社,,合同会社,千葉県,成田市,吾妻２丁目３番地１（１棟１０１号）,,12,211,2860018,,,,,,,2023-01-20,1,,,,,トウキョウストーリー,0
1803,7060001035636,新規,0,2023-01-20,2023-01-20,株式会社清水設備,,株式会社,栃木県,那須郡那須町,大字高久丙４７１８番地１,,09,407,3250302,,,,,,,2023-01-20,1,,,,,シミズセツビ,0
1807,7080401026266,新規,0,2023-01-20,2023-01-20,株式会社袴田工業,,株式会社,静岡県,磐田市,上新屋５４８番地,,22,211,4380831,,,,,,,2023-01-20,1,,,,,ハカマタコウギョウ,0
1809,7100001036076,新規,0,2023-01-20,2023-01-20,株式会社創進技研,,株式会社,長野県,長野市,大字南長野妻科１３３番地６,,20,201,3800872,,,,,,,2023-01-20,1,,,,,ソウシンギケン,0
1827,7120101066863,新規,0,2023-01-20,2023-01-20,永川株式会社,,株式会社,大阪府,堺市東区,八下町３丁８７番地１,,27,143,5998101,,,,,,,2023-01-20,1,,,,,ナガカワ,0
1833,7130001073521,新規,0,2023-01-20,2023-01-20,京都正禾貿易株式会社,,株式会社,京都府,京都市中京区,西ノ京右馬寮町８番地１９,,26,104,6048492,,,,,,,2023-01-20,1,,,,,キョウトセイカボウエキ,0
1834,7130001073538,新規,0,2023-01-20,2023-01-20,株式会社Ｙ・Ｍ’ｓジェネラルトレーディング,,株式会社,京都府,京都市中京区,丸太町通西洞院東入ル梅屋町１７１番地カマンザビル５階,,26,104,6040000,,,,,,,2023-01-20,1,,,,,ワイエムズジェネラルトレーディング,0
1841,7140001128811,新規,0,2023-01-20,2023-01-20,株式会社ケリー不動産,,株式会社,兵庫県,西宮市,甲陽園西山町４番３１号,,28,204,6620017,,,,,,,2023-01-20,1,,,,,ケリーフドウサン,0
1859,7180003024724,新規,0,2023-01-20,2023-01-20,合同会社ＴＮＫ,,合同会社,愛知県,名古屋市中川区,愛知町４４番１９号ＭａｉｓｏｎＥｔｏａ１０２,,23,110,4540807,,,,,,,2023-01-20,1,,,,,ティーエヌケー,0
1860,7180003024740,新規,0,2023-01-20,2023-01-20,合同会社シックス・マン,,合同会社,愛知県,尾張旭市,東大道町原田２６７２番地３９０,,23,226,4880801,,,,,,,2023-01-20,1,,,,,シックスマン,0
1872,7190001030112,新規,0,2023-01-20,2023-01-20,株式会社チャレンジファームオレンジ,,株式会社,三重県,志摩市,阿児町立神１８５６番地３,,24,215,5170503,,,,,,,2023-01-20,1,,,,,チャレンジファームオレンジ,0
1877,7200001040885,新規,0,2023-01-20,2023-01-20,株式会社まちづくり飯地,,株式会社,岐阜県,恵那市,飯地町１９９番地２,,21,210,5098232,,,,,,,2023-01-20,1,,,,,マチヅクリイイジ,0
1881,7230003001957,新規,0,2023-01-20,2023-01-20,合同会社下山工業,,合同会社,富山県,氷見市,柳田１４５９番地ドリーム１０５号,,16,205,9350031,,,,,,,2023-01-20,1,,,,,シモヤマコウギョウ,0
1898,7290001100301,新規,0,2023-01-20,2023-01-20,株式会社ｓｕｎ　ｆｌｏｗｅｒ,,株式会社,福岡県,古賀市,花見東５丁目４－１０,,40,223,8113112,,,,,,,2023-01-20,1,,,,,サンフラワー,0
1901,7290803004311,新規,0,2023-01-20,2023-01-20,ｈａｒａｐｅｃｏ　ｓｙｓｔｅｍ合同会社,,合同会社,福岡県,北九州市小倉北区,東篠崎２丁目７番７号,,40,106,8020072,,,,,,,2023-01-20,1,,,,,ハラペコシステム,0
1905,7310001018227,新規,0,2023-01-20,2023-01-20,株式会社Ｓ＆Ｔ,,株式会社,長崎県,佐世保市,高天町８番１号,,42,202,8570802,,,,,,,2023-01-20,1,,,,,エスアンドティ,0
1907,7330001030519,新規,0,2023-01-20,2023-01-20,株式会社中村クレーン工業,,株式会社,熊本県,上益城郡益城町,大字安永３７４番地１ル・リアンＩＩ２０１,00129145,43,443,8612231,,,,,,,2023-01-20,1,,,,,ナカムラクレーンコウギョウ,0
1912,7330003009684,新規,0,2023-01-20,2023-01-20,合同会社２２３,,合同会社,熊本県,熊本市南区,城南町舞原２２９番地８,,43,104,8614214,,,,,,,2023-01-20,1,,,,,ニーニーサン,0
1914,7340003004024,新規,0,2023-01-20,2023-01-20,Ｋｅｎ　Ｐａｕｌ合同会社,,合同会社,鹿児島県,鹿児島市,新屋敷町１９番１０号ＪＡウイング新屋敷５０１号,,46,201,8920838,,,,,,,2023-01-20,1,,,,,ケンポール,0
1916,7350001018140,新規,0,2023-01-20,2023-01-20,株式会社鷹建設,,株式会社,宮崎県,宮崎市,佐土原町東上那珂１３１番地,,45,201,8800303,,,,,,,2023-01-20,1,,,,,タカケンセツ,0
1917,7350003004270,新規,0,2023-01-20,2023-01-20,曽根田林業合同会社,,合同会社,宮崎県,東臼杵郡美郷町,北郷黒木６０９－１,,45,431,8890903,,,,,,,2023-01-20,1,,,,,ソネダリンギョウ,0
1918,7350005006133,新規,0,2023-01-20,2023-01-20,医療法人社団ちぐさ東洋クリニック,,その他の設立登記法人,宮崎県,宮崎市,大坪東２丁目１９番１９号,,45,201,8800934,,,,,,,2023-01-20,1,,,,,チグサトウヨウクリニック,0
1919,7360001031431,新規,0,2023-01-20,2023-01-20,株式会社琉球ウェルネス,,株式会社,沖縄県,那覇市,銘苅３丁目９番２２号ＫＡキャンディービル２階,,47,201,9000004,,,,,,,2023-01-20,1,,,,,リュウキュウウェルネス,0
1921,7360003012644,新規,0,2023-01-20,2023-01-20,琉球産業合同会社,,合同会社,沖縄県,那覇市,宇栄原１丁目２５番５１号,,47,201,9010153,,,,,,,2023-01-20,1,,,,,リュウキュウサンギョウ,0
1922,7360003012652,新規,0,2023-01-20,2023-01-20,ゆんたんまじょん合同会社,,合同会社,沖縄県,中頭郡読谷村,字大湾７０７番地２,,47,324,9040313,,,,,,,2023-01-20,1,,,,,ユンタンマジョン,0
1946,7430001088266,新規,0,2023-01-20,2023-01-20,株式会社ＳＴＥＬＵＮＡ,,株式会社,北海道,札幌市清田区,美しが丘三条８丁目３番１４号,,01,110,0040813,,,,,,,2023-01-20,1,,,,,ステルナ,0
1948,7440001009213,新規,0,2023-01-20,2023-01-20,株式会社Ｗｏｒｋｓ,,株式会社,北海道,函館市,高丘町５９番４号,,01,202,0420955,,,,,,,2023-01-20,1,,,,,ワークス,0
1959,7500001024734,新規,0,2023-01-20,2023-01-20,株式会社Ｙ’ｓ,,株式会社,愛媛県,松山市,西垣生町７７９番地３,,38,201,7918044,,,,,,,2023-01-20,1,,,,,ワイズ,0
1960,7700150113045,新規,0,2023-01-20,2022-11-29,くらしの中の海洋文化実行委員会,,その他,沖縄県,名護市,字饒平名４３０－１－３０３,,47,209,9051632,,,,,,,2022-11-29,1,,,,,クラシノナカノカイヨウブンカジツコウイインカイ,0
1961,7700150113838,新規,0,2023-01-20,2023-01-20,長野市ＩＣＴ産業協議会,,その他,長野県,長野市,大字鶴賀緑町１６１３番地長野市商工観光部商工労働課内,,20,201,3800813,,,,,,,2023-01-20,1,,,,,ナガノシアイシーティーサンギョウキョウギカイ,0
1981,8010003039647,新規,0,2023-01-20,2023-01-20,合同会社前酒屋,,合同会社,東京都,文京区,関口１丁目１０番１９－４０３号,,13,105,1120014,,,,,,,2023-01-20,1,,,,,マエサカヤ,0
1988,8010403029355,新規,0,2023-01-20,2023-01-20,ｅｌｅｖｅｎ合同会社,,合同会社,東京都,港区,南青山２丁目２番１５号,,13,103,1070062,,,,,,,2023-01-20,1,,,,,イレブン,0
2005,8010901052379,新規,0,2023-01-20,2023-01-20,株式会社Ｓｕｉｔｅｄ,,株式会社,東京都,世田谷区,代沢５丁目３６番１６号セントラル下北沢２－Ｃ,,13,112,1550032,,,,,,,2023-01-20,1,,,,,スーテッド,0
2011,8011001151848,新規,0,2023-01-20,2023-01-20,株式会社プロダクトフォース,,株式会社,東京都,渋谷区,道玄坂１丁目１０番８号渋谷道玄坂東急ビル２Ｆ－Ｃ,,13,113,1500043,,,,,,,2023-01-20,1,,,,,プロダクトフォース,0
2012,8011001151914,新規,0,2023-01-20,2023-01-20,株式会社ＩＭＡＫＡＩ,,株式会社,東京都,渋谷区,道玄坂１丁目１０番８号渋谷道玄坂東急ビル２Ｆ－Ｃ,,13,113,1500043,,,,,,,2023-01-20,1,,,,,イマカイ,0
2013,8011001151922,新規,0,2023-01-20,2023-01-20,株式会社Ｃｏｎ　Ｓｐｉｒｉｔｏ,,株式会社,東京都,渋谷区,神宮前６丁目２３番４号桑野ビル２階,,13,113,1500001,,,,,,,2023-01-20,1,,,,,コンスピーリト,0
2014,8011001151955,新規,0,2023-01-20,2023-01-20,株式会社ＬａＰＬＵＳ,,株式会社,東京都,渋谷区,本町４丁目４番１３号Ｂｒｉｌｌｉａｉｓｔ渋谷本町４０３,,13,113,1510071,,,,,,,2023-01-20,1,,,,,ラプラス,0
2015,8011001152111,新規,0,2023-01-20,2023-01-20,エージェント１株式会社,,株式会社,東京都,渋谷区,代々木１丁目３６番１号ミユキビル５階,,13,113,1510053,,,,,,,2023-01-20,1,,,,,エージェントワン,0
2016,8011001152128,新規,0,2023-01-20,2023-01-20,レシピ株式会社,,株式会社,東京都,渋谷区,道玄坂１丁目１０番８号,,13,113,1500043,,,,,,,2023-01-20,1,,,,,レシピ,0
2022,8011101101546,新規,0,2023-01-20,2023-01-20,株式会社セブンハンドレッド,,株式会社,東京都,新宿区,西新宿６丁目１５番１－３０２１号,,13,104,1600023,,,,,,,2023-01-20,1,,,,,セブンハンドレッド,0
2023,8011101101570,新規,0,2023-01-20,2023-01-20,株式会社ＡＧＲＩ,,株式会社,東京都,新宿区,高田馬場２丁目１番２号ＴＯＨＭＡ高田馬場７階,,13,104,1690075,,,,,,,2023-01-20,1,,,,,アグリ,0
2024,8011101101579,新規,0,2023-01-20,2023-01-20,株式会社Ｌａｕｇｈ　Ｓｋｅｔｃｈ,,株式会社,東京都,新宿区,西新宿３丁目３番１３号西新宿水間ビル２Ｆ,,13,104,1600023,,,,,,,2023-01-20,1,,,,,ラフスケッチ,0
2026,8011103012618,新規,0,2023-01-20,2023-01-20,合同会社Ｗｅコーポレーション,,合同会社,東京都,新宿区,西新宿３丁目３番１３号,,13,104,1600023,,,,,,,2023-01-20,1,,,,,ウィーコーポレーション,0
2027,8011201024358,新規,0,2023-01-20,2023-01-20,株式会社Ｎｉｚａｎｙ,,株式会社,東京都,中野区,江原町２丁目２７番８号ＮＴ江原ビル３－Ｂ,,13,114,1650023,,,,,,,2023-01-20,1,,,,,ニゼイニ,0
2033,8011701025962,新規,0,2023-01-20,2023-01-20,株式会社Ｉｒｉｓ　Ｔｏｋｙｏ,,株式会社,東京都,江戸川区,西葛西６丁目１６－７－４０３,,13,123,1340088,,,,,,,2023-01-20,1,,,,,イリストウキョウ,0
2041,8020001149884,新規,0,2023-01-20,2023-01-20,ＥＳＯＳＡ株式会社,,株式会社,神奈川県,横浜市保土ケ谷区,帷子町１丁目４１番地２０３,,14,106,2400013,,,,,,,2023-01-20,1,,,,,エソサ,0
2042,8020001149901,新規,0,2023-01-20,2023-01-20,ＹＭいちご株式会社,,株式会社,神奈川県,川崎市幸区,大宮町２６番地３アーベインビオ川崎３－２７１０,,14,132,2120014,,,,,,,2023-01-20,1,,,,,ワイエムイチゴ,0
2046,8021001078009,新規,0,2023-01-20,2023-01-20,株式会社Ｃｉｅｌ,,株式会社,神奈川県,大和市,上和田１５８９番地,,14,213,2420014,,,,,,,2023-01-20,1,,,,,シエル,0
2049,8021003012642,新規,0,2023-01-20,2023-01-20,合同会社みやかわ電気,,合同会社,神奈川県,中郡二宮町,富士見が丘２丁目１６番６号,,14,342,2590122,,,,,,,2023-01-20,1,,,,,ミヤカワデンキ,0
2058,8030003020910,新規,0,2023-01-20,2023-01-20,禾億合同会社,,合同会社,埼玉県,川口市,芝富士１丁目２４番１８号,,11,203,3330854,,,,,,,2023-01-20,1,,,,,,0
2059,8030003020927,新規,0,2023-01-20,2023-01-20,合同会社エイチ,,合同会社,埼玉県,蕨市,北町１丁目１６番３号,,11,223,3350001,,,,,,,2023-01-20,1,,,,,エイチ,0
2066,8040001126717,新規,0,2023-01-20,2023-01-20,株式会社リリーフステップ,,株式会社,千葉県,千葉市花見川区,花見川８番７棟１０４号,,12,102,2620046,,,,,,,2023-01-20,1,,,,,リリーフステップ,0
2067,8040001126725,新規,0,2023-01-20,2023-01-20,株式会社ＰＯＳＨ,,株式会社,千葉県,千葉市中央区,新千葉１丁目７－２,,12,101,2600031,,,,,,,2023-01-20,1,,,,,ポッシュ,0
2071,8040003021726,新規,0,2023-01-20,2023-01-20,エスポワール合同会社,,合同会社,千葉県,佐倉市,馬渡１１６６番地５,,12,212,2850804,,,,,,,2023-01-20,1,,,,,エスポワール,0
2072,8040003021734,新規,0,2023-01-20,2023-01-20,ＯＣＥＡＮ　ＥＮＴＥＲＰＲＩＳＥＳ合同会社,,合同会社,千葉県,山武市,埴谷２６４３番地、Ｇ棟,,12,237,2891223,,,,,,,2023-01-20,1,,,,,オーシャンエンタープライゼス,0
2078,8060001035635,新規,0,2023-01-20,2023-01-20,株式会社インベスターズ,,株式会社,栃木県,宇都宮市,江野町１１番１号,,09,201,3200802,,,,,,,2023-01-20,1,,,,,インベスターズ,0
2081,8070001040048,新規,0,2023-01-20,2023-01-20,株式会社ＯＴＮサポート,,株式会社,群馬県,太田市,安良岡町３１６番地１,,10,205,3730811,,,,,,,2023-01-20,1,,,,,オーティエヌサポート,0
2097,8120001251861,新規,0,2023-01-20,2023-01-20,株式会社ハピニスト,,株式会社,大阪府,大阪市北区,樋之口町１－２０シティタワー大阪天満１６１６,,27,127,5300032,,,,,,,2023-01-20,1,,,,,ハピニスト,0
2098,8120003023276,新規,0,2023-01-20,2023-01-20,合同会社イートラスト,,合同会社,大阪府,大阪市中央区,南船場２丁目１０－２２－６０１,,27,128,5420081,,,,,,,2023-01-20,1,,,,,イートラスト,0
2102,8120101066862,新規,0,2023-01-20,2023-01-20,株式会社北信建設,,株式会社,大阪府,岸和田市,木材町７番地の６,,27,202,5960011,,,,,,,2023-01-20,1,,,,,キタシンケンセツ,0
2103,8120105009669,新規,0,2023-01-20,2023-01-20,司法書士法人リーガルウエスト,,その他の設立登記法人,大阪府,堺市堺区,新町２番２号,,27,141,5900079,,,,,,,2023-01-20,1,,,,,リーガルウエスト,0
2104,8120901046997,新規,0,2023-01-20,2023-01-20,株式会社ＬＩＮＫＳ,,株式会社,大阪府,高槻市,城北町２丁目３番８号,,27,207,5690071,,,,,,,2023-01-20,1,,,,,リンクス,0
2105,8120901047005,新規,0,2023-01-20,2023-01-20,株式会社クレス,,株式会社,大阪府,高槻市,緑町１７番９号,,27,207,5690094,,,,,,,2023-01-20,1,,,,,クレス,0
2106,8120901047021,新規,0,2023-01-20,2023-01-20,ＤａＹｕ株式会社,,株式会社,大阪府,吹田市,豊津町９番２２号,,27,205,5640051,,,,,,,2023-01-20,1,,,,,ダイユ,0
2107,8120903004466,新規,0,2023-01-20,2023-01-20,Ａ＆Ｔ合同会社,,合同会社,大阪府,高槻市,辻子３丁目５１番４号,00129163,27,207,5690036,,,,,,,2023-01-20,1,,,,,エーアンドティー,0
2108,8122001036615,新規,0,2023-01-20,2023-01-20,株式会社ＬＯＮＡ　ＧＬＯＢＡＬ,,株式会社,大阪府,八尾市,上尾町６丁目２６番地,,27,212,5810851,,,,,,,2023-01-20,1,,,,,ロナグローバル,0
2109,8122005003660,新規,0,2023-01-20,2023-01-20,一般社団法人大阪実践教育研究会,,その他の設立登記法人,大阪府,八尾市,春日町１丁目９番１０－４０７号,,27,212,5810061,,,,,,,2023-01-20,1,,,,,オオサカジッセンキョウイクケンキュウカイ,0
2114,8130001073504,新規,0,2023-01-20,2023-01-20,株式会社Ｌｉｎｏ　Ａ,,株式会社,京都府,京都市西京区,桂坤町３０番地１－２階,,26,111,6158084,,,,,,,2023-01-20,1,,,,,リノア,0
2115,8130001073512,新規,0,2023-01-20,2023-01-20,株式会社幽玄,,株式会社,京都府,京都市下京区,七条通油小路東入大黒町２２７番地第２キョートビル４０２,,26,106,6008223,,,,,,,2023-01-20,1,,,,,ユウゲン,0
2116,8130001073537,新規,0,2023-01-20,2023-01-20,株式会社ゆらーず,,株式会社,京都府,向日市,森本町下森本１番地の３０,,26,208,6170003,,,,,,,2023-01-20,1,,,,,ユラーズ,0
2127,8140003018555,新規,0,2023-01-20,2023-01-20,合同会社ＯＷＬＳ,,合同会社,兵庫県,姫路市,広畑区早瀬町１丁目３３番地３,,28,201,6711151,,,,,,,2023-01-20,1,,,,,アウルズ,0
2128,8140003018613,新規,0,2023-01-20,2023-01-20,ＶＡＮＴＵ合同会社,,合同会社,兵庫県,神戸市兵庫区,福原町１９番１４号井上ビル１０１,,28,105,6520036,,,,,,,2023-01-20,1,,,,,ヴァントゥ,0
2135,8180001154654,新規,0,2023-01-20,2023-01-20,株式会社ＢｅｅＨｉｖｅ,,株式会社,愛知県,名古屋市中区,大須３丁目３０番地４５コラボシティ大須１１０６,,23,106,4600011,,,,,,,2023-01-20,1,,,,,ビーハイヴ,0
2144,8200003005803,新規,0,2023-01-20,2023-01-20,合同会社ＡＸＥＬ,,合同会社,岐阜県,大垣市,外渕２丁目１５７―１セジュール近藤Ｂ２０５,,21,202,5030934,,,,,,,2023-01-20,1,,,,,アクセル,0
2145,8200003005811,新規,0,2023-01-20,2023-01-20,合同会社Ｘ,,合同会社,岐阜県,関市,平和通８丁目１番地９,,21,205,5013874,,,,,,,2023-01-20,1,,,,,エックス,0
2149,8240001060978,新規,0,2023-01-20,2023-01-20,株式会社ケイトライ,,株式会社,広島県,福山市,西深津町１丁目１０－９Ａ１０２,,34,207,7210975,,,,,,,2023-01-20,1,,,,,ケイトライ,0
2152,8240003005980,新規,0,2023-01-20,2023-01-20,ＰＯＰＥＹＥｓ合同会社,,合同会社,広島県,広島市安佐南区,伴南４丁目２８番６号,,34,105,7313168,,,,,,,2023-01-20,1,,,,,ポパイズ,0
2153,8260001037594,新規,0,2023-01-20,2023-01-20,ＳｏＦｕｎせとうち株式会社,,株式会社,岡山県,岡山市北区,駅前町１丁目８番１号,,33,101,7000023,,,,,,,2023-01-20,1,,,,,ソーファンセトウチ,0
2168,8290001100300,新規,0,2023-01-20,2023-01-20,ＩＴ　Ｅｌｅｃ株式会社,,株式会社,福岡県,福岡市博多区,月隈１丁目１８－２２,,40,132,8120858,,,,,,,2023-01-20,1,,,,,アイティーエレック,0
2177,8290005018919,新規,0,2023-01-20,2023-01-20,医療法人レッツ,,その他の設立登記法人,福岡県,那珂川市,松木２丁目８７番,,40,231,8111251,,,,,,,2023-01-20,1,,,,,レッツ,0
2183,8310001018226,新規,0,2023-01-20,2023-01-20,株式会社中村ファーム,,株式会社,長崎県,島原市,山寺町丙７５８番地２,,42,203,8550016,,,,,,,2023-01-20,1,,,,,ナカムラファーム,0
2186,8320001019529,新規,0,2023-01-20,2023-01-20,株式会社ＯＮＥ　ＩＴ,,株式会社,大分県,大分市,森町西２丁目８番１７－１号,,44,201,8700140,,,,,,,2023-01-20,1,,,,,ワンイット,0
2194,8360001031471,新規,0,2023-01-20,2023-01-20,株式会社愛美Ｒｅｆｏｒｍ,,株式会社,沖縄県,豊見城市,字豊見城１８８番地６,,47,212,9010241,,,,,,,2023-01-20,1,,,,,アイビリフォーム,0
2197,8370001049496,新規,0,2023-01-20,2023-01-20,Ｅａｓｔ　Ｊａｐａｎ　Ｗｏｏｄ株式会社,,株式会社,宮城県,栗原市,鶯沢袋島巡４４番地７,,04,213,9895401,,,,,,,2023-01-20,1,,,,,イーストジャパンウッド,0
2198,8370001049513,新規,0,2023-01-20,2023-01-20,ＪＧ　ＭＡＴＲＩＸ株式会社,,株式会社,宮城県,仙台市青葉区,台原３丁目１０番１０号,,04,101,9810911,,,,,,,2023-01-20,1,,,,,ジェジメトリクス,0
2218,8410003003744,新規,0,2023-01-20,2023-01-20,合同会社マルトモシステムズ,,合同会社,秋田県,横手市,城南町１２番３０号,,05,203,0130013,,,,,,,2023-01-20,1,,,,,マルトモシステムズ,0
2229,8430005014630,新規,0,2023-01-20,2023-01-20,特定非営利活動法人おやこ応援団いちごはうすの会,,その他の設立登記法人,北海道,伊達市,旭町４７番地,,01,233,0520015,,,,,,,2023-01-20,1,,,,,オヤコオウエンダンイチゴハウスノカイ,0
2238,8500001024725,新規,0,2023-01-20,2023-01-20,株式会社大将,,株式会社,愛媛県,松山市,上野町甲７７４番地２－４０８号,,38,201,7911136,,,,,,,2023-01-20,1,,,,,タイショウ,0
2243,8700150113416,新規,0,2023-01-20,2022-12-19,庄川・小矢部川地域地下水利用対策協議会,,その他,富山県,高岡市,長慶寺６４０番地,,16,202,9330951,,,,,,,2022-12-19,1,,,,,シヨウガワオヤベガワチイキチカスイリヨウタイサクキヨウギカイ,0
2244,8700150113837,新規,0,2023-01-20,2023-01-20,Ｐｒｉｎｔｆｕｌ　Ｉｎｃ．,,外国会社等,,,,,,,,Ｎｏｒｔｈ　Ｃａｒｏｌｉｎａ，１１０２５　Ｗｅｓｔｌａｋｅ　ＤＲ，Ｃｈａｒｌｏｔｔｅ，ＮＣ　２８２７３，Ｕｎｉｔｅｄ　Ｓｔａｔｅｓ,,,,,,2023-01-20,1,,,,,プリントフルインク,0
2256,9010001232310,新規,0,2023-01-20,2023-01-20,インテリオールジャパン株式会社,,株式会社,東京都,中央区,日本橋小網町１８番１７号,,13,102,1030016,,,,,,,2023-01-20,1,,,,,インテリオールジャパン,0
2257,9010001232319,新規,0,2023-01-20,2023-01-20,ＪＰＡ第２７２号株式会社,,株式会社,東京都,千代田区,霞が関３丁目２番１号,,13,101,1000013,,,,,,,2023-01-20,1,,,,,ジェイピーエーダイニヒャクナナジュウニゴウ,0
2258,9010001232384,新規,0,2023-01-20,2023-01-20,株式会社ジョイ積算,,株式会社,東京都,千代田区,神田東松下町２８番１６号,,13,101,1010042,,,,,,,2023-01-20,1,,,,,ジョイセキサン,0
2259,9010001232392,新規,0,2023-01-20,2023-01-20,コペルニーク株式会社,,株式会社,東京都,中央区,銀座１丁目１２番４号Ｎ＆Ｅ・ＢＬＤ．６Ｆ,,13,102,1040061,,,,,,,2023-01-20,1,,,,,コペルニーク,0
2264,9010003039605,新規,0,2023-01-20,2023-01-20,メディカルリスキリング合同会社,,合同会社,東京都,中央区,入船２丁目２番６号ＮＴイリフネビル４階,,13,102,1040042,,,,,,,2023-01-20,1,,,,,メディカルリスキリング,0
2265,9010101015499,新規,0,2023-01-20,2023-01-20,ＤＩＮＯＳＡＵＲ　ＧＯＬＦ株式会社,,株式会社,東京都,八王子市,堀之内２５６－１９９,,13,201,1920355,,,,,,,2023-01-20,1,,,,,ダイナソーゴルフ,0
2276,9010401172016,新規,0,2023-01-20,2023-01-20,株式会社北吉,,株式会社,東京都,港区,港南３丁目７番１０－２１０３号,,13,103,1080075,,,,,,,2023-01-20,1,,,,,ホクヨシ,0
2277,9010403029338,新規,0,2023-01-20,2023-01-20,ＬＵＭＥＮ合同会社,,合同会社,東京都,港区,白金６丁目５番６号フェリス白金７０１,,13,103,1080072,,,,,,,2023-01-20,1,,,,,ルーメン,0
2278,9010405021714,新規,0,2023-01-20,2023-01-20,一般社団法人全国ＰＴＡ連絡協議会,,その他の設立登記法人,東京都,港区,東新橋２丁目２番１０号村松ビル６Ｆ,,13,103,1050021,,,,,,,2023-01-20,1,,,,,ゼンコクピーティーエーレンラクキョウギカイ,0
2296,9011001151871,新規,0,2023-01-20,2023-01-20,ＡＣＡＢＡ株式会社,,株式会社,東京都,渋谷区,神宮前６丁目２３番４号桑野ビル２階,,13,113,1500001,,,,,,,2023-01-20,1,,,,,アカバ,0
2297,9011001152119,新規,0,2023-01-20,2023-01-20,株式会社さいとう,,株式会社,東京都,渋谷区,恵比寿４丁目２０番２号恵比寿ガーデンテラス弐番館１００１,,13,113,1500013,,,,,,,2023-01-20,1,,,,,サイトウ,0
2300,9011101101504,新規,0,2023-01-20,2023-01-20,株式会社Ｄｏｕｂｌｅ　Ｐｏｔ,,株式会社,東京都,新宿区,新宿６丁目１１番９号,,13,104,1600022,,,,,,,2023-01-20,1,,,,,ダブルポット,0
2301,9011101101561,新規,0,2023-01-20,2023-01-20,株式会社ｆｉｇｈｔ,,株式会社,東京都,新宿区,西新宿３丁目３番１３号西新宿水間ビル２Ｆ,,13,104,1600023,,,,,,,2023-01-20,1,,,,,ファイト,0
2302,9011201024357,新規,0,2023-01-20,2023-01-20,雨禾株式会社,,株式会社,東京都,中野区,上鷺宮１丁目１０番９号鷺ノ宮２０３,,13,114,1650031,,,,,,,2023-01-20,1,,,,,アメイネ,0
2303,9011201024365,新規,0,2023-01-20,2023-01-20,株式会社ＧＳＥ,,株式会社,東京都,中野区,新井２丁目３３番９号アーバンコート３０１,,13,114,1650026,,,,,,,2023-01-20,1,,,,,ジーエスイー,0
2310,9011601026515,新規,0,2023-01-20,2023-01-20,ＰＲＯＴＯＰ株式会社,,株式会社,東京都,練馬区,早宮４丁目３１番１－２０５号,,13,120,1790085,,,,,,,2023-01-20,1,,,,,プロトップ,0
2311,9011703003370,新規,0,2023-01-20,2023-01-20,合同会社エム,,合同会社,東京都,江戸川区,一之江８丁目３番１号ＴＳビル１階,,13,123,1320024,,,,,,,2023-01-20,1,,,,,エム,0
2339,9020001149900,新規,0,2023-01-20,2023-01-20,有馬ホームアシスト株式会社,,株式会社,神奈川県,横浜市港北区,新横浜１丁目２６番地６－５０３,,14,109,2220033,,,,,,,2023-01-20,1,,,,,アリマホームアシスト,0
2340,9020001149909,新規,0,2023-01-20,2023-01-20,株式会社トレジャー,,株式会社,神奈川県,横浜市港南区,丸山台２丁目４０番２８－２号,,14,111,2330013,,,,,,,2023-01-20,1,,,,,トレジャー,0
2341,9020001149917,新規,0,2023-01-20,2023-01-20,株式会社ＷＯＲＣ　ＬＡＵＧＨ　ＴＡＬＥ,,株式会社,神奈川県,横浜市鶴見区,佃野町２１番２０－４０１号,,14,101,2300061,,,,,,,2023-01-20,1,,,,,ワークラフテル,0
2342,9020001149933,新規,0,2023-01-20,2023-01-20,株式会社ＺＵＭＩ　ＳＯＦＴＷＡＲＥ,,株式会社,神奈川県,川崎市高津区,溝口２丁目６番２６号アズマヤ栄橋ビル４０３,,14,134,2130001,,,,,,,2023-01-20,1,,,,,ズミソフトウェア,0
2352,9021001078008,新規,0,2023-01-20,2023-01-20,株式会社日向,,株式会社,神奈川県,厚木市,上依知２７５２番地５,,14,212,2430801,,,,,,,2023-01-20,1,,,,,,0
2364,9030001151979,新規,0,2023-01-20,2023-01-20,株式会社ハルカコーポレーション,,株式会社,埼玉県,さいたま市中央区,下落合４丁目２２番４号,,11,105,3380002,,,,,,,2023-01-20,1,,,,,ハルカコーポレーション,0
2365,9030001152036,新規,0,2023-01-20,2023-01-20,潤屋ラボ株式会社,,株式会社,埼玉県,さいたま市大宮区,桜木町４丁目７９６－３,,11,103,3300854,,,,,,,2023-01-20,1,,,,,ジュンヤラボ,0
2366,9030001152052,新規,0,2023-01-20,2023-01-20,カティモン株式会社,,株式会社,埼玉県,富士見市,山室１丁目１１７１番地１６１,,11,235,3540022,,,,,,,2023-01-20,1,,,,,カティモン,0
2368,9030003021016,新規,0,2023-01-20,2023-01-20,アイスランド合同会社,,合同会社,埼玉県,川口市,西川口１丁目３０番２０－３０７,,11,203,3320021,,,,,,,2023-01-20,1,,,,,アイスランド,0
2373,9040001126724,新規,0,2023-01-20,2023-01-20,株式会社奕成,,株式会社,千葉県,千葉市中央区,新千葉３丁目２番１号新千葉プラザマンション４１０号室,,12,101,2600031,,,,,,,2023-01-20,1,,,,,イセイ,0
2374,9040001126740,新規,0,2023-01-20,2023-01-20,ＲＥＸＴＡＲ株式会社,,株式会社,千葉県,千葉市美浜区,浜田１丁目３,,12,106,2610025,,,,,,,2023-01-20,1,,,,,レクスター,0
2391,9060003004380,新規,0,2023-01-20,2023-01-20,合同会社Ｎｅｘｔ　ｓｔａｇｅ,,合同会社,栃木県,宇都宮市,宿郷１丁目３－１０,,09,201,3210945,,,,,,,2023-01-20,1,,,,,ネクストステージ,0
2397,9080001025419,新規,0,2023-01-20,2023-01-20,株式会社ネオニート,,株式会社,静岡県,静岡市葵区,両替町１丁目２番地の２フェイム両替町５０１,,22,101,4200032,,,,,,,2023-01-20,1,,,,,ネオニート,0
2399,9080401026264,新規,0,2023-01-20,2023-01-20,株式会社星花,,株式会社,静岡県,浜松市浜北区,於呂２６７１番地の１,,22,136,4340015,,,,,,,2023-01-20,1,,,,,セイカ,0
2402,9100001036033,新規,0,2023-01-20,2023-01-20,株式会社ビークリエイト,,株式会社,長野県,上田市,上田１３１２番地１６,,20,203,3860001,,,,,,,2023-01-20,1,,,,,ビークリエイト,0
2403,9100005012963,新規,0,2023-01-20,2023-01-20,一般社団法人ＭｙＱＯＬ健幸倶楽部,,その他の設立登記法人,長野県,長野市,川中島町御厨７８２番地１,,20,201,3812221,,,,,,,2023-01-20,1,,,,,マイキュウオウエルケンコウクラブ,0
2409,9120001251919,新規,0,2023-01-20,2023-01-20,株式会社ＳＳＣ,,株式会社,大阪府,大阪市北区,芝田２丁目８番１１号共栄ビル３階,,27,127,5300012,,,,,,,2023-01-20,1,,,,,エスエスシー,0
2412,9120003023291,新規,0,2023-01-20,2023-01-20,合同会社ＭＡストラテジー,,合同会社,大阪府,大阪市大正区,三軒家東６丁目４番７号,,27,108,5510002,,,,,,,2023-01-20,1,,,,,エムエーストラテジー,0
2413,9120003023300,新規,0,2023-01-20,2023-01-20,合同会社アシスト,,合同会社,大阪府,大阪市福島区,福島７丁目１７番１７―８０４号,,27,103,5530003,,,,,,,2023-01-20,1,,,,,アシスト,0
2414,9120005023389,新規,0,2023-01-20,2023-01-20,一般社団法人乳幼児発達推進協会,,その他の設立登記法人,大阪府,大阪市鶴見区,放出東３丁目１２番２１号,,27,124,5380044,,,,,,,2023-01-20,1,,,,,ニュウヨウジハッタツスイシンキョウカイ,0
2415,9120101066853,新規,0,2023-01-20,2023-01-20,イノケア株式会社,,株式会社,大阪府,岸和田市,磯上町６丁目９番７号,,27,202,5960001,,,,,,,2023-01-20,1,,,,,イノケア,0
2418,9120903004465,新規,0,2023-01-20,2023-01-20,合同会社ＦＥＬＩＳＨ,,合同会社,大阪府,豊中市,桜の町４丁目５番７号,,27,203,5600054,,,,,,,2023-01-20,1,,,,,フェリッシュ,0
2421,9130003008465,新規,0,2023-01-20,2023-01-20,合同会社ＣＤＳｉｎｏｖａｔｅ,,合同会社,京都府,京都市中京区,西洞院通蛸薬師下る古西町４３３番地,,26,104,6048227,,,,,,,2023-01-20,1,,,,,シーディーエスイノベイト,0
2428,9140001128818,新規,0,2023-01-20,2023-01-20,株式会社コトネ,,株式会社,兵庫県,神戸市長田区,長楽町５丁目４番８号１Ｆ,,28,106,6530054,,,,,,,2023-01-20,1,,,,,コトネ,0
2440,9180305009438,新規,0,2023-01-20,2023-01-20,一般社団法人ほの国東三河観光ビューロー,,その他の設立登記法人,愛知県,豊橋市,花田町字石塚４２番地の１,,23,201,4400075,,,,,,,2023-01-20,1,,,,,ホノクニヒガシミカワカンコウビューロー,0
2459,9290001100150,新規,0,2023-01-20,2023-01-20,株式会社ＴＨＥ　ＱＵＩＺ　ＴＥＡＭ,,株式会社,福岡県,福岡市博多区,祇園町２－２２－２０３号室,,40,132,8120038,,,,,,,2023-01-20,1,,,,,ザクイズチーム,0
2465,9330001030517,新規,0,2023-01-20,2023-01-20,株式会社輝彩林業,,株式会社,熊本県,球磨郡あさぎり町,上北９８４番地１,,43,514,8680422,,,,,,,2023-01-20,1,,,,,キサイリンギョウ,0
2468,9360005006774,新規,0,2023-01-20,2023-01-20,一般社団法人ライフ研究室ビー,,その他の設立登記法人,沖縄県,中頭郡西原町,字幸地１０００番地の１（コーポ中村２０２号）,,47,329,9030116,,,,,,,2023-01-20,1,,,,,ライフケンキュウシツビー,0
2492,9430001088207,新規,0,2023-01-20,2023-01-20,株式会社Ｒｅｖｅ,,株式会社,北海道,札幌市東区,北二十八条東９丁目３番３号ポラリスビル２階,,01,103,0650028,,,,,,,2023-01-20,1,,,,,レーヴ,0
2493,9430001088231,新規,0,2023-01-20,2023-01-20,株式会社ＫＡＮＩ,,株式会社,北海道,札幌市中央区,南九条西６丁目１番３２－４Ｃ号ｏｈｅｙａｄｏＳ９Ｂｌｄｇ,,01,101,0640809,,,,,,,2023-01-20,1,,,,,カニ,0
2494,9430001088256,新規,0,2023-01-20,2023-01-20,株式会社原田屋,,株式会社,北海道,札幌市白石区,平和通７丁目北１５番２０－３０１号,,01,104,0030029,,,,,,,2023-01-20,1,,,,,ハラダヤ,0
2497,9430003014680,新規,0,2023-01-20,2023-01-20,合同会社マインズ,,合同会社,北海道,苫小牧市,新明町５丁目６番７号,,01,213,0530055,,,,,,,2023-01-20,1,,,,,マインズ,0
2505,9700150113844,新規,0,2023-01-20,2023-01-20,克倫茲繪圖教育股分有限公司,,外国会社等,東京都,墨田区,吾妻橋３丁目１－１０,,13,107,1300001,１１Ｆ－２，ＮＯ．８７，ＬＩＵＨＥＲＤ．，ＺＨＯＮＧＬＩＤＩＳＴ．，ＴＡＯＹＵＡＮＣＩＴＹ３２０，ＴＡＩＷＡＮ（Ｒ．Ｏ．Ｃ）,,,,,,2023-01-20,1,,,,,クロンズエズキヨウイクユウゲンコウシ,0
