sequenceNumber,corporateNumber,process,correct,updateDate,changeDate,name,nameImageId,kind,prefectureName,cityName,streetNumber,addressImageId,prefectureCode,cityCode,postCode,addressOutside,addressOutsideImageId,closeDate,closeCause,successorCorporateNumber,changeCause,assignmentDate,latest,enName,enPrefectureName,enCityName,enAddressOutside,furigana,hihyoji
5,1010001021191,登記記録の閉鎖等,0,2022-07-27,2022-07-05,総武株式会社,,株式会社,東京都,千代田区,岩本町３丁目３番１４号,,13,101,1010032,,,2022-07-05,清算の結了等,,,2015-10-05,1,,,,,ソウブ,0
52,1010903001209,登記記録の閉鎖等,0,2022-07-27,2022-07-21,合同会社草莽,00052999,合同会社,東京都,世田谷区,深沢２丁目１６番１２号,,13,112,1580081,,,2022-07-21,清算の結了等,,,2015-10-05,1,,,,,ソウモウ,0
64,1011101074889,登記記録の閉鎖等,0,2022-07-27,2022-07-21,株式会社アトジャパン,,株式会社,東京都,新宿区,早稲田鶴巻町５６８番地,,13,104,1620041,,,2022-07-21,清算の結了等,,,2015-10-19,1,,,,,アトジャパン,0
72,1011201017847,登記記録の閉鎖等,0,2022-07-27,2022-07-06,株式会社プロセス,,株式会社,東京都,中野区,江古田４丁目２６番８号,,13,114,1650022,,,2022-07-06,合併による解散等,1011202003854,令和４年６月３０日東京都中野区沼袋一丁目１９番１９号株式会社チキン・フジ（1011202003854）に合併し解散,2015-10-05,1,,,,,プロセス,0
115,1030002005398,登記記録の閉鎖等,0,2022-07-27,2022-07-14,サイシン建設有限会社,,有限会社,埼玉県,さいたま市桜区,道場２丁目１０番１号１－１０４,,11,106,3380835,,,2022-07-14,清算の結了等,,,2015-10-05,1,,,,,サイシンケンセツ,0
116,1040001095563,登記記録の閉鎖等,0,2022-07-27,2022-07-13,株式会社デルタコーポレーション,,株式会社,千葉県,千葉市中央区,新田町３１番１１号,,12,101,2600027,,,2022-07-13,清算の結了等,,,2016-06-06,1,,,,,デルタコーポレーション,0
122,1040002082676,登記記録の閉鎖等,0,2022-07-27,2022-07-14,有限会社植草養鶏場,,有限会社,千葉県,長生郡長生村,信友１３４２番地,,12,423,2994331,,,2022-07-14,合併による解散等,2040001116987,令和４年７月１日千葉県長生郡長生村信友１３４２番地株式会社亜未（2040001116987）に合併し解散,2015-10-05,1,,,,,ウエクサヨウケイジョウ,0
129,1050001020363,登記記録の閉鎖等,0,2022-07-27,2022-07-14,株式会社マルコウ商事,,株式会社,茨城県,鹿嶋市,大字泉川２０４０番地,,08,222,3140015,,,2022-07-14,清算の結了等,,,2015-10-05,1,,,,,マルコウショウジ,0
150,1080402015380,登記記録の閉鎖等,0,2022-07-27,2022-07-25,有限会社浜電サービス,,有限会社,静岡県,浜松市浜北区,小林４０６番地,,22,136,4340031,,,2022-07-25,清算の結了等,,,2015-10-05,1,,,,,ハマデンサービス,0
154,1100002029794,登記記録の閉鎖等,0,2022-07-27,2022-07-15,有限会社小川写眞店,,有限会社,長野県,茅野市,塚原１丁目１５番３５号,,20,214,3910002,,,2022-07-15,清算の結了等,,,2015-10-05,1,,,,,オガワシャシンテン,0
162,1120001104588,登記記録の閉鎖等,0,2022-07-27,2022-07-21,株式会社新栄商会,,株式会社,大阪府,大阪市西成区,天神ノ森２丁目９番１３号,,27,122,5570013,,,2022-07-21,清算の結了等,,,2015-10-05,1,,,,,シンエイショウカイ,0
189,1120901035899,登記記録の閉鎖等,0,2022-07-27,2022-07-26,株式会社ＴＮＣ,,株式会社,大阪府,豊中市,利倉西２丁目１９番１５－１０１号,,27,203,5610844,,,2022-07-26,清算の結了等,,,2015-10-05,1,,,,,ティエヌシー,0
196,1130003007004,登記記録の閉鎖等,0,2022-07-27,2022-07-12,合同会社シャイニー,,合同会社,京都府,京都市右京区,鳴滝藤ノ木町９番地ガーデンヒル鳴滝２０２,,26,108,6168244,,,2022-07-12,清算の結了等,,,2021-01-28,1,,,,,シャイニー,0
205,1140002046126,登記記録の閉鎖等,0,2022-07-27,2022-07-22,有限会社ミカサ建設,,有限会社,兵庫県,豊岡市,妙楽寺２８７番地,,28,209,6680056,,,2022-07-22,清算の結了等,,,2015-10-05,1,,,,,ミカサケンセツ,0
221,1180001095260,登記記録の閉鎖等,0,2022-07-27,2022-07-20,株式会社ツカサ,,株式会社,愛知県,半田市,乙川源内林町２丁目１４２番地の４,,23,205,4750066,,,2022-07-20,清算の結了等,,,2015-10-05,1,,,,,ツカサ,0
228,1180302014596,登記記録の閉鎖等,0,2022-07-27,2022-07-15,Ｋ．システム有限会社,,有限会社,愛知県,豊川市,篠束町郷中４８番地,,23,207,4410102,,,2022-07-15,清算の結了等,,,2015-10-05,1,,,,,ケーシステム,0
246,1200005005857,登記記録の閉鎖等,0,2022-07-27,2022-07-25,農事組合法人池田第一茶生産組合,,その他の設立登記法人,岐阜県,揖斐郡池田町,小寺字山下７８２番地の２,,21,404,5032419,,,2022-07-25,清算の結了等,,,2015-10-05,1,,,,,イケダダイイチチャセイサンクミアイ,0
248,1220002011542,登記記録の閉鎖等,0,2022-07-27,2022-07-19,有限会社マルカワ陶芸,,有限会社,石川県,能美市,牛島町ロ１５５番地１,,17,211,9231113,,,2022-07-19,清算の結了等,,,2015-10-05,1,,,,,マルカワトウゲイ,0
255,1240002018478,登記記録の閉鎖等,0,2022-07-27,2022-07-25,有限会社路指無邸,,有限会社,広島県,広島市安佐南区,西原４丁目５番３３－１０２号,,34,105,7310113,,,2022-07-25,清算の結了等,,,2015-10-05,1,,,,,ロシナンテ,0
257,1240002033915,登記記録の閉鎖等,0,2022-07-27,2022-07-22,有限会社船木商店,,有限会社,広島県,呉市,警固屋４丁目１４番４２号,,34,202,7370012,,,2022-07-22,清算の結了等,,,2015-10-05,1,,,,,フナキショウテン,0
258,1240002039301,登記記録の閉鎖等,0,2022-07-27,2022-07-21,イシオカアパレル有限会社,,有限会社,広島県,福山市,山手町１丁目６番２６号,,34,207,7200092,,,2022-07-21,清算の結了等,,,2015-10-05,1,,,,,イシオカアパレル,0
265,1260002025299,登記記録の閉鎖等,0,2022-07-27,2022-07-25,白洋海運有限会社,,有限会社,岡山県,笠岡市,高島４５４６番地,,33,205,7140035,,,2022-07-25,清算の結了等,,,2015-10-05,1,,,,,ハクヨウカイウン,0
288,1310002001328,登記記録の閉鎖等,0,2022-07-27,2022-07-26,有限会社九州ネームプレート製作所,,有限会社,長崎県,長崎市,東山手町６番４１号,,42,201,8500911,,,2022-07-26,清算の結了等,,,2015-10-05,1,,,,,キュウシュウネームプレートセイサクショ,0
298,1330002027180,登記記録の閉鎖等,0,2022-07-27,2022-07-12,行永有限会社,,有限会社,熊本県,八代市,古閑浜町２７２７番地の８,,43,202,8660891,,,2022-07-12,清算の結了等,,,2015-10-05,1,,,,,ユキナガ,0
311,1390001006139,登記記録の閉鎖等,0,2022-07-27,2022-07-14,株式会社加藤組,,株式会社,山形県,酒田市,中央東町４番５７号,,06,204,9980033,,,2022-07-14,清算の結了等,,,2015-10-05,1,,,,,カトウグミ,0
322,1430001012297,登記記録の閉鎖等,0,2022-07-27,2022-07-14,株式会社なにわ書房,,株式会社,北海道,札幌市西区,二十四軒一条５丁目１番２号,,01,107,0630801,,,2022-07-14,清算の結了等,,,2015-10-05,1,,,,,,0
323,1430001048003,登記記録の閉鎖等,0,2022-07-27,2022-07-11,株式会社オーガニックファーム北村,,株式会社,北海道,岩見沢市,北村幌達布５１８０番地２０,,01,210,0681215,,,2022-07-11,清算の結了等,,,2015-10-05,1,,,,,オーガニックファームキタムラ,0
328,1430002025414,登記記録の閉鎖等,0,2022-07-27,2022-07-12,有限会社丸進田口塗装工業,,有限会社,北海道,札幌市東区,伏古七条２丁目５番８号,,01,103,0070867,,,2022-07-12,清算の結了等,,,2015-10-05,1,,,,,マルシンタグチトソウコウギョウ,0
339,1460102006303,登記記録の閉鎖等,0,2022-07-27,2022-07-20,有限会社フジケン,,有限会社,北海道,中川郡本別町,美里別４０番地１３,,01,646,0893300,,,2022-07-20,清算の結了等,,,2015-10-05,1,,,,,フジケン,0
376,2010401144599,登記記録の閉鎖等,0,2022-07-27,2022-07-06,ＥｎｇｌｉｓｈＨｅｌｐｅｒ　Ｊａｐａｎ株式会社,,株式会社,東京都,港区,高輪１丁目２３番２３号,,13,103,1080074,,,2022-07-06,清算の結了等,,,2019-03-27,1,,,,,イングリッシュヘルパージャパン,0
385,2010502010007,登記記録の閉鎖等,0,2022-07-27,2022-07-25,有限会社古川彫芸,,有限会社,東京都,台東区,谷中３丁目２１番１４号,,13,106,1100001,,,2022-07-25,清算の結了等,,,2015-10-05,1,,,,,フルカワチョウゲイ,0
389,2010701037098,登記記録の閉鎖等,0,2022-07-27,2022-07-15,株式会社Ｓｐｒｅａｔｉｏｎ,,株式会社,東京都,品川区,西五反田３丁目７番１４号三信ビル８階,,13,109,1410031,,,2022-07-15,清算の結了等,,,2019-02-07,1,,,,,スプレッション,0
396,2010802010615,登記記録の閉鎖等,0,2022-07-27,2022-07-19,有限会社中里鉄工所,,有限会社,東京都,大田区,大森東４丁目２６番１０号,,13,111,1430012,,,2022-07-19,清算の結了等,,,2015-10-05,1,,,,,ナカザトテッコウショ,0
403,2011001093286,登記記録の閉鎖等,0,2022-07-27,2022-07-25,株式会社トライステイト,,株式会社,東京都,渋谷区,神宮前２丁目３３番１２－２０３号,,13,113,1500001,,,2022-07-25,清算の結了等,,,2015-10-05,1,,,,,,0
437,2012801002717,登記記録の閉鎖等,0,2022-07-27,2022-07-14,株式会社石井自動車,,株式会社,東京都,武蔵村山市,伊奈平２丁目５５番地３,,13,223,2080023,,,2022-07-14,清算の結了等,,,2015-10-05,1,,,,,イシイジドウシャ,0
440,2013303003939,登記記録の閉鎖等,0,2022-07-27,2022-07-21,漢和合同会社,,合同会社,東京都,豊島区,池袋本町２丁目２９番１６号,,13,116,1700011,,,2022-07-21,清算の結了等,,,2017-11-22,1,,,,,カンワ,0
443,2020001079996,登記記録の閉鎖等,0,2022-07-27,2022-07-19,エービック株式会社,,株式会社,神奈川県,川崎市麻生区,王禅寺西６丁目２番１－５０４号,,14,137,2150017,,,2022-07-19,清算の結了等,,,2015-10-05,1,,,,,エービック,0
448,2020001135320,登記記録の閉鎖等,0,2022-07-27,2022-07-13,株式会社福乃屋,,株式会社,神奈川県,横浜市西区,北幸２丁目１３番５号,,14,103,2200004,,,2022-07-13,清算の結了等,,,2020-03-13,1,,,,,フクノヤ,0
456,2021001024496,登記記録の閉鎖等,0,2022-07-27,2022-07-21,株式会社マネジメントシステム研究所,,株式会社,神奈川県,厚木市,愛甲東３丁目１５番１２号,,14,212,2430027,,,2022-07-21,清算の結了等,,,2015-10-05,1,,,,,マネジメントシステムケンキュウウジョ,0
485,2050001007293,登記記録の閉鎖等,0,2022-07-27,2022-07-13,株式会社山辺工務店,,株式会社,茨城県,ひたちなか市,大字足崎１５０６番地１,,08,221,3120003,,,2022-07-13,清算の結了等,,,2015-10-05,1,,,,,ヤマノベコウムテン,0
487,2050002001808,登記記録の閉鎖等,0,2022-07-27,2022-07-15,有限会社すずき義歯技工所,,有限会社,茨城県,水戸市,元吉田町２７４４番地の５,,08,201,3100836,,,2022-07-15,清算の結了等,,,2015-10-05,1,,,,,スズキギシギコウショ,0
489,2050002027786,登記記録の閉鎖等,0,2022-07-27,2022-07-13,有限会社中央囲碁,,有限会社,茨城県,神栖市,土合北１丁目２番１６号,,08,232,3140342,,,2022-07-13,清算の結了等,,,2015-10-05,1,,,,,チュウオウイゴ,0
503,2100002037318,登記記録の閉鎖等,0,2022-07-27,2022-07-19,有限会社マルホリ精機,,有限会社,長野県,飯田市,上郷黒田８４３番地２,,20,205,3950004,,,2022-07-19,清算の結了等,,,2015-10-05,1,,,,,マルホリセイキ,0
508,2120001041839,登記記録の閉鎖等,0,2022-07-27,2022-07-22,株式会社エフ・アイ・エー国際教育アカデミー,,株式会社,大阪府,大阪市西区,西本町１丁目５番３号,,27,106,5500005,,,2022-07-22,清算の結了等,,,2015-10-05,1,,,,,エフアイエーコクサイキョウイクアカデミー,0
523,2120003010247,登記記録の閉鎖等,0,2022-07-27,2022-07-22,大口平出水発電所合同会社,,合同会社,石川県,金沢市,昭和町１３番１号,,17,201,9200856,,,2022-07-22,清算の結了等,,,2015-10-05,1,,,,,オオグチヒライズミハツデンショ,0
535,2120102021500,登記記録の閉鎖等,0,2022-07-27,2022-07-25,ハーツ有限会社,,有限会社,大阪府,岸和田市,中井町３丁目５番２５号,,27,202,5960003,,,2022-07-25,清算の結了等,,,2015-10-05,1,,,,,ハーツ,0
544,2130002000842,登記記録の閉鎖等,0,2022-07-27,2022-07-13,有限会社書房ツタヤ,,有限会社,京都府,京都市右京区,太秦蜂岡町３０番地,,26,108,6168162,,,2022-07-13,清算の結了等,,,2015-10-05,1,,,,,ショボウツタヤ,0
572,2180302009307,登記記録の閉鎖等,0,2022-07-27,2022-07-13,有限会社ビィ・ホーム,,有限会社,愛知県,豊橋市,植田町字東畑３０番地の１,,23,201,4418134,,,2022-07-13,清算の結了等,,,2015-10-05,1,,,,,ビィホーム,0
583,2210001014983,登記記録の閉鎖等,0,2022-07-27,2022-07-19,株式会社スピード・ワーク,,株式会社,福井県,福井市,成和１丁目１５１０番地,,18,201,9188239,,,2022-07-19,清算の結了等,,,2015-10-05,1,,,,,スピードワーク,0
585,2220002002251,登記記録の閉鎖等,0,2022-07-27,2022-07-22,有限会社京武蔵,,有限会社,石川県,金沢市,吉原町ワ２０３番地,,17,201,9203114,,,2022-07-22,清算の結了等,,,2015-10-05,1,,,,,キョウムサシ,0
587,2220002011062,登記記録の閉鎖等,0,2022-07-27,2022-07-22,有限会社番場左官店,,有限会社,石川県,小松市,幸町１丁目５１番地,,17,203,9230867,,,2022-07-22,清算の結了等,,,2015-10-05,1,,,,,バンバサカンテン,0
588,2220002011491,登記記録の閉鎖等,0,2022-07-27,2022-07-22,有限会社そうごう物流,,有限会社,石川県,能美市,粟生町西６１番地３,,17,211,9231101,,,2022-07-22,清算の結了等,,,2015-10-05,1,,,,,ソウゴウブツリュウ,0
590,2230002008256,登記記録の閉鎖等,0,2022-07-27,2022-07-25,有限会社飯田配管工業,,有限会社,富山県,下新川郡入善町,上飯野新８３番地,,16,342,9390651,,,2022-07-25,清算の結了等,,,2015-10-05,1,,,,,イイダハイカンコウギョウ,0
616,2300002010931,登記記録の閉鎖等,0,2022-07-27,2022-07-20,有限会社宗田産業,,有限会社,佐賀県,唐津市,肥前町星賀乙３６３番地２,,41,202,8471523,,,2022-07-20,清算の結了等,,,2015-10-05,1,,,,,ソウダサンギョウ,0
631,2390002001071,登記記録の閉鎖等,0,2022-07-27,2022-07-19,有限会社佐熊実業,,有限会社,山形県,山形市,あこや町１丁目１５番１１号,,06,201,9900025,,,2022-07-19,清算の結了等,,,2015-10-05,1,,,,,サクマジツギョウ,0
635,2430001021974,登記記録の閉鎖等,0,2022-07-27,2022-07-13,北海道綜合ビジネス株式会社,,株式会社,北海道,札幌市白石区,平和通１６丁目北３番９号,,01,104,0030029,,,2022-07-13,清算の結了等,,,2015-10-05,1,,,,,ホッカイドウソウゴウビジネス,0
645,2500001011423,登記記録の閉鎖等,0,2022-07-27,2022-07-22,カラコ住建株式会社,,株式会社,愛媛県,今治市,常盤町４丁目４番地２２,,38,202,7940015,,,2022-07-22,清算の結了等,,,2015-10-05,1,,,,,カラコジュウケン,0
646,2500002021909,登記記録の閉鎖等,0,2022-07-27,2022-07-25,有限会社三好工業所,,有限会社,愛媛県,四国中央市,川之江町３１１３番地１５８,,38,213,7990101,,,2022-07-25,清算の結了等,,,2015-10-05,1,,,,,ミヨシコウギョウショ,0
676,3010401081511,登記記録の閉鎖等,0,2022-07-27,2022-07-14,ＳｑｕａｒｅＨｅａｄ株式会社,,株式会社,東京都,江東区,有明３丁目７番２６号,,13,108,1350063,,,2022-07-14,清算の結了等,,,2015-10-05,1,,,,,スクエアヘッド,0
723,3011801018227,登記記録の閉鎖等,0,2022-07-27,2022-07-22,キープビー株式会社,,株式会社,東京都,足立区,大谷田５丁目１３番１１号,,13,121,1200001,,,2022-07-22,清算の結了等,,,2015-10-05,1,,,,,キープビー,0
732,3013301030934,登記記録の閉鎖等,0,2022-07-27,2022-07-21,株式会社ネイチャータッチジャパン,,株式会社,東京都,豊島区,南大塚２丁目４０番１号－６０５,,13,116,1700005,,,2022-07-21,清算の結了等,,,2015-10-05,1,,,,,ネイチャータッチジャパン,0
736,3013302001835,登記記録の閉鎖等,0,2022-07-27,2022-07-25,有限会社エムアールケイ,,有限会社,東京都,豊島区,要町１丁目１８番４号,,13,116,1710043,,,2022-07-25,清算の結了等,,,2015-10-05,1,,,,,エムアールケイ,0
754,3021002050383,登記記録の閉鎖等,0,2022-07-27,2022-07-05,有限会社茶屋水道,,有限会社,神奈川県,足柄下郡箱根町,湯本８０番地,,14,382,2500311,,,2022-07-05,合併による解散等,8021001032221,令和４年７月１日神奈川県足柄下郡箱根町湯本８０番地やまざき中央商事株式会社（8021001032221）に合併し解散,2015-10-05,1,,,,,チャヤスイドウ,0
755,3021002065084,登記記録の閉鎖等,0,2022-07-27,2022-07-21,有限会社鈴代,,有限会社,神奈川県,横須賀市,日の出町２丁目４番地,,14,201,2380006,,,2022-07-21,清算の結了等,,,2015-10-05,1,,,,,スズシロ,0
757,3030001043629,登記記録の閉鎖等,0,2022-07-27,2022-07-13,株式会社ＢＩＧ優,,株式会社,埼玉県,加須市,大字不動岡２１０７番地,,11,210,3470054,,,2022-07-13,清算の結了等,,,2015-10-05,1,,,,,,0
761,3030002084408,登記記録の閉鎖等,0,2022-07-27,2022-07-14,有限会社フジミ工業,,有限会社,埼玉県,北本市,石戸７丁目４６番地,,11,233,3640024,,,2022-07-14,清算の結了等,,,2015-10-05,1,,,,,,0
768,3040001001206,登記記録の閉鎖等,0,2022-07-27,2022-07-08,大和田印刷株式会社,,株式会社,千葉県,千葉市稲毛区,長沼原町６６６番地,,12,103,2630001,,,2022-07-08,清算の結了等,,,2015-10-05,1,,,,,,0
794,3110003000487,登記記録の閉鎖等,0,2022-07-27,2022-07-21,合資会社佐野鉄工所,,合資会社,新潟県,新潟市西蒲区,川崎３７８番地１,,15,108,9590432,,,2022-07-21,清算の結了等,,,2015-10-05,1,,,,,サノテッコウジョ,0
801,3120001178250,登記記録の閉鎖等,0,2022-07-27,2022-07-14,瑞生株式会社,,株式会社,大阪府,大阪市福島区,海老江５丁目４－８－７０２,,27,103,5530001,,,2022-07-14,清算の結了等,,,2015-10-05,1,,,,,ミズキ,0
803,3120001191641,登記記録の閉鎖等,0,2022-07-27,2022-07-22,株式会社ＴＨＥＮ,,株式会社,愛知県,一宮市,多加木１丁目２－１２,,23,203,4910837,,,2022-07-22,清算の結了等,,,2015-10-05,1,,,,,ゼン,0
813,3120101001287,登記記録の閉鎖等,0,2022-07-27,2022-07-25,大鳥紡績株式会社,,株式会社,大阪府,堺市南区,高倉台２丁１６番１０号,,27,145,5900117,,,2022-07-25,清算の結了等,,,2015-10-05,1,,,,,オオトリボウセキ,0
839,3140005017898,登記記録の閉鎖等,0,2022-07-27,2022-07-21,特定非営利活動法人小谷会,,その他の設立登記法人,兵庫県,養父市,大屋町宮本４１３番地,,28,222,6670432,,,2022-07-21,清算の結了等,,,2015-10-05,1,,,,,コダニカイ,0
851,3180302023257,登記記録の閉鎖等,0,2022-07-27,2022-07-15,有限会社福岡商会,,有限会社,愛知県,豊田市,小坂町９丁目１６番地,,23,211,4710035,,,2022-07-15,清算の結了等,,,2015-10-05,1,,,,,フクオカショウカイ,0
853,3190005011681,登記記録の閉鎖等,0,2022-07-27,2022-07-07,三重県外材輸出入協同組合,,その他の設立登記法人,三重県,津市,栗真中山町１３７番地,,24,201,5140103,,,2022-07-07,清算の結了等,,,2022-03-29,1,,,,,ミエケンガイザイユシュツニュウ,0
856,3200002009314,登記記録の閉鎖等,0,2022-07-27,2022-07-25,有限会社上林産業,,有限会社,岐阜県,瑞穂市,牛牧９７６番地の１,,21,216,5010234,,,2022-07-25,清算の結了等,,,2015-10-05,1,,,,,カミバヤシサンギョウ,0
861,3210002001352,登記記録の閉鎖等,0,2022-07-27,2022-07-13,有限会社斎藤,,有限会社,福井県,福井市,本折町第１５号４４番地の１,,18,201,9103642,,,2022-07-13,清算の結了等,,,2015-10-05,1,,,,,サイトウ,0
868,3240002005994,登記記録の閉鎖等,0,2022-07-27,2022-07-25,有限会社コクリコ,,有限会社,広島県,広島市東区,牛田旭２丁目６番７号,,34,102,7320067,,,2022-07-25,清算の結了等,,,2015-10-05,1,,,,,,0
889,3300002000436,登記記録の閉鎖等,0,2022-07-27,2022-07-21,有限会社クリーンビル開発,,有限会社,佐賀県,佐賀市,高木瀬東３丁目１７番１６号,,41,201,8490922,,,2022-07-21,清算の結了等,,,2015-10-05,1,,,,,クリーンビルカイハツ,0
891,3320201000219,登記記録の閉鎖等,0,2022-07-27,2022-07-21,太陽化学工業株式会社,,株式会社,大分県,津久見市,中町５番３１号,,44,207,8792452,,,2022-07-21,合併による解散等,6120001077433,令和４年７月１日大阪市北区中之島二丁目２番７号白石工業株式会社（6120001077433）に合併し解散,2015-10-05,1,,,,,タイヨウカガクコウギョウ,0
906,3390001006418,登記記録の閉鎖等,0,2022-07-27,2022-07-14,株式会社司縫製,,株式会社,山形県,酒田市,緑町１３番６号,,06,204,9980858,,,2022-07-14,清算の結了等,,,2015-10-05,1,,,,,,0
911,3430001033952,登記記録の閉鎖等,0,2022-07-27,2022-07-07,株式会社オートテクノ,,株式会社,北海道,札幌市西区,宮の沢一条４丁目１３番７号,,01,107,0630051,,,2022-07-07,合併による解散等,2430001030249,令和４年７月１日札幌市西区宮の沢一条四丁目１３番７号円山運送株式会社（2430001030249）に合併し解散,2015-10-05,1,,,,,オートテクノ,0
926,4010001146317,登記記録の閉鎖等,0,2022-07-27,2022-07-21,ＴＯＨＯ株式会社,,株式会社,東京都,中央区,新川１丁目６番１号,,13,102,1040033,,,2022-07-21,合併による解散等,6010401009377,令和４年７月１日東京都港区西新橋三丁目１１番１号建装工業株式会社（6010401009377）に合併し解散,2015-10-05,1,,,,,トウホウ,0
932,4010003027671,登記記録の閉鎖等,0,2022-07-27,2022-07-08,合同会社八王子大塚学生寮開発プロジェクト,,合同会社,東京都,千代田区,平河町１丁目６番１５号シルスフィア会計事務所内,,13,101,1020093,,,2022-07-08,清算の結了等,,,2018-06-07,1,,,,,ハチオウジオオツカガクセイリョウカイハツプロジェクト,0
942,4010501037899,登記記録の閉鎖等,0,2022-07-27,2022-07-25,株式会社伸弘社,,株式会社,東京都,台東区,松が谷４丁目２６番２－３０３号ウイムハイツ,,13,106,1110036,,,2022-07-25,清算の結了等,,,2015-10-05,1,,,,,シンコウシャ,0
945,4010601010921,登記記録の閉鎖等,0,2022-07-27,2022-07-15,新東京商事株式会社,,株式会社,東京都,墨田区,堤通２丁目１番２７号,,13,107,1310034,,,2022-07-15,清算の結了等,,,2015-10-05,1,,,,,シントウキョウショウジ,0
957,4011001129674,登記記録の閉鎖等,0,2022-07-27,2022-07-11,株式会社ヒロエンタープライズ,,株式会社,東京都,渋谷区,本町１丁目４５番７号Ｂ－１０１,,13,113,1510071,,,2022-07-11,清算の結了等,,,2019-08-28,1,,,,,ヒロエンタープライズ,0
987,4011705001030,登記記録の閉鎖等,0,2022-07-27,2022-07-22,一般社団法人グリーンディール推進協会,,その他の設立登記法人,東京都,江戸川区,北小岩５丁目１８番９号,,13,123,1330051,,,2022-07-22,清算の結了等,,,2015-10-05,1,,,,,グリーンディールスイシンキョウカイ,0
995,4013303002303,登記記録の閉鎖等,0,2022-07-27,2022-07-25,合同会社１,,合同会社,東京都,板橋区,赤塚２丁目３６番２９号,,13,119,1750092,,,2022-07-25,清算の結了等,,,2015-10-05,1,,,,,イチ,0
999,4020002092063,登記記録の閉鎖等,0,2022-07-27,2022-07-19,有限会社後藤壽久エンジニアリング,,有限会社,神奈川県,川崎市多摩区,中野島３丁目１０番４号,,14,135,2140012,,,2022-07-19,清算の結了等,,,2015-10-05,1,,,,,ゴトウトシヒサエンジニアリング,0
1000,4020002094613,登記記録の閉鎖等,0,2022-07-27,2022-07-13,有限会社高波自動車工業,00011615,有限会社,神奈川県,川崎市麻生区,万福寺３丁目１２番７号,,14,137,2150004,,,2022-07-13,清算の結了等,,,2015-10-05,1,,,,,タカナミジドウシャコウギョウ,0
1003,4020003014025,登記記録の閉鎖等,0,2022-07-27,2022-07-07,合同会社ｉ　ｃｕｂｉｃ,,合同会社,神奈川県,横浜市泉区,和泉中央南１丁目４１番３０号,,14,116,2450023,,,2022-07-07,清算の結了等,,,2018-03-07,1,,,,,アイキュービック,0
1031,4050001029369,登記記録の閉鎖等,0,2022-07-27,2022-07-15,株式会社釜初商店,,株式会社,茨城県,常総市,水海道宝町３３８５番地,,08,211,3030023,,,2022-07-15,清算の結了等,,,2015-10-05,1,,,,,カマハツショウテン,0
1032,4050001044418,登記記録の閉鎖等,0,2022-07-27,2022-07-13,株式会社つくばリフォーム,,株式会社,茨城県,つくば市,東新井１９番地１８,,08,220,3050033,,,2022-07-13,清算の結了等,,,2018-05-14,1,,,,,ツクバリフォーム,0
1050,4100001023548,登記記録の閉鎖等,0,2022-07-27,2022-07-19,ＰＩＥＣＥ株式会社,,株式会社,長野県,下伊那郡下條村,陽皐３９番地７,,20,411,3992102,,,2022-07-19,清算の結了等,,,2015-10-05,1,,,,,,0
1055,4120001052611,登記記録の閉鎖等,0,2022-07-27,2022-07-25,日新電材株式会社,,株式会社,大阪府,摂津市,鳥飼本町５丁目１３番１０号,,27,224,5660052,,,2022-07-25,清算の結了等,,,2015-10-05,1,,,,,ニッシンデンザイ,0
1092,4120101063434,登記記録の閉鎖等,0,2022-07-27,2022-07-25,株式会社ＧＷＨコンサルティング,,株式会社,大阪府,松原市,東新町３丁目６番２７号,,27,217,5800024,,,2022-07-25,清算の結了等,,,2021-04-13,1,,,,,ジーダブリュエイチコンサルティング,0
1098,4130001022217,登記記録の閉鎖等,0,2022-07-27,2022-07-13,株式会社ひがき製菓,,株式会社,京都府,京都市中京区,壬生渕田町２３番地,,26,104,6040000,,,2022-07-13,清算の結了等,,,2015-10-05,1,,,,,ヒガキセイカ,0
1109,4140001064373,登記記録の閉鎖等,0,2022-07-27,2022-07-22,株式会社グランドホールディングス,,株式会社,兵庫県,姫路市,西新在家２丁目１３番１６号,,28,201,6700096,,,2022-07-22,清算の結了等,,,2015-10-05,1,,,,,グランドホールディングス,0
1119,4180001008426,登記記録の閉鎖等,0,2022-07-27,2022-07-21,澤田高速ガード株式会社,,株式会社,愛知県,名古屋市中川区,富川町１丁目１番地,,23,110,4540037,,,2022-07-21,清算の結了等,,,2015-10-05,1,,,,,サワダコウソクガード,0
1126,4190002007153,登記記録の閉鎖等,0,2022-07-27,2022-07-19,有限会社三輪建設,,有限会社,三重県,鈴鹿市,北玉垣町１７０３番地の１９,,24,207,5130813,,,2022-07-19,清算の結了等,,,2015-10-05,1,,,,,ミワケンセツ,0
1130,4230002007768,登記記録の閉鎖等,0,2022-07-27,2022-07-25,有限会社ニューチンヤ,,有限会社,富山県,魚津市,本新４８８番地,,16,204,9370068,,,2022-07-25,清算の結了等,,,2015-10-05,1,,,,,ニューチンヤ,0
1131,4240001028112,登記記録の閉鎖等,0,2022-07-27,2022-07-21,富士食産株式会社,,株式会社,広島県,廿日市市,串戸１丁目５番７号,,34,213,7380033,,,2022-07-21,清算の結了等,,,2015-10-05,1,,,,,フジショクサン,0
1133,4240001041750,登記記録の閉鎖等,0,2022-07-27,2022-07-22,広島バイソク株式会社,,株式会社,広島県,広島市中区,平野町３番４号,,34,101,7300047,,,2022-07-22,清算の結了等,,,2015-10-05,1,,,,,ヒロシマバイソク,0
1156,4320002012668,登記記録の閉鎖等,0,2022-07-27,2022-07-22,有限会社八坂電設工業所,,有限会社,大分県,別府市,大字鉄輪２８番地の１１,,44,202,8740000,,,2022-07-22,清算の結了等,,,2015-10-05,1,,,,,ヤサカデンセツコウギョウショ,0
1157,4320203000034,登記記録の閉鎖等,0,2022-07-27,2022-07-22,合資会社酒井正光商店,,合資会社,大分県,臼杵市,大字臼杵７２番地の４７,,44,206,8750041,,,2022-07-22,清算の結了等,,,2015-10-05,1,,,,,サカイマサミツショウテン,0
1159,4340002012518,登記記録の閉鎖等,0,2022-07-27,2022-07-26,有限会社フィールド,,有限会社,鹿児島県,鹿児島市,武岡５丁目８番９号,,46,201,8900031,,,2022-07-26,清算の結了等,,,2015-10-05,1,,,,,,0
1160,4340002014084,登記記録の閉鎖等,0,2022-07-27,2022-07-20,有限会社福山酢直売センター,,有限会社,鹿児島県,霧島市,福山町福山３９６６番地３,,46,218,8994501,,,2022-07-20,清算の結了等,,,2015-10-05,1,,,,,フクヤマズチョクバイセンター,0
1168,4390001011202,登記記録の閉鎖等,0,2022-07-27,2022-07-14,株式会社やまぜん,,株式会社,山形県,長井市,成田字町屋川原１０２８番地５,,06,209,9930075,,,2022-07-14,清算の結了等,,,2015-10-05,1,,,,,ヤマゼン,0
1172,4400003000696,登記記録の閉鎖等,0,2022-07-27,2022-07-26,合同会社ベストライフ,,合同会社,岩手県,北上市,鬼柳町堰合２１９番地１,,03,206,0240056,,,2022-07-26,清算の結了等,,,2015-10-05,1,,,,,ベストライフ,0
1230,5010801009473,登記記録の閉鎖等,0,2022-07-27,2022-07-19,株式会社ニュー東京メディカル・インスティチュート,,株式会社,東京都,大田区,田園調布５丁目２１番６号,,13,111,1450071,,,2022-07-19,清算の結了等,,,2015-10-05,1,,,,,ニュートーキョーメディカルインスティチュート,0
1234,5010902016716,登記記録の閉鎖等,0,2022-07-27,2022-07-21,有限会社ワイ・ケイ・インターナショナル,,有限会社,東京都,世田谷区,千歳台２丁目１２番１１号,,13,112,1570071,,,2022-07-21,清算の結了等,,,2015-10-05,1,,,,,ワイケイインターナショナル,0
1292,5013301042275,登記記録の閉鎖等,0,2022-07-27,2022-07-21,株式会社カナインターナショナル,,株式会社,東京都,豊島区,南大塚２丁目４０番１号大塚中央ビル６０３,,13,116,1700005,,,2022-07-21,清算の結了等,,,2018-05-14,1,,,,,カナインターナショナル,0
1307,5021002016309,登記記録の閉鎖等,0,2022-07-27,2022-07-21,有限会社ラウレア,,有限会社,神奈川県,鎌倉市,材木座５丁目２番１６号,,14,204,2480013,,,2022-07-21,清算の結了等,,,2015-10-05,1,,,,,ラウレア,0
1333,5050001001632,登記記録の閉鎖等,0,2022-07-27,2022-07-19,株式会社田代,,株式会社,茨城県,水戸市,五軒町２丁目４番３０号,,08,201,3100063,,,2022-07-19,清算の結了等,,,2015-10-05,1,,,,,タシロ,0
1393,5130002033930,登記記録の閉鎖等,0,2022-07-27,2022-07-13,有限会社岡野設備工業所,,有限会社,京都府,京丹後市,網野町下岡２９１番地の１,,26,212,6293102,,,2022-07-13,清算の結了等,,,2015-10-05,1,,,,,オカノセツビコウギョウショ,0
1407,5180001034999,登記記録の閉鎖等,0,2022-07-27,2022-07-22,音研工業株式会社,,株式会社,愛知県,名古屋市中区,平和２丁目２番３５号,,23,106,4600021,,,2022-07-22,清算の結了等,,,2015-10-05,1,,,,,オンケンコウギョウ,0
1426,5210001014808,登記記録の閉鎖等,0,2022-07-27,2022-07-19,株式会社南部工務店,,株式会社,福井県,大野市,美川町３番１１号,,18,205,9120036,,,2022-07-19,清算の結了等,,,2015-10-05,1,,,,,,0
1429,5240001045841,登記記録の閉鎖等,0,2022-07-27,2022-07-21,株式会社トラストケルナー,,株式会社,広島県,東広島市,西条町御薗宇円城寺６７９１,,34,212,7390024,,,2022-07-21,清算の結了等,,,2015-10-05,1,,,,,トラストケルナー,0
1454,5340005008529,登記記録の閉鎖等,0,2022-07-27,2022-07-22,農事組合法人さくらの会,,その他の設立登記法人,鹿児島県,姶良市,加治木町小山田５９４３番地３１,,46,225,8995203,,,2022-07-22,清算の結了等,,,2016-02-26,1,,,,,サクラノカイ,0
1456,5360001016673,登記記録の閉鎖等,0,2022-07-27,2022-07-14,株式会社沖縄ベーシック,,株式会社,沖縄県,糸満市,字潮平３８８番地の１,,47,210,9010302,,,2022-07-14,清算の結了等,,,2015-10-05,1,,,,,オキナワベーシック,0
1460,5370002000048,登記記録の閉鎖等,0,2022-07-27,2022-07-08,有限会社旭ケ丘自動車商会,,有限会社,宮城県,仙台市泉区,松陵１丁目１番地の２,,04,105,9813108,,,2022-07-08,清算の結了等,,,2015-10-05,1,,,,,アサヒガオカジドウシャショウカイ,0
1487,5470002011423,登記記録の閉鎖等,0,2022-07-27,2022-07-26,有限会社岡本建具商会,,有限会社,香川県,丸亀市,福島町１２９番地２,,37,202,7630044,,,2022-07-26,清算の結了等,,,2015-10-05,1,,,,,オカモトタテグショウカイ,0
1535,6011003005814,登記記録の閉鎖等,0,2022-07-27,2022-07-08,グローリア合同会社,,合同会社,東京都,渋谷区,代官山町２０番９号,,13,113,1500034,,,2022-07-08,清算の結了等,,,2015-10-05,1,,,,,グローリア,0
1542,6011101072021,登記記録の閉鎖等,0,2022-07-27,2022-07-21,株式会社大久保建設,,株式会社,東京都,新宿区,大久保１丁目１番９号,,13,104,1690072,,,2022-07-21,清算の結了等,,,2015-10-05,1,,,,,オオクボケンセツ,0
1575,6013202008556,登記記録の閉鎖等,0,2022-07-27,2022-07-11,有限会社大惠建物,,有限会社,東京都,目黒区,下目黒２丁目１番４号,,13,110,1530064,,,2022-07-11,清算の結了等,,,2015-10-05,1,,,,,ダイケイタテモノ,0
1584,6020001020246,登記記録の閉鎖等,0,2022-07-27,2022-07-22,三栄カルディオ神奈川販売株式会社,,株式会社,神奈川県,横浜市港北区,新横浜２丁目１３番地１３ＴＰＲ新横浜ビル,,14,109,2220033,,,2022-07-22,合併による解散等,6011001062238,令和４年７月１日東京都新宿区西新宿三丁目２番１１号株式会社アペックス・インターナショナル（6011001062238）に合併し解散,2015-10-05,1,,,,,サンエイカルディオカナガワハンバイ,0
1602,6030001026812,登記記録の閉鎖等,0,2022-07-27,2022-07-13,株式会社エスアンドケイ,,株式会社,埼玉県,入間市,大字小谷田１５２１番地,,11,225,3580026,,,2022-07-13,清算の結了等,,,2015-10-05,1,,,,,エスアンドケイ,0
1635,6060001029845,登記記録の閉鎖等,0,2022-07-27,2022-07-14,株式会社カシェール,,株式会社,栃木県,河内郡上三川町,しらさぎ２丁目１－４,,09,301,3290618,,,2022-07-14,清算の結了等,,,2017-10-03,1,,,,,カシェール,0
1638,6070002024084,登記記録の閉鎖等,0,2022-07-27,2022-07-13,有限会社玉木テキスタイル,,有限会社,群馬県,みどり市,笠懸町鹿３０２５番地２,,10,212,3792313,,,2022-07-13,清算の結了等,,,2015-10-05,1,,,,,,0
1639,6080002017871,登記記録の閉鎖等,0,2022-07-27,2022-07-26,林左官工業有限会社,,有限会社,静岡県,藤枝市,高岡３丁目２５番２３号,,22,214,4260062,,,2022-07-26,清算の結了等,,,2015-10-05,1,,,,,ハヤシサカンコウギョウ,0
1644,6110001034055,登記記録の閉鎖等,0,2022-07-27,2022-07-20,株式会社就労支援センターつなぐ,,株式会社,新潟県,新潟市中央区,二葉町３丁目５１５２番地９,,15,103,9518102,,,2022-07-20,清算の結了等,,,2019-05-30,1,,,,,シュウロウシエンセンターツナグ,0
1706,6200001018148,登記記録の閉鎖等,0,2022-07-27,2022-07-20,シンテック株式会社,,株式会社,岐阜県,可児市,緑ケ丘５丁目６２番地の１,,21,214,5090231,,,2022-07-20,清算の結了等,,,2015-10-05,1,,,,,,0
1718,6260001000240,登記記録の閉鎖等,0,2022-07-27,2022-07-26,株式会社アズ建築工房,,株式会社,岡山県,岡山市北区,大供２丁目４番２３号,,33,101,7000913,,,2022-07-26,清算の結了等,,,2015-10-05,1,,,,,アズケンチクコウボウ,0
1723,6280005003626,登記記録の閉鎖等,0,2022-07-27,2022-07-14,協同組合大田ファミリーデパート,,その他の設立登記法人,島根県,大田市,大田町大田イ４１１番地,,32,205,6940064,,,2022-07-14,清算の結了等,,,2015-10-05,1,,,,,オオダファミリーデパート,0
1732,6290801016441,登記記録の閉鎖等,0,2022-07-27,2022-07-25,西日本衣料株式会社,,株式会社,福岡県,田川市,大字伊加利２２０４番地１６,,40,206,8250001,,,2022-07-25,清算の結了等,,,2015-10-05,1,,,,,ニシニホンイリョウ,0
1734,6310002003451,登記記録の閉鎖等,0,2022-07-27,2022-07-26,有限会社桃華園,,有限会社,長崎県,長崎市,新地町９番９号,,42,201,8500842,,,2022-07-26,清算の結了等,,,2015-10-05,1,,,,,トウカエン,0
1738,6320002005273,登記記録の閉鎖等,0,2022-07-27,2022-07-22,有限会社ネットバイオス,,有限会社,大分県,大分市,森町西１丁目１３番９号,,44,201,8700140,,,2022-07-22,清算の結了等,,,2015-10-05,1,,,,,ネットバイオス,0
1740,6320005004264,登記記録の閉鎖等,0,2022-07-27,2022-07-22,農事組合法人吉松営農組合よしまつの里,,その他の設立登記法人,大分県,宇佐市,大字吉松１６９番地,,44,211,8790441,,,2022-07-22,清算の結了等,,,2015-10-05,1,,,,,,0
1754,6390001004600,登記記録の閉鎖等,0,2022-07-27,2022-07-07,丸吉興業株式会社,,株式会社,山形県,天童市,大字蔵増乙１４２０番地,,06,210,9940075,,,2022-07-07,清算の結了等,,,2021-12-22,1,,,,,マルヨシコウギョウ,0
1763,6420003001451,登記記録の閉鎖等,0,2022-07-27,2022-07-25,合同会社桑村工業,,合同会社,青森県,西津軽郡鰺ヶ沢町,大字南浮田町字金沢街道ノ沢５３番地２５,,02,321,0382705,,,2022-07-25,清算の結了等,,,2015-10-05,1,,,,,クワムラコウギョウ,0
1772,6430002009379,登記記録の閉鎖等,0,2022-07-27,2022-07-13,有限会社新札幌自工,,有限会社,北海道,札幌市豊平区,豊平三条３丁目１番５号,,01,105,0620903,,,2022-07-13,清算の結了等,,,2015-10-05,1,,,,,シンサッポロジコウ,0
1774,6440001001848,登記記録の閉鎖等,0,2022-07-27,2022-07-19,株式会社春山工業,,株式会社,北海道,函館市,昭和２丁目４１番１号,,01,202,0410812,,,2022-07-19,清算の結了等,,,2015-10-05,1,,,,,ハルヤマコウギョウ,0
1777,6470002017948,登記記録の閉鎖等,0,2022-07-27,2022-07-25,有限会社ハンダ,,有限会社,香川県,さぬき市,鴨庄１００４番地７,,37,206,7692102,,,2022-07-25,清算の結了等,,,2015-10-05,1,,,,,ハンダ,0
1778,6470005001387,登記記録の閉鎖等,0,2022-07-27,2022-07-25,公益財団法人高松市福祉事業団,,その他の設立登記法人,香川県,高松市,香西南町４７６番地１,,37,201,7618014,,,2022-07-25,清算の結了等,,,2015-10-05,1,,,,,タカマツシフクシジギョウダン,0
1788,7010001095552,登記記録の閉鎖等,0,2022-07-27,2022-07-08,Ｋｅｎｎｅｄｙ　Ｗｉｌｓｏｎ　Ｊａｐａｎ株式会社,,株式会社,東京都,千代田区,内幸町１丁目３番１号,,13,101,1000011,,,2022-07-08,清算の結了等,,,2015-10-05,1,,,,,ケネディウィルソンジャパン,0
1799,7010102000808,登記記録の閉鎖等,0,2022-07-27,2022-07-12,有限会社井上躯体工業,,有限会社,東京都,八王子市,戸吹町９６番地の３,,13,201,1920001,,,2022-07-12,清算の結了等,,,2015-10-05,1,,,,,イノウエクタイコウギョウ,0
1814,7010405015684,登記記録の閉鎖等,0,2022-07-27,2022-07-05,特定非営利活動法人東湘会,,その他の設立登記法人,東京都,港区,南麻布２丁目３番１１号パークホームズ南麻布ザレジデンス８０９,,13,103,1060047,,,2022-07-05,清算の結了等,,,2017-04-20,1,,,,,トウショウカイ,0
1870,7030002012216,登記記録の閉鎖等,0,2022-07-27,2022-07-14,有限会社星野内裝,,有限会社,埼玉県,さいたま市南区,大字太田窪１９８６番地１,,11,108,3360015,,,2022-07-14,清算の結了等,,,2015-10-05,1,,,,,ホシノナイソウ,0
1874,7030002083777,登記記録の閉鎖等,0,2022-07-27,2022-07-12,有限会社加藤工務店,,有限会社,埼玉県,鴻巣市,小谷１８２５番地,,11,217,3690133,,,2022-07-12,清算の結了等,,,2015-10-05,1,,,,,カトウコウムテン,0
1877,7030005019695,登記記録の閉鎖等,0,2022-07-27,2022-07-14,一般社団法人国際美術デザイン連盟,,その他の設立登記法人,埼玉県,富士見市,関沢２丁目１６番４７－１０５号,,11,235,3540025,,,2022-07-14,清算の結了等,,,2019-11-07,1,,,,,コクサイビジュツデザインレンメイ,0
1885,7040003006851,登記記録の閉鎖等,0,2022-07-27,2022-07-15,合同会社Ｐｏｒｔｅ,,合同会社,千葉県,松戸市,西馬橋蔵元町５４番地Ｓビル１階,,12,207,2710046,,,2022-07-15,清算の結了等,,,2015-10-05,1,,,,,ポルテ,0
1886,7040003016297,登記記録の閉鎖等,0,2022-07-27,2022-07-12,合同会社Ｈ＆Ｋ,,合同会社,千葉県,船橋市,金杉３丁目２０番２０号,,12,204,2730853,,,2022-07-12,清算の結了等,,,2020-10-16,1,,,,,エイチアンドケイ,0
1899,7080102004109,登記記録の閉鎖等,0,2022-07-27,2022-07-25,有限会社イチノ精工,,有限会社,静岡県,裾野市,麦塚７６番地の２,,22,220,4101122,,,2022-07-25,清算の結了等,,,2015-10-05,1,,,,,イチノセイコウ,0
1928,7120002020837,登記記録の閉鎖等,0,2022-07-27,2022-07-15,有限会社夢工房,,有限会社,大阪府,東大阪市,御厨栄町３丁目１番４６号,,27,227,5770036,,,2022-07-15,清算の結了等,,,2015-10-05,1,,,,,ユメコウボウ,0
1936,7120005005430,登記記録の閉鎖等,0,2022-07-27,2022-07-25,医療法人中嶋医院,,その他の設立登記法人,大阪府,大阪市住吉区,長居東４丁目２番１９号,,27,120,5580004,,,2022-07-25,清算の結了等,,,2015-10-05,1,,,,,ナカジマイイン,0
1958,7180001018174,登記記録の閉鎖等,0,2022-07-27,2022-07-25,株式会社プラネット,,株式会社,愛知県,名古屋市東区,泉３丁目１１番２７号,,23,102,4610001,,,2022-07-25,清算の結了等,,,2015-10-05,1,,,,,プラネット,0
1965,7180301021547,登記記録の閉鎖等,0,2022-07-27,2022-07-25,株式会社Ｌｉｆｅ　Ａｒｔ　Ｈａｒｕ,,株式会社,愛知県,豊田市,浄水町原山１０８番地２,,23,211,4700343,,,2022-07-25,清算の結了等,,,2015-10-05,1,,,,,,0
1968,7180302021463,登記記録の閉鎖等,0,2022-07-27,2022-07-14,有限会社ウエノヤ,,有限会社,愛知県,豊田市,上野町８丁目１６１番地８,,23,211,4710015,,,2022-07-14,清算の結了等,,,2015-10-05,1,,,,,ウエノヤ,0
1969,7180302027122,登記記録の閉鎖等,0,2022-07-27,2022-07-14,有限会社兼昇,,有限会社,愛知県,西尾市,上町中道２２番地３,,23,213,4450894,,,2022-07-14,清算の結了等,,,2015-10-05,1,,,,,カネショウ,0
1974,7200001016522,登記記録の閉鎖等,0,2022-07-27,2022-07-11,株式会社グルーヴシステムズ,,株式会社,東京都,渋谷区,渋谷３丁目２７－１５坂上ビル７Ｆ,,13,113,1500002,,,2022-07-11,清算の結了等,,,2015-10-05,1,,,,,グルーヴシステムズ,0
1975,7200002002769,登記記録の閉鎖等,0,2022-07-27,2022-07-25,有限会社高井電機工業,,有限会社,岐阜県,岐阜市,則松２丁目１５番地,,21,201,5011183,,,2022-07-25,清算の結了等,,,2015-10-05,1,,,,,タカイデンキコウギョウ,0
1984,7240001003616,登記記録の閉鎖等,0,2022-07-27,2022-07-22,小寺木材工業株式会社,,株式会社,広島県,広島市中区,袋町５番３４－２０３号,,34,101,7300036,,,2022-07-22,清算の結了等,,,2015-10-05,1,,,,,コデラモクザイコウギョウ,0
1986,7240001036450,登記記録の閉鎖等,0,2022-07-27,2022-07-22,高越工業株式会社,,株式会社,広島県,安芸郡熊野町,平谷１丁目１５番１０号,,34,307,7314229,,,2022-07-22,清算の結了等,,,2015-10-05,1,,,,,タカゴシコウギョウ,0
1995,7270002002804,登記記録の閉鎖等,0,2022-07-27,2022-07-22,有限会社竹内建具製作所,,有限会社,鳥取県,鳥取市,朝月３１７番地２,,31,201,6801166,,,2022-07-22,清算の結了等,,,2015-10-05,1,,,,,,0
2004,7290801005542,登記記録の閉鎖等,0,2022-07-27,2022-07-26,道路安全施設株式会社,,株式会社,福岡県,北九州市門司区,白野江２丁目９番２５号,,40,101,8010802,,,2022-07-26,清算の結了等,,,2015-10-05,1,,,,,ドウロアンゼンシセツ,0
2006,7300002006405,登記記録の閉鎖等,0,2022-07-27,2022-07-21,有限会社武雄会館,,有限会社,佐賀県,佐賀市,久保田町大字徳万１６４７番地,,41,201,8490201,,,2022-07-21,清算の結了等,,,2015-10-05,1,,,,,,0
2008,7310001005662,登記記録の閉鎖等,0,2022-07-27,2022-07-22,大平建設株式会社,,株式会社,長崎県,佐世保市,大岳台町４番５号,,42,202,8571163,,,2022-07-22,清算の結了等,,,2022-02-02,1,,,,,,0
2016,7340001021467,登記記録の閉鎖等,0,2022-07-27,2022-07-26,櫻興業株式会社,,株式会社,鹿児島県,鹿屋市,吾平町麓１６０４番地１,,46,203,8931103,,,2022-07-26,清算の結了等,,,2018-09-19,1,,,,,サクラコウギョウ,0
2020,7370002006002,登記記録の閉鎖等,0,2022-07-27,2022-07-08,有限会社堀江鉄工所,,有限会社,宮城県,仙台市若林区,荒井７丁目１１番地の２,,04,103,9840032,,,2022-07-08,清算の結了等,,,2015-10-05,1,,,,,ホリエテッコウショ,0
2032,7400602000350,登記記録の閉鎖等,0,2022-07-27,2022-07-22,有限会社州建,,有限会社,岩手県,奥州市,水沢西上野町５番５号,,03,215,0230856,,,2022-07-22,清算の結了等,,,2015-10-05,1,,,,,シュウケン,0
2053,8010001112298,登記記録の閉鎖等,0,2022-07-27,2022-07-21,株式会社ＥＭＢＲＡＣＥＳＳ,,株式会社,東京都,新宿区,赤城下町４５ＫＢＣ－Ｂ－８,,13,104,1620803,,,2022-07-21,清算の結了等,,,2015-10-05,1,,,,,エンブレイス,0
2076,8010003028682,登記記録の閉鎖等,0,2022-07-27,2022-07-08,ＣＫＨ合同会社,,合同会社,東京都,中央区,新川１丁目１７番１８号,,13,102,1040033,,,2022-07-08,清算の結了等,,,2018-11-08,1,,,,,シーケイエイチ,0
2096,8010901042231,登記記録の閉鎖等,0,2022-07-27,2022-07-21,株式会社リクティー,,株式会社,東京都,世田谷区,三宿２丁目２５番２４号,,13,112,1540005,,,2022-07-21,清算の結了等,,,2018-06-07,1,Rikuty Inc.,,,,リクティー,0
2097,8010901044780,登記記録の閉鎖等,0,2022-07-27,2022-07-21,株式会社Ｅｔｏｉｌｅ,,株式会社,東京都,世田谷区,下馬６丁目４６番６－３０５号,,13,112,1540002,,,2022-07-21,清算の結了等,,,2019-09-03,1,,,,,エトワール,0
2102,8011001091664,登記記録の閉鎖等,0,2022-07-27,2022-07-19,株式会社Ｒｅｓ,,株式会社,長野県,松本市,大手４丁目１－１３スイート縄手本店３Ｆ,,20,202,3900874,,,2022-07-19,清算の結了等,,,2015-10-05,1,,,,,レス,0
2146,8020001141346,登記記録の閉鎖等,0,2022-07-27,2022-07-13,株式会社ベーシックス,,株式会社,神奈川県,横浜市南区,高根町３丁目１７番地３,,14,105,2320022,,,2022-07-13,清算の結了等,,,2021-05-18,1,,,,,ベーシックス,0
2147,8020002036900,登記記録の閉鎖等,0,2022-07-27,2022-07-14,有限会社荒井屋,,有限会社,神奈川県,横浜市鶴見区,下野谷町４丁目１５３番地,,14,101,2300047,,,2022-07-14,清算の結了等,,,2015-10-05,1,,,,,アライヤ,0
2161,8030001043913,登記記録の閉鎖等,0,2022-07-27,2022-07-13,株式会社ラピス,,株式会社,埼玉県,加須市,大字不動岡２１０７番地,,11,210,3470054,,,2022-07-13,清算の結了等,,,2015-10-05,1,,,,,ラピス,0
2183,8050001044645,登記記録の閉鎖等,0,2022-07-27,2022-07-06,株式会社嶋村総業,,株式会社,茨城県,かすみがうら市,下稲吉１９９３－６－２０６,,08,230,3150052,,,2022-07-06,清算の結了等,,,2018-07-09,1,,,,,シマムラソウギョウ,0
2184,8050002033003,登記記録の閉鎖等,0,2022-07-27,2022-07-13,有限会社ウインドセンター有本,,有限会社,茨城県,龍ケ崎市,大徳町２４１６番地の３,,08,208,3010816,,,2022-07-13,清算の結了等,,,2015-10-05,1,,,,,,0
2189,8080003000214,登記記録の閉鎖等,0,2022-07-27,2022-07-20,合資会社安本木材,,合資会社,静岡県,静岡市葵区,馬場町３０番地,,22,101,4200867,,,2022-07-20,清算の結了等,,,2015-10-05,1,,,,,ヤスモトモクザイ,0
2190,8080401010260,登記記録の閉鎖等,0,2022-07-27,2022-07-25,天龍木材加工株式会社,,株式会社,静岡県,浜松市浜北区,根堅１９８８番地の９,,22,136,4340016,,,2022-07-25,清算の結了等,,,2015-10-05,1,,,,,テンリュウモクザイカコウ,0
2199,8100002032354,登記記録の閉鎖等,0,2022-07-27,2022-07-19,有限会社エテルナ,,有限会社,長野県,諏訪郡原村,１７２１７番地３６０４,,20,363,3910100,,,2022-07-19,清算の結了等,,,2015-10-05,1,,,,,エテルナ,0
2215,8120002032773,登記記録の閉鎖等,0,2022-07-27,2022-07-15,有限会社ホリエ,,有限会社,大阪府,大阪市阿倍野区,天王寺町北３丁目１８番２１－１３０５号,,27,119,5450001,,,2022-07-15,清算の結了等,,,2015-10-05,1,,,,,ホリエ,0
2229,8122001008060,登記記録の閉鎖等,0,2022-07-27,2022-07-15,聯美国際通商株式会社,,株式会社,大阪府,東大阪市,御厨栄町３丁目１番４６号,,27,227,5770036,,,2022-07-15,清算の結了等,,,2015-10-05,1,,,,,レンビコクサイツウショウ,0
2234,8130001063224,登記記録の閉鎖等,0,2022-07-27,2022-07-22,株式会社山川建築内装,,株式会社,滋賀県,大津市,瀬田２丁目３番３５号－１０３,,25,201,5202134,,,2022-07-22,清算の結了等,,,2018-10-31,1,,,,,ヤマカワケンチクナイソウ,0
2253,8180002028626,登記記録の閉鎖等,0,2022-07-27,2022-07-25,有限会社西野設備,,有限会社,愛知県,名古屋市中村区,森末町４丁目６６番地,,23,105,4530052,,,2022-07-25,清算の結了等,,,2015-10-05,1,,,,,ニシノセツビ,0
2254,8180002091046,登記記録の閉鎖等,0,2022-07-27,2022-07-25,有限会社日月,,有限会社,愛知県,名古屋市中区,上前津１丁目１５番５号,,23,106,4600013,,,2022-07-25,清算の結了等,,,2015-10-05,1,,,,,ヒツキ,0
2261,8190001024063,登記記録の閉鎖等,0,2022-07-27,2022-07-14,株式会社ｌｅａ,,株式会社,三重県,伊勢市,大倉町１５５３番地２８２,,24,203,5161101,,,2022-07-14,清算の結了等,,,2016-10-14,1,,,,,,0
2312,8290801022157,登記記録の閉鎖等,0,2022-07-27,2022-07-25,辰巳建装株式会社,,株式会社,福岡県,北九州市八幡西区,馬場山緑７番１３－５号,,40,109,8071133,,,2022-07-25,清算の結了等,,,2016-01-07,1,,,,,,0
2315,8320005007827,登記記録の閉鎖等,0,2022-07-27,2022-07-20,特定非営利活動法人レスキュー・サポート九州,,その他の設立登記法人,大分県,中津市,大字下池永８９番地の６,,44,203,8710011,,,2022-07-20,清算の結了等,,,2015-10-05,1,,,,,レスキューサポートキュウシュウ,0
2320,8340005001836,登記記録の閉鎖等,0,2022-07-27,2022-07-25,医療法人広恵会,,その他の設立登記法人,鹿児島県,鹿児島市,小松原２丁目２２番２５号,,46,201,8910114,,,2022-07-25,清算の結了等,,,2015-10-05,1,,,,,コウケイカイ,0
2324,8370001002109,登記記録の閉鎖等,0,2022-07-27,2022-07-11,株式会社春東北,,株式会社,宮城県,仙台市太白区,袋原２丁目３番１０号,,04,104,9811102,,,2022-07-11,清算の結了等,,,2015-10-05,1,,,,,ハルトウホク,0
2330,8380001024300,登記記録の閉鎖等,0,2022-07-27,2022-07-19,相双サービス株式会社,,株式会社,福島県,双葉郡広野町,大字上北迫字二本椚５３番地,,07,541,9790401,,,2022-07-19,清算の結了等,,,2015-10-05,1,,,,,,0
2337,8400002002541,登記記録の閉鎖等,0,2022-07-27,2022-07-25,有限会社博光出版,,有限会社,岩手県,盛岡市,みたけ５丁目８番４３号,,03,201,0200122,,,2022-07-25,清算の結了等,,,2015-10-05,1,,,,,ハッコウシュッパン,0
2341,8430001058350,登記記録の閉鎖等,0,2022-07-27,2022-07-12,株式会社Ｊ・ＨＯＵＳＥ,,株式会社,北海道,札幌市白石区,中央三条５丁目８番１０号,,01,104,0030013,,,2022-07-12,清算の結了等,,,2015-10-05,1,,,,,ジェイハウス,0
2342,8430001070289,登記記録の閉鎖等,0,2022-07-27,2022-07-12,株式会社ハウ,,株式会社,北海道,札幌市中央区,北二条西１３丁目１－９ラピスガーデン札幌北２条７０１号,,01,101,0600002,,,2022-07-12,清算の結了等,,,2015-11-17,1,,,,,ハウ,0
2353,8470001014242,登記記録の閉鎖等,0,2022-07-27,2022-07-26,株式会社光輝,,株式会社,香川県,高松市,丸亀町１０番地３,,37,201,7600029,,,2022-07-26,清算の結了等,,,2015-10-05,1,,,,,コウキ,0
2356,8480002010652,登記記録の閉鎖等,0,2022-07-27,2022-07-26,有限会社渡川,,有限会社,徳島県,鳴門市,撫養町木津７９８番地３－３０１号,,36,202,7720004,,,2022-07-26,清算の結了等,,,2015-10-05,1,,,,,トガワ,0
2364,9010001163464,登記記録の閉鎖等,0,2022-07-27,2022-07-05,株式会社ボンサイジャパン,,株式会社,東京都,千代田区,丸の内１丁目１１番１号パシフィックセンチュリープレイス８Ｆ,,13,101,1000005,,,2022-07-05,清算の結了等,,,2015-10-05,1,,,,,ボンサイジャパン,0
2368,9010001179923,登記記録の閉鎖等,0,2022-07-27,2022-07-22,株式会社ＨＡＢＡＬＡＹＡ,,株式会社,東京都,新宿区,百人町１丁目２０番３バラードハイム渡辺ビル５０３号,,13,104,1690073,,,2022-07-22,清算の結了等,,,2016-12-01,1,,,,,ハバラヤ,0
2372,9010003027072,登記記録の閉鎖等,0,2022-07-27,2022-07-06,Ｓ－Ｐｏｗｅｒ熊谷合同会社,,合同会社,東京都,港区,芝大門２丁目４番６号豊国ビル,,13,103,1050012,,,2022-07-06,清算の結了等,,,2018-03-02,1,,,,,エスパワークマガヤ,0
2391,9010403016955,登記記録の閉鎖等,0,2022-07-27,2022-07-06,Ｓｃａｌａ２合同会社,,合同会社,東京都,港区,虎ノ門４丁目１番２８号,,13,103,1050001,,,2022-07-06,清算の結了等,,,2017-07-31,1,,,,,スカラツー,0
2411,9011001022833,登記記録の閉鎖等,0,2022-07-27,2022-07-11,宮崎不動産株式会社,,株式会社,東京都,渋谷区,元代々木町２番１２号,,13,113,1510062,,,2022-07-11,清算の結了等,,,2015-10-05,1,,,,,ミヤザキフドウサン,0
2418,9011001120307,登記記録の閉鎖等,0,2022-07-27,2022-07-21,アライアンスネクスト株式会社,,株式会社,東京都,豊島区,池袋２丁目３６番１号,,13,116,1710014,,,2022-07-21,清算の結了等,,,2018-01-25,1,,,,,アライアンスネクスト,0
2421,9011002024523,登記記録の閉鎖等,0,2022-07-27,2022-07-01,有限会社テクノウェア,,有限会社,東京都,渋谷区,幡ヶ谷３丁目３１番１０－４２１号,,13,113,1510072,,,2022-07-01,清算の結了等,,,2015-10-05,1,,,,,テクノウエア,0
2423,9011101085565,登記記録の閉鎖等,0,2022-07-27,2022-07-22,株式会社ＥＳリンク,,株式会社,東京都,新宿区,津久戸町１番８号,,13,104,1620821,,,2022-07-22,清算の結了等,,,2018-10-05,1,,,,,イーエスリンク,0
2431,9011302009273,登記記録の閉鎖等,0,2022-07-27,2022-07-21,有限会社メッツ・トゥーワン,,有限会社,東京都,杉並区,阿佐谷北２丁目７番１９号,,13,115,1660001,,,2022-07-21,清算の結了等,,,2015-10-05,1,,,,,メッツトゥーワン,0
2460,9020002100936,登記記録の閉鎖等,0,2022-07-27,2022-07-14,有限会社エムイーケーメディカル,,有限会社,神奈川県,川崎市麻生区,上麻生２丁目１５番１７号,,14,137,2150021,,,2022-07-14,清算の結了等,,,2015-10-05,1,,,,,エムイーケーメディカル,0
2462,9020005003995,登記記録の閉鎖等,0,2022-07-27,2022-07-13,特定非営利活動法人福祉センター,,その他の設立登記法人,神奈川県,横浜市鶴見区,馬場２丁目１番１－３０１号,,14,101,2300076,,,2022-07-13,清算の結了等,,,2015-10-05,1,,,,,フクシセンター,0
2466,9021002030529,登記記録の閉鎖等,0,2022-07-27,2022-07-22,有限会社アンザイ,,有限会社,神奈川県,厚木市,愛名７４３番地の１,,14,212,2430038,,,2022-07-22,清算の結了等,,,2015-10-05,1,,,,,アンザイ,0
2468,9030001050586,登記記録の閉鎖等,0,2022-07-27,2022-07-14,ＫＯプランニング株式会社,,株式会社,埼玉県,新座市,栗原２丁目４番３３号,,11,230,3520035,,,2022-07-14,清算の結了等,,,2015-10-05,1,,,,,ケーオープランニング,0
2473,9030002045544,登記記録の閉鎖等,0,2022-07-27,2022-07-13,有限会社福田金型製作所,,有限会社,埼玉県,草加市,弁天４丁目２３番２２号,,11,221,3400004,,,2022-07-13,清算の結了等,,,2015-10-05,1,,,,,フクダカナガタセイサクショ,0
2505,9090005004186,登記記録の閉鎖等,0,2022-07-27,2022-07-08,シチズンファインデバイス生活協同組合,,その他の設立登記法人,山梨県,南都留郡富士河口湖町,船津６６６３番地の２,,19,430,4010301,,,2022-07-08,清算の結了等,,,2015-10-05,1,,,,,,0
2509,9100002028335,登記記録の閉鎖等,0,2022-07-27,2022-07-19,有限会社新成精機,,有限会社,長野県,諏訪市,大字豊田字橋下１３３３番地３,,20,206,3920016,,,2022-07-19,清算の結了等,,,2015-10-05,1,,,,,シンセイセイキ,0
2514,9110002029167,登記記録の閉鎖等,0,2022-07-27,2022-07-22,有限会社松本塗装,,有限会社,新潟県,長岡市,上除町西１丁目３９０番地２,,15,202,9402034,,,2022-07-22,清算の結了等,,,2015-10-05,1,,,,,マツモトトソウ,0
2524,9120001243791,登記記録の閉鎖等,0,2022-07-27,2022-07-15,株式会社ＫＡＮ２,,株式会社,大阪府,大阪市北区,東天満１丁目１１番２号,,27,127,5300044,,,2022-07-15,清算の結了等,,,2022-02-16,1,,,,,カンツー,0
2540,9130001034892,登記記録の閉鎖等,0,2022-07-27,2022-07-13,株式会社柴田屋本店,,株式会社,京都府,南丹市,園部町若松町２７番地の１,,26,213,6220017,,,2022-07-13,清算の結了等,,,2015-10-05,1,,,,,シバタヤホンテン,0
2564,9180001073226,登記記録の閉鎖等,0,2022-07-27,2022-07-22,株式会社ダイワテクノ,,株式会社,愛知県,名古屋市中川区,小本本町１丁目３５番,,23,110,4540826,,,2022-07-22,清算の結了等,,,2015-10-05,1,,,,,ダイワテクノ,0
2571,9180002092803,登記記録の閉鎖等,0,2022-07-27,2022-07-22,有限会社ライフレッシュＭ＆Ｋ,,有限会社,愛知県,津島市,馬場町２７番地,,23,208,4960865,,,2022-07-22,清算の結了等,,,2015-10-05,1,,,,,ライフレッシュエムアンドケー,0
2573,9180301021248,登記記録の閉鎖等,0,2022-07-27,2022-07-25,ショーワ建築工房株式会社,,株式会社,愛知県,豊田市,浄水町原山１０８番地２,,23,211,4700343,,,2022-07-25,清算の結了等,,,2015-10-05,1,,,,,,0
2593,9220002005116,登記記録の閉鎖等,0,2022-07-27,2022-07-22,有限会社フロンティア美装,,有限会社,石川県,金沢市,桂町チ３６番地１,,17,201,9200334,,,2022-07-22,清算の結了等,,,2015-10-05,1,,,,,フロンティアビソウ,0
2610,9260002026686,登記記録の閉鎖等,0,2022-07-27,2022-07-26,石井乳業有限会社,,有限会社,岡山県,高梁市,原田南町１１１３番地の２,,33,209,7160044,,,2022-07-26,清算の結了等,,,2015-10-05,1,,,,,,0
2622,9320002018487,登記記録の閉鎖等,0,2022-07-27,2022-07-21,有限会社ハウスサービスワーク,,有限会社,大分県,豊後大野市,犬飼町下津尾２９５４番地３,,44,212,8797306,,,2022-07-21,清算の結了等,,,2015-10-05,1,,,,,,0
2636,9370602001193,登記記録の閉鎖等,0,2022-07-27,2022-07-11,有限会社高橋鉄工,00082886,有限会社,宮城県,宮城郡利府町,春日字勝負沢５８番地の１,,04,406,9810102,,,2022-07-11,清算の結了等,,,2015-10-05,1,,,,,タカハシテッコウ,0
2655,9500002003355,登記記録の閉鎖等,0,2022-07-27,2022-07-26,有限会社シントウ冷機,,有限会社,愛媛県,松山市,畑寺１丁目１４番１３号,,38,201,7900913,,,2022-07-26,清算の結了等,,,2015-10-05,1,,,,,シントウレイキ,0
