sequenceNumber,corporateNumber,process,correct,updateDate,changeDate,name,nameImageId,kind,prefectureName,cityName,streetNumber,addressImageId,prefectureCode,cityCode,postCode,addressOutside,addressOutsideImageId,closeDate,closeCause,successorCorporateNumber,changeCause,assignmentDate,latest,enName,enPrefectureName,enCityName,enAddressOutside,furigana,hihyoji
3,1010001227714,新規,0,2022-07-04,2022-07-04,株式会社シンカ,,株式会社,東京都,千代田区,神田小川町３丁目２８番５号,,13,101,1010052,,,,,,,2022-07-04,1,,,,,シンカ,0
4,1010001227722,新規,0,2022-07-04,2022-07-04,ＪＡＭＰファンド・マネジメント株式会社,,株式会社,東京都,中央区,日本橋兜町５番１号,,13,102,1030026,,,,,,,2022-07-04,1,,,,,ジャンプファンドマネジメント,0
5,1010001227796,新規,0,2022-07-04,2022-07-04,メルシリヴレ株式会社,,株式会社,東京都,中央区,月島２丁目１０番１号,,13,102,1040052,,,,,,,2022-07-04,1,,,,,メルシリヴレ,0
6,1010001227805,新規,0,2022-07-04,2022-07-04,サイバーアイ・テクノロジー株式会社,,株式会社,東京都,千代田区,外神田３丁目６番４号,,13,101,1010021,,,,,,,2022-07-04,1,,,,,サイバーアイテクノロジー,0
8,1010003038028,新規,0,2022-07-04,2022-07-04,嘉賢合同会社,,合同会社,東京都,中央区,入船１丁目２番８－８０９号,,13,102,1040042,,,,,,,2022-07-04,1,,,,,カケン,0
29,1010501049047,新規,0,2022-07-04,2022-07-04,株式会社メタバース,,株式会社,東京都,台東区,浅草橋１丁目１３－６,,13,106,1110053,,,,,,,2022-07-04,1,,,,,メタバース,0
33,1010705003378,新規,0,2022-07-04,2022-07-04,一般社団法人ＦＩＮＥ,,その他の設立登記法人,東京都,品川区,西五反田３丁目７－９平澤三陽ビル６Ｆ,,13,109,1410031,,,,,,,2022-07-04,1,,,,,ファイン,0
49,1011001148446,新規,0,2022-07-04,2022-07-04,株式会社ｐｈｙｓ,,株式会社,東京都,渋谷区,神宮前６丁目２３番４号２階,,13,113,1500001,,,,,,,2022-07-04,1,,,,,フィズ,0
50,1011001148462,新規,0,2022-07-04,2022-07-04,株式会社グリッターグリット,,株式会社,東京都,渋谷区,道玄坂１丁目１０番８号渋谷道玄坂東急ビル２Ｆ－Ｃ,,13,113,1500043,,,,,,,2022-07-04,1,,,,,,0
51,1011101099390,新規,0,2022-07-04,2022-07-04,株式会社アジア・ブライト・エンターテインメント,,株式会社,東京都,新宿区,西新宿６丁目２０番７号コンシェリア西新宿ＴＯＷＥＲ’ＳＷＥＳＴ１９０６,,13,104,1600023,,,,,,,2022-07-04,1,,,,,アジアブライトエンターテインメント,0
52,1011101099408,新規,0,2022-07-04,2022-07-04,株式会社ＢＯＲＤＥＲ,,株式会社,東京都,新宿区,北新宿１丁目２０番５－３０２号,,13,104,1690074,,,,,,,2022-07-04,1,,,,,ボーダー,0
57,1011403003711,新規,0,2022-07-04,2022-07-04,合同会社ナナルイ,,合同会社,東京都,板橋区,富士見町１４－５板橋本町オフィス,,13,119,1740062,,,,,,,2022-07-04,1,,,,,ナナルイ,0
67,1020001147069,新規,0,2022-07-04,2022-07-04,株式会社ｄｏｏｇｓ,,株式会社,神奈川県,川崎市宮前区,鷲沼四丁目７番地１２,,14,136,2160000,,,,,,,2022-07-04,1,,,,,ドゥーグス,0
68,1020001147151,新規,0,2022-07-04,2022-07-04,株式会社ツバサ,,株式会社,神奈川県,横浜市港北区,高田東１丁目３４番３号,,14,109,2230065,,,,,,,2022-07-04,1,,,,,ツバサ,0
84,1030001148974,新規,0,2022-07-04,2022-07-04,株式会社ワンクリーン,,株式会社,埼玉県,鴻巣市,吹上富士見１丁目１１番３－５号,,11,217,3690121,,,,,,,2022-07-04,1,,,,,ワンクリーン,0
92,1030003019678,新規,0,2022-07-04,2022-07-04,合同会社康丸商店,,合同会社,埼玉県,久喜市,栄１丁目７番地９フェリスミーサＩＩ１０３号室,00127080,11,232,3400215,,,,,,,2022-07-04,1,,,,,ヤスマルショウテン,0
93,1030003019686,新規,0,2022-07-04,2022-07-04,合同会社トータス,,合同会社,埼玉県,川口市,大字石神２５６番地の６,,11,203,3330823,,,,,,,2022-07-04,1,,,,,トータス,0
103,1040003020346,新規,0,2022-07-04,2022-07-04,宏順合同会社,,合同会社,千葉県,野田市,三ツ堀４３３番地の８７,,12,208,2780011,,,,,,,2022-07-04,1,,,,,,0
116,1060001035039,新規,0,2022-07-04,2022-07-04,ＴＩＣ株式会社,,株式会社,栃木県,小山市,城東１丁目４番２４号ＴＳビルＶ５階,00127074,09,208,3230807,,,,,,,2022-07-04,1,,,,,ティーアイシー,0
127,1080001025046,新規,0,2022-07-04,2022-07-04,株式会社ヤマグチ,,株式会社,静岡県,静岡市葵区,横田町６番２号,,22,101,4200835,,,,,,,2022-07-04,1,,,,,ヤマグチ,0
128,1080401025918,新規,0,2022-07-04,2022-07-04,株式会社ＥＭＡ,,株式会社,静岡県,浜松市中区,北寺島町２１６番地の１１,,22,131,4300923,,,,,,,2022-07-04,1,,,,,イーエムエー,0
129,1080401025934,新規,0,2022-07-04,2022-07-04,株式会社ヤマザキ,,株式会社,静岡県,浜松市北区,初生町１３８７番地の６,,22,135,4338112,,,,,,,2022-07-04,1,,,,,ヤマザキ,0
135,1110001036774,新規,0,2022-07-04,2022-07-04,Ｎｉｉｇａｔａ　ＨＡＭＡＤＡ　Ｔｒａｄｉｎｇ株式会社,,株式会社,新潟県,新潟市中央区,本町通１３番町３１４５番地１,,15,103,9518067,,,,,,,2022-07-04,1,,,,,ニイガタハマダトレーディング,0
146,1120001247032,新規,0,2022-07-04,2022-07-04,思景株式会社,,株式会社,大阪府,大阪市西成区,潮路１丁目３番１８号ＯＡＳＩＳ・ＮＡＮＩＷＡ２Ａ,,27,122,5570052,,,,,,,2022-07-04,1,,,,,スジン,0
147,1120001247057,新規,0,2022-07-04,2022-07-04,オークハウス株式会社,,株式会社,大阪府,大阪市旭区,高殿６丁目１０番８号エグゼ高殿２０３号室,,27,117,5350031,,,,,,,2022-07-04,1,,,,,オークハウス,0
151,1120003022012,新規,0,2022-07-04,2022-07-04,合同会社Ｅｍｐｏｗｅｒｍｅｎｔ　Ｐａｒｔｎｅｒｓ,,合同会社,大阪府,大阪市北区,梅田１丁目１－３大阪駅前第３ビル２９階１－１－１号室,,27,127,5300001,,,,,,,2022-07-04,1,,,,,エンパワーメントパートナーズ,0
155,1120101065846,新規,0,2022-07-04,2022-07-04,東義株式会社,,株式会社,大阪府,堺市堺区,市之町東２丁２番２２号松永ビル３階,,27,141,5900952,,,,,,,2022-07-04,1,,,,,トウギ,0
159,1130001072082,新規,0,2022-07-04,2022-07-04,株式会社ＬＩＦＥＬＩＸ,,株式会社,京都府,京都市南区,上鳥羽奈須野町３２番地グリーンビル４０１,,26,107,6018146,,,,,,,2022-07-04,1,,,,,ライフリックス,0
160,1130001072099,新規,0,2022-07-04,2022-07-04,Ｓｍｉｌｅ　ｖｉｌｌａｇｅ株式会社,,株式会社,京都府,京都市下京区,四条通小橋西入真町８５番,,26,106,6008001,,,,,,,2022-07-04,1,,,,,スマイルビレッジ,0
170,1140001126523,新規,0,2022-07-04,2022-07-04,株式会社ＡＬＬＯＦ,,株式会社,兵庫県,伊丹市,大鹿５丁目７２番緑ヶ丘マンション北７０１号,,28,207,6640899,,,,,,,2022-07-04,1,,,,,オールオブ,0
198,1180001151971,新規,0,2022-07-04,2022-07-04,株式会社崇堅,,株式会社,愛知県,春日井市,稲口町３丁目１３番地の５,,23,206,4860905,,,,,,,2022-07-04,1,,,,,シュウケン,0
199,1180001152012,新規,0,2022-07-04,2022-07-04,株式会社ハヤシ工業,,株式会社,愛知県,名古屋市西区,あし原町１７７番地,,23,104,4520823,,,,,,,2022-07-04,1,,,,,ハヤシコウギョウ,0
206,1180301036377,新規,0,2022-07-04,2022-07-04,エムツー株式会社,,株式会社,愛知県,安城市,川島町太田屋敷８３番地,,23,212,4441152,,,,,,,2022-07-04,1,,,,,エムツー,0
211,1220001024925,新規,0,2022-07-04,2022-07-04,株式会社フレンズ,,株式会社,石川県,金沢市,上荒屋７丁目３７番地,,17,201,9218065,,,,,,,2022-07-04,1,,,,,フレンズ,0
213,1230001019429,新規,0,2022-07-04,2022-07-04,株式会社魚津鮮魚,,株式会社,富山県,下新川郡入善町,舟見２６９６番地１,,16,342,9380103,,,,,,,2022-07-04,1,,,,,ウオヅセンギョ,0
216,1240001060010,新規,0,2022-07-04,2022-07-04,株式会社Ｔｏ３アーキテクツ,,株式会社,広島県,広島市中区,千田町２丁目５番２３－２０７号,,34,101,7300052,,,,,,,2022-07-04,1,,,,,トゥースリーアーキテクツ,0
220,1260005011107,新規,0,2022-07-04,2022-07-04,一般社団法人日本工事性能評価協会,,その他の設立登記法人,岡山県,岡山市南区,浦安南町５７９番地,,33,104,7028024,,,,,,,2022-07-04,1,,,,,ニホンコウジセイノウヒョウカキョウカイ,0
225,1290801028680,新規,0,2022-07-04,2022-07-04,株式会社靂電設,,株式会社,福岡県,北九州市小倉南区,横代北町３丁目９番６号,,40,107,8020821,,,,,,,2022-07-04,1,,,,,レキデンセツ,0
226,1290801028689,新規,0,2022-07-04,2022-07-04,株式会社局,,株式会社,福岡県,北九州市戸畑区,牧山１丁目４－１１,,40,105,8040053,,,,,,,2022-07-04,1,,,,,ツボネ,0
235,1350003004111,新規,0,2022-07-04,2022-07-04,合同会社ＳＴＹ,,合同会社,宮崎県,日南市,北郷町郷之原乙１４３６番地１,,45,204,8892402,,,,,,,2022-07-04,1,,,,,エスティワイ,0
238,1360003012138,新規,0,2022-07-04,2022-07-04,合同会社ガイアテック,,合同会社,沖縄県,中頭郡北谷町,北谷２丁目１４番地３－１１０１,,47,326,9040116,,,,,,,2022-07-04,1,,,,,ガイアテック,0
257,1480001011781,新規,0,2022-07-04,2022-07-04,株式会社徳島総合サービス,,株式会社,徳島県,板野郡藍住町,勝瑞字幸島９番地９,,36,403,7711271,,,,,,,2022-07-04,1,,,,,トクシマソウゴウサービス,0
262,1700150109107,新規,0,2022-07-04,2022-07-04,Ａｇｆａ　Ｏｆｆｓｅｔ　Ｂ．Ｖ．,,外国会社等,,,,,,,,Ｓｅｐｔｅｓｔｒａａｔ　２７，Ｂ－２６４０　Ｍｏｒｔｓｅｌ　Ｂｅｌｇｉｕｍ,,,,,,2022-07-04,1,,,,,アグフアオフセツトビーヴイ,0
266,2010001227548,新規,0,2022-07-04,2022-07-04,株式会社生活雑貨の店ｈｉｂｉ,,株式会社,東京都,文京区,大塚１丁目１番２１号,,13,105,1120012,,,,,,,2022-07-04,1,,,,,セイカツザッカノミセヒビ,0
267,2010001227754,新規,0,2022-07-04,2022-07-04,株式会社いなば総合研究所,,株式会社,東京都,中央区,日本橋２丁目５番１－１７０４号,,13,102,1030027,,,,,,,2022-07-04,1,,,,,イナバソウゴウケンキュウジョ,0
268,2010001227770,新規,0,2022-07-04,2022-07-04,ＪｄａｏＧ株式会社,,株式会社,東京都,千代田区,九段南１丁目５－６りそな九段ビル５Ｆ・ＫＳフロア,,13,101,1020074,,,,,,,2022-07-04,1,,,,,ジェーダオジー,0
271,2010003038027,新規,0,2022-07-04,2022-07-04,ＰＡＧ　Ｒｅｎｅｗａｂｌｅｓ合同会社,,合同会社,東京都,千代田区,霞が関３丁目２番５号霞が関ビルディング３１階,,13,101,1000013,,,,,,,2022-07-04,1,,,,,ピーエージーリニューワブルズ,0
283,2010401168235,新規,0,2022-07-04,2022-07-04,株式会社Ｃｅｓｔｌａｖｉｅ,,株式会社,東京都,港区,南青山６丁目１２－３,,13,103,1070062,,,,,,,2022-07-04,1,,,,,セラヴィー,0
284,2010401168243,新規,0,2022-07-04,2022-07-04,イーディーエフ・リニューアブルズ・ジャパン株式会社,,株式会社,東京都,港区,虎ノ門１丁目１６番４号アーバン虎ノ門ビル５階,,13,103,1050001,,,,,,,2022-07-04,1,,,,,イーディーエフリニューアブルズジャパン,0
285,2010401168284,新規,0,2022-07-04,2022-07-04,株式会社ＨＹＰＥ,,株式会社,東京都,港区,南麻布３丁目６－１７有栖川プレイス２０１,,13,103,1060047,,,,,,,2022-07-04,1,,,,,ハイプ,0
286,2010403028040,新規,0,2022-07-04,2022-07-04,Ｏｇａｓａｗａｒａ　ＩＢＬＰ合同会社,,合同会社,東京都,港区,西新橋１丁目１番１号ＥＰコンサルティングサービス内,,13,103,1050003,,,,,,,2022-07-04,1,,,,,オガサワラアイビーエルピー,0
287,2010405021142,新規,0,2022-07-04,2022-07-04,特定非営利活動法人ＨＵＧ．ＵＳ,,その他の設立登記法人,東京都,港区,赤坂４丁目１１番１０号,,13,103,1070052,,,,,,,2022-07-04,1,,,,,ハグアス,0
288,2010501049038,新規,0,2022-07-04,2022-07-04,富華貿易株式会社,,株式会社,東京都,台東区,浅草７丁目２番１５－５０３号ピアコート・言問,,13,106,1110032,,,,,,,2022-07-04,1,,,,,フカボウエキ,0
289,2010501049046,新規,0,2022-07-04,2022-07-04,ＣＩＣＡＤＡＨＯＯＤ株式会社,,株式会社,東京都,台東区,三ノ輪２丁目３番８－１０３号,,13,106,1100011,,,,,,,2022-07-04,1,,,,,シカダホウド,0
290,2010501049062,新規,0,2022-07-04,2022-07-04,株式会社佳鼎,,株式会社,東京都,台東区,西浅草２丁目２６番１０号,,13,106,1110035,,,,,,,2022-07-04,1,,,,,,0
292,2010601061421,新規,0,2022-07-04,2022-07-04,株式会社Ｍｉ‐ＣＲＯ　ＰＬＡＮＴ,,株式会社,東京都,墨田区,業平５丁目１番１８－５０２号,,13,107,1300002,,,,,,,2022-07-04,1,,,,,ミクロプラント,0
294,2010701042908,新規,0,2022-07-04,2022-07-04,パワーインサイド株式会社,,株式会社,東京都,品川区,大井１丁目６番３号アゴラ大井町３階,,13,109,1400014,,,,,,,2022-07-04,1,,,,,パワーインサイド,0
312,2011001148445,新規,0,2022-07-04,2022-07-04,ミート株式会社,,株式会社,東京都,渋谷区,道玄坂１丁目１２番１号渋谷マークシティＷ２２階,,13,113,1500043,,,,,,,2022-07-04,1,,,,,,0
313,2011001148453,新規,0,2022-07-04,2022-07-04,Ｈｕｂｅｒｉｔｕｓ株式会社,,株式会社,東京都,渋谷区,渋谷２丁目１９－１５宮益坂ビルディング６０９,,13,113,1500002,,,,,,,2022-07-04,1,,,,,ハベリタス,0
314,2011001148486,新規,0,2022-07-04,2022-07-04,エムエスビル管理株式会社,,株式会社,東京都,渋谷区,代々木２丁目１１番１２号,,13,113,1510053,,,,,,,2022-07-04,1,,,,,エムエスビルカンリ,0
315,2011003014967,新規,0,2022-07-04,2022-07-04,合同会社アバンビレッジ８,,合同会社,東京都,目黒区,下目黒２丁目１６番１１号Ｍｅｇｕｒｏ　Ｐｏｉｎｔ４０４,,13,110,1530064,,,,,,,2022-07-04,1,,,,,アバンビレッジエイト,0
316,2011003014991,新規,0,2022-07-04,2022-07-04,Ｖｅｌｉｋａ合同会社,,合同会社,東京都,渋谷区,恵比寿１丁目２２番２３号,,13,113,1500013,,,,,,,2022-07-04,1,,,,,ヴェリカ,0
317,2011005009635,新規,0,2022-07-04,2022-07-04,一般社団法人子供の未来,,その他の設立登記法人,東京都,目黒区,三田２丁目１８番２１号,,13,110,1530062,,,,,,,2022-07-04,1,,,,,コドモノミライ,0
318,2011101099423,新規,0,2022-07-04,2022-07-04,株式会社ＬＩＦＥＭ,,株式会社,東京都,新宿区,西新宿３丁目２０番２号,,13,104,1600023,,,,,,,2022-07-04,1,,,,,ライフェム,0
320,2011403003710,新規,0,2022-07-04,2022-07-04,合同会社ＰＩＣＯ,,合同会社,東京都,板橋区,西台１丁目４９番１４号,,13,119,1740045,,,,,,,2022-07-04,1,,,,,ピコ,0
329,2012401039366,新規,0,2022-07-04,2022-07-04,株式会社つくゑ,,株式会社,東京都,武蔵野市,吉祥寺南町３丁目３５－４,,13,203,1800003,,,,,,,2022-07-04,1,,,,,ツクエ,0
335,2020001147134,新規,0,2022-07-04,2022-07-04,株式会社誠,,株式会社,神奈川県,川崎市川崎区,南町１１－１,,14,131,2100015,,,,,,,2022-07-04,1,,,,,マコト,0
336,2020001147150,新規,0,2022-07-04,2022-07-04,株式会社ＣＫホールディングス,,株式会社,神奈川県,川崎市麻生区,東百合丘２丁目３２番２号,,14,137,2150012,,,,,,,2022-07-04,1,,,,,シーケーホールディングス,0
337,2020001147159,新規,0,2022-07-04,2022-07-04,エスポワール株式会社,,株式会社,神奈川県,横浜市戸塚区,汲沢町４２２－３２,,14,110,2450062,,,,,,,2022-07-04,1,,,,,エスポワール,0
343,2021001076414,新規,0,2022-07-04,2022-07-04,株式会社シマムラ住宅機器,,株式会社,神奈川県,厚木市,金田５２８番地５Ｙ’ｓ・ｃｏａｔ１０２,,14,212,2430807,,,,,,,2022-07-04,1,,,,,シマムラジュウタクキキ,0
353,2030001148940,新規,0,2022-07-04,2022-07-04,株式会社スカイアース,,株式会社,埼玉県,草加市,吉町４丁目９番２号,,11,221,3400017,,,,,,,2022-07-04,1,,,,,スカイアース,0
354,2030001148957,新規,0,2022-07-04,2022-07-04,株式会社ＣＩＲＣＵＩＴ　ＩＮＴＥＲＮＡＴＩＯＮＡＬ,,株式会社,埼玉県,越谷市,蒲生１丁目１１番５号シャトルハイツ２０５,,11,222,3430838,,,,,,,2022-07-04,1,,,,,サーキットインターナショナル,0
355,2030001148973,新規,0,2022-07-04,2022-07-04,青桜株式会社,,株式会社,埼玉県,川口市,西川口１丁目３０番２０－５階Ｅ,,11,203,3320021,,,,,,,2022-07-04,1,,,,,セイオウ,0
362,2030003019652,新規,0,2022-07-04,2022-07-04,喜楽合同会社,,合同会社,埼玉県,川口市,川口５丁目２番７号,,11,203,3320015,,,,,,,2022-07-04,1,,,,,キラク,0
363,2030003019693,新規,0,2022-07-04,2022-07-04,アナザープレイス合同会社,,合同会社,埼玉県,春日部市,新宿新田３５５番地７６,,11,214,3440113,,,,,,,2022-07-04,1,,,,,アナザープレイス,0
369,2040001124057,新規,0,2022-07-04,2022-07-04,株式会社メイカムサクシード,,株式会社,千葉県,市川市,新田２丁目２９番４号,,12,203,2720035,,,,,,,2022-07-04,1,,,,,メイカムサクシード,0
370,2040001124073,新規,0,2022-07-04,2022-07-04,メガライズ株式会社,,株式会社,千葉県,千葉市若葉区,殿台町９３,,12,104,2640036,,,,,,,2022-07-04,1,,,,,メガライズ,0
384,2050005013107,新規,0,2022-07-04,2022-07-04,社会福祉法人令和会,,その他の設立登記法人,茨城県,小美玉市,野田１９７番地１,,08,236,3113411,,,,,,,2022-07-04,1,,,,,レイワカイ,0
385,2060001035038,新規,0,2022-07-04,2022-07-04,Ｌｉｆｉｘ　Ｊａｐａｎ株式会社,,株式会社,栃木県,那須塩原市,戸田４番地５,,09,213,3250114,,,,,,,2022-07-04,1,,,,,リフィックスジャパン,0
387,2060005009995,新規,0,2022-07-04,2022-07-04,医療法人社団シリウス会,,その他の設立登記法人,栃木県,栃木市,大平町西水代１９４３番地１,,09,203,3294423,,,,,,,2022-07-04,1,,,,,シリウスカイ,0
392,2080001025053,新規,0,2022-07-04,2022-07-04,株式会社Ｓ‐Ｔａｂｌｅ　Ｄｅｓｉｇｎ,,株式会社,静岡県,静岡市駿河区,中田２丁目１番１１号２Ｆ,,22,102,4228041,,,,,,,2022-07-04,1,,,,,エステーブルデザイン,0
394,2080003002827,新規,0,2022-07-04,2022-07-04,合同会社コロン,,合同会社,静岡県,静岡市駿河区,下川原４丁目２４－１２,,22,102,4210113,,,,,,,2022-07-04,1,,,,,コロン,0
396,2080101023394,新規,0,2022-07-04,2022-07-04,ひろい資産管理株式会社,,株式会社,静岡県,沼津市,大岡２９６３番地,,22,203,4100022,,,,,,,2022-07-04,1,,,,,ヒロイシサンカンリ,0
397,2080401025917,新規,0,2022-07-04,2022-07-04,株式会社Ｃｒｅｓｔ,,株式会社,静岡県,浜松市中区,萩丘２丁目６番１３号チェルシー２０１,,22,131,4338121,,,,,,,2022-07-04,1,,,,,クレスト,0
400,2110001036773,新規,0,2022-07-04,2022-07-04,株式会社ＳＨＡＨＪＥＥ　ＭＯＴＯＲＳ,,株式会社,新潟県,新潟市西区,五十嵐３の町１１０２４番地,,15,107,9502171,,,,,,,2022-07-04,1,,,,,シャジィーモータース,0
408,2120001247064,新規,0,2022-07-04,2022-07-04,株式会社ステルス,,株式会社,大阪府,寝屋川市,黒原旭町２０番１７号（２０１号）,,27,215,5720057,,,,,,,2022-07-04,1,,,,,ステルス,0
409,2120001247089,新規,0,2022-07-04,2022-07-04,株式会社コンフィー,,株式会社,大阪府,大阪市天王寺区,石ケ辻町６番１３－１０４号,00127071,27,109,5430031,,,,,,,2022-07-04,1,,,,,コンフィー,0
410,2120001247122,新規,0,2022-07-04,2022-07-04,株式会社ケモノ組,,株式会社,大阪府,大阪市北区,芝田２丁目８－１１共栄ビル３階,,27,127,5300012,,,,,,,2022-07-04,1,,,,,ケモノグミ,0
415,2120005023024,新規,0,2022-07-04,2022-07-04,一般社団法人中小事業承継相談ネット,,その他の設立登記法人,大阪府,大阪市福島区,海老江７丁目３番４号,,27,103,5530001,,,,,,,2022-07-04,1,,,,,チュウショウジギョウショウケイソウダンネット,0
417,2120101065837,新規,0,2022-07-04,2022-07-04,株式会社エコー検査・堀澤,,株式会社,大阪府,堺市北区,百舌鳥赤畑町４丁２１８番地３,,27,146,5918037,,,,,,,2022-07-04,1,,,,,エコーケンサホリサワ,0
419,2120903004208,新規,0,2022-07-04,2022-07-04,合同会社Ｄｕｃｋ,,合同会社,大阪府,豊中市,西緑丘３丁目１３番１号２階,,27,203,5600005,,,,,,,2022-07-04,1,,,,,ダック,0
430,2140001126571,新規,0,2022-07-04,2022-07-04,千崎株式会社,,株式会社,兵庫県,神戸市東灘区,西岡本４丁目１９－１８,,28,101,6580073,,,,,,,2022-07-04,1,,,,,センザキ,0
431,2140001126588,新規,0,2022-07-04,2022-07-04,株式会社田フーズ,,株式会社,兵庫県,神戸市中央区,磯辺通４丁目１番４１号ミュージアムタワー８０４,,28,110,6510084,,,,,,,2022-07-04,1,,,,,デンフーズ,0
441,2180005019826,新規,0,2022-07-04,2022-07-04,税理士法人ビジネスサポート,,その他の設立登記法人,愛知県,名古屋市中村区,岩塚町３丁目９４番地,,23,105,4530862,,,,,,,2022-07-04,1,,,,,ビジネスサポート,0
442,2180301036376,新規,0,2022-07-04,2022-07-04,株式会社ＨＡＲＵ光芸,,株式会社,愛知県,岡崎市,緑丘２丁目６番地４アクセスストリート１階Ｃ号室,,23,202,4440806,,,,,,,2022-07-04,1,,,,,ハルコウゲイ,0
444,2180303005379,新規,0,2022-07-04,2022-07-04,合同会社Ａ‐Ｌｉｆｅ,,合同会社,愛知県,西尾市,米津町蔵屋敷１８番地１,,23,213,4450802,,,,,,,2022-07-04,1,,,,,エーライフ,0
445,2200001040238,新規,0,2022-07-04,2022-07-04,株式会社ＬｅＶｅｒｔ,,株式会社,岐阜県,岐阜市,弁天町１丁目２２番地,,21,201,5008307,,,,,,,2022-07-04,1,,,,,ルヴェール,0
446,2200001040246,新規,0,2022-07-04,2022-07-04,株式会社アイフク,,株式会社,岐阜県,羽島郡笠松町,大池町４９番地の１,,21,303,5016087,,,,,,,2022-07-04,1,,,,,アイフク,0
448,2200003005610,新規,0,2022-07-04,2022-07-04,合同会社各務原大勝軒,,合同会社,岐阜県,関市,山王通１丁目１０番１０号,,21,205,5013252,,,,,,,2022-07-04,1,,,,,カカミガハラタイショウケン,0
451,2220001024924,新規,0,2022-07-04,2022-07-04,株式会社Ｂｅａｕｇｕｉｄｅ,,株式会社,石川県,金沢市,八日市出町５７８番地,,17,201,9218063,,,,,,,2022-07-04,1,,,,,ビューガイド,0
454,2240003005689,新規,0,2022-07-04,2022-07-04,合同会社ＡＲＣＴ,,合同会社,広島県,福山市,坪生町１丁目１３番２１－１号,,34,207,7210903,,,,,,,2022-07-04,1,,,,,アクト,0
456,2250001019632,新規,0,2022-07-04,2022-07-04,株式会社Ｂｅｌｉｅｖｅ　ａｎｄ　Ｔｒｕｓｔ,,株式会社,山口県,下関市,川中本町１１番２号,,35,201,7510859,,,,,,,2022-07-04,1,,,,,ビリーブアンドトラスト,0
461,2260001036998,新規,0,2022-07-04,2022-07-04,株式会社モリ住設,,株式会社,岡山県,岡山市中区,平井１０９３番地４８,,33,102,7038282,,,,,,,2022-07-04,1,,,,,モリジュウセツ,0
462,2260001037014,新規,0,2022-07-04,2022-07-04,タントウ株式会社,,株式会社,岡山県,岡山市北区,牟佐１４０番地３,,33,101,7012141,,,,,,,2022-07-04,1,,,,,タントウ,0
470,2290001098103,新規,0,2022-07-04,2022-07-04,株式会社ＷａｉｚＨｏｌｄｉｎｇｓ,,株式会社,福岡県,福岡市東区,松田１丁目５番７号ミスターマックスビル,,40,131,8120064,,,,,,,2022-07-04,1,,,,,ワイズホールディングス,0
475,2290805009569,新規,0,2022-07-04,2022-07-04,税理士法人ワンウィル,,その他の設立登記法人,福岡県,北九州市小倉北区,浅野２丁目１６番４３－２０１号,,40,106,8020001,,,,,,,2022-07-04,1,,,,,ワンウィル,0
480,2340001024854,新規,0,2022-07-04,2022-07-04,株式会社Ａｓａｎｔｅ,,株式会社,鹿児島県,出水市,米ノ津町４４－１８,,46,208,8990121,,,,,,,2022-07-04,1,,,,,アサンテ,0
481,2340001024862,新規,0,2022-07-04,2022-07-04,株式会社Ｇ‐Ｐｒｏｄｕｃｔｓ,,株式会社,鹿児島県,鹿児島市,東開町３番地１０３,,46,201,8910115,,,,,,,2022-07-04,1,,,,,ジープロダクツ,0
484,2360001030628,新規,0,2022-07-04,2022-07-04,ＢｅＨｅａｌｓ株式会社,,株式会社,沖縄県,那覇市,松尾２丁目２４番１０号,,47,201,9000014,,,,,,,2022-07-04,1,,,,,ビヒールズ,0
491,2370005010492,新規,0,2022-07-04,2022-07-04,特定非営利活動法人ローカル富谷,,その他の設立登記法人,宮城県,富谷市,富谷新町９５富谷市まちづくり産業交流プラザ,,04,216,9813311,,,,,,,2022-07-04,1,,,,,ローカルトミヤ,0
492,2370005010501,新規,0,2022-07-04,2022-07-04,医療法人松柴会,,その他の設立登記法人,宮城県,仙台市青葉区,花京院１丁目２－１５ソララプラザ２階,,04,101,9800013,,,,,,,2022-07-04,1,,,,,マツシバカイ,0
499,2400005008252,新規,0,2022-07-04,2022-07-04,学校法人北日本カレッジ,,その他の設立登記法人,岩手県,盛岡市,盛岡駅西通２丁目５番１５号,,03,201,0200045,,,,,,,2022-07-04,1,,,,,キタニホンカレッジ,0
510,2500003002858,新規,0,2022-07-04,2022-07-04,合同会社Ｄｅａｒ　Ｐｒｉｎｃｅｓｓ,,合同会社,愛媛県,今治市,菊間町浜１３８９番地,,38,202,7992303,,,,,,,2022-07-04,1,,,,,ディアプリンセス,0
522,3010001227646,新規,0,2022-07-04,2022-07-04,サーベイランス株式会社,,株式会社,東京都,中央区,日本橋兜町１６－２ＭＩＣビル２階,,13,102,1030026,,,,,,,2022-07-04,1,,,,,サーベイランス,0
523,3010001227720,新規,0,2022-07-04,2022-07-04,ピュシスヒュドール研究所株式会社,,株式会社,東京都,千代田区,麹町４丁目８の１９キャストセゾン麹町２階,,13,101,1020083,,,,,,,2022-07-04,1,,,,,ピュシスヒュドールケンキュウジョ,0
524,3010001227745,新規,0,2022-07-04,2022-07-04,株式会社華縁,,株式会社,東京都,中央区,日本橋浜町３丁目３番１号２０２,,13,102,1030007,,,,,,,2022-07-04,1,,,,,カエン,0
525,3010001227753,新規,0,2022-07-04,2022-07-04,株式会社ｍａｅｓｔｒｏ,,株式会社,東京都,千代田区,内神田１丁目２番１号２階,,13,101,1010047,,,,,,,2022-07-04,1,,,,,マエストロ,0
527,3010003038034,新規,0,2022-07-04,2022-07-04,天翔合同会社,,合同会社,東京都,中央区,銀座１丁目２２番１１号銀座大竹ビジデンス２階,,13,102,1040061,,,,,,,2022-07-04,1,,,,,テンショウ,0
543,3010401168218,新規,0,2022-07-04,2022-07-04,株式会社スペース・ネオ,,株式会社,東京都,港区,南青山２丁目２番１５号Ｗｉｎ青山５３１,,13,103,1070062,,,,,,,2022-07-04,1,,,,,スペースネオ,0
546,3010601061395,新規,0,2022-07-04,2022-07-04,株式会社村山企画,,株式会社,東京都,墨田区,両国１丁目３番１１号アオヤギ両国ビル３階,,13,107,1300026,,,,,,,2022-07-04,1,,,,,ムラヤマキカク,0
551,3010801033087,新規,0,2022-07-04,2022-07-04,株式会社Ｂｏｎｈｅｕｒ,,株式会社,東京都,大田区,西蒲田７丁目２９番１０号ビルド太田３０１号,,13,111,1440051,,,,,,,2022-07-04,1,,,,,ボヌール,0
561,3011101099397,新規,0,2022-07-04,2022-07-04,株式会社ＳＥＯＮ,,株式会社,東京都,新宿区,北新宿１丁目６番１８号１Ｆ,,13,104,1690074,,,,,,,2022-07-04,1,,,,,セオン,0
565,3011501028212,新規,0,2022-07-04,2022-07-04,株式会社トゥーアップ,,株式会社,東京都,荒川区,南千住４丁目７番３号ロイヤルパークスタワー７１５,,13,118,1160003,,,,,,,2022-07-04,1,,,,,トゥーアップ,0
566,3011601026074,新規,0,2022-07-04,2022-07-04,株式会社水野純也建築設計事務所一級建築士事務所,,株式会社,東京都,練馬区,石神井台８丁目２０番８号,,13,120,1770045,,,,,,,2022-07-04,1,,,,,ミズノジュンヤケンチクセッケイジムショイッキュウケンチクシジムショ,0
572,3012801021690,新規,0,2022-07-04,2022-07-04,株式会社ＦＫＤファクトリ,,株式会社,東京都,立川市,曙町２丁目４２番２３号,00127082,13,202,1900012,,,,,,,2022-07-04,1,,,,,エフケーディーファクトリ,0
582,3020003022020,新規,0,2022-07-04,2022-07-04,合同会社エイトレーダー,,合同会社,神奈川県,川崎市川崎区,大島４丁目１－３－４０２,,14,131,2100834,,,,,,,2022-07-04,1,,,,,エイトレーダー,0
604,3030001148948,新規,0,2022-07-04,2022-07-04,株式会社迦凜,,株式会社,埼玉県,深谷市,国済寺５７１番地２号,,11,218,3660033,,,,,,,2022-07-04,1,,,,,カリン,0
605,3030001148956,新規,0,2022-07-04,2022-07-04,株式会社ドラゴン,,株式会社,埼玉県,川口市,前上町２１番３号レオネクストはな１０２号,,11,203,3330843,,,,,,,2022-07-04,1,,,,,ドラゴン,0
606,3030001148972,新規,0,2022-07-04,2022-07-04,株式会社ＳＡＮＡＩ’ｓ,,株式会社,埼玉県,上尾市,錦町９番地８,,11,219,3620006,,,,,,,2022-07-04,1,,,,,サンアイズ,0
612,3030003019676,新規,0,2022-07-04,2022-07-04,ＳＡＴ合同会社,,合同会社,埼玉県,戸田市,喜沢１丁目１０番地の２（アゼストレント西川口２０２号室）,,11,224,3350013,,,,,,,2022-07-04,1,,,,,サット,0
631,3060001035037,新規,0,2022-07-04,2022-07-04,ＨＩＴＯＺＩＫＵ　ＪＡＰＡＮ株式会社,,株式会社,栃木県,那須塩原市,戸田４番地５,,09,213,3250114,,,,,,,2022-07-04,1,,,,,ヒトジクジャパン,0
636,3080001025060,新規,0,2022-07-04,2022-07-04,株式会社ＭＫテキスタイル,,株式会社,静岡県,静岡市駿河区,中島１２０２番地の５,,22,102,4228046,,,,,,,2022-07-04,1,,,,,エムケイテキスタイル,0
638,3080101023393,新規,0,2022-07-04,2022-07-04,株式会社真心,,株式会社,静岡県,伊豆の国市,中島２３６番地の２,,22,225,4102324,,,,,,,2022-07-04,1,,,,,マゴコロ,0
639,3080103002619,新規,0,2022-07-04,2022-07-04,合同会社ブンキヨー堂,,合同会社,静岡県,沼津市,内浦長浜８３‐８６,,22,203,4100224,,,,,,,2022-07-04,1,,,,,ブンキヨードウ,0
640,3080401025924,新規,0,2022-07-04,2022-07-04,株式会社虹いろ,,株式会社,静岡県,浜松市西区,伊左地町２８７２番地,,22,133,4311111,,,,,,,2022-07-04,1,,,,,ニジイロ,0
655,3120001247071,新規,0,2022-07-04,2022-07-04,株式会社アズハウス,,株式会社,大阪府,大阪市港区,南市岡３丁目９番１５号,,27,107,5520011,,,,,,,2022-07-04,1,,,,,アズハウス,0
656,3120001247096,新規,0,2022-07-04,2022-07-04,株式会社Ｃｈａｏｓ,,株式会社,大阪府,大阪市中央区,内平野町１丁目２番４号Ｇ－ＳＴＹＬＥ天満橋６０１号,,27,128,5400037,,,,,,,2022-07-04,1,,,,,カオス,0
657,3120001247105,新規,0,2022-07-04,2022-07-04,株式会社ｉｍｌｅ　ｃｏｎｓｕｌｔｉｎｇ,,株式会社,大阪府,大阪市北区,大淀南１丁目９番１９号エンパイアービル,,27,127,5310075,,,,,,,2022-07-04,1,,,,,アミュレコンサルティング,0
659,3120005023023,新規,0,2022-07-04,2022-07-04,税理士法人セレクト,,その他の設立登記法人,大阪府,大阪市中央区,本町１丁目５番７号西村ビル５０５,,27,128,5410053,,,,,,,2022-07-04,1,,,,,セレクト,0
664,3120101065828,新規,0,2022-07-04,2022-07-04,株式会社ヨシヤマ,,株式会社,大阪府,阪南市,鳥取中５９４番地の１２,,27,232,5990211,,,,,,,2022-07-04,1,,,,,ヨシヤマ,0
665,3120103004759,新規,0,2022-07-04,2022-07-04,合同会社アブソ,,合同会社,大阪府,堺市西区,鳳中町２丁４３－２,,27,144,5938327,,,,,,,2022-07-04,1,,,,,アブソ,0
671,3122001036017,新規,0,2022-07-04,2022-07-04,株式会社Ｍ８,,株式会社,大阪府,東大阪市,西堤本通東３丁目５番１７号,,27,227,5770045,,,,,,,2022-07-04,1,,,,,エムエイト,0
684,3160001024319,新規,0,2022-07-04,2022-07-04,株式会社ＳＡＣＨＩフードクローバリング,,株式会社,滋賀県,草津市,矢橋町１８８番地４,,25,206,5250066,,,,,,,2022-07-04,1,,,,,サチフードクローバリング,0
685,3170001017172,新規,0,2022-07-04,2022-07-04,株式会社グレース,,株式会社,和歌山県,橋本市,東家６丁目９番２４号,,30,203,6480072,,,,,,,2022-07-04,1,,,,,グレース,0
691,3180001151986,新規,0,2022-07-04,2022-07-04,株式会社ＬｉＡＮＧＥ＆Ｃｏ．,,株式会社,愛知県,名古屋市天白区,池場５丁目１１０１番地の２,,23,116,4680055,,,,,,,2022-07-04,1,,,,,リアンジュアンドシーオー,0
693,3180003024001,新規,0,2022-07-04,2022-07-04,合同会社ｔｅｓｏｒｏ,,合同会社,愛知県,清須市,鍋片３丁目６０番地,,23,233,4520907,,,,,,,2022-07-04,1,,,,,テゾーロ,0
695,3190001018879,新規,0,2022-07-04,2022-07-04,三東ハウジング株式会社,,株式会社,三重県,四日市市,陶栄町３番２号,,24,202,5100035,,,,,,,2022-07-04,1,,,,,サントウハウジング,0
701,3220001024923,新規,0,2022-07-04,2022-07-04,株式会社エスポワール,,株式会社,石川県,金沢市,弥生２丁目９番２０号（グリーンヒルズ有松・５０３号）,,17,201,9218036,,,,,,,2022-07-04,1,,,,,エスポワール,0
706,3240001060009,新規,0,2022-07-04,2022-07-04,アオ不動産株式会社,,株式会社,広島県,広島市安佐南区,中須１丁目１番１２号,,34,105,7310121,,,,,,,2022-07-04,1,,,,,アオフドウサン,0
711,3260001036997,新規,0,2022-07-04,2022-07-04,株式会社吉和住設,,株式会社,岡山県,岡山市南区,芳泉４丁目５番３７－４号,,33,104,7028027,,,,,,,2022-07-04,1,,,,,ヨシワジュウセツ,0
719,3290005018709,新規,0,2022-07-04,2022-07-04,一般社団法人Ｄｒｅａｍ　Ｉｎｖｅｓｔｍｅｎｔ　ＪＡＰＡＮ,,その他の設立登記法人,福岡県,福岡市博多区,博多駅前３丁目７番３５号博多ハイテックビル５０５,,40,132,8120011,,,,,,,2022-07-04,1,,,,,ドリームインベストメントジャパン,0
720,3290005018741,新規,0,2022-07-04,2022-07-04,医療法人臼医会,,その他の設立登記法人,福岡県,朝倉市,堤７２４番地１,,40,228,8380062,,,,,,,2022-07-04,1,,,,,キュウイカイ,0
721,3290801028679,新規,0,2022-07-04,2022-07-04,株式会社Ａｒｃｈｉｎｇ,,株式会社,福岡県,北九州市若松区,大字頓田３０１８番地４,,40,103,8080112,,,,,,,2022-07-04,1,,,,,アーチング,0
729,3340001024853,新規,0,2022-07-04,2022-07-04,テックライズ株式会社,,株式会社,鹿児島県,鹿児島市,谷山中央２丁目４１８９番地フミビル３０３,,46,201,8910141,,,,,,,2022-07-04,1,,,,,テックライズ,0
730,3340001024861,新規,0,2022-07-04,2022-07-04,株式会社イーテック,,株式会社,鹿児島県,日置市,吹上町中原２７２４番地３,,46,216,8993301,,,,,,,2022-07-04,1,,,,,イーテック,0
736,3400005008251,新規,0,2022-07-04,2022-07-04,税理士法人小田島,,その他の設立登記法人,岩手県,盛岡市,下ノ橋町６番４号,,03,201,0200877,,,,,,,2022-07-04,1,,,,,オダシマ,0
746,3460301005079,新規,0,2022-07-04,2022-07-04,株式会社ＦＯＲ　ＬＩＦＥ,,株式会社,北海道,北見市,若葉１丁目１番３号,,01,208,0900057,,,,,,,2022-07-04,1,,,,,フォーライフ,0
752,3500001024317,新規,0,2022-07-04,2022-07-04,株式会社ミライト,,株式会社,愛媛県,新居浜市,郷１丁目１３番３４号,,38,205,7920886,,,,,,,2022-07-04,1,,,,,ミライト,0
761,4010003037951,新規,0,2022-07-04,2022-07-04,合同会社リニューアブルシステム１０号,,合同会社,東京都,千代田区,五番町６番地２ＯＡＧ税理士法人内,,13,101,1020076,,,,,,,2022-07-04,1,,,,,リニューアブルシステムジュウゴウ,0
765,4010401168282,新規,0,2022-07-04,2022-07-04,株式会社Ｅｄｅｌｗｅｉｓｓ,,株式会社,東京都,港区,赤坂９丁目４－１パークコート赤坂檜町ザ・タワー２７０２,,13,103,1070052,,,,,,,2022-07-04,1,,,,,エーデルワイス,0
766,4010401168324,新規,0,2022-07-04,2022-07-04,ＮＳＫＲＥホスピタリティ株式会社,,株式会社,東京都,港区,赤坂１丁目８番１号,,13,103,1070052,,,,,,,2022-07-04,1,,,,,エヌエスケイアールイーホスピタリティ,0
768,4010403028039,新規,0,2022-07-04,2022-07-04,Ｍｕｎａｋａｔａ　ＩＢＬＰ合同会社,,合同会社,東京都,港区,西新橋１丁目１番１号ＥＰコンサルティングサービス内,,13,103,1050003,,,,,,,2022-07-04,1,,,,,ムナカタアイビーエルピー,0
770,4010405020943,新規,0,2022-07-04,2022-07-04,ブルーダイヤモンド特定目的会社,,その他の設立登記法人,東京都,港区,赤坂８丁目１３番１９－４１３号室,,13,103,1070052,,,,,,,2022-07-04,1,,,,,ブルーダイヤモンド,0
783,4011001148443,新規,0,2022-07-04,2022-07-04,株式会社Ｒａｖｅｎ,,株式会社,東京都,目黒区,東山２丁目５番１－１０１号,,13,110,1530043,,,,,,,2022-07-04,1,,,,,レイブン,0
788,4011101099405,新規,0,2022-07-04,2022-07-04,株式会社チムサラ・ホールディングス・ジャパン,,株式会社,東京都,新宿区,左門町７番地黒田ビル２０２,,13,104,1600017,,,,,,,2022-07-04,1,,,,,チムサラホールディングスジャパン,0
800,4011401024368,新規,0,2022-07-04,2022-07-04,株式会社ステージＺＥＲＯ,,株式会社,東京都,板橋区,氷川町１６番４－１０３号,,13,119,1730013,,,,,,,2022-07-04,1,,,,,ステージゼロ,0
807,4011603003624,新規,0,2022-07-04,2022-07-04,合同会社ＷＣＵＲＥＡ,,合同会社,東京都,練馬区,大泉学園町２丁目２８番１４号サンガーデンズＡ２０２,,13,120,1780061,,,,,,,2022-07-04,1,,,,,ダブルクレア,0
808,4011603003632,新規,0,2022-07-04,2022-07-04,合同会社Ｅｎｊｏｙａｂｌｅ　ｌｉｆｅ,,合同会社,東京都,練馬区,石神井町３丁目２－８レイクサイド石神井公園３０４,,13,120,1770041,,,,,,,2022-07-04,1,,,,,エンジョイエイブルライフ,0
811,4011701025421,新規,0,2022-07-04,2022-07-04,株式会社ファミールクリエイト,,株式会社,東京都,江戸川区,中央４丁目１２番２号,,13,123,1320021,,,,,,,2022-07-04,1,,,,,ファミールクリエイト,0
813,4011805003190,新規,0,2022-07-04,2022-07-04,特定非営利活動法人日本インクルーシブ・クリエーターズ協会,,その他の設立登記法人,東京都,足立区,小台２丁目３番２１－１００５号ライオンズマンション荒川遊園アクアステージ,,13,121,1200046,,,,,,,2022-07-04,1,,,,,ニッポンインクルーシブクリエーターズキョウカイ,0
823,4020001147090,新規,0,2022-07-04,2022-07-04,ＨＡＰ株式会社,,株式会社,神奈川県,横浜市港南区,港南台５丁目２０番３号,,14,111,2340054,,,,,,,2022-07-04,1,,,,,ハップ,0
827,4021001076404,新規,0,2022-07-04,2022-07-04,株式会社ＢｉｏＪ,,株式会社,神奈川県,相模原市緑区,橋本台１丁目８番２１号,,14,151,2520132,,,,,,,2022-07-04,1,,,,,バイオジェイ,0
833,4030001148947,新規,0,2022-07-04,2022-07-04,株式会社ｐｍ．ＳＵＮＲＩＺＥ,,株式会社,埼玉県,さいたま市大宮区,北袋町２丁目４８３番地１日東ハイツ３０２号,,11,103,3300835,,,,,,,2022-07-04,1,,,,,ピーエムサンライズ,0
834,4030001148955,新規,0,2022-07-04,2022-07-04,株式会社ＡＩＭＯ,,株式会社,埼玉県,川口市,西川口１丁目２６番１０－８０１号エマーレ西川口,,11,203,3320021,,,,,,,2022-07-04,1,,,,,アイモ,0
835,4030001148971,新規,0,2022-07-04,2022-07-04,株式会社ＢＯＧＤＡＹ,,株式会社,埼玉県,所沢市,和ケ原３丁目２６６番地の８サンシティＹＯＵ２０２,,11,208,3591162,,,,,,,2022-07-04,1,,,,,ボーダイ,0
836,4030001148988,新規,0,2022-07-04,2022-07-04,株式会社ビーアンドエル,,株式会社,埼玉県,川口市,並木元町７番１２号,,11,203,3320033,,,,,,,2022-07-04,1,,,,,ビーアンドエル,0
844,4030003019691,新規,0,2022-07-04,2022-07-04,合同会社Ｋプラス,,合同会社,埼玉県,ふじみ野市,桜ケ丘３丁目２３番１５号,,11,245,3560059,,,,,,,2022-07-04,1,,,,,ケープラス,0
845,4030003019709,新規,0,2022-07-04,2022-07-04,わかな合同会社,,合同会社,埼玉県,さいたま市北区,宮原町３丁目５６４,,11,102,3310812,,,,,,,2022-07-04,1,,,,,ワカナ,0
857,4040001124014,新規,0,2022-07-04,2022-07-04,株式会社Ｂａｔｏｎ　Ｃｏｎｓｕｌｔｉｎｇ,,株式会社,千葉県,流山市,宮園２丁目１７番６,,12,220,2700155,,,,,,,2022-07-04,1,,,,,バトンコンサルティング,0
864,4050001051315,新規,0,2022-07-04,2022-07-04,ＨＡＱ　ＳＨＯＫＡＩ株式会社,,株式会社,茨城県,結城市,大字小田林３７６番地１,,08,207,3070007,,,,,,,2022-07-04,1,,,,,ハクショウカイ,0
865,4050001051323,新規,0,2022-07-04,2022-07-04,株式会社ＡＲＡＩＮ　ＩＮＴＥＲＮＡＴＩＯＮＡＬ,,株式会社,茨城県,筑西市,犬塚１９４番１０－Ａ,,08,227,3080117,,,,,,,2022-07-04,1,,,,,アラインターナショナル,0
869,4050005013105,新規,0,2022-07-04,2022-07-04,ＪＲ東日本輸送サービス労働組合水戸地方本部,,その他の設立登記法人,茨城県,水戸市,常磐町６２５１－１,,08,201,3100033,,,,,,,2022-07-04,1,,,,,ジェイアールヒガシノホンユソウサービスミトチホウホンブ,0
881,4080003002825,新規,0,2022-07-04,2022-07-04,ＴＩＥ　Ｇｌｏｂａｌ合同会社,,合同会社,静岡県,静岡市葵区,伝馬町１番地の２,,22,101,4200858,,,,,,,2022-07-04,1,,,,,ティアイイーグローバル,0
882,4080101023401,新規,0,2022-07-04,2022-07-04,ＮＳＫ株式会社,,株式会社,静岡県,富士市,中里１３６７番地,,22,210,4170826,,,,,,,2022-07-04,1,,,,,エヌエスケー,0
883,4080401025915,新規,0,2022-07-04,2022-07-04,株式会社ハラダボディーワークス,,株式会社,静岡県,浜松市南区,下飯田町５１１番地の２,,22,134,4350027,,,,,,,2022-07-04,1,,,,,ハラダボディーワークス,0
885,4090001017659,新規,0,2022-07-04,2022-07-04,株式会社Ｗｉｎｇ,,株式会社,山梨県,中央市,山之神４１番地３４,,19,214,4093845,,,,,,,2022-07-04,1,,,,,ウィング,0
886,4090003002122,新規,0,2022-07-04,2022-07-04,合同会社橘建設,,合同会社,山梨県,南巨摩郡富士川町,最勝寺１２７６番地１４,,19,368,4000502,,,,,,,2022-07-04,1,,,,,タチバナケンセツ,0
902,4120001247070,新規,0,2022-07-04,2022-07-04,３ｒｄＰ’ｓ株式会社,,株式会社,大阪府,大阪市北区,梅田１丁目１番３号大阪駅前第３ビル２９階１－１－１号室,,27,127,5300001,,,,,,,2022-07-04,1,,,,,サードピース,0
903,4120001247129,新規,0,2022-07-04,2022-07-04,株式会社谷電業社,,株式会社,大阪府,大阪市此花区,梅香１丁目１３番５号,,27,104,5540013,,,,,,,2022-07-04,1,,,,,タニデンギョウシャ,0
908,4120005023022,新規,0,2022-07-04,2022-07-04,一般財団法人大阪府軟式野球連盟,,その他の設立登記法人,大阪府,大阪市西区,江戸堀１丁目２２番２５号中澤佐伯記念野球会館内,,27,106,5500002,,,,,,,2022-07-04,1,,,,,オオサカフナンシキヤキュウレンメイ,0
909,4120005023030,新規,0,2022-07-04,2022-07-04,税理士法人ＰＬＵＳ１,,その他の設立登記法人,大阪府,大阪市中央区,南船場１丁目１６番１０号大阪岡本ビル５階,,27,128,5420081,,,,,,,2022-07-04,1,,,,,プラスワン,0
910,4120101065843,新規,0,2022-07-04,2022-07-04,株式会社瀧谷そば製粉所,,株式会社,大阪府,泉大津市,西港町１４番５号,,27,206,5950052,,,,,,,2022-07-04,1,,,,,タキタニソバセイフンジョ,0
911,4120901046175,新規,0,2022-07-04,2022-07-04,株式会社ＨＡＧ,,株式会社,大阪府,豊中市,上野東３丁目５番４４号,,27,203,5600013,,,,,,,2022-07-04,1,,,,,ハグ,0
913,4120903004206,新規,0,2022-07-04,2022-07-04,エスケーサービス合同会社,,合同会社,大阪府,吹田市,竹見台２丁目６番２号,,27,205,5650863,,,,,,,2022-07-04,1,,,,,エスケーサービス,0
923,4130001072105,新規,0,2022-07-04,2022-07-04,株式会社山よし,,株式会社,京都府,京都市西京区,桂南巽町６番地１,,26,111,6158074,,,,,,,2022-07-04,1,,,,,ヤマヨシ,0
933,4140001126611,新規,0,2022-07-04,2022-07-04,株式会社おおつか,,株式会社,兵庫県,神戸市須磨区,車字口道谷９３３番地,,28,107,6540111,,,,,,,2022-07-04,1,,,,,オオツカ,0
935,4140003017874,新規,0,2022-07-04,2022-07-04,合同会社花さく工房,,合同会社,兵庫県,川西市,東多田２丁目２７番１９号２０１,,28,217,6660122,,,,,,,2022-07-04,1,,,,,ハナサクコウボウ,0
947,4180001151977,新規,0,2022-07-04,2022-07-04,ミヤタ建築事務所株式会社,,株式会社,愛知県,丹羽郡大口町,竹田２丁目３０９,,23,361,4800147,,,,,,,2022-07-04,1,,,,,ミヤタケンチクジムショ,0
948,4180001151985,新規,0,2022-07-04,2022-07-04,愛知ヴィエクル株式会社,,株式会社,愛知県,小牧市,常普請１丁目１０８番地,,23,219,4850044,,,,,,,2022-07-04,1,,,,,アイチヴィエクル,0
949,4180001152001,新規,0,2022-07-04,2022-07-04,株式会社岩塚モータース,,株式会社,愛知県,名古屋市中村区,岩上町８４番地,,23,105,4530847,,,,,,,2022-07-04,1,,,,,イワツカモータース,0
951,4180003024000,新規,0,2022-07-04,2022-07-04,合同会社ＳＨＩＮＮ,,合同会社,愛知県,名古屋市北区,中味鋺２丁目５０２番地,,23,103,4620015,,,,,,,2022-07-04,1,,,,,シン,0
952,4180003024009,新規,0,2022-07-04,2022-07-04,合同会社ＭＹグリーン,,合同会社,愛知県,稲沢市,堀之内町１５４１番地,,23,220,4928405,,,,,,,2022-07-04,1,,,,,エムワイグリーン,0
964,4260001037004,新規,0,2022-07-04,2022-07-04,株式会社ＭｉＤ　ＧＲＥＥＮ,,株式会社,岡山県,倉敷市,玉島中央町１丁目２番１３号畑ビル３階,,33,202,7138122,,,,,,,2022-07-04,1,,,,,ミッドグリーン,0
968,4290001098150,新規,0,2022-07-04,2022-07-04,株式会社村尾設備,,株式会社,福岡県,福岡市南区,三宅１丁目８番３５号,,40,134,8111344,,,,,,,2022-07-04,1,,,,,ムラオセツビ,0
970,4290005018732,新規,0,2022-07-04,2022-07-04,一般社団法人福祉とデザイン,,その他の設立登記法人,福岡県,福岡市中央区,警固２丁目９番１４号,,40,133,8100023,,,,,,,2022-07-04,1,,,,,フクシトデザイン,0
971,4290801028678,新規,0,2022-07-04,2022-07-04,株式会社創研,,株式会社,福岡県,田川市,大字川宮１３３番地４,,40,206,8260042,,,,,,,2022-07-04,1,,,,,ソウケン,0
975,4320001019177,新規,0,2022-07-04,2022-07-04,株式会社オールマイティーＫ,,株式会社,大分県,大分市,大字上判田５５００番地の３３,,44,201,8701111,,,,,,,2022-07-04,1,,,,,オールマイティーケイ,0
977,4340001024852,新規,0,2022-07-04,2022-07-04,株式会社ＧＩＲＩ　ＧＥＡＲ,,株式会社,鹿児島県,いちき串木野市,曙町２４番地,,46,219,8960001,,,,,,,2022-07-04,1,,,,,ギリギア,0
978,4340001024860,新規,0,2022-07-04,2022-07-04,株式会社ＫＥＮＳＵＫＥ,,株式会社,鹿児島県,鹿児島市,和田３丁目１５－１３,,46,201,8910143,,,,,,,2022-07-04,1,,,,,ケンスケ,0
982,4360001030626,新規,0,2022-07-04,2022-07-04,ＢＣ株式会社,,株式会社,沖縄県,沖縄市,山内３丁目２３－１５　１Ｆ,,47,211,9040034,,,,,,,2022-07-04,1,,,,,,0
983,4360003012127,新規,0,2022-07-04,2022-07-04,合同会社ｏｎｅ．ｒｏｏｍ,,合同会社,沖縄県,南城市,佐敷字津波古１００８番地３,,47,215,9011414,,,,,,,2022-07-04,1,,,,,ワンルーム,0
992,4400005008250,新規,0,2022-07-04,2022-07-04,土地家屋調査士法人中村登記測量,,その他の設立登記法人,岩手県,盛岡市,西青山２丁目２９番４４号,,03,201,0200132,,,,,,,2022-07-04,1,,,,,ナカムラトウキソクリョウ,0
1001,4430003014066,新規,0,2022-07-04,2022-07-04,合同会社たち資産管理,,合同会社,北海道,札幌市北区,北二十四条西１３丁目１－２８,,01,102,0010024,,,,,,,2022-07-04,1,,,,,タチシサンカンリ,0
1009,4500001024308,新規,0,2022-07-04,2022-07-04,株式会社ＥＮＴＲＵＳＴ,,株式会社,愛媛県,松山市,下伊台町１３０９番地３０,,38,201,7910112,,,,,,,2022-07-04,1,,,,,エントラスト,0
1014,5010001227677,新規,0,2022-07-04,2022-07-04,株式会社ＴＯＫＯＫＡＷＡ,,株式会社,東京都,千代田区,外神田２丁目１７番４号,,13,101,1010021,,,,,,,2022-07-04,1,,,,,トコカワ,0
1015,5010001227735,新規,0,2022-07-04,2022-07-04,ＮＴＹ不動産開発株式会社,,株式会社,東京都,中央区,日本橋１丁目１３番１号日鉄日本橋ビル,,13,102,1030027,,,,,,,2022-07-04,1,,,,,エヌティーワイフドウサンカイハツ,0
1016,5010001227743,新規,0,2022-07-04,2022-07-04,株式会社スキルベース,,株式会社,東京都,文京区,根津２丁目２４－４,,13,105,1130031,,,,,,,2022-07-04,1,,,,,スキルベース,0
1017,5010001227751,新規,0,2022-07-04,2022-07-04,株式会社Ｔｅｓｌａ薬品,,株式会社,東京都,中央区,八丁堀４丁目１２番２０号,,13,102,1040032,,,,,,,2022-07-04,1,,,,,テスラヤクヒン,0
1018,5010001227768,新規,0,2022-07-04,2022-07-04,Ｕｂｉｑｕｉｌｙ株式会社,,株式会社,東京都,中央区,新川１丁目２５番２号新川ＳＴビル２Ｆ,,13,102,1040033,,,,,,,2022-07-04,1,,,,,ユビキリ,0
1019,5010001227883,新規,0,2022-07-04,2022-07-04,Ｈｕｍａｎ　Ｃａｐｉｔａｌ株式会社,,株式会社,東京都,中央区,日本橋室町１丁目２番６号日本橋大栄ビル７階,,13,102,1030022,,,,,,,2022-07-04,1,,,,,ヒューマンキャピタル,0
1020,5010003038016,新規,0,2022-07-04,2022-07-04,Ｍｉｎｎａｔｏ合同会社,,合同会社,東京都,中央区,日本橋兜町２０－５兜町八千代ビル６階,,13,102,1030026,,,,,,,2022-07-04,1,,,,,ミナト,0
1026,5010401168249,新規,0,2022-07-04,2022-07-04,ＴＲＵＳＴ　ＯＮＥ株式会社,,株式会社,東京都,港区,麻布十番１丁目５番１０号,,13,103,1060045,,,,,,,2022-07-04,1,,,,,トラストワン,0
1027,5010401168257,新規,0,2022-07-04,2022-07-04,株式会社ａｔ　Ｈ＆Ｉ,,株式会社,東京都,港区,白金台５丁目１５番５号トゥワインデール２階,,13,103,1080071,,,,,,,2022-07-04,1,,,,,アットエイチアンドアイ,0
1028,5010401168307,新規,0,2022-07-04,2022-07-04,ｄＡｐｐ　Ｔｅｃｈｎｏｌｏｇｙ　Ｊａｐａｎ株式会社,,株式会社,東京都,港区,虎ノ門４丁目３番１号城山トラストタワー２７階,,13,103,1050001,,,,,,,2022-07-04,1,,,,,ダップテクノロジージャパン,0
1029,5010403028038,新規,0,2022-07-04,2022-07-04,Ｂｏｎｉｎ　Ｈｏｌｄｉｎｇｓ合同会社,,合同会社,東京都,港区,西新橋１丁目１番１号ＥＰコンサルティングサービス内,,13,103,1050003,,,,,,,2022-07-04,1,,,,,ボニンホールディングス,0
1040,5010801033085,新規,0,2022-07-04,2022-07-04,盾杰株式会社,,株式会社,東京都,大田区,矢口１丁目１６－９コスモビルＩＩ３０１号室,00127072,13,111,1460093,,,,,,,2022-07-04,1,,,,,タテケツ,0
1048,5011001148310,新規,0,2022-07-04,2022-07-04,株式会社Ｓｈｉｎｅ　ａｎｄ　ｌｅａｐ,,株式会社,東京都,渋谷区,円山町５－４ｆｅｅｌＡ渋谷８１９,,13,113,1500044,,,,,,,2022-07-04,1,,,,,シャインアンドリープ,0
1049,5011001148450,新規,0,2022-07-04,2022-07-04,株式会社ｉｒｉｓｅｌ,,株式会社,東京都,渋谷区,代官山町１６番５号,,13,113,1500034,,,,,,,2022-07-04,1,,,,,イリゼル,0
1055,5011101099404,新規,0,2022-07-04,2022-07-04,株式会社永和,,株式会社,東京都,新宿区,若松町１番２－５１０号,,13,104,1620056,,,,,,,2022-07-04,1,,,,,エイワ,0
1056,5011103011911,新規,0,2022-07-04,2022-07-04,合同会社ＹＡＭＡＤＡ,,合同会社,東京都,新宿区,納戸町１１番地第二長森ビル,,13,104,1620837,,,,,,,2022-07-04,1,,,,,ヤマダ,0
1057,5011105010309,新規,0,2022-07-04,2022-07-04,一般社団法人対感染症社会強靭化推進協会,,その他の設立登記法人,東京都,新宿区,西落合１丁目４番１１号７０４,,13,104,1610031,,,,,,,2022-07-04,1,,,,,タイカンセンショウシャカイキョウジンカスイシンキョウカイ,0
1063,5011701025412,新規,0,2022-07-04,2022-07-04,株式会社Ｐａｌｅｔｔｅ,,株式会社,東京都,江戸川区,東葛西６丁目１８番６号ヒルズ葛西７０２,,13,123,1340084,,,,,,,2022-07-04,1,,,,,パレット,0
1064,5011703003184,新規,0,2022-07-04,2022-07-04,合同会社ＴＰＳＰ,,合同会社,東京都,江戸川区,松江６丁目８番１５号,,13,123,1320025,,,,,,,2022-07-04,1,,,,,ティーピーエスピー,0
1080,5020001147156,新規,0,2022-07-04,2022-07-04,株式会社猿渡工務店,,株式会社,神奈川県,横浜市神奈川区,白幡町８番１８号,,14,102,2210076,,,,,,,2022-07-04,1,,,,,サワタリコウムテン,0
1094,5030001148946,新規,0,2022-07-04,2022-07-04,株式会社クオリティライフ,,株式会社,埼玉県,さいたま市見沼区,大字南中野１０８番地１５,,11,104,3370042,,,,,,,2022-07-04,1,,,,,クオリティライフ,0
1095,5030001148954,新規,0,2022-07-04,2022-07-04,株式会社昇栄,,株式会社,埼玉県,川口市,北原台２丁目２１番１４号,,11,203,3330815,,,,,,,2022-07-04,1,,,,,ショウエイ,0
1096,5030001148979,新規,0,2022-07-04,2022-07-04,株式会社丸昌,,株式会社,埼玉県,志木市,中宗岡２丁目７番５５号,,11,228,3530002,,,,,,,2022-07-04,1,,,,,マルマサ,0
1106,5030003019708,新規,0,2022-07-04,2022-07-04,成電工合同会社,,合同会社,埼玉県,さいたま市見沼区,大字蓮沼１２９６番地６,,11,104,3370015,,,,,,,2022-07-04,1,,,,,セイデンコウ,0
1107,5030003019716,新規,0,2022-07-04,2022-07-04,久遠合同会社,,合同会社,埼玉県,坂戸市,大字厚川５４番地３ＫＩＶオフィス一本松Ｃ号室,,11,239,3500242,,,,,,,2022-07-04,1,,,,,クオン,0
1111,5030005020911,新規,0,2022-07-04,2022-07-04,エイチアール協同組合,,その他の設立登記法人,埼玉県,鴻巣市,宮前６５番地５,,11,217,3650051,,,,,,,2022-07-04,1,,,,,エイチアール,0
1117,5040001123997,新規,0,2022-07-04,2022-07-04,株式会社片山商事,,株式会社,千葉県,成田市,郷部４８７番地,,12,211,2860014,,,,,,,2022-07-04,1,,,,,カタヤマショウジ,0
1138,5080101023391,新規,0,2022-07-04,2022-07-04,株式会社田丸,,株式会社,静岡県,伊豆の国市,三福９３５番地の１０,,22,225,4102321,,,,,,,2022-07-04,1,,,,,タマル,0
1140,5090001017658,新規,0,2022-07-04,2022-07-04,株式会社すいち,,株式会社,山梨県,甲斐市,中下条１１８６番地１,,19,210,4000124,,,,,,,2022-07-04,1,,,,,スイチ,0
1143,5100001035476,新規,0,2022-07-04,2022-07-04,株式会社丘の上ホテル,,株式会社,長野県,北安曇郡小谷村,大字千国乙１２８４０番地１,,20,486,3999422,,,,,,,2022-07-04,1,,,,,オカノウエホテル,0
1146,5100003006608,新規,0,2022-07-04,2022-07-04,イグザルト合同会社,,合同会社,長野県,松本市,大字笹賀３３１９－６とりやまハイツ１０２,,20,202,3990033,,,,,,,2022-07-04,1,,,,,イグザルト,0
1147,5110001036779,新規,0,2022-07-04,2022-07-04,株式会社あおぞら,,株式会社,新潟県,新潟市北区,松浜新町２０番１９号,,15,101,9503115,,,,,,,2022-07-04,1,,,,,アオゾラ,0
1155,5120001247061,新規,0,2022-07-04,2022-07-04,東昇株式会社,,株式会社,大阪府,大阪市西成区,長橋１丁目１３番２２号１０５号,,27,122,5570025,,,,,,,2022-07-04,1,,,,,ドウショウ,0
1156,5120001247086,新規,0,2022-07-04,2022-07-04,株式会社ライフ・ケア,,株式会社,大阪府,大阪市西成区,鶴見橋２丁目５番９号,,27,122,5570031,,,,,,,2022-07-04,1,,,,,ライフケア,0
1157,5120001247094,新規,0,2022-07-04,2022-07-04,Ｅｎｄｌｅｓｓ４株式会社,,株式会社,大阪府,大阪市中央区,南船場２丁目３番４号,,27,128,5420081,,,,,,,2022-07-04,1,,,,,エンドレスフォー,0
1158,5120001247103,新規,0,2022-07-04,2022-07-04,株式会社夕鳥,,株式会社,大阪府,大阪市浪速区,敷津西１丁目１番２８号,,27,111,5560015,,,,,,,2022-07-04,1,,,,,ユウトリ,0
1162,5120003022000,新規,0,2022-07-04,2022-07-04,啓誠合同会社,,合同会社,大阪府,大阪市西成区,天下茶屋東１丁目３番１３－１０１号室,,27,122,5570011,,,,,,,2022-07-04,1,,,,,ケイセイ,0
1166,5120103004757,新規,0,2022-07-04,2022-07-04,合同会社Ａｗｅｓｏｍｅ　Ｇｌｏｗ,,合同会社,大阪府,和泉市,はつが野３丁目８番１０号,,27,219,5941106,,,,,,,2022-07-04,1,,,,,オーサムグロウ,0
1172,5120903004205,新規,0,2022-07-04,2022-07-04,合同会社レイアップ,,合同会社,大阪府,豊中市,上野東３丁目１８番１３号フレスデザイン第７ビル２０２号室,,27,203,5600013,,,,,,,2022-07-04,1,,,,,レイアップ,0
1179,5140001126610,新規,0,2022-07-04,2022-07-04,株式会社藤田,,株式会社,兵庫県,尼崎市,武庫町４丁目６番１４－１号,,28,202,6610044,,,,,,,2022-07-04,1,,,,,フジタ,0
1188,5150005009406,新規,0,2022-07-04,2022-07-04,医療法人慎和会,,その他の設立登記法人,奈良県,橿原市,石川町２８２番地３,,29,205,6340045,,,,,,,2022-07-04,1,,,,,シンワカイ,0
1189,5170001017170,新規,0,2022-07-04,2022-07-04,コネクトｗｉｔｈチャイルド株式会社,,株式会社,和歌山県,和歌山市,和田２６３番地１１,,30,201,6410004,,,,,,,2022-07-04,1,,,,,コネクトウィズチャイルド,0
1196,5180001151869,新規,0,2022-07-04,2022-07-04,株式会社スリータイムズ,,株式会社,愛知県,名古屋市中区,新栄１丁目４番２４号パークフラッツ新栄９０１号,,23,106,4600007,,,,,,,2022-07-04,1,,,,,スリータイムズ,0
1197,5180001151984,新規,0,2022-07-04,2022-07-04,遠田商事株式会社,,株式会社,愛知県,海部郡飛島村,大字服岡８丁目８７－２,,23,427,4901431,,,,,,,2022-07-04,1,,,,,エンダショウジ,0
1198,5180001152033,新規,0,2022-07-04,2022-07-04,株式会社ＬＥ　ＭＩＤＩ,,株式会社,愛知県,名古屋市名東区,高針原２丁目１０１番地,,23,115,4650073,,,,,,,2022-07-04,1,,,,,ルミディ,0
1203,5180003023983,新規,0,2022-07-04,2022-07-04,セルバミ合同会社,,合同会社,愛知県,名古屋市南区,観音町４丁目６１番地の４,,23,112,4570845,,,,,,,2022-07-04,1,,,,,セルバミ,0
1204,5180301036373,新規,0,2022-07-04,2022-07-04,株式会社ナコサ,,株式会社,愛知県,豊橋市,西幸町３３３－９豊橋サイエンスコア１０９,,23,201,4418113,,,,,,,2022-07-04,1,,,,,ナコサ,0
1210,5200001040243,新規,0,2022-07-04,2022-07-04,株式会社奥村創建,,株式会社,岐阜県,多治見市,小田町５丁目１７番地の１,,21,204,5070023,,,,,,,2022-07-04,1,,,,,オクムラソウケン,0
1211,5200001040251,新規,0,2022-07-04,2022-07-04,株式会社アンドエー,,株式会社,岐阜県,可児市,久々利柿下入会５２番地１,,21,214,5090234,,,,,,,2022-07-04,1,,,,,アンドエー,0
1224,5240001060023,新規,0,2022-07-04,2022-07-04,株式会社西井総業,,株式会社,広島県,広島市南区,金屋町７番５号,,34,103,7320825,,,,,,,2022-07-04,1,,,,,ニシイソウギョウ,0
1225,5240003005694,新規,0,2022-07-04,2022-07-04,合同会社プライム,,合同会社,広島県,広島市中区,大手町１丁目１番２６号大手町一番ビル３０５,,34,101,7300051,,,,,,,2022-07-04,1,,,,,プライム,0
1233,5290801028693,新規,0,2022-07-04,2022-07-04,株式会社トライアングル,,株式会社,福岡県,北九州市小倉北区,魚町２丁目２番２２号３Ｆ,,40,106,8020006,,,,,,,2022-07-04,1,,,,,トライアングル,0
1234,5290801028702,新規,0,2022-07-04,2022-07-04,万里国際株式会社,,株式会社,福岡県,北九州市八幡西区,力丸町１番２９号,,40,109,8070802,,,,,,,2022-07-04,1,,,,,バンリコクサイ,0
1235,5310001017932,新規,0,2022-07-04,2022-07-04,ａｍｂｏｉｓｅ株式会社,,株式会社,長崎県,西彼杵郡長与町,高田郷２１８６番地１,,42,307,8512127,,,,,,,2022-07-04,1,,,,,アンボワーズ,0
1238,5320001019168,新規,0,2022-07-04,2022-07-04,株式会社テクノサークル,,株式会社,大分県,別府市,大字鶴見４０１４番地の１９,,44,202,8740840,,,,,,,2022-07-04,1,,,,,テクノサークル,0
1246,5340001024876,新規,0,2022-07-04,2022-07-04,株式会社一保,,株式会社,鹿児島県,鹿児島市,樋之口町２番２号,00127083,46,201,8920845,,,,,,,2022-07-04,1,,,,,イッポ,0
1247,5340003003845,新規,0,2022-07-04,2022-07-04,合同会社ＲｅＦｏｒｅｓｔａｔｉｏｎ,,合同会社,鹿児島県,出水市,西出水町１５４８番地,,46,208,8990213,,,,,,,2022-07-04,1,,,,,リーフォレステーション,0
1248,5360001030625,新規,0,2022-07-04,2022-07-04,株式会社ばさなり,,株式会社,沖縄県,那覇市,真嘉比１丁目５番１２号,,47,201,9020068,,,,,,,2022-07-04,1,,,,,バサナリ,0
1250,5370003005748,新規,0,2022-07-04,2022-07-04,合同会社幸成,,合同会社,宮城県,名取市,本郷字焼野１７２,,04,207,9892411,,,,,,,2022-07-04,1,,,,,コウセイ,0
1254,5380005012601,新規,0,2022-07-04,2022-07-04,次世代グリーンＣＯ２燃料技術研究組合,,その他の設立登記法人,福島県,双葉郡大熊町,大字下野上字清水２３０,,07,545,9791308,,,,,,,2022-07-04,1,,,,,ジセダイグリーンシーオーツーネンリョウ,0
1255,5400001015935,新規,0,2022-07-04,2022-07-04,株式会社メガネクラブ,,株式会社,岩手県,盛岡市,大通３丁目１番１５号,,03,201,0200022,,,,,,,2022-07-04,1,,,,,メガネクラブ,0
1259,5410003003680,新規,0,2022-07-04,2022-07-04,合同会社ももの花,,合同会社,秋田県,横手市,増田町増田字上川原１８番地１,,05,203,0190701,,,,,,,2022-07-04,1,,,,,モモノハナ,0
1263,5430003014065,新規,0,2022-07-04,2022-07-04,合同会社ＮＥＥＤＳ,,合同会社,北海道,札幌市北区,太平八条５丁目３番５－１０１号,,01,102,0028008,,,,,,,2022-07-04,1,,,,,ニーズ,0
1267,5460301005077,新規,0,2022-07-04,2022-07-04,株式会社エヤム,,株式会社,北海道,北見市,川東３９番地１３５,,01,208,0900807,,,,,,,2022-07-04,1,,,,,エヤム,0
1275,5500001024307,新規,0,2022-07-04,2022-07-04,株式会社原建,,株式会社,愛媛県,新居浜市,萩生２８２番地１,,38,205,7920050,,,,,,,2022-07-04,1,,,,,ハラケン,0
1277,5700150110688,新規,0,2022-07-04,2022-07-04,認可地縁団体　大野第一区,,その他,広島県,廿日市市,宮島口東２丁目１２－５廿日市市大野東市民センター内　地域活動室,,34,213,7390414,,,,,,,2022-07-04,1,,,,,ニンカチエンダンタイオオノダイイツク,0
1278,5700150110705,新規,0,2022-07-04,2022-07-04,Ａｐｐｋｉｔｅｃｔ　Ｌｉｍｉｔｅｄ,,外国会社等,東京都,豊島区,目白２丁目２４－８－２０３,,13,116,1710031,香港九龍觀塘鴻圖道２３號利登中心８０５－７室,,,,,,2022-07-04,1,,,,,アツプキテクトリミテツド,0
1283,6010001227742,新規,0,2022-07-04,2022-07-04,株式会社アドバレス,,株式会社,東京都,千代田区,神田三崎町３丁目７番１３号三大ビル６階,,13,101,1010061,,,,,,,2022-07-04,1,,,,,アドバレス,0
1284,6010003038023,新規,0,2022-07-04,2022-07-04,合同会社ミルニュイ,,合同会社,東京都,中央区,銀座６丁目９－１６ロシュビル２階,,13,102,1040061,,,,,,,2022-07-04,1,,,,,ミルニュイ,0
1291,6010403028037,新規,0,2022-07-04,2022-07-04,Ｏｋｉｎｏｓｈｉｍａ　Ｈｏｌｄｉｎｇｓ合同会社,,合同会社,東京都,港区,西新橋１丁目１番１号ＥＰコンサルティングサービス内,,13,103,1050003,,,,,,,2022-07-04,1,,,,,オキノシマホールディングス,0
1301,6011001148458,新規,0,2022-07-04,2022-07-04,株式会社ラクラスデザイン,,株式会社,東京都,渋谷区,代々木１丁目２０－４代々木ダイヤビル８階,,13,113,1510053,,,,,,,2022-07-04,1,,,,,ラクラスデザイン,0
1306,6011103011893,新規,0,2022-07-04,2022-07-04,ロイズ合同会社,,合同会社,東京都,新宿区,新宿５丁目１０番１０号海老沢ビル２０２,,13,104,1600022,,,,,,,2022-07-04,1,,,,,ロイズ,0
1307,6011103011910,新規,0,2022-07-04,2022-07-04,宝利来合同会社,,合同会社,東京都,新宿区,榎町３４－３榎町ビル５階,,13,104,1620806,,,,,,,2022-07-04,1,,,,,ホウリライ,0
1308,6011201023931,新規,0,2022-07-04,2022-07-04,レオパレスグリーンエネルギー株式会社,,株式会社,東京都,中野区,本町２丁目５４番１１号,,13,114,1640012,,,,,,,2022-07-04,1,,,,,レオパレスグリーンエネルギー,0
1313,6011503005207,新規,0,2022-07-04,2022-07-04,ＳＡＹＭＡ　ＩＮＴＥＲＮＡＴＩＯＮＡＬ合同会社,,合同会社,東京都,荒川区,荒川３丁目６８番１０号芳明荘１０２号室,,13,118,1160002,,,,,,,2022-07-04,1,,,,,サイマインターナショナル,0
1317,6012401039362,新規,0,2022-07-04,2022-07-04,横河デジタル株式会社,,株式会社,東京都,武蔵野市,中町２丁目９番３２号,,13,203,1800006,,,,,,,2022-07-04,1,,,,,ヨコガワデジタル,0
1327,6020001147147,新規,0,2022-07-04,2022-07-04,株式会社小室プロデュース,,株式会社,神奈川県,横浜市神奈川区,東神奈川１丁目８番地２０ブリリアタワー横浜東神奈川４０１号,,14,102,2210044,,,,,,,2022-07-04,1,,,,,コムロプロデュース,0
1328,6020001147155,新規,0,2022-07-04,2022-07-04,株式会社ＭＩＹＡＢＩ,,株式会社,神奈川県,横浜市都筑区,早渕２丁目１８番２３号,,14,118,2240025,,,,,,,2022-07-04,1,,,,,ミヤビ,0
1341,6030001148953,新規,0,2022-07-04,2022-07-04,株式会社ル・ボヌール,,株式会社,埼玉県,白岡市,篠津２０２４番地３,,11,246,3490204,,,,,,,2022-07-04,1,,,,,ルボヌール,0
1342,6030001148961,新規,0,2022-07-04,2022-07-04,六花舎株式会社,,株式会社,埼玉県,北葛飾郡杉戸町,大字堤根４４２２番地３,,11,464,3450024,,,,,,,2022-07-04,1,,,,,ロッカシャ,0
1343,6030001148978,新規,0,2022-07-04,2022-07-04,メディカルブリーフィング株式会社,,株式会社,埼玉県,さいたま市中央区,本町西５丁目２番２－８０８号センターコート,,11,105,3380004,,,,,,,2022-07-04,1,,,,,メディカルブリーフィング,0
1347,6030003019707,新規,0,2022-07-04,2022-07-04,ビーエーツー合同会社,,合同会社,埼玉県,川越市,大字山田１６６８番地１０,,11,201,3500822,,,,,,,2022-07-04,1,,,,,ビーエーツー,0
1348,6030005020910,新規,0,2022-07-04,2022-07-04,一般社団法人ＥＩＮＳフィナンシャルグループ,,その他の設立登記法人,埼玉県,さいたま市大宮区,吉敷町１丁目１３５番地ＡＲＡＩ吉敷町一丁目ビル６階,,11,103,3300843,,,,,,,2022-07-04,1,,,,,アインズフィナンシャルグループ,0
1358,6040001124012,新規,0,2022-07-04,2022-07-04,株式会社成田食肉流通センター,,株式会社,千葉県,成田市,芦田２４２０,,12,211,2860831,,,,,,,2022-07-04,1,,,,,ナリタショクニクリュウツウセンター,0
1372,6050005013103,新規,0,2022-07-04,2022-07-04,社会福祉法人広樹会,,その他の設立登記法人,茨城県,つくば市,大字吉瀬字中島久保１１２０番地１号,,08,220,3050016,,,,,,,2022-07-04,1,,,,,コウジュカイ,0
1377,6070003004531,新規,0,2022-07-04,2022-07-04,合同会社一,,合同会社,群馬県,前橋市,東上野町６２番地,,10,201,3792164,,,,,,,2022-07-04,1,,,,,イチ,0
1379,6080001025058,新規,0,2022-07-04,2022-07-04,株式会社ファイブテック,,株式会社,静岡県,静岡市葵区,東町１５番地,,22,101,4200836,,,,,,,2022-07-04,1,,,,,ファイブテック,0
1382,6080101023390,新規,0,2022-07-04,2022-07-04,ＴＭ企画株式会社,,株式会社,静岡県,富士市,宮下３３３番地の１,,22,210,4160947,,,,,,,2022-07-04,1,,,,,ティーエムキカク,0
1383,6100005012891,新規,0,2022-07-04,2022-07-04,一般社団法人白馬ノルディックアカデミー,,その他の設立登記法人,長野県,北安曇郡白馬村,大字北城７０２５番地,,20,485,3999301,,,,,,,2022-07-04,1,,,,,ハクバノルディックアカデミー,0
1393,6120001247085,新規,0,2022-07-04,2022-07-04,株式会社マツモト,,株式会社,大阪府,大阪市中央区,瓦町２丁目３番１４号日宝瓦町ビル,,27,128,5410048,,,,,,,2022-07-04,1,,,,,マツモト,0
1394,6120001247093,新規,0,2022-07-04,2022-07-04,株式会社ｓｌｉｍ　ｓｔｕｄｉｏ　ｂｌｕｅ,,株式会社,大阪府,大阪市中央区,心斎橋筋２丁目４－２グルカスシティー９階,,27,128,5420085,,,,,,,2022-07-04,1,,,,,スリムスタジオブルー,0
1397,6120101065833,新規,0,2022-07-04,2022-07-04,株式会社フェローズ,,株式会社,大阪府,羽曳野市,西浦５丁目４０２番地の８,,27,222,5830861,,,,,,,2022-07-04,1,,,,,フェローズ,0
1398,6120103004764,新規,0,2022-07-04,2022-07-04,合同会社シルバードーン,,合同会社,大阪府,堺市西区,浜寺石津町東３丁１番１５号１階,,27,144,5928335,,,,,,,2022-07-04,1,,,,,シルバードーン,0
1406,6140001126584,新規,0,2022-07-04,2022-07-04,ＡＦトレーディング株式会社,,株式会社,兵庫県,神戸市長田区,雲雀ケ丘３丁目６番２号ヴィラナリー雲雀ヶ丘２号棟３０２号室,,28,106,6530879,,,,,,,2022-07-04,1,,,,,エーエフトレーディング,0
1408,6140003017872,新規,0,2022-07-04,2022-07-04,合同会社シャンティライト,,合同会社,兵庫県,西脇市,和布町１６９－７,,28,213,6770053,,,,,,,2022-07-04,1,,,,,シャンティライト,0
1409,6140005026228,新規,0,2022-07-04,2022-07-04,一般社団法人まいらいふ,,その他の設立登記法人,兵庫県,神戸市西区,伊川谷町潤和１０１５番地の１,,28,111,6512124,,,,,,,2022-07-04,1,,,,,マイライフ,0
1420,6180001151983,新規,0,2022-07-04,2022-07-04,株式会社ドリームアシスト尾張,,株式会社,愛知県,名古屋市千種区,千種２丁目２３番６号,,23,101,4640858,,,,,,,2022-07-04,1,,,,,ドリームアシストオワリ,0
1424,6180003023999,新規,0,2022-07-04,2022-07-04,合同会社Ｌｉｆｅ　Ｄｅｓｉｇｎ,,合同会社,愛知県,名古屋市中区,千代田３丁目１９番２号（シュタットメゾンＩＩ４０１号）,00127073,23,106,4600012,,,,,,,2022-07-04,1,,,,,ライフデザイン,0
1425,6180005019822,新規,0,2022-07-04,2022-07-04,医療法人ｃａｑｕｉ,,その他の設立登記法人,愛知県,名古屋市千種区,末盛通１丁目１７番地の１ｅｌｓｏｌ覚王山２Ｆ,,23,101,4640821,,,,,,,2022-07-04,1,,,,,カキ,0
1426,6180301036372,新規,0,2022-07-04,2022-07-04,エムズホールディングス株式会社,,株式会社,愛知県,刈谷市,稲場町３丁目３０３番地,,23,210,4480038,,,,,,,2022-07-04,1,,,,,エムズホールディングス,0
1427,6180303005375,新規,0,2022-07-04,2022-07-04,Ｔｈｅ　Ｈｉｍａｌａｙａｎ　Ｐｒｏｄｕｃｔｉｏｎ合同会社,,合同会社,愛知県,豊田市,東新町３丁目６７番地３東新スカイハイツ２０２号,,23,211,4710045,,,,,,,2022-07-04,1,,,,,ザヒマラヤンプロダクション,0
1429,6180305009358,新規,0,2022-07-04,2022-07-04,行政書士法人ＴＭＣ,,その他の設立登記法人,愛知県,豊橋市,駅前大通１丁目５５番地,,23,201,4400888,,,,,,,2022-07-04,1,,,,,ティーエムシー,0
1431,6200001040242,新規,0,2022-07-04,2022-07-04,岐阜ヤナセＡＧ販売株式会社,,株式会社,岐阜県,岐阜市,金園町８丁目１１番地,,21,201,5008113,,,,,,,2022-07-04,1,,,,,ギフヤナセエージーハンバイ,0
1432,6200001040250,新規,0,2022-07-04,2022-07-04,寺島工業株式会社,,株式会社,岐阜県,岐阜市,北島９丁目８番２１号ビッグフラップＩ１０１号,00127081,21,201,5020911,,,,,,,2022-07-04,1,,,,,テラシマコウギョウ,0
1434,6210001018980,新規,0,2022-07-04,2022-07-04,株式会社山下家,,株式会社,福井県,福井市,城東４丁目２５番１８号,,18,201,9100853,,,,,,,2022-07-04,1,,,,,ヤマシタケ,0
1436,6220001024929,新規,0,2022-07-04,2022-07-04,株式会社岡田建設,,株式会社,石川県,金沢市,三口新町３丁目１８番１号,,17,201,9200944,,,,,,,2022-07-04,1,,,,,オカダケンセツ,0
1438,6240005015419,新規,0,2022-07-04,2022-07-04,司法書士法人瀬川事務所,,その他の設立登記法人,広島県,福山市,東桜町２番１１号福山センタービル５階,,34,207,7200065,,,,,,,2022-07-04,1,,,,,セガワジムショ,0
1440,6250003003110,新規,0,2022-07-04,2022-07-04,合同会社特牛製氷,,合同会社,山口県,下関市,豊北町大字神田１３７３番地,,35,201,7595331,,,,,,,2022-07-04,1,,,,,コットイセイヒョウ,0
1447,6290001098116,新規,0,2022-07-04,2022-07-04,ｎｏｕｖｅｌｌｅ　ｎｏｒｍｅ株式会社,,株式会社,福岡県,福岡市中央区,今泉１丁目１０番２１号,,40,133,8100021,,,,,,,2022-07-04,1,,,,,ヌーベルノーム,0
1448,6290001098149,新規,0,2022-07-04,2022-07-04,株式会社ＭＡＫＥ,,株式会社,福岡県,筑紫野市,二日市南４丁目１０番１号,,40,217,8180057,,,,,,,2022-07-04,1,,,,,メイク,0
1452,6290801028676,新規,0,2022-07-04,2022-07-04,株式会社暖,,株式会社,福岡県,遠賀郡水巻町,猪熊８丁目８番７号,,40,382,8070001,,,,,,,2022-07-04,1,,,,,ダン,0
1461,6310001017931,新規,0,2022-07-04,2022-07-04,株式会社エイティエス,,株式会社,長崎県,東彼杵郡波佐見町,長野郷２１０５番地１,,42,323,8593725,,,,,,,2022-07-04,1,,,,,エイティエス,0
1463,6320001019167,新規,0,2022-07-04,2022-07-04,株式会社池田不動産,,株式会社,大分県,宇佐市,大字法鏡寺１９０番地の１,,44,211,8790454,,,,,,,2022-07-04,1,,,,,イケダフドウサン,0
1464,6320001019175,新規,0,2022-07-04,2022-07-04,石部種苗株式会社,,株式会社,大分県,宇佐市,大字長洲５８７番地,,44,211,8720001,,,,,,,2022-07-04,1,,,,,イシベシュビョウ,0
1465,6320001019183,新規,0,2022-07-04,2022-07-04,株式会社菅本設備工業所,,株式会社,大分県,宇佐市,大字山本２６番地の５,,44,211,8790467,,,,,,,2022-07-04,1,,,,,スガモトセツビコウギョウショ,0
1474,6340001024859,新規,0,2022-07-04,2022-07-04,株式会社シバケン,,株式会社,鹿児島県,鹿児島市,坂之上７丁目１番３６号,,46,201,8910150,,,,,,,2022-07-04,1,,,,,シバケン,0
1476,6350005006084,新規,0,2022-07-04,2022-07-04,一般社団法人西都地区薬剤師会,,その他の設立登記法人,宮崎県,西都市,御舟町２丁目４７番地,,45,208,8810016,,,,,,,2022-07-04,1,,,,,サイトチクヤクザイシカイ,0
1483,6370003005739,新規,0,2022-07-04,2022-07-04,合同会社賢宗,,合同会社,宮城県,登米市,迫町佐沼字下田中４２－２パラシオン壱番館３０２,,04,212,9870511,,,,,,,2022-07-04,1,,,,,マサムネ,0
1494,6410005006474,新規,0,2022-07-04,2022-07-04,特定非営利活動法人むりん庵,,その他の設立登記法人,秋田県,大館市,常盤木町２番３１号,,05,204,0170846,,,,,,,2022-07-04,1,,,,,ムリンアン,0
1506,6430003014064,新規,0,2022-07-04,2022-07-04,合同会社ｍｉｔｅ,,合同会社,北海道,札幌市中央区,南十二条西１８丁目４番１２号ピアス南１２条２０２号,,01,101,0640912,,,,,,,2022-07-04,1,,,,,ミーテ,0
1510,6450003002224,新規,0,2022-07-04,2022-07-04,合同会社Ｇｒｏｕｐ　Ｆｉｒｓｔ,,合同会社,北海道,旭川市,四条通６丁目３番地１２２第９中島プラザ７０３号室,,01,204,0700034,,,,,,,2022-07-04,1,,,,,グループファースト,0
1515,6480001007676,新規,0,2022-07-04,2022-07-04,山口建設株式会社,,株式会社,徳島県,美馬市,美馬町字竹ノ内２０８番地,,36,207,7712107,,,,,,,2022-07-04,1,,,,,,0
1518,6700150110704,新規,0,2022-07-04,2022-07-04,ＤＹＮＡＳＴＹ　ＶＥＮＴＵＲＥＳ　ＥＮＴＥＲＰＲＩＳＥＳ　ＬＩＭＩＴＥＤ,,外国会社等,,,,,,,,３ｒｄ　Ｆｌｏｏｒ，　Ｊ＆Ｃ　Ｂｕｉｌｄｉｎｇ，　Ｒｏａｄ　Ｔｏｗｎ，　Ｔｏｒｔｏｌａ，　Ｂｒｉｔｉｓｈ　Ｖｉｒｇｉｎ　Ｉｓｌａｎｄｓ，　ＶＧ１１１０：,,,,,,2022-07-04,1,,,,,ダイナステイベンチヤーズエンタープライゼスリミテツド,0
1523,7010001227675,新規,0,2022-07-04,2022-07-04,ｂｒｉｇｈｔ　ｍｏｏｎ株式会社,,株式会社,東京都,中央区,日本橋兜町１７番２号兜町第６葉山ビル４階,,13,102,1030026,,,,,,,2022-07-04,1,,,,,ブライトムーン,0
1524,7010001227741,新規,0,2022-07-04,2022-07-04,株式会社スポーツシンギュラリティー研究所,,株式会社,東京都,中央区,日本橋人形町１丁目１８番５号ＴＫ人形町ビルディング６０１号,,13,102,1030013,,,,,,,2022-07-04,1,,,,,スポーツシンギュラリティーケンキュウジョ,0
1525,7010003038022,新規,0,2022-07-04,2022-07-04,合同会社ＬＵＣＯ,,合同会社,東京都,千代田区,鍛冶町２丁目９番１２号,,13,101,1010044,,,,,,,2022-07-04,1,,,,,ルコ,0
1526,7010003038030,新規,0,2022-07-04,2022-07-04,エスティファンドスリー合同会社,,合同会社,東京都,千代田区,丸の内３丁目１番１号東京共同会計事務所内,,13,101,1000005,,,,,,,2022-07-04,1,,,,,エスティファンドスリー,0
1531,7010401168222,新規,0,2022-07-04,2022-07-04,フジユニ株式会社,,株式会社,東京都,港区,北青山３丁目８番１８号,,13,103,1070061,,,,,,,2022-07-04,1,,,,,フジユニ,0
1535,7010403028003,新規,0,2022-07-04,2022-07-04,Ａｒｉａｋｅ　Ｃａｐｉｔａｌ　Ｍａｎａｇｅｍｅｎｔ　ＩＩＩ合同会社,,合同会社,東京都,港区,東新橋１丁目９番１号,,13,103,1050021,,,,,,,2022-07-04,1,,,,,アリアケキャピタルマネジメトスリー,0
1539,7010501049058,新規,0,2022-07-04,2022-07-04,フィルワークス株式会社,,株式会社,東京都,台東区,浅草４丁目３３番９号プレサンスジェネ浅草ＷＥＳＴ３０２,,13,106,1110032,,,,,,,2022-07-04,1,,,,,フィルワークス,0
1553,7011001148465,新規,0,2022-07-04,2022-07-04,株式会社ＦＬＡＭＥ,,株式会社,東京都,渋谷区,渋谷２丁目１９－１５宮益坂ビルディング６０９,,13,113,1500002,,,,,,,2022-07-04,1,,,,,フレイム,0
1554,7011003014954,新規,0,2022-07-04,2022-07-04,Ｄ‐ｃｈａｉｎ合同会社,,合同会社,東京都,渋谷区,道玄坂１丁目１０番８号渋谷道玄坂東急ビル２Ｆ－Ｃ,,13,113,1500043,,,,,,,2022-07-04,1,,,,,ディーチェイン,0
1555,7011003014970,新規,0,2022-07-04,2022-07-04,合同会社竹,,合同会社,東京都,渋谷区,上原２丁目３２番５号つながりシェアハウス２０１号,,13,113,1510064,,,,,,,2022-07-04,1,,,,,タケ,0
1559,7011401024365,新規,0,2022-07-04,2022-07-04,株式会社ＭＯＲＥ２ｎｄ,,株式会社,東京都,板橋区,坂下２丁目１３番５号ピラカンサ１Ｆ,,13,119,1740043,,,,,,,2022-07-04,1,,,,,モアセカンド,0
1563,7011403003714,新規,0,2022-07-04,2022-07-04,合同会社ＴＫＷＧ,,合同会社,東京都,板橋区,赤塚新町３丁目２－３,,13,119,1750093,,,,,,,2022-07-04,1,,,,,ティーケーダブルジー,0
1565,7011501028209,新規,0,2022-07-04,2022-07-04,株式会社Ｎｏｗ’ｓ　ｔｈｅ　ｔｉｍｅ,,株式会社,東京都,北区,中里３丁目１１番４号,,13,117,1140015,,,,,,,2022-07-04,1,,,,,ナウザタイム,0
1566,7011501028217,新規,0,2022-07-04,2022-07-04,ＹＴＫジャパン株式会社,,株式会社,東京都,荒川区,南千住８丁目８番１－６３４号,,13,118,1160003,,,,,,,2022-07-04,1,,,,,ワイティーケージャパン,0
1568,7011505002481,新規,0,2022-07-04,2022-07-04,特定非営利活動法人東京・ラオ国際友好協会,,その他の設立登記法人,東京都,荒川区,南千住８丁目６番３－１４０２号,,13,118,1160003,,,,,,,2022-07-04,1,,,,,トウキョウラオコクサイユウコウキョウカイ,0
1571,7012701017125,新規,0,2022-07-04,2022-07-04,株式会社かがやく商事,,株式会社,東京都,西東京市,田無町２丁目１６番１４－７０２号,,13,229,1880011,,,,,,,2022-07-04,1,,,,,カガヤクショウジ,0
1572,7013101008961,新規,0,2022-07-04,2022-07-04,株式会社羽村工房,,株式会社,東京都,西多摩郡瑞穂町,大字長岡長谷部３７１番地７,,13,303,1901231,,,,,,,2022-07-04,1,,,,,ハムラコウボウ,0
1580,7020001147162,新規,0,2022-07-04,2022-07-04,株式会社ＹＫ空調,,株式会社,神奈川県,川崎市宮前区,土橋１丁目１９番地３１,,14,136,2160005,,,,,,,2022-07-04,1,,,,,ワイケイクウチョウ,0
1594,7030001148985,新規,0,2022-07-04,2022-07-04,株式会社Ｍａｍａ　Ｄｒｅａｍ,,株式会社,埼玉県,入間市,鍵山２丁目４－２１－１,,11,225,3580004,,,,,,,2022-07-04,1,,,,,ママドリーム,0
1597,7030003019664,新規,0,2022-07-04,2022-07-04,Ｋ．Ａ．Ｍ．合同会社,,合同会社,埼玉県,狭山市,鵜ノ木２４番３３号１１,,11,215,3501323,,,,,,,2022-07-04,1,,,,,カム,0
1598,7030003019706,新規,0,2022-07-04,2022-07-04,Ｔ＆Ａ合同会社,,合同会社,埼玉県,吉川市,保１丁目３４番地４ライトハウス１０３号,,11,243,3420041,,,,,,,2022-07-04,1,,,,,ティーアンドエー,0
1602,7040001124060,新規,0,2022-07-04,2022-07-04,株式会社フォレスト,,株式会社,千葉県,船橋市,本町４丁目４番６号アロー船橋京成駅前ビル２階,,12,204,2730005,,,,,,,2022-07-04,1,,,,,フォレスト,0
1609,7040003020357,新規,0,2022-07-04,2022-07-04,合同会社ＳＥＹＯＲＡ　ＴＲＡＤＩＮＧ,,合同会社,千葉県,印西市,高西新田１０２番地１,,12,231,2701365,,,,,,,2022-07-04,1,,,,,セヨラトレーディング,0
1616,7050001051312,新規,0,2022-07-04,2022-07-04,ＳＴＡＹＳＡＮＴＡ株式会社,,株式会社,茨城県,古河市,東山田５８２番地２フラップタウンＣ－３,,08,204,3060112,,,,,,,2022-07-04,1,,,,,ステイサンタ,0
1619,7060001035041,新規,0,2022-07-04,2022-07-04,株式会社鈴木畜産,,株式会社,栃木県,那須烏山市,八ケ代７８２番地１,,09,215,3210524,,,,,,,2022-07-04,1,,,,,スズキチクサン,0
1622,7060003004127,新規,0,2022-07-04,2022-07-04,合同会社オフィス加瀬,,合同会社,栃木県,那須塩原市,緑１丁目５７番地１０４,,09,213,3292713,,,,,,,2022-07-04,1,,,,,オフィスカセ,0
1629,7070003004530,新規,0,2022-07-04,2022-07-04,合同会社スリープラス,,合同会社,群馬県,高崎市,棟高町７３０－２４９,,10,202,3703521,,,,,,,2022-07-04,1,,,,,スリープラス,0
1636,7080401025920,新規,0,2022-07-04,2022-07-04,株式会社やまこ,,株式会社,静岡県,浜松市西区,篠原町２１５７７番地,,22,133,4310201,,,,,,,2022-07-04,1,,,,,ヤマコ,0
1637,7090001017656,新規,0,2022-07-04,2022-07-04,株式会社誠信商事,,株式会社,山梨県,甲府市,青葉町１７番２２号,,19,201,4000828,,,,,,,2022-07-04,1,,,,,セイシンショウジ,0
1647,7120001247068,新規,0,2022-07-04,2022-07-04,株式会社ひかり電工舎,,株式会社,大阪府,守口市,緑町１番２７号リバーサイド太子橋３０６号室,,27,209,5700084,,,,,,,2022-07-04,1,,,,,ヒカリデンコウシャ,0
1648,7120001247101,新規,0,2022-07-04,2022-07-04,千峰会株式会社,,株式会社,大阪府,大阪市港区,磯路３丁目１０番７号,,27,107,5520003,,,,,,,2022-07-04,1,,,,,センホウカイ,0
1649,7120001247126,新規,0,2022-07-04,2022-07-04,みやこの薬膳茶本舗株式会社,,株式会社,大阪府,枚方市,東中振２丁目９番１－１００３号,,27,210,5730093,,,,,,,2022-07-04,1,,,,,ミヤコノヤクゼンチャホンポ,0
1658,7120101065816,新規,0,2022-07-04,2022-07-04,株式会社旭光金属,,株式会社,大阪府,堺市南区,釜室５３７番地１,,27,145,5900122,,,,,,,2022-07-04,1,,,,,キョウコウキンゾク,0
1659,7120101065849,新規,0,2022-07-04,2022-07-04,株式会社零壱,,株式会社,大阪府,堺市中区,深井清水町１４２３－１２,,27,142,5998273,,,,,,,2022-07-04,1,,,,,ゼロワン,0
1662,7120103004763,新規,0,2022-07-04,2022-07-04,合同会社ＦＬＯＷ,,合同会社,大阪府,堺市西区,浜寺石津町東３丁１番１５号１階,,27,144,5928335,,,,,,,2022-07-04,1,,,,,フロウ,0
1668,7120901046197,新規,0,2022-07-04,2022-07-04,株式会社フラットプロ,,株式会社,大阪府,吹田市,岸部南２丁目３番１１,,27,205,5640011,,,,,,,2022-07-04,1,,,,,フラットプロ,0
1669,7120903004211,新規,0,2022-07-04,2022-07-04,ＭＡＮＡ　ＥＳＴＡＴＥ合同会社,,合同会社,大阪府,豊中市,少路１丁目１４番２３－２０６号,,27,203,5600004,,,,,,,2022-07-04,1,,,,,マナエステート,0
1675,7130003008038,新規,0,2022-07-04,2022-07-04,合同会社ヤマシロスパイス,,合同会社,京都府,木津川市,加茂町高田大木屋２番地１,,26,214,6191144,,,,,,,2022-07-04,1,,,,,ヤマシロスパイス,0
1690,7170001017169,新規,0,2022-07-04,2022-07-04,株式会社ノエル,,株式会社,和歌山県,和歌山市,船所２５－６,,30,201,6408461,,,,,,,2022-07-04,1,,,,,ノエル,0
1700,7180001151966,新規,0,2022-07-04,2022-07-04,株式会社浜風,,株式会社,愛知県,名古屋市中村区,日ノ宮町４丁目２２番地の２,,23,105,4530823,,,,,,,2022-07-04,1,,,,,ハマカゼ,0
1701,7180001151982,新規,0,2022-07-04,2022-07-04,Ｒｕｎａ　Ｍ’ｓ株式会社,,株式会社,愛知県,名古屋市天白区,島田４丁目２０１０番地の２,,23,116,4680056,,,,,,,2022-07-04,1,,,,,ルナミューズ,0
1704,7180005019788,新規,0,2022-07-04,2022-07-04,一般社団法人電解質セミナー運営委員会,,その他の設立登記法人,愛知県,名古屋市千種区,日和町１丁目５番１０号,,23,101,4640039,,,,,,,2022-07-04,1,,,,,デンカイシツセミナーウンエイイインカイ,0
1706,7180301036371,新規,0,2022-07-04,2022-07-04,ＷＥＢ３．０株式会社,,株式会社,愛知県,豊田市,大清水町大清水３８－１０,,23,211,4700342,,,,,,,2022-07-04,1,,,,,ウェブスリー,0
1707,7190001029550,新規,0,2022-07-04,2022-07-04,株式会社ハジメ,,株式会社,三重県,桑名市,大字西金井字西谷４１２番地５,,24,205,5110922,,,,,,,2022-07-04,1,,,,,ハジメ,0
1711,7220001024936,新規,0,2022-07-04,2022-07-04,株式会社ＦＡＩＲＹＴＡＬＥ,,株式会社,石川県,かほく市,木津ロ３７番地３,,17,209,9291171,,,,,,,2022-07-04,1,,,,,フェアリーテール,0
1715,7240001060013,新規,0,2022-07-04,2022-07-04,株式会社Ａ’ｓ,,株式会社,広島県,広島市南区,宇品東１丁目５番５号,,34,103,7340003,,,,,,,2022-07-04,1,,,,,エース,0
1716,7240001060021,新規,0,2022-07-04,2022-07-04,株式会社テイテイ,,株式会社,広島県,東広島市,黒瀬町川角５８５番地１,,34,212,7392623,,,,,,,2022-07-04,1,,,,,テイテイ,0
1720,7250005008759,新規,0,2022-07-04,2022-07-04,特定非営利活動法人しゅうなんまちなか保健室,,その他の設立登記法人,山口県,周南市,大神３丁目１２－１,,35,215,7460018,,,,,,,2022-07-04,1,,,,,シュウナンマチナカホケンシツ,0
1721,7260001037001,新規,0,2022-07-04,2022-07-04,株式会社河島建装,,株式会社,岡山県,倉敷市,浦田１６７０番地６,,33,202,7100843,,,,,,,2022-07-04,1,,,,,カワシマケンソウ,0
1727,7290003012692,新規,0,2022-07-04,2022-07-04,ＣＨＡＮ合同会社,,合同会社,福岡県,福岡市東区,箱崎４丁目２８番１８,,40,131,8120053,,,,,,,2022-07-04,1,,,,,チャン,0
1729,7290801028700,新規,0,2022-07-04,2022-07-04,株式会社供養院,,株式会社,福岡県,直方市,大字感田１４８３番１,,40,204,8220001,,,,,,,2022-07-04,1,,,,,クヨウイン,0
1730,7290803004154,新規,0,2022-07-04,2022-07-04,合同会社機織製作,,合同会社,福岡県,北九州市小倉北区,清水１丁目１４－１６,,40,106,8030841,,,,,,,2022-07-04,1,,,,,ハタオリセイサク,0
1732,7300005007086,新規,0,2022-07-04,2022-07-04,特定非営利活動法人グローアップナーシングからつ,,その他の設立登記法人,佐賀県,唐津市,栄町２５８８番地８,,41,202,8470011,,,,,,,2022-07-04,1,,,,,グローアップナーシングカラツ,0
1735,7310001017939,新規,0,2022-07-04,2022-07-04,錦戸テック株式会社,,株式会社,長崎県,長崎市,岩見町２２番１号,,42,201,8528017,,,,,,,2022-07-04,1,,,,,,0
1748,7340003003843,新規,0,2022-07-04,2022-07-04,合同会社ｇａｒｔｅｎ‐ｍ,,合同会社,鹿児島県,姶良市,平松１０１５番地２,,46,225,8995652,,,,,,,2022-07-04,1,,,,,ガルテンエム,0
1778,7500001024305,新規,0,2022-07-04,2022-07-04,株式会社高木美装,,株式会社,愛媛県,松山市,粟井河原３６５番地２９,,38,201,7992463,,,,,,,2022-07-04,1,,,,,タカギビソウ,0
1779,7500001024313,新規,0,2022-07-04,2022-07-04,株式会社ＧＲＡＮＳＥＥＤ,,株式会社,愛媛県,八幡浜市,矢野町４４８－１,,38,204,7960026,,,,,,,2022-07-04,1,,,,,グランシード,0
1781,7500005008502,新規,0,2022-07-04,2022-07-04,一般社団法人ＬｖｎｉｒｏｓｓｏＮＣスポーツクラブ,,その他の設立登記法人,愛媛県,新居浜市,上泉町１番２８号,,38,205,7920824,,,,,,,2022-07-04,1,,,,,レベニロッソネヌシースポーツクラブ,0
1783,7700150110703,新規,0,2022-07-04,2022-07-04,Ｎｅｗ　Ｒｉｃｈ　Ｃｏ．，Ｌｔｄ．日本駐在員事務所,,外国会社等,東京都,港区,白金６丁目５－２－１９０４号,,13,103,1080072,Ｔｒｕｓｔ　Ｃｏｍｐａｎｙ　Ｃｏｍｐｌｅｘ，　Ａｊｅｌｔａｋｅ　Ｒｏａｄ，　Ａｊｅｌｔａｋｅ　Ｉｓｌａｎｄ，　Ｍａｊｕｒｏ，　Ｍａｒｓｈａｌｌ　Ｉｓｌａｎｄｓ,,,,,,2022-07-04,1,,,,,ニユーリツチカンパニーリミテツドニホンチユウザイインジムシヨ,0
1787,8010001227798,新規,0,2022-07-04,2022-07-04,株式会社グリーン電力ホールディングス,,株式会社,東京都,千代田区,丸の内１丁目１１番１号,,13,101,1000005,,,,,,,2022-07-04,1,,,,,グリーンデンリョクホールディングス,0
1792,8010003038005,新規,0,2022-07-04,2022-07-04,ＴＥＣＨＯ合同会社,,合同会社,東京都,中央区,銀座１丁目２２番１１号銀座大竹ビジデンス,,13,102,1040061,,,,,,,2022-07-04,1,,,,,テチョウ,0
1793,8010005035207,新規,0,2022-07-04,2022-07-04,特定目的会社ＳＲＪ２,,その他の設立登記法人,東京都,中央区,銀座１丁目６番１１号土志田ビルディング３Ｆ,,13,102,1040061,,,,,,,2022-07-04,1,,,,,エスアールジェイツー,0
1795,8010401168246,新規,0,2022-07-04,2022-07-04,株式会社Ｎｅｉｔｈ　Ｅｎｔｅｒｐｒｉｓｅ,,株式会社,東京都,港区,台場２丁目２番２－２１１８号,,13,103,1350091,,,,,,,2022-07-04,1,,,,,ネイスエンタープライズ,0
1796,8010401168295,新規,0,2022-07-04,2022-07-04,株式会社ＡＰクリーンエナジーズ１,,株式会社,東京都,港区,虎ノ門４丁目１番２８号虎ノ門タワーズオフィス１７階,,13,103,1050001,,,,,,,2022-07-04,1,,,,,エーピークリーンエナジーズワン,0
1797,8010401168312,新規,0,2022-07-04,2022-07-04,株式会社日本科来,,株式会社,東京都,港区,赤坂１丁目１２番３２号,,13,103,1070052,,,,,,,2022-07-04,1,,,,,ニホンコライ,0
1801,8010501049049,新規,0,2022-07-04,2022-07-04,株式会社大成産業,,株式会社,東京都,台東区,浅草橋３丁目１番９号浅草橋金子ビル７階,,13,106,1110053,,,,,,,2022-07-04,1,,,,,タイセイサンギョウ,0
1806,8010701042902,新規,0,2022-07-04,2022-07-04,株式会社八木商店,,株式会社,東京都,品川区,西品川３丁目２０番７号,,13,109,1410033,,,,,,,2022-07-04,1,,,,,ヤギショウテン,0
1819,8011001148448,新規,0,2022-07-04,2022-07-04,Ａｘｅｌａｇｅ株式会社,,株式会社,東京都,渋谷区,神宮前６丁目２３番４号桑野ビル２階,,13,113,1500001,,,,,,,2022-07-04,1,,,,,アクセレージ,0
1820,8011001148456,新規,0,2022-07-04,2022-07-04,株式会社ＤａｔａＥｇｇ,,株式会社,東京都,渋谷区,神宮前６丁目２３番４号桑野ビル２階,,13,113,1500001,,,,,,,2022-07-04,1,,,,,データエッグ,0
1829,8011603003637,新規,0,2022-07-04,2022-07-04,合同会社ライフィニティ,,合同会社,東京都,練馬区,豊玉上２丁目２６番１６－６０３号,,13,120,1760011,,,,,,,2022-07-04,1,,,,,ライフィニティ,0
1831,8011701025426,新規,0,2022-07-04,2022-07-04,株式会社ＣＲＡＦＴ,,株式会社,東京都,江戸川区,松江３丁目９番１－６０２号,,13,123,1320025,,,,,,,2022-07-04,1,,,,,クラフト,0
1835,8012701017132,新規,0,2022-07-04,2022-07-04,株式会社ザクレイ,,株式会社,東京都,東久留米市,滝山５丁目２７番２６号,,13,222,2030033,,,,,,,2022-07-04,1,,,,,ザクレイ,0
1838,8013101008960,新規,0,2022-07-04,2022-07-04,株式会社遊心設備,,株式会社,東京都,あきる野市,五日市８番地,,13,228,1900164,,,,,,,2022-07-04,1,,,,,ユウシンセツビ,0
1847,8013301049334,新規,0,2022-07-04,2022-07-04,Ｏｃｅａｎ　Ｐｅａｒｌ株式会社,,株式会社,東京都,豊島区,上池袋３丁目４７－９－４Ｆ－８,,13,116,1700012,,,,,,,2022-07-04,1,,,,,オーシャンパール,0
1858,8020003022024,新規,0,2022-07-04,2022-07-04,合同会社ＯＫＰスチール,,合同会社,神奈川県,川崎市宮前区,東有馬５丁目２０番１０－５０２号,,14,136,2160002,,,,,,,2022-07-04,1,,,,,オーケーピースチール,0
1859,8020003022032,新規,0,2022-07-04,2022-07-04,合同会社ＴＯＰ,,合同会社,神奈川県,横浜市都筑区,大熊町１４１番地３ＦｏｒｔｕｎｅＢ１０１,,14,118,2240042,,,,,,,2022-07-04,1,,,,,トップ,0
1871,8030001148976,新規,0,2022-07-04,2022-07-04,株式会社ウィズユー,,株式会社,埼玉県,川口市,大字芝４９８１番地の４,,11,203,3330866,,,,,,,2022-07-04,1,,,,,ウィズユー,0
1874,8030005020909,新規,0,2022-07-04,2022-07-04,特定非営利活動法人向あそび場計画,,その他の設立登記法人,埼玉県,さいたま市南区,大字大谷口５４７８番地１,,11,108,3360042,,,,,,,2022-07-04,1,,,,,ムカイアソビバケイカク,0
1890,8040003020348,新規,0,2022-07-04,2022-07-04,ダルッシュトレーディング合同会社,,合同会社,千葉県,木更津市,真里４８番地１,,12,206,2920212,,,,,,,2022-07-04,1,,,,,ダルッシュトレーディング,0
1891,8040003020356,新規,0,2022-07-04,2022-07-04,グローバルファイナンス合同会社,,合同会社,千葉県,佐倉市,中志津４丁目５番２号,,12,212,2850843,,,,,,,2022-07-04,1,,,,,グローバルファイナンス,0
1894,8050001051303,新規,0,2022-07-04,2022-07-04,農業法人緑葉株式会社,,株式会社,茨城県,行方市,西蓮寺１３３８番地１８,,08,233,3113514,,,,,,,2022-07-04,1,,,,,ノウギョウホウジンミドリバ,0
1908,8080101023397,新規,0,2022-07-04,2022-07-04,株式会社シュパース,,株式会社,静岡県,沼津市,下香貫藤井原１６１９番地の１１,,22,203,4100822,,,,,,,2022-07-04,1,,,,,シュパース,0
1911,8080403004574,新規,0,2022-07-04,2022-07-04,合同会社ＳＴＳ,,合同会社,静岡県,浜松市西区,入野町１６１１９番地の１４,,22,133,4328061,,,,,,,2022-07-04,1,,,,,エスティーエス,0
1912,8090001017647,新規,0,2022-07-04,2022-07-04,株式会社アスベスト環境検査,,株式会社,山梨県,甲府市,貢川本町７番２８号,,19,201,4000048,,,,,,,2022-07-04,1,,,,,,0
1918,8100001035481,新規,0,2022-07-04,2022-07-04,ワールドサポート株式会社,,株式会社,長野県,千曲市,大字桜堂５１４,,20,218,3870012,,,,,,,2022-07-04,1,,,,,ワールドサポート,0
1920,8110001036784,新規,0,2022-07-04,2022-07-04,株式会社星興業所,,株式会社,新潟県,新潟市北区,太夫浜１６５７番地６,,15,101,9503112,,,,,,,2022-07-04,1,,,,,ホシコウギョウショ,0
1922,8110003004806,新規,0,2022-07-04,2022-07-04,合同会社ロッジホワイト,,合同会社,新潟県,東蒲原郡阿賀町,吉津３５２０番地,,15,385,9594625,,,,,,,2022-07-04,1,,,,,ロッジホワイト,0
1937,8120001247050,新規,0,2022-07-04,2022-07-04,鳳鳴株式会社,,株式会社,大阪府,大阪市生野区,鶴橋５丁目１９－４－２０６,,27,116,5440031,,,,,,,2022-07-04,1,,,,,ホウメイ,0
1938,8120001247067,新規,0,2022-07-04,2022-07-04,株式会社ＤＡＭＡＲＡ,,株式会社,大阪府,大阪市浪速区,元町１丁目７－２フェブライオ元町８０２号室,,27,111,5560016,,,,,,,2022-07-04,1,,,,,ダマラ,0
1939,8120001247075,新規,0,2022-07-04,2022-07-04,ＭＧ株式会社,,株式会社,大阪府,大阪市平野区,背戸口３丁目４－９,,27,126,5470034,,,,,,,2022-07-04,1,,,,,エムジー,0
1940,8120001247083,新規,0,2022-07-04,2022-07-04,Ｐｌｕｓ　ｉ株式会社,,株式会社,大阪府,大阪市北区,野崎町７番１６号,,27,127,5300055,,,,,,,2022-07-04,1,,,,,プラスアイ,0
1941,8120001247117,新規,0,2022-07-04,2022-07-04,株式会社ＲＥＮ’Ｓ　ＦＡＣＴＯＲＹ,,株式会社,大阪府,大阪市都島区,都島中通１丁目１４番２６号,,27,102,5340022,,,,,,,2022-07-04,1,,,,,レンズファクトリー,0
1942,8120001247125,新規,0,2022-07-04,2022-07-04,株式会社シンシア,,株式会社,大阪府,大阪市西淀川区,野里３丁目２番１６－２０１号,,27,113,5550024,,,,,,,2022-07-04,1,,,,,シンシア,0
1945,8120103004762,新規,0,2022-07-04,2022-07-04,合同会社ＩＳＨＩＩカンパニー,,合同会社,大阪府,羽曳野市,大黒２５０－２７,,27,222,5830847,,,,,,,2022-07-04,1,,,,,イシイカンパニー,0
1958,8170001017168,新規,0,2022-07-04,2022-07-04,株式会社門戸建設,,株式会社,和歌山県,海南市,下津町丸田９１１番地２,,30,202,6490121,,,,,,,2022-07-04,1,,,,,カドケンセツ,0
1959,8170001017176,新規,0,2022-07-04,2022-07-04,Ｔａｋ株式会社,,株式会社,和歌山県,和歌山市,西庄４９５番地４８,,30,201,6400112,,,,,,,2022-07-04,1,,,,,タック,0
1983,8220001024935,新規,0,2022-07-04,2022-07-04,株式会社ミヨシナ,,株式会社,石川県,金沢市,寺町４丁目１４番１７号,,17,201,9218033,,,,,,,2022-07-04,1,,,,,ミヨシナ,0
1986,8220003003318,新規,0,2022-07-04,2022-07-04,ハイアーユニティ合同会社,,合同会社,石川県,鳳珠郡穴水町,字岩車１１の３５番地６,,17,461,9270007,,,,,,,2022-07-04,1,,,,,ハイアーユニティ,0
2002,8290803004153,新規,0,2022-07-04,2022-07-04,合同会社Ｓｉｍｂａ,,合同会社,福岡県,北九州市小倉北区,大手町１６番３７－１０１号,,40,106,8030814,,,,,,,2022-07-04,1,,,,,シンバ,0
2007,8320001019181,新規,0,2022-07-04,2022-07-04,株式会社アナシゲ防水工業,,株式会社,大分県,大分市,南鶴崎２丁目５番２３号,,44,201,8700104,,,,,,,2022-07-04,1,,,,,アナシゲボウスイコウギョウ,0
2012,8340001024840,新規,0,2022-07-04,2022-07-04,株式会社ＡＮＣＨＯＲ,,株式会社,鹿児島県,霧島市,国分広瀬２丁目３２番５０号,,46,218,8994321,,,,,,,2022-07-04,1,,,,,アンカー,0
2013,8340001024849,新規,0,2022-07-04,2022-07-04,ｉＢｅｌｉｅｖｅ株式会社,,株式会社,鹿児島県,熊毛郡屋久島町,安房２６９９番地７８,,46,505,8914311,,,,,,,2022-07-04,1,,,,,アイビリーブ,0
2019,8360001030630,新規,0,2022-07-04,2022-07-04,株式会社ヒューマンネット,,株式会社,沖縄県,浦添市,字経塚７７４番地２－３０３,,47,208,9012111,,,,,,,2022-07-04,1,,,,,,0
2025,8400001015932,新規,0,2022-07-04,2022-07-04,株式会社ａｄｄ　ＷＥＳＴ,,株式会社,岩手県,盛岡市,月が丘１丁目６番１７号,,03,201,0200121,,,,,,,2022-07-04,1,,,,,アッドウエスト,0
2026,8410001013225,新規,0,2022-07-04,2022-07-04,株式会社真屋,,株式会社,秋田県,秋田市,大町４丁目１番９号ソウルビル２階,,05,201,0100921,,,,,,,2022-07-04,1,,,,,マサヤ,0
2032,8450001013733,新規,0,2022-07-04,2022-07-04,株式会社フランク・コーネリッセンワイナリー北海道,,株式会社,北海道,旭川市,曙二条５丁目２１３１番地１２８,,01,204,0700062,,,,,,,2022-07-04,1,,,,,フランクコーネリッセンワイナリーホッカイドウ,0
2034,8462501000937,新規,0,2022-07-04,2022-07-04,株式会社ＳＤＪ　ＦＡＲＭ,,株式会社,北海道,野付郡別海町,西春別４３番地１８,,01,691,0882576,,,,,,,2022-07-04,1,,,,,エスディージェーファーム,0
2041,8500001024312,新規,0,2022-07-04,2022-07-04,株式会社ＵＭＥＣＯ,,株式会社,愛媛県,松山市,土居田町６２９番地２,,38,201,7900056,,,,,,,2022-07-04,1,,,,,ウメコ,0
2049,9010001227731,新規,0,2022-07-04,2022-07-04,株式会社オプト,,株式会社,東京都,千代田区,一番町１０番８号一番町ウエストビル５階,,13,101,1020082,,,,,,,2022-07-04,1,,,,,オプト,0
2050,9010001227756,新規,0,2022-07-04,2022-07-04,株式会社Ｐｒｉｓｍ　Ｐａｒｔｎｅｒ,,株式会社,東京都,千代田区,永田町２丁目１１番１号,,13,101,1000014,,,,,,,2022-07-04,1,,,,,プリズムパートナー,0
2052,9010003038037,新規,0,2022-07-04,2022-07-04,ＰＤＣ合同会社,,合同会社,東京都,中央区,湊１丁目８番１０,,13,102,1040043,,,,,,,2022-07-04,1,,,,,ピーディーシー,0
2053,9010005035206,新規,0,2022-07-04,2022-07-04,一般社団法人ＳＲＪ２,,その他の設立登記法人,東京都,中央区,銀座１丁目６番１１号土志田ビルディング３Ｆ,,13,102,1040061,,,,,,,2022-07-04,1,,,,,エスアールジェイツー,0
2059,9010401168294,新規,0,2022-07-04,2022-07-04,株式会社Ｅｎａｂｌｙ,,株式会社,東京都,港区,南麻布１丁目２７－１３－４０３,,13,103,1060047,,,,,,,2022-07-04,1,,,,,エンネイブリー,0
2060,9010401168336,新規,0,2022-07-04,2022-07-04,株式会社ｋｅｔｃｈｕｐ,,株式会社,東京都,港区,虎ノ門４丁目１番２０－２００３号,,13,103,1050001,,,,,,,2022-07-04,1,,,,,ケチャップ,0
2061,9010501007559,新規,0,2022-07-04,2022-07-04,株式会社サトキ,,株式会社,東京都,台東区,台東２丁目８番１号,,13,106,1100016,,,,,,,2022-07-04,1,,,,,サトキ,0
2067,9010901051149,新規,0,2022-07-04,2022-07-04,株式会社サイ・カンパニー,,株式会社,東京都,世田谷区,用賀４丁目３３番２２号,,13,112,1580097,,,,,,,2022-07-04,1,,,,,サイカンパニー,0
2068,9010903007495,新規,0,2022-07-04,2022-07-04,合同会社ワイエーアールプランニング,,合同会社,東京都,世田谷区,砧３丁目３番７号,,13,112,1570073,,,,,,,2022-07-04,1,,,,,ワイエーアールプランニング,0
2072,9011001148389,新規,0,2022-07-04,2022-07-04,株式会社Ｓｐａｃｅ　ｑｕａｒｔｅｒｓ,,株式会社,東京都,渋谷区,渋谷２丁目１９－１５宮益坂ビルディング６０９,,13,113,1500002,,,,,,,2022-07-04,1,,,,,スペースクオーターズ,0
2073,9011001148447,新規,0,2022-07-04,2022-07-04,株式会社ｗａｇｍｉ,,株式会社,東京都,渋谷区,神宮前６丁目２３番４号２階,,13,113,1500001,,,,,,,2022-07-04,1,,,,,ワグミ,0
2080,9011101099400,新規,0,2022-07-04,2022-07-04,Ｇｏ　Ｇｏｏｄ株式会社,,株式会社,東京都,新宿区,西新宿７丁目２０番１号,,13,104,1600023,,,,,,,2022-07-04,1,,,,,ゴーグッド,0
2081,9011201023895,新規,0,2022-07-04,2022-07-04,株式会社想ひ人,,株式会社,東京都,中野区,上鷺宮５丁目２９－１９－６０８,,13,114,1650031,,,,,,,2022-07-04,1,,,,,オモイビト,0
2082,9011301027904,新規,0,2022-07-04,2022-07-04,ＮＴＤ株式会社,,株式会社,東京都,杉並区,堀ノ内３丁目３５番９号,,13,115,1660013,,,,,,,2022-07-04,1,,,,,エヌティディー,0
2083,9011501028215,新規,0,2022-07-04,2022-07-04,新成建設株式会社,,株式会社,東京都,荒川区,南千住２丁目１６番４号,,13,118,1160003,,,,,,,2022-07-04,1,,,,,シンセイケンセツ,0
2086,9012401039368,新規,0,2022-07-04,2022-07-04,株式会社ＨＡＫ,,株式会社,東京都,小金井市,貫井北町３丁目１５－５,,13,210,1840015,,,,,,,2022-07-04,1,,,,,エイチエイケイ,0
2096,9013303006217,新規,0,2022-07-04,2022-07-04,マイスター合同会社,,合同会社,東京都,豊島区,南大塚２丁目１１番１０号ミモザビル３階,,13,116,1700005,,,,,,,2022-07-04,1,,,,,マイスター,0
2102,9020001147152,新規,0,2022-07-04,2022-07-04,株式会社裕輪鋼業,,株式会社,神奈川県,川崎市宮前区,西野川１丁目７－６ヒルトップ手塚１１０,,14,136,2160044,,,,,,,2022-07-04,1,,,,,ユウワコウギョウ,0
2103,9020001147169,新規,0,2022-07-04,2022-07-04,株式会社エム・アンド・エスジー,,株式会社,神奈川県,横浜市西区,高島２丁目１１番２号スカイメナー横浜５１９,,14,103,2200011,,,,,,,2022-07-04,1,,,,,エムアンドエスジー,0
2104,9020003022031,新規,0,2022-07-04,2022-07-04,南粤美食合同会社,,合同会社,神奈川県,横浜市中区,山下町１６５番地２ＩＮビル,,14,104,2310023,,,,,,,2022-07-04,1,,,,,ナンエツビショク,0
2112,9021003011866,新規,0,2022-07-04,2022-07-04,合同会社ジェイパレス,,合同会社,神奈川県,横須賀市,西浦賀３丁目８番６号,,14,201,2390824,,,,,,,2022-07-04,1,,,,,ジェイパレス,0
2113,9021003011890,新規,0,2022-07-04,2022-07-04,合同会社ＡＲＨ　ＴＲＡＤＩＮＧ,,合同会社,神奈川県,座間市,四ツ谷７６５番地の４,,14,216,2520025,,,,,,,2022-07-04,1,,,,,エーアールエイチトレーディング,0
2122,9030001148868,新規,0,2022-07-04,2022-07-04,ファラー株式会社,,株式会社,埼玉県,戸田市,美女木７丁目１３－７,,11,224,3350031,,,,,,,2022-07-04,1,,,,,ファラー,0
2123,9030001148901,新規,0,2022-07-04,2022-07-04,株式会社イマジンライツ・フィルムズ,,株式会社,埼玉県,さいたま市見沼区,大字御蔵１９番地７０、２Ｆ・３Ｆ,,11,104,3370033,,,,,,,2022-07-04,1,,,,,イマジンライツフィルムズ,0
2124,9030001148918,新規,0,2022-07-04,2022-07-04,譚潭日建株式会社,,株式会社,埼玉県,さいたま市岩槻区,美園東２丁目４１番地２７,,11,110,3390028,,,,,,,2022-07-04,1,,,,,タンタンニッケン,0
2125,9030001148934,新規,0,2022-07-04,2022-07-04,株式会社東吉,,株式会社,埼玉県,志木市,中宗岡２丁目１８番３１,,11,228,3530002,,,,,,,2022-07-04,1,,,,,トウキチ,0
2126,9030001148967,新規,0,2022-07-04,2022-07-04,株式会社Ｔｉｒｏ．ｓｘ,,株式会社,埼玉県,越谷市,南越谷４丁目７番地７オレンジキャッスル３号館３０２号室,,11,222,3430845,,,,,,,2022-07-04,1,,,,,ティロドットエスエックス,0
2127,9030001148975,新規,0,2022-07-04,2022-07-04,株式会社Ｏｌｅ,,株式会社,埼玉県,児玉郡神川町,大字熊野堂１２９番地１,,11,383,3670243,,,,,,,2022-07-04,1,,,,,オーレ,0
2140,9040001124050,新規,0,2022-07-04,2022-07-04,株式会社ＭＹアセットマネジメント,,株式会社,千葉県,千葉市稲毛区,柏台１番４棟３０６号,,12,103,2630053,,,,,,,2022-07-04,1,,,,,エムワイアセットマネジメント,0
2145,9040005021665,新規,0,2022-07-04,2022-07-04,一般社団法人ＨＪ日本メディア協会,,その他の設立登記法人,千葉県,市川市,高谷１丁目１１番１３号,,12,203,2720013,,,,,,,2022-07-04,1,,,,,エイチジェイニホンメディアキョウカイ,0
2154,9070003004529,新規,0,2022-07-04,2022-07-04,合同会社五徳の里,,合同会社,群馬県,前橋市,西片貝町５丁目４番地８,,10,201,3710013,,,,,,,2022-07-04,1,,,,,ゴトクノサト,0
2159,9080001025055,新規,0,2022-07-04,2022-07-04,株式会社Ｕ‐ＰＬＡＮ,,株式会社,静岡県,静岡市駿河区,東新田２丁目１９番３１号,,22,102,4210112,,,,,,,2022-07-04,1,,,,,ユープラン,0
2160,9080101023396,新規,0,2022-07-04,2022-07-04,株式会社創建,,株式会社,静岡県,御殿場市,保土沢５０９番地の１ニューシティ原里２０３,,22,215,4120046,,,,,,,2022-07-04,1,,,,,ソウケン,0
2162,9080401025919,新規,0,2022-07-04,2022-07-04,株式会社東海フィールド商事,,株式会社,静岡県,浜松市中区,葵東２丁目１７番４号ＳＫビル４Ｆ,,22,131,4338114,,,,,,,2022-07-04,1,,,,,トウカイフィールドショウジ,0
2166,9080403004573,新規,0,2022-07-04,2022-07-04,合同会社未来食品,,合同会社,静岡県,浜松市東区,市野町１５６８番地,,22,132,4350051,,,,,,,2022-07-04,1,,,,,ミキショクヒン,0
2167,9090003002126,新規,0,2022-07-04,2022-07-04,ｋｏｎｏｈａｎａ合同会社,,合同会社,山梨県,甲府市,青葉町２０番１５号,,19,201,4000828,,,,,,,2022-07-04,1,,,,,コノハナ,0
2169,9110001036775,新規,0,2022-07-04,2022-07-04,株式会社ＦＬＥＸＩＢＬＥ,,株式会社,新潟県,新潟市北区,木崎２２５４番地６,,15,101,9503304,,,,,,,2022-07-04,1,,,,,フレキシブル,0
2170,9110001036783,新規,0,2022-07-04,2022-07-04,スズキ経営株式会社,,株式会社,新潟県,新潟市中央区,本町通６番町１１４１番地１ストークビル新潟一番館３階３０２号室,,15,103,9518067,,,,,,,2022-07-04,1,,,,,スズキケイエイ,0
2179,9120001247074,新規,0,2022-07-04,2022-07-04,株式会社セイワ,,株式会社,大阪府,大阪市淀川区,宮原１丁目８番１６－２０４号,,27,123,5320003,,,,,,,2022-07-04,1,,,,,セイワ,0
2180,9120001247090,新規,0,2022-07-04,2022-07-04,株式会社エリナマックス,,株式会社,大阪府,大阪市西区,川口１丁目４番２６－６０３号,,27,106,5500021,,,,,,,2022-07-04,1,,,,,エリナマックス,0
2181,9120001247099,新規,0,2022-07-04,2022-07-04,株式会社太陽総合エンジニアリング,,株式会社,大阪府,大阪市城東区,中央２丁目１１番２３－１９０２号,,27,118,5360005,,,,,,,2022-07-04,1,,,,,タイヨウソウゴウエンジニアリング,0
2183,9120101065847,新規,0,2022-07-04,2022-07-04,堺クレーン株式会社,,株式会社,大阪府,堺市堺区,百舌鳥夕雲町２丁４１１番地２,,27,141,5900802,,,,,,,2022-07-04,1,,,,,サカイクレーン,0
2185,9120103004761,新規,0,2022-07-04,2022-07-04,成合同会社,,合同会社,大阪府,泉大津市,条南町１１番２－１号,,27,206,5950016,,,,,,,2022-07-04,1,,,,,ナル,0
2204,9170001017167,新規,0,2022-07-04,2022-07-04,紀州テクノ株式会社,,株式会社,和歌山県,紀の川市,藤井８番地,,30,208,6496514,,,,,,,2022-07-04,1,,,,,キシュウテクノ,0
2212,9180001151964,新規,0,2022-07-04,2022-07-04,株式会社ＪａｐａｎＧａｔｅｗａｙ,,株式会社,愛知県,名古屋市中区,栄１丁目３１番地４１大井ビル３Ｃ,,23,106,4600008,,,,,,,2022-07-04,1,,,,,ジャパンゲイトウェイ,0
2213,9180001152038,新規,0,2022-07-04,2022-07-04,株式会社アプレ名古屋,,株式会社,愛知県,名古屋市昭和区,阿由知通２丁目１９番地の５プラウド昭和御器所５０１号,,23,107,4660027,,,,,,,2022-07-04,1,,,,,アプレナゴヤ,0
2233,9220001024926,新規,0,2022-07-04,2022-07-04,株式会社Ｙｏ建築・環境設計室,,株式会社,石川県,かほく市,外日角ニ９４番地１,,17,209,9291176,,,,,,,2022-07-04,1,,,,,ヨウケンチクカンキョウセッケイシツ,0
2234,9220001024934,新規,0,2022-07-04,2022-07-04,リグボック株式会社,,株式会社,石川県,金沢市,武蔵町１番１６号,,17,201,9200855,,,,,,,2022-07-04,1,,,,,リグボック,0
2239,9240001060011,新規,0,2022-07-04,2022-07-04,飛企画株式会社,,株式会社,広島県,広島市東区,福田１丁目６７２番地１原野ビル２０３,,34,102,7320029,,,,,,,2022-07-04,1,,,,,トビキカク,0
2245,9250005008757,新規,0,2022-07-04,2022-07-04,Ｅ‐Ｂｅｎｚ協同組合,,その他の設立登記法人,山口県,岩国市,山手町４丁目２番６１－１号,,35,208,7400022,,,,,,,2022-07-04,1,,,,,イーベンツ,0
2257,9290001098105,新規,0,2022-07-04,2022-07-04,株式会社ＮＡＯ,,株式会社,福岡県,福岡市早良区,有田２丁目３番７号,,40,137,8140033,,,,,,,2022-07-04,1,,,,,ナオ,0
2260,9290003012682,新規,0,2022-07-04,2022-07-04,ＨＡＲＡＣＯＦＦＥＥ合同会社,,合同会社,福岡県,飯塚市,秋松８７２番地１サンライズ穂波１０１号,,40,205,8200083,,,,,,,2022-07-04,1,,,,,ハラコーヒー,0
2262,9290801028681,新規,0,2022-07-04,2022-07-04,株式会社ＣＬＥＩＢ,,株式会社,福岡県,北九州市小倉南区,上曽根新町１３番１０号,,40,107,8000215,,,,,,,2022-07-04,1,,,,,クレイブ,0
2265,9320001019172,新規,0,2022-07-04,2022-07-04,株式会社ＩＮＳＰＩＲＡＴＩＯＮ　ＰＬＵＳ,,株式会社,大分県,大分市,金池南１丁目５番１号,,44,201,8700839,,,,,,,2022-07-04,1,,,,,インスピレーションプラス,0
2268,9340001024856,新規,0,2022-07-04,2022-07-04,株式会社アスピード,,株式会社,鹿児島県,鹿児島市,新栄町１９番１６－８０８号,,46,201,8900072,,,,,,,2022-07-04,1,,,,,アスピード,0
2271,9340005009473,新規,0,2022-07-04,2022-07-04,無限責任道場口負債整理組合,,その他の設立登記法人,鹿児島県,霧島市,国分重久５５８番地１,,46,218,8994301,,,,,,,2022-07-04,1,,,,,ムゲンセキニンドウジョウグチ,0
2272,9350001017850,新規,0,2022-07-04,2022-07-04,株式会社ＭＩＭ,,株式会社,宮崎県,宮崎市,橘通東３丁目２番７号平吉ビル１階,,45,201,8800805,,,,,,,2022-07-04,1,,,,,エムアイエム,0
2273,9350003004112,新規,0,2022-07-04,2022-07-04,合同会社さいとう,,合同会社,宮崎県,宮崎市,大橋３丁目２４６番地１,,45,201,8800022,,,,,,,2022-07-04,1,,,,,サイトウ,0
2283,9380001032938,新規,0,2022-07-04,2022-07-04,株式会社長峯商会,,株式会社,福島県,福島市,北沢又字川原１番地の８,,07,201,9608251,,,,,,,2022-07-04,1,,,,,ナガミネショウカイ,0
2295,9450001013732,新規,0,2022-07-04,2022-07-04,株式会社ノーススターラボ,,株式会社,北海道,旭川市,神居一条２０丁目９７番地の４０,,01,204,0708011,,,,,,,2022-07-04,1,,,,,ノーススターラボ,0
2296,9450003002221,新規,0,2022-07-04,2022-07-04,合同会社かむいりしり,,合同会社,北海道,利尻郡利尻富士町,鴛泊字本町３番地１,,01,519,0970101,,,,,,,2022-07-04,1,,,,,カムイリシリ,0
2298,9462501000936,新規,0,2022-07-04,2022-07-04,株式会社エースファーム,,株式会社,北海道,標津郡中標津町,字武佐南七線西２２番地,,01,692,0861271,,,,,,,2022-07-04,1,,,,,,0
2303,9700150108695,新規,0,2022-07-04,2022-07-04,Ｈ＆Ｍ　Ｈｅｎｎｅｓ＆Ｍａｕｒｉｔｚ　ＧＢＣ　ＡＢ,,外国会社等,,,,,,,,Ｍａｓｔｅｒ　Ｓａｍｕｅｌｓｇａｔａｎ４６Ａ　１０６　３８　Ｓｔｏｃｋｈｏｌｍ　Ｓｗｅｄｅｎ,,,,,,2022-07-04,1,,,,,エイチアンドエムヘネスアンドマウリツツジービーシーエイビー,0
