sequenceNumber,corporateNumber,process,correct,updateDate,changeDate,name,nameImageId,kind,prefectureName,cityName,streetNumber,addressImageId,prefectureCode,cityCode,postCode,addressOutside,addressOutsideImageId,closeDate,closeCause,successorCorporateNumber,changeCause,assignmentDate,latest,enName,enPrefectureName,enCityName,enAddressOutside,furigana,hihyoji
8,1010001237639,新規,0,2023-08-18,2023-08-18,ＶｉｅＷｉｎｇ株式会社,,株式会社,東京都,千代田区,四番町８番地６,,13,101,1020081,,,,,,,2023-08-18,1,,,,,ビューウィング,0
9,1010001237820,新規,0,2023-08-18,2023-08-18,Ａｓｉａｎ　Ｂｌｏｃ株式会社,,株式会社,東京都,千代田区,神田三崎町２丁目１０－１１,,13,101,1010061,,,,,,,2023-08-18,1,,,,,アジアブロック,0
12,1010003041345,新規,0,2023-08-18,2023-08-18,合同会社ポンプ,,合同会社,東京都,千代田区,神田和泉町１番地６－１６ヤマトビル４０５,,13,101,1010024,,,,,,,2023-08-18,1,,,,,ポンプ,0
13,1010003041428,新規,0,2023-08-18,2023-08-18,行人坂マネージメント合同会社,,合同会社,東京都,千代田区,丸の内１丁目１１番１号,,13,101,1000005,,,,,,,2023-08-18,1,,,,,ギョウニンザカマネージメント,0
23,1010401176362,新規,0,2023-08-18,2023-08-18,株式会社クラージュ・ドゥ・ヴィーブル,,株式会社,東京都,港区,六本木５丁目１７番１号,,13,103,1060032,,,,,,,2023-08-18,1,,,,,クラージュドゥヴィーブル,0
24,1010401176536,新規,0,2023-08-18,2023-08-18,スタンレーリーシング２株式会社,,株式会社,東京都,港区,虎ノ門１丁目２番６号,,13,103,1050001,,,,,,,2023-08-18,1,,,,,スタンレーリーシングツー,0
31,1010601063633,新規,0,2023-08-18,2023-08-18,株式会社山根,,株式会社,東京都,江東区,有明３丁目５番７号ＴＯＣ有明イーストタワー７階,,13,108,1350063,,,,,,,2023-08-18,1,,,,,ヤマネ,0
34,1010701044731,新規,0,2023-08-18,2023-08-18,株式会社Ｓｅａｙａ,,株式会社,東京都,品川区,大井１丁目４９－１２ライオンズマンション大井３０６号室,,13,109,1400014,,,,,,,2023-08-18,1,,,,,シーヤ,0
43,1011001156143,新規,0,2023-08-18,2023-08-18,株式会社龍閃堂,,株式会社,東京都,目黒区,中目黒１丁目５番１２号ＡＴＲＩＯ１Ｆ,,13,110,1530061,,,,,,,2023-08-18,1,,,,,リュウセンドウ,0
44,1011001156432,新規,0,2023-08-18,2023-08-18,株式会社Ｋｏｎｅｃｔ,,株式会社,東京都,渋谷区,恵比寿南１丁目１－１ヒューマックス恵比寿ビル８Ｆ,,13,113,1500022,,,,,,,2023-08-18,1,,,,,コネクト,0
50,1011101104035,新規,0,2023-08-18,2023-08-18,ＴＡＬＫＧｒｏｕｐ株式会社,,株式会社,東京都,新宿区,西新宿３丁目９－７フロンティア新宿タワー３１５,,13,104,1600023,,,,,,,2023-08-18,1,,,,,トークグループ,0
51,1011101104068,新規,0,2023-08-18,2023-08-18,株式会社アルバクリス,,株式会社,東京都,新宿区,西新宿３丁目３番１３号西新宿水間ビル６階,,13,104,1600023,,,,,,,2023-08-18,1,,,,,アルバクリス,0
52,1011103013382,新規,0,2023-08-18,2023-08-18,ｉｌｌｕｂｉｔ合同会社,,合同会社,東京都,新宿区,新宿１丁目３６番２号新宿第七葉山ビル３階,,13,104,1600022,,,,,,,2023-08-18,1,,,,,イルビット,0
57,1011303004883,新規,0,2023-08-18,2023-08-18,合同会社Ｐｉｎｏ＆Ｆｉｏｎａ,,合同会社,東京都,杉並区,西荻南４丁目１７番１６号,,13,115,1670053,,,,,,,2023-08-18,1,,,,,ピノアンドフィオナ,0
60,1011501029666,新規,0,2023-08-18,2023-08-18,株式会社スカイラーテック,,株式会社,東京都,北区,王子５丁目１番２－１００５号,,13,117,1140002,,,,,,,2023-08-18,1,,,,,スカイラーテック,0
66,1012803003152,新規,0,2023-08-18,2023-08-18,合同会社ＣＡＭＭＯＣ,,合同会社,東京都,国立市,西２丁目９番地の３,,13,215,1860005,,,,,,,2023-08-18,1,,,,,キャンモック,0
69,1013301051222,新規,0,2023-08-18,2023-08-18,株式会社バベル,,株式会社,東京都,豊島区,池袋２丁目１７番８号天翔池袋西口ＡＮＮＥＸビル４０９,,13,116,1710014,,,,,,,2023-08-18,1,,,,,バベル,0
73,1020001153067,新規,0,2023-08-18,2023-08-18,株式会社祐心工業,,株式会社,神奈川県,横浜市港南区,日野６丁目１４番７９号,,14,111,2340051,,,,,,,2023-08-18,1,,,,,ユウシンコウギョウ,0
74,1020001153117,新規,0,2023-08-18,2023-08-18,株式会社プロバイド,,株式会社,神奈川県,横浜市港北区,仲手原１丁目８番３４号アーバンハイム２－Ｂ号室,,14,109,2220023,,,,,,,2023-08-18,1,,,,,プロバイド,0
79,1020003024398,新規,0,2023-08-18,2023-08-18,ＷＰＳ合同会社,,合同会社,神奈川県,川崎市川崎区,宮本町８番地６シエロガーデン２０３,,14,131,2100004,,,,,,,2023-08-18,1,,,,,ダブリューピーエス,0
80,1020003024415,新規,0,2023-08-18,2023-08-18,テクノロジーノード合同会社,,合同会社,神奈川県,横浜市都筑区,茅ケ崎南４丁目１６番１０－２１５号,,14,118,2240037,,,,,,,2023-08-18,1,,,,,テクノロジーノード,0
81,1020003024431,新規,0,2023-08-18,2023-08-18,合同会社ファーム,,合同会社,神奈川県,川崎市高津区,久本３丁目６番１－９０５号,,14,134,2130011,,,,,,,2023-08-18,1,,,,,ファーム,0
82,1020005016088,新規,0,2023-08-18,2023-08-18,一般社団法人ＭＤＳエンターテインメント,,その他の設立登記法人,神奈川県,横浜市都筑区,茅ケ崎中央２３番１６号メイフェアミュゼレトワール２Ｆ,,14,118,2240032,,,,,,,2023-08-18,1,,,,,エムディーエスエンターテインメント,0
85,1021001079946,新規,0,2023-08-18,2023-08-18,湘南総業株式会社,,株式会社,神奈川県,茅ヶ崎市,円蔵１丁目２２番６－２０１号エヴァースカイ,,14,207,2530084,,,,,,,2023-08-18,1,,,,,ショウナンソウギョウ,0
86,1021001079962,新規,0,2023-08-18,2023-08-18,株式会社トミタ,,株式会社,神奈川県,大和市,上草柳１１０７番地２,,14,213,2420029,,,,,,,2023-08-18,1,,,,,トミタ,0
88,1021003013457,新規,0,2023-08-18,2023-08-18,合同会社ＳＥワークス,,合同会社,神奈川県,伊勢原市,笠窪４５０番地の５０,,14,214,2591137,,,,,,,2023-08-18,1,,,,,エスイーワークス,0
89,1021003013473,新規,0,2023-08-18,2023-08-18,惑星軌道合同会社,,合同会社,神奈川県,厚木市,及川５１７番地２（３Ｆ）,,14,212,2430212,,,,,,,2023-08-18,1,,,,,ワクセイキドウ,0
96,1030001155186,新規,0,2023-08-18,2023-08-18,株式会社Ｆａｓｔ　Ｃａｌｌ,,株式会社,埼玉県,川越市,大字笠幡１６４５番地１７,,11,201,3501175,,,,,,,2023-08-18,1,,,,,ファストコール,0
104,1040001129759,新規,0,2023-08-18,2023-08-18,ＹＯＹＯクリエイト株式会社,,株式会社,千葉県,流山市,大字東深井８４６－３１,,12,220,2700101,,,,,,,2023-08-18,1,,,,,ヨヨクリエイト,0
110,1050001053322,新規,0,2023-08-18,2023-08-18,リアルライフ株式会社,,株式会社,茨城県,つくば市,松代１丁目１４番地１６,,08,220,3050035,,,,,,,2023-08-18,1,,,,,リアルライフ,0
111,1050001053330,新規,0,2023-08-18,2023-08-18,株式会社宝篋庵,,株式会社,茨城県,つくば市,小田３０９４番地,,08,220,3004223,,,,,,,2023-08-18,1,,,,,ホウキョウアン,0
113,1050003007730,新規,0,2023-08-18,2023-08-18,合同会社ジーグルー,,合同会社,茨城県,龍ケ崎市,松ケ丘２丁目４番地１３,,08,208,3010853,,,,,,,2023-08-18,1,,,,,ジーグルー,0
121,1090001018263,新規,0,2023-08-18,2023-08-18,株式会社リヴフォーシア,,株式会社,山梨県,甲斐市,岩森２７番地１,,19,210,4000106,,,,,,,2023-08-18,1,,,,,リヴフォーシア,0
124,1100001036701,新規,0,2023-08-18,2023-08-18,株式会社かのを屋,,株式会社,長野県,小諸市,大字山浦２１２番地イ,,20,208,3840807,,,,,,,2023-08-18,1,,,,,カノヲヤ,0
139,1120001257262,新規,0,2023-08-18,2023-08-18,株式会社Ｍ‐Ｓｍｉｌｅ,,株式会社,大阪府,大阪市天王寺区,筆ケ崎町５番３８－５０２号,,27,109,5430027,,,,,,,2023-08-18,1,,,,,エムスマイル,0
140,1120001257312,新規,0,2023-08-18,2023-08-18,株式会社海援隊大阪,,株式会社,大阪府,大阪市北区,梅田１丁目１２番１２号,,27,127,5300001,,,,,,,2023-08-18,1,,,,,カイエンタイオオサカ,0
141,1120001257337,新規,0,2023-08-18,2023-08-18,株式会社ハチハチデザイン,,株式会社,大阪府,大阪市西区,西本町１丁目４番１号オリックス本町ビル４Ｆ,,27,106,5500005,,,,,,,2023-08-18,1,,,,,ハチハチデザイン,0
142,1120001257386,新規,0,2023-08-18,2023-08-18,株式会社Ｓｏｕｌ　Ｉｎｔｅｇｒａｔｅ,,株式会社,大阪府,大阪市西区,京町堀３丁目３番１３号,,27,106,5500003,,,,,,,2023-08-18,1,,,,,ソウルインテグレイト,0
143,1120001257411,新規,0,2023-08-18,2023-08-18,株式会社ＭＵＭＵ,,株式会社,大阪府,大阪市東淀川区,相川２丁目１６番３号２０１,,27,114,5330007,,,,,,,2023-08-18,1,,,,,ムム,0
149,1120101068072,新規,0,2023-08-18,2023-08-18,株式会社ふく,,株式会社,大阪府,岸和田市,西之内町４７番６３号,,27,202,5960044,,,,,,,2023-08-18,1,,,,,フク,0
155,1130001074987,新規,0,2023-08-18,2023-08-18,株式会社ＦＡＮＣＳＳＩＯＮＡＬ,,株式会社,京都府,京都市中京区,六角通室町西入玉蔵町１１５番地２,,26,104,6048211,,,,,,,2023-08-18,1,,,,,ファンクショナル,0
157,1140001131283,新規,0,2023-08-18,2023-08-18,株式会社桜エンタープライズ,,株式会社,兵庫県,神戸市中央区,海岸通６丁目１番１３－２３０２号,,28,110,6500024,,,,,,,2023-08-18,1,,,,,サクラエンタープライズ,0
170,1180001157705,新規,0,2023-08-18,2023-08-18,株式会社ミルフルモード,,株式会社,愛知県,名古屋市南区,豊田２丁目２番１０号,,23,112,4570841,,,,,,,2023-08-18,1,,,,,ミルフルモード,0
175,1180301037680,新規,0,2023-08-18,2023-08-18,株式会社ケンコー林,,株式会社,愛知県,岡崎市,小呂町字２丁目８４番地２,,23,202,4440009,,,,,,,2023-08-18,1,,,,,ケンコーリン,0
182,1190003004417,新規,0,2023-08-18,2023-08-18,合同会社ＴＲＵＳＴ　ｇｒｏｕｐ,,合同会社,三重県,四日市市,西新地１０番５号,,24,202,5100087,,,,,,,2023-08-18,1,,,,,トラストグループ,0
184,1210001019430,新規,0,2023-08-18,2023-08-18,株式会社Ｍｙカンパニー,,株式会社,福井県,福井市,西谷町第２１号５１番地,,18,201,9188022,,,,,,,2023-08-18,1,,,,,マイカンパニー,0
200,1290003014265,新規,0,2023-08-18,2023-08-18,合同会社リバースホーム,,合同会社,福岡県,福岡市博多区,月隈２丁目２３番２号,,40,132,8120858,,,,,,,2023-08-18,1,,,,,リバースホーム,0
208,1360003013210,新規,0,2023-08-18,2023-08-18,合同会社Ｂｕｉｌｄ　ｔｒｕｓｔ．ＮＵ,,合同会社,沖縄県,那覇市,字安次嶺６番地１２,,47,201,9010143,,,,,,,2023-08-18,1,,,,,ビルドトラストエヌユ,0
209,1360003013219,新規,0,2023-08-18,2023-08-18,合同会社エイワ,,合同会社,沖縄県,那覇市,上間１丁目１７番１５号シティハウス友１Ｆ,,47,201,9020073,,,,,,,2023-08-18,1,,,,,エイワ,0
211,1370001050312,新規,0,2023-08-18,2023-08-18,ＭＳサービス株式会社,,株式会社,宮城県,多賀城市,新田字南関合３１番地の３,,04,209,9850854,,,,,,,2023-08-18,1,,,,,エムエスサービス,0
217,1380003005544,新規,0,2023-08-18,2023-08-18,サードウェーブ合同会社,,合同会社,福島県,須賀川市,森宿字ウツロ田３６番地５,,07,207,9620001,,,,,,,2023-08-18,1,,,,,サードウェーブ,0
222,1430001089773,新規,0,2023-08-18,2023-08-18,ｔｏｏ　ｇｏｏｄ株式会社,,株式会社,北海道,札幌市東区,北十八条東８丁目１番２５号中嶋ビル１階,,01,103,0650018,,,,,,,2023-08-18,1,,,,,トゥーグッド,0
223,1430001089781,新規,0,2023-08-18,2023-08-18,ＫＣ管財株式会社,,株式会社,北海道,札幌市中央区,大通東３丁目１番地１９,,01,101,0600041,,,,,,,2023-08-18,1,,,,,ケーシーカンザイ,0
224,1430003015364,新規,0,2023-08-18,2023-08-18,合同会社バンフィールド,,合同会社,北海道,札幌市厚別区,上野幌一条３丁目５番１２号,,01,108,0040031,,,,,,,2023-08-18,1,,,,,バンフィールド,0
226,1430005014760,新規,0,2023-08-18,2023-08-18,一般社団法人北海道コンパッション,,その他の設立登記法人,北海道,虻田郡ニセコ町,字近藤５３番地３５,,01,395,0481542,,,,,,,2023-08-18,1,,,,,ホッカイドウコンパッション,0
237,2010001237786,新規,0,2023-08-18,2023-08-18,株式会社中央綜合會計社,,株式会社,東京都,千代田区,大手町１丁目６番１号,,13,101,1000004,,,,,,,2023-08-18,1,,,,,チュウオウソウゴウカイケイシャ,0
242,2010003041427,新規,0,2023-08-18,2023-08-18,氷川坂プロパティー合同会社,,合同会社,東京都,千代田区,丸の内１丁目１１番１号,,13,101,1000005,,,,,,,2023-08-18,1,,,,,ヒカワザカプロパティー,0
249,2010401176485,新規,0,2023-08-18,2023-08-18,ＢＢＣ一号株式会社,,株式会社,東京都,港区,芝５丁目３６－４札の辻スクエア９階,,13,103,1080014,,,,,,,2023-08-18,1,,,,,ビービーシーイチゴウ,0
250,2010401176535,新規,0,2023-08-18,2023-08-18,スタンレーリーシング１株式会社,,株式会社,東京都,港区,虎ノ門１丁目２番６号,,13,103,1050001,,,,,,,2023-08-18,1,,,,,スタンレーリーシングワン,0
262,2010903008392,新規,0,2023-08-18,2023-08-18,Ｒａｆｆｉｎｅ合同会社,,合同会社,東京都,世田谷区,弦巻３丁目１番４号,,13,112,1540016,,,,,,,2023-08-18,1,,,,,ラフィネ,0
267,2011001156340,新規,0,2023-08-18,2023-08-18,株式会社Ｌｅｇａｌｉｓ,,株式会社,東京都,渋谷区,鶯谷町１２－１２,,13,113,1500032,,,,,,,2023-08-18,1,,,,,リーガリス,0
271,2011101104050,新規,0,2023-08-18,2023-08-18,Ｇｒｏｗｉｎｇ　Ｈｏｕｓｅ株式会社,,株式会社,東京都,新宿区,高田馬場１丁目２８番４号工新別館ビル４Ｆ,,13,104,1690075,,,,,,,2023-08-18,1,,,,,グローイングハウス,0
275,2011301028941,新規,0,2023-08-18,2023-08-18,株式会社Ｌｉｂ,,株式会社,東京都,杉並区,西荻南１丁目４番４号,,13,115,1670053,,,,,,,2023-08-18,1,,,,,エルアイビー,0
280,2011501029665,新規,0,2023-08-18,2023-08-18,日中ビジネス株式会社,,株式会社,東京都,荒川区,西日暮里１丁目４２番２号,,13,118,1160013,,,,,,,2023-08-18,1,,,,,ニッチュウビジネス,0
281,2011501029673,新規,0,2023-08-18,2023-08-18,株式会社ＨＯＲＩＹＡＳＡＮ,,株式会社,東京都,荒川区,東日暮里６丁目５９番９号タワーホーム５０１,,13,118,1160014,,,,,,,2023-08-18,1,,,,,ホリヤサン,0
282,2011601027065,新規,0,2023-08-18,2023-08-18,株式会社ｓｕｍｉＬｅ　ｓｍｉＬｅ,,株式会社,東京都,練馬区,早宮３丁目２０番１８号,,13,120,1790085,,,,,,,2023-08-18,1,,,,,スミレスマイル,0
283,2011603004021,新規,0,2023-08-18,2023-08-18,Ｉ＆Ｃ合同会社,,合同会社,東京都,練馬区,高松３丁目１３番１号れんが壱番館２０１,,13,120,1790075,,,,,,,2023-08-18,1,,,,,アイアンドシー,0
288,2011801042847,新規,0,2023-08-18,2023-08-18,ＫＲＥＩＳＬＥＲ株式会社,,株式会社,東京都,足立区,佐野１丁目３－１２,,13,121,1210053,,,,,,,2023-08-18,1,,,,,,0
305,2020001153090,新規,0,2023-08-18,2023-08-18,株式会社ＴＢ‐ｐｊｔ,,株式会社,神奈川県,横浜市南区,弘明寺町字山下２３４番地４３,,14,105,2320067,,,,,,,2023-08-18,1,,,,,ティービープロジェクト,0
308,2020003024406,新規,0,2023-08-18,2023-08-18,合同会社放,,合同会社,神奈川県,横浜市西区,北幸２丁目１０番地２８むつみビル３Ｆ,,14,103,2200004,,,,,,,2023-08-18,1,,,,,ハナツ,0
309,2020003024422,新規,0,2023-08-18,2023-08-18,ＧＳＳ合同会社,,合同会社,神奈川県,横浜市中区,矢口台１１２―２ハイム矢口台２０３,,14,104,2310831,,,,,,,2023-08-18,1,,,,,ジーエスエス,0
310,2020005016079,新規,0,2023-08-18,2023-08-18,特定非営利活動法人Ｙｏｋｏｈａｍａ　Ｓｅａｓｉｄｅｒ　Ｍａｇａｚｉｎｅ,,その他の設立登記法人,神奈川県,横浜市中区,花咲町１丁目４２－１野毛花２階,,14,104,2310063,,,,,,,2023-08-18,1,,,,,ヨコハマシーサイダーマガジン,0
314,2021001079945,新規,0,2023-08-18,2023-08-18,株式会社実希,,株式会社,神奈川県,鎌倉市,上町屋６８３番地,,14,204,2470065,,,,,,,2023-08-18,1,,,,,ミキ,0
315,2021001079953,新規,0,2023-08-18,2023-08-18,株式会社インテレクト,,株式会社,神奈川県,平塚市,公所２９４番地,,14,203,2540906,,,,,,,2023-08-18,1,,,,,インテレクト,0
316,2021003013464,新規,0,2023-08-18,2023-08-18,合同会社ａｍａｎｅｋｕ,,合同会社,神奈川県,小田原市,国府津３丁目１－１５,,14,206,2560812,,,,,,,2023-08-18,1,,,,,アマネク,0
317,2021003013472,新規,0,2023-08-18,2023-08-18,合同会社タッシュ,,合同会社,神奈川県,秦野市,今泉１５８番地の１８,,14,211,2570014,,,,,,,2023-08-18,1,,,,,タッシュ,0
322,2030001155185,新規,0,2023-08-18,2023-08-18,株式会社Ｆａｓｔ　Ｔｒａｎｓｌａｔｉｏｎ,,株式会社,埼玉県,川越市,大字笠幡１６４５番地１７,,11,201,3501175,,,,,,,2023-08-18,1,,,,,ファストトランスレーション,0
355,2080403004852,新規,0,2023-08-18,2023-08-18,ダイスコンサルティングジャパン合同会社,,合同会社,静岡県,浜松市西区,舞阪町舞阪５３０番５号,,22,133,4310211,,,,,,,2023-08-18,1,,,,,ダイスコンサルティングジャパン,0
356,2090001018279,新規,0,2023-08-18,2023-08-18,ＳＨＯＷ　ＴＩＭＥ株式会社,,株式会社,山梨県,中巨摩郡昭和町,西条３８３８番地１,,19,384,4093866,,,,,,,2023-08-18,1,,,,,ショータイム,0
362,2120001257212,新規,0,2023-08-18,2023-08-18,株式会社ＨＯＰＥ,,株式会社,大阪府,大阪市中央区,島之内２丁目５番２７号リーゼ島之内２０１号室,,27,128,5420082,,,,,,,2023-08-18,1,,,,,ホープ,0
363,2120001257311,新規,0,2023-08-18,2023-08-18,株式会社スフィーダコンサルティング,,株式会社,大阪府,大阪市北区,梅田２丁目５番８号,,27,127,5300001,,,,,,,2023-08-18,1,,,,,スフィーダコンサルティング,0
364,2120001257352,新規,0,2023-08-18,2023-08-18,ＥＲＳ　ＪＡＰＡＮ株式会社,,株式会社,大阪府,大阪市中央区,南久宝寺町２丁目３番６号Ｙｏｎｅｚａｗａ船場ビル６０１,,27,128,5410058,,,,,,,2023-08-18,1,,,,,イーアールエスジャパン,0
365,2120001257360,新規,0,2023-08-18,2023-08-18,株式会社ＮｅｖｅｒＲｕｎＯｕｔ,,株式会社,大阪府,大阪市淀川区,十三元今里２丁目１０番３号,,27,123,5320028,,,,,,,2023-08-18,1,,,,,ネバラント,0
366,2120001257385,新規,0,2023-08-18,2023-08-18,株式会社Ｂｒｉｇｈｔ　ｗａｙ,,株式会社,大阪府,大阪市浪速区,桜川４丁目３番６－８０３号,,27,111,5560022,,,,,,,2023-08-18,1,,,,,ブライトウェイ,0
367,2120001257402,新規,0,2023-08-18,2023-08-18,株式会社アーホルン,,株式会社,大阪府,大阪市天王寺区,大道４丁目８番１８号,,27,109,5430052,,,,,,,2023-08-18,1,,,,,アーホルン,0
368,2120001257443,新規,0,2023-08-18,2023-08-18,株式会社ＢＳＳ須磨,,株式会社,大阪府,大阪市福島区,玉川３丁目９番１号２０３号室,,27,103,5530004,,,,,,,2023-08-18,1,,,,,ビーエスエススマ,0
369,2120001257451,新規,0,2023-08-18,2023-08-18,株式会社サンテラス不動産,,株式会社,大阪府,大阪市城東区,新喜多２丁目６番５７号ヤマトビル３Ｆ,,27,118,5360015,,,,,,,2023-08-18,1,,,,,サンテラスフドウサン,0
372,2120003024726,新規,0,2023-08-18,2023-08-18,フラワーエンターテイメント合同会社,,合同会社,大阪府,大阪市中央区,東心斎橋２丁目４番７号地下１階１号,,27,128,5420083,,,,,,,2023-08-18,1,,,,,フラワーエンターテイメント,0
378,2130001074986,新規,0,2023-08-18,2023-08-18,株式会社ＭＯＲＩトレ,,株式会社,京都府,京都市下京区,七条通油小路東入大黒町２２７番地第２キョートビル４０２,,26,106,6008223,,,,,,,2023-08-18,1,,,,,モリトレ,0
379,2130001075002,新規,0,2023-08-18,2023-08-18,株式会社Ｂｕｌｌ　Ｇｒｏｗｔｈ,,株式会社,京都府,京都市上京区,智恵光院通寺之内上る西入歓喜町２２４番地,,26,102,6028492,,,,,,,2023-08-18,1,,,,,ブルグロース,0
382,2140003019435,新規,0,2023-08-18,2023-08-18,合同会社ＩＣＴシステム開発,,合同会社,兵庫県,西宮市,甲子園口北町１－２シャルマンビル３Ｆ,,28,204,6638112,,,,,,,2023-08-18,1,,,,,アイシーティーシステムカイハツ,0
384,2150001026655,新規,0,2023-08-18,2023-08-18,藪根メンテナンス株式会社,,株式会社,奈良県,生駒郡三郷町,立野北２丁目９番７号,,29,343,6360821,,,,,,,2023-08-18,1,,,,,ヤブネメンテナンス,0
391,2180301037705,新規,0,2023-08-18,2023-08-18,株式会社勇伸興業,,株式会社,愛知県,岡崎市,細川町字鳥ケ根１番地１２１,,23,202,4442149,,,,,,,2023-08-18,1,,,,,ユウシンコウギョウ,0
393,2190003004416,新規,0,2023-08-18,2023-08-18,ＨＩＮＯＭＯＴＯ合同会社,,合同会社,三重県,鈴鹿市,住吉４丁目２１番５号第二コーポ住吉１０２,,24,207,5130826,,,,,,,2023-08-18,1,,,,,ヒノモト,0
397,2240001062022,新規,0,2023-08-18,2023-08-18,株式会社ｄｓｋ,,株式会社,広島県,広島市南区,的場町１丁目７番４－３０１号,,34,103,7320824,,,,,,,2023-08-18,1,,,,,ディーエスケー,0
402,2260001038235,新規,0,2023-08-18,2023-08-18,株式会社アップウィンド,,株式会社,岡山県,倉敷市,福島６５９番地１２,,33,202,7100048,,,,,,,2023-08-18,1,,,,,アップウィンド,0
410,2290001102608,新規,0,2023-08-18,2023-08-18,Ｍｏｂｉｌｉｔｙ　ＪＰ株式会社,,株式会社,福岡県,福岡市早良区,百道浜２丁目３番２号ＴＮＣ放送会館１８階,,40,137,8140001,,,,,,,2023-08-18,1,,,,,モビリティジェイピー,0
426,2360001032426,新規,0,2023-08-18,2023-08-18,北大東水産株式会社,,株式会社,沖縄県,島尻郡北大東村,字港８１番地１１,,47,358,9013903,,,,,,,2023-08-18,1,,,,,キタダイトウスイサン,0
457,3010001237653,新規,0,2023-08-18,2023-08-18,株式会社Ｒｅｖｅｌｌｅ,,株式会社,東京都,中央区,日本橋箱崎町１６－１ＴＯＭＡＳビル４Ｆ,,13,102,1030015,,,,,,,2023-08-18,1,,,,,リベル,0
458,3010001237835,新規,0,2023-08-18,2023-08-18,日本龍騰出行株式会社,,株式会社,東京都,中央区,銀座３丁目１３番１９号京喬ビル,,13,102,1040061,,,,,,,2023-08-18,1,,,,,ニホンリュウトウシュッコウ,0
460,3010003041418,新規,0,2023-08-18,2023-08-18,Ｆｏｒｅｔｅｌｌｉｘ合同会社,,合同会社,東京都,千代田区,丸の内１丁目８番３号丸の内トラストタワー本館２０階,,13,101,1000005,,,,,,,2023-08-18,1,,,,,フォレテリックス,0
461,3010003041426,新規,0,2023-08-18,2023-08-18,合同会社ＷＴＨキャピタル,,合同会社,東京都,千代田区,丸の内１丁目６番５号,,13,101,1000005,,,,,,,2023-08-18,1,,,,,ダブリューティーエイチキャピタル,0
462,3010005037141,新規,0,2023-08-18,2023-08-18,Ｄｒａｇｏｎ３特定目的会社,,その他の設立登記法人,東京都,中央区,八丁堀４丁目２番１０号ＡＯＪ税理士法人内,,13,102,1040032,,,,,,,2023-08-18,1,,,,,ドラゴンスリー,0
474,3010405022362,新規,0,2023-08-18,2023-08-18,名駅ホールディング２一般社団法人,,その他の設立登記法人,東京都,港区,虎ノ門３丁目２２番１０－２０１号,,13,103,1050001,,,,,,,2023-08-18,1,,,,,メイエキホールディングツー,0
475,3010601063656,新規,0,2023-08-18,2023-08-18,日本和熙集団株式会社,,株式会社,東京都,墨田区,東駒形２丁目２番地１３－４０２室,,13,107,1300005,,,,,,,2023-08-18,1,,,,,ニホンワキシュウダン,0
482,3010903008391,新規,0,2023-08-18,2023-08-18,合同会社現場改革研究所,,合同会社,東京都,世田谷区,千歳台２丁目１５－３,,13,112,1570071,,,,,,,2023-08-18,1,,,,,ゲンバカイカクケンキュウジョ,0
483,3010903008400,新規,0,2023-08-18,2023-08-18,合同会社データグラフィックス,,合同会社,東京都,世田谷区,上馬３丁目６番１１－８０４号,,13,112,1540011,,,,,,,2023-08-18,1,,,,,データグラフィックス,0
487,3011001156307,新規,0,2023-08-18,2023-08-18,株式会社ＪＩＴＴ,,株式会社,東京都,渋谷区,千駄ヶ谷１丁目５番７号,,13,113,1510051,,,,,,,2023-08-18,1,,,,,ジット,0
490,3011101104009,新規,0,2023-08-18,2023-08-18,株式会社Ｎｅｕｒｉｆｙ,,株式会社,東京都,新宿区,西新宿３丁目３番１３号西新宿水間ビル６階,,13,104,1600023,,,,,,,2023-08-18,1,,,,,ニューリファイ,0
491,3011203004148,新規,0,2023-08-18,2023-08-18,合同会社ＺＥＲＯ,,合同会社,東京都,中野区,中央４丁目１番２１号神宮ビルＦ１,,13,114,1640011,,,,,,,2023-08-18,1,,,,,ゼロ,0
497,3011601027056,新規,0,2023-08-18,2023-08-18,永銘株式会社,,株式会社,東京都,練馬区,桜台１丁目７番地７－４２２号,,13,120,1760002,,,,,,,2023-08-18,1,,,,,エイメイ,0
501,3012301013560,新規,0,2023-08-18,2023-08-18,ラグビーマーケティング株式会社,,株式会社,東京都,町田市,金井２丁目２５番地２２,,13,209,1950072,,,,,,,2023-08-18,1,,,,,ラグビーマーケティング,0
503,3012801022581,新規,0,2023-08-18,2023-08-18,株式会社ｃｈｅｒ　ｆｉｌｓ,,株式会社,東京都,国立市,中１丁目１８番地の１０－２０２,,13,215,1860004,,,,,,,2023-08-18,1,,,,,シェールフィス,0
506,3013301051204,新規,0,2023-08-18,2023-08-18,日本金城株式会社,,株式会社,東京都,豊島区,池袋１丁目２－６ベルメゾン池袋３１８号室,,13,116,1700014,,,,,,,2023-08-18,1,,,,,ニホンキンジョウ,0
510,3020001153065,新規,0,2023-08-18,2023-08-18,株式会社カスクエッジ,,株式会社,神奈川県,横浜市保土ケ谷区,川辺町２番地５パークタワー横濱星川３１４号,,14,106,2400001,,,,,,,2023-08-18,1,,,,,カスクエッジ,0
511,3020001153098,新規,0,2023-08-18,2023-08-18,株式会社日本国際医療推進機構,,株式会社,神奈川県,川崎市多摩区,菅仙谷４丁目１番５号,,14,135,2140006,,,,,,,2023-08-18,1,,,,,ニッポンコクサイイリョウスイシンキコウ,0
518,3020003024396,新規,0,2023-08-18,2023-08-18,ｅｖｅｒｙｌｉｇｈｔ合同会社,,合同会社,神奈川県,川崎市中原区,今井上町１０－１－７３９ガーデンティアラ武蔵小杉,,14,133,2110067,,,,,,,2023-08-18,1,,,,,エブリライト,0
522,3021001079944,新規,0,2023-08-18,2023-08-18,株式会社Ｄ・Ｃビルド,,株式会社,神奈川県,座間市,相武台２丁目４３番１０号,,14,216,2520011,,,,,,,2023-08-18,1,,,,,ディーシービルド,0
526,3030001155184,新規,0,2023-08-18,2023-08-18,株式会社９‐Ｒｅｖｏｌｕｔｉｏｎ,,株式会社,埼玉県,川越市,大字笠幡１６４５番地１７,,11,201,3501175,,,,,,,2023-08-18,1,,,,,ナインレボリューション,0
527,3030001155259,新規,0,2023-08-18,2023-08-18,嘉北商会株式会社,,株式会社,埼玉県,川口市,栄町３丁目１３番１－１５０６号,,11,203,3320017,,,,,,,2023-08-18,1,,,,,カホクショウカイ,0
528,3030001155300,新規,0,2023-08-18,2023-08-18,株式会社デンタルラボＴＯＰ　ＧＥＡＲ,,株式会社,埼玉県,八潮市,中央２丁目３１番地６,,11,234,3400816,,,,,,,2023-08-18,1,,,,,デンタルラボトップギア,0
529,3030001155390,新規,0,2023-08-18,2023-08-18,株式会社ナンバージュウイチ,,株式会社,埼玉県,川越市,新富町２丁目２６番地４－２０５号,,11,201,3500043,,,,,,,2023-08-18,1,,,,,ナンバージュウイチ,0
534,3030003022374,新規,0,2023-08-18,2023-08-18,合同会社ピーカイズ,,合同会社,埼玉県,さいたま市桜区,西堀３丁目２０番９号,,11,106,3380832,,,,,,,2023-08-18,1,,,,,ピーカイズ,0
551,3040003023157,新規,0,2023-08-18,2023-08-18,合同会社サポートセンター,,合同会社,千葉県,香取市,北１丁目１０番地１２篠塚ビル２階,,12,236,2870002,,,,,,,2023-08-18,1,,,,,サポートセンター,0
553,3050001053320,新規,0,2023-08-18,2023-08-18,株式会社アライ,,株式会社,茨城県,牛久市,牛久町１４１７番地２,,08,219,3001221,,,,,,,2023-08-18,1,,,,,アライ,0
575,3120001257112,新規,0,2023-08-18,2023-08-18,株式会社縁ブリッジ・ジャパン,,株式会社,大阪府,大阪市中央区,島之内１丁目１９－１５高吉堺筋ビル５階,,27,128,5420082,,,,,,,2023-08-18,1,,,,,エンブリッジジャパン,0
576,3120001257194,新規,0,2023-08-18,2023-08-18,株式会社Ｃａｒｅｎｏｖａ,,株式会社,大阪府,大阪市北区,国分寺２丁目２番２０－３１０号,,27,127,5310064,,,,,,,2023-08-18,1,,,,,ケアノヴァ,0
577,3120001257310,新規,0,2023-08-18,2023-08-18,株式会社Ｕｎｉｘｃｅｅｄ,,株式会社,大阪府,大阪市中央区,南船場２丁目１０番２８号ＮＫビル４０５号室,,27,128,5420081,,,,,,,2023-08-18,1,,,,,ユニシード,0
578,3120001257319,新規,0,2023-08-18,2023-08-18,株式会社ＮＥＷ　ＭＡＰエステート,,株式会社,大阪府,大阪市東淀川区,東中島１丁目１７番５号７２５号室,,27,114,5330033,,,,,,,2023-08-18,1,,,,,ニューマップエステート,0
579,3120001257343,新規,0,2023-08-18,2023-08-18,株式会社一番屋,,株式会社,大阪府,大阪市浪速区,大国２丁目５番３号エクラ大国町３０３号,,27,111,5560014,,,,,,,2023-08-18,1,,,,,イチバンヤ,0
580,3120001257418,新規,0,2023-08-18,2023-08-18,株式会社ＳＮＹ,,株式会社,大阪府,大阪市中央区,上町１丁目１５番１５－８０３号,,27,128,5400005,,,,,,,2023-08-18,1,,,,,エスエヌワイ,0
593,3130001075050,新規,0,2023-08-18,2023-08-18,株式会社ＡＢＭ,,株式会社,京都府,京都市南区,吉祥院内河原町１７番地,,26,107,6018392,,,,,,,2023-08-18,1,,,,,エービーエム,0
597,3140001131298,新規,0,2023-08-18,2023-08-18,ノアフェリス株式会社,,株式会社,兵庫県,姫路市,東山５２４番地,,28,201,6728014,,,,,,,2023-08-18,1,,,,,ノアフェリス,0
600,3150001026654,新規,0,2023-08-18,2023-08-18,御所金属株式会社,,株式会社,奈良県,御所市,大字蛇穴４４４番地の１,,29,208,6392272,,,,,,,2023-08-18,1,,,,,ゴセキンゾク,0
601,3160001025275,新規,0,2023-08-18,2023-08-18,株式会社ＢＬＵＥ　ＫＥＹ,,株式会社,滋賀県,高島市,勝野１２２８－１,,25,212,5201121,,,,,,,2023-08-18,1,,,,,ブルーキー,0
606,3180301037704,新規,0,2023-08-18,2023-08-18,株式会社ラプラス,,株式会社,愛知県,豊川市,為当町椎木３５８番地の２,,23,207,4420845,,,,,,,2023-08-18,1,,,,,ラプラス,0
611,3190003004415,新規,0,2023-08-18,2023-08-18,八木商事合同会社,,合同会社,三重県,松阪市,新座町１０８５番地１丸美ロイヤル松阪２０４号室,,24,204,5150074,,,,,,,2023-08-18,1,,,,,ヤギショウジ,0
619,3230001019971,新規,0,2023-08-18,2023-08-18,株式会社カミデ,,株式会社,富山県,富山市,桜橋通り３番１号,,16,201,9300004,,,,,,,2023-08-18,1,,,,,カミデ,0
623,3240003006190,新規,0,2023-08-18,2023-08-18,合同会社おかだ,,合同会社,広島県,福山市,駅家町近田１７－２,,34,207,7210000,,,,,,,2023-08-18,1,,,,,オカダ,0
629,3260001038242,新規,0,2023-08-18,2023-08-18,株式会社マンモストアー,,株式会社,岡山県,岡山市中区,清水１丁目７番１－２号,,33,102,7038243,,,,,,,2023-08-18,1,,,,,,0
632,3290001102730,新規,0,2023-08-18,2023-08-18,株式会社ＮＩＮＥ,,株式会社,福岡県,福津市,勝浦６１７番１,,40,224,8113521,,,,,,,2023-08-18,1,,,,,ナイン,0
633,3290001102739,新規,0,2023-08-18,2023-08-18,株式会社未来ｈａｂｉｔ研究所,,株式会社,福岡県,福岡市中央区,春吉２丁目９－２５ラ・レジダンス・ドレーヌ８１４号,,40,133,8100003,,,,,,,2023-08-18,1,,,,,ミライハビットケンキュウジョ,0
640,3310001018560,新規,0,2023-08-18,2023-08-18,ＫＯＫＳ株式会社,,株式会社,長崎県,長崎市,石神町１番２１－２０２号,,42,201,8528126,,,,,,,2023-08-18,1,,,,,コークス,0
642,3310003004625,新規,0,2023-08-18,2023-08-18,合同会社Ｏｃｔａｇｏｎ,,合同会社,長崎県,長崎市,新大工町５－３５－１０１０,,42,201,8500017,,,,,,,2023-08-18,1,,,,,オクタゴン,0
643,3320001019954,新規,0,2023-08-18,2023-08-18,株式会社裕神建設,,株式会社,大分県,大分市,中鶴崎２丁目３番２２号プレミアムレジデンス２０１,,44,201,8700101,,,,,,,2023-08-18,1,,,,,ユウシンケンセツ,0
644,3330001031165,新規,0,2023-08-18,2023-08-18,株式会社咲良,,株式会社,熊本県,熊本市南区,良町１丁目２０番１５号,,43,104,8620969,,,,,,,2023-08-18,1,,,,,サクラ,0
645,3330003009944,新規,0,2023-08-18,2023-08-18,健幸一番楽らく農園合同会社,,合同会社,熊本県,天草市,新和町小宮地４８０９番地,,43,215,8630101,,,,,,,2023-08-18,1,,,,,ケンコウイチバンラクラクノウエン,0
653,3360001032425,新規,0,2023-08-18,2023-08-18,永欽株式会社,,株式会社,沖縄県,中頭郡西原町,字我謝１１５番地ドリームパレス我謝２０２号室,,47,329,9030112,,,,,,,2023-08-18,1,,,,,エイキン,0
662,3410001013576,新規,0,2023-08-18,2023-08-18,株式会社亀甲警備保障,,株式会社,秋田県,秋田市,土崎港西４丁目１番３１号,,05,201,0110945,,,,,,,2023-08-18,1,,,,,カメコウケイビホショウ,0
665,3430001089796,新規,0,2023-08-18,2023-08-18,株式会社輝進運送,,株式会社,北海道,札幌市手稲区,手稲前田６１４番地１８,,01,109,0060829,,,,,,,2023-08-18,1,,,,,キシンウンソウ,0
668,3430003015362,新規,0,2023-08-18,2023-08-18,合同会社健適文化,,合同会社,北海道,札幌市北区,北十三条西３丁目２－１アルファスクエア北十三条５０９,,01,102,0010013,,,,,,,2023-08-18,1,,,,,ケンテキブンカ,0
669,3430005014759,新規,0,2023-08-18,2023-08-18,一般社団法人北海道バリアフリー推進機構,,その他の設立登記法人,北海道,札幌市白石区,菊水元町一条４丁目４番５－３０２号,,01,104,0030821,,,,,,,2023-08-18,1,,,,,ホッカイドウバリアフリースイシンキコウ,0
671,3460101007424,新規,0,2023-08-18,2023-08-18,株式会社東陽電設,,株式会社,北海道,帯広市,西十三条北８丁目５番地５,,01,207,0800043,,,,,,,2023-08-18,1,,,,,トウヨウデンセツ,0
675,3480001012183,新規,0,2023-08-18,2023-08-18,株式会社アイバン,,株式会社,徳島県,吉野川市,鴨島町中島２６５番地１,,36,205,7760004,,,,,,,2023-08-18,1,,,,,アイバン,0
684,3700150119038,新規,0,2023-08-18,2023-08-18,武漢創志篤行商貿有限公司,00131553,外国会社等,,,,,,,,中国武漢市洪山区珞喩路７１６号華楽商務中心１７層Ｄ号－０１,00131554,,,,,2023-08-18,1,,,,,ブカンソウシトッコウショウボウユウゲンコウシ,0
703,4010401176483,新規,0,2023-08-18,2023-08-18,ＰＡＴＨ　ＧＬＯＢＡＬ株式会社,,株式会社,東京都,港区,三田１丁目３－４０麻布十番ＢＵＳＩＮＥＳＳＣＵＢＥ－Ｓ天翔オフィス麻布十番７階７０４号室,,13,103,1080073,,,,,,,2023-08-18,1,,,,,パスグローバル,0
704,4010401176500,新規,0,2023-08-18,2023-08-18,Ｕｔｉｌｉｚｅ株式会社,,株式会社,東京都,港区,南青山３丁目１番３６号青山丸竹ビル６Ｆ,,13,103,1070062,,,,,,,2023-08-18,1,,,,,ユーティライズ,0
705,4010401176517,新規,0,2023-08-18,2023-08-18,株式会社アディッグ,,株式会社,東京都,港区,南青山１丁目１５番２２号,,13,103,1070062,,,,,,,2023-08-18,1,,,,,アディッグ,0
708,4010403030746,新規,0,2023-08-18,2023-08-18,ＯｐｅｎＡＩ　Ｊａｐａｎ合同会社,,合同会社,東京都,港区,西新橋３丁目４番２号,,13,103,1050003,,,,,,,2023-08-18,1,,,,,オープンエイアイジャパン,0
711,4010405022361,新規,0,2023-08-18,2023-08-18,名駅ホールディング１一般社団法人,,その他の設立登記法人,東京都,港区,虎ノ門３丁目２２番１０－２０１号,,13,103,1050001,,,,,,,2023-08-18,1,,,,,メイエキホールディングワン,0
714,4010601063655,新規,0,2023-08-18,2023-08-18,ｉＮｏｖａ　Ｐｈａｒｍａｃｅｕｔｉｃａｌｓ　Ｊａｐａｎ株式会社,,株式会社,東京都,江東区,有明３丁目７番２６号有明フロンティアビルＢ棟９階,,13,108,1350063,,,,,,,2023-08-18,1,,,,,アイノヴァファーマスーティカルズジャパン,0
722,4011003017381,新規,0,2023-08-18,2023-08-18,９０１合同会社,,合同会社,東京都,渋谷区,本町２丁目４１番７号ＣｏｚｙＳｑｕａｒｅ１０３,,13,113,1510071,,,,,,,2023-08-18,1,,,,,キュウゼロイチ,0
723,4011101103959,新規,0,2023-08-18,2023-08-18,香港式飲食文化株式会社,,株式会社,東京都,新宿区,大久保１丁目２番１号,,13,104,1690072,,,,,,,2023-08-18,1,,,,,ホンコンシキインショクブンカ,0
724,4011101104016,新規,0,2023-08-18,2023-08-18,株式会社ＯＮＬＹＬＵＣＫ,,株式会社,東京都,新宿区,西新宿３丁目３番１３号西新宿水間ビル２Ｆ,,13,104,1600023,,,,,,,2023-08-18,1,,,,,オンリーラック,0
725,4011101104057,新規,0,2023-08-18,2023-08-18,株式会社トライスター,,株式会社,東京都,新宿区,戸山１丁目１６番１５－２０１号,,13,104,1620052,,,,,,,2023-08-18,1,,,,,トライスター,0
726,4011101104073,新規,0,2023-08-18,2023-08-18,三重洲株式会社,,株式会社,東京都,新宿区,新宿２丁目１２番１３号新宿アントレサロンビル２階,,13,104,1600022,,,,,,,2023-08-18,1,,,,,ミエス,0
730,4011501029671,新規,0,2023-08-18,2023-08-18,株式会社ドライバーギグ,,株式会社,東京都,荒川区,東日暮里５丁目４５番１０－６０２号,,13,118,1160014,,,,,,,2023-08-18,1,,,,,ドライバーギグ,0
732,4011601027063,新規,0,2023-08-18,2023-08-18,株式会社タイキ,,株式会社,東京都,練馬区,北町５丁目５番７－１０１号,,13,120,1790081,,,,,,,2023-08-18,1,,,,,タイキ,0
733,4011801042894,新規,0,2023-08-18,2023-08-18,株式会社修研,,株式会社,東京都,足立区,足立２丁目２７番８号,,13,121,1200015,,,,,,,2023-08-18,1,,,,,シュウケン,0
734,4011801042903,新規,0,2023-08-18,2023-08-18,ＨＹＳ企画株式会社,,株式会社,東京都,足立区,千住龍田町１０番２号メゾンソルト１階,,13,121,1200042,,,,,,,2023-08-18,1,,,,,エイチワイエスキカク,0
739,4013303006766,新規,0,2023-08-18,2023-08-18,合同会社ｆｕｆｕａ,,合同会社,東京都,豊島区,東池袋４丁目５番１号エアライズタワー３３０７号,,13,116,1700013,,,,,,,2023-08-18,1,,,,,フフア,0
747,4020001153097,新規,0,2023-08-18,2023-08-18,株式会社アトラクト,,株式会社,神奈川県,横浜市戸塚区,南舞岡４丁目１７番１５号,,14,110,2440814,,,,,,,2023-08-18,1,,,,,アトラクト,0
748,4020001153106,新規,0,2023-08-18,2023-08-18,株式会社ＢＥ　ＹＯＵ,,株式会社,神奈川県,川崎市中原区,木月大町１２番１７－４０９号,,14,133,2110031,,,,,,,2023-08-18,1,,,,,ビーユー,0
752,4020003024404,新規,0,2023-08-18,2023-08-18,合同会社ｍｅｇｕｒｕ,,合同会社,神奈川県,横浜市都筑区,北山田２丁目２４番２６号エーデルハイム２０２,,14,118,2240021,,,,,,,2023-08-18,1,,,,,メグル,0
753,4021001079968,新規,0,2023-08-18,2023-08-18,株式会社ＰＡＰＡ　ＪＯＥ’Ｓ,,株式会社,神奈川県,鎌倉市,岡本１０２２－１０ラシェール鎌倉岡本ハイライズ３０４,,14,204,2470072,,,,,,,2023-08-18,1,,,,,パパジョーズ,0
754,4021001079976,新規,0,2023-08-18,2023-08-18,株式会社ＡＲＥＤ,,株式会社,神奈川県,相模原市南区,相模大野７丁目２４番１５号コスモヒルズ相模大野２階Ｃ室,,14,153,2520303,,,,,,,2023-08-18,1,,,,,アレッド,0
757,4021003013462,新規,0,2023-08-18,2023-08-18,合同会社ＴＨＩ,,合同会社,神奈川県,相模原市緑区,相原６丁目２３番４０号,,14,151,2520141,,,,,,,2023-08-18,1,,,,,ティーエイチアイ,0
758,4021003013470,新規,0,2023-08-18,2023-08-18,ＡＩＺＡ　ＴＲＡＤＩＮＧ合同会社,,合同会社,神奈川県,大和市,上草柳８丁目２８－４スズキハウスＣ棟,,14,213,2420029,,,,,,,2023-08-18,1,,,,,アイザトレーディング,0
765,4030001155274,新規,0,2023-08-18,2023-08-18,株式会社ホウセイ,,株式会社,埼玉県,大里郡寄居町,大字用土６０７番地７,,11,408,3691201,,,,,,,2023-08-18,1,,,,,ホウセイ,0
766,4030001155340,新規,0,2023-08-18,2023-08-18,株式会社ＪＩＶＥＥＬ,,株式会社,埼玉県,草加市,氷川町１１９６番地５,,11,221,3400034,,,,,,,2023-08-18,1,,,,,ジヴェール,0
767,4030001155349,新規,0,2023-08-18,2023-08-18,株式会社神の杖,,株式会社,埼玉県,さいたま市大宮区,宮町４丁目５８番地３アネシス宮町１０１,,11,103,3300802,,,,,,,2023-08-18,1,,,,,カミノツエ,0
768,4030001155357,新規,0,2023-08-18,2023-08-18,富士商事株式会社,,株式会社,埼玉県,蕨市,中央４丁目２番２号２Ｃ号室（２０３）,,11,223,3350004,,,,,,,2023-08-18,1,,,,,フジショウジ,0
769,4030001155456,新規,0,2023-08-18,2023-08-18,株式会社高天組,00131576,株式会社,埼玉県,さいたま市見沼区,大字南中丸５９１番地８,,11,104,3370041,,,,,,,2023-08-18,1,,,,,タカマグミ,0
772,4030003022266,新規,0,2023-08-18,2023-08-18,ＡＭＳ合同会社,,合同会社,埼玉県,東松山市,材木町１５番５号,,11,212,3550016,,,,,,,2023-08-18,1,,,,,エーエムエス,0
773,4030003022308,新規,0,2023-08-18,2023-08-18,ＴＧＢ合同会社,,合同会社,埼玉県,坂戸市,南町５番地１４－１Ｆ,,11,239,3500233,,,,,,,2023-08-18,1,,,,,ティージービー,0
774,4030003022316,新規,0,2023-08-18,2023-08-18,Ｅｉｋｅｎ　Ｉｎｔｅｒｎａｔｉｏｎａｌ合同会社,,合同会社,埼玉県,坂戸市,大字厚川５４番地３ＫＩＶオフィス一本松Ａ号室,,11,239,3500242,,,,,,,2023-08-18,1,,,,,エイケンインターナショナル,0
782,4040001129748,新規,0,2023-08-18,2023-08-18,株式会社イスラルトレーディング,,株式会社,千葉県,野田市,谷津９７９番地の５５,,12,208,2780046,,,,,,,2023-08-18,1,,,,,イスラルトレーディング,0
783,4040001129756,新規,0,2023-08-18,2023-08-18,向北株式会社,,株式会社,千葉県,松戸市,西馬橋幸町１５４番地の１グローハイツ１０１号,,12,207,2710047,,,,,,,2023-08-18,1,,,,,コウホク,0
799,4080005007558,新規,0,2023-08-18,2023-08-18,ＳＢＫ協同組合,,その他の設立登記法人,静岡県,焼津市,宗高１２８７番地,,22,212,4210205,,,,,,,2023-08-18,1,,,,,エスビーケー,0
800,4090001018285,新規,0,2023-08-18,2023-08-18,株式会社ＪＣＩ,,株式会社,山梨県,甲府市,里吉４丁目６番３９号,,19,201,4000822,,,,,,,2023-08-18,1,,,,,ジェイシーアイ,0
803,4100003007136,新規,0,2023-08-18,2023-08-18,合同会社Ｔ．Ａ．Ｒ．Ｐ,,合同会社,長野県,北佐久郡立科町,大字芦田２６１２番地３,,20,324,3842305,,,,,,,2023-08-18,1,,,,,ティーエーアールピー,0
810,4120001257292,新規,0,2023-08-18,2023-08-18,株式会社Ｃ．Ｒ．Ｍ,,株式会社,大阪府,大阪市北区,豊崎３丁目１５番５号ＴＫビル２Ｆ,,27,127,5310072,,,,,,,2023-08-18,1,,,,,シーアールエム,0
811,4120001257342,新規,0,2023-08-18,2023-08-18,吉楽商事株式会社,,株式会社,大阪府,大阪市西区,本田２丁目８－７・１階・１Ｅ号室,,27,106,5500022,,,,,,,2023-08-18,1,,,,,キチラクショウジ,0
812,4120001257375,新規,0,2023-08-18,2023-08-18,株式会社ＭＡＹ,,株式会社,大阪府,大阪市中央区,船越町１丁目６番６号ＯＤＣ天満橋ビル１００２,,27,128,5400036,,,,,,,2023-08-18,1,,,,,エムエーワイ,0
813,4120001257383,新規,0,2023-08-18,2023-08-18,株式会社オカダ・イサム,,株式会社,大阪府,大阪市天王寺区,東高津町１１番４号,,27,109,5430021,,,,,,,2023-08-18,1,,,,,オカダイサム,0
814,4120001257409,新規,0,2023-08-18,2023-08-18,株式会社英鋼業所,,株式会社,大阪府,大阪市生野区,巽東２丁目１１番８号,00131570,27,116,5440014,,,,,,,2023-08-18,1,,,,,ハナフサコウギョウショ,0
815,4120001257433,新規,0,2023-08-18,2023-08-18,Ｂｕｄｄｙ株式会社,,株式会社,大阪府,大阪市平野区,加美鞍作２丁目１６番１号,,27,126,5470004,,,,,,,2023-08-18,1,,,,,バディ,0
819,4120003024724,新規,0,2023-08-18,2023-08-18,合同会社ＴＵＡＮ　ＰＨＡＴ,,合同会社,大阪府,大阪市東住吉区,湯里２丁目１３－１－３０２,,27,121,5460013,,,,,,,2023-08-18,1,,,,,トゥアンパット,0
830,4130001075033,新規,0,2023-08-18,2023-08-18,株式会社ＯＰＴＩＣＡＬ　ＬＵＬＵ　ＴＯＫＩＹＡ,,株式会社,京都府,京都市左京区,岩倉南三宅町９４番地,,26,103,6060023,,,,,,,2023-08-18,1,,,,,オプティカルルルトキヤ,0
831,4140001131157,新規,0,2023-08-18,2023-08-18,株式会社くすのきサポートパートナーズ,,株式会社,兵庫県,川西市,小戸１丁目３番１２－２０１号,,28,217,6660014,,,,,,,2023-08-18,1,,,,,クスノキサポートパートナーズ,0
832,4140001131272,新規,0,2023-08-18,2023-08-18,株式会社ラキマ,,株式会社,兵庫県,神戸市東灘区,魚崎中町４丁目５番２号ドミトリー魚崎２０１号,,28,101,6580083,,,,,,,2023-08-18,1,,,,,ラキマ,0
833,4140001131314,新規,0,2023-08-18,2023-08-18,株式会社真和テック,,株式会社,兵庫県,伊丹市,寺本６丁目５８番地,,28,207,6640026,,,,,,,2023-08-18,1,,,,,,0
834,4150001026653,新規,0,2023-08-18,2023-08-18,ＦＵＫＵＲＯ‐リペアスタジオ株式会社,,株式会社,奈良県,生駒郡斑鳩町,龍田南４丁目５－３４,00131572,29,344,6360153,,,,,,,2023-08-18,1,,,,,フクロウリペアスタジオ,0
842,4180301037694,新規,0,2023-08-18,2023-08-18,株式会社トラストエンジニアリング,,株式会社,愛知県,豊橋市,吉川町１５１番地２,,23,201,4418002,,,,,,,2023-08-18,1,,,,,トラストエンジニアリング,0
853,4250005008852,新規,0,2023-08-18,2023-08-18,医療法人さっか整形外科クリニック,,その他の設立登記法人,山口県,山口市,小郡下郷２２２０番地１,,35,203,7540002,,,,,,,2023-08-18,1,,,,,サッカセイケイゲカクリニック,0
854,4260001038241,新規,0,2023-08-18,2023-08-18,レインボージャパン株式会社,,株式会社,岡山県,倉敷市,玉島乙島６８８８番地１,,33,202,7138103,,,,,,,2023-08-18,1,,,,,レインボージャパン,0
857,4260003004398,新規,0,2023-08-18,2023-08-18,合同会社百匹の猿,,合同会社,岡山県,岡山市北区,今５丁目１３－３６－１Ｂ,,33,101,7000975,,,,,,,2023-08-18,1,,,,,ヒャッピキノサル,0
862,4290001102705,新規,0,2023-08-18,2023-08-18,株式会社たていし工務店,,株式会社,福岡県,久留米市,東合川３丁目２番１７号－２０３,,40,203,8390809,,,,,,,2023-08-18,1,,,,,タテイシコウムテン,0
863,4290001102721,新規,0,2023-08-18,2023-08-18,株式会社ＳｈｉＮ,,株式会社,福岡県,福岡市博多区,美野島２丁目２番１－２０７号,,40,132,8120017,,,,,,,2023-08-18,1,,,,,シン,0
867,4320003004152,新規,0,2023-08-18,2023-08-18,合同会社Ｆｏｒｍａｌ,,合同会社,大分県,別府市,元町１２番１３号元町プラザビル１Ｆ,,44,202,8740944,,,,,,,2023-08-18,1,,,,,フォーマル,0
879,4340003004217,新規,0,2023-08-18,2023-08-18,合同会社ヒロタ,,合同会社,鹿児島県,鹿児島市,西千石町１１－２１鹿児島ＭＳビル５階,,46,201,8920847,,,,,,,2023-08-18,1,,,,,ヒロタ,0
892,4390003002133,新規,0,2023-08-18,2023-08-18,合同会社地域環境設計,,合同会社,山形県,東根市,中央２丁目６番１９号,,06,211,9993711,,,,,,,2023-08-18,1,,,,,チイキカンキョウセッケイ,0
898,4410003003830,新規,0,2023-08-18,2023-08-18,合同会社信,,合同会社,秋田県,由利本荘市,前郷字西川町９８番地４,,05,210,0150341,,,,,,,2023-08-18,1,,,,,マコト,0
901,4430001089804,新規,0,2023-08-18,2023-08-18,アンモナイト株式会社,,株式会社,北海道,江別市,緑町東１丁目４４番地１,,01,217,0670003,,,,,,,2023-08-18,1,,,,,アンモナイト,0
905,4440001009307,新規,0,2023-08-18,2023-08-18,株式会社ＲＦＭ,,株式会社,北海道,函館市,本通３丁目１４番１号,,01,202,0410851,,,,,,,2023-08-18,1,,,,,アールエフエム,0
906,4450001014082,新規,0,2023-08-18,2023-08-18,株式会社ラッフルズ,,株式会社,北海道,旭川市,西御料二条２丁目１０番１１号,,01,204,0788822,,,,,,,2023-08-18,1,,,,,,0
907,4460101007423,新規,0,2023-08-18,2023-08-18,株式会社ブルズ,,株式会社,北海道,河東郡音更町,緑陽台南区１番地６１,,01,631,0800318,,,,,,,2023-08-18,1,,,,,ブルズ,0
912,4500001025124,新規,0,2023-08-18,2023-08-18,株式会社Ｄｏ　Ｒｏａｄ,,株式会社,愛媛県,松山市,福音寺町２４７番地Ｒ４マンション１０２号,,38,201,7900921,,,,,,,2023-08-18,1,,,,,ドゥーロード,0
914,4700150119037,新規,0,2023-08-18,2023-08-18,Ｑｕａｎｚｈｏｕ　Ｙａｎｙｉ　Ｅｌｅｃｔｒｏｎｉｃ　Ｔｅｃｈｎｏｌｏｇｙ　Ｃｏ．，Ｌｔｄ,,外国会社等,,,,,,,,３０５８，３ｒｄ　Ｆｌｏｏｒ，Ｎｏ．１１２９－１１　Ｓｏｕｔｈ　Ｒｉｎｇ　Ｒｏａｄ，Ｃｈｉｔｕ　Ｃｏｍｍｕｎｉｔｙ，Ｊｉｎｌｏｎｇ　Ｓｔｒｅｅｔ，Ｌｉｃｈｅｎｇ　Ｄｉｓｔｒｉｃｔ，Ｑｕａｎｚｈｏｕ　Ｃｉｔｙ，Ｆｕｊｉａｎ　Ｐｒｏｖｉｎｃｅ,,,,,,2023-08-18,1,,,,,チュエンジョウシーイエンイーディエンズーコージーヨウシエンゴンスー,0
925,5010003041382,新規,0,2023-08-18,2023-08-18,ハリチョコミント合同会社,,合同会社,東京都,中央区,銀座１丁目１２番４号Ｎ＆ＥＢＬＤ．６Ｆ,,13,102,1040061,,,,,,,2023-08-18,1,,,,,ハリチョコミント,0
926,5010003041440,新規,0,2023-08-18,2023-08-18,合同会社Ｋｉｎｄ　ｏｆ　Ｂｅａｕｔｙ,,合同会社,東京都,文京区,関口１丁目１１－７プライマルシティ神楽坂７０４号室,,13,105,1120014,,,,,,,2023-08-18,1,,,,,カインドオブビューティ,0
931,5010401176383,新規,0,2023-08-18,2023-08-18,株式会社トラスティファイ,,株式会社,東京都,港区,北青山１丁目３番１号アールキューブ青山３階,,13,103,1070061,,,,,,,2023-08-18,1,,,,,トラスティファイ,0
932,5010401176524,新規,0,2023-08-18,2023-08-18,株式会社ＮＡＧＥ,,株式会社,東京都,港区,六本木７丁目７番７号ＴＲＩ－ＳＥＶＥＮ・ＲＯＰＰＯＮＧＩ８階,,13,103,1060032,,,,,,,2023-08-18,1,,,,,ネイジ,0
934,5010403030753,新規,0,2023-08-18,2023-08-18,合同会社紺雪橙,,合同会社,東京都,港区,南青山２丁目２番１５号ウィン青山９４２,,13,103,1070062,,,,,,,2023-08-18,1,,,,,ユキアカリ,0
935,5010405022419,新規,0,2023-08-18,2023-08-18,一般社団法人ココファンド４,,その他の設立登記法人,東京都,港区,西新橋１丁目２番９号メンターキャピタル税理士法人内,,13,103,1050003,,,,,,,2023-08-18,1,,,,,ココファンドヨン,0
940,5010701044736,新規,0,2023-08-18,2023-08-18,株式会社ｌｏｔｕｓ５,,株式会社,東京都,品川区,東五反田１丁目６番地３号,,13,109,1410022,,,,,,,2023-08-18,1,,,,,ロータスファイブ,0
941,5010901053611,新規,0,2023-08-18,2023-08-18,Ａｄｏｎａ株式会社,,株式会社,東京都,世田谷区,上用賀６丁目１５番１５号,,13,112,1580098,,,,,,,2023-08-18,1,,,,,エドナ,0
942,5010901053636,新規,0,2023-08-18,2023-08-18,株式会社家具ｅｄ　Ｍａｉｓｏｎ,,株式会社,東京都,世田谷区,船橋２丁目７番６号,,13,112,1560055,,,,,,,2023-08-18,1,,,,,カグドメゾン,0
948,5011003017372,新規,0,2023-08-18,2023-08-18,合同会社ダブルアップ,,合同会社,東京都,渋谷区,宇田川町１２番３号９０２号室,,13,113,1500042,,,,,,,2023-08-18,1,,,,,ダブルアップ,0
952,5011101103875,新規,0,2023-08-18,2023-08-18,株式会社Ｌｅ　ｂｅａｕ　ｍｏｎｄｅ,,株式会社,東京都,新宿区,西新宿３丁目３番１３号西新宿水間ビル６階,,13,104,1600023,,,,,,,2023-08-18,1,,,,,ルボーモンド,0
953,5011101104048,新規,0,2023-08-18,2023-08-18,株式会社ＤｏｎＤｏｔ,,株式会社,東京都,新宿区,西新宿３丁目３番１３号西新宿水間ビル２Ｆ,,13,104,1600023,,,,,,,2023-08-18,1,,,,,ドンドット,0
955,5011103013379,新規,0,2023-08-18,2023-08-18,ジャストコン・エレクトロニクス・ジャパン合同会社,,合同会社,東京都,新宿区,西新宿１丁目２６番２号新宿野村ビル３２階,,13,104,1600023,,,,,,,2023-08-18,1,,,,,ジャストコンエレクトロニクスジャパン,0
956,5011103013387,新規,0,2023-08-18,2023-08-18,合同会社ＰＬＯＹ,,合同会社,東京都,新宿区,西新宿３丁目３番１３号西新宿水間ビル６階,,13,104,1600023,,,,,,,2023-08-18,1,,,,,プロイ,0
961,5011501029662,新規,0,2023-08-18,2023-08-18,清木株式会社,,株式会社,東京都,荒川区,町屋３丁目２４番２号面川ビル３０３号室,,13,118,1160001,,,,,,,2023-08-18,1,,,,,セイキ,0
962,5011501029670,新規,0,2023-08-18,2023-08-18,ＦＰＰ株式会社,,株式会社,東京都,北区,赤羽１丁目２２番１号,,13,117,1150045,,,,,,,2023-08-18,1,,,,,エフピーピー,0
964,5011601027062,新規,0,2023-08-18,2023-08-18,株式会社マアバル,,株式会社,東京都,練馬区,豊玉中２丁目１０－８．４０７号,,13,120,1760013,,,,,,,2023-08-18,1,,,,,マアバル,0
972,5013303006765,新規,0,2023-08-18,2023-08-18,合同会社ディライト,,合同会社,東京都,豊島区,目白５丁目２２番６号,,13,116,1710031,,,,,,,2023-08-18,1,,,,,ディライト,0
976,5020001153088,新規,0,2023-08-18,2023-08-18,株式会社ＴＭＡ,,株式会社,神奈川県,横浜市緑区,中山４丁目４番２６号,,14,113,2260019,,,,,,,2023-08-18,1,,,,,ティーエムエー,0
982,5020003024403,新規,0,2023-08-18,2023-08-18,レクト合同会社,,合同会社,神奈川県,横浜市港北区,高田西１丁目１５番８号,,14,109,2230066,,,,,,,2023-08-18,1,,,,,レクト,0
985,5021001079967,新規,0,2023-08-18,2023-08-18,株式会社リペアサービス,,株式会社,神奈川県,藤沢市,西富５９９番地の７,,14,205,2510001,,,,,,,2023-08-18,1,,,,,リペアサービス,0
988,5021003013461,新規,0,2023-08-18,2023-08-18,グッチ合同会社,,合同会社,神奈川県,小田原市,栄町１丁目１４番１２号ＮＴ２ビル２Ｆ,,14,206,2500011,,,,,,,2023-08-18,1,,,,,グッチ,0
994,5030001155257,新規,0,2023-08-18,2023-08-18,株式会社リエゾン,,株式会社,埼玉県,さいたま市南区,鹿手袋６丁目１７番８号,,11,108,3360031,,,,,,,2023-08-18,1,,,,,リエゾン,0
995,5030001155315,新規,0,2023-08-18,2023-08-18,株式会社エバーブリス,,株式会社,埼玉県,幸手市,北２丁目６番５号,,11,240,3400111,,,,,,,2023-08-18,1,,,,,エバーブリス,0
996,5030001155356,新規,0,2023-08-18,2023-08-18,株式会社アドバンス,,株式会社,埼玉県,越谷市,蒲生４丁目１３番４１号,,11,222,3430838,,,,,,,2023-08-18,1,,,,,アドバンス,0
1000,5030003022281,新規,0,2023-08-18,2023-08-18,卓希合同会社,,合同会社,埼玉県,川口市,飯塚３丁目１－２４－３０３,,11,203,3320023,,,,,,,2023-08-18,1,,,,,タカキ,0
1001,5030003022307,新規,0,2023-08-18,2023-08-18,合同会社ＡＩＵ,,合同会社,埼玉県,久喜市,本町１丁目５番３８－２号,,11,232,3460005,,,,,,,2023-08-18,1,,,,,エーアイユー,0
1003,5030005021348,新規,0,2023-08-18,2023-08-18,特定非営利活動法人さとやま響和国たけざわ,,その他の設立登記法人,埼玉県,比企郡小川町,大字木呂子３４番地,,11,343,3550337,,,,,,,2023-08-18,1,,,,,サトヤマキョウワコクタケザワ,0
1022,5050001053319,新規,0,2023-08-18,2023-08-18,株式会社ＫＲＦ,,株式会社,茨城県,鹿嶋市,大字大船津４１８２番地,,08,222,3140036,,,,,,,2023-08-18,1,,,,,ケイアールエフ,0
1026,5070001040777,新規,0,2023-08-18,2023-08-18,Ｍ＆Ｙサポート株式会社,,株式会社,群馬県,高崎市,新町１７６５番地１笛木第二マンション４０２号,,10,202,3701301,,,,,,,2023-08-18,1,,,,,エムアンドワイサポート,0
1028,5080003003038,新規,0,2023-08-18,2023-08-18,合同会社将聖,,合同会社,静岡県,静岡市葵区,吉野町４－７,,22,101,4200046,,,,,,,2023-08-18,1,,,,,ショウヤ,0
1029,5080101024175,新規,0,2023-08-18,2023-08-18,富士見人材株式会社,,株式会社,静岡県,裾野市,深良５３３番地の１‐１０２,,22,220,4101102,,,,,,,2023-08-18,1,,,,,フジミジンザイ,0
1036,5090001018268,新規,0,2023-08-18,2023-08-18,株式会社ｓｎｅｅｕｗ,,株式会社,山梨県,甲府市,上石田１丁目１７－２２,,19,201,4000041,,,,,,,2023-08-18,1,,,,,スニュー,0
1051,5120001257341,新規,0,2023-08-18,2023-08-18,ＶＭＴ株式会社,,株式会社,大阪府,大阪市東住吉区,今林４丁目１１番２１号,,27,121,5460001,,,,,,,2023-08-18,1,,,,,ヴィエムティー,0
1052,5120001257382,新規,0,2023-08-18,2023-08-18,株式会社Ｆｒｅｎｃｈ　Ｃｏｎｎｅｃｔｉｏｎ,,株式会社,大阪府,大阪市中央区,西心斎橋１丁目１０番４１号心斎橋ＡＮＤＡＮＴＩＮＯ１Ｆ,,27,128,5420086,,,,,,,2023-08-18,1,,,,,フレンチコネクション,0
1053,5120001257399,新規,0,2023-08-18,2023-08-18,株式会社Ｔ‐Ａｔｔｒａｃｔ,,株式会社,大阪府,大阪市東成区,大今里３丁目１５番２１号,,27,115,5370012,,,,,,,2023-08-18,1,,,,,ティーアトラクト,0
1054,5120001257449,新規,0,2023-08-18,2023-08-18,株式会社ＯＮＥ,,株式会社,大阪府,大阪市浪速区,恵美須東３丁目６番１号新世界ＭＤビルＩＩ,00131579,27,111,5560002,,,,,,,2023-08-18,1,,,,,ワン,0
1057,5120003024731,新規,0,2023-08-18,2023-08-18,合同会社ＲＥＢＯＲＮ,,合同会社,大阪府,大阪市東住吉区,南田辺１丁目４番２６号,,27,121,5460033,,,,,,,2023-08-18,1,,,,,リボーン,0
1068,5120903004790,新規,0,2023-08-18,2023-08-18,合同会社眞楽,,合同会社,大阪府,豊中市,庄内東町２丁目１番４号とよなか起業・チャレンジセンター内,,27,203,5610831,,,,,,,2023-08-18,1,,,,,シンラク,0
1076,5140001131271,新規,0,2023-08-18,2023-08-18,株式会社一デバン,,株式会社,兵庫県,尼崎市,神田中通９丁目２８５番地の７,,28,202,6600884,,,,,,,2023-08-18,1,,,,,ハジメデバン,0
1082,5140003019449,新規,0,2023-08-18,2023-08-18,合同会社一人静,,合同会社,兵庫県,芦屋市,朝日ケ丘町４０番１４－５０３号,,28,206,6590012,,,,,,,2023-08-18,1,,,,,ヒトリシズカ,0
1086,5170001017740,新規,0,2023-08-18,2023-08-18,金幸株式会社,,株式会社,和歌山県,和歌山市,府中字南出８７０番地１,,30,201,6496338,,,,,,,2023-08-18,1,,,,,キンコウ,0
1100,5180301037719,新規,0,2023-08-18,2023-08-18,株式会社みさき設備,,株式会社,愛知県,田原市,伊良湖町小薮２５７３番地１０,,23,231,4413624,,,,,,,2023-08-18,1,,,,,ミサキセツビ,0
1104,5190003004413,新規,0,2023-08-18,2023-08-18,合同会社ｌｉｆｅ,,合同会社,三重県,津市,雲出長常町１５４８番地,,24,201,5140303,,,,,,,2023-08-18,1,,,,,ライフ,0
1109,5220001025556,新規,0,2023-08-18,2023-08-18,株式会社ミックホールディングス,,株式会社,石川県,野々市市,矢作２丁目８３番地２,,17,212,9218822,,,,,,,2023-08-18,1,,,,,ミックホールディングス,0
1112,5230001019978,新規,0,2023-08-18,2023-08-18,株式会社フェイスフルクリエイション,,株式会社,富山県,富山市,桜橋通り３番１号,,16,201,9300004,,,,,,,2023-08-18,1,,,,,フェイスフルクリエイション,0
1113,5240001062011,新規,0,2023-08-18,2023-08-18,株式会社マジックマ,,株式会社,広島県,福山市,多治米町２丁目１１番１号,,34,207,7200824,,,,,,,2023-08-18,1,,,,,マジックマ,0
1121,5270001008829,新規,0,2023-08-18,2023-08-18,株式会社ＴＨＲＯＢＯＸ,,株式会社,鳥取県,西伯郡南部町,市山１０８８番地２,,31,389,6830222,,,,,,,2023-08-18,1,,,,,スロボックス,0
1124,5290003014229,新規,0,2023-08-18,2023-08-18,ｆｒｅｅｌｙ＆８合同会社,,合同会社,福岡県,太宰府市,宰都１丁目５‐１３,,40,221,8180139,,,,,,,2023-08-18,1,,,,,フリーリィアンドエイト,0
1130,5320001019952,新規,0,2023-08-18,2023-08-18,株式会社グッドワン,,株式会社,大分県,由布市,湯布院町川上１４７１番地１,,44,213,8795102,,,,,,,2023-08-18,1,,,,,グッドワン,0
1131,5330001031163,新規,0,2023-08-18,2023-08-18,株式会社ホリスティック・コンディショニング・レグルス,,株式会社,熊本県,合志市,御代志１６６１番地１ルーロ合志２階Ｍ－５,,43,216,8611104,,,,,,,2023-08-18,1,,,,,ホリスティックコンディショニングレグルス,0
1132,5330001031171,新規,0,2023-08-18,2023-08-18,株式会社住商不動産,,株式会社,熊本県,合志市,豊岡字町上２５２０番２１,,43,216,8611115,,,,,,,2023-08-18,1,,,,,スミショウフドウサン,0
1137,5340003004216,新規,0,2023-08-18,2023-08-18,タイケイ製糖合同会社,,合同会社,鹿児島県,大島郡瀬戸内町,大字古仁屋１９０番地１２,,46,525,8941508,,,,,,,2023-08-18,1,,,,,タイケイセイトウ,0
1140,5360003013215,新規,0,2023-08-18,2023-08-18,合同会社ＯＫＩＮＡＷＡＳＨ,,合同会社,沖縄県,豊見城市,字我那覇３５６番地カサ・グランデ寿々１０１号室,,47,212,9010231,,,,,,,2023-08-18,1,,,,,オキナウォッシュ,0
1142,5370001050317,新規,0,2023-08-18,2023-08-18,アスプラス株式会社,,株式会社,宮城県,仙台市太白区,東中田４丁目１１－４５,,04,104,9811107,,,,,,,2023-08-18,1,,,,,アスプラス,0
1155,5420001018374,新規,0,2023-08-18,2023-08-18,華株式会社,,株式会社,青森県,八戸市,長者２丁目４番６号,,02,203,0310021,,,,,,,2023-08-18,1,,,,,ハナ,0
1156,5430001089794,新規,0,2023-08-18,2023-08-18,株式会社梅心,,株式会社,北海道,札幌市豊平区,西岡四条７丁目１番２０－５０５号,,01,105,0620034,,,,,,,2023-08-18,1,,,,,ウメシン,0
1157,5440001009306,新規,0,2023-08-18,2023-08-18,ファーストホールディングス株式会社,,株式会社,北海道,函館市,西桔梗町５８９番地５０,,01,202,0410824,,,,,,,2023-08-18,1,,,,,ファーストホールディングス,0
1158,5450001014081,新規,0,2023-08-18,2023-08-18,株式会社こころ,,株式会社,北海道,旭川市,北門町１６丁目２１５９番地１４５,,01,204,0700825,,,,,,,2023-08-18,1,,,,,ココロ,0
1159,5470001019772,新規,0,2023-08-18,2023-08-18,株式会社松岡設備,,株式会社,香川県,丸亀市,柞原町２９６番地１高憧ビル２階,,37,202,7630073,,,,,,,2023-08-18,1,,,,,マツオカセツビ,0
1162,5500001025148,新規,0,2023-08-18,2023-08-18,新愛媛サービス株式会社,,株式会社,愛媛県,松山市,高岡町４０８番地８,,38,201,7918036,,,,,,,2023-08-18,1,,,,,シンエヒメサービス,0
1163,5500003003085,新規,0,2023-08-18,2023-08-18,合同会社ミミズク堂,,合同会社,愛媛県,南宇和郡愛南町,高畑４８番地,,38,506,7984124,,,,,,,2023-08-18,1,,,,,ミミズクドウ,0
1165,5700150119036,新規,0,2023-08-18,2023-08-18,ＴＲＤ　ＬＩＭＩＴＥＤ,,外国会社等,,,,,,,,ＲＭ　２０１２，２０／Ｆ　ＴＯＷＥＲ　１　ＴＨＥ　ＧＡＴＥＷＡＹ　２５　ＣＡＮＴＯＮ　ＲＤ　ＴＳＴ　Ｋｏｗｌｏｏｎ　Ｈｏｎｇ　Ｋｏｎｇ,,,,,,2023-08-18,1,,,,,ティーアーディーエルアイエムアイティーイーディー,0
1175,6010003041398,新規,0,2023-08-18,2023-08-18,合同会社グリーンビルＰＪ１,,合同会社,東京都,中央区,日本橋１丁目４番１号,,13,102,1030027,,,,,,,2023-08-18,1,,,,,グリーンビルピージェイワン,0
1182,6010401176358,新規,0,2023-08-18,2023-08-18,株式会社ゆゑに,,株式会社,東京都,港区,芝公園３丁目１番１４号,,13,103,1050011,,,,,,,2023-08-18,1,,,,,ユエニ,0
1184,6010403030728,新規,0,2023-08-18,2023-08-18,合同会社ゴールドＩ８,,合同会社,東京都,港区,虎ノ門３丁目２２番１０－２０１号,,13,103,1050001,,,,,,,2023-08-18,1,,,,,ゴールドアイエイト,0
1187,6010405022418,新規,0,2023-08-18,2023-08-18,朝日岳一般社団法人,,その他の設立登記法人,東京都,港区,北青山１丁目２番３号,,13,103,1070061,,,,,,,2023-08-18,1,,,,,アサヒダケ,0
1189,6010501050917,新規,0,2023-08-18,2023-08-18,株式会社Ｅｘｐｏｌｉｎ,,株式会社,東京都,台東区,台東１丁目３８－９イートピア清洲橋通ビル５Ｆ－１０号室,,13,106,1100016,,,,,,,2023-08-18,1,,,,,エキスポリン,0
1190,6010501050925,新規,0,2023-08-18,2023-08-18,千代田ホールディングス株式会社,,株式会社,東京都,台東区,東上野１丁目１番１１号,,13,106,1100015,,,,,,,2023-08-18,1,,,,,チヨダホールディングス,0
1193,6010701044735,新規,0,2023-08-18,2023-08-18,株式会社ＲＨデジタル,,株式会社,東京都,品川区,北品川５丁目５番１５号,,13,109,1410001,,,,,,,2023-08-18,1,,,,,アールエイチデジタル,0
1197,6010901053668,新規,0,2023-08-18,2023-08-18,クロスロードジャパン株式会社,,株式会社,東京都,世田谷区,野沢３丁目５番１９－５０５号,,13,112,1540003,,,,,,,2023-08-18,1,,,,,クロスロードジャパン,0
1200,6011003017396,新規,0,2023-08-18,2023-08-18,ＳＣズウス大阪合同会社,,合同会社,東京都,渋谷区,恵比寿南１丁目１番１号ＳＣキャピタル・パートナーズ・ジャパン株式会社内,,13,113,1500022,,,,,,,2023-08-18,1,,,,,エスシーズウスオオサカ,0
1204,6011101104039,新規,0,2023-08-18,2023-08-18,株式会社早稲田屋ＪＡＰＡＮ,,株式会社,東京都,新宿区,大久保１丁目１２番２９号森田ビル２Ｆ,,13,104,1690072,,,,,,,2023-08-18,1,,,,,ワセダヤジャパン,0
1205,6011101104071,新規,0,2023-08-18,2023-08-18,株式会社ライズパートナーズ,,株式会社,東京都,新宿区,百人町１丁目３番１６号諏訪ビル２階,,13,104,1690073,,,,,,,2023-08-18,1,,,,,ライズパートナーズ,0
1206,6011103013386,新規,0,2023-08-18,2023-08-18,合同会社ＬＩＢＲＥ,,合同会社,東京都,新宿区,西新宿３丁目３番１３号西新宿水間ビル６階,,13,104,1600023,,,,,,,2023-08-18,1,,,,,リブレ,0
1213,6011801042901,新規,0,2023-08-18,2023-08-18,株式会社ＣＬＥＡＮＬＩＦＥ　ＣＲＥＡＴＥ,,株式会社,東京都,足立区,綾瀬２丁目２４番５号,,13,121,1200005,,,,,,,2023-08-18,1,,,,,クリーンライフクリエイト,0
1215,6012701017803,新規,0,2023-08-18,2023-08-18,株式会社ウェルネス・ブロッサムズ,,株式会社,東京都,東村山市,秋津町３丁目１２番地３,,13,213,1890001,,,,,,,2023-08-18,1,,,,,ウェルネスブロッサムズ,0
1223,6013303006764,新規,0,2023-08-18,2023-08-18,合同会社Ｏｓｓｏｂａ,,合同会社,東京都,豊島区,目白２丁目１６番２３号エターニア目白１００１号,,13,116,1710031,,,,,,,2023-08-18,1,,,,,オソバ,0
1237,6020001153054,新規,0,2023-08-18,2023-08-18,株式会社Ｍ＆Ｓ,,株式会社,神奈川県,横浜市磯子区,森６丁目１６番３－２０２号,,14,107,2350023,,,,,,,2023-08-18,1,,,,,エムアンドエス,0
1238,6020001153062,新規,0,2023-08-18,2023-08-18,株式会社ＮＥＸＴ,,株式会社,神奈川県,横浜市鶴見区,市場富士見町１番１２―４０３号,,14,101,2300026,,,,,,,2023-08-18,1,,,,,ネクスト,0
1239,6020001153070,新規,0,2023-08-18,2023-08-18,株式会社アルファ,,株式会社,神奈川県,横浜市西区,西前町２丁目４５番地２,,14,103,2200052,,,,,,,2023-08-18,1,,,,,アルファ,0
1240,6020001153095,新規,0,2023-08-18,2023-08-18,株式会社ＭＡＲＫ‐ＩＮ,,株式会社,神奈川県,横浜市港南区,芹が谷４丁目９－８番地,,14,111,2330006,,,,,,,2023-08-18,1,,,,,マークイン,0
1251,6021001079958,新規,0,2023-08-18,2023-08-18,株式会社ＦＩＮＤ　ＶＡＬＵＥ,,株式会社,神奈川県,横須賀市,小川町１０番地１バウス横須賀中央１１０１,,14,201,2380004,,,,,,,2023-08-18,1,,,,,ファインドバリュー,0
1252,6021001079966,新規,0,2023-08-18,2023-08-18,ソナタ株式会社,,株式会社,神奈川県,海老名市,扇町１２番２８号エースフォレスト２Ｆ、３Ｆ,,14,215,2430436,,,,,,,2023-08-18,1,,,,,ソナタ,0
1266,6030003022413,新規,0,2023-08-18,2023-08-18,合同会社アクエスト,,合同会社,埼玉県,さいたま市岩槻区,南平野１丁目３１番地７ラ・メール壱番館２０２,,11,110,3390051,,,,,,,2023-08-18,1,,,,,アクエスト,0
1275,6040001129762,新規,0,2023-08-18,2023-08-18,勝龍商事株式会社,,株式会社,千葉県,千葉市中央区,新宿１丁目１８番４号,,12,101,2600021,,,,,,,2023-08-18,1,,,,,カツリュウショウジ,0
1282,6050001053326,新規,0,2023-08-18,2023-08-18,Ｔｏｍｉ‐ｐｒｏ　ｗｏｒｋｓ株式会社,,株式会社,茨城県,龍ケ崎市,白羽１丁目７番地４２,,08,208,3010841,,,,,,,2023-08-18,1,,,,,トミプロワークス,0
1288,6070003005067,新規,0,2023-08-18,2023-08-18,合同会社ＫＵＲＥＳＡＮ,,合同会社,群馬県,太田市,東本町１７番地６,,10,205,3730026,,,,,,,2023-08-18,1,,,,,クレサン,0
1296,6090001018283,新規,0,2023-08-18,2023-08-18,株式会社月華ホールディングス,,株式会社,山梨県,山梨市,江曽原８３,,19,205,4050043,,,,,,,2023-08-18,1,,,,,ゲッカホールディングス,0
1304,6120001257316,新規,0,2023-08-18,2023-08-18,株式会社エスティーエフ,,株式会社,大阪府,大阪市淀川区,塚本２丁目１６番１３号,00131577,27,123,5320026,,,,,,,2023-08-18,1,,,,,エスティーエフ,0
1305,6120001257324,新規,0,2023-08-18,2023-08-18,株式会社自然療法研究所花音,,株式会社,大阪府,大阪市北区,東天満２丁目９番１２号ＦＬＡＴＳ東天満２０２号室,,27,127,5300044,,,,,,,2023-08-18,1,,,,,シゼンリョウホウケンキュウショカノン,0
1306,6120001257365,新規,0,2023-08-18,2023-08-18,株式会社ＤＨＤ　ＳＵＲＦ　ＪＡＰＡＮ,,株式会社,大阪府,大阪市住吉区,長居４丁目６－３０－０３,,27,120,5580003,,,,,,,2023-08-18,1,,,,,ディーエイチディーサーフジャパン,0
1307,6120001257373,新規,0,2023-08-18,2023-08-18,株式会社アットライク,,株式会社,大阪府,守口市,菊水通２丁目４番６号,,27,209,5700032,,,,,,,2023-08-18,1,,,,,アットライク,0
1308,6120001257464,新規,0,2023-08-18,2023-08-18,株式会社Ｙｏｓｈｉｄａ　Ｌｏｇｉｓｔｉｃ,,株式会社,大阪府,大阪市淀川区,十三本町１丁目７番２９号３階,,27,123,5320024,,,,,,,2023-08-18,1,,,,,ヨシダロジスティック,0
1312,6120003024739,新規,0,2023-08-18,2023-08-18,ユニサンプロ合同会社,,合同会社,大阪府,大阪市中央区,船場中央３丁目３番９号船場センタービル９号館２２１号室,,27,128,5410055,,,,,,,2023-08-18,1,,,,,ユニサンプロ,0
1314,6122001037284,新規,0,2023-08-18,2023-08-18,株式会社ｏｈａｎａ,,株式会社,大阪府,東大阪市,日下町７丁目５番９号,,27,227,5798003,,,,,,,2023-08-18,1,,,,,オハナ,0
1319,6130003008906,新規,0,2023-08-18,2023-08-18,ＧＥＮＫＩ　ＧＲＥＥＮＳ　Ｊａｐａｎ合同会社,,合同会社,京都府,京都市下京区,高辻通堀川西入富永町６７２番地堀川高辻３１０ｂｌｄｇ,,26,106,6008351,,,,,,,2023-08-18,1,,,,,ゲンキグリーンズジャパン,0
1323,6140001131270,新規,0,2023-08-18,2023-08-18,株式会社エアシスホールディングス,,株式会社,兵庫県,神戸市西区,前開南町２丁目１４番９号,,28,111,6512109,,,,,,,2023-08-18,1,,,,,エアシスホールディングス,0
1324,6140001131279,新規,0,2023-08-18,2023-08-18,株式会社富岡商店,,株式会社,兵庫県,神戸市兵庫区,切戸町８番１号,,28,105,6520847,,,,,,,2023-08-18,1,,,,,トミオカショウテン,0
1325,6140001131304,新規,0,2023-08-18,2023-08-18,おぜでん株式会社,,株式会社,兵庫県,宝塚市,売布２丁目１４番１３－６０７号,,28,214,6650852,,,,,,,2023-08-18,1,,,,,オゼデン,0
1328,6140003019431,新規,0,2023-08-18,2023-08-18,合同会社ＡＰＰＲＩＳＥ,,合同会社,兵庫県,尼崎市,猪名寺２丁目６番２５－７０３号,,28,202,6610981,,,,,,,2023-08-18,1,,,,,アップライズ,0
1329,6140003019448,新規,0,2023-08-18,2023-08-18,合同会社ＮＥＸＩＡ,,合同会社,兵庫県,姫路市,飾磨区中島３０７５番地１,,28,201,6728035,,,,,,,2023-08-18,1,,,,,ネクシア,0
1330,6140003019456,新規,0,2023-08-18,2023-08-18,合同会社イポスアセットマネジメント,,合同会社,兵庫県,神戸市北区,山田町原野字天神１９,,28,109,6511252,,,,,,,2023-08-18,1,,,,,イポスアセットマネジメント,0
1333,6150003003038,新規,0,2023-08-18,2023-08-18,合同会社７１４,,合同会社,奈良県,奈良市,西木辻町１１９番地の４朝日プラザアーバネート奈良４０１号,00131580,29,201,6308325,,,,,,,2023-08-18,1,,,,,ナナイチヨン,0
1334,6160001025272,新規,0,2023-08-18,2023-08-18,株式会社ＹＭＩＴホールディングス,,株式会社,滋賀県,野洲市,吉地６２８番地,,25,210,5202413,,,,,,,2023-08-18,1,,,,,ワイミットホールディングス,0
1337,6180001157709,新規,0,2023-08-18,2023-08-18,株式会社ＰＴＰ,,株式会社,愛知県,名古屋市瑞穂区,中山町１丁目１９番地の４,,23,108,4670803,,,,,,,2023-08-18,1,,,,,ピーティーピー,0
1348,6240001062019,新規,0,2023-08-18,2023-08-18,ＦＬＹＩＮＧ　ＳＯＵＴＨ　ＧＲＯＵＰ株式会社,,株式会社,広島県,広島市中区,大手町２丁目８番４号,,34,101,7300051,,,,,,,2023-08-18,1,,,,,フライングサウスグループ,0
1354,6250005008850,新規,0,2023-08-18,2023-08-18,一般社団法人ｅスポーツ下関ＪＡＰＡＮ推進協会,,その他の設立登記法人,山口県,下関市,上新地町１丁目７番１６号,,35,201,7500061,,,,,,,2023-08-18,1,,,,,イースポーツシモノセキジャパンスイシンキョウカイ,0
1360,6290001102736,新規,0,2023-08-18,2023-08-18,株式会社Ｆｏｒ’Ｍ,,株式会社,福岡県,福岡市中央区,天神１丁目１番１号アクロス福岡１階,,40,133,8100001,,,,,,,2023-08-18,1,,,,,フォーム,0
1362,6290003014252,新規,0,2023-08-18,2023-08-18,合同会社Ｄｏｌｃｅ,,合同会社,福岡県,福岡市東区,馬出５丁目２３番１６－８０２号,,40,131,8120054,,,,,,,2023-08-18,1,,,,,ドルチェ,0
1370,6330001031162,新規,0,2023-08-18,2023-08-18,株式会社レベルン,,株式会社,熊本県,八代郡氷川町,宮原栄久９９,,43,468,8694608,,,,,,,2023-08-18,1,,,,,レベルン,0
1372,6350003004420,新規,0,2023-08-18,2023-08-18,ノグチプランニング合同会社,,合同会社,宮崎県,北諸県郡三股町,大字宮村２７８８番地４,,45,341,8891912,,,,,,,2023-08-18,1,,,,,ノグチプランニング,0
1373,6360001032430,新規,0,2023-08-18,2023-08-18,Ｍｏｒｉ　ｅｓｔａｔｅ株式会社,,株式会社,沖縄県,中頭郡読谷村,字伊良皆６５８番地５シャトレモリ２０６号室,,47,324,9040303,,,,,,,2023-08-18,1,,,,,モリエステート,0
1391,6430001089752,新規,0,2023-08-18,2023-08-18,株式会社リベルテ,,株式会社,北海道,苫小牧市,拓勇東町２丁目１番３４号,,01,213,0591303,,,,,,,2023-08-18,1,,,,,リベルテ,0
1395,6700150119035,新規,0,2023-08-18,2023-08-18,Ｓｈａｎｇｈａｉ　Ｗｉｓｄｏｍ　Ｎｅｗ　Ｃｏｎｓｕｌｔｉｎｇ　Ｃｏ．，Ｌｔｄ,,外国会社等,,,,,,,,ｊｉｎｄｕ　ｒｏａｄ　Ｎｏ．４２９９　６ｚｈｕａｎｇ　２ｆｌｏｏｒ　Ｒｏｏｍ　Ａ４０　ｍｉｎｇｈａｎ　ｄｉｓｔｒｉｃｔ　ｓｈａｎｇｈａｉ,,,,,,2023-08-18,1,,,,,シャンハイジーインチーイエグワンリーズーシンヨウシエンゴンスー,0
1404,7010001237765,新規,0,2023-08-18,2023-08-18,株式会社異次元,,株式会社,東京都,中央区,月島１丁目１８番９号,,13,102,1040052,,,,,,,2023-08-18,1,,,,,イジゲン,0
1407,7010003041422,新規,0,2023-08-18,2023-08-18,アシスト合同会社,,合同会社,東京都,千代田区,神田和泉町１番地６－１６ヤマトビル４０５,,13,101,1010024,,,,,,,2023-08-18,1,,,,,アシスト,0
1408,7010003041430,新規,0,2023-08-18,2023-08-18,Ｇ‐ＦＡＳホールディングス合同会社,,合同会社,東京都,中央区,京橋３丁目６番１８号,,13,102,1040031,,,,,,,2023-08-18,1,,,,,ジーファズホールディングス,0
1414,7010403030727,新規,0,2023-08-18,2023-08-18,合同会社ゴールドＩ７,,合同会社,東京都,港区,虎ノ門３丁目２２番１０－２０１号,,13,103,1050001,,,,,,,2023-08-18,1,,,,,ゴールドアイセブン,0
1415,7010403030735,新規,0,2023-08-18,2023-08-18,イールドビジネスデザイン合同会社,,合同会社,東京都,港区,北青山１丁目３番１号アールキューブ青山３階,,13,103,1070061,,,,,,,2023-08-18,1,,,,,イールドビジネスデザイン,0
1417,7010405022417,新規,0,2023-08-18,2023-08-18,聖岳一般社団法人,,その他の設立登記法人,東京都,港区,北青山１丁目２番３号,,13,103,1070061,,,,,,,2023-08-18,1,,,,,ヒジリタケ,0
1418,7010405022425,新規,0,2023-08-18,2023-08-18,一般社団法人コリビングワン,,その他の設立登記法人,東京都,港区,元赤坂１丁目１番７－８０７号,,13,103,1070051,,,,,,,2023-08-18,1,,,,,コリビングワン,0
1419,7010501050924,新規,0,2023-08-18,2023-08-18,ＹＩＴＯＡオーロラマイクロテクノロジー株式会社,,株式会社,東京都,台東区,台東１丁目２４番９号ブライト秋葉原Ｂ１Ｆ,,13,106,1100016,,,,,,,2023-08-18,1,,,,,イトアオーロラマイクロテクノロジー,0
1430,7011001156303,新規,0,2023-08-18,2023-08-18,株式会社円谷アマ,,株式会社,東京都,渋谷区,渋谷２丁目１９－１５宮益坂ビルディング６０９,,13,113,1500002,,,,,,,2023-08-18,1,,,,,ツブラヤアマ,0
1431,7011001156393,新規,0,2023-08-18,2023-08-18,株式会社ＳＰＥＸ,,株式会社,東京都,渋谷区,東２丁目１４番２２号アルバフラッツ１０２,,13,113,1500011,,,,,,,2023-08-18,1,,,,,スペックス,0
1435,7011103013385,新規,0,2023-08-18,2023-08-18,テイラー・ギターズ・ジャパン合同会社,,合同会社,東京都,新宿区,西新宿３丁目７番１号新宿パークタワー３０階,,13,104,1600023,,,,,,,2023-08-18,1,,,,,テイラーギターズジャパン,0
1438,7011403004084,新規,0,2023-08-18,2023-08-18,ブリリオ合同会社,,合同会社,東京都,板橋区,大山金井町５３番７号,,13,119,1730024,,,,,,,2023-08-18,1,,,,,,0
1440,7011501029636,新規,0,2023-08-18,2023-08-18,ＭｕｓｉＸ株式会社,,株式会社,東京都,荒川区,町屋３丁目１－１３－５Ｆ,,13,118,1160001,,,,,,,2023-08-18,1,,,,,ミュージクス,0
1441,7011603004025,新規,0,2023-08-18,2023-08-18,ミュージック・エトワール合同会社,,合同会社,東京都,練馬区,石神井町３丁目９番１２号日興ロイヤルパレス石神井公園１０２,,13,120,1770041,,,,,,,2023-08-18,1,,,,,ミュージックエトワール,0
1445,7011801042891,新規,0,2023-08-18,2023-08-18,株式会社Ｅｘ‐Ｄｅｎｔａ,,株式会社,東京都,葛飾区,宝町２丁目３０番５号,,13,122,1240005,,,,,,,2023-08-18,1,,,,,エクスデンタ,0
1449,7013303006763,新規,0,2023-08-18,2023-08-18,合同会社ぼんじり,,合同会社,東京都,豊島区,東池袋２丁目５６－３,,13,116,1700013,,,,,,,2023-08-18,1,,,,,ボンジリ,0
1458,7020003024401,新規,0,2023-08-18,2023-08-18,フルマックス合同会社,,合同会社,神奈川県,川崎市多摩区,東生田３丁目６－１４,,14,135,2140031,,,,,,,2023-08-18,1,,,,,フルマックス,0
1460,7020005016090,新規,0,2023-08-18,2023-08-18,一般社団法人マイスタースタイリスト協会,,その他の設立登記法人,神奈川県,横浜市西区,高島２丁目１１－２スカイメナー横浜ビル６２０,,14,103,2200011,,,,,,,2023-08-18,1,,,,,マイスタースタイリストキョウカイ,0
1461,7021001079924,新規,0,2023-08-18,2023-08-18,モデストツアーズ株式会社,,株式会社,神奈川県,座間市,栗原１２９４－１,,14,216,2520013,,,,,,,2023-08-18,1,,,,,モデストツアーズ,0
1462,7021001079940,新規,0,2023-08-18,2023-08-18,株式会社ｍｉ‐ｃｈｉ　ＬａＢｏ,,株式会社,神奈川県,秦野市,松原町３番２号,,14,211,2591313,,,,,,,2023-08-18,1,,,,,ミーチラボ,0
1463,7021001079981,新規,0,2023-08-18,2023-08-18,株式会社ピース湘南,,株式会社,神奈川県,茅ヶ崎市,芹沢１６６番地,,14,207,2530008,,,,,,,2023-08-18,1,,,,,ピースショウナン,0
1466,7021003013410,新規,0,2023-08-18,2023-08-18,合同会社白南風,,合同会社,神奈川県,大和市,下鶴間１７９９番地８,,14,213,2420001,,,,,,,2023-08-18,1,,,,,シラハエ,0
1476,7030001155313,新規,0,2023-08-18,2023-08-18,株式会社シーモアグラス,,株式会社,埼玉県,越谷市,赤山本町３番地２４ライオンズグローベル越谷ステーションプラザ１２０１号,,11,222,3430808,,,,,,,2023-08-18,1,,,,,シーモアグラス,0
1477,7030001155362,新規,0,2023-08-18,2023-08-18,株式会社永豊コーポレーション,,株式会社,埼玉県,ふじみ野市,上福岡１丁目１５番１８号８０１,,11,245,3560004,,,,,,,2023-08-18,1,,,,,エイホウコーポレーション,0
1478,7030001155577,新規,0,2023-08-18,2023-08-18,株式会社天翔,,株式会社,埼玉県,鶴ヶ島市,大字脚折１３９６番地２４,,11,241,3502213,,,,,,,2023-08-18,1,,,,,テンショウ,0
1480,7030003022305,新規,0,2023-08-18,2023-08-18,合同会社ヤーシン工芸,,合同会社,埼玉県,新座市,野寺２丁目５番５５号,,11,230,3520034,,,,,,,2023-08-18,1,,,,,ヤーシンコウゲイ,0
1495,7050001053325,新規,0,2023-08-18,2023-08-18,株式会社ＮＯＲＴＨ　ＯＮＥ,,株式会社,茨城県,龍ケ崎市,半田町１２７２番地１,,08,208,3010806,,,,,,,2023-08-18,1,,,,,ノースワン,0
1497,7050003007733,新規,0,2023-08-18,2023-08-18,合同会社ＺＺＺ,,合同会社,茨城県,古河市,上大野７０６番地２２,,08,204,3060201,,,,,,,2023-08-18,1,,,,,ズーズーズー,0
1505,7110001037775,新規,0,2023-08-18,2023-08-18,株式会社銀山通商,,株式会社,新潟県,上越市,柿崎区百木４６４番地,,15,222,9493241,,,,,,,2023-08-18,1,,,,,ギンサンツウショウ,0
1513,7120001257406,新規,0,2023-08-18,2023-08-18,株式会社アイリスフロンティア,,株式会社,大阪府,大阪市西区,西本町１丁目２番１号,,27,106,5500005,,,,,,,2023-08-18,1,,,,,アイリスフロンティア,0
1514,7120001257455,新規,0,2023-08-18,2023-08-18,株式会社ＲＥＣ　ＯＮＥ,,株式会社,大阪府,大阪市浪速区,大国２丁目７番１９号２Ｆ,,27,111,5560014,,,,,,,2023-08-18,1,,,,,レクワン,0
1518,7120003024738,新規,0,2023-08-18,2023-08-18,アドベンチャーランドＤＥＶ合同会社,,合同会社,大阪府,大阪市北区,西天満６丁目２番１４号マッセ梅田ビル２号館７０７号,,27,127,5300047,,,,,,,2023-08-18,1,,,,,アドベンチャーランドディーイーブイ,0
1525,7120101068083,新規,0,2023-08-18,2023-08-18,株式会社ＯＫ　Ｃｏｍｐｕｔｅｒ,,株式会社,大阪府,堺市南区,三原台２丁７－２９,,27,145,5900111,,,,,,,2023-08-18,1,,,,,オーケーコンピューター,0
1531,7130003008913,新規,0,2023-08-18,2023-08-18,合同会社イノサポ,,合同会社,京都府,京都市中京区,御池通東洞院東入笹屋町４３６永和御池ビル６０６号,,26,104,6048187,,,,,,,2023-08-18,1,,,,,イノサポ,0
1533,7140001131303,新規,0,2023-08-18,2023-08-18,株式会社カーム,,株式会社,兵庫県,赤穂市,東有年２１４番地,,28,212,6781185,,,,,,,2023-08-18,1,,,,,カーム,0
1534,7140003019439,新規,0,2023-08-18,2023-08-18,合同会社ｅｔｔ,,合同会社,兵庫県,姫路市,駅前町２７７番地２,,28,201,6700927,,,,,,,2023-08-18,1,,,,,エット,0
1535,7140003019447,新規,0,2023-08-18,2023-08-18,合同会社コンサル下田,,合同会社,兵庫県,川西市,清和台西５丁目２番地の７６,,28,217,6660143,,,,,,,2023-08-18,1,,,,,コンサルシモダ,0
1536,7150003003037,新規,0,2023-08-18,2023-08-18,合同会社Ｅｉｇｈｔ　Ｏｎｅ,,合同会社,奈良県,葛城市,寺口１６６１番地１５,,29,211,6392135,,,,,,,2023-08-18,1,,,,,エイトワン,0
1568,7290001102727,新規,0,2023-08-18,2023-08-18,株式会社ＴＲＡＮＯＩ,,株式会社,福岡県,福岡市博多区,那珂４丁目１４番２８号,,40,132,8120893,,,,,,,2023-08-18,1,,,,,トラノイ,0
1590,7360001032438,新規,0,2023-08-18,2023-08-18,ミニマル不動産株式会社,,株式会社,沖縄県,宮古島市,下地字来間１９番地,,47,214,9060306,,,,,,,2023-08-18,1,,,,,ミニマルフドウサン,0
1592,7370003006216,新規,0,2023-08-18,2023-08-18,合同会社ＲＡＳ,,合同会社,宮城県,仙台市青葉区,堤町３丁目１５番１１号ウインディヒルズ堤２０６,,04,101,9810912,,,,,,,2023-08-18,1,,,,,ラース,0
1596,7390001017353,新規,0,2023-08-18,2023-08-18,株式会社Ｑｕａｌｉｔｙ,,株式会社,山形県,山形市,香澄町１丁目７番８号山口ビル１階,,06,201,9900039,,,,,,,2023-08-18,1,,,,,クオリティー,0
1600,7430001089801,新規,0,2023-08-18,2023-08-18,株式会社ばーがんでぃ,,株式会社,北海道,岩見沢市,幌向南二条５丁目３９２番地６５,,01,210,0690372,,,,,,,2023-08-18,1,,,,,バーガンディ,0
1603,7430005014755,新規,0,2023-08-18,2023-08-18,サポートアンドエール税理士法人,,その他の設立登記法人,北海道,札幌市中央区,北三条西２８丁目１番１６－２０１号,,01,101,0640823,,,,,,,2023-08-18,1,,,,,サポートアンドエール,0
1605,7440005002759,新規,0,2023-08-18,2023-08-18,一般財団法人江口記念財団,,その他の設立登記法人,北海道,函館市,末広町７番１３号,,01,202,0400053,,,,,,,2023-08-18,1,,,,,エグチキネンザイダン,0
1612,7500003003083,新規,0,2023-08-18,2023-08-18,合同会社るみしすてむ,,合同会社,愛媛県,松山市,高岡町２８４番地１６,,38,201,7918036,,,,,,,2023-08-18,1,,,,,ルミシステム,0
1614,7700150118572,新規,0,2023-08-18,2023-08-18,Ｇｌｏｒｉｏｕｓ　Ｔｅｃｈｎｏｌｏｇｙ　Ｂｌｉｔｚ　＆　Ｓｏｕｒｃｉｎｇ　Ｌｉｍｉｔｅｄ,,外国会社等,,,,,,,,ＦＬＡＴ　Ｂ５　１／Ｆ　ＭＡＮＮＩＮＧ　ＩＮＤ．ＢＵＩＬＤＩＮＧ　１１６－１１８　ＨＯＷ　ＭＩＮＧ．Ｈｏｎｇ　Ｋｏｎｇ,,,,,,2023-08-18,1,,,,,グロリアステクノロジーブリッツアンドソーシングリミテツド,0
1615,7700150119034,新規,0,2023-08-18,2023-08-18,ｂｅｉｊｉｎｇｍｕｘｉｎｇｃｈｅｎｙｅｓｈａｎｇｍａｏｙｏｕｘｉａｎｇｏｎｇｓｉ,,外国会社等,,,,,,,,ｂｅｉｊｉｎｇ　ｓｈｉ　ｃｈａｏ　ｙａｎｇ　ｑｕ　ｄｏｎｇ　ｂａ　ｘｉａｎｇ　ｄｏｎｇ　ｘｉａｏ　ｊｉｎｇ　ｃｈａｎ　ｙｅ　ｙｕａｎ　２０５　ｈａｏ　Ｃ　ｑｕ　ｙｉ　ｃｅｎｇ　２９３６,,,,,,2023-08-18,1,,,,,ベイジンモクセイシンギョウショウボウユウゲンコウシ,0
1621,8010001237806,新規,0,2023-08-18,2023-08-18,ガブリエラハーストジャパン株式会社,,株式会社,東京都,千代田区,麹町４丁目１番地麹町ダイヤモンドビル,,13,101,1020083,,,,,,,2023-08-18,1,,,,,ガブリエラハーストジャパン,0
1622,8010001237814,新規,0,2023-08-18,2023-08-18,株式会社デカベル,,株式会社,東京都,文京区,本郷３丁目３８番１０号さかえビル２階,,13,105,1130033,,,,,,,2023-08-18,1,,,,,デカベル,0
1632,8010401176389,新規,0,2023-08-18,2023-08-18,磐石株式会社,,株式会社,東京都,港区,南青山３丁目８番４０号青山センタービル２０４,,13,103,1070062,,,,,,,2023-08-18,1,,,,,バンジャク,0
1633,8010401176570,新規,0,2023-08-18,2023-08-18,株式会社シロッコリー,,株式会社,東京都,港区,北青山１丁目３番１号アールキューブ青山３階,,13,103,1070061,,,,,,,2023-08-18,1,,,,,シロッコリー,0
1639,8010403030726,新規,0,2023-08-18,2023-08-18,Ｌｅａｄｅｒｓｈｉｐ　Ｃｉｒｃｌｅ合同会社,,合同会社,東京都,港区,赤坂２丁目２３番１号アークヒルズ・フロントタワーＩｎＣｏｎｔｒｏｌ内,,13,103,1070052,,,,,,,2023-08-18,1,,,,,リーダーシップサークル,0
1640,8010405022358,新規,0,2023-08-18,2023-08-18,麻布台ナショナルコート管理組合法人,,その他の設立登記法人,東京都,港区,元麻布３丁目４番４１号,,13,103,1060046,,,,,,,2023-08-18,1,,,,,アザブダイナショナルコート,0
1641,8010405022424,新規,0,2023-08-18,2023-08-18,一般社団法人こだま,,その他の設立登記法人,東京都,港区,西新橋１丁目２番９号メンターキャピタル税理士法人内,,13,103,1050003,,,,,,,2023-08-18,1,,,,,コダマ,0
1653,8011001156434,新規,0,2023-08-18,2023-08-18,昇時株式会社,,株式会社,東京都,渋谷区,千駄ヶ谷２丁目３８番１－２Ｆ,,13,113,1510051,,,,,,,2023-08-18,1,,,,,ショウジ,0
1654,8011001156450,新規,0,2023-08-18,2023-08-18,サルファトロン株式会社,,株式会社,東京都,渋谷区,代々木４丁目２７番２６号ベルテ西参道４１１,,13,113,1510053,,,,,,,2023-08-18,1,,,,,サルファトロン,0
1655,8011003017337,新規,0,2023-08-18,2023-08-18,合同会社ホワイトバイオレット,,合同会社,東京都,渋谷区,道玄坂１丁目１０番８号渋谷道玄坂東急ビル２Ｆ－Ｃ,,13,113,1500043,,,,,,,2023-08-18,1,,,,,ホワイトバイオレット,0
1656,8011003017353,新規,0,2023-08-18,2023-08-18,合同会社Ｔ３,,合同会社,東京都,目黒区,五本木２丁目９－５,,13,110,1530053,,,,,,,2023-08-18,1,,,,,ティスリー,0
1657,8011005010182,新規,0,2023-08-18,2023-08-18,一般社団法人ＡＺ会,,その他の設立登記法人,東京都,渋谷区,恵比寿西１丁目１５番６号ＴＨＥＥＤＧＥ６階,,13,113,1500021,,,,,,,2023-08-18,1,,,,,エーゼットカイ,0
1660,8011101104037,新規,0,2023-08-18,2023-08-18,株式会社ファンドＡＤ,,株式会社,東京都,新宿区,西新宿５丁目１－１,,13,104,1600023,,,,,,,2023-08-18,1,,,,,ファンドエーディー,0
1661,8011101104053,新規,0,2023-08-18,2023-08-18,株式会社セドラス,,株式会社,東京都,新宿区,早稲田鶴巻町５５８番地,,13,104,1620041,,,,,,,2023-08-18,1,,,,,セドラス,0
1665,8011301028944,新規,0,2023-08-18,2023-08-18,株式会社ＢＩＯＤ,,株式会社,東京都,杉並区,天沼２丁目１１番１９号ＯｇｉｋｕｂｏＴｅｒｒａｃｅＢ１０２,,13,115,1670032,,,,,,,2023-08-18,1,,,,,ビオド,0
1666,8011303004877,新規,0,2023-08-18,2023-08-18,合同会社フィロスジャパン,,合同会社,東京都,杉並区,西荻北５丁目１－５－４０６号アクシア西荻窪,,13,115,1670042,,,,,,,2023-08-18,1,,,,,,0
1670,8011501029668,新規,0,2023-08-18,2023-08-18,東京華洋株式会社,,株式会社,東京都,北区,東田端２丁目９番１７－２１７号,,13,117,1140013,,,,,,,2023-08-18,1,,,,,トウキョウカヨウ,0
1674,8011701026531,新規,0,2023-08-18,2023-08-18,江戸ビジネス株式会社,,株式会社,東京都,江戸川区,北小岩８丁目５番９号,,13,123,1330051,,,,,,,2023-08-18,1,,,,,エドビジネス,0
1679,8013303006762,新規,0,2023-08-18,2023-08-18,バックラブ合同会社,,合同会社,東京都,豊島区,東池袋１丁目３４番地５号いちご東池袋ビル６Ｆ,,13,116,1700013,,,,,,,2023-08-18,1,,,,,バックラブ,0
1683,8020001153028,新規,0,2023-08-18,2023-08-18,株式会社羽月工業,,株式会社,神奈川県,横浜市西区,西戸部町２丁目２３６番地１５,,14,103,2200046,,,,,,,2023-08-18,1,,,,,ハツキコウギョウ,0
1690,8021001079964,新規,0,2023-08-18,2023-08-18,株式会社ＥｐｉｃＦｏｒｉｓ,,株式会社,神奈川県,相模原市南区,当麻２３９１番地１７,,14,153,2520336,,,,,,,2023-08-18,1,,,,,エピックフォリス,0
1691,8021001079980,新規,0,2023-08-18,2023-08-18,株式会社ゼータ・キャピタル,,株式会社,神奈川県,逗子市,桜山６丁目１２番９号,,14,208,2490005,,,,,,,2023-08-18,1,,,,,ゼータキャピタル,0
1695,8021003013434,新規,0,2023-08-18,2023-08-18,ＴＯＭＥＩ合同会社,,合同会社,神奈川県,藤沢市,石川３丁目８－６,,14,205,2520815,,,,,,,2023-08-18,1,,,,,トウメイ,0
1696,8021003013467,新規,0,2023-08-18,2023-08-18,ＮＩＮＥ　ＨＯＭＥＳ合同会社,,合同会社,神奈川県,鎌倉市,七里ガ浜２丁目１６番１１号－２,,14,204,2480026,,,,,,,2023-08-18,1,,,,,ナインホームズ,0
1700,8030001155452,新規,0,2023-08-18,2023-08-18,株式会社ＭＬＳ,,株式会社,埼玉県,川口市,大字安行原１５８３番地の１６,,11,203,3340057,,,,,,,2023-08-18,1,,,,,エムエルエス,0
1707,8030003022262,新規,0,2023-08-18,2023-08-18,合同会社スタジオサーリ,,合同会社,埼玉県,南埼玉郡宮代町,本田１丁目６番３３号,,11,442,3450827,,,,,,,2023-08-18,1,,,,,スタジオサーリ,0
1708,8030003022287,新規,0,2023-08-18,2023-08-18,合同会社遠藤建築事務所,,合同会社,埼玉県,さいたま市南区,南浦和１丁目９番１２号,,11,108,3360017,,,,,,,2023-08-18,1,,,,,エンドウケンチクジムショ,0
1709,8030003022312,新規,0,2023-08-18,2023-08-18,合同会社６６,,合同会社,埼玉県,さいたま市緑区,美園３丁目１８番地９クラルテＡ棟１０１号,,11,109,3360967,,,,,,,2023-08-18,1,,,,,ロクロク,0
1718,8040001129752,新規,0,2023-08-18,2023-08-18,株式会社ＭＥＷ,,株式会社,千葉県,市川市,八幡２丁目７番３号,,12,203,2720021,,,,,,,2023-08-18,1,,,,,ミュー,0
1719,8040001129760,新規,0,2023-08-18,2023-08-18,リバースエナジーパートナー株式会社,,株式会社,千葉県,四街道市,四街道１４７４番地２４,,12,228,2840005,,,,,,,2023-08-18,1,,,,,リバースエナジーパートナー,0
1724,8040003023128,新規,0,2023-08-18,2023-08-18,合同会社みらいくホーム,,合同会社,千葉県,旭市,井戸野字古屋１３４４番１,,12,215,2892531,,,,,,,2023-08-18,1,,,,,ミライクホーム,0
1734,8070001040741,新規,0,2023-08-18,2023-08-18,株式会社ｒａｆｆｉａｇｅ,,株式会社,群馬県,高崎市,飯塚町７６１番地４,,10,202,3700069,,,,,,,2023-08-18,1,,,,,ラフィアージュ,0
1735,8070005010162,新規,0,2023-08-18,2023-08-18,亜細亜サステナブルビジネス協同組合,,その他の設立登記法人,群馬県,利根郡川場村,大字川場湯原２０１１番地,,10,444,3780102,,,,,,,2023-08-18,1,,,,,,0
1738,8090001018281,新規,0,2023-08-18,2023-08-18,ｉＰＣＬＩＮＫ株式会社,,株式会社,山梨県,甲府市,幸町１３番２０号ラブリハイツ幸町４０７,,19,201,4000857,,,,,,,2023-08-18,1,,,,,アイピーシーリンク,0
1742,8100003007149,新規,0,2023-08-18,2023-08-18,のりくら小水力発電合同会社,,合同会社,長野県,松本市,安曇２６１３－１,,20,202,3901520,,,,,,,2023-08-18,1,,,,,ノリクラショウスイリョクハツデン,0
1752,8120001257264,新規,0,2023-08-18,2023-08-18,株式会社ＬｉｖｅｒＧａｔｅ,,株式会社,大阪府,大阪市中央区,南久宝寺町１丁目１０番８号クラウンハイム本町イースト３０４号,,27,128,5410058,,,,,,,2023-08-18,1,,,,,ライバーゲート,0
1753,8120001257339,新規,0,2023-08-18,2023-08-18,株式会社ＮＮＣ,,株式会社,大阪府,枚方市,香里ケ丘８丁目２２番地の１５,,27,210,5730084,,,,,,,2023-08-18,1,,,,,エヌエヌシー,0
1754,8120001257347,新規,0,2023-08-18,2023-08-18,株式会社エイトルーフ,,株式会社,大阪府,大阪市東淀川区,豊里４丁目８－１１－１０２,,27,114,5330013,,,,,,,2023-08-18,1,,,,,エイトルーフ,0
1755,8120001257355,新規,0,2023-08-18,2023-08-18,ｉｏｒｉ株式会社,,株式会社,大阪府,大阪市此花区,西九条３丁目１４番２０号２Ｆ,,27,104,5540012,,,,,,,2023-08-18,1,,,,,イオリ,0
1756,8120001257371,新規,0,2023-08-18,2023-08-18,株式会社新天地,,株式会社,大阪府,大阪市淀川区,宮原１丁目１８番１１－８０５号,,27,123,5320003,,,,,,,2023-08-18,1,,,,,シンテンチ,0
1757,8120001257421,新規,0,2023-08-18,2023-08-18,株式会社宗旦,,株式会社,大阪府,大阪市東住吉区,針中野４丁目９番２２号,,27,121,5460011,,,,,,,2023-08-18,1,,,,,ソウタン,0
1758,8120001257438,新規,0,2023-08-18,2023-08-18,株式会社ＹＭ＆ＲＣ,,株式会社,大阪府,寝屋川市,萱島南町１２番１２号,,27,215,5720825,,,,,,,2023-08-18,1,,,,,ワイエムアンドアールシー,0
1762,8120003024662,新規,0,2023-08-18,2023-08-18,合同会社ｆｏｒｅｓｔｒｏｌｌ,,合同会社,大阪府,大阪市北区,天神橋４丁目７番３０号,,27,127,5300041,,,,,,,2023-08-18,1,,,,,フォレストロール,0
1763,8120101068082,新規,0,2023-08-18,2023-08-18,株式会社Ｂｉｔｌｉｎｋｓ,,株式会社,大阪府,岸和田市,岡山町１２３８番地の２,,27,202,5960814,,,,,,,2023-08-18,1,,,,,ビットリンクス,0
1769,8130001074898,新規,0,2023-08-18,2023-08-18,株式会社フォトギルド,,株式会社,京都府,京都市山科区,大塚北溝町４０番地１０,00131578,26,110,6078134,,,,,,,2023-08-18,1,,,,,フォトギルド,0
1770,8140001131269,新規,0,2023-08-18,2023-08-18,株式会社Ｙ．Ｓプロジェクト,,株式会社,兵庫県,尼崎市,御園１丁目９番１５－２０１号,,28,202,6610984,,,,,,,2023-08-18,1,,,,,ワイエスプロジェクト,0
1771,8140001131310,新規,0,2023-08-18,2023-08-18,ＨＡＸ株式会社,,株式会社,兵庫県,姫路市,飾磨区今在家７丁目５番地アマルフィＹ１０１号,,28,201,6728079,,,,,,,2023-08-18,1,,,,,ハックス,0
1772,8140003019421,新規,0,2023-08-18,2023-08-18,合同会社ストリバー,,合同会社,兵庫県,明石市,本町２丁目２番８号４Ｆ,,28,203,6730892,,,,,,,2023-08-18,1,,,,,ストリバー,0
1773,8140003019446,新規,0,2023-08-18,2023-08-18,合同会社ｎａｎａｏ　ｏｆｆｉｃｉａｌ,,合同会社,兵庫県,揖保郡太子町,鵤１３０７番地９,,28,464,6711561,,,,,,,2023-08-18,1,,,,,ナナオオフィシャル,0
1774,8150001026658,新規,0,2023-08-18,2023-08-18,株式会社コネクトデザイン,,株式会社,奈良県,奈良市,帝塚山３丁目６番１９号,,29,201,6310062,,,,,,,2023-08-18,1,,,,,コネクトデザイン,0
1776,8150003003036,新規,0,2023-08-18,2023-08-18,三鶴合同会社,,合同会社,奈良県,奈良市,東紀寺町３丁目２番２－５０４号,,29,201,6308305,,,,,,,2023-08-18,1,,,,,ミツル,0
1778,8170005007033,新規,0,2023-08-18,2023-08-18,一般財団法人はなみずきの会,,その他の設立登記法人,和歌山県,和歌山市,小倉６４５番地,,30,201,6496261,,,,,,,2023-08-18,1,,,,,ハナミズキノカイ,0
1781,8180001157491,新規,0,2023-08-18,2023-08-18,株式会社セイユー東海,,株式会社,愛知県,知多市,八幡字向長曽９２番地の３,,23,224,4780001,,,,,,,2023-08-18,1,,,,,セイユートウカイ,0
1782,8180001157698,新規,0,2023-08-18,2023-08-18,株式会社正竜,,株式会社,愛知県,名古屋市中区,新栄１丁目４６ー４,,23,106,4600007,,,,,,,2023-08-18,1,,,,,セイリュウ,0
1783,8180001157723,新規,0,2023-08-18,2023-08-18,新日本総合出版株式会社,,株式会社,愛知県,名古屋市千種区,池下１丁目４番１７号オクト王子ビル６Ｆ,,23,101,4640067,,,,,,,2023-08-18,1,,,,,シンニホンソウゴウシュッパン,0
1804,8270001008826,新規,0,2023-08-18,2023-08-18,株式会社ＨＡＮＧＯＵＴ,,株式会社,鳥取県,米子市,法勝寺町６５番地ＨＡＲＩ内,,31,202,6830063,,,,,,,2023-08-18,1,,,,,ハングアウト,0
1810,8290001102742,新規,0,2023-08-18,2023-08-18,株式会社インテリアＳＨＯＷ,,株式会社,福岡県,太宰府市,五条２丁目６番３０号マナホームビルＩＩ２０５,00131573,40,221,8180125,,,,,,,2023-08-18,1,,,,,インテリアショウ,0
1812,8290003014259,新規,0,2023-08-18,2023-08-18,合同会社マノア,,合同会社,福岡県,春日市,一の谷５丁目４４番地,,40,218,8160852,,,,,,,2023-08-18,1,,,,,マノア,0
1815,8290805009670,新規,0,2023-08-18,2023-08-18,一般社団法人たがわ地域経済活性化センター,,その他の設立登記法人,福岡県,田川市,中央町１番１号,,40,206,8250013,,,,,,,2023-08-18,1,,,,,タガワチイキケイザイカッセイカセンター,0
1818,8330001031144,新規,0,2023-08-18,2023-08-18,株式会社中小企業経営センター,,株式会社,熊本県,熊本市中央区,水前寺６丁目３３番６号朝日ビル１Ｆ,,43,101,8620950,,,,,,,2023-08-18,1,,,,,チュウショウキギョウケイエイセンター,0
1819,8330001031169,新規,0,2023-08-18,2023-08-18,株式会社Ｎ．Ｚコーポレーション,,株式会社,熊本県,熊本市南区,出仲間８丁目２番３５号,,43,104,8620963,,,,,,,2023-08-18,1,,,,,エヌズコーポレーション,0
1827,8360003013212,新規,0,2023-08-18,2023-08-18,合同会社ＪＴＩパートナーズ,,合同会社,沖縄県,宜野湾市,嘉数２丁目１８番２０号,,47,205,9012226,,,,,,,2023-08-18,1,,,,,ジェイティアイパートナーズ,0
1831,8390001017352,新規,0,2023-08-18,2023-08-18,株式会社イデラルラボ,,株式会社,山形県,尾花沢市,大字丹生１５３８番地１,,06,212,9994213,,,,,,,2023-08-18,1,,,,,イデラルラボ,0
1833,8430001089809,新規,0,2023-08-18,2023-08-18,株式会社ＴＳＵＮＡＴＯＲＩ,,株式会社,北海道,札幌市西区,西町南５丁目１番５号,,01,107,0630062,,,,,,,2023-08-18,1,,,,,ツナトリ,0
1837,8700150119033,新規,0,2023-08-18,2023-08-18,ｓｈｅｎｚｈｅｎｓｈｉｙｉｄａｃｈｅｎｇｋｅｊｉｙｏｕｘｉａｎｇｏｎｇｓｉ,,外国会社等,,,,,,,,６０５，Ｎｏ．２１　Ｔｉａｎｘｉ　Ｒｏａｄ，Ｑｉａｎｋｅｎｇ　Ｃｏｍｍｕｎｉｔｙ，Ｆｕｃｈｅｎｇ　Ｓｔｒｅｅｔ，Ｌｏｎｇｈｕａ　Ｄｉｓｔｒｉｃｔ，Ｓｈｅｎｚｈｅｎ,,,,,,2023-08-18,1,,,,,シンセンシイチタツセイカギユウゲンコウシ,0
1859,9010405022357,新規,0,2023-08-18,2023-08-18,行人坂ホールディング２一般社団法人,,その他の設立登記法人,東京都,港区,虎ノ門３丁目２２番１０－２０１号,,13,103,1050001,,,,,,,2023-08-18,1,,,,,ギョウニンザカホールディングツー,0
1860,9010405022423,新規,0,2023-08-18,2023-08-18,ジー・エイ・ワン・レジデンス・フォー一般社団法人,,その他の設立登記法人,東京都,港区,六本木１丁目９番１０号アークヒルズ仙石山森タワー４０階,,13,103,1060032,,,,,,,2023-08-18,1,,,,,ジーエイワンレジデンスフォー,0
1872,9011001156350,新規,0,2023-08-18,2023-08-18,リヴァレント株式会社,,株式会社,東京都,渋谷区,道玄坂１丁目１０番８号渋谷道玄坂東急ビル２Ｆ－Ｃ,,13,113,1500043,,,,,,,2023-08-18,1,,,,,リヴァレント,0
1873,9011001156425,新規,0,2023-08-18,2023-08-18,株式会社ｄｏｌａｓｉｍ,,株式会社,東京都,目黒区,八雲５丁目１０番２２号グリーンヒル駒沢公園３０４,,13,110,1520023,,,,,,,2023-08-18,1,,,,,ドラシム,0
1874,9011101103962,新規,0,2023-08-18,2023-08-18,株式会社バイシード,,株式会社,東京都,新宿区,新宿２丁目５番２号・８０２,,13,104,1600022,,,,,,,2023-08-18,1,,,,,バイシード,0
1876,9011301028943,新規,0,2023-08-18,2023-08-18,テイクサイド株式会社,,株式会社,東京都,杉並区,桃井３丁目７番２‐４０３号プロムナード荻窪,,13,115,1670034,,,,,,,2023-08-18,1,,,,,テイクサイド,0
1877,9011303004876,新規,0,2023-08-18,2023-08-18,合同会社大浦プランニング,,合同会社,東京都,杉並区,阿佐谷北２丁目９番２２号,,13,115,1660001,,,,,,,2023-08-18,1,,,,,オオウラプランニング,0
1880,9011501029667,新規,0,2023-08-18,2023-08-18,株式会社東川,,株式会社,東京都,北区,中里１丁目２１番２号中里ビル１Ｆ,,13,117,1140015,,,,,,,2023-08-18,1,,,,,ヒガシカワ,0
1882,9011601027059,新規,0,2023-08-18,2023-08-18,和泓株式会社,,株式会社,東京都,練馬区,豊玉上２丁目２１番１５号,,13,120,1760011,,,,,,,2023-08-18,1,,,,,ワコウ,0
1884,9011603004023,新規,0,2023-08-18,2023-08-18,Ｙ＆Ｍ合同会社,,合同会社,東京都,練馬区,大泉町６丁目１２番６号メゾンドＴＯＫ２０２号,,13,120,1780062,,,,,,,2023-08-18,1,,,,,ワイアンドエム,0
1890,9011703003552,新規,0,2023-08-18,2023-08-18,プレシャスアウェイク合同会社,,合同会社,東京都,江戸川区,中葛西３丁目２３―２１パークサイド１０１,,13,123,1340083,,,,,,,2023-08-18,1,,,,,プレシャスアウェイク,0
1892,9011801042881,新規,0,2023-08-18,2023-08-18,株式会社ＯＫコンサルティング,,株式会社,東京都,葛飾区,金町１丁目１９番１０,,13,122,1250042,,,,,,,2023-08-18,1,,,,,オーケーコンサルティング,0
1895,9012301013563,新規,0,2023-08-18,2023-08-18,株式会社大貫企画,,株式会社,東京都,町田市,金森２丁目２７番２号,,13,209,1940012,,,,,,,2023-08-18,1,,,,,オオヌキキカク,0
1899,9012401040887,新規,0,2023-08-18,2023-08-18,株式会社ボスノミ,,株式会社,東京都,武蔵野市,吉祥寺南町１丁目２４番１０号,,13,203,1800003,,,,,,,2023-08-18,1,,,,,ボスノミ,0
1901,9013301051231,新規,0,2023-08-18,2023-08-18,株式会社アブトラル,,株式会社,東京都,豊島区,長崎６丁目２８渡荘２１４,,13,116,1710051,,,,,,,2023-08-18,1,,,,,アブトラル,0
1902,9013303006761,新規,0,2023-08-18,2023-08-18,合同会社パシャ,,合同会社,東京都,豊島区,池袋２丁目１７番８号天翔池袋西口ＡＮＮＥＸビル４１２,,13,116,1710014,,,,,,,2023-08-18,1,,,,,パシャ,0
1910,9020001153035,新規,0,2023-08-18,2023-08-18,株式会社ＷＯＲＫＳ,,株式会社,神奈川県,横浜市鶴見区,鶴見中央４丁目１６番１号折井ビル５０１,,14,101,2300051,,,,,,,2023-08-18,1,,,,,ワークス,0
1911,9020001153084,新規,0,2023-08-18,2023-08-18,パワー半導体スマートアドバイス株式会社,,株式会社,神奈川県,横浜市青葉区,美しが丘西１丁目３番地１,,14,117,2250001,,,,,,,2023-08-18,1,,,,,パワーハンドウタイスマートアドバイス,0
1918,9020003024408,新規,0,2023-08-18,2023-08-18,Ｂｌｕｅ　Ｔｒｅｅ合同会社,,合同会社,神奈川県,横浜市金沢区,朝比奈町３５３番地,,14,108,2360034,,,,,,,2023-08-18,1,,,,,ブルートゥリー,0
1920,9020005016089,新規,0,2023-08-18,2023-08-18,一般社団法人Ｃａ,,その他の設立登記法人,神奈川県,横浜市西区,北幸２丁目１０番地２８むつみビル３Ｆ,,14,103,2200004,,,,,,,2023-08-18,1,,,,,シーエー,0
1926,9021001079947,新規,0,2023-08-18,2023-08-18,株式会社ｃｏｎｎｅｃｔｉｏｎ,,株式会社,神奈川県,茅ヶ崎市,浜竹３丁目２番３３号リーヴァビル１階,,14,207,2530021,,,,,,,2023-08-18,1,,,,,コネクション,0
1927,9021001079963,新規,0,2023-08-18,2023-08-18,株式会社ニダンジャンプ,,株式会社,神奈川県,茅ヶ崎市,新栄町７番５号,,14,207,2530044,,,,,,,2023-08-18,1,,,,,ニダンジャンプ,0
1932,9021003013474,新規,0,2023-08-18,2023-08-18,ＮＡＬ合同会社,,合同会社,神奈川県,藤沢市,鵠沼藤が谷３丁目２番１８号,,14,205,2510031,,,,,,,2023-08-18,1,,,,,ナル,0
1944,9030001155303,新規,0,2023-08-18,2023-08-18,株式会社大橋塗装,,株式会社,埼玉県,朝霞市,膝折町１丁目２番３４号レインボーパークＡ棟１０５号室,,11,227,3510014,,,,,,,2023-08-18,1,,,,,オオハシトソウ,0
1952,9040001129644,新規,0,2023-08-18,2023-08-18,株式会社アレス,,株式会社,千葉県,松戸市,岩瀬６１８－２２上田ビル２Ｆ,,12,207,2710076,,,,,,,2023-08-18,1,,,,,アレス,0
1959,9040003023119,新規,0,2023-08-18,2023-08-18,合同会社ＦｒｅｅＳｔｙｌｅ,,合同会社,千葉県,船橋市,夏見台２丁目１４番１－３０５号,,12,204,2730866,,,,,,,2023-08-18,1,,,,,フリースタイル,0
1960,9040003023151,新規,0,2023-08-18,2023-08-18,龍騰合同会社,,合同会社,千葉県,八街市,大谷流４１９番地１５,,12,230,2891134,,,,,,,2023-08-18,1,,,,,リュウトウ,0
1962,9050001053323,新規,0,2023-08-18,2023-08-18,株式会社ＳＴＲ,,株式会社,茨城県,常陸大宮市,下村田２２７１番地,,08,225,3192131,,,,,,,2023-08-18,1,,,,,エスティーアール,0
1971,9060003004661,新規,0,2023-08-18,2023-08-18,ＳＵＩＪＩＮ合同会社,,合同会社,栃木県,小山市,中央町３丁目５番２０号Ａ－２０１,,09,208,3230023,,,,,,,2023-08-18,1,,,,,スイジン,0
1972,9080001025815,新規,0,2023-08-18,2023-08-18,株式会社安伊,,株式会社,静岡県,静岡市葵区,梅屋町６－４ＨＥＲＯＫＷ４０１,,22,101,4200038,,,,,,,2023-08-18,1,,,,,アンイ,0
1975,9100001036702,新規,0,2023-08-18,2023-08-18,株式会社ＳＨＩＯＪＩＲＩ　ＢＡＳＥ,,株式会社,長野県,塩尻市,大字宗賀７１番地３２０,,20,215,3996461,,,,,,,2023-08-18,1,,,,,シオジリベース,0
1984,9120001257214,新規,0,2023-08-18,2023-08-18,株式会社Ｌｕｘ,,株式会社,大阪府,大阪市北区,梅田１丁目２番２号大阪駅前第２ビル１２－１２,,27,127,5300001,,,,,,,2023-08-18,1,,,,,ルクス,0
1985,9120001257313,新規,0,2023-08-18,2023-08-18,株式会社Ａｂｉｙ,,株式会社,大阪府,大阪市北区,梅田１丁目２番２号大阪駅前第２ビル１２－１２,,27,127,5300001,,,,,,,2023-08-18,1,,,,,アビィ,0
1986,9120001257354,新規,0,2023-08-18,2023-08-18,大亭株式会社,,株式会社,大阪府,大阪市大正区,三軒家西３丁目４番１６号中山ビル１０１０,,27,108,5510001,,,,,,,2023-08-18,1,,,,,ダイテイ,0
1987,9120001257429,新規,0,2023-08-18,2023-08-18,臻綻株式会社,,株式会社,大阪府,大阪市東成区,神路４丁目３－１０スターレジデンス新深江８０２号室,,27,115,5370003,,,,,,,2023-08-18,1,,,,,シンタン,0
1988,9120001257445,新規,0,2023-08-18,2023-08-18,幸創株式会社,,株式会社,大阪府,大阪市旭区,大宮１丁目１２番６－３０１号,,27,117,5350002,,,,,,,2023-08-18,1,,,,,コウソウ,0
1990,9120003024711,新規,0,2023-08-18,2023-08-18,合同会社岡田商店,,合同会社,大阪府,大阪市東成区,神路１丁目５－１今井商事２７ビル２０２,,27,115,5370003,,,,,,,2023-08-18,1,,,,,オカダショウテン,0
1991,9120003024728,新規,0,2023-08-18,2023-08-18,合同会社ファースト,,合同会社,大阪府,大阪市西区,南堀江１丁目１２－４－５０２,,27,106,5500015,,,,,,,2023-08-18,1,,,,,ファースト,0
1992,9120005023835,新規,0,2023-08-18,2023-08-18,一般社団法人夢美会,,その他の設立登記法人,大阪府,大阪市中央区,東心斎橋１丁目１９番２０号,,27,128,5420083,,,,,,,2023-08-18,1,,,,,ユメビカイ,0
2006,9140001131177,新規,0,2023-08-18,2023-08-18,株式会社ＯＢＩ　ＰＯＲＣＥＬＡＩＮ,,株式会社,兵庫県,西宮市,神楽町１０番２７－５０４号,,28,204,6620977,,,,,,,2023-08-18,1,,,,,オビポーセリン,0
2010,9140003019387,新規,0,2023-08-18,2023-08-18,合同会社ＦｕｊｉＭｉＤａ,,合同会社,兵庫県,加古川市,加古川町篠原町１３－３加古川まるいビル１Ｆ,,28,210,6750065,,,,,,,2023-08-18,1,,,,,フジミダ,0
2011,9140005026712,新規,0,2023-08-18,2023-08-18,一般財団法人立初創成大学設立準備財団,,その他の設立登記法人,兵庫県,宝塚市,仁川高丸１丁目１６番１３号,,28,214,6650063,,,,,,,2023-08-18,1,,,,,タテゾメソウセイダイガクセツリツジュンビザイダン,0
2012,9150001026657,新規,0,2023-08-18,2023-08-18,株式会社ＩＮＦＩＮＩＴＹ,,株式会社,奈良県,北葛城郡上牧町,服部台１丁目７番２８号,,29,424,6390212,,,,,,,2023-08-18,1,,,,,インフィニティ,0
2013,9150003003035,新規,0,2023-08-18,2023-08-18,合同会社エノン,,合同会社,奈良県,大和郡山市,冠山町６番１４号,,29,203,6391018,,,,,,,2023-08-18,1,,,,,エノン,0
2015,9170005007032,新規,0,2023-08-18,2023-08-18,一般社団法人すさみキャンパス,,その他の設立登記法人,和歌山県,西牟婁郡すさみ町,周参見２３８０番地,,30,406,6492621,,,,,,,2023-08-18,1,,,,,スサミキャンパス,0
2026,9190001030671,新規,0,2023-08-18,2023-08-18,株式会社Ｍ＆Ｍ,,株式会社,三重県,津市,安濃町安濃２４５９番地７,,24,201,5142302,,,,,,,2023-08-18,1,,,,,エムアンドエム,0
2038,9280001009021,新規,0,2023-08-18,2023-08-18,株式会社オールワン,,株式会社,島根県,松江市,上東川津町１５６７番地４,,32,201,6900821,,,,,,,2023-08-18,1,,,,,オールワン,0
2040,9290001102733,新規,0,2023-08-18,2023-08-18,株式会社アイスクリエイティブ,,株式会社,福岡県,福岡市東区,箱崎７丁目３番１０－４０２号,,40,131,8120053,,,,,,,2023-08-18,1,,,,,アイスクリエイティブ,0
2041,9290003014258,新規,0,2023-08-18,2023-08-18,合同会社Ｓｎｏｗ　Ｐｌａｃｅ,,合同会社,福岡県,糟屋郡志免町,桜丘２丁目１０番６号,,40,343,8112201,,,,,,,2023-08-18,1,,,,,スノープレイス,0
2063,9360001032436,新規,0,2023-08-18,2023-08-18,株式会社Ｋｏａ,,株式会社,沖縄県,島尻郡南風原町,字宮平５０７番地４ハウスぱいかじ１０１,,47,350,9011104,,,,,,,2023-08-18,1,,,,,コア,0
2066,9380003005545,新規,0,2023-08-18,2023-08-18,合同会社エスユーバリュー,,合同会社,福島県,いわき市,平谷川瀬２丁目１３番地の７やがわせビル２０１,,07,204,9708036,,,,,,,2023-08-18,1,,,,,エスユーバリュー,0
2068,9400003003133,新規,0,2023-08-18,2023-08-18,合同会社ひかるハウス,,合同会社,岩手県,盛岡市,中央通１丁目７番３５号コアフィールドモリオカ,,03,201,0200021,,,,,,,2023-08-18,1,,,,,ヒカルハウス,0
2073,9430003015357,新規,0,2023-08-18,2023-08-18,合同会社日高ヒューマンサポート,,合同会社,北海道,浦河郡浦河町,向が丘東１丁目５３８番地の１１,,01,607,0570031,,,,,,,2023-08-18,1,,,,,ヒダカヒューマンサポート,0
2075,9470001019760,新規,0,2023-08-18,2023-08-18,パズル＆ピース株式会社,,株式会社,香川県,高松市,三名町２６２番地８,,37,201,7618083,,,,,,,2023-08-18,1,,,,,パズルアンドピース,0
2076,9480003002012,新規,0,2023-08-18,2023-08-18,エムワイジャパン合同会社,,合同会社,徳島県,徳島市,秋田町１丁目６２番地丸山ビル,,36,201,7700934,,,,,,,2023-08-18,1,,,,,エムワイジャパン,0
2078,9500001025144,新規,0,2023-08-18,2023-08-18,株式会社カツキ,,株式会社,愛媛県,西条市,小松町妙口甲７００番地６,,38,206,7991104,,,,,,,2023-08-18,1,,,,,カツキ,0
2080,9700150119032,新規,0,2023-08-18,2023-08-18,ｄｏｎｇｋｅｈｅｎｇｃｈｕａｎｇｋｅｊｉｓｈｅｎｚｈｅｎｙｏｕｘｉａｎｇｏｎｇｓｉ,,外国会社等,,,,,,,,Ｌｏｎｇｈｕａｑｕ　Ｄａｌａｎｇｊｉｅｄａｏ　Ｄａｌａｎｇｓｈｅｑｕ　Ｔａｉｓｏｎｇｇｏｎｇｙｅｑｕ　１５４ｈａｏ２０１　Ｓｈｅｎｚｈｅｎｓｈｉ　５１８１１０,,,,,,2023-08-18,1,,,,,トウカコウソウカギシンセンユウゲンコウシ,0
