sequenceNumber,corporateNumber,process,correct,updateDate,changeDate,name,nameImageId,kind,prefectureName,cityName,streetNumber,addressImageId,prefectureCode,cityCode,postCode,addressOutside,addressOutsideImageId,closeDate,closeCause,successorCorporateNumber,changeCause,assignmentDate,latest,enName,enPrefectureName,enCityName,enAddressOutside,furigana,hihyoji
12,1010003041015,新規,0,2023-07-04,2023-07-04,合同会社ドラムズＷＥ,,合同会社,東京都,千代田区,丸の内３丁目１番１号東京共同会計事務所内,,13,101,1000005,,,,,,,2023-07-04,1,,,,,ドラムズウィー,0
21,1010401175372,新規,0,2023-07-04,2023-07-04,株式会社ＭＴＮ,,株式会社,東京都,港区,南青山３丁目１番３６号青山丸竹ビル６Ｆ,,13,103,1070062,,,,,,,2023-07-04,1,,,,,エムティーエヌ,0
22,1010401175397,新規,0,2023-07-04,2023-07-04,株式会社ＰＭＣ,,株式会社,東京都,港区,南麻布５丁目１５番２号,,13,103,1060047,,,,,,,2023-07-04,1,,,,,ピーエムシー,0
23,1010401175414,新規,0,2023-07-04,2023-07-04,株式会社ＡｕＦ,,株式会社,東京都,港区,南青山３丁目１番３６号青山丸竹ビル６Ｆ,,13,103,1070062,,,,,,,2023-07-04,1,,,,,アウフ,0
26,1010403030410,新規,0,2023-07-04,2023-07-04,ＺＥＣ５合同会社,,合同会社,東京都,港区,虎ノ門３丁目２２番１０－２０１号,,13,103,1050001,,,,,,,2023-07-04,1,,,,,ゼックゴ,0
27,1010403030419,新規,0,2023-07-04,2023-07-04,Ｂｕｆｆｅｅ　Ｊａｐａｎ合同会社,,合同会社,東京都,港区,芝５丁目３６－４札の辻スクエア９Ｆ,,13,103,1080014,,,,,,,2023-07-04,1,,,,,バフィジャパン,0
29,1010505003421,新規,0,2023-07-04,2023-07-04,一般社団法人グローバル創価協会,,その他の設立登記法人,東京都,台東区,浅草橋１丁目９番１２号ＶＯＲＴ浅草橋駅前ＩＩ９階,00131054,13,106,1110053,,,,,,,2023-07-04,1,,,,,グローバルソウカキョウカイ,0
30,1010601063360,新規,0,2023-07-04,2023-07-04,万詩隆株式会社,,株式会社,東京都,墨田区,本所３丁目４番１０号・４０１,,13,107,1300004,,,,,,,2023-07-04,1,,,,,マンシリュウ,0
34,1010701044491,新規,0,2023-07-04,2023-07-04,株式会社ｎｏｕｖｅｌｌｅ　ｖａｇｕｅ,,株式会社,東京都,品川区,東五反田２丁目８番３号五反田ＡＳビル６Ｆ,,13,109,1410022,,,,,,,2023-07-04,1,,,,,ヌーヴェルヴァーグ,0
35,1010701044500,新規,0,2023-07-04,2023-07-04,シムテック株式会社,,株式会社,東京都,品川区,小山台１丁目１８番１３号小山台コーポ１０１,,13,109,1420061,,,,,,,2023-07-04,1,,,,,シムテック,0
36,1010703006754,新規,0,2023-07-04,2023-07-04,合同会社ＡＫＳ,,合同会社,東京都,品川区,南大井１丁目６番３号スカイコート品川パークサイドＩＩＩ１０１,00131046,13,109,1400013,,,,,,,2023-07-04,1,,,,,エーケーエス,0
38,1010801034112,新規,0,2023-07-04,2023-07-04,株式会社Ｌｉｔ,,株式会社,東京都,大田区,田園調布２丁目３４番３号フェルテシモ３０７,,13,111,1450071,,,,,,,2023-07-04,1,,,,,リット,0
39,1010901053318,新規,0,2023-07-04,2023-07-04,株式会社ＫＹＵＲＩ,,株式会社,東京都,世田谷区,桜２丁目１７番２２号,,13,112,1560053,,,,,,,2023-07-04,1,,,,,キュウリ,0
40,1010903008261,新規,0,2023-07-04,2023-07-04,Ｓｐｒｉｎｇ　Ｓａｋｕｒａ合同会社,,合同会社,東京都,世田谷区,上野毛４丁目１１番９号上野毛カーサ・ビアンカ１０２,,13,112,1580093,,,,,,,2023-07-04,1,,,,,スプリングサクラ,0
41,1010903008286,新規,0,2023-07-04,2023-07-04,ＭＡＮＡＫＡＭＡＮＡ合同会社,,合同会社,東京都,世田谷区,三宿２丁目１４番９号パークハイツ１０１,,13,112,1540005,,,,,,,2023-07-04,1,,,,,マナカマナ,0
44,1011001155203,新規,0,2023-07-04,2023-07-04,株式会社エーアイワークス,,株式会社,東京都,渋谷区,神宮前６丁目２３番４号桑野ビル２階,,13,113,1500001,,,,,,,2023-07-04,1,,,,,エーアイワークス,0
45,1011005010131,新規,0,2023-07-04,2023-07-04,一般社団法人日本量子コンピューティング協会,,その他の設立登記法人,東京都,渋谷区,渋谷２丁目２４番１２号渋谷スクランブルスクエア３９Ｆｂｌｕｅｑａｔ,,13,113,1500002,,,,,,,2023-07-04,1,,,,,ニホンリョウシコンピューティングキョウカイ,0
49,1011403004040,新規,0,2023-07-04,2023-07-04,合同会社ＴＨコーポレーション,,合同会社,東京都,板橋区,坂下１丁目６番８号メルヴェイユ１０２,,13,119,1740043,,,,,,,2023-07-04,1,,,,,ティエイチコーポレーション,0
50,1011501029476,新規,0,2023-07-04,2023-07-04,株式会社中石,,株式会社,東京都,北区,西ケ原１丁目２７番３－１０１号古河ガーデンマンション,,13,117,1140024,,,,,,,2023-07-04,1,,,,,チュウセキ,0
52,1011801042641,新規,0,2023-07-04,2023-07-04,株式会社ＫＤＤ,,株式会社,東京都,足立区,扇１丁目２２番４４プレシャスワン３０１号,,13,121,1230873,,,,,,,2023-07-04,1,,,,,ケーディーディー,0
58,1012401040688,新規,0,2023-07-04,2023-07-04,株式会社ＶＥＤＩＡＬＯ,,株式会社,東京都,武蔵野市,西久保２丁目３番１５号ベルクハイム４０１,,13,203,1800013,,,,,,,2023-07-04,1,,,,,ヴェディアロ,0
59,1012701017725,新規,0,2023-07-04,2023-07-04,菊池不動産グループ株式会社,,株式会社,東京都,西東京市,ひばりが丘北３丁目３番５１号ＫＡＴＵＲＡＢＬＤ８Ｆ,,13,229,2020002,,,,,,,2023-07-04,1,,,,,キクチフドウサングループ,0
60,1012703002741,新規,0,2023-07-04,2023-07-04,合同会社エスティーアール,,合同会社,東京都,西東京市,下保谷４丁目１３番２３号保谷ｓｔメディカルビル５０１,,13,229,2020004,,,,,,,2023-07-04,1,,,,,エスティーアール,0
61,1012801022484,新規,0,2023-07-04,2023-07-04,株式会社ヴェルライン,,株式会社,東京都,日野市,石田１丁目１２番地の６,,13,212,1910021,,,,,,,2023-07-04,1,,,,,ヴェルライン,0
70,1020003024150,新規,0,2023-07-04,2023-07-04,合同会社Ａｓａｈｉ,,合同会社,神奈川県,川崎市麻生区,白鳥１丁目１８番６号１,,14,137,2150024,,,,,,,2023-07-04,1,,,,,アサヒ,0
71,1020003024167,新規,0,2023-07-04,2023-07-04,合同会社ＭａｉｎｅＷｏｒｋｓ,,合同会社,神奈川県,川崎市中原区,井田杉山町２４―１,,14,133,2110036,,,,,,,2023-07-04,1,,,,,マイネワークス,0
73,1021001079450,新規,0,2023-07-04,2023-07-04,株式会社丸将,,株式会社,神奈川県,海老名市,中新田３丁目７番１号,,14,215,2430422,,,,,,,2023-07-04,1,,,,,マルマサ,0
74,1021001079459,新規,0,2023-07-04,2023-07-04,ＭＩＲＡＮ株式会社,,株式会社,神奈川県,相模原市南区,新戸５２７９番地ＳｕｎｌｉｔＨｉｌｌｓ２０２,,14,153,2520326,,,,,,,2023-07-04,1,,,,,ミラン,0
80,1030001154667,新規,0,2023-07-04,2023-07-04,株式会社ＫＵＭＡＳＡＮ,,株式会社,埼玉県,さいたま市北区,東大成町１丁目５９１番地,,11,102,3310814,,,,,,,2023-07-04,1,,,,,クマサン,0
81,1030001154675,新規,0,2023-07-04,2023-07-04,株式会社Ｓｏａｒ,,株式会社,埼玉県,さいたま市北区,東大成町１丁目６１番地２ベルピア北大宮１－１－２０４,,11,102,3310814,,,,,,,2023-07-04,1,,,,,ソア,0
87,1030003022046,新規,0,2023-07-04,2023-07-04,ハウスリノベーション合同会社,,合同会社,埼玉県,さいたま市西区,大字指扇１５２９－１－４０６,,11,101,3310047,,,,,,,2023-07-04,1,,,,,ハウスリノベーション,0
89,1030005021319,新規,0,2023-07-04,2023-07-04,一般社団法人Ｕ‐ａ‐Ｋｏｋｕａ,,その他の設立登記法人,埼玉県,比企郡鳩山町,松ヶ丘１丁目２番地４号鳩山町コミュニティマルシェ内シェアオフィス,,11,348,3500313,,,,,,,2023-07-04,1,,,,,ウーアーコクア,0
90,1040001129016,新規,0,2023-07-04,2023-07-04,株式会社２パーセント,,株式会社,千葉県,流山市,おおたかの森東１丁目５番地の１おおたかの森ファーストビル３Ｆ,,12,220,2700138,,,,,,,2023-07-04,1,,,,,ニパーセント,0
103,1080403004820,新規,0,2023-07-04,2023-07-04,合同会社ＮＡＴＵＲＥ　ＴＨＩＮＧ,,合同会社,静岡県,浜松市北区,引佐町川名４２５,,22,135,4312202,,,,,,,2023-07-04,1,,,,,ネイチャーシング,0
115,1110001037640,新規,0,2023-07-04,2023-07-04,株式会社三才,,株式会社,新潟県,長岡市,西片貝町字上ノ山１１７３番地１,,15,202,9400817,,,,,,,2023-07-04,1,,,,,サンサイ,0
120,1120001255555,新規,0,2023-07-04,2023-07-04,栄利国際株式会社,,株式会社,大阪府,大阪市中央区,島之内２丁目７番３－３６３号,,27,128,5420082,,,,,,,2023-07-04,1,,,,,エイリコクサイ,0
121,1120001256140,新規,0,2023-07-04,2023-07-04,ｍｏｎｏｌｉｔｈ株式会社,,株式会社,大阪府,門真市,元町２３番８号,,27,223,5710057,,,,,,,2023-07-04,1,,,,,モノリス,0
129,1122003002621,新規,0,2023-07-04,2023-07-04,合同会社ＫＲＮ,,合同会社,大阪府,八尾市,南太子堂６丁目１－１５,,27,212,5810056,,,,,,,2023-07-04,1,,,,,ケーアールエヌ,0
143,1140003019155,新規,0,2023-07-04,2023-07-04,合同会社ＷＩＮＤ,,合同会社,兵庫県,西宮市,松下町５番２３号,,28,204,6620962,,,,,,,2023-07-04,1,,,,,ウインド,0
144,1140003019262,新規,0,2023-07-04,2023-07-04,合同会社ルールブルー,,合同会社,兵庫県,神戸市中央区,磯辺通１丁目１番１８号カサベラ国際プラザビル７０７号室,,28,110,6510084,,,,,,,2023-07-04,1,,,,,ルールブルー,0
145,1140005026678,新規,0,2023-07-04,2023-07-04,司法書士法人梅谷事務所,,その他の設立登記法人,兵庫県,高砂市,春日野町５番３号,,28,216,6760814,,,,,,,2023-07-04,1,,,,,ウメタニジムショ,0
146,1160001025137,新規,0,2023-07-04,2023-07-04,株式会社モリヤマアセットマネジメント,,株式会社,滋賀県,守山市,焔魔堂町２３３番地１,,25,207,5240042,,,,,,,2023-07-04,1,,,,,モリヤマアセットマネジメント,0
154,1180001156913,新規,0,2023-07-04,2023-07-04,株式会社ＩｒｏＤｏｒｉ,,株式会社,愛知県,名古屋市中区,新栄２丁目１４番１６号第８１プロスパービル２０３,,23,106,4600007,,,,,,,2023-07-04,1,,,,,イロドリ,0
155,1180001156921,新規,0,2023-07-04,2023-07-04,株式会社Ｓ・Ｒ,,株式会社,愛知県,名古屋市中村区,下米野町１丁目４番地の１ハニーハイツ１階Ａ号,,23,105,4530802,,,,,,,2023-07-04,1,,,,,エスアール,0
156,1180001156946,新規,0,2023-07-04,2023-07-04,諸戸林産株式会社,,株式会社,愛知県,名古屋市天白区,表台１１７番地,,23,116,4680068,,,,,,,2023-07-04,1,,,,,モロトリンサン,0
159,1180003025430,新規,0,2023-07-04,2023-07-04,Ｙ＆Ｓプロモーション合同会社,,合同会社,愛知県,名古屋市中区,栄１丁目２０番１０号,,23,106,4600008,,,,,,,2023-07-04,1,,,,,ワイアンドエスプロモーション,0
161,1190001030539,新規,0,2023-07-04,2023-07-04,株式会社プラスイノベーション,,株式会社,三重県,津市,雲出居倉津町１１４５番地１１,,24,201,5140000,,,,,,,2023-07-04,1,,,,,プラスイノベーション,0
164,1200001041451,新規,0,2023-07-04,2023-07-04,スリーアロー株式会社,,株式会社,岐阜県,多治見市,脇之島町７丁目５３番地の１２,,21,204,5070826,,,,,,,2023-07-04,1,,,,,スリーアロー,0
167,1220001025485,新規,0,2023-07-04,2023-07-04,株式会社アドバンスフィート,,株式会社,石川県,金沢市,保古２丁目５９番地,,17,201,9218052,,,,,,,2023-07-04,1,,,,,アドバンスフィート,0
173,1230003002044,新規,0,2023-07-04,2023-07-04,合同会社Ｇａｒｄｅｎｅｒ,,合同会社,富山県,氷見市,加納７２番地１５,,16,205,9350063,,,,,,,2023-07-04,1,,,,,ガーデナー,0
179,1250005008839,新規,0,2023-07-04,2023-07-04,一般社団法人まあくんの家,,その他の設立登記法人,山口県,周南市,大字清尾上大迫５４０番地の１,,35,215,7450623,,,,,,,2023-07-04,1,,,,,,0
180,1260001038062,新規,0,2023-07-04,2023-07-04,株式会社ジェンミックステックジャパン,,株式会社,岡山県,岡山市北区,今８丁目１２－２０－Ｂ－１０２,,33,101,7000975,,,,,,,2023-07-04,1,,,,,ジェンミックステックジャパン,0
181,1260001038070,新規,0,2023-07-04,2023-07-04,株式会社てくてく,,株式会社,岡山県,岡山市東区,東平島１１１７番地１,,33,103,7090631,,,,,,,2023-07-04,1,,,,,テクテク,0
182,1260001038079,新規,0,2023-07-04,2023-07-04,株式会社れんとる,,株式会社,岡山県,岡山市東区,大多羅町１９６番地,,33,103,7048172,,,,,,,2023-07-04,1,,,,,レントル,0
183,1260003004343,新規,0,2023-07-04,2023-07-04,合同会社Ｌｉｌｙ,,合同会社,岡山県,岡山市北区,柳町１丁目１４番１２号西川１００ビル２０１号室,,33,101,7000904,,,,,,,2023-07-04,1,,,,,リリー,0
185,1280005007557,新規,0,2023-07-04,2023-07-04,特定非営利活動法人ＩＭＯ　Ｆａｃｔｏｒｙ,,その他の設立登記法人,島根県,大田市,大田町大田イ１０２番地１,,32,205,6940064,,,,,,,2023-07-04,1,,,,,アイエムオーファクトリー,0
188,1290001102138,新規,0,2023-07-04,2023-07-04,株式会社スキシゴト・マーケティングラボ,,株式会社,福岡県,福岡市中央区,警固３丁目３番７－５０１号,,40,133,8100023,,,,,,,2023-07-04,1,,,,,スキシゴトマーケティングラボ,0
191,1290803004449,新規,0,2023-07-04,2023-07-04,合同会社ＯＨＮ,,合同会社,福岡県,北九州市八幡西区,青山２丁目５－１４－１０１,,40,109,8060043,,,,,,,2023-07-04,1,,,,,オーエイチエヌ,0
197,1360003013103,新規,0,2023-07-04,2023-07-04,合同会社長安,,合同会社,沖縄県,那覇市,首里石嶺町４丁目４１９－１２,,47,201,9030804,,,,,,,2023-07-04,1,,,,,チョウアン,0
211,1430005014736,新規,0,2023-07-04,2023-07-04,一般社団法人アジアパルクール協会,,その他の設立登記法人,北海道,札幌市白石区,南郷通１丁目北８番１号,,01,104,0030023,,,,,,,2023-07-04,1,,,,,アジアパルクールキョウカイ,0
213,1480003001995,新規,0,2023-07-04,2023-07-04,合同会社ＴＡＮＩＺＥＮシステム,,合同会社,徳島県,鳴門市,撫養町立岩字元地１００番地,,36,202,7720017,,,,,,,2023-07-04,1,,,,,タニゼンシステム,0
215,1500001025028,新規,0,2023-07-04,2023-07-04,株式会社日向,,株式会社,愛媛県,今治市,南大門町１丁目５番地２,,38,202,7940027,,,,,,,2023-07-04,1,,,,,ヒナタ,0
217,1500003003056,新規,0,2023-07-04,2023-07-04,ＫＡＹＡＩＲ合同会社,,合同会社,愛媛県,南宇和郡愛南町,中川１０４４－４,,38,506,7984404,,,,,,,2023-07-04,1,,,,,,0
218,1700150116350,新規,0,2023-07-04,2023-06-22,ゲートシティ大崎業務商業棟全体管理組合,,その他,東京都,品川区,大崎１丁目１１－１,,13,109,1410032,,,,,,,2023-06-22,1,,,,,ゲートシテイオオサキギヨウムシヨウギヨウトウゼンタイカンリクミアイ,0
219,1700150117332,新規,0,2023-07-04,2023-06-14,大阪国際大学・大阪国際大学短期大学部　同窓会,,その他,大阪府,守口市,藤田町６丁目２１番５７号,,27,209,5700014,,,,,,,2023-06-14,1,,,,,オオサカコクサイダイガクオオサカコクサイダイガクタンキダイガクブドウソウカイ,0
220,1700150118198,新規,0,2023-07-04,2023-07-04,Ｇｕａｎｇｚｈｏｕ　Ｋｅｓｈｅｄａ　Ａｕｔｏ　Ｐａｒｔｓ　Ｃｏ．，Ｌｔｄ．,,外国会社等,,,,,,,,ｎａｎｃｕｎｚｈｅｎ　ｎａｎｃａｏｔａｎｇｃｕｎ　ｘｉｎｇｎａｎｄａｄａｏ　７３１ｈａｏ　１０６、１０７、１０８、１０９、１１０、１１１　ｇｕａｎｇｚｈｏｕｓｈｉ　ｐａｎｙｕｑｕ　５１００００　ＣＮ,,,,,,2023-07-04,1,,,,,コウシュウカシャタツキシャハイケンユウゲンコウシ,0
221,1700150118207,新規,0,2023-07-04,2023-07-04,Ｙｉｗｕ　Ｓｈｉ　ＳｅｎＪｕｅ　Ｄｉａｎｚｉ　Ｓｈａｎｇｗｕ　Ｙｏｕｘｉａｎ　Ｇｏｎｇｓｉ,,外国会社等,,,,,,,,ＣＮ　Ｙｉｗｕ　ＪｉｎＨｕａ　ＢｅｉＹｕａｎ　Ｊｉｅｄａｏ　Ｌｉｕｑｉｎｇ　Ｅｒｑｕ　２３Ｚｈｕａｎｇ　６Ｄａｎｙｕａｎ　４０１,,,,,,2023-07-04,1,,,,,ギウシシンシャクデンシショウムユウゲンコウシ,0
222,1700150118215,新規,0,2023-07-04,2023-07-04,ＺＨＵＩＭＩ　Ｔｒａｄｉｎｇ（Ｔｉａｎｊｉｎ）Ｃｏ．，Ｌｔｄ．,,外国会社等,,,,,,,,６９７５　Ａｓｉａ　Ｒｏａｄ，Ｄｏｎｇｊｉａｎｇ　Ｂｏｎｄｅｄ　Ｐｏｒｔ　Ｎｏ．１－１－２１１２，Ｓｏｕｔｈ　Ａｒｅａ　ｏｆ　Ｆｉｎａｎｃｉａｌ　Ｔｒａｄｅ　Ｃｅｎｔｅｒ　Ｔｉａｎｊｉｎ，ＣＮ,,,,,,2023-07-04,1,,,,,ツイミャクボウエキテンシンユウゲンコウシ,0
223,1700150118223,新規,0,2023-07-04,2023-07-04,ｈｅｆｅｉｍａｉｋｅｓｉｙｏｕｍａｏｙｉｙｏｕｘｉａｎｇｏｎｇｓｉ,,外国会社等,,,,,,,,Ｒｏｏｍ　１３０１，Ｂｌｏｃｋ　Ｃ，Ｌａｎｄｍａｒｋ　Ｐｌａｚａ　Ｎｏ．２８８，Ｈｕａｉｎｉｎｇ　Ｒｏａｄ　ｈｅｆｅｉ　ａｎｈｕｉ，Ｃｈｉｎａ,,,,,,2023-07-04,1,,,,,ゴウヒバクコクシユウボウエキユウゲンコウシ,0
224,1700150118231,新規,0,2023-07-04,2023-07-04,ｓｈｅｎｚｈｅｎｓｈｉｇｕａｎｇｚｈｉｃｈｅｎｓｈａｎｇｍａｏｙｏｕｘｉａｎｇｏｎｇｓｉ,,外国会社等,,,,,,,,ＧｕａｎｇＤｏｎｇ　Ｓｈｅｎｚｈｅｎ　５１８０００　ｓａｉｇｅｋｅｊｉｙｕａｎ２ｄｏｎｇｄｏｎｇ８ｃｅｎｇＡ６　ｆｕｔｉａｎｑｕｈｕａｑｉａｎｇｂｅｉｊｉｅｄａｏｌｉｃｕｎｓｈｅｑｕｚｈｅｎｘｉｎｇｌｕ１２０ｈａｏ,,,,,,2023-07-04,1,,,,,シンセンシコウノシンショウボウユウゲンガイシャ,0
232,2010001236532,新規,0,2023-07-04,2023-07-04,ＡＡＡＳＯＢＯ株式会社,,株式会社,東京都,中央区,銀座１丁目２２番１１号銀座大竹ビジデンス２Ｆ,,13,102,1040061,,,,,,,2023-07-04,1,,,,,アアアソボー,0
248,2010401175413,新規,0,2023-07-04,2023-07-04,株式会社Ｊａｐａｎ　ｅ‐ｔｏｕｒｓ,,株式会社,東京都,港区,芝大門２丁目１１番５号,,13,103,1050012,,,,,,,2023-07-04,1,,,,,ジャパンイーツアーズ,0
251,2010403030418,新規,0,2023-07-04,2023-07-04,合同会社Ｈｉ５,,合同会社,東京都,港区,赤坂９丁目７番２号東京ミッドタウンレジデンシィズ１８１１,,13,103,1070052,,,,,,,2023-07-04,1,,,,,ハイファイブ,0
253,2010503007068,新規,0,2023-07-04,2023-07-04,合同会社アタラクシア,,合同会社,東京都,台東区,台東４丁目８番１号飯島ビル４Ｆ,,13,106,1100016,,,,,,,2023-07-04,1,,,,,アタラクシア,0
255,2010701044490,新規,0,2023-07-04,2023-07-04,株式会社Ｏｆｆｉｃｅ　ＭＩＺＵＮＵＭＡ,,株式会社,東京都,品川区,大崎２丁目１１番２－２４０５号,,13,109,1410032,,,,,,,2023-07-04,1,,,,,オフィスミズヌマ,0
257,2010801034103,新規,0,2023-07-04,2023-07-04,日系シスマック株式会社,,株式会社,東京都,大田区,南雪谷５丁目１５番１－１１６号,,13,111,1450066,,,,,,,2023-07-04,1,,,,,ニッケイシスマック,0
263,2011001155433,新規,0,2023-07-04,2023-07-04,株式会社うぽつ,,株式会社,東京都,渋谷区,道玄坂１丁目１０番８号渋谷道玄坂東急ビル２Ｆ－Ｃ,,13,113,1500043,,,,,,,2023-07-04,1,,,,,ウポツ,0
271,2011101103449,新規,0,2023-07-04,2023-07-04,ＩＴＥＲＲＡ株式会社,,株式会社,東京都,新宿区,西新宿３丁目３－１３西新宿水間ビル６階,,13,104,1600023,,,,,,,2023-07-04,1,,,,,イテラ,0
272,2011103013200,新規,0,2023-07-04,2023-07-04,ケース合同会社,,合同会社,東京都,新宿区,西新宿３丁目３番１３号西新宿水間ビル２Ｆ,,13,104,1600023,,,,,,,2023-07-04,1,,,,,ケース,0
277,2011503005648,新規,0,2023-07-04,2023-07-04,合同会社ＮＴＰ,,合同会社,東京都,北区,赤羽西１丁目１６番１２号赤羽ＴＰビル３０１号室,,13,117,1150055,,,,,,,2023-07-04,1,,,,,,0
278,2011503005672,新規,0,2023-07-04,2023-07-04,合同会社イロドリ,,合同会社,東京都,荒川区,荒川３丁目７０番１号,,13,118,1160002,,,,,,,2023-07-04,1,,,,,イロドリ,0
282,2011601026942,新規,0,2023-07-04,2023-07-04,株式会社深夜開発,,株式会社,東京都,練馬区,向山４丁目１９番２３号,,13,120,1760022,,,,,,,2023-07-04,1,,,,,シンヤカイハツ,0
283,2011603003980,新規,0,2023-07-04,2023-07-04,ハイパワー合同会社,,合同会社,東京都,練馬区,練馬４丁目１０－１３－５０１,,13,120,1760001,,,,,,,2023-07-04,1,,,,,ハイパワー,0
289,2011703003518,新規,0,2023-07-04,2023-07-04,合同会社エアホースマン,,合同会社,東京都,江戸川区,東葛西５丁目１２－６カワマンビル２階,,13,123,1340084,,,,,,,2023-07-04,1,,,,,エアホースマン,0
294,2012703002740,新規,0,2023-07-04,2023-07-04,合同会社坂上外装,,合同会社,東京都,東久留米市,下里１丁目２番９号アズ、ハーツＩ、１０２号室,00131048,13,222,2030043,,,,,,,2023-07-04,1,,,,,サカウエガイソウ,0
295,2012803003119,新規,0,2023-07-04,2023-07-04,アンシン合同会社,,合同会社,東京都,国分寺市,東恋ヶ窪２丁目１番地１デュオ・フィールズフォンテ・コート５０５,,13,214,1850014,,,,,,,2023-07-04,1,,,,,アンシン,0
300,2013301050958,新規,0,2023-07-04,2023-07-04,株式会社ＩＺＵＭＩ,,株式会社,東京都,豊島区,高田３丁目１０番１８号東ビル３０１,,13,116,1710033,,,,,,,2023-07-04,1,,,,,,0
304,2020001152175,新規,0,2023-07-04,2023-07-04,アンカーアイティーコンサルティング株式会社,,株式会社,神奈川県,横浜市西区,みなとみらい４丁目４番２号横浜ブルーアベニュー１２Ｆ,,14,103,2200012,,,,,,,2023-07-04,1,,,,,アンカーアイティーコンサルティング,0
306,2020003024109,新規,0,2023-07-04,2023-07-04,合同会社Ｌｅｖ,,合同会社,神奈川県,横浜市中区,太田町２丁目３０みどりビル５０２,,14,104,2310011,,,,,,,2023-07-04,1,,,,,リーエフ,0
307,2020003024117,新規,0,2023-07-04,2023-07-04,合同会社ジェラルド,,合同会社,神奈川県,横浜市青葉区,あざみ野１丁目２３番地１,,14,117,2250011,,,,,,,2023-07-04,1,,,,,ジェラルド,0
308,2020003024158,新規,0,2023-07-04,2023-07-04,合同会社Ｐｏｐ　Ｌｉｆｅ,,合同会社,神奈川県,横浜市青葉区,あざみ野３丁目３―７―４０４,,14,117,2250011,,,,,,,2023-07-04,1,,,,,ポップライフ,0
309,2020003024174,新規,0,2023-07-04,2023-07-04,合同会社國吉,,合同会社,神奈川県,横浜市保土ケ谷区,法泉１丁目２１番４－３号,,14,106,2400032,,,,,,,2023-07-04,1,,,,,クニヨシ,0
312,2021001079466,新規,0,2023-07-04,2023-07-04,エグザ測量株式会社,,株式会社,神奈川県,横須賀市,若宮台４－１９,,14,201,2390829,,,,,,,2023-07-04,1,,,,,エグザソクリョウ,0
313,2021001079474,新規,0,2023-07-04,2023-07-04,株式会社エマスト,,株式会社,神奈川県,海老名市,国分南１丁目２－１８第８三幸ビル３０１,,14,215,2430405,,,,,,,2023-07-04,1,,,,,エマスト,0
317,2030001154765,新規,0,2023-07-04,2023-07-04,株式会社ＺＥＳＴ,,株式会社,埼玉県,さいたま市浦和区,北浦和３丁目１８番１０号,,11,107,3300074,,,,,,,2023-07-04,1,,,,,ゼスト,0
337,2050001053065,新規,0,2023-07-04,2023-07-04,株式会社ソーシャルユニティ,,株式会社,茨城県,神栖市,木崎２４０６番地４６４,,08,232,3140127,,,,,,,2023-07-04,1,,,,,ソーシャルユニティ,0
343,2070003005013,新規,0,2023-07-04,2023-07-04,合同会社ＴＳＴグラウト,,合同会社,群馬県,邑楽郡邑楽町,大字中野１８３０番地２８,,10,525,3700603,,,,,,,2023-07-04,1,,,,,ティーエスティーグラウト,0
344,2080001025697,新規,0,2023-07-04,2023-07-04,株式会社Ｋコーポレーション,,株式会社,静岡県,静岡市葵区,千代田４丁目１３番１－２０１号,,22,101,4200803,,,,,,,2023-07-04,1,,,,,ケイコーポレーション,0
348,2080401026568,新規,0,2023-07-04,2023-07-04,株式会社アイドック,,株式会社,静岡県,浜松市浜北区,高畑１６２番地の１,,22,136,4340034,,,,,,,2023-07-04,1,,,,,アイドック,0
355,2110001037656,新規,0,2023-07-04,2023-07-04,株式会社ベリーベリー工房,,株式会社,新潟県,三条市,月岡４丁目４５番１６号,,15,204,9550803,,,,,,,2023-07-04,1,,,,,ベリーベリーコウボウ,0
359,2120001256040,新規,0,2023-07-04,2023-07-04,開元株式会社,,株式会社,大阪府,大阪市住之江区,浜口西１丁目１３－１５カトレアビル２０５号室,,27,125,5590006,,,,,,,2023-07-04,1,,,,,カイゲン,0
360,2120001256214,新規,0,2023-07-04,2023-07-04,株式会社アドトライ,,株式会社,大阪府,大阪市北区,本庄東１丁目１８番１号,,27,127,5310074,,,,,,,2023-07-04,1,,,,,アドトライ,0
363,2120101067775,新規,0,2023-07-04,2023-07-04,株式会社泰光建装,,株式会社,大阪府,堺市堺区,翁橋町１丁２番１６号プロスピリティー堺東２０３,,27,141,5900061,,,,,,,2023-07-04,1,,,,,タイコウケンソウ,0
364,2120101067817,新規,0,2023-07-04,2023-07-04,株式会社ＡＲＭＳ,,株式会社,大阪府,和泉市,王子町２丁目１２番１４号（Ｂ－５）,,27,219,5940004,,,,,,,2023-07-04,1,,,,,アームス,0
365,2120103005304,新規,0,2023-07-04,2023-07-04,合同会社Ｆｕｍｉｄａｉ,,合同会社,大阪府,泉大津市,森町２丁目１４番１号,,27,206,5950005,,,,,,,2023-07-04,1,,,,,,0
370,2140001130747,新規,0,2023-07-04,2023-07-04,株式会社Ｂｅａｎ　Ｆｉｅｌｄ,,株式会社,兵庫県,明石市,新明町１４番２７号,,28,203,6730027,,,,,,,2023-07-04,1,,,,,ビーンフィールド,0
372,2140003019261,新規,0,2023-07-04,2023-07-04,合同会社ＰＡＤＤＬＥ,,合同会社,兵庫県,神戸市西区,糀台５丁目９－４、５階,,28,111,6512273,,,,,,,2023-07-04,1,,,,,パドル,0
381,2160003002918,新規,0,2023-07-04,2023-07-04,合同会社ＳＯＡＮ,,合同会社,滋賀県,長浜市,高月町洞戸１２６,,25,203,5290214,,,,,,,2023-07-04,1,,,,,ソアン,0
390,2180001156929,新規,0,2023-07-04,2023-07-04,ＡＧホールディングス株式会社,,株式会社,愛知県,名古屋市名東区,上菅１丁目４１０番地,,23,115,4650014,,,,,,,2023-07-04,1,,,,,エージーホールディングス,0
391,2180001156945,新規,0,2023-07-04,2023-07-04,株式会社大松,,株式会社,愛知県,名古屋市中村区,宮塚町８２番地,,23,105,4530845,,,,,,,2023-07-04,1,,,,,ダイマツ,0
392,2180001156961,新規,0,2023-07-04,2023-07-04,忠志株式会社,,株式会社,愛知県,名古屋市緑区,鳴海町字上汐田１８５番地,,23,114,4580835,,,,,,,2023-07-04,1,,,,,タダシ,0
394,2180301037523,新規,0,2023-07-04,2023-07-04,株式会社ＦＦＬ,,株式会社,愛知県,岡崎市,城南町３丁目２番地６,,23,202,4440835,,,,,,,2023-07-04,1,,,,,エフエフエル,0
395,2190001030538,新規,0,2023-07-04,2023-07-04,伊勢河崎まちづくり株式会社,,株式会社,三重県,伊勢市,河崎１丁目８番２９号,,24,203,5160009,,,,,,,2023-07-04,1,,,,,イセカワサキマチヅクリ,0
396,2190003004366,新規,0,2023-07-04,2023-07-04,合同会社ｌｏｖｅ　ｉｓ　ｚｅｒｏ,,合同会社,三重県,四日市市,大字東阿倉川１７８番地,,24,202,5100805,,,,,,,2023-07-04,1,,,,,ラブイズゼロ,0
399,2220001025484,新規,0,2023-07-04,2023-07-04,株式会社ＴＭコミュニケーションズ,,株式会社,石川県,金沢市,北町乙４７番地３,,17,201,9200055,,,,,,,2023-07-04,1,,,,,ティーエムコミュニケーションズ,0
401,2230001019898,新規,0,2023-07-04,2023-07-04,株式会社ＥＺ,,株式会社,富山県,高岡市,野村９８２番地１サンライトイン高岡６．６１０６号,,16,202,9330014,,,,,,,2023-07-04,1,,,,,イーゼット,0
402,2230003002043,新規,0,2023-07-04,2023-07-04,合同会社ビアンデント,,合同会社,富山県,富山市,太田口通り１丁目５－１０,,16,201,9300063,,,,,,,2023-07-04,1,,,,,ビアンデント,0
409,2240003006209,新規,0,2023-07-04,2023-07-04,合同会社プログレスセカンド,,合同会社,広島県,広島市西区,己斐本町１丁目５番１号,,34,104,7330812,,,,,,,2023-07-04,1,,,,,プログレスセカンド,0
411,2260001038078,新規,0,2023-07-04,2023-07-04,古月商事株式会社,,株式会社,岡山県,岡山市北区,番町１丁目１４番２７号番町マンション２０２,,33,101,7000811,,,,,,,2023-07-04,1,,,,,フルツキショウジ,0
412,2260005011246,新規,0,2023-07-04,2023-07-04,特定非営利活動法人つどい,,その他の設立登記法人,岡山県,岡山市北区,津島東２丁目７番３５号,,33,101,7000081,,,,,,,2023-07-04,1,,,,,ツドイ,0
418,2290001102120,新規,0,2023-07-04,2023-07-04,株式会社ティータイム,,株式会社,福岡県,福岡市博多区,博多駅南２丁目１４番２８－５０２号アミティエ博多駅南,,40,132,8120016,,,,,,,2023-07-04,1,,,,,ティータイム,0
419,2290001102153,新規,0,2023-07-04,2023-07-04,株式会社シビルテック,,株式会社,福岡県,福岡市中央区,渡辺通４丁目９番１８号,,40,133,8100004,,,,,,,2023-07-04,1,,,,,シビルテック,0
425,2310001018487,新規,0,2023-07-04,2023-07-04,株式会社溝内工業,,株式会社,長崎県,長崎市,大浜町５８３番地４,,42,201,8500066,,,,,,,2023-07-04,1,,,,,ミゾウチコウギョウ,0
430,2340003004160,新規,0,2023-07-04,2023-07-04,合同会社ＪＩＮ,,合同会社,鹿児島県,姶良市,西餅田３４４４－１０５,,46,225,8995431,,,,,,,2023-07-04,1,,,,,ジン,0
434,2360003013102,新規,0,2023-07-04,2023-07-04,合同会社新川,,合同会社,沖縄県,那覇市,繁多川３丁目５番１号テンディングヒル２－Ｂ,,47,201,9020071,,,,,,,2023-07-04,1,,,,,シンカワ,0
435,2370003006187,新規,0,2023-07-04,2023-07-04,合同会社ａｉｎａ,,合同会社,宮城県,仙台市青葉区,上杉５丁目１番１－２０７号,,04,101,9800011,,,,,,,2023-07-04,1,,,,,アイナ,0
436,2380001033819,新規,0,2023-07-04,2023-07-04,株式会社１０‐ＫＥＮ,,株式会社,福島県,双葉郡川内村,大字上川内字炭焼場５０７番地,,07,544,9791201,,,,,,,2023-07-04,1,,,,,ジュウケン,0
437,2380001033827,新規,0,2023-07-04,2023-07-04,株式会社藤工務店,,株式会社,福島県,福島市,北沢又字出符５番地の４,,07,201,9608251,,,,,,,2023-07-04,1,,,,,フジコウムテン,0
438,2380003005502,新規,0,2023-07-04,2023-07-04,合同会社壱鮮,,合同会社,福島県,郡山市,日和田町字前田２９,,07,203,9630534,,,,,,,2023-07-04,1,,,,,イッセン,0
441,2390001017300,新規,0,2023-07-04,2023-07-04,株式会社イトウ商会,,株式会社,山形県,上山市,高野字念仏檀１４５番地,,06,207,9993115,,,,,,,2023-07-04,1,,,,,イトウショウカイ,0
445,2420001018328,新規,0,2023-07-04,2023-07-04,株式会社カネエダ,,株式会社,青森県,青森市,大字幸畑字唐崎４５番地７,,02,201,0300943,,,,,,,2023-07-04,1,,,,,カネエダ,0
449,2440001009283,新規,0,2023-07-04,2023-07-04,株式会社海鮮商店,,株式会社,北海道,茅部郡鹿部町,字宮浜２９２番地３,,01,343,0411403,,,,,,,2023-07-04,1,,,,,,0
451,2480001012135,新規,0,2023-07-04,2023-07-04,サン電子株式会社,,株式会社,徳島県,吉野川市,鴨島町山路７３３番地１,,36,205,7760036,,,,,,,2023-07-04,1,,,,,サンデンシ,0
452,2500001025035,新規,0,2023-07-04,2023-07-04,株式会社ピットボーイ,,株式会社,愛媛県,松山市,安城寺町１３５７番地１,,38,201,7918006,,,,,,,2023-07-04,1,,,,,ピットボーイ,0
453,2700150118206,新規,0,2023-07-04,2023-07-04,Ｙｉｗｕ　ｓｈｉ　Ｌｉｚｈｏｕ　ｄｉａｎ　ｚｉ　ｓｈａｎｇｗｕ　ｙｏｕｘｉａｎ　ｇｏｎｇｓｉ,,外国会社等,,,,,,,,Ｚｈｅｊｉａｎｇ　Ｊｉｎｈｕａ　Ｙｉ　Ｗｕ　Ｓｈｉ　Ｂｅｉ　Ｙｕａｎ　Ｊｉｅ　Ｄａｏ　Ｊｉｎｇ　Ｓａｎ　Ｌｕ　１１　Ｈａｏ　Ｚｏｎｇ　Ｈｅ　Ｌｏｕ　６１８　Ｓｈｉ,,,,,,2023-07-04,1,,,,,ギウシリッシュウデンシショウムユウゲンコウシ,0
454,2700150118214,新規,0,2023-07-04,2023-07-04,ｈａｉｎａｎｚｈａｎｇｓｈｕｓｈｉｙｅｙｏｕｘｉａｎｇｏｎｇｓｉ,,外国会社等,,,,,,,,ｘｉｕｙｉｎｇｑｕｈａｉｘｉｕｊｉｅｄａｏｂａｎｂａｉｓｈｕｉｄａｎｇｌｕ１５ｈａｏｊｉｎｄｉｈａｎｃｈｅｎｇｅｒｑｉ９　ｈａｏｌｏｕ４０３ｆａｎｇ　ｈａｉｋｏｕｓｈｉ　ｈａｉｎａｎｓｈｅｎｇ　５７００００　ＣＮ,,,,,,2023-07-04,1,,,,,カイナンショウショジツギョウユウゲンコウシ,0
455,2700150118222,新規,0,2023-07-04,2023-07-04,ＸＩＡＭＥＮ　ＭＡＲＵＮＯ　ＩＭＰ．＆ＥＸＰ．ＣＯ．，ＬＴＤ．,,外国会社等,,,,,,,,Ｒｏｏｍ　２５０５，Ｎｏ．９９　Ｌｕｊｉａｎｇ　Ｒｏａｄ，Ｓｉｍｉｎｇ　Ｄｉｓｔｒｉｃｔ，Ｘｉａｍｅｎ，Ｃｈｉｎａ,,,,,,2023-07-04,1,,,,,アモイガンヤシンシュツコウユウゲンコウシ,0
456,2700150118230,新規,0,2023-07-04,2023-07-04,ｓｈａｎｔｏｕｓｈｉ　ｘｉａｏｗａｎｇｇｕｏ　ｓｈａｎｇｍａｏ　ｙｏｕｘｉａｎｇｏｎｇｓｉ,,外国会社等,,,,,,,,Ｃｈｉｎａ，ｇｕａｎｇｄｏｎｇｓｈｅｎｇ　ｓｈａｎｔｏｕｓｈｉ　ｃｈｅｎｇｈａｉｑｕ　ｌｉａｎｓｈａｎｇｚｈｅｎ　ｎａｎｈｕｉｃｕｎ　ｊｉｎｔｉａｎ３ｘｉａｎｇ　６ｈａｏ　ｄｉｙｉｃｅｎ,,,,,,2023-07-04,1,,,,,サントウシショウオウコクショウボウユウゲンコウシ,0
461,3010001236564,新規,0,2023-07-04,2023-07-04,ビンゴスタイル株式会社,,株式会社,東京都,文京区,湯島２丁目３番３号加藤ビル,,13,105,1130034,,,,,,,2023-07-04,1,,,,,ビンゴスタイル,0
463,3010003040931,新規,0,2023-07-04,2023-07-04,ベストボンド合同会社,,合同会社,東京都,中央区,東日本橋２丁目２８番４号日本橋ＣＥＴビル,,13,102,1030004,,,,,,,2023-07-04,1,,,,,ベストボンド,0
464,3010003040989,新規,0,2023-07-04,2023-07-04,合同会社辰＿,00131047,合同会社,東京都,中央区,新富１丁目１５番１１号マキプラザビル４０３号室,,13,102,1040041,,,,,,,2023-07-04,1,,,,,タツキン,0
470,3010401175395,新規,0,2023-07-04,2023-07-04,エトワール国際学院株式会社,,株式会社,東京都,港区,北青山３丁目１３－８青山チェリーヒルズ２０４号室,,13,103,1070061,,,,,,,2023-07-04,1,,,,,エトワールコクサイガクイン,0
472,3010601063350,新規,0,2023-07-04,2023-07-04,ＰＬＡＹ　ＢＥＡＵＴＹ株式会社,,株式会社,東京都,江東区,有明２丁目１番１－２７１２号,,13,108,1350063,,,,,,,2023-07-04,1,,,,,プレイビューティー,0
473,3010603010227,新規,0,2023-07-04,2023-07-04,晨浩合同会社,,合同会社,東京都,江東区,亀戸５丁目２５番９号金沐荘１０３号,,13,108,1360071,,,,,,,2023-07-04,1,,,,,アキヒロ,0
475,3010701044498,新規,0,2023-07-04,2023-07-04,株式会社ＣＡＭジャパン,,株式会社,東京都,品川区,西五反田６丁目２５－８－１００４,,13,109,1410031,,,,,,,2023-07-04,1,,,,,シーエイエムジャパン,0
478,3010901053340,新規,0,2023-07-04,2023-07-04,株式会社ｇｅｏｒｇｅｙ,,株式会社,東京都,世田谷区,桜２丁目１５番１６－２０１号,,13,112,1560053,,,,,,,2023-07-04,1,,,,,ジョージー,0
482,3011001155432,新規,0,2023-07-04,2023-07-04,株式会社ＹＳＳ,,株式会社,東京都,渋谷区,本町１丁目２５番９号,,13,113,1510071,,,,,,,2023-07-04,1,,,,,ワイエスエス,0
483,3011001155440,新規,0,2023-07-04,2023-07-04,株式会社ＢｏａＶｉｓｔａ,,株式会社,東京都,渋谷区,恵比寿１丁目１番７号ＴＫビル３階,,13,113,1500013,,,,,,,2023-07-04,1,,,,,ボアヴィスタ,0
484,3011003017110,新規,0,2023-07-04,2023-07-04,合同会社ＰＲＹＴＨＭＷＯＲＫＳ,,合同会社,東京都,渋谷区,神宮前６丁目２３番４号桑野ビル２階,,13,113,1500001,,,,,,,2023-07-04,1,,,,,プリズムワークス,0
488,3011103013199,新規,0,2023-07-04,2023-07-04,合同会社ＮＥＸＴ,,合同会社,東京都,新宿区,西新宿３丁目３番１３号西新宿水間ビル２Ｆ,,13,104,1600023,,,,,,,2023-07-04,1,,,,,ネクスト,0
494,3011501029474,新規,0,2023-07-04,2023-07-04,株式会社ＳｉｅｔｅＸ,,株式会社,東京都,北区,滝野川６丁目８番２号ＭａｉｓｏｎＴｈｅＳｅａｓｏｎ－１０１号,,13,117,1140023,,,,,,,2023-07-04,1,,,,,シエテックス,0
495,3011601026941,新規,0,2023-07-04,2023-07-04,株式会社ＦＲネクスト,,株式会社,東京都,練馬区,大泉町４丁目１１番３号,,13,120,1780062,,,,,,,2023-07-04,1,,,,,エフアールネクスト,0
496,3011701026387,新規,0,2023-07-04,2023-07-04,株式会社Ｎｅｘｔ　Ｌｉｆｅ,,株式会社,東京都,江戸川区,南小岩６丁目３１番１０－５１１号プラウドタワー小岩ファースト,,13,123,1330056,,,,,,,2023-07-04,1,,,,,ネクストライフ,0
501,3012801022482,新規,0,2023-07-04,2023-07-04,株式会社ＪＩＮＴＡ,,株式会社,東京都,立川市,高松町３丁目２６番１３号プレジデンシャル立川４０３,,13,202,1900011,,,,,,,2023-07-04,1,,,,,ジンタ,0
506,3013301050965,新規,0,2023-07-04,2023-07-04,ＣＭ＆Ｃ株式会社,,株式会社,東京都,豊島区,西池袋１丁目２９－６池袋大野ビル２Ｆ,,13,116,1710021,,,,,,,2023-07-04,1,,,,,シーエムアンドシー,0
514,3020003024132,新規,0,2023-07-04,2023-07-04,合同会社Ｒｅｗｉｎｄ,,合同会社,神奈川県,横浜市中区,弥生町１丁目６番地７０１号室,,14,104,2310058,,,,,,,2023-07-04,1,,,,,リワインド,0
521,3021001079457,新規,0,2023-07-04,2023-07-04,株式会社コルシ,,株式会社,神奈川県,綾瀬市,早川１４９４番地１１,,14,218,2521123,,,,,,,2023-07-04,1,,,,,コルシ,0
522,3021001079481,新規,0,2023-07-04,2023-07-04,株式会社Ｆａｒｅ,,株式会社,神奈川県,平塚市,横内４０９４番地,,14,203,2540002,,,,,,,2023-07-04,1,,,,,フェア,0
531,3030001154731,新規,0,2023-07-04,2023-07-04,株式会社マウンテルセキュリティ,,株式会社,埼玉県,さいたま市大宮区,桜木町１丁目３７８番地,,11,103,3300854,,,,,,,2023-07-04,1,,,,,マウンテルセキュリティ,0
533,3030003022060,新規,0,2023-07-04,2023-07-04,Ｎｅｗ　Ｓｔｙｌｅ合同会社,,合同会社,埼玉県,川越市,諏訪町１７－６コーポデュプルＩＩ１０１号室,00131056,11,201,3501147,,,,,,,2023-07-04,1,,,,,ニュースタイル,0
534,3030003022077,新規,0,2023-07-04,2023-07-04,合同会社Ｇｅｎｅ　Ｌａｂｏ,,合同会社,埼玉県,さいたま市西区,大字西遊馬１６２番地１グレースメゾン２０２,,11,101,3310061,,,,,,,2023-07-04,1,,,,,ジェネラボ,0
542,3040003022885,新規,0,2023-07-04,2023-07-04,ＳＫＴ合同会社,,合同会社,千葉県,柏市,旭町１丁目３番１４号ＭＣ旭町ビル１階,,12,217,2770852,,,,,,,2023-07-04,1,,,,,エスケーティー,0
544,3050001053056,新規,0,2023-07-04,2023-07-04,株式会社飯ヶ谷板金,,株式会社,茨城県,結城市,大字山川新宿１６４番地１,,08,207,3070033,,,,,,,2023-07-04,1,,,,,イイガヤバンキン,0
548,3070001040589,新規,0,2023-07-04,2023-07-04,株式会社村山園,,株式会社,群馬県,沼田市,高橋場町２１６０番地２,,10,206,3780056,,,,,,,2023-07-04,1,,,,,ムラヤマエン,0
558,3080001025705,新規,0,2023-07-04,2023-07-04,株式会社Ｕ＆Ｉ,,株式会社,静岡県,静岡市葵区,羽鳥１丁目１０番１２号,,22,101,4211215,,,,,,,2023-07-04,1,,,,,ユーアンドアイ,0
560,3080401026575,新規,0,2023-07-04,2023-07-04,株式会社めせあファーム,,株式会社,静岡県,浜松市西区,篠原町字東前２２２７０番３,,22,133,4310201,,,,,,,2023-07-04,1,,,,,メセアファーム,0
565,3110001037655,新規,0,2023-07-04,2023-07-04,株式会社ＲＵＭＡＲＲＹ,,株式会社,新潟県,新潟市中央区,神道寺１丁目２番２６号神道寺マンション３１３,,15,103,9500983,,,,,,,2023-07-04,1,,,,,ルマリー,0
571,3120001256196,新規,0,2023-07-04,2023-07-04,株式会社ＥＡＰサポート喜び,,株式会社,大阪府,大阪市都島区,善源寺町２丁目２番４－５１１号,,27,102,5340015,,,,,,,2023-07-04,1,,,,,イエーピーサポートヨロコビ,0
574,3122001037122,新規,0,2023-07-04,2023-07-04,株式会社河上ＨＤ,,株式会社,大阪府,東大阪市,衣摺５丁目４番３０号,00131045,27,227,5770827,,,,,,,2023-07-04,1,,,,,カワカミホールディングス,0
577,3130001074622,新規,0,2023-07-04,2023-07-04,株式会社ｉｚａｎｏｗ,,株式会社,京都府,京都市下京区,中堂寺粟田町９３,,26,106,6008815,,,,,,,2023-07-04,1,,,,,イザナウ,0
588,3140001130671,新規,0,2023-07-04,2023-07-04,株式会社鍋島土地,,株式会社,兵庫県,神戸市東灘区,住吉山手２丁目１２番５８号,,28,101,6580063,,,,,,,2023-07-04,1,,,,,ナベシマトチ,0
592,3160001025135,新規,0,2023-07-04,2023-07-04,株式会社ＳＮＩ,,株式会社,滋賀県,長浜市,公園町１番５－２０７号,,25,203,5260065,,,,,,,2023-07-04,1,,,,,エスエヌアイ,0
599,3180001156936,新規,0,2023-07-04,2023-07-04,株式会社Ｋ＆Ｆ,,株式会社,愛知県,西春日井郡豊山町,大字青山１２３７番地,,23,342,4800201,,,,,,,2023-07-04,1,,,,,ケイアンドエフ,0
600,3180001156944,新規,0,2023-07-04,2023-07-04,株式会社ＭＯＯＫ,,株式会社,愛知県,名古屋市中区,栄５丁目２６番３９号ＧＳ栄ビル３Ｆ,,23,106,4600008,,,,,,,2023-07-04,1,,,,,ムック,0
613,3230001019897,新規,0,2023-07-04,2023-07-04,株式会社ＴＨサービス,,株式会社,富山県,氷見市,川尻２７６番地２,,16,205,9350044,,,,,,,2023-07-04,1,,,,,ティーエイチサービス,0
615,3260001038077,新規,0,2023-07-04,2023-07-04,株式会社ＮＥＫ,,株式会社,岡山県,新見市,哲多町成松８７５番地２,,33,210,7180304,,,,,,,2023-07-04,1,,,,,エヌイーケイ,0
616,3260001038085,新規,0,2023-07-04,2023-07-04,株式会社アイサポート,,株式会社,岡山県,岡山市南区,東畦１１２番地４９,,33,104,7010211,,,,,,,2023-07-04,1,,,,,アイサポート,0
628,3290001102152,新規,0,2023-07-04,2023-07-04,株式会社シビルビジョン,,株式会社,福岡県,福岡市博多区,板付４丁目７番２８号,,40,132,8120888,,,,,,,2023-07-04,1,,,,,シビルビジョン,0
630,3290005019079,新規,0,2023-07-04,2023-07-04,一般社団法人理美容金融リテラシー協会,,その他の設立登記法人,福岡県,福岡市中央区,天神２丁目３番３６号,,40,133,8100001,,,,,,,2023-07-04,1,,,,,リビヨウキンユウリテラシーキョウカイ,0
633,3310001018486,新規,0,2023-07-04,2023-07-04,株式会社Ｒｙｕａ塗装,,株式会社,長崎県,長崎市,かき道１丁目４１番３号,,42,201,8510115,,,,,,,2023-07-04,1,,,,,リュアトソウ,0
637,3360001032219,新規,0,2023-07-04,2023-07-04,株式会社ファースト,,株式会社,沖縄県,国頭郡恩納村,字仲泊６３番地,,47,311,9040415,,,,,,,2023-07-04,1,,,,,ファースト,0
644,3410003003815,新規,0,2023-07-04,2023-07-04,藤工業合同会社,,合同会社,秋田県,大館市,御成町３丁目６－５６,,05,204,0170044,,,,,,,2023-07-04,1,,,,,フジコウギョウ,0
655,3430003015206,新規,0,2023-07-04,2023-07-04,合同会社モレ建設,,合同会社,北海道,勇払郡安平町,早来栄町９２番地５,,01,585,0591505,,,,,,,2023-07-04,1,,,,,モレケンセツ,0
656,3430003015214,新規,0,2023-07-04,2023-07-04,Ａｎａｇｕｒａ合同会社,,合同会社,北海道,札幌市中央区,北五条西１７丁目４‐８,,01,101,0600005,,,,,,,2023-07-04,1,,,,,アナグラ,0
658,3470001019683,新規,0,2023-07-04,2023-07-04,株式会社ＯＲ,,株式会社,香川県,高松市,今里町２丁目１１番地２,,37,201,7600078,,,,,,,2023-07-04,1,,,,,オア,0
661,3490003001794,新規,0,2023-07-04,2023-07-04,合同会社土佐べる,,合同会社,高知県,長岡郡本山町,大石１６９０番地１クラインガルテンもとやま７号,,39,341,7813602,,,,,,,2023-07-04,1,,,,,トサベル,0
662,3500001025034,新規,0,2023-07-04,2023-07-04,株式会社カンシンエクステリア,,株式会社,愛媛県,松山市,松ノ木２丁目６８５番地２,,38,201,7918071,,,,,,,2023-07-04,1,,,,,カンシンエクステリア,0
664,3700150116349,新規,0,2023-07-04,2023-06-22,ゲートシティ大崎業務商業棟店舗共有者会,,その他,東京都,品川区,大崎１丁目１１－１,,13,109,1410032,,,,,,,2023-06-22,1,,,,,ゲートシテイオオサキギヨウムシヨウギヨウトウテンポキヨウユウシヤカイ,0
665,3700150117553,新規,0,2023-07-04,2023-06-16,中六人部地区農村ＲＭＯ事業推進連絡会議,,その他,京都府,福知山市,字大内３１１８番地,,26,201,6200836,,,,,,,2023-06-16,1,,,,,ナカムトベチクノウソンアールエムオージギヨウスイシンレンラクカイギ,0
666,3700150118205,新規,0,2023-07-04,2023-07-04,Ｙｉｗｕ　ｓｈｉ　ｔｉｎｇ　ｓｈａｎｇ　ｄｉａｎ　ｚｉ　ｓｈａｎｇｗｕ　ｙｏｕｘｉａｎ　ｇｏｎｇｓｉ,,外国会社等,,,,,,,,Ｚｈｅｊｉａｎｇ　Ｊｉｎｈｕａ　Ｙｉ　Ｗｕ　Ｓｈｉ　Ｂｅｉ　Ｙｕａｎ　Ｊｉｅ　Ｄａｏ　Ｊｉｎｇ　Ｓａｎ　Ｌｕ　１１　Ｈａｏ　Ｚｏｎｇ　Ｈｅ　Ｌｏｕ　６１７　Ｓｈｉ,,,,,,2023-07-04,1,,,,,ギウシチョウショウデンシショウムユウゲンコウシ,0
667,3700150118213,新規,0,2023-07-04,2023-07-04,Ｄｏｎｇｇｕａｎ　Ｓｉｃｈｅｎｇｄａ　Ｒｕｂｂｅｒ　Ｔｅｃｈｎｏｌｏｇｙ　Ｃｏ．，Ｌｔｄ．,,外国会社等,,,,,,,,Ｇｕａｎｇｄｏｎｇ　Ｎｏ．８８，Ｙｕｈｅ　Ｒｏａｄ，Ｙｕａｎｊｉａｎｇｙｕａｎ　Ｖｉｌｌａｇｅ，Ｃｈａｎｇｐｉｎｇ　Ｔｏｗｎ，Ｄｏｎｇｇｕａｎ　Ｃｉｔｙ,,,,,,2023-07-04,1,,,,,トンカンシセイタツゾウソカギユウゲンコウシ,0
668,3700150118221,新規,0,2023-07-04,2023-07-04,ＳｈｅｎｚｈｅｎｓｈｉＴｉｎｇｙｕａｎｋｅｊｉｙｏｕｘｉａｎｇｏｎｇｓｉ,,外国会社等,,,,,,,,ｘｉｘｉａｎｇｊｉｅｄａｏｊｉｎｇｂｅｉｈｕａｑｉａｏｃｕｎ２ｘｉａｎｇ３ｈａｏ　Ｓｈｅｎｚｈｅｎ　Ｇｕａｎｇｄｏｎｇ,,,,,,2023-07-04,1,,,,,シンセンシエンゲンカギユウゲンコウシ,0
682,4010003040996,新規,0,2023-07-04,2023-07-04,香プロダクション合同会社,,合同会社,東京都,中央区,八丁堀２丁目４－１ダイヤモンドレジデンス３０４,,13,102,1040032,,,,,,,2023-07-04,1,,,,,コウプロダクション,0
688,4010401175345,新規,0,2023-07-04,2023-07-04,グラビティ株式会社,,株式会社,東京都,港区,元赤坂１丁目１番７号,,13,103,1070051,,,,,,,2023-07-04,1,,,,,グラビティ,0
696,4010701044480,新規,0,2023-07-04,2023-07-04,株式会社セコイア不動産,,株式会社,東京都,品川区,大崎２丁目９－１,,13,109,1410032,,,,,,,2023-07-04,1,,,,,セコイアフドウサン,0
699,4010801034118,新規,0,2023-07-04,2023-07-04,株式会社肥田商店,,株式会社,東京都,大田区,京浜島２丁目２１番２号,,13,111,1430003,,,,,,,2023-07-04,1,,,,,ヒダショウテン,0
701,4010901053281,新規,0,2023-07-04,2023-07-04,株式会社ジャパンコスメ,,株式会社,東京都,世田谷区,北沢５丁目５番１２号サンク北沢２０２,,13,112,1550031,,,,,,,2023-07-04,1,,,,,ジャパンコスメ,0
702,4010901053323,新規,0,2023-07-04,2023-07-04,株式会社ホライゾンメディカルサービス,,株式会社,東京都,世田谷区,池尻４丁目１０番１号,,13,112,1540001,,,,,,,2023-07-04,1,,,,,ホライゾンメディカルサービス,0
704,4010903008234,新規,0,2023-07-04,2023-07-04,ＡＭＩＧＯ合同会社,,合同会社,東京都,世田谷区,上馬２丁目２１番１４号コーポなかやま２０２,,13,112,1540011,,,,,,,2023-07-04,1,,,,,アミーゴ,0
708,4011001155431,新規,0,2023-07-04,2023-07-04,銀田飲食管理株式会社,,株式会社,東京都,渋谷区,神宮前４丁目１２番５号表参道ヒルズセルゴバテラスＥ５０４,,13,113,1500001,,,,,,,2023-07-04,1,,,,,ギンダインショクカンリ,0
709,4011003017101,新規,0,2023-07-04,2023-07-04,合同会社Ｏｎｌｉｎｅ　Ｏｎｅ,,合同会社,東京都,渋谷区,神泉町１０番１５号,,13,113,1500045,,,,,,,2023-07-04,1,,,,,オンラインワン,0
715,4011501029457,新規,0,2023-07-04,2023-07-04,株式会社Ｍｅ　ｔｉｍｅ,,株式会社,東京都,荒川区,町屋２丁目２１番２－６０１号フレスコ町屋,,13,118,1160001,,,,,,,2023-07-04,1,,,,,ミータイム,0
716,4011701026386,新規,0,2023-07-04,2023-07-04,株式会社ワイエスホールディングス,,株式会社,東京都,江戸川区,中央１丁目１１番１６号,,13,123,1320021,,,,,,,2023-07-04,1,,,,,ワイエスホールディングス,0
717,4011701026394,新規,0,2023-07-04,2023-07-04,株式会社大野電業社,,株式会社,東京都,江戸川区,江戸川２丁目３４番３０号,,13,123,1320013,,,,,,,2023-07-04,1,,,,,オオノデンギョウシャ,0
718,4012403006057,新規,0,2023-07-04,2023-07-04,合同会社ミライマナビクラブ,,合同会社,東京都,三鷹市,野崎３丁目２１番２号,,13,204,1810014,,,,,,,2023-07-04,1,,,,,ミライマナビクラブ,0
725,4013301050997,新規,0,2023-07-04,2023-07-04,株式会社ＪＬＫ,,株式会社,東京都,豊島区,池袋本町２丁目３８番１４－３０５号,,13,116,1700011,,,,,,,2023-07-04,1,,,,,ジェイエルケイ,0
727,4013303006691,新規,0,2023-07-04,2023-07-04,ヒー・キャリコ合同会社,,合同会社,東京都,豊島区,東池袋２丁目６２番８号ＢＩＧオフィスプラザ池袋１１０２,,13,116,1700013,,,,,,,2023-07-04,1,,,,,ヒーキャリコ,0
732,4020001152289,新規,0,2023-07-04,2023-07-04,村井産業株式会社,,株式会社,神奈川県,横浜市金沢区,鳥浜町３番地３号,,14,108,2360002,,,,,,,2023-07-04,1,,,,,,0
735,4021001079456,新規,0,2023-07-04,2023-07-04,株式会社ＢＬＵＥ,,株式会社,神奈川県,三浦郡葉山町,一色２４９５,,14,301,2400111,,,,,,,2023-07-04,1,,,,,ブルー,0
743,4030001154714,新規,0,2023-07-04,2023-07-04,株式会社ＬＩＮＵＭ,,株式会社,埼玉県,狭山市,根岸２丁目２１番６号,,11,215,3501325,,,,,,,2023-07-04,1,,,,,リナム,0
746,4040001128898,新規,0,2023-07-04,2023-07-04,株式会社一輝,,株式会社,千葉県,柏市,南柏２丁目５番１号,,12,217,2770855,,,,,,,2023-07-04,1,,,,,イッコウ,0
747,4040001129005,新規,0,2023-07-04,2023-07-04,株式会社ティエンダ・ワカエ,,株式会社,千葉県,佐倉市,飯重４２１番地,,12,212,2850832,,,,,,,2023-07-04,1,,,,,ティエンダワカエ,0
748,4050001053063,新規,0,2023-07-04,2023-07-04,株式会社ＹＭ　ＴＲＡＤＩＮＧ　ＣＯ．,,株式会社,茨城県,筑西市,関本下１８０２番地１コスモスハイツ２０１,,08,227,3080127,,,,,,,2023-07-04,1,,,,,ワイエムトレーディングカンパニー,0
756,4070003005003,新規,0,2023-07-04,2023-07-04,ＪＩＹＡＮ合同会社,,合同会社,群馬県,吾妻郡東吾妻町,大字原町２０５番地２新井アパート,,10,429,3770801,,,,,,,2023-07-04,1,,,,,,0
757,4080001025695,新規,0,2023-07-04,2023-07-04,株式会社静居寺セレモニー,,株式会社,静岡県,島田市,野田１１３２番地の１,,22,209,4270007,,,,,,,2023-07-04,1,,,,,ジョウゴジセレモニー,0
758,4080001025712,新規,0,2023-07-04,2023-07-04,株式会社ヤマイシ,,株式会社,静岡県,榛原郡吉田町,住吉３００番地の１,,22,424,4210301,,,,,,,2023-07-04,1,,,,,ヤマイシ,0
759,4080003003006,新規,0,2023-07-04,2023-07-04,ＳＮプロジェクト合同会社,,合同会社,静岡県,静岡市清水区,北矢部８９２－１１,,22,103,4240865,,,,,,,2023-07-04,1,,,,,エスエヌプロジェクト,0
761,4080103002840,新規,0,2023-07-04,2023-07-04,合同会社縁絆寿,,合同会社,静岡県,三島市,旭ヶ丘２２番１８号１０１号室,,22,206,4110020,,,,,,,2023-07-04,1,,,,,エンハンス,0
763,4080401026566,新規,0,2023-07-04,2023-07-04,株式会社上島農産,,株式会社,静岡県,浜松市浜北区,上島２０６０番地,,22,136,4340011,,,,,,,2023-07-04,1,,,,,カミジマノウサン,0
764,4080401026574,新規,0,2023-07-04,2023-07-04,株式会社ヒャクイチ設計,,株式会社,静岡県,浜松市中区,高丘北３丁目３１－９グランドパールＢ号室,,22,131,4338119,,,,,,,2023-07-04,1,,,,,ヒャクイチセッケイ,0
765,4090003002337,新規,0,2023-07-04,2023-07-04,合同会社リアライメント,,合同会社,山梨県,甲府市,富竹１丁目１２－３,,19,201,4000049,,,,,,,2023-07-04,1,,,,,リアライメント,0
767,4110001037654,新規,0,2023-07-04,2023-07-04,株式会社みんなと,,株式会社,新潟県,上越市,本町３丁目１番８号,,15,222,9430832,,,,,,,2023-07-04,1,,,,,ミンナト,0
771,4120001256039,新規,0,2023-07-04,2023-07-04,株式会社ＥＮＥ・ＢＯＯＮ,,株式会社,大阪府,大阪市大正区,北恩加島１丁目４番４３号,,27,108,5510033,,,,,,,2023-07-04,1,,,,,エネブーン,0
772,4120001256162,新規,0,2023-07-04,2023-07-04,株式会社サニーテラス,,株式会社,大阪府,枚方市,村野本町１８番１７号,,27,210,5730016,,,,,,,2023-07-04,1,,,,,サニーテラス,0
773,4120003024393,新規,0,2023-07-04,2023-07-04,合同会社Ｖａｇｕｅ,,合同会社,大阪府,大阪市中央区,南本町４丁目５番７号東亜ビル５階５０７Ｂ,,27,128,5410054,,,,,,,2023-07-04,1,,,,,ヴァーグ,0
780,4130003008809,新規,0,2023-07-04,2023-07-04,Ｇｌｕｔｔｏｎａｔｓｕ合同会社,,合同会社,京都府,向日市,上植野町西小路２３番地の９,,26,208,6170006,,,,,,,2023-07-04,1,,,,,グルットナツ,0
785,4140001130679,新規,0,2023-07-04,2023-07-04,株式会社ＢＥ　ＢＩＧ,,株式会社,兵庫県,神戸市灘区,大石東町５丁目８－１,,28,102,6570043,,,,,,,2023-07-04,1,,,,,ビービッグ,0
787,4160001025134,新規,0,2023-07-04,2023-07-04,株式会社ＴＳＹ設備工業,,株式会社,滋賀県,守山市,播磨田町１６６１番地の１２,,25,207,5240012,,,,,,,2023-07-04,1,,,,,ティーエスワイセツビコウギョウ,0
788,4160001025150,新規,0,2023-07-04,2023-07-04,株式会社広田電設,,株式会社,滋賀県,彦根市,肥田町２０９番地,,25,202,5211123,,,,,,,2023-07-04,1,,,,,ヒロタデンセツ,0
791,4160003002916,新規,0,2023-07-04,2023-07-04,合同会社ＬＢＳ,,合同会社,滋賀県,大津市,坂本８丁目９－５レイクりき１－２０１,,25,201,5200113,,,,,,,2023-07-04,1,,,,,エルビーエス,0
797,4180001156927,新規,0,2023-07-04,2023-07-04,株式会社信明,,株式会社,愛知県,名古屋市中村区,太閤通６丁目１１番地の３ｌｉｖｅｓ　ｒｅｓｉｄｅｎｃｅ太閤通９０４号,,23,105,4530811,,,,,,,2023-07-04,1,,,,,シンメイ,0
798,4180001156951,新規,0,2023-07-04,2023-07-04,株式会社ＶＡＬＯＣ,,株式会社,愛知県,一宮市,今伊勢町宮後字神戸１－１サンスクウェア３０５,,23,203,4910057,,,,,,,2023-07-04,1,,,,,ヴァロック,0
800,4180003025428,新規,0,2023-07-04,2023-07-04,合同会社あめぞー,,合同会社,愛知県,日進市,栄３丁目２１２４番地ディライト３０１,,23,230,4700113,,,,,,,2023-07-04,1,,,,,アメゾー,0
807,4180301037513,新規,0,2023-07-04,2023-07-04,ヒューマンテクノロジーズ株式会社,,株式会社,愛知県,豊橋市,つつじが丘３丁目２５‐１１,,23,201,4400858,,,,,,,2023-07-04,1,,,,,ヒューマンテクノロジーズ,0
809,4190001030536,新規,0,2023-07-04,2023-07-04,株式会社龍建,,株式会社,三重県,桑名市,大字大福３１１番地１Ｇプラザ大藤４０５号,,24,205,5110834,,,,,,,2023-07-04,1,,,,,リュウケン,0
810,4200001041449,新規,0,2023-07-04,2023-07-04,東立株式会社,,株式会社,岐阜県,高山市,片野町３丁目７０番地７,,21,203,5060824,,,,,,,2023-07-04,1,,,,,トウリツ,0
812,4220001025482,新規,0,2023-07-04,2023-07-04,株式会社向日葵,,株式会社,石川県,野々市市,堀内４丁目７０番地,,17,212,9218844,,,,,,,2023-07-04,1,,,,,ヒマワリ,0
814,4230001019896,新規,0,2023-07-04,2023-07-04,株式会社ＭＵＧＥＮ,,株式会社,富山県,射水市,野村４１０番地,,16,211,9340043,,,,,,,2023-07-04,1,,,,,ムゲン,0
820,4250003003302,新規,0,2023-07-04,2023-07-04,合同会社ｈａｒｅｂａｒｅ,,合同会社,山口県,宇部市,大字東須恵２７７１番地２,,35,202,7590206,,,,,,,2023-07-04,1,,,,,ハレバレ,0
822,4260001038084,新規,0,2023-07-04,2023-07-04,株式会社浦辺工務店,,株式会社,岡山県,倉敷市,帯高３８９番地１０,,33,202,7100023,,,,,,,2023-07-04,1,,,,,ウラベコウムテン,0
831,4290001102119,新規,0,2023-07-04,2023-07-04,株式会社クリーンテックミリタリー,,株式会社,福岡県,久留米市,野中町９６８番地２,,40,203,8390862,,,,,,,2023-07-04,1,,,,,クリーンテックミリタリー,0
832,4290001102135,新規,0,2023-07-04,2023-07-04,株式会社オフィスクリオ,,株式会社,福岡県,福岡市博多区,金の隈３丁目７番３号,,40,132,8120863,,,,,,,2023-07-04,1,,,,,オフィスクリオ,0
841,4360001032218,新規,0,2023-07-04,2023-07-04,株式会社Ａｋａｌａ,,株式会社,沖縄県,中頭郡嘉手納町,字水釜２５４番地,,47,325,9040204,,,,,,,2023-07-04,1,,,,,アカラ,0
842,4360003013100,新規,0,2023-07-04,2023-07-04,野原音響合同会社,,合同会社,沖縄県,南城市,知念字久原６９３エスペランサ華満進２０１,,47,215,9011505,,,,,,,2023-07-04,1,,,,,ノハラオンキョウ,0
849,4390001017298,新規,0,2023-07-04,2023-07-04,株式会社Ｌｅａ,,株式会社,山形県,天童市,芳賀タウン南６丁目１番３０号,,06,210,9940083,,,,,,,2023-07-04,1,,,,,レア,0
857,4430005014733,新規,0,2023-07-04,2023-07-04,一般社団法人孝仁会,,その他の設立登記法人,北海道,札幌市西区,宮の沢二条１丁目１１番２０号アイビル１３,,01,107,0630052,,,,,,,2023-07-04,1,,,,,コウジンカイ,0
861,4480001012133,新規,0,2023-07-04,2023-07-04,株式会社山本電機,,株式会社,徳島県,阿南市,橘町鵠２１番地,00131055,36,204,7740023,,,,,,,2023-07-04,1,,,,,ヤマモトデンキ,0
863,4700150039870,新規,0,2023-07-04,2015-10-09,六ヶ所村まちづくり協議会,,その他,青森県,上北郡六ヶ所村,大字尾駮字野附４７５六ヶ所村役場　第二分庁舎２階,,02,411,0393212,,,,,,,2015-10-09,1,,,,,ロツカシヨムラマチヅクリキヨウギカイ,0
865,4700150116348,新規,0,2023-07-04,2023-06-22,ゲートシティ大崎街区管理組合,,その他,東京都,品川区,大崎１丁目１１－１,,13,109,1410032,,,,,,,2023-06-22,1,,,,,ゲートシテイオオサキガイクカンリクミアイ,0
866,4700150118204,新規,0,2023-07-04,2023-07-04,Ｙｉｗｕ　ｓｈｉ　ｃｈａｏ　ｓｈｕ　ｄｉａｎｚｉ　ｓｈａｎｇｗｕ　ｙｏｕｘｉａｎ　ｇｏｎｇｓｉ,,外国会社等,,,,,,,,Ｂｅｉｙｕａｎ　Ｓｔｒｅｅｔ　Ｒｏｏｍ　３０３，Ｕｎｉｔ　６，Ｂｕｉｌｄｉｎｇ　７３，Ｓｉｊｉ　Ｓｉｘｔｈ　Ｄｉｓｔｒｉｃｔ　Ｙｉｗｕ　Ｚｈｅ　ｊｉａｎｇ　ＣＮ,,,,,,2023-07-04,1,,,,,ギウシチョウショデンシショウムユウゲンコウシ,0
867,4700150118212,新規,0,2023-07-04,2023-07-04,Ｙｉｗｕ　ｓｈｉ　ｌｉ　ｔｕ　ｄｉａｎｚｉ　ｓｈａｎｇｗｕ　ｙｏｕｘｉａｎ　ｇｏｎｇｓｉ,,外国会社等,,,,,,,,Ｃｈｉｎａ，Ｚｈｅｊｉａｎｇ　Ｙｉｗｕ　ｂｅｉ　ｙｕａｎ　ｊｉｅ　ｄａｏ　ｑｉｕ　ｓｈｉ　ｌｕ　１０１ｈａｏ　８０５ｓｈｉ,,,,,,2023-07-04,1,,,,,ギウシレイトデンシショウムユウゲンコウシ,0
868,4700150118220,新規,0,2023-07-04,2023-07-04,ｇｕａｎｇｚｈｏｕｓｈｉｘｉｓｉｄｉａｎｚｉｋｅｊｉｙｏｕｘｉａｎｇｏｎｇｓｉ,,外国会社等,,,,,,,,Ｒｏｏｍ　Ｈ３８０，ｓｅｌｆ－ｍａｄｅ，Ｒｏｏｍ　３０１－３５３，Ｎｏ．１，Ｋｅｈｕａ　Ｓｔｒｅｅｔ，Ｔｉａｎｈｅ　Ｄｉｓｔｒｉｃｔ，Ｇｕａｎｇｚｈｏｕ,,,,,,2023-07-04,1,,,,,コウシュウシキシデンシカギユウゲンコウシ,0
869,4700150118229,新規,0,2023-07-04,2023-07-04,ｃｈａｏｚｈｏｕｓｈｉｊｉｎｙｉｓｈｅｎｇｗｕｋｅｊｉｙｏｕｘｉａｎｇｏｎｇｓｉ,,外国会社等,,,,,,,,ｃｈａｏａｎｑｕｆｅｎｇｔａｎｇｚｈｅｎｆｕｇａｎｇｃｕｎｃｈａｏｚｈｏｕｓｈｉｃｈａｏａｎｑｕｙｏｎｇｓｈｅｎｇｔａｏｃｉｓｈｉｙｅｙｏｕｘｉａｎｇｏｎｇｓｉｃｈａｎｇｆａｎｇｄｉｓｉｃｅｎｇ４０１ｈａｏ,,,,,,2023-07-04,1,,,,,チョウシュシキンオクセイブツカギユウゲンコウシ,0
876,5010003041036,新規,0,2023-07-04,2023-07-04,合同会社カベコエ,,合同会社,東京都,中央区,日本橋横山町７番１９号第３５イチオクビル３－３４,,13,102,1030003,,,,,,,2023-07-04,1,,,,,カベコエ,0
882,5010401175377,新規,0,2023-07-04,2023-07-04,株式会社ＳＩＭＢＡ,,株式会社,東京都,港区,六本木７丁目１４番１１号ニイクラビル７階,,13,103,1060032,,,,,,,2023-07-04,1,,,,,シンバ,0
883,5010401175385,新規,0,2023-07-04,2023-07-04,株式会社グリーン・リーフ,,株式会社,東京都,港区,元麻布１丁目１番１８号秀和元麻布レジデンス２０６号,,13,103,1060046,,,,,,,2023-07-04,1,,,,,グリーンリーフ,0
884,5010401175402,新規,0,2023-07-04,2023-07-04,ＰＡＬＡＣＥＴＥＸ株式会社,,株式会社,東京都,港区,北青山１丁目３番１号アールキューブ青山３Ｆ,,13,103,1070061,,,,,,,2023-07-04,1,,,,,パレステックス,0
885,5010403030415,新規,0,2023-07-04,2023-07-04,合同会社カーディナル・アドバイザーズ,,合同会社,東京都,港区,南青山２丁目２番１５号ＷｉｎＡｏｙａｍａビルＵＣＦ６３５,,13,103,1070062,,,,,,,2023-07-04,1,,,,,カーディナルアドバイザーズ,0
893,5010701044505,新規,0,2023-07-04,2023-07-04,株式会社イノベーションヘルスケア,,株式会社,東京都,品川区,西品川１丁目１－１住友不動産大崎ガーデンタワー９階,,13,109,1410033,,,,,,,2023-07-04,1,,,,,イノベーションヘルスケア,0
894,5010701044513,新規,0,2023-07-04,2023-07-04,株式会社Ｋｏｂａｋｏ,,株式会社,東京都,品川区,上大崎２丁目１０番１１号アビティ目黒８０３,,13,109,1410021,,,,,,,2023-07-04,1,,,,,コバコ,0
896,5010801034117,新規,0,2023-07-04,2023-07-04,株式会社溝尾工業,,株式会社,東京都,大田区,東嶺町３５番９号ＨａｗａＫｕｇａｈａｒａ２０２,,13,111,1450074,,,,,,,2023-07-04,1,,,,,ミゾオコウギョウ,0
898,5010901053322,新規,0,2023-07-04,2023-07-04,ＯＭＵＫＥ株式会社,,株式会社,東京都,世田谷区,上馬２丁目３８－３－２階,,13,112,1540011,,,,,,,2023-07-04,1,,,,,オムケ,0
899,5010901053330,新規,0,2023-07-04,2023-07-04,株式会社ズババ,,株式会社,東京都,世田谷区,駒沢３丁目２番１号ヴェルファーレ彩駒沢８Ｆ,,13,112,1540012,,,,,,,2023-07-04,1,,,,,ズババ,0
903,5011001155422,新規,0,2023-07-04,2023-07-04,ＡｇｅＦａｃｔｏｒｙプロダクション株式会社,,株式会社,東京都,渋谷区,神宮前６丁目３５番３－３１１号,,13,113,1500001,,,,,,,2023-07-04,1,,,,,エイジファクトリープロダクション,0
904,5011003017100,新規,0,2023-07-04,2023-07-04,合同会社ＨＵ‐ｃｏｎｎｅｃｔ,,合同会社,東京都,渋谷区,渋谷２丁目１９番１５－６０９号宮益坂ビルディング,,13,113,1500002,,,,,,,2023-07-04,1,,,,,ヒューコネクト,0
910,5011101103470,新規,0,2023-07-04,2023-07-04,株式会社Ａｓｕｙａ,,株式会社,東京都,新宿区,西新宿３丁目３番１３号西新宿水間ビル２Ｆ,,13,104,1600023,,,,,,,2023-07-04,1,,,,,アスヤ,0
916,5011701026385,新規,0,2023-07-04,2023-07-04,上揚株式会社,,株式会社,東京都,江戸川区,春江町５丁目５番１３号益友第３ビル５０３号,,13,123,1340003,,,,,,,2023-07-04,1,,,,,ジョウヨウ,0
925,5013301051004,新規,0,2023-07-04,2023-07-04,株式会社旭商事,,株式会社,東京都,豊島区,駒込１丁目１６番１０－７０２号,,13,116,1700003,,,,,,,2023-07-04,1,,,,,アサヒショウジ,0
932,5020005016043,新規,0,2023-07-04,2023-07-04,一般社団法人教育デジタル・トランスフォーメーション協議会,,その他の設立登記法人,神奈川県,横浜市都筑区,茅ケ崎中央２４－４,,14,118,2240032,,,,,,,2023-07-04,1,,,,,キョウイクデジタルトランスフォーメーションキョウギカイ,0
938,5021003013271,新規,0,2023-07-04,2023-07-04,合同会社フェイジョア,,合同会社,神奈川県,三浦市,南下浦町上宮田１１９８番地８,,14,210,2380101,,,,,,,2023-07-04,1,,,,,フェイジョア,0
948,5030001154713,新規,0,2023-07-04,2023-07-04,株式会社Ｇｏｏｔｒｉｇｇｅｒ,,株式会社,埼玉県,さいたま市浦和区,北浦和３丁目７番１号北浦和サンリーフビル１０１,,11,107,3300074,,,,,,,2023-07-04,1,,,,,グットリガー,0
953,5030005021323,新規,0,2023-07-04,2023-07-04,一般社団法人新日本無痛分娩学会,,その他の設立登記法人,埼玉県,春日部市,大枝３６６番地,,11,214,3440023,,,,,,,2023-07-04,1,,,,,シンニホンムツウブンベンガッカイ,0
957,5040001129004,新規,0,2023-07-04,2023-07-04,株式会社Ｃｌｏｃｈｅ　Ａｒｂｒｅ,,株式会社,千葉県,柏市,大井１８９８番地４柏東パークホームズ１０８,,12,217,2770902,,,,,,,2023-07-04,1,,,,,クロッシュアルブル,0
960,5070001040595,新規,0,2023-07-04,2023-07-04,株式会社岡村建創,,株式会社,群馬県,前橋市,青柳町５７０番地ＫＭアーバンＮｏ．１（３０３号）,,10,201,3710056,,,,,,,2023-07-04,1,,,,,オカムラケンソウ,0
964,5080001025711,新規,0,2023-07-04,2023-07-04,ユリシーズ株式会社,,株式会社,静岡県,静岡市葵区,七間町１番地の１１,,22,101,4200035,,,,,,,2023-07-04,1,,,,,ユリシーズ,0
971,5110001037645,新規,0,2023-07-04,2023-07-04,株式会社ふるまち樽拳,,株式会社,新潟県,新潟市中央区,古町通９番町１４６２番地,,15,103,9518063,,,,,,,2023-07-04,1,,,,,フルマチタルケン,0
972,5110001037653,新規,0,2023-07-04,2023-07-04,株式会社山口肉店,,株式会社,新潟県,魚沼市,古新田３１４番地,,15,225,9460025,,,,,,,2023-07-04,1,,,,,ヤマグチニクテン,0
977,5120001256070,新規,0,2023-07-04,2023-07-04,ａｒｉｅｓ株式会社,,株式会社,大阪府,大阪市北区,与力町４－５,,27,127,5300036,,,,,,,2023-07-04,1,,,,,アリエス,0
978,5120001256129,新規,0,2023-07-04,2023-07-04,株式会社Ｚｅｎｓｈｉｎ　ＰＲ,,株式会社,大阪府,大阪市城東区,東中浜５丁目５－９,,27,118,5360023,,,,,,,2023-07-04,1,,,,,ゼンシンピーアール,0
979,5120001256145,新規,0,2023-07-04,2023-07-04,ＧＨＬ株式会社,,株式会社,大阪府,大阪市東成区,神路４丁目３－１０スターレジデンス新深江２０６号室,,27,115,5370003,,,,,,,2023-07-04,1,,,,,ジーエイチエル,0
980,5120001256161,新規,0,2023-07-04,2023-07-04,南林株式会社,,株式会社,大阪府,大阪市北区,浮田１丁目６番２号,,27,127,5300021,,,,,,,2023-07-04,1,,,,,ナンリン,0
981,5120001256178,新規,0,2023-07-04,2023-07-04,株式会社ＲＥＡＬ　ＧＯＮＥ,,株式会社,大阪府,大阪市東淀川区,菅原７丁目５番５号イル・ソーレ淡路１０５号,,27,114,5330022,,,,,,,2023-07-04,1,,,,,リアルゴーン,0
986,5120101067814,新規,0,2023-07-04,2023-07-04,株式会社日章,,株式会社,大阪府,泉佐野市,高松北１丁目５番１６号,,27,213,5980011,,,,,,,2023-07-04,1,,,,,ニッショウ,0
987,5120103005301,新規,0,2023-07-04,2023-07-04,合同会社ゆめ,,合同会社,大阪府,堺市東区,日置荘田中町１５１番地４,,27,143,5998113,,,,,,,2023-07-04,1,,,,,,0
994,5130005016809,新規,0,2023-07-04,2023-07-04,一般財団法人ＥＨＷＡ　ＭＯＭＳ’ＪＡＰＡＮ,,その他の設立登記法人,京都府,京都市下京区,西洞院通塩小路下る南不動堂町８０５番地アパガーデンコート京都駅前５０７,,26,106,6008234,,,,,,,2023-07-04,1,,,,,イファマムズジャパン,0
998,5140001130728,新規,0,2023-07-04,2023-07-04,ＡＮサービス株式会社,,株式会社,兵庫県,姫路市,花田町加納原田９４８番地１１,,28,201,6710252,,,,,,,2023-07-04,1,,,,,エーエヌサービス,0
1014,5180001156926,新規,0,2023-07-04,2023-07-04,マルオン株式会社,,株式会社,愛知県,名古屋市東区,徳川１丁目４０５番地の６,,23,102,4610025,,,,,,,2023-07-04,1,,,,,マルオン,0
1015,5180001156934,新規,0,2023-07-04,2023-07-04,ＭＥインダストリアルシミュレーションソフトウェア株式会社,,株式会社,愛知県,名古屋市東区,矢田南５丁目１番１４号,,23,102,4610048,,,,,,,2023-07-04,1,,,,,エムイーインダストリアルシミュレーションソフトウェア,0
1016,5180001156942,新規,0,2023-07-04,2023-07-04,株式会社ミリタリー,,株式会社,愛知県,名古屋市中区,栄５丁目２６番３９号ＧＳ栄ビル３Ｆ,,23,106,4600008,,,,,,,2023-07-04,1,,,,,ミリタリー,0
1017,5180001156950,新規,0,2023-07-04,2023-07-04,株式会社ＫＡＭＩＮＡＲＩ,,株式会社,愛知県,名古屋市中川区,八神町２丁目４７番地１,,23,110,4540041,,,,,,,2023-07-04,1,,,,,カミナリ,0
1018,5180001156959,新規,0,2023-07-04,2023-07-04,日鉄電磁岡谷加工株式会社,,株式会社,愛知県,名古屋市港区,空見町３番地,,23,111,4550847,,,,,,,2023-07-04,1,,,,,ニッテツデンジオカヤカコウ,0
1019,5180001156967,新規,0,2023-07-04,2023-07-04,ＳＡＷＡＮＯホールディングス株式会社,,株式会社,愛知県,名古屋市中川区,下之一色町字松蔭７丁目１３番地,,23,110,4540945,,,,,,,2023-07-04,1,,,,,サワノホールディングス,0
1026,5180301037512,新規,0,2023-07-04,2023-07-04,ＢＥＬＬ株式会社,,株式会社,愛知県,豊田市,大沼町芦ケ入中２７番地２２,,23,211,4443242,,,,,,,2023-07-04,1,,,,,ベル,0
1027,5180301037520,新規,0,2023-07-04,2023-07-04,株式会社磯貝経営,,株式会社,愛知県,西尾市,米津町宮浦９１番地１,,23,213,4450802,,,,,,,2023-07-04,1,,,,,イソガイケイエイ,0
1031,5200001041448,新規,0,2023-07-04,2023-07-04,株式会社ＫＴＫ　ｎｅｓｔｌｅ,,株式会社,岐阜県,大垣市,静里町２７９番地３,,21,202,5030983,,,,,,,2023-07-04,1,,,,,ケイティケイネスレ,0
1033,5220003003543,新規,0,2023-07-04,2023-07-04,合同会社ＦＡＮＣＹ,,合同会社,石川県,金沢市,御所町２丁目２８２番地,,17,201,9200813,,,,,,,2023-07-04,1,,,,,ファンシー,0
1035,5230003002040,新規,0,2023-07-04,2023-07-04,合同会社エフ・ライフ,,合同会社,富山県,射水市,小島３６４８番地,,16,211,9390274,,,,,,,2023-07-04,1,,,,,エフライフ,0
1043,5290001102134,新規,0,2023-07-04,2023-07-04,株式会社開花,,株式会社,福岡県,福岡市博多区,博多駅前４丁目２３番２８号,,40,132,8120011,,,,,,,2023-07-04,1,,,,,カイカ,0
1045,5310001018492,新規,0,2023-07-04,2023-07-04,株式会社橋口石材彫刻店,,株式会社,長崎県,長崎市,古川町５番２７号,,42,201,8500851,,,,,,,2023-07-04,1,,,,,ハシグチセキザイチョウコクテン,0
1048,5320003004119,新規,0,2023-07-04,2023-07-04,合同会社オオイタＥＡＰシステムズ,,合同会社,大分県,由布市,庄内町東長宝６０１番地,,44,213,8795405,,,,,,,2023-07-04,1,,,,,オオイタイーエーピーシステムズ,0
1049,5330001031007,新規,0,2023-07-04,2023-07-04,株式会社ＩＫＥホールディングス,,株式会社,熊本県,熊本市中央区,下通１丁目９番９号,,43,101,8600807,,,,,,,2023-07-04,1,,,,,アイケイイーホールディングス,0
1051,5350001018423,新規,0,2023-07-04,2023-07-04,株式会社Ｓａｉｌ,,株式会社,宮崎県,都城市,牟田町９街区２号セールビル２Ｆ,,45,202,8850079,,,,,,,2023-07-04,1,,,,,セール,0
1052,5350001018431,新規,0,2023-07-04,2023-07-04,株式会社タラッサ農園,,株式会社,宮崎県,児湯郡高鍋町,大字北高鍋３２００番地６,,45,401,8840002,,,,,,,2023-07-04,1,,,,,タラッサノウエン,0
1054,5360001032217,新規,0,2023-07-04,2023-07-04,株式会社ＣＭＳ,,株式会社,沖縄県,浦添市,港川１丁目２９番８－８０２号ライオンズマンション港川,,47,208,9012134,,,,,,,2023-07-04,1,,,,,シーエムエス,0
1062,5390001017297,新規,0,2023-07-04,2023-07-04,株式会社イーグレット,,株式会社,山形県,上山市,松山２丁目１４番２７号,,06,207,9993146,,,,,,,2023-07-04,1,,,,,イーグレット,0
1073,5420003002748,新規,0,2023-07-04,2023-07-04,合同会社ＮＡ　ＭＯＴＯＲＳ,,合同会社,青森県,青森市,千刈１丁目２１番地２１,,02,201,0380015,,,,,,,2023-07-04,1,,,,,エヌエーモーターズ,0
1077,5430003015204,新規,0,2023-07-04,2023-07-04,合同会社ＳＡＶＥ　ＢＬＥＵ,,合同会社,北海道,小樽市,稲穂５丁目１６番２２号,,01,203,0470032,,,,,,,2023-07-04,1,,,,,セーブブルー,0
1079,5460001005807,新規,0,2023-07-04,2023-07-04,ＩＣＨＩＦＵＫＵ株式会社,,株式会社,北海道,釧路郡釧路町,雁来２番地６４,,01,661,0880612,,,,,,,2023-07-04,1,,,,,イチフク,0
1081,5490001010523,新規,0,2023-07-04,2023-07-04,株式会社Ｉｎｔｅｒｎａｔｉｏｎａｌ　Ｉｎｔｅｌｌｉｇｅｎｔ　Ｉｎｆｏｒｍａｔｉｏｎ,,株式会社,高知県,高知市,帯屋町１丁目９番６号白亜堂ビル３Ｆ,,39,201,7800841,,,,,,,2023-07-04,1,,,,,インターナショナルインテリジェントインフォメーション,0
1084,5700150118203,新規,0,2023-07-04,2023-07-04,Ｓｈｅｎｚｈｅｎ　Ｌａｎｗｅｉｄｕ　Ｔｅｃｈｎｏｌｏｇｙ　Ｃｏ．，Ｌｔｄ．,,外国会社等,,,,,,,,Ｎｏ１１６，ＥＣ　Ｂｕｉｌｄｉｎｇ，Ｙｕｊｉｎｇ　Ｓｈｕｉ’ａｎ，２３　Ｗｅｎｘｉｎ　Ｒｏａｄ，Ｘｉｎｔｉａｎ，Ｆｕｈａｉ　Ｓｔｒｅｅｔ，Ｂａｏ’ａｎ　Ｓｈｅｎｚｈｅｎ　Ｇｕａｎｇｄｏｎｇ　ＣＮ,,,,,,2023-07-04,1,,,,,シンセンシランイドカギユウゲンコウシ,0
1085,5700150118211,新規,0,2023-07-04,2023-07-04,Ｘｉａｍｅｎ　Ｍａｎｕｎｕｏ　Ｅ－Ｂｕｓｉｎｅｓｓ　Ｃｏ．，Ｌｔｄ,,外国会社等,,,,,,,,Ｃｈｉｎａ，Ｆｕｊｉａｎ　Ｘｉａｍｅｎ　ｓｉｍｉｎｇｑｕ　ｌｕｊｉａｎｇｄａｏ　９９　１９０３ｄａｎｙｕａｎｚｈｉｅｒ,,,,,,2023-07-04,1,,,,,カモンバドダクデンシショウムユウゲンコウシ,0
1086,5700150118228,新規,0,2023-07-04,2023-07-04,Ｓｈｅｎｚｈｅｎ　Ｓｈｕｏｆｅｎｇ　Ｔｅｃｈｎｏｌｏｇｙ　Ｃｏ．，Ｌｔｄ．,,外国会社等,,,,,,,,Ｃｈｉｎａ，Ｇｕａｎｇｄｏｎｇ　Ｓｈｅｎｚｈｅｎ　Ｆｕｔｉａｎｑｕ　Ｈｕａｑｉａｎｇｂｅｉ　Ｊｉｅｄａｏ　Ｚｈｏｎｇｈａｎｇｌｕ　４ｈａｏ　Ｄｕｈｕｉ１００　Ｄａｓｈａ　Ｊｉｎｄｕ　２２Ｄ,,,,,,2023-07-04,1,,,,,シンセンシシャクホウカギユウゲンコウシ,0
1094,6010001236520,新規,0,2023-07-04,2023-07-04,Ｔｒａｉｌ　Ｂｕｔｔｅｒ　Ｊａｐａｎ株式会社,,株式会社,東京都,千代田区,東神田１丁目２番１１号アガタ竹澤ビル４０４,,13,101,1010031,,,,,,,2023-07-04,1,,,,,トレイルバタージャパン,0
1095,6010001236553,新規,0,2023-07-04,2023-07-04,リオール株式会社,,株式会社,東京都,中央区,築地３丁目７番２号,,13,102,1040045,,,,,,,2023-07-04,1,,,,,リオール,0
1103,6010401175418,新規,0,2023-07-04,2023-07-04,株式会社Ｆｉｌａｍｅｎｔ　Ｐｒｏｄｕｃｔ,,株式会社,東京都,港区,南青山２丁目４番８号ＬＡＰｉＳ青山ＩＩ４０２号室,00131049,13,103,1070062,,,,,,,2023-07-04,1,,,,,フィラメントプロダクト,0
1104,6010401175483,新規,0,2023-07-04,2023-07-04,株式会社ＣＬホールディングス,,株式会社,東京都,港区,芝１丁目４番７号,,13,103,1050014,,,,,,,2023-07-04,1,,,,,シーエルホールディングス,0
1108,6010405022260,新規,0,2023-07-04,2023-07-04,一般社団法人学び創出ネットワーク,,その他の設立登記法人,東京都,港区,新橋２丁目５番６号大村ビル８階,,13,103,1050004,,,,,,,2023-07-04,1,,,,,マナビソウシュツネットワーク,0
1112,6010701044512,新規,0,2023-07-04,2023-07-04,キューレット株式会社,,株式会社,東京都,品川区,西大井１丁目１－２Ｊタワー西大井イーストタワー２階,,13,109,1400015,,,,,,,2023-07-04,1,,,,,キューレット,0
1113,6010803004595,新規,0,2023-07-04,2023-07-04,合同会社ＳＥＫＩＴＯＢＡ,,合同会社,東京都,大田区,蒲田１丁目１５番１６号２０１,,13,111,1440052,,,,,,,2023-07-04,1,,,,,セキトバ,0
1115,6010901053346,新規,0,2023-07-04,2023-07-04,株式会社若藤不動産,,株式会社,東京都,世田谷区,若林２丁目２８番２９－１０１号,,13,112,1540023,,,,,,,2023-07-04,1,,,,,ワカフジフドウサン,0
1116,6010903008273,新規,0,2023-07-04,2023-07-04,合同会社フォルメンテーラ,,合同会社,東京都,世田谷区,下馬６丁目２９番６－１１１号,,13,112,1540002,,,,,,,2023-07-04,1,,,,,フォルメンテーラ,0
1122,6011003017108,新規,0,2023-07-04,2023-07-04,合同会社ＭａｇｉｃａｌＦａｃｔｏｒｙ,,合同会社,東京都,渋谷区,本町４丁目４９番１０－２０１号ウエリス渋谷本町,,13,113,1510071,,,,,,,2023-07-04,1,,,,,マジカルファクトリー,0
1123,6011005010135,新規,0,2023-07-04,2023-07-04,一般社団法人キッズファースト,,その他の設立登記法人,東京都,渋谷区,富ヶ谷２丁目９番１６号,,13,113,1510063,,,,,,,2023-07-04,1,,,,,キッズファースト,0
1125,6011101103437,新規,0,2023-07-04,2023-07-04,株式会社ＦＬＡＲＥ　ＣＲＥＡＴＯＲＳ,,株式会社,東京都,新宿区,箪笥町１３番地,,13,104,1620833,,,,,,,2023-07-04,1,,,,,フレアクリエイターズ,0
1126,6011103013221,新規,0,2023-07-04,2023-07-04,リトルドッグ合同会社,,合同会社,東京都,新宿区,西新宿３丁目３番１３号西新宿水間ビル２Ｆ,,13,104,1600023,,,,,,,2023-07-04,1,,,,,リトルドッグ,0
1139,6020003024121,新規,0,2023-07-04,2023-07-04,合同会社ＪＡＣＫ,,合同会社,神奈川県,川崎市宮前区,土橋４丁目３番地８プラウド鷺沼テラス２１３,,14,136,2160005,,,,,,,2023-07-04,1,,,,,ジャック,0
1140,6020003024154,新規,0,2023-07-04,2023-07-04,Ｗｈａｒｆ　Ｄｅｓｉｇｎ　Ｗｏｒｋｓ合同会社,,合同会社,神奈川県,横浜市中区,山下町９９番地,,14,104,2310023,,,,,,,2023-07-04,1,,,,,ワーフデザインワークス,0
1145,6021001079388,新規,0,2023-07-04,2023-07-04,株式会社ｅスポーツの窓口,,株式会社,神奈川県,鎌倉市,坂ノ下３番７号,,14,204,2480021,,,,,,,2023-07-04,1,,,,,イースポーツノマドグチ,0
1146,6021001079446,新規,0,2023-07-04,2023-07-04,株式会社サガノケアービス,,株式会社,神奈川県,茅ヶ崎市,本村２丁目６番１９号,,14,207,2530042,,,,,,,2023-07-04,1,,,,,サガノケアサービス,0
1147,6021001079454,新規,0,2023-07-04,2023-07-04,株式会社エステック,,株式会社,神奈川県,藤沢市,並木台２丁目１１番地の１ヒルクレスト湘南２０１号室,,14,205,2510005,,,,,,,2023-07-04,1,,,,,エステック,0
1158,6040001129060,新規,0,2023-07-04,2023-07-04,株式会社ダイキュー,,株式会社,千葉県,市川市,富浜２丁目１０－１３,,12,203,2720115,,,,,,,2023-07-04,1,,,,,ダイキュー,0
1159,6040001129077,新規,0,2023-07-04,2023-07-04,株式会社Ｒａｙｆｌｏｗ,,株式会社,千葉県,松戸市,六実２丁目１６番地の１,,12,207,2702204,,,,,,,2023-07-04,1,,,,,レイフロー,0
1160,6040001129085,新規,0,2023-07-04,2023-07-04,株式会社みのる,,株式会社,千葉県,四街道市,大日９０３番地６,,12,228,2840001,,,,,,,2023-07-04,1,,,,,ミノル,0
1168,6070001040586,新規,0,2023-07-04,2023-07-04,株式会社長岡タイル工業,,株式会社,群馬県,富岡市,一ノ宮甲９９６番地,,10,210,3702452,,,,,,,2023-07-04,1,,,,,ナガオカタイルコウギョウ,0
1172,6080001025710,新規,0,2023-07-04,2023-07-04,株式会社スリーピース,,株式会社,静岡県,静岡市葵区,平和３丁目１０番２９号,,22,101,4200876,,,,,,,2023-07-04,1,,,,,スリーピース,0
1173,6080003003004,新規,0,2023-07-04,2023-07-04,ＳＥＣＯＮＤ合同会社,,合同会社,静岡県,静岡市葵区,新富町３丁目１７番地の３,,22,101,4200061,,,,,,,2023-07-04,1,,,,,セカンド,0
1175,6080401026572,新規,0,2023-07-04,2023-07-04,株式会社昔のうなぎ屋,,株式会社,静岡県,浜松市西区,篠原町２０２０９番地,,22,133,4310201,,,,,,,2023-07-04,1,,,,,ムカシノウナギヤ,0
1176,6080403004816,新規,0,2023-07-04,2023-07-04,ＫＩＲＡＲＩ合同会社,,合同会社,静岡県,浜松市東区,和田町９２６番地,,22,132,4350016,,,,,,,2023-07-04,1,,,,,キラリ,0
1182,6110001037652,新規,0,2023-07-04,2023-07-04,株式会社ドリームアシスト長岡,,株式会社,新潟県,新潟市西区,坂井東４丁目３４番８号,,15,107,9502041,,,,,,,2023-07-04,1,,,,,ドリームアシストナガオカ,0
1192,6120001256103,新規,0,2023-07-04,2023-07-04,株式会社ウティリザーレ,,株式会社,大阪府,大阪市中央区,本町４丁目４番１７－７０４号,,27,128,5410053,,,,,,,2023-07-04,1,,,,,ウティリザーレ,0
1193,6120001256136,新規,0,2023-07-04,2023-07-04,株式会社Ｃａｄｅｎａ,,株式会社,大阪府,大阪市福島区,福島３丁目１番６５－１３０１号,,27,103,5530003,,,,,,,2023-07-04,1,,,,,カデナ,0
1194,6120001256144,新規,0,2023-07-04,2023-07-04,株式会社ＴＲｙＡＳ,,株式会社,大阪府,大阪市北区,梅田１丁目３－１大阪駅前第１ビル８Ｆ,,27,127,5300001,,,,,,,2023-07-04,1,,,,,トライアス,0
1195,6120001256160,新規,0,2023-07-04,2023-07-04,株式会社キープフーズ,,株式会社,大阪府,大阪市住吉区,南住吉３丁目１７番１８－５０３号,,27,120,5580041,,,,,,,2023-07-04,1,,,,,キープフーズ,0
1197,6120003024409,新規,0,2023-07-04,2023-07-04,フロッグウェル合同会社,,合同会社,大阪府,大阪市中央区,東心斎橋２丁目３番２１号１階,,27,128,5420083,,,,,,,2023-07-04,1,,,,,フロッグウェル,0
1203,6122001037128,新規,0,2023-07-04,2023-07-04,株式会社岩田電工,,株式会社,大阪府,八尾市,安中町６丁目１１番３－６０１号,,27,212,5810085,,,,,,,2023-07-04,1,,,,,イワタデンコウ,0
1204,6122005003687,新規,0,2023-07-04,2023-07-04,一般社団法人モノクロ,,その他の設立登記法人,大阪府,大東市,諸福５丁目６番７号２０２号,,27,218,5740044,,,,,,,2023-07-04,1,,,,,モノクロ,0
1205,6130003008823,新規,0,2023-07-04,2023-07-04,合同会社ＨＯＭＥＬＡＢＯ,,合同会社,京都府,京都市西京区,松室北河原町１３０番地２,,26,111,6158204,,,,,,,2023-07-04,1,,,,,ホームラボ,0
1209,6140001130719,新規,0,2023-07-04,2023-07-04,株式会社Ｄｒ．Ｔ　Ｌａｂｏ,,株式会社,兵庫県,神戸市中央区,加納町６丁目３－１－９０５,,28,110,6500001,,,,,,,2023-07-04,1,,,,,ドクターティーラボ,0
1227,6180001156941,新規,0,2023-07-04,2023-07-04,株式会社ＴＳ８,,株式会社,愛知県,名古屋市中村区,高須賀町１８番地の３,,23,105,4530854,,,,,,,2023-07-04,1,,,,,ティーエスエイト,0
1228,6180001156958,新規,0,2023-07-04,2023-07-04,株式会社平和みらい牧場,,株式会社,愛知県,半田市,平和町１丁目６５番地,,23,205,4750963,,,,,,,2023-07-04,1,,,,,ヘイワミライボクジョウ,0
1231,6180003025434,新規,0,2023-07-04,2023-07-04,合同会社団欒,,合同会社,愛知県,名古屋市緑区,潮見が丘１丁目２－１,,23,114,4580037,,,,,,,2023-07-04,1,,,,,ダンラン,0
1237,6190001030526,新規,0,2023-07-04,2023-07-04,株式会社ＧａｎｄＩ,,株式会社,三重県,四日市市,諏訪町３番１６号,,24,202,5100085,,,,,,,2023-07-04,1,,,,,ガンディー,0
1239,6200001041447,新規,0,2023-07-04,2023-07-04,安井資産管理株式会社,,株式会社,岐阜県,可児市,大森台２丁目１０７番地,,21,214,5090239,,,,,,,2023-07-04,1,,,,,ヤスイシサンカンリ,0
1240,6200003006002,新規,0,2023-07-04,2023-07-04,合同会社アスカラマージ,,合同会社,岐阜県,安八郡輪之内町,福束新田１８０番地の１,,21,382,5030211,,,,,,,2023-07-04,1,,,,,アスカラマージ,0
1242,6220003003542,新規,0,2023-07-04,2023-07-04,Ｙ．Ｄ　ｃｏｎｎｅｃｔ合同会社,,合同会社,石川県,金沢市,大額２丁目１番１号,,17,201,9218147,,,,,,,2023-07-04,1,,,,,,0
1247,6240003006205,新規,0,2023-07-04,2023-07-04,合同会社Ａｐｙｉｉ,,合同会社,広島県,広島市安佐北区,白木町大字三田１９８番地１７,,34,106,7391521,,,,,,,2023-07-04,1,,,,,アピイ,0
1251,6260001038074,新規,0,2023-07-04,2023-07-04,株式会社ＭＥＩ　ＹＯＵ,,株式会社,岡山県,備前市,穂浪１５８９番地７,,33,211,7050033,,,,,,,2023-07-04,1,,,,,メイユウ,0
1252,6260001038090,新規,0,2023-07-04,2023-07-04,株式会社ラポール,,株式会社,岡山県,倉敷市,西中新田２１４番地１０,,33,202,7100833,,,,,,,2023-07-04,1,,,,,ラポール,0
1255,6290001102125,新規,0,2023-07-04,2023-07-04,株式会社Ｆ．Ｒ．Ｓ　ＢＡＳＥ,,株式会社,福岡県,糸島市,波多江５１３番地,,40,230,8191104,,,,,,,2023-07-04,1,,,,,エフアールエスベース,0
1256,6290005019076,新規,0,2023-07-04,2023-07-04,一般社団法人ＡＲＴ　ＰＬＡＳＴＥＲ,,その他の設立登記法人,福岡県,久留米市,山川町１０４７番地１,,40,203,8390817,,,,,,,2023-07-04,1,,,,,アートプラスター,0
1260,6320001019860,新規,0,2023-07-04,2023-07-04,株式会社海の駅,,株式会社,大分県,大分市,大字城原２５８番地,,44,201,8700267,,,,,,,2023-07-04,1,,,,,ウミノエキ,0
1263,6340001025675,新規,0,2023-07-04,2023-07-04,株式会社ＳＦＭＫ,,株式会社,鹿児島県,鹿児島市,西田２丁目２７番３２号,,46,201,8900046,,,,,,,2023-07-04,1,,,,,エスエフエムケー,0
1268,6360001032224,新規,0,2023-07-04,2023-07-04,株式会社Ｓｕｎ　Ｅｎｅｒｇｙ,,株式会社,沖縄県,浦添市,牧港１丁目１２番２号２Ｆ,,47,208,9012131,,,,,,,2023-07-04,1,,,,,サンエナジー,0
1269,6360001032232,新規,0,2023-07-04,2023-07-04,株式会社ＲｅＨｅｒｂ,,株式会社,沖縄県,豊見城市,字瀬長１７４番地６ウミカジテラス２４,,47,212,9010233,,,,,,,2023-07-04,1,,,,,リハーブ,0
1273,6370001050134,新規,0,2023-07-04,2023-07-04,株式会社Ｆｒａｎ　ｅｔ　Ｍｏｎｔｉ,,株式会社,宮城県,仙台市青葉区,小田原４丁目２番３０号,,04,101,9800003,,,,,,,2023-07-04,1,,,,,フランエモンチ,0
1274,6370001050142,新規,0,2023-07-04,2023-07-04,株式会社ワイエス自動車,,株式会社,宮城県,岩沼市,南長谷字原２３７番地の１,,04,211,9892454,,,,,,,2023-07-04,1,,,,,ワイエスジドウシャ,0
1275,6370003006183,新規,0,2023-07-04,2023-07-04,エーキューデザイン合同会社,,合同会社,宮城県,仙台市太白区,柳生４丁目１７－２柳生ガーデン１０５,,04,104,9811106,,,,,,,2023-07-04,1,,,,,エーキューデザイン,0
1278,6400003003103,新規,0,2023-07-04,2023-07-04,ＭＫＧ合同会社,,合同会社,岩手県,盛岡市,上鹿妻蟹沢１１０番地６,,03,201,0200855,,,,,,,2023-07-04,1,,,,,エムケージー,0
1289,6460301005159,新規,0,2023-07-04,2023-07-04,株式会社萌翔設備,,株式会社,北海道,北見市,端野町三区４１９番地４５,,01,208,0992103,,,,,,,2023-07-04,1,,,,,ホウショウセツビ,0
1292,6500001025031,新規,0,2023-07-04,2023-07-04,株式会社まれびとホールディングス,,株式会社,愛媛県,松山市,中央１丁目１９番３２号,,38,201,7918015,,,,,,,2023-07-04,1,,,,,マレビトホールディングス,0
1294,6700150021026,新規,0,2023-07-04,2015-10-09,日本労働組合総連合会長野県連合会,,その他,長野県,長野市,大字南長野県町５３２－３労働会館内,,20,201,3800838,,,,,,,2015-10-09,1,,,,,ニホンロウドウクミアイソウレンゴウカイナガノケンレンゴウカイ,0
1295,6700150118202,新規,0,2023-07-04,2023-07-04,ｃｈａｎｇｓｈａｓｈｅｎｔｕｏｄｉａｎｚｉｓｈａｎｇｗｕｙｏｕｘｉａｎｇｏｎｇｓｉ,,外国会社等,,,,,,,,ｊｉｎｇｌｉｎｌｕ　３９７　ｈａｏ　ｚｉｍｉｎｇｄａｓｈａ　１０３３ｆａｎｇ　Ｃｈａｎｇｓｈａｓｈｉ　ＨｕＮａｎＳｈｅｎｇ　Ｙｕｈｕａｑｕ,,,,,,2023-07-04,1,,,,,チョウサシンタクデンシショウムユウゲンコウシ,0
1296,6700150118210,新規,0,2023-07-04,2023-07-04,Ｗｅｎｚｈｏｕ　Ｈｕａｎｙｏｎｇ　Ｔｒａｄｉｎｇ　Ｃｏ．，Ｌｔｄ．,,外国会社等,,,,,,,,Ｃｈｉｎａ，Ｚｈｅｊｉａｎｇ　Ｗｅｎｚｈｏｕ，Ｌｏｎｇｗａｎ　Ｄｉｓｔｒｉｃｔ，Ｙｏｎｇｚｈｏｎｇ　Ｓｔｒｅｅｔ，Ｌｕｏｄｏｎｇ　Ｓｔｒｅｅｔ　Ｎо．３６７,,,,,,2023-07-04,1,,,,,オンシュウシカンユウボウエキユウゲンコウシ,0
1297,6700150118219,新規,0,2023-07-04,2023-07-04,Ｎｉｎｇｂｏｙｉｎｔｉａｎｚｈｉｎｅｎｇｋｅｊｉｙｏｕｘｉａｎｇｏｎｇｓｉ,,外国会社等,,,,,,,,ｚｈｅｊｉａｎｇ　ｎｉｎｇｂｏ　ｙｉｎｚｈｏｕｄｉｅｙｕａｎｌｕ２６８ｈａｏ７０１－６ｓｈｉ,,,,,,2023-07-04,1,,,,,ネイハインテンチノウカギユウゲンコウシ,0
1298,6700150118227,新規,0,2023-07-04,2023-07-04,ｄｏｎｇｇｕａｎｓｈｉｍｕｍｕｓｈｕｓｈａｎｇｍａｏｙｏｕｘｉａｎｇｏｎｇｓｉ,,外国会社等,,,,,,,,Ｃｈｉｎａ，ｇｕａｎｇｄｏｎｇｓｈｅｎｇ　ｄｏｎｇｇｕａｎｓｈｉ　ｈｏｕｊｉｅｚｈｅｎ　ｘｉｈｕａｎｌｕ　３９１ｈａｏ　４０１,,,,,,2023-07-04,1,,,,,トウカンシキキジュショウボウユウゲンコウシ,0
1305,7010001236560,新規,0,2023-07-04,2023-07-04,ＩＮＩＵジャパン株式会社,,株式会社,東京都,千代田区,神田佐久間町３丁目２８星野ビル５１３号,,13,101,1010025,,,,,,,2023-07-04,1,,,,,アイエヌアイユージャパン,0
1306,7010001236602,新規,0,2023-07-04,2023-07-04,株式会社ハッピースマイル,,株式会社,東京都,千代田区,九段南１丁目５番６号りそな九段ビル５Ｆ,,13,101,1020074,,,,,,,2023-07-04,1,,,,,ハッピースマイル,0
1317,7010403030413,新規,0,2023-07-04,2023-07-04,合同会社ＳＳＤキャピタルパートナーズ,,合同会社,東京都,港区,赤坂６丁目１０番８号ＳＫＩビル２Ｆ,,13,103,1070052,,,,,,,2023-07-04,1,,,,,エスエスディーキャピタルパートナーズ,0
1320,7010601063355,新規,0,2023-07-04,2023-07-04,株式会社Ｅ‐ＣＨＯＮＴＯＮ,,株式会社,東京都,江東区,北砂５丁目９番３号,,13,108,1360073,,,,,,,2023-07-04,1,,,,,イーチョントン,0
1333,7011001155370,新規,0,2023-07-04,2023-07-04,株式会社トリートエンドワークス,,株式会社,東京都,渋谷区,神宮前６丁目２３番４号桑野ビル２階,,13,113,1500001,,,,,,,2023-07-04,1,,,,,トリートエンドワークス,0
1334,7011001155420,新規,0,2023-07-04,2023-07-04,株式会社ＢＢ,,株式会社,東京都,渋谷区,神宮前６丁目７番１４号,,13,113,1500001,,,,,,,2023-07-04,1,,,,,ビービー,0
1335,7011001155437,新規,0,2023-07-04,2023-07-04,やさしいうた株式会社,,株式会社,東京都,目黒区,五本木２丁目１番３号,,13,110,1530053,,,,,,,2023-07-04,1,,,,,ヤサシイウタ,0
1339,7011003017098,新規,0,2023-07-04,2023-07-04,ＨＷＰ合同会社,,合同会社,東京都,渋谷区,元代々木町５２番５号,,13,113,1510062,,,,,,,2023-07-04,1,,,,,エイチダブルピー,0
1340,7011005010134,新規,0,2023-07-04,2023-07-04,一般社団法人ステキな音色研究所,,その他の設立登記法人,東京都,目黒区,中町２丁目３８番２７号鈴木第二ビル３０４号,,13,110,1530065,,,,,,,2023-07-04,1,,,,,ステキナネイロケンキュウジョ,0
1342,7011101103469,新規,0,2023-07-04,2023-07-04,フォーエバーゴルフ株式会社,,株式会社,東京都,新宿区,西新宿３丁目３番１３号西新宿水間ビル２Ｆ,,13,104,1600023,,,,,,,2023-07-04,1,,,,,フォーエバーゴルフ,0
1343,7011103013220,新規,0,2023-07-04,2023-07-04,アグラフコンサルティング合同会社,,合同会社,東京都,新宿区,西新宿３丁目３番１３号西新宿水間ビル２Ｆ,,13,104,1600023,,,,,,,2023-07-04,1,,,,,アグラフコンサルティング,0
1349,7011701026391,新規,0,2023-07-04,2023-07-04,ゲネシス株式会社,,株式会社,東京都,江戸川区,西篠崎２丁目７番２７号,,13,123,1330055,,,,,,,2023-07-04,1,,,,,ゲネシス,0
1353,7012401040690,新規,0,2023-07-04,2023-07-04,ＴＡＭＡ　ＧＲＥＥＮ　ＨＯＵＳＥ株式会社,,株式会社,東京都,多摩市,山王下１丁目５番地の３ベルザ多摩センター５０５,,13,224,2060042,,,,,,,2023-07-04,1,,,,,タマグリーンハウス,0
1361,7020003024153,新規,0,2023-07-04,2023-07-04,Ｗａｋａｍｉｙａ　Ｌａｂｓ　Ｊａｐａｎ合同会社,,合同会社,神奈川県,川崎市宮前区,東有馬１丁目１２番５９号,,14,136,2160002,,,,,,,2023-07-04,1,,,,,ワカミヤラボジャパン,0
1365,7021001079445,新規,0,2023-07-04,2023-07-04,株式会社チヨメディカルサービス,,株式会社,神奈川県,相模原市緑区,大島１２２９－２５３,,14,151,2520135,,,,,,,2023-07-04,1,,,,,チヨメディカルサービス,0
1366,7021001079453,新規,0,2023-07-04,2023-07-04,株式会社ｍｉｒａｉラウンジ,,株式会社,神奈川県,藤沢市,南藤沢２１－９、３Ｆ,,14,205,2510055,,,,,,,2023-07-04,1,,,,,ミライラウンジ,0
1367,7021001079478,新規,0,2023-07-04,2023-07-04,株式会社きっずるーむふぇありー,,株式会社,神奈川県,相模原市中央区,淵野辺本町４丁目３８番１４号,,14,152,2520202,,,,,,,2023-07-04,1,,,,,キッズルームフェアリー,0
1373,7030001154694,新規,0,2023-07-04,2023-07-04,Ｆｒｅｇｒｅｓｓ株式会社,,株式会社,埼玉県,さいたま市南区,大谷場１丁目９番１７号,,11,108,3360016,,,,,,,2023-07-04,1,,,,,フレグレス,0
1381,7040001129027,新規,0,2023-07-04,2023-07-04,Ｔｈｅ　Ｓｕｒｆ　Ｂｏａｒｄ　Ｍａｔｅｒｉａｌｓ株式会社,,株式会社,千葉県,長生郡一宮町,東浪見７４６４番地２,,12,421,2994303,,,,,,,2023-07-04,1,,,,,ザサーフボードマテリアルズ,0
1382,7040001129068,新規,0,2023-07-04,2023-07-04,株式会社の印野間商店,,株式会社,千葉県,旭市,三川５４２７番地１,,12,215,2892714,,,,,,,2023-07-04,1,,,,,ノジルシノマショウテン,0
1383,7040001129084,新規,0,2023-07-04,2023-07-04,株式会社ＤＣＴ,,株式会社,千葉県,市原市,五井中央西２丁目７番１５号ウルマ駅前ビル１階,,12,219,2900081,,,,,,,2023-07-04,1,,,,,ディーシーティー,0
1392,7070001040585,新規,0,2023-07-04,2023-07-04,株式会社自由人,,株式会社,群馬県,伊勢崎市,東上之宮町６７７番地４,,10,204,3720815,,,,,,,2023-07-04,1,,,,,ジユウジン,0
1393,7070001040593,新規,0,2023-07-04,2023-07-04,Ｇ＆Ｒ株式会社,,株式会社,群馬県,高崎市,寄合町３４番地ベンクーレンビル１０１号,,10,202,3700822,,,,,,,2023-07-04,1,,,,,ジーアンドアール,0
1398,7080103002838,新規,0,2023-07-04,2023-07-04,二光合同会社,,合同会社,静岡県,伊東市,吉田１０００番地の１６０,,22,208,4140051,,,,,,,2023-07-04,1,,,,,ニコウ,0
1400,7080403004815,新規,0,2023-07-04,2023-07-04,ＡＮＮＡＰＵＲＮＡ合同会社,,合同会社,静岡県,浜松市中区,高丘東２丁目１２番２８号,,22,131,4338117,,,,,,,2023-07-04,1,,,,,アンナプルナ,0
1403,7110001037651,新規,0,2023-07-04,2023-07-04,マルニ株式会社,,株式会社,新潟県,長岡市,花園２丁目９番１５号,,15,202,9400845,,,,,,,2023-07-04,1,,,,,マルニ,0
1415,7120001256060,新規,0,2023-07-04,2023-07-04,株式会社クラウンジャパン,,株式会社,大阪府,大阪市西淀川区,中島１丁目６番８号,,27,113,5550041,,,,,,,2023-07-04,1,,,,,クラウンジャパン,0
1416,7120001256102,新規,0,2023-07-04,2023-07-04,株式会社Ｂ．ｓｔａｎｄａｒｄ,,株式会社,大阪府,大阪市住吉区,万代２丁目５番３号,,27,120,5580055,,,,,,,2023-07-04,1,,,,,ビースタンダード,0
1417,7120001256127,新規,0,2023-07-04,2023-07-04,株式会社カテドラル,,株式会社,大阪府,大阪市西区,西本町３丁目１番２２－１１０３号,,27,106,5500005,,,,,,,2023-07-04,1,,,,,カテドラル,0
1418,7120001256135,新規,0,2023-07-04,2023-07-04,株式会社プロパティワン,,株式会社,大阪府,大阪市西成区,太子１丁目４－１－７０５,,27,122,5570002,,,,,,,2023-07-04,1,,,,,プロパティワン,0
1419,7120001256184,新規,0,2023-07-04,2023-07-04,和影堂株式会社,,株式会社,大阪府,大阪市此花区,酉島３丁目１１番２５－５０４号,,27,104,5540051,,,,,,,2023-07-04,1,,,,,ワエイドウ,0
1420,7120001256192,新規,0,2023-07-04,2023-07-04,Ｂｌｕｅ　Ｐｏｉｎｔ　Ｏｖｅｒｓｅａｓ株式会社,,株式会社,大阪府,大阪市住吉区,長居西３丁目７番８‐４０２号メゾン・ド・トレイユ,,27,120,5580002,,,,,,,2023-07-04,1,,,,,ブルーポイントオーバーシーズ,0
1422,7120003024382,新規,0,2023-07-04,2023-07-04,ジェイブラザーズ合同会社,,合同会社,大阪府,枚方市,長尾谷町１丁目３０３－１２－１Ｆ－Ａ,,27,210,5730164,,,,,,,2023-07-04,1,,,,,ジェイブラザーズ,0
1423,7120003024416,新規,0,2023-07-04,2023-07-04,合同会社ｐｕｒｅｏｒａｎｇｅ,,合同会社,大阪府,大阪市城東区,諏訪２丁目１２番１２号,,27,118,5360021,,,,,,,2023-07-04,1,,,,,ピュアオレンジ,0
1426,7120101067812,新規,0,2023-07-04,2023-07-04,株式会社大樹,,株式会社,大阪府,泉佐野市,市場西３丁目８番１２号,,27,213,5980006,,,,,,,2023-07-04,1,,,,,タイジュ,0
1430,7120901047740,新規,0,2023-07-04,2023-07-04,株式会社ＩＮＦＩＮＩＴＹ,,株式会社,大阪府,高槻市,津之江町２丁目３８番１４号,,27,207,5690822,,,,,,,2023-07-04,1,,,,,インフィニティ,0
1432,7122001037127,新規,0,2023-07-04,2023-07-04,株式会社ジャパン・スマイル,,株式会社,大阪府,八尾市,安中町１丁目３番８号陽和ビル２０１,,27,212,5810085,,,,,,,2023-07-04,1,,,,,ジャパンスマイル,0
1434,7130001074627,新規,0,2023-07-04,2023-07-04,株式会社いするぎデータ研究所,,株式会社,京都府,京都市中京区,御池通東洞院東入笹屋町４３６永和御池ビル６０６号,,26,104,6048187,,,,,,,2023-07-04,1,,,,,イスルギデータケンキュウショ,0
1437,7130003008814,新規,0,2023-07-04,2023-07-04,合同会社スクローバー,,合同会社,京都府,京丹後市,大宮町善王寺５２７番地,,26,212,6292504,,,,,,,2023-07-04,1,,,,,スクローバー,0
1442,7140001130726,新規,0,2023-07-04,2023-07-04,ｙ’ｓｗｏｒｋｓ株式会社,,株式会社,兵庫県,加古郡播磨町,西野添３丁目１１番１７号エストリア１０３号,,28,382,6750160,,,,,,,2023-07-04,1,,,,,ワイズワークス,0
1444,7140003019257,新規,0,2023-07-04,2023-07-04,合同会社ＴＫＴ,,合同会社,兵庫県,神戸市東灘区,御影石町３丁目１２番２３号３０２号,,28,101,6580045,,,,,,,2023-07-04,1,,,,,ティケイティ,0
1450,7180001156932,新規,0,2023-07-04,2023-07-04,株式会社ＬＥＴＯ,,株式会社,愛知県,名古屋市中区,錦３丁目６番１５号先名古屋テレビ塔３Ｆ,,23,106,4600003,,,,,,,2023-07-04,1,,,,,レト,0
1454,7180003025425,新規,0,2023-07-04,2023-07-04,ＫＣ’Ｓ合同会社,,合同会社,愛知県,名古屋市中川区,上高畑１丁目１２番地,,23,110,4540873,,,,,,,2023-07-04,1,,,,,ケーシーズ,0
1455,7180003025433,新規,0,2023-07-04,2023-07-04,ウィステリアフィールド合同会社,,合同会社,愛知県,名古屋市中区,丸の内１丁目１２番２号,,23,106,4600002,,,,,,,2023-07-04,1,,,,,ウィステリアフィールド,0
1457,7190001030541,新規,0,2023-07-04,2023-07-04,ベコラ‐ドジャパン株式会社,,株式会社,三重県,伊賀市,下郡５０番地６５,,24,216,5180124,,,,,,,2023-07-04,1,,,,,ベコラードジャパン,0
1459,7200001041454,新規,0,2023-07-04,2023-07-04,株式会社ＯＧＵＲＩ　ＬＩＮＥ,,株式会社,岐阜県,中津川市,飯沼９６８番地の１,,21,206,5097322,,,,,,,2023-07-04,1,,,,,オグリライン,0
1460,7200003006001,新規,0,2023-07-04,2023-07-04,合同会社ラフィット,,合同会社,岐阜県,瑞穂市,別府１２８５番地１,,21,216,5010222,,,,,,,2023-07-04,1,,,,,ラフィット,0
1468,7260001038081,新規,0,2023-07-04,2023-07-04,おおつき教材株式会社,,株式会社,岡山県,井原市,井原町１３１５番地,,33,207,7150019,,,,,,,2023-07-04,1,,,,,オオツキキョウザイ,0
1477,7310001018490,新規,0,2023-07-04,2023-07-04,株式会社ＮＥＳＫＥＮ,,株式会社,長崎県,長崎市,三原２丁目２０番１号,,42,201,8528123,,,,,,,2023-07-04,1,,,,,ネスケン,0
1478,7310003004596,新規,0,2023-07-04,2023-07-04,合同会社にこにこ,,合同会社,長崎県,大村市,西三城町１３番地８,,42,205,8560825,,,,,,,2023-07-04,1,,,,,ニコニコ,0
1483,7340001025682,新規,0,2023-07-04,2023-07-04,株式会社ＧＥＭ　ＭＩＮＴ,,株式会社,鹿児島県,鹿児島市,下荒田２丁目７番１４号久木留ビル２階,,46,201,8900056,,,,,,,2023-07-04,1,,,,,ジェムミント,0
1486,7360001032223,新規,0,2023-07-04,2023-07-04,株式会社ＡＳＡＷＩＬＬ,,株式会社,沖縄県,糸満市,字大度２５５番地の６０,,47,210,9010334,,,,,,,2023-07-04,1,,,,,アサウィル,0
1487,7360003013106,新規,0,2023-07-04,2023-07-04,合同会社凱,,合同会社,沖縄県,那覇市,三原１丁目９－１,,47,201,9020063,,,,,,,2023-07-04,1,,,,,カイ,0
1492,7370001050125,新規,0,2023-07-04,2023-07-04,株式会社光和ボディコーティング,,株式会社,宮城県,仙台市宮城野区,鶴巻１丁目２１番２１号,,04,102,9830024,,,,,,,2023-07-04,1,,,,,コウワボディコーティング,0
1500,7400001016295,新規,0,2023-07-04,2023-07-04,株式会社九重美装,,株式会社,岩手県,盛岡市,八幡町１－７メゾン九重２階,,03,201,0200872,,,,,,,2023-07-04,1,,,,,ココノエビソウ,0
1501,7400003003102,新規,0,2023-07-04,2023-07-04,コットンタイム合同会社,,合同会社,岩手県,奥州市,江刺岩谷堂字向山３番地１３８,,03,215,0231101,,,,,,,2023-07-04,1,,,,,コットンタイム,0
1510,7430003015202,新規,0,2023-07-04,2023-07-04,ＴＨＲＥＥ　ＳＫ　ＩＮＴＥＲＮＡＴＩＯＮＡＬ合同会社,,合同会社,北海道,苫小牧市,東開町４丁目２１番２５号,,01,213,0591301,,,,,,,2023-07-04,1,,,,,スリーエスケーインターナショナル,0
1513,7460001005805,新規,0,2023-07-04,2023-07-04,株式会社ラマモシリ,,株式会社,北海道,釧路市,昭和中央１丁目３４番６号,,01,206,0840910,,,,,,,2023-07-04,1,,,,,ラマモシリ,0
1520,7500003003059,新規,0,2023-07-04,2023-07-04,合同会社南予会計,,合同会社,愛媛県,宇和島市,吉田町立間２番耕地５３１番地１,,38,203,7993730,,,,,,,2023-07-04,1,,,,,ナンヨカイケイ,0
1522,7700150117640,新規,0,2023-07-04,2023-06-23,白子町地域公共交通活性化協議会,,その他,千葉県,長生郡白子町,関５０７４－２,,12,424,2994218,,,,,,,2023-06-23,1,,,,,シラコマチチイキコウキヨウコウツウカツセイカキヨウギカイ,0
1523,7700150118201,新規,0,2023-07-04,2023-07-04,ｃｈａｎｇｓｈａ　ｗａｎｂａｎｇ　ｚｈｉｎｅｎｇ　ｊｉｓｈｕｙｏｕｘｉａｎ　ｇｏｎｇｓｉ,,外国会社等,,,,,,,,ｙｕ　ｈｕａ　ｑｕ　ｊｉｎｇ　ｌｉａｎ　ｌｕ３９７　ｈａｏ　ｚｉ　ｍｉｎｇ　ｄａｓｈａ　１０　ｃｅｎｇ　１０３４　ｆａｎｇ　ｃｈａｎｇｓｈａ　ｈｕｎａｎ　４１０１１６　ＣＮ,,,,,,2023-07-04,1,,,,,チョウサマンホウチノウギジュツユウゲンコウシ,0
1524,7700150118218,新規,0,2023-07-04,2023-07-04,ｙｉｗｕｂｅｎｋｕｚｈｉｎｅｎｇｋｅｊｉｙｏｕｘｉａｎｇｏｎｇｓｉ,,外国会社等,,,,,,,,ｌｏｎｇｘｉａｎｇｌｕ　４５ｈａｏ　３ｌｏｕ　Ｎｉａｎｓａｎｌｉ　ｊｉｅｄａｏ　Ｙｉｗｕ　ｚｈｅｊｉａｎｇ，Ｃｈｉｎａ,,,,,,2023-07-04,1,,,,,ギウホンコクチノウカギユウゲンコウシ,0
1525,7700150118226,新規,0,2023-07-04,2023-07-04,ｓｈｅｎｚｈｅｎ　ｇｕａｎｇｈｕａ　ｗｅｉｙｅ　ｇｕｆｅｎ　ｙｏｕｘｉａｎｇｏｎｇｓｉ,,外国会社等,,,,,,,,Ａ４０３－１，Ｒｅｓｅａｒｃｈ　Ｂｕｉｌｄｉｎｇ，Ｗｕｈａｎ　Ｕｎｉｖｅｒｓｉｔｙ，Ｎｏ．６，Ｙｕｅｘｉｎｇ　Ｓｅｃｏｎｄ　Ｒｏａｄ，Ｎａｎｓｈａｎ，Ｓｈｅｎｚｈｅｎ．ＣＮ,,,,,,2023-07-04,1,,,,,シンセンコウカイギョウコフンユウゲンコウシ,0
1526,7700150118234,新規,0,2023-07-04,2023-07-04,ａｎｈｕｉａｎａｎｑｉｃｈｅｙｏｎｇｐｉｎｘｉａｏｓｈｏｕｙｏｕｘｉａｎｇｏｎｇｓｉ,,外国会社等,,,,,,,,ｆｕ　ｎａｎ　ｊｉｎｇ　ｊｉ　ｋａｉ　ｆａ　ｑｕ　ｊｉ　ｘｉｅ　ｄｉａｎ　ｚｉ　ｃｈａｎ　ｙｅ　ｙｕａｎ　ｆｕｙａｎｇ　ａｎｈｕｉ　５１００００　ＣＮ,,,,,,2023-07-04,1,,,,,アンキアンアンキシャヨウヒンショウシュウユウゲンコウシ,0
1540,8010001236592,新規,0,2023-07-04,2023-07-04,株式会社ＳＫ企画,,株式会社,東京都,千代田区,二番町５番地２麹町プラザ９０１,,13,101,1020084,,,,,,,2023-07-04,1,,,,,エスケーキカク,0
1554,8010701044510,新規,0,2023-07-04,2023-07-04,株式会社ブライトストーン,,株式会社,東京都,品川区,勝島１丁目４番２０号,,13,109,1400012,,,,,,,2023-07-04,1,,,,,ブライトストーン,0
1558,8010801034114,新規,0,2023-07-04,2023-07-04,株式会社ボンバアトミカ社,,株式会社,東京都,大田区,池上６丁目３２番１１号,,13,111,1460082,,,,,,,2023-07-04,1,,,,,ボンバアトミカシャ,0
1562,8010803004593,新規,0,2023-07-04,2023-07-04,合同会社令和座,,合同会社,東京都,大田区,西糀谷１丁目２１番１５号,,13,111,1440034,,,,,,,2023-07-04,1,,,,,レイワザ,0
1563,8010901053344,新規,0,2023-07-04,2023-07-04,株式会社ＳＵＢＪＥＣＴ　ＬＩＧＨＴ,,株式会社,東京都,世田谷区,北沢１丁目３４番１６号プルミエ北沢１０２,,13,112,1550031,,,,,,,2023-07-04,1,,,,,サブジェクトライト,0
1568,8011001155444,新規,0,2023-07-04,2023-07-04,株式会社Ｓｐａｃｅ　Ｍｅｄｉａ,,株式会社,東京都,渋谷区,宇田川町２番１－１００５号渋谷ホームズ,,13,113,1500042,,,,,,,2023-07-04,1,,,,,スペースメディア,0
1576,8011101103435,新規,0,2023-07-04,2023-07-04,菱川遠海機械技術株式会社,,株式会社,東京都,新宿区,百人町２丁目１番４５号赤煉瓦２４２,,13,104,1690073,,,,,,,2023-07-04,1,,,,,ヒシカワエンカイキカイ,0
1581,8011703003520,新規,0,2023-07-04,2023-07-04,合同会社旭輝,,合同会社,東京都,江戸川区,西葛西３丁目３番２６－２０６号,,13,123,1340088,,,,,,,2023-07-04,1,,,,,アサヒ,0
1589,8012701017727,新規,0,2023-07-04,2023-07-04,株式会社Ｓｔａｌ　Ｌｉｂｅｒｔｙ,,株式会社,東京都,清瀬市,元町１丁目４番４１号レーベン清瀬ＴＨＥＴＯＷＥＲ２００２,,13,221,2040021,,,,,,,2023-07-04,1,,,,,スタールリバティ,0
1590,8012801022478,新規,0,2023-07-04,2023-07-04,株式会社ＳＵＺＡＫＩ,,株式会社,東京都,昭島市,東町４丁目６番６号,,13,207,1960033,,,,,,,2023-07-04,1,,,,,スザキ,0
1600,8020001152277,新規,0,2023-07-04,2023-07-04,株式会社ＲＩＮＯＳ,,株式会社,神奈川県,横浜市緑区,鴨居６丁目２５番４号シティパレスアカネ１０５,,14,113,2260003,,,,,,,2023-07-04,1,,,,,リノス,0
1601,8020001152285,新規,0,2023-07-04,2023-07-04,株式会社翔洋,,株式会社,神奈川県,横浜市南区,真金町２丁目２２番地１５－４０２号,,14,105,2320021,,,,,,,2023-07-04,1,,,,,ショウヨウ,0
1602,8020001152351,新規,0,2023-07-04,2023-07-04,株式会社ｉｍａ‐ｐａｎ,,株式会社,神奈川県,川崎市高津区,末長４丁目２１番２４－２０１号,,14,134,2130013,,,,,,,2023-07-04,1,,,,,イマパン,0
1603,8020003024111,新規,0,2023-07-04,2023-07-04,ｓｔａｒ’ｔｓ合同会社,,合同会社,神奈川県,横浜市旭区,東希望が丘６７－１,,14,112,2410826,,,,,,,2023-07-04,1,,,,,スターツ,0
1604,8020003024136,新規,0,2023-07-04,2023-07-04,合同会社ルクソール,,合同会社,神奈川県,川崎市多摩区,枡形３丁目４番３０－３０１号,,14,135,2140032,,,,,,,2023-07-04,1,,,,,ルクソール,0
1605,8021001079444,新規,0,2023-07-04,2023-07-04,株式会社すこ,,株式会社,神奈川県,大和市,深見３８８６番地１１,,14,213,2420011,,,,,,,2023-07-04,1,,,,,スコ,0
1606,8021001079469,新規,0,2023-07-04,2023-07-04,株式会社ミキホーム,,株式会社,神奈川県,伊勢原市,岡崎４７８８番地の６,,14,214,2591135,,,,,,,2023-07-04,1,,,,,ミキホーム,0
1607,8021003013269,新規,0,2023-07-04,2023-07-04,合同会社ＢＥＮＢＲＡＨＩＭ,,合同会社,神奈川県,小田原市,扇町２、６―３４,,14,206,2500000,,,,,,,2023-07-04,1,,,,,ベンブラヒム,0
1617,8030001154751,新規,0,2023-07-04,2023-07-04,富岡板金工業株式会社,,株式会社,埼玉県,羽生市,大字小松１２３５番地４,,11,216,3480037,,,,,,,2023-07-04,1,,,,,トミオカバンキンコウギョウ,0
1630,8050001053068,新規,0,2023-07-04,2023-07-04,ＰＫ　Ｉｎｔｅｒｎａｔｉｏｎａｌ株式会社,,株式会社,茨城県,古河市,東諸川１３９番地１、２Ｆ,,08,204,3060124,,,,,,,2023-07-04,1,,,,,ピーケーインターナショナル,0
1636,8070001040592,新規,0,2023-07-04,2023-07-04,株式会社ＳＫーＲＯＯＦ,,株式会社,群馬県,伊勢崎市,堀下町１１１３番地,,10,204,3792212,,,,,,,2023-07-04,1,,,,,エスケールーフ,0
1641,8080001025709,新規,0,2023-07-04,2023-07-04,株式会社リサイクルショップくら屋,,株式会社,静岡県,静岡市葵区,幸町６番地の３２,,22,101,4200067,,,,,,,2023-07-04,1,,,,,リサイクルショップクラヤ,0
1643,8080101024098,新規,0,2023-07-04,2023-07-04,易安株式会社,,株式会社,静岡県,伊東市,八幡野１７５９番地の１１５,,22,208,4130232,,,,,,,2023-07-04,1,,,,,イアン,0
1645,8080401026570,新規,0,2023-07-04,2023-07-04,アトリエベーカリー株式会社,,株式会社,静岡県,掛川市,下俣１番地の９０,,22,213,4360025,,,,,,,2023-07-04,1,,,,,アトリエベーカリー,0
1654,8120001256134,新規,0,2023-07-04,2023-07-04,株式会社ディスタンゲ,,株式会社,大阪府,大阪市中央区,中寺１丁目３番２３号,,27,128,5420065,,,,,,,2023-07-04,1,,,,,ディスタンゲ,0
1655,8120001256150,新規,0,2023-07-04,2023-07-04,株式会社ＢＬＩＳ,,株式会社,大阪府,大阪市淀川区,東三国６丁目１番４０号２Ａ,,27,123,5320002,,,,,,,2023-07-04,1,,,,,ブリス,0
1656,8120001256159,新規,0,2023-07-04,2023-07-04,株式会社リセシア,,株式会社,大阪府,大阪市淀川区,西中島７丁目１番１号興北ビル５Ｆ,,27,123,5320011,,,,,,,2023-07-04,1,,,,,リセシア,0
1657,8120001256200,新規,0,2023-07-04,2023-07-04,コスメフェリーチェ株式会社,,株式会社,大阪府,大阪市旭区,大宮５丁目１番２９号１階,,27,117,5350002,,,,,,,2023-07-04,1,,,,,コスメフェリーチェ,0
1658,8120003024415,新規,0,2023-07-04,2023-07-04,２ＨＯＰＥ’１合同会社,,合同会社,大阪府,大阪市中央区,道頓堀１丁目東４番３号,,27,128,5420071,,,,,,,2023-07-04,1,,,,,トゥーホープワン,0
1660,8120005023704,新規,0,2023-07-04,2023-07-04,一般社団法人未来パートナー,,その他の設立登記法人,大阪府,大阪市鶴見区,今津南１丁目５番３２号,,27,124,5380043,,,,,,,2023-07-04,1,,,,,ミライパートナー,0
1664,8120101067786,新規,0,2023-07-04,2023-07-04,株式会社Ａｎｙ,,株式会社,大阪府,藤井寺市,藤井寺３丁目３－３９ルシア藤井寺３０２,,27,226,5830024,,,,,,,2023-07-04,1,,,,,エニィ,0
1665,8120101067811,新規,0,2023-07-04,2023-07-04,Ｎ　ｍａｄｅ株式会社,,株式会社,大阪府,和泉市,はつが野４丁目１６－８,,27,219,5941106,,,,,,,2023-07-04,1,,,,,,0
1669,8122001037126,新規,0,2023-07-04,2023-07-04,株式会社ＣＬＯＵ,,株式会社,大阪府,東大阪市,高井田本通６丁目２番２３号,,27,227,5770066,,,,,,,2023-07-04,1,,,,,クルー,0
1671,8130001074626,新規,0,2023-07-04,2023-07-04,ＩＥ　ＰＡＲＣ．株式会社,,株式会社,京都府,京都市上京区,上長者町通智恵光院東入須浜町５７１番地,,26,102,6028264,,,,,,,2023-07-04,1,,,,,イエパーク,0
1672,8130001074659,新規,0,2023-07-04,2023-07-04,株式会社Ｐ．Ｍ．Ｓｔｏｒｙ,,株式会社,京都府,京都市右京区,嵯峨天龍寺今堀町１２番地５パラドール嵯峨嵐山４０６号,,26,108,6168366,,,,,,,2023-07-04,1,,,,,パムストーリー,0
1676,8140001130725,新規,0,2023-07-04,2023-07-04,株式会社ＴＹ,,株式会社,兵庫県,神戸市中央区,中山手通１丁目２７番１０号,,28,110,6500004,,,,,,,2023-07-04,1,,,,,ティーワイ,0
1690,8180001156923,新規,0,2023-07-04,2023-07-04,株式会社ｖｏｌａｙｏｎ　Ｊａｐａｎ,,株式会社,愛知県,名古屋市中村区,名駅２丁目２８番９号名駅ブライトビル２０２,,23,105,4500002,,,,,,,2023-07-04,1,,,,,ボラヨンジャパン,0
1691,8180001156948,新規,0,2023-07-04,2023-07-04,環境理研株式会社,,株式会社,愛知県,名古屋市守山区,大森５丁目９０９番地,,23,113,4630021,,,,,,,2023-07-04,1,,,,,カンキョウリケン,0
1696,8180301037526,新規,0,2023-07-04,2023-07-04,株式会社ＫＯＺＵＣＨＩ,,株式会社,愛知県,岡崎市,籠田町１２番地第１藤村ビル２Ｆ,,23,202,4440041,,,,,,,2023-07-04,1,,,,,コズチ,0
1697,8180305009488,新規,0,2023-07-04,2023-07-04,医療法人さかまきクリニック,,その他の設立登記法人,愛知県,豊川市,八幡町東赤土８３番地４,,23,207,4420857,,,,,,,2023-07-04,1,,,,,サカマキクリニック,0
1699,8190001030532,新規,0,2023-07-04,2023-07-04,松美株式会社,,株式会社,三重県,四日市市,生桑町２１２１番地２１,,24,202,5120911,,,,,,,2023-07-04,1,,,,,マツミ,0
1700,8190003004369,新規,0,2023-07-04,2023-07-04,合同会社いまたの,,合同会社,三重県,伊勢市,一之木３丁目１５番３号,,24,203,5160071,,,,,,,2023-07-04,1,,,,,イマタノ,0
1712,8240005015607,新規,0,2023-07-04,2023-07-04,一般社団法人広島県防災ドローン研究会,,その他の設立登記法人,広島県,広島市安芸区,瀬野２丁目１５番９号グランテージ瀬野,,34,107,7390311,,,,,,,2023-07-04,1,,,,,ヒロシマケンボウサイドローンケンキュウカイ,0
1715,8260001038072,新規,0,2023-07-04,2023-07-04,Ｋ’ｓ株式会社,,株式会社,岡山県,岡山市南区,福田４１９番地２６,,33,104,7028021,,,,,,,2023-07-04,1,,,,,ケーズ,0
1716,8260001038080,新規,0,2023-07-04,2023-07-04,株式会社Ｄライフ,,株式会社,岡山県,岡山市南区,浦安西町２８番地１７,,33,104,7028025,,,,,,,2023-07-04,1,,,,,ディライフ,0
1720,8290001102115,新規,0,2023-07-04,2023-07-04,株式会社ユニ・サンテ,,株式会社,福岡県,福岡市城南区,田島１丁目４－１８－３０３,,40,136,8140113,,,,,,,2023-07-04,1,,,,,ユニサンテ,0
1721,8290001102131,新規,0,2023-07-04,2023-07-04,株式会社Ｏｃｅａｎ,,株式会社,福岡県,福岡市早良区,早良５丁目２４番３３号,,40,137,8111122,,,,,,,2023-07-04,1,,,,,オーシャン,0
1727,8330001031020,新規,0,2023-07-04,2023-07-04,トライアングル株式会社,,株式会社,熊本県,熊本市中央区,新屋敷２丁目１４番３９号メゾンド新屋敷２０２,,43,101,8620975,,,,,,,2023-07-04,1,,,,,トライアングル,0
1731,8360005006874,新規,0,2023-07-04,2023-07-04,一般社団法人潮風舎,,その他の設立登記法人,沖縄県,島尻郡久米島町,字比嘉９９番地の４６,,47,361,9013108,,,,,,,2023-07-04,1,,,,,チョウフウシャ,0
1733,8370001050132,新規,0,2023-07-04,2023-07-04,ＧＭＵｓｋｉｃｋ株式会社,,株式会社,宮城県,仙台市宮城野区,蒲生字鍋沼５番地２,,04,102,9830002,,,,,,,2023-07-04,1,,,,,ジーエムアスキック,0
1737,8370005010652,新規,0,2023-07-04,2023-07-04,一般社団法人フリースペースゆう,,その他の設立登記法人,宮城県,大崎市,古川北稲葉３丁目１３番２５号,,04,215,9896145,,,,,,,2023-07-04,1,,,,,フリースペースユウ,0
1749,8430003015201,新規,0,2023-07-04,2023-07-04,合同会社若葉の森,,合同会社,北海道,江別市,豊幌花園町２７番地の５,,01,217,0670026,,,,,,,2023-07-04,1,,,,,ワカバノモリ,0
1751,8500001025038,新規,0,2023-07-04,2023-07-04,株式会社ＢＥＮＧＳ,,株式会社,愛媛県,松山市,高岡町５１０番地,,38,201,7918036,,,,,,,2023-07-04,1,,,,,ベングス,0
1752,8500003003058,新規,0,2023-07-04,2023-07-04,合同会社貫,,合同会社,愛媛県,伊予市,三秋大地甲２８９－１,,38,210,7993124,,,,,,,2023-07-04,1,,,,,ツラヌキ,0
1754,8500005008625,新規,0,2023-07-04,2023-07-04,愛媛人材育成協同組合,,その他の設立登記法人,愛媛県,今治市,中堀１丁目８番１６号,,38,202,7992115,,,,,,,2023-07-04,1,,,,,エヒメジンザイイクセイ,0
1755,8700150118200,新規,0,2023-07-04,2023-07-04,ＳＨＥＮＺＨＥＮ　ＺＨＡＮＹＩ　ＭＡＯＹＩ　ＹＯＵＸＩＡＮ　ＧＯＮＧＳＩ,,外国会社等,,,,,,,,ＮａｎＳｈａｎＱｕ，ＹｕｅＨａｉＪｉｅＤａｏ，ＨａｉＺｈｕＳｈｅＱｕ　ＨａｉＤｅＳａｎＤａｏ１５Ｈａｏ　ＨａｉＡｎＤａＳｈａ　ＤｏｎｇＺｕｏ　１４０３Ａ－２２４８　ＳｈｅｎＺｈｅｎ　ＧｕａｎｇＤｏｎｇ　ＣＮ,,,,,,2023-07-04,1,,,,,シンセンテンエキボウエキユウゲンコウシ,0
1756,8700150118209,新規,0,2023-07-04,2023-07-04,Ｙｉｗｕ　ｓｈｉ　ｘｉａｏ　ｌｉｎｇ　ｄｉａｎｚｉ　ｓｈａｎｇｗｕ　ｙｏｕｘｉａｎ　ｇｏｎｇｓｉ,,外国会社等,,,,,,,,Ｃｈｉｎａ　Ｚｈｅｊｉａｎｇ　Ｙｉｗｕ　ｂｅｉｙｕａｎ　ｊｉｅｄａｏ　ｊｉｎｇｓａｎ　ｌｕ　１１ｈａｏ　ｚｏｎｇｈｅ　ｌｏｕ　６０９ｓｈｉ,,,,,,2023-07-04,1,,,,,ギウシショウレイデンシショウムユウゲンコウシ,0
1757,8700150118217,新規,0,2023-07-04,2023-07-04,ｃｈａｎｇｓｈａｓｈｉ　ｗｅｉｙｕｎ　ｄｉａｎｚｉ　ｓｈａｎｇｗｕ　ｙｏｕｘｉａｎ　ｇｏｎｇｓｉ,,外国会社等,,,,,,,,４Ｆ　１Ｂ，Ｉｎｃｕｂａｔｏｒ　Ｂｕｉｌｄｉｎｇ，Ｎｏ．９８，Ｘｉｏｎｇｔｉａｎ　Ｒｏａｄ　Ｌｏｎｇｐｉｎｇ　Ｈｉｇｈ－ｔｅｃｈ　Ｐａｒｋ　Ｆｕｒｏｎｇ　Ｃｈａｎｇｓｈａ　Ｈｕｎａｎ　Ｃｈｉｎａ,,,,,,2023-07-04,1,,,,,チョウサシイウンデンシショウムユウゲンコウシ,0
1758,8700150118225,新規,0,2023-07-04,2023-07-04,ｓｈｅｎｚｈｅｎｙｉｎｇｋｅｄａｋｅｊｉｙｏｕｘｉａｎｇｏｎｇｓｉ,,外国会社等,,,,,,,,ｌｏｎｇｇａｎｇｑｕ　ｈｅｎｇｇａｎｇｊｉｅｄａｏ　ｓｉｌｉａｎｘｉｎｇｗａｎｇｌｕ　８８ｈａｏ　３，４ｃｅｎｇ　ｓｈｅｎｚｈｅｎ　ｇｕａｎｇｄｏｎｇ，Ｃｈｉｎａ,,,,,,2023-07-04,1,,,,,シンセンエイカタツカギユウゲンコウシ,0
1759,8700150118233,新規,0,2023-07-04,2023-07-04,ＧｕａｎｇＺｈｏｕＳｈｉＸｉｎＷａｎＱｉｕＤｉａｎＺｉＳｈａｎｇＷｕＹｏｕＸｉａｎＧｏｎｇＳｉ,,外国会社等,,,,,,,,ＴａｉｎＨｅＱｕｓｈｕｉＹｉｎＳｉＨｅｎｇＬｕ１６１Ｈａｏ８０２ＦａｎｇＧｕａｎｇｚｈｏｕｓｈｉ　ＧｕａｎｇＤｏｎｇｓｈｅｎｇ,,,,,,2023-07-04,1,,,,,コウシュウシシンマンシュウデンシショウムユウゲンコウシ,0
1773,9010401175381,新規,0,2023-07-04,2023-07-04,株式会社ペガーズ,,株式会社,東京都,港区,白金台３丁目７番７号白金台ロイヤルコーポ３１１号室,,13,103,1080071,,,,,,,2023-07-04,1,,,,,ペガーズ,0
1774,9010401175398,新規,0,2023-07-04,2023-07-04,カンプノウ株式会社,,株式会社,東京都,港区,北青山１丁目３番１号アールキューブ青山３階,,13,103,1070061,,,,,,,2023-07-04,1,,,,,カンプノウ,0
1781,9010601063353,新規,0,2023-07-04,2023-07-04,株式会社Ｔｒｕｓｔ　Ｏｎｅ,,株式会社,東京都,墨田区,亀沢１丁目１６番１号,,13,107,1300014,,,,,,,2023-07-04,1,,,,,トラストワン,0
1782,9010603010205,新規,0,2023-07-04,2023-07-04,ＤＲＥＡＭＥＲ’Ｓ　ＥＭＰＩＲＥ合同会社,,合同会社,東京都,墨田区,江東橋１丁目７番１２－３０１号ＳＫＹＷＥＳＴ,,13,107,1300022,,,,,,,2023-07-04,1,,,,,ドリーマーズエンパイア,0
1786,9010701044501,新規,0,2023-07-04,2023-07-04,オーシス株式会社,,株式会社,東京都,品川区,西五反田２丁目１９番１２号五反田井門ビル,,13,109,1410031,,,,,,,2023-07-04,1,,,,,オーシス,0
1792,9011001155377,新規,0,2023-07-04,2023-07-04,株式会社ＣＥＬＬ,,株式会社,東京都,渋谷区,富ヶ谷１丁目４４番２号Ａ－ＦＬＡＴ４０１,,13,113,1510063,,,,,,,2023-07-04,1,,,,,セル,0
1793,9011001155419,新規,0,2023-07-04,2023-07-04,株式会社ｍｅ,,株式会社,東京都,渋谷区,神宮前６丁目７番１４号,,13,113,1500001,,,,,,,2023-07-04,1,,,,,ミー,0
1794,9011101103467,新規,0,2023-07-04,2023-07-04,ｅａｓｙ株式会社,,株式会社,東京都,新宿区,中落合２丁目２番１７,,13,104,1610032,,,,,,,2023-07-04,1,,,,,イージー,0
1798,9011601026944,新規,0,2023-07-04,2023-07-04,株式会社ＧＥＮＥ,,株式会社,東京都,練馬区,大泉学園町７丁目２０番４号,,13,120,1780061,,,,,,,2023-07-04,1,,,,,ジーン,0
1800,9011801042642,新規,0,2023-07-04,2023-07-04,株式会社エヌドット,,株式会社,東京都,葛飾区,細田３丁目３１番３号,,13,122,1240021,,,,,,,2023-07-04,1,,,,,エヌドット,0
1803,9012403006036,新規,0,2023-07-04,2023-07-04,合同会社ゾンビィダンス,,合同会社,東京都,武蔵野市,吉祥寺本町４丁目３１‐６‐２２７,,13,203,1800004,,,,,,,2023-07-04,1,,,,,ゾンビィダンス,0
1808,9013301051000,新規,0,2023-07-04,2023-07-04,株式会社エールコネクト,,株式会社,東京都,豊島区,南大塚２丁目３８－８－８０１,,13,116,1700005,,,,,,,2023-07-04,1,,,,,エールコネクト,0
1815,9020001152383,新規,0,2023-07-04,2023-07-04,株式会社まぼりハウス,,株式会社,神奈川県,横浜市泉区,新橋町２１２７－６,,14,116,2450009,,,,,,,2023-07-04,1,,,,,マボリハウス,0
1818,9021001079451,新規,0,2023-07-04,2023-07-04,株式会社ａｎｄ　Ｌｉｆｅ,,株式会社,神奈川県,三浦郡葉山町,下山口１９８２番地の３９,,14,301,2400116,,,,,,,2023-07-04,1,,,,,アンドライフ,0
1819,9021003013268,新規,0,2023-07-04,2023-07-04,合同会社Ｆａｍｉｌｉｅ,,合同会社,神奈川県,藤沢市,天神町２丁目８ー１３,,14,205,2520814,,,,,,,2023-07-04,1,,,,,ファミリエ,0
1820,9021003013276,新規,0,2023-07-04,2023-07-04,ＪＡＰＡＮＲＥＮＡＩＳＳＡＮＣＥ合同会社,,合同会社,神奈川県,茅ヶ崎市,松浪２丁目２―８０,,14,207,2530022,,,,,,,2023-07-04,1,,,,,ジャパンルネサンス,0
1838,9030003022088,新規,0,2023-07-04,2023-07-04,合同会社ライズ,,合同会社,埼玉県,新座市,片山３丁目１２番１６―１７号,,11,230,3520025,,,,,,,2023-07-04,1,,,,,ライズ,0
1842,9050001053059,新規,0,2023-07-04,2023-07-04,株式会社豊裕建設,,株式会社,茨城県,筑西市,八丁台２７８番地,,08,227,3080008,,,,,,,2023-07-04,1,,,,,トヨヒロケンセツ,0
1843,9050003007616,新規,0,2023-07-04,2023-07-04,合同会社東昇商事,,合同会社,茨城県,水戸市,杉崎町８９４番地の２,,08,201,3190306,,,,,,,2023-07-04,1,,,,,トウショウショウジ,0
1851,9060001036120,新規,0,2023-07-04,2023-07-04,株式会社マニコット,,株式会社,栃木県,下野市,大光寺１丁目３番４号,,09,216,3290516,,,,,,,2023-07-04,1,,,,,マニコット,0
1856,9070001040583,新規,0,2023-07-04,2023-07-04,株式会社中本会計事務所,,株式会社,群馬県,邑楽郡大泉町,大字寄木戸１５２９番地,,10,524,3700535,,,,,,,2023-07-04,1,,,,,,0
1857,9070001040591,新規,0,2023-07-04,2023-07-04,ＲＳＫ株式会社,,株式会社,群馬県,伊勢崎市,東小保方町３３３７番地,,10,204,3792234,,,,,,,2023-07-04,1,,,,,アールエスケイ,0
1863,9080403004821,新規,0,2023-07-04,2023-07-04,合同会社スミスタジオ,,合同会社,静岡県,浜松市東区,安間町２０９番地の２,,22,132,4350012,,,,,,,2023-07-04,1,,,,,スミスタジオ,0
1869,9110001037658,新規,0,2023-07-04,2023-07-04,株式会社Ｓｈｉｉｎａ,,株式会社,新潟県,新潟市中央区,女池神明３丁目１４番地４ＮＥＳＴ女池神明２Ｆ,,15,103,9500943,,,,,,,2023-07-04,1,,,,,シイナ,0
1870,9110003005101,新規,0,2023-07-04,2023-07-04,合同会社サインワークス,,合同会社,新潟県,新潟市北区,葛塚５０３２番地,,15,101,9503321,,,,,,,2023-07-04,1,,,,,サインワークス,0
1875,9120001256141,新規,0,2023-07-04,2023-07-04,株式会社ＮＩＫＡ,,株式会社,大阪府,大阪市旭区,中宮３丁目４番１７号,,27,117,5350003,,,,,,,2023-07-04,1,,,,,ニカ,0
1876,9120001256199,新規,0,2023-07-04,2023-07-04,株式会社Ｍ．Ｉ．Ｃｏｒｐｏｒａｔｉｏｎ,,株式会社,大阪府,大阪市北区,堂島浜１丁目４番４号アクア堂島フォンターナ３階,,27,127,5300004,,,,,,,2023-07-04,1,,,,,エムアイコーポレーション,0
1877,9120003024397,新規,0,2023-07-04,2023-07-04,合同会社アシスト,,合同会社,大阪府,大阪市北区,梅田１丁目１番３号大阪駅前第３ビル２９階１－１－１号室,,27,127,5300001,,,,,,,2023-07-04,1,,,,,アシスト,0
1879,9120101067810,新規,0,2023-07-04,2023-07-04,株式会社ＥＡＲＴＨ,,株式会社,大阪府,高石市,取石６丁目１４番８号,,27,225,5920013,,,,,,,2023-07-04,1,,,,,アァス,0
1880,9120901047739,新規,0,2023-07-04,2023-07-04,愛廣株式会社,,株式会社,大阪府,池田市,井口堂１丁目７番２４号,,27,204,5630023,,,,,,,2023-07-04,1,,,,,アイコウ,0
1882,9122001037125,新規,0,2023-07-04,2023-07-04,株式会社帶賀建設,,株式会社,大阪府,八尾市,福万寺町７丁目１０７番地の１,,27,212,5810842,,,,,,,2023-07-04,1,,,,,オビガケンセツ,0
1888,9140003019247,新規,0,2023-07-04,2023-07-04,合同会社ＫａｉＲ,,合同会社,兵庫県,宝塚市,栄町３丁目９番３号キングレジデンスラ・セーヌ宝塚３０６号,00131053,28,214,6650845,,,,,,,2023-07-04,1,,,,,カイル,0
1891,9160001025138,新規,0,2023-07-04,2023-07-04,株式会社トライフォワード,,株式会社,滋賀県,東近江市,宮川町３９８・３９９番地１,,25,213,5291551,,,,,,,2023-07-04,1,,,,,トライフォワード,0
1901,9180001156922,新規,0,2023-07-04,2023-07-04,トリコロール株式会社,,株式会社,愛知県,一宮市,南出町６７番地１,,23,203,4910906,,,,,,,2023-07-04,1,,,,,トリコロール,0
1902,9180001156947,新規,0,2023-07-04,2023-07-04,株式会社タートルズ,,株式会社,愛知県,名古屋市中区,栄５丁目２６番３９号ＧＳ栄ビル３Ｆ,,23,106,4600008,,,,,,,2023-07-04,1,,,,,タートルズ,0
1909,9180305009487,新規,0,2023-07-04,2023-07-04,特定非営利活動法人ＴＮＲ‐ＲＥＳＧＡＴＯ,,その他の設立登記法人,愛知県,西尾市,巨海町南河原７２番地６,,23,213,4440322,,,,,,,2023-07-04,1,,,,,ティーエヌアールレスガト,0
1920,9240001061752,新規,0,2023-07-04,2023-07-04,広島元気サービス株式会社,,株式会社,広島県,広島市安佐北区,あさひが丘４丁目４番１８号,,34,106,7313361,,,,,,,2023-07-04,1,,,,,ヒロシマゲンキサービス,0
1927,9250001020162,新規,0,2023-07-04,2023-07-04,株式会社ブルーホエール,,株式会社,山口県,宇部市,西本町２丁目１３番２５号,,35,202,7550052,,,,,,,2023-07-04,1,,,,,ブルーホエール,0
1931,9260001038071,新規,0,2023-07-04,2023-07-04,株式会社ＭＯＴプロパティ,,株式会社,岡山県,井原市,七日市町１番地１ＷＯＯＤＹ１０１－１Ｆ,,33,207,7150014,,,,,,,2023-07-04,1,,,,,エムオーティープロパティ,0
1937,9290001102122,新規,0,2023-07-04,2023-07-04,リッチウェイウィル株式会社,,株式会社,福岡県,大野城市,仲畑２丁目６番４１号,,40,219,8160921,,,,,,,2023-07-04,1,,,,,リッチウェイウィル,0
1944,9320001019858,新規,0,2023-07-04,2023-07-04,株式会社ホウセイファーム,,株式会社,大分県,速見郡日出町,大字豊岡７７４番地１,,44,341,8791507,,,,,,,2023-07-04,1,,,,,ホウセイファーム,0
1947,9340001025672,新規,0,2023-07-04,2023-07-04,株式会社イズン,,株式会社,鹿児島県,曽於市,末吉町諏訪方１００５６番地１,,46,217,8998604,,,,,,,2023-07-04,1,,,,,イズン,0
1951,9360003013104,新規,0,2023-07-04,2023-07-04,合同会社プラチナ,,合同会社,沖縄県,うるま市,字江洲２１５７－１２,,47,213,9042244,,,,,,,2023-07-04,1,,,,,プラチナ,0
1954,9370001050131,新規,0,2023-07-04,2023-07-04,株式会社共和設備,,株式会社,宮城県,仙台市宮城野区,鶴ケ谷８丁目８番地の３,,04,102,9830824,,,,,,,2023-07-04,1,,,,,キョウワセツビ,0
1957,9370005010651,新規,0,2023-07-04,2023-07-04,一般社団法人やまぶき生活サポート,,その他の設立登記法人,宮城県,亘理郡亘理町,字中町１５番地,,04,361,9892351,,,,,,,2023-07-04,1,,,,,ヤマブキセイカツサポート,0
1958,9380001033820,新規,0,2023-07-04,2023-07-04,株式会社ＰＦＩ,,株式会社,福島県,郡山市,中町１６番１２号シオンビル２０２号,,07,203,9638004,,,,,,,2023-07-04,1,,,,,ピーエフアイ,0
1962,9440001009285,新規,0,2023-07-04,2023-07-04,株式会社五洋経営センター,,株式会社,北海道,函館市,美原３丁目３３番１７号ヴィラマルエイ１０１,,01,202,0410806,,,,,,,2023-07-04,1,,,,,ゴヨウケイエイセンター,0
1963,9450001014037,新規,0,2023-07-04,2023-07-04,株式会社池翔,,株式会社,北海道,旭川市,東鷹栖四条５丁目６３９番地１１５,,01,204,0718104,,,,,,,2023-07-04,1,,,,,イケショウ,0
1972,9500001025029,新規,0,2023-07-04,2023-07-04,檜垣造船ホールディングス株式会社,,株式会社,愛媛県,今治市,小浦町１丁目４番２５号,,38,202,7992111,,,,,,,2023-07-04,1,,,,,ヒガキゾウセンホールディングス,0
1973,9500001025037,新規,0,2023-07-04,2023-07-04,株式会社徳真,,株式会社,愛媛県,新居浜市,新須賀町４丁目１３番１９号,,38,205,7920802,,,,,,,2023-07-04,1,,,,,トクシン,0
1974,9700150116351,新規,0,2023-07-04,2023-06-22,ゲートシティ大崎業務商業棟事務所管理組合,,その他,東京都,品川区,大崎１丁目１１－１,,13,109,1410032,,,,,,,2023-06-22,1,,,,,ゲートシテイオオサキギヨウムシヨウギヨウトウジムシヨカンリクミアイ,0
1975,9700150117572,新規,0,2023-07-04,2023-06-20,和歌山県公共ホール創造ネットワークモデル事業実行委員会,,その他,和歌山県,和歌山市,小松原通１丁目１番地,,30,201,6408269,,,,,,,2023-06-20,1,,,,,ワカヤマケンコウキヨウホールソウゾウネツトワークモデルジギヨウジツコウイインカイ,0
1976,9700150118199,新規,0,2023-07-04,2023-07-04,ｙｉｗｕｓｈｉｂａｉｓｈｅｄｉａｎｚｉｓｈａｎｇｗｕｙｏｕｘｉａｎｇｏｎｇｓｉ,,外国会社等,,,,,,,,ｆｕｔｉａｎｊｉｅｄａｏｚｏｎｇｚｈａｉ　Ｃｑｕ８ｚｈｕａｎｇ１ｄａｎｙｕａｎ３０３ｓｈｉ　ｙｉｗｕｓｈｉ　ｚｈｅｊｉａｎｇｓｈｅｎｇ　３２２００１　ＣＮ,,,,,,2023-07-04,1,,,,,ギウシハクシャデンシショウムユウゲンコウシ,0
1977,9700150118208,新規,0,2023-07-04,2023-07-04,Ｙｉ　ｗｕ　ｓｈｉ　ｓｈｅ　ｍｉ　ｄｉａｎ　ｚｉ　ｓｈａｎｇ　ｗｕ　ｙｏｕ　ｘｉａｎ　ｇｏｎｇ　ｓｉ,,外国会社等,,,,,,,,Ｃｈｉｎａ　Ｚｈｅｎｇｊｉａｎｇ　Ｙｉｗｕ　Ｂｅｉｙｕａｎ　ｊｉｅｄａｏ　ｌｉｕｑｉｎｇ　ｅｒｑｕ　２３ｄｏｎｇ　６ｄｕａｎｙｕａｎ　３０１,,,,,,2023-07-04,1,,,,,ギウシシャクベキデンシショウムユウゲンコウシ,0
1978,9700150118216,新規,0,2023-07-04,2023-07-04,Ｇｕａｎｇｚｈｏｕ　Ｄａｐｅｎｇ　Ｔｅｘｔｉｌｅ　Ｃｏ．，Ｌｔｄ．,,外国会社等,,,,,,,,Ｓｅｌｆ　ｃｏｍｐｉｌｅｄ　Ｃ１３２　１Ｆ，Ｎｏ．１７－１９，２１，２２，Ｅｒｈｅｎｇ　Ｌａｎｅ，Ｘｉｙｕｅ　Ｎｅｗ　Ｄｉｓｔｒｉｃｔ，Ｆｅｎｇｈｅ，Ｈａｉｚｈｕ，Ｇｕａｎｇｚｈｏｕ，ＣＮ,,,,,,2023-07-04,1,,,,,コウシュウタイホウホウシキヒンユウゲンコウシ,0
1979,9700150118224,新規,0,2023-07-04,2023-07-04,ＥｎＳｈｉＳｈｉ　ＦａＸｉａｏ　ＳｈａｎｇＭａｏ　ＹｏｕＸｉａｎ　ＧｏｎｇＳｉ,,外国会社等,,,,,,,,Ｃｈｉｎａ，Ｈｕｂｅｉ　Ｅｎｓｈｉ　Ｌｉｕｊｉａｏｔｉｎｇ　Ｓｔｒｅｅｔ　Ｖｉｃｔｏｒｙ　Ｓｔｒｅｅｔ　８６,,,,,,2023-07-04,1,,,,,オンシシハッショウショウボウユウゲンコウシ,0
1980,9700150118232,新規,0,2023-07-04,2023-07-04,ＧｕａｎｇＺｈｏｕＳｈｉＨｏｎｇＹｏｕＭｉｎｇＭａｏＹｉＹｏｕＸｉａｎＧｏｎｇＳｉ,,外国会社等,,,,,,,,ＹｕｅｘｉｕＱｕｚｈｏｎｇｓｈａｎＬｉｕＬｕ２００Ｈａｏ１６２１ＦａｎｇＧｕａｎｇｚｈｏｕＳｈｉ　ＧｕａｎｇＤｏｎｇｓｈｅｎｇ,,,,,,2023-07-04,1,,,,,コウシュウシヒロトモアキボウエキユウゲンコウシ,0
