sequenceNumber,corporateNumber,process,correct,updateDate,changeDate,name,nameImageId,kind,prefectureName,cityName,streetNumber,addressImageId,prefectureCode,cityCode,postCode,addressOutside,addressOutsideImageId,closeDate,closeCause,successorCorporateNumber,changeCause,assignmentDate,latest,enName,enPrefectureName,enCityName,enAddressOutside,furigana,hihyoji
6,1010001246771,新規,0,2024-07-26,2024-07-26,素瑶商事株式会社,,株式会社,東京都,千代田区,神田平河町１番地第３東ビル６ＦイーオフィスＡＫＩＢＡ３番館５９号室,,13,101,1010027,,,,,,,2024-07-26,1,,,,,ソヨウショウジ,0
7,1010001246879,新規,0,2024-07-26,2024-07-26,株式会社ＶＥＮＩＣＥ　ＢＬＵＥ,,株式会社,東京都,千代田区,六番町７番地１１,,13,101,1020085,,,,,,,2024-07-26,1,,,,,ヴェニスブルー,0
8,1010001246904,新規,0,2024-07-26,2024-07-26,株式会社Ｕｒｓａ,,株式会社,東京都,中央区,入船１丁目９番８号,,13,102,1040042,,,,,,,2024-07-26,1,,,,,アーサ,0
10,1010003044307,新規,0,2024-07-26,2024-07-26,ＵＩＶマネジメント１合同会社,,合同会社,東京都,千代田区,平河町２丁目６番１号平河町ビル７階,,13,101,1020093,,,,,,,2024-07-26,1,,,,,ユーアイヴィマネジメントワン,0
13,1010005038546,新規,0,2024-07-26,2024-07-26,一般社団法人地政学研究所,,その他の設立登記法人,東京都,中央区,銀座５丁目１４番１６号銀座アビタシオン１１０１号,,13,102,1040061,,,,,,,2024-07-26,1,,,,,チセイガクケンキュウジョ,0
20,1010401183680,新規,0,2024-07-26,2024-07-26,ＴＳトランス株式会社,,株式会社,東京都,港区,浜松町２丁目２番１５号ダイヤビル２Ｆ,,13,103,1050013,,,,,,,2024-07-26,1,,,,,ティーエストランス,0
21,1010401183994,新規,0,2024-07-26,2024-07-26,ＬＴＤ株式会社,,株式会社,東京都,港区,六本木１丁目６番１号泉ガーデンタワー１０階,,13,103,1060032,,,,,,,2024-07-26,1,,,,,エルティーディー,0
22,1010401184043,新規,0,2024-07-26,2024-07-26,ＸＴ’ｄｚ株式会社,,株式会社,東京都,港区,浜松町２丁目７番１７号イーグル浜松町天翔オフィス浜松町大門１０階１００８号室,,13,103,1050013,,,,,,,2024-07-26,1,,,,,エックスティーディーゼット,0
42,1010901055702,新規,0,2024-07-26,2024-07-26,尚洋藝術設計株式会社,,株式会社,東京都,世田谷区,祖師谷５丁目３８－１６,,13,112,1570072,,,,,,,2024-07-26,1,,,,,ショウヨウゲイジュツセッケイ,0
43,1010901055710,新規,0,2024-07-26,2024-07-26,Ｈ．Ｍ．Ｈ株式会社,,株式会社,東京都,世田谷区,駒沢２丁目４３番９号－２０６号,,13,112,1540012,,,,,,,2024-07-26,1,,,,,エイチエムエイチ,0
49,1011001163511,新規,0,2024-07-26,2024-07-26,株式会社ｎａｎｋａｉｉｎｅ　ｓｔｕｄｉｏ,,株式会社,東京都,渋谷区,道玄坂１丁目１０番８号渋谷道玄坂東急ビル２Ｆ－Ｃ,,13,113,1500043,,,,,,,2024-07-26,1,,,,,ナンカイイネスタジオ,0
50,1011003019620,新規,0,2024-07-26,2024-07-26,合同会社ハヤシシステム,,合同会社,東京都,渋谷区,円山町５番５号,,13,113,1500044,,,,,,,2024-07-26,1,,,,,ハヤシシステム,0
54,1011101108168,新規,0,2024-07-26,2024-07-26,株式会社ＭＵＮＩ,,株式会社,東京都,新宿区,歌舞伎町２丁目１９番７号,,13,104,1600021,,,,,,,2024-07-26,1,,,,,ムニ,0
55,1011103014678,新規,0,2024-07-26,2024-07-26,合同会社Ｒｙｏｂｏｏ,,合同会社,東京都,新宿区,西新宿３丁目３番１３号西新宿水間ビル６階,,13,104,1600023,,,,,,,2024-07-26,1,,,,,リョウブー,0
58,1011201025651,新規,0,2024-07-26,2024-07-26,ＢＲＯＳＣＯＯ　ＥＬＥＣＴＲＩＣＡＬ株式会社,,株式会社,東京都,中野区,江古田４丁目３０番１９－１０８号,,13,114,1650022,,,,,,,2024-07-26,1,,,,,ブロスコーエレクトリカル,0
60,1011301029874,新規,0,2024-07-26,2024-07-26,株式会社ｄｆｔ,,株式会社,東京都,杉並区,高円寺南３丁目３０番１４号,,13,115,1660003,,,,,,,2024-07-26,1,,,,,デフト,0
62,1011501030970,新規,0,2024-07-26,2024-07-26,株式会社Ｙｕｗ　ｃｏｎｎｅｃｔ,,株式会社,東京都,北区,赤羽西１丁目１８番１１－３０１号,,13,117,1150055,,,,,,,2024-07-26,1,,,,,ユウコネクト,0
65,1011601027925,新規,0,2024-07-26,2024-07-26,京成美術株式会社,,株式会社,東京都,練馬区,高松４丁目６－１ビズテラス光が丘Ｂ－０２号,,13,120,1790075,,,,,,,2024-07-26,1,,,,,ケイセイビジュツ,0
73,1012801023359,新規,0,2024-07-26,2024-07-26,澁澤貴金属株式会社,,株式会社,東京都,立川市,上砂町３丁目１９番地の４けやき壱番館１０１,,13,202,1900032,,,,,,,2024-07-26,1,,,,,シブサワキキンゾク,0
79,1013301052880,新規,0,2024-07-26,2024-07-26,ＨＫ株式会社,,株式会社,東京都,豊島区,東池袋３丁目１番１号サンシャイン６０,,13,116,1700013,,,,,,,2024-07-26,1,,,,,エイチケー,0
80,1013305003624,新規,0,2024-07-26,2024-07-26,一般社団法人次世代政策デザイン研究所,,その他の設立登記法人,東京都,豊島区,南池袋１丁目１６番２０号ぬかりやビル６階,,13,116,1710022,,,,,,,2024-07-26,1,,,,,ジセダイセイサクデザインケンキュウショ,0
90,1021001082818,新規,0,2024-07-26,2024-07-26,株式会社ソナムテクノロジー,,株式会社,神奈川県,相模原市中央区,宮下本町３丁目２７番５号,,14,152,2520211,,,,,,,2024-07-26,1,,,,,ソナムテクノロジー,0
91,1021003014810,新規,0,2024-07-26,2024-07-26,富永合同会社,,合同会社,神奈川県,伊勢原市,高森５丁目２０番地２０号棟５０１号室,,14,214,2591114,,,,,,,2024-07-26,1,,,,,トミナガ,0
92,1021003014819,新規,0,2024-07-26,2024-07-26,合同会社煌めき,,合同会社,神奈川県,海老名市,国分南４丁目２２番４１号,,14,215,2430405,,,,,,,2024-07-26,1,,,,,キラメキ,0
103,1050001055137,新規,0,2024-07-26,2024-07-26,ツルタホールディングス株式会社,,株式会社,茨城県,古河市,下大野１７９３番地１,,08,204,3060204,,,,,,,2024-07-26,1,,,,,ツルタホールディングス,0
104,1050001055153,新規,0,2024-07-26,2024-07-26,株式会社ニッショウ,,株式会社,茨城県,ひたちなか市,大字足崎１４７４－４４５,,08,221,3120003,,,,,,,2024-07-26,1,,,,,ニッショウ,0
108,1060001037340,新規,0,2024-07-26,2024-07-26,株式会社宇都宮アリーナ,,株式会社,栃木県,宇都宮市,駒生２丁目１０番２８号,,09,201,3200066,,,,,,,2024-07-26,1,,,,,ウツノミヤアリーナ,0
115,1100003007691,新規,0,2024-07-26,2024-07-26,合同会社Ｔｒａｖａｔｉｏｎ,,合同会社,長野県,大町市,大町７６９６番地１,,20,212,3980002,,,,,,,2024-07-26,1,,,,,トラベーション,0
118,1110003005463,新規,0,2024-07-26,2024-07-26,北川製あん合同会社,,合同会社,新潟県,新潟市東区,南紫竹２丁目６番４７号,,15,102,9500854,,,,,,,2024-07-26,1,,,,,キタガワセイアン,0
128,1120001267105,新規,0,2024-07-26,2024-07-26,ＲＭＰＤ株式会社,,株式会社,大阪府,寝屋川市,成田町８番４号,,27,215,5720004,,,,,,,2024-07-26,1,,,,,アールエムピーディ,0
129,1120001267113,新規,0,2024-07-26,2024-07-26,株式会社ＭＡＸマネジメント,,株式会社,大阪府,枚方市,長尾元町１丁目１１番９号,,27,210,5730163,,,,,,,2024-07-26,1,,,,,マックスマネジメント,0
130,1120001267154,新規,0,2024-07-26,2024-07-26,薪立株式会社,,株式会社,大阪府,大阪市中央区,瓦屋町２丁目１０－１４第３天偉ビル２Ｆ,,27,128,5420066,,,,,,,2024-07-26,1,,,,,ヨウリツ,0
131,1120001267162,新規,0,2024-07-26,2024-07-26,株式会社クリーンサービスジャパン,,株式会社,大阪府,大阪市中央区,南本町２丁目４番１１号,,27,128,5410054,,,,,,,2024-07-26,1,,,,,クリーンサービスジャパン,0
132,1120001267170,新規,0,2024-07-26,2024-07-26,ａｌｌｅｙ　ｏｏｐ株式会社,,株式会社,大阪府,大阪市城東区,関目５丁目１９番９号関目花博公館４１１Ａ,,27,118,5360008,,,,,,,2024-07-26,1,,,,,アーリーウープ,0
133,1120001267179,新規,0,2024-07-26,2024-07-26,株式会社奇源,,株式会社,大阪府,大阪市天王寺区,伶人町２－３１ＳｔａｒＯｆｆｉｃｅ大阪天王寺北５０１号室,,27,109,5430061,,,,,,,2024-07-26,1,,,,,キゲン,0
135,1120003027119,新規,0,2024-07-26,2024-07-26,鵬程合同会社,,合同会社,大阪府,大阪市東成区,東中本３丁目２０番２２号関西マンション１０５号室,,27,115,5370021,,,,,,,2024-07-26,1,,,,,ホウテイ,0
137,1120005024444,新規,0,2024-07-26,2024-07-26,司法書士法人リエゾン,,その他の設立登記法人,大阪府,大阪市中央区,東心斎橋１丁目４番１号オリエンタル東心斎橋ビル８１０号,,27,128,5420083,,,,,,,2024-07-26,1,,,,,リエゾン,0
145,1120901049503,新規,0,2024-07-26,2024-07-26,株式会社ＥＳＣＡＬＩＥＲ,,株式会社,大阪府,茨木市,若園町３２番１号ソフィア若園６０２号,,27,211,5670894,,,,,,,2024-07-26,1,,,,,エスカリエ,0
147,1130001077528,新規,0,2024-07-26,2024-07-26,株式会社つばめ,,株式会社,京都府,京都市中京区,三条通烏丸東入る梅忠町２８番地Ｍ＆Ｉビル４階,,26,104,6040000,,,,,,,2024-07-26,1,,,,,ツバメ,0
163,1180001162424,新規,0,2024-07-26,2024-07-26,ロジスティコ株式会社,,株式会社,愛知県,名古屋市東区,泉２丁目２８番２４号東和高岳ビル８Ｆ,,23,102,4610001,,,,,,,2024-07-26,1,,,,,ロジスティコ,0
164,1180001162457,新規,0,2024-07-26,2024-07-26,株式会社大和,,株式会社,愛知県,名古屋市中区,栄３丁目１番２６号,,23,106,4600008,,,,,,,2024-07-26,1,,,,,ヤマト,0
169,1180003027113,新規,0,2024-07-26,2024-07-26,合同会社茉莉花,,合同会社,愛知県,名古屋市名東区,一社３丁目８８番地,,23,115,4650093,,,,,,,2024-07-26,1,,,,,マツリカ,0
170,1180301038885,新規,0,2024-07-26,2024-07-26,株式会社ＡＸＥＬＡ,,株式会社,愛知県,蒲郡市,神明町２３番３号,,23,214,4430056,,,,,,,2024-07-26,1,,,,,アクセラ,0
179,1200003006444,新規,0,2024-07-26,2024-07-26,合同会社ＮＯＧＡＭＩ,,合同会社,岐阜県,大垣市,伝馬町９０番地１ロイヤルマンション大垣８０３号,,21,202,5030897,,,,,,,2024-07-26,1,,,,,ノガミ,0
180,1210001019835,新規,0,2024-07-26,2024-07-26,株式会社Ｌｉｎｏ,,株式会社,福井県,大野市,中荒井町１丁目４１４番地,,18,205,9120023,,,,,,,2024-07-26,1,,,,,リノ,0
183,1220001026120,新規,0,2024-07-26,2024-07-26,株式会社たなかのお庭やさん,,株式会社,石川県,金沢市,四十万５丁目１７９番地１,,17,201,9218135,,,,,,,2024-07-26,1,,,,,タナカノオニワヤサン,0
184,1220003003803,新規,0,2024-07-26,2024-07-26,合同会社奏,,合同会社,石川県,金沢市,田上さくら１丁目１９番地,,17,201,9201157,,,,,,,2024-07-26,1,,,,,カナデ,0
195,1280001009219,新規,0,2024-07-26,2024-07-26,株式会社Ｂｒｉｌｌｅｒ,,株式会社,島根県,浜田市,長沢町１６５９番地７,,32,202,6970023,,,,,,,2024-07-26,1,,,,,ブリエ,0
196,1290001106502,新規,0,2024-07-26,2024-07-26,株式会社インディペンデントケア,,株式会社,福岡県,大牟田市,大字唐船２０８１番地１８８,,40,202,8360003,,,,,,,2024-07-26,1,,,,,インディペンデントケア,0
197,1290001106510,新規,0,2024-07-26,2024-07-26,株式会社ＴＴＳＫ,,株式会社,福岡県,福岡市中央区,渡辺通５丁目２６番２号２階,,40,133,8100004,,,,,,,2024-07-26,1,,,,,,0
204,1350001019094,新規,0,2024-07-26,2024-07-26,株式会社グリーンフィールドアグリジャパン,,株式会社,宮崎県,日南市,北郷町郷之原乙２１５３,,45,204,8892402,,,,,,,2024-07-26,1,,,,,グリーンフィールドアグリジャパン,0
207,1350005006246,新規,0,2024-07-26,2024-07-26,特定非営利活動法人Ｒｅａｌｉｓｅｒ,,その他の設立登記法人,宮崎県,宮崎市,南花ケ島町３０４番地４,,45,201,8800055,,,,,,,2024-07-26,1,,,,,レアリゼ,0
210,1360001033978,新規,0,2024-07-26,2024-07-26,アグリポート株式会社,,株式会社,沖縄県,糸満市,字米須１３５２,,47,210,9010335,,,,,,,2024-07-26,1,,,,,アグリポート,0
219,1410001013891,新規,0,2024-07-26,2024-07-26,ぶれいす株式会社,,株式会社,秋田県,大仙市,大花町５番５４号,,05,212,0140022,,,,,,,2024-07-26,1,,,,,ブレイス,0
228,1430003016585,新規,0,2024-07-26,2024-07-26,吉田合同会社,,合同会社,北海道,登別市,常盤町５丁目３３番地３０,,01,230,0590011,,,,,,,2024-07-26,1,,,,,ヨシダ,0
234,1500003003287,新規,0,2024-07-26,2024-07-26,合同会社清流,,合同会社,愛媛県,大洲市,若宮２７７番地３ハイツクローバー２０１,,38,207,7950052,,,,,,,2024-07-26,1,,,,,セイリュウ,0
237,2010001246894,新規,0,2024-07-26,2024-07-26,マージビジョン株式会社,,株式会社,東京都,中央区,新川１丁目３番３号,,13,102,1040033,,,,,,,2024-07-26,1,,,,,マージビジョン,0
238,2010001246903,新規,0,2024-07-26,2024-07-26,Ｋｙｏｔｏ　Ｈｏｔｅｌ　Ｍａｎａｇｅｍｅｎｔ１株式会社,,株式会社,東京都,千代田区,霞が関３丁目２番５号,,13,101,1000013,,,,,,,2024-07-26,1,,,,,キョウトホテルマネジメントワン,0
243,2010003044421,新規,0,2024-07-26,2024-07-26,フリーア合同会社,,合同会社,東京都,中央区,東日本橋２丁目２８番４号日本橋ＣＥＴビル２階,,13,102,1030004,,,,,,,2024-07-26,1,,,,,フリーア,0
251,2010401183977,新規,0,2024-07-26,2024-07-26,株式会社旅立とう,,株式会社,東京都,港区,芝１丁目１２番８号５０１号室,,13,103,1050014,,,,,,,2024-07-26,1,,,,,タビダトウ,0
252,2010401183993,新規,0,2024-07-26,2024-07-26,ＳＰＭ株式会社,,株式会社,東京都,港区,六本木１丁目６番１号泉ガーデンタワー１０階,,13,103,1060032,,,,,,,2024-07-26,1,,,,,エスピーエム,0
255,2010403033107,新規,0,2024-07-26,2024-07-26,ＲｉＳｉＮ合同会社,,合同会社,東京都,港区,虎ノ門５丁目１３番１号虎ノ門４０ＭＴビル７階,,13,103,1050001,,,,,,,2024-07-26,1,,,,,ライジング,0
257,2010601065629,新規,0,2024-07-26,2024-07-26,株式会社ＣｏｏＰｒｏ,,株式会社,東京都,江東区,辰巳１丁目６番１０－５１７号,,13,108,1350053,,,,,,,2024-07-26,1,,,,,シーオーオープロ,0
264,2010803005036,新規,0,2024-07-26,2024-07-26,合同会社Ｔｗｉｎ　Ｄｒａｇｏｎｓエンタープライズ,,合同会社,東京都,大田区,田園調布５丁目２３番１６号,,13,111,1450071,,,,,,,2024-07-26,1,,,,,ツインドラゴンズエンタープライズ,0
269,2011001163519,新規,0,2024-07-26,2024-07-26,株式会社ＩＶＹ　ＰＲＯ．,,株式会社,東京都,渋谷区,渋谷２丁目１９－１５宮益坂ビルディング６０９,,13,113,1500002,,,,,,,2024-07-26,1,,,,,アイビープロ,0
270,2011001163601,新規,0,2024-07-26,2024-07-26,株式会社Ｔｏｎｅ　Ｂａｓｅ,,株式会社,東京都,目黒区,東山３丁目１－１９メゾン池尻大橋４０３,,13,110,1530043,,,,,,,2024-07-26,1,,,,,トーンベース,0
271,2011001163642,新規,0,2024-07-26,2024-07-26,株式会社アスタン,,株式会社,東京都,渋谷区,渋谷２丁目１９‐１５宮益坂ビルディング６０９,,13,113,1500002,,,,,,,2024-07-26,1,,,,,アスタン,0
279,2011101108142,新規,0,2024-07-26,2024-07-26,平遠株式会社,,株式会社,東京都,新宿区,百人町１丁目１８番８号大久保カドビルＬｉｎｋＳｐａｃｅ百人町Ｃ０８,,13,104,1690073,,,,,,,2024-07-26,1,,,,,ヘイエン,0
281,2011103014719,新規,0,2024-07-26,2024-07-26,合同会社アイスエイジ,,合同会社,東京都,新宿区,四谷３丁目１３番地１２－４０４,,13,104,1600004,,,,,,,2024-07-26,1,,,,,アイスエイジ,0
283,2011201025650,新規,0,2024-07-26,2024-07-26,佳美進貿易株式会社,,株式会社,東京都,中野区,江古田４丁目３０番１９―１０７号,,13,114,1650022,,,,,,,2024-07-26,1,,,,,,0
284,2011201025659,新規,0,2024-07-26,2024-07-26,株式会社ＪＦＳ,,株式会社,東京都,中野区,若宮１丁目２番２１号,,13,114,1650033,,,,,,,2024-07-26,1,,,,,ジェーエフエス,0
288,2011401026242,新規,0,2024-07-26,2024-07-26,Ａｎ　Ｂｅａｕｔｙ　Ｌａｂｏ株式会社,,株式会社,東京都,板橋区,東山町３６－４－Ａ棟２室,,13,119,1740073,,,,,,,2024-07-26,1,,,,,アンビューティーラボ,0
292,2011801044587,新規,0,2024-07-26,2024-07-26,株式会社Ｏｎｅ　Ｔｒｉｌｌｉｏｎ,,株式会社,東京都,葛飾区,白鳥２丁目４番４－３２１号セザールお花茶屋,,13,122,1250063,,,,,,,2024-07-26,1,,,,,ワントリリオン,0
293,2011803006354,新規,0,2024-07-26,2024-07-26,合同会社ファーストリンク,,合同会社,東京都,足立区,花畑６丁目２６－４エルヴァージュ３－１０１,,13,121,1210061,,,,,,,2024-07-26,1,,,,,ファーストリンク,0
299,2012801023358,新規,0,2024-07-26,2024-07-26,株式会社ＲＡＩＫＵ,,株式会社,東京都,武蔵村山市,中央１丁目１０９番地の１,,13,223,2080003,,,,,,,2024-07-26,1,,,,,ライク,0
309,2020005016483,新規,0,2024-07-26,2024-07-26,一般社団法人ＤｅｖＲｅｌ,,その他の設立登記法人,神奈川県,横浜市神奈川区,金港町５－１４クアドリフォリオ８階,,14,102,2210056,,,,,,,2024-07-26,1,,,,,デブレル,0
323,2030005021771,新規,0,2024-07-26,2024-07-26,一般社団法人キャリア福祉協会,,その他の設立登記法人,埼玉県,川越市,大字天沼新田３４７番地３サンスュプリーム１,,11,201,3500806,,,,,,,2024-07-26,1,,,,,キャリアフクシキョウカイ,0
329,2040001134683,新規,0,2024-07-26,2024-07-26,株式会社ＬＥＯＶＩＳＴＡ,,株式会社,千葉県,柏市,大津ケ丘４丁目４番２号,,12,217,2770921,,,,,,,2024-07-26,1,,,,,レオビスタ,0
330,2040001134709,新規,0,2024-07-26,2024-07-26,株式会社リンクブリッジ,,株式会社,千葉県,市川市,行徳駅前１丁目２６－８,,12,203,2720133,,,,,,,2024-07-26,1,,,,,リンクブリッジ,0
333,2040005022455,新規,0,2024-07-26,2024-07-26,特定非営利活動法人Ｌｉｎｋ　ｔｏ,,その他の設立登記法人,千葉県,市原市,ちはら台南４丁目３番地６,,12,219,2900142,,,,,,,2024-07-26,1,,,,,リンクトゥー,0
334,2050003008570,新規,0,2024-07-26,2024-07-26,ＲＥＤＨＡＺＥ合同会社,,合同会社,茨城県,稲敷市,神宮寺８６９番地１,,08,229,3000622,,,,,,,2024-07-26,1,,,,,レッドヘイズ,0
338,2060003005170,新規,0,2024-07-26,2024-07-26,Ｍ．Ｓ．Ｇ．ＭＯＴＯＲＳ合同会社,,合同会社,栃木県,足利市,小俣町２１５７番地３,,09,202,3260141,,,,,,,2024-07-26,1,,,,,エムエスジーモータース,0
350,2080101024913,新規,0,2024-07-26,2024-07-26,株式会社ツチヤ工業,,株式会社,静岡県,沼津市,西間門１１８番地の２ソフィアコートｓ１０６,,22,203,4100871,,,,,,,2024-07-26,1,,,,,ツチヤコウギョウ,0
352,2090001018832,新規,0,2024-07-26,2024-07-26,株式会社フォーカスメディア,,株式会社,山梨県,甲斐市,篠原９８４番地１,,19,210,4000115,,,,,,,2024-07-26,1,,,,,フォーカスメディア,0
357,2100003007658,新規,0,2024-07-26,2024-07-26,合同会社エムビー,,合同会社,長野県,松本市,大字島内９００番地５９,,20,202,3900851,,,,,,,2024-07-26,1,,,,,エムビー,0
361,2110005017118,新規,0,2024-07-26,2024-07-26,一般社団法人ぽかぽか,,その他の設立登記法人,新潟県,新潟市西区,五十嵐東１丁目１９番３号１０,,15,107,9502045,,,,,,,2024-07-26,1,,,,,ポカポカ,0
371,2120001267112,新規,0,2024-07-26,2024-07-26,ルチル株式会社,,株式会社,大阪府,大阪市中央区,淡路町２丁目１番１０号,,27,128,5410047,,,,,,,2024-07-26,1,,,,,ルチル,0
372,2120001267186,新規,0,2024-07-26,2024-07-26,有持株式会社,,株式会社,大阪府,大阪市東成区,玉津３丁目２－１３,,27,115,5370023,,,,,,,2024-07-26,1,,,,,アリモチ,0
375,2120003027134,新規,0,2024-07-26,2024-07-26,合同会社ボアソルテ,,合同会社,大阪府,大阪市福島区,玉川２丁目７番５－１２０３号,,27,103,5530004,,,,,,,2024-07-26,1,,,,,ボアソルテ,0
382,2130001077485,新規,0,2024-07-26,2024-07-26,株式会社ｍｏｏｎ,,株式会社,京都府,京都市下京区,堀之内町２７２－７－４０２,,26,106,6008446,,,,,,,2024-07-26,1,,,,,ムーン,0
384,2130003009734,新規,0,2024-07-26,2024-07-26,合同会社ＤＮＳ,,合同会社,京都府,京田辺市,興戸地蔵谷１１２番１,,26,211,6100332,,,,,,,2024-07-26,1,,,,,ディーエヌエス,0
388,2140001135242,新規,0,2024-07-26,2024-07-26,株式会社ＲＩＳＥ,,株式会社,兵庫県,明石市,魚住町住吉４丁目１６番３７号,,28,203,6740083,,,,,,,2024-07-26,1,,,,,ライズ,0
389,2140001135267,新規,0,2024-07-26,2024-07-26,株式会社宝馬,,株式会社,兵庫県,宝塚市,切畑字長尾山五丁目１１５番２号１０３号,,28,214,6650808,,,,,,,2024-07-26,1,,,,,ホウマ,0
391,2140003020863,新規,0,2024-07-26,2024-07-26,豊軒合同会社,,合同会社,兵庫県,尼崎市,東園田町５丁目１５番１号園田第２シェトア１０１号室,,28,202,6610953,,,,,,,2024-07-26,1,,,,,ホウケン,0
393,2160003003247,新規,0,2024-07-26,2024-07-26,合同会社Ｆ．ＣＯＭＰＡＮＹ,,合同会社,滋賀県,東近江市,市子殿町６３９番地,,25,213,5291537,,,,,,,2024-07-26,1,,,,,エフカンパニー,0
401,2180001162472,新規,0,2024-07-26,2024-07-26,グローバル株式会社,,株式会社,愛知県,名古屋市名東区,本郷１丁目２０４番地,,23,115,4650024,,,,,,,2024-07-26,1,,,,,グローバル,0
404,2180003027112,新規,0,2024-07-26,2024-07-26,合同会社ストライプ,,合同会社,愛知県,名古屋市千種区,松竹町１丁目２３番地,,23,101,4640823,,,,,,,2024-07-26,1,,,,,ストライプ,0
411,2200001042746,新規,0,2024-07-26,2024-07-26,東納国際株式会社,,株式会社,岐阜県,美濃加茂市,加茂野町鷹之巣字家並割３７８番地２,,21,211,5050051,,,,,,,2024-07-26,1,,,,,トウノウコクサイ,0
414,2220003003802,新規,0,2024-07-26,2024-07-26,合同会社アカマルカンパニー,,合同会社,石川県,金沢市,古府２丁目８６番地,,17,201,9200362,,,,,,,2024-07-26,1,,,,,アカマルカンパニー,0
428,2290003015568,新規,0,2024-07-26,2024-07-26,合同会社Ｂｌｏｏｍ　ａｓｓｉｓｔａｎｔｓ,,合同会社,福岡県,福岡市中央区,大名２丁目１０番８－１２０５号,,40,133,8100041,,,,,,,2024-07-26,1,,,,,ブルームアシスタンツ,0
442,2350001019102,新規,0,2024-07-26,2024-07-26,株式会社ＷＥｄｎｅｓＤＡＹ,,株式会社,宮崎県,宮崎市,橘通西２丁目７番１７号,,45,201,8800001,,,,,,,2024-07-26,1,,,,,ウェンズデイ,0
447,2360001033977,新規,0,2024-07-26,2024-07-26,株式会社ＲＹＵＺＩＮ,,株式会社,沖縄県,糸満市,字糸満１６２２番地（２０２号室）,,47,210,9010361,,,,,,,2024-07-26,1,,,,,リュウジン,0
452,2370003006690,新規,0,2024-07-26,2024-07-26,合同会社ｌｉｂｅｒｔｙ,,合同会社,宮城県,仙台市宮城野区,鶴ケ谷７丁目３番地の４燦々２,,04,102,9830824,,,,,,,2024-07-26,1,,,,,リバティー,0
456,2380001034684,新規,0,2024-07-26,2024-07-26,株式会社恵比須丸漁業,,株式会社,福島県,いわき市,四倉町字西四丁目１１２番地の３,,07,204,9790201,,,,,,,2024-07-26,1,,,,,エビスマルギョギョウ,0
460,2410001013890,新規,0,2024-07-26,2024-07-26,ＮＡＮＴＯ株式会社,,株式会社,秋田県,秋田市,旭川新藤田東町１７‐４４コーポ旭川２０２,,05,201,0100833,,,,,,,2024-07-26,1,,,,,ナント,0
466,2430001092306,新規,0,2024-07-26,2024-07-26,株式会社オーククリエイツ,,株式会社,北海道,室蘭市,天神町３４番９号,,01,205,0500077,,,,,,,2024-07-26,1,,,,,オーククリエイツ,0
476,3010001246803,新規,0,2024-07-26,2024-07-26,株式会社ケムフロージャパン,,株式会社,東京都,中央区,銀座１丁目２４番３号８階,,13,102,1040061,,,,,,,2024-07-26,1,,,,,ケムフロージャパン,0
477,3010001246877,新規,0,2024-07-26,2024-07-26,株式会社ＧｏｌｄｅｎＨａｒｖｅｓｔ,,株式会社,東京都,千代田区,内神田１丁目９－５ＳＦ内神田ビル８Ｆ,,13,101,1010047,,,,,,,2024-07-26,1,,,,,ゴールデンハーベスト,0
478,3010001246910,新規,0,2024-07-26,2024-07-26,ＢＩＧトレーディング株式会社,,株式会社,東京都,千代田区,外神田２丁目５－１０神田ＮＳＯビル２Ｆ,,13,101,1010021,,,,,,,2024-07-26,1,,,,,ビックトレーディング,0
480,3010003044420,新規,0,2024-07-26,2024-07-26,合同会社Ｒ３７０,,合同会社,東京都,中央区,勝どき５丁目３番１－２３２１号,,13,102,1040054,,,,,,,2024-07-26,1,,,,,アールスリーセブンゼロ,0
483,3010401183992,新規,0,2024-07-26,2024-07-26,ＤＲＳ株式会社,,株式会社,東京都,港区,六本木１丁目６番１号泉ガーデンタワー１０階,,13,103,1060032,,,,,,,2024-07-26,1,,,,,ディーアールエス,0
484,3010401184033,新規,0,2024-07-26,2024-07-26,株式会社Ｔｈｅａｔｒｕｍ　Ｏｒｂｉｓ　Ｔｅｒｒａ,,株式会社,東京都,港区,東新橋１丁目１０番２－Ｒ１９０８号,,13,103,1050021,,,,,,,2024-07-26,1,,,,,テアトルムオルビステラ,0
485,3010401184041,新規,0,2024-07-26,2024-07-26,城東ホールディングス株式会社,,株式会社,東京都,港区,虎ノ門１丁目２番３号,,13,103,1050001,,,,,,,2024-07-26,1,,,,,ジョウトウホールディングス,0
489,3010505003543,新規,0,2024-07-26,2024-07-26,一般社団法人東京漢方研究院,,その他の設立登記法人,東京都,台東区,下谷１丁目４－５ズイドウビル７０３,,13,106,1100004,,,,,,,2024-07-26,1,,,,,トウキョウカンポウケンキュウイン,0
498,3010801035257,新規,0,2024-07-26,2024-07-26,株式会社キャラの場,,株式会社,東京都,大田区,千鳥２丁目６－７－２０４,,13,111,1460083,,,,,,,2024-07-26,1,,,,,キャラノバ,0
499,3010803005035,新規,0,2024-07-26,2024-07-26,合同会社トラストテック,,合同会社,東京都,大田区,東雪谷４丁目２５番１１号エステートピア川田３号棟３０７,,13,111,1450065,,,,,,,2024-07-26,1,,,,,トラストテック,0
501,3010901055709,新規,0,2024-07-26,2024-07-26,株式会社禾嘉,,株式会社,東京都,世田谷区,中町３丁目１－３リバティ等々力３０１号,,13,112,1580091,,,,,,,2024-07-26,1,,,,,イネカ,0
505,3011101108208,新規,0,2024-07-26,2024-07-26,株式会社アンドーナッツ,,株式会社,東京都,新宿区,西新宿２丁目１番１号,,13,104,1600023,,,,,,,2024-07-26,1,,,,,アンドーナッツ,0
507,3011103014544,新規,0,2024-07-26,2024-07-26,合同会社心,,合同会社,東京都,新宿区,高田馬場１丁目１番１５号,,13,104,1690075,,,,,,,2024-07-26,1,,,,,シン,0
508,3011103014684,新規,0,2024-07-26,2024-07-26,合同会社Ｅ‐ＮＡＶＩ,,合同会社,東京都,新宿区,西新宿３丁目３番１３号西新宿水間ビル２Ｆ,,13,104,1600023,,,,,,,2024-07-26,1,,,,,イーナビ,0
511,3011301029872,新規,0,2024-07-26,2024-07-26,株式会社Ｓ‐Ｐｉｌｏｔ,,株式会社,東京都,杉並区,浜田山４丁目４番１２号,,13,115,1680065,,,,,,,2024-07-26,1,,,,,エスパイロット,0
515,3011501030944,新規,0,2024-07-26,2024-07-26,株式会社Ｓｈｏｗｓｈｉｎ,,株式会社,東京都,荒川区,町屋３丁目２３番１８号,,13,118,1160001,,,,,,,2024-07-26,1,,,,,ショウシン,0
522,3011703003913,新規,0,2024-07-26,2024-07-26,合同会社ＲＯＡＮ,,合同会社,東京都,江戸川区,中葛西３丁目３５－３こうや天忠ビル１Ｆ,,13,123,1340083,,,,,,,2024-07-26,1,,,,,ロアン,0
529,3012301014006,新規,0,2024-07-26,2024-07-26,ＧＬＯＢＡＬ　ＣＯＮＮＥＣＴ　ＨＥＡＲＴＳ株式会社,,株式会社,東京都,町田市,小川４丁目２番地１０,,13,209,1940003,,,,,,,2024-07-26,1,,,,,グローバルコネクトハーツ,0
533,3012803003464,新規,0,2024-07-26,2024-07-26,合同会社ライスボール,,合同会社,東京都,立川市,錦町１丁目４－４サニービル２Ｆ、ＣＳ－２１５,,13,202,1900022,,,,,,,2024-07-26,1,,,,,ライスボール,0
534,3013301003064,新規,0,2024-07-26,2024-07-26,株式会社オール・プロパティ,,株式会社,東京都,豊島区,池袋２丁目７２番６号,,13,116,1710014,,,,,,,2024-07-26,1,,,,,オールプロパティ,0
537,3013301052879,新規,0,2024-07-26,2024-07-26,ＣｒｏｓｓＢｏｒｄｅｒ　Ｃｏｎｎｅｃｔ株式会社,,株式会社,東京都,豊島区,千早１丁目１５－１２,,13,116,1710044,,,,,,,2024-07-26,1,,,,,クロスボーダーコネクト,0
538,3013301052887,新規,0,2024-07-26,2024-07-26,株式会社Ｏｎｅ　ｔｒｉｃｋ　ｐｏｎｙ,,株式会社,東京都,豊島区,上池袋３丁目１９番７号グランメゾン２Ｆ,,13,116,1700012,,,,,,,2024-07-26,1,,,,,ワントリックポニー,0
542,3020001158122,新規,0,2024-07-26,2024-07-26,株式会社ＧＯＲＴＡＣ,,株式会社,神奈川県,横浜市磯子区,磯子３丁目６番１－１０２１号,,14,107,2350016,,,,,,,2024-07-26,1,,,,,ゴタック,0
547,3021001082808,新規,0,2024-07-26,2024-07-26,ウエスト株式会社,,株式会社,神奈川県,横須賀市,田戸台１７番地１１,,14,201,2380015,,,,,,,2024-07-26,1,,,,,ウエスト,0
553,3030003024809,新規,0,2024-07-26,2024-07-26,晋太郎アセットマネジメント合同会社,,合同会社,埼玉県,川越市,中原町２丁目１２番地１２,,11,201,3500042,,,,,,,2024-07-26,1,,,,,シンタロウアセットマネジメント,0
561,3040001134699,新規,0,2024-07-26,2024-07-26,株式会社ｃｏｌｌｅｇａｒｅ,,株式会社,千葉県,市川市,市川３丁目４０番３号,,12,203,2720034,,,,,,,2024-07-26,1,,,,,コッレガーレ,0
564,3040003025467,新規,0,2024-07-26,2024-07-26,ＴＮ空港サポート合同会社,,合同会社,千葉県,松戸市,殿平賀１８９番地の５サンシティーチアキ２０２号,,12,207,2700004,,,,,,,2024-07-26,1,,,,,ティーエヌクウコウサポート,0
565,3040003025483,新規,0,2024-07-26,2024-07-26,合同会社プレアデス,,合同会社,千葉県,千葉市若葉区,桜木北２丁目１７番１８号,,12,104,2640029,,,,,,,2024-07-26,1,,,,,プレアデス,0
569,3060001037339,新規,0,2024-07-26,2024-07-26,株式会社柊,,株式会社,栃木県,栃木市,大町２６番１６号,,09,203,3280071,,,,,,,2024-07-26,1,,,,,ヒイラギ,0
570,3060005010234,新規,0,2024-07-26,2024-07-26,一般社団法人坂東無外会,,その他の設立登記法人,栃木県,小山市,美しが丘３丁目８番地６,,09,208,3290207,,,,,,,2024-07-26,1,,,,,バンドウムガイカイ,0
574,3070001042016,新規,0,2024-07-26,2024-07-26,株式会社三光堂眼鏡店,,株式会社,群馬県,前橋市,南町１丁目１５番地１グリーンハイツ,,10,201,3710805,,,,,,,2024-07-26,1,,,,,サンコウドウガンキョウテン,0
577,3070003005516,新規,0,2024-07-26,2024-07-26,ＡＬＣ合同会社,,合同会社,群馬県,太田市,新井町１５２番地５,,10,205,3730852,,,,,,,2024-07-26,1,,,,,,0
578,3080105006444,新規,0,2024-07-26,2024-07-26,一般社団法人南伊豆オーシャンビューゴルフカントリー倶楽部＆シェルター,00135699,その他の設立登記法人,静岡県,賀茂郡南伊豆町,湊７３９民宿木屋内,,22,304,4150152,,,,,,,2024-07-26,1,,,,,ミナミイズオーシャンビューゴルフカントリークラブアンドシェルター,0
587,3100001037664,新規,0,2024-07-26,2024-07-26,ティーアールジーオート株式会社,,株式会社,長野県,小諸市,大字加増５００番地１,,20,208,3840061,,,,,,,2024-07-26,1,,,,,ティーアールジーオート,0
588,3100001037680,新規,0,2024-07-26,2024-07-26,株式会社笑成,,株式会社,長野県,塩尻市,大字広丘野村５０番地２Ｆ,,20,215,3990702,,,,,,,2024-07-26,1,,,,,ショウセイ,0
591,3110003005461,新規,0,2024-07-26,2024-07-26,合同会社Ａｉｕｔａｒｅ,,合同会社,新潟県,新潟市秋葉区,水田１８６５番地,,15,105,9560123,,,,,,,2024-07-26,1,,,,,アユターレ,0
600,3120001267136,新規,0,2024-07-26,2024-07-26,株式会社ライチ,,株式会社,大阪府,大阪市北区,兎我野町２番１２号,,27,127,5300056,,,,,,,2024-07-26,1,,,,,ライチ,0
601,3120001267169,新規,0,2024-07-26,2024-07-26,伊橋ＹＳＬ株式会社,,株式会社,大阪府,大阪市城東区,関目５丁目１９番９号関目花博公館１１３Ｂ,,27,118,5360008,,,,,,,2024-07-26,1,,,,,イバシワイエスエル,0
602,3120001267177,新規,0,2024-07-26,2024-07-26,株式会社トラストインスペクターズ,,株式会社,大阪府,大阪市中央区,南本町１丁目３番９号サンコービル１００７号,,27,128,5410054,,,,,,,2024-07-26,1,,,,,トラストインスペクターズ,0
608,3120005024450,新規,0,2024-07-26,2024-07-26,一般社団法人日本国際メディカルサポート,,その他の設立登記法人,大阪府,大阪市北区,中之島４丁目３番５１号,,27,127,5300005,,,,,,,2024-07-26,1,,,,,ニホンコクサイメディカルサポート,0
613,3120101070010,新規,0,2024-07-26,2024-07-26,株式会社ＴＭＲ,,株式会社,大阪府,堺市堺区,竜神橋町１丁６番９号富岡ビル５０２号室,,27,141,5900972,,,,,,,2024-07-26,1,,,,,ティーエムアール,0
614,3120101070035,新規,0,2024-07-26,2024-07-26,株式会社シン・マツウラ,,株式会社,大阪府,大阪狭山市,茱萸木８丁目１５９０番地の１（２―４１３号）,,27,231,5890013,,,,,,,2024-07-26,1,,,,,シンマツウラ,0
616,3120103005971,新規,0,2024-07-26,2024-07-26,合同会社ｐｏｏｈ,,合同会社,大阪府,岸和田市,下野町２丁目８番２１号,,27,202,5960041,,,,,,,2024-07-26,1,,,,,プー,0
622,3122005003772,新規,0,2024-07-26,2024-07-26,一般社団法人日本伝統文化河内音頭保存会,,その他の設立登記法人,大阪府,東大阪市,荒本北２丁目２番４３号,,27,227,5770011,,,,,,,2024-07-26,1,,,,,ニホンデントウブンカカワチオンドホゾンカイ,0
625,3130001077550,新規,0,2024-07-26,2024-07-26,株式会社Ｍ機設,,株式会社,京都府,京都市下京区,七条御所ノ内西町２６番地１０,,26,106,6008865,,,,,,,2024-07-26,1,,,,,エムキセツ,0
627,3130003009725,新規,0,2024-07-26,2024-07-26,合同会社ＬＯＹＡＬ,,合同会社,京都府,木津川市,木津片山１２０番地１０,,26,214,6190214,,,,,,,2024-07-26,1,,,,,ロイヤル,0
628,3130003009733,新規,0,2024-07-26,2024-07-26,合同会社アルバオーク,,合同会社,京都府,京都市伏見区,深草鈴塚町６番地７パデシオン伏見稲荷３０６号,00135701,26,109,6120011,,,,,,,2024-07-26,1,,,,,アルバオーク,0
634,3140001135266,新規,0,2024-07-26,2024-07-26,ＢＯＮＤ株式会社,,株式会社,兵庫県,神戸市中央区,下山手通３丁目１０番１５号ウィルトアロード３０１号,,28,110,6500011,,,,,,,2024-07-26,1,,,,,ボンド,0
635,3140003020870,新規,0,2024-07-26,2024-07-26,合同会社ＹＭ　ＩＮＴＥＸ,,合同会社,兵庫県,芦屋市,船戸町１番２５－５０３号,,28,206,6590093,,,,,,,2024-07-26,1,,,,,ワイエムインテックス,0
636,3150001027446,新規,0,2024-07-26,2024-07-26,株式会社マンテールマイス,,株式会社,奈良県,北葛城郡河合町,中山台２丁目８－７－２０１号,,29,427,6360072,,,,,,,2024-07-26,1,,,,,マンテールマイス,0
637,3150005009614,新規,0,2024-07-26,2024-07-26,一般社団法人自立と平和,,その他の設立登記法人,奈良県,生駒郡平群町,緑ケ丘４丁目９番６号,,29,342,6360941,,,,,,,2024-07-26,1,,,,,ジリツトヘイワ,0
641,3180001162389,新規,0,2024-07-26,2024-07-26,株式会社ミライ,,株式会社,愛知県,名古屋市中川区,野田２丁目２５７番地カーザアメイシア１０１号,,23,110,4540912,,,,,,,2024-07-26,1,,,,,ミライ,0
642,3180001162471,新規,0,2024-07-26,2024-07-26,株式会社グレイス,,株式会社,愛知県,名古屋市中川区,荒子２丁目７０番地の１ナカソウマンション１０２号,,23,110,4540869,,,,,,,2024-07-26,1,,,,,グレイス,0
643,3180001162505,新規,0,2024-07-26,2024-07-26,株式会社Ｍｉｒａｉｈｅ,,株式会社,愛知県,名古屋市南区,豊２丁目２番１号,,23,112,4570863,,,,,,,2024-07-26,1,,,,,ミライヘ,0
648,3180003027128,新規,0,2024-07-26,2024-07-26,合同会社エムズ商店,,合同会社,愛知県,名古屋市中村区,名駅４丁目２４番５号第２森ビル４０１,,23,105,4500002,,,,,,,2024-07-26,1,,,,,エムズショウテン,0
653,3210001019841,新規,0,2024-07-26,2024-07-26,株式会社Ｎ＆Ｔ,,株式会社,福井県,越前市,高瀬１丁目２０番１９号,,18,209,9150832,,,,,,,2024-07-26,1,,,,,エヌアンドテイ,0
665,3290001106649,新規,0,2024-07-26,2024-07-26,株式会社林農園,,株式会社,福岡県,久留米市,野中町５６１番地３１,,40,203,8390862,,,,,,,2024-07-26,1,,,,,ハヤシノウエン,0
667,3290801030718,新規,0,2024-07-26,2024-07-26,株式会社福富エンジニアリング,,株式会社,福岡県,田川郡川崎町,大字田原９２４番地,,40,605,8270004,,,,,,,2024-07-26,1,,,,,フクトミエンジニアリング,0
671,3330001032279,新規,0,2024-07-26,2024-07-26,株式会社松本電設,,株式会社,熊本県,熊本市東区,桜木２丁目７番１３－１０２号,,43,102,8612101,,,,,,,2024-07-26,1,,,,,マツモトデンセツ,0
675,3350001019101,新規,0,2024-07-26,2024-07-26,綺麗水工業株式会社,,株式会社,宮崎県,都城市,宮丸町３０８２番コーポ宮原１０３号,,45,202,8850078,,,,,,,2024-07-26,1,,,,,キレイスイコウギョウ,0
676,3350003004712,新規,0,2024-07-26,2024-07-26,合同会社ＲｉＲｉｉ,,合同会社,宮崎県,東諸県郡国富町,大字深年５５８７－３,,45,382,8801224,,,,,,,2024-07-26,1,,,,,リリイ,0
677,3360005007076,新規,0,2024-07-26,2024-07-26,一般社団法人ｃｏ‐ｓｏｄａｔｔｉ,,その他の設立登記法人,沖縄県,名護市,宮里１丁目２番８－３号,,47,209,9050011,,,,,,,2024-07-26,1,,,,,コーソダッチ,0
709,3450003002524,新規,0,2024-07-26,2024-07-26,ＡＫＡＨＯＭＥＳ合同会社,,合同会社,北海道,空知郡上富良野町,大町２丁目３番２５号,,01,460,0710561,,,,,,,2024-07-26,1,,,,,アカホームズ,0
720,3700150041290,新規,0,2024-07-26,2015-10-09,東部小学校区学童保育施設正和子供の家運営委員会,,その他,山形県,米沢市,東１丁目６－１０７,,06,202,9920026,,,,,,,2015-10-09,1,,,,,トウブシヨウガツコウクガクドウホイクシセツセイワコドモノイエウンエイイインカイ,0
721,3700150126430,新規,0,2024-07-26,2024-07-10,馬木地区社会福祉協議会,,その他,広島県,広島市東区,馬木２丁目５４８－１,,34,102,7320031,,,,,,,2024-07-10,1,,,,,ウマキチクシヤカイフクシキヨウギカイ,0
734,4010001246892,新規,0,2024-07-26,2024-07-26,嘉和貿易株式会社,,株式会社,東京都,千代田区,神田淡路町１丁目９－５－５０２号室,,13,101,1010063,,,,,,,2024-07-26,1,,,,,カワボウエキ,0
735,4010003044320,新規,0,2024-07-26,2024-07-26,シンエナジー合同会社,,合同会社,東京都,中央区,晴海２丁目３－２－９０７,,13,102,1040053,,,,,,,2024-07-26,1,,,,,シンエナジー,0
742,4010401184024,新規,0,2024-07-26,2024-07-26,株式会社ｈｍ　ｈｏｌｄｅｒ,,株式会社,東京都,港区,六本木５丁目２番１号ほうらいやビル８階,,13,103,1060032,,,,,,,2024-07-26,1,,,,,エイチエムホルダー,0
743,4010401184040,新規,0,2024-07-26,2024-07-26,ＯｐｔｉｍＡＩｚｅ　Ｃｏｎｓｕｌｔｉｎｇ株式会社,,株式会社,東京都,港区,六本木４丁目３番１１号六本木ユニハウス２２３,,13,103,1060032,,,,,,,2024-07-26,1,,,,,オプティマイズコンサルティング,0
744,4010401184057,新規,0,2024-07-26,2024-07-26,株式会社ＣｅｎｔｒａｌＡｃａｄｅｍｙｏｆＭｅｄｉｃｉｎｅ,,株式会社,東京都,港区,六本木１丁目９－１８－２１０９号室,,13,103,1060032,,,,,,,2024-07-26,1,,,,,セントラルアカデミーオブメディスン,0
745,4010501052650,新規,0,2024-07-26,2024-07-26,Ｂｌａｎｃ　ｄｅ　Ｂｌａｎｃ株式会社,,株式会社,東京都,台東区,谷中２丁目９番２２号,,13,106,1100001,,,,,,,2024-07-26,1,,,,,ブランドブラン,0
751,4010803005034,新規,0,2024-07-26,2024-07-26,バディ合同会社,,合同会社,東京都,大田区,西六郷４丁目３０番１４－５０２号,,13,111,1440056,,,,,,,2024-07-26,1,,,,,バディ,0
758,4010905004636,新規,0,2024-07-26,2024-07-26,一般社団法人世田谷健身健脳協会,,その他の設立登記法人,東京都,世田谷区,宮坂３丁目１０の１宮坂ビル４階,,13,112,1560051,,,,,,,2024-07-26,1,,,,,セタガヤケンシンケンノウキョウカイ,0
765,4011001163517,新規,0,2024-07-26,2024-07-26,株式会社ｌｅｅｗａｙ,,株式会社,東京都,渋谷区,渋谷２丁目１９－１５宮益坂ビルディング６０９,,13,113,1500002,,,,,,,2024-07-26,1,,,,,リーウェイ,0
766,4011001163649,新規,0,2024-07-26,2024-07-26,株式会社ｉＴｅｍ,,株式会社,東京都,渋谷区,神泉町１０番１５号アネックス神泉３０１,,13,113,1500045,,,,,,,2024-07-26,1,,,,,アイテム,0
767,4011001163665,新規,0,2024-07-26,2024-07-26,株式会社日本ＡＩ総合研究所,,株式会社,東京都,渋谷区,神宮前６丁目１２番１８号ＷｅＷｏｒｋＩｃｅｂｅｒｇ,,13,113,1500001,,,,,,,2024-07-26,1,,,,,ニホンエーアイソウゴウケンキュウジョ,0
769,4011003019634,新規,0,2024-07-26,2024-07-26,合同会社Ｈａｒｍｏｇｒａｐｈ,,合同会社,東京都,渋谷区,恵比寿西２丁目４番８号ウィンド恵比寿ビル８Ｆ,,13,113,1500021,,,,,,,2024-07-26,1,,,,,ハーモグラフ,0
773,4011101108165,新規,0,2024-07-26,2024-07-26,輝喜産業株式会社,,株式会社,東京都,新宿区,高田馬場３丁目１２－２４－１階,,13,104,1690075,,,,,,,2024-07-26,1,,,,,コウキサンギョウ,0
783,4011801044585,新規,0,2024-07-26,2024-07-26,イデックス株式会社,,株式会社,東京都,足立区,佐野２丁目２３番４号サンファミリア１０１,,13,121,1210053,,,,,,,2024-07-26,1,,,,,イデックス,0
789,4013303007244,新規,0,2024-07-26,2024-07-26,合同会社余福サービス,,合同会社,東京都,豊島区,南大塚１丁目１３番４号ハイツたむら館２０２号,,13,116,1700005,,,,,,,2024-07-26,1,,,,,ヨフクサービス,0
793,4020003026557,新規,0,2024-07-26,2024-07-26,Ｓノード合同会社,,合同会社,神奈川県,横浜市港南区,日野南１丁目２４―３７,,14,111,2340055,,,,,,,2024-07-26,1,,,,,エスノード,0
795,4021001082815,新規,0,2024-07-26,2024-07-26,ＳＥＥＤｓロボティクス株式会社,,株式会社,神奈川県,藤沢市,辻堂神台２丁目２番１号,,14,205,2510041,,,,,,,2024-07-26,1,,,,,シーズロボティクス,0
801,4030003024808,新規,0,2024-07-26,2024-07-26,合同会社アイス,,合同会社,埼玉県,川口市,安行出羽２丁目５番１０号,,11,203,3340052,,,,,,,2024-07-26,1,,,,,アイス,0
805,4030005021778,新規,0,2024-07-26,2024-07-26,一般社団法人ＭＩＲＡＩ,,その他の設立登記法人,埼玉県,所沢市,東狭山ケ丘１丁目４５番地の２０,,11,208,3591106,,,,,,,2024-07-26,1,,,,,ミライ,0
808,4040001134698,新規,0,2024-07-26,2024-07-26,株式会社ｄｏｔｓ,,株式会社,千葉県,千葉市稲毛区,宮野木町１５４８番地１サンライズマンション２０４号,,12,103,2630054,,,,,,,2024-07-26,1,,,,,ドッツ,0
809,4040001134707,新規,0,2024-07-26,2024-07-26,株式会社高橋工業,00135709,株式会社,千葉県,四街道市,内黒田３０８番地２６,,12,228,2840013,,,,,,,2024-07-26,1,,,,,タカハシコウギョウ,0
810,4040001134715,新規,0,2024-07-26,2024-07-26,ＦｏｒｔｕｎｅＣａｒｅ未来株式会社,,株式会社,千葉県,印西市,原３丁目２番地７３５号,,12,231,2701335,,,,,,,2024-07-26,1,,,,,フォーチュンケアミライ,0
817,4050003008569,新規,0,2024-07-26,2024-07-26,合同会社大雲,,合同会社,茨城県,古河市,横山町３丁目３番５８号,,08,204,3060022,,,,,,,2024-07-26,1,,,,,タイウン,0
818,4060001037338,新規,0,2024-07-26,2024-07-26,ＴｒｕｓｔＦｉｅｌｄ株式会社,,株式会社,栃木県,栃木市,都賀町合戦場３４５‐５、２Ｆ,,09,203,3280113,,,,,,,2024-07-26,1,,,,,トラストフィールド,0
820,4060003005169,新規,0,2024-07-26,2024-07-26,合同会社キャプティブ,,合同会社,栃木県,宇都宮市,下戸祭２丁目１３番３号ウエキハイツ１０２号室,,09,201,3200055,,,,,,,2024-07-26,1,,,,,キャプティブ,0
824,4070003005515,新規,0,2024-07-26,2024-07-26,合同会社ｍｕｉ,,合同会社,群馬県,邑楽郡大泉町,西小泉５丁目８番１５号,,10,524,3700517,,,,,,,2024-07-26,1,,,,,ムイ,0
828,4080101024911,新規,0,2024-07-26,2024-07-26,株式会社ＭＡＭＥＹＡ,,株式会社,静岡県,富士市,高嶺町５番１６号１Ｆ,,22,210,4170044,,,,,,,2024-07-26,1,,,,,マメヤ,0
835,4100001037671,新規,0,2024-07-26,2024-07-26,株式会社田中左官店,,株式会社,長野県,小諸市,大字八満３５番地１,,20,208,3840051,,,,,,,2024-07-26,1,,,,,タナカサカンテン,0
838,4100003007664,新規,0,2024-07-26,2024-07-26,合同会社フォレストバード,,合同会社,長野県,北佐久郡軽井沢町,大字追分１７７６番地１,,20,321,3890115,,,,,,,2024-07-26,1,,,,,フォレストバード,0
839,4110001038594,新規,0,2024-07-26,2024-07-26,ＭＯＴＯプラン株式会社,,株式会社,新潟県,長岡市,中島４丁目１３番７号,,15,202,9400094,,,,,,,2024-07-26,1,,,,,モトプラン,0
848,4120001266764,新規,0,2024-07-26,2024-07-26,株式会社芯閣,,株式会社,大阪府,大阪市北区,西天満４丁目１７－６プレサンス天満６０５号,,27,127,5300047,,,,,,,2024-07-26,1,,,,,シンカク,0
849,4120001267052,新規,0,2024-07-26,2024-07-26,株式会社ＴＲＩ‐ＯＮＥ,,株式会社,大阪府,大阪市西区,靱本町２丁目３－２ＭＩＤビル１０階,,27,106,5500004,,,,,,,2024-07-26,1,,,,,トリワン,0
850,4120001267119,新規,0,2024-07-26,2024-07-26,株式会社ＣａｍｅｌＣｒｕｔｃｈ,,株式会社,大阪府,寝屋川市,大利町２４番２－５０１号,,27,215,5720048,,,,,,,2024-07-26,1,,,,,キャメルクラッチ,0
851,4120001267127,新規,0,2024-07-26,2024-07-26,株式会社ユーエー,,株式会社,大阪府,枚方市,伊加賀緑町５番２５号,,27,210,5730067,,,,,,,2024-07-26,1,,,,,ユーエー,0
852,4120001267143,新規,0,2024-07-26,2024-07-26,株式会社Ｋ．Ｏ．Ｈ,,株式会社,大阪府,大阪市浪速区,湊町１丁目２番３号マルイト難波ビル２０階,,27,111,5560017,,,,,,,2024-07-26,1,,,,,ケーオーエイチ,0
853,4120001267168,新規,0,2024-07-26,2024-07-26,亜新冶金技術株式会社,,株式会社,大阪府,大阪市大正区,三軒家西３丁目４番１６号中山ビル１０３７,,27,108,5510001,,,,,,,2024-07-26,1,,,,,アシンヤキンギジュツ,0
854,4120001267176,新規,0,2024-07-26,2024-07-26,株式会社ＳＯＪＩ,,株式会社,大阪府,大阪市中央区,本町４丁目４番１７号ＲＥ－０１２－７０８,,27,128,5410053,,,,,,,2024-07-26,1,,,,,ソジ,0
855,4120001267184,新規,0,2024-07-26,2024-07-26,楽天然株式会社,,株式会社,大阪府,大阪市生野区,巽北１丁目２１番２９号生野ハイツ９１８号室,00135704,27,116,5440004,,,,,,,2024-07-26,1,,,,,ラクテンネン,0
859,4120003027033,新規,0,2024-07-26,2024-07-26,合同会社ＳＨＵＢＨＡ　ＡＡＲＡＭＢＨＡ,,合同会社,大阪府,大阪市中央区,西心斎橋２丁目４－６おおきに花月久左衛門町ビル１号５０１号室,,27,128,5420086,,,,,,,2024-07-26,1,,,,,スバランバ,0
860,4120003027132,新規,0,2024-07-26,2024-07-26,合同会社ＫＮＯＴ,,合同会社,大阪府,大阪市淀川区,塚本３丁目６番４号,,27,123,5320026,,,,,,,2024-07-26,1,,,,,ノット,0
867,4130003009724,新規,0,2024-07-26,2024-07-26,合同会社ＳＯＹＡ,,合同会社,京都府,京都市下京区,大宮通仏光寺上る綾大宮町６１番地,,26,106,6008383,,,,,,,2024-07-26,1,,,,,ソヤ,0
873,4140001135133,新規,0,2024-07-26,2024-07-26,みなと保険株式会社,,株式会社,兵庫県,神戸市中央区,磯上通８丁目１番１号テッケンビル７階,,28,110,6510086,,,,,,,2024-07-26,1,,,,,ミナトホケン,0
874,4140001135174,新規,0,2024-07-26,2024-07-26,株式会社レミシル,,株式会社,兵庫県,宝塚市,平井５丁目６番７号,,28,214,6650816,,,,,,,2024-07-26,1,,,,,レミシル,0
875,4140001135190,新規,0,2024-07-26,2024-07-26,株式会社大西創建,,株式会社,兵庫県,神戸市長田区,海運町７丁目５番１０号,,28,106,6530052,,,,,,,2024-07-26,1,,,,,オオニシソウケン,0
876,4140001135240,新規,0,2024-07-26,2024-07-26,株式会社サクエステート,,株式会社,兵庫県,神戸市西区,北別府１丁目２番１号アーバンメゾン１０１号,,28,111,6512117,,,,,,,2024-07-26,1,,,,,サクエステート,0
877,4140001135257,新規,0,2024-07-26,2024-07-26,株式会社エスジェイリソーシズ,,株式会社,兵庫県,芦屋市,東芦屋町８番５号,00135708,28,206,6590095,,,,,,,2024-07-26,1,,,,,エスジェイリソーシズ,0
889,4180001162470,新規,0,2024-07-26,2024-07-26,株式会社ファクトキー不動産,,株式会社,愛知県,名古屋市天白区,鴻の巣１丁目１６０５番地グリーンパレス１０２号室,,23,116,4680003,,,,,,,2024-07-26,1,,,,,ファクトキーフドウサン,0
892,4190003004752,新規,0,2024-07-26,2024-07-26,合同会社自立支援介護,,合同会社,三重県,津市,片田新町３７番地９,,24,201,5140083,,,,,,,2024-07-26,1,,,,,ジリツシエンカイゴ,0
910,4290003015558,新規,0,2024-07-26,2024-07-26,合同会社Ｈａｐｐｅａｃｅ,,合同会社,福岡県,福岡市南区,野多目１丁目３番２０号,,40,134,8111347,,,,,,,2024-07-26,1,,,,,ハッピース,0
912,4290801030725,新規,0,2024-07-26,2024-07-26,株式会社百済食品,,株式会社,福岡県,北九州市門司区,浜町９番１５号,,40,101,8010856,,,,,,,2024-07-26,1,,,,,クダラショクヒン,0
923,4340001026667,新規,0,2024-07-26,2024-07-26,株式会社Ｏｐｓｙｓ,,株式会社,鹿児島県,奄美市,名瀬崎原４４４番地,,46,222,8940000,,,,,,,2024-07-26,1,,,,,オプシス,0
926,4350001019100,新規,0,2024-07-26,2024-07-26,株式会社信,,株式会社,宮崎県,宮崎市,大字郡司分丙９８５１番地３４,,45,201,8800924,,,,,,,2024-07-26,1,,,,,シン,0
931,4360003014172,新規,0,2024-07-26,2024-07-26,合同会社花國商貿,,合同会社,沖縄県,八重山郡与那国町,字与那国５６番地２,,47,382,9071801,,,,,,,2024-07-26,1,,,,,ハナクニショウボウ,0
932,4370005010821,新規,0,2024-07-26,2024-07-26,一般社団法人ＮＩＩＤＡ,,その他の設立登記法人,宮城県,仙台市泉区,八乙女１丁目１３番地の２９リトルリバー１０５,,04,105,9813112,,,,,,,2024-07-26,1,,,,,ニイダ,0
935,4380001034690,新規,0,2024-07-26,2024-07-26,株式会社ＮＥＯ‐ｃａｒ’ｓ‐Ｂ,,株式会社,福島県,いわき市,内郷高坂町１丁目４７番地の４,,07,204,9738408,,,,,,,2024-07-26,1,,,,,ネオカーズビー,0
957,4450001014371,新規,0,2024-07-26,2024-07-26,株式会社イエローカブ,,株式会社,北海道,旭川市,東一条３丁目２番１６号,,01,204,0700021,,,,,,,2024-07-26,1,,,,,イエローカブ,0
969,5010001246875,新規,0,2024-07-26,2024-07-26,東英株式会社,,株式会社,東京都,文京区,本郷１丁目２８番３２－８０１号,,13,105,1130033,,,,,,,2024-07-26,1,,,,,トウエイ,0
970,5010001246917,新規,0,2024-07-26,2024-07-26,株式会社ｚｅｚｅ,,株式会社,東京都,千代田区,六番町３－４,,13,101,1020085,,,,,,,2024-07-26,1,,,,,ゼゼ,0
974,5010003044419,新規,0,2024-07-26,2024-07-26,合同会社Ｒ３６９,,合同会社,東京都,中央区,勝どき５丁目３番１－２３２１号,,13,102,1040054,,,,,,,2024-07-26,1,,,,,アールスリーシックスナイン,0
976,5010005038542,新規,0,2024-07-26,2024-07-26,シーピーエス特定目的会社,,その他の設立登記法人,東京都,千代田区,丸の内１丁目８番２号鉄鋼ビルディング４階,,13,101,1000005,,,,,,,2024-07-26,1,,,,,シーピーエス,0
986,5010401184048,新規,0,2024-07-26,2024-07-26,ＩＳフロンティアパートナーズ株式会社,,株式会社,東京都,港区,北青山２丁目５番１号,,13,103,1070061,,,,,,,2024-07-26,1,,,,,アイエスフロンティアパートナーズ,0
991,5010403033112,新規,0,2024-07-26,2024-07-26,ＪＥＦ合同会社,,合同会社,東京都,港区,東麻布１丁目１５番８号,,13,103,1060044,,,,,,,2024-07-26,1,,,,,ジェフ,0
996,5010405023433,新規,0,2024-07-26,2024-07-26,一般社団法人ＴＳＭ１６４,,その他の設立登記法人,東京都,港区,元赤坂１丁目１番７号,,13,103,1070051,,,,,,,2024-07-26,1,,,,,ティーエスエムヒャクロクジュウヨン,0
998,5010501052658,新規,0,2024-07-26,2024-07-26,Ｃｈｉｌｌｙ　Ｃｒｕｎｃｈ株式会社,,株式会社,東京都,台東区,北上野２丁目６－１３ダイアパレス上野６０４号室,,13,106,1100014,,,,,,,2024-07-26,1,,,,,チリークランチ,0
1000,5010503007528,新規,0,2024-07-26,2024-07-26,合同会社ニッポンオペテク,,合同会社,東京都,台東区,浅草橋４丁目２０番６―１３０１号,,13,106,1110053,,,,,,,2024-07-26,1,,,,,ニッポンオペテク,0
1001,5010801035263,新規,0,2024-07-26,2024-07-26,株式会社Ｔｅｒｒａ　Ｐｌａｃｅ,,株式会社,東京都,大田区,西馬込２丁目３番１号ＳｔａｂｉｌｅＢ号室,,13,111,1430026,,,,,,,2024-07-26,1,,,,,テラプレイス,0
1002,5010803005033,新規,0,2024-07-26,2024-07-26,合同会社グルシン,,合同会社,東京都,大田区,鵜の木１丁目５－２－５１６,,13,111,1460091,,,,,,,2024-07-26,1,,,,,グルシン,0
1010,5011001163524,新規,0,2024-07-26,2024-07-26,株式会社ウェルスフォワード,,株式会社,東京都,目黒区,五本木２丁目１１番３０号,,13,110,1530053,,,,,,,2024-07-26,1,,,,,ウェルスフォワード,0
1011,5011001163532,新規,0,2024-07-26,2024-07-26,株式会社ＬＩＦＲＥＥ,,株式会社,東京都,渋谷区,道玄坂１丁目１０番８号渋谷道玄坂東急ビル２Ｆ－Ｃ,,13,113,1500043,,,,,,,2024-07-26,1,,,,,ライフリー,0
1017,5011101108197,新規,0,2024-07-26,2024-07-26,株式会社早稲田総研,,株式会社,東京都,新宿区,早稲田鶴巻町５５５番地ｐａｓｓａｇｅ３０１,,13,104,1620041,,,,,,,2024-07-26,1,,,,,ワセダソウケン,0
1018,5011201025664,新規,0,2024-07-26,2024-07-26,雲杉キャピタル株式会社,,株式会社,東京都,中野区,江古田４丁目３０番１９－１０１号,,13,114,1650022,,,,,,,2024-07-26,1,,,,,,0
1021,5011503006156,新規,0,2024-07-26,2024-07-26,アンダーグラウンド合同会社,,合同会社,東京都,北区,赤羽１丁目６６番５号グリーンコーポＩＩ,00135700,13,117,1150045,,,,,,,2024-07-26,1,,,,,アンダーグラウンド,0
1022,5011603004398,新規,0,2024-07-26,2024-07-26,合同会社ネクストスペース,,合同会社,東京都,練馬区,羽沢３丁目２番１３号,,13,120,1760003,,,,,,,2024-07-26,1,,,,,ネクストスペース,0
1026,5011801044584,新規,0,2024-07-26,2024-07-26,株式会社Ｔ‐Ｉ,,株式会社,東京都,葛飾区,細田３丁目２８番１２号,,13,122,1240021,,,,,,,2024-07-26,1,,,,,ティーアイ,0
1027,5012401042103,新規,0,2024-07-26,2024-07-26,株式会社ＩＭＭ,,株式会社,東京都,三鷹市,新川６丁目１４番１－３０３号,,13,204,1810004,,,,,,,2024-07-26,1,,,,,イマムー,0
1038,5013303007243,新規,0,2024-07-26,2024-07-26,合同会社求,,合同会社,東京都,豊島区,池袋２丁目１７番８－４０９号,,13,116,1710014,,,,,,,2024-07-26,1,,,,,モトム,0
1045,5020001158194,新規,0,2024-07-26,2024-07-26,株式会社Ｓ＆Ｍ,,株式会社,神奈川県,横浜市神奈川区,金港町５－１４クアドリフォリオ８階,,14,102,2210056,,,,,,,2024-07-26,1,,,,,エスアンドエム,0
1047,5020003026498,新規,0,2024-07-26,2024-07-26,合同会社Ｋ‐ｓｔｙｌｅ,,合同会社,神奈川県,横浜市神奈川区,星野町８番地３－３１１号,,14,102,2210035,,,,,,,2024-07-26,1,,,,,ケイスタイル,0
1048,5020005016489,新規,0,2024-07-26,2024-07-26,一般財団法人文化教育学術振興財団,,その他の設立登記法人,神奈川県,横浜市西区,西戸部町３丁目２５２番地９,,14,103,2200046,,,,,,,2024-07-26,1,,,,,ブンカキョウイクガクジュツシンコウザイダン,0
1049,5021003014732,新規,0,2024-07-26,2024-07-26,ＹＯＵＫＥ合同会社,,合同会社,神奈川県,中郡二宮町,山西５７６番地－１０１,,14,342,2590124,,,,,,,2024-07-26,1,,,,,ユウキャク,0
1050,5021003014823,新規,0,2024-07-26,2024-07-26,合同会社ＬＡＩ,,合同会社,神奈川県,藤沢市,立石１丁目１番３～１０３号,,14,205,2510872,,,,,,,2024-07-26,1,,,,,エルエーアイ,0
1059,5040001134689,新規,0,2024-07-26,2024-07-26,株式会社ＵＮＩＴＥＸ‐ＯＮＥ,,株式会社,千葉県,松戸市,高塚新田１３８番地の２０９,,12,207,2702222,,,,,,,2024-07-26,1,,,,,ユニテクスワン,0
1060,5040001134706,新規,0,2024-07-26,2024-07-26,株式会社束,,株式会社,千葉県,四街道市,吉岡５００番地１０,,12,228,2840032,,,,,,,2024-07-26,1,,,,,ソク,0
1061,5040001134714,新規,0,2024-07-26,2024-07-26,株式会社久保田工業,,株式会社,千葉県,流山市,江戸川台西４丁目４９番地の１,,12,220,2700115,,,,,,,2024-07-26,1,,,,,クボタコウギョウ,0
1071,5050001055141,新規,0,2024-07-26,2024-07-26,株式会社ときエステート,,株式会社,茨城県,古河市,東本町４丁目２番１７号,,08,204,3060013,,,,,,,2024-07-26,1,,,,,トキエステート,0
1077,5070003005514,新規,0,2024-07-26,2024-07-26,福山合同会社,,合同会社,群馬県,藤岡市,本郷６６３－１・６号,,10,209,3750023,,,,,,,2024-07-26,1,,,,,フクヤマ,0
1084,5100001037679,新規,0,2024-07-26,2024-07-26,株式会社ＴＥＲＩＯＳ,,株式会社,長野県,千曲市,大字須坂１２番地１,,20,218,3890811,,,,,,,2024-07-26,1,,,,,テリオス,0
1090,5110001038593,新規,0,2024-07-26,2024-07-26,柴田興業株式会社,,株式会社,新潟県,上越市,大潟区犀潟６１３番地６,,15,222,9493116,,,,,,,2024-07-26,1,,,,,シバタコウギョウ,0
1100,5120001267126,新規,0,2024-07-26,2024-07-26,株式会社Ｕｌｕｍ,,株式会社,大阪府,大阪市中央区,本町２丁目３番４号アソルティ本町４Ｆ,,27,128,5410053,,,,,,,2024-07-26,1,,,,,ウルム,0
1101,5120001267150,新規,0,2024-07-26,2024-07-26,株式会社ＧｒａｍＥａｔｓ,,株式会社,大阪府,大阪市北区,梅田１丁目２番２号大阪駅前第２ビル１２１２号,,27,127,5300001,,,,,,,2024-07-26,1,,,,,グラムイーツ,0
1102,5120001267167,新規,0,2024-07-26,2024-07-26,安通株式会社,,株式会社,大阪府,大阪市城東区,関目５丁目１９番９号関目花博公館４０１Ａ,,27,118,5360008,,,,,,,2024-07-26,1,,,,,アンツウ,0
1103,5120001267183,新規,0,2024-07-26,2024-07-26,株式会社アステラス,,株式会社,大阪府,大阪市中央区,西心斎橋１丁目５番１２号８０８号室,,27,128,5420086,,,,,,,2024-07-26,1,,,,,アステラス,0
1111,5120901049490,新規,0,2024-07-26,2024-07-26,株式会社モア,,株式会社,大阪府,茨木市,双葉町１０番１号,,27,211,5670829,,,,,,,2024-07-26,1,,,,,モア,0
1112,5120903005277,新規,0,2024-07-26,2024-07-26,エスケーインターナショナル合同会社,,合同会社,大阪府,高槻市,松が丘２丁目２０番１６号,,27,207,5691031,,,,,,,2024-07-26,1,,,,,エスケーインターナショナル,0
1117,5130001077508,新規,0,2024-07-26,2024-07-26,心海株式会社,,株式会社,京都府,京都市伏見区,深草越後屋敷町６７番地６,,26,109,6128431,,,,,,,2024-07-26,1,,,,,シンカイ,0
1124,5140001135248,新規,0,2024-07-26,2024-07-26,ピアパートナーズ株式会社,,株式会社,兵庫県,明石市,松の内１丁目１番地２６,,28,203,6730016,,,,,,,2024-07-26,1,,,,,ピアパートナーズ,0
1144,5180001162453,新規,0,2024-07-26,2024-07-26,株式会社ミラクルＲ,,株式会社,愛知県,名古屋市中村区,日吉町１６番地の１,,23,105,4530029,,,,,,,2024-07-26,1,,,,,ミラクルアール,0
1174,5290001106548,新規,0,2024-07-26,2024-07-26,株式会社木村工務店,,株式会社,福岡県,小郡市,寺福童８３１番地５,,40,216,8380138,,,,,,,2024-07-26,1,,,,,キムラコウムテン,0
1177,5320005010172,新規,0,2024-07-26,2024-07-26,一般社団法人さいき創生パートナーズ,,その他の設立登記法人,大分県,佐伯市,宇目大字重岡６１３番１号,,44,205,8793204,,,,,,,2024-07-26,1,,,,,サイキソウセイパートナーズ,0
1178,5330003010487,新規,0,2024-07-26,2024-07-26,合同会社ＦＲＩＥＮＤ,,合同会社,熊本県,熊本市南区,御幸笛田７丁目４番８９号グレイシャスミユキＩＩＩ２０２,00135711,43,104,8614172,,,,,,,2024-07-26,1,,,,,フレンド,0
1185,5350003004710,新規,0,2024-07-26,2024-07-26,合同会社Ｐｕｒｅ,,合同会社,宮崎県,東諸県郡国富町,大字嵐田２３０８－８,,45,382,8801103,,,,,,,2024-07-26,1,,,,,ピュア,0
1186,5360001033982,新規,0,2024-07-26,2024-07-26,株式会社Ｂｌｕｅｔｅｃｈ,,株式会社,沖縄県,中頭郡北谷町,字上勢頭５４６番地４－２階,,47,326,9040101,,,,,,,2024-07-26,1,,,,,ブルーテック,0
1187,5360003014163,新規,0,2024-07-26,2024-07-26,Ｓｏｕｔｈ　Ｎｏｒｔｈ合同会社,,合同会社,沖縄県,島尻郡伊平屋村,字我喜屋２１３５番地１０７ギークハウス１０１,,47,359,9050703,,,,,,,2024-07-26,1,,,,,サウスノース,0
1205,5450001014370,新規,0,2024-07-26,2024-07-26,エフワイメンテナンス株式会社,,株式会社,北海道,旭川市,末広六条６丁目４番２２号,,01,204,0718136,,,,,,,2024-07-26,1,,,,,エフワイメンテナンス,0
1211,5500001025767,新規,0,2024-07-26,2024-07-26,株式会社マルコウ,,株式会社,愛媛県,四国中央市,上分町１０１番地,,38,213,7990121,,,,,,,2024-07-26,1,,,,,マルコウ,0
1218,6010001246809,新規,0,2024-07-26,2024-07-26,株式会社ｓｔｕｄｉｏ　ＡＳＡＶＩ,,株式会社,東京都,中央区,日本橋室町１丁目１１番１２号日本橋水野ビル７階,,13,102,1030022,,,,,,,2024-07-26,1,,,,,スタジオアサビイ,0
1219,6010001246825,新規,0,2024-07-26,2024-07-26,Ｍｅｄｉｃａｌ　Ｆ２Ｆ株式会社,,株式会社,東京都,中央区,新川１丁目２－１２金山ビル８Ｆ,,13,102,1040033,,,,,,,2024-07-26,1,,,,,メディカルエフトゥエフ,0
1220,6010001246874,新規,0,2024-07-26,2024-07-26,株式会社リースバックコンサル,,株式会社,東京都,中央区,日本橋２丁目１０番３号,,13,102,1030027,,,,,,,2024-07-26,1,,,,,リースバックコンサル,0
1221,6010001246908,新規,0,2024-07-26,2024-07-26,株式会社ＨＢ,,株式会社,東京都,文京区,本郷２丁目２５番１号,,13,105,1130033,,,,,,,2024-07-26,1,,,,,エイチビー,0
1224,6010003044392,新規,0,2024-07-26,2024-07-26,合同会社ａｆｆｉｎｉｔｅ,,合同会社,東京都,中央区,月島３丁目１５番６号,,13,102,1040052,,,,,,,2024-07-26,1,,,,,アフィニテ,0
1225,6010003044401,新規,0,2024-07-26,2024-07-26,ＮＦＴ　Ｇａｌａｘｙ　Ｇａｍｅｓ合同会社,,合同会社,東京都,千代田区,麹町５丁目３番地第７秋山ビルディング８Ｆ,,13,101,1020083,,,,,,,2024-07-26,1,,,,,エヌエフティーギャラクシーゲームス,0
1241,6010501052673,新規,0,2024-07-26,2024-07-26,株式会社ＴＢＭ．ＣＲＡＦＴＳ,,株式会社,東京都,台東区,小島２丁目１３番３号カネイチビル２０２号室,,13,106,1110056,,,,,,,2024-07-26,1,,,,,ティービーエムクラフツ,0
1242,6010503007527,新規,0,2024-07-26,2024-07-26,Ｉｎｔｅｌｌｉｚｅｎ合同会社,,合同会社,東京都,台東区,小島２丁目１０番７号,,13,106,1110056,,,,,,,2024-07-26,1,,,,,インテリゼン,0
1244,6010601065609,新規,0,2024-07-26,2024-07-26,株式会社壹際,,株式会社,東京都,墨田区,石原２丁目１７番１７号両国ダイヤハイツ２０２－Ｘ,,13,107,1300011,,,,,,,2024-07-26,1,,,,,イッサイ,0
1246,6010703007277,新規,0,2024-07-26,2024-07-26,合同会社Ｉｍｐｒｅｓｓ,,合同会社,東京都,品川区,東品川１丁目８番１号クレッセント品川６０７,,13,109,1400002,,,,,,,2024-07-26,1,,,,,インプレス,0
1247,6010801035262,新規,0,2024-07-26,2024-07-26,株式会社ＲＭＫ　ＣＡＰＩＴＡＬ,,株式会社,東京都,大田区,大森北１丁目５番１号,,13,111,1430016,,,,,,,2024-07-26,1,,,,,アールエムケーキャピタル,0
1251,6010901055706,新規,0,2024-07-26,2024-07-26,方方株式会社,,株式会社,東京都,世田谷区,太子堂１丁目１番１１－１０２号,,13,112,1540004,,,,,,,2024-07-26,1,,,,,ホウボウ,0
1252,6010905004642,新規,0,2024-07-26,2024-07-26,一般社団法人ダグアウトクラブ事務局,,その他の設立登記法人,東京都,世田谷区,南烏山１丁目４番１８号,,13,112,1570062,,,,,,,2024-07-26,1,,,,,ダグアウトクラブジムキョク,0
1256,6011005010597,新規,0,2024-07-26,2024-07-26,一般社団法人財産運用研究会,,その他の設立登記法人,東京都,渋谷区,道玄坂１丁目１０番８号渋谷道玄坂東急ビル２Ｆ－Ｃ,,13,113,1500043,,,,,,,2024-07-26,1,,,,,ザイサンウンヨウケンキュカイ,0
1261,6011103014715,新規,0,2024-07-26,2024-07-26,ＹＡＤＯＹＡ．ＪＰ合同会社,,合同会社,東京都,新宿区,大久保１丁目１２－３,,13,104,1690072,,,,,,,2024-07-26,1,,,,,ヤドヤドットジェイピー,0
1264,6011401026288,新規,0,2024-07-26,2024-07-26,三井住口株式会社,,株式会社,東京都,板橋区,氷川町２０－８氷川ハウス１０１,,13,119,1730013,,,,,,,2024-07-26,1,,,,,ミツイスミクチ,0
1266,6011501030966,新規,0,2024-07-26,2024-07-26,海山アーバン株式会社,,株式会社,東京都,北区,王子２丁目２－９レグルスＩＩ３０１,00135710,13,117,1140002,,,,,,,2024-07-26,1,,,,,カンザンアーバン,0
1268,6011601027929,新規,0,2024-07-26,2024-07-26,株式会社１００ａｎｄ．Ａ,,株式会社,東京都,練馬区,春日町４丁目２６－３７ソレイユ春日町Ｂ２０１,,13,120,1790074,,,,,,,2024-07-26,1,,,,,ヒャクアンドエー,0
1270,6011603004397,新規,0,2024-07-26,2024-07-26,合同会社ｄｏｔｍａｓｈｕｐ,,合同会社,東京都,練馬区,羽沢２丁目６－２,,13,120,1760003,,,,,,,2024-07-26,1,,,,,ドットマッシュアップ,0
1275,6011801044583,新規,0,2024-07-26,2024-07-26,株式会社プロパティーアップ,,株式会社,東京都,足立区,梅島３丁目２６番１６号Ｅｓｐｏｉｒ－１,,13,121,1210816,,,,,,,2024-07-26,1,,,,,プロパティーアップ,0
1285,6013301052884,新規,0,2024-07-26,2024-07-26,株式会社ＡＺ,,株式会社,東京都,豊島区,池袋２丁目４５番１号,,13,116,1710014,,,,,,,2024-07-26,1,,,,,エーゼット,0
1293,6020001158227,新規,0,2024-07-26,2024-07-26,テクノプラント株式会社,,株式会社,神奈川県,横浜市戸塚区,前田町２１４番地１グランドメゾン東戸塚７番館３１８号,,14,110,2440804,,,,,,,2024-07-26,1,,,,,テクノプラント,0
1297,6020003026472,新規,0,2024-07-26,2024-07-26,チビリティ合同会社,,合同会社,神奈川県,横浜市青葉区,桂台２丁目３０番地１４サンコート桂台１階Ｄ号室,,14,117,2270034,,,,,,,2024-07-26,1,,,,,チビリティ,0
1298,6020003026514,新規,0,2024-07-26,2024-07-26,合同会社東京コミュニケーション塾,,合同会社,神奈川県,川崎市幸区,小倉１番地１Ｄ－７０２,,14,132,2120054,,,,,,,2024-07-26,1,,,,,トウキョウコミュニケーションジュク,0
1311,6040001134713,新規,0,2024-07-26,2024-07-26,アライアンス・ツリー株式会社,,株式会社,千葉県,佐倉市,染井野６丁目２９番地５,,12,212,2850831,,,,,,,2024-07-26,1,,,,,アライアンスツリー,0
1317,6040003025489,新規,0,2024-07-26,2024-07-26,ＫＡＦＫＡＬＯＴＴＡ合同会社,,合同会社,千葉県,柏市,逆井４丁目３３番１６号,,12,217,2770042,,,,,,,2024-07-26,1,,,,,カフカロッタ,0
1318,6040003025497,新規,0,2024-07-26,2024-07-26,ＭＳ合同会社,,合同会社,千葉県,千葉市中央区,松波２丁目１７番１号泰商ビル１Ｆ,,12,101,2600044,,,,,,,2024-07-26,1,,,,,エムズ,0
1325,6050003008575,新規,0,2024-07-26,2024-07-26,合同会社ＫＮＫ　Ｅｓｔａｔｅ,,合同会社,茨城県,つくば市,春日１丁目７番地４、７０１号,,08,220,3050821,,,,,,,2024-07-26,1,,,,,ケーエヌケーエステート,0
1326,6060001037336,新規,0,2024-07-26,2024-07-26,株式会社ライトステップ,,株式会社,栃木県,小山市,大字鉢形２４５番地１,,09,208,3230801,,,,,,,2024-07-26,1,,,,,ライトステップ,0
1330,6070003005513,新規,0,2024-07-26,2024-07-26,合同会社サルーテ,,合同会社,群馬県,高崎市,南大類町９９６番地１,,10,202,3700036,,,,,,,2024-07-26,1,,,,,サルーテ,0
1335,6100001037678,新規,0,2024-07-26,2024-07-26,不動産売却店株式会社,,株式会社,長野県,茅野市,塚原２丁目１１番３５号,,20,214,3910002,,,,,,,2024-07-26,1,,,,,フドウサンバイキャクテン,0
1336,6100001037694,新規,0,2024-07-26,2024-07-26,株式会社Ｈｉ‐３,,株式会社,長野県,安曇野市,明科中川手８５番地３,,20,220,3997102,,,,,,,2024-07-26,1,,,,,ハイスリー,0
1340,6100003007662,新規,0,2024-07-26,2024-07-26,合同会社ＭｕＳｕＢｕ,,合同会社,長野県,上田市,塩川１２８２番地１,,20,203,3860401,,,,,,,2024-07-26,1,,,,,ムスブ,0
1350,6120001267109,新規,0,2024-07-26,2024-07-26,株式会社ＬＩＧＨＴＮＩＮＧ,,株式会社,大阪府,大阪市北区,同心１丁目８番４号,,27,127,5300035,,,,,,,2024-07-26,1,,,,,ライトニング,0
1351,6120001267125,新規,0,2024-07-26,2024-07-26,株式会社ＲｅＰＬＡＣＥ,,株式会社,大阪府,寝屋川市,黒原新町１１番１６号,,27,215,5720059,,,,,,,2024-07-26,1,,,,,リプレイス,0
1352,6120001267133,新規,0,2024-07-26,2024-07-26,古戸建リノベーション大阪株式会社,,株式会社,大阪府,大阪市中央区,淡路町１丁目７番３号日土地堺筋ビル３階,,27,128,5410047,,,,,,,2024-07-26,1,,,,,フルコダテリノベーションオオサカ,0
1353,6120001267141,新規,0,2024-07-26,2024-07-26,株式会社エムズ・フューチャー,,株式会社,大阪府,大阪市浪速区,桜川１丁目５番３６,,27,111,5560022,,,,,,,2024-07-26,1,,,,,エムズフューチャー,0
1354,6120001267166,新規,0,2024-07-26,2024-07-26,波波株式会社,,株式会社,大阪府,大阪市城東区,関目５丁目１９番９号関目花博公館４１１Ｂ,,27,118,5360008,,,,,,,2024-07-26,1,,,,,ハハ,0
1355,6120001267174,新規,0,2024-07-26,2024-07-26,株式会社ＭＩアカウンティング,,株式会社,大阪府,大阪市北区,梅田１丁目２番２号大阪駅前第２ビル１２－１２,,27,127,5300001,,,,,,,2024-07-26,1,,,,,ミーアカウンティング,0
1358,6120003027122,新規,0,2024-07-26,2024-07-26,ＫＯＮＩ合同会社,,合同会社,大阪府,大阪市城東区,今福東３丁目５番２１号,,27,118,5360002,,,,,,,2024-07-26,1,,,,,コニ,0
1359,6120003027139,新規,0,2024-07-26,2024-07-26,合同会社ＦＡＩＴＨ,,合同会社,大阪府,大阪市福島区,鷺洲４丁目２番１０－５０１号,,27,103,5530002,,,,,,,2024-07-26,1,,,,,フェイス,0
1367,6120903005276,新規,0,2024-07-26,2024-07-26,合同会社Ｇｒｅｅｎ　Ｈａｂｉｔａｔ,,合同会社,大阪府,茨木市,大同町６番３２号,,27,211,5670844,,,,,,,2024-07-26,1,,,,,グリーンハビタット,0
1371,6122001038299,新規,0,2024-07-26,2024-07-26,株式会社Ｆｅｒｍｅｎｔａｔｉｏｎ　Ｊａｐａｎ,,株式会社,大阪府,東大阪市,西上小阪１２番１８号,,27,227,5770811,,,,,,,2024-07-26,1,,,,,ファーメンテイションジャパン,0
1373,6130001077548,新規,0,2024-07-26,2024-07-26,グットランスグループ株式会社,,株式会社,京都府,綴喜郡宇治田原町,大字南小字岡之薮１１５番地の５,,26,344,6100241,,,,,,,2024-07-26,1,,,,,グットランスグループ,0
1377,6140001135239,新規,0,2024-07-26,2024-07-26,株式会社ｉｔｏ．ｒｅａｌ　ｅｓｔａｔｅ,,株式会社,兵庫県,神戸市中央区,中山手通１丁目８番２０、Ｂ１Ｆ,,28,110,6500004,,,,,,,2024-07-26,1,,,,,イトリアルエステート,0
1378,6140001135247,新規,0,2024-07-26,2024-07-26,株式会社米川,,株式会社,兵庫県,西宮市,川東町１０－２０夙川グランドハイツＢ１Ｆ,,28,204,6620945,,,,,,,2024-07-26,1,,,,,ヨネカワ,0
1379,6140001135263,新規,0,2024-07-26,2024-07-26,株式会社ＺＥＲＯ,,株式会社,兵庫県,西宮市,甲子園九番町１１番２３－２４１号,,28,204,6638179,,,,,,,2024-07-26,1,,,,,ゼロ,0
1384,6140003020868,新規,0,2024-07-26,2024-07-26,合同会社Ｌｏｎｇ　Ｆｉｅｌｄ,,合同会社,兵庫県,神戸市垂水区,宮本町２番３１号マリーン・ミナミ２０１号室,,28,108,6550028,,,,,,,2024-07-26,1,,,,,ロングフィールド,0
1385,6150003003277,新規,0,2024-07-26,2024-07-26,合同会社ＦＬＵＳＳ,,合同会社,奈良県,北葛城郡王寺町,畠田５丁目４番９－１０１号,,29,425,6360021,,,,,,,2024-07-26,1,,,,,フルス,0
1391,6180001162452,新規,0,2024-07-26,2024-07-26,株式会社ＡＫＴ,,株式会社,愛知県,名古屋市北区,志賀町４丁目５４番地の２,,23,103,4620037,,,,,,,2024-07-26,1,,,,,アクト,0
1394,6180003027100,新規,0,2024-07-26,2024-07-26,Ｊ＆Ｎカンパニー合同会社,,合同会社,愛知県,名古屋市中区,錦３丁目１－１２ロア錦５０３,,23,106,4600003,,,,,,,2024-07-26,1,,,,,ジェイアンドエヌカンパニー,0
1396,6180301038848,新規,0,2024-07-26,2024-07-26,株式会社ＫＯＵＳＨＩＭＡ,,株式会社,愛知県,安城市,今本町３丁目１番１５号,,23,212,4460008,,,,,,,2024-07-26,1,,,,,コウシマ,0
1400,6210001019839,新規,0,2024-07-26,2024-07-26,株式会社ｔｅａｍ　ｉｘｉ,,株式会社,福井県,福井市,舞屋町第２号２２番地２,,18,201,9188024,,,,,,,2024-07-26,1,,,,,チームイクシィ,0
1405,6240001063586,新規,0,2024-07-26,2024-07-26,株式会社ドクターズコーポレーション,,株式会社,広島県,広島市南区,皆実町１丁目４番８－１５０４号,,34,103,7340007,,,,,,,2024-07-26,1,,,,,ドクターズコーポレーション,0
1416,6290001106547,新規,0,2024-07-26,2024-07-26,株式会社メトロリビング,,株式会社,福岡県,福岡市中央区,警固２丁目１５番３号Ｂ１,,40,133,8100023,,,,,,,2024-07-26,1,,,,,メトロリビング,0
1419,6290003015556,新規,0,2024-07-26,2024-07-26,合同会社ねん商店,,合同会社,福岡県,福岡市中央区,天神２丁目２番１２号Ｔ＆Ｊビルディング７Ｆ,,40,133,8100001,,,,,,,2024-07-26,1,,,,,ネンショウテン,0
1421,6290801030723,新規,0,2024-07-26,2024-07-26,株式会社ＴＳ,,株式会社,福岡県,北九州市八幡西区,小嶺台１丁目１３番６号,,40,109,8070082,,,,,,,2024-07-26,1,,,,,ティーエス,0
1437,6360001033949,新規,0,2024-07-26,2024-07-26,株式会社ＢＹＳ　Ｎａｈａ,,株式会社,沖縄県,那覇市,久茂地３丁目２６－２２－３Ｆ,,47,201,9000015,,,,,,,2024-07-26,1,,,,,バイスナハ,0
1438,6360003014170,新規,0,2024-07-26,2024-07-26,合同会社Ｒｅｐｏｓ,,合同会社,沖縄県,名護市,字為又１４３番地１,,47,209,9050005,,,,,,,2024-07-26,1,,,,,ルポ,0
1447,6410003003960,新規,0,2024-07-26,2024-07-26,合同会社夏井しょうた,,合同会社,秋田県,男鹿市,船川港比詰字羽立３１‐９,,05,206,0100502,,,,,,,2024-07-26,1,,,,,,0
1460,6500001025766,新規,0,2024-07-26,2024-07-26,株式会社ＳＨＵＨＡＲＩ,,株式会社,愛媛県,西条市,広岡甲２２３番地１,,38,206,7991334,,,,,,,2024-07-26,1,,,,,シュハリ,0
1461,6700150100820,新規,0,2024-07-26,2020-10-27,ＧＩ和歌山梅酒管理委員会,,その他,和歌山県,和歌山市,雑賀屋町１６番地和歌山納税協会会館３階,,30,201,6408249,,,,,,,2020-10-27,1,,,,,ジーアイワカヤマウメシユカンリイインカイ,0
1467,7010001246873,新規,0,2024-07-26,2024-07-26,株式会社３６９,,株式会社,東京都,中央区,日本橋２丁目１０番３号,,13,102,1030027,,,,,,,2024-07-26,1,,,,,ミロク,0
1468,7010001246915,新規,0,2024-07-26,2024-07-26,ＫＡＹＯＵ株式会社,,株式会社,東京都,中央区,日本橋２丁目１６番６号ＡＣＮ日本橋ＰＬＡＣＥ９階,,13,102,1030027,,,,,,,2024-07-26,1,,,,,カーユ,0
1480,7010501052623,新規,0,2024-07-26,2024-07-26,晴空スター株式会社,,株式会社,東京都,台東区,下谷２丁目３番１６－２０１号,,13,106,1100004,,,,,,,2024-07-26,1,,,,,ハレソラスター,0
1481,7010501052664,新規,0,2024-07-26,2024-07-26,賀蘭山株式会社,,株式会社,東京都,台東区,台東３丁目５番１０号,,13,106,1100016,,,,,,,2024-07-26,1,,,,,ガランサン,0
1482,7010503007526,新規,0,2024-07-26,2024-07-26,合同会社ＦＰＴＤ,,合同会社,東京都,台東区,柳橋２丁目１０番５号,,13,106,1110052,,,,,,,2024-07-26,1,,,,,エフピーティーディー,0
1484,7010601065616,新規,0,2024-07-26,2024-07-26,フュージョンＤ株式会社,,株式会社,東京都,墨田区,両国２丁目１７番１７号両国ダイヤハイツ２０２－１号室,,13,107,1300026,,,,,,,2024-07-26,1,,,,,フュージョンディ,0
1486,7010603010982,新規,0,2024-07-26,2024-07-26,合同会社Ｌｉｖｅｌｙ　Ｃｏｌｏｒｓ,,合同会社,東京都,江東区,門前仲町１丁目１９番１１プラウド門前仲町８０５号,,13,108,1350048,,,,,,,2024-07-26,1,,,,,ライブリーカラーズ,0
1489,7010801035261,新規,0,2024-07-26,2024-07-26,株式会社トラス設備,,株式会社,東京都,大田区,西蒲田１丁目１５－１０,,13,111,1440051,,,,,,,2024-07-26,1,,,,,トラスセツビ,0
1494,7011001163530,新規,0,2024-07-26,2024-07-26,株式会社デザインノード,,株式会社,東京都,渋谷区,恵比寿西１丁目３３番６号１Ｆ,,13,113,1500021,,,,,,,2024-07-26,1,,,,,デザインノード,0
1500,7011101108162,新規,0,2024-07-26,2024-07-26,株式会社ｆｉｎａｎｃｉａｌ　ｂｒｉｄｇｅ,,株式会社,東京都,新宿区,西新宿３丁目３番１３号西新宿水間ビル６Ｆ,,13,104,1600023,,,,,,,2024-07-26,1,,,,,ファイナンシャルブリッジ,0
1505,7011301029869,新規,0,2024-07-26,2024-07-26,株式会社ＳＨＩＮＯ,,株式会社,東京都,杉並区,本天沼３丁目２４番２号,,13,115,1670031,,,,,,,2024-07-26,1,,,,,シノ,0
1507,7011303005240,新規,0,2024-07-26,2024-07-26,合同会社アンダンテス,,合同会社,東京都,杉並区,方南１丁目３４番９号,,13,115,1680062,,,,,,,2024-07-26,1,,,,,アンダンテス,0
1513,7011703003918,新規,0,2024-07-26,2024-07-26,ＢＹＷＥＬＬ合同会社,,合同会社,東京都,江戸川区,瑞江２丁目５－３グレイス瑞江２Ｆ,,13,123,1320011,,,,,,,2024-07-26,1,,,,,バイウェル,0
1516,7012301014010,新規,0,2024-07-26,2024-07-26,株式会社ＴＨＲＥＥｅｅｅｖｅ,,株式会社,東京都,町田市,原町田３丁目１０番１号,,13,209,1940013,,,,,,,2024-07-26,1,,,,,スリーブ,0
1530,7013103001361,新規,0,2024-07-26,2024-07-26,アップステイアーズ合同会社,,合同会社,東京都,青梅市,東青梅３丁目１０番地の６サンライズシャトー東青梅１１２,,13,205,1980042,,,,,,,2024-07-26,1,,,,,,0
1538,7020001158440,新規,0,2024-07-26,2024-07-26,株式会社ナカヤマＨＤ,,株式会社,神奈川県,川崎市多摩区,登戸２７６７番地,,14,135,2140014,,,,,,,2024-07-26,1,,,,,ナカヤマホールディングス,0
1543,7020005016487,新規,0,2024-07-26,2024-07-26,一般財団法人全国シングル就労生活支援協会,,その他の設立登記法人,神奈川県,川崎市川崎区,藤崎４丁目１１番２－３０３号,,14,131,2100804,,,,,,,2024-07-26,1,,,,,ゼンコクシングルシュウロウセイカツシエンキョウカイ,0
1548,7021003014821,新規,0,2024-07-26,2024-07-26,衛成合同会社,,合同会社,神奈川県,中郡大磯町,西小磯８１８,,14,341,2550005,,,,,,,2024-07-26,1,,,,,エイセイ,0
1569,7040001134704,新規,0,2024-07-26,2024-07-26,株式会社アメイジング,,株式会社,千葉県,市原市,山田７０６番地１,,12,219,2900205,,,,,,,2024-07-26,1,,,,,アメイジング,0
1570,7040001134712,新規,0,2024-07-26,2024-07-26,株式会社Ｋ’ｓクラフト,,株式会社,千葉県,千葉市稲毛区,長沼町２４７番地９１,,12,103,2630005,,,,,,,2024-07-26,1,,,,,ケーズクラフト,0
1572,7040003025488,新規,0,2024-07-26,2024-07-26,合同会社Ｐａｓｓｉｏｎｅ,,合同会社,千葉県,木更津市,請西東５丁目２１番地１ルミナス請西東Ａ－１０３,,12,206,2920806,,,,,,,2024-07-26,1,,,,,パッショーネ,0
1573,7040003025496,新規,0,2024-07-26,2024-07-26,ＬＥＯ合同会社,,合同会社,千葉県,千葉市中央区,春日２丁目２１番１１号遠藤ビル２Ｆ,,12,101,2600033,,,,,,,2024-07-26,1,,,,,レオ,0
1578,7050001055131,新規,0,2024-07-26,2024-07-26,はなもも企画株式会社,,株式会社,茨城県,古河市,西町６番２４号永井ハイツ２－１０２号,,08,204,3060038,,,,,,,2024-07-26,1,,,,,ハナモモキカク,0
1579,7050003008566,新規,0,2024-07-26,2024-07-26,合同会社みつぼし,,合同会社,茨城県,水戸市,桜川２丁目１－４３アカデミープラザ１階,,08,201,3100801,,,,,,,2024-07-26,1,,,,,ミツボシ,0
1584,7060001037335,新規,0,2024-07-26,2024-07-26,トラスト石油株式会社,,株式会社,栃木県,日光市,東和町５８番地１,,09,206,3211412,,,,,,,2024-07-26,1,,,,,トラストセキユ,0
1585,7060001037343,新規,0,2024-07-26,2024-07-26,株式会社岡本,,株式会社,栃木県,宇都宮市,中岡本町３２４７番地１３,,09,201,3291105,,,,,,,2024-07-26,1,,,,,オカモト,0
1587,7060003005166,新規,0,2024-07-26,2024-07-26,ＭＭ　ＲＡＯ　ＴＲＡＤＩＮＧ合同会社,,合同会社,栃木県,小山市,城東７丁目１７－１０ハイグレードＩＩ３階３０１号室,00135703,09,208,3230807,,,,,,,2024-07-26,1,,,,,エムエムラオトレーディング,0
1588,7070001042012,新規,0,2024-07-26,2024-07-26,株式会社ＵＴＹ,,株式会社,群馬県,前橋市,富士見町赤城山１２０３番地,,10,201,3710101,,,,,,,2024-07-26,1,,,,,ユーティーワイ,0
1595,7090003002607,新規,0,2024-07-26,2024-07-26,合同会社カチューム,,合同会社,山梨県,甲斐市,西八幡３８９１－４,,19,210,4000117,,,,,,,2024-07-26,1,,,,,カチューム,0
1615,7120001267140,新規,0,2024-07-26,2024-07-26,株式会社ＲＡＩＳＥ,,株式会社,大阪府,大阪市西区,靱本町１丁目５－１８－６０２,,27,106,5500004,,,,,,,2024-07-26,1,,,,,レイズ,0
1616,7120001267181,新規,0,2024-07-26,2024-07-26,株式会社Ｉ．Ｒ．Ｉ,,株式会社,大阪府,枚方市,養父東町５６番２１号,,27,210,5731124,,,,,,,2024-07-26,1,,,,,アイアールアイ,0
1649,7180001162435,新規,0,2024-07-26,2024-07-26,株式会社ＨＩＣ,,株式会社,愛知県,名古屋市中区,丸の内３丁目２１番２３号宇佐美丸の内ビル,,23,106,4600002,,,,,,,2024-07-26,1,,,,,エッチアイシー,0
1650,7180001162468,新規,0,2024-07-26,2024-07-26,株式会社ＭＮＤ,,株式会社,愛知県,名古屋市中区,正木２丁目１１番１７号－１,,23,106,4600024,,,,,,,2024-07-26,1,,,,,エムエヌディー,0
1651,7180001162484,新規,0,2024-07-26,2024-07-26,株式会社輪‐ＲＩＮ,,株式会社,愛知県,名古屋市天白区,塩釜口２丁目１５０３番地グリーンビル野中１０３号,,23,116,4680073,,,,,,,2024-07-26,1,,,,,リン,0
1654,7180301038888,新規,0,2024-07-26,2024-07-26,株式会社４６,,株式会社,愛知県,豊橋市,松葉町２丁目３２番地,,23,201,4400897,,,,,,,2024-07-26,1,,,,,フォーティーシックス,0
1659,7210001019838,新規,0,2024-07-26,2024-07-26,株式会社佐治,,株式会社,福井県,越前市,池ノ上町第４６号１番地の６,,18,209,9150873,,,,,,,2024-07-26,1,,,,,サジ,0
1661,7230001020455,新規,0,2024-07-26,2024-07-26,株式会社Ｒｅ‐ｅｎｃ,,株式会社,富山県,富山市,つばめ野１丁目１８３番地,,16,201,9302239,,,,,,,2024-07-26,1,,,,,リエンク,0
1669,7240003006773,新規,0,2024-07-26,2024-07-26,合同会社Ｋ２,,合同会社,広島県,福山市,加茂町大字下加茂６４－１トミオビルＩＩ１０３号室,00135697,34,207,7202412,,,,,,,2024-07-26,1,,,,,ケーツー,0
1676,7290001106653,新規,0,2024-07-26,2024-07-26,ＦＪウエックス株式会社,,株式会社,福岡県,筑紫野市,大字筑紫４４番２１,,40,217,8180025,,,,,,,2024-07-26,1,,,,,エフジェイウエックス,0
1683,7290805009762,新規,0,2024-07-26,2024-07-26,特定非営利活動法人Ａｉｍｏｗｌガーデン,,その他の設立登記法人,福岡県,北九州市小倉南区,石田南２丁目５－１,,40,107,8020836,,,,,,,2024-07-26,1,,,,,アイモールガーデン,0
1685,7300003002155,新規,0,2024-07-26,2024-07-26,合同会社Ｆｉｅｌｄ　Ｔｏｗｎ,,合同会社,佐賀県,佐賀市,諸富町大字山領４５８－１３,,41,201,8402106,,,,,,,2024-07-26,1,,,,,フィールドタウン,0
1686,7310001019118,新規,0,2024-07-26,2024-07-26,池野工業株式会社,,株式会社,長崎県,松浦市,御厨町里免７３６番地,,42,208,8594752,,,,,,,2024-07-26,1,,,,,イケノコウギョウ,0
1690,7350001019097,新規,0,2024-07-26,2024-07-26,株式会社司測量設計,,株式会社,宮崎県,西臼杵郡高千穂町,大字向山６４９番地,,45,441,8821103,,,,,,,2024-07-26,1,,,,,ツカサソクリョウセッケイ,0
1691,7350003004709,新規,0,2024-07-26,2024-07-26,シーナリー湯灌合同会社,,合同会社,宮崎県,東諸県郡国富町,大字本庄５６２０番地１,,45,382,8801101,,,,,,,2024-07-26,1,,,,,シーナリーユカン,0
1692,7360001033972,新規,0,2024-07-26,2024-07-26,株式会社Ｓ・Ｋ　ｃａｐｉｔａｌ,,株式会社,沖縄県,宜野湾市,宜野湾２丁目１９番５号２－Ｂ,,47,205,9012211,,,,,,,2024-07-26,1,,,,,エスケーキャピタル,0
1703,7400003003300,新規,0,2024-07-26,2024-07-26,合同会社中原商会,,合同会社,岩手県,盛岡市,箱清水２丁目２－７,,03,201,0200116,,,,,,,2024-07-26,1,,,,,ナカハラショウカイ,0
1709,7430001092276,新規,0,2024-07-26,2024-07-26,ニセコユニークリビングデベロップメント株式会社,,株式会社,北海道,札幌市豊平区,月寒東一条６丁目２番１１号,,01,105,0620051,,,,,,,2024-07-26,1,,,,,ニセコユニークリビングデベロップメント,0
1712,7450001014369,新規,0,2024-07-26,2024-07-26,株式会社奥工業,,株式会社,北海道,旭川市,豊岡一条６丁目４番１０号,,01,204,0788231,,,,,,,2024-07-26,1,,,,,オクコウギョウ,0
1714,7470001020308,新規,0,2024-07-26,2024-07-26,株式会社ｓｅｅｒａ,,株式会社,香川県,高松市,多肥上町３７７番地６,,37,201,7618076,,,,,,,2024-07-26,1,,,,,シーラ,0
1718,7700150031841,新規,0,2024-07-26,2015-10-09,北海道青色申告会連合会,,その他,北海道,札幌市中央区,北一条西２丁目北海道経済センター内,,01,101,0600001,,,,,,,2015-10-09,1,,,,,ホツカイドウアオイロシンコクカイレンゴウカイ,0
1719,7700150126427,新規,0,2024-07-26,2024-07-10,大野市スポーツ協会,,その他,福井県,大野市,桜塚町６０１,,18,205,9120044,,,,,,,2024-07-10,1,,,,,オオノシスポーツキヨウカイ,0
1740,8010001246732,新規,0,2024-07-26,2024-07-26,セイキョウホールディングス株式会社,,株式会社,東京都,中央区,銀座７丁目１７番５号銀座永谷タウンプラザ３０４,,13,102,1040061,,,,,,,2024-07-26,1,,,,,セイキョウホールディングス,0
1741,8010001246889,新規,0,2024-07-26,2024-07-26,株式会社チームハンズ,,株式会社,東京都,中央区,晴海５丁目４番２－１４０１号,,13,102,1040053,,,,,,,2024-07-26,1,,,,,チームハンズ,0
1743,8010003044399,新規,0,2024-07-26,2024-07-26,ＥＭＰ１合同会社,,合同会社,東京都,千代田区,丸の内３丁目１番１号東京共同会計事務所内,,13,101,1000005,,,,,,,2024-07-26,1,,,,,イーエムピーワン,0
1757,8010603010981,新規,0,2024-07-26,2024-07-26,オフビート合同会社,,合同会社,東京都,江東区,大島３丁目５番２－７１２号,,13,108,1360072,,,,,,,2024-07-26,1,,,,,オフビート,0
1758,8010605004354,新規,0,2024-07-26,2024-07-26,ＮＰＯ法人日本へら鮒釣研究会,,その他の設立登記法人,東京都,江東区,森下１丁目１８番７号日修ビル２階,,13,108,1350004,,,,,,,2024-07-26,1,,,,,ニホンヘラブナツリケンキュウカイ,0
1759,8010701046325,新規,0,2024-07-26,2024-07-26,株式会社憲正,,株式会社,東京都,品川区,西品川３丁目２番９号,,13,109,1410033,,,,,,,2024-07-26,1,,,,,ケンセイ,0
1763,8010901055704,新規,0,2024-07-26,2024-07-26,株式会社ＰｒｏｐＥｒａ,,株式会社,東京都,世田谷区,弦巻２丁目３８番７号,,13,112,1540016,,,,,,,2024-07-26,1,,,,,プロペラ,0
1770,8011001163513,新規,0,2024-07-26,2024-07-26,グローバルオアシス株式会社,,株式会社,東京都,渋谷区,円山町５番５号Ｎａｖｉ渋谷Ｖ３階,,13,113,1500044,,,,,,,2024-07-26,1,,,,,グローバルオアシス,0
1775,8011101108137,新規,0,2024-07-26,2024-07-26,株式会社Ｂｏｎｎｅｒｉｅ警備,,株式会社,東京都,新宿区,新宿２丁目１１－７第３３宮庭ビル９０６,,13,104,1600022,,,,,,,2024-07-26,1,,,,,ボヌリーケイビ,0
1776,8011103014696,新規,0,2024-07-26,2024-07-26,東海合同会社,,合同会社,東京都,新宿区,水道町三丁目１４神楽坂Ｎビル２Ｆ,,13,104,1620811,,,,,,,2024-07-26,1,,,,,トウカイ,0
1779,8011203004449,新規,0,2024-07-26,2024-07-26,Ｋ＆Ｔ合同会社,,合同会社,東京都,中野区,本町４丁目３１番１０号１００３,,13,114,1640012,,,,,,,2024-07-26,1,,,,,ケイアンドティ,0
1780,8011205002608,新規,0,2024-07-26,2024-07-26,一般社団法人日本マルタ友好協会,,その他の設立登記法人,東京都,中野区,新井２丁目１２－１３パークサイド中野,,13,114,1650026,,,,,,,2024-07-26,1,,,,,ニホンマルタユウコウキョウカイ,0
1781,8011301029868,新規,0,2024-07-26,2024-07-26,ＳＯ‐ＫＥＮ株式会社,,株式会社,東京都,杉並区,永福３丁目３４番１２号１０１,,13,115,1680064,,,,,,,2024-07-26,1,,,,,ソーケン,0
1783,8011401026294,新規,0,2024-07-26,2024-07-26,乙一株式会社,,株式会社,東京都,板橋区,前野町３丁目７番６号１０４号室,,13,119,1740063,,,,,,,2024-07-26,1,,,,,オツイチ,0
1788,8011801044581,新規,0,2024-07-26,2024-07-26,Ｌｉｔ株式会社,,株式会社,東京都,葛飾区,堀切２丁目１３番７号大竹ビル２０２号,,13,122,1240006,,,,,,,2024-07-26,1,,,,,リット,0
1792,8012701018378,新規,0,2024-07-26,2024-07-26,株式会社ナノリバティ,,株式会社,東京都,清瀬市,下清戸５丁目９０４番地３３,,13,221,2040011,,,,,,,2024-07-26,1,,,,,ナノリバティ,0
1796,8013301052882,新規,0,2024-07-26,2024-07-26,童慧株式会社,,株式会社,東京都,豊島区,池袋本町２丁目３２番３号－Ａ１０５,,13,116,1700011,,,,,,,2024-07-26,1,,,,,ドウケイ,0
1802,8020001158092,新規,0,2024-07-26,2024-07-26,株式会社ＫＫＭプロワークス,,株式会社,神奈川県,横浜市南区,永田東２丁目２０番１８号,,14,105,2320072,,,,,,,2024-07-26,1,,,,,ケーケーエムプロワークス,0
1803,8020003026462,新規,0,2024-07-26,2024-07-26,Ｌｅｇｘｙ合同会社,,合同会社,神奈川県,横浜市神奈川区,栄町１０－３５－Ｓ４１１,,14,102,2210052,,,,,,,2024-07-26,1,,,,,レッグシー,0
1817,8040001134703,新規,0,2024-07-26,2024-07-26,小野産業株式会社,,株式会社,千葉県,市原市,深城１７８番地,,12,219,2990123,,,,,,,2024-07-26,1,,,,,オノサンギョウ,0
1819,8040003025487,新規,0,2024-07-26,2024-07-26,合同会社ヒトトシテ,,合同会社,千葉県,いすみ市,深堀１６１９番地６,,12,238,2980003,,,,,,,2024-07-26,1,,,,,ヒトトシテ,0
1827,8050003008565,新規,0,2024-07-26,2024-07-26,合同会社Ｔｒｕｅ　Ｓｍａｒｔ,,合同会社,茨城県,鹿嶋市,大字宮中３４４－１０,,08,222,3140031,,,,,,,2024-07-26,1,,,,,トゥルースマート,0
1828,8060001037342,新規,0,2024-07-26,2024-07-26,株式会社ＫＥＬＷＯＲＫＳ,,株式会社,栃木県,宇都宮市,石井町３３０１番地１４,,09,201,3210912,,,,,,,2024-07-26,1,,,,,ケイエルワークス,0
1830,8070001042011,新規,0,2024-07-26,2024-07-26,株式会社ＫＬＬ,,株式会社,群馬県,高崎市,東町３２番地１ブリリアタワー高崎１９０７号室,,10,202,3700045,,,,,,,2024-07-26,1,,,,,ケーエルエル,0
1839,8080403005069,新規,0,2024-07-26,2024-07-26,合同会社６３,,合同会社,静岡県,浜松市中央区,神明町２１８－１４コスモ第６ビル一階,,22,138,4300931,,,,,,,2024-07-26,1,,,,,ロクサン,0
1842,8100001037676,新規,0,2024-07-26,2024-07-26,株式会社豊イズム,,株式会社,長野県,小県郡青木村,大字田沢２６９０番地１,,20,349,3861601,,,,,,,2024-07-26,1,,,,,トヨイズム,0
1847,8100003007652,新規,0,2024-07-26,2024-07-26,合同会社黒岩,,合同会社,長野県,佐久市,猿久保８９０番地１２,,20,217,3850011,,,,,,,2024-07-26,1,,,,,クロイワ,0
1848,8100003007660,新規,0,2024-07-26,2024-07-26,ＴＡＦＯ合同会社,,合同会社,長野県,長野市,大字三輪１３４３番地ハイツタマチ２０１,,20,201,3800803,,,,,,,2024-07-26,1,,,,,ティエエフオ,0
1853,8110003005465,新規,0,2024-07-26,2024-07-26,スペエッツボストーク合同会社,,合同会社,新潟県,北蒲原郡聖籠町,大字次第浜３０５８番地３,,15,307,9570105,,,,,,,2024-07-26,1,,,,,スペエッツボストーク,0
1860,8120001267107,新規,0,2024-07-26,2024-07-26,テセウスの船株式会社,,株式会社,大阪府,大阪市住吉区,万代東１丁目３番２２号メゾン東和１０５号室,,27,120,5580056,,,,,,,2024-07-26,1,,,,,テセウスノフネ,0
1861,8120001267115,新規,0,2024-07-26,2024-07-26,ＤＳＫ株式会社,,株式会社,大阪府,大阪市西区,江戸堀１丁目９番１号,,27,106,5500002,,,,,,,2024-07-26,1,,,,,ディエスケイ,0
1862,8120001267148,新規,0,2024-07-26,2024-07-26,味豊株式会社,,株式会社,大阪府,大阪市天王寺区,東高津町３－３１タケオレジデンス４０２号,,27,109,5430021,,,,,,,2024-07-26,1,,,,,ミホウ,0
1863,8120001267156,新規,0,2024-07-26,2024-07-26,株式会社スマイルゲート,,株式会社,大阪府,大阪市北区,中津１丁目６番２９－１７０４号,,27,127,5310071,,,,,,,2024-07-26,1,,,,,スマイルゲート,0
1864,8120001267180,新規,0,2024-07-26,2024-07-26,速洋株式会社,,株式会社,大阪府,大阪市浪速区,敷津西１丁目９番１７－１０９号,,27,111,5560015,,,,,,,2024-07-26,1,,,,,ソクヨウ,0
1867,8120101069997,新規,0,2024-07-26,2024-07-26,ＴＵＰＯＮＴ株式会社,,株式会社,大阪府,堺市西区,上野芝町７丁２番１号,,27,144,5938301,,,,,,,2024-07-26,1,,,,,テュポン,0
1872,8130001077554,新規,0,2024-07-26,2024-07-26,株式会社エンテート,,株式会社,京都府,向日市,森本町１４－４丸玉ビル３０１,,26,208,6170003,,,,,,,2024-07-26,1,,,,,エンテート,0
1877,8140001135261,新規,0,2024-07-26,2024-07-26,株式会社ｔｏｘｉｃ,,株式会社,兵庫県,姫路市,中地南町２６－７,,28,201,6700975,,,,,,,2024-07-26,1,,,,,トキシック,0
1879,8150003003325,新規,0,2024-07-26,2024-07-26,合同会社コネクト,,合同会社,奈良県,香芝市,西真美２丁目１２番地３８,,29,210,6390222,,,,,,,2024-07-26,1,,,,,コネクト,0
1887,8180001162426,新規,0,2024-07-26,2024-07-26,如吉株式会社,,株式会社,愛知県,名古屋市中村区,名駅５丁目４番１４号花車ビル北館３階,,23,105,4500002,,,,,,,2024-07-26,1,,,,,ジョヨシ,0
1888,8180001162475,新規,0,2024-07-26,2024-07-26,株式会社熊谷総合事務所,,株式会社,愛知県,名古屋市北区,大杉町１丁目９０４番地,,23,103,4620836,,,,,,,2024-07-26,1,,,,,クマガイソウゴウジムショ,0
1894,8180301038887,新規,0,2024-07-26,2024-07-26,株式会社医食住,,株式会社,愛知県,刈谷市,一ツ木町５丁目１番地５一ツ木ハイツ安井ＩＩ１０１号,00135702,23,210,4480003,,,,,,,2024-07-26,1,,,,,イショクジュウ,0
1914,8290001106504,新規,0,2024-07-26,2024-07-26,株式会社さくらドリーム,,株式会社,福岡県,那珂川市,大字南面里８２２番地,,40,231,8111236,,,,,,,2024-07-26,1,,,,,サクラドリーム,0
1922,8350001019096,新規,0,2024-07-26,2024-07-26,株式会社グリーンハートサービス,,株式会社,宮崎県,日向市,上町８－１３サンフラワー日向２０１号,,45,206,8830044,,,,,,,2024-07-26,1,,,,,グリーンハートサービス,0
1924,8360001033971,新規,0,2024-07-26,2024-07-26,株式会社ＬＩＦＥ　ＷＩＴＨ,,株式会社,沖縄県,南城市,大里字仲間１８１－１サンライフ大里１０２,,47,215,9011206,,,,,,,2024-07-26,1,,,,,ライフウィズ,0
1925,8360003014169,新規,0,2024-07-26,2024-07-26,Ｄｏｕｂｌｅ　Ｓ合同会社,,合同会社,沖縄県,那覇市,牧志２丁目１７－２７－４０１,,47,201,9000013,,,,,,,2024-07-26,1,,,,,ダブルエス,0
1927,8370001051551,新規,0,2024-07-26,2024-07-26,株式会社芳恩舎,,株式会社,宮城県,仙台市泉区,寺岡２丁目５番地の１５,,04,105,9813204,,,,,,,2024-07-26,1,,,,,ホウオンシャ,0
1930,8380001034687,新規,0,2024-07-26,2024-07-26,株式会社まなぼ,,株式会社,福島県,いわき市,中央台鹿島１丁目２６番地の５,,07,204,9708043,,,,,,,2024-07-26,1,,,,,マナボ,0
1943,8450001014368,新規,0,2024-07-26,2024-07-26,株式会社かえでホールディングス,,株式会社,北海道,旭川市,末広東二条２丁目５番１１号,,01,204,0718122,,,,,,,2024-07-26,1,,,,,カエデホールディングス,0
1946,8470003002674,新規,0,2024-07-26,2024-07-26,合同会社ＫＡＩ,,合同会社,香川県,高松市,田村町８９６番地１－１０３,,37,201,7618057,,,,,,,2024-07-26,1,,,,,,0
1955,9010001246871,新規,0,2024-07-26,2024-07-26,ミライジング株式会社,,株式会社,東京都,中央区,日本橋久松町９番地１２－６Ｆ,,13,102,1030005,,,,,,,2024-07-26,1,,,,,ミライジング,0
1956,9010003044415,新規,0,2024-07-26,2024-07-26,ジゼン合同会社,,合同会社,東京都,千代田区,神田須田町１丁目７番８号ＶＯＲＴ秋葉原ＩＶ２Ｆ,,13,101,1010041,,,,,,,2024-07-26,1,,,,,ジゼン,0
1957,9010003044423,新規,0,2024-07-26,2024-07-26,ＨＩエネルギー合同会社,,合同会社,東京都,中央区,京橋２丁目１８番２号,,13,102,1040031,,,,,,,2024-07-26,1,,,,,エイチアイエネルギー,0
1962,9010401184028,新規,0,2024-07-26,2024-07-26,株式会社Ｍｉｓｓ　Ｓｕｎｓｈｉｎｅ,,株式会社,東京都,港区,南青山２丁目２－１５ＷＩＮ青山５３１,,13,103,1070062,,,,,,,2024-07-26,1,,,,,ミスサンシャイン,0
1965,9010403033100,新規,0,2024-07-26,2024-07-26,Ｆｉｎａｓｉ‐ＳＰＩ　Ｊａｐａｎ合同会社,,合同会社,東京都,港区,西新橋１丁目２番９号日比谷セントラルビル１４階,,13,103,1050003,,,,,,,2024-07-26,1,,,,,フィナーシエスピーアイジャパン,0
1966,9010403033109,新規,0,2024-07-26,2024-07-26,ＣＬ　ＣＡＰＩＴＡＬ合同会社,,合同会社,東京都,港区,浜松町２丁目２番１５号浜松町ダイヤビル２Ｆ,,13,103,1050013,,,,,,,2024-07-26,1,,,,,シーエルキャピタル,0
1967,9010403033117,新規,0,2024-07-26,2024-07-26,ＧＰＳＳアグリＢ合同会社,,合同会社,東京都,港区,芝公園２丁目２番１０号中和ビル３階,,13,103,1050011,,,,,,,2024-07-26,1,,,,,ジーピーエスエスアグリビー,0
1976,9010605004353,新規,0,2024-07-26,2024-07-26,一般社団法人ワイン・オブ・モルドバ・ジャパン,,その他の設立登記法人,東京都,墨田区,押上１丁目３３番３号,,13,107,1310045,,,,,,,2024-07-26,1,,,,,ワインオブモルドバジャパン,0
1978,9010701046324,新規,0,2024-07-26,2024-07-26,ａｋｋｏｒｏ．ｃｏｍ株式会社,,株式会社,東京都,品川区,上大崎２丁目２番１８号３０３,,13,109,1410021,,,,,,,2024-07-26,1,,,,,アッコロドットコム,0
1993,9011101108144,新規,0,2024-07-26,2024-07-26,株式会社ＡＴＴＳＥ,,株式会社,東京都,新宿区,北新宿１丁目８番１７号ヒジカタビル３階,,13,104,1690074,,,,,,,2024-07-26,1,,,,,アテス,0
1994,9011101108227,新規,0,2024-07-26,2024-07-26,株式会社ｈｉｓｔｏｉｒｅ,,株式会社,東京都,新宿区,歌舞伎町１丁目１２番９号,,13,104,1600021,,,,,,,2024-07-26,1,,,,,イストワール,0
1999,9011605002594,新規,0,2024-07-26,2024-07-26,一般社団法人ＧＦインベストメント,,その他の設立登記法人,東京都,練馬区,氷川台４丁目４７番１８号,,13,120,1790084,,,,,,,2024-07-26,1,,,,,ジーエフインベストメント,0
2000,9011701027462,新規,0,2024-07-26,2024-07-26,株式会社アイツイッグス,,株式会社,東京都,江戸川区,春江町５丁目１９番地５,,13,123,1340003,,,,,,,2024-07-26,1,,,,,アイツイッグス,0
2001,9011701027479,新規,0,2024-07-26,2024-07-26,株式会社ＰＡＬＬＡＳ,,株式会社,東京都,江戸川区,清新町２丁目２番２０－７１７号,,13,123,1340087,,,,,,,2024-07-26,1,,,,,パラス,0
2002,9011703003916,新規,0,2024-07-26,2024-07-26,エスティーアール合同会社,,合同会社,東京都,江戸川区,東松本１丁目５番１８号,,13,123,1330071,,,,,,,2024-07-26,1,,,,,エスティーアール,0
2004,9011801044564,新規,0,2024-07-26,2024-07-26,株式会社まごころＭＹＭ,,株式会社,東京都,足立区,綾瀬６丁目６番２１号藤野マンション１Ｆ,,13,121,1200005,,,,,,,2024-07-26,1,,,,,マゴコロエムワイエム,0
2005,9011801044580,新規,0,2024-07-26,2024-07-26,株式会社ＢＳＢ商事,,株式会社,東京都,足立区,西伊興１丁目５－２１,,13,121,1210824,,,,,,,2024-07-26,1,,,,,ビーエスビーショウジ,0
2008,9011803006356,新規,0,2024-07-26,2024-07-26,合同会社ロゼットブルー,,合同会社,東京都,足立区,綾瀬６丁目５番１２号,,13,121,1200005,,,,,,,2024-07-26,1,,,,,ロゼットブルー,0
2014,9012701018377,新規,0,2024-07-26,2024-07-26,株式会社トライ,,株式会社,東京都,東村山市,恩多町２丁目５番地１ヴィラージュ久米川１０５,,13,213,1890011,,,,,,,2024-07-26,1,,,,,トライ,0
2029,9021001082810,新規,0,2024-07-26,2024-07-26,株式会社ａｋａｒｉ,,株式会社,神奈川県,平塚市,真田４丁目４－２８,,14,203,2591206,,,,,,,2024-07-26,1,,,,,アカリ,0
2034,9030005021781,新規,0,2024-07-26,2024-07-26,一般社団法人ＩＬサテライト,,その他の設立登記法人,埼玉県,さいたま市桜区,大字大久保領家５７４番地,,11,106,3380826,,,,,,,2024-07-26,1,,,,,アイエルサテライト,0
2037,9040001134693,新規,0,2024-07-26,2024-07-26,株式会社つくり屋,,株式会社,千葉県,野田市,岩名１丁目７４番地の２７,,12,208,2780055,,,,,,,2024-07-26,1,,,,,ツクリヤ,0
2038,9040001134702,新規,0,2024-07-26,2024-07-26,株式会社ＬＵＩＳ　ＦＩＥＬＤ,,株式会社,千葉県,佐倉市,六崎１３１９番地７０,,12,212,2850812,,,,,,,2024-07-26,1,,,,,ルイスフィールド,0
2039,9040001134710,新規,0,2024-07-26,2024-07-26,株式会社ＷＡＫＵｔｉｖｅ,,株式会社,千葉県,茂原市,八千代２丁目４番地１１号今関ビル２１１,,12,210,2970024,,,,,,,2024-07-26,1,,,,,ワクティブ,0
2048,9060003005164,新規,0,2024-07-26,2024-07-26,ＪＯＳＨＩ　ＴＥＣＨ．Ｃ合同会社,,合同会社,栃木県,小山市,駅東通り１丁目４０番１号ベルディマンションＩＩ－２０６号,00135698,09,208,3230022,,,,,,,2024-07-26,1,,,,,ジョーシーテックシー,0
2050,9070001042010,新規,0,2024-07-26,2024-07-26,株式会社ＣＨＡＶＥＺ　ＲＥＣＹＣＬＥ,,株式会社,群馬県,伊勢崎市,美茂呂町４５０５番８,,10,204,3720037,,,,,,,2024-07-26,1,,,,,,0
2056,9090001018834,新規,0,2024-07-26,2024-07-26,ゴー富士株式会社,,株式会社,山梨県,南巨摩郡富士川町,青柳町１２１７番地１,,19,368,4000501,,,,,,,2024-07-26,1,,,,,ゴーフジ,0
2057,9100001037675,新規,0,2024-07-26,2024-07-26,株式会社京和工業,,株式会社,長野県,長野市,吉田５丁目１１番３６号,,20,201,3810043,,,,,,,2024-07-26,1,,,,,キョウワコウギョウ,0
2059,9100003007668,新規,0,2024-07-26,2024-07-26,合同会社セルフリードジャパン,,合同会社,長野県,諏訪郡原村,１７２１７－１１４丸山の森別荘地Ａ－３３,,20,363,3910100,,,,,,,2024-07-26,1,,,,,セルフリードジャパン,0
2062,9110003005464,新規,0,2024-07-26,2024-07-26,合同会社今井総建,,合同会社,新潟県,南魚沼市,下原新田１４４番地２０,,15,226,9497116,,,,,,,2024-07-26,1,,,,,イマイソウケン,0
2079,9120001267163,新規,0,2024-07-26,2024-07-26,株式会社ＦＩＮＥ,,株式会社,大阪府,大阪市都島区,内代町２丁目７番３８号１階,,27,102,5340013,,,,,,,2024-07-26,1,,,,,ファイン,0
2080,9120001267171,新規,0,2024-07-26,2024-07-26,Ｖｏｗ株式会社,,株式会社,大阪府,大阪市北区,池田町１６－６－９０２,,27,127,5300033,,,,,,,2024-07-26,1,,,,,ヴァウ,0
2081,9120001267188,新規,0,2024-07-26,2024-07-26,株式会社Ｋ’ｓ　Ｍｅｄｉｃａｌ　Ｌａｂ,,株式会社,大阪府,大阪市西区,南堀江４丁目２３番２１－２５０２号,,27,106,5500015,,,,,,,2024-07-26,1,,,,,ケーズメディカルラボ,0
2085,9120003027136,新規,0,2024-07-26,2024-07-26,合同会社朝日,,合同会社,大阪府,大阪市東住吉区,北田辺５丁目２－１５－６０７,,27,121,5460044,,,,,,,2024-07-26,1,,,,,アサヒ,0
2091,9130001077520,新規,0,2024-07-26,2024-07-26,株式会社リモートカンパニー,,株式会社,京都府,京都市西京区,松室庄田町１番地１０,,26,111,6158293,,,,,,,2024-07-26,1,,,,,リモートカンパニー,0
2092,9130001077537,新規,0,2024-07-26,2024-07-26,株式会社Ｈ２Ｈ,,株式会社,京都府,京都市山科区,川田西浦町２番地,,26,110,6078332,,,,,,,2024-07-26,1,,,,,エイチツーエイチ,0
2093,9130001077553,新規,0,2024-07-26,2024-07-26,ＥＰＯＣＨ株式会社,,株式会社,京都府,京都市伏見区,深草下川原町５１番地６安田マンション４０３号室,,26,109,6128401,,,,,,,2024-07-26,1,,,,,エポック,0
2095,9130003009736,新規,0,2024-07-26,2024-07-26,日研塾合同会社,,合同会社,京都府,京都市中京区,両替町通三条上る柿本町３８７番地１,,26,104,6048173,,,,,,,2024-07-26,1,,,,,ニッケンジュク,0
2098,9140001135244,新規,0,2024-07-26,2024-07-26,株式会社Ｓｈｏｇｕｎ　Ｃｏｎｓｕｌｔｉｎｇ　Ｓｔｒａｔｅｇｉｅｓ,,株式会社,兵庫県,神戸市長田区,宮川町４丁目３１番地の４０ソフィット宮川３０１号,,28,106,6530813,,,,,,,2024-07-26,1,,,,,ショウグンコンサルティングストラテジーズ,0
2099,9140003020873,新規,0,2024-07-26,2024-07-26,合同会社エンパワー,,合同会社,兵庫県,丹波市,氷上町新郷１６７１,,28,223,6693571,,,,,,,2024-07-26,1,,,,,エンパワー,0
2106,9180001162458,新規,0,2024-07-26,2024-07-26,株式会社ＨＡＮＡＩ　ＥＳＴＡＴＥ,,株式会社,愛知県,東海市,高横須賀町北屋敷３４番地,,23,222,4770037,,,,,,,2024-07-26,1,,,,,ハナイエステート,0
2107,9180001162508,新規,0,2024-07-26,2024-07-26,株式会社ＳＴＯＮＥＳ,,株式会社,愛知県,海部郡大治町,大字西條字石間畑１３７番地の６,,23,424,4901144,,,,,,,2024-07-26,1,,,,,ストーンズ,0
2109,9180005020703,新規,0,2024-07-26,2024-07-26,特定非営利活動法人ふるさとガイドおおぶ,,その他の設立登記法人,愛知県,大府市,森岡町４丁目３３番地,,23,223,4740038,,,,,,,2024-07-26,1,,,,,フルサトガイドオオブ,0
2111,9180301038878,新規,0,2024-07-26,2024-07-26,株式会社ＢＲＡＣＥ,,株式会社,愛知県,岡崎市,末広町３番地９,,23,202,4440914,,,,,,,2024-07-26,1,,,,,ブレイス,0
2117,9200001042748,新規,0,2024-07-26,2024-07-26,株式会社新ランカ,,株式会社,岐阜県,岐阜市,鏡島西２丁目１４番１－１０７号鏡島ハイツ,,21,201,5010123,,,,,,,2024-07-26,1,,,,,シンランカ,0
2119,9210001019836,新規,0,2024-07-26,2024-07-26,株式会社ＢＵＹ　ＭＥ,,株式会社,福井県,小浜市,南川町１番１８号,,18,204,9170075,,,,,,,2024-07-26,1,,,,,バイミー,0
2129,9280003001868,新規,0,2024-07-26,2024-07-26,ＢＯＣ合同会社,,合同会社,島根県,出雲市,姫原３丁目５―７,,32,203,6930068,,,,,,,2024-07-26,1,,,,,ビーオーシー,0
2131,9290001106486,新規,0,2024-07-26,2024-07-26,九州ベストアドバイザリー株式会社,,株式会社,福岡県,福岡市中央区,天神４丁目６－２８天神ファーストビル７階,,40,133,8100001,,,,,,,2024-07-26,1,,,,,キュウシュウベストアドバイザリー,0
2132,9290001106511,新規,0,2024-07-26,2024-07-26,株式会社一善,,株式会社,福岡県,福岡市博多区,博多駅南３丁目２０番２７－２０３号,,40,132,8120016,,,,,,,2024-07-26,1,,,,,イチゼン,0
2133,9290001106552,新規,0,2024-07-26,2024-07-26,株式会社ゆたっと,,株式会社,福岡県,久留米市,大石町水洗４０５－７－１０１,,40,203,8300049,,,,,,,2024-07-26,1,,,,,ユタット,0
2144,9310003004826,新規,0,2024-07-26,2024-07-26,合同会社アステラみらい二級建築士事務所,,合同会社,長崎県,佐世保市,江迎町猪調３２８番地６,,42,202,8596133,,,,,,,2024-07-26,1,,,,,アステラミライニキュウケンチクシジムショ,0
2151,9360001033946,新規,0,2024-07-26,2024-07-26,株式会社キャリッジブレイン琉球,,株式会社,沖縄県,那覇市,久茂地１丁目１番１号９階,,47,201,9000015,,,,,,,2024-07-26,1,,,,,キャリッジブレインリュウキュウ,0
2152,9360005007079,新規,0,2024-07-26,2024-07-26,一般社団法人健明の会,,その他の設立登記法人,沖縄県,中頭郡中城村,字泊５２６番地,,47,328,9012402,,,,,,,2024-07-26,1,,,,,ケンメイノカイ,0
2153,9370001051550,新規,0,2024-07-26,2024-07-26,安芯易電子株式会社,,株式会社,宮城県,仙台市青葉区,中央２丁目８－１１プレミアムグリーンヒルズ３Ｆ０２１号室,,04,101,9800021,,,,,,,2024-07-26,1,,,,,アンシンイデンシ,0
2154,9370001051559,新規,0,2024-07-26,2024-07-26,株式会社Ｓｍｉｌｅ　Ｍａｒｋｅｔ,,株式会社,宮城県,仙台市若林区,南材木町８,,04,103,9840805,,,,,,,2024-07-26,1,,,,,スマイルマーケット,0
2166,9440003001612,新規,0,2024-07-26,2024-07-26,合同会社ＢＢＭ,,合同会社,北海道,函館市,美原２丁目３番１９号,,01,202,0410806,,,,,,,2024-07-26,1,,,,,ビービーエム,0
2167,9450001014367,新規,0,2024-07-26,2024-07-26,株式会社アンタイトル,,株式会社,北海道,旭川市,四条通１９丁目１７１７番地,,01,204,0788214,,,,,,,2024-07-26,1,,,,,アンタイトル,0
2172,9490003001913,新規,0,2024-07-26,2024-07-26,ｍｏｎ　ｓｏｕｒｉｒｅ合同会社,,合同会社,高知県,高知市,新本町２丁目５番１６号,,39,201,7800062,,,,,,,2024-07-26,1,,,,,モンスリール,0
2178,9700150126334,新規,0,2024-07-26,2024-07-03,千葉県青少年団体連絡協議会,,その他,千葉県,千葉市中央区,都町２丁目１－１２,,12,101,2600001,,,,,,,2024-07-03,1,,,,,チバケンセイシヨウネンダンタイレンラクキヨウギカイ,0
