sequenceNumber,corporateNumber,process,correct,updateDate,changeDate,name,nameImageId,kind,prefectureName,cityName,streetNumber,addressImageId,prefectureCode,cityCode,postCode,addressOutside,addressOutsideImageId,closeDate,closeCause,successorCorporateNumber,changeCause,assignmentDate,latest,enName,enPrefectureName,enCityName,enAddressOutside,furigana,hihyoji
14,1010001235394,新規,0,2023-05-19,2023-05-19,Ｗｅｌｌａｘ株式会社,,株式会社,東京都,千代田区,三番町７番１０号ＮＫ麹町コータス８０６,,13,101,1020075,,,,,,,2023-05-19,1,,,,,ウェラックス,0
15,1010001235403,新規,0,2023-05-19,2023-05-19,エナフォワード株式会社,,株式会社,東京都,中央区,日本橋３丁目６番２号,,13,102,1030027,,,,,,,2023-05-19,1,,,,,エナフォワード,0
16,1010001235411,新規,0,2023-05-19,2023-05-19,株式会社ＤＳホールディングス,,株式会社,東京都,中央区,日本橋堀留町１丁目６番１３号,,13,102,1030012,,,,,,,2023-05-19,1,,,,,ディーエスホールディングス,0
17,1010001235428,新規,0,2023-05-19,2023-05-19,株式会社Ｌｉｅｎ　Ａｒｃ,,株式会社,東京都,中央区,勝どき６丁目３番２号,,13,102,1040054,,,,,,,2023-05-19,1,,,,,リアンアーク,0
18,1010001235444,新規,0,2023-05-19,2023-05-19,株式会社Ａｃｒｏｓｓ３６０,,株式会社,東京都,千代田区,九段南１丁目５－６りそな九段ビル５Ｆ,,13,101,1020074,,,,,,,2023-05-19,1,,,,,アクロスサンロクゼロ,0
19,1010001235485,新規,0,2023-05-19,2023-05-19,ＰＯＩＮＴ　ＪＡＰＡＮ　ＰＲＥＳＳ株式会社,,株式会社,東京都,中央区,銀座７丁目８－８ｉｓｇＢＵＩＬＤＩＮＧ８Ｆ,,13,102,1040061,,,,,,,2023-05-19,1,,,,,ポイントジャパンプレス,0
23,1010003040586,新規,0,2023-05-19,2023-05-19,ＺＥＨ・ＳＨＭ２合同会社,,合同会社,東京都,千代田区,霞が関３丁目２番５号,,13,101,1000013,,,,,,,2023-05-19,1,,,,,ゼッチエスエイチエムツー,0
24,1010003040636,新規,0,2023-05-19,2023-05-19,浜松技術研究所合同会社,,合同会社,東京都,中央区,日本橋本石町２丁目１番１号,,13,102,1030021,,,,,,,2023-05-19,1,,,,,ハママツギジュツケンキュウショ,0
29,1010401174399,新規,0,2023-05-19,2023-05-19,テクノベート株式会社,,株式会社,東京都,港区,芝３丁目１７－１４三田浜ビル６Ｆ,,13,103,1050014,,,,,,,2023-05-19,1,,,,,テクノベート,0
30,1010401174416,新規,0,2023-05-19,2023-05-19,日本ＨＲコンストラクション株式会社,,株式会社,東京都,港区,元赤坂１丁目７番１８号メットライフ元赤坂イースト,,13,103,1070051,,,,,,,2023-05-19,1,,,,,ニホンエイチアールコンストラクション,0
31,1010401174424,新規,0,2023-05-19,2023-05-19,株式会社エモテック・マーケティング,,株式会社,東京都,港区,赤坂４丁目１３番１８号,,13,103,1070052,,,,,,,2023-05-19,1,,,,,エモテックマーケティング,0
32,1010401174449,新規,0,2023-05-19,2023-05-19,株式会社ｓｍａｒｔ　ｓｕｐｐｏｒｔ,,株式会社,東京都,港区,六本木７丁目１５番１３－７１１号,,13,103,1060032,,,,,,,2023-05-19,1,,,,,スマートサポート,0
33,1010403030113,新規,0,2023-05-19,2023-05-19,ネクサススタッフィング合同会社,,合同会社,東京都,港区,北青山２丁目７－２０猪瀬ビル２階,,13,103,1070061,,,,,,,2023-05-19,1,,,,,ネクサススタッフィング,0
34,1010501050483,新規,0,2023-05-19,2023-05-19,株式会社ＳｐａｒｋＬａｂ,,株式会社,東京都,台東区,三ノ輪１丁目２８－９－９０６,,13,106,1100011,,,,,,,2023-05-19,1,,,,,スパークラボ,0
48,1010801033948,新規,0,2023-05-19,2023-05-19,株式会社ＷｉｌｌＦｌｏｗ,,株式会社,東京都,大田区,上池台１丁目１４－１５－２０２,,13,111,1450064,,,,,,,2023-05-19,1,,,,,ウィルフロウ,0
49,1010801033972,新規,0,2023-05-19,2023-05-19,株式会社愛莉コーポレーション,,株式会社,東京都,大田区,田園調布１丁目３７番７号,,13,111,1450071,,,,,,,2023-05-19,1,,,,,アイリコーポレーション,0
50,1010803004542,新規,0,2023-05-19,2023-05-19,合同会社ＡＩＤ,,合同会社,東京都,大田区,大森東２丁目４番１６号ファミリーハウス１０５,,13,111,1430012,,,,,,,2023-05-19,1,,,,,エイド,0
54,1010901053045,新規,0,2023-05-19,2023-05-19,株式会社Ｐｅｔｉｔ,,株式会社,東京都,世田谷区,野毛２丁目２０番２３－３１２号,,13,112,1580092,,,,,,,2023-05-19,1,,,,,プティ,0
55,1010901053078,新規,0,2023-05-19,2023-05-19,株式会社ＭＰＩ,,株式会社,東京都,世田谷区,用賀２丁目３６番１１号,,13,112,1580097,,,,,,,2023-05-19,1,,,,,エムピーアイ,0
57,1010903008121,新規,0,2023-05-19,2023-05-19,合同会社ＳＨＩＮＪＩＤＡＩ,,合同会社,東京都,世田谷区,池尻３丁目１６番２４号３０３,,13,112,1540001,,,,,,,2023-05-19,1,,,,,,0
69,1011001154155,新規,0,2023-05-19,2023-05-19,株式会社Ｆｅｌｉｂｅｒ,,株式会社,東京都,渋谷区,神宮前１丁目１５－１２－２０６,,13,113,1500001,,,,,,,2023-05-19,1,,,,,フェリベル,0
70,1011001154295,新規,0,2023-05-19,2023-05-19,株式会社村井商店,,株式会社,東京都,渋谷区,西原３丁目１８番２号ハイムノワ１０１,,13,113,1510066,,,,,,,2023-05-19,1,,,,,ムライショウテン,0
71,1011001154469,新規,0,2023-05-19,2023-05-19,クラウドホールディングス株式会社,,株式会社,東京都,渋谷区,道玄坂１丁目１０番８号渋谷道玄坂東急ビル２Ｆ－Ｃ,,13,113,1500043,,,,,,,2023-05-19,1,,,,,クラウドホールディングス,0
75,1011101102914,新規,0,2023-05-19,2023-05-19,株式会社サンケイ,,株式会社,東京都,新宿区,高田馬場１丁目１０番３０号メゾンドシェヌ諏訪の森２０２号室,,13,104,1690075,,,,,,,2023-05-19,1,,,,,サンケイ,0
76,1011101102930,新規,0,2023-05-19,2023-05-19,株式会社Ｂ．Ｃ　Ｗｏｒｋｓ,,株式会社,東京都,新宿区,西新宿３丁目３番１３号西新宿水間ビル６階,,13,104,1600023,,,,,,,2023-05-19,1,,,,,ビーシーワークス,0
83,1011601026828,新規,0,2023-05-19,2023-05-19,株式会社ＫＮＯＴ,,株式会社,東京都,練馬区,早宮１丁目３８番９号,,13,120,1790085,,,,,,,2023-05-19,1,,,,,ノット,0
90,1011801042385,新規,0,2023-05-19,2023-05-19,株式会社豫源,,株式会社,東京都,葛飾区,東新小岩７丁目３０番１７号１階,,13,122,1240023,,,,,,,2023-05-19,1,,,,,ユウゲン,0
95,1012701017659,新規,0,2023-05-19,2023-05-19,株式会社ＦＡＢｕ,,株式会社,東京都,西東京市,北町５丁目５番１号,,13,229,2020003,,,,,,,2023-05-19,1,,,,,ファブ,0
103,1020001151673,新規,0,2023-05-19,2023-05-19,株式会社Ｆ‐ＬＩＮＥ,,株式会社,神奈川県,横浜市南区,六ツ川２丁目４３番地２３,,14,105,2320066,,,,,,,2023-05-19,1,,,,,エフライン,0
111,1021001079095,新規,0,2023-05-19,2023-05-19,山一海運株式会社,,株式会社,神奈川県,横須賀市,西浦賀５丁目３０番１号,,14,201,2390824,,,,,,,2023-05-19,1,,,,,ヤマイチカイウン,0
112,1021001079104,新規,0,2023-05-19,2023-05-19,株式会社レーゲンレーヴェ,,株式会社,神奈川県,相模原市中央区,淵野辺１丁目１０番１３－７０４号,,14,152,2520206,,,,,,,2023-05-19,1,,,,,レーゲンレーヴェ,0
117,1030001153826,新規,0,2023-05-19,2023-05-19,株式会社Ｓｙａｗａｓｅ　Ｗｏｒｋｓ,,株式会社,埼玉県,戸田市,川岸２丁目３番１号プラザＵＳＡ戸田公園４０８,,11,224,3350015,,,,,,,2023-05-19,1,,,,,シアワセワークス,0
118,1030001153859,新規,0,2023-05-19,2023-05-19,株式会社ｉ‐Ｆｉｘ,,株式会社,埼玉県,比企郡鳩山町,大字大橋７１１番地１,,11,348,3500302,,,,,,,2023-05-19,1,,,,,アイフィックス,0
119,1030001153883,新規,0,2023-05-19,2023-05-19,株式会社ＫＵＰＡ　ＪＡＰＡＮ,,株式会社,埼玉県,川口市,金山町１２番１号サウスゲートタワー川口２階,,11,203,3320014,,,,,,,2023-05-19,1,,,,,クパジャパン,0
120,1030001153958,新規,0,2023-05-19,2023-05-19,株式会社Ｒｉｔｚ,,株式会社,埼玉県,さいたま市北区,本郷町３０５番地,,11,102,3310802,,,,,,,2023-05-19,1,,,,,リッツ,0
121,1030001153966,新規,0,2023-05-19,2023-05-19,株式会社Ｏｒｉｏｎ,,株式会社,埼玉県,新座市,東北１丁目１４番１号志幸３０ＳＥＡＳＯＮ４０２,,11,230,3520001,,,,,,,2023-05-19,1,,,,,オリオン,0
135,1040003022648,新規,0,2023-05-19,2023-05-19,ＳＵＲＹＡ合同会社,,合同会社,千葉県,鎌ケ谷市,東道野辺２丁目７番３５号,,12,224,2730115,,,,,,,2023-05-19,1,,,,,スーリヤ,0
139,1050001052869,新規,0,2023-05-19,2023-05-19,株式会社イノベーション,,株式会社,茨城県,古河市,水海２２６８番地１,,08,204,3060215,,,,,,,2023-05-19,1,,,,,イノベーション,0
144,1060001036012,新規,0,2023-05-19,2023-05-19,株式会社Ｓｈｉｎｙ,,株式会社,栃木県,栃木市,平柳町３丁目２９番１２ー６号,,09,203,3280012,,,,,,,2023-05-19,1,,,,,シャイニー,0
150,1070001040467,新規,0,2023-05-19,2023-05-19,ＧＲＯＷ株式会社,,株式会社,群馬県,吾妻郡嬬恋村,大字大笹１７６７番地３３,,10,425,3771613,,,,,,,2023-05-19,1,,,,,グロー,0
153,1080003002984,新規,0,2023-05-19,2023-05-19,合同会社ＡＮＣＨＯＲ,,合同会社,静岡県,焼津市,西小川２丁目１３番地の１０,,22,212,4250036,,,,,,,2023-05-19,1,,,,,アンカー,0
155,1080401026494,新規,0,2023-05-19,2023-05-19,株式会社愛彩,,株式会社,静岡県,掛川市,中央２丁目１０番地の３,,22,213,4360056,,,,,,,2023-05-19,1,,,,,アイサイ,0
156,1090003002315,新規,0,2023-05-19,2023-05-19,合同会社ＯＺコンサルティング,,合同会社,山梨県,西八代郡市川三郷町,大塚４５２１番地１,00130557,19,346,4093611,,,,,,,2023-05-19,1,,,,,オズコンサルティング,0
158,1100001036404,新規,0,2023-05-19,2023-05-19,風越タイヤ株式会社,,株式会社,長野県,飯田市,丸山町１丁目６番地７,,20,205,3950077,,,,,,,2023-05-19,1,,,,,フウエツタイヤ,0
159,1100001036420,新規,0,2023-05-19,2023-05-19,株式会社３人組,,株式会社,長野県,大町市,平２８１１番地７,,20,212,3980001,,,,,,,2023-05-19,1,,,,,サンニングミ,0
166,1120001254945,新規,0,2023-05-19,2023-05-19,幸光株式会社,,株式会社,大阪府,大阪市東住吉区,湯里５丁目１６番地５号３Ｆ－Ｇ,,27,121,5460013,,,,,,,2023-05-19,1,,,,,ユキミツ,0
167,1120001255010,新規,0,2023-05-19,2023-05-19,鳳凰国際旅行株式会社,,株式会社,大阪府,大阪市鶴見区,横堤５丁目９番３号,,27,124,5380052,,,,,,,2023-05-19,1,,,,,ホウオウコクサイリョコウ,0
168,1120001255019,新規,0,2023-05-19,2023-05-19,志騰株式会社,,株式会社,大阪府,大阪市東淀川区,下新庄５丁目２２番２２号ラフォーレ下新庄３０１号,,27,114,5330021,,,,,,,2023-05-19,1,,,,,シトウ,0
169,1120001255035,新規,0,2023-05-19,2023-05-19,株式会社ＭＳＡ,,株式会社,大阪府,大阪市西区,土佐堀３丁目３番２－１２０２号,,27,106,5500001,,,,,,,2023-05-19,1,,,,,エムエスエー,0
170,1120001255043,新規,0,2023-05-19,2023-05-19,ワビサビ株式会社,,株式会社,大阪府,大阪市北区,堂山町１－５三共梅田ビル７階,,27,127,5300027,,,,,,,2023-05-19,1,,,,,ワビサビ,0
172,1120003024090,新規,0,2023-05-19,2023-05-19,ｖｅｎｅｒｅ合同会社,,合同会社,大阪府,大阪市住之江区,浜口西３丁目７番６－１３０１号,,27,125,5590006,,,,,,,2023-05-19,1,,,,,ベネラ,0
173,1120003024099,新規,0,2023-05-19,2023-05-19,合同会社ＳＫＲ,,合同会社,大阪府,大阪市中央区,高麗橋２丁目４－４,,27,128,5410043,,,,,,,2023-05-19,1,,,,,エスケーアール,0
174,1120003024108,新規,0,2023-05-19,2023-05-19,合同会社オリーブプラント,,合同会社,大阪府,門真市,四宮５丁目９番２６号,,27,223,5710017,,,,,,,2023-05-19,1,,,,,オリーブプラント,0
180,1120103005230,新規,0,2023-05-19,2023-05-19,イーマ合同会社,,合同会社,大阪府,藤井寺市,小山藤の里町１３番１５号,,27,226,5830034,,,,,,,2023-05-19,1,,,,,イーマ,0
181,1120903004646,新規,0,2023-05-19,2023-05-19,合同会社ＭＩＮＴＯＳ,,合同会社,大阪府,豊中市,島江町１丁目１番２７－２号,,27,203,5610826,,,,,,,2023-05-19,1,,,,,ミントス,0
187,1130001074335,新規,0,2023-05-19,2023-05-19,株式会社小川環境,,株式会社,京都府,京都市右京区,梅津堤上町４０番地ベルビュー廣田３０２,,26,108,6150904,,,,,,,2023-05-19,1,,,,,オガワカンキョウ,0
192,1130003008737,新規,0,2023-05-19,2023-05-19,合同会社ＮＥＯトラベラーズ,,合同会社,京都府,京都市山科区,大宅中小路町２７－４,,26,110,6078176,,,,,,,2023-05-19,1,,,,,ネオトラベラーズ,0
194,1140001130236,新規,0,2023-05-19,2023-05-19,株式会社Ｓｈｏｐ・Ｋ,,株式会社,兵庫県,姫路市,花田町高木２３２番地４,,28,201,6710256,,,,,,,2023-05-19,1,,,,,ショップケイ,0
201,1180001156310,新規,0,2023-05-19,2023-05-19,株式会社インクルーシブ,,株式会社,愛知県,丹羽郡扶桑町,大字高雄字薬師堂７２番地２,,23,362,4800102,,,,,,,2023-05-19,1,,,,,インクルーシブ,0
202,1180001156384,新規,0,2023-05-19,2023-05-19,株式会社ｋａｏ,,株式会社,愛知県,一宮市,萩原町西宮重字南屋敷２２番地３,,23,203,4910362,,,,,,,2023-05-19,1,,,,,カオ,0
207,1180003025249,新規,0,2023-05-19,2023-05-19,ユーアンドアイ合同会社,,合同会社,愛知県,名古屋市千種区,星が丘元町８番１６号,,23,101,4640802,,,,,,,2023-05-19,1,,,,,ユーアンドアイ,0
211,1180301037400,新規,0,2023-05-19,2023-05-19,株式会社ＬＵＣＩＡＳ,,株式会社,愛知県,岡崎市,康生通西３丁目５番地野畑証券第２ビル,,23,202,4440059,,,,,,,2023-05-19,1,,,,,ルシアス,0
213,1190001030423,新規,0,2023-05-19,2023-05-19,株式会社和合ホールディングス,,株式会社,三重県,津市,久居桜が丘町１９００番地１８０,,24,201,5141111,,,,,,,2023-05-19,1,,,,,ワゴウホールディングス,0
215,1200005013488,新規,0,2023-05-19,2023-05-19,一般社団法人郡上ソーシャルマネジメントオフィス,,その他の設立登記法人,岐阜県,郡上市,明宝二間手５７９番地２,,21,219,5014307,,,,,,,2023-05-19,1,,,,,グジョウソーシャルマネジメントオフィス,0
229,1260001037972,新規,0,2023-05-19,2023-05-19,株式会社ばーむ,,株式会社,岡山県,総社市,中央３丁目４番地１０４－１０１,,33,208,7191131,,,,,,,2023-05-19,1,,,,,バーム,0
236,1290001101585,新規,0,2023-05-19,2023-05-19,ＣＥＣＥＰ　ＪＡＰＡＮ株式会社,,株式会社,福岡県,福岡市博多区,東那珂２丁目６番１５－７０１号,,40,132,8120892,,,,,,,2023-05-19,1,,,,,シーイーシーイーピージャパン,0
237,1290001101593,新規,0,2023-05-19,2023-05-19,株式会社ＫＴワークス,,株式会社,福岡県,春日市,大土居１丁目６２番地,,40,218,8160847,,,,,,,2023-05-19,1,,,,,ケイティーワークス,0
238,1290001101602,新規,0,2023-05-19,2023-05-19,ＡＶＥＮＧＥ株式会社,,株式会社,福岡県,糟屋郡須惠町,大字旅石１７０番地９８,,40,344,8112221,,,,,,,2023-05-19,1,,,,,アベンジ,0
241,1290003013936,新規,0,2023-05-19,2023-05-19,合同会社麦野教育事務所,,合同会社,福岡県,福岡市博多区,麦野４丁目１５番２７号,,40,132,8120882,,,,,,,2023-05-19,1,,,,,ムギノキョウイクジムショ,0
243,1300001013309,新規,0,2023-05-19,2023-05-19,Ｃ．Ｋホールディングス株式会社,,株式会社,佐賀県,佐賀市,鍋島４丁目２番１７号,,41,201,8490937,,,,,,,2023-05-19,1,,,,,シーケイホールディングス,0
258,1360001032047,新規,0,2023-05-19,2023-05-19,Ｔｅｃｈ　Ｗｏｒｋｓ　Ｏｋｉｎａｗａ株式会社,,株式会社,沖縄県,中頭郡北谷町,字桑江６２５－１２,,47,326,9040103,,,,,,,2023-05-19,1,,,,,テックワークスオキナワ,0
262,1370001049973,新規,0,2023-05-19,2023-05-19,ＡＺＡＭ　ＴＲＡＤＩＮＧ株式会社,,株式会社,宮城県,東松島市,宮戸字里３６番地２Ａ－１号,,04,214,9810412,,,,,,,2023-05-19,1,,,,,アザムトレーディング,0
266,1370003006139,新規,0,2023-05-19,2023-05-19,合同会社ＨＡＬＥ,,合同会社,宮城県,仙台市宮城野区,原町２丁目３番２５－１１０４号,,04,102,9830841,,,,,,,2023-05-19,1,,,,,ハレ,0
268,1380001033704,新規,0,2023-05-19,2023-05-19,株式会社ふたばエナジー,,株式会社,福島県,双葉郡浪江町,大字権現堂字上柳町１１番地１５,,07,547,9791521,,,,,,,2023-05-19,1,,,,,フタバエナジー,0
274,1410003003800,新規,0,2023-05-19,2023-05-19,Ｓ．Ｂ．Ｊ　Ｊａｐａｎ合同会社,,合同会社,秋田県,湯沢市,大町１丁目２番２６号,,05,207,0120841,,,,,,,2023-05-19,1,,,,,スービージージャパン,0
275,1420003002727,新規,0,2023-05-19,2023-05-19,ＬＶＣチャレンジ・キメラ２号合同会社,,合同会社,青森県,八戸市,白銀４丁目１０番地１号,,02,203,0310821,,,,,,,2023-05-19,1,,,,,エルブイシーチャレンジキメラニゴウ,0
281,1430001089071,新規,0,2023-05-19,2023-05-19,株式会社８ｃｏｕｎｔ,,株式会社,北海道,札幌市豊平区,平岸七条１６丁目１番３０号メゾンドロゼＣ号,,01,105,0620937,,,,,,,2023-05-19,1,,,,,エイトカウント,0
282,1430001089121,新規,0,2023-05-19,2023-05-19,株式会社Ｂ・Ｕ・Ｕ,,株式会社,北海道,札幌市東区,北三十一条東１７丁目３番８－１０１号,,01,103,0650031,,,,,,,2023-05-19,1,,,,,ビーユーユー,0
284,1430003015042,新規,0,2023-05-19,2023-05-19,合同会社今田物産,,合同会社,北海道,札幌市中央区,南三条西１２丁目３２６－１０札幌ニュースカイマンション１０１号,,01,101,0600063,,,,,,,2023-05-19,1,,,,,イマダブッサン,0
288,1470003002425,新規,0,2023-05-19,2023-05-19,合同会社ＴＮＹ,,合同会社,香川県,丸亀市,城西町２丁目７番２９－２０４号アルファステイツ丸亀京極通り,,37,202,7630032,,,,,,,2023-05-19,1,,,,,ティエヌワイ,0
290,1700150116276,新規,0,2023-05-19,2023-05-19,Ｓｈｅｎｚｈｅｎ　Ａｉｊｉｎｇｆｕ　Ｔｒａｄｅ　Ｌｔｄ．,,外国会社等,,,,,,,,ＮＯ．６　Ｙｉｎｃｕｉ　Ｒｏａｄ，Ｎａｎｌｉａｎ　Ｃｏｍｍｕｎｉｔｙ，Ｌｏｎｇｇａｎｇ　Ｓｔｒｅｅｔ　１００２　Ｒｏｏｍ，１２　Ｂｌｏｃｋ　Ｍａｎｊｉｎｇｈｕａ　Ｘｉｙｕｅｌｉ　Ｈｕａｔｉｎｇ　Ｓｅｃｏｎｄ　Ｐｈａｓｅ,,,,,,2023-05-19,1,,,,,シェンゼェアイジンフトレードリミテッド,0
291,1700150116284,新規,0,2023-05-19,2023-05-19,ｓｈｅｎｚｈｅｎｓｈｉ　ｙｕａｎｚｉｋｅｊｉ　ｙｏｕｘｉａｎｇｏｎｇｓｉ,,外国会社等,,,,,,,,Ｎｏ．１，Ｓａｎｈｅ　Ｒｏａｄ，Ｇａｏｆｅｎｇ　Ｃｏｍｍｕｎｉｔｙ　Ｒｏｏｍ　３０１，Ｂｕｉｌｄｉｎｇ　５　Ｓｈｅｎｚｈｅｎ　Ｄａｌａｎｇ　Ｓｔｒｅｅｔ，Ｌｏｎｇｈｕａ　Ｄｉｓｔｒｉｃｔ,,,,,,2023-05-19,1,,,,,シンセンシユェンジケジユウゲンコウシ,0
292,1700150116292,新規,0,2023-05-19,2023-05-19,Ｓｈｅｎｚｈｅｎ　Ｚｈｉｙａｎｇ　Ｍａｏｙｉ　Ｙｏｕｘｉａｎｇｏｎｇｓｉ,,外国会社等,,,,,,,,Ｌｏｎｇｇａｎｇｑｕ　Ｎａｎｗａｎｇｊｉｅｄａｏ　Ｎａｎｌｉｎｇｃｕｎｓｈｅｑｕ　Ｊｉａｎｍｉｎｇｌｕ　７ｈａｏ　Ｎａｎｌｉｎｇｃｈｕａｎｇｘｉｎｃｈａｎｙｅｙｕａｎ　４ｄｏｎｇ２０１　Ｓｈｅｎｚｈｅｎ　Ｇｕａｎｇｄｏｎｇ　ＣＮ,,,,,,2023-05-19,1,,,,,シェンゼェンジヤンマオイユウゲンコウシ,0
293,1700150116326,新規,0,2023-05-19,2023-05-19,関東ＪＡＬパック会,,その他,東京都,品川区,東品川２丁目４番１１号野村不動産天王洲ビル,,13,109,1400002,,,,,,,2023-05-19,1,,,,,カントウジャルパックカイ,0
297,2010001235402,新規,0,2023-05-19,2023-05-19,株式会社日本ナビ,,株式会社,東京都,中央区,銀座１丁目２２番１１号銀座大竹ビジデンス２Ｆ,,13,102,1040061,,,,,,,2023-05-19,1,,,,,ニッポンナビ,0
298,2010001235427,新規,0,2023-05-19,2023-05-19,株式会社ＰＯＲＢＵＩＬ,,株式会社,東京都,千代田区,岩本町１丁目３番１号,,13,101,1010032,,,,,,,2023-05-19,1,,,,,ポービル,0
304,2010003040585,新規,0,2023-05-19,2023-05-19,ＺＥＨ・ＳＨＭ１合同会社,,合同会社,東京都,千代田区,霞が関３丁目２番５号,,13,101,1000013,,,,,,,2023-05-19,1,,,,,ゼッチエスエイチエムワン,0
305,2010005036656,新規,0,2023-05-19,2023-05-19,一般社団法人日本華僑華人高端科技商協会,,その他の設立登記法人,東京都,中央区,東日本橋２丁目２５－４第３シラカワビル６Ｆ,,13,102,1030004,,,,,,,2023-05-19,1,,,,,ニホンカキョウカジンコウタンカギショウキョウカイ,0
310,2010401174448,新規,0,2023-05-19,2023-05-19,株式会社Ｓ＆Ｓ,,株式会社,東京都,港区,西麻布４丁目５番１０号ザ・パークハウス西麻布レジデンス１７０５,,13,103,1060031,,,,,,,2023-05-19,1,,,,,エスアンドエス,0
313,2010403030137,新規,0,2023-05-19,2023-05-19,２ＳＵＬＴＡＮＡ合同会社,,合同会社,東京都,港区,南青山６丁目１２番３－４０４号,,13,103,1070062,,,,,,,2023-05-19,1,,,,,トゥスルタナ,0
314,2010403030145,新規,0,2023-05-19,2023-05-19,トゥーワイズ・ホテルマネジメント合同会社,,合同会社,東京都,港区,西麻布４丁目１５番２－１２０２号,,13,103,1060031,,,,,,,2023-05-19,1,,,,,トゥーワイズホテルマネジメント,0
317,2010501050441,新規,0,2023-05-19,2023-05-19,株式会社ディーエムアイ,,株式会社,東京都,台東区,上野２丁目６番５号,,13,106,1100005,,,,,,,2023-05-19,1,,,,,ディーエムアイ,0
318,2010501050474,新規,0,2023-05-19,2023-05-19,株式会社ＡＳＯＬＡＢＯ,,株式会社,東京都,台東区,寿１丁目１４番１１－６０２号エテルナハウス田原町,,13,106,1110042,,,,,,,2023-05-19,1,,,,,アソラボ,0
324,2010701044268,新規,0,2023-05-19,2023-05-19,株式会社Ｕｆａｖｅ,,株式会社,東京都,品川区,西五反田１丁目２６番２号五反田サンハイツ９１１,,13,109,1410031,,,,,,,2023-05-19,1,,,,,ユーフェイブ,0
325,2010801033955,新規,0,2023-05-19,2023-05-19,テクイノ株式会社,,株式会社,東京都,大田区,山王２丁目５番６号,,13,111,1430023,,,,,,,2023-05-19,1,,,,,テクイノ,0
328,2010901053069,新規,0,2023-05-19,2023-05-19,ＭＢＣカンパニー株式会社,,株式会社,東京都,世田谷区,上用賀５丁目２６番１２号,,13,112,1580098,,,,,,,2023-05-19,1,,,,,エムビーシーカンパニー,0
339,2011001154542,新規,0,2023-05-19,2023-05-19,株式会社原宿動物病院,,株式会社,東京都,渋谷区,千駄ヶ谷３丁目５５番１３号原宿ＵＥＮＯビル１０１,,13,113,1510051,,,,,,,2023-05-19,1,,,,,ハラジュクドウブツビョウイン,0
340,2011003016749,新規,0,2023-05-19,2023-05-19,合同会社Ｐａｒａｄｉｇｍ,,合同会社,東京都,渋谷区,神宮前６丁目２３番４号桑野ビル２階,,13,113,1500001,,,,,,,2023-05-19,1,,,,,パラダイム,0
341,2011003016831,新規,0,2023-05-19,2023-05-19,Ａｃｔｏｒｓ合同会社,,合同会社,東京都,渋谷区,道玄坂１丁目１０番８号渋谷道玄坂東急ビル２Ｆ－Ｃ,,13,113,1500043,,,,,,,2023-05-19,1,,,,,アクターズ,0
342,2011003016848,新規,0,2023-05-19,2023-05-19,Ｑ２Ｌａｂ．合同会社,,合同会社,東京都,渋谷区,道玄坂１丁目１０番８号渋谷道玄坂東急ビル２Ｆ,,13,113,1500043,,,,,,,2023-05-19,1,,,,,キューツーラボ,0
348,2011101102921,新規,0,2023-05-19,2023-05-19,株式会社ＳＦＳＡ,,株式会社,東京都,新宿区,西新宿８丁目３番４０号スペーシア西新宿３０３,,13,104,1600023,,,,,,,2023-05-19,1,,,,,エスエフエスエー,0
350,2011103013051,新規,0,2023-05-19,2023-05-19,フェアベイ合同会社,,合同会社,東京都,新宿区,四谷４丁目３０－２３－ビルド吉田８階,,13,104,1600004,,,,,,,2023-05-19,1,,,,,フェアベイ,0
353,2011205002555,新規,0,2023-05-19,2023-05-19,一般社団法人日本腸内環境研究協会,,その他の設立登記法人,東京都,中野区,南台４丁目３番７号２０２号室,,13,114,1640014,,,,,,,2023-05-19,1,,,,,ニホンチョウナイカンキョウケンキュウキョウカイ,0
357,2011501029310,新規,0,2023-05-19,2023-05-19,メルクリウス株式会社,,株式会社,東京都,荒川区,西日暮里６丁目１４番４号,,13,118,1160013,,,,,,,2023-05-19,1,,,,,メルクリウス,0
361,2011701026248,新規,0,2023-05-19,2023-05-19,ＳＴＡＲＴ株式会社,,株式会社,東京都,江戸川区,臨海町４丁目３番１号葛西トラックターミナルＣ棟Ａブロック５階,,13,123,1340086,,,,,,,2023-05-19,1,,,,,スタート,0
365,2011801042426,新規,0,2023-05-19,2023-05-19,株式会社富士搬送サービス,,株式会社,東京都,足立区,南花畑３丁目１８番６号,,13,121,1210062,,,,,,,2023-05-19,1,,,,,フジハンソウサービス,0
367,2012301013454,新規,0,2023-05-19,2023-05-19,株式会社ルル,,株式会社,東京都,町田市,相原町３６４番地１７,,13,209,1940211,,,,,,,2023-05-19,1,,,,,ルル,0
369,2012701017658,新規,0,2023-05-19,2023-05-19,福達顧問貿易株式会社,,株式会社,東京都,清瀬市,元町１丁目１３番２１号エメラルドハイツ１０１－１０１号室－Ｆ,,13,221,2040021,,,,,,,2023-05-19,1,,,,,フクタツコモンボウエキ,0
381,2020001151680,新規,0,2023-05-19,2023-05-19,株式会社ＡＱＵＡＳ,,株式会社,神奈川県,横浜市中区,桜木町１丁目１０１番地１クロスゲート７階,,14,104,2310062,,,,,,,2023-05-19,1,,,,,アクアス,0
382,2020001151689,新規,0,2023-05-19,2023-05-19,株式会社ＢＵＲＧＵＮＤＹ,,株式会社,神奈川県,川崎市麻生区,黒川６８０番地,,14,137,2150035,,,,,,,2023-05-19,1,,,,,バーガンディ,0
389,2021001079045,新規,0,2023-05-19,2023-05-19,アライアンス株式会社,,株式会社,神奈川県,相模原市南区,御園１丁目１８－１１,,14,153,2520317,,,,,,,2023-05-19,1,,,,,アライアンス,0
390,2021001079086,新規,0,2023-05-19,2023-05-19,株式会社モテギ,,株式会社,神奈川県,相模原市中央区,星が丘２丁目１４番１４号,,14,152,2520238,,,,,,,2023-05-19,1,,,,,モテギ,0
391,2021001079094,新規,0,2023-05-19,2023-05-19,ウェルストン株式会社,,株式会社,神奈川県,藤沢市,長後１０９７番地,,14,205,2520801,,,,,,,2023-05-19,1,,,,,ウェルストン,0
395,2030001153734,新規,0,2023-05-19,2023-05-19,株式会社花セレモニー,,株式会社,埼玉県,さいたま市桜区,西堀６丁目１番５号,,11,106,3380832,,,,,,,2023-05-19,1,,,,,セレモニー,0
396,2030001153899,新規,0,2023-05-19,2023-05-19,株式会社達磨,,株式会社,埼玉県,志木市,柏町５丁目１６番４号,,11,228,3530007,,,,,,,2023-05-19,1,,,,,ダルマ,0
397,2030001153924,新規,0,2023-05-19,2023-05-19,株式会社Ｏｎｅ　Ｌｉｆｅ,,株式会社,埼玉県,川口市,栄町３丁目１３番１６－９０１号,,11,203,3320017,,,,,,,2023-05-19,1,,,,,ワンライフ,0
398,2030001153957,新規,0,2023-05-19,2023-05-19,株式会社Ｆａｎａｔｉｃ,,株式会社,埼玉県,川口市,大字安行原９２番地の３,,11,203,3340057,,,,,,,2023-05-19,1,,,,,ファナテック,0
399,2030001153965,新規,0,2023-05-19,2023-05-19,株式会社リードコネクト,,株式会社,埼玉県,川越市,石原町２丁目５２番地２９,,11,201,3500824,,,,,,,2023-05-19,1,,,,,リードコネクト,0
408,2030003021749,新規,0,2023-05-19,2023-05-19,Ｕｎｉｏｎ　Ａｕｔｏｍｏｔｉｖｅｓ合同会社,,合同会社,埼玉県,久喜市,菖蒲町新堀２０３４番地４大熊貸家９号棟,,11,232,3460105,,,,,,,2023-05-19,1,,,,,ユニオンオートモーティブズ,0
410,2030005021268,新規,0,2023-05-19,2023-05-19,医療法人社団平沼歯科医院,,その他の設立登記法人,埼玉県,秩父市,上町１丁目６番２号,,11,207,3680035,,,,,,,2023-05-19,1,,,,,ヒラヌマシカイイン,0
414,2040001128470,新規,0,2023-05-19,2023-05-19,アステラスホーム株式会社,,株式会社,千葉県,千葉市稲毛区,小仲台２丁目６番１号,,12,103,2630043,,,,,,,2023-05-19,1,,,,,アステラスホーム,0
415,2040001128479,新規,0,2023-05-19,2023-05-19,株式会社ＮｅｗＳｔａｇｅ　ＰＬＵＳ,,株式会社,千葉県,千葉市中央区,富士見２丁目４番１６号金子ビル４Ｆ,,12,101,2600015,,,,,,,2023-05-19,1,,,,,ニューステージプラス,0
422,2040003022630,新規,0,2023-05-19,2023-05-19,合同会社ＦＭＫ　ＷＯＲＫＳ,,合同会社,千葉県,千葉市若葉区,大草町２９９,,12,104,2640011,,,,,,,2023-05-19,1,,,,,エフエムケーワークス,0
427,2050001052868,新規,0,2023-05-19,2023-05-19,株式会社ＬｉＫ,,株式会社,茨城県,つくば市,研究学園５丁目１６番地３,,08,220,3050817,,,,,,,2023-05-19,1,,,,,エルアイケー,0
430,2060003004560,新規,0,2023-05-19,2023-05-19,いでい焼そば店合同会社,,合同会社,栃木県,佐野市,上台町２０９６番地,,09,204,3270006,,,,,,,2023-05-19,1,,,,,イデイヤキソバテン,0
434,2080101024021,新規,0,2023-05-19,2023-05-19,株式会社Ｗｏｌｄｙ,,株式会社,静岡県,裾野市,富沢８２番地の３０,,22,220,4101125,,,,,,,2023-05-19,1,,,,,ウォルディ,0
438,2100003007022,新規,0,2023-05-19,2023-05-19,アキヤ管理合同会社,,合同会社,長野県,小諸市,南町１丁目２番２５号ワシントンスクールビル二階,,20,208,3840012,,,,,,,2023-05-19,1,,,,,アキヤカンリ,0
445,2120001254597,新規,0,2023-05-19,2023-05-19,松上通商株式会社,,株式会社,大阪府,大阪市東淀川区,東中島１丁目５番１７－９０１号,,27,114,5330033,,,,,,,2023-05-19,1,,,,,マツガミツウショウ,0
446,2120001255018,新規,0,2023-05-19,2023-05-19,株式会社ロビテク,,株式会社,大阪府,大阪市西区,北堀江１丁目６番２４号Ｙ’ｓピアアクセス心斎橋８０２号,,27,106,5500014,,,,,,,2023-05-19,1,,,,,ロビテク,0
447,2120001255042,新規,0,2023-05-19,2023-05-19,エイチエムコーポレーション株式会社,,株式会社,大阪府,大阪市此花区,梅町２丁目３－２４,,27,104,5540032,,,,,,,2023-05-19,1,,,,,エイチエムコーポレーション,0
448,2120001255059,新規,0,2023-05-19,2023-05-19,株式会社Ａｌｐｈａｂｅｔ,,株式会社,大阪府,大阪市北区,梅田１丁目２番２号大阪駅前第２ビル１２－１２,,27,127,5300001,,,,,,,2023-05-19,1,,,,,アルファベット,0
449,2120003024073,新規,0,2023-05-19,2023-05-19,ＳＡＭＵＮＤＲＡ合同会社,,合同会社,大阪府,大阪市西淀川区,野里２丁目２３番１９号レジデンス野里４０８号室,,27,113,5550024,,,,,,,2023-05-19,1,,,,,サムンドラ,0
453,2120105009724,新規,0,2023-05-19,2023-05-19,一般社団法人まちづくりの課題解決研究所,,その他の設立登記法人,大阪府,松原市,天美西２丁目２番２７号,,27,217,5800034,,,,,,,2023-05-19,1,,,,,マチヅクリノカダイカイケツケンキュウショ,0
455,2120901047539,新規,0,2023-05-19,2023-05-19,関西厨設株式会社,,株式会社,大阪府,吹田市,江の木町１３番９号,,27,205,5640053,,,,,,,2023-05-19,1,,,,,カンサイチュウセツ,0
458,2122001036991,新規,0,2023-05-19,2023-05-19,株式会社小林でんき,,株式会社,大阪府,八尾市,南太子堂６丁目３番４１号,,27,212,5810056,,,,,,,2023-05-19,1,,,,,コバヤシデンキ,0
460,2122003002587,新規,0,2023-05-19,2023-05-19,合同会社ＥＵＲＥＫＡ,,合同会社,大阪府,柏原市,国分本町１丁目３番３３号エクシード国分１０１,,27,221,5820021,,,,,,,2023-05-19,1,,,,,ユリーカ,0
464,2130001074359,新規,0,2023-05-19,2023-05-19,株式会社シンルイ,,株式会社,京都府,京都市南区,西九条西柳ノ内町６８番５,,26,107,6018436,,,,,,,2023-05-19,1,,,,,シンルイ,0
465,2130003008744,新規,0,2023-05-19,2023-05-19,常三商會合同会社,,合同会社,京都府,京都市中京区,壬生松原町４４番地９,,26,104,6048823,,,,,,,2023-05-19,1,,,,,ジョウサンショウカイ,0
469,2140001130235,新規,0,2023-05-19,2023-05-19,ＤｏＳｗｉｓｓ　Ｊａｐａｎ株式会社,,株式会社,兵庫県,芦屋市,奥池南町４９番１３号,,28,206,6590004,,,,,,,2023-05-19,1,,,,,ドゥスイスジャパン,0
470,2140003019113,新規,0,2023-05-19,2023-05-19,合同会社鳥越管財,,合同会社,兵庫県,姫路市,大津区天満７４１－１,,28,201,6711143,,,,,,,2023-05-19,1,,,,,トリゴエカンザイ,0
479,2180001156367,新規,0,2023-05-19,2023-05-19,株式会社テックネットジャパン,,株式会社,愛知県,名古屋市千種区,大島町２丁目７３番地の２,,23,101,4640833,,,,,,,2023-05-19,1,,,,,テックネットジャパン,0
480,2180001156383,新規,0,2023-05-19,2023-05-19,株式会社フィジカル,,株式会社,愛知県,名古屋市名東区,よもぎ台３丁目８１８番地,,23,115,4650091,,,,,,,2023-05-19,1,,,,,フィジカル,0
481,2180001156391,新規,0,2023-05-19,2023-05-19,株式会社富建,,株式会社,愛知県,大府市,長草町前屋敷４０番地の１フレモントヒルズ１０１号,,23,223,4740052,,,,,,,2023-05-19,1,,,,,トミケン,0
483,2180003025248,新規,0,2023-05-19,2023-05-19,川口ファミリー合同会社,,合同会社,愛知県,名古屋市守山区,高島町３０９番地,,23,113,4630095,,,,,,,2023-05-19,1,,,,,カワグチファミリー,0
488,2190003004325,新規,0,2023-05-19,2023-05-19,合同会社大福,,合同会社,三重県,松阪市,西町２４７１番地,,24,204,5150815,,,,,,,2023-05-19,1,,,,,ダイフク,0
492,2210001019322,新規,0,2023-05-19,2023-05-19,株式会社Ａｍｕ,,株式会社,福井県,坂井市,丸岡町磯部島第９号１番地７,,18,210,9100346,,,,,,,2023-05-19,1,,,,,エーエムユー,0
496,2240001061536,新規,0,2023-05-19,2023-05-19,株式会社ＪＡＭ,,株式会社,広島県,福山市,曙町１丁目１１番１２号,,34,207,7210952,,,,,,,2023-05-19,1,,,,,ジャム,0
497,2240001061552,新規,0,2023-05-19,2023-05-19,株式会社翼,,株式会社,広島県,広島市中区,立町６番１３号立町ビル１０３号,,34,101,7300032,,,,,,,2023-05-19,1,,,,,ツバサ,0
501,2260001037963,新規,0,2023-05-19,2023-05-19,株式会社河部塗装,,株式会社,岡山県,津山市,二宮８７３番地６,,33,203,7080013,,,,,,,2023-05-19,1,,,,,カワベトソウ,0
506,2290001101584,新規,0,2023-05-19,2023-05-19,国際医療観光株式会社,,株式会社,福岡県,福岡市南区,高宮２丁目１番４０号トーカンマンション高宮２０３号,,40,134,8150083,,,,,,,2023-05-19,1,,,,,コクサイイリョウカンコウ,0
507,2290001101592,新規,0,2023-05-19,2023-05-19,九州実業株式会社,,株式会社,福岡県,福岡市中央区,天神５丁目９番２号,,40,133,8100001,,,,,,,2023-05-19,1,,,,,キュウシュウジツギョウ,0
512,2290003013935,新規,0,2023-05-19,2023-05-19,合同会社ＳＩ・ｄｅｓｉｇｎ,,合同会社,福岡県,福岡市中央区,春吉２丁目１６－１５東峰マンション渡辺通３１０,,40,133,8100003,,,,,,,2023-05-19,1,,,,,エスアイデザイン,0
513,2300001013308,新規,0,2023-05-19,2023-05-19,Ｎ．Ｐベース株式会社,,株式会社,佐賀県,三養基郡基山町,大字宮浦３４０番地１,,41,341,8410204,,,,,,,2023-05-19,1,,,,,エヌピーベース,0
522,2360003012970,新規,0,2023-05-19,2023-05-19,合同会社トムソーヤ倶楽部,,合同会社,沖縄県,石垣市,字登野城２番地４１,,47,207,9070004,,,,,,,2023-05-19,1,,,,,トムソーヤクラブ,0
525,2370001049972,新規,0,2023-05-19,2023-05-19,株式会社ＲＥＶＥＲ　Ｆｌｏｒ,,株式会社,宮城県,仙台市若林区,荒井東１丁目３番地の１イーストフォート１‐Ａ,,04,103,9840030,,,,,,,2023-05-19,1,,,,,レーヴフロール,0
526,2370001049980,新規,0,2023-05-19,2023-05-19,株式会社ＰＬＡＳＩＬ,,株式会社,宮城県,仙台市青葉区,国分町３丁目３番１号定禅寺通ヒルズ５階,,04,101,9800803,,,,,,,2023-05-19,1,,,,,プラシル,0
527,2370001049989,新規,0,2023-05-19,2023-05-19,株式会社Ｌｉｂｌｅ,,株式会社,宮城県,仙台市青葉区,中央１丁目７番４号宮城商事ビル４階,,04,101,9800021,,,,,,,2023-05-19,1,,,,,リーブル,0
528,2370003006138,新規,0,2023-05-19,2023-05-19,合同会社ＳＡＴＯＲＵＫＡ,,合同会社,宮城県,仙台市青葉区,台原３丁目２０番７－９０４号,,04,101,9810911,,,,,,,2023-05-19,1,,,,,サトルカ,0
537,2420003002726,新規,0,2023-05-19,2023-05-19,合同会社ＴＭ商会,,合同会社,青森県,八戸市,大字徒士町９番地４,,02,203,0310053,,,,,,,2023-05-19,1,,,,,ティーエムショウカイ,0
543,2430001089153,新規,0,2023-05-19,2023-05-19,株式会社Ｉｎｄｅｐｅ,,株式会社,北海道,札幌市中央区,南二条東２丁目７－１,,01,101,0600052,,,,,,,2023-05-19,1,,,,,インディペ,0
544,2430001089178,新規,0,2023-05-19,2023-05-19,株式会社啓真建設,,株式会社,北海道,江別市,あけぼの町３２番地の６,,01,217,0670025,,,,,,,2023-05-19,1,,,,,ケイシンケンセツ,0
546,2430003015058,新規,0,2023-05-19,2023-05-19,合同会社カムイノミＴｒｅｅ　Ｗｏｒｋｓ,,合同会社,北海道,札幌市手稲区,手稲本町一条３丁目４－８エフェクト手稲３０３号室,,01,109,0060021,,,,,,,2023-05-19,1,,,,,カムイノミツリーワークス,0
548,2470001019627,新規,0,2023-05-19,2023-05-19,ベストプラクティスＫ株式会社,,株式会社,香川県,観音寺市,豊浜町和田甲５番地１,,37,205,7691603,,,,,,,2023-05-19,1,,,,,ベストプラクティスケー,0
559,2500001024937,新規,0,2023-05-19,2023-05-19,株式会社和楽庵,,株式会社,愛媛県,松山市,衣山３丁目３番４５号,,38,201,7918025,,,,,,,2023-05-19,1,,,,,ワラクアン,0
566,2700150116259,新規,0,2023-05-19,2023-05-19,千渡土地改良区,,その他,栃木県,鹿沼市,千渡１３３１,,09,205,3220002,,,,,,,2023-05-19,1,,,,,センドトチカイリヨウク,0
567,2700150116275,新規,0,2023-05-19,2023-05-19,ｃｈａｎｇｚｈｏｕ　ｌｅｑｉ　ｄｉａｎｚｉｋｅｊｉ　ｙｏｕｘｉａｎｇｏｎｇｓｉ,,外国会社等,,,,,,,,ｔｉａｎｎｉｎｇｑｖ　ｆｕｂａｎｇｓｈａｎｇｙｅｇｕａｎｇｃｈａｎｇ　１ｚｈｕａｎｇｙｉｄａｎｙｕａｎ１１０３ｓｈｉ　ＣＨＡＮＧＺＨＯＵ　ＪＩＡＮＧＳＵ　ＣＮ,,,,,,2023-05-19,1,,,,,チャンヂョウレチデンジケジユウゲンコウシ,0
568,2700150116283,新規,0,2023-05-19,2023-05-19,Ｓｈｅｎ　Ｚｈｅｎ　Ｓｈｉ　Ｑｕａｎ　Ｄｉ　Ｋｅ　Ｊｉ　Ｙｏｕ　Ｘｉａｎ　Ｇｏｎｇ　Ｓｉ,,外国会社等,,,,,,,,Ｆｕ　Ｋａｎｇ　Ｓｈａｎｇ　Ｙｅ　Ｇｕａｎｇ　Ｃｈａｎｇ　８Ｄｏｎｇ　Ｆｕ　Ｋａｎｇ　Ｋｅ　Ｊｉ　Ｄａ　Ｓｈａ　１０１１　Ｌｏｎｇ　Ｈｕａ　Ｑｕ　Ｌｏｎｇ　Ｈｕａ　Ｊｉｅ　Ｄａｏ　Ｆｕ　Ｋａｎｇ　Ｓｈｅ　Ｑｕ　Ｓｈｅｎｚｈｅｎ　Ｇｕａｎｇｄｏｎｇ,,,,,,2023-05-19,1,,,,,シンセンシツェンディケジユウゲンコウシ,0
569,2700150116291,新規,0,2023-05-19,2023-05-19,Ｓｈｅｎｚｈｅｎ　Ｗｅｉｓｉｄｕｎ　Ｔｅｃｈｎｏｌｏｇｙ　Ｃｏ．，ＬＴＤ,,外国会社等,,,,,,,,Ｒｏｏｍ　２０１，Ｆｌｏｏｒ　２，Ｂｕｉｌｄｉｎｇ　２，Ｈｕａｋａｎｇ　Ｃｏｕｒｔｙａｒｄ，Ｎｏ．１０９，Ｚｈｅｎｘｉｎｇ　Ｒｏａｄ，Ｈｕａｈａｎｇ　Ｃｏｍｍｕｎｉｔｙ，Ｈｕａｑｉａｎｇ　Ｎｏｒｔｈ　Ｓｔｒｅｅｔ，Ｆｕｔｉａｎ　Ｄｉｓｔｒｉｃｔ，Ｓｈｅｎｚｈｅｎ，Ｃｈｉｎａ,,,,,,2023-05-19,1,,,,,シンセンウエシドンテクノロジーカンパニーリミテッド,0
570,2700150116325,新規,0,2023-05-19,2023-05-19,香下区,,その他,大分県,宇佐市,院内町香下６８８番地の１,,44,211,8720311,,,,,,,2023-05-19,1,,,,,コウシタク,0
582,3010001235376,新規,0,2023-05-19,2023-05-19,株式会社ＳＵＡ　ＨＯＴＥＬ,,株式会社,東京都,中央区,月島１丁目５番１号キャピタルゲートプレイスザ・タワー８０７号室,,13,102,1040052,,,,,,,2023-05-19,1,,,,,エスユーエーホテル,0
583,3010001235426,新規,0,2023-05-19,2023-05-19,永恒株式会社,,株式会社,東京都,中央区,新富１丁目４番１号ウィンド新富ビル７０２号室,,13,102,1040041,,,,,,,2023-05-19,1,,,,,エイコウ,0
584,3010001235442,新規,0,2023-05-19,2023-05-19,株式会社ｅｃｏＳＰＲＡＹ,,株式会社,東京都,中央区,日本橋堀留町１丁目１０番１号カクタビル５Ｆ,,13,102,1030012,,,,,,,2023-05-19,1,,,,,エコスプレー,0
585,3010001235475,新規,0,2023-05-19,2023-05-19,スポンタネ株式会社,,株式会社,東京都,中央区,銀座１丁目１２番４号Ｎ＆ＥＢＬＤ．７階,,13,102,1040061,,,,,,,2023-05-19,1,,,,,スポンタネ,0
587,3010003040626,新規,0,2023-05-19,2023-05-19,ＦｒｏｎｔＳｔｒｅａｍｉｎｇ合同会社,,合同会社,東京都,中央区,日本橋浜町２丁目６２―５―４０６,,13,102,1030007,,,,,,,2023-05-19,1,,,,,フロントストリーミング,0
588,3010003040634,新規,0,2023-05-19,2023-05-19,Ｙ‐ｔｏｋｙｏ合同会社,,合同会社,東京都,文京区,本駒込３丁目９番２３号,,13,105,1130021,,,,,,,2023-05-19,1,,,,,ワイトウキョウ,0
589,3010005036713,新規,0,2023-05-19,2023-05-19,一般社団法人ＣＪＬ,,その他の設立登記法人,東京都,千代田区,神田神保町３丁目１０番地宝栄ビル６階,,13,101,1010051,,,,,,,2023-05-19,1,,,,,シージェイエル,0
602,3010401174281,新規,0,2023-05-19,2023-05-19,ＤＣＡコングロマリットインベストメンツ株式会社,,株式会社,東京都,港区,高輪４丁目２３番６－７０８号,,13,103,1080074,,,,,,,2023-05-19,1,,,,,ディーシーエーコングロマリットインベストメンツ,0
603,3010401174397,新規,0,2023-05-19,2023-05-19,株式会社Ｒｅｃｒｕｔａｓ,,株式会社,東京都,港区,六本木５丁目１６番５－２０３号,,13,103,1060032,,,,,,,2023-05-19,1,,,,,リクルタス,0
604,3010401174439,新規,0,2023-05-19,2023-05-19,株式会社ゴブレ,,株式会社,東京都,港区,南麻布４丁目７番５号,,13,103,1060047,,,,,,,2023-05-19,1,,,,,ゴブレ,0
605,3010401174488,新規,0,2023-05-19,2023-05-19,株式会社ＪＳＭＣＧ,,株式会社,東京都,港区,北青山３丁目２番２号７階,,13,103,1070061,,,,,,,2023-05-19,1,,,,,ジェイエスエムシージー,0
607,3010403030136,新規,0,2023-05-19,2023-05-19,合同会社ＲＪバテリア恵庭,,合同会社,東京都,港区,虎ノ門１丁目２番８号リニューアブル・ジャパン株式会社内,,13,103,1050001,,,,,,,2023-05-19,1,,,,,アールジェイバテリアエニワ,0
608,3010403030152,新規,0,2023-05-19,2023-05-19,ＱＥＤ　Ｔｅｃｈｎｏｌｏｇｉｅｓ　Ｉｎｔｅｒｎａｔｉｏｎａｌ　Ｊａｐａｎ合同会社,,合同会社,東京都,港区,六本木６丁目１－２０六本木電気ビル７階,,13,103,1060032,,,,,,,2023-05-19,1,,,,,キューイーディーテクノロジーズインターナショナルジャパン,0
610,3010501050481,新規,0,2023-05-19,2023-05-19,株式会社秋葉原保険ｌａｂｏ,,株式会社,東京都,台東区,台東１丁目１６番７号レイローズビル２０１,,13,106,1100016,,,,,,,2023-05-19,1,,,,,アキハバラホケンラボ,0
611,3010603010160,新規,0,2023-05-19,2023-05-19,合同会社ＳＳＴ,,合同会社,東京都,江東区,清澄２丁目１番６号ドムール清澄公園１０１,,13,108,1350024,,,,,,,2023-05-19,1,,,,,エスエスティー,0
621,3010901053076,新規,0,2023-05-19,2023-05-19,永楽トレーディング株式会社,,株式会社,東京都,世田谷区,羽根木２丁目２６番１７号,,13,112,1560042,,,,,,,2023-05-19,1,,,,,エイラクトレーディング,0
630,3011003016855,新規,0,2023-05-19,2023-05-19,ＺＥＮＤＩＡ合同会社,,合同会社,東京都,渋谷区,道玄坂１丁目１０番８号渋谷道玄坂東急ビル２Ｆ－Ｃ,,13,113,1500043,,,,,,,2023-05-19,1,,,,,ゼンディア,0
634,3011101102904,新規,0,2023-05-19,2023-05-19,株式会社Ａｉｇｈｔ,,株式会社,東京都,新宿区,新宿２丁目１２番１３号新宿アントレサロンビル２階,,13,104,1600022,,,,,,,2023-05-19,1,,,,,エイト,0
635,3011101102912,新規,0,2023-05-19,2023-05-19,株式会社ＲＭ１,,株式会社,東京都,新宿区,西新宿１丁目２５番１号新宿センタービル３３階,,13,104,1600023,,,,,,,2023-05-19,1,,,,,アールエムワン,0
636,3011101102920,新規,0,2023-05-19,2023-05-19,川葉株式会社,,株式会社,東京都,新宿区,新宿３丁目１２番４号新宿Ｎタウンプラザ３０９号,,13,104,1600022,,,,,,,2023-05-19,1,,,,,カワハ,0
637,3011101102929,新規,0,2023-05-19,2023-05-19,日興投資株式会社,,株式会社,東京都,新宿区,高田馬場２丁目９－１斎川ビル４Ｆ,,13,104,1690075,,,,,,,2023-05-19,1,,,,,ニッコウトウシ,0
641,3011301028701,新規,0,2023-05-19,2023-05-19,株式会社Ｏｌｉｂａｎｕｍ,,株式会社,東京都,杉並区,南荻窪３丁目３０番１５号パークサイドテラス１階,,13,115,1670052,,,,,,,2023-05-19,1,,,,,オリバナム,0
645,3011601026826,新規,0,2023-05-19,2023-05-19,Ｔ’ｓｃｏｒｐｏｒａｔｉｏｎ株式会社,,株式会社,東京都,練馬区,南大泉１丁目６－４８,,13,120,1780064,,,,,,,2023-05-19,1,,,,,ティーズコーポレーション,0
659,3020001151655,新規,0,2023-05-19,2023-05-19,株式会社ＩＮＤＩＣＡＴＥ,,株式会社,神奈川県,横浜市港北区,樽町３丁目７－１５ザ・ハウス港北綱島２１０,,14,109,2220001,,,,,,,2023-05-19,1,,,,,インディケイト,0
662,3020003023927,新規,0,2023-05-19,2023-05-19,合同会社Ｍａｒｉｓ,,合同会社,神奈川県,横浜市西区,北幸２丁目１０番地２８むつみビル３Ｆ,,14,103,2200004,,,,,,,2023-05-19,1,,,,,マリス,0
664,3020005016004,新規,0,2023-05-19,2023-05-19,土地家屋調査士法人ユニオン,,その他の設立登記法人,神奈川県,川崎市川崎区,宮前町８番１５号パールビル２階,,14,131,2100012,,,,,,,2023-05-19,1,,,,,ユニオン,0
668,3021001079093,新規,0,2023-05-19,2023-05-19,株式会社北州,,株式会社,神奈川県,相模原市南区,上鶴間本町６丁目２４番２１号,,14,153,2520318,,,,,,,2023-05-19,1,,,,,ホクシュウ,0
669,3021001079110,新規,0,2023-05-19,2023-05-19,ｋａｗａｉｉ　ｃｕｌｔｕｒｅ株式会社,,株式会社,神奈川県,茅ヶ崎市,幸町７番２８号ＴＳＵＢＡＮＡ－Ｅ棟１０７号室,,14,207,2530052,,,,,,,2023-05-19,1,,,,,カワイイカルチャー,0
676,3030001153683,新規,0,2023-05-19,2023-05-19,株式会社大野ＮＤ建設,,株式会社,埼玉県,さいたま市緑区,大字中尾２０８５番地１８,,11,109,3360932,,,,,,,2023-05-19,1,,,,,オオノエヌディーケンセツ,0
677,3030001153865,新規,0,2023-05-19,2023-05-19,株式会社サンコネクト,,株式会社,埼玉県,草加市,栄町１丁目７番１－３０７号,,11,221,3400011,,,,,,,2023-05-19,1,,,,,サンコネクト,0
678,3030001153964,新規,0,2023-05-19,2023-05-19,ＡＭ商会株式会社,,株式会社,埼玉県,大里郡寄居町,大字用土字臼井田１７６７番地１,,11,408,3691201,,,,,,,2023-05-19,1,,,,,エイエムショウカイ,0
679,3030001154005,新規,0,2023-05-19,2023-05-19,株式会社プレミア不動産＆リート,,株式会社,埼玉県,さいたま市浦和区,岸町２丁目３番２３号,,11,107,3300064,,,,,,,2023-05-19,1,,,,,プレミアフドウサンアンドリート,0
684,3030003021764,新規,0,2023-05-19,2023-05-19,合同会社ベルビクタ,,合同会社,埼玉県,所沢市,大字久米１６８４番地の１,,11,208,3591131,,,,,,,2023-05-19,1,,,,,ベルビクタ,0
685,3030003021772,新規,0,2023-05-19,2023-05-19,合同会社バード経営研究所,,合同会社,埼玉県,さいたま市大宮区,桜木町２丁目３番地大宮マルイ７階,,11,103,3300854,,,,,,,2023-05-19,1,,,,,バードケイエイケンキュウジョ,0
688,3030005021275,新規,0,2023-05-19,2023-05-19,特定非営利活動法人みのり,,その他の設立登記法人,埼玉県,越谷市,川柳町１丁目５６５番地１,,11,222,3430827,,,,,,,2023-05-19,1,,,,,ミノリ,0
695,3040001128478,新規,0,2023-05-19,2023-05-19,株式会社美建設計,,株式会社,千葉県,館山市,北条１３５５番地の４５,,12,205,2940045,,,,,,,2023-05-19,1,,,,,ビケンセッケイ,0
699,3040003022662,新規,0,2023-05-19,2023-05-19,合同会社パイオニアケアサービス,,合同会社,千葉県,木更津市,大久保２丁目１７番１８号,,12,206,2920815,,,,,,,2023-05-19,1,,,,,パイオニアケアサービス,0
704,3070001040465,新規,0,2023-05-19,2023-05-19,株式会社ＦＡ宣言,,株式会社,群馬県,みどり市,大間々町大間々２０２４番地９,,10,212,3760101,,,,,,,2023-05-19,1,,,,,エフエーセンゲン,0
707,3080001025630,新規,0,2023-05-19,2023-05-19,株式会社ココン,,株式会社,静岡県,静岡市清水区,上原２丁目１番２６号,,22,103,4240871,,,,,,,2023-05-19,1,,,,,ココン,0
708,3080101024012,新規,0,2023-05-19,2023-05-19,太陽光技研株式会社,,株式会社,静岡県,富士市,南松野２８６３番地の４,,22,210,4213303,,,,,,,2023-05-19,1,,,,,タイヨウコウギケン,0
709,3080103002809,新規,0,2023-05-19,2023-05-19,合同会社Ｒａｉｓｅ,,合同会社,静岡県,沼津市,岡一色６５３－１０,,22,203,4100012,,,,,,,2023-05-19,1,,,,,ライズ,0
711,3100001036427,新規,0,2023-05-19,2023-05-19,株式会社西村製作所,,株式会社,長野県,千曲市,大字杭瀬下２５０番地,,20,218,3870011,,,,,,,2023-05-19,1,,,,,ニシムラセイサクショ,0
712,3100003007021,新規,0,2023-05-19,2023-05-19,合同会社東森,,合同会社,長野県,北佐久郡軽井沢町,軽井沢１番地８,,20,321,3890103,,,,,,,2023-05-19,1,,,,,ヒガシモリ,0
723,3120001254935,新規,0,2023-05-19,2023-05-19,株式会社ＰＲＥＣＯＭ,,株式会社,大阪府,大阪市浪速区,大国３丁目１１－１８ＮＡＮＩＷＡ２番館４０１,,27,111,5560014,,,,,,,2023-05-19,1,,,,,プレコム,0
724,3120001255009,新規,0,2023-05-19,2023-05-19,株式会社ヘルシーアイ,,株式会社,大阪府,大阪市東住吉区,今川５丁目１番３２号,,27,121,5460003,,,,,,,2023-05-19,1,,,,,ヘルシーアイ,0
725,3120001255041,新規,0,2023-05-19,2023-05-19,北陽スタート株式会社,,株式会社,大阪府,大阪市東淀川区,菅原７丁目１番２１号,,27,114,5330022,,,,,,,2023-05-19,1,,,,,ホクヨウスタート,0
726,3120003024106,新規,0,2023-05-19,2023-05-19,合同会社ズッケロ,,合同会社,大阪府,大阪市西区,北堀江４丁目１４番６－２０９号,,27,106,5500014,,,,,,,2023-05-19,1,,,,,ズッケロ,0
729,3120101067568,新規,0,2023-05-19,2023-05-19,株式会社ＤＲＳ,,株式会社,大阪府,羽曳野市,飛鳥５０番地の１,,27,222,5830842,,,,,,,2023-05-19,1,,,,,ディーアールエス,0
733,3120105009723,新規,0,2023-05-19,2023-05-19,ＮＰＯ法人フリースクールゆきレオ＆保護猫施設ゆきレオ保育園,,その他の設立登記法人,大阪府,河内長野市,あかしあ台１丁目１番１７号,,27,216,5860095,,,,,,,2023-05-19,1,,,,,フリースクールユキレオアンドホゴネコシセツユキレオホイクエン,0
736,3120903004644,新規,0,2023-05-19,2023-05-19,合同会社ＲＳＣ,,合同会社,大阪府,池田市,豊島北１丁目３番１８号１０１号,,27,204,5630036,,,,,,,2023-05-19,1,,,,,アールエスシー,0
738,3122001036990,新規,0,2023-05-19,2023-05-19,株式会社大豊建設,,株式会社,大阪府,四條畷市,田原台９丁目１８番１６号,,27,229,5750013,,,,,,,2023-05-19,1,,,,,オオトヨケンセツ,0
750,3140001130234,新規,0,2023-05-19,2023-05-19,株式会社ジュガード有馬,,株式会社,兵庫県,神戸市北区,有馬町８０８番地,,28,109,6511401,,,,,,,2023-05-19,1,,,,,ジュガードアリマ,0
755,3140005026627,新規,0,2023-05-19,2023-05-19,一般社団法人Ｎｅｘｔ　Ｌｉｎｋｓ,,その他の設立登記法人,兵庫県,尼崎市,西立花町３丁目１３番９号,,28,202,6600054,,,,,,,2023-05-19,1,,,,,ネクストリンクス,0
757,3150003002967,新規,0,2023-05-19,2023-05-19,Ｌｉｂｅｒｄａｄｅ合同会社,,合同会社,奈良県,天理市,石上町５２２番地福田昭治方,,29,204,6320011,,,,,,,2023-05-19,1,,,,,リベルダージ,0
769,3180001156358,新規,0,2023-05-19,2023-05-19,株式会社ＨＥＡＲＴ,,株式会社,愛知県,東海市,高横須賀町５丁目４１番地,,23,222,4770037,,,,,,,2023-05-19,1,,,,,ハート,0
771,3180301037398,新規,0,2023-05-19,2023-05-19,ルクラホールディングス株式会社,,株式会社,愛知県,豊橋市,仲ノ町９番地,,23,201,4400046,,,,,,,2023-05-19,1,,,,,ルクラホールディングス,0
772,3180301037407,新規,0,2023-05-19,2023-05-19,株式会社ＪＡＣＨＩ商事,,株式会社,愛知県,西尾市,中畑町西側１５番地,,23,213,4440303,,,,,,,2023-05-19,1,,,,,ジャッチショウジ,0
778,3200001041334,新規,0,2023-05-19,2023-05-19,株式会社円徳,,株式会社,岐阜県,飛騨市,古川町上町５８１番地１,,21,217,5094254,,,,,,,2023-05-19,1,,,,,マルトク,0
784,3240001061502,新規,0,2023-05-19,2023-05-19,レイアートシステム株式会社,,株式会社,広島県,福山市,西深津町６丁目１番３号,,34,207,7210975,,,,,,,2023-05-19,1,,,,,レイアートシステム,0
786,3250001020102,新規,0,2023-05-19,2023-05-19,株式会社ｌａｎａ　ａ　ｎａｎｉ,,株式会社,山口県,山口市,矢原１１５８番地１,,35,203,7530861,,,,,,,2023-05-19,1,,,,,ラナアナニ,0
794,3270001008780,新規,0,2023-05-19,2023-05-19,株式会社ＳＤＧ,,株式会社,鳥取県,岩美郡岩美町,大字大谷２６５番地２,,31,302,6810073,,,,,,,2023-05-19,1,,,,,エスディージー,0
795,3270003001528,新規,0,2023-05-19,2023-05-19,合同会社電子情報通信技術クロニクル,,合同会社,鳥取県,米子市,安倍７１４,,31,202,6830846,,,,,,,2023-05-19,1,,,,,デンシジョウホウツウシンギジュツクロニクル,0
798,3290001101583,新規,0,2023-05-19,2023-05-19,ＡＴＬＡＳ株式会社,,株式会社,福岡県,福岡市博多区,祇園町６番２６号,,40,132,8120038,,,,,,,2023-05-19,1,,,,,アトラス,0
799,3290001101591,新規,0,2023-05-19,2023-05-19,株式会社トライゼン,,株式会社,福岡県,福岡市博多区,博多駅前１丁目２３番１号ＰａｒｋＦｒｏｎｔ博多駅前１丁目５Ｆ－Ｂ,,40,132,8120011,,,,,,,2023-05-19,1,,,,,トライゼン,0
806,3290003013901,新規,0,2023-05-19,2023-05-19,合同会社ＳＷ,,合同会社,福岡県,糟屋郡志免町,別府北１丁目６－８,,40,343,8112233,,,,,,,2023-05-19,1,,,,,エスダブリュー,0
807,3290003013934,新規,0,2023-05-19,2023-05-19,イノベーション合同会社,,合同会社,福岡県,福岡市西区,福重４丁目１２番１１号,,40,135,8190022,,,,,,,2023-05-19,1,,,,,イノベーション,0
810,3310003004567,新規,0,2023-05-19,2023-05-19,合同会社シルバー警備,,合同会社,長崎県,大村市,三城町６７９番地５,,42,205,8560031,,,,,,,2023-05-19,1,,,,,シルバーケイビ,0
823,3350005006161,新規,0,2023-05-19,2023-05-19,医療法人せきもと整形外科,,その他の設立登記法人,宮崎県,日向市,大字財光寺字松立１４３８番地１,,45,206,8830021,,,,,,,2023-05-19,1,,,,,セキモトセイケイゲカ,0
824,3360001032045,新規,0,2023-05-19,2023-05-19,株式会社オキナワプレス,,株式会社,沖縄県,那覇市,牧志２丁目１７－２７－４０１,,47,201,9000013,,,,,,,2023-05-19,1,,,,,オキナワプレス,0
826,3360003012978,新規,0,2023-05-19,2023-05-19,合同会社ロッキー,,合同会社,沖縄県,沖縄市,越来３丁目１４番３５号（Ａ）,,47,211,9040001,,,,,,,2023-05-19,1,,,,,ロッキー,0
838,3430001089103,新規,0,2023-05-19,2023-05-19,ビューティフルラボ株式会社,,株式会社,北海道,札幌市中央区,南二十九条西１１丁目４番１０号,,01,101,0640929,,,,,,,2023-05-19,1,,,,,ビューティフルラボ,0
839,3430001089136,新規,0,2023-05-19,2023-05-19,株式会社エヌボーノ,,株式会社,北海道,札幌市北区,新琴似八条１４丁目３番１号,,01,102,0010908,,,,,,,2023-05-19,1,,,,,エヌボーノ,0
840,3430001089144,新規,0,2023-05-19,2023-05-19,株式会社マルミキ,,株式会社,北海道,札幌市白石区,本通３丁目南６‐３０‐２０１号,,01,104,0030026,,,,,,,2023-05-19,1,,,,,マルミキ,0
841,3430001089152,新規,0,2023-05-19,2023-05-19,株式会社リバーストーン・ワールド,,株式会社,北海道,小樽市,桜３丁目２０番２号,,01,203,0470156,,,,,,,2023-05-19,1,,,,,リバーストーンワールド,0
842,3430001089177,新規,0,2023-05-19,2023-05-19,株式会社ＭＳＥ,,株式会社,北海道,札幌市北区,北三十五条西６丁目１番１－１１１号,,01,102,0010035,,,,,,,2023-05-19,1,,,,,エムエスイー,0
848,3500001024936,新規,0,2023-05-19,2023-05-19,株式会社Ｈａｉｉｌｏ,,株式会社,愛媛県,松山市,福音寺町１番地２,,38,201,7900921,,,,,,,2023-05-19,1,,,,,ハイイロ,0
851,3700150116274,新規,0,2023-05-19,2023-05-19,Ｓｈａｎｇｈａｉ　Ｗｏｒｔｈ　Ｇａｒｄｅｎ　Ｐｒｏｄｕｃｔｓ　Ｃｏ．，Ｌｔｄ,,外国会社等,,,,,,,,Ｎｏ．５０００　Ｙｕａｎｊｉａｎｇ　Ｒｏａｄ，Ｍｉｎｈａｎｇ，Ｓｈａｎｇｈａｉ，Ｃｈｉｎａ　Ｓｈａｎｇｈａｉ　Ｓｈａｎｇｈａｉ　ＣＮ,,,,,,2023-05-19,1,,,,,シャンハイワースガーデンプロダクツカンパニーリミテッド,0
852,3700150116282,新規,0,2023-05-19,2023-05-19,Ｓｈｅｎｚｈｅｎ　ＥＺＢＬ　Ｄｉｇｉｔａｌ　Ｔｅｃｈｎｏｌｏｇｙ　Ｃｏ．，Ｌｉｍｉｔｅｄ,,外国会社等,,,,,,,,Ｒｏｏｍ　２０１，Ｂｕｉｌｄ　４，１９８０　Ｓｃｉｅｎｃｅ　＆　Ｔｅｃｈｎｏｌｏｇｙ　Ｃｕｌｔｕｒａｌ　Ｉｎｄｕｓｔ　ＬｏｎｇＨｕａ　Ｄｉｓｔｒｉｃｔ，ＳｈｅｎＺｈｅｎ　ＧｕａｎｇＤｏｎｇ　ＳｈｅｎＺｈｅｎ　ＧｕａｎｇＤｏｎｇ,,,,,,2023-05-19,1,,,,,シンセンイーゼットビーエルディジタルテクノロジーカンパニーリミテッド,0
853,3700150116290,新規,0,2023-05-19,2023-05-19,ＳＨＥＮ　ＺＨＥＮ　ＨＵＡＮＧ　ＸＩＡＯ　ＤＩＡＮ　Ｚｌ　ＹＯＵ　ＸＩＡＮ　ＧＯＮＧ　ＳＩ,,外国会社等,,,,,,,,ｘｉ　ｘｉａｎｇ　ｊｉｅ　ｄａｏ　ｇｏｎｇ　ｌｅ　ｓｈｅ　ｑｕ　ｇｏｎｇ　ｈｅ　ｇｏｎｇ　ｙｅ　ｌｕ　１０７　ｈａｏ　ｈｕａ　ｆｅｎｇ　ｈｕ　ｌｉａｎ　ｗａｎｇ　ｃｈｕａｎｇ　ｙｉ　ｙｕａｎ　Ａ　ｚｕｏ　６０８　ＢＡＯ　ＡＮ，ＳＨＥＮ　ＺＨＥＮ　ＧＵＡＮＧ　ＤＯＮＧ,,,,,,2023-05-19,1,,,,,シンセンホァウンシャオデンシユウゲンコウシ,0
854,3700150116324,新規,0,2023-05-19,2023-05-19,Ｓｈｅｎｚｈｅｎ　Ｂａｉｔｏｎｇｚｈｉｋｅｊｉ　ｙｏｕｘｉａｎｇｏｎｇｓｉ,,外国会社等,,,,,,,,Ｆｕｍｉｎｓｈｅｑｕ　Ｆｕｑｉａｎｇｌｕ　１０３１ｈａｏ　Ｆｕｍｉｎｘｉｎｃｕｎ　１８ｄｏｎｇ　５０６　Ｆｕｔｉａｎｑｕ　Ｆｕｔｉａｎｊｉｅｄａｏ　Ｓｈｅｎｚｈｅｎ　Ｃｈｉｎａ　５１８０００,,,,,,2023-05-19,1,,,,,シェンジェンバイトンジーコージーヨウシエンゴンスー,0
867,4010001235417,新規,0,2023-05-19,2023-05-19,ＢＯＮＳＡＩ　ＣＯＬＬＥＣＴＯＲＳ株式会社,,株式会社,東京都,中央区,日本橋本町２丁目２－２ＹＳＢｕｉｌｄｉｎｇ２Ｆ,,13,102,1030023,,,,,,,2023-05-19,1,,,,,ボンサイコレクターズ,0
868,4010001235441,新規,0,2023-05-19,2023-05-19,ｂｙ　ｕｓ株式会社,,株式会社,東京都,千代田区,西神田３丁目８－５－４０１,,13,101,1010065,,,,,,,2023-05-19,1,,,,,バイアス,0
869,4010001235499,新規,0,2023-05-19,2023-05-19,株式会社ライフケアソリューションズ,,株式会社,東京都,中央区,日本橋富沢町４番１０号京成日本橋富沢町ビル２階,,13,102,1030006,,,,,,,2023-05-19,1,,,,,ライフケアソリューションズ,0
873,4010003040617,新規,0,2023-05-19,2023-05-19,黒岩５ホールディング合同会社,,合同会社,東京都,千代田区,丸の内３丁目１番１号東京共同会計事務所内,,13,101,1000005,,,,,,,2023-05-19,1,,,,,クロイワファイブホールディング,0
880,4010401174446,新規,0,2023-05-19,2023-05-19,株式会社国立製作所,,株式会社,東京都,港区,虎ノ門４丁目３番１号城山トラストタワー３１階,,13,103,1050001,,,,,,,2023-05-19,1,,,,,クニタチセイサクジョ,0
881,4010401174479,新規,0,2023-05-19,2023-05-19,株式会社ＥＲａｎｃｈｅｒｓ,,株式会社,東京都,港区,六本木６丁目１０番１号六本木ヒルズ森タワー１６Ｆ,,13,103,1060032,,,,,,,2023-05-19,1,,,,,イーランチャーズ,0
883,4010403030119,新規,0,2023-05-19,2023-05-19,合同会社ＴＨＩＮＫ　ＣＲＥＡＴＩＶＥ,,合同会社,東京都,港区,六本木３丁目１８番２－３０１号,,13,103,1060032,,,,,,,2023-05-19,1,,,,,シンククリエイティブ,0
884,4010403030135,新規,0,2023-05-19,2023-05-19,合同会社ＲＪガンマ,,合同会社,東京都,港区,虎ノ門１丁目２番８号リニューアブル・ジャパン株式会社内,,13,103,1050001,,,,,,,2023-05-19,1,,,,,アールジェイガンマ,0
888,4010601008222,新規,0,2023-05-19,2023-05-19,株式会社前山建材,,株式会社,東京都,江東区,深川２丁目５番１－９０５号,,13,108,1350033,,,,,,,2023-05-19,1,,,,,,0
889,4010601063127,新規,0,2023-05-19,2023-05-19,Ｋ澤株式会社,,株式会社,東京都,墨田区,文花１丁目３４番１１－４０７号,,13,107,1310044,,,,,,,2023-05-19,1,,,,,ケーザワ,0
894,4010703006702,新規,0,2023-05-19,2023-05-19,ＦＳジャパン・ホールディング合同会社,,合同会社,東京都,品川区,東品川２丁目２番２０号,,13,109,1400002,,,,,,,2023-05-19,1,,,,,エフエスジャパンホールディング,0
900,4010901053075,新規,0,2023-05-19,2023-05-19,株式会社ＣｈｅｅｒＢｅｌｌ,,株式会社,東京都,世田谷区,代田３丁目４番１４号,,13,112,1550033,,,,,,,2023-05-19,1,,,,,チアベル,0
905,4011001154466,新規,0,2023-05-19,2023-05-19,株式会社ＬＹＴ,,株式会社,東京都,渋谷区,猿楽町１４番２３号,,13,113,1500033,,,,,,,2023-05-19,1,,,,,エルワイティー,0
907,4011003016870,新規,0,2023-05-19,2023-05-19,合同会社ＳｉｄｅｂｙＳｉｄｅ,,合同会社,東京都,渋谷区,桜丘町１７－１２渋谷ジョンソンビル４０１,,13,113,1500031,,,,,,,2023-05-19,1,,,,,サイドバイサイド,0
909,4011101102903,新規,0,2023-05-19,2023-05-19,株式会社ＭＡＺＥ‐ＭＡＺＥ,,株式会社,東京都,新宿区,西新宿３丁目３番１３号西新宿水間ビル６階,,13,104,1600023,,,,,,,2023-05-19,1,,,,,マゼマゼ,0
914,4011301028700,新規,0,2023-05-19,2023-05-19,アシエスト株式会社,,株式会社,東京都,杉並区,高円寺北３丁目２２番１９号利研ビル６０１,,13,115,1660002,,,,,,,2023-05-19,1,,,,,アシエスト,0
917,4011503005605,新規,0,2023-05-19,2023-05-19,ＡＩＬｏｏｐ合同会社,,合同会社,東京都,北区,西ケ原４丁目２６番５号鈴木メゾネット２Ｆ,,13,117,1140024,,,,,,,2023-05-19,1,,,,,アイループ,0
922,4012301013452,新規,0,2023-05-19,2023-05-19,アトリエａｕｔｕｍｎ株式会社,,株式会社,東京都,町田市,南町田５丁目１４番３－４１４号,,13,209,1940005,,,,,,,2023-05-19,1,,,,,アトリエオータム,0
924,4012303001827,新規,0,2023-05-19,2023-05-19,Ｕ‐ＬＩＦＥ合同会社,,合同会社,東京都,町田市,高ヶ坂３丁目１番１号,,13,209,1940014,,,,,,,2023-05-19,1,,,,,ユーライフ,0
930,4013301050799,新規,0,2023-05-19,2023-05-19,株式会社和ｉ和ｉ．,,株式会社,東京都,豊島区,北大塚２丁目６－２共同計画大塚ビル２階,,13,116,1700004,,,,,,,2023-05-19,1,,,,,ワイワイ,0
954,4021001079035,新規,0,2023-05-19,2023-05-19,株式会社なんでも屋雄人,,株式会社,神奈川県,海老名市,柏ケ谷４７３番地２１,,14,215,2430402,,,,,,,2023-05-19,1,,,,,ナンデモヤオットー,0
955,4021001079084,新規,0,2023-05-19,2023-05-19,株式会社こはくナースケア,,株式会社,神奈川県,相模原市中央区,横山台２丁目１３－１,,14,152,2520241,,,,,,,2023-05-19,1,,,,,コハクナースケア,0
956,4021001079101,新規,0,2023-05-19,2023-05-19,株式会社嘉祥,,株式会社,神奈川県,小田原市,栄町１丁目１番７号,,14,206,2500011,,,,,,,2023-05-19,1,,,,,カショウ,0
960,4021003013074,新規,0,2023-05-19,2023-05-19,合同会社Ｈ＆ＲＣａｐｉｔａｌ,,合同会社,神奈川県,三浦市,白石町１４－２４,,14,210,2380244,,,,,,,2023-05-19,1,,,,,エイチアンドアールキャピタル,0
961,4021003013108,新規,0,2023-05-19,2023-05-19,合同会社ナチュラルファーム,,合同会社,神奈川県,横須賀市,長井６丁目１６番１５号,,14,201,2380316,,,,,,,2023-05-19,1,,,,,ナチュラルファーム,0
962,4021005012818,新規,0,2023-05-19,2023-05-19,一般社団法人文木立,,その他の設立登記法人,神奈川県,藤沢市,鵠沼藤が谷１丁目２番１－４０３号,,14,205,2510031,,,,,,,2023-05-19,1,,,,,アヤコダチ,0
972,4040001128469,新規,0,2023-05-19,2023-05-19,Ｃ．Ｈ．Ｐ株式会社,,株式会社,千葉県,習志野市,香澄１丁目１番８－３０３号,,12,216,2750022,,,,,,,2023-05-19,1,,,,,シーエイチピー,0
973,4040001128477,新規,0,2023-05-19,2023-05-19,ＥＣＯＩＴ株式会社,,株式会社,千葉県,市原市,五井２３３９番地４階,,12,219,2900056,,,,,,,2023-05-19,1,,,,,エコアイティ,0
984,4040003022661,新規,0,2023-05-19,2023-05-19,合同会社Ｓａｗａｉ　ｐｒｏｊｅｃｔ,,合同会社,千葉県,千葉市若葉区,坂月町２１４－９,,12,104,2640012,,,,,,,2023-05-19,1,,,,,サワイプロジェクト,0
986,4050001052866,新規,0,2023-05-19,2023-05-19,石井自動車トラックス株式会社,,株式会社,茨城県,笠間市,飯合１３５番地,,08,216,3091632,,,,,,,2023-05-19,1,,,,,イシイジドウシャトラックス,0
987,4050003007505,新規,0,2023-05-19,2023-05-19,ラクテク合同会社,,合同会社,茨城県,土浦市,真鍋新町１２番４－２号,,08,203,3000053,,,,,,,2023-05-19,1,,,,,ラクテク,0
988,4050003007513,新規,0,2023-05-19,2023-05-19,合同会社ｒｉｃｒｉ,,合同会社,茨城県,水戸市,宮町１丁目２番４号ＭＹＭビル３階ＢＩＺｃｏｍｆｏｒｔ水戸,,08,201,3100015,,,,,,,2023-05-19,1,,,,,リクリ,0
991,4060003004559,新規,0,2023-05-19,2023-05-19,ＭＯＯＮＳＴＯＮＥ合同会社,,合同会社,栃木県,小山市,城東１丁目１番１２号茜ハイツ４０２号室,,09,208,3230807,,,,,,,2023-05-19,1,,,,,,0
992,4070001040464,新規,0,2023-05-19,2023-05-19,株式会社幸運,,株式会社,群馬県,伊勢崎市,今泉町２丁目９４１番地４２,,10,204,3720031,,,,,,,2023-05-19,1,,,,,コウウン,0
998,4080105006336,新規,0,2023-05-19,2023-05-19,一般社団法人伊豆情報共有会,,その他の設立登記法人,静岡県,伊東市,竹の内２丁目６番２２号,,22,208,4140027,,,,,,,2023-05-19,1,,,,,イズジョウホウキョウユウカイ,0
1001,4100001036351,新規,0,2023-05-19,2023-05-19,東西Ｃｏｌｌｅｃｔｉｖｅ株式会社,,株式会社,長野県,北安曇郡白馬村,大字北城５８３９番地１,,20,485,3999301,,,,,,,2023-05-19,1,,,,,トウザイコレクティブ,0
1002,4100001036426,新規,0,2023-05-19,2023-05-19,株式会社Ｔｏｔａｌ　Ｎａｖｉｇａｔｉｏｎ　Ｓｕｒｇｅｒｙ,,株式会社,長野県,北佐久郡軽井沢町,大字発地字長尾根４９１番地３レイクニュータウンＬ－３６,,20,321,3890113,,,,,,,2023-05-19,1,,,,,トータルナビゲーションサージャリー,0
1006,4110003005056,新規,0,2023-05-19,2023-05-19,合同会社リイドプロ,,合同会社,新潟県,新潟市秋葉区,天ヶ沢２４３番地１,,15,105,9560114,,,,,,,2023-05-19,1,,,,,リイドプロ,0
1018,4120001254942,新規,0,2023-05-19,2023-05-19,智程国際株式会社,,株式会社,大阪府,大阪市中央区,瓦屋町３丁目７－２０,,27,128,5420066,,,,,,,2023-05-19,1,,,,,チテイコクサイ,0
1019,4120001254967,新規,0,2023-05-19,2023-05-19,株式会社モリヤマ,,株式会社,大阪府,大阪市生野区,桃谷２丁目２１番７号,,27,116,5440034,,,,,,,2023-05-19,1,,,,,モリヤマ,0
1020,4120001255008,新規,0,2023-05-19,2023-05-19,株式会社タカ,,株式会社,大阪府,大阪市平野区,平野本町５丁目１３番１０号,,27,126,5470044,,,,,,,2023-05-19,1,,,,,タカ,0
1021,4120001255016,新規,0,2023-05-19,2023-05-19,日光グループホールディングス株式会社,,株式会社,大阪府,大阪市天王寺区,上本町６丁目９番１７号上六日光ビル,,27,109,5430001,,,,,,,2023-05-19,1,,,,,ニッコウグループホールディングス,0
1022,4120001255024,新規,0,2023-05-19,2023-05-19,株式会社ＫＡＮＧ,,株式会社,大阪府,大阪市生野区,巽中４丁目８番１６号,00130548,27,116,5440013,,,,,,,2023-05-19,1,,,,,カン,0
1023,4120001255032,新規,0,2023-05-19,2023-05-19,Ｏｓａｋａ　Ｆａｎｆａｒｅ　Ｖｉｓｕａｌ株式会社,,株式会社,大阪府,大阪市中央区,船越町１丁目５－８－４０２号室,,27,128,5400036,,,,,,,2023-05-19,1,,,,,オオサカファンファーレヴィジュアル,0
1024,4120001255049,新規,0,2023-05-19,2023-05-19,株式会社サラズファクトリー,,株式会社,大阪府,大阪市淀川区,西宮原２丁目７番２８号,,27,123,5320004,,,,,,,2023-05-19,1,,,,,サラズファクトリー,0
1025,4120001255065,新規,0,2023-05-19,2023-05-19,株式会社ＡＬＬ　ＥＳＴＡＴＥ,,株式会社,大阪府,大阪市城東区,中浜３丁目１７－２２、２階,,27,118,5360024,,,,,,,2023-05-19,1,,,,,オールエステート,0
1027,4120003024113,新規,0,2023-05-19,2023-05-19,Ｇｏｌｄｅｎ　Ｔｅｌｅｃｏｍ合同会社,,合同会社,大阪府,大阪市阿倍野区,丸山通１丁目６－１６－２０５号,,27,119,5450042,,,,,,,2023-05-19,1,,,,,ゴールデンテレコム,0
1029,4120005023617,新規,0,2023-05-19,2023-05-19,協同組合まごころ,,その他の設立登記法人,大阪府,大阪市浪速区,敷津西２丁目１番３３号渚マンション３７号,,27,111,5560015,,,,,,,2023-05-19,1,,,,,マゴコロ,0
1030,4120103005228,新規,0,2023-05-19,2023-05-19,合同会社ＭＩＬＫＹ　ＷＡＹ,,合同会社,大阪府,堺市東区,日置荘原寺町４４３番地１,,27,143,5998112,,,,,,,2023-05-19,1,,,,,ミルキーウェイ,0
1036,4130001074349,新規,0,2023-05-19,2023-05-19,株式会社君信,,株式会社,京都府,京都市南区,八条内田町６５－４０,,26,107,6018475,,,,,,,2023-05-19,1,,,,,クンシン,0
1040,4140001130019,新規,0,2023-05-19,2023-05-19,株式会社ピリオドビー,,株式会社,兵庫県,神戸市東灘区,住吉本町２丁目１４番２０号２Ｆ,,28,101,6580051,,,,,,,2023-05-19,1,,,,,ピリオドビー,0
1041,4140001130225,新規,0,2023-05-19,2023-05-19,株式会社かりゆし,,株式会社,兵庫県,尼崎市,稲葉元町１丁目３番１号ラフィネセオミ７０１,,28,202,6600055,,,,,,,2023-05-19,1,,,,,カリユシ,0
1042,4140001130241,新規,0,2023-05-19,2023-05-19,セカンドユース株式会社,,株式会社,兵庫県,神戸市灘区,篠原中町５丁目７番１６－３０５号,,28,102,6570066,,,,,,,2023-05-19,1,,,,,セカンドユース,0
1049,4150003002966,新規,0,2023-05-19,2023-05-19,グローバルリサーチ＆コミュニケーションズ合同会社,,合同会社,奈良県,奈良市,学園朝日元町１丁目６０６番地の１３,,29,201,6310015,,,,,,,2023-05-19,1,,,,,グローバルリサーチアンドコミュニケーションズ,0
1054,4180001156365,新規,0,2023-05-19,2023-05-19,株式会社アンドウテック,,株式会社,愛知県,津島市,大坪町字小割２６番地,,23,208,4960012,,,,,,,2023-05-19,1,,,,,アンドウテック,0
1055,4180001156381,新規,0,2023-05-19,2023-05-19,株式会社ｉｍｐｒｏｏｍ,,株式会社,愛知県,名古屋市中区,錦１丁目５番１号,,23,106,4600003,,,,,,,2023-05-19,1,,,,,インプルーム,0
1058,4180003025205,新規,0,2023-05-19,2023-05-19,合同会社ワールドオート,,合同会社,愛知県,名古屋市中川区,吉津５丁目８０２,,23,110,4540981,,,,,,,2023-05-19,1,,,,,ワールドオート,0
1066,4200001041333,新規,0,2023-05-19,2023-05-19,株式会社すずむら設備,,株式会社,岐阜県,揖斐郡大野町,大字公郷４３４番地,,21,403,5010555,,,,,,,2023-05-19,1,,,,,スズムラセツビ,0
1070,4220001025417,新規,0,2023-05-19,2023-05-19,株式会社上島商店,,株式会社,石川県,金沢市,無量寺町ヲ５２番地,,17,201,9200332,,,,,,,2023-05-19,1,,,,,ウエシマショウテン,0
1074,4230001019839,新規,0,2023-05-19,2023-05-19,株式会社カーリペアタケダ,,株式会社,富山県,南砺市,舘１２５番地,,16,210,9391676,,,,,,,2023-05-19,1,,,,,カーリペアタケダ,0
1075,4230001019847,新規,0,2023-05-19,2023-05-19,株式会社住快適サービス,,株式会社,富山県,富山市,婦中町友坂５７７９番地１,,16,201,9392759,,,,,,,2023-05-19,1,,,,,ジュウカイテキサービス,0
1076,4240001061550,新規,0,2023-05-19,2023-05-19,株式会社ＭＡＳＡＢＡ,,株式会社,広島県,広島市安佐南区,川内１丁目３２－２０－４,,34,105,7310102,,,,,,,2023-05-19,1,,,,,マサバ,0
1078,4240003006149,新規,0,2023-05-19,2023-05-19,合同会社シンエイエステート,,合同会社,広島県,広島市佐伯区,楽々園４丁目１３番１３－３０３号,,34,108,7315136,,,,,,,2023-05-19,1,,,,,シンエイエステート,0
1081,4270003001527,新規,0,2023-05-19,2023-05-19,サンサンサン合同会社,,合同会社,鳥取県,米子市,上福原３丁目１２番３０号,,31,202,6830004,,,,,,,2023-05-19,1,,,,,サンサンサン,0
1085,4290001101533,新規,0,2023-05-19,2023-05-19,株式会社ｌｏｃｕｓ,,株式会社,福岡県,柳川市,三橋町柳河１５番地１４,,40,207,8320806,,,,,,,2023-05-19,1,,,,,ローカス,0
1086,4290001101590,新規,0,2023-05-19,2023-05-19,株式会社ｓｈｉｎ‐ｋａｎ,,株式会社,福岡県,大野城市,南ケ丘１丁目１８番１１号,,40,219,8160964,,,,,,,2023-05-19,1,,,,,シンカン,0
1088,4290003013933,新規,0,2023-05-19,2023-05-19,合同会社ＫＹＳＦ,,合同会社,福岡県,久留米市,中央町１２番地３－４０１号,,40,203,8300023,,,,,,,2023-05-19,1,,,,,ケイワイエスエフ,0
1099,4330001030876,新規,0,2023-05-19,2023-05-19,株式会社緒方林業,,株式会社,熊本県,八代市,泉町葉木６番地,,43,202,8694511,,,,,,,2023-05-19,1,,,,,オガタリンギョウ,0
1103,4350005006160,新規,0,2023-05-19,2023-05-19,一般社団法人日本のこころ,,その他の設立登記法人,宮崎県,日向市,大字塩見１４００６番地４,,45,206,8830033,,,,,,,2023-05-19,1,,,,,ニホンノココロ,0
1118,4420001018268,新規,0,2023-05-19,2023-05-19,株式会社勿忘,,株式会社,青森県,八戸市,大字田面木字赤坂３５番地１２,,02,203,0391104,,,,,,,2023-05-19,1,,,,,ワスレナ,0
1121,4430001089143,新規,0,2023-05-19,2023-05-19,Ｓｋｙｂｅａｎｓ株式会社,,株式会社,北海道,札幌市西区,八軒一条西３丁目１番３５号,,01,107,0630841,,,,,,,2023-05-19,1,,,,,スカイビーンズ,0
1123,4430003015048,新規,0,2023-05-19,2023-05-19,合同会社片付け屋本舗ほっと,,合同会社,北海道,札幌市白石区,東札幌二条６丁目９番９号,,01,104,0030002,,,,,,,2023-05-19,1,,,,,カタヅケヤホンポホット,0
1125,4460005001571,新規,0,2023-05-19,2023-05-19,一般社団法人釧路地域ＤＸ推進協会,,その他の設立登記法人,北海道,釧路市,鳥取南７丁目２番２３号釧路工業技術センター内,,01,206,0840905,,,,,,,2023-05-19,1,,,,,クシロチイキディーエックススイシンキョウカイ,0
1128,4500001024935,新規,0,2023-05-19,2023-05-19,リースプラス株式会社,,株式会社,愛媛県,新居浜市,田所町４番６８号,,38,205,7920804,,,,,,,2023-05-19,1,,,,,リースプラス,0
1135,4700150116281,新規,0,2023-05-19,2023-05-19,ｓｕｚｈｏｕ　ｊｉａｎｇｆｅｎｇｚｈｕｙｕ　ｗｅｎｈｕａｃｈｕａｎｂｏ　ｙｏｕｘｉａｎｇｏｎｇｓｉ,,外国会社等,,,,,,,,Ｒｏｏｍ　４０２，Ｂｕｉｌｄｉｎｇ　Ａ１，Ｎｏ．１５５８，Ｃｈｅｎｇｂｅｉ　Ｗｅｓｔ　Ｒｏａｄ　Ｓｕｚｈｏｕ,,,,,,2023-05-19,1,,,,,スーヂョウジャンフェンヂュユウェンフアチゥアンボユウゲンコウシ,0
1143,5010001235333,新規,0,2023-05-19,2023-05-19,ラキリス株式会社,,株式会社,東京都,中央区,銀座１丁目２２番１１号銀座大竹ビジデンス２階,,13,102,1040061,,,,,,,2023-05-19,1,,,,,ラキリス,0
1144,5010001235416,新規,0,2023-05-19,2023-05-19,株式会社橋本ＢＬＤ,,株式会社,東京都,文京区,千駄木５丁目４９番２３号伊田ビル,,13,105,1130022,,,,,,,2023-05-19,1,,,,,ハシモトビーエルディー,0
1145,5010001235440,新規,0,2023-05-19,2023-05-19,株式会社ナガトバランス,,株式会社,東京都,中央区,湊３丁目８番１号,,13,102,1040043,,,,,,,2023-05-19,1,,,,,ナガトバランス,0
1146,5010001235465,新規,0,2023-05-19,2023-05-19,株式会社フットグラフ,,株式会社,東京都,文京区,本郷１丁目５番１７号三洋ビル４階５１号室,,13,105,1130033,,,,,,,2023-05-19,1,,,,,フットグラフ,0
1147,5010001235507,新規,0,2023-05-19,2023-05-19,株式会社ＣＡＲＥ‐ＷＡＹ　ＨＩ‐ＴＥＣＨ　ＬＯＧＩＳＴＩＣＳ　ＪＡＰＡＮ,,株式会社,東京都,中央区,東日本橋１丁目９番２号,,13,102,1030004,,,,,,,2023-05-19,1,,,,,ケアウェイハイテックロジスティクスジャパン,0
1150,5010003040632,新規,0,2023-05-19,2023-05-19,ＬＺ商事合同会社,,合同会社,東京都,千代田区,六番町１５番２号鳳翔ビル２階ＩＦＳ四ツ谷六番町オフィスＩ２０９号室,,13,101,1020085,,,,,,,2023-05-19,1,,,,,エルゼットショウジ,0
1151,5010003040649,新規,0,2023-05-19,2023-05-19,合同会社Ｈｅｄｇｅｈｏｇ　Ｐａｒｔｎｅｒｓ,,合同会社,東京都,中央区,勝どき６丁目３－１－９０７,,13,102,1040054,,,,,,,2023-05-19,1,,,,,ヘッジホッグパートナーズ,0
1152,5010003040657,新規,0,2023-05-19,2023-05-19,ルーナ合同会社,,合同会社,東京都,中央区,日本橋兜町１番７号,,13,102,1030026,,,,,,,2023-05-19,1,,,,,ルーナ,0
1160,5010401174404,新規,0,2023-05-19,2023-05-19,株式会社ｎｏｗｎｏｗ,,株式会社,東京都,港区,芝浦２丁目９番１－９０２号,,13,103,1080023,,,,,,,2023-05-19,1,,,,,ナウナウ,0
1161,5010401174420,新規,0,2023-05-19,2023-05-19,Ｄａｅｙｏｕｎｇ　Ｃｈａｅｖｉ　Ｊａｐａｎ株式会社,,株式会社,東京都,港区,海岸１丁目２番３号汐留芝離宮ビルディング２１階,,13,103,1050022,,,,,,,2023-05-19,1,,,,,デヨンチェビジャパン,0
1162,5010401174437,新規,0,2023-05-19,2023-05-19,タクシーチャンネル株式会社,,株式会社,東京都,港区,芝５丁目２７番３号ＭＢＣ,,13,103,1080014,,,,,,,2023-05-19,1,,,,,タクシーチャンネル,0
1163,5010401174536,新規,0,2023-05-19,2023-05-19,株式会社ハコビーノ,,株式会社,東京都,港区,浜松町２丁目２番１５号ダイヤビル２Ｆ,,13,103,1050013,,,,,,,2023-05-19,1,,,,,ハコビーノ,0
1165,5010405022146,新規,0,2023-05-19,2023-05-19,ＭＦ４ＪＰＮ２特定目的会社,,その他の設立登記法人,東京都,港区,虎ノ門３丁目２２番１０－２０１号,,13,103,1050001,,,,,,,2023-05-19,1,,,,,エムエフフォージェイピーエヌツー,0
1170,5010501050488,新規,0,2023-05-19,2023-05-19,株式会社シリウス,,株式会社,東京都,台東区,千束４丁目１７番１８号カワノビル１階,,13,106,1110031,,,,,,,2023-05-19,1,,,,,シリウス,0
1171,5010601063126,新規,0,2023-05-19,2023-05-19,株式会社エムテクノロジー,,株式会社,東京都,墨田区,太平２丁目１番３号,,13,107,1300012,,,,,,,2023-05-19,1,,,,,エムテクノロジー,0
1179,5011001154382,新規,0,2023-05-19,2023-05-19,株式会社縁橋,00130547,株式会社,東京都,渋谷区,円山町５番５号Ｎａｖｉ渋谷Ｖ３階,,13,113,1500044,,,,,,,2023-05-19,1,,,,,エニシバシ,0
1180,5011001154465,新規,0,2023-05-19,2023-05-19,ＡＩ・ＥＳＴＡＴＥ・ＰＬＡＮＮＥＲ株式会社,,株式会社,東京都,渋谷区,渋谷３丁目７番１号,,13,113,1500002,,,,,,,2023-05-19,1,,,,,エイアイエステイトプランナー,0
1182,5011003016845,新規,0,2023-05-19,2023-05-19,ＢＯＮＪＩＮ合同会社,,合同会社,東京都,渋谷区,神泉町２０－２１クロスシー渋谷ビルＭＩＤＰＯＩＮＴ渋谷神泉４－１,,13,113,1500045,,,,,,,2023-05-19,1,,,,,ボンジン,0
1184,5011101102902,新規,0,2023-05-19,2023-05-19,株式会社Ｉ‐ＦＲＥＥＫ　ＧＡＭＥＳ,,株式会社,東京都,新宿区,新宿２丁目１番１１号,,13,104,1600022,,,,,,,2023-05-19,1,,,,,アイフリークゲームズ,0
1185,5011101102919,新規,0,2023-05-19,2023-05-19,株式会社グローバルリンク,,株式会社,東京都,新宿区,水道町１番８号,,13,104,1620811,,,,,,,2023-05-19,1,,,,,グローバルリンク,0
1195,5011703003473,新規,0,2023-05-19,2023-05-19,合同会社Ｓｕｎｏ,,合同会社,東京都,江戸川区,篠崎町２丁目７番１５－６０３号,,13,123,1330061,,,,,,,2023-05-19,1,,,,,スノウ,0
1198,5011801042423,新規,0,2023-05-19,2023-05-19,株式会社ＢｅｅＳ,,株式会社,東京都,葛飾区,東金町３丁目２６番４号Ｋｏｌｅｔ金町＃０２,,13,122,1250041,,,,,,,2023-05-19,1,,,,,ビーズ,0
1203,5012703002713,新規,0,2023-05-19,2023-05-19,ひげぶくろ合同会社,,合同会社,東京都,東久留米市,南町３丁目１０番９号,,13,222,2030031,,,,,,,2023-05-19,1,,,,,ヒゲブクロ,0
1204,5012801022365,新規,0,2023-05-19,2023-05-19,Ｃａｒｂｏｎ　Ｅｘｃｈａｎｇｅ株式会社,,株式会社,東京都,日野市,大字日野６９８－１,,13,212,1910012,,,,,,,2023-05-19,1,,,,,カーボンエクスチェンジ,0
1205,5012803003082,新規,0,2023-05-19,2023-05-19,合同会社ＩＥ‐ＫＳ,,合同会社,東京都,東大和市,狭山４丁目１４１８番地２２,,13,220,2070003,,,,,,,2023-05-19,1,,,,,アイイーケイエス,0
1206,5013103001231,新規,0,2023-05-19,2023-05-19,合同会社ｂｏｘｅｒｓ,,合同会社,東京都,あきる野市,引田４５８番地７,,13,228,1970834,,,,,,,2023-05-19,1,,,,,ボクサーズ,0
1214,5020001151604,新規,0,2023-05-19,2023-05-19,株式会社サクセスツリー,,株式会社,神奈川県,川崎市川崎区,大島５丁目４番５号,,14,131,2100834,,,,,,,2023-05-19,1,,,,,サクセスツリー,0
1215,5020001151686,新規,0,2023-05-19,2023-05-19,株式会社ベルコム,,株式会社,神奈川県,川崎市中原区,上丸子山王町２丁目１３１２番地プリースト・ヤマモト１０３,,14,133,2110002,,,,,,,2023-05-19,1,,,,,ベルコム,0
1216,5020001151694,新規,0,2023-05-19,2023-05-19,株式会社ｏｎｌｙ８,,株式会社,神奈川県,横浜市緑区,東本郷６丁目２３番地１０－２０２号,,14,113,2260002,,,,,,,2023-05-19,1,,,,,オンリーエイト,0
1219,5020003023933,新規,0,2023-05-19,2023-05-19,合同会社ナレッジスタック,,合同会社,神奈川県,横浜市西区,浅間町１丁目４番地３ウィザードビル４０２,,14,103,2200072,,,,,,,2023-05-19,1,,,,,ナレッジスタック,0
1223,5021001079091,新規,0,2023-05-19,2023-05-19,株式会社Ｓｌｏｗ　Ｂａｓｅ,,株式会社,神奈川県,秦野市,蓑毛１９７番地１,,14,211,2570021,,,,,,,2023-05-19,1,,,,,スローベース,0
1224,5021001079109,新規,0,2023-05-19,2023-05-19,株式会社Ｋｎｏｔ,,株式会社,神奈川県,横須賀市,鷹取２丁目１１番１９号,,14,201,2370067,,,,,,,2023-05-19,1,,,,,ノット,0
1226,5021003013107,新規,0,2023-05-19,2023-05-19,合同会社Ｓｉｎ,,合同会社,神奈川県,愛甲郡愛川町,中津９９４番地の１２,,14,401,2430303,,,,,,,2023-05-19,1,,,,,シン,0
1235,5030001153946,新規,0,2023-05-19,2023-05-19,株式会社ＳＲＧ埼玉,,株式会社,埼玉県,さいたま市岩槻区,大字浮谷２６６５番地６,,11,110,3390037,,,,,,,2023-05-19,1,,,,,エスアールジーサイタマ,0
1237,5030003021762,新規,0,2023-05-19,2023-05-19,合同会社シダーハウス,,合同会社,埼玉県,さいたま市緑区,東浦和２丁目６番地１（２１０）,,11,109,3360926,,,,,,,2023-05-19,1,,,,,シダーハウス,0
1238,5030003021770,新規,0,2023-05-19,2023-05-19,合同会社ＴＡＣ．ｍｏｄｅ,,合同会社,埼玉県,久喜市,本町２丁目１６番３８号コスモコート２０２,,11,232,3460005,,,,,,,2023-05-19,1,,,,,ティーエーシーモード,0
1243,5040001128501,新規,0,2023-05-19,2023-05-19,株式会社いっぽ,,株式会社,千葉県,船橋市,本町６丁目１４－１サーパス船橋本町２０５号室,,12,204,2730005,,,,,,,2023-05-19,1,,,,,イッポ,0
1248,5040003022644,新規,0,2023-05-19,2023-05-19,ケイファクトリー合同会社,,合同会社,千葉県,船橋市,前原西２丁目１４番１－７０９号,,12,204,2740825,,,,,,,2023-05-19,1,,,,,ケイファクトリー,0
1249,5040003022660,新規,0,2023-05-19,2023-05-19,合同会社エイトリックモーターズ,,合同会社,千葉県,船橋市,芝山３丁目３０番１４－１０３,,12,204,2740816,,,,,,,2023-05-19,1,,,,,エイトリックモーターズ,0
1253,5050001052865,新規,0,2023-05-19,2023-05-19,株式会社狩人,,株式会社,茨城県,つくば市,花畑１丁目１番地４９永和ハイツ１０１号,,08,220,3003261,,,,,,,2023-05-19,1,,,,,カリウド,0
1259,5060003004566,新規,0,2023-05-19,2023-05-19,ヤマサン合同会社,,合同会社,栃木県,鹿沼市,口粟野５７３番地,,09,205,3220305,,,,,,,2023-05-19,1,,,,,ヤマサン,0
1263,5070001040471,新規,0,2023-05-19,2023-05-19,株式会社アグリインパック,,株式会社,群馬県,太田市,阿久津町７９１番地,,10,205,3700402,,,,,,,2023-05-19,1,,,,,アグリインパック,0
1264,5080001025629,新規,0,2023-05-19,2023-05-19,リブロ・プロパティエージェント株式会社,,株式会社,静岡県,静岡市駿河区,中田１丁目１番８号リブロＢＬＤＧ．３Ｆ,,22,102,4228041,,,,,,,2023-05-19,1,,,,,リブロプロパティエージェント,0
1266,5080101024010,新規,0,2023-05-19,2023-05-19,株式会社小鉄商会,,株式会社,静岡県,富士宮市,宮原３７５番地の７,,22,207,4180005,,,,,,,2023-05-19,1,,,,,コテツショウカイ,0
1267,5080103002807,新規,0,2023-05-19,2023-05-19,合同会社福禄寿,,合同会社,静岡県,沼津市,下河原町３丁目８番地の２,,22,203,4100841,,,,,,,2023-05-19,1,,,,,フクロクジュ,0
1268,5080401026490,新規,0,2023-05-19,2023-05-19,株式会社メイヤロフ,,株式会社,静岡県,菊川市,堀之内１１０番地の１－１０３,,22,224,4390006,,,,,,,2023-05-19,1,,,,,メイヤロフ,0
1269,5080403004791,新規,0,2023-05-19,2023-05-19,合同会社ノーライ,,合同会社,静岡県,浜松市北区,初生町１２４６番地の５プライムハイツＡ２０３,,22,135,4338112,,,,,,,2023-05-19,1,,,,,ノーライ,0
1273,5100001036425,新規,0,2023-05-19,2023-05-19,株式会社シンワアソシエーション,,株式会社,長野県,伊那市,荒井３３９２番地４,,20,209,3960025,,,,,,,2023-05-19,1,,,,,シンワアソシエーション,0
1287,5120001254990,新規,0,2023-05-19,2023-05-19,山奈株式会社,,株式会社,大阪府,大阪市浪速区,元町３丁目１１－９－１０４号室,,27,111,5560016,,,,,,,2023-05-19,1,,,,,ヤマナ,0
1288,5120001255048,新規,0,2023-05-19,2023-05-19,株式会社ＷＩＮＤｒｉｖｅ,,株式会社,大阪府,大阪市都島区,友渕町１丁目５番１０号,,27,102,5340016,,,,,,,2023-05-19,1,,,,,ウインドライブ,0
1289,5120001255072,新規,0,2023-05-19,2023-05-19,＿諾国際株式会社,00130549,株式会社,大阪府,大阪市西成区,岸里東１丁目１０－７－１０１室,,27,122,5570042,,,,,,,2023-05-19,1,,,,,キンタクコクサイ,0
1293,5120003024112,新規,0,2023-05-19,2023-05-19,合同会社民‐ｐａｃｔ,,合同会社,大阪府,大阪市福島区,福島２丁目１０番１９号メガロコープ福島１３１５号室,,27,103,5530003,,,,,,,2023-05-19,1,,,,,ミンパクト,0
1294,5120005023616,新規,0,2023-05-19,2023-05-19,農事組合法人ファームテクノパーク,,その他の設立登記法人,大阪府,守口市,八雲中町２丁目７番３３号,,27,209,5700005,,,,,,,2023-05-19,1,,,,,ファームテクノパーク,0
1296,5120101067558,新規,0,2023-05-19,2023-05-19,株式会社ＲＹＯＳＨＩＮ,,株式会社,大阪府,泉大津市,曽根町１丁目１番６号,,27,206,5950011,,,,,,,2023-05-19,1,,,,,リョウシン,0
1297,5120101067566,新規,0,2023-05-19,2023-05-19,マーガレット株式会社,,株式会社,大阪府,河内長野市,栄町７番１０号栄町フラッツ１０３,,27,216,5860032,,,,,,,2023-05-19,1,,,,,マーガレット,0
1298,5120103005227,新規,0,2023-05-19,2023-05-19,ＥＣＯ　ＬＩＦＥ合同会社,,合同会社,大阪府,堺市堺区,緑ヶ丘南町４丁２－２３豊幸ハイツ１０１,,27,141,5900804,,,,,,,2023-05-19,1,,,,,エコーライフ,0
1300,5120901047536,新規,0,2023-05-19,2023-05-19,イーグル株式会社,,株式会社,大阪府,豊中市,春日町３丁目７番４５号１Ｆ,,27,203,5600052,,,,,,,2023-05-19,1,,,,,イーグル,0
1301,5120905006463,新規,0,2023-05-19,2023-05-19,一般社団法人福祉人材育成会,,その他の設立登記法人,大阪府,高槻市,寿町３丁目５番１２号,,27,207,5690826,,,,,,,2023-05-19,1,,,,,フクシジンザイイクセイカイ,0
1302,5122001036989,新規,0,2023-05-19,2023-05-19,零度科技株式会社,,株式会社,大阪府,東大阪市,上石切町２丁目１２番１４号,,27,227,5798012,,,,,,,2023-05-19,1,,,,,レイドカギ,0
1309,5140001130224,新規,0,2023-05-19,2023-05-19,ＭＫ　ｃｏｍｐａｎｙ株式会社,,株式会社,兵庫県,尼崎市,次屋１丁目２３番２５号,,28,202,6610965,,,,,,,2023-05-19,1,,,,,エムケーカンパニー,0
1312,5140003019110,新規,0,2023-05-19,2023-05-19,合同会社大結電機工業,,合同会社,兵庫県,姫路市,四郷町中鈴１０１－３,,28,201,6710242,,,,,,,2023-05-19,1,,,,,ダイユウデンキコウギョウ,0
1317,5160001025059,新規,0,2023-05-19,2023-05-19,株式会社奥嶋興業,,株式会社,滋賀県,湖南市,石部西１丁目９番５０号,,25,211,5203105,,,,,,,2023-05-19,1,,,,,オクジマコウギョウ,0
1327,5180001156307,新規,0,2023-05-19,2023-05-19,株式会社ボディーショップＫ’ｓ,,株式会社,愛知県,半田市,瑞穂町３丁目３－５,,23,205,4750828,,,,,,,2023-05-19,1,,,,,ボディーショップケイズ,0
1328,5180001156372,新規,0,2023-05-19,2023-05-19,株式会社Ｃｅｎｔｕｒｉｏｎ　Ｇｒｏｕｐ,,株式会社,愛知県,名古屋市中区,丸の内３丁目１６番１９号,,23,106,4600002,,,,,,,2023-05-19,1,,,,,センチュリオングループ,0
1329,5180001156380,新規,0,2023-05-19,2023-05-19,株式会社アズワークス,,株式会社,愛知県,名古屋市千種区,千種２丁目２４番２号（千種タワーヒルズ６０３号）,,23,101,4640858,,,,,,,2023-05-19,1,,,,,アズワークス,0
1330,5180001156389,新規,0,2023-05-19,2023-05-19,株式会社豊海,,株式会社,愛知県,名古屋市中村区,名駅３丁目２番４号,,23,105,4500002,,,,,,,2023-05-19,1,,,,,ユタカウミ,0
1332,5180003025245,新規,0,2023-05-19,2023-05-19,合同会社おおきに,,合同会社,愛知県,名古屋市北区,成願寺２丁目２番１５号,,23,103,4620021,,,,,,,2023-05-19,1,,,,,オオキニ,0
1333,5180301037396,新規,0,2023-05-19,2023-05-19,株式会社ゆき屋ＣｏｎＣｏｎ,,株式会社,愛知県,刈谷市,住吉町１丁目４５番地,,23,210,4480852,,,,,,,2023-05-19,1,,,,,ユキヤコンコン,0
1340,5200003005962,新規,0,2023-05-19,2023-05-19,合同会社フライハイト,,合同会社,岐阜県,関市,西福野町１丁目２－２３,,21,205,5013244,,,,,,,2023-05-19,1,,,,,フライハイト,0
1344,5230001019846,新規,0,2023-05-19,2023-05-19,ミライ株式会社,,株式会社,富山県,高岡市,上黒田２５７番地,,16,202,9330853,,,,,,,2023-05-19,1,,,,,ミライ,0
1349,5250001020109,新規,0,2023-05-19,2023-05-19,株式会社松永,,株式会社,山口県,宇部市,大字西岐波２７５７番地４,,35,202,7550151,,,,,,,2023-05-19,1,,,,,マツナガ,0
1357,5290001101581,新規,0,2023-05-19,2023-05-19,Ｄｉｇｉｔａｌ　Ｈｏｏｄ株式会社,,株式会社,福岡県,福岡市博多区,冷泉町二丁目９号クレアランドマーク３０５－８８８,,40,132,8120039,,,,,,,2023-05-19,1,,,,,デジタルフード,0
1367,5330001030875,新規,0,2023-05-19,2023-05-19,コアサポート株式会社,,株式会社,熊本県,熊本市南区,近見６丁目１番１５号,,43,104,8614101,,,,,,,2023-05-19,1,,,,,コアサポート,0
1374,5340001025593,新規,0,2023-05-19,2023-05-19,株式会社久保建工,,株式会社,鹿児島県,鹿児島市,下福元町９２４８番地３,,46,201,8910144,,,,,,,2023-05-19,1,,,,,クボケンコウ,0
1379,5360001032051,新規,0,2023-05-19,2023-05-19,ＬＩＦＥ　ＩＳ　ＡＲＴ株式会社,,株式会社,沖縄県,豊見城市,字座安１５０番地１号,,47,212,9010221,,,,,,,2023-05-19,1,,,,,ライフイズアート,0
1380,5370001049986,新規,0,2023-05-19,2023-05-19,株式会社ハーベスト,,株式会社,宮城県,富谷市,富ケ丘２丁目２７番１８号,,04,216,9813352,,,,,,,2023-05-19,1,,,,,ハーベスト,0
1381,5370001049994,新規,0,2023-05-19,2023-05-19,雅建設株式会社,,株式会社,宮城県,仙台市泉区,実沢字立田屋敷１３番地の１,,04,105,9813217,,,,,,,2023-05-19,1,,,,,ミヤビケンセツ,0
1387,5380001033709,新規,0,2023-05-19,2023-05-19,株式会社ネオセテカ,,株式会社,福島県,いわき市,好間町下好間字一町坪６８番地１,,07,204,9701151,,,,,,,2023-05-19,1,,,,,ネオセテカ,0
1391,5390005009010,新規,0,2023-05-19,2023-05-19,一般社団法人鶴岡メディカル・ヴィレッジ開発機構,,その他の設立登記法人,山形県,鶴岡市,羽黒町川代字下川代２６０番地,,06,203,9970131,,,,,,,2023-05-19,1,,,,,ツルオカメデイカルヴィレッジカイハツキコウ,0
1393,5420001018267,新規,0,2023-05-19,2023-05-19,株式会社オリーブ,,株式会社,青森県,八戸市,根城７丁目８番１６－１号,,02,203,0391166,,,,,,,2023-05-19,1,,,,,オリーブ,0
1401,5470001019624,新規,0,2023-05-19,2023-05-19,株式会社ＹＵＫＥＮ,,株式会社,香川県,高松市,桜町２丁目１５番４１号,,37,201,7600074,,,,,,,2023-05-19,1,,,,,ユウケン,0
1411,5700150116280,新規,0,2023-05-19,2023-05-19,Ｓｈｅｎｚｈｅｎ　Ｄｏｎｇｔａｏ　Ｌｅａｔｈｅｒ　Ｌｔｄ,,外国会社等,,,,,,,,Ｒｏｏｍ７１２，Ｈｕａｌｉａｎｆａ　Ｂｕｉｌｄｉｎｇ　Ｈｕａｑｉａｎｇｂｅｉ　Ｄｉｓｔｒｉｃｔ，ＦｕｔｉａｎＳｈｅｎｚｈｅｎ,,,,,,2023-05-19,1,,,,,シンセンドンタォウレザーリミテッド,0
1412,5700150116289,新規,0,2023-05-19,2023-05-19,ｓｈｅｎｚｈｅｎｓｈｉ　ｍｅｎｇｄｅｋｏｎｇｙｕｎ　ｙｏｕｘｉａｎｇｏｎｇｓｉ,,外国会社等,,,,,,,,Ｆｅｎｇｙｉｌｕ１０ｈａｏ　１００５，Ｌｏｎｇｙｕａｎｓｈｅｑｕ，Ｌｏｎｇｈｕａｊｉｅｄａｏ，ｓｈｅｎｚｈｅｎｓｈｉ　ｌｏｎｇｈｕａｑｕ,,,,,,2023-05-19,1,,,,,シンセンシメンデコンユンユウゲンコウシ,0
1420,6010001235448,新規,0,2023-05-19,2023-05-19,株式会社ヒバナテクノロジー,,株式会社,東京都,中央区,銀座１丁目１２番４号Ｎ＆ＥＢＬＤ．６Ｆ,,13,102,1040061,,,,,,,2023-05-19,1,,,,,ヒバナテクノロジー,0
1422,6010003040631,新規,0,2023-05-19,2023-05-19,スプリング・アドバイザーズ合同会社,,合同会社,東京都,中央区,京橋１丁目１４番９号成願会計事務所内,,13,102,1040031,,,,,,,2023-05-19,1,,,,,スプリングアドバイザーズ,0
1427,6010401173702,新規,0,2023-05-19,2023-05-19,株式会社ＩＲＯＩＲＯ,,株式会社,東京都,港区,麻布十番１丁目５番１０号,,13,103,1060045,,,,,,,2023-05-19,1,,,,,イロイロ,0
1428,6010401174469,新規,0,2023-05-19,2023-05-19,株式会社ｕｎｌｏｃｋ．ｌｙ３号,,株式会社,東京都,港区,芝浦４丁目２２番１－２９１０号,,13,103,1080023,,,,,,,2023-05-19,1,,,,,アンロックリーサンゴウ,0
1431,6010405022153,新規,0,2023-05-19,2023-05-19,ＭＦＴＪＰＮ９特定目的会社,,その他の設立登記法人,東京都,港区,虎ノ門３丁目２２番１０－２０１号,,13,103,1050001,,,,,,,2023-05-19,1,,,,,エムエフティージェイピーエヌナイン,0
1434,6010501050479,新規,0,2023-05-19,2023-05-19,スケールマーケティング株式会社,,株式会社,東京都,台東区,松が谷３丁目４－１２ラフェリーチェ１０１,,13,106,1110036,,,,,,,2023-05-19,1,,,,,スケールマーケティング,0
1436,6010601063125,新規,0,2023-05-19,2023-05-19,サヴァイブホースレーシング株式会社,,株式会社,東京都,墨田区,東向島５丁目３番１３号１Ｆ,,13,107,1310032,,,,,,,2023-05-19,1,,,,,サヴァイブホースレーシング,0
1446,6010903008182,新規,0,2023-05-19,2023-05-19,Ａｐｒｉｃｅｂｏ合同会社,,合同会社,東京都,世田谷区,太子堂２丁目７番２６号,,13,112,1540004,,,,,,,2023-05-19,1,,,,,アプリシボ,0
1452,6011003016860,新規,0,2023-05-19,2023-05-19,Ｔ　Ｓ　Ｅｎｔｅｒｐｒｉｓｅ合同会社,,合同会社,東京都,渋谷区,道玄坂１丁目１０番８号渋谷道玄坂東急ビル２Ｆ－Ｃ,,13,113,1500043,,,,,,,2023-05-19,1,,,,,ティーエスエンタープライズ,0
1458,6011101102918,新規,0,2023-05-19,2023-05-19,株式会社プラナビ,,株式会社,東京都,新宿区,西新宿３丁目３番１３号西新宿水間ビル６階,,13,104,1600023,,,,,,,2023-05-19,1,,,,,プラナビ,0
1460,6011201024649,新規,0,2023-05-19,2023-05-19,循環株式会社,,株式会社,東京都,中野区,新井５丁目２－３,,13,114,1650026,,,,,,,2023-05-19,1,,,,,ジュンカン,0
1462,6011301028723,新規,0,2023-05-19,2023-05-19,株式会社ヒロデン,,株式会社,東京都,杉並区,成田西２丁目２１番１５号,,13,115,1660016,,,,,,,2023-05-19,1,,,,,ヒロデン,0
1464,6011401025141,新規,0,2023-05-19,2023-05-19,株式会社アサコー,,株式会社,東京都,板橋区,蓮根３丁目１５番１－２２８号,,13,119,1740046,,,,,,,2023-05-19,1,,,,,アサコー,0
1468,6011601026807,新規,0,2023-05-19,2023-05-19,株式会社英才教育学院,,株式会社,東京都,練馬区,旭丘１丁目６９番５号ヴィラ・ワコー４０２,,13,120,1760005,,,,,,,2023-05-19,1,,,,,エイサイキョウイクガクイン,0
1471,6011603003928,新規,0,2023-05-19,2023-05-19,合同会社ひまわり,,合同会社,東京都,練馬区,上石神井２丁目３１番４３号－３,,13,120,1770044,,,,,,,2023-05-19,1,,,,,ヒマワリ,0
1473,6011701026252,新規,0,2023-05-19,2023-05-19,ＹＯＬＯＮ株式会社,,株式会社,東京都,江戸川区,平井４丁目５番４号ハピネス平井３０２,,13,123,1320035,,,,,,,2023-05-19,1,,,,,ヨーロン,0
1474,6011703003472,新規,0,2023-05-19,2023-05-19,ＴｏｗｅｒＨｉｌｌ合同会社,,合同会社,東京都,江戸川区,清新町１丁目４－７－１２０５,,13,123,1340087,,,,,,,2023-05-19,1,,,,,タワーヒル,0
1490,6020001151669,新規,0,2023-05-19,2023-05-19,株式会社ＮＯＭＡＲＫ,,株式会社,神奈川県,横浜市港北区,岸根町４１３番地１モチヤレジデンスＩ－Ａ,00130550,14,109,2220034,,,,,,,2023-05-19,1,,,,,ノーマーク,0
1497,6020005016001,新規,0,2023-05-19,2023-05-19,医療法人悠昂会,,その他の設立登記法人,神奈川県,横浜市青葉区,美しが丘西２丁目１１－６アルファ保野坂１Ｆ,,14,117,2250001,,,,,,,2023-05-19,1,,,,,ユウコウカイ,0
1499,6021001079082,新規,0,2023-05-19,2023-05-19,ＮＭＮＬ株式会社,,株式会社,神奈川県,藤沢市,片瀬海岸２丁目１３番１４号,,14,205,2510035,,,,,,,2023-05-19,1,,,,,エヌエムエヌエル,0
1500,6021001079108,新規,0,2023-05-19,2023-05-19,株式会社リゾートデザイン,,株式会社,神奈川県,藤沢市,弥勒寺３丁目１番１－１０５号,,14,205,2510016,,,,,,,2023-05-19,1,,,,,リゾートデザイン,0
1508,6030001153879,新規,0,2023-05-19,2023-05-19,株式会社多丸商事,,株式会社,埼玉県,所沢市,大字上安松１２３７番地の６,,11,208,3590025,,,,,,,2023-05-19,1,,,,,カズマルショウジ,0
1521,6040001128459,新規,0,2023-05-19,2023-05-19,株式会社ＳＥＫＩ　ＰＡＲＴＮＥＲＳ,,株式会社,千葉県,松戸市,緑ケ丘１丁目８０番地,,12,207,2710074,,,,,,,2023-05-19,1,,,,,セキパートナーズ,0
1522,6040001128483,新規,0,2023-05-19,2023-05-19,アッキーズジャパン株式会社,,株式会社,千葉県,浦安市,入船１丁目８番１－１６０１号エアレジデンス新浦安,,12,227,2790012,,,,,,,2023-05-19,1,,,,,アッキーズジャパン,0
1527,6040003022635,新規,0,2023-05-19,2023-05-19,ＴＨＢ合同会社,,合同会社,千葉県,市川市,幸１丁目１６番２６号,,12,203,2720123,,,,,,,2023-05-19,1,,,,,ティーエイチビー,0
1528,6040003022643,新規,0,2023-05-19,2023-05-19,エムエスワイカンパニー合同会社,,合同会社,千葉県,我孫子市,柴崎台３丁目５番２０－３０３号スクウェア小池,,12,222,2701176,,,,,,,2023-05-19,1,,,,,エムエスワイカンパニー,0
1529,6040003022651,新規,0,2023-05-19,2023-05-19,ジアンサーデザインズ合同会社,,合同会社,千葉県,茂原市,道表８番地４,,12,210,2970028,,,,,,,2023-05-19,1,,,,,ジアンサーデザインズ,0
1531,6050001052856,新規,0,2023-05-19,2023-05-19,株式会社ＴＡＴ,,株式会社,茨城県,日立市,川尻町３丁目６５番６号,,08,202,3191411,,,,,,,2023-05-19,1,,,,,タット,0
1532,6050001052872,新規,0,2023-05-19,2023-05-19,株式会社ＮＥＵＲＯ　ＨＯＬＤＩＮＧＳ,,株式会社,茨城県,下妻市,原字堤根１７８９番,,08,210,3040816,,,,,,,2023-05-19,1,,,,,ニューロホールディングス,0
1535,6060003004565,新規,0,2023-05-19,2023-05-19,合同会社ＶＪ　Ｂｒｉｄｇｅ,,合同会社,栃木県,下野市,緑５丁目８番地９,,09,216,3290433,,,,,,,2023-05-19,1,,,,,ヴイジェイブリッジ,0
1537,6070001040470,新規,0,2023-05-19,2023-05-19,ｒｅｖｅ株式会社,,株式会社,群馬県,太田市,飯田町１１６４番地２松坂ビル１Ｆ,,10,205,3730851,,,,,,,2023-05-19,1,,,,,レーブ,0
1548,6110001037553,新規,0,2023-05-19,2023-05-19,株式会社コハチ,,株式会社,新潟県,新潟市北区,内島見９０９番地３,,15,101,9503306,,,,,,,2023-05-19,1,,,,,コハチ,0
1554,6120001254957,新規,0,2023-05-19,2023-05-19,株式会社ＫＲＳ,,株式会社,大阪府,大阪市中央区,上町１丁目６番６－１１０４号,,27,128,5400005,,,,,,,2023-05-19,1,,,,,ケーアールエス,0
1555,6120001254998,新規,0,2023-05-19,2023-05-19,威翔運送株式会社,,株式会社,大阪府,大阪市北区,西天満３丁目８番４－１０２号,,27,127,5300047,,,,,,,2023-05-19,1,,,,,タケショウウンソウ,0
1556,6120001255006,新規,0,2023-05-19,2023-05-19,株式会社もぐらコネクト,,株式会社,大阪府,大阪市東淀川区,東中島１丁目２１番２－６０１号,,27,114,5330033,,,,,,,2023-05-19,1,,,,,モグラコネクト,0
1557,6120001255022,新規,0,2023-05-19,2023-05-19,株式会社森本ハウジング,,株式会社,大阪府,寝屋川市,北大利町１７番１－２号,,27,215,5720032,,,,,,,2023-05-19,1,,,,,モリモトハウジング,0
1558,6120001255071,新規,0,2023-05-19,2023-05-19,株式会社Ｄ,,株式会社,大阪府,大阪市中央区,高津１丁目１番４４号ブランシャトー高津８０１号,,27,128,5420072,,,,,,,2023-05-19,1,,,,,ディー,0
1563,6120003024103,新規,0,2023-05-19,2023-05-19,ＹＯＧ　Ｃｏｎｓｕｌｔｉｎｇ合同会社,,合同会社,大阪府,大阪市北区,梅田１丁目２番２号大阪駅前第２ビル１２－１２,,27,127,5300001,,,,,,,2023-05-19,1,,,,,ワイオージーコンサルティング,0
1564,6120101067565,新規,0,2023-05-19,2023-05-19,新日株式会社,,株式会社,大阪府,富田林市,向陽台５丁目４番７号２０２号室,,27,214,5840082,,,,,,,2023-05-19,1,,,,,シンニチ,0
1565,6120101067573,新規,0,2023-05-19,2023-05-19,株式会社ＷＡＶＥ,,株式会社,大阪府,堺市東区,北野田２２番地１,,27,143,5998123,,,,,,,2023-05-19,1,,,,,ウェーブ,0
1575,6130001074339,新規,0,2023-05-19,2023-05-19,株式会社蓮,,株式会社,京都府,亀岡市,篠町馬堀南垣内２１番３７号,,26,206,6210823,,,,,,,2023-05-19,1,,,,,レン,0
1576,6130003008732,新規,0,2023-05-19,2023-05-19,合同会社Ｓｍｏｏｔｈｉｅ　Ｂｒｅｅｚｙ,,合同会社,京都府,京都市下京区,朱雀宝蔵町４４番地協栄ビル２階京都朱雀スタジオ,,26,106,6008846,,,,,,,2023-05-19,1,,,,,スムージーブリーズイー,0
1585,6140003019101,新規,0,2023-05-19,2023-05-19,合同会社ＬｉｎｅＣｌｏｕｄ,,合同会社,兵庫県,神戸市中央区,磯辺通１丁目１番１８号カサベラ国際プラザビル７０７号室,,28,110,6510084,,,,,,,2023-05-19,1,,,,,ラインクラウド,0
1587,6140005026624,新規,0,2023-05-19,2023-05-19,一般社団法人澄佳会,,その他の設立登記法人,兵庫県,神戸市中央区,北長狭通５丁目１番２号太陽ビル６Ｆ６０１号室,,28,110,6500012,,,,,,,2023-05-19,1,,,,,チョウケイカイ,0
1590,6150001026412,新規,0,2023-05-19,2023-05-19,株式会社幸,,株式会社,奈良県,生駒市,真弓南１丁目１２－６,,29,209,6300123,,,,,,,2023-05-19,1,,,,,サチ,0
1595,6160001025058,新規,0,2023-05-19,2023-05-19,月華株式会社,,株式会社,滋賀県,大津市,茶が崎６－１,,25,201,5200023,,,,,,,2023-05-19,1,,,,,ゲッカ,0
1603,6180001156090,新規,0,2023-05-19,2023-05-19,シナノテック株式会社,,株式会社,愛知県,大府市,横根町新江１５番地２０,,23,223,4740011,,,,,,,2023-05-19,1,,,,,シナノテック,0
1604,6180001156330,新規,0,2023-05-19,2023-05-19,株式会社フラットファイブ,,株式会社,愛知県,名古屋市中区,栄３丁目７番２３号,,23,106,4600008,,,,,,,2023-05-19,1,,,,,フラットファイブ,0
1605,6180001156371,新規,0,2023-05-19,2023-05-19,株式会社たけ,,株式会社,愛知県,名古屋市中区,丸の内１丁目５番１１号丸の内サントクビル４Ｆ,,23,106,4600002,,,,,,,2023-05-19,1,,,,,タケ,0
1606,6180001156396,新規,0,2023-05-19,2023-05-19,株式会社セルーバ,,株式会社,愛知県,名古屋市中区,栄３丁目１１番２３号白川本町ビル１階,,23,106,4600008,,,,,,,2023-05-19,1,,,,,セルーバ,0
1612,6180003025228,新規,0,2023-05-19,2023-05-19,合同会社うさぎ屋,,合同会社,愛知県,半田市,堀崎町２丁目１番地,,23,205,4750851,,,,,,,2023-05-19,1,,,,,ウサギヤ,0
1619,6200001041331,新規,0,2023-05-19,2023-05-19,ｃｋｍｔ株式会社,,株式会社,岐阜県,岐阜市,北野東８１１番地,,21,201,5012512,,,,,,,2023-05-19,1,,,,,シーケーエムティー,0
1628,6240003006147,新規,0,2023-05-19,2023-05-19,合同会社Ｎｅｘｕｍ,,合同会社,広島県,尾道市,山波町４０６番２号,,34,205,7220052,,,,,,,2023-05-19,1,,,,,ネクサム,0
1630,6250001020099,新規,0,2023-05-19,2023-05-19,株式会社パンサラッサ,,株式会社,山口県,下関市,入江町３番１２号,,35,201,7500013,,,,,,,2023-05-19,1,,,,,パンサラッサ,0
1631,6250005008826,新規,0,2023-05-19,2023-05-19,農事組合法人四本松,,その他の設立登記法人,山口県,山陽小野田市,大字郡２３２番地,,35,216,7570002,,,,,,,2023-05-19,1,,,,,シホンマツ,0
1638,6290001101580,新規,0,2023-05-19,2023-05-19,株式会社新・守田工務店,,株式会社,福岡県,福岡市中央区,大名２丁目１番１７号,,40,133,8100041,,,,,,,2023-05-19,1,,,,,シンマモリタコウムテン,0
1639,6290001101589,新規,0,2023-05-19,2023-05-19,株式会社候鳥,,株式会社,福岡県,糟屋郡粕屋町,大字仲原２５３０番地１,,40,349,8112304,,,,,,,2023-05-19,1,,,,,コウチョウ,0
1640,6290001101597,新規,0,2023-05-19,2023-05-19,株式会社Ｋ,,株式会社,福岡県,久留米市,津福本町１６６１－３ＭＡＲＫＳＦＯＲＴ１００号,,40,203,8300047,,,,,,,2023-05-19,1,,,,,ケイ,0
1656,6370001049977,新規,0,2023-05-19,2023-05-19,株式会社一惠堂,,株式会社,宮城県,栗原市,築館伊豆１丁目６番２０号１階,,04,213,9872216,,,,,,,2023-05-19,1,,,,,イチエドウ,0
1657,6370003006142,新規,0,2023-05-19,2023-05-19,合同会社ＭＩＴＳＵＫＩ,,合同会社,宮城県,仙台市太白区,茂庭台４丁目３番１０－３０２号,,04,104,9820252,,,,,,,2023-05-19,1,,,,,ミツキ,0
1662,6400003003086,新規,0,2023-05-19,2023-05-19,合同会社Ｌｉｎｋ,,合同会社,岩手県,北上市,村崎野１８地割２９７番地７０,,03,206,0240004,,,,,,,2023-05-19,1,,,,,リンク,0
1665,6430003014972,新規,0,2023-05-19,2023-05-19,合同会社ポットデ,,合同会社,北海道,岩内郡岩内町,字御崎３番地２０,,01,402,0450026,,,,,,,2023-05-19,1,,,,,ポットデ,0
1666,6470001019623,新規,0,2023-05-19,2023-05-19,株式会社Ｊ‐ＲＥＸ,,株式会社,香川県,高松市,香川町川東上１２１３番地７,,37,201,7611706,,,,,,,2023-05-19,1,,,,,ジェイレックス,0
1673,6700150116288,新規,0,2023-05-19,2023-05-19,ｇｕａｎｇｚｈｏｕｓｈｉ　ｂａｑｉａｎｌｉｋｅｊｉ　ｙｏｕｘｉａｎｇｏｎｇｓｉ,,外国会社等,,,,,,,,ｎａｎｓｈａｊｉｅｊｉｎｇａｎｇｄａｄａｏ８ｈａｏ　２３０１ｆａｎｇＡ９３（ｊｉｎｘｉａｎｂａｎｇｏｎｇ）ｇｕａｎｇｚｈｏｕｓｈｉ　ｎａｎｓｈａｑｕ　ｇｕａｎｇｄｏｎｇｓｈｅｎｇ,,,,,,2023-05-19,1,,,,,グァンゾォウシバチェンリケジユウゲンコウシ,0
1681,7010001235406,新規,0,2023-05-19,2023-05-19,株式会社カプセルコーポレーション・トーキョー,,株式会社,東京都,千代田区,九段南１丁目６番５号九段会館テラス１Ｆ,,13,101,1020074,,,,,,,2023-05-19,1,,,,,カプセルコーポレーショントーキョー,0
1682,7010001235422,新規,0,2023-05-19,2023-05-19,Ａｎｔａｌｐｈａ　Ｔｅｃｈｎｏｌｏｇｉｅｓ株式会社,,株式会社,東京都,中央区,京橋２丁目２番１号京橋エドグラン２６階,,13,102,1040031,,,,,,,2023-05-19,1,,,,,アンタルファテクノロジーズ,0
1683,7010001235439,新規,0,2023-05-19,2023-05-19,株式会社Ｔ２パートナーズ,,株式会社,東京都,中央区,銀座４丁目２番１５号塚本素山ビル６階,,13,102,1040061,,,,,,,2023-05-19,1,,,,,ティーツーパートナーズ,0
1684,7010001235447,新規,0,2023-05-19,2023-05-19,Ｃｅｎｔｒａｌ　Ｎａｔｉｏｎａｌ　Ｊａｐａｎ株式会社,,株式会社,東京都,千代田区,紀尾井町３番１２号紀尾井町ビル８階,,13,101,1020094,,,,,,,2023-05-19,1,,,,,セントラルナショナルジャパン,0
1688,7010003040630,新規,0,2023-05-19,2023-05-19,合同会社エスジーシー,,合同会社,東京都,中央区,月島１丁目５番１－４７０１号,,13,102,1040052,,,,,,,2023-05-19,1,,,,,エスジーシー,0
1689,7010003040639,新規,0,2023-05-19,2023-05-19,大青貿易合同会社,,合同会社,東京都,千代田区,和泉町１－７－１４,,13,101,1000000,,,,,,,2023-05-19,1,,,,,タイセイボウエキ,0
1701,7010401174427,新規,0,2023-05-19,2023-05-19,株式会社Ｌｉｆｅ　Ｉｎｎｏｖａｔｉｏｎ,,株式会社,東京都,港区,西新橋３丁目５番９号ＨＯＹＯ新虎ビル８階,,13,103,1050003,,,,,,,2023-05-19,1,,,,,ライフイノベーション,0
1702,7010401174476,新規,0,2023-05-19,2023-05-19,株式会社Ｇｒｏｗ‐Ｆｉｎｅ,,株式会社,東京都,港区,港南１丁目９番３６号ＮＴＴＤＡＴＡ品川ビル１３階,,13,103,1080075,,,,,,,2023-05-19,1,,,,,グロウファイン,0
1704,7010403030124,新規,0,2023-05-19,2023-05-19,ＩＦ資産管理合同会社,,合同会社,東京都,港区,西新橋１丁目１９番８号虎ノ門ＳＥ５階,,13,103,1050003,,,,,,,2023-05-19,1,,,,,アイエフシサンカンリ,0
1707,7010405022111,新規,0,2023-05-19,2023-05-19,一般財団法人東亜道路工業協奏財団,,その他の設立登記法人,東京都,港区,六本木７丁目３番７号,,13,103,1060032,,,,,,,2023-05-19,1,,,,,トウアドウロコウギョウキョウソウザイダン,0
1713,7010601063124,新規,0,2023-05-19,2023-05-19,株式会社シマケン,,株式会社,東京都,江東区,北砂５丁目２０番５－９１５号,,13,108,1360073,,,,,,,2023-05-19,1,,,,,シマケン,0
1719,7010803004553,新規,0,2023-05-19,2023-05-19,リムメディア合同会社,,合同会社,東京都,大田区,田園調布２丁目９番１５号,,13,111,1450071,,,,,,,2023-05-19,1,,,,,リムメディア,0
1721,7010901053072,新規,0,2023-05-19,2023-05-19,株式会社Ｓｉｍｐｌｅ　Ｗｏｒｋｏｕｔ,,株式会社,東京都,世田谷区,中町５丁目２６番１２‐７０１号,,13,112,1580091,,,,,,,2023-05-19,1,,,,,シンプルワークアウト,0
1722,7010901053080,新規,0,2023-05-19,2023-05-19,株式会社ＹＡＴ,,株式会社,東京都,世田谷区,三宿２丁目１０番５号,,13,112,1540005,,,,,,,2023-05-19,1,,,,,ワイエイティ,0
1734,7011101102917,新規,0,2023-05-19,2023-05-19,株式会社トレンドライン,,株式会社,東京都,新宿区,西新宿３丁目３番１３号西新宿水間ビル２階,,13,104,1600023,,,,,,,2023-05-19,1,,,,,トレンドライン,0
1735,7011101102933,新規,0,2023-05-19,2023-05-19,株式会社合屋,,株式会社,東京都,新宿区,大久保３丁目８番１－２５０４号,,13,104,1690072,,,,,,,2023-05-19,1,,,,,ゴウヤ,0
1736,7011103013039,新規,0,2023-05-19,2023-05-19,東洋合同会社,,合同会社,東京都,新宿区,高田馬場１丁目１８－２４,,13,104,1690075,,,,,,,2023-05-19,1,,,,,トウヨウ,0
1737,7011103013063,新規,0,2023-05-19,2023-05-19,ＡｌｆｏＭｕ合同会社,,合同会社,東京都,新宿区,西新宿３丁目３番１３号西新宿水間ビル６階,,13,104,1600023,,,,,,,2023-05-19,1,,,,,アルフォミュ,0
1739,7011201024648,新規,0,2023-05-19,2023-05-19,株式会社Ａｐｏ＆Ｌｉｌｌｙ,,株式会社,東京都,中野区,南台１丁目４番７－７０２号,,13,114,1640014,,,,,,,2023-05-19,1,,,,,アポアンドリリー,0
1748,7011801042421,新規,0,2023-05-19,2023-05-19,株式会社ＳＩＤＥＳＥＡＭＳ,,株式会社,東京都,足立区,花畑６丁目１２番２０号第１３４新井ビル１０２号室,,13,121,1210061,,,,,,,2023-05-19,1,,,,,サイドシームス,0
1764,7013305003478,新規,0,2023-05-19,2023-05-19,一般社団法人めとて,,その他の設立登記法人,東京都,豊島区,巣鴨１丁目９番１号グランド東邦ビル１Ｆ,,13,116,1700002,,,,,,,2023-05-19,1,,,,,メトテ,0
1766,7020001151692,新規,0,2023-05-19,2023-05-19,ブルドック株式会社,,株式会社,神奈川県,川崎市川崎区,中瀬３丁目１９番１４－３０９号,,14,131,2100818,,,,,,,2023-05-19,1,,,,,ブルドック,0
1767,7020001151701,新規,0,2023-05-19,2023-05-19,Ｌｉｆｅ　Ｈｏｕｓｅ株式会社,,株式会社,神奈川県,横浜市瀬谷区,宮沢２丁目３４番地９,,14,114,2460038,,,,,,,2023-05-19,1,,,,,ライフハウス,0
1771,7020005016000,新規,0,2023-05-19,2023-05-19,一般社団法人まつばら相続・空家・遺言サポートセンター,,その他の設立登記法人,神奈川県,横浜市緑区,台村町３３９番地,,14,113,2260014,,,,,,,2023-05-19,1,,,,,マツバラソウゾクアキヤイゴンサポートセンター,0
1774,7021001079098,新規,0,2023-05-19,2023-05-19,株式会社杉山設備,,株式会社,神奈川県,横須賀市,野比３丁目１２番１－５０４号,,14,201,2390841,,,,,,,2023-05-19,1,,,,,スギヤマセツビ,0
1775,7021001079107,新規,0,2023-05-19,2023-05-19,株式会社ＳＴＹＬＥ　ＯＮＥ,,株式会社,神奈川県,相模原市中央区,淵野辺１丁目６番１－１０１号,,14,152,2520206,,,,,,,2023-05-19,1,,,,,スタイルワン,0
1776,7021001079115,新規,0,2023-05-19,2023-05-19,株式会社ヤマモトヤ須田伸也,,株式会社,神奈川県,厚木市,上荻野１２７０番地２,,14,212,2430201,,,,,,,2023-05-19,1,,,,,ヤマモトヤスダシンヤ,0
1790,7030001153928,新規,0,2023-05-19,2023-05-19,株式会社アーク,,株式会社,埼玉県,朝霞市,仲町２丁目３番３０号,,11,227,3510006,,,,,,,2023-05-19,1,,,,,アーク,0
1799,7040001128490,新規,0,2023-05-19,2023-05-19,Ｉ．Ｍ．Ｅ技巧株式会社,,株式会社,千葉県,四街道市,もねの里２丁目１番２９号,,12,228,2840016,,,,,,,2023-05-19,1,,,,,アイエムイーギコウ,0
1802,7040003022659,新規,0,2023-05-19,2023-05-19,聚福合同会社,,合同会社,千葉県,千葉市中央区,都町２丁目２２番１２号,,12,101,2600001,,,,,,,2023-05-19,1,,,,,シュウフク,0
1807,7060003004564,新規,0,2023-05-19,2023-05-19,合同会社ＭＪ　Ｂｒｉｄｇｅ,,合同会社,栃木県,下野市,緑５丁目８番地９,,09,216,3290433,,,,,,,2023-05-19,1,,,,,エムジェイブリッジ,0
1815,7080101024017,新規,0,2023-05-19,2023-05-19,株式会社亜美,,株式会社,静岡県,伊東市,吉田２３７番地,,22,208,4140051,,,,,,,2023-05-19,1,,,,,アミ,0
1820,7100001036407,新規,0,2023-05-19,2023-05-19,株式会社コネクト,,株式会社,長野県,東筑摩郡山形村,５５０１番地７,,20,450,3901301,,,,,,,2023-05-19,1,,,,,コネクト,0
1821,7100001036423,新規,0,2023-05-19,2023-05-19,クリーンリゾート株式会社,,株式会社,長野県,北佐久郡軽井沢町,大字長倉５４６３番地２,,20,321,3890111,,,,,,,2023-05-19,1,,,,,クリーンリゾート,0
1836,7120001254956,新規,0,2023-05-19,2023-05-19,株式会社ミライズ,,株式会社,大阪府,大阪市鶴見区,諸口６丁目６番６－５０６号,,27,124,5380051,,,,,,,2023-05-19,1,,,,,ミライズ,0
1837,7120001254980,新規,0,2023-05-19,2023-05-19,株式会社アレス・アセットマネジメント,,株式会社,大阪府,大阪市西区,京町堀１丁目１１番７号京旺ビル４階Ｂ号室,,27,106,5500003,,,,,,,2023-05-19,1,,,,,アレスアセットマネジメント,0
1838,7120001254997,新規,0,2023-05-19,2023-05-19,ＺＥＮＯ　ｂｌａｚｅ株式会社,,株式会社,大阪府,大阪市平野区,西脇２丁目２番７号,,27,126,5470035,,,,,,,2023-05-19,1,,,,,ゼノブレイズ,0
1839,7120001255005,新規,0,2023-05-19,2023-05-19,株式会社スターフィールド,,株式会社,大阪府,大阪市浪速区,大国１丁目１１番１２－２０２号,,27,111,5560014,,,,,,,2023-05-19,1,,,,,スターフィールド,0
1840,7120001255021,新規,0,2023-05-19,2023-05-19,株式会社タニャンズコーポレーション,,株式会社,大阪府,大阪市中央区,南船場１丁目１１番２２－８０２号,,27,128,5420081,,,,,,,2023-05-19,1,,,,,タニャンズコーポレーション,0
1841,7120001255038,新規,0,2023-05-19,2023-05-19,興業環保株式会社,,株式会社,大阪府,門真市,舟田町４０－３６,,27,223,5710021,,,,,,,2023-05-19,1,,,,,コウギョウカンポ,0
1842,7120001255062,新規,0,2023-05-19,2023-05-19,株式会社ＯＮＥ　ＳＴＥＰ,,株式会社,大阪府,枚方市,藤阪北町２１番１－６１１号,,27,210,5730151,,,,,,,2023-05-19,1,,,,,ワンステップ,0
1844,7120003024102,新規,0,2023-05-19,2023-05-19,Ｃ．Ｎ．Ｍ合同会社,,合同会社,大阪府,大阪市東成区,大今里西３丁目２番２９号４０２号室,,27,115,5370014,,,,,,,2023-05-19,1,,,,,シーエヌエム,0
1845,7120003024119,新規,0,2023-05-19,2023-05-19,Ｈａｒａｐａｎ　Ｕｔａｍａ合同会社,,合同会社,大阪府,大阪市中央区,北浜３丁目２番２５号,,27,128,5410041,,,,,,,2023-05-19,1,,,,,ハラパンウタマ,0
1848,7120005023622,新規,0,2023-05-19,2023-05-19,一般社団法人人と地球と未来,,その他の設立登記法人,大阪府,寝屋川市,桜木町３番３号,,27,215,5720041,,,,,,,2023-05-19,1,,,,,ヒトトチキュウトミライ,0
1854,7120903004649,新規,0,2023-05-19,2023-05-19,合同会社Ｍｋｓｈ,,合同会社,大阪府,箕面市,新稲１丁目２番３号の５,,27,220,5620005,,,,,,,2023-05-19,1,,,,,エムケーエスエイチ,0
1877,7150003002963,新規,0,2023-05-19,2023-05-19,合同会社ＫＴファーム,,合同会社,奈良県,山辺郡山添村,大字北野２２３４番地の１,,29,322,6302211,,,,,,,2023-05-19,1,,,,,ケイティファーム,0
1878,7160001025057,新規,0,2023-05-19,2023-05-19,株式会社アムズ,,株式会社,滋賀県,草津市,南笠東２丁目３番１２号,,25,206,5250071,,,,,,,2023-05-19,1,,,,,アムズ,0
1879,7170003001872,新規,0,2023-05-19,2023-05-19,合同会社陽葵,,合同会社,和歌山県,有田市,辻堂９７６番地,00130546,30,204,6490311,,,,,,,2023-05-19,1,,,,,ヒマリ,0
1884,7180001156370,新規,0,2023-05-19,2023-05-19,ウィングハートトラベル株式会社,,株式会社,愛知県,名古屋市西区,香呑町５丁目６４番地コーポラスマウンテン３Ａ,,23,104,4510015,,,,,,,2023-05-19,1,,,,,ウィングハートトラベル,0
1885,7180001156379,新規,0,2023-05-19,2023-05-19,株式会社夢想,,株式会社,愛知県,小牧市,郷西町９８番地,,23,219,4850823,,,,,,,2023-05-19,1,,,,,ムソウ,0
1893,7220001025414,新規,0,2023-05-19,2023-05-19,株式会社登商会,,株式会社,石川県,野々市市,太平寺２丁目２５６番地２,,17,212,9218845,,,,,,,2023-05-19,1,,,,,ノボリショウカイ,0
1895,7230001019844,新規,0,2023-05-19,2023-05-19,株式会社ＡＳＣ,,株式会社,富山県,富山市,田畑８２番地１３,,16,201,9318403,,,,,,,2023-05-19,1,,,,,エーエスシー,0
1897,7240001061548,新規,0,2023-05-19,2023-05-19,株式会社山幸ファーム,,株式会社,広島県,福山市,御幸町大字森脇５０９番地１０,,34,207,7200003,,,,,,,2023-05-19,1,,,,,サンコウファーム,0
1904,7250003003274,新規,0,2023-05-19,2023-05-19,合同会社ＴＡＳＵＫＵ,,合同会社,山口県,山口市,阿知須３２０６番地３吉野住宅１３号,,35,203,7541277,,,,,,,2023-05-19,1,,,,,タスク,0
1905,7250005008825,新規,0,2023-05-19,2023-05-19,一般社団法人ＬＳＧ,,その他の設立登記法人,山口県,岩国市,通津１９４４番地６,,35,208,7400044,,,,,,,2023-05-19,1,,,,,エルエスジー,0
1914,7290001101596,新規,0,2023-05-19,2023-05-19,株式会社ｔ．ｉｎｆ,,株式会社,福岡県,福岡市西区,小戸４丁目１－１１パークサイドソシアル小戸Ｂ２０３,,40,135,8190001,,,,,,,2023-05-19,1,,,,,ティンフ,0
1919,7290003013930,新規,0,2023-05-19,2023-05-19,合同会社ＭＦＹ,,合同会社,福岡県,久留米市,六ツ門町３－１１くるめりあ六ツ門２Ｆ,,40,203,8300031,,,,,,,2023-05-19,1,,,,,ミッフィー,0
1928,7340001025591,新規,0,2023-05-19,2023-05-19,和牛コンサルティング株式会社,,株式会社,鹿児島県,曽於郡大崎町,假宿３４１６番地,,46,468,8997305,,,,,,,2023-05-19,1,,,,,ワギュウコンサルティング,0
1929,7340005009608,新規,0,2023-05-19,2023-05-19,一般社団法人海と空,,その他の設立登記法人,鹿児島県,熊毛郡南種子町,中之上３３７０番地３,,46,502,8913701,,,,,,,2023-05-19,1,,,,,ウミトソラ,0
1932,7360001032041,新規,0,2023-05-19,2023-05-19,株式会社Ｉｎｓｅｃｔ　Ｔｅｃｈｎｏｌｏｇｙ,,株式会社,沖縄県,うるま市,石川曙３丁目１２番２０号,,47,213,9041107,,,,,,,2023-05-19,1,,,,,インセクトテクノロジー,0
1938,7370001049976,新規,0,2023-05-19,2023-05-19,株式会社はないず美,,株式会社,宮城県,仙台市青葉区,本町１丁目９番２３号ＢＦＥビル２階,,04,101,9800014,,,,,,,2023-05-19,1,,,,,ハナイズミ,0
1939,7370001049984,新規,0,2023-05-19,2023-05-19,株式会社サトウ建工,,株式会社,宮城県,宮城郡利府町,神谷沢字後沢２番地２６,,04,406,9810121,,,,,,,2023-05-19,1,,,,,サトウケンコウ,0
1940,7370001049992,新規,0,2023-05-19,2023-05-19,株式会社菊地重機工,,株式会社,宮城県,亘理郡山元町,浅生原字作田山２番地３９,,04,362,9892203,,,,,,,2023-05-19,1,,,,,キクチジュウキコウ,0
1942,7370003006141,新規,0,2023-05-19,2023-05-19,合同会社ホワイトドレス,,合同会社,宮城県,仙台市太白区,袋原４丁目２８番３４号,,04,104,9811102,,,,,,,2023-05-19,1,,,,,ホワイトドレス,0
1944,7380001033707,新規,0,2023-05-19,2023-05-19,株式会社よしの,,株式会社,福島県,いわき市,平下平窪字四左エ門内１５２番地の６,,07,204,9708003,,,,,,,2023-05-19,1,,,,,ヨシノ,0
1954,7430001089116,新規,0,2023-05-19,2023-05-19,株式会社ｓｅｌｆ‐ｅｓｔｅｅｍ,,株式会社,北海道,札幌市豊平区,豊平三条２丁目１番２９号トランスビル,,01,105,0620903,,,,,,,2023-05-19,1,,,,,セルフエスティーム,0
1955,7430001089124,新規,0,2023-05-19,2023-05-19,株式会社かけはし,,株式会社,北海道,札幌市西区,平和二条１０丁目１番３２号,,01,107,0630022,,,,,,,2023-05-19,1,,,,,カケハシ,0
1956,7430001089132,新規,0,2023-05-19,2023-05-19,株式会社柳谷興業,,株式会社,北海道,札幌市豊平区,西岡三条５丁目６番３６－４０５号,,01,105,0620033,,,,,,,2023-05-19,1,,,,,ヤナギヤコウギョウ,0
1959,7430003015053,新規,0,2023-05-19,2023-05-19,合同会社エゾリンク,,合同会社,北海道,札幌市中央区,宮の森四条１２丁目８番１２号,,01,101,0640954,,,,,,,2023-05-19,1,,,,,エゾリンク,0
1963,7480002012443,新規,0,2023-05-19,2023-05-19,有限会社呵呵舎,,有限会社,徳島県,鳴門市,鳴門町高島字浜中８７,,36,202,7720051,,,,,,,2023-05-19,1,,,,,カカヤ,0
1968,7700150116279,新規,0,2023-05-19,2023-05-19,Ｚｈｕｈａｉ　ｔａｉｐｕｘｉｋｅｊｉ　ｙｏｕｘｉａｎｇｏｎｇｓｉ,,外国会社等,,,,,,,,ＬＩＡＮＧＡＮＧＧＯＮＧＹＥＱＵ　ＣＨＵＡＮＧＹＥＤＯＮＧＬＵ，ＮＯ．６　ＹＡＮＦＡＣＨＡＮ　ＮＯ．６　ＺＨＵＨＡＩＳＨＩ　ＪＩＮＷＡＮＱＵ　ＧＵＡＮＧＤＯＮＧＳＨＥＮＧ,,,,,,2023-05-19,1,,,,,ズハイタイプシケジユウゲンコウシ,0
1969,7700150116287,新規,0,2023-05-19,2023-05-19,ｙｉｗｕｓｈｉ　ｊｉｎｇｃｈｅｎｒｉｙｏｎｇｐｉｎ　ｙｏｕｘｉａｎｇｏｎｇｓｉ,,外国会社等,,,,,,,,Ｒｏｏｍ　４２１，Ｂｕｉｌｄｉｎｇ　Ａ２　Ｎｏ．５８８　Ｃｈｕｎｈｕａ　Ｒｏａｄ，Ｂｅｉｙｕａｎ　Ｓｔｒｅｅｔ　Ｙｉｗｕ　Ｃｉｔｙ，Ｚｈｅｊｉａｎｇ,,,,,,2023-05-19,1,,,,,イウシジンセンルィヨンピンユウゲンコウシ,0
1980,8010001235355,新規,0,2023-05-19,2023-05-19,株式会社碧,,株式会社,東京都,中央区,勝どき５丁目３番１－４７２８号,,13,102,1040054,,,,,,,2023-05-19,1,,,,,アオイ,0
1981,8010001235421,新規,0,2023-05-19,2023-05-19,株式会社ノースリッジ,,株式会社,東京都,中央区,晴海３丁目１３番２－４０１０号,,13,102,1040053,,,,,,,2023-05-19,1,,,,,ノースリッジ,0
1982,8010001235470,新規,0,2023-05-19,2023-05-19,株式会社ネクサストラベル,,株式会社,東京都,中央区,京橋２丁目７番８号,,13,102,1040031,,,,,,,2023-05-19,1,,,,,ネクサストラベル,0
1987,8010003040621,新規,0,2023-05-19,2023-05-19,ＴｉＴｉ＆ＲｏＲｏ合同会社,,合同会社,東京都,文京区,本郷３丁目４番３号ヒルズ８８４お茶ノ水ビル５Ｆ,,13,105,1130033,,,,,,,2023-05-19,1,,,,,ティティアンドロロ,0
2000,8010401174203,新規,0,2023-05-19,2023-05-19,株式会社ベジワーク,,株式会社,東京都,港区,浜松町２丁目７番１５号,,13,103,1050013,,,,,,,2023-05-19,1,,,,,ベジワーク,0
2001,8010401174401,新規,0,2023-05-19,2023-05-19,株式会社イデオム,,株式会社,東京都,港区,愛宕２丁目５番１号愛宕グリーンヒルズＭＯＲＩタワー３４Ｆ,,13,103,1050002,,,,,,,2023-05-19,1,,,,,イデオム,0
2002,8010401174450,新規,0,2023-05-19,2023-05-19,株式会社ＲｅＬＩＦＥ,,株式会社,東京都,港区,六本木７丁目１５番１３－７１１号,,13,103,1060032,,,,,,,2023-05-19,1,,,,,リライフ,0
2003,8010401174467,新規,0,2023-05-19,2023-05-19,株式会社ＴＥＳ,,株式会社,東京都,港区,芝３丁目２５－２,,13,103,1050014,,,,,,,2023-05-19,1,,,,,ティーイーエス,0
2004,8010401174475,新規,0,2023-05-19,2023-05-19,株式会社アシスト,,株式会社,東京都,港区,三田３丁目４番３号ＲＩＰＬ９,,13,103,1080073,,,,,,,2023-05-19,1,,,,,アシスト,0
2007,8010403030148,新規,0,2023-05-19,2023-05-19,合同会社ロングビュー,,合同会社,東京都,港区,麻布永坂町１番地５４麻布永坂ハウス２０１,,13,103,1060043,,,,,,,2023-05-19,1,,,,,ロングビュー,0
2010,8010601063131,新規,0,2023-05-19,2023-05-19,株式会社ＩＣＥ,,株式会社,東京都,江東区,東陽４丁目８番１０号,,13,108,1350016,,,,,,,2023-05-19,1,,,,,アイス,0
2018,8010901053014,新規,0,2023-05-19,2023-05-19,株式会社ＳＩＮＡＮ,,株式会社,東京都,世田谷区,上馬４丁目３１番８号アルカディア駒沢大学２０２,,13,112,1540011,,,,,,,2023-05-19,1,,,,,シナン,0
2020,8010903008180,新規,0,2023-05-19,2023-05-19,合同会社ＢＥＲＵＢＡＨ,,合同会社,東京都,世田谷区,等々力４丁目６番１３号パレス等々力伍番館２０２,,13,112,1580082,,,,,,,2023-05-19,1,,,,,ブルバ,0
2027,8011001154520,新規,0,2023-05-19,2023-05-19,株式会社ＨａＳｈ,,株式会社,東京都,渋谷区,猿楽町４番１０号,,13,113,1500033,,,,,,,2023-05-19,1,,,,,ハッシュ,0
2029,8011003016875,新規,0,2023-05-19,2023-05-19,ＩｇｎｉｔＢａｓｅ合同会社,,合同会社,東京都,渋谷区,西原２丁目２５－１３ファミールグラン代々木西原１０６,,13,113,1510066,,,,,,,2023-05-19,1,,,,,イグニベース,0
2032,8011101102924,新規,0,2023-05-19,2023-05-19,株式会社ＧＩＴＳジャパン,,株式会社,東京都,新宿区,富久町８番２１号Ｔ＆Ｔビル４階,,13,104,1620067,,,,,,,2023-05-19,1,,,,,ジーアイティーエスジャパン,0
2035,8011103013062,新規,0,2023-05-19,2023-05-19,合同会社ＴＨＡＩ　ＳＫＹ　ＰＡＲＡＤＩＳＥ,,合同会社,東京都,新宿区,北新宿３丁目１番３号第二山武ビル３Ｆ,,13,104,1690074,,,,,,,2023-05-19,1,,,,,タイスカイパラダイス,0
2046,8011801042412,新規,0,2023-05-19,2023-05-19,一家株式会社,,株式会社,東京都,足立区,栗原３丁目２６番１号２Ｆ,,13,121,1230842,,,,,,,2023-05-19,1,,,,,イッカ,0
2047,8011801042429,新規,0,2023-05-19,2023-05-19,株式会社ＷＨ,,株式会社,東京都,足立区,千住龍田町５番３－１２０２号,,13,121,1200042,,,,,,,2023-05-19,1,,,,,ダブリューエイチ,0
2051,8012301013457,新規,0,2023-05-19,2023-05-19,ＮＴＣ株式会社,,株式会社,東京都,町田市,藤の台２丁目２番２０－５０１号,,13,209,1940039,,,,,,,2023-05-19,1,,,,,エヌティーシー,0
2069,8020001151675,新規,0,2023-05-19,2023-05-19,株式会社ＡＤミヨシ,,株式会社,神奈川県,川崎市宮前区,犬蔵１丁目３７番３５－１号,,14,136,2160011,,,,,,,2023-05-19,1,,,,,アドミヨシ,0
2073,8020003023939,新規,0,2023-05-19,2023-05-19,合同会社ｍｏａｎｉ,,合同会社,神奈川県,横浜市港北区,日吉本町３丁目１番３－４０１号,,14,109,2230062,,,,,,,2023-05-19,1,,,,,モアニ,0
2078,8021001079089,新規,0,2023-05-19,2023-05-19,株式会社米山機械設計,,株式会社,神奈川県,大和市,中央４丁目４番２６ー１０４号,,14,213,2420021,,,,,,,2023-05-19,1,,,,,ヨネヤマキカイセッケイ,0
2079,8021001079097,新規,0,2023-05-19,2023-05-19,グリーンリバース株式会社,,株式会社,神奈川県,厚木市,愛甲西２丁目１１番２号,,14,212,2430028,,,,,,,2023-05-19,1,,,,,グリーンリバース,0
2090,8030001153844,新規,0,2023-05-19,2023-05-19,株式会社ブルースカイ,,株式会社,埼玉県,越谷市,宮本町３丁目１２５番地１２,,11,222,3430806,,,,,,,2023-05-19,1,,,,,ブルースカイ,0
2091,8030001153852,新規,0,2023-05-19,2023-05-19,株式会社匠の心,,株式会社,埼玉県,さいたま市大宮区,桜木町４丁目８８３番地１,,11,103,3300854,,,,,,,2023-05-19,1,,,,,タクミノココロ,0
2092,8030001153935,新規,0,2023-05-19,2023-05-19,株式会社ＺＡＯ　ＳＨＯＫＡＩ,,株式会社,埼玉県,加須市,阿良川１５０番地,,11,210,3470047,,,,,,,2023-05-19,1,,,,,ザオウショウカイ,0
2098,8030003021743,新規,0,2023-05-19,2023-05-19,ニコンモータース合同会社,,合同会社,埼玉県,羽生市,大字藤井上組４３８番地２,,11,216,3480064,,,,,,,2023-05-19,1,,,,,ニコンモータース,0
2101,8040001128481,新規,0,2023-05-19,2023-05-19,株式会社ａｆｆａｒａｈ,,株式会社,千葉県,千葉市中央区,赤井町９１６番地４０,,12,101,2600804,,,,,,,2023-05-19,1,,,,,アファラー,0
2103,8040003022666,新規,0,2023-05-19,2023-05-19,合同会社ライク,,合同会社,千葉県,市原市,西国分寺台１丁目１－１２ケイエム企画店舗１－Ａ,,12,219,2900072,,,,,,,2023-05-19,1,,,,,ライク,0
2107,8050001052870,新規,0,2023-05-19,2023-05-19,株式会社オカノ,,株式会社,茨城県,鹿嶋市,大字宮中２３３３番地７７,,08,222,3140031,,,,,,,2023-05-19,1,,,,,オカノ,0
2108,8050003007518,新規,0,2023-05-19,2023-05-19,ネイバーフッド合同会社,,合同会社,茨城県,日立市,諏訪町４丁目２５番地４,,08,202,3160001,,,,,,,2023-05-19,1,,,,,ネイバーフッド,0
2109,8060003004563,新規,0,2023-05-19,2023-05-19,合同会社ＩＪ　Ｂｒｉｄｇｅ,,合同会社,栃木県,下野市,緑５丁目８番地９,,09,216,3290433,,,,,,,2023-05-19,1,,,,,アイジェイブリッジ,0
2124,8100003007017,新規,0,2023-05-19,2023-05-19,明燃合同会社,,合同会社,長野県,北安曇郡松川村,５５５０番地,,20,482,3998501,,,,,,,2023-05-19,1,,,,,メイネン,0
2125,8110001037551,新規,0,2023-05-19,2023-05-19,成翔ホールディングス株式会社,,株式会社,新潟県,新潟市中央区,女池上山２丁目８番７号,,15,103,9500945,,,,,,,2023-05-19,1,,,,,セイショウホールディングス,0
2136,8120001254947,新規,0,2023-05-19,2023-05-19,株式会社ＫＫ　Ｖｉｌｌａｇｅ,,株式会社,大阪府,大阪市中央区,東高麗橋３番２２－１３０８号,,27,128,5400039,,,,,,,2023-05-19,1,,,,,ケーケーヴィレッジ,0
2137,8120001255045,新規,0,2023-05-19,2023-05-19,株式会社ハートシェイプ,,株式会社,大阪府,大阪市中央区,南船場２丁目８番１１号,,27,128,5420081,,,,,,,2023-05-19,1,,,,,ハートシェイプ,0
2141,8120003024076,新規,0,2023-05-19,2023-05-19,合同会社Ｋ＆Ｙ,,合同会社,大阪府,大阪市港区,弁天１丁目２番１－２９１１号,,27,107,5520007,,,,,,,2023-05-19,1,,,,,ケーアンドワイ,0
2142,8120003024101,新規,0,2023-05-19,2023-05-19,キラリー久美子合同会社,,合同会社,大阪府,大阪市都島区,東野田町５丁目１－１９ＫＬＭ３１１,,27,102,5340024,,,,,,,2023-05-19,1,,,,,キラリークミコ,0
2148,8120103005224,新規,0,2023-05-19,2023-05-19,合同会社かもめ産業,,合同会社,大阪府,河内長野市,南花台８丁目１７番１－１１９号,,27,216,5860077,,,,,,,2023-05-19,1,,,,,カモメサンギョウ,0
2149,8120103005232,新規,0,2023-05-19,2023-05-19,合同会社パインヒル,,合同会社,大阪府,松原市,北新町５丁目５８－１,,27,217,5800025,,,,,,,2023-05-19,1,,,,,パインヒル,0
2159,8122001036986,新規,0,2023-05-19,2023-05-19,株式会社ＲＩＮＫＡ,,株式会社,大阪府,東大阪市,小阪３丁目２－３２,,27,227,5770801,,,,,,,2023-05-19,1,,,,,リンカ,0
2164,8130001074353,新規,0,2023-05-19,2023-05-19,株式会社ビオかめおか,,株式会社,京都府,亀岡市,保津町訳目３６番地,,26,206,6210005,,,,,,,2023-05-19,1,,,,,ビオカメオカ,0
2167,8130003008730,新規,0,2023-05-19,2023-05-19,ＳＡＴＨＭＩＲＡ　ＩＮＴＥＲＮＡＴＩＯＮＡＬ合同会社,,合同会社,京都府,京都市北区,西賀茂大道口町９３番地,,26,101,6038813,,,,,,,2023-05-19,1,,,,,サトミラインターナショナル,0
2168,8130005016780,新規,0,2023-05-19,2023-05-19,一般財団法人ケイズハウス財団,,その他の設立登記法人,京都府,京都市下京区,納屋町４２１,,26,106,6008142,,,,,,,2023-05-19,1,,,,,ケイズハウスザイダン,0
2173,8140003019108,新規,0,2023-05-19,2023-05-19,合同会社タカハシ,,合同会社,兵庫県,神戸市中央区,山本通３丁目１６番２２号,,28,110,6500003,,,,,,,2023-05-19,1,,,,,タカハシ,0
2174,8140003019116,新規,0,2023-05-19,2023-05-19,合同会社フリークス,,合同会社,兵庫県,淡路市,斗ノ内６３,,28,226,6561743,,,,,,,2023-05-19,1,,,,,フリークス,0
2175,8150001026410,新規,0,2023-05-19,2023-05-19,日本エンクロニー株式会社,,株式会社,奈良県,葛城市,笛堂１０番地１８,,29,211,6392112,,,,,,,2023-05-19,1,,,,,ニッポンエンクロニー,0
2180,8170001017614,新規,0,2023-05-19,2023-05-19,株式会社オレズ,,株式会社,和歌山県,和歌山市,布施屋７２７番地２,,30,201,6496321,,,,,,,2023-05-19,1,,,,,オレズ,0
2186,8180001156394,新規,0,2023-05-19,2023-05-19,株式会社Ｎ’ｓＣｏｍｐａｎｙ,,株式会社,愛知県,名古屋市中区,松原２丁目１４番９号ユニロイヤル松原２０２号,,23,106,4600017,,,,,,,2023-05-19,1,,,,,エヌズカンパニー,0
2196,8190003004328,新規,0,2023-05-19,2023-05-19,合同会社森重工業,,合同会社,三重県,四日市市,東日野町３３２番地１,,24,202,5100942,,,,,,,2023-05-19,1,,,,,モリシゲコウギョウ,0
2200,8220001025413,新規,0,2023-05-19,2023-05-19,株式会社ｆｕｔｕｒｅ　ｗａｔｃｈ,,株式会社,石川県,白山市,千代野東６丁目１番地２,,17,210,9240073,,,,,,,2023-05-19,1,,,,,フューチャーウォッチ,0
2201,8220003003516,新規,0,2023-05-19,2023-05-19,合同会社久保田ファーム,,合同会社,石川県,加賀市,大聖寺下福田町８の７５番地,,17,206,9220002,,,,,,,2023-05-19,1,,,,,クボタファーム,0
2202,8230001019843,新規,0,2023-05-19,2023-05-19,株式会社Ｌｉｌｌｙ,,株式会社,富山県,魚津市,上村木１丁目９番８号,,16,204,9370046,,,,,,,2023-05-19,1,,,,,リリー,0
2207,8250003003273,新規,0,2023-05-19,2023-05-19,合同会社俊和工業,,合同会社,山口県,山口市,阿知須３２０６番地３吉野住宅１３号,,35,203,7541277,,,,,,,2023-05-19,1,,,,,シュンワコウギョウ,0
2209,8260003004304,新規,0,2023-05-19,2023-05-19,合同会社ｄａｉｓｙ　ｄｒｏｐ,,合同会社,岡山県,岡山市中区,国府市場１０４－１０,,33,102,7038203,,,,,,,2023-05-19,1,,,,,デイジードロップ,0
2214,8290001101587,新規,0,2023-05-19,2023-05-19,株式会社ライフ・ギア,,株式会社,福岡県,福岡市博多区,博多駅南４丁目１番１７号岩保ビル駅南５Ｄ号室,,40,132,8120016,,,,,,,2023-05-19,1,,,,,ライフギア,0
2215,8290001101595,新規,0,2023-05-19,2023-05-19,株式会社いろは建築,,株式会社,福岡県,久留米市,城南町５番地７,,40,203,8300022,,,,,,,2023-05-19,1,,,,,イロハケンチク,0
2230,8330001030880,新規,0,2023-05-19,2023-05-19,株式会社五木源電力,,株式会社,熊本県,球磨郡五木村,甲２６７２番地８,,43,511,8680201,,,,,,,2023-05-19,1,,,,,ゴキゲンデンリョク,0
2233,8340005009607,新規,0,2023-05-19,2023-05-19,ＮＰＯ法人チームポンツーン,,その他の設立登記法人,鹿児島県,指宿市,十二町２３３８番地２８,,46,210,8910403,,,,,,,2023-05-19,1,,,,,チームポンツーン,0
2243,8370001049975,新規,0,2023-05-19,2023-05-19,株式会社３ｐｅａｃｅ仙台,,株式会社,宮城県,名取市,杜せきのした５丁目２０番地の３Ｂ棟１Ｆ,,04,207,9811227,,,,,,,2023-05-19,1,,,,,スリーピースセンダイ,0
2244,8370001049991,新規,0,2023-05-19,2023-05-19,株式会社わらゆん,,株式会社,宮城県,仙台市太白区,鈎取１丁目５番１１号１０３,,04,104,9820804,,,,,,,2023-05-19,1,,,,,ワラユン,0
2249,8370003006140,新規,0,2023-05-19,2023-05-19,合同会社ＡＣＨＲＯＩＴＥ,,合同会社,宮城県,気仙沼市,東新城２丁目３番地４サンハイム東新城２０１号室,,04,205,9880066,,,,,,,2023-05-19,1,,,,,アクロアイト,0
2254,8400003003084,新規,0,2023-05-19,2023-05-19,合同会社ホームテック,,合同会社,岩手県,滝沢市,牧野林９９２番地５,,03,216,0200632,,,,,,,2023-05-19,1,,,,,ホームテック,0
2262,8430001089115,新規,0,2023-05-19,2023-05-19,株式会社千祥坂口,,株式会社,北海道,札幌市厚別区,厚別西四条４丁目１４番１３号,,01,108,0040064,,,,,,,2023-05-19,1,,,,,センショウサカグチ,0
2263,8430001089148,新規,0,2023-05-19,2023-05-19,株式会社ｂｏｕｍｐｏｕｋｉ,,株式会社,北海道,札幌市白石区,北郷四条１丁目３番１５号,,01,104,0030834,,,,,,,2023-05-19,1,,,,,ブンプーキ,0
2268,8430005014721,新規,0,2023-05-19,2023-05-19,特定非営利活動法人Ｇ‐ｃｏｍゴルフコミュニケーション,,その他の設立登記法人,北海道,北広島市,虹ヶ丘３丁目４番地６,,01,234,0611103,,,,,,,2023-05-19,1,,,,,ジーコムゴルフコミュニケーション,0
2273,8470005006509,新規,0,2023-05-19,2023-05-19,一般社団法人ＢＵＮＫＡ,,その他の設立登記法人,香川県,高松市,亀井町１２－４日の出ビル２Ｆ,,37,201,7600050,,,,,,,2023-05-19,1,,,,,ブンカ,0
2277,8700150116278,新規,0,2023-05-19,2023-05-19,ｇｕａｎｇｚｈｏｕ　ｚｈａｎｇｓｈｕｎｆｕｓｈｉ　ｙｏｕｘｉａｎｇｏｎｇｓｉ,,外国会社等,,,,,,,,ｇｕａｎｇｚｈｏｕｓｈｉ　ｂａｉｙｕｎｑｕ　ｂａｉｙｕｎｈｕｊｉｅ　ｘｉａｍａｏｗｕｓｈｅｇｏｎｇｙｅｑｕ　Ｌｄｏｎｇ３０１ｈａｏ　ｇｕａｎｇｄｏｎｇｓｈｅｎｇ,,,,,,2023-05-19,1,,,,,グァアンゾォウザンスンフシユウゲンコウシ,0
2278,8700150116286,新規,0,2023-05-19,2023-05-19,Ｓｈｅｎｚｈｅｎ　Ｊｉｕ　Ｙａｏ　Ｉｎｔｅｒｎａｔｉｏｎａｌ　Ｔｒａｄｅ　Ｃｏ．，Ｌｔｄ．,,外国会社等,,,,,,,,ＪｕｎＺｉＢｕＳｈｅＱｕＨｕａｎＧｕａｎＮａｎＬｕ５１ＨａｏＳｈａｎｇＧａｎＬｉｎｇＣｈａｎｇＦａｎｇ５０１　ＬｏｎｇＨｕａＱｕＧｕａｎＬａｎＪｉｅＤａｏ　ＳｈｅｎＺｈｅｎＳｈｉ　ＧｕａｎｇＤｏｎｇＣＮ,,,,,,2023-05-19,1,,,,,シェンゼェンジウヤオインターナショナルトレードカンパニーリミテッド,0
2289,9010001235404,新規,0,2023-05-19,2023-05-19,株式会社ＮＥＷ,,株式会社,東京都,中央区,銀座１丁目１２番４号Ｎ＆ＥＢＬＤ．６Ｆ,,13,102,1040061,,,,,,,2023-05-19,1,,,,,ニュー,0
2290,9010001235420,新規,0,2023-05-19,2023-05-19,株式会社ミチワン,,株式会社,東京都,中央区,日本橋本町３丁目９番４号日幸小津ビル７Ｆ,,13,102,1030023,,,,,,,2023-05-19,1,,,,,ミチワン,0
2291,9010001235429,新規,0,2023-05-19,2023-05-19,株式会社ステラプロダクション,,株式会社,東京都,千代田区,神田和泉町１番地６－１６ヤマトビル４０５,,13,101,1010024,,,,,,,2023-05-19,1,,,,,ステラプロダクション,0
2294,9010003040612,新規,0,2023-05-19,2023-05-19,ＤｅｅｐＬジャパン合同会社,,合同会社,東京都,千代田区,大手町１丁目１番１号大手町パークビルディング１９階アンダーソン・毛利・友常法律事務所外国法共同事業内,,13,101,1000004,,,,,,,2023-05-19,1,,,,,ディープエルジャパン,0
2295,9010003040637,新規,0,2023-05-19,2023-05-19,Ｍａｎｖｉ合同会社,,合同会社,東京都,中央区,月島４丁目１３－１１スペースエアービル１Ｆ,,13,102,1040052,,,,,,,2023-05-19,1,,,,,マンヴィ,0
2297,9010005036674,新規,0,2023-05-19,2023-05-19,一般社団法人日本河北総商会,,その他の設立登記法人,東京都,中央区,晴海３丁目１３－１ＤＥＵＸ　ＴＯＵＲＳ　ＣＡＮＡＬ＆ＳＰＡ　ＥＡＳＴ４４０６号,,13,102,1040053,,,,,,,2023-05-19,1,,,,,ニホンカホクソウショウカイ,0
2303,9010401174375,新規,0,2023-05-19,2023-05-19,ｇｆ．Ｌ株式会社,,株式会社,東京都,港区,芝浦３丁目６番５号ＢｉｚＦｅｅｌ田町５Ｆ,,13,103,1080023,,,,,,,2023-05-19,1,,,,,ジーエフドットエル,0
2305,9010403030130,新規,0,2023-05-19,2023-05-19,ジー・ジェー・シー・ピー・ワン・ホールディング合同会社,,合同会社,東京都,港区,六本木１丁目９番１０号アークヒルズ仙石山森タワー４０階,,13,103,1060032,,,,,,,2023-05-19,1,,,,,ジージェーシーピーワンホールディング,0
2313,9010603010163,新規,0,2023-05-19,2023-05-19,Ｓａｍａｔａ　Ｓｃｈｏｏｌ合同会社,,合同会社,東京都,墨田区,両国４丁目３５－１タカシマ三共フラット２０３号,,13,107,1300026,,,,,,,2023-05-19,1,,,,,サマタスクール,0
2314,9010705003503,新規,0,2023-05-19,2023-05-19,一般社団法人Ｉｎｔｅｒｎａｔｉｏｎａｌ　Ｌｉｆｅ　Ｈｅａｌｔｈ　Ｉｎｓｔｉｔｕｔｅ,,その他の設立登記法人,東京都,品川区,東五反田３丁目６番１５号,,13,109,1410022,,,,,,,2023-05-19,1,,,,,インターナショナルライフヘルスインスティテュト,0
2315,9010801033916,新規,0,2023-05-19,2023-05-19,株式会社Ｇｒｏｗｉｎｇ,,株式会社,東京都,大田区,田園調布４丁目２９番２５－１０１号,,13,111,1450071,,,,,,,2023-05-19,1,,,,,グローイング,0
2316,9010801033949,新規,0,2023-05-19,2023-05-19,ＴＮＬ株式会社,,株式会社,東京都,大田区,石川町１丁目１２番１０号,,13,111,1450061,,,,,,,2023-05-19,1,,,,,ティーエヌエル,0
2317,9010801033981,新規,0,2023-05-19,2023-05-19,株式会社東洋ホールディングス,,株式会社,東京都,大田区,山王４丁目９番１４号,,13,111,1430023,,,,,,,2023-05-19,1,,,,,トウヨウホールディングス,0
2319,9010901053046,新規,0,2023-05-19,2023-05-19,株式会社フジワラ,,株式会社,東京都,世田谷区,野毛２丁目２０番２３－３１２号,,13,112,1580092,,,,,,,2023-05-19,1,,,,,フジワラ,0
2320,9010901053079,新規,0,2023-05-19,2023-05-19,ＴＯＴＯＷＮ株式会社,,株式会社,東京都,世田谷区,経堂２丁目４番８号,,13,112,1560052,,,,,,,2023-05-19,1,,,,,トゥタウン,0
2328,9011001154404,新規,0,2023-05-19,2023-05-19,ＲＩＭＯＶＡ株式会社,,株式会社,東京都,渋谷区,神宮前６丁目２３番４号桑野ビル２Ｆ,,13,113,1500001,,,,,,,2023-05-19,1,,,,,リモーヴァ,0
2329,9011001154412,新規,0,2023-05-19,2023-05-19,株式会社ＮＥＸＡＭ,,株式会社,東京都,渋谷区,神宮前６丁目２３番１７号,,13,113,1500001,,,,,,,2023-05-19,1,,,,,ネグザム,0
2332,9011003016833,新規,0,2023-05-19,2023-05-19,合同会社ベア・ストーン,,合同会社,東京都,渋谷区,富ヶ谷１丁目１４－１４スタンフォードアネックスビル４階,,13,113,1510063,,,,,,,2023-05-19,1,,,,,ベアストーン,0
2333,9011005010082,新規,0,2023-05-19,2023-05-19,一般社団法人ＡＤＤ,,その他の設立登記法人,東京都,渋谷区,恵比寿西１丁目２１番３号,,13,113,1500021,,,,,,,2023-05-19,1,,,,,アド,0
2335,9011101102849,新規,0,2023-05-19,2023-05-19,株式会社Ｊｅｎｅｅｐ,,株式会社,東京都,新宿区,新宿１丁目２４－１大塚ビル４階,,13,104,1600022,,,,,,,2023-05-19,1,,,,,ジェニープ,0
2336,9011101102907,新規,0,2023-05-19,2023-05-19,ＳＩＮ株式会社,,株式会社,東京都,新宿区,西新宿６丁目２５番８号,,13,104,1600023,,,,,,,2023-05-19,1,,,,,シン,0
2337,9011101102915,新規,0,2023-05-19,2023-05-19,株式会社ＯｖｅｒＲｅｙ．ｉｎｋ,,株式会社,東京都,新宿区,東五軒町５番５－５０９号,,13,104,1620813,,,,,,,2023-05-19,1,,,,,オーバーレイドットインク,0
2338,9011101102931,新規,0,2023-05-19,2023-05-19,四季スタジオ株式会社,,株式会社,東京都,新宿区,高田馬場１丁目２８番１０号,,13,104,1690075,,,,,,,2023-05-19,1,,,,,シキスタジオ,0
2339,9011103013037,新規,0,2023-05-19,2023-05-19,合同会社ｃｈａｒｍｅｒｓ,,合同会社,東京都,新宿区,西新宿３丁目３番１３号西新宿水間ビル６階,,13,104,1600023,,,,,,,2023-05-19,1,,,,,チャーマーズ,0
2340,9011103013061,新規,0,2023-05-19,2023-05-19,合同会社スカイハイ,,合同会社,東京都,新宿区,西新宿７丁目７番２４号ＧＳプラザ新宿５０５号,,13,104,1600023,,,,,,,2023-05-19,1,,,,,スカイハイ,0
2344,9011301028720,新規,0,2023-05-19,2023-05-19,株式会社Ｐｒｏｐｅｒ,,株式会社,東京都,杉並区,成田西１丁目２８番１号,,13,115,1660016,,,,,,,2023-05-19,1,,,,,プロパー,0
2345,9011303004760,新規,0,2023-05-19,2023-05-19,ハタケヤマーケティング合同会社,,合同会社,東京都,杉並区,永福４丁目２０番２０号,,13,115,1680064,,,,,,,2023-05-19,1,,,,,ハタケヤマーケティング,0
2352,9012301013456,新規,0,2023-05-19,2023-05-19,株式会社Ｏｒｔｈｏｃｏｎｎｅｃｔ,,株式会社,東京都,町田市,原町田４丁目１番９号永井ビル４階,,13,209,1940013,,,,,,,2023-05-19,1,,,,,オルソコネクト,0
2363,9020001151690,新規,0,2023-05-19,2023-05-19,横浜機工株式会社,,株式会社,神奈川県,横浜市西区,北幸２丁目１０番地２８むつみビル３Ｆ,,14,103,2200004,,,,,,,2023-05-19,1,,,,,ヨコハマキコウ,0
2364,9020001151708,新規,0,2023-05-19,2023-05-19,ＬＩＦＥ　ＷＯＲＫ　ＰＬＡＮ株式会社,,株式会社,神奈川県,横浜市中区,元町４丁目１６８番地４Ｆ－０９,,14,104,2310861,,,,,,,2023-05-19,1,,,,,ライフワークプラン,0
2374,9021001079096,新規,0,2023-05-19,2023-05-19,株式会社湘南ファーム,,株式会社,神奈川県,厚木市,及川２丁目１９番５６号,,14,212,2430212,,,,,,,2023-05-19,1,,,,,ショウナンファーム,0
2384,9030001153876,新規,0,2023-05-19,2023-05-19,株式会社ブルーミングワークス,,株式会社,埼玉県,入間市,下藤沢１丁目１１番地４・４０４,,11,225,3580011,,,,,,,2023-05-19,1,,,,,ブルーミングワークス,0
2385,9030001153884,新規,0,2023-05-19,2023-05-19,株式会社Ｔｓｕｂａｓａ＆ｉ,,株式会社,埼玉県,さいたま市西区,大字植田谷本４５６番地１－１０５号,,11,101,3310053,,,,,,,2023-05-19,1,,,,,ツバサアンドアイ,0
2396,9040001128489,新規,0,2023-05-19,2023-05-19,東幸商事株式会社,,株式会社,千葉県,柏市,手賀の杜５丁目１７番地１８,,12,217,2701447,,,,,,,2023-05-19,1,,,,,トウコウショウジ,0
2403,9040003022649,新規,0,2023-05-19,2023-05-19,合同会社Ｂｕｇ　ｏｎ,,合同会社,千葉県,流山市,南流山６丁目９番地の２７,,12,220,2700163,,,,,,,2023-05-19,1,,,,,バグオン,0
2409,9050003007517,新規,0,2023-05-19,2023-05-19,合同会社Ａｓｋ　ＬＩＮＥ,,合同会社,茨城県,守谷市,本町５２８７番地の１,,08,224,3020109,,,,,,,2023-05-19,1,,,,,エーエスケーライン,0
2414,9060003004562,新規,0,2023-05-19,2023-05-19,合同会社Ｈ．Ｉ．Ｍ,,合同会社,栃木県,下野市,緑５丁目８番地９,,09,216,3290433,,,,,,,2023-05-19,1,,,,,エイチアイエム,0
2425,9100001036421,新規,0,2023-05-19,2023-05-19,株式会社宮崎塗装工業,,株式会社,長野県,長野市,皆神台１７４番地,,20,201,3811223,,,,,,,2023-05-19,1,,,,,ミヤザキトソウコウギョウ,0
2433,9120001254938,新規,0,2023-05-19,2023-05-19,株式会社Ｒｅ　Ｄｉｖｅ,,株式会社,大阪府,大阪市西区,南堀江１丁目２２番３号１階,,27,106,5500015,,,,,,,2023-05-19,1,,,,,リダイブ,0
2434,9120001255036,新規,0,2023-05-19,2023-05-19,四月の都霊株式会社,,株式会社,大阪府,大阪市住吉区,遠里小野６丁目１７－１８プロスピロティー住吉４０５号,,27,120,5580032,,,,,,,2023-05-19,1,,,,,アプリレノトリノ,0
2437,9120003024026,新規,0,2023-05-19,2023-05-19,合同会社Ｆａｍｉｌｙ　Ｈｏｕｓｅ,,合同会社,大阪府,大阪市中央区,平野町３丁目１‐７日宝平野町セントラルビル４０１,,27,128,5410046,,,,,,,2023-05-19,1,,,,,ファミリーハウス,0
2438,9120003024075,新規,0,2023-05-19,2023-05-19,合同会社Ｋ＆Ｍ,,合同会社,大阪府,大阪市西区,立売堀６丁目８番２－４０１号,,27,106,5500012,,,,,,,2023-05-19,1,,,,,ケーアンドエム,0
2439,9120003024100,新規,0,2023-05-19,2023-05-19,合同会社ＳＫＭ,,合同会社,大阪府,大阪市中央区,高麗橋２丁目４－４,,27,128,5410043,,,,,,,2023-05-19,1,,,,,エスケーエム,0
2440,9120003024125,新規,0,2023-05-19,2023-05-19,合同会社Ｍｏｔｃｈ　ｍｅ,,合同会社,大阪府,大阪市西区,九条２丁目９‐１４,,27,106,5500027,,,,,,,2023-05-19,1,,,,,モッチミー,0
2445,9120901047549,新規,0,2023-05-19,2023-05-19,株式会社かあさん,,株式会社,大阪府,高槻市,芝生町１丁目４６番３号,,27,207,5690823,,,,,,,2023-05-19,1,,,,,カアサン,0
2449,9120903004647,新規,0,2023-05-19,2023-05-19,合同会社アッシュ・トロワ,,合同会社,大阪府,豊中市,春日町３丁目８番２８号,,27,203,5600052,,,,,,,2023-05-19,1,,,,,アッシュトロワ,0
2451,9122003002589,新規,0,2023-05-19,2023-05-19,合同会社ＫＴＭ,,合同会社,大阪府,東大阪市,花園東町１丁目１２番４号,,27,227,5780931,,,,,,,2023-05-19,1,,,,,ケーティーエム,0
2455,9140001130237,新規,0,2023-05-19,2023-05-19,株式会社商い商会,,株式会社,兵庫県,尼崎市,武庫町１丁目５０番３号万和ビル３０３号室,,28,202,6610044,,,,,,,2023-05-19,1,,,,,アキナイショウカイ,0
2458,9140003019098,新規,0,2023-05-19,2023-05-19,合同会社ブルースカイ,,合同会社,兵庫県,姫路市,大塩町４０７番地５,,28,201,6710101,,,,,,,2023-05-19,1,,,,,ブルースカイ,0
2475,9190001030424,新規,0,2023-05-19,2023-05-19,株式会社ムクティナトインターナショナル,,株式会社,三重県,鈴鹿市,南玉垣町３００６番地の１,,24,207,5130816,,,,,,,2023-05-19,1,,,,,ムクティナトインターナショナル,0
2484,9240001061538,新規,0,2023-05-19,2023-05-19,株式会社ｍｏｇｕｒａｓｈｉ,,株式会社,広島県,福山市,木之庄町１丁目６番１９－１０２号,,34,207,7200082,,,,,,,2023-05-19,1,,,,,モグラシ,0
2485,9240001061554,新規,0,2023-05-19,2023-05-19,株式会社Ｔ‐Ｇｒｏｕｐ,,株式会社,広島県,広島市中区,中町９番２５‐４０３号,,34,101,7300037,,,,,,,2023-05-19,1,,,,,ティーグループ,0
2488,9250003003272,新規,0,2023-05-19,2023-05-19,合同会社ＮａＮａ,,合同会社,山口県,下関市,綾羅木新町２丁目２０番３６号Ａ１０２号,,35,201,7510865,,,,,,,2023-05-19,1,,,,,ナナ,0
2491,9270001008783,新規,0,2023-05-19,2023-05-19,株式会社大塚産業医事務所,,株式会社,鳥取県,鳥取市,布勢５５１番地６,,31,201,6800944,,,,,,,2023-05-19,1,,,,,オオツカサンギョウイジムショ,0
2497,9290001101586,新規,0,2023-05-19,2023-05-19,株式会社森山工務店,,株式会社,福岡県,古賀市,新原１００６番地３,,40,223,8113127,,,,,,,2023-05-19,1,,,,,モリヤマコウムテン,0
2498,9290001101603,新規,0,2023-05-19,2023-05-19,株式会社Ｐｍ　ｐｌｕｓ,,株式会社,福岡県,福岡市南区,若久１丁目２４番３３－３０６号Ｆｏｒｅｓｔ離宮若久,,40,134,8150042,,,,,,,2023-05-19,1,,,,,ピーエムプラス,0
2510,9330003009848,新規,0,2023-05-19,2023-05-19,合同会社サルマーントレーディング熊本,,合同会社,熊本県,熊本市南区,海路口町４０７１番地３,,43,104,8614124,,,,,,,2023-05-19,1,,,,,サルマーントレーディングクマモト,0
2513,9350001018361,新規,0,2023-05-19,2023-05-19,株式会社宮崎管工事サービスセンター,,株式会社,宮崎県,宮崎市,鶴島３丁目１７５番地１,,45,201,8800014,,,,,,,2023-05-19,1,,,,,ミヤザキカンコウジサービスセンター,0
2522,9370001049982,新規,0,2023-05-19,2023-05-19,ランバージャック株式会社,,株式会社,宮城県,柴田郡大河原町,字新東１６番地６,,04,321,9891246,,,,,,,2023-05-19,1,,,,,ランバージャック,0
2529,9380001033705,新規,0,2023-05-19,2023-05-19,東北サベイン株式会社,,株式会社,福島県,南相馬市,原町区三島町２丁目１９５番地,,07,212,9750012,,,,,,,2023-05-19,1,,,,,トウホクサベイン,0
2532,9380003005462,新規,0,2023-05-19,2023-05-19,ＳＧＥＴ村上福岡メガソーラー合同会社,,合同会社,福島県,相馬市,中村字桜ケ丘８４番地アイワビルド株式会社内,,07,209,9760042,,,,,,,2023-05-19,1,,,,,エスゲットムラカミフクオカメガソーラー,0
2533,9380005012713,新規,0,2023-05-19,2023-05-19,アライ土地家屋調査士法人,,その他の設立登記法人,福島県,会津若松市,真宮新町北２丁目７８番地,,07,202,9650102,,,,,,,2023-05-19,1,,,,,アライ,0
2538,9430001089139,新規,0,2023-05-19,2023-05-19,株式会社ＯＨＡＮＡ,,株式会社,北海道,札幌市中央区,北二条西２丁目３３番地２,,01,101,0600002,,,,,,,2023-05-19,1,,,,,オハナ,0
2539,9430001089155,新規,0,2023-05-19,2023-05-19,株式会社Ｆｕｄｏ　Ｍａｒｋｅｔｉｎｇ,,株式会社,北海道,札幌市中央区,南二条西１０丁目１番オエノン北海道ビル２階,,01,101,0600062,,,,,,,2023-05-19,1,,,,,フドウマーケティング,0
2540,9430001089171,新規,0,2023-05-19,2023-05-19,株式会社シーアンドシー,,株式会社,北海道,札幌市豊平区,平岸二条１６丁目４番１－２０７号,,01,105,0620932,,,,,,,2023-05-19,1,,,,,シーアンドシー,0
2548,9470003002426,新規,0,2023-05-19,2023-05-19,合同会社ヨシムラ,,合同会社,香川県,高松市,中野町２９番地５高松プラザビル,,37,201,7600008,,,,,,,2023-05-19,1,,,,,ヨシムラ,0
2551,9500001024939,新規,0,2023-05-19,2023-05-19,株式会社Ｒフロント,,株式会社,愛媛県,松山市,西垣生町１７１４番地,,38,201,7918044,,,,,,,2023-05-19,1,,,,,アールフロント,0
2552,9700150116269,新規,0,2023-05-19,2023-05-19,東商センタービルマンション　建替組合,,その他,東京都,台東区,柳橋２丁目１番９号,,13,106,1110052,,,,,,,2023-05-19,1,,,,,トウシヨウセンタービルマンシヨンタテカエクミアイ,0
2553,9700150116277,新規,0,2023-05-19,2023-05-19,ｓｈｅｎ　ｚｈｅｎ　ｓｈｉ　ｔｉａｎ　ｈｕｉ　ｚｅ　ｍａｏ　ｙｉ　ｙｏｕ　ｘｉａｎ　ｇｏｎｇ　ｓｉ,,外国会社等,,,,,,,,Ｌｏｎｇ　Ｇａｎｇ　Ｑｕ，Ｂａｎ　Ｔｉａｎ　Ｊｉｅ　Ｄａｏ，Ｙｏｎｇ　Ｘｉａｎｇ　Ｌｕ　１７　Ｈａｏ　Ｂａｎ　Ｗｅｉ　Ｙｕａｎ，Ａ１　Ｄｏｎｇ，４１２　Ｓｈｉ　Ｓｈｅｎｚｈｅｎ　Ｇｕａｎｇｄｏｎｇ,,,,,,2023-05-19,1,,,,,シンセンシテェンホウイゼマオイユウゲンコウシ,0
2554,9700150116285,新規,0,2023-05-19,2023-05-19,ｓｈｅｎｚｈｅｎｓｈｉ　ｊｉａｐｉｎｇｔｏｎｇｋｅｊｉ　ｙｏｕｘｉａｎｇｏｎｇｓｉ,,外国会社等,,,,,,,,ｂａｏａｎｑｕ　Ｘｉｘｉａｎｇｊｉｅｄａｏｇｕｘｉｎｇｓｈｅｑｕｔｅｎｇｌｉａｎｌｕ４ｈａｏ　ｊｉｎｇｇｏｎｇｆａｎｇ１０３　ｓｈｅｎｚｈｅｎｓｈｉ　ｇｕａｎｇｄｏｎｇｓｈｅｎｇ,,,,,,2023-05-19,1,,,,,シンセンシジャピントンケジユウゲンコウシ,0
2555,9700150116327,新規,0,2023-05-19,2023-05-19,商店街活性化懇談会,,その他,岡山県,倉敷市,白楽町２４９－５倉敷商工会議所内,,33,202,7100824,,,,,,,2023-05-19,1,,,,,ショウテンガイカッセイカコンダンカイ,0
