sequenceNumber,corporateNumber,process,correct,updateDate,changeDate,name,nameImageId,kind,prefectureName,cityName,streetNumber,addressImageId,prefectureCode,cityCode,postCode,addressOutside,addressOutsideImageId,closeDate,closeCause,successorCorporateNumber,changeCause,assignmentDate,latest,enName,enPrefectureName,enCityName,enAddressOutside,furigana,hihyoji
5,1010003022493,登記記録の閉鎖等,0,2021-08-11,2021-07-27,仙台花京院テラス合同会社,,合同会社,東京都,千代田区,神田神保町１丁目１１番地さくら綜合事務所内,,13,101,1010051,,,2021-07-27,清算の結了等,,,2015-10-14,1,,,,,センダイカキョウインテラス,0
8,1010003030694,登記記録の閉鎖等,0,2021-08-11,2021-07-27,Ｋ２インベストメント合同会社,,合同会社,東京都,千代田区,丸の内３丁目１番１号東京共同会計事務所内,,13,101,1000005,,,2021-07-27,清算の結了等,,,2019-09-20,1,,,,,ケーツーインベストメント,0
60,1012401023981,登記記録の閉鎖等,0,2021-08-11,2021-08-02,株式会社ゼルコバス,,株式会社,東京都,府中市,緑町１丁目２８番地の１加司馬マンション府中１階,,13,206,1830006,,,2021-08-02,合併による解散等,7012401015263,令和３年８月１日東京都府中市府中町二丁目１０－１０多磨ビル株式会社エスエーティ（7012401015263）に合併し解散,2015-10-05,1,,,,,ゼルコバス,0
61,1012401024831,登記記録の閉鎖等,0,2021-08-11,2021-07-27,ＫＵＲＡＳＨＩ＆Ｔｒｉｐｓ株式会社,,株式会社,東京都,国立市,中２丁目１８番地４２,,13,215,1860004,,,2021-07-27,清算の結了等,,,2015-10-05,1,,,,,クラシアンドトリップ,0
83,1030001055279,登記記録の閉鎖等,0,2021-08-11,2021-07-27,トヨタハウス工業株式会社,,株式会社,埼玉県,川越市,大字砂９１５番地７,,11,201,3501133,,,2021-07-27,清算の結了等,,,2015-10-05,1,,,,,,0
94,1040001036294,登記記録の閉鎖等,0,2021-08-11,2021-07-28,東部興業株式会社,,株式会社,千葉県,松戸市,東平賀２３４番地,,12,207,2700003,,,2021-07-28,清算の結了等,,,2015-10-05,1,,,,,トウブコウギョウ,0
119,1090002012496,登記記録の閉鎖等,0,2021-08-11,2021-08-05,有限会社富士見レンタカー,,有限会社,山梨県,富士吉田市,浅間１丁目８番３３号,,19,202,4030031,,,2021-08-05,清算の結了等,,,2015-10-05,1,,,,,フジミレンタカー,0
147,1120902000828,登記記録の閉鎖等,0,2021-08-11,2021-08-06,有限会社シビルブレイン,,有限会社,大阪府,茨木市,豊川１丁目１７番１６号,,27,211,5670057,,,2021-08-06,清算の結了等,,,2015-10-05,1,,,,,シビルブレイン,0
156,1140001054443,登記記録の閉鎖等,0,2021-08-11,2021-08-03,株式会社阿曽,,株式会社,兵庫県,尼崎市,建家町８５番地,,28,202,6600871,,,2021-08-03,清算の結了等,,,2015-10-05,1,,,,,アソ,0
158,1140001068591,登記記録の閉鎖等,0,2021-08-11,2021-08-03,株式会社ゲン・エステート,,株式会社,兵庫県,西宮市,苦楽園二番町６番２号,,28,204,6620082,,,2021-08-03,清算の結了等,,,2015-10-05,1,,,,,ゲンエステート,0
159,1140001079787,登記記録の閉鎖等,0,2021-08-11,2021-08-03,株式会社小東組,,株式会社,兵庫県,川辺郡猪名川町,北田原字一本松８番地の５,,28,301,6660236,,,2021-08-03,清算の結了等,,,2015-10-05,1,,,,,コヒガシグミ,0
165,1140002037554,登記記録の閉鎖等,0,2021-08-11,2021-08-04,有限会社ダイコー,,有限会社,兵庫県,加古郡播磨町,二子６６２番地の７,,28,382,6750100,,,2021-08-04,清算の結了等,,,2015-10-05,1,,,,,ダイコー,0
166,1140002046308,登記記録の閉鎖等,0,2021-08-11,2021-08-04,道場木工有限会社,,有限会社,兵庫県,豊岡市,日高町久田谷１２６番地,,28,209,6695345,,,2021-08-04,清算の結了等,,,2015-10-05,1,,,,,ドウジョウモッコウ,0
169,1150001018050,登記記録の閉鎖等,0,2021-08-11,2021-08-03,株式会社丸二,,株式会社,奈良県,奈良市,大宮町１丁目１番７号,,29,201,6308115,,,2021-08-03,清算の結了等,,,2015-10-05,1,,,,,マルニ,0
185,1180301022443,登記記録の閉鎖等,0,2021-08-11,2021-08-06,株式会社コスギ,,株式会社,愛知県,西尾市,熊味町東平角５１番地２,,23,213,4450071,,,2021-08-06,清算の結了等,,,2015-10-05,1,,,,,コスギ,0
186,1190002018120,登記記録の閉鎖等,0,2021-08-11,2021-08-06,有限会社トダ,,有限会社,三重県,いなべ市,北勢町阿下喜３５２２番地,,24,214,5110428,,,2021-08-06,清算の結了等,,,2015-10-05,1,,,,,トダ,0
209,1260002014260,登記記録の閉鎖等,0,2021-08-11,2021-08-10,有限会社ＰＭ企画,,有限会社,岡山県,岡山市東区,瀬戸町万富９０５番地１,,33,103,7090841,,,2021-08-10,清算の結了等,,,2015-10-05,1,,,,,ピーエムキカク,0
221,1290801003493,登記記録の閉鎖等,0,2021-08-11,2021-07-27,松岡商事株式会社,,株式会社,福岡県,北九州市小倉北区,砂津１丁目４番２９－７０４号,,40,106,8020014,,,2021-07-27,清算の結了等,,,2015-10-05,1,,,,,マツオカショウジ,0
223,1290802012626,登記記録の閉鎖等,0,2021-08-11,2021-07-27,有限会社佐東,,有限会社,福岡県,北九州市八幡東区,枝光４丁目３番１号,,40,108,8050002,,,2021-07-27,清算の結了等,,,2015-10-05,1,,,,,サトウ,0
227,1310001005817,登記記録の閉鎖等,0,2021-08-11,2021-08-04,株式会社ＴＡＫＥＳＨＩＴＡ,,株式会社,長崎県,佐世保市,大塔町８番地４４の３,,42,202,8571161,,,2021-08-04,清算の結了等,,,2015-10-05,1,,,,,タケシタ,0
235,1330005006933,登記記録の閉鎖等,0,2021-08-11,2021-08-05,法泉寺養豚農事組合法人,,その他の設立登記法人,熊本県,天草市,本渡町本戸馬場２１９１番地の２,,43,215,8630002,,,2021-08-05,清算の結了等,,,2015-10-05,1,,,,,ホウセンジヨウトン,0
262,1450001006826,登記記録の閉鎖等,0,2021-08-11,2021-08-10,フィールドエコディベロップメント株式会社,,株式会社,北海道,旭川市,永山六条１丁目１番２０号,,01,204,0798416,,,2021-08-10,清算の結了等,,,2015-10-05,1,,,,,フィールドエコディベロップメント,0
270,1490001001682,登記記録の閉鎖等,0,2021-08-11,2021-07-01,株式会社長浜スーパーマーケツト,,株式会社,高知県,高知市,長浜６２６番地,,39,201,7810270,,,2021-07-01,合併による解散等,3490001006267,令和３年７月１日高知県南国市駅前町一丁目４番３４号株式会社ナンコクスーパー（3490001006267）に合併し解散,2015-10-05,1,,,,,ナガハマスーパーマーケット,0
271,1500002015705,登記記録の閉鎖等,0,2021-08-11,2021-08-05,ハウスメイク鎌倉建設有限会社,,有限会社,愛媛県,新居浜市,船木字元船木３１０３番地２,,38,205,7920856,,,2021-08-05,清算の結了等,,,2015-10-05,1,,,,,ハウスメイクカマクラケンセツ,0
272,1500005004622,登記記録の閉鎖等,0,2021-08-11,2021-08-05,農事組合法人周布麦作組合,,その他の設立登記法人,愛媛県,西条市,小松町大頭甲１０４２番地１,,38,206,7991106,,,2021-08-05,清算の結了等,,,2015-10-05,1,,,,,シュウバクサククミアイ,0
295,2010401078467,登記記録の閉鎖等,0,2021-08-11,2021-07-28,帝石カビンダ石油株式会社,,株式会社,東京都,港区,赤坂５丁目３番１号,,13,103,1070052,,,2021-07-28,清算の結了等,,,2015-10-05,1,,,,,テイセキカビンダセキユ,0
342,2011501011268,登記記録の閉鎖等,0,2021-08-11,2021-07-15,バグース・デルエフアイ株式会社,,株式会社,東京都,荒川区,南千住６丁目９番８号,,13,118,1160003,,,2021-07-15,清算の結了等,,,2015-10-05,1,,,,,,0
345,2011702011158,登記記録の閉鎖等,0,2021-08-11,2021-08-03,美河屋給食有限会社,,有限会社,東京都,江戸川区,大杉４丁目２１番１号,,13,123,1320022,,,2021-08-03,清算の結了等,,,2015-10-05,1,,,,,ミカワヤキュウショク,0
352,2012801019422,登記記録の閉鎖等,0,2021-08-11,2021-07-29,株式会社インテールエージェンシー,,株式会社,東京都,新宿区,歌舞伎町２丁目６番１６号パレドール歌舞伎町第２－２１２号室,,13,104,1600021,,,2021-07-29,清算の結了等,,,2019-05-22,1,,,,,インテールエージェンシー,0
360,2020001136574,登記記録の閉鎖等,0,2021-08-11,2021-08-02,Ｅ－ＮＥＴＷＯＲＫ株式会社,,株式会社,神奈川県,相模原市中央区,田名３２７９番地１２,,14,152,2520244,,,2021-08-02,清算の結了等,,,2020-06-23,1,,,,,,0
368,2021002001932,登記記録の閉鎖等,0,2021-08-11,2021-08-02,有限会社サンエープロセス,,有限会社,神奈川県,藤沢市,大庭５３１０番地の２グリーム湘南１０１号,,14,205,2510861,,,2021-08-02,清算の結了等,,,2015-10-05,1,,,,,サンエープロセス,0
373,2030001010720,登記記録の閉鎖等,0,2021-08-11,2021-07-30,株式会社清弘工業,,株式会社,埼玉県,さいたま市南区,別所３丁目１３番２０号,,11,108,3360021,,,2021-07-30,清算の結了等,,,2015-10-05,1,,,,,セイコウコウギョウ,0
411,2070002002325,登記記録の閉鎖等,0,2021-08-11,2021-08-05,有限会社坂西商店,,有限会社,群馬県,前橋市,駒形町１０１５番地の２,,10,201,3792122,,,2021-08-05,清算の結了等,,,2015-10-05,1,,,,,サカニシショウテン,0
423,2100001026008,登記記録の閉鎖等,0,2021-08-11,2021-08-05,株式会社和泉,,株式会社,長野県,長野市,大字鶴賀西鶴賀町１５３０番地１アーバンシティ長野・鶴賀３０５,,20,201,3800814,,,2021-08-05,清算の結了等,,,2015-10-05,1,,,,,イズミ,0
449,2130002032150,登記記録の閉鎖等,0,2021-08-11,2021-08-05,有限会社宮城紙店,,有限会社,京都府,宮津市,字白柏１２９７番地,,26,205,6260011,,,2021-08-05,清算の結了等,,,2015-10-05,1,,,,,ミヤギカミテン,0
450,2140001005156,登記記録の閉鎖等,0,2021-08-11,2021-07-30,株式会社南洋薬物研究所,,株式会社,兵庫県,神戸市須磨区,道正台１丁目３番６－９１３号,,28,107,6540122,,,2021-07-30,清算の結了等,,,2015-10-05,1,,,,,ナンヨウヤクブツケンキュウショ,0
460,2140005020366,登記記録の閉鎖等,0,2021-08-11,2021-08-05,公益財団法人霞城館,,その他の設立登記法人,兵庫県,たつの市,龍野町上霞城３０番地の３,,28,229,6794179,,,2021-08-05,清算の結了等,,,2015-10-05,1,,,,,カジョウカン,0
463,2150001023082,登記記録の閉鎖等,0,2021-08-11,2021-08-02,株式会社奈良うるし,,株式会社,奈良県,北葛城郡広陵町,大字萱野３８５番地３,,29,426,6350805,,,2021-08-02,清算の結了等,,,2019-06-10,1,,,,,ナラウルシ,0
495,2260001027205,登記記録の閉鎖等,0,2021-08-11,2021-08-06,株式会社森安建築工房,,株式会社,岡山県,岡山市北区,足守１１９０番地１,,33,101,7011463,,,2021-08-06,清算の結了等,,,2015-10-05,1,,,,,モリヤスケンチクコウボウ,0
511,2310002000452,登記記録の閉鎖等,0,2021-08-11,2021-08-05,有限会社イチシン総合企画,,有限会社,長崎県,長崎市,つつじが丘２丁目３番３号,,42,201,8510102,,,2021-08-05,清算の結了等,,,2015-10-05,1,,,,,イチシンソウゴウキカク,0
516,2330001014170,登記記録の閉鎖等,0,2021-08-11,2021-08-02,株式会社芦北建設会館,00097413,株式会社,熊本県,葦北郡芦北町,大字芦北２７８８番地,00097414,43,482,8695461,,,2021-08-02,清算の結了等,,,2015-10-05,1,,,,,アシキタケンセツカイカン,0
534,2360005003679,登記記録の閉鎖等,0,2021-08-11,2021-07-27,特定非営利活動法人うつぐみ,,その他の設立登記法人,沖縄県,石垣市,浜崎町２丁目２番地の８,,47,207,9070013,,,2021-07-27,清算の結了等,,,2015-10-05,1,,,,,ウツグミ,0
542,2390001007953,登記記録の閉鎖等,0,2021-08-11,2021-08-02,株式会社くしびきふるさと振興公社,,株式会社,山形県,鶴岡市,三千刈字清和１５９番地,,06,203,9970342,,,2021-08-02,清算の結了等,,,2015-10-05,1,,,,,クシビキフルサトシンコウコウシャ,0
551,2430001055774,登記記録の閉鎖等,0,2021-08-11,2021-08-06,株式会社渡辺工業,,株式会社,北海道,沙流郡平取町,本町９６番地２,,01,602,0550107,,,2021-08-06,清算の結了等,,,2015-10-05,1,,,,,,0
554,2430002004846,登記記録の閉鎖等,0,2021-08-11,2021-07-27,有限会社かとうはり灸整骨院,,有限会社,北海道,札幌市清田区,平岡八条３丁目１番２０号,,01,110,0040878,,,2021-07-27,清算の結了等,,,2015-10-05,1,,,,,カトウハリキュウセイコツイン,0
582,3010005027563,登記記録の閉鎖等,0,2021-08-11,2021-07-29,一般社団法人開発４８号,,その他の設立登記法人,東京都,千代田区,一番町９番地８ノザワビルディング６階税理士法人シリウス内,,13,101,1020082,,,2021-07-29,清算の結了等,,,2017-10-10,1,,,,,カイハツヨンジュウハチゴウ,0
589,3010403018552,登記記録の閉鎖等,0,2021-08-11,2021-06-18,リージョンデザイン合同会社,,合同会社,東京都,港区,浜松町２丁目２番１５号,,13,103,1050013,,,2021-06-18,清算の結了等,,,2018-05-07,1,,,,,リージョンデザイン,0
591,3010405009384,登記記録の閉鎖等,0,2021-08-11,2021-07-28,Ｇｏｔａｎｄａ一般社団法人,,その他の設立登記法人,東京都,港区,西新橋１丁目２番９号ＥＰコンサルティングサービス内,,13,103,1050003,,,2021-07-28,清算の結了等,,,2015-10-05,1,,,,,ゴタンダ,0
597,3010502012002,登記記録の閉鎖等,0,2021-08-11,2021-07-21,有限会社ユタカ紙工,,有限会社,東京都,台東区,竜泉１丁目３１番２号,,13,106,1100012,,,2021-07-21,清算の結了等,,,2015-10-05,1,,,,,ユタカシコウ,0
614,3011101072404,登記記録の閉鎖等,0,2021-08-11,2021-08-02,蒂亞株式会社,,株式会社,東京都,豊島区,南大塚３丁目３９番１４号尾谷会計事務所内,,13,116,1700005,,,2021-08-02,清算の結了等,,,2015-10-05,1,,,,,ティア,0
634,3012401031958,登記記録の閉鎖等,0,2021-08-11,2021-08-05,グッドカンパニー株式会社,,株式会社,東京都,武蔵野市,吉祥寺本町２丁目６番８号ムサシビルディング４Ｆ,,13,203,1800004,,,2021-08-05,清算の結了等,,,2016-10-21,1,,,,,グッドカンパニー,0
640,3013201016117,登記記録の閉鎖等,0,2021-08-11,2021-07-30,ＥＲＡ－ＢＥＥ株式会社,,株式会社,大阪府,豊中市,中桜塚１丁目２３番１０号,,27,203,5610881,,,2021-07-30,清算の結了等,,,2015-10-05,1,,,,,エラビー,0
649,3020001105470,登記記録の閉鎖等,0,2021-08-11,2021-07-30,創研株式会社,,株式会社,神奈川県,川崎市中原区,井田３丁目１１番１０号親和マンション３０１号,,14,133,2110035,,,2021-07-30,清算の結了等,,,2015-10-05,1,,,,,ソウケン,0
666,3021002043602,登記記録の閉鎖等,0,2021-08-11,2021-08-02,有限会社サンショウ技研,,有限会社,神奈川県,綾瀬市,吉岡東３丁目１番２５号,,14,218,2521125,,,2021-08-02,清算の結了等,,,2015-10-05,1,,,,,サンショウギケン,0
709,3100002033324,登記記録の閉鎖等,0,2021-08-11,2021-08-05,有限会社増又紙店,,有限会社,長野県,伊那市,荒井３４６１番地,,20,209,3960025,,,2021-08-05,清算の結了等,,,2015-10-05,1,,,,,マスマタカミテン,0
711,3100003004654,登記記録の閉鎖等,0,2021-08-11,2021-08-04,合同会社Ｍ＆Ｙ,,合同会社,長野県,茅野市,豊平７６９５番地１４５号,,20,214,3910213,,,2021-08-04,清算の結了等,,,2017-04-17,1,,,,,エムアンドワイ,0
742,3130002000296,登記記録の閉鎖等,0,2021-08-11,2021-08-04,有限会社エリート,,有限会社,京都府,京都市中京区,壬生森前町１５番地２,,26,104,6048831,,,2021-08-04,清算の結了等,,,2015-10-05,1,,,,,エリート,0
782,3240002006720,登記記録の閉鎖等,0,2021-08-11,2021-07-27,有限会社迫平工具,,有限会社,広島県,広島市中区,広瀬北町３番２４号,,34,101,7300803,,,2021-07-27,清算の結了等,,,2015-10-05,1,,,,,サコヒラコウグ,0
787,3250005008036,登記記録の閉鎖等,0,2021-08-11,2021-08-06,一般社団法人まちづくり委員会,,その他の設立登記法人,山口県,下関市,安岡町２丁目１０番２４号,,35,201,7596603,,,2021-08-06,清算の結了等,,,2015-10-05,1,,,,,マチヅクリイインカイ,0
792,3290001035435,登記記録の閉鎖等,0,2021-08-11,2021-08-04,株式会社ＳＷＡＮＳ,,株式会社,東京都,武蔵野市,中町２丁目３１番１２号－３０２,,13,203,1800006,,,2021-08-04,清算の結了等,,,2015-10-05,1,,,,,スワンズ,0
837,3430002047794,登記記録の閉鎖等,0,2021-08-11,2021-07-27,有限会社相馬商店,,有限会社,北海道,千歳市,東雲町２丁目１１番地,,01,224,0660042,,,2021-07-27,清算の結了等,,,2015-10-05,1,,,,,ソウマショウテン,0
844,3490001008437,登記記録の閉鎖等,0,2021-08-11,2021-08-05,株式会社ｄａｔａｒｅｍｅｒ,,株式会社,高知県,南国市,蛍が丘１丁目１番２号,,39,204,7830060,,,2021-08-05,合併による解散等,4011001091965,令和３年８月１日東京都板橋区成増一丁目３０番１３号株式会社Ｎｅｘｔｒｅｍｅｒ（4011001091965）に合併し解散,2016-08-19,1,,,,,,0
852,4010001037672,登記記録の閉鎖等,0,2021-08-11,2021-07-21,株式会社ウエイインターナショナル,,株式会社,東京都,墨田区,錦糸３丁目２番１号,,13,107,1300013,,,2021-07-21,清算の結了等,,,2015-10-05,1,,,,,ウエイインターナショナル,0
881,4010701015192,登記記録の閉鎖等,0,2021-08-11,2021-08-02,バーチルテクノシステムズ株式会社,,株式会社,神奈川県,藤沢市,藤沢５５１番地１,,14,205,2510052,,,2021-08-02,合併による解散等,4010701011761,令和３年８月１日神奈川県藤沢市藤沢５５１番地１ジャパンアンコールコンピュータ株式会社（4010701011761）に合併し解散,2015-10-05,1,,,,,バーチルテクノシステムズ,0
885,4010701034614,登記記録の閉鎖等,0,2021-08-11,2021-08-06,株式会社ルーパーズ,,株式会社,東京都,品川区,旗の台２丁目１番１２―７０３号,,13,109,1420064,,,2021-08-06,清算の結了等,,,2017-08-14,1,,,,,ルーパーズ,0
892,4010801000061,登記記録の閉鎖等,0,2021-08-11,2021-07-30,旭歯車工業株式会社,,株式会社,東京都,大田区,中央８丁目１４番１－１０４号,,13,111,1430024,,,2021-07-30,清算の結了等,,,2015-10-05,1,,,,,アサヒハグルマコウギョウ,0
910,4011101018067,登記記録の閉鎖等,0,2021-08-11,2021-08-02,株式会社ビッグ．ハンドレッド,,株式会社,東京都,新宿区,住吉町４番地１,,13,104,1620065,,,2021-08-02,清算の結了等,,,2015-10-05,1,,,,,ビッグハンドレッド,0
926,4011501023666,登記記録の閉鎖等,0,2021-08-11,2021-08-04,株式会社南通オフショアサービスセンター,,株式会社,東京都,荒川区,西日暮里１丁目２４番２号,,13,118,1160013,,,2021-08-04,清算の結了等,,,2018-04-23,1,,,,,,0
932,4012701000785,登記記録の閉鎖等,0,2021-08-11,2021-08-10,日管株式会社,,株式会社,東京都,小平市,上水本町６丁目１１番２４号,,13,211,1870022,,,2021-08-10,清算の結了等,,,2015-10-05,1,,,,,ニッカン,0
954,4021005004220,登記記録の閉鎖等,0,2021-08-11,2021-07-30,宗教法人大秦野バプテスト教会,,その他の設立登記法人,神奈川県,秦野市,ひばりケ丘１番１５号,,14,211,2570046,,,2021-07-30,清算の結了等,,,2015-10-05,1,,,,,オオハダノバプテストキョウカイ,0
963,4030002014520,登記記録の閉鎖等,0,2021-08-11,2021-07-26,有限会社ワイ綜合計画,,有限会社,埼玉県,さいたま市桜区,西堀２丁目１１番３２号,,11,106,3380832,,,2021-07-26,清算の結了等,,,2015-10-05,1,,,,,ワイソウゴウケイカク,0
968,4030002090891,登記記録の閉鎖等,0,2021-08-11,2021-07-16,有限会社フォーユーエクスプレス,,有限会社,埼玉県,越谷市,川柳町１丁目２番地３,,11,222,3430827,,,2021-07-16,清算の結了等,,,2015-10-05,1,,,,,フォーユーエクスプレス,0
970,4030002122026,登記記録の閉鎖等,0,2021-08-11,2021-07-30,有限会社みどりや,,有限会社,埼玉県,秩父郡小鹿野町,下小鹿野１１６５番地,,11,365,3680101,,,2021-07-30,清算の結了等,,,2015-10-05,1,,,,,ミドリヤ,0
976,4040002085610,登記記録の閉鎖等,0,2021-08-11,2021-07-30,有限会社スガヤ薬局,,有限会社,千葉県,銚子市,新生町１丁目４７番地の４,,12,202,2880056,,,2021-07-30,清算の結了等,,,2015-10-05,1,,,,,スガヤヤッキョク,0
1014,4120902020212,登記記録の閉鎖等,0,2021-08-11,2021-08-05,有限会社リテック,,有限会社,大阪府,豊中市,上新田４丁目８番Ａ－９０５号,,27,203,5600085,,,2021-08-05,清算の結了等,,,2015-10-05,1,,,,,リテック,0
1017,4130001012399,登記記録の閉鎖等,0,2021-08-11,2021-07-16,栄進電機株式会社,,株式会社,京都府,京都市伏見区,深草フチ町１４番地の７５,,26,109,6128438,,,2021-07-16,清算の結了等,,,2015-10-05,1,,,,,エイシンデンキ,0
1048,4180001041393,登記記録の閉鎖等,0,2021-08-11,2021-08-04,株式会社メゾンキヤツスル,,株式会社,愛知県,日進市,藤塚６丁目１３６番地,,23,230,4700117,,,2021-08-04,清算の結了等,,,2015-10-05,1,,,,,メゾンキヤツスル,0
1092,4260001006066,登記記録の閉鎖等,0,2021-08-11,2021-08-10,宝和建設株式会社,,株式会社,岡山県,岡山市南区,浦安本町６７番地４,,33,104,7028026,,,2021-08-10,清算の結了等,,,2015-10-05,1,,,,,ホウワケンセツ,0
1096,4260003002690,登記記録の閉鎖等,0,2021-08-11,2021-08-10,合同会社ＫＴカンパニー,,合同会社,岡山県,岡山市北区,津島西坂１丁目１番２８号１４０４,,33,101,7000086,,,2021-08-10,清算の結了等,,,2018-10-26,1,,,,,ケイティカンパニー,0
1102,4290001013571,登記記録の閉鎖等,0,2021-08-11,2021-07-06,株式会社ＪＲ西日本福岡メンテック,,株式会社,福岡県,福岡市博多区,博多駅前３丁目２番８号住友生命博多ビル１３Ｆ,,40,132,8120011,,,2021-07-06,合併による解散等,5260001003112,令和３年７月１日岡山市北区駅元町１番２－３０１号株式会社ＪＲ西日本中国メンテック（5260001003112）に合併し解散,2015-10-05,1,,,,,ジェイアールニシニホンフクオカメンテック,0
1115,4290805003818,登記記録の閉鎖等,0,2021-08-11,2021-07-27,医療法人協和会,,その他の設立登記法人,福岡県,北九州市小倉南区,蒲生１丁目１番３５号,,40,107,8020978,,,2021-07-27,清算の結了等,,,2015-10-05,1,,,,,キョウワカイ,0
1132,4370002020435,登記記録の閉鎖等,0,2021-08-11,2021-07-28,有限会社アイル,,有限会社,宮城県,黒川郡大和町,吉岡南３丁目１３－２－１０１号,,04,421,9813626,,,2021-07-28,清算の結了等,,,2015-10-05,1,,,,,アイル,0
1138,4380002028485,登記記録の閉鎖等,0,2021-08-11,2021-08-02,有限会社さとう写真館,,有限会社,福島県,南相馬市,原町区旭町３丁目４４番地,,07,212,9750004,,,2021-08-02,清算の結了等,,,2015-10-05,1,,,,,サトウシャシンカン,0
1150,4440002008118,登記記録の閉鎖等,0,2021-08-11,2021-08-05,有限会社生活環境工房,,有限会社,北海道,函館市,神山３丁目２８番１号,,01,202,0410832,,,2021-08-05,清算の結了等,,,2015-10-05,1,,,,,セイカツカンキョウコウボウ,0
1175,5010401042882,登記記録の閉鎖等,0,2021-08-11,2021-07-01,コンソーシアム音楽出版株式会社,,株式会社,東京都,港区,赤坂９丁目７番１号,,13,103,1070052,,,2021-07-01,合併による解散等,2010401040773,令和３年７月１日東京都港区赤坂九丁目７番１号株式会社ソニー・ミュージックパブリッシング（2010401040773）に合併し解散,2015-10-05,1,,,,,コンソーシアムオンガクシュッパン,0
1186,5010405011388,登記記録の閉鎖等,0,2021-08-11,2021-07-29,特定非営利活動法人スポーツ平和交流協会,,その他の設立登記法人,東京都,中央区,日本橋２丁目３番２１号,,13,102,1030027,,,2021-07-29,清算の結了等,,,2015-10-05,1,,,,,スポーツヘイワコウリュウキョウカイ,0
1190,5010501035555,登記記録の閉鎖等,0,2021-08-11,2021-08-03,クラウン製靴株式会社,,株式会社,愛知県,名古屋市瑞穂区,豆田町５丁目２番地,,23,108,4670864,,,2021-08-03,合併による解散等,9180001011086,令和３年８月１日名古屋市瑞穂区豆田町五丁目２番地マドラス株式会社（9180001011086）に合併し解散,2015-10-05,1,,,,,クラウンセイカ,0
1207,5011101006681,登記記録の閉鎖等,0,2021-08-11,2021-08-05,株式会社幸容,,株式会社,東京都,新宿区,西新宿１丁目１９番５号,,13,104,1600023,,,2021-08-05,合併による解散等,2011201016880,令和３年７月２０日東京都中野区南台二丁目２３番１１号株式会社Ｋ’ｅｉｇｈｔ（2011201016880）に合併し解散,2015-10-05,1,,,,,コウヨウ,0
1220,5011301011572,登記記録の閉鎖等,0,2021-08-11,2021-08-06,株式会社塗り屋,,株式会社,東京都,練馬区,大泉学園町５丁目３７番１２号,,13,120,1780061,,,2021-08-06,清算の結了等,,,2015-10-05,1,,,,,ヌリヤ,0
1255,5020002049780,登記記録の閉鎖等,0,2021-08-11,2021-08-02,有限会社今井商店,,有限会社,神奈川県,横浜市金沢区,泥亀１丁目２８番Ｅ－１１０５号,,14,108,2360021,,,2021-08-02,清算の結了等,,,2015-10-05,1,,,,,イマイショウテン,0
1258,5021001005683,登記記録の閉鎖等,0,2021-08-11,2021-08-02,株式会社技研,,株式会社,神奈川県,藤沢市,遠藤３６３８番地の３０,,14,205,2520816,,,2021-08-02,清算の結了等,,,2015-10-05,1,,,,,ギケン,0
1260,5021001031754,登記記録の閉鎖等,0,2021-08-11,2021-07-30,株式会社金沢産業,,株式会社,神奈川県,藤沢市,鵠沼桜が岡２丁目３番１８～２号,00117168,14,205,2510027,,,2021-07-30,清算の結了等,,,2015-10-05,1,,,,,カナザワサンギョウ,0
1267,5021002056412,登記記録の閉鎖等,0,2021-08-11,2021-07-30,有限会社豊英,,有限会社,神奈川県,足柄下郡箱根町,仙石原９３２番地,,14,382,2500631,,,2021-07-30,清算の結了等,,,2015-10-05,1,,,,,ホウエイ,0
1275,5030002060126,登記記録の閉鎖等,0,2021-08-11,2021-07-30,有限会社ツナケン,,有限会社,埼玉県,志木市,幸町２丁目１０番２２号,,11,228,3530005,,,2021-07-30,清算の結了等,,,2015-10-05,1,,,,,ツナケン,0
1276,5030002076444,登記記録の閉鎖等,0,2021-08-11,2021-07-30,有限会社金子己之助商店,,有限会社,埼玉県,ふじみ野市,亀久保４丁目８番８号,,11,245,3560051,,,2021-07-30,清算の結了等,,,2015-10-05,1,,,,,ユウゲンガイシャカネコミノスケショウテン,0
1304,5080002018053,登記記録の閉鎖等,0,2021-08-11,2021-08-04,有限会社三倉メディカル・サービス,,有限会社,静岡県,藤枝市,五十海４丁目１４番２１号,,22,214,4260015,,,2021-08-04,清算の結了等,,,2015-10-05,1,,,,,ミクラメディカルサービス,0
1306,5080405001515,登記記録の閉鎖等,0,2021-08-11,2021-08-04,特定非営利活動法人浜松フィルハーモニー管弦楽団協会,,その他の設立登記法人,静岡県,浜松市中区,山手町３９番１号,,22,131,4328022,,,2021-08-04,清算の結了等,,,2015-10-05,1,,,,,ハママツフィルハーモニーカンゲンガクダンキョウカイ,0
1314,5120001121687,登記記録の閉鎖等,0,2021-08-11,2021-08-02,株式会社フォワ,,株式会社,大阪府,大阪市淀川区,十八条１丁目１番３２－９１７号,,27,123,5320001,,,2021-08-02,清算の結了等,,,2015-10-05,1,,,,,フォワ,0
1351,5140001035118,登記記録の閉鎖等,0,2021-08-11,2021-08-03,株式会社丹田工務店,,株式会社,兵庫県,明石市,大蔵中町１４番１８号,,28,203,6730873,,,2021-08-03,清算の結了等,,,2015-10-05,1,,,,,,0
1358,5140002018047,登記記録の閉鎖等,0,2021-08-11,2021-08-02,有限会社三和不動産,,有限会社,兵庫県,神戸市北区,道場町日下部６９７番地の１７,,28,109,6511505,,,2021-08-02,清算の結了等,,,2015-10-05,1,,,,,サンワフドウサン,0
1376,5180002055301,登記記録の閉鎖等,0,2021-08-11,2021-07-01,有限会社藥房,,有限会社,愛知県,名古屋市東区,泉２丁目２６番２号,,23,102,4610001,,,2021-07-01,合併による解散等,7180002051224,令和３年７月１日名古屋市東区泉二丁目２６番２号キョーワ薬局株式会社（7180002051224）に合併し解散,2015-10-05,1,,,,,ヤクボウ,0
1410,5260002012863,登記記録の閉鎖等,0,2021-08-11,2021-08-10,有限会社三京鉄工,,有限会社,岡山県,岡山市北区,津高台１丁目２０１１番地の１１,,33,101,7011151,,,2021-08-10,清算の結了等,,,2015-10-05,1,,,,,サンキョウテッコウ,0
1429,5320002019539,登記記録の閉鎖等,0,2021-08-11,2021-07-28,有限会社明月クリーニング,,有限会社,大分県,日田市,天瀬町赤岩９１２番地の７,,44,204,8794202,,,2021-07-28,清算の結了等,,,2015-10-05,1,,,,,メイゲツクリーニング,0
1434,5330002016361,登記記録の閉鎖等,0,2021-08-11,2021-08-03,有限会社林重機,,有限会社,熊本県,菊池郡大津町,大字室３１３番地の１７,,43,403,8691235,,,2021-08-03,清算の結了等,,,2015-10-05,1,,,,,ハヤシジュウキ,0
1445,5370001040870,登記記録の閉鎖等,0,2021-08-11,2021-07-27,株式会社菅原,,株式会社,宮城県,亘理郡亘理町,字中町２２番地,,04,361,9892351,,,2021-07-27,清算の結了等,,,2017-02-01,1,,,,,,0
1467,5430005013362,登記記録の閉鎖等,0,2021-08-11,2021-07-26,特定非営利活動法人ＮＰＯ縁や,,その他の設立登記法人,北海道,札幌市中央区,大通西１７丁目２番地６パールタウン大通５０２号,,01,101,0600042,,,2021-07-26,清算の結了等,,,2018-03-30,1,,,,,エヌピーオーエンヤ,0
1475,6010001041895,登記記録の閉鎖等,0,2021-08-11,2021-07-29,株式会社きむら屋漆器店,,株式会社,東京都,中央区,築地２丁目１５番１７号,,13,102,1040045,,,2021-07-29,清算の結了等,,,2015-10-05,1,,,,,キムラヤシッキテン,0
1478,6010001119378,登記記録の閉鎖等,0,2021-08-11,2021-08-05,株式会社ケンテックＨＤ,,株式会社,東京都,練馬区,向山４丁目１番５号,,13,120,1760022,,,2021-08-05,清算の結了等,,,2015-10-05,1,,,,,ケンテックエイチディー,0
1484,6010003022662,登記記録の閉鎖等,0,2021-08-11,2021-07-26,合同会社ＬＴＰＣインベストメントサファイア,,合同会社,東京都,千代田区,神田神保町１丁目１１番地さくら綜合事務所内,,13,101,1010051,,,2021-07-26,清算の結了等,,,2015-11-16,1,,,,,エルティピーシーインベストメントサファイア,0
1489,6010401042881,登記記録の閉鎖等,0,2021-08-11,2021-07-01,イーエムアイ音楽出版株式会社,,株式会社,東京都,港区,赤坂９丁目７番１号,,13,103,1070052,,,2021-07-01,合併による解散等,2010401040773,令和３年７月１日東京都港区赤坂九丁目７番１号株式会社ソニー・ミュージックパブリッシング（2010401040773）に合併し解散,2015-10-05,1,,,,,イーエムアイオンガクシュッパン,0
1524,6011001120796,登記記録の閉鎖等,0,2021-08-11,2021-08-03,株式会社ＧＬキャピタル,,株式会社,東京都,豊島区,南長崎２丁目１６番１０－２０７号,,13,116,1710052,,,2021-08-03,清算の結了等,,,2018-02-22,1,,,,,ジーエルキャピタル,0
1545,6011301024020,登記記録の閉鎖等,0,2021-08-11,2021-08-02,株式会社Ｈｏｌｌｙ’ｓ,,株式会社,東京都,杉並区,上荻１丁目２番１号,,13,115,1670043,,,2021-08-02,合併による解散等,5011301015672,令和３年７月３１日東京都杉並区上荻一丁目２番１号株式会社コスパクリエーション（5011301015672）に合併し解散,2018-04-10,1,,,,,ホーリーズ,0
1573,6013402000908,登記記録の閉鎖等,0,2021-08-11,2021-07-29,有限会社高幡不動増田屋,00059512,有限会社,東京都,日野市,高幡１５９番地,,13,212,1910031,,,2021-07-29,清算の結了等,,,2015-10-05,1,,,,,タカハタフドウマスダヤ,0
1577,6020001038908,登記記録の閉鎖等,0,2021-08-11,2021-08-02,エイチ・ジェイ・シイ・システム株式会社,,株式会社,神奈川県,横浜市金沢区,富岡東６丁目３０番Ｃ－３０６号,,14,108,2360051,,,2021-08-02,清算の結了等,,,2015-10-05,1,,,,,エイチジェイシイシステム,0
1591,6021001059506,登記記録の閉鎖等,0,2021-08-11,2021-08-02,株式会社ハレアカラ,,株式会社,神奈川県,藤沢市,片瀬海岸２丁目１２番１号,,14,205,2510035,,,2021-08-02,清算の結了等,,,2016-06-09,1,,,,,ハレアカラ,0
1592,6021001063268,登記記録の閉鎖等,0,2021-08-11,2021-08-05,株式会社シンカ神奈川,,株式会社,神奈川県,相模原市緑区,下九沢２５６９番地１,,14,151,2520134,,,2021-08-05,合併による解散等,9013101006930,令和３年８月１日東京都西多摩郡日の出町平井２２番地７株式会社シンカ東京（9013101006930）に合併し解散,2017-10-12,1,,,,,シンカカナガワ,0
1596,6021002046602,登記記録の閉鎖等,0,2021-08-11,2021-08-02,有限会社たつきや,,有限会社,神奈川県,綾瀬市,小園南１丁目１６番２１号,,14,218,2521122,,,2021-08-02,清算の結了等,,,2015-10-05,1,,,,,タツキヤ,0
1602,6030001041712,登記記録の閉鎖等,0,2021-08-11,2021-08-02,株式会社ミヤコ電機,,株式会社,埼玉県,上尾市,大字平塚８２９番地２５,,11,219,3620011,,,2021-08-02,清算の結了等,,,2015-10-05,1,,,,,ミヤコデンキ,0
1626,6040003000673,登記記録の閉鎖等,0,2021-08-11,2021-08-02,合資会社化学技術教育研究所,,合資会社,千葉県,船橋市,習志野台８丁目３７番１棟１０４号,,12,204,2740063,,,2021-08-02,清算の結了等,,,2015-10-05,1,,,,,カガクギジュツキョウイクケンキュウジョ,0
1637,6080402019831,登記記録の閉鎖等,0,2021-08-11,2021-08-05,中村流通保険有限会社,,有限会社,静岡県,磐田市,中泉２４８７番地の５,,22,211,4380078,,,2021-08-05,清算の結了等,,,2015-10-05,1,,,,,ナカムラリュウツウホケン,0
1638,6080405000953,登記記録の閉鎖等,0,2021-08-11,2021-06-28,天理教庄屋分教会,,その他の設立登記法人,静岡県,浜松市南区,新貝町１４６６番地,,22,134,4350023,,,2021-06-28,合併による解散等,4080405000947,令和３年６月２８日静岡県浜松市南区鶴見町３番地の１天理教遠州分教会（4080405000947）に合併し解散,2015-10-05,1,,,,,テンリキョウショウヤブンキョウカイ,0
1642,6100001020989,登記記録の閉鎖等,0,2021-08-11,2021-08-05,株式会社のぼりや,,株式会社,長野県,伊那市,荒井３７１１番地４,,20,209,3960025,,,2021-08-05,清算の結了等,,,2015-10-05,1,,,,,ノボリヤ,0
1643,6100001025625,登記記録の閉鎖等,0,2021-08-11,2021-08-04,アーバーワークス株式会社,,株式会社,長野県,駒ヶ根市,下平３０４６番地,,20,210,3994101,,,2021-08-04,清算の結了等,,,2015-10-05,1,,,,,アーバーワークス,0
1671,6130001051775,登記記録の閉鎖等,0,2021-08-11,2021-08-05,株式会社ＮＯＭＵＲＡ,,株式会社,京都府,京都市伏見区,羽束師古川町７,,26,109,6128486,,,2021-08-05,清算の結了等,,,2015-10-05,1,,,,,,0
1689,6160001001216,登記記録の閉鎖等,0,2021-08-11,2021-08-06,株式会社タニ建築事務所,,株式会社,滋賀県,大津市,衣川２丁目１７番１４号,,25,201,5200244,,,2021-08-06,清算の結了等,,,2015-10-05,1,,,,,タニケンチクジムショ,0
1691,6160002006478,登記記録の閉鎖等,0,2021-08-11,2021-08-06,紅一化染有限会社,,有限会社,滋賀県,長浜市,一の宮町３番３号,,25,203,5260051,,,2021-08-06,清算の結了等,,,2015-10-05,1,,,,,コウイチカセン,0
1694,6180001018992,登記記録の閉鎖等,0,2021-08-11,2021-08-05,株式会社エース,,株式会社,愛知県,名古屋市中川区,長須賀２丁目２１０９番地,,23,110,4540994,,,2021-08-05,清算の結了等,,,2015-10-05,1,,,,,エース,0
1704,6180005006291,登記記録の閉鎖等,0,2021-08-11,2021-08-06,特定非営利活動法人みずしるべ,,その他の設立登記法人,愛知県,名古屋市中区,新栄２丁目２番１号,,23,106,4600007,,,2021-08-06,清算の結了等,,,2015-10-05,1,,,,,ミズシルベ,0
1707,6180303003577,登記記録の閉鎖等,0,2021-08-11,2021-08-06,合同会社のぞみ企画,,合同会社,愛知県,豊田市,広久手町２丁目１番地３バンベール豊田西８０４号,,23,211,4710036,,,2021-08-06,清算の結了等,,,2016-02-12,1,,,,,ノゾミキカク,0
1735,6250003000487,登記記録の閉鎖等,0,2021-08-11,2021-08-05,協和商事合名会社,,合名会社,山口県,下関市,西大坪町１番１号,,35,201,7500054,,,2021-08-05,清算の結了等,,,2015-10-05,1,,,,,キョウワショウジ,0
1741,6280002011433,登記記録の閉鎖等,0,2021-08-11,2021-08-10,有限会社通建,,有限会社,島根県,雲南市,加茂町宇治４２１番地,,32,209,6991105,,,2021-08-10,清算の結了等,,,2015-10-05,1,,,,,ツウケン,0
1768,6330003005189,登記記録の閉鎖等,0,2021-08-11,2021-08-02,合同会社ハイリッヒ２,,合同会社,熊本県,熊本市中央区,水前寺公園２８番４３,,43,101,8620956,,,2021-08-02,清算の結了等,,,2015-10-05,1,,,,,ハイリッヒツー,0
1791,6400002004325,登記記録の閉鎖等,0,2021-08-11,2021-08-06,有限会社堀籠工務店,,有限会社,岩手県,盛岡市,川又字赤坂１３９番地４,,03,201,0200203,,,2021-08-06,清算の結了等,,,2015-10-05,1,,,,,ホリゴメコウムテン,0
1797,6430001008497,登記記録の閉鎖等,0,2021-08-11,2021-07-19,スノン工業株式会社,,株式会社,北海道,札幌市白石区,本郷通１丁目北４番１－４０２号,,01,104,0030025,,,2021-07-19,清算の結了等,,,2015-10-05,1,,,,,スノンコウギョウ,0
1799,6430001036639,登記記録の閉鎖等,0,2021-08-11,2021-06-28,株式会社けいほくサービス,,株式会社,北海道,札幌市北区,太平九条１丁目２番２２号,,01,102,0028009,,,2021-06-28,合併による解散等,9430002007116,令和３年５月２０日札幌市東区北四十三条東五丁目３番６号株式会社けいほくビルデンス（9430002007116）と合併し解散,2015-10-05,1,,,,,ケイホクサービス,0
1809,6450002011597,登記記録の閉鎖等,0,2021-08-11,2021-08-10,有限会社足立商店,,有限会社,北海道,天塩郡豊富町,字兜沼,,01,516,0984451,,,2021-08-10,清算の結了等,,,2015-10-05,1,,,,,アダチショウテン,0
1817,6480002007411,登記記録の閉鎖等,0,2021-08-11,2021-08-05,有限会社織部,,有限会社,徳島県,徳島市,北山町銭亀坂６８番地８,,36,201,7708032,,,2021-08-05,清算の結了等,,,2015-10-05,1,,,,,,0
1834,7010401012974,登記記録の閉鎖等,0,2021-08-11,2021-07-19,新光炉材株式会社,,株式会社,東京都,港区,新橋５丁目３１番８号,,13,103,1050004,,,2021-07-19,清算の結了等,,,2015-10-05,1,,,,,シンコウロザイ,0
1855,7010801009091,登記記録の閉鎖等,0,2021-08-11,2021-07-30,日本プラントサービス株式会社,,株式会社,東京都,大田区,蒲田５丁目３０番１５号,,13,111,1440052,,,2021-07-30,清算の結了等,,,2015-10-05,1,,,,,ニホンプラントサービス,0
1893,7011705000293,登記記録の閉鎖等,0,2021-08-11,2021-08-03,城東建築金属工業協同組合,,その他の設立登記法人,東京都,杉並区,堀ノ内２丁目２０番２号,,13,115,1660013,,,2021-08-03,清算の結了等,,,2015-10-05,1,,,,,ジョウトウケンチクキンゾクコウギョウ,0
1902,7013101001264,登記記録の閉鎖等,0,2021-08-11,2021-08-04,株式会社ウエーブ,,株式会社,東京都,あきる野市,平沢６２２番地５,,13,228,1970812,,,2021-08-04,清算の結了等,,,2015-10-05,1,,,,,ウエーブ,0
1913,7020001123634,登記記録の閉鎖等,0,2021-08-11,2021-08-02,ＥＩＳＥＮＭＡＮＮ　ＪＡＰＡＮ株式会社,,株式会社,神奈川県,横浜市中区,山下町７４番地１大和地所ビル３階３０１号室,,14,104,2310023,,,2021-08-02,清算の結了等,,,2017-11-06,1,,,,,アイゼンマンジャパン,0
1921,7021001010137,登記記録の閉鎖等,0,2021-08-11,2021-08-03,株式会社タイメイ,,株式会社,神奈川県,鎌倉市,浄明寺４丁目５番１２号,,14,204,2480003,,,2021-08-03,清算の結了等,,,2015-10-05,1,,,,,タイメイ,0
1937,7030002044548,登記記録の閉鎖等,0,2021-08-11,2021-07-27,有限会社杉山建設,,有限会社,埼玉県,羽生市,中央１丁目２番３３号,,11,216,3480058,,,2021-07-27,清算の結了等,,,2015-10-05,1,,,,,スギヤマケンセツ,0
1950,7070001013302,登記記録の閉鎖等,0,2021-08-11,2021-07-01,株式会社ケーショップ,,株式会社,群馬県,伊勢崎市,連取町３９４番地,,10,204,3720812,,,2021-07-01,合併による解散等,9070001013267,令和３年７月１日群馬県前橋市駒形町１５１２番地５株式会社群馬ビーエスタイヤセンター（9070001013267）と合併し解散,2015-10-05,1,,,,,ケーショップ,0
1953,7080005007134,登記記録の閉鎖等,0,2021-08-11,2021-08-05,特定非営利活動法人ｈａｎｄｓｏｍｅ　ａｍｂｉｔｉｏｎ,,その他の設立登記法人,静岡県,静岡市葵区,呉服町２丁目３－６,,22,101,4200031,,,2021-08-05,清算の結了等,,,2019-01-04,1,,,,,ハンサムアンビション,0
1958,7080403003412,登記記録の閉鎖等,0,2021-08-11,2021-08-06,合同会社ＭＯＴＯ　ＨＯＵＳＥ　ＷＩＮＤ,,合同会社,静岡県,菊川市,下平川２２６１番地,,22,224,4371514,,,2021-08-06,清算の結了等,,,2017-03-10,1,,,,,モトハウスウィンド,0
1963,7100002015244,登記記録の閉鎖等,0,2021-08-11,2021-08-06,有限会社ワールドクリエイト・トノシロ,,有限会社,長野県,上田市,殿城８５１番地,,20,203,3860004,,,2021-08-06,清算の結了等,,,2015-10-05,1,,,,,,0
1967,7110005015538,登記記録の閉鎖等,0,2021-08-11,2021-08-03,特定非営利活動法人千代田心技鍛養校,,その他の設立登記法人,新潟県,新潟市江南区,両川１丁目１２０１番地１０,,15,104,9500322,,,2021-08-03,清算の結了等,,,2015-10-05,1,,,,,チヨダシンギタンヨウコウ,0
1982,7120002028780,登記記録の閉鎖等,0,2021-08-11,2021-08-03,有限会社リカープロモーションよど一,,有限会社,大阪府,大阪市淀川区,十三本町３丁目６番３号の１０３,,27,123,5320024,,,2021-08-03,清算の結了等,,,2015-10-05,1,,,,,リカープロモーションヨドイチ,0
1993,7120901019995,登記記録の閉鎖等,0,2021-08-11,2021-08-06,株式会社ますや,,株式会社,大阪府,池田市,綾羽１丁目３番２２号,,27,204,5630051,,,2021-08-06,清算の結了等,,,2015-10-05,1,,,,,マスヤ,0
1999,7130001068455,登記記録の閉鎖等,0,2021-08-11,2021-08-02,株式会社東山企業投資,,株式会社,京都府,京都市中京区,西ノ京小堀池町８番２号,,26,104,6048454,,,2021-08-02,合併による解散等,5130001001698,令和３年７月３１日京都市右京区山ノ内大町５番地の３株式会社東山書房（5130001001698）に合併し解散,2021-01-20,1,,,,,ヒガシヤマキギョウトウシ,0
2010,7140002037367,登記記録の閉鎖等,0,2021-08-11,2021-08-02,有限会社萬山米穀店,,有限会社,兵庫県,高砂市,伊保崎南２５番１５号,,28,216,6760075,,,2021-08-02,清算の結了等,,,2015-10-05,1,,,,,マンヤマベイコクテン,0
2021,7180001075819,登記記録の閉鎖等,0,2021-08-11,2021-08-05,小牧建材株式会社,,株式会社,愛知県,小牧市,中央５丁目６６番地,,23,219,4850029,,,2021-08-05,清算の結了等,,,2015-10-05,1,,,,,コマキケンザイ,0
2074,7290801001525,登記記録の閉鎖等,0,2021-08-11,2021-07-27,株式会社小倉マツダ販売,,株式会社,福岡県,北九州市小倉南区,朽網東２丁目３番１４号,,40,107,8000232,,,2021-07-27,清算の結了等,,,2015-10-05,1,,,,,コクラマツダハンバイ,0
2102,7400002006964,登記記録の閉鎖等,0,2021-08-11,2021-08-04,有限会社北方,,有限会社,岩手県,紫波郡矢巾町,大字下矢次第３地割４４番地２,,03,322,0283612,,,2021-08-04,清算の結了等,,,2015-10-05,1,,,,,ホッポウ,0
2108,7430001008100,登記記録の閉鎖等,0,2021-08-11,2021-07-27,株式会社ジャパド北海道,,株式会社,北海道,札幌市中央区,北八条西１８丁目１－１－８０２ブランＪＲ桑園,,01,101,0600008,,,2021-07-27,清算の結了等,,,2015-10-05,1,,,,,ジャパドホッカイドウ,0
2116,7450001000328,登記記録の閉鎖等,0,2021-08-11,2021-08-10,株式会社旭川北インター開発公社,,株式会社,北海道,旭川市,永山北一条６丁目１番４１号,,01,204,0798451,,,2021-08-10,清算の結了等,,,2015-10-05,1,,,,,アサヒカワキタインターカイハツコウシャ,0
2121,7470001005606,登記記録の閉鎖等,0,2021-08-11,2021-08-04,株式会社セシールビジネス＆スタッフィング,,株式会社,香川県,高松市,観光町５４５番地３,,37,201,7600076,,,2021-08-04,合併による解散等,1011201022566,令和３年７月１日東京都中野区本町二丁目４６番２号株式会社セシール（1011201022566）に合併し解散,2015-10-05,1,,,,,セシールビジネスアンドスタッフィング,0
2136,8010001188132,登記記録の閉鎖等,0,2021-08-11,2021-08-05,セイノーメンテック株式会社,,株式会社,東京都,中央区,日本橋中洲１２－９,,13,102,1030008,,,2021-08-05,合併による解散等,2200001004564,令和３年６月３０日岐阜市石切町３７番地株式会社二葉工業所（2200001004564）に合併し解散,2017-12-07,1,,,,,セイノーメンテック,0
2181,8011001095632,登記記録の閉鎖等,0,2021-08-11,2021-07-16,株式会社ティーアンドエス,,株式会社,東京都,渋谷区,道玄坂１丁目１８番１号,,13,113,1500043,,,2021-07-16,清算の結了等,,,2015-10-05,1,,,,,ティーアンドエス,0
2195,8011601006162,登記記録の閉鎖等,0,2021-08-11,2021-08-04,株式会社フルミズ創美,,株式会社,東京都,練馬区,関町北４丁目３２番３３号,,13,120,1770051,,,2021-08-04,清算の結了等,,,2015-10-05,1,,,,,フルミズソウビ,0
2223,8021001009013,登記記録の閉鎖等,0,2021-08-11,2021-08-03,株式会社川本工務店,,株式会社,神奈川県,鎌倉市,津１０４０番地３８,,14,204,2480032,,,2021-08-03,清算の結了等,,,2015-10-05,1,,,,,カワモトコウムテン,0
2236,8030002012891,登記記録の閉鎖等,0,2021-08-11,2021-07-27,有限会社まるい,,有限会社,埼玉県,さいたま市見沼区,深作３丁目２２番地の７,,11,104,3370003,,,2021-07-27,清算の結了等,,,2015-10-05,1,,,,,マルイ,0
2237,8030002028731,登記記録の閉鎖等,0,2021-08-11,2021-07-30,有限会社角長設計調査事務所,,有限会社,埼玉県,所沢市,林３丁目５４９番地５,,11,208,3591167,,,2021-07-30,清算の結了等,,,2015-10-05,1,,,,,カドチョウセッケイチョウサジムショ,0
2239,8030002116049,登記記録の閉鎖等,0,2021-08-11,2021-08-02,有限会社ワールド企画,,有限会社,埼玉県,大里郡寄居町,大字寄居１６６４番地４,,11,408,3691203,,,2021-08-02,清算の結了等,,,2015-10-05,1,,,,,ワールドキカク,0
2246,8040002101207,登記記録の閉鎖等,0,2021-08-11,2021-07-29,有限会社辰野商店,,有限会社,千葉県,鴨川市,天津１３４８番地,,12,223,2995503,,,2021-07-29,清算の結了等,,,2015-10-05,1,,,,,タツノショウテン,0
2249,8050002013293,登記記録の閉鎖等,0,2021-08-11,2021-07-28,有限会社大崎管工事,,有限会社,茨城県,稲敷郡阿見町,大字大室５７７番地,,08,443,3000303,,,2021-07-28,清算の結了等,,,2015-10-05,1,,,,,オオサキカンコウジ,0
2256,8080102019849,登記記録の閉鎖等,0,2021-08-11,2021-08-02,有限会社朔屋サービス,,有限会社,静岡県,伊東市,荻角折４６５の１１５,,22,208,4140053,,,2021-08-02,合併による解散等,9080101020328,令和３年８月１日静岡県伊東市荻４６５番地の１１５株式会社朔屋メンテナンス（9080101020328）に合併し解散,2015-10-05,1,,,,,サクヤサービス,0
2261,8100002025911,登記記録の閉鎖等,0,2021-08-11,2021-08-05,有限会社倭食糧,,有限会社,長野県,松本市,梓川倭６７７番地,,20,202,3901701,,,2021-08-05,清算の結了等,,,2015-10-05,1,,,,,ヤマトショクリョウ,0
2262,8110001012447,登記記録の閉鎖等,0,2021-08-11,2021-08-05,アルマイト理研株式会社,,株式会社,新潟県,新発田市,藤塚浜字石山３３１０番地６,,15,206,9570231,,,2021-08-05,合併による解散等,8080401013676,令和３年８月１日静岡県浜松市西区篠原町９８１５番地アルマイト理研株式会社（8080401013676）に合併し解散,2015-10-05,1,,,,,アルマイトリケン,0
2291,8130005003192,登記記録の閉鎖等,0,2021-08-11,2021-08-04,協同組合光彩会,,その他の設立登記法人,京都府,京都市中京区,油小路通三条上る宗林町１１１番地,,26,104,6048262,,,2021-08-04,清算の結了等,,,2015-10-05,1,,,,,コウサイカイ,0
2292,8140001051211,登記記録の閉鎖等,0,2021-08-11,2021-08-10,株式会社ゆうきウェルネス,,株式会社,大阪府,豊中市,若竹町１丁目２２－６－１０５,,27,203,5610811,,,2021-08-10,清算の結了等,,,2015-10-05,1,,,,,ユウキウェルネス,0
2300,8140002038182,登記記録の閉鎖等,0,2021-08-11,2021-08-04,有限会社ちひろホーム,,有限会社,兵庫県,加古郡播磨町,二子６６２番地の７,,28,382,6750100,,,2021-08-04,清算の結了等,,,2015-10-05,1,,,,,チヒロホーム,0
2332,8180302027749,登記記録の閉鎖等,0,2021-08-11,2021-08-06,八楽食品有限会社,,有限会社,愛知県,新城市,杉山字柴先２７番地の２・２７番地の８合併地,,23,221,4411341,,,2021-08-06,清算の結了等,,,2015-10-05,1,,,,,ハチラクショクヒン,0
2340,8200002027138,登記記録の閉鎖等,0,2021-08-11,2021-08-06,有限会社旭商事,,有限会社,岐阜県,下呂市,湯之島５２８番地,,21,220,5092207,,,2021-08-06,清算の結了等,,,2015-10-05,1,,,,,,0
2350,8240001034296,登記記録の閉鎖等,0,2021-08-11,2021-07-26,タカタ商事株式会社,,株式会社,広島県,府中市,元町２８番地の１,,34,208,7260003,,,2021-07-26,清算の結了等,,,2015-10-05,1,,,,,タカタショウジ,0
2353,8240001040591,登記記録の閉鎖等,0,2021-08-11,2021-07-28,株式会社前光,,株式会社,広島県,廿日市市,原２０１５番地,,34,213,7380031,,,2021-07-28,清算の結了等,,,2015-10-05,1,,,,,ゼンコウ,0
2365,8250001002616,登記記録の閉鎖等,0,2021-08-11,2021-08-06,株式会社ホライズン,,株式会社,山口県,防府市,清水町８番３５号,,35,206,7470842,,,2021-08-06,清算の結了等,,,2015-10-05,1,,,,,ホライズン,0
2396,8360001022719,登記記録の閉鎖等,0,2021-08-11,2021-07-29,株式会社Ｇ．Ｒ．Ｉ,,株式会社,沖縄県,那覇市,久茂地１丁目１番１号,,47,201,9000015,,,2021-07-29,清算の結了等,,,2017-08-02,1,,,,,ジーアールアイ,0
2427,8430001065958,登記記録の閉鎖等,0,2021-08-11,2021-07-28,株式会社メディカルエレメント,,株式会社,北海道,札幌市西区,宮の沢二条５丁目３番５号,,01,107,0630052,,,2021-07-28,清算の結了等,,,2015-10-05,1,,,,,メディカルエレメント,0
2446,9010401011883,登記記録の閉鎖等,0,2021-08-11,2021-08-02,株式会社サンランドリー,,株式会社,東京都,八王子市,北野台５丁目２８番９号,,13,201,1920913,,,2021-08-02,合併による解散等,1010401128941,令和３年８月１日東京都八王子市北野台五丁目２８番９号株式会社タンジェリン・タンジェント（1010401128941）に合併し解散,2015-10-05,1,,,,,サンランドリー,0
2503,9011101026759,登記記録の閉鎖等,0,2021-08-11,2021-07-14,三井ホームテクノス株式会社,,株式会社,東京都,新宿区,西新宿２丁目１番１号,,13,104,1600023,,,2021-07-14,合併による解散等,2011101020537,令和３年７月１日東京都新宿区西新宿二丁目１番１号三井ホーム株式会社（2011101020537）に合併し解散,2015-10-05,1,,,,,ミツイホームテクノス,0
2510,9011105008464,登記記録の閉鎖等,0,2021-08-11,2021-07-30,船橋ロジ不販一般社団法人,,その他の設立登記法人,東京都,新宿区,四谷２丁目９番地１５東京ユナイテッド綜合事務所内,,13,104,1600004,,,2021-07-30,清算の結了等,,,2018-08-06,1,,,,,フナバシロジフハン,0
2513,9011301024018,登記記録の閉鎖等,0,2021-08-11,2021-08-02,株式会社単品雑貨,,株式会社,東京都,杉並区,上荻１丁目２番１号,,13,115,1670043,,,2021-08-02,合併による解散等,5011301015672,令和３年７月３１日東京都杉並区上荻一丁目２番１号株式会社コスパクリエーション（5011301015672）に合併し解散,2018-04-10,1,,,,,タンピンザッカ,0
2514,9011302004563,登記記録の閉鎖等,0,2021-08-11,2021-08-03,有限会社眞地社,,有限会社,東京都,杉並区,方南１丁目５３番９号,,13,115,1680062,,,2021-08-03,清算の結了等,,,2015-10-05,1,,,,,シンチシャ,0
2516,9011402001023,登記記録の閉鎖等,0,2021-08-11,2021-08-05,有限会社トクムラ,,有限会社,東京都,板橋区,小豆沢４丁目７番９－２０１,,13,119,1740051,,,2021-08-05,清算の結了等,,,2015-10-05,1,,,,,トクムラ,0
2525,9011702002316,登記記録の閉鎖等,0,2021-08-11,2021-08-05,有限会社オートフットタイヤサービス,,有限会社,東京都,江戸川区,西葛西２丁目８番１号,,13,123,1340088,,,2021-08-05,清算の結了等,,,2015-10-05,1,,,,,オートフットタイヤサービス,0
2527,9012403004502,登記記録の閉鎖等,0,2021-08-11,2021-08-03,合同会社ルーフクロス,,合同会社,東京都,調布市,下石原２丁目６番地１４ラ・メゾン３０７,,13,208,1820034,,,2021-08-03,清算の結了等,,,2020-08-27,1,,,,,ルーフクロス,0
2537,9020002016018,登記記録の閉鎖等,0,2021-08-11,2021-08-02,有限会社アロマプランニング,,有限会社,神奈川県,横浜市西区,高島２丁目６番３８号岩井本社ビル２階,,14,103,2200011,,,2021-08-02,清算の結了等,,,2015-10-05,1,,,,,アロマプランニング,0
2549,9021005007425,登記記録の閉鎖等,0,2021-08-11,2021-08-02,ＮＰＯ法人ゆうがく,,その他の設立登記法人,神奈川県,大和市,鶴間１丁目２３番１６号,,14,213,2420004,,,2021-08-02,清算の結了等,,,2015-10-05,1,,,,,ユウガク,0
2557,9030002095754,登記記録の閉鎖等,0,2021-08-11,2021-08-02,有限会社国島企画,,有限会社,埼玉県,東松山市,大字柏崎１９７番地,,11,212,3550034,,,2021-08-02,清算の結了等,,,2015-10-05,1,,,,,クニシマキカク,0
2561,9040001047301,登記記録の閉鎖等,0,2021-08-11,2021-07-30,スワンスター株式会社,,株式会社,千葉県,四街道市,鹿放ケ丘４３４番地の６,,12,228,2840008,,,2021-07-30,清算の結了等,,,2015-10-05,1,,,,,スワンスター,0
2579,9080001016616,登記記録の閉鎖等,0,2021-08-11,2021-08-05,トーエイ株式会社,,株式会社,静岡県,島田市,旭１丁目１３番８号,,22,209,4270018,,,2021-08-05,清算の結了等,,,2015-10-05,1,,,,,トーエイ,0
2619,9120901031288,登記記録の閉鎖等,0,2021-08-11,2021-08-05,朝日土地建物株式会社,,株式会社,大阪府,吹田市,豊津町１７番１３号,,27,205,5640051,,,2021-08-05,清算の結了等,,,2015-10-05,1,,,,,アサヒトチタテモノ,0
2623,9122002006005,登記記録の閉鎖等,0,2021-08-11,2021-08-06,有限会社ハク,,有限会社,大阪府,東大阪市,長堂３丁目２６番６号,,27,227,5770056,,,2021-08-06,清算の結了等,,,2015-10-05,1,,,,,ハク,0
2624,9130001015604,登記記録の閉鎖等,0,2021-08-11,2021-08-05,藤川産業株式会社,,株式会社,京都府,京都市伏見区,桃山水野左近西町３２番地の２,,26,109,6120059,,,2021-08-05,清算の結了等,,,2015-10-05,1,,,,,,0
2630,9130005015749,登記記録の閉鎖等,0,2021-08-11,2021-08-03,税理士法人つむぎ,,その他の設立登記法人,京都府,城陽市,寺田袋尻１４－１,,26,207,6100121,,,2021-08-03,清算の結了等,,,2019-11-12,1,,,,,ツムギ,0
2659,9180002082267,登記記録の閉鎖等,0,2021-08-11,2021-08-05,有限会社ユーアイスタッフ,,有限会社,愛知県,江南市,布袋町西布１１番地の２,,23,217,4838141,,,2021-08-05,清算の結了等,,,2015-10-05,1,,,,,ユーアイスタッフ,0
2663,9180305008654,登記記録の閉鎖等,0,2021-08-11,2021-08-05,一般社団法人松ぼっくり,,その他の設立登記法人,愛知県,豊橋市,小松町６番地,,23,201,4418109,,,2021-08-05,清算の結了等,,,2017-05-10,1,,,,,マツボックリ,0
2675,9240001025831,登記記録の閉鎖等,0,2021-08-11,2021-07-27,株式会社厚井商事,,株式会社,広島県,呉市,三条３丁目５番１８号,,34,202,7370821,,,2021-07-27,清算の結了等,,,2015-10-05,1,,,,,コウイショウジ,0
2680,9240001052743,登記記録の閉鎖等,0,2021-08-11,2021-07-28,Ｃａｃｅｌｌａ＆Ｎｉｍｉ株式会社,,株式会社,広島県,広島市東区,若草町１１番１－１００４号,,34,102,7320053,,,2021-07-28,清算の結了等,,,2018-05-02,1,,,,,カセラアンドニミ,0
2685,9240002006194,登記記録の閉鎖等,0,2021-08-11,2021-07-29,有限会社小林鉄工所,,有限会社,広島県,広島市安佐北区,小河原町１４２２番地の１,,34,106,7391754,,,2021-07-29,清算の結了等,,,2015-10-05,1,,,,,コバヤシテッコウショ,0
2692,9240003003364,登記記録の閉鎖等,0,2021-08-11,2021-08-03,合同会社梶生商事,,合同会社,愛知県,名古屋市中村区,名駅３丁目２０番－２０,,23,105,4500002,,,2021-08-03,清算の結了等,,,2016-08-31,1,,,,,カジオショウジ,0
2696,9260002026835,登記記録の閉鎖等,0,2021-08-11,2021-08-06,有限会社西製麺所,,有限会社,岡山県,高梁市,本町１７番地,,33,209,7160011,,,2021-08-06,清算の結了等,,,2015-10-05,1,,,,,ニシセイメンショ,0
2703,9290002010662,登記記録の閉鎖等,0,2021-08-11,2021-07-16,有限会社建築スペースアイティーティー,,有限会社,福岡県,福岡市城南区,別府６丁目１２番１４－１０２号,,40,136,8140104,,,2021-07-16,清算の結了等,,,2015-10-05,1,,,,,ケンチクスペースアイティーティー,0
2710,9290802007676,登記記録の閉鎖等,0,2021-08-11,2021-07-19,有限会社オフィス・ド・ドゥー,,有限会社,福岡県,北九州市小倉南区,大字志井３００番地の３,,40,107,8020985,,,2021-07-19,清算の結了等,,,2015-10-05,1,,,,,オフィスドドゥー,0
2714,9310001012764,登記記録の閉鎖等,0,2021-08-11,2021-08-04,ＫＦＰユニティ株式会社,,株式会社,長崎県,佐世保市,上柚木町１２９２番地,,42,202,8570126,,,2021-08-04,清算の結了等,,,2015-10-05,1,,,,,ケーエフピーユニティ,0
2735,9380002009522,登記記録の閉鎖等,0,2021-08-11,2021-08-02,有限会社斉藤久夫商店,,有限会社,福島県,郡山市,湖南町福良字家老９４１４番地,,07,203,9631633,,,2021-08-02,清算の結了等,,,2015-10-05,1,,,,,サイトウヒサオショウテン,0
2739,9390002008374,登記記録の閉鎖等,0,2021-08-11,2021-08-02,有限会社出羽電気工事,,有限会社,山形県,酒田市,飛鳥４２３番地,,06,204,9996711,,,2021-08-02,清算の結了等,,,2015-10-05,1,,,,,デワデンキコウジ,0
