sequenceNumber,corporateNumber,process,correct,updateDate,changeDate,name,nameImageId,kind,prefectureName,cityName,streetNumber,addressImageId,prefectureCode,cityCode,postCode,addressOutside,addressOutsideImageId,closeDate,closeCause,successorCorporateNumber,changeCause,assignmentDate,latest,enName,enPrefectureName,enCityName,enAddressOutside,furigana,hihyoji
14,1010401015529,登記記録の閉鎖等,0,2025-11-11,2025-11-04,株式会社盛電社,,株式会社,茨城県,下妻市,大園木２８３９番地１大建ビル２階つくばね法律事務所内,,08,210,3040801,,,2025-11-04,清算の結了等,,,2015-10-05,1,,,,,セイデンシャ,0
22,1010403034205,登記記録の閉鎖等,0,2025-11-11,2025-10-10,合同会社ＹｕｋａＬｉｎａ,,合同会社,東京都,港区,北青山１丁目３番１号アールキューブ青山３階,,13,103,1070061,,,2025-10-10,清算の結了等,,,2025-01-22,1,,,,,ユカリナ,0
34,1010702006524,登記記録の閉鎖等,0,2025-11-11,2025-11-04,有限会社旗の台みかわや,,有限会社,東京都,品川区,旗の台２丁目８番１１号,,13,109,1420064,,,2025-11-04,清算の結了等,,,2015-10-05,1,,,,,ハタノダイミカワヤ,0
38,1010901033559,登記記録の閉鎖等,0,2025-11-11,2025-11-10,株式会社Ｃｏｄｅ　Ｄｅｓｉｇｎ　Ｐｌｕｓ,,株式会社,東京都,世田谷区,駒沢４丁目１８番１６号,,13,112,1540012,,,2025-11-10,清算の結了等,,,2015-10-05,1,,,,,コードデザインプラス,0
43,1011001159492,登記記録の閉鎖等,0,2025-11-11,2025-10-08,株式会社ＰＥＡＨ,,株式会社,東京都,目黒区,下目黒１丁目８番１号アルコタワー７階,,13,110,1530064,,,2025-10-08,清算の結了等,,,2024-01-22,1,,,,,ピエー,0
55,1011401000909,登記記録の閉鎖等,0,2025-11-11,2025-11-04,株式会社エスケーカンパニー,,株式会社,東京都,板橋区,大山町７番４号,,13,119,1730023,,,2025-11-04,合併による解散等,6010001211060,令和７年１１月１日東京都板橋区大山町７番４号株式会社ニック（6010001211060）に合併し解散,2015-10-05,1,,,,,,0
59,1011501000189,登記記録の閉鎖等,0,2025-11-11,2025-11-05,アスカ化学工業株式会社,,株式会社,東京都,北区,中十条３丁目４番１号,,13,117,1140032,,,2025-11-05,清算の結了等,,,2015-10-05,1,,,,,アスカカガクコウギョウ,0
68,1013101003539,登記記録の閉鎖等,0,2025-11-11,2025-11-10,関東福鉄運輸株式会社,,株式会社,東京都,青梅市,今寺３丁目３７５番地の５,,13,205,1980021,,,2025-11-10,清算の結了等,,,2015-10-05,1,,,,,カントウフクテツウンユ,0
80,1020002067365,登記記録の閉鎖等,0,2025-11-11,2025-10-31,有限会社ヨコハマ旅倶楽部,,有限会社,神奈川県,横浜市南区,永田北２丁目２番１７号,,14,105,2320071,,,2025-10-31,清算の結了等,,,2015-10-05,1,,,,,ヨコハマタビクラブ,0
100,1030005004991,登記記録の閉鎖等,0,2025-11-11,2025-11-05,医療法人堀内医院,,その他の設立登記法人,埼玉県,加須市,騎西１２０６番地,,11,210,3470105,,,2025-11-05,清算の結了等,,,2015-10-05,1,,,,,ホリウチイイン,0
105,1040002036863,登記記録の閉鎖等,0,2025-11-11,2025-10-16,有限会社みまつ,,有限会社,千葉県,千葉市花見川区,作新台５丁目５番７号,,12,102,2620045,,,2025-10-16,清算の結了等,,,2015-10-05,1,,,,,ミマツ,0
106,1040002045138,登記記録の閉鎖等,0,2025-11-11,2025-10-10,有限会社蒲生製作所,,有限会社,千葉県,松戸市,秋山１番地,,12,207,2702223,,,2025-10-10,清算の結了等,,,2015-10-05,1,,,,,ガモウセイサクショ,0
112,1040005018339,登記記録の閉鎖等,0,2025-11-11,2025-10-15,特定非営利活動法人ＮＰＯマネジメント支援協会,,その他の設立登記法人,千葉県,千葉市若葉区,若松台３丁目１２番１号,,12,104,2640027,,,2025-10-15,清算の結了等,,,2015-10-05,1,,,,,エヌピーオーマネジメントシエンキョウカイ,0
126,1080101020310,登記記録の閉鎖等,0,2025-11-11,2025-11-07,株式会社ｔａｓｕｋｉ,,株式会社,静岡県,沼津市,錦町３番２０,,22,203,4100807,,,2025-11-07,清算の結了等,,,2018-02-05,1,,,,,タスキ,0
138,1120001192781,登記記録の閉鎖等,0,2025-11-11,2025-10-31,株式会社ＡＮＤＩ,,株式会社,東京都,大田区,池上３丁目２９番１６号,,13,111,1460082,,,2025-10-31,清算の結了等,,,2015-10-05,1,,,,,アンディ,0
149,1120002020495,登記記録の閉鎖等,0,2025-11-11,2025-10-31,有限会社ハラウォールシステム,,有限会社,大阪府,大阪市西区,立売堀６丁目６番６－４１１号,,27,106,5500012,,,2025-10-31,清算の結了等,,,2015-10-05,1,,,,,ハラウォールシステム,0
156,1122001022209,登記記録の閉鎖等,0,2025-11-11,2025-10-31,株式会社シモムラシステムマネジメント,,株式会社,大阪府,八尾市,楠根町３丁目５２番地,,27,212,5810814,,,2025-10-31,清算の結了等,,,2015-10-05,1,,,,,シモムラシステムマネジメント,0
159,1122001037405,登記記録の閉鎖等,0,2025-11-11,2025-10-31,ＴＨＹ株式会社,,株式会社,大阪府,東大阪市,稲田本町２丁目７番２２号,,27,227,5770007,,,2025-10-31,清算の結了等,,,2023-09-25,1,,,,,ティーエイチワイ,0
169,1130002019545,登記記録の閉鎖等,0,2025-11-11,2025-11-07,有限会社平安工房なかがわ,,有限会社,京都府,京都市北区,大宮南椿原町１番地６,,26,101,6038402,,,2025-11-07,清算の結了等,,,2015-10-05,1,,,,,ヘイアンコウボウナカガワ,0
173,1140001121276,登記記録の閉鎖等,0,2025-11-11,2025-10-30,株式会社Ｌａｕｎｄｌｙｗｏｒｋｓ,,株式会社,兵庫県,加古川市,野口町長砂２８５番地の１６,,28,210,6750016,,,2025-10-30,清算の結了等,,,2021-04-22,1,,,,,ランドリーワークス,0
179,1180001086722,登記記録の閉鎖等,0,2025-11-11,2025-11-06,Ｔフーズ株式会社,,株式会社,愛知県,一宮市,松山町２６番地１,,23,203,4910085,,,2025-11-06,清算の結了等,,,2015-10-05,1,,,,,ティーフーズ,0
189,1180002026116,登記記録の閉鎖等,0,2025-11-11,2025-11-06,手島配送有限会社,,有限会社,愛知県,名古屋市南区,堤起町１丁目４４番地の３,,23,112,4570825,,,2025-11-06,清算の結了等,,,2015-10-05,1,,,,,テジマハイソウ,0
197,1180003013930,登記記録の閉鎖等,0,2025-11-11,2025-11-04,エムズスクエアー合同会社,,合同会社,愛知県,名古屋市守山区,瀬古２丁目６０５番地,,23,113,4630068,,,2025-11-04,合併による解散等,7180001114130,令和７年１１月１日名古屋市東区筒井三丁目２１番１５号株式会社ジーオン（7180001114130）に合併し解散,2015-10-05,1,,,,,エムズスクエアー,0
199,1180003027229,登記記録の閉鎖等,0,2025-11-11,2025-10-31,合同会社ＳＴＥＰ　ＯＵＴ,,合同会社,愛知県,名古屋市東区,矢田１丁目３－１８大山ビル２階,,23,102,4610040,,,2025-10-31,合併による解散等,9020003014128,令和７年１０月３１日愛知県一宮市栄一丁目１０番１６号ウィングズビル４階北室合同会社オーシャン（9020003014128）に合併し解散,2024-08-22,1,,,,,ステップアウト,0
239,1290801025471,登記記録の閉鎖等,0,2025-11-11,2025-11-06,株式会社白栄,,株式会社,福岡県,北九州市若松区,西園町３番１３－１０４Ｂ号,,40,103,8080031,,,2025-11-06,清算の結了等,,,2019-05-07,1,,,,,ハクエイ,0
242,1290805006542,登記記録の閉鎖等,0,2025-11-11,2025-05-15,大山祇神社,00094973,その他の設立登記法人,福岡県,京都郡みやこ町,犀川扇谷字谷ケ迫８８番地,,40,625,8240254,,,2025-05-15,合併による解散等,9290805006543,令和７年３月６日福岡県京都郡みやこ町犀川帆柱字一本木８９番地の２大山祇神社（9290805006543）に合併し解散,2015-10-05,1,,,,,オオヤマズミジンジャ,0
243,1300002010354,登記記録の閉鎖等,0,2025-11-11,2025-11-04,有限会社三陽商事,,有限会社,佐賀県,唐津市,長谷１８番地１,,41,202,8470822,,,2025-11-04,合併による解散等,5300001007513,令和７年１１月１日佐賀県唐津市長谷１８番地１株式会社新富商事（5300001007513）に合併し解散,2015-10-05,1,,,,,サンヨウショウジ,0
245,1310001011336,登記記録の閉鎖等,0,2025-11-11,2025-11-10,株式会社曙海運,,株式会社,長崎県,壱岐市,石田町久喜触１０番地,,42,210,8115223,,,2025-11-10,清算の結了等,,,2015-10-05,1,,,,,アケボノカイウン,0
249,1330001002449,登記記録の閉鎖等,0,2025-11-11,2025-10-31,株式会社神和屋川添和平商店,,株式会社,熊本県,熊本市中央区,本山１丁目８番１７号,,43,101,8600821,,,2025-10-31,清算の結了等,,,2015-10-05,1,,,,,シンワヤカワゾエワヘイショウテン,0
251,1330002020862,登記記録の閉鎖等,0,2025-11-11,2025-10-31,エンゲル有限会社,,有限会社,熊本県,熊本市西区,上熊本１丁目３番１３号,,43,103,8600079,,,2025-10-31,清算の結了等,,,2015-10-05,1,,,,,エンゲル,0
255,1360001027930,登記記録の閉鎖等,0,2025-11-11,2025-11-04,株式会社リベオール,,株式会社,沖縄県,那覇市,古波蔵１丁目９番１４号クレイノ和３０６,,47,201,9000024,,,2025-11-04,清算の結了等,,,2020-11-17,1,,,,,リベオール,0
261,1380002015107,登記記録の閉鎖等,0,2025-11-11,2025-11-04,有限会社ヨシダ,,有限会社,福島県,田村郡小野町,大字夏井字都沢６番地の５,,07,522,9633312,,,2025-11-04,清算の結了等,,,2015-10-05,1,,,,,ヨシダ,0
265,1410001011945,登記記録の閉鎖等,0,2025-11-11,2025-11-07,株式会社白神ワールド交易,,株式会社,秋田県,秋田市,土崎港中央７丁目９番４号,,05,201,0110946,,,2025-11-07,清算の結了等,,,2018-08-23,1,,,,,シラカミワールドコウエキ,0
275,1470005005566,登記記録の閉鎖等,0,2025-11-11,2025-11-04,特定非営利活動法人エール,,その他の設立登記法人,香川県,善通寺市,上吉田町２丁目５番９号,,37,204,7650011,,,2025-11-04,清算の結了等,,,2015-10-05,1,,,,,エール,0
277,1500002012768,登記記録の閉鎖等,0,2025-11-11,2025-11-07,有限会社天満屋商店,,有限会社,愛媛県,西予市,三瓶町朝立１番耕地３０４番地第４,,38,214,7960907,,,2025-11-07,清算の結了等,,,2015-10-05,1,,,,,テンマヤショウテン,0
301,2010003029975,登記記録の閉鎖等,0,2025-11-11,2025-10-14,ｉＪＰ　Ｃａｐｉｔａｌ　Ｐａｒｔｎｅｒｓ合同会社,,合同会社,東京都,港区,元麻布２丁目１番１３号,,13,103,1060046,,,2025-10-14,清算の結了等,,,2019-06-06,1,,,,,アイジップキャピタルパートナーズ,0
302,2010102002073,登記記録の閉鎖等,0,2025-11-11,2025-11-06,有限会社キッチンサポート,,有限会社,東京都,八王子市,東浅川町５００番地の７,,13,201,1930834,,,2025-11-06,清算の結了等,,,2015-10-05,1,,,,,キッチンサポート,0
304,2010401111665,登記記録の閉鎖等,0,2025-11-11,2025-10-14,ＥＶＲ　Ｍａｒｋｅｔｉｎｇ　Ｊａｐａｎ株式会社,,株式会社,東京都,港区,新橋５丁目１１番３号,,13,103,1050004,,,2025-10-14,清算の結了等,,,2015-10-05,1,,,,,イーヴィーアールマーケティングジャパン,0
331,2011001065343,登記記録の閉鎖等,0,2025-11-11,2025-10-08,東栄株式会社,,株式会社,東京都,渋谷区,広尾４丁目１－３０－Ｆ３０５,,13,113,1500012,,,2025-10-08,清算の結了等,,,2015-10-05,1,,,,,トウエイ,0
333,2011001146498,登記記録の閉鎖等,0,2025-11-11,2025-10-09,上進株式会社,,株式会社,東京都,渋谷区,恵比寿西２丁目２１番１５号,,13,113,1500021,,,2025-10-09,清算の結了等,,,2022-03-23,1,,,,,ジョウシン,0
341,2011101087345,登記記録の閉鎖等,0,2025-11-11,2025-10-07,株式会社ｔｅｎｓｏｒＸ,,株式会社,東京都,新宿区,神楽坂２丁目１４ノービィビル,,13,104,1620825,,,2025-10-07,清算の結了等,,,2019-04-11,1,,,,,テンソアエックス,0
343,2011101103291,登記記録の閉鎖等,0,2025-11-11,2025-10-06,株式会社Ｇｉｒａｓｏｌ,,株式会社,千葉県,千葉市中央区,中央３丁目３番８号日進センタービル５階,,12,101,2600013,,,2025-10-06,清算の結了等,,,2023-06-16,1,,,,,ヒラソル,0
375,2020003009803,登記記録の閉鎖等,0,2025-11-11,2025-09-25,合同会社ノートーン,,合同会社,北海道,札幌市中央区,南一条西２７丁目１－４５円山ブロードハイツ２１０号,,01,101,0640801,,,2025-09-25,清算の結了等,,,2015-10-05,1,,,,,ノートーン,0
385,2030001086001,登記記録の閉鎖等,0,2025-11-11,2025-10-31,株式会社リバティー・ハウス,,株式会社,埼玉県,大里郡寄居町,大字富田１７３０番地１３,,11,408,3691216,,,2025-10-31,清算の結了等,,,2015-10-05,1,,,,,リバティーハウス,0
388,2030001157181,登記記録の閉鎖等,0,2025-11-11,2025-11-05,ＺＯＵＱ　ＨＡＬＡＬ　ＳＯＦＴＷＡＲＥ　ＣＯＲＰＯＲＡＴＩＯＮ　ＪＡＰＡＮ株式会社,,株式会社,埼玉県,越谷市,南越谷１丁目２７番地１２－４０１号室,,11,222,3430845,,,2025-11-05,清算の結了等,,,2023-11-15,1,,,,,ズークハラールソフトウェアコーポレーションジャパン,0
390,2030002022384,登記記録の閉鎖等,0,2025-11-11,2025-11-04,有限会社特許技術調査パルテック,,有限会社,埼玉県,蓮田市,大字黒浜４７６番地の１５,,11,238,3490101,,,2025-11-04,清算の結了等,,,2015-10-05,1,,,,,トッキョギジュツチョウサパルテック,0
405,2060001022267,登記記録の閉鎖等,0,2025-11-11,2025-11-04,株式会社ＥＳＣ,,株式会社,東京都,江戸川区,南小岩６丁目２５番１０号フェリース南小岩２－２０１,,13,123,1330056,,,2025-11-04,清算の結了等,,,2015-10-05,1,,,,,イーエスシー,0
460,2150003000336,登記記録の閉鎖等,0,2025-11-11,2025-11-07,合資会社生駒コンタクトレンズ,,合資会社,奈良県,生駒市,生駒台南１９３番地,,29,209,6300202,,,2025-11-07,清算の結了等,,,2015-10-05,1,,,,,イコマコンタクトレンズ,0
477,2180002078726,登記記録の閉鎖等,0,2025-11-11,2025-11-05,カワイエクスインマック有限会社,,有限会社,愛知県,一宮市,文京２丁目９番２号,,23,203,4910041,,,2025-11-05,清算の結了等,,,2015-10-05,1,,,,,カワイエクスインマック,0
490,2240001001467,登記記録の閉鎖等,0,2025-11-11,2025-10-31,エヌブイシーコム株式会社,,株式会社,広島県,広島市中区,大手町３丁目１０番８号岡本ビル２階,,34,101,7300051,,,2025-10-31,清算の結了等,,,2015-10-05,1,,,,,エヌブイシーコム,0
491,2240001007200,登記記録の閉鎖等,0,2025-11-11,2025-10-30,株式会社テクノクラーツ,,株式会社,広島県,広島市南区,的場町１丁目５番５号,,34,103,7320824,,,2025-10-30,合併による解散等,2010401188563,令和７年１０月１日東京都港区元赤坂一丁目１番７－１２０９号株式会社赤坂国際会計内ＧＣＪＧ５０株式会社（2010401188563）に合併し解散,2015-10-05,1,,,,,テクノクラーツ,0
492,2240001011615,登記記録の閉鎖等,0,2025-11-11,2025-10-30,株式会社ミワテック,,株式会社,広島県,広島市南区,的場町１丁目５番５号,,34,103,7320824,,,2025-10-30,合併による解散等,2010401188563,令和７年１０月１日東京都港区元赤坂一丁目１番７－１２０９号株式会社赤坂国際会計内ＧＣＪＧ５０株式会社（2010401188563）に合併し解散,2015-10-05,1,,,,,ミワテック,0
499,2260002014367,登記記録の閉鎖等,0,2025-11-11,2025-11-05,有限会社フロール,,有限会社,岡山県,岡山市北区,西崎２丁目７番１４号,,33,101,7000055,,,2025-11-05,清算の結了等,,,2015-10-05,1,,,,,フロール,0
509,2300005007181,登記記録の閉鎖等,0,2025-11-11,2025-11-04,特定労働者協同組合法人あんそれいゆ陽葵,,その他の設立登記法人,佐賀県,佐賀市,八幡小路２番３号八幡小路ビル２階,,41,201,8400834,,,2025-11-04,清算の結了等,,,2024-03-18,1,,,,,アンソレイユヒマリ,0
519,2380002030864,登記記録の閉鎖等,0,2025-11-11,2025-11-04,有限会社会津事務機販売,,有限会社,福島県,会津若松市,堤町１０番５３号,,07,202,9650013,,,2025-11-04,清算の結了等,,,2015-10-05,1,,,,,アイヅジムキハンバイ,0
523,2420001006084,登記記録の閉鎖等,0,2025-11-11,2025-10-30,サクサシステムエンジニアリング株式会社,,株式会社,青森県,八戸市,北インター工業団地１丁目３番５４号,,02,203,0392245,,,2025-10-30,合併による解散等,2010401060020,令和７年１０月１日東京都港区三田一丁目４番２８号三田国際ビルサクサ株式会社（2010401060020）に合併し解散,2015-10-05,1,,,,,サクサシステムエンジニアリング,0
524,2420001014401,登記記録の閉鎖等,0,2025-11-11,2025-10-24,東北地域エネルギー株式会社,,株式会社,青森県,青森市,新田３丁目１１番１号,,02,201,0380001,,,2025-10-24,清算の結了等,,,2015-10-05,1,,,,,トウホクチイキエネルギー,0
530,2430001079435,登記記録の閉鎖等,0,2025-11-11,2025-11-04,株式会社ＨＫリユース,,株式会社,北海道,札幌市白石区,菊水八条２丁目１番１３号,,01,104,0030808,,,2025-11-04,清算の結了等,,,2019-07-16,1,,,,,エイチケーリユース,0
542,2490002011589,登記記録の閉鎖等,0,2025-11-11,2025-10-31,有限会社片岡ブックス,,有限会社,高知県,南国市,後免町２丁目１番３１号,,39,204,7830011,,,2025-10-31,清算の結了等,,,2015-10-05,1,,,,,カタオカブックス,0
569,3010403030466,登記記録の閉鎖等,0,2025-11-11,2025-10-14,合同会社ＺＥＲＯ‐ＭＯＢＩＲＩＴＹ,,合同会社,千葉県,市川市,稲荷木３丁目４番１１号,,12,203,2720024,,,2025-10-14,清算の結了等,,,2023-07-13,1,,,,,ゼロモビリティ,0
584,3010901011843,登記記録の閉鎖等,0,2025-11-11,2025-11-10,株式会社ミワハウジング,,株式会社,東京都,世田谷区,瀬田３丁目９番１９号,,13,112,1580095,,,2025-11-10,清算の結了等,,,2025-07-01,1,,,,,ミワハウジング,0
588,3011001050765,登記記録の閉鎖等,0,2025-11-11,2025-11-05,株式会社オッド,,株式会社,埼玉県,川口市,青木５丁目７番２１号,,11,203,3320031,,,2025-11-05,清算の結了等,,,2015-10-05,1,,,,,オッド,0
592,3011001156620,登記記録の閉鎖等,0,2025-11-11,2025-11-07,株式会社Ｕｃｈｉｗａ,,株式会社,東京都,渋谷区,円山町５－５Ｎａｖｉ渋谷Ｖ３Ｆ,,13,113,1500044,,,2025-11-07,合併による解散等,5012401039751,令和７年９月２２日東京都新宿区新宿四丁目３番１５号レイフラット新宿２Ｆアディクシィ株式会社（5012401039751）に合併し解散,2023-08-28,1,,,,,ウチワ,0
614,3011501004592,登記記録の閉鎖等,0,2025-11-11,2025-11-05,株式会社ミヤマ,,株式会社,東京都,北区,赤羽１丁目３６番１１－３０１号,,13,117,1150045,,,2025-11-05,清算の結了等,,,2015-10-05,1,,,,,ミヤマ,0
652,3030001100487,登記記録の閉鎖等,0,2025-11-11,2025-11-05,株式会社都市開発研究所,,株式会社,埼玉県,さいたま市浦和区,常盤１丁目５番８－１３０２号,,11,107,3300061,,,2025-11-05,清算の結了等,,,2015-10-05,1,,,,,トシカイハツケンキュウジョ,0
675,3070001040515,登記記録の閉鎖等,0,2025-11-11,2025-11-05,株式会社ミロクトワ,,株式会社,群馬県,沼田市,坊新田町１２３３番地,,10,206,3780017,,,2025-11-05,清算の結了等,,,2023-06-07,1,,,,,ミロクトワ,0
678,3080005005216,登記記録の閉鎖等,0,2025-11-11,2025-11-06,特定非営利活動法人勝間田塾,,その他の設立登記法人,静岡県,牧之原市,勝田１４８３番地１,,22,226,4210406,,,2025-11-06,清算の結了等,,,2015-10-05,1,,,,,カツマタジュク,0
682,3080102015398,登記記録の閉鎖等,0,2025-11-11,2025-11-04,有限会社和幸産業,,有限会社,静岡県,富士市,岩本３２２番地の７３,,22,210,4160901,,,2025-11-04,清算の結了等,,,2015-10-05,1,,,,,ワコウサンギョウ,0
685,3080402008135,登記記録の閉鎖等,0,2025-11-11,2025-10-30,有限会社美和板金工業所,,有限会社,静岡県,浜松市中央区,金折町７３３番地の２,,22,138,4350026,,,2025-10-30,清算の結了等,,,2015-10-05,1,,,,,ミワバンキンコウギョウショ,0
696,3120001221927,登記記録の閉鎖等,0,2025-11-11,2025-11-04,株式会社リマインド,,株式会社,大阪府,枚方市,村野西町１番２７号,,27,210,5730042,,,2025-11-04,清算の結了等,,,2019-06-24,1,,,,,リマインド,0
711,3120901046325,登記記録の閉鎖等,0,2025-11-11,2025-10-24,ポポロ株式会社,,株式会社,大阪府,茨木市,西駅前町６番２３号三島コーポレーション西駅前町ＢＬＤ．４Ｆ,,27,211,5670032,,,2025-10-24,清算の結了等,,,2022-08-03,1,,,,,ポポロ,0
725,3150001017166,登記記録の閉鎖等,0,2025-11-11,2025-11-07,株式会社ひみこ,,株式会社,奈良県,桜井市,大字川合２５７番地の６,,29,206,6330063,,,2025-11-07,清算の結了等,,,2015-10-05,1,,,,,ヒミコ,0
740,3180002089350,登記記録の閉鎖等,0,2025-11-11,2025-11-05,有限会社大貴電設,,有限会社,愛知県,津島市,永楽町４丁目３１番地の５,,23,208,4960845,,,2025-11-05,清算の結了等,,,2015-10-05,1,,,,,ダイキデンセツ,0
746,3180301035352,登記記録の閉鎖等,0,2025-11-11,2025-10-29,ＳＤＳＺ株式会社,,株式会社,愛知県,名古屋市中区,栄３丁目１５番３３号栄ガスビル１３階,,23,106,4600008,,,2025-10-29,清算の結了等,,,2021-09-07,1,,,,,エスディーエスズィー,0
749,3190001010753,登記記録の閉鎖等,0,2025-11-11,2025-10-31,伊藤海産株式会社,,株式会社,三重県,松阪市,小津町８００番地,,24,204,5152114,,,2025-10-31,清算の結了等,,,2015-10-05,1,,,,,イトウカイサン,0
755,3200001033050,登記記録の閉鎖等,0,2025-11-11,2025-11-04,株式会社ロズ,,株式会社,岐阜県,養老郡養老町,船附４８８－１,,21,341,5031382,,,2025-11-04,清算の結了等,,,2016-07-15,1,,,,,ロズ,0
768,3240003001489,登記記録の閉鎖等,0,2025-11-11,2025-11-05,合同会社レイナイン,,合同会社,広島県,呉市,本通１丁目４番２８号,,34,202,7370045,,,2025-11-05,清算の結了等,,,2015-10-05,1,,,,,レイナイン,0
769,3250001003949,登記記録の閉鎖等,0,2025-11-11,2025-11-07,竜三建設株式会社,,株式会社,山口県,山陽小野田市,大字鴨庄８５番地の１,,35,216,7570005,,,2025-11-07,清算の結了等,,,2015-10-05,1,,,,,タツミケンセツ,0
775,3290001004695,登記記録の閉鎖等,0,2025-11-11,2025-10-21,手島商店株式会社,,株式会社,福岡県,福岡市城南区,長尾４丁目３番２０号,,40,136,8140123,,,2025-10-21,清算の結了等,,,2015-10-05,1,,,,,テシマショウテン,0
782,3290802024149,登記記録の閉鎖等,0,2025-11-11,2025-11-07,有限会社三和建設,,有限会社,福岡県,田川郡糸田町,３７１４番地の２,,40,604,8221300,,,2025-11-07,清算の結了等,,,2015-10-05,1,,,,,,0
788,3330002011678,登記記録の閉鎖等,0,2025-11-11,2025-10-31,綿貫建設有限会社,,有限会社,熊本県,熊本市東区,花立５丁目６番３１号,,43,102,8620918,,,2025-10-31,清算の結了等,,,2015-10-05,1,,,,,ワタヌキケンセツ,0
789,3330002027377,登記記録の閉鎖等,0,2025-11-11,2025-11-04,有限会社のぞみ,,有限会社,熊本県,八代市,千丁町古閑出４２１番地１６,,43,202,8694704,,,2025-11-04,合併による解散等,5330002027169,令和７年１１月１日熊本県八代市古閑下町２２２５番地株式会社ラポール．（5330002027169）に合併し解散,2015-10-05,1,,,,,ノゾミ,0
790,3330003006883,登記記録の閉鎖等,0,2025-11-11,2025-10-31,合同会社アレス,,合同会社,熊本県,熊本市中央区,国府１丁目７番１１－４０１号,,43,101,8620949,,,2025-10-31,合併による解散等,5330003004563,令和７年１０月３１日熊本市中央区国府一丁目７番１１－４０１号合同会社アリエスカペラ（5330003004563）に合併し解散,2016-11-08,1,,,,,アレス,0
803,3370205001539,登記記録の閉鎖等,0,2025-11-11,2025-10-30,伊藤ハム米久プラント労働組合,,その他の設立登記法人,宮城県,栗原市,高清水来光沢２０番地,,04,213,9872116,,,2025-10-30,清算の結了等,,,2015-10-05,1,,,,,イトウハムヨネキュウプラント,0
805,3380002012820,登記記録の閉鎖等,0,2025-11-11,2025-11-04,有限会社山口ハイツ,,有限会社,福島県,郡山市,芳賀１丁目１１番１号,,07,203,9638813,,,2025-11-04,清算の結了等,,,2015-10-05,1,,,,,ヤマグチハイツ,0
806,3390003001615,登記記録の閉鎖等,0,2025-11-11,2025-11-04,合同会社Ｓｋｌｄ,,合同会社,山形県,山形市,八日町１丁目３番６０号,,06,201,9900037,,,2025-11-04,清算の結了等,,,2019-04-25,1,,,,,スクルド,0
812,3410002003510,登記記録の閉鎖等,0,2025-11-11,2025-11-07,有限会社丸孝仁井田店,,有限会社,秋田県,秋田市,大住２丁目１６番１９号,,05,201,0101436,,,2025-11-07,清算の結了等,,,2015-10-05,1,,,,,マルコウニイダテン,0
827,3500001022774,登記記録の閉鎖等,0,2025-11-11,2025-11-10,株式会社ＳＧＭ,,株式会社,愛媛県,四国中央市,土居町天満２４８７番地,,38,213,7990723,,,2025-11-10,清算の結了等,,,2020-07-07,1,,,,,,0
831,4010001129899,登記記録の閉鎖等,0,2025-11-11,2025-10-30,株式会社アンジェ,,株式会社,東京都,中央区,築地３丁目７番１０号,,13,102,1040045,,,2025-10-30,清算の結了等,,,2015-10-05,1,,,,,アンジェ,0
862,4010403014179,登記記録の閉鎖等,0,2025-11-11,2025-10-10,明日エネルギー合同会社,,合同会社,東京都,港区,元赤坂１丁目１番７号,,13,103,1070051,,,2025-10-10,清算の結了等,,,2015-12-17,1,,,,,アシタエネルギー,0
886,4010701039588,登記記録の閉鎖等,0,2025-11-11,2025-11-05,ＤＸデータガバナンス株式会社,,株式会社,東京都,品川区,平塚３丁目２番１３－２００１号,,13,109,1420051,,,2025-11-05,清算の結了等,,,2020-07-28,1,,,,,ディーエックスデータガバナンス,0
892,4010903003895,登記記録の閉鎖等,0,2025-11-11,2025-11-05,グランエスピーガ合同会社,,合同会社,東京都,世田谷区,玉川１丁目１５番１－２１０４,,13,112,1580094,,,2025-11-05,清算の結了等,,,2017-10-12,1,,,,,グランエスピーガ,0
906,4011101020964,登記記録の閉鎖等,0,2025-11-11,2025-11-07,株式会社明邦,,株式会社,東京都,新宿区,早稲田鶴巻町１１０番地,,13,104,1620041,,,2025-11-07,清算の結了等,,,2015-10-05,1,,,,,メイホウ,0
912,4011101077195,登記記録の閉鎖等,0,2025-11-11,2025-11-04,株式会社ＯＦＦ　ＴＨＥ　ＷＡＬＬ,,株式会社,東京都,江東区,亀戸３丁目６１番１３－２０３号,,13,108,1360071,,,2025-11-04,清算の結了等,,,2016-06-06,1,,,,,,0
917,4011302016398,登記記録の閉鎖等,0,2025-11-11,2025-11-04,ファースト・チョイス・インターネット有限会社,,有限会社,東京都,江東区,新大橋３丁目２－７,,13,108,1350007,,,2025-11-04,清算の結了等,,,2015-10-05,1,,,,,ファーストチョイスインターネット,0
930,4012702008126,登記記録の閉鎖等,0,2025-11-11,2025-09-29,有限会社日向寺土建工業,,有限会社,東京都,清瀬市,中里５丁目８８番地の２,,13,221,2040003,,,2025-09-29,清算の結了等,,,2015-10-05,1,,,,,ヒュウガジドケンコウギョウ,0
932,4013201003907,登記記録の閉鎖等,0,2025-11-11,2025-10-31,株式会社映像工房,,株式会社,神奈川県,横浜市中区,住吉町６丁目７８番地１－１１０８号室,,14,104,2310013,,,2025-10-31,清算の結了等,,,2015-10-05,1,,,,,エイゾウコウボウ,0
939,4020001058008,登記記録の閉鎖等,0,2025-11-11,2025-10-31,株式会社美しが丘こどもの家,,株式会社,神奈川県,横浜市青葉区,みすずが丘２６番地１３,,14,117,2250016,,,2025-10-31,清算の結了等,,,2015-10-05,1,,,,,ウツクシガオカコドモノイエ,0
948,4020003027464,登記記録の閉鎖等,0,2025-11-11,2025-10-31,合同会社飛鳥ホーム,,合同会社,神奈川県,横浜市保土ケ谷区,岩井町４７６番地８えるまやＢ１,,14,106,2400023,,,2025-10-31,清算の結了等,,,2024-12-13,1,,,,,アスカホーム,0
967,4030002056892,登記記録の閉鎖等,0,2025-11-11,2025-11-04,有限会社サトー,,有限会社,埼玉県,上尾市,大字小敷谷７３６－５,,11,219,3620064,,,2025-11-04,清算の結了等,,,2015-10-05,1,,,,,サトー,0
969,4030005012091,登記記録の閉鎖等,0,2025-11-11,2025-10-14,医療法人八百板整形外科医院,,その他の設立登記法人,埼玉県,川口市,鳩ヶ谷本町４丁目４番１０号,,11,203,3340002,,,2025-10-14,清算の結了等,,,2015-10-05,1,,,,,ヤオイタセイケイゲカイイン,0
971,4040001060317,登記記録の閉鎖等,0,2025-11-11,2025-09-08,株式会社長生ＳＵＮ,,株式会社,千葉県,茂原市,長尾２６９０番地６,,12,210,2970073,,,2025-09-08,清算の結了等,,,2015-10-05,1,,,,,チョウセイサン,0
976,4040001118024,登記記録の閉鎖等,0,2025-11-11,2025-10-10,ＮＯＶＡＳＵ株式会社,,株式会社,千葉県,八千代市,八千代台北１丁目１１－５－２フジタカビル２階,,12,221,2760031,,,2025-10-10,清算の結了等,,,2021-04-15,1,,,,,ノバス,0
992,4050003007744,登記記録の閉鎖等,0,2025-11-11,2025-10-23,合同会社Ｆｏｒｗａｒｄ,,合同会社,東京都,中央区,銀座１丁目１２－４Ｎ＆ＥＢＬＤ６Ｆ,,13,102,1040061,,,2025-10-23,清算の結了等,,,2023-08-22,1,,,,,フォワード,0
1002,4080102022567,登記記録の閉鎖等,0,2025-11-11,2025-11-06,有限会社永田保温工業,,有限会社,静岡県,富士市,蓼原１１１７番地の７,,22,210,4160931,,,2025-11-06,清算の結了等,,,2025-07-07,1,,,,,ナガタホオンコウギョウ,0
1013,4110001030824,登記記録の閉鎖等,0,2025-11-11,2025-11-04,ジュエリーナッツ・カンパニー株式会社,,株式会社,新潟県,長岡市,千手２丁目１１番１３号,,15,202,9400087,,,2025-11-04,清算の結了等,,,2015-10-05,1,,,,,ジュエリーナッツカンパニー,0
1018,4110003005353,登記記録の閉鎖等,0,2025-11-11,2025-10-31,合同会社ＱＵ,,合同会社,新潟県,燕市,東太田６７４９－１クレッセント燕Ａ１０５,,15,213,9591289,,,2025-10-31,清算の結了等,,,2024-04-04,1,,,,,キューユー,0
1026,4120001242492,登記記録の閉鎖等,0,2025-11-11,2025-11-04,株式会社Ｃｈａｌｌｅｎｇｅｒｓ＆ｃｏ,,株式会社,大阪府,大阪市大正区,千島３丁目５番１０号,,27,108,5510003,,,2025-11-04,清算の結了等,,,2021-12-15,1,,,,,チャレンジャーズアンドコー,0
1038,4120003026860,登記記録の閉鎖等,0,2025-11-11,2025-10-29,合同会社スマート,,合同会社,大阪府,大阪市港区,波除１丁目４－２８,,27,107,5520001,,,2025-10-29,清算の結了等,,,2024-06-17,1,,,,,スマート,0
1051,4130001015773,登記記録の閉鎖等,0,2025-11-11,2025-10-30,株式会社ミツク,,株式会社,京都府,京都市伏見区,深草西川原町３６番地,,26,109,6120009,,,2025-10-30,清算の結了等,,,2015-10-05,1,,,,,ミツク,0
1052,4130001021045,登記記録の閉鎖等,0,2025-11-11,2025-11-07,システムリサーチ株式会社,,株式会社,京都府,京都市山科区,西野山中臣町７６番地５,,26,110,6078305,,,2025-11-07,清算の結了等,,,2015-10-05,1,,,,,システムリサーチ,0
1055,4140001049952,登記記録の閉鎖等,0,2025-11-11,2025-11-04,田渕合金株式会社,,株式会社,兵庫県,尼崎市,崇徳院２丁目１６１番地,,28,202,6600071,,,2025-11-04,清算の結了等,,,2015-10-05,1,,,,,タブチゴウキン,0
1058,4140001077441,登記記録の閉鎖等,0,2025-11-11,2025-11-04,荒木マネジメントパートナーズ株式会社,,株式会社,兵庫県,西脇市,明楽寺町１２９１番地の２,,28,213,6770067,,,2025-11-04,清算の結了等,,,2015-10-05,1,,,,,アラキマネジメントパートナーズ,0
1065,4140002045430,登記記録の閉鎖等,0,2025-11-11,2025-11-04,有限会社エコノテック,,有限会社,兵庫県,尼崎市,西大物町７－２－１０１,,28,202,6600827,,,2025-11-04,清算の結了等,,,2015-10-05,1,,,,,エコノテック,0
1075,4180002016584,登記記録の閉鎖等,0,2025-11-11,2025-11-06,有限会社長谷川,,有限会社,愛知県,名古屋市東区,泉１丁目１４番３号,,23,102,4610001,,,2025-11-06,清算の結了等,,,2015-10-05,1,,,,,ハセガワ,0
1079,4180003027936,登記記録の閉鎖等,0,2025-11-11,2025-10-29,合同会社希風蝶,,合同会社,愛知県,春日井市,牛山町１９８８番地５０,,23,206,4860901,,,2025-10-29,清算の結了等,,,2025-01-30,1,,,,,マレカ,0
1083,4180301004793,登記記録の閉鎖等,0,2025-11-11,2025-11-10,株式会社アトリエプラス,,株式会社,愛知県,岡崎市,井田町字稲場２番地５,,23,202,4440076,,,2025-11-10,清算の結了等,,,2015-10-05,1,,,,,アトリエプラス,0
1086,4180301029196,登記記録の閉鎖等,0,2025-11-11,2025-11-06,株式会社ラインナップ,,株式会社,愛知県,みよし市,三好町小坂６６番地,,23,236,4700224,,,2025-11-06,清算の結了等,,,2016-05-13,1,,,,,ラインナップ,0
1094,4190005006383,登記記録の閉鎖等,0,2025-11-11,2025-11-05,特定非営利活動法人生活支援グループこんにちは,,その他の設立登記法人,三重県,名張市,夏見２２７０番地の１,,24,208,5180441,,,2025-11-05,清算の結了等,,,2015-10-05,1,,,,,セイカツシエングループコンニチハ,0
1098,4200003000840,登記記録の閉鎖等,0,2025-11-11,2025-11-05,睦商事合資会社,,合資会社,岐阜県,岐阜市,長住町７丁目１２番地,,21,201,5008175,,,2025-11-05,清算の結了等,,,2015-10-05,1,,,,,ムツミショウジ,0
1100,4230002000112,登記記録の閉鎖等,0,2025-11-11,2025-11-07,有限会社アイワ運送,,有限会社,富山県,中新川郡舟橋村,国重１８０番地,,16,321,9300288,,,2025-11-07,清算の結了等,,,2015-10-05,1,,,,,アイワウンソウ,0
1101,4240002013410,登記記録の閉鎖等,0,2025-11-11,2025-11-04,有限会社初瀬,,有限会社,広島県,広島市西区,上天満町１番３号,,34,104,7330021,,,2025-11-04,合併による解散等,8240001011923,令和７年１１月１日広島市西区上天満町１番３号ヤマガタ株式会社（8240001011923）に合併し解散,2015-10-05,1,,,,,ハツセ,0
1104,4250002014052,登記記録の閉鎖等,0,2025-11-11,2025-11-06,有限会社クスリのホシ,,有限会社,山口県,長門市,仙崎３０２番地の３,,35,211,7594106,,,2025-11-06,清算の結了等,,,2015-10-05,1,,,,,クスリノホシ,0
1106,4260001017410,登記記録の閉鎖等,0,2025-11-11,2025-11-06,三愛オブリガス中国株式会社,,株式会社,岡山県,倉敷市,中庄２２３０番地の７,,33,202,7100016,,,2025-11-06,合併による解散等,1290001024258,令和７年１０月１日福岡市博多区冷泉町５番３２号三愛オブリガス西日本株式会社（1290001024258）に合併し解散,2015-10-05,1,,,,,サンアイオブリガスチュウゴク,0
1125,4350003001139,登記記録の閉鎖等,0,2025-11-11,2025-10-23,合資会社島野浦造船所,,合資会社,宮崎県,延岡市,島浦町６０９番地５,,45,203,8820096,,,2025-10-23,清算の結了等,,,2015-10-05,1,,,,,シマノウラゾウセンジョ,0
1141,4460001004776,登記記録の閉鎖等,0,2025-11-11,2025-11-06,株式会社ハンク,,株式会社,北海道,釧路市,興津２丁目１４番７号,,01,206,0850811,,,2025-11-06,清算の結了等,,,2015-10-05,1,,,,,ハンク,0
1163,5010103002160,登記記録の閉鎖等,0,2025-11-11,2025-11-06,ウィーデイ合同会社,,合同会社,東京都,八王子市,子安町１丁目４８番９号２０２号室,,13,201,1920904,,,2025-11-06,清算の結了等,,,2023-06-21,1,,,,,ウィーデイ,0
1178,5010601013931,登記記録の閉鎖等,0,2025-11-11,2025-11-04,中山塗料株式会社,,株式会社,東京都,墨田区,立川１丁目１６番６号,,13,107,1300023,,,2025-11-04,清算の結了等,,,2015-10-05,1,,,,,ナカヤマトリョウ,0
1206,5011105009391,登記記録の閉鎖等,0,2025-11-11,2025-10-08,一般社団法人ｉＰｌａｔｆｏｒｍ,,その他の設立登記法人,東京都,新宿区,百人町１丁目２５－４,,13,104,1690073,,,2025-10-08,清算の結了等,,,2020-06-16,1,,,,,アイプラットフォーム,0
1216,5011801024264,登記記録の閉鎖等,0,2025-11-11,2025-11-04,株式会社レインボークリーン,,株式会社,東京都,豊島区,西池袋５丁目２５番７号関口ビル６０５号室,,13,116,1710021,,,2025-11-04,清算の結了等,,,2015-10-05,1,,,,,レインボークリーン,0
1217,5012401035544,登記記録の閉鎖等,0,2025-11-11,2025-11-10,株式会社Ｅｘｃｅｌｉｏｎ,,株式会社,東京都,三鷹市,上連雀２丁目６番７号ＨＯ三鷹３０１,,13,204,1810012,,,2025-11-10,清算の結了等,,,2019-07-18,1,,,,,エクセリオン,0
1227,5013301001157,登記記録の閉鎖等,0,2025-11-11,2025-11-04,株式会社インテリアエヌエヌ企画,,株式会社,東京都,豊島区,池袋２丁目３３番１０号,,13,116,1710014,,,2025-11-04,清算の結了等,,,2015-10-05,1,,,,,インテリアエヌエヌキカク,0
1230,5020001032218,登記記録の閉鎖等,0,2025-11-11,2025-10-31,株式会社豆彦,,株式会社,神奈川県,横浜市港南区,港南台６丁目３３番１１号,,14,111,2340054,,,2025-10-31,清算の結了等,,,2015-10-05,1,,,,,マメヒコ,0
1239,5021001013876,登記記録の閉鎖等,0,2025-11-11,2025-10-17,平英産業株式会社,,株式会社,神奈川県,相模原市緑区,橋本３丁目２０番１４号平英ビル２０１号,,14,151,2520143,,,2025-10-17,清算の結了等,,,2015-10-05,1,,,,,ヘイエイサンギョウ,0
1252,5030001127388,登記記録の閉鎖等,0,2025-11-11,2025-11-05,株式会社７６２,,株式会社,埼玉県,朝霞市,宮戸３丁目４番１８号,,11,227,3510031,,,2025-11-05,清算の結了等,,,2018-09-14,1,,,,,ナナロクニ,0
1257,5030002036737,登記記録の閉鎖等,0,2025-11-11,2025-10-31,アイティ建材有限会社,,有限会社,埼玉県,狭山市,狭山台２丁目１番地２－２６－２０１,,11,215,3501304,,,2025-10-31,清算の結了等,,,2015-10-05,1,,,,,アイティケンザイ,0
1260,5030003018874,登記記録の閉鎖等,0,2025-11-11,2025-11-04,合同会社ルイーダ,,合同会社,埼玉県,草加市,住吉１丁目７番３号,,11,221,3400014,,,2025-11-04,清算の結了等,,,2022-02-22,1,,,,,ルイーダ,0
1266,5040001103173,登記記録の閉鎖等,0,2025-11-11,2025-10-10,株式会社ＲＥＳＴＡＲＴ,,株式会社,千葉県,千葉市若葉区,加曽利町１７５８番地１,,12,104,2640017,,,2025-10-10,清算の結了等,,,2018-01-18,1,,,,,リスタート,0
1272,5040002045316,登記記録の閉鎖等,0,2025-11-11,2025-10-08,有限会社協進工務店,,有限会社,千葉県,松戸市,馬橋３０７７番地,,12,207,2710051,,,2025-10-08,清算の結了等,,,2015-10-05,1,,,,,,0
1273,5040002073787,登記記録の閉鎖等,0,2025-11-11,2025-10-16,有限会社鈴木和泉,,有限会社,千葉県,市原市,八幡１０２８番地,,12,219,2900062,,,2025-10-16,清算の結了等,,,2015-10-05,1,,,,,スズキイズミ,0
1281,5060001026521,登記記録の閉鎖等,0,2025-11-11,2025-11-06,株式会社スクールフォト,,株式会社,栃木県,宇都宮市,不動前３丁目３番４０号,,09,201,3200833,,,2025-11-06,清算の結了等,,,2015-10-05,1,,,,,スクールフォト,0
1299,5110001012994,登記記録の閉鎖等,0,2025-11-11,2025-11-04,株式会社吉田熔接工業所,,株式会社,新潟県,新潟市中央区,鐙１丁目７番１８号,,15,103,9500913,,,2025-11-04,清算の結了等,,,2015-10-05,1,,,,,ヨシダヨウセツコウギョウショ,0
1316,5120003029012,登記記録の閉鎖等,0,2025-11-11,2025-10-29,合同会社ＡかＩ,,合同会社,大阪府,大阪市北区,梅田１丁目１－３大阪駅前第３ビル２９階１－１－１号室,,27,127,5300001,,,2025-10-29,清算の結了等,,,2025-04-01,1,,,,,アカイ,0
1325,5120902015830,登記記録の閉鎖等,0,2025-11-11,2025-10-28,有限会社モンタミュージックカンパニー,,有限会社,大阪府,箕面市,小野原東６丁目２０番１０号,,27,220,5620031,,,2025-10-28,清算の結了等,,,2015-10-05,1,,,,,モンタミュージックカンパニー,0
1330,5122005000966,登記記録の閉鎖等,0,2025-11-11,2025-10-27,特定非営利活動法人大阪府錠前技術者防犯協力会,,その他の設立登記法人,大阪府,東大阪市,鳥居町８番９号,,27,227,5798035,,,2025-10-27,清算の結了等,,,2015-10-05,1,,,,,オオサカフジョウマエギジュツシャボウハンキョウリョクカイ,0
1331,5130001034624,登記記録の閉鎖等,0,2025-11-11,2025-11-07,株式会社洛陽,,株式会社,京都府,京都市中京区,押小路通新町東入頭町２１番地４,,26,104,6040031,,,2025-11-07,清算の結了等,,,2015-10-05,1,,,,,ラクヨウ,0
1332,5130001078316,登記記録の閉鎖等,0,2025-11-11,2025-11-07,遠藤ピエロ株式会社,,株式会社,京都府,京都市中京区,六角通油小路東入本能寺町９６番地１,,26,104,6048243,,,2025-11-07,清算の結了等,,,2024-11-07,1,,,,,エンドウピエロ,0
1333,5130002001169,登記記録の閉鎖等,0,2025-11-11,2025-11-06,有限会社中井金彩工芸,,有限会社,京都府,京都市右京区,花園土堂町７番地の４４,,26,108,6168025,,,2025-11-06,清算の結了等,,,2015-10-05,1,,,,,ナカイキンサイコウゲイ,0
1334,5130002006894,登記記録の閉鎖等,0,2025-11-11,2025-11-07,有限会社河添繁染工,,有限会社,京都府,京都市下京区,佛光寺通西洞院西入木賊山町１８６番地,,26,106,6000000,,,2025-11-07,清算の結了等,,,2015-10-05,1,,,,,カワゾエシゲルセンコウ,0
1358,5180001032664,登記記録の閉鎖等,0,2025-11-11,2025-11-05,ホリタフアーム株式会社,,株式会社,愛知県,名古屋市中村区,亀島２丁目２０番２９号,,23,105,4530013,,,2025-11-05,清算の結了等,,,2015-10-05,1,,,,,ホリタフアーム,0
1376,5180002063626,登記記録の閉鎖等,0,2025-11-11,2025-11-06,有限会社エナ企画,,有限会社,愛知県,愛知郡東郷町,北山台３丁目１番地２３,,23,302,4700152,,,2025-11-06,清算の結了等,,,2015-10-05,1,,,,,エナキカク,0
1377,5180003012417,登記記録の閉鎖等,0,2025-11-11,2025-11-04,合資会社梶浦研削工業所,,合資会社,愛知県,岩倉市,八剱町大坪６５番地の２,,23,228,4820031,,,2025-11-04,清算の結了等,,,2015-10-05,1,,,,,カジウラケンサクコウギョウショ,0
1393,5200001003167,登記記録の閉鎖等,0,2025-11-11,2025-11-05,高橋製紙株式会社,,株式会社,岐阜県,岐阜市,加納本石町１丁目１４番地１,,21,201,5008466,,,2025-11-05,清算の結了等,,,2015-10-05,1,,,,,タカハシセイシ,0
1397,5210005005092,登記記録の閉鎖等,0,2025-11-11,2025-11-05,特定非営利活動法人農と地域のふれあいネットワーク,,その他の設立登記法人,福井県,福井市,大東１丁目３番１２号,,18,201,9188202,,,2025-11-05,清算の結了等,,,2015-10-05,1,,,,,ノウトチイキノフレアイネットワーク,0
1403,5240001027914,登記記録の閉鎖等,0,2025-11-11,2025-10-31,株式会社オーヤマ,,株式会社,広島県,広島市南区,宇品御幸３丁目８番７号,,34,103,7340015,,,2025-10-31,清算の結了等,,,2015-10-05,1,,,,,オーヤマ,0
1422,5290801003647,登記記録の閉鎖等,0,2025-11-11,2025-10-27,ミネヂ産業株式会社,,株式会社,福岡県,北九州市小倉北区,若富士町３番１号,,40,106,8020063,,,2025-10-27,清算の結了等,,,2015-10-05,1,,,,,ミネヂサンギョウ,0
1435,5330003006428,登記記録の閉鎖等,0,2025-11-11,2025-10-31,合同会社三貴,,合同会社,熊本県,熊本市北区,清水万石３丁目１番１３号,,43,105,8618068,,,2025-10-31,清算の結了等,,,2015-10-05,1,,,,,ミタカ,0
1450,5380002009955,登記記録の閉鎖等,0,2025-11-11,2025-11-04,有限会社システム測地,,有限会社,福島県,郡山市,菜根４丁目１２番２５号,,07,203,9638862,,,2025-11-04,清算の結了等,,,2015-10-05,1,,,,,システムソクチ,0
1455,5430001057297,登記記録の閉鎖等,0,2025-11-11,2025-10-31,株式会社ＧＯＤＡ,,株式会社,北海道,登別市,中央町３丁目１３番地４,,01,230,0590012,,,2025-10-31,清算の結了等,,,2015-10-05,1,,,,,ジーオーディエー,0
1466,5480002005135,登記記録の閉鎖等,0,2025-11-11,2025-11-10,有限会社山本時計店,,有限会社,徳島県,徳島市,南新町１丁目１１番地,,36,201,7700913,,,2025-11-10,清算の結了等,,,2015-10-05,1,,,,,ヤマモトトケイテン,0
1467,5480002014813,登記記録の閉鎖等,0,2025-11-11,2025-11-06,有限会社杉山クリーニング,,有限会社,徳島県,美馬市,脇町大字脇町１１６１番地４,,36,207,7793610,,,2025-11-06,清算の結了等,,,2015-10-05,1,,,,,スギヤマクリーニング,0
1468,5480005000199,登記記録の閉鎖等,0,2025-11-11,2025-11-10,徳島県蒲鉾水産加工業協同組合,,その他の設立登記法人,徳島県,徳島市,北沖洲４丁目１番３８号,,36,201,7700872,,,2025-11-10,清算の結了等,,,2015-10-05,1,,,,,トクシマケンカマボコスイサンカコウギョウ,0
1483,6010003034385,登記記録の閉鎖等,0,2025-11-11,2025-10-31,合同会社ＰＲＩ,,合同会社,東京都,千代田区,内神田２丁目２番６号５階あすな会計事務所内,,13,101,1010047,,,2025-10-31,清算の結了等,,,2021-03-15,1,,,,,ピーアールアイ,0
1488,6010401031001,登記記録の閉鎖等,0,2025-11-11,2025-10-30,株式会社ワールドビジネスコミュニケーションズ,,株式会社,東京都,港区,赤坂６丁目４番１５号,,13,103,1070052,,,2025-10-30,清算の結了等,,,2015-10-05,1,,,,,ワールドビジネスコミュニケーションズ,0
1517,6010901018778,登記記録の閉鎖等,0,2025-11-11,2025-10-30,株式会社インテリア杜,,株式会社,東京都,世田谷区,赤堤１丁目３番９号,,13,112,1560044,,,2025-10-30,清算の結了等,,,2015-10-05,1,,,,,インテリアモリ,0
1519,6010901026649,登記記録の閉鎖等,0,2025-11-11,2025-11-07,株式会社シキコーポレーション,,株式会社,東京都,世田谷区,野沢２丁目１６番８号,,13,112,1540003,,,2025-11-07,清算の結了等,,,2015-10-05,1,,,,,シキコーポレーション,0
1543,6011403004093,登記記録の閉鎖等,0,2025-11-11,2025-11-04,Ｐｉｉｉｉｉ合同会社,,合同会社,東京都,板橋区,向原３丁目２－４サンヒルズ向原Ａ３０７号室,,13,119,1730036,,,2025-11-04,清算の結了等,,,2023-09-04,1,,,,,,0
1547,6011602002674,登記記録の閉鎖等,0,2025-11-11,2025-11-04,有限会社兼古カイロプラクティック,,有限会社,東京都,練馬区,南田中５丁目７番２７号,,13,120,1770035,,,2025-11-04,清算の結了等,,,2015-10-05,1,,,,,カネコカイロプラクティック,0
1554,6011802005246,登記記録の閉鎖等,0,2025-11-11,2025-11-06,有限会社ティー・ワイ,,有限会社,東京都,葛飾区,宝町１丁目１２番１６号,,13,122,1240005,,,2025-11-06,清算の結了等,,,2015-10-05,1,,,,,ティーワイ,0
1570,6020001145290,登記記録の閉鎖等,0,2025-11-11,2025-10-31,曙株式会社,,株式会社,神奈川県,川崎市宮前区,水沢３丁目１番９号緑コーポ高嶺ＩＩ２０１,00134258,14,136,2160012,,,2025-10-31,清算の結了等,,,2022-02-22,1,,,,,アケボノ,0
1594,6030002001351,登記記録の閉鎖等,0,2025-11-11,2025-11-04,イケダサウンドラボズ有限会社,,有限会社,埼玉県,さいたま市見沼区,東大宮２丁目３１番地の１７,,11,104,3370051,,,2025-11-04,清算の結了等,,,2015-10-05,1,,,,,イケダサウンドラボズ,0
1596,6030002033808,登記記録の閉鎖等,0,2025-11-11,2025-10-31,有限会社清水工業,,有限会社,埼玉県,狭山市,広瀬台２丁目１０番１０号,,11,215,3501328,,,2025-10-31,清算の結了等,,,2015-10-05,1,,,,,シミズコウギョウ,0
1609,6040002094444,登記記録の閉鎖等,0,2025-11-11,2025-10-08,有限会社冠夢堂システムズ,,有限会社,千葉県,我孫子市,つくし野７丁目２３番６号,,12,222,2701164,,,2025-10-08,清算の結了等,,,2015-10-05,1,,,,,カンムドウシステムズ,0
1617,6070001034893,登記記録の閉鎖等,0,2025-11-11,2025-11-05,関東創造設計株式会社,,株式会社,群馬県,高崎市,上中居町３９７番地２ＳＲＣビル２Ｆ,,10,202,3700851,,,2025-11-05,清算の結了等,,,2018-07-11,1,,,,,カントウソウゾウセッケイ,0
1620,6080001001298,登記記録の閉鎖等,0,2025-11-11,2025-10-31,株式会社クローバートラベル,,株式会社,静岡県,静岡市葵区,春日２丁目１１番８号,,22,101,4200823,,,2025-10-31,清算の結了等,,,2015-10-05,1,,,,,クローバートラベル,0
1623,6090002001932,登記記録の閉鎖等,0,2025-11-11,2025-11-07,有限会社高遠,,有限会社,東京都,世田谷区,南烏山５丁目５番７－５１０号,,13,112,1570062,,,2025-11-07,清算の結了等,,,2015-10-05,1,,,,,タカトウ,0
1624,6090003001535,登記記録の閉鎖等,0,2025-11-11,2025-11-04,合同会社パルフェ,,合同会社,山梨県,富士吉田市,新西原２丁目３１番４号,,19,202,4030017,,,2025-11-04,清算の結了等,,,2019-06-04,1,,,,,パルフェ,0
1631,6110002000221,登記記録の閉鎖等,0,2025-11-11,2025-11-04,有限会社森衣料店,,有限会社,新潟県,新潟市西区,大野町２９７４番地,,15,107,9501111,,,2025-11-04,清算の結了等,,,2015-10-05,1,,,,,モリイリョウテン,0
1633,6120001077375,登記記録の閉鎖等,0,2025-11-11,2025-10-30,岡藤商事株式会社,,株式会社,東京都,中央区,銀座６丁目１０番１号,,13,102,1040061,,,2025-10-30,清算の結了等,,,2015-10-05,1,,,,,オカトウショウジ,0
1661,6122003003094,登記記録の閉鎖等,0,2025-11-11,2025-10-30,ＡＡ合同会社,,合同会社,大阪府,東大阪市,日下町１丁目６番１５号,,27,227,5798003,,,2025-10-30,清算の結了等,,,2025-01-16,1,,,,,エーエー,0
1667,6130001078315,登記記録の閉鎖等,0,2025-11-11,2025-11-07,じゃーねー株式会社,,株式会社,京都府,京都市中京区,六角通油小路東入本能寺町９６番地１,,26,104,6048243,,,2025-11-07,清算の結了等,,,2024-11-08,1,,,,,ジャーネー,0
1717,6210001001053,登記記録の閉鎖等,0,2025-11-11,2025-11-05,共和マルヰ株式会社,,株式会社,福井県,福井市,月見４丁目３番２５号,,18,201,9188011,,,2025-11-05,合併による解散等,3220001001237,令和７年１１月１日石川県野々市市下林四丁目５６７番地イワタニ北陸株式会社（3220001001237）に合併し解散,2015-10-05,1,,,,,キョウワマルイ,0
1718,6210001012240,登記記録の閉鎖等,0,2025-11-11,2025-11-05,株式会社山崎和紙,,株式会社,福井県,越前市,不老町第６号３６番地,,18,209,9150235,,,2025-11-05,清算の結了等,,,2015-10-05,1,,,,,ヤマザキワシ,0
1727,6250002003598,登記記録の閉鎖等,0,2025-11-11,2025-11-06,有限会社ユーテック,,有限会社,山口県,防府市,西仁井令２丁目１５番６号,,35,206,7470849,,,2025-11-06,清算の結了等,,,2015-10-05,1,,,,,ユーテック,0
1734,6280001005171,登記記録の閉鎖等,0,2025-11-11,2025-11-07,株式会社マツウラ,,株式会社,島根県,鹿足郡吉賀町,六日市４４６番地,,32,505,6995513,,,2025-11-07,清算の結了等,,,2015-10-05,1,,,,,マツウラ,0
1764,6370601002699,登記記録の閉鎖等,0,2025-11-11,2025-10-31,株式会社ギガテコ,,株式会社,宮城県,多賀城市,下馬１丁目８番１１号,,04,209,9850835,,,2025-10-31,清算の結了等,,,2015-10-05,1,,,,,ギガテコ,0
1769,6430001014165,登記記録の閉鎖等,0,2025-11-11,2025-11-05,ヒルハウス札幌株式会社,,株式会社,北海道,札幌市北区,北十九条西７丁目３番２３－４０９号,,01,102,0010019,,,2025-11-05,清算の結了等,,,2015-10-05,1,,,,,ヒルハウスサッポロ,0
1774,6430002058772,登記記録の閉鎖等,0,2025-11-11,2025-11-04,有限会社三洋,,有限会社,北海道,苫小牧市,字糸井１４３番地７,,01,213,0530814,,,2025-11-04,合併による解散等,2430001053571,令和７年１１月１日北海道苫小牧市字糸井１４３番地７楡建設株式会社（2430001053571）に合併し解散,2015-10-05,1,,,,,サンヨウ,0
1782,6480001007313,登記記録の閉鎖等,0,2025-11-11,2025-11-10,貞光農産株式会社,,株式会社,徳島県,美馬郡つるぎ町,貞光字大坊９６番地,,36,468,7794102,,,2025-11-10,清算の結了等,,,2015-10-05,1,,,,,サダミツノウサン,0
1783,6480002012923,登記記録の閉鎖等,0,2025-11-11,2025-11-10,久美愛化学有限会社,,有限会社,徳島県,阿南市,津乃峰町中分５５番地,,36,204,7740021,,,2025-11-10,清算の結了等,,,2015-10-05,1,,,,,クミアイカガク,0
1788,6500002015080,登記記録の閉鎖等,0,2025-11-11,2025-11-07,有限会社大幸,,有限会社,愛媛県,西条市,丹原町北田野１６９７番地,,38,206,7910523,,,2025-11-07,清算の結了等,,,2015-10-05,1,,,,,タイコウ,0
1790,7010001003507,登記記録の閉鎖等,0,2025-11-11,2025-10-27,静岡自生農場株式会社,,株式会社,東京都,文京区,後楽１丁目２番２号,,13,105,1120004,,,2025-10-27,清算の結了等,,,2015-10-05,1,,,,,シズオカジセイノウジョウ,0
1791,7010001047181,登記記録の閉鎖等,0,2025-11-11,2025-10-29,ジヤパンシヤンクロール株式会社,,株式会社,東京都,中央区,築地２丁目１番２－５０８号,,13,102,1040045,,,2025-10-29,清算の結了等,,,2015-10-05,1,,,,,ジャパンシャンクロール,0
1799,7010003031539,登記記録の閉鎖等,0,2025-11-11,2025-10-30,合同会社札幌南６プロパティ,,合同会社,東京都,中央区,銀座２丁目１０番８号マニエラ銀座ビル４階丸尾会計事務所内,,13,102,1040061,,,2025-10-30,清算の結了等,,,2020-01-30,1,,,,,サッポロミナミロクプロパティ,0
1801,7010003036463,登記記録の閉鎖等,0,2025-11-11,2025-11-07,イーレックスＨＴ合同会社,,合同会社,東京都,中央区,京橋２丁目２番１号,,13,102,1040031,,,2025-11-07,清算の結了等,,,2021-12-02,1,,,,,イーレックスエイチティ,0
1827,7010501010283,登記記録の閉鎖等,0,2025-11-11,2025-11-04,株式会社ノックスプロジェクト,,株式会社,東京都,台東区,台東１丁目１４番７号,,13,106,1100016,,,2025-11-04,清算の結了等,,,2015-10-05,1,,,,,ノックスプロジェクト,0
1843,7010801002906,登記記録の閉鎖等,0,2025-11-11,2025-10-31,共栄金属工業株式会社,,株式会社,東京都,大田区,大森南２丁目２１番３号,,13,111,1430013,,,2025-10-31,清算の結了等,,,2015-10-05,1,,,,,キョウエイキンゾクコウギョウ,0
1851,7011001044103,登記記録の閉鎖等,0,2025-11-11,2025-10-10,株式会社景観工学研究所,,株式会社,東京都,渋谷区,千駄ヶ谷４丁目５番１－６０２号,,13,113,1510051,,,2025-10-10,清算の結了等,,,2015-10-05,1,,,,,ケイカンコウガクケンキュウショ,0
1852,7011001050290,登記記録の閉鎖等,0,2025-11-11,2025-10-08,株式会社コハクビューティー,,株式会社,東京都,渋谷区,代々木１丁目３０番７号ヤマノ２４ビル,,13,113,1510053,,,2025-10-08,清算の結了等,,,2015-10-05,1,,,,,コハクビューティー,0
1854,7011001110020,登記記録の閉鎖等,0,2025-11-11,2025-11-05,株式会社ＣＬＯＣＫ・ＩＴ,,株式会社,東京都,渋谷区,広尾１丁目３－１５,,13,113,1500012,,,2025-11-05,合併による解散等,6010001099281,令和７年１０月１日東京都港区虎ノ門１－１７－１株式会社クラウドワークスコンサルティング（6010001099281）に合併し解散,2016-03-29,1,,,,,クロックイット,0
1865,7011003015820,登記記録の閉鎖等,0,2025-11-11,2025-10-08,合同会社インナー,,合同会社,東京都,渋谷区,道玄坂１丁目１０番８号渋谷道玄坂東急ビル２Ｆ－Ｃ,,13,113,1500043,,,2025-10-08,清算の結了等,,,2022-12-01,1,,,,,インナー,0
1878,7011501025841,登記記録の閉鎖等,0,2025-11-11,2025-11-04,株式会社アール,,株式会社,東京都,豊島区,西池袋５丁目２５番７号関口ビル６０５号室,,13,116,1710021,,,2025-11-04,清算の結了等,,,2020-05-19,1,,,,,アール,0
1886,7012401011700,登記記録の閉鎖等,0,2025-11-11,2025-11-06,橋本株式会社,,株式会社,東京都,武蔵野市,吉祥寺南町３丁目３０番１５号,,13,203,1800003,,,2025-11-06,清算の結了等,,,2015-10-05,1,,,,,ハシモト,0
1891,7012403005485,登記記録の閉鎖等,0,2025-11-11,2025-10-02,Ａｅｒｏｓｐｉｋｅ　Ｊａｐａｎ合同会社,,合同会社,東京都,渋谷区,渋谷２丁目２４－１２渋谷スクランブルスクエア３９階,,13,113,1500002,,,2025-10-02,清算の結了等,,,2022-07-12,1,,,,,エアロスパイクジャパン,0
1901,7020002103569,登記記録の閉鎖等,0,2025-11-11,2025-10-31,有限会社巧建設,,有限会社,神奈川県,川崎市高津区,下野毛３丁目３番１５号,,14,134,2130006,,,2025-10-31,清算の結了等,,,2015-10-05,1,,,,,タクミケンセツ,0
1903,7020003014955,登記記録の閉鎖等,0,2025-11-11,2025-10-10,Ｆ５０‐Ｌｅａｇｕｅ　Ｊａｐａｎ合同会社,,合同会社,東京都,港区,元麻布３丁目１番６号,,13,103,1060046,,,2025-10-10,清算の結了等,,,2018-09-26,1,,,,,エフフィフティリーグジャパン,0
1907,7021002009376,登記記録の閉鎖等,0,2025-11-11,2025-10-23,有限会社大橋電気商会,,有限会社,神奈川県,藤沢市,獺郷１３０８番地,,14,205,2520825,,,2025-10-23,清算の結了等,,,2015-10-05,1,,,,,オオハシデンキショウカイ,0
1915,7030002113889,登記記録の閉鎖等,0,2025-11-11,2025-11-04,有限会社夏目商事,,有限会社,埼玉県,熊谷市,末広３丁目１番３号,,11,202,3600031,,,2025-11-04,清算の結了等,,,2015-10-05,1,,,,,ナツメショウジ,0
1917,7040001057582,登記記録の閉鎖等,0,2025-11-11,2025-10-10,株式会社東邦,,株式会社,千葉県,大網白里市,養安寺２９４番地,,12,239,2993254,,,2025-10-10,清算の結了等,,,2015-10-05,1,,,,,,0
1927,7060001017840,登記記録の閉鎖等,0,2025-11-11,2025-11-06,株式会社ｓｏｆｕｅ,,株式会社,栃木県,栃木市,樋ノ口町１１番地４８,,09,203,3280024,,,2025-11-06,清算の結了等,,,2015-10-05,1,,,,,ソフエ,0
1938,7100002023247,登記記録の閉鎖等,0,2025-11-11,2025-11-06,有限会社安留賀,,有限会社,長野県,安曇野市,穂高７３７番地１,,20,220,3998303,,,2025-11-06,清算の結了等,,,2015-10-05,1,,,,,アルガ,0
1942,7120001003933,登記記録の閉鎖等,0,2025-11-11,2025-11-04,東洋開発株式会社,,株式会社,大阪府,大阪市西成区,旭１丁目５番１号,,27,122,5570032,,,2025-11-04,清算の結了等,,,2015-10-05,1,,,,,,0
1944,7120001016588,登記記録の閉鎖等,0,2025-11-11,2025-11-04,若竹シャツ株式会社,,株式会社,大阪府,大阪市城東区,東中浜６丁目１番２０号,,27,118,5360023,,,2025-11-04,清算の結了等,,,2015-10-05,1,,,,,ワカタケシャツ,0
1969,7120902015829,登記記録の閉鎖等,0,2025-11-11,2025-10-28,有限会社モンタ音楽出版,,有限会社,大阪府,箕面市,小野原東６丁目２０番１０号,,27,220,5620031,,,2025-10-28,清算の結了等,,,2015-10-05,1,,,,,モンタオンガクシュッパン,0
1979,7140001011843,登記記録の閉鎖等,0,2025-11-11,2025-11-04,株式会社ロイヤルみどり,,株式会社,兵庫県,神戸市中央区,北長狭通１丁目１０番５号,,28,110,6500012,,,2025-11-04,合併による解散等,8140001011157,令和７年１１月１日神戸市中央区北長狭通一丁目１０番５号株式会社みどり美粧院（8140001011157）に合併し解散,2015-10-05,1,,,,,ロイヤルミドリ,0
1982,7140001064296,登記記録の閉鎖等,0,2025-11-11,2025-11-04,株式会社齊藤地研,,株式会社,兵庫県,姫路市,増位本町２丁目７番３号,,28,201,6700807,,,2025-11-04,清算の結了等,,,2015-10-05,1,,,,,サイトウチケン,0
1984,7140001087421,登記記録の閉鎖等,0,2025-11-11,2025-11-04,株式会社ベルテックス,,株式会社,兵庫県,神戸市兵庫区,上沢通４丁目１番４号,,28,105,6520046,,,2025-11-04,清算の結了等,,,2015-10-05,1,,,,,,0
1989,7140003008929,登記記録の閉鎖等,0,2025-11-11,2025-10-30,合同会社まきい,,合同会社,兵庫県,三田市,けやき台４丁目４１番地５,,28,219,6691321,,,2025-10-30,清算の結了等,,,2015-10-05,1,,,,,マキイ,0
1992,7150002011032,登記記録の閉鎖等,0,2025-11-11,2025-11-06,ロイヤル照明有限会社,,有限会社,奈良県,五條市,島野町４２５番地,,29,207,6370027,,,2025-11-06,清算の結了等,,,2025-07-16,1,,,,,ロイヤルショウメイ,0
1994,7160002013127,登記記録の閉鎖等,0,2025-11-11,2025-11-06,有限会社オフィスアール・エー,,有限会社,滋賀県,栗東市,御園９１３番地４,,25,208,5203005,,,2025-11-06,清算の結了等,,,2015-10-05,1,,,,,オフィスアールエー,0
2008,7180002084777,登記記録の閉鎖等,0,2025-11-11,2025-11-04,有限会社弘進,,有限会社,愛知県,大府市,中央町１丁目６２番地,,23,223,4740025,,,2025-11-04,清算の結了等,,,2015-10-05,1,,,,,コウシン,0
2012,7180301025762,登記記録の閉鎖等,0,2025-11-11,2025-11-07,株式会社エム商店,,株式会社,愛知県,豊田市,竹生町３丁目５３番地,,23,211,4710077,,,2025-11-07,合併による解散等,6180001038314,令和７年１１月１日大阪市中央区南船場四丁目１２番８号株式会社ツヅキ（6180001038314）に合併し解散,2015-10-05,1,,,,,エムショウテン,0
2019,7200001010806,登記記録の閉鎖等,0,2025-11-11,2025-11-07,エービーシーオート株式会社,,株式会社,岐阜県,羽島市,竹鼻町狐穴字砂入３３７番地１,,21,209,5016232,,,2025-11-07,清算の結了等,,,2015-10-05,1,,,,,エービーシーオート,0
2028,7240001024389,登記記録の閉鎖等,0,2025-11-11,2025-11-05,中一商事株式会社,,株式会社,広島県,広島市中区,舟入本町４番１２号,,34,101,7300843,,,2025-11-05,清算の結了等,,,2015-10-05,1,,,,,,0
2034,7250001006733,登記記録の閉鎖等,0,2025-11-11,2025-11-05,山口航空株式会社,,株式会社,山口県,下関市,上田中町３丁目３番６号,,35,201,7500009,,,2025-11-05,清算の結了等,,,2015-10-05,1,,,,,,0
2035,7250002004026,登記記録の閉鎖等,0,2025-11-11,2025-11-06,有限会社フジタ,,有限会社,山口県,山陽小野田市,港町１番１０号,,35,216,7560834,,,2025-11-06,清算の結了等,,,2015-10-05,1,,,,,,0
2041,7290001045570,登記記録の閉鎖等,0,2025-11-11,2025-10-22,株式会社テクノゼック,,株式会社,福岡県,飯塚市,川津２０４番地の１,,40,205,8200067,,,2025-10-22,清算の結了等,,,2015-10-05,1,,,,,テクノゼック,0
2044,7290003014739,登記記録の閉鎖等,0,2025-11-11,2025-11-07,合同会社ＡＩＲ,,合同会社,福岡県,久留米市,西町上津町１６６０番地３パークハイム浦山ＩＩ３０１号,00132985,40,203,8300038,,,2025-11-07,合併による解散等,9010001239454,令和７年７月４日東京都中央区銀座一丁目１２番４号Ｎ＆ＥＢＬＤ．６Ｆ株式会社スマートコネクション（9010001239454）に合併し解散,2023-12-13,1,,,,,エアー,0
2060,7370001041735,登記記録の閉鎖等,0,2025-11-11,2025-10-31,アルファ・サービス株式会社,,株式会社,宮城県,富谷市,日吉台１丁目３２番地７,,04,216,9813362,,,2025-10-31,清算の結了等,,,2017-07-10,1,,,,,アルファサービス,0
2063,7370102002702,登記記録の閉鎖等,0,2025-11-11,2025-10-27,有限会社サカエ物流,,有限会社,宮城県,刈田郡蔵王町,大字円田字土浮山４番地８２,,04,301,9890821,,,2025-10-27,清算の結了等,,,2015-10-05,1,,,,,サカエブツリュウ,0
2065,7400001002015,登記記録の閉鎖等,0,2025-11-11,2025-11-04,株式会社鈴徳,,株式会社,岩手県,盛岡市,南大通１丁目１１番１７号,,03,201,0200874,,,2025-11-04,清算の結了等,,,2015-10-05,1,,,,,スズトク,0
2070,7440002008503,登記記録の閉鎖等,0,2025-11-11,2025-11-05,有限会社熊嶺荘,,有限会社,北海道,二海郡八雲町,わらび野３４８番地,,01,346,0492674,,,2025-11-05,清算の結了等,,,2015-10-05,1,,,,,クマネソウ,0
2081,8010002022629,登記記録の閉鎖等,0,2025-11-11,2025-10-31,有限会社天勘,,有限会社,東京都,中央区,新川１丁目８番２５号,,13,102,1040033,,,2025-10-31,清算の結了等,,,2015-10-05,1,,,,,テンカン,0
2083,8010005030174,登記記録の閉鎖等,0,2025-11-11,2025-11-07,トリオ特定目的会社,,その他の設立登記法人,東京都,中央区,銀座１丁目６番１１号アースタックス税理士法人内,,13,102,1040061,,,2025-11-07,清算の結了等,,,2019-05-20,1,,,,,トリオ,0
2152,8020001053673,登記記録の閉鎖等,0,2025-11-11,2025-11-04,株式会社港北基礎調査,,株式会社,神奈川県,横浜市都筑区,東山田４丁目５番１－２０１号,,14,118,2240023,,,2025-11-04,清算の結了等,,,2015-10-05,1,,,,,コウホクキソチョウサ,0
2153,8020001087837,登記記録の閉鎖等,0,2025-11-11,2025-11-06,株式会社ロフトシステムズ,,株式会社,神奈川県,横浜市中区,扇町２丁目４番地２横浜関内京浜ビル４０１,,14,104,2310027,,,2025-11-06,合併による解散等,4010601052451,令和７年１０月１日千葉県市川市南大野一丁目１４番２号株式会社ネクサス・アールハウジング（4010601052451）に合併し解散,2015-10-05,1,,,,,ロフトシステムズ,0
2157,8020001164132,登記記録の閉鎖等,0,2025-11-11,2025-10-21,フロンヴィルホームズ株式会社,,株式会社,神奈川県,横浜市中区,日本大通１８番地,,14,104,2310021,,,2025-10-21,清算の結了等,,,2025-08-08,1,,,,,フロンヴィルホームズ,0
2163,8021001069370,登記記録の閉鎖等,0,2025-11-11,2025-10-20,株式会社エムワイカンパニーズ,,株式会社,神奈川県,茅ヶ崎市,円蔵１丁目１７番２６号,,14,207,2530084,,,2025-10-20,清算の結了等,,,2020-02-25,1,,,,,エムワイカンパニーズ,0
2168,8030001018626,登記記録の閉鎖等,0,2025-11-11,2025-10-08,株式会社ダイナシステムソース,,株式会社,東京都,渋谷区,恵比寿２丁目２８番１０号秀ビル２２７６,,13,113,1500013,,,2025-10-08,清算の結了等,,,2015-10-05,1,,,,,ダイナシステムソース,0
2176,8030001119829,登記記録の閉鎖等,0,2025-11-11,2025-11-04,株式会社早舩工務店,,株式会社,埼玉県,川口市,朝日３丁目１５番４号ベルケンネル２０３号,,11,203,3320001,,,2025-11-04,清算の結了等,,,2017-04-25,1,,,,,ハヤフネコウムテン,0
2184,8030002103492,登記記録の閉鎖等,0,2025-11-11,2025-10-31,有限会社進精機,,有限会社,埼玉県,川口市,大字榛松１７４８番地,,11,203,3340062,,,2025-10-31,清算の結了等,,,2015-10-05,1,,,,,シンセイキ,0
2190,8040003010027,登記記録の閉鎖等,0,2025-11-11,2025-11-05,合同会社光井企画,,合同会社,山口県,周南市,泉原町１番１６号,,35,215,7450833,,,2025-11-05,清算の結了等,,,2017-05-17,1,,,,,ミツイキカク,0
2191,8040003014829,登記記録の閉鎖等,0,2025-11-11,2025-10-10,Ｊ－ｏｎｅ合同会社,,合同会社,千葉県,船橋市,飯山満町１丁目８７４番地２,,12,204,2740822,,,2025-10-10,清算の結了等,,,2020-02-12,1,,,,,ジェイワン,0
2208,8070002031013,登記記録の閉鎖等,0,2025-11-11,2025-11-04,有限会社松本写真館,,有限会社,群馬県,太田市,東本町５６番２０号,,10,205,3730026,,,2025-11-04,清算の結了等,,,2015-10-05,1,,,,,マツモトシャシンカン,0
2212,8080002012400,登記記録の閉鎖等,0,2025-11-11,2025-11-07,有限会社昇菊,,有限会社,静岡県,静岡市葵区,七間町１３番地の１,,22,101,4200035,,,2025-11-07,清算の結了等,,,2015-10-05,1,,,,,ショウギク,0
2213,8080101004232,登記記録の閉鎖等,0,2025-11-11,2025-11-06,株式会社東富士開発農場センター,,株式会社,静岡県,御殿場市,神場大通２４５７番地,,22,215,4120047,,,2025-11-06,清算の結了等,,,2015-10-05,1,,,,,ヒガシフジカイハツノウジョウセンター,0
2216,8080402015977,登記記録の閉鎖等,0,2025-11-11,2025-11-04,有限会社ミキコーポレーション,,有限会社,静岡県,浜松市浜名区,細江町中川３９０８番地,,22,139,4311304,,,2025-11-04,清算の結了等,,,2015-10-05,1,,,,,ミキコーポレーション,0
2222,8110001019104,登記記録の閉鎖等,0,2025-11-11,2025-11-07,株式会社ジェー・シー・エスコンピュータ・サービス,,株式会社,新潟県,上越市,春日野１丁目３番５号,,15,222,9430803,,,2025-11-07,合併による解散等,3011001039098,令和７年１０月１日東京都渋谷区代々木三丁目２５番３号株式会社インテックソリューションパワー（3011001039098）に合併し解散,2015-10-05,1,,,,,ジェーシーエスコンピュータサービス,0
2235,8120001180532,登記記録の閉鎖等,0,2025-11-11,2025-11-05,株式会社賃貸経営土地建物,,株式会社,大阪府,大阪市中央区,南船場３丁目１番８号,,27,128,5420081,,,2025-11-05,合併による解散等,7120001195804,令和７年１１月１日大阪市中央区南船場三丁目１番８号船場土地建物株式会社（7120001195804）に合併し解散,2015-10-05,1,,,,,チンタイケイエイトチタテモノ,0
2236,8120001208696,登記記録の閉鎖等,0,2025-11-11,2025-10-01,ナチュール・ビオ・ジャパン株式会社,,株式会社,大阪府,大阪市城東区,諏訪２丁目７番５号,,27,118,5360021,,,2025-10-01,合併による解散等,3120001146653,令和７年９月２９日大阪市城東区諏訪二丁目７番５号株式会社楓奏（3120001146653）に合併し解散,2017-10-13,1,,,,,ナチュールビオジャパン,0
2254,8120901041593,登記記録の閉鎖等,0,2025-11-11,2025-10-23,株式会社アチーブ総合設備,,株式会社,大阪府,箕面市,西小路２丁目６番１３号シャトレー西小路６階,,27,220,5620003,,,2025-10-23,清算の結了等,,,2019-07-29,1,,,,,アチーブソウゴウセツビ,0
2260,8140001016494,登記記録の閉鎖等,0,2025-11-11,2025-10-31,東海建設株式会社,,株式会社,兵庫県,神戸市長田区,房王寺町７丁目１２番１５号,,28,106,6530801,,,2025-10-31,清算の結了等,,,2015-10-05,1,,,,,トウカイケンセツ,0
2262,8140001102955,登記記録の閉鎖等,0,2025-11-11,2025-11-04,株式会社繁昌,,株式会社,兵庫県,加西市,繁昌町８９４番地,,28,220,6752101,,,2025-11-04,合併による解散等,7140001076291,令和７年１１月４日兵庫県加西市繁昌町８９４番地菅野包装資材株式会社（7140001076291）に合併し解散,2016-08-03,1,,,,,ハンジョウ,0
2278,8180301009723,登記記録の閉鎖等,0,2025-11-11,2025-11-05,青木商事株式会社,,株式会社,愛知県,豊川市,赤坂台６４５番地,,23,207,4410204,,,2025-11-05,清算の結了等,,,2015-10-05,1,,,,,アオキショウジ,0
2282,8190002013981,登記記録の閉鎖等,0,2025-11-11,2025-11-05,有限会社スズキビル,,有限会社,三重県,松阪市,中町２００４番地,,24,204,5150083,,,2025-11-05,清算の結了等,,,2015-10-05,1,,,,,スズキビル,0
2283,8190002020276,登記記録の閉鎖等,0,2025-11-11,2025-11-04,有限会社坂倉設備,,有限会社,三重県,四日市市,菅原町３９９番地,,24,202,5120925,,,2025-11-04,清算の結了等,,,2015-10-05,1,,,,,サカクラセツビ,0
2303,8250002011590,登記記録の閉鎖等,0,2025-11-11,2025-11-06,和進商工有限会社,,有限会社,山口県,下関市,彦島本村町５丁目１番５号,,35,201,7500074,,,2025-11-06,清算の結了等,,,2015-10-05,1,,,,,ワシンショウコウ,0
2318,8290802003726,登記記録の閉鎖等,0,2025-11-11,2025-10-28,有限会社多田電気,,有限会社,福岡県,北九州市小倉北区,下富野４丁目６番３３号,,40,106,8020023,,,2025-10-28,清算の結了等,,,2015-10-05,1,,,,,タダデンキ,0
2326,8320005005054,登記記録の閉鎖等,0,2025-11-11,2025-11-04,農事組合法人狩宿地区みかん生産組合,,その他の設立登記法人,大分県,杵築市,大字杵築７４０番地の１,,44,210,8730001,,,2025-11-04,清算の結了等,,,2015-10-05,1,,,,,カリシュクチクミカンセイサンクミアイ,0
2328,8330001017589,登記記録の閉鎖等,0,2025-11-11,2025-10-31,ＹＳ管工株式会社,,株式会社,熊本県,玉名市,玉名３５８４番地,,43,206,8650005,,,2025-10-31,清算の結了等,,,2015-10-05,1,,,,,ワイエスカンコウ,0
2337,8360001023064,登記記録の閉鎖等,0,2025-11-11,2025-11-04,村政工業株式会社,,株式会社,沖縄県,沖縄市,知花５丁目３１番３５号パティオそよ風２０６,,47,211,9042143,,,2025-11-04,清算の結了等,,,2017-10-27,1,,,,,ムラマサコウギョウ,0
2358,9010001122775,登記記録の閉鎖等,0,2025-11-11,2025-10-31,株式会社ＳＰワールド,,株式会社,東京都,千代田区,神田駿河台２丁目１番地１９アルベルゴ御茶ノ水,,13,101,1010062,,,2025-10-31,清算の結了等,,,2015-10-05,1,,,,,エスピーワールド,0
2360,9010001162227,登記記録の閉鎖等,0,2025-11-11,2025-11-04,サンキャピタル株式会社,,株式会社,東京都,千代田区,四番町２番４,,13,101,1020081,,,2025-11-04,合併による解散等,5010001138486,令和７年１１月１日東京都千代田区麹町二丁目１４番地ＮＢＳ株式会社（5010001138486）に合併し解散,2015-10-05,1,,,,,サンキャピタル,0
2361,9010001198493,登記記録の閉鎖等,0,2025-11-11,2025-11-07,株式会社ＮＹインベスト,,株式会社,東京都,中央区,日本橋人形町２丁目１番７－９０２号,,13,102,1030013,,,2025-11-07,合併による解散等,4010601052773,令和７年１０月２７日千葉県成田市中台三丁目３番－２アルファグランデ成田八番街８０１号株式会社ＡＮインベスト（4010601052773）に合併し解散,2019-02-19,1,,,,,エヌワイインベスト,0
2365,9010002031959,登記記録の閉鎖等,0,2025-11-11,2025-10-31,有限会社ティー・エムリサーチ,,有限会社,東京都,千代田区,東神田２丁目９番１７号,,13,101,1010031,,,2025-10-31,清算の結了等,,,2015-10-05,1,,,,,ティーエムリサーチ,0
2368,9010401155334,登記記録の閉鎖等,0,2025-11-11,2025-10-10,Ａｔｏｍ　Ｎｅｔ株式会社,,株式会社,東京都,港区,芝４丁目６番５号芝大井ビル２階,,13,103,1080014,,,2025-10-10,清算の結了等,,,2020-09-24,1,,,,,アトムネット,0
2388,9010601056448,登記記録の閉鎖等,0,2025-11-11,2025-11-05,万利株式会社,,株式会社,埼玉県,草加市,松江６丁目１番３号,,11,221,3400013,,,2025-11-05,清算の結了等,,,2019-11-25,1,,,,,バンリ,0
2392,9010703006689,登記記録の閉鎖等,0,2025-11-11,2025-11-05,大為合同会社,,合同会社,東京都,品川区,東五反田１丁目８番１１号,,13,109,1410022,,,2025-11-05,清算の結了等,,,2023-05-10,1,,,,,ダイイ,0
2398,9010902013040,登記記録の閉鎖等,0,2025-11-11,2025-11-07,有限会社福地デザイン工房,,有限会社,東京都,世田谷区,上用賀３丁目５番１４号,,13,112,1580098,,,2025-11-07,清算の結了等,,,2015-10-05,1,,,,,フクチデザインコウボウ,0
2404,9011001150865,登記記録の閉鎖等,0,2025-11-11,2025-10-09,ＰＥＴ　ＦＯＯＤ　ＴＥＣＨ株式会社,,株式会社,東京都,渋谷区,神宮前６丁目２３－４桑野ビル２Ｆ,,13,113,1500001,,,2025-10-09,清算の結了等,,,2022-11-29,1,,,,,ペットフードテック,0
2414,9011505001861,登記記録の閉鎖等,0,2025-11-11,2025-11-05,一般社団法人健康マネジメント協会,,その他の設立登記法人,東京都,荒川区,西日暮里２丁目３番１号,,13,118,1160013,,,2025-11-05,清算の結了等,,,2015-10-05,1,,,,,ケンコウマネジメントキョウカイ,0
2428,9013303004237,登記記録の閉鎖等,0,2025-11-11,2025-11-04,ＶＩＣＥＮＤＡ合同会社,,合同会社,東京都,豊島区,池袋本町２丁目１１番６号,,13,116,1700011,,,2025-11-04,清算の結了等,,,2018-07-09,1,,,,,ヴィチェンダ,0
2435,9020002009665,登記記録の閉鎖等,0,2025-11-11,2025-10-31,有限会社内沢工務店,,有限会社,神奈川県,横浜市磯子区,中原１丁目１０番１０号,,14,107,2350036,,,2025-10-31,清算の結了等,,,2015-10-05,1,,,,,ウチザワコウムテン,0
2438,9020002031735,登記記録の閉鎖等,0,2025-11-11,2025-10-29,有限会社メゾンプラスチック,,有限会社,神奈川県,横浜市南区,高根町３丁目１７番地,,14,105,2320022,,,2025-10-29,清算の結了等,,,2015-10-05,1,,,,,メゾンプラスチック,0
2439,9020002060511,登記記録の閉鎖等,0,2025-11-11,2025-11-04,有限会社エマージング,,有限会社,神奈川県,横浜市青葉区,荏田北１丁目１２番地１１２,,14,117,2250015,,,2025-11-04,清算の結了等,,,2015-10-05,1,,,,,エマージング,0
2448,9021002070161,登記記録の閉鎖等,0,2025-11-11,2025-10-16,有限会社むじく,,有限会社,千葉県,佐倉市,上座１４３４番９号,,12,212,2850854,,,2025-10-16,清算の結了等,,,2015-10-05,1,,,,,ムジク,0
2449,9021003001677,登記記録の閉鎖等,0,2025-11-11,2025-10-23,合資会社本家北京亭,,合資会社,神奈川県,伊勢原市,板戸１９２番地の１細野ハイツ１階,,14,214,2591145,,,2025-10-23,清算の結了等,,,2015-10-05,1,,,,,,0
2452,9021005007648,登記記録の閉鎖等,0,2025-11-11,2025-10-16,社会福祉法人横須賀市社会福祉事業団,,その他の設立登記法人,神奈川県,横須賀市,本町２丁目１番地,,14,201,2380041,,,2025-10-16,清算の結了等,,,2015-10-05,1,,,,,ヨコスカシシャカイフクシジギョウダン,0
2462,9030002012296,登記記録の閉鎖等,0,2025-11-11,2025-11-04,有限会社ボン,,有限会社,埼玉県,さいたま市西区,三橋６丁目１２８番地の３,,11,101,3310052,,,2025-11-04,清算の結了等,,,2015-10-05,1,,,,,ボン,0
2480,9060001034520,登記記録の閉鎖等,0,2025-11-11,2025-11-05,遠洋国際株式会社,,株式会社,栃木県,下野市,薬師寺１５２４番地２,,09,216,3290431,,,2025-11-05,清算の結了等,,,2022-01-26,1,,,,,エンヨウコクサイ,0
2484,9090001018966,登記記録の閉鎖等,0,2025-11-11,2025-11-05,株式会社ＨＴメック,,株式会社,山梨県,中央市,木原９３９番地１,,19,214,4001511,,,2025-11-05,清算の結了等,,,2024-10-25,1,,,,,エイチティメック,0
2492,9120001222283,登記記録の閉鎖等,0,2025-11-11,2025-11-04,株式会社ファミリー,,株式会社,大阪府,大阪市浪速区,桜川２丁目９番５号,,27,111,5560022,,,2025-11-04,清算の結了等,,,2019-07-09,1,,,,,ファミリー,0
2495,9120001240310,登記記録の閉鎖等,0,2025-11-11,2025-11-04,サクラリア株式会社,,株式会社,大阪府,大阪市阿倍野区,阪南町５丁目４番２８号,,27,119,5450021,,,2025-11-04,清算の結了等,,,2021-09-10,1,,,,,サクラリア,0
2506,9120002001901,登記記録の閉鎖等,0,2025-11-11,2025-11-04,有限会社小島保健薬局,,有限会社,大阪府,大阪市西成区,千本南２丁目２番９号,,27,122,5570055,,,2025-11-04,清算の結了等,,,2015-10-05,1,,,,,コジマホケンヤッキョク,0
2509,9120101069179,登記記録の閉鎖等,0,2025-11-11,2025-11-06,株式会社ケアフォーオール,,株式会社,奈良県,奈良市,富雄川西２丁目２４番１５号,,29,201,6310077,,,2025-11-06,清算の結了等,,,2024-03-08,1,,,,,ケアフォーオール,0
2523,9140002065795,登記記録の閉鎖等,0,2025-11-11,2025-10-30,有限会社イーストファイブ総合保険企画,,有限会社,兵庫県,川西市,大和東５丁目５６番地の４,,28,217,6660111,,,2025-10-30,清算の結了等,,,2015-10-05,1,,,,,イーストファイブソウゴウホケンキカク,0
2528,9160002011500,登記記録の閉鎖等,0,2025-11-11,2025-11-07,有限会社古源,,有限会社,滋賀県,高島市,マキノ町知内１２９４番地,,25,212,5201814,,,2025-11-07,清算の結了等,,,2015-10-05,1,,,,,フルゲン,0
2530,9180001005625,登記記録の閉鎖等,0,2025-11-11,2025-11-04,名高株式会社,,株式会社,愛知県,名古屋市千種区,東山元町５丁目４５番地,,23,101,4640804,,,2025-11-04,合併による解散等,5180001047844,令和７年１１月１日名古屋市千種区東山元町五丁目６３番地の１５高裕株式会社（5180001047844）に合併し解散,2015-10-05,1,,,,,ナダカ,0
2541,9180002042683,登記記録の閉鎖等,0,2025-11-11,2025-11-04,有限会社日型サービス,,有限会社,愛知県,名古屋市西区,木前町１３４番地,,23,104,4520834,,,2025-11-04,清算の結了等,,,2015-10-05,1,,,,,,0
2544,9180301001340,登記記録の閉鎖等,0,2025-11-11,2025-11-05,株式会社ティー・プラン,,株式会社,愛知県,豊橋市,大清水町字大清水４７６番地の５,,23,201,4418133,,,2025-11-05,清算の結了等,,,2015-10-05,1,,,,,ティープラン,0
2548,9180302010910,登記記録の閉鎖等,0,2025-11-11,2025-11-07,ヤマ上醤油有限会社,00074974,有限会社,東京都,町田市,忠生２丁目２０番地９町田ビューハイツ４０４,,13,209,1940035,,,2025-11-07,清算の結了等,,,2015-10-05,1,,,,,ヤマジョウショウユ,0
2553,9200003004548,登記記録の閉鎖等,0,2025-11-11,2025-10-31,合同会社ＴＬトレーディング,,合同会社,岐阜県,飛騨市,古川町杉崎１６８番地１ビレッジハウス古川１号棟２０１号,,21,217,5094215,,,2025-10-31,清算の結了等,,,2019-07-25,1,,,,,ティーエルトレーディング,0
2554,9210002011370,登記記録の閉鎖等,0,2025-11-11,2025-11-05,有限会社内藤ガラス店,,有限会社,福井県,三方上中郡若狭町,新道第７５号１番地,,18,501,9191531,,,2025-11-05,清算の結了等,,,2015-10-05,1,,,,,ナイトウガラステン,0
2557,9230001007392,登記記録の閉鎖等,0,2025-11-11,2025-11-04,中山工業株式会社,,株式会社,富山県,黒部市,三日市２６７８番地,,16,207,9380031,,,2025-11-04,合併による解散等,8230001007419,令和７年１１月１日富山県黒部市前沢２６９１番地北陸水道工業株式会社（8230001007419）に合併し解散,2015-10-05,1,,,,,ナカヤマコウギョウ,0
2558,9240001032522,登記記録の閉鎖等,0,2025-11-11,2025-10-30,株式会社装,,株式会社,広島県,福山市,駅家町大字倉光４１９番地６,,34,207,7201132,,,2025-10-30,清算の結了等,,,2015-10-05,1,,,,,ヨソオイ,0
2560,9240001059763,登記記録の閉鎖等,0,2025-11-11,2025-11-04,株式会社ネクスト,,株式会社,埼玉県,越谷市,大字袋山３０５番地１ガーデニアエス２０１,,11,222,3430032,,,2025-11-04,清算の結了等,,,2022-05-10,1,,,,,ネクスト,0
2565,9250001007449,登記記録の閉鎖等,0,2025-11-11,2025-11-06,ワイエムセゾン株式会社,,株式会社,山口県,下関市,竹崎町４丁目２番３６号,,35,201,7500025,,,2025-11-06,清算の結了等,,,2015-10-05,1,,,,,ワイエムセゾン,0
2567,9250002006342,登記記録の閉鎖等,0,2025-11-11,2025-11-07,有限会社室井興業,,有限会社,山口県,山陽小野田市,日の出３丁目４番１５号,,35,216,7560091,,,2025-11-07,清算の結了等,,,2015-10-05,1,,,,,ムロイコウギョウ,0
2583,9310001011519,登記記録の閉鎖等,0,2025-11-11,2025-11-07,ＳＰ長崎警備株式会社,,株式会社,長崎県,諫早市,幸町４番５－５０５号,,42,204,8540022,,,2025-11-07,清算の結了等,,,2015-10-05,1,,,,,エスピーナガサキケイビ,0
2594,9380003005000,登記記録の閉鎖等,0,2025-11-11,2025-11-04,合同会社ｂｅｌｌｅ　ｆｌｅｕｒ,,合同会社,福島県,郡山市,若葉町９番２１号,,07,203,9638011,,,2025-11-04,清算の結了等,,,2021-08-26,1,,,,,ベルフルール,0
2596,9400003002093,登記記録の閉鎖等,0,2025-11-11,2025-10-31,Ｍｉｄａｓ合同会社,,合同会社,岩手県,盛岡市,本宮３丁目５１番２号ＤＮＡムサシ２０５,,03,201,0200866,,,2025-10-31,清算の結了等,,,2016-07-27,1,,,,,ミダス,0
2597,9400005000954,登記記録の閉鎖等,0,2025-11-11,2025-10-31,医療法人哲修会,,その他の設立登記法人,岩手県,盛岡市,菜園２丁目７番３３号６０３号室,,03,201,0200024,,,2025-10-31,清算の結了等,,,2015-10-05,1,,,,,テッシュウカイ,0
