sequenceNumber,corporateNumber,process,correct,updateDate,changeDate,name,nameImageId,kind,prefectureName,cityName,streetNumber,addressImageId,prefectureCode,cityCode,postCode,addressOutside,addressOutsideImageId,closeDate,closeCause,successorCorporateNumber,changeCause,assignmentDate,latest,enName,enPrefectureName,enCityName,enAddressOutside,furigana,hihyoji
3,1010001244016,新規,0,2024-04-16,2024-04-16,株式会社Ｇ’ｚ,,株式会社,東京都,千代田区,神田和泉町１番地６－１６ヤマトビル４０５,,13,101,1010024,,,,,,,2024-04-16,1,,,,,ジーズ,0
8,1010003043176,新規,0,2024-04-16,2024-04-16,Ｆｅ合同会社,,合同会社,東京都,中央区,日本橋室町１丁目１１番１２号日本橋水野ビル７階,,13,102,1030022,,,,,,,2024-04-16,1,,,,,エフイー,0
9,1010003043507,新規,0,2024-04-16,2024-04-16,合同会社グリーンランド,,合同会社,東京都,千代田区,神田和泉町１番地６ー１６ヤマトビル４０５,,13,101,1010024,,,,,,,2024-04-16,1,,,,,グリーンランド,0
10,1010003043523,新規,0,2024-04-16,2024-04-16,日光Ｐｌｕｓ２２合同会社２,,合同会社,東京都,千代田区,丸の内３丁目１番１号東京共同会計事務所内,,13,101,1000005,,,,,,,2024-04-16,1,,,,,ニッコウプラストゥエンティツーニ,0
12,1010101016100,新規,0,2024-04-16,2024-04-16,株式会社Ｓｉｍｐｌｅ　Ｋ,,株式会社,東京都,八王子市,大塚６６４番地１カレッジスクエア多摩,,13,201,1920352,,,,,,,2024-04-16,1,,,,,,0
14,1010401181800,新規,0,2024-04-16,2024-04-16,株式会社クロレ,,株式会社,東京都,港区,北青山１丁目３番１号アールキューブ青山３階,,13,103,1070061,,,,,,,2024-04-16,1,,,,,クロレ,0
20,1010501017739,新規,0,2024-04-16,2024-04-16,株式会社ビークリエイト,,株式会社,東京都,台東区,東上野１丁目１２番１２号,,13,106,1100015,,,,,,,2024-04-16,1,,,,,,0
24,1010601065035,新規,0,2024-04-16,2024-04-16,株式会社ｂｅｌｌｅ,,株式会社,東京都,墨田区,緑４丁目１０番１－３０３号グリーンコート,,13,107,1300021,,,,,,,2024-04-16,1,,,,,ベル,0
34,1011001161036,新規,0,2024-04-16,2024-04-16,株式会社Ｇ．Ｄ,,株式会社,東京都,渋谷区,東京都渋谷区道玄坂一丁目１０番８号渋谷道玄坂東急ビル２Ｆ－Ｃ,,13,113,1500000,,,,,,,2024-04-16,1,,,,,ジーディー,0
35,1011001161226,新規,0,2024-04-16,2024-04-16,株式会社むぎままＤＩＹ,,株式会社,東京都,渋谷区,道玄坂１丁目１０番８号渋谷道玄坂東急ビル２Ｆ－Ｃ,,13,113,1500043,,,,,,,2024-04-16,1,,,,,ムギママディーアイワイ,0
36,1011001161291,新規,0,2024-04-16,2024-04-16,株式会社ＨＩＧＨＰＡＩＲ,,株式会社,東京都,渋谷区,神山町９番４号パークアクシス渋谷神山町２０３,,13,113,1500047,,,,,,,2024-04-16,1,,,,,ハイペアー,0
37,1011001161309,新規,0,2024-04-16,2024-04-16,株式会社サードフェイス,,株式会社,東京都,渋谷区,恵比寿４丁目２０番３号恵比寿ガーデンプレイスタワー１８Ｆ,,13,113,1500013,,,,,,,2024-04-16,1,,,,,サードフェイス,0
38,1011001161374,新規,0,2024-04-16,2024-04-16,株式会社Ｓｅｌｌｌ,,株式会社,東京都,目黒区,五本木２丁目６番１０号ボナール祐天寺１０３,,13,110,1530053,,,,,,,2024-04-16,1,,,,,セル,0
39,1011001161432,新規,0,2024-04-16,2024-04-16,株式会社ブルズアイ,,株式会社,東京都,渋谷区,神山町３３番１５号,,13,113,1500047,,,,,,,2024-04-16,1,,,,,ブルズアイ,0
40,1011003018911,新規,0,2024-04-16,2024-04-16,ＴｅｃｈＪａｐａｎ合同会社,,合同会社,東京都,渋谷区,渋谷２丁目１９－１５宮益坂ビルディング６０９,,13,113,1500002,,,,,,,2024-04-16,1,,,,,テックジャパン,0
41,1011003018928,新規,0,2024-04-16,2024-04-16,スポンズ合同会社,,合同会社,東京都,渋谷区,神宮前４丁目１８番９号ボヌール表参道３階,,13,113,1500001,,,,,,,2024-04-16,1,,,,,スポンズ,0
42,1011003018936,新規,0,2024-04-16,2024-04-16,合同会社オブシディアン,,合同会社,東京都,渋谷区,渋谷２丁目１９－１５宮益坂ビルディング６０９,,13,113,1500002,,,,,,,2024-04-16,1,,,,,オブシディアン,0
43,1011003018944,新規,0,2024-04-16,2024-04-16,合同会社スノードームクリエーター,,合同会社,東京都,渋谷区,渋谷２丁目１９－１５宮益坂ビルディング６０９,,13,113,1500002,,,,,,,2024-04-16,1,,,,,スノードームクリエーター,0
48,1011101106849,新規,0,2024-04-16,2024-04-16,東京美装ホールディングス株式会社,,株式会社,東京都,新宿区,西新宿６丁目２４番１号,,13,104,1600023,,,,,,,2024-04-16,1,,,,,トウキョウビソウホールディングス,0
49,1011203004364,新規,0,2024-04-16,2024-04-16,合同会社ベリーモ,,合同会社,東京都,中野区,鷺宮１丁目１２番１４号ソフィアハミング１０４,,13,114,1650032,,,,,,,2024-04-16,1,,,,,ベリーモ,0
60,1011403004338,新規,0,2024-04-16,2024-04-16,合同会社ＪＩＮＧＯＬ,,合同会社,東京都,板橋区,蓮根２丁目３１番２１－９０５号,,13,119,1740046,,,,,,,2024-04-16,1,,,,,ジンゴル,0
61,1011403004346,新規,0,2024-04-16,2024-04-16,合同会社Ａｒｇｅｎｔｏ　Ｓｔｅｌｌａ,,合同会社,東京都,板橋区,板橋４丁目３番地２号,,13,119,1730004,,,,,,,2024-04-16,1,,,,,アルジェントステラ,0
64,1011601027685,新規,0,2024-04-16,2024-04-16,静遠株式会社,,株式会社,東京都,練馬区,旭町１丁目８番１号－４０７,,13,120,1790071,,,,,,,2024-04-16,1,,,,,セイエン,0
65,1011701027197,新規,0,2024-04-16,2024-04-16,株式会社ＣＨＩＮＯ,,株式会社,東京都,江戸川区,鹿骨３丁目１１番１号,,13,123,1330073,,,,,,,2024-04-16,1,,,,,チノ,0
69,1012401041752,新規,0,2024-04-16,2024-04-16,株式会社ＳＦＯＲＴ,,株式会社,東京都,三鷹市,井の頭４丁目１６番１５号,,13,204,1810001,,,,,,,2024-04-16,1,,,,,エスフォート,0
77,1020001156763,新規,0,2024-04-16,2024-04-16,株式会社順敏,,株式会社,神奈川県,川崎市川崎区,渡田２丁目２０－４－２０３,,14,131,2100837,,,,,,,2024-04-16,1,,,,,ジュンピン,0
82,1021001081968,新規,0,2024-04-16,2024-04-16,株式会社Ｏｎ４Ｕ,,株式会社,神奈川県,藤沢市,湘南台１丁目９番地の２,,14,205,2520804,,,,,,,2024-04-16,1,,,,,オンフォーユー,0
83,1021001081976,新規,0,2024-04-16,2024-04-16,株式会社ＤＲＥＡＭ　ＰＯＮＹ,,株式会社,神奈川県,座間市,ひばりが丘１丁目２０番２４号,,14,216,2520003,,,,,,,2024-04-16,1,,,,,ドリームポニー,0
84,1021001081992,新規,0,2024-04-16,2024-04-16,株式会社ＨＩＮＯＥ,,株式会社,神奈川県,藤沢市,鵠沼石上１丁目７番８号ビックライズビル５Ｆ,,14,205,2510025,,,,,,,2024-04-16,1,,,,,ヒノエ,0
86,1021003014356,新規,0,2024-04-16,2024-04-16,合同会社こざくら,,合同会社,神奈川県,茅ヶ崎市,本宿町１２番１７号,,14,207,2530014,,,,,,,2024-04-16,1,,,,,コザクラ,0
92,1030001159856,新規,0,2024-04-16,2024-04-16,株式会社エムエスｗｏｒｋｓ,,株式会社,埼玉県,川口市,長蔵１丁目１８－１Ｎｉｃｏワークオフィス２０１,,11,203,3330807,,,,,,,2024-04-16,1,,,,,エムエスワークス,0
93,1030001159864,新規,0,2024-04-16,2024-04-16,株式会社ａｉｄ,,株式会社,埼玉県,さいたま市大宮区,大成町３丁目５４４番地２,,11,103,3300852,,,,,,,2024-04-16,1,,,,,エイド,0
94,1030001159880,新規,0,2024-04-16,2024-04-16,株式会社ＷＢｅａｕｔｙ,,株式会社,埼玉県,川口市,川口５丁目２０番１０号,,11,203,3320015,,,,,,,2024-04-16,1,,,,,ダブリュービューティー,0
99,1030003024091,新規,0,2024-04-16,2024-04-16,合同会社ｔｈｉｎｋ,,合同会社,埼玉県,さいたま市南区,四谷１丁目９番４号,,11,108,3360032,,,,,,,2024-04-16,1,,,,,シンク,0
108,1040001133141,新規,0,2024-04-16,2024-04-16,ＩＫ株式会社,,株式会社,千葉県,千葉市中央区,村田町６８７番地３－２００号室,,12,101,2600825,,,,,,,2024-04-16,1,,,,,アイケイ,0
109,1040001133174,新規,0,2024-04-16,2024-04-16,株式会社共栄,,株式会社,千葉県,市川市,塩焼２丁目２番７３号,,12,203,2720114,,,,,,,2024-04-16,1,,,,,キョウエイ,0
110,1040001133182,新規,0,2024-04-16,2024-04-16,株式会社ビリオン,,株式会社,千葉県,鎌ケ谷市,鎌ケ谷９丁目３番１０号,,12,224,2730105,,,,,,,2024-04-16,1,,,,,ビリオン,0
116,1060001037010,新規,0,2024-04-16,2024-04-16,ぴかいち長安株式会社,,株式会社,栃木県,宇都宮市,東戸祭１丁目２番１７号６０３号室,,09,201,3200054,,,,,,,2024-04-16,1,,,,,ピカイチチョウアン,0
120,1060003004933,新規,0,2024-04-16,2024-04-16,ＤＡＰＨＵＲＢＡ合同会社,,合同会社,栃木県,栃木市,大平町富田９７５－１大平ハイツＡ１０１,,09,203,3294404,,,,,,,2024-04-16,1,,,,,ダフルバ,0
121,1060003005031,新規,0,2024-04-16,2024-04-16,ＳＨＩＺＡ　ＩＮＴＥＲＮＡＴＩＯＮＡＬ合同会社,,合同会社,栃木県,小山市,大字大行寺１０２０番地９,,09,208,3230041,,,,,,,2024-04-16,1,,,,,シザインターナショナル,0
125,1070003005369,新規,0,2024-04-16,2024-04-16,合同会社ｎｏＢ,,合同会社,群馬県,伊勢崎市,宮子町３４８６番地２３,,10,204,3720801,,,,,,,2024-04-16,1,,,,,ノブ,0
136,1110001038333,新規,0,2024-04-16,2024-04-16,株式会社Ａｌｉｃｅ,,株式会社,新潟県,長岡市,金房２丁目６番２２号,,15,202,9400045,,,,,,,2024-04-16,1,,,,,アリス,0
141,1110003005364,新規,0,2024-04-16,2024-04-16,アマルナ合同会社,,合同会社,新潟県,佐渡市,上矢馳５０２－１,,15,224,9521303,,,,,,,2024-04-16,1,,,,,アマルナ,0
156,1120001263847,新規,0,2024-04-16,2024-04-16,株式会社ｗｉｌｌ　ｓｅｒｖｉｃｅ,,株式会社,大阪府,大阪市生野区,巽西４丁目４番３６号,00134427,27,116,5440012,,,,,,,2024-04-16,1,,,,,ウィルサービス,0
157,1120001264036,新規,0,2024-04-16,2024-04-16,英澤株式会社,,株式会社,大阪府,大阪市浪速区,敷津西２丁目１３番２号,,27,111,5560015,,,,,,,2024-04-16,1,,,,,ヒデサワ,0
158,1120001264127,新規,0,2024-04-16,2024-04-16,株式会社エターナルテクノ,,株式会社,大阪府,寝屋川市,池田２丁目６番３６号（１０６号）,,27,215,5720039,,,,,,,2024-04-16,1,,,,,エターナルテクノ,0
160,1120003026376,新規,0,2024-04-16,2024-04-16,合同会社ＥＩＮＳ,,合同会社,大阪府,大阪市平野区,平野元町５番１１号クレール元町１０２号,,27,126,5470047,,,,,,,2024-04-16,1,,,,,アインス,0
165,1120101069434,新規,0,2024-04-16,2024-04-16,株式会社ＲＡＹＵＭＡ　ＧＲＯＵＰ,,株式会社,大阪府,河内長野市,北貴望ケ丘１番１－２０５号,,27,216,5860091,,,,,,,2024-04-16,1,,,,,ラユマグループ,0
168,1122001038023,新規,0,2024-04-16,2024-04-16,株式会社デジタルキャピタル,,株式会社,大阪府,東大阪市,荒川３丁目１４－５－３０３,,27,227,5770843,,,,,,,2024-04-16,1,,,,,デジタルキャピタル,0
170,1130003009470,新規,0,2024-04-16,2024-04-16,合同会社ＶＡＲＩＡＮＴＥ,,合同会社,京都府,宇治市,槇島町北内２２番地７,,26,204,6110041,,,,,,,2024-04-16,1,,,,,ヴァリアンテ,0
184,1140003020443,新規,0,2024-04-16,2024-04-16,国際貿易合同会社,,合同会社,兵庫県,神戸市西区,神出町勝成字西谷１１６番１５,,28,111,6512301,,,,,,,2024-04-16,1,,,,,コクサイボウエキ,0
205,1180003026585,新規,0,2024-04-16,2024-04-16,合同会社ＯｗｌＡｇｅｎｔ,,合同会社,愛知県,名古屋市守山区,大字上志段味字上島７０８番地,,23,113,4630001,,,,,,,2024-04-16,1,,,,,オウルエージェント,0
206,1180003026619,新規,0,2024-04-16,2024-04-16,合同会社クラムハート,,合同会社,愛知県,尾張旭市,新居町下切戸１２４２番地２,,23,226,4880071,,,,,,,2024-04-16,1,,,,,クラムハート,0
211,1180303006080,新規,0,2024-04-16,2024-04-16,合同会社ｎｏｋｋａ,,合同会社,愛知県,豊田市,竜神町桃山７番地２,,23,211,4730907,,,,,,,2024-04-16,1,,,,,ノッカ,0
212,1190001031280,新規,0,2024-04-16,2024-04-16,株式会社滝原商会,,株式会社,三重県,度会郡大紀町,滝原１８１８番地２,,24,471,5192703,,,,,,,2024-04-16,1,,,,,タキハラショウカイ,0
218,1200001042409,新規,0,2024-04-16,2024-04-16,株式会社大真ロジテック,,株式会社,岐阜県,岐阜市,柳津町上佐波西１丁目１５３番地,,21,201,5016121,,,,,,,2024-04-16,1,,,,,ダイシンロジテック,0
221,1200003006312,新規,0,2024-04-16,2024-04-16,合同会社ベテル美濃源氏,,合同会社,岐阜県,瑞浪市,寺河戸町１２３８番地の２,,21,208,5096121,,,,,,,2024-04-16,1,,,,,ベテルミノゲンジ,0
232,1230001020295,新規,0,2024-04-16,2024-04-16,株式会社ＧＡＬ,,株式会社,富山県,高岡市,大坪町２丁目３－２,,16,202,9330918,,,,,,,2024-04-16,1,,,,,ジーエーエル,0
233,1240001063079,新規,0,2024-04-16,2024-04-16,品也株式会社,,株式会社,広島県,広島市西区,楠木町１丁目９－１１－６０４,,34,104,7330002,,,,,,,2024-04-16,1,,,,,シナヤ,0
237,1240003006622,新規,0,2024-04-16,2024-04-16,合同会社名高コーポレーション,,合同会社,広島県,広島市佐伯区,観音台１丁目２５番３号,,34,108,7315157,,,,,,,2024-04-16,1,,,,,ナダカコーポレーション,0
240,1260001038970,新規,0,2024-04-16,2024-04-16,株式会社ボブソンニューヨークスターズ,,株式会社,岡山県,岡山市北区,平野９７８番地,,33,101,7010151,,,,,,,2024-04-16,1,,,,,ボブソンニューヨークスターズ,0
241,1280001009160,新規,0,2024-04-16,2024-04-16,株式会社ケイネクト,,株式会社,島根県,出雲市,大社町杵築西２２２０番地８,,32,203,6990751,,,,,,,2024-04-16,1,,,,,ケイネクト,0
246,1290001105289,新規,0,2024-04-16,2024-04-16,株式会社Ｋ‐ｆｏｒｅ,,株式会社,福岡県,福岡市早良区,梅林６丁目２番４０号,,40,137,8140172,,,,,,,2024-04-16,1,,,,,ケーフォア,0
247,1290001105388,新規,0,2024-04-16,2024-04-16,みどり株式会社,,株式会社,福岡県,福岡市中央区,舞鶴１丁目２番３３号ライオンズマンション天神５０１,,40,133,8100073,,,,,,,2024-04-16,1,,,,,,0
248,1290001105529,新規,0,2024-04-16,2024-04-16,株式会社スマイルエステート,,株式会社,福岡県,福岡市中央区,六本松４丁目６番１０号,,40,133,8100044,,,,,,,2024-04-16,1,,,,,スマイルエステート,0
249,1290801030496,新規,0,2024-04-16,2024-04-16,株式会社Ｈａｋｕｓｅｉ工業,,株式会社,福岡県,北九州市小倉北区,上富野４丁目３－８,,40,106,8020022,,,,,,,2024-04-16,1,,,,,ハクセイコウギョウ,0
250,1290801030505,新規,0,2024-04-16,2024-04-16,株式会社アオキ工業,,株式会社,福岡県,田川市,桜町３番１２号,,40,206,8260021,,,,,,,2024-04-16,1,,,,,アオキコウギョウ,0
260,1360001033516,新規,0,2024-04-16,2024-04-16,株式会社ＳＥＬＬＩＮＧ　ＤＥＳＩＧＮ,,株式会社,沖縄県,那覇市,牧志２丁目１７番地２７号４０１,,47,201,9000013,,,,,,,2024-04-16,1,,,,,セリングデザイン,0
264,1370001051186,新規,0,2024-04-16,2024-04-16,株式会社ビーテラス,,株式会社,宮城県,仙台市青葉区,大町２丁目１０番１４号,,04,101,9800804,,,,,,,2024-04-16,1,,,,,ビーテラス,0
265,1370001051194,新規,0,2024-04-16,2024-04-16,株式会社グリーンマスター,,株式会社,宮城県,宮城郡七ヶ浜町,汐見台３丁目２番地の５９,,04,404,9850821,,,,,,,2024-04-16,1,,,,,グリーンマスター,0
271,1420001018691,新規,0,2024-04-16,2024-04-16,株式会社山恭,,株式会社,青森県,八戸市,大字新井田字西平３３番地１７,,02,203,0310813,,,,,,,2024-04-16,1,,,,,ヤマキョウ,0
272,1420003002909,新規,0,2024-04-16,2024-04-16,Ｆａｍｉｌｙ８合同会社,,合同会社,青森県,十和田市,西十四番町４４番２７号,,02,206,0340088,,,,,,,2024-04-16,1,,,,,,0
275,1430001091548,新規,0,2024-04-16,2024-04-16,株式会社ｃｅｒｉｓｉｅｒ,,株式会社,北海道,空知郡南幌町,東町２丁目６番２０号,,01,423,0690233,,,,,,,2024-04-16,1,,,,,スリジエ,0
276,1430001091556,新規,0,2024-04-16,2024-04-16,株式会社ラヴィアンローズ,,株式会社,北海道,札幌市西区,琴似四条２丁目１番１,,01,107,0630814,,,,,,,2024-04-16,1,,,,,ラヴィアンローズ,0
277,1430001091589,新規,0,2024-04-16,2024-04-16,ヤマシンテック株式会社,,株式会社,北海道,苫小牧市,字沼ノ端１８番地の４６,,01,213,0591364,,,,,,,2024-04-16,1,,,,,ヤマシンテック,0
278,1430001091614,新規,0,2024-04-16,2024-04-16,株式会社Ｍ，ｓ,,株式会社,北海道,札幌市東区,北六条東５丁目１－５,,01,103,0600906,,,,,,,2024-04-16,1,,,,,エムズ,0
281,1430003016206,新規,0,2024-04-16,2024-04-16,シームーン合同会社,,合同会社,北海道,札幌市豊平区,豊平四条２丁目２番１－１５０７号,,01,105,0620904,,,,,,,2024-04-16,1,,,,,シームーン,0
282,1430003016214,新規,0,2024-04-16,2024-04-16,合同会社ｉ　ｂｕｉｌｄ,,合同会社,北海道,千歳市,釜加２８１番地の１,,01,224,0660002,,,,,,,2024-04-16,1,,,,,アイビルド,0
289,1480001012441,新規,0,2024-04-16,2024-04-16,株式会社Ｐａｃｏ,,株式会社,徳島県,徳島市,川内町平石若松１００番地の６,,36,201,7710135,,,,,,,2024-04-16,1,,,,,パコ,0
290,1480005007017,新規,0,2024-04-16,2024-04-16,一般社団法人ａｍｕ,,その他の設立登記法人,徳島県,勝浦郡上勝町,大字正木字藪ノ内８４番地,,36,302,7714505,,,,,,,2024-04-16,1,,,,,アム,0
295,1500001025572,新規,0,2024-04-16,2024-04-16,株式会社修栄工業,,株式会社,愛媛県,伊予市,宮下３３０番地１,,38,210,7993102,,,,,,,2024-04-16,1,,,,,シュウエイコウギョウ,0
306,2010001243999,新規,0,2024-04-16,2024-04-16,出雲Ａｓｓｏｃｉａｔｅｓ株式会社,,株式会社,東京都,中央区,日本橋浜町３丁目３番１号トルナーレ日本橋浜町３７１２,,13,102,1030007,,,,,,,2024-04-16,1,,,,,イズモアソシエイツ,0
307,2010003043489,新規,0,2024-04-16,2024-04-16,ＤＡＯＬａｂｓ合同会社,,合同会社,東京都,千代田区,神田須田町１丁目１４番１号,,13,101,1010041,,,,,,,2024-04-16,1,,,,,ダオラブズ,0
308,2010003043522,新規,0,2024-04-16,2024-04-16,日光Ｐｌｕｓ２２合同会社１,,合同会社,東京都,千代田区,丸の内３丁目１番１号東京共同会計事務所内,,13,101,1000005,,,,,,,2024-04-16,1,,,,,ニッコウプラストゥエンティツーイチ,0
309,2010005038198,新規,0,2024-04-16,2024-04-16,一般社団法人ｍｅｄＵ‐ｎｅｔ政策研究基盤,,その他の設立登記法人,東京都,文京区,湯島１丁目５番４５号,,13,105,1130034,,,,,,,2024-04-16,1,,,,,メドユーネットセイサクケンキュウキバン,0
310,2010103002329,新規,0,2024-04-16,2024-04-16,ＯＳＡ合同会社,,合同会社,東京都,八王子市,長沼町２０６－１,,13,201,1920907,,,,,,,2024-04-16,1,,,,,オサ,0
343,2011001161299,新規,0,2024-04-16,2024-04-16,Ｋｉｎｇ＆Ｐｒｉｎｃｅ株式会社,,株式会社,東京都,渋谷区,神宮前１丁目５番８号,,13,113,1500001,,,,,,,2024-04-16,1,,,,,キングアンドプリンス,0
344,2011001161324,新規,0,2024-04-16,2024-04-16,株式会社アスアンドメイ,,株式会社,東京都,渋谷区,道玄坂１丁目１０番８号渋谷道玄坂東急ビル２Ｆ－Ｃ,,13,113,1500043,,,,,,,2024-04-16,1,,,,,アスアンドメイ,0
345,2011003018844,新規,0,2024-04-16,2024-04-16,合同会社Ｗｅ．Ｅ,,合同会社,東京都,渋谷区,渋谷２丁目１９番１５号宮益坂ビルディング６０９,,13,113,1500002,,,,,,,2024-04-16,1,,,,,ウィイー,0
346,2011003018919,新規,0,2024-04-16,2024-04-16,ＲＡＹ合同会社,,合同会社,東京都,目黒区,自由が丘２丁目１６番１２号ＲＪ３,,13,110,1520035,,,,,,,2024-04-16,1,,,,,レイ,0
347,2011003018935,新規,0,2024-04-16,2024-04-16,合同会社エレファンツ,,合同会社,東京都,目黒区,目黒３丁目１０番１６号,,13,110,1530063,,,,,,,2024-04-16,1,,,,,エレファンツ,0
348,2011003018943,新規,0,2024-04-16,2024-04-16,ＳＲＨ合同会社,,合同会社,東京都,渋谷区,道玄坂１丁目１０番８号渋谷道玄坂東急ビル２Ｆ－Ｃ,,13,113,1500043,,,,,,,2024-04-16,1,,,,,エスアールエイチ,0
352,2011101106988,新規,0,2024-04-16,2024-04-16,株式会社アクトヒューマン,,株式会社,東京都,新宿区,西新宿７丁目３番１０号２１山京ビル,,13,104,1600023,,,,,,,2024-04-16,1,,,,,アクトヒューマン,0
354,2011103014330,新規,0,2024-04-16,2024-04-16,コミュニケイト合同会社,,合同会社,東京都,新宿区,富久町８－２７－５０２,,13,104,1620067,,,,,,,2024-04-16,1,,,,,コミュニケイト,0
356,2011203004363,新規,0,2024-04-16,2024-04-16,合同会社ヨンスル,,合同会社,東京都,中野区,東中野１丁目５２番１８号－３０２,,13,114,1640003,,,,,,,2024-04-16,1,,,,,ヨンスル,0
357,2011401026011,新規,0,2024-04-16,2024-04-16,Ｍｅｇａｌｉｎｋｓ株式会社,,株式会社,東京都,板橋区,大谷口上町６－３,,13,119,1730032,,,,,,,2024-04-16,1,,,,,メガリンクス,0
359,2011403004345,新規,0,2024-04-16,2024-04-16,ＬＯＯＫＳ合同会社,,合同会社,東京都,板橋区,大山金井町１０－６－５０１,,13,119,1730024,,,,,,,2024-04-16,1,,,,,ルックス,0
365,2011701027205,新規,0,2024-04-16,2024-04-16,株式会社Ａ‐ｍａｓｋ,,株式会社,東京都,江戸川区,北小岩７丁目１９番５号,,13,123,1330051,,,,,,,2024-04-16,1,,,,,エーマスク,0
367,2011801044067,新規,0,2024-04-16,2024-04-16,株式会社タカ建設,,株式会社,東京都,足立区,東伊興１丁目１２番２２号,,13,121,1210801,,,,,,,2024-04-16,1,,,,,タカケンセツ,0
369,2012301013875,新規,0,2024-04-16,2024-04-16,ｔｓｕｋｉ株式会社,,株式会社,東京都,町田市,玉川学園２丁目６－６石川ビル２０２,,13,209,1940041,,,,,,,2024-04-16,1,,,,,ツキ,0
370,2012401041693,新規,0,2024-04-16,2024-04-16,富士山１００株式会社,,株式会社,東京都,府中市,日新町５丁目６６番地の４０,,13,206,1830036,,,,,,,2024-04-16,1,,,,,フジサンヒャク,0
371,2012401041743,新規,0,2024-04-16,2024-04-16,佐藤株式会社,,株式会社,東京都,狛江市,東和泉１丁目８番１－２０１号,,13,219,2010014,,,,,,,2024-04-16,1,,,,,サトウ,0
372,2012403006521,新規,0,2024-04-16,2024-04-16,合同会社Ｂｒａｉｎ　Ｒｅｓｅａｒｃｈ　Ｐｉｏｎｅｅｒ　Ｉｎｓｔｉｔｕｔｅ,,合同会社,東京都,武蔵野市,吉祥寺南町３丁目５番１３号,,13,203,1800003,,,,,,,2024-04-16,1,,,,,ブレインリサーチパイオニアインスティチュート,0
382,2020001156713,新規,0,2024-04-16,2024-04-16,株式会社電健,,株式会社,神奈川県,横浜市中区,若葉町２丁目３３番地７フレーヴァー伊勢佐木２０１号室,,14,104,2310056,,,,,,,2024-04-16,1,,,,,デンケン,0
383,2020001156795,新規,0,2024-04-16,2024-04-16,株式会社Ｌ‐Ｆｉｔ,,株式会社,神奈川県,横浜市青葉区,榎が丘５６番地２５,,14,117,2270063,,,,,,,2024-04-16,1,,,,,エルフィット,0
384,2021001081967,新規,0,2024-04-16,2024-04-16,株式会社アクティフルフーズ,,株式会社,神奈川県,三浦市,南下浦町上宮田３１３１番地,,14,210,2380101,,,,,,,2024-04-16,1,,,,,アクティフルフーズ,0
385,2021001081975,新規,0,2024-04-16,2024-04-16,株式会社インテリア爽,,株式会社,神奈川県,平塚市,南原３丁目５番４９号,,14,203,2540065,,,,,,,2024-04-16,1,,,,,インテリアソウ,0
386,2021001082016,新規,0,2024-04-16,2024-04-16,株式会社新八,,株式会社,神奈川県,茅ヶ崎市,若松町１２番２６－２号,,14,207,2530051,,,,,,,2024-04-16,1,,,,,シンパチ,0
394,2030001159830,新規,0,2024-04-16,2024-04-16,Ｔ・Ｓコネクト株式会社,,株式会社,埼玉県,和光市,丸山台１丁目４番４号,,11,229,3510112,,,,,,,2024-04-16,1,,,,,ティーエスコネクト,0
395,2030001159839,新規,0,2024-04-16,2024-04-16,株式会社飛龍,,株式会社,埼玉県,さいたま市北区,日進町２丁目１３６７番地１レクセルプラザ日進１０９,,11,102,3310823,,,,,,,2024-04-16,1,,,,,ヒリュウ,0
396,2030001159855,新規,0,2024-04-16,2024-04-16,スズキ地所株式会社,,株式会社,埼玉県,さいたま市大宮区,桜木町１丁目１９５番地１,,11,103,3300854,,,,,,,2024-04-16,1,,,,,スズキジショ,0
397,2030001159863,新規,0,2024-04-16,2024-04-16,株式会社ブルーケープ,,株式会社,埼玉県,戸田市,笹目南町３２番１９－２０１号,,11,224,3350035,,,,,,,2024-04-16,1,,,,,ブルーケープ,0
401,2030003024074,新規,0,2024-04-16,2024-04-16,合同会社エーアール建設,,合同会社,埼玉県,鶴ヶ島市,大字脚折１４１１番地１６,,11,241,3502213,,,,,,,2024-04-16,1,,,,,エーアールケンセツ,0
402,2030003024082,新規,0,2024-04-16,2024-04-16,合同会社ＡＫ１,,合同会社,埼玉県,ふじみ野市,桜ケ丘３丁目４８番２８号,,11,245,3560059,,,,,,,2024-04-16,1,,,,,エーケーワン,0
403,2030003024099,新規,0,2024-04-16,2024-04-16,アセットアシスト合同会社,,合同会社,埼玉県,川越市,大字藤間６５番地１－３０１号,,11,201,3501142,,,,,,,2024-04-16,1,,,,,アセットアシスト,0
407,2040001133082,新規,0,2024-04-16,2024-04-16,株式会社シャロン,,株式会社,千葉県,船橋市,三山１丁目１３番８号,,12,204,2740072,,,,,,,2024-04-16,1,,,,,シャロン,0
408,2040001133140,新規,0,2024-04-16,2024-04-16,日本成心株式会社,,株式会社,千葉県,柏市,南柏２丁目６番１８号,,12,217,2770855,,,,,,,2024-04-16,1,,,,,ニホンセイシン,0
409,2040001133173,新規,0,2024-04-16,2024-04-16,株式会社ＦＣＦ　ＪＡＰＡＮ,,株式会社,千葉県,千葉市中央区,富士見２丁目２２番１８号富士見センタービル５Ｆ,,12,101,2600015,,,,,,,2024-04-16,1,,,,,エフシーエフジャパン,0
410,2040001133207,新規,0,2024-04-16,2024-04-16,株式会社高吉美装,,株式会社,千葉県,松戸市,小金上総町１１番地の３,,12,207,2700015,,,,,,,2024-04-16,1,,,,,タカヨシビソウ,0
413,2040003024791,新規,0,2024-04-16,2024-04-16,合同会社アルバ,,合同会社,千葉県,松戸市,大金平１丁目１１番地リベール北小金２０３号,,12,207,2700006,,,,,,,2024-04-16,1,,,,,アルバ,0
418,2060003005039,新規,0,2024-04-16,2024-04-16,合同会社ＮＥＯＬＩＮＥ,,合同会社,栃木県,足利市,堀込町２９１８番地２ヴィラージュ・ガーデンＡ１０２,,09,202,3260831,,,,,,,2024-04-16,1,,,,,ネオライン,0
421,2070001041638,新規,0,2024-04-16,2024-04-16,株式会社みなかみフォレスト,,株式会社,群馬県,利根郡みなかみ町,月夜野１８５５番地,,10,449,3791313,,,,,,,2024-04-16,1,,,,,ミナカミフォレスト,0
426,2080401027129,新規,0,2024-04-16,2024-04-16,Ｖａｌｕｅ　ｉｎ　Ｌｉｆｅ株式会社,,株式会社,静岡県,浜松市中央区,城北１丁目４番１５号,,22,138,4328011,,,,,,,2024-04-16,1,,,,,バリューインライフ,0
428,2090001018659,新規,0,2024-04-16,2024-04-16,ＴＡＴＥＭＩ株式会社,,株式会社,山梨県,富士吉田市,上吉田東４丁目１４番１８号,,19,202,4030032,,,,,,,2024-04-16,1,,,,,タテミ,0
447,2120001264035,新規,0,2024-04-16,2024-04-16,株式会社アイザー,,株式会社,大阪府,大阪市東淀川区,大道南１丁目６番５－１００３号,,27,114,5330012,,,,,,,2024-04-16,1,,,,,アイザー,0
448,2120001264175,新規,0,2024-04-16,2024-04-16,株式会社ワープメソッド,,株式会社,大阪府,大阪市西区,立売堀１丁目９番１３号,,27,106,5500012,,,,,,,2024-04-16,1,,,,,ワープメソッド,0
457,2120003026409,新規,0,2024-04-16,2024-04-16,合同会社ＤｅｅｐＢｌｕｅ,,合同会社,大阪府,大阪市北区,梅田１丁目１‐３大阪駅前第３ビル２９階１‐１‐１号室,,27,127,5300001,,,,,,,2024-04-16,1,,,,,ディープブルー,0
462,2120101069409,新規,0,2024-04-16,2024-04-16,株式会社Ｃｈｅｒｒｙ工房,,株式会社,大阪府,堺市堺区,山本町３丁７５番地４,,27,141,5900983,,,,,,,2024-04-16,1,,,,,チェリーコウボウ,0
463,2120101069417,新規,0,2024-04-16,2024-04-16,Ｎ‐ｍａｔＥ株式会社,,株式会社,大阪府,堺市堺区,香ヶ丘町１丁１番２０号,,27,141,5900011,,,,,,,2024-04-16,1,,,,,エヌメイト,0
464,2120103005782,新規,0,2024-04-16,2024-04-16,合同会社ａｏｉ,,合同会社,大阪府,堺市堺区,翁橋町１丁９番１５号,,27,141,5900061,,,,,,,2024-04-16,1,,,,,アオイ,0
484,2140001134079,新規,0,2024-04-16,2024-04-16,株式会社元田建工,,株式会社,兵庫県,神崎郡市川町,西川辺１０４１番地の４３,,28,442,6792315,,,,,,,2024-04-16,1,,,,,モトダケンコウ,0
485,2140001134129,新規,0,2024-04-16,2024-04-16,ＵｓｅｒＦｏｃｕｓ株式会社,,株式会社,兵庫県,神戸市東灘区,向洋町中７丁目２－１－５－５０８,,28,101,6580032,,,,,,,2024-04-16,1,,,,,ユーザーフォーカス,0
488,2140003020442,新規,0,2024-04-16,2024-04-16,合同会社ＢＡＴＴＥＲＹ,,合同会社,兵庫県,神戸市東灘区,魚崎西町４丁目２番４７－３０４号,,28,101,6580026,,,,,,,2024-04-16,1,,,,,バッテリー,0
490,2140005027048,新規,0,2024-04-16,2024-04-16,医療法人ＫＹＴＨＳ,,その他の設立登記法人,兵庫県,明石市,王子１丁目３－８モンテフェリーチェ１階,,28,203,6730022,,,,,,,2024-04-16,1,,,,,キーズ,0
510,2180301038521,新規,0,2024-04-16,2024-04-16,株式会社総診パートナーズ,,株式会社,愛知県,豊田市,中田町日進２番地２７,,23,211,4730927,,,,,,,2024-04-16,1,,,,,ソウシンパートナーズ,0
520,2220001025939,新規,0,2024-04-16,2024-04-16,希崎建創株式会社,00134419,株式会社,石川県,金沢市,桂町ホ６番地１,,17,201,9200334,,,,,,,2024-04-16,1,,,,,キボウケンソウ,0
524,2230001020294,新規,0,2024-04-16,2024-04-16,昶徳コンサルティング株式会社,,株式会社,富山県,下新川郡朝日町,境７３３番地１,,16,343,9390704,,,,,,,2024-04-16,1,,,,,チョウトクコンサルティング,0
525,2230005009375,新規,0,2024-04-16,2024-04-16,一般社団法人かわまち,,その他の設立登記法人,富山県,南砺市,荒木５３２２福光タクシー内,,16,210,9391732,,,,,,,2024-04-16,1,,,,,カワマチ,0
528,2240001063078,新規,0,2024-04-16,2024-04-16,株式会社信瑛,,株式会社,広島県,尾道市,新浜１丁目７番４－７号,,34,205,7220014,,,,,,,2024-04-16,1,,,,,シンエイ,0
537,2260003004648,新規,0,2024-04-16,2024-04-16,合同会社自分ごきげんデザイン,,合同会社,岡山県,岡山市南区,西市２９０－２－９０５,,33,104,7000953,,,,,,,2024-04-16,1,,,,,ジブンゴキゲンデザイン,0
543,2290801030495,新規,0,2024-04-16,2024-04-16,株式会社Ａｒｔｉｃｕｌａｔｅ,,株式会社,福岡県,北九州市小倉南区,富士見２丁目７番１４－４０１号,,40,107,8020801,,,,,,,2024-04-16,1,,,,,アーティキュレイト,0
545,2300001013695,新規,0,2024-04-16,2024-04-16,株式会社九神ジェット,,株式会社,佐賀県,神埼郡吉野ヶ里町,三津１２４５番地５,,41,327,8420104,,,,,,,2024-04-16,1,,,,,キュウシンジェット,0
552,2330003010317,新規,0,2024-04-16,2024-04-16,合同会社宮本商店,,合同会社,熊本県,上天草市,大矢野町中６０６番地３,,43,212,8693603,,,,,,,2024-04-16,1,,,,,ミヤモトショウテン,0
561,2360003013829,新規,0,2024-04-16,2024-04-16,合同会社ちゅらっと石垣島,,合同会社,沖縄県,石垣市,字名蔵１１２４－１,,47,207,9070021,,,,,,,2024-04-16,1,,,,,チュラットイシガキジマ,0
563,2370001051193,新規,0,2024-04-16,2024-04-16,株式会社導,,株式会社,宮城県,仙台市青葉区,本町１丁目５番２８号カーニープレイス仙台駅前通６０３号室,,04,101,9800014,,,,,,,2024-04-16,1,,,,,ミチビク,0
568,2380005012819,新規,0,2024-04-16,2024-04-16,一般社団法人身元保証信託支援協会,,その他の設立登記法人,福島県,福島市,三河南町１番２０号コラッセ福島６Ｆ,,07,201,9608053,,,,,,,2024-04-16,1,,,,,ミモトホショウシンタクシエンキョウカイ,0
570,2400001016630,新規,0,2024-04-16,2024-04-16,株式会社澤里技研,,株式会社,岩手県,下閉伊郡岩泉町,袰綿字本町１９番地３,,03,483,0285643,,,,,,,2024-04-16,1,,,,,サワサトギケン,0
578,2430001091588,新規,0,2024-04-16,2024-04-16,西岡板金工業株式会社,,株式会社,北海道,夕張郡由仁町,中央３１番地,,01,427,0691205,,,,,,,2024-04-16,1,,,,,ニシオカバンキンコウギョウ,0
582,2430003016205,新規,0,2024-04-16,2024-04-16,合同会社ウィジェクト,,合同会社,北海道,札幌市中央区,南四条東３丁目９番地１ハイツ昭和７０８号,,01,101,0600054,,,,,,,2024-04-16,1,,,,,ウィジェクト,0
583,2430003016213,新規,0,2024-04-16,2024-04-16,合同会社ボブハウス,,合同会社,北海道,札幌市豊平区,豊平五条２丁目４番１号,,01,105,0620905,,,,,,,2024-04-16,1,,,,,ボブハウス,0
585,2470001020147,新規,0,2024-04-16,2024-04-16,株式会社総合産業,,株式会社,香川県,観音寺市,観音寺町甲１１３３番地１,,37,205,7680060,,,,,,,2024-04-16,1,,,,,ソウゴウサンギョウ,0
586,2470003002614,新規,0,2024-04-16,2024-04-16,篠山商会合同会社,,合同会社,香川県,坂出市,川津町３５３４番地７スターハイツ２０１号,,37,203,7620025,,,,,,,2024-04-16,1,,,,,シノヤマショウカイ,0
587,2470003002630,新規,0,2024-04-16,2024-04-16,合同会社中尾デンキ,,合同会社,香川県,高松市,国分寺町新名１１９７番地３,,37,201,7690104,,,,,,,2024-04-16,1,,,,,ナカオデンキ,0
590,2500001025571,新規,0,2024-04-16,2024-04-16,株式会社シムリノベ,,株式会社,愛媛県,松山市,久万ノ台２８３番地,,38,201,7918016,,,,,,,2024-04-16,1,,,,,シムリノベ,0
593,2700150124740,新規,0,2024-04-16,2024-04-05,信州新町納涼大会実行委員会,,その他,長野県,長野市,信州新町新町３１－２,,20,201,3812405,,,,,,,2024-04-05,1,,,,,シンシユウシンマチノウリヨウタイカイジツコウイインカイ,0
598,3010001244055,新規,0,2024-04-16,2024-04-16,株式会社バート,,株式会社,東京都,文京区,湯島３丁目４４番９号湯島要ビル３階Ｂ号,,13,105,1130034,,,,,,,2024-04-16,1,,,,,,0
600,3010003043380,新規,0,2024-04-16,2024-04-16,Ｍｏｎｔａｎａ　Ｍａｎａｇｅｍｅｎｔ合同会社,,合同会社,東京都,中央区,銀座７丁目１３番２１号銀座ｓｉｎｒｏｋｕｓｙｕビル２階,,13,102,1040061,,,,,,,2024-04-16,1,,,,,モンタナマネージメント,0
603,3010101016098,新規,0,2024-04-16,2024-04-16,無界物産株式会社,,株式会社,東京都,八王子市,子安町１丁目４８番９号２０２号室,,13,201,1920904,,,,,,,2024-04-16,1,,,,,,0
611,3010401181773,新規,0,2024-04-16,2024-04-16,株式会社Ｂｕｆｆｉｅ,,株式会社,東京都,港区,虎ノ門５丁目１１番１２号,,13,103,1050001,,,,,,,2024-04-16,1,,,,,バフィー,0
617,3010405023170,新規,0,2024-04-16,2024-04-16,ＣＲＥインダストリアルアセット投資法人,,その他の設立登記法人,東京都,港区,虎ノ門２丁目１０番１号,,13,103,1050001,,,,,,,2024-04-16,1,,,,,シーアールイーインダストリアルアセット,0
619,3010601065017,新規,0,2024-04-16,2024-04-16,華研テック株式会社,,株式会社,東京都,江東区,深川１丁目１番２号協和ビル２階２,,13,108,1350033,,,,,,,2024-04-16,1,,,,,カケンテック,0
620,3010601065025,新規,0,2024-04-16,2024-04-16,株式会社Ｌｉｅｎ,,株式会社,東京都,江東区,永代２丁目２３番１号,,13,108,1350034,,,,,,,2024-04-16,1,,,,,リアン,0
621,3010601065033,新規,0,2024-04-16,2024-04-16,株式会社ＳＫライフサポート,,株式会社,東京都,墨田区,江東橋４丁目５番６－３０３号,,13,107,1300022,,,,,,,2024-04-16,1,,,,,エスケーライフサポート,0
622,3010605004318,新規,0,2024-04-16,2024-04-16,一般社団法人古醫道研究所,00134421,その他の設立登記法人,東京都,江東区,三好１丁目８－３ＮＡＧＡＹＡ清澄白河,,13,108,1350022,,,,,,,2024-04-16,1,,,,,コイドウケンキュウジョ,0
638,3011001161216,新規,0,2024-04-16,2024-04-16,Ｂｉｔ　Ｌａｂｓ株式会社,,株式会社,東京都,渋谷区,道玄坂１丁目１０番８号渋谷道玄坂東急ビル２Ｆ－Ｃ,,13,113,1500043,,,,,,,2024-04-16,1,,,,,ビットラボズ,0
639,3011001161298,新規,0,2024-04-16,2024-04-16,株式会社Ｂｏｕｑｕｅｔ，,,株式会社,東京都,目黒区,上目黒１丁目１１－１ＯＡＫＢＬＤＧＩＩ,00134418,13,110,1530051,,,,,,,2024-04-16,1,,,,,ブーケ,0
640,3011001161307,新規,0,2024-04-16,2024-04-16,株式会社Ｂｒｉｄｇｅ　Ｐａｒｔｎｅｒｓ,,株式会社,東京都,渋谷区,渋谷２丁目１９－１５宮益坂ビルディング６０９,,13,113,1500002,,,,,,,2024-04-16,1,,,,,ブリッジパートナーズ,0
642,3011003018918,新規,0,2024-04-16,2024-04-16,合同会社ＬＤＬ,,合同会社,東京都,渋谷区,道玄坂１丁目１０番８号渋谷道玄坂東急ビル２Ｆ－Ｃ,,13,113,1500043,,,,,,,2024-04-16,1,,,,,エルディーエル,0
643,3011003018926,新規,0,2024-04-16,2024-04-16,サステナブルソーラー４合同会社,,合同会社,東京都,渋谷区,渋谷２丁目１５番１号渋谷クロスタワー１３階ＰＨＯＴＯＮＪＡＰＡＮ合同会社内,,13,113,1500002,,,,,,,2024-04-16,1,,,,,サステナブルソーラーフォー,0
651,3011101106987,新規,0,2024-04-16,2024-04-16,株式会社寳地コンサルタント,,株式会社,東京都,新宿区,若葉１丁目７番地１,,13,104,1600011,,,,,,,2024-04-16,1,,,,,ホウチコンサルタント,0
660,3011203004362,新規,0,2024-04-16,2024-04-16,合同会社ＴＯＫＹＯ　ＷＯＮＤＥＲ,,合同会社,東京都,中野区,江古田３丁目１４－１３－４２８,,13,114,1650022,,,,,,,2024-04-16,1,,,,,トウキョウワンダー,0
662,3011301029575,新規,0,2024-04-16,2024-04-16,株式会社プラチナネットワーク,,株式会社,東京都,杉並区,荻窪５丁目２１番１２号,,13,115,1670051,,,,,,,2024-04-16,1,,,,,プラチナネットワーク,0
663,3011303005129,新規,0,2024-04-16,2024-04-16,合同会社フィフティーセブン,,合同会社,東京都,杉並区,上高井戸１丁目２８番３３号,,13,115,1680074,,,,,,,2024-04-16,1,,,,,フィフティーセブン,0
665,3011401026010,新規,0,2024-04-16,2024-04-16,株式会社Ｌａｎｃｅ,,株式会社,東京都,板橋区,中丸町５３番１５－５０９号,,13,119,1730026,,,,,,,2024-04-16,1,,,,,ランス,0
666,3011403004344,新規,0,2024-04-16,2024-04-16,合同会社ワークス,,合同会社,東京都,板橋区,高島平９丁目３－５－１０１,,13,119,1750082,,,,,,,2024-04-16,1,,,,,ワークス,0
668,3011601027691,新規,0,2024-04-16,2024-04-16,株式会社古沢組,,株式会社,東京都,練馬区,北町２丁目３６番３号,,13,120,1790081,,,,,,,2024-04-16,1,,,,,フルサワグミ,0
671,3011801044074,新規,0,2024-04-16,2024-04-16,株式会社ＴＷ．ＤＥＣＯＲ,,株式会社,東京都,足立区,梅田２丁目５番１５号,,13,121,1230851,,,,,,,2024-04-16,1,,,,,ティーダブリュデコ,0
672,3011801044090,新規,0,2024-04-16,2024-04-16,株式会社人材戦略研究所,,株式会社,東京都,葛飾区,白鳥４丁目１５番１６－７０３号白鳥貳番館,,13,122,1250063,,,,,,,2024-04-16,1,,,,,ジンザイセンリャクケンキュウジョ,0
673,3011803006188,新規,0,2024-04-16,2024-04-16,合同会社シャンゼリゼ,,合同会社,東京都,足立区,南花畑４丁目３－３グランドールＡ１０２,,13,121,1210062,,,,,,,2024-04-16,1,,,,,シャンゼリゼ,0
674,3012303001976,新規,0,2024-04-16,2024-04-16,合同会社プロパティエム,,合同会社,東京都,町田市,玉川学園２丁目１６番１１号,,13,209,1940041,,,,,,,2024-04-16,1,,,,,プロパテイエム,0
678,3012803003365,新規,0,2024-04-16,2024-04-16,合同会社クリーンワン,,合同会社,東京都,武蔵村山市,本町４丁目２４番地の２９,,13,223,2080004,,,,,,,2024-04-16,1,,,,,クリーンワン,0
685,3020001156605,新規,0,2024-04-16,2024-04-16,株式会社黒兎プロジェクト,,株式会社,神奈川県,横浜市中区,若葉町２丁目３３－６－５０２号室,,14,104,2310056,,,,,,,2024-04-16,1,,,,,クロウサプロジェクト,0
686,3020001156836,新規,0,2024-04-16,2024-04-16,株式会社山村,,株式会社,神奈川県,横浜市泉区,和泉中央南４丁目２１―９,,14,116,2450023,,,,,,,2024-04-16,1,,,,,ヤマムラ,0
697,3021001081966,新規,0,2024-04-16,2024-04-16,株式会社隼,,株式会社,神奈川県,鎌倉市,梶原２丁目２８‐２,,14,204,2470063,,,,,,,2024-04-16,1,,,,,ハヤブサ,0
702,3021003014354,新規,0,2024-04-16,2024-04-16,合同会社ブルーオーシャン,,合同会社,神奈川県,横須賀市,坂本町１丁目４２─１─３１０,,14,201,2380043,,,,,,,2024-04-16,1,,,,,ブルーオーシャン,0
703,3021003014395,新規,0,2024-04-16,2024-04-16,ＩＭＡＧＩＮＡＴＩＯＮ合同会社,,合同会社,神奈川県,海老名市,国分南１丁目２－２６,,14,215,2430405,,,,,,,2024-04-16,1,,,,,イマジネーション,0
710,3030001159838,新規,0,2024-04-16,2024-04-16,株式会社Ｍｏｎｔｏｐ,,株式会社,埼玉県,八潮市,大字浮塚６３９番地,,11,234,3400835,,,,,,,2024-04-16,1,,,,,モントップ,0
711,3030001159846,新規,0,2024-04-16,2024-04-16,株式会社Ｍｒ．Ｍ,,株式会社,埼玉県,北葛飾郡杉戸町,倉松３丁目７番２号,,11,464,3450034,,,,,,,2024-04-16,1,,,,,ミスターエム,0
712,3030001159854,新規,0,2024-04-16,2024-04-16,株式会社ワークス,,株式会社,埼玉県,さいたま市見沼区,東大宮２丁目５３番地３１,,11,104,3370051,,,,,,,2024-04-16,1,,,,,ワークス,0
713,3030001159862,新規,0,2024-04-16,2024-04-16,株式会社大誠建設,,株式会社,埼玉県,さいたま市大宮区,桜木町１丁目１９５番地１大宮ソラミチＫＯＺ４階,,11,103,3300854,,,,,,,2024-04-16,1,,,,,タイセイケンセツ,0
720,3030003024081,新規,0,2024-04-16,2024-04-16,合同会社笑丸,,合同会社,埼玉県,新座市,栗原４丁目１０－２－５０４,,11,230,3520035,,,,,,,2024-04-16,1,,,,,エマ,0
721,3030003024098,新規,0,2024-04-16,2024-04-16,ジョイスタイルワークス合同会社,,合同会社,埼玉県,新座市,片山３丁目１６番２６号,,11,230,3520025,,,,,,,2024-04-16,1,,,,,ジョイスタイルワークス,0
723,3030005021663,新規,0,2024-04-16,2024-04-16,医療法人ＯＡＫほんまちクリニック,,その他の設立登記法人,埼玉県,さいたま市中央区,本町東３丁目１０番７号,,11,105,3380003,,,,,,,2024-04-16,1,,,,,オークホンマチクリニック,0
726,3040001132991,新規,0,2024-04-16,2024-04-16,株式会社コウセー,,株式会社,千葉県,千葉市美浜区,中瀬１丁目３番地,,12,106,2610023,,,,,,,2024-04-16,1,,,,,コウセー,0
727,3040001133156,新規,0,2024-04-16,2024-04-16,ＴＯＧＩＮ総合販売株式会社,,株式会社,千葉県,成田市,本三里塚２０３番２,,12,211,2860118,,,,,,,2024-04-16,1,,,,,トーギンソウゴウハンバイ,0
728,3040001133180,新規,0,2024-04-16,2024-04-16,株式会社ＮＫ,,株式会社,千葉県,松戸市,東松戸１丁目１６番地の１１,,12,207,2702225,,,,,,,2024-04-16,1,,,,,エヌケイ,0
729,3040001133189,新規,0,2024-04-16,2024-04-16,Ｔ＆Ｊ株式会社,,株式会社,千葉県,船橋市,前原西６丁目１番３２－３１３号,,12,204,2740825,,,,,,,2024-04-16,1,,,,,ティーアンドジェー,0
730,3040001133197,新規,0,2024-04-16,2024-04-16,株式会社ＭＦＴ,,株式会社,千葉県,千葉市中央区,青葉町１２５７番地１,,12,101,2600852,,,,,,,2024-04-16,1,,,,,エムエフティ,0
733,3040003024790,新規,0,2024-04-16,2024-04-16,合同会社アルバライズ,,合同会社,千葉県,君津市,北子安６丁目１８番５０号２０３,,12,225,2991161,,,,,,,2024-04-16,1,,,,,アルバライズ,0
739,3050001054640,新規,0,2024-04-16,2024-04-16,株式会社サブロー’ｓ　Ｗｉｌｌ,,株式会社,茨城県,日立市,森山町３丁目７番１５号,,08,202,3160025,,,,,,,2024-04-16,1,,,,,サブローズウィル,0
749,3060001037009,新規,0,2024-04-16,2024-04-16,篠田商店株式会社,,株式会社,栃木県,佐野市,吉水町９２４番地,,09,204,3270313,,,,,,,2024-04-16,1,,,,,シノダショウテン,0
754,3070001041637,新規,0,2024-04-16,2024-04-16,スフィア株式会社,,株式会社,群馬県,前橋市,大渡町１丁目２２番地３２,,10,201,3710854,,,,,,,2024-04-16,1,,,,,スフィア,0
757,3080403004991,新規,0,2024-04-16,2024-04-16,ＫＩＭ　ＰＨＵＯＮＧ合同会社,,合同会社,静岡県,湖西市,吉美３２５７番地,,22,221,4310441,,,,,,,2024-04-16,1,,,,,キムフォン,0
760,3090001018658,新規,0,2024-04-16,2024-04-16,株式会社峡東石膏ボードリサイクル,,株式会社,山梨県,笛吹市,石和町東油川３１１番地１,,19,211,4060046,,,,,,,2024-04-16,1,,,,,キョウトウセッコウボードリサイクル,0
761,3090001018666,新規,0,2024-04-16,2024-04-16,株式会社ＩＵ工芸,,株式会社,山梨県,甲府市,伊勢２丁目１番２５号,,19,201,4000856,,,,,,,2024-04-16,1,,,,,,0
762,3090003002552,新規,0,2024-04-16,2024-04-16,合同会社ｕｎｋｎｏｗｎ,,合同会社,山梨県,西八代郡市川三郷町,市川大門３０８０番地６,,19,346,4093601,,,,,,,2024-04-16,1,,,,,アンノウン,0
764,3100003007491,新規,0,2024-04-16,2024-04-16,セブンビーツドラマジック合同会社,,合同会社,長野県,長野市,篠ノ井布施高田１１８０－７,,20,201,3888007,,,,,,,2024-04-16,1,,,,,セブンビーツドラマジック,0
780,3120001263853,新規,0,2024-04-16,2024-04-16,株式会社青進,,株式会社,大阪府,大阪市中央区,北浜３丁目２番２５号京阪淀屋橋ビル８Ｆ,,27,128,5410041,,,,,,,2024-04-16,1,,,,,セイシン,0
781,3120001263993,新規,0,2024-04-16,2024-04-16,株式会社２ＴＥＣ,,株式会社,大阪府,大阪市北区,扇町２丁目６番１７－１９０３号,,27,127,5300025,,,,,,,2024-04-16,1,,,,,ツーテック,0
782,3120001264034,新規,0,2024-04-16,2024-04-16,株式会社Ｃｉｒｃｌｅ,,株式会社,大阪府,大阪市都島区,片町１丁目８番１５号,,27,102,5340025,,,,,,,2024-04-16,1,,,,,サークル,0
783,3120001264042,新規,0,2024-04-16,2024-04-16,テデケア株式会社,,株式会社,大阪府,大阪市生野区,生野東２丁目１番２３号,,27,116,5440025,,,,,,,2024-04-16,1,,,,,テデケア,0
784,3120001264083,新規,0,2024-04-16,2024-04-16,株式会社山中商店,,株式会社,大阪府,大阪市大正区,泉尾４丁目４番１３号,,27,108,5510031,,,,,,,2024-04-16,1,,,,,ヤマナカショウテン,0
785,3120001264100,新規,0,2024-04-16,2024-04-16,株式会社ＳｏＺｏＵラボ,,株式会社,大阪府,大阪市北区,梅田１丁目１３番１号大阪梅田ツインタワーズ・サウス１５Ｆ,,27,127,5300001,,,,,,,2024-04-16,1,,,,,ソーゾウラボ,0
791,3120003026283,新規,0,2024-04-16,2024-04-16,合同会社ＳＴＳ８,,合同会社,大阪府,大阪市福島区,福島２丁目１０番１９号メガロコープ福島８０６号室,,27,103,5530003,,,,,,,2024-04-16,1,,,,,エスティーエスエイト,0
792,3120003026374,新規,0,2024-04-16,2024-04-16,合同会社セイザン不動産,,合同会社,大阪府,門真市,小路町１１番３号,,27,223,5710058,,,,,,,2024-04-16,1,,,,,セイザンフドウサン,0
793,3120005024285,新規,0,2024-04-16,2024-04-16,一般社団法人日本抗衰老促進協会,,その他の設立登記法人,大阪府,大阪市都島区,片町１丁目５番１３号大手前センチュリービル１階,,27,102,5340025,,,,,,,2024-04-16,1,,,,,ニホンコウスイロウソクシンキョウカイ,0
799,3130001076800,新規,0,2024-04-16,2024-04-16,秦唐楽器株式会社,,株式会社,京都府,京都市下京区,中堂寺北町３３番地４７－３０１号,,26,106,6008812,,,,,,,2024-04-16,1,,,,,シントウガッキ,0
800,3130005017073,新規,0,2024-04-16,2024-04-16,一般社団法人仏教補完代替医療機構,,その他の設立登記法人,京都府,京都市下京区,七条通油小路東入大黒町２２７番地第２キョートビル４０２,,26,106,6008223,,,,,,,2024-04-16,1,,,,,ブッキョウホカンダイタイイリョウキコウ,0
805,3140001134078,新規,0,2024-04-16,2024-04-16,ワイズクリエイティブ株式会社,,株式会社,兵庫県,芦屋市,船戸町５番１８－１０２号,,28,206,6590093,,,,,,,2024-04-16,1,,,,,ワイズクリエイティブ,0
806,3140001134103,新規,0,2024-04-16,2024-04-16,真仁株式会社,,株式会社,兵庫県,神戸市北区,中里町１丁目８番１４１－１階,,28,109,6511103,,,,,,,2024-04-16,1,,,,,マサト,0
809,3140003020425,新規,0,2024-04-16,2024-04-16,合同会社ＰＰソリューションズ,,合同会社,兵庫県,尼崎市,昭和通４丁目１２５番地の１パークフラッツ尼崎９０５号,,28,202,6600881,,,,,,,2024-04-16,1,,,,,ピーピーソリューションズ,0
810,3140003020441,新規,0,2024-04-16,2024-04-16,Ｆ＆Ｔコーディネート合同会社,,合同会社,兵庫県,神戸市垂水区,星陵台４丁目３番４８－６０６号,,28,108,6550038,,,,,,,2024-04-16,1,,,,,エフアンドティコーディネート,0
813,3150003003230,新規,0,2024-04-16,2024-04-16,合同会社ＳＥＣＲＥＴ　ＢＡＳＥ,,合同会社,奈良県,生駒市,南田原町１０５１番地１,,29,209,6300135,,,,,,,2024-04-16,1,,,,,シークレットベース,0
816,3160001025845,新規,0,2024-04-16,2024-04-16,遊農ファーム株式会社,,株式会社,滋賀県,愛知郡愛荘町,沖４３２番地,,25,425,5291213,,,,,,,2024-04-16,1,,,,,ユウノウファーム,0
817,3160001025853,新規,0,2024-04-16,2024-04-16,株式会社かふかガーデン,,株式会社,滋賀県,甲賀市,水口町水口５９４０－４,,25,209,5280005,,,,,,,2024-04-16,1,,,,,カフカガーデン,0
821,3180001160987,新規,0,2024-04-16,2024-04-16,ＳＧ株式会社,,株式会社,愛知県,名古屋市南区,菊住１丁目７番１１号,,23,112,4570012,,,,,,,2024-04-16,1,,,,,エスジー,0
822,3180005020601,新規,0,2024-04-16,2024-04-16,税理士法人ＴＡＸ‐ＳＯＬ,,その他の設立登記法人,愛知県,名古屋市中区,伊勢山１丁目７番４号ワイズ東別院４０３号,,23,106,4600026,,,,,,,2024-04-16,1,,,,,タクソル,0
824,3180301038520,新規,0,2024-04-16,2024-04-16,株式会社ＫＳ０１,,株式会社,愛知県,刈谷市,原崎町６丁目７０９番地,,23,210,4480039,,,,,,,2024-04-16,1,,,,,ケーエスゼロイチ,0
828,3190001031270,新規,0,2024-04-16,2024-04-16,株式会社ＫＡＺＵＲＡ,,株式会社,三重県,伊勢市,久世戸町５２番地３フォレストヒルズ久世戸３０１号室,,24,203,5160015,,,,,,,2024-04-16,1,,,,,カズラ,0
834,3200005013593,新規,0,2024-04-16,2024-04-16,一般社団法人福祉後見センター大垣,,その他の設立登記法人,岐阜県,大垣市,枝郷５丁目４２番地,,21,202,5032207,,,,,,,2024-04-16,1,,,,,フクシコウケンセンターオオガキ,0
836,3220001025938,新規,0,2024-04-16,2024-04-16,株式会社Ｏ．Ｇ．Ｋ,,株式会社,石川県,河北郡津幡町,字川尻ロ５４番地２,,17,361,9290334,,,,,,,2024-04-16,1,,,,,オージーケー,0
837,3220001025946,新規,0,2024-04-16,2024-04-16,株式会社Ｋ．テック,,株式会社,石川県,羽咋市,大川町２丁目５５番地,,17,207,9250015,,,,,,,2024-04-16,1,,,,,ケイテック,0
839,3220003003727,新規,0,2024-04-16,2024-04-16,ｔｏ　ｓｈｉｎｅ合同会社,,合同会社,石川県,金沢市,もりの里１丁目１４９番地杜の里ビル５０７号室,,17,201,9201167,,,,,,,2024-04-16,1,,,,,トゥシャイン,0
841,3230001020302,新規,0,2024-04-16,2024-04-16,川口工務店株式会社,,株式会社,富山県,南砺市,千福３２０番地,,16,210,9391831,,,,,,,2024-04-16,1,,,,,カワグチコウムテン,0
846,3240001063077,新規,0,2024-04-16,2024-04-16,株式会社マルデフーズ,,株式会社,広島県,呉市,阿賀南８丁目２６番２２号,,34,202,7370004,,,,,,,2024-04-16,1,,,,,マルデフーズ,0
847,3240001063093,新規,0,2024-04-16,2024-04-16,株式会社西真工業,,株式会社,広島県,福山市,箕島５２０９番地１Ｇ,,34,207,7210000,,,,,,,2024-04-16,1,,,,,セイシンコウギョウ,0
853,3260001038977,新規,0,2024-04-16,2024-04-16,ｓｅｅｓａｗ株式会社,,株式会社,岡山県,笠岡市,十一番町１１－６６,,33,205,7140098,,,,,,,2024-04-16,1,,,,,シーソー,0
854,3270003001619,新規,0,2024-04-16,2024-04-16,ＴＧＪ合同会社,,合同会社,鳥取県,米子市,朝日町２５番地５（８ビル１階）,,31,202,6830813,,,,,,,2024-04-16,1,,,,,ティージィージェイ,0
855,3270005005592,新規,0,2024-04-16,2024-04-16,税理士法人ゆう,,その他の設立登記法人,鳥取県,鳥取市,元魚町２丁目２０１番地エステートビルＶ４０２号室,00134416,31,201,6800034,,,,,,,2024-04-16,1,,,,,ユウ,0
856,3280001009159,新規,0,2024-04-16,2024-04-16,株式会社ルートハブ,,株式会社,島根県,松江市,西川津町２４２４番地,,32,201,6900823,,,,,,,2024-04-16,1,,,,,ルートハブ,0
861,3290001105353,新規,0,2024-04-16,2024-04-16,ＹＳＫ・コマース株式会社,,株式会社,福岡県,福岡市西区,周船寺３丁目１番７号,,40,135,8190373,,,,,,,2024-04-16,1,,,,,ワイエスケイコマース,0
862,3290001105394,新規,0,2024-04-16,2024-04-16,株式会社高江工務店,,株式会社,福岡県,久留米市,安武町安武本８５９番地１５,,40,203,8300072,,,,,,,2024-04-16,1,,,,,タカエコウムテン,0
863,3290003015170,新規,0,2024-04-16,2024-04-16,アナザーカントリー合同会社,,合同会社,福岡県,糸島市,三坂７８１番地１,,40,230,8191146,,,,,,,2024-04-16,1,,,,,アナザーカントリー,0
868,3300005007189,新規,0,2024-04-16,2024-04-16,医療法人とらすと＆ほーぷ,,その他の設立登記法人,佐賀県,佐賀市,鍋島町大字森田１０８９番地１,,41,201,8490936,,,,,,,2024-04-16,1,,,,,トラストホープ,0
871,3330001031966,新規,0,2024-04-16,2024-04-16,株式会社譁鳳工業,,株式会社,熊本県,上益城郡益城町,大字福原１５４７番地１,,43,443,8612211,,,,,,,2024-04-16,1,,,,,カオウコウギョウ,0
872,3330001031974,新規,0,2024-04-16,2024-04-16,株式会社ＣＬＩＭＢ　ＵＰ,,株式会社,熊本県,熊本市東区,花立３丁目６番１５号,,43,102,8612118,,,,,,,2024-04-16,1,,,,,クライムアップ,0
875,3330003010316,新規,0,2024-04-16,2024-04-16,合同会社ｔａｋｏｂｉ,,合同会社,熊本県,熊本市中央区,出水５丁目４番３－２号,,43,101,8620941,,,,,,,2024-04-16,1,,,,,タコビ,0
879,3350003004621,新規,0,2024-04-16,2024-04-16,合同会社美美,,合同会社,宮崎県,日南市,梅ケ浜２丁目１番２６－２号,,45,204,8870017,,,,,,,2024-04-16,1,,,,,ミミ,0
880,3350005006228,新規,0,2024-04-16,2024-04-16,一般社団法人宮崎県自転車競技連盟,,その他の設立登記法人,宮崎県,宮崎市,大字恒久春日田１０６１番地,,45,201,8800916,,,,,,,2024-04-16,1,,,,,ミヤザキケンジテンシャキョウギレンメイ,0
883,3360001033506,新規,0,2024-04-16,2024-04-16,大言株式会社,,株式会社,沖縄県,糸満市,字真壁２３７番地２,,47,210,9010336,,,,,,,2024-04-16,1,,,,,ダイゲン,0
884,3360001033522,新規,0,2024-04-16,2024-04-16,株式会社Ｄｅｎｔａｌ　Ｖｉｓｉｏｎ　Ｃｏｎｓｕｌｔｉｎｇ,,株式会社,沖縄県,那覇市,久茂地１丁目１番１号－９階,,47,201,9000015,,,,,,,2024-04-16,1,,,,,デンタルヴィジョンコンサルティング,0
886,3370001051192,新規,0,2024-04-16,2024-04-16,株式会社フォグラ,,株式会社,宮城県,大崎市,岩出山字二ノ構６５番地,,04,215,9896436,,,,,,,2024-04-16,1,,,,,フォグラ,0
891,3380001034444,新規,0,2024-04-16,2024-04-16,東北損保鑑定株式会社,,株式会社,福島県,郡山市,方八町１丁目４番２２号,,07,203,9638811,,,,,,,2024-04-16,1,,,,,トウホクソンポカンテイ,0
892,3390003002233,新規,0,2024-04-16,2024-04-16,デザインＦオフィス合同会社,,合同会社,山形県,米沢市,太田町５丁目１６６８番地の５淀野方,,06,202,9920035,,,,,,,2024-04-16,1,,,,,デザインエフオフィス,0
894,3410001013790,新規,0,2024-04-16,2024-04-16,ＡＫＩＭＡＴＥ　ｈｏｌｄｉｎｇｓ株式会社,,株式会社,秋田県,にかほ市,三森字高田２０番地,,05,214,0180403,,,,,,,2024-04-16,1,,,,,アキマテホールディングス,0
895,3410005006576,新規,0,2024-04-16,2024-04-16,一般社団法人羽後町シルバー人材センター,,その他の設立登記法人,秋田県,雄勝郡羽後町,新町字京塚野１番地,,05,463,0121102,,,,,,,2024-04-16,1,,,,,ウゴマチシルバージンザイセンター,0
897,3430001091587,新規,0,2024-04-16,2024-04-16,株式会社金谷工業,,株式会社,北海道,美唄市,西三条北６丁目１番３１号,,01,215,0720032,,,,,,,2024-04-16,1,,,,,カネヤコウギョウ,0
907,3460005001580,新規,0,2024-04-16,2024-04-16,特定非営利活動法人Ｆｉｅｌｄ　ｏｆ　Ｄｒｅａｍｓ　Ｐｒｏｊｅｃｔてしかが,,その他の設立登記法人,北海道,川上郡弟子屈町,鈴蘭５丁目９番１０号,,01,665,0883202,,,,,,,2024-04-16,1,,,,,フィールドオブドリームスプロジェクトテシカガ,0
908,3480003002117,新規,0,2024-04-16,2024-04-16,合同会社チョッピー,,合同会社,徳島県,徳島市,北田宮４丁目４番２号,,36,201,7700003,,,,,,,2024-04-16,1,,,,,チョッピー,0
911,3500001025570,新規,0,2024-04-16,2024-04-16,株式会社ＯＮＥ　ＢＥ,,株式会社,愛媛県,宇和島市,山際４丁目２番１９－１２号,,38,203,7980073,,,,,,,2024-04-16,1,,,,,ワンビー,0
914,3700150124871,新規,0,2024-04-16,2024-04-16,パンゲア・ベンチャーズ・エルティーディー,,外国会社等,東京都,港区,虎ノ門１丁目１７－１虎ノ門ヒルズビジネスタワー１５階,,13,103,1050001,カナダＶ６Ｈ・１Ｃ５、ブリティッシュ・コロンビア州バンクーバー、ウエスト・エイト・アベニュー４００－１１５１,,,,,,2024-04-16,1,,,,,パンゲアベンチヤーズエルテイーデイー,0
917,4010001243460,新規,0,2024-04-16,2024-04-16,ＪＡＣ株式会社,,株式会社,東京都,中央区,銀座１丁目２２番１１号銀座ビジデンス２Ｆ,,13,102,1040061,,,,,,,2024-04-16,1,,,,,ジェーエーシー,0
918,4010001243931,新規,0,2024-04-16,2024-04-16,株式会社ＷＡＣＣＡ　ＭＵＳＩＣ,,株式会社,東京都,中央区,銀座１丁目８番８号三神ＡＬビル２階Ｂ号室,,13,102,1040061,,,,,,,2024-04-16,1,,,,,ワッカミュージック,0
919,4010001244054,新規,0,2024-04-16,2024-04-16,株式会社わかしお地所,,株式会社,東京都,中央区,京橋２丁目２番１号,,13,102,1040031,,,,,,,2024-04-16,1,,,,,ワカシオジショ,0
920,4010001244062,新規,0,2024-04-16,2024-04-16,株式会社ＭＩＣＲＯ　ＯＷＮＥＲＳ,,株式会社,東京都,中央区,銀座１丁目２２番１１号銀座大竹ビジデンス２階,,13,102,1040061,,,,,,,2024-04-16,1,,,,,マイクロオーナーズ,0
925,4010005038188,新規,0,2024-04-16,2024-04-16,ＷＬＪＭＦ３特定目的会社,,その他の設立登記法人,東京都,千代田区,霞が関３丁目２番５号,,13,101,1000013,,,,,,,2024-04-16,1,,,,,ダブリューエルジェイエムエフスリー,0
926,4010005038205,新規,0,2024-04-16,2024-04-16,一般社団法人メトロ原木中山開発,,その他の設立登記法人,東京都,千代田区,平河町１丁目６番１５号シルスフィア会計事務所内,,13,101,1020093,,,,,,,2024-04-16,1,,,,,メトロバラキナカヤマカイハツ,0
927,4010105002259,新規,0,2024-04-16,2024-04-16,一般社団法人ほくれあ,,その他の設立登記法人,東京都,八王子市,七国４丁目１番３号,,13,201,1920919,,,,,,,2024-04-16,1,,,,,ホクレア,0
935,4010401181756,新規,0,2024-04-16,2024-04-16,株式会社ＲＭ,,株式会社,東京都,港区,南青山３丁目１４番２７号,,13,103,1070062,,,,,,,2024-04-16,1,,,,,アールエム,0
936,4010401181772,新規,0,2024-04-16,2024-04-16,ＯＮＥ　ＣＯＭＰＡＳＳ　ＧＡＬＬＥＲＹ株式会社,,株式会社,東京都,港区,虎ノ門４丁目３番１号城山トラストタワー,,13,103,1050001,,,,,,,2024-04-16,1,,,,,ワンコンパスギャラリー,0
940,4010403032404,新規,0,2024-04-16,2024-04-16,合同会社ＴＯＹトレーディング,,合同会社,東京都,港区,浜松町２丁目２番１５号浜松町ダイヤビル２階,,13,103,1050013,,,,,,,2024-04-16,1,,,,,ティーオーワイトレーディング,0
941,4010601065016,新規,0,2024-04-16,2024-04-16,海盛株式会社,,株式会社,東京都,墨田区,本所３丁目４－１０,,13,107,1300004,,,,,,,2024-04-16,1,,,,,カイセイ,0
942,4010601065024,新規,0,2024-04-16,2024-04-16,ファーナウ・トライ株式会社,,株式会社,東京都,墨田区,東駒形１丁目１９番８号,,13,107,1300005,,,,,,,2024-04-16,1,,,,,ファーナウトライ,0
952,4010901055047,新規,0,2024-04-16,2024-04-16,株式会社社寺建築工芸,,株式会社,東京都,世田谷区,桜上水３丁目１８番１２号,,13,112,1560045,,,,,,,2024-04-16,1,,,,,シャジケンチクコウゲイ,0
959,4011001161231,新規,0,2024-04-16,2024-04-16,株式会社針ＮＥＥＤＬＥ,,株式会社,東京都,渋谷区,恵比寿南２丁目１番８号,,13,113,1500022,,,,,,,2024-04-16,1,,,,,ハリニードル,0
960,4011001161322,新規,0,2024-04-16,2024-04-16,研究サポート人材バンク株式会社,,株式会社,東京都,渋谷区,渋谷２丁目１９－１５宮益坂ビルディング６０９,,13,113,1500002,,,,,,,2024-04-16,1,,,,,ケンキュウサポートジンザイバンク,0
961,4011001161339,新規,0,2024-04-16,2024-04-16,株式会社Ｅｌａｇａｎ,,株式会社,東京都,目黒区,鷹番１丁目１－５－４Ｆ,,13,110,1520004,,,,,,,2024-04-16,1,,,,,エラガン,0
962,4011001161388,新規,0,2024-04-16,2024-04-16,株式会社ＳＴＡＮ,,株式会社,東京都,目黒区,駒場１丁目１１番１６号,,13,110,1530041,,,,,,,2024-04-16,1,,,,,スタン,0
964,4011003018925,新規,0,2024-04-16,2024-04-16,サステナブルソーラー３合同会社,,合同会社,東京都,渋谷区,渋谷２丁目１５番１号渋谷クロスタワー１３階ＰＨＯＴＯＮＪＡＰＡＮ合同会社内,,13,113,1500002,,,,,,,2024-04-16,1,,,,,サステナブルソーラースリー,0
965,4011003018933,新規,0,2024-04-16,2024-04-16,合同会社ｔｓｕｎａｇｕ,,合同会社,東京都,渋谷区,道玄坂１丁目１０番８号渋谷道玄坂東急ビル２Ｆ－Ｃ,,13,113,1500043,,,,,,,2024-04-16,1,,,,,ツナグ,0
966,4011003018941,新規,0,2024-04-16,2024-04-16,フロレゾン合同会社,,合同会社,東京都,目黒区,上目黒３丁目２１番２８－３０２号,,13,110,1530051,,,,,,,2024-04-16,1,,,,,フロレゾン,0
967,4011003018966,新規,0,2024-04-16,2024-04-16,ＩＴＯ合同会社,,合同会社,東京都,渋谷区,代々木３丁目３４番４号,,13,113,1510053,,,,,,,2024-04-16,1,,,,,アイティーオー,0
969,4011403004343,新規,0,2024-04-16,2024-04-16,スマイル合同会社,,合同会社,東京都,板橋区,新河岸１丁目３番４－１０４号,,13,119,1750081,,,,,,,2024-04-16,1,,,,,スマイル,0
976,4011801044040,新規,0,2024-04-16,2024-04-16,株式会社Ｌｉｂｅｒｏ　ｔｒｅ,,株式会社,東京都,足立区,加賀１丁目１０番１１号,,13,121,1230861,,,,,,,2024-04-16,1,,,,,,0
977,4011803006187,新規,0,2024-04-16,2024-04-16,合同会社オフィスアウル,,合同会社,東京都,葛飾区,堀切２丁目６５番１３－４０５号,,13,122,1240006,,,,,,,2024-04-16,1,,,,,オフィスアウル,0
978,4012301013873,新規,0,2024-04-16,2024-04-16,株式会社心和住設,,株式会社,東京都,町田市,南成瀬６丁目１２番１３号きめたハウジング第１５ビル１０３,,13,209,1940045,,,,,,,2024-04-16,1,,,,,シンワジュウセツ,0
979,4012303001975,新規,0,2024-04-16,2024-04-16,合同会社飯村経営コンサルティング事務所,,合同会社,東京都,町田市,玉川学園４丁目１９番３８号,,13,209,1940041,,,,,,,2024-04-16,1,,,,,イイムラケイエイコンサルティングジムショ,0
981,4012701018217,新規,0,2024-04-16,2024-04-16,株式会社ソリチュード,,株式会社,東京都,清瀬市,中里５丁目６番地－１－１１３,,13,221,2040003,,,,,,,2024-04-16,1,,,,,ソリチュード,0
989,4020005016366,新規,0,2024-04-16,2024-04-16,一般社団法人スクール・オブ・プレイバックシアター日本校,,その他の設立登記法人,神奈川県,横浜市港南区,東永谷１丁目１５番３０－３０５号,,14,111,2330011,,,,,,,2024-04-16,1,,,,,スクールオブプレイバックシアターニホンコウ,0
992,4021001081957,新規,0,2024-04-16,2024-04-16,株式会社ローダーエンタープライズ,,株式会社,神奈川県,平塚市,横内２０３７番地の１,,14,203,2540002,,,,,,,2024-04-16,1,,,,,ローダーエンタープライズ,0
993,4021001081973,新規,0,2024-04-16,2024-04-16,株式会社永湧住建,,株式会社,神奈川県,相模原市南区,相模大野８丁目１０番３号相模大野ビル１階,,14,153,2520303,,,,,,,2024-04-16,1,,,,,トウワジュウケン,0
994,4021003014378,新規,0,2024-04-16,2024-04-16,合同会社ａｃｉａｓｓ,,合同会社,神奈川県,藤沢市,鵠沼石上１丁目５－９,,14,205,2510025,,,,,,,2024-04-16,1,,,,,エイシヤス,0
995,4021005013080,新規,0,2024-04-16,2024-04-16,基督兄弟団小田原教会,,その他の設立登記法人,神奈川県,小田原市,飯田岡３３６番地,,14,206,2500854,,,,,,,2024-04-16,1,,,,,キリストキョウダイダンオダワラキョウカイ,0
1001,4030001159837,新規,0,2024-04-16,2024-04-16,株式会社仲正,,株式会社,埼玉県,行田市,大字南河原６２１番地,,11,206,3610084,,,,,,,2024-04-16,1,,,,,ナカマサ,0
1002,4030001159845,新規,0,2024-04-16,2024-04-16,Ｓｔｕｄｉｏ　ＭｕＭｕ株式会社,,株式会社,埼玉県,草加市,金明町４８４番地１－２１２号室,,11,221,3400052,,,,,,,2024-04-16,1,,,,,スタジオムム,0
1003,4030001159861,新規,0,2024-04-16,2024-04-16,株式会社徳美,,株式会社,埼玉県,川口市,芝中田２丁目１８番１０号,,11,203,3330847,,,,,,,2024-04-16,1,,,,,トクミ,0
1010,4030003024089,新規,0,2024-04-16,2024-04-16,合同会社プラン・アイ,,合同会社,埼玉県,熊谷市,石原１５０６番地２０,,11,202,3600816,,,,,,,2024-04-16,1,,,,,プランアイ,0
1011,4030005021654,新規,0,2024-04-16,2024-04-16,医療法人社団喜咲会,,その他の設立登記法人,埼玉県,さいたま市南区,辻７丁目８番１７号,,11,108,3360026,,,,,,,2024-04-16,1,,,,,キショウカイ,0
1016,4040001133139,新規,0,2024-04-16,2024-04-16,株式会社Ｃｒｏｓｓｐｉｔｃｈ,,株式会社,千葉県,市原市,岩崎２丁目２１番地５,,12,219,2900047,,,,,,,2024-04-16,1,,,,,クロスピッチ,0
1017,4040001133155,新規,0,2024-04-16,2024-04-16,株式会社Ｎｉｃｋ建材,,株式会社,千葉県,千葉市緑区,おゆみ野中央４丁目２４番地３２,,12,105,2660032,,,,,,,2024-04-16,1,,,,,ニックケンザイ,0
1018,4040001133188,新規,0,2024-04-16,2024-04-16,株式会社Ｌａ　Ｓｕｍｉｙａ,,株式会社,千葉県,船橋市,大穴北３丁目２１番１２号,,12,204,2740068,,,,,,,2024-04-16,1,,,,,ラスミヤ,0
1023,4040003024749,新規,0,2024-04-16,2024-04-16,Ｍ＆Ｙランド合同会社,,合同会社,千葉県,松戸市,西馬橋蔵元町３４－２,,12,207,2710046,,,,,,,2024-04-16,1,,,,,エムアンドワイランド,0
1024,4040003024807,新規,0,2024-04-16,2024-04-16,合同会社ＳｍａｒｔＳＮＳ,,合同会社,千葉県,船橋市,湊町２丁目８－４０－３８０２号,,12,204,2730011,,,,,,,2024-04-16,1,,,,,スマートエスエヌエス,0
1025,4040005022362,新規,0,2024-04-16,2024-04-16,医療法人社団桜愛会,,その他の設立登記法人,千葉県,野田市,桜の里２丁目６番地５,,12,208,2780048,,,,,,,2024-04-16,1,,,,,オウアイカイ,0
1027,4050001054656,新規,0,2024-04-16,2024-04-16,株式会社ミユキ,,株式会社,茨城県,稲敷郡美浦村,大字土屋１９７１番地７３,,08,442,3000426,,,,,,,2024-04-16,1,,,,,,0
1029,4060001037008,新規,0,2024-04-16,2024-04-16,株式会社高橋解体工業,00134423,株式会社,栃木県,佐野市,高萩町５３５番地２,,09,204,3270821,,,,,,,2024-04-16,1,,,,,タカハシカイタイコウギョウ,0
1031,4070001041636,新規,0,2024-04-16,2024-04-16,株式会社たかやまキャピタルパートナーズ,,株式会社,群馬県,伊勢崎市,平和町２６番地１８,,10,204,3720041,,,,,,,2024-04-16,1,,,,,タカヤマキャピタルパートナーズ,0
1035,4080401027127,新規,0,2024-04-16,2024-04-16,株式会社ＦＲＥＥＤＯＭ,,株式会社,静岡県,袋井市,諸井１０８９番地,,22,216,4371121,,,,,,,2024-04-16,1,,,,,フリーダム,0
1036,4090001018665,新規,0,2024-04-16,2024-04-16,株式会社Ｔａｏｍｉｃｓ,,株式会社,山梨県,中央市,下河東１１１０,,19,214,4093821,,,,,,,2024-04-16,1,,,,,,0
1038,4090003002551,新規,0,2024-04-16,2024-04-16,合同会社Ｌｏｃｕｓ,,合同会社,山梨県,南アルプス市,百々３６５５－６,,19,208,4000214,,,,,,,2024-04-16,1,,,,,ローカス,0
1041,4100005013165,新規,0,2024-04-16,2024-04-16,一般社団法人日本マラソンプロデュース協会,,その他の設立登記法人,長野県,長野市,大字南長野南石堂町１４２３番地４グラディス南石堂１００５,,20,201,3800824,,,,,,,2024-04-16,1,,,,,ニホンマラソンプロデュースキョウカイ,0
1043,4110001038322,新規,0,2024-04-16,2024-04-16,株式会社ＮｅｘｔＲｅｎｏｖａｔｉｏｎ,,株式会社,新潟県,上越市,大字岩木２３９４番地１,,15,222,9430814,,,,,,,2024-04-16,1,,,,,ネクストリノベーション,0
1046,4110005017082,新規,0,2024-04-16,2024-04-16,医療法人社団おおとりい歯科クリニック,,その他の設立登記法人,新潟県,新潟市東区,若葉町１丁目２０番４１号,,15,102,9500837,,,,,,,2024-04-16,1,,,,,オオトリイシカクリニック,0
1053,4120001263984,新規,0,2024-04-16,2024-04-16,株式会社こども社会サポート,,株式会社,大阪府,大阪市生野区,小路東１丁目１０－１５,,27,116,5440003,,,,,,,2024-04-16,1,,,,,コドモシャカイサポート,0
1058,4120003026373,新規,0,2024-04-16,2024-04-16,合同会社皇工務店,,合同会社,大阪府,大阪市中央区,南船場１丁目８番２１－４０５号,,27,128,5420081,,,,,,,2024-04-16,1,,,,,スメラギコウムテン,0
1059,4120003026381,新規,0,2024-04-16,2024-04-16,合同会社ＲＹＮ,,合同会社,大阪府,大阪市此花区,島屋２丁目９‐４７‐９０１,,27,104,5540024,,,,,,,2024-04-16,1,,,,,アールワイエヌ,0
1061,4120005024284,新規,0,2024-04-16,2024-04-16,一般社団法人大樹会リブ再生クリニック,,その他の設立登記法人,大阪府,大阪市北区,神山町１番７号扇町メディックスモール３階,,27,127,5300026,,,,,,,2024-04-16,1,,,,,ダイジュカイリブサイセイクリニック,0
1063,4120101069407,新規,0,2024-04-16,2024-04-16,蒼丘株式会社,,株式会社,大阪府,羽曳野市,羽曳が丘西６丁目１３番１５号,,27,222,5830865,,,,,,,2024-04-16,1,,,,,セイキュウ,0
1068,4122001038020,新規,0,2024-04-16,2024-04-16,株式会社アイネクスト,,株式会社,大阪府,四條畷市,田原台８丁目２５番２４号,,27,229,5750013,,,,,,,2024-04-16,1,,,,,アイネクスト,0
1079,4140001134028,新規,0,2024-04-16,2024-04-16,スコピオテクノロジー株式会社,,株式会社,兵庫県,芦屋市,西芦屋町３番１７－５０６号,,28,206,6590085,,,,,,,2024-04-16,1,,,,,スコピオテクノロジー,0
1080,4140001134069,新規,0,2024-04-16,2024-04-16,ＭＫＴ土地開発株式会社,,株式会社,兵庫県,神戸市中央区,北長狭通５丁目２番１９号,,28,110,6500012,,,,,,,2024-04-16,1,,,,,エムケイティートチカイハツ,0
1081,4140001134119,新規,0,2024-04-16,2024-04-16,株式会社ＸＩＤＥＡ,,株式会社,兵庫県,神戸市中央区,元町通２丁目１－９,,28,110,6500022,,,,,,,2024-04-16,1,,,,,エクシディア,0
1088,4140005027046,新規,0,2024-04-16,2024-04-16,一般社団法人りわーでぃんぐ,,その他の設立登記法人,兵庫県,西宮市,神垣町３番２０－２０２号,,28,204,6620865,,,,,,,2024-04-16,1,,,,,リワーディング,0
1106,4180301038544,新規,0,2024-04-16,2024-04-16,株式会社長坂,,株式会社,愛知県,岡崎市,細川町字宮畑６１番地,,23,202,4442149,,,,,,,2024-04-16,1,,,,,ナガサカ,0
1107,4180303006078,新規,0,2024-04-16,2024-04-16,岡村アセットマネジメント合同会社,,合同会社,愛知県,知立市,池端３丁目５７番地１０,,23,225,4720025,,,,,,,2024-04-16,1,,,,,オカムラアセットマネジメント,0
1108,4180303006094,新規,0,2024-04-16,2024-04-16,合同会社セブンピース,,合同会社,愛知県,岡崎市,上六名２丁目１０－１,,23,202,4440858,,,,,,,2024-04-16,1,,,,,セブンピース,0
1121,4230001020301,新規,0,2024-04-16,2024-04-16,株式会社中根塗装,,株式会社,富山県,射水市,大門３５９番地１,,16,211,9390232,,,,,,,2024-04-16,1,,,,,ナカネトソウ,0
1123,4240001063084,新規,0,2024-04-16,2024-04-16,株式会社廣建,,株式会社,広島県,広島市安佐南区,安東２丁目５番１９号,,34,105,7310153,,,,,,,2024-04-16,1,,,,,ヒロケン,0
1124,4240001063092,新規,0,2024-04-16,2024-04-16,株式会社おのみち０８製作,,株式会社,広島県,尾道市,長江１丁目３番２４号,,34,205,7220046,,,,,,,2024-04-16,1,,,,,オノミチゼロハチセイサク,0
1131,4240003006628,新規,0,2024-04-16,2024-04-16,合同会社フォーリット,,合同会社,広島県,広島市中区,江波西１丁目９番１２号,,34,101,7300831,,,,,,,2024-04-16,1,,,,,フォーリット,0
1137,4250003003475,新規,0,2024-04-16,2024-04-16,クリーンライフ合同会社,,合同会社,山口県,防府市,大字台道１３５４－８２－Ｃ２０２,,35,206,7471232,,,,,,,2024-04-16,1,,,,,クリーンライフ,0
1140,4260001038976,新規,0,2024-04-16,2024-04-16,スマイルＨＯＭＥ株式会社,,株式会社,岡山県,岡山市北区,東古松南町４番３０号アマネセール東古松Ｉ－１００２,00134428,33,101,7000922,,,,,,,2024-04-16,1,,,,,スマイルホーム,0
1141,4270003001618,新規,0,2024-04-16,2024-04-16,合同会社蕾,,合同会社,鳥取県,米子市,角盤町３丁目７５番地レインボーＩＩＩビル３Ｆ,00134415,31,202,6830812,,,,,,,2024-04-16,1,,,,,ツボミ,0
1146,4290001105402,新規,0,2024-04-16,2024-04-16,株式会社ファンファンファンド,,株式会社,福岡県,春日市,日の出町２丁目５１番地１,,40,218,8160873,,,,,,,2024-04-16,1,,,,,ファンファンファンド,0
1148,4310001018964,新規,0,2024-04-16,2024-04-16,株式会社大翔産業,,株式会社,長崎県,平戸市,田平町小崎免２０７番地３,,42,207,8594803,,,,,,,2024-04-16,1,,,,,ダイショウサンギョウ,0
1152,4330001031957,新規,0,2024-04-16,2024-04-16,株式会社グリーンパワー,,株式会社,熊本県,菊池郡菊陽町,大字津久礼１５３番地３,,43,404,8691101,,,,,,,2024-04-16,1,,,,,グリーンパワー,0
1153,4330001031973,新規,0,2024-04-16,2024-04-16,ワワ科技株式会社,,株式会社,熊本県,天草市,北浜町２６３８番地１９パララボ天草Ｃ,,43,215,8630011,,,,,,,2024-04-16,1,,,,,ワワカギ,0
1161,4340003004431,新規,0,2024-04-16,2024-04-16,合同会社北斗会セカンド,,合同会社,鹿児島県,鹿屋市,下堀町９６５８番地５,,46,203,8930047,,,,,,,2024-04-16,1,,,,,ホクトカイセカンド,0
1165,4360005007026,新規,0,2024-04-16,2024-04-16,医療法人一文会,,その他の設立登記法人,沖縄県,那覇市,銘苅３丁目１５番３号なかもと企画ビル１階,,47,201,9000004,,,,,,,2024-04-16,1,,,,,イチモンカイ,0
1168,4370001051200,新規,0,2024-04-16,2024-04-16,株式会社ＦＯＸ,,株式会社,宮城県,仙台市太白区,砂押南町６番５号３Ｆ,,04,104,9820024,,,,,,,2024-04-16,1,,,,,フォックス,0
1178,4420001018689,新規,0,2024-04-16,2024-04-16,株式会社カワダイ,,株式会社,青森県,八戸市,江陽５丁目１２番６－２号,,02,203,0310801,,,,,,,2024-04-16,1,,,,,カワダイ,0
1193,4470001020153,新規,0,2024-04-16,2024-04-16,株式会社ＳＡＩＴＥＫＩ,,株式会社,香川県,高松市,元山町字中所７８４番地１０,,37,201,7610311,,,,,,,2024-04-16,1,,,,,サイテキ,0
1199,4700150124862,新規,0,2024-04-16,2024-04-16,ＥＣＰ　Ｍａｎａｇｅｍｅｎｔ　Ａｓｉａ．ＬＬＣ,,外国会社等,東京都,港区,六本木７丁目７番７号８階,,13,103,1060032,アメリカ合衆国、１９８０８デラウェア州、ウィルミントン、リトル・フォールズ・ドライブ２５１、コーポレーション・サービス・カンパニー気付,,,,,,2024-04-16,1,,,,,イーシーピーマネジメントアジアエルエルシー,0
1200,4700150124870,新規,0,2024-04-16,2024-04-16,ＤＯＧＡ，Ｓ．Ａ．,,外国会社等,東京都,港区,白金台３丁目１０番１０号,,13,103,1080071,スペイン王国バルセロナ、アブレラ、Ａ－２ＫＭ５８３、アウトヴィア,,,,,,2024-04-16,1,,,,,ドガエスエー,0
1218,5010005038187,新規,0,2024-04-16,2024-04-16,ＹＦ　ＪＲＥ　Ｂ特定目的会社,,その他の設立登記法人,東京都,千代田区,霞が関３丁目２番５号,,13,101,1000013,,,,,,,2024-04-16,1,,,,,ワイエフジェーアールイービー,0
1219,5010005038204,新規,0,2024-04-16,2024-04-16,日光Ｐｌｕｓ２２一般社団法人,,その他の設立登記法人,東京都,千代田区,丸の内３丁目１番１号東京共同会計事務所内,,13,101,1000005,,,,,,,2024-04-16,1,,,,,ニッコウプラストゥエンティツー,0
1227,5010401181755,新規,0,2024-04-16,2024-04-16,株式会社ｗｉｔｈ　ｙｏｕ,,株式会社,東京都,港区,北青山２丁目７番１３号プラセオ青山ビル３階,,13,103,1070061,,,,,,,2024-04-16,1,,,,,ウィズユー,0
1228,5010401181763,新規,0,2024-04-16,2024-04-16,株式会社ＣｈｏＫａ,,株式会社,東京都,港区,赤坂８丁目５番９－２０６号,,13,103,1070052,,,,,,,2024-04-16,1,,,,,チョウカ,0
1233,5010601065015,新規,0,2024-04-16,2024-04-16,ＡｐｐＢｅｅｓ株式会社,,株式会社,東京都,江東区,森下３丁目１０番２６－８０３号,,13,108,1350004,,,,,,,2024-04-16,1,,,,,アップビーズ,0
1234,5010601065031,新規,0,2024-04-16,2024-04-16,株式会社グランドカステラジャパン,,株式会社,東京都,墨田区,押上１丁目１番２号東京スカイツリータウンソラマチ２階,,13,107,1310045,,,,,,,2024-04-16,1,,,,,グランドカステラジャパン,0
1241,5010905004610,新規,0,2024-04-16,2024-04-16,一般社団法人音樂村,,その他の設立登記法人,東京都,世田谷区,赤堤２丁目２８番２－１階,,13,112,1560044,,,,,,,2024-04-16,1,,,,,オンガクムラ,0
1245,5011001161057,新規,0,2024-04-16,2024-04-16,株式会社ＲＵＧＨＡＵＳ,,株式会社,東京都,渋谷区,宇田川町３番７号ヒューリック渋谷公園通りビル５Ｆ－９２,,13,113,1500042,,,,,,,2024-04-16,1,,,,,ラグハウス,0
1246,5011001161296,新規,0,2024-04-16,2024-04-16,株式会社朝陽,,株式会社,東京都,目黒区,平町２丁目２０番５号ドム都立大４０８,,13,110,1520032,,,,,,,2024-04-16,1,,,,,アサヒ,0
1247,5011001161362,新規,0,2024-04-16,2024-04-16,８Ｎａｎａ株式会社,,株式会社,東京都,渋谷区,渋谷２丁目２１番１号,,13,113,1500002,,,,,,,2024-04-16,1,,,,,ハチナナ,0
1248,5011003018924,新規,0,2024-04-16,2024-04-16,ＪＰゴルフマネジメント合同会社,,合同会社,東京都,渋谷区,渋谷２丁目１５番１号渋谷クロスタワー１３階ＰＨＯＴＯＮＪＡＰＡＮ合同会社内,,13,113,1500002,,,,,,,2024-04-16,1,,,,,ジェイピーゴルフマネジメント,0
1249,5011003018932,新規,0,2024-04-16,2024-04-16,合同会社Ｍａｒｋｅｔ　Ｍｏｂｉｌｉｚｅ,,合同会社,東京都,渋谷区,恵比寿西２丁目８番４号ＥＸ恵比寿西ビル５階,,13,113,1500021,,,,,,,2024-04-16,1,,,,,マーケットモビライズ,0
1250,5011003018940,新規,0,2024-04-16,2024-04-16,合同会社Ｈｅａｖｅｎｌｙ,,合同会社,東京都,渋谷区,笹塚１丁目６２番３－７０９号,,13,113,1510073,,,,,,,2024-04-16,1,,,,,ヘブンリー,0
1257,5011101106969,新規,0,2024-04-16,2024-04-16,ミナノ株式会社,,株式会社,東京都,新宿区,西新宿１丁目２０番３号西新宿高木ビル８Ｆ,,13,104,1600023,,,,,,,2024-04-16,1,,,,,ミナノ,0
1258,5011101106977,新規,0,2024-04-16,2024-04-16,株式会社ＭＯＣＨＩ‐ＤＲＯＰ,,株式会社,東京都,新宿区,新宿５丁目１番１号ローヤルマンションビル５０７,,13,104,1600022,,,,,,,2024-04-16,1,,,,,モチドロップ,0
1259,5011101106985,新規,0,2024-04-16,2024-04-16,株式会社ＥＭＴＨ,,株式会社,東京都,新宿区,神楽坂５丁目９番地１－９０１,,13,104,1620825,,,,,,,2024-04-16,1,,,,,エムス,0
1260,5011105011001,新規,0,2024-04-16,2024-04-16,一般社団法人国際ウェルネスコンソーシアムアカデミー,,その他の設立登記法人,東京都,新宿区,若葉１丁目８番地４,,13,104,1600011,,,,,,,2024-04-16,1,,,,,コクサイウェルネスコンソーシアムアカデミー,0
1261,5011201025400,新規,0,2024-04-16,2024-04-16,株式会社エンタケア研究所,,株式会社,東京都,中野区,新井１丁目２４番４号井上ビルＢ１階,,13,114,1650026,,,,,,,2024-04-16,1,,,,,エンタケアケンキュウジョ,0
1267,5011701027202,新規,0,2024-04-16,2024-04-16,日本東沐株式会社,,株式会社,東京都,江戸川区,北小岩６丁目１７－５・４－Ｃ,,13,123,1330051,,,,,,,2024-04-16,1,,,,,ニホントウモク,0
1272,5012301013872,新規,0,2024-04-16,2024-04-16,宇喜多廣島医療機器コンサル株式会社,,株式会社,東京都,町田市,つくし野４丁目９番地１５,,13,209,1940001,,,,,,,2024-04-16,1,,,,,ウキタヒロシマイリョウキキコンサル,0
1273,5012401041757,新規,0,2024-04-16,2024-04-16,株式会社ランドマーク,,株式会社,東京都,狛江市,東和泉３丁目７番２８－２０２号,,13,219,2010014,,,,,,,2024-04-16,1,,,,,ランドマーク,0
1274,5012401041765,新規,0,2024-04-16,2024-04-16,株式会社可成屋,,株式会社,東京都,武蔵野市,御殿山１丁目４番１４－４０７号,,13,203,1800005,,,,,,,2024-04-16,1,,,,,カナリヤ,0
1277,5012801023108,新規,0,2024-04-16,2024-04-16,慶貞ホーム株式会社,,株式会社,東京都,立川市,錦町１丁目４番４号サニービル２Ｆ、ＣＳ立川ＣＳ２０３,,13,202,1900022,,,,,,,2024-04-16,1,,,,,ケイテイホーム,0
1278,5012801023116,新規,0,2024-04-16,2024-04-16,ＦＡＲＥ株式会社,,株式会社,東京都,立川市,錦町６丁目４番１０号ハイホーム立川錦町３０１,,13,202,1900022,,,,,,,2024-04-16,1,,,,,ファーレ,0
1287,5020003025962,新規,0,2024-04-16,2024-04-16,合同会社ＲＯＯＴＥＤ,,合同会社,神奈川県,川崎市多摩区,菅野戸呂１７番３６号,,14,135,2140002,,,,,,,2024-04-16,1,,,,,ルーテッド,0
1301,5021003014377,新規,0,2024-04-16,2024-04-16,合同会社ＭＳコンサルティング,,合同会社,神奈川県,藤沢市,弥勒寺４丁目８－６,,14,205,2510016,,,,,,,2024-04-16,1,,,,,エムエスコンサルティング,0
1302,5021003014385,新規,0,2024-04-16,2024-04-16,合同会社Ｋ＆ｆ,,合同会社,神奈川県,相模原市中央区,水郷田名４丁目１０－１－１２０５,,14,152,2520246,,,,,,,2024-04-16,1,,,,,ケーアンドエフ,0
1303,5021003014393,新規,0,2024-04-16,2024-04-16,合同会社ワラビ,,合同会社,神奈川県,平塚市,真田４丁目１６番１１号,,14,203,2591206,,,,,,,2024-04-16,1,,,,,ワラビ,0
1313,5030001159828,新規,0,2024-04-16,2024-04-16,株式会社優心,,株式会社,埼玉県,越谷市,宮本町１丁目６８－１－４０１,,11,222,3430806,,,,,,,2024-04-16,1,,,,,ユウシン,0
1314,5030001159836,新規,0,2024-04-16,2024-04-16,株式会社楓,,株式会社,埼玉県,川口市,西青木３丁目９番３１－２０２号,,11,203,3320035,,,,,,,2024-04-16,1,,,,,カエデ,0
1315,5030001159852,新規,0,2024-04-16,2024-04-16,株式会社リアル・エステート・インベストメント,,株式会社,埼玉県,さいたま市桜区,栄和４丁目１３番３号,,11,106,3380823,,,,,,,2024-04-16,1,,,,,リアルエステートインベストメント,0
1322,5030003024096,新規,0,2024-04-16,2024-04-16,ゴールデン・ツリー合同会社,,合同会社,埼玉県,桶川市,南２丁目４－１２,,11,231,3630015,,,,,,,2024-04-16,1,,,,,ゴールデンドットツリー,0
1326,5040001133138,新規,0,2024-04-16,2024-04-16,ＫＨホームアメニティ株式会社,,株式会社,千葉県,市原市,松ケ島１丁目２番地１５,,12,219,2900035,,,,,,,2024-04-16,1,,,,,ケイエイチホームアメニティ,0
1327,5040001133154,新規,0,2024-04-16,2024-04-16,鉄腕トレーダーズ株式会社,,株式会社,千葉県,船橋市,行田３丁目１０番４５－２０１号,,12,204,2730044,,,,,,,2024-04-16,1,,,,,テツワントレーダーズ,0
1328,5040001133179,新規,0,2024-04-16,2024-04-16,株式会社ＵＮＩＯＮ,,株式会社,千葉県,我孫子市,我孫子２丁目３番１１２２号アクア・レジデンス,,12,222,2701166,,,,,,,2024-04-16,1,,,,,ユニオン,0
1331,5050001054614,新規,0,2024-04-16,2024-04-16,ＮＥＳ株式会社,,株式会社,茨城県,土浦市,上高津新町８－２１,,08,203,3000819,,,,,,,2024-04-16,1,,,,,ネス,0
1337,5060001037007,新規,0,2024-04-16,2024-04-16,株式会社ベルスワン,,株式会社,栃木県,宇都宮市,宝木本町１４４５番地８,,09,201,3200075,,,,,,,2024-04-16,1,,,,,ベルスワン,0
1339,5060003005036,新規,0,2024-04-16,2024-04-16,ＳＡ　ＴＲＡＤＥＲＳ合同会社,,合同会社,栃木県,栃木市,岩舟町畳岡２８４番地３,,09,203,3294309,,,,,,,2024-04-16,1,,,,,エスエートレーダーズ,0
1341,5070001041635,新規,0,2024-04-16,2024-04-16,ラナアディールトレーディング株式会社,,株式会社,群馬県,邑楽郡大泉町,坂田４丁目２番２０号モリハイツＡ２０５号,,10,524,3700532,,,,,,,2024-04-16,1,,,,,ラナアディールトレーディング,0
1351,5100005013156,新規,0,2024-04-16,2024-04-16,一般社団法人ワールドチャレンジプロジェクト,,その他の設立登記法人,長野県,東御市,県１２９番地５,,20,219,3890517,,,,,,,2024-04-16,1,,,,,ワールドチャレンジプロジェクト,0
1352,5100005013164,新規,0,2024-04-16,2024-04-16,一般社団法人長野県言語聴覚士会,,その他の設立登記法人,長野県,松本市,大字島内７１４８番地１,,20,202,3900851,,,,,,,2024-04-16,1,,,,,ナガノケンゲンゴチョウカクシカイ,0
1371,5120001263926,新規,0,2024-04-16,2024-04-16,株式会社ＲｅＳｔａｒｔ,,株式会社,大阪府,大阪市中央区,南新町１丁目４番８号アインストーンビル２０２,,27,128,5400024,,,,,,,2024-04-16,1,,,,,リスタート,0
1372,5120001264040,新規,0,2024-04-16,2024-04-16,ＭＡＮＥＫＵ株式会社,,株式会社,大阪府,大阪市北区,梅田１丁目２番２号大阪駅前第２ビル１２－１２,,27,127,5300001,,,,,,,2024-04-16,1,,,,,マネク,0
1373,5120001264049,新規,0,2024-04-16,2024-04-16,株式会社Ｒｕｓｔ　Ｓｏｌｕｔｉｏｎ　Ｌａｂｏｒａｔｏｒｙ,,株式会社,大阪府,大阪市平野区,平野本町１丁目３番１１－１０２号,,27,126,5470044,,,,,,,2024-04-16,1,,,,,ラストソリュウションラボラトリ,0
1374,5120001264081,新規,0,2024-04-16,2024-04-16,株式会社ＨＩＫＡＲＩ,,株式会社,大阪府,大阪市中央区,南船場３丁目２番２２おおきに南船場ビル２０５,,27,128,5420081,,,,,,,2024-04-16,1,,,,,ヒカリ,0
1375,5120001264098,新規,0,2024-04-16,2024-04-16,株式会社といろ,,株式会社,大阪府,枚方市,伊加賀西町４３－３４,,27,210,5730066,,,,,,,2024-04-16,1,,,,,トイロ,0
1377,5120003026208,新規,0,2024-04-16,2024-04-16,合同会社スケール,,合同会社,大阪府,寝屋川市,新家１丁目４番６号,,27,215,5720812,,,,,,,2024-04-16,1,,,,,スケール,0
1379,5120101069414,新規,0,2024-04-16,2024-04-16,ＲＥＸＣＥＬ株式会社,,株式会社,大阪府,羽曳野市,郡戸４０５番地の４,,27,222,5830874,,,,,,,2024-04-16,1,,,,,レクセル,0
1383,5120901049053,新規,0,2024-04-16,2024-04-16,Ｚ＆Ｈ株式会社,,株式会社,大阪府,吹田市,千里山竹園１丁目１０－１８－９０９,,27,205,5650852,,,,,,,2024-04-16,1,,,,,ゼットアンドエイチ,0
1389,5130001076823,新規,0,2024-04-16,2024-04-16,株式会社ＷＡＡ,,株式会社,京都府,京都市下京区,西七条南月読町２番地１６,,26,106,6008885,,,,,,,2024-04-16,1,,,,,ダブリューエーエー,0
1393,5140001134051,新規,0,2024-04-16,2024-04-16,つなぐカンパニー株式会社,,株式会社,兵庫県,神戸市中央区,磯辺通１丁目１番１８号カサベラ国際プラザビル７０７号,,28,110,6510084,,,,,,,2024-04-16,1,,,,,ツナグカンパニー,0
1404,5160001025793,新規,0,2024-04-16,2024-04-16,株式会社Ｋａｅｄｅ,,株式会社,滋賀県,甲賀市,土山町鮎河１５４１番地４,,25,209,5280202,,,,,,,2024-04-16,1,,,,,カエデ,0
1406,5170001018094,新規,0,2024-04-16,2024-04-16,株式会社ＭＩＳＡＴＯ　ＣＯＭＰＡＮＹ,,株式会社,和歌山県,和歌山市,布引２５９番地,,30,201,6410015,,,,,,,2024-04-16,1,,,,,ミサトカンパニー,0
1425,5200003006309,新規,0,2024-04-16,2024-04-16,合同会社プレミアムイン,,合同会社,岐阜県,高山市,奥飛騨温泉郷平湯６５０番地,,21,203,5061433,,,,,,,2024-04-16,1,,,,,プレミアムイン,0
1426,5210005010142,新規,0,2024-04-16,2024-04-16,一般社団法人福井県ジャンプロープ連合,,その他の設立登記法人,福井県,福井市,つくも１丁目３－２,,18,201,9188001,,,,,,,2024-04-16,1,,,,,フクイケンジャンプロープレンゴウ,0
1428,5220003003733,新規,0,2024-04-16,2024-04-16,合同会社西岡,,合同会社,石川県,金沢市,三池町１０５番地２（Ｍ．Ｍ３６・３０３号）,,17,201,9200802,,,,,,,2024-04-16,1,,,,,ニシオカ,0
1432,5240001063091,新規,0,2024-04-16,2024-04-16,株式会社ワース,,株式会社,広島県,安芸郡府中町,浜田３丁目４番２８号,,34,302,7350013,,,,,,,2024-04-16,1,,,,,ワース,0
1439,5270001008960,新規,0,2024-04-16,2024-04-16,株式会社大野興業,,株式会社,鳥取県,鳥取市,吉方温泉１丁目５３９番地（２０２）,,31,201,6800841,,,,,,,2024-04-16,1,,,,,オオノコウギョウ,0
1442,5290001105293,新規,0,2024-04-16,2024-04-16,フロンティア株式会社,,株式会社,福岡県,福岡市博多区,博多駅前１丁目１５番２０号ＮＭＦ博多駅前ビル２階,,40,132,8120011,,,,,,,2024-04-16,1,,,,,フロンティア,0
1444,5290003015169,新規,0,2024-04-16,2024-04-16,合同会社マックス,,合同会社,福岡県,福岡市博多区,美野島１丁目１５番１－４０１号真鍋ビル,,40,132,8120017,,,,,,,2024-04-16,1,,,,,マックス,0
1450,5340001026443,新規,0,2024-04-16,2024-04-16,株式会社タイヤメンテナンス福崎,00134420,株式会社,鹿児島県,鹿児島市,魚見町１３８番地２０,,46,201,8910112,,,,,,,2024-04-16,1,,,,,タイヤメンテナンスフクザキ,0
1453,5340003004439,新規,0,2024-04-16,2024-04-16,合同会社ジェイメディカルオフィス,,合同会社,鹿児島県,鹿児島市,西田２丁目６番１号ＰＢＬ６－１　４０１号,,46,201,8900046,,,,,,,2024-04-16,1,,,,,ジェイメディカルオフィス,0
1454,5350001018919,新規,0,2024-04-16,2024-04-16,株式会社オート串間,,株式会社,宮崎県,串間市,大字南方２２１６番地,,45,207,8880007,,,,,,,2024-04-16,1,,,,,オートクシマ,0
1455,5350001018927,新規,0,2024-04-16,2024-04-16,株式会社松浦ホームサービス,,株式会社,宮崎県,児湯郡川南町,大字川南１３２３２番地６,,45,405,8891301,,,,,,,2024-04-16,1,,,,,マツウラホームサービス,0
1460,5360001033454,新規,0,2024-04-16,2024-04-16,株式会社リトルサンタ,,株式会社,沖縄県,宜野湾市,真志喜３丁目４番１号４０１号,,47,205,9012224,,,,,,,2024-04-16,1,,,,,リトルサンタ,0
1465,5360005007025,新規,0,2024-04-16,2024-04-16,一般社団法人宮古島ビーチイベント協会,,その他の設立登記法人,沖縄県,宮古島市,下地字与那覇１１４１番地７,,47,214,9060305,,,,,,,2024-04-16,1,,,,,,0
1466,5370001051199,新規,0,2024-04-16,2024-04-16,株式会社クレアホームデザイン,,株式会社,宮城県,仙台市若林区,かすみ町２４番１５号,,04,103,9840822,,,,,,,2024-04-16,1,,,,,クレアホームデザイン,0
1467,5370003006572,新規,0,2024-04-16,2024-04-16,コンエアージャパン合同会社,,合同会社,宮城県,仙台市太白区,袋原３丁目１番２８号,,04,104,9811102,,,,,,,2024-04-16,1,,,,,コンエアージャパン,0
1477,5420001018688,新規,0,2024-04-16,2024-04-16,株式会社斬新舎,,株式会社,青森県,弘前市,大字富栄字平岡４７番地７,,02,202,0368382,,,,,,,2024-04-16,1,,,,,ザンシンシャ,0
1487,5430003016227,新規,0,2024-04-16,2024-04-16,合同会社ＹＭ２１,,合同会社,北海道,江別市,新栄台５６番地の５,,01,217,0690806,,,,,,,2024-04-16,1,,,,,ワイエムトゥエンティワン,0
1499,5500001025569,新規,0,2024-04-16,2024-04-16,株式会社パナシア,,株式会社,愛媛県,松山市,朝生田町２丁目４番７号,,38,201,7900952,,,,,,,2024-04-16,1,,,,,パナシア,0
1500,5500001025577,新規,0,2024-04-16,2024-04-16,株式会社装飾屋生業,,株式会社,愛媛県,松山市,居相４丁目５番２８－４号,,38,201,7900934,,,,,,,2024-04-16,1,,,,,ソウショクヤナリワイ,0
1503,5700150124861,新規,0,2024-04-16,2024-04-16,Ｓｈｅｎｚｈｅｎ　Ａｎｙｕａｎｇｅ　Ｔｅｃｈｎｏｌｏｇｙ　Ｃｏ．，Ｌｔｄ,,外国会社等,,,,,,,,１００２－２，１０ｔｈ　Ｆｌｏｏｒ，Ｂｕｉｌｄｉｎｇ　Ｄ，Ｂａｎｔｉａｎ　Ｉｎｔｅｒｎａｔｉｏｎａｌ　Ｃｅｎｔｅｒ，Ｎｏ．５　Ｈｕａｎｃｈｅｎｇ　Ｓｏｕｔｈ　Ｒｏａｄ，Ｍａ’ａｎｔａｎｇ　Ｃｏｍｍｕｎｉｔｙ，Ｂａｎｔｉａｎ　Ｓｔｒｅｅｔ，Ｌｏｎｇｇａｎｇ　Ｄｉｓｔｒｉｃｔ，Ｓｈｅｎｚｈｅｎ，Ｇｕａｎｇｄｏｎｇ，５１８０００，ＣＮ,,,,,,2024-04-16,1,,,,,シェンジェンシアンユェンゴォカージヨウシェンゴンスー,0
1519,6010003043493,新規,0,2024-04-16,2024-04-16,糸川太陽光発電所合同会社,,合同会社,東京都,千代田区,飯田橋１丁目３番２号,,13,101,1020072,,,,,,,2024-04-16,1,,,,,イトカワタイヨウコウハツデンショ,0
1524,6010401181779,新規,0,2024-04-16,2024-04-16,株式会社Ｎａｒｒａｔｉｖｅ　ａｎｄ　Ｃｏ,,株式会社,東京都,港区,北青山３丁目９番５号岡本ビル２０１,,13,103,1070061,,,,,,,2024-04-16,1,,,,,ナラティブアンドコー,0
1525,6010401181903,新規,0,2024-04-16,2024-04-16,株式会社Ｕｌｕｐｌｕｓ,,株式会社,東京都,港区,南青山２丁目２番１５号,,13,103,1070062,,,,,,,2024-04-16,1,,,,,ウルプラス,0
1532,6010603010769,新規,0,2024-04-16,2024-04-16,合同会社マジス,,合同会社,東京都,墨田区,緑３丁目６番１１－７０６号,,13,107,1300021,,,,,,,2024-04-16,1,,,,,マジス,0
1533,6010701045840,新規,0,2024-04-16,2024-04-16,株式会社スターライフトップ,,株式会社,東京都,品川区,南大井３丁目３０番９号なあ・ま成岩５０１号室,,13,109,1400013,,,,,,,2024-04-16,1,,,,,スターライフトップ,0
1534,6010701045849,新規,0,2024-04-16,2024-04-16,株式会社佳麗,,株式会社,東京都,品川区,東大井２丁目２３番１号名人亭ビル２階,,13,109,1400011,,,,,,,2024-04-16,1,,,,,カレイ,0
1543,6011001161295,新規,0,2024-04-16,2024-04-16,株式会社ＷＡＧＨＥＧ,,株式会社,東京都,渋谷区,渋谷２丁目１９－１５宮益坂ビルディング６０９,,13,113,1500002,,,,,,,2024-04-16,1,,,,,ワグヒグ,0
1544,6011001161304,新規,0,2024-04-16,2024-04-16,株式会社ドゥヒューマンイノベーション,,株式会社,東京都,目黒区,八雲１丁目１１番１０号,,13,110,1520023,,,,,,,2024-04-16,1,,,,,ドゥヒューマンイノベェーション,0
1545,6011001161378,新規,0,2024-04-16,2024-04-16,株式会社ＩＨＡＲＡ,,株式会社,東京都,渋谷区,代官山町７番８号,,13,113,1500034,,,,,,,2024-04-16,1,,,,,イハラ,0
1546,6011001161386,新規,0,2024-04-16,2024-04-16,ＳＯＡＲ　ＴＯＫＹＯ株式会社,,株式会社,東京都,渋谷区,東１丁目４番２７号,,13,113,1500011,,,,,,,2024-04-16,1,,,,,ソアトウキョウ,0
1548,6011003018923,新規,0,2024-04-16,2024-04-16,ミュラーエステート合同会社,,合同会社,東京都,目黒区,中根１丁目１３番５号,,13,110,1520031,,,,,,,2024-04-16,1,,,,,ミュラーエステート,0
1549,6011003018931,新規,0,2024-04-16,2024-04-16,ＧＯＷＳ合同会社,,合同会社,東京都,渋谷区,神泉町１０－１５－３０１,,13,113,1500045,,,,,,,2024-04-16,1,,,,,ゴウズ,0
1553,6011101106919,新規,0,2024-04-16,2024-04-16,株式会社ＦＩＸ‐ＴＯＷＮ,,株式会社,東京都,新宿区,四谷４丁目６番地６ラピスコート四谷４０２,,13,104,1600004,,,,,,,2024-04-16,1,,,,,フィックスタウン,0
1554,6011101106976,新規,0,2024-04-16,2024-04-16,株式会社ＰＯＰＯＢＡＲ,,株式会社,東京都,新宿区,高田馬場１丁目３１番８高田馬場ダイカンブラザ１００４号,,13,104,1690075,,,,,,,2024-04-16,1,,,,,ポポバー,0
1555,6011101106984,新規,0,2024-04-16,2024-04-16,佳＿株式会社,00134429,株式会社,東京都,新宿区,百人町１丁目２０－５－１０２号,,13,104,1690073,,,,,,,2024-04-16,1,,,,,カケイ,0
1568,6011301029580,新規,0,2024-04-16,2024-04-16,株式会社Ｐｌａｒｕ,,株式会社,東京都,杉並区,和田１丁目１１番地４号中野富士見町パークホームズ３０７,,13,115,1660012,,,,,,,2024-04-16,1,,,,,プラル,0
1569,6011401026016,新規,0,2024-04-16,2024-04-16,スペイシアルボート株式会社,,株式会社,東京都,板橋区,西台４丁目４番３－８０１号,,13,119,1750045,,,,,,,2024-04-16,1,,,,,スペイシアルボート,0
1578,6011701027201,新規,0,2024-04-16,2024-04-16,株式会社ＳＴシステム,,株式会社,東京都,江戸川区,松本２丁目１１番２０号マリーコートＢ１０５,,13,123,1330043,,,,,,,2024-04-16,1,,,,,エスティーシステム,0
1580,6011801044088,新規,0,2024-04-16,2024-04-16,ＫＹＯＧＵ株式会社,,株式会社,東京都,葛飾区,青戸７丁目２５－２,,13,122,1250062,,,,,,,2024-04-16,1,,,,,キョウグ,0
1581,6011803006185,新規,0,2024-04-16,2024-04-16,合同会社ＡＲＱＳ,,合同会社,東京都,足立区,舎人５丁目５番２０号メゾン・ド・デパール舎人２０３,,13,121,1210831,,,,,,,2024-04-16,1,,,,,アークス,0
1583,6012401041756,新規,0,2024-04-16,2024-04-16,株式会社ＷＡＴＡＮＡＢＥ,,株式会社,東京都,多摩市,愛宕４丁目７－２０,,13,224,2060041,,,,,,,2024-04-16,1,,,,,ワタナベ,0
1586,6012803003354,新規,0,2024-04-16,2024-04-16,合同会社ぼーん,,合同会社,東京都,日野市,三沢３丁目４８番地の２クリフビレッジＥ棟１０２,,13,212,1910032,,,,,,,2024-04-16,1,,,,,ボーン,0
1601,6020003025862,新規,0,2024-04-16,2024-04-16,合同会社ＤＩＧＩ　ＤＩＮＯＳ　ＪＡＰＡＮ,,合同会社,神奈川県,横浜市西区,北幸１丁目１１番１号水信ビル７階,,14,103,2200004,,,,,,,2024-04-16,1,,,,,ディジダイノスジャパン,0
1605,6021001081955,新規,0,2024-04-16,2024-04-16,株式会社ジョビアル,,株式会社,神奈川県,相模原市南区,上鶴間本町２丁目２０番１号メゾン鹿島台１１８,,14,153,2520318,,,,,,,2024-04-16,1,,,,,ジョビアル,0
1606,6021001081971,新規,0,2024-04-16,2024-04-16,株式会社Ａｍａｌｉｇｈｔ,,株式会社,神奈川県,相模原市緑区,青野原２９１１番地８,,14,151,2520161,,,,,,,2024-04-16,1,,,,,アマライト,0
1607,6021001082004,新規,0,2024-04-16,2024-04-16,サンナ建装株式会社,,株式会社,神奈川県,厚木市,妻田東３丁目１９番１２号グリュークアネックスＢ‐１０１,,14,212,2430813,,,,,,,2024-04-16,1,,,,,サンナケンソウ,0
1608,6021003014392,新規,0,2024-04-16,2024-04-16,杉山合同会社,,合同会社,神奈川県,相模原市中央区,共和３丁目２番１号,,14,152,2520234,,,,,,,2024-04-16,1,,,,,スギヤマ,0
1622,6030001159802,新規,0,2024-04-16,2024-04-16,Ａ．Ｋ‐Ｓｔｙｌｅ株式会社,,株式会社,埼玉県,川口市,戸塚３丁目３７－１１新井ビル２Ｆ,,11,203,3330811,,,,,,,2024-04-16,1,,,,,エーケースタイル,0
1623,6030001159835,新規,0,2024-04-16,2024-04-16,株式会社ナンバル,,株式会社,埼玉県,和光市,白子３丁目２９番５９－１０１号,,11,229,3510101,,,,,,,2024-04-16,1,,,,,ナンバル,0
1624,6030001159843,新規,0,2024-04-16,2024-04-16,株式会社一氣,,株式会社,埼玉県,春日部市,中央１丁目４４番６号,,11,214,3440067,,,,,,,2024-04-16,1,,,,,イッキ,0
1625,6030001159884,新規,0,2024-04-16,2024-04-16,Ａｃ・Ｃｏｎｎｅｃｔ株式会社,,株式会社,埼玉県,さいたま市北区,吉野町１丁目４０１番地２アルテールウエルズ１０８,,11,102,3310811,,,,,,,2024-04-16,1,,,,,エーシーコネクト,0
1636,6040001133137,新規,0,2024-04-16,2024-04-16,株式会社ＳＵＩＳＩＮ,,株式会社,千葉県,市川市,本行徳１７番２２号（Ｂｌｏｓｓｏｍ　Ｔｅｒｒａｃｅ妙典１０５号）,,12,203,2720103,,,,,,,2024-04-16,1,,,,,スイシン,0
1637,6040001133145,新規,0,2024-04-16,2024-04-16,株式会社タカヤマ,,株式会社,千葉県,木更津市,千束台１丁目２３番地６,,12,206,2920808,,,,,,,2024-04-16,1,,,,,タカヤマ,0
1638,6040001133178,新規,0,2024-04-16,2024-04-16,ジャパンシーサイドトラベル株式会社,,株式会社,千葉県,成田市,三里塚光ケ丘１番地４４７岡本ビル１０１,,12,211,2860117,,,,,,,2024-04-16,1,,,,,ジャパンシーサイドトラベル,0
1646,6050001054646,新規,0,2024-04-16,2024-04-16,株式会社ＩＩＮＥ,,株式会社,茨城県,水戸市,石川３丁目４１３７番地の５,,08,201,3100905,,,,,,,2024-04-16,1,,,,,,0
1649,6060003005035,新規,0,2024-04-16,2024-04-16,合同会社リヴァイヴ,,合同会社,栃木県,小山市,大字乙女７０２,,09,208,3290214,,,,,,,2024-04-16,1,,,,,リヴァイヴ,0
1663,6090001018655,新規,0,2024-04-16,2024-04-16,株式会社ＫＯＳＨＵ建工,,株式会社,山梨県,甲州市,塩山上於曽１８６９番地丸山ステーションビル２０５号,,19,213,4040042,,,,,,,2024-04-16,1,,,,,コウシュウケンコウ,0
1674,6100005013163,新規,0,2024-04-16,2024-04-16,特定非営利活動法人グリュック,,その他の設立登記法人,長野県,茅野市,玉川９７８７番地１,,20,214,3910011,,,,,,,2024-04-16,1,,,,,グリュック,0
1675,6110001038337,新規,0,2024-04-16,2024-04-16,株式会社ＮＴホールディングス,,株式会社,新潟県,長岡市,寺泊竹森１５１０番地株式会社新潟マテリアル内,,15,202,9590161,,,,,,,2024-04-16,1,,,,,エヌティーホールディングス,0
1677,6110003005368,新規,0,2024-04-16,2024-04-16,合同会社結,,合同会社,新潟県,佐渡市,長石８３番地,,15,224,9520305,,,,,,,2024-04-16,1,,,,,ユイ,0
1684,6120001263958,新規,0,2024-04-16,2024-04-16,株式会社ひまわり電気,,株式会社,大阪府,大阪市大正区,泉尾２丁目１６番１５号,,27,108,5510031,,,,,,,2024-04-16,1,,,,,ヒマワリデンキ,0
1685,6120001264080,新規,0,2024-04-16,2024-04-16,ヤマトテクノ株式会社,,株式会社,大阪府,大阪市西成区,花園南１丁目５－１６,,27,122,5570015,,,,,,,2024-04-16,1,,,,,ヤマトテクノ,0
1689,6120003026330,新規,0,2024-04-16,2024-04-16,合同会社クリアーコットン,,合同会社,大阪府,大阪市平野区,喜連４丁目２番２８号,,27,126,5470027,,,,,,,2024-04-16,1,,,,,クリアーコットン,0
1690,6120003026371,新規,0,2024-04-16,2024-04-16,大海商事合同会社,,合同会社,大阪府,大阪市西成区,萩之茶屋２丁目７番９号アパートラフィーヌ２１６,,27,122,5570004,,,,,,,2024-04-16,1,,,,,タイカイショウジ,0
1694,6120101069413,新規,0,2024-04-16,2024-04-16,株式会社大革,,株式会社,大阪府,堺市北区,蔵前町１丁２１番１１号,,27,146,5918004,,,,,,,2024-04-16,1,,,,,ダイカク,0
1695,6120101069421,新規,0,2024-04-16,2024-04-16,榮倉住宅株式会社,,株式会社,大阪府,泉佐野市,松風台２丁目１３－１４,,27,213,5980008,,,,,,,2024-04-16,1,,,,,エイクラジュウタク,0
1700,6122001037994,新規,0,2024-04-16,2024-04-16,翔プランニング株式会社,,株式会社,大阪府,東大阪市,横枕南２番１２号ウェルサイド新日本１０２,,27,227,5780955,,,,,,,2024-04-16,1,,,,,ショウプランニング,0
1701,6122001038010,新規,0,2024-04-16,2024-04-16,株式会社Ｕｌｕ・ａ・Ｋｏｋｕａ,,株式会社,大阪府,東大阪市,永和２丁目９番７号,,27,227,5770809,,,,,,,2024-04-16,1,,,,,ウルアコクア,0
1702,6122001038019,新規,0,2024-04-16,2024-04-16,株式会社江見電気,,株式会社,大阪府,八尾市,植松町２丁目４番１５号,,27,212,5810084,,,,,,,2024-04-16,1,,,,,エミデンキ,0
1708,6140001134075,新規,0,2024-04-16,2024-04-16,株式会社ＴＭＡコバヤシ,,株式会社,兵庫県,姫路市,夢前町寺３５４番地５２,,28,201,6712116,,,,,,,2024-04-16,1,,,,,テイエムエイコバヤシ,0
1709,6140001134083,新規,0,2024-04-16,2024-04-16,株式会社ＧＲＯＸ,,株式会社,兵庫県,尼崎市,南武庫之荘１丁目７番２４号－３０１,,28,202,6610033,,,,,,,2024-04-16,1,,,,,グロックス,0
1710,6140001134091,新規,0,2024-04-16,2024-04-16,ケイシンテック株式会社,,株式会社,兵庫県,明石市,大蔵谷奥１６－５明舞バザール１２２,,28,203,6730867,,,,,,,2024-04-16,1,,,,,ケイシンテック,0
1713,6140003020447,新規,0,2024-04-16,2024-04-16,合同会社ＧＳＷ,,合同会社,兵庫県,明石市,藤江１０６１－６,,28,203,6730044,,,,,,,2024-04-16,1,,,,,ジーエスダブリュー,0
1714,6140005027044,新規,0,2024-04-16,2024-04-16,特定非営利活動法人天凛会,,その他の設立登記法人,兵庫県,芦屋市,南宮町１３番４－３０２,,28,206,6590024,,,,,,,2024-04-16,1,,,,,テンリンカイ,0
1728,6190001031268,新規,0,2024-04-16,2024-04-16,平藏ホールディングス株式会社,,株式会社,三重県,四日市市,山城町８８２番地３３,,24,202,5128048,,,,,,,2024-04-16,1,,,,,ヘイゾウホールディングス,0
1741,6230001020299,新規,0,2024-04-16,2024-04-16,株式会社マインテック,,株式会社,富山県,富山市,窪新町４番６１－２３０７号,,16,201,9300842,,,,,,,2024-04-16,1,,,,,マインテック,0
1753,6260001038966,新規,0,2024-04-16,2024-04-16,操山土地建物株式会社,,株式会社,岡山県,岡山市中区,中納言町６番１２号,,33,102,7038292,,,,,,,2024-04-16,1,,,,,ミサオヤマトチタテモノ,0
1755,6270003001616,新規,0,2024-04-16,2024-04-16,ピーコックブルーム合同会社,,合同会社,鳥取県,米子市,河崎１２６４－１,,31,202,6830852,,,,,,,2024-04-16,1,,,,,ピーコックブルーム,0
1759,6290003015151,新規,0,2024-04-16,2024-04-16,合同会社望美堂,,合同会社,福岡県,福岡市中央区,天神２丁目３番１０号天神パインクレスト７１９号,,40,133,8100001,,,,,,,2024-04-16,1,,,,,ノゾミドウ,0
1761,6290803004691,新規,0,2024-04-16,2024-04-16,合同会社ＵＰＳＴＡＲＴ,,合同会社,福岡県,京都郡苅田町,磯浜町２丁目７番１０ピースグレース３０３,,40,621,8000313,,,,,,,2024-04-16,1,,,,,アップスタート,0
1763,6300001013700,新規,0,2024-04-16,2024-04-16,みやきスポーツパークパートナーズ株式会社,,株式会社,佐賀県,三養基郡みやき町,大字原古賀６７０５番地の２,,41,346,8490101,,,,,,,2024-04-16,1,,,,,ミヤキスポーツパークパートナーズ,0
1766,6330001031971,新規,0,2024-04-16,2024-04-16,株式会社アント,,株式会社,熊本県,熊本市東区,戸島西１丁目９番３７号アグリー戸島２０２,,43,102,8618043,,,,,,,2024-04-16,1,,,,,,0
1768,6330003010321,新規,0,2024-04-16,2024-04-16,合同会社はやしだ住宅設備,,合同会社,熊本県,宇城市,小川町河江３０７番地１,,43,213,8690606,,,,,,,2024-04-16,1,,,,,ハヤシダジュウタクセツビ,0
1770,6360001033503,新規,0,2024-04-16,2024-04-16,株式会社球美,,株式会社,沖縄県,糸満市,字喜屋武２６７番地の１,,47,210,9010354,,,,,,,2024-04-16,1,,,,,クミ,0
1771,6360001033511,新規,0,2024-04-16,2024-04-16,株式会社オリジンｌｉｌ,,株式会社,沖縄県,那覇市,港町２丁目１６番１号琉球新報開発ビル４階,,47,201,9000001,,,,,,,2024-04-16,1,,,,,オリジンリル,0
1773,6360003013899,新規,0,2024-04-16,2024-04-16,ガリレオ合同会社,,合同会社,沖縄県,豊見城市,字与根５０６番地６,,47,212,9010224,,,,,,,2024-04-16,1,,,,,ガリレオ,0
1774,6370001051198,新規,0,2024-04-16,2024-04-16,株式会社Ｄａｃｃｈａ,,株式会社,宮城県,仙台市泉区,南光台５丁目２６番５号,,04,105,9818003,,,,,,,2024-04-16,1,,,,,ダッチャ,0
1775,6370003006571,新規,0,2024-04-16,2024-04-16,合同会社カラーユアライフ,,合同会社,宮城県,塩竈市,牛生町１９番６‐１２号,,04,203,9850013,,,,,,,2024-04-16,1,,,,,カラーユアライフ,0
1787,6420003002904,新規,0,2024-04-16,2024-04-16,合同会社彩暉サービス,,合同会社,青森県,青森市,浪館前田２丁目２３－３８クリエート１０１号,,02,201,0380024,,,,,,,2024-04-16,1,,,,,サイキサービス,0
1792,6430001091551,新規,0,2024-04-16,2024-04-16,株式会社小山工業,,株式会社,北海道,札幌市東区,伏古十条３丁目９番６号,,01,103,0070870,,,,,,,2024-04-16,1,,,,,コヤマコウギョウ,0
1801,6470001020151,新規,0,2024-04-16,2024-04-16,株式会社瀬戸内ブルースカイ,,株式会社,香川県,高松市,番町３丁目３番１７号プレシャス番町ビル１階オリーブ,,37,201,7600017,,,,,,,2024-04-16,1,,,,,セトウチブルースカイ,0
1808,6500001025576,新規,0,2024-04-16,2024-04-16,株式会社オリエント・エイト,,株式会社,愛媛県,今治市,波方町養老甲５５７番地６,,38,202,7992109,,,,,,,2024-04-16,1,,,,,オリエントエイト,0
1811,6700150124860,新規,0,2024-04-16,2024-04-16,ｌｕｏｙａｎｇｗｅｉｓｈｅｎｇｄｉａｎｚｉｋｅｊｉｙｏｕｘｉａｎｇｏｎｇｓｉ,,外国会社等,,,,,,,,Ｒｏｏｍ　１８０３，Ｂｕｉｌｄｉｎｇ　３，Ｇｒｏｕｐ　２，Ｌｉｈｅ　Ｙｉｓｈｕｉｙｕａｎ，Ｙｉｂｉｎ　Ｄｉｓｔｒｉｃｔ，Ｌｕｏｙａｎｇ　Ｃｉｔｙ，Ｈｅｎａｎ　Ｐｒｏｖｉｎｃｅ，４７１０００，ＣＮ,,,,,,2024-04-16,1,,,,,ルオヤンウェイションディエンズーカージヨウシェンゴンスー,0
1827,7010003043476,新規,0,2024-04-16,2024-04-16,ＳＣＡＮＡＬＹＴＩＸ　ＪＡＰＡＮ合同会社,,合同会社,東京都,中央区,新川１丁目２７番８号新川大原ビル８階,,13,102,1040033,,,,,,,2024-04-16,1,,,,,スキャナリティクスジャパン,0
1828,7010003043492,新規,0,2024-04-16,2024-04-16,ＭＡＡ　ＭｕｓｉｃＩＰ合同会社,,合同会社,東京都,中央区,日本橋兜町９番１号,,13,102,1030026,,,,,,,2024-04-16,1,,,,,エムエーエーミュージックアイピー,0
1841,7010401181753,新規,0,2024-04-16,2024-04-16,株式会社ＥＡＲ,,株式会社,東京都,港区,三田３丁目２－２０－１０３,,13,103,1080073,,,,,,,2024-04-16,1,,,,,イヤー,0
1842,7010401181761,新規,0,2024-04-16,2024-04-16,株式会社ＲＥＳＴＡ,,株式会社,東京都,港区,北青山１丁目３番１号アールキューブ青山３階,,13,103,1070061,,,,,,,2024-04-16,1,,,,,レスタ,0
1849,7010503007402,新規,0,2024-04-16,2024-04-16,合同会社ジャクソンハウス,,合同会社,東京都,台東区,三ノ輪１丁目２０番５号,,13,106,1100011,,,,,,,2024-04-16,1,,,,,ジャクソンハウス,0
1852,7010603010743,新規,0,2024-04-16,2024-04-16,タクミエクスペリエンスジャパン合同会社,,合同会社,東京都,墨田区,錦糸４丁目１４番１号,,13,107,1300013,,,,,,,2024-04-16,1,,,,,タクミエクスペリエンスジャパン,0
1856,7010901055085,新規,0,2024-04-16,2024-04-16,株式会社ＥＸＯＳ,,株式会社,東京都,世田谷区,深沢７丁目２３番１０号－１４,,13,112,1580081,,,,,,,2024-04-16,1,,,,,エクソス,0
1857,7010905004609,新規,0,2024-04-16,2024-04-16,一般社団法人ＮＩＴＴＡＩクラブ,,その他の設立登記法人,東京都,世田谷区,深沢７丁目１番１号,,13,112,1580081,,,,,,,2024-04-16,1,,,,,ニッタイクラブ,0
1868,7011001161286,新規,0,2024-04-16,2024-04-16,ゆうきい株式会社,,株式会社,東京都,渋谷区,渋谷２丁目１９－１５宮益坂ビルディング６０９,,13,113,1500002,,,,,,,2024-04-16,1,,,,,ユウキイ,0
1869,7011001161311,新規,0,2024-04-16,2024-04-16,株式会社ＣＯＮＦＩＡＮＡ,,株式会社,東京都,目黒区,東山２丁目９番１４－５０３号,,13,110,1530043,,,,,,,2024-04-16,1,,,,,コンフィアナ,0
1870,7011001161328,新規,0,2024-04-16,2024-04-16,永華株式会社,,株式会社,東京都,目黒区,青葉台１丁目６番６１号,,13,110,1530042,,,,,,,2024-04-16,1,,,,,エイカ,0
1871,7011001161336,新規,0,2024-04-16,2024-04-16,アンバースポーツマーケティング株式会社,,株式会社,東京都,目黒区,下目黒１丁目１番１４号,,13,110,1530064,,,,,,,2024-04-16,1,,,,,アンバースポーツマーケティング,0
1872,7011003018939,新規,0,2024-04-16,2024-04-16,Ｓｋｉｌｌｘ　Ｊａｐａｎ合同会社,,合同会社,東京都,渋谷区,恵比寿４丁目２０番３号恵比寿ガーデンプレイスタワー１８階,,13,113,1500013,,,,,,,2024-04-16,1,,,,,スキレックスジャパン,0
1873,7011005010464,新規,0,2024-04-16,2024-04-16,一般社団法人ハグビー,,その他の設立登記法人,東京都,渋谷区,神宮前１丁目４番２０－６１０号,,13,113,1500001,,,,,,,2024-04-16,1,,,,,ハグビー,0
1877,7011101106991,新規,0,2024-04-16,2024-04-16,株式会社ＢＬＥＮＤ,,株式会社,東京都,新宿区,西新宿７丁目１５番１８号西新宿ウインズビル３階,,13,104,1600023,,,,,,,2024-04-16,1,,,,,ブレンド,0
1885,7011601027688,新規,0,2024-04-16,2024-04-16,株式会社ＩＴｅｍ,,株式会社,東京都,練馬区,光が丘３丁目８番６－１０２号,,13,120,1790072,,,,,,,2024-04-16,1,,,,,アイテム,0
1887,7011803006176,新規,0,2024-04-16,2024-04-16,Ｇ２　Ｔｒａｄｉｎｇ合同会社,,合同会社,東京都,足立区,綾瀬４丁目２３番９号,,13,121,1200005,,,,,,,2024-04-16,1,,,,,ジーツートレーディング,0
1892,7012401041763,新規,0,2024-04-16,2024-04-16,株式会社Ｃｌａｒａ,,株式会社,東京都,調布市,富士見町３丁目９－８,,13,208,1820033,,,,,,,2024-04-16,1,,,,,クララ,0
1894,7012801023097,新規,0,2024-04-16,2024-04-16,Ｍｏｎｂｏｒｉｃａ株式会社,,株式会社,東京都,日野市,程久保６丁目７－４－１０６号室,,13,212,1910042,,,,,,,2024-04-16,1,,,,,モンボリカ,0
1906,7021001081970,新規,0,2024-04-16,2024-04-16,株式会社本河架設,,株式会社,神奈川県,茅ヶ崎市,浜竹４丁目１番７３－５号,,14,207,2530021,,,,,,,2024-04-16,1,,,,,ホンカワカセツ,0
1909,7021003014383,新規,0,2024-04-16,2024-04-16,ユユカ合同会社,,合同会社,神奈川県,相模原市南区,上鶴間本町９丁目２２番１２号ヴィアベネト２０３,,14,153,2520318,,,,,,,2024-04-16,1,,,,,ユユカ,0
1910,7021003014391,新規,0,2024-04-16,2024-04-16,Ｗｈｉｔｅｗｅｌｌ合同会社,,合同会社,神奈川県,足柄下郡箱根町,湯本６１―２,,14,382,2500311,,,,,,,2024-04-16,1,,,,,ホワイトウェル,0
1914,7030001159743,新規,0,2024-04-16,2024-04-16,株式会社いただきコミュニケーションズ,,株式会社,埼玉県,ふじみ野市,新田１丁目６ー１０新田コーポ２０３,,11,245,3560033,,,,,,,2024-04-16,1,,,,,イタダキコミュニケーションズ,0
1915,7030001159842,新規,0,2024-04-16,2024-04-16,精密光学株式会社,,株式会社,埼玉県,上尾市,浅間台２丁目１１番地１９,,11,219,3620073,,,,,,,2024-04-16,1,,,,,セイミツコウガク,0
1916,7030001159850,新規,0,2024-04-16,2024-04-16,株式会社サンロータス,,株式会社,埼玉県,春日部市,一ノ割１丁目７番６号,,11,214,3440031,,,,,,,2024-04-16,1,,,,,サンロータス,0
1917,7030001159859,新規,0,2024-04-16,2024-04-16,株式会社ＭｏＡ,,株式会社,埼玉県,川口市,弥平２丁目２番２１号,,11,203,3320002,,,,,,,2024-04-16,1,,,,,モア,0
1918,7030001159875,新規,0,2024-04-16,2024-04-16,岩松商事株式会社,,株式会社,埼玉県,草加市,八幡町１１８２番地５,,11,221,3400006,,,,,,,2024-04-16,1,,,,,イワマツショウジ,0
1923,7030003024094,新規,0,2024-04-16,2024-04-16,合同会社カラフラ,,合同会社,埼玉県,川越市,大字笠幡２５５２番地５,,11,201,3501175,,,,,,,2024-04-16,1,,,,,カラフラ,0
1930,7040001133144,新規,0,2024-04-16,2024-04-16,ＣＩＶＩＬ　ＣＲＥＡＴＥ株式会社,,株式会社,千葉県,船橋市,上山町１丁目１６２番地４０,,12,204,2730046,,,,,,,2024-04-16,1,,,,,シビルクリエイト,0
1931,7040003024787,新規,0,2024-04-16,2024-04-16,合同会社Ｐｌａｎ　ｄｏ,,合同会社,千葉県,安房郡鋸南町,中佐久間２４６３番地,,12,463,2992114,,,,,,,2024-04-16,1,,,,,プランドゥ,0
1935,7050001054653,新規,0,2024-04-16,2024-04-16,アイデアル・クリエイション株式会社,,株式会社,茨城県,水戸市,堀町１２７２番地の１３,,08,201,3100903,,,,,,,2024-04-16,1,,,,,,0
1938,7060001037005,新規,0,2024-04-16,2024-04-16,株式会社ＳＨＩＮＥＳＡＮ,,株式会社,栃木県,足利市,羽刈町７１６番地１,,09,202,3260327,,,,,,,2024-04-16,1,,,,,シンサン,0
1939,7060003005034,新規,0,2024-04-16,2024-04-16,ＡＢＵ　ＢＡＫＡＲ　ＴＲＡＤＩＮＧ合同会社,,合同会社,栃木県,栃木市,今泉町２丁目６番４０号グリーンハイツ１０１,,09,203,3280027,,,,,,,2024-04-16,1,,,,,アブバカルトレーディング,0
1940,7070001041641,新規,0,2024-04-16,2024-04-16,株式会社Ｒｅｐａｉｒ　Ｃｒａｆｉｔ,,株式会社,群馬県,伊勢崎市,山王町１０６７番地１７エムロードＡ,,10,204,3720831,,,,,,,2024-04-16,1,,,,,リペアクラフィット,0
1946,7080003003176,新規,0,2024-04-16,2024-04-16,てもと屋合同会社,,合同会社,静岡県,静岡市駿河区,手越原２５０－３,,22,102,4210131,,,,,,,2024-04-16,1,,,,,テモトヤ,0
1950,7080403004988,新規,0,2024-04-16,2024-04-16,合同会社ＣｏｌｏｒｆｕｌＳｅｅｄ,,合同会社,静岡県,浜松市浜名区,染地台５丁目１１番１８号,,22,139,4340046,,,,,,,2024-04-16,1,,,,,カラフルシード,0
1952,7110001038336,新規,0,2024-04-16,2024-04-16,株式会社Ｍｉｃｏｍａ,,株式会社,新潟県,新潟市秋葉区,古津１８８５－１,,15,105,9560847,,,,,,,2024-04-16,1,,,,,ミコマ,0
1954,7110003005367,新規,0,2024-04-16,2024-04-16,合同会社造山,,合同会社,新潟県,佐渡市,千種９,,15,224,9521209,,,,,,,2024-04-16,1,,,,,ゾウザン,0
1962,7120001264030,新規,0,2024-04-16,2024-04-16,株式会社アルファ,,株式会社,大阪府,大阪市中央区,南船場１丁目３番１４号ストークビル南船場５０５,,27,128,5420081,,,,,,,2024-04-16,1,,,,,アルファ,0
1963,7120001264096,新規,0,2024-04-16,2024-04-16,林三株式会社,,株式会社,大阪府,大阪市中央区,南船場４丁目９番１２－３０７号室,,27,128,5420081,,,,,,,2024-04-16,1,,,,,リンゾウ,0
1966,7120003026346,新規,0,2024-04-16,2024-04-16,合同会社Ａｄｄ　Ｗｉｓｔｅｒｉａ,,合同会社,大阪府,大阪市天王寺区,生玉町１１－２４生玉小谷ビル３０１,,27,109,5430071,,,,,,,2024-04-16,1,,,,,アドウィステリア,0
1967,7120003026354,新規,0,2024-04-16,2024-04-16,日心合同会社,,合同会社,大阪府,大阪市淀川区,木川西１丁目９－２３近畿ビル２０１号,,27,123,5320013,,,,,,,2024-04-16,1,,,,,ニッシン,0
1968,7120003026379,新規,0,2024-04-16,2024-04-16,ＡＧＨＡＲＲ合同会社,,合同会社,大阪府,枚方市,宮之阪３丁目６番２８号,,27,210,5730022,,,,,,,2024-04-16,1,,,,,アガール,0
1970,7120101069412,新規,0,2024-04-16,2024-04-16,株式会社ユース,,株式会社,大阪府,堺市南区,高倉台１丁７番１８号,,27,145,5900117,,,,,,,2024-04-16,1,,,,,ユース,0
1971,7120101069420,新規,0,2024-04-16,2024-04-16,株式会社ブレスクリエイト,,株式会社,大阪府,堺市北区,金岡町２３９６番地１５,,27,146,5918022,,,,,,,2024-04-16,1,,,,,ブレスクリエイト,0
1978,7130001076680,新規,0,2024-04-16,2024-04-16,京都西昆株式会社,,株式会社,京都府,京都市右京区,嵯峨大覚寺門前六道町２８番地１７,,26,108,6168417,,,,,,,2024-04-16,1,,,,,キョウトセイコン,0
1979,7130001076821,新規,0,2024-04-16,2024-04-16,株式会社Ｒｅａｌ　Ｌｉｆｅ,,株式会社,京都府,京都市山科区,勧修寺東堂田町２６４番地２Ｆ,,26,110,6078222,,,,,,,2024-04-16,1,,,,,リアルライフ,0
1987,7140001134099,新規,0,2024-04-16,2024-04-16,株式会社サクセス,,株式会社,兵庫県,伊丹市,森本２丁目３６番地森本ビル２０２,,28,207,6640842,,,,,,,2024-04-16,1,,,,,サクセス,0
1988,7140001134108,新規,0,2024-04-16,2024-04-16,株式会社ＬＡＷＳＡＮＣＥ,,株式会社,兵庫県,尼崎市,三反田町３丁目４番２６－２０３号,,28,202,6610024,,,,,,,2024-04-16,1,,,,,ローサンス,0
1989,7140001134116,新規,0,2024-04-16,2024-04-16,兵庫Ｊブロード株式会社,,株式会社,兵庫県,神戸市垂水区,山手７丁目６番２５号,,28,108,6550891,,,,,,,2024-04-16,1,,,,,ヒョウゴジェイブロード,0
1992,7140003020438,新規,0,2024-04-16,2024-04-16,合同会社百華,,合同会社,兵庫県,神戸市中央区,熊内町４丁目５番１３号メープルレジデンス２０５,,28,110,6510056,,,,,,,2024-04-16,1,,,,,モモカ,0
1993,7160005011301,新規,0,2024-04-16,2024-04-16,一般社団法人滋賀県ペストコントロール協会,,その他の設立登記法人,滋賀県,大津市,下阪本３丁目１２番１８号,,25,201,5200105,,,,,,,2024-04-16,1,,,,,シガケンペストコントロールキョウカイ,0
2007,7180003026662,新規,0,2024-04-16,2024-04-16,合同会社じいじ出版,,合同会社,愛知県,名古屋市中川区,明徳町３丁目１３番地アメニティ明徳４０１,,23,110,4540857,,,,,,,2024-04-16,1,,,,,ジイジシュッパン,0
2009,7180005020597,新規,0,2024-04-16,2024-04-16,一般社団法人ＫＩＢＯＵプロジェクト,,その他の設立登記法人,愛知県,名古屋市東区,東桜２丁目１７番２５号,,23,102,4610005,,,,,,,2024-04-16,1,,,,,キボウプロジェクト,0
2012,7180301038525,新規,0,2024-04-16,2024-04-16,アイソーイング株式会社,,株式会社,愛知県,西尾市,今川町落２８番地,,23,213,4450063,,,,,,,2024-04-16,1,,,,,アイソーイング,0
2022,7200003006307,新規,0,2024-04-16,2024-04-16,Ｇｉｆｕ　Ｔｒａｄｉｎｇ合同会社,,合同会社,岐阜県,岐阜市,領下野畑１７２９番地エステートアーク２０２号室,,21,201,5008241,,,,,,,2024-04-16,1,,,,,ギフトレーディング,0
2025,7220001025950,新規,0,2024-04-16,2024-04-16,ＳＥＮＳＥ商事株式会社,,株式会社,石川県,金沢市,松村６丁目２２７番地１,,17,201,9200348,,,,,,,2024-04-16,1,,,,,センスショウジ,0
2027,7220003003731,新規,0,2024-04-16,2024-04-16,数寄屋にしだ合同会社,,合同会社,石川県,白山市,坂尻町ホ４３番地,,17,210,9202102,,,,,,,2024-04-16,1,,,,,スキヤニシダ,0
2033,7260001038973,新規,0,2024-04-16,2024-04-16,株式会社Ｍ・Ｒ・システムズ,,株式会社,岡山県,倉敷市,老松町４丁目８番２０号７階,,33,202,7100826,,,,,,,2024-04-16,1,,,,,エムアールシステムズ,0
2036,7260003004643,新規,0,2024-04-16,2024-04-16,合同会社風まくら,,合同会社,岡山県,勝田郡奈義町,中島東２６０番地１,,33,623,7081313,,,,,,,2024-04-16,1,,,,,カザマクラ,0
2040,7290001105291,新規,0,2024-04-16,2024-04-16,株式会社Ｓ‐ＷＯＲＫＳ,,株式会社,福岡県,福岡市早良区,四箇田団地３７番３号,,40,137,8140176,,,,,,,2024-04-16,1,,,,,エスワークス,0
2041,7290001105382,新規,0,2024-04-16,2024-04-16,株式会社ＭＧＹ,,株式会社,福岡県,福岡市中央区,春吉２丁目９－２５ラ・レジダンス・ド・レーヌ３０６号室,,40,133,8100003,,,,,,,2024-04-16,1,,,,,エムジーワイ,0
2042,7290001105390,新規,0,2024-04-16,2024-04-16,株式会社Ｑ,,株式会社,福岡県,福岡市早良区,西新４丁目３番２０－１０１号,,40,137,8140002,,,,,,,2024-04-16,1,,,,,キュー,0
2044,7290003015159,新規,0,2024-04-16,2024-04-16,ＥＺＹＦＡＢ合同会社,,合同会社,福岡県,福岡市西区,今宿駅前１丁目１５－１８マリブ今宿シーサイドテラス３Ｆ,,40,135,8190168,,,,,,,2024-04-16,1,,,,,イージーファブ,0
2046,7290801030482,新規,0,2024-04-16,2024-04-16,株式会社ＨＡＲＡＤＡ,,株式会社,福岡県,北九州市門司区,西海岸１丁目２－１８マリナーズコート門司４Ｆ－４,,40,101,8010841,,,,,,,2024-04-16,1,,,,,ハラダ,0
2047,7290801030499,新規,0,2024-04-16,2024-04-16,株式会社勝和板金工業,,株式会社,福岡県,北九州市小倉北区,今町２丁目６番１４号,,40,106,8030862,,,,,,,2024-04-16,1,,,,,ショウワバンキンコウギョウ,0
2049,7300001013699,新規,0,2024-04-16,2024-04-16,株式会社ＥＮＧＩＮＥ,,株式会社,佐賀県,杵島郡白石町,大字廿治２３２０番地,,41,425,8491106,,,,,,,2024-04-16,1,,,,,エンジン,0
2055,7330001031970,新規,0,2024-04-16,2024-04-16,ＮａｋａｍｕＲａ株式会社,,株式会社,熊本県,熊本市東区,広木町６番１９号レイクサイド２０１,,43,102,8620906,,,,,,,2024-04-16,1,,,,,ナカムラ,0
2057,7330003010320,新規,0,2024-04-16,2024-04-16,合同会社＿康,00134424,合同会社,熊本県,菊池郡菊陽町,大字原水２４１４番地１,,43,404,8691102,,,,,,,2024-04-16,1,,,,,コウコウ,0
2060,7350001018917,新規,0,2024-04-16,2024-04-16,株式会社ＹＳＤ,,株式会社,宮崎県,宮崎市,城ケ崎４丁目１０番地４４,,45,201,8800917,,,,,,,2024-04-16,1,,,,,ワイエスディー,0
2061,7350003004618,新規,0,2024-04-16,2024-04-16,合同会社いろ葉,,合同会社,宮崎県,都城市,若葉町７３－３－３－２１０,,45,202,8850054,,,,,,,2024-04-16,1,,,,,イロハ,0
2063,7360001033477,新規,0,2024-04-16,2024-04-16,株式会社ＭＡＲＩＮＥ　Ｚ,,株式会社,沖縄県,中頭郡北谷町,字桑江３６６番地３座喜味アパート２０２,,47,326,9040103,,,,,,,2024-04-16,1,,,,,マリーンゼット,0
2064,7360003013898,新規,0,2024-04-16,2024-04-16,合同会社１９８６,,合同会社,沖縄県,沖縄市,上地２丁目７－２５,,47,211,9040031,,,,,,,2024-04-16,1,,,,,イチキュウハチロク,0
2069,7370001051197,新規,0,2024-04-16,2024-04-16,株式会社二八屋,,株式会社,宮城県,宮城郡松島町,松島字間坂１番地の２４,,04,401,9810213,,,,,,,2024-04-16,1,,,,,ニハチヤ,0
2077,7380001034457,新規,0,2024-04-16,2024-04-16,株式会社ハイブリッジモータース,,株式会社,福島県,福島市,吉倉字前田１番地の１,,07,201,9608165,,,,,,,2024-04-16,1,,,,,ハイブリッジモータース,0
2091,7430001091567,新規,0,2024-04-16,2024-04-16,株式会社エゾ設計,,株式会社,北海道,札幌市中央区,南五条西１５丁目２－３－５０３,,01,101,0640805,,,,,,,2024-04-16,1,,,,,エゾセッケイ,0
2099,7430003016200,新規,0,2024-04-16,2024-04-16,合同会社ＳｉｉＳ,,合同会社,北海道,札幌市東区,北二十三条東１２丁目３‐１５モトマチメイワ２Ｆ事務所,,01,103,0650023,,,,,,,2024-04-16,1,,,,,シーズ,0
2100,7430003016225,新規,0,2024-04-16,2024-04-16,合同会社ノウステラ,,合同会社,北海道,室蘭市,中島町４丁目８番４３号,,01,205,0500074,,,,,,,2024-04-16,1,,,,,ノウステラ,0
2103,7460001005887,新規,0,2024-04-16,2024-04-16,株式会社タケウチ,,株式会社,北海道,釧路市,愛国東４丁目３７番１７号,,01,206,0850058,,,,,,,2024-04-16,1,,,,,タケウチ,0
2105,7470001020150,新規,0,2024-04-16,2024-04-16,株式会社グランコート不動産,,株式会社,香川県,三豊市,三野町下高瀬２０９５番地３,,37,208,7670032,,,,,,,2024-04-16,1,,,,,グランコートフドウサン,0
2106,7490005006937,新規,0,2024-04-16,2024-04-16,税理士法人さかえ,,その他の設立登記法人,高知県,高知市,栄田町３丁目７番２号３０６号室,,39,201,7800061,,,,,,,2024-04-16,1,,,,,サカエ,0
2107,7500001025567,新規,0,2024-04-16,2024-04-16,株式会社ｗｉｔｈ,,株式会社,愛媛県,新居浜市,東雲町３丁目１番５０号,,38,205,7920864,,,,,,,2024-04-16,1,,,,,ウィズ,0
2108,7500001025575,新規,0,2024-04-16,2024-04-16,株式会社大鷹,,株式会社,愛媛県,松山市,北条辻２０番地１０,00134422,38,201,7992430,,,,,,,2024-04-16,1,,,,,オオタカ,0
2110,7700150124637,新規,0,2024-04-16,2024-03-28,鷹栖町生涯現役地域づくり環境整備推進協議会,,その他,北海道,上川郡鷹栖町,南一条３丁目５番１号鷹栖町健康福祉課,,01,452,0711201,,,,,,,2024-03-28,1,,,,,タカスチヨウシヨウガイゲンエキチイキヅクリカンキヨウセイビスイシンキヨウギカイ,0
2120,8010001244075,新規,0,2024-04-16,2024-04-16,株式会社キャラメリズム,,株式会社,東京都,中央区,日本橋室町１丁目１１番１２号日本橋水野ビル７階,,13,102,1030022,,,,,,,2024-04-16,1,,,,,キャラメリズム,0
2121,8010001244083,新規,0,2024-04-16,2024-04-16,株式会社増田総合研究所,,株式会社,東京都,千代田区,六番町６－４ＬＨ番町スクエア５Ｆ,,13,101,1020085,,,,,,,2024-04-16,1,,,,,マスダソウゴウケンキュウジョ,0
2124,8010005038176,新規,0,2024-04-16,2024-04-16,一般社団法人デジタルノマド協会,,その他の設立登記法人,東京都,千代田区,神田神保町２丁目４－７,,13,101,1010051,,,,,,,2024-04-16,1,,,,,デジタルノマドキョウカイ,0
2128,8010401181587,新規,0,2024-04-16,2024-04-16,雪玉株式会社,,株式会社,東京都,港区,赤坂２丁目８番１４－５０４号,,13,103,1070052,,,,,,,2024-04-16,1,,,,,ユキダマ,0
2129,8010401181744,新規,0,2024-04-16,2024-04-16,株式会社ぷりますてら,,株式会社,東京都,港区,北青山２丁目７－１３プラセオ青山ビル３Ｆ青山アラマンダーワークコート,,13,103,1070061,,,,,,,2024-04-16,1,,,,,プリマステラ,0
2130,8010401181752,新規,0,2024-04-16,2024-04-16,株式会社いぶきマネジメント,,株式会社,東京都,港区,麻布十番３丁目３番８号４階,,13,103,1060045,,,,,,,2024-04-16,1,,,,,イブキマネジメント,0
2131,8010401181769,新規,0,2024-04-16,2024-04-16,株式会社ＴＯＮＩＱ,,株式会社,東京都,港区,浜松町２丁目２番１５号浜松町ダイヤビル２Ｆ,,13,103,1050013,,,,,,,2024-04-16,1,,,,,トニック,0
2132,8010401181802,新規,0,2024-04-16,2024-04-16,Ｃｌａｐｐｅｒ　Ｍｅｄｉａ　Ｊａｐａｎ株式会社,,株式会社,東京都,港区,新橋３丁目９番１０号天翔新橋ビル８階８０７号室,,13,103,1050004,,,,,,,2024-04-16,1,,,,,クラッパーメディアジャパン,0
2133,8010401181843,新規,0,2024-04-16,2024-04-16,株式会社時鶴,,株式会社,東京都,港区,南麻布２丁目１３番１号,,13,103,1060047,,,,,,,2024-04-16,1,,,,,トキツル,0
2137,8010505003514,新規,0,2024-04-16,2024-04-16,医療法人社団石橋会,,その他の設立登記法人,東京都,台東区,浅草６丁目９番２号ＣＯＬＬＥＣＴＩＯＮ　ＨＯＲＳＥ　ＲＯＡＤ４階,,13,106,1110032,,,,,,,2024-04-16,1,,,,,イシバシカイ,0
2141,8010801034956,新規,0,2024-04-16,2024-04-16,金裕信物業株式会社,,株式会社,東京都,大田区,東海３丁目７番３号東海ビル,,13,111,1430001,,,,,,,2024-04-16,1,,,,,キンユウシンブツギョウ,0
2142,8010801034964,新規,0,2024-04-16,2024-04-16,株式会社ホシノコンサルティング,,株式会社,東京都,大田区,西六郷４丁目３５番１７号,,13,111,1440056,,,,,,,2024-04-16,1,,,,,ホシノコンサルティング,0
2146,8010901055068,新規,0,2024-04-16,2024-04-16,株式会社グローバルファミリア,,株式会社,東京都,世田谷区,経堂５丁目３１番１５号サンワハイム２０１,,13,112,1560052,,,,,,,2024-04-16,1,,,,,グローバルファミリア,0
2147,8010905004608,新規,0,2024-04-16,2024-04-16,一般社団法人舞台芸術わつなぎプロジェクト,,その他の設立登記法人,東京都,世田谷区,祖師谷１丁目３４番４号,,13,112,1570072,,,,,,,2024-04-16,1,,,,,ブタイゲイジュツワツナギプロジェクト,0
2150,8011001161269,新規,0,2024-04-16,2024-04-16,ＮＡＧＩ株式会社,,株式会社,東京都,目黒区,東山１丁目１１－１２メソンセレノ東山１０２,,13,110,1530043,,,,,,,2024-04-16,1,,,,,ナギ,0
2151,8011001161302,新規,0,2024-04-16,2024-04-16,株式会社ネオライズ,,株式会社,東京都,渋谷区,広尾２丁目２番２０号ヴェラハイツ広尾５０２号,,13,113,1500012,,,,,,,2024-04-16,1,,,,,ネオライズ,0
2152,8011001161310,新規,0,2024-04-16,2024-04-16,株式会社ジェットストリーミング,,株式会社,東京都,渋谷区,渋谷２丁目９番１１号インテリックス青山通ビル,,13,113,1500002,,,,,,,2024-04-16,1,,,,,ジェットストリーミング,0
2153,8011001161335,新規,0,2024-04-16,2024-04-16,株式会社ウイングエンタープライズ,,株式会社,東京都,渋谷区,道玄坂１丁目１０番８号渋谷道玄坂東急ビル２Ｆ－Ｃ,,13,113,1500043,,,,,,,2024-04-16,1,,,,,ウイングエンタープライズ,0
2156,8011003018938,新規,0,2024-04-16,2024-04-16,合同会社パルグロウ,,合同会社,東京都,渋谷区,渋谷２丁目１９－１５宮益坂ビルディング６０９,,13,113,1500002,,,,,,,2024-04-16,1,,,,,パルグロウ,0
2158,8011101106958,新規,0,2024-04-16,2024-04-16,Ｅｄｕｋｕｒｉ株式会社,,株式会社,東京都,新宿区,西新宿３丁目３番１３号西新宿水間ビル２Ｆ,,13,104,1600023,,,,,,,2024-04-16,1,,,,,エヅクリ,0
2159,8011101106974,新規,0,2024-04-16,2024-04-16,株式会社ＳＯＵＮＤ　ＷＩＺＡＲＤ,,株式会社,東京都,新宿区,高田馬場１丁目３２番１０号,,13,104,1690075,,,,,,,2024-04-16,1,,,,,サウンドウィザード,0
2160,8011101106982,新規,0,2024-04-16,2024-04-16,株式会社グローリソース,,株式会社,東京都,新宿区,西新宿３丁目３番１３号西新宿水間ビル６階,,13,104,1600023,,,,,,,2024-04-16,1,,,,,グローリソース,0
2161,8011105010999,新規,0,2024-04-16,2024-04-16,一般社団法人日本保育連盟,,その他の設立登記法人,東京都,新宿区,西新宿３丁目３番１３号西新宿水間ビル６階,,13,104,1600023,,,,,,,2024-04-16,1,,,,,ニホンホイクレンメイ,0
2163,8011301029579,新規,0,2024-04-16,2024-04-16,株式会社ナノ,,株式会社,東京都,杉並区,和泉４丁目１番２２号パークホームズ杉並和泉ザレジデンス２０８,,13,115,1680063,,,,,,,2024-04-16,1,,,,,ナノ,0
2165,8011501030543,新規,0,2024-04-16,2024-04-16,寶新株式会社,,株式会社,東京都,北区,浮間１丁目１番１４号リムジンビル４０７,,13,117,1150051,,,,,,,2024-04-16,1,,,,,ホウシン,0
2170,8011701027190,新規,0,2024-04-16,2024-04-16,株式会社ネクストライ,,株式会社,東京都,江戸川区,中葛西５丁目３番３号信友ビル３Ｂ,,13,123,1340083,,,,,,,2024-04-16,1,,,,,ネクストライ,0
2171,8011703003801,新規,0,2024-04-16,2024-04-16,スリリング・コード合同会社,,合同会社,東京都,江戸川区,瑞江２丁目４番３号,,13,123,1320011,,,,,,,2024-04-16,1,,,,,スリリングコード,0
2177,8012401041754,新規,0,2024-04-16,2024-04-16,吉辰商事株式会社,,株式会社,東京都,調布市,染地１丁目２３番地１９,,13,208,1820023,,,,,,,2024-04-16,1,,,,,キッシンショウジ,0
2178,8012403006508,新規,0,2024-04-16,2024-04-16,合同会社永縁,,合同会社,東京都,調布市,布田５丁目３７番地１６,,13,208,1820024,,,,,,,2024-04-16,1,,,,,エイエン,0
2179,8013303007067,新規,0,2024-04-16,2024-04-16,合同会社ｏｉｓＵ,,合同会社,東京都,豊島区,長崎２丁目２５番１７,,13,116,1710051,,,,,,,2024-04-16,1,,,,,オイス,0
2189,8020005016379,新規,0,2024-04-16,2024-04-16,一般社団法人リトル・フューチャーズ,,その他の設立登記法人,神奈川県,横浜市港北区,大曽根１丁目５番５－２３号,,14,109,2220003,,,,,,,2024-04-16,1,,,,,リトルフューチャーズ,0
2192,8021001081978,新規,0,2024-04-16,2024-04-16,ラッキー鈴木株式会社,,株式会社,神奈川県,藤沢市,片瀬３丁目１５番１７号,,14,205,2510032,,,,,,,2024-04-16,1,,,,,ラッキースズキ,0
2193,8021001081986,新規,0,2024-04-16,2024-04-16,エイミ・インターナショナル・ジャパン株式会社,,株式会社,神奈川県,相模原市南区,旭町６番１７号オクトワール相模大野２０５号,,14,153,2520304,,,,,,,2024-04-16,1,,,,,エイミインターナショナルジャパン,0
2196,8021003014382,新規,0,2024-04-16,2024-04-16,ＳＨＩＭＯＫＡＷＡ　ＳＨＯＫＡＩ合同会社,,合同会社,神奈川県,厚木市,松枝２丁目６－１６ハイツ大橋１０１,,14,212,2430005,,,,,,,2024-04-16,1,,,,,シモカワショウカイ,0
2197,8021003014390,新規,0,2024-04-16,2024-04-16,合同会社タカイ,,合同会社,神奈川県,相模原市中央区,共和１丁目６番１４－２号,,14,152,2520234,,,,,,,2024-04-16,1,,,,,タカイ,0
2198,8021005013069,新規,0,2024-04-16,2024-04-16,一般社団法人ＮＡＣＨＵＬＡ　ＤＡ　ＦＡＭＩＬＩＡ,,その他の設立登記法人,神奈川県,鎌倉市,材木座３丁目７番３号,,14,204,2480013,,,,,,,2024-04-16,1,,,,,ナチュラダファミリア,0
2199,8021005013085,新規,0,2024-04-16,2024-04-16,特定非営利活動法人中井町地産地消ＮＰＯ,,その他の設立登記法人,神奈川県,足柄上郡中井町,松本８５９番地,,14,361,2590155,,,,,,,2024-04-16,1,,,,,ナカイマチチサンチショウエヌピーオー,0
2205,8030001159833,新規,0,2024-04-16,2024-04-16,株式会社浮花産業,,株式会社,埼玉県,八潮市,大字浮塚７１７番地１ルネ綾瀬７０２,,11,234,3400835,,,,,,,2024-04-16,1,,,,,ウキハナサンギョウ,0
2206,8030001159841,新規,0,2024-04-16,2024-04-16,株式会社Ｒｅｐｌｕｓ,,株式会社,埼玉県,所沢市,上新井３丁目３８番地の１コスモガーデン小手指１１０,,11,208,3591142,,,,,,,2024-04-16,1,,,,,リプラス,0
2207,8030001159858,新規,0,2024-04-16,2024-04-16,株式会社ＤＡＩＣＨＩ,,株式会社,埼玉県,越谷市,大字砂原１５７２－１－２,,11,222,3430803,,,,,,,2024-04-16,1,,,,,ダイチ,0
2211,8030003024093,新規,0,2024-04-16,2024-04-16,ＤＡＷＮ合同会社,,合同会社,埼玉県,川口市,南鳩ヶ谷２丁目９番７号高橋マンション４０１,,11,203,3340013,,,,,,,2024-04-16,1,,,,,ダウン,0
2212,8030005021659,新規,0,2024-04-16,2024-04-16,医療法人社団晃徳会,,その他の設立登記法人,埼玉県,さいたま市南区,南浦和２丁目１２番１８号松永ビル２Ｆ,,11,108,3360017,,,,,,,2024-04-16,1,,,,,コウトクカイ,0
2216,8040001133151,新規,0,2024-04-16,2024-04-16,株式会社ビヨンドスカイ,,株式会社,千葉県,船橋市,夏見５丁目２１番６号,,12,204,2730865,,,,,,,2024-04-16,1,,,,,ビヨンドスカイ,0
2217,8040001133168,新規,0,2024-04-16,2024-04-16,株式会社高嶋工業,00134430,株式会社,千葉県,市原市,根田４丁目５番地１８,,12,219,2900024,,,,,,,2024-04-16,1,,,,,タカシマコウギョウ,0
2218,8040001133176,新規,0,2024-04-16,2024-04-16,株式会社友和,,株式会社,千葉県,柏市,東３丁目１番１３－１０２号,,12,217,2770014,,,,,,,2024-04-16,1,,,,,ユウワ,0
2219,8040003024794,新規,0,2024-04-16,2024-04-16,合同会社Ｒ．ＢＷ,,合同会社,千葉県,松戸市,下矢切３３３番地の１,,12,207,2710096,,,,,,,2024-04-16,1,,,,,アールビーダブリュー,0
2223,8050003008301,新規,0,2024-04-16,2024-04-16,ＳＯＯＲＩＹＡ　ＥＮＴＥＲＰＲＩＳＥ合同会社,,合同会社,茨城県,土浦市,右籾２９１４番地２,,08,203,3000837,,,,,,,2024-04-16,1,,,,,スーリヤエンタープライズ,0
2225,8060001037004,新規,0,2024-04-16,2024-04-16,株式会社０３ＳＴＹＬＥ,,株式会社,栃木県,足利市,寺岡町４６１番地１０ヴァンヴェール寺岡３号棟２０６,,09,202,3294213,,,,,,,2024-04-16,1,,,,,ゼロサンスタイル,0
2237,8090001018661,新規,0,2024-04-16,2024-04-16,株式会社ＬｉＳ,,株式会社,山梨県,甲府市,山宮町９４１－９,,19,201,4000075,,,,,,,2024-04-16,1,,,,,リス,0
2240,8090003002548,新規,0,2024-04-16,2024-04-16,合同会社リメイク,,合同会社,山梨県,甲府市,宝１丁目１４－３,,19,201,4000034,,,,,,,2024-04-16,1,,,,,リメイク,0
2241,8110001038335,新規,0,2024-04-16,2024-04-16,番匠こはるや株式会社,,株式会社,新潟県,上越市,板倉区長嶺８９１番地,,15,222,9440108,,,,,,,2024-04-16,1,,,,,バンショウコハルヤ,0
2243,8110003005366,新規,0,2024-04-16,2024-04-16,合同会社あいびい,,合同会社,新潟県,新潟市江南区,曽野木２丁目２－９,,15,104,9501135,,,,,,,2024-04-16,1,,,,,アイビイ,0
2255,8120001263972,新規,0,2024-04-16,2024-04-16,株式会社マイペンジャパン,,株式会社,大阪府,大阪市北区,南森町１丁目４番１１号,,27,127,5300054,,,,,,,2024-04-16,1,,,,,マイペンジャパン,0
2256,8120001264038,新規,0,2024-04-16,2024-04-16,三川株式会社,,株式会社,大阪府,大阪市中央区,内本町１丁目４番９－３０２号,,27,128,5400026,,,,,,,2024-04-16,1,,,,,ミカワ,0
2257,8120001264062,新規,0,2024-04-16,2024-04-16,知可株式会社,,株式会社,大阪府,大阪市浪速区,下寺３丁目１番６号,,27,111,5560001,,,,,,,2024-04-16,1,,,,,チカ,0
2258,8120001264070,新規,0,2024-04-16,2024-04-16,株式会社ボンヌール,,株式会社,大阪府,大阪市中央区,安土町２丁目３番１３号大阪国際ビルディング３１Ｆ,,27,128,5410052,,,,,,,2024-04-16,1,,,,,ボンヌール,0
2259,8120001264079,新規,0,2024-04-16,2024-04-16,シマノ設備株式会社,,株式会社,大阪府,大阪市中央区,南船場３丁目５－２５－３Ｄ,,27,128,5420081,,,,,,,2024-04-16,1,,,,,シマノセツビ,0
2262,8120003026320,新規,0,2024-04-16,2024-04-16,合同会社ロマンクラフト,,合同会社,大阪府,大阪市淀川区,塚本４丁目４－７コート塚本８０１号,,27,123,5320026,,,,,,,2024-04-16,1,,,,,ロマンクラフト,0
2264,8120101069428,新規,0,2024-04-16,2024-04-16,株式会社宿電工,,株式会社,大阪府,堺市北区,南花田町２４番地３・３Ｆ,,27,146,5918011,,,,,,,2024-04-16,1,,,,,シュクデンコウ,0
2265,8120103005785,新規,0,2024-04-16,2024-04-16,合同会社ＷＯＲＫ．ＢＡＳＥ．,,合同会社,大阪府,大阪狭山市,大字岩室１４０２－２,,27,231,5890032,,,,,,,2024-04-16,1,,,,,ワークベース,0
2268,8120901049034,新規,0,2024-04-16,2024-04-16,ノウタス高槻農園株式会社,,株式会社,大阪府,高槻市,白梅町４番８号６０８,,27,207,5691116,,,,,,,2024-04-16,1,,,,,ノウタスタカツキノウエン,0
2269,8120903005118,新規,0,2024-04-16,2024-04-16,合同会社ｍｏｎ　ａｎｇｅ,,合同会社,大阪府,高槻市,塚原２丁目２７番２７号,,27,207,5691046,,,,,,,2024-04-16,1,,,,,モンアンジュ,0
2274,8122001038017,新規,0,2024-04-16,2024-04-16,株式会社アイケイ,,株式会社,大阪府,東大阪市,神田町２－８瓢箪山駅前ビル３０７号室,,27,227,5798058,,,,,,,2024-04-16,1,,,,,アイケイ,0
2275,8122003002862,新規,0,2024-04-16,2024-04-16,東洋経済調査合同会社,,合同会社,大阪府,東大阪市,鴻池町２丁目５番１７－４１２号,,27,227,5780972,,,,,,,2024-04-16,1,,,,,トウヨウケイザイチョウサ,0
2289,8140001134081,新規,0,2024-04-16,2024-04-16,株式会社シー・ライン,,株式会社,兵庫県,神戸市中央区,磯辺通２丁目２番１６号,,28,110,6510084,,,,,,,2024-04-16,1,,,,,シーライン,0
2290,8140001134098,新規,0,2024-04-16,2024-04-16,株式会社アンプラウド,,株式会社,兵庫県,宝塚市,安倉西４丁目４番４号,,28,214,6650825,,,,,,,2024-04-16,1,,,,,アンプラウド,0
2291,8140001134107,新規,0,2024-04-16,2024-04-16,株式会社阪神電気設備,,株式会社,兵庫県,西宮市,神園町１５番２６号,,28,204,6620027,,,,,,,2024-04-16,1,,,,,ハンシンデンキセツビ,0
2292,8140003020445,新規,0,2024-04-16,2024-04-16,合同会社パワフルサポート,,合同会社,兵庫県,姫路市,新在家本町２丁目５番１１号,,28,201,6700092,,,,,,,2024-04-16,1,,,,,パワフルサポート,0
2294,8140005027042,新規,0,2024-04-16,2024-04-16,一般社団法人ＦｕｚｚＣａｒｅ　Ｌａｂ．,,その他の設立登記法人,兵庫県,神戸市兵庫区,湊町３丁目２番５－６１５号,,28,105,6520812,,,,,,,2024-04-16,1,,,,,ファズケアラボ,0
2298,8160003003167,新規,0,2024-04-16,2024-04-16,合同会社ヒロ工藝社,,合同会社,滋賀県,湖南市,近江台２丁目１番１１号,,25,211,5203245,,,,,,,2024-04-16,1,,,,,ヒロコウゲイシャ,0
2300,8160005011300,新規,0,2024-04-16,2024-04-16,農事組合法人新庄営農組合,,その他の設立登記法人,滋賀県,守山市,新庄町１３１５番地,,25,207,5240213,,,,,,,2024-04-16,1,,,,,シンジョウエイノウクミアイ,0
2310,8180001160958,新規,0,2024-04-16,2024-04-16,株式会社Ｉｒｉｓ,,株式会社,愛知県,海部郡大治町,大字長牧字浦畑１４４番地,,23,424,4901131,,,,,,,2024-04-16,1,,,,,アイリス,0
2315,8180301038516,新規,0,2024-04-16,2024-04-16,Ｂ＆Ｊ株式会社,,株式会社,愛知県,安城市,東栄町２丁目９番２０号,,23,212,4460007,,,,,,,2024-04-16,1,,,,,ビーアンドジェイ,0
2323,8220001025941,新規,0,2024-04-16,2024-04-16,マジム株式会社,,株式会社,石川県,金沢市,笠舞本町１丁目２番１６号,,17,201,9200947,,,,,,,2024-04-16,1,,,,,マジム,0
2332,8230001020297,新規,0,2024-04-16,2024-04-16,株式会社廣田建設,00134417,株式会社,富山県,富山市,赤田２７９番地５,,16,201,9398064,,,,,,,2024-04-16,1,,,,,ヒロタケンセツ,0
2334,8230003002186,新規,0,2024-04-16,2024-04-16,合同会社貴乃水,,合同会社,富山県,富山市,大山北新町８０５番地３,,16,201,9301311,,,,,,,2024-04-16,1,,,,,キノミ,0
2340,8240001063080,新規,0,2024-04-16,2024-04-16,佐藤商事株式会社,,株式会社,広島県,東広島市,豊栄町清武４０２８－１,,34,212,7392313,,,,,,,2024-04-16,1,,,,,サトウショウジ,0
2341,8240001063089,新規,0,2024-04-16,2024-04-16,昭和産業株式会社,,株式会社,広島県,福山市,東川口町３丁目９番２０号,,34,207,7200821,,,,,,,2024-04-16,1,,,,,ショウワサンギョウ,0
2343,8240003006624,新規,0,2024-04-16,2024-04-16,合同会社ベクトルマーケットカンパニー,,合同会社,広島県,尾道市,高須町１３５３－１－２Ｆ,,34,205,7290141,,,,,,,2024-04-16,1,,,,,ベクトルマーケットカンパニー,0
2346,8260001038972,新規,0,2024-04-16,2024-04-16,株式会社ピーラボ,,株式会社,岡山県,岡山市中区,海吉１３６６,,33,102,7038261,,,,,,,2024-04-16,1,,,,,ピーラボ,0
2350,8290001105332,新規,0,2024-04-16,2024-04-16,株式会社スエマル,,株式会社,福岡県,糟屋郡篠栗町,津波黒２丁目１番１０号,,40,342,8112415,,,,,,,2024-04-16,1,,,,,スエマル,0
2355,8300001013681,新規,0,2024-04-16,2024-04-16,株式会社栄生運輸,,株式会社,佐賀県,鳥栖市,姫方町１６６０番地,,41,203,8410023,,,,,,,2024-04-16,1,,,,,サユウウンユ,0
2356,8300001013698,新規,0,2024-04-16,2024-04-16,マイレ株式会社,,株式会社,佐賀県,佐賀市,南佐賀１丁目４番１０号,,41,201,8400016,,,,,,,2024-04-16,1,,,,,マイレ,0
2361,8320001020412,新規,0,2024-04-16,2024-04-16,株式会社Ｏｗｎ　Ｙｏｕｒ　ＬＩＦＥ,,株式会社,大分県,大分市,青葉台３丁目１３番地の９,,44,201,8700875,,,,,,,2024-04-16,1,,,,,オウンユアライフ,0
2368,8340003004436,新規,0,2024-04-16,2024-04-16,合同会社ＫＹコンサルタント,,合同会社,鹿児島県,鹿児島市,平之町１０－２８グレイスコート平野町３０２,,46,201,8920848,,,,,,,2024-04-16,1,,,,,ケイワイコンサルタント,0
2369,8350001018916,新規,0,2024-04-16,2024-04-16,株式会社ハチサンハチ,,株式会社,宮崎県,宮崎市,高洲町１５７番地１,,45,201,8800852,,,,,,,2024-04-16,1,,,,,ハチサンハチ,0
2370,8360001033518,新規,0,2024-04-16,2024-04-16,株式会社琉球科学教育研究会,,株式会社,沖縄県,沖縄市,中央１丁目７番８号,,47,211,9040004,,,,,,,2024-04-16,1,,,,,,0
2371,8360003013906,新規,0,2024-04-16,2024-04-16,シミズ・ホールディング合同会社,,合同会社,沖縄県,宜野湾市,大山７丁目１０番４１,,47,205,9012223,,,,,,,2024-04-16,1,,,,,シミズホールディング,0
2374,8370001051188,新規,0,2024-04-16,2024-04-16,株式会社ビープラス,,株式会社,宮城県,仙台市泉区,明石南２丁目７番地の８,,04,105,9813101,,,,,,,2024-04-16,1,,,,,ビープラス,0
2382,8390001017583,新規,0,2024-04-16,2024-04-16,株式会社ｅｎｅｒｇｙ　ｓｕｐｐｌｙ,,株式会社,山形県,鶴岡市,下山添字下通１５３番地,,06,203,9970341,,,,,,,2024-04-16,1,,,,,エナジーサプライ,0
2394,8430001091590,新規,0,2024-04-16,2024-04-16,株式会社力正工業,,株式会社,北海道,石狩市,花川南二条１丁目２２－１,,01,235,0613202,,,,,,,2024-04-16,1,,,,,チカラマサコウギョウ,0
2395,8430001091599,新規,0,2024-04-16,2024-04-16,株式会社ビオトープ北海道,,株式会社,北海道,小樽市,見晴町１６番１７号,,01,203,0470263,,,,,,,2024-04-16,1,,,,,ビオトープホッカイドウ,0
2404,8430003016174,新規,0,2024-04-16,2024-04-16,合同会社Ｂ８,,合同会社,北海道,札幌市中央区,北二条西３丁目１番地２４イシガキビル３階,,01,101,0600002,,,,,,,2024-04-16,1,,,,,ビーエイト,0
2405,8430003016232,新規,0,2024-04-16,2024-04-16,合同会社ひし丸,,合同会社,北海道,札幌市中央区,北四条西１１丁目３２番１号,,01,101,0600004,,,,,,,2024-04-16,1,,,,,ヒシマル,0
2409,8460003000992,新規,0,2024-04-16,2024-04-16,高橋板金工業合同会社,,合同会社,北海道,釧路郡釧路町,国誉３丁目２８番地,,01,661,0880614,,,,,,,2024-04-16,1,,,,,タカハシバンキンコウギョウ,0
2411,8500001025574,新規,0,2024-04-16,2024-04-16,株式会社ｉＳＡ,,株式会社,愛媛県,四国中央市,金田町金川１３９７番地,,38,213,7990123,,,,,,,2024-04-16,1,,,,,アイサ,0
2413,8500003003223,新規,0,2024-04-16,2024-04-16,合同会社コネクト,,合同会社,愛媛県,松山市,余戸西１丁目１３－３１,,38,201,7900046,,,,,,,2024-04-16,1,,,,,コネクト,0
2415,8700150123828,新規,0,2024-04-16,2024-02-06,大分県スケート連盟,,その他,大分県,別府市,餅ケ浜２－３０,,44,202,8740000,,,,,,,2024-02-06,1,,,,,オオイタケンスケートレンメイ,0
2421,9010001244074,新規,0,2024-04-16,2024-04-16,ＨＣフォース株式会社,,株式会社,東京都,千代田区,霞が関１丁目４番１号,,13,101,1000013,,,,,,,2024-04-16,1,,,,,エッチシーフォース,0
2422,9010001244090,新規,0,2024-04-16,2024-04-16,株式会社さんかくや,,株式会社,東京都,千代田区,神田三崎町３丁目５－９天翔オフィス水道橋８０７,,13,101,1010061,,,,,,,2024-04-16,1,,,,,サンカクヤ,0
2424,9010003043474,新規,0,2024-04-16,2024-04-16,ＪＲＥＦ本庄児玉再エネ発電合同会社,,合同会社,東京都,千代田区,内神田１丁目７番８号,,13,101,1010047,,,,,,,2024-04-16,1,,,,,ジェイアールイーエフホンジョウコダマサイエネハツデン,0
2425,9010003043508,新規,0,2024-04-16,2024-04-16,合同会社礎,,合同会社,東京都,中央区,八丁堀２丁目２５番１０号三信八丁堀ビル７階,,13,102,1040032,,,,,,,2024-04-16,1,,,,,イシズエ,0
2426,9010003043524,新規,0,2024-04-16,2024-04-16,日光Ｐｌｕｓ２２合同会社３,,合同会社,東京都,千代田区,丸の内３丁目１番１号東京共同会計事務所内,,13,101,1000005,,,,,,,2024-04-16,1,,,,,ニッコウプラストゥエンティツーサン,0
2435,9010401181751,新規,0,2024-04-16,2024-04-16,株式会社Ｋ‐Ｂｒｉｄｇｅ,,株式会社,東京都,港区,南青山３丁目１５番９号ＭＩＮＯＷＡ表参道３Ｆ,,13,103,1070062,,,,,,,2024-04-16,1,,,,,ケイブリッジ,0
2436,9010403032151,新規,0,2024-04-16,2024-04-16,エトカンパニー合同会社,,合同会社,東京都,港区,南青山３丁目１番３６号青山丸竹ビル６Ｆ,,13,103,1070062,,,,,,,2024-04-16,1,,,,,エトカンパニー,0
2437,9010403032416,新規,0,2024-04-16,2024-04-16,合同会社１６２３マネジメント,,合同会社,東京都,港区,南青山３丁目８番４０号青山センタービル２階ＴＨＥＨＵＢ南青山,,13,103,1070062,,,,,,,2024-04-16,1,,,,,イチロクニイサンマネジメント,0
2442,9010601065028,新規,0,2024-04-16,2024-04-16,株式会社プライムパートナーズコンサルティング,,株式会社,東京都,江東区,有明２丁目１番３－１６０９号,,13,108,1350063,,,,,,,2024-04-16,1,,,,,プライムパートナーズコンサルティング,0
2462,9011001161284,新規,0,2024-04-16,2024-04-16,株式会社ジャパンライズ,,株式会社,東京都,目黒区,自由が丘２丁目１６番１２号ＲＪ３,,13,110,1520035,,,,,,,2024-04-16,1,,,,,ジャパンライズ,0
2463,9011001161326,新規,0,2024-04-16,2024-04-16,株式会社Ｂｅｙｏｎｄ　Ｊｅｗｅｌ,,株式会社,東京都,目黒区,目黒本町３丁目５－９リブレ１Ｆ,,13,110,1520002,,,,,,,2024-04-16,1,,,,,ビヨンドジュエル,0
2464,9011001161334,新規,0,2024-04-16,2024-04-16,株式会社Ｆｒａｎｃ　ｗｏｒｌｄ,,株式会社,東京都,渋谷区,円山町五丁目５番５号Ｎａｖｉ渋谷Ｖ３階,,13,113,1500044,,,,,,,2024-04-16,1,,,,,フランワールド,0
2465,9011001161375,新規,0,2024-04-16,2024-04-16,株式会社Ｈｙｐｅ　Ｔｈｅ　Ｒｏｃｋ,,株式会社,東京都,渋谷区,神宮前６丁目２３番４号桑野ビル２階,,13,113,1500001,,,,,,,2024-04-16,1,,,,,ハイプザロック,0
2467,9011003018920,新規,0,2024-04-16,2024-04-16,みはなだ合同会社,,合同会社,東京都,目黒区,下目黒１丁目１番１４号コノトラビル７Ｆ,,13,110,1530064,,,,,,,2024-04-16,1,,,,,ミハナダ,0
2468,9011003018929,新規,0,2024-04-16,2024-04-16,合同会社Ｄｉｖｅｓ,,合同会社,東京都,渋谷区,道玄坂２丁目１５番１－５１８号ノア道玄坂,,13,113,1500043,,,,,,,2024-04-16,1,,,,,ディーウェス,0
2473,9011203004365,新規,0,2024-04-16,2024-04-16,合同会社リフトオフ,,合同会社,東京都,中野区,江古田３丁目５番８号,,13,114,1650022,,,,,,,2024-04-16,1,,,,,リフトオフ,0
2475,9011403004347,新規,0,2024-04-16,2024-04-16,合同会社ＭＴＬ,,合同会社,東京都,板橋区,西台１丁目６番７号,,13,119,1740045,,,,,,,2024-04-16,1,,,,,エムティーエル,0
2477,9011603004304,新規,0,2024-04-16,2024-04-16,合同会社ｓｎｏｗ,,合同会社,東京都,練馬区,旭丘２丁目２２番１号ニュー旭ハイツ２０２,,13,120,1760005,,,,,,,2024-04-16,1,,,,,スノー,0
2478,9011605002578,新規,0,2024-04-16,2024-04-16,一般社団法人ＳｃｉＤａｔａ,,その他の設立登記法人,東京都,練馬区,西大泉６丁目１３番８号,,13,120,1780065,,,,,,,2024-04-16,1,,,,,サイデータ,0
2481,9011801044077,新規,0,2024-04-16,2024-04-16,株式会社あやせトーイングサービス,,株式会社,東京都,足立区,綾瀬４丁目２７番１５号,,13,121,1200005,,,,,,,2024-04-16,1,,,,,アヤセトーイングサービス,0
2482,9011801044085,新規,0,2024-04-16,2024-04-16,株式会社Ｊｅｎｉｃｓ,,株式会社,東京都,足立区,千住大川町６－１ライオンズマンション第７－３０５号,,13,121,1200031,,,,,,,2024-04-16,1,,,,,ジェニックス,0
2485,9012401041753,新規,0,2024-04-16,2024-04-16,株式会社ＹＳＫ　ＰＬＵＳ,,株式会社,東京都,小金井市,貫井南町４丁目６番１６号,,13,210,1840014,,,,,,,2024-04-16,1,,,,,ワイエスケイプラス,0
2486,9012401041761,新規,0,2024-04-16,2024-04-16,ｈａｃｋ株式会社,,株式会社,東京都,多摩市,馬引沢２丁目１番地の１７,,13,224,2060023,,,,,,,2024-04-16,1,,,,,ハック,0
2491,9012801023095,新規,0,2024-04-16,2024-04-16,株式会社ｍｉｃｒｏ　ｓａｔｅｌｌｉｔｅｓ,,株式会社,東京都,日野市,日野本町３丁目１１番５号ＩＭビル２０２,,13,212,1910011,,,,,,,2024-04-16,1,,,,,マイクロサテライツ,0
2502,9020001156723,新規,0,2024-04-16,2024-04-16,マリンサービス株式会社,,株式会社,神奈川県,横浜市中区,本牧元町９番８－１号,,14,104,2310822,,,,,,,2024-04-16,1,,,,,マリンサービス,0
2506,9021001081969,新規,0,2024-04-16,2024-04-16,株式会社ＯＭ設備設計,,株式会社,神奈川県,相模原市南区,下溝１３２番地３,,14,153,2520335,,,,,,,2024-04-16,1,,,,,オーエムセツビセッケイ,0
2507,9021001081977,新規,0,2024-04-16,2024-04-16,サントウェル株式会社,,株式会社,神奈川県,大和市,林間２丁目２２番１９号,,14,213,2420003,,,,,,,2024-04-16,1,,,,,サントウェル,0
2508,9021001081985,新規,0,2024-04-16,2024-04-16,Ｓ＆Ｗ株式会社,,株式会社,神奈川県,綾瀬市,小園南１丁目１２番９－１号,,14,218,2521122,,,,,,,2024-04-16,1,,,,,エセンウィズ,0
2509,9021001081993,新規,0,2024-04-16,2024-04-16,ＴＡＴＳＵ工業株式会社,,株式会社,神奈川県,秦野市,戸川４８番地・大秦野工業団地内,,14,211,2591306,,,,,,,2024-04-16,1,,,,,タツコウギョウ,0
2510,9021005013068,新規,0,2024-04-16,2024-04-16,一般社団法人ミャンマーの平和を創る会,,その他の設立登記法人,神奈川県,相模原市南区,南台５丁目１１番１９－９０４号,,14,153,2520314,,,,,,,2024-04-16,1,,,,,ミャンマーノヘイワヲツクルカイ,0
2511,9021005013076,新規,0,2024-04-16,2024-04-16,特定非営利活動法人フリーフード,,その他の設立登記法人,神奈川県,海老名市,国分南１丁目２－１８第８三幸ビル３０１（株）エマスト事務所内,,14,215,2430405,,,,,,,2024-04-16,1,,,,,フリーフード,0
2518,9030001159832,新規,0,2024-04-16,2024-04-16,株式会社ＣＡＲ　ＤＯＣ　ＩＮ杉本,,株式会社,埼玉県,春日部市,内牧４１４２番地４４,,11,214,3440051,,,,,,,2024-04-16,1,,,,,カードックインスギモト,0
2519,9030001159840,新規,0,2024-04-16,2024-04-16,関東パトロール警備保障株式会社,,株式会社,埼玉県,川口市,大字安行原２５５６番地の１２,,11,203,3340057,,,,,,,2024-04-16,1,,,,,カントウパトロールケイビホショウ,0
2520,9030001159857,新規,0,2024-04-16,2024-04-16,ＮＩＧＨＴＷＩＮＧ株式会社,,株式会社,埼玉県,蕨市,北町１丁目１６－１２本田マンション１号棟１０５号,,11,223,3350001,,,,,,,2024-04-16,1,,,,,ナイトウィング,0
2532,9030003024084,新規,0,2024-04-16,2024-04-16,合同会社ヤクシン,,合同会社,埼玉県,熊谷市,小江川１９８１番地１,,11,202,3600103,,,,,,,2024-04-16,1,,,,,ヤクシン,0
2533,9030003024092,新規,0,2024-04-16,2024-04-16,合同会社オカダ,,合同会社,埼玉県,草加市,柿木町６０４番地１,,11,221,3400001,,,,,,,2024-04-16,1,,,,,オカダ,0
2536,9040001133142,新規,0,2024-04-16,2024-04-16,株式会社フロート,,株式会社,千葉県,松戸市,和名ケ谷１２５６番地,,12,207,2702232,,,,,,,2024-04-16,1,,,,,フロート,0
2537,9040001133150,新規,0,2024-04-16,2024-04-16,Ｎｏｒｔｈ　Ｐａｉｎｔｅｘ株式会社,,株式会社,千葉県,市原市,諏訪２丁目７番地５－１０６号,,12,219,2900026,,,,,,,2024-04-16,1,,,,,ノースペインテックス,0
2542,9040003024793,新規,0,2024-04-16,2024-04-16,ＣｒｏｓｓＢ合同会社,,合同会社,千葉県,長生郡長柄町,船木３６０番地１,,12,426,2970207,,,,,,,2024-04-16,1,,,,,クロスビー,0
2548,9050003008291,新規,0,2024-04-16,2024-04-16,合同会社ほのぼのワークス,,合同会社,茨城県,稲敷市,佐倉２６４８－１３,,08,229,3000508,,,,,,,2024-04-16,1,,,,,ホノボノワークス,0
2556,9080401027130,新規,0,2024-04-16,2024-04-16,浜松経営コンサルティング株式会社,,株式会社,静岡県,浜松市中央区,大平台３丁目３４番１８－３０１号ディアレスト大平台,,22,138,4328068,,,,,,,2024-04-16,1,,,,,ハママツケイエイコンサルティング,0
2561,9090001018660,新規,0,2024-04-16,2024-04-16,株式会社ＹＳＭカンパニー,,株式会社,山梨県,甲州市,勝沼町上岩崎５５９番地１,,19,213,4091312,,,,,,,2024-04-16,1,,,,,ワイエスエムカンパニー,0
2563,9090003002547,新規,0,2024-04-16,2024-04-16,合同会社ウィステリア,,合同会社,山梨県,甲府市,下河原町二丁目４０番２号,,19,201,4000068,,,,,,,2024-04-16,1,,,,,ウィステリア,0
2577,9120001264012,新規,0,2024-04-16,2024-04-16,皓成株式会社,,株式会社,大阪府,大阪市港区,市岡元町２丁目６番１１号,,27,107,5520002,,,,,,,2024-04-16,1,,,,,コウセイ,0
2578,9120001264094,新規,0,2024-04-16,2024-04-16,俊一株式会社,,株式会社,大阪府,大阪市住之江区,西加賀屋１丁目２番５６－６１４号,,27,125,5590016,,,,,,,2024-04-16,1,,,,,シュンイチ,0
2580,9120003026352,新規,0,2024-04-16,2024-04-16,ＫＸリニューアブルエナジー合同会社,,合同会社,大阪府,大阪市北区,中之島３丁目６番１６号,,27,127,5300005,,,,,,,2024-04-16,1,,,,,ケイエックスリニューアブルエナジー,0
2581,9120003026369,新規,0,2024-04-16,2024-04-16,合同会社シロタグ,,合同会社,大阪府,大阪市西淀川区,大和田４丁目１３－２１－２０７,,27,113,5550032,,,,,,,2024-04-16,1,,,,,シロタグ,0
2583,9120101069410,新規,0,2024-04-16,2024-04-16,株式会社トラストエムテック,,株式会社,大阪府,和泉市,池田下町１１０３番地の３,,27,219,5940032,,,,,,,2024-04-16,1,,,,,トラストエムテック,0
2584,9120101069419,新規,0,2024-04-16,2024-04-16,株式会社都築ネクスト,,株式会社,大阪府,堺市北区,南花田町５１５番地４,,27,146,5918011,,,,,,,2024-04-16,1,,,,,ツヅキネクスト,0
2585,9120101069427,新規,0,2024-04-16,2024-04-16,株式会社樹電工,,株式会社,大阪府,堺市北区,南花田町２４番地３・３Ｆ,,27,146,5918011,,,,,,,2024-04-16,1,,,,,タツキデンコウ,0
2589,9120903005117,新規,0,2024-04-16,2024-04-16,合同会社エス・ティ‐２７,,合同会社,大阪府,池田市,豊島北１丁目９番２６号,,27,204,5630036,,,,,,,2024-04-16,1,,,,,エスティーニジュウナナ,0
2590,9120905006600,新規,0,2024-04-16,2024-04-16,土地家屋調査士法人竹内事務所,,その他の設立登記法人,大阪府,豊中市,緑丘４丁目３５番１９号グリーンヒル松本１０３,,27,203,5600002,,,,,,,2024-04-16,1,,,,,タケウチジムショ,0
2600,9140001134056,新規,0,2024-04-16,2024-04-16,株式会社ベイクラボ,,株式会社,兵庫県,神戸市中央区,元町通１丁目７番２号,,28,110,6500022,,,,,,,2024-04-16,1,,,,,ベイクラボ,0
2601,9140001134064,新規,0,2024-04-16,2024-04-16,株式会社デーケン,,株式会社,兵庫県,神戸市東灘区,本山北町１丁目１３－１１,,28,101,6580003,,,,,,,2024-04-16,1,,,,,デーケン,0
2602,9140001134122,新規,0,2024-04-16,2024-04-16,株式会社ＤＯテック,,株式会社,兵庫県,神戸市須磨区,高倉台１丁目１４番１４号,,28,107,6540081,,,,,,,2024-04-16,1,,,,,ディーマルテック,0
2605,9140005027041,新規,0,2024-04-16,2024-04-16,一般社団法人サステイン,,その他の設立登記法人,兵庫県,三木市,別所町小林７３４番地の６６８,,28,215,6730434,,,,,,,2024-04-16,1,,,,,サステイン,0
2611,9170003002027,新規,0,2024-04-16,2024-04-16,樹合同会社,,合同会社,和歌山県,和歌山市,明王寺４３２番地２,,30,201,6400305,,,,,,,2024-04-16,1,,,,,キ,0
2627,9180301038523,新規,0,2024-04-16,2024-04-16,株式会社栄光商事,,株式会社,愛知県,豊川市,白鳥町高田３０番地１,,23,207,4420848,,,,,,,2024-04-16,1,,,,,エイコウショウジ,0
2628,9180303006065,新規,0,2024-04-16,2024-04-16,西谷システムズ合同会社,,合同会社,愛知県,豊田市,鴛鴨町下高根１０４番地６,,23,211,4701207,,,,,,,2024-04-16,1,,,,,ニシタニシステムズ,0
2631,9200001042401,新規,0,2024-04-16,2024-04-16,株式会社柿崎建築,,株式会社,岐阜県,高山市,初田町３丁目７５番地１,,21,203,5060008,,,,,,,2024-04-16,1,,,,,カキザキケンチク,0
2634,9220001025940,新規,0,2024-04-16,2024-04-16,株式会社キースト,,株式会社,石川県,金沢市,大桑１丁目２４５番地,,17,201,9218045,,,,,,,2024-04-16,1,,,,,キースト,0
2635,9230005009385,新規,0,2024-04-16,2024-04-16,医療法人麗愛会,,その他の設立登記法人,富山県,富山市,太郎丸本町１丁目４番地９,,16,201,9398272,,,,,,,2024-04-16,1,,,,,レイアカイ,0
2645,9260001038971,新規,0,2024-04-16,2024-04-16,ＡＦＳ株式会社,,株式会社,岡山県,瀬戸内市,長船町西須恵１１７８番地２,,33,212,7014263,,,,,,,2024-04-16,1,,,,,エイエフエス,0
2653,9290001105348,新規,0,2024-04-16,2024-04-16,株式会社ＲＥＧＡＲＥＡ,,株式会社,福岡県,福岡市中央区,舞鶴３丁目８－６ＢＲＡＲＯＣＫ．ｍａｉｄｕｒｕ１階,,40,133,8100073,,,,,,,2024-04-16,1,,,,,レガリア,0
2654,9290001105356,新規,0,2024-04-16,2024-04-16,株式会社Ｔｅｒｒｅ一級建築士事務所,,株式会社,福岡県,久留米市,東櫛原町２２０４番地２プリマヴェーラ花の木弐番館２０２号,00134432,40,203,8300003,,,,,,,2024-04-16,1,,,,,テールイッキュウケンチクシジムショ,0
2655,9290001105372,新規,0,2024-04-16,2024-04-16,株式会社ダイヤモンドキャッスル,,株式会社,福岡県,福岡市中央区,天神２丁目６番１４号ゆきざきビル,,40,133,8100001,,,,,,,2024-04-16,1,,,,,ダイヤモンドキャッスル,0
2656,9290001105380,新規,0,2024-04-16,2024-04-16,株式会社メイクリング,,株式会社,福岡県,福岡市南区,大楠１丁目３番２９号,,40,134,8150082,,,,,,,2024-04-16,1,,,,,メイクリング,0
2657,9290001105389,新規,0,2024-04-16,2024-04-16,株式会社Ｓｕｐｒｅｍｅ　Ｅｓｓａｙ,,株式会社,福岡県,福岡市博多区,千代１丁目２１番２１号イーストパーク２１・２０３号,,40,132,8120044,,,,,,,2024-04-16,1,,,,,スプリームエッセイ,0
2658,9290001105422,新規,0,2024-04-16,2024-04-16,スターライト株式会社,,株式会社,福岡県,福岡市中央区,大名２丁目６－５０福岡大名ガーデンシティ８Ｆ,,40,133,8100041,,,,,,,2024-04-16,1,,,,,スターライト,0
2663,9300001013697,新規,0,2024-04-16,2024-04-16,インゼル株式会社,,株式会社,佐賀県,佐賀市,栄町２番８号さかえヤマトビル２Ｆ,,41,201,8400803,,,,,,,2024-04-16,1,,,,,インゼル,0
2665,9310003004776,新規,0,2024-04-16,2024-04-16,合同会社リバイブ,,合同会社,長崎県,長崎市,中園町１４番６号１階,,42,201,8528155,,,,,,,2024-04-16,1,,,,,リバイブ,0
2679,9360003013905,新規,0,2024-04-16,2024-04-16,合同会社琉球王国工房,,合同会社,沖縄県,浦添市,伊祖５丁目３－１コーポ茂正３０１号,,47,208,9012132,,,,,,,2024-04-16,1,,,,,リュウキュウオウコクオウボウ,0
2680,9370001051187,新規,0,2024-04-16,2024-04-16,株式会社リンユー,,株式会社,宮城県,仙台市宮城野区,鶴ケ谷東３丁目８番１９号,,04,102,9830826,,,,,,,2024-04-16,1,,,,,リンユー,0
2685,9380001034455,新規,0,2024-04-16,2024-04-16,株式会社曉,,株式会社,福島県,南相馬市,原町区北原字前山１７７－１０,,07,212,9750037,,,,,,,2024-04-16,1,,,,,アカツキ,0
2686,9380005012820,新規,0,2024-04-16,2024-04-16,一般社団法人ＦＭＩＣ,,その他の設立登記法人,福島県,伊達市,保原町字中村町４８番地５,,07,213,9600621,,,,,,,2024-04-16,1,,,,,エフエムアイシー,0
2689,9420005007898,新規,0,2024-04-16,2024-04-16,一般社団法人青森県専門工事業担い手確保推進協議会,,その他の設立登記法人,青森県,青森市,大字駒込字桐ノ沢１１０番地,,02,201,0300955,,,,,,,2024-04-16,1,,,,,アオモリケンセンモンコウジギョウニナイテカクホスイシンキョウギカイ,0
2695,9430003016207,新規,0,2024-04-16,2024-04-16,合同会社ＪＳＩ,,合同会社,北海道,札幌市豊平区,豊平四条２丁目２番１－１５０７号,,01,105,0620904,,,,,,,2024-04-16,1,,,,,ジェイエスアイ,0
2701,9450005004406,新規,0,2024-04-16,2024-04-16,一般社団法人いちごの郷,,その他の設立登記法人,北海道,旭川市,神居八条３丁目２番１８号コーポラスかいじ１０２,,01,204,0708018,,,,,,,2024-04-16,1,,,,,イチゴノサト,0
2703,9470003002624,新規,0,2024-04-16,2024-04-16,合同会社フォーシーズンズ,,合同会社,香川県,仲多度郡多度津町,大字道福寺５７０番地１,,37,404,7640027,,,,,,,2024-04-16,1,,,,,フォーシーズンズ,0
2705,9500001025573,新規,0,2024-04-16,2024-04-16,株式会社石匠桜水,,株式会社,愛媛県,越智郡上島町,生名４０３番地,,38,356,7942550,,,,,,,2024-04-16,1,,,,,セキショウオウスイ,0
2707,9700150124635,新規,0,2024-04-16,2024-03-28,三重県農林水産物・食品輸出促進協議会,,その他,三重県,津市,広明町１３番地雇用経済部　県産品振興課,,24,201,5140006,,,,,,,2024-03-28,1,,,,,ミエケンノウリンスイサンブツシヨクヒンユシユツソクシンキヨウギカイ,0
2708,9700150124866,新規,0,2024-04-16,2024-04-16,うつのみや西部土地改良区,,その他,栃木県,宇都宮市,下荒針町２２５２－１,,09,201,3210346,,,,,,,2024-04-16,1,,,,,ウツノミヤセイブトチカイリョウク,0
