sequenceNumber,corporateNumber,process,correct,updateDate,changeDate,name,nameImageId,kind,prefectureName,cityName,streetNumber,addressImageId,prefectureCode,cityCode,postCode,addressOutside,addressOutsideImageId,closeDate,closeCause,successorCorporateNumber,changeCause,assignmentDate,latest,enName,enPrefectureName,enCityName,enAddressOutside,furigana,hihyoji
2,1010001058119,登記記録の閉鎖等,0,2022-06-09,2022-06-01,株式会社三義ビルメンテナンス,,株式会社,東京都,中央区,日本橋３丁目５番１３号,,13,102,1030027,,,2022-06-01,合併による解散等,4010001036781,令和４年６月１日東京都中央区日本橋三丁目５番１３号株式会社岩佐鉄工所（4010001036781）に合併し解散,2015-10-05,1,,,,,ミツヨシビルメンテナンス,0
24,1010401115741,登記記録の閉鎖等,0,2022-06-09,2022-05-25,ウィルメディアデザイン株式会社,,株式会社,東京都,港区,新橋２丁目１２番１号,,13,103,1050004,,,2022-05-25,清算の結了等,,,2015-10-05,1,,,,,ウィルメディアデザイン,0
66,1011601021713,登記記録の閉鎖等,0,2022-06-09,2022-06-07,株式会社デジタルプラネット,,株式会社,東京都,練馬区,小竹町２丁目６１番８号,,13,120,1760004,,,2022-06-07,清算の結了等,,,2017-04-21,1,,,,,デジタルプラネット,0
78,1020001046279,登記記録の閉鎖等,0,2022-06-09,2022-06-03,株式会社プロス・インターナショナル,,株式会社,神奈川県,横浜市神奈川区,神大寺２丁目２０番８号,,14,102,2210801,,,2022-06-03,清算の結了等,,,2015-10-05,1,,,,,プロスインターナショナル,0
86,1021001021354,登記記録の閉鎖等,0,2022-06-09,2022-06-06,株式会社神奈川システム,,株式会社,神奈川県,厚木市,旭町３丁目１２番３号,,14,212,2430014,,,2022-06-06,清算の結了等,,,2015-10-05,1,,,,,カナガワシステム,0
90,1021002060681,登記記録の閉鎖等,0,2022-06-09,2022-06-06,有限会社ジィー・エム建商,,有限会社,神奈川県,伊勢原市,笠窪４６１番地の９,,14,214,2591137,,,2022-06-06,清算の結了等,,,2015-10-05,1,,,,,ジィーエムケンショウ,0
115,1080402018045,登記記録の閉鎖等,0,2022-06-09,2022-06-03,有限会社静岡温水器サービス,,有限会社,静岡県,掛川市,横須賀１４５４番地の２,,22,213,4371301,,,2022-06-03,清算の結了等,,,2015-10-05,1,,,,,シズオカオンスイキサービス,0
118,1100002038515,登記記録の閉鎖等,0,2022-06-09,2022-06-03,有限会社大野屋商店,,有限会社,長野県,下伊那郡阿南町,新野２０３４番地,,20,404,3991612,,,2022-06-03,清算の結了等,,,2015-10-05,1,,,,,オオノヤショウテン,0
125,1120001058132,登記記録の閉鎖等,0,2022-06-09,2022-06-06,株式会社藤元,,株式会社,大阪府,大阪市淀川区,新北野２丁目１２番２０号,,27,123,5320025,,,2022-06-06,清算の結了等,,,2015-10-05,1,,,,,フジモト,0
126,1120001130403,登記記録の閉鎖等,0,2022-06-09,2022-06-06,株式会社ナイス,,株式会社,大阪府,大阪市生野区,巽南５丁目１４番２号,,27,116,5440015,,,2022-06-06,清算の結了等,,,2015-10-05,1,,,,,ナイス,0
137,1120002073015,登記記録の閉鎖等,0,2022-06-09,2022-06-01,有限会社プレスプレート,,有限会社,大阪府,寝屋川市,出雲町１３番５号,,27,215,5720821,,,2022-06-01,合併による解散等,3120001148419,令和４年６月１日大阪府寝屋川市出雲町１３番５号日本鏡鈑株式会社（3120001148419）に合併し解散,2015-10-05,1,,,,,プレスプレート,0
138,1120002077536,登記記録の閉鎖等,0,2022-06-09,2022-06-08,有限会社ワダ商運,,有限会社,大阪府,寝屋川市,田井西町２番７号,,27,215,5720020,,,2022-06-08,清算の結了等,,,2015-10-05,1,,,,,ワダショウウン,0
177,1180003009581,登記記録の閉鎖等,0,2022-06-09,2022-06-06,合同会社Ｓアシスト,,合同会社,愛知県,名古屋市守山区,小幡中１丁目１５番１６号,,23,113,4630013,,,2022-06-06,清算の結了等,,,2015-10-05,1,,,,,エスアシスト,0
182,1180301025124,登記記録の閉鎖等,0,2022-06-09,2022-06-01,株式会社サンキュー・ウエスト,,株式会社,愛知県,豊橋市,菰口町３丁目８番地,,23,201,4418011,,,2022-06-01,合併による解散等,2180302011675,令和４年６月１日愛知県豊橋市菰口町三丁目８番地株式会社サンキューカット東海（2180302011675）に合併し解散,2015-10-05,1,,,,,サンキューウエスト,0
189,1210002012302,登記記録の閉鎖等,0,2022-06-09,2022-06-03,有限会社ハヤシ,,有限会社,福井県,丹生郡越前町,織田第１７号１２番地の１,,18,423,9160215,,,2022-06-03,清算の結了等,,,2015-10-05,1,,,,,ハヤシ,0
212,1290001010084,登記記録の閉鎖等,0,2022-06-09,2022-06-01,株式会社福新楼,,株式会社,福岡県,福岡市中央区,今泉１丁目１７番８号,,40,133,8100021,,,2022-06-01,合併による解散等,4290002010717,令和４年６月１日福岡市中央区今泉一丁目１７番８号株式会社福新楼（4290002010717）に合併し解散,2015-10-05,1,,,,,フクシンロウ,0
227,1290802026270,登記記録の閉鎖等,0,2022-06-09,2022-06-07,有限会社津田建設,,有限会社,福岡県,北九州市若松区,原町３番１４号,,40,103,8080016,,,2022-06-07,清算の結了等,,,2022-05-30,1,,,,,ツダケンセツ,0
236,1320002006020,登記記録の閉鎖等,0,2022-06-09,2022-06-07,有限会社プレキャストアナン,,有限会社,大分県,大分市,大字森９８３番地の２０,,44,201,8700128,,,2022-06-07,清算の結了等,,,2015-10-05,1,,,,,プレキャストアナン,0
242,1380002006122,登記記録の閉鎖等,0,2022-06-09,2022-06-02,有限会社一條,,有限会社,福島県,伊達市,保原町字将監４番地の３,,07,213,9600637,,,2022-06-02,清算の結了等,,,2015-10-05,1,,,,,イチジョウ,0
248,1500002017437,登記記録の閉鎖等,0,2022-06-09,2022-06-03,有限会社藤設備,00008111,有限会社,愛媛県,新居浜市,中村松木１丁目１番３９号,,38,205,7920041,,,2022-06-03,清算の結了等,,,2015-10-05,1,,,,,フジセツビ,0
254,2010001115694,登記記録の閉鎖等,0,2022-06-09,2022-06-01,フェニクシスマネージメント株式会社,,株式会社,東京都,千代田区,神田錦町２丁目５番１６号,,13,101,1010054,,,2022-06-01,合併による解散等,1010001094543,令和４年６月１日東京都千代田区神田錦町二丁目５番１６号株式会社ホスピタリティオペレーションズ（1010001094543）に合併し解散,2015-10-05,1,,,,,フェニクシスマネージメント,0
256,2010001198979,登記記録の閉鎖等,0,2022-06-09,2022-06-01,株式会社医療,,株式会社,東京都,中央区,銀座５丁目８番２０号銀座コア８Ｆ医療法人メディア銀座コア歯科矯正クリニック,,13,102,1040061,,,2022-06-01,清算の結了等,,,2019-03-07,1,,,,,イリョウ,0
261,2010401002807,登記記録の閉鎖等,0,2022-06-09,2022-05-25,株式会社インタークエスト,,株式会社,東京都,港区,南青山３丁目３番１６号,,13,103,1070062,,,2022-05-25,清算の結了等,,,2015-10-05,1,,,,,インタークエスト,0
276,2011001023623,登記記録の閉鎖等,0,2022-06-09,2022-06-06,株式会社山城デザイン,,株式会社,東京都,渋谷区,千駄ヶ谷３丁目２５番７号,,13,113,1510051,,,2022-06-06,清算の結了等,,,2015-10-05,1,,,,,ヤマシロデザイン,0
304,2011801033524,登記記録の閉鎖等,0,2022-06-09,2022-05-17,株式会社Ｅｄｙ,,株式会社,東京都,千代田区,内神田２丁目９番地９号Ｂ１Ｆ,,13,101,1010047,,,2022-05-17,清算の結了等,,,2017-07-03,1,,,,,エディ,0
307,2012402019796,登記記録の閉鎖等,0,2022-06-09,2022-06-02,有限会社ミニ・メディア,,有限会社,東京都,三鷹市,下連雀３丁目３２番１９－１００３号,,13,204,1810013,,,2022-06-02,清算の結了等,,,2015-10-05,1,,,,,ミニメディア,0
322,2020002064634,登記記録の閉鎖等,0,2022-06-09,2022-06-01,有限会社ワイ・エイチ商事,,有限会社,神奈川県,横浜市金沢区,釜利谷東３丁目４番３６－７０１号,,14,108,2360042,,,2022-06-01,合併による解散等,5020002053064,令和４年６月１日横浜市金沢区釜利谷東四丁目２番４１号株式会社ハギワラ（5020002053064）に合併し解散,2015-10-05,1,,,,,ワイエイチショウジ,0
385,2120001218544,登記記録の閉鎖等,0,2022-06-09,2022-06-07,株式会社Ｂｅｌｉｅｆ,,株式会社,大阪府,大阪市中央区,南船場１丁目１１－２３,,27,128,5420081,,,2022-06-07,清算の結了等,,,2019-01-25,1,,,,,ビリーフ,0
415,2140005011142,登記記録の閉鎖等,0,2022-06-09,2022-05-17,天理教本尼崎分教会,,その他の設立登記法人,兵庫県,尼崎市,久々知３丁目１６番１２号,,28,202,6610977,,,2022-05-17,合併による解散等,6140005001362,令和４年５月１７日神戸市中央区割塚通二丁目２番４号天理教本陽分教会（6140005001362）に合併し解散,2015-10-05,1,,,,,,0
423,2180001125297,登記記録の閉鎖等,0,2022-06-09,2022-06-06,株式会社ビッグポンド,,株式会社,愛知県,名古屋市西区,上名古屋４丁目７番１２号,,23,104,4510025,,,2022-06-06,合併による解散等,1180001024938,令和４年３月１日名古屋市西区上名古屋四丁目７番１２号株式会社プラスエム（1180001024938）に合併し解散,2016-10-27,1,,,,,ビッグポンド,0
433,2180302001057,登記記録の閉鎖等,0,2022-06-09,2022-06-03,有限会社ケーセレクション,,有限会社,愛知県,岡崎市,稲熊町字２丁目９９番地１,,23,202,4440071,,,2022-06-03,清算の結了等,,,2015-10-05,1,,,,,,0
438,2200001009605,登記記録の閉鎖等,0,2022-06-09,2022-06-07,株式会社ＥＣＯプラン,,株式会社,岐阜県,各務原市,那加石山町２丁目４８番地,,21,213,5040044,,,2022-06-07,清算の結了等,,,2015-10-05,1,,,,,エコプラン,0
447,2260001016694,登記記録の閉鎖等,0,2022-06-09,2022-06-06,朝日新聞倉敷販売株式会社,,株式会社,岡山県,倉敷市,老松町４丁目９番２３号,,33,202,7100826,,,2022-06-06,清算の結了等,,,2015-10-05,1,,,,,アサヒシンブンクラシキハンバイ,0
473,2340001000384,登記記録の閉鎖等,0,2022-06-09,2022-06-08,有満製茶株式会社,,株式会社,鹿児島県,鹿児島市,上福元町３８６６番地３,,46,201,8910116,,,2022-06-08,清算の結了等,,,2015-10-05,1,,,,,,0
484,2370002016674,登記記録の閉鎖等,0,2022-06-09,2022-06-01,有限会社カワチ建機,,有限会社,宮城県,仙台市青葉区,錦ケ丘６丁目８番地の４,,04,101,9893123,,,2022-06-01,清算の結了等,,,2015-10-05,1,,,,,カワチケンキ,0
488,2380001029081,登記記録の閉鎖等,0,2022-06-09,2022-06-02,ササキファーム株式会社,,株式会社,福島県,南相馬市,原町区益田字仲山１７番地,,07,212,9750053,,,2022-06-02,清算の結了等,,,2018-05-02,1,,,,,ササキファーム,0
494,2430001034150,登記記録の閉鎖等,0,2022-06-09,2022-05-11,株式会社賃貸管理ニックス,,株式会社,北海道,札幌市白石区,米里四条１丁目６番３０号,,01,104,0030874,,,2022-05-11,合併による解散等,5430002042538,令和４年５月１日札幌市白石区米里四条一丁目６番３０号株式会社ニックス（5430002042538）と合併し解散,2015-10-05,1,,,,,チンタイカンリニックス,0
495,2430001038028,登記記録の閉鎖等,0,2022-06-09,2022-06-06,ダンクアンドリンク株式会社,,株式会社,北海道,札幌市中央区,北五条西２４丁目３番１,,01,101,0600005,,,2022-06-06,清算の結了等,,,2015-10-05,1,,,,,ダンクアンドリンク,0
497,2460102005907,登記記録の閉鎖等,0,2022-06-09,2022-06-02,有限会社永光,,有限会社,北海道,上川郡新得町,字上佐幌西１線１７番地,,01,635,0810035,,,2022-06-02,清算の結了等,,,2015-10-05,1,,,,,エイコウ,0
525,3010005009504,登記記録の閉鎖等,0,2022-06-09,2022-06-03,特定非営利活動法人ライフ・ベンチャー・クラブ,,その他の設立登記法人,東京都,中央区,八重洲１丁目７番２０号,,13,102,1030028,,,2022-06-03,清算の結了等,,,2015-10-05,1,,,,,ライフベンチャークラブ,0
528,3010401051860,登記記録の閉鎖等,0,2022-06-09,2022-06-01,株式会社三菱ケミカルホールディングスコーポレートスタッフ,,株式会社,東京都,千代田区,丸の内１丁目１番１号,,13,101,1000005,,,2022-06-01,合併による解散等,8010401059206,令和４年６月１日東京都千代田区丸の内一丁目１番１号株式会社三菱ケミカルホールディングス（8010401059206）に合併し解散,2015-10-05,1,,,,,ミツビシケミカルホールディングスコーポレートスタッフ,0
530,3010401137973,登記記録の閉鎖等,0,2022-06-09,2022-05-16,株式会社トータル,,株式会社,東京都,港区,赤坂４丁目１５番１号,,13,103,1070052,,,2022-05-16,合併による解散等,6010401053755,令和４年４月３０日東京都港区赤坂四丁目１５番１号株式会社アンティル（6010401053755）に合併し解散,2018-04-19,1,,,,,トータル,0
573,3012402011595,登記記録の閉鎖等,0,2022-06-09,2022-06-03,有限会社そえだ工藝社,,有限会社,東京都,調布市,多摩川７丁目１８番２号,,13,208,1820025,,,2022-06-03,清算の結了等,,,2015-10-05,1,,,,,ソエダコウゲイシャ,0
575,3013202002710,登記記録の閉鎖等,0,2022-06-09,2022-05-26,有限会社佐伯製作所,,有限会社,東京都,目黒区,中央町２丁目３６番８号,,13,110,1520001,,,2022-05-26,清算の結了等,,,2015-10-05,1,,,,,サエキセイサクショ,0
578,3020001019035,登記記録の閉鎖等,0,2022-06-09,2022-06-06,八代電機株式会社,,株式会社,神奈川県,横浜市鶴見区,市場上町１番１８号,,14,101,2300021,,,2022-06-06,清算の結了等,,,2015-10-05,1,,,,,ヤシロデンキ,0
590,3020005009734,登記記録の閉鎖等,0,2022-06-09,2022-06-03,特定非営利活動法人ひきこもりハローワーク,,その他の設立登記法人,神奈川県,横浜市中区,本牧十二天３番地１０美商ビル,,14,104,2310803,,,2022-06-03,清算の結了等,,,2015-10-05,1,,,,,ヒキコモリハローワーク,0
598,3030001051400,登記記録の閉鎖等,0,2022-06-09,2022-06-02,株式会社ビッグバン,,株式会社,埼玉県,春日部市,藤塚２３７２番地８,,11,214,3440011,,,2022-06-02,清算の結了等,,,2015-10-05,1,,,,,ビッグバン,0
599,3030001090745,登記記録の閉鎖等,0,2022-06-09,2022-06-01,株式会社サンセイ,,株式会社,埼玉県,秩父市,中宮地町２９番２１号,,11,207,3680022,,,2022-06-01,合併による解散等,2030001090655,令和４年６月１日埼玉県秩父市荒川上田野１４０２番地サンセイ磯田建設株式会社（2030001090655）に合併し解散,2015-10-05,1,,,,,サンセイ,0
615,3040002045961,登記記録の閉鎖等,0,2022-06-09,2022-06-01,有限会社佐久間設備,,有限会社,千葉県,松戸市,古ケ崎４丁目３５５５番地の４,,12,207,2710068,,,2022-06-01,清算の結了等,,,2015-10-05,1,,,,,サクマセツビ,0
634,3080102020596,登記記録の閉鎖等,0,2022-06-09,2022-06-07,有限会社武藤設備,,有限会社,静岡県,伊東市,玖須美元和田７２７番地の６７９,,22,208,4140045,,,2022-06-07,清算の結了等,,,2015-10-05,1,,,,,ムトウセツビ,0
666,3120005000468,登記記録の閉鎖等,0,2022-06-09,2022-05-23,天理教本陽住分教会,,その他の設立登記法人,大阪府,大阪市阿倍野区,昭和町１丁目１８番３号,,27,119,5450011,,,2022-05-23,合併による解散等,6140005001362,令和４年５月１７日神戸市中央区割塚通二丁目２番４号天理教本陽分教会（6140005001362）に合併し解散,2015-10-05,1,,,,,,0
669,3120901037893,登記記録の閉鎖等,0,2022-06-09,2022-05-20,株式会社エイチエフ,,株式会社,大阪府,豊中市,春日町４丁目５番２２号,,27,203,5600052,,,2022-05-20,合併による解散等,5140001082894,令和４年５月１日兵庫県宝塚市逆瀬川一丁目１番１－７０６号株式会社ＭＥＴＡＬＥＸ（5140001082894）に合併し解散,2017-01-12,1,,,,,,0
695,3140005001209,登記記録の閉鎖等,0,2022-06-09,2022-05-13,天理教西郷分教会,,その他の設立登記法人,兵庫県,神戸市灘区,備後町２丁目１番２８号,,28,102,6570037,,,2022-05-13,合併による解散等,9140005001129,令和４年５月１３日神戸市垂水区千鳥ケ丘三丁目２番６号天理教天浦分教会（9140005001129）に合併し解散,2015-10-05,1,,,,,テンリキョウニシゴウブンキョウカイ,0
696,3140005001274,登記記録の閉鎖等,0,2022-06-09,2022-05-13,天理教大櫃分教会,,その他の設立登記法人,兵庫県,神戸市北区,唐櫃台２丁目４４番１号,,28,109,6511332,,,2022-05-13,合併による解散等,4140005001125,令和４年５月１３日神戸市北区有馬町１１５０番地天理教有馬町分教会（4140005001125）に合併し解散,2015-10-05,1,,,,,テンリキョウオオヒツブンキョウカイ,0
697,3140005010432,登記記録の閉鎖等,0,2022-06-09,2022-05-23,天理教神明陽分教會,00042244,その他の設立登記法人,兵庫県,養父市,大屋町明延１２４９番地,,28,222,6670436,,,2022-05-23,合併による解散等,2140005006266,令和４年５月２３日兵庫県三木市吉川町鍛治屋６番地の１天理教中吉川分教会（2140005006266）に合併し解散,2015-10-05,1,,,,,テンリキョウシンメイヨウブンキョウカイ,0
699,3140005018566,登記記録の閉鎖等,0,2022-06-09,2022-06-03,特定非営利活動法人多太神社の森を守る会,,その他の設立登記法人,兵庫県,川西市,南花屋敷４丁目２番１７号,,28,217,6660026,,,2022-06-03,清算の結了等,,,2015-10-05,1,,,,,タフトジンジャノモリヲマモルカイ,0
712,3190002001966,登記記録の閉鎖等,0,2022-06-09,2022-06-02,ヒカリ商事有限会社,,有限会社,三重県,津市,久居藤ヶ丘町２６５６番地５９,,24,201,5141102,,,2022-06-02,清算の結了等,,,2015-10-05,1,,,,,ヒカリショウジ,0
739,3290801024447,登記記録の閉鎖等,0,2022-06-09,2022-06-08,株式会社八,,株式会社,福岡県,北九州市小倉北区,木町３丁目１２番６号,,40,106,8030851,,,2022-06-08,清算の結了等,,,2018-03-23,1,,,,,ハチ,0
741,3290802007475,登記記録の閉鎖等,0,2022-06-09,2022-06-06,有限会社ハートフルケアサービス,,有限会社,福岡県,北九州市小倉北区,真鶴２丁目９番２０号,,40,106,8030844,,,2022-06-06,清算の結了等,,,2015-10-05,1,,,,,ハートフルケアサービス,0
755,3360003003102,登記記録の閉鎖等,0,2022-06-09,2022-05-30,合名会社観光旅館石川園,,合名会社,沖縄県,うるま市,石川２２８２番地,,47,213,9041106,,,2022-05-30,清算の結了等,,,2015-10-05,1,,,,,カンコウリョカンイシカワエン,0
771,3420002009531,登記記録の閉鎖等,0,2022-06-09,2022-06-03,有限会社南建築,,有限会社,青森県,三戸郡階上町,大字道仏字榊平５番地３２,00087637,02,446,0391201,,,2022-06-03,清算の結了等,,,2015-10-05,1,,,,,ミナミケンチク,0
861,4013301013418,登記記録の閉鎖等,0,2022-06-09,2022-06-06,株式会社長崎組,,株式会社,東京都,豊島区,池袋４丁目１１番１３号,,13,116,1710014,,,2022-06-06,清算の結了等,,,2015-10-05,1,,,,,ナガサキグミ,0
869,4020002062058,登記記録の閉鎖等,0,2022-06-09,2022-06-01,有限会社トエンティワン,,有限会社,東京都,中央区,築地５丁目４番１９号ジュエル浜離宮９０６号,,13,102,1040045,,,2022-06-01,合併による解散等,3010001103467,令和４年６月１日東京都中央区築地五丁目４番１９号ジュエル浜離宮９０６号株式会社ビルリー（3010001103467）に合併し解散,2015-10-05,1,,,,,トエンティワン,0
880,4021002038270,登記記録の閉鎖等,0,2022-06-09,2022-06-06,有限会社東邦システム研究所,,有限会社,神奈川県,厚木市,戸室５丁目２１番１－３０３号,,14,212,2430031,,,2022-06-06,清算の結了等,,,2015-10-05,1,,,,,トウホウシステムケンキュウジョ,0
889,4030002095908,登記記録の閉鎖等,0,2022-06-09,2022-06-02,有限会社四季亭,,有限会社,埼玉県,東松山市,大字上唐子１５６７番地１,,11,212,3550077,,,2022-06-02,清算の結了等,,,2015-10-05,1,,,,,シキテイ,0
894,4030003013141,登記記録の閉鎖等,0,2022-06-09,2022-06-01,合同会社ｓｉｒｉ－ｕｓ,,合同会社,埼玉県,上尾市,浅間台１丁目９番地２パルテール・トリア１０３,,11,219,3620073,,,2022-06-01,清算の結了等,,,2019-02-25,1,,,,,シリウス,0
895,4030003015253,登記記録の閉鎖等,0,2022-06-09,2022-06-02,エイトサービス合同会社,,合同会社,埼玉県,さいたま市桜区,道場３丁目５－１浦和秋ヶ瀬ハイツ６０４,,11,106,3380835,,,2022-06-02,清算の結了等,,,2020-05-13,1,,,,,エイトサービス,0
898,4040001036151,登記記録の閉鎖等,0,2022-06-09,2022-06-01,ちば物産株式会社,,株式会社,千葉県,松戸市,金ケ作４０８番地の３２８,,12,207,2702251,,,2022-06-01,清算の結了等,,,2015-10-05,1,,,,,チバブッサン,0
905,4050005012453,登記記録の閉鎖等,0,2022-06-09,2022-06-01,一般社団法人ベンチャーシップスポート,,その他の設立登記法人,茨城県,取手市,寺田５２７０,,08,217,3020021,,,2022-06-01,清算の結了等,,,2019-03-08,1,,,,,ベンチャーシップスポート,0
909,4070001010541,登記記録の閉鎖等,0,2022-06-09,2022-06-01,株式会社スタジオアイプ,,株式会社,群馬県,高崎市,島野町２１２番地１,,10,202,3700015,,,2022-06-01,合併による解散等,5070001005581,令和４年６月１日群馬県前橋市広瀬町三丁目２番地１５株式会社ステッチ（5070001005581）に合併し解散,2015-10-05,1,,,,,スタジオアイプ,0
917,4080102013327,登記記録の閉鎖等,0,2022-06-09,2022-06-07,有限会社いち組,,有限会社,静岡県,富士市,伝法六人新田１３３９番地の２,,22,210,4170061,,,2022-06-07,清算の結了等,,,2015-10-05,1,,,,,イチグミ,0
951,4120103003512,登記記録の閉鎖等,0,2022-06-09,2022-06-07,ＰＡＸ　Ｃａｐｉｔａｌ合同会社,,合同会社,大阪府,堺市堺区,市之町東４丁２番１７号堺合同ビル,,27,141,5900952,,,2022-06-07,清算の結了等,,,2019-11-12,1,,,,,パックスキャピタル,0
965,4140001005435,登記記録の閉鎖等,0,2022-06-09,2022-06-01,株式会社森生産業,,株式会社,兵庫県,神戸市西区,森友５丁目８１番地の２,,28,111,6512132,,,2022-06-01,合併による解散等,7140001005440,令和４年５月３１日神戸市西区森友五丁目８１番地の２株式会社森吉商事（7140001005440）に合併し解散,2015-10-05,1,,,,,シンセイサンギョウ,0
971,4140002029722,登記記録の閉鎖等,0,2022-06-09,2022-06-03,有限会社松井自動車,,有限会社,兵庫県,明石市,貴崎５丁目１番２９号,,28,203,6730037,,,2022-06-03,清算の結了等,,,2015-10-05,1,,,,,マツイジドウシャ,0
984,4180001139444,登記記録の閉鎖等,0,2022-06-09,2022-06-06,株式会社福富,,株式会社,愛知県,名古屋市南区,前浜通６丁目６８番地,,23,112,4570058,,,2022-06-06,清算の結了等,,,2020-01-10,1,,,,,フクトミ,0
993,4190002012839,登記記録の閉鎖等,0,2022-06-09,2022-06-06,有限会社学舎,,有限会社,三重県,伊賀市,上野西大手町３６９３番地の２,,24,216,5180878,,,2022-06-06,清算の結了等,,,2015-10-05,1,,,,,マナビヤ,0
1046,4380001025161,登記記録の閉鎖等,0,2022-06-09,2022-06-03,株式会社バージョンエイト,,株式会社,宮城県,仙台市太白区,あすと長町１丁目５番４２,,04,104,9820007,,,2022-06-03,清算の結了等,,,2015-10-05,1,,,,,バージョンエイト,0
1050,4390001009634,登記記録の閉鎖等,0,2022-06-09,2022-06-01,ＳＷＥＥＴホーム株式会社,,株式会社,山形県,東根市,さくらんぼ駅前１丁目１０番１１号クラフト１１２号室,,06,211,9993720,,,2022-06-01,合併による解散等,5390002012355,令和４年６月１日山形県東根市一本木二丁目４番１８号ホウトクＨＯＵＳＥ株式会社（5390002012355）に合併し解散,2015-10-05,1,,,,,スウィートホーム,0
1060,4450001007664,登記記録の閉鎖等,0,2022-06-09,2022-06-08,丸テイ田中建設株式会社,,株式会社,北海道,士別市,大通東１丁目１６０２番地,,01,220,0950019,,,2022-06-08,清算の結了等,,,2015-10-05,1,,,,,マルテイタナカケンセツ,0
1067,4480002008394,登記記録の閉鎖等,0,2022-06-09,2022-06-07,有限会社ＡＣＢ,,有限会社,徳島県,徳島市,津田町３丁目１番２６号,,36,201,7708002,,,2022-06-07,清算の結了等,,,2015-10-05,1,,,,,アシベ,0
1083,5010001159235,登記記録の閉鎖等,0,2022-06-09,2022-06-01,株式会社ＷＩＡ　Ｌａｂ,,株式会社,東京都,文京区,弥生２丁目１２番３号３Ｆ,,13,105,1130032,,,2022-06-01,清算の結了等,,,2015-10-05,1,,,,,ウィアラボ,0
1105,5011001126877,登記記録の閉鎖等,0,2022-06-09,2022-05-27,株式会社ビズボット,,株式会社,東京都,渋谷区,宇田川町４０番１号,,13,113,1500042,,,2022-05-27,清算の結了等,,,2019-03-06,1,,,,,ビズボット,0
1150,5020005006531,登記記録の閉鎖等,0,2022-06-09,2022-06-03,特定非営利活動法人ショップデザインラボ,,その他の設立登記法人,神奈川県,横浜市青葉区,若草台２番地６２,,14,117,2270045,,,2022-06-03,清算の結了等,,,2015-10-05,1,,,,,ショップデザインラボ,0
1168,5030005005235,登記記録の閉鎖等,0,2022-06-09,2022-05-11,天理教文化分教会,,その他の設立登記法人,埼玉県,羽生市,大字下岩瀬５１４番地４,,11,216,3480045,,,2022-05-11,合併による解散等,6030005013856,令和４年５月１１日埼玉県行田市佐間一丁目４番２５号天理教忍町分教会（6030005013856）に合併し解散,2015-10-05,1,,,,,テンリキョウブンカブンキョウカイ,0
1180,5050001035036,登記記録の閉鎖等,0,2022-06-09,2022-06-01,株式会社ネクストステージ,,株式会社,茨城県,結城市,大字古宿新田３３番地２,,08,207,3070032,,,2022-06-01,合併による解散等,9050001027062,令和４年６月１日茨城県那珂市菅谷４００９番地２株式会社トラスト（9050001027062）に合併し解散,2015-10-05,1,,,,,ネクストステージ,0
1185,5060005003632,登記記録の閉鎖等,0,2022-06-09,2022-04-11,天理教粕尾分教会,,その他の設立登記法人,栃木県,鹿沼市,下粕尾１２３８番地,,09,205,3220421,,,2022-04-11,合併による解散等,9060005000130,令和４年４月１１日栃木県宇都宮市鐺山町東原２０２２番地天理教更立分教会（9060005000130）に合併し解散,2015-10-05,1,,,,,テンリキョウカスオブンキョウカイ,0
1195,5080402015880,登記記録の閉鎖等,0,2022-06-09,2022-06-06,有限会社斉藤石油,,有限会社,静岡県,浜松市北区,細江町中川７１７２番地の１０８４,,22,135,4311304,,,2022-06-06,清算の結了等,,,2015-10-05,1,,,,,サイトウセキユ,0
1196,5090002014167,登記記録の閉鎖等,0,2022-06-09,2022-06-02,有限会社ジャパン・ホワイトアイズ,,有限会社,山梨県,北杜市,高根町箕輪２７９８番地の２１,,19,209,4080012,,,2022-06-02,清算の結了等,,,2015-10-05,1,,,,,ジャパンホワイトアイズ,0
1201,5120001053492,登記記録の閉鎖等,0,2022-06-09,2022-06-07,株式会社アガート,,株式会社,大阪府,大阪市淀川区,木川東２丁目４番３号,,27,123,5320012,,,2022-06-07,清算の結了等,,,2015-10-05,1,,,,,アガート,0
1228,5120101008355,登記記録の閉鎖等,0,2022-06-09,2022-06-08,株式会社シヨツピングセンター池忠,,株式会社,大阪府,堺市堺区,向陵西町１丁８番２１号,,27,141,5900026,,,2022-06-08,清算の結了等,,,2015-10-05,1,,,,,,0
1243,5130005000878,登記記録の閉鎖等,0,2022-06-09,2022-05-20,天理教理楽分教会,,その他の設立登記法人,京都府,京都市左京区,吉田中大路町１４番地,,26,103,6068313,,,2022-05-20,合併による解散等,2130005000666,令和４年５月２０日京都市山科区大宅御所田町１０２番地１天理教加茂川分教会（2130005000666）に合併し解散,2015-10-05,1,,,,,テンリキョウリラクブンキョウカイ,0
1250,5150002009755,登記記録の閉鎖等,0,2022-06-09,2022-06-03,有限会社クリーベ,,有限会社,奈良県,大和高田市,曽大根１丁目１１番３号,,29,202,6350055,,,2022-06-03,清算の結了等,,,2015-10-05,1,,,,,クリーベ,0
1267,5180301018702,登記記録の閉鎖等,0,2022-06-09,2022-06-03,ツツミ石油商会株式会社,,株式会社,愛知県,豊田市,大島町旭９２番地２,,23,211,4730935,,,2022-06-03,清算の結了等,,,2015-10-05,1,,,,,ツツミセキユショウカイ,0
1275,5190002020510,登記記録の閉鎖等,0,2022-06-09,2022-06-03,有限会社シティコンタクトレンズ,,有限会社,三重県,四日市市,中川原３丁目６番２３号,,24,202,5100833,,,2022-06-03,清算の結了等,,,2015-10-05,1,,,,,シティコンタクトレンズ,0
1278,5200001020261,登記記録の閉鎖等,0,2022-06-09,2022-06-08,株式会社エコザルーフ,,株式会社,岐阜県,関市,桜台１丁目８番１１号,,21,205,5013931,,,2022-06-08,清算の結了等,,,2015-10-05,1,,,,,エコザルーフ,0
1309,5340001008730,登記記録の閉鎖等,0,2022-06-09,2022-06-07,株式会社みさえ美創,,株式会社,鹿児島県,薩摩川内市,入来町副田１４９０番地１,,46,215,8951401,,,2022-06-07,清算の結了等,,,2015-10-05,1,,,,,ミサエビソウ,0
1315,5350002014875,登記記録の閉鎖等,0,2022-06-09,2022-06-06,有限会社堀之内登製作所,,有限会社,宮崎県,都城市,早水町３５４６番地,,45,202,8850016,,,2022-06-06,清算の結了等,,,2015-10-05,1,,,,,ホリノウチノボルセイサクショ,0
1321,5390001009798,登記記録の閉鎖等,0,2022-06-09,2022-06-03,株式会社オーハザマ,,株式会社,山形県,米沢市,春日１丁目２番３号,,06,202,9920044,,,2022-06-03,清算の結了等,,,2015-10-05,1,,,,,オーハザマ,0
1332,5430002013679,登記記録の閉鎖等,0,2022-06-09,2022-06-02,有限会社ノースジャパン・プランニング,,有限会社,埼玉県,熊谷市,弥藤吾１６０－６,,11,202,3600203,,,2022-06-02,清算の結了等,,,2015-10-05,1,,,,,ノースジャパンプランニング,0
1363,6010001215573,登記記録の閉鎖等,0,2022-06-09,2022-06-01,株式会社ＯＮＯＤＥＲＡエンターテイメント,,株式会社,東京都,千代田区,大手町１丁目１番３号,,13,101,1000004,,,2022-06-01,合併による解散等,8010001179437,令和４年６月１日東京都千代田区大手町一丁目１番３号株式会社ＯＮＯＤＥＲＡホールディングス（8010001179437）に合併し解散,2021-02-05,1,,,,,オノデラエンターテイメント,0
1371,6010401047798,登記記録の閉鎖等,0,2022-06-09,2022-06-02,株式会社ジャパンビジネスコンタクトグループ,,株式会社,長野県,北佐久郡軽井沢町,大字軽井沢１１３３番地４２,,20,321,3890102,,,2022-06-02,清算の結了等,,,2015-10-05,1,,,,,ジャパンビジネスコンタクトグループ,0
1377,6010401140314,登記記録の閉鎖等,0,2022-06-09,2022-05-26,アワヴィ株式会社,,株式会社,東京都,港区,六本木１丁目４番５号アークヒルズサウスタワー３階,,13,103,1060032,,,2022-05-26,清算の結了等,,,2018-08-15,1,,,,,アワヴィ,0
1385,6010701019902,登記記録の閉鎖等,0,2022-06-09,2022-06-08,株式会社オフィスティーエム,,株式会社,東京都,品川区,西五反田４丁目３０番１０号鈴木ビル２０２,,13,109,1410031,,,2022-06-08,清算の結了等,,,2015-10-05,1,,,,,オフィスティーエム,0
1397,6011003012554,登記記録の閉鎖等,0,2022-06-09,2022-06-08,ＳＯＲＡ　ＣＡＰＩＴＡＬ合同会社,,合同会社,東京都,渋谷区,恵比寿西１丁目２７番１ピアース恵比寿ウェストヒルズ５０２号室,,13,113,1500021,,,2022-06-08,清算の結了等,,,2021-04-12,1,,,,,ソラキャピタル,0
1418,6011605001599,登記記録の閉鎖等,0,2022-06-09,2022-05-20,板橋練馬たばこ商業協同組合,,その他の設立登記法人,東京都,練馬区,桜台１丁目２３番１号東和ハイム１０１,,13,120,1760002,,,2022-05-20,合併による解散等,5010805000404,令和４年３月１日東京都大田区大森西二丁目２番１０号大田たばこ商業協同組合（5010805000404）に合併し解散,2015-10-05,1,,,,,イタバシネリマタバコショウギョウ,0
1428,6020002037966,登記記録の閉鎖等,0,2022-06-09,2022-05-26,有限会社恒潤社,,有限会社,東京都,目黒区,鷹番２丁目１６番１４号,,13,110,1520004,,,2022-05-26,清算の結了等,,,2015-10-05,1,,,,,コウジュンシャ,0
1443,6030001117371,登記記録の閉鎖等,0,2022-06-09,2022-06-02,宝栄産業株式会社,,株式会社,埼玉県,川越市,大字藤間１１１６番地１,,11,201,3501142,,,2022-06-02,清算の結了等,,,2016-11-25,1,,,,,ホウエイサンギョウ,0
1451,6040001045324,登記記録の閉鎖等,0,2022-06-09,2022-06-01,株式会社開高,,株式会社,千葉県,印西市,平岡１１５２番地１,,12,231,2701324,,,2022-06-01,清算の結了等,,,2015-10-05,1,,,,,カイコウ,0
1466,6070002034018,登記記録の閉鎖等,0,2022-06-09,2022-06-01,有限会社山一商店,,有限会社,群馬県,館林市,千代田町４番１６号,,10,207,3740028,,,2022-06-01,合併による解散等,1070001022044,令和４年６月１日群馬県館林市千代田町４番１６号株式会社山賢（1070001022044）に合併し解散,2015-10-05,1,,,,,ヤマイチショウテン,0
1467,6080003001783,登記記録の閉鎖等,0,2022-06-09,2022-06-06,ホワイトファング合同会社,,合同会社,東京都,豊島区,南池袋１丁目９番１８－３３１号,,13,116,1710022,,,2022-06-06,清算の結了等,,,2015-10-05,1,,,,,ホワイトファング,0
1490,6120001208855,登記記録の閉鎖等,0,2022-06-09,2022-06-06,株式会社ＫＲＳ,,株式会社,東京都,渋谷区,代々木２丁目１６番１５号,,13,113,1510053,,,2022-06-06,清算の結了等,,,2017-10-16,1,,,,,ケーアールエス,0
1514,6130002020424,登記記録の閉鎖等,0,2022-06-09,2022-06-02,有限会社春秋あきしの,,有限会社,京都府,京都市東山区,三条通白川橋東入３丁目夷町１６０番地１,,26,105,6050033,,,2022-06-02,清算の結了等,,,2015-10-05,1,,,,,シュンジュウアキシノ,0
1519,6140002004145,登記記録の閉鎖等,0,2022-06-09,2022-06-01,有限会社いしまる,,有限会社,兵庫県,神戸市西区,森友５丁目８１番地の２,,28,111,6512132,,,2022-06-01,合併による解散等,7140001005440,令和４年５月３１日神戸市西区森友五丁目８１番地の２株式会社森吉商事（7140001005440）に合併し解散,2015-10-05,1,,,,,,0
1571,6260002004926,登記記録の閉鎖等,0,2022-06-09,2022-06-08,有限会社しんぷくや,,有限会社,岡山県,岡山市東区,君津１０９６番地,,33,103,7048166,,,2022-06-08,清算の結了等,,,2015-10-05,1,,,,,シンプクヤ,0
1604,6370002014253,登記記録の閉鎖等,0,2022-06-09,2022-06-01,有限会社ワイ・ユー,,有限会社,宮城県,仙台市青葉区,花京院２丁目１番１号,,04,101,9800013,,,2022-06-01,清算の結了等,,,2015-10-05,1,,,,,,0
1606,6370601000595,登記記録の閉鎖等,0,2022-06-09,2022-06-06,東北マルハ運輸株式会社,,株式会社,宮城県,塩竈市,新浜町１丁目２番４２号,,04,203,9850001,,,2022-06-06,合併による解散等,7010501007197,令和４年６月１日東京都台東区上野一丁目１５番５号マルハ運輸株式会社（7010501007197）に合併し解散,2015-10-05,1,,,,,トウホクマルハウンユ,0
1615,6400002009191,登記記録の閉鎖等,0,2022-06-09,2022-06-07,有限会社小原管工設備,,有限会社,岩手県,北上市,滑田１４地割１３０番地,,03,206,0240074,,,2022-06-07,清算の結了等,,,2015-10-05,1,,,,,オバラカンコウセツビ,0
1635,7010001019998,登記記録の閉鎖等,0,2022-06-09,2022-06-01,株式会社シンコーミュージック・コピーライツ,,株式会社,東京都,千代田区,神田小川町２丁目１番地,,13,101,1010052,,,2022-06-01,合併による解散等,6010001019999,令和４年６月１日東京都千代田区神田小川町二丁目１番地株式会社シンコーミュージック・エンタテイメント（6010001019999）に合併し解散,2015-10-05,1,,,,,シンコーミュージックコピーライツ,0
1638,7010001130004,登記記録の閉鎖等,0,2022-06-09,2022-06-02,株式会社アクセスジャパン,,株式会社,東京都,千代田区,内神田３丁目１６番５号,,13,101,1010047,,,2022-06-02,清算の結了等,,,2015-10-05,1,,,,,,0
1642,7010001203619,登記記録の閉鎖等,0,2022-06-09,2022-05-16,ＡＣＡＳ９株式会社,,株式会社,東京都,中央区,八重洲２丁目４番１３号ユニゾ八重洲２丁目ビル２Ｆ,,13,102,1040028,,,2022-05-16,合併による解散等,3100001015505,令和４年５月１０日長野県塩尻市広丘高出１９５３番地３株式会社アイワショウ（3100001015505）に合併し解散,2019-08-30,1,,,,,エーシーエーエスナイン,0
1645,7010001215572,登記記録の閉鎖等,0,2022-06-09,2022-06-01,株式会社ＯＮＯＤＥＲＡダイバシティ・クリエイション,,株式会社,東京都,千代田区,大手町１丁目１番３号,,13,101,1000004,,,2022-06-01,合併による解散等,6010001211366,令和４年６月１日東京都千代田区大手町一丁目１番３号株式会社ＯＮＯＤＥＲＡマネジメント（6010001211366）に合併し解散,2021-02-05,1,,,,,オノデラダイバシティクリエイション,0
1655,7010402014169,登記記録の閉鎖等,0,2022-06-09,2022-05-25,有限会社ローザリー,,有限会社,東京都,港区,三田３丁目３番５号,,13,103,1080073,,,2022-05-25,清算の結了等,,,2015-10-05,1,,,,,ローザリー,0
1665,7010701024694,登記記録の閉鎖等,0,2022-06-09,2022-06-06,株式会社グリーンゲート,,株式会社,東京都,品川区,西五反田７丁目１３番５号ＤＫ五反田ビル８階,,13,109,1410031,,,2022-06-06,清算の結了等,,,2015-10-05,1,,,,,グリーンゲート,0
1698,7012402010486,登記記録の閉鎖等,0,2022-06-09,2022-06-06,有限会社エコテック,,有限会社,東京都,調布市,国領町５丁目３５番地３１,,13,208,1820022,,,2022-06-06,清算の結了等,,,2015-10-05,1,,,,,エコテック,0
1705,7013301008456,登記記録の閉鎖等,0,2022-06-09,2022-06-06,株式会社東設,,株式会社,東京都,豊島区,要町３丁目３０－２,,13,116,1710043,,,2022-06-06,清算の結了等,,,2015-10-05,1,,,,,,0
1711,7020002016341,登記記録の閉鎖等,0,2022-06-09,2022-06-06,有限会社木川製作所,,有限会社,神奈川県,横浜市西区,久保町７番２１号,,14,103,2200061,,,2022-06-06,清算の結了等,,,2015-10-05,1,,,,,キガワセイサクショ,0
1719,7030001075817,登記記録の閉鎖等,0,2022-06-09,2022-06-02,泰平鋳造株式会社,,株式会社,埼玉県,川口市,青木３丁目２番２８号,,11,203,3320031,,,2022-06-02,清算の結了等,,,2015-10-05,1,,,,,タイヘイチュウゾウ,0
1720,7030001076971,登記記録の閉鎖等,0,2022-06-09,2022-06-01,深川機械販売株式会社,,株式会社,埼玉県,川口市,西青木２丁目９番５号,,11,203,3320035,,,2022-06-01,合併による解散等,8030001076970,令和４年６月１日埼玉県川口市西青木二丁目９番５号株式会社フカガワ（8030001076970）に合併し解散,2015-10-05,1,,,,,フカガワキカイハンバイ,0
1743,7080002011948,登記記録の閉鎖等,0,2022-06-09,2022-06-07,有限会社空水地環境デザイン工房,,有限会社,静岡県,静岡市駿河区,南八幡町７番１１号,,22,102,4228074,,,2022-06-07,清算の結了等,,,2015-10-05,1,,,,,クウスイチカンキョウデザインコウボウ,0
1764,7120001216064,登記記録の閉鎖等,0,2022-06-09,2022-06-01,大信ホールディングス株式会社,,株式会社,大阪府,交野市,星田北１丁目３１番１号,,27,230,5760017,,,2022-06-01,合併による解散等,5120001147088,令和４年６月１日大阪府交野市星田北一丁目３１番１号大信産業株式会社（5120001147088）に合併し解散,2018-09-21,1,,,,,ダイシンホールディングス,0
1771,7120002004047,登記記録の閉鎖等,0,2022-06-09,2022-06-06,有限会社池畑設計,,有限会社,大阪府,大阪市都島区,片町１丁目３番６号エクセレント中道４０１号,,27,102,5340025,,,2022-06-06,清算の結了等,,,2015-10-05,1,,,,,,0
1787,7140005001155,登記記録の閉鎖等,0,2022-06-09,2022-05-13,天理教上八多分教会,,その他の設立登記法人,兵庫県,神戸市北区,八多町附物８１９番地の１０,,28,109,6511343,,,2022-05-13,合併による解散等,4140005001125,令和４年５月１３日神戸市北区有馬町１１５０番地天理教有馬町分教会（4140005001125）に合併し解散,2015-10-05,1,,,,,テンリキョウカミハタブンキョウカイ,0
1797,7180002074448,登記記録の閉鎖等,0,2022-06-09,2022-06-06,有限会社花の愛花苑,,有限会社,愛知県,犬山市,大字羽黒字小安２２番地の２,,23,215,4840894,,,2022-06-06,清算の結了等,,,2015-10-05,1,,,,,ハナノアイカエン,0
1801,7180301030655,登記記録の閉鎖等,0,2022-06-09,2022-06-01,株式会社サンキュー・イースト,,株式会社,愛知県,豊橋市,菰口町３丁目８番地,,23,201,4418011,,,2022-06-01,合併による解散等,2180302011675,令和４年６月１日愛知県豊橋市菰口町三丁目８番地株式会社サンキューカット東海（2180302011675）に合併し解散,2017-08-17,1,,,,,サンキューイースト,0
1803,7190001011161,登記記録の閉鎖等,0,2022-06-09,2022-06-02,株式会社三重ゴム加工,,株式会社,三重県,松阪市,飯高町森１２４４番地,,24,204,5151615,,,2022-06-02,清算の結了等,,,2015-10-05,1,,,,,ミエゴムカコウ,0
1807,7190003003066,登記記録の閉鎖等,0,2022-06-09,2022-06-03,合同会社ＵＯＳＥＩ匡,,合同会社,三重県,津市,久居相川町１９５４番地１２,,24,201,5141103,,,2022-06-03,清算の結了等,,,2019-02-14,1,,,,,ウオセイマサ,0
1811,7200002019111,登記記録の閉鎖等,0,2022-06-09,2022-06-08,有限会社ブルフロッグ,,有限会社,岐阜県,関市,倉知３０７８番地,,21,205,5013936,,,2022-06-08,清算の結了等,,,2015-10-05,1,,,,,ブルフロッグ,0
1818,7220001007214,登記記録の閉鎖等,0,2022-06-09,2022-05-10,株式会社山崎総合コンサルティング事務所,00078289,株式会社,石川県,金沢市,稚日野町南１５２番地１,,17,201,9200355,,,2022-05-10,合併による解散等,2220001007210,令和４年５月１日石川県金沢市稚日野町南１５２番地１株式会社山崎会計事務所（2220001007210）に合併し解散,2015-10-05,1,,,,,ヤマザキソウゴウコンサルティングジムショ,0
1824,7240001046516,登記記録の閉鎖等,0,2022-06-09,2022-06-06,株式会社ケアサポート双樹,,株式会社,広島県,廿日市市,串戸２丁目１６番１７号,,34,213,7380033,,,2022-06-06,清算の結了等,,,2015-10-05,1,,,,,ケアサポートソウジュ,0
1830,7260001014322,登記記録の閉鎖等,0,2022-06-09,2022-06-08,西江工業株式会社,,株式会社,岡山県,倉敷市,新倉敷駅前５丁目５８番地１,,33,202,7100253,,,2022-06-08,清算の結了等,,,2015-10-05,1,,,,,ニシエコウギョウ,0
1833,7260005008188,登記記録の閉鎖等,0,2022-06-09,2022-05-24,天理教宇野分教会,,その他の設立登記法人,岡山県,玉野市,築港５丁目１３番１号,,33,204,7060002,,,2022-05-24,合併による解散等,8260005000607,令和４年５月２４日岡山市中区藤原３２番地天理教岡山大教会（8260005000607）に合併し解散,2015-10-05,1,,,,,テンリキョウウノブンキョウカイ,0
1836,7290001056527,登記記録の閉鎖等,0,2022-06-09,2022-06-02,株式会社丸高建設,,株式会社,福岡県,福岡市早良区,四箇４丁目３番３４号,,40,137,8111103,,,2022-06-02,清算の結了等,,,2015-10-05,1,,,,,マルタカケンセツ,0
1842,7290002019895,登記記録の閉鎖等,0,2022-06-09,2022-06-02,有限会社シンタニ,,有限会社,福岡県,福岡市中央区,福浜２丁目５番７－７１６号,,40,133,8100066,,,2022-06-02,清算の結了等,,,2015-10-05,1,,,,,シンタニ,0
1845,7290005015355,登記記録の閉鎖等,0,2022-06-09,2022-05-26,ＮＰＯ法人おうちプロジェクト,,その他の設立登記法人,福岡県,福岡市城南区,田島４丁目５番２１－２０１号,,40,136,8140113,,,2022-05-26,清算の結了等,,,2015-10-05,1,,,,,オウチプロジェクト,0
1859,7340001015502,登記記録の閉鎖等,0,2022-06-09,2022-06-07,まっちゃキッズ株式会社,,株式会社,鹿児島県,鹿児島市,千年２丁目３１番３号,,46,201,8900001,,,2022-06-07,清算の結了等,,,2015-10-05,1,,,,,マッチャキッズ,0
1867,7370502000710,登記記録の閉鎖等,0,2022-06-09,2022-06-01,有限会社中野商事,,有限会社,宮城県,気仙沼市,南町２丁目４番１５号,,04,205,9880017,,,2022-06-01,清算の結了等,,,2015-10-05,1,,,,,ナカノショウジ,0
1869,7370802000039,登記記録の閉鎖等,0,2022-06-09,2022-06-06,アオバネオン有限会社,,有限会社,宮城県,亘理郡亘理町,逢隈田沢字遠原１２２番地１,00082125,04,361,9892383,,,2022-06-06,清算の結了等,,,2015-10-05,1,,,,,アオバネオン,0
1892,7480002013986,登記記録の閉鎖等,0,2022-06-09,2022-06-07,有限会社カサブランカ,,有限会社,徳島県,阿南市,下大野町渡り上り７番地１３７,,36,204,7740047,,,2022-06-07,清算の結了等,,,2015-10-05,1,,,,,カサブランカ,0
1896,7500003002572,登記記録の閉鎖等,0,2022-06-09,2022-06-03,合同会社ＮＥＸＴ　ＣＯＮＥＸＩＯＮ,,合同会社,愛媛県,松山市,山越１丁目１５番３３号,,38,201,7918013,,,2022-06-03,清算の結了等,,,2021-01-26,1,,,,,ネクストコネクション,0
1940,8010403016915,登記記録の閉鎖等,0,2022-06-09,2022-05-27,フェニックスエナジー合同会社,,合同会社,東京都,中央区,日本橋堀留町１丁目８番１１号,,13,102,1030012,,,2022-05-27,清算の結了等,,,2017-07-27,1,,,,,,0
1941,8010403019471,登記記録の閉鎖等,0,2022-06-09,2022-06-06,ＤＳ　Ｋａｉｇａｎ合同会社,,合同会社,東京都,港区,虎ノ門５丁目１番４号,,13,103,1050001,,,2022-06-06,清算の結了等,,,2018-10-11,1,,,,,ディーエスカイガン,0
1958,8011001125265,登記記録の閉鎖等,0,2022-06-09,2022-06-06,株式会社ＨＥＲＩＴＡＧＥ,,株式会社,東京都,渋谷区,恵比寿２丁目２８番１０号,,13,113,1500013,,,2022-06-06,清算の結了等,,,2018-11-20,1,,,,,ヘリテイジ,0
1960,8011002013403,登記記録の閉鎖等,0,2022-06-09,2022-06-06,有限会社ダイニングアップ,,有限会社,東京都,新宿区,舟町５－８舟町５番ビル２０１号,,13,104,1600006,,,2022-06-06,清算の結了等,,,2015-10-05,1,,,,,ダイニングアップ,0
1968,8011205000099,登記記録の閉鎖等,0,2022-06-09,2022-05-20,中野たばこ商業協同組合,,その他の設立登記法人,東京都,中野区,中央４丁目１９番１２号,,13,114,1640011,,,2022-05-20,合併による解散等,5010805000404,令和４年３月１日東京都大田区大森西二丁目２番１０号大田たばこ商業協同組合（5010805000404）に合併し解散,2015-10-05,1,,,,,ナカノタバコショウギョウ,0
1972,8011601000594,登記記録の閉鎖等,0,2022-06-09,2022-06-09,いずみ印刷株式会社,,株式会社,東京都,練馬区,豊玉中２丁目２４番３号,,13,120,1760013,,,2022-06-09,清算の結了等,,,2015-10-05,1,,,,,イズミインサツ,0
1979,8011802026546,登記記録の閉鎖等,0,2022-06-09,2022-06-01,有限会社ひだまり介護サービス,,有限会社,東京都,足立区,青井３丁目８番４号ＭＪビル１階,,13,121,1200012,,,2022-06-01,清算の結了等,,,2015-10-05,1,,,,,ヒダマリカイゴサービス,0
1994,8020001094429,登記記録の閉鎖等,0,2022-06-09,2022-06-06,株式会社ハヤシ,,株式会社,神奈川県,横浜市港南区,日野８丁目６番３号,,14,111,2340051,,,2022-06-06,清算の結了等,,,2015-10-05,1,,,,,ハヤシ,0
1996,8020001098272,登記記録の閉鎖等,0,2022-06-09,2022-06-06,ＣＬＯＶＥＲ＆ＤＩＮＩＮＧ株式会社,,株式会社,東京都,豊島区,巣鴨５丁目１７番５号,,13,116,1700002,,,2022-06-06,清算の結了等,,,2015-10-05,1,,,,,クローバーアンドダイニング,0
1997,8020001103973,登記記録の閉鎖等,0,2022-06-09,2022-06-07,株式会社三進,,株式会社,神奈川県,川崎市川崎区,小島町４番４号,,14,131,2100861,,,2022-06-07,清算の結了等,,,2015-10-05,1,,,,,サンシン,0
1999,8020002007224,登記記録の閉鎖等,0,2022-06-09,2022-06-03,有限会社ヤマナカ,,有限会社,神奈川県,横浜市港北区,大豆戸町８番地９,,14,109,2220032,,,2022-06-03,清算の結了等,,,2015-10-05,1,,,,,ヤマナカ,0
2000,8020002020763,登記記録の閉鎖等,0,2022-06-09,2022-06-06,有限会社エクスペクトコンサルティング,,有限会社,神奈川県,横浜市都筑区,中川４丁目１０番６号,,14,118,2240001,,,2022-06-06,清算の結了等,,,2015-10-05,1,,,,,エクスペクトコンサルティング,0
2002,8020002085468,登記記録の閉鎖等,0,2022-06-09,2022-06-06,有限会社八百喜,,有限会社,神奈川県,川崎市中原区,木月３丁目１７番１４号,,14,133,2110025,,,2022-06-06,清算の結了等,,,2015-10-05,1,,,,,ヤオキ,0
2043,8070003002616,登記記録の閉鎖等,0,2022-06-09,2022-06-01,合同会社ぬくもり,,合同会社,群馬県,甘楽郡甘楽町,大字上野３０８番地,,10,384,3702201,,,2022-06-01,清算の結了等,,,2016-04-05,1,,,,,ヌクモリ,0
2044,8080001012806,登記記録の閉鎖等,0,2022-06-09,2022-06-07,株式会社グリーン不動産,,株式会社,静岡県,静岡市駿河区,緑が丘町４番５２号,,22,102,4228052,,,2022-06-07,清算の結了等,,,2015-10-05,1,,,,,グリーンフドウサン,0
2048,8080105003882,登記記録の閉鎖等,0,2022-06-09,2022-06-03,協同組合あたみシール,,その他の設立登記法人,静岡県,熱海市,銀座町１０番１９号,,22,205,4130013,,,2022-06-03,清算の結了等,,,2015-10-05,1,,,,,アタミシール,0
2053,8080402002133,登記記録の閉鎖等,0,2022-06-09,2022-06-03,有限会社カネ寿清水撚糸,,有限会社,静岡県,浜松市中区,西伊場町４１番８号,,22,131,4328038,,,2022-06-03,清算の結了等,,,2015-10-05,1,,,,,カネヒサシミズネンシ,0
2082,8122002010874,登記記録の閉鎖等,0,2022-06-09,2022-06-02,有限会社エブリワン,,有限会社,大阪府,東大阪市,足代新町１０番１号瀬戸鮨内,,27,227,5770057,,,2022-06-02,清算の結了等,,,2015-10-05,1,,,,,エブリワン,0
2086,8140001079772,登記記録の閉鎖等,0,2022-06-09,2022-06-02,株式会社上田新聞舗,,株式会社,兵庫県,川辺郡猪名川町,若葉２丁目８番地９,,28,301,6660251,,,2022-06-02,清算の結了等,,,2015-10-05,1,,,,,ウエダシンブンホ,0
2111,8210001012453,登記記録の閉鎖等,0,2022-06-09,2022-06-02,株式会社北陸ヤマジン,,株式会社,東京都,千代田区,神田小川町１丁目１番地,,13,101,1010052,,,2022-06-02,清算の結了等,,,2015-10-05,1,,,,,ホクリクヤマジン,0
2121,8240002046217,登記記録の閉鎖等,0,2022-06-09,2022-06-01,有限会社広島保険サービスセンター,,有限会社,広島県,広島市西区,福島町１丁目２３番１３号,,34,104,7330024,,,2022-06-01,合併による解散等,6240001021214,令和４年６月１日広島市西区福島町一丁目２３番１３号株式会社ヤクルト山陽（6240001021214）に合併し解散,2015-10-05,1,,,,,ヒロシマホケンサービスセンター,0
2125,8260002010253,登記記録の閉鎖等,0,2022-06-09,2022-06-07,山三有限会社,,有限会社,岡山県,岡山市北区,田町１丁目１０番１号,,33,101,7000825,,,2022-06-07,合併による解散等,5260001013549,令和４年６月７日岡山県倉敷市児島稗田町１８８９番地三和興業株式会社（5260001013549）に合併し解散,2015-10-05,1,,,,,,0
2132,8290001004889,登記記録の閉鎖等,0,2022-06-09,2022-06-01,株式会社洋酒肆森,,株式会社,福岡県,福岡市中央区,警固３丁目１２番１３号,,40,133,8100023,,,2022-06-01,清算の結了等,,,2015-10-05,1,,,,,ヨウシュシモリ,0
2135,8290801002035,登記記録の閉鎖等,0,2022-06-09,2022-06-06,株式会社ゼンキ,,株式会社,福岡県,北九州市小倉北区,高浜２丁目１番５４号,,40,106,8020021,,,2022-06-06,清算の結了等,,,2015-10-05,1,,,,,ゼンキ,0
2141,8310005006326,登記記録の閉鎖等,0,2022-06-09,2022-05-18,天理教竜平分教会,,その他の設立登記法人,長崎県,松浦市,志佐町長野免字柿の木田１８６５番地３,,42,208,8594516,,,2022-05-18,合併による解散等,4310005006081,令和４年５月１８日長崎県平戸市岩の上町１２６０番地天理教平戸分教会（4310005006081）に合併し解散,2015-10-05,1,,,,,テンリキョウリュウヒラブンキョウカイ,0
2162,8430002021828,登記記録の閉鎖等,0,2022-06-09,2022-05-30,有限会社渡辺自動車,,有限会社,北海道,札幌市北区,新川五条１丁目１番６号,,01,102,0010925,,,2022-05-30,清算の結了等,,,2015-10-05,1,,,,,ワタナベジドウシャ,0
2168,8490005002712,登記記録の閉鎖等,0,2022-06-09,2022-04-13,天理教宿毛港分教会,,その他の設立登記法人,高知県,宿毛市,片島１０８６番地３４,,39,208,7880013,,,2022-04-13,合併による解散等,8490005002745,令和４年４月１３日高知県幡多郡大月町大字弘見字ハライ川２５７６番地の２天理教奥内分教会（8490005002745）に合併し解散,2015-10-05,1,,,,,テンリキョウスクモコウブンキョウカイ,0
2187,9010003015052,登記記録の閉鎖等,0,2022-06-09,2022-06-01,合同会社シェルティー,,合同会社,東京都,千代田区,丸の内３丁目１番１号東京共同会計事務所内,,13,101,1000005,,,2022-06-01,清算の結了等,,,2015-10-05,1,,,,,シェルティー,0
2200,9010501006560,登記記録の閉鎖等,0,2022-06-09,2022-06-09,正和玩具株式会社,,株式会社,東京都,台東区,根岸４丁目５番５号,,13,106,1100003,,,2022-06-09,清算の結了等,,,2015-10-05,1,,,,,,0
2240,9011703002224,登記記録の閉鎖等,0,2022-06-09,2022-06-06,グローバル合同会社,,合同会社,東京都,江戸川区,西小岩１丁目２９番４号,,13,123,1330057,,,2022-06-06,清算の結了等,,,2019-03-25,1,,,,,グローバル,0
2268,9020002081177,登記記録の閉鎖等,0,2022-06-09,2022-06-03,有限会社重華貿易,,有限会社,神奈川県,川崎市幸区,河原町１番地河原町団地１３－１２３４,,14,132,2120007,,,2022-06-03,清算の結了等,,,2015-10-05,1,,,,,ジュウカボウエキ,0
2293,9040001002677,登記記録の閉鎖等,0,2022-06-09,2022-05-17,三協プレス工業株式会社,,株式会社,千葉県,千葉市緑区,誉田町１丁目３２３番地,,12,105,2660005,,,2022-05-17,合併による解散等,3011001128537,令和４年４月１日東京都目黒区青葉台三丁目７番１７号株式会社ＹＳＰ２（3011001128537）に合併し解散,2015-10-05,1,,,,,サンキョウプレスコウギョウ,0
2302,9040005009925,登記記録の閉鎖等,0,2022-06-09,2022-06-03,山武東金タクシー協同組合,,その他の設立登記法人,千葉県,東金市,東金３６４番地１５,,12,213,2830802,,,2022-06-03,清算の結了等,,,2015-10-05,1,,,,,サンムトウガネタクシー,0
2314,9100001004849,登記記録の閉鎖等,0,2022-06-09,2022-06-01,ディガードエンジニアリング株式会社,,株式会社,長野県,長野市,松岡２丁目６番１８号,,20,201,3810026,,,2022-06-01,合併による解散等,3100001002206,令和４年６月１日長野市松岡二丁目６番１８号トライアン株式会社（3100001002206）に合併し解散,2015-10-05,1,,,,,ディガードエンジニアリング,0
2320,9110001032147,登記記録の閉鎖等,0,2022-06-09,2022-06-03,株式会社うおとく,,株式会社,新潟県,新潟市江南区,酒屋町３４１番地１,,15,104,9500324,,,2022-06-03,清算の結了等,,,2017-02-09,1,,,,,,0
2342,9120101052127,登記記録の閉鎖等,0,2022-06-09,2022-06-08,あじさい観光株式会社,,株式会社,大阪府,堺市美原区,平尾１８８２番２,,27,147,5870022,,,2022-06-08,清算の結了等,,,2015-10-05,1,,,,,アジサイカンコウ,0
2376,9190002001754,登記記録の閉鎖等,0,2022-06-09,2022-06-03,ワシキメディカル有限会社,,有限会社,三重県,津市,渋見町３３０番地の１２,,24,201,5140063,,,2022-06-03,清算の結了等,,,2015-10-05,1,,,,,ワシキメディカル,0
2378,9200001031180,登記記録の閉鎖等,0,2022-06-09,2022-06-08,Ｍ’ｓ株式会社,,株式会社,岐阜県,岐阜市,太郎丸諏訪２８番地,,21,201,5012573,,,2022-06-08,清算の結了等,,,2015-10-05,1,,,,,エムズ,0
2387,9240005013717,登記記録の閉鎖等,0,2022-06-09,2022-06-06,一般社団法人ベビマムトリートメント協会,,その他の設立登記法人,広島県,広島市佐伯区,旭園４番３５－３０１号,,34,108,7315133,,,2022-06-06,清算の結了等,,,2015-10-05,1,,,,,ベビマムトリートメントキョウカイ,0
2394,9270002008205,登記記録の閉鎖等,0,2022-06-09,2022-06-01,有限会社アリオン,,有限会社,鳥取県,西伯郡伯耆町,溝口１６２番地１,,31,390,6894201,,,2022-06-01,合併による解散等,7270001003191,令和４年６月１日鳥取県米子市古豊千２２５番地１株式会社金田工務店（7270001003191）に合併し解散,2015-10-05,1,,,,,アリオン,0
2402,9290002053901,登記記録の閉鎖等,0,2022-06-09,2022-06-02,有限会社富士ミートコントロール,,有限会社,福岡県,柳川市,上宮永町９３番地の１,,40,207,8320058,,,2022-06-02,清算の結了等,,,2015-10-05,1,,,,,フジミートコントロール,0
2406,9310002018570,登記記録の閉鎖等,0,2022-06-09,2022-06-06,有限会社彦八,,有限会社,長崎県,島原市,有明町湯江丙３３番地,,42,203,8591403,,,2022-06-06,清算の結了等,,,2015-10-05,1,,,,,ヒコハチ,0
2408,9330001028123,登記記録の閉鎖等,0,2022-06-09,2022-06-01,株式会社Ｂｅｅ．ｃｏｒｐｏｒａｔｉｏｎ,,株式会社,熊本県,熊本市中央区,安政町１番２号,,43,101,8600801,,,2022-06-01,合併による解散等,2330001014798,令和４年６月１日熊本市中央区安政町１番２号株式会社Ｂ．ｃａｐｉｔａｌ（2330001014798）に合併し解散,2020-12-17,1,,,,,ビーコーポレーション,0
2432,9500005000399,登記記録の閉鎖等,0,2022-06-09,2022-05-19,天理教豊豫分教会,,その他の設立登記法人,愛媛県,松山市,由良町３３０番地の３,,38,201,7918092,,,2022-05-19,合併による解散等,5140005007699,令和４年５月１８日兵庫県赤穂市御崎１５６１番地の１５天理教赤穂分教会（5140005007699）に合併し解散,2015-10-05,1,,,,,,0
