sequenceNumber,corporateNumber,process,correct,updateDate,changeDate,name,nameImageId,kind,prefectureName,cityName,streetNumber,addressImageId,prefectureCode,cityCode,postCode,addressOutside,addressOutsideImageId,closeDate,closeCause,successorCorporateNumber,changeCause,assignmentDate,latest,enName,enPrefectureName,enCityName,enAddressOutside,furigana,hihyoji
11,1010001254956,新規,0,2025-05-19,2025-05-19,株式会社Ｆｌｏｗｅｒ,,株式会社,東京都,中央区,銀座１丁目１２番４号Ｎ＆ＥＢＬＤ．６Ｆ,,13,102,1040061,,,,,,,2025-05-19,1,,,,,フラワー,0
12,1010001255021,新規,0,2025-05-19,2025-05-19,Ｌａｚｅｎ　Ｄｅｓｉｇｎ株式会社,,株式会社,東京都,千代田区,神田三崎町３丁目３番４号巴ビル２０１号室,,13,101,1010061,,,,,,,2025-05-19,1,,,,,ラゼンデザイン,0
19,1010003047318,新規,0,2025-05-19,2025-05-19,合同会社Ｒｅａｌｉｚｅ,,合同会社,東京都,文京区,本郷３丁目１７番８号Ｂｒｉｌｌｉａ本郷Ｒｅｓｉｄｅｎｃｅ９０２,,13,105,1130033,,,,,,,2025-05-19,1,,,,,,0
20,1010003047326,新規,0,2025-05-19,2025-05-19,レガシー・パートナーズ合同会社,,合同会社,東京都,中央区,晴海１丁目６番１－４９０１号,,13,102,1040053,,,,,,,2025-05-19,1,,,,,レガシーパートナーズ,0
24,1010503007829,新規,0,2025-05-19,2025-05-19,合同会社Ｔｒｉｐ　Ｈｅａｒｔ,,合同会社,東京都,台東区,清川１丁目３１番７－８０２号デラモット浅草エスト,,13,106,1110022,,,,,,,2025-05-19,1,,,,,トリップハート,0
32,1010901057351,新規,0,2025-05-19,2025-05-19,翰奇株式会社,,株式会社,東京都,世田谷区,中町２丁目１２番１３号,,13,112,1580091,,,,,,,2025-05-19,1,,,,,カンキ,0
37,1011001169376,新規,0,2025-05-19,2025-05-19,株式会社ＳｐｅｅＱ,,株式会社,東京都,渋谷区,道玄坂１丁目１０番８号渋谷道玄坂東急ビル２Ｆ－Ｃ,,13,113,1500043,,,,,,,2025-05-19,1,,,,,スピーク,0
38,1011001169855,新規,0,2025-05-19,2025-05-19,株式会社永積,,株式会社,東京都,目黒区,目黒４丁目６番１０号,,13,110,1530063,,,,,,,2025-05-19,1,,,,,ナガヅミ,0
40,1011003021543,新規,0,2025-05-19,2025-05-19,Ａｒｃｒｅｓｔ合同会社,,合同会社,東京都,目黒区,下目黒２丁目８番２－５０４号,,13,110,1530064,,,,,,,2025-05-19,1,,,,,アークレスト,0
45,1011103015932,新規,0,2025-05-19,2025-05-19,合同会社ジェイ・ジー・エム,,合同会社,東京都,新宿区,下宮比町１番４号,,13,104,1620822,,,,,,,2025-05-19,1,,,,,ジェイジーエム,0
53,1011501032075,新規,0,2025-05-19,2025-05-19,ＬＨ　ＴＥＣＨＮＯＬＯＧＹ株式会社,,株式会社,東京都,荒川区,東日暮里３丁目４番１０号１０１号,,13,118,1160014,,,,,,,2025-05-19,1,,,,,エルエイチテクノロジー,0
55,1011601028642,新規,0,2025-05-19,2025-05-19,浩康株式会社,,株式会社,東京都,練馬区,氷川台４丁目２９番地１号コーポＳＳ１階１０１号室,,13,120,1790084,,,,,,,2025-05-19,1,,,,,ヒロヤス,0
57,1011603004716,新規,0,2025-05-19,2025-05-19,合同会社ＴＦＨ,,合同会社,東京都,練馬区,氷川台４丁目４７番１８号,,13,120,1790084,,,,,,,2025-05-19,1,,,,,ティーエフエイチ,0
58,1011605002651,新規,0,2025-05-19,2025-05-19,一般社団法人日本総合ＡＩイノベーション推進協会,,その他の設立登記法人,東京都,練馬区,三原台３丁目２－３８,,13,120,1770031,,,,,,,2025-05-19,1,,,,,ニホンソウゴウエーアイイノベーションスイシンキョウカイ,0
61,1011701028352,新規,0,2025-05-19,2025-05-19,株式会社和信,,株式会社,東京都,江戸川区,松島３丁目１４番７－２０３号若林ビル,,13,123,1320031,,,,,,,2025-05-19,1,,,,,ワシン,0
66,1011801046130,新規,0,2025-05-19,2025-05-19,栄傑株式会社,,株式会社,東京都,葛飾区,水元２丁目１０番７号エリービル１２０１号室,,13,122,1250032,,,,,,,2025-05-19,1,,,,,エイケツ,0
67,1011801046139,新規,0,2025-05-19,2025-05-19,株式会社カルム,,株式会社,東京都,足立区,千住仲町４０番８号,,13,121,1200036,,,,,,,2025-05-19,1,,,,,カルム,0
68,1011803006859,新規,0,2025-05-19,2025-05-19,合同会社未来企画,,合同会社,東京都,葛飾区,新小岩１丁目３４番５－４０５号コートラクリア新小岩,,13,122,1240024,,,,,,,2025-05-19,1,,,,,ミライキカク,0
70,1012303002159,新規,0,2025-05-19,2025-05-19,ＫＧ　Ｗｏｒｘ合同会社,,合同会社,東京都,町田市,小山ヶ丘６丁目５番１号,,13,209,1940215,,,,,,,2025-05-19,1,,,,,ケージーワークス,0
74,1012701018863,新規,0,2025-05-19,2025-05-19,株式会社ＣＩＭＵ,,株式会社,東京都,東久留米市,前沢５丁目２７番１４号,,13,222,2030032,,,,,,,2025-05-19,1,,,,,チム,0
75,1012701018871,新規,0,2025-05-19,2025-05-19,太田商会株式会社,,株式会社,東京都,東久留米市,下里２丁目７番６号,,13,222,2030043,,,,,,,2025-05-19,1,,,,,オオタショウカイ,0
76,1013101009692,新規,0,2025-05-19,2025-05-19,株式会社ペガサス,,株式会社,東京都,青梅市,和田町２丁目１６１番地の２,,13,205,1980062,,,,,,,2025-05-19,1,,,,,ペガサス,0
80,1013301054209,新規,0,2025-05-19,2025-05-19,株式会社リフォレル,,株式会社,東京都,豊島区,東池袋１丁目３４番５号いちご東池袋ビル６階,,13,116,1700013,,,,,,,2025-05-19,1,,,,,リフォレル,0
86,1020001162935,新規,0,2025-05-19,2025-05-19,株式会社カレラエステート,,株式会社,神奈川県,川崎市川崎区,駅前本町１８番地１メルスサイト－７０２,,14,131,2100007,,,,,,,2025-05-19,1,,,,,カレラエステート,0
92,1020003028408,新規,0,2025-05-19,2025-05-19,合同会社Ｐａｎａ　Ｃｏｎｓｕｌｔｉｎｇ　ａｎｄ　Ｔｒａｄｉｎｇ,,合同会社,神奈川県,横浜市中区,桜木町１丁目１番７号ミナトミライヒューリック１０階,,14,104,2310062,,,,,,,2025-05-19,1,,,,,,0
93,1020003028473,新規,0,2025-05-19,2025-05-19,合同会社ＨｐＲｕｎ,,合同会社,神奈川県,横浜市旭区,金が谷１丁目６番７－４号,,14,112,2410812,,,,,,,2025-05-19,1,,,,,エイチピーラン,0
94,1020003028515,新規,0,2025-05-19,2025-05-19,フラッツ合同会社,,合同会社,神奈川県,横浜市南区,日枝町３丁目８６番地１ポートハイム第３吉野町４０５,,14,105,2320011,,,,,,,2025-05-19,1,,,,,フラッツ,0
100,1021001085250,新規,0,2025-05-19,2025-05-19,株式会社千寿地所,,株式会社,神奈川県,相模原市中央区,千代田３丁目１８番２１号,,14,152,2520237,,,,,,,2025-05-19,1,,,,,センジュジショ,0
101,1021001085259,新規,0,2025-05-19,2025-05-19,株式会社稲福,,株式会社,神奈川県,相模原市南区,上鶴間７丁目１７番１６号,,14,153,2520302,,,,,,,2025-05-19,1,,,,,イナフク,0
111,1030005022168,新規,0,2025-05-19,2025-05-19,ＮＰＯ法人ＤＩＴＴＡ,,その他の設立登記法人,埼玉県,さいたま市中央区,上落合８丁目１５番４号１,,11,105,3380001,,,,,,,2025-05-19,1,,,,,ディッタ,0
120,1040001138660,新規,0,2025-05-19,2025-05-19,株式会社ささき,,株式会社,千葉県,野田市,木間ケ瀬３０４５番地３,,12,208,2700222,,,,,,,2025-05-19,1,,,,,ササキ,0
133,1070001042942,新規,0,2025-05-19,2025-05-19,株式会社エムツーライン,,株式会社,群馬県,伊勢崎市,間野谷町３９５番地１,,10,204,3792201,,,,,,,2025-05-19,1,,,,,,0
136,1080001026944,新規,0,2025-05-19,2025-05-19,株式会社ＳＨＡＬＯＮ　ＧＡＲＡＧＥ,,株式会社,静岡県,牧之原市,静波２６８９番地６,,22,226,4210422,,,,,,,2025-05-19,1,,,,,シャロンガレージ,0
161,1120001275768,新規,0,2025-05-19,2025-05-19,Ｚｅｎ　Ｔｒｉｐ　Ｊａｐａｎ株式会社,,株式会社,大阪府,大阪市北区,梅田１丁目２番２号大阪駅前第２ビル１２－１２,,27,127,5300001,,,,,,,2025-05-19,1,,,,,ゼントリップジャパン,0
162,1120001275801,新規,0,2025-05-19,2025-05-19,啓程株式会社,,株式会社,大阪府,大阪市東住吉区,矢田１丁目２番４号ビルシャナ長居１０５号室,,27,121,5460023,,,,,,,2025-05-19,1,,,,,キテイ,0
163,1120001275891,新規,0,2025-05-19,2025-05-19,百川株式会社,,株式会社,大阪府,大阪市住吉区,東粉浜１丁目１２番１２－２０３号,,27,120,5580051,,,,,,,2025-05-19,1,,,,,ヒャクセン,0
171,1120003029404,新規,0,2025-05-19,2025-05-19,合同会社宮古島リゾートホテル開発,,合同会社,大阪府,大阪市中央区,南久宝寺町４丁目５番１７号,,27,128,5410058,,,,,,,2025-05-19,1,,,,,ミヤコジマリゾートホテルカイハツ,0
172,1120003029461,新規,0,2025-05-19,2025-05-19,Ｙ＆Ｙ合同会社,,合同会社,大阪府,大阪市西成区,萩之茶屋２丁目６－４ニューかめや１６７号室,,27,122,5570004,,,,,,,2025-05-19,1,,,,,ワイアンドワイ,0
173,1120101071687,新規,0,2025-05-19,2025-05-19,ＫＵＫＵＮＡ　ＢＡＳＥ株式会社,,株式会社,大阪府,泉佐野市,上之郷１６１２番地の３,,27,213,5980024,,,,,,,2025-05-19,1,,,,,ククナベイス,0
179,1120903005677,新規,0,2025-05-19,2025-05-19,合同会社ｆｕｚｚｉｅ,,合同会社,大阪府,箕面市,森町中２丁目３番５号,,27,220,5630257,,,,,,,2025-05-19,1,,,,,ファジー,0
184,1130001079697,新規,0,2025-05-19,2025-05-19,株式会社ＮＥＯＤＡＲＵＭＡ,,株式会社,京都府,京都市下京区,朱雀宝蔵町４４協栄ビル２Ｆ京都朱雀スタジオＡＰ－２０８,,26,106,6008846,,,,,,,2025-05-19,1,,,,,ネオダルマ,0
188,1140001138527,新規,0,2025-05-19,2025-05-19,株式会社あららぎ建築,,株式会社,兵庫県,加古郡播磨町,北本荘５丁目８番１５号,,28,382,6750144,,,,,,,2025-05-19,1,,,,,アララギケンチク,0
192,1150001028132,新規,0,2025-05-19,2025-05-19,ＮＯＺＯＭＩ株式会社,,株式会社,奈良県,香芝市,北今市４丁目２０５番地７,,29,210,6390242,,,,,,,2025-05-19,1,,,,,ノゾミ,0
193,1150005009698,新規,0,2025-05-19,2025-05-19,医療法人優光会,,その他の設立登記法人,奈良県,生駒市,ひかりが丘１丁目１番１号,,29,209,6300141,,,,,,,2025-05-19,1,,,,,ユウコウカイ,0
196,1160001026762,新規,0,2025-05-19,2025-05-19,株式会社カローラファーム,,株式会社,滋賀県,草津市,東草津２丁目３番５４号,,25,206,5250033,,,,,,,2025-05-19,1,,,,,カローラファーム,0
198,1180001166482,新規,0,2025-05-19,2025-05-19,五幸商事株式会社,,株式会社,愛知県,名古屋市中区,栄２丁目８番８号松本ビル内,,23,106,4600008,,,,,,,2025-05-19,1,,,,,ゴコウショウジ,0
199,1180001166846,新規,0,2025-05-19,2025-05-19,アンティナ株式会社,,株式会社,愛知県,名古屋市中村区,名駅４丁目２４番５号第２森ビル４０１,,23,105,4500002,,,,,,,2025-05-19,1,,,,,アンティナ,0
200,1180001166854,新規,0,2025-05-19,2025-05-19,Ｐ　ＡＮＤ　Ｕ株式会社,,株式会社,愛知県,名古屋市名東区,亀の井２丁目１７８－２－２階,,23,115,4650094,,,,,,,2025-05-19,1,,,,,ピーアンドユー,0
201,1180001166862,新規,0,2025-05-19,2025-05-19,株式会社ＡｎｏｔｈｅｒＳｔｏｒｙ,,株式会社,愛知県,名古屋市西区,則武新町３丁目１番８６号－１４０９,,23,104,4510051,,,,,,,2025-05-19,1,,,,,アナザーストーリー,0
202,1180001166870,新規,0,2025-05-19,2025-05-19,株式会社Ａｒｑｕｉｔ,,株式会社,愛知県,名古屋市緑区,相川２丁目５番地,,23,114,4580011,,,,,,,2025-05-19,1,,,,,アークイット,0
204,1180003028499,新規,0,2025-05-19,2025-05-19,合同会社ＡＤＶＡＮＣＥ　Ｘ,,合同会社,愛知県,名古屋市西区,比良１丁目１９３番地シャトー共栄Ｂ３０３,,23,104,4520802,,,,,,,2025-05-19,1,,,,,アドバンスエックス,0
213,1190005012054,新規,0,2025-05-19,2025-05-19,スマイシア司法書士法人,,その他の設立登記法人,三重県,四日市市,ときわ１丁目２番１８号,,24,202,5100834,,,,,,,2025-05-19,1,,,,,スマイシア,0
219,1200003006832,新規,0,2025-05-19,2025-05-19,ＨＴＭ　Ｔｒａｄｉｎｇ合同会社,,合同会社,岐阜県,岐阜市,今川７５番地の１岐北ビル１０６号室,,21,201,5011114,,,,,,,2025-05-19,1,,,,,エイチティエムトレーディング,0
235,1260001040209,新規,0,2025-05-19,2025-05-19,株式会社三輝,,株式会社,岡山県,倉敷市,真備町川辺２０９６番地１,,33,202,7101313,,,,,,,2025-05-19,1,,,,,サンキ,0
236,1280001009425,新規,0,2025-05-19,2025-05-19,松江エナジープラス株式会社,,株式会社,島根県,松江市,平成町１８２番地４２,,32,201,6900038,,,,,,,2025-05-19,1,,,,,マツエエナジープラス,0
257,1290003016823,新規,0,2025-05-19,2025-05-19,アソシエイト合同会社,,合同会社,福岡県,福津市,中央１丁目１６番６－１１１４号,,40,224,8113217,,,,,,,2025-05-19,1,,,,,アソシエイト,0
258,1290003016848,新規,0,2025-05-19,2025-05-19,合同会社ｋｏｈａｋｕ,,合同会社,福岡県,福岡市博多区,博多駅前１丁目２３番２号ＰａｒｋＦｒｏｎｔ博多駅前１丁目５Ｆ－Ｂ,,40,132,8120011,,,,,,,2025-05-19,1,,,,,コハク,0
259,1290003016856,新規,0,2025-05-19,2025-05-19,広瀬神社合同会社,,合同会社,福岡県,福岡市城南区,南片江２丁目１７－１６,,40,136,8140143,,,,,,,2025-05-19,1,,,,,ヒロセジンジャ,0
260,1290003016864,新規,0,2025-05-19,2025-05-19,ＧｒｏｗＳｈｉｆｔ合同会社,,合同会社,福岡県,福岡市博多区,博多駅前１丁目２３－２ＰａｒｋＦｒｏｎｔ博多駅前１丁目５Ｆ－Ｂ,,40,132,8120011,,,,,,,2025-05-19,1,,,,,グローシフト,0
262,1310001019610,新規,0,2025-05-19,2025-05-19,株式会社三代宮本屋,,株式会社,長崎県,諫早市,飯盛町後田１６０４番地,,42,204,8541105,,,,,,,2025-05-19,1,,,,,サンダイミヤモトヤ,0
268,1340001027313,新規,0,2025-05-19,2025-05-19,株式会社Ｓａｌｕｓ,,株式会社,鹿児島県,鹿児島市,浜町１番２－１４０４号,,46,201,8920812,,,,,,,2025-05-19,1,,,,,サルース,0
272,1370001052589,新規,0,2025-05-19,2025-05-19,ヒイラギ株式会社,,株式会社,宮城県,仙台市青葉区,一番町１丁目７番３５号ネベル仙台一番町レサン２０３号,,04,101,9800811,,,,,,,2025-05-19,1,,,,,ヒイラギ,0
275,1370003007095,新規,0,2025-05-19,2025-05-19,合同会社ライト,,合同会社,宮城県,仙台市青葉区,国見ケ丘４丁目７番地の８,,04,101,9893201,,,,,,,2025-05-19,1,,,,,ライト,0
278,1370005010956,新規,0,2025-05-19,2025-05-19,一般社団法人日本オーガニック時短妊活協会,,その他の設立登記法人,宮城県,仙台市若林区,新寺１丁目７番１－５１０号,,04,103,9840051,,,,,,,2025-05-19,1,,,,,ニホンオーガニックジタンニンカツキョウカイ,0
288,1420001019145,新規,0,2025-05-19,2025-05-19,株式会社プロスペクト,,株式会社,青森県,弘前市,大字茂森町２５番地１ＳＫビル２０１号,,02,202,0368217,,,,,,,2025-05-19,1,,,,,プロスペクト,0
295,1430001094410,新規,0,2025-05-19,2025-05-19,ウィンドＪａｐａｎ株式会社,,株式会社,北海道,千歳市,みどり台北４丁目２番地７,,01,224,0660083,,,,,,,2025-05-19,1,,,,,ウィンドジャパン,0
298,1430005015239,新規,0,2025-05-19,2025-05-19,一般社団法人さっぽろジュニアハム,,その他の設立登記法人,北海道,札幌市東区,北三十条東１４丁目１番１０号,,01,103,0650030,,,,,,,2025-05-19,1,,,,,サッポロジュニアハム,0
304,1500001026298,新規,0,2025-05-19,2025-05-19,株式会社あけぼの企画,,株式会社,愛媛県,西条市,西田甲５９９番地４,,38,206,7930062,,,,,,,2025-05-19,1,,,,,アケボノキカク,0
311,2010001254732,新規,0,2025-05-19,2025-05-19,株式会社ＯＲＯ　ＵＳＡＧＩ,,株式会社,東京都,千代田区,神田駿河台３丁目４龍名館本店ビル３階,,13,101,1010062,,,,,,,2025-05-19,1,,,,,オロウサギ,0
312,2010001254988,新規,0,2025-05-19,2025-05-19,株式会社ユーディーアール,,株式会社,東京都,千代田区,神田須田町１丁目７番８号ＶＯＲＴ秋葉原ＩＶ２Ｆ,00139201,13,101,1010041,,,,,,,2025-05-19,1,,,,,ユーディーアール,0
313,2010001255004,新規,0,2025-05-19,2025-05-19,株式会社スケットＤＧ,,株式会社,東京都,中央区,銀座７丁目１３番６号サガミビル２階,,13,102,1040061,,,,,,,2025-05-19,1,,,,,スケットディージー,0
316,2010003047333,新規,0,2025-05-19,2025-05-19,山中プロパティー合同会社,,合同会社,東京都,千代田区,丸の内１丁目１１番１号,,13,101,1000005,,,,,,,2025-05-19,1,,,,,ヤマナカプロパティー,0
317,2010003047341,新規,0,2025-05-19,2025-05-19,ピクシス合同会社,,合同会社,東京都,中央区,銀座１丁目１２－４,,13,102,1040061,,,,,,,2025-05-19,1,,,,,ピクシス,0
322,2010403035078,新規,0,2025-05-19,2025-05-19,雅東蓄電所開発合同会社,,合同会社,東京都,港区,芝５丁目３番７号三田奥山ビル２Ｆ,,13,103,1080014,,,,,,,2025-05-19,1,,,,,ガトウチクデンショカイハツ,0
324,2010501054046,新規,0,2025-05-19,2025-05-19,株式会社風林火山,,株式会社,東京都,台東区,千束３丁目９番４－１００１号,,13,106,1110031,,,,,,,2025-05-19,1,,,,,フウリンカザン,0
325,2010701047741,新規,0,2025-05-19,2025-05-19,ＰＩＡホールディングス株式会社,,株式会社,東京都,品川区,大崎１丁目２番２号,,13,109,1410032,,,,,,,2025-05-19,1,,,,,ピアホールディングス,0
326,2010801036157,新規,0,2025-05-19,2025-05-19,Ｂｒａｎｄｍｅ　ａｓｓｏｃｉａｔｅ株式会社,,株式会社,東京都,大田区,東六郷２丁目４番７－１１０号,,13,111,1440046,,,,,,,2025-05-19,1,,,,,ブランドミーアソシエイツ,0
329,2010901057251,新規,0,2025-05-19,2025-05-19,ＫＵＲＯＫＯ　Ｐａｒｔｎｅｒｓ株式会社,,株式会社,東京都,世田谷区,太子堂３丁目２３番２号メゾンエスカリエＡ,,13,112,1540004,,,,,,,2025-05-19,1,,,,,クロコパートナーズ,0
331,2011001169292,新規,0,2025-05-19,2025-05-19,株式会社ＧｏＥｎ,,株式会社,東京都,渋谷区,神南１丁目３番１－１２０１号,,13,113,1500041,,,,,,,2025-05-19,1,,,,,ゴエン,0
332,2011001169391,新規,0,2025-05-19,2025-05-19,恵比寿ＡＩ工学株式会社,,株式会社,東京都,渋谷区,猿楽町９－５秀和代官山レジデンス９０１,,13,113,1500033,,,,,,,2025-05-19,1,,,,,エビスエーアイコウガク,0
333,2011001169400,新規,0,2025-05-19,2025-05-19,ＢｒｉｇｈｔＦｌｕ株式会社,,株式会社,東京都,渋谷区,広尾１丁目７番７－３１３号,,13,113,1500012,,,,,,,2025-05-19,1,,,,,ブライトフル,0
334,2011001169722,新規,0,2025-05-19,2025-05-19,株式会社Ａｌｓｅｖｅ,,株式会社,東京都,目黒区,下目黒２丁目２番２－６０８号,,13,110,1530064,,,,,,,2025-05-19,1,,,,,アルセヴ,0
338,2011003021542,新規,0,2025-05-19,2025-05-19,合同会社ウォール,,合同会社,東京都,渋谷区,神南１丁目１１－４ＦＰＧリンクス神南５階,,13,113,1500041,,,,,,,2025-05-19,1,,,,,ウォール,0
344,2011101111732,新規,0,2025-05-19,2025-05-19,株式会社アミテン,,株式会社,東京都,新宿区,北新宿１丁目６番９号ＬｅｂｅｎＦ２０１,,13,104,1690074,,,,,,,2025-05-19,1,,,,,アミテン,0
345,2011101111765,新規,0,2025-05-19,2025-05-19,株式会社テニス３６５,,株式会社,東京都,新宿区,大京町２２番地１,,13,104,1600015,,,,,,,2025-05-19,1,,,,,テニスサンロクゴ,0
347,2011103015931,新規,0,2025-05-19,2025-05-19,合同会社ジェイ・ジー・エル,,合同会社,東京都,新宿区,下宮比町１番４号,,13,104,1620822,,,,,,,2025-05-19,1,,,,,ジェイジーエル,0
348,2011203004693,新規,0,2025-05-19,2025-05-19,合同会社Ａｎｖｉｌ,,合同会社,東京都,中野区,白鷺３丁目２２番７－２２４号,,13,114,1650035,,,,,,,2025-05-19,1,,,,,アンビル,0
349,2011301030583,新規,0,2025-05-19,2025-05-19,クロロス株式会社,,株式会社,東京都,杉並区,和田１丁目４２－１,,13,115,1660012,,,,,,,2025-05-19,1,,,,,クロロス,0
351,2011501032066,新規,0,2025-05-19,2025-05-19,智慧恒通株式会社,,株式会社,東京都,北区,浮間１丁目７－２３兆豊浮間ビル５０２号室,,13,117,1150051,,,,,,,2025-05-19,1,,,,,チケイコウツウ,0
355,2011801046138,新規,0,2025-05-19,2025-05-19,ＪＳＳＭＡＴ株式会社,,株式会社,東京都,足立区,中川４丁目３７番１７－６０１号,,13,121,1200002,,,,,,,2025-05-19,1,,,,,ジスマット,0
356,2011801046146,新規,0,2025-05-19,2025-05-19,ネオス株式会社,,株式会社,東京都,足立区,西新井３丁目１７番１－５２７,,13,121,1230841,,,,,,,2025-05-19,1,,,,,ネオス,0
360,2012701018870,新規,0,2025-05-19,2025-05-19,株式会社ＲＫＴ,,株式会社,東京都,小平市,小川町１丁目９４６番地の４７,,13,211,1870032,,,,,,,2025-05-19,1,,,,,アールケーティ,0
371,2020003028530,新規,0,2025-05-19,2025-05-19,合同会社コピ・ルアック,,合同会社,神奈川県,横浜市南区,大岡１丁目６１番３１号,,14,105,2320061,,,,,,,2025-05-19,1,,,,,コピルアック,0
381,2021001085183,新規,0,2025-05-19,2025-05-19,２ｎｄＰＡＳＳ株式会社,,株式会社,神奈川県,藤沢市,本町４丁目７番１８号,,14,205,2510053,,,,,,,2025-05-19,1,,,,,セカンドパス,0
382,2021001085258,新規,0,2025-05-19,2025-05-19,ヘディスジャパン株式会社,,株式会社,神奈川県,横須賀市,小川町９－５富士ビル３階,,14,201,2380004,,,,,,,2025-05-19,1,,,,,ヘディスジャパン,0
384,2021003015997,新規,0,2025-05-19,2025-05-19,合同会社Ｖｉａ　Ｎｏｖａ,,合同会社,神奈川県,相模原市南区,相南３丁目３８番２１‐１号,,14,153,2520312,,,,,,,2025-05-19,1,,,,,ビアノバ,0
385,2021003016021,新規,0,2025-05-19,2025-05-19,ＡＮ　ＰＨＵ合同会社,,合同会社,神奈川県,座間市,相模が丘５丁目２６番１７号トヨダコーポ２０５号室,,14,216,2520001,,,,,,,2025-05-19,1,,,,,アンフー,0
390,2030003026806,新規,0,2025-05-19,2025-05-19,合同会社ｇｒｅｅｎ　ｏｐｔｉｃａｌ,,合同会社,埼玉県,東松山市,松葉町１丁目５－４,,11,212,3550017,,,,,,,2025-05-19,1,,,,,グリーンオプティカル,0
397,2040001138692,新規,0,2025-05-19,2025-05-19,Ｔ＆Ｃ株式会社,,株式会社,千葉県,八街市,大谷流８６０番地９,,12,230,2891134,,,,,,,2025-05-19,1,,,,,ティーアンドシー,0
398,2040001138734,新規,0,2025-05-19,2025-05-19,株式会社ファーイーストコネクション,,株式会社,千葉県,八千代市,村上１９７５番地７５,,12,221,2760028,,,,,,,2025-05-19,1,,,,,ファーイーストコネクション,0
399,2040001138825,新規,0,2025-05-19,2025-05-19,株式会社ＷｏｒｋＩｎＳｙｎｃ,,株式会社,千葉県,松戸市,五香南２丁目２２番地の１,,12,207,2702212,,,,,,,2025-05-19,1,,,,,ワークインシンク,0
403,2040003027381,新規,0,2025-05-19,2025-05-19,ＧｏｏｄＬｏｏｐ合同会社,,合同会社,千葉県,浦安市,東野３丁目１７番９号,,12,227,2790042,,,,,,,2025-05-19,1,,,,,グットループ,0
404,2040003027605,新規,0,2025-05-19,2025-05-19,合同会社アリヴィオン,,合同会社,千葉県,松戸市,胡録台１８９番地の１オーベル松戸ヒルズ５０２号,,12,207,2710075,,,,,,,2025-05-19,1,,,,,アリヴィオン,0
406,2050001056704,新規,0,2025-05-19,2025-05-19,Ｆｒｕｉｔｆｕｌ　Ｇｒｏｕｐ　Ｊａｐａｎ株式会社,,株式会社,茨城県,つくば市,東岡４７０番地７,,08,220,3050027,,,,,,,2025-05-19,1,,,,,フルーツフルグループジャパン,0
410,2070001042933,新規,0,2025-05-19,2025-05-19,株式会社松永鉄工所,,株式会社,群馬県,吾妻郡嬬恋村,大字干俣１４３２番地２,,10,425,3771611,,,,,,,2025-05-19,1,,,,,マツナガテッコウジョ,0
413,2080001026943,新規,0,2025-05-19,2025-05-19,株式会社くまのり,,株式会社,静岡県,静岡市葵区,栄町２番地５アークビルディング５０２,,22,101,4200859,,,,,,,2025-05-19,1,,,,,クマノリ,0
435,2120001275809,新規,0,2025-05-19,2025-05-19,アールマテリアル株式会社,,株式会社,大阪府,大阪市北区,曾根崎２丁目１２番７号,,27,127,5300057,,,,,,,2025-05-19,1,,,,,アールマテリアル,0
436,2120001275817,新規,0,2025-05-19,2025-05-19,嘉木坊株式会社,,株式会社,大阪府,大阪市平野区,長吉六反３丁目７番６号,,27,126,5470012,,,,,,,2025-05-19,1,,,,,カボクボウ,0
437,2120001275833,新規,0,2025-05-19,2025-05-19,株式会社だるま,,株式会社,大阪府,寝屋川市,清水町２１番１７号,,27,215,5720044,,,,,,,2025-05-19,1,,,,,ダルマ,0
438,2120001275882,新規,0,2025-05-19,2025-05-19,株式会社ＹＯＲＯＺＵ　ＣＲＥＡＴＩＯＮ,,株式会社,大阪府,大阪市北区,梅田１丁目２番２号大阪駅前第２ビル１２－１２,,27,127,5300001,,,,,,,2025-05-19,1,,,,,ヨロズクリエーション,0
442,2120003029460,新規,0,2025-05-19,2025-05-19,ＩＳＺ　ＧＲＯＵＰ合同会社,,合同会社,大阪府,大阪市住吉区,長居東４丁目２番６号農脇ビル３階西,,27,120,5580004,,,,,,,2025-05-19,1,,,,,アイエスズィーグループ,0
443,2120003029519,新規,0,2025-05-19,2025-05-19,合同会社Ｍ＆Ｈキャピタル,,合同会社,大阪府,枚方市,出口１丁目１７番１‐１０１３号,,27,210,5730065,,,,,,,2025-05-19,1,,,,,エムアンドエイチキャピタル,0
444,2120005024939,新規,0,2025-05-19,2025-05-19,ＮＰＯ法人福祉のトビラ,,その他の設立登記法人,大阪府,大阪市港区,築港２丁目１－１９築港ターミナルＷＨＡＲＦ０２,,27,107,5520021,,,,,,,2025-05-19,1,,,,,フクシノトビラ,0
446,2120101071678,新規,0,2025-05-19,2025-05-19,行遠株式会社,,株式会社,大阪府,堺市堺区,甲斐町西１丁１－２８－９０８号,,27,141,5900950,,,,,,,2025-05-19,1,,,,,ギョウエン,0
447,2120101071694,新規,0,2025-05-19,2025-05-19,株式会社山口工業,,株式会社,大阪府,堺市東区,白鷺町１丁１２番３号,,27,143,5998107,,,,,,,2025-05-19,1,,,,,ヤマグチコウギョウ,0
448,2120101071703,新規,0,2025-05-19,2025-05-19,株式会社サード,,株式会社,大阪府,和泉市,府中町１丁目３－１ロードインいずみ３階,,27,219,5940071,,,,,,,2025-05-19,1,,,,,サード,0
453,2120103006467,新規,0,2025-05-19,2025-05-19,合同会社橋本中小企業診断士ファーム,,合同会社,大阪府,堺市堺区,南陵町３丁３番５号,,27,141,5900811,,,,,,,2025-05-19,1,,,,,ハシモトチュウショウキギョウシンダンシファーム,0
460,2120901050856,新規,0,2025-05-19,2025-05-19,株式会社ＡＫＴ　Ｓｏｃｉａｌ　ｃｏｎｔｒｉｂｕｔｅ,,株式会社,大阪府,豊中市,上新田２丁目９番３０－２０６号,,27,203,5600085,,,,,,,2025-05-19,1,,,,,エーケーティソーシャルコントルビュート,0
461,2120901050872,新規,0,2025-05-19,2025-05-19,株式会社Ｌｉｆｅ　Ｂａｓｅ,,株式会社,大阪府,吹田市,芳野町３－３アルモニア江坂２０１,,27,205,5640054,,,,,,,2025-05-19,1,,,,,ライフベース,0
462,2120901050880,新規,0,2025-05-19,2025-05-19,株式会社ＰＯＲＴＯＮＡ,,株式会社,大阪府,茨木市,彩都やまぶき３丁目１番７－１０４号,,27,211,5670086,,,,,,,2025-05-19,1,,,,,ポルトナ,0
468,2130001079696,新規,0,2025-05-19,2025-05-19,株式会社Ｇｏｏｄ　Ｍｏｄｅ,,株式会社,京都府,京都市東山区,今熊野宝蔵町５３－３,,26,105,6050952,,,,,,,2025-05-19,1,,,,,グッドモード,0
473,2140003022083,新規,0,2025-05-19,2025-05-19,スイングル合同会社,,合同会社,兵庫県,神戸市中央区,山本通２丁目１３番１５号ＷＡＬＬＳＱＵＡＲＥ北野坂１Ｆ,,28,110,6500003,,,,,,,2025-05-19,1,,,,,スイングル,0
476,2180001166795,新規,0,2025-05-19,2025-05-19,柯泰株式会社,,株式会社,愛知県,弥富市,東末広１丁目３番地,,23,235,4980063,,,,,,,2025-05-19,1,,,,,カタイ,0
477,2180001166820,新規,0,2025-05-19,2025-05-19,株式会社ＷＡＶＥＳ,,株式会社,愛知県,名古屋市中村区,岩塚町５丁目４０番地の７,,23,105,4530862,,,,,,,2025-05-19,1,,,,,ウェーブス,0
478,2180001166845,新規,0,2025-05-19,2025-05-19,アイチモータース株式会社,,株式会社,愛知県,知多市,八幡字勘右エ門沢８１番地の２,,23,224,4780001,,,,,,,2025-05-19,1,,,,,アイチモータース,0
480,2180003028473,新規,0,2025-05-19,2025-05-19,合同会社ウシジマ工業,,合同会社,愛知県,あま市,新居屋辻畑５４番地ハイ・レジデンス５０２号,00139206,23,237,4901105,,,,,,,2025-05-19,1,,,,,ウシジマコウギョウ,0
481,2180003028498,新規,0,2025-05-19,2025-05-19,合同会社前津ヘリテージ,,合同会社,愛知県,名古屋市中区,大須４丁目１３番３８号,,23,106,4600011,,,,,,,2025-05-19,1,,,,,マエヅヘリテージ,0
489,2200001043793,新規,0,2025-05-19,2025-05-19,タキノコ株式会社,,株式会社,岐阜県,多治見市,脇之島町６丁目１０５番地３,,21,204,5070826,,,,,,,2025-05-19,1,,,,,タキノコ,0
492,2220003004032,新規,0,2025-05-19,2025-05-19,ＴＡＫＡＫＵ合同会社,,合同会社,石川県,白山市,成町３２７番地,,17,210,9240023,,,,,,,2025-05-19,1,,,,,タカク,0
494,2240003007215,新規,0,2025-05-19,2025-05-19,ＯＣＥＡＮ合同会社,,合同会社,広島県,広島市佐伯区,八幡東２丁目１５番２５－１０２号,,34,108,7315115,,,,,,,2025-05-19,1,,,,,オーシャン,0
499,2260001040208,新規,0,2025-05-19,2025-05-19,株式会社Ｌｅａｄ,,株式会社,岡山県,倉敷市,大島２８５番地６,,33,202,7100047,,,,,,,2025-05-19,1,,,,,リード,0
500,2260003005175,新規,0,2025-05-19,2025-05-19,ＵＳＭＡＮ合同会社,,合同会社,岡山県,玉野市,御崎１丁目８－２５,,33,204,7060024,,,,,,,2025-05-19,1,,,,,ウスマン,0
512,2290001110065,新規,0,2025-05-19,2025-05-19,株式会社Ｎ産業開発,,株式会社,福岡県,みやま市,瀬高町文廣１０８番地３,,40,229,8350022,,,,,,,2025-05-19,1,,,,,エヌサンギョウカイハツ,0
513,2290001110073,新規,0,2025-05-19,2025-05-19,株式会社Ｍａｋｅ　ＥＮ,,株式会社,福岡県,大野城市,仲畑４丁目１３－６,,40,219,8160921,,,,,,,2025-05-19,1,,,,,メイクエン,0
522,2290003016855,新規,0,2025-05-19,2025-05-19,合同会社ＰＬＡ・ＳＭＡＲＴ,,合同会社,福岡県,大野城市,中央２丁目５番１７－７０１号,,40,219,8160942,,,,,,,2025-05-19,1,,,,,プラスマート,0
524,2290005019749,新規,0,2025-05-19,2025-05-19,一般社団法人みらいのミカタ,,その他の設立登記法人,福岡県,福岡市東区,千早５丁目２１番１号矢野ビル３０３,,40,131,8130044,,,,,,,2025-05-19,1,,,,,ミライノミカタ,0
529,2330001033212,新規,0,2025-05-19,2025-05-19,株式会社プルーフ,,株式会社,熊本県,熊本市中央区,八王寺町３８番地６,,43,101,8600831,,,,,,,2025-05-19,1,,,,,プルーフ,0
532,2340001027337,新規,0,2025-05-19,2025-05-19,株式会社ＢＬＯＳＳ,,株式会社,鹿児島県,姶良市,松原町３丁目４番地２,,46,225,8995422,,,,,,,2025-05-19,1,,,,,ブロス,0
539,2370001052588,新規,0,2025-05-19,2025-05-19,株式会社ＷＥＬＦＩＸ,,株式会社,宮城県,仙台市青葉区,中央１丁目７番４号宮城商事ビル４Ｆ,,04,101,9800021,,,,,,,2025-05-19,1,,,,,ウェルフィックス,0
550,2420001019144,新規,0,2025-05-19,2025-05-19,株式会社Ｌｅｇ　Ｂｏｎｅ,,株式会社,青森県,八戸市,城下１丁目２１番２２号,,02,203,0310072,,,,,,,2025-05-19,1,,,,,レッグボーン,0
561,2500001026297,新規,0,2025-05-19,2025-05-19,株式会社大盛,,株式会社,愛媛県,松山市,須賀町１番８号,,38,201,7918052,,,,,,,2025-05-19,1,,,,,タイセイ,0
565,2700150130458,新規,0,2025-05-19,2025-05-14,カーサロブレ管理組合,,その他,栃木県,小山市,中央町３丁目７－１,,09,208,3230023,,,,,,,2025-05-14,1,,,,,カーサロブレカンリクミアイ,0
566,2700150130532,新規,0,2025-05-19,2025-05-19,ＥＸＰＲＥＳＳ　ＬＵＣＫ　ＩＮＤＵＳＴＲＩＡＬ（ＺＨＯＮＧＳＨＡＮ）ＬＩＭＩＴＥＤ,,外国会社等,,,,,,,,ＮＯ．１６，Ｌａｎｇｙｕａｎ　Ｒｏａｄ，ｊｉｅｙｕａｎ　Ａｄｍｉｎｉｓｔｒａｔｉｖｅ　Ｖｉｌｌａｇｅ，Ｍｉｎｚｈｏｎｇ　Ｔｏｗｎ，Ｚｈｏｎｇｓｈａｎ，ＧｕａｎｇＤｏｎｇ，ＣＮ,,,,,,2025-05-19,1,,,,,エクスプレスラクインダストリアルジヨンシヤンカンパニーリミテツド,0
576,3010001254863,新規,0,2025-05-19,2025-05-19,株式会社千年社,,株式会社,東京都,千代田区,神田富山町７番地,,13,101,1010043,,,,,,,2025-05-19,1,,,,,センネンシャ,0
577,3010001255028,新規,0,2025-05-19,2025-05-19,株式会社常世,,株式会社,東京都,中央区,日本橋室町１丁目１１－１２日本橋水野ビル７階,,13,102,1030022,,,,,,,2025-05-19,1,,,,,トコヨ,0
580,3010003047340,新規,0,2025-05-19,2025-05-19,ＳＳテクノロジー合同会社,,合同会社,東京都,中央区,銀座１丁目１２番４号Ｎ＆Ｅ・ＢＬＤ．６Ｆ,,13,102,1040061,,,,,,,2025-05-19,1,,,,,エスエステクノロジー,0
581,3010003047381,新規,0,2025-05-19,2025-05-19,ｉプロパティ２２合同会社,,合同会社,東京都,千代田区,永田町２丁目１４番２号－３階スリーアイズキャピタル株式会社内,,13,101,1000014,,,,,,,2025-05-19,1,,,,,アイプロパティトゥエンティツー,0
606,3010603011563,新規,0,2025-05-19,2025-05-19,ｓａＫａｉ合同会社,,合同会社,東京都,江東区,大島１丁目１番１８号アビタシオン大島９０６,,13,108,1360072,,,,,,,2025-05-19,1,,,,,サカイ,0
614,3011003021541,新規,0,2025-05-19,2025-05-19,合同会社Ｋｏｎｔａｉｎｅｒ,,合同会社,東京都,渋谷区,渋谷２丁目１９番１９号ワコー宮益坂ビル５階,,13,113,1500002,,,,,,,2025-05-19,1,,,,,コンテナ,0
615,3011003021590,新規,0,2025-05-19,2025-05-19,合同会社リ・ドラゴ,,合同会社,東京都,渋谷区,円山町１５番３号,,13,113,1500044,,,,,,,2025-05-19,1,,,,,リドラゴ,0
616,3011005010963,新規,0,2025-05-19,2025-05-19,一般社団法人日本臨床心理センター,,その他の設立登記法人,東京都,渋谷区,神宮前６丁目２３－４－２Ｆ,,13,113,1500001,,,,,,,2025-05-19,1,,,,,ニッポンリンショウシンリセンター,0
620,3011301030590,新規,0,2025-05-19,2025-05-19,大灯株式会社,,株式会社,東京都,杉並区,清水３丁目１３番１４号,,13,115,1670033,,,,,,,2025-05-19,1,,,,,ダイトウ,0
621,3011403004699,新規,0,2025-05-19,2025-05-19,エンパートナーズ合同会社,,合同会社,東京都,板橋区,小茂根２丁目１７番１４号,,13,119,1730037,,,,,,,2025-05-19,1,,,,,エンパートナーズ,0
622,3011501032073,新規,0,2025-05-19,2025-05-19,株式会社福信,,株式会社,東京都,北区,王子２丁目２番９－１０１号,,13,117,1140002,,,,,,,2025-05-19,1,,,,,フクシン,0
626,3011801046129,新規,0,2025-05-19,2025-05-19,株式会社Ｎ２ロード,,株式会社,東京都,足立区,竹の塚１丁目２８番１０号小林方３Ｆ,,13,121,1210813,,,,,,,2025-05-19,1,,,,,エヌツーロード,0
632,3012403007139,新規,0,2025-05-19,2025-05-19,リバービレッジエステート合同会社,,合同会社,東京都,多摩市,諏訪１丁目６６－１－８０７,,13,224,2060024,,,,,,,2025-05-19,1,,,,,リバービレッジエステート,0
644,3020001162867,新規,0,2025-05-19,2025-05-19,株式会社ライズワーカーズ,,株式会社,神奈川県,横浜市戸塚区,小雀町２３２７番地９,,14,110,2440004,,,,,,,2025-05-19,1,,,,,ライズワーカーズ,0
645,3020001162875,新規,0,2025-05-19,2025-05-19,エルアンドエス株式会社,,株式会社,神奈川県,川崎市川崎区,南町２１－８アーリアシティ川崎８０６,,14,131,2100015,,,,,,,2025-05-19,1,,,,,エルアンドエス,0
646,3020001162909,新規,0,2025-05-19,2025-05-19,Ｍｅｇｕｍｉ株式会社,,株式会社,神奈川県,横浜市港南区,港南１丁目１３番５号,,14,111,2330003,,,,,,,2025-05-19,1,,,,,メグミ,0
647,3020001162925,新規,0,2025-05-19,2025-05-19,株式会社クリーンネクト,,株式会社,神奈川県,横浜市西区,南浅間町２－８,,14,103,2200074,,,,,,,2025-05-19,1,,,,,クリーンネクト,0
652,3021001085249,新規,0,2025-05-19,2025-05-19,ｔｈｅ　ｔｅａｍ株式会社,,株式会社,神奈川県,三浦郡葉山町,堀内１６０－１－２０６,,14,301,2400112,,,,,,,2025-05-19,1,,,,,ザチーム,0
653,3021001085257,新規,0,2025-05-19,2025-05-19,株式会社アフロディーテ,,株式会社,神奈川県,茅ヶ崎市,共恵１丁目１番８号野中ビル２Ｆ店舗Ｃ,,14,207,2530056,,,,,,,2025-05-19,1,,,,,アフロディーテ,0
654,3021003016012,新規,0,2025-05-19,2025-05-19,合同会社ＣａｔＯｎｅ,,合同会社,神奈川県,横須賀市,田浦町３丁目７０番地８,,14,201,2370075,,,,,,,2025-05-19,1,,,,,キャットワン,0
669,3040001138790,新規,0,2025-05-19,2025-05-19,ナイタルプラス株式会社,,株式会社,千葉県,千葉市中央区,中央３丁目１８番地３号Ｎｏ．１０２７,,12,101,2600013,,,,,,,2025-05-19,1,,,,,ナイタルプラス,0
670,3040001138816,新規,0,2025-05-19,2025-05-19,株式会社ＡＲＵＫＵ　ＣＯＭＰＡＮＹ,,株式会社,千葉県,千葉市緑区,あすみが丘２丁目１６番地１４,,12,105,2670066,,,,,,,2025-05-19,1,,,,,アルクカンパニー,0
673,3040003027604,新規,0,2025-05-19,2025-05-19,ＧＲＯＭＡ　ＪＡＰＡＮ合同会社,,合同会社,千葉県,鎌ケ谷市,東初富５丁目１６－１０,,12,224,2730122,,,,,,,2025-05-19,1,,,,,グローマジャパン,0
677,3050005013634,新規,0,2025-05-19,2025-05-19,一般社団法人全日本ペットパートナーシップ協会,,その他の設立登記法人,茨城県,つくば市,苅間２０３１番地,,08,220,3050822,,,,,,,2025-05-19,1,,,,,ゼンニホンペットパートナーシップキョウカイ,0
678,3060003005558,新規,0,2025-05-19,2025-05-19,合同会社ＣｒｏｓｓＬｉｎｋ,,合同会社,栃木県,宇都宮市,平出町３７７５番地７４,,09,201,3210901,,,,,,,2025-05-19,1,,,,,クロスリンク,0
684,3080401027912,新規,0,2025-05-19,2025-05-19,株式会社八百直いろは,,株式会社,静岡県,磐田市,今之浦２丁目１６番地７,,22,211,4380071,,,,,,,2025-05-19,1,,,,,ヤオチョクイロハ,0
685,3090001019276,新規,0,2025-05-19,2025-05-19,株式会社山城,,株式会社,山梨県,甲府市,国母６丁目５番１号,,19,201,4000043,,,,,,,2025-05-19,1,,,,,ヤマシロ,0
690,3100001038613,新規,0,2025-05-19,2025-05-19,クーベルグエステート株式会社,,株式会社,長野県,松本市,元町３丁目３番８号,,20,202,3900803,,,,,,,2025-05-19,1,,,,,クーベルグエステート,0
706,3120001275675,新規,0,2025-05-19,2025-05-19,株式会社ＧＲＡＶＩＱ,,株式会社,大阪府,門真市,舟田町１２番４３号,,27,223,5710021,,,,,,,2025-05-19,1,,,,,グラヴィック,0
707,3120001275709,新規,0,2025-05-19,2025-05-19,株式会社ＨＡＤＡ研究所,,株式会社,大阪府,大阪市東淀川区,東中島１丁目６番１４号第２日大ビル１００２号室,,27,114,5330033,,,,,,,2025-05-19,1,,,,,ハダケンキュウジョ,0
708,3120001275824,新規,0,2025-05-19,2025-05-19,株式会社ビルドリンク,,株式会社,大阪府,大阪市中央区,瓦町４丁目５番３号５階８号室,,27,128,5410048,,,,,,,2025-05-19,1,,,,,ビルドリンク,0
709,3120001275832,新規,0,2025-05-19,2025-05-19,株式会社ミライフ,,株式会社,大阪府,大阪市生野区,巽東２丁目９番２５号,00139202,27,116,5440014,,,,,,,2025-05-19,1,,,,,ミライフ,0
710,3120001275849,新規,0,2025-05-19,2025-05-19,インテック株式会社,,株式会社,大阪府,大阪市浪速区,敷津西１丁目１番２８号ワキタビル３Ａ,,27,111,5560015,,,,,,,2025-05-19,1,,,,,インテック,0
712,3120003029427,新規,0,2025-05-19,2025-05-19,Ｇｌａｓｓ　Ｔｏｗｅｒ　Ｊａｐａｎ合同会社,,合同会社,大阪府,大阪市中央区,谷町７丁目６番３２号Ｂ１,,27,128,5420012,,,,,,,2025-05-19,1,,,,,グラスタワージャパン,0
713,3120003029476,新規,0,2025-05-19,2025-05-19,大阪商会合同会社,,合同会社,大阪府,大阪市西区,北堀江１丁目１４－２０－３０１,,27,106,5500014,,,,,,,2025-05-19,1,,,,,オオサカショウカイ,0
715,3120101071693,新規,0,2025-05-19,2025-05-19,株式会社Ｉ＆Ｙ,,株式会社,大阪府,貝塚市,水間４８１番地２,,27,208,5970104,,,,,,,2025-05-19,1,,,,,アイアンドワイ,0
716,3120101071702,新規,0,2025-05-19,2025-05-19,株式会社ｄｏｔｔｏ　ｉｄｅａ,,株式会社,大阪府,富田林市,大字嬉４５番地２,,27,214,5840056,,,,,,,2025-05-19,1,,,,,ドットアイディア,0
717,3120103006458,新規,0,2025-05-19,2025-05-19,合資会社チェリーガーデン,,合資会社,大阪府,堺市中区,八田南之町３８７番地１,,27,142,5998263,,,,,,,2025-05-19,1,,,,,チェリーガーデン,0
718,3120103006466,新規,0,2025-05-19,2025-05-19,合同会社わちか,,合同会社,大阪府,堺市堺区,中瓦町１丁４番２２号大阪信用金庫堺東ビル２Ｆ,,27,141,5900077,,,,,,,2025-05-19,1,,,,,ワチカ,0
724,3120901050855,新規,0,2025-05-19,2025-05-19,株式会社クリシェ,,株式会社,大阪府,高槻市,津之江町２丁目２番２－６０１号,,27,207,5690822,,,,,,,2025-05-19,1,,,,,クリシェ,0
725,3120901050871,新規,0,2025-05-19,2025-05-19,株式会社翔,,株式会社,大阪府,茨木市,耳原１丁目６番２２号２０１号,,27,211,5670006,,,,,,,2025-05-19,1,,,,,カケル,0
730,3130001079687,新規,0,2025-05-19,2025-05-19,ＸｅｎｉｔｈＦｏａｍ株式会社,,株式会社,京都府,京都市伏見区,竹田北三ツ杭町４８,,26,109,6128419,,,,,,,2025-05-19,1,,,,,ゼニスフォーム,0
732,3130003010468,新規,0,2025-05-19,2025-05-19,合同会社リグプロ,,合同会社,京都府,宇治市,宇治半白８７番地の３,,26,204,6110021,,,,,,,2025-05-19,1,,,,,リグプロ,0
734,3140001138574,新規,0,2025-05-19,2025-05-19,シュアバロンズ株式会社,,株式会社,兵庫県,神戸市中央区,磯辺通４丁目１番４１－２５０３号,,28,110,6510084,,,,,,,2025-05-19,1,,,,,シュアバロンズ,0
747,3180001166737,新規,0,2025-05-19,2025-05-19,株式会社ＵＮＩＱＯＲＮ,,株式会社,愛知県,名古屋市千種区,千種３丁目３３番１１号,,23,101,4640858,,,,,,,2025-05-19,1,,,,,ユニコーン,0
748,3180001166836,新規,0,2025-05-19,2025-05-19,株式会社学,,株式会社,愛知県,一宮市,羽衣２丁目２番１０号,,23,203,4910025,,,,,,,2025-05-19,1,,,,,マナブ,0
749,3180001166877,新規,0,2025-05-19,2025-05-19,株式会社平岡設計,,株式会社,愛知県,名古屋市守山区,吉根２丁目１０１番地,,23,113,4630004,,,,,,,2025-05-19,1,,,,,ヒラオカセッケイ,0
752,3180301039816,新規,0,2025-05-19,2025-05-19,株式会社創大,,株式会社,愛知県,豊田市,西山町３丁目１４番地１,,23,211,4710062,,,,,,,2025-05-19,1,,,,,ソウダイ,0
754,3180305009690,新規,0,2025-05-19,2025-05-19,一般社団法人幸田三河福祉会,,その他の設立登記法人,愛知県,額田郡幸田町,大字坂崎字西長根２５番地１,,23,501,4440104,,,,,,,2025-05-19,1,,,,,コウダミカワフクシカイ,0
762,3220001026688,新規,0,2025-05-19,2025-05-19,株式会社レガレイラ,,株式会社,石川県,能美市,道林町ト１００番地３,,17,211,9290125,,,,,,,2025-05-19,1,,,,,レガレイラ,0
763,3220005008971,新規,0,2025-05-19,2025-05-19,一般社団法人すず未来デザイン,,その他の設立登記法人,石川県,珠洲市,野々江町ヲの部３１番地１,,17,205,9271213,,,,,,,2025-05-19,1,,,,,スズミライデザイン,0
764,3230001020847,新規,0,2025-05-19,2025-05-19,株式会社ドクターデータ,,株式会社,富山県,富山市,中島２丁目４‐２８,,16,201,9300801,,,,,,,2025-05-19,1,,,,,ドクターデータ,0
767,3240003007214,新規,0,2025-05-19,2025-05-19,合同会社ＫＵＲＯ,,合同会社,広島県,広島市東区,牛田南１丁目９番２３号,,34,102,7320064,,,,,,,2025-05-19,1,,,,,クロ,0
772,3260001040173,新規,0,2025-05-19,2025-05-19,ＨＵＹ　ＨＯＡＮＧ株式会社,,株式会社,岡山県,岡山市中区,国府市場６６８番地１,,33,102,7038203,,,,,,,2025-05-19,1,,,,,フイホアン,0
773,3260003005182,新規,0,2025-05-19,2025-05-19,合同会社マーガレット,,合同会社,岡山県,岡山市北区,磨屋町６－１１－１－３０３,,33,101,7000826,,,,,,,2025-05-19,1,,,,,マーガレット,0
782,3290001110031,新規,0,2025-05-19,2025-05-19,Ｒｏｎ　Ｃｕｌｔｕｒａｌ　Ｄｅｖｅｌｏｐｍｅｎｔ株式会社,,株式会社,福岡県,宗像市,大谷３７番地１５,,40,220,8114141,,,,,,,2025-05-19,1,,,,,ロンカルチュラルディベロップメント,0
783,3290001110064,新規,0,2025-05-19,2025-05-19,株式会社ＧＲＡＣＥ　Ｈｅａｔｈ,,株式会社,福岡県,福岡市早良区,有田５丁目１８番２３号,,40,137,8140033,,,,,,,2025-05-19,1,,,,,グレースヒース,0
784,3290001110072,新規,0,2025-05-19,2025-05-19,株式会社Ｎｙａｍｓ,,株式会社,福岡県,福岡市博多区,博多駅南２丁目１６番１０－３０１号,,40,132,8120016,,,,,,,2025-05-19,1,,,,,ニャムズ,0
799,3320003004665,新規,0,2025-05-19,2025-05-19,合同会社奈良保険事務所,,合同会社,大分県,宇佐市,大字江須賀１４７６番地の４,,44,211,8720032,,,,,,,2025-05-19,1,,,,,ナラホケンジムショ,0
805,3350003004935,新規,0,2025-05-19,2025-05-19,合同会社山本林業,,合同会社,宮崎県,串間市,大字西方２８６４番地,,45,207,8880001,,,,,,,2025-05-19,1,,,,,ヤマモトリンギョウ,0
806,3350005006310,新規,0,2025-05-19,2025-05-19,無限責任田ノ原負債整理組合,,その他の設立登記法人,宮崎県,日向市,,,45,206,8830000,,,,,,,2025-05-19,1,,,,,,0
808,3360001035196,新規,0,2025-05-19,2025-05-19,ＦｏｏｄＬｏｖ株式会社,,株式会社,沖縄県,南城市,玉城字垣花３２４番地１ハウス虹１０１号室,,47,215,9010601,,,,,,,2025-05-19,1,,,,,フードラブ,0
809,3360001035205,新規,0,2025-05-19,2025-05-19,石垣島商事株式会社,,株式会社,沖縄県,石垣市,字登野城４０－２,,47,207,9070004,,,,,,,2025-05-19,1,,,,,イシガキジマショウジ,0
813,3360003014925,新規,0,2025-05-19,2025-05-19,やんばるフィールズ合同会社,,合同会社,沖縄県,国頭郡国頭村,字辺土名１１９―６番地,,47,301,9051411,,,,,,,2025-05-19,1,,,,,ヤンバルフィールズ,0
816,3370001052579,新規,0,2025-05-19,2025-05-19,ＳＥＳＳＩＯＮ株式会社,,株式会社,宮城県,仙台市泉区,泉中央３丁目５番地の１コープ野村泉中央ヒルズ２０３,,04,105,9813133,,,,,,,2025-05-19,1,,,,,セッション,0
824,3380003006045,新規,0,2025-05-19,2025-05-19,合同会社３１０ＴＲＵＳＴ,,合同会社,福島県,福島市,黒岩字弥生１６番地の５,,07,201,9608153,,,,,,,2025-05-19,1,,,,,サンイチマルトラスト,0
833,3430001094409,新規,0,2025-05-19,2025-05-19,株式会社ＵＮＩＬＩＮＫ,,株式会社,北海道,札幌市西区,発寒六条１３丁目１０番４５号,,01,107,0630826,,,,,,,2025-05-19,1,,,,,ユニリンク,0
834,3450001014629,新規,0,2025-05-19,2025-05-19,ノースコネクション株式会社,,株式会社,北海道,旭川市,春光台四条９丁目１番地の５,,01,204,0718144,,,,,,,2025-05-19,1,,,,,ノースコネクション,0
837,3700150130572,新規,0,2025-05-19,2025-05-19,Ｈａｎｇｚｈｏｕ　Ｈａｎｒｏｎｇ　Ｔｒａｄｉｎｇ　Ｃｏ．，Ｌｔｄ．,,外国会社等,,,,,,,,Ｎｅｘｔ　ｔｏ　Ｔｏｎｇｙａｏ　Ｒｏａｄ，Ｃｈａｉｃｈａｎｇ　Ｌａｎｅ　Ｆａｎｇｂｕ　Ｖｉｌｌａｇｅ，Ｈｅｎｇｃｕｎ　Ｔｏｗｎ，Ｔｏｎｇｌｕ　Ｈａｎｇｚｈｏｕ　Ｚｈｅｊｉａｎｇ,,,,,,2025-05-19,1,,,,,ハンジョウハンロントレーディングカンパニーリミテッド,0
851,4010001255010,新規,0,2025-05-19,2025-05-19,クラシノマッチ株式会社,,株式会社,東京都,千代田区,岩本町１丁目１３番３号１Ｆ,,13,101,1010032,,,,,,,2025-05-19,1,,,,,クラシノマッチ,0
852,4010001255035,新規,0,2025-05-19,2025-05-19,株式会社グレンリバー,,株式会社,東京都,千代田区,九段南１丁目５－６りそな九段ビル５Ｆ．ＫＳフロア,,13,101,1020074,,,,,,,2025-05-19,1,,,,,グレンリバー,0
854,4010003047380,新規,0,2025-05-19,2025-05-19,ｉプロパティ２１合同会社,,合同会社,東京都,千代田区,永田町２丁目１４番２号－３階スリーアイズキャピタル株式会社内,,13,101,1000014,,,,,,,2025-05-19,1,,,,,アイプロパティトゥエンティワン,0
857,4010103002574,新規,0,2025-05-19,2025-05-19,合同会社Ｆｌａｔｔｏｎ,,合同会社,東京都,八王子市,堀之内３丁目５―９すまいる館京王堀之内４０２号,,13,201,1920355,,,,,,,2025-05-19,1,,,,,フラトン,0
861,4010401190369,新規,0,2025-05-19,2025-05-19,株式会社カイタク・パートナーズ,,株式会社,東京都,港区,赤坂２丁目１８－１３,,13,103,1070052,,,,,,,2025-05-19,1,,,,,カイタクパートナーズ,0
862,4010501054044,新規,0,2025-05-19,2025-05-19,マンワジャパン株式会社,,株式会社,東京都,台東区,上野６丁目７－１６川久保ビル５０７号,,13,106,1100005,,,,,,,2025-05-19,1,,,,,マンワジャパン,0
863,4010501054060,新規,0,2025-05-19,2025-05-19,８ｉｇｈｔ１株式会社,,株式会社,東京都,台東区,浅草橋４丁目４番７号,,13,106,1110053,,,,,,,2025-05-19,1,,,,,エイトワン,0
864,4010503007826,新規,0,2025-05-19,2025-05-19,合同会社オグラ,,合同会社,東京都,台東区,台東３丁目４０番１０号ユニオンパレス御徒町５０５,,13,106,1100016,,,,,,,2025-05-19,1,,,,,オグラ,0
866,4010703007709,新規,0,2025-05-19,2025-05-19,合同会社ＴＫ　ＬＩＮＫ,,合同会社,東京都,品川区,東五反田１丁目２５番１２－２０３号,,13,109,1410022,,,,,,,2025-05-19,1,,,,,ティーケーリンク,0
870,4010901057373,新規,0,2025-05-19,2025-05-19,ＤＩＪ株式会社,,株式会社,東京都,世田谷区,砧６丁目２３番４号,,13,112,1570073,,,,,,,2025-05-19,1,,,,,ディーアイジェー,0
871,4010901057381,新規,0,2025-05-19,2025-05-19,株式会社タックアンドコー,,株式会社,東京都,世田谷区,駒沢５丁目８番３－３０１号,,13,112,1540012,,,,,,,2025-05-19,1,,,,,タックアンドコー,0
876,4011001169373,新規,0,2025-05-19,2025-05-19,株式会社Ｎｅｗｃｅ,,株式会社,東京都,渋谷区,道玄坂１丁目１０－８渋谷道玄坂東急ビル２Ｆ－Ｃ,,13,113,1500043,,,,,,,2025-05-19,1,,,,,ニュース,0
877,4011001169506,新規,0,2025-05-19,2025-05-19,ＡＲＩＥＬＬＡ株式会社,,株式会社,東京都,渋谷区,道玄坂１丁目１０番８号渋谷道玄坂東急ビル２Ｆ－Ｃ,,13,113,1500043,,,,,,,2025-05-19,1,,,,,アリエラ,0
878,4011001169927,新規,0,2025-05-19,2025-05-19,株式会社Ａｎｄ　Ｏｎｅ　Ｐａｒｔｎｅｒｓ,,株式会社,東京都,目黒区,柿の木坂１丁目２８－４ザ・サンメゾン目黒柿の木坂エルド２０１,,13,110,1520022,,,,,,,2025-05-19,1,,,,,アンドワンパートナーズ,0
881,4011005010962,新規,0,2025-05-19,2025-05-19,一般社団法人日本言語文化研究所,,その他の設立登記法人,東京都,渋谷区,神宮前６丁目２３－４－２Ｆ,,13,113,1500001,,,,,,,2025-05-19,1,,,,,ニッポンゲンゴブンカケンキュウジョ,0
885,4011101111697,新規,0,2025-05-19,2025-05-19,ＪＫ　Ｎｅｘｔ株式会社,,株式会社,東京都,新宿区,新宿３丁目１２番４－２０６号,,13,104,1600022,,,,,,,2025-05-19,1,,,,,ジェイケイネクスト,0
886,4011101111747,新規,0,2025-05-19,2025-05-19,株式会社あす企画,,株式会社,東京都,新宿区,山吹町３３１－４ＲＢＷＪＡＰＡＮビル７階,,13,104,1620801,,,,,,,2025-05-19,1,,,,,アスキカク,0
887,4011103015888,新規,0,2025-05-19,2025-05-19,ＪＦＤＥ合同会社,,合同会社,東京都,新宿区,四谷４丁目２３番１５第一富士川ビル６０５,,13,104,1600004,,,,,,,2025-05-19,1,,,,,ジェーエフディーイー,0
889,4011301030581,新規,0,2025-05-19,2025-05-19,株式会社トドケル,,株式会社,東京都,杉並区,高円寺南３丁目４７―８高円寺ニューナショナルコート３０３,,13,115,1660003,,,,,,,2025-05-19,1,,,,,トドケル,0
892,4011501032072,新規,0,2025-05-19,2025-05-19,望川株式会社,,株式会社,東京都,荒川区,南千住２丁目１６番９号,,13,118,1160003,,,,,,,2025-05-19,1,,,,,ボウセン,0
893,4011505002690,新規,0,2025-05-19,2025-05-19,一般社団法人ちきゅうのおすそわけ,,その他の設立登記法人,東京都,荒川区,西日暮里６丁目６５番地１号日本運輸倉庫東京食品事業所Ａ棟１Ｆ,,13,118,1160013,,,,,,,2025-05-19,1,,,,,チキュウノオスソワケ,0
895,4011603004713,新規,0,2025-05-19,2025-05-19,合同会社ＩａｍＡＮＮ,,合同会社,東京都,練馬区,中村２丁目１０番２２－３０４号,,13,120,1760024,,,,,,,2025-05-19,1,,,,,アイアムアン,0
899,4011801046152,新規,0,2025-05-19,2025-05-19,東和貿易株式会社,,株式会社,東京都,足立区,加賀２丁目１番８号,,13,121,1230861,,,,,,,2025-05-19,1,,,,,トウワボウエキ,0
904,4013301054222,新規,0,2025-05-19,2025-05-19,日和精工株式会社,,株式会社,東京都,豊島区,東池袋２丁目６３番地１－７０５,,13,116,1700013,,,,,,,2025-05-19,1,,,,,ヒヨリセイコウ,0
918,4020001162899,新規,0,2025-05-19,2025-05-19,フロンティアジャパン株式会社,,株式会社,神奈川県,川崎市川崎区,大島２丁目７番１０号,,14,131,2100834,,,,,,,2025-05-19,1,,,,,フロンティアジャパン,0
920,4020003028512,新規,0,2025-05-19,2025-05-19,合同会社みなづき,,合同会社,神奈川県,横浜市神奈川区,金港町５－１４クアドリフォリオ８階,,14,102,2210056,,,,,,,2025-05-19,1,,,,,ミナヅキ,0
922,4021001085256,新規,0,2025-05-19,2025-05-19,株式会社中原,,株式会社,神奈川県,鎌倉市,由比ガ浜１丁目１番３０‐１０２号,,14,204,2480014,,,,,,,2025-05-19,1,,,,,ナカハラ,0
939,4040001138781,新規,0,2025-05-19,2025-05-19,株式会社ＣＯＣＯＲＯ,,株式会社,千葉県,柏市,根戸４１９番地１６グリーンキャピタル北柏６０４号,,12,217,2770831,,,,,,,2025-05-19,1,,,,,ココロ,0
940,4040001138823,新規,0,2025-05-19,2025-05-19,株式会社ぱわぷる,,株式会社,千葉県,千葉市緑区,越智１７１,,12,105,2660000,,,,,,,2025-05-19,1,,,,,パワプル,0
945,4040003027520,新規,0,2025-05-19,2025-05-19,合同会社木元商会,,合同会社,千葉県,木更津市,請西４丁目１番１６－３０２号,,12,206,2920801,,,,,,,2025-05-19,1,,,,,キモトショウカイ,0
947,4050001056702,新規,0,2025-05-19,2025-05-19,株式会社矢口空調,,株式会社,茨城県,つくば市,横町２６６番地,,08,220,3050017,,,,,,,2025-05-19,1,,,,,ヤグチクウチョウ,0
955,4060001038212,新規,0,2025-05-19,2025-05-19,株式会社ＧＲＯＣＡＬ栃木,,株式会社,栃木県,小山市,城北５丁目１０番地１０,,09,208,3230029,,,,,,,2025-05-19,1,,,,,グローカルトチギ,0
957,4060003005557,新規,0,2025-05-19,2025-05-19,ＭＡＨＩ　ＥＮＴＥＲＰＲＩＳＥ合同会社,,合同会社,栃木県,宇都宮市,越戸３丁目１５番２号ＵＴハイツ５０３,,09,201,3210951,,,,,,,2025-05-19,1,,,,,マヒエンタープライズ,0
966,4090001019275,新規,0,2025-05-19,2025-05-19,株式会社ＮｉＣＯ,,株式会社,山梨県,富士吉田市,上吉田東１丁目３番３号,,19,202,4030032,,,,,,,2025-05-19,1,,,,,ニコ,0
967,4090001019283,新規,0,2025-05-19,2025-05-19,株式会社ジャスト,,株式会社,山梨県,甲斐市,西八幡１６３８番地１,,19,210,4000117,,,,,,,2025-05-19,1,,,,,ジャスト,0
988,4120001275534,新規,0,2025-05-19,2025-05-19,株式会社ＧＴＳ,,株式会社,大阪府,大阪市淀川区,西中島３丁目２１番１３号,,27,123,5320011,,,,,,,2025-05-19,1,,,,,ジーティーエス,0
989,4120001275625,新規,0,2025-05-19,2025-05-19,＿億株式会社,00139209,株式会社,大阪府,大阪市東住吉区,矢田１丁目２６－７ＵＩＩＴビル矢田４０３号室,,27,121,5460023,,,,,,,2025-05-19,1,,,,,キンオク,0
990,4120001275749,新規,0,2025-05-19,2025-05-19,時運株式会社,,株式会社,大阪府,大阪市北区,梅田１丁目３番１号大阪駅前第一ビル５階ＲＯＹＡＬＯＦＦＩＣＥ内,,27,127,5300001,,,,,,,2025-05-19,1,,,,,ジウン,0
991,4120001275856,新規,0,2025-05-19,2025-05-19,ＱＤ株式会社,,株式会社,大阪府,大阪市中央区,釣鐘町２丁目３－１１－５０２,,27,128,5400035,,,,,,,2025-05-19,1,,,,,キューディー,0
992,4120001275872,新規,0,2025-05-19,2025-05-19,株式会社Ｃｈａｔ　Ｐｉｅｃｅ,,株式会社,大阪府,大阪市北区,本庄西２丁目１２番１９－６０４号,,27,127,5310073,,,,,,,2025-05-19,1,,,,,チャットピース,0
993,4120001275880,新規,0,2025-05-19,2025-05-19,金海株式会社,,株式会社,大阪府,大阪市生野区,巽北１丁目７番３号２０１号室,00139204,27,116,5440004,,,,,,,2025-05-19,1,,,,,カネウミ,0
994,4120001275889,新規,0,2025-05-19,2025-05-19,株式会社ＩＣＨＩ　Ｄｅｓｉｇｎ,,株式会社,大阪府,大阪市北区,本庄西１丁目１番７号１６０２号室,,27,127,5310073,,,,,,,2025-05-19,1,,,,,イチデザイン,0
995,4120001275971,新規,0,2025-05-19,2025-05-19,株式会社ＲＥＩＫＥＮ,,株式会社,大阪府,寝屋川市,点野３丁目２６番７号,,27,215,5720077,,,,,,,2025-05-19,1,,,,,レイケン,0
997,4120003029467,新規,0,2025-05-19,2025-05-19,航洋酒店用品専営合同会社,,合同会社,大阪府,大阪市住吉区,沢之町１丁目１－２６、５Ｂ,,27,120,5580031,,,,,,,2025-05-19,1,,,,,コウヨウシュテンヨウヒンセンエイ,0
998,4120103006457,新規,0,2025-05-19,2025-05-19,合同会社グローリー,,合同会社,大阪府,堺市堺区,新町１番１７－２０２号,,27,141,5900079,,,,,,,2025-05-19,1,,,,,グローリー,0
999,4120901050862,新規,0,2025-05-19,2025-05-19,株式会社磯崎設備工業,,株式会社,大阪府,豊中市,長興寺北２丁目４番１４の１号,,27,203,5610875,,,,,,,2025-05-19,1,,,,,イソザキセツビコウギョウ,0
1000,4120901050870,新規,0,2025-05-19,2025-05-19,株式会社ストルエ,,株式会社,大阪府,池田市,伏尾町１７番地の１,,27,204,5630011,,,,,,,2025-05-19,1,,,,,ストルエ,0
1003,4130001079686,新規,0,2025-05-19,2025-05-19,株式会社なかせ不動産,,株式会社,京都府,京都市右京区,太秦桂ケ原町３番地の１,,26,108,6168165,,,,,,,2025-05-19,1,,,,,ナカセフドウサン,0
1007,4130003010467,新規,0,2025-05-19,2025-05-19,Ａｍａｎｏ　Ｊａｐａｎ合同会社,,合同会社,京都府,京都市中京区,押小路通柳馬場東入橘町６４０番地イーグルコート京都御所南押小路本邸２０６号,,26,104,6040944,,,,,,,2025-05-19,1,,,,,アマノジャパン,0
1010,4140001138474,新規,0,2025-05-19,2025-05-19,ＯＫＵＢＯ　ＧＡＷＡＲＡ株式会社,,株式会社,兵庫県,神戸市北区,山田町小部広刈９番地の２,,28,109,6511101,,,,,,,2025-05-19,1,,,,,オオクボガワラ,0
1011,4140003022065,新規,0,2025-05-19,2025-05-19,合同会社ＲＩＮＧ,,合同会社,兵庫県,宍粟市,波賀町谷２１４番地２,,28,227,6714244,,,,,,,2025-05-19,1,,,,,リング,0
1022,4180001166819,新規,0,2025-05-19,2025-05-19,ＳＯ株式会社,,株式会社,愛知県,名古屋市緑区,八つ松１丁目８０６番地Ｂ１０５号,,23,114,4580810,,,,,,,2025-05-19,1,,,,,エスオー,0
1029,4180301039807,新規,0,2025-05-19,2025-05-19,株式会社ナンバーエイト,,株式会社,愛知県,安城市,藤井町北山１１番地９,,23,212,4441164,,,,,,,2025-05-19,1,,,,,ナンバーエイト,0
1030,4180301039815,新規,0,2025-05-19,2025-05-19,株式会社ｍｅｒ,,株式会社,愛知県,刈谷市,広小路７丁目８－１ダイアパレス刈谷広小路１１０５,,23,210,4480844,,,,,,,2025-05-19,1,,,,,エムイーアール,0
1038,4200005013766,新規,0,2025-05-19,2025-05-19,一般財団法人ワールドヘリテージ財団,,その他の設立登記法人,岐阜県,瑞穂市,生津天王東町１丁目９８番地,,21,216,5010215,,,,,,,2025-05-19,1,,,,,ワールドヘリテージザイダン,0
1056,4290001110039,新規,0,2025-05-19,2025-05-19,株式会社オレマカ,,株式会社,福岡県,福岡市南区,柳瀬１丁目３３番１号,,40,134,8111321,,,,,,,2025-05-19,1,,,,,オレマカ,0
1065,4290003016746,新規,0,2025-05-19,2025-05-19,ＲＳ合同会社,,合同会社,福岡県,福岡市東区,香椎２丁目１番１３ロマネスク香椎１０５号,,40,131,8130011,,,,,,,2025-05-19,1,,,,,アールエス,0
1066,4290003016829,新規,0,2025-05-19,2025-05-19,合同会社古賀エステート,,合同会社,福岡県,福岡市南区,塩原４丁目１９番１５号グランフォーレ大橋プレミア５０９,,40,134,8150032,,,,,,,2025-05-19,1,,,,,,0
1067,4290003016845,新規,0,2025-05-19,2025-05-19,ＳＡＮＲＩＯ合同会社,,合同会社,福岡県,糸島市,前原中央２丁目３番２８号山本ビル２階Ａ号室,,40,230,8191116,,,,,,,2025-05-19,1,,,,,サンリオ,0
1068,4290003016853,新規,0,2025-05-19,2025-05-19,合同会社ｈａａｙｕｎａ‐ｃａｓａ,,合同会社,福岡県,福岡市早良区,弥生２丁目３番３０－６０５号,,40,137,8140014,,,,,,,2025-05-19,1,,,,,ハアユナカーサ,0
1072,4320003004664,新規,0,2025-05-19,2025-05-19,ＡＰＵイノベーションセンター合同会社,,合同会社,大分県,別府市,内竃３６７７番地７８,,44,202,8740000,,,,,,,2025-05-19,1,,,,,エーピーユーイノベーションセンター,0
1074,4330003011016,新規,0,2025-05-19,2025-05-19,合同会社ＮＫｃｏｍｐａｎｙ,,合同会社,熊本県,熊本市北区,徳王１丁目２５－８,,43,105,8615525,,,,,,,2025-05-19,1,,,,,エヌケーカンパニー,0
1079,4370001052586,新規,0,2025-05-19,2025-05-19,山内株式会社,,株式会社,宮城県,塩竈市,新浜町１丁目２６番１２号,,04,203,9850001,,,,,,,2025-05-19,1,,,,,ヤマウチ,0
1084,4380003006044,新規,0,2025-05-19,2025-05-19,合同会社ＭＩＧ,,合同会社,福島県,いわき市,平下高久字下原２２３番地,,07,204,9700221,,,,,,,2025-05-19,1,,,,,エムアイジー,0
1086,4390001017959,新規,0,2025-05-19,2025-05-19,アークトランスポート株式会社,,株式会社,山形県,天童市,石鳥居１丁目１番５９号,,06,210,9940057,,,,,,,2025-05-19,1,,,,,アークトランスポート,0
1097,4460003001053,新規,0,2025-05-19,2025-05-19,合同会社昊和,,合同会社,北海道,白糠郡白糠町,西一条北６丁目３番地２０,,01,668,0880321,,,,,,,2025-05-19,1,,,,,コウワ,0
1103,4480001012835,新規,0,2025-05-19,2025-05-19,株式会社ラクティ,,株式会社,徳島県,鳴門市,撫養町南浜字東浜３番地２３,,36,202,7720003,,,,,,,2025-05-19,1,,,,,ラクティ,0
1106,4700150130571,新規,0,2025-05-19,2025-05-19,Ｓｈｅｎｚｈｅｎ　Ｇｕａｎｇｃｈｕａｎｇｆｅｎｇ　Ｔｅｃｈｎｏｌｏｇｙ　Ｃｏ．，Ｌｔｄ．,,外国会社等,,,,,,,,５０１－２，Ｂｕｉｌｄｉｎｇ　Ｄ，Ｔｉｎｇｗｅｉ　３３　Ｃｈｕａｎｇｇｕ，Ｎｏ．３３　Ｈｕａｌｅ　Ｒｏａｄ，Ｓｉｌｉａｎ　Ｃｏｍｍｕｎｉｔｙ，Ｈｅｎｇｇａｎｇ　Ｓｔｒｅｅｔ，Ｌｏｎｇｇａｎｇ　Ｄｉｓｔｒｉｃｔ，Ｓｈｅｎｚｈｅｎ，Ｃｈｉｎａ,,,,,,2025-05-19,1,,,,,シンセングアンチュアンフォンテクノロジーカンパニーリミテッド,0
1111,5010001254936,新規,0,2025-05-19,2025-05-19,株式会社エンス,,株式会社,東京都,中央区,銀座１丁目１２－４Ｎ＆ＥＢＬＤ．７階,,13,102,1040061,,,,,,,2025-05-19,1,,,,,エンス,0
1112,5010001254944,新規,0,2025-05-19,2025-05-19,株式会社ＩＴＡＯ,,株式会社,東京都,中央区,日本橋小舟町８番１３号４０３号室,,13,102,1030024,,,,,,,2025-05-19,1,,,,,イタオ,0
1113,5010001255026,新規,0,2025-05-19,2025-05-19,７与７国際株式会社,,株式会社,東京都,中央区,晴海５丁目４番３ＨＡＲＵＭＩＦＬＡＧＳＥＡＶＩＬＬＡＧＥＣ棟１００４,,13,102,1040053,,,,,,,2025-05-19,1,,,,,シチヨシチコクサイ,0
1114,5010001255100,新規,0,2025-05-19,2025-05-19,Ｕｌｔｉｏ株式会社,,株式会社,東京都,千代田区,永田町２丁目１４番２号山王グランドビル３階スリーアイズキャピタル株式会社内,,13,101,1000014,,,,,,,2025-05-19,1,,,,,ウルティオ,0
1115,5010003047355,新規,0,2025-05-19,2025-05-19,合同会社Ｈ．Ｌ．ｓｔｕｄｉｏ４５,,合同会社,東京都,中央区,銀座１丁目１２番４号Ｎ＆ＥＢＬＤ．６Ｆ,,13,102,1040061,,,,,,,2025-05-19,1,,,,,エイチエルスタジオヨンジュウゴ,0
1117,5010103002573,新規,0,2025-05-19,2025-05-19,お馬鹿なｃｏｕｃｏｕさんのスマイル・カンパニー合同会社,,合同会社,東京都,八王子市,追分町１０番地の４藤和シティホームズ２０２,,13,201,1920056,,,,,,,2025-05-19,1,,,,,オバカナコウコウサンノスマイルカンパニー,0
1125,5010503007841,新規,0,2025-05-19,2025-05-19,世季合同会社,,合同会社,東京都,台東区,上野５丁目２５番８号３Ｆ,,13,106,1100005,,,,,,,2025-05-19,1,,,,,セイキ,0
1128,5010901003021,新規,0,2025-05-19,2025-05-19,菊地商事株式会社,,株式会社,東京都,世田谷区,弦巻１丁目４８番２２号,,13,112,1540016,,,,,,,2025-05-19,1,,,,,,0
1130,5010901057380,新規,0,2025-05-19,2025-05-19,株式会社Ｑｕａｄ,,株式会社,東京都,世田谷区,野沢４丁目４－１０－１０８,,13,112,1540003,,,,,,,2025-05-19,1,,,,,クアッド,0
1135,5011001169876,新規,0,2025-05-19,2025-05-19,Ｈａｌｔｒｏｗ　Ｃａｐｉｔａｌ株式会社,,株式会社,東京都,渋谷区,西原２丁目２５番１３－７０９号,,13,113,1510066,,,,,,,2025-05-19,1,,,,,ハルトロウキャピタル,0
1136,5011001169967,新規,0,2025-05-19,2025-05-19,株式会社ＬｉｖＳｔａｙ　Ｊａｐａｎ,,株式会社,東京都,渋谷区,神南１丁目１１－４ＦＰＧリンクス神南５階,,13,113,1500041,,,,,,,2025-05-19,1,,,,,リブステイジャパン,0
1142,5011103015937,新規,0,2025-05-19,2025-05-19,合同会社ディベロップメントサポート,,合同会社,東京都,新宿区,西新宿３丁目３番１３号西新宿水間ビル２Ｆ,,13,104,1600023,,,,,,,2025-05-19,1,,,,,ディベロップメントサポート,0
1147,5011603004720,新規,0,2025-05-19,2025-05-19,合同会社小泉,,合同会社,東京都,練馬区,早宮４丁目３０番５号,,13,120,1790085,,,,,,,2025-05-19,1,,,,,コイズミ,0
1148,5011801046143,新規,0,2025-05-19,2025-05-19,駿河台矢口株式会社,,株式会社,東京都,葛飾区,西水元２丁目１６番１１号,,13,122,1250031,,,,,,,2025-05-19,1,,,,,スルガダイヤグチ,0
1149,5011801046151,新規,0,2025-05-19,2025-05-19,株式会社Ｎｅｘｓｅｅｄ,,株式会社,東京都,足立区,加平２丁目１６番１２号エスポワール北綾瀬１０３,,13,121,1210055,,,,,,,2025-05-19,1,,,,,ネクシード,0
1151,5012701018868,新規,0,2025-05-19,2025-05-19,株式会社ＫＭＲ,,株式会社,東京都,西東京市,芝久保町３丁目４番５０号,,13,229,1880014,,,,,,,2025-05-19,1,,,,,ケイエムアール,0
1172,5020001162683,新規,0,2025-05-19,2025-05-19,株式会社Ｂｅｘ　ｉｎｔｅｒｎａｔｉｏｎａｌ,,株式会社,神奈川県,横浜市神奈川区,金港町５－１４クアドリフォリオ８階,,14,102,2210056,,,,,,,2025-05-19,1,,,,,ベックスインターナショナル,0
1173,5020001162898,新規,0,2025-05-19,2025-05-19,株式会社Ｍ＆Ｍ,,株式会社,神奈川県,川崎市高津区,諏訪１丁目２４番２２号,,14,134,2130004,,,,,,,2025-05-19,1,,,,,エムアンドエム,0
1183,5021001085271,新規,0,2025-05-19,2025-05-19,株式会社Ｌｅｎｄ,,株式会社,神奈川県,横須賀市,追浜本町１丁目２３番地フクチビル１階,,14,201,2370068,,,,,,,2025-05-19,1,,,,,レンド,0
1185,5021003015978,新規,0,2025-05-19,2025-05-19,広川設備工業合同会社,,合同会社,神奈川県,鎌倉市,岩瀬１丁目２－１－４２２,,14,204,2470051,,,,,,,2025-05-19,1,,,,,ヒロカワセツビコウヒョウ,0
1186,5021005013369,新規,0,2025-05-19,2025-05-19,一般社団法人富史産業,,その他の設立登記法人,神奈川県,相模原市中央区,中央３丁目１１番２０号富史産業ビル１Ｆ,,14,152,2520239,,,,,,,2025-05-19,1,,,,,フジサンギョウ,0
1199,5030003026803,新規,0,2025-05-19,2025-05-19,ＹＵ合同会社,,合同会社,埼玉県,さいたま市南区,大谷場１丁目１－４,,11,108,3360016,,,,,,,2025-05-19,1,,,,,ユウ,0
1201,5030005022164,新規,0,2025-05-19,2025-05-19,ワイパートナーズ協同組合,,その他の設立登記法人,埼玉県,さいたま市浦和区,高砂３丁目７番２号さくら草ビル３階,,11,107,3300063,,,,,,,2025-05-19,1,,,,,ワイパートナーズ,0
1208,5040001138698,新規,0,2025-05-19,2025-05-19,株式会社デイライト,,株式会社,千葉県,八千代市,大和田新田６３５番地２２,,12,221,2760046,,,,,,,2025-05-19,1,,,,,デイライト,0
1209,5040001138822,新規,0,2025-05-19,2025-05-19,株式会社ｔｏｉｒｏ,,株式会社,千葉県,木更津市,ほたる野１丁目４番地１５,,12,206,2920038,,,,,,,2025-05-19,1,,,,,トイロ,0
1210,5040003027610,新規,0,2025-05-19,2025-05-19,合同会社アドバンスマーケティング,,合同会社,千葉県,柏市,布施７４９番地８,,12,217,2770825,,,,,,,2025-05-19,1,,,,,アドバンスマーケティング,0
1212,5050001056610,新規,0,2025-05-19,2025-05-19,株式会社Ｋ‐ｃｒａｆｔ,,株式会社,茨城県,筑西市,下岡崎２丁目１０‐１０,,08,227,3080826,,,,,,,2025-05-19,1,,,,,ケークラフト,0
1213,5060001038211,新規,0,2025-05-19,2025-05-19,株式会社サク商事,,株式会社,栃木県,下都賀郡野木町,大字若林５７－９,,09,364,3290103,,,,,,,2025-05-19,1,,,,,サクショウジ,0
1218,5070003005927,新規,0,2025-05-19,2025-05-19,合同会社Ａｎｓｗｅｒ,,合同会社,群馬県,安中市,大竹１９０番地５,,10,211,3790121,,,,,,,2025-05-19,1,,,,,アンサー,0
1221,5080001026940,新規,0,2025-05-19,2025-05-19,株式会社ペックアップ,,株式会社,静岡県,静岡市駿河区,手越３５６番地の１,,22,102,4210102,,,,,,,2025-05-19,1,,,,,ペックアップ,0
1222,5080101025504,新規,0,2025-05-19,2025-05-19,株式会社ＡＵＴＯＲＥＸ,,株式会社,静岡県,富士市,天間１３２４番地の５,,22,210,4190205,,,,,,,2025-05-19,1,,,,,オートレックス,0
1227,5100001038611,新規,0,2025-05-19,2025-05-19,株式会社ｋｕｒａｓｔａｔｅ,,株式会社,長野県,須坂市,大字須坂１２９８番地１３、４Ｆ,,20,207,3820911,,,,,,,2025-05-19,1,,,,,クラステイト,0
1228,5100003008166,新規,0,2025-05-19,2025-05-19,合同会社ｖａｒｌｅｔ,,合同会社,長野県,埴科郡坂城町,大字坂城１０６８番地２,,20,521,3890601,,,,,,,2025-05-19,1,,,,,バレット,0
1239,5120001275500,新規,0,2025-05-19,2025-05-19,東洋車輌ホールディングス株式会社,,株式会社,大阪府,大阪市北区,梅田２丁目２番２号ヒルトンプラザウエスト１９階,,27,127,5300001,,,,,,,2025-05-19,1,,,,,トウヨウシャリョウホールディングス,0
1240,5120001275855,新規,0,2025-05-19,2025-05-19,世運株式会社,,株式会社,大阪府,大阪市住吉区,杉本１丁目９番１６－５０２号室,,27,120,5580022,,,,,,,2025-05-19,1,,,,,セウン,0
1242,5120003029193,新規,0,2025-05-19,2025-05-19,合同会社ＤＩＡＭＯＮＤ,,合同会社,大阪府,大阪市生野区,新今里６丁目６番１５号ビックウエスト甲陽４０５号室,,27,116,5440001,,,,,,,2025-05-19,1,,,,,ダイアモンド,0
1243,5120003029458,新規,0,2025-05-19,2025-05-19,合同会社ケルストン,,合同会社,大阪府,大阪市中央区,南船場３丁目２番２２号おおきに南船場ビル２０５,,27,128,5420081,,,,,,,2025-05-19,1,,,,,ケルストン,0
1244,5120003029466,新規,0,2025-05-19,2025-05-19,合同会社Ｔｒａｆｆｉｃ　Ａｃｑｕｉｓｉｔｉｏｎ,,合同会社,大阪府,大阪市生野区,新今里２丁目５－６ハピネスジュン２Ｃ,,27,116,5440001,,,,,,,2025-05-19,1,,,,,トラフィックアクイジション,0
1245,5120003029474,新規,0,2025-05-19,2025-05-19,Ｈｕｎｇ　Ｌａｎ　Ｑｕａｎ合同会社,,合同会社,大阪府,大阪市西成区,山王２丁目１３番２１号平和ハイツ１０３号室,,27,122,5570001,,,,,,,2025-05-19,1,,,,,フンランクアン,0
1247,5120101071691,新規,0,2025-05-19,2025-05-19,ＢｉｚＡｕｔｏ　Ｔｒａｄｅ株式会社,,株式会社,大阪府,堺市南区,茶山台３丁目２番７号１,,27,145,5900115,,,,,,,2025-05-19,1,,,,,ビズオートトレード,0
1253,5120901050845,新規,0,2025-05-19,2025-05-19,株式会社ＣＨＥＲＩＥ　Ｇｒｏｕｐ,,株式会社,大阪府,吹田市,豊津町１番１４―１０１号,,27,205,5640051,,,,,,,2025-05-19,1,,,,,シェリーグループ,0
1257,5122002017872,新規,0,2025-05-19,2025-05-19,有限会社山本管工,,有限会社,大阪府,柏原市,法善寺４丁目２７２番地の１０,,27,221,5820005,,,,,,,2025-05-19,1,,,,,,0
1263,5130001079693,新規,0,2025-05-19,2025-05-19,株式会社Ｂｕｇｓｙ　ｓｔｕｄｉｏ,,株式会社,京都府,京都市下京区,七条御所ノ内南町９０番地４,,26,106,6008864,,,,,,,2025-05-19,1,,,,,バグジースタジオ,0
1266,5130005017369,新規,0,2025-05-19,2025-05-19,一般財団法人にっしん未来財団,,その他の設立登記法人,京都府,京丹後市,峰山町千歳２２番地,,26,212,6270037,,,,,,,2025-05-19,1,,,,,ニッシンミライザイダン,0
1268,5140001138564,新規,0,2025-05-19,2025-05-19,ＵＲＢＡＮ　ＮＩＮＥ株式会社,,株式会社,兵庫県,神戸市中央区,元町通３丁目６番１号４階,,28,110,6500022,,,,,,,2025-05-19,1,,,,,アーバンナイン,0
1279,5160005011410,新規,0,2025-05-19,2025-05-19,一般社団法人さくらの杜,,その他の設立登記法人,滋賀県,東近江市,宮荘町７７番地１アーバンビル２階,,25,213,5291404,,,,,,,2025-05-19,1,,,,,サクラノモリ,0
1280,5170001018631,新規,0,2025-05-19,2025-05-19,株式会社藤総,,株式会社,和歌山県,和歌山市,黒田１７０番地８,,30,201,6408341,,,,,,,2025-05-19,1,,,,,フジソウ,0
1284,5180001166801,新規,0,2025-05-19,2025-05-19,丸美国際株式会社,,株式会社,愛知県,名古屋市中村区,椿町４番１６号２階,,23,105,4530015,,,,,,,2025-05-19,1,,,,,マルミコクサイ,0
1285,5180001166826,新規,0,2025-05-19,2025-05-19,株式会社ＴｒｅａｓｕｒｅＥｓｔａｔｅ,,株式会社,愛知県,名古屋市中区,栄１丁目２番３号プラウドタワー名古屋栄２２０２号,,23,106,4600008,,,,,,,2025-05-19,1,,,,,トレジャーエステート,0
1290,5180003028470,新規,0,2025-05-19,2025-05-19,合同会社みけらんじぇろ,,合同会社,愛知県,名古屋市港区,東茶屋２丁目４２３,,23,111,4550851,,,,,,,2025-05-19,1,,,,,ミケランジェロ,0
1291,5180003028495,新規,0,2025-05-19,2025-05-19,合同会社Ｋ‐ｏｎ,,合同会社,愛知県,名古屋市昭和区,花見通１丁目９７番,,23,107,4660831,,,,,,,2025-05-19,1,,,,,ケーオン,0
1292,5190001032226,新規,0,2025-05-19,2025-05-19,株式会社スリナビア,,株式会社,三重県,津市,白塚町４７９５番地２,,24,201,5140101,,,,,,,2025-05-19,1,,,,,スリナビア,0
1297,5200001043774,新規,0,2025-05-19,2025-05-19,株式会社エムテック,,株式会社,岐阜県,各務原市,鵜沼川崎町３丁目１４７番地,,21,213,5090147,,,,,,,2025-05-19,1,,,,,エムテック,0
1299,5200005013765,新規,0,2025-05-19,2025-05-19,一般社団法人ＦＯＲ　ＹＯＵ,,その他の設立登記法人,岐阜県,岐阜市,鏡島西１丁目３番２９号,,21,201,5010123,,,,,,,2025-05-19,1,,,,,フォーユー,0
1301,5210005010209,新規,0,2025-05-19,2025-05-19,一般社団法人シニア元気プロジェクト,,その他の設立登記法人,福井県,福井市,三留町第１４号８番地２,,18,201,9103608,,,,,,,2025-05-19,1,,,,,シニアゲンキプロジェクト,0
1309,5240003007212,新規,0,2025-05-19,2025-05-19,合同会社ＬＵＸ,,合同会社,広島県,広島市安佐北区,亀山南２丁目８０－２２,,34,106,7310232,,,,,,,2025-05-19,1,,,,,ラックス,0
1327,5290001110021,新規,0,2025-05-19,2025-05-19,誠和産業株式会社,,株式会社,福岡県,大牟田市,新開町３－２６,,40,202,8360017,,,,,,,2025-05-19,1,,,,,セイワサンギョウ,0
1328,5290001110038,新規,0,2025-05-19,2025-05-19,ごくう株式会社,,株式会社,福岡県,福岡市南区,鶴田３丁目１７番１８－２０１号,,40,134,8111352,,,,,,,2025-05-19,1,,,,,,0
1329,5290001110054,新規,0,2025-05-19,2025-05-19,株式会社ｂａｓｉｑ,,株式会社,福岡県,福岡市中央区,天神４丁目６番２８号いちご天神ノースビル,,40,133,8100001,,,,,,,2025-05-19,1,,,,,ベーシック,0
1335,5290003016679,新規,0,2025-05-19,2025-05-19,デンズ合同会社,,合同会社,福岡県,福岡市博多区,東那珂１丁目３－２７－２０５,,40,132,8120892,,,,,,,2025-05-19,1,,,,,デンズ,0
1336,5290003016844,新規,0,2025-05-19,2025-05-19,楓和貿易合同会社,,合同会社,福岡県,福岡市中央区,春吉３丁目２４－１６パステルビル１０・６０５号室,,40,133,8100003,,,,,,,2025-05-19,1,,,,,フウワボウエキ,0
1337,5290803005047,新規,0,2025-05-19,2025-05-19,合同会社ナインビレッジ,,合同会社,福岡県,北九州市小倉北区,霧ケ丘１丁目１１番１８－２０１号,,40,106,8020052,,,,,,,2025-05-19,1,,,,,ナインビレッジ,0
1345,5330003011015,新規,0,2025-05-19,2025-05-19,ＲＯＯＴＳ合同会社,,合同会社,熊本県,熊本市東区,健軍１丁目３８番１３号,,43,102,8620911,,,,,,,2025-05-19,1,,,,,ルーツ,0
1351,5360001035211,新規,0,2025-05-19,2025-05-19,Ｓｋｙｙ株式会社,,株式会社,沖縄県,豊見城市,字我那覇４４７番地２ひかりハウス６０２号,,47,212,9010231,,,,,,,2025-05-19,1,,,,,スカイ,0
1353,5360003014931,新規,0,2025-05-19,2025-05-19,合同会社ＫＵＲＯ,,合同会社,沖縄県,那覇市,松尾２丁目１０番１号,,47,201,9000014,,,,,,,2025-05-19,1,,,,,クロ,0
1358,5380003006043,新規,0,2025-05-19,2025-05-19,合同会社ＫＡＨＵＮＡ,,合同会社,福島県,須賀川市,北山寺町１８１番地,,07,207,9620061,,,,,,,2025-05-19,1,,,,,カフナ,0
1360,5390001017990,新規,0,2025-05-19,2025-05-19,ＴＭアセットマネジメント株式会社,,株式会社,山形県,山形市,飯田５丁目１番５７号,,06,201,9902332,,,,,,,2025-05-19,1,,,,,ティーエムアセットマネジメント,0
1361,5390003002388,新規,0,2025-05-19,2025-05-19,合同会社Ｃｈｅｒｒｙ　Ｂｌｏｓｓｏｍ,,合同会社,山形県,米沢市,窪田町小瀬３４５番地,,06,202,9920004,,,,,,,2025-05-19,1,,,,,,0
1377,5430003017662,新規,0,2025-05-19,2025-05-19,合同会社ｍａｃｃｈｉｎａ．ｍｉｙａｔａｎｉ,,合同会社,北海道,石狩市,花川南五条２丁目２０４番地,,01,235,0613205,,,,,,,2025-05-19,1,,,,,マッキナミヤタニ,0
1384,5700150130570,新規,0,2025-05-19,2025-05-19,ＣｈｏｎｇＱｉｎｇＸｕｅＣｈｅｎｇＹｉＪｉａＤｉａｎＺｉＳｈａｎｇＷｕＹｏｕＸｉａｎＧｏｎｇＳｉ,,外国会社等,,,,,,,,ＣｈｏｎｇＱｉｎｇＳｈｉＧａｏＸｉｎＱｕＸｉＹｏｎｇＪｉｅＤａｏＸｉＹｕａｎＮａｎＪｉｅ１０ＨａｏＬｏｕＳａｎＣｅｎｇ３１２,,,,,,2025-05-19,1,,,,,ツオンチンスエチェンイージャデンシショウムユウゲンコウシ,0
1390,6010001254654,新規,0,2025-05-19,2025-05-19,Ａｓｓｅｔ　Ｇｏｒｉｌｌａ株式会社,,株式会社,東京都,中央区,佃２丁目１２番１号リベルテ月島３０９号,,13,102,1040051,,,,,,,2025-05-19,1,,,,,アセットゴリラ,0
1391,6010001255033,新規,0,2025-05-19,2025-05-19,株式会社ＥＰＩＣ　ＤＡＹ,,株式会社,東京都,中央区,銀座７丁目１３番６号サガミビル２階,,13,102,1040061,,,,,,,2025-05-19,1,,,,,エピックデイ,0
1392,6010001255066,新規,0,2025-05-19,2025-05-19,ＧＢＦ株式会社,,株式会社,東京都,中央区,新川１丁目６番１１号,,13,102,1040033,,,,,,,2025-05-19,1,,,,,ジービーエフ,0
1393,6010001255157,新規,0,2025-05-19,2025-05-19,株式会社ＫＲＴＳ３,,株式会社,東京都,千代田区,内幸町２丁目１番６号,,13,101,1000011,,,,,,,2025-05-19,1,,,,,ケイアールティーエススリー,0
1395,6010003047379,新規,0,2025-05-19,2025-05-19,合同会社ＺＥＨＰＪ１４,,合同会社,東京都,中央区,銀座４丁目６番１号三幸アセットマネジメント株式会社内,,13,102,1040061,,,,,,,2025-05-19,1,,,,,ゼッチピージェーフォーティーン,0
1398,6010401190193,新規,0,2025-05-19,2025-05-19,ＫＯＫＡ　ＳＴＡＲ株式会社,,株式会社,東京都,港区,芝２丁目２番１２号浜松町ＰＲＥＸ１１階,,13,103,1050014,,,,,,,2025-05-19,1,,,,,コウカスター,0
1402,6010501054026,新規,0,2025-05-19,2025-05-19,愛心国際株式会社,,株式会社,東京都,台東区,柳橋１丁目１６－３ｇｒａｎ＋ＡＳＡＫＵＳＡＢＡＳＨＩＩＩＩ４Ｆ,00139205,13,106,1110052,,,,,,,2025-05-19,1,,,,,アイシンコクサイ,0
1403,6010501054034,新規,0,2025-05-19,2025-05-19,株式会社ｓｏｙｕ‐ｋａ,,株式会社,東京都,台東区,台東２丁目２－１－５０４号シティハウス秋葉原イーストレジデンス,,13,106,1100016,,,,,,,2025-05-19,1,,,,,ソユーカ,0
1416,6011101111745,新規,0,2025-05-19,2025-05-19,株式会社セキュアフォース,,株式会社,東京都,新宿区,西新宿７丁目５－８ＧＯＷＡ西新宿６階,,13,104,1600023,,,,,,,2025-05-19,1,,,,,セキュアフォース,0
1417,6011103015894,新規,0,2025-05-19,2025-05-19,合同会社オフィスソロヤマ,,合同会社,東京都,新宿区,西新宿３丁目３番１３号西新宿水間ビル６階,,13,104,1600023,,,,,,,2025-05-19,1,,,,,オフィスソロヤマ,0
1418,6011203004698,新規,0,2025-05-19,2025-05-19,合同会社Ｙ’ｓＫ,,合同会社,東京都,中野区,東中野１丁目１番２－５０２号,,13,114,1640003,,,,,,,2025-05-19,1,,,,,ワイズケー,0
1423,6011803006813,新規,0,2025-05-19,2025-05-19,ＵＭＡＭＩ　ＳＴＵＤＩＯ合同会社,,合同会社,東京都,葛飾区,鎌倉４丁目１８－２,,13,122,1250053,,,,,,,2025-05-19,1,,,,,ウマミスタジオ,0
1429,6012701018867,新規,0,2025-05-19,2025-05-19,わかば運送株式会社,,株式会社,東京都,小平市,喜平町３丁目２番９－４０７号,,13,211,1870044,,,,,,,2025-05-19,1,,,,,ワカバウンソウ,0
1433,6020001162872,新規,0,2025-05-19,2025-05-19,株式会社きのこアトリエ,,株式会社,神奈川県,横浜市神奈川区,金港町５－１４クアドリフォリオ８階,,14,102,2210056,,,,,,,2025-05-19,1,,,,,キノコアトリエ,0
1434,6020001162922,新規,0,2025-05-19,2025-05-19,株式会社ネクストアグリ,,株式会社,神奈川県,横浜市西区,北幸２丁目１０－４８むつみビル３階,,14,103,2200004,,,,,,,2025-05-19,1,,,,,ネクストアグリ,0
1439,6020005016843,新規,0,2025-05-19,2025-05-19,一般社団法人防災シスターズ３色丼,,その他の設立登記法人,神奈川県,横浜市青葉区,あざみ野南４丁目２５番地４３,,14,117,2250012,,,,,,,2025-05-19,1,,,,,ボウサイシスターズサンショクドン,0
1442,6021001085147,新規,0,2025-05-19,2025-05-19,ＬＥＥＹＡ株式会社,,株式会社,神奈川県,厚木市,寿町２丁目１番１８号ＢＩＺｃｏｍｆｏｒｔ本厚木１Ｆ,,14,212,2430003,,,,,,,2025-05-19,1,,,,,リーヤ,0
1443,6021001085262,新規,0,2025-05-19,2025-05-19,株式会社海,,株式会社,神奈川県,相模原市中央区,上溝４丁目１４番４号コートファミリエＢ－２０３,,14,152,2520243,,,,,,,2025-05-19,1,,,,,マリン,0
1445,6021003016018,新規,0,2025-05-19,2025-05-19,合同会社ｏｎｅｓｔｏｒｙ,,合同会社,神奈川県,相模原市中央区,清新３丁目４番２１－２０５号,,14,152,2520216,,,,,,,2025-05-19,1,,,,,ワンストーリー,0
1463,6040003027584,新規,0,2025-05-19,2025-05-19,村吉商事合同会社,,合同会社,千葉県,千葉市稲毛区,宮野木町８６９番地４号,,12,103,2630054,,,,,,,2025-05-19,1,,,,,ムラヨシショウジ,0
1467,6050001056700,新規,0,2025-05-19,2025-05-19,株式会社エボニー,,株式会社,茨城県,土浦市,港町３丁目２８番１６号,,08,203,3000034,,,,,,,2025-05-19,1,,,,,エボニー,0
1471,6050005013631,新規,0,2025-05-19,2025-05-19,一般社団法人ママとこｃａｆｅ,,その他の設立登記法人,茨城県,北相馬郡利根町,大字布川２１１５番地１０５,,08,564,3001622,,,,,,,2025-05-19,1,,,,,ママトコカフェ,0
1479,6070003005926,新規,0,2025-05-19,2025-05-19,Ｐｒｅｅｍｉｎ　Ｌａｎｋａ合同会社,,合同会社,群馬県,前橋市,三河町１丁目１９－２９登丸第７ビル２－Ｃ,,10,201,3710015,,,,,,,2025-05-19,1,,,,,,0
1487,6080103003325,新規,0,2025-05-19,2025-05-19,合同会社ＳＵＬＥＨＲＩ　ＭＯＴＯＲＳ,,合同会社,静岡県,沼津市,大岡２４１４番地の１シズコーポ１０９,,22,203,4100022,,,,,,,2025-05-19,1,,,,,スレヘリモータース,0
1489,6090003002822,新規,0,2025-05-19,2025-05-19,ｉｍｕｚｉｏ合同会社,,合同会社,山梨県,北杜市,大泉町西井出６９７３番地２,,19,209,4091501,,,,,,,2025-05-19,1,,,,,イムジオ,0
1490,6100001038610,新規,0,2025-05-19,2025-05-19,株式会社共同技研,,株式会社,長野県,北安曇郡松川村,森重５２６８番地２１３,,20,482,3998501,,,,,,,2025-05-19,1,,,,,キョウドウギケン,0
1500,6120001275755,新規,0,2025-05-19,2025-05-19,米田薬品承継株式会社,,株式会社,大阪府,大阪市浪速区,塩草３丁目２番２号,,27,111,5560024,,,,,,,2025-05-19,1,,,,,ヨネダヤクヒンショウケイ,0
1501,6120001275763,新規,0,2025-05-19,2025-05-19,あさかシステム株式会社,,株式会社,大阪府,大阪市北区,天神橋１丁目１９番８号ＭＦ南森町３ビル,,27,127,5300041,,,,,,,2025-05-19,1,,,,,アサカシステム,0
1502,6120001275813,新規,0,2025-05-19,2025-05-19,瑞禾株式会社,,株式会社,大阪府,大阪市中央区,東心斎橋１丁目３番３－３０７号,,27,128,5420083,,,,,,,2025-05-19,1,,,,,ミズカ,0
1503,6120001275821,新規,0,2025-05-19,2025-05-19,東田豊株式会社,,株式会社,大阪府,大阪市都島区,都島北通１丁目１番４号,,27,102,5340014,,,,,,,2025-05-19,1,,,,,トウデンホウ,0
1504,6120001275854,新規,0,2025-05-19,2025-05-19,株式会社ｔｋ　ｓｅｃｏｎｄ,,株式会社,大阪府,大阪市西区,立売堀１丁目２番１２号木津ビル９Ｆ,,27,106,5500012,,,,,,,2025-05-19,1,,,,,ティーケーセカンド,0
1505,6120001276010,新規,0,2025-05-19,2025-05-19,ジョッピー株式会社,,株式会社,大阪府,大阪市北区,梅田１丁目２番２号大阪駅前第２ビル１２‐１２,,27,127,5300001,,,,,,,2025-05-19,1,,,,,ジョッピー,0
1509,6120003029473,新規,0,2025-05-19,2025-05-19,Ｔ３Ｍｏｊｕｃａ合同会社,,合同会社,大阪府,大阪市東淀川区,上新庄３丁目１４番１２－１２０５号,,27,114,5330006,,,,,,,2025-05-19,1,,,,,ティスリーモジュカ,0
1510,6120101071690,新規,0,2025-05-19,2025-05-19,株式会社和泉介護福祉事業所,,株式会社,大阪府,泉南市,新家１４１４番地７３,,27,228,5900503,,,,,,,2025-05-19,1,,,,,イズミカイゴフクシジギョウショ,0
1519,6130001079684,新規,0,2025-05-19,2025-05-19,株式会社ＰＲＥＴＴＹＢＵＳＹ　ＪＡＰＡＮ,,株式会社,京都府,京都市南区,久世高田町２５７番地２９,,26,107,6018211,,,,,,,2025-05-19,1,,,,,プリティビジージャパン,0
1520,6130001079692,新規,0,2025-05-19,2025-05-19,株式会社サークルミー,,株式会社,京都府,京都市山科区,御陵封ジ山町７－４６－２０９号室,,26,110,6078422,,,,,,,2025-05-19,1,,,,,サークルミー,0
1522,6130005017368,新規,0,2025-05-19,2025-05-19,一般社団法人北山総研,,その他の設立登記法人,京都府,京都市左京区,下鴨北芝町１９番地３,,26,103,6060842,,,,,,,2025-05-19,1,,,,,キタヤマソウケン,0
1528,6140003021949,新規,0,2025-05-19,2025-05-19,合同会社ＦｌｏｗｉｎｇＬａｂｏ,,合同会社,兵庫県,神戸市東灘区,魚崎北町５丁目３－１６,,28,101,6580082,,,,,,,2025-05-19,1,,,,,フロウイングラボ,0
1531,6150003003608,新規,0,2025-05-19,2025-05-19,合同会社センターフォレスト,,合同会社,奈良県,桜井市,大字吉備５０８－１,,29,206,6330065,,,,,,,2025-05-19,1,,,,,センターフォレスト,0
1542,6180001166858,新規,0,2025-05-19,2025-05-19,株式会社Ｆｏｒ　Ｏｎｅ’ｓ　Ｌｉｆｅ,,株式会社,愛知県,名古屋市千種区,今池１丁目１２番３号第４８プロスパービル２Ｆ,,23,101,4640850,,,,,,,2025-05-19,1,,,,,フォーワンズライフ,0
1551,6190001032225,新規,0,2025-05-19,2025-05-19,ＪＭ　ＴＲＡＤＩＮＧ株式会社,,株式会社,三重県,四日市市,山田町５６４８番地・３番倉庫,,24,202,5121111,,,,,,,2025-05-19,1,,,,,ジェイエムトレーディング,0
1553,6200005013764,新規,0,2025-05-19,2025-05-19,一般社団法人Ｔｒｅｅ　Ｃａｒｅ　Ｓａｆｅｔｙ　Ａｓｓｏｃｉａｔｉｏｎ,,その他の設立登記法人,岐阜県,高山市,江名子町１７４９番地２３,,21,203,5060818,,,,,,,2025-05-19,1,,,,,ツリーケアセーフティアソシエーション,0
1575,6290001109913,新規,0,2025-05-19,2025-05-19,Ｍ＆Ｓ株式会社,,株式会社,福岡県,福岡市東区,香椎照葉５丁目１番１２－１８０５号センターマークスタワー,,40,131,8130017,,,,,,,2025-05-19,1,,,,,エムアンドエス,0
1576,6290001109979,新規,0,2025-05-19,2025-05-19,未来謳歌株式会社,,株式会社,福岡県,福岡市博多区,博多駅前１丁目２３番２号ＰａｒｋＦｒｏｎｔ博多駅前１丁目５Ｆ－Ｂ,,40,132,8120011,,,,,,,2025-05-19,1,,,,,ミライオウカ,0
1577,6290001110045,新規,0,2025-05-19,2025-05-19,株式会社Ｔｏ．Ｆ,,株式会社,福岡県,福岡市中央区,春吉３丁目１３番２３号,,40,133,8100003,,,,,,,2025-05-19,1,,,,,トゥーエフ,0
1582,6290003016835,新規,0,2025-05-19,2025-05-19,合同会社さきがけ,,合同会社,福岡県,福岡市南区,弥永２丁目８番８号,,40,134,8111323,,,,,,,2025-05-19,1,,,,,,0
1583,6290801031556,新規,0,2025-05-19,2025-05-19,株式会社サザンワーク,,株式会社,福岡県,北九州市小倉北区,熊本３丁目１３番１９号－２０２,,40,106,8020044,,,,,,,2025-05-19,1,,,,,サザンワーク,0
1586,6330001033191,新規,0,2025-05-19,2025-05-19,センターフィールド株式会社,,株式会社,熊本県,菊池市,隈府１３９８番地３,,43,210,8611331,,,,,,,2025-05-19,1,,,,,センターフィールド,0
1587,6330001033209,新規,0,2025-05-19,2025-05-19,株式会社ＴＡＫＡ商会,,株式会社,熊本県,熊本市南区,良町３丁目１番５１号,,43,104,8620969,,,,,,,2025-05-19,1,,,,,タカショウカイ,0
1588,6330003011014,新規,0,2025-05-19,2025-05-19,合同会社フォースプレイス,,合同会社,熊本県,熊本市中央区,南熊本３丁目７－９八王寺ハイツ２－Ａ,,43,101,8600812,,,,,,,2025-05-19,1,,,,,フォースプレイス,0
1592,6350001019536,新規,0,2025-05-19,2025-05-19,株式会社ＧＮＯトラスト,,株式会社,宮崎県,宮崎市,橘通東３丁目５番５号,,45,201,8800805,,,,,,,2025-05-19,1,,,,,ジーエヌオートラスト,0
1600,6360001035219,新規,0,2025-05-19,2025-05-19,秋洋株式会社,,株式会社,沖縄県,那覇市,具志２丁目２０番７号１０３号室,,47,201,9010146,,,,,,,2025-05-19,1,,,,,シュウヨウ,0
1601,6370001052576,新規,0,2025-05-19,2025-05-19,株式会社ワイエス,,株式会社,宮城県,仙台市青葉区,国分町１丁目４－９ｅｎｓｐａｃｅ,,04,101,9800803,,,,,,,2025-05-19,1,,,,,ワイエス,0
1612,6420001019149,新規,0,2025-05-19,2025-05-19,株式会社ＪＣＯ農園,,株式会社,青森県,つがる市,稲垣町吉出鴨泊５番地１７,,02,209,0370108,,,,,,,2025-05-19,1,,,,,ジェイシーオーノウエン,0
1615,6430001094455,新規,0,2025-05-19,2025-05-19,株式会社柚縁,,株式会社,北海道,札幌市北区,北十二条西４丁目２番２１－１０２号,,01,102,0010012,,,,,,,2025-05-19,1,,,,,ユエン,0
1629,6700150130537,新規,0,2025-05-19,2025-05-19,ｌｉｓｈｕｉｍｉｙｏｕｋｕａｊｉｎｇｄｉａｎｚｉｓｈａｎｇｗｕｙｏｕｘｉａｎｇｏｎｇｓｉ,,外国会社等,,,,,,,,Ｒｏｏｍ　１２０１，Ｕｎｉｔ　２，Ｂｕｉｌｄｉｎｇ　１，Ｌｖｃｈｅｎｇ　Ｎａｎｍｉｎｇｙｕａｎ　Ｃｏｍｍｕｎｉｔｙ，Ｌｉａｎｄｕ　Ｄｉｓｔｒｉｃｔ，Ｌｉｓｈｕｉ　Ｃｉｔｙ，Ｚｈｅｊｉａｎｇ　Ｐｒｏｖｉｎｃｅ，Ｃｈｉｎａ,,,,,,2025-05-19,1,,,,,リーシュイミユウクアジンデンシショウムユウゲンコウシ,0
1642,7010001254983,新規,0,2025-05-19,2025-05-19,ＡＩＳＨＩＤＡ　ＪＡＰＡＮ株式会社,,株式会社,東京都,千代田区,霞が関３丁目２番６号東京倶楽部ビルディング１１階,,13,101,1000013,,,,,,,2025-05-19,1,,,,,アイシダジャパン,0
1643,7010001255081,新規,0,2025-05-19,2025-05-19,紀尾井町デジタルパートナーズ株式会社,,株式会社,東京都,千代田区,二番町９－３,,13,101,1020084,,,,,,,2025-05-19,1,,,,,キオイチョウデジタルパートナーズ,0
1644,7010001255123,新規,0,2025-05-19,2025-05-19,株式会社Ｄａｉｅｉ　Ｓｅｒｖｉｃｅ,,株式会社,東京都,千代田区,内神田２丁目７番７号,,13,101,1010047,,,,,,,2025-05-19,1,,,,,ダイエイサービス,0
1645,7010001255148,新規,0,2025-05-19,2025-05-19,万航株式会社,,株式会社,東京都,文京区,小石川３丁目２７番１６号,,13,105,1120002,,,,,,,2025-05-19,1,,,,,マンコウ,0
1649,7010003047262,新規,0,2025-05-19,2025-05-19,合同会社ｓｈｉｏｒ,,合同会社,東京都,千代田区,神田淡路町１丁目１７－６０４,,13,101,1010063,,,,,,,2025-05-19,1,,,,,シオール,0
1650,7010003047345,新規,0,2025-05-19,2025-05-19,ＰＶＭＡ合同会社,,合同会社,東京都,中央区,日本橋室町１丁目１１番１２号日本橋水野ビル７階,,13,102,1030022,,,,,,,2025-05-19,1,,,,,ピーヴィエムエー,0
1659,7010405024405,新規,0,2025-05-19,2025-05-19,一般社団法人ＡＩ日本国際映画祭,,その他の設立登記法人,東京都,港区,赤坂３丁目６－４コパカバーナビル５Ｆ,,13,103,1070052,,,,,,,2025-05-19,1,,,,,エーアイニッポンコクサイエイガサイ,0
1662,7010501054033,新規,0,2025-05-19,2025-05-19,株式会社ＫＩＫＫ,,株式会社,東京都,台東区,上野３丁目１４番２号ＵＥＮＯＹＯＵＲ２ｎｄ,,13,106,1100005,,,,,,,2025-05-19,1,,,,,キック,0
1663,7010501054074,新規,0,2025-05-19,2025-05-19,瑞安株式会社,,株式会社,東京都,台東区,松が谷２丁目１５番８号浅草Ｋ２ビル４０１号室,,13,106,1110036,,,,,,,2025-05-19,1,,,,,ズイアン,0
1666,7010701047737,新規,0,2025-05-19,2025-05-19,株式会社ＦｉｖｅＨａｎｇｏｕｔｓＧｒｏｕｐ,,株式会社,東京都,品川区,東五反田２丁目１０―１―４１４,,13,109,1410022,,,,,,,2025-05-19,1,,,,,ファイブハングアウトグループ,0
1670,7011001169387,新規,0,2025-05-19,2025-05-19,ｈａｙａ株式会社,,株式会社,東京都,目黒区,下目黒１丁目１番１４号コノトラビル７Ｆ,,13,110,1530064,,,,,,,2025-05-19,1,,,,,ハヤ,0
1671,7011001169404,新規,0,2025-05-19,2025-05-19,株式会社ＺＥＭＥＣＫＩＳ,,株式会社,東京都,渋谷区,渋谷２丁目１９－１５宮益坂ビルディング６０９,,13,113,1500002,,,,,,,2025-05-19,1,,,,,ゼメキス,0
1672,7011001169461,新規,0,2025-05-19,2025-05-19,ＩＤＭＴコンサルティング株式会社,,株式会社,東京都,目黒区,中目黒２丁目８番７－７０３号ＪＰＡＲＫ中目黒ＩＶ,00139208,13,110,1530061,,,,,,,2025-05-19,1,,,,,アイディーエムティーコンサルティング,0
1674,7011003021488,新規,0,2025-05-19,2025-05-19,Ｆｉｋｓｂａｙ合同会社,,合同会社,東京都,渋谷区,神南１丁目１２番１４号渋谷宮田ビル６Ｆ,,13,113,1500041,,,,,,,2025-05-19,1,,,,,フィクスベイ,0
1679,7011101111752,新規,0,2025-05-19,2025-05-19,株式会社雅山,,株式会社,東京都,新宿区,北新宿４丁目３２番１１号,,13,104,1690074,,,,,,,2025-05-19,1,,,,,アサン,0
1682,7011103015902,新規,0,2025-05-19,2025-05-19,Ｃｈｉｂａ　Ｈａｙａｂｕｓａ　Ｏｆｆｉｃｅ合同会社,,合同会社,東京都,新宿区,新宿６丁目２７番２９－２０５号,,13,104,1600022,,,,,,,2025-05-19,1,,,,,チバハヤブサオフィス,0
1695,7011601028661,新規,0,2025-05-19,2025-05-19,株式会社ピーネクスト,,株式会社,東京都,練馬区,関町北２丁目１番６－５０２号,,13,120,1770051,,,,,,,2025-05-19,1,,,,,ピーネクスト,0
1696,7011603004719,新規,0,2025-05-19,2025-05-19,合同会社ＴＦＫ,,合同会社,東京都,練馬区,氷川台４丁目４７番１８号,,13,120,1790084,,,,,,,2025-05-19,1,,,,,ティーエフケイ,0
1699,7012303002161,新規,0,2025-05-19,2025-05-19,合同会社ヤマトテクノ,,合同会社,東京都,町田市,金森東３丁目３７番７号,,13,209,1940015,,,,,,,2025-05-19,1,,,,,ヤマトテクノ,0
1701,7012701018866,新規,0,2025-05-19,2025-05-19,株式会社Ｇ‐ＲＩＳＥ,,株式会社,東京都,東村山市,廻田町１丁目１番地１ドミール８８、１０５,,13,213,1890025,,,,,,,2025-05-19,1,,,,,ジーライズ,0
1702,7012703003263,新規,0,2025-05-19,2025-05-19,ＧＣＦジャパン合同会社,,合同会社,東京都,小平市,花小金井６丁目３１番２１号,,13,211,1870002,,,,,,,2025-05-19,1,,,,,ジーシーエフジャパン,0
1703,7012803003741,新規,0,2025-05-19,2025-05-19,合同会社Ｗｏｒｌｄ　Ｈａｐｐｙ,,合同会社,東京都,立川市,砂川町５丁目２７－４,,13,202,1900031,,,,,,,2025-05-19,1,,,,,ワールドハッピー,0
1704,7013101009695,新規,0,2025-05-19,2025-05-19,株式会社志沢Ａ．Ｋ,,株式会社,東京都,あきる野市,二宮東１丁目１番地２７ファミーユ二宮Ａ,,13,228,1970815,,,,,,,2025-05-19,1,,,,,シサワエーケー,0
1706,7013301054161,新規,0,2025-05-19,2025-05-19,株式会社光輝,,株式会社,東京都,豊島区,駒込１丁目３１番１０号,,13,116,1700003,,,,,,,2025-05-19,1,,,,,コウキ,0
1712,7020001162814,新規,0,2025-05-19,2025-05-19,株式会社グロースパートナー,,株式会社,神奈川県,横浜市鶴見区,矢向４丁目１０番１８号,,14,101,2300001,,,,,,,2025-05-19,1,,,,,グロースパートナー,0
1713,7020001162921,新規,0,2025-05-19,2025-05-19,株式会社ＨＩＭＥＭＩＫＯ　ＪＡＰＡＮ,,株式会社,神奈川県,横浜市神奈川区,大口通３６番地３アークプラザ大口５０２号,,14,102,2210002,,,,,,,2025-05-19,1,,,,,ヒメミコジャパン,0
1718,7020003028360,新規,0,2025-05-19,2025-05-19,合同会社リブラージ,,合同会社,神奈川県,横浜市南区,永楽町１丁目１６番９号レジディア横濱大通り公園４０１号室,,14,105,2320031,,,,,,,2025-05-19,1,,,,,リブラージ,0
1720,7021001085261,新規,0,2025-05-19,2025-05-19,株式会社アルファライン,,株式会社,神奈川県,高座郡寒川町,岡田１丁目２番地１大誠ビル３０１,,14,321,2530105,,,,,,,2025-05-19,1,,,,,アルファライン,0
1722,7021003016009,新規,0,2025-05-19,2025-05-19,合同会社Ｈｏｐｅ．Ｉ,,合同会社,神奈川県,綾瀬市,小園３３０番地１カーサヴェルデ２０１,,14,218,2521121,,,,,,,2025-05-19,1,,,,,ホープアイ,0
1723,7021003016017,新規,0,2025-05-19,2025-05-19,ＰＺＣ合同会社,,合同会社,神奈川県,平塚市,新町７－１８,,14,203,2540076,,,,,,,2025-05-19,1,,,,,ピーゼットシー,0
1732,7030003026776,新規,0,2025-05-19,2025-05-19,ＨＩＫＡＲＩ合同会社,,合同会社,埼玉県,越谷市,大字平方１２６９番地１,,11,222,3430002,,,,,,,2025-05-19,1,,,,,ヒカリ,0
1735,7040001138820,新規,0,2025-05-19,2025-05-19,株式会社ＭＩＴＣＯＭ,,株式会社,千葉県,柏市,藤ケ谷１６３９番地５,,12,217,2770931,,,,,,,2025-05-19,1,,,,,ミットコム,0
1738,7040003027550,新規,0,2025-05-19,2025-05-19,合同会社ラグナフィール’ｓ,,合同会社,千葉県,君津市,久留里１４３,,12,225,2920422,,,,,,,2025-05-19,1,,,,,ラグナフィールズ,0
1739,7040003027609,新規,0,2025-05-19,2025-05-19,合同会社ビッグビクトリー,,合同会社,千葉県,柏市,若柴２２７番地６柏の葉キャンパス１４７街区Ｃ－３０７号,,12,217,2770871,,,,,,,2025-05-19,1,,,,,ビッグビクトリー,0
1743,7050001056708,新規,0,2025-05-19,2025-05-19,株式会社Ｋ．Ｕ保険サービス,,株式会社,茨城県,水戸市,大町３丁目２番３４号,,08,201,3100062,,,,,,,2025-05-19,1,,,,,ケーユーホケンサービス,0
1753,7070003005925,新規,0,2025-05-19,2025-05-19,合同会社わんねすサポート,,合同会社,群馬県,桐生市,三吉町１丁目４番１号,,10,203,3760005,,,,,,,2025-05-19,1,,,,,ワンネスサポート,0
1759,7080003003457,新規,0,2025-05-19,2025-05-19,合同会社日本再生システム,,合同会社,静岡県,静岡市駿河区,稲川１丁目２番１５号,,22,102,4228062,,,,,,,2025-05-19,1,,,,,ニホンサイセイシステム,0
1761,7080103003324,新規,0,2025-05-19,2025-05-19,ＰＩＯＷＩＴＨ合同会社,,合同会社,静岡県,裾野市,伊豆島田６９３番地の１アーバンシティ裾野伊豆島田８０３,,22,220,4101123,,,,,,,2025-05-19,1,,,,,ピオウィス,0
1765,7100003008164,新規,0,2025-05-19,2025-05-19,芦田清次郎合同会社,,合同会社,長野県,上田市,中央３丁目７番１７号アーバンシティ上田・中央２０３号,,20,203,3860012,,,,,,,2025-05-19,1,,,,,アシダセイジロウ,0
1772,7120001275696,新規,0,2025-05-19,2025-05-19,京都五代株式会社,,株式会社,大阪府,枚方市,楠葉野田１丁目３２番１号,,27,210,5731103,,,,,,,2025-05-19,1,,,,,キョウトゴダイ,0
1773,7120001275779,新規,0,2025-05-19,2025-05-19,ＢｒｉｇｈｔＭｉｎｄ株式会社,,株式会社,大阪府,大阪市浪速区,桜川２丁目１０番１３－１０３号,,27,111,5560022,,,,,,,2025-05-19,1,,,,,ブライトマインド,0
1774,7120001275795,新規,0,2025-05-19,2025-05-19,明州株式会社,,株式会社,大阪府,大阪市北区,黒崎町３－２６－１Ａ,,27,127,5300023,,,,,,,2025-05-19,1,,,,,メイシュウ,0
1775,7120001275812,新規,0,2025-05-19,2025-05-19,株式会社千宸,,株式会社,大阪府,大阪市淀川区,西中島２丁目１２番８－１３１１号,,27,123,5320011,,,,,,,2025-05-19,1,,,,,センシン,0
1776,7120001275820,新規,0,2025-05-19,2025-05-19,ＤＩＤ株式会社,,株式会社,大阪府,大阪市北区,中崎西１丁目９番６－１０３号,,27,127,5300015,,,,,,,2025-05-19,1,,,,,ディーアイディー,0
1777,7120001275837,新規,0,2025-05-19,2025-05-19,ＯＲＣＡ　ＭＥＤＩＡ株式会社,,株式会社,大阪府,大阪市旭区,清水５丁目１４－１４,,27,117,5350021,,,,,,,2025-05-19,1,,,,,オルカメディア,0
1778,7120001275878,新規,0,2025-05-19,2025-05-19,株式会社旭瑤,,株式会社,大阪府,大阪市平野区,長吉六反３丁目１７番２５号２Ｆ－Ｅ,,27,126,5470012,,,,,,,2025-05-19,1,,,,,シュウヨウ,0
1779,7120001276042,新規,0,2025-05-19,2025-05-19,株式会社医療福祉経営,,株式会社,大阪府,大阪市中央区,大手通２丁目１‐１１‐１３０２,,27,128,5400021,,,,,,,2025-05-19,1,,,,,イリョウフクシケイエイ,0
1784,7120003029464,新規,0,2025-05-19,2025-05-19,彩栄合同会社,,合同会社,大阪府,大阪市淀川区,三津屋北１丁目３６番１０号,,27,123,5320032,,,,,,,2025-05-19,1,,,,,サイエイ,0
1785,7120101071698,新規,0,2025-05-19,2025-05-19,日本キッティングサービス株式会社,,株式会社,大阪府,堺市堺区,市之町西３丁１番４８号,,27,141,5900951,,,,,,,2025-05-19,1,,,,,ニホンキッティングサービス,0
1792,7120901050876,新規,0,2025-05-19,2025-05-19,風の旅株式会社,,株式会社,大阪府,箕面市,如意谷３丁目７－Ａ－４０１号室,,27,220,5620011,,,,,,,2025-05-19,1,,,,,カゼノタビ,0
1797,7120905006726,新規,0,2025-05-19,2025-05-19,ＮＰＯ法人ＹＵＲＴ,,その他の設立登記法人,大阪府,摂津市,学園町２丁目８番２７－１０５号,,27,224,5660033,,,,,,,2025-05-19,1,,,,,ユルト,0
1801,7122001039222,新規,0,2025-05-19,2025-05-19,１ＳＴＥＰ株式会社,,株式会社,大阪府,東大阪市,新池島町２丁目２０番２２号サンヴェール新池２０５号,,27,227,5798065,,,,,,,2025-05-19,1,,,,,ワンステップ,0
1807,7130001079691,新規,0,2025-05-19,2025-05-19,グロリア株式会社,,株式会社,京都府,京都市下京区,西木屋町通上ノ口上る梅湊町９５－１１１３号,,26,106,6008127,,,,,,,2025-05-19,1,,,,,グロリア,0
1810,7130003010448,新規,0,2025-05-19,2025-05-19,合同会社サラ,,合同会社,京都府,与謝郡与謝野町,字幾地１７３４－１府営幾地団地１棟１０３号,,26,465,6292311,,,,,,,2025-05-19,1,,,,,サラ,0
1817,7140001138579,新規,0,2025-05-19,2025-05-19,松本株式会社,,株式会社,兵庫県,神戸市中央区,熊内町４丁目４番１１号６０２－Ａ室,,28,110,6510056,,,,,,,2025-05-19,1,,,,,マツモト,0
1818,7140001138612,新規,0,2025-05-19,2025-05-19,株式会社極ジャパン,,株式会社,兵庫県,三木市,別所町巴５２－１,,28,215,6730443,,,,,,,2025-05-19,1,,,,,キワミジャパン,0
1821,7150001028135,新規,0,2025-05-19,2025-05-19,株式会社マックス・インベストメント,,株式会社,奈良県,奈良市,富雄北２丁目８番１５号ガーデンハイツ高川３０５,,29,201,6310076,,,,,,,2025-05-19,1,,,,,マックスインベストメント,0
1831,7180001166865,新規,0,2025-05-19,2025-05-19,株式会社ＦＩＶＥ　ＫＯＲＳ,,株式会社,愛知県,名古屋市千種区,春岡通６丁目１番地Ｏ．Ｔ仲市２０１,,23,101,4640847,,,,,,,2025-05-19,1,,,,,ファイブコース,0
1832,7180001166881,新規,0,2025-05-19,2025-05-19,アストラリンク株式会社,,株式会社,愛知県,名古屋市中村区,名駅３丁目４－１０アルティメイト名駅１ｓｔ２階,,23,105,4500002,,,,,,,2025-05-19,1,,,,,アストラリンク,0
1838,7180003028460,新規,0,2025-05-19,2025-05-19,ｙａｍａＤｅｎ合同会社,,合同会社,愛知県,名古屋市南区,白水町３６番地の６０,,23,112,4570818,,,,,,,2025-05-19,1,,,,,ヤマデン,0
1839,7180003028502,新規,0,2025-05-19,2025-05-19,Ｄｅｌａｉｌ合同会社,,合同会社,愛知県,名古屋市中村区,名駅４丁目２４番５号　第２森ビル４０１,,23,105,4500002,,,,,,,2025-05-19,1,,,,,デライル,0
1846,7190001032224,新規,0,2025-05-19,2025-05-19,株式会社Ｎｅｘｕｓ　Ｃｏｒｅ,,株式会社,三重県,津市,北河路町４８０番地,,24,201,5140056,,,,,,,2025-05-19,1,,,,,ネクサスコア,0
1852,7220001026684,新規,0,2025-05-19,2025-05-19,株式会社クライムパートナーズ,,株式会社,石川県,白山市,美川和波町北２５７番地,,17,210,9290231,,,,,,,2025-05-19,1,,,,,クライムパートナーズ,0
1859,7240003007210,新規,0,2025-05-19,2025-05-19,合同会社ＩＰＫ,,合同会社,広島県,広島市東区,牛田新町３丁目２７番１７号,,34,102,7320068,,,,,,,2025-05-19,1,,,,,アイピーケイ,0
1860,7250001021154,新規,0,2025-05-19,2025-05-19,株式会社ＴＨＲＥＥＤ,,株式会社,山口県,山口市,黒川２２３０番地２２,,35,203,7530851,,,,,,,2025-05-19,1,,,,,スリード,0
1873,7290001110044,新規,0,2025-05-19,2025-05-19,株式会社キレイテ,,株式会社,福岡県,福岡市博多区,半道橋１丁目６番２８－９０５号ＤＩＡＣＡＦＵＮＥ,,40,132,8120897,,,,,,,2025-05-19,1,,,,,キレイテ,0
1876,7290003016850,新規,0,2025-05-19,2025-05-19,合同会社Ｄｅｔｅｒｒｉｔｏｒｉａ,,合同会社,福岡県,福岡市南区,中尾１丁目１－２３－１Ｆ,,40,134,8111364,,,,,,,2025-05-19,1,,,,,ディテリトリア,0
1880,7360001035218,新規,0,2025-05-19,2025-05-19,株式会社四季彩グループ,,株式会社,沖縄県,那覇市,小禄１丁目２１番２５号１階,,47,201,9010152,,,,,,,2025-05-19,1,,,,,シキサイグループ,0
1883,7370001052583,新規,0,2025-05-19,2025-05-19,株式会社ＫＵＳＡＮＯ,,株式会社,宮城県,石巻市,門脇字浦屋敷８１番地１０,,04,202,9860853,,,,,,,2025-05-19,1,,,,,クサノ,0
1887,7420001019148,新規,0,2025-05-19,2025-05-19,株式会社工藤アップルガーデン,,株式会社,青森県,黒石市,大字浅瀬石字清川２４２番地１,,02,204,0360343,,,,,,,2025-05-19,1,,,,,クドウアップルガーデン,0
1892,7430001094413,新規,0,2025-05-19,2025-05-19,株式会社コネクト,,株式会社,北海道,札幌市白石区,北郷二条１２丁目４番１号,,01,104,0030832,,,,,,,2025-05-19,1,,,,,コネクト,0
1898,7700150130536,新規,0,2025-05-19,2025-05-19,Ｂｅｉｊｉｎｇ　Ｓｕｐｖａｎ　Ｉｎｆｏｒｍａｔｉｏｎ　Ｔｅｃｈｎｏｌｏｇｙ　Ｃｏ．，Ｌｔｄ．,,外国会社等,,,,,,,,Ｂｅｉｊｉｎｇ　Ｓｈｉ　Ｃｈａｎｇｐｉｎｇ　Ｑｕ　Ｈｕｉｌｏｎｇｇｕａｎ　Ｇａｏｘｉｎ　Ｗｕ　Ｊｉｅ　１　Ｈａｏ　Ｙｕａｎ　１　Ｈａｏ　Ｌｏｕ　Ｌｉｕ　Ｃｅｎｇ　６０３　Ｓｈｉ（Ｃｈａｎｇｐｉｎｇ　Ｓｈｉｆａｎ　Ｙｕａｎ）,,,,,,2025-05-19,1,,,,,ペキンスプヴァンインフォメーションテクノロジーカンパニーリミテッド,0
1899,7700150130569,新規,0,2025-05-19,2025-05-19,Ｄｏｎｇｇｕａｎ　Ｆｉｌｓｈｕ　Ｅｌｅｃｔｒｏｎｉｃｓ　Ｃｏ．，ＬＴＤ,,外国会社等,,,,,,,,Ｒｏｏｍ　６０６，Ｂｕｉｌｄｉｎｇ　１，Ｚｈｉｇｕ　Ｓｃｉｅｎｔｉｆｉｃ　Ｒｅｓｅａｒｃｈ　Ｃｅｎｔｅｒ，Ｘｉｎｈｏｎｇ　Ｂａｙ　Ｄｉｓｔｒｉｃｔ，Ｎｏ．６８，Ｘｉｎｇｚｈｏｕ　Ｒｏａｄ，Ｓｈａｔｉａｎ　Ｔｏｗｎ，Ｄｏｎｇｇｕａｎ　Ｃｉｔｙ，Ｇｕａｎｇｄｏｎｇ　Ｐｒｏｖｉｎｃｅ,,,,,,2025-05-19,1,,,,,ドングアンフィルシュエレクトロニクスカンパニーリミテッド,0
1909,8010001255089,新規,0,2025-05-19,2025-05-19,株式会社ＨＩＲＯＴＡＮＩ,,株式会社,東京都,中央区,銀座４丁目１４番１５号サントル銀座四丁目８０３号室,,13,102,1040061,,,,,,,2025-05-19,1,,,,,ヒロタニ,0
1910,8010001255114,新規,0,2025-05-19,2025-05-19,株式会社Ｓｅｒｅｎｄｉｐｉｔｙ,,株式会社,東京都,中央区,月島１丁目５番１－１３１１号,,13,102,1040052,,,,,,,2025-05-19,1,,,,,セレンディピティ,0
1911,8010001255139,新規,0,2025-05-19,2025-05-19,シアン・リニューアブルズ・ジャパン株式会社,,株式会社,東京都,中央区,日本橋３丁目９番１号日本橋三丁目スクエア１１階,,13,102,1030027,,,,,,,2025-05-19,1,,,,,シアンリニューアブルズジャパン,0
1924,8010403035106,新規,0,2025-05-19,2025-05-19,ＳＥＴＡ　ＬＡＢＯＲＡＴＯＲＹ合同会社,,合同会社,東京都,港区,北青山１丁目３番１号アールキューブ青山３階,,13,103,1070061,,,,,,,2025-05-19,1,,,,,セタラボラトリー,0
1927,8010601067272,新規,0,2025-05-19,2025-05-19,ＷＭｅｄｉａ株式会社,,株式会社,東京都,江東区,豊洲６丁目２番３１－１９１７号,,13,108,1350061,,,,,,,2025-05-19,1,,,,,ダブリューメディア,0
1929,8010603011550,新規,0,2025-05-19,2025-05-19,東樹合同会社,,合同会社,東京都,墨田区,立花４丁目２３－５司ビル４０１,,13,107,1310043,,,,,,,2025-05-19,1,,,,,イーストリー,0
1930,8010703007696,新規,0,2025-05-19,2025-05-19,安高国際合同会社,,合同会社,東京都,品川区,東品川３丁目８番８－４１４号,,13,109,1400002,,,,,,,2025-05-19,1,,,,,ヤスタカコクサイ,0
1934,8010901057353,新規,0,2025-05-19,2025-05-19,株式会社セットン,,株式会社,東京都,世田谷区,松原１丁目３６番９号白川ビル４階,,13,112,1560043,,,,,,,2025-05-19,1,,,,,セットン,0
1938,8011001169881,新規,0,2025-05-19,2025-05-19,株式会社ＳｏｌａＮｉｋａ,,株式会社,東京都,渋谷区,神南１丁目１１－４ＦＰＧリンクス神南５階,,13,113,1500041,,,,,,,2025-05-19,1,,,,,ソラニカ,0
1941,8011003021512,新規,0,2025-05-19,2025-05-19,ＳＩＭＩＮＧ合同会社,,合同会社,東京都,目黒区,下目黒１丁目１番１４号コノトラビル７Ｆ,,13,110,1530064,,,,,,,2025-05-19,1,,,,,スーミン,0
1944,8011101111735,新規,0,2025-05-19,2025-05-19,株式会社Ｓｉｇｈｔ,,株式会社,東京都,新宿区,若葉１丁目１４番地５３,,13,104,1600011,,,,,,,2025-05-19,1,,,,,サイト,0
1945,8011103015901,新規,0,2025-05-19,2025-05-19,ＨＩＤＥＭＩ合同会社,,合同会社,東京都,新宿区,北新宿３丁目２０番１－２２６号,,13,104,1690074,,,,,,,2025-05-19,1,,,,,ヒデミー,0
1946,8011105011428,新規,0,2025-05-19,2025-05-19,一般社団法人日本共同システム持株会支援会,,その他の設立登記法人,東京都,新宿区,西新宿７丁目１１番１８号７１１ビル,,13,104,1600023,,,,,,,2025-05-19,1,,,,,ニホンキョウドウシステムモチカブカイシエンカイ,0
1947,8011203004688,新規,0,2025-05-19,2025-05-19,合同会社Ｓｎａｐｉｆｙ,,合同会社,東京都,中野区,江原町１丁目１６番１５号,,13,114,1650023,,,,,,,2025-05-19,1,,,,,スナピファイ,0
1949,8011303005545,新規,0,2025-05-19,2025-05-19,合同会社ソラニサクラ．ｃｏ,,合同会社,東京都,杉並区,天沼３丁目２３－２１,,13,115,1670032,,,,,,,2025-05-19,1,,,,,ソラニサクラドットシーオー,0
1951,8011501032077,新規,0,2025-05-19,2025-05-19,株式会社ＢＡＬＵ　Ｉｎｔｅｒｎａｔｉｏｎａｌ,,株式会社,東京都,北区,堀船２丁目２２番１－９０５号,,13,117,1140004,,,,,,,2025-05-19,1,,,,,バルインターナショナル,0
1955,8011603004718,新規,0,2025-05-19,2025-05-19,合同会社ＴＦＪ,,合同会社,東京都,練馬区,氷川台４丁目４７番１８号,,13,120,1790084,,,,,,,2025-05-19,1,,,,,ティーエフジェイ,0
1961,8013301054235,新規,0,2025-05-19,2025-05-19,ＤｏｌｐｈｉｎＶｏｉｃｅ株式会社,,株式会社,東京都,豊島区,東池袋１丁目１８－１ハレザタワー２０階,,13,116,1700013,,,,,,,2025-05-19,1,,,,,ドルフィンボイス,0
1973,8020001162912,新規,0,2025-05-19,2025-05-19,Ｖｉｃｔｏｒｙ　Ａｕｔｏ　Ｊａｐａｎ株式会社,,株式会社,神奈川県,横浜市中区,長者町２丁目５番１８号ピアセントラル４０６,,14,104,2310033,,,,,,,2025-05-19,1,,,,,ビクトリーオートジャパン,0
1976,8020005016858,新規,0,2025-05-19,2025-05-19,一般社団法人ワールドファミリー,,その他の設立登記法人,神奈川県,横浜市旭区,市沢町１６７－１０３,,14,112,2410014,,,,,,,2025-05-19,1,,,,,ワールドファミリー,0
1979,8021001085260,新規,0,2025-05-19,2025-05-19,Ｍａｋｅ‐Ａ‐Ｌｉｆｅ株式会社,,株式会社,神奈川県,相模原市緑区,大島１１,,14,151,2520135,,,,,,,2025-05-19,1,,,,,メイクアライフ,0
1981,8021003016016,新規,0,2025-05-19,2025-05-19,ＫＡＩＺＥＮ　ＥＮＴＥＲＰＲＩＳＥＳ合同会社,,合同会社,神奈川県,藤沢市,宮原３１８９番１０２号,,14,205,2520826,,,,,,,2025-05-19,1,,,,,カイゼンエンタープライゼス,0
1983,8021005013374,新規,0,2025-05-19,2025-05-19,一般社団法人厚木グリーンスポーツ振興会,,その他の設立登記法人,神奈川県,厚木市,妻田北２丁目１９番１９号,,14,212,2430812,,,,,,,2025-05-19,1,,,,,アツギグリーンスポーツシンコウカイ,0
1991,8040001138621,新規,0,2025-05-19,2025-05-19,株式会社Ｌｉｎｋｓ　Ｐｌｕｓ,,株式会社,千葉県,市原市,五井中央西１丁目２－４第６東洋ビル６Ｆ,,12,219,2900081,,,,,,,2025-05-19,1,,,,,リンクスプラス,0
2001,8080001026938,新規,0,2025-05-19,2025-05-19,株式会社Ｒｅｎｏｂｕｔｅ,,株式会社,静岡県,藤枝市,南駿河台６丁目１番５－２０６号,,22,214,4260078,,,,,,,2025-05-19,1,,,,,リノビュート,0
2012,8110001039267,新規,0,2025-05-19,2025-05-19,大神建設株式会社,,株式会社,新潟県,新潟市江南区,太右エ門新田１８３番地,,15,104,9501146,,,,,,,2025-05-19,1,,,,,オオガミケンセツ,0
2017,8120001275613,新規,0,2025-05-19,2025-05-19,Ｒａｄｉａｎ　ｄｅｓｉｇｎ　ａｎｄ　ａｒｃｈｉｔｅｃｔｕｒｅ株式会社,,株式会社,大阪府,大阪市阿倍野区,昭和町２丁目５番９号,,27,119,5450011,,,,,,,2025-05-19,1,,,,,ラジアンデザインアンドアーキテクチャ,0
2018,8120001275786,新規,0,2025-05-19,2025-05-19,株式会社カメオタビー,,株式会社,大阪府,大阪市北区,中崎西１丁目２番１３号サプライズビル２０２号,,27,127,5300015,,,,,,,2025-05-19,1,,,,,カメオタビー,0
2019,8120001275836,新規,0,2025-05-19,2025-05-19,株式会社Ａｒｓｅｎｅ,,株式会社,大阪府,大阪市浪速区,桜川１丁目１－３２－５０３号,,27,111,5560022,,,,,,,2025-05-19,1,,,,,アルセーヌ,0
2020,8120001275885,新規,0,2025-05-19,2025-05-19,株式会社人生大逆転,,株式会社,大阪府,大阪市浪速区,日本橋４丁目１７番１５号２Ｆ,,27,111,5560005,,,,,,,2025-05-19,1,,,,,ジンセイダイギャクテン,0
2026,8120101071689,新規,0,2025-05-19,2025-05-19,株式会社ｃｏｌｅｔ,,株式会社,大阪府,岸和田市,流木町２２４番地,,27,202,5960835,,,,,,,2025-05-19,1,,,,,コレット,0
2029,8120103006461,新規,0,2025-05-19,2025-05-19,合同会社Ｉ．Ｄ．Ａ,,合同会社,大阪府,羽曳野市,恵我之荘６丁目１９番１号,,27,222,5830886,,,,,,,2025-05-19,1,,,,,アイディーエー,0
2032,8120901050909,新規,0,2025-05-19,2025-05-19,株式会社メタルリンク,,株式会社,大阪府,箕面市,萱野３丁目１４番２５号,,27,220,5620014,,,,,,,2025-05-19,1,,,,,メタルリンク,0
2035,8122001039221,新規,0,2025-05-19,2025-05-19,株式会社ＭＫＴ,,株式会社,大阪府,大東市,平野屋２丁目８番３０－２０１号,,27,218,5740022,,,,,,,2025-05-19,1,,,,,エムケーティー,0
2048,8140005027513,新規,0,2025-05-19,2025-05-19,一般社団法人ニャオス,,その他の設立登記法人,兵庫県,神戸市中央区,加納町６丁目２番１号神戸関電ビル７階,,28,110,6500001,,,,,,,2025-05-19,1,,,,,ニャオス,0
2049,8150001028134,新規,0,2025-05-19,2025-05-19,田中靴下株式会社,,株式会社,奈良県,香芝市,狐井５９９番地,,29,210,6390234,,,,,,,2025-05-19,1,,,,,タナカクツシタ,0
2063,8180001166831,新規,0,2025-05-19,2025-05-19,らんど株式会社,,株式会社,愛知県,日進市,赤池町箕ノ手２番地２７８,,23,230,4700126,,,,,,,2025-05-19,1,,,,,ランド,0
2064,8180001166872,新規,0,2025-05-19,2025-05-19,株式会社凛,,株式会社,愛知県,名古屋市緑区,滝ノ水３丁目１０６番地サワイビル１階,,23,114,4580021,,,,,,,2025-05-19,1,,,,,リン,0
2071,8200001043796,新規,0,2025-05-19,2025-05-19,Ｕｓａｍａ　Ｔｒａｄｉｎｇ株式会社,,株式会社,岐阜県,岐阜市,黒野南３丁目５番地長屋マンション２０３号室,,21,201,5011136,,,,,,,2025-05-19,1,,,,,,0
2074,8230003002426,新規,0,2025-05-19,2025-05-19,合同会社ＳＭＬＬＣ,,合同会社,富山県,富山市,黒崎３３０‐４,,16,201,9398214,,,,,,,2025-05-19,1,,,,,エスエムエルエルシー,0
2077,8260001040193,新規,0,2025-05-19,2025-05-19,株式会社Ｆｕｉｃｋ,,株式会社,岡山県,高梁市,落合町福地２６９６番地,,33,209,7160064,,,,,,,2025-05-19,1,,,,,フイック,0
2081,8270001009205,新規,0,2025-05-19,2025-05-19,株式会社大山ぐらし,,株式会社,鳥取県,西伯郡大山町,押平７６３番地１,,31,386,6893225,,,,,,,2025-05-19,1,,,,,ダイセングラシ,0
2086,8290001110076,新規,0,2025-05-19,2025-05-19,株式会社アクジット,,株式会社,福岡県,福岡市博多区,博多駅前２丁目１３番８号ハタエビル５階,,40,132,8120011,,,,,,,2025-05-19,1,,,,,アクジット,0
2091,8290003016841,新規,0,2025-05-19,2025-05-19,合同会社スレニア,,合同会社,福岡県,福岡市博多区,下川端町１０番１６－１１０３号アメックス博多ベルテックステージ,,40,132,8120027,,,,,,,2025-05-19,1,,,,,スレニア,0
2099,8370001052582,新規,0,2025-05-19,2025-05-19,エステートサポート株式会社,,株式会社,宮城県,多賀城市,南宮字町２４番地の５,,04,209,9850851,,,,,,,2025-05-19,1,,,,,エステートサポート,0
2100,8370001052590,新規,0,2025-05-19,2025-05-19,櫻井ウェルディング株式会社,,株式会社,宮城県,塩竈市,新浜町３丁目２８番２号,,04,203,9850001,,,,,,,2025-05-19,1,,,,,サクライウェルディング,0
2101,8370003007097,新規,0,2025-05-19,2025-05-19,合同会社Ｃｏｓｍｏｓ,,合同会社,宮城県,仙台市青葉区,中央２丁目１１番１９号仙南ビル４階Ａ,,04,101,9800021,,,,,,,2025-05-19,1,,,,,コスモス,0
2105,8390001017988,新規,0,2025-05-19,2025-05-19,株式会社ＩＫＩ,,株式会社,山形県,鶴岡市,日枝字坂本７番地１２,,06,203,9970824,,,,,,,2025-05-19,1,,,,,アイケイアイ,0
2117,8430001094404,新規,0,2025-05-19,2025-05-19,株式会社ＹＯＲＩＧＯ,,株式会社,北海道,札幌市中央区,南二条西７丁目１番５号２・７ビル２階,,01,101,0600062,,,,,,,2025-05-19,1,,,,,ヨリゴ,0
2129,8490003002020,新規,0,2025-05-19,2025-05-19,合同会社ＣｌａｒｉＳ,,合同会社,高知県,高知市,朝倉甲２９―２,,39,201,7808061,,,,,,,2025-05-19,1,,,,,クラリス,0
2131,8500003003512,新規,0,2025-05-19,2025-05-19,合同会社リベロ,,合同会社,愛媛県,松山市,南梅本町甲９３９番地５,,38,201,7910245,,,,,,,2025-05-19,1,,,,,リベロ,0
2132,8700150069856,新規,0,2025-05-19,2016-01-19,ＡＩＲＭＡＮ持株会,,その他,新潟県,燕市,下粟生津３０７４番地,,15,213,9590222,,,,,,,2016-01-19,1,,,,,エアマンモチカブカイ,0
2133,8700150130535,新規,0,2025-05-19,2025-05-19,Ｓｈｅｎｚｈｅｎ　Ｈｏｎｇｆａｎｇｇｅ　Ｔｅｃｈｎｏｌｏｇｙ　Ｃｏ．，Ｌｔｄ．,,外国会社等,,,,,,,,Ｒｏｏｍ　４１７，ｐｌａｎｔ　Ｂｕｉｌｄｉｎｇ　３，Ｈｏｎｇｓｈｅｎｇ　Ｉｎｄｕｓｔｒｉａｌ　Ｐａｒｋ，Ｎｏ．４３３６，Ｂａｏａｎ　Ａｖｅｎｕｅ，Ｇｕｓｈｕ　Ｃｏｍｍｕｎｉｔｙ，Ｘｉｘｉａｎｇ　Ｓｔｒｅｅｔ，Ｂａｏａｎ　Ｚｏｎｅ，Ｓｈｅｎｚｈｅｎ　Ｃｉｔｙ,,,,,,2025-05-19,1,,,,,シンセンホンファンゲテクノロジーカンパニーリミテッド,0
2138,9010001073201,新規,0,2025-05-19,2025-05-19,株式会社京半,,株式会社,東京都,中央区,日本橋横山町８番１号,,13,102,1030003,,,,,,,2025-05-19,1,,,,,キョウハン,0
2142,9010001254916,新規,0,2025-05-19,2025-05-19,株式会社ＴＯ,,株式会社,東京都,千代田区,外神田２丁目９番６号泉ビル３Ｆ,,13,101,1010021,,,,,,,2025-05-19,1,,,,,ティーオー,0
2143,9010001255022,新規,0,2025-05-19,2025-05-19,株式会社ｗｈｉｔｅｎ,,株式会社,東京都,千代田区,神田和泉町１番地６－１６ヤマトビル４０５,,13,101,1010024,,,,,,,2025-05-19,1,,,,,ホワイテン,0
2144,9010003047335,新規,0,2025-05-19,2025-05-19,合同会社レガーメ,,合同会社,東京都,中央区,銀座１丁目１２番４号Ｎ＆ＥＢＬＤ．７階,,13,102,1040061,,,,,,,2025-05-19,1,,,,,レガーメ,0
2145,9010003047343,新規,0,2025-05-19,2025-05-19,合同会社ＴｏｋｙｏＨｅａｌｔｈＣｏｍｐａｓｓ,,合同会社,東京都,文京区,本駒込３丁目４０－３,,13,105,1130021,,,,,,,2025-05-19,1,,,,,トウキョウヘルスコンパス,0
2146,9010003047351,新規,0,2025-05-19,2025-05-19,合同会社モンブラン,,合同会社,東京都,千代田区,神田和泉町１番地６－１６ヤマトビル４０５,,13,101,1010024,,,,,,,2025-05-19,1,,,,,モンブラン,0
2155,9010403035138,新規,0,2025-05-19,2025-05-19,合同会社茶柳,,合同会社,東京都,港区,北青山１丁目３－３三橋ビル３階,,13,103,1070061,,,,,,,2025-05-19,1,,,,,サリュ,0
2162,9010501054031,新規,0,2025-05-19,2025-05-19,株式会社ＳｙｎｔｈＭｉｎｄ,,株式会社,東京都,台東区,浅草５丁目２６－２リエス浅草５０２,,13,106,1110032,,,,,,,2025-05-19,1,,,,,シンスマインド,0
2163,9010501054089,新規,0,2025-05-19,2025-05-19,バイオガード株式会社,,株式会社,東京都,台東区,上野６丁目１番６号,,13,106,1100005,,,,,,,2025-05-19,1,,,,,バイオガード,0
2165,9010601067321,新規,0,2025-05-19,2025-05-19,株式会社バズラボ,,株式会社,東京都,江東区,深川２丁目３０－９ウガイビル２Ｆ,,13,108,1350033,,,,,,,2025-05-19,1,,,,,バズラボ,0
2172,9011001169179,新規,0,2025-05-19,2025-05-19,ソーンテック株式会社,,株式会社,東京都,目黒区,八雲３丁目２８－５,,13,110,1520023,,,,,,,2025-05-19,1,,,,,ソーンテック,0
2173,9011001169402,新規,0,2025-05-19,2025-05-19,フガク株式会社,,株式会社,東京都,渋谷区,恵比寿１丁目２０番２－４０５号,,13,113,1500013,,,,,,,2025-05-19,1,,,,,フガク,0
2180,9011103015891,新規,0,2025-05-19,2025-05-19,ＮＡＣＨＴＥＵＬＥ　ＣＲＥＡＴＩＯＮ合同会社,,合同会社,東京都,新宿区,西新宿３丁目３番１３号西新宿水間ビル６階,,13,104,1600023,,,,,,,2025-05-19,1,,,,,ナハトオーレクリエイション,0
2181,9011103015900,新規,0,2025-05-19,2025-05-19,合同会社Ｍプロダクション,,合同会社,東京都,新宿区,西新宿３丁目３番１３号西新宿水間ビル２Ｆ,,13,104,1600023,,,,,,,2025-05-19,1,,,,,エムプロダクション,0
2184,9011303005552,新規,0,2025-05-19,2025-05-19,合同会社リスサラ,,合同会社,東京都,杉並区,浜田山３丁目２６－２１－５０８ラヴェール浜田山,,13,115,1680065,,,,,,,2025-05-19,1,,,,,リスサラ,0
2186,9011501032076,新規,0,2025-05-19,2025-05-19,株式会社ひまわり,,株式会社,東京都,荒川区,西日暮里６丁目５４番１０号エリムビル１０１号室,,13,118,1160013,,,,,,,2025-05-19,1,,,,,ヒマワリ,0
2189,9011603004717,新規,0,2025-05-19,2025-05-19,合同会社ＴＦＩ,,合同会社,東京都,練馬区,氷川台４丁目４７番１８号,,13,120,1790084,,,,,,,2025-05-19,1,,,,,ティーエフアイ,0
2192,9011801046040,新規,0,2025-05-19,2025-05-19,株式会社プレミアムグレイン,,株式会社,東京都,葛飾区,鎌倉２丁目２０番３－２０４号アンビシャス小岩,,13,122,1250053,,,,,,,2025-05-19,1,,,,,プレミアムグレイン,0
2194,9012701018864,新規,0,2025-05-19,2025-05-19,株式会社ＣＳ保谷組,,株式会社,東京都,西東京市,芝久保町４丁目９番２０号,,13,229,1880014,,,,,,,2025-05-19,1,,,,,シーエスホウヤグミ,0
2215,9020005016840,新規,0,2025-05-19,2025-05-19,医療法人社団Ｆｉｖｅ　Ｔｒｅｅｓ,,その他の設立登記法人,神奈川県,川崎市高津区,末長１丁目９番１号スタイリオ梶が谷ＭＡＬＬ６階,,14,134,2130013,,,,,,,2025-05-19,1,,,,,ファイブツリーズ,0
2223,9021003016007,新規,0,2025-05-19,2025-05-19,Ｆｕｌｆｉｌｌ合同会社,,合同会社,神奈川県,小田原市,中里１８８－１２,,14,206,2500872,,,,,,,2025-05-19,1,,,,,フルフィル,0
2233,9040001138595,新規,0,2025-05-19,2025-05-19,＿咤国際株式会社,00139203,株式会社,千葉県,松戸市,二ツ木１２９９番地２新松戸ニューハイツ２０６号室,,12,207,2700027,,,,,,,2025-05-19,1,,,,,ナタコクサイ,0
2237,9040003027607,新規,0,2025-05-19,2025-05-19,合同会社ＭＯＭＯＮＯＮＡＮ,,合同会社,千葉県,市川市,八幡２丁目９番１５号ブラッサムフォーラム市川,,12,203,2720021,,,,,,,2025-05-19,1,,,,,モモノンアン,0
2242,9060001038208,新規,0,2025-05-19,2025-05-19,株式会社吉田技術士事務所,,株式会社,栃木県,鹿沼市,下武子町１８８番地１１１,,09,205,3220004,,,,,,,2025-05-19,1,,,,,ヨシダギジュツシジムショ,0
2249,9080001026937,新規,0,2025-05-19,2025-05-19,株式会社山田自販,,株式会社,静岡県,榛原郡吉田町,大幡１６８８番地の２,,22,424,4210305,,,,,,,2025-05-19,1,,,,,ヤマダジハン,0
2251,9080101025500,新規,0,2025-05-19,2025-05-19,株式会社はなまるプラス,,株式会社,静岡県,賀茂郡河津町,峰１１４４―２８,,22,302,4130511,,,,,,,2025-05-19,1,,,,,ハナマルプラス,0
2272,9120001275595,新規,0,2025-05-19,2025-05-19,株式会社兄弟社,,株式会社,大阪府,大阪市西成区,玉出西１丁目２番２７号ホワイトコーポ玉出４階４Ｂ号室,,27,122,5570045,,,,,,,2025-05-19,1,,,,,キョウダイシャ,0
2273,9120001275810,新規,0,2025-05-19,2025-05-19,瑞源泰富株式会社,,株式会社,大阪府,大阪市西区,本田３丁目１番１９－４０１号,,27,106,5500022,,,,,,,2025-05-19,1,,,,,スイゲンタイフ,0
2274,9120001275827,新規,0,2025-05-19,2025-05-19,株式会社ｃｌｅｖｅｒ　ｔｉｇｅｒ,,株式会社,大阪府,大阪市中央区,南船場４丁目１０番５号南船場ＳＯＨＯビル７０２,,27,128,5420081,,,,,,,2025-05-19,1,,,,,クレバータイガー,0
2275,9120001275892,新規,0,2025-05-19,2025-05-19,栄晟株式会社,,株式会社,大阪府,大阪市東淀川区,大桐３丁目６番２１－３０３号,,27,114,5330011,,,,,,,2025-05-19,1,,,,,エイセイ,0
2277,9120003029454,新規,0,2025-05-19,2025-05-19,ＫＩＺＵＫＩ合同会社,,合同会社,大阪府,大阪市北区,天神橋４丁目３番１７－１８０３号,,27,127,5300041,,,,,,,2025-05-19,1,,,,,キヅキ,0
2281,9120103006460,新規,0,2025-05-19,2025-05-19,エステート７４合同会社,,合同会社,大阪府,羽曳野市,西浦２丁目１７２４番地の１６,,27,222,5830861,,,,,,,2025-05-19,1,,,,,エステートセブンティーフォー,0
2282,9120901050874,新規,0,2025-05-19,2025-05-19,株式会社美研,,株式会社,大阪府,箕面市,桜ケ丘３丁目１番１０号,,27,220,5620046,,,,,,,2025-05-19,1,,,,,ビケン,0
2283,9120901050899,新規,0,2025-05-19,2025-05-19,株式会社トミテック,,株式会社,大阪府,豊中市,豊南町東３丁目４番４号,,27,203,5610814,,,,,,,2025-05-19,1,,,,,トミテック,0
2296,9140001138536,新規,0,2025-05-19,2025-05-19,ＩＫＩＧＡＩコーポレーション株式会社,,株式会社,兵庫県,神戸市中央区,相生町４丁目５－７神戸パシフィックビル４Ｆ,,28,110,6500025,,,,,,,2025-05-19,1,,,,,イキガイコーポレーション,0
2297,9140001138602,新規,0,2025-05-19,2025-05-19,株式会社ＯＭＲ,,株式会社,兵庫県,神戸市東灘区,魚崎北町１丁目１１番２６－１０３号,,28,101,6580082,,,,,,,2025-05-19,1,,,,,オーエムアール,0
2298,9140001138610,新規,0,2025-05-19,2025-05-19,株式会社盛光商社,,株式会社,兵庫県,神戸市北区,南五葉６丁目５番１０号,,28,109,6511132,,,,,,,2025-05-19,1,,,,,セイコウショウシャ,0
2300,9140003022077,新規,0,2025-05-19,2025-05-19,合同会社アルファンストア,,合同会社,兵庫県,尼崎市,瓦宮１丁目５－１３,,28,202,6610971,,,,,,,2025-05-19,1,,,,,アルファンストア,0
2303,9170003002217,新規,0,2025-05-19,2025-05-19,ＳＡＮＧＩＡＮ　ＨＯＵＳＥ合同会社,,合同会社,和歌山県,和歌山市,中之島２３３２番地いずみビル１階,,30,201,6408392,,,,,,,2025-05-19,1,,,,,サンチャンハウス,0
2311,9180001166822,新規,0,2025-05-19,2025-05-19,株式会社ＣＡＲ’Ｓ　ＴＩＲＥ,,株式会社,愛知県,一宮市,北方町北方字下本郷一１０７番地,,23,203,4938001,,,,,,,2025-05-19,1,,,,,カーズタイヤ,0
2312,9180001166839,新規,0,2025-05-19,2025-05-19,株式会社メイベル,,株式会社,愛知県,名古屋市守山区,川宮町４８番地,,23,113,4630081,,,,,,,2025-05-19,1,,,,,メイベル,0
2315,9180003028500,新規,0,2025-05-19,2025-05-19,ＰＲＯＧＲＥＳＳ合同会社,,合同会社,愛知県,名古屋市中川区,小本本町１丁目４９番地,,23,110,4540826,,,,,,,2025-05-19,1,,,,,プログレス,0
2320,9200003006825,新規,0,2025-05-19,2025-05-19,Ｋ‐ｉｎｔｅｒｎａｃｉｏｎａｌ合同会社,,合同会社,岐阜県,加茂郡坂祝町,酒倉２２５０番地１ラインハイツ１０２,,21,501,5050074,,,,,,,2025-05-19,1,,,,,ケーインターナショナル,0
2346,9290001110001,新規,0,2025-05-19,2025-05-19,ＷａＧｌｅａｍ株式会社,,株式会社,福岡県,福岡市西区,姪の浜６丁目１番７号,,40,135,8190002,,,,,,,2025-05-19,1,,,,,ワグリーム,0
2347,9290001110034,新規,0,2025-05-19,2025-05-19,株式会社アリア,,株式会社,福岡県,福岡市城南区,鳥飼５丁目６番３号－３０９,,40,136,8140103,,,,,,,2025-05-19,1,,,,,アリア,0
2348,9290001110050,新規,0,2025-05-19,2025-05-19,株式会社福岡芸術教育研究所,,株式会社,福岡県,福岡市南区,横手２丁目２２番２５号,,40,134,8111311,,,,,,,2025-05-19,1,,,,,フクオカゲイジュツキョウイクケンキュウジョ,0
2349,9290001110091,新規,0,2025-05-19,2025-05-19,株式会社オリセ,,株式会社,福岡県,福岡市東区,西戸崎５丁目９－２２,,40,131,8110321,,,,,,,2025-05-19,1,,,,,オリセ,0
2352,9290003016824,新規,0,2025-05-19,2025-05-19,合同会社ＬＨＲ,,合同会社,福岡県,糟屋郡宇美町,貴船５丁目４－３,,40,341,8112131,,,,,,,2025-05-19,1,,,,,エルエイチアール,0
2353,9290003016840,新規,0,2025-05-19,2025-05-19,合同会社ｃｕｒｅｍｉ,,合同会社,福岡県,福岡市中央区,天神４丁目６番２８号いちご天神ノースビル７階,,40,133,8100001,,,,,,,2025-05-19,1,,,,,キュアミー,0
2354,9290003016849,新規,0,2025-05-19,2025-05-19,ＭＡＭ合同会社,,合同会社,福岡県,福岡市早良区,南庄１丁目１３番１０－３０２号シルエラ南庄,,40,137,8140031,,,,,,,2025-05-19,1,,,,,エムエーエム,0
2355,9300001014191,新規,0,2025-05-19,2025-05-19,株式会社みゆきファーム,,株式会社,佐賀県,西松浦郡有田町,仏ノ原丙７６０番地,,41,401,8494164,,,,,,,2025-05-19,1,,,,,ミユキファーム,0
2359,9330001033214,新規,0,2025-05-19,2025-05-19,株式会社Ｓｙｍｐｈｏｎｙ,,株式会社,熊本県,熊本市東区,御領１丁目１番１８７号,,43,102,8618035,,,,,,,2025-05-19,1,,,,,シンフォニー,0
2362,9330003011011,新規,0,2025-05-19,2025-05-19,合同会社Ｓｃｏｐｒｉｔｏｒｅ,,合同会社,熊本県,熊本市東区,沼山津２丁目８－５５－５０２,,43,102,8612102,,,,,,,2025-05-19,1,,,,,スコプリトーレ,0
2366,9340003004856,新規,0,2025-05-19,2025-05-19,Ｙ．Ｍ．Ｄ．合同会社,,合同会社,鹿児島県,鹿屋市,東原町３４３１番地１２２,,46,203,8930021,,,,,,,2025-05-19,1,,,,,ワイエムディー,0
2376,9370001052581,新規,0,2025-05-19,2025-05-19,株式会社ワイズクラン,,株式会社,宮城県,仙台市泉区,八乙女４丁目１５番地の４ライオンズガーデン八乙女３０５,,04,105,9813112,,,,,,,2025-05-19,1,,,,,ワイズクラン,0
2377,9370001052598,新規,0,2025-05-19,2025-05-19,浩豊テック貿易株式会社,,株式会社,宮城県,仙台市青葉区,中央２丁目２番３０号日興ビル４Ｆ,,04,101,9800021,,,,,,,2025-05-19,1,,,,,コウホウテックボウエキ,0
2395,9430001094411,新規,0,2025-05-19,2025-05-19,株式会社セナコーポレーション,,株式会社,北海道,札幌市手稲区,西宮の沢一条４丁目１２番１８号,,01,109,0060001,,,,,,,2025-05-19,1,,,,,セナコーポレーション,0
2403,9500001026299,新規,0,2025-05-19,2025-05-19,三和総建株式会社,,株式会社,愛媛県,伊予郡砥部町,川登５２４番地,,38,402,7912143,,,,,,,2025-05-19,1,,,,,サンワソウケン,0
2405,9500003003511,新規,0,2025-05-19,2025-05-19,ＬｅｇａｃｙＣｈａｎｇｅ富動産合同会社,,合同会社,愛媛県,四国中央市,妻鳥町１２０６番地１,,38,213,7990113,,,,,,,2025-05-19,1,,,,,レガシーチェンジフドウサン,0
2406,9700150040122,新規,0,2025-05-19,2015-10-09,霞城セントラル管理組合,,その他,山形県,山形市,城南町１丁目１－１,,06,201,9900827,,,,,,,2015-10-09,1,,,,,カジヨウセントラルカンリクミアイ,0
2408,9700150130534,新規,0,2025-05-19,2025-05-19,ａｎｊｉｒｕｉｈａｎｇｚｈｉｎｅｎｇｋｅｊｉｙｏｕｘｉａｎｇｏｎｇｓｉ,,外国会社等,,,,,,,,Ｒｏｏｍ　５０２　Ｆｌｏｏｒ　５，Ｂｕｉｌｄｉｎｇ　１，Ｊｉａｎｘｕａｎｌｏｎｇｊｉａｊｕ　Ｙｏｕｘｉａｎｇｏｎｇｓｉ，Ｋａｎｇｓｈａｎ　Ｖｉｌｌａｇｅ，Ｄｉｐｕ　Ｓｔｒｅｅｔ，Ａｎｊｉ　Ｃｏｕｎｔｙ，Ｈｕｚｈｏｕ　Ｃｉｔｙ，Ｚｈｅｊｉａｎｇ　Ｐｒｏｖｉｎｃｅ,,,,,,2025-05-19,1,,,,,アンジルイハンチノウカギユウゲンコウシ,0
