sequenceNumber,corporateNumber,process,correct,updateDate,changeDate,name,nameImageId,kind,prefectureName,cityName,streetNumber,addressImageId,prefectureCode,cityCode,postCode,addressOutside,addressOutsideImageId,closeDate,closeCause,successorCorporateNumber,changeCause,assignmentDate,latest,enName,enPrefectureName,enCityName,enAddressOutside,furigana,hihyoji
8,1010001252200,新規,0,2025-02-20,2025-02-20,ＫｉｋｕＰｒｏ株式会社,,株式会社,東京都,千代田区,六番町５番地３,,13,101,1020085,,,,,,,2025-02-20,1,,,,,キクプロ,0
9,1010001252340,新規,0,2025-02-20,2025-02-20,株式会社ユカリナ,,株式会社,東京都,千代田区,平河町２丁目１２番１３－３２号室,,13,101,1020093,,,,,,,2025-02-20,1,,,,,ユカリナ,0
10,1010001252381,新規,0,2025-02-20,2025-02-20,株式会社ＡＳＴＡ,,株式会社,東京都,文京区,千石３丁目１４番９号サンドリアル千石４０１,,13,105,1120011,,,,,,,2025-02-20,1,,,,,アスタ,0
11,1010001252398,新規,0,2025-02-20,2025-02-20,ファミリア・キャピタル・ホールディングス株式会社,,株式会社,東京都,千代田区,丸の内１丁目６番１号,,13,101,1000005,,,,,,,2025-02-20,1,,,,,ファミリアキャピタルホールディングス,0
12,1010001252407,新規,0,2025-02-20,2025-02-20,Ｓｏｌｕｎｏ・Ｔｏｋｉｏ・Ｒｅａｌｔｙ株式会社,,株式会社,東京都,千代田区,飯田橋２丁目９番４号サンパーク千代田４０２号,,13,101,1020072,,,,,,,2025-02-20,1,,,,,ソルノトキオリアルティ,0
13,1010001252448,新規,0,2025-02-20,2025-02-20,３‐ｗｉｎ株式会社,,株式会社,東京都,千代田区,神田和泉町１－６－１６ヤマトビル４０５,,13,101,1010024,,,,,,,2025-02-20,1,,,,,スリーウィン,0
14,1010001252456,新規,0,2025-02-20,2025-02-20,株式会社ＵＰＣＥＴ,,株式会社,東京都,千代田区,神田神保町１丁目１－１７東京堂神田神保町第３ビルディング３階,,13,101,1010051,,,,,,,2025-02-20,1,,,,,アップセット,0
15,1010001252464,新規,0,2025-02-20,2025-02-20,株式会社風運,,株式会社,東京都,千代田区,神田錦町３丁目２１番１００７,,13,101,1010054,,,,,,,2025-02-20,1,,,,,フウウン,0
16,1010001252472,新規,0,2025-02-20,2025-02-20,ニチゲツ総研株式会社,,株式会社,東京都,千代田区,大手町１丁目７番２号２７階,,13,101,1000004,,,,,,,2025-02-20,1,,,,,ニチゲツソウケン,0
17,1010001252480,新規,0,2025-02-20,2025-02-20,株式会社龍浦,,株式会社,東京都,文京区,湯島３丁目３５番３号川部ビル３階,,13,105,1130034,,,,,,,2025-02-20,1,,,,,リュウホ,0
18,1010001252489,新規,0,2025-02-20,2025-02-20,ＭＵＦＧモルガン・スタンレー・クレジットソリューションズ株式会社,,株式会社,東京都,千代田区,大手町１丁目９番２号,,13,101,1000004,,,,,,,2025-02-20,1,,,,,エムユーエフジーモルガンスタンレークレジットソリューションズ,0
19,1010001252522,新規,0,2025-02-20,2025-02-20,株式会社ＧｉｔＳＢＴ,,株式会社,東京都,中央区,銀座１丁目２２番１１号銀座大竹ビジデンス２Ｆ,,13,102,1040061,,,,,,,2025-02-20,1,,,,,ギットエスビーティー,0
21,1010003046237,新規,0,2025-02-20,2025-02-20,ティタニアリサーチ合同会社,,合同会社,東京都,文京区,本郷６丁目２６－１０本郷ニューハウジング２０２,,13,105,1130033,,,,,,,2025-02-20,1,,,,,ティタニアリサーチ,0
22,1010003046435,新規,0,2025-02-20,2025-02-20,Ｓｔｏｒｍ　Ｔｈｅｒａｐｅｕｔｉｃｓ合同会社,,合同会社,東京都,文京区,本郷７丁目３番１号東京大学南研究棟アントレプレナーラボ２６１,,13,105,1130033,,,,,,,2025-02-20,1,,,,,ストームセラピューティクス,0
23,1010003046468,新規,0,2025-02-20,2025-02-20,集客士合同会社,,合同会社,東京都,中央区,日本橋兜町１７－１,,13,102,1030026,,,,,,,2025-02-20,1,,,,,シュウキャクシ,0
24,1010003046476,新規,0,2025-02-20,2025-02-20,ＪＰＳＰＰＡ第３号合同会社,,合同会社,東京都,千代田区,霞が関３丁目２番１号,,13,101,1000013,,,,,,,2025-02-20,1,,,,,ジェイピーエスピーピーエーダイサンゴウ,0
25,1010003046492,新規,0,2025-02-20,2025-02-20,Ｃａｒｂｏｎ　Ｂｉｏｓｃｉｅｎｃｅｓ合同会社,,合同会社,東京都,文京区,向丘２丁目３番１０号東大前ＨｉＲＡＫＵＧＡＴＥ,,13,105,1130023,,,,,,,2025-02-20,1,,,,,カーボンバイオサイエンシズ,0
26,1010003046501,新規,0,2025-02-20,2025-02-20,横浜レジデンス合同会社,,合同会社,東京都,中央区,京橋２丁目７番１９号,,13,102,1040031,,,,,,,2025-02-20,1,,,,,ヨコハマレジデンス,0
27,1010005039610,新規,0,2025-02-20,2025-02-20,一般社団法人ＳＨ仙台キャピタル,,その他の設立登記法人,東京都,千代田区,丸の内１丁目４番１号東京共同会計事務所内,,13,101,1000005,,,,,,,2025-02-20,1,,,,,エスエイチセンダイキャピタル,0
31,1010401188300,新規,0,2025-02-20,2025-02-20,株式会社里の香り,,株式会社,東京都,港区,赤坂６丁目６番５号オオヤプラッツＣ棟１０２,,13,103,1070052,,,,,,,2025-02-20,1,,,,,サトノカオリ,0
32,1010401188333,新規,0,2025-02-20,2025-02-20,株式会社ＨＡＫＵＨＯＤＯ　ＢＲＩＤＧＥ,,株式会社,東京都,港区,赤坂５丁目２番２０号,,13,103,1070052,,,,,,,2025-02-20,1,,,,,ハクホウドウブリッジ,0
33,1010401188341,新規,0,2025-02-20,2025-02-20,株式会社ｓｈｕ,,株式会社,東京都,港区,南青山３丁目１番３６号青山丸竹ビル６Ｆ,,13,103,1070062,,,,,,,2025-02-20,1,,,,,シュ,0
38,1010403034428,新規,0,2025-02-20,2025-02-20,合同会社エヌパワー,,合同会社,東京都,港区,麻布十番４丁目４－１ツイン一の橋２号館５号,,13,103,1060045,,,,,,,2025-02-20,1,,,,,エヌパワー,0
39,1010403034444,新規,0,2025-02-20,2025-02-20,合同会社Ｍａｈａｌｏ,,合同会社,東京都,港区,新橋３丁目３番１４号田村町ビル７階,,13,103,1050004,,,,,,,2025-02-20,1,,,,,マハロ,0
41,1010501053668,新規,0,2025-02-20,2025-02-20,株式会社Ｇ‐Ｆｏｒｃｅ,,株式会社,東京都,台東区,東上野２丁目５番１５号,,13,106,1100015,,,,,,,2025-02-20,1,,,,,ジーフォース,0
42,1010603011391,新規,0,2025-02-20,2025-02-20,合同会社ＹＫＣ,,合同会社,東京都,墨田区,錦糸３丁目９番４－１００４号錦糸パーク・ヤマト,,13,107,1300013,,,,,,,2025-02-20,1,,,,,ワイケーシー,0
43,1010701047288,新規,0,2025-02-20,2025-02-20,ＧＲＥＥＮＷＩＣＨ　Ｉｎｔｅｒｎａｔｉｏｎａｌ株式会社,,株式会社,東京都,品川区,西五反田２丁目２２番６号アトラスタワー五反田１９０６,,13,109,1410031,,,,,,,2025-02-20,1,,,,,グリニッジインターナショナル,0
45,1010703007579,新規,0,2025-02-20,2025-02-20,合同会社フェーブ,,合同会社,東京都,品川区,西品川１丁目２８番１６号,,13,109,1410033,,,,,,,2025-02-20,1,,,,,フェーブ,0
46,1010803005292,新規,0,2025-02-20,2025-02-20,ピークラボ合同会社,,合同会社,東京都,大田区,久が原３丁目３４番７号,,13,111,1460085,,,,,,,2025-02-20,1,,,,,ピークラボ,0
49,1010901056840,新規,0,2025-02-20,2025-02-20,ＡｓａＢｅｅコンサルティング株式会社,,株式会社,東京都,世田谷区,等々力７丁目２０番６号,,13,112,1580082,,,,,,,2025-02-20,1,,,,,アズアビーコンサルティング,0
50,1010901056857,新規,0,2025-02-20,2025-02-20,株式会社Ｔｏｒｔｉｅ,,株式会社,東京都,世田谷区,成城１丁目６―１９―９０６,,13,112,1570066,,,,,,,2025-02-20,1,,,,,トーティー,0
59,1011001167768,新規,0,2025-02-20,2025-02-20,株式会社ＭＩＣＨＩ,,株式会社,東京都,渋谷区,道玄坂１丁目１０番８号渋谷道玄坂東急ビル２Ｆ－Ｃ,,13,113,1500043,,,,,,,2025-02-20,1,,,,,ミチ,0
61,1011003020999,新規,0,2025-02-20,2025-02-20,Ｇｒａｎｄ　Ｈｏｍｅ合同会社,,合同会社,東京都,渋谷区,松濤２丁目４番８号,,13,113,1500046,,,,,,,2025-02-20,1,,,,,グランドホーム,0
62,1011005010874,新規,0,2025-02-20,2025-02-20,一般社団法人社会安全政策研究室,,その他の設立登記法人,東京都,渋谷区,代官山町１７番１号,,13,113,1500034,,,,,,,2025-02-20,1,,,,,シャカイアンゼンセイサクケンキュウシツ,0
64,1011101110693,新規,0,2025-02-20,2025-02-20,ＣＨＡＲＴ株式会社,,株式会社,東京都,新宿区,西落合２丁目１０番１２号,,13,104,1610031,,,,,,,2025-02-20,1,,,,,チャート,0
65,1011101110710,新規,0,2025-02-20,2025-02-20,株式会社ＡＩＢＯＲＮ,,株式会社,東京都,新宿区,矢来町１１４番地高橋ビル２階,,13,104,1620805,,,,,,,2025-02-20,1,,,,,アイボン,0
66,1011101110719,新規,0,2025-02-20,2025-02-20,株式会社ＩＤＯＵ,,株式会社,東京都,新宿区,西新宿３丁目３番１３号西新宿水間ビル２Ｆ,,13,104,1600023,,,,,,,2025-02-20,1,,,,,イドウ,0
68,1011403004627,新規,0,2025-02-20,2025-02-20,ＮＴＮ合同会社,,合同会社,東京都,板橋区,蓮沼町２番８号ドミール本蓮沼２０２号室,,13,119,1740052,,,,,,,2025-02-20,1,,,,,,0
70,1011801045636,新規,0,2025-02-20,2025-02-20,株式会社新木エクスプレス,,株式会社,東京都,足立区,六月１丁目２６－８－２０３号,,13,121,1210814,,,,,,,2025-02-20,1,,,,,アラキエクスプレス,0
71,1011801045660,新規,0,2025-02-20,2025-02-20,株式会社八方堂,,株式会社,東京都,足立区,竹の塚４丁目１０番１０号,,13,121,1210813,,,,,,,2025-02-20,1,,,,,ハッポウドウ,0
73,1012401042767,新規,0,2025-02-20,2025-02-20,株式会社ＬＵＸ,,株式会社,東京都,調布市,上石原２丁目２８‐５西調布メゾネットＫ‐Ｂ号室,,13,208,1820035,,,,,,,2025-02-20,1,,,,,ラックス,0
74,1012401042800,新規,0,2025-02-20,2025-02-20,ａｍｅ　ｐｉｐｐｉｎ株式会社,,株式会社,東京都,武蔵野市,吉祥寺本町２丁目８番４号ｉ－ｏｆｆｉｃｅ吉祥寺,,13,203,1800004,,,,,,,2025-02-20,1,,,,,アメピピン,0
75,1012403006984,新規,0,2025-02-20,2025-02-20,合同会社Ｕ．Ｓ．Ｐｌａｎｎｉｎｇ,,合同会社,東京都,狛江市,岩戸南１丁目９－９、２Ｆ,,13,219,2010005,,,,,,,2025-02-20,1,,,,,ユウエスプランニング,0
77,1012801023771,新規,0,2025-02-20,2025-02-20,株式会社はらみや,,株式会社,東京都,日野市,大坂上２丁目１１番地の１,,13,212,1910061,,,,,,,2025-02-20,1,,,,,ハラミヤ,0
85,1020001161508,新規,0,2025-02-20,2025-02-20,株式会社ウックル,,株式会社,神奈川県,横浜市青葉区,あざみ野４丁目９番地１４,,14,117,2250011,,,,,,,2025-02-20,1,,,,,ウックル,0
86,1020001161524,新規,0,2025-02-20,2025-02-20,ＢＭＴ株式会社,,株式会社,神奈川県,横浜市都筑区,大熊町５４５番地１,,14,118,2240042,,,,,,,2025-02-20,1,,,,,ビーエムティー,0
101,1030001164906,新規,0,2025-02-20,2025-02-20,株式会社ロータス,,株式会社,埼玉県,春日部市,米島８２０番地９６,,11,214,3440115,,,,,,,2025-02-20,1,,,,,ロータス,0
102,1030001164922,新規,0,2025-02-20,2025-02-20,株式会社ＬＵＢＩＮＡ,,株式会社,埼玉県,新座市,石神５丁目４番２７号,,11,230,3520033,,,,,,,2025-02-20,1,,,,,ルビナ,0
103,1030001164947,新規,0,2025-02-20,2025-02-20,ミオナコーポレーション株式会社,,株式会社,埼玉県,川口市,元郷４丁目１４番２３号,,11,203,3320011,,,,,,,2025-02-20,1,,,,,ミオナコーポレーション,0
104,1030001164963,新規,0,2025-02-20,2025-02-20,株式会社ｈａｐｐｉｎｅｓｓ,,株式会社,埼玉県,川口市,北園町３４番１０－５０１号セントヒルズ東浦和,,11,203,3330862,,,,,,,2025-02-20,1,,,,,ハピネス,0
105,1030001164988,新規,0,2025-02-20,2025-02-20,山崎農園株式会社,,株式会社,埼玉県,熊谷市,上新田新田裏２４２番地２,,11,202,3600117,,,,,,,2025-02-20,1,,,,,,0
106,1030003026138,新規,0,2025-02-20,2025-02-20,合同会社ＩＭＳプロジェクト,,合同会社,埼玉県,春日部市,本田町２丁目９８番地,,11,214,3440016,,,,,,,2025-02-20,1,,,,,アイエムエスプロジェクト,0
116,1040001137489,新規,0,2025-02-20,2025-02-20,ＣｒｅａＭｉｔｓｕ　Ｔｅｃｈ株式会社,,株式会社,千葉県,流山市,南流山３丁目１０－８ダイヤモンドクレスト南流山,,12,220,2700163,,,,,,,2025-02-20,1,,,,,クレアミツテック,0
121,1040003026863,新規,0,2025-02-20,2025-02-20,合同会社ＳＴＥ　ＥＮＴＥＲＰＲＩＳＥＳ,,合同会社,千葉県,八街市,八街ろ５８番地１９６,,12,230,2891144,,,,,,,2025-02-20,1,,,,,エスティーイーエンタプライゼス,0
122,1040003026938,新規,0,2025-02-20,2025-02-20,ＴＫＫＭ合同会社,,合同会社,千葉県,船橋市,田喜野井１丁目２７－２０,,12,204,2740073,,,,,,,2025-02-20,1,,,,,ティーケーケーエム,0
123,1040005022670,新規,0,2025-02-20,2025-02-20,ＴＯＭＡＴＥ　ｐｌｕｓ企業組合,,その他の設立登記法人,千葉県,長生郡一宮町,一宮５８３４番地１,,12,421,2994301,,,,,,,2025-02-20,1,,,,,トマテプラス,0
124,1050001056192,新規,0,2025-02-20,2025-02-20,株式会社Ｄ＆Ｋホテルリゾート,,株式会社,茨城県,石岡市,国府１丁目６番３３号,,08,205,3150014,,,,,,,2025-02-20,1,,,,,ディーアンドケイホテルリゾート,0
125,1050003009025,新規,0,2025-02-20,2025-02-20,合同会社大励,,合同会社,茨城県,筑西市,布川１２１８番地１５,,08,227,3080846,,,,,,,2025-02-20,1,,,,,ダイレイ,0
139,1120001273045,新規,0,2025-02-20,2025-02-20,第一軌道株式会社,,株式会社,大阪府,大阪市西淀川区,竹島３丁目２番１号,,27,113,5550011,,,,,,,2025-02-20,1,,,,,ダイイチキドウ,0
140,1120001273086,新規,0,2025-02-20,2025-02-20,Ｓｐａｃｅ　ａｎｄ　Ｔｉｍｅ株式会社,,株式会社,大阪府,大阪市都島区,友渕町２丁目１５番１０号,,27,102,5340016,,,,,,,2025-02-20,1,,,,,スペースアンドタイム,0
141,1120001273144,新規,0,2025-02-20,2025-02-20,辛楽文化株式会社,,株式会社,大阪府,大阪市東住吉区,田辺６丁目１２番３号,,27,121,5460031,,,,,,,2025-02-20,1,,,,,シンラクブンカ,0
142,1120003028686,新規,0,2025-02-20,2025-02-20,盛鴻合同会社,,合同会社,大阪府,大阪市東成区,神路２丁目４番３号,,27,115,5370003,,,,,,,2025-02-20,1,,,,,セイコウ,0
144,1120005024799,新規,0,2025-02-20,2025-02-20,一般社団法人ｂａｌａｎｃｅｓｈｉｆｔ,,その他の設立登記法人,大阪府,大阪市北区,梅田１丁目２番２号大阪駅前第２ビル１２－１２,,27,127,5300001,,,,,,,2025-02-20,1,,,,,バランスシフト,0
147,1120101071092,新規,0,2025-02-20,2025-02-20,泉谷興産株式会社,,株式会社,大阪府,堺市堺区,昭和通３丁４３番地３,,27,141,5900825,,,,,,,2025-02-20,1,,,,,イズタニコウサン,0
148,1120101071101,新規,0,2025-02-20,2025-02-20,株式会社ユースフル,,株式会社,大阪府,堺市北区,新金岡町５－８－３４０,,27,146,5910000,,,,,,,2025-02-20,1,,,,,ユースフル,0
149,1120103006286,新規,0,2025-02-20,2025-02-20,Ｈａｍｅｅｄ　Ｔｒａｄｉｎｇ合同会社,,合同会社,大阪府,和泉市,大野町２３２番地の３,,27,219,5941134,,,,,,,2025-02-20,1,,,,,ハメードトレーディング,0
151,1120903005561,新規,0,2025-02-20,2025-02-20,合同会社パークサイドマミー,,合同会社,大阪府,高槻市,弥生が丘町４１番１９号,,27,207,5691021,,,,,,,2025-02-20,1,,,,,パークサイドマミー,0
152,1122001038915,新規,0,2025-02-20,2025-02-20,株式会社ＴＳＵＮＡＧＵ,,株式会社,大阪府,東大阪市,長田東４丁目２番１４号,,27,227,5770012,,,,,,,2025-02-20,1,,,,,ツナグ,0
156,1130001079020,新規,0,2025-02-20,2025-02-20,株式会社リプロ,,株式会社,京都府,京都市伏見区,紙子屋町５３５－２０１,,26,109,6128318,,,,,,,2025-02-20,1,,,,,リプロ,0
164,1140001137355,新規,0,2025-02-20,2025-02-20,株式会社エイトｐｌｕｓ,,株式会社,兵庫県,姫路市,田寺東３丁目１２番１０号２階,,28,201,6700081,,,,,,,2025-02-20,1,,,,,エイトプラス,0
165,1140001137446,新規,0,2025-02-20,2025-02-20,株式会社ＣＡＬＭＥ,,株式会社,兵庫県,神戸市須磨区,戎町１丁目３番１０号ユーワコート須磨１Ｆ,,28,107,6540023,,,,,,,2025-02-20,1,,,,,カルム,0
166,1140001137479,新規,0,2025-02-20,2025-02-20,株式会社ｐＡＩｒ　Ｍｉｎｄ,,株式会社,兵庫県,神戸市中央区,浪花町５６ＫＩＰ内,,28,110,6500035,,,,,,,2025-02-20,1,,,,,ペアマインド,0
170,1140003021607,新規,0,2025-02-20,2025-02-20,ＹＡＭアグリサポート合同会社,,合同会社,兵庫県,姫路市,飾東町八重畑８３８,,28,201,6710208,,,,,,,2025-02-20,1,,,,,ワイエーエムアグリサポート,0
184,1180001165518,新規,0,2025-02-20,2025-02-20,株式会社ｒｅｌｉｇｈｔ,,株式会社,愛知県,名古屋市中村区,黄金通２丁目３５番地の１グランシャリオ８０２号,,23,105,4530804,,,,,,,2025-02-20,1,,,,,リライト,0
185,1180001165542,新規,0,2025-02-20,2025-02-20,株式会社ブライトアンドライト,,株式会社,愛知県,名古屋市中村区,名駅１丁目１－１ＪＰタワー名古屋２１階,,23,105,4500002,,,,,,,2025-02-20,1,,,,,ブライトアンドライト,0
186,1180001165550,新規,0,2025-02-20,2025-02-20,株式会社ＴｌｉｎＱ,,株式会社,愛知県,名古屋市西区,児玉１丁目１６番１９号,,23,104,4510066,,,,,,,2025-02-20,1,,,,,トリンク,0
187,1180001165559,新規,0,2025-02-20,2025-02-20,株式会社マイホーム,,株式会社,愛知県,名古屋市港区,東茶屋１丁目６６５,,23,111,4550851,,,,,,,2025-02-20,1,,,,,マイホーム,0
189,1180003028020,新規,0,2025-02-20,2025-02-20,プレイタウンｋｙｏｗａ合同会社,,合同会社,愛知県,大府市,共栄町８丁目３番地の１０プレイタウン共和１０２号,,23,223,4740074,,,,,,,2025-02-20,1,,,,,プレイタウンキョウワ,0
190,1180003028029,新規,0,2025-02-20,2025-02-20,アストラル・パス合同会社,,合同会社,愛知県,名古屋市名東区,引山２丁目７１１番地の１,,23,115,4650002,,,,,,,2025-02-20,1,,,,,アストラルパス,0
198,1240005015902,新規,0,2025-02-20,2025-02-20,特定非営利活動法人マギーズ広島,,その他の設立登記法人,広島県,広島市中区,大手町２丁目５番１１－２０４号,,34,101,7300051,,,,,,,2025-02-20,1,,,,,マギーズヒロシマ,0
200,1260001039928,新規,0,2025-02-20,2025-02-20,株式会社ｃｌａｙｗｏｒｋｓ,,株式会社,岡山県,備前市,伊部８１９番地１,,33,211,7050001,,,,,,,2025-02-20,1,,,,,クレイワークス,0
203,1270005005628,新規,0,2025-02-20,2025-02-20,一般社団法人ライフコンシェルジュ,,その他の設立登記法人,鳥取県,鳥取市,吉成南町１丁目１２番１８号,,31,201,6800871,,,,,,,2025-02-20,1,,,,,ライフコンシェルジュ,0
206,1290001109042,新規,0,2025-02-20,2025-02-20,株式会社青の島Ａｏｎｏｓｈｉｍａ,,株式会社,福岡県,福岡市中央区,大手門１丁目８番２０号１階,,40,133,8100074,,,,,,,2025-02-20,1,,,,,アオノシマアオノシマ,0
207,1290001109050,新規,0,2025-02-20,2025-02-20,井村アンドパートナーズ・ステイ株式会社,,株式会社,福岡県,福岡市中央区,天神３丁目１１番２２号Ｗビルディング天神２Ｆ,,40,133,8100001,,,,,,,2025-02-20,1,,,,,イムラアンドパートナーズステイ,0
212,1310001019453,新規,0,2025-02-20,2025-02-20,株式会社長崎サンロード,,株式会社,長崎県,大村市,富の原２丁目９８３番地,,42,205,8560806,,,,,,,2025-02-20,1,,,,,ナガサキサンロード,0
213,1310001019461,新規,0,2025-02-20,2025-02-20,株式会社なんばら,,株式会社,長崎県,諫早市,栗面町５３５番地１,,42,204,8540055,,,,,,,2025-02-20,1,,,,,ナンバラ,0
220,1330003010846,新規,0,2025-02-20,2025-02-20,合同会社ＭＨＤパワーバンク４号,,合同会社,熊本県,阿蘇市,永草１９４３番地２８,,43,214,8692231,,,,,,,2025-02-20,1,,,,,エムエイチディーパワーバンクヨンゴウ,0
222,1340001027131,新規,0,2025-02-20,2025-02-20,ＰＦＩ姶良市スクールランチ株式会社,,株式会社,鹿児島県,姶良市,加治木町反土１６番地３５,,46,225,8995231,,,,,,,2025-02-20,1,,,,,ピーエフアイアイラシスクールランチ,0
226,1350003004846,新規,0,2025-02-20,2025-02-20,合同会社Ｔｅｎｔ,,合同会社,宮崎県,宮崎市,下北方町戸林５２５９番地２１,,45,201,8800035,,,,,,,2025-02-20,1,,,,,テント,0
230,1360003014704,新規,0,2025-02-20,2025-02-20,ＫＹＡＲＡ合同会社,,合同会社,沖縄県,那覇市,西１丁目１２番７－３０２号三栄マンション,,47,201,9000036,,,,,,,2025-02-20,1,,,,,キヤラ,0
231,1360005007177,新規,0,2025-02-20,2025-02-20,一般社団法人しんぐるまざあず・ふぉーらむ沖縄,,その他の設立登記法人,沖縄県,那覇市,字上間５４３番地２１,,47,201,9020073,,,,,,,2025-02-20,1,,,,,シングルマザアズフォーラムオキナワ,0
233,1380001035106,新規,0,2025-02-20,2025-02-20,株式会社ＮｅｘｔＷｅｌｌｎｅｓｓ,,株式会社,福島県,いわき市,内郷御台境町新町前１４番地の４,,07,204,9738409,,,,,,,2025-02-20,1,,,,,ネクストウェルネス,0
234,1380003005965,新規,0,2025-02-20,2025-02-20,合同会社ＡＲＣＨＩＮＥＳＴ,,合同会社,福島県,岩瀬郡天栄村,大字飯豊字春日山１６番地１８,,07,344,9620512,,,,,,,2025-02-20,1,,,,,アーキネスト,0
242,1430005015156,新規,0,2025-02-20,2025-02-20,特定非営利活動法人ゆうほ,,その他の設立登記法人,北海道,勇払郡むかわ町,穂別８５番地,,01,586,0540211,,,,,,,2025-02-20,1,,,,,ユウホ,0
247,1700150129261,新規,0,2025-02-20,2025-02-20,ＩＳＵＭＩ　ＴＲＡＤＩＮＧ　ＰＶＴ　ＬＴＤ,,外国会社等,千葉県,山武市,白幡２７３６番地１オフィス３,,12,237,2891306,スリランカ民主社会主義共和国、キャンディ、ペラデニヤロード、Ｎｏ．３２４,,,,,,2025-02-20,1,,,,,イスミトレーデイングプライベートリミテツド,0
254,2010001252109,新規,0,2025-02-20,2025-02-20,株式会社センター,,株式会社,東京都,中央区,日本橋室町１丁目１１番１２号日本橋水野ビル７階,,13,102,1030022,,,,,,,2025-02-20,1,,,,,センター,0
255,2010001252133,新規,0,2025-02-20,2025-02-20,株式会社ＬＡＬＬ　ＥＳＴＡＴＥ,,株式会社,東京都,中央区,日本橋大伝馬町２番５－８０７号,,13,102,1030011,,,,,,,2025-02-20,1,,,,,エルエーエルエルエステート,0
256,2010001252389,新規,0,2025-02-20,2025-02-20,ブランドワールド株式会社,,株式会社,東京都,中央区,銀座８丁目１０番８号,,13,102,1040061,,,,,,,2025-02-20,1,,,,,ブランドワールド,0
257,2010001252406,新規,0,2025-02-20,2025-02-20,株式会社常磐開発,,株式会社,東京都,中央区,新川１丁目２２番１７号,,13,102,1040033,,,,,,,2025-02-20,1,,,,,トキワカイハツ,0
258,2010001252439,新規,0,2025-02-20,2025-02-20,株式会社ＫＤ　Ｍｏｕｎｔａｉｎ,,株式会社,東京都,中央区,銀座１丁目１２－４Ｎ＆ＥＢＬＤ．７階,,13,102,1040061,,,,,,,2025-02-20,1,,,,,ケイディーマウンテン,0
259,2010001252455,新規,0,2025-02-20,2025-02-20,株式会社ルミリオン,,株式会社,東京都,千代田区,東神田３丁目２番４号東神田サマリヤマンション８０９号,,13,101,1010031,,,,,,,2025-02-20,1,,,,,ルミリオン,0
260,2010001252463,新規,0,2025-02-20,2025-02-20,株式会社インフィニート,,株式会社,東京都,中央区,京橋１丁目１４番４号,,13,102,1040031,,,,,,,2025-02-20,1,,,,,インフィニート,0
261,2010001252471,新規,0,2025-02-20,2025-02-20,Ｗ＆Ｌ株式会社,,株式会社,東京都,中央区,東日本橋１丁目９番１０号２階,,13,102,1030004,,,,,,,2025-02-20,1,,,,,ダブリューアンドエル,0
262,2010001252505,新規,0,2025-02-20,2025-02-20,株式会社金愛,,株式会社,東京都,文京区,音羽１丁目２３番１３号ユーレジデンス音羽４０１,,13,105,1120013,,,,,,,2025-02-20,1,,,,,カネアイ,0
264,2010003046450,新規,0,2025-02-20,2025-02-20,合同会社ＣＫ　ＷＯＲＫＳ,,合同会社,東京都,千代田区,紀尾井町３番１２号紀尾井町ビル１８階,,13,101,1020094,,,,,,,2025-02-20,1,,,,,シーケーワークス,0
265,2010003046475,新規,0,2025-02-20,2025-02-20,ＪＰＳ第３９号合同会社,,合同会社,東京都,千代田区,霞が関３丁目２番１号,,13,101,1000013,,,,,,,2025-02-20,1,,,,,ジェイピーエスダイサンジュウキュウゴウ,0
266,2010003046491,新規,0,2025-02-20,2025-02-20,合同会社ＭａＪｉＭｏ,,合同会社,東京都,中央区,銀座１丁目１２番４号Ｎ＆ＥＢＬＤ．７階,,13,102,1040061,,,,,,,2025-02-20,1,,,,,マジモ,0
269,2010005039592,新規,0,2025-02-20,2025-02-20,一般社団法人スマートレジリエンスネットワーク,,その他の設立登記法人,東京都,千代田区,内幸町１丁目１番３号,,13,101,1000011,,,,,,,2025-02-20,1,,,,,スマートレジリエンスネットワーク,0
278,2010401188340,新規,0,2025-02-20,2025-02-20,株式会社ＭＡＲＵＧＯＴＯ,,株式会社,東京都,港区,南青山３丁目１番３６号青山丸竹ビル６Ｆ,,13,103,1070062,,,,,,,2025-02-20,1,,,,,マルゴト,0
279,2010401188357,新規,0,2025-02-20,2025-02-20,株式会社グットウォター,,株式会社,東京都,港区,北青山２丁目９－１５三輪ビル２０１室,,13,103,1070061,,,,,,,2025-02-20,1,,,,,グットウォター,0
283,2010403034419,新規,0,2025-02-20,2025-02-20,合同会社９２２,,合同会社,東京都,港区,南青山３丁目１番３６号青山丸竹ビル６Ｆ,,13,103,1070062,,,,,,,2025-02-20,1,,,,,クニニ,0
291,2010603011390,新規,0,2025-02-20,2025-02-20,ｓａｔｉｓｆａｃｔｉｏｎ合同会社,,合同会社,東京都,墨田区,菊川３丁目１０番１１アーバンステージ菊川２０１号室,,13,107,1300024,,,,,,,2025-02-20,1,,,,,サティスファクション,0
292,2010603011399,新規,0,2025-02-20,2025-02-20,合同会社光,,合同会社,東京都,墨田区,江東橋３丁目５番２号サーストンビル８階８０２号室,,13,107,1300022,,,,,,,2025-02-20,1,,,,,ヒカリ,0
293,2010701047270,新規,0,2025-02-20,2025-02-20,株式会社ｅｎｔｏｋ,,株式会社,東京都,品川区,上大崎３丁目２番１号,,13,109,1410021,,,,,,,2025-02-20,1,,,,,エントック,0
294,2010703007578,新規,0,2025-02-20,2025-02-20,エンライフ合同会社,,合同会社,東京都,品川区,西五反田５丁目１番１－４０２号,,13,109,1410031,,,,,,,2025-02-20,1,,,,,エンライフ,0
296,2010803005291,新規,0,2025-02-20,2025-02-20,合同会社ｍｉｋｉ,,合同会社,東京都,大田区,下丸子２丁目３番１号,,13,111,1460092,,,,,,,2025-02-20,1,,,,,ミキ,0
298,2010901056848,新規,0,2025-02-20,2025-02-20,株式会社ＣＬＥＩＲ,,株式会社,東京都,世田谷区,三軒茶屋１丁目４０番１０号,,13,112,1540024,,,,,,,2025-02-20,1,,,,,クレイア,0
305,2011001167791,新規,0,2025-02-20,2025-02-20,ｔｏｉｓｈｉ株式会社,,株式会社,東京都,渋谷区,円山町５番５号Ｎａｖｉ渋谷Ｖ３階,00138078,13,113,1500044,,,,,,,2025-02-20,1,,,,,トイシ,0
309,2011101110692,新規,0,2025-02-20,2025-02-20,ポラリス・ナショナルセキュリティ株式会社,,株式会社,東京都,新宿区,愛住町３番地３,,13,104,1600005,,,,,,,2025-02-20,1,,,,,ポラリスナショナルセキュリティ,0
310,2011101110718,新規,0,2025-02-20,2025-02-20,株式会社オールファム,,株式会社,東京都,新宿区,西新宿７丁目３―１０・２１山京ビル２０１,,13,104,1600023,,,,,,,2025-02-20,1,,,,,オールファム,0
311,2011101110734,新規,0,2025-02-20,2025-02-20,ＴＫＧ株式会社,,株式会社,東京都,新宿区,西新宿３丁目３番１３号西新宿水間ビル２Ｆ,,13,104,1600023,,,,,,,2025-02-20,1,,,,,ティーケージー,0
312,2011103015551,新規,0,2025-02-20,2025-02-20,合同会社ａｚｕｃｌｏ,,合同会社,東京都,新宿区,矢来町１６２,,13,104,1620805,,,,,,,2025-02-20,1,,,,,アズクロ,0
314,2011401026837,新規,0,2025-02-20,2025-02-20,東美学院株式会社,,株式会社,東京都,板橋区,中丸町１６－１６ドミール北池袋７０１号,,13,119,1730026,,,,,,,2025-02-20,1,,,,,ヒガシミガクイン,0
324,2012403006983,新規,0,2025-02-20,2025-02-20,合同会社マネージ,,合同会社,東京都,三鷹市,野崎１丁目１４番４－２０５号,,13,204,1810014,,,,,,,2025-02-20,1,,,,,マネージ,0
332,2020001161424,新規,0,2025-02-20,2025-02-20,株式会社ＧｏｏｄＭｏｒｒｏｗ,,株式会社,神奈川県,川崎市中原区,下沼部１９１５エスペランスＲ４０１号室,,14,133,2110011,,,,,,,2025-02-20,1,,,,,グッドモロー,0
333,2020001161523,新規,0,2025-02-20,2025-02-20,Ｊ＆Ｍプロパティ株式会社,,株式会社,神奈川県,横浜市青葉区,青葉台１丁目５番地４青葉台サンクスビル３階４３号室,,14,117,2270062,,,,,,,2025-02-20,1,,,,,ジェイアンドエムプロパティ,0
342,2021005013280,新規,0,2025-02-20,2025-02-20,一般社団法人カフネ,,その他の設立登記法人,神奈川県,足柄下郡湯河原町,宮上３６５番地,,14,384,2590314,,,,,,,2025-02-20,1,,,,,カフネ,0
352,2030001164905,新規,0,2025-02-20,2025-02-20,綜合設備サービス株式会社,,株式会社,埼玉県,白岡市,太田新井７８５番地６,,11,246,3490225,,,,,,,2025-02-20,1,,,,,ソウゴウセツビサービス,0
353,2030001164921,新規,0,2025-02-20,2025-02-20,ＹＵＫＩＲＩ株式会社,,株式会社,埼玉県,戸田市,笹目南町３６番１－１０３号ファストフラミング,,11,224,3350035,,,,,,,2025-02-20,1,,,,,ユキリ,0
354,2030001164946,新規,0,2025-02-20,2025-02-20,拓程エグジビジョン株式会社,,株式会社,埼玉県,草加市,柳島町５１３番地７,,11,221,3400033,,,,,,,2025-02-20,1,,,,,トウチェンエグジビジョン,0
355,2030001164970,新規,0,2025-02-20,2025-02-20,株式会社東昇,,株式会社,埼玉県,さいたま市岩槻区,大字長宮９３６番地２,,11,110,3390011,,,,,,,2025-02-20,1,,,,,トウショウ,0
360,2030003026161,新規,0,2025-02-20,2025-02-20,合同会社Ｂｅｌｌｅ　ｖｉｅ,,合同会社,埼玉県,草加市,稲荷５丁目２３番３２号リーブルファイン草加稲荷ＩＩＩ４号棟１０３号,00138070,11,221,3400003,,,,,,,2025-02-20,1,,,,,ベルヴィ,0
363,2040001137298,新規,0,2025-02-20,2025-02-20,英順株式会社,,株式会社,千葉県,松戸市,緑ケ丘２丁目３３５番地３０６号,,12,207,2710074,,,,,,,2025-02-20,1,,,,,ヒデノブ,0
364,2040001137406,新規,0,2025-02-20,2025-02-20,株式会社ＭＢＹ,,株式会社,千葉県,大網白里市,季美の森南３丁目１４番地１３,,12,239,2993241,,,,,,,2025-02-20,1,,,,,エムビーワイ,0
365,2040001137488,新規,0,2025-02-20,2025-02-20,株式会社Ｍａｔｃｈａ　Ｋｉｋａｋｕ,,株式会社,千葉県,千葉市中央区,中央２丁目２番１６号エクセレントザタワー６０３号,,12,101,2600013,,,,,,,2025-02-20,1,,,,,マッチャキカク,0
366,2040003026879,新規,0,2025-02-20,2025-02-20,合同会社ＭｉｎｄｓＣｏＪａｐａｎ,,合同会社,千葉県,千葉市稲毛区,稲毛町５丁目２７０番地６,,12,103,2630035,,,,,,,2025-02-20,1,,,,,マインズコジャパン,0
367,2040003026904,新規,0,2025-02-20,2025-02-20,ＡＬＩ　ＴＲＡＤＩＮＧ合同会社,,合同会社,千葉県,八千代市,村上１１１３番地１、２街区２８棟４０３号,,12,221,2760028,,,,,,,2025-02-20,1,,,,,アリトレーディング,0
372,2060001037934,新規,0,2025-02-20,2025-02-20,テクノ不動産株式会社,,株式会社,栃木県,宇都宮市,宿郷１丁目１３番１号ＥＡＳＴ・ＣＥＮＴＥＲ・ＢＵＩＬＤ４Ｆ,,09,201,3210945,,,,,,,2025-02-20,1,,,,,テクノフドウサン,0
384,2080401027748,新規,0,2025-02-20,2025-02-20,株式会社サハラホールディングス,,株式会社,静岡県,湖西市,白須賀３８５８番地,,22,221,4310451,,,,,,,2025-02-20,1,,,,,サハラホールディングス,0
400,2120001272987,新規,0,2025-02-20,2025-02-20,株式会社ＡＵＲＵＭ,,株式会社,大阪府,大阪市生野区,巽東１丁目１番３２号荻田第三ビル４Ｆ,,27,116,5440014,,,,,,,2025-02-20,1,,,,,オーラム,0
401,2120001272995,新規,0,2025-02-20,2025-02-20,株式会社オリーブ・ビジネスサポート,,株式会社,大阪府,大阪市西区,西本町１丁目７番７号,,27,106,5500005,,,,,,,2025-02-20,1,,,,,オリーブビジネスサポート,0
402,2120001273102,新規,0,2025-02-20,2025-02-20,玉澤株式会社,,株式会社,大阪府,大阪市西淀川区,野里２丁目１４番１３－１０５号,,27,113,5550024,,,,,,,2025-02-20,1,,,,,タマザワ,0
406,2120003028685,新規,0,2025-02-20,2025-02-20,ｄｉｉｐ合同会社,,合同会社,大阪府,大阪市中央区,内平野町１丁目２－９グランドメゾン大手前６０４号室,,27,128,5400037,,,,,,,2025-02-20,1,,,,,ディープ,0
410,2120101071100,新規,0,2025-02-20,2025-02-20,ＤｅｅｐＤｉｐ株式会社,,株式会社,大阪府,堺市東区,西野５４７番地８－１号,,27,143,5998125,,,,,,,2025-02-20,1,,,,,ディープディップ,0
414,2120901050344,新規,0,2025-02-20,2025-02-20,株式会社ＴＫＳ,,株式会社,大阪府,摂津市,昭和園５－５－３１０号,,27,224,5660031,,,,,,,2025-02-20,1,,,,,ティケーエス,0
415,2120901050443,新規,0,2025-02-20,2025-02-20,株式会社大雅興産,,株式会社,大阪府,茨木市,駅前１丁目４番１４号,,27,211,5670888,,,,,,,2025-02-20,1,,,,,タイガコウサン,0
416,2120901050476,新規,0,2025-02-20,2025-02-20,株式会社ハヤシ,,株式会社,大阪府,摂津市,鳥飼上２丁目１番５２－３０９号,,27,224,5660062,,,,,,,2025-02-20,1,,,,,ハヤシ,0
419,2122001038914,新規,0,2025-02-20,2025-02-20,株式会社リゼロ,,株式会社,大阪府,東大阪市,長堂１丁目２番３号布施駅前ナワショウビル４階,,27,227,5770056,,,,,,,2025-02-20,1,,,,,リゼロ,0
420,2122003003123,新規,0,2025-02-20,2025-02-20,オーウェルネス合同会社,,合同会社,大阪府,柏原市,大県３丁目６番２３号,,27,221,5820018,,,,,,,2025-02-20,1,,,,,オーウェルネス,0
424,2130001079036,新規,0,2025-02-20,2025-02-20,ＪＥＣＫ株式会社,,株式会社,京都府,京都市西京区,川島北裏町３１山口ハイツ２０３号室,,26,111,6158107,,,,,,,2025-02-20,1,,,,,ジェイイーシーケー,0
431,2140003021688,新規,0,2025-02-20,2025-02-20,合同会社ＧＯＬＤＥＮ　ＤＡＷＮ,,合同会社,兵庫県,神戸市中央区,中山手通１丁目７－２１ホワイトキャッスル３Ｆ,,28,110,6500004,,,,,,,2025-02-20,1,,,,,ゴールデンドーン,0
432,2140005027378,新規,0,2025-02-20,2025-02-20,医療法人Ｂｅｌｌｅ＆Ｌｕｌｕ,,その他の設立登記法人,兵庫県,神戸市西区,井吹台東町４丁目２０番地の９,,28,111,6512242,,,,,,,2025-02-20,1,,,,,ベレアンドルル,0
446,2180001165525,新規,0,2025-02-20,2025-02-20,株式会社ＡＭＯＵＲ,,株式会社,愛知県,名古屋市昭和区,山脇町４丁目２２番８号,,23,107,4660063,,,,,,,2025-02-20,1,,,,,アムール,0
447,2180001165533,新規,0,2025-02-20,2025-02-20,ＭＴＴ株式会社,,株式会社,愛知県,知多市,にしの台４丁目２４番地の３０,,23,224,4780055,,,,,,,2025-02-20,1,,,,,エムティーティー,0
449,2180003027938,新規,0,2025-02-20,2025-02-20,合同会社摩耶,,合同会社,愛知県,あま市,七宝町秋竹三角５５０,,23,237,4970003,,,,,,,2025-02-20,1,,,,,マヤ,0
450,2180003028003,新規,0,2025-02-20,2025-02-20,合同会社ＫＯＮＪＡＣ,,合同会社,愛知県,名古屋市中区,錦２丁目５－５八木兵伝馬町ビル３Ｆ,,23,106,4600003,,,,,,,2025-02-20,1,,,,,コンジャック,0
451,2180003028011,新規,0,2025-02-20,2025-02-20,合同会社ときわ,,合同会社,愛知県,名古屋市守山区,大字中志段味字南原２６８５番地３５５,,23,113,4630002,,,,,,,2025-02-20,1,,,,,トキワ,0
452,2180003028028,新規,0,2025-02-20,2025-02-20,十海商事合同会社,,合同会社,愛知県,名古屋市千種区,池上町２丁目１番地の６,,23,101,4640029,,,,,,,2025-02-20,1,,,,,トカイショウジ,0
464,2200001043455,新規,0,2025-02-20,2025-02-20,Ｕｎｃｏｎｖｅｎｔｉｏｎａｌ株式会社,,株式会社,岐阜県,本巣市,上保７０１番地１,,21,218,5010401,,,,,,,2025-02-20,1,,,,,アンコンベンショナル,0
469,2220001026499,新規,0,2025-02-20,2025-02-20,株式会社エース,,株式会社,石川県,金沢市,諸江町下丁２４１番地１,,17,201,9200017,,,,,,,2025-02-20,1,,,,,エース,0
475,2240001064555,新規,0,2025-02-20,2025-02-20,ｍｉｎａｍａ株式会社,,株式会社,広島県,広島市西区,観音町６番１９－４０４号,,34,104,7330031,,,,,,,2025-02-20,1,,,,,ミナマ,0
476,2250001021010,新規,0,2025-02-20,2025-02-20,ＢＣＧホールディングス株式会社,,株式会社,山口県,山口市,中市町４番２７号,,35,203,7530086,,,,,,,2025-02-20,1,,,,,ビーシージーホールディングス,0
479,2260001039910,新規,0,2025-02-20,2025-02-20,Ｐｒｏｆｉｔ　Ｃｏｎｓｕｌｔｉｎｇ株式会社,,株式会社,岡山県,倉敷市,玉島３００６番地,,33,202,7138102,,,,,,,2025-02-20,1,,,,,プロフィットコンサルティング,0
480,2260001039927,新規,0,2025-02-20,2025-02-20,株式会社Ｓ’ｃｏｎｎｅｃｔｉｏｎ’Ｓ,,株式会社,岡山県,倉敷市,福田町福田２６６２番地２,,33,202,7128041,,,,,,,2025-02-20,1,,,,,エスズコネクションズ,0
495,2310001019460,新規,0,2025-02-20,2025-02-20,株式会社樹工業,,株式会社,長崎県,佐世保市,ひうみ町３０４番３１３,,42,202,8571167,,,,,,,2025-02-20,1,,,,,イツキコウギョウ,0
504,2330003010845,新規,0,2025-02-20,2025-02-20,合同会社ＭＨＤパワーバンク３号,,合同会社,熊本県,阿蘇市,永草１９４３番地２８,,43,214,8692231,,,,,,,2025-02-20,1,,,,,エムエイチディーパワーバンクサンゴウ,0
508,2340005009810,新規,0,2025-02-20,2025-02-20,報恩寺,,その他の設立登記法人,鹿児島県,薩摩川内市,高城町４１６８番地１６,,46,215,8950211,,,,,,,2025-02-20,1,,,,,ホウオンジ,0
511,2360005007176,新規,0,2025-02-20,2025-02-20,一般財団法人仲門門中会,,その他の設立登記法人,沖縄県,那覇市,宇栄原１丁目１０番１８号,,47,201,9010153,,,,,,,2025-02-20,1,,,,,ナカジョウモンチュウカイ,0
512,2370001052258,新規,0,2025-02-20,2025-02-20,Ａｒｔ　Ｉｎｆｉｎｉ株式会社,,株式会社,宮城県,仙台市青葉区,上杉５丁目８番１１－２号,,04,101,9800011,,,,,,,2025-02-20,1,,,,,アールアンフィニ,0
517,2380003005964,新規,0,2025-02-20,2025-02-20,合同会社真孝会ふくしまめだかやさん,,合同会社,福島県,福島市,大森字久保内４１番地の１５,,07,201,9601101,,,,,,,2025-02-20,1,,,,,シンコウカイフクシマメダカヤサン,0
519,2400001016944,新規,0,2025-02-20,2025-02-20,株式会社マリーコンタクト,,株式会社,岩手県,盛岡市,夕顔瀬町２０番２７号,,03,201,0200032,,,,,,,2025-02-20,1,,,,,マリーコンタクト,0
525,2450001014539,新規,0,2025-02-20,2025-02-20,株式会社ＨＥＡＲＴＳ,,株式会社,北海道,深川市,音江町字広里３４４番地３,,01,228,0741271,,,,,,,2025-02-20,1,,,,,ハーツ,0
535,2700150129260,新規,0,2025-02-20,2025-02-20,ＲＯＹＡＬ　ＡＵＴＯ　ＣＡＲＳ　ＰＶＴ　ＬＴＤ,,外国会社等,千葉県,山武市,白幡２７３６番地１オフィス２,,12,237,2891306,スリランカ民主社会主義共和国、キャンディ、カトゥガストタロード、Ｎｏ．２２０,,,,,,2025-02-20,1,,,,,ロイヤルオートカーズプライベートリミテツド,0
536,3010001031032,新規,0,2025-02-20,2025-02-20,山添不動産株式会社,,株式会社,東京都,千代田区,大手町２丁目６番２号,,13,101,1000004,,,,,,,2025-02-20,1,,,,,ヤマゾエフドウサン,0
538,3010001252173,新規,0,2025-02-20,2025-02-20,陽之子株式会社,,株式会社,東京都,文京区,音羽１丁目２３番１２号,,13,105,1120013,,,,,,,2025-02-20,1,,,,,ヨウノコ,0
539,3010001252215,新規,0,2025-02-20,2025-02-20,株式会社アイラ,,株式会社,東京都,中央区,日本橋本町４丁目３番地１０号,,13,102,1030023,,,,,,,2025-02-20,1,,,,,アイラ,0
540,3010001252272,新規,0,2025-02-20,2025-02-20,瑞華株式会社,,株式会社,東京都,文京区,小日向４丁目８番４号ヴィラ小日向１０１号室,,13,105,1120006,,,,,,,2025-02-20,1,,,,,ズイカ,0
541,3010001252330,新規,0,2025-02-20,2025-02-20,株式会社ＯＶ２,,株式会社,東京都,千代田区,神田和泉町１番地６‐１６ヤマトビル４０５,,13,101,1010024,,,,,,,2025-02-20,1,,,,,オーブイツー,0
542,3010001252396,新規,0,2025-02-20,2025-02-20,Ｐ＆Ｅ　ｃｏｍｍｕｎｉｃａｔｉｏｎｓ株式会社,,株式会社,東京都,文京区,本駒込６丁目５番１９号,,13,105,1130021,,,,,,,2025-02-20,1,,,,,ピーアンドイーコミュニケーション,0
543,3010001252405,新規,0,2025-02-20,2025-02-20,株式会社ＲＥＶＯＰＥＴ,,株式会社,東京都,中央区,八重洲１丁目３番１８号,,13,102,1030028,,,,,,,2025-02-20,1,,,,,レボペット,0
544,3010001252487,新規,0,2025-02-20,2025-02-20,ＪＳＦＰマネジメント株式会社,,株式会社,東京都,千代田区,大手町２丁目２番２号,,13,101,1000004,,,,,,,2025-02-20,1,,,,,ジェイエスエフピーマネジメント,0
545,3010003046474,新規,0,2025-02-20,2025-02-20,合同会社ＳＩＫＩ,,合同会社,東京都,千代田区,平河町１丁目５番１５号,,13,101,1020093,,,,,,,2025-02-20,1,,,,,シキ,0
546,3010003046499,新規,0,2025-02-20,2025-02-20,合同会社ひろ,,合同会社,東京都,文京区,本駒込２丁目１０－９,,13,105,1130021,,,,,,,2025-02-20,1,,,,,ヒロ,0
547,3010005039609,新規,0,2025-02-20,2025-02-20,一般社団法人ＨＰＩＩ,,その他の設立登記法人,東京都,千代田区,丸の内１丁目４番１号東京共同会計事務所内,,13,101,1000005,,,,,,,2025-02-20,1,,,,,エイチピーツー,0
548,3010005039617,新規,0,2025-02-20,2025-02-20,浅草一般社団法人,,その他の設立登記法人,東京都,千代田区,神田小川町３丁目２６番８号神田小川町三丁目ビル６階,,13,101,1010052,,,,,,,2025-02-20,1,,,,,アサクサ,0
556,3010401188249,新規,0,2025-02-20,2025-02-20,ＳＩＥ　ＪＡＰＡＮ　ＴＥＣＨＮＯＬＯＧＹ株式会社,,株式会社,東京都,港区,港南２丁目１６番１号品川イーストワンタワー４Ｆ,,13,103,1080075,,,,,,,2025-02-20,1,,,,,エスアイイージャパンンテクノロジー,0
557,3010401188323,新規,0,2025-02-20,2025-02-20,株式会社Ｂ’Ｌｕｅ,,株式会社,東京都,港区,六本木６丁目１６番１１－６０７号,,13,103,1060032,,,,,,,2025-02-20,1,,,,,ブルー,0
558,3010401188331,新規,0,2025-02-20,2025-02-20,株式会社ＩＮＦＩＮＩＴＹ　ＰＩＸＥＬＳ,,株式会社,東京都,港区,北青山１丁目３番１号アールキューブ青山３階,,13,103,1070061,,,,,,,2025-02-20,1,,,,,インフィニティピクセルズ,0
559,3010401188348,新規,0,2025-02-20,2025-02-20,株式会社Ｍｅｒｃｉ　ａ　ａｉｍｅｒ,,株式会社,東京都,港区,南青山３丁目１２番１２号南青山３１２ビル６０４,,13,103,1070062,,,,,,,2025-02-20,1,,,,,メルシアエメ,0
562,3010501053609,新規,0,2025-02-20,2025-02-20,Ｍｉｒａｉ　Ｓｐｏｒｔ　Ｔｅｃｈ株式会社,,株式会社,東京都,台東区,浅草橋１丁目２５－７,,13,106,1110053,,,,,,,2025-02-20,1,,,,,ミライスポルトテック,0
563,3010501053674,新規,0,2025-02-20,2025-02-20,株式会社Ｓａｋｕｒａ　Ｗｈｉｓｐｅｒ,,株式会社,東京都,台東区,松が谷３丁目１番１３号ＭＥＴＳ八番館４階,,13,106,1110036,,,,,,,2025-02-20,1,,,,,サクラウィスパー,0
564,3010503007736,新規,0,2025-02-20,2025-02-20,合同会社ＺＵＬＵ,,合同会社,東京都,台東区,上野４丁目７－８アメ横センタービル３階,,13,106,1100005,,,,,,,2025-02-20,1,,,,,ズールー,0
569,3010803005290,新規,0,2025-02-20,2025-02-20,寺澤合同会社,,合同会社,東京都,大田区,西蒲田４丁目１４番６号,,13,111,1440051,,,,,,,2025-02-20,1,,,,,テラサワ,0
571,3010901056822,新規,0,2025-02-20,2025-02-20,株式会社ＭＧＳ,,株式会社,東京都,世田谷区,弦巻５丁目１５番３号,,13,112,1540016,,,,,,,2025-02-20,1,,,,,エムジーエス,0
572,3010901056847,新規,0,2025-02-20,2025-02-20,株式会社Ｇｒｅａｔ　Ｂｅｎｅｆｉｔｓ,,株式会社,東京都,世田谷区,千歳台１丁目２９番１－１２７号,,13,112,1570071,,,,,,,2025-02-20,1,,,,,グレイトベネフィッツ,0
578,3011001167799,新規,0,2025-02-20,2025-02-20,株式会社宝八布,,株式会社,東京都,渋谷区,恵比寿４丁目２０番３恵比寿ガーデンプレイスタワー１８階,,13,113,1500013,,,,,,,2025-02-20,1,,,,,ボバーブ,0
582,3011003020997,新規,0,2025-02-20,2025-02-20,ＡｌｇｏＸ合同会社,,合同会社,東京都,渋谷区,渋谷２丁目１９－１５宮益坂ビルディング,,13,113,1500002,,,,,,,2025-02-20,1,,,,,アルゴエックス,0
587,3011101110650,新規,0,2025-02-20,2025-02-20,Ｗａｖｅ株式会社,,株式会社,東京都,新宿区,西新宿３丁目３番１３号西新宿水間ビル２Ｆ,,13,104,1600023,,,,,,,2025-02-20,1,,,,,ウェーブ,0
593,3011201026136,新規,0,2025-02-20,2025-02-20,株式会社ＣＬＯＵＤ　Ｍ,,株式会社,東京都,中野区,東中野１丁目１７－１５ワッセナーＴ．Ｍ１０１,,13,114,1640003,,,,,,,2025-02-20,1,,,,,クラウドエム,0
594,3011501031728,新規,0,2025-02-20,2025-02-20,株式会社Ｘｙ,,株式会社,東京都,北区,神谷１丁目３２－１６アルトピアーノ２０３号室,,13,117,1150043,,,,,,,2025-02-20,1,,,,,エクシー,0
597,3012301014261,新規,0,2025-02-20,2025-02-20,シーアクシス株式会社,,株式会社,東京都,町田市,中町２丁目２１番１号鶴屋ビル３Ｆ－Ａ,,13,209,1940021,,,,,,,2025-02-20,1,,,,,シーアクシス,0
598,3012401042798,新規,0,2025-02-20,2025-02-20,Ｈａｗｋｉｎｇｓ株式会社,,株式会社,東京都,調布市,若葉町１丁目４－６８,,13,208,1820003,,,,,,,2025-02-20,1,,,,,ホーキンス,0
600,3012403006982,新規,0,2025-02-20,2025-02-20,合同会社Ｙｕｎｏｖａ,,合同会社,東京都,武蔵野市,吉祥寺本町２丁目２５番４号タートルヒル１０２,,13,203,1800004,,,,,,,2025-02-20,1,,,,,ユノバ,0
604,3012801023761,新規,0,2025-02-20,2025-02-20,株式会社ＵＮＩＯＮ,,株式会社,東京都,立川市,錦町１丁目１３番１２号立川サニーコート９１１号,,13,202,1900022,,,,,,,2025-02-20,1,,,,,ユニオン,0
610,3020001161472,新規,0,2025-02-20,2025-02-20,株式会社Ｅｍｂａｒｃ,,株式会社,神奈川県,横浜市西区,北幸２丁目１０番４８号むつみビル３階,,14,103,2200004,,,,,,,2025-02-20,1,,,,,エンバーク,0
621,3030001164912,新規,0,2025-02-20,2025-02-20,株式会社ＧＴＭ,,株式会社,埼玉県,さいたま市大宮区,仲町３丁目５８番地Ｔ＆Ｔ３０５号,,11,103,3300845,,,,,,,2025-02-20,1,,,,,ジーティーエム,0
622,3030001164978,新規,0,2025-02-20,2025-02-20,株式会社Ａｓｔａｒｉｓｋ,,株式会社,埼玉県,志木市,中宗岡５丁目１０番２０号メゾンフォーシーズンＢ１０１号,,11,228,3530002,,,,,,,2025-02-20,1,,,,,アスタリスク,0
623,3030001164986,新規,0,2025-02-20,2025-02-20,株式会社ＮＯＰＰＯ　ＭＵＳＩＣ,,株式会社,埼玉県,さいたま市大宮区,大門町２丁目２２番地１ＴＡｉＧＡビル４階Ｃ号室,,11,103,3300846,,,,,,,2025-02-20,1,,,,,ノッポミュージック,0
629,3030003026152,新規,0,2025-02-20,2025-02-20,合同会社ｉｅｔｐ,,合同会社,埼玉県,北足立郡伊奈町,西小針１丁目７９番地６９,,11,301,3620811,,,,,,,2025-02-20,1,,,,,アイイーティーピー,0
631,3040001137487,新規,0,2025-02-20,2025-02-20,株式会社インテクノ,,株式会社,千葉県,松戸市,新作４１２番地の７,,12,207,2710052,,,,,,,2025-02-20,1,,,,,インテクノ,0
635,3040005022669,新規,0,2025-02-20,2025-02-20,一般社団法人Ｓｔｕｄｙ　Ｂａｓｅ,,その他の設立登記法人,千葉県,茂原市,内長谷４１６番地１,,12,210,2970062,,,,,,,2025-02-20,1,,,,,,0
636,3050001056190,新規,0,2025-02-20,2025-02-20,株式会社ＭＵホールディングス,,株式会社,茨城県,水戸市,笠原町９７９番地の９９,,08,201,3100852,,,,,,,2025-02-20,1,,,,,エムユーホールディングス,0
637,3050001056199,新規,0,2025-02-20,2025-02-20,株式会社ＴＥＣＥＮＲＩＣＨ,,株式会社,茨城県,ひたちなか市,大字堀口２４２番地の７,,08,221,3120034,,,,,,,2025-02-20,1,,,,,テックエンリッチ,0
640,3060003005434,新規,0,2025-02-20,2025-02-20,ハッサンカーン合同会社,,合同会社,栃木県,小山市,大字南飯田２９５番地５３,,09,208,3290213,,,,,,,2025-02-20,1,,,,,ハッサンカーン,0
650,3120001273134,新規,0,2025-02-20,2025-02-20,モコモコ株式会社,,株式会社,大阪府,大阪市東淀川区,大桐３丁目１０番１９号,,27,114,5330011,,,,,,,2025-02-20,1,,,,,モコモコ,0
652,3120003028684,新規,0,2025-02-20,2025-02-20,ムーン合同会社,,合同会社,大阪府,大阪市住之江区,安立３丁目７番１９号,,27,125,5590003,,,,,,,2025-02-20,1,,,,,ムーン,0
662,3120901050467,新規,0,2025-02-20,2025-02-20,株式会社ＤＯＣ,,株式会社,大阪府,茨木市,新中条町３番１１‐４１０号,,27,211,5670872,,,,,,,2025-02-20,1,,,,,ディーオーシー,0
663,3120901050475,新規,0,2025-02-20,2025-02-20,株式会社真香園,,株式会社,大阪府,豊中市,永楽荘２丁目１８番９号,,27,203,5600051,,,,,,,2025-02-20,1,,,,,シンカエン,0
664,3120901050483,新規,0,2025-02-20,2025-02-20,株式会社ｋｎｉｃｋ　ｋｎａｃｋ,,株式会社,大阪府,豊中市,服部南町３丁目４番６号伊関ビル１０１号,,27,203,5610853,,,,,,,2025-02-20,1,,,,,ニックナック,0
665,3122001038913,新規,0,2025-02-20,2025-02-20,株式会社ＣＡＲＤＥＬＬ,,株式会社,大阪府,四條畷市,大字下田原２５７４番地の３,,27,229,5750012,,,,,,,2025-02-20,1,,,,,カーデル,0
667,3130003010220,新規,0,2025-02-20,2025-02-20,ＲＩＳＩＮＧ　ＳＵＮ合同会社,,合同会社,京都府,京都市左京区,岩倉三笠町１６５番地,,26,103,6060008,,,,,,,2025-02-20,1,,,,,ライジングサン,0
669,3130005017296,新規,0,2025-02-20,2025-02-20,一般社団法人いちじくの木,,その他の設立登記法人,京都府,京都市伏見区,深草川久保町１１番地５２,,26,109,6128402,,,,,,,2025-02-20,1,,,,,イチジクノキ,0
675,3140001137444,新規,0,2025-02-20,2025-02-20,株式会社立花重設,,株式会社,兵庫県,神戸市中央区,中山手通７丁目６番６号,,28,110,6500004,,,,,,,2025-02-20,1,,,,,タチバナジュウセツ,0
676,3140001137452,新規,0,2025-02-20,2025-02-20,株式会社播磨メンテナンス,,株式会社,兵庫県,姫路市,飾西１０番地２,,28,201,6712216,,,,,,,2025-02-20,1,,,,,ハリマメンテナンス,0
691,3180001165490,新規,0,2025-02-20,2025-02-20,株式会社ＷＯＲＫＳ,,株式会社,愛知県,犬山市,字山ノ鼻１２番地９,,23,215,4840826,,,,,,,2025-02-20,1,,,,,ワークス,0
692,3180001165508,新規,0,2025-02-20,2025-02-20,株式会社ＤＯＴＵ,,株式会社,愛知県,一宮市,開明字西出１５番地７,,23,203,4940001,,,,,,,2025-02-20,1,,,,,ドーツ,0
700,3200001043454,新規,0,2025-02-20,2025-02-20,株式会社パシフィックメタル,,株式会社,岐阜県,下呂市,萩原町奥田洞字島尻１９７番１,,21,220,5092519,,,,,,,2025-02-20,1,,,,,パシフィックメタル,0
704,3210001020064,新規,0,2025-02-20,2025-02-20,株式会社和た里,,株式会社,福井県,勝山市,平泉寺町大渡２１字屋敷田１６番地１,,18,206,9110828,,,,,,,2025-02-20,1,,,,,ワタリ,0
706,3220001026498,新規,0,2025-02-20,2025-02-20,能登アクアファーム株式会社,,株式会社,石川県,鳳珠郡能登町,字小木３４字１１番地,,17,463,9270553,,,,,,,2025-02-20,1,,,,,ノトアクアファーム,0
714,3270001009151,新規,0,2025-02-20,2025-02-20,株式会社ＣＨＩＬＤ　ＲＥＳＰＥＣＴ,,株式会社,鳥取県,米子市,淀江町佐陀１４８番地２,,31,202,6893425,,,,,,,2025-02-20,1,,,,,チャイルドリスペクト,0
718,3290001109032,新規,0,2025-02-20,2025-02-20,福岡春日お家お庭メンテナンス株式会社,,株式会社,福岡県,福岡市南区,曰佐３丁目３５番１号,,40,134,8111313,,,,,,,2025-02-20,1,,,,,フクオカカスガオイエオニワメンテナンス,0
719,3290001109049,新規,0,2025-02-20,2025-02-20,福升金属株式会社,,株式会社,福岡県,嘉麻市,鴨生１番地９,,40,227,8200206,,,,,,,2025-02-20,1,,,,,フクショウキンゾク,0
720,3290001109057,新規,0,2025-02-20,2025-02-20,株式会社オノノイノコ．,,株式会社,福岡県,春日市,春日原東町２丁目１番１０号マーメゾン春日原１Ｆ,,40,218,8160801,,,,,,,2025-02-20,1,,,,,オノノイノコドット,0
721,3290001109065,新規,0,2025-02-20,2025-02-20,株式会社リポスト,,株式会社,福岡県,福岡市博多区,博多駅前１丁目２３番２号ＰａｒｋＦｒｏｎｔ博多駅前１丁目５Ｆ－Ｂ,,40,132,8120011,,,,,,,2025-02-20,1,,,,,リポスト,0
726,3290005019657,新規,0,2025-02-20,2025-02-20,一般社団法人学びと経営,,その他の設立登記法人,福岡県,福岡市中央区,六本松４丁目１番１６号,,40,133,8100044,,,,,,,2025-02-20,1,,,,,マナビトケイエイ,0
730,3330003010844,新規,0,2025-02-20,2025-02-20,合同会社ＭＨＤパワーバンク２号,,合同会社,熊本県,阿蘇市,永草１９４３番地２８,,43,214,8692231,,,,,,,2025-02-20,1,,,,,エムエイチディーパワーバンクニゴウ,0
735,3360001034792,新規,0,2025-02-20,2025-02-20,ＣＨＥＥＲＳ株式会社,,株式会社,沖縄県,宜野湾市,大山３丁目５番１号,,47,205,9012223,,,,,,,2025-02-20,1,,,,,チアース,0
737,3370001052257,新規,0,2025-02-20,2025-02-20,株式会社梶晴,,株式会社,宮城県,遠田郡涌谷町,字一本柳７２番地１,,04,501,9870136,,,,,,,2025-02-20,1,,,,,カジハル,0
742,3400001016927,新規,0,2025-02-20,2025-02-20,ＧＥＴＯ　Ｖｉｌｌａｇｅ株式会社,,株式会社,岩手県,北上市,和賀町岩崎３地割７１番地,,03,206,0240321,,,,,,,2025-02-20,1,,,,,ゲトウビレッジ,0
743,3400001016943,新規,0,2025-02-20,2025-02-20,株式会社プロバイド・エム,,株式会社,岩手県,久慈市,侍浜町桑畑第３地割５番地１７２,,03,207,0287801,,,,,,,2025-02-20,1,,,,,プロバイドエム,0
753,3430001093732,新規,0,2025-02-20,2025-02-20,株式会社札西住設,,株式会社,北海道,札幌市西区,西野四条８丁目３番１２号,,01,107,0630034,,,,,,,2025-02-20,1,,,,,サツニシジュウセツ,0
755,3460003001038,新規,0,2025-02-20,2025-02-20,合同会社スピカ,,合同会社,北海道,釧路市,川上町２丁目２番地の４リバーサイド川上１００２号室,,01,206,0850012,,,,,,,2025-02-20,1,,,,,スピカ,0
756,3460101007671,新規,0,2025-02-20,2025-02-20,株式会社ｍｉｎｏｒｉ,,株式会社,北海道,上川郡清水町,南一条１２丁目１番１,,01,636,0890137,,,,,,,2025-02-20,1,,,,,ミノリ,0
757,3490001010970,新規,0,2025-02-20,2025-02-20,株式会社ミツオー,,株式会社,高知県,高知市,介良２８６番地,,39,201,7815104,,,,,,,2025-02-20,1,,,,,ミツオー,0
764,4010001252214,新規,0,2025-02-20,2025-02-20,株式会社カワルカ,,株式会社,東京都,中央区,銀座１丁目２２番１１号銀座大竹ビジデンス２Ｆ,,13,102,1040061,,,,,,,2025-02-20,1,,,,,カワルカ,0
765,4010001252305,新規,0,2025-02-20,2025-02-20,株式会社財務ドクター,,株式会社,東京都,千代田区,飯田橋１丁目８番９号ニューシティハイツ飯田橋７０７,,13,101,1020072,,,,,,,2025-02-20,1,,,,,ザイムドクター,0
766,4010001252321,新規,0,2025-02-20,2025-02-20,双日船舶株式会社,,株式会社,東京都,千代田区,内幸町２丁目１番１号,,13,101,1000011,,,,,,,2025-02-20,1,,,,,ソウジツセンパク,0
767,4010001252395,新規,0,2025-02-20,2025-02-20,株式会社ＹＵＫＩＯＴＯ,,株式会社,東京都,千代田区,岩本町１丁目２番１１号渡東ビルディングアネックス,,13,101,1010032,,,,,,,2025-02-20,1,,,,,ユキオト,0
768,4010001252404,新規,0,2025-02-20,2025-02-20,株式会社Ｗｉｓｔｅｒｉａ,,株式会社,東京都,文京区,弥生２丁目４番１０－６０３号,,13,105,1130032,,,,,,,2025-02-20,1,,,,,ウィスティリア,0
769,4010001252412,新規,0,2025-02-20,2025-02-20,株式会社トリプルツリー,,株式会社,東京都,千代田区,神田錦町３丁目７番地２,,13,101,1010054,,,,,,,2025-02-20,1,,,,,トリプルツリー,0
770,4010001252437,新規,0,2025-02-20,2025-02-20,株式会社ルミナス．ｅｔ,,株式会社,東京都,文京区,本郷４丁目１－７第二近江屋ビル４Ｆ,,13,105,1130033,,,,,,,2025-02-20,1,,,,,ルミナスドットイーティー,0
771,4010001252461,新規,0,2025-02-20,2025-02-20,株式会社ｙａｔｅ,,株式会社,東京都,中央区,勝どき４丁目６番１号,,13,102,1040054,,,,,,,2025-02-20,1,,,,,ヤテ,0
772,4010001252486,新規,0,2025-02-20,2025-02-20,ＳＭＢＣサイバーフロント株式会社,,株式会社,東京都,千代田区,神田錦町２丁目２番地１,,13,101,1010054,,,,,,,2025-02-20,1,,,,,エスエムビーシーサイバーフロント,0
773,4010001252511,新規,0,2025-02-20,2025-02-20,株式会社ＩＵＫクレーン,,株式会社,東京都,中央区,明石町８番１号,,13,102,1040044,,,,,,,2025-02-20,1,,,,,アイユウケイクレーン,0
774,4010005039599,新規,0,2025-02-20,2025-02-20,クレジット・ギャランティ１２号一般社団法人,,その他の設立登記法人,東京都,千代田区,内神田１丁目３番７号４０１あすな会計事務所内,,13,101,1010047,,,,,,,2025-02-20,1,,,,,クレジットギャランティジュウニゴウ,0
775,4010005039616,新規,0,2025-02-20,2025-02-20,一般社団法人予防医科学推進協会,,その他の設立登記法人,東京都,中央区,銀座１丁目１２番４号Ｎ＆Ｅ‐ＢＬＤ．７階,,13,102,1040061,,,,,,,2025-02-20,1,,,,,ヨボウイカガクスイシンキョウカイ,0
776,4010105002325,新規,0,2025-02-20,2025-02-20,日本アッセンブリーズ・オブ・ゴッド教団リバイバルセンターチャーチ,,その他の設立登記法人,東京都,八王子市,越野１番地７,,13,201,1920361,,,,,,,2025-02-20,1,,,,,ニホンアッセンブリーズオブゴッドキョウダンリバイバルセンターチャーチ,0
779,4010401188223,新規,0,2025-02-20,2025-02-20,株式会社ＳｋｉｌｌＣａｎｖａｓ,,株式会社,東京都,港区,港南２丁目１５番１号品川インターシティＡ棟２２階ＳＰＲＯＵＮＤ内,,13,103,1080075,,,,,,,2025-02-20,1,,,,,スキルキャンバス,0
780,4010401188330,新規,0,2025-02-20,2025-02-20,株式会社Ｂｉｚｒｅｌｉｅｆ,,株式会社,東京都,港区,赤坂２丁目１６－６,,13,103,1070052,,,,,,,2025-02-20,1,,,,,ビズリリーフ,0
781,4010401188347,新規,0,2025-02-20,2025-02-20,株式会社テックネクスト,,株式会社,東京都,港区,南青山２丁目２番１５号,,13,103,1070062,,,,,,,2025-02-20,1,,,,,テックネクスト,0
782,4010401188355,新規,0,2025-02-20,2025-02-20,株式会社オフィスキアラ,,株式会社,東京都,港区,浜松町２丁目２番１５号浜松町ダイヤビル２Ｆ,,13,103,1050013,,,,,,,2025-02-20,1,,,,,オフィスキアラ,0
786,4010403034441,新規,0,2025-02-20,2025-02-20,しんかけい合同会社,,合同会社,東京都,港区,白金１丁目２５番２１－２３０１号,,13,103,1080072,,,,,,,2025-02-20,1,,,,,シンカケイ,0
790,4010501053673,新規,0,2025-02-20,2025-02-20,株式会社センターリンク,,株式会社,東京都,台東区,秋葉原１番１号秋葉原ビジネスセンター９階,,13,106,1100006,,,,,,,2025-02-20,1,,,,,センターリンク,0
791,4010501053681,新規,0,2025-02-20,2025-02-20,Ｆｕｎｃａｔ株式会社,,株式会社,東京都,台東区,東上野６丁目１番１７号東上野中央ビル４０３号室,,13,106,1100015,,,,,,,2025-02-20,1,,,,,ファンキャット,0
793,4010503007735,新規,0,2025-02-20,2025-02-20,合同会社アバン,,合同会社,東京都,台東区,上野５丁目１８番５号ダイヤモンドビル４０１号室,,13,106,1100005,,,,,,,2025-02-20,1,,,,,アバン,0
800,4010703007576,新規,0,2025-02-20,2025-02-20,カサ・デ合同会社,,合同会社,東京都,品川区,上大崎３丁目１０番４７－３０１号,,13,109,1410021,,,,,,,2025-02-20,1,,,,,カサデ,0
802,4010801035867,新規,0,2025-02-20,2025-02-20,株式会社縁信,,株式会社,東京都,大田区,羽田２丁目１－３,,13,111,1440043,,,,,,,2025-02-20,1,,,,,エンシン,0
811,4011001167781,新規,0,2025-02-20,2025-02-20,株式会社ｉ‐Ｊ　Ｓｏｌｕｔｉｏｎｓ,,株式会社,東京都,渋谷区,道玄坂１丁目１０番８号渋谷道玄坂東急ビル２Ｆ－Ｃ,,13,113,1500043,,,,,,,2025-02-20,1,,,,,アイジェイソリューションズ,0
812,4011001167939,新規,0,2025-02-20,2025-02-20,株式会社ＤＯＧ　ＨＯＬＩＤＡＹ,,株式会社,東京都,目黒区,東山３丁目１４番３号氏家ビル２階,,13,110,1530043,,,,,,,2025-02-20,1,,,,,ドッグホリデー,0
815,4011005010871,新規,0,2025-02-20,2025-02-20,一般社団法人ハーモニーヘブン,,その他の設立登記法人,東京都,目黒区,自由が丘２丁目１３番３号,,13,110,1520035,,,,,,,2025-02-20,1,,,,,ハーモニーヘブン,0
816,4011101110690,新規,0,2025-02-20,2025-02-20,優創株式会社,,株式会社,東京都,新宿区,富久町３２－３東新富久町ビル２０４号室,,13,104,1620067,,,,,,,2025-02-20,1,,,,,ユウソウ,0
817,4011101110699,新規,0,2025-02-20,2025-02-20,テックマネッジスカウティング株式会社,,株式会社,東京都,新宿区,西新宿７丁目７－２６,,13,104,1600023,,,,,,,2025-02-20,1,,,,,テックマネッジスカウティング,0
818,4011101110724,新規,0,2025-02-20,2025-02-20,株式会社ワイズパートナーズ,,株式会社,東京都,新宿区,北新宿２丁目６－２９,,13,104,1690074,,,,,,,2025-02-20,1,,,,,ワイズパートナーズ,0
823,4011303005425,新規,0,2025-02-20,2025-02-20,グローブアセット合同会社,,合同会社,東京都,杉並区,永福３丁目３８番３号,,13,115,1680064,,,,,,,2025-02-20,1,,,,,グローブアセット,0
830,4011803006690,新規,0,2025-02-20,2025-02-20,合同会社東京祥和グローバルコンサルティング,,合同会社,東京都,足立区,古千谷本町２丁目１番２５－２０５号,,13,121,1210832,,,,,,,2025-02-20,1,,,,,トウキョウショウワグローバルコンサルティング,0
832,4012801023760,新規,0,2025-02-20,2025-02-20,Ｈｉｒｏ’ｓ　Ｒａｃｉｎｇ株式会社,,株式会社,東京都,国立市,西２丁目２６番地の２５,,13,215,1860005,,,,,,,2025-02-20,1,,,,,ヒロズレーシング,0
834,4013301053728,新規,0,2025-02-20,2025-02-20,株式会社ｆ．０,,株式会社,東京都,豊島区,東池袋３丁目５－７ユニオンビルヂング１００２,,13,116,1700013,,,,,,,2025-02-20,1,,,,,エフドットゼロ,0
838,4020001161439,新規,0,2025-02-20,2025-02-20,株式会社Ｄｒｅａｍ　ｂｒｉｄｇｅ,,株式会社,神奈川県,横浜市中区,麦田町４丁目１０７番地,,14,104,2310849,,,,,,,2025-02-20,1,,,,,ドリームブリッジ,0
839,4020003027844,新規,0,2025-02-20,2025-02-20,合同会社木下相談室,,合同会社,神奈川県,横浜市南区,別所２丁目８－１６ビオーレハイム１０２,,14,105,2320064,,,,,,,2025-02-20,1,,,,,キノシタソウダンシツ,0
855,4030001164944,新規,0,2025-02-20,2025-02-20,株式会社漆床,00138071,株式会社,埼玉県,春日部市,八丁目１０１７番地９,,11,214,3440006,,,,,,,2025-02-20,1,,,,,ナナショウ,0
856,4030001164960,新規,0,2025-02-20,2025-02-20,株式会社ＪＭＣ,,株式会社,埼玉県,川口市,上青木４丁目１３－６０,,11,203,3330844,,,,,,,2025-02-20,1,,,,,ジェイエムシー,0
857,4030001164969,新規,0,2025-02-20,2025-02-20,株式会社ＭＡＯ　ｓｔｙｌｅ,,株式会社,埼玉県,越谷市,大字向畑１１１４番地７,,11,222,3430007,,,,,,,2025-02-20,1,,,,,マオスタイル,0
861,4030003026143,新規,0,2025-02-20,2025-02-20,合同会社みらい,,合同会社,埼玉県,本庄市,小島南３丁目８番２３号アリーブ本庄第１Ｂ－２,,11,211,3670062,,,,,,,2025-02-20,1,,,,,ミライ,0
862,4030003026151,新規,0,2025-02-20,2025-02-20,Ｔ２３合同会社,,合同会社,埼玉県,入間郡毛呂山町,大字毛呂本郷２５４番地１５,,11,326,3500451,,,,,,,2025-02-20,1,,,,,ティトゥエンティースリー,0
863,4030003026176,新規,0,2025-02-20,2025-02-20,ＡＭＴ合同会社,,合同会社,埼玉県,川口市,柳崎３丁目２１番１１－３号,,11,203,3330861,,,,,,,2025-02-20,1,,,,,エーエムティー,0
865,4040001074779,新規,0,2025-02-20,2025-02-20,共済相互金融株式会社,,株式会社,千葉県,南房総市,千倉町白子１３５番地,,12,234,2950003,,,,,,,2025-02-20,1,,,,,キョウサイソウゴキンユウ,0
868,4040001137478,新規,0,2025-02-20,2025-02-20,クローバー株式会社,,株式会社,千葉県,千葉市稲毛区,稲毛東４丁目５番１号ウェリス稲毛４１１号,,12,103,2630031,,,,,,,2025-02-20,1,,,,,クローバー,0
869,4040001137486,新規,0,2025-02-20,2025-02-20,株式会社ピート,,株式会社,千葉県,船橋市,海神５丁目１３番６号,,12,204,2730021,,,,,,,2025-02-20,1,,,,,ピート,0
870,4040001137494,新規,0,2025-02-20,2025-02-20,壽恵廣株式会社,,株式会社,千葉県,千葉市中央区,千葉寺町４２３－３,,12,101,2600844,,,,,,,2025-02-20,1,,,,,スエヒロ,0
873,4040003026902,新規,0,2025-02-20,2025-02-20,ＳＥＬＥＮＥ合同会社,,合同会社,千葉県,市川市,八幡３丁目６番１－２１０４号（プリームスクエア本八幡）,,12,203,2720021,,,,,,,2025-02-20,1,,,,,セリニ,0
877,4060003005433,新規,0,2025-02-20,2025-02-20,紺珠デザイン合同会社,,合同会社,栃木県,大田原市,浅香３丁目４番２０号ルナパレスＩＩＩ１０６号,00138073,09,210,3240043,,,,,,,2025-02-20,1,,,,,カンジュデザイン,0
884,4090001019151,新規,0,2025-02-20,2025-02-20,株式会社Ｋ．Ｈ．Ｇｒｅｅｎ,,株式会社,山梨県,南都留郡忍野村,忍草１３４８番地４,,19,424,4010511,,,,,,,2025-02-20,1,,,,,ケーエイチグリーン,0
885,4100003007986,新規,0,2025-02-20,2025-02-20,フォックスピーツー合同会社,,合同会社,長野県,佐久市,中込１５９６番地５,,20,217,3850051,,,,,,,2025-02-20,1,,,,,フォックスピーツー,0
894,4120001272985,新規,0,2025-02-20,2025-02-20,株式会社ＵＲＡＳＨＩＭＡ　ＨＯＬＤＩＮＧＳ,,株式会社,大阪府,大阪市港区,弁天５丁目６番２５号,,27,107,5520007,,,,,,,2025-02-20,1,,,,,ウラシマホールディングス,0
895,4120001273001,新規,0,2025-02-20,2025-02-20,株式会社波の音,,株式会社,大阪府,大阪市浪速区,敷津東２丁目４番１７－２５０４号,,27,111,5560012,,,,,,,2025-02-20,1,,,,,ナミノオト,0
896,4120001273050,新規,0,2025-02-20,2025-02-20,株式会社ＭＴＪ,,株式会社,大阪府,大阪市北区,松ケ枝町２番９－６０３号,,27,127,5300037,,,,,,,2025-02-20,1,,,,,エムティージェイ,0
897,4120001273059,新規,0,2025-02-20,2025-02-20,株式会社綺譚ワークス,,株式会社,大阪府,大阪市北区,梅田２丁目２番２号１９階,,27,127,5300001,,,,,,,2025-02-20,1,,,,,キタンワークス,0
898,4120001273083,新規,0,2025-02-20,2025-02-20,株式会社ＰＬＡＹＩＮＧ　ＤＥＳＩＧＮ,,株式会社,大阪府,大阪市都島区,片町２丁目８番１号,,27,102,5340025,,,,,,,2025-02-20,1,,,,,プレイングデザイン,0
900,4120003028659,新規,0,2025-02-20,2025-02-20,合同会社ＥｘＳｔｏｃｋ,,合同会社,大阪府,大阪市天王寺区,北山町４番１２号,,27,109,5430035,,,,,,,2025-02-20,1,,,,,エクストック,0
901,4120003028667,新規,0,2025-02-20,2025-02-20,Ｚｅｎ４７Ｔａｔｔｏｏ　Ｓｕｐｐｌｙ合同会社,,合同会社,大阪府,大阪市北区,堂島３丁目２－６堂島ロイヤルビル３１４号,,27,127,5300003,,,,,,,2025-02-20,1,,,,,ゼンヨンジュウナナタトゥーサプライ,0
902,4120003028683,新規,0,2025-02-20,2025-02-20,合同会社ＢＬＵＥ　ＳＵＮ,,合同会社,大阪府,大阪市天王寺区,清水谷町２番５－１２０１号,,27,109,5430011,,,,,,,2025-02-20,1,,,,,ブルーサン,0
903,4120003028691,新規,0,2025-02-20,2025-02-20,合同会社アサンテ介護サービス,,合同会社,大阪府,大阪市西成区,梅南２丁目５番３７号,,27,122,5570033,,,,,,,2025-02-20,1,,,,,アサンテカイゴサービス,0
905,4120101071098,新規,0,2025-02-20,2025-02-20,株式会社正木屋,,株式会社,大阪府,泉大津市,寿町５番２６－５号,,27,206,5950014,,,,,,,2025-02-20,1,,,,,マサキヤ,0
906,4120101071107,新規,0,2025-02-20,2025-02-20,株式会社ＫＯＭＡ,,株式会社,大阪府,岸和田市,上野町西１５番２７号,,27,202,5960048,,,,,,,2025-02-20,1,,,,,コマ,0
911,4120901050482,新規,0,2025-02-20,2025-02-20,株式会社ガレイナ,,株式会社,大阪府,豊中市,原田元町１丁目６番１０号２０８号,,27,203,5610808,,,,,,,2025-02-20,1,,,,,ガレイナ,0
912,4120903005559,新規,0,2025-02-20,2025-02-20,合同会社コネクトワークス,,合同会社,大阪府,吹田市,江の木町１７番３７号リアライズ江坂４０８,,27,205,5640053,,,,,,,2025-02-20,1,,,,,コネクトワークス,0
913,4122001038912,新規,0,2025-02-20,2025-02-20,株式会社ＴＲＡＤ　ＧＡＲＡＧＥ,,株式会社,大阪府,八尾市,東山本町８丁目５番３６号,,27,212,5810847,,,,,,,2025-02-20,1,,,,,トラッドガレージ,0
917,4130001079034,新規,0,2025-02-20,2025-02-20,株式会社Ｍｕ,,株式会社,京都府,京都市上京区,西洞院通中立売下る菊屋町２５４番地２,,26,102,6028076,,,,,,,2025-02-20,1,,,,,ムゥ,0
918,4130001079042,新規,0,2025-02-20,2025-02-20,株式会社響宴,,株式会社,京都府,京都市下京区,河原町通四条下る順風町３１１番地エスリード四条河原町１１０８号室,,26,106,6008021,,,,,,,2025-02-20,1,,,,,キョウエン,0
921,4140001137419,新規,0,2025-02-20,2025-02-20,エムズアセット株式会社,,株式会社,兵庫県,尼崎市,塚口町６丁目１９番地の５・３０７,,28,202,6610002,,,,,,,2025-02-20,1,,,,,エムズアセット,0
922,4140001137443,新規,0,2025-02-20,2025-02-20,株式会社ＶＰＬＵＳ,,株式会社,兵庫県,豊岡市,三宅１５２番地の１,,28,209,6680823,,,,,,,2025-02-20,1,,,,,ブイプラス,0
924,4140003021678,新規,0,2025-02-20,2025-02-20,合同会社ｍｙｓｐａｃｅ,,合同会社,兵庫県,神戸市西区,竜が岡３丁目１５番地の２,,28,111,6512412,,,,,,,2025-02-20,1,,,,,マイスペース,0
939,4180005020955,新規,0,2025-02-20,2025-02-20,ＮＰＯ法人みんなの未来いい教室,,その他の設立登記法人,愛知県,春日井市,八田町３丁目２番地１１,,23,206,4860849,,,,,,,2025-02-20,1,,,,,ミンナノミライイキョウシツ,0
945,4190003004950,新規,0,2025-02-20,2025-02-20,ＯＹＡＭＡ　ＴＲＡＤＩＮＧ合同会社,,合同会社,三重県,四日市市,桜町字一ノ高丘７８６１‐１１,,24,202,5121211,,,,,,,2025-02-20,1,,,,,オヤマトレーディング,0
947,4200001043453,新規,0,2025-02-20,2025-02-20,株式会社ひとといき,,株式会社,岐阜県,岐阜市,芥見１丁目１３８番地２,,21,201,5013134,,,,,,,2025-02-20,1,,,,,ヒトトイキ,0
950,4220001026497,新規,0,2025-02-20,2025-02-20,株式会社ｎｏｉｅ,,株式会社,石川県,鹿島郡中能登町,新庄壱五部３７番地１,,17,407,9291712,,,,,,,2025-02-20,1,,,,,ノイエ,0
955,4230001020755,新規,0,2025-02-20,2025-02-20,株式会社Ｆ１Ｇａｒａｇｅ,,株式会社,富山県,射水市,大江１４３０番地１,,16,211,9390302,,,,,,,2025-02-20,1,,,,,エフワンガレージ,0
957,4240001064553,新規,0,2025-02-20,2025-02-20,株式会社大井太郎事務所,,株式会社,広島県,広島市中区,大手町１丁目１番２６号大手町一番ビル３０５,,34,101,7300051,,,,,,,2025-02-20,1,,,,,オオイタロウジムショ,0
964,4260003005066,新規,0,2025-02-20,2025-02-20,合同会社えびちゅまん,,合同会社,岡山県,岡山市北区,中央町１番２３号,,33,101,7000836,,,,,,,2025-02-20,1,,,,,エビチュマン,0
970,4290001109056,新規,0,2025-02-20,2025-02-20,株式会社森田工業,,株式会社,福岡県,八女市,稲富２８８番地６,,40,210,8340047,,,,,,,2025-02-20,1,,,,,モリタコウギョウ,0
977,4290005019656,新規,0,2025-02-20,2025-02-20,税理士法人Ａｃｃｏｍｐａｎｙ,,その他の設立登記法人,福岡県,福岡市中央区,渡辺通５丁目１４番１２号南天神ビル,,40,133,8100004,,,,,,,2025-02-20,1,,,,,アカンパニー,0
997,4400003003402,新規,0,2025-02-20,2025-02-20,キーテック合同会社,,合同会社,岩手県,盛岡市,青山３丁目２２番１１号アオヤマブルグ２階,,03,201,0200133,,,,,,,2025-02-20,1,,,,,キーテック,0
998,4410005006625,新規,0,2025-02-20,2025-02-20,社会保険労務士法人ＦＩＮＥ,,その他の設立登記法人,秋田県,秋田市,卸町１丁目３番２号秋ト協ビル２Ｆ,,05,201,0100061,,,,,,,2025-02-20,1,,,,,ファイン,0
1002,4500005008760,新規,0,2025-02-20,2025-02-20,ＮＰＯ法人Ｃ＆Ｃ　ＯＲＩＪＩＮ,,その他の設立登記法人,愛媛県,伊予郡砥部町,大南１９１番地山田ハイツ１０１,,38,402,7912132,,,,,,,2025-02-20,1,,,,,シーアンドシーオリジン,0
1004,4700150129259,新規,0,2025-02-20,2025-02-20,Ｒ．Ｔ．Ｃ．ＭＯＴＯＲＳ,,外国会社等,千葉県,山武市,木原１４００番地オフィス３,,12,237,2891212,スリランカ民主社会主義共和国、キャンディ、マリガワッタ、Ｎｏ．８０／１,,,,,,2025-02-20,1,,,,,アールテイシーモータース,0
1008,5010001252329,新規,0,2025-02-20,2025-02-20,株式会社台湾キャリア,,株式会社,東京都,千代田区,神田小川町１丁目８番３号小川町北ビル７Ｆ１９,,13,101,1010052,,,,,,,2025-02-20,1,,,,,タイワンキャリア,0
1009,5010001252345,新規,0,2025-02-20,2025-02-20,株式会社シンクパール,,株式会社,東京都,千代田区,丸の内１丁目１１番１号パシフィックセンチュリープレイス１３階,,13,101,1000005,,,,,,,2025-02-20,1,,,,,シンクパール,0
1010,5010001252386,新規,0,2025-02-20,2025-02-20,ＫｅｙＦＰＡ　Ｊａｐａｎ株式会社,,株式会社,東京都,中央区,日本橋室町１丁目１１番１２号日本橋水野ビル７階,,13,102,1030022,,,,,,,2025-02-20,1,,,,,キーエフピーエージャパン,0
1011,5010001252452,新規,0,2025-02-20,2025-02-20,株式会社パピークラブ,,株式会社,東京都,中央区,日本橋室町１丁目１１番１２号日本橋水野ビル７階,,13,102,1030022,,,,,,,2025-02-20,1,,,,,パピークラブ,0
1012,5010001252460,新規,0,2025-02-20,2025-02-20,株式会社ＫＡＺＥ,,株式会社,東京都,中央区,銀座１丁目１２番４号Ｎ＆Ｅ・ＢＬＤ．６Ｆ,,13,102,1040061,,,,,,,2025-02-20,1,,,,,カゼ,0
1013,5010001252485,新規,0,2025-02-20,2025-02-20,株式会社国際危機管理産業,,株式会社,東京都,千代田区,霞が関３丁目２番５号霞が関ビルディング,,13,101,1000013,,,,,,,2025-02-20,1,,,,,コクサイキキカンリサンギョウ,0
1016,5010003046489,新規,0,2025-02-20,2025-02-20,合同会社コンティニュエーション,,合同会社,東京都,千代田区,神田須田町１丁目７番８号ＶＯＲＴ秋葉原ＩＶ２Ｆ,,13,101,1010041,,,,,,,2025-02-20,1,,,,,コンティニュエーション,0
1017,5010003046497,新規,0,2025-02-20,2025-02-20,合同会社トレイユ,,合同会社,東京都,中央区,銀座１丁目１２－４Ｎ＆ＥＢＬＤ．７階,,13,102,1040061,,,,,,,2025-02-20,1,,,,,トレイユ,0
1018,5010005039607,新規,0,2025-02-20,2025-02-20,一般社団法人第一トラスト太陽光発電,,その他の設立登記法人,東京都,中央区,日本橋１丁目４番１号日本橋一丁目ビルディング,,13,102,1030027,,,,,,,2025-02-20,1,,,,,ダイイチトラストタイヨウコウハツデン,0
1024,5010401188206,新規,0,2025-02-20,2025-02-20,株式会社Ｄｒ．ＳＷＡＧ,,株式会社,東京都,港区,赤坂２丁目１３番１号ルーセント赤坂７階,,13,103,1070052,,,,,,,2025-02-20,1,,,,,ドクタースワッグ,0
1025,5010401188321,新規,0,2025-02-20,2025-02-20,タバスコキャット株式会社,,株式会社,東京都,港区,西麻布１丁目１５番４号ＧｒａｄоＮｉｓｈｉａｚａｂｕ２０１,,13,103,1060031,,,,,,,2025-02-20,1,,,,,タバスコキャット,0
1026,5010401188346,新規,0,2025-02-20,2025-02-20,株式会社システムグロー,,株式会社,東京都,港区,南青山２丁目２番１５号,,13,103,1070062,,,,,,,2025-02-20,1,,,,,システムグロー,0
1027,5010401188412,新規,0,2025-02-20,2025-02-20,株式会社オフィス・パーフェクト,,株式会社,東京都,港区,麻布台１丁目２番１－３５０７号,,13,103,1060041,,,,,,,2025-02-20,1,,,,,オフィスパーフェクト,0
1028,5010403034192,新規,0,2025-02-20,2025-02-20,合同会社バリューアッドサービス,,合同会社,東京都,港区,三田１丁目１３－１２,,13,103,1080073,,,,,,,2025-02-20,1,,,,,バリューアッドサービス,0
1029,5010403034440,新規,0,2025-02-20,2025-02-20,レッツ合同会社,,合同会社,東京都,港区,赤坂６丁目８番１７号,,13,103,1070052,,,,,,,2025-02-20,1,,,,,レッツ,0
1032,5010501053581,新規,0,2025-02-20,2025-02-20,森美源株式会社,,株式会社,東京都,台東区,上野６丁目７－１－７０２,,13,106,1100005,,,,,,,2025-02-20,1,,,,,モリミゲン,0
1033,5010501053664,新規,0,2025-02-20,2025-02-20,紅樹林株式会社,,株式会社,東京都,台東区,松が谷２丁目１５番８号浅草Ｋ２ビル５０５号室,,13,106,1110036,,,,,,,2025-02-20,1,,,,,コウジュリン,0
1034,5010501053680,新規,0,2025-02-20,2025-02-20,ＺＥＮ株式会社,,株式会社,東京都,台東区,千束３丁目１０－５千濱ビル９０１,,13,106,1110031,,,,,,,2025-02-20,1,,,,,ゼン,0
1035,5010503007734,新規,0,2025-02-20,2025-02-20,ＬＡＫＳＡ　ＷＡＮ合同会社,,合同会社,東京都,台東区,西浅草３丁目３番１号,,13,106,1110035,,,,,,,2025-02-20,1,,,,,ラクサワン,0
1039,5010601066806,新規,0,2025-02-20,2025-02-20,株式会社アルファスタジオ,,株式会社,東京都,江東区,塩浜２丁目５番２３－２０３号,,13,108,1350043,,,,,,,2025-02-20,1,,,,,アルファスタジオ,0
1040,5010601066814,新規,0,2025-02-20,2025-02-20,信徳株式会社,,株式会社,東京都,墨田区,菊川３丁目２－５,,13,107,1300024,,,,,,,2025-02-20,1,,,,,シントク,0
1042,5010701047235,新規,0,2025-02-20,2025-02-20,株式会社右近,,株式会社,東京都,品川区,荏原２丁目８番１号,,13,109,1420063,,,,,,,2025-02-20,1,,,,,ウコン,0
1043,5010701047276,新規,0,2025-02-20,2025-02-20,株式会社ＤＥＥＥＲ,,株式会社,東京都,品川区,大井７丁目４番地８号パークホームズ品川大井３０１,,13,109,1400014,,,,,,,2025-02-20,1,,,,,ディアー,0
1052,5011001167780,新規,0,2025-02-20,2025-02-20,ＢＥＥＣＬＥ株式会社,,株式会社,東京都,渋谷区,道玄坂１丁目１０番８号渋谷道玄坂東急ビル２Ｆ－Ｃ,,13,113,1500043,,,,,,,2025-02-20,1,,,,,ビークル,0
1053,5011001167806,新規,0,2025-02-20,2025-02-20,株式会社プランツプラン,,株式会社,東京都,渋谷区,道玄坂１丁目１２－１渋谷マークシティＷ２２Ｆ,,13,113,1500043,,,,,,,2025-02-20,1,,,,,プランツプラン,0
1055,5011003020995,新規,0,2025-02-20,2025-02-20,合同会社Ｈｉｈｏｎｅｙ,,合同会社,東京都,渋谷区,富ヶ谷１丁目１９番２号ルナロッサ渋谷３０１,,13,113,1510063,,,,,,,2025-02-20,1,,,,,ハイハニー,0
1056,5011005010870,新規,0,2025-02-20,2025-02-20,一般社団法人Ｂａｃｋ　Ａｔｈｌｅｔｅ機構,,その他の設立登記法人,東京都,渋谷区,渋谷１丁目２０番２６号,,13,113,1500002,,,,,,,2025-02-20,1,,,,,バックアスリートキコウ,0
1058,5011101110665,新規,0,2025-02-20,2025-02-20,株式会社ＭＹＯ　ＣＨＩＴ,,株式会社,東京都,新宿区,高田馬場２丁目１９番７号－５０２号,,13,104,1690075,,,,,,,2025-02-20,1,,,,,ミョウチット,0
1059,5011101110673,新規,0,2025-02-20,2025-02-20,株式会社ＯＬＤ　ＷＯＲＬＤ　ＯＲＤＥＲ,,株式会社,東京都,新宿区,大久保１丁目１６番１５号－８０４,,13,104,1690072,,,,,,,2025-02-20,1,,,,,オールドワールドオーダー,0
1060,5011103015557,新規,0,2025-02-20,2025-02-20,合同会社ＨＩＫＡＲＩ　ＳＴＡＲ,,合同会社,東京都,新宿区,西新宿４丁目３１番３号永谷リヴュール新宿１１０４号,,13,104,1600023,,,,,,,2025-02-20,1,,,,,ヒカリスター,0
1066,5011501031734,新規,0,2025-02-20,2025-02-20,株式会社ティーケーオー,,株式会社,東京都,北区,王子５丁目８番９号,,13,117,1140002,,,,,,,2025-02-20,1,,,,,ティーケーオー,0
1073,5012801023768,新規,0,2025-02-20,2025-02-20,株式会社ｍａｒｕ　ｍｇｍｔ,,株式会社,東京都,立川市,富士見町６丁目４３番５号,,13,202,1900013,,,,,,,2025-02-20,1,,,,,マルマネージメント,0
1085,5020001161462,新規,0,2025-02-20,2025-02-20,株式会社ＯＡＫ,,株式会社,神奈川県,川崎市幸区,大宮町１８－２ナイスアーバンプラザ川崎２Ｆ－１０,,14,132,2120014,,,,,,,2025-02-20,1,,,,,オーク,0
1091,5030001164910,新規,0,2025-02-20,2025-02-20,東和電設株式会社,,株式会社,埼玉県,朝霞市,三原５丁目２番１５－３１６号,,11,227,3510025,,,,,,,2025-02-20,1,,,,,トウワデンセツ,0
1092,5030001164943,新規,0,2025-02-20,2025-02-20,株式会社ＴＲＩＢＥ,,株式会社,埼玉県,新座市,馬場２丁目５番４号,,11,230,3520016,,,,,,,2025-02-20,1,,,,,トライブ,0
1093,5030001164968,新規,0,2025-02-20,2025-02-20,ＦＴソリューション株式会社,,株式会社,埼玉県,越谷市,東越谷１０丁目３６番１号Ｋ・ＳヴィラＩＩ２０１,00138076,11,222,3430023,,,,,,,2025-02-20,1,,,,,エフティーソリューション,0
1094,5030003026134,新規,0,2025-02-20,2025-02-20,合同会社アクティブ,,合同会社,埼玉県,川口市,大字東本郷９２８番地の１,,11,203,3340063,,,,,,,2025-02-20,1,,,,,アクティブ,0
1095,5030003026159,新規,0,2025-02-20,2025-02-20,合同会社仲新,,合同会社,埼玉県,朝霞市,大字上内間木６９５番地１,,11,227,3510001,,,,,,,2025-02-20,1,,,,,ナカシン,0
1096,5030003026167,新規,0,2025-02-20,2025-02-20,ＰＨＩ　ＬＯＮＧ合同会社,,合同会社,埼玉県,戸田市,喜沢１丁目２４－２１グリーンハイツ戸田４０１,,11,224,3350013,,,,,,,2025-02-20,1,,,,,フィロン,0
1097,5030003026175,新規,0,2025-02-20,2025-02-20,キューブディメンション合同会社,,合同会社,埼玉県,新座市,堀ノ内１丁目２－２０,,11,230,3520023,,,,,,,2025-02-20,1,,,,,キューブディメンション,0
1098,5030005022049,新規,0,2025-02-20,2025-02-20,労働者協同組合ワーカーズ・コレクティブトラステッドふーず,,その他の設立登記法人,埼玉県,さいたま市見沼区,卸町１丁目１８生活クラブ生協大宮センター内,,11,104,3370004,,,,,,,2025-02-20,1,,,,,ワーカーズコレクティブトラステッドフーズ,0
1110,5040001137493,新規,0,2025-02-20,2025-02-20,株式会社ＧＮ,,株式会社,千葉県,印旛郡酒々井町,尾上１２４番地２２,,12,322,2850911,,,,,,,2025-02-20,1,,,,,ジーエヌ,0
1111,5050001056197,新規,0,2025-02-20,2025-02-20,株式会社ＴＲＯＮＣ,,株式会社,茨城県,水戸市,見川３丁目１０９９－１パークヒルズマルキ３の６０２,,08,201,3100912,,,,,,,2025-02-20,1,,,,,トロン,0
1115,5060003005432,新規,0,2025-02-20,2025-02-20,合同会社エステート関東,,合同会社,栃木県,さくら市,フィオーレ喜連川５丁目７５番地１３４－１号棟１０７号,,09,214,3291417,,,,,,,2025-02-20,1,,,,,エステートカントウ,0
1116,5060005010307,新規,0,2025-02-20,2025-02-20,一般社団法人日本ハンガリーポーランド外科学会,,その他の設立登記法人,栃木県,大田原市,北金丸２６００－１国際医療福祉大学病院外科,,09,210,3240011,,,,,,,2025-02-20,1,,,,,ニホンハンガリーポーランドゲカガッカイ,0
1122,5090001019150,新規,0,2025-02-20,2025-02-20,株式会社アペリオ,,株式会社,山梨県,北杜市,小淵沢町５３５８番地,,19,209,4080044,,,,,,,2025-02-20,1,,,,,アペリオ,0
1126,5110001039063,新規,0,2025-02-20,2025-02-20,順博株式会社,,株式会社,新潟県,村上市,布部木ノ平７９４－１,,15,212,9580231,,,,,,,2025-02-20,1,,,,,ジュンパク,0
1130,5120001272992,新規,0,2025-02-20,2025-02-20,株式会社カドマ調剤,,株式会社,大阪府,門真市,新橋町３番３号,,27,223,5710048,,,,,,,2025-02-20,1,,,,,カドマチョウザイ,0
1131,5120001273009,新規,0,2025-02-20,2025-02-20,株式会社ＴＫ’ｓ,,株式会社,大阪府,枚方市,桜丘町７３番６号,,27,210,5730018,,,,,,,2025-02-20,1,,,,,ティークス,0
1132,5120001273066,新規,0,2025-02-20,2025-02-20,株式会社ユルール,,株式会社,大阪府,大阪市福島区,福島６丁目１０番１８－１００５号,,27,103,5530003,,,,,,,2025-02-20,1,,,,,ユルール,0
1133,5120001273074,新規,0,2025-02-20,2025-02-20,一枚株式会社,,株式会社,大阪府,大阪市東住吉区,東田辺３丁目１番１号３Ｆ－Ｅ,,27,121,5460032,,,,,,,2025-02-20,1,,,,,イチマイ,0
1134,5120001273099,新規,0,2025-02-20,2025-02-20,永通株式会社,,株式会社,大阪府,大阪市天王寺区,大道４丁目９番１８号,,27,109,5430052,,,,,,,2025-02-20,1,,,,,エイツウ,0
1135,5120001273108,新規,0,2025-02-20,2025-02-20,藍芝株式会社,,株式会社,大阪府,大阪市住吉区,長居４丁目１０番２６号クレスト５階５０５号室,,27,120,5580003,,,,,,,2025-02-20,1,,,,,ランシバ,0
1139,5120003028609,新規,0,2025-02-20,2025-02-20,Ｌｏｇｏｓ　Ｂｉｏｓｙｓｔｅｍｓ　Ｊａｐａｎ合同会社,,合同会社,大阪府,大阪市淀川区,西宮原１丁目８－２４新大阪第３ドイビル６Ｆ６３１号,,27,123,5320004,,,,,,,2025-02-20,1,,,,,ロゴスバイオシステムズジャパン,0
1141,5120901050432,新規,0,2025-02-20,2025-02-20,株式会社ＭＫ,,株式会社,大阪府,豊中市,中桜塚１丁目１２番２６－１０３号,,27,203,5610881,,,,,,,2025-02-20,1,,,,,エムケー,0
1144,5122001038911,新規,0,2025-02-20,2025-02-20,株式会社ＢＭ,,株式会社,大阪府,八尾市,太田４丁目１０番地１,,27,212,5810037,,,,,,,2025-02-20,1,,,,,ビーエム,0
1147,5140001057698,新規,0,2025-02-20,2025-02-20,株式会社イースタン,,株式会社,兵庫県,姫路市,井ノ口４４３番地の２７,,28,201,6700983,,,,,,,2025-02-20,1,,,,,,0
1152,5140001137418,新規,0,2025-02-20,2025-02-20,株式会社Ｒ　ＧＲＥＥＮ,,株式会社,兵庫県,尼崎市,常松１丁目３１番７号,,28,202,6610046,,,,,,,2025-02-20,1,,,,,アールグリーン,0
1153,5140001137434,新規,0,2025-02-20,2025-02-20,株式会社ヤーマテック,,株式会社,兵庫県,伊丹市,桑津２丁目２番１１－１号,,28,207,6640839,,,,,,,2025-02-20,1,,,,,ヤーマテック,0
1154,5140001137442,新規,0,2025-02-20,2025-02-20,株式会社タイニーシード,,株式会社,兵庫県,神戸市中央区,国香通５丁目１番８－６０４号,,28,110,6510066,,,,,,,2025-02-20,1,,,,,タイニーシード,0
1169,5180001165555,新規,0,2025-02-20,2025-02-20,株式会社ジロロ,,株式会社,愛知県,名古屋市守山区,天子田２丁目１６１４番地,,23,113,4630037,,,,,,,2025-02-20,1,,,,,ジロロ,0
1180,5220003003956,新規,0,2025-02-20,2025-02-20,合同会社エスポート・フロンティアラボ,,合同会社,石川県,金沢市,此花町５番６号ライフ金沢第１ビル６０１Ａ,,17,201,9200852,,,,,,,2025-02-20,1,,,,,エスポートフロンティアラボ,0
1181,5230001020746,新規,0,2025-02-20,2025-02-20,株式会社いねともファーム,,株式会社,富山県,中新川郡立山町,金剛新１４４,,16,323,9303262,,,,,,,2025-02-20,1,,,,,イネトモファーム,0
1184,5240001064528,新規,0,2025-02-20,2025-02-20,株式会社ＣＲＡＮＥ,,株式会社,広島県,福山市,沖野上町６丁目１７番６号３Ｆ,,34,207,7200825,,,,,,,2025-02-20,1,,,,,クレイン,0
1185,5240001064552,新規,0,2025-02-20,2025-02-20,ＢｅｔｔｅＲ．Ｐｌｕｓ株式会社,,株式会社,広島県,東広島市,西条町寺家３９２４番地１,,34,212,7390041,,,,,,,2025-02-20,1,,,,,ベタープラス,0
1196,5280001009355,新規,0,2025-02-20,2025-02-20,株式会社さんさんケアソリューション,,株式会社,島根県,松江市,乃白町薬師前３番地３,,32,201,6900045,,,,,,,2025-02-20,1,,,,,サンサンケアソリューション,0
1201,5290003016448,新規,0,2025-02-20,2025-02-20,合同会社セントラルサポート,,合同会社,福岡県,福岡市博多区,博多駅前１丁目ＰａｒｋＦｒｏｎｔ博多駅前１丁目５Ｆ－Ｂ,,40,132,8120011,,,,,,,2025-02-20,1,,,,,セントラルサポート,0
1202,5290005019639,新規,0,2025-02-20,2025-02-20,特定非営利活動法人つむぎ,,その他の設立登記法人,福岡県,糸島市,志摩芥屋３３８３－６,,40,230,8191335,,,,,,,2025-02-20,1,,,,,ツムギ,0
1210,5310001019458,新規,0,2025-02-20,2025-02-20,株式会社茂裕興業,,株式会社,長崎県,佐世保市,大和町１４０９番地７,,42,202,8571165,,,,,,,2025-02-20,1,,,,,シゲヒロコウギョウ,0
1219,5370001052255,新規,0,2025-02-20,2025-02-20,株式会社ハイテック,,株式会社,宮城県,仙台市宮城野区,幸町３丁目１１番８－１０５号,,04,102,9830836,,,,,,,2025-02-20,1,,,,,ハイテック,0
1223,5430001093730,新規,0,2025-02-20,2025-02-20,株式会社ちなつ,,株式会社,北海道,札幌市中央区,北五条東２丁目６番地６ザ・サッポロレジデンス１６０３号,,01,101,0600035,,,,,,,2025-02-20,1,,,,,チナツ,0
1225,5470001020565,新規,0,2025-02-20,2025-02-20,株式会社さぬきＳＨＯＪＩＮ,,株式会社,香川県,仲多度郡多度津町,京町１１番２２号,,37,404,7640013,,,,,,,2025-02-20,1,,,,,,0
1228,5500001026154,新規,0,2025-02-20,2025-02-20,株式会社川之江学園,,株式会社,愛媛県,四国中央市,金生町下分１５８２番地３,,38,213,7990111,,,,,,,2025-02-20,1,,,,,カワノエガクエン,0
1232,5700150129258,新規,0,2025-02-20,2025-02-20,Ｆ．Ｍ．ＬＡＮＫＡ　ＴＲＡＤＩＮＧ,,外国会社等,千葉県,山武市,木原１４００番地オフィス５,,12,237,2891212,スリランカ民主社会主義共和国、キャンディ、バトゥゴダ、カサワッタ、Ｎｏ．３３／２,,,,,,2025-02-20,1,,,,,エフエムランカトレーデイング,0
1233,6010001075349,新規,0,2025-02-20,2025-02-20,株式会社親和ホームズ,,株式会社,東京都,中央区,築地３丁目１３番５号プライムステイ築地９０１号,,13,102,1040045,,,,,,,2025-02-20,1,,,,,シンワホームズ,0
1238,6010001252278,新規,0,2025-02-20,2025-02-20,ＣＷＹホールディングス株式会社,,株式会社,東京都,中央区,銀座１丁目２２番１１号銀座大竹ビジデンス２Ｆ,,13,102,1040061,,,,,,,2025-02-20,1,,,,,シーダブリューワイホールディングス,0
1239,6010001252385,新規,0,2025-02-20,2025-02-20,横浜シーサイドパレス株式会社,,株式会社,東京都,中央区,佃１丁目５番７号,,13,102,1040051,,,,,,,2025-02-20,1,,,,,ヨコハマシーサイドパレス,0
1240,6010001252393,新規,0,2025-02-20,2025-02-20,株式会社あしたの会社,,株式会社,東京都,千代田区,富士見１丁目３番１１号富士見デュープレックスビズ４Ｆ,,13,101,1020071,,,,,,,2025-02-20,1,,,,,アシタノカイシャ,0
1241,6010001252402,新規,0,2025-02-20,2025-02-20,エンデバー・ユナイテッド・パートナーズ・３９株式会社,,株式会社,東京都,千代田区,丸の内２丁目５番１号丸の内二丁目ビル６階,,13,101,1000005,,,,,,,2025-02-20,1,,,,,エンデバーユナイテッドパートナーズサーティーナイン,0
1242,6010001252435,新規,0,2025-02-20,2025-02-20,株式会社Ｆｌｅｕｒｖｉａ,,株式会社,東京都,中央区,銀座１丁目１２－４Ｎ＆ＥＢＬＤ．７階,,13,102,1040061,,,,,,,2025-02-20,1,,,,,フルーヴィア,0
1243,6010001252443,新規,0,2025-02-20,2025-02-20,株式会社コネックス,,株式会社,東京都,千代田区,神田須田町２丁目２３－１天翔秋葉原万世橋ビル,,13,101,1010041,,,,,,,2025-02-20,1,,,,,コネックス,0
1244,6010001252518,新規,0,2025-02-20,2025-02-20,ＬＷＬＨＣホールディングス株式会社,,株式会社,東京都,千代田区,麹町１丁目１２番地１号住友不動産ふくおか半蔵門ビル３階,,13,101,1020083,,,,,,,2025-02-20,1,,,,,エルダブリューエルエイチシーホールディングス,0
1247,6010003046298,新規,0,2025-02-20,2025-02-20,アビリティスケール合同会社,,合同会社,東京都,中央区,勝どき４丁目６－１－３４１１,,13,102,1040054,,,,,,,2025-02-20,1,,,,,アビリティスケール,0
1248,6010003046488,新規,0,2025-02-20,2025-02-20,合同会社ジグソー,,合同会社,東京都,中央区,日本橋馬喰町１丁目４番１４－４１０号,,13,102,1030002,,,,,,,2025-02-20,1,,,,,ジグソー,0
1249,6010003046496,新規,0,2025-02-20,2025-02-20,合同会社ＮａｍｅｄＦｏｘ,,合同会社,東京都,中央区,銀座１丁目１２番４号Ｎ＆ＥＢＬＤ．６Ｆ,,13,102,1040061,,,,,,,2025-02-20,1,,,,,ネームドフォックス,0
1250,6010003046513,新規,0,2025-02-20,2025-02-20,ＹＯＴ合同会社,,合同会社,東京都,中央区,銀座１丁目１２番４号Ｎ＆ＥＢＬＤ．６Ｆ,,13,102,1040061,,,,,,,2025-02-20,1,,,,,ワイオーティー,0
1251,6010005039589,新規,0,2025-02-20,2025-02-20,一般財団法人全国アミアップ統合医療支援機構,,その他の設立登記法人,東京都,中央区,日本橋箱崎町３２番３－６０３号,,13,102,1030015,,,,,,,2025-02-20,1,,,,,ゼンコクアミアップトウゴウイリョウシエンキコウ,0
1252,6010005039597,新規,0,2025-02-20,2025-02-20,一般社団法人ＳＦインベストメント,,その他の設立登記法人,東京都,中央区,京橋２丁目１２番６号ＡＯＪ税理士法人内,,13,102,1040031,,,,,,,2025-02-20,1,,,,,エスエフインベストメント,0
1253,6010005039606,新規,0,2025-02-20,2025-02-20,小牧ロジスティクス特定目的会社,,その他の設立登記法人,東京都,中央区,日本橋１丁目４番１号,,13,102,1030027,,,,,,,2025-02-20,1,,,,,コマキロジスティクス,0
1261,6010401188304,新規,0,2025-02-20,2025-02-20,ＳＷＫ株式会社,,株式会社,東京都,港区,南麻布１丁目９番４－４０４号,,13,103,1060047,,,,,,,2025-02-20,1,,,,,エスダブリューケー,0
1262,6010401188320,新規,0,2025-02-20,2025-02-20,株式会社バンダイナムコエクスペリエンス,,株式会社,東京都,港区,芝浦３丁目１番３５号,,13,103,1080023,,,,,,,2025-02-20,1,,,,,バンダイナムコエクスペリエンス,0
1263,6010401188337,新規,0,2025-02-20,2025-02-20,株式会社ＬＩＮＫ,,株式会社,東京都,港区,虎ノ門４丁目３番２０号神谷町ＭＴビル１４Ｆ,,13,103,1050001,,,,,,,2025-02-20,1,,,,,リンク,0
1264,6010401188345,新規,0,2025-02-20,2025-02-20,株式会社テックスキル,,株式会社,東京都,港区,南青山２丁目２番１５号,,13,103,1070062,,,,,,,2025-02-20,1,,,,,テックスキル,0
1265,6010401188386,新規,0,2025-02-20,2025-02-20,株式会社ｓｏｍｅｄａｙ,,株式会社,東京都,港区,南青山３丁目１番３６号青山丸竹ビル６Ｆ,,13,103,1070062,,,,,,,2025-02-20,1,,,,,サムデイ,0
1267,6010403007742,新規,0,2025-02-20,2025-02-20,ソフトマウンテン合同会社,,合同会社,東京都,港区,赤坂１丁目４番１４号ダイヤモンドビル赤坂５階,,13,103,1070052,,,,,,,2025-02-20,1,,,,,,0
1268,6010403034448,新規,0,2025-02-20,2025-02-20,合同会社Ｓｍａｒｔ　Ｃｉｔｙ　Ｏｒｃｈｅｓｔｒａ,,合同会社,東京都,港区,東麻布１丁目７番７号フォレシティ東麻布３０１,,13,103,1060044,,,,,,,2025-02-20,1,,,,,スマートシティオーケストラ,0
1271,6010501053671,新規,0,2025-02-20,2025-02-20,株式会社ＪＢロジスティクス,,株式会社,東京都,台東区,上野１丁目１６番５号,,13,106,1100005,,,,,,,2025-02-20,1,,,,,ジェービーロジスティクス,0
1277,6010703007582,新規,0,2025-02-20,2025-02-20,合同会社ＣｏｉｎＲｉｎｇ,,合同会社,東京都,品川区,小山６丁目２７番８号,,13,109,1420062,,,,,,,2025-02-20,1,,,,,コインリング,0
1292,6011001167796,新規,0,2025-02-20,2025-02-20,株式会社２Ｗ,,株式会社,東京都,渋谷区,恵比寿西２丁目８番４号ＥＸ恵比寿西ビル５階,,13,113,1500021,,,,,,,2025-02-20,1,,,,,トゥーダブリュー,0
1293,6011003020994,新規,0,2025-02-20,2025-02-20,合同会社会津企画,,合同会社,東京都,渋谷区,渋谷２丁目１９－１５宮益坂ビルディング６０９,,13,113,1500002,,,,,,,2025-02-20,1,,,,,アイヅキカク,0
1294,6011003021051,新規,0,2025-02-20,2025-02-20,ｊｓｅｒ合同会社,,合同会社,東京都,渋谷区,恵比寿西２丁目８番４号ＥＸ恵比寿西ビル５階,,13,113,1500021,,,,,,,2025-02-20,1,,,,,ジェイサー,0
1295,6011101110722,新規,0,2025-02-20,2025-02-20,ソロンガ株式会社,,株式会社,東京都,新宿区,早稲田鶴巻町５１８番地司ビル３０１,,13,104,1620041,,,,,,,2025-02-20,1,,,,,ソロンガ,0
1297,6011401026833,新規,0,2025-02-20,2025-02-20,ＳＰＡＣＥ　ＦＬＯＷＥＲ株式会社,,株式会社,東京都,板橋区,赤塚２丁目４番１４号サンヒルズ赤塚６０５,,13,119,1750092,,,,,,,2025-02-20,1,,,,,スペースフラワー,0
1300,6011501031725,新規,0,2025-02-20,2025-02-20,錦添株式会社,,株式会社,東京都,荒川区,町屋３丁目２４番２号面川ビル２０３号室,,13,118,1160001,,,,,,,2025-02-20,1,,,,,キンテン,0
1301,6011503006428,新規,0,2025-02-20,2025-02-20,合同会社オン・ユア・サイド,,合同会社,東京都,北区,赤羽１丁目１－６赤羽駅前第２ビル４階,,13,117,1150045,,,,,,,2025-02-20,1,,,,,オンユアサイド,0
1302,6011701028059,新規,0,2025-02-20,2025-02-20,陳嘉得株式会社,,株式会社,東京都,江戸川区,平井５丁目４４－６－２０７,,13,123,1320035,,,,,,,2025-02-20,1,,,,,チンカトク,0
1303,6011701028067,新規,0,2025-02-20,2025-02-20,株式会社ダブル,,株式会社,東京都,江戸川区,南篠崎町４丁目２番２５－２１３号,,13,123,1330065,,,,,,,2025-02-20,1,,,,,ダブル,0
1304,6011701028083,新規,0,2025-02-20,2025-02-20,株式会社ビーエヌシージャパン,,株式会社,東京都,江戸川区,西一之江１丁目３－１３,,13,123,1320023,,,,,,,2025-02-20,1,,,,,ビーエヌシージャパン,0
1308,6011801045648,新規,0,2025-02-20,2025-02-20,株式会社ＡＮＥ,,株式会社,東京都,足立区,千住２丁目６２番地１０根岸ビル３階,,13,121,1200034,,,,,,,2025-02-20,1,,,,,エーエヌイー,0
1309,6011801045656,新規,0,2025-02-20,2025-02-20,ｉｎｓｉｄｅ株式会社,,株式会社,東京都,葛飾区,東新小岩５丁目１７番６カメリアブラン３０７,,13,122,1240023,,,,,,,2025-02-20,1,,,,,インサイド,0
1312,6012301014267,新規,0,2025-02-20,2025-02-20,株式会社ＴＡパートナーズ,,株式会社,東京都,町田市,玉川学園８丁目１３－１０－４,,13,209,1940041,,,,,,,2025-02-20,1,,,,,ティーエーパートナーズ,0
1316,6013101009630,新規,0,2025-02-20,2025-02-20,よりそい不動産株式会社,,株式会社,東京都,青梅市,柚木町１丁目５５番地の１３,,13,205,1980064,,,,,,,2025-02-20,1,,,,,ヨリソイフドウサン,0
1327,6020001161420,新規,0,2025-02-20,2025-02-20,株式会社ＧＡＩＳ,,株式会社,神奈川県,横浜市都筑区,勝田町１２２０,,14,118,2240034,,,,,,,2025-02-20,1,,,,,ガイズ,0
1328,6020001161536,新規,0,2025-02-20,2025-02-20,株式会社Ｔｚマネジメント,,株式会社,神奈川県,川崎市川崎区,富士見２丁目４番５富士見ハイツ２０５号,,14,131,2100011,,,,,,,2025-02-20,1,,,,,ティーズマネジメント,0
1332,6020003027834,新規,0,2025-02-20,2025-02-20,ＴＯＰＬＩＭ合同会社,,合同会社,神奈川県,横浜市青葉区,松風台３１番地２７,,14,117,2270067,,,,,,,2025-02-20,1,,,,,トップリム,0
1333,6020003027867,新規,0,2025-02-20,2025-02-20,合同会社ＮＥＸＴＥＲ,,合同会社,神奈川県,横浜市青葉区,たちばな台１丁目９－１７,,14,117,2270046,,,,,,,2025-02-20,1,,,,,ネクスター,0
1336,6021001084512,新規,0,2025-02-20,2025-02-20,ＣＬＡＳＳＩＣ　ＲＥＴＡＩＬＩＮＧ株式会社,,株式会社,神奈川県,平塚市,明石町９番２３号明石フジビル３階,,14,203,2540042,,,,,,,2025-02-20,1,,,,,クラシックリテイリング,0
1338,6021003015606,新規,0,2025-02-20,2025-02-20,合同会社光る,,合同会社,神奈川県,平塚市,達上ケ丘１４－２,,14,203,2540064,,,,,,,2025-02-20,1,,,,,ヒカル,0
1339,6021003015614,新規,0,2025-02-20,2025-02-20,合同会社ＭＡＧＭＡ,,合同会社,神奈川県,横須賀市,佐原５丁目１６－１２,,14,201,2390835,,,,,,,2025-02-20,1,,,,,マグマ,0
1346,6030001164901,新規,0,2025-02-20,2025-02-20,ＳＴＡＲ　ＲＯＡＤ株式会社,,株式会社,埼玉県,所沢市,大字山口９１４番地の３３,,11,208,3591145,,,,,,,2025-02-20,1,,,,,スターロード,0
1347,6030001164926,新規,0,2025-02-20,2025-02-20,株式会社Ｖａｌｉｅｎｔｅｃｈ,,株式会社,埼玉県,上尾市,緑丘２丁目４番８号,,11,219,3620015,,,,,,,2025-02-20,1,,,,,バリエンテック,0
1348,6030001164934,新規,0,2025-02-20,2025-02-20,株式会社ＳＩＳＵ,,株式会社,埼玉県,所沢市,大字北秋津７３９－２９カーサ・ブランコ１０１,,11,208,3590038,,,,,,,2025-02-20,1,,,,,シス,0
1349,6030001164983,新規,0,2025-02-20,2025-02-20,来陽株式会社,,株式会社,埼玉県,さいたま市南区,大字大谷口９８６番地２０,,11,108,3360042,,,,,,,2025-02-20,1,,,,,ライヨウ,0
1356,6030003026133,新規,0,2025-02-20,2025-02-20,合同会社Ｎｉｃｏ,,合同会社,埼玉県,北葛飾郡松伏町,大字大川戸１５９番地４６,,11,465,3430106,,,,,,,2025-02-20,1,,,,,ニコ,0
1357,6030003026141,新規,0,2025-02-20,2025-02-20,合同会社ＣＨＥＥＲｉｓｅ,,合同会社,埼玉県,さいたま市南区,神明２丁目１番１８号,,11,108,3360023,,,,,,,2025-02-20,1,,,,,チアライズ,0
1358,6030003026174,新規,0,2025-02-20,2025-02-20,九卓合同会社,,合同会社,埼玉県,草加市,松江６丁目７番３２号田口店舗１０１,,11,221,3400013,,,,,,,2025-02-20,1,,,,,キュウタク,0
1359,6030003026182,新規,0,2025-02-20,2025-02-20,合同会社ヒューミッド,,合同会社,埼玉県,川口市,大字芝６３６０番地リビオンＡ,,11,203,3330866,,,,,,,2025-02-20,1,,,,,ヒューミッド,0
1368,6040001137492,新規,0,2025-02-20,2025-02-20,株式会社高村代行販売サービス,,株式会社,千葉県,千葉市美浜区,幸町２丁目１４番９棟４０１号,,12,106,2610001,,,,,,,2025-02-20,1,,,,,タカムラダイコウハンバイサービス,0
1370,6040003026933,新規,0,2025-02-20,2025-02-20,合同会社ＧｏｏｄＤａｙ,,合同会社,千葉県,千葉市稲毛区,宮野木町１３３６番地１,,12,103,2630054,,,,,,,2025-02-20,1,,,,,グッディ,0
1374,6060001037930,新規,0,2025-02-20,2025-02-20,株式会社リネアトラストエナジー,,株式会社,栃木県,宇都宮市,東塙田２丁目２番１７号,,09,201,3200021,,,,,,,2025-02-20,1,,,,,リネアトラストエナジー,0
1382,6110001039062,新規,0,2025-02-20,2025-02-20,株式会社ＴｒｉＡｒｃｈｉｔｅｃｔｓ,,株式会社,新潟県,新潟市中央区,学校町通２番町５２４７番地１１５,,15,103,9518126,,,,,,,2025-02-20,1,,,,,トリアーキテクツ,0
1384,6110003005673,新規,0,2025-02-20,2025-02-20,合同会社大盛企画,,合同会社,新潟県,上越市,五智３丁目１０番１６号,,15,222,9420081,,,,,,,2025-02-20,1,,,,,オオモリキカク,0
1389,6120001273057,新規,0,2025-02-20,2025-02-20,株式会社白,,株式会社,大阪府,大阪市西区,南堀江１丁目１２番２号６階,,27,106,5500015,,,,,,,2025-02-20,1,,,,,ハク,0
1390,6120001273065,新規,0,2025-02-20,2025-02-20,ＷＡＫＫＯ株式会社,,株式会社,大阪府,大阪市中央区,南船場１丁目３－１４ストークビル南船場８０６号室,,27,128,5420081,,,,,,,2025-02-20,1,,,,,ワッコ,0
1391,6120001273115,新規,0,2025-02-20,2025-02-20,株式会社ｄｅｐ,,株式会社,大阪府,大阪市中央区,安土町２丁目５番５号本町明大ビル９０１号室,,27,128,5410052,,,,,,,2025-02-20,1,,,,,デップ,0
1392,6120003028649,新規,0,2025-02-20,2025-02-20,合同会社ＳＯＬＡ　Ｋｉｎｇｄｏｍ,,合同会社,大阪府,大阪市阿倍野区,共立通１丁目５番２２号,,27,119,5450041,,,,,,,2025-02-20,1,,,,,ソラキングダム,0
1393,6120003028665,新規,0,2025-02-20,2025-02-20,山雅堂合同会社,,合同会社,大阪府,大阪市東成区,神路４丁目１２番１２－１０１号,,27,115,5370003,,,,,,,2025-02-20,1,,,,,サンガドウ,0
1394,6120003028673,新規,0,2025-02-20,2025-02-20,Ｔｕ＆Ｒａｎ合同会社,,合同会社,大阪府,大阪市港区,磯路２丁目２１番８－７０５号,,27,107,5520003,,,,,,,2025-02-20,1,,,,,トツゼン,0
1398,6120101071096,新規,0,2025-02-20,2025-02-20,株式会社農地開発研究機構,,株式会社,大阪府,和泉市,阪本町２９９番地の３,,27,219,5940052,,,,,,,2025-02-20,1,,,,,ノウチカイハツケンキュウキコウ,0
1406,6120901050480,新規,0,2025-02-20,2025-02-20,株式会社Ａｉｄａｎｔ,,株式会社,大阪府,吹田市,千里丘中２３番１２号,,27,205,5650812,,,,,,,2025-02-20,1,,,,,エイダント,0
1408,6122001038910,新規,0,2025-02-20,2025-02-20,株式会社拓美,,株式会社,大阪府,東大阪市,池島町３丁目９番１５号,,27,227,5798064,,,,,,,2025-02-20,1,,,,,タクミ,0
1409,6130001078918,新規,0,2025-02-20,2025-02-20,株式会社Ｋ‐ＦＡＣＴＯＲＹ,,株式会社,京都府,南丹市,日吉町保野田向獄３５番地１１,,26,213,6290301,,,,,,,2025-02-20,1,,,,,ケイファクトリー,0
1410,6130001079040,新規,0,2025-02-20,2025-02-20,株式会社プロシックス,,株式会社,京都府,京都市上京区,中立売通堀川西入役人町２５５番地１ジュネスイン堀川１０１号室,,26,102,6028241,,,,,,,2025-02-20,1,,,,,プロシックス,0
1411,6130003010218,新規,0,2025-02-20,2025-02-20,合同会社ＯＵＲＳ,,合同会社,京都府,京都市上京区,挽木町５１８番地,,26,102,6020065,,,,,,,2025-02-20,1,,,,,アワーズ,0
1412,6130005017293,新規,0,2025-02-20,2025-02-20,特定非営利活動法人日本はすばらしい,,その他の設立登記法人,京都府,京都市左京区,田中下柳町４６－１エナミビル,,26,103,6068204,,,,,,,2025-02-20,1,,,,,ニホンハスバラシイ,0
1416,6140001137499,新規,0,2025-02-20,2025-02-20,Ｂｒｉｇｈｔ　Ｏｎｅ株式会社,,株式会社,兵庫県,芦屋市,三条南町１２番１３号,,28,206,6590086,,,,,,,2025-02-20,1,,,,,ブライトワン,0
1421,6140003021684,新規,0,2025-02-20,2025-02-20,合同会社Ｅｖｅｒ　Ｍａｔｋａ,,合同会社,兵庫県,芦屋市,東芦屋町２５番５号,00138069,28,206,6590095,,,,,,,2025-02-20,1,,,,,エバーマトカ,0
1422,6140005027382,新規,0,2025-02-20,2025-02-20,一般社団法人ＴＳＵＧＵ新温泉,,その他の設立登記法人,兵庫県,美方郡新温泉町,浜坂２１４３－１０新温泉町商工会浜坂本所内,,28,586,6696702,,,,,,,2025-02-20,1,,,,,ツグシンオンセン,0
1428,6180005020953,新規,0,2025-02-20,2025-02-20,一般社団法人産後パートナー協会,,その他の設立登記法人,愛知県,名古屋市中村区,名駅３丁目４番１０号,,23,105,4500002,,,,,,,2025-02-20,1,,,,,サンゴパートナーキョウカイ,0
1440,6200005013723,新規,0,2025-02-20,2025-02-20,一般社団法人日本オフロードバイシクル普及協会,,その他の設立登記法人,岐阜県,土岐市,鶴里町細野８５９－１,,21,212,5095311,,,,,,,2025-02-20,1,,,,,ニホンオフロードバイシクルフキュウキョウカイ,0
1441,6220001026495,新規,0,2025-02-20,2025-02-20,株式会社三葉不動産,,株式会社,石川県,白山市,笠間町８１番地１３,,17,210,9240063,,,,,,,2025-02-20,1,,,,,ミツバフドウサン,0
1447,6290001109062,新規,0,2025-02-20,2025-02-20,株式会社ソルトル,,株式会社,福岡県,福岡市博多区,東比恵２丁目２２番１５－６０３号,,40,132,8120007,,,,,,,2025-02-20,1,,,,,ソルトル,0
1452,6310001019457,新規,0,2025-02-20,2025-02-20,株式会社杉本工務店,,株式会社,長崎県,五島市,三井楽町濱ノ畔１５５４番地３,,42,211,8530601,,,,,,,2025-02-20,1,,,,,スギモトコウムテン,0
1460,6370001052254,新規,0,2025-02-20,2025-02-20,株式会社大道舗装,,株式会社,宮城県,名取市,高舘吉田字前沖６６番地の１９,,04,207,9811242,,,,,,,2025-02-20,1,,,,,オオミチホソウ,0
1461,6370001052279,新規,0,2025-02-20,2025-02-20,株式会社Ｆｌａｒｃ,,株式会社,宮城県,名取市,みどり台３丁目２０番地の５,,04,207,9811247,,,,,,,2025-02-20,1,,,,,フラルク,0
1481,6700150129257,新規,0,2025-02-20,2025-02-20,Ｖ．Ｃ．Ｋ．ＭＯＴＯＲ　ＴＲＡＤＩＮＧ,,外国会社等,千葉県,山武市,木原１４００番地オフィス４,,12,237,2891212,スリランカ民主社会主義共和国、キャンディ、カトゥガストタ、ラナワナロード、Ｎｏ．５５／Ａ,,,,,,2025-02-20,1,,,,,ブイシーケーモータートレーデイング,0
1482,6700150129265,新規,0,2025-02-20,2025-02-20,ＷＨＴＥ　ＭＯＳＳ　ｏｕｔｆｉｔｔｅｒｓ　ｌｌｃ,,外国会社等,,,,,,,,１６０４１　ＳＵＧＡＲＰＩＮＥ　ＬＮ　ＣＥＲＲＩＴＯＳ，ＣＡ　９０７０３,,,,,,2025-02-20,1,,,,,ホワイトモスアウトフィッターズエルエルシー,0
1491,7010001252293,新規,0,2025-02-20,2025-02-20,株式会社オフィス吉澤,,株式会社,東京都,千代田区,九段南２丁目８－７－４Ｆ,,13,101,1020074,,,,,,,2025-02-20,1,,,,,オフィスヨシザワ,0
1493,7010001252392,新規,0,2025-02-20,2025-02-20,ＡＩＫＯＮ株式会社,,株式会社,東京都,千代田区,飯田橋３丁目１０番９号飯田橋アイガーデンテラス２０２,,13,101,1020072,,,,,,,2025-02-20,1,,,,,アイコン,0
1494,7010001252459,新規,0,2025-02-20,2025-02-20,ＫＭＳマリタイム株式会社,,株式会社,東京都,千代田区,内神田３丁目２２番３号ＩＭ内神田ビル１０階,,13,101,1010047,,,,,,,2025-02-20,1,,,,,ケーエムエスマリタイム,0
1495,7010001252467,新規,0,2025-02-20,2025-02-20,株式会社春日和,,株式会社,東京都,文京区,白山１丁目６番４号文京ＶｅｎｔｕｒｅＢａｓｅＡ１３,,13,105,1130001,,,,,,,2025-02-20,1,,,,,ハルビヨリ,0
1496,7010001252517,新規,0,2025-02-20,2025-02-20,万事達株式会社,,株式会社,東京都,千代田区,神田平河町１番地第３東ビル５Ｆー４２号室,,13,101,1010027,,,,,,,2025-02-20,1,,,,,マンジタツ,0
1499,7010003046495,新規,0,2025-02-20,2025-02-20,合同会社Ｖｏｎｇｏｌａ,,合同会社,東京都,千代田区,神田和泉町１番地６－１６ヤマトビル４０５,,13,101,1010024,,,,,,,2025-02-20,1,,,,,ボンゴレ,0
1500,7010005039605,新規,0,2025-02-20,2025-02-20,千葉タ一般社団法人,,その他の設立登記法人,東京都,千代田区,丸の内１丁目４番１号東京共同会計事務所内,,13,101,1000005,,,,,,,2025-02-20,1,,,,,チバタ,0
1510,7010401188328,新規,0,2025-02-20,2025-02-20,株式会社ＨＡＫＵＨＯＤＯ　ＩＴＴＥＮＩ,,株式会社,東京都,港区,赤坂５丁目２番２０号,,13,103,1070052,,,,,,,2025-02-20,1,,,,,ハクホウドウイッテニ,0
1511,7010401188344,新規,0,2025-02-20,2025-02-20,株式会社システムコネクト,,株式会社,東京都,港区,南青山２丁目２番１５号,,13,103,1070062,,,,,,,2025-02-20,1,,,,,システムコネクト,0
1512,7010401188360,新規,0,2025-02-20,2025-02-20,監理団体サポートセンター株式会社,,株式会社,東京都,港区,愛宕１丁目６－８愛宕小西ビル２Ｆ,,13,103,1050002,,,,,,,2025-02-20,1,,,,,カンリダンタイサポートセンター,0
1514,7010403034430,新規,0,2025-02-20,2025-02-20,合同会社エヌパワー３,,合同会社,東京都,港区,麻布十番４丁目４－１ツイン一の橋２号館５号,,13,103,1060045,,,,,,,2025-02-20,1,,,,,エヌパワーサン,0
1515,7010403034439,新規,0,2025-02-20,2025-02-20,ＨｅｌｍｅＴＯＮ合同会社,,合同会社,東京都,港区,南青山２丁目２番１５号,,13,103,1070062,,,,,,,2025-02-20,1,,,,,ヘルメットン,0
1516,7010403034447,新規,0,2025-02-20,2025-02-20,合同会社ｅｃｌａｔ,,合同会社,東京都,港区,六本木７丁目１２番１２号,,13,103,1060032,,,,,,,2025-02-20,1,,,,,エクラ,0
1518,7010501053679,新規,0,2025-02-20,2025-02-20,株式会社宜宏国際,,株式会社,東京都,台東区,千束３丁目２１－１２キートスビル６０１号室,,13,106,1110031,,,,,,,2025-02-20,1,,,,,ギコウコクサイ,0
1521,7010503007732,新規,0,2025-02-20,2025-02-20,合同会社拓望,,合同会社,東京都,台東区,松が谷２丁目５番９－３０３号,,13,106,1110036,,,,,,,2025-02-20,1,,,,,タクミ,0
1524,7010701047266,新規,0,2025-02-20,2025-02-20,株式会社Ｙａｔａ,,株式会社,東京都,品川区,西品川１丁目２９－１２ＣＳＲ品川,,13,109,1410033,,,,,,,2025-02-20,1,,,,,ヤタ,0
1528,7010801035856,新規,0,2025-02-20,2025-02-20,株式会社ＴＢＹ,,株式会社,東京都,大田区,田園調布南２番２号,,13,111,1450076,,,,,,,2025-02-20,1,,,,,ティービーワイ,0
1529,7010801035864,新規,0,2025-02-20,2025-02-20,株式会社路上の人,,株式会社,東京都,大田区,南六郷１丁目３１番２３－１０７号,,13,111,1440045,,,,,,,2025-02-20,1,,,,,ロジョウノヒト,0
1532,7010903009725,新規,0,2025-02-20,2025-02-20,武村信也合同会社,,合同会社,東京都,世田谷区,三軒茶屋１丁目７番１５号,,13,112,1540024,,,,,,,2025-02-20,1,,,,,タケムラシンヤ,0
1537,7011001167762,新規,0,2025-02-20,2025-02-20,株式会社ｗａｖｅｚ,,株式会社,東京都,渋谷区,円山町１５－３グランエストビル３Ｆ,,13,113,1500044,,,,,,,2025-02-20,1,,,,,ウェーブズ,0
1538,7011001167779,新規,0,2025-02-20,2025-02-20,株式会社ｔｓｕｋｉ,,株式会社,東京都,渋谷区,恵比寿西２丁目８番４号,,13,113,1500021,,,,,,,2025-02-20,1,,,,,ツキ,0
1539,7011001167795,新規,0,2025-02-20,2025-02-20,株式会社Ｌｕｌｕ　Ｖｉｓｉｏｎ,,株式会社,東京都,渋谷区,道玄坂１丁目１０番８号渋谷道玄坂東急ビル２Ｆ－Ｃ,,13,113,1500043,,,,,,,2025-02-20,1,,,,,ルルビジョン,0
1540,7011001167936,新規,0,2025-02-20,2025-02-20,ＭＡＰＳ　ＪＡＰＡＮ株式会社,,株式会社,東京都,渋谷区,道玄坂１丁目１２番１号渋谷マークシティＷ２２階,,13,113,1500043,,,,,,,2025-02-20,1,,,,,マップスジャパン,0
1541,7011001167977,新規,0,2025-02-20,2025-02-20,株式会社Ｅ＆Ｆ,,株式会社,東京都,渋谷区,上原２丁目３２番５号,,13,113,1510064,,,,,,,2025-02-20,1,,,,,イーアンドエフ,0
1543,7011003020969,新規,0,2025-02-20,2025-02-20,合同会社Ｂｅａｒ　Ｔａｉｌ,,合同会社,東京都,渋谷区,道玄坂１丁目１０番８号渋谷道玄坂東急ビル２Ｆ－Ｃ,,13,113,1500043,,,,,,,2025-02-20,1,,,,,ベアテイル,0
1544,7011003020977,新規,0,2025-02-20,2025-02-20,合同会社ＶｌｏｏｍＮｅｔＷｏｒｋｓ,,合同会社,東京都,渋谷区,渋谷２丁目１９－１５宮益坂ビルディング６０９,,13,113,1500002,,,,,,,2025-02-20,1,,,,,ブルームネットワークス,0
1545,7011003020993,新規,0,2025-02-20,2025-02-20,合同会社ドラポケット,,合同会社,東京都,渋谷区,恵比寿西２丁目４番８号ウィンド恵比寿ビル８Ｆ,,13,113,1500021,,,,,,,2025-02-20,1,,,,,ドラポケット,0
1548,7011101110713,新規,0,2025-02-20,2025-02-20,株式会社Ｓａｖｏｒ　Ｆｌｏｗ,,株式会社,東京都,新宿区,新宿７丁目２６番２５－２２０号,,13,104,1600022,,,,,,,2025-02-20,1,,,,,セーバーフロー,0
1549,7011101110721,新規,0,2025-02-20,2025-02-20,メンタルスグミル株式会社,,株式会社,東京都,新宿区,新宿１丁目１６番１０号コスモス御苑ビル７０２号室,,13,104,1600022,,,,,,,2025-02-20,1,,,,,メンタルスグミル,0
1550,7011103015522,新規,0,2025-02-20,2025-02-20,帝業合同会社,,合同会社,東京都,新宿区,榎町３４－３榎町ビル５階－０２室,,13,104,1620806,,,,,,,2025-02-20,1,,,,,テイギョウ,0
1551,7011103015539,新規,0,2025-02-20,2025-02-20,合同会社アクシア,,合同会社,東京都,新宿区,新宿２丁目１２番１３号新宿アントレサロンビル２階,,13,104,1600022,,,,,,,2025-02-20,1,,,,,アクシア,0
1552,7011103015555,新規,0,2025-02-20,2025-02-20,合同会社いろは,,合同会社,東京都,新宿区,西新宿３丁目３番１３号西新宿水間ビル６階,,13,104,1600023,,,,,,,2025-02-20,1,,,,,イロハ,0
1553,7011103015563,新規,0,2025-02-20,2025-02-20,合同会社Ｇｅｎｉｔｙ,,合同会社,東京都,新宿区,西新宿３丁目３番１３号西新宿水間ビル６階合同会社Ｇｅｎｉｔｙ,,13,104,1600023,,,,,,,2025-02-20,1,,,,,ジェニティー,0
1554,7011205002674,新規,0,2025-02-20,2025-02-20,特定非営利活動法人子育て応援隊ｋｏｄｏｍｏｒｅ,,その他の設立登記法人,東京都,中野区,中野５丁目６７番地７号プラザ中野８０１,,13,114,1640001,,,,,,,2025-02-20,1,,,,,コソダテオウエンタイコドモア,0
1555,7011301030372,新規,0,2025-02-20,2025-02-20,株式会社三三零,,株式会社,東京都,杉並区,上荻２丁目３０番１２－１１０７号,,13,115,1670043,,,,,,,2025-02-20,1,,,,,サンサンゼロ,0
1560,7011701028082,新規,0,2025-02-20,2025-02-20,株式会社ゴーゴーインディア,,株式会社,東京都,江戸川区,西葛西３丁目２２番１０号－５０４Ｃ号,,13,123,1340088,,,,,,,2025-02-20,1,,,,,ゴーゴーインディア,0
1561,7011703004131,新規,0,2025-02-20,2025-02-20,合同会社ぽらりす,,合同会社,東京都,江戸川区,西葛西６丁目１３番１号西葛西たかみビル５階,,13,123,1340088,,,,,,,2025-02-20,1,,,,,ポラリス,0
1563,7011801045655,新規,0,2025-02-20,2025-02-20,株式会社グランデモン,,株式会社,東京都,葛飾区,堀切７丁目１４番８号,,13,122,1240006,,,,,,,2025-02-20,1,,,,,グランデモン,0
1564,7011801045663,新規,0,2025-02-20,2025-02-20,みどり実業株式会社,,株式会社,東京都,足立区,千住元町１４－７,,13,121,1200041,,,,,,,2025-02-20,1,,,,,ミドリジツギョウ,0
1567,7012803003642,新規,0,2025-02-20,2025-02-20,合同会社ＫＵＭＡ　ＤＯ,,合同会社,東京都,国分寺市,南町３丁目１６－５第４６東京ビル地下１階,,13,214,1850021,,,,,,,2025-02-20,1,,,,,クマドゥ,0
1570,7013103001403,新規,0,2025-02-20,2025-02-20,合同会社Ｉｎｄｉｇｏ,,合同会社,東京都,福生市,大字熊川１６２０－２１,,13,218,1970003,,,,,,,2025-02-20,1,,,,,インディゴ,0
1573,7013301053816,新規,0,2025-02-20,2025-02-20,株式会社藤郎商会,,株式会社,東京都,豊島区,西巣鴨３丁目１０番１号オティアス６２３－１０３号,,13,116,1700001,,,,,,,2025-02-20,1,,,,,フジロウショウカイ,0
1587,7021003015605,新規,0,2025-02-20,2025-02-20,合同会社なかよしパラダイス,,合同会社,神奈川県,大和市,鶴間２丁目１５番３号ツルコーポ２０３,,14,213,2420004,,,,,,,2025-02-20,1,,,,,ナカヨシパラダイス,0
1588,7021003015613,新規,0,2025-02-20,2025-02-20,合同会社ダイノキッチン,,合同会社,神奈川県,相模原市緑区,青野原１５６２番地１,,14,151,2520161,,,,,,,2025-02-20,1,,,,,ダイノキッチン,0
1596,7030001164900,新規,0,2025-02-20,2025-02-20,株式会社ＭＥＬＬＯＷ,,株式会社,埼玉県,北葛飾郡松伏町,大字松伏４７９９番地６,,11,465,3430111,,,,,,,2025-02-20,1,,,,,メロウ,0
1597,7030001164925,新規,0,2025-02-20,2025-02-20,株式会社ＴＡＫＥＳ　ＯＮＥ,,株式会社,埼玉県,戸田市,大字新曽１６３２番地（ドレスウェル北戸田２０７号室）,,11,224,3350021,,,,,,,2025-02-20,1,,,,,テイクスワン,0
1598,7030001164933,新規,0,2025-02-20,2025-02-20,株式会社ＲＥＳＡＩＴＯ,,株式会社,埼玉県,加須市,鴻茎１１番８,,11,210,3470111,,,,,,,2025-02-20,1,,,,,レサイト,0
1599,7030001164966,新規,0,2025-02-20,2025-02-20,ＵＳＰ商事株式会社,,株式会社,埼玉県,越谷市,越ヶ谷３丁目３番１６号２Ｆ,,11,222,3430813,,,,,,,2025-02-20,1,,,,,ユーエスピーショウジ,0
1600,7030001164974,新規,0,2025-02-20,2025-02-20,株式会社イエヤス不動産販売,,株式会社,埼玉県,越谷市,千間台東４丁目２１番地２,,11,222,3430042,,,,,,,2025-02-20,1,,,,,イエヤスフドウサンハンバイ,0
1601,7030001164982,新規,0,2025-02-20,2025-02-20,株式会社ウェルリンク,,株式会社,埼玉県,さいたま市北区,本郷町３０５番地,,11,102,3310802,,,,,,,2025-02-20,1,,,,,ウェルリンク,0
1605,7030003026173,新規,0,2025-02-20,2025-02-20,合同会社ひまわり,,合同会社,埼玉県,戸田市,美女木８丁目１２番地１５,,11,224,3350031,,,,,,,2025-02-20,1,,,,,ヒマワリ,0
1607,7030005022047,新規,0,2025-02-20,2025-02-20,一般社団法人Ｓｅａ　Ｃｌｉｍｂ　Ａｃａｄｅｍｙ,,その他の設立登記法人,埼玉県,所沢市,弥生町２８８６番地の１,,11,208,3590043,,,,,,,2025-02-20,1,,,,,シークライムアカデミー,0
1610,7040001137475,新規,0,2025-02-20,2025-02-20,株式会社ダイジェクトホーム,,株式会社,千葉県,千葉市緑区,おゆみ野南４丁目３６番地１５,,12,105,2660033,,,,,,,2025-02-20,1,,,,,ダイジェクトホーム,0
1611,7040001137491,新規,0,2025-02-20,2025-02-20,株式会社マキシム,,株式会社,千葉県,茂原市,大芝２丁目８番地１２,,12,210,2970033,,,,,,,2025-02-20,1,,,,,マキシム,0
1617,7040003026932,新規,0,2025-02-20,2025-02-20,合同会社ＡＮＧ　Ｃｏｒｐ．,,合同会社,千葉県,柏市,中央１丁目４番９号,,12,217,2770023,,,,,,,2025-02-20,1,,,,,エーエヌジーコーポレーション,0
1618,7050005013564,新規,0,2025-02-20,2025-02-20,学校法人四谷学院,,その他の設立登記法人,茨城県,筑西市,折本８９５,,08,227,3080007,,,,,,,2025-02-20,1,,,,,ヨツヤガクイン,0
1626,7090001019149,新規,0,2025-02-20,2025-02-20,株式会社ライズ,,株式会社,山梨県,中巨摩郡昭和町,清水新居２２番地２,,19,384,4093867,,,,,,,2025-02-20,1,,,,,ライズ,0
1634,7110003005672,新規,0,2025-02-20,2025-02-20,合同会社ＬｅＣｉｅｌ,,合同会社,新潟県,新潟市東区,東明８丁目１番２３号メゾン東山５０５号,,15,102,9500853,,,,,,,2025-02-20,1,,,,,ルシエル,0
1639,7120001273007,新規,0,2025-02-20,2025-02-20,ＧＨＭ　Ｊａｐａｎ株式会社,,株式会社,大阪府,大阪市中央区,島之内１丁目１５－１０,,27,128,5420082,,,,,,,2025-02-20,1,,,,,ジーエイチエムジャパン,0
1640,7120001273031,新規,0,2025-02-20,2025-02-20,株式会社ＴＹ,,株式会社,大阪府,大阪市福島区,海老江３丁目２３番１１号,,27,103,5530001,,,,,,,2025-02-20,1,,,,,ティーワイ,0
1641,7120001273056,新規,0,2025-02-20,2025-02-20,ハレノヒ株式会社,,株式会社,大阪府,守口市,大宮通４丁目１３番３号,,27,209,5700033,,,,,,,2025-02-20,1,,,,,ハレノヒ,0
1642,7120001273080,新規,0,2025-02-20,2025-02-20,株式会社ｊｏｕｒｎｅｙ,,株式会社,大阪府,大阪市西区,南堀江３丁目３番５－８０１号,,27,106,5500015,,,,,,,2025-02-20,1,,,,,ジャーニー,0
1643,7120001273097,新規,0,2025-02-20,2025-02-20,株式会社ＩＫＯ　ＥＭＩＰＯＲＴ,,株式会社,大阪府,大阪市東淀川区,柴島３丁目１０番１９号,,27,114,5330024,,,,,,,2025-02-20,1,,,,,イコエミポート,0
1644,7120001273106,新規,0,2025-02-20,2025-02-20,株式会社ＳＫ　Ｎｅｘｔ,,株式会社,大阪府,大阪市港区,八幡屋４丁目５番９号,,27,107,5520014,,,,,,,2025-02-20,1,,,,,エスケーネクスト,0
1645,7120001273114,新規,0,2025-02-20,2025-02-20,株式会社フェリチタ,,株式会社,大阪府,大阪市中央区,上汐１丁目１番地１４号１５０２号室,,27,128,5420064,,,,,,,2025-02-20,1,,,,,フェリチタ,0
1647,7120003028648,新規,0,2025-02-20,2025-02-20,合同会社ヘヴン,,合同会社,大阪府,大阪市中央区,備後町１丁目５－１４－２０１,,27,128,5410051,,,,,,,2025-02-20,1,,,,,ヘヴン,0
1649,7120005024802,新規,0,2025-02-20,2025-02-20,社会保険労務士法人ユーティリティ,,その他の設立登記法人,大阪府,大阪市住吉区,南住吉２丁目２３番１７号,,27,120,5580041,,,,,,,2025-02-20,1,,,,,ユーティリティ,0
1654,7120901050463,新規,0,2025-02-20,2025-02-20,株式会社アイナグー,,株式会社,大阪府,吹田市,垂水町３丁目１番２０号,,27,205,5640062,,,,,,,2025-02-20,1,,,,,アイナグー,0
1655,7120901050471,新規,0,2025-02-20,2025-02-20,株式会社エボルバンス,,株式会社,大阪府,豊中市,本町４丁目２番４０－３０２,,27,203,5600021,,,,,,,2025-02-20,1,,,,,エボルバンス,0
1658,7120903005556,新規,0,2025-02-20,2025-02-20,グランツミアーコンサルティング合同会社,,合同会社,大阪府,茨木市,彩都あさぎ３丁目７番２１号,,27,211,5670085,,,,,,,2025-02-20,1,,,,,グランツミアーコンサルティング,0
1662,7130001079015,新規,0,2025-02-20,2025-02-20,株式会社あかり,,株式会社,京都府,京都市東山区,祇園町南側５３７番地２祇園ヒロビル１Ｆ,,26,105,6050074,,,,,,,2025-02-20,1,,,,,アカリ,0
1665,7130005017292,新規,0,2025-02-20,2025-02-20,一般社団法人日本機能的美姿勢協会,,その他の設立登記法人,京都府,城陽市,久世北垣内１番地の８,,26,207,6100102,,,,,,,2025-02-20,1,,,,,ニホンキノウテキビシセイキョウカイ,0
1668,7140001137440,新規,0,2025-02-20,2025-02-20,佳輿通達株式会社,,株式会社,兵庫県,伊丹市,西台３丁目９番２２号２０８－６,,28,207,6640858,,,,,,,2025-02-20,1,,,,,カヨウツウタツ,0
1669,7140001137457,新規,0,2025-02-20,2025-02-20,株式会社Ｂ＆Ｆ,,株式会社,兵庫県,神戸市西区,糀台２丁目１１番地の４,,28,111,6512273,,,,,,,2025-02-20,1,,,,,ビーアンドエフ,0
1671,7140003021683,新規,0,2025-02-20,2025-02-20,合同会社ＯＳＮＥＷ,,合同会社,兵庫県,高砂市,阿弥陀町北池４５８－１５,,28,216,6760825,,,,,,,2025-02-20,1,,,,,オーエスニュー,0
1672,7140005027381,新規,0,2025-02-20,2025-02-20,一般社団法人Ｇｒｅｅｋ　Ａｌｐｈａｂｅｔ　Ｓｏｆｔｗａｒｅ　Ａｃａｄｅｍｙ,,その他の設立登記法人,兵庫県,神戸市中央区,東川崎町１丁目８番４号神戸市産業振興センター７階,,28,110,6500044,,,,,,,2025-02-20,1,,,,,グリークアルファベットソフトウェアアカデミー,0
1680,7180001165462,新規,0,2025-02-20,2025-02-20,ルーツ株式会社,,株式会社,愛知県,名古屋市港区,港楽１丁目１番港楽ハイツ５棟１０１号,,23,111,4550014,,,,,,,2025-02-20,1,,,,,ルーツ,0
1681,7180001165495,新規,0,2025-02-20,2025-02-20,株式会社きっ粋,,株式会社,愛知県,清須市,西堀江１８８番地５,,23,233,4520917,,,,,,,2025-02-20,1,,,,,キッスイ,0
1682,7180001165520,新規,0,2025-02-20,2025-02-20,株式会社はなもも,,株式会社,愛知県,あま市,上萱津森７５番地,,23,237,4901112,,,,,,,2025-02-20,1,,,,,ハナモモ,0
1683,7180001165529,新規,0,2025-02-20,2025-02-20,株式会社ナローＨＤ,,株式会社,愛知県,名古屋市中区,栄１丁目６番１５号グランドメゾン御園座タワー３７０１号,,23,106,4600008,,,,,,,2025-02-20,1,,,,,ナローホールディングス,0
1688,7190001032001,新規,0,2025-02-20,2025-02-20,株式会社武想荷役,,株式会社,三重県,津市,新東町塔世６７番地,,24,201,5140026,,,,,,,2025-02-20,1,,,,,ブソウニヤク,0
1689,7190001032018,新規,0,2025-02-20,2025-02-20,株式会社Ｌｕｍｉｎａ,,株式会社,三重県,鈴鹿市,国府町５６４６番地の２０２,,24,207,5130836,,,,,,,2025-02-20,1,,,,,ルミナ,0
1691,7190003004948,新規,0,2025-02-20,2025-02-20,山田建築合同会社,,合同会社,三重県,桑名市,大字上深谷部３６７番地２３,,24,205,5110809,,,,,,,2025-02-20,1,,,,,ヤマダケンチク,0
1695,7220001026494,新規,0,2025-02-20,2025-02-20,ＲＥＤ・ＦＲＯＮＴ定置株式会社,,株式会社,石川県,輪島市,赤崎町ヌの３３番地,,17,204,9280053,,,,,,,2025-02-20,1,,,,,レッドフロントテイチ,0
1699,7260001039930,新規,0,2025-02-20,2025-02-20,京美インターナショナル株式会社,,株式会社,岡山県,岡山市北区,柳町１丁目１０番１５号２Ｆ,,33,101,7000904,,,,,,,2025-02-20,1,,,,,キョウビインターナショナル,0
1703,7290001109061,新規,0,2025-02-20,2025-02-20,秀峰リアルエステート・マネジメント株式会社,,株式会社,福岡県,大野城市,瓦田４丁目１４番２０号,,40,219,8160932,,,,,,,2025-02-20,1,,,,,シュウホウリアルエステートマネジメント,0
1706,7290005019653,新規,0,2025-02-20,2025-02-20,一般社団法人ＦＭＵ,,その他の設立登記法人,福岡県,福岡市南区,的場１丁目２６番１１号,,40,134,8111314,,,,,,,2025-02-20,1,,,,,エフエムユー,0
1707,7290801031290,新規,0,2025-02-20,2025-02-20,アクアアップ株式会社,,株式会社,福岡県,北九州市小倉北区,三郎丸３丁目１１番８号,,40,106,8020061,,,,,,,2025-02-20,1,,,,,アクアアップ,0
1710,7310001019456,新規,0,2025-02-20,2025-02-20,株式会社Ａｃｔ,,株式会社,長崎県,佐世保市,瀬戸越１丁目１６０７番地２５,,42,202,8570134,,,,,,,2025-02-20,1,,,,,アクト,0
1711,7330003010774,新規,0,2025-02-20,2025-02-20,合同会社桜キッチン,,合同会社,熊本県,熊本市中央区,八王寺町３８番６号,,43,101,8600831,,,,,,,2025-02-20,1,,,,,サクラキッチン,0
1712,7330003010857,新規,0,2025-02-20,2025-02-20,合同会社エンビー,,合同会社,熊本県,熊本市南区,御幸笛田２丁目２０番９３－５号,,43,104,8614172,,,,,,,2025-02-20,1,,,,,エンビー,0
1722,7360001034806,新規,0,2025-02-20,2025-02-20,満心企画株式会社,,株式会社,沖縄県,那覇市,西１丁目４番３号しんきマンション４０１号室,,47,201,9000036,,,,,,,2025-02-20,1,,,,,マンシンキカク,0
1729,7380001035109,新規,0,2025-02-20,2025-02-20,株式会社Ｌｅｎｉｓ,,株式会社,福島県,福島市,飯野町字原田５７番地の３,,07,201,9601301,,,,,,,2025-02-20,1,,,,,レーニス,0
1736,7400003003399,新規,0,2025-02-20,2025-02-20,合同会社に干し屋,,合同会社,岩手県,盛岡市,月が丘３丁目２９番１９号,,03,201,0200121,,,,,,,2025-02-20,1,,,,,ニボシヤ,0
1738,7500001026152,新規,0,2025-02-20,2025-02-20,株式会社聚興商事,,株式会社,愛媛県,四国中央市,豊岡町長田７６１番地１,,38,213,7990435,,,,,,,2025-02-20,1,,,,,シュウキショウジ,0
1742,7700150129264,新規,0,2025-02-20,2025-02-20,株式会社スカイウォーク,,外国会社等,東京都,港区,虎ノ門２丁目４番７号　Ｔ－ＬＩＴＥビル１６Ｆ８号室,,13,103,1050001,大韓民国京畿道城南市盆唐区城南大路３３１ギル８、９階（亭子洞、キンスタワー）,,,,,,2025-02-20,1,,,,,カブシキガイシヤスカイウオーク,0
1749,8010001252160,新規,0,2025-02-20,2025-02-20,Ｂｅｎｓａｍ株式会社,,株式会社,東京都,中央区,銀座１丁目１２番４号Ｎ＆ＥＢＬＤ．６Ｆ,,13,102,1040061,,,,,,,2025-02-20,1,,,,,ベンサム,0
1750,8010001252268,新規,0,2025-02-20,2025-02-20,ＬａｖａＴｅｃｈＪａｐａｎ株式会社,,株式会社,東京都,中央区,日本橋兜町１７番１の３０２号室,,13,102,1030026,,,,,,,2025-02-20,1,,,,,ラバテックジャパン,0
1751,8010001252400,新規,0,2025-02-20,2025-02-20,スピンフィットトレーディング株式会社,,株式会社,東京都,中央区,日本橋人形町２丁目３２番１２号ＪＥＣＴＯＮＥ人形町ビル４Ｆ,,13,102,1030013,,,,,,,2025-02-20,1,,,,,スピンフィットトレーディング,0
1752,8010001252433,新規,0,2025-02-20,2025-02-20,株式会社３Ｅｙｅ,,株式会社,東京都,中央区,銀座１丁目８番７号,,13,102,1040061,,,,,,,2025-02-20,1,,,,,スリーアイ,0
1753,8010001252508,新規,0,2025-02-20,2025-02-20,ターコイズマリンインベストメント株式会社,,株式会社,東京都,千代田区,大手町１丁目４番２号,,13,101,1000004,,,,,,,2025-02-20,1,,,,,ターコイズマリンインベストメント,0
1754,8010001252516,新規,0,2025-02-20,2025-02-20,株式会社茜,,株式会社,東京都,千代田区,神田錦町３丁目７－２東京堂錦町ビル８階,,13,101,1010054,,,,,,,2025-02-20,1,,,,,アカネ,0
1755,8010001252524,新規,0,2025-02-20,2025-02-20,ＫＫＡＬ株式会社,,株式会社,東京都,千代田区,霞が関３丁目２番５号,,13,101,1000013,,,,,,,2025-02-20,1,,,,,ケーケーエーエル,0
1756,8010001252565,新規,0,2025-02-20,2025-02-20,Ｅｓｅｎｃｉａ株式会社,,株式会社,東京都,中央区,銀座１丁目１２－４Ｎ＆ＥＢＬＤ．７階,,13,102,1040061,,,,,,,2025-02-20,1,,,,,エセンシア,0
1759,8010003046445,新規,0,2025-02-20,2025-02-20,後楽園住宅内外装合同会社,,合同会社,東京都,文京区,本郷２丁目３番２号,,13,105,1130033,,,,,,,2025-02-20,1,,,,,コウラクエンジュウタクナイガイソウ,0
1760,8010003046478,新規,0,2025-02-20,2025-02-20,ＪＰＳＷＢ第１号合同会社,,合同会社,東京都,千代田区,霞が関３丁目２番１号,,13,101,1000013,,,,,,,2025-02-20,1,,,,,ジェイピーエスダブリュービーダイイチゴウ,0
1761,8010003046486,新規,0,2025-02-20,2025-02-20,ＭＭ　Ｃｏｌｌｅｃｔｉｖｅ合同会社,,合同会社,東京都,中央区,銀座１丁目２２番１１号銀座大竹ビジデンス２Ｆ,,13,102,1040061,,,,,,,2025-02-20,1,,,,,エムエムコレクティブ,0
1762,8010003046494,新規,0,2025-02-20,2025-02-20,合同会社カジィ・フィルムズ,,合同会社,東京都,文京区,春日２丁目１１－１３－３０６,,13,105,1120003,,,,,,,2025-02-20,1,,,,,カジィフィルムズ,0
1763,8010003046503,新規,0,2025-02-20,2025-02-20,ブルーサンダー合同会社,,合同会社,東京都,中央区,日本橋１丁目４番１号,,13,102,1030027,,,,,,,2025-02-20,1,,,,,ブルーサンダー,0
1764,8010005039604,新規,0,2025-02-20,2025-02-20,一般社団法人ＭＲＦ２,,その他の設立登記法人,東京都,千代田区,丸の内１丁目４番１号東京共同会計事務所内,,13,101,1000005,,,,,,,2025-02-20,1,,,,,エムアールエフツー,0
1765,8010101007547,新規,0,2025-02-20,2025-02-20,株式会社青木不動産建物サービス,,株式会社,東京都,八王子市,絹ケ丘２丁目２２番１号,,13,201,1920912,,,,,,,2025-02-20,1,,,,,アオキフドウサンタテモノサービス,0
1767,8010101016531,新規,0,2025-02-20,2025-02-20,株式会社横山工業,,株式会社,東京都,八王子市,上柚木２丁目８７２番地１８,,13,201,1920373,,,,,,,2025-02-20,1,,,,,ヨコヤマコウギョウ,0
1773,8010401188319,新規,0,2025-02-20,2025-02-20,株式会社Ｒｅｓｏｎａｎｃｅ,,株式会社,東京都,港区,西麻布４丁目１４番１２号,,13,103,1060031,,,,,,,2025-02-20,1,,,,,レゾナンス,0
1774,8010401188327,新規,0,2025-02-20,2025-02-20,株式会社ＥＹＥ　ＯＦＦＩＣＥ,,株式会社,東京都,港区,南青山３丁目１番３６号青山丸竹ビル６Ｆ,,13,103,1070062,,,,,,,2025-02-20,1,,,,,イーワイイーオフィス,0
1775,8010401188351,新規,0,2025-02-20,2025-02-20,株式会社サナリィ,,株式会社,東京都,港区,南青山３丁目１番３６号青山丸竹ビル６Ｆ,,13,103,1070062,,,,,,,2025-02-20,1,,,,,サナリィ,0
1776,8010403034446,新規,0,2025-02-20,2025-02-20,桜坂キャピタル合同会社,,合同会社,東京都,港区,赤坂１丁目１２番２０－２０３号,,13,103,1070052,,,,,,,2025-02-20,1,,,,,サクラザカキャピタル,0
1778,8010405024115,新規,0,2025-02-20,2025-02-20,特定目的会社ＰＣ１,,その他の設立登記法人,東京都,港区,元赤坂１丁目１番８号株式会社赤坂国際会計内,,13,103,1070051,,,,,,,2025-02-20,1,,,,,ピーシーワン,0
1781,8010503007731,新規,0,2025-02-20,2025-02-20,ダックスＩＴコンサルティング合同会社,,合同会社,東京都,台東区,小島２丁目１８番２－５０２号,,13,106,1110056,,,,,,,2025-02-20,1,,,,,ダックスアイティコンサルティング,0
1783,8010601066803,新規,0,2025-02-20,2025-02-20,株式会社レイコンサルティング,,株式会社,東京都,墨田区,江東橋１丁目５－１１－８０２号室,,13,107,1300022,,,,,,,2025-02-20,1,,,,,レイコンサルティング,0
1784,8010603011385,新規,0,2025-02-20,2025-02-20,合同会社Ｎｅｘｔｒａｔｉｏｎ,,合同会社,東京都,墨田区,文花１丁目１８－１３,,13,107,1310044,,,,,,,2025-02-20,1,,,,,ネクストレーション,0
1785,8010605004412,新規,0,2025-02-20,2025-02-20,一般社団法人ブラッシュアップ,,その他の設立登記法人,東京都,江東区,猿江１丁目３番３号,,13,108,1350003,,,,,,,2025-02-20,1,,,,,ブラッシュアップ,0
1786,8010703007580,新規,0,2025-02-20,2025-02-20,合同会社Ｆｕｔｕｒｅコンサルティング,,合同会社,東京都,品川区,大井４丁目２９番３７号ヒカリテラスＡ棟,,13,109,1400014,,,,,,,2025-02-20,1,,,,,フューチャーコンサルティング,0
1797,8011001167803,新規,0,2025-02-20,2025-02-20,株式会社Ｎｅｏ冬虫夏草Ｊａｐａｎ,,株式会社,東京都,渋谷区,渋谷２丁目１９－１５宮益坂ビルディング６０９,,13,113,1500002,,,,,,,2025-02-20,1,,,,,ネオトウチュウカソウジャパン,0
1798,8011001167811,新規,0,2025-02-20,2025-02-20,ＳｕＩＣａ　Ｆｉｒｍ株式会社,,株式会社,東京都,渋谷区,恵比寿４丁目１９－３ＢＡＣＨＯＵＳＥ,,13,113,1500013,,,,,,,2025-02-20,1,,,,,スイカファーム,0
1800,8011003020992,新規,0,2025-02-20,2025-02-20,合同会社Ｂｅ　ｍａａｍ,,合同会社,東京都,渋谷区,道玄坂１丁目１０番８号渋谷道玄坂東急ビル２Ｆ－Ｃ,,13,113,1500043,,,,,,,2025-02-20,1,,,,,ビイマアム,0
1801,8011003021058,新規,0,2025-02-20,2025-02-20,合同会社Ｍｉｒａｉ．ｙ,,合同会社,東京都,目黒区,自由が丘２丁目１６番１２号ＲＪ３,,13,110,1520035,,,,,,,2025-02-20,1,,,,,ミライドットワイ,0
1808,8011101110712,新規,0,2025-02-20,2025-02-20,株式会社エスフィールド,,株式会社,東京都,新宿区,西新宿３丁目３番１３号西新宿水間ビル６階,,13,104,1600023,,,,,,,2025-02-20,1,,,,,エスフィールド,0
1809,8011101110720,新規,0,2025-02-20,2025-02-20,株式会社メディトピア,,株式会社,東京都,新宿区,西新宿３丁目３番１３号西新宿水間ビル６階,,13,104,1600023,,,,,,,2025-02-20,1,,,,,メディトピア,0
1810,8011103015538,新規,0,2025-02-20,2025-02-20,合同会社ＢｉｔＦｌａｐ,,合同会社,東京都,新宿区,西新宿３丁目３番１３号西新宿水間ビル２Ｆ,,13,104,1600023,,,,,,,2025-02-20,1,,,,,ビットフラップ,0
1811,8011103015554,新規,0,2025-02-20,2025-02-20,合同会社ＡＩエンカレッジ,,合同会社,東京都,新宿区,西新宿６丁目２０番７－３９１２号,,13,104,1600023,,,,,,,2025-02-20,1,,,,,エーアイエンカレッジ,0
1812,8011103015570,新規,0,2025-02-20,2025-02-20,Ｎ合同会社,,合同会社,東京都,新宿区,西新宿３丁目３番１３号西新宿水間ビル６階,,13,104,1600023,,,,,,,2025-02-20,1,,,,,エヌ,0
1813,8011105011345,新規,0,2025-02-20,2025-02-20,一般社団法人明大卓球マネジメント,,その他の設立登記法人,東京都,新宿区,新宿４丁目１番６号ＪＲ新宿ミライナタワー１８階（株式会社ＨＬＢスポーツ内）,,13,104,1600022,,,,,,,2025-02-20,1,,,,,メイダイタッキュウマネジメント,0
1827,8012301014257,新規,0,2025-02-20,2025-02-20,鋭賜株式会社,,株式会社,東京都,町田市,木曽西５丁目２８－３１モンシャトー木曽３０３号室,,13,209,1940037,,,,,,,2025-02-20,1,,,,,エイシ,0
1831,8012401042802,新規,0,2025-02-20,2025-02-20,卯月資産管理法人株式会社,,株式会社,東京都,三鷹市,牟礼７丁目１番１２号,,13,204,1810002,,,,,,,2025-02-20,1,,,,,ウヅキシサンカンリホウジン,0
1832,8012403006978,新規,0,2025-02-20,2025-02-20,合同会社ＫＩＥラーメン,,合同会社,東京都,三鷹市,下連雀３丁目３１番１０号,,13,204,1810013,,,,,,,2025-02-20,1,,,,,ケイアイイーラーメン,0
1834,8012803003641,新規,0,2025-02-20,2025-02-20,合同会社ありのまま,,合同会社,東京都,国分寺市,並木町２丁目１１番地５,,13,214,1850005,,,,,,,2025-02-20,1,,,,,アリノママ,0
1835,8013103001402,新規,0,2025-02-20,2025-02-20,奥多摩みらい創造合同会社,,合同会社,東京都,西多摩郡奥多摩町,氷川１４３９,,13,308,1980212,,,,,,,2025-02-20,1,,,,,オクタマミライソウゾウ,0
1845,8020001161410,新規,0,2025-02-20,2025-02-20,株式会社オプティマイズ,,株式会社,神奈川県,横浜市青葉区,美しが丘西２丁目２０番地２３,,14,117,2250001,,,,,,,2025-02-20,1,,,,,オプティマイズ,0
1846,8020001161419,新規,0,2025-02-20,2025-02-20,株式会社Ｋｕｋｕｎａ,,株式会社,神奈川県,横浜市港南区,芹が谷２丁目６番２７－７号,,14,111,2330006,,,,,,,2025-02-20,1,,,,,ククナ,0
1847,8020001161559,新規,0,2025-02-20,2025-02-20,ガトウリア株式会社,,株式会社,神奈川県,横浜市鶴見区,東寺尾１丁目２５番８号,,14,101,2300077,,,,,,,2025-02-20,1,,,,,ガトウリア,0
1850,8020003027840,新規,0,2025-02-20,2025-02-20,合同会社ＰＥＮＴＡＳ．,,合同会社,神奈川県,横浜市都筑区,牛久保東２丁目１６番１４号,,14,118,2240014,,,,,,,2025-02-20,1,,,,,ペンタス,0
1851,8020003027865,新規,0,2025-02-20,2025-02-20,合同会社神大寺企画,,合同会社,神奈川県,横浜市神奈川区,神大寺３丁目４番８号鈴木ビル１０３号,,14,102,2210801,,,,,,,2025-02-20,1,,,,,カンダイジ,0
1853,8021001084502,新規,0,2025-02-20,2025-02-20,株式会社ＬＩＷＥＬＴ,,株式会社,神奈川県,座間市,入谷西２丁目２９番２６号,,14,216,2520029,,,,,,,2025-02-20,1,,,,,リヴェルト,0
1860,8021003015587,新規,0,2025-02-20,2025-02-20,ＪＡＮＡＮＩ　ＩＮＴＥＲＮＡＴＩＯＮＡＬ合同会社,,合同会社,神奈川県,相模原市中央区,田名４８７５番地１,,14,152,2520244,,,,,,,2025-02-20,1,,,,,ジャナニインターナショナル,0
1863,8030001164882,新規,0,2025-02-20,2025-02-20,美輝国際株式会社,,株式会社,埼玉県,さいたま市浦和区,仲町１丁目１３－８コジーハウス浦和４０１,,11,107,3300062,,,,,,,2025-02-20,1,,,,,ミキコクサイ,0
1864,8030001164899,新規,0,2025-02-20,2025-02-20,株式会社のうこつの窓口,,株式会社,埼玉県,越谷市,北越谷２丁目３番５号,,11,222,3430026,,,,,,,2025-02-20,1,,,,,ノウコツノマドグチ,0
1865,8030001164932,新規,0,2025-02-20,2025-02-20,株式会社三幸,,株式会社,埼玉県,上尾市,大字平塚字西原７６０番７号,,11,219,3620011,,,,,,,2025-02-20,1,,,,,サンコウ,0
1869,8030005022046,新規,0,2025-02-20,2025-02-20,一般社団法人加須経済同友会,,その他の設立登記法人,埼玉県,加須市,南篠崎１丁目３番地３,,11,210,3470017,,,,,,,2025-02-20,1,,,,,カゾケイザイドウユウカイ,0
1879,8040001137474,新規,0,2025-02-20,2025-02-20,株式会社エイト,,株式会社,千葉県,柏市,あかね町３０番６－２０４号,,12,217,2770027,,,,,,,2025-02-20,1,,,,,エイト,0
1880,8040001137490,新規,0,2025-02-20,2025-02-20,ＨＡＰＰＹ　ＨＯＭＥ株式会社,,株式会社,千葉県,鎌ケ谷市,東初富５丁目２０番７７号サンケイハイツ１階１０１号室,,12,224,2730122,,,,,,,2025-02-20,1,,,,,ハッピーホーム,0
1882,8040003026931,新規,0,2025-02-20,2025-02-20,Ｇ＆Ｗ　ＩＮＴＥＲＮＡＴＩＯＮＡＬ合同会社,,合同会社,千葉県,柏市,高柳９３３番地２１,,12,217,2770941,,,,,,,2025-02-20,1,,,,,ジーアンドダブリューインターナショナル,0
1896,8110003005671,新規,0,2025-02-20,2025-02-20,合同会社ａｍｂｅｒ,,合同会社,新潟県,西蒲原郡弥彦村,大字矢作６８２７番地３,,15,342,9590305,,,,,,,2025-02-20,1,,,,,アンバー,0
1901,8120001273039,新規,0,2025-02-20,2025-02-20,ＴＭＴマネジメント株式会社,,株式会社,大阪府,大阪市中央区,南本町２丁目６番５号ファースト船場１０階,,27,128,5410054,,,,,,,2025-02-20,1,,,,,ティーエムティーマネジメント,0
1902,8120001273105,新規,0,2025-02-20,2025-02-20,順水株式会社,,株式会社,大阪府,大阪市西成区,天下茶屋北１丁目１番８号,,27,122,5570003,,,,,,,2025-02-20,1,,,,,ジュンスイ,0
1903,8120001273121,新規,0,2025-02-20,2025-02-20,株式会社Ｌｕｍｉｎｅｘ,,株式会社,大阪府,大阪市中央区,久太郎町４丁目１番３号大阪センタービル６Ｆ－３４３,,27,128,5410056,,,,,,,2025-02-20,1,,,,,ルミネックス,0
1904,8120003028572,新規,0,2025-02-20,2025-02-20,ＡＣＲＯＳＳ合同会社,,合同会社,大阪府,大阪市北区,曾根崎２丁目１６－１９メッセージ梅田ビル１階,,27,127,5300057,,,,,,,2025-02-20,1,,,,,アクロス,0
1905,8120003028688,新規,0,2025-02-20,2025-02-20,ＮＧＯＣ　ＢＩＣＨ合同会社,,合同会社,大阪府,大阪市東成区,大今里３丁目３番４号,,27,115,5370012,,,,,,,2025-02-20,1,,,,,ゴックビック,0
1908,8122003003126,新規,0,2025-02-20,2025-02-20,合同会社リンズ,,合同会社,大阪府,柏原市,清州１丁目３－３３サングレース柏原１Ｆ,,27,221,5820006,,,,,,,2025-02-20,1,,,,,リンズ,0
1912,8130003010208,新規,0,2025-02-20,2025-02-20,合同会社祐人,,合同会社,京都府,与謝郡与謝野町,字幾地５３３－７,,26,465,6292311,,,,,,,2025-02-20,1,,,,,ユウト,0
1922,8140001137431,新規,0,2025-02-20,2025-02-20,株式会社ネクストグレス,,株式会社,兵庫県,尼崎市,北城内８８番地１０５、４０２号室,,28,202,6600826,,,,,,,2025-02-20,1,,,,,ネクストグレス,0
1923,8140001137464,新規,0,2025-02-20,2025-02-20,株式会社ゴルフスタジオモッチー,,株式会社,兵庫県,三田市,西山２丁目１０番３２－２－１０４号,,28,219,6691537,,,,,,,2025-02-20,1,,,,,ゴルフスタジオモッチー,0
1924,8140001137497,新規,0,2025-02-20,2025-02-20,Ｆａｒｍｅｒ’ｓ　ｂｅｅ株式会社,,株式会社,兵庫県,加東市,山国２０１３番地１２５,,28,228,6731421,,,,,,,2025-02-20,1,,,,,ファーマーズビー,0
1925,8140005027380,新規,0,2025-02-20,2025-02-20,一般社団法人ＴＯＩＲＯ,,その他の設立登記法人,兵庫県,豊岡市,日高町日置３８番地の１,,28,209,6695311,,,,,,,2025-02-20,1,,,,,トイロ,0
1934,8180001165445,新規,0,2025-02-20,2025-02-20,ＡＭＡＮＡＨ株式会社,,株式会社,愛知県,名古屋市中村区,佐古前町４番２８号鳥居荘２階「二」室,,23,105,4530018,,,,,,,2025-02-20,1,,,,,アマナー,0
1935,8180001165536,新規,0,2025-02-20,2025-02-20,株式会社未来,,株式会社,愛知県,小牧市,大字二重堀６９０番地１,,23,219,4850021,,,,,,,2025-02-20,1,,,,,ミライ,0
1936,8180001165544,新規,0,2025-02-20,2025-02-20,株式会社ＡｔｏＲ,,株式会社,愛知県,名古屋市守山区,泉が丘１５１２番地,,23,113,4630804,,,,,,,2025-02-20,1,,,,,エイトゥアール,0
1937,8180001165552,新規,0,2025-02-20,2025-02-20,株式会社アルク,,株式会社,愛知県,春日井市,熊野町２９５１番地２４,,23,206,4860822,,,,,,,2025-02-20,1,,,,,アルク,0
1939,8180005020951,新規,0,2025-02-20,2025-02-20,一般社団法人ペリドット,,その他の設立登記法人,愛知県,春日井市,上条町３丁目１６３プリミエール上三１－１２２,,23,206,4860833,,,,,,,2025-02-20,1,,,,,ペリドット,0
1949,8220001026493,新規,0,2025-02-20,2025-02-20,株式会社Ｔ‐ｃｏｎｎｅｃｔ,,株式会社,石川県,金沢市,福増町北１０６０番地,,17,201,9200376,,,,,,,2025-02-20,1,,,,,ティーコネクト,0
1952,8230001020751,新規,0,2025-02-20,2025-02-20,株式会社ＡＲＥＵＳ,,株式会社,富山県,滑川市,上小泉２１６１番地５,,16,206,9360053,,,,,,,2025-02-20,1,,,,,アレウス,0
1953,8240001064525,新規,0,2025-02-20,2025-02-20,株式会社ルピナス,,株式会社,広島県,福山市,神辺町字徳田７９５番地７,,34,207,7202126,,,,,,,2025-02-20,1,,,,,ルピナス,0
1972,8290003016445,新規,0,2025-02-20,2025-02-20,ＯＭＥＮＡ合同会社,,合同会社,福岡県,福岡市早良区,昭代３丁目９番３８－１０１号,,40,137,8140012,,,,,,,2025-02-20,1,,,,,オメナ,0
1978,8330003010856,新規,0,2025-02-20,2025-02-20,合同会社アライアンス,,合同会社,熊本県,熊本市西区,上熊本３丁目１６番１７号、２Ｆ－Ｂ号,,43,103,8600079,,,,,,,2025-02-20,1,,,,,アライアンス,0
1980,8340001027133,新規,0,2025-02-20,2025-02-20,株式会社幸,,株式会社,鹿児島県,大島郡喜界町,大字赤連字中地２１７１番地,,46,529,8916201,,,,,,,2025-02-20,1,,,,,コウ,0
1985,8360005007179,新規,0,2025-02-20,2025-02-20,一般社団法人がん疼痛治療普及研究会,,その他の設立登記法人,沖縄県,うるま市,勝連南風原３４９５番地８,,47,213,9042311,,,,,,,2025-02-20,1,,,,,ガントウツウチリョウフキュウケンキュウカイ,0
1997,8500001026151,新規,0,2025-02-20,2025-02-20,株式会社きわみ,,株式会社,愛媛県,松山市,山越４丁目２番５号,,38,201,7918013,,,,,,,2025-02-20,1,,,,,キワミ,0
2000,8700150129255,新規,0,2025-02-20,2025-02-20,ＵＮＩＴＥＤ　ＧＬＡＳＳ　ＨＯＵＳＥ　ＡＮＤ　ＨＡＲＤＷＡＲＥ,,外国会社等,神奈川県,綾瀬市,深谷中６丁目１－６６　メゾン大邸２０２,,14,218,2521107,スリランカ民主社会主義共和国、ヘンマタガマ、メインストリートＮｏ．１,,,,,,2025-02-20,1,,,,,ユナイテツドグラスハウスアンドハードウエア,0
2001,8700150129263,新規,0,2025-02-20,2025-02-20,アイディアス２シリコン株式会社日本支店,,外国会社等,東京都,狛江市,岩戸北２丁目１５番６号,,13,219,2010004,大邱広域市北区延岩路４０、市役所別館２０２棟５０３号（山格洞）,,,,,,2025-02-20,1,,,,,アイデイアストウシリコンカブシキガイシヤニホンシテン,0
2006,9010001252267,新規,0,2025-02-20,2025-02-20,ＡＵＴＯＸ３ＪＡＰＡＮ株式会社,,株式会社,東京都,中央区,日本橋兜町１７番１の３０２号室,,13,102,1030026,,,,,,,2025-02-20,1,,,,,オートエックスサンジャパン,0
2007,9010001252457,新規,0,2025-02-20,2025-02-20,源来商事株式会社,,株式会社,東京都,千代田区,神田神保町３丁目３番地,,13,101,1010051,,,,,,,2025-02-20,1,,,,,ゲンライショウジ,0
2008,9010001252465,新規,0,2025-02-20,2025-02-20,ＨＰリニューエナジー株式会社,,株式会社,東京都,中央区,銀座７丁目１３－２０銀座ＴＨビル９階,,13,102,1040061,,,,,,,2025-02-20,1,,,,,エイチピーリニューエナジー,0
2009,9010001252473,新規,0,2025-02-20,2025-02-20,株式会社Ｔｒｕｓｔ,,株式会社,東京都,中央区,日本橋３丁目２－１４新槇町ビル別館第一２階,,13,102,1030027,,,,,,,2025-02-20,1,,,,,トラスト,0
2010,9010001252481,新規,0,2025-02-20,2025-02-20,株式会社レアリンク,,株式会社,東京都,中央区,銀座１丁目１２番４号Ｎ＆Ｅ・ＢＬＤ．７階,,13,102,1040061,,,,,,,2025-02-20,1,,,,,レアリンク,0
2011,9010001252515,新規,0,2025-02-20,2025-02-20,Ｌｕｎａｍａｃｈｉａ株式会社,,株式会社,東京都,千代田区,神田佐久間町３丁目２８星野ビル四階１３号室,,13,101,1010025,,,,,,,2025-02-20,1,,,,,ラナマッチア,0
2012,9010001252523,新規,0,2025-02-20,2025-02-20,株式会社ショップトーク,,株式会社,東京都,中央区,日本橋室町１丁目１１番１２号日本橋水野ビル７階,,13,102,1030022,,,,,,,2025-02-20,1,,,,,ショップトーク,0
2014,9010003046477,新規,0,2025-02-20,2025-02-20,ＪＰＳＰＰＡ第４号合同会社,,合同会社,東京都,千代田区,霞が関３丁目２番１号,,13,101,1000013,,,,,,,2025-02-20,1,,,,,ジェイピーエスピーピーエーダイヨンゴウ,0
2015,9010003046485,新規,0,2025-02-20,2025-02-20,日本津鵬製薬合同会社,,合同会社,東京都,中央区,銀座１丁目２２番１１号銀座大竹ビジデンス２Ｆ,,13,102,1040061,,,,,,,2025-02-20,1,,,,,ニホンツホウセイヤク,0
2016,9010003046493,新規,0,2025-02-20,2025-02-20,合同会社ＲｉｔａＳＨＡ,,合同会社,東京都,中央区,日本橋室町１丁目１１番１２号日本橋水野ビル７階,,13,102,1030022,,,,,,,2025-02-20,1,,,,,リタシャ,0
2020,9010005039611,新規,0,2025-02-20,2025-02-20,日本橋１２一般社団法人,,その他の設立登記法人,東京都,千代田区,丸の内１丁目４番１号東京共同会計事務所内,,13,101,1000005,,,,,,,2025-02-20,1,,,,,ニホンバシトゥエルブ,0
2024,9010401188350,新規,0,2025-02-20,2025-02-20,株式会社Ｂｒａｖａｓ,,株式会社,東京都,港区,南青山２丁目２番１５号,,13,103,1070062,,,,,,,2025-02-20,1,,,,,ブラバス,0
2025,9010401188391,新規,0,2025-02-20,2025-02-20,地域防災サービス株式会社,,株式会社,東京都,港区,新橋３丁目７－３新橋フォディアビル６Ｆ,,13,103,1050004,,,,,,,2025-02-20,1,,,,,チイキボウサイサービス,0
2027,9010403034429,新規,0,2025-02-20,2025-02-20,合同会社エヌパワー２,,合同会社,東京都,港区,麻布十番４丁目４－１ツイン一の橋２号館５号,,13,103,1060045,,,,,,,2025-02-20,1,,,,,エヌパワーニ,0
2028,9010403034445,新規,0,2025-02-20,2025-02-20,合同会社ＩＭＩ,,合同会社,東京都,港区,北青山１丁目３番１号,,13,103,1070061,,,,,,,2025-02-20,1,,,,,アイエムアイ,0
2032,9010603011392,新規,0,2025-02-20,2025-02-20,合同会社矢野興業,,合同会社,東京都,江東区,海辺１５番６号,,13,108,1350012,,,,,,,2025-02-20,1,,,,,ヤノコウギョウ,0
2037,9010903009723,新規,0,2025-02-20,2025-02-20,合同会社ＮＮ,,合同会社,東京都,世田谷区,深沢４丁目３３番１７号,,13,112,1580081,,,,,,,2025-02-20,1,,,,,エヌエヌ,0
2045,9011001167760,新規,0,2025-02-20,2025-02-20,リアス株式会社,,株式会社,東京都,渋谷区,代々木３丁目４１番１号,,13,113,1510053,,,,,,,2025-02-20,1,,,,,リアス,0
2046,9011001167810,新規,0,2025-02-20,2025-02-20,株式会社ＦＵＫＡＳＡＷＡ,,株式会社,東京都,目黒区,青葉台３丁目６番２８－３００４号,,13,110,1530042,,,,,,,2025-02-20,1,,,,,フカサワ,0
2047,9011001167959,新規,0,2025-02-20,2025-02-20,株式会社ＬＥＯＲＣＡ,,株式会社,東京都,渋谷区,笹塚３丁目５４番１号,,13,113,1510073,,,,,,,2025-02-20,1,,,,,レオルカ,0
2048,9011003021040,新規,0,2025-02-20,2025-02-20,合同会社Ｅｒａ　ｂｅｒｒｉｅｓ,,合同会社,東京都,渋谷区,代々木２丁目３０－４,,13,113,1510053,,,,,,,2025-02-20,1,,,,,エラベリーズ,0
2050,9011005010867,新規,0,2025-02-20,2025-02-20,一般社団法人Ｇｏｏｄ　Ｐｒｏｊｅｃｔ　Ａｓｓｏｃｉａｔｉｏｎ,,その他の設立登記法人,東京都,渋谷区,神宮前４丁目２６番２８号２階,,13,113,1500001,,,,,,,2025-02-20,1,,,,,グッドプロジェクトアソシエーション,0
2052,9011101110620,新規,0,2025-02-20,2025-02-20,株式会社Ｂ＆Ｐ,,株式会社,東京都,新宿区,住吉町２番１０号,,13,104,1620065,,,,,,,2025-02-20,1,,,,,ビーアンドピー,0
2053,9011101110645,新規,0,2025-02-20,2025-02-20,株式会社ＣＯＬＬＥ　ＣＯＬＯＲ,,株式会社,東京都,新宿区,西新宿７丁目２１－９天翔オフィス新宿３０３,,13,104,1600023,,,,,,,2025-02-20,1,,,,,コレカラー,0
2054,9011101110694,新規,0,2025-02-20,2025-02-20,株式会社Ｗｉｔｈ　ｔｈｅ　Ｓｕｐｐｏｒｔ,,株式会社,東京都,新宿区,矢来町１１５番地東海神楽坂マンション７０２,,13,104,1620805,,,,,,,2025-02-20,1,,,,,ウィズザサポート,0
2056,9011103015561,新規,0,2025-02-20,2025-02-20,合同会社スターライト,,合同会社,東京都,新宿区,西新宿７丁目１９番１４－１３０６号,,13,104,1600023,,,,,,,2025-02-20,1,,,,,スターライト,0
2057,9011105011344,新規,0,2025-02-20,2025-02-20,一般社団法人東京女子医科大学循環器内科同門会,,その他の設立登記法人,東京都,新宿区,河田町８番１号,,13,104,1620054,,,,,,,2025-02-20,1,,,,,トウキョウジョシイカダイガクジュンカンキナイカドウモンカイ,0
2058,9011301030370,新規,0,2025-02-20,2025-02-20,株式会社ＩＴ企画,,株式会社,東京都,杉並区,高井戸西２丁目１０番２６号プラウド富士見ヶ丘１０３,,13,115,1680071,,,,,,,2025-02-20,1,,,,,アイティーキカク,0
2075,9020001161500,新規,0,2025-02-20,2025-02-20,株式会社はるなお,,株式会社,神奈川県,横浜市栄区,本郷台３丁目１３番１６号,,14,115,2470008,,,,,,,2025-02-20,1,,,,,ハルナオ,0
2076,9020001161566,新規,0,2025-02-20,2025-02-20,株式会社タリックス・アドバイザリー,,株式会社,神奈川県,川崎市宮前区,土橋２丁目１６番地２,,14,136,2160005,,,,,,,2025-02-20,1,,,,,タリックスアドバイザリー,0
2082,9020003027889,新規,0,2025-02-20,2025-02-20,合同会社ちょっとそこまで,,合同会社,神奈川県,横浜市中区,北方町１丁目７４－３７,,14,104,2310865,,,,,,,2025-02-20,1,,,,,チョットソコマデ,0
2092,9030001164898,新規,0,2025-02-20,2025-02-20,株式会社Ｋｏｍｏｒｅｂｉ,,株式会社,埼玉県,富士見市,大字水子４６９０番地１グランビスタ２０５,,11,235,3540011,,,,,,,2025-02-20,1,,,,,コモレビ,0
2093,9030001164915,新規,0,2025-02-20,2025-02-20,幸和株式会社,,株式会社,埼玉県,さいたま市見沼区,大字南中丸１０７９番地４２,,11,104,3370041,,,,,,,2025-02-20,1,,,,,コウワ,0
2094,9030001164980,新規,0,2025-02-20,2025-02-20,ＣＲＧ　ＲｏｂｏＰａｌｍ株式会社,,株式会社,埼玉県,川口市,芝高木１丁目２２番３３,,11,203,3330868,,,,,,,2025-02-20,1,,,,,シーアールジーロボパーム,0
2096,9030003026139,新規,0,2025-02-20,2025-02-20,ティーアンドワイ合同会社,,合同会社,埼玉県,戸田市,本町２丁目６番５－２０３号,,11,224,3350023,,,,,,,2025-02-20,1,,,,,ティーアンドワイ,0
2104,9040003026930,新規,0,2025-02-20,2025-02-20,パールリバー稲毛合同会社,,合同会社,千葉県,千葉市稲毛区,園生町７０５番地３－４１９号,,12,103,2630051,,,,,,,2025-02-20,1,,,,,パールリバーイナゲ,0
2108,9050001056185,新規,0,2025-02-20,2025-02-20,株式会社ご縁,,株式会社,茨城県,土浦市,並木２丁目３番３号,,08,203,3000061,,,,,,,2025-02-20,1,,,,,ゴエン,0
2109,9050001056193,新規,0,2025-02-20,2025-02-20,Ｈ＆Ｌ株式会社,,株式会社,茨城県,下妻市,桐ケ瀬４４４番地,,08,210,3040073,,,,,,,2025-02-20,1,,,,,エイチアンドエル,0
2118,9070001042646,新規,0,2025-02-20,2025-02-20,富永不動産鑑定株式会社,,株式会社,群馬県,渋川市,渋川１３０２,,10,208,3770008,,,,,,,2025-02-20,1,,,,,トミナガフドウサンカンテイ,0
2123,9090001019147,新規,0,2025-02-20,2025-02-20,株式会社メイコーホールディングス,,株式会社,山梨県,甲斐市,下今井７３２番地,,19,210,4000105,,,,,,,2025-02-20,1,,,,,メイコーホールディングス,0
2130,9110005017185,新規,0,2025-02-20,2025-02-20,特定非営利活動法人つくりんく,,その他の設立登記法人,新潟県,小千谷市,東栄１丁目９‐１４,,15,208,9470004,,,,,,,2025-02-20,1,,,,,ツクリンク,0
2142,9120001272923,新規,0,2025-02-20,2025-02-20,三田株式会社,,株式会社,大阪府,大阪市生野区,巽南３丁目３番２号２Ｆ,00138077,27,116,5440015,,,,,,,2025-02-20,1,,,,,サンダ,0
2146,9120103006279,新規,0,2025-02-20,2025-02-20,合同会社ＲＯＳＳＯ,,合同会社,大阪府,和泉市,池田下町３１３番地２階,,27,219,5940032,,,,,,,2025-02-20,1,,,,,ロッソ,0
2147,9120901050478,新規,0,2025-02-20,2025-02-20,株式会社Ｓａｎｔｅ　Ｓｏｌｕｔｉｏｎｓ,,株式会社,大阪府,摂津市,千里丘東１丁目１８番２２－７０５号,,27,224,5660011,,,,,,,2025-02-20,1,,,,,サンテソリューションズ,0
2148,9120903005546,新規,0,2025-02-20,2025-02-20,合同会社ＴＡＬＥＯ,,合同会社,大阪府,豊中市,栗ケ丘町１３番１の２号,,27,203,5600016,,,,,,,2025-02-20,1,,,,,タレオ,0
2149,9120905006690,新規,0,2025-02-20,2025-02-20,一般社団法人ははこ,,その他の設立登記法人,大阪府,豊中市,寺内２丁目１０－１緑地野元ビル２０４,,27,203,5610872,,,,,,,2025-02-20,1,,,,,ハハコ,0
2151,9122001038908,新規,0,2025-02-20,2025-02-20,株式会社ヒカリエネクスト,,株式会社,大阪府,八尾市,東本町５丁目１－１４,,27,212,5810004,,,,,,,2025-02-20,1,,,,,ヒカリエネクスト,0
2154,9130001079038,新規,0,2025-02-20,2025-02-20,株式会社田中工業,,株式会社,京都府,京都市西京区,大原野南春日町１８７５,,26,111,6101153,,,,,,,2025-02-20,1,,,,,タナカコウギョウ,0
2158,9140001137496,新規,0,2025-02-20,2025-02-20,ＡＲＥＶ株式会社,,株式会社,兵庫県,神戸市中央区,元町通５丁目８－１５,,28,110,6500022,,,,,,,2025-02-20,1,,,,,アレブ,0
2162,9140003021673,新規,0,2025-02-20,2025-02-20,イロドリ合同会社,,合同会社,兵庫県,加古川市,別府町新野辺１０２６番地,,28,210,6750131,,,,,,,2025-02-20,1,,,,,イロドリ,0
2177,9180303006461,新規,0,2025-02-20,2025-02-20,合同会社みかんの木,,合同会社,愛知県,豊橋市,小松町１８番地,,23,201,4418109,,,,,,,2025-02-20,1,,,,,ミカンノキ,0
2178,9190001032008,新規,0,2025-02-20,2025-02-20,株式会社サンマウスホールディングス,,株式会社,三重県,桑名市,有楽町５２番地ライオンズ桑名駅前グランフォート６１０,,24,205,5110079,,,,,,,2025-02-20,1,,,,,サンマウスホールディングス,0
2185,9240001064549,新規,0,2025-02-20,2025-02-20,株式会社タカショウ,,株式会社,広島県,福山市,山手町２４０７番地,,34,207,7200092,,,,,,,2025-02-20,1,,,,,タカショウ,0
2195,9290001109043,新規,0,2025-02-20,2025-02-20,株式会社Ｓｅｒｖａｎｔ,,株式会社,福岡県,福岡市中央区,春吉２丁目９番１６－８０６号,,40,133,8100003,,,,,,,2025-02-20,1,,,,,サーバント,0
2200,9290801031280,新規,0,2025-02-20,2025-02-20,株式会社中央グリーンサービス,,株式会社,福岡県,北九州市小倉南区,横代北町４丁目１番８号,,40,107,8020821,,,,,,,2025-02-20,1,,,,,チュウオウグリーンサービス,0
2202,9300003002228,新規,0,2025-02-20,2025-02-20,合同会社Ｊｅｋｙｌｌ　ａｎｄ　Ｈｙｄｅ,,合同会社,佐賀県,三養基郡基山町,大字園部３５３８番地１,,41,341,8410203,,,,,,,2025-02-20,1,,,,,ジキルアンドハイド,0
2205,9330001032901,新規,0,2025-02-20,2025-02-20,株式会社電宮,,株式会社,熊本県,菊池市,旭志川辺８８６番地３,,43,210,8691205,,,,,,,2025-02-20,1,,,,,デングウ,0
2207,9330003010855,新規,0,2025-02-20,2025-02-20,合同会社ＴＴビル,,合同会社,熊本県,熊本市東区,月出５丁目１番７－１号,,43,102,8620920,,,,,,,2025-02-20,1,,,,,ティーティービル,0
2208,9340005009812,新規,0,2025-02-20,2025-02-20,社会福祉法人公起会みらいあまみ,,その他の設立登記法人,鹿児島県,奄美市,名瀬朝仁新町３５番地２３,,46,222,8940041,,,,,,,2025-02-20,1,,,,,コウキカイミライアマミ,0
2218,9360003014713,新規,0,2025-02-20,2025-02-20,合同会社ＹＵＲＡＹＵＲＡ,,合同会社,沖縄県,那覇市,牧志３丁目１番１９号,,47,201,9000013,,,,,,,2025-02-20,1,,,,,ユラユラ,0
2219,9360005007178,新規,0,2025-02-20,2025-02-20,一般社団法人久米門中,,その他の設立登記法人,沖縄県,糸満市,字喜屋武２２５番地１,,47,210,9010354,,,,,,,2025-02-20,1,,,,,クメムンチュウ,0
2221,9370001052268,新規,0,2025-02-20,2025-02-20,株式会社櫻井内装工業,,株式会社,宮城県,大崎市,鹿島台木間塚字大谷地２１０番地１,,04,215,9894102,,,,,,,2025-02-20,1,,,,,サクライナイソウコウギョウ,0
2231,9430001093727,新規,0,2025-02-20,2025-02-20,ＣｒｙｓｔａｌＭａｒｋ株式会社,,株式会社,北海道,札幌市中央区,南二条西５丁目３１－１ＲＭＢｌｄ．７０１,,01,101,0600062,,,,,,,2025-02-20,1,,,,,クリスタルマーク,0
2232,9460001005976,新規,0,2025-02-20,2025-02-20,ＲＪ　Ｔｒａｄｉｎｇ株式会社,,株式会社,北海道,釧路市,大楽毛３丁目線１８１番地１３,,01,206,0840917,,,,,,,2025-02-20,1,,,,,アールジェイトレーディング,0
2233,9470001020586,新規,0,2025-02-20,2025-02-20,株式会社Ｊ．ＰＬＡＮＮＩＮＧ,,株式会社,香川県,高松市,本町２番１８号,,37,201,7600032,,,,,,,2025-02-20,1,,,,,ジェイプランニング,0
2234,9470005006607,新規,0,2025-02-20,2025-02-20,医療法人瓦町矯正歯科,,その他の設立登記法人,香川県,高松市,瓦町２丁目６番２１号ラ・ブームビル２階,,37,201,7600052,,,,,,,2025-02-20,1,,,,,カワラマチキョウセイシカ,0
2238,9700150129262,新規,0,2025-02-20,2025-02-20,ＸＮＸ　ＴＲＡＤＩＮＧ　ＣＯＭＰＡＮＹ　ＰＶＴ　ＬＴＤ,,外国会社等,千葉県,山武市,白幡２７３６番地１オフィス１,,12,237,2891306,スリランカ民主社会主義共和国、キャンディ、ムルタラワ、デヒガマ、Ｎｏ．９９／１,,,,,,2025-02-20,1,,,,,エツクスエヌエツクストレーデイングカンパニープライベートリミテツド,0
