sequenceNumber,corporateNumber,process,correct,updateDate,changeDate,name,nameImageId,kind,prefectureName,cityName,streetNumber,addressImageId,prefectureCode,cityCode,postCode,addressOutside,addressOutsideImageId,closeDate,closeCause,successorCorporateNumber,changeCause,assignmentDate,latest,enName,enPrefectureName,enCityName,enAddressOutside,furigana,hihyoji
2,1010001200927,登記記録の閉鎖等,0,2023-10-05,2023-09-27,ＪＰＣＡＲＥＥＲ株式会社,,株式会社,東京都,千代田区,神田淡路町２丁目１番７号,,13,101,1010063,,,2023-09-27,合併による解散等,7010601027896,令和５年９月２７日東京都千代田区神田淡路町二丁目１番７号テクノブリッジＮＫＥ株式会社（7010601027896）に合併し解散,2019-05-21,1,,,,,ジェイピーキャリア,0
18,1010401019265,登記記録の閉鎖等,0,2023-10-05,2023-10-02,東芝ツーリスト株式会社,,株式会社,神奈川県,横浜市鶴見区,鶴見中央４丁目３６番５号,,14,101,2300051,,,2023-10-02,合併による解散等,7020001071271,令和５年１０月１日横浜市鶴見区鶴見中央四丁目３６番５号東芝ビジネスエキスパート株式会社（7020001071271）に合併し解散,2015-10-05,1,,,,,トウシバツーリスト,0
32,1010403020436,登記記録の閉鎖等,0,2023-10-05,2023-09-13,合同会社エスクイリーノ・インベストメント,,合同会社,東京都,港区,西新橋１丁目２番９号メンターキャピタル税理士法人内,,13,103,1050003,,,2023-09-13,清算の結了等,,,2019-04-01,1,,,,,エスクイリーノインベストメント,0
35,1010501001726,登記記録の閉鎖等,0,2023-10-05,2023-09-15,株式会社エイ・シー・シー・ジャパン,,株式会社,東京都,台東区,寿１丁目１７番１２号,,13,106,1110042,,,2023-09-15,清算の結了等,,,2022-09-14,1,,,,,エイシーシージャパン,0
77,1011603003627,登記記録の閉鎖等,0,2023-10-05,2023-10-02,合同会社リンク,,合同会社,東京都,練馬区,中村南２丁目２番１７号,,13,120,1760025,,,2023-10-02,清算の結了等,,,2022-06-16,1,,,,,リンク,0
82,1011802008567,登記記録の閉鎖等,0,2023-10-05,2023-10-02,株式会社ラヤマビル,,株式会社,東京都,葛飾区,東立石１丁目７番５号,,13,122,1240013,,,2023-10-02,合併による解散等,3011801042235,令和５年１０月１日東京都葛飾区東立石一丁目７番５号ラヤマカンパニーホールディングス株式会社（3011801042235）に合併し解散,2015-10-05,1,,,,,ラヤマビル,0
103,1020002001101,登記記録の閉鎖等,0,2023-10-05,2023-09-27,有限会社イシカワ,,有限会社,神奈川県,横浜市瀬谷区,橋戸２丁目９番地の７,,14,114,2460037,,,2023-09-27,清算の結了等,,,2015-10-05,1,,,,,イシカワ,0
125,1030005014157,登記記録の閉鎖等,0,2023-10-05,2023-09-08,農事組合法人七福園芸組合,,その他の設立登記法人,埼玉県,行田市,大字南河原６３０番地２,,11,206,3610084,,,2023-09-08,清算の結了等,,,2015-10-05,1,,,,,シチフクエンゲイグミアイ,0
136,1050001014935,登記記録の閉鎖等,0,2023-10-05,2023-09-29,株式会社大正屋燃料店,,株式会社,茨城県,坂東市,小山１２４９番地１,,08,228,3060626,,,2023-09-29,清算の結了等,,,2015-10-05,1,,,,,タイショウヤネンリョウテン,0
140,1060002007318,登記記録の閉鎖等,0,2023-10-05,2023-09-28,有限会社半田守可建築設計事務所,,有限会社,栃木県,宇都宮市,野沢町４１９番地１４,,09,201,3200071,,,2023-09-28,清算の結了等,,,2015-10-05,1,,,,,ハンダモリヨシケンチクセッケイジムショ,0
144,1070001031243,登記記録の閉鎖等,0,2023-10-05,2023-10-02,株式会社ＲＥＶＡＴＩＯＮ,,株式会社,群馬県,前橋市,中内町２１２番地１,,10,201,3792133,,,2023-10-02,清算の結了等,,,2015-10-05,1,,,,,リベーション,0
146,1070002027901,登記記録の閉鎖等,0,2023-10-05,2023-10-02,有限会社阿部工作所,,有限会社,群馬県,太田市,岩松町６２２番地の３,,10,205,3700403,,,2023-10-02,清算の結了等,,,2015-10-05,1,,,,,アベコウサクショ,0
150,1080102006936,登記記録の閉鎖等,0,2023-10-05,2023-09-29,有限会社御殿場えるもーど,,有限会社,静岡県,御殿場市,新橋１９８０番地の９,,22,215,4120043,,,2023-09-29,清算の結了等,,,2015-10-05,1,,,,,エルモード,0
152,1080402001042,登記記録の閉鎖等,0,2023-10-05,2023-10-02,有限会社ウインドウー,,有限会社,静岡県,浜松市北区,都田町７８３９番地の５,,22,135,4312102,,,2023-10-02,清算の結了等,,,2015-10-05,1,,,,,ウインドウー,0
182,1120102022292,登記記録の閉鎖等,0,2023-10-05,2023-10-02,株式会社シークエンス,,株式会社,大阪府,堺市西区,浜寺南町１丁１５番地２３,,27,144,5928344,,,2023-10-02,合併による解散等,7120101046650,令和５年１０月１日大阪府岸和田市上野町東１９番１６号りんくうビル株式会社（7120101046650）に合併し解散,2015-10-05,1,,,,,シークエンス,0
187,1120103002392,登記記録の閉鎖等,0,2023-10-05,2023-10-02,合同会社エンサンパワー,,合同会社,大阪府,和泉市,弥生町３丁目１１番８号,,27,219,5940061,,,2023-10-02,合併による解散等,1120103002285,令和５年９月３０日大阪府和泉市弥生町三丁目１１番８号合同会社エン（1120103002285）に合併し解散,2016-02-10,1,,,,,エンサンパワー,0
192,1140001024974,登記記録の閉鎖等,0,2023-10-05,2023-09-29,株式会社インヂペンデント,,株式会社,兵庫県,神戸市東灘区,向洋町中１丁目１０番地１０１号棟３４０８号室,,28,101,6580032,,,2023-09-29,清算の結了等,,,2015-10-05,1,,,,,インヂペンデント,0
205,1160002014725,登記記録の閉鎖等,0,2023-10-05,2023-10-02,有限会社ファンイート,,有限会社,滋賀県,守山市,水保町１２６３番地１０,,25,207,5240102,,,2023-10-02,清算の結了等,,,2015-10-05,1,,,,,ファンイート,0
208,1170001008990,登記記録の閉鎖等,0,2023-10-05,2023-10-03,株式会社紀州水産種苗研究所,,株式会社,和歌山県,西牟婁郡白浜町,堅田２５２１番地,,30,401,6492201,,,2023-10-03,清算の結了等,,,2015-10-05,1,,,,,キシュウスイサンシュビョウケンキュウショ,0
215,1180001115860,登記記録の閉鎖等,0,2023-10-05,2023-10-03,株式会社アドバンス,,株式会社,岐阜県,不破郡垂井町,栗原１９７番地の１,,21,361,5032123,,,2023-10-03,合併による解散等,8180001085032,令和５年９月２９日愛知県一宮市丹陽町九日市場字円之内６４１番地株式会社オムニバス（8180001085032）に合併し解散,2015-10-05,1,,,,,アドバンス,0
217,1180001136502,登記記録の閉鎖等,0,2023-10-05,2023-10-02,株式会社やまと,,株式会社,岐阜県,本巣市,上真桑１７６２番地８,,21,218,5010461,,,2023-10-02,清算の結了等,,,2019-05-14,1,,,,,ヤマト,0
223,1180002024615,登記記録の閉鎖等,0,2023-10-05,2023-10-02,有限会社牧,,有限会社,愛知県,名古屋市西区,数寄屋町３番２１号,,23,104,4510032,,,2023-10-02,清算の結了等,,,2015-10-05,1,,,,,マキ,0
238,1240001061082,登記記録の閉鎖等,0,2023-10-05,2023-10-02,株式会社リバティー植物店,,株式会社,広島県,三原市,糸崎８丁目１５番８号,,34,204,7290324,,,2023-10-02,清算の結了等,,,2023-02-13,1,,,,,リバティーショクブツテン,0
257,1300002008506,登記記録の閉鎖等,0,2023-10-05,2023-10-02,有限会社中樽フードセンター,00095385,有限会社,佐賀県,西松浦郡有田町,中樽２丁目４番１１号,00095386,41,401,8440002,,,2023-10-02,清算の結了等,,,2015-10-05,1,,,,,ナカダルフードセンター,0
262,1330002016662,登記記録の閉鎖等,0,2023-10-05,2023-09-27,有限会社エヌ・エフ・ティー,,有限会社,熊本県,菊池郡菊陽町,大字津久礼１２７番地６,,43,404,8691101,,,2023-09-27,清算の結了等,,,2015-10-05,1,,,,,エヌエフティー,0
263,1340002002001,登記記録の閉鎖等,0,2023-10-05,2023-10-02,有限会社エルケイ・マート,,有限会社,鹿児島県,鹿児島市,下田町１７６３番地,,46,201,8920873,,,2023-10-02,合併による解散等,4340002012146,令和５年１０月１日鹿児島市下田町１７５９番地株式会社癒カンパニー（4340002012146）に合併し解散,2015-10-05,1,,,,,エルケイマート,0
274,1370001020645,登記記録の閉鎖等,0,2023-10-05,2023-10-03,株式会社純土開発,,株式会社,宮城県,仙台市青葉区,荒巻神明町６番１５号,,04,101,9810965,,,2023-10-03,清算の結了等,,,2015-10-05,1,,,,,ジュンドカイハツ,0
276,1370002004044,登記記録の閉鎖等,0,2023-10-05,2023-10-02,有限会社モンメール,,有限会社,宮城県,仙台市太白区,長町２丁目６番４０号,,04,104,9820011,,,2023-10-02,清算の結了等,,,2015-10-05,1,,,,,モンメール,0
285,1430001041882,登記記録の閉鎖等,0,2023-10-05,2023-09-22,株式会社三杏,,株式会社,北海道,札幌市豊平区,豊平四条１０丁目２－３０－１４０５,,01,105,0620904,,,2023-09-22,清算の結了等,,,2015-10-05,1,,,,,サンキョウ,0
291,1460002002749,登記記録の閉鎖等,0,2023-10-05,2023-10-03,マネジメントサプライ有限会社,,有限会社,北海道,釧路市,南大通３丁目１番６号,,01,206,0850841,,,2023-10-03,清算の結了等,,,2015-10-05,1,,,,,マネジメントサプライ,0
292,1470002006393,登記記録の閉鎖等,0,2023-10-05,2023-10-02,有限会社マツモト,,有限会社,香川県,高松市,瓦町２丁目７番地１０,,37,201,7600052,,,2023-10-02,清算の結了等,,,2015-10-05,1,,,,,マツモト,0
312,2010005034387,登記記録の閉鎖等,0,2023-10-05,2023-09-28,ＬＡＫＥ特定目的会社,,その他の設立登記法人,東京都,千代田区,霞が関３丁目２番５号,,13,101,1000013,,,2023-09-28,清算の結了等,,,2022-01-05,1,,,,,レイク,0
314,2010401112779,登記記録の閉鎖等,0,2023-10-05,2023-10-02,株式会社徳山ゴルフ,,株式会社,兵庫県,姫路市,楠町９９番地５,,28,201,6700826,,,2023-10-02,合併による解散等,7140001100654,令和５年１０月１日兵庫県姫路市楠町９９番地５株式会社バンリューゴルフ（7140001100654）に合併し解散,2015-10-05,1,,,,,トクヤマゴルフ,0
317,2010402000909,登記記録の閉鎖等,0,2023-10-05,2023-10-02,有限会社荒井写真事務所,,有限会社,東京都,大田区,南馬込２丁目２４番４号,,13,111,1430025,,,2023-10-02,清算の結了等,,,2015-10-05,1,,,,,アライシャシンジムショ,0
318,2010402026549,登記記録の閉鎖等,0,2023-10-05,2023-09-19,有限会社モンタージュ・プロ,,有限会社,東京都,港区,港南４丁目６番８号,,13,103,1080075,,,2023-09-19,清算の結了等,,,2015-10-05,1,,,,,モンタージュプロ,0
319,2010403016631,登記記録の閉鎖等,0,2023-10-05,2023-09-15,合同会社ＩＨＰインベストメント,,合同会社,東京都,港区,元赤坂１丁目１番８号株式会社赤坂国際会計内,,13,103,1070051,,,2023-09-15,清算の結了等,,,2017-05-24,1,,,,,アイエイチピーインベストメント,0
325,2010501031648,登記記録の閉鎖等,0,2023-10-05,2023-10-03,株式会社奥田フレッシュ・フード研究所,,株式会社,東京都,台東区,西浅草３丁目２２番３－２２１３号,,13,106,1110035,,,2023-10-03,清算の結了等,,,2015-10-05,1,,,,,オクダフレッシュフードケンキュウジョ,0
335,2010801004923,登記記録の閉鎖等,0,2023-10-05,2023-09-29,サンレックス工業株式会社,,株式会社,東京都,大田区,西蒲田４丁目２９番１０号,,13,111,1440051,,,2023-09-29,清算の結了等,,,2015-10-05,1,,,,,サンレックスコウギョウ,0
348,2011101050344,登記記録の閉鎖等,0,2023-10-05,2023-10-03,株式会社小泉総合研究所,,株式会社,東京都,新宿区,大久保２丁目１１番２４号,,13,104,1690072,,,2023-10-03,清算の結了等,,,2015-10-05,1,,,,,コイズミソウゴウケンキュウジョ,0
352,2011101071794,登記記録の閉鎖等,0,2023-10-05,2023-10-02,ヒガシュ株式会社,,株式会社,東京都,新宿区,新宿６丁目２９番６号,,13,104,1600022,,,2023-10-02,合併による解散等,5011101063013,令和５年１０月１日東京都新宿区新宿六丁目２９番６号株式会社エナジーパートナー（5011101063013）に合併し解散,2015-10-05,1,,,,,ヒガシュ,0
358,2011103006344,登記記録の閉鎖等,0,2023-10-05,2023-10-02,葛城アパートメント合同会社,,合同会社,東京都,新宿区,新宿２丁目１２番１３号新宿アントレサロンビル２階,,13,104,1600022,,,2023-10-02,清算の結了等,,,2016-06-21,1,,,,,カツラギアパートメント,0
362,2011105004098,登記記録の閉鎖等,0,2023-10-05,2023-10-02,特定非営利活動法人腎臓病早期発見推進機構,,その他の設立登記法人,東京都,板橋区,向原２丁目１番６号,,13,119,1730036,,,2023-10-02,清算の結了等,,,2015-10-05,1,,,,,ジンゾウビョウソウキハッケンスイシンキコウ,0
371,2011802026122,登記記録の閉鎖等,0,2023-10-05,2023-10-02,有限会社セカンド・ステージ,,有限会社,東京都,葛飾区,西新小岩３丁目４５番５号,,13,122,1240025,,,2023-10-02,清算の結了等,,,2015-10-05,1,,,,,セカンドステージ,0
379,2013305002220,登記記録の閉鎖等,0,2023-10-05,2023-10-02,一般社団法人ゼロイチ２３,,その他の設立登記法人,東京都,豊島区,東池袋５丁目７番４号,,13,116,1700013,,,2023-10-02,清算の結了等,,,2015-10-05,1,,,,,ゼロイチニサン,0
414,2050001015932,登記記録の閉鎖等,0,2023-10-05,2023-09-29,株式会社ディナベック研究所,,株式会社,茨城県,つくば市,観音台１丁目２５番１１号,,08,220,3050856,,,2023-09-29,清算の結了等,,,2015-10-05,1,,,,,ディナベックケンキュウショ,0
417,2050002044740,登記記録の閉鎖等,0,2023-10-05,2023-09-29,有限会社孝井製作所,,有限会社,茨城県,結城市,大字結城１０４０６番地の２,,08,207,3070001,,,2023-09-29,清算の結了等,,,2015-10-05,1,,,,,コウイセイサクショ,0
424,2070002016127,登記記録の閉鎖等,0,2023-10-05,2023-10-02,有限会社かぶら寿司,,有限会社,群馬県,富岡市,曽木１１５番地１,,10,210,3702315,,,2023-10-02,清算の結了等,,,2015-10-05,1,,,,,カブラズシ,0
427,2080402019653,登記記録の閉鎖等,0,2023-10-05,2023-10-02,有限会社シュウ,,有限会社,静岡県,袋井市,中８８３番地の１,,22,216,4371125,,,2023-10-02,清算の結了等,,,2015-10-05,1,,,,,シュウ,0
432,2090001010310,登記記録の閉鎖等,0,2023-10-05,2023-10-02,株式会社大熊徳永事務所,,株式会社,山梨県,南都留郡鳴沢村,１０４４２番地１０４,,19,429,4010320,,,2023-10-02,清算の結了等,,,2015-10-05,1,,,,,オオクマトクナガジムショ,0
442,2120001064096,登記記録の閉鎖等,0,2023-10-05,2023-10-02,株式会社堺屋太一研究所,,株式会社,東京都,渋谷区,神宮前４丁目１３番１６号,,13,113,1500001,,,2023-10-02,清算の結了等,,,2015-10-05,1,,,,,サカイヤタイチケンキュウジョ,0
446,2120001118067,登記記録の閉鎖等,0,2023-10-05,2023-10-02,株式会社川崎環境開発興業,,株式会社,大阪府,大阪市旭区,大宮４丁目１３番３０号,,27,117,5350002,,,2023-10-02,合併による解散等,4120001143245,令和５年１０月１日大阪市旭区大宮四丁目１３番３０号株式会社川崎環境（4120001143245）に合併し解散,2015-10-05,1,,,,,カワサキカンキョウカイハツコウギョウ,0
486,2170001005509,登記記録の閉鎖等,0,2023-10-05,2023-10-03,株式会社生活画廊,,株式会社,和歌山県,海南市,阪井４８８番地の１,,30,202,6420024,,,2023-10-03,清算の結了等,,,2015-10-05,1,,,,,セイカツガロウ,0
489,2170002004336,登記記録の閉鎖等,0,2023-10-05,2023-10-02,有限会社和冷倉庫,,有限会社,和歌山県,和歌山市,中之島９２７番地,,30,201,6408392,,,2023-10-02,合併による解散等,6170001003888,令和５年９月３０日和歌山市中之島９２７番地和歌山冷凍株式会社（6170001003888）に合併し解散,2015-10-05,1,,,,,ワレイソウコ,0
490,2180001050578,登記記録の閉鎖等,0,2023-10-05,2023-10-02,株式会社三宝商会,,株式会社,愛知県,名古屋市中川区,服部１丁目３０６番地,,23,110,4540976,,,2023-10-02,清算の結了等,,,2015-10-05,1,,,,,サンホウショウカイ,0
491,2180001105778,登記記録の閉鎖等,0,2023-10-05,2023-10-02,株式会社タカラ工芸,,株式会社,愛知県,名古屋市港区,正徳町６丁目３１番地１Ｆ,,23,111,4550075,,,2023-10-02,合併による解散等,2180001135404,令和５年９月３０日名古屋市港区正徳町六丁目３１番地株式会社タカラ（2180001135404）に合併し解散,2015-10-05,1,,,,,タカラコウゲイ,0
494,2180001135841,登記記録の閉鎖等,0,2023-10-05,2023-09-25,株式会社アイナノインターナショナル,,株式会社,愛知県,名古屋市守山区,川西１丁目１１０７番地,,23,113,4630080,,,2023-09-25,清算の結了等,,,2019-03-22,1,,,,,アイナノインターナショナル,0
499,2180002002900,登記記録の閉鎖等,0,2023-10-05,2023-10-02,有限会社英,,有限会社,愛知県,名古屋市名東区,猪高台１丁目１３１６番地,,23,115,4650028,,,2023-10-02,清算の結了等,,,2015-10-05,1,,,,,ハナブサ,0
516,2240001038360,登記記録の閉鎖等,0,2023-10-05,2023-10-02,ナガミ株式会社,,株式会社,広島県,尾道市,久保１丁目２番９号,,34,205,7220045,,,2023-10-02,清算の結了等,,,2015-10-05,1,,,,,ナガミ,0
529,2260005001577,登記記録の閉鎖等,0,2023-10-05,2023-09-29,医療法人慈光苑,,その他の設立登記法人,岡山県,岡山市北区,駅元町１３番３号,,33,101,7000024,,,2023-09-29,清算の結了等,,,2015-10-05,1,,,,,ジコウエン,0
537,2290002036433,登記記録の閉鎖等,0,2023-10-05,2023-09-25,有限会社サンエス工業,,有限会社,福岡県,糟屋郡須惠町,大字佐谷１０９８番地の１,,40,344,8112115,,,2023-09-25,清算の結了等,,,2015-10-05,1,,,,,サンエスコウギョウ,0
549,2320005009580,登記記録の閉鎖等,0,2023-10-05,2023-10-03,一般社団法人大分県パーソナルトレーニング協会,,その他の設立登記法人,大分県,別府市,石垣東９丁目５番３５号２階,,44,202,8740919,,,2023-10-03,清算の結了等,,,2018-04-12,1,,,,,オオイタケンパーソナルトレーニングキョウカイ,0
553,2340001014046,登記記録の閉鎖等,0,2023-10-05,2023-10-02,株式会社南九ガス配送センター,,株式会社,鹿児島県,肝属郡東串良町,池之原１２００番地,,46,482,8931612,,,2023-10-02,清算の結了等,,,2015-10-05,1,,,,,ナンキュウガスハイソウセンター,0
563,2370002003516,登記記録の閉鎖等,0,2023-10-05,2023-10-03,有限会社トータルサービス,,有限会社,宮城県,仙台市太白区,西多賀１丁目３番２２号,,04,104,9820034,,,2023-10-03,清算の結了等,,,2015-10-05,1,,,,,トータルサービス,0
571,2380002028306,登記記録の閉鎖等,0,2023-10-05,2023-10-02,有限会社クレオンボディー,,有限会社,福島県,相馬市,成田字藤堂塚３５４番地の１,,07,209,9792542,,,2023-10-02,清算の結了等,,,2015-10-05,1,,,,,クレオンボディー,0
577,2410001003479,登記記録の閉鎖等,0,2023-10-05,2023-10-02,南秋北陸生コン株式会社,,株式会社,新潟県,佐渡市,八幡２２番地,,15,224,9521311,,,2023-10-02,合併による解散等,7110001027685,令和５年１０月１日新潟県佐渡市八幡字田屋田８番地北陸建材株式会社（7110001027685）に合併し解散,2015-10-05,1,,,,,ナンシュウホクリクナマコン,0
589,2430002043877,登記記録の閉鎖等,0,2023-10-05,2023-09-21,有限会社カネクラ佐藤商会,,有限会社,北海道,石狩市,花川南一条１丁目２３５番地,,01,235,0613201,,,2023-09-21,清算の結了等,,,2015-10-05,1,,,,,,0
594,2460301003414,登記記録の閉鎖等,0,2023-10-05,2023-10-02,株式会社道東グリーン興発,,株式会社,北海道,斜里郡斜里町,新光町５９番地１,,01,545,0994118,,,2023-10-02,清算の結了等,,,2015-10-05,1,,,,,ドウトウグリーンコウハツ,0
597,2480001006772,登記記録の閉鎖等,0,2023-10-05,2023-10-02,徳島バス阿南株式会社,,株式会社,徳島県,阿南市,橘町幸野８５番地,,36,204,7740023,,,2023-10-02,合併による解散等,4480001001730,令和５年１０月１日徳島市出来島本町一丁目２５番地徳島バス株式会社（4480001001730）に合併し解散,2015-10-05,1,,,,,トクシマバスアナン,0
603,3010001142738,登記記録の閉鎖等,0,2023-10-05,2023-09-26,魚信株式会社,,株式会社,長野県,長野市,市場３番地４８株式会社マルイチ産商２階,,20,201,3812202,,,2023-09-26,清算の結了等,,,2015-10-05,1,,,,,ウオシン,0
621,3010401168696,登記記録の閉鎖等,0,2023-10-05,2023-09-13,Ｄｅｃｕｓ株式会社,,株式会社,東京都,港区,白金４丁目１－６－３０１,,13,103,1080072,,,2023-09-13,清算の結了等,,,2022-07-29,1,,,,,デクス,0
637,3010902016313,登記記録の閉鎖等,0,2023-10-05,2023-09-28,有限会社リンクス,,有限会社,東京都,世田谷区,南烏山３丁目１６番２号,,13,112,1570062,,,2023-09-28,清算の結了等,,,2015-10-05,1,,,,,リンクス,0
646,3011101035807,登記記録の閉鎖等,0,2023-10-05,2023-10-02,株式会社アカンサス,,株式会社,東京都,新宿区,高田馬場１丁目３０番１３号,,13,104,1690075,,,2023-10-02,清算の結了等,,,2015-10-05,1,,,,,アカンサス,0
666,3011802029330,登記記録の閉鎖等,0,2023-10-05,2023-10-02,有限会社山と海,,有限会社,東京都,葛飾区,西新小岩３丁目４５番５号,,13,122,1240025,,,2023-10-02,清算の結了等,,,2015-10-05,1,,,,,ヤマトウミ,0
679,3020001005720,登記記録の閉鎖等,0,2023-10-05,2023-09-25,横浜エクステリア株式会社,,株式会社,神奈川県,横浜市旭区,金が谷１丁目１２番７号,,14,112,2410812,,,2023-09-25,清算の結了等,,,2015-10-05,1,,,,,ヨコハマエクステリア,0
695,3021001022788,登記記録の閉鎖等,0,2023-10-05,2023-09-22,株式会社フジメディカルサービス,,株式会社,神奈川県,秦野市,落合３３４番地,,14,211,2570025,,,2023-09-22,清算の結了等,,,2015-10-05,1,,,,,,0
710,3030002089860,登記記録の閉鎖等,0,2023-10-05,2023-09-11,有限会社安部工務店,,有限会社,埼玉県,吉川市,大字加藤１０９番地５,,11,243,3420022,,,2023-09-11,清算の結了等,,,2015-10-05,1,,,,,アベコウムテン,0
716,3040001041499,登記記録の閉鎖等,0,2023-10-05,2023-09-20,株式会社ウィズ,,株式会社,千葉県,松戸市,金ケ作１８番地３２,,12,207,2702251,,,2023-09-20,清算の結了等,,,2015-10-05,1,,,,,ウィズ,0
724,3040002050937,登記記録の閉鎖等,0,2023-10-05,2023-10-03,株式会社アカシバ,,株式会社,千葉県,流山市,流山５丁目１番地１,,12,220,2700164,,,2023-10-03,合併による解散等,5040001041737,令和５年９月３０日千葉県松戸市松飛台４０３番地の２株式会社ネクステップ（5040001041737）に合併し解散,2015-10-05,1,,,,,アカシバ,0
731,3060001036092,登記記録の閉鎖等,0,2023-10-05,2023-09-25,ソホー株式会社,,株式会社,栃木県,佐野市,田沼町８４４番地,,09,204,3270317,,,2023-09-25,清算の結了等,,,2023-06-21,1,,,,,ソホー,0
752,3110002001742,登記記録の閉鎖等,0,2023-10-05,2023-10-02,有限会社上木戸調剤薬局,,有限会社,新潟県,新潟市東区,上木戸５丁目１０番４３号,,15,102,9500891,,,2023-10-02,合併による解散等,6110001005163,令和５年１０月１日新潟市中央区出来島一丁目６番１号株式会社本町調剤薬局（6110001005163）に合併し解散,2015-10-05,1,,,,,カミキドチョウザイヤッキョク,0
764,3120002068715,登記記録の閉鎖等,0,2023-10-05,2023-10-02,有限会社まるよし,,有限会社,大阪府,東大阪市,小阪２丁目５番６号,,27,227,5770801,,,2023-10-02,清算の結了等,,,2015-10-05,1,,,,,マルヨシ,0
782,3180001027303,登記記録の閉鎖等,0,2023-10-05,2023-10-03,株式会社美松,,株式会社,愛知県,名古屋市西区,花の木１丁目１５番１５号（バンベール・グラン花の木４０２号）,,23,104,4510062,,,2023-10-03,清算の結了等,,,2015-10-05,1,,,,,ミマツ,0
784,3180001080384,登記記録の閉鎖等,0,2023-10-05,2023-10-02,フジ建材リース株式会社,,株式会社,愛知県,尾張旭市,渋川町３丁目３番地２,,23,226,4880839,,,2023-10-02,清算の結了等,,,2015-10-05,1,,,,,フジケンザイリース,0
785,3180001132821,登記記録の閉鎖等,0,2023-10-05,2023-10-02,株式会社ａｇｅｎｔ　ｔａｂｌｅ,,株式会社,愛知県,名古屋市中村区,則武１丁目４－１５三共則武ビル３階,,23,105,4530014,,,2023-10-02,清算の結了等,,,2018-06-28,1,,,,,エージェントテーブル,0
808,3230002004097,登記記録の閉鎖等,0,2023-10-05,2023-10-02,有限会社朝森工務店,,有限会社,富山県,富山市,東老田１０２１番地,,16,201,9300161,,,2023-10-02,清算の結了等,,,2015-10-05,1,,,,,アサモリコウムテン,0
813,3260001021322,登記記録の閉鎖等,0,2023-10-05,2023-09-29,マナゴコンクリート株式会社,,株式会社,岡山県,和気郡和気町,吉田７２２番地１,,33,346,7090411,,,2023-09-29,清算の結了等,,,2015-10-05,1,,,,,マナゴコンクリート,0
821,3290003010304,登記記録の閉鎖等,0,2023-10-05,2023-09-19,合同会社Ｖｉｃｔｏｒｉａ,,合同会社,福岡県,福岡市東区,香椎照葉４丁目２番２－５０３号セントラルパーク香椎照葉弐番館,,40,131,8130017,,,2023-09-19,清算の結了等,,,2020-08-20,1,,,,,ビクトリア,0
824,3290802016071,登記記録の閉鎖等,0,2023-10-05,2023-10-02,有限会社ヒロセプリントシステム,,有限会社,福岡県,北九州市八幡西区,日吉台３丁目１５番７号,,40,109,8070866,,,2023-10-02,清算の結了等,,,2015-10-05,1,,,,,ヒロセプリントシステム,0
830,3330001006472,登記記録の閉鎖等,0,2023-10-05,2023-09-29,株式会社ハウスプラン熊本,,株式会社,熊本県,八代市,植柳上町９０８番地１,,43,202,8660081,,,2023-09-29,清算の結了等,,,2015-10-05,1,,,,,ハウスプランクマモト,0
836,3340001015638,登記記録の閉鎖等,0,2023-10-05,2023-10-02,株式会社ポジティブ,,株式会社,鹿児島県,霧島市,国分姫城３３５７番地６,,46,218,8994354,,,2023-10-02,清算の結了等,,,2015-10-05,1,,,,,ポジティブ,0
856,3430001009473,登記記録の閉鎖等,0,2023-10-05,2023-10-02,エア・ウォーター・テクノサプライ株式会社,,株式会社,北海道,北広島市,大曲工業団地７丁目３番地２,,01,234,0611274,,,2023-10-02,合併による解散等,7430001032521,令和５年１０月１日札幌市中央区北三条西一丁目２番地エア・ウォーター・ライフソリューション株式会社（7430001032521）に合併し解散,2015-10-05,1,,,,,エアウォーターテクノサプライ,0
878,4010001094193,登記記録の閉鎖等,0,2023-10-05,2023-09-27,みずほ証券プリンシパルインベストメント株式会社,,株式会社,東京都,千代田区,神田駿河台２丁目５番１号,,13,101,1010062,,,2023-09-27,清算の結了等,,,2015-10-05,1,,,,,ミズホショウケンプリンシパルインベストメント,0
885,4010002012906,登記記録の閉鎖等,0,2023-10-05,2023-09-27,有限会社トライ・プランニング,,有限会社,東京都,千代田区,神田神保町２丁目１２番地山口ビル３Ｆ,,13,101,1010051,,,2023-09-27,清算の結了等,,,2015-10-05,1,,,,,トライプランニング,0
886,4010003035947,登記記録の閉鎖等,0,2023-10-05,2023-10-02,合同会社スマイルヘルスワン,,合同会社,静岡県,三島市,文教町１丁目５番６号日商三島ビル５０５号,,22,206,4110033,,,2023-10-02,清算の結了等,,,2021-10-05,1,,,,,スマイルヘルスワン,0
905,4010802004747,登記記録の閉鎖等,0,2023-10-05,2023-10-02,京浜管材有限会社,,有限会社,東京都,大田区,大森中２丁目１９番２号,,13,111,1430014,,,2023-10-02,清算の結了等,,,2015-10-05,1,,,,,ケイヒンカンザイ,0
917,4011001114684,登記記録の閉鎖等,0,2023-10-05,2023-09-13,株式会社ひふみアセットマネジメント,,株式会社,東京都,港区,西麻布２丁目２４番３３号,,13,103,1060031,,,2023-09-13,清算の結了等,,,2017-02-03,1,,,,,ヒフミアセットマネジメント,0
920,4011001145688,登記記録の閉鎖等,0,2023-10-05,2023-10-02,株式会社ＣｙｂｅｒＭｅｔａｖｅｒｓｅ　Ｐｒｏｄｕｃｔｉｏｎｓ,,株式会社,東京都,渋谷区,渋谷２丁目２４番１２号,,13,113,1500002,,,2023-10-02,清算の結了等,,,2022-02-15,1,,,,,サイバーメタバースプロダクションズ,0
938,4012402020736,登記記録の閉鎖等,0,2023-10-05,2023-10-02,ピー・アイ・オー有限会社,,有限会社,東京都,武蔵野市,西久保１丁目２９番１１号,,13,203,1800013,,,2023-10-02,清算の結了等,,,2015-10-05,1,,,,,ピーアイオー,0
942,4013102006380,登記記録の閉鎖等,0,2023-10-05,2023-10-03,千歳商事有限会社,,有限会社,東京都,青梅市,長淵７丁目３８３番地４,,13,205,1980052,,,2023-10-03,清算の結了等,,,2015-10-05,1,,,,,チトセショウジ,0
948,4020001144658,登記記録の閉鎖等,0,2023-10-05,2023-09-27,株式会社エスワイエス,,株式会社,神奈川県,横浜市港北区,鳥山町１０８９番地２ＱＰ参番館,,14,109,2220035,,,2023-09-27,清算の結了等,,,2022-01-07,1,,,,,エスワイエス,0
957,4020003012160,登記記録の閉鎖等,0,2023-10-05,2023-10-02,Ｍ－ＬＡＮＤ合同会社,,合同会社,神奈川県,川崎市多摩区,生田６丁目７番１２号,,14,135,2140038,,,2023-10-02,合併による解散等,7020003013239,令和５年１０月１日神奈川県川崎市多摩区生田六丁目７番１２号Ｍ－ＲＵＢＩＮ合同会社（7020003013239）に合併し解散,2016-12-21,1,,,,,エムランド,0
997,4110002031160,登記記録の閉鎖等,0,2023-10-05,2023-10-02,有限会社斎藤防水工業所,,有限会社,新潟県,長岡市,比礼６１５番地１,,15,202,9400244,,,2023-10-02,清算の結了等,,,2015-10-05,1,,,,,サイトウボウスイコウギョウショ,0
1010,4120101063327,登記記録の閉鎖等,0,2023-10-05,2023-10-02,株式会社フミダス,,株式会社,大阪府,堺市北区,百舌鳥梅町１丁３０番地１,,27,146,5918032,,,2023-10-02,清算の結了等,,,2021-04-07,1,,,,,フミダス,0
1016,4122005001437,登記記録の閉鎖等,0,2023-10-05,2023-10-02,特定非営利活動法人三ノ瀬総合型スポーツクラブ,,その他の設立登記法人,大阪府,東大阪市,三ノ瀬１丁目９番３号,,27,227,5770849,,,2023-10-02,清算の結了等,,,2015-10-05,1,,,,,サンノセソウゴウガタスポーツクラブ,0
1030,4140001036728,登記記録の閉鎖等,0,2023-10-05,2023-10-02,株式会社岡崎テクノ,,株式会社,兵庫県,神戸市西区,室谷１丁目２番地４,,28,111,6512241,,,2023-10-02,合併による解散等,2140001006682,令和５年１０月１日神戸市中央区御幸通三丁目１番３号株式会社岡崎製作所（2140001006682）に合併し解散,2015-10-05,1,,,,,オカザキテクノ,0
1034,4140002014170,登記記録の閉鎖等,0,2023-10-05,2023-10-02,有限会社サンユー機装,,有限会社,兵庫県,神戸市中央区,中山手通２丁目１番３－７０３号,,28,110,6500004,,,2023-10-02,清算の結了等,,,2015-10-05,1,,,,,サンユーキソウ,0
1037,4160001016744,登記記録の閉鎖等,0,2023-10-05,2023-10-03,株式会社アイファミリー,,株式会社,滋賀県,近江八幡市,東横関町６６番地,,25,204,5230035,,,2023-10-03,清算の結了等,,,2015-10-05,1,,,,,アイファミリー,0
1042,4180001056342,登記記録の閉鎖等,0,2023-10-05,2023-10-02,株式会社ＫＹ興産,,株式会社,愛知県,名古屋市天白区,御幸山１２０番地１,,23,116,4680075,,,2023-10-02,清算の結了等,,,2015-10-05,1,,,,,ケイワイコウサン,0
1044,4180001075796,登記記録の閉鎖等,0,2023-10-05,2023-10-02,株式会社コダマテック,,株式会社,愛知県,小牧市,大字東田中字菖蒲池１３０４番地の１,,23,219,4850826,,,2023-10-02,清算の結了等,,,2015-10-05,1,,,,,コダマテック,0
1045,4180001106964,登記記録の閉鎖等,0,2023-10-05,2023-10-02,株式会社Ｅｖｏｌｖｅ,,株式会社,愛知県,名古屋市港区,十一屋２丁目２１番地,,23,111,4550831,,,2023-10-02,清算の結了等,,,2015-10-05,1,,,,,イボルブ,0
1065,4230001018931,登記記録の閉鎖等,0,2023-10-05,2023-10-02,株式会社ＴｒｕｅＨｅａｒｔ,,株式会社,富山県,富山市,富岡町４３２番地４,,16,201,9300928,,,2023-10-02,清算の結了等,,,2021-08-11,1,,,,,トゥルーハート,0
1066,4240001011043,登記記録の閉鎖等,0,2023-10-05,2023-10-02,株式会社マツダ商会,,株式会社,広島県,広島市南区,稲荷町５番５号,,34,103,7320827,,,2023-10-02,清算の結了等,,,2015-10-05,1,,,,,マツダショウカイ,0
1071,4240002030059,登記記録の閉鎖等,0,2023-10-05,2023-10-02,有限会社歳英商事,,有限会社,広島県,三次市,十日市東２丁目１０番２号,,34,209,7280013,,,2023-10-02,清算の結了等,,,2015-10-05,1,,,,,サイエイショウジ,0
1090,4300001004924,登記記録の閉鎖等,0,2023-10-05,2023-10-02,株式会社サガテック,,株式会社,佐賀県,鹿島市,古枝甲２９１番地の２,,41,207,8491321,,,2023-10-02,清算の結了等,,,2015-10-05,1,,,,,サガテック,0
1093,4300002008239,登記記録の閉鎖等,0,2023-10-05,2023-10-02,有限会社池田真祥堂,,有限会社,佐賀県,西松浦郡有田町,本町丙９４６番地,,41,401,8440018,,,2023-10-02,清算の結了等,,,2015-10-05,1,,,,,イケダシンショウドウ,0
1094,4310002010160,登記記録の閉鎖等,0,2023-10-05,2023-10-02,有限会社笹野設備,,有限会社,長崎県,佐世保市,柚木町２３６８番地５,,42,202,8570112,,,2023-10-02,清算の結了等,,,2015-10-05,1,,,,,ササノセツビ,0
1101,4350002012302,登記記録の閉鎖等,0,2023-10-05,2023-09-27,有限会社丸弘興産,,有限会社,宮崎県,延岡市,祝子町２９６６番地５,,45,203,8820082,,,2023-09-27,清算の結了等,,,2015-10-05,1,,,,,,0
1109,4370001042752,登記記録の閉鎖等,0,2023-10-05,2023-10-02,株式会社アール・モア,,株式会社,宮城県,仙台市青葉区,一番町３丁目１０番１７号慶和ビル３階,,04,101,9800811,,,2023-10-02,清算の結了等,,,2018-03-08,1,,,,,,0
1111,4390001007142,登記記録の閉鎖等,0,2023-10-05,2023-10-03,株式会社カメラのトラヤ酒田,,株式会社,山形県,酒田市,中町２丁目４番３０号,,06,204,9980044,,,2023-10-03,清算の結了等,,,2015-10-05,1,,,,,カメラノトラヤサカタ,0
1129,4470002014781,登記記録の閉鎖等,0,2023-10-05,2023-10-02,有限会社川田鉄工所,,有限会社,香川県,坂出市,府中町５３００番地２,,37,203,7620024,,,2023-10-02,清算の結了等,,,2015-10-05,1,,,,,カワタテッコウショ,0
1132,4500001013351,登記記録の閉鎖等,0,2023-10-05,2023-10-02,株式会社しまなみ工業,,株式会社,愛媛県,今治市,吉海町福田２３４２番地,,38,202,7942103,,,2023-10-02,清算の結了等,,,2015-10-05,1,,,,,シマナミコウギョウ,0
1154,5010005011994,登記記録の閉鎖等,0,2023-10-05,2023-09-28,特定非営利活動法人シニアわーくすＲｙｏｍａ２１,,その他の設立登記法人,東京都,大田区,田園調布本町４０番１２－４０５号コンド田園調布,,13,111,1450072,,,2023-09-28,清算の結了等,,,2015-10-05,1,,,,,シニアワークスリョーマニイチ,0
1155,5010005031448,登記記録の閉鎖等,0,2023-10-05,2023-09-29,一般社団法人次のキレイへプロジェクト,,その他の設立登記法人,東京都,文京区,関口１丁目２４番６－３０５,,13,105,1120014,,,2023-09-29,清算の結了等,,,2020-02-18,1,,,,,ツギノキレイヘプロジェクト,0
1159,5010402008115,登記記録の閉鎖等,0,2023-10-05,2023-09-14,有限会社田島シャツ,,有限会社,東京都,港区,南青山２丁目２７番４号,,13,103,1070062,,,2023-09-14,清算の結了等,,,2015-10-05,1,,,,,タジマシャツ,0
1161,5010405017435,登記記録の閉鎖等,0,2023-10-05,2023-09-13,一般社団法人パンテオン・インベストメント,,その他の設立登記法人,東京都,港区,西新橋１丁目２番９号メンターキャピタル税理士法人内,,13,103,1050003,,,2023-09-13,清算の結了等,,,2019-02-12,1,,,,,パンテオンインベストメント,0
1176,5011001148203,登記記録の閉鎖等,0,2023-10-05,2023-09-19,株式会社ＨＯＫＡＤＯＫＯ．ｃｏｍラボ,,株式会社,東京都,港区,南青山２丁目４－１５天翔南青山ビル,,13,103,1070062,,,2023-09-19,清算の結了等,,,2022-06-23,1,,,,,ホカドコドットコムラボ,0
1203,5011802024916,登記記録の閉鎖等,0,2023-10-05,2023-10-02,有限会社絵夢絵夢,,有限会社,東京都,足立区,東和２丁目７番１－４０５号,,13,121,1200003,,,2023-10-02,清算の結了等,,,2015-10-05,1,,,,,エムエム,0
1209,5012701009842,登記記録の閉鎖等,0,2023-10-05,2023-10-02,株式会社オフィスＧ１０,,株式会社,東京都,清瀬市,竹丘２丁目３１番１７号,,13,221,2040023,,,2023-10-02,清算の結了等,,,2015-10-05,1,,,,,オフィスジーテン,0
1213,5013301036888,登記記録の閉鎖等,0,2023-10-05,2023-10-02,株式会社ヴァリーズリミテッド,,株式会社,東京都,練馬区,三原台３丁目８番３１－１０２号,,13,120,1770031,,,2023-10-02,清算の結了等,,,2015-10-05,1,,,,,ヴァリーズリミテッド,0
1217,5020001111095,登記記録の閉鎖等,0,2023-10-05,2023-09-29,株式会社ＢＥＣＲＡＧ,,株式会社,千葉県,松戸市,古ケ崎７０ワークオフィス松戸古ケ崎１０５,,12,207,2710068,,,2023-09-29,合併による解散等,5040001040854,令和５年９月２５日東京都千代田区神田小川町二丁目２番地センタークレストビル７階株式会社ＺＥＰＥ（5040001040854）に合併し解散,2015-10-05,1,,,,,ビークラッグ,0
1218,5020001131291,登記記録の閉鎖等,0,2023-10-05,2023-09-14,ＶＩＮＥ株式会社,,株式会社,東京都,港区,浜松町２丁目２番１５号,,13,103,1050013,,,2023-09-14,清算の結了等,,,2019-05-29,1,,,,,ヴァイン,0
1219,5020001144104,登記記録の閉鎖等,0,2023-10-05,2023-09-27,大東住建株式会社,,株式会社,神奈川県,横浜市中区,扇町１丁目１番２５号,,14,104,2310027,,,2023-09-27,清算の結了等,,,2021-11-29,1,,,,,ダイトウジュウケン,0
1240,5021002014790,登記記録の閉鎖等,0,2023-10-05,2023-09-28,有限会社澁谷商店,,有限会社,神奈川県,鎌倉市,小町１丁目３番２号,,14,204,2480006,,,2023-09-28,清算の結了等,,,2015-10-05,1,,,,,シブヤショウテン,0
1243,5021002041736,登記記録の閉鎖等,0,2023-10-05,2023-09-27,有限会社電化ライフサンワ,,有限会社,神奈川県,大和市,西鶴間６丁目２番８号,,14,213,2420005,,,2023-09-27,清算の結了等,,,2015-10-05,1,,,,,デンカライフサンワ,0
1244,5030001056406,登記記録の閉鎖等,0,2023-10-05,2023-09-12,株式会社トーショー,,株式会社,埼玉県,入間郡三芳町,大字藤久保３７９６番地５,,11,324,3540041,,,2023-09-12,清算の結了等,,,2015-10-05,1,,,,,トーショー,0
1277,5080102009282,登記記録の閉鎖等,0,2023-10-05,2023-10-02,有限会社青山商会三島,,有限会社,静岡県,三島市,八反畑１００番地の２７,,22,206,4110817,,,2023-10-02,合併による解散等,4080101000045,令和５年１０月１日静岡県沼津市筒井町１０番地の４株式会社青山商会（4080101000045）に合併し解散,2015-10-05,1,,,,,アオヤマショウカイミシマ,0
1288,5110005000715,登記記録の閉鎖等,0,2023-10-05,2023-10-02,医療法人社団畠山産婦人科クリニック,,その他の設立登記法人,新潟県,新潟市中央区,堀之内南１丁目１８番１６号,,15,103,9500982,,,2023-10-02,清算の結了等,,,2015-10-05,1,,,,,ハタケヤマサンフジンカクリニック,0
1301,5120101040580,登記記録の閉鎖等,0,2023-10-05,2023-10-02,株式会社大和商会,,株式会社,大阪府,泉南郡田尻町,吉見６４０番地１,,27,362,5980092,,,2023-10-02,清算の結了等,,,2015-10-05,1,,,,,ヤマトショウカイ,0
1303,5120102005013,登記記録の閉鎖等,0,2023-10-05,2023-10-04,有限会社ユタカクリエイト,,有限会社,大阪府,和泉市,王子町１丁目１番２１号,,27,219,5940004,,,2023-10-04,清算の結了等,,,2015-10-05,1,,,,,ユタカクリエイト,0
1327,5180001054519,登記記録の閉鎖等,0,2023-10-05,2023-10-02,加藤憲ステイシー株式会社,,株式会社,愛知県,名古屋市中区,上前津１丁目４番１０号,,23,106,4600013,,,2023-10-02,合併による解散等,1180001054076,令和５年１０月１日名古屋市中区上前津一丁目４番１０号加藤憲Ｇ．Ｒ．Ｓ．株式会社（1180001054076）に合併し解散,2015-10-05,1,,,,,カトウケンステイシー,0
1379,5310002007040,登記記録の閉鎖等,0,2023-10-05,2023-10-03,有限会社メガボックス,,有限会社,長崎県,長崎市,旭町１８番２号,,42,201,8528003,,,2023-10-03,清算の結了等,,,2015-10-05,1,,,,,メガボックス,0
1412,5500001020314,登記記録の閉鎖等,0,2023-10-05,2023-10-03,株式会社杉森新聞舗,,株式会社,愛媛県,西条市,北条１６３０番地６,,38,206,7991354,,,2023-10-03,清算の結了等,,,2017-01-06,1,,,,,スギモリシンブンホ,0
1430,6010002006170,登記記録の閉鎖等,0,2023-10-05,2023-09-27,矢代運送有限会社,,有限会社,東京都,文京区,西片１丁目１９番１５号,,13,105,1130024,,,2023-09-27,清算の結了等,,,2015-10-05,1,,,,,ヤシロウンソウ,0
1442,6010401114243,登記記録の閉鎖等,0,2023-10-05,2023-09-14,トライフット・ホールディングス株式会社,,株式会社,東京都,港区,六本木１丁目６番１号泉ガーデンタワーＫＰＭＧ税理士法人内,,13,103,1060032,,,2023-09-14,清算の結了等,,,2015-10-05,1,,,,,トライフットホールディングス,0
1451,6010602014242,登記記録の閉鎖等,0,2023-10-05,2023-09-29,福神橋鉱油有限会社,,有限会社,東京都,墨田区,文花２丁目１番８号,,13,107,1310044,,,2023-09-29,清算の結了等,,,2015-10-05,1,,,,,フクジンバシコウユ,0
1464,6011002036430,登記記録の閉鎖等,0,2023-10-05,2023-09-25,有限会社ＦＳＡＳ,,有限会社,東京都,千代田区,紀尾井町１番５号,,13,101,1020094,,,2023-09-25,清算の結了等,,,2015-10-05,1,,,,,エフエスエイエス,0
1472,6011102020169,登記記録の閉鎖等,0,2023-10-05,2023-10-03,有限会社ラビットクリエイティブポイント,,有限会社,東京都,新宿区,新宿２丁目９番２０号,,13,104,1600022,,,2023-10-03,清算の結了等,,,2015-10-05,1,,,,,ラビットクリエイティブポイント,0
1478,6011302005498,登記記録の閉鎖等,0,2023-10-05,2023-09-27,有限会社大昇塗装,,有限会社,東京都,杉並区,下井草２丁目４番９号,,13,115,1670022,,,2023-09-27,清算の結了等,,,2015-10-05,1,,,,,,0
1497,6020001009685,登記記録の閉鎖等,0,2023-10-05,2023-10-02,エフビーファイナンス株式会社,,株式会社,神奈川県,横浜市保土ケ谷区,星川２丁目４番１号,,14,106,2400006,,,2023-10-02,合併による解散等,7020001010527,令和５年１０月１日横浜市保土ケ谷区星川二丁目４番１号古河電池株式会社（7020001010527）に合併し解散,2015-10-05,1,,,,,エフビーファイナンス,0
1543,6100002035680,登記記録の閉鎖等,0,2023-10-05,2023-09-26,有限会社市瀬測量設計事務所,,有限会社,長野県,下伊那郡喬木村,９９８番地２,,20,415,3951100,,,2023-09-26,清算の結了等,,,2015-10-05,1,,,,,イチノセソクリョウセッケイジムショ,0
1546,6110001022563,登記記録の閉鎖等,0,2023-10-05,2023-10-02,株式会社橘技研,,株式会社,新潟県,長岡市,蓮潟３丁目９番３７号,00070425,15,202,9402023,,,2023-10-02,合併による解散等,5110001023505,令和５年１０月１日新潟県長岡市鉄工町一丁目２番１０号株式会社丸菱電子（5110001023505）に合併し解散,2015-10-05,1,,,,,タチバナギケン,0
1556,6120001207139,登記記録の閉鎖等,0,2023-10-05,2023-10-02,株式会社宗國玄品ふぐ,,株式会社,大阪府,松原市,三宅東１丁目８番７号,,27,217,5800041,,,2023-10-02,合併による解散等,8120001130719,令和５年１０月１日大阪府松原市三宅東一丁目８番７号株式会社関門海（8120001130719）に合併し解散,2017-07-20,1,,,,,ソウコクゲンピンフグ,0
1568,6120901046041,登記記録の閉鎖等,0,2023-10-05,2023-09-26,株式会社ＫＵＲＵＭＩ,,株式会社,大阪府,豊中市,新千里西町３丁目７番７号,,27,203,5600083,,,2023-09-26,清算の結了等,,,2022-06-03,1,,,,,クルミ,0
1580,6130001074685,登記記録の閉鎖等,0,2023-10-05,2023-09-19,株式会社ロングウェーブ,,株式会社,京都府,京都市東山区,三条通白川橋東入５丁目東町２３５番地１,,26,105,6050041,,,2023-09-19,合併による解散等,4130001067170,令和５年９月１９日京都市下京区四条通寺町東入二丁目御旅町３０番地株式会社セントラルイン（4130001067170）に合併し解散,2023-07-21,1,,,,,ロングウェーブ,0
1589,6140005022375,登記記録の閉鎖等,0,2023-10-05,2023-09-29,一般社団法人みんなの低温殺菌牛乳協会,,その他の設立登記法人,兵庫県,神戸市灘区,鶴甲４丁目３番１８－２０５号,,28,102,6570011,,,2023-09-29,清算の結了等,,,2015-10-05,1,,,,,ミンナノテイオンサッキンギュウニュウキョウカイ,0
1601,6170005006433,登記記録の閉鎖等,0,2023-10-05,2023-10-04,特定非営利活動法人地域自立支援ハウスすさみ,,その他の設立登記法人,和歌山県,西牟婁郡すさみ町,周参見３７３５番地,,30,406,6492621,,,2023-10-04,清算の結了等,,,2015-10-05,1,,,,,チイキジリツシエンハウススサミ,0
1603,6180001106896,登記記録の閉鎖等,0,2023-10-05,2023-10-02,株式会社ティーエスワイ,,株式会社,愛知県,知多市,つつじが丘３丁目１５番地の４,,23,224,4780054,,,2023-10-02,清算の結了等,,,2015-10-05,1,,,,,ティーエスワイ,0
1624,6200001014238,登記記録の閉鎖等,0,2023-10-05,2023-10-03,株式会社ホンダファミリーテラダ,,株式会社,岐阜県,大垣市,南切石町２丁目５５番地,,21,202,5030925,,,2023-10-03,合併による解散等,3200001011493,令和５年１０月１日岐阜県羽島郡岐南町上印食七丁目１番地株式会社ホンダカーズ岐阜（3200001011493）に合併し解散,2015-10-05,1,,,,,ホンダファミリーテラダ,0
1627,6220002001687,登記記録の閉鎖等,0,2023-10-05,2023-10-03,有限会社岡本染工,,有限会社,石川県,金沢市,専光寺町ハ２２番地１７,,17,201,9200356,,,2023-10-03,清算の結了等,,,2015-10-05,1,,,,,オカモトセンコウ,0
1661,6370001016548,登記記録の閉鎖等,0,2023-10-05,2023-10-02,株式会社匠ＩＴ研究所,,株式会社,宮城県,仙台市青葉区,花京院１丁目５番１０号１２０８,,04,101,9800013,,,2023-10-02,清算の結了等,,,2015-10-05,1,,,,,タクミアイテイケンキュウジョ,0
1668,6400005003472,登記記録の閉鎖等,0,2023-10-05,2023-10-02,医療法人北成会,,その他の設立登記法人,宮城県,仙台市泉区,明石南２丁目４番６号,,04,105,9813101,,,2023-10-02,清算の結了等,,,2015-10-05,1,,,,,,0
1673,6430001082014,登記記録の閉鎖等,0,2023-10-05,2023-09-21,株式会社Ｋ．ｉｎｇ,,株式会社,北海道,札幌市中央区,盤渓３８６番地１番３号,,01,101,0640945,,,2023-09-21,清算の結了等,,,2020-08-04,1,,,,,キング,0
1690,7010001193042,登記記録の閉鎖等,0,2023-10-05,2023-10-02,株式会社クレストランド,,株式会社,東京都,新宿区,早稲田町８１番地１号大塚ビル５Ｆ,00122527,13,104,1620042,,,2023-10-02,清算の結了等,,,2018-07-06,1,,,,,クレストランド,0
1703,7010401029993,登記記録の閉鎖等,0,2023-10-05,2023-09-19,山本電機工業株式会社,,株式会社,東京都,港区,西麻布４丁目４番１２号,,13,103,1060031,,,2023-09-19,清算の結了等,,,2015-10-05,1,,,,,ヤマモトデンキコウギョウ,0
1707,7010401152399,登記記録の閉鎖等,0,2023-10-05,2023-09-15,株式会社ＭＧＢ,,株式会社,東京都,港区,東新橋１丁目９番２号汐留住友ビル１６階,,13,103,1050021,,,2023-09-15,清算の結了等,,,2020-04-17,1,,,,,エムジービー,0
1718,7010501029729,登記記録の閉鎖等,0,2023-10-05,2023-10-02,株式会社エム・ティー・エス,,株式会社,東京都,台東区,池之端２丁目１番４２号,,13,106,1100008,,,2023-10-02,清算の結了等,,,2015-10-05,1,,,,,エムティーエス,0
1732,7010905004088,登記記録の閉鎖等,0,2023-10-05,2023-09-28,一般社団法人Ｕ６ランバイクチャンピオンシップ機構,,その他の設立登記法人,東京都,世田谷区,玉川３丁目２０番２号マノア玉川第３ビル５０１号室,,13,112,1580094,,,2023-09-28,清算の結了等,,,2021-01-27,1,,,,,アンダーシックスランバイクチャンピオンシップキコウ,0
1742,7011003002331,登記記録の閉鎖等,0,2023-10-05,2023-10-02,合資会社高島商店,00053593,合資会社,東京都,渋谷区,千駄ヶ谷３丁目３７番９号,,13,113,1510051,,,2023-10-02,清算の結了等,,,2015-10-05,1,,,,,タカシマショウテン,0
1762,7011302010605,登記記録の閉鎖等,0,2023-10-05,2023-09-27,有限会社タムオフィス,,有限会社,東京都,杉並区,成田東４丁目１６番６号,,13,115,1660015,,,2023-09-27,清算の結了等,,,2015-10-05,1,,,,,,0
1776,7012401019735,登記記録の閉鎖等,0,2023-10-05,2023-09-29,株式会社ｆｌｙｈａｌｆ,,株式会社,東京都,三鷹市,下連雀４丁目１７番２２号,,13,204,1810013,,,2023-09-29,清算の結了等,,,2015-10-05,1,,,,,フライハーフ,0
1781,7020001023058,登記記録の閉鎖等,0,2023-10-05,2023-09-27,株式会社国際総合代理店,,株式会社,神奈川県,横浜市神奈川区,片倉２丁目３６番８号,,14,102,2210865,,,2023-09-27,清算の結了等,,,2015-10-05,1,,,,,コクサイソウゴウダイリテン,0
1797,7021001069512,登記記録の閉鎖等,0,2023-10-05,2023-09-27,株式会社ハマダ船舶,,株式会社,神奈川県,横須賀市,浦賀丘１丁目１番１号,,14,201,2390823,,,2023-09-27,清算の結了等,,,2020-03-16,1,,,,,ハマダセンパク,0
1802,7030001047683,登記記録の閉鎖等,0,2023-10-05,2023-09-08,株式会社東都パシフィコ・マネージメント,,株式会社,埼玉県,朝霞市,仲町２丁目２番１９号,,11,227,3510006,,,2023-09-08,清算の結了等,,,2015-10-05,1,,,,,トウトパシフィコマネージメント,0
1826,7080102013159,登記記録の閉鎖等,0,2023-10-05,2023-10-02,有限会社青山商会富士,,有限会社,静岡県,富士市,八代町３番４０号,,22,210,4170024,,,2023-10-02,合併による解散等,4080101000045,令和５年１０月１日静岡県沼津市筒井町１０番地の４株式会社青山商会（4080101000045）に合併し解散,2015-10-05,1,,,,,アオヤマショウカイフジ,0
1840,7100003000930,登記記録の閉鎖等,0,2023-10-05,2023-09-26,合資会社相馬薬局,,合資会社,長野県,小諸市,相生町２丁目１番９号,,20,208,3840025,,,2023-09-26,清算の結了等,,,2015-10-05,1,,,,,ソウマヤッキョク,0
1845,7110002032981,登記記録の閉鎖等,0,2023-10-05,2023-09-29,有限会社フクダヤ,,有限会社,新潟県,南魚沼郡湯沢町,大字三国７７番地,,15,461,9496212,,,2023-09-29,清算の結了等,,,2015-10-05,1,,,,,フクダヤ,0
1846,7120001025325,登記記録の閉鎖等,0,2023-10-05,2023-09-20,株式会社マイベスト,,株式会社,大阪府,大阪市天王寺区,石ケ辻町１７番１４－１２０７号,00110222,27,109,5430031,,,2023-09-20,清算の結了等,,,2015-10-05,1,,,,,マイベスト,0
1858,7120102021017,登記記録の閉鎖等,0,2023-10-05,2023-10-02,岸城工業有限会社,,有限会社,大阪府,岸和田市,南上町１丁目３１番７号,,27,202,5960078,,,2023-10-02,清算の結了等,,,2015-10-05,1,,,,,キシキコウギョウ,0
1865,7140001055691,登記記録の閉鎖等,0,2023-10-05,2023-10-02,株式会社ＧＲＡＣＥ,,株式会社,兵庫県,尼崎市,塚口町１丁目１６番６号,,28,202,6610002,,,2023-10-02,合併による解散等,5140001052204,令和５年９月３０日兵庫県尼崎市塚口町一丁目１６番６号株式会社千葉（5140001052204）に合併し解散,2015-10-05,1,,,,,グレース,0
1875,7160001000274,登記記録の閉鎖等,0,2023-10-05,2023-10-03,株式会社エムアンドエス,,株式会社,滋賀県,大津市,あかね町７番７号,,25,201,5200003,,,2023-10-03,清算の結了等,,,2015-10-05,1,,,,,エムアンドエス,0
1888,7180005016827,登記記録の閉鎖等,0,2023-10-05,2023-10-03,特定非営利活動法人愛知県ＣＯＰＤネットワーク,,その他の設立登記法人,愛知県,名古屋市中区,栄３丁目１９番２８号,,23,106,4600008,,,2023-10-03,清算の結了等,,,2016-06-24,1,,,,,アイチケンシーオーピーディーネットワーク,0
1894,7200001021308,登記記録の閉鎖等,0,2023-10-05,2023-10-02,澤田タクシー株式会社,,株式会社,岐阜県,土岐市,駄知町４０７番地の１,,21,212,5095401,,,2023-10-02,清算の結了等,,,2015-10-05,1,,,,,サワダタクシー,0
1896,7200001037337,登記記録の閉鎖等,0,2023-10-05,2023-10-03,株式会社小肥羊中日本,,株式会社,岐阜県,岐阜市,鷺山１３２３番地３,,21,201,5020851,,,2023-10-03,合併による解散等,7200001001045,令和５年９月３０日岐阜市市橋三丁目１３番１５号株式会社カナダハウス岐阜（7200001001045）に合併し解散,2020-04-06,1,,,,,シャオフェイヤンナカニホン,0
1926,7290001084049,登記記録の閉鎖等,0,2023-10-05,2023-10-02,株式会社広実苑,,株式会社,佐賀県,鳥栖市,今町１７８０－３,,41,203,8410001,,,2023-10-02,清算の結了等,,,2019-01-29,1,,,,,コウジエン,0
1927,7290001096878,登記記録の閉鎖等,0,2023-10-05,2023-09-25,株式会社ＮＳ５‐２号,,株式会社,福岡県,福岡市博多区,上川端町１２番２０号,,40,132,8120026,,,2023-09-25,清算の結了等,,,2022-03-22,1,,,,,エヌエスファイブニゴウ,0
1941,7310001003749,登記記録の閉鎖等,0,2023-10-05,2023-10-02,株式会社康栄,,株式会社,長崎県,長崎市,五島町３番２５号,,42,201,8500036,,,2023-10-02,合併による解散等,8310001000266,令和５年１０月１日長崎市五島町３番２５号株式会社エムエスケイ（8310001000266）に合併し解散,2015-10-05,1,,,,,コウエイ,0
1954,7360001024749,登記記録の閉鎖等,0,2023-10-05,2023-09-29,琉球セイル株式会社,,株式会社,沖縄県,宜野湾市,真志喜３丁目２２番１９号,,47,205,9012224,,,2023-09-29,合併による解散等,1021001000069,令和５年９月１日神奈川県藤沢市鵠沼橘一丁目３番１６号サンプラザ５Ｆ株式会社相沢（1021001000069）に合併し解散,2018-10-24,1,,,,,リュウキュウセイル,0
1960,7370001024376,登記記録の閉鎖等,0,2023-10-05,2023-10-02,株式会社八巻工業,,株式会社,宮城県,仙台市青葉区,宮町３丁目６番１３号ＭＩＫビル３０７号,,04,101,9800004,,,2023-10-02,清算の結了等,,,2015-10-05,1,,,,,ヤマキコウギョウ,0
1973,7410002004182,登記記録の閉鎖等,0,2023-10-05,2023-09-26,有限会社ファクトリーアウテリア,,有限会社,秋田県,秋田市,川元小川町５番１６号,,05,201,0100935,,,2023-09-26,清算の結了等,,,2015-10-05,1,,,,,ファクトリーアウテリア,0
1987,7470001007684,登記記録の閉鎖等,0,2023-10-05,2023-10-02,松屋不動産株式会社,,株式会社,香川県,丸亀市,大手町３丁目１３番１０号,,37,202,7630034,,,2023-10-02,清算の結了等,,,2023-08-03,1,,,,,マツヤフドウサン,0
1996,7500001019965,登記記録の閉鎖等,0,2023-10-05,2023-10-03,株式会社アブガル,,株式会社,愛媛県,今治市,吉海町名３５８９番地１４,,38,202,7942114,,,2023-10-03,清算の結了等,,,2016-07-14,1,,,,,アブガル,0
2013,8010002036595,登記記録の閉鎖等,0,2023-10-05,2023-10-02,有限会社プロジェクト・エー,,有限会社,東京都,千代田区,神田神保町１丁目４番地５,,13,101,1010051,,,2023-10-02,合併による解散等,6040001021110,令和５年９月２８日千葉県八千代市大和田新田７７７番地株式会社プロジェクト・エー（6040001021110）に合併し解散,2015-10-05,1,,,,,プロジェクトエー,0
2023,8010401144008,登記記録の閉鎖等,0,2023-10-05,2023-09-14,ｘ－ｃａｆｅ株式会社,,株式会社,東京都,港区,六本木３丁目１６番１３号,,13,103,1060032,,,2023-09-14,清算の結了等,,,2019-02-27,1,,,,,エックスカフェ,0
2039,8010902001665,登記記録の閉鎖等,0,2023-10-05,2023-09-27,有限会社インテリアフローリック,,有限会社,東京都,世田谷区,野沢４丁目２４番１－８０３号,,13,112,1540003,,,2023-09-27,清算の結了等,,,2015-10-05,1,,,,,インテリアフローリック,0
2052,8011101103749,登記記録の閉鎖等,0,2023-10-05,2023-10-02,環境指標ホールディングス株式会社,,株式会社,東京都,新宿区,岩戸町１８番地,,13,104,1620832,,,2023-10-02,合併による解散等,9011101030166,令和５年１０月１日東京都新宿区岩戸町１８番地株式会社環境指標生物（9011101030166）に合併し解散,2023-07-26,1,,,,,カンキョウシヒョウホールディングス,0
2074,8013302020351,登記記録の閉鎖等,0,2023-10-05,2023-10-02,有限会社ヒロス・インターナショナル,,有限会社,東京都,豊島区,北大塚１丁目７番２号,,13,116,1700004,,,2023-10-02,清算の結了等,,,2015-10-05,1,,,,,ヒロスインターナショナル,0
2084,8021001051262,登記記録の閉鎖等,0,2023-10-05,2023-09-27,アスクベル設計株式会社,,株式会社,神奈川県,伊勢原市,上粕屋７３９番地の９,,14,214,2591141,,,2023-09-27,清算の結了等,,,2015-10-05,1,,,,,アスクベルセッケイ,0
2094,8021002065484,登記記録の閉鎖等,0,2023-10-05,2023-09-28,有限会社たざわ商店,,有限会社,神奈川県,横須賀市,三春町５丁目７１番地,,14,201,2380014,,,2023-09-28,清算の結了等,,,2015-10-05,1,,,,,タザワショウテン,0
2107,8040001125751,登記記録の閉鎖等,0,2023-10-05,2023-09-19,株式会社アンドビヨンド,,株式会社,千葉県,千葉市中央区,富士見２丁目７番９号富士見ビル６０９号,,12,101,2600015,,,2023-09-19,清算の結了等,,,2022-11-07,1,,,,,アンドビヨンド,0
2113,8040005006667,登記記録の閉鎖等,0,2023-10-05,2023-09-19,特定非営利活動法人北総コラボレーション,,その他の設立登記法人,千葉県,白井市,堀込２丁目３番１１棟３０３号,,12,232,2701424,,,2023-09-19,清算の結了等,,,2015-10-05,1,,,,,ホクソウコラボレーション,0
2129,8080001024173,登記記録の閉鎖等,0,2023-10-05,2023-09-29,株式会社ｆｏｒｍ．ｉ,,株式会社,静岡県,静岡市駿河区,下川原１丁目２１番１１号,,22,102,4210113,,,2023-09-29,清算の結了等,,,2021-05-07,1,,,,,フォームアイ,0
2133,8080401004857,登記記録の閉鎖等,0,2023-10-05,2023-10-02,株式会社棒屋,,株式会社,静岡県,浜松市中区,田町２２９番地の１０,,22,131,4300944,,,2023-10-02,合併による解散等,2080403000364,令和５年１０月１日静岡県浜松市中区田町２２９番地の１０合名会社中村社団（2080403000364）に合併し解散,2015-10-05,1,,,,,ボウヤ,0
2136,8080402016769,登記記録の閉鎖等,0,2023-10-05,2023-10-02,有限会社ホーム・エイド,,有限会社,静岡県,浜松市南区,遠州浜２丁目２７番１６号,,22,134,4300835,,,2023-10-02,清算の結了等,,,2015-10-05,1,,,,,ホームエイド,0
2157,8120101005770,登記記録の閉鎖等,0,2023-10-05,2023-10-02,初芝設備株式会社,,株式会社,大阪府,堺市東区,日置荘北町３丁６番１０号,,27,143,5998111,,,2023-10-02,清算の結了等,,,2015-10-05,1,,,,,ハツシバセツビ,0
2177,8140001094771,登記記録の閉鎖等,0,2023-10-05,2023-10-02,株式会社神姫タクシー姫路,,株式会社,兵庫県,姫路市,保城字大岩ノ下３３８番地の１,,28,201,6700804,,,2023-10-02,合併による解散等,2140001059268,令和５年１０月１日兵庫県姫路市西駅前町１番地神姫観光株式会社（2140001059268）に合併し解散,2015-10-05,1,,,,,シンキタクシーヒメジ,0
2200,8180002088463,登記記録の閉鎖等,0,2023-10-05,2023-10-02,豊運送有限会社,,有限会社,愛知県,知多市,つつじが丘３丁目１５番地の４,,23,224,4780054,,,2023-10-02,清算の結了等,,,2015-10-05,1,,,,,ユタカウンソウ,0
2204,8180005011645,登記記録の閉鎖等,0,2023-10-05,2023-10-03,農事組合法人半田市酪農環境整備組合,,その他の設立登記法人,愛知県,半田市,宮路町２１５番地の２,,23,205,4750902,,,2023-10-03,清算の結了等,,,2015-10-05,1,,,,,ハンダシラクノウカンキョウセイビクミアイ,0
2209,8190002007439,登記記録の閉鎖等,0,2023-10-05,2023-10-02,有限会社ユニテック,,有限会社,三重県,鈴鹿市,神戸本多町７４９番地,,24,207,5130801,,,2023-10-02,合併による解散等,6190002007861,令和５年１０月１日三重県鈴鹿市平田二丁目７番５５号株式会社グッドリレーション（6190002007861）に合併し解散,2015-10-05,1,,,,,ユニテック,0
2213,8210001009904,登記記録の閉鎖等,0,2023-10-05,2023-09-28,株式会社前田時計店,,株式会社,福井県,大野市,元町６番１７号,,18,205,9120081,,,2023-09-28,清算の結了等,,,2015-10-05,1,,,,,マエダトケイテン,0
2216,8220001010951,登記記録の閉鎖等,0,2023-10-05,2023-10-02,株式会社白山シール,,株式会社,石川県,白山市,横江町５４８番地１,,17,210,9240011,,,2023-10-02,合併による解散等,3220001002078,令和５年１０月１日石川県金沢市大手町１番３号株式会社金沢シール（3220001002078）に合併し解散,2015-10-05,1,,,,,ハクサンシール,0
2247,8320005007901,登記記録の閉鎖等,0,2023-10-05,2023-10-02,農事組合法人豊の国耶馬台きのこセンター,,その他の設立登記法人,大分県,中津市,本耶馬渓町東屋形１７番地,,44,203,8710207,,,2023-10-02,清算の結了等,,,2015-10-05,1,,,,,トヨノクニヤバタイキノコセンター,0
2250,8330002022720,登記記録の閉鎖等,0,2023-10-05,2023-09-27,有限会社悠,,有限会社,熊本県,玉名郡南関町,大字長山１４０９番地,,43,367,8610835,,,2023-09-27,清算の結了等,,,2015-10-05,1,,,,,ユウ,0
2271,8400005003289,登記記録の閉鎖等,0,2023-10-05,2023-09-27,特定非営利活動法人花巻寺町文化村協議会,,その他の設立登記法人,岩手県,花巻市,愛宕町７番５３号,,03,205,0250071,,,2023-09-27,清算の結了等,,,2015-10-05,1,,,,,ハナマキテラマチブンカムラキョウギカイ,0
2275,8420005002280,登記記録の閉鎖等,0,2023-10-05,2023-09-28,青森ビルメンテナンス協同組合,,その他の設立登記法人,青森県,青森市,橋本１丁目７番３号,,02,201,0300823,,,2023-09-28,清算の結了等,,,2015-10-05,1,,,,,アオモリビルメンテナンス,0
2290,9010001210002,登記記録の閉鎖等,0,2023-10-05,2023-09-26,株式会社ＲＯＯＴＳ,,株式会社,東京都,千代田区,神田松永町１３番地ＶＯＲＴ秋葉原ＩＩ２Ｆ,00121794,13,101,1010023,,,2023-09-26,清算の結了等,,,2020-06-05,1,,,,,ルーツ,0
2311,9010405001831,登記記録の閉鎖等,0,2023-10-05,2023-09-15,日本綿スフ織物工業組合連合会,,その他の設立登記法人,東京都,港区,西麻布１丁目８番７号,,13,103,1060031,,,2023-09-15,清算の結了等,,,2015-10-05,1,,,,,ニホンメンスフオリモノ,0
2332,9011001144215,登記記録の閉鎖等,0,2023-10-05,2023-10-02,株式会社ＣＡ無人店舗,,株式会社,東京都,渋谷区,渋谷２丁目２４番１２号,,13,113,1500002,,,2023-10-02,清算の結了等,,,2021-11-29,1,,,,,シーエームジンテンポ,0
2365,9011601003670,登記記録の閉鎖等,0,2023-10-05,2023-10-02,ゼベックスインターナショナル株式会社,,株式会社,東京都,練馬区,石神井町２丁目１番４号,,13,120,1770041,,,2023-10-02,清算の結了等,,,2015-10-05,1,,,,,ゼベックスインターナショナル,0
2372,9011802006877,登記記録の閉鎖等,0,2023-10-05,2023-10-02,有限会社ベアー・フルーツ・システムズ,,有限会社,東京都,葛飾区,西新小岩３丁目４５番５号,,13,122,1240025,,,2023-10-02,清算の結了等,,,2015-10-05,1,,,,,ベアーフルーツシステムズ,0
2436,9070002007664,登記記録の閉鎖等,0,2023-10-05,2023-10-02,有限会社ＫＥＡ,,有限会社,群馬県,前橋市,荒牧町１４５８番地４,,10,201,3710044,,,2023-10-02,清算の結了等,,,2015-10-05,1,,,,,ケイエー,0
2440,9080402017709,登記記録の閉鎖等,0,2023-10-05,2023-10-02,有限会社松野工業,,有限会社,静岡県,掛川市,大池４５番地の４,,22,213,4360043,,,2023-10-02,清算の結了等,,,2015-10-05,1,,,,,マツノコウギョウ,0
2446,9110001028698,登記記録の閉鎖等,0,2023-10-05,2023-10-02,ＨＡＰＰＹ　ＣＵＢＥ株式会社,,株式会社,新潟県,新潟市中央区,東大通１丁目１番１号,,15,103,9500087,,,2023-10-02,合併による解散等,4110001002071,令和５年１０月１日新潟市北区新崎一丁目１３番３４号三幸製菓グループ株式会社（4110001002071）に合併し解散,2015-10-05,1,,,,,ハッピーキューブ,0
2450,9110005014744,登記記録の閉鎖等,0,2023-10-05,2023-09-20,特定非営利活動法人健康寿命・リヴィング‐ウイル,,その他の設立登記法人,新潟県,新潟市秋葉区,新津本町１丁目２番３９号,,15,105,9560864,,,2023-09-20,清算の結了等,,,2015-10-05,1,,,,,ケンコウジュミョウリビングウィル,0
2480,9140001057224,登記記録の閉鎖等,0,2023-10-05,2023-09-29,株式会社神戸マイスター,,株式会社,兵庫県,神戸市西区,大津和２丁目１０番６号,,28,111,6512112,,,2023-09-29,合併による解散等,6140001031363,令和５年９月２９日神戸市中央区磯上通六丁目１番９号株式会社ＩＤクリエイト（6140001031363）に合併し解散,2015-10-05,1,,,,,コウベマイスター,0
2491,9170002001814,登記記録の閉鎖等,0,2023-10-05,2023-10-03,有限会社重光ハウジング,,有限会社,和歌山県,和歌山市,松江北１丁目３番３９号,,30,201,6408425,,,2023-10-03,清算の結了等,,,2015-10-05,1,,,,,シゲミツハウジング,0
2493,9180001033584,登記記録の閉鎖等,0,2023-10-05,2023-09-27,株式会社アーバンホーム,,株式会社,愛知県,名古屋市中区,栄２丁目４番１号,,23,106,4600008,,,2023-09-27,清算の結了等,,,2023-08-09,1,,,,,アーバンホーム,0
2499,9180002043962,登記記録の閉鎖等,0,2023-10-05,2023-09-22,ホリベ商事有限会社,,有限会社,愛知県,名古屋市守山区,金屋１丁目５番１９号新守山ハイツ１０３号,,23,113,4630072,,,2023-09-22,清算の結了等,,,2015-10-05,1,,,,,ホリベショウジ,0
2500,9180002068448,登記記録の閉鎖等,0,2023-10-05,2023-10-02,有限会社愛日,,有限会社,愛知県,小牧市,大字下末１２８９番地,,23,219,4850825,,,2023-10-02,清算の結了等,,,2015-10-05,1,,,,,アイニチ,0
2514,9230002013968,登記記録の閉鎖等,0,2023-10-05,2023-10-02,有限会社グロワール,,有限会社,富山県,射水市,小泉２１１番地の１２,,16,211,9390417,,,2023-10-02,清算の結了等,,,2015-10-05,1,,,,,グロワール,0
2515,9240001017820,登記記録の閉鎖等,0,2023-10-05,2023-10-02,ライフマックス株式会社,,株式会社,広島県,広島市中区,榎町４番３０号,,34,101,7300851,,,2023-10-02,清算の結了等,,,2015-10-05,1,,,,,ライフマックス,0
2546,9370001017527,登記記録の閉鎖等,0,2023-10-05,2023-10-02,仙台カイハツ生コンクリート株式会社,,株式会社,宮城県,黒川郡大和町,鶴巣大平字新田６０番地の１,,04,421,9813411,,,2023-10-02,合併による解散等,6370301000177,令和５年１０月１日宮城県東松島市赤井字川前二番１２４番地石巻カイハツ生コンクリート株式会社（6370301000177）に合併し解散,2015-10-05,1,,,,,センダイカイハツナマコンクリート,0
2556,9410001000123,登記記録の閉鎖等,0,2023-10-05,2023-09-26,株式会社安部修一設計事務所,,株式会社,秋田県,秋田市,八橋本町３丁目１６番１４号,,05,201,0100973,,,2023-09-26,清算の結了等,,,2015-10-05,1,,,,,アベシュウイチセッケイジムショ,0
2564,9430001033501,登記記録の閉鎖等,0,2023-10-05,2023-09-22,株式会社清秀社,,株式会社,北海道,北広島市,富ヶ岡７８３番地１,,01,234,0611153,,,2023-09-22,清算の結了等,,,2015-10-05,1,,,,,セイシュウシャ,0
2567,9430002011365,登記記録の閉鎖等,0,2023-10-05,2023-09-22,有限会社そば処しの家,,有限会社,北海道,札幌市厚別区,青葉町１５丁目１３番１１号,,01,108,0040021,,,2023-09-22,清算の結了等,,,2015-10-05,1,,,,,ソバドコロシノヤ,0
2569,9440003001273,登記記録の閉鎖等,0,2023-10-05,2023-09-28,合同会社ｆｏｒ　ｙｏｕ　企画,,合同会社,北海道,寿都郡寿都町,字渡島町５４番地,,01,392,0480406,,,2023-09-28,清算の結了等,,,2019-07-11,1,,,,,フォーユーキカク,0
2570,9450001007908,登記記録の閉鎖等,0,2023-10-05,2023-10-02,株式会社岡根塗装,,株式会社,北海道,名寄市,東二条北５丁目７番地の１,,01,221,0960052,,,2023-10-02,清算の結了等,,,2015-10-05,1,,,,,オカネトソウ,0
