sequenceNumber,corporateNumber,process,correct,updateDate,changeDate,name,nameImageId,kind,prefectureName,cityName,streetNumber,addressImageId,prefectureCode,cityCode,postCode,addressOutside,addressOutsideImageId,closeDate,closeCause,successorCorporateNumber,changeCause,assignmentDate,latest,enName,enPrefectureName,enCityName,enAddressOutside,furigana,hihyoji
9,1010001228010,新規,0,2022-07-14,2022-07-14,株式会社しちだムーブ,,株式会社,東京都,中央区,銀座３丁目７番６号ＣＩＲＣＬＥＳ銀座７Ｆ,,13,102,1040061,,,,,,,2022-07-14,1,,,,,シチダムーブ,0
10,1010001228084,新規,0,2022-07-14,2022-07-14,ＡｌｐａｃａＴｅｃｈ株式会社,,株式会社,東京都,千代田区,内神田１丁目１３番１４号,,13,101,1010047,,,,,,,2022-07-14,1,,,,,アルパカテック,0
12,1010003038135,新規,0,2022-07-14,2022-07-14,Ｍｅｄｌｙ　Ｊａｐａｎ合同会社,,合同会社,東京都,千代田区,神田三崎町３丁目５番９号天翔オフィス水道橋４０５－Ｄ,,13,101,1010061,,,,,,,2022-07-14,1,,,,,メドリージャパン,0
13,1010003038168,新規,0,2022-07-14,2022-07-14,ｓｗａｔｃｈｂｏｏｋ合同会社,,合同会社,東京都,千代田区,丸の内１丁目１１番１号パシフィックセンチュリープレイス１３Ｆ,,13,101,1000005,,,,,,,2022-07-14,1,,,,,スウォッチブック,0
25,1010403028074,新規,0,2022-07-14,2022-07-14,合同会社Ｒｅｆｌｅｃｔ　Ｄｅｓｉｇｎ,,合同会社,東京都,港区,虎ノ門３丁目１８番６号朝日虎ノ門マンション６１４号室,,13,103,1050001,,,,,,,2022-07-14,1,,,,,リフレクトデザイン,0
27,1010501049113,新規,0,2022-07-14,2022-07-14,株式会社ミチルワークス,,株式会社,東京都,台東区,小島２丁目２０番１１号ＬＩＧビル１Ｆ,,13,106,1110056,,,,,,,2022-07-14,1,,,,,ミチルワークス,0
32,1010601061505,新規,0,2022-07-14,2022-07-14,Ｆｏｕｒｔｈ　ｐｌａｃｅ株式会社,,株式会社,東京都,江東区,東砂４丁目１８番５号,,13,108,1360074,,,,,,,2022-07-14,1,,,,,フォースプレイス,0
34,1010703006317,新規,0,2022-07-14,2022-07-14,合同会社ダンミキ,,合同会社,東京都,品川区,西五反田３丁目２番１３号ヴァン・デスポワール目黒７０５,,13,109,1410031,,,,,,,2022-07-14,1,,,,,ダンミキ,0
37,1010901051222,新規,0,2022-07-14,2022-07-14,株式会社ＷＯＲＬＤ　ＴＲＵＳＴ　ＭＡＮＡＧＥＭＥＮＴ,,株式会社,東京都,世田谷区,経堂５丁目３３－２１,,13,112,1560052,,,,,,,2022-07-14,1,,,,,ワールドトラストマネジメント,0
51,1011001148636,新規,0,2022-07-14,2022-07-14,株式会社Ｆ　ｒｏｏｍ,,株式会社,東京都,渋谷区,神宮前４丁目７番１２号,,13,113,1500001,,,,,,,2022-07-14,1,,,,,エフルーム,0
52,1011001148644,新規,0,2022-07-14,2022-07-14,株式会社ナインファイブ,,株式会社,東京都,渋谷区,神宮前６丁目２３番４号桑野ビル２階,,13,113,1500001,,,,,,,2022-07-14,1,,,,,ナインファイブ,0
53,1011003015058,新規,0,2022-07-14,2022-07-14,合同会社ＫＢＱＵＮＱ,,合同会社,東京都,渋谷区,渋谷２丁目１９番１５－６０９号宮益坂ビルディング,,13,113,1500002,,,,,,,2022-07-14,1,,,,,ケービークアンク,0
57,1011101099548,新規,0,2022-07-14,2022-07-14,株式会社ＭＩＹＡ,,株式会社,東京都,新宿区,西新宿６丁目２０番７号コンシェリア西新宿タワーズウエスト１２１３,,13,104,1600023,,,,,,,2022-07-14,1,,,,,ミヤ,0
65,1011103011972,新規,0,2022-07-14,2022-07-14,合同会社かぶく,,合同会社,東京都,新宿区,歌舞伎町２丁目２２番１号－２Ｆ,,13,104,1600021,,,,,,,2022-07-14,1,,,,,カブク,0
69,1011401024379,新規,0,2022-07-14,2022-07-14,株式会社カラーズハウス,,株式会社,東京都,板橋区,大山東町２８番６号,,13,119,1730014,,,,,,,2022-07-14,1,,,,,カラーズハウス,0
72,1012401039417,新規,0,2022-07-14,2022-07-14,ＴＬＣ．パートナーズ株式会社,,株式会社,東京都,府中市,本町１丁目１２番地の２オウズ御殿山３０２,,13,206,1830027,,,,,,,2022-07-14,1,,,,,ティーエルシーパートナーズ,0
77,1012701017147,新規,0,2022-07-14,2022-07-14,株式会社ＴＯＰ‐ＯＮＥ,,株式会社,東京都,東村山市,多摩湖町１丁目３５番地１９,,13,213,1890026,,,,,,,2022-07-14,1,,,,,トップワン,0
95,1021001076514,新規,0,2022-07-14,2022-07-14,ＥＮＺＡＮ　ＣＡＲＳ株式会社,,株式会社,神奈川県,綾瀬市,大上６丁目７番１５号ミオンさがみ野Ｂ棟１０１,,14,218,2521104,,,,,,,2022-07-14,1,,,,,エンザンカーズ,0
96,1021001076530,新規,0,2022-07-14,2022-07-14,株式会社リフォンテ,,株式会社,神奈川県,相模原市南区,大野台３丁目１５番６７号,,14,153,2520331,,,,,,,2022-07-14,1,,,,,リフォンテ,0
97,1021001076547,新規,0,2022-07-14,2022-07-14,Ｙ．ｋ．Ｇｒｏｕｐ株式会社,,株式会社,神奈川県,厚木市,妻田東３丁目３７番６号,,14,212,2430813,,,,,,,2022-07-14,1,,,,,ワイケイグループ,0
104,1030001149213,新規,0,2022-07-14,2022-07-14,ＪＰ　ＡＵＴＯＭＯＴＩＶＥ　ＧＬＯＢＡＬ　ＤＥＡＬＥＲＳＨＩＰ株式会社,,株式会社,埼玉県,春日部市,備後西３丁目６－４１－２０１,,11,214,3440033,,,,,,,2022-07-14,1,,,,,ジェーピーオートモティブグローバルデイーラーシップ,0
105,1030001149254,新規,0,2022-07-14,2022-07-14,エコルルカ・ジャパン株式会社,,株式会社,埼玉県,川口市,鳩ヶ谷本町２丁目１０－５,,11,203,3340002,,,,,,,2022-07-14,1,,,,,エコルルカジャパン,0
111,1030003019744,新規,0,2022-07-14,2022-07-14,琴平商店合同会社,,合同会社,埼玉県,行田市,大字埼玉４９１２番地１０,,11,206,3610025,,,,,,,2022-07-14,1,,,,,コトヒラショウテン,0
112,1030003019793,新規,0,2022-07-14,2022-07-14,合同会社トミックス,,合同会社,埼玉県,上尾市,大字瓦葺２８２６番地１コスモ東大宮１１０２,,11,219,3620022,,,,,,,2022-07-14,1,,,,,トミックス,0
120,1040001124280,新規,0,2022-07-14,2022-07-14,株式会社つつみハウジング,,株式会社,千葉県,市川市,大和田５丁目１６番１６号（グランドソレーユ１０１号）,,12,203,2720025,,,,,,,2022-07-14,1,,,,,ツツミハウジング,0
121,1040001124297,新規,0,2022-07-14,2022-07-14,株式会社桃次郎,,株式会社,千葉県,成田市,飯田町１２９番地１７４アルファグランデ参番街Ａ棟５０９号室,,12,211,2860041,,,,,,,2022-07-14,1,,,,,モモジロウ,0
122,1040001124306,新規,0,2022-07-14,2022-07-14,ＭＫ商事株式会社,,株式会社,千葉県,千葉市花見川区,幕張町４丁目７５９番２,,12,102,2620032,,,,,,,2022-07-14,1,,,,,エムケイショウジ,0
126,1050001051383,新規,0,2022-07-14,2022-07-14,Ｐｒｏ　Ｓｍｉｌｅ株式会社,,株式会社,茨城県,つくばみらい市,筒戸１７９５番地９,,08,235,3002435,,,,,,,2022-07-14,1,,,,,プロスマイル,0
127,1050003006690,新規,0,2022-07-14,2022-07-14,合同会社キングス,,合同会社,茨城県,常総市,菅生町３２３７番地５,,08,211,3030044,,,,,,,2022-07-14,1,,,,,キングス,0
135,1070005010012,新規,0,2022-07-14,2022-07-14,一般社団法人白根開善学校本吉会,,その他の設立登記法人,群馬県,吾妻郡中之条町,大字入山１番地１,,10,421,3771701,,,,,,,2022-07-14,1,,,,,シラネカイゼンガッコウモトヨシカイ,0
141,1110003004812,新規,0,2022-07-14,2022-07-14,にいがたコスメプロダクト合同会社,,合同会社,新潟県,妙高市,大字関川６５８番地１,,15,217,9492112,,,,,,,2022-07-14,1,,,,,ニイガタコスメプロダクト,0
147,1120001247321,新規,0,2022-07-14,2022-07-14,株式会社ｆａｉｂｌｅｍｅｎｔ,,株式会社,大阪府,大阪市北区,梅田２丁目５番１３号桜橋第一ビル３０４号,,27,127,5300001,,,,,,,2022-07-14,1,,,,,フェブルマン,0
148,1120001247338,新規,0,2022-07-14,2022-07-14,大日本警備株式会社,,株式会社,大阪府,大阪市中央区,本町橋２番１６号５階,,27,128,5400029,,,,,,,2022-07-14,1,,,,,ダイニホンケイビ,0
149,1120001247362,新規,0,2022-07-14,2022-07-14,株式会社デジアル,,株式会社,大阪府,大阪市天王寺区,味原本町１２番５号,,27,109,5430022,,,,,,,2022-07-14,1,,,,,デジアル,0
150,1120001247412,新規,0,2022-07-14,2022-07-14,株式会社ｎｕｌｕｎｕｓ,,株式会社,大阪府,大阪市鶴見区,今津中４丁目１番２０号,,27,124,5380042,,,,,,,2022-07-14,1,,,,,ヌルヌス,0
153,1120005023058,新規,0,2022-07-14,2022-07-14,Ｃｒｏｓｓ‐ｂｏｒｄｅｒ税理士法人,,その他の設立登記法人,大阪府,大阪市中央区,内平野町２丁目１番１号,,27,128,5400037,,,,,,,2022-07-14,1,,,,,クロスボーダー,0
154,1120005023066,新規,0,2022-07-14,2022-07-14,医療法人ＭＫＯ,,その他の設立登記法人,大阪府,大阪市阿倍野区,旭町１丁目１番１０号竹澤ビルＢ１Ｆ,,27,119,5450051,,,,,,,2022-07-14,1,,,,,エムケイオー,0
159,1120101065879,新規,0,2022-07-14,2022-07-14,山地株式会社,,株式会社,大阪府,泉南市,信達市場１０４３番地の１,,27,228,5900504,,,,,,,2022-07-14,1,,,,,ヤマチ,0
160,1120101065912,新規,0,2022-07-14,2022-07-14,株式会社ＦＪＣ,,株式会社,大阪府,松原市,上田４丁目１番１９－３０１号,,27,217,5800016,,,,,,,2022-07-14,1,,,,,エフジェーシー,0
161,1120101065929,新規,0,2022-07-14,2022-07-14,Ｎａｇａｒａ　ｎｉｐｐｏｎ株式会社,,株式会社,大阪府,藤井寺市,道明寺１丁目２１番２１－２０１号,,27,226,5830012,,,,,,,2022-07-14,1,,,,,ナガラニッポン,0
162,1120105009592,新規,0,2022-07-14,2022-07-14,医療法人奏十会,,その他の設立登記法人,大阪府,羽曳野市,西浦３丁目５番１０号羽曳野西浦クリニックビル２階,,27,222,5830861,,,,,,,2022-07-14,1,,,,,カナトカイ,0
167,1120903004225,新規,0,2022-07-14,2022-07-14,合同会社未来ガジェット研究室,,合同会社,大阪府,豊中市,新千里南町３丁目２７番５号公園側玄関,,27,203,5600084,,,,,,,2022-07-14,1,,,,,ミライガジェットケンキュウシツ,0
173,1122001036076,新規,0,2022-07-14,2022-07-14,株式会社ＢＡＳＥＢＡＮＫ,,株式会社,大阪府,東大阪市,長堂１丁目２番１６号東大阪新光ビル４１０号,,27,227,5770056,,,,,,,2022-07-14,1,,,,,ベースバンク,0
179,1140001126655,新規,0,2022-07-14,2022-07-14,ＴＳホールディングス株式会社,,株式会社,兵庫県,三木市,別所町巴２１番１,,28,215,6730443,,,,,,,2022-07-14,1,,,,,ティーエスホールディングス,0
180,1140001126705,新規,0,2022-07-14,2022-07-14,株式会社住宅情報サービス,,株式会社,兵庫県,明石市,桜町１０番１６号ｌａｐｕｒｅ１階,,28,203,6730885,,,,,,,2022-07-14,1,,,,,ジュウタクジョウホウサービス,0
190,1160003002621,新規,0,2022-07-14,2022-07-14,合同会社紫洲書院,,合同会社,滋賀県,大津市,坂本３丁目２番３７号,,25,201,5200113,,,,,,,2022-07-14,1,,,,,シズショイン,0
195,1180001152004,新規,0,2022-07-14,2022-07-14,株式会社都建設,,株式会社,愛知県,小牧市,大字大草字年上坂５９９６番２７,,23,219,4850802,,,,,,,2022-07-14,1,,,,,ミヤコケンセツ,0
196,1180001152160,新規,0,2022-07-14,2022-07-14,株式会社ｔｈｅ　ｋｅｙ,,株式会社,愛知県,あま市,七宝町秋竹四町田８０５番地１５,,23,237,4970003,,,,,,,2022-07-14,1,,,,,ザキィー,0
201,1180003024003,新規,0,2022-07-14,2022-07-14,火星リサイクル合同会社,,合同会社,愛知県,清須市,土器野７９７番地２,,23,233,4520914,,,,,,,2022-07-14,1,,,,,カセイリサイクル,0
203,1180005019851,新規,0,2022-07-14,2022-07-14,行政書士法人相続の窓口,,その他の設立登記法人,愛知県,名古屋市瑞穂区,瑞穂通１丁目１番地１５,,23,108,4670806,,,,,,,2022-07-14,1,,,,,ソウゾクノマドグチ,0
212,1200001040288,新規,0,2022-07-14,2022-07-14,株式会社ＡＨＭＡＤ　ＴＲＡＤＩＮＧ,,株式会社,岐阜県,安八郡安八町,大野３７番地の１,,21,383,5030128,,,,,,,2022-07-14,1,,,,,アフマドトレーディング,0
217,1210001019001,新規,0,2022-07-14,2022-07-14,つばき株式会社,,株式会社,福井県,福井市,みのり２丁目５－７,,18,201,9188005,,,,,,,2022-07-14,1,,,,,ツバキ,0
234,1260001037048,新規,0,2022-07-14,2022-07-14,株式会社カイセイ,,株式会社,岡山県,津山市,船頭町５８番地らぷらんたん６０６,,33,203,7080034,,,,,,,2022-07-14,1,,,,,カイセイ,0
239,1290001098260,新規,0,2022-07-14,2022-07-14,ＧＥＴ株式会社,,株式会社,福岡県,福岡市博多区,博多駅南３丁目１９番１７－８０１号,,40,132,8120016,,,,,,,2022-07-14,1,,,,,ゲット,0
240,1290001098285,新規,0,2022-07-14,2022-07-14,ＸＹＺ株式会社,,株式会社,福岡県,福岡市南区,大橋２丁目６番１９－２０５号,,40,134,8150033,,,,,,,2022-07-14,1,,,,,エックスワイゼット,0
266,1430001087034,新規,0,2022-07-14,2022-07-14,株式会社ＡＢＤＵＬＬＡＨ　ＴＲＡＤＩＮＧ,,株式会社,北海道,千歳市,釜加１３１番地の９,,01,224,0660002,,,,,,,2022-07-14,1,,,,,アブドュラトレーディング,0
272,1450001013748,新規,0,2022-07-14,2022-07-14,株式会社アイケーコーポレーション,,株式会社,北海道,旭川市,春光台四条５丁目３番１２－１号,,01,204,0718144,,,,,,,2022-07-14,1,,,,,アイケーコーポレーション,0
288,2010001227184,新規,0,2022-07-14,2022-07-14,株式会社ＡＴ　Ｓｙｓｔｅｍｓ,,株式会社,東京都,千代田区,神田鍛冶町３丁目７,,13,101,1010045,,,,,,,2022-07-14,1,,,,,エーティーシステムズ,0
289,2010001228109,新規,0,2022-07-14,2022-07-14,株式会社つなぐ承継アドバイザーズ,,株式会社,東京都,中央区,晴海２丁目２番４２号,,13,102,1040053,,,,,,,2022-07-14,1,,,,,ツナグショウケイアドバイザーズ,0
291,2010003038084,新規,0,2022-07-14,2022-07-14,合同会社ＲＯＹＡＬ　ＢＬＵＥ　ＲＥＡＬＴＹ,,合同会社,東京都,千代田区,九段南１丁目５番６号りそな九段ビル５階ＫＳフロア,,13,101,1020074,,,,,,,2022-07-14,1,,,,,ロイヤルブルーリアリティ,0
292,2010003038159,新規,0,2022-07-14,2022-07-14,合同会社ＲＥＯインベストメンツ,,合同会社,東京都,千代田区,丸の内１丁目６番５号,,13,101,1000005,,,,,,,2022-07-14,1,,,,,アールイーオーインベストメンツ,0
293,2010003038167,新規,0,2022-07-14,2022-07-14,ＬｉＡｎ合同会社,,合同会社,東京都,中央区,日本橋茅場町１丁目３－７千代田ビル５階,,13,102,1030025,,,,,,,2022-07-14,1,,,,,リアン,0
299,2010401168516,新規,0,2022-07-14,2022-07-14,株式会社フェイガー,,株式会社,東京都,港区,南青山２丁目２番１５号,,13,103,1070062,,,,,,,2022-07-14,1,,,,,フェイガー,0
302,2010403028073,新規,0,2022-07-14,2022-07-14,合同会社天地理,,合同会社,東京都,港区,赤坂２丁目１４番１１－４Ｆ,,13,103,1070052,,,,,,,2022-07-14,1,,,,,テンチリ,0
306,2010501049112,新規,0,2022-07-14,2022-07-14,ジュエリーマリアン株式会社,,株式会社,東京都,台東区,東上野１丁目２３番４号原田ビル１階,,13,106,1100015,,,,,,,2022-07-14,1,,,,,ジュエリーマリアン,0
310,2010603009641,新規,0,2022-07-14,2022-07-14,合同会社Ｒｓ,,合同会社,東京都,江東区,豊洲５丁目５番１－３２０４号,,13,108,1350061,,,,,,,2022-07-14,1,,,,,アールズ,0
311,2010701042957,新規,0,2022-07-14,2022-07-14,株式会社ＨＬＥメディカル,,株式会社,東京都,品川区,東五反田５丁目１２番１号,,13,109,1410022,,,,,,,2022-07-14,1,,,,,エイチエルイーメディカル,0
312,2010701042965,新規,0,2022-07-14,2022-07-14,ＫｅｎｎｙＴｒａｄｅ株式会社,,株式会社,東京都,品川区,平塚２丁目１５－１－１０５,,13,109,1420051,,,,,,,2022-07-14,1,,,,,ケニートレード,0
328,2011001148627,新規,0,2022-07-14,2022-07-14,株式会社バーガンディ,,株式会社,東京都,渋谷区,恵比寿２丁目２４番６－４０２号,,13,113,1500013,,,,,,,2022-07-14,1,,,,,バーガンディ,0
329,2011001148643,新規,0,2022-07-14,2022-07-14,株式会社Ｖｉｒｃｒｅ,,株式会社,東京都,渋谷区,恵比寿４丁目１１番７号,,13,113,1500013,,,,,,,2022-07-14,1,,,,,バークリ,0
330,2011003015040,新規,0,2022-07-14,2022-07-14,合同会社Ａｘｅｌ,,合同会社,東京都,渋谷区,渋谷２丁目１９番１５号宮益坂ビルディング６０９,,13,113,1500002,,,,,,,2022-07-14,1,,,,,アクセル,0
335,2011201023968,新規,0,2022-07-14,2022-07-14,株式会社Ｍ　Ｐｌｕｓ,,株式会社,東京都,中野区,中野３丁目１２番４号－１０３,,13,114,1640001,,,,,,,2022-07-14,1,,,,,エムプラス,0
347,2012401039416,新規,0,2022-07-14,2022-07-14,ＳｕｎｇｏＥｎｅｒｇｙ株式会社,,株式会社,東京都,武蔵野市,関前４丁目１６番５－２０６号,,13,203,1800014,,,,,,,2022-07-14,1,,,,,サンゴーエナジー,0
351,2013103001151,新規,0,2022-07-14,2022-07-14,新和国際貿易合同会社,,合同会社,東京都,福生市,牛浜１４２－７ＴＫビル２０２,,13,218,1970024,,,,,,,2022-07-14,1,,,,,シンワコクサイボウエキ,0
364,2020003022120,新規,0,2022-07-14,2022-07-14,合同会社伊藤商店,,合同会社,神奈川県,横浜市金沢区,釜利谷西１丁目１－４－３０３,,14,108,2360046,,,,,,,2022-07-14,1,,,,,イトウショウテン,0
371,2021001076505,新規,0,2022-07-14,2022-07-14,株式会社健友工業,,株式会社,神奈川県,座間市,南栗原１丁目１４番６９号,,14,216,2520015,,,,,,,2022-07-14,1,,,,,ケンユウコウギョウ,0
372,2021001076513,新規,0,2022-07-14,2022-07-14,株式会社レクス,,株式会社,神奈川県,座間市,南栗原６丁目２７番６号,,14,216,2520015,,,,,,,2022-07-14,1,,,,,レクス,0
373,2021001076538,新規,0,2022-07-14,2022-07-14,株式会社林重機,,株式会社,神奈川県,中郡二宮町,二宮２１５８番地の１,,14,342,2590123,,,,,,,2022-07-14,1,,,,,ハヤシジュウキ,0
374,2021001076546,新規,0,2022-07-14,2022-07-14,Ａｂｅａｍ　Ｔｅｃｈ株式会社,,株式会社,神奈川県,伊勢原市,上粕屋２８２番地の１７,,14,214,2591141,,,,,,,2022-07-14,1,,,,,,0
376,2021003011930,新規,0,2022-07-14,2022-07-14,合同会社ＬａＬａ,,合同会社,神奈川県,藤沢市,湘南台１丁目１１番地の１１エルザス湘南ＩＩ１Ｆ,00127224,14,205,2520804,,,,,,,2022-07-14,1,,,,,ララ,0
377,2021003011939,新規,0,2022-07-14,2022-07-14,合同会社Ａｅ’ｏ,,合同会社,神奈川県,藤沢市,鵠沼海岸６丁目１６番１９～８号,00127212,14,205,2510037,,,,,,,2022-07-14,1,,,,,アエオ,0
384,2030001149212,新規,0,2022-07-14,2022-07-14,株式会社茜庭園,,株式会社,埼玉県,熊谷市,新堀１２００番地１,,11,202,3600841,,,,,,,2022-07-14,1,,,,,アカネテイエン,0
385,2030001149229,新規,0,2022-07-14,2022-07-14,株式会社ＡＲＴＩＳＡＮ,,株式会社,埼玉県,さいたま市北区,宮原町３丁目２９９番地,,11,102,3310812,,,,,,,2022-07-14,1,,,,,アルチザン,0
386,2030001149253,新規,0,2022-07-14,2022-07-14,株式会社Ｒｅｇｎａｌ,,株式会社,埼玉県,熊谷市,鎌倉町７４番地,,11,202,3600046,,,,,,,2022-07-14,1,,,,,レグナル,0
387,2030001149261,新規,0,2022-07-14,2022-07-14,エスエス金物株式会社,,株式会社,埼玉県,北葛飾郡松伏町,大字上赤岩８６３番地１,,11,465,3430115,,,,,,,2022-07-14,1,,,,,エスエスカナモノ,0
394,2030003019784,新規,0,2022-07-14,2022-07-14,合同会社Ｏｕｒ　ｍｅａｌ,,合同会社,埼玉県,さいたま市大宮区,天沼町２丁目２７７番地プレシス大宮クレール５０２,,11,103,3300834,,,,,,,2022-07-14,1,,,,,アワミール,0
395,2030003019792,新規,0,2022-07-14,2022-07-14,マル冨合同会社,,合同会社,埼玉県,上尾市,大字領家１１８番地１グリシーヌＩＩ１０２,00127218,11,219,3620066,,,,,,,2022-07-14,1,,,,,マルトミ,0
400,2040001124305,新規,0,2022-07-14,2022-07-14,ＫＥＳ株式会社,,株式会社,千葉県,旭市,幾世８８５番地,,12,215,2892607,,,,,,,2022-07-14,1,,,,,ケーイーエス,0
405,2040003020436,新規,0,2022-07-14,2022-07-14,テンプルオリジン管理合同会社,,合同会社,千葉県,習志野市,鷺沼台３丁目６－１６,,12,216,2750015,,,,,,,2022-07-14,1,,,,,テンプルオリジンカンリ,0
412,2060003004148,新規,0,2022-07-14,2022-07-14,ＳＡＭＲＡＴ　ＣＯＲＰＯＲＡＴＩＯＮ合同会社,,合同会社,栃木県,栃木市,大平町富田３９２番地９マルベリー大平３０１,,09,203,3294404,,,,,,,2022-07-14,1,,,,,サムラートコーポレーション,0
417,2070001039442,新規,0,2022-07-14,2022-07-14,株式会社タカサキサービス,,株式会社,群馬県,高崎市,足門町１６３１番地,,10,202,3703531,,,,,,,2022-07-14,1,,,,,タカサキサービス,0
418,2070003004551,新規,0,2022-07-14,2022-07-14,合同会社Ａｎｎａｐｕｒｕｎａ,,合同会社,群馬県,太田市,新田村田町４５７,,10,205,3700312,,,,,,,2022-07-14,1,,,,,アンナプルナ,0
425,2100001035529,新規,0,2022-07-14,2022-07-14,株式会社ｍｏｒｒｙ　ｃｏｒｐｏｒａｔｉｏｎ,,株式会社,長野県,北佐久郡軽井沢町,大字軽井沢１１３０番地１５,,20,321,3890102,,,,,,,2022-07-14,1,,,,,モリーコーポレーション,0
426,2100005012895,新規,0,2022-07-14,2022-07-14,税理士法人アテックス税理士事務所,,その他の設立登記法人,長野県,駒ヶ根市,中央１３番２１号,,20,210,3994112,,,,,,,2022-07-14,1,,,,,アテックスゼイリシジムショ,0
435,2120001247329,新規,0,2022-07-14,2022-07-14,株式会社ＭＰＯ,,株式会社,大阪府,大阪市天王寺区,筆ケ崎町６番１２－２００６号,,27,109,5430027,,,,,,,2022-07-14,1,,,,,エムピーオー,0
436,2120001247337,新規,0,2022-07-14,2022-07-14,株式会社澤建設工業,,株式会社,大阪府,大阪市城東区,鴫野西４丁目１７番２３号,,27,118,5360014,,,,,,,2022-07-14,1,,,,,サワケンセツコウギョウ,0
437,2120001247353,新規,0,2022-07-14,2022-07-14,株式会社ファンズハウス,,株式会社,大阪府,大阪市住之江区,御崎６丁目１８番３号,,27,125,5590013,,,,,,,2022-07-14,1,,,,,ファンズハウス,0
438,2120001247361,新規,0,2022-07-14,2022-07-14,株式会社Ｃｏｒａｚｏｎ＆Ｐａｒｔｎｅｒｓ,,株式会社,大阪府,大阪市港区,南市岡３丁目６番２０－７１１号,,27,107,5520011,,,,,,,2022-07-14,1,,,,,コラソンアンドパートナーズ,0
439,2120001247386,新規,0,2022-07-14,2022-07-14,株式会社明日晴,,株式会社,大阪府,大阪市住吉区,我孫子３丁目１１番２５号,,27,120,5580014,,,,,,,2022-07-14,1,,,,,アスバル,0
446,2120003022069,新規,0,2022-07-14,2022-07-14,合同会社ＲＥＳ,,合同会社,大阪府,大阪市淀川区,西宮原１丁目８－４８ホワイトハイデンス新大阪４１０,,27,123,5320004,,,,,,,2022-07-14,1,,,,,アールイーエス,0
447,2120005023073,新規,0,2022-07-14,2022-07-14,医療法人研心会,,その他の設立登記法人,大阪府,大阪市東淀川区,菅原７丁目３番２号,,27,114,5330022,,,,,,,2022-07-14,1,,,,,ケンシンカイ,0
448,2120101065928,新規,0,2022-07-14,2022-07-14,中央整備開発株式会社,,株式会社,大阪府,富田林市,大字甘南備２０７２番地４,,27,214,5840054,,,,,,,2022-07-14,1,,,,,チュウオウセイビカイハツ,0
449,2120101065936,新規,0,2022-07-14,2022-07-14,株式会社オールアッセン,,株式会社,大阪府,堺市北区,船堂町２丁４番６号,,27,146,5918003,,,,,,,2022-07-14,1,,,,,オールアッセン,0
454,2120903004240,新規,0,2022-07-14,2022-07-14,合同会社Ｋ．Ｊｇｒｏｕｐ,,合同会社,大阪府,高槻市,三島江４丁目２０番５号,,27,207,5690835,,,,,,,2022-07-14,1,,,,,ケイドットジェイグループ,0
458,2130005016522,新規,0,2022-07-14,2022-07-14,一般社団法人ＪＲＣジャパンラグビーカレッジ,,その他の設立登記法人,京都府,京都市中京区,壬生朱雀町２７－１朱雀ハイツ３Ｇ,,26,104,6048871,,,,,,,2022-07-14,1,,,,,ジェイアールシージャパンラグビーカレッジ,0
464,2140001126687,新規,0,2022-07-14,2022-07-14,株式会社ヴァンクール,,株式会社,兵庫県,神戸市中央区,三宮町１丁目３－３小林ビル３階,,28,110,6500021,,,,,,,2022-07-14,1,,,,,ヴァンクール,0
469,2140003017901,新規,0,2022-07-14,2022-07-14,合同会社Ｆｕｔｕｒｅ　Ｐｒｏｊｅｃｔ,,合同会社,兵庫県,神戸市東灘区,魚崎北町１丁目１番１１－１号,,28,101,6580082,,,,,,,2022-07-14,1,,,,,フューチャープロジェクト,0
470,2150001025698,新規,0,2022-07-14,2022-07-14,株式会社ケアライン,,株式会社,奈良県,天理市,兵庫町４３８,,29,204,6320044,,,,,,,2022-07-14,1,,,,,ケアライン,0
471,2160001024369,新規,0,2022-07-14,2022-07-14,ｎｏｔｉｏｎ株式会社,,株式会社,滋賀県,草津市,橋岡町１６２番地,,25,206,5250065,,,,,,,2022-07-14,1,,,,,ノーション,0
476,2180001152085,新規,0,2022-07-14,2022-07-14,株式会社エヌイーホールディングス,,株式会社,愛知県,名古屋市千種区,東山通１丁目３５番地,,23,101,4640807,,,,,,,2022-07-14,1,,,,,エヌイーホールディングス,0
477,2180001152151,新規,0,2022-07-14,2022-07-14,株式会社セラ,,株式会社,愛知県,春日井市,気噴町北１丁目１８９番地,,23,206,4870015,,,,,,,2022-07-14,1,,,,,セラ,0
478,2180001152184,新規,0,2022-07-14,2022-07-14,株式会社友愛企画,,株式会社,愛知県,名古屋市港区,当知３丁目３６１９番地,,23,111,4550804,,,,,,,2022-07-14,1,,,,,ユウアイキカク,0
479,2180001152234,新規,0,2022-07-14,2022-07-14,株式会社プライムプライス,,株式会社,愛知県,知多郡阿久比町,大字卯坂字東新畑８番地１,,23,441,4702212,,,,,,,2022-07-14,1,,,,,プライムプライス,0
482,2180003024035,新規,0,2022-07-14,2022-07-14,合同会社京谷工務店,,合同会社,愛知県,名古屋市名東区,宝が丘２３２番地の２（ハーモニーテラス宝が丘２０２号）,,23,115,4650043,,,,,,,2022-07-14,1,,,,,キョウタニコウムテン,0
483,2180005019850,新規,0,2022-07-14,2022-07-14,一般社団法人遊びで支援Ｒ,,その他の設立登記法人,愛知県,江南市,力長町神明４６番地,,23,217,4838108,,,,,,,2022-07-14,1,,,,,アソビデシエンアール,0
495,2220005008683,新規,0,2022-07-14,2022-07-14,特定非営利活動法人ガクソー,,その他の設立登記法人,石川県,珠洲市,飯田町１４‐１３,,17,205,9271214,,,,,,,2022-07-14,1,,,,,ガクソー,0
496,2230001019452,新規,0,2022-07-14,2022-07-14,湯川グループ株式会社,,株式会社,富山県,高岡市,姫野４７番地１４,,16,202,9340093,,,,,,,2022-07-14,1,,,,,ユカワグループ,0
505,2290001098301,新規,0,2022-07-14,2022-07-14,株式会社マルユウ,,株式会社,福岡県,糟屋郡須惠町,大字上須恵６４３番地４１,,40,344,8112100,,,,,,,2022-07-14,1,,,,,マルユウ,0
509,2290003012730,新規,0,2022-07-14,2022-07-14,合同会社ソングライン,,合同会社,福岡県,福岡市東区,箱崎３丁目７－３－９０２,,40,131,8120053,,,,,,,2022-07-14,1,,,,,ソングライン,0
511,2300001013010,新規,0,2022-07-14,2022-07-14,株式会社とよ工房,,株式会社,佐賀県,西松浦郡有田町,戸矢乙７４６番地１８,,41,401,8440014,,,,,,,2022-07-14,1,,,,,トヨコウボウ,0
520,2360003012161,新規,0,2022-07-14,2022-07-14,合同会社森川商会,,合同会社,沖縄県,名護市,字宮里９７１－２,,47,209,9050011,,,,,,,2022-07-14,1,,,,,モリカワショウカイ,0
523,2380005012604,新規,0,2022-07-14,2022-07-14,一般社団法人アダプテッドスポーツいわき,,その他の設立登記法人,福島県,いわき市,平字田町１２０番地ＬＡＴＯＶ６階いわき産業創造館内,,07,204,9708026,,,,,,,2022-07-14,1,,,,,アダプテッドスポーツイワキ,0
542,2460003000908,新規,0,2022-07-14,2022-07-14,合同会社ＫＴケアプランセンターなごみ,,合同会社,北海道,厚岸郡厚岸町,白浜４丁目７番地,,01,662,0881125,,,,,,,2022-07-14,1,,,,,ケーティーケアプランセンターナゴミ,0
544,2490001010220,新規,0,2022-07-14,2022-07-14,株式会社山本建設,,株式会社,高知県,室戸市,室津２２１２番地１,,39,202,7817102,,,,,,,2022-07-14,1,,,,,ヤマモトケンセツ,0
557,3010001228041,新規,0,2022-07-14,2022-07-14,株式会社ヒトのチカラ,,株式会社,東京都,中央区,日本橋室町１丁目２番６号日本橋大栄ビル７Ｆ,,13,102,1030022,,,,,,,2022-07-14,1,,,,,ヒトノチカラ,0
559,3010003038158,新規,0,2022-07-14,2022-07-14,合同会社新富町キャピタル,,合同会社,東京都,千代田区,丸の内１丁目６番５号,,13,101,1000005,,,,,,,2022-07-14,1,,,,,シントミチョウキャピタル,0
560,3010003038182,新規,0,2022-07-14,2022-07-14,合同会社アドオン,,合同会社,東京都,千代田区,神田和泉町一丁目６番２号,,13,101,1010024,,,,,,,2022-07-14,1,,,,,アドオン,0
571,3010401168374,新規,0,2022-07-14,2022-07-14,メーダージャパン株式会社,,株式会社,東京都,港区,白金３丁目２３番６号フォリア白金１階,,13,103,1080072,,,,,,,2022-07-14,1,,,,,メーダージャパン,0
572,3010401168515,新規,0,2022-07-14,2022-07-14,株式会社Ｃ　ＰＬＵＳ,,株式会社,東京都,港区,三田２丁目２１番１０号,,13,103,1080073,,,,,,,2022-07-14,1,,,,,シープラス,0
573,3010401168523,新規,0,2022-07-14,2022-07-14,株式会社ＳＬａｂ,,株式会社,東京都,港区,白金台２丁目６番１０号エルスタンザ白金台６０２,,13,103,1080071,,,,,,,2022-07-14,1,,,,,エスラボ,0
574,3010403028056,新規,0,2022-07-14,2022-07-14,川潤合同会社,,合同会社,東京都,港区,新橋１丁目１５番１号,,13,103,1050004,,,,,,,2022-07-14,1,,,,,カワジュン,0
575,3010403028064,新規,0,2022-07-14,2022-07-14,合同会社ＡＳ　ＰＡＲＫＡＧＥ,,合同会社,東京都,港区,浜松町１丁目１９番５号瀧山ビル４Ｆ,,13,103,1050013,,,,,,,2022-07-14,1,,,,,エイエスパーケイジ,0
577,3010405021199,新規,0,2022-07-14,2022-07-14,アルネアＭＦ一般社団法人,,その他の設立登記法人,東京都,港区,六本木１丁目９番１０号アークヒルズ仙石山森タワー４０階,,13,103,1060032,,,,,,,2022-07-14,1,,,,,アルネアエムエフ,0
579,3010501049111,新規,0,2022-07-14,2022-07-14,株式会社未来,,株式会社,東京都,台東区,東上野２丁目２０番１１号日産ビル４Ｆ,,13,106,1100015,,,,,,,2022-07-14,1,,,,,ミライ,0
583,3010601061503,新規,0,2022-07-14,2022-07-14,Ｇｌａｄｌａｂ株式会社,,株式会社,東京都,墨田区,緑１丁目６番１号,,13,107,1300021,,,,,,,2022-07-14,1,,,,,グラッドラボ,0
585,3010701042964,新規,0,2022-07-14,2022-07-14,株式会社リバーシステム,,株式会社,東京都,品川区,北品川３丁目１１番１３号－３５０６号,,13,109,1400001,,,,,,,2022-07-14,1,,,,,リバーシステム,0
586,3010705003384,新規,0,2022-07-14,2022-07-14,一般社団法人青葉,,その他の設立登記法人,東京都,品川区,上大崎３丁目１番１号目黒セントラルスクエア１５階,,13,109,1410021,,,,,,,2022-07-14,1,,,,,アオバ,0
593,3010901051212,新規,0,2022-07-14,2022-07-14,株式会社ＢＬＡＮＫＳ,,株式会社,東京都,世田谷区,松原３丁目３０番１０号,,13,112,1560043,,,,,,,2022-07-14,1,,,,,ブランクス,0
601,3011003015048,新規,0,2022-07-14,2022-07-14,合同会社Ａｒｃ‐ｅｎ‐ｃｉｅｌ,,合同会社,東京都,渋谷区,神泉町１３番６号,,13,113,1500045,,,,,,,2022-07-14,1,,,,,アーカンシエル,0
604,3011101099538,新規,0,2022-07-14,2022-07-14,ｅｔｅ株式会社,,株式会社,東京都,新宿区,大久保３丁目８－３－３４０９号室,,13,104,1690072,,,,,,,2022-07-14,1,,,,,エテ,0
610,3011203003868,新規,0,2022-07-14,2022-07-14,ＭＩＹＡＶＩ合同会社,,合同会社,東京都,中野区,上鷺宮３丁目１０－１２,,13,114,1650031,,,,,,,2022-07-14,1,,,,,ミヤビ,0
616,3011701025463,新規,0,2022-07-14,2022-07-14,株式会社エムエムシー,,株式会社,東京都,江戸川区,船堀５丁目１３番２号,,13,123,1340091,,,,,,,2022-07-14,1,,,,,エムエムシー,0
617,3011703003194,新規,0,2022-07-14,2022-07-14,ＳＡＮ　ＧＲＯＵＰ合同会社,,合同会社,東京都,江戸川区,松江３丁目１８番４号,,13,123,1320025,,,,,,,2022-07-14,1,,,,,サングループ,0
618,3011801040998,新規,0,2022-07-14,2022-07-14,株式会社しらかばスポーツ,,株式会社,東京都,葛飾区,東新小岩４丁目４番１３号,,13,122,1240023,,,,,,,2022-07-14,1,,,,,シラカバスポーツ,0
619,3011803005173,新規,0,2022-07-14,2022-07-14,ＭｔＥエンタープライズ合同会社,,合同会社,東京都,足立区,舎人３丁目１０番１４号,,13,121,1210831,,,,,,,2022-07-14,1,,,,,エムティーイーエンタープライズ,0
629,3021001076537,新規,0,2022-07-14,2022-07-14,エムセ株式会社,,株式会社,神奈川県,逗子市,小坪３丁目１２番２２号,,14,208,2490008,,,,,,,2022-07-14,1,,,,,エムセ,0
634,3021005012562,新規,0,2022-07-14,2022-07-14,ＡＤＣ協同組合,,その他の設立登記法人,神奈川県,藤沢市,南藤沢１６番１６号ＦＤＩビル,,14,205,2510055,,,,,,,2022-07-14,1,,,,,,0
640,3030001149228,新規,0,2022-07-14,2022-07-14,株式会社イノセンス,,株式会社,埼玉県,川越市,通町１９番地３,,11,201,3500044,,,,,,,2022-07-14,1,,,,,イノセンス,0
641,3030001149236,新規,0,2022-07-14,2022-07-14,藤波国際貿易株式会社,,株式会社,埼玉県,川口市,鳩ヶ谷本町３丁目２５番２４号,,11,203,3340002,,,,,,,2022-07-14,1,,,,,フジナミコクサイボウエキ,0
647,3030005020921,新規,0,2022-07-14,2022-07-14,一般社団法人日常清掃協会,,その他の設立登記法人,埼玉県,さいたま市南区,四谷１丁目１２番３０号フラワーハイツテナントＣ,,11,108,3360032,,,,,,,2022-07-14,1,,,,,ニチジョウセイソウキョウカイ,0
655,3040001124304,新規,0,2022-07-14,2022-07-14,株式会社アトリエコミュ,,株式会社,千葉県,千葉市稲毛区,天台４丁目６番２３号,,12,103,2630016,,,,,,,2022-07-14,1,,,,,アトリエコミュ,0
657,3040003020294,新規,0,2022-07-14,2022-07-14,デジタルポッド合同会社,,合同会社,千葉県,浦安市,富士見３丁目４－１３,,12,227,2790043,,,,,,,2022-07-14,1,,,,,デジタルポッド,0
659,3050003006689,新規,0,2022-07-14,2022-07-14,合同会社ジャックス,,合同会社,茨城県,土浦市,荒川沖東３丁目１２－２－２０２コーポラス高野Ｂ棟,,08,203,3000871,,,,,,,2022-07-14,1,,,,,ジャックス,0
665,3070001039441,新規,0,2022-07-14,2022-07-14,株式会社エバーユアーズ,,株式会社,群馬県,桐生市,堤町１丁目２番２２号,,10,203,3760042,,,,,,,2022-07-14,1,,,,,エバーユアーズ,0
667,3080001025077,新規,0,2022-07-14,2022-07-14,株式会社Ｓａｌｕｄ,,株式会社,静岡県,藤枝市,下青島１０３３番地の１,,22,214,4260035,,,,,,,2022-07-14,1,,,,,サルー,0
668,3080005007468,新規,0,2022-07-14,2022-07-14,特定非営利活動法人いかざぁ,,その他の設立登記法人,静岡県,静岡市清水区,楠新田３８２番地,,22,103,4240882,,,,,,,2022-07-14,1,,,,,イカザァ,0
671,3080405007472,新規,0,2022-07-14,2022-07-14,一般社団法人送り出し機関協会,,その他の設立登記法人,静岡県,浜松市西区,西山町２１０４番地の３０,,22,133,4328001,,,,,,,2022-07-14,1,,,,,オクリダシキカンキョウカイ,0
673,3100001035528,新規,0,2022-07-14,2022-07-14,ムーンノード株式会社,,株式会社,長野県,北佐久郡御代田町,大字塩野５７６番地１,,20,323,3890201,,,,,,,2022-07-14,1,,,,,ムーンノード,0
675,3100005012894,新規,0,2022-07-14,2022-07-14,一般社団法人Ａ＆Ｔ,,その他の設立登記法人,長野県,松本市,大字島立２９９２番地１,,20,202,3900852,,,,,,,2022-07-14,1,,,,,エーアンドティー,0
685,3120001247360,新規,0,2022-07-14,2022-07-14,あすぷれい株式会社,,株式会社,大阪府,大阪市平野区,瓜破西１丁目１－１ＨＡＶＥ瓜破西１号,,27,126,5470025,,,,,,,2022-07-14,1,,,,,アスプレイ,0
686,3120001247377,新規,0,2022-07-14,2022-07-14,株式会社ＰＬＯＷＮＯＷ,,株式会社,大阪府,交野市,藤が尾６丁目１５番３１号,,27,230,5760022,,,,,,,2022-07-14,1,,,,,プラウナウ,0
692,3120003022043,新規,0,2022-07-14,2022-07-14,合同会社イーグルイースト,,合同会社,大阪府,大阪市中央区,久太郎町４丁目２番１５号星和シティービル６階,,27,128,5410056,,,,,,,2022-07-14,1,,,,,イーグルイースト,0
693,3120003022068,新規,0,2022-07-14,2022-07-14,合同会社ＥＡＴ＆ＳＭＩＬＥ　ＳＵＭＩ,,合同会社,大阪府,大阪市西区,新町１丁目３３番１６号日宝新町ビル２階,,27,106,5500013,,,,,,,2022-07-14,1,,,,,,0
697,3120101065927,新規,0,2022-07-14,2022-07-14,株式会社ＬＡＮＤ　ＡＲＣ,,株式会社,大阪府,岸和田市,土生町３丁目１４番９号,,27,202,5960825,,,,,,,2022-07-14,1,,,,,ランドアーク,0
701,3130001072155,新規,0,2022-07-14,2022-07-14,株式会社ニューホライゾンエデュケーション,,株式会社,京都府,京都市下京区,油小路通正面下る玉本町１９２番地２,,26,106,6008346,,,,,,,2022-07-14,1,,,,,ニューホライゾンエデュケーション,0
704,3140001126736,新規,0,2022-07-14,2022-07-14,ＤＲ株式会社,,株式会社,兵庫県,尼崎市,武庫之荘２丁目２番２－３０６号,,28,202,6610035,,,,,,,2022-07-14,1,,,,,ディーアール,0
705,3140001126744,新規,0,2022-07-14,2022-07-14,真工房株式会社,,株式会社,兵庫県,神戸市垂水区,桃山台２丁目９番地の１,,28,108,6550854,,,,,,,2022-07-14,1,,,,,マナコウボウ,0
706,3140001126760,新規,0,2022-07-14,2022-07-14,株式会社Ｋ．Ｐ．Ｍフロンティア,,株式会社,兵庫県,芦屋市,翠ケ丘町１８番２４－３号,,28,206,6590014,,,,,,,2022-07-14,1,,,,,ケーピーエムフロンティア,0
716,3160001024368,新規,0,2022-07-14,2022-07-14,株式会社ゴールド,,株式会社,滋賀県,東近江市,垣見町７７０番地１,,25,213,5211221,,,,,,,2022-07-14,1,,,,,ゴールド,0
719,3170005006964,新規,0,2022-07-14,2022-07-14,アンドワーカー協同組合,,その他の設立登記法人,和歌山県,西牟婁郡上富田町,朝来２５７６番地の１、２階,,30,404,6492105,,,,,,,2022-07-14,1,,,,,アンドワーカー,0
723,3180001152167,新規,0,2022-07-14,2022-07-14,株式会社Ｅｎｔｅｒ　Ａｃｔ,,株式会社,愛知県,名古屋市中区,千代田１丁目１５番１７号ザ・エンドレス７Ｃ,,23,106,4600012,,,,,,,2022-07-14,1,,,,,エンターアクト,0
724,3180001152191,新規,0,2022-07-14,2022-07-14,株式会社ラボット,,株式会社,愛知県,名古屋市中区,錦３丁目６番７号,,23,106,4600003,,,,,,,2022-07-14,1,,,,,ラボット,0
725,3180003024042,新規,0,2022-07-14,2022-07-14,合同会社ＭＯＴＨＥＲ,,合同会社,愛知県,名古屋市西区,名駅２丁目３４番１７号セントラル名古屋１１０１号,,23,104,4510045,,,,,,,2022-07-14,1,,,,,マザー,0
729,3200005013362,新規,0,2022-07-14,2022-07-14,岐阜県立病院労働組合,,その他の設立登記法人,岐阜県,岐阜市,薮田南２丁目１番１号岐阜県庁内,,21,201,5008384,,,,,,,2022-07-14,1,,,,,ギフケンリツビョウイン,0
734,3230001019451,新規,0,2022-07-14,2022-07-14,谷建設株式会社,,株式会社,富山県,射水市,橋下条５２４番地,,16,211,9390332,,,,,,,2022-07-14,1,,,,,タニケンセツ,0
741,3240001060099,新規,0,2022-07-14,2022-07-14,株式会社エムワイ,,株式会社,広島県,広島市佐伯区,海老園２丁目１８番１１号,,34,108,7315135,,,,,,,2022-07-14,1,,,,,エムワイ,0
743,3250001019664,新規,0,2022-07-14,2022-07-14,株式会社総建工業,,株式会社,山口県,周南市,古市１丁目５番６号,,35,215,7460025,,,,,,,2022-07-14,1,,,,,ソウケンコウギョウ,0
744,3250001019672,新規,0,2022-07-14,2022-07-14,株式会社カワカミ工業,,株式会社,山口県,岩国市,多田２丁目１０４番地１９,,35,208,7410092,,,,,,,2022-07-14,1,,,,,カワカミコウギョウ,0
747,3270001008590,新規,0,2022-07-14,2022-07-14,株式会社ＳＴＳｈｉｃｏＡ,,株式会社,鳥取県,鳥取市,新品治町７番地,,31,201,6800812,,,,,,,2022-07-14,1,,,,,,0
749,3280001008747,新規,0,2022-07-14,2022-07-14,株式会社ファストコンサルティング,,株式会社,島根県,松江市,殿町１１１番地山陰放送・第一生命共同ビルディング,,32,201,6900887,,,,,,,2022-07-14,1,,,,,ファストコンサルティング,0
754,3290001098291,新規,0,2022-07-14,2022-07-14,株式会社藤本設備設計,,株式会社,福岡県,那珂川市,五郎丸４丁目３番１－６０６号,,40,231,8111252,,,,,,,2022-07-14,1,,,,,フジモトセツビセッケイ,0
760,3300001013001,新規,0,2022-07-14,2022-07-14,株式会社丸宗,,株式会社,佐賀県,佐賀市,本庄町大字本庄２１９番地２７,,41,201,8400027,,,,,,,2022-07-14,1,,,,,マルソウ,0
769,3330003009449,新規,0,2022-07-14,2022-07-14,合同会社英会話ガーデン,,合同会社,熊本県,熊本市西区,島崎２丁目１７－２１－１Ｆ,,43,103,8600073,,,,,,,2022-07-14,1,,,,,エイカイワガーデン,0
775,3340001024903,新規,0,2022-07-14,2022-07-14,株式会社マージピース,,株式会社,鹿児島県,鹿児島市,西千石町１１－２１鹿児島ＭＳビル５階６階,,46,201,8920847,,,,,,,2022-07-14,1,,,,,マージピース,0
778,3360001030643,新規,0,2022-07-14,2022-07-14,ＧＥＮＥＳＩＳ　ＦＯＯＤ株式会社,,株式会社,沖縄県,名護市,字伊差川８４４番地２,,47,209,9051152,,,,,,,2022-07-14,1,,,,,ジェネシスフード,0
794,3380001032976,新規,0,2022-07-14,2022-07-14,株式会社はるな工務店,,株式会社,福島県,郡山市,富田町字稲川原５３番地,,07,203,9638041,,,,,,,2022-07-14,1,,,,,ハルナコウムテン,0
802,3440001009118,新規,0,2022-07-14,2022-07-14,八雲レンタリース株式会社,,株式会社,北海道,二海郡八雲町,本町１４８番地２,,01,346,0493107,,,,,,,2022-07-14,1,,,,,ヤクモレンタリース,0
818,4010001227884,新規,0,2022-07-14,2022-07-14,ＰＰＳＣインベストメントサービス株式会社,,株式会社,東京都,千代田区,内幸町２丁目１番６号,,13,101,1000011,,,,,,,2022-07-14,1,,,,,ピーピーエスシーインベストメントサービス,0
820,4010003038198,新規,0,2022-07-14,2022-07-14,ａｆｆｅＬｉｎｋ合同会社,,合同会社,東京都,中央区,日本橋人形町１丁目２番１２号３階,,13,102,1030013,,,,,,,2022-07-14,1,,,,,アフェリンク,0
824,4010401168398,新規,0,2022-07-14,2022-07-14,池内信介事務所株式会社,,株式会社,東京都,港区,芝公園４丁目４番７号東京タワーメディアセンター７階,,13,103,1050011,,,,,,,2022-07-14,1,,,,,イケウチシンスケジムショ,0
831,4010405021198,新規,0,2022-07-14,2022-07-14,グルスＭＦ一般社団法人,,その他の設立登記法人,東京都,港区,六本木１丁目９番１０号アークヒルズ仙石山森タワー４０階,,13,103,1060032,,,,,,,2022-07-14,1,,,,,グルスエムエフ,0
833,4010501049119,新規,0,2022-07-14,2022-07-14,ＸＹ　Ｐｒｏ　Ｇｌｏｂａｌ株式会社,,株式会社,東京都,台東区,上野３丁目１１番５号５Ｆ,,13,106,1100005,,,,,,,2022-07-14,1,,,,,エクスワイプログローバル,0
839,4010705003383,新規,0,2022-07-14,2022-07-14,一般社団法人ＳＢ,,その他の設立登記法人,東京都,品川区,上大崎３丁目１番１号目黒セントラルスクエア１５階,,13,109,1410021,,,,,,,2022-07-14,1,,,,,エスビー,0
845,4011001148682,新規,0,2022-07-14,2022-07-14,株式会社Ｈｅｒｔｚ,,株式会社,東京都,渋谷区,神宮前１丁目１０番３４－７１０号,,13,113,1500001,,,,,,,2022-07-14,1,,,,,ヘルツ,0
848,4011101099495,新規,0,2022-07-14,2022-07-14,株式会社Ｐｌｕｓ　ｔｗｏ,,株式会社,東京都,新宿区,新宿７丁目２７番１２号,,13,104,1600022,,,,,,,2022-07-14,1,,,,,プラストゥー,0
849,4011101099504,新規,0,2022-07-14,2022-07-14,株式会社スタパト,,株式会社,東京都,新宿区,新宿３丁目４番８号京王フレンテ新宿３丁目１２ＳＨＩＮＪＵＫＵ３ＣＨＯＭＥ４階,,13,104,1600022,,,,,,,2022-07-14,1,,,,,スタパト,0
851,4011105010301,新規,0,2022-07-14,2022-07-14,一般社団法人日本トレーナーズアカデミー,,その他の設立登記法人,東京都,新宿区,荒木町１３－２２グランドメゾン四谷３０３,,13,104,1600007,,,,,,,2022-07-14,1,,,,,ニホントレーナーズアカデミー,0
857,4011301027941,新規,0,2022-07-14,2022-07-14,株式会社ＫＮＩＰ,,株式会社,東京都,杉並区,久我山４丁目４７番２９号,,13,115,1680082,,,,,,,2022-07-14,1,,,,,クニップ,0
862,4011501028260,新規,0,2022-07-14,2022-07-14,株式会社ステイド,,株式会社,東京都,荒川区,西尾久１丁目３番１号,,13,118,1160011,,,,,,,2022-07-14,1,,,,,ステイド,0
863,4011503005209,新規,0,2022-07-14,2022-07-14,Ｍｅｒｌｅｔｔａ＆Ｃｏ．合同会社,,合同会社,東京都,荒川区,南千住６丁目２２－６,,13,118,1160003,,,,,,,2022-07-14,1,,,,,マーレッタアンドカンパニー,0
883,4021001076528,新規,0,2022-07-14,2022-07-14,株式会社Ｌｅｃｏｌｕ,,株式会社,神奈川県,海老名市,柏ケ谷６１１番地の１スカイヒル海老名１０２号,,14,215,2430402,,,,,,,2022-07-14,1,,,,,レコル,0
884,4021001076536,新規,0,2022-07-14,2022-07-14,株式会社浜名トータルサポート,,株式会社,神奈川県,高座郡寒川町,倉見７３２番地２,,14,321,2530101,,,,,,,2022-07-14,1,,,,,ハマナトータルサポート,0
885,4021003011937,新規,0,2022-07-14,2022-07-14,Ｓ‐ｍｉｌｅｓ合同会社,,合同会社,神奈川県,鎌倉市,七里ガ浜１丁目９番１６号,,14,204,2480026,,,,,,,2022-07-14,1,,,,,エスマイルズ,0
886,4021003011945,新規,0,2022-07-14,2022-07-14,合同会社ライズ,,合同会社,神奈川県,大和市,桜森２丁目２６番２６号クレストＭ桜森１０４,,14,213,2420028,,,,,,,2022-07-14,1,,,,,ライズ,0
892,4030001149235,新規,0,2022-07-14,2022-07-14,株式会社ＯＴＡＯ,,株式会社,埼玉県,さいたま市北区,宮原町４丁目３番地１５,,11,102,3310812,,,,,,,2022-07-14,1,,,,,オタオ,0
901,4030003019790,新規,0,2022-07-14,2022-07-14,合同会社エイチエム,,合同会社,埼玉県,秩父郡長瀞町,大字長瀞１０３６番地５,,11,363,3691305,,,,,,,2022-07-14,1,,,,,エイチエム,0
908,4050001051406,新規,0,2022-07-14,2022-07-14,株式会社ＮＡＭＯＭＡＲＩＹＡＮＩ　ＴＲＡＤＥＲＳ,,株式会社,茨城県,つくば市,大舟戸１００６番地１,,08,220,3001267,,,,,,,2022-07-14,1,,,,,ナモマリヤニトレーダーズ,0
909,4050003006688,新規,0,2022-07-14,2022-07-14,合同会社エーシーズ,,合同会社,茨城県,土浦市,中高津１丁目２３番４４号,,08,203,3000815,,,,,,,2022-07-14,1,,,,,エーシーズ,0
910,4050005013113,新規,0,2022-07-14,2022-07-14,ＮＰＯ法人茨城県ベトナム友好協会,,その他の設立登記法人,茨城県,水戸市,緑町１丁目１番１８号茨城県立青少年会館内,,08,201,3100034,,,,,,,2022-07-14,1,,,,,イバラキケンベトナムユウコウキョウカイ,0
916,4070001039440,新規,0,2022-07-14,2022-07-14,株式会社千明くん農園,,株式会社,群馬県,渋川市,北牧７６７番地３,,10,208,3770205,,,,,,,2022-07-14,1,,,,,チギラクンノウエン,0
920,4080401025956,新規,0,2022-07-14,2022-07-14,日本再興株式会社,,株式会社,静岡県,浜松市西区,入野町９１５７番地の７松本ビル３階,,22,133,4328061,,,,,,,2022-07-14,1,,,,,ニホンサイコウ,0
943,4120001247319,新規,0,2022-07-14,2022-07-14,静縁株式会社,,株式会社,大阪府,大阪市東成区,東中本１丁目１４－６朝日プラザ緑橋ＩＩ６０６号室,00127215,27,115,5370021,,,,,,,2022-07-14,1,,,,,セイエン,0
944,4120001247327,新規,0,2022-07-14,2022-07-14,美翔建設株式会社,,株式会社,大阪府,寝屋川市,中神田町２２番６号,,27,215,5720053,,,,,,,2022-07-14,1,,,,,ビショウケンセツ,0
945,4120001247343,新規,0,2022-07-14,2022-07-14,株式会社フォロー,,株式会社,大阪府,大阪市淀川区,東三国５丁目１３番１２号,,27,123,5320002,,,,,,,2022-07-14,1,,,,,フォロー,0
946,4120001247351,新規,0,2022-07-14,2022-07-14,株式会社えにぽ,,株式会社,大阪府,大阪市西区,立売堀５丁目６番１５号,,27,106,5500012,,,,,,,2022-07-14,1,,,,,エニポ,0
947,4120001247368,新規,0,2022-07-14,2022-07-14,株式会社ＭＩＮＤ　ＰＬＵＳ,,株式会社,大阪府,大阪市東住吉区,山坂５丁目１６番２０号ＧＡＴＥ８０長居スタジアム３Ｄ号室,,27,121,5460035,,,,,,,2022-07-14,1,,,,,マインドプラス,0
950,4120003022067,新規,0,2022-07-14,2022-07-14,合同会社Ｌｉｎｋｓ,,合同会社,大阪府,大阪市都島区,善源寺町２丁目２番７－４３９号,,27,102,5340015,,,,,,,2022-07-14,1,,,,,リンクス,0
951,4120003022075,新規,0,2022-07-14,2022-07-14,ＴＰ　ＧＬＯＢＡＬ合同会社,,合同会社,大阪府,大阪市此花区,梅香１丁目１９番２１－４０２号,,27,104,5540013,,,,,,,2022-07-14,1,,,,,ティーピーグローバル,0
957,4120903004239,新規,0,2022-07-14,2022-07-14,合同会社ＴＩＴＯ,,合同会社,大阪府,箕面市,小野原東６丁目３４番８号（２号）,,27,220,5620031,,,,,,,2022-07-14,1,,,,,ティート,0
962,4130001072154,新規,0,2022-07-14,2022-07-14,株式会社ヒトラクト,,株式会社,京都府,舞鶴市,田中町３８番地８,,26,202,6250024,,,,,,,2022-07-14,1,,,,,ヒトラクト,0
970,4140001126644,新規,0,2022-07-14,2022-07-14,株式会社田頭建築,,株式会社,兵庫県,淡路市,志筑１１８４番地１,,28,226,6562131,,,,,,,2022-07-14,1,,,,,タガシラケンチク,0
971,4140001126685,新規,0,2022-07-14,2022-07-14,株式会社ｍｉｓｓｉｏｎ,,株式会社,兵庫県,宝塚市,平井５丁目３番１３号ナウハウス山本１０３号室,,28,214,6650816,,,,,,,2022-07-14,1,,,,,ミッション,0
974,4140003017890,新規,0,2022-07-14,2022-07-14,合同会社三八,,合同会社,兵庫県,淡路市,谷６５番地３,,28,226,6562332,,,,,,,2022-07-14,1,,,,,サンパチ,0
977,4150001025688,新規,0,2022-07-14,2022-07-14,株式会社レカン,,株式会社,奈良県,生駒市,新旭ケ丘７番５７号,,29,209,6300253,,,,,,,2022-07-14,1,,,,,レカン,0
978,4150001025696,新規,0,2022-07-14,2022-07-14,神愛株式会社,,株式会社,奈良県,吉野郡大淀町,大字北野１３０番地の５,,29,442,6393125,,,,,,,2022-07-14,1,,,,,シンアイ,0
987,4180001152232,新規,0,2022-07-14,2022-07-14,株式会社名古屋緑不動産,,株式会社,愛知県,名古屋市緑区,鳴海町字花井町３９－５,,23,114,4580801,,,,,,,2022-07-14,1,,,,,ナゴヤミドリフドウサン,0
990,4180003024033,新規,0,2022-07-14,2022-07-14,合同会社ユナイテッドインカム,,合同会社,愛知県,名古屋市中区,栄１丁目２３番２９号,,23,106,4600008,,,,,,,2022-07-14,1,,,,,ユナイテッドインカム,0
991,4180005019849,新規,0,2022-07-14,2022-07-14,一般社団法人ＥＭＩＡ,,その他の設立登記法人,愛知県,愛西市,二子町松原２６０番地,,23,232,4968040,,,,,,,2022-07-14,1,,,,,エミア,0
997,4190001029628,新規,0,2022-07-14,2022-07-14,Ｍａｉａ　Ｐｒｉｄｅ株式会社,,株式会社,三重県,伊勢市,円座町６３番地１,,24,203,5161108,,,,,,,2022-07-14,1,,,,,マイアプライド,0
1002,4200001040285,新規,0,2022-07-14,2022-07-14,株式会社トライホープ,,株式会社,岐阜県,大垣市,大井１丁目１９番地９,,21,202,5030836,,,,,,,2022-07-14,1,,,,,トライホープ,0
1004,4220001024955,新規,0,2022-07-14,2022-07-14,株式会社ナイスフーズ,,株式会社,石川県,金沢市,若草町２６番地９,,17,201,9218111,,,,,,,2022-07-14,1,,,,,ナイスフーズ,0
1007,4240001060098,新規,0,2022-07-14,2022-07-14,株式会社Ｓｔｅｐ　Ｕｐ,,株式会社,広島県,三次市,三良坂町仁賀１０５６番地１２,,34,209,7294302,,,,,,,2022-07-14,1,,,,,ステップアップ,0
1010,4250001019671,新規,0,2022-07-14,2022-07-14,株式会社ＩＣＨＩＧＯ　ＷＯＲＫＳ,,株式会社,山口県,山口市,大内御堀３７１２番地１,,35,203,7530214,,,,,,,2022-07-14,1,,,,,イチゴワークス,0
1028,4290003012737,新規,0,2022-07-14,2022-07-14,Ｂａｃｈｅｌｏｒ　Ａｃａｄｅｍｙ合同会社,,合同会社,福岡県,福岡市中央区,赤坂１丁目１１－１３赤坂塚田ビル６Ｆ,,40,133,8100042,,,,,,,2022-07-14,1,,,,,バチェラーアカデミー,0
1035,4290803004165,新規,0,2022-07-14,2022-07-14,合同会社ＳＵＥＯＫＡ,,合同会社,福岡県,直方市,大字永満寺２８４１番地６,,40,204,8220005,,,,,,,2022-07-14,1,,,,,スエオカ,0
1040,4320001019202,新規,0,2022-07-14,2022-07-14,株式会社Ｔｒｅｍｉｅ,,株式会社,大分県,大分市,大字荏隈１６９７番地の３アディα１０３,,44,201,8700889,,,,,,,2022-07-14,1,,,,,トレミー,0
1047,4360001030683,新規,0,2022-07-14,2022-07-14,株式会社隆宮物流,,株式会社,沖縄県,糸満市,西崎町４丁目１５番地６（宮平乳業内）,,47,210,9010306,,,,,,,2022-07-14,1,,,,,タカミヤブツリュウ,0
1057,4410001013237,新規,0,2022-07-14,2022-07-14,株式会社ｇｒｉｔ,,株式会社,秋田県,大仙市,北楢岡字北楢岡１３８番地,00127211,05,212,0191702,,,,,,,2022-07-14,1,,,,,グリット,0
1079,5010001228106,新規,0,2022-07-14,2022-07-14,株式会社Ａｒｔｓ　Ｂｅｌｌ,,株式会社,東京都,中央区,銀座１丁目２０番１４号ＮＫビル３０１号室,,13,102,1040061,,,,,,,2022-07-14,1,,,,,アーツベル,0
1081,5010003038040,新規,0,2022-07-14,2022-07-14,ＴＲＵＳＴ　Ｉｎｔｅｒｎａｔｉｏｎａｌ合同会社,,合同会社,東京都,中央区,銀座１丁目２２番１１号２階,,13,102,1040061,,,,,,,2022-07-14,1,,,,,トラストインターナショナル,0
1082,5010003038189,新規,0,2022-07-14,2022-07-14,丸の内ホスピタリティマネジメント合同会社,,合同会社,東京都,千代田区,平河町１丁目６番１５号シルスフィア会計事務所内,,13,101,1020093,,,,,,,2022-07-14,1,,,,,マルノウチホスピタリティマネジメント,0
1093,5010501049118,新規,0,2022-07-14,2022-07-14,株式会社アライバル,,株式会社,東京都,台東区,浅草橋１丁目２０番１号,,13,106,1110053,,,,,,,2022-07-14,1,,,,,アライバル,0
1098,5010801033093,新規,0,2022-07-14,2022-07-14,株式会社大協殖産,,株式会社,東京都,大田区,大森北１丁目１６番８号,,13,111,1430016,,,,,,,2022-07-14,1,,,,,ダイキョウショクサン,0
1099,5010801033127,新規,0,2022-07-14,2022-07-14,株式会社アイエヌエースリー,,株式会社,東京都,大田区,萩中１丁目８番１２号,,13,111,1440047,,,,,,,2022-07-14,1,,,,,アイエヌエースリー,0
1101,5010901051235,新規,0,2022-07-14,2022-07-14,株式会社まもりや不動産,,株式会社,東京都,世田谷区,喜多見７丁目２５番２３号,,13,112,1570067,,,,,,,2022-07-14,1,,,,,マモリヤフドウサン,0
1106,5011001148566,新規,0,2022-07-14,2022-07-14,株式会社アソビアリ,,株式会社,東京都,渋谷区,円山町５－５Ｎａｖｉ渋谷Ｖ３階,00127216,13,113,1500044,,,,,,,2022-07-14,1,,,,,アソビアリ,0
1120,5011101099536,新規,0,2022-07-14,2022-07-14,リブラース株式会社,,株式会社,東京都,新宿区,市谷田町３丁目８市ヶ谷科学技術イノベーションセンタービル５階,,13,104,1620843,,,,,,,2022-07-14,1,,,,,リブラース,0
1121,5011101099552,新規,0,2022-07-14,2022-07-14,ＮＭ商事株式会社,,株式会社,東京都,新宿区,西早稲田１丁目９－８レオナール１Ｆ,,13,104,1690051,,,,,,,2022-07-14,1,,,,,エヌエムショウジ,0
1125,5011105010300,新規,0,2022-07-14,2022-07-14,一般社団法人日本パーソナルヘルスケア協会,,その他の設立登記法人,東京都,新宿区,荒木町１３－２２グランドメゾン四谷３０３,,13,104,1600007,,,,,,,2022-07-14,1,,,,,ニホンパーソナルヘルスケアキョウカイ,0
1126,5011201023965,新規,0,2022-07-14,2022-07-14,株式会社ＣＣＨコンサルタンツ,,株式会社,東京都,中野区,東中野１丁目４０番４号,,13,114,1640003,,,,,,,2022-07-14,1,,,,,シーシーエイチコンサルタンツ,0
1128,5011203003874,新規,0,2022-07-14,2022-07-14,合同会社Ｆｒｅｅｃｅ,,合同会社,東京都,中野区,東中野４丁目６－６－７０２,,13,114,1640003,,,,,,,2022-07-14,1,,,,,フリース,0
1130,5011401024367,新規,0,2022-07-14,2022-07-14,拓和東京株式会社,,株式会社,東京都,板橋区,若木１丁目６番１１号,,13,119,1740065,,,,,,,2022-07-14,1,,,,,タクワトウキョウ,0
1140,5012803002836,新規,0,2022-07-14,2022-07-14,合同会社Ｒｅ．Ｂｏｒｎ,,合同会社,東京都,立川市,錦町１丁目６番１６号２Ｆ,,13,202,1900022,,,,,,,2022-07-14,1,,,,,リボーン,0
1152,5020003022101,新規,0,2022-07-14,2022-07-14,アルケミストコンサルティング合同会社,,合同会社,神奈川県,横浜市港北区,岸根町３４２番地２８,,14,109,2220034,,,,,,,2022-07-14,1,,,,,アルケミストコンサルティング,0
1153,5020003022118,新規,0,2022-07-14,2022-07-14,メディアプラン合同会社,,合同会社,神奈川県,横浜市青葉区,しらとり台６１－１０,,14,117,2270054,,,,,,,2022-07-14,1,,,,,メディアプラン,0
1157,5021001076527,新規,0,2022-07-14,2022-07-14,Ｔｈｅ．３．Ｄｅｃｉｓｉｏｎ株式会社,,株式会社,神奈川県,厚木市,下荻野５１６番地５,,14,212,2430203,,,,,,,2022-07-14,1,,,,,ザスリーディシジョン,0
1158,5021001076535,新規,0,2022-07-14,2022-07-14,株式会社ＨＡＲＵＭＡＫＩ,,株式会社,神奈川県,逗子市,新宿２丁目１４番２８号,,14,208,2490007,,,,,,,2022-07-14,1,,,,,ハルマキ,0
1160,5021003011936,新規,0,2022-07-14,2022-07-14,合同会社Ｌｉｅｎ　ｄｅ,,合同会社,神奈川県,海老名市,上今泉２丁目３－１９,,14,215,2430431,,,,,,,2022-07-14,1,,,,,リアンドゥ,0
1169,5030001149201,新規,0,2022-07-14,2022-07-14,株式会社フジマル開発,,株式会社,埼玉県,吉川市,道庭１丁目３番地８,,11,243,3420034,,,,,,,2022-07-14,1,,,,,フジマルカイハツ,0
1170,5030001149242,新規,0,2022-07-14,2022-07-14,株式会社金宥利,,株式会社,埼玉県,本庄市,児玉町児玉１１４１番地１,,11,211,3670212,,,,,,,2022-07-14,1,,,,,キンユウリ,0
1179,5030003019674,新規,0,2022-07-14,2022-07-14,合同会社ＫＯＮＧｒｏｕｐ,,合同会社,埼玉県,所沢市,大字上山口２１９０－７－３０６,,11,208,3591153,,,,,,,2022-07-14,1,,,,,ケーオーエヌグループ,0
1183,5040001124293,新規,0,2022-07-14,2022-07-14,千葉放射線科学株式会社,,株式会社,千葉県,千葉市稲毛区,弥生町１番３３号千葉大学,,12,103,2630022,,,,,,,2022-07-14,1,,,,,チバホウシャセンカガク,0
1188,5040003020409,新規,0,2022-07-14,2022-07-14,合同会社アストリックス,,合同会社,千葉県,我孫子市,船戸３丁目１番１８号,,12,222,2701158,,,,,,,2022-07-14,1,,,,,アストリックス,0
1189,5040003020433,新規,0,2022-07-14,2022-07-14,フジカ合同会社,,合同会社,千葉県,千葉市美浜区,幸町２丁目８番１３号,,12,106,2610001,,,,,,,2022-07-14,1,,,,,フジカ,0
1202,5100001035534,新規,0,2022-07-14,2022-07-14,株式会社ｇａｒａｇｅＴＯＮＯ,,株式会社,長野県,伊那市,福島１０２３番地１,,20,209,3960001,,,,,,,2022-07-14,1,,,,,ガレージトノ,0
1218,5120001247219,新規,0,2022-07-14,2022-07-14,株式会社Ｃｏｔａｋｕｍｉ,,株式会社,大阪府,大阪市東住吉区,杭全８丁目９番２０号,,27,121,5460002,,,,,,,2022-07-14,1,,,,,コタクミ,0
1219,5120001247326,新規,0,2022-07-14,2022-07-14,灯ポート株式会社,,株式会社,大阪府,大阪市東成区,東中本１丁目１２－１０,,27,115,5370021,,,,,,,2022-07-14,1,,,,,アカリポート,0
1220,5120001247350,新規,0,2022-07-14,2022-07-14,株式会社華ふだｃｏｍｐａｎｙ,,株式会社,大阪府,大阪市北区,梅田１丁目１１番４号大阪駅前第４ビル１０００号室,,27,127,5300001,,,,,,,2022-07-14,1,,,,,ハナフダカンパニー,0
1221,5120001247359,新規,0,2022-07-14,2022-07-14,株式会社零,,株式会社,大阪府,枚方市,尊延寺４丁目２番２２号,,27,210,5730112,,,,,,,2022-07-14,1,,,,,ゼロ,0
1222,5120001247367,新規,0,2022-07-14,2022-07-14,株式会社フェロッド,,株式会社,大阪府,寝屋川市,成田町８番４号,,27,215,5720004,,,,,,,2022-07-14,1,,,,,フェロッド,0
1223,5120001247375,新規,0,2022-07-14,2022-07-14,ボーダーフォンテクノロジー株式会社,,株式会社,大阪府,大阪市阿倍野区,阪南町１丁目４６番２２－５０１号,,27,119,5450021,,,,,,,2022-07-14,1,,,,,ボーダーフォンテクノロジー,0
1224,5120001247417,新規,0,2022-07-14,2022-07-14,古里庵株式会社,,株式会社,大阪府,大阪市中央区,日本橋１丁目４番,,27,128,5420073,,,,,,,2022-07-14,1,,,,,コリアン,0
1225,5120003022066,新規,0,2022-07-14,2022-07-14,合同会社ビーファイブ,,合同会社,大阪府,大阪市福島区,鷺洲４丁目６番１５－７１２号,,27,103,5530002,,,,,,,2022-07-14,1,,,,,ビーファイブ,0
1226,5120003022074,新規,0,2022-07-14,2022-07-14,合同会社アール・エム・シ,,合同会社,大阪府,大阪市中央区,北新町４番１号,,27,128,5400023,,,,,,,2022-07-14,1,,,,,アールエムシ,0
1233,5120901046240,新規,0,2022-07-14,2022-07-14,株式会社ＹｏｕｒＧｒａｃｅ,,株式会社,大阪府,吹田市,原町１丁目１１番２号,,27,205,5640004,,,,,,,2022-07-14,1,,,,,ユアグレイス,0
1234,5120903004238,新規,0,2022-07-14,2022-07-14,エフコンサルティング合同会社,,合同会社,大阪府,豊中市,中桜塚２丁目１２番９号新桜塚ビル５階,,27,203,5610881,,,,,,,2022-07-14,1,,,,,エフコンサルティング,0
1235,5120905006356,新規,0,2022-07-14,2022-07-14,医療法人のだファミリー歯科,,その他の設立登記法人,大阪府,吹田市,岸部中３丁目１３番６号Ｓｏｕ１０１号室,,27,205,5640002,,,,,,,2022-07-14,1,,,,,ノダファミリーシカ,0
1246,5140001126676,新規,0,2022-07-14,2022-07-14,株式会社ふわぼわ,,株式会社,兵庫県,神戸市中央区,楠町２丁目４番１２号,,28,110,6500017,,,,,,,2022-07-14,1,,,,,フワボワ,0
1247,5140001126692,新規,0,2022-07-14,2022-07-14,エムテクニカル株式会社,,株式会社,兵庫県,神戸市兵庫区,氷室町１丁目１０番１０号,,28,105,6520054,,,,,,,2022-07-14,1,,,,,エムテクニカル,0
1248,5140001126718,新規,0,2022-07-14,2022-07-14,株式会社レイワパックス,,株式会社,兵庫県,加東市,大門３６１番地１,,28,228,6731445,,,,,,,2022-07-14,1,,,,,レイワパックス,0
1252,5150001025695,新規,0,2022-07-14,2022-07-14,株式会社トヤマハウジング,,株式会社,奈良県,奈良市,七条西町１丁目１番１３号,,29,201,6308054,,,,,,,2022-07-14,1,,,,,トヤマハウジング,0
1253,5160001024374,新規,0,2022-07-14,2022-07-14,株式会社ＳＥＶＥＮ　ＥＩＧＨＴ,,株式会社,滋賀県,大津市,札の辻１番２５号,,25,201,5200045,,,,,,,2022-07-14,1,,,,,セブンエイト,0
1261,5180001152149,新規,0,2022-07-14,2022-07-14,リネットジャパングローバルスタッフ株式会社,,株式会社,愛知県,名古屋市中村区,平池町４丁目６０番１２号グローバルゲート２６階,,23,105,4530872,,,,,,,2022-07-14,1,,,,,リネットジャパングローバルスタッフ,0
1262,5180001152231,新規,0,2022-07-14,2022-07-14,ｍｉｒａｃｌｅ株式会社,,株式会社,愛知県,大府市,北崎町井田６５番地の７,,23,223,4740001,,,,,,,2022-07-14,1,,,,,ミラクル,0
1264,5180003024016,新規,0,2022-07-14,2022-07-14,ＮＯＢＵＤＺ　ＪＡＰＡＮ合同会社,,合同会社,愛知県,名古屋市中川区,助光２丁目６０６,,23,110,4540947,,,,,,,2022-07-14,1,,,,,ノーバッズジャパン,0
1265,5180003024040,新規,0,2022-07-14,2022-07-14,合同会社ＡＫＡＮＥ,,合同会社,愛知県,名古屋市南区,五条町２丁目１番地,,23,112,4570851,,,,,,,2022-07-14,1,,,,,アカネ,0
1270,5190001029593,新規,0,2022-07-14,2022-07-14,株式会社ネーブル・ジャパン,,株式会社,三重県,松阪市,日野町７７２番地２,,24,204,5150084,,,,,,,2022-07-14,1,,,,,ネーブルジャパン,0
1271,5200001040276,新規,0,2022-07-14,2022-07-14,ｔｅｄ株式会社,,株式会社,岐阜県,多治見市,長瀬町２４‐１０５,,21,204,5070017,,,,,,,2022-07-14,1,,,,,テッド,0
1288,5260001037052,新規,0,2022-07-14,2022-07-14,ティーケーダッシュミート株式会社,,株式会社,岡山県,岡山市中区,兼基４０番２号,,33,102,7038227,,,,,,,2022-07-14,1,,,,,ティーケーダッシュミート,0
1289,5290001098273,新規,0,2022-07-14,2022-07-14,どんぐり倶楽部株式会社,,株式会社,福岡県,福岡市中央区,天神１丁目１－１,,40,133,8100001,,,,,,,2022-07-14,1,,,,,ドングリクラブ,0
1293,5290003012637,新規,0,2022-07-14,2022-07-14,合同会社ＭＭＰ,,合同会社,福岡県,福岡市博多区,吉塚６丁目５－２９ラフレシーサ博多東,,40,132,8120041,,,,,,,2022-07-14,1,,,,,エムエムピー,0
1294,5290801028735,新規,0,2022-07-14,2022-07-14,株式会社ａｉｍ,,株式会社,福岡県,北九州市八幡西区,光明２丁目１２番９号,,40,109,8070824,,,,,,,2022-07-14,1,,,,,アイム,0
1301,5330001029926,新規,0,2022-07-14,2022-07-14,株式会社アデイズ,,株式会社,熊本県,菊池郡菊陽町,光の森２丁目８番地１,,43,404,8691108,,,,,,,2022-07-14,1,,,,,アデイズ,0
1302,5340001024901,新規,0,2022-07-14,2022-07-14,株式会社友設備,,株式会社,鹿児島県,奄美市,名瀬平田町２９番６号,,46,222,8940014,,,,,,,2022-07-14,1,,,,,トモセツビ,0
1304,5340003003861,新規,0,2022-07-14,2022-07-14,合同会社こもれび,,合同会社,鹿児島県,西之表市,西之表８７５４－３,,46,213,8913101,,,,,,,2022-07-14,1,,,,,コモレビ,0
1306,5360001030682,新規,0,2022-07-14,2022-07-14,Ｂｅ　Ｗａｔｅｒ　Ｍｙ　Ｆａｍｉｌｙ株式会社,,株式会社,沖縄県,那覇市,松尾１丁目１０番２４号ホークシティ那覇ビル５階,,47,201,9000014,,,,,,,2022-07-14,1,,,,,ビーウォーターマイファミリー,0
1310,5380001032974,新規,0,2022-07-14,2022-07-14,株式会社常陽経営ファイナンシャルアドバイザリー,,株式会社,福島県,いわき市,内郷高坂町砂子田９４番地,,07,204,9738408,,,,,,,2022-07-14,1,,,,,ジョウヨウケイエイファイナンシャルアドバイザリー,0
1325,5460001005716,新規,0,2022-07-14,2022-07-14,株式会社マルエ,,株式会社,北海道,釧路市,豊川町１４番８号,,01,206,0850053,,,,,,,2022-07-14,1,,,,,マルエ,0
1328,5460101007216,新規,0,2022-07-14,2022-07-14,株式会社スマヒロ,,株式会社,北海道,帯広市,西八条南２５丁目１３番地,,01,207,0800018,,,,,,,2022-07-14,1,,,,,スマヒロ,0
1335,5490001010234,新規,0,2022-07-14,2022-07-14,株式会社そーむ,,株式会社,高知県,高知市,針木東町６番１０号,,39,201,7808086,,,,,,,2022-07-14,1,,,,,ソーム,0
1337,5500001024348,新規,0,2022-07-14,2022-07-14,株式会社いよ翁,,株式会社,愛媛県,伊予郡松前町,大字鶴吉５番地５,,38,401,7913155,,,,,,,2022-07-14,1,,,,,イヨオキナ,0
1347,6010001228006,新規,0,2022-07-14,2022-07-14,株式会社文月,,株式会社,東京都,中央区,銀座１丁目２２番１１号銀座大竹ビジデンス２階,,13,102,1040061,,,,,,,2022-07-14,1,,,,,フヅキ,0
1348,6010001228022,新規,0,2022-07-14,2022-07-14,株式会社ファーストリンク,,株式会社,東京都,千代田区,神田須田町１丁目１８番２８号リズブラン３０２,,13,101,1010041,,,,,,,2022-07-14,1,,,,,ファーストリンク,0
1349,6010001228146,新規,0,2022-07-14,2022-07-14,ＷＨ株式会社,,株式会社,東京都,中央区,日本橋本町１丁目４番９号,,13,102,1030023,,,,,,,2022-07-14,1,,,,,ダブリューエイチ,0
1363,6010401168462,新規,0,2022-07-14,2022-07-14,株式会社浜松町みなと会計事務所,,株式会社,東京都,港区,浜松町２丁目４番１号世界貿易センタービルディング南館１７階,,13,103,1050013,,,,,,,2022-07-14,1,,,,,ハママツチョウミナトカイケイジムショ,0
1364,6010401168504,新規,0,2022-07-14,2022-07-14,Ｏｄｙａｓｅｎｔ　Ｊａｐａｎ株式会社,,株式会社,東京都,港区,赤坂４丁目１４番１４－３９０９号パークコート赤坂ザ・タワー,,13,103,1070052,,,,,,,2022-07-14,1,,,,,オダヤセントジャパン,0
1365,6010403028094,新規,0,2022-07-14,2022-07-14,アルネア３合同会社,,合同会社,東京都,港区,六本木１丁目９番１０号アークヒルズ仙石山森タワー４０階,,13,103,1060032,,,,,,,2022-07-14,1,,,,,アルネアサン,0
1367,6010405021147,新規,0,2022-07-14,2022-07-14,一般社団法人実験芸術研究機構,,その他の設立登記法人,東京都,港区,南麻布４丁目１１－１７インペリアル南麻布４１９,,13,103,1060047,,,,,,,2022-07-14,1,,,,,ジッケンゲイジュツケンキュウキコウ,0
1381,6011001148573,新規,0,2022-07-14,2022-07-14,株式会社佐藤,,株式会社,東京都,渋谷区,渋谷２丁目１９番１５号宮益坂ビルディング６０９,,13,113,1500002,,,,,,,2022-07-14,1,,,,,サトウ,0
1382,6011001148672,新規,0,2022-07-14,2022-07-14,株式会社コズミック,,株式会社,東京都,渋谷区,神宮前２丁目１８番２１号,,13,113,1500001,,,,,,,2022-07-14,1,,,,,コズミック,0
1384,6011005009664,新規,0,2022-07-14,2022-07-14,一般社団法人アスリートライフデザインアソシエーション,,その他の設立登記法人,東京都,渋谷区,神宮前６丁目２３番４号桑野ビル２階,,13,113,1500001,,,,,,,2022-07-14,1,,,,,アスリートライフデザインアソシエーション,0
1388,6011101099535,新規,0,2022-07-14,2022-07-14,ポタモス株式会社,,株式会社,東京都,新宿区,市谷田町３丁目８市ヶ谷科学技術イノベーションセンタービル５階,,13,104,1620843,,,,,,,2022-07-14,1,,,,,ポタモス,0
1392,6011201023956,新規,0,2022-07-14,2022-07-14,富士見株式会社,,株式会社,東京都,中野区,上鷺宮５丁目２７番８号アップルハイツ１－１０３,,13,114,1650031,,,,,,,2022-07-14,1,,,,,フジミ,0
1400,6011403003723,新規,0,2022-07-14,2022-07-14,合同会社ハイブリッジ,,合同会社,東京都,板橋区,赤塚４丁目１３番２２号ＳＴＥＰＣＬＯＵＤ成増ＶＩ１１０,00127210,13,119,1750092,,,,,,,2022-07-14,1,,,,,ハイブリッジ,0
1412,6012401039420,新規,0,2022-07-14,2022-07-14,株式会社ＭＹ企画,,株式会社,東京都,武蔵野市,境南町３丁目２３番６号,,13,203,1800023,,,,,,,2022-07-14,1,,,,,エムワイキカク,0
1421,6021001076526,新規,0,2022-07-14,2022-07-14,きずなメディカル株式会社,,株式会社,神奈川県,横須賀市,長井３丁目２７番４４号,,14,201,2380316,,,,,,,2022-07-14,1,,,,,キズナメディカル,0
1422,6021001076534,新規,0,2022-07-14,2022-07-14,パンライス株式会社,,株式会社,神奈川県,鎌倉市,七里ガ浜東３丁目１５番１４号,,14,204,2480025,,,,,,,2022-07-14,1,,,,,パンライス,0
1425,6021003011935,新規,0,2022-07-14,2022-07-14,合同会社Ｓｈｉｎｍｅｉコーポレーション,,合同会社,神奈川県,秦野市,戸川７７７番地,,14,211,2591306,,,,,,,2022-07-14,1,,,,,シンメイコーポレーション,0
1426,6021003011951,新規,0,2022-07-14,2022-07-14,合同会社山の神,,合同会社,神奈川県,愛甲郡愛川町,半原４９１１－５,,14,401,2430307,,,,,,,2022-07-14,1,,,,,ヤマノカミ,0
1437,6030001148821,新規,0,2022-07-14,2022-07-14,株式会社ＲＥＩＳ,,株式会社,埼玉県,川口市,戸塚１丁目６番１１号ロイヤルメゾン３、２０２,,11,203,3330811,,,,,,,2022-07-14,1,,,,,レイス,0
1438,6030001149126,新規,0,2022-07-14,2022-07-14,樹モールプラザトラスト株式会社,,株式会社,埼玉県,川口市,並木３丁目１番１９号,,11,203,3320034,,,,,,,2022-07-14,1,,,,,ジュモールプラザトラスト,0
1444,6030005020919,新規,0,2022-07-14,2022-07-14,司法書士法人大鹿事務所,,その他の設立登記法人,埼玉県,久喜市,本町１丁目９番２号,,11,232,3460005,,,,,,,2022-07-14,1,,,,,オオシカジムショ,0
1450,6040001124276,新規,0,2022-07-14,2022-07-14,株式会社絆,,株式会社,千葉県,佐倉市,上志津１８２１番地１６,,12,212,2850846,,,,,,,2022-07-14,1,,,,,キズナ,0
1454,6050003006686,新規,0,2022-07-14,2022-07-14,合同会社ＢＩＬＡＬ　ＴＲＡＤＩＮＧ,,合同会社,茨城県,猿島郡五霞町,大字小手指１５２２番地,,08,542,3060315,,,,,,,2022-07-14,1,,,,,ビラルトレーディング,0
1465,6080403004584,新規,0,2022-07-14,2022-07-14,合同会社Ｇｌａｎｚ,,合同会社,静岡県,磐田市,中野１番地１５５中野団地,,22,211,4380053,,,,,,,2022-07-14,1,,,,,グランツ,0
1466,6090003002137,新規,0,2022-07-14,2022-07-14,合同会社Ｒ２Ｈ　ＹＡＭＡＮＡＳＨＩ,,合同会社,山梨県,甲府市,丸の内２丁目２－１ＣＲＯＳＳ５００、１Ｆ,,19,201,4000031,,,,,,,2022-07-14,1,,,,,アールトゥエイチヤマナシ,0
1484,6120001247399,新規,0,2022-07-14,2022-07-14,株式会社エルフィールド,,株式会社,大阪府,大阪市北区,中崎３丁目４番１３－７０６号,,27,127,5300016,,,,,,,2022-07-14,1,,,,,エルフィールド,0
1485,6120003022065,新規,0,2022-07-14,2022-07-14,合同会社Ｓ‐ｆｉｖｅ,,合同会社,大阪府,大阪市中央区,久太郎町１丁目７番１１－２３１１号,,27,128,5410056,,,,,,,2022-07-14,1,,,,,エスファイブ,0
1486,6120003022098,新規,0,2022-07-14,2022-07-14,合同会社ＭＯＴＩ,,合同会社,大阪府,大阪市東淀川区,西淡路３丁目１番４３号－２０２号室,,27,114,5330031,,,,,,,2022-07-14,1,,,,,モティ,0
1490,6120005023078,新規,0,2022-07-14,2022-07-14,一般社団法人プラタナス,,その他の設立登記法人,大阪府,大阪市中央区,道修町２丁目２番５号,,27,128,5410045,,,,,,,2022-07-14,1,,,,,プラタナス,0
1495,6120101065924,新規,0,2022-07-14,2022-07-14,羽田金属株式会社,,株式会社,大阪府,泉佐野市,南中樫井４３１番地の１,,27,213,5980035,,,,,,,2022-07-14,1,,,,,ハダキンゾク,0
1496,6120103004789,新規,0,2022-07-14,2022-07-14,合同会社Ｍｏｎａｒｃｈ,,合同会社,大阪府,河内長野市,本町１９番１８－３号,,27,216,5860015,,,,,,,2022-07-14,1,,,,,モナーク,0
1502,6130001072144,新規,0,2022-07-14,2022-07-14,株式会社ＴＲＥＥＥ’Ｓ,,株式会社,京都府,京都市右京区,太秦安井東裏町６番地１,,26,108,6168063,,,,,,,2022-07-14,1,,,,,ツリーズ,0
1503,6130001072243,新規,0,2022-07-14,2022-07-14,株式会社ウィル,,株式会社,京都府,京都市下京区,紅葉町３５８番地１もみじビル１０２号,,26,106,6008345,,,,,,,2022-07-14,1,,,,,ウィル,0
1514,6140001126618,新規,0,2022-07-14,2022-07-14,株式会社アップサポート,,株式会社,兵庫県,宝塚市,山手台東３丁目１４番１５号,,28,214,6650887,,,,,,,2022-07-14,1,,,,,アップサポート,0
1515,6140001126659,新規,0,2022-07-14,2022-07-14,株式会社凌乃水産,,株式会社,兵庫県,尼崎市,神田北通６丁目１７６番地,,28,202,6600883,,,,,,,2022-07-14,1,,,,,リョウノスイサン,0
1516,6140001126741,新規,0,2022-07-14,2022-07-14,株式会社小林水産,,株式会社,兵庫県,南あわじ市,福良乙１６５３番地２２,,28,224,6560502,,,,,,,2022-07-14,1,,,,,コバヤシスイサン,0
1519,6140003017889,新規,0,2022-07-14,2022-07-14,エッグプラント合同会社,,合同会社,兵庫県,尼崎市,南竹谷町３丁目６番地の１２,,28,202,6600875,,,,,,,2022-07-14,1,,,,,エッグプラント,0
1521,6150001025694,新規,0,2022-07-14,2022-07-14,Ｌａ　ｖｉｅ株式会社,,株式会社,奈良県,天理市,三島町１４７番地６,,29,204,6320015,,,,,,,2022-07-14,1,,,,,ラヴィ,0
1523,6160001024357,新規,0,2022-07-14,2022-07-14,惠豊株式会社,,株式会社,滋賀県,大津市,瀬田５丁目３６番１－２０１号,,25,201,5202134,,,,,,,2022-07-14,1,,,,,ヤストヨ,0
1524,6160001024373,新規,0,2022-07-14,2022-07-14,株式会社近江フードＪＡＰＡＮ,,株式会社,滋賀県,近江八幡市,土田町１３７６番地７,,25,204,5230082,,,,,,,2022-07-14,1,,,,,オウミフードジャパン,0
1533,6180001152164,新規,0,2022-07-14,2022-07-14,株式会社ヘルスケアエージェント,,株式会社,愛知県,名古屋市中村区,名駅１丁目１番１号,,23,105,4500002,,,,,,,2022-07-14,1,,,,,ヘルスケアエージェント,0
1534,6180001152189,新規,0,2022-07-14,2022-07-14,株式会社Ｂｕｌｌｅｓ　ｄ’ｅａｕ,,株式会社,愛知県,名古屋市千種区,池下町２丁目３９番地の１,,23,101,4640066,,,,,,,2022-07-14,1,,,,,ビュルドゥオー,0
1535,6180001152206,新規,0,2022-07-14,2022-07-14,株式会社キャリカクＰＬＵＳ,,株式会社,愛知県,名古屋市西区,八筋町２２２番地１パークハイツ平塚１Ｃ,,23,104,4520815,,,,,,,2022-07-14,1,,,,,キャリカクプラス,0
1536,6180001152230,新規,0,2022-07-14,2022-07-14,株式会社シンワ,,株式会社,愛知県,名古屋市中村区,香取町１丁目５５番地（政喜ハイツ３０２号）,,23,105,4530055,,,,,,,2022-07-14,1,,,,,シンワ,0
1538,6180003024048,新規,0,2022-07-14,2022-07-14,合同会社Ｋｉｒａｒｉ,,合同会社,愛知県,名古屋市守山区,深沢１丁目２５０７,,23,113,4630811,,,,,,,2022-07-14,1,,,,,キラリ,0
1546,6200001040283,新規,0,2022-07-14,2022-07-14,株式会社和,,株式会社,岐阜県,大垣市,中野町２丁目１０番地１ベルクール１０２,,21,202,5030022,,,,,,,2022-07-14,1,,,,,ナゴミ,0
1553,6210005010042,新規,0,2022-07-14,2022-07-14,一般社団法人ＷＡＫＡＳＡＢＡＹ　ＰＲＩＭＥ,,その他の設立登記法人,福井県,三方郡美浜町,久々子第７２号１番地の１,,18,442,9191123,,,,,,,2022-07-14,1,,,,,ワカサベイプライム,0
1564,6260001037051,新規,0,2022-07-14,2022-07-14,株式会社ソトム建物診断,,株式会社,岡山県,岡山市北区,東古松４丁目３番２５号サーパス医大南弐番館９０１号,,33,101,7000921,,,,,,,2022-07-14,1,,,,,ソトムタテモノシンダン,0
1567,6270001008588,新規,0,2022-07-14,2022-07-14,株式会社ティースクリエイト西村,,株式会社,鳥取県,八頭郡智頭町,大字早瀬１０６番地,,31,328,6891445,,,,,,,2022-07-14,1,,,,,ティースクリエイトニシムラ,0
1571,6290001098297,新規,0,2022-07-14,2022-07-14,株式会社やればできる,,株式会社,福岡県,古賀市,米多比１６３７番地１６,,40,223,8113123,,,,,,,2022-07-14,1,,,,,ヤレバデキル,0
1572,6290001098306,新規,0,2022-07-14,2022-07-14,サンドボックス株式会社,,株式会社,福岡県,福岡市博多区,博多駅東２丁目５番１９号,,40,132,8120013,,,,,,,2022-07-14,1,,,,,サンドボックス,0
1577,6290003012735,新規,0,2022-07-14,2022-07-14,合同会社フォルトナ,,合同会社,福岡県,福岡市中央区,草香江１丁目２番１５号ウェルアクセス草香江３０３,,40,133,8100045,,,,,,,2022-07-14,1,,,,,フォルトナ,0
1595,6330001029933,新規,0,2022-07-14,2022-07-14,株式会社ＲＥＴＥＮ,,株式会社,熊本県,阿蘇郡南小国町,大字赤馬場１００番地１フォレスト南小国１０２号,,43,423,8692401,,,,,,,2022-07-14,1,,,,,レテン,0
1602,6360001030624,新規,0,2022-07-14,2022-07-14,株式会社ＡＫＲＯＸＹＥＤ,,株式会社,沖縄県,宮古島市,平良字久貝７５７番地２Ｋｍｙｈｏｕｓｅ３０５,,47,214,9060015,,,,,,,2022-07-14,1,,,,,アクロシード,0
1639,7010001228054,新規,0,2022-07-14,2022-07-14,株式会社ＡＤＶＡＮＣＥ　ＧＬＯＢＡＬ,,株式会社,東京都,中央区,八丁堀４丁目４番４号,,13,102,1040032,,,,,,,2022-07-14,1,,,,,アドバンスグローバル,0
1640,7010001228062,新規,0,2022-07-14,2022-07-14,イージアネット株式会社,,株式会社,東京都,中央区,日本橋人形町１丁目２番１２号,,13,102,1030013,,,,,,,2022-07-14,1,,,,,イージアネット,0
1649,7010401168511,新規,0,2022-07-14,2022-07-14,株式会社ｃｏｓｍｉ,,株式会社,東京都,港区,港南２丁目３番１号大信秋山ビル３Ｆ,,13,103,1080075,,,,,,,2022-07-14,1,,,,,コスミ,0
1654,7010403028093,新規,0,2022-07-14,2022-07-14,アルネア２合同会社,,合同会社,東京都,港区,六本木１丁目９番１０号アークヒルズ仙石山森タワー４０階,,13,103,1060032,,,,,,,2022-07-14,1,,,,,アルネアニ,0
1657,7010405021195,新規,0,2022-07-14,2022-07-14,芝公園一般社団法人,,その他の設立登記法人,東京都,港区,元赤坂１丁目１番８号株式会社赤坂国際会計内,,13,103,1070051,,,,,,,2022-07-14,1,,,,,シバコウエン,0
1660,7010503006651,新規,0,2022-07-14,2022-07-14,ＨＹＮ．ＫＡＳＡＨＡＲＡ合同会社,,合同会社,東京都,台東区,浅草４丁目４９番８号,,13,106,1110032,,,,,,,2022-07-14,1,,,,,エイチワイエヌカサハラ,0
1663,7010601061474,新規,0,2022-07-14,2022-07-14,ボートスリー総合コンサルティング株式会社,,株式会社,東京都,江東区,豊洲５丁目１番１３号ブランズタワー豊洲４０１９,,13,108,1350061,,,,,,,2022-07-14,1,,,,,ボートスリーソウゴウコンサルティング,0
1665,7010701042952,新規,0,2022-07-14,2022-07-14,株式会社豊洲メタル,,株式会社,東京都,品川区,南大井２丁目１２ー５ー１１１２,,13,109,1400013,,,,,,,2022-07-14,1,,,,,トヨスメタル,0
1678,7011001148639,新規,0,2022-07-14,2022-07-14,株式会社ミスマルノタマ,,株式会社,東京都,渋谷区,円山町５番５号Ｎａｖｉ渋谷Ｖ３階,00127217,13,113,1500044,,,,,,,2022-07-14,1,,,,,ミスマルノタマ,0
1679,7011003015044,新規,0,2022-07-14,2022-07-14,合同会社石川,,合同会社,東京都,渋谷区,大山町３番１４－２０４号,,13,113,1510065,,,,,,,2022-07-14,1,,,,,イシカワ,0
1684,7011201023963,新規,0,2022-07-14,2022-07-14,株式会社久保田,,株式会社,東京都,中野区,野方６丁目１０番８号,,13,114,1650027,,,,,,,2022-07-14,1,,,,,クボタ,0
1685,7011203003864,新規,0,2022-07-14,2022-07-14,Ｊ１２合同会社,,合同会社,東京都,中野区,中央４丁目５８番７号,,13,114,1640011,,,,,,,2022-07-14,1,,,,,ジェイワンツー,0
1688,7011401024407,新規,0,2022-07-14,2022-07-14,株式会社ツナガリ,,株式会社,東京都,板橋区,志村３丁目２４番３号高橋ビル２階,,13,119,1740056,,,,,,,2022-07-14,1,,,,,ツナガリ,0
1689,7011501028266,新規,0,2022-07-14,2022-07-14,株式会社ＩＮＦ,,株式会社,東京都,北区,赤羽１丁目１５番１号新仲ビル３階,,13,117,1150045,,,,,,,2022-07-14,1,,,,,アイエヌエフ,0
1692,7011801041002,新規,0,2022-07-14,2022-07-14,株式会社ＮＥＸＴＡＧＥ,,株式会社,東京都,足立区,綾瀬４丁目５番１９号,,13,121,1200005,,,,,,,2022-07-14,1,,,,,ネクステージ,0
1693,7011801041010,新規,0,2022-07-14,2022-07-14,株式会社ＳＫＴファーム,,株式会社,東京都,葛飾区,新小岩２丁目３９番２号,,13,122,1240024,,,,,,,2022-07-14,1,,,,,エスケイティーファーム,0
1706,7020001147360,新規,0,2022-07-14,2022-07-14,株式会社まことしなやか,,株式会社,神奈川県,横浜市戸塚区,戸塚町４０１１番地２―２階,,14,110,2440003,,,,,,,2022-07-14,1,,,,,マコトシナヤカ,0
1710,7020005015596,新規,0,2022-07-14,2022-07-14,一般社団法人全日本相続支援協会,,その他の設立登記法人,神奈川県,横浜市中区,長者町３丁目８番１３号ＴＫ関内プラザ６階,,14,104,2310033,,,,,,,2022-07-14,1,,,,,ゼンニホンソウゾクシエンキョウカイ,0
1726,7030001149257,新規,0,2022-07-14,2022-07-14,株式会社ＹＵＭ,,株式会社,埼玉県,さいたま市大宮区,天沼町１丁目４１６番地ロイヤルフレーズ武蔵野２０６号,,11,103,3300834,,,,,,,2022-07-14,1,,,,,ワイユーエム,0
1742,7040001124309,新規,0,2022-07-14,2022-07-14,東日本総合建設株式会社,,株式会社,千葉県,千葉市花見川区,犢橋町２５９番地１こてはしマンション４０１号,,12,102,2620013,,,,,,,2022-07-14,1,,,,,ヒガシニホンソウゴウケンセツ,0
1753,7050001051411,新規,0,2022-07-14,2022-07-14,株式会社長塚運送,,株式会社,茨城県,取手市,市之代５２４番地,,08,217,3020037,,,,,,,2022-07-14,1,,,,,ナガツカウンソウ,0
1757,7050003006685,新規,0,2022-07-14,2022-07-14,合同会社ＪＰ．ＪＡＹＡ　ＩＮＴＥＲＮＡＴＩＯＮＡＬ,,合同会社,茨城県,龍ケ崎市,愛戸町５４番地２ロイヤル・コート愛戸Ｂ第２０５号室,,08,208,3010838,,,,,,,2022-07-14,1,,,,,ジェーピージャヤインターナショナル,0
1763,7080403004583,新規,0,2022-07-14,2022-07-14,ＲＵＺＮＡＭ合同会社,,合同会社,静岡県,浜松市中区,布橋２丁目１５番１５号,,22,131,4328012,,,,,,,2022-07-14,1,,,,,ラズナム,0
1766,7100001035532,新規,0,2022-07-14,2022-07-14,株式会社原電化設備,,株式会社,長野県,下伊那郡阿智村,春日３１３８番地１,,20,407,3950301,,,,,,,2022-07-14,1,,,,,ハラデンカセツビ,0
1767,7100003006622,新規,0,2022-07-14,2022-07-14,ＰＨＵ　ＴＨＯ１９合同会社,,合同会社,長野県,上田市,中央３丁目１４番１７－２０２号,,20,203,3860012,,,,,,,2022-07-14,1,,,,,フートージューキュー,0
1783,7120001247019,新規,0,2022-07-14,2022-07-14,株式会社ＴＲＥＡＳＵＲＥＩＳＬＡＮＤ,,株式会社,大阪府,大阪市平野区,西脇１丁目１２番１２－３０１号,,27,126,5470035,,,,,,,2022-07-14,1,,,,,トレジャーアイランド,0
1784,7120001247349,新規,0,2022-07-14,2022-07-14,フォルテ株式会社,,株式会社,大阪府,大阪市城東区,成育１丁目６－６－２０５,,27,118,5360007,,,,,,,2022-07-14,1,,,,,フォルテ,0
1785,7120001247365,新規,0,2022-07-14,2022-07-14,ＦＣＳ株式会社,,株式会社,大阪府,大阪市北区,天神橋１丁目１１番３号アクアスイート南森町３０３号,,27,127,5300041,,,,,,,2022-07-14,1,,,,,エフシーエス,0
1786,7120001247381,新規,0,2022-07-14,2022-07-14,株式会社エイチ,,株式会社,大阪府,大阪市北区,芝田１丁目１２番７号大栄ビル７階,,27,127,5300012,,,,,,,2022-07-14,1,,,,,エイチ,0
1787,7120001247423,新規,0,2022-07-14,2022-07-14,株式会社フロティーダ,,株式会社,大阪府,大阪市住之江区,粉浜３丁目４番６号,,27,125,5590001,,,,,,,2022-07-14,1,,,,,フロティーダ,0
1789,7120005023077,新規,0,2022-07-14,2022-07-14,医療法人紗香会,,その他の設立登記法人,大阪府,大阪市城東区,成育２丁目１３－２７クリニックステーション野江２－Ｂ,,27,118,5360007,,,,,,,2022-07-14,1,,,,,サコウカイ,0
1792,7120901046239,新規,0,2022-07-14,2022-07-14,株式会社ＹＤＫ,,株式会社,大阪府,豊中市,服部西町１丁目９番４６号,,27,203,5610858,,,,,,,2022-07-14,1,,,,,ワイディーケー,0
1793,7120903004236,新規,0,2022-07-14,2022-07-14,合同会社一六,,合同会社,大阪府,豊中市,豊南町南４丁目５番３０の１号,,27,203,5610815,,,,,,,2022-07-14,1,,,,,イチロク,0
1808,7140001126633,新規,0,2022-07-14,2022-07-14,株式会社久保田建築,,株式会社,兵庫県,西宮市,甲子園町３番１６－３１０号,,28,204,6638152,,,,,,,2022-07-14,1,,,,,クボタケンチク,0
1809,7140001126740,新規,0,2022-07-14,2022-07-14,Ａｓｈ株式会社,,株式会社,兵庫県,芦屋市,朝日ケ丘町２番４－６１３号,,28,206,6590012,,,,,,,2022-07-14,1,,,,,アッシュ,0
1814,7160001024372,新規,0,2022-07-14,2022-07-14,株式会社森ライン,,株式会社,滋賀県,野洲市,小篠原２８１番地,,25,210,5202331,,,,,,,2022-07-14,1,,,,,モリライン,0
1820,7180001152114,新規,0,2022-07-14,2022-07-14,株式会社タイセイホールディングス,,株式会社,愛知県,名古屋市緑区,古鳴海１丁目２４７番地の１,,23,114,4580047,,,,,,,2022-07-14,1,,,,,タイセイホールディングス,0
1821,7180001152155,新規,0,2022-07-14,2022-07-14,ＭＥＤＦＯＲＤ株式会社,,株式会社,愛知県,名古屋市中川区,山王１丁目８番１９号ミコノス山王１１０１号,,23,110,4540011,,,,,,,2022-07-14,1,,,,,メドフォード,0
1822,7180001152163,新規,0,2022-07-14,2022-07-14,株式会社Ｓｈｉｋａｋｕ・Ｍａｒｕ,,株式会社,愛知県,名古屋市熱田区,六野２丁目７番１７－８０６号,,23,109,4560023,,,,,,,2022-07-14,1,,,,,シカクマル,0
1823,7180001152188,新規,0,2022-07-14,2022-07-14,株式会社ｂｒｅｘ,,株式会社,愛知県,岩倉市,栄町２丁目８１番地,,23,228,4820022,,,,,,,2022-07-14,1,,,,,ブレクス,0
1825,7180003023981,新規,0,2022-07-14,2022-07-14,合同会社知多,,合同会社,愛知県,知多郡阿久比町,大字草木字上外六３番地の１,,23,441,4702211,,,,,,,2022-07-14,1,,,,,チタ,0
1826,7180003024030,新規,0,2022-07-14,2022-07-14,Ｓｕｎｔｈｒｏａｄ合同会社,,合同会社,愛知県,小牧市,大字久保一色１３５８番地,,23,219,4850003,,,,,,,2022-07-14,1,,,,,サンスロード,0
1827,7180003024039,新規,0,2022-07-14,2022-07-14,合同会社ラグラス,,合同会社,愛知県,名古屋市西区,中小田井５丁目３４６番地,,23,104,4520822,,,,,,,2022-07-14,1,,,,,ラグラス,0
1834,7180305009365,新規,0,2022-07-14,2022-07-14,一般社団法人池之下三河協会,,その他の設立登記法人,愛知県,西尾市,一色町治明北浜１１６番地,,23,213,4440426,,,,,,,2022-07-14,1,,,,,イケノシタミカワキョウカイ,0
1843,7210001019004,新規,0,2022-07-14,2022-07-14,株式会社ＦＰＥＣ,,株式会社,福井県,福井市,中央１丁目３番１号加藤ビル５階,,18,201,9100006,,,,,,,2022-07-14,1,,,,,エフペック,0
1850,7240001060104,新規,0,2022-07-14,2022-07-14,アジアマリンサービス株式会社,,株式会社,広島県,広島市中区,舟入幸町１０番２３－４０３号,,34,101,7300844,,,,,,,2022-07-14,1,,,,,アジアマリンサービス,0
1852,7250001019669,新規,0,2022-07-14,2022-07-14,株式会社おやま,,株式会社,山口県,下関市,豊北町大字阿川２１００番地１,,35,201,7595241,,,,,,,2022-07-14,1,,,,,オヤマ,0
1856,7270001008587,新規,0,2022-07-14,2022-07-14,Ｗａｒｐ　Ｃｏｒｐｏｒａｔｉｏｎ株式会社,,株式会社,鳥取県,米子市,今在家７３４番地,,31,202,6893542,,,,,,,2022-07-14,1,,,,,ワープコーポレーション,0
1866,7290001098255,新規,0,2022-07-14,2022-07-14,株式会社リベヤ,,株式会社,福岡県,福岡市博多区,博多駅東１丁目２番５号,,40,132,8120013,,,,,,,2022-07-14,1,,,,,リベヤ,0
1867,7290001098271,新規,0,2022-07-14,2022-07-14,株式会社ＲＣ．ｃｏｍ,,株式会社,福岡県,福岡市中央区,大名１丁目８番３３号,,40,133,8100041,,,,,,,2022-07-14,1,,,,,アールシードットコム,0
1870,7290801028733,新規,0,2022-07-14,2022-07-14,株式会社Ｂｕｉｌｄｚ,,株式会社,福岡県,北九州市八幡西区,里中２丁目２－１３（６号室）,,40,109,8070846,,,,,,,2022-07-14,1,,,,,ビルズ,0
1874,7320001019208,新規,0,2022-07-14,2022-07-14,ＭＦＣ株式会社,,株式会社,大分県,中津市,大字田尻２２０８番地９,,44,203,8790123,,,,,,,2022-07-14,1,,,,,エムエフシー,0
1882,7360001030689,新規,0,2022-07-14,2022-07-14,株式会社智建設,,株式会社,沖縄県,沖縄市,美原１丁目２２番１２号,,47,211,9042155,,,,,,,2022-07-14,1,,,,,トモケンセツ,0
1883,7360003012165,新規,0,2022-07-14,2022-07-14,合同会社ＧＳＰ,,合同会社,沖縄県,中頭郡読谷村,字大木３９２－３,,47,324,9040316,,,,,,,2022-07-14,1,,,,,ジーエスピー,0
1885,7370005010505,新規,0,2022-07-14,2022-07-14,司法書士法人法務ネットＡチーム,,その他の設立登記法人,宮城県,仙台市青葉区,春日町７番３５号,,04,101,9800821,,,,,,,2022-07-14,1,,,,,ホウムネットエーチーム,0
1892,7380001032980,新規,0,2022-07-14,2022-07-14,株式会社酔龍,,株式会社,福島県,須賀川市,越久字発米１１番地１６,,07,207,9620051,,,,,,,2022-07-14,1,,,,,スイリュウ,0
1903,7430001087029,新規,0,2022-07-14,2022-07-14,株式会社ＺＵＢＡＩＲ　ＴＲＡＤＩＮＧ,,株式会社,北海道,江別市,美原１０５４番地の３,,01,217,0670056,,,,,,,2022-07-14,1,,,,,ズベールトレーディング,0
1925,8010001228004,新規,0,2022-07-14,2022-07-14,株式会社ＩＮＪＯＫＥ．,,株式会社,東京都,中央区,日本橋横山町７番１７号,,13,102,1030003,,,,,,,2022-07-14,1,,,,,インジョーク,0
1926,8010001228053,新規,0,2022-07-14,2022-07-14,株式会社ｔｏｍｏｎｉｃｏ,,株式会社,東京都,千代田区,九段南１丁目５番６号りそな九段ビル５Ｆ、ＫＳフロア,,13,101,1020074,,,,,,,2022-07-14,1,,,,,トモニコ,0
1927,8010001228111,新規,0,2022-07-14,2022-07-14,三盛トレーディング株式会社,,株式会社,東京都,中央区,銀座１丁目１２番４号Ｎ＆ＥＢＬＤ．７階,,13,102,1040061,,,,,,,2022-07-14,1,,,,,ミツモリトレーディング,0
1934,8010003038161,新規,0,2022-07-14,2022-07-14,合同会社ＡＭＧ,,合同会社,東京都,千代田区,内神田３丁目８－９根本ビル４階,,13,101,1010047,,,,,,,2022-07-14,1,,,,,エーエムジー,0
1936,8010005035223,新規,0,2022-07-14,2022-07-14,税理士法人エイキット,,その他の設立登記法人,東京都,千代田区,二番町９番３号,,13,101,1020084,,,,,,,2022-07-14,1,,,,,エイキット,0
1942,8010403028068,新規,0,2022-07-14,2022-07-14,合同会社ＵＲＡＫＡＴＡ,,合同会社,東京都,港区,海岸２丁目２番６－１００４号,,13,103,1050022,,,,,,,2022-07-14,1,,,,,ウラカタ,0
1943,8010403028076,新規,0,2022-07-14,2022-07-14,合同会社ＩＳ,,合同会社,東京都,港区,北青山３丁目８番８号カーム青山４０２,,13,103,1070061,,,,,,,2022-07-14,1,,,,,イズ,0
1944,8010403028092,新規,0,2022-07-14,2022-07-14,アルネア１合同会社,,合同会社,東京都,港区,六本木１丁目９番１０号アークヒルズ仙石山森タワー４０階,,13,103,1060032,,,,,,,2022-07-14,1,,,,,アルネアイチ,0
1945,8010405021194,新規,0,2022-07-14,2022-07-14,一般社団法人日本中央開発,,その他の設立登記法人,東京都,港区,虎ノ門５丁目１番４号,,13,103,1050001,,,,,,,2022-07-14,1,,,,,ニホンチュウオウカイハツ,0
1946,8010405021203,新規,0,2022-07-14,2022-07-14,一般社団法人ＪＮＬ　Ｏｎｅ,,その他の設立登記法人,東京都,港区,元赤坂１丁目１番８号赤坂コミュニティビル４階,,13,103,1070051,,,,,,,2022-07-14,1,,,,,ジェイエヌエルワン,0
1947,8010503006650,新規,0,2022-07-14,2022-07-14,ＡＬＡＹＡ合同会社,,合同会社,東京都,台東区,浅草２丁目１９番地７号浅草永谷ビル７０５号,,13,106,1110032,,,,,,,2022-07-14,1,,,,,アラヤ,0
1951,8010601061498,新規,0,2022-07-14,2022-07-14,東京不動産リサーチ株式会社,,株式会社,東京都,墨田区,両国２丁目１７番１７号,,13,107,1300026,,,,,,,2022-07-14,1,,,,,トウキョウフドウサンリサーチ,0
1954,8010703006310,新規,0,2022-07-14,2022-07-14,合同会社ｈｅｌｐｆｕｌ,,合同会社,東京都,品川区,旗の台２丁目４番４号,,13,109,1420064,,,,,,,2022-07-14,1,,,,,ヘルプフル,0
1966,8011001148638,新規,0,2022-07-14,2022-07-14,株式会社ＭＢＪホールディングス,,株式会社,東京都,渋谷区,神宮前６丁目１２番１８号ＷｅＷｏｒｋアイスバーグ,,13,113,1500001,,,,,,,2022-07-14,1,,,,,エムビージェイホールディングス,0
1967,8011001148720,新規,0,2022-07-14,2022-07-14,株式会社三井,,株式会社,東京都,渋谷区,恵比寿西２丁目１４番３号,,13,113,1500021,,,,,,,2022-07-14,1,,,,,ミツイ,0
1970,8011101099525,新規,0,2022-07-14,2022-07-14,思源教育株式会社,,株式会社,東京都,新宿区,高田馬場３丁目３番３号三優ビル３階,,13,104,1690075,,,,,,,2022-07-14,1,,,,,シゲンキョウイク,0
1971,8011101099558,新規,0,2022-07-14,2022-07-14,株式会社Ｌａ　Ｋｅｙ,,株式会社,東京都,新宿区,百人町２丁目２６番１６－３１０号,,13,104,1690073,,,,,,,2022-07-14,1,,,,,ラキー,0
1974,8011201023962,新規,0,2022-07-14,2022-07-14,株式会社ＴＯＫＹＯ　ＮＦＴ　ＬＡＢ,,株式会社,東京都,中野区,中野４丁目１番１号中野サンプラザ９階,,13,114,1640001,,,,,,,2022-07-14,1,,,,,トーキョーエヌエフティーラボ,0
1975,8011201023970,新規,0,2022-07-14,2022-07-14,株式会社傍流社,,株式会社,東京都,中野区,中野４丁目１番１号中野サンプラザ９階,,13,114,1640001,,,,,,,2022-07-14,1,,,,,ボウリュウシャ,0
1976,8011203003871,新規,0,2022-07-14,2022-07-14,合同会社スリー,,合同会社,東京都,中野区,弥生町３丁目１７番１号,,13,114,1640013,,,,,,,2022-07-14,1,,,,,スリー,0
1977,8011205002500,新規,0,2022-07-14,2022-07-14,一般社団法人やまと心教育協会,,その他の設立登記法人,東京都,中野区,江古田４丁目２０番１２号,,13,114,1650022,,,,,,,2022-07-14,1,,,,,ヤマトココロキョウイクキョウカイ,0
1981,8011501028265,新規,0,2022-07-14,2022-07-14,株式会社ＨＯＴｅｃｈ,,株式会社,東京都,北区,滝野川６丁目４９番２号プラティーク滝野川トレンド２０１号,,13,117,1140023,,,,,,,2022-07-14,1,,,,,エイチオーテック,0
1982,8011601026103,新規,0,2022-07-14,2022-07-14,ピクシー株式会社,,株式会社,東京都,練馬区,大泉町１丁目３４番１５号,,13,120,1780062,,,,,,,2022-07-14,1,,,,,ピクシー,0
1988,8011803005177,新規,0,2022-07-14,2022-07-14,合同会社３Ｔ,,合同会社,東京都,足立区,千住宮元町１３番１０－１０３号,,13,121,1200043,,,,,,,2022-07-14,1,,,,,スリーティー,0
1991,8012401039402,新規,0,2022-07-14,2022-07-14,株式会社ミライターズ,,株式会社,東京都,武蔵野市,吉祥寺本町２丁目８番４号ｉ－ｏｆｆｉｃｅ吉祥寺,,13,203,1800004,,,,,,,2022-07-14,1,,,,,ミライターズ,0
1992,8012401039419,新規,0,2022-07-14,2022-07-14,銀河系株式会社,,株式会社,東京都,調布市,多摩川５丁目１５－３京王マンション２０１,,13,208,1820025,,,,,,,2022-07-14,1,,,,,ギンガケイ,0
1994,8012703002495,新規,0,2022-07-14,2022-07-14,Ｍｅｒｃｙ合同会社,,合同会社,東京都,西東京市,ひばりが丘北４丁目３番１３号,,13,229,2020002,,,,,,,2022-07-14,1,,,,,マーシー,0
2014,8021001076549,新規,0,2022-07-14,2022-07-14,株式会社ニュー,,株式会社,神奈川県,鎌倉市,高野２７番地２１,,14,204,2470054,,,,,,,2022-07-14,1,,,,,,0
2029,8030001149207,新規,0,2022-07-14,2022-07-14,株式会社デジタルダイレクト,,株式会社,埼玉県,鴻巣市,松原１丁目３番１８号,,11,217,3650042,,,,,,,2022-07-14,1,,,,,デジタルダイレクト,0
2035,8030003019779,新規,0,2022-07-14,2022-07-14,合同会社ＰＲＩＭＥ　ＥＤＧＥ,,合同会社,埼玉県,草加市,旭町３丁目４－１２エムコーポ４０４,,11,221,3400053,,,,,,,2022-07-14,1,,,,,プライムエッジ,0
2036,8030003019795,新規,0,2022-07-14,2022-07-14,ｕｌｉｕｌｉ合同会社,,合同会社,埼玉県,さいたま市大宮区,大成町２丁目１６５番地,,11,103,3300852,,,,,,,2022-07-14,1,,,,,ウリウリ,0
2037,8030003019812,新規,0,2022-07-14,2022-07-14,合同会社ニューゲート,,合同会社,埼玉県,上尾市,大字瓦葺２６７１番地１６レオパレス瓦葺１０６,,11,219,3620022,,,,,,,2022-07-14,1,,,,,ニューゲート,0
2038,8030005020917,新規,0,2022-07-14,2022-07-14,一般社団法人セントラル,,その他の設立登記法人,埼玉県,さいたま市岩槻区,大字真福寺１４０２番地１８,,11,110,3390044,,,,,,,2022-07-14,1,,,,,セントラル,0
2044,8040003020430,新規,0,2022-07-14,2022-07-14,弘恩商事合同会社,,合同会社,千葉県,松戸市,六実１丁目２５番地の１,,12,207,2702204,,,,,,,2022-07-14,1,,,,,コウオンショウジ,0
2048,8060001035065,新規,0,2022-07-14,2022-07-14,国際環境開発株式会社,,株式会社,栃木県,小山市,大字向野３７７番地,,09,208,3230805,,,,,,,2022-07-14,1,,,,,コクサイカンキョウカイハツ,0
2052,8070001039453,新規,0,2022-07-14,2022-07-14,株式会社デイ・アーツ,,株式会社,群馬県,安中市,大竹１４７９番地５,,10,211,3790121,,,,,,,2022-07-14,1,,,,,デイアーツ,0
2055,8090003002135,新規,0,2022-07-14,2022-07-14,ＬＩＳＡ合同会社,,合同会社,山梨県,富士吉田市,ときわ台１丁目５番１５－３０３号,,19,202,4030015,,,,,,,2022-07-14,1,,,,,エルアイエスエー,0
2060,8100001035531,新規,0,2022-07-14,2022-07-14,フジリンク株式会社,,株式会社,長野県,安曇野市,三郷明盛９９２番地１,,20,220,3998101,,,,,,,2022-07-14,1,,,,,フジリンク,0
2061,8100003006621,新規,0,2022-07-14,2022-07-14,合同会社四季の果物,,合同会社,長野県,伊那市,西箕輪１６５２番地４,,20,209,3994501,,,,,,,2022-07-14,1,,,,,シキノクダモノ,0
2073,8120001247331,新規,0,2022-07-14,2022-07-14,株式会社ポートアール,,株式会社,大阪府,大阪市西区,江戸堀１丁目９番１４号ＮＥＸＡＳＥＤＯＢＯＲＩ４Ｆ,,27,106,5500002,,,,,,,2022-07-14,1,,,,,ポートアール,0
2074,8120001247348,新規,0,2022-07-14,2022-07-14,株式会社栄進ビルサービス,,株式会社,大阪府,大阪市浪速区,桜川１丁目１番１０号タンクロービル６０１号室,,27,111,5560022,,,,,,,2022-07-14,1,,,,,エイシンビルサービス,0
2075,8120001247356,新規,0,2022-07-14,2022-07-14,株式会社Ｓｕｐｐｏｒｔｓ,,株式会社,大阪府,大阪市旭区,新森７丁目８番３７号,,27,117,5350022,,,,,,,2022-07-14,1,,,,,サポーズ,0
2076,8120001247364,新規,0,2022-07-14,2022-07-14,株式会社ＢＫカンパニー,,株式会社,大阪府,寝屋川市,打上南町１４－２１,,27,215,5720861,,,,,,,2022-07-14,1,,,,,ビーケーカンパニー,0
2077,8120001247406,新規,0,2022-07-14,2022-07-14,株式会社マインドロジスティクス,,株式会社,大阪府,大阪市中央区,内久宝寺町４丁目４番１号ＭＳＣビル,,27,128,5400013,,,,,,,2022-07-14,1,,,,,マインドロジスティクス,0
2079,8120003022071,新規,0,2022-07-14,2022-07-14,合同会社ｓｙｍ,,合同会社,大阪府,大阪市浪速区,難波中２丁目４－６ＧＡＲＥ、ＮＡＭＢＡ、７ａ,,27,111,5560011,,,,,,,2022-07-14,1,,,,,シャム,0
2081,8120005023068,新規,0,2022-07-14,2022-07-14,医療法人誠清会,,その他の設立登記法人,大阪府,大阪市住之江区,西住之江１丁目１番４１号,,27,125,5590005,,,,,,,2022-07-14,1,,,,,セイセイカイ,0
2082,8120005023076,新規,0,2022-07-14,2022-07-14,医療法人ユタカ会,,その他の設立登記法人,大阪府,大阪市福島区,吉野５丁目１４番１２号,,27,103,5530006,,,,,,,2022-07-14,1,,,,,ユタカカイ,0
2085,8120101065930,新規,0,2022-07-14,2022-07-14,株式会社ＲＡＹ,,株式会社,大阪府,堺市東区,高松３３８番地７,,27,143,5998121,,,,,,,2022-07-14,1,,,,,レイ,0
2088,8120903004235,新規,0,2022-07-14,2022-07-14,合同会社８８,,合同会社,大阪府,箕面市,桜ケ丘２丁目４番２６号の１,,27,220,5620046,,,,,,,2022-07-14,1,,,,,エイトエイト,0
2097,8140003017887,新規,0,2022-07-14,2022-07-14,合同会社クラストリー,,合同会社,兵庫県,神戸市東灘区,御影３丁目６番８号,,28,101,6580047,,,,,,,2022-07-14,1,,,,,クラストリー,0
2106,8160003002623,新規,0,2022-07-14,2022-07-14,５次元サロン合同会社,,合同会社,滋賀県,大津市,螢谷７番４０号,,25,201,5200853,,,,,,,2022-07-14,1,,,,,ゴジゲンサロン,0
2111,8180001152195,新規,0,2022-07-14,2022-07-14,株式会社医心伝,,株式会社,愛知県,名古屋市中区,大須２丁目２７番４０号新日本ビル２階,,23,106,4600011,,,,,,,2022-07-14,1,,,,,イシンデン,0
2112,8180001152204,新規,0,2022-07-14,2022-07-14,ＣＤＣ株式会社,,株式会社,愛知県,名古屋市中区,丸の内３丁目７番２６号ＡＣＡビル５Ｆ,,23,106,4600002,,,,,,,2022-07-14,1,,,,,シーディーシー,0
2113,8180001152237,新規,0,2022-07-14,2022-07-14,ＴＫサービス株式会社,,株式会社,愛知県,名古屋市南区,豊田２丁目１８番８号,,23,112,4570841,,,,,,,2022-07-14,1,,,,,ティーケーサービス,0
2118,8180003024038,新規,0,2022-07-14,2022-07-14,合同会社ＤＸｓｈａｒｅｃｏｍ,,合同会社,愛知県,名古屋市昭和区,高峯町１２５番地の２,,23,107,4660811,,,,,,,2022-07-14,1,,,,,ディエックスシェアコム,0
2123,8180305009364,新規,0,2022-07-14,2022-07-14,ＮＰＯ法人ハートフルマーケット,,その他の設立登記法人,愛知県,豊橋市,関屋町１９７番地１,,23,201,4400891,,,,,,,2022-07-14,1,,,,,ハートフルマーケット,0
2128,8210001019003,新規,0,2022-07-14,2022-07-14,株式会社クマデリ,,株式会社,福井県,福井市,高木中央３丁目１９０６番地ピースビレッジ１Ｆ,,18,201,9100804,,,,,,,2022-07-14,1,,,,,クマデリ,0
2135,8240001060103,新規,0,2022-07-14,2022-07-14,株式会社熊猫堂,,株式会社,広島県,広島市中区,本通８番７号しげとみビル２Ｆ,,34,101,7300035,,,,,,,2022-07-14,1,,,,,クマネコドウ,0
2145,8290001098246,新規,0,2022-07-14,2022-07-14,株式会社フレックス企画,,株式会社,福岡県,福岡市東区,西戸崎６丁目１番３号,,40,131,8110321,,,,,,,2022-07-14,1,,,,,フレックスキカク,0
2146,8290001098262,新規,0,2022-07-14,2022-07-14,株式会社くらしサポート彩り,,株式会社,福岡県,福岡市早良区,賀茂２丁目５番３５号,,40,137,8140164,,,,,,,2022-07-14,1,,,,,クラシサポートイロドリ,0
2147,8290001098295,新規,0,2022-07-14,2022-07-14,株式会社エンコーポレーション,,株式会社,福岡県,福岡市南区,若久３丁目６－９,,40,134,8150042,,,,,,,2022-07-14,1,,,,,エンコーポレーション,0
2152,8290003012725,新規,0,2022-07-14,2022-07-14,合同会社ＳｙａｕＫｙａｕ,,合同会社,福岡県,福岡市博多区,博多駅前１丁目１８番７号博多電気ビル６階,,40,132,8120011,,,,,,,2022-07-14,1,,,,,シャウキャウ,0
2153,8290003012741,新規,0,2022-07-14,2022-07-14,ＲＩＲＩ‐ＣＨＡＮ合同会社,,合同会社,福岡県,福岡市東区,箱崎２丁目１０番８号,,40,131,8120053,,,,,,,2022-07-14,1,,,,,リリチャン,0
2160,8290801028732,新規,0,2022-07-14,2022-07-14,ＭＫ　ｌｉｎｅｒ株式会社,,株式会社,福岡県,遠賀郡岡垣町,山田峠１丁目９番７号,,40,383,8114223,,,,,,,2022-07-14,1,,,,,エムケイライナー,0
2170,8340001024898,新規,0,2022-07-14,2022-07-14,萬徳不動産株式会社,00127214,株式会社,鹿児島県,霧島市,隼人町小田２９５５番地,,46,218,8995105,,,,,,,2022-07-14,1,,,,,マントクフドウサン,0
2196,8440001009121,新規,0,2022-07-14,2022-07-14,株式会社ＯＳＡ,,株式会社,北海道,北斗市,茂辺地７丁目２番４７号,,01,236,0490281,,,,,,,2022-07-14,1,,,,,,0
2212,9010001228028,新規,0,2022-07-14,2022-07-14,ＦＴＡＴインヴェストメント株式会社,,株式会社,東京都,中央区,湊１丁目６番１１号,,13,102,1040043,,,,,,,2022-07-14,1,,,,,エフティーエーティーインヴェストメント,0
2213,9010001228060,新規,0,2022-07-14,2022-07-14,北翔環境株式会社,,株式会社,東京都,中央区,日本橋茅場町３丁目７番２号,,13,102,1030025,,,,,,,2022-07-14,1,,,,,ホクショウカンキョウ,0
2214,9010001228069,新規,0,2022-07-14,2022-07-14,株式会社ＰＤ研究所,,株式会社,東京都,文京区,千石３丁目６番６号,,13,105,1120011,,,,,,,2022-07-14,1,,,,,ピーディーケンキュウジョ,0
2219,9010005035222,新規,0,2022-07-14,2022-07-14,一般社団法人日本吟醸酒協会,,その他の設立登記法人,東京都,千代田区,神田松永町１７番地５相沢ビル５階,,13,101,1010023,,,,,,,2022-07-14,1,,,,,ニホンギンジョウシュキョウカイ,0
2220,9010005035263,新規,0,2022-07-14,2022-07-14,プライムフォー特定目的会社,,その他の設立登記法人,東京都,千代田区,丸の内１丁目６番５号,,13,101,1000005,,,,,,,2022-07-14,1,,,,,プライムフォー,0
2232,9010401168476,新規,0,2022-07-14,2022-07-14,株式会社設,,株式会社,東京都,港区,南青山２丁目７番８号,,13,103,1070062,,,,,,,2022-07-14,1,,,,,シツラエ,0
2236,9010403028067,新規,0,2022-07-14,2022-07-14,合同会社ＰＩＮＥ　ＷＯＯＤ,,合同会社,東京都,港区,浜松町１丁目１９番５号瀧山ビル４Ｆ,,13,103,1050013,,,,,,,2022-07-14,1,,,,,パインウット,0
2237,9010403028091,新規,0,2022-07-14,2022-07-14,グルスＭＦ合同会社,,合同会社,東京都,港区,六本木１丁目９番１０号アークヒルズ仙石山森タワー４０階,,13,103,1060032,,,,,,,2022-07-14,1,,,,,グルスエムエフ,0
2246,9010501049122,新規,0,2022-07-14,2022-07-14,喜悦株式会社,,株式会社,東京都,台東区,駒形１丁目６番１３号トーカン浅草駒形キャステール４階,,13,106,1110043,,,,,,,2022-07-14,1,,,,,キエツ,0
2253,9010701042967,新規,0,2022-07-14,2022-07-14,株式会社戸谷総業,,株式会社,東京都,品川区,東品川３丁目１６番１３－８０６,,13,109,1400002,,,,,,,2022-07-14,1,,,,,トヤソウギョウ,0
2255,9010703006318,新規,0,2022-07-14,2022-07-14,国際協力会合同会社,,合同会社,東京都,品川区,西五反田８丁目３番９号,,13,109,1410031,,,,,,,2022-07-14,1,,,,,コクサイキョウリョクカイ,0
2266,9010905004342,新規,0,2022-07-14,2022-07-14,一般社団法人デジタル・環境エネルギー開発機構,,その他の設立登記法人,東京都,世田谷区,若林２丁目１７番２７号,,13,112,1540023,,,,,,,2022-07-14,1,,,,,デジタルカンキョウエネルギーカイハツキコウ,0
2275,9011001148034,新規,0,2022-07-14,2022-07-14,株式会社〇,,株式会社,東京都,渋谷区,神宮前６丁目２３番４号,,13,113,1500001,,,,,,,2022-07-14,1,,,,,レイ,0
2276,9011001148595,新規,0,2022-07-14,2022-07-14,三潤日本株式会社,,株式会社,東京都,渋谷区,神山町５－２０,,13,113,1500047,,,,,,,2022-07-14,1,,,,,サンジュンニホン,0
2277,9011001148645,新規,0,2022-07-14,2022-07-14,ドミノバンク株式会社,,株式会社,東京都,渋谷区,神宮前６丁目２３－４桑野ビル２階,,13,113,1500001,,,,,,,2022-07-14,1,,,,,ドミノバンク,0
2279,9011101099532,新規,0,2022-07-14,2022-07-14,株式会社セレクトリスト,,株式会社,東京都,新宿区,北新宿２丁目１０番２０号ファーストコート新宿４０２,,13,104,1690074,,,,,,,2022-07-14,1,,,,,セレクトリスト,0
2283,9011103011965,新規,0,2022-07-14,2022-07-14,ＡＯ電力１号合同会社,,合同会社,東京都,新宿区,西新宿１丁目２５番１号新宿センタービル３１階,,13,104,1600023,,,,,,,2022-07-14,1,,,,,エーオーデンリョクイチゴウ,0
2290,9011801040943,新規,0,2022-07-14,2022-07-14,株式会社オバーのカメーカメー飯,,株式会社,東京都,足立区,南花畑２丁目８番４号,,13,121,1210062,,,,,,,2022-07-14,1,,,,,オバーノカメーカメーメシ,0
2291,9011801040968,新規,0,2022-07-14,2022-07-14,株式会社サンシャイン,,株式会社,東京都,葛飾区,堀切４丁目１０番５号１Ｆ,,13,122,1240006,,,,,,,2022-07-14,1,,,,,サンシャイン,0
2292,9011801041009,新規,0,2022-07-14,2022-07-14,株式会社寿屋,,株式会社,東京都,足立区,西綾瀬２丁目９番２０号,,13,121,1200014,,,,,,,2022-07-14,1,,,,,コトブキヤ,0
2293,9011801041017,新規,0,2022-07-14,2022-07-14,フラワライズ株式会社,,株式会社,東京都,葛飾区,東堀切２丁目８番１０号,,13,122,1240004,,,,,,,2022-07-14,1,,,,,フラワライズ,0
2295,9012303001698,新規,0,2022-07-14,2022-07-14,合同会社ＥＡＣＨ‐ＣＯＬＯＲ,,合同会社,東京都,町田市,中町４丁目８－１５－１０３号,,13,209,1940021,,,,,,,2022-07-14,1,,,,,イーチカラー,0
2296,9012401039418,新規,0,2022-07-14,2022-07-14,株式会社しかく,,株式会社,東京都,調布市,小島町２丁目１４番地２６ユマニテ調布１階１０５号,,13,208,1820026,,,,,,,2022-07-14,1,,,,,シカク,0
2297,9012401039426,新規,0,2022-07-14,2022-07-14,株式会社ＡＬＣ,,株式会社,東京都,武蔵野市,吉祥寺本町１丁目２５番１０号ＫＳ－２ビル３Ｆ,,13,203,1800004,,,,,,,2022-07-14,1,,,,,エーエルシー,0
2316,9020003022080,新規,0,2022-07-14,2022-07-14,合同会社Ｆｅｌｉｘ,,合同会社,神奈川県,横浜市緑区,東本郷３丁目３５－２４,,14,113,2260002,,,,,,,2022-07-14,1,,,,,フェリクス,0
2318,9021001076531,新規,0,2022-07-14,2022-07-14,株式会社ＷＡＴＡＮＡＢＥ,,株式会社,神奈川県,中郡大磯町,大磯１１８４番地１,,14,341,2550003,,,,,,,2022-07-14,1,,,,,ワタナベ,0
2319,9021001076548,新規,0,2022-07-14,2022-07-14,株式会社ＭＴＨＥＢ,,株式会社,神奈川県,海老名市,扇町１３－１ららぽーと海老名１Ｆ,,14,215,2430436,,,,,,,2022-07-14,1,,,,,エムティーエイチイービー,0
2323,9021005012565,新規,0,2022-07-14,2022-07-14,一般社団法人雲ノ平トレイルクラブ,,その他の設立登記法人,神奈川県,三浦市,南下浦町上宮田３７０番地１,,14,210,2380101,,,,,,,2022-07-14,1,,,,,クモノダイラトレイルクラブ,0
2327,9030001149214,新規,0,2022-07-14,2022-07-14,ＬＵＳＴ　ＲＥＧＮＡＭ株式会社,,株式会社,埼玉県,川越市,南大塚１丁目１１番地３,,11,201,3501162,,,,,,,2022-07-14,1,,,,,ラストレグナム,0
2328,9030001149230,新規,0,2022-07-14,2022-07-14,ＦＡＲＯＯＱ　ＴＲＡＤＩＮＧ株式会社,,株式会社,埼玉県,行田市,門井町１丁目２０番地３タチマンション３０２,,11,206,3610044,,,,,,,2022-07-14,1,,,,,ファルークトレーディング,0
2330,9030003019803,新規,0,2022-07-14,2022-07-14,合同会社ＴＯＢＩＲＡ,,合同会社,埼玉県,川口市,戸塚１丁目９番１５号チャールズＩＩ２階,00127219,11,203,3330811,,,,,,,2022-07-14,1,,,,,トビラ,0
2341,9050001051368,新規,0,2022-07-14,2022-07-14,宏美商事株式会社,,株式会社,茨城県,稲敷郡阿見町,大字実穀字横町１２９９番１,,08,443,3001153,,,,,,,2022-07-14,1,,,,,,0
2343,9050003006691,新規,0,2022-07-14,2022-07-14,合同会社あさひ,,合同会社,茨城県,稲敷郡阿見町,本郷１丁目３４－１４,,08,443,3001159,,,,,,,2022-07-14,1,,,,,アサヒ,0
2353,9070001039444,新規,0,2022-07-14,2022-07-14,株式会社Ｋ・Ｋ・Ｋ,,株式会社,群馬県,邑楽郡大泉町,大字古氷５１８番地の１,,10,524,3700536,,,,,,,2022-07-14,1,,,,,ケイケイケイ,0
2359,9090001017670,新規,0,2022-07-14,2022-07-14,株式会社ＪＹｅＢ,,株式会社,山梨県,甲府市,丸の内３丁目２０番７号フォワードビル８階,,19,201,4000031,,,,,,,2022-07-14,1,,,,,ジェイワイイービー,0
2364,9100001035530,新規,0,2022-07-14,2022-07-14,株式会社信濃観光事業会,,株式会社,長野県,茅野市,米沢２４３４番地６,,20,214,3910216,,,,,,,2022-07-14,1,,,,,シナノカンコウジギョウカイ,0
2366,9100003006620,新規,0,2022-07-14,2022-07-14,ＥＳクリエイト合同会社,,合同会社,長野県,駒ヶ根市,赤穂１０００２番地９,,20,210,3994117,,,,,,,2022-07-14,1,,,,,イーエスクリエイト,0
2380,9120001247306,新規,0,2022-07-14,2022-07-14,ＢＩＡＳ株式会社,,株式会社,大阪府,大阪市天王寺区,石ケ辻町１４番１２号イズミステージ天王寺石ヶ辻２００９号室,,27,109,5430031,,,,,,,2022-07-14,1,,,,,バイヤス,0
2381,9120001247347,新規,0,2022-07-14,2022-07-14,株式会社ＩＰＰＯＮＧＩ,,株式会社,大阪府,大阪市中央区,難波３丁目３番３号,,27,128,5420076,,,,,,,2022-07-14,1,,,,,イッポンギ,0
2382,9120001247363,新規,0,2022-07-14,2022-07-14,株式会社リンクウェイ,,株式会社,大阪府,大阪市東淀川区,東中島１丁目１３番２０号ロジェ新大阪４０３号,,27,114,5330033,,,,,,,2022-07-14,1,,,,,リンクウェイ,0
2389,9120003022062,新規,0,2022-07-14,2022-07-14,合同会社Ｕ．Ｔ．Ｒ,,合同会社,大阪府,大阪市中央区,島之内２丁目９番２３－４０６号,,27,128,5420082,,,,,,,2022-07-14,1,,,,,ユーティーアール,0
2390,9120005023050,新規,0,2022-07-14,2022-07-14,医療法人穂恩会,,その他の設立登記法人,大阪府,大阪市住吉区,我孫子東２丁目７番３８号クリニックステーションあびこ２階,,27,120,5580013,,,,,,,2022-07-14,1,,,,,ホオンカイ,0
2403,9130001072158,新規,0,2022-07-14,2022-07-14,株式会社坂井春明堂,,株式会社,京都府,京都市中京区,寺町通竹屋町上る下御霊前町６５１番地１０,,26,104,6040995,,,,,,,2022-07-14,1,,,,,サカイシュンメイドウ,0
2410,9150001025691,新規,0,2022-07-14,2022-07-14,株式会社Ｇｒｏｕｐ　Ｓ,,株式会社,奈良県,生駒郡安堵町,大字かしの木台１丁目３番地の５セピアコート１０２号,,29,345,6391063,,,,,,,2022-07-14,1,,,,,グループエス,0
2415,9180001152153,新規,0,2022-07-14,2022-07-14,十一株式会社,,株式会社,愛知県,名古屋市中区,新栄１丁目１２－２５華陽ビル５Ｆ,,23,106,4600007,,,,,,,2022-07-14,1,,,,,ジュウイチ,0
2416,9180001152211,新規,0,2022-07-14,2022-07-14,株式会社ＬｉｂｅＲｅａｌ,,株式会社,愛知県,海部郡蟹江町,泉１丁目６６番地２,,23,425,4970047,,,,,,,2022-07-14,1,,,,,リベリアル,0
2419,9180003024020,新規,0,2022-07-14,2022-07-14,Ｒｉｇｉｎａｌ合同会社,,合同会社,愛知県,尾張旭市,印場元町１丁目２番地３０,,23,226,4880840,,,,,,,2022-07-14,1,,,,,リジナル,0
2420,9180003024045,新規,0,2022-07-14,2022-07-14,合同会社金融総研,,合同会社,愛知県,名古屋市千種区,内山３丁目２３番１９号ＣＯＲＮＥＳ　ＨＯＵＳＥ　ＮＡＧＯＹＡ　９０４号,,23,101,4640075,,,,,,,2022-07-14,1,,,,,キンユウソウケン,0
2422,9180005019836,新規,0,2022-07-14,2022-07-14,特定非営利活動法人クラスメイト,,その他の設立登記法人,愛知県,犬山市,大字犬山字専正寺町１６番地２,,23,215,4840081,,,,,,,2022-07-14,1,,,,,クラスメイト,0
2423,9180005019852,新規,0,2022-07-14,2022-07-14,一般社団法人Ｋｏｍｉｎｋａ　Ｃｏｌｌｅｃｔｉｖｅ,,その他の設立登記法人,愛知県,尾張旭市,旭台３丁目２０番地４,,23,226,4880001,,,,,,,2022-07-14,1,,,,,コミンカコレクティブ,0
2427,9200001040289,新規,0,2022-07-14,2022-07-14,ダビザ株式会社,,株式会社,岐阜県,美濃加茂市,森山町１丁目９番３２号ＨＩＬＬＳＩＤＥＷＡＫＡＭＩＹＡ１‐Ｂ‐４,,21,211,5050021,,,,,,,2022-07-14,1,,,,,ダビザ,0
2434,9220005008685,新規,0,2022-07-14,2022-07-14,特定非営利活動法人じっくらあと,,その他の設立登記法人,石川県,輪島市,河井町２３部１番地１５０,,17,204,9280001,,,,,,,2022-07-14,1,,,,,ジックラアト,0
2437,9240001060102,新規,0,2022-07-14,2022-07-14,株式会社パンクシー,,株式会社,広島県,広島市安佐南区,大塚西２丁目１３番１６号,,34,105,7313167,,,,,,,2022-07-14,1,,,,,パンクシー,0
2450,9290001098195,新規,0,2022-07-14,2022-07-14,株式会社ＧＡＧＡ　ＳＴＹＬＥ,,株式会社,福岡県,福岡市東区,みどりが丘１丁目４番６号,,40,131,8130021,,,,,,,2022-07-14,1,,,,,ガガスタイル,0
2451,9290001098237,新規,0,2022-07-14,2022-07-14,ＨＯＰＥ商事株式会社,,株式会社,福岡県,福岡市博多区,東光２丁目５番１４号４階,,40,132,8120008,,,,,,,2022-07-14,1,,,,,ホープショウジ,0
2452,9290001098294,新規,0,2022-07-14,2022-07-14,株式会社Ｂ‐ｙ．ｃ,,株式会社,福岡県,糟屋郡志免町,南里６丁目５０７番地１,,40,343,8112207,,,,,,,2022-07-14,1,,,,,ビーワイシー,0
2453,9290001098303,新規,0,2022-07-14,2022-07-14,株式会社ユニバースゲート,,株式会社,福岡県,福岡市中央区,西中洲１番１１号－３０５,,40,133,8100002,,,,,,,2022-07-14,1,,,,,ユニバースゲート,0
2456,9290003012740,新規,0,2022-07-14,2022-07-14,合同会社プレザントリー,,合同会社,福岡県,太宰府市,水城３丁目５番２号グレイスコート１０２号,,40,221,8180131,,,,,,,2022-07-14,1,,,,,プレザントリー,0
2459,9290801028731,新規,0,2022-07-14,2022-07-14,株式会社ラストドリップデザインズ,,株式会社,福岡県,北九州市八幡西区,楠橋上方１丁目５番１号,,40,109,8071141,,,,,,,2022-07-14,1,,,,,ラストドリップデザインズ,0
2462,9320001019197,新規,0,2022-07-14,2022-07-14,ドリフトモータース株式会社,,株式会社,大分県,別府市,大字亀川１６８０番地３サザンブライトＩＩ２０６号室,00127209,44,202,8740000,,,,,,,2022-07-14,1,,,,,ドリフトモータース,0
2470,9360001030670,新規,0,2022-07-14,2022-07-14,株式会社ライフ・ドリーム,,株式会社,沖縄県,中頭郡嘉手納町,水釜６丁目１６番１０号,,47,325,9040204,,,,,,,2022-07-14,1,,,,,ライフドリーム,0
2471,9360001030687,新規,0,2022-07-14,2022-07-14,デジタルシティオキナワ株式会社,,株式会社,沖縄県,那覇市,泉崎１丁目２０番１号,,47,201,9000021,,,,,,,2022-07-14,1,,,,,デジタルシティオキナワ,0
2472,9360001030720,新規,0,2022-07-14,2022-07-14,株式会社まさみつ建設,,株式会社,沖縄県,石垣市,字白保１９－３,,47,207,9070242,,,,,,,2022-07-14,1,,,,,マサミツケンセツ,0
2473,9360003012155,新規,0,2022-07-14,2022-07-14,合同会社那覇設備工業,,合同会社,沖縄県,那覇市,安里１丁目１番４３－８０１号,,47,201,9020067,,,,,,,2022-07-14,1,,,,,ナハセツビコウギョウ,0
2485,9400001015948,新規,0,2022-07-14,2022-07-14,株式会社プロサポート,,株式会社,岩手県,花巻市,石鳥谷町大瀬川第１２地割２２３１番地４,,03,205,0283185,,,,,,,2022-07-14,1,,,,,プロサポート,0
2498,9440001009120,新規,0,2022-07-14,2022-07-14,株式会社ＥｖｅｒＧｒｅｅｎ,,株式会社,北海道,函館市,桔梗１丁目１７番２０号,,01,202,0410808,,,,,,,2022-07-14,1,,,,,,0
2500,9460105002242,新規,0,2022-07-14,2022-07-14,ＮＰＯ法人日本ドローンサポート振興協会北海道,,その他の設立登記法人,北海道,帯広市,西十三条北８丁目３番地２８プレシャスハウス１－Ａ,,01,207,0800043,,,,,,,2022-07-14,1,,,,,ニッポンドローンサポートシンコウキョウカイホッカイドウ,0
