sequenceNumber,corporateNumber,process,correct,updateDate,changeDate,name,nameImageId,kind,prefectureName,cityName,streetNumber,addressImageId,prefectureCode,cityCode,postCode,addressOutside,addressOutsideImageId,closeDate,closeCause,successorCorporateNumber,changeCause,assignmentDate,latest,enName,enPrefectureName,enCityName,enAddressOutside,furigana,hihyoji
5,1010001250575,新規,0,2024-12-11,2024-12-11,株式会社ＫＯＹＵＫＩ,,株式会社,東京都,中央区,銀座７丁目１３番２０号銀座ＴＨビル９階,,13,102,1040061,,,,,,,2024-12-11,1,,,,,コユキ,0
6,1010001250641,新規,0,2024-12-11,2024-12-11,アドバンスド・エレクトロニクス・ジャパン・ホールディング株式会社,,株式会社,東京都,千代田区,永田町２丁目１１番１号,,13,101,1000014,,,,,,,2024-12-11,1,,,,,アドバンスドエレクトロニクスジャパンホールディング,0
14,1010401186980,新規,0,2024-12-11,2024-12-11,株式会社ＳＴＵＤＩＯ　ＡＶＡＮＩ,,株式会社,東京都,港区,南青山６丁目７番１２号コンシェリア南青山３０１,,13,103,1070062,,,,,,,2024-12-11,1,,,,,スタジオアヴァニ,0
15,1010401186989,新規,0,2024-12-11,2024-12-11,株式会社ｍｏｒｅｌａｎｄ,,株式会社,東京都,港区,南青山２丁目２番１５号,,13,103,1070062,,,,,,,2024-12-11,1,,,,,モアランド,0
17,1010403033958,新規,0,2024-12-11,2024-12-11,ＧＶＰ　Ａｓｉａ０１合同会社,,合同会社,東京都,港区,六本木３丁目１６番２６号,,13,103,1060032,,,,,,,2024-12-11,1,,,,,ジーブイピーアジアゼロワン,0
18,1010403033966,新規,0,2024-12-11,2024-12-11,ＧＶＰ　Ａｓｉａ０９合同会社,,合同会社,東京都,港区,六本木３丁目１６番２６号,,13,103,1060032,,,,,,,2024-12-11,1,,,,,ジーブイピーアジアゼロナイン,0
19,1010403033982,新規,0,2024-12-11,2024-12-11,るう合同会社,,合同会社,東京都,港区,新橋４丁目１４番４号新橋ＡＵＮＴＳＢＬＤＧ４階,,13,103,1050004,,,,,,,2024-12-11,1,,,,,ルウ,0
20,1010403033990,新規,0,2024-12-11,2024-12-11,ＡＰ　Ｇｉｒａｆｆｅ合同会社,,合同会社,東京都,港区,虎ノ門４丁目１番１７号神谷町プライムプレイス８階アリサ・パートナーズ・ジャパン株式会社内,,13,103,1050001,,,,,,,2024-12-11,1,,,,,エーピージラフ,0
21,1010403033999,新規,0,2024-12-11,2024-12-11,合同会社ＫＭＴ,,合同会社,東京都,港区,南青山３丁目１番３６号青山丸竹ビル６Ｆ,,13,103,1070062,,,,,,,2024-12-11,1,,,,,ケイエムティー,0
31,1010703007471,新規,0,2024-12-11,2024-12-11,創悦合同会社,,合同会社,東京都,品川区,東品川４丁目１２－８品川シーサイドイーストタワー１５階,,13,109,1400002,,,,,,,2024-12-11,1,,,,,ソウエツ,0
33,1010901056460,新規,0,2024-12-11,2024-12-11,日本佐川崎製薬株式会社,,株式会社,東京都,世田谷区,世田谷１丁目４１番２号,,13,112,1540017,,,,,,,2024-12-11,1,,,,,ニホンサガワザキセイヤク,0
47,1011203004554,新規,0,2024-12-11,2024-12-11,合同会社ＢＥＳＴ　ＬＩＦＥ,,合同会社,東京都,中野区,本町６丁目１９－３,,13,114,1640012,,,,,,,2024-12-11,1,,,,,ベストライフ,0
48,1011205002655,新規,0,2024-12-11,2024-12-11,一般社団法人日本プロレスリング連盟,,その他の設立登記法人,東京都,中野区,中央１丁目３８番１号住友中野坂上ビル４階,,13,114,1640011,,,,,,,2024-12-11,1,,,,,ニホンプロレスリングレンメイ,0
55,1011603004542,新規,0,2024-12-11,2024-12-11,合同会社ＫＯＫＩ,,合同会社,東京都,練馬区,大泉町２丁目５９番２号メゾンアリエス１０２,,13,120,1780062,,,,,,,2024-12-11,1,,,,,ケイオウケイアイ,0
59,1012401042560,新規,0,2024-12-11,2024-12-11,ＣＬＣ株式会社,,株式会社,東京都,稲城市,矢野口１６０５番地の１,,13,225,2060812,,,,,,,2024-12-11,1,,,,,シーエルシー,0
67,1013301053490,新規,0,2024-12-11,2024-12-11,株式会社キャリフク,,株式会社,東京都,豊島区,東池袋２丁目４９番９号第２尾形ビル３階３１号室,,13,116,1700013,,,,,,,2024-12-11,1,,,,,キャリフク,0
74,1020001160534,新規,0,2024-12-11,2024-12-11,株式会社ケムーリ中佐,,株式会社,神奈川県,川崎市宮前区,野川本町１丁目８番３３－１１０号,,14,136,2160041,,,,,,,2024-12-11,1,,,,,ケムーリチュウサ,0
75,1020001160542,新規,0,2024-12-11,2024-12-11,株式会社ひまわり調査,,株式会社,神奈川県,川崎市麻生区,万福寺４丁目７－６,,14,137,2150004,,,,,,,2024-12-11,1,,,,,ヒマワリチョウサ,0
88,1021003015338,新規,0,2024-12-11,2024-12-11,合同会社リレーション,,合同会社,神奈川県,座間市,入谷西３丁目１６番３４号,,14,216,2520029,,,,,,,2024-12-11,1,,,,,リレーション,0
92,1030001163866,新規,0,2024-12-11,2024-12-11,株式会社ＩＫＥＤＡ,,株式会社,埼玉県,さいたま市緑区,東浦和２丁目２０番９号,,11,109,3360926,,,,,,,2024-12-11,1,,,,,イケダ,0
93,1030001163874,新規,0,2024-12-11,2024-12-11,木本株式会社,,株式会社,埼玉県,さいたま市南区,辻４丁目２２番８号－１Ｆ,,11,108,3360026,,,,,,,2024-12-11,1,,,,,キモト,0
97,1030003025676,新規,0,2024-12-11,2024-12-11,合同会社道,,合同会社,埼玉県,八潮市,大字八條３９８８番地,,11,234,3400801,,,,,,,2024-12-11,1,,,,,ミチ,0
100,1040001136499,新規,0,2024-12-11,2024-12-11,Ｄｒｉｖｅｒ’ｓ　Ｈｉｇｈ株式会社,,株式会社,千葉県,市川市,南行徳２丁目５番８ＬＵＸＲＡＧＥ１０４号,,12,203,2720138,,,,,,,2024-12-11,1,,,,,ドライバーズハイ,0
101,1040001136524,新規,0,2024-12-11,2024-12-11,株式会社トラストワン,,株式会社,千葉県,東金市,東金１０７８番地３,,12,213,2830802,,,,,,,2024-12-11,1,,,,,トラストワン,0
102,1040001136532,新規,0,2024-12-11,2024-12-11,源七水産株式会社,,株式会社,千葉県,船橋市,湊町１丁目２３番９号,,12,204,2730011,,,,,,,2024-12-11,1,,,,,ゲンシチスイサン,0
107,1060003005361,新規,0,2024-12-11,2024-12-11,ＡＲＲＯＷＳナカニシ合同会社,,合同会社,栃木県,鹿沼市,上日向３４０番地,,09,205,3220076,,,,,,,2024-12-11,1,,,,,アローズナカニシ,0
115,1080003003347,新規,0,2024-12-11,2024-12-11,合同会社ＨａｒｄＣｏｒｅ工務店,,合同会社,静岡県,静岡市駿河区,丸子新田４５０番地の１,,22,102,4210111,,,,,,,2024-12-11,1,,,,,ハードコアコウムテン,0
117,1080401027625,新規,0,2024-12-11,2024-12-11,株式会社ＫＳホールディングス,,株式会社,静岡県,磐田市,上岡田９１７番地２,,22,211,4380045,,,,,,,2024-12-11,1,,,,,ケイエスホールディングス,0
118,1080403005158,新規,0,2024-12-11,2024-12-11,ＯＡＫＢＡＳＥ合同会社,,合同会社,静岡県,浜松市天竜区,小川１１７０－１,,22,140,4313752,,,,,,,2024-12-11,1,,,,,オークベース,0
119,1090003002686,新規,0,2024-12-11,2024-12-11,合同会社早川,,合同会社,山梨県,甲府市,丸の内２丁目７－２,,19,201,4000031,,,,,,,2024-12-11,1,,,,,ハヤカワ,0
132,1120001270810,新規,0,2024-12-11,2024-12-11,株式会社エル・ホーキン,,株式会社,大阪府,大阪市淀川区,宮原２丁目１２番１４－５０８号,,27,123,5320003,,,,,,,2024-12-11,1,,,,,エルホーキン,0
133,1120001270926,新規,0,2024-12-11,2024-12-11,株式会社赤松,,株式会社,大阪府,大阪市生野区,巽北１丁目１番１号３Ｆ－Ｇ,00137303,27,116,5440004,,,,,,,2024-12-11,1,,,,,アカマツ,0
138,1120101070739,新規,0,2024-12-11,2024-12-11,株式会社虹橋,,株式会社,大阪府,大阪狭山市,半田１丁目６４９－１,,27,231,5890011,,,,,,,2024-12-11,1,,,,,コウキョウ,0
140,1120903005454,新規,0,2024-12-11,2024-12-11,Ｓｅｅｄ　Ｅｎｇｌｉｓｈ　Ａｃａｄｅｍｙ合同会社,,合同会社,大阪府,豊中市,本町１丁目８番２,,27,203,5600021,,,,,,,2024-12-11,1,,,,,シードイングリッシュアカデミー,0
142,1122001038733,新規,0,2024-12-11,2024-12-11,株式会社光希,,株式会社,大阪府,東大阪市,寿町３丁目１６番３号,,27,227,5770837,,,,,,,2024-12-11,1,,,,,コウキ,0
146,1130001078567,新規,0,2024-12-11,2024-12-11,ぱっくん商店株式会社,,株式会社,京都府,京都市南区,西九条豊田町１６－２,,26,107,6018448,,,,,,,2024-12-11,1,,,,,パックンショウテン,0
147,1130001078575,新規,0,2024-12-11,2024-12-11,祇園珈琲ナナフク株式会社,,株式会社,京都府,京都市東山区,祇園町南側５４０番地の２,,26,105,6050074,,,,,,,2024-12-11,1,,,,,ギオンコーヒーナナフク,0
159,1140001136605,新規,0,2024-12-11,2024-12-11,株式会社苅田電工,,株式会社,兵庫県,赤穂市,中広９５４番地１１,,28,212,6780232,,,,,,,2024-12-11,1,,,,,カリタデンコウ,0
160,1140001136670,新規,0,2024-12-11,2024-12-11,株式会社Ｂｒｉｇｈｔ,,株式会社,兵庫県,神戸市長田区,御蔵通４丁目２０１番地の１みすがコーポ６０１号,,28,106,6530014,,,,,,,2024-12-11,1,,,,,ブライト,0
161,1140001136695,新規,0,2024-12-11,2024-12-11,デルタエンジニアリング株式会社,,株式会社,兵庫県,神戸市兵庫区,上三条町１－２３－２０２号,,28,105,6520013,,,,,,,2024-12-11,1,,,,,デルタエンジニアリング,0
162,1140001136720,新規,0,2024-12-11,2024-12-11,株式会社ハナセレモ,,株式会社,兵庫県,加古川市,野口町水足１－８,,28,210,6750019,,,,,,,2024-12-11,1,,,,,ハナセレモ,0
171,1160003003355,新規,0,2024-12-11,2024-12-11,合同会社シンシナティドライブ,,合同会社,滋賀県,大津市,光が丘町１番１７号,,25,201,5200856,,,,,,,2024-12-11,1,,,,,シンシナティドライブ,0
207,1200003006618,新規,0,2024-12-11,2024-12-11,Ｒ　Ｎ　Ｇｒｏｕｐ　Ｊａｐａｎ合同会社,,合同会社,岐阜県,高山市,下岡本町１３８２番地５,,21,203,5060052,,,,,,,2024-12-11,1,,,,,アールエヌグループジャパン,0
208,1200005013694,新規,0,2024-12-11,2024-12-11,医療法人Ｌｅａ　Ｌｅａ,,その他の設立登記法人,岐阜県,各務原市,蘇原瑞雲町４丁目１３,,21,213,5040821,,,,,,,2024-12-11,1,,,,,レアレア,0
217,1260003004995,新規,0,2024-12-11,2024-12-11,合同会社ｄａｎｓｅ,,合同会社,岡山県,倉敷市,玉島長尾２３５４,,33,202,7100251,,,,,,,2024-12-11,1,,,,,ダンセ,0
218,1260003005003,新規,0,2024-12-11,2024-12-11,３ＲＩＳＥ合同会社,,合同会社,岡山県,岡山市南区,万倍１０１番地４,,33,104,7000955,,,,,,,2024-12-11,1,,,,,サンライズ,0
219,1260005011429,新規,0,2024-12-11,2024-12-11,特定非営利活動法人災害支援ＤＸイニシアティブ,,その他の設立登記法人,岡山県,岡山市北区,表町１丁目４番６４号,,33,101,7000822,,,,,,,2024-12-11,1,,,,,サイガイシエンディーエックスイニシアティブ,0
232,1290001108192,新規,0,2024-12-11,2024-12-11,株式会社Ｓｏａｒ,,株式会社,福岡県,福岡市南区,大橋１丁目３番１８号,,40,134,8150033,,,,,,,2024-12-11,1,,,,,ソアー,0
233,1290001108234,新規,0,2024-12-11,2024-12-11,ＳＫＹ　ＵＰエステート株式会社,,株式会社,福岡県,福岡市博多区,博多駅前４丁目３３番７－３１４号ロマネスク博多駅前,,40,132,8120011,,,,,,,2024-12-11,1,,,,,スカイアップエステート,0
234,1290001108267,新規,0,2024-12-11,2024-12-11,株式会社ホームメディカルＴＥＡＭ,,株式会社,福岡県,福岡市西区,今宿西１丁目６番１１号,,40,135,8190169,,,,,,,2024-12-11,1,,,,,ホームメディカルチーム,0
235,1290003016154,新規,0,2024-12-11,2024-12-11,合同会社ｈＳｌｉｆｅ,,合同会社,福岡県,八女市,立花町白木６６４０番地１,,40,210,8340084,,,,,,,2024-12-11,1,,,,,ハズライフ,0
236,1290005019576,新規,0,2024-12-11,2024-12-11,ＡＦＣ協同組合,,その他の設立登記法人,福岡県,福岡市南区,柏原５丁目２番２３号,,40,134,8111353,,,,,,,2024-12-11,1,,,,,エーエフシー,0
247,1340001026991,新規,0,2024-12-11,2024-12-11,株式会社エックスメイ,,株式会社,鹿児島県,鹿児島市,小野町４９９３－１,,46,201,8900022,,,,,,,2024-12-11,1,,,,,エックスメイ,0
248,1340005009794,新規,0,2024-12-11,2024-12-11,一般社団法人さつまリーヴ,,その他の設立登記法人,鹿児島県,霧島市,国分中央５丁目２番７号,,46,218,8994332,,,,,,,2024-12-11,1,,,,,サツマリーヴ,0
250,1360001034530,新規,0,2024-12-11,2024-12-11,Ｓａｉ株式会社,,株式会社,沖縄県,浦添市,伊祖２丁目３番１号サンチャイルドめぐみ２・７０７号,,47,208,9012132,,,,,,,2024-12-11,1,,,,,サイ,0
252,1360003014506,新規,0,2024-12-11,2024-12-11,合同会社Ｉ’ｎ　ｃｌｏｕｄ　ｃｏｎｓｕｌｔｉｎｇ,,合同会社,沖縄県,浦添市,西原３丁目１５番１１号,,47,208,9012101,,,,,,,2024-12-11,1,,,,,インクラウドコンサルティング,0
255,1370001052036,新規,0,2024-12-11,2024-12-11,ＴＯＳＳ株式会社,,株式会社,宮城県,栗原市,一迫片子沢外の沢１１,,04,213,9872302,,,,,,,2024-12-11,1,,,,,トス,0
257,1370003006849,新規,0,2024-12-11,2024-12-11,ＮＡＫＡＲＩパートナーズ合同会社,,合同会社,宮城県,仙台市泉区,加茂３丁目２９番地１１,,04,105,9813122,,,,,,,2024-12-11,1,,,,,ナカリパートナーズ,0
260,1400001016879,新規,0,2024-12-11,2024-12-11,株式会社ＲｅＮ,,株式会社,岩手県,北上市,村崎野１５地割２０７番地１５,,03,206,0240004,,,,,,,2024-12-11,1,,,,,レン,0
263,1430001093239,新規,0,2024-12-11,2024-12-11,株式会社Ｂｌｕｅ　Ｍａｒｉｎ,,株式会社,北海道,江別市,野幌若葉町８８番地の４,,01,217,0690831,,,,,,,2024-12-11,1,,,,,ブルーマリン,0
270,1700150127835,新規,0,2024-12-11,2024-11-12,三篠地区社会福祉協議会,,その他,広島県,広島市西区,横川町３丁目１１番１２号,,34,104,7330011,,,,,,,2024-11-12,1,,,,,ミササチクシヤカイフクシキヨウギカイ,0
273,2010001250541,新規,0,2024-12-11,2024-12-11,言語化パートナーズ・コモレビ株式会社,,株式会社,東京都,中央区,銀座４丁目１０番１４号ＡＣＮ銀座４ビルディング１０Ｆ,,13,102,1040061,,,,,,,2024-12-11,1,,,,,ゲンゴカパートナーズコモレビ,0
295,2010401186963,新規,0,2024-12-11,2024-12-11,株式会社セントリオン,,株式会社,東京都,港区,北青山１丁目３番１号アールキューブ青山３階,,13,103,1070061,,,,,,,2024-12-11,1,,,,,,0
304,2010403033924,新規,0,2024-12-11,2024-12-11,Ｎｅｃｔｅｒｅ　Ｃａｐｉｔａｌ合同会社,,合同会社,東京都,港区,六本木１丁目９－１８アークヒルズ仙石山森タワー９０９,,13,103,1060032,,,,,,,2024-12-11,1,,,,,ネクテレキャピタル,0
305,2010403033965,新規,0,2024-12-11,2024-12-11,ＧＶＰ　Ａｓｉａ０８合同会社,,合同会社,東京都,港区,六本木３丁目１６番２６号,,13,103,1060032,,,,,,,2024-12-11,1,,,,,ジーブイピーアジアゼロエイト,0
306,2010403033981,新規,0,2024-12-11,2024-12-11,合同会社ｃｌｉｍｂ　ｃｈｏｗｄｅｒ,,合同会社,東京都,港区,新橋４丁目１４番１新橋ＡＵＮＢＬＤＧ４階,,13,103,1050004,,,,,,,2024-12-11,1,,,,,クライムチャウダー,0
307,2010403034006,新規,0,2024-12-11,2024-12-11,合同会社イグナイト,,合同会社,東京都,港区,高輪１丁目１２番１号,,13,103,1080074,,,,,,,2024-12-11,1,,,,,イグナイト,0
309,2010405023832,新規,0,2024-12-11,2024-12-11,一般社団法人Ｓｕｐｅｒ　Ｄｅｎｔａｌ　Ｌａｂ．,,その他の設立登記法人,東京都,港区,白金台２丁目３番５号,,13,103,1080071,,,,,,,2024-12-11,1,,,,,スーパーデンタルラボ,0
314,2010601066379,新規,0,2024-12-11,2024-12-11,鋭新国際株式会社,,株式会社,東京都,江東区,亀戸８丁目２０－２,,13,108,1360071,,,,,,,2024-12-11,1,,,,,エイシンコクサイ,0
316,2010603011259,新規,0,2024-12-11,2024-12-11,合同会社Ｎｅｘｔ　ｙｏｕｔｈ,,合同会社,東京都,墨田区,文花３丁目２１番１９号,,13,107,1310044,,,,,,,2024-12-11,1,,,,,ネクストユース,0
319,2010901056468,新規,0,2024-12-11,2024-12-11,株式会社Ｓｔａｒｓ　ｉｎ　Ｆｏｒｅｓｔ,,株式会社,東京都,世田谷区,玉川３丁目４１番１９－１０２号,,13,112,1580094,,,,,,,2024-12-11,1,,,,,スターズインフォレスト,0
335,2011603004541,新規,0,2024-12-11,2024-12-11,合同会社ＬＡＧＯＭ,,合同会社,東京都,練馬区,上石神井３丁目１９番２－１０７号,,13,120,1770044,,,,,,,2024-12-11,1,,,,,ラゴム,0
338,2011805003416,新規,0,2024-12-11,2024-12-11,一般社団法人台福華人クリスチャンセンター,,その他の設立登記法人,東京都,葛飾区,立石１丁目２０番１２号,,13,122,1240012,,,,,,,2024-12-11,1,,,,,タイフクカジンクリスチャンセンター,0
339,2012303002083,新規,0,2024-12-11,2024-12-11,ＰＡＳＯＪＡＰＡＮ　ＣＯＮＳＵＬＴＡＮＣＹ　ａｎｄ　ＡＳＳＩＳＴＡＮＣＥ合同会社,,合同会社,東京都,町田市,本町田１９番地公社住宅ロ８３０,,13,209,1940032,,,,,,,2024-12-11,1,,,,,パソジャパンコンサルティングアンドアシスタンス,0
341,2012701018598,新規,0,2024-12-11,2024-12-11,株式会社ナッジ,,株式会社,東京都,西東京市,泉町５丁目４－３,,13,229,2020011,,,,,,,2024-12-11,1,,,,,ナッジ,0
350,2020001160541,新規,0,2024-12-11,2024-12-11,株式会社西田文学,,株式会社,神奈川県,川崎市中原区,新城５丁目４番１７号ＢＲＡＶＥＬＭ３・５０２号室,,14,133,2110044,,,,,,,2024-12-11,1,,,,,ニシダブンガク,0
351,2020001160582,新規,0,2024-12-11,2024-12-11,株式会社田の路,,株式会社,神奈川県,横浜市神奈川区,西神奈川３丁目１６番地の１０,,14,102,2210822,,,,,,,2024-12-11,1,,,,,タノジ,0
358,2021001083971,新規,0,2024-12-11,2024-12-11,ＹＡＭＡＴＯ　ＴＯＯＬＳ株式会社,,株式会社,神奈川県,大和市,つきみ野３丁目２９番地１１,,14,213,2420002,,,,,,,2024-12-11,1,,,,,ヤマトツールズ,0
359,2021003015320,新規,0,2024-12-11,2024-12-11,合同会社はぐつりー,,合同会社,神奈川県,相模原市中央区,東淵野辺１丁目１番２０号,,14,152,2520203,,,,,,,2024-12-11,1,,,,,ハグツリー,0
360,2021003015329,新規,0,2024-12-11,2024-12-11,合同会社Ｋ‐ＭＥＲＸ,,合同会社,神奈川県,綾瀬市,小園南２丁目１９番１３号,,14,218,2521122,,,,,,,2024-12-11,1,,,,,ケーマークス,0
365,2030001163865,新規,0,2024-12-11,2024-12-11,たいが食品株式会社,,株式会社,埼玉県,越谷市,新越谷１丁目３９９番地,,11,222,3430857,,,,,,,2024-12-11,1,,,,,タイガショクヒン,0
366,2030001163881,新規,0,2024-12-11,2024-12-11,株式会社クラシアス,,株式会社,埼玉県,草加市,青柳８丁目３５－３グリーンパーク１０１,,11,221,3400002,,,,,,,2024-12-11,1,,,,,クラシアス,0
379,2040005022587,新規,0,2024-12-11,2024-12-11,一般社団法人ＫＲＯ,,その他の設立登記法人,千葉県,柏市,若柴２２６番地４２中央１４４街区２ＫＯＩＬＧＡＲＤＥＮ２階,,12,217,2770871,,,,,,,2024-12-11,1,,,,,ケーアールオー,0
381,2050001055862,新規,0,2024-12-11,2024-12-11,株式会社サクセス,,株式会社,茨城県,東茨城郡茨城町,大字駒場２３４番地１,,08,302,3113132,,,,,,,2024-12-11,1,,,,,サクセス,0
386,2060003005360,新規,0,2024-12-11,2024-12-11,合同会社エース,,合同会社,栃木県,宇都宮市,海道町２４９‐５,,09,201,3210971,,,,,,,2024-12-11,1,,,,,エース,0
394,2080001026654,新規,0,2024-12-11,2024-12-11,株式会社ＴｉａＦｒａｇｅａ,,株式会社,静岡県,静岡市葵区,三番町５番地の１１,,22,101,4200073,,,,,,,2024-12-11,1,,,,,ティアフレイジア,0
395,2080003003346,新規,0,2024-12-11,2024-12-11,光合同会社,,合同会社,静岡県,静岡市葵区,羽鳥１丁目１８番５６号,,22,101,4211215,,,,,,,2024-12-11,1,,,,,ヒカリ,0
396,2080401027624,新規,0,2024-12-11,2024-12-11,株式会社ＨＫカンパニー,,株式会社,静岡県,磐田市,福田２２１３番地４,,22,211,4371203,,,,,,,2024-12-11,1,,,,,エイチケーカンパニー,0
398,2100001038110,新規,0,2024-12-11,2024-12-11,株式会社小石屋旅館,,株式会社,長野県,下高井郡山ノ内町,大字平穏２２７７番地,,20,561,3810401,,,,,,,2024-12-11,1,,,,,コイシヤリョカン,0
401,2110001038902,新規,0,2024-12-11,2024-12-11,株式会社Ｒｅａｆ,,株式会社,新潟県,見附市,南本町３丁目１１番１１号,,15,211,9540056,,,,,,,2024-12-11,1,,,,,リーフ,0
409,2120001270933,新規,0,2024-12-11,2024-12-11,株式会社ｏｆｆｉｃｅスギモト,,株式会社,大阪府,大阪市鶴見区,放出東３丁目９番４号,,27,124,5380044,,,,,,,2024-12-11,1,,,,,オフィススギモト,0
410,2120001270941,新規,0,2024-12-11,2024-12-11,株式会社ＭａｌＫ,,株式会社,大阪府,大阪市北区,大淀南１丁目６番４－１０１２号,,27,127,5310075,,,,,,,2024-12-11,1,,,,,マルク,0
411,2120001270974,新規,0,2024-12-11,2024-12-11,Ｖｏｏｃａｒ株式会社,,株式会社,大阪府,大阪市生野区,新今里５丁目７番６－２０５号,,27,116,5440001,,,,,,,2024-12-11,1,,,,,ブーカー,0
412,2120001270982,新規,0,2024-12-11,2024-12-11,株式会社みこと,,株式会社,大阪府,大阪市西区,江之子島１丁目７番３号奥内阿波座駅前ビル８０５号,,27,106,5500006,,,,,,,2024-12-11,1,,,,,ミコト,0
413,2120001270999,新規,0,2024-12-11,2024-12-11,双鵬株式会社,,株式会社,大阪府,大阪市東住吉区,田辺１丁目７番２６号３Ａ,,27,121,5460031,,,,,,,2024-12-11,1,,,,,ソウホウ,0
425,2120105009939,新規,0,2024-12-11,2024-12-11,ＮＰＯ法人ふぁーすとすてっぷ’ｓ堺,,その他の設立登記法人,大阪府,堺市北区,東浅香山町２－２３１―２０、３Ｆ,,27,146,5910000,,,,,,,2024-12-11,1,,,,,エヌピーオーホウジンファーストステップズサカイ,0
426,2120901050154,新規,0,2024-12-11,2024-12-11,箕面アニマルハート株式会社,,株式会社,大阪府,箕面市,外院２丁目１６－２,,27,220,5620026,,,,,,,2024-12-11,1,,,,,ミノオアニマルハート,0
427,2122003003065,新規,0,2024-12-11,2024-12-11,ＡＮ　ＮＧＯＣ　ＬＡＮ合同会社,,合同会社,大阪府,東大阪市,柏田東町１０番２５号,,27,227,5770833,,,,,,,2024-12-11,1,,,,,アンゴックラン,0
431,2130001078582,新規,0,2024-12-11,2024-12-11,株式会社シンシア,,株式会社,京都府,京都市下京区,梅小路高畑町５番地１グラン・コート洛陽５０６号,,26,106,6008853,,,,,,,2024-12-11,1,,,,,シンシア,0
433,2130003010072,新規,0,2024-12-11,2024-12-11,神銀瀧合同会社,,合同会社,京都府,京都市左京区,松ケ崎東町２５番地,,26,103,6060943,,,,,,,2024-12-11,1,,,,,シンギンリュウ,0
439,2140001136703,新規,0,2024-12-11,2024-12-11,株式会社ＴＲＩＮＬＥＴ,,株式会社,兵庫県,宝塚市,平井山荘１１番５号,,28,214,6650817,,,,,,,2024-12-11,1,,,,,トリンレット,0
447,2170001018411,新規,0,2024-12-11,2024-12-11,誉綜合警備株式会社,,株式会社,和歌山県,和歌山市,小豆島８番地１,,30,201,6496336,,,,,,,2024-12-11,1,,,,,ホマレソウゴウケイビ,0
449,2180001039720,新規,0,2024-12-11,2024-12-11,野尻建設株式会社,,株式会社,愛知県,名古屋市中村区,名楽町４丁目２１番地,,23,105,4530024,,,,,,,2024-12-11,1,,,,,ノジリケンセツ,0
453,2180001164436,新規,0,2024-12-11,2024-12-11,株式会社セルズホールディングス,,株式会社,愛知県,小牧市,安田町１９０番地,,23,219,4850014,,,,,,,2024-12-11,1,,,,,セルズホールディングス,0
465,2200001043224,新規,0,2024-12-11,2024-12-11,宮下創建株式会社,,株式会社,岐阜県,多治見市,市之倉町５丁目１７２番地の１４,,21,204,5070814,,,,,,,2024-12-11,1,,,,,ミヤシタソウケン,0
467,2200003006617,新規,0,2024-12-11,2024-12-11,合同会社まこと会計,,合同会社,岐阜県,大垣市,築捨町５丁目１８番地９,,21,202,5030854,,,,,,,2024-12-11,1,,,,,マコトカイケイ,0
475,2240001064233,新規,0,2024-12-11,2024-12-11,株式会社グランディール,,株式会社,広島県,福山市,新市町大字新市１０９８番地２,,34,207,7293103,,,,,,,2024-12-11,1,,,,,グランディール,0
476,2240001064241,新規,0,2024-12-11,2024-12-11,株式会社ｔｒｉｇｇｅｒ,,株式会社,広島県,広島市中区,広瀬北町３―１１ソアラビジネスポート２階,,34,101,7300803,,,,,,,2024-12-11,1,,,,,トリガー,0
478,2240003006976,新規,0,2024-12-11,2024-12-11,Ｆ・Ｆ合同会社,,合同会社,広島県,安芸郡海田町,南本町２番４２－１２号,,34,304,7360033,,,,,,,2024-12-11,1,,,,,エフエフ,0
483,2260003005002,新規,0,2024-12-11,2024-12-11,エスケー合同会社,,合同会社,岡山県,倉敷市,中畝３丁目７－１６,,33,202,7128051,,,,,,,2024-12-11,1,,,,,エスケー,0
485,2270003001693,新規,0,2024-12-11,2024-12-11,ＯＨＡＹＯ　ＪＡＰＡＮ合同会社,,合同会社,鳥取県,倉吉市,上余戸５４８－１４,,31,203,6820032,,,,,,,2024-12-11,1,,,,,,0
491,2290801031114,新規,0,2024-12-11,2024-12-11,株式会社ハピエン,,株式会社,福岡県,北九州市小倉南区,下城野１丁目１番１５－８０１号,,40,107,8020804,,,,,,,2024-12-11,1,,,,,ハピエン,0
497,2320001020855,新規,0,2024-12-11,2024-12-11,株式会社萬四郎,,株式会社,大分県,大分市,三佐２丁目１０番２４号,,44,201,8700108,,,,,,,2024-12-11,1,,,,,マンシロウ,0
498,2350001019317,新規,0,2024-12-11,2024-12-11,株式会社アリスコーポレーション,,株式会社,宮崎県,宮崎市,大字浮田５９４番地８,,45,201,8802104,,,,,,,2024-12-11,1,,,,,アリスコーポレーション,0
502,2360003014513,新規,0,2024-12-11,2024-12-11,合同会社宮古島フォトツアーズ,,合同会社,沖縄県,宮古島市,平良字西里８４９－７,,47,214,9060012,,,,,,,2024-12-11,1,,,,,ミヤコジマフォトツアーズ,0
504,2370001052019,新規,0,2024-12-11,2024-12-11,株式会社ミッケル,,株式会社,宮城県,仙台市太白区,根岸町１６番５号,,04,104,9820844,,,,,,,2024-12-11,1,,,,,ミッケル,0
506,2380003005898,新規,0,2024-12-11,2024-12-11,伊藤塾ｃｏ．合同会社,,合同会社,福島県,郡山市,八山田３丁目１２２キャッスル藤和１０７,,07,203,9638052,,,,,,,2024-12-11,1,,,,,イトウジュクコ,0
514,2430001093246,新規,0,2024-12-11,2024-12-11,株式会社ＣＯＣＯ,,株式会社,北海道,小樽市,清水町２１番１６号,,01,203,0470045,,,,,,,2024-12-11,1,,,,,ココ,0
518,2450003002566,新規,0,2024-12-11,2024-12-11,合同会社Ｆｒｅｅ,,合同会社,北海道,旭川市,豊岡三条２丁目３番５号ベルグランデＤ２０４号室,,01,204,0788233,,,,,,,2024-12-11,1,,,,,フリー,0
519,2460003001022,新規,0,2024-12-11,2024-12-11,合同会社みどり造園,,合同会社,北海道,釧路市,桜ケ岡２丁目１４番２１号,,01,206,0850805,,,,,,,2024-12-11,1,,,,,ミドリゾウエン,0
522,2470003002770,新規,0,2024-12-11,2024-12-11,合同会社リライアブルーフ,,合同会社,香川県,高松市,国分寺町新居１２０３－１５,,37,201,7690101,,,,,,,2024-12-11,1,,,,,,0
549,3010005039245,新規,0,2024-12-11,2024-12-11,一般社団法人海外ＦＸ協会,,その他の設立登記法人,東京都,中央区,銀座１丁目１２－４Ｎ＆ＥＢＬＤ．７階,,13,102,1040061,,,,,,,2024-12-11,1,,,,,カイガイエフエックスキョウカイ,0
550,3010005039261,新規,0,2024-12-11,2024-12-11,一般財団法人社会福祉会,,その他の設立登記法人,東京都,千代田区,外神田２丁目３番１号,,13,101,1010021,,,,,,,2024-12-11,1,,,,,シャカイフクシカイ,0
557,3010401186962,新規,0,2024-12-11,2024-12-11,ＤＩＧ株式会社,,株式会社,東京都,港区,東麻布１丁目４番２号ＴＨＥＷＯＲＫＥＲＳ＆ＣＯ５０４,,13,103,1060044,,,,,,,2024-12-11,1,,,,,ディグ,0
560,3010403033964,新規,0,2024-12-11,2024-12-11,ＧＶＰ　Ａｓｉａ０７合同会社,,合同会社,東京都,港区,六本木３丁目１６番２６号,,13,103,1060032,,,,,,,2024-12-11,1,,,,,ジーブイピーアジアゼロセブン,0
561,3010403033989,新規,0,2024-12-11,2024-12-11,佐世保ホスピタリティ教育・経済計画合同会社,,合同会社,東京都,港区,元麻布２丁目１番１３号,,13,103,1060046,,,,,,,2024-12-11,1,,,,,サセボホスピタリティキョウイクケイザイケイカク,0
564,3010501053328,新規,0,2024-12-11,2024-12-11,株式会社ラント,,株式会社,東京都,台東区,台東３丁目１５番３号ＭａｒｋＳｑｕａｒｅ御徒町６階,,13,106,1100016,,,,,,,2024-12-11,1,,,,,ラント,0
568,3010903009563,新規,0,2024-12-11,2024-12-11,合同会社ｅｎ＆．,,合同会社,東京都,世田谷区,東玉川１丁目１５番２号メインステージ奥沢２０８,,13,112,1580084,,,,,,,2024-12-11,1,,,,,エン,0
580,3011701027591,新規,0,2024-12-11,2024-12-11,株式会社桜の友達,,株式会社,東京都,江戸川区,東小岩６丁目８－１６,,13,123,1330052,,,,,,,2024-12-11,1,,,,,サクラノトモダチ,0
585,3012403006867,新規,0,2024-12-11,2024-12-11,合同会社プランリンク,,合同会社,東京都,調布市,国領町１丁目４番地３号３０３号室,,13,208,1820022,,,,,,,2024-12-11,1,,,,,プランリンク,0
593,3020001160524,新規,0,2024-12-11,2024-12-11,株式会社２リーフ,,株式会社,神奈川県,横浜市緑区,鴨居４丁目６１番５号,,14,113,2260003,,,,,,,2024-12-11,1,,,,,ツーリーフ,0
594,3020001160532,新規,0,2024-12-11,2024-12-11,株式会社大成商会,,株式会社,神奈川県,横浜市南区,八幡町１２番地２,,14,105,2320037,,,,,,,2024-12-11,1,,,,,タイセイショウカイ,0
595,3020001160549,新規,0,2024-12-11,2024-12-11,大和アドバイザリー株式会社,,株式会社,神奈川県,横浜市青葉区,荏田西１丁目１２番地３４－３０３,,14,117,2250014,,,,,,,2024-12-11,1,,,,,ダイワアドバイザリー,0
604,3021005013239,新規,0,2024-12-11,2024-12-11,医療法人社団茅幸会,,その他の設立登記法人,神奈川県,茅ヶ崎市,幸町２４番１号,,14,207,2530052,,,,,,,2024-12-11,1,,,,,チコウカイ,0
608,3030001163906,新規,0,2024-12-11,2024-12-11,ダスレーベン株式会社,,株式会社,埼玉県,秩父市,中村町３丁目１６番１－５１２号,,11,207,3680051,,,,,,,2024-12-11,1,,,,,ダスレーベン,0
610,3030003025633,新規,0,2024-12-11,2024-12-11,合同会社てまひま,,合同会社,埼玉県,久喜市,菖蒲町菖蒲２６５６番地３,,11,232,3460106,,,,,,,2024-12-11,1,,,,,テマヒマ,0
616,3040001136415,新規,0,2024-12-11,2024-12-11,株式会社ＹＳアセットマネジメント,,株式会社,千葉県,市川市,新田１丁目１９番１０号,,12,203,2720035,,,,,,,2024-12-11,1,,,,,ワイエスアセットマネジメント,0
617,3040001136480,新規,0,2024-12-11,2024-12-11,株式会社リノア,,株式会社,千葉県,富里市,七栄６４６番地８０１,,12,233,2860221,,,,,,,2024-12-11,1,,,,,リノア,0
620,3040003026333,新規,0,2024-12-11,2024-12-11,ＨＭＨ合同会社,,合同会社,千葉県,松戸市,新松戸１丁目４８０－１－５０２,,12,207,2700034,,,,,,,2024-12-11,1,,,,,エイチエムエイチ,0
621,3040003026358,新規,0,2024-12-11,2024-12-11,合同会社ぱりぱりんご,,合同会社,千葉県,成田市,ウイング土屋２４ぱりぱりりんごイオン成田店,,12,211,2860029,,,,,,,2024-12-11,1,,,,,パリパリンゴ,0
623,3040005022586,新規,0,2024-12-11,2024-12-11,一般社団法人市原市動物愛護協会,,その他の設立登記法人,千葉県,市原市,藤井３丁目１４５番地,,12,219,2900012,,,,,,,2024-12-11,1,,,,,イチハラシドウブツアイゴキョウカイ,0
630,3070001042445,新規,0,2024-12-11,2024-12-11,ＭＹホールディングス株式会社,,株式会社,群馬県,伊勢崎市,喜多町７３番地２０,,10,204,3720056,,,,,,,2024-12-11,1,,,,,エムワイホールディングス,0
635,3080001026653,新規,0,2024-12-11,2024-12-11,株式会社ＳＨＩＮＫＡ,,株式会社,静岡県,静岡市葵区,呉服町２丁目５番地の３Ｅ－１ビル４階,,22,101,4200031,,,,,,,2024-12-11,1,,,,,シンカ,0
636,3080003003345,新規,0,2024-12-11,2024-12-11,合同会社ケアＫＩＴ,,合同会社,静岡県,静岡市葵区,羽鳥２丁目１３番５号,,22,101,4211215,,,,,,,2024-12-11,1,,,,,ケアキット,0
638,3080401027623,新規,0,2024-12-11,2024-12-11,株式会社ＮＡカンパニー,,株式会社,静岡県,磐田市,岩井１９３６番地２２,,22,211,4380016,,,,,,,2024-12-11,1,,,,,エヌエーカンパニー,0
659,3120001270916,新規,0,2024-12-11,2024-12-11,Ｃｈａｉｎ　ｏｆ　ｓｍｉｌｅｓ　ｈｏｌｄｉｎｇｓ株式会社,,株式会社,大阪府,大阪市住吉区,山之内４丁目１２番１２号,,27,120,5580023,,,,,,,2024-12-11,1,,,,,チェーンオブスマイルズホールディングス,0
660,3120001270981,新規,0,2024-12-11,2024-12-11,月見商事株式会社,,株式会社,大阪府,大阪市住吉区,沢之町１丁目５番２８号、２０１Ｃ号室,,27,120,5580031,,,,,,,2024-12-11,1,,,,,ツキミショウジ,0
661,3120001271030,新規,0,2024-12-11,2024-12-11,都築ＤＸ株式会社,,株式会社,大阪府,大阪市平野区,喜連西３丁目１７番１９号,,27,126,5470026,,,,,,,2024-12-11,1,,,,,ツヅキディーエックス,0
665,3120103006185,新規,0,2024-12-11,2024-12-11,合同会社Ｔｗｏ　Ｆｉｖｅ,,合同会社,大阪府,堺市堺区,遠里小野町２－１－１－０４,,27,141,5900000,,,,,,,2024-12-11,1,,,,,ツーファイブ,0
667,3122001038731,新規,0,2024-12-11,2024-12-11,株式会社ＴＳＭＣ,,株式会社,大阪府,東大阪市,西岩田３丁目５番６５－１１１１号,,27,227,5780947,,,,,,,2024-12-11,1,,,,,ティーエスエムシー,0
668,3122003003064,新規,0,2024-12-11,2024-12-11,合同会社ソレイユ,,合同会社,大阪府,八尾市,宮町４丁目５－２５,,27,212,5810815,,,,,,,2024-12-11,1,,,,,ソレイユ,0
678,3140001136719,新規,0,2024-12-11,2024-12-11,株式会社みのり,,株式会社,兵庫県,川西市,水明台２丁目１－７６,,28,217,6660116,,,,,,,2024-12-11,1,,,,,ミノリ,0
697,3180305009633,新規,0,2024-12-11,2024-12-11,一般社団法人あんしん相続支援センター,,その他の設立登記法人,愛知県,豊川市,大橋町３丁目１５５番地ポピュレールＢ号,,23,207,4420809,,,,,,,2024-12-11,1,,,,,アンシンソウゾクシエンセンター,0
698,3190001031849,新規,0,2024-12-11,2024-12-11,株式会社ＦＧＳ,,株式会社,三重県,松阪市,大黒田町２１８番地７,,24,204,5150063,,,,,,,2024-12-11,1,,,,,エフジーエス,0
701,3200001043223,新規,0,2024-12-11,2024-12-11,株式会社Ｂａｉｋａ,,株式会社,岐阜県,岐阜市,島田西町４０－３,,21,201,5008317,,,,,,,2024-12-11,1,,,,,バイカ,0
702,3200003006608,新規,0,2024-12-11,2024-12-11,合同会社マルミヤ,,合同会社,岐阜県,瑞浪市,山田町２２０番地１,,21,208,5096104,,,,,,,2024-12-11,1,,,,,マルミヤ,0
712,3240001064240,新規,0,2024-12-11,2024-12-11,天朋商事株式会社,,株式会社,広島県,三次市,三若町１８４５－３,,34,209,7280621,,,,,,,2024-12-11,1,,,,,テンホウショウジ,0
720,3260003004993,新規,0,2024-12-11,2024-12-11,Ｂｅｓｔｉｅ合同会社,,合同会社,岡山県,赤磐市,桜が丘東５丁目５－２５１,,33,213,7090721,,,,,,,2024-12-11,1,,,,,ベスティ,0
721,3270005005618,新規,0,2024-12-11,2024-12-11,一般社団法人全国空き家対策協会,,その他の設立登記法人,鳥取県,米子市,西福原６丁目３番５０号１０３Ｈ．Ｃ．Ｏ．Ｓ１Ｆ,,31,202,6830805,,,,,,,2024-12-11,1,,,,,ゼンコクアキヤタイサクキョウカイ,0
729,3290001108232,新規,0,2024-12-11,2024-12-11,株式会社エヌエーピー,,株式会社,福岡県,嘉穂郡桂川町,大字九郎丸６８９番地６,,40,421,8200602,,,,,,,2024-12-11,1,,,,,エヌエーピー,0
735,3330001032725,新規,0,2024-12-11,2024-12-11,愛電エンジニアリング株式会社,,株式会社,熊本県,菊池郡菊陽町,大字津久礼２３８５番地３,,43,404,8691101,,,,,,,2024-12-11,1,,,,,アイデンエンジニアリング,0
739,3330003010679,新規,0,2024-12-11,2024-12-11,合同会社ＰＲＩＤＥ,,合同会社,熊本県,熊本市東区,戸島本町１番２５号,,43,102,8618042,,,,,,,2024-12-11,1,,,,,プライド,0
749,3370001052042,新規,0,2024-12-11,2024-12-11,晟合貿易株式会社,,株式会社,宮城県,石巻市,開北４丁目２番５０号１階,,04,202,9860806,,,,,,,2024-12-11,1,,,,,セイゴウボウエキ,0
762,3430001093245,新規,0,2024-12-11,2024-12-11,株式会社エムステップ,,株式会社,北海道,札幌市北区,北七条西４丁目１番地１トーカン札幌第一キャステール６０７,,01,102,0600807,,,,,,,2024-12-11,1,,,,,,0
765,3460001005957,新規,0,2024-12-11,2024-12-11,株式会社こころネット宙,,株式会社,北海道,釧路市,緑ケ岡３丁目１番３号,,01,206,0850814,,,,,,,2024-12-11,1,,,,,ココロネットソラ,0
767,3460301005260,新規,0,2024-12-11,2024-12-11,株式会社ａｎｄ　ＴＲＥＥ,,株式会社,北海道,北見市,朝日町４１番地６０ヴァンドーム青葉１１０号,,01,208,0900803,,,,,,,2024-12-11,1,,,,,アンドツリー,0
780,4010001250622,新規,0,2024-12-11,2024-12-11,株式会社セールスボイス,,株式会社,東京都,中央区,銀座１丁目１２－４Ｎ＆ＥＢＬＤ．７階,,13,102,1040061,,,,,,,2024-12-11,1,,,,,セールスボイス,0
783,4010003045748,新規,0,2024-12-11,2024-12-11,梅田プロパティー合同会社,,合同会社,東京都,千代田区,丸の内１丁目１１番１号,,13,101,1000005,,,,,,,2024-12-11,1,,,,,ウメダプロパティー,0
789,4010101016444,新規,0,2024-12-11,2024-12-11,Ｈｉｓｔｏｒｉｃａｌ　Ｖａｌｕｅ株式会社,,株式会社,東京都,八王子市,南大沢２丁目１９番地１４,,13,201,1920364,,,,,,,2024-12-11,1,,,,,ヒストリカルバリュー,0
790,4010103002467,新規,0,2024-12-11,2024-12-11,合同会社たざえもん,,合同会社,東京都,八王子市,椚田町１２１４番地１めじろ台ハイム５０１号,,13,201,1930942,,,,,,,2024-12-11,1,,,,,タザエモン,0
798,4010401186953,新規,0,2024-12-11,2024-12-11,Ａｌｅｘ株式会社,,株式会社,東京都,港区,芝１丁目１５番７－７０１号,,13,103,1050014,,,,,,,2024-12-11,1,,,,,アレックス,0
799,4010401186986,新規,0,2024-12-11,2024-12-11,ＢＥＥＲ　ＦＲＥＡＫＳ株式会社,,株式会社,東京都,港区,六本木４丁目５－７スタジオＤ３０１号室,,13,103,1060032,,,,,,,2024-12-11,1,,,,,ビアーフリークス,0
804,4010403033963,新規,0,2024-12-11,2024-12-11,ＧＶＰ　Ａｓｉａ０６合同会社,,合同会社,東京都,港区,六本木３丁目１６番２６号,,13,103,1060032,,,,,,,2024-12-11,1,,,,,ジーブイピーアジアゼロシックス,0
805,4010403033971,新規,0,2024-12-11,2024-12-11,合同会社ＫＵＬＴＡ,,合同会社,東京都,港区,南麻布１丁目８－６パークコート南麻布１１０３,,13,103,1060047,,,,,,,2024-12-11,1,,,,,クルタ,0
807,4010405023888,新規,0,2024-12-11,2024-12-11,一般社団法人未来創電ＲＥ１号,,その他の設立登記法人,東京都,港区,西新橋１丁目１８番１７号明産西新橋ビル３Ｆ,,13,103,1050003,,,,,,,2024-12-11,1,,,,,ミライソウデンアールイーイチゴウ,0
811,4010501053302,新規,0,2024-12-11,2024-12-11,株式会社一模型,,株式会社,東京都,台東区,竜泉１丁目７番１号,,13,106,1100012,,,,,,,2024-12-11,1,,,,,ハジメモケイ,0
816,4010701046956,新規,0,2024-12-11,2024-12-11,株式会社アレス,,株式会社,東京都,品川区,東中延２丁目７－１８ＮＹ吉田ビル,,13,109,1420052,,,,,,,2024-12-11,1,,,,,アレス,0
823,4011001166544,新規,0,2024-12-11,2024-12-11,株式会社志士,,株式会社,東京都,渋谷区,道玄坂１丁目１０番８号渋谷道玄坂東急ビル２Ｆ－Ｃ,,13,113,1500043,,,,,,,2024-12-11,1,,,,,シシ,0
826,4011003020600,新規,0,2024-12-11,2024-12-11,合同会社むすび,,合同会社,東京都,渋谷区,神泉町１０番１５号アネックス神泉３０１,,13,113,1500045,,,,,,,2024-12-11,1,,,,,ムスビ,0
835,4011101109881,新規,0,2024-12-11,2024-12-11,株式会社Ｂｕｉｌｄ,,株式会社,東京都,新宿区,西新宿３丁目３番１３号西新宿水間ビル２Ｆ,,13,104,1600023,,,,,,,2024-12-11,1,,,,,ビルド,0
838,4011703004051,新規,0,2024-12-11,2024-12-11,ＹＯＳＨＩＫＩ合同会社,,合同会社,東京都,江戸川区,南小岩３丁目１番１４号プランドールＭ１２８室,,13,123,1330056,,,,,,,2024-12-11,1,,,,,ヨシキ,0
844,4012401042566,新規,0,2024-12-11,2024-12-11,株式会社Ｆｕｔｕｒｅ　Ｇｒｏｗ,,株式会社,東京都,三鷹市,中原４丁目２６番４０号,,13,204,1810005,,,,,,,2024-12-11,1,,,,,フューチャーグロウ,0
849,4013301053488,新規,0,2024-12-11,2024-12-11,株式会社洋食小林,,株式会社,東京都,豊島区,巣鴨４丁目１６番８号,,13,116,1700002,,,,,,,2024-12-11,1,,,,,ヨウショクコバヤシ,0
854,4020001160523,新規,0,2024-12-11,2024-12-11,株式会社どさんこいちば,,株式会社,神奈川県,川崎市川崎区,駅前本町２６番地２,,14,131,2100007,,,,,,,2024-12-11,1,,,,,ドサンコイチバ,0
855,4020001160548,新規,0,2024-12-11,2024-12-11,株式会社ＩＡＰ,,株式会社,神奈川県,横浜市西区,北幸２丁目１０番４８号むつみビル３階,,14,103,2200004,,,,,,,2024-12-11,1,,,,,アイエーピー,0
861,4021001083961,新規,0,2024-12-11,2024-12-11,株式会社Ｂ‐ＥＦＦＥＣＴ,,株式会社,神奈川県,相模原市緑区,根小屋２４９１番地６,,14,151,2520153,,,,,,,2024-12-11,1,,,,,ビーエフェクト,0
870,4030001163863,新規,0,2024-12-11,2024-12-11,ネクストエラ株式会社,,株式会社,埼玉県,草加市,谷塚上町５０２－４１,,11,221,3400024,,,,,,,2024-12-11,1,,,,,ネクストエラ,0
871,4030001163888,新規,0,2024-12-11,2024-12-11,株式会社Ｌｕｄｉｃ,,株式会社,埼玉県,さいたま市西区,西大宮２丁目１３番地５０リベール２０１,,11,101,3310078,,,,,,,2024-12-11,1,,,,,ルーディック,0
885,4040005022593,新規,0,2024-12-11,2024-12-11,一般社団法人Ｔ２アカデミー,,その他の設立登記法人,千葉県,長生郡一宮町,一宮２２１２番地７,,12,421,2994301,,,,,,,2024-12-11,1,,,,,ティーツーアカデミー,0
888,4050001055860,新規,0,2024-12-11,2024-12-11,株式会社ソーシャルケアサポートＯＭＳＯＲＧ,,株式会社,茨城県,日立市,神峰町４丁目１７番１０号,,08,202,3170064,,,,,,,2024-12-11,1,,,,,ソーシャルケアサポートオムソリ,0
890,4060001037718,新規,0,2024-12-11,2024-12-11,株式会社空新,,株式会社,栃木県,宇都宮市,駒生町１２７９番地２７,,09,201,3200065,,,,,,,2024-12-11,1,,,,,クウシン,0
893,4060003005359,新規,0,2024-12-11,2024-12-11,ＡＡＨＩＬ　ＧＲＯＵＰ　ＯＦ　ＣＯＭＰＡＮＩＥＳ合同会社,,合同会社,栃木県,栃木市,今泉町２丁目６－４０グリーンハイツ１０２号室,,09,203,3280027,,,,,,,2024-12-11,1,,,,,アアヒルグループオブカンパニーズ,0
897,4070001042436,新規,0,2024-12-11,2024-12-11,ヨマールトレーディング株式会社,,株式会社,群馬県,桐生市,広沢町７丁目５２８７番地１,,10,203,3760013,,,,,,,2024-12-11,1,,,,,ヨマールトレーディング,0
899,4080001026652,新規,0,2024-12-11,2024-12-11,Ｍｉｎｅｃｒａｆｔ株式会社,,株式会社,静岡県,静岡市葵区,紺屋町１７番地の１葵タワー２階,,22,101,4200852,,,,,,,2024-12-11,1,,,,,マインクラフト,0
902,4080401027622,新規,0,2024-12-11,2024-12-11,株式会社ＫＡカンパニー,,株式会社,静岡県,磐田市,中泉４丁目２番地１３,,22,211,4380078,,,,,,,2024-12-11,1,,,,,ケーエーカンパニー,0
921,4120001270989,新規,0,2024-12-11,2024-12-11,株式会社オプティマイズド,,株式会社,大阪府,大阪市北区,梅田１丁目２番２－２０２号大阪駅前第２ビル２階３－１－２,,27,127,5300001,,,,,,,2024-12-11,1,,,,,オプティマイズド,0
922,4120001271038,新規,0,2024-12-11,2024-12-11,株式会社Ｇ．Ｙ．Ｏ,,株式会社,大阪府,大阪市中央区,南久宝寺町４丁目４－１２ＩＢセンタービル２Ｆ－Ｃ,,27,128,5410058,,,,,,,2024-12-11,1,,,,,ジーワイオー,0
924,4120003028139,新規,0,2024-12-11,2024-12-11,ＳＡＵＲＡＨＡ合同会社,,合同会社,大阪府,大阪市鶴見区,諸口３丁目５番１６号１階,,27,124,5380051,,,,,,,2024-12-11,1,,,,,サラハ,0
925,4120003028147,新規,0,2024-12-11,2024-12-11,エイチティー合同会社,,合同会社,大阪府,大阪市東住吉区,駒川４丁目３番１３－４０２号,,27,121,5460043,,,,,,,2024-12-11,1,,,,,エイチティー,0
928,4120103006184,新規,0,2024-12-11,2024-12-11,合同会社太陽,,合同会社,大阪府,堺市南区,野々井２５４番地５,,27,145,5900155,,,,,,,2024-12-11,1,,,,,タイヨウ,0
934,4122003003063,新規,0,2024-12-11,2024-12-11,エムエスプロ合同会社,,合同会社,大阪府,八尾市,沼３丁目５５番地,,27,212,5810036,,,,,,,2024-12-11,1,,,,,エムエスプロ,0
940,4130001078580,新規,0,2024-12-11,2024-12-11,株式会社山麓,,株式会社,京都府,京都市右京区,山ノ内北ノ口町１９番地１－２Ｆ,,26,108,6150094,,,,,,,2024-12-11,1,,,,,サンロク,0
943,4140001136718,新規,0,2024-12-11,2024-12-11,株式会社マロモネ,,株式会社,兵庫県,神戸市東灘区,岡本１丁目６番１２号,,28,101,6580072,,,,,,,2024-12-11,1,,,,,マロモネ,0
954,4180003027721,新規,0,2024-12-11,2024-12-11,合同会社アイビー,,合同会社,愛知県,江南市,小杁町長者毛東２１２番地,,23,217,4838408,,,,,,,2024-12-11,1,,,,,アイビー,0
970,4250001020910,新規,0,2024-12-11,2024-12-11,株式会社共育社,,株式会社,山口県,周南市,平原町８番６４号,,35,215,7450808,,,,,,,2024-12-11,1,,,,,キョウイクシャ,0
974,4260001039693,新規,0,2024-12-11,2024-12-11,株式会社信義商事,,株式会社,岡山県,岡山市北区,大井２０９９番地５,,33,101,7011462,,,,,,,2024-12-11,1,,,,,シンギショウジ,0
975,4260001039710,新規,0,2024-12-11,2024-12-11,株式会社ＴｉＧ,,株式会社,岡山県,岡山市北区,表町１丁目６番５３号１Ｆ,,33,101,7000822,,,,,,,2024-12-11,1,,,,,ティグ,0
984,4290001108207,新規,0,2024-12-11,2024-12-11,株式会社ｇ３ｓｙｓｔｅｍｓ,,株式会社,福岡県,福岡市早良区,原８丁目１６番６号,,40,137,8140022,,,,,,,2024-12-11,1,,,,,ジースリーシステムズ,0
985,4290001108264,新規,0,2024-12-11,2024-12-11,株式会社池田不動産,,株式会社,福岡県,福岡市南区,市崎１丁目１７番１７－８０１号,,40,134,8150084,,,,,,,2024-12-11,1,,,,,イケダフドウサン,0
989,4290801031120,新規,0,2024-12-11,2024-12-11,株式会社ＮＳＣ,,株式会社,福岡県,行橋市,東大橋２丁目１９番２７号アトリエールＩＩ棟１０２号室,00137308,40,213,8240002,,,,,,,2024-12-11,1,,,,,エヌエスシー,0
990,4290803004917,新規,0,2024-12-11,2024-12-11,合同会社ＪＵＳＴＤＯＩＴ,,合同会社,福岡県,北九州市八幡東区,神山町３－３６,,40,108,8050055,,,,,,,2024-12-11,1,,,,,ジャストドゥーイット,0
993,4320001020853,新規,0,2024-12-11,2024-12-11,株式会社保守工房ａ,,株式会社,大分県,日田市,大字石井４７１番地１,,44,204,8770061,,,,,,,2024-12-11,1,,,,,ホシュコウボウアルファ,0
1025,4430001093244,新規,0,2024-12-11,2024-12-11,株式会社ＵＳＴＯＲＹ,,株式会社,北海道,札幌市中央区,南十条西１丁目１－６５１１．ＣＯＮＣＥＰＴ　ＳＰＥＲＡＲＥ　ＢＬＤ　６Ｆ,,01,101,0640810,,,,,,,2024-12-11,1,,,,,ユーストーリー,0
1028,4450001014462,新規,0,2024-12-11,2024-12-11,株式会社かなた,,株式会社,北海道,旭川市,北門町１５丁目２１５９番地の５０,,01,204,0700825,,,,,,,2024-12-11,1,,,,,カナタ,0
1046,5010003045722,新規,0,2024-12-11,2024-12-11,アストロ２ゼロ合同会社,,合同会社,東京都,中央区,銀座１丁目６番１１号アースタックス税理士法人内,,13,102,1040061,,,,,,,2024-12-11,1,,,,,アストロツーゼロ,0
1047,5010003045747,新規,0,2024-12-11,2024-12-11,合同会社ＭｉＳａＫｉ,,合同会社,東京都,千代田区,神田淡路町１丁目９番１１号,,13,101,1010063,,,,,,,2024-12-11,1,,,,,ミサキ,0
1053,5010005039152,新規,0,2024-12-11,2024-12-11,一般社団法人ホヌリゾート,,その他の設立登記法人,東京都,中央区,銀座１丁目１２番４号Ｎ＆ＥＢＬＤ．７Ｆ,,13,102,1040061,,,,,,,2024-12-11,1,,,,,ホヌリゾート,0
1054,5010103002466,新規,0,2024-12-11,2024-12-11,Ｓｅｒｅｎｉｔｙ　Ｖｅｎｔｕｒｅｓ合同会社,,合同会社,東京都,八王子市,下恩方町８３９－３,,13,201,1920154,,,,,,,2024-12-11,1,,,,,セレニティベンチャーズ,0
1070,5010401186952,新規,0,2024-12-11,2024-12-11,株式会社エムスクエアード,,株式会社,東京都,港区,東新橋１丁目１番１６号汐留ＦＳビル４階,,13,103,1050021,,,,,,,2024-12-11,1,,,,,エムスクエアード,0
1071,5010401186977,新規,0,2024-12-11,2024-12-11,株式会社Ｅｍｂｒｏｉａ　ｄｅ　Ｂｌｏｏｍ,,株式会社,東京都,港区,赤坂３丁目１２番１０号,,13,103,1070052,,,,,,,2024-12-11,1,,,,,エンブロイアブルーム,0
1072,5010403033962,新規,0,2024-12-11,2024-12-11,ＧＶＰ　Ａｓｉａ０５合同会社,,合同会社,東京都,港区,六本木３丁目１６番２６号,,13,103,1060032,,,,,,,2024-12-11,1,,,,,ジーブイピーアジアゼロファイブ,0
1074,5010405023846,新規,0,2024-12-11,2024-12-11,一般社団法人日本・トルコ協会,,その他の設立登記法人,東京都,港区,北青山２丁目５番１号伊藤忠商事東京本社ビル内,,13,103,1070061,,,,,,,2024-12-11,1,,,,,ニホントルコキョウカイ,0
1082,5010905004701,新規,0,2024-12-11,2024-12-11,労働者協同組合ＨＡＴＯ文化編集部,,その他の設立登記法人,東京都,世田谷区,代沢２丁目４０番１６号ヴォーヌング代沢１０３,,13,112,1550032,,,,,,,2024-12-11,1,,,,,ハトブンカヘンシュウブ,0
1103,5011701027895,新規,0,2024-12-11,2024-12-11,株式会社オナガ,,株式会社,東京都,江戸川区,平井６丁目７番２１号,,13,123,1320035,,,,,,,2024-12-11,1,,,,,オナガ,0
1104,5011801045269,新規,0,2024-12-11,2024-12-11,株式会社ＮＯＶＡ,,株式会社,東京都,葛飾区,新宿６丁目２番１８号－６３４号シティテラス金町,,13,122,1250051,,,,,,,2024-12-11,1,,,,,ノワ,0
1106,5012403006873,新規,0,2024-12-11,2024-12-11,Ｒｅ　Ｌｉｆｅ合同会社,,合同会社,東京都,小金井市,桜町１丁目１５－１１桜町コーポラス７０３,,13,210,1840005,,,,,,,2024-12-11,1,,,,,リライフ,0
1108,5013303007425,新規,0,2024-12-11,2024-12-11,合同会社ＭＫプロジェクト,,合同会社,東京都,豊島区,東池袋３丁目２番７号,,13,116,1700013,,,,,,,2024-12-11,1,,,,,エムケープロジェクト,0
1117,5021001083969,新規,0,2024-12-11,2024-12-11,Ｈｎｃビジネスサポート株式会社,,株式会社,神奈川県,小田原市,栄町１丁目１４番２８号ＮＴＴ小田原ビル１Ｆ,,14,206,2500011,,,,,,,2024-12-11,1,,,,,ハンクビジネスサポート,0
1118,5021001083977,新規,0,2024-12-11,2024-12-11,株式会社Ｙ‐ｂａｓｅ,,株式会社,神奈川県,厚木市,三田南２丁目１番９号,,14,212,2430217,,,,,,,2024-12-11,1,,,,,ワイベース,0
1122,5030001163788,新規,0,2024-12-11,2024-12-11,株式会社ジオライフ,,株式会社,埼玉県,川越市,脇田本町２５番地２１ユアコート川越４０３号室,,11,201,3501123,,,,,,,2024-12-11,1,,,,,ジオライフ,0
1123,5030001163904,新規,0,2024-12-11,2024-12-11,株式会社創建,,株式会社,埼玉県,坂戸市,東坂戸２丁目４０番－３０６号,,11,239,3500205,,,,,,,2024-12-11,1,,,,,ソウケン,0
1141,5050003008873,新規,0,2024-12-11,2024-12-11,合同会社Ｃ‐ＫＥＺ　ＫＩＮＧＳ　ＭＵＬＴＩ　ＬＩＮＫＳ,,合同会社,茨城県,牛久市,南４丁目２８番地６－１０１,,08,219,3001222,,,,,,,2024-12-11,1,,,,,シーケーキングスマルチリンクス,0
1143,5060001037725,新規,0,2024-12-11,2024-12-11,株式会社Ｂｅｅ　ｃｒｅａｔｉｖｅ,,株式会社,栃木県,栃木市,倭町９番１２号２Ｆ,,09,203,3280037,,,,,,,2024-12-11,1,,,,,ビークリエイティブ,0
1163,5120001270988,新規,0,2024-12-11,2024-12-11,マオ町株式会社,,株式会社,大阪府,大阪市浪速区,難波中３丁目７－２０福井ビル３階,,27,111,5560011,,,,,,,2024-12-11,1,,,,,マオチョウ,0
1164,5120003028138,新規,0,2024-12-11,2024-12-11,合同会社ピースポイント,,合同会社,大阪府,大阪市東淀川区,東中島１丁目２０番１２号ユニゾーン新大阪１０１３号,,27,114,5330033,,,,,,,2024-12-11,1,,,,,ピースポイント,0
1165,5120003028146,新規,0,2024-12-11,2024-12-11,合同会社うさぎ,,合同会社,大阪府,大阪市中央区,高津１丁目９番１０－４０１号,,27,128,5420072,,,,,,,2024-12-11,1,,,,,ウサギ,0
1171,5122003003062,新規,0,2024-12-11,2024-12-11,合同会社Ｓｗｉｔｃｈ,,合同会社,大阪府,東大阪市,足代北１丁目１２番１２－１００５号,,27,227,5770058,,,,,,,2024-12-11,1,,,,,スイッチ,0
1173,5130001078480,新規,0,2024-12-11,2024-12-11,サキノミライ株式会社,,株式会社,京都府,亀岡市,曽我部町穴太達原８番地,,26,206,6210029,,,,,,,2024-12-11,1,,,,,サキノミライ,0
1174,5130001078588,新規,0,2024-12-11,2024-12-11,株式会社ＨＡＹ’ｓ　ｔａｂｌｅ,,株式会社,京都府,京都市中京区,鏡屋町５１番地１,,26,104,6040002,,,,,,,2024-12-11,1,,,,,ヘイズテーブル,0
1182,5140001136667,新規,0,2024-12-11,2024-12-11,株式会社神戸の面白い不動産屋,,株式会社,兵庫県,神戸市垂水区,高丸８丁目７番２４号,,28,108,6550016,,,,,,,2024-12-11,1,,,,,,0
1183,5140001136675,新規,0,2024-12-11,2024-12-11,株式会社ＫＴＮ,,株式会社,兵庫県,宝塚市,鹿塩１丁目６番１４号,,28,214,6650054,,,,,,,2024-12-11,1,,,,,ケイティエヌ,0
1184,5140001136709,新規,0,2024-12-11,2024-12-11,株式会社侑明,,株式会社,兵庫県,芦屋市,宮塚町１２番７号,,28,206,6590062,,,,,,,2024-12-11,1,,,,,ユウメイ,0
1205,5180001164466,新規,0,2024-12-11,2024-12-11,株式会社ＭＳＰ不動産,,株式会社,愛知県,名古屋市東区,東桜２丁目１２番２５号メゾン森７０３号,,23,102,4610005,,,,,,,2024-12-11,1,,,,,エムエスピーフドウサン,0
1228,5240001064239,新規,0,2024-12-11,2024-12-11,ＮＥＶラボ株式会社,,株式会社,広島県,広島市安佐北区,落合南４丁目３２番８号,,34,106,7391732,,,,,,,2024-12-11,1,,,,,エヌイーブイラボ,0
1250,5290001108239,新規,0,2024-12-11,2024-12-11,株式会社ブライトプラン,,株式会社,福岡県,古賀市,駅東２丁目１４番１号,,40,223,8113102,,,,,,,2024-12-11,1,,,,,ブライトプラン,0
1251,5290001108263,新規,0,2024-12-11,2024-12-11,株式会社ＬｉｔａＳｙｎｃ,,株式会社,福岡県,福岡市中央区,天神４丁目６－２８天神ファーストビル７階,,40,133,8100001,,,,,,,2024-12-11,1,,,,,リタシンク,0
1252,5290001108288,新規,0,2024-12-11,2024-12-11,株式会社遺品整理のプライム,,株式会社,福岡県,福岡市博多区,井相田３丁目３番５３号,,40,132,8120881,,,,,,,2024-12-11,1,,,,,イヒンセイリノプライム,0
1261,5290005019580,新規,0,2024-12-11,2024-12-11,社会保険労務士法人ＰｒｏＶｉｓｉｏｎ,,その他の設立登記法人,福岡県,福岡市博多区,比恵町２－１博多エステートビル２１０号,,40,132,8120014,,,,,,,2024-12-11,1,,,,,プロビジョン,0
1265,5290803004916,新規,0,2024-12-11,2024-12-11,合同会社Ｇ‐Ｖｅｔｓ,,合同会社,福岡県,北九州市若松区,片山１丁目３番５号,,40,103,8080106,,,,,,,2024-12-11,1,,,,,ジーベッツ,0
1266,5300001013998,新規,0,2024-12-11,2024-12-11,ＩＱ　ＨＯＬＤＩＮＧＳ株式会社,,株式会社,佐賀県,鳥栖市,村田町２－１,,41,203,8410072,,,,,,,2024-12-11,1,,,,,アイキューホールディングス,0
1267,5300001014006,新規,0,2024-12-11,2024-12-11,マルデン株式会社,,株式会社,佐賀県,唐津市,鏡２０２９番地１３,,41,202,8470022,,,,,,,2024-12-11,1,,,,,マルデン,0
1276,5360001034535,新規,0,2024-12-11,2024-12-11,株式会社テクノエイト,,株式会社,沖縄県,中頭郡西原町,字兼久８６番地,,47,329,9030104,,,,,,,2024-12-11,1,,,,,テクノエイト,0
1279,5360003014510,新規,0,2024-12-11,2024-12-11,合同会社Ｒｅｖｉａ,,合同会社,沖縄県,那覇市,松山１丁目１３番８号３階,,47,201,9000032,,,,,,,2024-12-11,1,,,,,レヴィア,0
1284,5370001052032,新規,0,2024-12-11,2024-12-11,株式会社鷹泉閣岩松旅館,,株式会社,宮城県,仙台市青葉区,作並字元木１６番地,,04,101,9893431,,,,,,,2024-12-11,1,,,,,ヨウセンカクイワマツリョカン,0
1296,5430001093243,新規,0,2024-12-11,2024-12-11,株式会社ＩＮＮＯＶＩＳ　ＥＤＧＥ,,株式会社,北海道,札幌市豊平区,月寒東三条１６丁目２番３３号,,01,105,0620053,,,,,,,2024-12-11,1,,,,,イノヴィスエッジ,0
1310,6010001249910,新規,0,2024-12-11,2024-12-11,株式会社ＭＡＴＳＵＳＨＩＴＡ,,株式会社,東京都,文京区,本郷１丁目３３番１２号,,13,105,1130033,,,,,,,2024-12-11,1,,,,,マツシタ,0
1311,6010001250505,新規,0,2024-12-11,2024-12-11,ＴＲＴ　Ｓｏｌｕｔｉｏｎｓ　Ｊａｐａｎ株式会社,,株式会社,東京都,中央区,銀座６丁目１３番１６号銀座ＷａｌｌビルＵＣＦ５０１,,13,102,1040061,,,,,,,2024-12-11,1,,,,,ティーアールティーソリューションズジャパン,0
1316,6010003045738,新規,0,2024-12-11,2024-12-11,Ｆｅｎｂｕｓｈｉ　Ｊａｐａｎ合同会社,,合同会社,東京都,千代田区,九段南１丁目５番６号りそな九段ビル５階ＫＳフロア,,13,101,1020074,,,,,,,2024-12-11,1,,,,,フェンブシジャパン,0
1317,6010003045762,新規,0,2024-12-11,2024-12-11,合同会社大自然倶楽部,,合同会社,東京都,千代田区,神田錦町３丁目１５三星舎ビル内,,13,101,1010054,,,,,,,2024-12-11,1,,,,,ダイシゼンクラブ,0
1321,6010005039259,新規,0,2024-12-11,2024-12-11,一般社団法人精神学教育研究機構,,その他の設立登記法人,東京都,千代田区,東神田１丁目２番１１号,,13,101,1010031,,,,,,,2024-12-11,1,,,,,セイシンガクキョウイクケンキュウキコウ,0
1328,6010401186984,新規,0,2024-12-11,2024-12-11,株式会社ｍｅｎｍａ,,株式会社,東京都,港区,赤坂６丁目３番１５号Ｊ－ＡＫＡＳＡＫＡ５０３,,13,103,1070052,,,,,,,2024-12-11,1,,,,,メンマ,0
1329,6010403033961,新規,0,2024-12-11,2024-12-11,ＧＶＰ　Ａｓｉａ０４合同会社,,合同会社,東京都,港区,六本木３丁目１６番２６号,,13,103,1060032,,,,,,,2024-12-11,1,,,,,ジーブイピーアジアゼロフォー,0
1330,6010403033978,新規,0,2024-12-11,2024-12-11,ＵｘｏｒＡ合同会社,,合同会社,東京都,港区,東麻布２丁目３５－１ＫＣビル６Ｆ－１４,,13,103,1060044,,,,,,,2024-12-11,1,,,,,ユーエックスオーア,0
1331,6010403033994,新規,0,2024-12-11,2024-12-11,柳川合同会社,,合同会社,東京都,港区,白金３丁目２－３－６０３,,13,103,1080072,,,,,,,2024-12-11,1,,,,,ヤナガワ,0
1335,6010801035642,新規,0,2024-12-11,2024-12-11,株式会社デジタルマスターズ,,株式会社,東京都,大田区,東馬込１丁目２３番９－２０３号,,13,111,1430022,,,,,,,2024-12-11,1,,,,,デジタルマスターズ,0
1336,6010901056464,新規,0,2024-12-11,2024-12-11,株式会社翔薬局,,株式会社,東京都,世田谷区,南烏山１丁目１２番１８号江戸ハイムＤ,,13,112,1570062,,,,,,,2024-12-11,1,,,,,カケルヤッキョク,0
1348,6011003020441,新規,0,2024-12-11,2024-12-11,合同会社ミニ３,,合同会社,東京都,渋谷区,神泉町１２－５－７０１,,13,113,1500045,,,,,,,2024-12-11,1,,,,,ミニスリー,0
1357,6011605002622,新規,0,2024-12-11,2024-12-11,特定非営利活動法人ＫＯＤＯＭＯ．ＯＯＩＺＵＭＩ,,その他の設立登記法人,東京都,練馬区,西大泉４丁目８番２８号,,13,120,1780065,,,,,,,2024-12-11,1,,,,,コドモドットオオイズミ,0
1358,6011701027894,新規,0,2024-12-11,2024-12-11,株式会社Ｋｉｔｅ,,株式会社,東京都,江戸川区,瑞江１丁目４７番３号１Ｆ,,13,123,1320011,,,,,,,2024-12-11,1,,,,,カイト,0
1359,6011801045284,新規,0,2024-12-11,2024-12-11,和潤株式会社,,株式会社,東京都,葛飾区,新宿５丁目２４番１３号,,13,122,1250051,,,,,,,2024-12-11,1,,,,,ワジュン,0
1368,6013303007424,新規,0,2024-12-11,2024-12-11,Ｌｉｌｉｅ合同会社,,合同会社,東京都,豊島区,西池袋１丁目７番８号９階,,13,116,1710021,,,,,,,2024-12-11,1,,,,,リーリエ,0
1377,6020001160505,新規,0,2024-12-11,2024-12-11,株式会社Ｌｅａｆ　Ｐｅｔ,,株式会社,神奈川県,横浜市青葉区,桂台１丁目２番地１０,,14,117,2270034,,,,,,,2024-12-11,1,,,,,リーフペット,0
1382,6020003027421,新規,0,2024-12-11,2024-12-11,ＡＪＡＭＵ　Ｐｒｏｄｕｃｔｉｏｎｓ＆Ｃｒｅａｔｉｖｅ　Ｓｅｒｖｉｃｅｓ合同会社,,合同会社,神奈川県,横浜市西区,みなとみらい２丁目２－１横浜ランドマークタワー２０Ｆオフィス１１９,,14,103,2200012,,,,,,,2024-12-11,1,,,,,アジャムプロダクションズアンドクリエイティブサービシーズ,0
1387,6021003015333,新規,0,2024-12-11,2024-12-11,深森ＷＥＢワークス合同会社,,合同会社,神奈川県,厚木市,森の里５丁目６番５号,,14,212,2430122,,,,,,,2024-12-11,1,,,,,フカモリウェブワークス,0
1391,6030001163911,新規,0,2024-12-11,2024-12-11,株式会社ＣＯＫＯ．企画,,株式会社,埼玉県,志木市,上宗岡４丁目１番２８号,,11,228,3530001,,,,,,,2024-12-11,1,,,,,ココドットキカク,0
1400,6040003026363,新規,0,2024-12-11,2024-12-11,合同会社セルカ,,合同会社,千葉県,長生郡白子町,南日当９１０－３,,12,424,2994205,,,,,,,2024-12-11,1,,,,,セルカ,0
1405,6060001037724,新規,0,2024-12-11,2024-12-11,株式会社Ｕ‐Ｒｅｃ,,株式会社,栃木県,宇都宮市,峰３丁目３１番１９号Ｄｏｒｆ峰３０１,,09,201,3210942,,,,,,,2024-12-11,1,,,,,ユーレック,0
1407,6070001042434,新規,0,2024-12-11,2024-12-11,株式会社ＡＴＳ,,株式会社,群馬県,前橋市,力丸町４８５番地１,,10,201,3792134,,,,,,,2024-12-11,1,,,,,エーティーエス,0
1411,6080401027620,新規,0,2024-12-11,2024-12-11,浜名湖社中株式会社,,株式会社,静岡県,湖西市,鷲津３１０７番地の３９エンブルガーデン浜名湖６０２号,,22,221,4310431,,,,,,,2024-12-11,1,,,,,ハマナコシャチュウ,0
1413,6090001019042,新規,0,2024-12-11,2024-12-11,株式会社ローズ・コレクション,,株式会社,山梨県,甲府市,青沼３丁目１７番１７号,,19,201,4000867,,,,,,,2024-12-11,1,,,,,ローズコレクション,0
1416,6100005013262,新規,0,2024-12-11,2024-12-11,特定非営利活動法人御嶽活性化協議会,,その他の設立登記法人,長野県,木曽郡木曽町,三岳１０４９１番地９,,20,432,3970101,,,,,,,2024-12-11,1,,,,,オンタケカッセイカキョウギカイ,0
1426,6120001270954,新規,0,2024-12-11,2024-12-11,恒偉達株式会社,,株式会社,大阪府,大阪市生野区,林寺４丁目１８番１７号,,27,116,5440023,,,,,,,2024-12-11,1,,,,,コウイタツ,0
1427,6120001270970,新規,0,2024-12-11,2024-12-11,株式会社ＰＲＥＶＡＩＬ,,株式会社,大阪府,大阪市浪速区,戎本町１丁目８番９－２０４号,,27,111,5560013,,,,,,,2024-12-11,1,,,,,プリヴェイル,0
1434,6120101070734,新規,0,2024-12-11,2024-12-11,鈴木商事株式会社,,株式会社,大阪府,阪南市,鳥取中３１３－３,,27,232,5990211,,,,,,,2024-12-11,1,,,,,スズキショウジ,0
1442,6140001136682,新規,0,2024-12-11,2024-12-11,株式会社ｎｏｒｎ,,株式会社,兵庫県,川西市,鴬台２丁目１番地の１０１,,28,217,6660133,,,,,,,2024-12-11,1,,,,,ノルン,0
1443,6140001136690,新規,0,2024-12-11,2024-12-11,株式会社ケーズコーポレーション,,株式会社,兵庫県,神戸市中央区,浜辺通３丁目１番５２号,,28,110,6510083,,,,,,,2024-12-11,1,,,,,ケーズコーポレーション,0
1449,6140005027300,新規,0,2024-12-11,2024-12-11,医療法人賢心会,,その他の設立登記法人,兵庫県,川西市,加茂３丁目１２番２号,,28,217,6660025,,,,,,,2024-12-11,1,,,,,ケンシンカイ,0
1450,6160001026403,新規,0,2024-12-11,2024-12-11,株式会社のびやか,,株式会社,滋賀県,長浜市,小谷丁野町８６３番地,,25,203,5290304,,,,,,,2024-12-11,1,,,,,ノビヤカ,0
1463,6180301039326,新規,0,2024-12-11,2024-12-11,株式会社アルルコレクション,,株式会社,愛知県,刈谷市,松栄町１丁目１４番地１０・２階,00137306,23,210,4480806,,,,,,,2024-12-11,1,,,,,アルルコレクション,0
1470,6240001064238,新規,0,2024-12-11,2024-12-11,株式会社ライムプラネット,,株式会社,広島県,広島市佐伯区,五日市駅前３丁目８番１１号,,34,108,7315125,,,,,,,2024-12-11,1,,,,,ライムプラネット,0
1473,6240003006972,新規,0,2024-12-11,2024-12-11,合同会社航珠,,合同会社,広島県,広島市中区,東千田町１丁目１番１０４－３－２６０６,,34,101,7300053,,,,,,,2024-12-11,1,,,,,コウズ,0
1477,6260001039709,新規,0,2024-12-11,2024-12-11,株式会社エムワイ,,株式会社,岡山県,岡山市北区,平山９５７番地４２,,33,101,7011332,,,,,,,2024-12-11,1,,,,,エムワイ,0
1478,6270001009099,新規,0,2024-12-11,2024-12-11,株式会社藤喜,,株式会社,鳥取県,鳥取市,上原９２３番地２８,,31,201,6801422,,,,,,,2024-12-11,1,,,,,フジキ,0
1485,6290801031119,新規,0,2024-12-11,2024-12-11,株式会社ＲＩＳＥ,,株式会社,福岡県,行橋市,東大橋２丁目１９番２７号アトリエールＩＩ棟１０２号室,00137307,40,213,8240002,,,,,,,2024-12-11,1,,,,,ライズ,0
1489,6320005010205,新規,0,2024-12-11,2024-12-11,一般社団法人地域共生社会とウエルビーイングを考える関愛会アカデミー,,その他の設立登記法人,大分県,大分市,大字佐賀関７５０番地の８８,,44,201,8792201,,,,,,,2024-12-11,1,,,,,チイキキョウセイシャカイトウエルビーイングヲカンガエルセキアイカイアカデミー,0
1490,6330001032730,新規,0,2024-12-11,2024-12-11,株式会社Ｗｏｒｌｄ　Ｙ’ｓ,,株式会社,熊本県,熊本市南区,近見６丁目２１番３８号,,43,104,8614101,,,,,,,2024-12-11,1,,,,,ワールドワイズ,0
1492,6330005010848,新規,0,2024-12-11,2024-12-11,一般社団法人熊本外科研修教育推進機構,,その他の設立登記法人,熊本県,熊本市中央区,本荘１丁目１番１号消化器外科医局,,43,101,8600811,,,,,,,2024-12-11,1,,,,,クマモトゲカケンシュウキョウイクスイシンキコウ,0
1502,6360001034526,新規,0,2024-12-11,2024-12-11,株式会社ＭＵ・ＳＴＵＤＩＯＳ,,株式会社,沖縄県,うるま市,字高江洲７５３番地,,47,213,9042242,,,,,,,2024-12-11,1,,,,,ムースタジオズ,0
1506,6370003006852,新規,0,2024-12-11,2024-12-11,合同会社ＴＫＲ　Ａｓｓｅｔ　Ｍａｎａｇｅｍｅｎｔ,,合同会社,宮城県,富谷市,明石台３丁目１２番地１,,04,216,9813332,,,,,,,2024-12-11,1,,,,,ティーケーアールアセットマネジメント,0
1514,6400001016882,新規,0,2024-12-11,2024-12-11,株式会社ＳＥＡ　ＬＩＮＥ,,株式会社,岩手県,釜石市,小佐野町３丁目３番５号,,03,211,0260052,,,,,,,2024-12-11,1,,,,,シーライン,0
1515,6400003003359,新規,0,2024-12-11,2024-12-11,合同会社ｉｍｏｔｅｎ,,合同会社,岩手県,奥州市,水沢字東町２３番地３,,03,215,0230818,,,,,,,2024-12-11,1,,,,,イモテン,0
1520,6430005015119,新規,0,2024-12-11,2024-12-11,土地家屋調査士法人ポラリス,,その他の設立登記法人,北海道,札幌市北区,北十九条西４丁目２番３７号,,01,102,0010019,,,,,,,2024-12-11,1,,,,,ポラリス,0
1525,6470003002767,新規,0,2024-12-11,2024-12-11,合同会社ＳＹ２ＯＩ,,合同会社,香川県,さぬき市,志度５００６番地８１,,37,206,7692101,,,,,,,2024-12-11,1,,,,,エスワイツーオーアイ,0
1534,7010003045761,新規,0,2024-12-11,2024-12-11,合同会社ＮＥＤＡ,,合同会社,東京都,中央区,銀座１丁目１２番４号Ｎ＆ＥＢＬＤ．６Ｆ,,13,102,1040061,,,,,,,2024-12-11,1,,,,,ニーダ,0
1545,7010403033960,新規,0,2024-12-11,2024-12-11,ＧＶＰ　Ａｓｉａ０３合同会社,,合同会社,東京都,港区,六本木３丁目１６番２６号,,13,103,1060032,,,,,,,2024-12-11,1,,,,,ジーブイピーアジアゼロスリー,0
1546,7010403033993,新規,0,2024-12-11,2024-12-11,Ｏｈｓｈｉｒｏ　Ｇｒｏｕｐ合同会社,,合同会社,東京都,港区,南青山２丁目２番１５号,,13,103,1070062,,,,,,,2024-12-11,1,,,,,オオシログループ,0
1547,7010405023877,新規,0,2024-12-11,2024-12-11,一般社団法人エネア・エナジー・インフラ,,その他の設立登記法人,東京都,港区,元赤坂１丁目１番７－８０７号,,13,103,1070051,,,,,,,2024-12-11,1,,,,,エネアエナジーインフラ,0
1558,7011001166211,新規,0,2024-12-11,2024-12-11,レリウ株式会社,,株式会社,東京都,渋谷区,道玄坂１丁目１０番８号渋谷道玄坂東急ビル２Ｆ－Ｃ,,13,113,1500043,,,,,,,2024-12-11,1,,,,,レリウ,0
1568,7011801045275,新規,0,2024-12-11,2024-12-11,深鵬宏実業株式会社,,株式会社,東京都,葛飾区,東金町３丁目１７番１０号ＫＢＳ・Ｂ－９,,13,122,1250041,,,,,,,2024-12-11,1,,,,,シンホウコウジツギョウ,0
1572,7012701018593,新規,0,2024-12-11,2024-12-11,株式会社ＺＥＲＯ　ＣＲＥＡＴＥ,,株式会社,東京都,小平市,小川町１丁目８０１番地の４６,,13,211,1870032,,,,,,,2024-12-11,1,,,,,ゼロクリエイト,0
1573,7013301053485,新規,0,2024-12-11,2024-12-11,株式会社ＺＥＲＯ,,株式会社,東京都,豊島区,池袋２丁目４７番１２号９階Ａ室,,13,116,1710014,,,,,,,2024-12-11,1,,,,,ゼロ,0
1579,7020001160520,新規,0,2024-12-11,2024-12-11,株式会社クリーンワークス,,株式会社,神奈川県,横浜市都筑区,牛久保西４丁目１９番１８号,,14,118,2240015,,,,,,,2024-12-11,1,,,,,クリーンワークス,0
1580,7020001160561,新規,0,2024-12-11,2024-12-11,信一科技株式会社,,株式会社,神奈川県,横浜市南区,永田北２丁目３４番４－７０１号,,14,105,2320071,,,,,,,2024-12-11,1,,,,,シンイチカギ,0
1587,7020003027445,新規,0,2024-12-11,2024-12-11,合同会社ａｎｙ　ｓｅｅ,,合同会社,神奈川県,川崎市中原区,木月３丁目１１番２７号第二ウッドムーン２Ｆ,,14,133,2110025,,,,,,,2024-12-11,1,,,,,エニーシー,0
1592,7021001083967,新規,0,2024-12-11,2024-12-11,株式会社ホワイトハウス,,株式会社,神奈川県,座間市,座間１丁目３３５９番地の２,,14,216,2520027,,,,,,,2024-12-11,1,,,,,ホワイトハウス,0
1595,7021003015324,新規,0,2024-12-11,2024-12-11,合同会社キズナ,,合同会社,神奈川県,藤沢市,鵠沼橘１丁目２番１２～５０１号ラ・フォルテ鵠,,14,205,2510024,,,,,,,2024-12-11,1,,,,,キズナ,0
1604,7030001163571,新規,0,2024-12-11,2024-12-11,クラウトクロス株式会社,,株式会社,埼玉県,草加市,高砂２丁目２０番８号草加コーポラス６０６号室,,11,221,3400015,,,,,,,2024-12-11,1,,,,,クラウトクロス,0
1605,7030001163638,新規,0,2024-12-11,2024-12-11,株式会社リンクケア,,株式会社,埼玉県,ふじみ野市,上福岡１丁目５－１７（１Ｆ）,,11,245,3560004,,,,,,,2024-12-11,1,,,,,リンクケア,0
1606,7030001163877,新規,0,2024-12-11,2024-12-11,株式会社ＴＯＹＯ　ＥＶＥＲＹＤＡＹ　ＨＯＬＤＩＮＧＳ,,株式会社,埼玉県,北本市,中丸９丁目２１１番地,,11,233,3640013,,,,,,,2024-12-11,1,,,,,トウヨウエブリデイホールディングス,0
1611,7030003025654,新規,0,2024-12-11,2024-12-11,ＨＩＭＥＩ合同会社,,合同会社,埼玉県,三郷市,彦糸１丁目２０番地６,,11,237,3410001,,,,,,,2024-12-11,1,,,,,ヒメイ,0
1612,7030003025662,新規,0,2024-12-11,2024-12-11,合同会社グローバル,,合同会社,埼玉県,行田市,大字渡柳１６１６番地,,11,206,3610033,,,,,,,2024-12-11,1,,,,,グローバル,0
1614,7030005021973,新規,0,2024-12-11,2024-12-11,特定非営利活動法人あい・りりーふ,,その他の設立登記法人,埼玉県,さいたま市中央区,上落合９丁目２番１０号,,11,105,3380001,,,,,,,2024-12-11,1,,,,,アイリリーフ,0
1628,7040003026271,新規,0,2024-12-11,2024-12-11,ＲＡＫＵＭＡＲＵ合同会社,,合同会社,千葉県,印西市,小林北２丁目６番地３０,,12,231,2701313,,,,,,,2024-12-11,1,,,,,ラクマル,0
1629,7040003026362,新規,0,2024-12-11,2024-12-11,Ｃｏｍｂｉａ合同会社,,合同会社,千葉県,柏市,旭町５丁目５番３３号,,12,217,2770852,,,,,,,2024-12-11,1,,,,,カムビア,0
1630,7040005022590,新規,0,2024-12-11,2024-12-11,ドットライン社会保険労務士法人,,その他の設立登記法人,千葉県,千葉市美浜区,中瀬２丁目６番地１,,12,106,2610023,,,,,,,2024-12-11,1,,,,,ドットライン,0
1632,7050001055858,新規,0,2024-12-11,2024-12-11,株式会社ＡＲＯＯＳＨ　ＴＲＡＤＩＮＧ,,株式会社,茨城県,土浦市,飯田２４３７番地２,,08,203,3000802,,,,,,,2024-12-11,1,,,,,アルーシュトレーディング,0
1678,7120001270986,新規,0,2024-12-11,2024-12-11,株式会社中央医療,,株式会社,大阪府,大阪市中央区,島之内２丁目１０番１２号７階,,27,128,5420082,,,,,,,2024-12-11,1,,,,,チュウオウイリョウ,0
1679,7120001271010,新規,0,2024-12-11,2024-12-11,ＣＰ　ＪＡＰＡＮ株式会社,,株式会社,大阪府,大阪市東成区,玉津３丁目３番９号,,27,115,5370023,,,,,,,2024-12-11,1,,,,,シーピージャパン,0
1684,7120003028136,新規,0,2024-12-11,2024-12-11,スケットラボ合同会社,,合同会社,大阪府,大阪市北区,梅田１丁目１番３号大阪駅前第３ビル２９階１－１－１号室,,27,127,5300001,,,,,,,2024-12-11,1,,,,,スケットラボ,0
1687,7120101070733,新規,0,2024-12-11,2024-12-11,株式会社村田刃物,,株式会社,大阪府,堺市堺区,綾之町西１丁１番２９号,,27,141,5900926,,,,,,,2024-12-11,1,,,,,ムラタハモノ,0
1690,7120903005457,新規,0,2024-12-11,2024-12-11,尾崎建設合同会社,,合同会社,大阪府,箕面市,船場西３丁目９番２４－３０７号,,27,220,5620036,,,,,,,2024-12-11,1,,,,,オザキケンセツ,0
1691,7120903005465,新規,0,2024-12-11,2024-12-11,ｉＭａｋ　Ｔｒａｄｉｎｇ合同会社,,合同会社,大阪府,箕面市,森町北２丁目１２番８号,,27,220,5630256,,,,,,,2024-12-11,1,,,,,アイマックトレーディング,0
1701,7130003010068,新規,0,2024-12-11,2024-12-11,合同会社吉川メディカルデベロップメント,,合同会社,京都府,京都市中京区,竹屋町通堺町西入和久屋町１０１番地ｅ．ｚｅ．御所南５０５号,,26,104,6040803,,,,,,,2024-12-11,1,,,,,ヨシカワメディカルデベロップメント,0
1708,7140001136533,新規,0,2024-12-11,2024-12-11,博徳集団株式会社,,株式会社,兵庫県,神戸市灘区,岸地通５丁目１－４真幸ビル,,28,102,6570832,,,,,,,2024-12-11,1,,,,,ハクトクシュウダン,0
1710,7150001027731,新規,0,2024-12-11,2024-12-11,株式会社阪宏,,株式会社,奈良県,奈良市,神功４丁目２番地の１４,,29,201,6310804,,,,,,,2024-12-11,1,,,,,ハンコウ,0
1711,7160003003341,新規,0,2024-12-11,2024-12-11,合同会社紬の手,,合同会社,滋賀県,大津市,神領４丁目１７番１６号,,25,201,5202132,,,,,,,2024-12-11,1,,,,,ツムギノテ,0
1732,7200005013697,新規,0,2024-12-11,2024-12-11,医療法人社団ＴＭ,,その他の設立登記法人,岐阜県,可児市,広見２４番地１,,21,214,5090214,,,,,,,2024-12-11,1,,,,,ティーエム,0
1739,7230003002344,新規,0,2024-12-11,2024-12-11,合同会社シルバテック,,合同会社,富山県,高岡市,瑞穂町１５‐４１‐２,,16,202,9330955,,,,,,,2024-12-11,1,,,,,シルバテック,0
1742,7260001039708,新規,0,2024-12-11,2024-12-11,株式会社衣香園,,株式会社,岡山県,井原市,七日市町８００番地４,,33,207,7150014,,,,,,,2024-12-11,1,,,,,イコウエン,0
1748,7290001108229,新規,0,2024-12-11,2024-12-11,Ａ‐ｔｅａｍ株式会社,,株式会社,福岡県,糟屋郡粕屋町,大字阿恵３９８－１,,40,349,8112300,,,,,,,2024-12-11,1,,,,,エーチーム,0
1749,7290001108237,新規,0,2024-12-11,2024-12-11,株式会社ＣＯＣＯＲＯ,,株式会社,福岡県,大野城市,栄町２丁目５番１５－５０７号ロワールマンション春日原駅前,,40,219,8160924,,,,,,,2024-12-11,1,,,,,ココロ,0
1751,7290005019579,新規,0,2024-12-11,2024-12-11,ＮＰＯ法人ＭＦＣ,,その他の設立登記法人,福岡県,宗像市,河東１３６６番地１１,,40,220,8113402,,,,,,,2024-12-11,1,,,,,エムエフシー,0
1752,7290801031118,新規,0,2024-12-11,2024-12-11,株式会社天神工業,,株式会社,福岡県,北九州市小倉南区,葛原本町３丁目４番３号,,40,107,8000253,,,,,,,2024-12-11,1,,,,,テンジンコウギョウ,0
1757,7320005010204,新規,0,2024-12-11,2024-12-11,医療法人眞心会,,その他の設立登記法人,大分県,日田市,元町１９番２４号ＡＰＥＸビル６Ｆ,,44,204,8770013,,,,,,,2024-12-11,1,,,,,シンシンカイ,0
1762,7330003010659,新規,0,2024-12-11,2024-12-11,合同会社タジマ,,合同会社,熊本県,水俣市,袋３８２番地２,,43,205,8670034,,,,,,,2024-12-11,1,,,,,タジマ,0
1763,7340001026994,新規,0,2024-12-11,2024-12-11,株式会社さつまらいす,,株式会社,鹿児島県,鹿児島市,南栄３丁目１６番地,,46,201,8910122,,,,,,,2024-12-11,1,,,,,サツマライス,0
1766,7350003004799,新規,0,2024-12-11,2024-12-11,合同会社ひむかエステート,,合同会社,宮崎県,宮崎市,潮見町３２番地１３,,45,201,8800862,,,,,,,2024-12-11,1,,,,,ヒムカエステート,0
1770,7360003014517,新規,0,2024-12-11,2024-12-11,ＹＡＮＢＡＲＵメディカルイノベーション合同会社,,合同会社,沖縄県,国頭郡金武町,字金武４３４８番地の２,,47,314,9041201,,,,,,,2024-12-11,1,,,,,ヤンバルメディカルイノベーション,0
1772,7370001052022,新規,0,2024-12-11,2024-12-11,株式会社ｐｅｒｓｉｓｔ　ｍｉｎａｍｉ,,株式会社,宮城県,名取市,美田園５丁目２３番地の１プランドール１０３,,04,207,9811217,,,,,,,2024-12-11,1,,,,,パーシストミナミ,0
1773,7370001052030,新規,0,2024-12-11,2024-12-11,株式会社ＰＷデザイン,,株式会社,宮城県,仙台市青葉区,二日町９番２３－１２０６号,,04,101,9800802,,,,,,,2024-12-11,1,,,,,ピーダブリューデザイン,0
1774,7370001052039,新規,0,2024-12-11,2024-12-11,株式会社ＥＭＡ,,株式会社,宮城県,仙台市太白区,鹿野２丁目１８番１７－１号,,04,104,9820023,,,,,,,2024-12-11,1,,,,,イーエムエー,0
1776,7370005010868,新規,0,2024-12-11,2024-12-11,一般財団法人ＨＹＢＲｉＤ　ｓｃＨｏｏＬ,,その他の設立登記法人,宮城県,仙台市青葉区,貝ケ森４丁目２３番１０号,,04,101,9810942,,,,,,,2024-12-11,1,,,,,ハイブリッドスクール,0
1785,7410003004017,新規,0,2024-12-11,2024-12-11,合同会社楽ｓｉｍｕ,,合同会社,秋田県,秋田市,牛島東７丁目２‐４７パークハイツＢ１０３,,05,201,0100062,,,,,,,2024-12-11,1,,,,,タノシム,0
1786,7420003003034,新規,0,2024-12-11,2024-12-11,カノープス合同会社,,合同会社,青森県,青森市,久須志２丁目１５番４１号,,02,201,0380013,,,,,,,2024-12-11,1,,,,,カノープス,0
1791,7440001009535,新規,0,2024-12-11,2024-12-11,株式会社ベリードッグ,,株式会社,北海道,函館市,戸倉町１４８番地３,,01,202,0420953,,,,,,,2024-12-11,1,,,,,ベリードッグ,0
1795,7500001026037,新規,0,2024-12-11,2024-12-11,コンヒラホールディングス株式会社,,株式会社,愛媛県,松山市,三番町４丁目１２番地１,,38,201,7900003,,,,,,,2024-12-11,1,,,,,コンヒラホールディングス,0
1813,8010001250486,新規,0,2024-12-11,2024-12-11,株式会社ＯＮＰ,,株式会社,東京都,中央区,晴海３丁目１３番２－７１３号,,13,102,1040053,,,,,,,2024-12-11,1,,,,,オーエヌピー,0
1825,8010401186652,新規,0,2024-12-11,2024-12-11,株式会社Ｄａｉｍｏｎ　Ｋｉｔｃｈｅｎ,,株式会社,東京都,港区,芝大門１丁目１６番１号大門宇治田ビル１階,,13,103,1050012,,,,,,,2024-12-11,1,,,,,ダイモンキッチン,0
1826,8010401186917,新規,0,2024-12-11,2024-12-11,株式会社ＪＪ　Ｅｄｅｌｓｔｅｉｎ,,株式会社,東京都,港区,南青山３丁目８番４０号２Ｆ,,13,103,1070062,,,,,,,2024-12-11,1,,,,,ジェイジェイエデルスタイン,0
1827,8010401186958,新規,0,2024-12-11,2024-12-11,Ｄｅｌｔａ　Ｘ株式会社,,株式会社,東京都,港区,赤坂６丁目８番２,,13,103,1070052,,,,,,,2024-12-11,1,,,,,デルタエックス,0
1828,8010401186974,新規,0,2024-12-11,2024-12-11,株式会社ＬｅａｐＳｐｒｉｎｇ,,株式会社,東京都,港区,芝４丁目７番６号芝ビルディング７０４,,13,103,1080014,,,,,,,2024-12-11,1,,,,,リープスプリング,0
1830,8010403033976,新規,0,2024-12-11,2024-12-11,合同会社ＥＲＥＭ２号,,合同会社,東京都,港区,元赤坂１丁目１番７－８０７号,,13,103,1070051,,,,,,,2024-12-11,1,,,,,イーアールイーエムニゴウ,0
1831,8010403033992,新規,0,2024-12-11,2024-12-11,未来創電ＲＥ１号合同会社,,合同会社,東京都,港区,西新橋１丁目１８番１７号明産西新橋ビル３Ｆ,,13,103,1050003,,,,,,,2024-12-11,1,,,,,ミライソウデンアールイーイチゴウ,0
1838,8010901056454,新規,0,2024-12-11,2024-12-11,株式会社Ｍｅｄｉｃａｎｉｔｙ,,株式会社,東京都,世田谷区,等々力５丁目１６番１７号,,13,112,1580082,,,,,,,2024-12-11,1,,,,,メディカニティ,0
1845,8011001166318,新規,0,2024-12-11,2024-12-11,株式会社ＣＷＴ,,株式会社,東京都,渋谷区,渋谷２丁目１０番６号山田青山ビル３階,,13,113,1500002,,,,,,,2024-12-11,1,,,,,シーダブリューティー,0
1853,8011601028248,新規,0,2024-12-11,2024-12-11,株式会社ａｌｂｏｓ　ｒａｉｓｅ,,株式会社,東京都,練馬区,小竹町１丁目４３－４,,13,120,1760004,,,,,,,2024-12-11,1,,,,,アルボスレイズ,0
1865,8012705002436,新規,0,2024-12-11,2024-12-11,一般社団法人みらい基金,,その他の設立登記法人,東京都,西東京市,ひばりが丘北３丁目４番１号みらいビル,,13,229,2020002,,,,,,,2024-12-11,1,,,,,ミライキキン,0
1867,8013301053484,新規,0,2024-12-11,2024-12-11,株式会社京倉,,株式会社,東京都,豊島区,南大塚１丁目４４番１－７０１号,,13,116,1700005,,,,,,,2024-12-11,1,,,,,キョウクラ,0
1869,8020001160560,新規,0,2024-12-11,2024-12-11,株式会社ひまわり,,株式会社,神奈川県,川崎市宮前区,神木本町５丁目２番２２－３号,,14,136,2160031,,,,,,,2024-12-11,1,,,,,ヒマワリ,0
1878,8021003015240,新規,0,2024-12-11,2024-12-11,Ｍｕｌｔｉｆａｉｃｅホールディングス合同会社,,合同会社,神奈川県,厚木市,及川１２６２－１,,14,212,2430212,,,,,,,2024-12-11,1,,,,,マルチフェイスホールディングス,0
1888,8040001136492,新規,0,2024-12-11,2024-12-11,Ｔ＆Ｊ設備株式会社,,株式会社,千葉県,市川市,中山３丁目３番１７号,,12,203,2720813,,,,,,,2024-12-11,1,,,,,ティーアンドジェイセツビ,0
1891,8040003026270,新規,0,2024-12-11,2024-12-11,エムワイファシリティーズ合同会社,,合同会社,千葉県,千葉市稲毛区,宮野木町９４６‐２ウィルモア壱番館１０５号室,,12,103,2630054,,,,,,,2024-12-11,1,,,,,エムワイファシリティーズ,0
1892,8040003026361,新規,0,2024-12-11,2024-12-11,合同会社イノベーション総合研究所,,合同会社,千葉県,流山市,おおたかの森南３丁目１３－２１,,12,220,2700139,,,,,,,2024-12-11,1,,,,,イノベーションソウゴウケンキュウショ,0
1907,8080003003349,新規,0,2024-12-11,2024-12-11,合同会社ヒロック,,合同会社,静岡県,静岡市駿河区,中原１７４番地の９,,22,102,4228058,,,,,,,2024-12-11,1,,,,,ヒロック,0
1909,8080401027619,新規,0,2024-12-11,2024-12-11,ＳＨＯＤＡ　ＨＤ株式会社,,株式会社,静岡県,浜松市浜名区,新都田１丁目９番２号,,22,139,4312103,,,,,,,2024-12-11,1,,,,,ショウダホールディングス,0
1921,8120001270952,新規,0,2024-12-11,2024-12-11,株式会社ＳＡＫＵ,,株式会社,大阪府,大阪市天王寺区,勝山２丁目２０番２－６０２号,,27,109,5430043,,,,,,,2024-12-11,1,,,,,サク,0
1925,8120101070732,新規,0,2024-12-11,2024-12-11,株式会社クリアリゼ,,株式会社,大阪府,堺市東区,石原町４丁３９３番地４,,27,143,5998102,,,,,,,2024-12-11,1,,,,,クリアリゼ,0
1929,8120903005464,新規,0,2024-12-11,2024-12-11,合同会社エブリー,,合同会社,大阪府,茨木市,天王２丁目１４番３号－３０１,,27,211,5670876,,,,,,,2024-12-11,1,,,,,エブリー,0
1932,8130003010067,新規,0,2024-12-11,2024-12-11,合同会社トライアングル,,合同会社,京都府,福知山市,石原５丁目１８７番地サニーデイＩＩ２０１号,00137302,26,201,6200804,,,,,,,2024-12-11,1,,,,,トライアングル,0
1935,8140001136664,新規,0,2024-12-11,2024-12-11,株式会社ＨＡＲＲＩＫＡＮＥ,,株式会社,兵庫県,西宮市,今津曙町１２番５号,,28,204,6638214,,,,,,,2024-12-11,1,,,,,ハリケン,0
1936,8140001136680,新規,0,2024-12-11,2024-12-11,株式会社夢之前,,株式会社,兵庫県,姫路市,三左衛門堀西の町６５番地,,28,201,6700940,,,,,,,2024-12-11,1,,,,,ユメノサキ,0
1937,8140001136706,新規,0,2024-12-11,2024-12-11,株式会社センスオブ,,株式会社,兵庫県,芦屋市,東山町１０番２－２１１号,,28,206,6590091,,,,,,,2024-12-11,1,,,,,センスオブ,0
1938,8140001136722,新規,0,2024-12-11,2024-12-11,須田興産株式会社,,株式会社,兵庫県,西宮市,奥畑６番１２４号,,28,204,6620022,,,,,,,2024-12-11,1,,,,,スダコウサン,0
1950,8180003027701,新規,0,2024-12-11,2024-12-11,合同会社ＧＮ,,合同会社,愛知県,名古屋市南区,菊住１丁目７番１１号アリーナシティ３０６,,23,112,4570012,,,,,,,2024-12-11,1,,,,,ジーネヌ,0
1958,8200005013696,新規,0,2024-12-11,2024-12-11,医療法人Ｍａｓａｋｉ,,その他の設立登記法人,岐阜県,中津川市,茄子川１５３４番地２１８,,21,206,5099132,,,,,,,2024-12-11,1,,,,,マサキ,0
1964,8230003002343,新規,0,2024-12-11,2024-12-11,尚都合同会社,,合同会社,富山県,富山市,小杉８１３番地１コーポ石坂１０５室,,16,201,9398063,,,,,,,2024-12-11,1,,,,,ショウト,0
1969,8240001064236,新規,0,2024-12-11,2024-12-11,Ｈモバイル株式会社,,株式会社,広島県,広島市安佐南区,上安２丁目１６番３４－１０３号,,34,105,7310154,,,,,,,2024-12-11,1,,,,,エイチモバイル,0
1978,8290001108236,新規,0,2024-12-11,2024-12-11,株式会社Ｆｏｒ　Ｏｔｈｅｒｓ　Ｊａｐａｎ,,株式会社,福岡県,福岡市早良区,百道１丁目４－５－１階,,40,137,8140006,,,,,,,2024-12-11,1,,,,,フォーアザーズジャパン,0
1993,8360001034524,新規,0,2024-12-11,2024-12-11,株式会社アップヴィレッジ,,株式会社,沖縄県,沖縄市,美原４丁目１０番２号,,47,211,9042155,,,,,,,2024-12-11,1,,,,,アップヴィレッジ,0
1995,8370001052038,新規,0,2024-12-11,2024-12-11,株式会社ソシアル,,株式会社,宮城県,仙台市青葉区,旭ケ丘４丁目３番２３号,,04,101,9810904,,,,,,,2024-12-11,1,,,,,ソシアル,0
1996,8370003006850,新規,0,2024-12-11,2024-12-11,Ｈｏｐｅ　Ｓｐｒｉｎｇｓ合同会社,,合同会社,宮城県,仙台市泉区,泉中央３丁目９番７号さくらビル２Ｆ,,04,105,9813133,,,,,,,2024-12-11,1,,,,,ホープスプリングス,0
2008,8430001093174,新規,0,2024-12-11,2024-12-11,株式会社ヒューマンサポートおたる,,株式会社,北海道,小樽市,長橋５丁目６番１４号,,01,203,0470036,,,,,,,2024-12-11,1,,,,,ヒューマンサポートオタル,0
2010,8430003017065,新規,0,2024-12-11,2024-12-11,合同会社ＫＭＹ,,合同会社,北海道,札幌市豊平区,平岸五条１０丁目２番３号,,01,105,0620935,,,,,,,2024-12-11,1,,,,,ケーエムワイ,0
2011,8440001009534,新規,0,2024-12-11,2024-12-11,株式会社Ｎｅｕｋ工務店,,株式会社,北海道,函館市,東山２丁目８番２２号,,01,202,0410835,,,,,,,2024-12-11,1,,,,,ヌークコウムテン,0
2014,8470001020496,新規,0,2024-12-11,2024-12-11,株式会社ＡＭＯ,,株式会社,香川県,丸亀市,川西町北１３１０番地７,,37,202,7630091,,,,,,,2024-12-11,1,,,,,,0
2015,8470003002765,新規,0,2024-12-11,2024-12-11,合同会社アルファ,,合同会社,香川県,高松市,鍛冶屋町１番地１７－２階,,37,201,7600028,,,,,,,2024-12-11,1,,,,,アルファ,0
2019,9010001250626,新規,0,2024-12-11,2024-12-11,株式会社Ｊ‐ＦＵＮ１５,,株式会社,東京都,千代田区,丸の内１丁目８番２号,,13,101,1000005,,,,,,,2024-12-11,1,,,,,ジェイファンフィフティーン,0
2037,9010401186791,新規,0,2024-12-11,2024-12-11,ＹＴＣ株式会社,,株式会社,東京都,港区,南青山３丁目４番７号第７ＳＹビル４０２－Ｃ号室,,13,103,1070062,,,,,,,2024-12-11,1,,,,,ワイティーシー,0
2038,9010401186949,新規,0,2024-12-11,2024-12-11,株式会社Ａ　ｂｒｕｎ,,株式会社,東京都,港区,六本木５丁目３－２斎藤ビル４Ｆ,,13,103,1060032,,,,,,,2024-12-11,1,,,,,エーブラン,0
2039,9010401186957,新規,0,2024-12-11,2024-12-11,株式会社アストリアンズ,,株式会社,東京都,港区,南青山３丁目１番３６号青山丸竹ビル６Ｆ,,13,103,1070062,,,,,,,2024-12-11,1,,,,,アストリアンズ,0
2040,9010401186981,新規,0,2024-12-11,2024-12-11,株式会社ＲＩＯＴ　ＧＲＯＵＰ,,株式会社,東京都,港区,六本木４丁目８番７号六本木嶋田ビル５Ｆ,,13,103,1060032,,,,,,,2024-12-11,1,,,,,ライオットグループ,0
2041,9010401186998,新規,0,2024-12-11,2024-12-11,株式会社Ｄｒｅｍｐｅｓ,,株式会社,東京都,港区,港南１丁目８－２３品川ハートビュータワー２１０３,,13,103,1080075,,,,,,,2024-12-11,1,,,,,ドリープス,0
2046,9010403033959,新規,0,2024-12-11,2024-12-11,ＧＶＰ　Ａｓｉａ０２合同会社,,合同会社,東京都,港区,六本木３丁目１６番２６号,,13,103,1060032,,,,,,,2024-12-11,1,,,,,ジーブイピーアジアゼロツー,0
2047,9010403033967,新規,0,2024-12-11,2024-12-11,ＧＶＰ　Ａｓｉａ１０合同会社,,合同会社,東京都,港区,六本木３丁目１６番２６号,,13,103,1060032,,,,,,,2024-12-11,1,,,,,ジーブイピーアジアテン,0
2048,9010403033975,新規,0,2024-12-11,2024-12-11,合同会社ＥＲＥＭ１号,,合同会社,東京都,港区,元赤坂１丁目１番７－８０７号,,13,103,1070051,,,,,,,2024-12-11,1,,,,,イーアールイーエムイチゴウ,0
2049,9010403033991,新規,0,2024-12-11,2024-12-11,合同会社Ｌｏｋａｈｉ　Ｗｏｒｋｓ,,合同会社,東京都,港区,南青山６丁目６番２２号,,13,103,1070062,,,,,,,2024-12-11,1,,,,,ロカヒワークス,0
2053,9010501053289,新規,0,2024-12-11,2024-12-11,ＳＦＳジャパン株式会社,,株式会社,東京都,台東区,浅草橋５丁目１番３１号ロッキービル３１１,,13,106,1110053,,,,,,,2024-12-11,1,,,,,エスエフエスジャパン,0
2062,9010903009558,新規,0,2024-12-11,2024-12-11,合同会社健,,合同会社,東京都,世田谷区,上北沢５丁目１２番２－３０１号,,13,112,1560057,,,,,,,2024-12-11,1,,,,,ケン,0
2065,9011001166473,新規,0,2024-12-11,2024-12-11,Ｂ　ＭＯＭＥＮＴＳ株式会社,,株式会社,東京都,渋谷区,代官山町２０番２３号３階,,13,113,1500034,,,,,,,2024-12-11,1,,,,,ビーモーメンツ,0
2066,9011001166515,新規,0,2024-12-11,2024-12-11,Ｂｌｕｅ　Ｅｌｅｃｔｒｏ株式会社,,株式会社,東京都,渋谷区,道玄坂１丁目１０番８号渋谷道玄坂東急ビル２Ｆ―Ｃ,,13,113,1500043,,,,,,,2024-12-11,1,,,,,ブルーエレクトロ,0
2069,9011005010784,新規,0,2024-12-11,2024-12-11,一般社団法人ｂｅ　Ｐｌａｃｅ,,その他の設立登記法人,東京都,目黒区,下目黒１丁目１番１４号コノトラビル７Ｆ,,13,110,1530064,,,,,,,2024-12-11,1,,,,,ビープレイス,0
2076,9011201025982,新規,0,2024-12-11,2024-12-11,株式会社内装のちから,,株式会社,東京都,中野区,中央４丁目１番３号ボニータ新中野ビル８０６,,13,114,1640011,,,,,,,2024-12-11,1,,,,,ナイソウノチカラ,0
2080,9011401026640,新規,0,2024-12-11,2024-12-11,株式会社ワクコエテ,,株式会社,東京都,板橋区,志村１丁目３４番５－１００１号,,13,119,1740056,,,,,,,2024-12-11,1,,,,,ワクコエテ,0
2086,9012701018591,新規,0,2024-12-11,2024-12-11,株式会社はたらく,,株式会社,東京都,西東京市,中町５丁目８番６号,,13,229,2020013,,,,,,,2024-12-11,1,,,,,ハタラク,0
2095,9020001160510,新規,0,2024-12-11,2024-12-11,株式会社アマミ,,株式会社,神奈川県,横浜市鶴見区,北寺尾７丁目２５番３１号パレスタウン北寺尾２番館１０１,,14,101,2300074,,,,,,,2024-12-11,1,,,,,アマミ,0
2096,9020001160543,新規,0,2024-12-11,2024-12-11,株式会社Ｂｒｉｄｇ‐Ｅ,,株式会社,神奈川県,川崎市高津区,諏訪１丁目１０番９号ＦｌｏｓＴａｍａｇａｗａ１階,,14,134,2130004,,,,,,,2024-12-11,1,,,,,ブリッジ,0
2097,9020003027419,新規,0,2024-12-11,2024-12-11,Ｌｉｆｅ　ｉｓ　ｆｕｎｎｙ合同会社,,合同会社,神奈川県,横浜市西区,みなとみらい３丁目７番２－６０８号,,14,103,2200012,,,,,,,2024-12-11,1,,,,,ライフイズファニー,0
2103,9021001083965,新規,0,2024-12-11,2024-12-11,株式会社遊,,株式会社,神奈川県,藤沢市,藤が岡１丁目１３番１エアヒルズ藤沢６２６号,,14,205,2510004,,,,,,,2024-12-11,1,,,,,ユウ,0
2105,9021003015306,新規,0,2024-12-11,2024-12-11,亀彦合同会社,,合同会社,神奈川県,鎌倉市,山ノ内８４１,,14,204,2470062,,,,,,,2024-12-11,1,,,,,カメヒコ,0
2106,9021003015330,新規,0,2024-12-11,2024-12-11,マテリアルマインド合同会社,,合同会社,神奈川県,南足柄市,竹松２０８番地５,,14,217,2500111,,,,,,,2024-12-11,1,,,,,マテリアルマインド,0
2107,9021003015339,新規,0,2024-12-11,2024-12-11,Ｔ＆Ｔ合同会社,,合同会社,神奈川県,平塚市,袖ケ浜１７－３２,,14,203,2540813,,,,,,,2024-12-11,1,,,,,ティアンドティ,0
2111,9030001163883,新規,0,2024-12-11,2024-12-11,柳丁株式会社,,株式会社,埼玉県,越谷市,東越谷６丁目２５番地エルメホール越谷－１－１１０,,11,222,3430023,,,,,,,2024-12-11,1,,,,,ヤナギテイ,0
2119,9040003026360,新規,0,2024-12-11,2024-12-11,合同会社魔女Ｍａｉｓｏｎ,,合同会社,千葉県,浦安市,北栄１丁目１５番１０－４０１号大長ビル,,12,227,2790002,,,,,,,2024-12-11,1,,,,,マジョメゾン,0
2120,9050001055856,新規,0,2024-12-11,2024-12-11,株式会社ＧＩＭＡＲＡ,,株式会社,茨城県,稲敷市,沼田２７３５－３６,,08,229,3000506,,,,,,,2024-12-11,1,,,,,ギマーラー,0
2126,9070001042431,新規,0,2024-12-11,2024-12-11,株式会社ａｍｏｕｒ,,株式会社,群馬県,高崎市,上豊岡町１８０番地１ファンタジスタ２０２,,10,202,3700871,,,,,,,2024-12-11,1,,,,,アムール,0
2127,9080003003348,新規,0,2024-12-11,2024-12-11,合同会社Ｙａｏ萬,,合同会社,静岡県,島田市,旭２丁目２２番１１号,,22,209,4270018,,,,,,,2024-12-11,1,,,,,ヤオヨロズ,0
2144,9120001270893,新規,0,2024-12-11,2024-12-11,ａｔｍａｒｋ株式会社,,株式会社,大阪府,大阪市西区,新町１丁目８番６号三愛ビル３階,,27,106,5500013,,,,,,,2024-12-11,1,,,,,アットマーク,0
2145,9120001270902,新規,0,2024-12-11,2024-12-11,メイオーテック株式会社,,株式会社,大阪府,大阪市東住吉区,南田辺３丁目２６番１号,,27,121,5460033,,,,,,,2024-12-11,1,,,,,メイオーテック,0
2146,9120001270951,新規,0,2024-12-11,2024-12-11,株式会社栄人,,株式会社,大阪府,大阪市阿倍野区,阪南町５丁目１１番２５号長生ビル４０２,,27,119,5450021,,,,,,,2024-12-11,1,,,,,エイト,0
2147,9120001271017,新規,0,2024-12-11,2024-12-11,株式会社王冠,,株式会社,大阪府,大阪市東成区,大今里南１丁目８番１２号,,27,115,5370013,,,,,,,2024-12-11,1,,,,,オウカン,0
2148,9120001271033,新規,0,2024-12-11,2024-12-11,７７７ｉｎｇ株式会社,,株式会社,大阪府,大阪市中央区,日本橋２丁目１５番１１号１０２室,,27,128,5420073,,,,,,,2024-12-11,1,,,,,セブンイン,0
2149,9120001271041,新規,0,2024-12-11,2024-12-11,株式会社スターライト,,株式会社,大阪府,大阪市中央区,日本橋１丁目１６番２３号,,27,128,5420073,,,,,,,2024-12-11,1,,,,,スターライト,0
2156,9120101070731,新規,0,2024-12-11,2024-12-11,株式会社デリマイスター,,株式会社,大阪府,和泉市,池上町３０９番２号,,27,219,5940083,,,,,,,2024-12-11,1,,,,,デリマイスター,0
2160,9120901050156,新規,0,2024-12-11,2024-12-11,株式会社ＶＩＮＴ,,株式会社,大阪府,吹田市,豊津町２４番１３号エバーランド江坂蔵人１０２号,,27,205,5640051,,,,,,,2024-12-11,1,,,,,ビント,0
2168,9130001078535,新規,0,2024-12-11,2024-12-11,株式会社ＡＲＭ,,株式会社,京都府,京都市上京区,上生洲町２１０番地,,26,102,6020855,,,,,,,2024-12-11,1,,,,,アーム,0
2169,9130001078584,新規,0,2024-12-11,2024-12-11,株式会社ＭＫ通信社,,株式会社,京都府,京都市左京区,静市市原町７２番地１５,,26,103,6011123,,,,,,,2024-12-11,1,,,,,エムケイツウシンシャ,0
2173,9130003010058,新規,0,2024-12-11,2024-12-11,ＢＥＡＭＩＮＧ合同会社,,合同会社,京都府,京都市左京区,岩倉長谷町５１７番地８６,,26,103,6060026,,,,,,,2024-12-11,1,,,,,ビーミング,0
2180,9180001164446,新規,0,2024-12-11,2024-12-11,株式会社フォーチュンエンターテイメント,,株式会社,愛知県,名古屋市中区,松原３丁目９番１６号,,23,106,4600017,,,,,,,2024-12-11,1,,,,,フォーチュンエンターテイメント,0
2181,9180001164529,新規,0,2024-12-11,2024-12-11,株式会社三都屋,,株式会社,愛知県,名古屋市中村区,大日町１７番１号,,23,105,4530034,,,,,,,2024-12-11,1,,,,,ミトヤ,0
2186,9200001043218,新規,0,2024-12-11,2024-12-11,株式会社ＱＹＱ,,株式会社,岐阜県,大垣市,荒尾町３９番地１グリーンタウンＢ１０１,,21,202,5030034,,,,,,,2024-12-11,1,,,,,キューワイキュー,0
2187,9200003006619,新規,0,2024-12-11,2024-12-11,Ｎａｔｕｒｅ．Ａ合同会社,,合同会社,岐阜県,安八郡安八町,南條１７３,,21,383,5030123,,,,,,,2024-12-11,1,,,,,ナチュラルドットエー,0
2195,9240001064219,新規,0,2024-12-11,2024-12-11,株式会社廿,,株式会社,広島県,廿日市市,須賀２番２９号,,34,213,7380017,,,,,,,2024-12-11,1,,,,,ハツ,0
2200,9280005007632,新規,0,2024-12-11,2024-12-11,特定非営利活動法人人生教育Ｅｄｕｃａｔｉｏｎ　ｄｅ　Ｖｉｅ,,その他の設立登記法人,島根県,松江市,比津が丘４丁目１番５－４０１号比津が丘団地５号棟,,32,201,6900862,,,,,,,2024-12-11,1,,,,,ジンセイキョウイクエデウカチオンデヴィ,0
2207,9290001108243,新規,0,2024-12-11,2024-12-11,陸福商事株式会社,,株式会社,福岡県,福岡市博多区,博多駅中央街５番１１号,,40,132,8120012,,,,,,,2024-12-11,1,,,,,リクフクショウジ,0
2208,9290005019569,新規,0,2024-12-11,2024-12-11,特定非営利活動法人みやまウオーキング協会,,その他の設立登記法人,福岡県,みやま市,瀬高町本吉４３２番地２,,40,229,8350003,,,,,,,2024-12-11,1,,,,,ミヤマウオーキングキョウカイ,0
2211,9290801031116,新規,0,2024-12-11,2024-12-11,株式会社大倉運送,,株式会社,福岡県,北九州市小倉南区,中曽根１丁目１２番２１号矢野第六ビル３０３,,40,107,8000222,,,,,,,2024-12-11,1,,,,,オオクラウンソウ,0
2217,9330001032728,新規,0,2024-12-11,2024-12-11,株式会社三大仙,,株式会社,熊本県,菊池郡菊陽町,杉並台２丁目１１番２号,,43,404,8691110,,,,,,,2024-12-11,1,,,,,サンダイセン,0
2220,9340001026992,新規,0,2024-12-11,2024-12-11,株式会社クレイン,,株式会社,鹿児島県,鹿児島市,上荒田町１６番地２７号１０１,,46,201,8900055,,,,,,,2024-12-11,1,,,,,,0
2222,9350003004797,新規,0,2024-12-11,2024-12-11,合同会社黒木畜産,,合同会社,宮崎県,児湯郡木城町,大字高城３６１８番地５,,45,404,8840101,,,,,,,2024-12-11,1,,,,,クロキチクサン,0
2227,9370001052020,新規,0,2024-12-11,2024-12-11,株式会社ジョイクリエイト,,株式会社,宮城県,白石市,田町１丁目２番１－２０２号サンジョルディ２１Ｂ－２０２,,04,206,9890227,,,,,,,2024-12-11,1,,,,,ジョイクリエイト,0
2245,9430001093248,新規,0,2024-12-11,2024-12-11,株式会社冨田アージェントネットワーク,,株式会社,北海道,札幌市北区,北二十四条西４丁目１番１６－３０２号,,01,102,0010024,,,,,,,2024-12-11,1,,,,,トミタアージェントネットワーク,0
2250,9430003017064,新規,0,2024-12-11,2024-12-11,合同会社ＧＩＺＥＮ,,合同会社,北海道,札幌市手稲区,新発寒六条９丁目１１－６,,01,109,0060806,,,,,,,2024-12-11,1,,,,,,0
2254,9500001026035,新規,0,2024-12-11,2024-12-11,株式会社エムズファミリー,,株式会社,愛媛県,松山市,余戸南３丁目３番２号,,38,201,7900047,,,,,,,2024-12-11,1,,,,,エムズファミリー,0
