sequenceNumber,corporateNumber,process,correct,updateDate,changeDate,name,nameImageId,kind,prefectureName,cityName,streetNumber,addressImageId,prefectureCode,cityCode,postCode,addressOutside,addressOutsideImageId,closeDate,closeCause,successorCorporateNumber,changeCause,assignmentDate,latest,enName,enPrefectureName,enCityName,enAddressOutside,furigana,hihyoji
4,1010001236533,新規,0,2023-06-30,2023-06-30,株式会社ＴｈｒｅｅＳｔａｒｓ,,株式会社,東京都,中央区,銀座１丁目２２番１１号銀座大竹ビジデンス２Ｆ,,13,102,1040061,,,,,,,2023-06-30,1,,,,,スリースターズ,0
10,1010401175364,新規,0,2023-06-30,2023-06-30,株式会社Ｌｕｍｉｎａ　ＩＩＩマスターリース,,株式会社,東京都,港区,虎ノ門４丁目１番２８号,,13,103,1050001,,,,,,,2023-06-30,1,,,,,ルミナスリーマスターリース,0
11,1010401175380,新規,0,2023-06-30,2023-06-30,株式会社クローバー,,株式会社,東京都,港区,芝浦４丁目１６番３６号,,13,103,1080023,,,,,,,2023-06-30,1,,,,,クローバー,0
12,1010403030402,新規,0,2023-06-30,2023-06-30,合同会社パイプラインド,,合同会社,東京都,港区,芝大門２丁目４－５芝ダイヤハイツ９０８,,13,103,1050012,,,,,,,2023-06-30,1,,,,,パイプラインド,0
15,1010501050673,新規,0,2023-06-30,2023-06-30,株式会社西瓜社,,株式会社,東京都,台東区,東上野３丁目１５番１４号ＭＣオフィス東上野３０７,,13,106,1100015,,,,,,,2023-06-30,1,,,,,スイカシャ,0
16,1010501050681,新規,0,2023-06-30,2023-06-30,株式会社十駒,,株式会社,東京都,台東区,雷門２丁目８－８コンフォート浅草１Ｆ,,13,106,1110034,,,,,,,2023-06-30,1,,,,,トコマ,0
28,1011001155327,新規,0,2023-06-30,2023-06-30,株式会社ＴＯＫＵ,,株式会社,東京都,渋谷区,道玄坂１丁目１０番８号渋谷道玄坂東急ビル２Ｆ－Ｃ,,13,113,1500043,,,,,,,2023-06-30,1,,,,,トク,0
29,1011001155351,新規,0,2023-06-30,2023-06-30,株式会社ｃｏｍ‐ｔｅｘｔ,,株式会社,東京都,渋谷区,幡ヶ谷１丁目２－２京王幡ヶ谷ビル４Ｆ,,13,113,1510072,,,,,,,2023-06-30,1,,,,,,0
30,1011001155368,新規,0,2023-06-30,2023-06-30,株式会社Ｋａｍａｎｏｖａ,,株式会社,東京都,渋谷区,宇田川町３－７ヒューリック渋谷公園通りビル５Ｆ－７３,,13,113,1500042,,,,,,,2023-06-30,1,,,,,カマノバ,0
31,1011001155376,新規,0,2023-06-30,2023-06-30,鋭賽株式会社,,株式会社,東京都,渋谷区,円山町５番５号Ｎａｖｉ渋谷Ｖ３階,,13,113,1500044,,,,,,,2023-06-30,1,,,,,エイサイ,0
35,1011003017054,新規,0,2023-06-30,2023-06-30,合同会社ＭＳ総合企画,,合同会社,東京都,渋谷区,桜丘町４番１４号ＶＯＲＴ渋谷桜丘ビル５Ｆ,,13,113,1500031,,,,,,,2023-06-30,1,,,,,エムエスソウゴウキカク,0
37,1011101103441,新規,0,2023-06-30,2023-06-30,株式会社セフィーロ,,株式会社,東京都,新宿区,高田馬場４丁目１２－１１,,13,104,1690075,,,,,,,2023-06-30,1,,,,,セフィーロ,0
42,1011401025237,新規,0,2023-06-30,2023-06-30,株式会社オンピステ,,株式会社,東京都,板橋区,東新町２丁目４７番１号,,13,119,1740074,,,,,,,2023-06-30,1,,,,,オンピステ,0
44,1011503005665,新規,0,2023-06-30,2023-06-30,Ｓｕｎｓｈｉｎｅ合同会社,,合同会社,東京都,北区,上中里３丁目１０－７塩野ビル１０２,,13,117,1140016,,,,,,,2023-06-30,1,,,,,サンシャイン,0
53,1012801022476,新規,0,2023-06-30,2023-06-30,ＧＦＪ株式会社,,株式会社,東京都,昭島市,郷地町２丁目１５番１５号,,13,207,1960032,,,,,,,2023-06-30,1,,,,,ジーエフジェイ,0
60,1013301050991,新規,0,2023-06-30,2023-06-30,Ｇｒｏｏｖｙ　Ｌｉｆｅ株式会社,,株式会社,東京都,豊島区,上池袋４丁目１３番１０－２０７号,,13,116,1700012,,,,,,,2023-06-30,1,,,,,グルーヴィーライフ,0
65,1020001152275,新規,0,2023-06-30,2023-06-30,株式会社青空ホールディングス,,株式会社,神奈川県,横浜市金沢区,泥亀１丁目１５番２号,,14,108,2360021,,,,,,,2023-06-30,1,,,,,アオゾラホールディングス,0
73,1021001079442,新規,0,2023-06-30,2023-06-30,株式会社ＤＩＹＡ　ＪＡＰＡＮ,,株式会社,神奈川県,鎌倉市,由比ガ浜３丁目７番３０号,,14,204,2480014,,,,,,,2023-06-30,1,,,,,ダイヤジャパン,0
74,1021003013259,新規,0,2023-06-30,2023-06-30,合同会社ＡＰＲＳ　ＪＡＰＡＮ　ＬＡＮＫＡ,,合同会社,神奈川県,平塚市,南金目３７５番地の１コーポＪＪ１０２,,14,203,2591201,,,,,,,2023-06-30,1,,,,,エーピーアールエスジャパンランカー,0
75,1021003013267,新規,0,2023-06-30,2023-06-30,合同会社いおり,,合同会社,神奈川県,相模原市緑区,中野１０７７－１,,14,151,2520157,,,,,,,2023-06-30,1,,,,,イオリ,0
76,1021003013275,新規,0,2023-06-30,2023-06-30,合同会社ＮＯＡＨ,,合同会社,神奈川県,大和市,深見西４丁目３－２５,,14,213,2420018,,,,,,,2023-06-30,1,,,,,ノア,0
79,1030001154568,新規,0,2023-06-30,2023-06-30,株式会社アミンコーポレーション,,株式会社,埼玉県,三郷市,彦成３丁目９番７－６０１号,,11,237,3410003,,,,,,,2023-06-30,1,,,,,アミンコーポレーション,0
80,1030001154650,新規,0,2023-06-30,2023-06-30,株式会社高鹿,00131017,株式会社,埼玉県,さいたま市岩槻区,大字本宿１５６番地３,,11,110,3390074,,,,,,,2023-06-30,1,,,,,タカシカ,0
81,1030001154659,新規,0,2023-06-30,2023-06-30,株式会社ＭＴＲ,,株式会社,埼玉県,所沢市,旭町２８番１０号,,11,208,3590036,,,,,,,2023-06-30,1,,,,,エムティーアール,0
83,1030003022054,新規,0,2023-06-30,2023-06-30,春柏合同会社,,合同会社,埼玉県,久喜市,栗橋東１丁目２１番地５１号,,11,232,3491103,,,,,,,2023-06-30,1,,,,,ハルハク,0
88,1040001129032,新規,0,2023-06-30,2023-06-30,株式会社Ｅ‐ｓｔｙｌｅ,,株式会社,千葉県,柏市,篠籠田１３９２番地４３メゾン柏ウエストＢ－２０２号,,12,217,2770862,,,,,,,2023-06-30,1,,,,,イースタイル,0
95,1040003022870,新規,0,2023-06-30,2023-06-30,合同会社酒井開発柏中部,,合同会社,千葉県,柏市,篠籠田６４７番地,,12,217,2770862,,,,,,,2023-06-30,1,,,,,サカイカイハツカシワチュウブ,0
96,1040003022879,新規,0,2023-06-30,2023-06-30,合同会社ＭＰ　Ｇｌｏｂａｌ,,合同会社,千葉県,松戸市,大谷口２６３番地の９,,12,207,2700005,,,,,,,2023-06-30,1,,,,,エムピグローバル,0
98,1050005013289,新規,0,2023-06-30,2023-06-30,特定非営利活動法人厚成,,その他の設立登記法人,茨城県,常総市,豊岡町丁１６５０番地１,,08,211,3030041,,,,,,,2023-06-30,1,,,,,コウセイ,0
104,1060005010112,新規,0,2023-06-30,2023-06-30,一般社団法人ｎｉ‐ｆｅ,,その他の設立登記法人,栃木県,足利市,福居町４６９番地５,,09,202,3260338,,,,,,,2023-06-30,1,,,,,ニーフェ,0
105,1070003005006,新規,0,2023-06-30,2023-06-30,合同会社ポリヌス,,合同会社,群馬県,高崎市,吉井町下長根１２７番地８,,10,202,3702121,,,,,,,2023-06-30,1,,,,,,0
114,1110001037649,新規,0,2023-06-30,2023-06-30,株式会社ＭＨＭＧ,,株式会社,新潟県,燕市,吉田法花堂１２６７番地の１,,15,213,9590214,,,,,,,2023-06-30,1,,,,,エムエイチエムジー,0
115,1110003005100,新規,0,2023-06-30,2023-06-30,ＯＺＩＳ合同会社,,合同会社,新潟県,新潟市中央区,笹口３丁目１０番地１０ポートヴィラ新潟笹口１０６号,,15,103,9500911,,,,,,,2023-06-30,1,,,,,オズイズ,0
123,1120001255893,新規,0,2023-06-30,2023-06-30,弯曲投資株式会社,,株式会社,大阪府,大阪市旭区,今市１丁目２－５カルム千林３０５号室,,27,117,5350011,,,,,,,2023-06-30,1,,,,,ワンキョクトウシ,0
124,1120001255951,新規,0,2023-06-30,2023-06-30,株式会社ジノベーション,,株式会社,大阪府,大阪市中央区,安堂寺町２丁目６番１５－６０３号,,27,128,5420061,,,,,,,2023-06-30,1,,,,,ジノベーション,0
125,1120001256116,新規,0,2023-06-30,2023-06-30,株式会社アオフル,,株式会社,大阪府,大阪市北区,梅田１丁目２番２号大阪駅前第２ビル１２－１２,,27,127,5300001,,,,,,,2023-06-30,1,,,,,アオフル,0
126,1120001256124,新規,0,2023-06-30,2023-06-30,株式会社ｆｌａｐ　ｍｙ　ｗｉｎｇｓ,,株式会社,大阪府,大阪市此花区,西九条６丁目１番１６号３階,,27,104,5540012,,,,,,,2023-06-30,1,,,,,フラップマイウィングス,0
138,1122001037124,新規,0,2023-06-30,2023-06-30,さくらマネージメント株式会社,,株式会社,大阪府,東大阪市,俊徳町１丁目３番２３号桜ガーデン２０２,,27,227,5770831,,,,,,,2023-06-30,1,,,,,サクラマネージメント,0
155,1160003002910,新規,0,2023-06-30,2023-06-30,合同会社カリンボディ,,合同会社,滋賀県,甲賀市,甲賀町鳥居野７６５,,25,209,5203403,,,,,,,2023-06-30,1,,,,,カリンボディ,0
162,1180005020272,新規,0,2023-06-30,2023-06-30,医療法人やませ,,その他の設立登記法人,愛知県,名古屋市中区,錦３丁目１６－２７栄パークサイドプレイス９階,,23,106,4600003,,,,,,,2023-06-30,1,,,,,ヤマセ,0
163,1180301037508,新規,0,2023-06-30,2023-06-30,株式会社ＢＥ‐ｎｅｘｔ,,株式会社,愛知県,豊田市,若宮町４丁目１番地３,,23,211,4710026,,,,,,,2023-06-30,1,,,,,ビーネクスト,0
165,1190001030530,新規,0,2023-06-30,2023-06-30,株式会社ＬＩＦＩＸ,,株式会社,三重県,鈴鹿市,算所４丁目７番２７号,,24,207,5130806,,,,,,,2023-06-30,1,,,,,リフィックス,0
166,1200001041443,新規,0,2023-06-30,2023-06-30,ミナミマーブルプロ株式会社,,株式会社,岐阜県,揖斐郡大野町,大字公郷１４番地２,,21,403,5010555,,,,,,,2023-06-30,1,,,,,ミナミマーブルプロ,0
174,1240001061735,新規,0,2023-06-30,2023-06-30,株式会社イノヴェイター,,株式会社,広島県,広島市佐伯区,利松３丁目２５番４８－２０４号ヒュッゲ,,34,108,7315106,,,,,,,2023-06-30,1,,,,,イノヴェイター,0
178,1250001020161,新規,0,2023-06-30,2023-06-30,株式会社ＴＲＹ＆Ｃｏ,,株式会社,山口県,光市,三井１丁目１３番２２号,,35,210,7430052,,,,,,,2023-06-30,1,,,,,トライアンドカンパニー,0
183,1260003004351,新規,0,2023-06-30,2023-06-30,合同会社ぽぽまり企画,,合同会社,岡山県,岡山市中区,西川原１５５番地１１,,33,102,7038258,,,,,,,2023-06-30,1,,,,,ポポマリキカク,0
185,1290001102088,新規,0,2023-06-30,2023-06-30,株式会社山匠,,株式会社,福岡県,筑紫野市,大字山家１０２４番地３９２,,40,217,8180003,,,,,,,2023-06-30,1,,,,,ヤマショウ,0
186,1290001102105,新規,0,2023-06-30,2023-06-30,株式会社江利田設計,,株式会社,福岡県,福岡市西区,生の松原３丁目３９番１０号,,40,135,8190055,,,,,,,2023-06-30,1,,,,,エリタセッケイ,0
188,1290003014083,新規,0,2023-06-30,2023-06-30,合同会社ソウセイラボ,,合同会社,福岡県,那珂川市,五郎丸３丁目３番２２号,,40,231,8111252,,,,,,,2023-06-30,1,,,,,ソウセイラボ,0
207,1370001050122,新規,0,2023-06-30,2023-06-30,株式会社アンデージ,,株式会社,宮城県,仙台市若林区,長喜城字山神４３番地の７,,04,103,9840036,,,,,,,2023-06-30,1,,,,,アンデージ,0
219,1430003015199,新規,0,2023-06-30,2023-06-30,合同会社リサイクル雅,,合同会社,北海道,札幌市中央区,北七条西１９丁目１番地拓商ビル２Ｆ,,01,101,0600007,,,,,,,2023-06-30,1,,,,,リサイクルミヤビ,0
221,1450001014036,新規,0,2023-06-30,2023-06-30,株式会社アートスタイルホーム,,株式会社,北海道,紋別郡雄武町,字雄武１８５０番地の１２,,01,563,0981702,,,,,,,2023-06-30,1,,,,,アートスタイルホーム,0
232,1700150117423,新規,0,2023-06-30,2023-06-14,イクサージュ目黒管理組合,,その他,東京都,目黒区,下目黒３丁目１０番３４,,13,110,1530064,,,,,,,2023-06-14,1,,,,,イクサージユメグロカンリクミアイ,0
233,1700150117910,新規,0,2023-06-30,2023-06-30,ｓｈｅｎｚｈｅｎｓｈｉ　ｈａｎｄｉａｎｄｉａｎｋｅｊｉ　ｙｏｕｘｉａｎｇｏｎｇｓｉ,,外国会社等,,,,,,,,ｆｕｃｈｅｎｇｊｉｅｄａｏ　ｘｉｋｅｎｇｓｈｅｑｕ　ｇｕａｎｌａｎｄａｄａｏ１１７ｈａｏ　ｌａｎｈｕｉｈｕａｙｕａｎＤｚｕｏ７　ｓｈｅｎｚｈｅｎｓｈｉ　ｌｏｎｇｈｕａｑｕ　ｇｕａｎｇｄｏｎｇ　Ｃｈｉｎａ,,,,,,2023-06-30,1,,,,,シンセンシハンディアンディアンケジユウゲンコウシ,0
234,1700150117919,新規,0,2023-06-30,2023-06-30,ＤＭＬ　ＳＵＰＰＬＹ　ＣＨＡＩＮ　ＭＡＮＡＧＥＭＥＮＴ　ＣＯ．，ＬＩＭＩＴＥＤ,,外国会社等,,,,,,,,ＲＭ１２，２０／Ｆ　ＨＯ　ＫＩＮＧ　ＣＯＭＭ　ＣＴＲ，２－１６　ＦＡ　ＹＵＥＮ　ＳＴ　ＭＯＮＧＫＯＫ　ＫＬ，ＨＯＮＧ　ＫＯＮＧ,,,,,,2023-06-30,1,,,,,ディーエムエルサプライチェーンマネジメントカンパニーリミテッド,0
235,1700150117927,新規,0,2023-06-30,2023-06-30,ＣＫＬＡＵ　ＴＥＣＨＮＯＬＯＧＩＥＳ　ＩＮＣ．,,外国会社等,,,,,,,,２７０４　Ｅ　Ｆｏｕｎｔａｉｎ　Ｂｌｖｄ　Ｃｏｌｏｒａｄｏ　Ｓｐｒｉｎｇｓ　ＣＯ，ＵＳＡ,,,,,,2023-06-30,1,,,,,シクラウテクノロジーズインク,0
236,1700150117935,新規,0,2023-06-30,2023-06-30,ｓｈｅｎｚｈｅｎｓｈｉ　ｌｉｎｚｅｋｅｊｉ　ｙｏｕｘｉａｎｇｏｎｓｉ,,外国会社等,,,,,,,,１３Ｆ，Ｕｎｉｔ　１，Ｂｕｉｌｄｉｎｇ　７，Ｙｕｊｉｎｇｃｈｅｎｇ，Ｓｈａｊｉａｎｇ　Ｒｏａｄ，Ｓｈａｐｕ　Ｃｏｍｍｕｎｉｔｙ，Ｓｏｎｇｇａｎｇ　Ｓｔｒｅｅｔ，Ｂａｏａｎ　Ｄｉｓｔｒｉｃｔ，Ｓｈｅｎｚｈｅｎ，Ｇｕａｎｇｄｏｎｇ，Ｃｈｉｎａ,,,,,,2023-06-30,1,,,,,シンセンシリンゼケジユウゲンコウシ,0
237,1700150117943,新規,0,2023-06-30,2023-06-30,ｇａｎｚｈｏｕ　ｙｉｙａｎｚｈｏｎｇｍａｏｙｉ　ｙｏｕｘｉａｎｇｏｎｇｓｉ,,外国会社等,,,,,,,,ｚｈａｎｇｇｏｎｇｑｕ　ｘｉｎｇａｎｚｈｏｕｄａｄａｏｓｈｕｉｙｏｕｃｈｅｎｇ４ｄｏｎｇ　ｅｒｃｅｎｇ１０＃ｌｏｕ　ｇａｎｚｈｏｕｓｈｉ　ｊｉａｎｇｘｉｓｈｅｎｇ，Ｃｈｉｎａ,,,,,,2023-06-30,1,,,,,ゴンジョウイヤンゾンマオイユウゲンコウシ,0
238,1700150117951,新規,0,2023-06-30,2023-06-30,ｗｕｈａｎｄｅｍａｏ　ｄｉａｎｚｉｓｈａｎｇｗｕ　ｙｏｕｘｉａｎｇｏｎｇｓｉ,,外国会社等,,,,,,,,ｗｕ　ｈａｎ　ｄｏｎｇ　ｈｕ　ｘｉｎ　ｊｉ　ｓｈｕ　ｋａｉ　ｆａ　ｑｕ　ｄｏｎｇ　ｘｉｎ　ｌｕ　ＳＢＩ　ｃｈｕａｎｇ　ｙｅ　ｊｉｅ　８　ｄｏｎｇ　１２　ｃｅｎｇ　１２０１　ｓｈｉ　Ｃ７４　ｚｉ　ｍａｏ　ｑｕ　ｗｕ　ｈａｎ　ｐｉａｎ　ｑｕ，ｈｏｎｇｓｈａｎ　Ｄｉｓｔｒｉｃｔ，ｗｕｈａｎ　Ｃｉｔｙ，ｈｕｂｅｉ　Ｐｒｏｖｉｎｃｅ，Ｃｈｉｎａ,,,,,,2023-06-30,1,,,,,ウハンデマオデンシショウムユウゲンコウシ,0
239,1700150117968,新規,0,2023-06-30,2023-06-30,ｓｈｅｎｚｈｅｎ　ｋａｉｓｕｄａ　ｔｅｃｈｎｏｌｏｇｙ　ｃｏ．，Ｌｔｄ,,外国会社等,,,,,,,,ｌｏｎｇｈｕａ　ｌａｉｍｅｎｇｓｈｕｉｘｉｅｃｈｕｎｔｉａｎ　６Ａ　１－１２Ｅ　ｓｈｅｎｚｈｅｎ　ｇｕａｎｇｄｏｎｇ，Ｃｈｉｎａ,,,,,,2023-06-30,1,,,,,シンセンカイスダテクノロジーカンパニーリミテッド,0
240,1700150117976,新規,0,2023-06-30,2023-06-30,Ｓｈｅｎｚｈｅｎ　ｂｏｓｈｅｎｇ　ｉｎｄｕｓｔｒｉａｌ　ｃｏ．　ＬＴＤ－ｙｕａｎ　ｍｅｎｇｈｕａｎ　　　　,,外国会社等,,,,,,,,Ｚｈｅｎｘｉｎｇ　ｒｏａｄ，ｈｕａｑｉａｎｇｂｅｉ　ｓｔｒｅｅｔ，ｆｕｔｉａｎ　ｄｉｓｔｒｉｃｔ．４Ｂ１８，ｂｕｓｉｎｅｓｓ　ｃｅｎｔｅｒ　ｂｕｉｌｄｉｎｇ，２０５，ｓｈａｎｇｂｕ　ｉｎｄｕｓｔｒｉａｌ　ｚｏｎｅ　Ｓｈｅｎｚｈｅｎ　ｃｉｔｙ　Ｇｕａｎｇｄｏｎｇ　ｐｒｏｖｉｎｃｅ，Ｃｈｉｎａ　,,,,,,2023-06-30,1,,,,,シンセンボシェンインダストリアルカンパニーリミテッドユアンメンハン,0
241,1700150117984,新規,0,2023-06-30,2023-06-30,Ｓｈｅｎｚｈｅｎ　ＴｕｎＫｏｕＳｔａｒ　Ｔｅｃｈｎｏｌｏｇｙ　Ｃｏｍｐａｎｙ　Ｌｉｍｉｔｅｄ　　　　,,外国会社等,,,,,,,,Ｒｍ９３２，Ｊｉａｘｉｙｅ　ｇｕａｎｇｃｈａｎｇ，Ｍｉｎｚｈｉｄａｄａｏ　３１８ｈａｏ，Ｍｉｎｚｈｉｓｈｅｑｕ，Ｓｈｅｎｚｈｅｎｓｈｉ　Ｇｕａｎｇｄｏｎｇ，Ｃｈｉｎａ,,,,,,2023-06-30,1,,,,,シンセンツンコウスターテクノロジーカンパニーリミテッド,0
242,1700150117992,新規,0,2023-06-30,2023-06-30,Ｐｉｎｇｙａｎｇ　Ｃｏｕｎｔｙ　Ｏｕｚｈａｎ　Ｅ－Ｂｕｓｉｎｅｓｓ　Ｃｏ．，Ｌｔｄ．,,外国会社等,,,,,,,,Ｎｏ．６５，Ｘｕｅｑｉａｎ　Ｓｏｕｔｈ　Ｒｏａｄ，Ｍａｂｕ　Ｔｏｗｎ，Ｐｉｎｇｙａｎｇ　Ｃｏｕｎｔｙ，Ｗｅｎｚｈｏｕ　Ｚｈｅｊｉａｎｇ，Ｃｈｉｎａ,,,,,,2023-06-30,1,,,,,ピンヤンカァオンティオザンエービジネスカンパニーリミテッド,0
243,1700150118000,新規,0,2023-06-30,2023-06-30,ｚｈｕ　ｈａｉ　ｓｈｉ　ａｏ　ｗｅｉ　ｋｅ　ｊｉ　ｙｏｕ　ｘｉａｎ　ｇｏｎｇ　ｓｉ,,外国会社等,,,,,,,,ｈｅｎｇ　ｑｉｎ　ｘｉｎ　ｑｕ　ｂａｏ　ｈｕａ　ｌｕ　６ｈａｏ　１０５ｓｈｉ　－　６１８１３（ｊｉ　ｚｈｏｎｇ　ｂａｎ　ｇｏｎｇ　ｑｕ）ｚｈｕ　ｈａｉ　ｓｈｉ　ｇｕａｎｇ　ｄｏｎｇ　ｓｈｅｎｇ，Ｃｈｉｎａ,,,,,,2023-06-30,1,,,,,ズハイシアオウェイケジユウゲンコウシ,0
244,1700150118009,新規,0,2023-06-30,2023-06-30,ｓｈｅｎｚｈｅｎｓｈｉ　ｂａｏｌｉｓｈｉｂａｏｚｈｕａｎｇ　ｙｏｕｘｉａｎｇｏｎｇｓｉ,,外国会社等,,,,,,,,ｓｈａ　ｊｉｎｇ　ｊｉｅ　ｄａｏ　ｂｕ　ｙｏｎｇ　ｄａ　ｔｉａｎ　ｌｕ　５１ｈａｏ　ｓｈｅｎ　ｚｈｅｎ　ｓｈｉ　ｂａｏ　ａｎ　ｑｕ　Ｃｈｉｎａ,,,,,,2023-06-30,1,,,,,シンセンシバァウリシバァウズゥアンユウゲンコウシ,0
245,1700150118017,新規,0,2023-06-30,2023-06-30,ｊｉａｎｇｓｈａｎ　ｘｉａｏｘｉｏｎｇｇｏｎｇｙｉｐｉｎ　ｙｏｕｘｉａｎｇｏｎｇｓｉ,,外国会社等,,,,,,,,Ｎｏ．５６，Ｑｉｄｏｕ　Ｚｈｏｎｇｚｈｕｃｈａｎｇ，Ｑｉｎｇｈｕ　Ｔｏｗｎ，Ｊｉａｎｇｓｈａｎ　Ｑｕｚｈｏｕ　Ｚｈｅｊｉａｎｇ　Ｃｈｉｎａ,,,,,,2023-06-30,1,,,,,ジャンサンシャオションゴンイピンユウゲンコウシ,0
246,1700150118025,新規,0,2023-06-30,2023-06-30,尾張社会保険労務協会,,その他,愛知県,江南市,飛高町門野２１２－１,,23,217,4838332,,,,,,,2023-06-30,1,,,,,オワリシャカイホケンロウムキョウカイ,0
247,1700150118033,新規,0,2023-06-30,2023-06-30,常州ライ沃斯光電科技有限公司,,外国会社等,,,,,,,,中国江蘇省常州市新北区龍虎塘新苑五路１０３号,,,,,,2023-06-30,1,,,,,ジヨウシユウライヨクシコウデンカギユウゲンコウシ,0
251,2010003040998,新規,0,2023-06-30,2023-06-30,Ｅｕｐｈｏｒｉａ７合同会社,,合同会社,東京都,文京区,小石川１丁目１番１８－１３０２号,,13,105,1120002,,,,,,,2023-06-30,1,,,,,ユーフォリアセブン,0
252,2010003041006,新規,0,2023-06-30,2023-06-30,合同会社Ｃ．Ｂカンパニー,,合同会社,東京都,中央区,東日本橋３丁目３－１７ＲＥ－ＫＮＯＷ東日本橋３Ｃ,,13,102,1030004,,,,,,,2023-06-30,1,,,,,シービーカンパニー,0
261,2010401174935,新規,0,2023-06-30,2023-06-30,株式会社ｄｉｇｕｐ,,株式会社,東京都,港区,新橋４丁目２９番１号プラウド新虎通り４０４,,13,103,1050004,,,,,,,2023-06-30,1,,,,,ディグアップ,0
262,2010401175355,新規,0,2023-06-30,2023-06-30,株式会社梓生,,株式会社,東京都,港区,西麻布４丁目１１番７号秀和西麻布レジデンス４０６,,13,103,1060031,,,,,,,2023-06-30,1,,,,,シキ,0
264,2010501050689,新規,0,2023-06-30,2023-06-30,株式会社ＩＳＳ,,株式会社,東京都,台東区,浅草橋１丁目９番１２号,,13,106,1110053,,,,,,,2023-06-30,1,,,,,アイエスエス,0
268,2010601063343,新規,0,2023-06-30,2023-06-30,株式会社日昇,,株式会社,東京都,江東区,木場５丁目１番５号メイプルハイム木場Ｂ１１０,,13,108,1350042,,,,,,,2023-06-30,1,,,,,ニッショウ,0
270,2010803004590,新規,0,2023-06-30,2023-06-30,合同会社クリーム,,合同会社,東京都,大田区,北千束３丁目１３番１３号,,13,111,1450062,,,,,,,2023-06-30,1,,,,,クリーム,0
274,2010901053317,新規,0,2023-06-30,2023-06-30,株式会社ＭＳプリマステラ,,株式会社,東京都,世田谷区,松原５丁目５番１号,,13,112,1560043,,,,,,,2023-06-30,1,,,,,エムエスプリマステラ,0
282,2011001155342,新規,0,2023-06-30,2023-06-30,ポーション株式会社,,株式会社,東京都,渋谷区,渋谷２丁目１９番１５号宮益坂ビルディング６０９,,13,113,1500002,,,,,,,2023-06-30,1,,,,,ポーション,0
283,2011001155367,新規,0,2023-06-30,2023-06-30,株式会社美馬美装,,株式会社,東京都,渋谷区,渋谷２丁目１９番１５号宮益坂ビルディング６０９,,13,113,1500002,,,,,,,2023-06-30,1,,,,,ミマビソウ,0
284,2011001155375,新規,0,2023-06-30,2023-06-30,株式会社ＳＥＮＳＥｅｅ,,株式会社,東京都,渋谷区,猿楽町５番２１－２０６号代官山ＢＬＥＳＳ,,13,113,1500033,,,,,,,2023-06-30,1,,,,,センスイイ,0
285,2011001155383,新規,0,2023-06-30,2023-06-30,株式会社イロドリデザイン,,株式会社,東京都,渋谷区,渋谷２丁目１９－１５宮益坂ビルディング６０９,,13,113,1500002,,,,,,,2023-06-30,1,,,,,イロドリデザイン,0
286,2011003017086,新規,0,2023-06-30,2023-06-30,合同会社ＭｉｄＷｉｖｅｓ,,合同会社,東京都,目黒区,下目黒６丁目５番２１－１０５号シティテラス下目黒,,13,110,1530064,,,,,,,2023-06-30,1,,,,,ミッドワイブズ,0
292,2011105010708,新規,0,2023-06-30,2023-06-30,一般社団法人おじさん未来研究所,,その他の設立登記法人,東京都,新宿区,西新宿３丁目３番１３号西新宿水間ビル６階,,13,104,1600023,,,,,,,2023-06-30,1,,,,,オジサンミライケンキュウジョ,0
294,2011301028834,新規,0,2023-06-30,2023-06-30,高円寺経営研究所株式会社,,株式会社,東京都,杉並区,高円寺南４丁目４４番３号マーキュリービル４階,,13,115,1660003,,,,,,,2023-06-30,1,,,,,コウエンジケイエイケンキュウジョ,0
298,2011601026926,新規,0,2023-06-30,2023-06-30,ａｒｃｈｉｓｏｆｔ株式会社,,株式会社,東京都,練馬区,下石神井１丁目６番１８号,,13,120,1770042,,,,,,,2023-06-30,1,,,,,アーキソフト,0
330,2030001154658,新規,0,2023-06-30,2023-06-30,ｒｅ・ＢＯＲＮ株式会社,,株式会社,埼玉県,越谷市,宮本町１丁目３５番地４,,11,222,3430806,,,,,,,2023-06-30,1,,,,,リボーン,0
331,2030001154666,新規,0,2023-06-30,2023-06-30,株式会社ハイビスカス,,株式会社,埼玉県,さいたま市大宮区,宮町３丁目３６番地１ガルボ大宮３０１,,11,103,3300802,,,,,,,2023-06-30,1,,,,,ハイビスカス,0
333,2030003022012,新規,0,2023-06-30,2023-06-30,合同会社ラッセル,,合同会社,埼玉県,さいたま市大宮区,吉敷町２丁目７４番地１－７０２号,,11,103,3300843,,,,,,,2023-06-30,1,,,,,ラッセル,0
336,2040001129007,新規,0,2023-06-30,2023-06-30,株式会社ＢＨＣ,,株式会社,千葉県,我孫子市,柴崎台５丁目１番２‐１０６グリーンヒルズ天王台,,12,222,2701176,,,,,,,2023-06-30,1,,,,,ビーエイチシー,0
339,2050001053049,新規,0,2023-06-30,2023-06-30,株式会社ハクタ設備,,株式会社,茨城県,稲敷郡阿見町,中央５丁目５番１３号,,08,443,3000332,,,,,,,2023-06-30,1,,,,,ハクタセツビ,0
344,2060005010111,新規,0,2023-06-30,2023-06-30,税理士法人さくらゲート,,その他の設立登記法人,栃木県,宇都宮市,宿郷３丁目１９番８号,,09,201,3210945,,,,,,,2023-06-30,1,,,,,サクラゲート,0
345,2070003005005,新規,0,2023-06-30,2023-06-30,合同会社ＭＵＮＣＨＩＥ,,合同会社,群馬県,安中市,板鼻６１７番地１１,,10,211,3790111,,,,,,,2023-06-30,1,,,,,,0
346,2080001025689,新規,0,2023-06-30,2023-06-30,株式会社トリプルフォー,,株式会社,静岡県,静岡市葵区,瀬名中央３丁目２８番１５－１０１号,,22,101,4200916,,,,,,,2023-06-30,1,,,,,トリプルフォー,0
351,2110001037648,新規,0,2023-06-30,2023-06-30,株式会社Ｈ２,,株式会社,新潟県,新潟市西区,内野上新町１２１２４番地,,15,107,9502172,,,,,,,2023-06-30,1,,,,,エイチツー,0
361,2120001256065,新規,0,2023-06-30,2023-06-30,株式会社ｐｌｕｓｌ,,株式会社,大阪府,大阪市西区,北堀江１丁目２２番３号マインズ北堀江Ｗ９,,27,106,5500014,,,,,,,2023-06-30,1,,,,,プラスル,0
362,2120001256081,新規,0,2023-06-30,2023-06-30,Ｓ＆Ｔ　ＰＡＲＴＮＥＲＳ株式会社,,株式会社,大阪府,大阪市浪速区,大国３丁目７番７－６０３号,,27,111,5560014,,,,,,,2023-06-30,1,,,,,エスアンドティパートナーズ,0
363,2120001256107,新規,0,2023-06-30,2023-06-30,株式会社ＡＷＳ,,株式会社,大阪府,大阪市平野区,喜連１丁目５番３４号,,27,126,5470027,,,,,,,2023-06-30,1,,,,,エーダブリューエス,0
364,2120001256123,新規,0,2023-06-30,2023-06-30,株式会社ＳＨＯＷＭＡＮホールディングス,,株式会社,大阪府,大阪市天王寺区,上汐３丁目１番２５号,,27,109,5430002,,,,,,,2023-06-30,1,,,,,ショウマンホールディングス,0
365,2120001256131,新規,0,2023-06-30,2023-06-30,アロアロ株式会社,,株式会社,大阪府,大阪市阿倍野区,旭町２丁目１番１－２１２号,,27,119,5450051,,,,,,,2023-06-30,1,,,,,アロアロ,0
366,2120003024387,新規,0,2023-06-30,2023-06-30,有方合同会社,,合同会社,大阪府,大阪市浪速区,大国３丁目６番１２号サンハイツ笹井４０１号室,,27,111,5560014,,,,,,,2023-06-30,1,,,,,ユウホウ,0
367,2120005023701,新規,0,2023-06-30,2023-06-30,一般社団法人Ａｒｕ,,その他の設立登記法人,大阪府,大阪市旭区,新森３丁目３番９号,,27,117,5350022,,,,,,,2023-06-30,1,,,,,アル,0
376,2130001074615,新規,0,2023-06-30,2023-06-30,株式会社Ａｌｅｇｒｉａ,,株式会社,京都府,京都市北区,紫野南舟岡町４６－１５－２０６,,26,101,6038225,,,,,,,2023-06-30,1,,,,,アレグリア,0
383,2130005016803,新規,0,2023-06-30,2023-06-30,特定非営利活動法人スォーノ・リッコ・アンサンブル京都,,その他の設立登記法人,京都府,京都市西京区,樫原内垣外町２５番地の１６,,26,111,6158152,,,,,,,2023-06-30,1,,,,,スォーノリッコアンサンブルキョウト,0
411,2200001041442,新規,0,2023-06-30,2023-06-30,株式会社Ｎｅｘｕｓ,,株式会社,岐阜県,大垣市,郭町２丁目２５番地,,21,202,5030887,,,,,,,2023-06-30,1,,,,,ネクサス,0
421,2240001061726,新規,0,2023-06-30,2023-06-30,株式会社サンマルコーポレーション,,株式会社,広島県,広島市安佐北区,白木町三田８９２４番地２,,34,106,7391700,,,,,,,2023-06-30,1,,,,,サンマルコーポレーション,0
423,2240003006200,新規,0,2023-06-30,2023-06-30,合同会社Ｏｈａｎａ,,合同会社,広島県,広島市安佐南区,祇園３丁目４４番１５号ハイカムール祇園２０１号,,34,105,7310138,,,,,,,2023-06-30,1,,,,,オハナ,0
426,2290001102104,新規,0,2023-06-30,2023-06-30,ＰＲＯＳＰＥＲ株式会社,,株式会社,福岡県,福岡市中央区,高砂１丁目１番２５号,,40,133,8100011,,,,,,,2023-06-30,1,,,,,プロスパー,0
427,2290003014074,新規,0,2023-06-30,2023-06-30,合同会社ＩＭＥＩ,,合同会社,福岡県,福岡市博多区,住吉３丁目５‐２‐２０２号,,40,132,8120018,,,,,,,2023-06-30,1,,,,,アイエムイーアイ,0
431,2290801029645,新規,0,2023-06-30,2023-06-30,株式会社Ｓｔａｒｇａｔｅ　Ｐｒｏｊｅｃｔ,,株式会社,福岡県,田川郡糸田町,３７３８番地３,,40,604,8221300,,,,,,,2023-06-30,1,,,,,スターゲイトプロジェクト,0
437,2340003004169,新規,0,2023-06-30,2023-06-30,合同会社南日本総合建設,,合同会社,鹿児島県,鹿児島市,小野２丁目１４番１６号,,46,201,8900021,,,,,,,2023-06-30,1,,,,,ミナミニホンソウゴウケンセツ,0
438,2360001032211,新規,0,2023-06-30,2023-06-30,株式会社ゼンショ,,株式会社,沖縄県,那覇市,前島２丁目８－７－２階,,47,201,9000016,,,,,,,2023-06-30,1,,,,,ゼンシヨ,0
441,2370001050121,新規,0,2023-06-30,2023-06-30,株式会社エム・アイ・エス,,株式会社,宮城県,仙台市若林区,志波町１３番地の１５サンライズ志波町３１４号,,04,103,9840041,,,,,,,2023-06-30,1,,,,,エムアイエス,0
461,2500001025027,新規,0,2023-06-30,2023-06-30,株式会社Ｇ．Ｏ．Ｎ,,株式会社,愛媛県,今治市,大西町脇甲１２２６番地２９,,38,202,7992206,,,,,,,2023-06-30,1,,,,,ジーオーエヌ,0
462,2700150117918,新規,0,2023-06-30,2023-06-30,Ｓｈｅｎｚｈｅｎｓｈｉ　Ｙａｔａｉｗａｎｇｌｕｏｋｅｊｉ　ｙｏｕｘｉａｎｇｏｎｇｓｉ,,外国会社等,,,,,,,,５－Ａ１７０３，Ｃｈａｎｇｃｈｅｎｇ　Ｇａｒｄｅｎ，Ｂａｉｈｕａ　Ｒｏａｄ　４　Ｙｕａｎｌｉｎｇ　Ｓｔｒｅｅｔ，Ｆｕｔｉａｎ　Ｄｉｓｔｒｉｃｔ，Ｓｈｅｎｚｈｅｎ，Ｇｕａｎｇｄｏｎｇ　Ｃｈｉｎａ,,,,,,2023-06-30,1,,,,,シンセンシヤタイワングルオケジユウゲンコウシ,0
463,2700150117926,新規,0,2023-06-30,2023-06-30,Ｓｈｅｎｚｈｅｎ　Ｓｉｎｃｅｒｉｔｙ　Ｔｅｃｈｎｏｌｏｇｙ　Ｃｏ．，Ｌｔｄ,,外国会社等,,,,,,,,Ｎｏ．２０７，Ｎｏ．１２，Ｎｏ．２２，Ｇｕａｎｇｙａｙｕａｎ　Ｂｌｏｃｋ　９，Ｗｕｈｅ　Ｃｏｍｍｕｎｉｔｙ　Ｂａｎｔｉａｎ　Ｓｔｒｅｅｔ，Ｌｏｎｇｇａｎｇ　Ｄｉｓｔｒｉｃｔ　Ｓｈｅｎｚｈｅｎ，Ｇｕａｎｇｄｏｎｇ　Ｃｈｉｎａ,,,,,,2023-06-30,1,,,,,シンセンシンセリティテクノロジーカンパニーリミテッド,0
464,2700150117934,新規,0,2023-06-30,2023-06-30,Ｓｈｅｎｚｈｅｎｓｈｉ　Ｄｕｏｍｅｉｑｉ　Ｓｈａｎｇｍａｏ　Ｙｏｕｘｉａｎ　Ｇｏｎｇｓｉ,,外国会社等,,,,,,,,Ｓａｎｌｉａｎｓｈｅｑｕｌｉａｎｂｕｌｕ　１１１ｈａｏ　２ｄｏｎｇ　３２２　Ｌｏｎｇｈｕａｑｕ　Ｌｏｎｇｈｕａｊｉｅｄａｏ　Ｓｈｅｎｚｈｅｎ　Ｇｕａｎｇｄｏｎｇ　Ｃｈｉｎａ,,,,,,2023-06-30,1,,,,,シンセンシデュオメイキシャンマオユウゲンコウシ,0
465,2700150117942,新規,0,2023-06-30,2023-06-30,Ｈａｎｇｚｈｏｕ　Ｒｏｎｇｈａｎ　Ｅ－Ｃｏｍｍｅｒｃｅ　Ｃｏ．，Ｌｔｄ,,外国会社等,,,,,,,,Ｚｈｅｊｉａｎｇ，Ｈａｎｇｚｈｏｕ，ｂｉｎｊｉａｎｇ　Ｄｉｓｔｒｉｃｔ，Ｒｍ　５０１，Ｂｕｉｌｄｉｎｇ　８，Ｎｏ．１２，Ｊｕｙｕａｎ　Ｒｏａｄ，Ｘｉｘｉｎｇ　Ｓｔｒｅｅｔ，Ｃｈｉｎａ,,,,,,2023-06-30,1,,,,,ハンゾウロンハンイーコマースカンパニーリミテッド,0
466,2700150117950,新規,0,2023-06-30,2023-06-30,ｔｕｌｉｎｇｓｈｉｘｕｎ（ｓｈｅｎｚｈｅｎ）ｙｏｕｘｉａｎｇｏｎｇｓｉ,,外国会社等,,,,,,,,ｂａｎ　ｔｉａｎ　ｊｉｅ　ｄａｏ　ｍａ　ａｎ　ｔａｎｇ　ｓｈｅ　ｑｕ　ｚｈｏｎｇ　ｘｉｎｇ　ｌｕ　１２－２　ｈａｏ　３０１　ｍａ　ａｎ　ｔａｎｇ　ｓｈｅ　ｑｕ　ｚｈｏｎｇ　ｘｉｎｇ　ｌｕ　１２－２　ｈａｏ　３１１，ｌｏｎｇｇａｎｇ　Ｄｉｓｔｒｉｃｔ，ｓｈｅｎｚｈｅｎ　Ｃｉｔｙ，ｇｕａｎｇｄｏｎｇ　Ｐｒｏｖｉｎｃｅ，Ｃｈｉｎａ,,,,,,2023-06-30,1,,,,,ツリンシシュンシンセンユウゲンコウシ,0
467,2700150117959,新規,0,2023-06-30,2023-06-30,Ｑｉｎｇ　Ｄａｏ　Ｓｈｉ　Ｂａｏ　Ｘｉｎ　Ｃａｉ　Ｌｉａｏ　Ｃｏ．ＬＴＤ,,外国会社等,,,,,,,,ｘｉａ　ｇｅ　ｚｈｕａｎｇ　ｚｈｅｎ，ｈｕａ　ｍｅｉ　ｌｕ　９ｈａｏ，ｑｉｎｇ　ｄａｏ　ｓｈｉ，ｌａｉ　ｘｉ　ｓｈｉ，ｓｈａｎ　ｄｏｎｇ　ｓｈｅｎｇ，Ｃｈｉｎａ,,,,,,2023-06-30,1,,,,,キンダオシバオシンチャイリャオカンパニーリミテッド,0
468,2700150117967,新規,0,2023-06-30,2023-06-30,ｓｈｅｎｚｈｅｎｓｈｉ　ｈｕａｈａｏｄｉａｎｚｉｔｏｎｇｘｕｎ　ｙｏｕｘｉａｎｇｏｎｇｓｉ,,外国会社等,,,,,,,,Ｌｏｎｇｈｕａ　Ｎｅｗ　Ｄｉｓｔｒｉｃｔ　Ｂｉｇ　Ｗａｖｅ　Ｓｔｒｅｅｔ　Ｑｕｅｓｈａｎ　Ｉｎｄｕｓ　ｓｈｅｎｚｈｅｎ　ｇｕａｎｇｄｏｎｇ，Ｃｈｉｎａ,,,,,,2023-06-30,1,,,,,シンセンシフアハオデンシトンシュンユウゲンコウシ,0
469,2700150117975,新規,0,2023-06-30,2023-06-30,ｈｕｎａｎ　ｌｏｎｇｑｉｄｉａｎｚｉｋｅｊｉ　ｙｏｕｘｉａｎｇｏｎｇｓｉ　　　　,,外国会社等,,,,,,,,ｙｕｅｙａｎｇｊｉｎｇｊｉｊｉｓｈｕｋａｉｆａｑｕ　ｔｏｎｇｈａｉｌｕｇｕａｎｌｉｃｈｕ　ｂｅｉｇａｎｇｊｕｗｅｉｈｕｉ　ｙｉｊｕｊｉｎｓｈｉｈｕａｙｕａｎ２ｄｏｎｇ　１９１７ｓｈｉ　ｙｕｅｙａｎｇ　ｈｕｎａｎ，Ｃｈｉｎａ　　,,,,,,2023-06-30,1,,,,,フナンロンキデンシケジユウゲンコウシ,0
470,2700150117983,新規,0,2023-06-30,2023-06-30,ｓｈｅｎｚｈｅｎ　ｗａｎｈａｎｇｑｉｙｅｋｅｊｉ　ｙｏｕｘｉａｎｇｏｎｇｓｉ　　　　,,外国会社等,,,,,,,,３０６，Ｊｉｔｏｎｇ　Ｂｕｉｌｄｉｎｇ，５５５　Ｊｉｈｕａ　Ｒｏａｄ，Ｂａｎｔｉａｎ　Ｓｔｒｅｅｔ　Ｌｏｎｇｇａｎｇ　Ｄｉｓｔｒｉｃｔ，Ｓｈｅｎｚｈｅｎ，Ｇｕａｎｇｄｏｎｇ　Ｐｒｏｖｉｎｃｅ，Ｃｈｉｎａ,,,,,,2023-06-30,1,,,,,シンセンウァンハンチイェケジユウゲンコウシ,0
471,2700150117991,新規,0,2023-06-30,2023-06-30,ＳＨＥＮ　ＺＨＥＮ　ＳＨＩ　ＭＡＩ　ＳＩ　ＳＨＵ　ＭＡ　ＹＯＵ　ＸＩＡＮ　ＧＯＮＧ　ＳＩ,,外国会社等,,,,,,,,Ｓｈｅｎ　ｚｈｅｎ　ｓｈｉ　ｌｏｎｇ　ｈｕａ　ｘｉｎ　ｑｕ　ｌｏｎｇ　ｈｕａ　ｊｉｅ　ｄａｏ　ｙｏｕ　ｓｏｎｇ　ｄｉ　ｓｈｉ　ｇｏｎｇ　ｙｅ　ｑｕ　ｆｕ　ｋａｎｇ　ｓｈａｎｇ　ｙｅ　ｇｕａｎｇ　ｃｈａｎｇ　Ａ　ｄｏｎｇ　６　ｌｏｕ　６０６　ｓｈｅｎ　ｚｈｅｎ　ｇｕａｎｇ　ｄｏｎｇ，Ｃｈｉｎａ,,,,,,2023-06-30,1,,,,,シンセンシマイシスマユウゲンコウシ,0
472,2700150118008,新規,0,2023-06-30,2023-06-30,Ｓｈｅｎｚｈｅｎｓｈｉ　Ｔｕｏｙｕ　Ｋｅｊｉ　Ｙｏｕｘｉａｎｇｏｎｇｓｉ,,外国会社等,,,,,,,,ｌｏｎｇ　ｈｕａ　ｑｕ　ｌｏｎｇ　ｈｕａ　ｊｉｅ　ｄａｏ　ｍｅｉ　ｌｏｎｇ　ｌｕ　９８ｈａｏ　ｇｕｏ　ｈｏｎｇ　ｇｏｕ　ｗｕ　ｇｕａｎｇ　ｃｈａｎｇ　４０７　ｓｈｅｎ　ｚｈｅｎ　ｓｈｉ　ｇｕａｎｇ　ｄｏｎｇ　ｓｈｅｎｇ，Ｃｈｉｎａ,,,,,,2023-06-30,1,,,,,シンセンシトォウユケジユウゲンコウシ,0
473,2700150118016,新規,0,2023-06-30,2023-06-30,Ｓｈｅｎｚｈｅｎｓｈｉ　Ｈｕｉｆｕｆｅｎｇｙｕａｎ　Ｋｅｊｉ　Ｙｏｕｘｉａｎｇｏｇｎｓｉ,,外国会社等,,,,,,,,ｓｈｅｎ　ｚｈｅｎ　ｓｈｉ　ｇｕａｎｇ　ｄｏｎｇ　ｓｈｅｎｇ　ｆｕ　ｙｏｎｇ　ｊｉｅ　ｄａｏ　ｑｉａｏ　ｔｏｕ　ｓｈｅ　ｑｕ　ｚｈｏｎｇ　ｑｉｎｇ　ｌｕ　ｓｈｉ　ｆｅｎｇ　ｄａ　ｓｈａ　５１２　Ｃｈｉｎａ,,,,,,2023-06-30,1,,,,,シンセンシホゥイフフェンユェンケジユウゲンコウシ,0
474,2700150118024,新規,0,2023-06-30,2023-06-30,飽海地区教科用図書採択協議会,,その他,山形県,酒田市,本町２丁目２－４５,,06,204,9980043,,,,,,,2023-06-30,1,,,,,アクミチクキョウカヨウトショサイタクキョウギカイ,0
475,2700150118032,新規,0,2023-06-30,2023-06-30,広西火蝠商貿有限公司,,外国会社等,,,,,,,,中国広西南寧市江南区亭洪路４８－１号南寧江南万達広場Ｃ１６号楼十七層１７０３号房,,,,,,2023-06-30,1,,,,,コウセイカフクシヨウボウユウゲンコウシ,0
479,3010001236408,新規,0,2023-06-30,2023-06-30,Ｔｏｍｏｖａｔｉｏｎ　Ｉｎｃ．株式会社,,株式会社,東京都,中央区,銀座１丁目２２番１１号銀座大竹ビジデンス２Ｆ,,13,102,1040061,,,,,,,2023-06-30,1,,,,,トモベーションインク,0
480,3010001236416,新規,0,2023-06-30,2023-06-30,ＮＰＣ株式会社,,株式会社,東京都,中央区,銀座６丁目１３番５号東武銀座第２ビル８階,,13,102,1040061,,,,,,,2023-06-30,1,,,,,エヌピーシー,0
481,3010001236473,新規,0,2023-06-30,2023-06-30,株式会社ＥＴプロジェクト,,株式会社,東京都,中央区,佃２丁目１２番１－９０５号,,13,102,1040051,,,,,,,2023-06-30,1,,,,,イーティープロジェクト,0
482,3010001236531,新規,0,2023-06-30,2023-06-30,株式会社Ｃｈａｒｔｅｒ　Ｈｏｕｓｅ,,株式会社,東京都,中央区,銀座１丁目１２番４号,,13,102,1040061,,,,,,,2023-06-30,1,,,,,チャーターハウス,0
484,3010003040997,新規,0,2023-06-30,2023-06-30,合同会社ＩＲＩＥ,,合同会社,東京都,千代田区,隼町２番１２号,,13,101,1020092,,,,,,,2023-06-30,1,,,,,アイリー,0
487,3010401175354,新規,0,2023-06-30,2023-06-30,株式会社チョイスユアメイド,,株式会社,東京都,港区,南青山２丁目２番１５号ウィン青山９４２,,13,103,1070062,,,,,,,2023-06-30,1,,,,,チョイスユアメイド,0
488,3010401175370,新規,0,2023-06-30,2023-06-30,株式会社９３５,,株式会社,東京都,港区,西麻布４丁目１１番４号,,13,103,1060031,,,,,,,2023-06-30,1,,,,,キューサンゴ,0
489,3010501050655,新規,0,2023-06-30,2023-06-30,株式会社星澤,,株式会社,東京都,台東区,鳥越２丁目８番４号,,13,106,1110054,,,,,,,2023-06-30,1,,,,,ホシザワ,0
494,3010703006744,新規,0,2023-06-30,2023-06-30,ＬＮＨ合同会社,,合同会社,東京都,品川区,南品川５丁目８－１１,,13,109,1400004,,,,,,,2023-06-30,1,,,,,エルエヌエイチ,0
498,3011001155325,新規,0,2023-06-30,2023-06-30,株式会社ランダムファクトリー,,株式会社,東京都,渋谷区,道玄坂１丁目１０番８号渋谷道玄坂東急ビル２Ｆ－Ｃ,,13,113,1500043,,,,,,,2023-06-30,1,,,,,ランダムファクトリー,0
499,3011001155333,新規,0,2023-06-30,2023-06-30,株式会社ＪＰ　ＦＵＮＣＴＩＯＮＳ,,株式会社,東京都,目黒区,三田２丁目７番２号２０３,,13,110,1530062,,,,,,,2023-06-30,1,,,,,ジェイピーファンクションズ,0
500,3011001155358,新規,0,2023-06-30,2023-06-30,株式会社はね,,株式会社,東京都,渋谷区,千駄ヶ谷２丁目９番１２号千駄ヶ谷ルーテルハイツ　２０４,,13,113,1510051,,,,,,,2023-06-30,1,,,,,ハネ,0
501,3011001155374,新規,0,2023-06-30,2023-06-30,Ｃａｎａｌｏ株式会社,,株式会社,東京都,渋谷区,神宮前２丁目１６番１２号,,13,113,1500001,,,,,,,2023-06-30,1,,,,,カナロー,0
502,3011001155382,新規,0,2023-06-30,2023-06-30,株式会社フロンティア・エンタテインメント,,株式会社,東京都,渋谷区,桜丘町１７－６協栄ビル６階,,13,113,1500031,,,,,,,2023-06-30,1,,,,,フロンティアエンタテインメント,0
510,3011203004115,新規,0,2023-06-30,2023-06-30,合同会社メディアラボ,,合同会社,東京都,中野区,野方６丁目９番６号,,13,114,1650027,,,,,,,2023-06-30,1,,,,,メディアラボ,0
512,3011301028825,新規,0,2023-06-30,2023-06-30,ＶＥＰ株式会社,,株式会社,東京都,杉並区,高円寺北４丁目４－６,,13,115,1660002,,,,,,,2023-06-30,1,,,,,,0
519,3011601026925,新規,0,2023-06-30,2023-06-30,株式会社エゼル,,株式会社,東京都,練馬区,下石神井５丁目１８番１８号プレジール石神井公園ＩＩＩ２０１,00131020,13,120,1770042,,,,,,,2023-06-30,1,,,,,エゼル,0
524,3011805003282,新規,0,2023-06-30,2023-06-30,医療法人社団峻栄会,,その他の設立登記法人,東京都,足立区,江北６丁目２３番４号,,13,121,1230872,,,,,,,2023-06-30,1,,,,,シュンエイカイ,0
527,3012801022474,新規,0,2023-06-30,2023-06-30,株式会社Ｄｅｚ,,株式会社,東京都,国立市,谷保６７９８番地の１９ステラ国立Ｅ棟,,13,215,1860011,,,,,,,2023-06-30,1,,,,,デース,0
531,3013303006692,新規,0,2023-06-30,2023-06-30,ＣＨＥＥＲＳ＆ＣＯ．合同会社,,合同会社,東京都,豊島区,高田１丁目８―６ＫＳビル４０１,,13,116,1710033,,,,,,,2023-06-30,1,,,,,チアーズアンドコー,0
540,3020001152273,新規,0,2023-06-30,2023-06-30,ｉｉｉ　Ｉｎｔｅｒｎａｔｉｏｎａｌ　ＪＡＰＡＮ株式会社,,株式会社,神奈川県,川崎市多摩区,枡形３丁目５番１９－７０１号,,14,135,2140032,,,,,,,2023-06-30,1,,,,,スリーインターナショナルジャパン,0
546,3020003024099,新規,0,2023-06-30,2023-06-30,合同会社鵬宇,,合同会社,神奈川県,川崎市川崎区,川崎大師駅前二丁目１２番１６号,,14,131,2100000,,,,,,,2023-06-30,1,,,,,ホウウ,0
547,3020005016045,新規,0,2023-06-30,2023-06-30,一般社団法人道開きチャクラリーディング協会,,その他の設立登記法人,神奈川県,横浜市西区,平沼１丁目４０番１号嶋森ビル８階,,14,103,2200023,,,,,,,2023-06-30,1,,,,,ミチヒラキチャクラリーディングキョウカイ,0
552,3030001154657,新規,0,2023-06-30,2023-06-30,株式会社協進工業,,株式会社,埼玉県,さいたま市緑区,大字大牧１４５７番地３４,,11,109,3360922,,,,,,,2023-06-30,1,,,,,キョウシンコウギョウ,0
560,3040001128949,新規,0,2023-06-30,2023-06-30,リッチグローバル株式会社,,株式会社,千葉県,市川市,相之川１丁目５番９－６０９号,,12,203,2720143,,,,,,,2023-06-30,1,,,,,リッチグローバル,0
569,3080001025688,新規,0,2023-06-30,2023-06-30,株式会社１ＢＡＳＥ,,株式会社,静岡県,静岡市駿河区,国吉田１丁目１０番４６号ブエナビスタＣ－１０２,,22,102,4228004,,,,,,,2023-06-30,1,,,,,ワンベース,0
577,3120001256080,新規,0,2023-06-30,2023-06-30,錦鯉商事株式会社,,株式会社,大阪府,大阪市中央区,谷町６丁目１４番１７Ｃｏｌｌｅｃｔｉｏｎ空堀１０３号室,,27,128,5420012,,,,,,,2023-06-30,1,,,,,ニシキゴイショウジ,0
578,3120001256114,新規,0,2023-06-30,2023-06-30,株式会社ｓｏｙ　ｓｅａ,,株式会社,大阪府,大阪市西区,北堀江１丁目３番１０号エクセルコート北堀江１００２,,27,106,5500014,,,,,,,2023-06-30,1,,,,,ソイシー,0
579,3120001256130,新規,0,2023-06-30,2023-06-30,ワールドガラスエージェント株式会社,,株式会社,大阪府,大阪市中央区,本町２丁目３－４アソルティ本町４階,,27,128,5410053,,,,,,,2023-06-30,1,,,,,ワールドガラスエージェント,0
580,3120003024320,新規,0,2023-06-30,2023-06-30,合同会社アイギス,,合同会社,大阪府,大阪市中央区,島之内１丁目２２－２２－６０２,,27,128,5420082,,,,,,,2023-06-30,1,,,,,アイギス,0
581,3120003024394,新規,0,2023-06-30,2023-06-30,合同会社今井興業,,合同会社,大阪府,大阪市生野区,新今里５丁目９番９－１０１号,,27,116,5440001,,,,,,,2023-06-30,1,,,,,イマイコウギョウ,0
584,3120101067799,新規,0,2023-06-30,2023-06-30,Ｓｔｅｌｌａ・Ｍａｇｏ株式会社,,株式会社,大阪府,堺市中区,土塔町８４番地４,,27,142,5998234,,,,,,,2023-06-30,1,,,,,,0
587,3120901047728,新規,0,2023-06-30,2023-06-30,株式会社クリンクル,,株式会社,大阪府,箕面市,粟生間谷西１丁目６番８－４０２号,,27,220,5620023,,,,,,,2023-06-30,1,,,,,クリンクル,0
589,3120905006481,新規,0,2023-06-30,2023-06-30,桃山台コーポラス管理組合法人,,その他の設立登記法人,大阪府,豊中市,新千里南町３丁目１番１－１１２号,,27,203,5600084,,,,,,,2023-06-30,1,,,,,モモヤマダイコーポラス,0
592,3130001074630,新規,0,2023-06-30,2023-06-30,株式会社碧紋,,株式会社,京都府,京都市下京区,東洞院通四条下る元悪王子町４２番地,,26,106,6008091,,,,,,,2023-06-30,1,,,,,タマモン,0
612,3180005020262,新規,0,2023-06-30,2023-06-30,医療法人ひのとり,,その他の設立登記法人,愛知県,名古屋市北区,山田２丁目４番５８号,,23,103,4620810,,,,,,,2023-06-30,1,,,,,ヒノトリ,0
613,3180301037514,新規,0,2023-06-30,2023-06-30,株式会社和古乎,,株式会社,愛知県,蒲郡市,御幸町５－８若草ハイツ,,23,214,4430042,,,,,,,2023-06-30,1,,,,,ワココ,0
614,3190001030529,新規,0,2023-06-30,2023-06-30,株式会社トラスト,,株式会社,三重県,四日市市,波木町１２８番地,,24,202,5100961,,,,,,,2023-06-30,1,,,,,トラスト,0
617,3220001025475,新規,0,2023-06-30,2023-06-30,株式会社ＫＯＢＩＦＯＯＤＳ,,株式会社,石川県,金沢市,寺町４丁目１４‐２０レガロカナザワ２０３,,17,201,9218033,,,,,,,2023-06-30,1,,,,,コビフーズ,0
621,3240001061733,新規,0,2023-06-30,2023-06-30,株式会社警備保障プランナー,,株式会社,広島県,福山市,芦田町福田９２番地２５,,34,207,7210000,,,,,,,2023-06-30,1,,,,,ケイビホショウプランナー,0
632,3290801029628,新規,0,2023-06-30,2023-06-30,さんかホールディングス株式会社,,株式会社,福岡県,北九州市八幡西区,筒井町１５番２号,,40,109,8060032,,,,,,,2023-06-30,1,,,,,サンカホールディングス,0
633,3290801029644,新規,0,2023-06-30,2023-06-30,株式会社オールイン,,株式会社,福岡県,北九州市小倉北区,船頭町３番３８号,,40,106,8020008,,,,,,,2023-06-30,1,,,,,オールイン,0
642,3370001050120,新規,0,2023-06-30,2023-06-30,株式会社Ｎ．Ｋ工業,,株式会社,宮城県,宮城郡利府町,しらかし台３丁目１２番地７,,04,406,9810134,,,,,,,2023-06-30,1,,,,,エヌケーコウギョウ,0
651,3380001033818,新規,0,2023-06-30,2023-06-30,株式会社Ｏｗｗｌ‐Ｅｄｉｔ　Ｅｎｅｒｇｙ,,株式会社,福島県,郡山市,大町２丁目９番１３号信京ビル３０１号,,07,203,9638001,,,,,,,2023-06-30,1,,,,,アウルエディットエナジー,0
680,3490001010517,新規,0,2023-06-30,2023-06-30,株式会社大倉,,株式会社,高知県,高知市,朝倉本町２丁目４番１１号,,39,201,7808073,,,,,,,2023-06-30,1,,,,,オオクラ,0
682,3700150117909,新規,0,2023-06-30,2023-06-30,Ｍｉｎｑｉｎｇｘｉａｎ　Ｔｕｌｅ　Ｄｉａｎｚｉｓｈａｎｇｗｕｙｏｕｘｉａｎｇｏｎｇｓｉ,,外国会社等,,,,,,,,Ｆｕｊｉａｎｓｈｅｎｇ　ｆｕｚｈｏｕｓｈｉ　ｍｉｎｑｉｎｇｘｉａｎ　ｂａｎｄｏｎｇｚｈｅｎ　ｔａｎｇｂａｎｃｕｎｈａｎｑｉａｎ５２ｈａｏ　Ｃｈｉｎａ,,,,,,2023-06-30,1,,,,,ミンキンシャンツレデンシショウムユウゲンコウシ,0
683,3700150117917,新規,0,2023-06-30,2023-06-30,ｓｈｅｎｚｈｅｎｓｈｉ　ｔｅｗｅｉｄａｋｅｊｉ　ｙｏｕｘｉａｎｇｏｎｇｓｉ,,外国会社等,,,,,,,,１０－２，ｚｈａｎｇｋｅｎｇｓｈｅｑｕ　ｚｈａｎｇｋｅｎｇｎａｎｊｉｎｇｘｉｎｃｕｎｅｒｑｕ　１０Ｂｕｉｌｄｉｎｇ，ｍｉｎｚｈｉ　Ｓｔｒｅｅｔ，ｌｏｎｇｈｕａＤｉｓｔｒｉｃｔ，Ｓｈｅｎｚｈｅｎ，Ｇｕａｎｇｄｏｎｇ　Ｐｒｏｖｉｎｃｅ　Ｃｈｉｎａ,,,,,,2023-06-30,1,,,,,シンセンシテウェイダケジユウゲンコウシ,0
684,3700150117925,新規,0,2023-06-30,2023-06-30,Ｗｉｓｄｏｍｐｒｏ　ＬＬＣ,,外国会社等,,,,,,,,Ｒｏｏｍ　３－５０４，Ｎｕｏｄｅ　Ｈｏｌｉｄａｙ　Ｇａｒｄｅｎ，Ｑｉａｎｈａｉ　Ｒｏａｄ　３６９，Ｎａｎｓｈａｎ，Ｓｈｅｎｚｈｅｎ，Ｇｕａｎｇｄｏｎｇ　Ｃｈｉｎａ,,,,,,2023-06-30,1,,,,,ウィズドムプロエルエルシー,0
685,3700150117933,新規,0,2023-06-30,2023-06-30,Ｃｈｅｎｇｄｕ　Ｙｉｑｉｇｏｕ　Ｋｅｊｉ　Ｙｏｕｘｉａｎｇｏｎｇｓｉ,,外国会社等,,,,,,,,ｃｈｅｎｇｄｕｓｈｉｐｉｄｕｑｕｄｅｙｕａｎｚｈｅｎ（ｊｉｎｇｒｏｎｇｚｈｅｎ）ｈｏｎｇｑｉｄａｄａｏ１４６ｈａｏ　ｈｏｎｇｊｉｙａｊｕ７ｄｏｎｇ１ｄａｎｙｕａｎ１ｌｏｕｆｕ－１，Ｃｈｉｎａ,,,,,,2023-06-30,1,,,,,チェンジュイキゴウケジユウゲンコウシ,0
686,3700150117941,新規,0,2023-06-30,2023-06-30,Ｓｈｅｎｇｏｎｇ（Ｓｈｅｎｚｈｅｎ）Ｊｉｎ　Ｃｈｕ　Ｋｏｕ　Ｙｏｕ　Ｘｉａｎ　Ｇｏｎｇ　Ｓｉ,,外国会社等,,,,,,,,ｌｏｎｇ　ｈｕａ　ｊｉｅ　ｄａｏ　ｊｉｎｇ　ｌｏｎｇ　ｓｈｅ　ｑｕ　ｊｉｎｇ　ｈｕａ　ｘｉｎ　ｃｕｎ　ｄｏｎｇ　ｑｕ　５　ｈａｏ　５０１，ｌｏｎｇｈｕａ　Ｄｉｓｔｒｉｃｔ，ｓｈｅｎｚｈｅｎ　Ｃｉｔｙ，ｇｕａｎｇｄｏｎｇ　Ｐｒｏｖｉｎｃｅ,,,,,,2023-06-30,1,,,,,シェンオンシンセンジンチュウコウユウゲンコウシ,0
687,3700150117958,新規,0,2023-06-30,2023-06-30,Ｈｕａ　Ｚｈｏｕ　Ｓｈｉ　Ｄｏｎｇ　Ｊｕ　Ｍａｏ　Ｙｉ　Ｙｏｕ　Ｘｉａｎ　Ｇｏｎｇ　Ｓｉ,,外国会社等,,,,,,,,Ｇｕａｎｇ　Ｄｏｎｇ　Ｓｈｅｎｇ　Ｍａｏ　Ｍｉｎｇ　Ｓｈｉ　Ｈｕａ　Ｚｈｏｕ　Ｓｈｉ　Ｈｕａ　Ｚｈｏｕ　Ｓｈｉ　Ｈｅ　Ｘｉ　Ｊｉｅ　Ｄａｏ　Ｂｅｉ　Ａｎ　Ｂｅｉ　Ｊｉｎｇ　Ｌｕ　Ｚｈｏｎｇ　Ｘｉｎｇ　Ｘｉ　Ｃｅ　Ｚｏｎｇ　Ｈｅ　Ｌｏｕ　Ｂ　Ｚｈｕａｎｇ　Ｅｒ　Ｃｅｎｇ　Ｂ４　Ｆａｎｇ　Ｃｈｉｎａ,,,,,,2023-06-30,1,,,,,フアゾウシドンジュマオイユウゲンコウシ,0
688,3700150117966,新規,0,2023-06-30,2023-06-30,ｙｉ　ｗｕ　ｐｕ　ｈｕｉ　ｄｉａｎ　ｚｉ　ｓｈａｎｇ　ｗｕ　ｙｏｕ　ｘｉａｎ　ｇｏｎｇ　ｓｉ,,外国会社等,,,,,,,,ｆｕ　ｔｉａｎ　ｊｉｅ　ｄａｏ　ｆｕ　ｔｉａｎ　ｙｉ　ｑｕ　１９　ｚｈｕａｎｇ　６　ｈａｏ　６０１　ｓｈｉ　ｙｉ　ｗｕ　ｓｈｉ　ｚｈｅ　ｊｉａｎｇ　ｓｈｅｎｇ，Ｃｈｉｎａ,,,,,,2023-06-30,1,,,,,イウプフイデンシショウムユウゲンコウシ,0
689,3700150117974,新規,0,2023-06-30,2023-06-30,ｓｈｅｎｚｈｅｎｓｈｉ　ｙｉｑｉｙｉｎｇｗａｎｇｌｕｏｋｅｊｉ　ｙｏｕｘｉａｎｇｏｎｇｓｉ,,外国会社等,,,,,,,,Ｎｏ．９０６，Ｋｉｎｇ　Ｙａｎｇ　Ｂｕｉｌｄｉｎｇ，Ｂａｎｔｉａｎ　Ｓｔｒｅｅｔ，Ｌｏｎｇｇａｎｇ　Ｄｉｓｔｒｉｃｔ，Ｓｈｅｎｚｈｅｎ，Ｇｕａｎｇｄｏｎｇ　Ｐｒｏｖｉｎｃｅ，Ｃｈｉｎａ,,,,,,2023-06-30,1,,,,,シンセンシイキインワングルオケジユウゲンコウシ,0
690,3700150117982,新規,0,2023-06-30,2023-06-30,ＳｈｅｎＺｈｅｎ　Ｖ－ＳＹＳ　Ｔｅｃｈｎｏｌｏｇｙ　Ｃｏ．，Ｌｔｄ，　　　　,,外国会社等,,,,,,,,３０２，Ａ９　Ｄｏｎｇ，Ｔｉａｎｒｕｉ　Ｉｎｄｕｓｔｒｉａｌ　Ｐａｒｋ，Ｆｕｙｕａｎ　ｙｉ　Ｒｏａｄ　Ｎｏ．３５，Ｚｈａｎｃｈｅｎｇ　Ｃｏｍｍｕｎｉｔｙ，Ｆｕｈａｉ　Ｓｔｒｅｅｔ，Ｂａｏ’ａｎ　Ｄｉｓｔｒｉｃｔ，Ｓｈｅｎｚｈｅｎ，Ｃｈｉｎａ,,,,,,2023-06-30,1,,,,,シンセンブイシステクノロジーカンパニーリミテッド,0
691,3700150117990,新規,0,2023-06-30,2023-06-30,ＳＨＥＮ　ＺＨＥＮ　ＳＨＩ　ＨＥＩ　ＭＡＯ　ＫＥ　ＪＩ　ＹＯＵ　ＸＩＡＮ　ＧＯＮＧ　ＳＩ,,外国会社等,,,,,,,,Ｂａｏ　ａｎ　ｑｕ　ｘｉｎ　ａｎ　ｊｉｅ　ｄａｏ　ｓｈａｎｇ　ｈｅ　ｓｈｅ　ｑｕ　３２ｑｕ　ｙｕ　ａｎ　ｅｒ　ｌｕ　１２３　ｙｕ　ａｎ　ｊｕ　１ｄｏｎｇ　Ａ２１０６　ＳＨＥＮＺＨＥＮ　ＧＵＡＮＧＤＯＮＧ，ＣＨＩＮＡ,,,,,,2023-06-30,1,,,,,シンセンシヘイマォケジユウゲンコウシ,0
692,3700150117999,新規,0,2023-06-30,2023-06-30,ｚｈｅｎｇｚｈｏｕ　ｏｕｋｅｌａｗａｎｇｌｕｏｋｅｊｉ　ｙｏｕｘｉａｎｇｏｎｇｓｉ,,外国会社等,,,,,,,,ｊｉｎｓｈｕｉｑｕ　ｆｅｎｇｑｉｎｇｌｕ　１１８ｈａｏ　１１ｈａｏｌｏｕ１　ｄａｎｙｕａｎ１８ｃｅｎｇ　１８０６ｈａｏ　ｚｈｅｎｇｚｈｏｕｓｈｉ，Ｃｈｉｎａ,,,,,,2023-06-30,1,,,,,ゼンゾォウオウケラワンルオケジヨウシャンゴンシ,0
693,3700150118007,新規,0,2023-06-30,2023-06-30,Ｓｈｅｎｚｈｅｎｓｈｉ　Ｂａｓｉｔｅ　Ｓｈａｎｇｍａｏ　Ｙｏｕｘｉａｎｇｏｎｇｓｉ,,外国会社等,,,,,,,,Ｂａｏａｎｑｕ　Ｓｈａｊｉｎｇｊｉｅｄａｏ　Ｔａｎｇｇａｎｇｓｈｅｑｕ　Ｘｉｎｓｈａｌｕｎａｎｃｅ　Ｈｕａｓｈｅｎｇｚｈｉｈｕｉｄａｓｈａ　１３０８　Ｓｈｅｎｚｈｅｎｓｈｉ　Ｇｕａｎｇｄｏｎｇｓｈｅｎｇ，Ｃｈｉｎａ,,,,,,2023-06-30,1,,,,,シンセンシバシテシャンマオユウゲンコウシ,0
694,3700150118015,新規,0,2023-06-30,2023-06-30,ｓｈｅｎｚｈｅｎｓｈｉ　ｄｅｙａｚｈｉｌｉａｎｋｅｊｉ　ｙｏｕｘｉａｎｇｏｎｇｓｉ,,外国会社等,,,,,,,,１００２，Ｂｌｏｃｋ　Ａ，Ｔｏｎｇｘｉｎ　Ｔｅｃｈｎｏｌｏｇｙ　Ｂｕｉｌｄｉｎｇ，Ｎｏ．６２６１，Ｂａｏａｎ　Ａｖｅｎｕｅ　Ｑｉａｏｔｏｕ　Ｃｏｍｍｕｎｉｔｙ，Ｆｕｈａｉ　Ｓｔｒｅｅｔ，Ｂａｏａｎ　Ｄｉｓｔｒｉｃｔ，Ｓｈｅｎｚｈｅｎ，Ｃｈｉｎａ,,,,,,2023-06-30,1,,,,,シンセンシデェヤジレンケジユウゲンコウシ,0
695,3700150118023,新規,0,2023-06-30,2023-06-30,Ｋｎｅｉｐｐ　ＧｍｂＨ,,外国会社等,,,,,,,,Ｗｉｎｔｅｒｈａｕｓｅｒ　Ｓｔｒ．８５，９７０８４　Ｗｕｅｒｚｂｕｒｇ，Ｇｅｒｍａｎｙ,,,,,,2023-06-30,1,,,,,クナイプゲーエムベーハー,0
696,3700150118031,新規,0,2023-06-30,2023-06-30,厦門派珊電子商務有限公司,,外国会社等,,,,,,,,中国厦門市湖里区湖里大道５４号第八層Ｓ３単元之一,,,,,,2023-06-30,1,,,,,アモイハサンデンシシヨウムユウゲンコウシ,0
701,4010001236497,新規,0,2023-06-30,2023-06-30,データコンサルティングラボ株式会社,,株式会社,東京都,千代田区,神田和泉町１－６－１６ヤマトビル４０５,,13,101,1010024,,,,,,,2023-06-30,1,,,,,データコンサルティングラボ,0
702,4010001236522,新規,0,2023-06-30,2023-06-30,株式会社ＡｎｄＰｌｕｓ,,株式会社,東京都,中央区,八丁堀２丁目８番１号牧野ビル４０１,,13,102,1040032,,,,,,,2023-06-30,1,,,,,アンドプラス,0
703,4010001236555,新規,0,2023-06-30,2023-06-30,Ｒ３株式会社,,株式会社,東京都,中央区,日本橋室町１丁目１１番１２号日本橋水野ビル７階,,13,102,1030022,,,,,,,2023-06-30,1,,,,,アールサン,0
708,4010003041004,新規,0,2023-06-30,2023-06-30,ソーラーマスカット合同会社,,合同会社,東京都,千代田区,九段南３丁目７番７号成和綜合会計事務所内,,13,101,1020074,,,,,,,2023-06-30,1,,,,,ソーラーマスカット,0
709,4010003041012,新規,0,2023-06-30,2023-06-30,合同会社日天,,合同会社,東京都,中央区,晴海２丁目３番２－６１７号,,13,102,1040053,,,,,,,2023-06-30,1,,,,,ニッテン,0
717,4010401175155,新規,0,2023-06-30,2023-06-30,ドバイホーム株式会社,,株式会社,東京都,港区,愛宕２丁目５番１号愛宕グリーンヒルズＭＯＲＩタワー２４階,,13,103,1050002,,,,,,,2023-06-30,1,,,,,ドバイホーム,0
718,4010401175353,新規,0,2023-06-30,2023-06-30,株式会社Ｌｉｎｋｔｅｃｈ,,株式会社,東京都,港区,白金１丁目２番１－Ｅ３４０６号,,13,103,1080072,,,,,,,2023-06-30,1,,,,,リンクテック,0
719,4010403030408,新規,0,2023-06-30,2023-06-30,合同会社ビジネス・ベース・アイ,,合同会社,東京都,港区,南青山７丁目１番１４－４２５号,,13,103,1070062,,,,,,,2023-06-30,1,,,,,ビジネスベースアイ,0
720,4010403030416,新規,0,2023-06-30,2023-06-30,大阪通天閣合同会社,,合同会社,東京都,港区,元赤坂１丁目１番８号株式会社赤坂国際会計内,,13,103,1070051,,,,,,,2023-06-30,1,,,,,オオサカツウテンカク,0
721,4010405022287,新規,0,2023-06-30,2023-06-30,一般社団法人ＳＨ０６９,,その他の設立登記法人,東京都,港区,虎ノ門３丁目２２番１０－２０１号,,13,103,1050001,,,,,,,2023-06-30,1,,,,,エスエイチゼロシックスナイン,0
722,4010501050679,新規,0,2023-06-30,2023-06-30,ＢｌｕｅＯＣ・ＪＡＰＡＮ株式会社,,株式会社,東京都,台東区,西浅草３丁目４番２号,,13,106,1110035,,,,,,,2023-06-30,1,,,,,ブルーオーシージャパン,0
723,4010503007066,新規,0,2023-06-30,2023-06-30,ＫｈａｎｈＬｏｎｇ合同会社,,合同会社,東京都,台東区,西浅草２丁目７番５号,,13,106,1110035,,,,,,,2023-06-30,1,,,,,カンロン,0
727,4010603010226,新規,0,2023-06-30,2023-06-30,合同会社ビッグ・ブラザー,,合同会社,東京都,江東区,北砂３丁目２８番７号,,13,108,1360073,,,,,,,2023-06-30,1,,,,,ビッグブラザー,0
731,4010803004589,新規,0,2023-06-30,2023-06-30,合同会社ラポールワークス,,合同会社,東京都,大田区,萩中３丁目５番７号,,13,111,1440047,,,,,,,2023-06-30,1,,,,,ラポールワークス,0
739,4011001155332,新規,0,2023-06-30,2023-06-30,株式会社ｉ‐ｎｏｔｅ,,株式会社,東京都,渋谷区,代々木２丁目２３番１号ニューステイトメナー５７０,,13,113,1510053,,,,,,,2023-06-30,1,,,,,アイノート,0
740,4011001155357,新規,0,2023-06-30,2023-06-30,株式会社ｆｏｕｆｏｕ,,株式会社,東京都,渋谷区,南平台町４番８－４０７号,,13,113,1500036,,,,,,,2023-06-30,1,,,,,フーフー,0
741,4011001155381,新規,0,2023-06-30,2023-06-30,株式会社絶対王者,,株式会社,東京都,渋谷区,道玄坂１丁目１０番８号渋谷道玄坂東急ビル２Ｆ－Ｃ,,13,113,1500043,,,,,,,2023-06-30,1,,,,,ゼッタイオウジャ,0
751,4011105010706,新規,0,2023-06-30,2023-06-30,一般社団法人日韓エンターテイメント協会,,その他の設立登記法人,東京都,新宿区,西新宿７丁目１８番１８号新宿税理士ビル本館５０１号,,13,104,1600023,,,,,,,2023-06-30,1,,,,,ニッカンエンターテイメントキョウカイ,0
763,4012303001843,新規,0,2023-06-30,2023-06-30,合同会社Ｏｒｉｇｉｎａｔｉｖｅ,,合同会社,東京都,町田市,真光寺１丁目１番地１レーベンスガルテン鶴川１１０２,,13,209,1950057,,,,,,,2023-06-30,1,,,,,オリジネィティブ,0
765,4012701017722,新規,0,2023-06-30,2023-06-30,株式会社ｙｏｕ　ａｎｏａｌ,,株式会社,東京都,東村山市,秋津町５丁目５番地１０１,,13,213,1890001,,,,,,,2023-06-30,1,,,,,ユアノアール,0
767,4012801022481,新規,0,2023-06-30,2023-06-30,株式会社高橋７６８８,,株式会社,東京都,東大和市,中央３丁目８９９番地の１３,,13,220,2070015,,,,,,,2023-06-30,1,,,,,タカハシナムヤー,0
771,4021001079431,新規,0,2023-06-30,2023-06-30,竹花商事株式会社,,株式会社,神奈川県,藤沢市,長後１０３８番地の１７グレイス２０２,,14,205,2520801,,,,,,,2023-06-30,1,,,,,タケハナショウジ,0
777,4030001154656,新規,0,2023-06-30,2023-06-30,ＳＫ商事株式会社,,株式会社,埼玉県,越谷市,七左町５丁目１６０,,11,222,3430851,,,,,,,2023-06-30,1,,,,,エスケー,0
778,4030001154672,新規,0,2023-06-30,2023-06-30,株式会社Ｋｏｕｓｉｎ,,株式会社,埼玉県,三郷市,鷹野３丁目１１８番地２,,11,237,3410035,,,,,,,2023-06-30,1,,,,,コウシン,0
785,4050001053039,新規,0,2023-06-30,2023-06-30,株式会社ＫＨＡＲＡＬ　ＴＲＡＤＩＮＧ,,株式会社,茨城県,坂東市,逆井３５３６番地大都ビル２０１,,08,228,3060501,,,,,,,2023-06-30,1,,,,,カラルトレーディング,0
787,4060001036117,新規,0,2023-06-30,2023-06-30,株式会社大雅,,株式会社,栃木県,宇都宮市,戸祭台５１番地１,,09,201,3200017,,,,,,,2023-06-30,1,,,,,タイガ,0
795,4100001036541,新規,0,2023-06-30,2023-06-30,株式会社オーパス,,株式会社,長野県,北佐久郡軽井沢町,大字長倉３９２３番地１,,20,321,3890111,,,,,,,2023-06-30,1,,,,,オーパス,0
808,4120001256088,新規,0,2023-06-30,2023-06-30,株式会社シンドリア,,株式会社,大阪府,大阪市浪速区,稲荷１丁目５番３９号ターミナルサイド太田６０１号,,27,111,5560023,,,,,,,2023-06-30,1,,,,,シンドリア,0
809,4120001256096,新規,0,2023-06-30,2023-06-30,日本桜泉国際株式会社,,株式会社,大阪府,大阪市西区,西本町２丁目５番１４号,,27,106,5500005,,,,,,,2023-06-30,1,,,,,ニホンサクライズミコクサイ,0
810,4120003024410,新規,0,2023-06-30,2023-06-30,ＩｎｔｅｒｆａｃｅＸ合同会社,,合同会社,大阪府,大阪市北区,豊崎４丁目１‐１７オリーブコート２０１,,27,127,5310072,,,,,,,2023-06-30,1,,,,,インターフェイスエックス,0
816,4120901047719,新規,0,2023-06-30,2023-06-30,株式会社地研,,株式会社,大阪府,茨木市,竹橋町６番１３号,,27,211,5670815,,,,,,,2023-06-30,1,,,,,チケン,0
817,4120901047727,新規,0,2023-06-30,2023-06-30,株式会社門ボーリング,,株式会社,大阪府,豊中市,穂積１丁目９番１９号,,27,203,5610856,,,,,,,2023-06-30,1,,,,,カドボーリング,0
819,4122001037121,新規,0,2023-06-30,2023-06-30,株式会社富貴商会,,株式会社,大阪府,八尾市,龍華町１丁目４番２－２４１０号,,27,212,5810069,,,,,,,2023-06-30,1,,,,,フキショウカイ,0
853,4220005008764,新規,0,2023-06-30,2023-06-30,一般社団法人金沢空家研究所,,その他の設立登記法人,石川県,金沢市,野町３丁目１１番１号,,17,201,9218031,,,,,,,2023-06-30,1,,,,,カナザワアキヤケンキュウジョ,0
865,4280003001740,新規,0,2023-06-30,2023-06-30,合同会社うんなん補聴器センター,,合同会社,島根県,雲南市,三刀屋町三刀屋７３番地５,,32,209,6902404,,,,,,,2023-06-30,1,,,,,ウンナンホチョウキセンター,0
874,4290001102085,新規,0,2023-06-30,2023-06-30,株式会社うちばこや,,株式会社,福岡県,久留米市,東町１番地２９カトルズ旭１００２号,,40,203,8300032,,,,,,,2023-06-30,1,,,,,ウチバコヤ,0
875,4290001102093,新規,0,2023-06-30,2023-06-30,株式会社やさしいチカラ,,株式会社,福岡県,福岡市西区,西都１丁目１７番２８ラヴィクレール３０３号,,40,135,8190367,,,,,,,2023-06-30,1,,,,,ヤサシイチカラ,0
880,4290003014089,新規,0,2023-06-30,2023-06-30,合同会社くっきぃあん,,合同会社,福岡県,福岡市東区,高美台３丁目２０番１２号,,40,131,8110215,,,,,,,2023-06-30,1,,,,,クッキィアン,0
881,4290803004446,新規,0,2023-06-30,2023-06-30,合同会社Ｅｖｅｒ　Ｙｏｕｒｓ,,合同会社,福岡県,行橋市,中央１丁目１０番２８号トワヴェール中央２０２,,40,213,8240005,,,,,,,2023-06-30,1,,,,,エバーユアー,0
883,4320001019838,新規,0,2023-06-30,2023-06-30,中重産業株式会社,,株式会社,大分県,大分市,顕徳町１丁目１番２４号,,44,201,8700025,,,,,,,2023-06-30,1,,,,,ナカシゲサンギョウ,0
894,4380003005500,新規,0,2023-06-30,2023-06-30,ＫＥＹＴ合同会社,,合同会社,福島県,南相馬市,原町区二見町３丁目２８,,07,212,9750005,,,,,,,2023-06-30,1,,,,,キイト,0
905,4430001089416,新規,0,2023-06-30,2023-06-30,株式会社ＮＩＦＡコミュニケーションズ,,株式会社,北海道,札幌市中央区,南一条西８丁目９－１エコネットビル,,01,101,0600061,,,,,,,2023-06-30,1,,,,,ニーファコミュニケーションズ,0
907,4430003015213,新規,0,2023-06-30,2023-06-30,ポーランド研究会合同会社,,合同会社,北海道,札幌市西区,西野九条３丁目４番５号,,01,107,0630039,,,,,,,2023-06-30,1,,,,,ポーランドケンキュウカイ,0
909,4440001009281,新規,0,2023-06-30,2023-06-30,株式会社ｍａｉｔｔａ,,株式会社,北海道,函館市,上野町２７番２号,,01,202,0420954,,,,,,,2023-06-30,1,,,,,,0
911,4450001014033,新規,0,2023-06-30,2023-06-30,株式会社Ｋａｎｏｃｏ,,株式会社,北海道,上川郡当麻町,北星１区,,01,454,0781334,,,,,,,2023-06-30,1,,,,,カノコ,0
919,4500001025025,新規,0,2023-06-30,2023-06-30,株式会社ａｆｆｅｃｔｉｏｎ,,株式会社,愛媛県,松山市,祝谷２丁目４番６号,,38,201,7900833,,,,,,,2023-06-30,1,,,,,アフェクション,0
924,4700150117908,新規,0,2023-06-30,2023-06-30,ＮＡＮＷＥＩ　ＴＥＣＨＮＯＬＯＧＹ（ＨＯＮＧ　ＫＯＮＧ）ＬＩＭＩＴＥＤ,,外国会社等,,,,,,,,ＦＬＡＴ／ＲＭ　１８５，Ｇ／Ｆ　ＨＡＮＧ　ＷＡＩＩＮＤ　ＣＥＮＴＲＥ，ＮＯ　６　ＫＩＮ　ＴＡＩ　ＳＴＲＥＥＴ，ＴＵＥＮ　ＭＵＮ，ＨＯＮＧＫＯＮＧ,,,,,,2023-06-30,1,,,,,ナンウェイテクノロジーホンコンリミテッド,0
925,4700150117916,新規,0,2023-06-30,2023-06-30,Ｓｈｅｎｚｈｅｎ　Ｌａｎｊｉｎｇ　Ｔｒａｄｉｎｇ　Ｃｏ．，Ｌｔｄ．,,外国会社等,,,,,,,,Ｒｏｏｍ　４０５，Ｂｕｉｌｄｉｎｇ　２，１１１＃Ｌｉａｎｂｕ　Ｒｏａｄ，Ｓａｎｌｉａｎ　Ｃｏｍｍｕｎｉｔｙ，Ｓｈｅｎｚｈｅｎ　ＧｕａｎｇＤｏｎｇ　Ｃｈｉｎａ,,,,,,2023-06-30,1,,,,,シンセンランジントレーディングカンパニーリミテッド,0
926,4700150117924,新規,0,2023-06-30,2023-06-30,Ｓｈｉｎｓｅｎ　Ｋａｎｐｉｎ　Ｈｏｍｅ　Ｋａｂｕｓｉｋｉｋａｉｓｙａ,,外国会社等,,,,,,,,Ｒｏｏｍ　２０３，ＬｏｎｇＷｕＸｉｎＣｕｎ　Ｎｒ．４１，ＮａｎＴｏｕ　Ｓｕｂｄｉｓｔｒｉｃｔ，Ｎａｎｓｈａｎ　Ｄｉｓｔｒｉｃｔ，Ｓｈｅｎｚｈｅｎ，Ｇｕａｎｇｄｏｎｇ　Ｐｒｏｖｉｎｃｅ，Ｃｈｉｎａ,,,,,,2023-06-30,1,,,,,シンセンカンピンホームカブシキカイシャ,0
927,4700150117932,新規,0,2023-06-30,2023-06-30,ｚｈｏｎｇｓｈａｎ　ｓｈｉ　ｇｅ　ｒｕｉ　ｄｉａｎｑｉ　ｙｏｕｘｉａｎ　ｇｏｎｇｓｉ,,外国会社等,,,,,,,,ｈｅｎｇ　ｌａｎ　ｚｈｅｎ　ｙｉ　ｈｕｉ　ｂｅｉ　ｌｕ　２　ｈａｏ　Ａ　ｄｏｎｇ　１　ｌｏｕ　５ｋａ　Ｚｈｏｎｇｓｈａｎ　ｇｕａｎｇｄｏｎｇ，Ｃｈｉｎａ,,,,,,2023-06-30,1,,,,,ゾンシャンシゲルイデンキユウゲンコウシ,0
928,4700150117940,新規,0,2023-06-30,2023-06-30,ＨＯＮＧＫＯＮＧ　ＮＵＴ　ＴＥＣＨＮＯＬＯＧＹ　ＣＯ　ＬＩＭＩＴＥＤ,,外国会社等,,,,,,,,ＦＬＡＴ／ＲＭ　Ａ３，９／Ｆ　ＳＩＬＶＥＲＣＯＲＰ　ＩＮＴ’Ｌ　ＴＯＷＥＲ　７０７－７１３　ＮＡＴＨＡＮ　ＲＤ　Ｈｏｎｇｋｏｎｇ，Ｃｈｉｎａ,,,,,,2023-06-30,1,,,,,ホンコンナットテクノロジーカンパニーリミテッド,0
929,4700150117949,新規,0,2023-06-30,2023-06-30,ｙａｎｔａｉ　ｙａｘｕｎｊｉｎｇｍａｏ　ｙｏｕｘｉａｎｇｏｎｇｓｉ,,外国会社等,,,,,,,,ｚｈｉｃｈｕｎａｎｌｕｓｉｈａｏ　ｚｈｉｆｕｑｕ　ｓｈａｎｄｏｎｇ　ｓｈｅｎｇｙａｎｔａｉｓｈｉ　Ｃｈｉｎａ,,,,,,2023-06-30,1,,,,,ヤンタイヤクスンジンマオユウゲンコウシ,0
930,4700150117957,新規,0,2023-06-30,2023-06-30,ＨＥ　ＪＩＮ　ＳＨＩ　ＭＩＮ　ＳＨＵＮ　ＪＩＡＮ　ＣＡＩ　ＹＯＵ　ＸＩＡＮ　ＧＯＮＧ　ＳＩ,,外国会社等,,,,,,,,Ｓｈａｎ　Ｘｉ　Ｓｈｅｎｇ　Ｙｕｎ　Ｃｈｅｎｇ　Ｓｈｉ　Ｈｅ　Ｊｉｎ　Ｓｈｉ　Ｃｈｅｎｇ　Ｑｕ　Ｊｉｅ　Ｄａｏ　Ｂａｎ　Ｆｅｎ　Ｂｉｎ　Ｊｉｅ　Ｊｉｎ　Ｊｉａｎｇ　Ｊｉｕ　Ｄｉａｎ　Ｎａｎ　５０　Ｍｉ，Ｃｈｉｎａ,,,,,,2023-06-30,1,,,,,ヘジンシミンシュジャンチャイユウゲンコウシ,0
931,4700150117965,新規,0,2023-06-30,2023-06-30,ｓｈｅｎｚｈｅｎｓｈｉ　ａｋａｋｕｋｅｊｉ　ｙｏｕｘｉａｎｇｏｎｇｓｉ,,外国会社等,,,,,,,,ｎａｎ　ｗａｎ　ｊｉｅ　ｄａｏ　ｄａｎ　ｚｈｕ　ｔｏｕ　ｙｕａｎ　ｄｕｎ　ｘｉａｏ　ｑｕ　ｄｏｎｇ　ｓａｎ　ｘｉａｎｇ　ｓｈｅｎｚｈｅｎｓｈｉ　ｇｕａｎｇｄｏｎｇｓｈｅｎｇ，Ｃｈｉｎａ,,,,,,2023-06-30,1,,,,,シンセンシアカクケジユウゲンコウシ,0
932,4700150117973,新規,0,2023-06-30,2023-06-30,Ｘｉａｎｇｘｉａｎ　Ｋｅｊｉ　Ｓｈｅｎｚｈｅｎ　Ｙｏｕｘｉａｎｇｏｎｇｓｉ,,外国会社等,,,,,,,,ｓｈｅｎｚｈｅｎｓｈｉｑｉａｎｈａｉｓｈｅｎｇａｎｇｈｅｚｕｏｑｕｌｉｎｈａｉｄａｄａｏ５９ｈａｏｈａｉｙｕｎｚｈｏｎｇ　ｘｉｎｚｈｕｔａｌｏｕ１３ｈａｏ－１３１６８　ｓｈｅｎｚｈｅｎ　ｇｕａｎｇｄｏｎｇ，Ｃｈｉｎａ,,,,,,2023-06-30,1,,,,,シャンシャンケジシンセンユウゲンコウシ,0
933,4700150117981,新規,0,2023-06-30,2023-06-30,Ｇｕａｎｇｚｈｏｕ　ＴｏｎｇＨｕｉ　Ｔｒａｄｅ　Ｃｏ．，Ｌｔｄ．　　　　,,外国会社等,,,,,,,,Ｎａｎｓｈａｑｕｗａｎｇｊｉａｎｇｅｒｊｉｅ１ｈａｏ　ｚｈｏｎｇｈｕｉｂｉｌｏｎｇｗａｎ１１ｄｏｎｇ　１５０８ｆａｎｇ　Ｇｕａｎｇｚｈｏｕ　Ｇｕａｎｇｄｏｎｇ　Ｃｈｉｎａ,,,,,,2023-06-30,1,,,,,グァンゾォウトンホゥイトレードカンパニーリミテッド,0
934,4700150117998,新規,0,2023-06-30,2023-06-30,ｘｉａｍｅｎ　ｙｉｎｇｔｕｗａｎｇｌｕｏｋｅｊｉ　ｙｏｕｘｉａｎｇｏｎｇｓｉ,,外国会社等,,,,,,,,ｈｕｌｉｑｕ　ｈｕｌｉｄａｄａｏ８０ｈａｏ４ｈｓｈｉ　ｘｉａｍｅｎ　ｆｕｊｉａｎ，Ｃｈｉｎａ,,,,,,2023-06-30,1,,,,,シャメンインツウァンルォケジユウゲンコウシ,0
935,4700150118006,新規,0,2023-06-30,2023-06-30,Ｗｏｎｄｅｒｓ　Ｔｅｃｈ　Ｃｏ．，Ｌｔｄ．,,外国会社等,,,,,,,,Ａ４０１，Ｂｕｉｌｄｉｎｇ　３，Ｐｈａｓｅ　Ｉ．ＴｉａｎａｎＹｕｎｇｕ　Ｉｎｄｕｓｔｒｉａｌ　Ｐａｒｋ　Ｇａｎｇｔｏｕ　Ｃｏｍｍｕｎｉｔｙ，Ｂａｎｔｉａｎ　Ｓｔｒｅｅｔ，Ｌｏｎｇｇａｎｇ　Ｄｉｓｔｒｉｃｔ　ＳｈｅｎＺｈｅｎ　Ｇｕａｎｇｄｏｎｇ，Ｃｈｉｎａ,00130912,,,,,2023-06-30,1,,,,,ワンダーズテックカンパニーリミテッド,0
936,4700150118014,新規,0,2023-06-30,2023-06-30,ｃｈｕｚｈｏｕ　ｎａｉｓｉｊｉｎｃｈｕｋｏｕｍａｏｙｉ　ｙｏｕｘｉａｎｇｏｎｇｓｉ,,外国会社等,,,,,,,,ｆｅｎｇｈｕａｎｇｘｉｌｕ　４０４ｈａｏ１ｄｏｎｇ３０２ｓｈｉ　ｃｈｕｚｈｏｕｓｈｉ　ｌａｎｇｙａｑｕ　ａｎｈｕｉｓｈｅｎｇ　Ｃｈｉｎａ,,,,,,2023-06-30,1,,,,,ツゾォウナイスジンコォウマオイユウゲンコウシ,0
937,4700150118022,新規,0,2023-06-30,2023-06-30,ｎａｎｊｉｎｇ　ｂｕｘｉｆｅｉｄｉａｎｚｉｋｅｊｉ　ｙｏｕｘｉａｎｇｏｎｇｓｉ,,外国会社等,,,,,,,,ｚｈｕ　ｊｉａｎｇ　ｌｕ　３６２　ｈａｏ　ｎａｎ　ｊｉｎｇ　ｓｈｉ　ｊｉａｎｇ　ｓｕ　ｓｈｅｎｇ　ｘｕａｎ　ｗｕ　ｑｕ　ｚｈｏｎｇ　ｇｕｏ　Ｃｈｉｎａ,,,,,,2023-06-30,1,,,,,ナンジンブシフェイデェンジケジユウゲンコウシ,0
938,4700150118030,新規,0,2023-06-30,2023-06-30,Ｓｈｅｎｚｈｅｎｓｈｉ　Ｘｉａｏｙｉ　Ｗａｎｇｌｕｏｋｅｊｉ　Ｙｏｕｘｉａｎｇｏｎｇｓｉ,,外国会社等,,,,,,,,Ｌｏｎｇｈｕａｘｉｎｑｕ　Ｍｉｎｚｈｉｊｉｅｄａｏ　Ｂａｉｓｏｎｇｅｒｌｕ　Ｃｈｕａｎｇｙｅｈｕａｙｕａｎ１５７，Ｓｈｅｎｚｈｅｎｓｈｉ，Ｇｕａｎｇｄｏｎｇ，５１８０００，ＣＮ,,,,,,2023-06-30,1,,,,,シンセンシギヨウヨクモウラクユウゲンコウシ,0
946,5010001236496,新規,0,2023-06-30,2023-06-30,サイボウズ・コネクトシー株式会社,,株式会社,東京都,中央区,日本橋２丁目７番１号,,13,102,1030027,,,,,,,2023-06-30,1,,,,,サイボウズコネクトシー,0
947,5010001236513,新規,0,2023-06-30,2023-06-30,Ａｘｉｏｓ　Ｆｉｎａｎｃｉａｌ　Ｔｅｃｈｎｏｌｏｇｉｅｓ株式会社,,株式会社,東京都,中央区,銀座７丁目１３番２０号銀座ＴＨビル９階,,13,102,1040061,,,,,,,2023-06-30,1,,,,,アクシオスフィナンシャルテクノロジーズ,0
949,5010003040995,新規,0,2023-06-30,2023-06-30,ＬＥＶＥＣＨＹファンド３号合同会社,,合同会社,東京都,千代田区,紀尾井町３－８第２紀尾井町ビル９０１アクシス綜合会計事務所内,,13,101,1020094,,,,,,,2023-06-30,1,,,,,レベチーファンドサンゴウ,0
950,5010003041003,新規,0,2023-06-30,2023-06-30,ソーラーキャロット合同会社,,合同会社,東京都,千代田区,九段南３丁目７番７号成和綜合会計事務所内,,13,101,1020074,,,,,,,2023-06-30,1,,,,,ソーラーキャロット,0
958,5010401175278,新規,0,2023-06-30,2023-06-30,株式会社ＢＩＯＲＹ,,株式会社,東京都,港区,赤坂９丁目４番１号パークコート赤坂檜町ザ・タワー１３０１,,13,103,1070052,,,,,,,2023-06-30,1,,,,,ビオリー,0
960,5010403030407,新規,0,2023-06-30,2023-06-30,合同会社ＧＫ０６９,,合同会社,東京都,港区,虎ノ門３丁目２２番１０－２０１号,,13,103,1050001,,,,,,,2023-06-30,1,,,,,ジーケイゼロシックスナイン,0
961,5010405022286,新規,0,2023-06-30,2023-06-30,一般社団法人ＳＨ０６８,,その他の設立登記法人,東京都,港区,虎ノ門３丁目２２番１０－２０１号,,13,103,1050001,,,,,,,2023-06-30,1,,,,,エスエイチゼロシックスエイト,0
963,5010603010225,新規,0,2023-06-30,2023-06-30,合同会社ＢＡＲＣＯＤＥ,,合同会社,東京都,江東区,新木場１丁目８番２０号,,13,108,1360082,,,,,,,2023-06-30,1,,,,,バーコード,0
970,5010701044496,新規,0,2023-06-30,2023-06-30,日東組株式会社,,株式会社,東京都,品川区,小山４丁目９番１２号,,13,109,1420062,,,,,,,2023-06-30,1,,,,,ニットウグミ,0
971,5010901053314,新規,0,2023-06-30,2023-06-30,株式会社ホームキーパー,,株式会社,東京都,世田谷区,赤堤１丁目７番５号,,13,112,1560044,,,,,,,2023-06-30,1,,,,,ホームキーパー,0
972,5010903008282,新規,0,2023-06-30,2023-06-30,合同会社ＥＡＣＨ　ＳＴＯＲＹ実行委員会,,合同会社,東京都,世田谷区,宮坂２丁目２５－１ＨＩＲＡＹＡＧＯＴＯＫＵＪＩ,,13,112,1560051,,,,,,,2023-06-30,1,,,,,イーチストーリージッコウイインカイ,0
978,5011001155380,新規,0,2023-06-30,2023-06-30,株式会社健康寿命アドバンス,,株式会社,東京都,渋谷区,神宮前３丁目４－５－３Ｆ,,13,113,1500001,,,,,,,2023-06-30,1,,,,,ケンコウジュミョウアドバンス,0
980,5011003017083,新規,0,2023-06-30,2023-06-30,合同会社ｎｕｎｃ．,,合同会社,東京都,目黒区,上目黒４丁目３３番１９号上目黒ガーデン２０１,,13,110,1530051,,,,,,,2023-06-30,1,,,,,ヌンク,0
987,5011303004814,新規,0,2023-06-30,2023-06-30,リィンカーネーション合同会社,,合同会社,東京都,杉並区,西荻北５丁目２５番１３号ライオンズマンション５０１,,13,115,1670042,,,,,,,2023-06-30,1,,,,,リィンカーネーション,0
991,5011403004037,新規,0,2023-06-30,2023-06-30,合同会社大和,,合同会社,東京都,板橋区,南常盤台２丁目９番６－２０１号,,13,119,1740072,,,,,,,2023-06-30,1,,,,,ダイワ,0
997,5011703003515,新規,0,2023-06-30,2023-06-30,合同会社秋葉,,合同会社,東京都,江戸川区,江戸川３丁目９番地１５,,13,123,1320013,,,,,,,2023-06-30,1,,,,,アキバ,0
999,5011801042638,新規,0,2023-06-30,2023-06-30,株式会社旅画,,株式会社,東京都,足立区,東和２丁目２１－２－３Ｆ,,13,121,1200003,,,,,,,2023-06-30,1,,,,,リョカク,0
1000,5012303001842,新規,0,2023-06-30,2023-06-30,合同会社ＯＦＦＩＣＥ　ＨＡＺＵＫＩ,,合同会社,東京都,町田市,相原町２９６３番地,,13,209,1940211,,,,,,,2023-06-30,1,,,,,オフィスハヅキ,0
1008,5012801022480,新規,0,2023-06-30,2023-06-30,株式会社Ｊｏｂ　Ｂｒｏｔｈｅｒｓ,,株式会社,東京都,国分寺市,東恋ヶ窪１丁目２８０番地４ザ・パークハウス国分寺四季の森ＩＩ－１０５,00131021,13,214,1850014,,,,,,,2023-06-30,1,,,,,ジョブブラザーズ,0
1018,5013303006690,新規,0,2023-06-30,2023-06-30,合同会社ＨＯ,,合同会社,東京都,豊島区,雑司が谷３丁目１番５号目白アビタシオン１０５号,,13,116,1710032,,,,,,,2023-06-30,1,,,,,エイチオー,0
1026,5020001152222,新規,0,2023-06-30,2023-06-30,株式会社Ｓｉｍｐｒａｙ,,株式会社,神奈川県,川崎市中原区,新丸子東３丁目１３０１Ｇ１４１２,,14,133,2110004,,,,,,,2023-06-30,1,,,,,シンプレイ,0
1027,5020001152288,新規,0,2023-06-30,2023-06-30,株式会社海川,,株式会社,神奈川県,横浜市磯子区,森１丁目１３番３－１３０１号,,14,107,2350023,,,,,,,2023-06-30,1,,,,,ウミカワ,0
1034,5021001079447,新規,0,2023-06-30,2023-06-30,エグゼヴィータ株式会社,,株式会社,神奈川県,鎌倉市,大町１丁目９番２２号,,14,204,2480007,,,,,,,2023-06-30,1,,,,,エグゼヴィータ,0
1044,5040003022883,新規,0,2023-06-30,2023-06-30,合同会社ＳｔｅｐＬｉｎｋ,,合同会社,千葉県,船橋市,三咲６丁目３４番１２号,,12,204,2740812,,,,,,,2023-06-30,1,,,,,ステップリンク,0
1046,5050003007611,新規,0,2023-06-30,2023-06-30,ＭＡＬＩＫ　ＴＲＡＤＩＮＧ合同会社,,合同会社,茨城県,古河市,尾崎３４７５－１０,,08,204,3060101,,,,,,,2023-06-30,1,,,,,マリックトレーディング,0
1052,5070001040579,新規,0,2023-06-30,2023-06-30,塚越工業株式会社,,株式会社,群馬県,前橋市,下新田町５２２番地１グラン・シャリオ２０３号,,10,201,3710822,,,,,,,2023-06-30,1,,,,,ツカゴシコウギョウ,0
1069,5120001256062,新規,0,2023-06-30,2023-06-30,智宇株式会社,,株式会社,大阪府,大阪市西成区,長橋１丁目５－７－３０６,,27,122,5570025,,,,,,,2023-06-30,1,,,,,チウ,0
1070,5120001256095,新規,0,2023-06-30,2023-06-30,ケーエスセキュリティ株式会社,,株式会社,大阪府,大阪市東住吉区,針中野２丁目１２番９号,,27,121,5460011,,,,,,,2023-06-30,1,,,,,ケーエスセキュリティ,0
1071,5120001256112,新規,0,2023-06-30,2023-06-30,Ｔｏｈｏ　Ａｄｖｉｓｏｒｓ株式会社,,株式会社,大阪府,大阪市西区,南堀江４丁目３－１９－３０６,,27,106,5500015,,,,,,,2023-06-30,1,,,,,トウホウアドバイザーズ,0
1073,5120003024392,新規,0,2023-06-30,2023-06-30,合同会社縁甚,,合同会社,大阪府,大阪市中央区,東心斎橋２丁目７番３１号プロスパービル八幡筋３Ｆ,,27,128,5420083,,,,,,,2023-06-30,1,,,,,エンジン,0
1081,5122001037120,新規,0,2023-06-30,2023-06-30,株式会社ＫＡＮＳＨＯＫＵ,,株式会社,大阪府,東大阪市,大蓮東４丁目６番２９号,,27,227,5770824,,,,,,,2023-06-30,1,,,,,カンショク,0
1085,5130001074620,新規,0,2023-06-30,2023-06-30,株式会社ヴァーデメーカム,,株式会社,京都府,京都市中京区,亀屋町４０５,,26,104,6048253,,,,,,,2023-06-30,1,,,,,ヴァーデメーカム,0
1088,5130003008816,新規,0,2023-06-30,2023-06-30,合同会社ＲＥＳ企画,,合同会社,京都府,福知山市,字長田４５９番地の１８３,,26,201,6200000,,,,,,,2023-06-30,1,,,,,アールイーエスキカク,0
1109,5220001025481,新規,0,2023-06-30,2023-06-30,株式会社Ｐｒｅｍｉｅｒ,,株式会社,石川県,金沢市,芳斉１丁目５番１９号,,17,201,9200862,,,,,,,2023-06-30,1,,,,,プレミア,0
1121,5290001102101,新規,0,2023-06-30,2023-06-30,株式会社エレノア,,株式会社,福岡県,福岡市博多区,中洲３丁目１番２号川丈ビル２Ｆ・Ｃ室,,40,132,8100801,,,,,,,2023-06-30,1,,,,,エレノア,0
1122,5290003014071,新規,0,2023-06-30,2023-06-30,合同会社Ｋ‐ＬＩＮＫ,,合同会社,福岡県,久留米市,梅満町９２５‐１ジョグ六ツ門南１０６号室,,40,203,8300048,,,,,,,2023-06-30,1,,,,,ケイリンク,0
1135,5360001032209,新規,0,2023-06-30,2023-06-30,株式会社アドバイス,,株式会社,沖縄県,那覇市,山下町８番７号,,47,201,9000027,,,,,,,2023-06-30,1,,,,,アドバイス,0
1138,5370001050119,新規,0,2023-06-30,2023-06-30,アフィニティリンク株式会社,,株式会社,宮城県,仙台市泉区,泉ケ丘１丁目２１番２３号,,04,105,9813201,,,,,,,2023-06-30,1,,,,,アフィニティリンク,0
1153,5700150117394,新規,0,2023-06-30,2023-06-30,ＡＵＭＥＤＩ　ＴＥＣＨＮＯＬＯＧＹ　ＨＯＮＧ　ＫＯＮＧ　ＬＩＭＩＴＥＤ,,外国会社等,,,,,,,,ＢＬＤＧ　ＮＯ　３　ＨＩＮＧ　ＷＯＮＧ　ＳＴ　ＴＵＥＮ，ＭＵＮ　ＮＴ　ＲＭ　２１　ＵＮＩＴ　Ａ　１１／Ｆ　ＴＩＮ　ＷＵＩ　ＩＮＤ　ＨＯＮＧＫＯＮＧ,,,,,,2023-06-30,1,,,,,オウメディテクノロジーホンコンリミテッド,0
1154,5700150117915,新規,0,2023-06-30,2023-06-30,ＳＨＥＮＺＨＥＮ　ＬＩＦＡＮ　ＭＡＯ　ＹＩ　ＹＯＵ　ＸＩＡＮ　ＧＯＮＧ　ＳＩ,,外国会社等,,,,,,,,ｓｈｅｎｚｈｅｎｓｈｉ　ｌｏｎｇｈｕａｑｕ　ｄａｌａｎｇｊｉｅｄａｏ　ｈｅｎｇｌａｎｇｓｈｅｑｕ　ｈｕａｘｉｎｇｌｕ１３ｈａｏ　ｚｈｏｎｇｊｉａｎｋｅｊｉｙｕａｎ　ｚｈｏｎｇｘｉｎｇｙｕａｎ　Ａ２５０１　Ｃｈｉｎａ,,,,,,2023-06-30,1,,,,,シンセンリファンマオイユウゲンコウシ,0
1155,5700150117923,新規,0,2023-06-30,2023-06-30,Ｘｉａｍｅｎ　Ｌｉｅｋｏｎｇ　Ｗａｎｇｌｕｏ　Ｋｅｊｉ　Ｃｏ．，Ｌｔｄ,,外国会社等,,,,,,,,１３０１，Ｂｕｉｌｄｉｎｇ　３０，Ｏｕｃｕｏｘｉｌｉ，Ｘｉａｎｇ’ａｎ　Ｄｉｓｔｒｉｃｔ，Ｘｉａｍｅｎ　Ｃｉｔｙ，Ｆｕｊｉａｎ　Ｐｒｏｖｉｎｃｅ　Ｃｈｉｎａ,,,,,,2023-06-30,1,,,,,シャーメンリエコンワングルオケジカンパニーリミテッド,0
1156,5700150117931,新規,0,2023-06-30,2023-06-30,ＨＡＤＡＫＥＪＩ　ＳＨＥＮＺＨＥＮ　ＹＯＵＸＩＡＮＧＯＮＧＳＩ,,外国会社等,,,,,,,,ＨＡＩＣＨＥＮＧ　ＲＯＡＤ　ＸＩＸＩＡＮＧ　ＳＴＲＥＥＴ　ＢＡＯ　ＡＮ　ＤＩＳＴＲＩＣＴ　ＳＨＥＮＺＨＥＮ　ＣＨＩＮＡ　２７０９　ＱＩＡＮＣＨＥＮＧ　ＣＥＮＴＥＲ，ＣＨＩＮＡ,,,,,,2023-06-30,1,,,,,ハダケジシンセンユウゲンコウシ,0
1157,5700150117948,新規,0,2023-06-30,2023-06-30,Ｓｈｅｎ　ｚｈｅｎ　Ｔｅｎｆｅｌ　Ｔｅｃｈｎｏｌｏｇｙ　Ｃｏ．，Ｌｔｄ,,外国会社等,,,,,,,,０２０４８　Ｌｏｎｇｇａｎｇ　Ａｖｅｎｕｅ　Ｍｉｎｇｃｈｅｎｇ　Ｉｎｔｅｒｎａｔｉｏｎａｌ　Ｐｌａｚａ　Ｍａｏｙｅ　Ｃｏｍｍｕｎｉｔｙ，Ｂｕｊｉ　Ｓｔｒｅｅｔ，Ｌｏｎｇｇａｎｇ　Ｄｉｓｔｒｉｃｔ，Ｓｈｅｎｚｈｅｎ　Ｇｕａｎｇｄｏｎｇ，Ｃｈｉｎａ,,,,,,2023-06-30,1,,,,,シンセンテンフェルテクノロジーカンパニーリミテッド,0
1158,5700150117956,新規,0,2023-06-30,2023-06-30,Ｑｕａｎｚｈｏｕ　Ｄａｙｔｅｃｈ　Ｅｌｅｃｔｒｏｎｉｃｓ　Ｃｏ．，Ｌｔｄ．,,外国会社等,,,,,,,,Ｒｏｏｍ　４０２，Ｂｕｉｌｄｉｎｇ　５，Ｈｅｎｇｄａｌｉ　Ｂｕｓｉｎｅｓｓ　Ｃｅｎｔｅｒ，Ｗｕｔａｎ　Ｃｈｉｄｉ　Ｑｕａｎｚｈｏｕ　Ｆｕｊｉａｎ　Ｃｈｉｎａ,,,,,,2023-06-30,1,,,,,カンジョウデイテックエレクトロニクスカンパニーリミテッド,0
1159,5700150117964,新規,0,2023-06-30,2023-06-30,ＸｉｎＸｉａｎｇＳｈｉ　ＣｈｅｎＺｈｉＮｉｎｇＳｈａｎｇＭａｏ　ＹｏｕＸｉａｎＧｏｎｇＳｉ,,外国会社等,,,,,,,,Ｈｅｐｉｎｇｌｕｇｕａｎｇｃａｉｄａｓｈｉｊｉｅ，Ｄｑｕ３１ｄｏｎｇ１９ｈａｏ，Ｘｉｎｘｉａｎｇｓｈｉ，Ｗｅｉｂｉｎｑｕ，Ｈｅｎａｎｓｈｅｎｇ，Ｃｈｉｎａ,,,,,,2023-06-30,1,,,,,シンシャンシチェンジニンシャンマオユウゲンコウシ,0
1160,5700150117972,新規,0,2023-06-30,2023-06-30,ＧｕａｎｇＺｈｏｕＳｈｉ　ＦａＤｉＹａＪｉｎＳｈｕＺｈｉＰｉｎ　ＹｏｕＸｉａｎＧｏｎｇＳｉ,,外国会社等,,,,,,,,ＰａｎＹｕＱｕＤａＬｏｎｇＪｉｅＢａｎｇＪｉａｎｇＤｏｎｇＣｕｎＪｉａｎｇＣｈｅｎｇＬｕ２４ＨａｏＺｈｉ８Ｆａｎｇ　ＧｕａｎｇＺｈｏｕ　ＧｕａｎｇＤｏｎｇ，Ｃｈｉｎａ,,,,,,2023-06-30,1,,,,,ゴンジョウシファディヤジンシュジピンユウゲンコウシ,0
1161,5700150117980,新規,0,2023-06-30,2023-06-30,Ｇｕａｎｇｚｈｏｕｓｈｉ　Ｓａｎｋｅｓｈｕ　Ｋｅｊｉ　Ｙｏｕｘｉａｎｇｏｎｇｓｉ,,外国会社等,,,,,,,,Ｃｈｉｎａ　ｇｕａｎｇｚｈｏｕｓｈｉｙｕｅｘｉｕｑｕｄｏｎｇｆｅｎｇｄｏｎｇｌｕ８３６ｈａｏｙｉｚｕｏ２００３ｓｈｉ－Ａ４５６（ｊｉｑｕｎｚｈｕｃｅ）　　　,,,,,,2023-06-30,1,,,,,ゴンジョウシサンケシュケジユウゲンコウシ,0
1162,5700150117989,新規,0,2023-06-30,2023-06-30,ＹＯＮＧＫＡＮＧ　ＢＥＮＬＥ　ＴＲＡＤＩＮＧ　ＣＯ．，ＬＴＤ．,,外国会社等,,,,,,,,ＮＯ．２８　ＪＩＮＪＩ　ＲＯＡＤ　ＸＩＡＮＧＺＨＵ　ＩＮＤＵＳＴＲＩＡＬ　ＺＯＮＥ　ＹＯＮＧＫＡＮＧ　ＺＨＥＪＩＡＮＧ，ＣＨＩＮＡ,,,,,,2023-06-30,1,,,,,ヨンカンベンレトレーディンクカンパニーリミテッド,0
1163,5700150117997,新規,0,2023-06-30,2023-06-30,Ｓｕ　Ｚｈｏｕ　ＥＯ－ＵＰ　Ｔｒａｄｅ　Ｃｏ．，Ｌｔｄ,,外国会社等,,,,,,,,３－１３０２，Ｓｕ　Ｚｈｏｕ　Ｓｈｉ　Ｇｕ　Ｓｕ　Ｑｕ　Ｘｉ　Ｈｕａｎ　Ｌｕ　３１０８　Ｈａｏ　Ｓｕ　Ｚｈｏｕ　Ｊｉａｎｇ　Ｓｕ，Ｃｈｉｎａ,,,,,,2023-06-30,1,,,,,スズォウイオーアップトレードカブシキカイシャ,0
1164,5700150118005,新規,0,2023-06-30,2023-06-30,Ｓｈｅｎｚｈｅｎ　Ｇｕａｎｇｍａｉｄａ　Ｅ－ｃｏｍｍｅｒｃｅ　Ｃｏ．，　Ｌｔｄ．,,外国会社等,,,,,,,,Ｕｎｉｔ　１　１０Ｂ，Ｂｕｉｌｄｉｎｇ　６，Ｏｒｉｅｎｔａｌ　Ｇａｒｄｅｎ　Ｌｏｎｇｆｕ　Ｗｅｓｔ　Ｒｏａｄ，Ｌｏｎｇｃｈｅｎｇ　Ｓｔｒｅｅｔ，Ｌｏｎｇｇａｎｇ　Ｄｉｓｔｒ　Ｓｈｅｎｚｈｅｎ　Ｇｕａｎｇｄｏｎｇ，Ｃｈｉｎａ,,,,,,2023-06-30,1,,,,,シンセングァンマイダイーコマースカンパニーリミテッド,0
1165,5700150118013,新規,0,2023-06-30,2023-06-30,Ｓｈｅｎｚｈｅｎ　Ｚｈｅｎｔｕｏ　Ｔｅｃｈｎｏｌｏｇｙ　Ｃｏ．，Ｌｔｄ．,,外国会社等,,,,,,,,Ｆｕｔｉａｎｑｕ　ＦｕｈｕａｓａｎｌｕＹｕＪｉｎｔｉａｎｌｕｊｉａｏｊｉｅ　Ｚｈｕｏｙｕｅｓｈｉｊｉ　ｚｈｏｎｇｘｉｎ　Ｈｕａｎｇｇａｎｇｓｈａｎｇｗｕｚｈｏｎｇｘｉｎ　３　ｈａｏ　ｌｏｕ　２９０７　Ｓｈｅｎｚｈｅｎ　Ｇｕａｎｇｄｏｎｇｓｈｅｎｇ，Ｃｈｉｎａ,,,,,,2023-06-30,1,,,,,シンセンゼントォウテクノロジーカンパニーリミテッド,0
1166,5700150118021,新規,0,2023-06-30,2023-06-30,ｓｈｅｎｚｈｅｎｓｈｉ　ｎｉｕｙｅ　ｋｅｊｉ　ｙｏｕｘｉａｎｇｏｎｇｓｉ,,外国会社等,,,,,,,,ｎａｎｓｈａｎｑｕ　ｔａｏｙｕａｎｊｉｅｄａｏ　ｐｉｎｇｓｈａｎｓｈｅｑｕ　ｌｉａｎｘｉａｎｄａｄａｏ４１０９ｈａｏ　ｃｈｕａｎｇｋｅｘｉａｏｚｈｅｎ　１５ｄｏｎｇ　２ｃｅｎｇ　ｓｈｅｎｚｈｅｎｓｈｉ　Ｇｕａｎｇｄｏｎｇ　Ｃｈｉｎａ,,,,,,2023-06-30,1,,,,,シンセンシニュイェケジユウゲンコウシ,0
1173,6010001236504,新規,0,2023-06-30,2023-06-30,株式会社ＳＹＨ,,株式会社,東京都,中央区,銀座１丁目１３番６号Ｄａｉｗａプレイス銀座ＩＶ３階,00131018,13,102,1040061,,,,,,,2023-06-30,1,,,,,エスワイエイチ,0
1174,6010001236512,新規,0,2023-06-30,2023-06-30,株式会社ＭＥＤＩＡＴＩＯＮ,,株式会社,東京都,千代田区,神田和泉町１番地６－１６ヤマトビル４０５,,13,101,1010024,,,,,,,2023-06-30,1,,,,,メディエーション,0
1178,6010003041002,新規,0,2023-06-30,2023-06-30,ソーラーアップル合同会社,,合同会社,東京都,千代田区,九段南３丁目７番７号成和綜合会計事務所内,,13,101,1020074,,,,,,,2023-06-30,1,,,,,ソーラーアップル,0
1186,6010401175293,新規,0,2023-06-30,2023-06-30,ＨＩＯＮ株式会社,,株式会社,東京都,港区,赤坂２丁目８番１４－５０４号,,13,103,1070052,,,,,,,2023-06-30,1,,,,,ハイオン,0
1187,6010401175335,新規,0,2023-06-30,2023-06-30,株式会社ＰＥＲＦＥＣＴ,,株式会社,東京都,港区,虎ノ門４丁目１－１神谷町トラストタワー２３Ｆ,,13,103,1050001,,,,,,,2023-06-30,1,,,,,パーフェクト,0
1188,6010401175351,新規,0,2023-06-30,2023-06-30,株式会社ａｃｃｅｌｃｏｒｅ,,株式会社,東京都,港区,赤坂３丁目２１－１７ＡＳＫ赤坂ビル７階,,13,103,1070052,,,,,,,2023-06-30,1,,,,,アクセルコア,0
1189,6010403030406,新規,0,2023-06-30,2023-06-30,合同会社ＧＫ０６８,,合同会社,東京都,港区,虎ノ門３丁目２２番１０－２０１号,,13,103,1050001,,,,,,,2023-06-30,1,,,,,ジーケイゼロシックスエイト,0
1192,6010501050685,新規,0,2023-06-30,2023-06-30,株式会社ｉｍｐａｃｔ　ｆｏｏｄ,,株式会社,東京都,台東区,寿１丁目１１番１９－６０５号,,13,106,1110042,,,,,,,2023-06-30,1,,,,,インパクトフード,0
1195,6010601063348,新規,0,2023-06-30,2023-06-30,一誠株式会社,,株式会社,東京都,江東区,亀戸５丁目２５－９金沐莊１０１,,13,108,1360071,,,,,,,2023-06-30,1,,,,,イッセイ,0
1199,6010701044495,新規,0,2023-06-30,2023-06-30,Ｍｉｃｈｅｌｌｅ．株式会社,,株式会社,東京都,品川区,東五反田２丁目８－５ＫＮビル５Ｆ,,13,109,1410022,,,,,,,2023-06-30,1,,,,,ミシェル,0
1204,6011001155339,新規,0,2023-06-30,2023-06-30,株式会社ＩｍｐｒｅｓｓａＥｎｔｅｒｔａｉｎｍｅｎｔ,,株式会社,東京都,目黒区,上目黒３丁目１－１０ヴェルデナポリ２０３,,13,110,1530051,,,,,,,2023-06-30,1,,,,,インプレッサエンターテイメント,0
1205,6011001155388,新規,0,2023-06-30,2023-06-30,ＴｈａｎｋｓＷｏｒｋｓ株式会社,,株式会社,東京都,渋谷区,神山町７番８号,,13,113,1500047,,,,,,,2023-06-30,1,,,,,サンクスワークス,0
1208,6011105010704,新規,0,2023-06-30,2023-06-30,一般社団法人ＣＷＪグループ,,その他の設立登記法人,東京都,新宿区,余丁町１４番２５－４０８号,,13,104,1620055,,,,,,,2023-06-30,1,,,,,,0
1212,6011503005669,新規,0,2023-06-30,2023-06-30,ＮＷＴ合同会社,,合同会社,東京都,荒川区,東日暮里１丁目２７番４号ＣＡＳＡ８８１０１号室,,13,118,1160014,,,,,,,2023-06-30,1,,,,,エヌダブリューティー,0
1215,6011703003514,新規,0,2023-06-30,2023-06-30,合同会社カメリア,,合同会社,東京都,江戸川区,鹿骨２丁目４２番１７－４０１号,,13,123,1330073,,,,,,,2023-06-30,1,,,,,カメリア,0
1216,6011801042637,新規,0,2023-06-30,2023-06-30,Ｔｈｅ　ｐｒｏｍｉｓｅｄ　Ｌａｎｄ株式会社,,株式会社,東京都,足立区,小台１丁目６番１９号,,13,121,1200046,,,,,,,2023-06-30,1,,,,,ザプロミスドランド,0
1218,6012701017720,新規,0,2023-06-30,2023-06-30,株式会社ＤＩＲＥＣＴＩＯＮ,,株式会社,東京都,東村山市,久米川町５丁目２０番地２９久米川ハイツ１階,,13,213,1890003,,,,,,,2023-06-30,1,,,,,ディレクション,0
1232,6020003024096,新規,0,2023-06-30,2023-06-30,合同会社ＳＰＷ,,合同会社,神奈川県,横浜市西区,浅間町１丁目４番３号ウィザードビル４０２,,14,103,2200072,,,,,,,2023-06-30,1,,,,,スプラプロスパーウェルネス,0
1244,6030003022058,新規,0,2023-06-30,2023-06-30,合同会社ＰＳＭ,,合同会社,埼玉県,川口市,朝日２丁目２番８号,,11,203,3320001,,,,,,,2023-06-30,1,,,,,ピーエスエム,0
1251,6040001129028,新規,0,2023-06-30,2023-06-30,バワナ株式会社,,株式会社,千葉県,千葉市花見川区,花園１丁目７－２第８花園ビル３０４号,,12,102,2620025,,,,,,,2023-06-30,1,,,,,バワナ,0
1252,6040001129036,新規,0,2023-06-30,2023-06-30,株式会社ＬＵＣＥ,,株式会社,千葉県,我孫子市,下ケ戸６０５番地の９,,12,222,2701138,,,,,,,2023-06-30,1,,,,,ルーチェ,0
1255,6050001053037,新規,0,2023-06-30,2023-06-30,株式会社匠グループ,,株式会社,茨城県,久慈郡大子町,大字頃藤５１４９番地１,,08,364,3193361,,,,,,,2023-06-30,1,,,,,タクミグループ,0
1256,6050003007585,新規,0,2023-06-30,2023-06-30,合同会社ＴＳＵＭＵＧＩ,,合同会社,茨城県,水戸市,堀町２０９２番地の１３シャーメゾンＲ＆Ｙ・Ｂ棟１０３号,,08,201,3100903,,,,,,,2023-06-30,1,,,,,ツムギ,0
1268,6080103002839,新規,0,2023-06-30,2023-06-30,合同会社Ｕｐ　ｄｒａｆｔ,,合同会社,静岡県,三島市,文教町２丁目１４番３３号,,22,206,4110033,,,,,,,2023-06-30,1,,,,,アップドラフト,0
1282,6120001256061,新規,0,2023-06-30,2023-06-30,百＿株式会社,00131022,株式会社,大阪府,大阪市西成区,北開１丁目１－２２,,27,122,5570021,,,,,,,2023-06-30,1,,,,,ヒャッキン,0
1283,6120001256111,新規,0,2023-06-30,2023-06-30,株式会社ＪＡＹ,,株式会社,大阪府,大阪市東成区,東小橋３丁目１５番１号２ＦＡ,,27,115,5370024,,,,,,,2023-06-30,1,,,,,ジェイ,0
1284,6120001256152,新規,0,2023-06-30,2023-06-30,株式会社Ｓｏａｒ,,株式会社,大阪府,大阪市平野区,瓜破東２丁目５‐７６,,27,126,5470022,,,,,,,2023-06-30,1,,,,,ソアー,0
1288,6120003024400,新規,0,2023-06-30,2023-06-30,Ｒｕｂｙ　Ｇｒｏｕｐ合同会社,,合同会社,大阪府,大阪市浪速区,戎本町１丁目４－１６－４０２号,,27,111,5560013,,,,,,,2023-06-30,1,,,,,ルビーグループ,0
1295,6120101067805,新規,0,2023-06-30,2023-06-30,株式会社ｅｎｖｏｇｕｅ,,株式会社,大阪府,藤井寺市,御舟町３－３４－１０２,,27,226,5830021,,,,,,,2023-06-30,1,,,,,アンヴォーグ,0
1300,6120901047725,新規,0,2023-06-30,2023-06-30,株式会社佐野商店,,株式会社,大阪府,箕面市,小野原西５丁目７番２４号,,27,220,5620032,,,,,,,2023-06-30,1,,,,,サノショウテン,0
1302,6130001074603,新規,0,2023-06-30,2023-06-30,龍行商事株式会社,,株式会社,京都府,京都市伏見区,深草西浦町２丁目９９番地コーポフローラ２０５号室,,26,109,6120029,,,,,,,2023-06-30,1,,,,,リュウコウショウジ,0
1308,6140001130660,新規,0,2023-06-30,2023-06-30,株式会社カイトホーム,,株式会社,兵庫県,西宮市,甲子園口４丁目２１番２５号レイアーク甲子園４０１,,28,204,6638113,,,,,,,2023-06-30,1,,,,,カイトホーム,0
1314,6140005026673,新規,0,2023-06-30,2023-06-30,一般社団法人個人事業主支援協会,,その他の設立登記法人,兵庫県,芦屋市,楠町５番３－３０４号,,28,206,6590015,,,,,,,2023-06-30,1,,,,,コジンジギョウヌシシエンキョウカイ,0
1324,6180003025426,新規,0,2023-06-30,2023-06-30,合同会社ハートアンダーブレード,,合同会社,愛知県,瀬戸市,薬師町５０番地の４シティパレス瀬戸１１０２号,,23,204,4890821,,,,,,,2023-06-30,1,,,,,ハートアンダーブレード,0
1326,6190001030534,新規,0,2023-06-30,2023-06-30,株式会社レアレア,,株式会社,三重県,四日市市,曽井町１６２１番地１,,24,202,5120922,,,,,,,2023-06-30,1,,,,,レアレア,0
1332,6250001020165,新規,0,2023-06-30,2023-06-30,株式会社３Ｌｉｎｋ,,株式会社,山口県,周南市,東山町１番１７号,,35,215,7450846,,,,,,,2023-06-30,1,,,,,スリーリンク,0
1333,6250003003300,新規,0,2023-06-30,2023-06-30,合同会社稲妻商会,,合同会社,山口県,周南市,泉原町１－３－１,,35,215,7450833,,,,,,,2023-06-30,1,,,,,イナズマショウカイ,0
1336,6290001102067,新規,0,2023-06-30,2023-06-30,株式会社Ｌｉｂ　ＴＥＣＨ,,株式会社,福岡県,福岡市中央区,小笹３丁目５番１６－７０２号,,40,133,8100033,,,,,,,2023-06-30,1,,,,,リブテック,0
1337,6290001102100,新規,0,2023-06-30,2023-06-30,株式会社ＲＩＲＹ　ＤＥＳＩＧＮ,,株式会社,福岡県,八女郡広川町,大字長延８３０,,40,544,8340105,,,,,,,2023-06-30,1,,,,,リリーデザイン,0
1338,6290001102109,新規,0,2023-06-30,2023-06-30,株式会社ＫＴＭ,,株式会社,福岡県,福岡市博多区,井相田３丁目２１番１１号,,40,132,8120881,,,,,,,2023-06-30,1,,,,,ケイティエム,0
1356,6360001032216,新規,0,2023-06-30,2023-06-30,株式会社ＲＳ設備,,株式会社,沖縄県,那覇市,宇栄原４丁目４－２５番地１Ｆ２号室,,47,201,9010153,,,,,,,2023-06-30,1,,,,,アールエスセツビ,0
1360,6370001050118,新規,0,2023-06-30,2023-06-30,丹野建設工業株式会社,,株式会社,宮城県,名取市,高柳字圭田３１２番地の１,,04,207,9811211,,,,,,,2023-06-30,1,,,,,タンノケンセツコウギョウ,0
1363,6380003005498,新規,0,2023-06-30,2023-06-30,合同会社ｍｉｎｏｒｉ,,合同会社,福島県,南会津郡南会津町,穴原３６５,,07,368,9670341,,,,,,,2023-06-30,1,,,,,ミノリ,0
1375,6470001019664,新規,0,2023-06-30,2023-06-30,株式会社塩飽Ｆｉｓｈｅｒｉｅｓ,,株式会社,香川県,丸亀市,本島町小阪１２９０,,37,202,7630224,,,,,,,2023-06-30,1,,,,,シワクフィッシャリーズ,0
1376,6470001019680,新規,0,2023-06-30,2023-06-30,株式会社ライトバックス,,株式会社,香川県,丸亀市,土器町東７丁目８７７番地,,37,202,7630082,,,,,,,2023-06-30,1,,,,,ライトバックス,0
1386,6700150115604,新規,0,2023-06-30,2023-06-30,杭州西坤貿易有限公司,,外国会社等,,,,,,,,中国浙江省杭州市拱墅区万広匯商務中心２幢１７０６室－２,,,,,,2023-06-30,1,,,,,コウシュウセイコンボウエキユウゲンコウシ,0
1387,6700150117914,新規,0,2023-06-30,2023-06-30,Ｓｈｅｎｚｈｅｎ　Ｅｎｇｅｔｅ　Ｄｉａｎｚｉｋｅｊｉ　Ｙｏｕｘｉａｎｇｏｎｇｓｉ,,外国会社等,,,,,,,,Ｅ２０７　ｈｅｄｏｎｇ　ｍａｎｓｉｏｎ　ｈａｏｙｕｎｌａｉ　ｓｑｕａｒｅ　ｘｉｘｉａｎｇ　ｒｏａｄ　ｂａｏａｎ　ａｒｅａ　Ｓｈｅｎｚｈｅｎ　Ｇｕａｎｇｄｏｎｇ　Ｃｈｉｎａ,,,,,,2023-06-30,1,,,,,シンセンエンゲテデンシケジユウゲンコウシ,0
1388,6700150117922,新規,0,2023-06-30,2023-06-30,Ｓｈａｎｇ　Ｈａｉ　Ｄｉ　Ａｎｇ　Ｗａｎｇ　Ｌｕｏ　Ｋｅ　Ｊｉ　Ｙｏｕ　Ｘｉａｎ　Ｇｏｎｇ　Ｓｉ,,外国会社等,,,,,,,,Ｈｕ　Ｔａｉ　Ｌｕ　６３９７　Ｈａｏ　１－２　Ｃｅｎｇ　Ａ５０９８　Ｓｈｉ　Ｂａｏ　Ｓｈａｎ　Ｑｕ　Ｓｈａｎｇ　Ｈａｉ　Ｓｈｉ　Ｃｈｉｎａ,,,,,,2023-06-30,1,,,,,シャンハイディアンワンルオケジユウゲンコウシ,0
1389,6700150117930,新規,0,2023-06-30,2023-06-30,Ｚｈｅｊｉａｎｇ　Ｈｕａｊｉａｎ　Ｎｅｎｇｙｕａｎｋｅｊｉ　Ｙｏｕｘｉａｎｇｏｎｇｓｉ,,外国会社等,,,,,,,,ｃｈａｎｇｘｉｎｇｘｉａｎ，ｍｅｉｓｈａｎｚｈｅｎ，ｇｏｎｇｙｅｙｕａｎｑｕ，ｄａｘｕａｎｌｕ４８ｈａｏ，ｈｕｚｈｏｕｓｈｉ，ｚｈｅｊｉａｎｇｓｈｅｎｇ，Ｃｈｉｎａ,,,,,,2023-06-30,1,,,,,ゼジャンハジアンネンギュアンケジユウゲンコウシ,0
1390,6700150117939,新規,0,2023-06-30,2023-06-30,ｈａｎｇｚｈｏｕ　ｙｕｂｏｊｉｎｃｈｕｋｏｕ　ｙｏｕｘｉａｎｇｏｎｇｓｉ,,外国会社等,,,,,,,,ｘｉａｏｓｈａｎｑｕ　ｎｉｎｇｗｅｉｊｉｅｄａｏ　ｘｉａｎｇｔｅｎｇｃａｉｆｕｚｈｏｎｇｘｉｎ　２ｚｈｕａｎｇ　１９０１ｓｈｉ　ｈａｎｇｚｈｏｕ　ｚｈｅｊｉａｎｇ　Ｃｈｉｎａ,,,,,,2023-06-30,1,,,,,ハンゾウユボジンキュウコウユウゲンコウシ,0
1391,6700150117947,新規,0,2023-06-30,2023-06-30,ＳＨＥＮ　ＺＨＥＮ　ＷＥＩ　ＴＥ　ＺＨｌ　ＮＥＮＧ　ＫＥ　ＪＩ　ＹＯＵ　ＸＩＡＮ　ＧＯＮＧ　ＳＩ,,外国会社等,,,,,,,,ｍａ　ｔｉａｎ　ｊｉｅ　ｄａｏ　ｓｈｕ　ｔｉａｎ　ｐｕ　ｓｈｅ　ｑｕ　ｙｕｎ　ｌｉ　ｚｈｉ　ｎｅｎｇ　ｙｕａｎ　ｄｉ　７　ｄｏｎｇ　３０１，ｇｕａｎｇｍｉｎｇ　Ｄｉｓｔｒｉｃｔ，ｓｈｅｎｚｈｅｎ　Ｃｉｔｙ，ｇｕａｎｇｄｏｎｇ　Ｐｒｏｖｉｎｃｅ，Ｃｈｉｎａ,,,,,,2023-06-30,1,,,,,シンセンウェイテジネンケジユウゲンコウシ,0
1392,6700150117955,新規,0,2023-06-30,2023-06-30,Ｓｈｅｎｚｈｅｎ　Ｘｉｎｇｔｕｃｈｕｃｈｕａｎｇ　Ｔｅｃｈｎｏｌｏｇｙ　Ｃｏ．，Ｌｔｄ,,外国会社等,,,,,,,,ｍｉｎ　ｚｈｉ　ｊｉｅ　ｄａｏ　ｚｈａｎｇ　ｋｅｎｇ　ｓｈｅ　ｑｕ　ｚｈａｎｇ　ｋｅｎｇ　ｌａｏ　ｃｕｎ　２６　ｄｏｎｇ　１０２　ｓｈｅｎ　ｚｈｅｎ　ｓｈｉ　ｌｏｎｇ　ｈｕａ　ｑｕ　ｇｕａｎｇ　ｄｏｎｇ　ｓｈｅｎｇ　Ｃｈｉｎａ,,,,,,2023-06-30,1,,,,,シンセンシンツツチャンテクノロジーカンパニーリミテッド,0
1393,6700150117963,新規,0,2023-06-30,2023-06-30,ｓｈｅｎｚｈｅｎｓｈｉ　ｘｉｎｊｉｈａｉｋｅｊｉ　ｈｅｈｕｏｑｉｙｅ,,外国会社等,,,,,,,,ｑｉａｎｗａｎｙｉｌｕ１ｈａｏＡｄｏｎｇ２０１ｓｈｉ　ｓｈｅｎｚｈｅｎｓｈｉ　ｑｉａｎｈａｉｓｈｅｎｇａｎｇｈｅｚｕｏｑｕ　ｇｕａｎｇｄｏｎｇｓｈｅｎｇ，Ｃｈｉｎａ,,,,,,2023-06-30,1,,,,,シンセンシシンジハイケジヘフオキエ,0
1394,6700150117971,新規,0,2023-06-30,2023-06-30,Ｓｈｅｎｚｈｅｎ　Ｌｏｖｅ　ＵＳ　Ｔｒａｄｉｎｇ　Ｃｏ．，Ｌｔｄ．,,外国会社等,,,,,,,,Ｓｏｎｇａｎｇ　Ｓｔｒｅｅｔ　Ｓｈａｐｕｗｅｉ　Ｃｏｍｍｕｎｉｔｙ　１２　Ｒｏａｄ　Ｎｏ．９　１０１　Ａｎｂａｏ　Ｑｕ　Ｓｈｅｎｚｈｅｎ，Ｃｈｉｎａ,,,,,,2023-06-30,1,,,,,シンセンラブユーエストレーディングカンパニーリミテッド,0
1395,6700150117988,新規,0,2023-06-30,2023-06-30,Ｇｕａｎｇｚｈｏｕ　ｊｕｎｚｈｉ　ｔｒａｄｉｎｇ　ｃｏ．ＬＴＤ．,,外国会社等,,,,,,,,Ｒｏｏｍ　２０４，Ｎｏ．８，Ｄａｓｈａ　Ｎｏｒｔｈ　Ｒｏａｄ，Ｈｕａｎｇｐｕ　Ｄｉｓｔｒｉｃｔ　Ｇｕａｎｇｚｈｏｕ　Ｃｉｔｙ　Ｇｕａｎｇｄｏｎｇ　Ｐｒｏｖｉｎｃｅ，Ｃｈｉｎａ,,,,,,2023-06-30,1,,,,,グァンゾォウジュンジトレーディングカンパニーリミテッド,0
1396,6700150117996,新規,0,2023-06-30,2023-06-30,Ｚｈｕ　ｈａｉ　ｈｏｎｇ　ｙａ　ｍａｏ　ｙｉ　ｙｏｕ　ｘｉａｎ　ｇｏｎｇ　ｓｉ,,外国会社等,,,,,,,,Ｑｉａｎｓｈａｎｊｉｎｊｉｌｕ３０６ｈａｏ２ｄｏｎｇ３ｃｅｎｇ３０２－４　ｚｈｕｈａｉ　ｇｕａｎｇｄｏｎｇｓｈｅｎｇ，Ｃｈｉｎａ,,,,,,2023-06-30,1,,,,,ズハイホンヤマオイユウゲンコウシ,0
1397,6700150118004,新規,0,2023-06-30,2023-06-30,ｃｈｅｎｇｄｕ　ｊｉｎｇｓｈｕｏｙｕｆｅｎｇｄｉａｎｚｉｓｈａｎｇｗｕ　ｙｏｕｘｉａｎｇｏｎｇｓｉ,,外国会社等,,,,,,,,ｗｕｈｏｕｑｕ　ｓｈａｙａｎｊｉｅ　４０ｈａｏ３ｄｏｎｇ１ｌｏｕ１３４ｈａｏ　ｃｈｅｎｇｄｕｓｈｉ　ｓｉｃｈｕａｎｓｈｅｎｇ　Ｃｈｉｎａ,,,,,,2023-06-30,1,,,,,チェントジンスユフェンデンシシャンウユウゲンコウシ,0
1398,6700150118012,新規,0,2023-06-30,2023-06-30,ｆｏｓｈａｎｓｈｉ　ｈｕｃｈｅｎｇｐｉｊｕｓｈｉｙｅ　ｙｏｕｘｉａｎｇｏｎｇｓｉ,,外国会社等,,,,,,,,ｇｕａｎｇｄｏｎｇｓｈｅｎｇ　ｆｏｓｈａｎｓｈｉ　ｎａｎｈａｉｑｕ　ｄａｌｉｚｈｅｎ　ｈｕａｎｇｑｉｂａｉｓｈａｙｏｎｇｋｏｕｄａｊｉｅ　３２ｈａｏｅｒｃｅｎｇ　Ｃｈｉｎａ,,,,,,2023-06-30,1,,,,,フォサンシフチェンピジュシイェユウゲンコウシ,0
1399,6700150118020,新規,0,2023-06-30,2023-06-30,ｈａｎｇｚｈｏｕ　ｙｉｇｅｈｕａｚｈｕａｎｇｐｉｎ　ｙｏｕｘｉａｎｇｏｎｇｓｉ,,外国会社等,,,,,,,,ｊｉｎｇｊｉｊｉｓｈｕｋａｉｆａｑｕｂａｉｙａｎｇｊｉｅｄａｏｋｅｊｉｙｕａｎｌｕ　２ｈａｏ５ｚｈｕａｎｇ６ｃｅｎｇ０６ｄａｎｙｕａｎ　ｈａｎｇｚｈｏｕ　ｚｈｅｊｉａｎｇ　Ｃｈｉｎａ,,,,,,2023-06-30,1,,,,,ハンゾォウイゲホゥアズゥアンピンユウゲンコウシ,0
1400,6700150118029,新規,0,2023-06-30,2023-06-30,ｆｕｚｈｏｕｎａｎｍｉｎｇｓｈａｎｇｍａｏｙｏｕｘｉａｎｇｏｎｇｓｉ,,外国会社等,,,,,,,,ｆｕｊｉａｎｓｈｅｎｇ，ｆｕｚｈｏｕｓｈｉ，ｆｕｑｉｎｇｓｈｉ，ｈｏｎｇｌｕｊｉｅｄａｏ，ｈｕａｒｕｎｚｈｏｎｇｙａｎｇｇｏｎｇｙｕａｎ，５ｈａｏｌｏｕ３３０１,,,,,,2023-06-30,1,,,,,フクシユウナンメイシヨウボウユウゲンコウシ,0
1414,7010003040993,新規,0,2023-06-30,2023-06-30,合同会社ＧＯＬＤ　ＥＡＲＴＨ,,合同会社,東京都,千代田区,岩本町２丁目１７－４泰合ビルＩＩ５０４号室,00131019,13,101,1010032,,,,,,,2023-06-30,1,,,,,ゴールドアース,0
1415,7010003041001,新規,0,2023-06-30,2023-06-30,合同会社ＮＢＰ,,合同会社,東京都,千代田区,神田三崎町３丁目４－８ヤマダビル２０２,,13,101,1010061,,,,,,,2023-06-30,1,,,,,エヌビーピー,0
1416,7010005036890,新規,0,2023-06-30,2023-06-30,ＳＨＩＮＳＥＮ一般社団法人,,その他の設立登記法人,東京都,千代田区,丸の内１丁目８番２号鉄鋼ビルディング４階,,13,101,1000005,,,,,,,2023-06-30,1,,,,,シンセン,0
1426,7010401175326,新規,0,2023-06-30,2023-06-30,日本再生医療株式会社,,株式会社,東京都,港区,赤坂９丁目１番７号,,13,103,1070052,,,,,,,2023-06-30,1,,,,,,0
1427,7010401175350,新規,0,2023-06-30,2023-06-30,株式会社ＦＲ‐Ｇ,,株式会社,東京都,港区,芝浦４丁目２２番１－２６１８号芝浦アイランドエアタワー,,13,103,1080023,,,,,,,2023-06-30,1,,,,,エフアールジー,0
1428,7010401175383,新規,0,2023-06-30,2023-06-30,株式会社ドルフィン・バリュー・アップ１４号,,株式会社,東京都,港区,芝公園１丁目１番１号住友不動産御成門タワー７階,,13,103,1050011,,,,,,,2023-06-30,1,,,,,ドルフィンバリューアップジュウヨンゴウ,0
1429,7010403030405,新規,0,2023-06-30,2023-06-30,合同会社ＬＨアセットマネジメント,,合同会社,東京都,港区,六本木７丁目３番１９号,,13,103,1060032,,,,,,,2023-06-30,1,,,,,エルエイチアセットマネジメント,0
1431,7010501050676,新規,0,2023-06-30,2023-06-30,株式会社Ｄｉｇｉｔａｌ　ｈａｗｋ,,株式会社,東京都,台東区,元浅草３丁目１６－４Ｌｉｂｅｒｏ２０１,,13,106,1110041,,,,,,,2023-06-30,1,,,,,デジタルホーク,0
1432,7010501050684,新規,0,2023-06-30,2023-06-30,株式会社ふうか,,株式会社,東京都,台東区,松が谷２丁目９番１－２０３号,,13,106,1110036,,,,,,,2023-06-30,1,,,,,フウカ,0
1438,7010903008280,新規,0,2023-06-30,2023-06-30,合同会社はたす,,合同会社,東京都,世田谷区,豪徳寺１丁目５５番２６号,,13,112,1540021,,,,,,,2023-06-30,1,,,,,ハタス,0
1441,7011001155271,新規,0,2023-06-30,2023-06-30,株式会社佐藤海苔ａｅｒｕ,,株式会社,東京都,渋谷区,神宮前５丁目４６－１５フィルパーク表参道２Ｆ,,13,113,1500001,,,,,,,2023-06-30,1,,,,,サトウノリエアル,0
1442,7011001155338,新規,0,2023-06-30,2023-06-30,ｂｙｔｅＳｔｒｅａｍｅ株式会社,,株式会社,東京都,渋谷区,道玄坂１丁目１０番８号渋谷道玄坂東急ビル２Ｆ－Ｃ,,13,113,1500043,,,,,,,2023-06-30,1,,,,,バイトストリーム,0
1443,7011001155346,新規,0,2023-06-30,2023-06-30,株式会社ＢＬＡＣＫ　ＬＩＬＬＹ,,株式会社,東京都,渋谷区,広尾５丁目１番４３号８０２,,13,113,1500012,,,,,,,2023-06-30,1,,,,,ブラックリリー,0
1444,7011001155362,新規,0,2023-06-30,2023-06-30,株式会社ＴＭＮＣ,,株式会社,東京都,渋谷区,道玄坂１丁目１０番８号渋谷道玄坂東急ビル２Ｆ－Ｃ,,13,113,1500043,,,,,,,2023-06-30,1,,,,,ティーエムエヌシー,0
1445,7011003017057,新規,0,2023-06-30,2023-06-30,合同会社Ｖａｌｕｅ　Ｎｏｗ,,合同会社,東京都,渋谷区,道玄坂１丁目１０番８号渋谷道玄坂東急ビル２Ｆ－Ｃ,,13,113,1500043,,,,,,,2023-06-30,1,,,,,バリューナウ,0
1446,7011003017081,新規,0,2023-06-30,2023-06-30,合同会社Ｐｏｒｔａｎａ,,合同会社,東京都,目黒区,上目黒２丁目４４番９号,,13,110,1530051,,,,,,,2023-06-30,1,,,,,ポルターナ,0
1451,7011303004812,新規,0,2023-06-30,2023-06-30,合同会社ＹＡＭ,,合同会社,東京都,杉並区,高井戸西３丁目４番２２－２０３号,,13,115,1680071,,,,,,,2023-06-30,1,,,,,ワイエーエム,0
1459,7011701026375,新規,0,2023-06-30,2023-06-30,林ノ隅株式会社,,株式会社,東京都,江戸川区,南小岩７丁目１１番２１号メゾン福田２０１,,13,123,1330056,,,,,,,2023-06-30,1,,,,,ハヤシノスミ,0
1475,7020001152286,新規,0,2023-06-30,2023-06-30,株式会社グッド・ワン,,株式会社,神奈川県,横浜市金沢区,六浦４丁目１０番３４号,,14,108,2360031,,,,,,,2023-06-30,1,,,,,グッドワン,0
1480,7020003024104,新規,0,2023-06-30,2023-06-30,合同会社ワンネステラ,,合同会社,神奈川県,川崎市麻生区,岡上１丁目８－１０,,14,137,2150027,,,,,,,2023-06-30,1,,,,,ワンネステラ,0
1493,7030001154645,新規,0,2023-06-30,2023-06-30,株式会社ベンヌ,,株式会社,埼玉県,春日部市,増田新田４６７番地６８,,11,214,3440025,,,,,,,2023-06-30,1,,,,,ベンヌ,0
1495,7030003022057,新規,0,2023-06-30,2023-06-30,スマホレスキュー合同会社,,合同会社,埼玉県,上尾市,井戸木１丁目２６番地１２,,11,219,3620071,,,,,,,2023-06-30,1,,,,,スマホレスキュー,0
1501,7040001129035,新規,0,2023-06-30,2023-06-30,株式会社クラフトワークス,,株式会社,千葉県,松戸市,上矢切１５９５番地の３,,12,207,2710094,,,,,,,2023-06-30,1,,,,,クラフトワークス,0
1504,7040003022881,新規,0,2023-06-30,2023-06-30,合同会社しろねこ舎,,合同会社,千葉県,松戸市,松戸１３０７番地の１松戸ビル１３Ｆ,,12,207,2710092,,,,,,,2023-06-30,1,,,,,シロネコシャ,0
1507,7050001053044,新規,0,2023-06-30,2023-06-30,ＭＯＨＭＥＤＲＡＦＩＱ＆ＳＯＮＳ株式会社,,株式会社,茨城県,下妻市,下妻戊２２４番地３クシタハイツ３階２７号,,08,210,3040062,,,,,,,2023-06-30,1,,,,,モハメドラフィクアンドサンズ,0
1512,7060003004614,新規,0,2023-06-30,2023-06-30,Ｈ．Ａ．ＴＲＡＤＩＮＧ合同会社,,合同会社,栃木県,下都賀郡野木町,大字南赤塚８３０番地１３,,09,364,3290112,,,,,,,2023-06-30,1,,,,,エイチエートレーディング,0
1513,7070001040577,新規,0,2023-06-30,2023-06-30,横坂木材株式会社,,株式会社,群馬県,沼田市,利根町根利５７６番地,,10,206,3780312,,,,,,,2023-06-30,1,,,,,ヨコサカモクザイ,0
1523,7120001255748,新規,0,2023-06-30,2023-06-30,愛清広い株式会社,,株式会社,大阪府,大阪市大正区,三軒家西３丁目４番１６号中山ビル３０６Ａ,,27,108,5510001,,,,,,,2023-06-30,1,,,,,アイジョウヒロイ,0
1524,7120001256011,新規,0,2023-06-30,2023-06-30,ライズエステート株式会社,,株式会社,大阪府,大阪市中央区,南久宝寺町１丁目６－９,,27,128,5410058,,,,,,,2023-06-30,1,,,,,ライズエステート,0
1525,7120001256077,新規,0,2023-06-30,2023-06-30,株式会社フォーシナジー,,株式会社,大阪府,大阪市西区,靱本町１丁目１４番１１号ＲＥ－０１４．３０１号室,,27,106,5500004,,,,,,,2023-06-30,1,,,,,フォーシナジー,0
1526,7120001256110,新規,0,2023-06-30,2023-06-30,株式会社ａｙｕｍｏ,,株式会社,大阪府,大阪市北区,角田町１番１２号阪急ファイブアネックスビル（ＧＶＨ＃５内）,,27,127,5300017,,,,,,,2023-06-30,1,,,,,アユモ,0
1527,7120003024408,新規,0,2023-06-30,2023-06-30,合同会社ティーアイイーシステム,,合同会社,大阪府,大阪市北区,梅田１丁目１‐３大阪駅前第３ビル２９階１‐１‐１号室,,27,127,5300001,,,,,,,2023-06-30,1,,,,,ティーアイイーシステム,0
1530,7120101067804,新規,0,2023-06-30,2023-06-30,ＲｅｎＬｉｆｅ株式会社,,株式会社,大阪府,泉大津市,千原町２丁目１８－４,,27,206,5950004,,,,,,,2023-06-30,1,,,,,,0
1535,7120903004715,新規,0,2023-06-30,2023-06-30,合同会社桜來,,合同会社,大阪府,池田市,石橋２丁目４番５号,,27,204,5630032,,,,,,,2023-06-30,1,,,,,サクラ,0
1536,7120905006478,新規,0,2023-06-30,2023-06-30,一般社団法人育児ケアサポート協会,,その他の設立登記法人,大阪府,豊中市,原田元町３丁目４番５号,,27,203,5610808,,,,,,,2023-06-30,1,,,,,イクジケアサポートキョウカイ,0
1539,7122001037119,新規,0,2023-06-30,2023-06-30,株式会社ちーずをたべさせる人,,株式会社,大阪府,八尾市,陽光園２丁目６番３２号,,27,212,5810086,,,,,,,2023-06-30,1,,,,,チーズヲタベサセルヒト,0
1541,7130001074619,新規,0,2023-06-30,2023-06-30,ラクホクホールディングス株式会社,,株式会社,京都府,京都市北区,西賀茂坊ノ後町１３番地３,,26,101,6038826,,,,,,,2023-06-30,1,,,,,ラクホクホールディングス,0
1553,7140001130684,新規,0,2023-06-30,2023-06-30,Ｒ’ｓ　Ｃｏｍｐａｎｙ株式会社,,株式会社,兵庫県,神戸市灘区,篠原北町４丁目１３番１２号,,28,102,6570068,,,,,,,2023-06-30,1,,,,,アールズカンパニー,0
1556,7140003019249,新規,0,2023-06-30,2023-06-30,合同会社ｎｉｃｏｌｉｆｅ,,合同会社,兵庫県,加古川市,平岡町土山２４番地の２２,,28,210,6750104,,,,,,,2023-06-30,1,,,,,ニコライフ,0
1558,7160001025131,新規,0,2023-06-30,2023-06-30,株式会社ＳＨＩＫＩ　ＦＡＲＭＥＲＳ　ＣＬＵＢ,,株式会社,滋賀県,草津市,北山田町８１０番地,,25,206,5250061,,,,,,,2023-06-30,1,,,,,シキファーマーズクラブ,0
1573,7260001038065,新規,0,2023-06-30,2023-06-30,天佑興産株式会社,,株式会社,岡山県,岡山市北区,上中野１丁目４番１１号,,33,101,7000972,,,,,,,2023-06-30,1,,,,,テンユウコウサン,0
1575,7280001008974,新規,0,2023-06-30,2023-06-30,日伯農工株式会社,,株式会社,島根県,出雲市,佐田町反邊１３９１番地１,,32,203,6930506,,,,,,,2023-06-30,1,,,,,ニチハクノウコウ,0
1582,7290001102090,新規,0,2023-06-30,2023-06-30,アルカディア国際株式会社,,株式会社,福岡県,久留米市,東和町二丁目１１番西田産業第６ビル３０５,,40,203,8300035,,,,,,,2023-06-30,1,,,,,アルカディアコクサイ,0
1587,7290003014086,新規,0,2023-06-30,2023-06-30,合同会社ＫＨＴ,,合同会社,福岡県,福岡市西区,野方６丁目１８番３６号,,40,135,8190043,,,,,,,2023-06-30,1,,,,,ケーエイチティー,0
1589,7290801029649,新規,0,2023-06-30,2023-06-30,株式会社０１工務店,,株式会社,福岡県,北九州市小倉南区,沼本町１丁目９番４５－２１１号,,40,107,8000208,,,,,,,2023-06-30,1,,,,,ゼロイチコウムテン,0
1590,7300001013352,新規,0,2023-06-30,2023-06-30,ＴＯＲＩＫＡＩホールディングス株式会社,,株式会社,佐賀県,三養基郡基山町,大字宮浦９９１番地２,,41,341,8410204,,,,,,,2023-06-30,1,,,,,トリカイホールディングス,0
1606,7380003005497,新規,0,2023-06-30,2023-06-30,合同会社Ｙ．ｓコーポレーション,,合同会社,福島県,いわき市,小島町３丁目３番地の３,,07,204,9738411,,,,,,,2023-06-30,1,,,,,コーポレーション,0
1618,7430003015169,新規,0,2023-06-30,2023-06-30,ＲＹソリューション合同会社,,合同会社,北海道,小樽市,望洋台３丁目１３番１９号,,01,203,0470155,,,,,,,2023-06-30,1,,,,,アールワイソリューション,0
1629,7700150115603,新規,0,2023-06-30,2023-06-30,深セン市鉄渣集装箱服務有限公司,,外国会社等,,,,,,,,中国深セン市塩田区塩田街道永安北一街中段上坡中端,,,,,,2023-06-30,1,,,,,シンセンシテッサシュウソウショウフクムユウゲンコウシ,0
1630,7700150115834,新規,0,2023-06-30,2023-06-30,雲鯨貿易（香港）有限公司,,外国会社等,,,,,,,,中国香港九龍尖沙咀東加連威老道９４号洲際広場１２０９室,,,,,,2023-06-30,1,,,,,ウンゲイボウエキホンコンユウゲンコウシ,0
1631,7700150117913,新規,0,2023-06-30,2023-06-30,Ｊｉａｘｉｎｇ　Ｋｕｎｆｉｎｅ　Ａｕｔｏ　Ｐａｒｔｓ　Ｃｏ．，Ｌｔｄ,,外国会社等,,,,,,,,Ｒｏｏｍ　１１０１－１，Ｂｕｉｌｄｉｎｇ　Ｈ，Ｆｕｔｕｒｅ　Ｓｃｉｅｎｃｅ　ａｎｄ　Ｔｅｃｈｎｏｌｏｇｙ　Ｐｌａｚａ　Ｎｏ．１３６，Ｘｉｕｚｈｏｕ　Ａｖｅｎｕｅ，Ｘｉｕｚｈｏｕ　Ｄｉｓｔｒｉｃｔ，ｊｉａｘｉｎｇ　Ｚｈｅｊｉａｎｇ　Ｐｒｏｖｉｎｃｅ，Ｃｈｉｎａ,,,,,,2023-06-30,1,,,,,ジアクシンクンファインオートパーツカンパニーリミテッド,0
1632,7700150117921,新規,0,2023-06-30,2023-06-30,Ｎｉｎｇｂｏ　Ｍｕｓｈｕｏ　Ｄｉａｎｚｉｓｈａｎｇｗｕ　Ｃｏ．，ＬＴＤ．,,外国会社等,,,,,,,,Ｒｏｏｍ　４０１－１０，Ｎｏ．１７，Ｂｕｉｌｄｉｎｇ　１７，Ｚｈｏｎｇｗｕ　Ｓｃｉｅｎｃｅ　Ｐａｒｋ，Ｐａｎｈｕｏ　Ｓｔｒｅｅｔ，Ｙｉｎｚｈｏｕ　Ｄｉｓｔｒｉｃｔ，Ｎｉｎｇｂｏ　Ｃｉｔｙ，Ｚｈｅｊｉａｎｇ　Ｐｒｏｖｉｎｃｅ　Ｃｈｉｎａ,,,,,,2023-06-30,1,,,,,ニンボムシュオデンシショウムカンパニーリミテッド,0
1633,7700150117938,新規,0,2023-06-30,2023-06-30,Ｚｈｅｎｇｚｈｏｕ　ｅ－ｌｉｎｋ　Ｅ－ｃｏｍｍｅｒｃｅ　Ｃｏ．，Ｌｔｄ．,,外国会社等,,,,,,,,Ｒｏｏｍ　４０７，Ｚｈｅｎｇｚｈｏｕ　Ｃｒｏｓｓ－Ｂｏｒｄｅｒ　Ｅ－Ｃｏｍｍｅｒｃｅ　Ｉｎｄｕｓｔｒｉａｌ　Ｐａｒｋ　Ｔｈｅ　ｉｎｔｅｒｓｅｃｔｉｏｎ　ｏｆ　Ｅｒｌｉｇａｎｇ　Ｓｏｕｔｈ　Ｓｔｒｅｅｔ　ａｎｄ　Ｚｉｊｉｎｇｓｈａｎ　Ｒｏａｄ　ｉｎ　ＧｕａｎＣｈｅｎｇ　Ｄｉｓｔｒｉｃｔ　Ｚｈｅｎｇｚｈｏｕ，Ｃｈｉｎａ,,,,,,2023-06-30,1,,,,,ゼンジョウイーリンクイーコマースカンパニーリミテッド,0
1634,7700150117946,新規,0,2023-06-30,2023-06-30,ｇｕａｎｇ　ｚｈｏｕ　ｘｉｎｇ　ｘｕａｎ　ｘｉａｏ　ｓｈｏｕ　ｙｏｕ　ｘｉａｎ　ｇｏｎｇ　ｓｉ,,外国会社等,,,,,,,,Ｎｏ．１０５Ｄ，Ｂｕｉｌｄｉｎｇ　１，２９　Ｎｏｒｔｈ　Ｗｈａｒｆ，Ｈｕａｎｇｐｕ　Ｖｉｌｌａｇｅ，Ｈａｉｚｈｕ　Ｄｉｓｔｒｉｃｔ，Ｇｕａｎｇｚｈｏｕ，Ｇｕａｎｇｄｏｎｇ　Ｐｒｏｖｉｎｃｅ，Ｃｈｉｎａ,,,,,,2023-06-30,1,,,,,ゴンジョウシンシャンシャオショウユウゲンコウシ,0
1635,7700150117954,新規,0,2023-06-30,2023-06-30,Ｓｈｅｎｚｈｅｎ　Ｌｅｗｕｂｉａｎ　Ｔｅｃｈｎｏｌｏｇｙ　Ｃｏ．，Ｌｔｄ,,外国会社等,,,,,,,,Ｒｏｏｍ　７０３，Ｂｌｏｃｋ　Ｂ，Ｈｕａｙｉ　Ｂｕｉｌｄｉｎｇ，Ｂａｎｔｉａｎ　Ｓｈｅｎｚｈｅｎ　Ｇｕａｎｇｄｏｎｇ，Ｃｈｉｎａ,,,,,,2023-06-30,1,,,,,シンセンレウビアンテクノロジーカンパニーリミテッド,0
1636,7700150117962,新規,0,2023-06-30,2023-06-30,ＺｈｅＪｉａｎｇ　ＧｕａｎＪｉｅＳｈｅｎｇＷｕＫｅＪｉ　ＹｏｕＸｉａｎＧｏｎｇＳｉ,,外国会社等,,,,,,,,ＳａｎＤｕｎＺｈｅｎ　ＸｉＹｕａｎＬｕ　１０Ｈａｏ　Ｂ５０６Ｓｈｉ　ＨａｎｇＺｈｏｕＳｈｉ　ＸｉＨｕＱｕ　ＺｈｅＪｉａｎｇＳｈｅｎｇ，Ｃｈｉｎａ,,,,,,2023-06-30,1,,,,,ゼジャンガンジエシェンウケジユウゲンコウシ,0
1637,7700150117970,新規,0,2023-06-30,2023-06-30,Ｇｕａｎｇ　Ｚｈｏｕ　Ｓｈｕｏ　Ｊｉｎｇ　Ｋｅ　Ｊｉ　Ｙｏｕ　Ｘｉａｎ　Ｇｏｎｇ　Ｓｉ,,外国会社等,,,,,,,,Ｇａｏ　ｘｉｎ　ｊｉ　ｓｈｕ　ｃｈａｎ　ｙｅ　ｋａｉ　ｆａ　ｑｕ　ｘｉａｎｇ　ｓｈａｎ　ｌｕ　１７ｈａｏ，Ｂａｎ　ｇｏｎｇ　ｌｏｕ　６０７ｆａｎｇ，Ｇｕａｎｇｚｈｏｕ，Ｇｕａｎｇｄｏｎｇ，Ｃｈｉｎａ,,,,,,2023-06-30,1,,,,,ゴンジョウシュオジンケジユウゲンコウシ,0
1638,7700150117979,新規,0,2023-06-30,2023-06-30,ＳＨＥＮＺＨＥＮ　ＰＥＣＲＯＮ　ＮＥＷ　ＥＮＥＲＧＹ　ＣＯ．，ＬＴＤ．　　　　,,外国会社等,,,,,,,,Ｌｏｎｇｇａｎｇ　Ｔｉａｎ’ａｎ　Ｄｉｇｉｔａｌ　Ｉｎｎｏｖａｔｉｏｎ　Ｐａｒｋ　Ａ５０３，Ｗｏｒｋｓｈｏｐ　Ｎｏ．２　Ｓｈｅｎｚｈｅｎ　Ｇｕａｎｇｄｏｎｇ，Ｃｈｉｎａ,,,,,,2023-06-30,1,,,,,シンセンペクロンニューエナジーカンパニーリミテッド,0
1639,7700150117987,新規,0,2023-06-30,2023-06-30,ｇｕａｎｇｚｈｏｕｓｈｉ　ｂｅｉｋｕｍａｏｙｉ　ｙｏｕｘｉａｎｇｏｎｇｓｉ　　　　,,外国会社等,,,,,,,,ｂａｉｙｕｎｑｕ　ｔｏｎｇｈｅｊｉｅ　ｒｏｎｇｓｈｕ　ｄｏｎｇｊｉｅ　４５　ｈａｏ　２０１　Ｇｕａｎｇｚｈｏｕ，Ｃｈｉｎａ,,,,,,2023-06-30,1,,,,,グァンゾォウベイクマオイユウゲンコウシ,0
1640,7700150117995,新規,0,2023-06-30,2023-06-30,ｓｈｅｎｚｈｅｎｓｈｉ　ｍａｉｊｉｈｏｎｇｊｉｓｈｕ　ｙｏｕｘｉａｎｇｏｎｇｓｉ,,外国会社等,,,,,,,,ｇｕａｎｇｄｏｎｇｓｈｅｎｇ　ｓｈｅｎｚｈｅｎｓｈｉ　ｆｕｔｉａｎｑｕ　ｆｕｂａｏｊｉｅｄａｏ　ｙｉｔｉａｎ１００６　ｙｉｔｉａｎｈｕａｙｕａｎｅｒｑｉ　２０ｄｏｎｇ８１２ｓｈｉ，Ｃｈｉｎａ,,,,,,2023-06-30,1,,,,,シンセンシマイジホンジスユウゲンコウシ,0
1641,7700150118003,新規,0,2023-06-30,2023-06-30,Ｓｈｅｎｚｈｅｎ　Ｓｈｉ　Ｋｅｚｅ　ｍａｏ　ｙｉ　ｙｏｕ　ｘｉａｎ　ｇｏｎｇ　ｓｉ,,外国会社等,,,,,,,,Ｇｕａｎｇｄｏｎｇ，Ｓｈｅｎｚｈｅｎ，Ｌｏｎｇｇａｎｇ，Ｂａｎｔｉａｎ　Ｊｉｅｄａｏ　Ｙａｎｇｍｅｉ　Ｓｈｅｑｕ　Ｃｈａｎｇｆａ　Ｚｈｏｎｇｌｕ　３　Ｈａｏ，Ｙｕｎｌｉ　Ｚｈｉｎｅｎｇｙｕａｎ　６　Ｄｏｎｇ　４　Ｃｅｎｇ　４０３　Ｓｈｉ，Ｃｈｉｎａ,,,,,,2023-06-30,1,,,,,シンセンシケゼマオイユウゲンコウシ,0
1642,7700150118011,新規,0,2023-06-30,2023-06-30,ＨａｎｇＺｈｏｕ　ＤｕＹａ　Ｔｒａｄｉｎｇ　Ｃｏ．，Ｌｔｄ．,,外国会社等,,,,,,,,Ｚｈｅｊｉａｎｇ，Ｈａｎｇｚｈｏｕ，ＪｉａｎｇＧａｎ　Ｄｉｓｔｒｉｃｔ，ＮＯ．２０３，ＦｅｎｇＱｉ　ＥａｓｔＲｏａｄ，Ｒｏｏｍ１３０２，Ｂｕｉｌｄ　２，ＺｈｏｎｇＨａｏＷｕＦｕＴｉａｎＤｉ，Ｃｈｉｎａ,,,,,,2023-06-30,1,,,,,ハンゾォウドゥヤトゥレイディングカンパニーリミテッド,0
1643,7700150118028,新規,0,2023-06-30,2023-06-30,Ｓｈｅｎｚｈｅｎ　Ｍａｎｄｏｒａ　Ｇａｒｍｅｎｔｓ　Ｃｏ．，Ｌｔｄ．,,外国会社等,,,,,,,,Ｌｏｎｇｈｕａ　Ｎｅｗ　Ｄｉｓｔｒｉｃｔ　Ｃｈｉｌｉｎｇｔｏｕ，Ｃｈｉｌｉｎｇｔｏｕ　ｖｉｌｌａｇｅ　Ｗｅｉｗａｎｇ　Ｂｕｉｌｄｉｎｇ　Ｒｏｏｍ　４０３，ｓｈｅｎｚｈｅｎ，ｇｕａｎｇｄｏｎｇ，５１８０００，ＣＮ,,,,,,2023-06-30,1,,,,,シンセンシムタラフクソウユウゲンコウシ,0
1648,8010003040992,新規,0,2023-06-30,2023-06-30,合同会社スリーレイン,,合同会社,東京都,文京区,大塚３丁目６番８号アークビギン６０３,,13,105,1120012,,,,,,,2023-06-30,1,,,,,スリーレイン,0
1649,8010003041000,新規,0,2023-06-30,2023-06-30,ＡＮＡＹＡ　ＴＲＡＤＩＮＧ合同会社,,合同会社,東京都,文京区,春日１丁目１番１２号,,13,105,1120003,,,,,,,2023-06-30,1,,,,,アナヤトレーディング,0
1650,8010003041017,新規,0,2023-06-30,2023-06-30,合同会社ｉｋｕｔａｍａ,,合同会社,東京都,千代田区,神田神保町１丁目６４－３黒政ビル５Ｆ,,13,101,1010051,,,,,,,2023-06-30,1,,,,,イクタマ,0
1655,8010401175317,新規,0,2023-06-30,2023-06-30,Ｆｅｕ株式会社,,株式会社,東京都,港区,南青山５丁目１０番２号,,13,103,1070062,,,,,,,2023-06-30,1,,,,,フゥ,0
1656,8010401175358,新規,0,2023-06-30,2023-06-30,株式会社スタジオＡＭＴ　ＪＡＰＡＮ,,株式会社,東京都,港区,北青山３丁目６番７号青山パラシオタワー１１階,,13,103,1070061,,,,,,,2023-06-30,1,,,,,スタジオエイエムティジャパン,0
1657,8010403030420,新規,0,2023-06-30,2023-06-30,合同会社マーキュリー１００,,合同会社,東京都,港区,西新橋１丁目２番９号メンターキャピタル税理士法人内,,13,103,1050003,,,,,,,2023-06-30,1,,,,,マーキュリーハンドレッド,0
1661,8010501050675,新規,0,2023-06-30,2023-06-30,株式会社ＳＮＡＰＴＡＧ　ＪＡＰＡＮ,,株式会社,東京都,台東区,浅草橋５丁目４番５号,,13,106,1110053,,,,,,,2023-06-30,1,,,,,スナップタグジャパン,0
1664,8010701044477,新規,0,2023-06-30,2023-06-30,Ａ‐Ｄｅｓｉｇｎ株式会社,,株式会社,東京都,品川区,西中延２丁目９番４号ユリシス荏原１０１,,13,109,1420054,,,,,,,2023-06-30,1,,,,,エーデザイン,0
1673,8010903008271,新規,0,2023-06-30,2023-06-30,合同会社Ｃｏｏ,,合同会社,東京都,世田谷区,駒沢３丁目１６番２号レ・クレドール駒沢２０１,,13,112,1540012,,,,,,,2023-06-30,1,,,,,クー,0
1678,8011001155312,新規,0,2023-06-30,2023-06-30,株式会社小鹿金融経済研究所,,株式会社,東京都,渋谷区,神宮前６丁目２３番４号桑野ビル２階,,13,113,1500001,,,,,,,2023-06-30,1,,,,,オジカキンユウケイザイケンキュウショ,0
1679,8011001155361,新規,0,2023-06-30,2023-06-30,株式会社Ｔｉｄｙｕｐ,,株式会社,東京都,目黒区,東山１丁目２１－２６ＱＧ東山３０１,,13,110,1530043,,,,,,,2023-06-30,1,,,,,タイディアップ,0
1682,8011003017056,新規,0,2023-06-30,2023-06-30,合同会社ＰＬＯＵＴＳ,,合同会社,東京都,渋谷区,道玄坂１丁目１０番８号渋谷道玄坂東急ビル２Ｆ－Ｃ,,13,113,1500043,,,,,,,2023-06-30,1,,,,,プローツ,0
1683,8011003017064,新規,0,2023-06-30,2023-06-30,合同会社心園,,合同会社,東京都,目黒区,東山３丁目１５番１号,,13,110,1530043,,,,,,,2023-06-30,1,,,,,シンエン,0
1684,8011003017080,新規,0,2023-06-30,2023-06-30,合同会社セットアッパー,,合同会社,東京都,渋谷区,渋谷２丁目１９－１５宮益坂ビルディング６０９,,13,113,1500002,,,,,,,2023-06-30,1,,,,,セットアッパー,0
1692,8011701026382,新規,0,2023-06-30,2023-06-30,株式会社ＳｕｎＢｅｌｌ　ＪＣ,,株式会社,東京都,江戸川区,西小岩３丁目１２番１１号,,13,123,1330057,,,,,,,2023-06-30,1,,,,,サンベルジェイシー,0
1694,8013303006688,新規,0,2023-06-30,2023-06-30,２０Ｈｅｒｔｚ合同会社,,合同会社,東京都,豊島区,高松１丁目１３－６マンション山和２０２号室,,13,116,1710042,,,,,,,2023-06-30,1,,,,,ニジュッヘルツ,0
1705,8020001152269,新規,0,2023-06-30,2023-06-30,株式会社Ｔｒａｃｔ,,株式会社,神奈川県,川崎市中原区,井田中ノ町１３番１－３号,,14,133,2110034,,,,,,,2023-06-30,1,,,,,トラクト,0
1707,8020003024128,新規,0,2023-06-30,2023-06-30,Ｍｉｃｈｉｒｕ合同会社,,合同会社,神奈川県,横浜市中区,本郷町３丁目１６０番地,,14,104,2310843,,,,,,,2023-06-30,1,,,,,ミチル,0
1708,8021001079436,新規,0,2023-06-30,2023-06-30,株式会社Ｆｒｅｅ　ａｖｅｎｉｒ,,株式会社,神奈川県,鎌倉市,常盤１１５番地１深沢ホワイトプラザ２階,,14,204,2480022,,,,,,,2023-06-30,1,,,,,フリーアベニール,0
1713,8030001154644,新規,0,2023-06-30,2023-06-30,株式会社Ｇｒｏｗｔｈ　Ｐａｒｔｎｅｒｓ,,株式会社,埼玉県,戸田市,喜沢１丁目３２番地の２３,,11,224,3350013,,,,,,,2023-06-30,1,,,,,グロースパートナーズ,0
1714,8030001154652,新規,0,2023-06-30,2023-06-30,株式会社テラスシステムズ,,株式会社,埼玉県,さいたま市大宮区,桜木町１丁目３７８,,11,103,3300854,,,,,,,2023-06-30,1,,,,,テラスシステムズ,0
1717,8030003022048,新規,0,2023-06-30,2023-06-30,合同会社ｓｈｏｏｔ　ｔｅｃｈ,,合同会社,埼玉県,川口市,大字神戸５８９番地の４４,,11,203,3330832,,,,,,,2023-06-30,1,,,,,シュートテック,0
1722,8040003022872,新規,0,2023-06-30,2023-06-30,合同会社Ｌａｎｄｉｓ,,合同会社,千葉県,松戸市,串崎南町９３番地の２プレミール２０２号,,12,207,2702215,,,,,,,2023-06-30,1,,,,,ランディス,0
1723,8040003022880,新規,0,2023-06-30,2023-06-30,ＯＳＨＩ　ＴＲＡＤＩＮＧ合同会社,,合同会社,千葉県,山武市,松尾町山室字宮小路２３２番６,,12,237,2891501,,,,,,,2023-06-30,1,,,,,オーシトレーディング,0
1724,8050003007617,新規,0,2023-06-30,2023-06-30,菅原工業合同会社,,合同会社,茨城県,龍ケ崎市,川原代町４８４番地の５,,08,208,3010005,,,,,,,2023-06-30,1,,,,,スガワラコウギョウ,0
1725,8050005013290,新規,0,2023-06-30,2023-06-30,農事組合法人茨城県農業推進組合,,その他の設立登記法人,茨城県,水戸市,内原町９０７番地７,,08,201,3190315,,,,,,,2023-06-30,1,,,,,イバラキケンノウギョウスイシンクミアイ,0
1729,8070001040568,新規,0,2023-06-30,2023-06-30,株式会社優凪,,株式会社,群馬県,渋川市,上白井２３３０番地,,10,208,3770201,,,,,,,2023-06-30,1,,,,,ユウナギ,0
1731,8080001025691,新規,0,2023-06-30,2023-06-30,株式会社水野工業,,株式会社,静岡県,静岡市駿河区,中島９７７番地の３,,22,102,4228046,,,,,,,2023-06-30,1,,,,,ミズノコウギョウ,0
1736,8110001037650,新規,0,2023-06-30,2023-06-30,株式会社金盛建設,,株式会社,新潟県,新潟市秋葉区,矢代田３２３番地１,,15,105,9560113,,,,,,,2023-06-30,1,,,,,カナモリケンセツ,0
1745,8120001255895,新規,0,2023-06-30,2023-06-30,好百年株式会社,,株式会社,大阪府,大阪市旭区,今市１丁目２－５カルム千林４０５号室,,27,117,5350011,,,,,,,2023-06-30,1,,,,,コウヒャクネン,0
1746,8120001256027,新規,0,2023-06-30,2023-06-30,岩田株式会社,,株式会社,大阪府,大阪市旭区,清水１丁目１２番１４号モデラート千林１０１号室,,27,117,5350021,,,,,,,2023-06-30,1,,,,,イワタ,0
1747,8120001256051,新規,0,2023-06-30,2023-06-30,株式会社アイテック,,株式会社,大阪府,大阪市東淀川区,柴島２丁目１８番１９号,,27,114,5330024,,,,,,,2023-06-30,1,,,,,アイテック,0
1748,8120001256076,新規,0,2023-06-30,2023-06-30,佳坊株式会社,,株式会社,大阪府,大阪市西成区,長橋３丁目５番３号マンションきずな３０３室,,27,122,5570025,,,,,,,2023-06-30,1,,,,,カボウ,0
1749,8120001256092,新規,0,2023-06-30,2023-06-30,易晟株式会社,,株式会社,大阪府,大阪市此花区,春日出中１丁目９－１３－２０２,,27,104,5540022,,,,,,,2023-06-30,1,,,,,エキセイ,0
1751,8120103005298,新規,0,2023-06-30,2023-06-30,合同会社ＫＡＴＡＴＥＭＡ,,合同会社,大阪府,泉佐野市,下瓦屋１６４番地の１,,27,213,5980062,,,,,,,2023-06-30,1,,,,,カタテマ,0
1756,8120905006477,新規,0,2023-06-30,2023-06-30,特定非営利活動法人関西フォーリンレジデントサポートセンター,,その他の設立登記法人,大阪府,豊能郡豊能町,希望ケ丘６丁目４番地の１９,,27,321,5630214,,,,,,,2023-06-30,1,,,,,カンサイフォーリンレジデントサポートセンター,0
1759,8122003002615,新規,0,2023-06-30,2023-06-30,栄蔵合同会社,,合同会社,大阪府,八尾市,小阪合町４丁目６番１９号,,27,212,5810012,,,,,,,2023-06-30,1,,,,,エイクラ,0
1775,8180003025424,新規,0,2023-06-30,2023-06-30,合同会社ラフィネルコ,,合同会社,愛知県,名古屋市昭和区,車田町２丁目５番地（プラウド吹上公園パサージュ８０１）,,23,107,4660001,,,,,,,2023-06-30,1,,,,,ラフィネルコ,0
1777,8200001041437,新規,0,2023-06-30,2023-06-30,株式会社ととと,,株式会社,岐阜県,多治見市,精華町６８番地,,21,204,5070031,,,,,,,2023-06-30,1,,,,,トトト,0
1780,8220003003540,新規,0,2023-06-30,2023-06-30,合同会社バニラ,,合同会社,石川県,白山市,横町９８番地‐１０１,,17,210,9240861,,,,,,,2023-06-30,1,,,,,バニラ,0
1789,8250001020163,新規,0,2023-06-30,2023-06-30,株式会社Ｇｏ山口,,株式会社,山口県,下関市,前田２丁目３１番５４号,,35,201,7520997,,,,,,,2023-06-30,1,,,,,ゴーヤマグチ,0
1799,8290001102098,新規,0,2023-06-30,2023-06-30,株式会社ＲＡＤ,,株式会社,福岡県,福岡市中央区,大名１丁目１番１６号宮田ビル１０３,,40,133,8100041,,,,,,,2023-06-30,1,,,,,ラッド,0
1810,8340001025673,新規,0,2023-06-30,2023-06-30,株式会社ｎｏｖｅｌｉｏ,,株式会社,鹿児島県,鹿児島市,谷山中央４丁目１４２番地４　２Ｆ,,46,201,8910141,,,,,,,2023-06-30,1,,,,,ノベリオ,0
1816,8360001032206,新規,0,2023-06-30,2023-06-30,株式会社ｗａｋａｔｓｕ,,株式会社,沖縄県,国頭郡恩納村,字恩納６５２５番地,,47,311,9040411,,,,,,,2023-06-30,1,,,,,ワカツ,0
1817,8360001032214,新規,0,2023-06-30,2023-06-30,株式会社クリエバリュー,,株式会社,沖縄県,浦添市,宮城３丁目１３番１１号つばめ荘３０５号室,,47,208,9012126,,,,,,,2023-06-30,1,,,,,クリエバリュー,0
1824,8390003002113,新規,0,2023-06-30,2023-06-30,合同会社ＭＡＳＴＥＲＫＥＹ,,合同会社,山形県,天童市,小路２丁目３番１６号,,06,210,9940032,,,,,,,2023-06-30,1,,,,,マスターキー,0
1839,8700150065665,新規,0,2023-06-30,2015-10-09,新富町カード会,,その他,宮崎県,児湯郡新富町,富田南１丁目１１２－２,,45,402,8891414,,,,,,,2015-10-09,1,,,,,シントミチヨウカードカイ,0
1840,8700150117912,新規,0,2023-06-30,2023-06-30,ｈｅｙｕａｎｓｈｉ　ｈａｎｇｘｉａｋｅｊｉ　ｙｏｕｘｉａｎｇｏｎｇｓｉ,,外国会社等,,,,,,,,ｄｏｎｇｆｅｎｇｌｕ　３４８ｈａｏ　ｄｉｅｒｋａ，ｈｅｙｕａｎｓｈｉ，ｚｉｊｉｎｘｉａｎ，ｚｉｃｈｅｎｇｚｈｅｎ，Ｇｕａｎｇｄｏｎｇｓｈｅｎｇ　Ｃｈｉｎａ,,,,,,2023-06-30,1,,,,,ヘユアンシハンシアケジユウゲンコウシ,0
1841,8700150117920,新規,0,2023-06-30,2023-06-30,Ｓｈｅｎｚｈｅｎｓｈｉ　Ｋａｆｅｉｎｕｏ　Ｋｅｊｉ　Ｙｏｕｘｉａｎ　Ｇｏｎｇｓｉ,,外国会社等,,,,,,,,Ａｚｕｏ　２６ｌｏｕ　２６０１，Ｌｏｎｇｇａｎｇｑｕ，Ｂａｎｔｉａｎｊｉｅｄａｏ，Ｙａｂａｏｌｕ１ｈａｏ，ｘｉｎｇｈｅ　ｗｏｒｌｄ，Ｓｈｅｎｚｈｅｎ，Ｇｕａｎｇｄｏｎｇ　Ｃｈｉｎａ,,,,,,2023-06-30,1,,,,,シンセンシカフェイヌオケジユウゲンコウシ,0
1842,8700150117929,新規,0,2023-06-30,2023-06-30,Ｃｉｘｉ　Ｇｏｎｇｃｈｉ　Ｔｒａｄｅ　Ｃｏ．，ＬＴＤ,,外国会社等,,,,,,,,Ｎｏ．２８，Ｗｅｉｅｒ　Ｒｏａｄ，Ｗａｎｇｊｉａ　Ｌｕ　Ｖｉｌｌａｇｅ，Ｌｏｎｇｓｈａｎ　Ｔｏｗｎ，Ｃｉｘｉ，Ｎｉｎｇｂｏ，Ｚｈｅｊｉａｎｇ，Ｃｈｉｎａ,,,,,,2023-06-30,1,,,,,シクシゴンチトレードカンパニーリミテッド,0
1843,8700150117937,新規,0,2023-06-30,2023-06-30,Ｗｕｈａｎ　Ｑｉａｎｂａｉｙｉ　Ｓｈａｎｇｍａｏ　Ｙｏｕｘｉａｎ　Ｇｏｎｇｓｉ,,外国会社等,,,,,,,,ｗｕｊｉａｓｈａｎ，ｔａｉｓｈａｎｇｔｏｕｚｉｑｕ　ｇａｏｑｉａｏｃｈａｎｙｅｙｕａｎ，ｔａｉｚｈｏｎｇｄａｄａｏ，ｔｅ　１　ｈａｏ（３）　Ｗｕｈａｎ　Ｈｕｂｅｉ　Ｃｈｉｎａ,,,,,,2023-06-30,1,,,,,ウーハンキアンバイイシャンマオユウゲンコウシ,0
1844,8700150117945,新規,0,2023-06-30,2023-06-30,Ｓｈｅｎｚｈｅｎ　ｓｈｉ　ｚｈｏｎｇｚｈｉｓａｎｗｅｉ　ｋｅｊｉｙｏｕｘｉａｎｇｏｎｇｓｉ,,外国会社等,,,,,,,,ｌｏｎｇｈｕａｑｕ　ｄａｌａｎｇｊｉｅｄａｏ　ｔｏｎｇｓｈｅｎｇｓｈｅｑｕ　ｊｉｎｃｈｅｎｇｇｏｎｇｙｅｙｕａｎ　３ｄｏｎｇ　５０６　Ｓｈｅｎｚｈｅｎ　Ｇｕａｎｇｄｏｎｇ，Ｃｈｉｎａ,,,,,,2023-06-30,1,,,,,シンセンシゾンジサンウェイケジユウゲンコウシ,0
1845,8700150117953,新規,0,2023-06-30,2023-06-30,ＮＩＮＧＢＯ　ＱＩＬＩ　ＤＩＡＮＺＩＳＨＡＮＧＷＵ　ＹＯＵＸＩＡＮＧＯＮＧＳＩ,,外国会社等,,,,,,,,Ｎｏ．２１，Ｌａｎｅ　６８９，Ｃｈａｎｇｘｉｎｇ　Ｒｏａｄ，Ｊｉａｎｇｂｅｉ　Ｄｉｓｔｒｉｃｔ　Ｒｏｏｍ　１１２，Ｂｕｉｌｄｉｎｇ　１０　Ｔｒｕｓｔｅｅｓｈｉｐ　４０１５　Ｎｉｎｇｂｏ，Ｚｈｅｊｉａｎｇ　Ｃｈｉｎａ,,,,,,2023-06-30,1,,,,,ニンボキリデンシショウムユウゲンコウシ,0
1846,8700150117961,新規,0,2023-06-30,2023-06-30,ｆｏｓｈａｎｃｈｅｎｚｈａｎ　ｑｉｙｅｇｕａｎｌｉ　ｙｏｕｘｉａｎｇｏｎｇｓｉ,,外国会社等,,,,,,,,Ｒｏｏｍ　２０２，Ａｒｅａ　Ｃ，Ｎｏ．１５，Ｚｈｅｎｘｉｎｇ　Ｒｏａｄ，Ｓａｎｚｈｏｕ　Ｃｏｍｍｕｎｉｔｙ，Ｌｕｎｊｉａｏ　Ｓｔｒｅｅｔ，Ｓｈｕｎｄｅ　Ｄｉｓｔｒｉｃｔ，Ｆｏｓｈａｎ，Ｇｕａｎｇｄｏｎｇ　Ｐｒｏｖｉｎｃｅ，Ｃｈｉｎａ,,,,,,2023-06-30,1,,,,,フォシャンチェンザンキエガンリユウゲンコウシ,0
1847,8700150117978,新規,0,2023-06-30,2023-06-30,Ｓｈｅｎｚｈｅｎ　ＲｕｉＤｉＴｕ　Ｔｅｃｈｎｏｌｏｇｙ　Ｃｏ．，Ｌｔｄ,,外国会社等,,,,,,,,ｚｈｏｎｇｇｕｏ　ｇｕａｎｇｄｏｎｇｓｈｅｎｇ　ｓｈｅｎｚｈｅｎｓｈｉ　ｂａｏａｎｑｕ　ｓｏｎｇｇａｎｇｊｉｅｄａｏ　ｘｉｔｏｕｓｈｅｑｕｇｏｎｇｙｅｓｉｌｕ１－２ｈａｏ　ｓｏｎｇｈｅｒｕｉｙｕａｎ０２－Ａ２９１２,,,,,,2023-06-30,1,,,,,シンセンルディツテクノロジーカンパニーリミテッド,0
1848,8700150117986,新規,0,2023-06-30,2023-06-30,Ｓｈｅｎｚｈｅｎ　Ｓｈｅｎｃｈｕａｎｇ　Ｈｉｇｈ　ｔｅｃｈ　Ｅｌｅｃｔｒｏｎｉｃｓ　Ｃｏ．Ｌｔｄ,,外国会社等,,,,,,,,Ｒｏｏｍ　６０１，Ａｒｅａ　Ａ　Ｂｕｉｌｄｉｎｇ　Ａ，Ｊｉｎｇｆａ　Ｉｎｄｕｓｔｒｉａｌ　Ｚｏｎｅ，Ｘｉａｗｅｉｙｕａｎ，Ｇｕｓｈｕ　Ｃｏｍｍｕｎｉｔｙ，Ｘｉｘｉａｎｇ，Ｂａｏａｎ，Ｓｈｅｎｚｈｅｎ，Ｇｕａｎｇｄｏｎｇ，Ｃｈｉｎａ,,,,,,2023-06-30,1,,,,,シェンヂェンシェンチュアンハイテクエレクトロニクスカンパニーリミテッド,0
1849,8700150117994,新規,0,2023-06-30,2023-06-30,ＦｏＳｈａｎＳｈｉ　ＭｉｎｇＮｉａｏ　ＤｉａｎＺｉ　ＫｅＪｉ　ＹｏｕＸｉａｎ　ＧｏｎｇＳｉ,,外国会社等,,,,,,,,Ｎｏ．１　Ｙｕｅｊｉｎ　Ｓｏｕｔｈ　Ｒｏａｄ，Ｂｅｉｊｉａｏ　Ｃｏｍｍｕｎｉｔｙ，Ｂｅｉｊｉａｏ，Ｓｈｕｎｄｅ　Ｓｈｏｐ　５０９（０１），５ｔｈ　Ｆｌｏｏｒ，Ｂｌｏｃｋ　Ｂ，Ｙｕｅｊｉｎ　Ｃｅｎｔｅｒ　Ｂｕｉｌｄｉｎｇ　Ｆｏｓｈａｎ　Ｇｕａｎｇｄｏｎｇ，Ｃｈｉｎａ,,,,,,2023-06-30,1,,,,,フォシャンシミンニァオウデンシケジユウゲンコウシ,0
1850,8700150118002,新規,0,2023-06-30,2023-06-30,ｓｈａｎｔｏｕｓｈｉ　ｃｈｕａｎｇｙｉｎｇｗａｎｊｕ　ｙｏｕｘｉａｎｇｏｎｇｓｉ,,外国会社等,,,,,,,,ｆｅｎｇ　ｘｉａｎｇ　ｊｉｅ　ｄａｏ　ｄｏｎｇ　ｈｕ　ｊｉ　ｘｉｎｇ　ｌｕ　６　ｘｉａｎｇ　１　ｈａｏ　ｅｒ　ｌｏｕ　ｓｈａｎ　ｔｏｕ　ｓｈｉ　ｇｕａｎｇ　ｄｏｎｇ　ｓｈｅｎｇ　Ｃｈｉｎａ,,,,,,2023-06-30,1,,,,,サントォウシツゥアンインワンジュユウゲンコウシ,0
1851,8700150118010,新規,0,2023-06-30,2023-06-30,Ｓｈｅｎｚｈｅｎ　Ｌｉｊｉｎｘｉｎ　Ｔｅｃｈｎｏｌｏｇｙ　Ｃｏ．，Ｌｔｄ．,,外国会社等,,,,,,,,ｓｈｅｎｚｈｅｎｓｈｉ　ｌｏｎｇｈｕａｑｕ　ｍｉｎｚｈｉｊｉｅｄａｏ　ｍｉｎｚｈｉｓｈｅｑｕ　ｍｉｎｚｈｉｄａｄａｏ　３１８ｈａｏ　ｊｉａｘｉｙｅｇｕａｎｇｃｈａｎｇ１１１１　Ｃｈｉｎａ,,,,,,2023-06-30,1,,,,,シンセンリジンシンテクノロジーカンパニーリミテッド,0
1852,8700150118019,新規,0,2023-06-30,2023-06-30,Ｇｕａｎｇｚｈｏｕ　Ｄａｏｋｅ　Ｎｅｔｗｏｒｋ　Ｔｅｃｈｎｏｌｏｇｙ　Ｃｏ，，Ｌｔｄ．,,外国会社等,,,,,,,,Ｂａｉｙｕｎｑｕｔａｉｈｅｚｈｅｎ　Ｌｏｎｇｘｉｎｇｘｉｌｕ　１１２ｈａｏ　２ｄｏｎｇ４ｌｏｕ４０１ｆａｎｇ　Ｇｕａｎｇｚｈｏｕ　Ｇｕａｎｇｄｏｎｇ　Ｃｈｉｎａ,,,,,,2023-06-30,1,,,,,グゥアンゾォウダオケネットワークテクノロジーカンバニーリミテッド,0
1853,8700150118027,新規,0,2023-06-30,2023-06-30,ＴＩＦＦ　ＣＯ．，　ＬＩＭＩＴＥＤ,,外国会社等,,,,,,,,ＵＮＩＴ　０４，７／Ｆ，ＢＲＩＧＨＴ　ＷＡＹ　ＴＯＷＥＲ，Ｎ０３３　ＭＯＮＧ　ＫＯＫ　ＲＯＡＤ，ＫＯＷＬＯＯＮ，ＨＯＮＧＫＯＮＧ，９９９０７７　ＨＫ,,,,,,2023-06-30,1,,,,,テイーフコーリミテツド,0
1861,9010001236534,新規,0,2023-06-30,2023-06-30,株式会社ノサル,,株式会社,東京都,千代田区,神田須田町２丁目２５番地ＧＹＢ秋葉原４Ｆ,,13,101,1010041,,,,,,,2023-06-30,1,,,,,ノサル,0
1862,9010001236559,新規,0,2023-06-30,2023-06-30,大東未来株式会社,,株式会社,東京都,中央区,八重洲２丁目１－１－１２,,13,102,1040028,,,,,,,2023-06-30,1,,,,,ダイトウミライ,0
1868,9010005036880,新規,0,2023-06-30,2023-06-30,特定非営利活動法人ナタデココ,,その他の設立登記法人,東京都,千代田区,平河町１丁目６番１５号ＵＳビル８Ｆ,,13,101,1020093,,,,,,,2023-06-30,1,,,,,ナタデココ,0
1872,9010401175324,新規,0,2023-06-30,2023-06-30,株式会社ＴＤＭ準備会社,,株式会社,東京都,港区,浜松町１丁目３０番５号,,13,103,1050013,,,,,,,2023-06-30,1,,,,,ティーディーエムジュンビガイシャ,0
1873,9010401175357,新規,0,2023-06-30,2023-06-30,株式会社Ｐｌｕｓ　Ｃａｒｅｅｒ,,株式会社,東京都,港区,白金３丁目７番１８号アポロホール＆ルナハウス２０１,,13,103,1080072,,,,,,,2023-06-30,1,,,,,プルスキャリア,0
1875,9010403030411,新規,0,2023-06-30,2023-06-30,合同会社カムレイドトウキョウ・ジャパン,,合同会社,東京都,港区,浜松町２丁目２番１５号,,13,103,1050013,,,,,,,2023-06-30,1,,,,,カムレイドトウキョウジャパン,0
1883,9010903008279,新規,0,2023-06-30,2023-06-30,合同会社まさのや,,合同会社,東京都,世田谷区,喜多見５丁目４番３０号テラスフローラ３０２,,13,112,1570067,,,,,,,2023-06-30,1,,,,,マサノヤ,0
1887,9011001155294,新規,0,2023-06-30,2023-06-30,株式会社Ｃｒｅｎｏｓ,,株式会社,東京都,渋谷区,恵比寿１丁目１０－６清園ビル５Ｆ,,13,113,1500013,,,,,,,2023-06-30,1,,,,,クレノス,0
1888,9011001155336,新規,0,2023-06-30,2023-06-30,株式会社ＢＥＥＳ,,株式会社,東京都,渋谷区,恵比寿１丁目２３番１５号－４０６,,13,113,1500013,,,,,,,2023-06-30,1,,,,,ビーズ,0
1892,9011003017071,新規,0,2023-06-30,2023-06-30,合同会社リツェア,,合同会社,東京都,渋谷区,本町３丁目４９番１０号ティーエスハイム４０３,,13,113,1510071,,,,,,,2023-06-30,1,,,,,リツェア,0
1893,9011003017088,新規,0,2023-06-30,2023-06-30,合同会社ボディデザインコンサル,,合同会社,東京都,渋谷区,代々木２丁目２６番２号第２桑野ビル２－Ｄ号室,,13,113,1510053,,,,,,,2023-06-30,1,,,,,,0
1902,9011503005666,新規,0,2023-06-30,2023-06-30,Ａ．Ｎ．Ｌ．Ｐ合同会社,,合同会社,東京都,北区,上十条１丁目１９番１８－１０２号コーポパレス,,13,117,1140034,,,,,,,2023-06-30,1,,,,,エーエヌエルピー,0
1903,9011601026928,新規,0,2023-06-30,2023-06-30,株式会社やまひろ,,株式会社,東京都,練馬区,桜台３丁目４３番２号,,13,120,1760002,,,,,,,2023-06-30,1,,,,,ヤマヒロ,0
1904,9011603003974,新規,0,2023-06-30,2023-06-30,合同会社エンズ,,合同会社,東京都,練馬区,豊玉北４丁目２番３号フェリーチェ一番館１０３号室,,13,120,1760012,,,,,,,2023-06-30,1,,,,,,0
1910,9012801022469,新規,0,2023-06-30,2023-06-30,株式会社ＰＢ　ＷＯＲＫＳ,,株式会社,東京都,日野市,三沢３丁目２７番地の６,,13,212,1910032,,,,,,,2023-06-30,1,,,,,ピービーワークス,0
1913,9013301050976,新規,0,2023-06-30,2023-06-30,株式会社Ｂｅｓｔ　Ｐｒａｃｔｉｃｅ　Ｃｏｎｓｕｌｔｉｎｇ,,株式会社,東京都,豊島区,西池袋１丁目４番１０号,,13,116,1710021,,,,,,,2023-06-30,1,,,,,ベストプラクティスコンサルティング,0
1918,9020001152268,新規,0,2023-06-30,2023-06-30,株式会社ＪＯＩＮＴ,,株式会社,神奈川県,横浜市西区,南幸２丁目１２番１０号ＩＴＯビル８Ｆ,,14,103,2200005,,,,,,,2023-06-30,1,,,,,ジョイント,0
1919,9020001152276,新規,0,2023-06-30,2023-06-30,ＡＣＳ株式会社,,株式会社,神奈川県,横浜市泉区,中田西１丁目１９番１５－２０７号,,14,116,2450015,,,,,,,2023-06-30,1,,,,,エーシーエス,0
1936,9030001154511,新規,0,2023-06-30,2023-06-30,株式会社アケボノ電気,,株式会社,埼玉県,羽生市,大字上岩瀬６９４番地,,11,216,3480044,,,,,,,2023-06-30,1,,,,,アケボノデンキ,0
1937,9030001154577,新規,0,2023-06-30,2023-06-30,渡会商事株式会社,,株式会社,埼玉県,上尾市,須ケ谷２丁目５１,,11,219,3620004,,,,,,,2023-06-30,1,,,,,ワタライショウジ,0
1938,9030001154651,新規,0,2023-06-30,2023-06-30,充良架設株式会社,,株式会社,埼玉県,行田市,大字須加４４８番地３,,11,206,3610004,,,,,,,2023-06-30,1,,,,,ジュウリョウカセツ,0
1940,9030003022047,新規,0,2023-06-30,2023-06-30,合同会社ＴＦコンサルタント,,合同会社,埼玉県,草加市,松原５丁目１０番２０号,,11,221,3400041,,,,,,,2023-06-30,1,,,,,ティーエフコンサルタント,0
1945,9040001129009,新規,0,2023-06-30,2023-06-30,株式会社チンタコインターナショナル,,株式会社,千葉県,白井市,十余一１５番地１０号１０２,,12,232,2701411,,,,,,,2023-06-30,1,,,,,チンタコインターナショナル,0
1946,9040001129033,新規,0,2023-06-30,2023-06-30,株式会社Ｍ’２マーケット,,株式会社,千葉県,香取市,小見川２４６番地３,,12,236,2890313,,,,,,,2023-06-30,1,,,,,エムズマーケット,0
1954,9060003004629,新規,0,2023-06-30,2023-06-30,合同会社竜王苑,,合同会社,栃木県,日光市,藤原１３５６－１５,,09,206,3212521,,,,,,,2023-06-30,1,,,,,リュウオウエン,0
1956,9070001040567,新規,0,2023-06-30,2023-06-30,クオラ株式会社,,株式会社,群馬県,高崎市,福島町７５７番地２パルステージ１０１,,10,202,3703523,,,,,,,2023-06-30,1,,,,,クオラ,0
1959,9080001025690,新規,0,2023-06-30,2023-06-30,株式会社谷本進事務所,,株式会社,静岡県,静岡市葵区,沓谷１丁目２７番１９－９号,,22,101,4200816,,,,,,,2023-06-30,1,,,,,タニモトススムジムショ,0
1963,9100003007081,新規,0,2023-06-30,2023-06-30,Ｓｈｉｋｉ　Ｌｉｖｉｎｇ合同会社,,合同会社,長野県,北安曇郡白馬村,大字北城８８４０－３,,20,485,3999301,,,,,,,2023-06-30,1,,,,,シキリビング,0
1974,9120001256091,新規,0,2023-06-30,2023-06-30,坤元株式会社,,株式会社,大阪府,大阪市浪速区,日本橋東３丁目１５番３号ハイツクシノ５０Ｃ号室,,27,111,5560006,,,,,,,2023-06-30,1,,,,,コンゲン,0
1978,9120101067802,新規,0,2023-06-30,2023-06-30,２ＧＯ．ＫＥＩＢＩ株式会社,,株式会社,大阪府,堺市堺区,大仙西町５丁１３２－１２,,27,141,5900821,,,,,,,2023-06-30,1,,,,,,0
1980,9120901047730,新規,0,2023-06-30,2023-06-30,オレンジ株式会社,,株式会社,大阪府,吹田市,桃山台５丁目４番２号クレヴィア千里桃山台７０４号室,,27,205,5650854,,,,,,,2023-06-30,1,,,,,オレンジ,0
1983,9130001074617,新規,0,2023-06-30,2023-06-30,株式会社ＳＨＵＫＥＩ,,株式会社,京都府,京都市伏見区,醍醐鍵尾町１番地４１,,26,109,6011363,,,,,,,2023-06-30,1,,,,,シュウケイ,0
1985,9130003008820,新規,0,2023-06-30,2023-06-30,合同会社グランディオーソ,,合同会社,京都府,京都市西京区,桂上野中町２０３番地桂川テラス２０３,,26,111,6158002,,,,,,,2023-06-30,1,,,,,グランディオーソ,0
1987,9130005016805,新規,0,2023-06-30,2023-06-30,一般社団法人まちつくり隊,,その他の設立登記法人,京都府,京都市西京区,嵐山中尾下町３２－３,,26,111,6160004,,,,,,,2023-06-30,1,,,,,マチツクリタイ,0
1995,9160003002911,新規,0,2023-06-30,2023-06-30,スマイル合同会社,,合同会社,滋賀県,甲賀市,甲南町池田１５４５番地８２,,25,209,5203302,,,,,,,2023-06-30,1,,,,,スマイル,0
1996,9170001017662,新規,0,2023-06-30,2023-06-30,株式会社イノベーター,,株式会社,和歌山県,和歌山市,伝法橋南ノ丁６－６ジョイフル伝法橋３０１,,30,201,6408204,,,,,,,2023-06-30,1,,,,,イノベーター,0
1998,9180003025415,新規,0,2023-06-30,2023-06-30,合同会社ｅｙｒｉｅ,,合同会社,愛知県,名古屋市中村区,名駅４丁目２４番５号第２森ビル４０１,,23,105,4500002,,,,,,,2023-06-30,1,,,,,エイリー,0
2001,9180301037509,新規,0,2023-06-30,2023-06-30,株式会社ループ,,株式会社,愛知県,豊橋市,飯村北３丁目６番地１,,23,201,4400834,,,,,,,2023-06-30,1,,,,,ループ,0
2002,9180301037517,新規,0,2023-06-30,2023-06-30,株式会社Ｌｅａｐ,,株式会社,愛知県,西尾市,上町下屋敷１８－４１,,23,213,4450894,,,,,,,2023-06-30,1,,,,,リープ,0
2005,9190001030531,新規,0,2023-06-30,2023-06-30,株式会社ＴＳＵＮＡＧＵホールディングス,,株式会社,三重県,四日市市,川島町６６１２番地２,,24,202,5120934,,,,,,,2023-06-30,1,,,,,ツナグホールディングス,0
2008,9220001025478,新規,0,2023-06-30,2023-06-30,株式会社ＡＬＭＡＶＩＳＩＯＮ,,株式会社,石川県,七尾市,八幡町ニ部３番地,,17,202,9260038,,,,,,,2023-06-30,1,,,,,アルマビジョン,0
2013,9230005009311,新規,0,2023-06-30,2023-06-30,一般社団法人富山ブラック伝承会,,その他の設立登記法人,富山県,射水市,戸破１５５５番地の１,,16,211,9390351,,,,,,,2023-06-30,1,,,,,トヤマブラックデンショウカイ,0
2014,9240001061736,新規,0,2023-06-30,2023-06-30,株式会社アリクス,,株式会社,広島県,広島市東区,牛田早稲田４丁目２番２７号,,34,102,7320062,,,,,,,2023-06-30,1,,,,,アリクス,0
2018,9250003003297,新規,0,2023-06-30,2023-06-30,合同会社ＹＫ　ＺＩＯＮ,,合同会社,山口県,下関市,南部町２１－１９「１階」,,35,201,7500006,,,,,,,2023-06-30,1,,,,,ワイケイシオン,0
2020,9260001038063,新規,0,2023-06-30,2023-06-30,株式会社Ａｖｅｎｉｒｅ,,株式会社,岡山県,倉敷市,児島柳田町６０９－２,,33,202,7110936,,,,,,,2023-06-30,1,,,,,アヴェニール,0
2027,9290001102097,新規,0,2023-06-30,2023-06-30,株式会社スタジオＦ,,株式会社,福岡県,糟屋郡久山町,大字久原４０４２番地ラフィーネメゾン上久原Ｅ２０３,,40,348,8112501,,,,,,,2023-06-30,1,,,,,スタジオエフ,0
2031,9290003014084,新規,0,2023-06-30,2023-06-30,村上開発合同会社,,合同会社,福岡県,太宰府市,国分４丁目１９番１９号,,40,221,8180132,,,,,,,2023-06-30,1,,,,,ムラカミカイハツ,0
2046,9350003004392,新規,0,2023-06-30,2023-06-30,合同会社ｔｒｉｐ,,合同会社,宮崎県,日向市,比良町４丁目４２番地イムタマンション３０１号,,45,206,8830031,,,,,,,2023-06-30,1,,,,,トリップ,0
2049,9360001032213,新規,0,2023-06-30,2023-06-30,ＶｕｎａＰａｙ株式会社,,株式会社,沖縄県,那覇市,首里寒川町２丁目４－５,,47,201,9030826,,,,,,,2023-06-30,1,,,,,ブナペイ,0
2053,9370001050123,新規,0,2023-06-30,2023-06-30,株式会社聖石,,株式会社,宮城県,名取市,堀内字北竹１５３番地の１,,04,207,9892412,,,,,,,2023-06-30,1,,,,,セイセキ,0
2070,9500003003057,新規,0,2023-06-30,2023-06-30,合同会社Ａｄｄ　Ｓｉｇ,,合同会社,愛媛県,松山市,来住町１４８９－１プレジール来住１Ｆテナント,,38,201,7911102,,,,,,,2023-06-30,1,,,,,アッドシグ,0
2072,9700150115576,新規,0,2023-06-30,2023-05-12,檜山卸共同組合,,その他,北海道,檜山郡江差町,字姥神町１３８番地１,,01,361,0430041,,,,,,,2023-05-12,1,,,,,ヒヤマオロシキヨウドウクミアイ,0
2073,9700150116698,新規,0,2023-06-30,2023-06-30,杭州宏捷光電設備有限公司,,外国会社等,,,,,,,,中国浙江省杭州市臨安区錦城街道国聯大厦１（１幢１１０４）,,,,,,2023-06-30,1,,,,,コウシュウコウショウコウデンセツビユウゲンコウシ,0
2074,9700150117911,新規,0,2023-06-30,2023-06-30,Ｓｈｅｎｚｈｅｎ　Ｈｅｎｇｄａ　Ｅｌｅｃｔｒｏｎｉｃ　Ｃｏｍｍｕｎｉｃａｔｉｏｎ　Ｃｏ．，Ｌｔｄ．,,外国会社等,,,,,,,,３３０，Ｂｕｉｌｄｉｎｇ　５，Ｎｏ．１，Ｓａｎｈｅ　Ｒｏａｄ，Ｇａｏｆｅｎｇ　Ｃｏｍｍｕｎｉｔｙ，Ｄａｌａｎｇ　Ｓｔｒｅｅｔ，Ｌｏｎｇｈｕａ　Ｄｉｓｔｒｉｃｔ，Ｓｈｅｎｚｈｅｎ　Ｃｈｉｎａ,,,,,,2023-06-30,1,,,,,シンセンヘンダエレクトロニックコミュニケーションカンパニーリミテッド,0
2075,9700150117928,新規,0,2023-06-30,2023-06-30,Ｓｈｅｎｚｈｅｎ　ｑｉｂａｎ　ｅｌｅｃｔｒｏｎｉｃ　ｃｏｍｍｅｒｃｅ　ｃｏ．，ｌｔｄ,,外国会社等,,,,,,,,３Ｆ－１１０，Ｓｅｃｏｎｄ　Ｐｈａｓｅ，Ｒａｗ　Ｍａｔｅｒｉａｌｓ　Ｌｏｇｉｓｔｉｃｓ　Ａｒｅａ，Ｉｎｔｅｒｎａｔｉｏｎａｌ　Ｔｅｘｔｉｌｅ　ａｎｄ　Ｇａｒｍｅｎｔ，Ｈｕａｎａｎ　Ｃｈｅｎｇ，Ｐｉｎｇｈｕ　Ｓｔｒｅｅｔ，Ｌｏｎｇｇａｎｇ　Ｄｉｓｔｒｉｃｔ，Ｓｈｅｎｚｈｅｎ　Ｃｈｉｎａ,,,,,,2023-06-30,1,,,,,シンセンキバンエレクトロニックコーマスカンパニーリミテッド,0
2076,9700150117936,新規,0,2023-06-30,2023-06-30,ｓｈｅｎｚｈｅｎｓｈｉ　ｚｈｉｓｅｎｄｉａｎｚｉｓｈａｎｇｗｕ　ｙｏｕｘｉａｎｇｏｎｇｓｉ,,外国会社等,,,,,,,,Ｎｏ．３０１，Ｌａｎｅ　７，Ｌａｎｅ　６，Ｄｉｓｔｒｉｃｔ　２，Ｘｉｎｈｅ　Ｃｏｍｍｕｎｉｔｙ，Ｆｕｈａｉ　Ｓｔｒｅｅｔ，Ｂａｏａｎ　Ｄｉｓｔｒｉｃｔ，Ｓｈｅｎｚｈｅｎ，Ｇｕａｎｇｄｏｎｇ，Ｃｈｉｎａ,,,,,,2023-06-30,1,,,,,シンセンシジセンデンシショウムユウゲンコウシ,0
2077,9700150117944,新規,0,2023-06-30,2023-06-30,ＳＨＥＮＺＨＥＮＳＨＩ　ＸＵＡＮＬＵＤＩＡＮＺＩＳＨＡＧＮＷＵ　ＹＯＵＸＩＡＮＧＯＮＧＳＩ,,外国会社等,,,,,,,,ＮＡＮＴＯＵＪＩＥＤＡＯ　ＴＩＡＮＳＨＡＳＨＥＱＵ　ＣＨＡＮＧＸＩＮＧＬＵ　ＣＨＡＮＧＸＩＮＧＹＵＡＮ　Ｄ５ＤＯＮＧ２０１　ＮＡＮＳＨＡＮＱＵ　ＧＵＡＮＧＤＯＮＧＳＨＥＮＧ　ＳＨＥＮＺＨＥＮＳＨｌ，ＣＨＩＮＡ,,,,,,2023-06-30,1,,,,,シンセンシシャンルデンシショウムユウゲンコウシ,0
2078,9700150117952,新規,0,2023-06-30,2023-06-30,Ｓｈｅｎｚｈｅｎ　Ｚｈｏｎｇｍｉｎｇｇｕａｎｇｄｉａｎ　Ｔｅｃｈｎｏｌｏｇｙ　Ｃｏ．，Ｌｔｄ,,外国会社等,,,,,,,,Ｒｏｏｍ　６０３，Ａｌｌｅｙ　９，Ｘｉｃｕｎ　Ｖｉｌｌａｇｅ，Ｂａｎｔｉａｎ　ｓｔｒｅｅｔ，Ｓｈｅｎｚｈｅｎ　Ｇｕａｎｇｄｏｎｇ，Ｃｈｉｎａ,,,,,,2023-06-30,1,,,,,シンセンゾンミンガンディアンテクノロジーカンパニーリミテッド,0
2079,9700150117960,新規,0,2023-06-30,2023-06-30,Ｆｏｓｈａｎ　ｄｕｉｌｕｍａｏｙｉ　ｙｏｕｘｉａｎｇｏｎｇｓｉ,,外国会社等,,,,,,,,Ｎｏ．１　Ｈｅｎｇｘｉｎｇ　Ｎｏｒｔｈ　Ｒｏａｄ，Ｚｏｎｅ　Ｃ，Ｓｈｉｓｈａｎ　Ｓｃｉｅｎｃｅ　ａｎｄ　Ｔｅｃｈｎｏｌｏｇｙ　Ｉｎｄｕｓｔｒｉａｌ　Ｐａｒｋ，Ｓｈｉｓｈａｎ　Ｔｏｗｎ，Ｎａｎｈａｉ　Ｄｉｓｔｒｉｃｔ，Ｆｏｓｈａｎ，Ｃｈｉｎａ,,,,,,2023-06-30,1,,,,,フォシャンデュイルマオイユウゲンコウシ,0
2080,9700150117969,新規,0,2023-06-30,2023-06-30,Ｓｈｅｎｚｈｅｎｓｈｉ　ｘｉｎｋｅｗｅｉ　ｄｉａｎｚｉ　ｙｏｕｘｉａｎｇｏｎｇｓｉ,,外国会社等,,,,,,,,ｍａｔｉａｎｊｉｅｄａｏｈｅｓｈｕｉｋｏｕｓｈｅｑｕ　ｈｅｓｈｕｉｋｏｕｘｉｎｃｕｎｘｉｑｕ　ｙｉｐａｉ１ｄｏｎｇ１１１３　ｓｈｅｎｚｈｅｎｓｈｉ　ｇｕａｎｇｍｉｎｇｑｕ　ｇｕａｎｇｄｏｎｇｓｈｅｎｇ，ＣＮ,,,,,,2023-06-30,1,,,,,シンセンシシンケウェイデンシユウゲンコウシ,0
2081,9700150117977,新規,0,2023-06-30,2023-06-30,Ｓｈｅｎｚｈｅｎｓｈｉ　Ｗｅｉｃｈｕａｎｇ　Ｓｈｉｄａｉ　Ｋｅｊｉ　Ｙｏｕｘｉａｎｇｏｎｇｓｉ　　　　,,外国会社等,,,,,,,,ｌｏｎｇｇａｎｇｑｕｂａｎｔｉａｎｊｉｅｄａｏｂａｎｘｉｎｇｊｉｅ１９ｈａｏ３１８－２ｓｈｉＳｈｅｎｚｈｅｎＧｕａｎｇｄｏｎｇ，Ｃｈｉｎａ　　　,,,,,,2023-06-30,1,,,,,シンセンシウェイチャンシダイケジユウゲンコウシ,0
2082,9700150117985,新規,0,2023-06-30,2023-06-30,Ｂｅｉｊｉｎｇ　ＫａｉＰｕ　Ｏｕｔｄｏｏｒ　Ｐｒｏｄｕｃｔｓ　Ｃｏ．，Ｌｔｄ,,外国会社等,,,,,,,,Ｘｉｄａｗａｎｇｌｕ　Ｊｉａ　１２－２　（Ｇｕｏｊｉａｇｕａｎｇｇａｏｃｈａｎｙｅｙｕａｎｑｕｆｕｈｕａｑｉ　２５８１５ｈａｏ）Ｃｈａｏｙａｎｇｑｕ　Ｂｅｉｊｉｎｇ，Ｃｈｉｎａ,,,,,,2023-06-30,1,,,,,ペキンカイプアウトドアプロダクツカンパニーリミテッド,0
2083,9700150117993,新規,0,2023-06-30,2023-06-30,Ｚｈｕ　ｈａｉ　ｈｕａ　ｋｅ　ｄｉａｎ　ｚｉ　ｋｅ　ｊｉ　ｙｏｕ　ｘｉａｎ　ｇｏｎｇ　ｓｉ,,外国会社等,,,,,,,,Ｑｉａｎ　ｓｈａｎ　ｍｉｎｇ　ｚｈｕ　ｎａｎ　ｌｕ　２０２９　ｈａｏ　ｚｈｕ　ｈａｉ　ｓｈｉ　ｔａｉ　ｓｈａｎｇ　ｈｕｏ　ｄｏｎｇ　ｚｈｏｎｇ　ｘｉｎ　７　ｃｅｎｇ　７０５　ｓｈｉ　Ｚｈｕ　ｈａｉ　Ｇｕａｎｇ　ｄｏｎｇ，Ｃｈｉｎａ,,,,,,2023-06-30,1,,,,,ズハイファケデンシケジユウゲンコウシ,0
2084,9700150118001,新規,0,2023-06-30,2023-06-30,ｎａｎｊｉｎｇ　ｙａｎｔｕｑｉｃｈｅｙｏｎｇｐｉｎ　ｙｏｕｘｉａｎｇｏｎｇｓｉ,,外国会社等,,,,,,,,Ｎａｎｊｉｎｇｓｈｉ　ｊｉａｎｇｎｉｎｇｑｕ　ｘｉｍｅｎｚｉｌｕ　２７ｈａｏｃｚｕｏ２０１ｓｈｉ　ｎａｎｊｉｎｇ　ｊｉａｎｇｓｕ，Ｃｈｉｎａ,,,,,,2023-06-30,1,,,,,ナンジンヤンツチチェヨンピンユウゲンコウシ,0
2085,9700150118018,新規,0,2023-06-30,2023-06-30,ｈａｉｋｏｕｓｈｉ　ｙａｎｇｄａｋｅｊｉ　ｙｏｕｘｉａｎｇｏｎｇｓｉ,,外国会社等,,,,,,,,ｍｅｉｌａｎｑｕ　ｌａｎｔｉａｎｊｉｅｄａｏ　ｌａｎｔｉａｎｌｕ　３７ｈａｏｌｉｕｃｅｎｇｚｏｎｇｈｅｌｏｕ　５ｌｏｕ５０１－１Ｃ　ｈａｉｋｏｕ　ｈａｉｎａｎ　Ｃｈｉｎａ,,,,,,2023-06-30,1,,,,,ハイコウシヤンダケジユウゲンコウシ,0
2086,9700150118026,新規,0,2023-06-30,2023-06-30,Ｗｕｙｕａｎ（Ｓｈｅｎｚｈｅｎ）ＳｈｅｊｉＹｏｕｘｉａｎｇｏｎｇｓｉ,,外国会社等,,,,,,,,Ｌｏｎｇｇａｎｇｑｕ　Ｈｅｎｇｇａｎｇｊｉｅｄａｏ　Ｈｅｋａｎｇｈｕａｙｕａｎ４ｄｏｎｇ２６Ｃ，Ｓｈｅｎｚｈｅｎｓｈｉ，Ｇｕａｎｇｄｏｎｇｓｈｅｎｇ，５１８０００，ＣＮ,,,,,,2023-06-30,1,,,,,ブツゲンシンセンセツケイユウゲンコウシ,0
