sequenceNumber,corporateNumber,process,correct,updateDate,changeDate,name,nameImageId,kind,prefectureName,cityName,streetNumber,addressImageId,prefectureCode,cityCode,postCode,addressOutside,addressOutsideImageId,closeDate,closeCause,successorCorporateNumber,changeCause,assignmentDate,latest,enName,enPrefectureName,enCityName,enAddressOutside,furigana,hihyoji
8,1010001235683,新規,0,2023-06-06,2023-06-06,メルシーママンクリエイティブ株式会社,,株式会社,東京都,千代田区,六番町６番地４ＬＨ番町スクエア５階,,13,101,1020085,,,,,,,2023-06-06,1,,,,,メルシーママンクリエイティブ,0
9,1010001235808,新規,0,2023-06-06,2023-06-06,株式会社桜芽会,,株式会社,東京都,文京区,小石川４丁目２０番１号イトークリエイトビル９Ｆ,,13,105,1120002,,,,,,,2023-06-06,1,,,,,サクラガカイ,0
10,1010001235824,新規,0,2023-06-06,2023-06-06,株式会社Ｂｌｏｏｍｓ．,,株式会社,東京都,中央区,日本橋横山町５番６号,,13,102,1030003,,,,,,,2023-06-06,1,,,,,ブルームス,0
11,1010001235898,新規,0,2023-06-06,2023-06-06,株式会社ユーフォリアプラス,,株式会社,東京都,中央区,日本橋横山町３－１横山町ダイカンプラザ５０１号室,,13,102,1030003,,,,,,,2023-06-06,1,,,,,ユーフォリアプラス,0
12,1010001235915,新規,0,2023-06-06,2023-06-06,株式会社ＳｕｐｅｒＰａｒｋ　ＪＡＰＡＮ,,株式会社,東京都,中央区,銀座１丁目１２番４号Ｎ＆ＥＢＬＤ．６Ｆ,,13,102,1040061,,,,,,,2023-06-06,1,,,,,スーパーパークジャパン,0
13,1010001235923,新規,0,2023-06-06,2023-06-06,Ｂｉｚｆｏｒｃｅ株式会社,,株式会社,東京都,中央区,日本橋室町１丁目１１番１２号日本橋水野ビル７階,,13,102,1030022,,,,,,,2023-06-06,1,,,,,ビズフォース,0
18,1010005036772,新規,0,2023-06-06,2023-06-06,税理士法人小川堀田会計事務所,,その他の設立登記法人,東京都,千代田区,内神田３丁目４番１４号,,13,101,1010047,,,,,,,2023-06-06,1,,,,,オガワホッタカイケイジムショ,0
21,1010403030278,新規,0,2023-06-06,2023-06-06,ＭＨロジスティクス合同会社,,合同会社,東京都,港区,六本木１丁目９番１０号アークヒルズ仙石山森タワー４０階,,13,103,1060032,,,,,,,2023-06-06,1,,,,,エムエイチロジスティクス,0
22,1010403030286,新規,0,2023-06-06,2023-06-06,ＪＡＰＡＮ　ＧＲＯＵＰ合同会社,,合同会社,東京都,港区,芝１丁目１５番１４号,,13,103,1050014,,,,,,,2023-06-06,1,,,,,ジャパングループ,0
23,1010701044368,新規,0,2023-06-06,2023-06-06,株式会社エース,,株式会社,東京都,品川区,東大井２丁目２番３号１Ｆ,,13,109,1400011,,,,,,,2023-06-06,1,,,,,エース,0
24,1010701044376,新規,0,2023-06-06,2023-06-06,株式会社アフィニティネクサス,,株式会社,東京都,品川区,西五反田１丁目１１番１号,,13,109,1410031,,,,,,,2023-06-06,1,,,,,アフィニティネクサス,0
28,1010901053169,新規,0,2023-06-06,2023-06-06,株式会社Ｃｉｃｃｉ＆ＢｅＬ,,株式会社,東京都,世田谷区,経堂４丁目３７番１１号,,13,112,1560052,,,,,,,2023-06-06,1,,,,,チッチアンドベル,0
29,1010901053177,新規,0,2023-06-06,2023-06-06,株式会社ＡＫＮ,,株式会社,東京都,世田谷区,三軒茶屋２丁目１１番２０号サンタワーズＤ棟８階,,13,112,1540024,,,,,,,2023-06-06,1,,,,,エーケーエヌ,0
30,1010903008212,新規,0,2023-06-06,2023-06-06,ＢＸパートナーズ合同会社,,合同会社,東京都,世田谷区,代田３丁目４番９号,,13,112,1550033,,,,,,,2023-06-06,1,,,,,ビーエックスパートナーズ,0
42,1011001154758,新規,0,2023-06-06,2023-06-06,株式会社Ｔ・麦わら帽子,,株式会社,東京都,渋谷区,神南１丁目２３－１４,,13,113,1500041,,,,,,,2023-06-06,1,,,,,,0
43,1011001154824,新規,0,2023-06-06,2023-06-06,株式会社Ｄ．Ｄ．Ｗｏｒｋｓ,,株式会社,東京都,渋谷区,道玄坂１丁目１０番８号渋谷道玄坂東急ビル２Ｆ－Ｃ,,13,113,1500043,,,,,,,2023-06-06,1,,,,,ディーディーワークス,0
44,1011001154832,新規,0,2023-06-06,2023-06-06,りくらぼ株式会社,,株式会社,東京都,渋谷区,代々木３丁目１番１１号パシフィックスクエア代々木４Ｆ,,13,113,1510053,,,,,,,2023-06-06,1,,,,,リクラボ,0
45,1011001154840,新規,0,2023-06-06,2023-06-06,株式会社ＬＩＮＯＳＥＮＳＥ,,株式会社,東京都,渋谷区,渋谷２丁目１９番１５号宮益坂ビルディング６０９,,13,113,1500002,,,,,,,2023-06-06,1,,,,,リノセンス,0
46,1011001154849,新規,0,2023-06-06,2023-06-06,株式会社サンティグレ,,株式会社,東京都,目黒区,平町２丁目２０番５号平町ロイヤルパレス１Ｆ,,13,110,1520032,,,,,,,2023-06-06,1,,,,,サンティグレ,0
47,1011001154907,新規,0,2023-06-06,2023-06-06,ア・ポワン株式会社,,株式会社,東京都,目黒区,上目黒２丁目４４番１０マヌアール中目黒７０２,,13,110,1530051,,,,,,,2023-06-06,1,,,,,アポワン,0
50,1011003016931,新規,0,2023-06-06,2023-06-06,ｓｉｃ合同会社,,合同会社,東京都,渋谷区,神宮前６丁目２３番４号桑野ビル２階,,13,113,1500001,,,,,,,2023-06-06,1,,,,,シック,0
55,1011103013110,新規,0,2023-06-06,2023-06-06,合同会社Ｃｉｔｙ　Ｊａｖａ,,合同会社,東京都,新宿区,歌舞伎町２丁目２番２１－７０２号,,13,104,1600021,,,,,,,2023-06-06,1,,,,,シティジャバ,0
56,1011103013119,新規,0,2023-06-06,2023-06-06,ＡＸＩＳ合同会社,,合同会社,東京都,新宿区,西新宿３丁目３番１３号西新宿水間ビル２Ｆ,,13,104,1600023,,,,,,,2023-06-06,1,,,,,アクシス,0
58,1011201024694,新規,0,2023-06-06,2023-06-06,株式会社ｔｒｉｍ．,,株式会社,東京都,中野区,中野５丁目６５番３号ホワイトハウスビル６Ｆ,,13,114,1640001,,,,,,,2023-06-06,1,,,,,トリム,0
61,1011401025179,新規,0,2023-06-06,2023-06-06,株式会社ＤＡＵＳ,,株式会社,東京都,板橋区,南常盤台１丁目２９番５号,,13,119,1740072,,,,,,,2023-06-06,1,,,,,ダウス,0
63,1011501029385,新規,0,2023-06-06,2023-06-06,科登株式会社,,株式会社,東京都,荒川区,南千住２丁目１６番９－３０２号,,13,118,1160003,,,,,,,2023-06-06,1,,,,,カト,0
65,1011503005624,新規,0,2023-06-06,2023-06-06,ＰＴＡ合同会社,,合同会社,東京都,北区,中里１丁目３７－８クレセンスソフィア１０１,,13,117,1140015,,,,,,,2023-06-06,1,,,,,ピテイエイ,0
67,1011601026869,新規,0,2023-06-06,2023-06-06,株式会社Ｔｏｍｅ,,株式会社,東京都,練馬区,富士見台４丁目３番９号－５,,13,120,1770034,,,,,,,2023-06-06,1,,,,,トメ,0
68,1011601026877,新規,0,2023-06-06,2023-06-06,株式会社宮田興業,,株式会社,東京都,練馬区,旭町３丁目２３番５号,,13,120,1790071,,,,,,,2023-06-06,1,,,,,ミヤタコウギョウ,0
69,1011603003940,新規,0,2023-06-06,2023-06-06,モアビズ合同会社,,合同会社,東京都,練馬区,石神井町６丁目２８番１９号,,13,120,1770041,,,,,,,2023-06-06,1,,,,,モアビズ,0
71,1011801042518,新規,0,2023-06-06,2023-06-06,株式会社ＳＫ‐ＷＯＲＫＳ,,株式会社,東京都,葛飾区,奥戸１丁目１４番９号,,13,122,1240022,,,,,,,2023-06-06,1,,,,,エスケーワークス,0
73,1011803005670,新規,0,2023-06-06,2023-06-06,合同会社ファント,,合同会社,東京都,足立区,青井６丁目２２番８号,,13,121,1210012,,,,,,,2023-06-06,1,,,,,ファント,0
79,1012703002725,新規,0,2023-06-06,2023-06-06,ストリーム投資合同会社,,合同会社,東京都,小平市,小川町２丁目１２０９番地の５,,13,211,1870032,,,,,,,2023-06-06,1,,,,,ストリームトウシ,0
80,1012801022410,新規,0,2023-06-06,2023-06-06,エム・ケー秦野ＰＪ株式会社,,株式会社,東京都,日野市,大坂上１丁目３０番地２８ＭＫビル,,13,212,1910061,,,,,,,2023-06-06,1,,,,,エムケーハダノプロジェクト,0
82,1012803003094,新規,0,2023-06-06,2023-06-06,ＳＴＡＧＥＷＯＲＫＳ合同会社,,合同会社,東京都,国分寺市,南町２丁目１０番１３号,,13,214,1850021,,,,,,,2023-06-06,1,,,,,ステージワークス,0
91,1020001151855,新規,0,2023-06-06,2023-06-06,株式会社ＣＡＬＭ,,株式会社,神奈川県,横浜市港北区,箕輪町２丁目５番５２－２０１号,,14,109,2230051,,,,,,,2023-06-06,1,,,,,カーム,0
92,1020001151896,新規,0,2023-06-06,2023-06-06,株式会社百瀬電気事務所,,株式会社,神奈川県,川崎市宮前区,南野川２丁目３２番１８号,,14,136,2160042,,,,,,,2023-06-06,1,,,,,モモセデンキジムショ,0
93,1020001151905,新規,0,2023-06-06,2023-06-06,オレオ株式会社,,株式会社,神奈川県,横浜市神奈川区,大口通１３０番地８ＫＯＹＯ大口ビル３０２,,14,102,2210002,,,,,,,2023-06-06,1,,,,,オレオ,0
94,1020001151921,新規,0,2023-06-06,2023-06-06,株式会社ブロッサムジャパン,,株式会社,神奈川県,横浜市港南区,日限山４丁目４０番７号,,14,111,2330015,,,,,,,2023-06-06,1,,,,,ブロッサムジャパン,0
100,1020005016014,新規,0,2023-06-06,2023-06-06,一般社団法人樹の会,,その他の設立登記法人,神奈川県,横浜市中区,本牧原１２－１,,14,104,2310821,,,,,,,2023-06-06,1,,,,,イツキノカイ,0
103,1021001079211,新規,0,2023-06-06,2023-06-06,株式会社ＴＡＧ,,株式会社,神奈川県,相模原市中央区,相模原７丁目９番２８号,,14,152,2520231,,,,,,,2023-06-06,1,,,,,ティエージー,0
117,1040001128620,新規,0,2023-06-06,2023-06-06,株式会社ＳＡＩＫＩ商事,,株式会社,千葉県,千葉市若葉区,千城台東４丁目１５番４号,,12,104,2640002,,,,,,,2023-06-06,1,,,,,サイキショウジ,0
118,1040001128645,新規,0,2023-06-06,2023-06-06,株式会社飯野トランスポートサービス,,株式会社,千葉県,千葉市緑区,おゆみ野中央８丁目１３番地２１,,12,105,2660032,,,,,,,2023-06-06,1,,,,,イイノトランスポートサービス,0
119,1040001128686,新規,0,2023-06-06,2023-06-06,株式会社インデクシア,,株式会社,千葉県,千葉市花見川区,花園３丁目６番１６号,,12,102,2620025,,,,,,,2023-06-06,1,,,,,インデクシア,0
120,1040001128744,新規,0,2023-06-06,2023-06-06,株式会社Ｃｈｅｓｏｐｈ,,株式会社,千葉県,柏市,松葉町５丁目１番地８号４０４号室,,12,217,2770827,,,,,,,2023-06-06,1,,,,,チェソフィ,0
124,1040003022755,新規,0,2023-06-06,2023-06-06,銀河合同会社,,合同会社,千葉県,松戸市,栄町西５丁目１３２５番地の５,,12,207,2710061,,,,,,,2023-06-06,1,,,,,ギンガ,0
125,1050001052943,新規,0,2023-06-06,2023-06-06,株式会社めごこ,,株式会社,茨城県,つくば市,島名１３２４番地（香取台Ｂ１０街区５２）,,08,220,3002655,,,,,,,2023-06-06,1,,,,,メゴコ,0
134,1070001040500,新規,0,2023-06-06,2023-06-06,株式会社ＥＬＣＡＳＴ,,株式会社,群馬県,桐生市,広沢町５丁目１７７３番地の１３,,10,203,3760013,,,,,,,2023-06-06,1,,,,,エルキャスト,0
135,1070001040509,新規,0,2023-06-06,2023-06-06,株式会社ａｍｕｌｅｔｔｅ,,株式会社,群馬県,太田市,大原町５５４番地１,,10,205,3792304,,,,,,,2023-06-06,1,,,,,アミュレット,0
136,1070001040517,新規,0,2023-06-06,2023-06-06,株式会社アイゼン,,株式会社,群馬県,館林市,富士原町１１１７番地の３レジデンス桜本－１０１,,10,207,3740041,,,,,,,2023-06-06,1,,,,,,0
140,1070003004965,新規,0,2023-06-06,2023-06-06,Ｒｅ．ＰＬＵＳＩＥ合同会社,,合同会社,群馬県,伊勢崎市,田中島町１５０７番地４パークハイツＢ棟１０１号室,,10,204,3720802,,,,,,,2023-06-06,1,,,,,リプラシエ,0
143,1070005010136,新規,0,2023-06-06,2023-06-06,一般社団法人ＢＥＣＡＭＥ,,その他の設立登記法人,群馬県,富岡市,宮崎５８３番地２,,10,210,3702453,,,,,,,2023-06-06,1,,,,,ビケイム,0
144,1080001025657,新規,0,2023-06-06,2023-06-06,株式会社ＬＩＢ,,株式会社,静岡県,静岡市清水区,庵原町２２５６番地１１号,,22,103,4240114,,,,,,,2023-06-06,1,,,,,リブ,0
147,1080101024047,新規,0,2023-06-06,2023-06-06,久和工業株式会社,,株式会社,静岡県,富士市,五貫島１３４３番地の８,,22,210,4160946,,,,,,,2023-06-06,1,,,,,クワコウギョウ,0
149,1080103002819,新規,0,2023-06-06,2023-06-06,Ｅ＆Ｋ合同会社,,合同会社,静岡県,富士市,中野１０６２番地,,22,210,4170809,,,,,,,2023-06-06,1,,,,,イーアンドケー,0
154,1110001037590,新規,0,2023-06-06,2023-06-06,株式会社おけや,,株式会社,新潟県,新潟市西蒲区,河井２６８９番地,,15,108,9530051,,,,,,,2023-06-06,1,,,,,オケヤ,0
163,1120001255357,新規,0,2023-06-06,2023-06-06,株式会社かける内装,,株式会社,大阪府,大阪市平野区,加美鞍作１丁目３番５号,,27,126,5470004,,,,,,,2023-06-06,1,,,,,カケルナイソウ,0
164,1120001255398,新規,0,2023-06-06,2023-06-06,株式会社ＴＳＵＫＡＳＡ,,株式会社,大阪府,守口市,大久保町５丁目５８番１３号,,27,209,5700012,,,,,,,2023-06-06,1,,,,,ツカサ,0
165,1120001255407,新規,0,2023-06-06,2023-06-06,賽班建築株式会社,,株式会社,大阪府,大阪市東成区,中道２丁目２６番１５号,,27,115,5370025,,,,,,,2023-06-06,1,,,,,サイパンケンチク,0
166,1120001255423,新規,0,2023-06-06,2023-06-06,株式会社浄一,,株式会社,大阪府,大阪市中央区,松屋町住吉３－２（５０８）,,27,128,5400017,,,,,,,2023-06-06,1,,,,,ジョウイチ,0
167,1120001255464,新規,0,2023-06-06,2023-06-06,Ｒｅｖｏｌｖｅ　Ｆｉｔｎｅｓｓ株式会社,,株式会社,大阪府,大阪市城東区,東中浜６丁目１７番１７号荒川マンション３０３号,,27,118,5360023,,,,,,,2023-06-06,1,,,,,リボルブフィットネス,0
170,1120003024198,新規,0,2023-06-06,2023-06-06,合同会社たつのこ,,合同会社,大阪府,枚方市,茄子作３丁目２３番６号,,27,210,5730071,,,,,,,2023-06-06,1,,,,,タツノコ,0
171,1120003024248,新規,0,2023-06-06,2023-06-06,Ｍａｔｓｕｄａ　Ｍｕｓｉｃ　Ｌａｂ．合同会社,,合同会社,大阪府,大阪市福島区,野田３丁目１３‐２４井上ビル,,27,103,5530005,,,,,,,2023-06-06,1,,,,,マツダミュージックラボ,0
172,1120005023660,新規,0,2023-06-06,2023-06-06,大阪ガス都市開発プライベートリート投資法人,,その他の設立登記法人,大阪府,大阪市中央区,高麗橋４丁目２番１６号,,27,128,5410043,,,,,,,2023-06-06,1,,,,,オオサカガストシカイハツプライベートリート,0
174,1120101067628,新規,0,2023-06-06,2023-06-06,株式会社南野製作所,,株式会社,大阪府,堺市北区,船堂町２丁２３番２１号,,27,146,5918003,,,,,,,2023-06-06,1,,,,,ミナミノセイサクショ,0
180,1122005003683,新規,0,2023-06-06,2023-06-06,土地家屋調査士法人東大阪前川滝川事務所,,その他の設立登記法人,大阪府,東大阪市,鷹殿町１番７号,,27,227,5798036,,,,,,,2023-06-06,1,,,,,ヒガシオオサカマエカワタキガワジムショ,0
186,1130001074483,新規,0,2023-06-06,2023-06-06,株式会社ＧＲＡＮＤＥ,,株式会社,京都府,京都市中京区,中島町９８番御所飴ビル４Ａ,,26,104,6048004,,,,,,,2023-06-06,1,,,,,グランデ,0
187,1140003019163,新規,0,2023-06-06,2023-06-06,合同会社ＷＡＫＫ,,合同会社,兵庫県,神戸市北区,若葉台１丁目８番６号,,28,109,6511143,,,,,,,2023-06-06,1,,,,,ワック,0
189,1150001026441,新規,0,2023-06-06,2023-06-06,株式会社ＰＯＩ,,株式会社,奈良県,奈良市,西大寺小坊町６番１号,,29,201,6310827,,,,,,,2023-06-06,1,,,,,ポイ,0
191,1160001025079,新規,0,2023-06-06,2023-06-06,ライフスマイル株式会社,,株式会社,滋賀県,蒲生郡竜王町,大字岩井４６９番地２,,25,384,5202522,,,,,,,2023-06-06,1,,,,,ライフスマイル,0
192,1160001025087,新規,0,2023-06-06,2023-06-06,株式会社ＳＫプレザント,,株式会社,滋賀県,栗東市,手原４丁目５番１５号,,25,208,5203047,,,,,,,2023-06-06,1,,,,,エスケイプレザント,0
193,1160001025095,新規,0,2023-06-06,2023-06-06,株式会社ＪＯＪＩ　ＳＴＡＢＬＥ,,株式会社,滋賀県,東近江市,川合寺町６０７,,25,213,5270041,,,,,,,2023-06-06,1,,,,,ジョージステーブル,0
197,1160005011199,新規,0,2023-06-06,2023-06-06,弁護士法人ハレ,,その他の設立登記法人,滋賀県,草津市,大路１丁目４－１２大丸ソイビル２０４号室,,25,206,5250032,,,,,,,2023-06-06,1,,,,,ハレ,0
198,1170003001878,新規,0,2023-06-06,2023-06-06,合同会社Ｔ．Ｈ．Ｔ．,,合同会社,和歌山県,有田市,糸我町西５４１番地１３,,30,204,6490422,,,,,,,2023-06-06,1,,,,,ティーエイチティー,0
202,1180001156582,新規,0,2023-06-06,2023-06-06,株式会社星野技研,,株式会社,愛知県,名古屋市西区,宝地町３５８番地,,23,104,4520808,,,,,,,2023-06-06,1,,,,,ホシノギケン,0
203,1180001156608,新規,0,2023-06-06,2023-06-06,株式会社ｍａｇｎｅｔ,,株式会社,愛知県,名古屋市昭和区,高峯町１６１番地アネシア八事高峯シティテラス１０２号,,23,107,4660811,,,,,,,2023-06-06,1,,,,,マグネット,0
211,1180003025298,新規,0,2023-06-06,2023-06-06,合同会社エムスタイル,,合同会社,愛知県,名古屋市南区,要町２丁目２１番地,,23,112,4570802,,,,,,,2023-06-06,1,,,,,エムスタイル,0
215,1180301037441,新規,0,2023-06-06,2023-06-06,株式会社ＯＨＩＳＡＭＡ　Ｌａｂｏ,,株式会社,愛知県,豊田市,竜神町寺池５番地１,,23,211,4730907,,,,,,,2023-06-06,1,,,,,オヒサマラボ,0
216,1180303005735,新規,0,2023-06-06,2023-06-06,合同会社山荷葉,,合同会社,愛知県,岡崎市,洞町字長沼２６－１３,,23,202,4440008,,,,,,,2023-06-06,1,,,,,サンカヨウ,0
222,1200001041377,新規,0,2023-06-06,2023-06-06,株式会社住み善し,,株式会社,岐阜県,美濃市,段町１１０番地７６,,21,207,5013744,,,,,,,2023-06-06,1,,,,,スミヨシ,0
223,1200001041385,新規,0,2023-06-06,2023-06-06,エジュール株式会社,,株式会社,岐阜県,岐阜市,問屋町２丁目１７ＯＫＡビル３階,,21,201,5008845,,,,,,,2023-06-06,1,,,,,エジュール,0
231,1240001061628,新規,0,2023-06-06,2023-06-06,株式会社さくらぐみ,,株式会社,広島県,広島市佐伯区,五日市５丁目１１番２０号,,34,108,7315127,,,,,,,2023-06-06,1,,,,,サクラグミ,0
232,1240001061636,新規,0,2023-06-06,2023-06-06,株式会社ＧＬＯＴＥＣＨ,,株式会社,広島県,広島市西区,南観音２丁目７番２３－１００２号,,34,104,7330035,,,,,,,2023-06-06,1,,,,,グロテック,0
240,1250001020120,新規,0,2023-06-06,2023-06-06,株式会社Ｎアドバンス,,株式会社,山口県,下関市,山手町１３番１６号,,35,201,7500033,,,,,,,2023-06-06,1,,,,,エヌアドバンス,0
245,1260003004327,新規,0,2023-06-06,2023-06-06,合同会社ジュナティカジャパン,,合同会社,岡山県,岡山市北区,三門中町３番８号,,33,101,7000043,,,,,,,2023-06-06,1,,,,,ジュナティカジャパン,0
251,1290001101718,新規,0,2023-06-06,2023-06-06,株式会社一天商事,,株式会社,福岡県,福岡市東区,箱崎４丁目３０番１１号,,40,131,8120053,,,,,,,2023-06-06,1,,,,,イチテンショウジ,0
252,1290001101742,新規,0,2023-06-06,2023-06-06,ＴＫＫ株式会社,,株式会社,福岡県,糟屋郡篠栗町,大字尾仲７００番地２,,40,342,8112413,,,,,,,2023-06-06,1,,,,,ティケイケイ,0
253,1290001101767,新規,0,2023-06-06,2023-06-06,株式会社ササヤマ,,株式会社,福岡県,大牟田市,中白川町２丁目１７７番地,,40,202,8370927,,,,,,,2023-06-06,1,,,,,ササヤマ,0
254,1290001101791,新規,0,2023-06-06,2023-06-06,株式会社照陽電気,,株式会社,福岡県,福岡市城南区,片江１丁目４番３３号,,40,136,8140142,,,,,,,2023-06-06,1,,,,,ショウヨウデンキ,0
255,1290003013977,新規,0,2023-06-06,2023-06-06,ＴｅｃｈＡｒｏｕｎｄＬａｂ合同会社,,合同会社,福岡県,福岡市中央区,天神２丁目２番１２号Ｔ＆Ｊビルディング７Ｆ,,40,133,8100001,,,,,,,2023-06-06,1,,,,,テックアラウンドラボ,0
260,1310001018455,新規,0,2023-06-06,2023-06-06,アナミビル株式会社,,株式会社,長崎県,長崎市,大黒町７番１８号,,42,201,8500057,,,,,,,2023-06-06,1,,,,,アナミビル,0
262,1310003004585,新規,0,2023-06-06,2023-06-06,合同会社１ページ,,合同会社,長崎県,長崎市,南町１２番４号,,42,201,8500942,,,,,,,2023-06-06,1,,,,,イチページ,0
265,1320001019816,新規,0,2023-06-06,2023-06-06,株式会社二十三,,株式会社,大分県,大分市,王子中町１番４３号,,44,201,8700006,,,,,,,2023-06-06,1,,,,,ニジュウサン,0
266,1320003004097,新規,0,2023-06-06,2023-06-06,合同会社セリゴウ・クローバー,,合同会社,大分県,大分市,志村２丁目１番３３号,,44,201,8700261,,,,,,,2023-06-06,1,,,,,セリゴウクローバー,0
272,1340001025639,新規,0,2023-06-06,2023-06-06,株式会社パルタージュテック,,株式会社,鹿児島県,鹿児島市,吉野町１９１０番地９,,46,201,8920871,,,,,,,2023-06-06,1,,,,,パルタージュテック,0
273,1340003004145,新規,0,2023-06-06,2023-06-06,つなぐコンサルタント合同会社,,合同会社,鹿児島県,鹿児島市,西谷山３丁目３番３０号,,46,201,8910117,,,,,,,2023-06-06,1,,,,,ツナグコンサルタント,0
276,1350001018393,新規,0,2023-06-06,2023-06-06,株式会社田園都市開発,,株式会社,宮崎県,宮崎市,神宮１丁目２５０番地,,45,201,8800053,,,,,,,2023-06-06,1,,,,,デンエントシカイハツ,0
280,1360003013012,新規,0,2023-06-06,2023-06-06,合同会社まなし,,合同会社,沖縄県,島尻郡南風原町,字兼城１４７番地－１０１,,47,350,9011111,,,,,,,2023-06-06,1,,,,,マナシ,0
281,1360003013029,新規,0,2023-06-06,2023-06-06,合同会社ヒロ組,,合同会社,沖縄県,うるま市,与那城９９番地１,,47,213,9042303,,,,,,,2023-06-06,1,,,,,ヒログミ,0
282,1370003006163,新規,0,2023-06-06,2023-06-06,仙台制御システム合同会社,,合同会社,宮城県,仙台市青葉区,折立２丁目７番２０号サンロード広瀬川５０３号室,,04,101,9820261,,,,,,,2023-06-06,1,,,,,センダイセイギョシステム,0
286,1380001033745,新規,0,2023-06-06,2023-06-06,株式会社Ｎｅｘｔ・ｃｒｅａｔｉｏｎ,,株式会社,福島県,福島市,大町９番８号,,07,201,9608041,,,,,,,2023-06-06,1,,,,,ネクストクリエイション,0
287,1380001033761,新規,0,2023-06-06,2023-06-06,ＳＫＹ　ＷＯＲＫ株式会社,,株式会社,福島県,石川郡古殿町,大字大久田字茗荷９４番地,,07,505,9638303,,,,,,,2023-06-06,1,,,,,スカイワーク,0
289,1390001017276,新規,0,2023-06-06,2023-06-06,株式会社島貫電機,,株式会社,山形県,東置賜郡川西町,大字洲島６３番地１,,06,382,9990211,,,,,,,2023-06-06,1,,,,,シマヌキデンキ,0
291,1390003002103,新規,0,2023-06-06,2023-06-06,合同会社山菜になる,,合同会社,山形県,新庄市,金沢１６０７－３　３－２０３,,06,205,9960002,,,,,,,2023-06-06,1,,,,,サンサイニナル,0
293,1400001016268,新規,0,2023-06-06,2023-06-06,株式会社パセオ,,株式会社,岩手県,花巻市,二枚橋５－６－３起業化支援センターＡ２号棟,,03,205,0250312,,,,,,,2023-06-06,1,,,,,パセオ,0
294,1400001016276,新規,0,2023-06-06,2023-06-06,株式会社モナカ,,株式会社,岩手県,盛岡市,肴町４番５号４階,,03,201,0200878,,,,,,,2023-06-06,1,,,,,モナカ,0
296,1410001013504,新規,0,2023-06-06,2023-06-06,株式会社ＬＡＵＧＨ　ＳＨＡＲＥ北海道,,株式会社,秋田県,能代市,浜通町１番４５号,,05,202,0160801,,,,,,,2023-06-06,1,,,,,ラフシェアホッカイドウ,0
297,1410003003809,新規,0,2023-06-06,2023-06-06,北日本創建合同会社,,合同会社,秋田県,横手市,大雄字一ノ関５２番地１,,05,203,0130353,,,,,,,2023-06-06,1,,,,,キタニホンソウケン,0
301,1430001089311,新規,0,2023-06-06,2023-06-06,株式会社Ｏ’ｃｌｏｃｋ,,株式会社,北海道,札幌市白石区,南郷通２丁目南４－３－１０２,,01,104,0030022,,,,,,,2023-06-06,1,,,,,オークロック,0
312,1490001010493,新規,0,2023-06-06,2023-06-06,株式会社みらい塗装,,株式会社,高知県,高知市,南竹島町２番２５号,,39,201,7808017,,,,,,,2023-06-06,1,,,,,ミライトソウ,0
313,1500001024970,新規,0,2023-06-06,2023-06-06,株式会社リープサポート,,株式会社,愛媛県,今治市,立花町２丁目３番１６号,,38,202,7940821,,,,,,,2023-06-06,1,,,,,リープサポート,0
314,1500001024995,新規,0,2023-06-06,2023-06-06,株式会社ＴＳ,,株式会社,愛媛県,松山市,朝生田町２丁目２番２２号ｓｅｌｅコート壱番館３１１号,,38,201,7900952,,,,,,,2023-06-06,1,,,,,ティーエス,0
315,1500003003048,新規,0,2023-06-06,2023-06-06,合同会社Ｃａｌｍ,,合同会社,愛媛県,松山市,千舟町６丁目２‐１６イイオビル１階,,38,201,7900011,,,,,,,2023-06-06,1,,,,,カーム,0
317,1700150116929,新規,0,2023-06-06,2023-06-06,Ｚｙｕｒｏｎｇ　Ｄｅｖｅｌｏｐｍｅｎｔ　Ｌｉｍｉｔｅｄ,,外国会社等,,,,,,,,２３／Ｆ　Ｂ０７　ＨＯＶＥＲ　ＩＮＤＵＳＴＲＩＡＬ　ＢＵＩＬＤＩＮＧ，ＮＯ．２６－３８　ＫＷＡＩ　ＣＨＥＯＮＧ　ＲＯＡＤ，ＫＷＡＩ　ＣＨＵＮＧ　Ｎ．Ｔ，ＨＯＮＧ　ＫＯＮＧ　ＨＯＮＧ　ＫＯＮＧ　５１８０００　ＣＮ,,,,,,2023-06-06,1,,,,,ゾンイーロンファージャンリミテッド,0
318,1700150116937,新規,0,2023-06-06,2023-06-06,ｄｏｎｇｇｕａｎｓｈｉｄｅｓｈｅｎｇｆｕｓｈｉｋｅｊｉｙｏｕｘｉａｎｇｏｎｇｓｉ,,外国会社等,,,,,,,,ｇｕａｎｇｄｏｎｇｓｈｅｎｇｄｏｎｇｇｕａｎｓｈｉｓｈｉｐａｉｚｈｅｎｓｈｉｘｉａｚｈｅｎｇｋｅｎｇｄｏｎｇｅｒｘｉａｎｇ６ｈａｏ３０１ｓｈｉ,,,,,,2023-06-06,1,,,,,ドングワンシーダーションフーシーコージーヨウシエンゴンスー,0
319,1700150116945,新規,0,2023-06-06,2023-06-06,７０ＭＡＩ　ＣＯ．，ＬＴＤ．,,外国会社等,,,,,,,,Ｎｏ．５８８，Ｚｉｘｉｎｇ　Ｒｏａｄ　Ｒｏｏｍ　２２２０，Ｂｕｉｌｄｉｎｇ　２　ｓｈａｎｇｈａｉ　ｓｈａｎｇｈａｉ　２００２４１　ＣＮ,,,,,,2023-06-06,1,,,,,シャンハイチーシーマイシューズーコージーヨウシエンゴンスー,0
333,2010001235798,新規,0,2023-06-06,2023-06-06,株式会社ルーミーシステム,,株式会社,東京都,千代田区,神田和泉町１番地６－１６ヤマトビル４０５,,13,101,1010024,,,,,,,2023-06-06,1,,,,,ルーミーシステム,0
334,2010001235807,新規,0,2023-06-06,2023-06-06,株式会社ＣＡＳＩＡ,,株式会社,東京都,中央区,銀座６丁目１３番１６号銀座ＷａｌｌビルＵＣＦ５階,,13,102,1040061,,,,,,,2023-06-06,1,,,,,カシア,0
335,2010001235880,新規,0,2023-06-06,2023-06-06,株式会社Ａｂｗｉｚ　Ｂｉｏ　Ｊａｐａｎ,,株式会社,東京都,中央区,日本橋小舟町７番８号,,13,102,1030024,,,,,,,2023-06-06,1,,,,,アブウィズバイオジャパン,0
336,2010001235897,新規,0,2023-06-06,2023-06-06,アーサーマネジメント株式会社,,株式会社,東京都,千代田区,九段南１丁目５番６号りそな九段ビル５ＦＫＳフロア,,13,101,1020074,,,,,,,2023-06-06,1,,,,,アーサーマネジメント,0
337,2010001235906,新規,0,2023-06-06,2023-06-06,タレントフォース株式会社,,株式会社,東京都,中央区,銀座７丁目１３番５号ＮＲＥＧ銀座ビル,,13,102,1040061,,,,,,,2023-06-06,1,,,,,タレントフォース,0
338,2010001235914,新規,0,2023-06-06,2023-06-06,久光ウエルネス株式会社,,株式会社,東京都,千代田区,丸の内２丁目４番１号,,13,101,1000005,,,,,,,2023-06-06,1,,,,,ヒサミツウエルネス,0
342,2010003040750,新規,0,2023-06-06,2023-06-06,ＡＬＪ　Ｈｅａｌｔｈｃａｒｅ４合同会社,,合同会社,東京都,中央区,日本橋１丁目４番１号,,13,102,1030027,,,,,,,2023-06-06,1,,,,,エーエルジェイヘルスケアフォー,0
349,2010401174695,新規,0,2023-06-06,2023-06-06,Ａｎｎ株式会社,,株式会社,東京都,港区,芝浦２丁目９番１－２３１６号,,13,103,1080023,,,,,,,2023-06-06,1,,,,,エイエヌエヌ,0
350,2010401174786,新規,0,2023-06-06,2023-06-06,株式会社ＲＹＯＧＯ,,株式会社,東京都,港区,港南２丁目１６－４品川グランドセントラルタワー１７階,,13,103,1080075,,,,,,,2023-06-06,1,,,,,リョウゴ,0
351,2010401174794,新規,0,2023-06-06,2023-06-06,株式会社Ｕｎｄｅｒｃｕｒｒｅｎｔ,,株式会社,東京都,港区,麻布台２丁目１番２－１０１３号,,13,103,1060041,,,,,,,2023-06-06,1,,,,,アンダーカレント,0
352,2010401174803,新規,0,2023-06-06,2023-06-06,株式会社Ｉ＆Ｎ　Ａｓｓｉｓｔａｎｃｅ,,株式会社,東京都,港区,新橋２丁目２０番１５号新橋駅前ビル１号館９１１,,13,103,1050004,,,,,,,2023-06-06,1,,,,,アイアンドエヌアシスタンス,0
353,2010401174860,新規,0,2023-06-06,2023-06-06,株式会社Ｅｖｅｒａｌ,,株式会社,東京都,港区,三田３丁目７番１３号ハイライフ三田６０３号,,13,103,1080073,,,,,,,2023-06-06,1,,,,,エベラル,0
354,2010401174877,新規,0,2023-06-06,2023-06-06,株式会社ハタフリ,,株式会社,東京都,港区,浜松町２丁目２番１５浜松町ダイヤビル２Ｆ,,13,103,1050013,,,,,,,2023-06-06,1,,,,,ハタフリ,0
356,2010403030252,新規,0,2023-06-06,2023-06-06,合同会社Ｋｉｎｋｉｅ　Ａｓｓｏｃｉａｔｅｓ,,合同会社,東京都,港区,南青山３丁目１番３６号青山丸竹ビル６Ｆ,,13,103,1070062,,,,,,,2023-06-06,1,,,,,キンキアソシエイツ,0
358,2010501050549,新規,0,2023-06-06,2023-06-06,Ｓｅａｙａ株式会社,,株式会社,東京都,台東区,松が谷２丁目９番１－２０６号,,13,106,1110036,,,,,,,2023-06-06,1,,,,,シーヤ,0
361,2010701044359,新規,0,2023-06-06,2023-06-06,株式会社ウエストパートナーズ,,株式会社,東京都,品川区,西五反田２丁目９番７号ドルミ五反田アンメゾン４０７号,,13,109,1410031,,,,,,,2023-06-06,1,,,,,ウエストパートナーズ,0
362,2010701044367,新規,0,2023-06-06,2023-06-06,株式会社コワソン,,株式会社,東京都,品川区,旗の台６丁目２４番３号,,13,109,1420064,,,,,,,2023-06-06,1,,,,,コワソン,0
363,2010701044375,新規,0,2023-06-06,2023-06-06,株式会社ＳＹＳＬＥＡ,,株式会社,東京都,品川区,南大井４丁目１９－１２グランイーグル大森４０６,,13,109,1400013,,,,,,,2023-06-06,1,,,,,シスリー,0
367,2010801034020,新規,0,2023-06-06,2023-06-06,株式会社フィードアーツ,,株式会社,東京都,大田区,東糀谷１丁目１７番１５号,,13,111,1440033,,,,,,,2023-06-06,1,,,,,フィードアーツ,0
373,2010901053201,新規,0,2023-06-06,2023-06-06,株式会社トゥウェルブスリー,,株式会社,東京都,世田谷区,上用賀４丁目３番７号,,13,112,1580098,,,,,,,2023-06-06,1,,,,,トゥウェルブスリー,0
375,2010903008203,新規,0,2023-06-06,2023-06-06,プレイス合同会社,,合同会社,東京都,世田谷区,砧８丁目２６－１０,,13,112,1570073,,,,,,,2023-06-06,1,,,,,プレイス,0
376,2010903008211,新規,0,2023-06-06,2023-06-06,０７コンサルティング合同会社,,合同会社,東京都,世田谷区,成城８丁目５番２号,,13,112,1570066,,,,,,,2023-06-06,1,,,,,ゼロセブンコンサルティング,0
384,2011001154807,新規,0,2023-06-06,2023-06-06,株式会社大同会あおぞらファミリー,,株式会社,東京都,目黒区,緑が丘３丁目７番７号,,13,110,1520034,,,,,,,2023-06-06,1,,,,,ダイドウカイアオゾラファミリー,0
385,2011001154823,新規,0,2023-06-06,2023-06-06,株式会社浪漫惑星,,株式会社,東京都,渋谷区,道玄坂１丁目１６番１０号渋谷ＤＴビル８Ｆ,,13,113,1500043,,,,,,,2023-06-06,1,,,,,ロマンワクセイ,0
386,2011001154939,新規,0,2023-06-06,2023-06-06,株式会社エスプランニング,,株式会社,東京都,渋谷区,恵比寿３丁目３７番７号,,13,113,1500013,,,,,,,2023-06-06,1,,,,,エスプランニング,0
387,2011003016930,新規,0,2023-06-06,2023-06-06,合同会社Ａｒｔｅｋｊｐ,,合同会社,東京都,渋谷区,道玄坂１丁目１０番８号渋谷道玄坂東急ビル２Ｆ－Ｃ,,13,113,1500043,,,,,,,2023-06-06,1,,,,,アルテックジェーピー,0
391,2011101103110,新規,0,2023-06-06,2023-06-06,株式会社Ｆｒｅｎｚｙ　Ｌａｚｙ,,株式会社,東京都,新宿区,高田馬場１丁目３２番１０号,,13,104,1690075,,,,,,,2023-06-06,1,,,,,フレンジーレイジー,0
392,2011101103143,新規,0,2023-06-06,2023-06-06,株式会社パールエル,,株式会社,東京都,新宿区,西落合３丁目８番５－１０６号,,13,104,1610031,,,,,,,2023-06-06,1,,,,,パールエル,0
393,2011101103151,新規,0,2023-06-06,2023-06-06,株式会社Ｒｅｖｅｒｅｎｓ,,株式会社,東京都,新宿区,大久保１丁目１番１０号ＧＵＮＫＡＮ東新宿７０６,,13,104,1690072,,,,,,,2023-06-06,1,,,,,レヴァレンス,0
395,2011103013118,新規,0,2023-06-06,2023-06-06,合同会社オーバーホール,,合同会社,東京都,新宿区,北新宿４丁目１２番２２号プレイス北新宿２号室,,13,104,1690074,,,,,,,2023-06-06,1,,,,,オーバーホール,0
399,2011401025178,新規,0,2023-06-06,2023-06-06,ＴＡＣＴ　ＨＲ株式会社,,株式会社,東京都,板橋区,舟渡３丁目９番１１号,,13,119,1740041,,,,,,,2023-06-06,1,,,,,タクトエイチアール,0
400,2011501029376,新規,0,2023-06-06,2023-06-06,帥庫国際伝媒株式会社,,株式会社,東京都,北区,赤羽２丁目６９番２号,,13,117,1150045,,,,,,,2023-06-06,1,,,,,スイココクサイデンバイ,0
401,2011501029384,新規,0,2023-06-06,2023-06-06,ｉＲＧＣＨｉ株式会社,,株式会社,東京都,北区,赤羽１丁目７番９号赤羽第一葉山ビル４Ｆ,,13,117,1150045,,,,,,,2023-06-06,1,,,,,アイアールジーシーエイチアイ,0
404,2011701026306,新規,0,2023-06-06,2023-06-06,ＳＭＴＯ総合サービス株式会社,,株式会社,東京都,江戸川区,西瑞江３丁目２３番３６号,,13,123,1320015,,,,,,,2023-06-06,1,,,,,エスエムティーオーソウゴウサービス,0
405,2011801042525,新規,0,2023-06-06,2023-06-06,株式会社アーバレスト,,株式会社,東京都,足立区,千住曙町４１番５－４０７号,00130727,13,121,1200023,,,,,,,2023-06-06,1,,,,,アーバレスト,0
411,2012803003093,新規,0,2023-06-06,2023-06-06,合同会社１ｓｔ,,合同会社,東京都,立川市,柴崎町３丁目９番７号多摩川実業ビル１階,,13,202,1900023,,,,,,,2023-06-06,1,,,,,ファースト,0
418,2020001151854,新規,0,2023-06-06,2023-06-06,カボチャイノベーションズジャパン株式会社,,株式会社,神奈川県,横浜市鶴見区,鶴見中央４丁目３１番９号スタシア横浜鶴見４０１号,,14,101,2300051,,,,,,,2023-06-06,1,,,,,カボチャイノベーションズジャパン,0
419,2020001151862,新規,0,2023-06-06,2023-06-06,株式会社ホワイトエレフアント,,株式会社,神奈川県,横浜市神奈川区,六角橋４丁目１２番８号,,14,102,2210802,,,,,,,2023-06-06,1,,,,,ホワイトエレフアント,0
420,2020001151879,新規,0,2023-06-06,2023-06-06,株式会社ＡＩアニメ,,株式会社,神奈川県,川崎市宮前区,鷺沼４丁目１４番地２鷺沼の杜Ｂー５０９,,14,136,2160004,,,,,,,2023-06-06,1,,,,,エーアイアニメ,0
421,2020001151904,新規,0,2023-06-06,2023-06-06,株式会社福田工業,,株式会社,神奈川県,横浜市神奈川区,入江２丁目２０番１７－２０１号,,14,102,2210014,,,,,,,2023-06-06,1,,,,,フクダコウギョウ,0
422,2020001151920,新規,0,2023-06-06,2023-06-06,ＭＦＳ　Ｃｏｎｓｕｌｔｉｎｇ株式会社,,株式会社,神奈川県,横浜市西区,戸部町５丁目２０３番地２シティホームズ横浜桜木町３０２号,,14,103,2200042,,,,,,,2023-06-06,1,,,,,エムエフエスコンサルティング,0
423,2020001151945,新規,0,2023-06-06,2023-06-06,株式会社藤栄,,株式会社,神奈川県,横浜市緑区,三保町２０８０番地,,14,113,2260015,,,,,,,2023-06-06,1,,,,,,0
424,2020001151961,新規,0,2023-06-06,2023-06-06,ＭＫＲ株式会社,,株式会社,神奈川県,横浜市中区,新山下３丁目１３番１６－３０１号,,14,104,2310801,,,,,,,2023-06-06,1,,,,,エムケイアール,0
428,2021001079210,新規,0,2023-06-06,2023-06-06,株式会社皆川工業,,株式会社,神奈川県,綾瀬市,早川城山４丁目１番１９号,,14,218,2521127,,,,,,,2023-06-06,1,,,,,ミナカワコウギョウ,0
433,2021003013150,新規,0,2023-06-06,2023-06-06,合同会社ＫｓＳ,,合同会社,神奈川県,伊勢原市,上粕屋１２４２番地の８,,14,214,2591141,,,,,,,2023-06-06,1,,,,,ケイエスエス,0
447,2040001128685,新規,0,2023-06-06,2023-06-06,Ｄ．ａ．ｉファシリティ株式会社,,株式会社,千葉県,市川市,南大野３丁目２番１５号,,12,203,2720804,,,,,,,2023-06-06,1,,,,,ディエイアイファシリティ,0
448,2040001128710,新規,0,2023-06-06,2023-06-06,株式会社にこまるファーマシー,,株式会社,千葉県,君津市,坂田５２３番地３３,,12,225,2991142,,,,,,,2023-06-06,1,,,,,ニコマルファーマシー,0
449,2040001128719,新規,0,2023-06-06,2023-06-06,株式会社Ｄａｉｒａｋｕ,,株式会社,千葉県,松戸市,常盤平７丁目８番地の５カメリアヒルズ３０３号,,12,207,2702261,,,,,,,2023-06-06,1,,,,,ダイラク,0
450,2040001128743,新規,0,2023-06-06,2023-06-06,株式会社ＡＤＭ,,株式会社,千葉県,千葉市花見川区,幕張本郷５丁目２５番６－１０３号,,12,102,2620033,,,,,,,2023-06-06,1,,,,,エーディーエム,0
452,2040003022754,新規,0,2023-06-06,2023-06-06,合同会社Ｃｏｍｒａｄｅ,,合同会社,千葉県,市原市,松ケ島１１３番地２１,,12,219,2900035,,,,,,,2023-06-06,1,,,,,コムレード,0
455,2050003007548,新規,0,2023-06-06,2023-06-06,合同会社Ｚ．Ｍコーポレーション,,合同会社,茨城県,古河市,鴻巣６３５番地コーポめぐみ１０２号室,,08,204,3060041,,,,,,,2023-06-06,1,,,,,ゼットエムコーポレーション,0
456,2050003007556,新規,0,2023-06-06,2023-06-06,合同会社アサッテ,,合同会社,茨城県,土浦市,永国７５０番地１１,,08,203,3000817,,,,,,,2023-06-06,1,,,,,アサッテ,0
460,2070001040516,新規,0,2023-06-06,2023-06-06,ＪＩＮハウジング株式会社,,株式会社,群馬県,太田市,藤阿久町９２０番地４,,10,205,3730034,,,,,,,2023-06-06,1,,,,,ジンハウジング,0
461,2070001040524,新規,0,2023-06-06,2023-06-06,株式会社７３０,,株式会社,群馬県,太田市,大久保町１１０番地２０,,10,205,3792306,,,,,,,2023-06-06,1,,,,,ナナサンゼロ,0
462,2070003004972,新規,0,2023-06-06,2023-06-06,合同会社ナトゥラエステティック,,合同会社,群馬県,伊勢崎市,境保泉１丁目１５番地７,,10,204,3700128,,,,,,,2023-06-06,1,,,,,ナトゥラエステティック,0
470,2080101024046,新規,0,2023-06-06,2023-06-06,スターフィル株式会社,,株式会社,静岡県,田方郡函南町,平井１５９４番地の１０,,22,325,4190107,,,,,,,2023-06-06,1,,,,,スターフィル,0
471,2080101024054,新規,0,2023-06-06,2023-06-06,株式会社三幸創建,,株式会社,静岡県,富士宮市,東町９番１７号東町事務所,,22,207,4180077,,,,,,,2023-06-06,1,,,,,サンコウソウケン,0
472,2080101024062,新規,0,2023-06-06,2023-06-06,株式会社インフィニティー,,株式会社,静岡県,富士市,国久保３丁目２番３２号美穂ビル１Ｆ,,22,210,4170071,,,,,,,2023-06-06,1,,,,,インフィニティー,0
479,2100001036469,新規,0,2023-06-06,2023-06-06,株式会社山路林業,,株式会社,長野県,塩尻市,大字宗賀３０４１番地１,,20,215,3996461,,,,,,,2023-06-06,1,,,,,ヤマジリンギョウ,0
482,2110001037573,新規,0,2023-06-06,2023-06-06,株式会社開拓組,,株式会社,新潟県,加茂市,大字田中新田３７７番地,,15,209,9591307,,,,,,,2023-06-06,1,,,,,カイタクグミ,0
493,2120001255348,新規,0,2023-06-06,2023-06-06,Ａ‐ｗａｖｅ株式会社,,株式会社,大阪府,大阪市北区,角田町１番１２号,,27,127,5300017,,,,,,,2023-06-06,1,,,,,エイウェーヴ,0
494,2120001255380,新規,0,2023-06-06,2023-06-06,天洋株式会社,,株式会社,大阪府,大阪市生野区,林寺３丁目５番３号,,27,116,5440023,,,,,,,2023-06-06,1,,,,,テンヨウ,0
495,2120001255389,新規,0,2023-06-06,2023-06-06,株式会社ＣＲＥＡＴＩＯＮ,,株式会社,大阪府,大阪市天王寺区,餌差町１５番１３号,,27,109,5430016,,,,,,,2023-06-06,1,,,,,クリエイション,0
496,2120001255397,新規,0,2023-06-06,2023-06-06,株式会社結の花,,株式会社,大阪府,大阪市城東区,今福東２丁目１０番１８号ファミール城東３０４号室,,27,118,5360002,,,,,,,2023-06-06,1,,,,,ユイノハナ,0
497,2120001255422,新規,0,2023-06-06,2023-06-06,ｉｔｏｕ株式会社,,株式会社,大阪府,大阪市浪速区,浪速東１丁目１０－１０－７０５,,27,111,5560025,,,,,,,2023-06-06,1,,,,,イトウ,0
498,2120001255439,新規,0,2023-06-06,2023-06-06,門真運送株式会社,,株式会社,大阪府,門真市,小路町９番６号,,27,223,5710058,,,,,,,2023-06-06,1,,,,,カドマウンソウ,0
499,2120001255455,新規,0,2023-06-06,2023-06-06,株式会社アワカンパニー,,株式会社,大阪府,大阪市西成区,岸里１丁目２番６号,,27,122,5570041,,,,,,,2023-06-06,1,,,,,アワカンパニー,0
503,2120003024189,新規,0,2023-06-06,2023-06-06,ＡＩＲＲＥＸ合同会社,,合同会社,大阪府,大阪市浪速区,元町１丁目７番２－７０１号,,27,111,5560016,,,,,,,2023-06-06,1,,,,,エアレックス,0
504,2120003024197,新規,0,2023-06-06,2023-06-06,ＳＷＥＥＴ合同会社,,合同会社,大阪府,大阪市阿倍野区,昭和町５丁目８番２０号ＣＯＣＯメゾン西田辺６０４,,27,119,5450011,,,,,,,2023-06-06,1,,,,,スイート,0
505,2120003024247,新規,0,2023-06-06,2023-06-06,合同会社ＶＡＩＮ　ｐｒｏ．,,合同会社,大阪府,大阪市都島区,都島中通３丁目５番４３‐１５０３号,,27,102,5340022,,,,,,,2023-06-06,1,,,,,ベインプロ,0
508,2120101067627,新規,0,2023-06-06,2023-06-06,慎運輸株式会社,,株式会社,大阪府,堺市東区,日置荘原寺町４５３－７,,27,143,5998112,,,,,,,2023-06-06,1,,,,,マコトウンユ,0
511,2120103005254,新規,0,2023-06-06,2023-06-06,ウィル合同会社,,合同会社,大阪府,河内長野市,栄町９番２５号,,27,216,5860032,,,,,,,2023-06-06,1,,,,,ウィル,0
517,2122001037032,新規,0,2023-06-06,2023-06-06,株式会社レジリエンス,,株式会社,大阪府,四條畷市,田原台４丁目８番７号,,27,229,5750013,,,,,,,2023-06-06,1,,,,,レジリエンス,0
518,2122003002604,新規,0,2023-06-06,2023-06-06,合同会社さくらっこ,,合同会社,大阪府,八尾市,安中町８丁目８番１２号,,27,212,5810085,,,,,,,2023-06-06,1,,,,,サクラッコ,0
523,2130001074433,新規,0,2023-06-06,2023-06-06,株式会社黒松造園,,株式会社,京都府,京都市西京区,大原野灰方町２８１番地１３,,26,111,6101132,,,,,,,2023-06-06,1,,,,,クロマツゾウエン,0
524,2130001074458,新規,0,2023-06-06,2023-06-06,株式会社みさと,,株式会社,京都府,京都市上京区,中立売通松屋町西入新白水丸町４６２番地,,26,102,6028205,,,,,,,2023-06-06,1,,,,,ミサト,0
525,2130001074482,新規,0,2023-06-06,2023-06-06,株式会社曽野電工,,株式会社,京都府,京都市山科区,安朱馬場ノ東町１５－１０,,26,110,6078006,,,,,,,2023-06-06,1,,,,,ソノデンコウ,0
526,2140001130400,新規,0,2023-06-06,2023-06-06,大納株式会社,,株式会社,兵庫県,尼崎市,七松町１丁目３番２－１８０２号,,28,202,6600052,,,,,,,2023-06-06,1,,,,,ダイナ,0
527,2140003019179,新規,0,2023-06-06,2023-06-06,合同会社ＭＩＲＡＩＡＳＯＢＩＣＬＵＢ,,合同会社,兵庫県,神戸市灘区,高羽町５丁目５－１１－２０７,,28,102,6570023,,,,,,,2023-06-06,1,,,,,ミライアソビクラブ,0
528,2140005026652,新規,0,2023-06-06,2023-06-06,一般社団法人ママプレイスプラス,,その他の設立登記法人,兵庫県,芦屋市,翠ケ丘町１６番１６－７０３号,,28,206,6590014,,,,,,,2023-06-06,1,,,,,ママプレイスプラス,0
531,2150001026440,新規,0,2023-06-06,2023-06-06,花形商事株式会社,,株式会社,奈良県,桜井市,大字大泉５３６番地の１２,,29,206,6330076,,,,,,,2023-06-06,1,,,,,ハナガタショウジ,0
532,2150001026449,新規,0,2023-06-06,2023-06-06,株式会社迫田内装,,株式会社,奈良県,磯城郡田原本町,大字阪手３５２番地の１パインコート１０１号室,,29,363,6360247,,,,,,,2023-06-06,1,,,,,サコダナイソウ,0
534,2160001025078,新規,0,2023-06-06,2023-06-06,ＳＰＩインターナショナル株式会社,,株式会社,滋賀県,高島市,マキノ町中庄３０４番地,,25,212,5201823,,,,,,,2023-06-06,1,,,,,エスピーアイインターナショナル,0
535,2160001025094,新規,0,2023-06-06,2023-06-06,株式会社プレジール,,株式会社,滋賀県,草津市,野路５丁目４番２９号,,25,206,5250059,,,,,,,2023-06-06,1,,,,,プレジール,0
536,2160003002892,新規,0,2023-06-06,2023-06-06,京滋青帽合同会社,,合同会社,滋賀県,大津市,茶戸町３番４号,,25,201,5200066,,,,,,,2023-06-06,1,,,,,ケイジアオボウ,0
549,2180001156623,新規,0,2023-06-06,2023-06-06,株式会社プレオギア,,株式会社,愛知県,北名古屋市,加島新田南田面２１６番地スパイクナード１０２号,,23,234,4810044,,,,,,,2023-06-06,1,,,,,プレオギア,0
551,2180301037440,新規,0,2023-06-06,2023-06-06,株式会社新實,,株式会社,愛知県,刈谷市,半城土町大湫１１３番地８,,23,210,4480804,,,,,,,2023-06-06,1,,,,,ニイミ,0
552,2180301037449,新規,0,2023-06-06,2023-06-06,株式会社カワイ,,株式会社,愛知県,豊橋市,東田町１７番地の１,,23,201,4400066,,,,,,,2023-06-06,1,,,,,カワイ,0
553,2180303005734,新規,0,2023-06-06,2023-06-06,リトルベア合同会社,,合同会社,愛知県,豊橋市,西小鷹野４丁目１１番地３,,23,201,4400013,,,,,,,2023-06-06,1,,,,,リトルベア,0
555,2190003004341,新規,0,2023-06-06,2023-06-06,合同会社ＰＡＲＡＤＯＸ,,合同会社,三重県,四日市市,諏訪栄町４―１０アピカビル３Ｆ,,24,202,5100086,,,,,,,2023-06-06,1,,,,,パラドックス,0
560,2200001041368,新規,0,2023-06-06,2023-06-06,株式会社やな川,,株式会社,岐阜県,本巣市,三橋４丁目２２番地,,21,218,5010406,,,,,,,2023-06-06,1,,,,,ヤナガワ,0
561,2200001041384,新規,0,2023-06-06,2023-06-06,株式会社結資材店,,株式会社,岐阜県,高山市,冬頭町１０９３番地２,,21,203,5060001,,,,,,,2023-06-06,1,,,,,ユイシザイテン,0
564,2210001019330,新規,0,2023-06-06,2023-06-06,株式会社ＳＫＹ　ＬＩＧＨＴ,,株式会社,福井県,大野市,松丸第３７号１２番地,,18,205,9120136,,,,,,,2023-06-06,1,,,,,スカイライト,0
572,2240001061619,新規,0,2023-06-06,2023-06-06,株式会社アイキャリ,,株式会社,広島県,廿日市市,阿品３丁目１番２－９０４号,,34,213,7380054,,,,,,,2023-06-06,1,,,,,アイキャリ,0
578,2250003000499,新規,0,2023-06-06,2023-06-06,合資会社井ノ口鉄工所,,合資会社,山口県,下関市,長府安養寺１丁目３番１０号,,35,201,7520962,,,,,,,2023-06-06,1,,,,,イノクチテッコウショ,0
579,2250003003279,新規,0,2023-06-06,2023-06-06,システムスタルヒン合同会社,,合同会社,山口県,山陽小野田市,大字山川１４０１番地３２,,35,216,7570004,,,,,,,2023-06-06,1,,,,,システムスタルヒン,0
582,2260001038020,新規,0,2023-06-06,2023-06-06,土楽株式会社,,株式会社,岡山県,瀬戸内市,長船町磯上３０６６番地,,33,212,7014273,,,,,,,2023-06-06,1,,,,,トラク,0
585,2280001008954,新規,0,2023-06-06,2023-06-06,株式会社ＫＥＳ,,株式会社,島根県,益田市,高津４丁目２３番７号,,32,204,6980041,,,,,,,2023-06-06,1,,,,,ケーイーエス,0
588,2290001101808,新規,0,2023-06-06,2023-06-06,株式会社デイフーズ,,株式会社,福岡県,福岡市博多区,麦野５丁目２３番１１－１０５号,,40,132,8120882,,,,,,,2023-06-06,1,,,,,デイフーズ,0
589,2290001101816,新規,0,2023-06-06,2023-06-06,株式会社Ｎｏ．１１０３,,株式会社,福岡県,福岡市南区,清水１丁目１９－５ガーデンプレイス高宮５－Ｂ,,40,134,8150031,,,,,,,2023-06-06,1,,,,,ナンバーイチイチゼロサン,0
594,2290801029570,新規,0,2023-06-06,2023-06-06,株式会社Ｍ‐３８５,,株式会社,福岡県,行橋市,南泉３丁目５番１号,,40,213,8240036,,,,,,,2023-06-06,1,,,,,エムミヤコ,0
595,2290801029579,新規,0,2023-06-06,2023-06-06,株式会社ＹＵＭＥ,,株式会社,福岡県,北九州市門司区,大里本町３丁目７番１５－３０５号,,40,101,8000063,,,,,,,2023-06-06,1,,,,,ユメ,0
596,2290801029587,新規,0,2023-06-06,2023-06-06,株式会社正光造園,,株式会社,福岡県,田川郡大任町,大字今任原４１１０番地１,,40,608,8240511,,,,,,,2023-06-06,1,,,,,セイコウゾウエン,0
597,2300003001979,新規,0,2023-06-06,2023-06-06,合同会社ＬＯＷＫＥＹ,,合同会社,佐賀県,佐賀市,白山町二丁目２－２４－１,,41,201,8490000,,,,,,,2023-06-06,1,,,,,ロウキイ,0
601,2310001018446,新規,0,2023-06-06,2023-06-06,株式会社きらＢＯＳＨＩ,,株式会社,長崎県,大村市,桜馬場２丁目３５５番地１,,42,205,8560812,,,,,,,2023-06-06,1,,,,,キラボシ,0
602,2310003004584,新規,0,2023-06-06,2023-06-06,合同会社祥叶,,合同会社,長崎県,長崎市,蚊焼町６１９番地３,,42,201,8510401,,,,,,,2023-06-06,1,,,,,サチカ,0
604,2320001019815,新規,0,2023-06-06,2023-06-06,株式会社ｍｉｌａｃｏｓ,,株式会社,大分県,大分市,金池南１丁目１６番１２－５０５号トレステーラ桜ヶ丘,,44,201,8700839,,,,,,,2023-06-06,1,,,,,ミラコス,0
608,2320003004096,新規,0,2023-06-06,2023-06-06,合同会社ｉ‐Ｐｌａｎｎｉｎｇ　Ｗｏｒｋｓ,,合同会社,大分県,別府市,田の湯町３番７号アライアンスタワー４Ｆ,,44,202,8740909,,,,,,,2023-06-06,1,,,,,アイプランニングワークス,0
609,2330001030911,新規,0,2023-06-06,2023-06-06,令水エンジニアリング株式会社,,株式会社,熊本県,熊本市東区,尾ノ上２丁目２６番１号,,43,102,8620913,,,,,,,2023-06-06,1,,,,,レイスイエンジニアリング,0
610,2330001030936,新規,0,2023-06-06,2023-06-06,キーストーン株式会社,,株式会社,熊本県,熊本市中央区,新屋敷１丁目２１番７号,,43,101,8620975,,,,,,,2023-06-06,1,,,,,キーストーン,0
620,2350001018384,新規,0,2023-06-06,2023-06-06,株式会社Ｈａｓｕｍａ,,株式会社,宮崎県,日向市,美々津町１９６９番地３,,45,206,8891111,,,,,,,2023-06-06,1,,,,,ハスマ,0
622,2360001032120,新規,0,2023-06-06,2023-06-06,株式会社ｅｌｅｇａｎｃｅ,,株式会社,沖縄県,那覇市,壺屋２丁目２６番１１号２－Ｃ,,47,201,9020065,,,,,,,2023-06-06,1,,,,,エレガンス,0
623,2360001032129,新規,0,2023-06-06,2023-06-06,株式会社絶佳,,株式会社,沖縄県,沖縄市,東１丁目１０番１１号,,47,211,9042154,,,,,,,2023-06-06,1,,,,,ゼッカ,0
624,2360003013036,新規,0,2023-06-06,2023-06-06,合同会社やまごう,,合同会社,沖縄県,那覇市,首里当蔵町２丁目１４番地,,47,201,9030812,,,,,,,2023-06-06,1,,,,,ヤマゴウ,0
627,2370001050030,新規,0,2023-06-06,2023-06-06,東栄電装株式会社,,株式会社,宮城県,仙台市若林区,若林７丁目１０番７号,,04,103,9840826,,,,,,,2023-06-06,1,,,,,トウエイデンソウ,0
628,2370001050039,新規,0,2023-06-06,2023-06-06,株式会社がほんず,,株式会社,宮城県,仙台市宮城野区,中野３丁目４番地の１７,,04,102,9830013,,,,,,,2023-06-06,1,,,,,ガホンズ,0
629,2370001050047,新規,0,2023-06-06,2023-06-06,株式会社サンテリアワークス,,株式会社,宮城県,多賀城市,高崎２丁目２番３４－２号,,04,209,9850862,,,,,,,2023-06-06,1,,,,,サンテリアワークス,0
630,2370003006154,新規,0,2023-06-06,2023-06-06,合同会社ＪＭＣ,,合同会社,宮城県,大崎市,古川稲葉字土手内８２番地１０２号室,,04,215,9896135,,,,,,,2023-06-06,1,,,,,ジェーエムシー,0
640,2390001017275,新規,0,2023-06-06,2023-06-06,株式会社メビウス,,株式会社,山形県,酒田市,若竹町１丁目２番１６号,,06,204,9980834,,,,,,,2023-06-06,1,,,,,メビウス,0
642,2390005009013,新規,0,2023-06-06,2023-06-06,医療法人社団月山会,,その他の設立登記法人,山形県,寒河江市,七日町５番１号,,06,206,9910022,,,,,,,2023-06-06,1,,,,,ガッサンカイ,0
643,2410001013494,新規,0,2023-06-06,2023-06-06,大武産業株式会社,,株式会社,秋田県,能代市,字大内田４４番地,,05,202,0160162,,,,,,,2023-06-06,1,,,,,オオタケサンギョウ,0
645,2420001018278,新規,0,2023-06-06,2023-06-06,株式会社タナカコーポレーション,,株式会社,青森県,上北郡七戸町,字底田２６番地１,,02,402,0392855,,,,,,,2023-06-06,1,,,,,タナカコーポレーション,0
646,2420001018286,新規,0,2023-06-06,2023-06-06,株式会社ＡＹアルミ工社,,株式会社,青森県,八戸市,小中野７丁目１番５号,,02,203,0310802,,,,,,,2023-06-06,1,,,,,エーワイアルミコウシャ,0
664,2500005008614,新規,0,2023-06-06,2023-06-06,一般社団法人ひめライフシニアサポート協会,,その他の設立登記法人,愛媛県,松山市,平和通６丁目２番地３,,38,201,7900807,,,,,,,2023-06-06,1,,,,,ヒメライフシニアサポートキョウカイ,0
666,2700150116936,新規,0,2023-06-06,2023-06-06,ＭＡＭＢＡＴＥＫ　ＣＯＭＰＡＮＹ　ＬＴＤ,,外国会社等,,,,,,,,Ｎｏ．１６，Ｌｎ．７１５，Ｓｅｃ．１．Ｘｉｎａｎ　Ｒｄ．，Ｗｕｒｉ　Ｄｉｓｔ．，ＴＡＩＣＨＵＮＧ　４１４６５　ＴＷ,,,,,,2023-06-06,1,,,,,マンバーコージーヨウシエンゴンスー,0
667,2700150116944,新規,0,2023-06-06,2023-06-06,ｇｕａｎｇｚｈｏｕｓｈｉ　ｍａｎｋａ　ｍａｏｙｉｙｏｕｘｉａｎｇｏｎｇｓｉ,,外国会社等,,,,,,,,ｔｉａｎｈｅｑｕｘｉａｙｕａｎｇａｎｇ　ｘｉｎｇｌｏｎｇｘｉａｎｇ１３ｈａｏ３０１ｆａｎｇ　ｇｕａｎｇｚｈｏｕｓｈｉ　ｇｕａｎｇｄｏｎｇｓｈｅｎｇ　５１０６３０　ＣＮ,,,,,,2023-06-06,1,,,,,グワンジョウシーマンカーマオイーヨウシエンゴンスー,0
671,3010001235723,新規,0,2023-06-06,2023-06-06,宇宙の図書館株式会社,,株式会社,東京都,千代田区,丸の内１丁目８番３号,,13,101,1000005,,,,,,,2023-06-06,1,,,,,ウチュウノトショカン,0
672,3010001235814,新規,0,2023-06-06,2023-06-06,株式会社トプカプ,,株式会社,東京都,中央区,日本橋小舟町８番１３号天翔日本橋ビル５０６号室,,13,102,1030024,,,,,,,2023-06-06,1,,,,,トプカプ,0
673,3010001235847,新規,0,2023-06-06,2023-06-06,株式会社ＹＭＣ,,株式会社,東京都,中央区,日本橋室町１丁目１１番１２号日本橋水野ビル７Ｆ,,13,102,1030022,,,,,,,2023-06-06,1,,,,,ワイエムシー,0
674,3010001235863,新規,0,2023-06-06,2023-06-06,株式会社ｂｙ　ｎａｍｅ,,株式会社,東京都,千代田区,九段南１丁目５番６号りそな九段ビル５階ＫＳフロア,,13,101,1020074,,,,,,,2023-06-06,1,,,,,バイネーム,0
675,3010001235871,新規,0,2023-06-06,2023-06-06,ＭｅｔａＦｕｓｉｏｎ株式会社,,株式会社,東京都,千代田区,神田須田町１丁目８番地３,,13,101,1010041,,,,,,,2023-06-06,1,,,,,メタフュージョン,0
676,3010001235896,新規,0,2023-06-06,2023-06-06,ａｔ　Ａｋａｔｓｕｋｉ株式会社,,株式会社,東京都,中央区,日本橋室町１丁目１１番１２号日本橋水野ビル７階,,13,102,1030022,,,,,,,2023-06-06,1,,,,,アットアカツキ,0
679,3010003040766,新規,0,2023-06-06,2023-06-06,Ａｚａｌｅａ合同会社,,合同会社,東京都,中央区,東日本橋３丁目５番１５号,,13,102,1030004,,,,,,,2023-06-06,1,,,,,アザレア,0
680,3010003040774,新規,0,2023-06-06,2023-06-06,ｕｎｄｅｒｓｔｕｄｙ合同会社,,合同会社,東京都,中央区,銀座１丁目２２番１１号,,13,102,1040061,,,,,,,2023-06-06,1,,,,,アンダースタディー,0
681,3010003040782,新規,0,2023-06-06,2023-06-06,バンプー太陽１合同会社,,合同会社,東京都,千代田区,霞が関３丁目２番５号霞が関ビルディング３３階,,13,101,1000013,,,,,,,2023-06-06,1,,,,,パンプータイヨウイチ,0
682,3010003040799,新規,0,2023-06-06,2023-06-06,合同会社ＨｉＪｏＪｏ．ｃｏｍ１０,,合同会社,東京都,千代田区,霞が関３丁目２番５号,,13,101,1000013,,,,,,,2023-06-06,1,,,,,ヒジョージョードットコムテン,0
684,3010401174744,新規,0,2023-06-06,2023-06-06,ＳＴ＆Ａｓｓｏｃｉａｔｅｓ株式会社,,株式会社,東京都,港区,赤坂８丁目１１番１号Ｋ６ＣＯＵＲＴ２０１,,13,103,1070052,,,,,,,2023-06-06,1,,,,,エスティーアンドアソシエイツ,0
685,3010401174752,新規,0,2023-06-06,2023-06-06,日本御医再生医療研究所株式会社,,株式会社,東京都,港区,虎ノ門５丁目１１番１２号,,13,103,1050001,,,,,,,2023-06-06,1,,,,,ニホンオンイサイセイイリョウケンキュウジョ,0
686,3010401174785,新規,0,2023-06-06,2023-06-06,株式会社ＤＡＩＧＯ,,株式会社,東京都,港区,港南２丁目１６－４品川グランドセントラルタワー１７階,,13,103,1080075,,,,,,,2023-06-06,1,,,,,ダイゴ,0
688,3010403030227,新規,0,2023-06-06,2023-06-06,Ｓｍｉｔｈ　Ｊａｐａｎ合同会社,,合同会社,東京都,港区,六本木１丁目９番１０号アークヒルズ仙石山森タワー２８階ベーカー＆マッケンジー法律事務所（外国法共同事業）内,,13,103,1060032,,,,,,,2023-06-06,1,,,,,スミスジャパン,0
692,3010501050548,新規,0,2023-06-06,2023-06-06,株式会社推し活参戦研究所,,株式会社,東京都,台東区,浅草橋１丁目６番１号浅草橋ビル７Ｆ,,13,106,1110053,,,,,,,2023-06-06,1,,,,,オシカツサンセンケンキュウジョ,0
693,3010601063210,新規,0,2023-06-06,2023-06-06,株式会社ＯＮＥ　ＢＲＡＩＮ,,株式会社,東京都,墨田区,東向島４丁目２５番２号,,13,107,1310032,,,,,,,2023-06-06,1,,,,,ワンブレイン,0
695,3010701044358,新規,0,2023-06-06,2023-06-06,マヤイ株式会社,,株式会社,東京都,品川区,北品川５丁目５番１５号,,13,109,1410001,,,,,,,2023-06-06,1,,,,,マヤイ,0
696,3010701044366,新規,0,2023-06-06,2023-06-06,株式会社Ｏｖｅｎ,,株式会社,東京都,品川区,南品川３丁目６番１号２階,,13,109,1400004,,,,,,,2023-06-06,1,,,,,オーブン,0
697,3010701044374,新規,0,2023-06-06,2023-06-06,株式会社ポリプロエージェンシー,,株式会社,東京都,品川区,小山２丁目７番８号チェリーハウス１０１,,13,109,1420062,,,,,,,2023-06-06,1,,,,,ポリプロエージェンシー,0
707,3011001154814,新規,0,2023-06-06,2023-06-06,株式会社Ｍｅｄｉｕｍ　Ｏｎｅ,,株式会社,東京都,渋谷区,千駄ヶ谷３丁目５１番１０号,,13,113,1510051,,,,,,,2023-06-06,1,,,,,ミディアムワン,0
708,3011001154839,新規,0,2023-06-06,2023-06-06,株式会社スワッグデザイン,,株式会社,東京都,目黒区,上目黒４丁目１１番２７号Ｂｌｕｅｂａｓｅ上目黒１０１号室,,13,110,1530051,,,,,,,2023-06-06,1,,,,,スワッグデザイン,0
709,3011001154863,新規,0,2023-06-06,2023-06-06,株式会社ＰＡＬＭ　ＨＯＵＳＥ,,株式会社,東京都,渋谷区,恵比寿４丁目２０番４号,,13,113,1500013,,,,,,,2023-06-06,1,,,,,パームハウス,0
712,3011003016938,新規,0,2023-06-06,2023-06-06,合同会社ＪＰＬ,,合同会社,東京都,目黒区,緑が丘２丁目１２番１２号,,13,110,1520034,,,,,,,2023-06-06,1,,,,,ジェイピーエル,0
716,3011101103142,新規,0,2023-06-06,2023-06-06,株式会社ニュージェイ,,株式会社,東京都,新宿区,西落合３丁目８番５－１０６号,,13,104,1610031,,,,,,,2023-06-06,1,,,,,ニュージェイ,0
717,3011101103167,新規,0,2023-06-06,2023-06-06,株式会社イルラート,,株式会社,東京都,新宿区,新宿３丁目６番２号栄ビル４階,,13,104,1600022,,,,,,,2023-06-06,1,,,,,イルラート,0
722,3011403004014,新規,0,2023-06-06,2023-06-06,合同会社澤井総合,,合同会社,東京都,板橋区,西台２丁目２５番１１号,,13,119,1750045,,,,,,,2023-06-06,1,,,,,サワイソウゴウ,0
724,3011501029350,新規,0,2023-06-06,2023-06-06,延偉株式会社,,株式会社,東京都,荒川区,町屋３丁目２４番２号面川ビル二階２１７号室,,13,118,1160001,,,,,,,2023-06-06,1,,,,,エンイ,0
725,3011503005630,新規,0,2023-06-06,2023-06-06,合同会社Ａｑｉｉ’ｓ００１,,合同会社,東京都,荒川区,東日暮里３丁目２４番４号コート・フェニックス２０１,,13,118,1160014,,,,,,,2023-06-06,1,,,,,アキーズゼロゼロワン,0
727,3011601026867,新規,0,2023-06-06,2023-06-06,ＮＥＯ　ＳＹＳＴＥＭＳ株式会社,,株式会社,東京都,練馬区,豊玉中２丁目１番１３－１４０３号,,13,120,1760013,,,,,,,2023-06-06,1,,,,,ネオシステムズ,0
728,3011601026875,新規,0,2023-06-06,2023-06-06,株式会社ＡＴＡＯＫＡ,,株式会社,東京都,練馬区,高野台１丁目７番３－３０５号,,13,120,1770033,,,,,,,2023-06-06,1,,,,,アタオカ,0
729,3011603003947,新規,0,2023-06-06,2023-06-06,合同会社ＴＭＤ,,合同会社,東京都,練馬区,西大泉５丁目２９番２８－２３０５号,,13,120,1780065,,,,,,,2023-06-06,1,,,,,ティエムディ,0
731,3011701026288,新規,0,2023-06-06,2023-06-06,株式会社ＧＣＤジャパン,,株式会社,東京都,江戸川区,西葛西７丁目１４番７－３０３号コーポエーリエル,,13,123,1340088,,,,,,,2023-06-06,1,,,,,ジーシーディージャパン,0
733,3012803003092,新規,0,2023-06-06,2023-06-06,合同会社総合企画,,合同会社,東京都,立川市,一番町６丁目８番地の１立川一番町東５５棟１０１号,,13,202,1900033,,,,,,,2023-06-06,1,,,,,ソウゴウキカク,0
741,3020001151878,新規,0,2023-06-06,2023-06-06,株式会社ｔａｍｕｔｅ,,株式会社,神奈川県,川崎市麻生区,王禅寺西５丁目１番２号グレイスコートＡ－１０４,,14,137,2150017,,,,,,,2023-06-06,1,,,,,タムテ,0
742,3020001151886,新規,0,2023-06-06,2023-06-06,株式会社Ｔｗｉｎｚ,,株式会社,神奈川県,川崎市川崎区,駅前本町１８－１メルスサイトー７０２,,14,131,2100007,,,,,,,2023-06-06,1,,,,,ツインズ,0
743,3020001151911,新規,0,2023-06-06,2023-06-06,株式会社浜田ホーム,,株式会社,神奈川県,川崎市多摩区,堰３丁目３番１０号,,14,135,2140022,,,,,,,2023-06-06,1,,,,,ハマダホーム,0
744,3020001151944,新規,0,2023-06-06,2023-06-06,株式会社ｍａｋｅ　ａ　ｍｉｒａｃｌｅ,,株式会社,神奈川県,横浜市戸塚区,名瀬町７９４番地５ブライトンハウス２０１号,,14,110,2450051,,,,,,,2023-06-06,1,,,,,メイクアミラクル,0
748,3020003024000,新規,0,2023-06-06,2023-06-06,合同会社Ｋ‐Ｓｔｙｌｅ,,合同会社,神奈川県,川崎市高津区,二子２丁目８番３８号プラシデス二子新地３０１,,14,134,2130002,,,,,,,2023-06-06,1,,,,,ケースタイル,0
750,3021001079201,新規,0,2023-06-06,2023-06-06,株式会社ステラティーニ,,株式会社,神奈川県,藤沢市,鵠沼橘１丁目１５番４～１００４号,,14,205,2510024,,,,,,,2023-06-06,1,,,,,ステラティーニ,0
764,3040001128610,新規,0,2023-06-06,2023-06-06,株式会社Ｉｎ　Ｓｙｎｃ,,株式会社,千葉県,千葉市花見川区,幕張町５丁目４６５番１号リブポート幕張１０８,,12,102,2620032,,,,,,,2023-06-06,1,,,,,インシンク,0
765,3040001128692,新規,0,2023-06-06,2023-06-06,株式会社Ｈｉｔｓｕｋｕ,,株式会社,千葉県,千葉市稲毛区,緑町１丁目１５番１２号,,12,103,2630023,,,,,,,2023-06-06,1,,,,,ヒツク,0
766,3040001128701,新規,0,2023-06-06,2023-06-06,平川ワークス株式会社,,株式会社,千葉県,富里市,十倉３０７番地９５,,12,233,2860212,,,,,,,2023-06-06,1,,,,,ヒラカワワークス,0
767,3040001128718,新規,0,2023-06-06,2023-06-06,株式会社Ｔ＆Ｋ,,株式会社,千葉県,富津市,岩瀬１０４７番地１２,,12,226,2930043,,,,,,,2023-06-06,1,,,,,ティーアンドケィ,0
768,3040001128742,新規,0,2023-06-06,2023-06-06,株式会社Ｍインターナショナル,,株式会社,千葉県,船橋市,宮本２丁目７－１８－２,,12,204,2730003,,,,,,,2023-06-06,1,,,,,エムインターナショナル,0
769,3040001128750,新規,0,2023-06-06,2023-06-06,ＢＡＳＥ工業株式会社,,株式会社,千葉県,千葉市緑区,おゆみ野南２丁目２１番地エステ・シティおゆみ野Ｃ－４０８号,,12,105,2660033,,,,,,,2023-06-06,1,,,,,ベイスコウギョウ,0
771,3040003022753,新規,0,2023-06-06,2023-06-06,ＰｉＰｉ　Ｈｏｕｓｅ合同会社,,合同会社,千葉県,船橋市,本郷町５３０番地１ライネスハイム西船橋５０３号,,12,204,2730033,,,,,,,2023-06-06,1,,,,,ピピハウス,0
772,3050001052909,新規,0,2023-06-06,2023-06-06,株式会社Ｇｅｎｌｏｐ,,株式会社,茨城県,鹿嶋市,大字宮中２０２９番地１,,08,222,3140031,,,,,,,2023-06-06,1,,,,,ゲンロップ,0
773,3050001052933,新規,0,2023-06-06,2023-06-06,保田花香園株式会社,,株式会社,茨城県,小美玉市,部室１７４番地,,08,236,3190132,,,,,,,2023-06-06,1,,,,,ヤスダカコウエン,0
776,3050003007555,新規,0,2023-06-06,2023-06-06,ＭＲＫＥＹ　ＳＹＳＴＥＭ東日本合同会社,,合同会社,茨城県,神栖市,大野原２丁目２７番地２５ニューシップ２０６,,08,232,3140144,,,,,,,2023-06-06,1,,,,,,0
778,3050005013279,新規,0,2023-06-06,2023-06-06,一般社団法人神栖市観光協会,,その他の設立登記法人,茨城県,神栖市,土合本町５丁目９８０９番地５２７号,,08,232,3140343,,,,,,,2023-06-06,1,,,,,カミスシカンコウキョウカイ,0
788,3070005010134,新規,0,2023-06-06,2023-06-06,弁護士法人わたらせ法律事務所,,その他の設立登記法人,群馬県,桐生市,相生町２丁目３７１番地の１,,10,203,3760011,,,,,,,2023-06-06,1,,,,,ワタラセホウリツジムショ,0
791,3080101024045,新規,0,2023-06-06,2023-06-06,株式会社創建,,株式会社,静岡県,富士宮市,万野原新田３４８７番地の１７,,22,207,4180001,,,,,,,2023-06-06,1,,,,,ソウケン,0
792,3080101024053,新規,0,2023-06-06,2023-06-06,株式会社星寿,,株式会社,静岡県,富士宮市,錦町５番２０号,,22,207,4180076,,,,,,,2023-06-06,1,,,,,セイジュ,0
794,3080103002817,新規,0,2023-06-06,2023-06-06,合同会社下芝,,合同会社,静岡県,賀茂郡河津町,川津筏場８５８,,22,302,4130502,,,,,,,2023-06-06,1,,,,,シタシバ,0
805,3110001037597,新規,0,2023-06-06,2023-06-06,株式会社ネクストリガー,,株式会社,新潟県,新潟市中央区,東湊町通１ノ町２５８１番地２,,15,103,9518028,,,,,,,2023-06-06,1,,,,,ネクストリガー,0
815,3120001255347,新規,0,2023-06-06,2023-06-06,茜コーポレーション株式会社,,株式会社,大阪府,大阪市中央区,北久宝寺町４丁目３番８号本町アーバンライフ３１２号室,,27,128,5410057,,,,,,,2023-06-06,1,,,,,アカネコーポレーション,0
816,3120001255355,新規,0,2023-06-06,2023-06-06,株式会社江川組,,株式会社,大阪府,守口市,寺方錦通３丁目３番２３号,,27,209,5700042,,,,,,,2023-06-06,1,,,,,エガワグミ,0
817,3120001255363,新規,0,2023-06-06,2023-06-06,シフトプラスホールディングス株式会社,,株式会社,大阪府,大阪市西区,江戸堀２丁目１番１号江戸堀センタービル８Ｆ,,27,106,5500002,,,,,,,2023-06-06,1,,,,,シフトプラスホールディングス,0
818,3120001255462,新規,0,2023-06-06,2023-06-06,株式会社伸幸建設,,株式会社,大阪府,大阪市浪速区,塩草２丁目２番９号,,27,111,5560024,,,,,,,2023-06-06,1,,,,,シンコウケンセツ,0
819,3120001255504,新規,0,2023-06-06,2023-06-06,株式会社珊瑚,,株式会社,大阪府,守口市,藤田町１丁目５０番１１号,,27,209,5700014,,,,,,,2023-06-06,1,,,,,サンゴ,0
820,3120003024221,新規,0,2023-06-06,2023-06-06,Ｍａｎａｇｅｍｅｎｔ　Ｓｅｅｋｅｒｓ合同会社,,合同会社,大阪府,大阪市北区,梅田１丁目２番２号大阪駅前第２ビル１２‐１２,,27,127,5300001,,,,,,,2023-06-06,1,,,,,マネジメントシーカーズ,0
821,3120003024246,新規,0,2023-06-06,2023-06-06,合同会社ＹＯＳＨＩ,,合同会社,大阪府,大阪市北区,西天満６丁目８‐９‐７０２,,27,127,5300047,,,,,,,2023-06-06,1,,,,,ヨシ,0
823,3120005023659,新規,0,2023-06-06,2023-06-06,税理士法人Ｌｅｔｓ,,その他の設立登記法人,大阪府,大阪市都島区,片町２丁目２番４０号大発ビル３Ｆ,,27,102,5340025,,,,,,,2023-06-06,1,,,,,レッツ,0
827,3120901047595,新規,0,2023-06-06,2023-06-06,株式会社アルヒノ,,株式会社,大阪府,茨木市,奈良町１５番２５号ノースウィング１０６号室,,27,211,5670874,,,,,,,2023-06-06,1,,,,,アルヒノ,0
828,3120901047604,新規,0,2023-06-06,2023-06-06,株式会社クレッシェンド,,株式会社,大阪府,池田市,新町２番１４号,,27,204,5630050,,,,,,,2023-06-06,1,,,,,クレッシェンド,0
829,3120903004529,新規,0,2023-06-06,2023-06-06,合同会社桜蔭,,合同会社,大阪府,茨木市,南春日丘５丁目７番５３号,,27,211,5670046,,,,,,,2023-06-06,1,,,,,オウイン,0
830,3120903004669,新規,0,2023-06-06,2023-06-06,合同会社木花,,合同会社,大阪府,箕面市,箕面５丁目１１番４号,,27,220,5620001,,,,,,,2023-06-06,1,,,,,モッカ,0
831,3122001037031,新規,0,2023-06-06,2023-06-06,株式会社Ｆ．Ｋ．ｆａｃｔｏｒｙ,,株式会社,大阪府,大東市,太子田３丁目３番２２号,,27,218,5740045,,,,,,,2023-06-06,1,,,,,エフケイファクトリー,0
833,3122003002603,新規,0,2023-06-06,2023-06-06,合同会社ＴＲ　Ｃｏｏｒｄｉｎａｔｏｒ,,合同会社,大阪府,八尾市,跡部本町３丁目１番３５号,,27,212,5810064,,,,,,,2023-06-06,1,,,,,ティーアールコーディネーター,0
834,3122005003681,新規,0,2023-06-06,2023-06-06,円応教旭教会,,その他の設立登記法人,大阪府,東大阪市,花園東町１丁目１９番２号,,27,227,5780931,,,,,,,2023-06-06,1,,,,,エンノウキョウアサヒキョウカイ,0
839,3130001074440,新規,0,2023-06-06,2023-06-06,株式会社ａｎｄ　ＬＵＸ,,株式会社,京都府,宇治市,広野町小根尾１４７番地の１４８,,26,204,6110031,,,,,,,2023-06-06,1,,,,,アンドルクス,0
840,3130001074498,新規,0,2023-06-06,2023-06-06,株式会社雅,,株式会社,京都府,京都市右京区,西院西貝川町６５番地７,,26,108,6150056,,,,,,,2023-06-06,1,,,,,ミヤビ,0
843,3140001130440,新規,0,2023-06-06,2023-06-06,株式会社セナ,,株式会社,兵庫県,神戸市垂水区,青山台１丁目２－２７,,28,108,6550873,,,,,,,2023-06-06,1,,,,,セナ,0
844,3140005026651,新規,0,2023-06-06,2023-06-06,一般社団法人愛ことば,,その他の設立登記法人,兵庫県,明石市,西明石南町２丁目１４番５号,,28,203,6730041,,,,,,,2023-06-06,1,,,,,アイコトバ,0
845,3150003002975,新規,0,2023-06-06,2023-06-06,Ｍａｒｂｌｏｕｓ　Ｑｕｅｓｔ合同会社,,合同会社,奈良県,奈良市,西千代ヶ丘３丁目１１番５号,,29,201,6310046,,,,,,,2023-06-06,1,,,,,マーベラスクエスト,0
847,3160001025093,新規,0,2023-06-06,2023-06-06,ＧＲＥＥＮ　ＣＩＲＣＬＥ株式会社,,株式会社,滋賀県,大津市,南郷２丁目４１－１,,25,201,5200865,,,,,,,2023-06-06,1,,,,,グリーンサークル,0
848,3160001025102,新規,0,2023-06-06,2023-06-06,株式会社小村左官,,株式会社,滋賀県,大津市,山百合の丘２３番５５号,,25,201,5200357,,,,,,,2023-06-06,1,,,,,オムラサカン,0
849,3160003002891,新規,0,2023-06-06,2023-06-06,合同会社ナイスビュー小杉,,合同会社,滋賀県,米原市,下多良３丁目５２番地エネッツ米原１０１号,,25,214,5210016,,,,,,,2023-06-06,1,,,,,ナイスビューコスギ,0
860,3180001156639,新規,0,2023-06-06,2023-06-06,株式会社ベルゼル,,株式会社,愛知県,知多郡東浦町,大字石浜字なかね５番地７クラーラナカネ２０７号,,23,442,4702103,,,,,,,2023-06-06,1,,,,,ベルゼル,0
864,3180303005733,新規,0,2023-06-06,2023-06-06,合同会社オレンジフィールド,,合同会社,愛知県,豊橋市,佐藤４丁目１２番地１,,23,201,4400853,,,,,,,2023-06-06,1,,,,,オレンジフィールド,0
865,3190001030462,新規,0,2023-06-06,2023-06-06,ミライコネクト株式会社,,株式会社,三重県,度会郡玉城町,佐田１６２６番地１,,24,461,5190414,,,,,,,2023-06-06,1,,,,,ミライコネクト,0
868,3200001041367,新規,0,2023-06-06,2023-06-06,株式会社Ｂ’ＳＴＹＬＥ,,株式会社,岐阜県,可児市,下恵土５４７５番地,,21,214,5090203,,,,,,,2023-06-06,1,,,,,ビースタイル,0
869,3200001041375,新規,0,2023-06-06,2023-06-06,尾関ニット株式会社,,株式会社,岐阜県,各務原市,川島松倉町１４２０番地,,21,213,5016022,,,,,,,2023-06-06,1,,,,,オゼキニット,0
870,3200001041383,新規,0,2023-06-06,2023-06-06,株式会社ナチュラルクリーン,,株式会社,岐阜県,多治見市,月見町１丁目４３番地の６,,21,204,5070043,,,,,,,2023-06-06,1,,,,,ナチュラルクリーン,0
879,3210001019338,新規,0,2023-06-06,2023-06-06,株式会社おかざき,,株式会社,福井県,福井市,西谷２丁目１６０１番地,,18,201,9188023,,,,,,,2023-06-06,1,,,,,オカザキ,0
884,3210003001657,新規,0,2023-06-06,2023-06-06,合同会社ＧＮＰＯＲＴ,,合同会社,福井県,福井市,新田塚２丁目１４２番２０号,,18,201,9100067,,,,,,,2023-06-06,1,,,,,ジーエヌポート,0
885,3220001025450,新規,0,2023-06-06,2023-06-06,株式会社ＳＰＡＣＥ,,株式会社,石川県,金沢市,片町２丁目３番７号スペース２３７ビル５Ｆ,,17,201,9200981,,,,,,,2023-06-06,1,,,,,,0
892,3240001061601,新規,0,2023-06-06,2023-06-06,藤都工業株式会社,,株式会社,広島県,福山市,今津町７２６番地,,34,207,7290111,,,,,,,2023-06-06,1,,,,,フジトコウギョウ,0
893,3240003006166,新規,0,2023-06-06,2023-06-06,ＷｅＣａｐｉｔａｌ　Ｈｉｒｏｓｈｉｍａ合同会社,,合同会社,広島県,広島市西区,楠木町４丁目７番１７号,,34,104,7330002,,,,,,,2023-06-06,1,,,,,ウィーキャピタルヒロシマ,0
899,3260003004325,新規,0,2023-06-06,2023-06-06,合同会社Ｏｎｅ　Ｋ,,合同会社,岡山県,津山市,田町６３番地スリーゼ田町１－２０２号室,,33,203,7080052,,,,,,,2023-06-06,1,,,,,ワンケー,0
910,3290001101724,新規,0,2023-06-06,2023-06-06,株式会社スモーカー大佐,,株式会社,福岡県,福岡市中央区,天神２丁目３－１０天神パインクレスト５０８号,,40,133,8100001,,,,,,,2023-06-06,1,,,,,スモーカータイサ,0
911,3290001101765,新規,0,2023-06-06,2023-06-06,株式会社翔,,株式会社,福岡県,筑紫野市,二日市西２丁目８番３０－２０２号,,40,217,8180071,,,,,,,2023-06-06,1,,,,,ショウ,0
912,3290001101807,新規,0,2023-06-06,2023-06-06,ＢＡＣＫＯＦＦ　ＪＡＰＡＮ株式会社,,株式会社,福岡県,糟屋郡宇美町,大字井野３２２番地２,,40,341,8112104,,,,,,,2023-06-06,1,,,,,バックオフジャパン,0
913,3290001101823,新規,0,2023-06-06,2023-06-06,株式会社吉建,,株式会社,福岡県,古賀市,小竹１１０番地１,,40,223,8113135,,,,,,,2023-06-06,1,,,,,ヨシケン,0
915,3290003013983,新規,0,2023-06-06,2023-06-06,合同会社Ｈｕｉ,,合同会社,福岡県,大川市,大字新田１０４２番地３,,40,212,8310043,,,,,,,2023-06-06,1,,,,,フイ,0
917,3290801029586,新規,0,2023-06-06,2023-06-06,株式会社Ｉ＆Ｋ,,株式会社,福岡県,北九州市八幡東区,茶屋町１番３号,,40,108,8050014,,,,,,,2023-06-06,1,,,,,アイアンドケイ,0
918,3290803004430,新規,0,2023-06-06,2023-06-06,合同会社８７ｗｏｒｋｐｌａｃｅ,,合同会社,福岡県,北九州市若松区,白山１丁目６番４５号,,40,103,8080035,,,,,,,2023-06-06,1,,,,,ハチナナワークプレイス,0
923,3320005010083,新規,0,2023-06-06,2023-06-06,一般社団法人八面山ラボラトリー,,その他の設立登記法人,大分県,中津市,三光田口３５７２番地１０,,44,203,8710103,,,,,,,2023-06-06,1,,,,,ハチメンサンラボラトリー,0
924,3330001030935,新規,0,2023-06-06,2023-06-06,Ｔ・Ｉ・Ｕ株式会社,,株式会社,熊本県,熊本市東区,長嶺南５丁目３番６２号,,43,102,8618039,,,,,,,2023-06-06,1,,,,,ティーアイユー,0
931,3340001025629,新規,0,2023-06-06,2023-06-06,株式会社サード,,株式会社,鹿児島県,鹿児島市,自由ヶ丘２丁目２８番１１号,,46,201,8910106,,,,,,,2023-06-06,1,,,,,サード,0
932,3340001025637,新規,0,2023-06-06,2023-06-06,ふちわき畜産株式会社,,株式会社,鹿児島県,薩摩郡さつま町,求名１２００９番地,,46,392,8952201,,,,,,,2023-06-06,1,,,,,フチワキチクサン,0
936,3340003004143,新規,0,2023-06-06,2023-06-06,山林等引受救済整備事業合同会社,,合同会社,鹿児島県,霧島市,国分中央１丁目７番４９－３０４号,,46,218,8994332,,,,,,,2023-06-06,1,,,,,サンリントウヒキウケキュウサイセイビジギョウ,0
937,3350001018391,新規,0,2023-06-06,2023-06-06,株式会社Ｔｅａｌ　ＮＥＸＴ,,株式会社,宮崎県,宮崎市,旭１丁目７番２６号３１０６ＢＬＤＧ．旭１階西,,45,201,8800803,,,,,,,2023-06-06,1,,,,,ティールネクスト,0
940,3360001032094,新規,0,2023-06-06,2023-06-06,名嘉真建装株式会社,,株式会社,沖縄県,国頭郡伊江村,字東江前４６４番地の１,,47,315,9050502,,,,,,,2023-06-06,1,,,,,ナカマケンソウ,0
941,3360001032103,新規,0,2023-06-06,2023-06-06,株式会社丸城企画,,株式会社,沖縄県,浦添市,内間４丁目１６番９号,,47,208,9012121,,,,,,,2023-06-06,1,,,,,マルシロキカク,0
942,3360001032128,新規,0,2023-06-06,2023-06-06,ＭｏｔｈｅＲ株式会社,,株式会社,沖縄県,中頭郡読谷村,字波平３５７番地２,,47,324,9040322,,,,,,,2023-06-06,1,,,,,マザー,0
944,3360003013027,新規,0,2023-06-06,2023-06-06,合同会社ナウ・アクション,,合同会社,沖縄県,浦添市,前田２丁目９番５号,,47,208,9012102,,,,,,,2023-06-06,1,,,,,ナウアクション,0
945,3360003013035,新規,0,2023-06-06,2023-06-06,Ｓｕｎｋｉｓｓｅｄ　Ｄｉｖｅｒｓ　Ｏｋｉｎａｗａ合同会社,,合同会社,沖縄県,中頭郡読谷村,字瀬名波５５８・長浜屋アパートＩＩ－２０２,00130726,47,324,9040325,,,,,,,2023-06-06,1,,,,,サンキストダイバーズオキナワ,0
951,3370001050013,新規,0,2023-06-06,2023-06-06,株式会社タンポポホールディングス,,株式会社,宮城県,石巻市,三ツ股１丁目２番１７号ルーチェ２０６号,,04,202,9860858,,,,,,,2023-06-06,1,,,,,タンポポホールディングス,0
952,3370001050046,新規,0,2023-06-06,2023-06-06,株式会社村上生花,,株式会社,宮城県,仙台市若林区,古城３丁目１９番１１号,,04,103,9840825,,,,,,,2023-06-06,1,,,,,ムラカミセイカ,0
958,3390001017274,新規,0,2023-06-06,2023-06-06,エンゲージ株式会社,,株式会社,山形県,鶴岡市,寺田丙２１３番地,,06,203,9970836,,,,,,,2023-06-06,1,,,,,エンゲージ,0
963,3410001013493,新規,0,2023-06-06,2023-06-06,勇希建設工業株式会社,,株式会社,秋田県,大館市,比内町片貝字伊勢堂東２１番地７６,,05,204,0185745,,,,,,,2023-06-06,1,,,,,イサキケンセツコウギョウ,0
968,3430003015107,新規,0,2023-06-06,2023-06-06,合同会社サポートベッセル,,合同会社,北海道,伊達市,梅本町３０番地２,,01,233,0520022,,,,,,,2023-06-06,1,,,,,サポートベッセル,0
969,3430003015131,新規,0,2023-06-06,2023-06-06,合同会社リージョン・ラボ,,合同会社,北海道,江別市,あさひが丘１７番地の４,,01,217,0690826,,,,,,,2023-06-06,1,,,,,リージョンラボ,0
984,3500001024985,新規,0,2023-06-06,2023-06-06,モノクライフ株式会社,,株式会社,愛媛県,松山市,枝松２丁目３番５０‐３号,,38,201,7900962,,,,,,,2023-06-06,1,,,,,モノクライフ,0
986,3700150116935,新規,0,2023-06-06,2023-06-06,Ｓｈａｎｇｈａｉ　Ｚｈｉｎｕｏ　Ｔｒａｄｉｎｇ　Ｃｏ．，Ｌｔｄ,,外国会社等,,,,,,,,２１１Ａ，Ｂｕｉｌｄｉｎｇ　５，Ｎｏ．７５０，Ｌｉｎｙｕａｎ　Ｓｔｒｅｅｔ，Ｚｈｕｊｉｎｇ　Ｔｏｗｎ，Ｊｉｎｓｈａｎ　Ｄｉｓｔｒｉｃｔ，Ｓｈａｎｇｈａｉ,,,,,,2023-06-06,1,,,,,シャンハイジーヌオマオイーヨウシエンゴンスー,0
987,3700150116943,新規,0,2023-06-06,2023-06-06,ｇｕａｎｇｚｈｏｕｓｈｉｌｏｎｇｌｉｎｄｉａｎｚｉｓｈａｎｇｗｕｙｏｕｘｉａｎｇｏｎｇｓｉ,,外国会社等,,,,,,,,ｔｉａｎｈｅｑｕｗｕｓｈａｎｌｕ３８１ｈａｏｈｕａｇｏｎｇｆｅｎｇｈｕａｎｇｘｉｎｃｕｎ１３ｄｏｎｇ１０３ｆａｎｇ　ｇｕａｎｇｚｈｏｕｓｈｉ　ｇｕａｎｇｄｏｎｇｓｈｅｎｇ　５１００００　ＣＮ,,,,,,2023-06-06,1,,,,,グワンジョウシーロンリンディエンズーシャンウーヨウシエンゴンスー,0
995,4010001235788,新規,0,2023-06-06,2023-06-06,ＵＲＯＯＭ株式会社,,株式会社,東京都,中央区,日本橋堀留町１丁目９番６号ゼネラルビル７Ｆ,,13,102,1030012,,,,,,,2023-06-06,1,,,,,ユルーム,0
996,4010001235796,新規,0,2023-06-06,2023-06-06,株式会社東京ニューカソー,,株式会社,東京都,千代田区,神田三崎町３丁目５番９号,,13,101,1010061,,,,,,,2023-06-06,1,,,,,トウキョウニューカソー,0
997,4010001235854,新規,0,2023-06-06,2023-06-06,ザ・レイク・ジャパン株式会社,,株式会社,東京都,千代田区,神田司町２丁目９番２号,,13,101,1010048,,,,,,,2023-06-06,1,,,,,ザレイクジャパン,0
998,4010001235895,新規,0,2023-06-06,2023-06-06,ミライズ製薬株式会社,,株式会社,東京都,中央区,築地６丁目２２番４号東都水ビル８Ｆ,,13,102,1040045,,,,,,,2023-06-06,1,,,,,ミライズセイヤク,0
1004,4010003040600,新規,0,2023-06-06,2023-06-06,合同会社０３,,合同会社,東京都,文京区,向丘２丁目２６番１１号,,13,105,1130023,,,,,,,2023-06-06,1,,,,,ゼロスリー,0
1007,4010005036786,新規,0,2023-06-06,2023-06-06,一般社団法人日本ヘルニア学会,,その他の設立登記法人,東京都,文京区,大塚５丁目３番１３号,,13,105,1120012,,,,,,,2023-06-06,1,,,,,ニホンヘルニアガッカイ,0
1013,4010401174719,新規,0,2023-06-06,2023-06-06,株式会社レーベテック,,株式会社,東京都,港区,浜松町２丁目２番１５号浜松町ダイヤビル２Ｆ,,13,103,1050013,,,,,,,2023-06-06,1,,,,,レーベテック,0
1014,4010401174792,新規,0,2023-06-06,2023-06-06,Ｍｉｌｏ　ｄｅ　Ａｃｅ株式会社,,株式会社,東京都,港区,芝２丁目２８番１１号ＬｉｎｋＳｐａｃｅ芝５１２,,13,103,1050014,,,,,,,2023-06-06,1,,,,,ミロデエース,0
1019,4010403030259,新規,0,2023-06-06,2023-06-06,合同会社ゴーゴージャパン,,合同会社,東京都,港区,六本木２丁目２－２－４０４,,13,103,1060032,,,,,,,2023-06-06,1,,,,,ゴーゴージャパン,0
1022,4010501050539,新規,0,2023-06-06,2023-06-06,株式会社Ｐｏｒｔａｍｅｎｄｏ,,株式会社,東京都,台東区,北上野１丁目１０－１４－１２０１,,13,106,1100014,,,,,,,2023-06-06,1,,,,,ポルタメンド,0
1023,4010501050547,新規,0,2023-06-06,2023-06-06,株式会社ＨＡＴ,,株式会社,東京都,台東区,寿３丁目１５番６号１０２号室,,13,106,1110042,,,,,,,2023-06-06,1,,,,,ハット,0
1025,4010503007025,新規,0,2023-06-06,2023-06-06,合同会社テーミアス,,合同会社,東京都,台東区,根岸３丁目２２番１５－２０６号,,13,106,1100003,,,,,,,2023-06-06,1,,,,,テーミアス,0
1027,4010601063218,新規,0,2023-06-06,2023-06-06,株式会社Ｉ　ｄａｒｅ,,株式会社,東京都,江東区,南砂２丁目３１番１１－５０９号,,13,108,1360076,,,,,,,2023-06-06,1,,,,,アイデア,0
1030,4010701044373,新規,0,2023-06-06,2023-06-06,株式会社福祉内装,,株式会社,東京都,品川区,豊町５丁目１３－５サワハイツ１０３号,,13,109,1420042,,,,,,,2023-06-06,1,,,,,フクシナイソウ,0
1031,4010705003516,新規,0,2023-06-06,2023-06-06,一般社団法人オセッカイダー,,その他の設立登記法人,東京都,品川区,西五反田５丁目３２番１８号,,13,109,1410031,,,,,,,2023-06-06,1,,,,,オセッカイダー,0
1032,4010801034027,新規,0,2023-06-06,2023-06-06,株式会社エアバディ,,株式会社,東京都,大田区,田園調布南１５番２号,,13,111,1450076,,,,,,,2023-06-06,1,,,,,,0
1042,4011001154821,新規,0,2023-06-06,2023-06-06,株式会社ｐｌａｉｓｉｒ,,株式会社,東京都,渋谷区,渋谷２丁目１番１号,,13,113,1500002,,,,,,,2023-06-06,1,,,,,プレジール,0
1043,4011001154838,新規,0,2023-06-06,2023-06-06,株式会社ｃｒｏ,,株式会社,東京都,渋谷区,道玄坂１丁目１２－１渋谷マークシティＷ２２階,,13,113,1500043,,,,,,,2023-06-06,1,,,,,コロ,0
1044,4011001154887,新規,0,2023-06-06,2023-06-06,株式会社ランドフォール,,株式会社,東京都,渋谷区,円山町５番５号Ｎａｖｉ渋谷Ｖ３階,,13,113,1500044,,,,,,,2023-06-06,1,,,,,ランドフォール,0
1050,4011101103182,新規,0,2023-06-06,2023-06-06,株式会社ｃｔｏｗ,,株式会社,東京都,新宿区,西新宿１丁目１０番８号星野ビル３Ｆ,,13,104,1600023,,,,,,,2023-06-06,1,,,,,クトー,0
1052,4011103013116,新規,0,2023-06-06,2023-06-06,栄澂建築一級建築士事務所合同会社,,合同会社,東京都,新宿区,若葉１丁目２１番地４パークハウス四谷１０９,,13,104,1600011,,,,,,,2023-06-06,1,,,,,エイスケンチクイッキュウケンチクシジムショ,0
1059,4011501029382,新規,0,2023-06-06,2023-06-06,ＡＵＴＯ　ＬＩＦＥ株式会社,,株式会社,東京都,荒川区,町屋３丁目２番１号Ｂ１Ｆ,,13,118,1160001,,,,,,,2023-06-06,1,,,,,オートライフ,0
1061,4011601026874,新規,0,2023-06-06,2023-06-06,株式会社フォシュテルン,,株式会社,東京都,練馬区,石神井町４丁目１６番１４号,,13,120,1770041,,,,,,,2023-06-06,1,,,,,フォシュテルン,0
1066,4011801042507,新規,0,2023-06-06,2023-06-06,アノープル株式会社,,株式会社,東京都,足立区,栗原３丁目２９番１０－７０３号,,13,121,1230842,,,,,,,2023-06-06,1,,,,,アノープル,0
1067,4011803005676,新規,0,2023-06-06,2023-06-06,エムスタイルズ合同会社,,合同会社,東京都,足立区,扇１丁目２番２４号,,13,121,1230873,,,,,,,2023-06-06,1,,,,,エムスタイルズ,0
1069,4012401040594,新規,0,2023-06-06,2023-06-06,Ｋ‐ｎｅｔｗｏｒｋｓ株式会社,,株式会社,東京都,調布市,飛田給２丁目４１番地２０,,13,208,1820036,,,,,,,2023-06-06,1,,,,,ケーネットワーク,0
1070,4012403006008,新規,0,2023-06-06,2023-06-06,合同会社オーナーサポート,,合同会社,東京都,府中市,府中町３丁目２番地の３マイキャッスル府中中央１０２,,13,206,1830055,,,,,,,2023-06-06,1,,,,,オーナーサポート,0
1072,4012801022408,新規,0,2023-06-06,2023-06-06,株式会社陽南鐡筋工業,,株式会社,東京都,立川市,幸町４丁目５４番地の６,,13,202,1900002,,,,,,,2023-06-06,1,,,,,ヨウナンテッキンコウギョウ,0
1074,4013301050849,新規,0,2023-06-06,2023-06-06,株式会社蟹記,,株式会社,東京都,豊島区,西池袋５丁目２６－１６ＣＨＩＢＡビル４１８室,,13,116,1710021,,,,,,,2023-06-06,1,,,,,カイキ,0
1075,4013301050857,新規,0,2023-06-06,2023-06-06,ラフレース株式会社,,株式会社,東京都,豊島区,池袋１丁目１６番３３号８Ｆ,,13,116,1700014,,,,,,,2023-06-06,1,,,,,ラフレース,0
1076,4013301050873,新規,0,2023-06-06,2023-06-06,和盟電子商務株式会社,,株式会社,東京都,豊島区,西池袋２丁目３番１０号ＳＴコーポ１０３号,,13,116,1710021,,,,,,,2023-06-06,1,,,,,ワメイデンシショウム,0
1078,4020001151852,新規,0,2023-06-06,2023-06-06,株式会社タテジマ,,株式会社,神奈川県,横浜市泉区,中田南４丁目１番３８号,,14,116,2450014,,,,,,,2023-06-06,1,,,,,タテジマ,0
1079,4020001151860,新規,0,2023-06-06,2023-06-06,株式会社ストラクス神奈川,,株式会社,神奈川県,横浜市神奈川区,新町１番地１７,,14,102,2210043,,,,,,,2023-06-06,1,,,,,ストラクスカナガワ,0
1080,4020001151869,新規,0,2023-06-06,2023-06-06,株式会社ＳＩＮＣＩＶＥ,,株式会社,神奈川県,川崎市宮前区,東有馬３丁目１０番１７号サンビレッジ鷺沼Ａ－１０１,,14,136,2160002,,,,,,,2023-06-06,1,,,,,シンシブ,0
1081,4020001151885,新規,0,2023-06-06,2023-06-06,株式会社ＦＵＫＵＯＮ,,株式会社,神奈川県,横浜市緑区,西八朔町７２番地１４,,14,113,2260024,,,,,,,2023-06-06,1,,,,,フクオン,0
1082,4020001151902,新規,0,2023-06-06,2023-06-06,株式会社Ｙ’ｓｊ,,株式会社,神奈川県,横浜市青葉区,あかね台２丁目３番地４サンコートあかね台２０６,,14,117,2270066,,,,,,,2023-06-06,1,,,,,ワイズジェー,0
1087,4020003023983,新規,0,2023-06-06,2023-06-06,合同会社ニュートンスチュワート,,合同会社,神奈川県,川崎市川崎区,小田２丁目９番７号－１０３,,14,131,2100846,,,,,,,2023-06-06,1,,,,,ニュートンスチュワート,0
1091,4021001079200,新規,0,2023-06-06,2023-06-06,加藤商事株式会社,,株式会社,神奈川県,座間市,ひばりが丘５丁目２９番１３号,,14,216,2520003,,,,,,,2023-06-06,1,,,,,カトウショウジ,0
1092,4021001079209,新規,0,2023-06-06,2023-06-06,株式会社環境リアルエステート,,株式会社,神奈川県,横須賀市,米が浜通１丁目１番地１１,,14,201,2380011,,,,,,,2023-06-06,1,,,,,カンキョウリアルエステート,0
1093,4021001079266,新規,0,2023-06-06,2023-06-06,株式会社栄,,株式会社,神奈川県,平塚市,宮の前６―２０クリオ平塚七番館１０２,,14,203,2540035,,,,,,,2023-06-06,1,,,,,サカエ,0
1096,4021003013157,新規,0,2023-06-06,2023-06-06,合同会社ＫＥＲＫ,,合同会社,神奈川県,相模原市南区,相模大野３丁目３番２－８０８号,,14,153,2520303,,,,,,,2023-06-06,1,,,,,ケーイーアールケー,0
1110,4040001128659,新規,0,2023-06-06,2023-06-06,ＡＲＥＳ　Ｐｒｏｐｅｒｔｙ株式会社,,株式会社,千葉県,千葉市若葉区,貝塚２丁目２１番１９号２階,,12,104,2640020,,,,,,,2023-06-06,1,,,,,アレスプロパティ,0
1111,4040001128675,新規,0,2023-06-06,2023-06-06,株式会社旭,,株式会社,千葉県,千葉市花見川区,千種町３７８－２,,12,102,2620012,,,,,,,2023-06-06,1,,,,,アサヒ,0
1112,4040001128683,新規,0,2023-06-06,2023-06-06,株式会社井上商店,,株式会社,千葉県,千葉市緑区,あすみが丘６丁目５２番地８,,12,105,2670066,,,,,,,2023-06-06,1,,,,,イノウエショウテン,0
1113,4040001128741,新規,0,2023-06-06,2023-06-06,株式会社まるはちＦａｒｍ,,株式会社,千葉県,旭市,倉橋２５１７番地１,,12,215,2892611,,,,,,,2023-06-06,1,,,,,,0
1121,4050001052916,新規,0,2023-06-06,2023-06-06,周作工業株式会社,,株式会社,茨城県,水戸市,見川町２１３１番地の１２８８,,08,201,3100913,,,,,,,2023-06-06,1,,,,,シュウサクコウギョウ,0
1122,4050003007546,新規,0,2023-06-06,2023-06-06,ＢＡＨＡＤＵＲ　ＴＲＡＤＩＮＧ合同会社,,合同会社,茨城県,結城市,大字小田林２４９７番地６３,,08,207,3070007,,,,,,,2023-06-06,1,,,,,バハドゥルトレーディング,0
1129,4060003004583,新規,0,2023-06-06,2023-06-06,合同会社アートグリーンサービス,,合同会社,栃木県,宇都宮市,南町４番１７号,,09,201,3210142,,,,,,,2023-06-06,1,,,,,アートグリーンサービス,0
1130,4070001040514,新規,0,2023-06-06,2023-06-06,株式会社野口工業,,株式会社,群馬県,藤岡市,岡之郷１１１１番地２,,10,209,3750011,,,,,,,2023-06-06,1,,,,,ノグチコウギョウ,0
1140,4090005007573,新規,0,2023-06-06,2023-06-06,一般社団法人ヒトナリ,,その他の設立登記法人,山梨県,富士吉田市,富士見１丁目１番５号,,19,202,4030009,,,,,,,2023-06-06,1,,,,,ヒトナリ,0
1144,4110001037596,新規,0,2023-06-06,2023-06-06,株式会社やまだ,,株式会社,新潟県,新潟市北区,新崎５２５７番地１,,15,101,9503134,,,,,,,2023-06-06,1,,,,,ヤマダ,0
1146,4110003005072,新規,0,2023-06-06,2023-06-06,合同会社ソーラーエナジー大地,,合同会社,新潟県,村上市,金屋１９１８番地２,,15,212,9593124,,,,,,,2023-06-06,1,,,,,ソーラーエナジーダイチ,0
1151,4120001255362,新規,0,2023-06-06,2023-06-06,株式会社Ｆｉｏｒｅ,,株式会社,大阪府,大阪市中央区,南船場４丁目１０番５号南船場ＳＯＨＯビル７０２,,27,128,5420081,,,,,,,2023-06-06,1,,,,,フィオーレ,0
1152,4120001255379,新規,0,2023-06-06,2023-06-06,株式会社Ｗｅｌｌ‐ｂｅｉｎｇ　ｗｏｒｋｓ,,株式会社,大阪府,大阪市中央区,南船場４丁目１２番１０号ＡＣＮ心斎橋ビル７Ｆ,,27,128,5420081,,,,,,,2023-06-06,1,,,,,ウェルビーイングワークス,0
1153,4120001255395,新規,0,2023-06-06,2023-06-06,雲峰株式会社,,株式会社,大阪府,大阪市中央区,内平野町１丁目４－１－１００１室,,27,128,5400037,,,,,,,2023-06-06,1,,,,,ウンホウ,0
1154,4120001255503,新規,0,2023-06-06,2023-06-06,株式会社ＵＮＩＴＥＮＳ,,株式会社,大阪府,大阪市住吉区,帝塚山東１丁目６－７－４０２,,27,120,5580054,,,,,,,2023-06-06,1,,,,,ユニテンス,0
1155,4120001255511,新規,0,2023-06-06,2023-06-06,株式会社ＴＷＯサポート,,株式会社,大阪府,大阪市西区,南堀江１丁目１６番１１号Ｒｅ－００８ビル６Ｃ,,27,106,5500015,,,,,,,2023-06-06,1,,,,,トゥーサポート,0
1157,4120003024245,新規,0,2023-06-06,2023-06-06,合同会社ＧＬｉＰｐｕＳ,,合同会社,大阪府,大阪市北区,梅田１丁目３番１号大阪駅前第１ビル８階５号,,27,127,5300001,,,,,,,2023-06-06,1,,,,,グリップス,0
1159,4120101067674,新規,0,2023-06-06,2023-06-06,株式会社安在,,株式会社,大阪府,岸和田市,新港町８番地の２,,27,202,5960012,,,,,,,2023-06-06,1,,,,,アンザイ,0
1163,4120901047594,新規,0,2023-06-06,2023-06-06,株式会社ニッコー関西,,株式会社,大阪府,茨木市,宿川原町１８番７号,,27,211,5670055,,,,,,,2023-06-06,1,,,,,ニッコーカンサイ,0
1165,4120903004668,新規,0,2023-06-06,2023-06-06,合同会社ｍａｄａｍＦｃｏｃｏ,,合同会社,大阪府,豊中市,本町８丁目２番２６号,,27,203,5600021,,,,,,,2023-06-06,1,,,,,マダムエフココ,0
1167,4122001037030,新規,0,2023-06-06,2023-06-06,ユキ商事株式会社,,株式会社,大阪府,八尾市,桜ヶ丘１番地１,,27,212,5810000,,,,,,,2023-06-06,1,,,,,ユキショウジ,0
1168,4122003002602,新規,0,2023-06-06,2023-06-06,合同会社Ｋ．Ｏ．Ｌ　ｃｏｒｐｏｒａｔｉｏｎ,,合同会社,大阪府,八尾市,南本町６丁目６番３１号,,27,212,5810081,,,,,,,2023-06-06,1,,,,,ケーオーエルコーポレーション,0
1177,4130001074472,新規,0,2023-06-06,2023-06-06,株式会社ＴＤＫトレーディング,,株式会社,京都府,京都市右京区,西院久田町２１－１レックスシティ京都西院２０９号,,26,108,6150064,,,,,,,2023-06-06,1,,,,,ティーディーケートレーディング,0
1178,4130001074480,新規,0,2023-06-06,2023-06-06,株式会社ＲｅＵｎｉｏｎ,,株式会社,京都府,京都市右京区,嵯峨天龍寺今堀町１６番地の５,,26,108,6168366,,,,,,,2023-06-06,1,,,,,リユニオン,0
1179,4130001074497,新規,0,2023-06-06,2023-06-06,株式会社３ｓｋｉｌｌ,,株式会社,京都府,京都市右京区,花園木辻南町１２－１１,,26,108,6168057,,,,,,,2023-06-06,1,,,,,スリースキル,0
1182,4150001026439,新規,0,2023-06-06,2023-06-06,明光建設株式会社,,株式会社,奈良県,生駒郡斑鳩町,龍田西５丁目３番１号,00130723,29,344,6360154,,,,,,,2023-06-06,1,,,,,メイコウケンセツ,0
1183,4150001026447,新規,0,2023-06-06,2023-06-06,株式会社ライラック,,株式会社,奈良県,奈良市,左京５丁目３番地の１３９,,29,201,6310801,,,,,,,2023-06-06,1,,,,,ライラック,0
1184,4150001026455,新規,0,2023-06-06,2023-06-06,満仲設備株式会社,,株式会社,奈良県,磯城郡田原本町,大字八尾４０２番地の６８,,29,363,6360311,,,,,,,2023-06-06,1,,,,,ミツナカセツビ,0
1185,4150001026463,新規,0,2023-06-06,2023-06-06,株式会社サントランスポート,,株式会社,奈良県,奈良市,神殿町１８１番地の４７,,29,201,6308441,,,,,,,2023-06-06,1,,,,,サントランスポート,0
1186,4150003002974,新規,0,2023-06-06,2023-06-06,合同会社まる悠,,合同会社,奈良県,御所市,大字櫛羅２３９番地の６,00130724,29,208,6392312,,,,,,,2023-06-06,1,,,,,マルユウ,0
1187,4160001025092,新規,0,2023-06-06,2023-06-06,株式会社ｃ　ｌｉｇｈｔ,,株式会社,滋賀県,大津市,和邇春日２丁目８６８番地８－２階,,25,201,5200529,,,,,,,2023-06-06,1,,,,,シーライト,0
1188,4160001025101,新規,0,2023-06-06,2023-06-06,株式会社中尾組,,株式会社,滋賀県,長浜市,鳥羽上町４３６番地２,,25,203,5260822,,,,,,,2023-06-06,1,,,,,ナカオグミ,0
1189,4170001017634,新規,0,2023-06-06,2023-06-06,株式会社みかんのもり,,株式会社,和歌山県,海南市,下津町小畑３０７番地,,30,202,6490161,,,,,,,2023-06-06,1,,,,,ミカンノモリ,0
1198,4180301037439,新規,0,2023-06-06,2023-06-06,株式会社ＡＣＴＭＡＬＬ,,株式会社,愛知県,豊橋市,弥生町字中原５８番地１,,23,201,4418106,,,,,,,2023-06-06,1,,,,,アクトモール,0
1199,4180301037447,新規,0,2023-06-06,2023-06-06,株式会社こころ,,株式会社,愛知県,豊田市,河合町２丁目６９番地３,,23,211,4710824,,,,,,,2023-06-06,1,,,,,ココロ,0
1200,4180301037463,新規,0,2023-06-06,2023-06-06,株式会社ＥＴＥ　ｃｏｍｐａｎｙ,,株式会社,愛知県,豊川市,諏訪３丁目１２５番地ベルディナトキワ１Ｆ,,23,207,4420068,,,,,,,2023-06-06,1,,,,,エテカンパニー,0
1201,4190001030437,新規,0,2023-06-06,2023-06-06,株式会社人雲データサービス,,株式会社,三重県,多気郡多気町,笠木６２２番地,,24,441,5192162,,,,,,,2023-06-06,1,,,,,ジンウンデータサービス,0
1205,4200001041374,新規,0,2023-06-06,2023-06-06,株式会社Ｂｅｌｌｅ,,株式会社,岐阜県,高山市,三福寺町１５３５番地４５,,21,203,5060807,,,,,,,2023-06-06,1,,,,,ベル,0
1206,4200001041390,新規,0,2023-06-06,2023-06-06,株式会社ＤＡＯＷＯＲＫＳ,,株式会社,岐阜県,岐阜市,高砂町１丁目１７イーストライジング２４・２階,,21,201,5008407,,,,,,,2023-06-06,1,,,,,ダオワークス,0
1209,4210001019337,新規,0,2023-06-06,2023-06-06,株式会社トランクイル,,株式会社,福井県,敦賀市,中央町２丁目６番１０号,,18,202,9140811,,,,,,,2023-06-06,1,,,,,トランクイル,0
1213,4230001019863,新規,0,2023-06-06,2023-06-06,スケッチ株式会社,,株式会社,富山県,高岡市,佐野１３４７番地１,,16,202,9330826,,,,,,,2023-06-06,1,,,,,スケッチ,0
1214,4230001019871,新規,0,2023-06-06,2023-06-06,株式会社Ｗｉｇ・Ｗａｍ,,株式会社,富山県,富山市,総曲輪２丁目８番２１号,,16,201,9300083,,,,,,,2023-06-06,1,,,,,ウィグワム,0
1215,4230003002025,新規,0,2023-06-06,2023-06-06,合同会社虹彩,,合同会社,富山県,富山市,鶴ヶ丘町１５９番地１２テアトル１０１号,,16,201,9300824,,,,,,,2023-06-06,1,,,,,アイリス,0
1229,4260001038002,新規,0,2023-06-06,2023-06-06,株式会社アイテック,,株式会社,岡山県,倉敷市,林１７９８番地２,,33,202,7100142,,,,,,,2023-06-06,1,,,,,アイテック,0
1230,4260001038010,新規,0,2023-06-06,2023-06-06,ペットベイシックス株式会社,,株式会社,岡山県,岡山市北区,大供本町７１３番地１,,33,101,7000911,,,,,,,2023-06-06,1,,,,,ペットベイシックス,0
1231,4260001038019,新規,0,2023-06-06,2023-06-06,株式会社カルテミア,,株式会社,岡山県,岡山市北区,学南町３丁目８番１３号,,33,101,7000011,,,,,,,2023-06-06,1,,,,,カルテミア,0
1233,4260003004324,新規,0,2023-06-06,2023-06-06,合同会社ＫＵＫＩＭＢＩＡ３３,,合同会社,岡山県,倉敷市,美和２丁目８番７号,,33,202,7100052,,,,,,,2023-06-06,1,,,,,クキンビアサンジュウサン,0
1235,4280001008952,新規,0,2023-06-06,2023-06-06,株式会社Ｒｅｎｔ＆Ｕｓｅ,,株式会社,島根県,松江市,西川津町４３０４番地２,,32,201,6900823,,,,,,,2023-06-06,1,,,,,レントアンドユース,0
1239,4290001101814,新規,0,2023-06-06,2023-06-06,株式会社Ｔｏｔｔｉ,,株式会社,福岡県,福岡市博多区,中洲５丁目４－１０グランエターナ福岡天神橋２１０３,,40,132,8100801,,,,,,,2023-06-06,1,,,,,トッティ,0
1242,4290003013974,新規,0,2023-06-06,2023-06-06,Ｄプロジェクト合同会社,,合同会社,福岡県,福岡市博多区,祇園町６番２６号,,40,132,8120038,,,,,,,2023-06-06,1,,,,,ディープロジェクト,0
1243,4290003013990,新規,0,2023-06-06,2023-06-06,合同会社Ｒｉｐｐｌｅｗａｒｅ,,合同会社,福岡県,福岡市中央区,天神２丁目２番１２号Ｔ＆Ｊビルディング７Ｆ,,40,133,8100001,,,,,,,2023-06-06,1,,,,,リップルウェア,0
1244,4290003013999,新規,0,2023-06-06,2023-06-06,合同会社Ｗａｉ２Ｌａｂ,,合同会社,福岡県,福岡市博多区,博多駅前１丁目２３番２号５Ｆ‐Ｂ,,40,132,8120011,,,,,,,2023-06-06,1,,,,,ワイツーラボ,0
1245,4290005019053,新規,0,2023-06-06,2023-06-06,ＮＰＯ法人やすらぎ荘,,その他の設立登記法人,福岡県,福岡市博多区,銀天町２丁目１番２６－２０６号ライオンズマンション南福岡中央,,40,132,8120879,,,,,,,2023-06-06,1,,,,,ヤスラギソウ,0
1247,4310001018452,新規,0,2023-06-06,2023-06-06,株式会社勝栄工業,,株式会社,長崎県,長崎市,三京町８１５番地７６,,42,201,8512206,,,,,,,2023-06-06,1,,,,,ショウエイコウギョウ,0
1252,4320001019805,新規,0,2023-06-06,2023-06-06,株式会社創造技建,,株式会社,大分県,大分市,大字猪野４４２番地の２,,44,201,8700134,,,,,,,2023-06-06,1,,,,,ソウゾウギケン,0
1253,4320001019813,新規,0,2023-06-06,2023-06-06,Ｓａｔｉｓｆａｃｔｉｏｎ株式会社,,株式会社,大分県,大分市,大字羽田１１３７番地２,,44,201,8700942,,,,,,,2023-06-06,1,,,,,サティスファクション,0
1255,4320003004094,新規,0,2023-06-06,2023-06-06,合同会社稲田農産,,合同会社,大分県,日田市,天瀬町五馬市２１９５番地２,,44,204,8770111,,,,,,,2023-06-06,1,,,,,イナダノウサン,0
1257,4330001030934,新規,0,2023-06-06,2023-06-06,株式会社Ｒ・Ｂ,,株式会社,熊本県,熊本市南区,田迎１丁目１番１５号,,43,104,8620962,,,,,,,2023-06-06,1,,,,,アールビー,0
1258,4330003009869,新規,0,2023-06-06,2023-06-06,合同会社朝日塾,,合同会社,熊本県,熊本市東区,尾ノ上３丁目６番２号１Ｆ,,43,102,8620913,,,,,,,2023-06-06,1,,,,,アサヒジュク,0
1260,4340001025636,新規,0,2023-06-06,2023-06-06,株式会社ＬＩＮＫ,,株式会社,鹿児島県,霧島市,国分福島３丁目４番２０－９号,,46,218,8994322,,,,,,,2023-06-06,1,,,,,リンク,0
1261,4340003004142,新規,0,2023-06-06,2023-06-06,合同会社体岡農園,,合同会社,鹿児島県,大島郡喜界町,大字伊砂３５１番地,,46,529,8916217,,,,,,,2023-06-06,1,,,,,タイオカノウエン,0
1265,4350001018390,新規,0,2023-06-06,2023-06-06,株式会社弥栄空設,,株式会社,宮崎県,宮崎市,大塚台西２丁目２７番地１１,,45,201,8802105,,,,,,,2023-06-06,1,,,,,ヤサカクウセツ,0
1266,4350001018399,新規,0,2023-06-06,2023-06-06,株式会社鶏の大納言,,株式会社,宮崎県,宮崎市,清武町正手３丁目９番地２,,45,201,8891603,,,,,,,2023-06-06,1,,,,,トリノダイナゴン,0
1271,4360001032127,新規,0,2023-06-06,2023-06-06,Ｔ‐Ｔｅｃｈｎｏ株式会社,,株式会社,沖縄県,宜野湾市,伊佐３丁目２７番２４号,,47,205,9012221,,,,,,,2023-06-06,1,,,,,ティーテクノ,0
1275,4360003013042,新規,0,2023-06-06,2023-06-06,合同会社沖心,,合同会社,沖縄県,那覇市,辻２丁目２０番２６号,00130734,47,201,9000037,,,,,,,2023-06-06,1,,,,,オキシン,0
1288,4410001013492,新規,0,2023-06-06,2023-06-06,花岡鉄工株式会社,,株式会社,秋田県,大館市,花岡町字根井下２２０番地,,05,204,0170005,,,,,,,2023-06-06,1,,,,,ハナオカテッコウ,0
1290,4420001018284,新規,0,2023-06-06,2023-06-06,株式会社ＭＯＳＰＡあさむし共創プラットフォーム,,株式会社,青森県,青森市,大字浅虫字蛍谷２５番地,,02,201,0393501,,,,,,,2023-06-06,1,,,,,モスパアサムシキョウソウプラットフォーム,0
1291,4430001089275,新規,0,2023-06-06,2023-06-06,株式会社Ｐｒｏｕｄ　Ｗｏｒｋｓ,,株式会社,北海道,札幌市北区,拓北二条１丁目４番１号,,01,102,0028062,,,,,,,2023-06-06,1,,,,,プラウドワークス,0
1293,4440003001526,新規,0,2023-06-06,2023-06-06,ニセコワークス合同会社,,合同会社,北海道,函館市,五稜郭町１１番７号,,01,202,0400001,,,,,,,2023-06-06,1,,,,,ニセコワークス,0
1299,4490003001785,新規,0,2023-06-06,2023-06-06,合同会社ＨｏｕｓｅＦｉｘ,,合同会社,高知県,高知市,寿町７番１０号,,39,201,7800043,,,,,,,2023-06-06,1,,,,,ハウスフィックス,0
1302,4500001024968,新規,0,2023-06-06,2023-06-06,株式会社クラフト,,株式会社,愛媛県,新居浜市,北内町２丁目８番２７号,,38,205,7920842,,,,,,,2023-06-06,1,,,,,,0
1303,4500001024976,新規,0,2023-06-06,2023-06-06,株式会社アール設計,,株式会社,愛媛県,新居浜市,久保田町１丁目６番５８号カネコビル２０２,,38,205,7920026,,,,,,,2023-06-06,1,,,,,アールセッケイ,0
1304,4500001024992,新規,0,2023-06-06,2023-06-06,株式会社開墾隊,,株式会社,愛媛県,松山市,三番町６丁目３番地４,,38,201,7900003,,,,,,,2023-06-06,1,,,,,カイコンタイ,0
1306,4700150116934,新規,0,2023-06-06,2023-06-06,Ｉｎｎｅｒ　Ｍｏｎｇｏｌｉａ　Ｆｕｄｉ　Ｓｈｕｈａｎｇ　Ｔｅｃｈｎｏｌｏｇｙ　Ｃｏ．，Ｌｔｄ,,外国会社等,,,,,,,,３２５Ｇ（Ｅｎｃｌａｖｅ　Ｐａｒｋ），Ｎｏ．２　Ｘｉｔｕｌｕ，Ｒａｒｅ　Ｅａｒｔｈ　Ｒｏａｄ，Ｂａｏｔｏｕ　Ｃｉｔｙ，Ｂａｙａｎ　Ｏｂｏ　Ｍｉｎｉｎｇ　Ｄｉｓｔｒｉｃｔ，Ｉｎｎｅｒ　Ｍｏｎｇｏｌｉａ　Ａｕｔｏｎｏｍｏｕｓ　Ｒｅｇｉｏｎ,,,,,,2023-06-06,1,,,,,ネイモングーフーディーシューハンコージーヨウシエンゴンスー,0
1307,4700150116942,新規,0,2023-06-06,2023-06-06,ｈａｎｇｚｈｏｕａｏｂｏｒｉｍａｏｙｉｙｏｕｘｉａｎｚｅｒｅｎｇｏｎｇｓｉ,,外国会社等,,,,,,,,Ｒｏｏｍ　５０２，Ｂｕｉｌｄｉｎｇ　６，４８　Ｈｕａｎｇｇｕｓｈａｎ　Ｒｏａｄ，Ｘｉｈｕ　Ｄｉｓｔｒｉｃｔ　Ｈａｎｇｚｈｏｕ　Ｚｈｅｊｉａｎｇ　３１００１３　ＣＮ,,,,,,2023-06-06,1,,,,,ハンジョウアオボーリーマオイーヨウシエンゾーレンゴンスー,0
1318,5010001235795,新規,0,2023-06-06,2023-06-06,リードテック株式会社,,株式会社,東京都,中央区,京橋２丁目１６番１号,,13,102,1040031,,,,,,,2023-06-06,1,,,,,リードテック,0
1319,5010001235812,新規,0,2023-06-06,2023-06-06,株式会社ユニークピース,,株式会社,東京都,中央区,日本橋馬喰町１丁目９番１号ＴＨＥＣＯＲＮＥＲ日本橋ｅａｓｔ３階,,13,102,1030002,,,,,,,2023-06-06,1,,,,,ユニークピース,0
1320,5010001235820,新規,0,2023-06-06,2023-06-06,アワーコンパスコンサルティング株式会社,,株式会社,東京都,千代田区,大手町１丁目５番１号大手町ファーストスクエアイーストタワー４階,,13,101,1000004,,,,,,,2023-06-06,1,,,,,アワーコンパスコンサルティング,0
1321,5010001235894,新規,0,2023-06-06,2023-06-06,裕志株式会社,,株式会社,東京都,文京区,向丘１丁目１２番４号ミセレニ白山５０１号室,,13,105,1130023,,,,,,,2023-06-06,1,,,,,ユウシ,0
1322,5010001235928,新規,0,2023-06-06,2023-06-06,ｍｏｒｅＴＯＫＹＯ株式会社,,株式会社,東京都,中央区,銀座１丁目１２番４号,,13,102,1040061,,,,,,,2023-06-06,1,,,,,モアトウキョウ,0
1323,5010001235936,新規,0,2023-06-06,2023-06-06,ＪＰＰ株式会社,,株式会社,東京都,中央区,銀座７丁目１１番３号,,13,102,1040061,,,,,,,2023-06-06,1,,,,,ジェイピーピー,0
1324,5010003040780,新規,0,2023-06-06,2023-06-06,合同会社Ｇｒｅｅｎ　Ｅｓｔａｔｅ,,合同会社,東京都,千代田区,神田錦町１丁目２１番地２大手町モダンビルディング,,13,101,1010054,,,,,,,2023-06-06,1,,,,,グリーンエステート,0
1325,5010003040797,新規,0,2023-06-06,2023-06-06,合同会社ｕｚｏｍｚｏ,,合同会社,東京都,千代田区,一ツ橋２丁目６番１０－２０２号,,13,101,1010003,,,,,,,2023-06-06,1,,,,,ウゾウムゾウ,0
1330,5010401174775,新規,0,2023-06-06,2023-06-06,株式会社Ｓｐｏｔｌｉｇｈｔ,,株式会社,東京都,港区,南青山２丁目２番１５号,,13,103,1070062,,,,,,,2023-06-06,1,,,,,スポットライト,0
1331,5010401174791,新規,0,2023-06-06,2023-06-06,ＰＲＡ株式会社,,株式会社,東京都,港区,北青山１丁目３番３号三橋ビル８Ｆ,,13,103,1070061,,,,,,,2023-06-06,1,,,,,ピーアールエー,0
1333,5010403030241,新規,0,2023-06-06,2023-06-06,ＥＹＥＺ合同会社,,合同会社,東京都,港区,元麻布３丁目４番２９－１２０２号,,13,103,1060046,,,,,,,2023-06-06,1,,,,,アイズ,0
1334,5010501050538,新規,0,2023-06-06,2023-06-06,株式会社ＫＯＮオフィス,,株式会社,東京都,台東区,松が谷１丁目４番３号,,13,106,1110036,,,,,,,2023-06-06,1,,,,,コンオフィス,0
1336,5010503007024,新規,0,2023-06-06,2023-06-06,バリスタ経営研究会合同会社,,合同会社,東京都,台東区,上野３丁目６番３号,,13,106,1100005,,,,,,,2023-06-06,1,,,,,バリスタケイエイケンキュウカイ,0
1338,5010603010183,新規,0,2023-06-06,2023-06-06,合同会社ＲｅＵｎｉｏｎ,,合同会社,東京都,江東区,森下１丁目１８番地６号ソレイユ森下３０１,,13,108,1350004,,,,,,,2023-06-06,1,,,,,リユニオン,0
1345,5010701044348,新規,0,2023-06-06,2023-06-06,株式会社ＬＵＸ,,株式会社,東京都,品川区,東大井３丁目２７番８号,,13,109,1400011,,,,,,,2023-06-06,1,,,,,ラックス,0
1346,5010701044356,新規,0,2023-06-06,2023-06-06,株式会社蕾,,株式会社,東京都,品川区,西五反田６丁目１１番１１号,,13,109,1410031,,,,,,,2023-06-06,1,,,,,ツボミ,0
1347,5010701044364,新規,0,2023-06-06,2023-06-06,株式会社ＬＴＢ,,株式会社,東京都,品川区,西五反田１丁目２６番２号五反田サンハイツ９１１,,13,109,1410031,,,,,,,2023-06-06,1,,,,,エルティービー,0
1348,5010701044372,新規,0,2023-06-06,2023-06-06,株式会社バイオＸ,,株式会社,東京都,品川区,東五反田１丁目２番１５号,,13,109,1410022,,,,,,,2023-06-06,1,,,,,バイオエックス,0
1350,5010703006726,新規,0,2023-06-06,2023-06-06,合同会社ワイエムコネクト,,合同会社,東京都,品川区,西五反田２丁目１５－１０グリンデル五反田６０１,,13,109,1410031,,,,,,,2023-06-06,1,,,,,ワイエムコネクト,0
1353,5011001154820,新規,0,2023-06-06,2023-06-06,株式会社ＶＩＮＫ,,株式会社,東京都,渋谷区,渋谷２丁目１番１号,,13,113,1500002,,,,,,,2023-06-06,1,,,,,ウィンク,0
1354,5011001154944,新規,0,2023-06-06,2023-06-06,株式会社ドゥープロ,,株式会社,東京都,目黒区,鷹番１丁目１４番２５号,,13,110,1520004,,,,,,,2023-06-06,1,,,,,ドゥープロ,0
1356,5011003016928,新規,0,2023-06-06,2023-06-06,ＥＸＴＥＮＳＩＯＮ合同会社,,合同会社,東京都,目黒区,中目黒３丁目６番２号中目黒Ｆ・Ｓビル５階,,13,110,1530061,,,,,,,2023-06-06,1,,,,,エクステンション,0
1358,5011101103041,新規,0,2023-06-06,2023-06-06,株式会社平久保ビーチパートナーズ,,株式会社,東京都,新宿区,西新宿３丁目１７番７号,,13,104,1600023,,,,,,,2023-06-06,1,,,,,ヒラクボビーチパートナーズ,0
1359,5011101103165,新規,0,2023-06-06,2023-06-06,Ｓｉｇｎ株式会社,,株式会社,東京都,新宿区,新宿７丁目２７番１２号,,13,104,1600022,,,,,,,2023-06-06,1,,,,,サイン,0
1360,5011103013115,新規,0,2023-06-06,2023-06-06,合同会社Ｄｅｍｕｒａ　Ｐｌａｎｎｉｎｇ５４,,合同会社,東京都,新宿区,西早稲田３丁目３０番１８－１００５号,,13,104,1690051,,,,,,,2023-06-06,1,,,,,デムラプランニングゴーヨン,0
1362,5011201024690,新規,0,2023-06-06,2023-06-06,株式会社ＳＰＡＣＥ１９７７,,株式会社,東京都,中野区,若宮２丁目３６番１４号,,13,114,1650033,,,,,,,2023-06-06,1,,,,,スペースイチキュウナナナナ,0
1366,5011301028757,新規,0,2023-06-06,2023-06-06,ＢＥＡＲ株式会社,,株式会社,東京都,杉並区,高井戸東１丁目１番６４号,,13,115,1680072,,,,,,,2023-06-06,1,,,,,ベアー,0
1367,5011401025183,新規,0,2023-06-06,2023-06-06,株式会社ＳＯＹＯＧＩ,,株式会社,東京都,板橋区,仲町３６番３号,,13,119,1730022,,,,,,,2023-06-06,1,,,,,ソヨギ,0
1370,5011601026865,新規,0,2023-06-06,2023-06-06,株式会社ユキテック,,株式会社,東京都,練馬区,立野町９番１号,,13,120,1770054,,,,,,,2023-06-06,1,,,,,ユキテック,0
1371,5011601026873,新規,0,2023-06-06,2023-06-06,株式会社メッシュ景観設計事務所,,株式会社,東京都,練馬区,上石神井１丁目３９番２２号３０１号室,,13,120,1770044,,,,,,,2023-06-06,1,,,,,メッシュケイカンセッケイジムショ,0
1372,5011601026881,新規,0,2023-06-06,2023-06-06,株式会社雅,,株式会社,東京都,練馬区,大泉学園町６丁目３０番１８号,,13,120,1780061,,,,,,,2023-06-06,1,,,,,ミヤビ,0
1376,5011701026294,新規,0,2023-06-06,2023-06-06,株式会社Ａｇａｔｈｏ,,株式会社,東京都,江戸川区,西小岩３丁目２４番１３号トラス西小岩１０２,,13,123,1330057,,,,,,,2023-06-06,1,,,,,アガト,0
1381,5011703003481,新規,0,2023-06-06,2023-06-06,合同会社スマイルバーグ,,合同会社,東京都,江戸川区,中央１丁目１５番２号,,13,123,1320021,,,,,,,2023-06-06,1,,,,,スマイルバーグ,0
1384,5011801042514,新規,0,2023-06-06,2023-06-06,株式会社匠実重機,,株式会社,東京都,足立区,入谷３丁目１１番１９号,,13,121,1210836,,,,,,,2023-06-06,1,,,,,タクミジュウキ,0
1385,5011801042522,新規,0,2023-06-06,2023-06-06,株式会社Ｆｕｔｕｒｅ　Ｐｒｏｔｅｃｔ,,株式会社,東京都,足立区,千住１丁目４番１号東京芸術センター１０階,,13,121,1200034,,,,,,,2023-06-06,1,,,,,フューチャープロテクト,0
1387,5012301013468,新規,0,2023-06-06,2023-06-06,株式会社ＫＳインテリア,,株式会社,東京都,町田市,小山ヶ丘４丁目７番地１ルネグランディア６１４,,13,209,1940215,,,,,,,2023-06-06,1,,,,,ケイエスインテリア,0
1388,5012301013476,新規,0,2023-06-06,2023-06-06,ＧＯＭＡ株式会社,,株式会社,東京都,町田市,金井ヶ丘４丁目２２番２２,,13,209,1950076,,,,,,,2023-06-06,1,,,,,ゴマ,0
1389,5012303001834,新規,0,2023-06-06,2023-06-06,合同会社Ｗｅｌｌ‐ｂｅｉｎｇＳｃｉｅｎｃｅ,,合同会社,東京都,町田市,中町１丁目２－５ＳｈｅｌｌＭｉｙａｋｏＶ３Ｆ,,13,209,1940021,,,,,,,2023-06-06,1,,,,,ウェルビーイングサイエンス,0
1390,5012401040593,新規,0,2023-06-06,2023-06-06,株式会社ＭＮＨスポーツ,,株式会社,東京都,調布市,調布ケ丘１丁目３４番地１,,13,208,1820021,,,,,,,2023-06-06,1,,,,,エムエヌエイチスポーツ,0
1394,5012801022398,新規,0,2023-06-06,2023-06-06,株式会社ペイントラスト,,株式会社,東京都,国立市,谷保６６９４番地の３セレーナ国立１０１,,13,215,1860011,,,,,,,2023-06-06,1,,,,,ペイントラスト,0
1395,5012801022415,新規,0,2023-06-06,2023-06-06,株式会社ヒノショー,,株式会社,東京都,日野市,日野台４丁目１６番地の１３,,13,212,1910003,,,,,,,2023-06-06,1,,,,,ヒノショー,0
1396,5012803003099,新規,0,2023-06-06,2023-06-06,合同会社ネクリス,,合同会社,東京都,立川市,西砂町３丁目２５番地の５ベルベルデＩ－１０３,00130731,13,202,1900034,,,,,,,2023-06-06,1,,,,,ネクリス,0
1397,5012805003196,新規,0,2023-06-06,2023-06-06,一般社団法人ＡＣＣＥＳＳｔｏＪＵＳＴＩＣＥ,,その他の設立登記法人,東京都,国分寺市,南町１丁目１１番５号,,13,214,1850021,,,,,,,2023-06-06,1,,,,,アクセストゥジャスティス,0
1401,5020001151851,新規,0,2023-06-06,2023-06-06,株式会社エンジェル投資家教育サロン,,株式会社,神奈川県,横浜市神奈川区,三ツ沢下町２１番６－２０１号,,14,102,2210852,,,,,,,2023-06-06,1,,,,,エンジェルトウシカキョウイクサロン,0
1402,5020001151868,新規,0,2023-06-06,2023-06-06,株式会社ＢＩＧ　ＰＯＷＥＲ,,株式会社,神奈川県,横浜市旭区,市沢町８７０番地７６朝日プラザ二俣川１０９号,,14,112,2410014,,,,,,,2023-06-06,1,,,,,ビッグパワー,0
1403,5020001151892,新規,0,2023-06-06,2023-06-06,株式会社ＲＩＲＥＡＬ,,株式会社,神奈川県,川崎市宮前区,有馬５丁目１８番１０－１０２号鷺沼ウィステリア,,14,136,2160003,,,,,,,2023-06-06,1,,,,,リレアル,0
1409,5020003024007,新規,0,2023-06-06,2023-06-06,合同会社あかつき,,合同会社,神奈川県,横浜市港北区,大曽根２丁目４１番１５号あかつき,,14,109,2220003,,,,,,,2023-06-06,1,,,,,アカツキ,0
1410,5020005016019,新規,0,2023-06-06,2023-06-06,一般社団法人ジャパン・バレエ,,その他の設立登記法人,神奈川県,横浜市鶴見区,佃野町１６－１アート鶴見１Ｆ,,14,101,2300061,,,,,,,2023-06-06,1,,,,,ジャパンバレエ,0
1411,5020005016027,新規,0,2023-06-06,2023-06-06,弁理士法人みなとみらい特許事務所,,その他の設立登記法人,神奈川県,横浜市西区,みなとみらい２丁目３番１号クイーンズタワーＡ８Ｆ,,14,103,2200012,,,,,,,2023-06-06,1,,,,,ミナトミライトッキョジムショ,0
1414,5021001079199,新規,0,2023-06-06,2023-06-06,Ｓ　Ｒｅ，Ｌｉｆｅ株式会社,,株式会社,神奈川県,大和市,上草柳６丁目７番１７号,,14,213,2420029,,,,,,,2023-06-06,1,,,,,エスリライフ,0
1416,5021003013115,新規,0,2023-06-06,2023-06-06,合同会社Ａｒｃ,,合同会社,神奈川県,相模原市南区,上鶴間本町１丁目１７―３１,,14,153,2520318,,,,,,,2023-06-06,1,,,,,エイアーク,0
1417,5021003013156,新規,0,2023-06-06,2023-06-06,エスティーソリューション合同会社,,合同会社,神奈川県,相模原市南区,上鶴間６丁目２７番５－３０２号コジマビル,,14,153,2520302,,,,,,,2023-06-06,1,,,,,エスティーソリューション,0
1428,5040001128658,新規,0,2023-06-06,2023-06-06,瑞祥テックソリューションズ株式会社,,株式会社,千葉県,松戸市,千駄堀１５０７番地の６４,,12,207,2702252,,,,,,,2023-06-06,1,,,,,ズイショウテックソリューションズ,0
1429,5040001128674,新規,0,2023-06-06,2023-06-06,株式会社齋藤石材,,株式会社,千葉県,旭市,東足洗１３６０番地,,12,215,2892512,,,,,,,2023-06-06,1,,,,,サイトウセキザイ,0
1430,5040001128740,新規,0,2023-06-06,2023-06-06,株式会社ＳＨＡＲＲＹ,,株式会社,千葉県,茂原市,六ツ野３６１９番地２,,12,210,2970012,,,,,,,2023-06-06,1,,,,,シェリー,0
1431,5040003022751,新規,0,2023-06-06,2023-06-06,ドリームピアノ合同会社,,合同会社,千葉県,浦安市,東野３丁目５－３－３０５,,12,227,2790042,,,,,,,2023-06-06,1,,,,,ドリームピアノ,0
1434,5050001052931,新規,0,2023-06-06,2023-06-06,株式会社ＴｏｕｃｈＵｐ,,株式会社,茨城県,水戸市,城東２丁目１番２８号,,08,201,3100012,,,,,,,2023-06-06,1,,,,,タッチアップ,0
1435,5050001052948,新規,0,2023-06-06,2023-06-06,株式会社シーリングサポート茨城,,株式会社,茨城県,水戸市,大塚町２０００番地の５,00130730,08,201,3114143,,,,,,,2023-06-06,1,,,,,シーリングサポートイバラキ,0
1436,5050003007553,新規,0,2023-06-06,2023-06-06,ユニヴェール合同会社,,合同会社,茨城県,つくば市,梅園２丁目１番地１５,,08,220,3050045,,,,,,,2023-06-06,1,,,,,ユニヴェール,0
1439,5060001036058,新規,0,2023-06-06,2023-06-06,株式会社創建工業,,株式会社,栃木県,鹿沼市,みなみ町８番地３２７,,09,205,3220524,,,,,,,2023-06-06,1,,,,,ソウケンコウギョウ,0
1447,5070001040521,新規,0,2023-06-06,2023-06-06,カインド株式会社,,株式会社,群馬県,太田市,石橋町７８８番地１,,10,205,3730007,,,,,,,2023-06-06,1,,,,,カインド,0
1451,5080001025653,新規,0,2023-06-06,2023-06-06,株式会社アイ・エヌ・エス,,株式会社,静岡県,藤枝市,高柳１丁目１５番１２号,,22,214,4260041,,,,,,,2023-06-06,1,,,,,アイエヌエス,0
1457,5110003005071,新規,0,2023-06-06,2023-06-06,合同会社ＯＧＡＷＡ商店,,合同会社,新潟県,胎内市,西本町２番７２号,,15,227,9592656,,,,,,,2023-06-06,1,,,,,オガワショウテン,0
1464,5120001255378,新規,0,2023-06-06,2023-06-06,株式会社ひかり,,株式会社,大阪府,大阪市東淀川区,瑞光４丁目３番９号,,27,114,5330005,,,,,,,2023-06-06,1,,,,,ヒカリ,0
1465,5120001255460,新規,0,2023-06-06,2023-06-06,株式会社ＵＰｗａｒｄ　Ｌｉｆｅ,,株式会社,大阪府,大阪市北区,鶴野町４番１１号,,27,127,5300014,,,,,,,2023-06-06,1,,,,,アップワードライフ,0
1467,5120003024203,新規,0,2023-06-06,2023-06-06,合同会社Ｗｈｉｚ,,合同会社,大阪府,大阪市北区,梅田１丁目２番２号大阪駅前第２ビル１２－１２,,27,127,5300001,,,,,,,2023-06-06,1,,,,,ウィズ,0
1468,5120003024211,新規,0,2023-06-06,2023-06-06,合同会社ユートリエ,,合同会社,大阪府,大阪市北区,堂島２丁目１番３３号７０２,,27,127,5300003,,,,,,,2023-06-06,1,,,,,ユートリエ,0
1469,5120003024228,新規,0,2023-06-06,2023-06-06,ＢＯＤＹ　ＬＡＢＯＲＡＴＯＲＹ　ＪＡＰＡＮ合同会社,,合同会社,大阪府,大阪市中央区,南船場１丁目８番１９－１２０３号,,27,128,5420081,,,,,,,2023-06-06,1,,,,,ボディラボラトリージャパン,0
1470,5120003024236,新規,0,2023-06-06,2023-06-06,パソなめ合同会社,,合同会社,大阪府,大阪市中央区,南本町２丁目４－１６本町デビスビル７階ヤドリギ内,,27,128,5410054,,,,,,,2023-06-06,1,,,,,パソナメ,0
1471,5120005023657,新規,0,2023-06-06,2023-06-06,税理士法人池田会計ＭＣ,,その他の設立登記法人,大阪府,大阪市生野区,小路３丁目１４番４号,,27,116,5440002,,,,,,,2023-06-06,1,,,,,イケダカイケイエムシー,0
1473,5120101067632,新規,0,2023-06-06,2023-06-06,株式会社キャリーアウト,,株式会社,大阪府,堺市堺区,竜神橋町２丁３番１－３２７号,,27,141,5900972,,,,,,,2023-06-06,1,,,,,キャリーアウト,0
1474,5120101067681,新規,0,2023-06-06,2023-06-06,株式会社ボンサイズム,,株式会社,大阪府,堺市北区,金岡町１４２３番地３なかもずオールズ５１９号,,27,146,5918022,,,,,,,2023-06-06,1,,,,,ボンサイズム,0
1478,5120901047627,新規,0,2023-06-06,2023-06-06,株式会社ＩＲＩＳ,,株式会社,大阪府,豊中市,本町１丁目８番３０－３０３号,,27,203,5600021,,,,,,,2023-06-06,1,,,,,イリス,0
1479,5120901047643,新規,0,2023-06-06,2023-06-06,株式会社京雅,,株式会社,大阪府,高槻市,芥川町２丁目１４－１６,,27,207,5691123,,,,,,,2023-06-06,1,,,,,キョウミヤビ,0
1480,5120903004667,新規,0,2023-06-06,2023-06-06,合同会社ＭＡＲＳＡ,,合同会社,大阪府,高槻市,城南町１丁目１番１３号,,27,207,5690056,,,,,,,2023-06-06,1,,,,,マアサ,0
1485,5122001037038,新規,0,2023-06-06,2023-06-06,株式会社深澤,,株式会社,大阪府,東大阪市,小若江３丁目１番２８号ＹＫヒルズ２０２号室,,27,227,5770818,,,,,,,2023-06-06,1,,,,,フカザワ,0
1490,5130001074463,新規,0,2023-06-06,2023-06-06,エスリー株式会社,,株式会社,京都府,京都市伏見区,深草大亀谷八島町６番地４８,,26,109,6120046,,,,,,,2023-06-06,1,,,,,エスリー,0
1491,5130001074471,新規,0,2023-06-06,2023-06-06,玉林軒株式会社,,株式会社,京都府,京都市伏見区,深草下川原町１３０番地４華信ビル２０１号,,26,109,6128401,,,,,,,2023-06-06,1,,,,,ギョクリンケン,0
1492,5130005016783,新規,0,2023-06-06,2023-06-06,コスモ桂管理組合法人,,その他の設立登記法人,京都府,京都市西京区,樫原芋峠３３番の１,,26,111,6158157,,,,,,,2023-06-06,1,,,,,コスモカツラ,0
1497,5150001026438,新規,0,2023-06-06,2023-06-06,株式会社時創,,株式会社,奈良県,葛城市,北花内２７２番地１,,29,211,6392113,,,,,,,2023-06-06,1,,,,,ジソウ,0
1498,5150001026446,新規,0,2023-06-06,2023-06-06,株式会社木地平設備,,株式会社,奈良県,桜井市,大字三輪１１６番地の１６,,29,206,6330001,,,,,,,2023-06-06,1,,,,,キジヒラセツビ,0
1499,5150001026454,新規,0,2023-06-06,2023-06-06,Ｌａｄｌｅ株式会社,,株式会社,奈良県,奈良市,北室町７番地の１,,29,201,6308364,,,,,,,2023-06-06,1,,,,,ラドゥレ,0
1500,5160001025091,新規,0,2023-06-06,2023-06-06,橋本フーズ株式会社,,株式会社,滋賀県,守山市,梅田町１５番９号,,25,207,5240037,,,,,,,2023-06-06,1,,,,,ハシモトフーズ,0
1509,5180001156570,新規,0,2023-06-06,2023-06-06,オープントップ株式会社,,株式会社,愛知県,名古屋市守山区,川西２丁目１４０９番地,,23,113,4630080,,,,,,,2023-06-06,1,,,,,オープントップ,0
1519,5180301037438,新規,0,2023-06-06,2023-06-06,株式会社トリイアンドカンパニー,,株式会社,愛知県,安城市,大東町３番３号,,23,212,4460065,,,,,,,2023-06-06,1,,,,,トリイアンドカンパニー,0
1520,5180301037446,新規,0,2023-06-06,2023-06-06,株式会社山雅興業,,株式会社,愛知県,豊田市,百々町８丁目３２番地５５,,23,211,4710008,,,,,,,2023-06-06,1,,,,,ヤマガコウギョウ,0
1521,5180301037454,新規,0,2023-06-06,2023-06-06,株式会社ケアル,,株式会社,愛知県,西尾市,満全町２６番地１,,23,213,4450826,,,,,,,2023-06-06,1,,,,,ケアル,0
1523,5190003004339,新規,0,2023-06-06,2023-06-06,合同会社おかだ企画,,合同会社,三重県,亀山市,和賀町１４番２０号,,24,210,5190145,,,,,,,2023-06-06,1,,,,,オカダキカク,0
1527,5200001041357,新規,0,2023-06-06,2023-06-06,株式会社リスキリングジャパン,,株式会社,岐阜県,各務原市,那加織田町２丁目２７番地,,21,213,5040908,,,,,,,2023-06-06,1,,,,,リスキリングジャパン,0
1528,5200001041373,新規,0,2023-06-06,2023-06-06,株式会社マエカワ,,株式会社,岐阜県,岐阜市,北一色５丁目１３番６号,,21,201,5008227,,,,,,,2023-06-06,1,,,,,マエカワ,0
1529,5200001041381,新規,0,2023-06-06,2023-06-06,株式会社山のみえるとこ,,株式会社,岐阜県,岐阜市,茜部寺屋敷２丁目１１６番地,,21,201,5008267,,,,,,,2023-06-06,1,,,,,ヤマノミエルトコ,0
1531,5210001019336,新規,0,2023-06-06,2023-06-06,株式会社サアクル,,株式会社,福井県,福井市,西方２丁目１９番３号,,18,201,9100855,,,,,,,2023-06-06,1,,,,,サアクル,0
1532,5210001019344,新規,0,2023-06-06,2023-06-06,株式会社ＪＬＢ,,株式会社,福井県,福井市,順化２丁目１３番１７号,,18,201,9100023,,,,,,,2023-06-06,1,,,,,ジェイエルビー,0
1539,5230001019870,新規,0,2023-06-06,2023-06-06,株式会社ＯＩＤＥ,,株式会社,富山県,高岡市,戸出町１丁目１番８６号,,16,202,9391104,,,,,,,2023-06-06,1,,,,,オイデ,0
1545,5240003006164,新規,0,2023-06-06,2023-06-06,合同会社ｗｏｒｌｄ　ｔｈｅａｔｅｒ　ｃｏｍｐａｎｙ,,合同会社,広島県,広島市佐伯区,五日市７丁目７番３６－５号,,34,108,7315127,,,,,,,2023-06-06,1,,,,,ワールドシアターカンパニー,0
1546,5240003006172,新規,0,2023-06-06,2023-06-06,合同会社Ｌｕｍａ,,合同会社,広島県,安芸郡府中町,本町２丁目１６－３３－４０１,,34,302,7350006,,,,,,,2023-06-06,1,,,,,ルーマ,0
1549,5260003004323,新規,0,2023-06-06,2023-06-06,合同会社ＳＰＥＣ,,合同会社,岡山県,岡山市北区,十日市中町１番３６号,,33,101,7000855,,,,,,,2023-06-06,1,,,,,スペック,0
1550,5280001008951,新規,0,2023-06-06,2023-06-06,番匠俊株式会社,,株式会社,島根県,大田市,大田町大田イ２９８番地３,,32,205,6940064,,,,,,,2023-06-06,1,,,,,バンショウシュン,0
1553,5290001101747,新規,0,2023-06-06,2023-06-06,セムアドバンス株式会社,,株式会社,福岡県,福岡市東区,多の津１丁目１０番７号,,40,131,8130034,,,,,,,2023-06-06,1,,,,,セムアドバンス,0
1554,5290001101805,新規,0,2023-06-06,2023-06-06,ライム株式会社,,株式会社,福岡県,福岡市中央区,天神３丁目９番６－３０３号,,40,133,8100001,,,,,,,2023-06-06,1,,,,,ライム,0
1555,5290001101821,新規,0,2023-06-06,2023-06-06,新地パーキング株式会社,,株式会社,福岡県,飯塚市,勢田７４３番地２,,40,205,8201111,,,,,,,2023-06-06,1,,,,,シンチパーキング,0
1557,5290801029592,新規,0,2023-06-06,2023-06-06,株式会社三水機設,,株式会社,福岡県,北九州市戸畑区,天神２丁目４番３１号,,40,105,8040094,,,,,,,2023-06-06,1,,,,,,0
1558,5290803004429,新規,0,2023-06-06,2023-06-06,合同会社ＭＩＮＯ,,合同会社,福岡県,北九州市小倉南区,上葛原１丁目９番９‐４１１号,,40,107,8000255,,,,,,,2023-06-06,1,,,,,ミノ,0
1559,5320001019812,新規,0,2023-06-06,2023-06-06,株式会社ホームプラスワン,,株式会社,大分県,大分市,今津留２丁目１４４番,,44,201,8700938,,,,,,,2023-06-06,1,,,,,ホームプラスワン,0
1561,5330001030933,新規,0,2023-06-06,2023-06-06,株式会社ＳＫＲデザイン,,株式会社,熊本県,菊池郡大津町,大字平川５０４,,43,403,8691231,,,,,,,2023-06-06,1,,,,,エスケーアールデザイン,0
1562,5330001030941,新規,0,2023-06-06,2023-06-06,株式会社さくらプラン,,株式会社,熊本県,熊本市北区,清水亀井町５５番４８号,,43,105,8618066,,,,,,,2023-06-06,1,,,,,サクラプラン,0
1567,5340001025619,新規,0,2023-06-06,2023-06-06,株式会社ドコデモヨロン,,株式会社,鹿児島県,大島郡与論町,大字茶花１４１１番地１,,46,535,8919301,,,,,,,2023-06-06,1,,,,,ドコデモヨロン,0
1569,5350001018398,新規,0,2023-06-06,2023-06-06,株式会社Ｃａｌｍｅｒ,,株式会社,宮崎県,宮崎市,月見ケ丘５丁目３９番１０号,,45,201,8800926,,,,,,,2023-06-06,1,,,,,カルメ,0
1570,5360001032118,新規,0,2023-06-06,2023-06-06,株式会社きゅあも,,株式会社,沖縄県,島尻郡伊平屋村,字我喜屋２１７番地の２７伊平屋村産業連携拠点センター,,47,359,9050703,,,,,,,2023-06-06,1,,,,,キュアモ,0
1571,5360001032126,新規,0,2023-06-06,2023-06-06,丸和電気株式会社,,株式会社,沖縄県,宮古島市,平良字下里１３７２番地１８,,47,214,9060013,,,,,,,2023-06-06,1,,,,,マルワデンキ,0
1572,5360003013041,新規,0,2023-06-06,2023-06-06,合同会社プレゼンターラボ,,合同会社,沖縄県,那覇市,久茂地２丁目２番２号タイムスビル２階,,47,201,9000015,,,,,,,2023-06-06,1,,,,,プレゼンターラボ,0
1577,5370001050052,新規,0,2023-06-06,2023-06-06,株式会社兼光,,株式会社,宮城県,仙台市泉区,北中山３丁目２番地の１０,,04,105,9813215,,,,,,,2023-06-06,1,,,,,ケンコウ,0
1585,5390003002108,新規,0,2023-06-06,2023-06-06,合同会社ロード,,合同会社,山形県,山形市,五日町１１番５－２０７号,,06,201,9900829,,,,,,,2023-06-06,1,,,,,ロード,0
1586,5400001016272,新規,0,2023-06-06,2023-06-06,株式会社石井商事,,株式会社,岩手県,奥州市,江刺愛宕字林５４番,,03,215,0231131,,,,,,,2023-06-06,1,,,,,イシイショウジ,0
1587,5420001018283,新規,0,2023-06-06,2023-06-06,株式会社Ｆｒｅｅｅｅｅ,,株式会社,青森県,八戸市,根城３丁目２４番８号タウニイのざわ１０２号,,02,203,0391166,,,,,,,2023-06-06,1,,,,,フリー,0
1591,5430001089266,新規,0,2023-06-06,2023-06-06,株式会社きたがわカンパニー,,株式会社,北海道,滝川市,栄町２丁目５番１３号,,01,225,0730031,,,,,,,2023-06-06,1,,,,,キタガワカンパニー,0
1592,5430001089282,新規,0,2023-06-06,2023-06-06,株式会社ノース建業,,株式会社,北海道,札幌市中央区,南三条西１２丁目３２５－１３,,01,101,0600063,,,,,,,2023-06-06,1,,,,,ノースケンギョウ,0
1596,5460101007389,新規,0,2023-06-06,2023-06-06,株式会社Ｈｙｂｒｉｄ,,株式会社,北海道,河東郡音更町,字下士幌４８番地１７,,01,631,0800272,,,,,,,2023-06-06,1,,,,,ハイブリッド,0
1597,5470001019649,新規,0,2023-06-06,2023-06-06,株式会社Ｉｎｔｅｌｌｉｇｅｎｃｅ　ＢＡＮＫ,,株式会社,香川県,高松市,藤塚町１丁目１０番３０号,,37,201,7600071,,,,,,,2023-06-06,1,,,,,インテリジェンスバンク,0
1604,5500001024959,新規,0,2023-06-06,2023-06-06,日本食研グローバル株式会社,,株式会社,愛媛県,今治市,富田新港１丁目３番地,,38,202,7991503,,,,,,,2023-06-06,1,,,,,ニホンショッケングローバル,0
1605,5500001024975,新規,0,2023-06-06,2023-06-06,株式会社今治あきない商社,,株式会社,愛媛県,今治市,旭町２丁目３番地５,,38,202,7940042,,,,,,,2023-06-06,1,,,,,イマバリアキナイショウシャ,0
1608,5700150116933,新規,0,2023-06-06,2023-06-06,ｓｈｅｎｚｈｅｎｓｈｉ　ｈａｎｙｕｅｎｕｏ　ｋｅｊｉｙｏｕｘｉａｎｇｏｎｇｓｉ,,外国会社等,,,,,,,,ｌｕｏｈｕｑｕ　ｇｕｉｙｕａｎｊｉｅｄａｏ　ｂａｏａｎｎａｎｌｕ　２０７８ｈａｏｓｈｅｎｘｉａｎｇｈａｏｙｕａｎｍｉｎｇｓｈａｎｇｇｅ２０Ａ　ｓｈｅｎｚｈｅｎｓｈｉ　ｈｕｂｅｉｓｈｅｎｇ　５１８００１　ＣＮ,,,,,,2023-06-06,1,,,,,シェンジェンシーハンユエヌオコージーヨウシエンゴンスー,0
1609,5700150116941,新規,0,2023-06-06,2023-06-06,ｓｈｅｎｚｈｅｎｓｈｉｑｉａｎｙａｋｅｊｉｙｏｕｘｉａｎｇｏｎｇｓｉ,,外国会社等,,,,,,,,ｌｏｎｇｈｕａｑｕ　ｍｉｎｚｈｉｊｉｅｄａｏ　ｘｉｎｎｉｕｓｈｅｑｕ　ｍｉｎｚｈｉｄａｄａｏ　ｎｉｕｌａｎｑｉａｎｄａｓｈａ　Ｂ５１６－１２,,,,,,2023-06-06,1,,,,,シェンジェンシーチエンヤーコージーヨウシエンゴンスー,0
1617,6010001235729,新規,0,2023-06-06,2023-06-06,株式会社Ｓａｌｕ‐５Ｒｅ,,株式会社,東京都,中央区,新富１丁目１７番４号,,13,102,1040041,,,,,,,2023-06-06,1,,,,,サルゴリ,0
1618,6010001235786,新規,0,2023-06-06,2023-06-06,株式会社ＷＥＬＬ　ＧＩＮＺＡ,,株式会社,東京都,中央区,晴海３丁目１３番１－４４０１号,,13,102,1040053,,,,,,,2023-06-06,1,,,,,ウエルギンザ,0
1619,6010001235811,新規,0,2023-06-06,2023-06-06,株式会社プリンシパル・オーシャン,,株式会社,東京都,中央区,日本橋富沢町１２番８号１階,,13,102,1030006,,,,,,,2023-06-06,1,,,,,プリンシパルオーシャン,0
1620,6010001235852,新規,0,2023-06-06,2023-06-06,株式会社ＧＯＣＨＩＳＯＵ,,株式会社,東京都,中央区,銀座７丁目１０番５号,,13,102,1040061,,,,,,,2023-06-06,1,,,,,ゴチソウ,0
1621,6010001235860,新規,0,2023-06-06,2023-06-06,株式会社ＴＯＲＣＨ‐Ｘ,,株式会社,東京都,千代田区,神田小川町２丁目１番地,,13,101,1010052,,,,,,,2023-06-06,1,,,,,トーチエックス,0
1622,6010001235910,新規,0,2023-06-06,2023-06-06,株式会社ハートキャリア,,株式会社,東京都,千代田区,神田須田町１丁目５番地１０相鉄万世橋ビル,,13,101,1010041,,,,,,,2023-06-06,1,,,,,ハートキャリア,0
1624,6010003040796,新規,0,2023-06-06,2023-06-06,合同会社Ｗｅａｌｔｈ　Ｗｉｚａｒｄｓ　Ｃａｐｉｔａｌ,,合同会社,東京都,千代田区,神田神保町２丁目１４－１１朝日神保町プラザ９０９,,13,101,1010051,,,,,,,2023-06-06,1,,,,,ウェルスウィザーズキャピタル,0
1625,6010005036751,新規,0,2023-06-06,2023-06-06,一般社団法人サステナブルコミュニティ,,その他の設立登記法人,東京都,中央区,日本橋３丁目２番１４号新槇町ビル別館第一２階東京アントレサロン,,13,102,1030027,,,,,,,2023-06-06,1,,,,,サステナブルコミュニティ,0
1632,6010401174774,新規,0,2023-06-06,2023-06-06,ＥＦＣ株式会社,,株式会社,東京都,港区,浜松町２丁目２番１５号浜松町ダイヤビル２Ｆ,,13,103,1050013,,,,,,,2023-06-06,1,,,,,イーエフシー,0
1633,6010401174808,新規,0,2023-06-06,2023-06-06,株式会社ＳＴＯＲＹ,,株式会社,東京都,港区,赤坂１丁目１番１７号,,13,103,1070052,,,,,,,2023-06-06,1,,,,,ストーリー,0
1634,6010401174865,新規,0,2023-06-06,2023-06-06,株式会社Ｒｉｏｒ,,株式会社,東京都,港区,港南２丁目１５番１号品川インターシティＡ棟２８階,,13,103,1080075,,,,,,,2023-06-06,1,,,,,リオル,0
1635,6010403030199,新規,0,2023-06-06,2023-06-06,ＪＤＩ　Ｄｅｓｉｇｎ　ａｎｄ　Ｄｅｖｅｌｏｐｍｅｎｔ合同会社,,合同会社,東京都,港区,西新橋３丁目７番１号,,13,103,1050003,,,,,,,2023-06-06,1,,,,,ジェイディーアイデザインアンドディベロップメント,0
1636,6010403030240,新規,0,2023-06-06,2023-06-06,合同会社トレック・ジュピター,,合同会社,東京都,港区,赤坂７丁目６番１５号,,13,103,1070052,,,,,,,2023-06-06,1,,,,,トレックジュピター,0
1637,6010403030249,新規,0,2023-06-06,2023-06-06,ＧＪ　Ｉｎｃ．合同会社,,合同会社,東京都,港区,六本木５丁目１４番２３－１０１号,,13,103,1060032,,,,,,,2023-06-06,1,,,,,ジージェイインク,0
1638,6010403030265,新規,0,2023-06-06,2023-06-06,合同会社虎ノ門,,合同会社,東京都,港区,麻布台３丁目１番６号,,13,103,1060041,,,,,,,2023-06-06,1,,,,,トラノモン,0
1639,6010403030273,新規,0,2023-06-06,2023-06-06,合同会社堀切アセット,,合同会社,東京都,港区,白金６丁目１３‐１９,,13,103,1080072,,,,,,,2023-06-06,1,,,,,ホリキリアセット,0
1643,6010501050529,新規,0,2023-06-06,2023-06-06,Ｅｓｔａｔｅ　Ｏｎｅ　Ｉｎｔｅｒｎａｔｉｏｎａｌ株式会社,,株式会社,東京都,台東区,元浅草１丁目２０番９号ＥｓｔａｔｅＯｎｅＢＬＤ．５０１,,13,106,1110041,,,,,,,2023-06-06,1,,,,,エステートワンインターナショナル,0
1644,6010501050553,新規,0,2023-06-06,2023-06-06,株式会社ラフリ,,株式会社,東京都,台東区,西浅草２丁目１７－５－４０１,,13,106,1110035,,,,,,,2023-06-06,1,,,,,ラフリ,0
1649,6010603010182,新規,0,2023-06-06,2023-06-06,Ｃｈｏｕｃｈｏｕ合同会社,,合同会社,東京都,江東区,亀戸７丁目４３番５号,,13,108,1360071,,,,,,,2023-06-06,1,,,,,シュシュ,0
1653,6010701044355,新規,0,2023-06-06,2023-06-06,株式会社ＳＬＪ,,株式会社,東京都,品川区,上大崎３丁目１２－１０－５０１,,13,109,1410021,,,,,,,2023-06-06,1,,,,,エスエルジェイ,0
1654,6010701044371,新規,0,2023-06-06,2023-06-06,株式会社ＴＨＫ,,株式会社,東京都,品川区,西大井４丁目２１番８号,,13,109,1400015,,,,,,,2023-06-06,1,,,,,ティーエイチケー,0
1657,6010803004570,新規,0,2023-06-06,2023-06-06,合同会社アップストーリー,,合同会社,東京都,大田区,山王４丁目１０－９,,13,111,1430023,,,,,,,2023-06-06,1,,,,,アップストーリー,0
1658,6010901053172,新規,0,2023-06-06,2023-06-06,株式会社ＣＯＭＰＡＳＳ,,株式会社,東京都,世田谷区,鎌田３丁目３２番１１－２０７号,,13,112,1570077,,,,,,,2023-06-06,1,,,,,コンパス,0
1664,6011001154811,新規,0,2023-06-06,2023-06-06,株式会社Ｓｏｌｅｉｌ,,株式会社,東京都,渋谷区,渋谷２丁目１番１号,,13,113,1500002,,,,,,,2023-06-06,1,,,,,ソレイユ,0
1665,6011001154836,新規,0,2023-06-06,2023-06-06,株式会社ＷＯＷＯＷクロスプレイ,,株式会社,東京都,渋谷区,南平台町１６番２８号,,13,113,1500036,,,,,,,2023-06-06,1,,,,,ワウワウクロスプレイ,0
1666,6011001154844,新規,0,2023-06-06,2023-06-06,株式会社ローディアムデザイン,,株式会社,東京都,渋谷区,恵比寿１丁目３０番１４号マートルコート恵比寿２０００－３０５,,13,113,1500013,,,,,,,2023-06-06,1,,,,,ローディアムデザイン,0
1667,6011001154852,新規,0,2023-06-06,2023-06-06,ＲＥＹ株式会社,,株式会社,東京都,渋谷区,道玄坂１丁目１０番８号渋谷道玄坂東急ビル２Ｆ－Ｃ,,13,113,1500043,,,,,,,2023-06-06,1,,,,,レイ,0
1674,6011101103098,新規,0,2023-06-06,2023-06-06,株式会社Ｏｆｆｉｃｅ３７・オペレーションズ,,株式会社,東京都,新宿区,新宿３丁目３５番６号新宿ＡＵＮビル７階,,13,104,1600022,,,,,,,2023-06-06,1,,,,,オフィスサンナナオペレーションズ,0
1675,6011101103107,新規,0,2023-06-06,2023-06-06,株式会社カラーディップ,,株式会社,東京都,新宿区,新宿１丁目１４番１２号玉屋ビル３Ｆ,,13,104,1600022,,,,,,,2023-06-06,1,,,,,カラーディップ,0
1678,6011201024698,新規,0,2023-06-06,2023-06-06,株式会社暁グローバルパートナーズ,,株式会社,東京都,中野区,弥生町２丁目４番９号,,13,114,1640013,,,,,,,2023-06-06,1,,,,,アカツキグローバルパートナーズ,0
1680,6011203004095,新規,0,2023-06-06,2023-06-06,合同会社ハートロック,,合同会社,東京都,中野区,中央４丁目１９番１８号,,13,114,1640011,,,,,,,2023-06-06,1,,,,,ハートロック,0
1689,6011501029380,新規,0,2023-06-06,2023-06-06,株式会社アエラス．ＮＣ,,株式会社,東京都,荒川区,西日暮里５丁目２６番８号,,13,118,1160013,,,,,,,2023-06-06,1,,,,,アエラスネヌシー,0
1692,6011601026872,新規,0,2023-06-06,2023-06-06,株式会社ＧＢ,,株式会社,東京都,練馬区,桜台４丁目２１番７号山中ビル１Ｆ,,13,120,1760002,,,,,,,2023-06-06,1,,,,,ジービー,0
1696,6011801042505,新規,0,2023-06-06,2023-06-06,東星工業株式会社,,株式会社,東京都,足立区,西新井４丁目５番１１号,,13,121,1230841,,,,,,,2023-06-06,1,,,,,トウセイコウギョウ,0
1697,6011801042513,新規,0,2023-06-06,2023-06-06,株式会社カタオ総合,,株式会社,東京都,足立区,加賀１丁目７番５号,,13,121,1230861,,,,,,,2023-06-06,1,,,,,カタオソウゴウ,0
1698,6011801042521,新規,0,2023-06-06,2023-06-06,ＫＣ　ＣＲＡＦＴ株式会社,,株式会社,東京都,足立区,梅田５丁目３－３,,13,121,1230851,,,,,,,2023-06-06,1,,,,,ケイシークラフト,0
1700,6012303001833,新規,0,2023-06-06,2023-06-06,ＷＡＧＡＮＳＥ合同会社,,合同会社,東京都,町田市,原町田６丁目７番２号きめたハウジング第１７ビル２Ｆ,,13,209,1940013,,,,,,,2023-06-06,1,,,,,ワガンセ,0
1703,6012401040592,新規,0,2023-06-06,2023-06-06,株式会社ＴＯＫＫＥＮ,,株式会社,東京都,調布市,小島町２丁目７番地１８,,13,208,1820026,,,,,,,2023-06-06,1,,,,,トッケン,0
1705,6012403006022,新規,0,2023-06-06,2023-06-06,嘉秀エステート合同会社,,合同会社,東京都,狛江市,一丁目７番１１号,,13,219,2010000,,,,,,,2023-06-06,1,,,,,カシュウエステート,0
1708,6012801022397,新規,0,2023-06-06,2023-06-06,株式会社マルタカ,,株式会社,東京都,武蔵村山市,中藤１丁目４８番地の１２,,13,223,2080001,,,,,,,2023-06-06,1,,,,,マルタカ,0
1709,6012801022406,新規,0,2023-06-06,2023-06-06,ＡＫカンパニー株式会社,,株式会社,東京都,立川市,上砂町５丁目５１番地の１ヴァンヴェール４０１,,13,202,1900032,,,,,,,2023-06-06,1,,,,,エーケーカンパニー,0
1714,6013301050855,新規,0,2023-06-06,2023-06-06,株式会社Ｄｅｅｐ　ｓｅｓｓｉｏｎ,,株式会社,東京都,豊島区,池袋２丁目１７番８号４０８,,13,116,1710014,,,,,,,2023-06-06,1,,,,,ディープセッション,0
1715,6013301050863,新規,0,2023-06-06,2023-06-06,イザナビ株式会社,,株式会社,東京都,豊島区,北大塚２丁目２３番３－７０３号,,13,116,1700004,,,,,,,2023-06-06,1,,,,,イザナビ,0
1726,6020001151850,新規,0,2023-06-06,2023-06-06,株式会社ボンダイホールディングス,,株式会社,神奈川県,横浜市金沢区,並木１丁目１６番３－５０２号,,14,108,2360005,,,,,,,2023-06-06,1,,,,,ボンダイホールディングス,0
1727,6020001151859,新規,0,2023-06-06,2023-06-06,株式会社タイヤショップ西阪,,株式会社,神奈川県,横浜市泉区,和泉町３０番地の１,,14,116,2450016,,,,,,,2023-06-06,1,,,,,タイヤショップニシサカ,0
1728,6020001151867,新規,0,2023-06-06,2023-06-06,株式会社Ｍｏｉｓ　Ｃｈａｉｒ,,株式会社,神奈川県,横浜市都筑区,川和町１４８０番地,,14,118,2240057,,,,,,,2023-06-06,1,,,,,モイスチェアー,0
1729,6020001151909,新規,0,2023-06-06,2023-06-06,株式会社樋口英輔建築設計事務所,,株式会社,神奈川県,横浜市港北区,日吉本町５丁目１８番５号,,14,109,2230062,,,,,,,2023-06-06,1,,,,,ヒグチエイスケケンチクセッケイジムショ,0
1730,6020001151925,新規,0,2023-06-06,2023-06-06,株式会社コルテス,,株式会社,神奈川県,横浜市泉区,和泉町５６２７番地１,,14,116,2450016,,,,,,,2023-06-06,1,,,,,コルテス,0
1731,6020003023981,新規,0,2023-06-06,2023-06-06,合同会社ＤＡＮＡ,,合同会社,神奈川県,横浜市鶴見区,鶴見中央４丁目２４番１４－４Ｆ,,14,101,2300051,,,,,,,2023-06-06,1,,,,,ダナ,0
1732,6020003024006,新規,0,2023-06-06,2023-06-06,Ｌｕｎａ　Ｇｒｏｕｐ合同会社,,合同会社,神奈川県,横浜市中区,山下町９０番地１ラ・コスタ横浜・山下公園３１３号室,,14,104,2310023,,,,,,,2023-06-06,1,,,,,ルーナグループ,0
1733,6020005016026,新規,0,2023-06-06,2023-06-06,一般社団法人ＱＳ‐Ｊ,,その他の設立登記法人,神奈川県,横浜市中区,常盤町２丁目２０番地ヴェラハイツ関内６０２,,14,104,2310014,,,,,,,2023-06-06,1,,,,,キューエスジェイ,0
1740,6021001079181,新規,0,2023-06-06,2023-06-06,株式会社ＷＥＡＶＥ　Ａ　ＳＴＯＲＹ,,株式会社,神奈川県,足柄上郡松田町,松田庶子８４７番地１,,14,363,2580004,,,,,,,2023-06-06,1,,,,,ウィーヴアストーリー,0
1741,6021001079198,新規,0,2023-06-06,2023-06-06,株式会社ビノー・プランニング,,株式会社,神奈川県,厚木市,旭町３丁目１２番１７号,,14,212,2430014,,,,,,,2023-06-06,1,,,,,ビノープランニング,0
1742,6021001079207,新規,0,2023-06-06,2023-06-06,株式会社Ｕ‐ｗｅｌｄ,,株式会社,神奈川県,厚木市,下荻野３８２番地１７,,14,212,2430203,,,,,,,2023-06-06,1,,,,,ユーウエルド,0
1743,6021001079223,新規,0,2023-06-06,2023-06-06,株式会社Ｕｒｂａｎ　Ｉｓｌａｎｄ　Ｓｏｃｉｅｔｙ,,株式会社,神奈川県,鎌倉市,長谷２丁目１６番１３号,,14,204,2480016,,,,,,,2023-06-06,1,,,,,アーバンアイランドソサエティ,0
1744,6021003013155,新規,0,2023-06-06,2023-06-06,合同会社システムＫＥＮ,,合同会社,神奈川県,横須賀市,林５丁目９番１３号,,14,201,2380315,,,,,,,2023-06-06,1,,,,,システムケン,0
1745,6021005012832,新規,0,2023-06-06,2023-06-06,一般社団法人志磨記念会,,その他の設立登記法人,神奈川県,相模原市中央区,小山４丁目１番６号,,14,152,2520205,,,,,,,2023-06-06,1,,,,,シマキネンカイ,0
1760,6040001128608,新規,0,2023-06-06,2023-06-06,ＥＩＳＨＯＵ株式会社,,株式会社,千葉県,佐倉市,角来４３３番地２,,12,212,2850821,,,,,,,2023-06-06,1,,,,,エイショウ,0
1761,6040001128616,新規,0,2023-06-06,2023-06-06,シートリオ株式会社,,株式会社,千葉県,船橋市,行田１丁目１３番１２号,,12,204,2730044,,,,,,,2023-06-06,1,,,,,シートリオ,0
1762,6040001128673,新規,0,2023-06-06,2023-06-06,株式会社ＨＭコーポレーション,,株式会社,千葉県,印西市,高花２丁目１－１０,,12,231,2701342,,,,,,,2023-06-06,1,,,,,エイチエムコーポレーション,0
1763,6040001128681,新規,0,2023-06-06,2023-06-06,オーカスタム株式会社,,株式会社,千葉県,四街道市,大日字大作岡１２２３番地３,,12,228,2840001,,,,,,,2023-06-06,1,,,,,オーカスタム,0
1764,6040001128715,新規,0,2023-06-06,2023-06-06,株式会社タナモ・フォレスト,,株式会社,千葉県,千葉市若葉区,富田町１２１１番地,,12,104,2650041,,,,,,,2023-06-06,1,,,,,タナモフォレスト,0
1766,6040003022742,新規,0,2023-06-06,2023-06-06,合同会社ＬＩＢ,,合同会社,千葉県,習志野市,谷津３丁目１６番２号,,12,216,2750026,,,,,,,2023-06-06,1,,,,,エルアイビー,0
1767,6040003022750,新規,0,2023-06-06,2023-06-06,ＳＳコンサルタント合同会社,,合同会社,千葉県,四街道市,和良比８２６番地１２,,12,228,2840044,,,,,,,2023-06-06,1,,,,,エスエスコンサルタント,0
1769,6050001052922,新規,0,2023-06-06,2023-06-06,株式会社新茨城ボイラサービス,,株式会社,茨城県,下妻市,南原６７番地２,,08,210,3040075,,,,,,,2023-06-06,1,,,,,シンイバラキボイラサービス,0
1770,6050003007536,新規,0,2023-06-06,2023-06-06,合同会社Ｋ＆Ｓ,,合同会社,茨城県,つくば市,大曽根９７２－２ロイヤルヴィラ筑波１０６,,08,220,3003253,,,,,,,2023-06-06,1,,,,,ケイアンドエス,0
1772,6060001036040,新規,0,2023-06-06,2023-06-06,株式会社ＫＩＭＵＲＡ,,株式会社,栃木県,小山市,大字雨ケ谷９０番地,,09,208,3230826,,,,,,,2023-06-06,1,,,,,キムラ,0
1773,6060001036049,新規,0,2023-06-06,2023-06-06,株式会社大塚新也建築事務所,,株式会社,栃木県,下野市,石橋２６３番地３２,,09,216,3290511,,,,,,,2023-06-06,1,,,,,オオツカシンヤケンチクジムショ,0
1775,6070001040512,新規,0,2023-06-06,2023-06-06,株式会社ネクサス,,株式会社,群馬県,太田市,新野町８５２番地１,,10,205,3730032,,,,,,,2023-06-06,1,,,,,ネクサス,0
1777,6070003004969,新規,0,2023-06-06,2023-06-06,ＩＲＡＫＵ合同会社,,合同会社,群馬県,太田市,新田木崎町１４４４番地１５４,,10,205,3700321,,,,,,,2023-06-06,1,,,,,イラク,0
1780,6080001025652,新規,0,2023-06-06,2023-06-06,株式会社産地のミカタ,,株式会社,静岡県,静岡市清水区,高山４２３番地,,22,103,4240404,,,,,,,2023-06-06,1,,,,,サンチノミカタ,0
1784,6080101024059,新規,0,2023-06-06,2023-06-06,株式会社ＳＵＲＵＧＡライフサービス,,株式会社,静岡県,沼津市,下香貫石原１３１７番地,,22,203,4100822,,,,,,,2023-06-06,1,,,,,スルガライフサービス,0
1788,6100001036473,新規,0,2023-06-06,2023-06-06,株式会社拓心興業,,株式会社,長野県,茅野市,宮川１１１５２番地１,,20,214,3910013,,,,,,,2023-06-06,1,,,,,タクシンコウギョウ,0
1790,6110001037578,新規,0,2023-06-06,2023-06-06,株式会社ＮＴ,,株式会社,新潟県,新潟市中央区,万代３丁目２番２３－１５０１号,,15,103,9500088,,,,,,,2023-06-06,1,,,,,エヌティー,0
1792,6110003005079,新規,0,2023-06-06,2023-06-06,合同会社齋藤総業,,合同会社,新潟県,新潟市北区,葛塚３０９９番地１キャッスルすみれＡ２０３号,,15,101,9503321,,,,,,,2023-06-06,1,,,,,サイトウソウギョウ,0
1799,6120001255360,新規,0,2023-06-06,2023-06-06,アサヒ衛陶株式会社,,株式会社,大阪府,大阪市中央区,常盤町１丁目３番８号,,27,128,5400028,,,,,,,2023-06-06,1,,,,,アサヒエイトウ,0
1800,6120001255385,新規,0,2023-06-06,2023-06-06,株式会社ニューロード,,株式会社,大阪府,大阪市平野区,加美北３丁目９番２０号,,27,126,5470001,,,,,,,2023-06-06,1,,,,,ニューロード,0
1803,6120003024219,新規,0,2023-06-06,2023-06-06,合同会社ひろ乃,,合同会社,大阪府,大阪市西成区,南津守４丁目１番６１号,,27,122,5570063,,,,,,,2023-06-06,1,,,,,ヒロノ,0
1804,6120005023664,新規,0,2023-06-06,2023-06-06,Ｌｅｖｅｒａｇｅ社会保険労務士法人,,その他の設立登記法人,大阪府,大阪市北区,堂島浜１丁目４番４号アクア堂島フォンターナ３階,,27,127,5300004,,,,,,,2023-06-06,1,,,,,レバレッジ,0
1807,6120101067664,新規,0,2023-06-06,2023-06-06,株式会社アクセル,,株式会社,大阪府,堺市中区,深阪４丁２３番１８号,,27,142,5998253,,,,,,,2023-06-06,1,,,,,アクセル,0
1813,6120901047601,新規,0,2023-06-06,2023-06-06,株式会社駐車場アサヒ,,株式会社,大阪府,豊中市,蛍池西町二丁目１番１２号,,27,203,5600000,,,,,,,2023-06-06,1,,,,,チュウシャジョウアサヒ,0
1815,6120903004666,新規,0,2023-06-06,2023-06-06,合同会社オオルリ会,,合同会社,大阪府,箕面市,粟生間谷東５丁目２９番１１号,,27,220,5620022,,,,,,,2023-06-06,1,,,,,オオルリカイ,0
1819,6130001074438,新規,0,2023-06-06,2023-06-06,株式会社スタジオファーストコール,,株式会社,京都府,京都市下京区,七条御所ノ内北町１番地,,26,106,6008861,,,,,,,2023-06-06,1,,,,,スタジオファーストコール,0
1820,6130001074462,新規,0,2023-06-06,2023-06-06,株式会社さくらケアサポート,,株式会社,京都府,京都市左京区,下鴨膳部町９０－１５,,26,103,6060815,,,,,,,2023-06-06,1,,,,,サクラケアサポート,0
1825,6140001130413,新規,0,2023-06-06,2023-06-06,エスマネジメント株式会社,,株式会社,兵庫県,宝塚市,中筋９丁目６番２号,,28,214,6650874,,,,,,,2023-06-06,1,,,,,エスマネジメント,0
1827,6140005026649,新規,0,2023-06-06,2023-06-06,一般社団法人姫路市こども保育教育連盟,,その他の設立登記法人,兵庫県,姫路市,六角２７８番地２,,28,201,6712242,,,,,,,2023-06-06,1,,,,,ヒメジシコドモホイクキョウイクレンメイ,0
1829,6150001026445,新規,0,2023-06-06,2023-06-06,清水物産丸利株式会社,,株式会社,奈良県,大和高田市,大字秋吉２１１番地の１,,29,202,6350053,,,,,,,2023-06-06,1,,,,,シミズブッサンマルトシ,0
1830,6150001026453,新規,0,2023-06-06,2023-06-06,株式会社アンドハレ,,株式会社,奈良県,北葛城郡上牧町,桜ケ丘１丁目５番地５,,29,424,6390202,,,,,,,2023-06-06,1,,,,,アンドハレ,0
1832,6160001025099,新規,0,2023-06-06,2023-06-06,株式会社東原工作所,,株式会社,滋賀県,甲賀市,水口町北泉１丁目１４２番地,,25,209,5280058,,,,,,,2023-06-06,1,,,,,ヒガシハラコウサクショ,0
1851,6180301037437,新規,0,2023-06-06,2023-06-06,アビモ株式会社,,株式会社,愛知県,豊川市,諏訪４丁目３番地の１１,,23,207,4420068,,,,,,,2023-06-06,1,,,,,アビモ,0
1852,6180301037453,新規,0,2023-06-06,2023-06-06,株式会社エムテック,,株式会社,愛知県,岡崎市,丸山町字由ノ木２９番地１,,23,202,4440006,,,,,,,2023-06-06,1,,,,,エムテック,0
1853,6180303005739,新規,0,2023-06-06,2023-06-06,合同会社ｓｔａｒｃａｆｅ想風,,合同会社,愛知県,新城市,作手高里字カイギシ１４－１,,23,221,4411423,,,,,,,2023-06-06,1,,,,,スターカフェソウフウ,0
1854,6190001030468,新規,0,2023-06-06,2023-06-06,ホリコウサン株式会社,,株式会社,三重県,四日市市,滝川町１３番２４号,,24,202,5100034,,,,,,,2023-06-06,1,,,,,ホリコウサン,0
1858,6200001041364,新規,0,2023-06-06,2023-06-06,株式会社東海ＭＳＣ,,株式会社,岐阜県,加茂郡坂祝町,取組４０９番地２,,21,501,5050075,,,,,,,2023-06-06,1,,,,,トウカイエムエスシー,0
1860,6210001019335,新規,0,2023-06-06,2023-06-06,株式会社中野板金,,株式会社,福井県,小浜市,谷田部第３６号１２番地,,18,204,9170031,,,,,,,2023-06-06,1,,,,,ナカノバンキン,0
1861,6210001019343,新規,0,2023-06-06,2023-06-06,株式会社ベストライフフーズ,,株式会社,福井県,あわら市,井江葭第２３号４５番地,,18,208,9104112,,,,,,,2023-06-06,1,,,,,ベストライフフーズ,0
1864,6230003002023,新規,0,2023-06-06,2023-06-06,ＣＡＳＴＩＮＧ　ＴＥＣＨＮＯＬＯＧＩＥＳ　ＩＮＮＯＶＡＴＩＯＮ合同会社,,合同会社,富山県,高岡市,戸出町６丁目４番２２号,,16,202,9391104,,,,,,,2023-06-06,1,,,,,キャスティングテクノロジーズイノベーション,0
1869,6240001061615,新規,0,2023-06-06,2023-06-06,株式会社ＭＥＲＣＩ,,株式会社,広島県,福山市,南蔵王町１丁目５番４７号,,34,207,7210973,,,,,,,2023-06-06,1,,,,,メルシー,0
1870,6240001061631,新規,0,2023-06-06,2023-06-06,株式会社さんミラーズ,,株式会社,広島県,福山市,春日町２丁目１１番３２号,,34,207,7210907,,,,,,,2023-06-06,1,,,,,サンミラーズ,0
1879,6260001038017,新規,0,2023-06-06,2023-06-06,株式会社アンク,,株式会社,岡山県,岡山市北区,柳町１丁目１４番７号やよいビル３Ｆ,,33,101,7000904,,,,,,,2023-06-06,1,,,,,アンク,0
1883,6290001101754,新規,0,2023-06-06,2023-06-06,株式会社ライゼンデ,,株式会社,福岡県,福岡市南区,長住２丁目１７番１３号,,40,134,8111362,,,,,,,2023-06-06,1,,,,,ライゼンデ,0
1884,6290001101795,新規,0,2023-06-06,2023-06-06,タマヤ広告株式会社,,株式会社,福岡県,久留米市,長門石３丁目１番２４号,,40,203,8300027,,,,,,,2023-06-06,1,,,,,タマヤコウコク,0
1885,6290001101837,新規,0,2023-06-06,2023-06-06,株式会社メロディックランド,,株式会社,福岡県,福岡市東区,香椎６丁目２０番１号,,40,131,8130011,,,,,,,2023-06-06,1,,,,,メロディックランド,0
1888,6290801029583,新規,0,2023-06-06,2023-06-06,株式会社マサキ建設,,株式会社,福岡県,北九州市門司区,大字畑１２６５－２,,40,101,8000112,,,,,,,2023-06-06,1,,,,,マサキケンセツ,0
1891,6300001013320,新規,0,2023-06-06,2023-06-06,株式会社一番ヶ瀬商店,,株式会社,佐賀県,神埼郡吉野ヶ里町,大曲３１６２番地１１,,41,327,8420103,,,,,,,2023-06-06,1,,,,,イチバカセショウテン,0
1896,6320001019811,新規,0,2023-06-06,2023-06-06,アークソリューション株式会社,,株式会社,大分県,大分市,大字寒田１３１７番地の１,,44,201,8701123,,,,,,,2023-06-06,1,,,,,アークソリューション,0
1899,6330001030940,新規,0,2023-06-06,2023-06-06,株式会社Ｏ．Ｓ．Ｆ,,株式会社,熊本県,菊池郡菊陽町,大字津久礼１７３番地９イソベハイツ１０１,,43,404,8691101,,,,,,,2023-06-06,1,,,,,オーエスファイブ,0
1905,6340001025634,新規,0,2023-06-06,2023-06-06,株式会社ＳＥＴＯ,,株式会社,鹿児島県,鹿児島市,荒田１丁目３６番９号,,46,201,8900054,,,,,,,2023-06-06,1,,,,,セト,0
1908,6340003004149,新規,0,2023-06-06,2023-06-06,合同会社ＨＩＫＡＲＩ,,合同会社,鹿児島県,西之表市,西之表７４７１,,46,213,8913101,,,,,,,2023-06-06,1,,,,,ヒカリ,0
1909,6350001018397,新規,0,2023-06-06,2023-06-06,株式会社ＫＡＹＡ,,株式会社,宮崎県,宮崎市,鶴島３丁目１３９番地１,,45,201,8800014,,,,,,,2023-06-06,1,,,,,カヤ,0
1910,6350003004370,新規,0,2023-06-06,2023-06-06,合同会社うしまる,,合同会社,宮崎県,都城市,立野町４号５番地５,,45,202,8850035,,,,,,,2023-06-06,1,,,,,ウシマル,0
1911,6360001032125,新規,0,2023-06-06,2023-06-06,株式会社幸マネジメント,,株式会社,沖縄県,宮古島市,平良字下里１２７３番地１,,47,214,9060013,,,,,,,2023-06-06,1,,,,,サチマネジメント,0
1915,6370001050027,新規,0,2023-06-06,2023-06-06,株式会社ｎｅｘｔ　ｇｒｅｅｎ　ｉｎｎｏｖａｔｉｏｎ,,株式会社,宮城県,亘理郡亘理町,字西郷２６１番地１,,04,361,9892351,,,,,,,2023-06-06,1,,,,,ネクストグリーンイノベーション,0
1916,6370001050043,新規,0,2023-06-06,2023-06-06,株式会社岩渕商会,,株式会社,宮城県,仙台市若林区,六丁の目中町１９番１５－５０１号,,04,103,9840012,,,,,,,2023-06-06,1,,,,,イワブチショウカイ,0
1917,6370003006159,新規,0,2023-06-06,2023-06-06,合同会社ｋｉｓａｉ,,合同会社,宮城県,仙台市泉区,松陵２丁目３３番地８号,,04,105,9813108,,,,,,,2023-06-06,1,,,,,キサイ,0
1922,6380001033740,新規,0,2023-06-06,2023-06-06,株式会社河京エンタテインメント,,株式会社,福島県,喜多方市,松山町村松字常盤町２６８８番地１,,07,208,9660902,,,,,,,2023-06-06,1,,,,,カワキョウエンタテインメント,0
1923,6380001033757,新規,0,2023-06-06,2023-06-06,株式会社ネオコネクト,,株式会社,福島県,西白河郡泉崎村,大字関和久字豊田５９番地１６,,07,464,9690102,,,,,,,2023-06-06,1,,,,,ネオコネクト,0
1930,6410001013508,新規,0,2023-06-06,2023-06-06,株式会社村田工業,,株式会社,秋田県,横手市,杉沢字狼ノ沢８番地,,05,203,0130001,,,,,,,2023-06-06,1,,,,,ムラタコウギョウ,0
1934,6420001018282,新規,0,2023-06-06,2023-06-06,株式会社文展ホールディングス,,株式会社,青森県,八戸市,桔梗野工業団地３丁目４番２０号,,02,203,0392246,,,,,,,2023-06-06,1,,,,,ブンテンホールディングス,0
1937,6430001089273,新規,0,2023-06-06,2023-06-06,株式会社村上建設,,株式会社,北海道,千歳市,勇舞１丁目１１－９,,01,224,0660078,,,,,,,2023-06-06,1,,,,,ムラカミケンセツ,0
1938,6430001089315,新規,0,2023-06-06,2023-06-06,株式会社Ｓｅｒａｐｈｉｍ,,株式会社,北海道,札幌市豊平区,豊平五条６丁目１番１５号,,01,105,0620905,,,,,,,2023-06-06,1,,,,,セラフィム,0
1954,6500001024974,新規,0,2023-06-06,2023-06-06,株式会社優彩,,株式会社,愛媛県,新居浜市,中筋町２丁目３番１５号,,38,205,7920841,,,,,,,2023-06-06,1,,,,,ユウサイ,0
1955,6500001024982,新規,0,2023-06-06,2023-06-06,株式会社誉田会計センター,,株式会社,愛媛県,新居浜市,西の土居町２丁目１４番１５号,,38,205,7920035,,,,,,,2023-06-06,1,,,,,ホンダカイケイセンター,0
1956,6700150116932,新規,0,2023-06-06,2023-06-06,ｓｈｅｎｚｈｅｎｓｈｉｆｅｎｇｙｏｕｙｕｎｋｅｊｉｙｏｕｘｉａｎｇｏｎｇｓｉ,,外国会社等,,,,,,,,ｌｏｎｇｈｕａｑｕ　ｍｉｎｚｈｉｊｉｅｄａｏ　ｚｈａｎｇｋｅｎｇｓｈｅｑｕ　ｚｈａｎｇｋｅｎｇｓａｎｑｕ１１０ｄｏｎｇ５０２　ｓｈｅｎｚｈｅｎ　ｇｕａｎｇｄｏｎｇ　５１８０００　ＣＮ,,,,,,2023-06-06,1,,,,,シェンジェンシーフォンヨウインコージーヨウシエンゴンスー,0
1957,6700150116940,新規,0,2023-06-06,2023-06-06,ｓｈｅｎｚｈｅｎｓｈｉｍｏｂｅｉｋｅｊｉｙｏｕｘｉａｎｇｏｎｇｓｉ,,外国会社等,,,,,,,,ｍｉｎｚｈｉｊｉｅｄａｏ　ｘｉｎｎｉｕｓｈｅｑｕ　ｍｉｎｚｈｉｄａｄａｏ　ｎｉｕｌａｎｑｉａｎｄａｓｈａ　３ｌｏｕ　３０２,,,,,,2023-06-06,1,,,,,シェンジェンシーモーベイコージーヨウシエンゴンスー,0
1961,7010001235752,新規,0,2023-06-06,2023-06-06,Ｍｅｔａ　Ｇａｔｅ　ｔｅｃｈｎｏｌｏｇｙ株式会社,,株式会社,東京都,中央区,湊２丁目１１番１号シティタワー銀座東８２３室,,13,102,1040043,,,,,,,2023-06-06,1,,,,,ミーターゲートテクノーレッジー,0
1962,7010001235810,新規,0,2023-06-06,2023-06-06,日コン外航ガスタンクケミカル株式会社,,株式会社,東京都,千代田区,内幸町２丁目２番２号,,13,101,1000011,,,,,,,2023-06-06,1,,,,,ニチコンガイコウガスタンクケミカル,0
1963,7010001235835,新規,0,2023-06-06,2023-06-06,ウィステリアハウス東京株式会社,,株式会社,東京都,千代田区,一番町６番地相模屋本社ビル７Ｆ,,13,101,1020082,,,,,,,2023-06-06,1,,,,,ウィステリアハウストウキョウ,0
1964,7010001235868,新規,0,2023-06-06,2023-06-06,株式会社Ｉｒａｓｓｈａｉ,,株式会社,東京都,中央区,銀座１丁目１２番４号Ｎ＆Ｅ・ＢＬＤ．７階,,13,102,1040061,,,,,,,2023-06-06,1,,,,,イラッシャイ,0
1965,7010001235926,新規,0,2023-06-06,2023-06-06,天合株式会社,,株式会社,東京都,千代田区,神田北乗物町１番地５－３Ｆ,,13,101,1010036,,,,,,,2023-06-06,1,,,,,テンワ,0
1966,7010001235950,新規,0,2023-06-06,2023-06-06,株式会社アーキア,,株式会社,東京都,中央区,銀座７丁目１３番２０号銀座ＴＨビル９階,,13,102,1040061,,,,,,,2023-06-06,1,,,,,アーキア,0
1970,7010003040754,新規,0,2023-06-06,2023-06-06,サステナブルローンファンド１８号合同会社,,合同会社,東京都,中央区,八丁堀４丁目２番１０号ＡＯＪ税理士法人内,,13,102,1040032,,,,,,,2023-06-06,1,,,,,サステナブルローンファンドジュウハチゴウ,0
1971,7010003040787,新規,0,2023-06-06,2023-06-06,合同会社Ｊ　ｂｒｉｄｇｅ,,合同会社,東京都,千代田区,九段南１丁目５番６号りそな九段ビル５ＦＫＳフロア,,13,101,1020074,,,,,,,2023-06-06,1,,,,,ジェイブリッジ,0
1972,7010005036800,新規,0,2023-06-06,2023-06-06,エルベエーテ社会保険労務士法人,,その他の設立登記法人,東京都,中央区,新川２丁目２番１号いづみハイツ茅場町２０６,,13,102,1040033,,,,,,,2023-06-06,1,,,,,エルベエーテ,0
1973,7010103002150,新規,0,2023-06-06,2023-06-06,合同会社リトルビットＩＴジョブ,,合同会社,東京都,八王子市,美山町１７８４‐１３,,13,201,1920152,,,,,,,2023-06-06,1,,,,,リトルビットアイティジョブ,0
1976,7010401174773,新規,0,2023-06-06,2023-06-06,株式会社ＵＰＳＩＤＥＲ　Ｃａｐｉｔａｌ,,株式会社,東京都,港区,六本木７丁目１５番７号,,13,103,1060032,,,,,,,2023-06-06,1,,,,,アップサイダーキャピタル,0
1977,7010401174781,新規,0,2023-06-06,2023-06-06,株式会社Ｂｅａｕｔｙ　Ｂｅｎｅｆｉｔ,,株式会社,東京都,港区,南青山３丁目１番３６号青山丸竹ビル６Ｆ,,13,103,1070062,,,,,,,2023-06-06,1,,,,,ビューティーベネフィット,0
1978,7010401174798,新規,0,2023-06-06,2023-06-06,株式会社Ｂｅｌｉｅｖｅ,,株式会社,東京都,港区,南青山２丁目２番１５号,,13,103,1070062,,,,,,,2023-06-06,1,,,,,ビリーブ,0
1979,7010401174848,新規,0,2023-06-06,2023-06-06,株式会社フレンドシップ,,株式会社,東京都,港区,虎ノ門４丁目１番１号神谷町トラストタワー,,13,103,1050001,,,,,,,2023-06-06,1,,,,,フレンドシップ,0
1981,7010403030223,新規,0,2023-06-06,2023-06-06,ＡＴ管財合同会社,,合同会社,東京都,港区,西新橋１丁目１５番５号内幸町ケイズビル９階高井総合法律事務所,00130733,13,103,1050003,,,,,,,2023-06-06,1,,,,,エイティカンザイ,0
1982,7010403030272,新規,0,2023-06-06,2023-06-06,ＫＲエナジー２号合同会社,,合同会社,東京都,港区,虎ノ門１丁目１６番１６号虎ノ門１丁目ＭＧビル３階ブレイン綜合会計事務所内,,13,103,1050001,,,,,,,2023-06-06,1,,,,,ケーアールエナジーニゴウ,0
1983,7010403030280,新規,0,2023-06-06,2023-06-06,ＵＫホテルマネジメント合同会社,,合同会社,東京都,港区,浜松町２丁目４番１号,,13,103,1050013,,,,,,,2023-06-06,1,,,,,ユーケーホテルマネジメント,0
1985,7010703006724,新規,0,2023-06-06,2023-06-06,北海道クリーンエネルギー蓄電合同会社,,合同会社,東京都,品川区,東品川２丁目２番４号天王洲ファーストタワー５階,,13,109,1400002,,,,,,,2023-06-06,1,,,,,ホッカイドウクリーンエネルギーチクデン,0
1990,7010903008215,新規,0,2023-06-06,2023-06-06,ＩＨＡＮトレーディング合同会社,,合同会社,東京都,世田谷区,祖師谷５丁目３３番８号,,13,112,1570072,,,,,,,2023-06-06,1,,,,,イハントレーディング,0
1999,7011001154819,新規,0,2023-06-06,2023-06-06,株式会社Ｅｌｂａｆ,,株式会社,東京都,渋谷区,渋谷２丁目１番１号,,13,113,1500002,,,,,,,2023-06-06,1,,,,,エルバフ,0
2000,7011001154835,新規,0,2023-06-06,2023-06-06,株式会社ルミエグラン,,株式会社,東京都,渋谷区,神宮前４丁目１８番９号,,13,113,1500001,,,,,,,2023-06-06,1,,,,,ルミエグラン,0
2001,7011001154851,新規,0,2023-06-06,2023-06-06,株式会社ＩＤＥＡ　ＭＡＮ,,株式会社,東京都,目黒区,駒場２丁目１０番４号１Ｆ,,13,110,1530041,,,,,,,2023-06-06,1,,,,,アイディアマン,0
2003,7011003016934,新規,0,2023-06-06,2023-06-06,アート弥生会合同会社,,合同会社,東京都,目黒区,鷹番３丁目９番１１号,,13,110,1520004,,,,,,,2023-06-06,1,,,,,アートヤヨイカイ,0
2007,7011101103106,新規,0,2023-06-06,2023-06-06,株式会社ＳＰＡＤＵＰＡ,,株式会社,東京都,新宿区,住吉町９番３号,,13,104,1620065,,,,,,,2023-06-06,1,,,,,スパドュパ,0
2008,7011101103155,新規,0,2023-06-06,2023-06-06,株式会社ＬＩＦＩＸ　ＧＥＡＲ,,株式会社,東京都,新宿区,西新宿３丁目３番１３号西新宿水間ビル２Ｆ,,13,104,1600023,,,,,,,2023-06-06,1,,,,,リフィックスギア,0
2010,7011201024689,新規,0,2023-06-06,2023-06-06,スカイラ株式会社,,株式会社,東京都,中野区,上鷺宮２丁目２１番８号－８,,13,114,1650031,,,,,,,2023-06-06,1,,,,,スカイラ,0
2016,7011601026863,新規,0,2023-06-06,2023-06-06,株式会社３Ｈ,,株式会社,東京都,練馬区,豊玉上１丁目８番５－３０６号,,13,120,1760011,,,,,,,2023-06-06,1,,,,,スリーエイチ,0
2017,7011601026871,新規,0,2023-06-06,2023-06-06,株式会社ＫＭトレーディング,,株式会社,東京都,練馬区,大泉学園町６丁目１３番２２号,,13,120,1780061,,,,,,,2023-06-06,1,,,,,ケーエムトレーディング,0
2018,7011603003943,新規,0,2023-06-06,2023-06-06,合同会社ＭＵＮＡ,,合同会社,東京都,練馬区,石神井町３丁目２７番６号辻川ビル１Ｆ,,13,120,1770041,,,,,,,2023-06-06,1,,,,,ムナ,0
2020,7011703003488,新規,0,2023-06-06,2023-06-06,合同会社ＲＡＩＳＥ,,合同会社,東京都,江戸川区,東葛西７丁目２９－１２都ビル１０３号室,,13,123,1340084,,,,,,,2023-06-06,1,,,,,レイズ,0
2022,7011801042512,新規,0,2023-06-06,2023-06-06,株式会社東京空撮,,株式会社,東京都,足立区,興野２丁目４番７号,,13,121,1230844,,,,,,,2023-06-06,1,,,,,トウキョウクウサツ,0
2023,7011801042520,新規,0,2023-06-06,2023-06-06,株式会社ＦＬＯＷ,,株式会社,東京都,葛飾区,奥戸４丁目１１番１２号,,13,122,1240022,,,,,,,2023-06-06,1,,,,,フロー,0
2024,7012301013474,新規,0,2023-06-06,2023-06-06,株式会社芽森,,株式会社,東京都,町田市,南成瀬４丁目１５番地４,,13,209,1940045,,,,,,,2023-06-06,1,,,,,メモリ,0
2026,7012303001832,新規,0,2023-06-06,2023-06-06,イディオム合同会社,,合同会社,東京都,町田市,鶴間３丁目４番１グランベリーパークセントラルコート３Ｆ－Ｌ３０２,,13,209,1940004,,,,,,,2023-06-06,1,,,,,イディオム,0
2028,7012401040609,新規,0,2023-06-06,2023-06-06,サンタクロース株式会社,,株式会社,東京都,調布市,西つつじケ丘３丁目３番地４ファインスクエアナカダ１０１,,13,208,1820006,,,,,,,2023-06-06,1,,,,,サンタクロース,0
2030,7012403006021,新規,0,2023-06-06,2023-06-06,合同会社フクバル,,合同会社,東京都,府中市,新町３丁目１０番地の１２,,13,206,1830052,,,,,,,2023-06-06,1,,,,,フクバル,0
2032,7012801022405,新規,0,2023-06-06,2023-06-06,あさかフーズ株式会社,,株式会社,東京都,立川市,高松町１丁目３１番２２－５２９号,,13,202,1900011,,,,,,,2023-06-06,1,,,,,アサカフーズ,0
2033,7012801022413,新規,0,2023-06-06,2023-06-06,株式会社田中美装,,株式会社,東京都,立川市,西砂町３丁目６０番地の２６,,13,202,1900034,,,,,,,2023-06-06,1,,,,,タナカビソウ,0
2042,7020001151908,新規,0,2023-06-06,2023-06-06,株式会社まごころ,,株式会社,神奈川県,川崎市幸区,南加瀬３丁目２１番３３号,,14,132,2120055,,,,,,,2023-06-06,1,,,,,マゴコロ,0
2043,7020001151924,新規,0,2023-06-06,2023-06-06,株式会社ウィッシュボン,,株式会社,神奈川県,横浜市泉区,和泉町５６２７番地１,,14,116,2450016,,,,,,,2023-06-06,1,,,,,ウィッシュボン,0
2044,7020001151932,新規,0,2023-06-06,2023-06-06,株式会社タスかる,,株式会社,神奈川県,横浜市都筑区,川和町６１番地７－１Ｆ,,14,118,2240057,,,,,,,2023-06-06,1,,,,,タスカル,0
2045,7020001151965,新規,0,2023-06-06,2023-06-06,インフォブレイン株式会社,,株式会社,神奈川県,横浜市西区,みなとみらい３丁目７番１号オーシャンゲートみなとみらい,,14,103,2200012,,,,,,,2023-06-06,1,,,,,インフォブレイン,0
2048,7020003023997,新規,0,2023-06-06,2023-06-06,合同会社フジメンテック,,合同会社,神奈川県,横浜市戸塚区,上矢部町２４４７番地７,,14,110,2450053,,,,,,,2023-06-06,1,,,,,フジメンテック,0
2050,7020005016025,新規,0,2023-06-06,2023-06-06,一般社団法人協同かながわ,,その他の設立登記法人,神奈川県,川崎市川崎区,藤崎４丁目２１番１号,,14,131,2100804,,,,,,,2023-06-06,1,,,,,キョウドウカナガワ,0
2053,7021001079197,新規,0,2023-06-06,2023-06-06,株式会社ＦＳＲ,,株式会社,神奈川県,横須賀市,平成町２丁目９番地２かがやきの街１１１５,,14,201,2380013,,,,,,,2023-06-06,1,,,,,エフエスアール,0
2054,7021001079222,新規,0,2023-06-06,2023-06-06,株式会社ＪＩＮ,,株式会社,神奈川県,秦野市,今泉１１０３番地の１ＦＯＲＥＮＡ２０２号,,14,211,2570014,,,,,,,2023-06-06,1,,,,,ジン,0
2055,7021001079230,新規,0,2023-06-06,2023-06-06,株式会社ＳＴＥＬＬＡ,,株式会社,神奈川県,藤沢市,南藤沢３番１３号,,14,205,2510055,,,,,,,2023-06-06,1,,,,,ステラ,0
2065,7030003021884,新規,0,2023-06-06,2023-06-06,合同会社Ｔｈｒｅｅ　Ｐｌｕｓ　Ｓｉｘ　ＬＬＣ,,合同会社,埼玉県,川越市,石原町１丁目７番地１号,,11,201,3500824,,,,,,,2023-06-06,1,,,,,スリープラスシックス,0
2067,7040001128623,新規,0,2023-06-06,2023-06-06,株式会社ラパン,,株式会社,千葉県,柏市,布施５９０番地,,12,217,2770825,,,,,,,2023-06-06,1,,,,,ラパン,0
2068,7040001128648,新規,0,2023-06-06,2023-06-06,株式会社守玄,,株式会社,千葉県,千葉市中央区,春日１丁目５番１５号,,12,101,2600033,,,,,,,2023-06-06,1,,,,,モリゲン,0
2069,7040001128656,新規,0,2023-06-06,2023-06-06,株式会社ノット,,株式会社,千葉県,成田市,江弁須１８７番地１,,12,211,2860047,,,,,,,2023-06-06,1,,,,,ノット,0
2070,7040001128672,新規,0,2023-06-06,2023-06-06,株式会社ＫＳスポーツサービス,,株式会社,千葉県,流山市,おおたかの森西４丁目１８番地の９,,12,220,2700128,,,,,,,2023-06-06,1,,,,,ケイエススポーツサービス,0
2071,7040001128680,新規,0,2023-06-06,2023-06-06,株式会社アズイズ,,株式会社,千葉県,千葉市中央区,若草１丁目１－１６,,12,101,2600821,,,,,,,2023-06-06,1,,,,,アズイズ,0
2072,7040001128722,新規,0,2023-06-06,2023-06-06,株式会社隆電工,,株式会社,千葉県,千葉市花見川区,畑町１８３９番地１,,12,102,2620018,,,,,,,2023-06-06,1,,,,,リュウデンコウ,0
2073,7040001128755,新規,0,2023-06-06,2023-06-06,株式会社ＲｅＦＯＯＤ　ＣＯＭＰＡＮＩＥＳ,,株式会社,千葉県,船橋市,二和東２丁目７番７号,,12,204,2740805,,,,,,,2023-06-06,1,,,,,リフードカンパニー,0
2075,7050001052913,新規,0,2023-06-06,2023-06-06,株式会社ＤＵＬＭＥＴＨ　ＩＮＴＥＲＮＡＴＩＯＮＡＬ,,株式会社,茨城県,筑西市,東保末１９番地,,08,227,3004536,,,,,,,2023-06-06,1,,,,,ドゥルメツインターナショナル,0
2076,7050001052921,新規,0,2023-06-06,2023-06-06,豊株式会社,,株式会社,茨城県,日立市,若葉町１丁目１７番５号,,08,202,3170063,,,,,,,2023-06-06,1,,,,,ユタカ,0
2079,7050003007543,新規,0,2023-06-06,2023-06-06,ネットワークコアテック合同会社,,合同会社,茨城県,土浦市,宍塚３４４番地９,,08,203,3000805,,,,,,,2023-06-06,1,,,,,ネットワークコアテック,0
2084,7060001036056,新規,0,2023-06-06,2023-06-06,温故・拓新バッテリーマテリアルズ株式会社,,株式会社,栃木県,那須塩原市,一区町２７７番地４８,,09,213,3292732,,,,,,,2023-06-06,1,,,,,オンコタクシンバッテリーマテリアルズ,0
2093,7080103002821,新規,0,2023-06-06,2023-06-06,合同会社トビキリスペース,,合同会社,静岡県,富士宮市,山本１４８番地の７,,22,207,4180023,,,,,,,2023-06-06,1,,,,,トビキリスペース,0
2098,7080403004798,新規,0,2023-06-06,2023-06-06,合同会社Ｄ‐ＬＩＦＥ,,合同会社,静岡県,浜松市浜北区,高畑７５９－１,,22,136,4340034,,,,,,,2023-06-06,1,,,,,ディーライフ,0
2104,7100001036472,新規,0,2023-06-06,2023-06-06,株式会社Ｓｕｐｅｒｂ,,株式会社,長野県,佐久市,小田井１３０番地１２,,20,217,3850009,,,,,,,2023-06-06,1,,,,,スパーブ,0
2105,7100005013030,新規,0,2023-06-06,2023-06-06,一般社団法人清凛会,,その他の設立登記法人,長野県,松本市,寿北６丁目２３番３－１号,,20,202,3990011,,,,,,,2023-06-06,1,,,,,セイリンカイ,0
2117,7120001255129,新規,0,2023-06-06,2023-06-06,株式会社ノーラン,,株式会社,大阪府,大阪市住之江区,中加賀屋３丁目２番１０号,,27,125,5590017,,,,,,,2023-06-06,1,,,,,ノーラン,0
2118,7120001255293,新規,0,2023-06-06,2023-06-06,力能株式会社,,株式会社,大阪府,大阪市城東区,蒲生３丁目１５番１２号セザンヌ藤３０５Ｂ,,27,118,5360016,,,,,,,2023-06-06,1,,,,,リキノウ,0
2119,7120001255351,新規,0,2023-06-06,2023-06-06,株式会社ＴＯＹＯ　ｅｘｐｒｅｓｓ,,株式会社,大阪府,大阪市港区,築港４丁目１０番３０号大寅ビル１０２号室,,27,107,5520021,,,,,,,2023-06-06,1,,,,,トウヨウエクスプレス,0
2120,7120001255426,新規,0,2023-06-06,2023-06-06,株式会社ＤＯＯＲ,,株式会社,大阪府,大阪市中央区,心斎橋筋１丁目５番１号,,27,128,5420085,,,,,,,2023-06-06,1,,,,,ドア,0
2121,7120001255459,新規,0,2023-06-06,2023-06-06,株式会社ウエキスタイル,,株式会社,大阪府,大阪市東淀川区,豊里５丁目７番１９号,,27,114,5330013,,,,,,,2023-06-06,1,,,,,ウエキスタイル,0
2122,7120001255475,新規,0,2023-06-06,2023-06-06,株式会社ＳＰＦ設計,,株式会社,大阪府,大阪市城東区,野江４丁目１番８号２０３号室,,27,118,5360006,,,,,,,2023-06-06,1,,,,,エスピーエフセッケイ,0
2123,7120001255541,新規,0,2023-06-06,2023-06-06,株式会社さんらいず,,株式会社,大阪府,大阪市城東区,今福東３丁目６番１５号,,27,118,5360002,,,,,,,2023-06-06,1,,,,,サンライズ,0
2124,7120003024201,新規,0,2023-06-06,2023-06-06,合同会社明幸美装,,合同会社,大阪府,大阪市西成区,南津守４丁目１番５号１３号室,,27,122,5570063,,,,,,,2023-06-06,1,,,,,メイコウビソウ,0
2127,7120005023663,新規,0,2023-06-06,2023-06-06,スマートエコタウン星田戸建団地管理組合法人,,その他の設立登記法人,大阪府,交野市,星田北７丁目３５番９号,,27,230,5760017,,,,,,,2023-06-06,1,,,,,スマートエコタウンホシダコダテ,0
2132,7120101067647,新規,0,2023-06-06,2023-06-06,株式会社ＬＥＯ,,株式会社,大阪府,岸和田市,南上町２丁目１４番１９号,,27,202,5960078,,,,,,,2023-06-06,1,,,,,レオ,0
2135,7120903004673,新規,0,2023-06-06,2023-06-06,合同会社ＣＡＢ,,合同会社,大阪府,高槻市,上土室１丁目２番２２号,,27,207,5691044,,,,,,,2023-06-06,1,,,,,キャブ,0
2136,7122001037028,新規,0,2023-06-06,2023-06-06,株式会社まがり,,株式会社,大阪府,東大阪市,花園本町１丁目６番７号,,27,227,5780937,,,,,,,2023-06-06,1,,,,,マガリ,0
2139,7130001074429,新規,0,2023-06-06,2023-06-06,株式会社音無,,株式会社,京都府,宇治市,広野町桐生谷６８番地の１１,,26,204,6110031,,,,,,,2023-06-06,1,,,,,オトナシ,0
2140,7130001074461,新規,0,2023-06-06,2023-06-06,株式会社リトロボ,,株式会社,京都府,京都市上京区,今出川通小川東入る南兼康町３３７エクセレント御所西１Ｆ,,26,102,6020000,,,,,,,2023-06-06,1,,,,,リトロボ,0
2141,7130001074494,新規,0,2023-06-06,2023-06-06,株式会社山口硝子製作所,,株式会社,京都府,京都市左京区,新丸太町通仁王門下る新丸太町５９番地,,26,103,6068386,,,,,,,2023-06-06,1,,,,,ヤマグチガラスセイサクショ,0
2142,7130003008764,新規,0,2023-06-06,2023-06-06,合同会社アントス,,合同会社,京都府,京田辺市,田辺中央１丁目７番地１１,,26,211,6100334,,,,,,,2023-06-06,1,,,,,アントス,0
2151,7150001026436,新規,0,2023-06-06,2023-06-06,株式会社ｎａｒｒａｔｉｖｅ　ｏｐｅｒａｔｉｏｎ,,株式会社,奈良県,奈良市,西城戸町３４番地,,29,201,6308345,,,,,,,2023-06-06,1,,,,,ナラティブオペレーション,0
2152,7150001026452,新規,0,2023-06-06,2023-06-06,株式会社ＰＲＯＵＤ　ＣＹＣＬＥ,,株式会社,奈良県,奈良市,北之庄町一丁目６番地の２,,29,201,6308451,,,,,,,2023-06-06,1,,,,,プラウドサイクル,0
2157,7160003002896,新規,0,2023-06-06,2023-06-06,合同会社ｆｒｅｅｌｙ,,合同会社,滋賀県,愛知郡愛荘町,豊満４９１－５Ｔ’ｓ－ｃｕｂｅ２Ｆ,,25,425,5291321,,,,,,,2023-06-06,1,,,,,フリーリー,0
2163,7180001156585,新規,0,2023-06-06,2023-06-06,ミノテック株式会社,,株式会社,愛知県,名古屋市守山区,四軒家１丁目５１０番地,,23,113,4630034,,,,,,,2023-06-06,1,,,,,ミノテック,0
2164,7180001156651,新規,0,2023-06-06,2023-06-06,株式会社松本工業,,株式会社,愛知県,名古屋市守山区,大字吉根字太鼓ケ根３２１１番地の３２１,,23,113,4630004,,,,,,,2023-06-06,1,,,,,マツモトコウギョウ,0
2171,7180301037444,新規,0,2023-06-06,2023-06-06,株式会社ＬｏｌＧａｔｅ,,株式会社,愛知県,豊田市,伊保町金山１３０番地６,,23,211,4700374,,,,,,,2023-06-06,1,,,,,ロールゲイト,0
2172,7190001030467,新規,0,2023-06-06,2023-06-06,アイキューブ株式会社,,株式会社,三重県,松阪市,鎌田町字中保６５１－１８バレンタインＢ,,24,204,5150005,,,,,,,2023-06-06,1,,,,,アイキューブ,0
2173,7190003004345,新規,0,2023-06-06,2023-06-06,合同会社Ｃａｓｃａｄｅ三重,,合同会社,三重県,津市,一志町みのりヶ丘１１５番地１５１,,24,201,5152517,,,,,,,2023-06-06,1,,,,,カスケードミエ,0
2174,7210001019342,新規,0,2023-06-06,2023-06-06,株式会社トミーアンドコー,,株式会社,福井県,福井市,丸山２丁目２３０７番地２,,18,201,9100834,,,,,,,2023-06-06,1,,,,,トミーアンドコー,0
2175,7220001025447,新規,0,2023-06-06,2023-06-06,株式会社オーエ,,株式会社,石川県,金沢市,示野町ホ４９番地１ＲＯＡＤ３・Ｂ号室,,17,201,9200059,,,,,,,2023-06-06,1,,,,,オーエ,0
2181,7230001019860,新規,0,2023-06-06,2023-06-06,株式会社彩蓮,,株式会社,富山県,富山市,本郷町９５番地８,,16,201,9398045,,,,,,,2023-06-06,1,,,,,イロハ,0
2182,7230001019869,新規,0,2023-06-06,2023-06-06,株式会社ｂｅｅ‐ｉｎｇ,,株式会社,富山県,高岡市,深沢５０番地７,,16,202,9330811,,,,,,,2023-06-06,1,,,,,ビーイング,0
2183,7230003002030,新規,0,2023-06-06,2023-06-06,合同会社ＭＴ　ＯＮＥ,,合同会社,富山県,高岡市,中田１５０６番地,,16,202,9391275,,,,,,,2023-06-06,1,,,,,エムティワン,0
2184,7240001061639,新規,0,2023-06-06,2023-06-06,株式会社Ｇ・Ｈ・Ｌ,,株式会社,広島県,広島市中区,八丁堀１５番１０号セントラルビル,,34,101,7300013,,,,,,,2023-06-06,1,,,,,ジーエイチエル,0
2188,7250001020123,新規,0,2023-06-06,2023-06-06,株式会社相光塗装工業,,株式会社,山口県,岩国市,室の木町５丁目７番１号,,35,208,7400021,,,,,,,2023-06-06,1,,,,,アイコウトソウコウギョウ,0
2192,7260001038008,新規,0,2023-06-06,2023-06-06,株式会社南,,株式会社,岡山県,岡山市南区,豊成３丁目５番１２号,,33,104,7000942,,,,,,,2023-06-06,1,,,,,ミナミ,0
2198,7290001101737,新規,0,2023-06-06,2023-06-06,株式会社リバースワン,,株式会社,福岡県,久留米市,善導寺町木塚４４８番地１,,40,203,8390822,,,,,,,2023-06-06,1,,,,,リバースワン,0
2199,7290001101753,新規,0,2023-06-06,2023-06-06,株式会社ディー・プラス,,株式会社,福岡県,飯塚市,東徳前１７番６０－１０号,,40,205,8200032,,,,,,,2023-06-06,1,,,,,ディープラス,0
2200,7290001101778,新規,0,2023-06-06,2023-06-06,Ｗａｒｐｅｘ　Ｊａｐａｎ株式会社,,株式会社,福岡県,福岡市東区,和白東１丁目１６番１５号,,40,131,8110214,,,,,,,2023-06-06,1,,,,,ワーペックスジャパン,0
2201,7290001101828,新規,0,2023-06-06,2023-06-06,株式会社雅,,株式会社,福岡県,糟屋郡須惠町,大字旅石８１２番地１,,40,344,8112221,,,,,,,2023-06-06,1,,,,,ミヤビ,0
2204,7290003013897,新規,0,2023-06-06,2023-06-06,合同会社Ｍｅｄｅｘ,,合同会社,福岡県,福岡市博多区,下呉服町３番２３－４１０号,,40,132,8120034,,,,,,,2023-06-06,1,,,,,メデックス,0
2205,7290801029582,新規,0,2023-06-06,2023-06-06,ＡｉｒＣｒｅａｔｅ株式会社,,株式会社,福岡県,宮若市,高野１５番地８,,40,226,8220143,,,,,,,2023-06-06,1,,,,,エアークリエイト,0
2209,7320001019819,新規,0,2023-06-06,2023-06-06,株式会社ＦＥＤＡＬ　ＷＯＲＫＳ,,株式会社,大分県,大分市,大字光吉１６２４番地の６９,,44,201,8701132,,,,,,,2023-06-06,1,,,,,フェダルワークス,0
2211,7330001030948,新規,0,2023-06-06,2023-06-06,株式会社Ｌ‐ｍａｒｋｅｔｉｎｇ,,株式会社,熊本県,熊本市中央区,花畑町１番１４号Ａ＆ＭＨＡＮＡＢＡＴＡ３０１号,,43,101,8600806,,,,,,,2023-06-06,1,,,,,エルマーケティング,0
2221,7360001032116,新規,0,2023-06-06,2023-06-06,株式会社Ｍｅｌｉａ’ｓ,,株式会社,沖縄県,浦添市,港川２丁目８番２号,,47,208,9012134,,,,,,,2023-06-06,1,,,,,メリアズ,0
2222,7360001032124,新規,0,2023-06-06,2023-06-06,株式会社ドリームライト,,株式会社,沖縄県,浦添市,牧港４丁目１０番２－４０５号,,47,208,9012131,,,,,,,2023-06-06,1,,,,,ドリームライト,0
2223,7360003013031,新規,0,2023-06-06,2023-06-06,合同会社光工業,,合同会社,沖縄県,宮古島市,平良字西里１７２３番地１７,,47,214,9060012,,,,,,,2023-06-06,1,,,,,ヒカリコウギョウ,0
2226,7370005010637,新規,0,2023-06-06,2023-06-06,一般社団法人ａｒｉ,,その他の設立登記法人,宮城県,仙台市青葉区,国分町１丁目４－９,,04,101,9800803,,,,,,,2023-06-06,1,,,,,アリ,0
2229,7400001016270,新規,0,2023-06-06,2023-06-06,正栄株式会社,,株式会社,岩手県,宮古市,藤の川６番１７号,,03,202,0270029,,,,,,,2023-06-06,1,,,,,ショウエイ,0
2230,7410001013507,新規,0,2023-06-06,2023-06-06,株式会社ｅ‐住まいる不動産,,株式会社,秋田県,秋田市,八橋田五郎１丁目６番１１号,,05,201,0100972,,,,,,,2023-06-06,1,,,,,イースマイルフドウサン,0
2232,7420003002738,新規,0,2023-06-06,2023-06-06,合同会社スカイアース,,合同会社,青森県,三戸郡階上町,大字道仏字耳ケ吠３番地４００,,02,446,0391201,,,,,,,2023-06-06,1,,,,,スカイアース,0
2237,7430001089272,新規,0,2023-06-06,2023-06-06,株式会社レバンテ,,株式会社,北海道,札幌市中央区,北六条西２５丁目２番５号Ｅ－ｈｏｒｉｚｏｎ北円山ＢＬＤ４Ｆ,,01,101,0600006,,,,,,,2023-06-06,1,,,,,レバンテ,0
2238,7430003000162,新規,0,2023-06-06,2023-06-06,合資会社向井,,合資会社,北海道,札幌市中央区,北二条西１３丁目１番地１０,,01,101,0600002,,,,,,,2023-06-06,1,,,,,ムカイ,0
2239,7440001009270,新規,0,2023-06-06,2023-06-06,金丸地質株式会社,,株式会社,北海道,亀田郡七飯町,鳴川２丁目４番９号,,01,337,0411112,,,,,,,2023-06-06,1,,,,,カナマルチシツ,0
2241,7450001014014,新規,0,2023-06-06,2023-06-06,株式会社ＣＯＬＯＲ,,株式会社,北海道,旭川市,忠和七条３丁目４番２４号,,01,204,0708047,,,,,,,2023-06-06,1,,,,,カラー,0
2252,7490001010496,新規,0,2023-06-06,2023-06-06,株式会社土佐黒潮マシナリー,,株式会社,高知県,香南市,野市町西野１３４６番地１武内マンション３０６号,,39,211,7815232,,,,,,,2023-06-06,1,,,,,トサクロシオマシナリー,0
2256,7700150044802,新規,0,2023-06-06,2015-10-09,静岡県公立小中学校教頭会,,その他,静岡県,静岡市葵区,駿府町１―１２県教育会館内,,22,101,4200856,,,,,,,2015-10-09,1,,,,,シズオカケンコウリツシヨウチユウガツコウキヨウトウカイ,0
2257,7700150116931,新規,0,2023-06-06,2023-06-06,ｓｈｅｎｚｈｅｎｓｈｉ　ｌｉｎｇｙｕｅｘｕｎｍａｏｙｉｙｏｕｘｉａｎｇｏｎｇｓｉ,,外国会社等,,,,,,,,ｌｕｏｈｕｑｕｈｕａｎｇｂｅｉｊｉｅｄａｏｙａｎｈｅｂｅｉｌｕ　１００２ｒｕｉｓｉｇｕｏｊｉｇｏｎｇｙｕｌｏｕ８Ｃ　ｓｈｅｎｚｈｅｎｓｈｉ　ｇｕａｎｇｄｏｎｇｓｈｅｎｇ　５１８００１　ＣＮ,,,,,,2023-06-06,1,,,,,シェンジェンシーリンユエシンマオイーヨウシエンゴンスー,0
2275,8010001235834,新規,0,2023-06-06,2023-06-06,株式会社エス,,株式会社,東京都,中央区,入船３丁目１－１３ＣＥＮＴＥＲ・ＶＩＬＬＡＧＥ築地４Ｆ,,13,102,1040042,,,,,,,2023-06-06,1,,,,,エス,0
2276,8010001235850,新規,0,2023-06-06,2023-06-06,ＢｅｒｕＦｉｔ株式会社,,株式会社,東京都,千代田区,九段南１丁目５番６号りそな九段ビル５ＦＫＳフロア,,13,101,1020074,,,,,,,2023-06-06,1,,,,,ベルフィット,0
2277,8010001235859,新規,0,2023-06-06,2023-06-06,株式会社オモテナ,,株式会社,東京都,中央区,日本橋茅場町２丁目１７番５号,,13,102,1030025,,,,,,,2023-06-06,1,,,,,オモテナ,0
2278,8010001235909,新規,0,2023-06-06,2023-06-06,株式会社細田カンパニー,,株式会社,東京都,中央区,晴海３丁目１６－１－１９０３,,13,102,1040053,,,,,,,2023-06-06,1,,,,,ホソダカンパニー,0
2281,8010003040778,新規,0,2023-06-06,2023-06-06,ｂｏｘｘ合同会社,,合同会社,東京都,中央区,佃２丁目１１－６－１３０５,,13,102,1040051,,,,,,,2023-06-06,1,,,,,ボックス,0
2282,8010003040794,新規,0,2023-06-06,2023-06-06,合同会社エスティエス,,合同会社,東京都,千代田区,神田東松下町３７番２号,,13,101,1010042,,,,,,,2023-06-06,1,,,,,エスティエス,0
2283,8010003040803,新規,0,2023-06-06,2023-06-06,えんの下の力持ち合同会社,,合同会社,東京都,中央区,銀座７丁目１３番６号サガミビル２階,,13,102,1040061,,,,,,,2023-06-06,1,,,,,エンノシタノチカラモチ,0
2284,8010005036782,新規,0,2023-06-06,2023-06-06,一般社団法人ＡＦＲＡ　ＮＡＮＡＪＯ,,その他の設立登記法人,東京都,千代田区,丸の内３丁目１番１号東京共同会計事務所内,,13,101,1000005,,,,,,,2023-06-06,1,,,,,エーエフアールエーナナジョウ,0
2291,8010401174244,新規,0,2023-06-06,2023-06-06,久正株式会社,,株式会社,東京都,港区,浜松町２丁目２番１５号２Ｆ,,13,103,1050013,,,,,,,2023-06-06,1,,,,,キュウセイ,0
2307,8010701044353,新規,0,2023-06-06,2023-06-06,株式会社ＵＤ,,株式会社,東京都,品川区,小山４丁目５番２０号和光ビル２０１,,13,109,1420062,,,,,,,2023-06-06,1,,,,,ユーディー,0
2308,8010701044378,新規,0,2023-06-06,2023-06-06,株式会社ＡＩｂｉｚ,,株式会社,東京都,品川区,上大崎３丁目２番１号,,13,109,1410021,,,,,,,2023-06-06,1,,,,,エーアイビズ,0
2310,8010703006723,新規,0,2023-06-06,2023-06-06,ビーアスピレーション合同会社,,合同会社,東京都,品川区,西大井３丁目１５－５,,13,109,1400015,,,,,,,2023-06-06,1,,,,,ビーアスピレーション,0
2312,8010801034015,新規,0,2023-06-06,2023-06-06,株式会社松原電機製作所,,株式会社,東京都,大田区,西六郷１丁目２５番２２号,,13,111,1440056,,,,,,,2023-06-06,1,,,,,マツバラデンキセイサクショ,0
2320,8011001154818,新規,0,2023-06-06,2023-06-06,株式会社ＥＢＵＬＬＩＥＮＣＥ,,株式会社,東京都,渋谷区,渋谷２丁目１番１号,,13,113,1500002,,,,,,,2023-06-06,1,,,,,エブリエンス,0
2321,8011001154826,新規,0,2023-06-06,2023-06-06,株式会社ｔｒｉｓｐｅｃｔ,,株式会社,東京都,渋谷区,渋谷２丁目１９番１５号宮益坂ビルディング６０９,,13,113,1500002,,,,,,,2023-06-06,1,,,,,トライスペクト,0
2322,8011001154834,新規,0,2023-06-06,2023-06-06,株式会社セルメディカル,,株式会社,東京都,渋谷区,神宮前６丁目２３番４号桑野ビル２階,,13,113,1500001,,,,,,,2023-06-06,1,,,,,セルメディカル,0
2323,8011001154867,新規,0,2023-06-06,2023-06-06,ｍｅｔｉｍｅ株式会社,,株式会社,東京都,渋谷区,千駄ヶ谷３丁目５３番１３号エルミタージュ原宿４０３,,13,113,1510051,,,,,,,2023-06-06,1,,,,,ミータイム,0
2324,8011001154909,新規,0,2023-06-06,2023-06-06,天盛株式会社,,株式会社,東京都,渋谷区,代々木２丁目２３番１－１２３０号,,13,113,1510053,,,,,,,2023-06-06,1,,,,,テンセイ,0
2325,8011003016941,新規,0,2023-06-06,2023-06-06,合同会社九九,,合同会社,東京都,渋谷区,道玄坂１丁目１０番８号渋谷道玄坂東急ビル２Ｆ－Ｃ,,13,113,1500043,,,,,,,2023-06-06,1,,,,,ナインズ,0
2333,8011101103146,新規,0,2023-06-06,2023-06-06,株式会社ＣＯＺ,,株式会社,東京都,新宿区,大久保２丁目６番１６号平安ビル７Ｂ,,13,104,1690072,,,,,,,2023-06-06,1,,,,,シーオーゼット,0
2334,8011105010677,新規,0,2023-06-06,2023-06-06,一般社団法人性健康知識未来科学技術協会,,その他の設立登記法人,東京都,新宿区,新宿１丁目３６－２新宿第七葉山ビル３Ｆ,,13,104,1600022,,,,,,,2023-06-06,1,,,,,セイケンコウチシキミライカガクギジュツキョウカイ,0
2337,8011201024696,新規,0,2023-06-06,2023-06-06,株式会社ＢＲＩＧＨＴ,,株式会社,東京都,中野区,本町４丁目３０番２３－１００２号,,13,114,1640012,,,,,,,2023-06-06,1,,,,,ブライト,0
2345,8011501029379,新規,0,2023-06-06,2023-06-06,株式会社ＢＯＯＭ,,株式会社,東京都,北区,滝野川５丁目５番５号シンエイビル８階,,13,117,1140023,,,,,,,2023-06-06,1,,,,,ブーム,0
2348,8011601026879,新規,0,2023-06-06,2023-06-06,株式会社春日工務店,,株式会社,東京都,練馬区,南大泉３丁目１番５号,,13,120,1780064,,,,,,,2023-06-06,1,,,,,カスガコウムテン,0
2350,8011603003942,新規,0,2023-06-06,2023-06-06,冒険デジタルクリエイト合同会社,,合同会社,東京都,練馬区,東大泉３丁目２９番２１号,,13,120,1780063,,,,,,,2023-06-06,1,,,,,ボウケンデジタルクリエイト,0
2352,8011701026275,新規,0,2023-06-06,2023-06-06,ＰＲＯＳＴＥＭＩＣＳ　ＩＮＴＥＲＮＡＴＩＯＮＡＬ株式会社,,株式会社,東京都,江戸川区,西一之江１丁目３番１３号１Ｆ,,13,123,1320023,,,,,,,2023-06-06,1,,,,,プロステミクスインターナショナル,0
2353,8011701026291,新規,0,2023-06-06,2023-06-06,株式会社ＳＴマネージメント,,株式会社,東京都,江戸川区,上篠崎２丁目１５番１７号,,13,123,1330054,,,,,,,2023-06-06,1,,,,,エスティーマネージメント,0
2358,8011803005672,新規,0,2023-06-06,2023-06-06,サリオス合同会社,,合同会社,東京都,葛飾区,奥戸８丁目１１番７－５０１号レクセルガーデン小岩,,13,122,1240022,,,,,,,2023-06-06,1,,,,,サリオス,0
2359,8012301013473,新規,0,2023-06-06,2023-06-06,株式会社武相ブリュワリー,,株式会社,東京都,町田市,原町田６丁目９番８号４Ｆ,,13,209,1940013,,,,,,,2023-06-06,1,,,,,ブソウブリュワリー,0
2364,8012801022404,新規,0,2023-06-06,2023-06-06,株式会社Ｂａｌａｅｎａ,,株式会社,東京都,昭島市,中神町２丁目３６番１６号,,13,207,1960022,,,,,,,2023-06-06,1,,,,,バーラエナ,0
2365,8012801022412,新規,0,2023-06-06,2023-06-06,アンビ株式会社,,株式会社,東京都,立川市,曙町２丁目８番２８号,,13,202,1900012,,,,,,,2023-06-06,1,,,,,アンビ,0
2366,8012803003096,新規,0,2023-06-06,2023-06-06,Ｍａｎｏｓ合同会社,,合同会社,東京都,国立市,東１丁目８番地の２国立東壱番館４０１,,13,215,1860002,,,,,,,2023-06-06,1,,,,,マノス,0
2367,8012805003202,新規,0,2023-06-06,2023-06-06,一般社団法人ＳＥＲＰＥＮＴＳ　Ｍａｎａｇｅｍｅｎｔ,,その他の設立登記法人,東京都,国分寺市,北町４丁目１２番地９,,13,214,1850001,,,,,,,2023-06-06,1,,,,,サーペンツマネジメント,0
2370,8013301050853,新規,0,2023-06-06,2023-06-06,一善株式会社,,株式会社,東京都,豊島区,池袋２丁目５９番２－７０２号,,13,116,1710014,,,,,,,2023-06-06,1,,,,,イチゼン,0
2377,8020001151898,新規,0,2023-06-06,2023-06-06,株式会社ココサポ,,株式会社,神奈川県,川崎市宮前区,西野川２丁目２９番４２号,,14,136,2160044,,,,,,,2023-06-06,1,,,,,ココサポ,0
2378,8020001151956,新規,0,2023-06-06,2023-06-06,株式会社雫,,株式会社,神奈川県,横浜市西区,浅間町１丁目４番地３ウィザードビル４０２,,14,103,2200072,,,,,,,2023-06-06,1,,,,,シズク,0
2380,8021001079221,新規,0,2023-06-06,2023-06-06,株式会社ＲＥＬＡＭ,,株式会社,神奈川県,鎌倉市,岩瀬１丁目２番１－４４７号,,14,204,2470051,,,,,,,2023-06-06,1,,,,,リラム,0
2384,8021003013161,新規,0,2023-06-06,2023-06-06,アークアッタ合同会社,,合同会社,神奈川県,厚木市,妻田東３丁目１０番３６,,14,212,2430813,,,,,,,2023-06-06,1,,,,,アークアッタ,0
2393,8030001153794,新規,0,2023-06-06,2023-06-06,Ｑｕａｌｉｔｙ　Ｌｉｆｅ　Ｃｏｎｓｕｌｔｉｎｇ株式会社,,株式会社,埼玉県,さいたま市浦和区,常盤９丁目１５－２０ザ・パークハウス浦和常盤４０５,,11,107,3300061,,,,,,,2023-06-06,1,,,,,クオリティライフコンサルティング,0
2400,8040001128622,新規,0,2023-06-06,2023-06-06,イシダホールディングス株式会社,,株式会社,千葉県,市原市,ちはら台東４丁目７番地７,,12,219,2900141,,,,,,,2023-06-06,1,,,,,イシダホールディングス,0
2401,8040001128647,新規,0,2023-06-06,2023-06-06,横信株式会社,,株式会社,千葉県,印西市,西の原４丁目５－１２,,12,231,2701334,,,,,,,2023-06-06,1,,,,,ヨコシン,0
2402,8040001128671,新規,0,2023-06-06,2023-06-06,金隆実業株式会社,,株式会社,千葉県,船橋市,海神１丁目３番６号,,12,204,2730021,,,,,,,2023-06-06,1,,,,,キンリュウジツギョウ,0
2403,8040001128738,新規,0,2023-06-06,2023-06-06,株式会社ｈｙｈｏｍｅ,,株式会社,千葉県,野田市,山崎１６４５番地の２４,,12,208,2780022,,,,,,,2023-06-06,1,,,,,エイチワイホーム,0
2404,8040001128754,新規,0,2023-06-06,2023-06-06,株式会社Ｂｅ　ｎａｔｕｒａｌ．Ｂｅ　ｙｏｕｒｓｅｌｆ．,,株式会社,千葉県,柏市,千代田３丁目１５番１号,,12,217,2770025,,,,,,,2023-06-06,1,,,,,ビーナチュラルビーユアセルフ,0
2409,8040003022749,新規,0,2023-06-06,2023-06-06,ナツイデザイン合同会社,,合同会社,千葉県,市原市,椎津１１００番地２,,12,219,2990118,,,,,,,2023-06-06,1,,,,,ナツイデザイン,0
2410,8050001052912,新規,0,2023-06-06,2023-06-06,株式会社ＲＩＶＥＬＩ　ＨＯＯＤ,,株式会社,茨城県,水戸市,見川町２５１３－２,,08,201,3100913,,,,,,,2023-06-06,1,,,,,ライブリーフッド,0
2413,8060001036047,新規,0,2023-06-06,2023-06-06,株式会社ＷＨＩＴＥＮＯＴＥ,,株式会社,栃木県,那須郡那須町,大字高久乙１４２番地１９,,09,407,3250303,,,,,,,2023-06-06,1,,,,,ホワイトノート,0
2414,8060001036055,新規,0,2023-06-06,2023-06-06,株式会社ＴＥＮＣＯＬＯＲ,,株式会社,栃木県,宇都宮市,本町１０番３号ＴＳビル５Ｆ北,,09,201,3200033,,,,,,,2023-06-06,1,,,,,テンカラー,0
2418,8070001040510,新規,0,2023-06-06,2023-06-06,株式会社Ｂａｓｓｅｔ,,株式会社,群馬県,前橋市,荒牧町１丁目１０番地７,,10,201,3710044,,,,,,,2023-06-06,1,,,,,ビーアセット,0
2424,8080001025659,新規,0,2023-06-06,2023-06-06,株式会社ＧｏｏＺＥＮラボ,,株式会社,静岡県,静岡市葵区,御幸町３番地の２１,,22,101,4200857,,,,,,,2023-06-06,1,,,,,グーゼンラボ,0
2426,8080101024049,新規,0,2023-06-06,2023-06-06,株式会社ｐａｒｖａｔ　ｓｔｕｄｉｏ,,株式会社,静岡県,御殿場市,深沢３１３番地の１２,,22,215,4120023,,,,,,,2023-06-06,1,,,,,パルヴァスタジオ,0
2427,8080103002820,新規,0,2023-06-06,2023-06-06,合同会社脱力,,合同会社,静岡県,富士市,中島１９５番地の９,,22,210,4160907,,,,,,,2023-06-06,1,,,,,ダツリョク,0
2436,8100003007041,新規,0,2023-06-06,2023-06-06,オリガミ合同会社,,合同会社,長野県,北安曇郡白馬村,大字神城二ツ屋２７７２１番４８２,,20,485,3999211,,,,,,,2023-06-06,1,,,,,オリガミ,0
2439,8110001037576,新規,0,2023-06-06,2023-06-06,株式会社モアソビ,,株式会社,新潟県,新潟市中央区,本町通７番町１０９８番地１,,15,103,9518067,,,,,,,2023-06-06,1,,,,,モアソビ,0
2440,8110001037584,新規,0,2023-06-06,2023-06-06,古桝屋株式会社,,株式会社,新潟県,長岡市,神田町３丁目１番地１,,15,202,9400052,,,,,,,2023-06-06,1,,,,,コマスヤ,0
2457,8120001255292,新規,0,2023-06-06,2023-06-06,阜＿株式会社,00130741,株式会社,大阪府,大阪市東成区,深江北３丁目４番２１号エクラ深江橋１１０Ａ,,27,115,5370001,,,,,,,2023-06-06,1,,,,,フゴウ,0
2458,8120001255359,新規,0,2023-06-06,2023-06-06,株式会社Ｍａｓｙｕｚ,,株式会社,大阪府,大阪市西区,北堀江１丁目１番１８号,,27,106,5500014,,,,,,,2023-06-06,1,,,,,マシューズ,0
2459,8120001255383,新規,0,2023-06-06,2023-06-06,株式会社ファースト・ケア,,株式会社,大阪府,守口市,長池町６－３－１０１,,27,209,5700064,,,,,,,2023-06-06,1,,,,,ファーストケア,0
2460,8120001255433,新規,0,2023-06-06,2023-06-06,Ｐｅｒｓｏｎ株式会社,,株式会社,大阪府,門真市,上野口町５９番２０号,,27,223,5710070,,,,,,,2023-06-06,1,,,,,パーソン,0
2461,8120001255508,新規,0,2023-06-06,2023-06-06,株式会社飯塚フードビジネスコンサルタンツ,,株式会社,大阪府,大阪市中央区,南新町１丁目２－４椿本ビル７０４,,27,128,5400024,,,,,,,2023-06-06,1,,,,,イイヅカフードビジネスコンサルタンツ,0
2462,8120003024225,新規,0,2023-06-06,2023-06-06,ＴＭフルネス合同会社,,合同会社,大阪府,大阪市北区,梅田１丁目２番２－２００号大阪駅前第２ビル２階３の１の２,,27,127,5300001,,,,,,,2023-06-06,1,,,,,ティーエムフルネス,0
2463,8120003024233,新規,0,2023-06-06,2023-06-06,合同会社ＢＯＸ,,合同会社,大阪府,大阪市住之江区,新北島８丁目２番５５号,,27,125,5590024,,,,,,,2023-06-06,1,,,,,ボックス,0
2468,8120103005249,新規,0,2023-06-06,2023-06-06,ＴＨ　ＳＯＲＡＩ合同会社,,合同会社,大阪府,堺市中区,新家町３４６番地９,,27,142,5998232,,,,,,,2023-06-06,1,,,,,テソライ,0
2474,8122001037043,新規,0,2023-06-06,2023-06-06,株式会社ＩＧＵＣＨＩ,,株式会社,大阪府,八尾市,老原３丁目１番地の５,,27,212,5810092,,,,,,,2023-06-06,1,,,,,イグチ,0
2477,8122003002598,新規,0,2023-06-06,2023-06-06,合同会社ｓａｋｕｒａｓｌｏｔｈｉｅｓ,,合同会社,大阪府,四條畷市,西中野１丁目９番１０号,,27,229,5750055,,,,,,,2023-06-06,1,,,,,サクラスローシーズ,0
2479,8130001074452,新規,0,2023-06-06,2023-06-06,株式会社ＴＩＭＢＥＲ,,株式会社,京都府,京都市中京区,堺町通蛸薬師下る菊屋町５１３番地１,,26,104,6048127,,,,,,,2023-06-06,1,,,,,ティンバー,0
2482,8140003019181,新規,0,2023-06-06,2023-06-06,合同会社舞Ｃｏｒｅ,,合同会社,兵庫県,神戸市須磨区,戎町３丁目１番８号,,28,107,6540023,,,,,,,2023-06-06,1,,,,,マイコア,0
2484,8160001025097,新規,0,2023-06-06,2023-06-06,株式会社ＭＩＫＯＴＯ,,株式会社,滋賀県,守山市,岡町１１５－１６,,25,207,5240032,,,,,,,2023-06-06,1,,,,,ミコト,0
2486,8160003002895,新規,0,2023-06-06,2023-06-06,合同会社和詩,,合同会社,滋賀県,大津市,緑町２２番１号,,25,201,5200221,,,,,,,2023-06-06,1,,,,,ナゴネ,0
2496,8180001156543,新規,0,2023-06-06,2023-06-06,株式会社ぽん,,株式会社,愛知県,名古屋市緑区,鶴が沢１丁目１３０７番地,,23,114,4580814,,,,,,,2023-06-06,1,,,,,ポン,0
2497,8180001156551,新規,0,2023-06-06,2023-06-06,ＳＭＸ株式会社,,株式会社,愛知県,名古屋市中区,丸の内１丁目１５番２０号,,23,106,4600002,,,,,,,2023-06-06,1,,,,,エスエムエックス,0
2498,8180001156634,新規,0,2023-06-06,2023-06-06,株式会社プリテックガード,,株式会社,愛知県,名古屋市名東区,藤森１丁目２番地,,23,115,4650026,,,,,,,2023-06-06,1,,,,,プリテックガード,0
2502,8180003025309,新規,0,2023-06-06,2023-06-06,合同会社Ｓａｎａｔ,,合同会社,愛知県,名古屋市千種区,仲田２丁目５番１７号,,23,101,4640074,,,,,,,2023-06-06,1,,,,,サナット,0
2505,8180301037435,新規,0,2023-06-06,2023-06-06,株式会社グレイス,,株式会社,愛知県,豊橋市,下地町１丁目６７番地,,23,201,4400085,,,,,,,2023-06-06,1,,,,,グレイス,0
2510,8190003004336,新規,0,2023-06-06,2023-06-06,Ａ‐ｓｔｕｄｉｏ合同会社,,合同会社,三重県,松阪市,愛宕町３丁目１０番地,,24,204,5150037,,,,,,,2023-06-06,1,,,,,エースタジオ,0
2511,8200001041354,新規,0,2023-06-06,2023-06-06,株式会社ＮＩＮＡ　Ｐｒｉｍａｒｙ　Ｐｉｃｔｕｒｅｓ,,株式会社,岐阜県,瑞穂市,犀川６丁目８番地,,21,216,5010237,,,,,,,2023-06-06,1,,,,,ニーナプライマリーピクチャーズ,0
2512,8200001041387,新規,0,2023-06-06,2023-06-06,ゴトー建築株式会社,,株式会社,岐阜県,美濃市,極楽寺８５８番地２,,21,207,5013763,,,,,,,2023-06-06,1,,,,,,0
2513,8210001008030,新規,0,2023-06-06,2023-06-06,株式会社ザム福井,,株式会社,福井県,福井市,西開発４丁目１０５番地,,18,201,9100843,,,,,,,2023-06-06,1,,,,,ザムフクイ,0
2515,8220001025438,新規,0,2023-06-06,2023-06-06,環境開発ホールディングス株式会社,,株式会社,石川県,金沢市,大桑町上猫下４番地７,,17,201,9218046,,,,,,,2023-06-06,1,,,,,カンキョウカイハツホールディングス,0
2517,8230001019868,新規,0,2023-06-06,2023-06-06,株式会社菊組,,株式会社,富山県,射水市,堀岡古明神３４１番地１３,,16,211,9330224,,,,,,,2023-06-06,1,,,,,キクグミ,0
2522,8250001020122,新規,0,2023-06-06,2023-06-06,株式会社ＢＯＳ,,株式会社,山口県,下関市,竹崎町３丁目２番１８号,,35,201,7500025,,,,,,,2023-06-06,1,,,,,ビーオーエス,0
2523,8250003003281,新規,0,2023-06-06,2023-06-06,ＤＫｗｏｒｋｓ合同会社,,合同会社,山口県,下松市,南花岡７丁目２番３０号コンフレール末武２０１号,,35,207,7440027,,,,,,,2023-06-06,1,,,,,ディーケーワークス,0
2528,8260001037999,新規,0,2023-06-06,2023-06-06,クロスコアテクノロジー株式会社,,株式会社,岡山県,倉敷市,福田町古新田９２３‐７,,33,202,7128046,,,,,,,2023-06-06,1,,,,,クロスコアテクノロジー,0
2529,8260001038015,新規,0,2023-06-06,2023-06-06,株式会社西日本設備,,株式会社,岡山県,津山市,国分寺２３２番地５,,33,203,7080843,,,,,,,2023-06-06,1,,,,,ニシニホンセツビ,0
2534,8290001101819,新規,0,2023-06-06,2023-06-06,株式会社ＥＡＲＴＨ　ＯＣＥＡＮ,,株式会社,福岡県,福岡市博多区,博多駅東１丁目１０番２３号１階,,40,132,8120013,,,,,,,2023-06-06,1,,,,,アースオーシャン,0
2536,8290003014003,新規,0,2023-06-06,2023-06-06,合同会社えとう,,合同会社,福岡県,福津市,津屋崎４丁目４番１号,,40,224,8113304,,,,,,,2023-06-06,1,,,,,エトウ,0
2540,8290803004426,新規,0,2023-06-06,2023-06-06,真絆合同会社,,合同会社,福岡県,京都郡苅田町,大字鋤崎５２７番地,,40,621,8000332,,,,,,,2023-06-06,1,,,,,シンキ,0
2547,8330003009865,新規,0,2023-06-06,2023-06-06,合同会社あおい,,合同会社,熊本県,熊本市南区,合志２丁目４－２３,,43,104,8614111,,,,,,,2023-06-06,1,,,,,アオイ,0
2549,8340001025624,新規,0,2023-06-06,2023-06-06,株式会社平岩電気管理事務所,,株式会社,鹿児島県,出水市,知識町３５４番地１,,46,208,8990211,,,,,,,2023-06-06,1,,,,,ヒライワデンキカンリジムショ,0
2553,8360001032107,新規,0,2023-06-06,2023-06-06,株式会社Ｔｏｐ　Ｂｌｕｅ　Ｏｃｅａｎ,,株式会社,沖縄県,国頭郡恩納村,字名嘉真２２８８番地６２５,,47,311,9040401,,,,,,,2023-06-06,1,,,,,トップブルーオーシャン,0
2554,8360001032115,新規,0,2023-06-06,2023-06-06,株式会社みらい,,株式会社,沖縄県,宜野湾市,真志喜３丁目１３番２３号,,47,205,9012224,,,,,,,2023-06-06,1,,,,,ミライ,0
2555,8370001050058,新規,0,2023-06-06,2023-06-06,株式会社グランジュテ・インスティテュート,,株式会社,宮城県,仙台市青葉区,宮町５丁目１０番１０号ＭＦＰＲコート宮町,,04,101,9800004,,,,,,,2023-06-06,1,,,,,グランジュテインスティテュート,0
2559,8370003006165,新規,0,2023-06-06,2023-06-06,合同会社今日一日,,合同会社,宮城県,仙台市青葉区,二日町１７番２１号北四ビル,,04,101,9800802,,,,,,,2023-06-06,1,,,,,キョウイチニチ,0
2565,8400001016278,新規,0,2023-06-06,2023-06-06,株式会社Ｙ‐ＴＲＵＳＴ,,株式会社,岩手県,滝沢市,鵜飼諸葛川１４番地１佐藤貸家２号,,03,216,0200663,,,,,,,2023-06-06,1,,,,,ワイトラスト,0
2567,8400003003092,新規,0,2023-06-06,2023-06-06,合同会社ペチカ,,合同会社,岩手県,滝沢市,鵜飼大緩３９番地２６,,03,216,0200662,,,,,,,2023-06-06,1,,,,,ペチカ,0
2569,8410001013506,新規,0,2023-06-06,2023-06-06,株式会社ＦＵＪＩ　ＣＯＬＯＲ　ＴＥＣＨ,,株式会社,秋田県,秋田市,茨島６丁目２０番３号,00130740,05,201,0100065,,,,,,,2023-06-06,1,,,,,フジカラーテック,0
2572,8430003015110,新規,0,2023-06-06,2023-06-06,合同会社Ｋ．ｃｏｎｖｅｙ,,合同会社,北海道,札幌市白石区,東札幌五条６丁目１番７号,,01,104,0030005,,,,,,,2023-06-06,1,,,,,ケーコンヴェイ,0
2575,8470003002435,新規,0,2023-06-06,2023-06-06,ＩＭＧＳ合同会社,,合同会社,香川県,高松市,田村町４１６番地１フルールＭ２０１,,37,201,7618057,,,,,,,2023-06-06,1,,,,,アイエムジーエス,0
2578,8500001024980,新規,0,2023-06-06,2023-06-06,秦自動車工業株式会社,,株式会社,愛媛県,西条市,飯岡３５６６番地,,38,206,7930010,,,,,,,2023-06-06,1,,,,,ハダジドウシャコウギョウ,0
2579,8700150116930,新規,0,2023-06-06,2023-06-06,ｇｕａｎｇｚｈｏｕｈｏｎｇｔａｉｌａｉ　ｓｈａｎｇｍａｏｙｏｕｘｉａｎｇｏｎｇｓｉ,,外国会社等,,,,,,,,ｎａｎｓｈａｑｕｎａｎｓｈａｊｉｅ　ｈａｉｂｉｎｌｕ１３５ｈａｏ　ｇｕａｎｇｚｈｏｕｓｈｉ　ｇｕａｎｇｄｏｎｇｓｈｅｎｇ　５１１４５８　ＣＮ,,,,,,2023-06-06,1,,,,,グワンジョウホンタイライシャンマオヨウシエンゴンスー,0
2580,8700150116939,新規,0,2023-06-06,2023-06-06,Ｇｕａｎｇｚｈｏｕ　Ｓｈｕｎｍｉａｏ　Ｑｉｃｈｅ　Ｐｅｉｊｉａｎ　Ｙｏｕｘｉａｎ　Ｇｏｎｇｓｉ,,外国会社等,,,,,,,,Ｂａｉｙｕｎｑｕ　Ｈｅｌｏｎｇｊｉｅ　Ｈｅｌｏｎｇｄｏｎｇｌｕ　１５２ｈａｏ　６０２ｓｈｉ　Ｇｕａｎｇｚｈｏｕ　Ｇｕａｎｇｄｏｎｇ　５１０４４０　ＣＮ,,,,,,2023-06-06,1,,,,,グワンジョウシュンミャオチーチョーペイジエンヨウシエンゴンスー,0
2592,9010001235817,新規,0,2023-06-06,2023-06-06,株式会社Ａｉａｓ,,株式会社,東京都,中央区,銀座１丁目２２番１１号銀座大竹ビジデンス２Ｆ,,13,102,1040061,,,,,,,2023-06-06,1,,,,,アイアス,0
2593,9010001235866,新規,0,2023-06-06,2023-06-06,株式会社ポテフル,,株式会社,東京都,中央区,勝どき１丁目８番１－２４０２号,,13,102,1040054,,,,,,,2023-06-06,1,,,,,ポテフル,0
2594,9010001235899,新規,0,2023-06-06,2023-06-06,株式会社ウルティマトラベルクラブ,,株式会社,東京都,中央区,湊２丁目４番１号ＴＯＭＡＣビル５Ｆ,,13,102,1040043,,,,,,,2023-06-06,1,,,,,ウルティマトラベルクラブ,0
2595,9010001235916,新規,0,2023-06-06,2023-06-06,祥光商会株式会社,,株式会社,東京都,中央区,銀座１丁目１２番４号Ｎ＆ＥＢＬＤ．６Ｆ,,13,102,1040061,,,,,,,2023-06-06,1,,,,,ヨシミツショウカイ,0
2598,9010005036773,新規,0,2023-06-06,2023-06-06,土地家屋調査士法人みらい測量,,その他の設立登記法人,東京都,中央区,日本橋室町１丁目１０番１０号,,13,102,1030022,,,,,,,2023-06-06,1,,,,,ミライソクリョウ,0
2605,9010401174664,新規,0,2023-06-06,2023-06-06,株式会社Ｑａｎｄ,,株式会社,東京都,港区,芝５丁目３６番４号札の辻スクエア９Ｆ,,13,103,1080014,,,,,,,2023-06-06,1,,,,,クアンド,0
2606,9010401174763,新規,0,2023-06-06,2023-06-06,即今株式会社,,株式会社,東京都,港区,南青山３丁目１番３６号青山丸竹ビル６Ｆ,,13,103,1070062,,,,,,,2023-06-06,1,,,,,ソッコン,0
2607,9010401174788,新規,0,2023-06-06,2023-06-06,ネオスパイラル株式会社,,株式会社,東京都,港区,六本木５丁目２番３号９階,,13,103,1060032,,,,,,,2023-06-06,1,,,,,ネオスパイラル,0
2608,9010401174796,新規,0,2023-06-06,2023-06-06,株式会社ｏａｚｏ　ｐａｒｔｎｅｒ’ｓ,,株式会社,東京都,港区,六本木６丁目１番２０号,,13,103,1060032,,,,,,,2023-06-06,1,,,,,オアゾパートナーズ,0
2609,9010401174813,新規,0,2023-06-06,2023-06-06,株式会社日豊照明,,株式会社,東京都,港区,新橋６丁目４番３号ル・グラシエルＢＬＤＧ．７,,13,103,1050004,,,,,,,2023-06-06,1,,,,,ニッポウショウメイ,0
2610,9010401174821,新規,0,2023-06-06,2023-06-06,株式会社スタジオオーア,,株式会社,東京都,港区,芝５丁目３６番４号札の辻スクエア９Ｆ,,13,103,1080014,,,,,,,2023-06-06,1,,,,,スタジオオーア,0
2611,9010401174879,新規,0,2023-06-06,2023-06-06,株式会社稔企画,,株式会社,東京都,港区,浜松町２丁目２番１５号浜松町ダイヤビル２Ｆ,,13,103,1050013,,,,,,,2023-06-06,1,,,,,ミノリキカク,0
2612,9010403030246,新規,0,2023-06-06,2023-06-06,Ｉ．Ｐ．Ｍプロジェクトマネジメント合同会社,,合同会社,東京都,港区,南青山２丁目２番１５号,,13,103,1070062,,,,,,,2023-06-06,1,,,,,アイピーエムプロジェクトマネジメント,0
2613,9010403030254,新規,0,2023-06-06,2023-06-06,ＩＮＴＥＲＮＡＴＩＯＮＡＬ美しい合同会社,,合同会社,東京都,港区,六本木７丁目１８番５－１１１号,,13,103,1060032,,,,,,,2023-06-06,1,,,,,インターナショナルウツクシイ,0
2614,9010403030262,新規,0,2023-06-06,2023-06-06,コー・ストーリーズ合同会社,,合同会社,東京都,港区,南青山７丁目１３‐２８キャプリース２００,,13,103,1070062,,,,,,,2023-06-06,1,,,,,コーストーリーズ,0
2615,9010501050443,新規,0,2023-06-06,2023-06-06,春森株式会社,,株式会社,東京都,台東区,台東１丁目２９番３－３１９号,,13,106,1100016,,,,,,,2023-06-06,1,,,,,ハルモリ,0
2616,9010501050550,新規,0,2023-06-06,2023-06-06,株式会社Ｗｏｓｅｔ,,株式会社,東京都,台東区,三筋１丁目６番２号,,13,106,1110055,,,,,,,2023-06-06,1,,,,,ウォゼット,0
2622,9010701044360,新規,0,2023-06-06,2023-06-06,株式会社ｉＳｐｒｏｕｔ,,株式会社,東京都,品川区,東品川３丁目２５番１７号エイトビル５階大場智税理士事務所内,,13,109,1400002,,,,,,,2023-06-06,1,,,,,アイスプラウト,0
2623,9010701044369,新規,0,2023-06-06,2023-06-06,アーケストレージ株式会社,,株式会社,東京都,品川区,小山３丁目２７－５,,13,109,1420062,,,,,,,2023-06-06,1,,,,,アーケストレージ,0
2624,9010701044377,新規,0,2023-06-06,2023-06-06,ａｍｉｃｕｓ株式会社,,株式会社,東京都,品川区,戸越６丁目９番３号アビタシオン島田３０２,,13,109,1420041,,,,,,,2023-06-06,1,,,,,アミカス,0
2625,9010703006722,新規,0,2023-06-06,2023-06-06,合同会社ダイナーベース,,合同会社,東京都,品川区,西品川３丁目７番３号２０１,,13,109,1410033,,,,,,,2023-06-06,1,,,,,ダイナーベース,0
2634,9010903008213,新規,0,2023-06-06,2023-06-06,合同会社山田弘樹撮影事務所,,合同会社,東京都,世田谷区,三軒茶屋１丁目５番２０－３０３号,,13,112,1540024,,,,,,,2023-06-06,1,,,,,ヤマダヒロキサツエイジムショ,0
2639,9011001154817,新規,0,2023-06-06,2023-06-06,株式会社ＧＲＡＣＥ　ＵＮＤＥＲ　ＰＲＥＳＳＵＲＥ,,株式会社,東京都,渋谷区,渋谷２丁目１番１号,,13,113,1500002,,,,,,,2023-06-06,1,,,,,グレイスアンダープレッシャー,0
2640,9011001154866,新規,0,2023-06-06,2023-06-06,株式会社ＤＲＡＧＯＮ　ＤＲＯＮＥＳ,,株式会社,東京都,渋谷区,恵比寿１丁目１５番９号日宝恵比寿ビル４０３,,13,113,1500013,,,,,,,2023-06-06,1,,,,,ドラゴンドローンズ,0
2641,9011001154940,新規,0,2023-06-06,2023-06-06,株式会社アール企画,,株式会社,東京都,渋谷区,恵比寿３丁目３７番７号,,13,113,1500013,,,,,,,2023-06-06,1,,,,,アールキカク,0
2653,9011101103104,新規,0,2023-06-06,2023-06-06,レインボイス株式会社,,株式会社,東京都,新宿区,百人町２丁目２０番１号第２岡田屋ビル１Ｂ室,,13,104,1690073,,,,,,,2023-06-06,1,,,,,レインボイス,0
2654,9011101103129,新規,0,2023-06-06,2023-06-06,株式会社Ｕｎｚｅｒｏ,,株式会社,東京都,新宿区,西新宿３丁目３番１３号西新宿水間ビル２Ｆ,,13,104,1600023,,,,,,,2023-06-06,1,,,,,アンゼロ,0
2655,9011101103145,新規,0,2023-06-06,2023-06-06,株式会社セラヴィ,,株式会社,東京都,新宿区,西新宿３丁目３番１３号西新宿水間ビル２Ｆ,,13,104,1600023,,,,,,,2023-06-06,1,,,,,セラヴィ,0
2658,9011201024695,新規,0,2023-06-06,2023-06-06,株式会社Ｌｉｅｎ,,株式会社,東京都,中野区,中央１丁目１番１２号,,13,114,1640011,,,,,,,2023-06-06,1,,,,,リアン,0
2664,9011503005633,新規,0,2023-06-06,2023-06-06,ＪＭＣ合同会社,,合同会社,東京都,北区,西ケ原１丁目５２番１４－７０３号エスティア駒込,,13,117,1140024,,,,,,,2023-06-06,1,,,,,ジェイエムシー,0
2665,9011601026861,新規,0,2023-06-06,2023-06-06,株式会社ＫＭ．ｃｒｅａｔｉｏｎ５５５,,株式会社,東京都,練馬区,高松５丁目６番２１号,,13,120,1790075,,,,,,,2023-06-06,1,,,,,ケイエムクリエーションゴゴゴ,0
2669,9011603003941,新規,0,2023-06-06,2023-06-06,ＡＮＳ　ＩＮＴＥＲＮＡＴＩＯＮＡＬ合同会社,,合同会社,東京都,練馬区,田柄２丁目４８番８号サングリーン赤塚,00130728,13,120,1790073,,,,,,,2023-06-06,1,,,,,,0
2673,9011703003486,新規,0,2023-06-06,2023-06-06,ミルコーポレーション合同会社,,合同会社,東京都,江戸川区,小松川３丁目１３番２－５０８号,,13,123,1320034,,,,,,,2023-06-06,1,,,,,ミルコーポレーション,0
2674,9011801042510,新規,0,2023-06-06,2023-06-06,株式会社オーライソフト,,株式会社,東京都,葛飾区,奥戸４丁目２４番１２－７０２号,,13,122,1240022,,,,,,,2023-06-06,1,,,,,オーライソフト,0
2675,9011803005671,新規,0,2023-06-06,2023-06-06,エムエスリンク合同会社,,合同会社,東京都,葛飾区,四つ木１丁目２３番６号３０１,,13,122,1240011,,,,,,,2023-06-06,1,,,,,,0
2676,9012301013472,新規,0,2023-06-06,2023-06-06,株式会社ＡＢＥ,,株式会社,東京都,町田市,成瀬が丘２丁目１番３号ナルセ３３ハイム１－Ａ号室,,13,209,1940011,,,,,,,2023-06-06,1,,,,,エービーイー,0
2682,9012405004871,新規,0,2023-06-06,2023-06-06,一般社団法人法政大学理系コンソーシアム,,その他の設立登記法人,東京都,小金井市,梶野町３丁目７番２号,,13,210,1840002,,,,,,,2023-06-06,1,,,,,ホウセイダイガクリケイコンソーシアム,0
2685,9012801022411,新規,0,2023-06-06,2023-06-06,エム・ケー蓮田ＰＪ株式会社,,株式会社,東京都,日野市,大坂上１丁目３０番地２８ＭＫビル,,13,212,1910061,,,,,,,2023-06-06,1,,,,,エムケーハスダプロジェクト,0
2695,9020001151856,新規,0,2023-06-06,2023-06-06,株式会社Ｓｏｍａ　Ｓｔａｇｅ　Ｌａｂ,,株式会社,神奈川県,横浜市神奈川区,亀住町１６番地１新見亀住ビル１０２号,,14,102,2210041,,,,,,,2023-06-06,1,,,,,ソウマステイジラボ,0
2696,9020001151880,新規,0,2023-06-06,2023-06-06,株式会社ＡＩ　Ｏｆｆｉｃｅ,,株式会社,神奈川県,川崎市宮前区,鷺沼４丁目１４番地２鷺沼の杜Ｂー５０９,,14,136,2160004,,,,,,,2023-06-06,1,,,,,エーアイオフィス,0
2697,9020001151897,新規,0,2023-06-06,2023-06-06,株式会社Ｓｕｚｕ,,株式会社,神奈川県,横浜市港南区,港南６丁目２０番４－１号,,14,111,2330003,,,,,,,2023-06-06,1,,,,,スズ,0
2698,9020001151906,新規,0,2023-06-06,2023-06-06,株式会社Ｃｈｅｅｒｓ,,株式会社,神奈川県,横浜市戸塚区,舞岡町１２２番地６１,,14,110,2440813,,,,,,,2023-06-06,1,,,,,チアーズ,0
2699,9020001151930,新規,0,2023-06-06,2023-06-06,株式会社日新,,株式会社,神奈川県,川崎市川崎区,京町２丁目１番１－３０９号,,14,131,2100848,,,,,,,2023-06-06,1,,,,,ニッシン,0
2706,9020003023995,新規,0,2023-06-06,2023-06-06,合同会社ＴＫソリューションズ,,合同会社,神奈川県,川崎市多摩区,生田８丁目１６番４号,,14,135,2140038,,,,,,,2023-06-06,1,,,,,ティーケーソリューションズ,0
2728,9040001128621,新規,0,2023-06-06,2023-06-06,東興産業株式会社,,株式会社,千葉県,山武市,本須賀２６０６番地,,12,237,2891305,,,,,,,2023-06-06,1,,,,,トウコウサンギョウ,0
2729,9040001128729,新規,0,2023-06-06,2023-06-06,株式会社ｋ‐ｔｒｕｓｔ,,株式会社,千葉県,千葉市稲毛区,天台５丁目１４番１号インプレスト稲毛４０１号,,12,103,2630016,,,,,,,2023-06-06,1,,,,,ケイトラスト,0
2730,9040001128753,新規,0,2023-06-06,2023-06-06,ＭＯＴコンサルティング株式会社,,株式会社,千葉県,習志野市,谷津１丁目１５－２２－２１１５,,12,216,2750026,,,,,,,2023-06-06,1,,,,,エムオーティコンサルティング,0
2733,9040003022731,新規,0,2023-06-06,2023-06-06,合同会社Ｙ’ｓ　Ｌａｂ．,,合同会社,千葉県,市川市,島尻１番４４号,,12,203,2720145,,,,,,,2023-06-06,1,,,,,ワイズラボ,0
2734,9040005022028,新規,0,2023-06-06,2023-06-06,一般社団法人千葉県中小企業家同友会,,その他の設立登記法人,千葉県,千葉市中央区,富士見２丁目２２番２号,,12,101,2600015,,,,,,,2023-06-06,1,,,,,チバケンチュウショウキギョウカドウユウカイ,0
2736,9050001052936,新規,0,2023-06-06,2023-06-06,株式会社ニーナ,,株式会社,茨城県,ひたちなか市,大字津田２８２８－１,,08,221,3120032,,,,,,,2023-06-06,1,,,,,ニーナ,0
2737,9050003007558,新規,0,2023-06-06,2023-06-06,合同会社わかば,,合同会社,茨城県,筑西市,小川１１９１番地,,08,227,3080857,,,,,,,2023-06-06,1,,,,,ワカバ,0
2740,9060001036038,新規,0,2023-06-06,2023-06-06,ＩＭインターナショナル株式会社,,株式会社,栃木県,那須塩原市,東原３５３番地２,,09,213,3250034,,,,,,,2023-06-06,1,,,,,アイエムインターナショナル,0
2741,9060001036046,新規,0,2023-06-06,2023-06-06,株式会社センドオートサービス,,株式会社,栃木県,鹿沼市,茂呂２５３６番地７,,09,205,3220026,,,,,,,2023-06-06,1,,,,,センドオートサービス,0
2742,9060001036054,新規,0,2023-06-06,2023-06-06,株式会社ＢＥＧＳ,,株式会社,栃木県,宇都宮市,上金井町５７９番地１７,,09,201,3212115,,,,,,,2023-06-06,1,,,,,ベッグス,0
2747,9070003004966,新規,0,2023-06-06,2023-06-06,ＢＥＹＯＮＤ　ＶＥＮＴＵＲＥ合同会社,,合同会社,群馬県,桐生市,広沢町３丁目３５１８番地石関アパート１１,,10,203,3760013,,,,,,,2023-06-06,1,,,,,ビヨンドベンチャー,0
2749,9080101024064,新規,0,2023-06-06,2023-06-06,株式会社ＤＳＣ,,株式会社,静岡県,富士市,瓜島町２０１番地古郡商事ビル１階北側,,22,210,4170057,,,,,,,2023-06-06,1,,,,,ディーエスシー,0
2754,9080403004796,新規,0,2023-06-06,2023-06-06,合同会社カラン,,合同会社,静岡県,浜松市中区,萩丘５丁目８番１６号,,22,131,4338121,,,,,,,2023-06-06,1,,,,,カラン,0
2757,9100001036470,新規,0,2023-06-06,2023-06-06,株式会社柳澤製作所,,株式会社,長野県,上田市,真田町長４１９７番地４,,20,203,3862201,,,,,,,2023-06-06,1,,,,,ヤナギサワセイサクジョ,0
2758,9100001036479,新規,0,2023-06-06,2023-06-06,森ぐらし株式会社,,株式会社,長野県,北佐久郡軽井沢町,大字追分７１９番地４６,,20,321,3890115,,,,,,,2023-06-06,1,,,,,モリグラシ,0
2773,9120001255300,新規,0,2023-06-06,2023-06-06,昭＿株式会社,00130722,株式会社,大阪府,大阪市西成区,松２丁目７番２号,,27,122,5570034,,,,,,,2023-06-06,1,,,,,ショウコ,0
2774,9120001255374,新規,0,2023-06-06,2023-06-06,株式会社Ｔａｋｅ　ｏｎｅ,,株式会社,大阪府,大阪市西区,南堀江１丁目２１番１－８０１号,,27,106,5500015,,,,,,,2023-06-06,1,,,,,テイクワン,0
2775,9120001255449,新規,0,2023-06-06,2023-06-06,ｇｅｒｍｉｎａｎｄｏ株式会社,,株式会社,大阪府,大阪市中央区,平野町２丁目３番７号アーバンエース北浜ビル１階,,27,128,5410046,,,,,,,2023-06-06,1,,,,,ヘルミナンド,0
2778,9120003024208,新規,0,2023-06-06,2023-06-06,合同会社ＳＨＡＲＥＢＥ,,合同会社,大阪府,大阪市中央区,淡路町２丁目２番６‐２０５号,,27,128,5410047,,,,,,,2023-06-06,1,,,,,シェアビー,0
2779,9120003024232,新規,0,2023-06-06,2023-06-06,合同会社新以,,合同会社,大阪府,大阪市北区,梅田１丁目２－２大阪駅前第２ビル１２－１２,,27,127,5300001,,,,,,,2023-06-06,1,,,,,シンイ,0
2780,9120003024240,新規,0,2023-06-06,2023-06-06,Ｄ＆Ｙ合同会社,,合同会社,大阪府,大阪市北区,扇町２丁目６番１７－２７０２号,,27,127,5300025,,,,,,,2023-06-06,1,,,,,ディーアンドワイ,0
2782,9120101067629,新規,0,2023-06-06,2023-06-06,株式会社東山工業,,株式会社,大阪府,堺市中区,東山２８９－１,,27,142,5998247,,,,,,,2023-06-06,1,,,,,ヒガシヤマコウギョウ,0
2783,9120101067645,新規,0,2023-06-06,2023-06-06,株式会社中谷商店,,株式会社,大阪府,堺市中区,小阪３２７番地１,,27,142,5998276,,,,,,,2023-06-06,1,,,,,ナカヤショウテン,0
2784,9120103005248,新規,0,2023-06-06,2023-06-06,合同会社めぐみ,,合同会社,大阪府,泉南市,樽井６丁目１９－７,,27,228,5900521,,,,,,,2023-06-06,1,,,,,メグミ,0
2785,9120103005256,新規,0,2023-06-06,2023-06-06,合同会社ミテソロ,,合同会社,大阪府,岸和田市,西之内町３－２２,,27,202,5960044,,,,,,,2023-06-06,1,,,,,ミテソロ,0
2789,9120901047623,新規,0,2023-06-06,2023-06-06,エムケイ株式会社,,株式会社,大阪府,吹田市,日の出町２６－９中野マンション１０１,,27,205,5640023,,,,,,,2023-06-06,1,,,,,エムケイ,0
2799,9130001074443,新規,0,2023-06-06,2023-06-06,株式会社イーグル,,株式会社,京都府,京都市右京区,西院安塚町９２番地,,26,108,6150051,,,,,,,2023-06-06,1,,,,,イーグル,0
2800,9130001074468,新規,0,2023-06-06,2023-06-06,龍源株式会社,,株式会社,京都府,京都市南区,戒光寺町１８６シャンクレールＩＶ１０１,00130725,26,107,6018406,,,,,,,2023-06-06,1,,,,,リュウゲン,0
2801,9130001074484,新規,0,2023-06-06,2023-06-06,株式会社アンジュエット,,株式会社,京都府,京都市中京区,富小路通御池下る松下町１３５番地３コスモシティ御池富小路６０６号,,26,104,6048093,,,,,,,2023-06-06,1,,,,,アンジュエット,0
2802,9130001074501,新規,0,2023-06-06,2023-06-06,フォーミラ株式会社,,株式会社,京都府,京都市山科区,御陵封ジ山町７－４６・１Ｆ,,26,110,6078422,,,,,,,2023-06-06,1,,,,,フォーミラ,0
2806,9140003019180,新規,0,2023-06-06,2023-06-06,合同会社自己ジツゲン,,合同会社,兵庫県,神戸市中央区,磯辺通１丁目１番１８号,,28,110,6510084,,,,,,,2023-06-06,1,,,,,ジコジツゲン,0
2808,9160001025088,新規,0,2023-06-06,2023-06-06,株式会社二階堂建設,,株式会社,滋賀県,栗東市,苅原２４８番地（２０６号）クレフ,,25,208,5203032,,,,,,,2023-06-06,1,,,,,ニカイドウケンセツ,0
2812,9170003001879,新規,0,2023-06-06,2023-06-06,合同会社Ｓｏｌｏ　Ｓｔｕｄｉｏ,,合同会社,和歌山県,和歌山市,砂山南１丁目４番１９号,,30,201,6408272,,,,,,,2023-06-06,1,,,,,ソロスタジオ,0
2817,9180001156526,新規,0,2023-06-06,2023-06-06,輝井商事株式会社,,株式会社,愛知県,海部郡蟹江町,大字蟹江新田字上芝切７０－１,,23,425,4970044,,,,,,,2023-06-06,1,,,,,キイショウジ,0
2818,9180001156567,新規,0,2023-06-06,2023-06-06,株式会社ワークナビ派遣,,株式会社,愛知県,名古屋市中区,栄４丁目１６番３３号日本経済新聞社名古屋支社ビル５階,,23,106,4600008,,,,,,,2023-06-06,1,,,,,ワークナビハケン,0
2823,9180003025299,新規,0,2023-06-06,2023-06-06,合同会社ハートセラピーラボ,,合同会社,愛知県,名古屋市中村区,名駅４丁目２４番５号第２森ビル４０１,,23,105,4500002,,,,,,,2023-06-06,1,,,,,ハートセラピーラボ,0
2824,9180003025308,新規,0,2023-06-06,2023-06-06,合同会社ＲＥＭ,,合同会社,愛知県,尾張旭市,北本地ケ原町２丁目１２８番地,,23,226,4880043,,,,,,,2023-06-06,1,,,,,レム,0
2829,9200001041361,新規,0,2023-06-06,2023-06-06,ＷｉｓＹ株式会社,,株式会社,岐阜県,大垣市,島里１丁目９５番地４,,21,202,5030935,,,,,,,2023-06-06,1,,,,,ウィジー,0
2830,9200001041386,新規,0,2023-06-06,2023-06-06,Ｅｘｃｅｌｌｅｎｔ　Ｐａｒｔｎｅｒｓ株式会社,,株式会社,岐阜県,大垣市,赤坂大門３丁目６３番地１,,21,202,5032215,,,,,,,2023-06-06,1,,,,,エクセレントパートナーズ,0
2831,9210001019340,新規,0,2023-06-06,2023-06-06,株式会社杉森住建,,株式会社,福井県,福井市,西谷１丁目１３０番地１,,18,201,9188023,,,,,,,2023-06-06,1,,,,,スギモリジュウケン,0
2833,9230001019867,新規,0,2023-06-06,2023-06-06,ＣＮＧ株式会社,,株式会社,富山県,富山市,新富町２丁目５番１４号,,16,201,9300002,,,,,,,2023-06-06,1,,,,,シーエヌジー,0
2841,9240001061612,新規,0,2023-06-06,2023-06-06,株式会社ＬＵＡＮＡコーポレーション,,株式会社,広島県,東広島市,八本松町正力１３０番地１０７,,34,212,7390132,,,,,,,2023-06-06,1,,,,,ルアナコーポレーション,0
2845,9260001038014,新規,0,2023-06-06,2023-06-06,株式会社ＡＮＹ　ＲＥＣＯＶＥＲＹ,,株式会社,岡山県,岡山市北区,東古松南町６番３８－４号,,33,101,7000922,,,,,,,2023-06-06,1,,,,,エニーリカバリー,0
2846,9260001038022,新規,0,2023-06-06,2023-06-06,株式会社リバティ,,株式会社,岡山県,岡山市中区,倉田６１８番地６,,33,102,7038265,,,,,,,2023-06-06,1,,,,,リバティ,0
2852,9290001101719,新規,0,2023-06-06,2023-06-06,株式会社健成,,株式会社,福岡県,福岡市中央区,今川１丁目１５番２－２０３号,,40,133,8100054,,,,,,,2023-06-06,1,,,,,ケンセイ,0
2853,9290001101801,新規,0,2023-06-06,2023-06-06,３６９ｕｎｉｖｅｒｓｅ株式会社,,株式会社,福岡県,福岡市東区,香椎２丁目１３番３２－３０２号,,40,131,8130011,,,,,,,2023-06-06,1,,,,,ミロクユニバース,0
2856,9310001018456,新規,0,2023-06-06,2023-06-06,株式会社希羽の里,,株式会社,長崎県,壱岐市,芦辺町国分東触５８７番地,00130732,42,210,8115732,,,,,,,2023-06-06,1,,,,,,0
2858,9310005008684,新規,0,2023-06-06,2023-06-06,一般社団法人おあしす,,その他の設立登記法人,長崎県,島原市,杉山町甲４３６番地１,,42,203,8550068,,,,,,,2023-06-06,1,,,,,オアシス,0
2859,9320003004098,新規,0,2023-06-06,2023-06-06,ＴＯＭＯＮＩＭＡＥ合同会社,,合同会社,大分県,大分市,大字羽田１０７７番地の７,,44,201,8700942,,,,,,,2023-06-06,1,,,,,トモニマエ,0
2861,9330001030905,新規,0,2023-06-06,2023-06-06,株式会社ＧＬＵＣＫ,,株式会社,熊本県,熊本市南区,富合町田尻３０５番地１,,43,104,8614156,,,,,,,2023-06-06,1,,,,,グリュック,0
2862,9330001030913,新規,0,2023-06-06,2023-06-06,株式会社大嶌屋ロジスティクス,,株式会社,熊本県,宇城市,松橋町古保山２７１５番地１９,,43,213,8690512,,,,,,,2023-06-06,1,,,,,オオシマヤロジスティクス,0
2863,9330001030938,新規,0,2023-06-06,2023-06-06,株式会社セイルワン,,株式会社,熊本県,熊本市中央区,本山町１３８－９,,43,101,8600822,,,,,,,2023-06-06,1,,,,,セイルワン,0
2864,9330001030946,新規,0,2023-06-06,2023-06-06,マイクロアイ九州株式会社,,株式会社,熊本県,熊本市南区,並建町１５２－２－１０１,,43,104,8615263,,,,,,,2023-06-06,1,,,,,マイクロアイキュウシュウ,0
2868,9340001025631,新規,0,2023-06-06,2023-06-06,不動産相続あんしんサポート株式会社,,株式会社,鹿児島県,鹿児島市,西田２丁目１０番１号,,46,201,8900046,,,,,,,2023-06-06,1,,,,,フドウサンソウゾクアンシンサポート,0
2869,9340003004138,新規,0,2023-06-06,2023-06-06,合同会社ＲＳＣ,,合同会社,鹿児島県,伊佐市,菱刈川南４番地３,,46,224,8952812,,,,,,,2023-06-06,1,,,,,,0
2870,9340003004146,新規,0,2023-06-06,2023-06-06,合同会社アル’ｓ　Ｓｈｏｐ,,合同会社,鹿児島県,日置市,日吉町日置４１１番地,,46,216,8993101,,,,,,,2023-06-06,1,,,,,アルズショップ,0
2874,9350001018394,新規,0,2023-06-06,2023-06-06,株式会社河口建設,,株式会社,宮崎県,西都市,妻町３丁目９０番地,,45,208,8810034,,,,,,,2023-06-06,1,,,,,カワグチケンセツ,0
2875,9350003004368,新規,0,2023-06-06,2023-06-06,合同会社コンテグロ,,合同会社,宮崎県,西諸県郡高原町,大字西麓６５２番地２,,45,361,8894412,,,,,,,2023-06-06,1,,,,,コンテグロ,0
2878,9360001032097,新規,0,2023-06-06,2023-06-06,株式会社あかがーら,,株式会社,沖縄県,宮古島市,平良字西里２３３番地野津ビル１Ｆ西,,47,214,9060012,,,,,,,2023-06-06,1,,,,,アカガーラ,0
2881,9370001050024,新規,0,2023-06-06,2023-06-06,株式会社昭和木材店,,株式会社,宮城県,岩沼市,下野郷字間堀１６８番地の２,,04,211,9892421,,,,,,,2023-06-06,1,,,,,ショウワモクザイテン,0
2882,9370003006164,新規,0,2023-06-06,2023-06-06,合同会社ＡｒｅＹｏｕＭｅ,,合同会社,宮城県,仙台市青葉区,本町２丁目９番２号本町エンドウビル３０３号,,04,101,9800014,,,,,,,2023-06-06,1,,,,,アーユーミー,0
2900,9430003015118,新規,0,2023-06-06,2023-06-06,合同会社ＲＥＶＩＶＡＬ,,合同会社,北海道,札幌市豊平区,月寒西一条７丁目４番７号,,01,105,0620021,,,,,,,2023-06-06,1,,,,,リバイバル,0
2901,9430005014729,新規,0,2023-06-06,2023-06-06,一般社団法人北海道連合読売会,,その他の設立登記法人,北海道,札幌市中央区,北四条西４丁目１番地８読売北海道ビル５階,,01,101,0600004,,,,,,,2023-06-06,1,,,,,ホッカイドウレンゴウヨミウリカイ,0
2904,9460401001253,新規,0,2023-06-06,2023-06-06,株式会社光星,,株式会社,北海道,根室市,月岡町１丁目２７番地１４,,01,223,0870031,,,,,,,2023-06-06,1,,,,,コウセイ,0
2905,9462503000208,新規,0,2023-06-06,2023-06-06,合名会社アルファベット,,合名会社,北海道,標津郡中標津町,東四条北１丁目２番地４,,01,692,0861044,,,,,,,2023-06-06,1,,,,,アルファベット,0
2906,9470001019645,新規,0,2023-06-06,2023-06-06,株式会社Ｌホールディングス,,株式会社,香川県,高松市,新田町甲２１９０番地３,,37,201,7610102,,,,,,,2023-06-06,1,,,,,エルホールディングス,0
2911,9500001024963,新規,0,2023-06-06,2023-06-06,株式会社Ｆｉｒｓｔ,,株式会社,愛媛県,西条市,丹原町田滝甲６６番地,,38,206,7910526,,,,,,,2023-06-06,1,,,,,ファースト,0
2912,9500001024988,新規,0,2023-06-06,2023-06-06,株式会社永三郎ダイニング,,株式会社,愛媛県,松山市,北井門２丁目１４番７号,,38,201,7911105,,,,,,,2023-06-06,1,,,,,エイザブロウダイニング,0
2915,9700150116938,新規,0,2023-06-06,2023-06-06,ｓｈｅｎ　ｚｈｅｎ　ｐｕ　ｃｕｉ　ｋｅ　ｘｕｅ　ｙｉｑｉ　ｙｏｕ　ｘｉａｎ　ｇｏｎｇ　ｓｉ,,外国会社等,,,,,,,,Ｅ２０８，Ｂｕｉｌｄｉｎｇ　Ａ１，１９８３　Ｃｒｅａｔｉｖｅ　Ｔｏｗｎ，Ｎｏ．２９，Ｎａｎｘｉｎ　Ｓｔｒｅｅｔ，Ｎａｎｌｉｎｇ　Ｖｉｌｌａｇｅ，Ｎａｎｗａｎ　Ｓｔｒｅｅｔ，Ｌｏｎｇｇａｎｇ　Ｄｉｓｔｒｉｃｔ，Ｓｈｅｎｚｈｅｎ　５１８１１４,,,,,,2023-06-06,1,,,,,シェンジェンプーツイコーシュエイーチーヨウシエンゴンスー,0
