sequenceNumber,corporateNumber,process,correct,updateDate,changeDate,name,nameImageId,kind,prefectureName,cityName,streetNumber,addressImageId,prefectureCode,cityCode,postCode,addressOutside,addressOutsideImageId,closeDate,closeCause,successorCorporateNumber,changeCause,assignmentDate,latest,enName,enPrefectureName,enCityName,enAddressOutside,furigana,hihyoji
11,1010001252951,新規,0,2025-03-12,2025-03-12,東京蓮城株式会社,,株式会社,東京都,千代田区,丸の内１丁目８番２号鉄鋼ビル４階,,13,101,1000005,,,,,,,2025-03-12,1,,,,,トウキョウレンジョウ,0
12,1010001253033,新規,0,2025-03-12,2025-03-12,サミット森空株式会社,,株式会社,東京都,千代田区,大手町２丁目３番２号,,13,101,1000004,,,,,,,2025-03-12,1,,,,,サミットモリソラ,0
13,1010001253041,新規,0,2025-03-12,2025-03-12,株式会社ＢＣＭ３８,,株式会社,東京都,中央区,京橋２丁目２番１号,,13,102,1040031,,,,,,,2025-03-12,1,,,,,ビーシーエムサンジュウハチ,0
15,1010003046699,新規,0,2025-03-12,2025-03-12,日本通商合同会社,,合同会社,東京都,中央区,湊２丁目１１－１ＳＯＨＯ４２５,,13,102,1040043,,,,,,,2025-03-12,1,,,,,ニホンツウショウ,0
16,1010005039718,新規,0,2025-03-12,2025-03-12,医療法人社団ＳＬＣ,,その他の設立登記法人,東京都,千代田区,神田駿河台１丁目２番５号駿河台ビル７階,,13,101,1010062,,,,,,,2025-03-12,1,,,,,エスエルシー,0
19,1010401188820,新規,0,2025-03-12,2025-03-12,株式会社ＧＴＣ,,株式会社,東京都,港区,海岸１丁目９番１５－１９０３号,,13,103,1050022,,,,,,,2025-03-12,1,,,,,ジーティーシー,0
21,1010403034601,新規,0,2025-03-12,2025-03-12,合同会社ＴＳＭ１７０,,合同会社,東京都,港区,元赤坂１丁目１番７号,,13,103,1070051,,,,,,,2025-03-12,1,,,,,ティーエスエムヒャクナナジュウ,0
24,1010601066925,新規,0,2025-03-12,2025-03-12,株式会社アベキャピタル分割準備会社,,株式会社,東京都,江東区,木場２丁目１５番１２号ＭＡビル１階,,13,108,1350042,,,,,,,2025-03-12,1,,,,,アベキャピタルブンカツジュンビガイシャ,0
25,1010605004427,新規,0,2025-03-12,2025-03-12,一般財団法人ＳＧＨ防災サポート財団,,その他の設立登記法人,東京都,江東区,新砂１丁目８番２号ＳＧＨビル新砂２階,,13,108,1360075,,,,,,,2025-03-12,1,,,,,エスジーエイチボウサイサポートザイダン,0
31,1010703007612,新規,0,2025-03-12,2025-03-12,合同会社Ｅ‐Ｎｏｔｈｉｎｇ,,合同会社,東京都,品川区,平塚１丁目３番１９号,,13,109,1420051,,,,,,,2025-03-12,1,,,,,イーナッシング,0
44,1011003021188,新規,0,2025-03-12,2025-03-12,合同会社ＥＳＲ２‐２,,合同会社,東京都,目黒区,上目黒１丁目２３番１号中目黒アリーナ４０５号室,,13,110,1530051,,,,,,,2025-03-12,1,,,,,イーエスアールツーツー,0
47,1011101110933,新規,0,2025-03-12,2025-03-12,Ｕｓｅｌｅｓｓ＆Ｐｒｏｆｉｔ株式会社,,株式会社,東京都,新宿区,百人町２丁目１３番１３号Ｊハウス１０１,,13,104,1690073,,,,,,,2025-03-12,1,,,,,ユースレスアンドプロフィット,0
50,1011301030428,新規,0,2025-03-12,2025-03-12,株式会社ユリシス,,株式会社,東京都,杉並区,天沼２丁目１７番１６号,,13,115,1670032,,,,,,,2025-03-12,1,,,,,ユリシス,0
51,1011303005444,新規,0,2025-03-12,2025-03-12,ジャパントレードウインド合同会社,,合同会社,東京都,杉並区,上高井戸２丁目１２番１９号,,13,115,1680074,,,,,,,2025-03-12,1,,,,,ジャパントレードウインド,0
53,1011401026887,新規,0,2025-03-12,2025-03-12,株式会社Ｅｑｕｉｎｏｘ,,株式会社,東京都,板橋区,桜川２丁目１番１１－１０８号,,13,119,1740075,,,,,,,2025-03-12,1,,,,,イコノックス,0
54,1011501031804,新規,0,2025-03-12,2025-03-12,株式会社Ｗｅｌｉｉ,,株式会社,東京都,北区,田端新町１丁目４番４－４０５号山一田端新町１丁目ビル,,13,117,1140012,,,,,,,2025-03-12,1,,,,,ウェリー,0
55,1011501031812,新規,0,2025-03-12,2025-03-12,株式会社ＧＭＩ,,株式会社,東京都,北区,岩淵町３９番１８－９０５号カルム赤羽,,13,117,1150041,,,,,,,2025-03-12,1,,,,,ジーエムアイ,0
56,1011503006440,新規,0,2025-03-12,2025-03-12,合同会社Ｍａｔｒｏｎａ,,合同会社,東京都,荒川区,西日暮里２丁目５３番５号,,13,118,1160013,,,,,,,2025-03-12,1,,,,,マトローナ,0
58,1011701028113,新規,0,2025-03-12,2025-03-12,株式会社聖達,,株式会社,東京都,江戸川区,本一色１丁目２４－２１,,13,123,1330044,,,,,,,2025-03-12,1,,,,,セイタツ,0
59,1011703004153,新規,0,2025-03-12,2025-03-12,合同会社ＶＥＮＵＳ＆Ｃｏ．,,合同会社,東京都,江戸川区,松江２丁目２４番１９号,,13,123,1320025,,,,,,,2025-03-12,1,,,,,ビーナスアンドコー,0
60,1011801045776,新規,0,2025-03-12,2025-03-12,株式会社ラ・ビータコンサルティング,,株式会社,東京都,足立区,梅島３丁目８番１３号メイソンリー梅島７０１,,13,121,1210816,,,,,,,2025-03-12,1,,,,,ラビータコンサルティング,0
61,1011801045792,新規,0,2025-03-12,2025-03-12,株式会社Ｚｅｎｓｈｉｎ,,株式会社,東京都,足立区,佐野２丁目６番１８－１０７号,,13,121,1210053,,,,,,,2025-03-12,1,,,,,ゼンシン,0
63,1012303002126,新規,0,2025-03-12,2025-03-12,合同会社ｍｉｒａ,,合同会社,東京都,町田市,三輪町１８７６－１朝日マンション鶴川台２０４,,13,209,1950054,,,,,,,2025-03-12,1,,,,,ミール,0
65,1012401042882,新規,0,2025-03-12,2025-03-12,株式会社ＫＯＯＫＡＢＵＲＲＡ,,株式会社,東京都,府中市,是政５丁目６番地の６ライオンズプラザ府中是政駅前７０１,,13,206,1830014,,,,,,,2025-03-12,1,,,,,クッカバラ,0
72,1020001161771,新規,0,2025-03-12,2025-03-12,Ｃｈａ　Ｃｈａ　Ｉｎｔｅｒｎａｔｉｏｎａｌ株式会社,,株式会社,神奈川県,横浜市青葉区,梅が丘２６番地２４,,14,117,2270052,,,,,,,2025-03-12,1,,,,,チャチャインターナショナル,0
73,1020001161788,新規,0,2025-03-12,2025-03-12,株式会社裕和,,株式会社,神奈川県,川崎市幸区,下平間３０３番地３－１Ｆ,,14,132,2120053,,,,,,,2025-03-12,1,,,,,ユウワ,0
74,1020001161796,新規,0,2025-03-12,2025-03-12,株式会社Ｐｌａｎ８９,,株式会社,神奈川県,川崎市幸区,新塚越１番地２サウザンドシティ５－７１１,,14,132,2120027,,,,,,,2025-03-12,1,,,,,プランエイト,0
79,1020003028011,新規,0,2025-03-12,2025-03-12,合同会社ＭＫエンタープライズ,,合同会社,神奈川県,横浜市鶴見区,矢向２丁目１番７号,,14,101,2300001,,,,,,,2025-03-12,1,,,,,エムケイエンタープライズ,0
80,1020003028028,新規,0,2025-03-12,2025-03-12,六本木コンサルティング合同会社,,合同会社,神奈川県,横浜市中区,北仲通５丁目５７番地２－５０８号室,,14,104,2310003,,,,,,,2025-03-12,1,,,,,ロッポンギコンサルティング,0
84,1021001084681,新規,0,2025-03-12,2025-03-12,株式会社モモタロウ,,株式会社,神奈川県,相模原市南区,上鶴間本町２丁目１０番１３号,,14,153,2520318,,,,,,,2025-03-12,1,,,,,モモタロウ,0
85,1021001084707,新規,0,2025-03-12,2025-03-12,ＬｉｆｅＷｉｎ‐Ｘ株式会社,,株式会社,神奈川県,逗子市,久木８丁目６番２２号,,14,208,2490001,,,,,,,2025-03-12,1,,,,,ライフウィンクロス,0
87,1021003015692,新規,0,2025-03-12,2025-03-12,合同会社Ｓ＆Ｓ,,合同会社,神奈川県,大和市,福田５５２３－５－１Ｆ,,14,213,2420024,,,,,,,2025-03-12,1,,,,,エスアンドエス,0
89,1021005013298,新規,0,2025-03-12,2025-03-12,医療法人あさひ会,,その他の設立登記法人,神奈川県,厚木市,旭町１丁目２５番１－２０３－４号本厚木ミハラス,,14,212,2430014,,,,,,,2025-03-12,1,,,,,アサヒカイ,0
100,1030003026245,新規,0,2025-03-12,2025-03-12,合同会社Ｃｏｎｃｉｅｌｇｅ,,合同会社,埼玉県,深谷市,常盤町６１番地７,,11,218,3660034,,,,,,,2025-03-12,1,,,,,,0
101,1030003026344,新規,0,2025-03-12,2025-03-12,合同会社Ｉｓｔ,,合同会社,埼玉県,川越市,脇田本町２４－２１アーバンビル脇田本町４０２－Ｂ,,11,201,3501123,,,,,,,2025-03-12,1,,,,,アイエスティー,0
108,1040001137761,新規,0,2025-03-12,2025-03-12,株式会社ＴＳＭ,,株式会社,千葉県,印旛郡酒々井町,中川１１６番１－２０７号,,12,322,2850921,,,,,,,2025-03-12,1,,,,,ティーエスエム,0
109,1040001137844,新規,0,2025-03-12,2025-03-12,村中商事株式会社,,株式会社,千葉県,市原市,岩崎２丁目２１番地２３,,12,219,2900047,,,,,,,2025-03-12,1,,,,,ムラナカショウジ,0
115,1060001038009,新規,0,2025-03-12,2025-03-12,株式会社伊達総建,,株式会社,栃木県,栃木市,大平町富田４００２番地１３,,09,203,3294404,,,,,,,2025-03-12,1,,,,,ダテソウケン,0
116,1060001038017,新規,0,2025-03-12,2025-03-12,株式会社イナセリンク,,株式会社,栃木県,塩谷郡高根沢町,光陽台１丁目９番地４,,09,386,3291232,,,,,,,2025-03-12,1,,,,,イナセリンク,0
119,1060003005469,新規,0,2025-03-12,2025-03-12,合同会社Ｓｅｋａｉｋｕ　Ｒｉｃｈｅｓｓｅ,,合同会社,栃木県,小山市,扶桑１丁目８番１３号,,09,208,3230016,,,,,,,2025-03-12,1,,,,,セカイクリシェス,0
122,1070003005815,新規,0,2025-03-12,2025-03-12,ｉＮ合同会社,,合同会社,群馬県,伊勢崎市,西久保町２丁目１６５番１１号,,10,204,3792204,,,,,,,2025-03-12,1,,,,,,0
123,1080001026804,新規,0,2025-03-12,2025-03-12,株式会社ＳＨＩＧＥＴＳＵ,,株式会社,静岡県,焼津市,石津港町３３－１１,,22,212,4250042,,,,,,,2025-03-12,1,,,,,シゲツ,0
124,1080003003413,新規,0,2025-03-12,2025-03-12,合同会社ディアートラスト,,合同会社,静岡県,牧之原市,坂部４６３４番地,,22,226,4210412,,,,,,,2025-03-12,1,,,,,ディアートラスト,0
126,1080403005224,新規,0,2025-03-12,2025-03-12,東海時宝合同会社,,合同会社,静岡県,湖西市,南台４丁目２－８６番地,,22,221,4310429,,,,,,,2025-03-12,1,,,,,トウカイジホウ,0
127,1090003002769,新規,0,2025-03-12,2025-03-12,合同会社ＬＡＴＩＦ　ＴＲＡＤＩＮＧ,,合同会社,山梨県,南都留郡富士河口湖町,小立３７８６番地１グランドール渡辺２０１号室,,19,430,4010302,,,,,,,2025-03-12,1,,,,,ラティフトレーディング,0
139,1120001273565,新規,0,2025-03-12,2025-03-12,株式会社ＫＭホールディングス,,株式会社,大阪府,門真市,東田町７－１１,,27,223,5710034,,,,,,,2025-03-12,1,,,,,ケーエムホールディングス,0
140,1120001273573,新規,0,2025-03-12,2025-03-12,株式会社Ｌ７,,株式会社,大阪府,大阪市中央区,心斎橋筋２丁目４－９戎橋ビル７階,,27,128,5420085,,,,,,,2025-03-12,1,,,,,エルナナ,0
141,1120001273581,新規,0,2025-03-12,2025-03-12,株式会社清和アセット,,株式会社,大阪府,大阪市福島区,福島２丁目９番１１号,,27,103,5530003,,,,,,,2025-03-12,1,,,,,セイワアセット,0
143,1120101071233,新規,0,2025-03-12,2025-03-12,株式会社光明堂,,株式会社,大阪府,堺市中区,宮園町２－１２,,27,142,5998274,,,,,,,2025-03-12,1,,,,,コウミョウドウ,0
144,1120901050543,新規,0,2025-03-12,2025-03-12,株式会社プレジールエステート,,株式会社,大阪府,豊中市,北条町３丁目１番７―１０３号,,27,203,5610812,,,,,,,2025-03-12,1,,,,,プレジールエステート,0
150,1130001079177,新規,0,2025-03-12,2025-03-12,ＴＨＴ株式会社,,株式会社,京都府,京都市下京区,五条通烏丸東入上平野町４４６番地１－９０５号,,26,106,6008171,,,,,,,2025-03-12,1,,,,,ティーエイチティー,0
151,1130001079193,新規,0,2025-03-12,2025-03-12,株式会社Ｆホームサービス,,株式会社,京都府,京都市右京区,太秦安井西沢町１３番地１３,,26,108,6168083,,,,,,,2025-03-12,1,,,,,エフホームサービス,0
158,1140001137628,新規,0,2025-03-12,2025-03-12,株式会社エルジェイ,,株式会社,兵庫県,西宮市,今津山中町７番７－３０１号,,28,204,6638211,,,,,,,2025-03-12,1,,,,,エルジェイ,0
159,1140001137669,新規,0,2025-03-12,2025-03-12,秀工業株式会社,,株式会社,兵庫県,尼崎市,金楽寺町２丁目１１番１４号,,28,202,6600806,,,,,,,2025-03-12,1,,,,,シュウコウギョウ,0
160,1140001137677,新規,0,2025-03-12,2025-03-12,株式会社松村設備工業,,株式会社,兵庫県,尼崎市,武庫之荘西２丁目４９番８－３１０号,,28,202,6610034,,,,,,,2025-03-12,1,,,,,マツムラセツビコウギョウ,0
165,1140003021771,新規,0,2025-03-12,2025-03-12,合同会社次郎,,合同会社,兵庫県,姫路市,勝原区丁１８２番地２０,,28,201,6711203,,,,,,,2025-03-12,1,,,,,ジロウ,0
166,1150001027943,新規,0,2025-03-12,2025-03-12,セント株式会社,,株式会社,奈良県,奈良市,三条町４７５松田ビル２階,,29,201,6308244,,,,,,,2025-03-12,1,,,,,セント,0
167,1150001027951,新規,0,2025-03-12,2025-03-12,株式会社安田フェニックス,,株式会社,奈良県,奈良市,中登美ヶ丘２丁目１９８４番地の１２１,,29,201,6310003,,,,,,,2025-03-12,1,,,,,ヤスダフェニックス,0
173,1170003002174,新規,0,2025-03-12,2025-03-12,合同会社燕ｅｎ,,合同会社,和歌山県,和歌山市,平井１５７番地３,,30,201,6408442,,,,,,,2025-03-12,1,,,,,エンエン,0
177,1180001165848,新規,0,2025-03-12,2025-03-12,株式会社アカデミックケア研究所,,株式会社,愛知県,名古屋市千種区,天満通１丁目４４番地２パレスＴ天満通２階２０２号,,23,101,4640095,,,,,,,2025-03-12,1,,,,,アカデミックケアケンキュウショ,0
178,1180001165856,新規,0,2025-03-12,2025-03-12,株式会社ｔｉｓ,,株式会社,愛知県,名古屋市守山区,深沢１丁目２０１番地,,23,113,4630811,,,,,,,2025-03-12,1,,,,,ティーアイエス,0
183,1180301039594,新規,0,2025-03-12,2025-03-12,株式会社ツナグリンク,,株式会社,愛知県,蒲郡市,堀込町１４３番地,,23,214,4430053,,,,,,,2025-03-12,1,,,,,ツナグリンク,0
184,1180301039603,新規,0,2025-03-12,2025-03-12,株式会社モディッグス,,株式会社,愛知県,豊橋市,弥生町字中原３８番地３,,23,201,4418106,,,,,,,2025-03-12,1,,,,,モディッグス,0
187,1180303006485,新規,0,2025-03-12,2025-03-12,Ｐｅａｃｅ　ｏｆ　Ｍｉｎｄ合同会社,,合同会社,愛知県,安城市,末広町８番４号,,23,212,4460038,,,,,,,2025-03-12,1,,,,,ピースオブマインド,0
188,1190001032064,新規,0,2025-03-12,2025-03-12,株式会社果報堂,,株式会社,三重県,四日市市,諏訪栄町４－１０アピカＭＧ四日市４Ｃ,,24,202,5100086,,,,,,,2025-03-12,1,,,,,カホウドウ,0
189,1190003004961,新規,0,2025-03-12,2025-03-12,合同会社川口電機工業,,合同会社,三重県,四日市市,小浜町３番地１７,,24,202,5100865,,,,,,,2025-03-12,1,,,,,カワグチデンキコウギョウ,0
190,1200001043514,新規,0,2025-03-12,2025-03-12,株式会社ａｎｋｌｉｎｇ,,株式会社,岐阜県,羽島市,福寿町間島４丁目２６番地２,,21,209,5016251,,,,,,,2025-03-12,1,,,,,アンクリング,0
194,1220001026541,新規,0,2025-03-12,2025-03-12,株式会社ラバーテック,,株式会社,石川県,野々市市,堀内３丁目５９番地,,17,212,9218844,,,,,,,2025-03-12,1,,,,,ラバーテック,0
200,1240001064630,新規,0,2025-03-12,2025-03-12,株式会社ＮＥＷ　ＫＮＯＷＮ,,株式会社,広島県,三原市,東町２丁目１４番３４号,,34,204,7230011,,,,,,,2025-03-12,1,,,,,ニューノーン,0
201,1240001064647,新規,0,2025-03-12,2025-03-12,株式会社ｄｉｍｌｉｇｈｔ,,株式会社,広島県,広島市中区,幟町１０番１６号シゲタカビル３Ｆ,,34,101,7300016,,,,,,,2025-03-12,1,,,,,ディムライト,0
202,1240001064655,新規,0,2025-03-12,2025-03-12,株式会社ＦＵＫＵＭＡ,,株式会社,広島県,広島市安佐南区,伴中央２丁目５番２７－１０２号,,34,105,7313165,,,,,,,2025-03-12,1,,,,,フクマ,0
204,1240003007100,新規,0,2025-03-12,2025-03-12,合同会社ＷＯＯＤ　ＢＡＳＥ０２,,合同会社,広島県,竹原市,下野町３２６２番地３,,34,203,7250012,,,,,,,2025-03-12,1,,,,,ウッドベースオーツー,0
207,1250003003668,新規,0,2025-03-12,2025-03-12,合同会社Ｎｅｃｏ,,合同会社,山口県,山陽小野田市,大字有帆７０番地の７４,,35,216,7560038,,,,,,,2025-03-12,1,,,,,ネコ,0
208,1260001039993,新規,0,2025-03-12,2025-03-12,株式会社はうじんぐえん,,株式会社,岡山県,岡山市北区,建部町川口１５２４番地６,,33,101,7093112,,,,,,,2025-03-12,1,,,,,ハウジングエン,0
209,1260001040010,新規,0,2025-03-12,2025-03-12,株式会社ＭＦＡ,,株式会社,岡山県,岡山市中区,門田文化町３丁目４番３号,,33,102,7038273,,,,,,,2025-03-12,1,,,,,エムエフエー,0
215,1290001109257,新規,0,2025-03-12,2025-03-12,福廣吉運株式会社,,株式会社,福岡県,福岡市東区,香椎照葉６丁目２－５２オーシャン＆フォレストタワーレジデンス４００６号,,40,131,8130017,,,,,,,2025-03-12,1,,,,,フクコウキチウン,0
217,1290003016526,新規,0,2025-03-12,2025-03-12,合同会社ユウキコーポレーション,,合同会社,福岡県,福岡市中央区,大名２丁目１１番１７号,,40,133,8100041,,,,,,,2025-03-12,1,,,,,ユウキコーポレーション,0
223,1290803004993,新規,0,2025-03-12,2025-03-12,九州ドローンサービス合同会社,,合同会社,福岡県,中間市,深坂２丁目１８－５,,40,215,8090025,,,,,,,2025-03-12,1,,,,,キュウシュウドローンサービス,0
226,1300001014117,新規,0,2025-03-12,2025-03-12,株式会社エフディーエッチ,,株式会社,佐賀県,佐賀市,大財２丁目９番１号,,41,201,8400811,,,,,,,2025-03-12,1,,,,,エフディーエッチ,0
227,1300003002243,新規,0,2025-03-12,2025-03-12,合同会社カケハシ,,合同会社,佐賀県,佐賀市,木原１丁目１５―３,,41,201,8400015,,,,,,,2025-03-12,1,,,,,カケハシ,0
237,1340003004772,新規,0,2025-03-12,2025-03-12,合同会社直々,,合同会社,鹿児島県,鹿児島市,荒田２丁目５８番８号２０１号,,46,201,8900054,,,,,,,2025-03-12,1,,,,,ナオ,0
238,1340005009828,新規,0,2025-03-12,2025-03-12,特定非営利活動法人アテン,,その他の設立登記法人,鹿児島県,鹿屋市,旭原町３６２０番地１３,,46,203,8930022,,,,,,,2025-03-12,1,,,,,アテン,0
240,1360001034893,新規,0,2025-03-12,2025-03-12,株式会社カナエリゾート,,株式会社,沖縄県,宮古島市,平良字西里２５１－７－３Ｆ,,47,214,9060012,,,,,,,2025-03-12,1,,,,,カナエリゾート,0
242,1360003014753,新規,0,2025-03-12,2025-03-12,合同会社琉球ｉｒｏｈａ,,合同会社,沖縄県,沖縄市,南桃原３丁目３８番９号２Ｆ,,47,211,9040035,,,,,,,2025-03-12,1,,,,,リュウキュウイロハ,0
243,1360003014761,新規,0,2025-03-12,2025-03-12,合同会社ＷｉＴＨ,,合同会社,沖縄県,沖縄市,上地４丁目８－８,,47,211,9040031,,,,,,,2025-03-12,1,,,,,ウィズ,0
246,1360005007185,新規,0,2025-03-12,2025-03-12,一般社団法人女性を元気にする会,,その他の設立登記法人,沖縄県,那覇市,字大道２１番地１階,,47,201,9020066,,,,,,,2025-03-12,1,,,,,ジョセイヲゲンキニスルカイ,0
254,1390003002359,新規,0,2025-03-12,2025-03-12,合同会社ブルームワークス,,合同会社,山形県,山形市,桜田東３丁目３番１７号,,06,201,9902323,,,,,,,2025-03-12,1,,,,,ブルームワークス,0
259,1410005006628,新規,0,2025-03-12,2025-03-12,社会保険労務士法人アシスト,,その他の設立登記法人,秋田県,秋田市,山王５丁目５番２３号,,05,201,0100951,,,,,,,2025-03-12,1,,,,,アシスト,0
263,1420005007947,新規,0,2025-03-12,2025-03-12,一般社団法人あおもり地域活性化推進ラボ,,その他の設立登記法人,青森県,青森市,浪館前田３丁目２７番２９号,,02,201,0380024,,,,,,,2025-03-12,1,,,,,アオモリチイキカッセイカスイシンラボ,0
265,1430001093833,新規,0,2025-03-12,2025-03-12,株式会社ＨＯＭＥ　ＡＧＥＮＣＹ,,株式会社,北海道,札幌市中央区,南九条西３丁目２－１８八代ビル,,01,101,0640809,,,,,,,2025-03-12,1,,,,,ホームエージェンシー,0
266,1430001093858,新規,0,2025-03-12,2025-03-12,クルミナ株式会社,,株式会社,北海道,札幌市中央区,宮の森四条１０丁目７番７号クリテリオン宮の森１０１,,01,101,0640954,,,,,,,2025-03-12,1,,,,,クルミナ,0
267,1430001093866,新規,0,2025-03-12,2025-03-12,コトブキプラス株式会社,,株式会社,北海道,札幌市白石区,東札幌一条３丁目２番１－１１０７号,,01,104,0030001,,,,,,,2025-03-12,1,,,,,コトブキプラス,0
268,1430001093882,新規,0,2025-03-12,2025-03-12,株式会社ＳＫＳ警備保障,,株式会社,北海道,札幌市中央区,南二十一条西８丁目１番３３号,,01,101,0640921,,,,,,,2025-03-12,1,,,,,エスケーエスケイビホショウ,0
269,1430001093899,新規,0,2025-03-12,2025-03-12,株式会社龍宙,,株式会社,北海道,札幌市中央区,南七条西１４丁目１番１０－１０２号,,01,101,0640807,,,,,,,2025-03-12,1,,,,,ヨンヂュ,0
271,1440001009581,新規,0,2025-03-12,2025-03-12,株式会社絹焼包み,,株式会社,北海道,函館市,美原４丁目３０番２８号,,01,202,0410806,,,,,,,2025-03-12,1,,,,,キヌヤキツツミ,0
272,1460001005983,新規,0,2025-03-12,2025-03-12,株式会社参久,,株式会社,北海道,釧路市,末広町２丁目２３番地,,01,206,0850014,,,,,,,2025-03-12,1,,,,,サンキュウ,0
282,2010001252950,新規,0,2025-03-12,2025-03-12,株式会社Ｇｒｅｅｏｗ,,株式会社,東京都,中央区,勝どき３丁目２番３－４０２号,,13,102,1040054,,,,,,,2025-03-12,1,,,,,グリオ,0
284,2010003046698,新規,0,2025-03-12,2025-03-12,合同会社ＫＭＣ,,合同会社,東京都,千代田区,三番町７番地１０ＮＫ麹町コータース５０１号,,13,101,1020075,,,,,,,2025-03-12,1,,,,,ケーエムシー,0
286,2010005039725,新規,0,2025-03-12,2025-03-12,ＭＫＥ一般社団法人,,その他の設立登記法人,東京都,中央区,京橋２丁目１２番６号ＡＯＪ税理士法人内,,13,102,1040031,,,,,,,2025-03-12,1,,,,,エムケーイー,0
293,2010401188646,新規,0,2025-03-12,2025-03-12,ＪＳＫ株式会社,,株式会社,東京都,港区,南麻布５丁目４番２－７１５号,,13,103,1060047,,,,,,,2025-03-12,1,,,,,ジャスカ,0
294,2010401188737,新規,0,2025-03-12,2025-03-12,ＬＳＳ株式会社,,株式会社,東京都,港区,高輪４丁目１１－２２－１０３,,13,103,1080074,,,,,,,2025-03-12,1,,,,,エルエスエス,0
295,2010401188902,新規,0,2025-03-12,2025-03-12,株式会社ｈ　Ｓｔｙｌｅ　ｐｌｕｓ,,株式会社,東京都,港区,南青山６丁目１２番１１号２０２号室,,13,103,1070062,,,,,,,2025-03-12,1,,,,,エイチスタイルプラス,0
299,2010405024104,新規,0,2025-03-12,2025-03-12,一般社団法人日本マネジメント支援協会,,その他の設立登記法人,東京都,港区,新橋４丁目１４番１号新橋ＡＵＮＢＬＤＧ４階,,13,103,1050004,,,,,,,2025-03-12,1,,,,,ニホンマネジメントシエンキョウカイ,0
303,2010505003585,新規,0,2025-03-12,2025-03-12,一般社団法人日本木材地中活用推進協会,,その他の設立登記法人,東京都,台東区,上野５丁目５番１０－２０２号,,13,106,1100005,,,,,,,2025-03-12,1,,,,,ニホンモクザイチチュウカツヨウスイシンキョウカイ,0
307,2010601066932,新規,0,2025-03-12,2025-03-12,株式会社マーベリックアドバイザーズ,,株式会社,東京都,江東区,豊洲５丁目１番１３－２８２４号,,13,108,1350061,,,,,,,2025-03-12,1,,,,,マーベリックアドバイザーズ,0
308,2010601066940,新規,0,2025-03-12,2025-03-12,株式会社Ｃｈａｓｅ,,株式会社,東京都,江東区,平野２丁目１３－３東ビル５Ｆ５０１,,13,108,1350023,,,,,,,2025-03-12,1,,,,,チェイス,0
309,2010603011366,新規,0,2025-03-12,2025-03-12,合同会社福祉介護タクシー墨田屋,,合同会社,東京都,墨田区,堤通１丁目１０番１３号,,13,107,1310034,,,,,,,2025-03-12,1,,,,,フクシカイゴタクシースミダヤ,0
310,2010603011440,新規,0,2025-03-12,2025-03-12,合同会社バイザウェイ,,合同会社,東京都,江東区,平野１丁目１０番７号,,13,108,1350023,,,,,,,2025-03-12,1,,,,,バイザウェイ,0
313,2010701047361,新規,0,2025-03-12,2025-03-12,株式会社品築,,株式会社,東京都,品川区,大井４丁目２２番１１号,,13,109,1400014,,,,,,,2025-03-12,1,,,,,シナチク,0
317,2010901056955,新規,0,2025-03-12,2025-03-12,株式会社Ｃｅｎｏｂｉ,,株式会社,東京都,世田谷区,深沢３丁目２２－１３－２０５,,13,112,1580081,,,,,,,2025-03-12,1,,,,,セノビ,0
318,2010901056971,新規,0,2025-03-12,2025-03-12,株式会社スペースアルテ,,株式会社,東京都,世田谷区,喜多見８丁目６番１９号,,13,112,1570067,,,,,,,2025-03-12,1,,,,,スペースアルテ,0
319,2011001168047,新規,0,2025-03-12,2025-03-12,株式会社Ｌｉｖｅ　ｉｎ　ｇｒｏｗｔｈ,,株式会社,東京都,渋谷区,渋谷２丁目１９‐１５宮益坂ビルディング６０９,,13,113,1500002,,,,,,,2025-03-12,1,,,,,ライブイングロース,0
320,2011001168435,新規,0,2025-03-12,2025-03-12,東京ＳＫＹ株式会社,,株式会社,東京都,渋谷区,千駄ヶ谷５丁目２７番３号やまとビル８階Ｓ－０１号室,,13,113,1510051,,,,,,,2025-03-12,1,,,,,トウキョウスカイ,0
321,2011003021187,新規,0,2025-03-12,2025-03-12,合同会社ＥＳＲ２,,合同会社,東京都,目黒区,上目黒１丁目２３番１号中目黒アリーナ４０５号室,,13,110,1530051,,,,,,,2025-03-12,1,,,,,イーエスアールツー,0
322,2011003021195,新規,0,2025-03-12,2025-03-12,合同会社Ｆｌｕｗｉｎ,,合同会社,東京都,渋谷区,道玄坂１丁目１６―６二葉ビル８ｂ,,13,113,1500043,,,,,,,2025-03-12,1,,,,,フルウィン,0
325,2011201026186,新規,0,2025-03-12,2025-03-12,株式会社ＯｒｅＯｌｕ,,株式会社,東京都,中野区,中央１丁目２０番１５号セントラルガーデン２Ｆ,,13,114,1640011,,,,,,,2025-03-12,1,,,,,オレオール,0
326,2011401026886,新規,0,2025-03-12,2025-03-12,プラスディーリノベーション株式会社,,株式会社,東京都,板橋区,赤塚３丁目２０－１５岡野ニューハイツ１Ｆ,,13,119,1750092,,,,,,,2025-03-12,1,,,,,プラスディーリノベーション,0
327,2011401026894,新規,0,2025-03-12,2025-03-12,株式会社ＫＡＷＡＤＡ,,株式会社,東京都,板橋区,蓮根２丁目２７番１２号,,13,119,1740046,,,,,,,2025-03-12,1,,,,,カワダ,0
330,2011503006448,新規,0,2025-03-12,2025-03-12,合同会社マサル,,合同会社,東京都,荒川区,東尾久２丁目１０番１６号,,13,118,1160012,,,,,,,2025-03-12,1,,,,,マサル,0
332,2011703004160,新規,0,2025-03-12,2025-03-12,Ｄ＆Ｎ　ＪＯＵＲＮＥＹＳ合同会社,,合同会社,東京都,江戸川区,春江町４丁目１７番地１０フォレストカントリーＩＩ１０５,00138305,13,123,1340003,,,,,,,2025-03-12,1,,,,,ディーアンドエヌジャーニーズ,0
334,2011801045767,新規,0,2025-03-12,2025-03-12,嘉善株式会社,,株式会社,東京都,足立区,西新井本町４丁目１１番２号プレミア西新井２０５,,13,121,1230845,,,,,,,2025-03-12,1,,,,,カゼン,0
335,2011801045791,新規,0,2025-03-12,2025-03-12,星鳴株式会社,,株式会社,東京都,葛飾区,西新小岩５丁目２８番２０号,,13,122,1240025,,,,,,,2025-03-12,1,,,,,ホシナリ,0
336,2011805003440,新規,0,2025-03-12,2025-03-12,一般社団法人リジェネラティブアートツーリズム協会,,その他の設立登記法人,東京都,足立区,千住曙町３５－１－３０８,,13,121,1200023,,,,,,,2025-03-12,1,,,,,リジェネラティブアートツーリズムキョウカイ,0
338,2012303002125,新規,0,2025-03-12,2025-03-12,合同会社アンチェイン,,合同会社,東京都,町田市,南成瀬１丁目７番地４リステージ成瀬４０５,,13,209,1940045,,,,,,,2025-03-12,1,,,,,アンチェイン,0
339,2012305002123,新規,0,2025-03-12,2025-03-12,一般社団法人いきいきライフ協会まちだ,,その他の設立登記法人,東京都,町田市,金森東３丁目３７番１２号,,13,209,1940015,,,,,,,2025-03-12,1,,,,,イキイキライフキョウカイマチダ,0
345,2012405005091,新規,0,2025-03-12,2025-03-12,一般社団法人モノの図書館研究所,,その他の設立登記法人,東京都,調布市,深大寺北町４丁目６番４号,,13,208,1820011,,,,,,,2025-03-12,1,,,,,モノノトショカンケンキュウジョ,0
348,2012803003655,新規,0,2025-03-12,2025-03-12,ＦＩＸＥ．合同会社,,合同会社,東京都,武蔵村山市,学園４丁目３番地の５９,,13,223,2080011,,,,,,,2025-03-12,1,,,,,フィックス,0
350,2013301053903,新規,0,2025-03-12,2025-03-12,Ｔｏｍａｔｏ　Ｐｒｏｊｅｃｔ株式会社,,株式会社,東京都,豊島区,高田３丁目４－１０－３０６号室,,13,116,1710033,,,,,,,2025-03-12,1,,,,,トマトプロジェクト,0
351,2013305003697,新規,0,2025-03-12,2025-03-12,医療法人社団颯琉会,,その他の設立登記法人,東京都,豊島区,要町３丁目３９番５号ＡＧＩＬＩＡ千川駅前２階,,13,116,1710043,,,,,,,2025-03-12,1,,,,,ソウリュウカイ,0
361,2020001161663,新規,0,2025-03-12,2025-03-12,株式会社ＴＭＹＫ,,株式会社,神奈川県,川崎市幸区,鹿島田３丁目８番１４号,,14,132,2120058,,,,,,,2025-03-12,1,,,,,ティーエムワイケイ,0
362,2020001161721,新規,0,2025-03-12,2025-03-12,株式会社あおい動物診療室,,株式会社,神奈川県,横浜市栄区,上郷町１３８８番地５－１０３,,14,115,2470013,,,,,,,2025-03-12,1,,,,,アオイドウブツシンリョウシツ,0
363,2020001161787,新規,0,2025-03-12,2025-03-12,株式会社優和,,株式会社,神奈川県,横浜市緑区,長津田町３０２９番地,,14,113,2260026,,,,,,,2025-03-12,1,,,,,ユウワ,0
367,2020003028002,新規,0,2025-03-12,2025-03-12,ＴＡＳＥ合同会社,,合同会社,神奈川県,横浜市港南区,日限山１丁目５５－７,,14,111,2330015,,,,,,,2025-03-12,1,,,,,タセ,0
368,2020003028010,新規,0,2025-03-12,2025-03-12,合同会社ＡＡＮＹＡ　Ｉｎｔｅｒｎａｔｉｏｎａｌ,,合同会社,神奈川県,横浜市鶴見区,獅子ケ谷２丁目３７番１７号ユナイト大倉山レイナーワイス２１７,,14,101,2300073,,,,,,,2025-03-12,1,,,,,アンヤインターナショナル,0
370,2021001084680,新規,0,2025-03-12,2025-03-12,ＭＵＳＵＢＵ　ＣＲＡＦＴ株式会社,,株式会社,神奈川県,海老名市,中野１丁目９番２７号－２０１号,,14,215,2430425,,,,,,,2025-03-12,1,,,,,ムスブクラフト,0
371,2021001084706,新規,0,2025-03-12,2025-03-12,株式会社３０Ｈｏｍｅ,,株式会社,神奈川県,座間市,相模が丘３丁目６１番３８号,,14,216,2520001,,,,,,,2025-03-12,1,,,,,サーティホーム,0
375,2021005013297,新規,0,2025-03-12,2025-03-12,医療法人社団藤咲会,,その他の設立登記法人,神奈川県,藤沢市,柄沢５５８番地の９,,14,205,2510003,,,,,,,2025-03-12,1,,,,,フジサキカイ,0
379,2030001165390,新規,0,2025-03-12,2025-03-12,株式会社ＭＡＭＯ　ＧＲＯＵＰ,,株式会社,埼玉県,川口市,戸塚東１丁目２２番１０号,,11,203,3330802,,,,,,,2025-03-12,1,,,,,マモグループ,0
380,2030001165408,新規,0,2025-03-12,2025-03-12,株式会社ＭＩＹＡＫＡＲＡ,,株式会社,埼玉県,熊谷市,佐谷田５７６番地４,,11,202,3600023,,,,,,,2025-03-12,1,,,,,ミヤカラ,0
387,2040001137653,新規,0,2025-03-12,2025-03-12,株式会社ＵＴＳＡ,,株式会社,千葉県,市川市,北方町４丁目１５４７番地１,,12,203,2720811,,,,,,,2025-03-12,1,,,,,ユーティーエスエー,0
388,2040001137752,新規,0,2025-03-12,2025-03-12,日本トラストインターナショナル株式会社,,株式会社,千葉県,野田市,船形４８８６番地,,12,208,2700233,,,,,,,2025-03-12,1,,,,,ニホントラストインターナショナル,0
389,2040001137760,新規,0,2025-03-12,2025-03-12,株式会社Ｒａｉｓｅ,,株式会社,千葉県,習志野市,大久保３丁目５－１５,,12,216,2750011,,,,,,,2025-03-12,1,,,,,レイズ,0
394,2050001056282,新規,0,2025-03-12,2025-03-12,株式会社興和ＨＤ,,株式会社,茨城県,猿島郡五霞町,大字元栗橋７４４２番地,,08,542,3060313,,,,,,,2025-03-12,1,,,,,コウワホールディングス,0
395,2050001056332,新規,0,2025-03-12,2025-03-12,株式会社ＫＩＳＳＡＫＩ,,株式会社,茨城県,神栖市,波崎９４６１－４,,08,232,3140408,,,,,,,2025-03-12,1,,,,,キッサキ,0
396,2050003009107,新規,0,2025-03-12,2025-03-12,ＹＵＫＩ　ＩＮＴＥＲＮＡＴＩＯＮＡＬ合同会社,,合同会社,茨城県,古河市,長谷町１番地２増田ハイツ１０５,,08,204,3060034,,,,,,,2025-03-12,1,,,,,ユキインターナショナル,0
398,2060001037991,新規,0,2025-03-12,2025-03-12,ネクストデジタル株式会社,,株式会社,栃木県,大田原市,大豆田１４８番地１,,09,210,3240242,,,,,,,2025-03-12,1,,,,,ネクストデジタル,0
399,2060001038008,新規,0,2025-03-12,2025-03-12,株式会社小野寺建興,,株式会社,栃木県,栃木市,都賀町合戦場７４２番地３,,09,203,3280113,,,,,,,2025-03-12,1,,,,,オノデラケンコウ,0
400,2060001038024,新規,0,2025-03-12,2025-03-12,株式会社ナミサト建材,,株式会社,栃木県,佐野市,吉水駅前２丁目８番地１グローバルハイツ２０３,,09,204,3270315,,,,,,,2025-03-12,1,,,,,ナミサトケンザイ,0
402,2060003005468,新規,0,2025-03-12,2025-03-12,合同会社どんぐり,,合同会社,栃木県,日光市,小佐越１０７８番地５,,09,206,3212525,,,,,,,2025-03-12,1,,,,,ドングリ,0
405,2070001042719,新規,0,2025-03-12,2025-03-12,株式会社ＳＵＮ,,株式会社,群馬県,邑楽郡板倉町,大字大曲１１１５番地,,10,521,3740105,,,,,,,2025-03-12,1,,,,,サン,0
406,2070001042727,新規,0,2025-03-12,2025-03-12,株式会社群八,,株式会社,群馬県,前橋市,本町２丁目１９－４,,10,201,3710023,,,,,,,2025-03-12,1,,,,,グンパチ,0
408,2080001026803,新規,0,2025-03-12,2025-03-12,株式会社眞田重建,,株式会社,静岡県,静岡市葵区,東１丁目２１番１９号,,22,101,4200962,,,,,,,2025-03-12,1,,,,,サナダジュウケン,0
409,2080101025366,新規,0,2025-03-12,2025-03-12,株式会社Ｓｍｅｌｌｏｗ,,株式会社,静岡県,富士宮市,大中里７６３番２,,22,207,4180044,,,,,,,2025-03-12,1,,,,,スメロー,0
411,2080401027797,新規,0,2025-03-12,2025-03-12,風吹株式会社,,株式会社,静岡県,浜松市天竜区,山東２１０６番地の８６,,22,140,4313303,,,,,,,2025-03-12,1,,,,,フブキ,0
416,2100001038341,新規,0,2025-03-12,2025-03-12,Ｏｆｆ　Ｔｈｅ　Ｈｏｏｋ　Ｒｅｓｏｒｔ株式会社,,株式会社,長野県,大町市,平２８１１番２５,,20,212,3980001,,,,,,,2025-03-12,1,,,,,オフザフックリゾート,0
417,2100001038366,新規,0,2025-03-12,2025-03-12,株式会社花ぱんだ,,株式会社,長野県,上伊那郡飯島町,飯島２８６３番地６５,,20,384,3993702,,,,,,,2025-03-12,1,,,,,ハナパンダ,0
418,2100001038390,新規,0,2025-03-12,2025-03-12,ＬＯＮＧＩＮＧＨＯＵＳＥ株式会社,,株式会社,長野県,北佐久郡軽井沢町,大字軽井沢８７８番地２,,20,321,3890102,,,,,,,2025-03-12,1,,,,,ロンギングハウス,0
421,2110001039108,新規,0,2025-03-12,2025-03-12,ＯｆｆｉｃｅＪＵＮ株式会社,,株式会社,新潟県,新潟市中央区,米山６丁目１５番１０号,,15,103,9500916,,,,,,,2025-03-12,1,,,,,オフィスジュン,0
422,2110001039116,新規,0,2025-03-12,2025-03-12,株式会社ＬＡＶＥＥＴ,,株式会社,新潟県,長岡市,古正寺３丁目２６４番地,,15,202,9402106,,,,,,,2025-03-12,1,,,,,ラヴェート,0
440,2120001273589,新規,0,2025-03-12,2025-03-12,株式会社ＷＡＴＥＲＷＡＶＥ,,株式会社,大阪府,枚方市,宇山東町１７番４号,,27,210,5731136,,,,,,,2025-03-12,1,,,,,ウォーターウェーブ,0
443,2120101071224,新規,0,2025-03-12,2025-03-12,株式会社ＬＯＡＤ　ＵＰ,,株式会社,大阪府,貝塚市,木積１９６８番地６マンションアイム３０３号室,,27,208,5970102,,,,,,,2025-03-12,1,,,,,ロードアップ,0
446,2120901050559,新規,0,2025-03-12,2025-03-12,株式会社ミュリエル,,株式会社,大阪府,箕面市,船場西２丁目２番１号ニューエリモビル３階,,27,220,5620036,,,,,,,2025-03-12,1,,,,,ミュリエル,0
451,2130001079192,新規,0,2025-03-12,2025-03-12,株式会社大徹設備工業,,株式会社,京都府,京都市左京区,一乗寺北大丸町５０番地,,26,103,6068114,,,,,,,2025-03-12,1,,,,,ダイテツセツビコウギョウ,0
459,2140001137684,新規,0,2025-03-12,2025-03-12,株式会社ＭｅｄｉｃＴｒａｎｓｌａｔｅ,,株式会社,兵庫県,神戸市中央区,浪花町５６番地起業プラザひょうご内,,28,110,6500035,,,,,,,2025-03-12,1,,,,,メディックトランスレート,0
460,2140001137701,新規,0,2025-03-12,2025-03-12,株式会社ＴＮＰ,,株式会社,兵庫県,尼崎市,高田町１３番３号,,28,202,6610963,,,,,,,2025-03-12,1,,,,,ティーエヌピー,0
468,2150001027950,新規,0,2025-03-12,2025-03-12,株式会社パーソンズ,,株式会社,奈良県,橿原市,曲川町７丁目８番１８号,,29,205,6340837,,,,,,,2025-03-12,1,,,,,パーソンズ,0
471,2160001026596,新規,0,2025-03-12,2025-03-12,株式会社コインパーキング,,株式会社,滋賀県,近江八幡市,鷹飼町１０８５番地,,25,204,5230891,,,,,,,2025-03-12,1,,,,,コインパーキング,0
474,2170005007138,新規,0,2025-03-12,2025-03-12,特定非営利活動法人シールド,,その他の設立登記法人,和歌山県,紀の川市,桃山町調月１９４８番地１,,30,208,6496112,,,,,,,2025-03-12,1,,,,,シールド,0
481,2180001165830,新規,0,2025-03-12,2025-03-12,株式会社ビズエル,,株式会社,愛知県,名古屋市中区,丸の内２丁目１番３６号ＮＵＰ・フジサワ丸の内ビル８階,,23,106,4600002,,,,,,,2025-03-12,1,,,,,ビズエル,0
482,2180001165855,新規,0,2025-03-12,2025-03-12,株式会社ビーワンクロス,,株式会社,愛知県,名古屋市千種区,丸山町３丁目３７番地,,23,101,4640843,,,,,,,2025-03-12,1,,,,,ビーワンクロス,0
483,2180001165871,新規,0,2025-03-12,2025-03-12,やすむら物流株式会社,,株式会社,愛知県,名古屋市中川区,吉津２丁目６１３番地の５,,23,110,4540981,,,,,,,2025-03-12,1,,,,,ヤスムラブツリュウ,0
484,2180001165913,新規,0,2025-03-12,2025-03-12,ＣｈｅｅｒＳｏＦｔ株式会社,,株式会社,愛知県,名古屋市中村区,則武２丁目２５番１１号朝日プラザ名古屋ターミナルスクエア６１２,,23,105,4530014,,,,,,,2025-03-12,1,,,,,チアソフト,0
489,2180003028127,新規,0,2025-03-12,2025-03-12,Ｂｏｓｔｏｎ　Ｉｎｔｅｒｎａｔｉｏｎａｌ合同会社,,合同会社,愛知県,名古屋市天白区,元八事３丁目９０アイロスコート２０１,,23,116,4680066,,,,,,,2025-03-12,1,,,,,ボストンインターナショナル,0
490,2180003028135,新規,0,2025-03-12,2025-03-12,合同会社ｉＭｅｄｉａ,,合同会社,愛知県,名古屋市中村区,名駅４丁目２４番５号第２森ビル４０１,,23,105,4500002,,,,,,,2025-03-12,1,,,,,アイメディア,0
491,2180003028143,新規,0,2025-03-12,2025-03-12,合同会社ＥＸ,,合同会社,愛知県,弥富市,鯏浦町西前新田１３７－１リバブルヤトミ,,23,235,4980026,,,,,,,2025-03-12,1,,,,,エクス,0
494,2180301039577,新規,0,2025-03-12,2025-03-12,株式会社クライムホールディングス,,株式会社,愛知県,豊橋市,下地町字境田１００番地,,23,201,4400083,,,,,,,2025-03-12,1,,,,,クライムホールディングス,0
495,2180301039610,新規,0,2025-03-12,2025-03-12,株式会社絆,,株式会社,愛知県,豊田市,篠原町郷屋敷９０番地,,23,211,4700352,,,,,,,2025-03-12,1,,,,,キズナ,0
496,2180303006484,新規,0,2025-03-12,2025-03-12,ＡＹＵＹＡ合同会社,,合同会社,愛知県,岡崎市,羽根町字鰻池７０番地３,,23,202,4440813,,,,,,,2025-03-12,1,,,,,アユヤ,0
497,2190003004960,新規,0,2025-03-12,2025-03-12,プロセスサポート合同会社,,合同会社,三重県,鈴鹿市,北長太町２５８番地の１３,,24,207,5130049,,,,,,,2025-03-12,1,,,,,プロセスサポート,0
499,2210001020098,新規,0,2025-03-12,2025-03-12,株式会社Ｂｌｏｏｍ,,株式会社,福井県,福井市,中央１丁目２－１シンフォニアタワーコート福井１３０６,,18,201,9100006,,,,,,,2025-03-12,1,,,,,シンフォニアタワーコート,0
503,2220003003975,新規,0,2025-03-12,2025-03-12,合同会社澪,,合同会社,石川県,かほく市,松浜ハ１６番地１,,17,209,9291172,,,,,,,2025-03-12,1,,,,,レイ,0
507,2240001064654,新規,0,2025-03-12,2025-03-12,株式会社マチルダ,,株式会社,広島県,安芸郡府中町,本町４丁目３番４－１０１号,,34,302,7350006,,,,,,,2025-03-12,1,,,,,マチルダ,0
513,2260001040001,新規,0,2025-03-12,2025-03-12,株式会社ＰｏｎｏＬｉｆｅ,,株式会社,岡山県,岡山市南区,泉田４１６番地２,,33,104,7000944,,,,,,,2025-03-12,1,,,,,ポノライフ,0
514,2260001040018,新規,0,2025-03-12,2025-03-12,株式会社晴天,,株式会社,岡山県,岡山市北区,西辛川７５６番地,,33,101,7011213,,,,,,,2025-03-12,1,,,,,セイテン,0
519,2270003001719,新規,0,2025-03-12,2025-03-12,合同会社ＫＩＭ,,合同会社,鳥取県,米子市,博労町１丁目１１０番地,,31,202,6830052,,,,,,,2025-03-12,1,,,,,キム,0
520,2290001109198,新規,0,2025-03-12,2025-03-12,モモカンパニー株式会社,,株式会社,福岡県,久留米市,合川町１３４０番地１,,40,203,8390861,,,,,,,2025-03-12,1,,,,,モモカンパニー,0
521,2290001109223,新規,0,2025-03-12,2025-03-12,クラフトＮＥＸＴ株式会社,,株式会社,福岡県,福岡市博多区,石城町１番３－１００６号,,40,132,8120032,,,,,,,2025-03-12,1,,,,,クラフトネクスト,0
522,2290001109248,新規,0,2025-03-12,2025-03-12,株式会社ＭＴｅＮｅＴ,,株式会社,福岡県,大川市,大字向島１７６０番地３,,40,212,8310005,,,,,,,2025-03-12,1,,,,,エムテネット,0
523,2290001109264,新規,0,2025-03-12,2025-03-12,株式会社ｅｓｅｎｃｉａ,,株式会社,福岡県,福岡市博多区,博多駅東１丁目２番５号,,40,132,8120013,,,,,,,2025-03-12,1,,,,,エセンシア,0
524,2290001109280,新規,0,2025-03-12,2025-03-12,株式会社ＧＪ　Ａｇａｉｎ,,株式会社,福岡県,福岡市早良区,百道浜１丁目４番１６－２０１号,,40,137,8140001,,,,,,,2025-03-12,1,,,,,ジージェイアゲイン,0
525,2290001109289,新規,0,2025-03-12,2025-03-12,株式会社マルシンビルサービス福岡,00138311,株式会社,福岡県,筑紫野市,二日市北６丁目１８番４０号,,40,217,8180056,,,,,,,2025-03-12,1,,,,,,0
526,2290001109306,新規,0,2025-03-12,2025-03-12,株式会社巧技術設計,,株式会社,福岡県,福岡市南区,向野２丁目２番１号,,40,134,8150035,,,,,,,2025-03-12,1,,,,,タクミギジュツセッケイ,0
528,2290003016525,新規,0,2025-03-12,2025-03-12,合同会社正実,,合同会社,福岡県,福岡市南区,皿山２丁目６番６－３０２号アメイズ長住南皿山中央公園,,40,134,8111365,,,,,,,2025-03-12,1,,,,,セイジツ,0
531,2290801031345,新規,0,2025-03-12,2025-03-12,株式会社アース,,株式会社,福岡県,京都郡苅田町,神田町１丁目２２番地４－Ａ,,40,621,8000361,,,,,,,2025-03-12,1,,,,,アース,0
532,2310001019493,新規,0,2025-03-12,2025-03-12,Ｍｅｘｔａ株式会社,,株式会社,長崎県,長崎市,大黒町１０番１０号ＫｏＫｏＲｏビル６１５８号室,,42,201,8500057,,,,,,,2025-03-12,1,,,,,メクスタ,0
541,2340003004771,新規,0,2025-03-12,2025-03-12,合同会社Ｙ＆ＣＯ．,,合同会社,鹿児島県,鹿児島市,郡元町２５番１０－１１０３号,,46,201,8900084,,,,,,,2025-03-12,1,,,,,ワイアンドカンパニー,0
543,2360001034892,新規,0,2025-03-12,2025-03-12,ＴＯＲＡＨＯＵＳＥ株式会社,,株式会社,沖縄県,中頭郡北谷町,字宮城１番地１－１００１,,47,326,9040113,,,,,,,2025-03-12,1,,,,,トラハウス,0
544,2360003014760,新規,0,2025-03-12,2025-03-12,合同会社ＧＲＡＴＩＴＵＤＥ,,合同会社,沖縄県,石垣市,字平得４１７番地４グランデＨｏｓｈｉｎｏ２０１,,47,207,9070003,,,,,,,2025-03-12,1,,,,,グラティテュード,0
549,2370005010922,新規,0,2025-03-12,2025-03-12,特定非営利活動法人ｔｏ　Ｒｉｇｈｔｓ,,その他の設立登記法人,宮城県,仙台市太白区,富沢西５丁目１２番地の２８ＰＡＳＳＩＯＮＥＩＶ,00138304,04,104,9820037,,,,,,,2025-03-12,1,,,,,トゥライツ,0
554,2400005008475,新規,0,2025-03-12,2025-03-12,農事組合法人にいやまファーム,,その他の設立登記法人,岩手県,一関市,大東町大原字雪洞９番地１,,03,209,0290711,,,,,,,2025-03-12,1,,,,,ニイヤマファーム,0
556,2410003004062,新規,0,2025-03-12,2025-03-12,合同会社福来,,合同会社,秋田県,由利本荘市,岩城亀田愛宕町字徒士町２０番地,,05,210,0181216,,,,,,,2025-03-12,1,,,,,,0
558,2420001019053,新規,0,2025-03-12,2025-03-12,ａｐｐｃｙｃｌｅ　ｍｉｒａｉ株式会社,,株式会社,青森県,弘前市,大字上鞘師町１８‐１‐４階,,02,202,0368354,,,,,,,2025-03-12,1,,,,,アップサイクルミライ,0
563,2430001093873,新規,0,2025-03-12,2025-03-12,株式会社ＳＯＭＥＩＹＯＳＨＩＮＯ,,株式会社,北海道,札幌市東区,東苗穂十二条３丁目１番１６号,,01,103,0070812,,,,,,,2025-03-12,1,,,,,ソメイヨシノ,0
564,2430001093907,新規,0,2025-03-12,2025-03-12,株式会社音道,,株式会社,北海道,札幌市厚別区,厚別東二条７丁目３番２８号,,01,108,0040002,,,,,,,2025-03-12,1,,,,,オトミチ,0
567,2450001014555,新規,0,2025-03-12,2025-03-12,株式会社ｈｉｎｏｋｉ不動産,,株式会社,北海道,旭川市,神居四条１５丁目２番１４号,,01,204,0708014,,,,,,,2025-03-12,1,,,,,ヒノキフドウサン,0
572,2460101007680,新規,0,2025-03-12,2025-03-12,株式会社森農園,,株式会社,北海道,帯広市,基松町西２線１７番地,,01,207,0802331,,,,,,,2025-03-12,1,,,,,モリノウエン,0
573,2460301005286,新規,0,2025-03-12,2025-03-12,株式会社櫻井水産,,株式会社,北海道,北見市,常呂町字常呂２４番地５,,01,208,0930210,,,,,,,2025-03-12,1,,,,,サクライスイサン,0
574,2470001020618,新規,0,2025-03-12,2025-03-12,讃岐キャピタル株式会社,,株式会社,香川県,高松市,中山町９番地１,,37,201,7618004,,,,,,,2025-03-12,1,,,,,,0
575,2490001010988,新規,0,2025-03-12,2025-03-12,株式会社サンテクノ,,株式会社,高知県,南国市,植野１３１番地,,39,204,7830061,,,,,,,2025-03-12,1,,,,,サンテクノ,0
578,2700150129533,新規,0,2025-03-12,2025-03-12,東京ナイトタイム魅力創出プロジェクト実行委員会,,その他,東京都,新宿区,西新宿２丁目８－１,,13,104,1600023,,,,,,,2025-03-12,1,,,,,トウキョウナイトタイムミリョクソウシュツプロジェクトジッコウイインカイ,0
593,3010001252999,新規,0,2025-03-12,2025-03-12,蔵藝斎株式会社,,株式会社,東京都,千代田区,外神田２丁目１番８号スクエア秋葉原１０５号室,,13,101,1010021,,,,,,,2025-03-12,1,,,,,ゾウゲイサイ,0
594,3010001253106,新規,0,2025-03-12,2025-03-12,ビルタス株式会社,,株式会社,東京都,中央区,日本橋室町１丁目１１－１２日本橋水野ビル７階,,13,102,1030022,,,,,,,2025-03-12,1,,,,,ビルタス,0
597,3010003046714,新規,0,2025-03-12,2025-03-12,合同会社グローバルエステート,,合同会社,東京都,中央区,勝どき３丁目７番６号－３０２,,13,102,1040054,,,,,,,2025-03-12,1,,,,,グローバルエステート,0
598,3010003046730,新規,0,2025-03-12,2025-03-12,ハパチューン合同会社,,合同会社,東京都,中央区,日本橋本町２丁目３番１１号,,13,102,1030023,,,,,,,2025-03-12,1,,,,,ハパチューン,0
603,3010103002518,新規,0,2025-03-12,2025-03-12,カラーバスケット合同会社,,合同会社,東京都,八王子市,初沢町１２３１－５１－７０１,,13,201,1930845,,,,,,,2025-03-12,1,,,,,,0
607,3010401188819,新規,0,2025-03-12,2025-03-12,Ｂｏｔａｏ　Ｊａｐａｎ　Ｇｒｅｅｎ　Ｅｎｅｒｇｙ　Ｔｅｃｈｎｏｌｏｇｙ株式会社,,株式会社,東京都,港区,芝浦４丁目９番１８－７０２号室,,13,103,1080023,,,,,,,2025-03-12,1,,,,,ボタオジャパングリーンインターナショナルテクノロジー,0
611,3010403034574,新規,0,2025-03-12,2025-03-12,ななつば合同会社,,合同会社,東京都,港区,西新橋２丁目１４番１号,,13,103,1050003,,,,,,,2025-03-12,1,,,,,ナナツバ,0
612,3010403034608,新規,0,2025-03-12,2025-03-12,Ｉｎｎｅｒ　Ｃｈａｐｔｅｒ合同会社,,合同会社,東京都,港区,白金台３丁目１０番１０号,,13,103,1080071,,,,,,,2025-03-12,1,,,,,インナーチャプター,0
614,3010603011357,新規,0,2025-03-12,2025-03-12,合同会社スキルライズ,,合同会社,東京都,墨田区,立川４丁目１５番５号セザール錦糸町６０５,,13,107,1300023,,,,,,,2025-03-12,1,,,,,スキルライズ,0
615,3010701047352,新規,0,2025-03-12,2025-03-12,株式会社ＣＮマーケティング,,株式会社,東京都,品川区,東大井２丁目２０番１０号アジールコート東大井５０５,,13,109,1400011,,,,,,,2025-03-12,1,,,,,シーエヌマーケティング,0
618,3010803005299,新規,0,2025-03-12,2025-03-12,Ｐｉａｎｉｓｔａ合同会社,,合同会社,東京都,大田区,西馬込１丁目１－４－５０８,,13,111,1430026,,,,,,,2025-03-12,1,,,,,ピアニスタ,0
629,3011001168285,新規,0,2025-03-12,2025-03-12,圓茂國際株式会社,,株式会社,東京都,渋谷区,代々木３丁目３８番１０号,,13,113,1510053,,,,,,,2025-03-12,1,,,,,エンモコクサイ,0
638,3011301030426,新規,0,2025-03-12,2025-03-12,株式会社ヤマトク,,株式会社,東京都,杉並区,高円寺北３丁目３０番１２号,,13,115,1660002,,,,,,,2025-03-12,1,,,,,ヤマトク,0
641,3011303005450,新規,0,2025-03-12,2025-03-12,合同会社ＤＤＳ女神転生,,合同会社,東京都,杉並区,南荻窪４丁目１８番１４号,,13,115,1670052,,,,,,,2025-03-12,1,,,,,ディーディーエスメガミテンセイ,0
645,3011505002683,新規,0,2025-03-12,2025-03-12,特定非営利活動法人Ｐａｌｅｔｔｅ　Ｗｏｒｋｓ,,その他の設立登記法人,東京都,北区,豊島５丁目３番１３号ココキタ３階３－Ｈ,,13,117,1140003,,,,,,,2025-03-12,1,,,,,パレットワークス,0
648,3011601028475,新規,0,2025-03-12,2025-03-12,株式会社はやせ,,株式会社,東京都,練馬区,田柄１丁目４番２７－２０１号,,13,120,1790073,,,,,,,2025-03-12,1,,,,,ハヤセ,0
651,3011801045782,新規,0,2025-03-12,2025-03-12,Ｇｒｅｅｎｓ株式会社,,株式会社,東京都,足立区,千住３丁目２０番地,,13,121,1200034,,,,,,,2025-03-12,1,,,,,グリーンズ,0
652,3011803006733,新規,0,2025-03-12,2025-03-12,合同会社うれいら,,合同会社,東京都,足立区,花畑６丁目２７－３クレバリーハイム１０１,,13,121,1210061,,,,,,,2025-03-12,1,,,,,ウレイラ,0
653,3012303002124,新規,0,2025-03-12,2025-03-12,合同会社すなつく,,合同会社,東京都,町田市,原町田６丁目９番８号ＡＥＴＡ町田４階,,13,209,1940013,,,,,,,2025-03-12,1,,,,,スナツク,0
656,3012701018746,新規,0,2025-03-12,2025-03-12,空蝉株式会社,,株式会社,東京都,東村山市,諏訪町１丁目２８番地２－１０２号室,,13,213,1890021,,,,,,,2025-03-12,1,,,,,ウツセミ,0
657,3012701018754,新規,0,2025-03-12,2025-03-12,株式会社Ｔａｒｋｙ,,株式会社,東京都,小平市,仲町２８９番地の６パレーシャルＢ－１０２,,13,211,1870042,,,,,,,2025-03-12,1,,,,,ターキー,0
674,3020003027993,新規,0,2025-03-12,2025-03-12,合同会社ＷｈｉｔｅＳｐａｃｅ,,合同会社,神奈川県,横浜市神奈川区,金港町５－１４クアドリフォリオ８階,,14,102,2210056,,,,,,,2025-03-12,1,,,,,ホワイトスペース,0
679,3021001084671,新規,0,2025-03-12,2025-03-12,株式会社湘南さくら不動産,,株式会社,神奈川県,藤沢市,朝日町１８番地の８桜ビル２０１,,14,205,2510054,,,,,,,2025-03-12,1,,,,,ショウナンサクラフドウサン,0
680,3021001084705,新規,0,2025-03-12,2025-03-12,日本総合住建株式会社,,株式会社,神奈川県,藤沢市,藤沢３丁目１－４上野ビル１ＦＡ,,14,205,2510052,,,,,,,2025-03-12,1,,,,,ニホンソウゴウジュウケン,0
681,3021001084713,新規,0,2025-03-12,2025-03-12,株式会社Ｎｅｒｏ　Ｒｏｓｓｏ,,株式会社,神奈川県,横須賀市,二葉２丁目２１番３４号,,14,201,2390814,,,,,,,2025-03-12,1,,,,,ネロロッソ,0
683,3021003015708,新規,0,2025-03-12,2025-03-12,合同会社リーチメドパートナーズ,,合同会社,神奈川県,鎌倉市,腰越５丁目７番３１号,,14,204,2480033,,,,,,,2025-03-12,1,,,,,リーチメドパートナーズ,0
684,3021003015724,新規,0,2025-03-12,2025-03-12,合同会社心と力,,合同会社,神奈川県,厚木市,幸町７－５,,14,212,2430012,,,,,,,2025-03-12,1,,,,,ココロトチカラ,0
697,3040001137669,新規,0,2025-03-12,2025-03-12,株式会社Ｔｅａｍ　ｏｆ　Ｔｅａｍｓ,,株式会社,千葉県,船橋市,二和西３丁目１３番３０号アペルトカーサ西１０２,,12,204,2740806,,,,,,,2025-03-12,1,,,,,チームオブチームズ,0
698,3040001137751,新規,0,2025-03-12,2025-03-12,ｋｏｔｏ‐ｂａｌａｎｃｅ株式会社,,株式会社,千葉県,松戸市,栄町７丁目５８２番地の１２,,12,207,2710062,,,,,,,2025-03-12,1,,,,,コトバランス,0
699,3040001137801,新規,0,2025-03-12,2025-03-12,株式会社ＡＸＡＬ,,株式会社,千葉県,千葉市美浜区,稲毛海岸５丁目２７番３３号,,12,106,2610005,,,,,,,2025-03-12,1,,,,,アクサル,0
700,3050001056265,新規,0,2025-03-12,2025-03-12,株式会社アークシエルコーポレーション,,株式会社,茨城県,守谷市,松ケ丘３丁目１７番地１２,,08,224,3020127,,,,,,,2025-03-12,1,,,,,アークシエルコーポレーション,0
701,3050001056323,新規,0,2025-03-12,2025-03-12,やよいＳ＆Ｃ株式会社,,株式会社,茨城県,神栖市,知手２９７４番地２５８,,08,232,3140115,,,,,,,2025-03-12,1,,,,,ヤヨイエスアンドシー,0
703,3060001037999,新規,0,2025-03-12,2025-03-12,株式会社わざあり,,株式会社,栃木県,宇都宮市,桜３丁目１番３号,,09,201,3200043,,,,,,,2025-03-12,1,,,,,ワザアリ,0
704,3060001038015,新規,0,2025-03-12,2025-03-12,株式会社ミューズビジョン,,株式会社,栃木県,宇都宮市,泉が丘２丁目１３番８号,,09,201,3210952,,,,,,,2025-03-12,1,,,,,ミューズビジョン,0
705,3060001038023,新規,0,2025-03-12,2025-03-12,株式会社空風音,,株式会社,栃木県,河内郡上三川町,大字上蒲生２０２１番地４,,09,301,3290617,,,,,,,2025-03-12,1,,,,,クフネ,0
708,3080003003411,新規,0,2025-03-12,2025-03-12,合同会社Ｈｏｋｕｌａｎｉ,,合同会社,静岡県,静岡市清水区,大平５０２番地,,22,103,4240411,,,,,,,2025-03-12,1,,,,,ホクラニ,0
709,3080101025365,新規,0,2025-03-12,2025-03-12,ｈｏｍｉｅ株式会社,,株式会社,静岡県,三島市,富士ビレッジ３４番１７号,,22,206,4110028,,,,,,,2025-03-12,1,,,,,ホミー,0
714,3100001038373,新規,0,2025-03-12,2025-03-12,ＳＳｄｅｓｉｇｎ株式会社,,株式会社,長野県,北佐久郡軽井沢町,大字追分３０７番地,,20,321,3890115,,,,,,,2025-03-12,1,,,,,エスエスデザイン,0
715,3100001038381,新規,0,2025-03-12,2025-03-12,株式会社ＴＭグロース,,株式会社,長野県,千曲市,大字打沢１５８番地３,,20,218,3870014,,,,,,,2025-03-12,1,,,,,ティーエムグロース,0
719,3110001039115,新規,0,2025-03-12,2025-03-12,アクアフロニックス株式会社,,株式会社,新潟県,長岡市,南陽２丁目９５１番地１２,,15,202,9401164,,,,,,,2025-03-12,1,,,,,アクアフロニックス,0
725,3120001273588,新規,0,2025-03-12,2025-03-12,吉麗美貿易株式会社,,株式会社,大阪府,大阪市住之江区,浜口西１丁目１３番１５－２０１号,,27,125,5590006,,,,,,,2025-03-12,1,,,,,キチレイビボウエキ,0
728,3120003028800,新規,0,2025-03-12,2025-03-12,合同会社ＪＳＣＬ,,合同会社,大阪府,大阪市此花区,高見１丁目４番５４号,,27,104,5540001,,,,,,,2025-03-12,1,,,,,ジャスカル,0
729,3120003028817,新規,0,2025-03-12,2025-03-12,ＴＭＷコンサルティング合同会社,,合同会社,大阪府,大阪市都島区,善源寺町２丁目２番８－２７０２号,,27,102,5340015,,,,,,,2025-03-12,1,,,,,ティーエムダブリューコンサルティング,0
730,3120003028825,新規,0,2025-03-12,2025-03-12,もも合同会社,,合同会社,大阪府,大阪市生野区,新今里３丁目１２番６号山田ビル２階,,27,116,5440001,,,,,,,2025-03-12,1,,,,,モモ,0
732,3120101071223,新規,0,2025-03-12,2025-03-12,株式会社アクアペイント,,株式会社,大阪府,岸和田市,箕土路町１丁目５番１８号,,27,202,5960801,,,,,,,2025-03-12,1,,,,,アクアペイント,0
733,3120101071231,新規,0,2025-03-12,2025-03-12,株式会社Ｎ・Ｋ,,株式会社,大阪府,富田林市,甲田１丁目４番３８号,,27,214,5840036,,,,,,,2025-03-12,1,,,,,エヌケー,0
737,3120901050566,新規,0,2025-03-12,2025-03-12,株式会社勝山興業,,株式会社,大阪府,三島郡島本町,高浜１丁目２０番１１－１号,,27,301,6180012,,,,,,,2025-03-12,1,,,,,カツヤマコウギョウ,0
744,3130001079175,新規,0,2025-03-12,2025-03-12,株式会社ｍｄｃ,,株式会社,京都府,向日市,寺戸町岸ノ下１番地の１３,,26,208,6170002,,,,,,,2025-03-12,1,,,,,エムディーシー,0
749,3140001137493,新規,0,2025-03-12,2025-03-12,ＡＩ’ｍ株式会社,,株式会社,兵庫県,芦屋市,東山町２番７－３０１号,,28,206,6590091,,,,,,,2025-03-12,1,,,,,アイム,0
750,3140001137691,新規,0,2025-03-12,2025-03-12,Ｋｉｎｏｅ　ＨＤ株式会社,,株式会社,兵庫県,三木市,平田１２０番地の１,,28,215,6730405,,,,,,,2025-03-12,1,,,,,キノエホールディングス,0
751,3140001137741,新規,0,2025-03-12,2025-03-12,株式会社Ｃｏｎｎｅｃｔ,,株式会社,兵庫県,西宮市,大屋町３２番２１号ムーンパレス２０１号,,28,204,6638106,,,,,,,2025-03-12,1,,,,,コネクト,0
754,3150001027941,新規,0,2025-03-12,2025-03-12,フェニックスマテリアル株式会社,,株式会社,奈良県,橿原市,菖蒲町２丁目１４番２４号,,29,205,6340042,,,,,,,2025-03-12,1,,,,,フェニックスマテリアル,0
755,3150001027958,新規,0,2025-03-12,2025-03-12,株式会社Ｇｅｎｅｒａｌ,,株式会社,奈良県,生駒郡三郷町,立野南１丁目９番１２号,,29,343,6360822,,,,,,,2025-03-12,1,,,,,ジェネラル,0
756,3150003003528,新規,0,2025-03-12,2025-03-12,合同会社心実堂,,合同会社,奈良県,大和郡山市,池沢町４２９番地２５－１０２,,29,203,6391032,,,,,,,2025-03-12,1,,,,,ココミドウ,0
761,3180001165796,新規,0,2025-03-12,2025-03-12,レーヴ株式会社,,株式会社,愛知県,名古屋市天白区,原１丁目８１３,,23,116,4680015,,,,,,,2025-03-12,1,,,,,レーヴ,0
762,3180001165813,新規,0,2025-03-12,2025-03-12,株式会社ネクストクリエイツ,,株式会社,愛知県,名古屋市西区,名駅２丁目３４番１７号セントラル名古屋７１０号室,,23,104,4510045,,,,,,,2025-03-12,1,,,,,ネクストクリエイツ,0
763,3180001165912,新規,0,2025-03-12,2025-03-12,株式会社エンツナクリエイト,,株式会社,愛知県,名古屋市北区,平安通１丁目５番地ヴュロードリベルテ８Ｂ,,23,103,4620816,,,,,,,2025-03-12,1,,,,,エンツナクリエイト,0
765,3180003028142,新規,0,2025-03-12,2025-03-12,合同会社紫空,,合同会社,愛知県,名古屋市東区,主税町２丁目３番地,,23,102,4610018,,,,,,,2025-03-12,1,,,,,シクウ,0
770,3190001032070,新規,0,2025-03-12,2025-03-12,株式会社アイシー,,株式会社,三重県,桑名市,陽だまりの丘６丁目６１１番地,,24,205,5110867,,,,,,,2025-03-12,1,,,,,アイシー,0
771,3200001043520,新規,0,2025-03-12,2025-03-12,株式会社アールエフ,,株式会社,岐阜県,羽島郡岐南町,八剣７丁目７９番地の３,,21,302,5016012,,,,,,,2025-03-12,1,,,,,アールエフ,0
775,3220003003974,新規,0,2025-03-12,2025-03-12,合同会社パルプンテ．,,合同会社,石川県,金沢市,中橋町３番５号ＭＡＴＥＹ金澤２０２,,17,201,9200035,,,,,,,2025-03-12,1,,,,,パルプンテ,0
777,3230003002389,新規,0,2025-03-12,2025-03-12,合同会社ＵＫＡ,,合同会社,富山県,高岡市,戸出町６丁目１０番１７号,,16,202,9391104,,,,,,,2025-03-12,1,,,,,ウカ,0
782,3240001064629,新規,0,2025-03-12,2025-03-12,株式会社ｇｎｕ,,株式会社,広島県,呉市,新宮町５番２１号,,34,202,7370835,,,,,,,2025-03-12,1,,,,,ヌー,0
783,3240001064637,新規,0,2025-03-12,2025-03-12,株式会社Ｌｉｇｈｔ　Ｌｉｎｅ,,株式会社,広島県,福山市,駅家町中島７１５－７,,34,207,7210000,,,,,,,2025-03-12,1,,,,,ライトライン,0
784,3240001064645,新規,0,2025-03-12,2025-03-12,株式会社住田内外装,,株式会社,広島県,広島市佐伯区,八幡が丘１丁目１９番１号,,34,108,7315117,,,,,,,2025-03-12,1,,,,,スミダナイガイソウ,0
787,3240003007107,新規,0,2025-03-12,2025-03-12,合同会社ＡＯＺＯＬＡＢＯ,,合同会社,広島県,広島市中区,猫屋町３番６－３０７号,,34,101,7300852,,,,,,,2025-03-12,1,,,,,アオゾラボ,0
790,3260001039991,新規,0,2025-03-12,2025-03-12,株式会社さくや,,株式会社,岡山県,岡山市南区,箕島２９８番地３,,33,104,7010206,,,,,,,2025-03-12,1,,,,,サクヤ,0
793,3270003001718,新規,0,2025-03-12,2025-03-12,合同会社オオガキシャッタービルド,,合同会社,鳥取県,西伯郡伯耆町,大殿１３７１番地９,,31,390,6894121,,,,,,,2025-03-12,1,,,,,オオガキシャッタービルド,0
798,3290001109263,新規,0,2025-03-12,2025-03-12,福山株式会社,,株式会社,福岡県,福津市,渡４６１番地,,40,224,8113307,,,,,,,2025-03-12,1,,,,,フクヤマ,0
799,3290001109271,新規,0,2025-03-12,2025-03-12,株式会社Ｄｅａｒｉｇｈｔ,,株式会社,福岡県,福岡市中央区,清川２丁目２０番１７－７１０号室クラブオリエントビルＮｏ．１２２,,40,133,8100005,,,,,,,2025-03-12,1,,,,,ディアライト,0
800,3290001109321,新規,0,2025-03-12,2025-03-12,株式会社ケイエス,,株式会社,福岡県,福岡市早良区,四箇６丁目２４番７－１号,,40,137,8111103,,,,,,,2025-03-12,1,,,,,ケイエス,0
804,3290005019673,新規,0,2025-03-12,2025-03-12,協同組合ＡＳＩＡ国際産業人材サポートセンター,,その他の設立登記法人,福岡県,福岡市西区,小戸３丁目５０番１４号,,40,135,8190001,,,,,,,2025-03-12,1,,,,,アジアコクサイサンギョウジンザイサポートセンター,0
806,3290801031352,新規,0,2025-03-12,2025-03-12,株式会社白龍,,株式会社,福岡県,直方市,大字頓野１４５６番地４,,40,204,8220002,,,,,,,2025-03-12,1,,,,,ハクリュウ,0
807,3290801031360,新規,0,2025-03-12,2025-03-12,株式会社須賀産業,,株式会社,福岡県,北九州市小倉北区,須賀町２１番１－３１８号,,40,106,8020034,,,,,,,2025-03-12,1,,,,,スガサンギョウ,0
809,3300003002241,新規,0,2025-03-12,2025-03-12,合同会社エスアイシー,,合同会社,佐賀県,唐津市,鎮西町中野６０７１番地２９,,41,202,8470316,,,,,,,2025-03-12,1,,,,,エスアイシー,0
810,3310001019492,新規,0,2025-03-12,2025-03-12,株式会社セナトラ,,株式会社,長崎県,佐世保市,皆瀬町２０５番地１６,,42,202,8570144,,,,,,,2025-03-12,1,,,,,セナトラ,0
812,3320001020986,新規,0,2025-03-12,2025-03-12,株式会社Ｋ・Ｅ・Ｎ,,株式会社,大分県,大分市,中島西２丁目５番１－１３０３号,,44,201,8700047,,,,,,,2025-03-12,1,,,,,ケン,0
816,3330001032964,新規,0,2025-03-12,2025-03-12,Ｔｅ＆Ｅｉ株式会社,,株式会社,熊本県,熊本市中央区,花畑町１番１４号Ａ＆Ｍ　ＨＡＮＡＢＡＴＡ３０１号,,43,101,8600806,,,,,,,2025-03-12,1,,,,,ティーアンドイー,0
818,3340001027187,新規,0,2025-03-12,2025-03-12,株式会社スリーサウンズ,,株式会社,鹿児島県,鹿児島市,新照院町２５番１２－１号,,46,201,8900016,,,,,,,2025-03-12,1,,,,,スリーサウンズ,0
819,3350003004869,新規,0,2025-03-12,2025-03-12,合同会社ＳＨＩＳ,,合同会社,宮崎県,宮崎市,田野町乙１１４７２,,45,201,8891702,,,,,,,2025-03-12,1,,,,,シーズ,0
820,3350005006293,新規,0,2025-03-12,2025-03-12,一般社団法人光桜,,その他の設立登記法人,宮崎県,宮崎市,小松台北町１９番地２,,45,201,8802113,,,,,,,2025-03-12,1,,,,,コウオウ,0
821,3360001034900,新規,0,2025-03-12,2025-03-12,株式会社いろは住樂,,株式会社,沖縄県,うるま市,字高江洲１１０２番地１Ｆ,,47,213,9042242,,,,,,,2025-03-12,1,,,,,イロハジュウラク,0
822,3360001034909,新規,0,2025-03-12,2025-03-12,株式会社Ｓａｉ,,株式会社,沖縄県,那覇市,古島１丁目３０番地１０,,47,201,9020061,,,,,,,2025-03-12,1,,,,,サイ,0
823,3360001034917,新規,0,2025-03-12,2025-03-12,ＫＯＴＯＲＩＹＡ株式会社,,株式会社,沖縄県,那覇市,松尾１丁目１０番２４号ホークシティ那覇ビル１階,,47,201,9000014,,,,,,,2025-03-12,1,,,,,コトリヤ,0
827,3370001052356,新規,0,2025-03-12,2025-03-12,株式会社大場,,株式会社,宮城県,登米市,迫町新田字北深沢１７８番地１０,,04,212,9894601,,,,,,,2025-03-12,1,,,,,オオバ,0
836,3430001093864,新規,0,2025-03-12,2025-03-12,ブラッティスコンサルティング株式会社,,株式会社,北海道,札幌市清田区,北野五条２丁目４番６号,,01,110,0040865,,,,,,,2025-03-12,1,,,,,ブラッティスコンサルティング,0
837,3430001093872,新規,0,2025-03-12,2025-03-12,株式会社ＳＯＰＯ　ｄｅｓｉｇｎ,,株式会社,北海道,札幌市南区,川沿十二条４丁目８番１７号,,01,106,0050812,,,,,,,2025-03-12,1,,,,,ソポデザイン,0
838,3430001093906,新規,0,2025-03-12,2025-03-12,株式会社誠建,,株式会社,北海道,札幌市中央区,北五条西２４丁目１番８－１４０３号,,01,101,0600005,,,,,,,2025-03-12,1,,,,,セイケン,0
847,3470001020625,新規,0,2025-03-12,2025-03-12,株式会社ＣＡＴＡＤＯＯＲ,,株式会社,香川県,高松市,香川町大野１３６２番地１５,,37,201,7611701,,,,,,,2025-03-12,1,,,,,カタドール,0
861,4010001252949,新規,0,2025-03-12,2025-03-12,ゲッツー株式会社,,株式会社,東京都,千代田区,神田和泉町１番地６－１６ヤマトビル４０５,,13,101,1010024,,,,,,,2025-03-12,1,,,,,ゲッツー,0
862,4010001252957,新規,0,2025-03-12,2025-03-12,株式会社慶余,,株式会社,東京都,中央区,東日本橋２丁目６－５アーツ東京ワークユニット内,,13,102,1030004,,,,,,,2025-03-12,1,,,,,ケイヨ,0
863,4010001253022,新規,0,2025-03-12,2025-03-12,北日本エネルギー株式会社,,株式会社,東京都,中央区,日本橋蛎殻町１丁目２８番５号,,13,102,1030014,,,,,,,2025-03-12,1,,,,,キタニホンエネルギー,0
864,4010001253105,新規,0,2025-03-12,2025-03-12,株式会社ＡＧＣ　ＷＩＮ,,株式会社,東京都,中央区,佃２丁目１０番９－２１０４号,,13,102,1040051,,,,,,,2025-03-12,1,,,,,エージーシーウィン,0
867,4010003046696,新規,0,2025-03-12,2025-03-12,城東サプライ合同会社,,合同会社,東京都,千代田区,神田和泉町１番地６－１６,,13,101,1010024,,,,,,,2025-03-12,1,,,,,ジョウトウサプライ,0
869,4010005039723,新規,0,2025-03-12,2025-03-12,多奈川蓄電所一般社団法人,,その他の設立登記法人,東京都,千代田区,丸の内１丁目４番１号東京共同会計事務所内,,13,101,1000005,,,,,,,2025-03-12,1,,,,,タナガワチクデンショ,0
875,4010105002333,新規,0,2025-03-12,2025-03-12,一般社団法人ＷｏｒｋＳｕｐｐｏｒｔ協会,,その他の設立登記法人,東京都,八王子市,久保山町２丁目２６番地７,,13,201,1920023,,,,,,,2025-03-12,1,,,,,ワークサポートキョウカイ,0
876,4010401005452,新規,0,2025-03-12,2025-03-12,エムティエムシステム株式会社,,株式会社,東京都,港区,西新橋３丁目２４番１２号,,13,103,1050003,,,,,,,2025-03-12,1,,,,,,0
884,4010401188826,新規,0,2025-03-12,2025-03-12,ちょうちく株式会社,,株式会社,東京都,港区,浜松町１丁目９番２号ＰＯビル５Ｆ,,13,103,1050013,,,,,,,2025-03-12,1,,,,,チョウチク,0
885,4010401188850,新規,0,2025-03-12,2025-03-12,株式会社日本建装,,株式会社,東京都,港区,浜松町２丁目２番１５号,,13,103,1050013,,,,,,,2025-03-12,1,,,,,ニホンケンソウ,0
890,4010601066922,新規,0,2025-03-12,2025-03-12,株式会社ソーシャルロマンティック,,株式会社,東京都,江東区,永代２丁目２０－８河田ビル１階,,13,108,1350034,,,,,,,2025-03-12,1,,,,,ソーシャルロマンティック,0
891,4010601066930,新規,0,2025-03-12,2025-03-12,株式会社ピットアパット,,株式会社,東京都,墨田区,立花１丁目３５番５号,,13,107,1310043,,,,,,,2025-03-12,1,,,,,ピットアパット,0
895,4010605004424,新規,0,2025-03-12,2025-03-12,医療法人社団貴天咲,,その他の設立登記法人,東京都,墨田区,亀沢１丁目２７番８号岩瀬ビル２階,,13,107,1300014,,,,,,,2025-03-12,1,,,,,タカテンショウ,0
897,4010901056961,新規,0,2025-03-12,2025-03-12,株式会社プルメリア,,株式会社,東京都,世田谷区,岡本３丁目２２番１３号,,13,112,1570076,,,,,,,2025-03-12,1,,,,,プルメリア,0
901,4010903009769,新規,0,2025-03-12,2025-03-12,合同会社ＩＣＳ,,合同会社,東京都,世田谷区,中町５丁目２４－１２,,13,112,1580091,,,,,,,2025-03-12,1,,,,,アイシーエス,0
911,4011001168367,新規,0,2025-03-12,2025-03-12,株式会社コルバトメディカル,,株式会社,東京都,渋谷区,道玄坂１丁目１０番８号渋谷道玄坂東急ビル２Ｆ－Ｃ,,13,113,1500043,,,,,,,2025-03-12,1,,,,,コルバトメディカル,0
912,4011003021219,新規,0,2025-03-12,2025-03-12,ＡＲＴｉＦＵＬ合同会社,,合同会社,東京都,渋谷区,道玄坂１丁目１６―６二葉ビル８ｂ,,13,113,1500043,,,,,,,2025-03-12,1,,,,,アーティフル,0
915,4011201026184,新規,0,2025-03-12,2025-03-12,株式会社ジョイ,,株式会社,東京都,中野区,上高田２丁目４２番１０号リエス中野上高田３０５号室,,13,114,1640002,,,,,,,2025-03-12,1,,,,,ジョイ,0
926,4011801045773,新規,0,2025-03-12,2025-03-12,株式会社海,,株式会社,東京都,足立区,扇２丁目１０番１６－１０５号,,13,121,1230873,,,,,,,2025-03-12,1,,,,,ウミ,0
927,4012301014293,新規,0,2025-03-12,2025-03-12,ソノロ株式会社,,株式会社,東京都,町田市,中町３丁目１１－１９,,13,209,1940021,,,,,,,2025-03-12,1,,,,,ソノロ,0
928,4012403007014,新規,0,2025-03-12,2025-03-12,合同会社ｉｔ,,合同会社,東京都,三鷹市,深大寺２丁目３１番１０号サイプレスタウンＢ棟１０２,,13,204,1810016,,,,,,,2025-03-12,1,,,,,イット,0
929,4012403007022,新規,0,2025-03-12,2025-03-12,合同会社アンビシャス,,合同会社,東京都,三鷹市,上連雀３丁目１１－５,,13,204,1810012,,,,,,,2025-03-12,1,,,,,アンビシャス,0
930,4012701018745,新規,0,2025-03-12,2025-03-12,斉喜株式会社,,株式会社,東京都,東村山市,栄町２丁目９番地１０,,13,213,1890013,,,,,,,2025-03-12,1,,,,,サイキ,0
935,4013301053901,新規,0,2025-03-12,2025-03-12,株式会社オートスタッフ,,株式会社,東京都,豊島区,池袋２丁目５２番３号１２０５,,13,116,1710014,,,,,,,2025-03-12,1,,,,,オートスタッフ,0
945,4020003027943,新規,0,2025-03-12,2025-03-12,合同会社ＰＩＡＣ,,合同会社,神奈川県,川崎市高津区,久末４８６－１プレール日吉台６０６,,14,134,2130026,,,,,,,2025-03-12,1,,,,,ピアック,0
946,4020003028009,新規,0,2025-03-12,2025-03-12,ＴＫｉｎｇ　ｊａｐａｎ合同会社,,合同会社,神奈川県,横浜市青葉区,大場町１２０７番地１０,,14,117,2250023,,,,,,,2025-03-12,1,,,,,ティーキングジャパン,0
949,4021001084670,新規,0,2025-03-12,2025-03-12,株式会社三礼自動車,,株式会社,神奈川県,相模原市南区,当麻１２７２番地１２,,14,153,2520336,,,,,,,2025-03-12,1,,,,,サンレイジドウシャ,0
950,4021001084687,新規,0,2025-03-12,2025-03-12,ｓｃａｒｌｅｔ株式会社,,株式会社,神奈川県,相模原市中央区,淵野辺５丁目８番４号ベルウッド淵野辺１Ｆ,,14,152,2520206,,,,,,,2025-03-12,1,,,,,スカーレット,0
951,4021001084695,新規,0,2025-03-12,2025-03-12,株式会社花一開発,,株式会社,神奈川県,小田原市,桑原３７４番地の６,,14,206,2500861,,,,,,,2025-03-12,1,,,,,ハナイチカイハツ,0
954,4021003015681,新規,0,2025-03-12,2025-03-12,合同会社ＢＯＮＤ,,合同会社,神奈川県,相模原市南区,上鶴間本町２丁目３８－２６エムロード町田１０３号,,14,153,2520318,,,,,,,2025-03-12,1,,,,,ボンド,0
955,4021003015715,新規,0,2025-03-12,2025-03-12,合同会社イーグルメタル,,合同会社,神奈川県,茅ヶ崎市,柳島１丁目１１番９号,,14,207,2530064,,,,,,,2025-03-12,1,,,,,イーグルメタル,0
964,4030001165281,新規,0,2025-03-12,2025-03-12,メガツアージャパン株式会社,,株式会社,埼玉県,さいたま市大宮区,宮町１丁目５番地銀座ビル７階,,11,103,3300802,,,,,,,2025-03-12,1,,,,,メガツアージャパン,0
965,4030001165298,新規,0,2025-03-12,2025-03-12,株式会社Ｕｐ　Ｓｔａｉｒｓ,,株式会社,埼玉県,川口市,大字伊刈３４０番地の１,,11,203,3330865,,,,,,,2025-03-12,1,,,,,アップステアーズ,0
966,4030001165307,新規,0,2025-03-12,2025-03-12,アイシー株式会社,,株式会社,埼玉県,狭山市,広瀬台３丁目２８番４号,,11,215,3501328,,,,,,,2025-03-12,1,,,,,アイシー,0
967,4030001165331,新規,0,2025-03-12,2025-03-12,株式会社ｂｉｏ,,株式会社,埼玉県,さいたま市中央区,下落合６丁目１２番２０号,,11,105,3380002,,,,,,,2025-03-12,1,,,,,ビオ,0
969,4030003026317,新規,0,2025-03-12,2025-03-12,合同会社おかえり,,合同会社,埼玉県,さいたま市南区,文蔵１丁目１２番１２－１００７号,,11,108,3360025,,,,,,,2025-03-12,1,,,,,オカエリ,0
977,4050003009096,新規,0,2025-03-12,2025-03-12,アンダン合同会社,,合同会社,茨城県,古河市,中田２２９３番地,,08,204,3060053,,,,,,,2025-03-12,1,,,,,アンダン,0
978,4050003009105,新規,0,2025-03-12,2025-03-12,合同会社ＢＯＢＯ　ＦＡＭＩＬＹ,,合同会社,茨城県,北茨城市,中郷町粟野３２５番地４２,,08,215,3191554,,,,,,,2025-03-12,1,,,,,ボボファミリー,0
981,4060001038006,新規,0,2025-03-12,2025-03-12,東泉植木株式会社,,株式会社,栃木県,那須塩原市,上厚崎１１８番地３１６,,09,213,3250026,,,,,,,2025-03-12,1,,,,,トウセンウエキ,0
982,4060001038014,新規,0,2025-03-12,2025-03-12,株式会社ＳＥＩＳＨＩＮ,,株式会社,栃木県,足利市,久松町５１番地５,,09,202,3260034,,,,,,,2025-03-12,1,,,,,セイシン,0
987,4070003005812,新規,0,2025-03-12,2025-03-12,合同会社太田塾,,合同会社,群馬県,太田市,高林寿町１８１７番地７,,10,205,3730824,,,,,,,2025-03-12,1,,,,,オオタジュク,0
988,4070005010364,新規,0,2025-03-12,2025-03-12,ＮＰＯ法人おおたひとり親クラブ,,その他の設立登記法人,群馬県,太田市,上田島町３１０番地１,,10,205,3730044,,,,,,,2025-03-12,1,,,,,オオタヒトリオヤクラブ,0
989,4080001026801,新規,0,2025-03-12,2025-03-12,株式会社広陽園芸,,株式会社,静岡県,牧之原市,細江２６７番地３,,22,226,4210421,,,,,,,2025-03-12,1,,,,,コウヨウエンゲイ,0
997,4100001038380,新規,0,2025-03-12,2025-03-12,株式会社イイコトアッタ,,株式会社,長野県,上田市,中之条５５３番地８,,20,203,3860034,,,,,,,2025-03-12,1,,,,,イイコトアッタ,0
998,4100001038389,新規,0,2025-03-12,2025-03-12,株式会社ＪＩＲＯ,,株式会社,長野県,東御市,鞍掛７２８番地１,,20,219,3890502,,,,,,,2025-03-12,1,,,,,ジロ,0
1000,4100003008035,新規,0,2025-03-12,2025-03-12,ターコイズ・イースト・インベストメンツ合同会社,,合同会社,長野県,飯山市,大字常郷２０８２番地,,20,213,3892412,,,,,,,2025-03-12,1,,,,,ターコイズイーストインベストメンツ,0
1002,4110003005691,新規,0,2025-03-12,2025-03-12,合同会社秋桜不動産,,合同会社,新潟県,長岡市,土合２丁目６番１２号,,15,202,9400043,,,,,,,2025-03-12,1,,,,,シュウオウフドウサン,0
1009,4120001273298,新規,0,2025-03-12,2025-03-12,Ｘａｙｗａ株式会社,,株式会社,大阪府,大阪市都島区,中野町４丁目３番６号Ｈ２Ｈ大阪桜之宮邸３Ｅ－４,,27,102,5340027,,,,,,,2025-03-12,1,,,,,エクセーワ,0
1010,4120001273439,新規,0,2025-03-12,2025-03-12,ＤＡＩＫＵ　ＬＥＧＩＯＮ株式会社,,株式会社,大阪府,寝屋川市,河北中町７番２９号,,27,215,5720816,,,,,,,2025-03-12,1,,,,,ダイクリージョン,0
1011,4120001273538,新規,0,2025-03-12,2025-03-12,株式会社ＣＮＺ　Ｉｎｖｅｓｔｍｅｎｔ,,株式会社,大阪府,大阪市生野区,勝山北５丁目６番６号エスト勝山２Ｄ,,27,116,5440033,,,,,,,2025-03-12,1,,,,,シーエンゼットインベストメント,0
1012,4120001273562,新規,0,2025-03-12,2025-03-12,株式会社クリエイト,,株式会社,大阪府,大阪市中央区,南船場３丁目２番２２号おおきに南船場ビル２０５,,27,128,5420081,,,,,,,2025-03-12,1,,,,,クリエイト,0
1013,4120001273579,新規,0,2025-03-12,2025-03-12,株式会社ＧＸＤコンサルティング,,株式会社,大阪府,大阪市中央区,瓦町２丁目５－８瓦町スクエアビル２Ｆ,,27,128,5410048,,,,,,,2025-03-12,1,,,,,ジーエックスディーコンサルティング,0
1017,4120003028799,新規,0,2025-03-12,2025-03-12,合同会社Ａｒｔｉｅ　ｗａｎ,,合同会社,大阪府,大阪市此花区,高見１丁目４番５５号,,27,104,5540001,,,,,,,2025-03-12,1,,,,,アーティワン,0
1018,4120003028824,新規,0,2025-03-12,2025-03-12,ＴＨ‐Ｇｒｏｕｐ合同会社,,合同会社,大阪府,大阪市西成区,花園北２丁目１３－１６シルバー花園１０５号室,,27,122,5570016,,,,,,,2025-03-12,1,,,,,ティーエイチグループ,0
1020,4120101071222,新規,0,2025-03-12,2025-03-12,株式会社ｕｎｐｕｚｚｌｅ,,株式会社,大阪府,藤井寺市,春日丘３丁目１２番２４号,,27,226,5830026,,,,,,,2025-03-12,1,,,,,アンパズル,0
1023,4120103006317,新規,0,2025-03-12,2025-03-12,合同会社ｆｕｔａｂａプラス,,合同会社,大阪府,松原市,別所２丁目３－３０,,27,217,5800005,,,,,,,2025-03-12,1,,,,,フタバプラス,0
1026,4122001038953,新規,0,2025-03-12,2025-03-12,大笑株式会社,,株式会社,大阪府,東大阪市,東石切町３丁目１１番３２号１Ｆ,,27,227,5798011,,,,,,,2025-03-12,1,,,,,ダイショウ,0
1027,4122001038978,新規,0,2025-03-12,2025-03-12,東大阪新水道庁舎みなも株式会社,,株式会社,大阪府,東大阪市,長瀬町１丁目８番１０号,,27,227,5770832,,,,,,,2025-03-12,1,,,,,ヒガシオオサカシンスイドウチョウシャミナモ,0
1028,4130001079158,新規,0,2025-03-12,2025-03-12,ＭＫ商事株式会社,,株式会社,京都府,木津川市,城山台７丁目２５番地２,,26,214,6190218,,,,,,,2025-03-12,1,,,,,エムケイショウジ,0
1029,4130001079166,新規,0,2025-03-12,2025-03-12,株式会社ジェイエル,,株式会社,京都府,京都市東山区,梅本町２７０番地プレステージ４階,,26,105,6050064,,,,,,,2025-03-12,1,,,,,ジェイエル,0
1030,4130003010252,新規,0,2025-03-12,2025-03-12,合同会社Ｌｉｇｈｔ　Ｃｒｅａｔｏｒｓ,,合同会社,京都府,木津川市,相楽台１丁目４番地２－７０８号,,26,214,6190223,,,,,,,2025-03-12,1,,,,,ライトクリエイター,0
1031,4130003010285,新規,0,2025-03-12,2025-03-12,クレップＫＯＴＯ合同会社,,合同会社,京都府,京都市下京区,玉津島町２４７,,26,106,6008427,,,,,,,2025-03-12,1,,,,,クレップコト,0
1037,4140001137674,新規,0,2025-03-12,2025-03-12,株式会社ユニヴァーノ,,株式会社,兵庫県,尼崎市,金楽寺町１丁目５番１号尼崎ザ・レジデンス２１６号,,28,202,6600806,,,,,,,2025-03-12,1,,,,,ユニヴァーノ,0
1040,4150001027940,新規,0,2025-03-12,2025-03-12,株式会社ＣｌｅａｒＲｉｓｉｎｇ,,株式会社,奈良県,磯城郡田原本町,大字満田４２７番地の１,,29,363,6360354,,,,,,,2025-03-12,1,,,,,クリアライジング,0
1042,4150003003527,新規,0,2025-03-12,2025-03-12,合同会社ＭＥＲＲＹ　ＨＯＲＳＥ,,合同会社,奈良県,御所市,大字柳原１１８番地の２,,29,208,6392201,,,,,,,2025-03-12,1,,,,,メリーホース,0
1052,4180001165820,新規,0,2025-03-12,2025-03-12,株式会社斗優,,株式会社,愛知県,名古屋市千種区,振甫町３丁目３７番地の８,,23,101,4640072,,,,,,,2025-03-12,1,,,,,トユウ,0
1053,4180001165861,新規,0,2025-03-12,2025-03-12,株式会社Ａ‐ＳＭＩＬＥ,,株式会社,愛知県,あま市,木田池成１９番地３４,,23,237,4901222,,,,,,,2025-03-12,1,,,,,エースマイル,0
1054,4180001165911,新規,0,2025-03-12,2025-03-12,株式会社ＬＡＧＮＡ,,株式会社,愛知県,名古屋市中川区,柳森町２１１６番地,,23,110,4540871,,,,,,,2025-03-12,1,,,,,ラグナ,0
1055,4180301039609,新規,0,2025-03-12,2025-03-12,株式会社Ｖｅｒｄｅ,,株式会社,愛知県,高浜市,向山町５丁目２番地５,,23,227,4441313,,,,,,,2025-03-12,1,,,,,ヴェルデ,0
1058,4190003004959,新規,0,2025-03-12,2025-03-12,合同会社Ｚ‐Ｏ,,合同会社,三重県,伊勢市,船江２丁目２８番４４号,,24,203,5160008,,,,,,,2025-03-12,1,,,,,ゼットオー,0
1061,4220001026547,新規,0,2025-03-12,2025-03-12,Ｃｚｅｎ　Ｌｉｇｈｔｉｎｇ電工株式会社,,株式会社,石川県,七尾市,田鶴浜町る部５８番地,,17,202,9292121,,,,,,,2025-03-12,1,,,,,シゼンライティングデンコウ,0
1068,4240001064636,新規,0,2025-03-12,2025-03-12,株式会社サークルベース,,株式会社,広島県,福山市,手城町４丁目５番３号,,34,207,7210966,,,,,,,2025-03-12,1,,,,,サークルベース,0
1069,4240001064652,新規,0,2025-03-12,2025-03-12,株式会社Ａ‐ｔｈｉｎｋ　ｄｅｓｉｇｎ,,株式会社,広島県,安芸郡海田町,窪町２番１４号,,34,304,7360046,,,,,,,2025-03-12,1,,,,,エーシンクデザイン,0
1072,4240003007106,新規,0,2025-03-12,2025-03-12,合同会社シプレス,,合同会社,広島県,呉市,広白岳２丁目７番９号,,34,202,7370144,,,,,,,2025-03-12,1,,,,,シプレス,0
1073,4250001021033,新規,0,2025-03-12,2025-03-12,新光商事株式会社,,株式会社,山口県,光市,虹ケ浜３丁目７番１２号,,35,210,7430022,,,,,,,2025-03-12,1,,,,,シンコウショウジ,0
1074,4250005008984,新規,0,2025-03-12,2025-03-12,一般社団法人Ｌｏｃａｌ　Ｃｏｎｎｅｃｔ　ＴＯＹＯＵＲＡ,,その他の設立登記法人,山口県,下関市,豊浦町川棚５１５８,,35,201,7500000,,,,,,,2025-03-12,1,,,,,ローカルコネクトトヨウラ,0
1077,4260001039999,新規,0,2025-03-12,2025-03-12,株式会社Ｔ３Ａ,,株式会社,岡山県,岡山市北区,中山下１丁目８番１２号９０２,,33,101,7000821,,,,,,,2025-03-12,1,,,,,ティースリーエー,0
1078,4260001040008,新規,0,2025-03-12,2025-03-12,阿かり不動産株式会社,,株式会社,岡山県,倉敷市,阿知２丁目３番７号,,33,202,7100055,,,,,,,2025-03-12,1,,,,,アカリフドウサン,0
1080,4280003001930,新規,0,2025-03-12,2025-03-12,合同会社ＣＥＬＳＯ　ＧＲＯＵＰ,,合同会社,島根県,出雲市,今市町北本町１丁目１番地３セントラルビル４階Ｇ号室,,32,203,6930002,,,,,,,2025-03-12,1,,,,,セルソグループ,0
1083,4290001109246,新規,0,2025-03-12,2025-03-12,株式会社楠林工業,,株式会社,福岡県,糟屋郡宇美町,障子岳南５丁目６番１５号アクロスタウン１号室,,40,341,8112126,,,,,,,2025-03-12,1,,,,,クスバヤシコウギョウ,0
1084,4290001109262,新規,0,2025-03-12,2025-03-12,株式会社田中システム開発ラボ,,株式会社,福岡県,福岡市中央区,天神４丁目６－２８天神ファーストビル７階,,40,133,8100001,,,,,,,2025-03-12,1,,,,,タナカシステムカイハツラボ,0
1090,4290803004990,新規,0,2025-03-12,2025-03-12,合同会社ｆｕｉｉｇｏ,,合同会社,福岡県,北九州市小倉北区,京町３丁目１番１号セントシティ７Ｆ　ＡＴＯＭｉｃａ北九州内,,40,106,8020002,,,,,,,2025-03-12,1,,,,,フイーゴ,0
1091,4310001019483,新規,0,2025-03-12,2025-03-12,株式会社ＬＩＢＥＲＡＬ,,株式会社,長崎県,東彼杵郡川棚町,下組郷３６－１,,42,322,8593615,,,,,,,2025-03-12,1,,,,,リベラル,0
1095,4340001027178,新規,0,2025-03-12,2025-03-12,株式会社永倉電気,,株式会社,鹿児島県,霧島市,国分中央４丁目５番１７号,,46,218,8994332,,,,,,,2025-03-12,1,,,,,ナガクラデンキ,0
1096,4340003004778,新規,0,2025-03-12,2025-03-12,合同会社ＨｉｙｏＲｙｕ,,合同会社,鹿児島県,霧島市,国分清水４丁目１７番１４号,,46,218,8994304,,,,,,,2025-03-12,1,,,,,ヒヨリュウ,0
1097,4350001019430,新規,0,2025-03-12,2025-03-12,株式会社ＨＥＡＲＴ　ＡＦＦＬＵＥＮＴ,,株式会社,宮崎県,宮崎市,宮崎駅東３丁目５－８,,45,201,8800879,,,,,,,2025-03-12,1,,,,,ハートアフルエント,0
1098,4350005006292,新規,0,2025-03-12,2025-03-12,特定非営利活動法人カラーイカヒキナ宮崎,,その他の設立登記法人,宮崎県,宮崎市,新別府町薦藁７１２－５,,45,201,8800834,,,,,,,2025-03-12,1,,,,,カラーイカヒキナミヤザキ,0
1102,4360001034899,新規,0,2025-03-12,2025-03-12,ＡＤＯＴ株式会社,,株式会社,沖縄県,島尻郡久米島町,字謝名堂９２５番地,,47,361,9013107,,,,,,,2025-03-12,1,,,,,アドット,0
1107,4370001052272,新規,0,2025-03-12,2025-03-12,ｎｅｗ　ｎｏｕｎ株式会社,,株式会社,宮城県,仙台市青葉区,本町１丁目５－２８カーニープレイス仙台駅前通６０３号室,,04,101,9800014,,,,,,,2025-03-12,1,,,,,,0
1108,4370001052347,新規,0,2025-03-12,2025-03-12,国土製作所株式会社,,株式会社,宮城県,東松島市,赤井字川前四番３８番地７,,04,214,9810501,,,,,,,2025-03-12,1,,,,,コクドセイサクショ,0
1109,4370003006986,新規,0,2025-03-12,2025-03-12,合同会社ＳＥＬＥＣＴ．Ｔ,,合同会社,宮城県,岩沼市,中央１丁目５番３４号,,04,211,9892432,,,,,,,2025-03-12,1,,,,,セレクトドットティー,0
1114,4390001017918,新規,0,2025-03-12,2025-03-12,ケンフィールド通信株式会社,,株式会社,山形県,酒田市,駅東１丁目４番地の１５,,06,204,9980022,,,,,,,2025-03-12,1,,,,,ケンフィールドツウシン,0
1115,4410001014094,新規,0,2025-03-12,2025-03-12,ミロク株式会社,,株式会社,秋田県,秋田市,土崎港中央６丁目１５番２８号,,05,201,0110946,,,,,,,2025-03-12,1,,,,,ミロク,0
1118,4430001093871,新規,0,2025-03-12,2025-03-12,株式会社ｍｉｘｃｏｒｄ,,株式会社,北海道,札幌市白石区,川下２１６９番１８,,01,104,0030869,,,,,,,2025-03-12,1,,,,,ミックスコード,0
1119,4430001093896,新規,0,2025-03-12,2025-03-12,株式会社Ｋコンサル,,株式会社,北海道,札幌市中央区,北一条西２２丁目３番３４－２０２号,,01,101,0640821,,,,,,,2025-03-12,1,,,,,ケーコンサル,0
1120,4430001093905,新規,0,2025-03-12,2025-03-12,株式会社あんしん地建,,株式会社,北海道,札幌市豊平区,中の島一条３丁目７番７－１２０２号,,01,105,0620921,,,,,,,2025-03-12,1,,,,,アンシンチケン,0
1123,4430003017366,新規,0,2025-03-12,2025-03-12,合同会社Ｅｎｂｉｒｔｈ,,合同会社,北海道,札幌市北区,新琴似七条１０丁目３－１７,,01,102,0010907,,,,,,,2025-03-12,1,,,,,エンバース,0
1125,4440001009579,新規,0,2025-03-12,2025-03-12,トラミッド株式会社,,株式会社,北海道,函館市,北美原１丁目１２番１５号,,01,202,0410807,,,,,,,2025-03-12,1,,,,,トラミッド,0
1126,4460101007679,新規,0,2025-03-12,2025-03-12,株式会社工匠馬場,,株式会社,北海道,帯広市,西十七条南６丁目１番地４,,01,207,0800027,,,,,,,2025-03-12,1,,,,,コウショウババ,0
1134,4700150129531,新規,0,2025-03-12,2025-03-12,ｇｕａｎｇｚｈｏｕｓｈｉａｉｋｅｇｏｎｇｙｉｎｇｌｉａｎｍａｏｙｉｙｏｕｘｉａｎｇｏｎｇｓｉ,,外国会社等,,,,,,,,Ｒｏｏｍ　５０１，５ｔｈ　Ｆｌｏｏｒ，Ｎｏ．２８，Ｙｉｈｅｎｇ　Ｒｏａｄ，Ｈｅｔａｉ　Ｒｏａｄ，Ｈｅｂｉａｎ　Ｖｉｌｌａｇｅ，Ｂａｉｙｕｎ　Ｄｉｓｔｒｉｃｔ，Ｇｕａｎｇｚｈｏｕ　５１０４４０　ＣＮ,,,,,,2025-03-12,1,,,,,グゥアンゾウシアイゲゴンインレンマオイユウゲンコウシ,0
1144,5010001253038,新規,0,2025-03-12,2025-03-12,株式会社Ｐｉｔｃｈ　Ｂｌｕｅ　Ｓｔｕｄｉｏｓ,,株式会社,東京都,千代田区,神田淡路町１丁目９番地５天翔御茶ノ水ビル３０４,,13,101,1010063,,,,,,,2025-03-12,1,,,,,ピッチブルースタジオ,0
1145,5010001253112,新規,0,2025-03-12,2025-03-12,株式会社叶屋,,株式会社,東京都,中央区,築地４丁目９番５号,,13,102,1040045,,,,,,,2025-03-12,1,,,,,カノウヤ,0
1149,5010003046737,新規,0,2025-03-12,2025-03-12,ゲストハウスマスター合同会社,,合同会社,東京都,中央区,築地６丁目７－９－５０１,,13,102,1040045,,,,,,,2025-03-12,1,,,,,ゲストハウスマスター,0
1151,5010101016559,新規,0,2025-03-12,2025-03-12,株式会社ゴウセイ,,株式会社,東京都,八王子市,初沢町１２２７－４高尾名店街２０１,,13,201,1930845,,,,,,,2025-03-12,1,,,,,,0
1164,5010401188809,新規,0,2025-03-12,2025-03-12,株式会社カシエル,,株式会社,東京都,港区,愛宕１丁目３番２号,,13,103,1050002,,,,,,,2025-03-12,1,,,,,カシエル,0
1165,5010401188833,新規,0,2025-03-12,2025-03-12,株式会社ＭＵＴ　ＪＡＰＡＮ,,株式会社,東京都,港区,南青山５丁目７番１７号９Ｆ,,13,103,1070062,,,,,,,2025-03-12,1,,,,,モットジャパン,0
1172,5010601066938,新規,0,2025-03-12,2025-03-12,株式会社Ｐｌｕｓｔ,,株式会社,東京都,江東区,豊洲５丁目１番１３号,,13,108,1350061,,,,,,,2025-03-12,1,,,,,プラス,0
1173,5010603011421,新規,0,2025-03-12,2025-03-12,スマイル３合同会社,,合同会社,東京都,江東区,豊洲５丁目１番１３号３２１９号室,,13,108,1350061,,,,,,,2025-03-12,1,,,,,スマイルスリー,0
1179,5010901056952,新規,0,2025-03-12,2025-03-12,株式会社Ｅａｒｔｈ　Ｈｉｇｈ　Ｓｃｈｏｏｌ,,株式会社,東京都,世田谷区,太子堂４丁目１８番１５号マガザン三軒茶屋２－３Ｆ－３,,13,112,1540004,,,,,,,2025-03-12,1,,,,,アースハイスクール,0
1180,5010901056960,新規,0,2025-03-12,2025-03-12,ＡｕｔｏＡＩｚｅ株式会社,,株式会社,東京都,世田谷区,上馬１丁目１５番１８－５０３号,,13,112,1540011,,,,,,,2025-03-12,1,,,,,オートエーアイズ,0
1181,5010901056985,新規,0,2025-03-12,2025-03-12,株式会社転々,,株式会社,東京都,世田谷区,船橋４丁目２２番１７号東京建粧２０２,,13,112,1560055,,,,,,,2025-03-12,1,,,,,ゴロゴロ,0
1182,5010903009735,新規,0,2025-03-12,2025-03-12,合同会社ダブルシックス,,合同会社,東京都,世田谷区,砧２丁目１９番３号フェニックスコート砧１０３,,13,112,1570073,,,,,,,2025-03-12,1,,,,,ダブルシックス,0
1186,5011001168267,新規,0,2025-03-12,2025-03-12,ＬＸ商事株式会社,,株式会社,東京都,目黒区,目黒本町５丁目７番１号,,13,110,1520002,,,,,,,2025-03-12,1,,,,,エルエクスショウジ,0
1187,5011001168432,新規,0,2025-03-12,2025-03-12,ＣＨＲＯＮＯＳ株式会社,,株式会社,東京都,渋谷区,神南１丁目１６番７号パークウェイスクエア’１,,13,113,1500041,,,,,,,2025-03-12,1,,,,,クロノス,0
1189,5011003021192,新規,0,2025-03-12,2025-03-12,合同会社ＥＳＲ３４,,合同会社,東京都,目黒区,上目黒１丁目２３番１号中目黒アリーナ４０５号室,,13,110,1530051,,,,,,,2025-03-12,1,,,,,イーエスアールサーティフォー,0
1192,5011103015664,新規,0,2025-03-12,2025-03-12,ＣｏｄｅｙＰａｎｄａ合同会社,,合同会社,東京都,新宿区,西落合１丁目４番１１－３０４号,,13,104,1610031,,,,,,,2025-03-12,1,,,,,コーディーパンダ,0
1195,5011201026191,新規,0,2025-03-12,2025-03-12,株式会社知行館,,株式会社,東京都,中野区,本町６丁目２７番１２－２０２号,,13,114,1640012,,,,,,,2025-03-12,1,,,,,チギョウカン,0
1196,5011203004641,新規,0,2025-03-12,2025-03-12,合同会社山虎,,合同会社,東京都,中野区,中野６丁目３０番２０－７０５号,,13,114,1640001,,,,,,,2025-03-12,1,,,,,ヤマトラ,0
1197,5011301030424,新規,0,2025-03-12,2025-03-12,Ｎオネスト株式会社,,株式会社,東京都,杉並区,西荻北４丁目１８－１,,13,115,1670042,,,,,,,2025-03-12,1,,,,,エヌオネスト,0
1202,5011303005449,新規,0,2025-03-12,2025-03-12,合同会社スピリチュアル,,合同会社,東京都,杉並区,南荻窪４丁目１８番１４号,,13,115,1670052,,,,,,,2025-03-12,1,,,,,スピリチュアル,0
1204,5011501031800,新規,0,2025-03-12,2025-03-12,ＫＴ株式会社,,株式会社,東京都,荒川区,荒川５丁目３８番１０号－２０１号,,13,118,1160002,,,,,,,2025-03-12,1,,,,,ケイティ,0
1210,5011801045649,新規,0,2025-03-12,2025-03-12,株式会社ＭＩＮＧＡＬＡＲ　ＪＡＰＡＮ,,株式会社,東京都,葛飾区,西新小岩２丁目１番１－７１８号,,13,122,1240025,,,,,,,2025-03-12,1,,,,,ミンガラジャパン,0
1211,5011801045772,新規,0,2025-03-12,2025-03-12,株式会社ファンフィニティ,,株式会社,東京都,足立区,西伊興２丁目２番３号,,13,121,1210824,,,,,,,2025-03-12,1,,,,,ファンフィニティ,0
1212,5011801045789,新規,0,2025-03-12,2025-03-12,ウルトラ株式会社,,株式会社,東京都,葛飾区,東金町１丁目１９－１鈴木ビル２Ｆ,,13,122,1250041,,,,,,,2025-03-12,1,,,,,ウルトラ,0
1213,5011801045797,新規,0,2025-03-12,2025-03-12,株式会社カミヤ工芸,,株式会社,東京都,葛飾区,東四つ木４丁目３番１６－４０１号,,13,122,1240014,,,,,,,2025-03-12,1,,,,,カミヤコウゲイ,0
1218,5012401042887,新規,0,2025-03-12,2025-03-12,株式会社ＣＲＥ,,株式会社,東京都,府中市,宮西町５丁目６番地の２アローランドマンション２０３,,13,206,1830022,,,,,,,2025-03-12,1,,,,,シーアールイー,0
1222,5013301053900,新規,0,2025-03-12,2025-03-12,株式会社ＮＵＮＵＣａ,,株式会社,東京都,豊島区,駒込１丁目３４番２号ヒルクレスト駒込１Ｆ,,13,116,1700003,,,,,,,2025-03-12,1,,,,,ヌヌカ,0
1223,5013301053909,新規,0,2025-03-12,2025-03-12,株式会社ＴＫ不動産,,株式会社,東京都,豊島区,東池袋２丁目２１番６－７１１号,,13,116,1700013,,,,,,,2025-03-12,1,,,,,ティーケーフドウサン,0
1235,5020001161768,新規,0,2025-03-12,2025-03-12,株式会社神奈川朝日事業センター,,株式会社,神奈川県,横浜市中区,日本大通１５番地,,14,104,2310021,,,,,,,2025-03-12,1,,,,,カナガワアサヒジギョウセンター,0
1236,5020001161776,新規,0,2025-03-12,2025-03-12,ミライタイズ株式会社,,株式会社,神奈川県,横浜市港北区,新横浜３丁目２０番１８セルアージュ新横浜５０１,,14,109,2220033,,,,,,,2025-03-12,1,,,,,ミライタイズ,0
1241,5020003028024,新規,0,2025-03-12,2025-03-12,ＳＡＴＶＩＫ合同会社,,合同会社,神奈川県,川崎市中原区,上平間１７９－６永井ビル２階Ａ,,14,133,2110013,,,,,,,2025-03-12,1,,,,,サトヴィク,0
1242,5020005016729,新規,0,2025-03-12,2025-03-12,一般社団法人トリニティーリンク,,その他の設立登記法人,神奈川県,横浜市青葉区,つつじが丘２４番地４４,,14,117,2270055,,,,,,,2025-03-12,1,,,,,トリニティーリンク,0
1244,5021001084686,新規,0,2025-03-12,2025-03-12,株式会社ちくあん,,株式会社,神奈川県,鎌倉市,梶原２丁目２９番６号,,14,204,2470063,,,,,,,2025-03-12,1,,,,,チクアン,0
1245,5021001084694,新規,0,2025-03-12,2025-03-12,株式会社リバーグ,,株式会社,神奈川県,藤沢市,亀井野２丁目１７番地の１ルミエール湘南２０１号,,14,205,2520813,,,,,,,2025-03-12,1,,,,,リバーグ,0
1246,5021001084703,新規,0,2025-03-12,2025-03-12,カイゼン株式会社,,株式会社,神奈川県,大和市,大和南１丁目１４－３中丸ビル１Ａ,,14,213,2420016,,,,,,,2025-03-12,1,,,,,カイゼン,0
1247,5021001084711,新規,0,2025-03-12,2025-03-12,株式会社アクシアホーム,,株式会社,神奈川県,相模原市中央区,陽光台２丁目５－６陽光台ビル２階,,14,152,2520226,,,,,,,2025-03-12,1,,,,,アクシアホーム,0
1249,5021003015680,新規,0,2025-03-12,2025-03-12,合同会社鶴巻カウンセリングルームしろくま,,合同会社,神奈川県,秦野市,鶴巻北２丁目５－３７－１０４,,14,211,2570001,,,,,,,2025-03-12,1,,,,,ツルマキカウンセリングルームシロクマ,0
1250,5021003015714,新規,0,2025-03-12,2025-03-12,合同会社咲花寿,,合同会社,神奈川県,藤沢市,鵠沼海岸１丁目１４番２０号クラーレ鵠沼１０１,,14,205,2510037,,,,,,,2025-03-12,1,,,,,サカス,0
1251,5021003015730,新規,0,2025-03-12,2025-03-12,合同会社ＳＩＮ　ＪＡＰＡＮ　ＫＡＮＡＧＡＷＡ,,合同会社,神奈川県,愛甲郡愛川町,中津７２８７番地,,14,401,2430303,,,,,,,2025-03-12,1,,,,,シンジャパンカナガワ,0
1261,5030003026316,新規,0,2025-03-12,2025-03-12,合同会社Ｔｒｅｌｉｘ,,合同会社,埼玉県,新座市,北野１丁目１－９ＲＥＩＧＥＴＵＩＩ１０１,00138306,11,230,3520003,,,,,,,2025-03-12,1,,,,,トレリクス,0
1263,5040001137683,新規,0,2025-03-12,2025-03-12,株式会社トライ,,株式会社,千葉県,茂原市,木崎１５７５番地８,,12,210,2970016,,,,,,,2025-03-12,1,,,,,トライ,0
1264,5040001137766,新規,0,2025-03-12,2025-03-12,株式会社大三工業,,株式会社,千葉県,香取市,八筋川甲１２２番地,,12,236,2870815,,,,,,,2025-03-12,1,,,,,ダイサンコウギョウ,0
1265,5040001137790,新規,0,2025-03-12,2025-03-12,波構造株式会社,,株式会社,千葉県,松戸市,東松戸４丁目１１番地の２２,,12,207,2702225,,,,,,,2025-03-12,1,,,,,ナミコウゾウ,0
1267,5050003009095,新規,0,2025-03-12,2025-03-12,合同会社ＤＥＮＤＯ,,合同会社,茨城県,つくば市,千現２丁目１番地６Ａ棟１９－ＩＩ,00138301,08,220,3050047,,,,,,,2025-03-12,1,,,,,デンドー,0
1268,5050003009104,新規,0,2025-03-12,2025-03-12,ＳｌｏｗＳｙｓｔｅｍ合同会社,,合同会社,茨城県,笠間市,吉岡１１３番地１１２,,08,216,3190203,,,,,,,2025-03-12,1,,,,,スローシステム,0
1270,5060001038005,新規,0,2025-03-12,2025-03-12,野代工務店株式会社,,株式会社,栃木県,下都賀郡壬生町,大字上稲葉２３１５番地,,09,361,3210236,,,,,,,2025-03-12,1,,,,,ノシロコウムテン,0
1271,5060001038013,新規,0,2025-03-12,2025-03-12,株式会社灯,,株式会社,栃木県,足利市,元学町８２５番地８,,09,202,3260058,,,,,,,2025-03-12,1,,,,,アカリ,0
1273,5060003005465,新規,0,2025-03-12,2025-03-12,リノ合同会社,,合同会社,栃木県,宇都宮市,城東２丁目２２番１４号グリーンハイツＡ１０１,,09,201,3210935,,,,,,,2025-03-12,1,,,,,リノ,0
1274,5060005010315,新規,0,2025-03-12,2025-03-12,社会保険労務士法人ＲＥＩＮＥ　ＢＬＵＭＥ,,その他の設立登記法人,栃木県,那須塩原市,島方４５１番地１６,,09,213,3293152,,,,,,,2025-03-12,1,,,,,ラインブルーメ,0
1275,5070001042699,新規,0,2025-03-12,2025-03-12,株式会社ＮＥＯ　ＧＲＩＤ,,株式会社,群馬県,高崎市,上佐野町６２９番地５,,10,202,3700857,,,,,,,2025-03-12,1,,,,,ネオグリッド,0
1279,5080001026800,新規,0,2025-03-12,2025-03-12,株式会社ＭＳ．ＨＯＴ,,株式会社,静岡県,静岡市清水区,渋川４７８番地の１,,22,103,4240053,,,,,,,2025-03-12,1,,,,,ミスホット,0
1280,5080001026809,新規,0,2025-03-12,2025-03-12,株式会社Ａｓｓｏｎｅｌｌ,,株式会社,静岡県,島田市,栄町４番の１５,,22,209,4270028,,,,,,,2025-03-12,1,,,,,アソネル,0
1281,5080101025371,新規,0,2025-03-12,2025-03-12,株式会社Ｓｏｒｔｅ＆Ｆｌｏｒ,,株式会社,静岡県,沼津市,大岡２１４９番地の１,,22,203,4100022,,,,,,,2025-03-12,1,,,,,ソルテアンドフロール,0
1287,5080405007719,新規,0,2025-03-12,2025-03-12,静岡グローバル成長協同組合,,その他の設立登記法人,静岡県,袋井市,方丈１丁目４番地の６,,22,216,4370022,,,,,,,2025-03-12,1,,,,,シズオカグローバルセイチョウ,0
1288,5090001019175,新規,0,2025-03-12,2025-03-12,おひさまフルーツやまなし株式会社,,株式会社,山梨県,甲府市,北口３丁目４番３３号セインツ２５・１２０５,,19,201,4000024,,,,,,,2025-03-12,1,,,,,オヒサマフルーツヤマナシ,0
1289,5100001038363,新規,0,2025-03-12,2025-03-12,株式会社ＫＰホールディングス,,株式会社,長野県,岡谷市,長地鎮１丁目９番２６号,,20,204,3940087,,,,,,,2025-03-12,1,,,,,ケーピーホールディングス,0
1290,5100001038371,新規,0,2025-03-12,2025-03-12,ＲｅｖＦｉｔ株式会社,,株式会社,長野県,飯田市,鼎一色５４番地１,,20,205,3950805,,,,,,,2025-03-12,1,,,,,リブフィット,0
1294,5110001039105,新規,0,2025-03-12,2025-03-12,株式会社山本農産,,株式会社,新潟県,上越市,大字駒林１１４０番地,,15,222,9420246,,,,,,,2025-03-12,1,,,,,ヤマモトノウサン,0
1307,5120001273561,新規,0,2025-03-12,2025-03-12,３Ａ株式会社,,株式会社,大阪府,大阪市天王寺区,国分町２番１８－５０１,,27,109,5430044,,,,,,,2025-03-12,1,,,,,スリーエー,0
1308,5120001273578,新規,0,2025-03-12,2025-03-12,ＬＯＭＥ株式会社,,株式会社,大阪府,大阪市北区,本庄東３丁目３番７号マンション淀３０２Ｂ,,27,127,5310074,,,,,,,2025-03-12,1,,,,,ローメ,0
1309,5120003028823,新規,0,2025-03-12,2025-03-12,合同会社Ｌｅｔｉｆｌ,,合同会社,大阪府,大阪市中央区,淡路町１丁目２番５号淡路町イーストビル６階,,27,128,5410047,,,,,,,2025-03-12,1,,,,,レティフル,0
1316,5120901050597,新規,0,2025-03-12,2025-03-12,株式会社ＬＩＢＥＲＴＹ,,株式会社,大阪府,豊中市,千里園３丁目５番８号,,27,203,5600046,,,,,,,2025-03-12,1,,,,,リバティー,0
1319,5122001038944,新規,0,2025-03-12,2025-03-12,ＳＡＮＳＡＮ株式会社,,株式会社,大阪府,東大阪市,若江西新町４丁目６番１０－３０４号,,27,227,5780944,,,,,,,2025-03-12,1,,,,,サンサン,0
1321,5130001079173,新規,0,2025-03-12,2025-03-12,株式会社ｍＴＯＲ,,株式会社,京都府,京都市中京区,東洞院通二条上る壺屋町５２０番地アスヴェル京都御所前ＩＩＩ３０２号,00138316,26,104,6040814,,,,,,,2025-03-12,1,,,,,エムトア,0
1322,5130001079181,新規,0,2025-03-12,2025-03-12,株式会社和,,株式会社,京都府,京都市上京区,仁和寺街道六軒町西入四番町１５１番地２５Ｋハイツ８７,,26,102,6028347,,,,,,,2025-03-12,1,,,,,ナゴミ,0
1323,5130001079207,新規,0,2025-03-12,2025-03-12,株式会社ＫＹＯＴＲＵＳＴ,,株式会社,京都府,京都市中京区,油小路通竹屋町下る橋本町４７４番地,,26,104,6040072,,,,,,,2025-03-12,1,,,,,キョウトラスト,0
1325,5130003010276,新規,0,2025-03-12,2025-03-12,杉正工房合同会社,,合同会社,京都府,京都市右京区,嵯峨天龍寺椎野町１５番地５４,,26,108,6168357,,,,,,,2025-03-12,1,,,,,スギマサコウボウ,0
1328,5140001137574,新規,0,2025-03-12,2025-03-12,日本農業支援サービス株式会社,,株式会社,兵庫県,洲本市,五色町鮎原三野畑８１２－１,,28,205,6561324,,,,,,,2025-03-12,1,,,,,ニホンノウギョウシエンサービス,0
1329,5140001137590,新規,0,2025-03-12,2025-03-12,双日島育ち青果株式会社,,株式会社,兵庫県,洲本市,大野６００,,28,205,6560055,,,,,,,2025-03-12,1,,,,,ソウジツシマソダチセイカ,0
1330,5140001137599,新規,0,2025-03-12,2025-03-12,株式会社永原商店,,株式会社,兵庫県,加古川市,尾上町養田１５４５番地の２,,28,210,6750025,,,,,,,2025-03-12,1,,,,,ナガハラショウテン,0
1334,5140003021743,新規,0,2025-03-12,2025-03-12,合同会社平田の薬剤師塾,,合同会社,兵庫県,神戸市灘区,稗原町１丁目４番１６号グランディア六甲道３０１,,28,102,6570054,,,,,,,2025-03-12,1,,,,,ヒラタノヤクザイシジュク,0
1337,5150003003526,新規,0,2025-03-12,2025-03-12,ＢＦ合同会社,,合同会社,奈良県,奈良市,杉ヶ町１１番地の１１第二カイモトビル３Ｆ東号,,29,201,6308357,,,,,,,2025-03-12,1,,,,,ビーエフ,0
1340,5170001018532,新規,0,2025-03-12,2025-03-12,株式会社ＫＨＭ,,株式会社,和歌山県,岩出市,金池１５１番地の１３,,30,209,6496256,,,,,,,2025-03-12,1,,,,,ケーエイチエム,0
1346,5180001165836,新規,0,2025-03-12,2025-03-12,株式会社ＨＫＲ,,株式会社,愛知県,北名古屋市,久地野郷廻１８１番地２,,23,234,4810012,,,,,,,2025-03-12,1,,,,,エイチケーアール,0
1347,5180001165844,新規,0,2025-03-12,2025-03-12,Ｃｈｒｏｍａｃｔ株式会社,,株式会社,愛知県,名古屋市昭和区,川原通３丁目４番地の１,,23,107,4660853,,,,,,,2025-03-12,1,,,,,クロマクト,0
1348,5180001165910,新規,0,2025-03-12,2025-03-12,株式会社ＲＥＫＳ,,株式会社,愛知県,名古屋市東区,泉２丁目７番１３号ライジング泉Ｈ・Ｍビル７０１号,,23,102,4610001,,,,,,,2025-03-12,1,,,,,レックス,0
1349,5180001165943,新規,0,2025-03-12,2025-03-12,株式会社ＭＫパートナーズ,,株式会社,愛知県,名古屋市東区,芳野１丁目１番１７号,,23,102,4610027,,,,,,,2025-03-12,1,,,,,エムケーパートナーズ,0
1354,5180303006473,新規,0,2025-03-12,2025-03-12,ＷＨＩＲＬ　ＷＩＮＤ　Ｉ．Ｆ合同会社,,合同会社,愛知県,豊橋市,駅前大通２丁目８１番地ｅｍＣＡＭＰＵＳＥＡＳＴ５階,,23,201,4400888,,,,,,,2025-03-12,1,,,,,ワールウィンドアイエフ,0
1357,5190001032044,新規,0,2025-03-12,2025-03-12,カダル株式会社,,株式会社,三重県,鈴鹿市,椿一宮町１６１１番地の４,,24,207,5190312,,,,,,,2025-03-12,1,,,,,カダル,0
1359,5190003004958,新規,0,2025-03-12,2025-03-12,合同会社ＯＡＫＭＯＮＴ,,合同会社,三重県,四日市市,諏訪栄町８番１１号,,24,202,5100086,,,,,,,2025-03-12,1,,,,,オークモント,0
1363,5240001064651,新規,0,2025-03-12,2025-03-12,株式会社クリエイトライフ,,株式会社,広島県,広島市安佐北区,安佐町大字鈴張１３３２４番地１,,34,106,7311141,,,,,,,2025-03-12,1,,,,,クリエイトライフ,0
1364,5240003007105,新規,0,2025-03-12,2025-03-12,末田海運合同会社,,合同会社,広島県,豊田郡大崎上島町,原田６２９番地２,,34,431,7250302,,,,,,,2025-03-12,1,,,,,スエダカイウン,0
1366,5260001040007,新規,0,2025-03-12,2025-03-12,株式会社ＨＲＦ,,株式会社,岡山県,岡山市北区,横井上２３３番地１,,33,101,7011145,,,,,,,2025-03-12,1,,,,,エイチアールエフ,0
1371,5290001109286,新規,0,2025-03-12,2025-03-12,株式会社四季,,株式会社,福岡県,古賀市,薦野１９４６番地９,,40,223,8113122,,,,,,,2025-03-12,1,,,,,シキ,0
1372,5290001109311,新規,0,2025-03-12,2025-03-12,株式会社Ｅｌｂｏｒａ,,株式会社,福岡県,福岡市東区,香椎台５丁目１－１エテルネル生水Ｉ－１０３,00138317,40,131,8130014,,,,,,,2025-03-12,1,,,,,エルボラ,0
1373,5290003016506,新規,0,2025-03-12,2025-03-12,ＨＡＮＡＹＡＫＡ合同会社,,合同会社,福岡県,春日市,上白水７丁目１５７番地７０３号,,40,218,8160844,,,,,,,2025-03-12,1,,,,,ハナヤカ,0
1374,5290003016530,新規,0,2025-03-12,2025-03-12,玉響アート合同会社,,合同会社,福岡県,小郡市,寺福童４８９番地１,,40,216,8380138,,,,,,,2025-03-12,1,,,,,タマユラアート,0
1378,5290801031350,新規,0,2025-03-12,2025-03-12,株式会社ＡｔｏＢＥ,,株式会社,福岡県,北九州市小倉北区,三郎丸２丁目１番１号,,40,106,8020061,,,,,,,2025-03-12,1,,,,,エートゥービー,0
1379,5290801031359,新規,0,2025-03-12,2025-03-12,株式会社ＳＴＥＬＬＡ,,株式会社,福岡県,宮若市,鶴田１３８５番地３,,40,226,8230002,,,,,,,2025-03-12,1,,,,,ステラ,0
1382,5300001014113,新規,0,2025-03-12,2025-03-12,株式会社光輝成,,株式会社,佐賀県,佐賀市,川副町犬井道４００９－２,,41,201,8490000,,,,,,,2025-03-12,1,,,,,コウキセイ,0
1383,5310001019499,新規,0,2025-03-12,2025-03-12,株式会社おがわ建設,,株式会社,長崎県,西彼杵郡時津町,久留里郷１４６５番地,,42,308,8512107,,,,,,,2025-03-12,1,,,,,オガワケンセツ,0
1385,5310003004961,新規,0,2025-03-12,2025-03-12,合同会社ｈａｕｏｌｉ,,合同会社,長崎県,長崎市,滑石１丁目１０－１１　１０６号室,,42,201,8528061,,,,,,,2025-03-12,1,,,,,ハウオリ,0
1394,5340001027193,新規,0,2025-03-12,2025-03-12,ＭＹＣｏｎｓｕｌｔｉｎｇ株式会社,,株式会社,鹿児島県,鹿児島市,東千石町６－１４ゴールデンゲートビル３Ｆ,,46,201,8920842,,,,,,,2025-03-12,1,,,,,マイコンサルティング,0
1395,5340003004777,新規,0,2025-03-12,2025-03-12,合同会社ＴＡＩＮａ,,合同会社,鹿児島県,鹿児島市,伊敷台５丁目１２番４号,,46,201,8900007,,,,,,,2025-03-12,1,,,,,タイナ,0
1398,5360001034898,新規,0,2025-03-12,2025-03-12,株式会社貴希,,株式会社,沖縄県,那覇市,首里大中町２丁目２４番地４,,47,201,9030823,,,,,,,2025-03-12,1,,,,,タカキ,0
1399,5360001034915,新規,0,2025-03-12,2025-03-12,株式会社ＥＩＧＨＴ‐Ｃ,,株式会社,沖縄県,糸満市,字名城２５６番地の１・１０１,,47,210,9010351,,,,,,,2025-03-12,1,,,,,エイトシー,0
1401,5360003014766,新規,0,2025-03-12,2025-03-12,アラタスペス合同会社,,合同会社,沖縄県,宜野湾市,宜野湾３丁目１４－２２,,47,205,9012211,,,,,,,2025-03-12,1,,,,,アラタスペス,0
1404,5370001052346,新規,0,2025-03-12,2025-03-12,株式会社ＨＵＧＥ,,株式会社,宮城県,仙台市青葉区,一番町１丁目６番２０号,,04,101,9800811,,,,,,,2025-03-12,1,,,,,ヒュージ,0
1405,5370003006977,新規,0,2025-03-12,2025-03-12,ハシモノ企画合同会社,,合同会社,宮城県,仙台市泉区,上谷刈５丁目２１番３号,,04,105,9813121,,,,,,,2025-03-12,1,,,,,ハシモノキカク,0
1411,5380001035151,新規,0,2025-03-12,2025-03-12,株式会社Ｓｕｍｉｒｅ,,株式会社,福島県,郡山市,富久山町八山田字北作１７－１,,07,203,9638051,,,,,,,2025-03-12,1,,,,,スミレ,0
1414,5390001017917,新規,0,2025-03-12,2025-03-12,株式会社ホンマ壱工務店,,株式会社,山形県,長井市,勧進代１７５１－９,,06,209,9930064,,,,,,,2025-03-12,1,,,,,モンマイチコウムテン,0
1419,5410001014093,新規,0,2025-03-12,2025-03-12,株式会社アキライト,,株式会社,秋田県,秋田市,濁川字家ノ前７７番地１,,05,201,0100821,,,,,,,2025-03-12,1,,,,,アキライト,0
1420,5420001019050,新規,0,2025-03-12,2025-03-12,株式会社グローバル・アソート,,株式会社,青森県,八戸市,大字新井田字長塚森５番地５,,02,203,0310813,,,,,,,2025-03-12,1,,,,,グローバルアソート,0
1422,5420003003085,新規,0,2025-03-12,2025-03-12,合同会社東奥日報土手町小枝販売店,,合同会社,青森県,弘前市,大字土手町２１１番地７,,02,202,0368182,,,,,,,2025-03-12,1,,,,,トウオウニッポウドテマチコエダハンバイテン,0
1425,5430001093862,新規,0,2025-03-12,2025-03-12,滕帆株式会社,,株式会社,北海道,札幌市白石区,菊水三条２丁目１－７ガーデンハウス南１条通り８０２号,,01,104,0030803,,,,,,,2025-03-12,1,,,,,トウハン,0
1426,5430001093870,新規,0,2025-03-12,2025-03-12,株式会社フレ・エステート,,株式会社,北海道,札幌市中央区,南十九条西１２丁目１番２号,,01,101,0640919,,,,,,,2025-03-12,1,,,,,フレエステート,0
1427,5430001093879,新規,0,2025-03-12,2025-03-12,株式会社みなと食堂,,株式会社,北海道,苫小牧市,港町２丁目２番５号ぷらっとみなと市場Ａ棟,,01,213,0530004,,,,,,,2025-03-12,1,,,,,ミナトショクドウ,0
1428,5430001093887,新規,0,2025-03-12,2025-03-12,株式会社Ｂｉｎｋｓ,,株式会社,北海道,札幌市中央区,南六条西９丁目１０１９番地１２札幌第一パークハイツ９１０号室,,01,101,0640806,,,,,,,2025-03-12,1,,,,,ビンクス,0
1431,5430003017365,新規,0,2025-03-12,2025-03-12,Ｋ＆Ｓ合同会社,,合同会社,北海道,札幌市南区,藤野一条８丁目１５番１３号,,01,106,0612281,,,,,,,2025-03-12,1,,,,,ケーアンドエス,0
1433,5470001020623,新規,0,2025-03-12,2025-03-12,株式会社コヤフティング,,株式会社,香川県,高松市,牟礼町大町１４１５番地６８,,37,201,7610122,,,,,,,2025-03-12,1,,,,,コヤフティング,0
1438,5480001012776,新規,0,2025-03-12,2025-03-12,株式会社ＨＡＳＥＢＥ,,株式会社,徳島県,徳島市,川内町上別宮東７番地２,,36,201,7710126,,,,,,,2025-03-12,1,,,,,ハセベ,0
1443,5700150129530,新規,0,2025-03-12,2025-03-12,ｄｏｎｇｇｕａｎｓｈｉｊｉａｃｅｄｉａｎｚｉｋｅｊｉｙｏｕｘｉａｎｇｏｎｇｓｉ,,外国会社等,,,,,,,,ｇｕａｎｇｄｏｎｇｓｈｅｎｇｄｏｎｇｇｕａｎｓｈｉｈｕｍｅｎｚｈｅｎｈｕａｉｄｅｔｉａｎｘｉｎｅｒｘｉａｎｇ１ｈａｏ１０２ｓｈｉ　５２３０００　ＣＮ,,,,,,2025-03-12,1,,,,,ドングゥアンシジャチェデンシカギユウゲンコウシ,0
1444,5700150129539,新規,0,2025-03-12,2025-03-12,Ｖｕｂａ　Ｃｈｅｍｉｃａｌ　Ｉｎｎｏｖａｔｉｏｎｓ　Ｌｉｍｉｔｅｄ,,外国会社等,,,,,,,,Ｕｎｉｔ　Ｂ３－４　Ａｎｎｉｅ　Ｒｅｅｄ　Ｒｏａｄ，Ｂｅｖｅｒｌｅｙ，Ｅａｓｔ　Ｙｏｒｋｓｈｉｒｅ，Ｅｎｇｌａｎｄ,,,,,,2025-03-12,1,,,,,ヴバケミカルイノベーシヨンリミテツド,0
1457,6010001252955,新規,0,2025-03-12,2025-03-12,株式会社ＮＥＸＴ５４,,株式会社,東京都,千代田区,神田神保町１丁目４１,,13,101,1010051,,,,,,,2025-03-12,1,,,,,ネクストファイブフォー,0
1458,6010001252963,新規,0,2025-03-12,2025-03-12,株式会社ブリリアントパートナーズ,,株式会社,東京都,中央区,日本橋蛎殻町１丁目２９番４号,,13,102,1030014,,,,,,,2025-03-12,1,,,,,ブリリアントパートナーズ,0
1459,6010001252971,新規,0,2025-03-12,2025-03-12,Ｅｃｏｔｅｃ　Ｊａｐａｎ株式会社,,株式会社,東京都,中央区,銀座８丁目１８番３号銀座加藤ビル２階,,13,102,1040061,,,,,,,2025-03-12,1,,,,,エコテックジャパン,0
1460,6010001253020,新規,0,2025-03-12,2025-03-12,株式会社じん,,株式会社,東京都,千代田区,有楽町１丁目５－２東宝日比谷プロムナードビル１１階,,13,101,1000006,,,,,,,2025-03-12,1,,,,,ジン,0
1465,6010005039738,新規,0,2025-03-12,2025-03-12,一般社団法人ロダン,,その他の設立登記法人,東京都,中央区,京橋２丁目１２番６号ＡＯＪ税理士法人内,,13,102,1040031,,,,,,,2025-03-12,1,,,,,ロダン,0
1469,6010401188799,新規,0,2025-03-12,2025-03-12,株式会社ＦＯＲＥＶＥＲ．ＥＮＴ．ＪＰＮ,,株式会社,東京都,港区,港南２丁目１６番４号品川グランドセントラルタワー８Ｆ,,13,103,1080075,,,,,,,2025-03-12,1,,,,,フォエバーエンタージャパン,0
1470,6010401188849,新規,0,2025-03-12,2025-03-12,株式会社ＷＡＹ　ＵＰ,,株式会社,東京都,港区,麻布永坂町１番地,,13,103,1060043,,,,,,,2025-03-12,1,,,,,ウェイアップ,0
1472,6010403034571,新規,0,2025-03-12,2025-03-12,日本ハネウェル合同会社,,合同会社,東京都,港区,海岸１丁目１６番１号,,13,103,1050022,,,,,,,2025-03-12,1,,,,,ニホンハネウェル,0
1473,6010403034605,新規,0,2025-03-12,2025-03-12,合同会社ハイ・マウンテン・マスターリース,,合同会社,東京都,港区,元赤坂１丁目１番７号,,13,103,1070051,,,,,,,2025-03-12,1,,,,,ハイマウンテンマスターリース,0
1474,6010403034621,新規,0,2025-03-12,2025-03-12,Ｖｉｃｏｌｉｆｅ合同会社,,合同会社,東京都,港区,北青山１丁目３番１号アールキューブ青山３階,,13,103,1070061,,,,,,,2025-03-12,1,,,,,ヴィカライフ,0
1475,6010405024133,新規,0,2025-03-12,2025-03-12,ジー・エイ・ワン・レジデンス・イレブン特定目的会社,,その他の設立登記法人,東京都,港区,虎ノ門５丁目１番４号,,13,103,1050001,,,,,,,2025-03-12,1,,,,,ジーエイワンレジデンスイレブン,0
1477,6010603011420,新規,0,2025-03-12,2025-03-12,スマイル２合同会社,,合同会社,東京都,江東区,豊洲５丁目１番１３号３２１９号室,,13,108,1350061,,,,,,,2025-03-12,1,,,,,スマイルツー,0
1480,6010705003737,新規,0,2025-03-12,2025-03-12,ＮＰＯ法人スネークタウン活性化委員会,,その他の設立登記法人,東京都,品川区,豊町５丁目８番４号,,13,109,1420042,,,,,,,2025-03-12,1,,,,,スネークタウンカッセイカイインカイ,0
1481,6010801035907,新規,0,2025-03-12,2025-03-12,ＵＺ・企画株式会社,,株式会社,東京都,大田区,仲六郷４丁目４番６号,,13,111,1440055,,,,,,,2025-03-12,1,,,,,ユージーキカク,0
1484,6010901056984,新規,0,2025-03-12,2025-03-12,株式会社Ａｎｃｈｏｒ３,,株式会社,東京都,世田谷区,上用賀３丁目１－７,,13,112,1580098,,,,,,,2025-03-12,1,,,,,アンカースリー,0
1486,6010903009775,新規,0,2025-03-12,2025-03-12,ＭＨＡ合同会社,,合同会社,東京都,世田谷区,砧５丁目７番２６－５０１号,,13,112,1570073,,,,,,,2025-03-12,1,,,,,エムエイチエイ,0
1496,6011001168282,新規,0,2025-03-12,2025-03-12,ｂｏｓｈｕ株式会社,,株式会社,東京都,渋谷区,道玄坂１丁目１０番８号,,13,113,1500043,,,,,,,2025-03-12,1,,,,,ボシュウ,0
1497,6011001168373,新規,0,2025-03-12,2025-03-12,株式会社Ｒｅ‐ｒａｉｌ,,株式会社,東京都,渋谷区,道玄坂１丁目１０番８号渋谷道玄坂東急ビル２Ｆ―Ｃ,,13,113,1500043,,,,,,,2025-03-12,1,,,,,リレール,0
1498,6011003021118,新規,0,2025-03-12,2025-03-12,合同会社ＮＣＡＴ,,合同会社,東京都,目黒区,自由が丘２丁目１６番１２号ＲＪ３,,13,110,1520035,,,,,,,2025-03-12,1,,,,,エヌキャット,0
1499,6011003021191,新規,0,2025-03-12,2025-03-12,合同会社ＥＳＲ２７,,合同会社,東京都,目黒区,上目黒１丁目２３番１号中目黒アリーナ４０５号室,,13,110,1530051,,,,,,,2025-03-12,1,,,,,イーエスアールトゥエンティセブン,0
1509,6011301030423,新規,0,2025-03-12,2025-03-12,株式会社エンパワーアートラボ,,株式会社,東京都,杉並区,南荻窪１丁目２９番１５号,,13,115,1670052,,,,,,,2025-03-12,1,,,,,エンパワーアートラボ,0
1510,6011301030431,新規,0,2025-03-12,2025-03-12,株式会社Ｐｏｓｉｔｉｖｅ　Ｂｅａｕｔｙ　Ｌｉｆｅ,,株式会社,東京都,杉並区,高井戸西３丁目８番５号,,13,115,1680071,,,,,,,2025-03-12,1,,,,,ポジティブビューティーライフ,0
1511,6011303005448,新規,0,2025-03-12,2025-03-12,合同会社ともに歩む道,,合同会社,東京都,杉並区,南荻窪４丁目１８番１４号,,13,115,1670052,,,,,,,2025-03-12,1,,,,,トモニアユムミチ,0
1512,6011303005456,新規,0,2025-03-12,2025-03-12,エクスパンド合同会社,,合同会社,東京都,杉並区,高円寺南１丁目２２－２６ラシクラス東高円寺２０２,,13,115,1660003,,,,,,,2025-03-12,1,,,,,エクスパンド,0
1513,6011501031799,新規,0,2025-03-12,2025-03-12,株式会社コマースシップ,,株式会社,東京都,北区,上十条２丁目２７番１－２１０１号ザ・タワー十条,,13,117,1140034,,,,,,,2025-03-12,1,,,,,コマースシップ,0
1514,6011601028489,新規,0,2025-03-12,2025-03-12,株式会社淳,,株式会社,東京都,練馬区,東大泉７丁目２７番５４号２１３号室,,13,120,1780063,,,,,,,2025-03-12,1,,,,,アツシ,0
1517,6011703004149,新規,0,2025-03-12,2025-03-12,ＧＩＦＵ　ＳＯＬＡＲ　ＰＡＲＫ３合同会社,,合同会社,東京都,江戸川区,船堀２丁目２０番７号シティハウスＡ棟２０４,,13,123,1340091,,,,,,,2025-03-12,1,,,,,ギフソーラーパークスリー,0
1518,6011703004157,新規,0,2025-03-12,2025-03-12,合同会社レディゴー,,合同会社,東京都,江戸川区,西葛西５丁目６番２０号６階,,13,123,1340088,,,,,,,2025-03-12,1,,,,,レディゴー,0
1521,6011801045788,新規,0,2025-03-12,2025-03-12,意盛株式会社,,株式会社,東京都,葛飾区,新小岩４丁目６番１１号,,13,122,1240024,,,,,,,2025-03-12,1,,,,,イセイ,0
1522,6012401042886,新規,0,2025-03-12,2025-03-12,株式会社ＥＴＥＲＮＩＴＹ,,株式会社,東京都,稲城市,大丸９４１－１ナガヤ化学ビル,,13,225,2060801,,,,,,,2025-03-12,1,,,,,エタニティ,0
1528,6013301053890,新規,0,2025-03-12,2025-03-12,株式会社Ｓｔａｒ　Ｇｌｏｂｅ　Ｊａｐａｎ,,株式会社,東京都,豊島区,池袋本町２丁目３２番１３号パレス池袋Ａ１００号室,,13,116,1700011,,,,,,,2025-03-12,1,,,,,スターグローブジャパン,0
1534,6020001161800,新規,0,2025-03-12,2025-03-12,株式会社ＳＳＳ　ｐｒｏｄｕｃｔｉｏｎ,,株式会社,神奈川県,横浜市南区,睦町１丁目２２番地５ライオンズマンション吉野町南２０７号,,14,105,2320041,,,,,,,2025-03-12,1,,,,,エスエスエスプロダクション,0
1537,6020003028023,新規,0,2025-03-12,2025-03-12,ＨＭホーム合同会社,,合同会社,神奈川県,横浜市港北区,篠原町２８３１番地１４ジャスミンハウス１０１,,14,109,2220026,,,,,,,2025-03-12,1,,,,,エイチエムホーム,0
1544,6021001084710,新規,0,2025-03-12,2025-03-12,株式会社Ｖｅｎｔｏ,,株式会社,神奈川県,相模原市南区,南台１丁目２番５号,,14,153,2520314,,,,,,,2025-03-12,1,,,,,ベント,0
1546,6021003015713,新規,0,2025-03-12,2025-03-12,合同会社Ｏｕｒ　Ｓｔｏｒｙ,,合同会社,神奈川県,横須賀市,大津町４丁目７番８－５号,,14,201,2390808,,,,,,,2025-03-12,1,,,,,アワーストーリー,0
1547,6021005013293,新規,0,2025-03-12,2025-03-12,一般社団法人ＴＥＡＭ　ＡＴＨＬＥＴＥ　ＰＲＯＪＥＣＴ山本三兄弟後援会,,その他の設立登記法人,神奈川県,足柄下郡湯河原町,土肥５丁目８番地の３２,,14,384,2590303,,,,,,,2025-03-12,1,,,,,チームアスリートプロジェクトヤマモトサンキョウダイコウエンカイ,0
1548,6021005013302,新規,0,2025-03-12,2025-03-12,一般社団法人湘南ＰＥＴ海洋散骨協会,,その他の設立登記法人,神奈川県,藤沢市,片瀬海岸１丁目１２番１７号,,14,205,2510035,,,,,,,2025-03-12,1,,,,,ショウナンペットカイヨウサンコツキョウカイ,0
1552,6030001165321,新規,0,2025-03-12,2025-03-12,株式会社ライトウエイソリューションズ,,株式会社,埼玉県,上尾市,大字上５４１番地１１,,11,219,3620001,,,,,,,2025-03-12,1,,,,,ライトウエイソリューションズ,0
1555,6030003026315,新規,0,2025-03-12,2025-03-12,合同会社Ｒｅｗａｒｄｉｎｇ,,合同会社,埼玉県,川越市,豊田本４丁目２－１１,,11,201,3501118,,,,,,,2025-03-12,1,,,,,リワーディング,0
1562,6040001137773,新規,0,2025-03-12,2025-03-12,株式会社やわら,,株式会社,千葉県,木更津市,朝日２丁目５番６号,,12,206,2920055,,,,,,,2025-03-12,1,,,,,ヤワラ,0
1565,6040003027056,新規,0,2025-03-12,2025-03-12,ＡＩ‐ＧＵＮＳＨＩ合同会社,,合同会社,千葉県,八千代市,大和田新田７４７－１、２番館－１３０３号,,12,221,2760046,,,,,,,2025-03-12,1,,,,,エーアイグンシ,0
1566,6040003027072,新規,0,2025-03-12,2025-03-12,合同会社Ｈａｌｅｌｅａ,,合同会社,千葉県,市川市,稲荷木３丁目２５番２号,,12,203,2720024,,,,,,,2025-03-12,1,,,,,ハレレア,0
1571,6050003009045,新規,0,2025-03-12,2025-03-12,むすび合同会社,,合同会社,茨城県,龍ケ崎市,大徳町２６５,,08,208,3010816,,,,,,,2025-03-12,1,,,,,ムスビ,0
1572,6050003009103,新規,0,2025-03-12,2025-03-12,合同会社ＳＵＮＡ,,合同会社,茨城県,古河市,中田２０７５番地３２,,08,204,3060053,,,,,,,2025-03-12,1,,,,,スナ,0
1573,6060001037996,新規,0,2025-03-12,2025-03-12,株式会社ｉｓｍ,,株式会社,栃木県,宇都宮市,御幸町１４９番地６,,09,201,3210984,,,,,,,2025-03-12,1,,,,,イズム,0
1574,6060001038004,新規,0,2025-03-12,2025-03-12,ＦＲＥＥＺＡ’Ｓ　ＡＲＭＹ株式会社,,株式会社,栃木県,宇都宮市,峰１丁目１５番６号渡辺ビル１Ｆ,,09,201,3210942,,,,,,,2025-03-12,1,,,,,フリーザズアーミー,0
1575,6060001038012,新規,0,2025-03-12,2025-03-12,株式会社プライムタイム,,株式会社,栃木県,佐野市,堀米町２１４７番地,,09,204,3270843,,,,,,,2025-03-12,1,,,,,プライムタイム,0
1580,6070005010362,新規,0,2025-03-12,2025-03-12,一般社団法人福祉ネットいつの和,,その他の設立登記法人,群馬県,高崎市,新保町７７番地１,,10,202,3700018,,,,,,,2025-03-12,1,,,,,フクシネットイツノワ,0
1581,6080001026808,新規,0,2025-03-12,2025-03-12,株式会社ルームズ,,株式会社,静岡県,静岡市駿河区,丸子新田２２３番地,,22,102,4210111,,,,,,,2025-03-12,1,,,,,ルームズ,0
1582,6080101025362,新規,0,2025-03-12,2025-03-12,株式会社Ｍ‐ａｎｄ,,株式会社,静岡県,沼津市,大岡１０１４番地の７,,22,203,4100022,,,,,,,2025-03-12,1,,,,,エムーアンド,0
1589,6100001038370,新規,0,2025-03-12,2025-03-12,株式会社ＧｒｏｗＵｐ,,株式会社,長野県,東御市,和１７７０番地,,20,219,3890505,,,,,,,2025-03-12,1,,,,,グロウアップ,0
1590,6110001039120,新規,0,2025-03-12,2025-03-12,株式会社ＴＨＤ空調,,株式会社,新潟県,新潟市東区,材木町２番３号,,15,102,9500811,,,,,,,2025-03-12,1,,,,,ティーエイチディークウチョウ,0
1604,6120901050555,新規,0,2025-03-12,2025-03-12,豊永巧舎株式会社,,株式会社,大阪府,豊中市,蛍池北町一丁目１１番１４号,,27,203,5600000,,,,,,,2025-03-12,1,,,,,ホウエイコウシャ,0
1605,6120901050596,新規,0,2025-03-12,2025-03-12,株式会社ｒｅ．ｅｎ,,株式会社,大阪府,茨木市,永代町６－１９近藤ビル２０１,,27,211,5670816,,,,,,,2025-03-12,1,,,,,リエン,0
1608,6122003003136,新規,0,2025-03-12,2025-03-12,ＳＨＱ合同会社,,合同会社,大阪府,東大阪市,角田１丁目５番３号,,27,227,5780912,,,,,,,2025-03-12,1,,,,,エスエイチキュー,0
1609,6122003003144,新規,0,2025-03-12,2025-03-12,合同会社健翔堂,,合同会社,大阪府,柏原市,玉手町１８番６９号,,27,221,5820028,,,,,,,2025-03-12,1,,,,,ケンショウドウ,0
1611,6130001079081,新規,0,2025-03-12,2025-03-12,株式会社ファンキャリア,,株式会社,京都府,京都市中京区,小結棚町４２８番地新町アイエスビル３Ｆ,,26,104,6048223,,,,,,,2025-03-12,1,,,,,ファンキャリア,0
1612,6130001079172,新規,0,2025-03-12,2025-03-12,株式会社ファムスコンストラクション,,株式会社,京都府,京都市下京区,醒ケ井通松原下る篠屋町７１番地,,26,106,6008488,,,,,,,2025-03-12,1,,,,,ファムスコンストラクション,0
1613,6130001079180,新規,0,2025-03-12,2025-03-12,ドモア株式会社,,株式会社,京都府,京都市下京区,醒ケ井通五条上る小泉町１１２番地２,,26,106,6008480,,,,,,,2025-03-12,1,,,,,ドモア,0
1614,6130001079197,新規,0,2025-03-12,2025-03-12,株式会社Ａ‐ＴＩＣＳ,,株式会社,京都府,京都市中京区,頭町２２番地１,,26,104,6040031,,,,,,,2025-03-12,1,,,,,エーティックス,0
1617,6130003010283,新規,0,2025-03-12,2025-03-12,ＳＡＦＩ＆ＣＯ合同会社,,合同会社,京都府,京田辺市,三山木南山３３番地３８,,26,211,6100313,,,,,,,2025-03-12,1,,,,,サフィアンドコー,0
1620,6140003021759,新規,0,2025-03-12,2025-03-12,Ｓ＆Ｍ合同会社,,合同会社,兵庫県,川西市,丸山台３丁目２番１０８,,28,217,6660152,,,,,,,2025-03-12,1,,,,,エスアンドエム,0
1621,6150001027947,新規,0,2025-03-12,2025-03-12,株式会社高谷土木,00138303,株式会社,奈良県,北葛城郡上牧町,大字上牧２６２５番地１３,,29,424,6390214,,,,,,,2025-03-12,1,,,,,タカヤドボク,0
1622,6150001027955,新規,0,2025-03-12,2025-03-12,宮都建設株式会社,,株式会社,奈良県,奈良市,疋田町２丁目１－２１号徳丸ビル２階,,29,201,6310843,,,,,,,2025-03-12,1,,,,,ミヤトケンセツ,0
1623,6150003003525,新規,0,2025-03-12,2025-03-12,合同会社おしみ總合法務事務所,,合同会社,奈良県,葛城市,忍海３１９番地２,,29,211,6392123,,,,,,,2025-03-12,1,,,,,オシミソウゴウホウムジムショ,0
1624,6160001026601,新規,0,2025-03-12,2025-03-12,株式会社ＬＩＶＥＳ,,株式会社,滋賀県,彦根市,日夏町１５８９番地,,25,202,5220047,,,,,,,2025-03-12,1,,,,,ライブズ,0
1625,6170001018531,新規,0,2025-03-12,2025-03-12,株式会社Ｃｏｓｍｏ,,株式会社,和歌山県,和歌山市,野崎４０番地１４,,30,201,6408402,,,,,,,2025-03-12,1,,,,,コスモ,0
1630,6180001165810,新規,0,2025-03-12,2025-03-12,株式会社ＫＥＮＪＩＮホーム,,株式会社,愛知県,名古屋市名東区,牧の原３丁目８０２番地ＡＲＫ－ｉｏＴ１－Ｂ,,23,115,4650072,,,,,,,2025-03-12,1,,,,,ケンジンホーム,0
1631,6180001165901,新規,0,2025-03-12,2025-03-12,株式会社Ｍａ‐Ｌｅａ,,株式会社,愛知県,名古屋市北区,大杉町６丁目９６番地,,23,103,4620836,,,,,,,2025-03-12,1,,,,,マレア,0
1636,6180003028049,新規,0,2025-03-12,2025-03-12,合同会社タツール,,合同会社,愛知県,春日井市,東野町７丁目１番地５,,23,206,4860817,,,,,,,2025-03-12,1,,,,,タツール,0
1637,6180301039607,新規,0,2025-03-12,2025-03-12,株式会社Ｐｕｒｐｌｅ,,株式会社,愛知県,西尾市,瓦町１番地,,23,213,4450832,,,,,,,2025-03-12,1,,,,,パープル,0
1638,6180301039615,新規,0,2025-03-12,2025-03-12,Ｒｔｅｒａｓ　Ｐａｒｔｎｅｒｓ株式会社,,株式会社,愛知県,岡崎市,竜美中２丁目３番地１４,,23,202,4440879,,,,,,,2025-03-12,1,,,,,リテラスパートナーズ,0
1642,6190001032076,新規,0,2025-03-12,2025-03-12,株式会社ＭＥＧＵＲＯトレード,,株式会社,三重県,桑名市,陽だまりの丘４丁目１３１４番地,,24,205,5110867,,,,,,,2025-03-12,1,,,,,メグロトレード,0
1643,6190003004957,新規,0,2025-03-12,2025-03-12,合同会社ＴＲＩＰＬＥ　Ｙ,,合同会社,三重県,桑名市,新西方６丁目１１１,,24,205,5110863,,,,,,,2025-03-12,1,,,,,トリプルワイ,0
1644,6200003006729,新規,0,2025-03-12,2025-03-12,ＡＬＴＰＬＡＣＥ合同会社,,合同会社,岐阜県,本巣郡北方町,芝原東町４丁目６番地の２,,21,421,5010423,,,,,,,2025-03-12,1,,,,,アルトプレイス,0
1648,6220001026553,新規,0,2025-03-12,2025-03-12,明徳リフォームＮｅｗ　Ｗａｙ株式会社,,株式会社,石川県,金沢市,畝田西１丁目１４５番地ロイヤルページェント５０３号,,17,201,9200342,,,,,,,2025-03-12,1,,,,,メイトクリフォームニューウェイ,0
1655,6240001064634,新規,0,2025-03-12,2025-03-12,株式会社でん,,株式会社,広島県,世羅郡世羅町,大字小世良５７７番地,,34,462,7221122,,,,,,,2025-03-12,1,,,,,デン,0
1656,6240001064650,新規,0,2025-03-12,2025-03-12,株式会社３シージェー,,株式会社,広島県,広島市西区,古江東町８番１－１１０４号,,34,104,7330872,,,,,,,2025-03-12,1,,,,,スリーシージェー,0
1658,6240003007104,新規,0,2025-03-12,2025-03-12,合同会社Ｎａｔｕｒ．,,合同会社,広島県,広島市中区,大手町１丁目１－２０相生橋ビル７階Ａ号室,,34,101,7300051,,,,,,,2025-03-12,1,,,,,ナチュール,0
1660,6260001039997,新規,0,2025-03-12,2025-03-12,株式会社ｃｏｒｒｅｃｔ,,株式会社,岡山県,岡山市北区,富田町２丁目７番５号,,33,101,7000816,,,,,,,2025-03-12,1,,,,,コレクト,0
1664,6290001109302,新規,0,2025-03-12,2025-03-12,株式会社ＡＥＯＳ,,株式会社,福岡県,福岡市東区,香椎照葉１丁目３－４－１２０２,,40,131,8130017,,,,,,,2025-03-12,1,,,,,エイオース,0
1665,6290001109310,新規,0,2025-03-12,2025-03-12,株式会社舷冷熱学,,株式会社,福岡県,福岡市南区,平和１丁目２６－４９－１階,,40,134,8150071,,,,,,,2025-03-12,1,,,,,ゲンレイネツガク,0
1670,6290005019670,新規,0,2025-03-12,2025-03-12,ＪＡＰＡＮ　ＰＯＲＴ農事組合法人,,その他の設立登記法人,福岡県,三井郡大刀洗町,大字山隈２０７７番地１,,40,503,8301226,,,,,,,2025-03-12,1,,,,,ジャパンポート,0
1676,6300003002239,新規,0,2025-03-12,2025-03-12,合同会社ユアバディ,,合同会社,佐賀県,東松浦郡玄海町,大字仮屋３番地１,,41,387,8471435,,,,,,,2025-03-12,1,,,,,ユアバディ,0
1677,6310003004960,新規,0,2025-03-12,2025-03-12,合同会社Ｋ‐ＵＮＩＴＹ,,合同会社,長崎県,長崎市,田上１丁目９番１２号,,42,201,8510251,,,,,,,2025-03-12,1,,,,,ケーユニティ,0
1678,6320001020983,新規,0,2025-03-12,2025-03-12,株式会社ｍｏｄｅｒａｔｏ,,株式会社,大分県,大分市,大字旦野原９００番地１１１,,44,201,8701124,,,,,,,2025-03-12,1,,,,,モデラート,0
1679,6320003004596,新規,0,2025-03-12,2025-03-12,合同会社ＨＡＮＡＷＡ,,合同会社,大分県,中津市,大字牛神３７番地４レクサスヨシオカ３０３,,44,203,8710015,,,,,,,2025-03-12,1,,,,,ハナワ,0
1689,6340001027184,新規,0,2025-03-12,2025-03-12,株式会社インリット・スリー,,株式会社,鹿児島県,出水市,高尾野町柴引２１２０番地１６,,46,208,8990402,,,,,,,2025-03-12,1,,,,,インリットスリー,0
1690,6340001027192,新規,0,2025-03-12,2025-03-12,株式会社Ｋａｎａｌｏａ,,株式会社,鹿児島県,南さつま市,坊津町久志２１４６番地１,,46,220,8980211,,,,,,,2025-03-12,1,,,,,カナロア,0
1693,6350003004866,新規,0,2025-03-12,2025-03-12,合同会社ＩＫＭ,,合同会社,宮崎県,北諸県郡三股町,今市１７番地２８,,45,341,8891905,,,,,,,2025-03-12,1,,,,,アイケーエム,0
1699,6370001052345,新規,0,2025-03-12,2025-03-12,株式会社ｋｕａ．,,株式会社,宮城県,仙台市青葉区,一番町１丁目６番２２号シャンボール一番町３０５,,04,101,9800811,,,,,,,2025-03-12,1,,,,,クア,0
1700,6370001052353,新規,0,2025-03-12,2025-03-12,株式会社全智,,株式会社,宮城県,仙台市宮城野区,小田原１丁目１０番２５－３０７号,,04,102,9830803,,,,,,,2025-03-12,1,,,,,ゼンチ,0
1702,6380003005977,新規,0,2025-03-12,2025-03-12,合同会社Ｙ‐ＣＲＡＦＴ,,合同会社,福島県,福島市,森合字森下１５番地の１８,,07,201,9608003,,,,,,,2025-03-12,1,,,,,ワイクラフト,0
1703,6380005012930,新規,0,2025-03-12,2025-03-12,医療法人社団結仁会,,その他の設立登記法人,福島県,いわき市,小名浜大原字東田林２０番地１,,07,204,9718111,,,,,,,2025-03-12,1,,,,,ユイジンカイ,0
1710,6410001014092,新規,0,2025-03-12,2025-03-12,ＤＯＧＵ株式会社,,株式会社,秋田県,由利本荘市,岩城内道川字観音下１番地,,05,210,0181301,,,,,,,2025-03-12,1,,,,,ドウグ,0
1716,6430001093886,新規,0,2025-03-12,2025-03-12,株式会社ＦｏｒＮｏｒｔｈ,,株式会社,北海道,札幌市中央区,南十五条西７丁目１番３０号,,01,101,0640915,,,,,,,2025-03-12,1,,,,,フォーノース,0
1718,6430003017364,新規,0,2025-03-12,2025-03-12,ＭｏｅＧＩビジネスサポート合同会社,,合同会社,北海道,札幌市中央区,北三条西２０丁目２番１６号,,01,101,0640823,,,,,,,2025-03-12,1,,,,,モエギビジネスサポート,0
1719,6430003017372,新規,0,2025-03-12,2025-03-12,合同会社みかみ,,合同会社,北海道,札幌市西区,琴似一条２丁目４番１３－１０１号,,01,107,0630811,,,,,,,2025-03-12,1,,,,,ミカミ,0
1720,6430003017380,新規,0,2025-03-12,2025-03-12,合同会社ＳＫＩＬＬＰＡ,,合同会社,北海道,札幌市豊平区,西岡四条５丁目８番１号,,01,105,0620034,,,,,,,2025-03-12,1,,,,,スキルパ,0
1722,6430005015176,新規,0,2025-03-12,2025-03-12,医療法人萠和会,,その他の設立登記法人,北海道,恵庭市,黄金南６丁目９－７,,01,231,0611409,,,,,,,2025-03-12,1,,,,,モイワカイ,0
1723,6440001009577,新規,0,2025-03-12,2025-03-12,株式会社ＳＩＶＡ,,株式会社,北海道,上磯郡知内町,字湯ノ里２８９,,01,333,0491221,,,,,,,2025-03-12,1,,,,,シヴァ,0
1724,6440005002792,新規,0,2025-03-12,2025-03-12,医療法人社団幸智会,,その他の設立登記法人,北海道,松前郡福島町,字館崎３５０番地２７,,01,332,0491454,,,,,,,2025-03-12,1,,,,,コウチカイ,0
1727,6460101007677,新規,0,2025-03-12,2025-03-12,株式会社ジーワイエス,,株式会社,北海道,帯広市,西二十一条南２丁目５９番９号,,01,207,0802471,,,,,,,2025-03-12,1,,,,,ジーワイエス,0
1735,6700150044794,新規,0,2025-03-12,2015-10-09,静岡県校長会,,その他,静岡県,静岡市葵区,駿府町１番１２号静岡県教育会館内,,22,101,4200856,,,,,,,2015-10-09,1,,,,,シズオカケンコウチヨウカイ,0
1736,6700150129538,新規,0,2025-03-12,2025-03-12,Ｍｅｎｇ　Ｍｉｎｇ　Ｗｅｉ（Ｓｈｅｎｚｈｅｎ）Ｅ－ｃｏｍｍｅｒｃｅ　Ｃｏ．，Ｌｔｄ．,,外国会社等,,,,,,,,２１１１－Ｚ０９８，Ｂｕｉｌｄｉｎｇ　１，Ｈｅｎｇｍｅｔ　Ｐｌａｚａ，Ｎｏ．１５　Ｈｕａｎｃｈｅｎｇ　Ｓｏｕｔｈ　Ｒｏａｄ，Ｍａａｎ　Ｔａｎｇ　Ｃｏｍｍｕｎｉｔｙ，Ｂａｎｔｉａｎ　Ｓｔｒｅｅｔ，Ｌｏｎｇｇａｎｇ　Ｄｉｓｔｒｉｃｔ，Ｓｈｅｎｚｈｅｎ,,,,,,2025-03-12,1,,,,,モンミンウエイシンセンイーコマースユウゲンコウシ,0
1742,7010001252962,新規,0,2025-03-12,2025-03-12,クラウドセイル株式会社,,株式会社,東京都,中央区,八丁堀２丁目３番９号Ｈ１Ｏ八丁堀３１１号室,,13,102,1040032,,,,,,,2025-03-12,1,,,,,クラウドセイル,0
1743,7010003046702,新規,0,2025-03-12,2025-03-12,海宜コンサルティング合同会社,,合同会社,東京都,文京区,白山１丁目６番４－Ａ１７,,13,105,1130001,,,,,,,2025-03-12,1,,,,,カイギコンサルティング,0
1745,7010005039720,新規,0,2025-03-12,2025-03-12,一般社団法人ギガビット後楽園,,その他の設立登記法人,東京都,中央区,京橋２丁目１２番６号ＡＯＪ税理士法人内,,13,102,1040031,,,,,,,2025-03-12,1,,,,,キガビットコウラクエン,0
1747,7010103002530,新規,0,2025-03-12,2025-03-12,合同会社樹,,合同会社,東京都,八王子市,三崎町３番４号ＲＪスクエアビル２階,,13,201,1920084,,,,,,,2025-03-12,1,,,,,,0
1756,7010401188848,新規,0,2025-03-12,2025-03-12,株式会社ＫＲＴ,,株式会社,東京都,港区,芝浦４丁目１０番１－１２０９号,,13,103,1080023,,,,,,,2025-03-12,1,,,,,ケイアールティー,0
1759,7010403034604,新規,0,2025-03-12,2025-03-12,合同会社ウニコルニス,,合同会社,東京都,港区,六本木７丁目７－７トライセブンロッポンギ８階,,13,103,1060032,,,,,,,2025-03-12,1,,,,,ウニコルニス,0
1760,7010405024132,新規,0,2025-03-12,2025-03-12,ジー・エイ・ワン・レジデンス・テン特定目的会社,,その他の設立登記法人,東京都,港区,虎ノ門５丁目１番４号,,13,103,1050001,,,,,,,2025-03-12,1,,,,,ジーエイワンレジデンステン,0
1761,7010405024140,新規,0,2025-03-12,2025-03-12,医療法人社団ＨＯＰ　ＳＴＥＰ,,その他の設立登記法人,東京都,港区,芝４丁目５番８号池藤ビル２階,,13,103,1080014,,,,,,,2025-03-12,1,,,,,ホップステップ,0
1762,7010405024181,新規,0,2025-03-12,2025-03-12,一般社団法人ＴＳＭ１７０,,その他の設立登記法人,東京都,港区,元赤坂１丁目１番７号,,13,103,1070051,,,,,,,2025-03-12,1,,,,,ティーエスエムヒャクナナジュウ,0
1766,7010501053786,新規,0,2025-03-12,2025-03-12,株式会社ゼンジェス,,株式会社,東京都,台東区,上野３丁目１４番２号Ｕｅｎｏ－ｙｏｕｒｓ－２ｎｄ４０３号,,13,106,1100005,,,,,,,2025-03-12,1,,,,,ゼンジェス,0
1768,7010601066928,新規,0,2025-03-12,2025-03-12,金太陽株式会社,,株式会社,東京都,墨田区,墨田５丁目５番２号Ｒビル墨田３Ｆ－１８号室,,13,107,1310031,,,,,,,2025-03-12,1,,,,,キンタイヨウ,0
1769,7010701047423,新規,0,2025-03-12,2025-03-12,ＳＣＧパートナーズ株式会社,,株式会社,東京都,品川区,大井１丁目６番３号,,13,109,1400014,,,,,,,2025-03-12,1,,,,,エスシージーパートナーズ,0
1770,7010703007607,新規,0,2025-03-12,2025-03-12,Ｌｉｆｔ　Ｆｏｒｗａｒｄ合同会社,,合同会社,東京都,品川区,東中延２丁目２番３号ティエンダデル・シガロ２０１,,13,109,1420052,,,,,,,2025-03-12,1,,,,,リフトフォワード,0
1775,7010901056959,新規,0,2025-03-12,2025-03-12,ＯＲＣＸ株式会社,,株式会社,東京都,世田谷区,玉川３丁目２０番２号マノア玉川第３ビル５０１号室,,13,112,1580094,,,,,,,2025-03-12,1,,,,,オルクス,0
1777,7010905004749,新規,0,2025-03-12,2025-03-12,医療法人社団美鳳,,その他の設立登記法人,東京都,世田谷区,南烏山１丁目１３番１２号芦花公園駅前メディカルモール２階,,13,112,1570062,,,,,,,2025-03-12,1,,,,,ミホ,0
1782,7011001168372,新規,0,2025-03-12,2025-03-12,株式会社ＲｅｆｉｎｅＳｔａｔ,,株式会社,東京都,渋谷区,道玄坂１丁目１０番８号渋谷道玄坂東急ビル２Ｆ―Ｃ,,13,113,1500043,,,,,,,2025-03-12,1,,,,,リファインスタット,0
1785,7011003021190,新規,0,2025-03-12,2025-03-12,合同会社ＥＳＲ１３,,合同会社,東京都,目黒区,上目黒１丁目２３番１号中目黒アリーナ４０５号室,,13,110,1530051,,,,,,,2025-03-12,1,,,,,イーエスアールサーティーン,0
1786,7011003021240,新規,0,2025-03-12,2025-03-12,隠流合同会社,,合同会社,東京都,渋谷区,渋谷２丁目１９―１５宮益坂ビルディング６０９,,13,113,1500002,,,,,,,2025-03-12,1,,,,,インリュウ,0
1791,7011101110936,新規,0,2025-03-12,2025-03-12,９０ｄＳ株式会社,,株式会社,東京都,新宿区,西新宿３丁目３番１３号西新宿水間ビル２Ｆ,,13,104,1600023,,,,,,,2025-03-12,1,,,,,ナインティディエス,0
1792,7011101110944,新規,0,2025-03-12,2025-03-12,康勤商事株式会社,,株式会社,東京都,新宿区,西新宿６丁目２０－７－３５０３,,13,104,1600023,,,,,,,2025-03-12,1,,,,,クチンショウジ,0
1793,7011101110952,新規,0,2025-03-12,2025-03-12,株式会社ＬＵＮＥ,,株式会社,東京都,新宿区,西早稲田３丁目８番１－２０９号,,13,104,1690051,,,,,,,2025-03-12,1,,,,,ルネ,0
1794,7011105011362,新規,0,2025-03-12,2025-03-12,医療法人社団織華会,,その他の設立登記法人,東京都,新宿区,神楽坂２丁目１志満金ビル４階,,13,104,1620825,,,,,,,2025-03-12,1,,,,,オリハナカイ,0
1795,7011303005455,新規,0,2025-03-12,2025-03-12,合同会社フリオインターナショナル,,合同会社,東京都,杉並区,高井戸西３丁目１５番地１リバーブ久我山４０２,,13,115,1680071,,,,,,,2025-03-12,1,,,,,フリオインターナショナル,0
1797,7011403004646,新規,0,2025-03-12,2025-03-12,合同会社ＲＥＳ,,合同会社,東京都,板橋区,蓮根３丁目２０番３－１１０７号,,13,119,1740046,,,,,,,2025-03-12,1,,,,,アールイーエス,0
1798,7011501031798,新規,0,2025-03-12,2025-03-12,金川国際貿易株式会社,,株式会社,東京都,北区,滝野川５丁目５３－１４,,13,117,1140023,,,,,,,2025-03-12,1,,,,,カネガワコクサイボウエキ,0
1799,7011601028488,新規,0,2025-03-12,2025-03-12,株式会社Ｃ．Ｆ．Ｔ,,株式会社,東京都,練馬区,大泉学園町５丁目３０－１９,,13,120,1780061,,,,,,,2025-03-12,1,,,,,シーエフティー,0
1804,7011703004148,新規,0,2025-03-12,2025-03-12,ＧＩＦＵ　ＳＯＬＡＲ　ＰＡＲＫ２合同会社,,合同会社,東京都,江戸川区,船堀２丁目２０番７号シティハウスＡ棟２０４,,13,123,1340091,,,,,,,2025-03-12,1,,,,,ギフソーラーパークツー,0
1806,7011801045779,新規,0,2025-03-12,2025-03-12,株式会社アイタル,,株式会社,東京都,葛飾区,白鳥３丁目１４番１７号高須マンション３０２,,13,122,1250063,,,,,,,2025-03-12,1,,,,,アイタル,0
1807,7011801045787,新規,0,2025-03-12,2025-03-12,大建不動産株式会社,,株式会社,東京都,葛飾区,柴又３丁目１１－１１カエデ柴又２０１室,,13,122,1250052,,,,,,,2025-03-12,1,,,,,ダイケンフドウサン,0
1813,7012705002453,新規,0,2025-03-12,2025-03-12,一般社団法人子ども発達・不登校支援センター,,その他の設立登記法人,東京都,西東京市,ひばりが丘北３丁目３番３０号,,13,229,2020002,,,,,,,2025-03-12,1,,,,,コドモハッタツフトウコウシエンセンター,0
1814,7012801023808,新規,0,2025-03-12,2025-03-12,ＳＩＯＮ　ＲＥＡＬ　ＥＳＴＡＴＥ株式会社,,株式会社,東京都,立川市,錦町４丁目５番地２５アーバンライフ１階－Ａ,,13,202,1900022,,,,,,,2025-03-12,1,,,,,シオンリアルエステート,0
1818,7013301053931,新規,0,2025-03-12,2025-03-12,株式会社ｍａｎｅＫＥＹ,,株式会社,東京都,豊島区,北大塚２丁目１１番１４号,,13,116,1700004,,,,,,,2025-03-12,1,,,,,マネキー,0
1819,7013301053964,新規,0,2025-03-12,2025-03-12,株式会社ゼロワン,,株式会社,東京都,豊島区,南長崎４丁目４４番２号,,13,116,1710052,,,,,,,2025-03-12,1,,,,,ゼロワン,0
1829,7020001161709,新規,0,2025-03-12,2025-03-12,株式会社フルダイブ,,株式会社,神奈川県,横浜市西区,北幸２丁目１０番４８号　むつみビル３階,,14,103,2200004,,,,,,,2025-03-12,1,,,,,フルダイブ,0
1830,7020001161758,新規,0,2025-03-12,2025-03-12,株式会社ウヴリール,,株式会社,神奈川県,川崎市川崎区,大島１丁目４番１１号,,14,131,2100834,,,,,,,2025-03-12,1,,,,,ウヴリール,0
1831,7020001161774,新規,0,2025-03-12,2025-03-12,ｓｔａｒｔ株式会社,,株式会社,神奈川県,川崎市多摩区,南生田１丁目１９番１２号サンフラット１０１,,14,135,2140036,,,,,,,2025-03-12,1,,,,,スタート,0
1832,7020001161782,新規,0,2025-03-12,2025-03-12,株式会社インクル,,株式会社,神奈川県,川崎市麻生区,高石４丁目１４番１－３０８号,,14,137,2150003,,,,,,,2025-03-12,1,,,,,インクル,0
1833,7020001161799,新規,0,2025-03-12,2025-03-12,株式会社高伸運輸,,株式会社,神奈川県,川崎市川崎区,江川１丁目１２番７－１号,,14,131,2100823,,,,,,,2025-03-12,1,,,,,コウシンウンユ,0
1837,7020003028022,新規,0,2025-03-12,2025-03-12,チャビ合同会社,,合同会社,神奈川県,横浜市港北区,日吉本町１丁目３４番１５号,,14,109,2230062,,,,,,,2025-03-12,1,,,,,チャビ,0
1841,7021001084619,新規,0,2025-03-12,2025-03-12,株式会社ＹＩＳ,,株式会社,神奈川県,座間市,栗原中央３丁目２１番１１－３号,,14,216,2520014,,,,,,,2025-03-12,1,,,,,ワイズ,0
1842,7021001084701,新規,0,2025-03-12,2025-03-12,ファベル株式会社,,株式会社,神奈川県,横須賀市,佐原３丁目３番２９－２０５号,,14,201,2390835,,,,,,,2025-03-12,1,,,,,ファベル,0
1843,7021003015712,新規,0,2025-03-12,2025-03-12,合同会社Ｔａａｓｕｎ,,合同会社,神奈川県,逗子市,逗子１丁目１０番地１２号２階,,14,208,2490006,,,,,,,2025-03-12,1,,,,,タアサン,0
1844,7021003015720,新規,0,2025-03-12,2025-03-12,合同会社モコまろん,,合同会社,神奈川県,相模原市南区,下溝１７０１番地２６,,14,153,2520335,,,,,,,2025-03-12,1,,,,,モコマロン,0
1845,7021005013301,新規,0,2025-03-12,2025-03-12,特定非営利活動法人風を織る,,その他の設立登記法人,神奈川県,相模原市中央区,陽光台２丁目２番６号,,14,152,2520226,,,,,,,2025-03-12,1,,,,,カゼヲオル,0
1850,7030001165279,新規,0,2025-03-12,2025-03-12,株式会社ＪＯＲＮＡ,,株式会社,埼玉県,春日部市,赤沼５１５番地,,11,214,3440015,,,,,,,2025-03-12,1,,,,,ジョルナ,0
1851,7030001165295,新規,0,2025-03-12,2025-03-12,株式会社Ｔ‐Ｓｔｙｌｅ,,株式会社,埼玉県,さいたま市南区,南本町２丁目１４番３－１１０７号,,11,108,3360018,,,,,,,2025-03-12,1,,,,,ティースタイル,0
1853,7030003026314,新規,0,2025-03-12,2025-03-12,合同会社ＳＥＯＲＩ　ＧＲＡＣＥ,,合同会社,埼玉県,川越市,野田町１丁目１２番地７３,,11,201,3501115,,,,,,,2025-03-12,1,,,,,セオリグレイス,0
1854,7030005022071,新規,0,2025-03-12,2025-03-12,特定非営利活動法人見沼野菜普及促進協議会,,その他の設立登記法人,埼玉県,さいたま市見沼区,片柳１丁目１２７,,11,104,3370024,,,,,,,2025-03-12,1,,,,,ミヌマヤサイフキュウソクシンキョウギカイ,0
1858,7040001137764,新規,0,2025-03-12,2025-03-12,株式会社ジャスミン,,株式会社,千葉県,市川市,稲荷木３丁目２１番３号,,12,203,2720024,,,,,,,2025-03-12,1,,,,,ジャスミン,0
1859,7040005022681,新規,0,2025-03-12,2025-03-12,一般社団法人グリーンフォーラム会,,その他の設立登記法人,千葉県,館山市,竜岡１０番１,,12,205,2940232,,,,,,,2025-03-12,1,,,,,グリーンフォーラムカイ,0
1864,7050001056294,新規,0,2025-03-12,2025-03-12,みのり株式会社,,株式会社,茨城県,古河市,葛生９２６番地２,,08,204,3060211,,,,,,,2025-03-12,1,,,,,ミノリ,0
1865,7050001056328,新規,0,2025-03-12,2025-03-12,株式会社ＦＵＫＵＲＯ,,株式会社,茨城県,守谷市,中央１丁目９番地１サーパスシティ守谷１０５号室,,08,224,3020115,,,,,,,2025-03-12,1,,,,,フクロ,0
1866,7050003009102,新規,0,2025-03-12,2025-03-12,ＹＵＧ合同会社,,合同会社,茨城県,東茨城郡城里町,大字増井１９７７番地の１１２,,08,310,3114311,,,,,,,2025-03-12,1,,,,,ワイユージー,0
1871,7060001038011,新規,0,2025-03-12,2025-03-12,株式会社田澤工業,,株式会社,栃木県,足利市,福居町７２番地３,,09,202,3260338,,,,,,,2025-03-12,1,,,,,タザワコウギョウ,0
1874,7060003005471,新規,0,2025-03-12,2025-03-12,合同会社ＡＺ０１,,合同会社,栃木県,大田原市,紫塚３丁目２６５８番地１２むぎくらＤＩハイツ１０１号,,09,210,3240058,,,,,,,2025-03-12,1,,,,,エーゼットゼロワン,0
1875,7070001042714,新規,0,2025-03-12,2025-03-12,株式会社ＫＡＧＡＹＡＫＩ,,株式会社,群馬県,高崎市,上小鳥町２９９番地,,10,202,3700078,,,,,,,2025-03-12,1,,,,,カガヤキ,0
1876,7070005010361,新規,0,2025-03-12,2025-03-12,前橋市造園事業協同組合,,その他の設立登記法人,群馬県,前橋市,青梨子町１６１７番地１,,10,201,3703573,,,,,,,2025-03-12,1,,,,,マエバシシゾウエンジギョウ,0
1877,7080001026807,新規,0,2025-03-12,2025-03-12,株式会社Ｎｅｗ　Ｌｅａｆ,,株式会社,静岡県,静岡市葵区,田町２丁目６１番地の１５,,22,101,4200068,,,,,,,2025-03-12,1,,,,,ニューリーフ,0
1878,7080401027801,新規,0,2025-03-12,2025-03-12,ＡＮＤＹＯＵ株式会社,,株式会社,静岡県,湖西市,南台３丁目６番３１号,,22,221,4310429,,,,,,,2025-03-12,1,,,,,アンドユー,0
1881,7080403005227,新規,0,2025-03-12,2025-03-12,合同会社ソラニワ,,合同会社,静岡県,磐田市,二之宮４７４番地１,,22,211,4380074,,,,,,,2025-03-12,1,,,,,ソラニワ,0
1893,7100001038378,新規,0,2025-03-12,2025-03-12,株式会社プログレスファーム,,株式会社,長野県,大町市,常盤３６３０番地２２,,20,212,3980004,,,,,,,2025-03-12,1,,,,,プログレスファーム,0
1894,7100003008040,新規,0,2025-03-12,2025-03-12,合同会社シエル,,合同会社,長野県,長野市,大字稲葉６２番地１,,20,201,3800911,,,,,,,2025-03-12,1,,,,,シエル,0
1907,7120001273519,新規,0,2025-03-12,2025-03-12,株式会社Ｌｉｌｉ’Ｅｔｅｒｎａｌｌｙ,,株式会社,大阪府,寝屋川市,八阪町１５番４０－１１０４号,,27,215,5720000,,,,,,,2025-03-12,1,,,,,リリィエターナリー,0
1921,7130003010282,新規,0,2025-03-12,2025-03-12,一凡木合同会社,,合同会社,京都府,京都市下京区,七条通油小路東入大黒町２２７番地第２キョートビル４０２,,26,106,6008223,,,,,,,2025-03-12,1,,,,,イッポンギ,0
1930,7150001027946,新規,0,2025-03-12,2025-03-12,株式会社Ｔｈｅ　Ｂｅｓｔ　ｔｈｒｅｅ　ｄｏｔｓ,,株式会社,奈良県,奈良市,東登美ヶ丘２丁目１０番４号,,29,201,6310002,,,,,,,2025-03-12,1,,,,,ザベストスリードット,0
1931,7150001027954,新規,0,2025-03-12,2025-03-12,株式会社村井石材,,株式会社,奈良県,生駒郡三郷町,勢野北５丁目１０番４３号,,29,343,6360815,,,,,,,2025-03-12,1,,,,,ムライセキザイ,0
1932,7150003003524,新規,0,2025-03-12,2025-03-12,Ｒｉｓｅ合同会社,,合同会社,奈良県,大和高田市,昭和町２番１－６１０号朝日プラザノースウイング,,29,202,6350013,,,,,,,2025-03-12,1,,,,,レイズ,0
1934,7160001026600,新規,0,2025-03-12,2025-03-12,株式会社Ｊ‐ＳＥＬＥＣＴ,,株式会社,滋賀県,彦根市,本町１丁目１１番３号,,25,202,5220064,,,,,,,2025-03-12,1,,,,,ジェイセレクト,0
1935,7170001018530,新規,0,2025-03-12,2025-03-12,株式会社ふじわらＯｆｆｉｃｅ,,株式会社,和歌山県,和歌山市,友田町３丁目８５番地,,30,201,6408342,,,,,,,2025-03-12,1,,,,,フジワラオフィス,0
1941,7180001165834,新規,0,2025-03-12,2025-03-12,株式会社Ｒｅｖｅ,,株式会社,愛知県,名古屋市昭和区,川原通３丁目４番地の１,,23,107,4660853,,,,,,,2025-03-12,1,,,,,レーブ,0
1942,7180001165875,新規,0,2025-03-12,2025-03-12,株式会社４７,,株式会社,愛知県,春日井市,四ツ家町字二ツ杁１４番地,,23,206,4860909,,,,,,,2025-03-12,1,,,,,フォーティーセブン,0
1945,7180003028114,新規,0,2025-03-12,2025-03-12,合同会社アルファ工業,,合同会社,愛知県,清須市,新清洲５丁目４番地１４,,23,233,4520943,,,,,,,2025-03-12,1,,,,,アルファコウギョウ,0
1946,7180003028122,新規,0,2025-03-12,2025-03-12,ＲｅｂｏｒＮ合同会社,,合同会社,愛知県,名古屋市西区,名駅２丁目１４－１１－２０１,,23,104,4510045,,,,,,,2025-03-12,1,,,,,リボーン,0
1947,7180003028139,新規,0,2025-03-12,2025-03-12,合同会社プチボヌール,,合同会社,愛知県,一宮市,今伊勢町馬寄字六地蔵前９番地,,23,203,4910051,,,,,,,2025-03-12,1,,,,,プチボヌール,0
1948,7180003028147,新規,0,2025-03-12,2025-03-12,合同会社ミキコ＆Ｃｏ．,,合同会社,愛知県,名古屋市千種区,日和町５丁目５番地の２,,23,101,4640039,,,,,,,2025-03-12,1,,,,,ミキコアンドカンパニー,0
1950,7180301039606,新規,0,2025-03-12,2025-03-12,株式会社人と安全研究所,,株式会社,愛知県,安城市,北山崎町北浦５０番地,,23,212,4460011,,,,,,,2025-03-12,1,,,,,ヒトトアンゼンケンキュウジョ,0
1951,7190001032059,新規,0,2025-03-12,2025-03-12,カノショー株式会社,,株式会社,三重県,桑名市,長島町福豊３６番地,,24,205,5111132,,,,,,,2025-03-12,1,,,,,カノショー,0
1952,7190001032067,新規,0,2025-03-12,2025-03-12,株式会社Ｊ　ｓｕｐｐｏｒｔ,,株式会社,三重県,伊勢市,野村町５５６８,,24,203,5150511,,,,,,,2025-03-12,1,,,,,ジェイサポート,0
1953,7190001032075,新規,0,2025-03-12,2025-03-12,株式会社永田総業,,株式会社,三重県,三重郡菰野町,大字小島３２１番地３,,24,341,5101323,,,,,,,2025-03-12,1,,,,,ナガタソウギョウ,0
1954,7200001043517,新規,0,2025-03-12,2025-03-12,株式会社Ａｔ．Ｌａｔｔｙ,,株式会社,岐阜県,岐阜市,長良２丁目３６番地,,21,201,5020081,,,,,,,2025-03-12,1,,,,,アットラティ,0
1955,7200001043525,新規,0,2025-03-12,2025-03-12,株式会社佐野建築,,株式会社,岐阜県,本巣市,仏生寺６１９番地１,,21,218,5010407,,,,,,,2025-03-12,1,,,,,サノケンチク,0
1957,7200003006728,新規,0,2025-03-12,2025-03-12,合同会社ミライズ,,合同会社,岐阜県,土岐市,泉神栄町４丁目１７番地の３,,21,212,5095133,,,,,,,2025-03-12,1,,,,,ミライズ,0
1958,7210001020085,新規,0,2025-03-12,2025-03-12,株式会社Ｆプライマル,,株式会社,福井県,福井市,栂野町第１５号１番地２,,18,201,9102178,,,,,,,2025-03-12,1,,,,,エフプライマル,0
1959,7220001026552,新規,0,2025-03-12,2025-03-12,株式会社スカイホーム,,株式会社,石川県,金沢市,桂町へ６番地１,,17,201,9200334,,,,,,,2025-03-12,1,,,,,スカイホーム,0
1962,7220003003970,新規,0,2025-03-12,2025-03-12,合同会社クラウディア,,合同会社,石川県,金沢市,長田２丁目２番８号（２０６）,,17,201,9200043,,,,,,,2025-03-12,1,,,,,クラウディア,0
1970,7240003007103,新規,0,2025-03-12,2025-03-12,合同会社３ｒｉｓｅ,,合同会社,広島県,広島市中区,中島町１０番１号,,34,101,7300811,,,,,,,2025-03-12,1,,,,,サンライズ,0
1976,7260001040005,新規,0,2025-03-12,2025-03-12,ＳＷ．ＷＩＮＥ株式会社,,株式会社,岡山県,岡山市北区,富田４１３番地４プラザビル富田１０５号室,,33,101,7000936,,,,,,,2025-03-12,1,,,,,エスダブリューワイン,0
1977,7260001040013,新規,0,2025-03-12,2025-03-12,株式会社Ｒｅｇｅｎｖａｌ,,株式会社,岡山県,岡山市北区,中山下１丁目１１番１５号新田第１ビル４０２,,33,101,7000821,,,,,,,2025-03-12,1,,,,,レインフォール,0
1978,7260003005088,新規,0,2025-03-12,2025-03-12,合同会社ｃｏｎｎｅｃｔ,,合同会社,岡山県,倉敷市,高須賀３６４番地１,,33,202,7100021,,,,,,,2025-03-12,1,,,,,コネクト,0
1979,7280003001928,新規,0,2025-03-12,2025-03-12,ＮｅｘｔＢｉｔ合同会社,,合同会社,島根県,仁多郡奥出雲町,稲原６０５番地１２,,32,343,6991821,,,,,,,2025-03-12,1,,,,,ネクストビット,0
1982,7290001109144,新規,0,2025-03-12,2025-03-12,株式会社ＰＩＣＴＲＡ,,株式会社,福岡県,福岡市中央区,鳥飼１丁目７番６－２０１号レジデンス鳥飼,,40,133,8100053,,,,,,,2025-03-12,1,,,,,ピクトラ,0
1983,7290001109169,新規,0,2025-03-12,2025-03-12,ＴＭホールディングス株式会社,,株式会社,福岡県,福岡市中央区,舞鶴１丁目４番３０号,,40,133,8100073,,,,,,,2025-03-12,1,,,,,ティエムホールディングス,0
1984,7290001109268,新規,0,2025-03-12,2025-03-12,株式会社ネーブル,,株式会社,福岡県,福岡市博多区,博多駅前１丁目２３番２号ＰａｒｋＦｒｏｎｔ博多駅前１丁目５Ｆ－Ｂ,,40,132,8120011,,,,,,,2025-03-12,1,,,,,ネーブル,0
1989,7290003016512,新規,0,2025-03-12,2025-03-12,合同会社Ｒｅｍａｋｒ　Ｊａｐａｎ,,合同会社,福岡県,福岡市中央区,荒戸２丁目４－１２－１１０１号,,40,133,8100062,,,,,,,2025-03-12,1,,,,,レマークルジャパン,0
1990,7290003016520,新規,0,2025-03-12,2025-03-12,Ｐｒｅｖｉｏｎ　ＡＩ合同会社,,合同会社,福岡県,福岡市中央区,天神４丁目６－２８天神ファーストビル７階,,40,133,8100001,,,,,,,2025-03-12,1,,,,,プレヴィオンエーアイ,0
1992,7290801031349,新規,0,2025-03-12,2025-03-12,株式会社１７,,株式会社,福岡県,北九州市小倉北区,竪町１丁目６番２８号,,40,106,8030818,,,,,,,2025-03-12,1,,,,,ジュウナナ,0
1993,7300003002238,新規,0,2025-03-12,2025-03-12,合同会社ｔｅｔｈｙｓ,,合同会社,佐賀県,唐津市,浜玉町浜崎２３６４番地５プリメールサンク２０４号室,,41,202,8495131,,,,,,,2025-03-12,1,,,,,テチス,0
1997,7320001020974,新規,0,2025-03-12,2025-03-12,はさま美装株式会社,,株式会社,大分県,由布市,挾間町挾間５１１番地２坂本ビル１Ｆ,,44,213,8795506,,,,,,,2025-03-12,1,,,,,ハサマビソウ,0
1999,7330001032960,新規,0,2025-03-12,2025-03-12,Ｙ３株式会社,,株式会社,熊本県,熊本市中央区,京町２丁目１４番１５－１号,,43,101,8600078,,,,,,,2025-03-12,1,,,,,ワイスリー,0
2000,7330001032969,新規,0,2025-03-12,2025-03-12,株式会社チラックス不動産,,株式会社,熊本県,熊本市中央区,神水本町２０番５号神水ビル３階,,43,101,8620955,,,,,,,2025-03-12,1,,,,,チラックスフドウサン,0
2006,7330003010873,新規,0,2025-03-12,2025-03-12,合同会社異端児が集う基地,,合同会社,熊本県,熊本市東区,新南部５丁目５番５３の１メゾンドゥＭＩＩ１０２号室,00138308,43,102,8618028,,,,,,,2025-03-12,1,,,,,イタンジガツドウキチ,0
2009,7340001027183,新規,0,2025-03-12,2025-03-12,株式会社Ｎ’ｓコーポレーション,,株式会社,鹿児島県,熊毛郡南種子町,中之上１７２１番地２８,,46,502,8913701,,,,,,,2025-03-12,1,,,,,エヌズコーポレーション,0
2011,7340003004775,新規,0,2025-03-12,2025-03-12,合同会社ＬＥ,,合同会社,鹿児島県,鹿児島市,西伊敷１丁目１８番８－１号,,46,201,8900002,,,,,,,2025-03-12,1,,,,,エルイー,0
2012,7350001019428,新規,0,2025-03-12,2025-03-12,株式会社Ｓ‐プラント,,株式会社,宮崎県,児湯郡川南町,大字川南２５３３３番地１,,45,405,8891301,,,,,,,2025-03-12,1,,,,,エスプラント,0
2013,7360001034888,新規,0,2025-03-12,2025-03-12,株式会社アミリタトロピカルリゾート,,株式会社,沖縄県,宮古島市,平良字久貝１００２番地１１,,47,214,9060015,,,,,,,2025-03-12,1,,,,,アミリタトロピカルリゾート,0
2014,7360003014748,新規,0,2025-03-12,2025-03-12,合同会社超循環評価器,,合同会社,沖縄県,那覇市,小禄５丁目２番地１リリーベル小禄南サーモス２０４,,47,201,9010152,,,,,,,2025-03-12,1,,,,,チョウジュンカンヒョウカキ,0
2015,7360005007188,新規,0,2025-03-12,2025-03-12,一般社団法人フルリール,,その他の設立登記法人,沖縄県,那覇市,長田２丁目１１番６０号上間小学校内,,47,201,9020077,,,,,,,2025-03-12,1,,,,,フルリール,0
2019,7370001052352,新規,0,2025-03-12,2025-03-12,ＫＩＮＯＶＡ株式会社,,株式会社,宮城県,仙台市若林区,卸町５丁目５番１号仙台団地倉庫協同組合会館１０１,,04,103,9840015,,,,,,,2025-03-12,1,,,,,キノヴァ,0
2021,7370003006983,新規,0,2025-03-12,2025-03-12,ＳＩＲ合同会社,,合同会社,宮城県,仙台市青葉区,本町１丁目５番２８号カーニープレイス仙台駅前通６０３号室,,04,101,9800014,,,,,,,2025-03-12,1,,,,,エスアイアール,0
2025,7380005012921,新規,0,2025-03-12,2025-03-12,特定非営利活動法人ふくしま浜街道トレイルアソシエーション,,その他の設立登記法人,福島県,双葉郡楢葉町,大字下繁岡字林東１番地５,,07,542,9790602,,,,,,,2025-03-12,1,,,,,フクシマハマカイドウトレイルアソシエーション,0
2026,7390001017915,新規,0,2025-03-12,2025-03-12,株式会社ＰＲＩＤＥ,,株式会社,山形県,山形市,大字村木沢２２３９番地６,,06,201,9902371,,,,,,,2025-03-12,1,,,,,プライド,0
2030,7420001019057,新規,0,2025-03-12,2025-03-12,株式会社おだじん,,株式会社,青森県,つがる市,稲垣町福富町崎２４－５,,02,209,0370105,,,,,,,2025-03-12,1,,,,,オダジン,0
2040,7430001093885,新規,0,2025-03-12,2025-03-12,株式会社クリアパイプ,,株式会社,北海道,札幌市白石区,東米里２１９２番地９,,01,104,0030876,,,,,,,2025-03-12,1,,,,,クリアパイプ,0
2041,7430001093902,新規,0,2025-03-12,2025-03-12,株式会社ＯＮＯＤＡ,,株式会社,北海道,札幌市西区,西野十一条８丁目７番１号,,01,107,0630041,,,,,,,2025-03-12,1,,,,,オノダ,0
2043,7430005015175,新規,0,2025-03-12,2025-03-12,医療法人社団ウィミンズクリニック札幌,,その他の設立登記法人,北海道,札幌市東区,本町二条５丁目２番３号堀本宅,,01,103,0650042,,,,,,,2025-03-12,1,,,,,ウィミンズクリニックサッポロ,0
2053,7700150129537,新規,0,2025-03-12,2025-03-12,ｇｕａｎｇｚｈｏｕｚｈｅｎｎｉｓｉｍａｏｙｉｙｏｕｘｉａｎｇｏｎｇｓｉ,,外国会社等,,,,,,,,ｇｕａｎｇｚｈｏｕｓｈｉｂａｉｙｕｎｑｕｔａｉｈｅｚｈｅｎｄａｙｕａｎｂａｉｌｕｂｅｉｊｉｅｅｒｘｉａｎｇ３ｈａｏ７０２ｆａｎｇ,,,,,,2025-03-12,1,,,,,グアンジヨウジエンニスーマオイーユウゲンコウシ,0
2062,8010001252961,新規,0,2025-03-12,2025-03-12,株式会社ＰＣＭ,,株式会社,東京都,中央区,日本橋室町１丁目１１番１２号日本橋水野ビル７階,,13,102,1030022,,,,,,,2025-03-12,1,,,,,ピーシーエム,0
2063,8010001253027,新規,0,2025-03-12,2025-03-12,株式会社ＳＫＴＫ,,株式会社,東京都,中央区,晴海５丁目３番２－１７１２号,,13,102,1040053,,,,,,,2025-03-12,1,,,,,エスケイティーケイ,0
2065,8010003046726,新規,0,2025-03-12,2025-03-12,コールドストレージ八戸合同会社,,合同会社,東京都,中央区,日本橋１丁目４番１号,,13,102,1030027,,,,,,,2025-03-12,1,,,,,コールドストレージハチノヘ,0
2075,8010401188723,新規,0,2025-03-12,2025-03-12,株式会社Ｏｄｄ　Ｍｏｎｓｔｅｒｓ,,株式会社,東京都,港区,南青山３丁目１番３６号青山丸竹ビル６Ｆ,,13,103,1070062,,,,,,,2025-03-12,1,,,,,オッドモンスターズ,0
2076,8010401188839,新規,0,2025-03-12,2025-03-12,Ｙｕｚｕ　Ｃｏｒｐｏｒａｔｉｏｎ株式会社,,株式会社,東京都,港区,麻布十番３丁目１０－２－７Ｆ,,13,103,1060045,,,,,,,2025-03-12,1,,,,,ユズコーポレーション,0
2077,8010401188855,新規,0,2025-03-12,2025-03-12,株式会社ＢｒａｉｎＰａｄ　ＡＡＡ,,株式会社,東京都,港区,六本木３丁目１番１号,,13,103,1060032,,,,,,,2025-03-12,1,,,,,ブレインパッドエーキューブ,0
2078,8010401188888,新規,0,2025-03-12,2025-03-12,株式会社エンボンド,,株式会社,東京都,港区,北青山１丁目３番１号アールキューブ青山３階,,13,103,1070061,,,,,,,2025-03-12,1,,,,,エンボンド,0
2091,8010501053785,新規,0,2025-03-12,2025-03-12,株式会社ヴェローナ,,株式会社,東京都,台東区,上野６丁目１番６号御徒町グリーンハイツ１００５号,,13,106,1100005,,,,,,,2025-03-12,1,,,,,ヴェローナ,0
2093,8010601066935,新規,0,2025-03-12,2025-03-12,株式会社ＡＩ　Ｅｃｏｎｏｍｙ,,株式会社,東京都,江東区,三好１丁目８－３越前屋ビル２Ｆ,,13,108,1350022,,,,,,,2025-03-12,1,,,,,エーアイエコノミー,0
2096,8010603011419,新規,0,2025-03-12,2025-03-12,スマイル１合同会社,,合同会社,東京都,江東区,豊洲５丁目１番１３号３２１９号室,,13,108,1350061,,,,,,,2025-03-12,1,,,,,スマイルワン,0
2097,8010603011427,新規,0,2025-03-12,2025-03-12,合同会社宇宙の外側,,合同会社,東京都,江東区,三好３丁目１番７号,,13,108,1350022,,,,,,,2025-03-12,1,,,,,ウチュウノソトガワ,0
2101,8010701047356,新規,0,2025-03-12,2025-03-12,株式会社Ｙ３,,株式会社,東京都,品川区,東五反田２丁目１０番１－４０８号,,13,109,1410022,,,,,,,2025-03-12,1,,,,,ワイスリー,0
2102,8010701047406,新規,0,2025-03-12,2025-03-12,株式会社Ｌｉｎｋ　Ｏｎｅ,,株式会社,東京都,品川区,大井６丁目２１番１１,,13,109,1400014,,,,,,,2025-03-12,1,,,,,リンクワン,0
2106,8010801035905,新規,0,2025-03-12,2025-03-12,仁和メディカルケア株式会社,,株式会社,東京都,大田区,蒲田３丁目２３番７号松本ビル２Ｆ,,13,111,1440052,,,,,,,2025-03-12,1,,,,,ジンワメディカルケア,0
2107,8010803005311,新規,0,2025-03-12,2025-03-12,蒲田学生会合同会社,,合同会社,東京都,大田区,西蒲田７丁目４番４号小山第二ビル６階,,13,111,1440051,,,,,,,2025-03-12,1,,,,,カマタガクセイカイ,0
2109,8010901056982,新規,0,2025-03-12,2025-03-12,株式会社ロベリヤ自由が丘,,株式会社,東京都,世田谷区,奥沢６丁目２１番９－７０１号,,13,112,1580083,,,,,,,2025-03-12,1,,,,,ロベリヤジユウガオカ,0
2118,8011103015645,新規,0,2025-03-12,2025-03-12,合同会社Ｈａｐｐｙ　Ｃｏｍｍｕｎｉｔｙ　Ｓｕｎ,,合同会社,東京都,新宿区,西新宿３丁目３番１３号西新宿水間ビル２階,,13,104,1600023,,,,,,,2025-03-12,1,,,,,ハッピーコミュニティサン,0
2119,8011303005446,新規,0,2025-03-12,2025-03-12,合同会社Ｋｉｍｉｔｏ,,合同会社,東京都,杉並区,下高井戸５丁目２１番１０号,,13,115,1680073,,,,,,,2025-03-12,1,,,,,キミト,0
2125,8011501031797,新規,0,2025-03-12,2025-03-12,株式会社Ｎｅｘｔ　Ｌｉｎｅ,,株式会社,東京都,北区,滝野川６丁目２１番１－１２１０号,,13,117,1140023,,,,,,,2025-03-12,1,,,,,ネクストライン,0
2126,8011501031806,新規,0,2025-03-12,2025-03-12,雪球株式会社,,株式会社,東京都,荒川区,南千住２丁目１６番６号マッスビル３０２,,13,118,1160003,,,,,,,2025-03-12,1,,,,,スノウボール,0
2130,8011801045778,新規,0,2025-03-12,2025-03-12,株式会社みまもり葛飾,,株式会社,東京都,葛飾区,小菅２丁目２６番８号,,13,122,1240001,,,,,,,2025-03-12,1,,,,,ミマモリカツシカ,0
2131,8011801045794,新規,0,2025-03-12,2025-03-12,株式会社ＧＲＩＴ,,株式会社,東京都,葛飾区,立石１丁目１６番１８号,,13,122,1240012,,,,,,,2025-03-12,1,,,,,グリット,0
2133,8011803006729,新規,0,2025-03-12,2025-03-12,合同会社Ｍ‐ｒｉｄｇｅ,,合同会社,東京都,足立区,新田１丁目８番２３号,,13,121,1230865,,,,,,,2025-03-12,1,,,,,エムリッジ,0
2138,8012403007019,新規,0,2025-03-12,2025-03-12,合同会社Ａ．Ｅ．Ｍ．Ｗｏｒｋｓ,,合同会社,東京都,調布市,入間町２丁目６番地８－２０４号室,,13,208,1820004,,,,,,,2025-03-12,1,,,,,エーイーエムワークス,0
2140,8012803003658,新規,0,2025-03-12,2025-03-12,国立インベストメント合同会社,,合同会社,東京都,国立市,東１丁目１５番１１号４４８ビル３階,,13,215,1860002,,,,,,,2025-03-12,1,,,,,クニタチインベストメント,0
2150,8020001161757,新規,0,2025-03-12,2025-03-12,株式会社Ｔｅｃｈ＆Ｂｅａｕｔｙ,,株式会社,神奈川県,横浜市中区,桜木町１丁目１０１番地１クロスゲート７階,,14,104,2310062,,,,,,,2025-03-12,1,,,,,,0
2151,8020001161823,新規,0,2025-03-12,2025-03-12,株式会社四五六,,株式会社,神奈川県,横浜市磯子区,杉田２丁目２番１４号ｋパレスペガ,,14,107,2350033,,,,,,,2025-03-12,1,,,,,シゴロ,0
2157,8020003027997,新規,0,2025-03-12,2025-03-12,みなと開発合同会社,,合同会社,神奈川県,横浜市中区,尾上町３丁目３５ＬＩＳＴＥＡＳＴＢＬＤ．３Ｆ,,14,104,2310015,,,,,,,2025-03-12,1,,,,,ミナトカイハツ,0
2158,8020003028021,新規,0,2025-03-12,2025-03-12,リリー合同会社,,合同会社,神奈川県,横浜市港北区,日吉本町１丁目３４番１５号,,14,109,2230062,,,,,,,2025-03-12,1,,,,,リリー,0
2160,8021001084642,新規,0,2025-03-12,2025-03-12,Ｂｅｌｌａ　Ｔｅｒｒａ株式会社,,株式会社,神奈川県,三浦郡葉山町,堀内１８１８番地の７,,14,301,2400112,,,,,,,2025-03-12,1,,,,,ベラテラ,0
2161,8021001084667,新規,0,2025-03-12,2025-03-12,株式会社ＪＯＹ’Ｓ,,株式会社,神奈川県,横須賀市,大津町３丁目１８番１２号,,14,201,2390808,,,,,,,2025-03-12,1,,,,,ジョイズ,0
2162,8021001084700,新規,0,2025-03-12,2025-03-12,株式会社藁屋,,株式会社,神奈川県,三浦郡葉山町,上山口１１０４番地の４,,14,301,2400115,,,,,,,2025-03-12,1,,,,,ワラヤ,0
2163,8021001084709,新規,0,2025-03-12,2025-03-12,株式会社エース,,株式会社,神奈川県,相模原市南区,南台１丁目２番５号,,14,153,2520314,,,,,,,2025-03-12,1,,,,,エース,0
2175,8030003026214,新規,0,2025-03-12,2025-03-12,Ｌｉｎｋ　Ｌｕｍｉｎｏｕｓ合同会社,,合同会社,埼玉県,ふじみ野市,大井中央３丁目２１番１０号,,11,245,3560058,,,,,,,2025-03-12,1,,,,,リンクルミナス,0
2176,8030003026255,新規,0,2025-03-12,2025-03-12,合同会社ＧｏｌｄｅｎＬｉｎｅ　Ｐａｒｔｎｅｒｓ,,合同会社,埼玉県,戸田市,美女木東１丁目２番地の３オハナ北戸田ガーデニア４０５号室,,11,224,3350032,,,,,,,2025-03-12,1,,,,,ゴールデンラインパートナーズ,0
2182,8040001137706,新規,0,2025-03-12,2025-03-12,Ｍｏｄｕｌａｒ株式会社,,株式会社,千葉県,船橋市,印内２丁目３番１５号ＴＯＰ西船橋第一４０１,,12,204,2730039,,,,,,,2025-03-12,1,,,,,モジュラー,0
2183,8040001137739,新規,0,2025-03-12,2025-03-12,瑞金金属株式会社,,株式会社,千葉県,千葉市若葉区,高根町８８４－１,,12,104,2650061,,,,,,,2025-03-12,1,,,,,ズイキンキンゾク,0
2184,8040001137763,新規,0,2025-03-12,2025-03-12,リヤン株式会社,,株式会社,千葉県,千葉市美浜区,打瀬２丁目１９番地パティオス１３番街５０９号,,12,106,2610013,,,,,,,2025-03-12,1,,,,,リヤン,0
2187,8040005022680,新規,0,2025-03-12,2025-03-12,一般社団法人むすびあい,,その他の設立登記法人,千葉県,市原市,八幡２３８２－２５－３０５,,12,219,2900062,,,,,,,2025-03-12,1,,,,,ムスビアイ,0
2189,8050001056327,新規,0,2025-03-12,2025-03-12,株式会社セカンドエール,,株式会社,茨城県,結城市,新福寺６丁目４－１８,,08,207,3070053,,,,,,,2025-03-12,1,,,,,セカンドエール,0
2191,8050003009084,新規,0,2025-03-12,2025-03-12,合同会社Ｍ．Ｃ．ＭＯＴＯＲＳ,,合同会社,茨城県,筑西市,藤ケ谷１３５５番地１マイシティライフ１０番館２０１号室,,08,227,3080112,,,,,,,2025-03-12,1,,,,,エムシーモータース,0
2193,8060001038010,新規,0,2025-03-12,2025-03-12,株式会社トツミ,,株式会社,栃木県,鹿沼市,寺町１０１７番地１,,09,205,3220057,,,,,,,2025-03-12,1,,,,,トツミ,0
2196,8070005010360,新規,0,2025-03-12,2025-03-12,一般社団法人Ｇａｌｌｏｐ,,その他の設立登記法人,群馬県,桐生市,小曾根町９－３７,,10,203,3760043,,,,,,,2025-03-12,1,,,,,ギャロップ,0
2199,8080401027800,新規,0,2025-03-12,2025-03-12,株式会社トレステック,,株式会社,静岡県,浜松市中央区,桜台３丁目１９番３０号,,22,138,4311104,,,,,,,2025-03-12,1,,,,,トレステック,0
2200,8080403005226,新規,0,2025-03-12,2025-03-12,合同会社ＹＭコラボレーション,,合同会社,静岡県,浜松市中央区,田町２２３－２１ビズコンフォート３０５,,22,138,4300944,,,,,,,2025-03-12,1,,,,,ワイエムコラボレーション,0
2204,8100003008048,新規,0,2025-03-12,2025-03-12,合同会社Ｆｕｒｕｊｉｍｏｎ,,合同会社,長野県,北佐久郡軽井沢町,大字長倉５６１１－２３,,20,321,3890111,,,,,,,2025-03-12,1,,,,,フルジモン,0
2206,8110001039102,新規,0,2025-03-12,2025-03-12,ＦＣホールディングス株式会社,,株式会社,新潟県,長岡市,上前島１丁目１８７０番地,,15,202,9401140,,,,,,,2025-03-12,1,,,,,エフシーホールディングス,0
2226,8120001273583,新規,0,2025-03-12,2025-03-12,アドーロリアルティ株式会社,,株式会社,大阪府,大阪市北区,梅田１丁目１３番１号大阪梅田ツインタワーズ・サウス１５階,,27,127,5300001,,,,,,,2025-03-12,1,,,,,アドーロリアルティ,0
2227,8120001273591,新規,0,2025-03-12,2025-03-12,Ｋ・コンサルティング株式会社,,株式会社,大阪府,大阪市天王寺区,玉造元町５番３－２０２号,,27,109,5430014,,,,,,,2025-03-12,1,,,,,ケーコンサルティング,0
2228,8120001273633,新規,0,2025-03-12,2025-03-12,株式会社シンクスマート,,株式会社,大阪府,大阪市北区,南森町１丁目１番１号２階２０９号,,27,127,5300054,,,,,,,2025-03-12,1,,,,,シンクスマート,0
2229,8120001273732,新規,0,2025-03-12,2025-03-12,ＯＲテック株式会社,,株式会社,大阪府,大阪市住吉区,我孫子３丁目１番１１号グランドアビコ５０１,,27,120,5580014,,,,,,,2025-03-12,1,,,,,オーアールテック,0
2231,8120003028606,新規,0,2025-03-12,2025-03-12,日昇未来合同会社,,合同会社,大阪府,大阪市住吉区,沢之町１丁目５－２８谷岡１０１Ｃ,,27,120,5580031,,,,,,,2025-03-12,1,,,,,ニッショウミライ,0
2232,8120003028853,新規,0,2025-03-12,2025-03-12,合同会社カレイドシア,,合同会社,大阪府,大阪市西区,北堀江１丁目２３番２５－４０７号,,27,106,5500014,,,,,,,2025-03-12,1,,,,,カレイドシア,0
2233,8120005024842,新規,0,2025-03-12,2025-03-12,一般社団法人東南アジア建物管理協会,,その他の設立登記法人,大阪府,大阪市淀川区,西中島４丁目２番８号,,27,123,5320011,,,,,,,2025-03-12,1,,,,,トウナンアジアタテモノカンリキョウカイ,0
2236,8120101071219,新規,0,2025-03-12,2025-03-12,株式会社ジェイユーエル大阪,,株式会社,大阪府,堺市西区,菱木１丁２２４９番地６,,27,144,5938315,,,,,,,2025-03-12,1,,,,,ジェイユーエルオオサカ,0
2237,8120101071235,新規,0,2025-03-12,2025-03-12,株式会社アーム,,株式会社,大阪府,泉大津市,曽根町２丁目１３番２１号,,27,206,5950011,,,,,,,2025-03-12,1,,,,,アーム,0
2242,8120901050594,新規,0,2025-03-12,2025-03-12,株式会社Ｇｒｏｗｔｈ　ｄｅｓｉｇｎ,,株式会社,大阪府,豊中市,上野坂１丁目７番２０号,,27,203,5600012,,,,,,,2025-03-12,1,,,,,グロースデザイン,0
2246,8122003003142,新規,0,2025-03-12,2025-03-12,合同会社Ｌｉｆｅ＆Ｂｅ,,合同会社,大阪府,八尾市,黒谷３丁目１５４番地,,27,212,5810873,,,,,,,2025-03-12,1,,,,,ライフアンドビー,0
2251,8130001079154,新規,0,2025-03-12,2025-03-12,株式会社セレッソ,,株式会社,京都府,京都市右京区,西院高山寺町１２－５ＪＯ－ＩＮビル３Ｆ南側,,26,108,6150012,,,,,,,2025-03-12,1,,,,,セレッソ,0
2252,8130001079170,新規,0,2025-03-12,2025-03-12,株式会社ウィスラック,,株式会社,京都府,京都市西京区,上桂前田町５８番地５,,26,111,6158223,,,,,,,2025-03-12,1,,,,,ウィスラック,0
2253,8130001079212,新規,0,2025-03-12,2025-03-12,株式会社経営サポートみやこ,,株式会社,京都府,京都市西京区,樫原平田町１番地２６号,,26,111,6158141,,,,,,,2025-03-12,1,,,,,ケイエイサポートミヤコ,0
2255,8130003010273,新規,0,2025-03-12,2025-03-12,合同会社三神メンテナンス,,合同会社,京都府,宇治市,槇島町本屋敷４０－１グリーンタウン槇島７棟６２３,,26,204,6110041,,,,,,,2025-03-12,1,,,,,サンシンメンテナンス,0
2260,8140001137695,新規,0,2025-03-12,2025-03-12,株式会社蒼誉,,株式会社,兵庫県,姫路市,東駅前町６３番地エスリード姫路１３Ｆ－０１,,28,201,6700926,,,,,,,2025-03-12,1,,,,,ソラホマレ,0
2261,8140001137704,新規,0,2025-03-12,2025-03-12,株式会社フュージョンテックシステム,,株式会社,兵庫県,神戸市中央区,御幸通４丁目１番１号,,28,110,6510087,,,,,,,2025-03-12,1,,,,,フュージョンテックシステム,0
2264,8150001027929,新規,0,2025-03-12,2025-03-12,株式会社ＥＧＡＫＵ,,株式会社,奈良県,磯城郡田原本町,大字阪手６５６番地の１,,29,363,6360247,,,,,,,2025-03-12,1,,,,,エガク,0
2265,8160001026599,新規,0,2025-03-12,2025-03-12,セイコウ株式会社,,株式会社,滋賀県,甲賀市,水口町八田９１５番地２,,25,209,5280066,,,,,,,2025-03-12,1,,,,,セイコウ,0
2269,8180001165866,新規,0,2025-03-12,2025-03-12,株式会社Ｚｅｓｔ,,株式会社,愛知県,名古屋市中川区,戸田明正２丁目２００６番地の１,,23,110,4540961,,,,,,,2025-03-12,1,,,,,ゼスト,0
2270,8180001165874,新規,0,2025-03-12,2025-03-12,株式会社エスリード,,株式会社,愛知県,名古屋市名東区,高針２丁目２３１７番地,,23,115,4650061,,,,,,,2025-03-12,1,,,,,エスリード,0
2273,8180003028113,新規,0,2025-03-12,2025-03-12,合同会社ハジ工業,,合同会社,愛知県,小牧市,光ケ丘４丁目８番地１,,23,219,4850811,,,,,,,2025-03-12,1,,,,,ハジコウギョウ,0
2274,8180301039621,新規,0,2025-03-12,2025-03-12,株式会社ｗｉｔｈＡ,,株式会社,愛知県,豊田市,明和町５丁目４８番地４,,23,211,4710825,,,,,,,2025-03-12,1,,,,,ウィズエー,0
2276,8180303006487,新規,0,2025-03-12,2025-03-12,稲垣合同会社,,合同会社,愛知県,刈谷市,井ケ谷町寺山下２９番地,,23,210,4480001,,,,,,,2025-03-12,1,,,,,イナガキ,0
2277,8190001032066,新規,0,2025-03-12,2025-03-12,株式会社ｉＢｒｏｏｍ,,株式会社,三重県,多気郡明和町,大字根倉１３３３,,24,442,5150353,,,,,,,2025-03-12,1,,,,,アイブローム,0
2282,8200003006735,新規,0,2025-03-12,2025-03-12,合同会社アンディネット,,合同会社,岐阜県,岐阜市,本荘中ノ町４丁目２２番地３,,21,201,5008364,,,,,,,2025-03-12,1,,,,,アンディネット,0
2289,8240001064624,新規,0,2025-03-12,2025-03-12,株式会社松葉製作所,,株式会社,広島県,府中市,土生町１４９２番地１,,34,208,7260021,,,,,,,2025-03-12,1,,,,,マツバセイサクショ,0
2291,8240003007102,新規,0,2025-03-12,2025-03-12,合同会社優縁,,合同会社,広島県,広島市中区,江波本町５番２７－５０４号,,34,101,7300833,,,,,,,2025-03-12,1,,,,,コウエン,0
2292,8260001040004,新規,0,2025-03-12,2025-03-12,株式会社西電,,株式会社,岡山県,岡山市中区,平井１１１８番地１３,,33,102,7038282,,,,,,,2025-03-12,1,,,,,ニシデン,0
2293,8260001040012,新規,0,2025-03-12,2025-03-12,大場消防設備株式会社,,株式会社,岡山県,岡山市東区,松新町１６８番地４,,33,103,7048174,,,,,,,2025-03-12,1,,,,,オオバショウボウセツビ,0
2294,8260001040020,新規,0,2025-03-12,2025-03-12,株式会社Ｄ‐Ａｓｓｉｓｔ,,株式会社,岡山県,岡山市南区,当新田４４５番地６２,,33,104,7000956,,,,,,,2025-03-12,1,,,,,ディーアシスト,0
2304,8290001109151,新規,0,2025-03-12,2025-03-12,株式会社ＳＫ,,株式会社,福岡県,福岡市早良区,西新５丁目９番２２号てんぐ屋西新ＶＩ２階,00138318,40,137,8140002,,,,,,,2025-03-12,1,,,,,エスケー,0
2305,8290001109259,新規,0,2025-03-12,2025-03-12,株式会社セ・パルティ,,株式会社,福岡県,福岡市早良区,西新２丁目９番１－２１２号,,40,137,8140002,,,,,,,2025-03-12,1,,,,,セパルティ,0
2306,8290001109300,新規,0,2025-03-12,2025-03-12,株式会社癒笑,,株式会社,福岡県,糟屋郡志免町,別府４丁目５番１２号,,40,343,8112205,,,,,,,2025-03-12,1,,,,,イエミ,0
2308,8290003016528,新規,0,2025-03-12,2025-03-12,合同会社ｓｈａｍｄ３３,,合同会社,福岡県,福岡市博多区,博多駅東３丁目１０－７レジディア博多ＩＩ６０１,00138315,40,132,8120013,,,,,,,2025-03-12,1,,,,,シャメドスリースリー,0
2310,8300003002245,新規,0,2025-03-12,2025-03-12,合同会社ライフビジョン,,合同会社,佐賀県,武雄市,山内町大字大野７２８４番地,,41,206,8492304,,,,,,,2025-03-12,1,,,,,ライフビジョン,0
2311,8310001019496,新規,0,2025-03-12,2025-03-12,株式会社Ｎプレゼンツ,,株式会社,長崎県,長崎市,鍛冶屋町５番６８－６０１号,,42,201,8500831,,,,,,,2025-03-12,1,,,,,エヌプレゼンツ,0
2314,8340001027158,新規,0,2025-03-12,2025-03-12,株式会社Ｒ,,株式会社,鹿児島県,鹿児島市,樋之口町８―５照明電工ビル５０１,,46,201,8920845,,,,,,,2025-03-12,1,,,,,アール,0
2315,8340001027182,新規,0,2025-03-12,2025-03-12,株式会社甑和工業,,株式会社,鹿児島県,鹿児島市,鴨池新町２５番２－５０３号,,46,201,8900064,,,,,,,2025-03-12,1,,,,,ソウワコウギョウ,0
2319,8360001034904,新規,0,2025-03-12,2025-03-12,株式会社トライアングルウェブ,,株式会社,沖縄県,国頭郡本部町,字浜元４２９番地１Ｆ,,47,308,9050216,,,,,,,2025-03-12,1,,,,,トライアングルウェブ,0
2320,8360001034912,新規,0,2025-03-12,2025-03-12,株式会社ＵＴＫ,,株式会社,沖縄県,豊見城市,字渡橋名２８９番地１９當間ビル３階,,47,212,9010222,,,,,,,2025-03-12,1,,,,,ユーティーケイ,0
2323,8360003014755,新規,0,2025-03-12,2025-03-12,ＭＩＪ合同会社,,合同会社,沖縄県,豊見城市,字豊見城１１３４番地２,,47,212,9010241,,,,,,,2025-03-12,1,,,,,エムアイジェイ,0
2325,8370001052319,新規,0,2025-03-12,2025-03-12,株式会社岩沼青果,,株式会社,宮城県,岩沼市,末広１丁目６番４０号,,04,211,9892426,,,,,,,2025-03-12,1,,,,,イワヌマセイカ,0
2326,8370001052343,新規,0,2025-03-12,2025-03-12,株式会社ごとう農産,,株式会社,宮城県,登米市,米山町字水門２４７番地,,04,212,9870305,,,,,,,2025-03-12,1,,,,,ゴトウノウサン,0
2327,8370001052351,新規,0,2025-03-12,2025-03-12,株式会社ｋｏａｘ　ｋｏａｘ,,株式会社,宮城県,富谷市,富谷新町９５番地ＴＯＭＩ＋２Ｆ,,04,216,9813311,,,,,,,2025-03-12,1,,,,,コアコア,0
2328,8370003006974,新規,0,2025-03-12,2025-03-12,合同会社Ｏｌｄ　Ｃｕｌｔｕｒｅ,,合同会社,宮城県,仙台市宮城野区,鉄砲町東１番地の５Ｐｅａｃｅｆｕｌ３０１,,04,102,9830867,,,,,,,2025-03-12,1,,,,,オールドカルチャー,0
2331,8390001017914,新規,0,2025-03-12,2025-03-12,ＳＥＣＲＥＴ　ＢＡＳＥ株式会社,,株式会社,山形県,米沢市,窪田町窪田１７３８番地,,06,202,9920003,,,,,,,2025-03-12,1,,,,,シークレットベース,0
2337,8420001019056,新規,0,2025-03-12,2025-03-12,株式会社おに太郎,,株式会社,青森県,弘前市,大字鬼沢字山ノ越６７番地１,,02,202,0361205,,,,,,,2025-03-12,1,,,,,オニタロウ,0
2343,8430001093868,新規,0,2025-03-12,2025-03-12,株式会社Ｌ　ｐｒｏｊｅｃｔ,,株式会社,北海道,札幌市中央区,南二条西３丁目１３－４カタオカビル４階,,01,101,0600062,,,,,,,2025-03-12,1,,,,,エルプロジェクト,0
2344,8430001093876,新規,0,2025-03-12,2025-03-12,株式会社ＣＬＨ　ＭＡＮＡＧＥＭＥＮＴ,,株式会社,北海道,苫小牧市,拓勇西町４丁目１番２９号カーサ・デスティーノ２０４号室,,01,213,0591302,,,,,,,2025-03-12,1,,,,,シーエルエイチマネジメント,0
2345,8430001093892,新規,0,2025-03-12,2025-03-12,株式会社ＲＩＶＥＲＳＩＤＥ,,株式会社,北海道,札幌市西区,西野五条１丁目９番２９号,,01,107,0630035,,,,,,,2025-03-12,1,,,,,リバーサイド,0
2346,8430003017346,新規,0,2025-03-12,2025-03-12,合同会社Ｏｒｉｇｉｎ,,合同会社,北海道,千歳市,清水町２丁目７の７,,01,224,0660041,,,,,,,2025-03-12,1,,,,,オリジン,0
2349,8460001005985,新規,0,2025-03-12,2025-03-12,株式会社レドリナルダ,,株式会社,北海道,釧路郡釧路町,柏東７丁目５番地,,01,661,0882154,,,,,,,2025-03-12,1,,,,,レドリナルダ,0
2353,8700150054544,新規,0,2025-03-12,2015-10-09,芳井ふれあい児童クラブ,,その他,岡山県,井原市,芳井町吉井４１１０－１,,33,207,7142111,,,,,,,2015-10-09,1,,,,,ヨシイフレアイジドウクラブ,0
2354,8700150129536,新規,0,2025-03-12,2025-03-12,Ｓｈｅｎｚｈｅｎ　Ｊｉｕｋｅｑｉ　Ｔｅｃｈｎｏｌｏｇｙ　Ｃｏ．，Ｌｔｄ．,,外国会社等,,,,,,,,６Ａ，Ｕｎｉｔ　１，Ｂｕｉｌｄｉｎｇ　３３，Ｃｈｕｎｈｕａ　Ｆｏｕｒ　Ｓｅａｓｏｎｓ　Ｇａｒｄｅｎ，Ｍｉｎｋａｎｇ　Ｃｏｍｍｕｎｉｔｙ，Ｍｉｎｚｈｉ　Ｓｔｒｅｅｔ，Ｌｏｎｇｈｕａ　Ｄｉｓｔｒｉｃｔ，Ｓｈｅｎｚｈｅｎ，Ｇｕａｎｇｄｏｎｇ,,,,,,2025-03-12,1,,,,,シンセンジウクチーテクノロジーカンパニーリミテド,0
2362,9010001252944,新規,0,2025-03-12,2025-03-12,ジーエムビー株式会社,,株式会社,東京都,中央区,日本橋室町１丁目１１番１２号日本橋水野ビル７階,,13,102,1030022,,,,,,,2025-03-12,1,,,,,ジーエムビー,0
2363,9010001252969,新規,0,2025-03-12,2025-03-12,潤龍株式会社,,株式会社,東京都,文京区,大塚４丁目２５番４号レイワハウス１０１室,,13,105,1120012,,,,,,,2025-03-12,1,,,,,ジュンリュウ,0
2364,9010001253026,新規,0,2025-03-12,2025-03-12,株式会社ＫｅｎＢｏｗ,,株式会社,東京都,中央区,日本橋馬喰町２丁目２番３－１１０２号,,13,102,1030002,,,,,,,2025-03-12,1,,,,,ケンボウ,0
2382,9010401188821,新規,0,2025-03-12,2025-03-12,株式会社Ｓｔｏｎｅｆｒｅｅ,,株式会社,東京都,港区,芝浦３丁目７番８エスパース田町１００４号,,13,103,1080023,,,,,,,2025-03-12,1,,,,,ストーンフリー,0
2387,9010501053776,新規,0,2025-03-12,2025-03-12,ＫＬＹ株式会社,,株式会社,東京都,台東区,清川１丁目２１－５ＷＡＬＬａｐａｒｔｍｅｎｔ５階大区画号室,,13,106,1110022,,,,,,,2025-03-12,1,,,,,ケイエルワイ,0
2388,9010503007755,新規,0,2025-03-12,2025-03-12,合同会社ＤａｔａＦｕｌｌｎｅｓｓ,,合同会社,東京都,台東区,浅草橋３丁目２０－１１ルフォンプログレ蔵前プレミア１２０４,,13,106,1110053,,,,,,,2025-03-12,1,,,,,データフルネス,0
2391,9010601066926,新規,0,2025-03-12,2025-03-12,新巨豊技術包装株式会社,,株式会社,東京都,江東区,豊洲６丁目２番３１－１９１７号,,13,108,1350061,,,,,,,2025-03-12,1,,,,,シンキョホウギジュツホウソウ,0
2396,9010701047355,新規,0,2025-03-12,2025-03-12,Ｂｌｕｅｂｉｒｄ株式会社,,株式会社,東京都,品川区,東品川４丁目１２番８号品川シーサイドイーストタワー１５階,,13,109,1400002,,,,,,,2025-03-12,1,,,,,ブルーバード,0
2398,9010803005310,新規,0,2025-03-12,2025-03-12,合同会社ガルディン,,合同会社,東京都,大田区,山王１丁目４１番７号,,13,111,1430023,,,,,,,2025-03-12,1,,,,,ガルディン,0
2401,9010901056981,新規,0,2025-03-12,2025-03-12,コマージュシッピングジャパン株式会社,,株式会社,東京都,世田谷区,上用賀６丁目２番２４号,,13,112,1580098,,,,,,,2025-03-12,1,,,,,コマージュシッピングジャパン,0
2409,9011003021189,新規,0,2025-03-12,2025-03-12,合同会社ＥＳＲ９‐２,,合同会社,東京都,目黒区,上目黒１丁目２３番１号中目黒アリーナ４０５号室,,13,110,1530051,,,,,,,2025-03-12,1,,,,,イーエスアールナインツー,0
2410,9011003021230,新規,0,2025-03-12,2025-03-12,ＫＴ＆Ｂｒａｉｎｓ合同会社,,合同会社,東京都,目黒区,目黒本町２丁目２７番１８－５０１号,,13,110,1520002,,,,,,,2025-03-12,1,,,,,ケイティーアンドブレインズ,0
2413,9011101110884,新規,0,2025-03-12,2025-03-12,株式会社ＲＭＥ,,株式会社,東京都,新宿区,西新宿６丁目１５－１ラトゥール新宿３５１３号,,13,104,1600023,,,,,,,2025-03-12,1,,,,,アールエムイー,0
2414,9011103015644,新規,0,2025-03-12,2025-03-12,どんぐり企画合同会社,,合同会社,東京都,新宿区,新宿１丁目３６－２新宿第七葉山ビル３Ｆ,,13,104,1600022,,,,,,,2025-03-12,1,,,,,ドングリキカク,0
2417,9011401026896,新規,0,2025-03-12,2025-03-12,Ｔ＆Ｄ　Ｌｉｎｋ株式会社,,株式会社,東京都,板橋区,常盤台３丁目２８番１２号ときわ台サンハイツ７０６号,,13,119,1740071,,,,,,,2025-03-12,1,,,,,ティーアンドディーリンク,0
2418,9011501031813,新規,0,2025-03-12,2025-03-12,株式会社ルールブレイカー,,株式会社,東京都,北区,上十条１丁目４番１０－３０６号カメリアガーデン,,13,117,1140034,,,,,,,2025-03-12,1,,,,,ルールブレイカー,0
2422,9011701028114,新規,0,2025-03-12,2025-03-12,東京美音株式会社,,株式会社,東京都,江戸川区,西小岩５丁目１３番１３小出マンション１０７号,,13,123,1330057,,,,,,,2025-03-12,1,,,,,トウキョウビオン,0
2423,9011701028130,新規,0,2025-03-12,2025-03-12,株式会社カエデエンターテインメント,,株式会社,東京都,江戸川区,江戸川２丁目１８番１０号,,13,123,1320013,,,,,,,2025-03-12,1,,,,,カエデエンターテインメント,0
2424,9011801045769,新規,0,2025-03-12,2025-03-12,株式会社ＨＯＲＯインターナショナル,,株式会社,東京都,葛飾区,青戸７丁目２３番１１号,,13,122,1250062,,,,,,,2025-03-12,1,,,,,ホロインターナショナル,0
2429,9012401042875,新規,0,2025-03-12,2025-03-12,株式会社Ｂ．ｓｔｅｐ,,株式会社,東京都,府中市,若松町２丁目１番地の１,,13,206,1830005,,,,,,,2025-03-12,1,,,,,ビーステップ,0
2435,9013301053888,新規,0,2025-03-12,2025-03-12,株式会社虹姫,,株式会社,東京都,豊島区,東池袋２丁目６２番８号ＢＩＧオフィスプラザ池袋１２０６,,13,116,1700013,,,,,,,2025-03-12,1,,,,,ニジヒメ,0
2443,9020001161780,新規,0,2025-03-12,2025-03-12,株式会社Ｎｏｌｉｎｅ,,株式会社,神奈川県,横浜市西区,浅間町１丁目４番３号ウィザードビル４０２,,14,103,2200072,,,,,,,2025-03-12,1,,,,,ノーライン,0
2444,9020001161789,新規,0,2025-03-12,2025-03-12,オートリンクジャパン株式会社,,株式会社,神奈川県,横浜市西区,高島２丁目１９－１２横浜スカイビル２０Ｆ,,14,103,2200011,,,,,,,2025-03-12,1,,,,,オートリンクジャパン,0
2445,9020001161806,新規,0,2025-03-12,2025-03-12,株式会社サンブリッジ,,株式会社,神奈川県,横浜市青葉区,美しが丘４丁目５３番地１１,,14,117,2250002,,,,,,,2025-03-12,1,,,,,サンブリッジ,0
2446,9020001161855,新規,0,2025-03-12,2025-03-12,ＳＡキャピタル株式会社,,株式会社,神奈川県,横浜市南区,大岡５丁目２番１４号,,14,105,2320061,,,,,,,2025-03-12,1,,,,,エスエーキャピタル,0
2447,9020003027971,新規,0,2025-03-12,2025-03-12,合同会社村田制作所,,合同会社,神奈川県,横浜市港北区,大豆戸町６１０番地１クレストフォルム菊名サウスステージ３０５,,14,109,2220032,,,,,,,2025-03-12,1,,,,,ムラタセイサクジョ,0
2448,9021001084658,新規,0,2025-03-12,2025-03-12,株式会社ＴＲＵＳＴ,,株式会社,神奈川県,平塚市,岡崎５８０１番地の１パレス湘南Ｉ－１０３,00138307,14,203,2591212,,,,,,,2025-03-12,1,,,,,トラスト,0
2449,9021001084682,新規,0,2025-03-12,2025-03-12,株式会社リトリートメント,,株式会社,神奈川県,茅ヶ崎市,中海岸４丁目１５番４０－４０２号,,14,207,2530055,,,,,,,2025-03-12,1,,,,,リトリートメント,0
2450,9021001084690,新規,0,2025-03-12,2025-03-12,株式会社アトリエコトン,,株式会社,神奈川県,相模原市中央区,横山３丁目２６－４フローレンス横山２０２号室,,14,152,2520242,,,,,,,2025-03-12,1,,,,,アトリエコトン,0
2451,9021001084699,新規,0,2025-03-12,2025-03-12,株式会社Ｙｏｕｒホーム,,株式会社,神奈川県,三浦郡葉山町,堀内１８１０番地の２,,14,301,2400112,,,,,,,2025-03-12,1,,,,,ユアホーム,0
2452,9021001084708,新規,0,2025-03-12,2025-03-12,ＯＨＡＮＡＩＮＡ　ＪＡＰＡＮ株式会社,,株式会社,神奈川県,茅ヶ崎市,赤松町５－２５,,14,207,2530013,,,,,,,2025-03-12,1,,,,,オハナイナジャパン,0
2454,9021003015727,新規,0,2025-03-12,2025-03-12,ＢＯＮＤ合同会社,,合同会社,神奈川県,三浦市,天神町１４番２０号,,14,210,2380241,,,,,,,2025-03-12,1,,,,,ボンド,0
2455,9021005013299,新規,0,2025-03-12,2025-03-12,医療法人ＳＤＯＣ,,その他の設立登記法人,神奈川県,中郡二宮町,二宮９３７番地,,14,342,2590123,,,,,,,2025-03-12,1,,,,,エスディオーシー,0
2458,9030001165327,新規,0,2025-03-12,2025-03-12,三和株式会社,,株式会社,埼玉県,川口市,西川口４丁目１８番３号,,11,203,3320021,,,,,,,2025-03-12,1,,,,,サンワ,0
2459,9030001165335,新規,0,2025-03-12,2025-03-12,株式会社ディーアイエスプラス,,株式会社,埼玉県,新座市,東北２丁目３９－１０ドゥーセット弐番館６Ｆ,,11,230,3520001,,,,,,,2025-03-12,1,,,,,ディーアイエスプラス,0
2460,9030001165343,新規,0,2025-03-12,2025-03-12,株式会社Ｆｏｒｇｅ　Ｍｏｍｅｎｔ,,株式会社,埼玉県,飯能市,大字川寺３４１番地１６,,11,209,3570044,,,,,,,2025-03-12,1,,,,,フォージモーメント,0
2461,9030001165392,新規,0,2025-03-12,2025-03-12,株式会社Ｒｅｎａｓ,,株式会社,埼玉県,川口市,大字道合２８７番,,11,203,3330835,,,,,,,2025-03-12,1,,,,,レナス,0
2469,9040003027045,新規,0,2025-03-12,2025-03-12,合同会社ジルジール,,合同会社,千葉県,船橋市,三山３丁目３２番１６号,,12,204,2740072,,,,,,,2025-03-12,1,,,,,ジルジール,0
2470,9040003027053,新規,0,2025-03-12,2025-03-12,和澤合同会社,,合同会社,千葉県,船橋市,二和東６丁目４２－１７－１０１,,12,204,2740805,,,,,,,2025-03-12,1,,,,,ワザワ,0
2473,9050001056268,新規,0,2025-03-12,2025-03-12,株式会社アイプラス,,株式会社,茨城県,龍ケ崎市,４８４８番地,,08,208,3010000,,,,,,,2025-03-12,1,,,,,アイプラス,0
2474,9050001056292,新規,0,2025-03-12,2025-03-12,ローランドマネジメント株式会社,,株式会社,茨城県,笠間市,平町１７１８番地８２,,08,216,3091722,,,,,,,2025-03-12,1,,,,,ローランドマネジメント,0
2475,9050003009083,新規,0,2025-03-12,2025-03-12,合同会社未来,,合同会社,茨城県,かすみがうら市,坂１１２６－１,,08,230,3000214,,,,,,,2025-03-12,1,,,,,ミライ,0
2476,9060001038001,新規,0,2025-03-12,2025-03-12,巴総業株式会社,,株式会社,栃木県,真岡市,石島８１９‐１,,09,209,3214507,,,,,,,2025-03-12,1,,,,,トモエコウギョウ,0
2478,9060003005461,新規,0,2025-03-12,2025-03-12,合同会社ＳＨＥＲＩＤＡ,,合同会社,栃木県,足利市,田中町７９２－１プライムスクエア足利１階,,09,202,3260822,,,,,,,2025-03-12,1,,,,,シェリダ,0
2480,9080001026805,新規,0,2025-03-12,2025-03-12,株式会社ＩＴプランニング,,株式会社,静岡県,静岡市清水区,小島町３０１番地,,22,103,4240305,,,,,,,2025-03-12,1,,,,,アイティプランニング,0
2481,9080101025368,新規,0,2025-03-12,2025-03-12,鈴紀電気株式会社,,株式会社,静岡県,駿東郡長泉町,元長窪３０８番地の１,,22,342,4110936,,,,,,,2025-03-12,1,,,,,スズキデンキ,0
2482,9080401027799,新規,0,2025-03-12,2025-03-12,株式会社ＳＫＹ,,株式会社,静岡県,浜松市中央区,半田山４丁目３０番２７号,,22,138,4313125,,,,,,,2025-03-12,1,,,,,スカイ,0
2484,9100001038384,新規,0,2025-03-12,2025-03-12,株式会社オリゾーラ,,株式会社,長野県,下高井郡木島平村,大字往郷１１８７番地,,20,562,3892302,,,,,,,2025-03-12,1,,,,,オリゾーラ,0
2485,9100002039398,新規,0,2025-03-12,2025-03-12,有限会社トタニ薬局,,有限会社,長野県,大町市,大字大町２４７７番地イ,,20,212,3980000,,,,,,,2025-03-12,1,,,,,トタニヤッキョク,0
2486,9100003008030,新規,0,2025-03-12,2025-03-12,合同会社ＭＡＭ,,合同会社,長野県,松本市,寿台３丁目５番Ａ１－５０８号,,20,202,3990025,,,,,,,2025-03-12,1,,,,,エムエーエム,0
2497,9110005017193,新規,0,2025-03-12,2025-03-12,ＮＰＯ法人天領出雲崎町を保存し守る会,,その他の設立登記法人,新潟県,三島郡出雲崎町,大字尼瀬１１６８番２,,15,405,9494308,,,,,,,2025-03-12,1,,,,,テンリョウイズモザキマチヲホゾンシマモルカイ,0
2505,9120001273574,新規,0,2025-03-12,2025-03-12,株式会社モルソム,,株式会社,大阪府,寝屋川市,池田本町１７番３２号,,27,215,5720030,,,,,,,2025-03-12,1,,,,,モルソム,0
2511,9120101071226,新規,0,2025-03-12,2025-03-12,株式会社耕す,,株式会社,大阪府,南河内郡河南町,大字平石４５２番地の１,,27,382,5850013,,,,,,,2025-03-12,1,,,,,タガヤス,0
2514,9120103006312,新規,0,2025-03-12,2025-03-12,合同会社くむ,,合同会社,大阪府,岸和田市,山直中６４１番地の３,,27,202,5960000,,,,,,,2025-03-12,1,,,,,クム,0
2522,9130001079161,新規,0,2025-03-12,2025-03-12,株式会社サクラ作ＬＡＢ,,株式会社,京都府,亀岡市,＿田野町佐伯飼条４３番地,00138314,26,206,6210033,,,,,,,2025-03-12,1,,,,,サクラサクラボ,0
2523,9130001079186,新規,0,2025-03-12,2025-03-12,株式会社ＷＥＡＬＬＴＨ,,株式会社,京都府,京都市中京区,錦小路通室町西入天神山町２８０番地,,26,104,6048221,,,,,,,2025-03-12,1,,,,,ウェルス,0
2524,9130001079203,新規,0,2025-03-12,2025-03-12,株式会社Ｓｕｎ　Ｎｏｖａ,,株式会社,京都府,相楽郡精華町,光台７丁目３８番地４,,26,366,6190237,,,,,,,2025-03-12,1,,,,,サンノヴァ,0
2527,9130003010280,新規,0,2025-03-12,2025-03-12,郁波商事合同会社,,合同会社,京都府,宇治市,平尾台３丁目１番地の４,,26,204,6110003,,,,,,,2025-03-12,1,,,,,イクナミショウジ,0
2534,9140001137637,新規,0,2025-03-12,2025-03-12,株式会社徳松,,株式会社,兵庫県,尼崎市,高田町１６番１号,,28,202,6610963,,,,,,,2025-03-12,1,,,,,トクマツ,0
2535,9140001137694,新規,0,2025-03-12,2025-03-12,株式会社ＭＩＹＡＢＩ,,株式会社,兵庫県,神戸市垂水区,霞ヶ丘３丁目１番４３号,,28,108,6550039,,,,,,,2025-03-12,1,,,,,ミヤビ,0
2536,9140003021748,新規,0,2025-03-12,2025-03-12,合同会社ＮＲ,,合同会社,兵庫県,神戸市灘区,永手町３丁目４番１４号六甲道ビル３Ｆ,,28,102,6570027,,,,,,,2025-03-12,1,,,,,エヌアール,0
2539,9150001027944,新規,0,2025-03-12,2025-03-12,株式会社アユミセツビ,,株式会社,奈良県,天理市,東井戸堂町４６７番地９,,29,204,6320074,,,,,,,2025-03-12,1,,,,,アユミセツビ,0
2540,9150001027952,新規,0,2025-03-12,2025-03-12,株式会社ｌｉｔｏ,,株式会社,奈良県,橿原市,内膳町２丁目４－５メゾン・シャルム１Ｆ,,29,205,6340804,,,,,,,2025-03-12,1,,,,,リト,0
2549,9180001165824,新規,0,2025-03-12,2025-03-12,株式会社Ｌｉｎｏａ　Ｐｌａｎｎｉｎｇ,,株式会社,愛知県,名古屋市中区,栄３丁目３５番２２号,,23,106,4600008,,,,,,,2025-03-12,1,,,,,リノアプランニング,0
2550,9180001165840,新規,0,2025-03-12,2025-03-12,株式会社エースアップ,,株式会社,愛知県,名古屋市東区,泉３丁目１７番１０号,,23,102,4610001,,,,,,,2025-03-12,1,,,,,エースアップ,0
2551,9180001165873,新規,0,2025-03-12,2025-03-12,株式会社ＬａＤａ,,株式会社,愛知県,名古屋市北区,大曽根２丁目３番２１号,,23,103,4620825,,,,,,,2025-03-12,1,,,,,ラダ,0
2555,9180301039604,新規,0,2025-03-12,2025-03-12,株式会社ＺＨＫ,,株式会社,愛知県,豊橋市,町畑町字森田１－１３,,23,201,4418108,,,,,,,2025-03-12,1,,,,,ズィーエイチケー,0
2556,9180301039612,新規,0,2025-03-12,2025-03-12,株式会社Ｐａｒｔｎｅｒｓ　Ｌｉｎｋｓ,,株式会社,愛知県,岡崎市,上六名３丁目１１番地２,,23,202,4440858,,,,,,,2025-03-12,1,,,,,パートナーズリンクス,0
2557,9180301039620,新規,0,2025-03-12,2025-03-12,株式会社ＹＯＵ＆ＭＥ,,株式会社,愛知県,岡崎市,栄町４丁目１８番地６,,23,202,4440012,,,,,,,2025-03-12,1,,,,,ユーアンドミー,0
2560,9180303006486,新規,0,2025-03-12,2025-03-12,稲穂合同会社,,合同会社,愛知県,安城市,古井町山崎根２０番地１,,23,212,4460025,,,,,,,2025-03-12,1,,,,,イナホ,0
2561,9190003004954,新規,0,2025-03-12,2025-03-12,合同会社Ｔ＆Ｈ,,合同会社,三重県,四日市市,諏訪栄町１３番２号タイガービル３Ｆ,,24,202,5100086,,,,,,,2025-03-12,1,,,,,ティーアンドエイチ,0
2564,9220001026550,新規,0,2025-03-12,2025-03-12,ＤＯＡ株式会社,,株式会社,石川県,羽咋郡志賀町,米町ヲの６５番地２,,17,384,9250382,,,,,,,2025-03-12,1,,,,,ドアー,0
2569,9240001064631,新規,0,2025-03-12,2025-03-12,株式会社Ｃｈｕｎｅｘ,,株式会社,広島県,広島市中区,大手町１丁目１－２０相生橋ビル７階Ａ号室,,34,101,7300051,,,,,,,2025-03-12,1,,,,,チュネックス,0
2570,9240001064648,新規,0,2025-03-12,2025-03-12,株式会社結心,,株式会社,広島県,呉市,宮原６丁目１番２号,,34,202,7370024,,,,,,,2025-03-12,1,,,,,ユイシン,0
2576,9260001040011,新規,0,2025-03-12,2025-03-12,株式会社Ｔａｋａｓｈｉｒｏ　Ｓｅｎｋｏ,,株式会社,岡山県,倉敷市,児島下の町７丁目２番６号,,33,202,7110906,,,,,,,2025-03-12,1,,,,,タカシロセンコウ,0
2579,9260003005094,新規,0,2025-03-12,2025-03-12,合同会社Ｕｍｉｚｏｉ,,合同会社,岡山県,玉野市,番田２９４１－１,,33,204,7060304,,,,,,,2025-03-12,1,,,,,ウミゾイ,0
2583,9270003001720,新規,0,2025-03-12,2025-03-12,合同会社一縁,,合同会社,鳥取県,倉吉市,円谷町２８０番地８,,31,203,6820813,,,,,,,2025-03-12,1,,,,,イチエン,0
2584,9280001009376,新規,0,2025-03-12,2025-03-12,株式会社ラフストイック,,株式会社,島根県,松江市,東出雲町揖屋２６８７番地４５,,32,201,6990101,,,,,,,2025-03-12,1,,,,,ラフストイック,0
2589,9290003016469,新規,0,2025-03-12,2025-03-12,ＺＯＮＥ合同会社,,合同会社,福岡県,福岡市中央区,福浜２丁目５－２－２１４,,40,133,8100066,,,,,,,2025-03-12,1,,,,,ゾーン,0
2590,9290003016477,新規,0,2025-03-12,2025-03-12,技術チーム合同会社,,合同会社,福岡県,福岡市中央区,天神２丁目２番１２号Ｔ＆Ｊビルディング７Ｆ,,40,133,8100001,,,,,,,2025-03-12,1,,,,,ギジュツチーム,0
2591,9290003016527,新規,0,2025-03-12,2025-03-12,合同会社ウォークスルー,,合同会社,福岡県,福岡市中央区,天神４丁目６－２８天神ファーストビル７階,,40,133,8100001,,,,,,,2025-03-12,1,,,,,ウォークスルー,0
2592,9290801031347,新規,0,2025-03-12,2025-03-12,株式会社アイシンテクノ,,株式会社,福岡県,北九州市小倉北区,明和町９番７号,,40,106,8020017,,,,,,,2025-03-12,1,,,,,アイシンテクノ,0
2596,9310001019495,新規,0,2025-03-12,2025-03-12,株式会社ワンドワンド,,株式会社,長崎県,長崎市,万屋町２－２０－２Ｆ,,42,201,8500852,,,,,,,2025-03-12,1,,,,,ワンドワンド,0
2598,9320001020989,新規,0,2025-03-12,2025-03-12,株式会社レーベンスシューレ,,株式会社,大分県,大分市,南太平寺２丁目１２番５５号,,44,201,8700885,,,,,,,2025-03-12,1,,,,,レーベンスシューレ,0
2603,9340001027181,新規,0,2025-03-12,2025-03-12,株式会社ＰＯＮＴ,,株式会社,鹿児島県,鹿児島市,下福元町１２７０番地２,,46,201,8910144,,,,,,,2025-03-12,1,,,,,ポント,0
2604,9340003004773,新規,0,2025-03-12,2025-03-12,合同会社慶和工業,,合同会社,鹿児島県,鹿児島市,魚見町１１９番地１２,,46,201,8910112,,,,,,,2025-03-12,1,,,,,ケイワコウギョウ,0
2610,9350003004871,新規,0,2025-03-12,2025-03-12,合同会社アグロス・テクニカル,,合同会社,宮崎県,都城市,上川東４丁目５９７５－１,,45,202,8850012,,,,,,,2025-03-12,1,,,,,アグロステクニカル,0
2611,9360001034894,新規,0,2025-03-12,2025-03-12,株式会社アイゲイン,,株式会社,沖縄県,うるま市,石川白浜２丁目１０番１２号,,47,213,9041105,,,,,,,2025-03-12,1,,,,,アイゲイン,0
2612,9360001034903,新規,0,2025-03-12,2025-03-12,株式会社Ｏｋｉｎａｗａ　Ｅｄｕｃａｔｉｏｎ　Ｃｏｍｐａｎｙ,,株式会社,沖縄県,中頭郡読谷村,字長浜１０５番地,,47,324,9040324,,,,,,,2025-03-12,1,,,,,オキナワエデュケーションカンパニー,0
2613,9360001034911,新規,0,2025-03-12,2025-03-12,株式会社炭のまるしん商会,,株式会社,沖縄県,那覇市,字国場９４６番地１階,,47,201,9020075,,,,,,,2025-03-12,1,,,,,スミノマルシンショウカイ,0
2614,9360003014754,新規,0,2025-03-12,2025-03-12,合同会社大野家,,合同会社,沖縄県,糸満市,字糸満１４８３番地の１Ｍ’ｓＰｏｎｏ５０２号室,,47,210,9010361,,,,,,,2025-03-12,1,,,,,オオノヤ,0
2616,9370001052350,新規,0,2025-03-12,2025-03-12,スズキ教育コンサルティング株式会社,,株式会社,宮城県,仙台市青葉区,中央１丁目７番４号宮城商事ビル４Ｆ,,04,101,9800021,,,,,,,2025-03-12,1,,,,,スズキキョウイクコンサルティング,0
2617,9370003006981,新規,0,2025-03-12,2025-03-12,合同会社くらしぷらす,,合同会社,宮城県,仙台市太白区,郡山８丁目２２番１－５０６号,,04,104,9820003,,,,,,,2025-03-12,1,,,,,クラシプラス,0
2628,9430001093859,新規,0,2025-03-12,2025-03-12,ライフステップ株式会社,,株式会社,北海道,札幌市中央区,南四条西５丁目８－８アイビルＩＩ６Ｆ,00138309,01,101,0640804,,,,,,,2025-03-12,1,,,,,ライフステップ,0
2629,9430001093867,新規,0,2025-03-12,2025-03-12,株式会社Ｃｏｖａｌｅｎｔ,,株式会社,北海道,札幌市中央区,南九条西１３丁目１番３１号,,01,101,0640809,,,,,,,2025-03-12,1,,,,,コバレント,0
2630,9430005015173,新規,0,2025-03-12,2025-03-12,医療法人大通エールレディースクリニック,,その他の設立登記法人,北海道,札幌市中央区,南一条西６丁目１番４号第２７桂和ビル４階,,01,101,0600061,,,,,,,2025-03-12,1,,,,,オオドオリエールレディースクリニック,0
2631,9440001009582,新規,0,2025-03-12,2025-03-12,株式会社Ｅｎ・ｄｏｒ,,株式会社,北海道,函館市,本通３丁目２４番１２－１号,,01,202,0410851,,,,,,,2025-03-12,1,,,,,エンドア,0
2633,9460103001691,新規,0,2025-03-12,2025-03-12,合同会社ほとり,,合同会社,北海道,足寄郡足寄町,旭町４丁目１００番３号,,01,647,0893721,,,,,,,2025-03-12,1,,,,,ホトリ,0
2635,9700150129535,新規,0,2025-03-12,2025-03-12,Ｄｏｎｇｇｕａｎ　Ａｗｇｅｍ　Ｅ－ｃｏｍｍｅｒｃｅ　Ｃｏ．，Ｌｔｄ．,,外国会社等,,,,,,,,Ｒｏｏｍ　３０１，Ｂｕｉｌｄｉｎｇ　１，Ｘｉｎｇｐｅｎｇ　Ｂｕｓｉｎｅｓｓ　Ｂｕｉｌｄｉｎｇ，Ｎｏ．６０，Ｇｕａｎｔａｉ　Ｒｏａｄ，Ｎａｎｃｈｅｎｇ　Ｓｅｃｔｉｏｎ，Ｎａｎｃｈｅｎｇ　Ｓｔｒｅｅｔ，Ｄｏｎｇｇｕａｎ　Ｃｉｔｙ，Ｇｕａｎｇｄｏｎｇ　Ｐｒｏｖｉｎｃｅ，Ｃｈｉｎａ（Ｃｌｕｓｔｅｒ　Ｒｅｇｉｓｔｒａｔｉｏｎ）,,,,,,2025-03-12,1,,,,,ドンガンオージエムイーコマースカブシキガイシヤ,0
