sequenceNumber,corporateNumber,process,correct,updateDate,changeDate,name,nameImageId,kind,prefectureName,cityName,streetNumber,addressImageId,prefectureCode,cityCode,postCode,addressOutside,addressOutsideImageId,closeDate,closeCause,successorCorporateNumber,changeCause,assignmentDate,latest,enName,enPrefectureName,enCityName,enAddressOutside,furigana,hihyoji
8,1010001194954,登記記録の閉鎖等,0,2023-08-10,2023-08-01,株式会社リアルト・エンタテインメント,,株式会社,東京都,千代田区,六番町４番地５,,13,101,1020085,,,2023-08-01,合併による解散等,2010001012149,令和５年８月１日東京都千代田区六番町４番地５株式会社アニプレックス（2010001012149）に合併し解散,2018-09-20,1,,,,,リアルトエンタテイメント,0
12,1010001229462,登記記録の閉鎖等,0,2023-08-10,2023-08-08,株式会社千羽,,株式会社,東京都,新宿区,新宿１丁目７－２藤和新宿御苑コープ３０４号室,,13,104,1600022,,,2023-08-08,清算の結了等,,,2022-09-12,1,,,,,チハネ,0
17,1010003023021,登記記録の閉鎖等,0,2023-08-10,2023-08-04,鳥取クリーンエナジー合同会社,,合同会社,鳥取県,鳥取市,富安１丁目２２０番地２丸壽ビル３階,,31,201,6800845,,,2023-08-04,合併による解散等,9010403017078,令和５年７月３１日東京都港区芝公園二丁目２番１０号中和ビル３階ＧＰＳＳ４合同会社（9010403017078）に合併し解散,2016-02-03,1,,,,,トットリクリーンエナジー,0
30,1010601031854,登記記録の閉鎖等,0,2023-08-10,2023-07-18,株式会社バイオレット,,株式会社,埼玉県,さいたま市桜区,西堀４丁目１番１号１２１２,,11,106,3380832,,,2023-07-18,清算の結了等,,,2015-10-05,1,,,,,バイオレット,0
57,1011801008270,登記記録の閉鎖等,0,2023-08-10,2023-08-07,三友工業株式会社,,株式会社,東京都,足立区,西新井６丁目２４番１１号,,13,121,1230841,,,2023-08-07,清算の結了等,,,2015-10-05,1,,,,,サンユウコウギョウ,0
70,1020001010169,登記記録の閉鎖等,0,2023-08-10,2023-07-28,タシロ産業株式会社,,株式会社,神奈川県,横浜市保土ケ谷区,東川島町１６番地の７,,14,106,2400041,,,2023-07-28,清算の結了等,,,2015-10-05,1,,,,,タシロサンギョウ,0
71,1020001022593,登記記録の閉鎖等,0,2023-08-10,2023-07-28,株式会社オーテック,,株式会社,神奈川県,横浜市港北区,新羽町１７２６番地,,14,109,2230057,,,2023-07-28,清算の結了等,,,2015-10-05,1,,,,,オーテック,0
117,1070002017150,登記記録の閉鎖等,0,2023-08-10,2023-08-07,有限会社青木工業所,,有限会社,群馬県,藤岡市,藤岡４８１番地,,10,209,3750024,,,2023-08-07,清算の結了等,,,2015-10-05,1,,,,,アオキコウギョウジョ,0
124,1090001004420,登記記録の閉鎖等,0,2023-08-10,2023-08-01,シエルクール株式会社,,株式会社,山梨県,甲府市,相生３丁目３番１２号,,19,201,4000858,,,2023-08-01,清算の結了等,,,2015-10-05,1,,,,,シエルクール,0
128,1110001017634,登記記録の閉鎖等,0,2023-08-10,2023-08-01,株式会社オーシャン,,株式会社,新潟県,柏崎市,大字上田尻１０１４番地４,,15,205,9451351,,,2023-08-01,清算の結了等,,,2015-10-05,1,,,,,オーシャン,0
135,1120001196840,登記記録の閉鎖等,0,2023-08-10,2023-08-03,株式会社ツリーベル,,株式会社,大阪府,守口市,大久保町４丁目３７番５号,,27,209,5700012,,,2023-08-03,合併による解散等,1120001142514,令和５年８月１日大阪市天王寺区四天王寺一丁目１２番２３号株式会社冨桑（1120001142514）に合併し解散,2016-03-11,1,,,,,ツリーベル,0
159,1140001021501,登記記録の閉鎖等,0,2023-08-10,2023-08-04,キューリグ・エフイー株式会社,,株式会社,兵庫県,神戸市中央区,港島中町７丁目７番７,,28,110,6500046,,,2023-08-04,清算の結了等,,,2015-10-05,1,,,,,キューリグエフイー,0
179,1180001096655,登記記録の閉鎖等,0,2023-08-10,2023-08-01,株式会社メディカル・ファーマシー,,株式会社,愛知県,津島市,天王通り６丁目３番地,,23,208,4960807,,,2023-08-01,合併による解散等,4180001096314,令和５年８月１日愛知県津島市天王通り六丁目３番地株式会社浅井藥局（4180001096314）に合併し解散,2015-10-05,1,,,,,メディカルファーマシー,0
195,1190002005515,登記記録の閉鎖等,0,2023-08-10,2023-08-01,有限会社引本醤油商会,,有限会社,三重県,尾鷲市,港町１０番６号,,24,209,5193604,,,2023-08-01,清算の結了等,,,2015-10-05,1,,,,,ヒキモトショウユ,0
221,1260002001267,登記記録の閉鎖等,0,2023-08-10,2023-08-03,有限会社恵比須屋,,有限会社,岡山県,岡山市北区,下石井２丁目９番５３号,,33,101,7000907,,,2023-08-03,清算の結了等,,,2015-10-05,1,,,,,エビスヤ,0
226,1290001077479,登記記録の閉鎖等,0,2023-08-10,2023-07-31,ＭＫ総合管理株式会社,,株式会社,福岡県,福岡市早良区,百道浜１丁目３番７０号ザ・レジデンシャルスイート・福岡,,40,137,8140001,,,2023-07-31,清算の結了等,,,2017-04-19,1,,,,,エムケイソウゴウカンリ,0
230,1290002016816,登記記録の閉鎖等,0,2023-08-10,2023-07-31,有限会社ノミヤマ食品,,有限会社,福岡県,福岡市博多区,吉塚２丁目２０番９号,,40,132,8120041,,,2023-07-31,清算の結了等,,,2015-10-05,1,,,,,ノミヤマショクヒン,0
233,1300002010759,登記記録の閉鎖等,0,2023-08-10,2023-08-08,有限会社吉野クリーニング店,,有限会社,佐賀県,唐津市,八百屋町１５６４番地,,41,202,8470811,,,2023-08-08,清算の結了等,,,2015-10-05,1,,,,,ヨシノクリーニングテン,0
248,1360001020175,登記記録の閉鎖等,0,2023-08-10,2023-08-07,株式会社丸和グリーンサービス,,株式会社,沖縄県,浦添市,宮城２丁目３７番３号１Ｆ,,47,208,9012126,,,2023-08-07,清算の結了等,,,2015-12-03,1,,,,,マルワグリーンサービス,0
253,1370001046327,登記記録の閉鎖等,0,2023-08-10,2023-08-02,株式会社仙台人事創研,,株式会社,宮城県,仙台市青葉区,一番町２丁目６番１号シティハウス一番町２階１８,,04,101,9800811,,,2023-08-02,清算の結了等,,,2020-11-06,1,,,,,,0
260,1380001032219,登記記録の閉鎖等,0,2023-08-10,2023-08-03,株式会社ベントレ,,株式会社,福島県,白河市,八竜神７０番地２,,07,205,9610047,,,2023-08-03,清算の結了等,,,2021-09-28,1,,,,,ベントレ,0
263,1390001007351,登記記録の閉鎖等,0,2023-08-10,2023-08-08,株式会社鶴岡日石,,株式会社,山形県,鶴岡市,大塚町１４番２６号,,06,203,9970047,,,2023-08-08,清算の結了等,,,2015-10-05,1,,,,,ツルオカニッセキ,0
269,1410002000823,登記記録の閉鎖等,0,2023-08-10,2023-07-28,有限会社エスシーエス,,有限会社,秋田県,秋田市,仁井田新田２丁目１６番９号,,05,201,0101427,,,2023-07-28,清算の結了等,,,2015-10-05,1,,,,,エスシーエス,0
288,2010001112543,登記記録の閉鎖等,0,2023-08-10,2023-08-02,株式会社ＯＭＵＲＡ,,株式会社,東京都,千代田区,丸の内１丁目８番１号丸の内トラストタワーＮ館,,13,101,1000005,,,2023-08-02,清算の結了等,,,2015-10-05,1,,,,,オムラ,0
290,2010001130842,登記記録の閉鎖等,0,2023-08-10,2023-08-01,株式会社シーエムシーインターナショナル,,株式会社,東京都,千代田区,神田錦町１丁目１７番１号,,13,101,1010054,,,2023-08-01,清算の結了等,,,2015-10-05,1,,,,,シーエムシーインターナショナル,0
291,2010001136526,登記記録の閉鎖等,0,2023-08-10,2023-08-01,株式会社ヒラックス,,株式会社,東京都,中央区,佃１丁目１１番９号,,13,102,1040051,,,2023-08-01,合併による解散等,8010701012814,令和５年８月１日東京都中央区佃一丁目１１番９号Ａｓｉａ　ＬＮＧ　Ｈｕｂ株式会社（8010701012814）に合併し解散,2015-10-05,1,,,,,ヒラックス,0
292,2010001136773,登記記録の閉鎖等,0,2023-08-10,2023-07-18,ＮＣＰ株式会社,,株式会社,東京都,港区,北青山２丁目７番２６,,13,103,1070061,,,2023-07-18,清算の結了等,,,2015-10-05,1,,,,,エヌシーピー,0
322,2010602027165,登記記録の閉鎖等,0,2023-08-10,2023-08-04,有限会社やすらぎ館,,有限会社,東京都,墨田区,京島３丁目４３番６号,,13,107,1310046,,,2023-08-04,清算の結了等,,,2015-10-05,1,,,,,ヤスラギカン,0
342,2011702004946,登記記録の閉鎖等,0,2023-08-10,2023-08-08,有限会社サトウ,,有限会社,東京都,江戸川区,一之江７丁目７９番１３号,,13,123,1320024,,,2023-08-08,清算の結了等,,,2015-10-05,1,,,,,サトウ,0
346,2012401010608,登記記録の閉鎖等,0,2023-08-10,2023-08-07,ＰＦＩ府中市民会館・中央図書館株式会社,,株式会社,東京都,府中市,府中町２丁目２４番地,,13,206,1830055,,,2023-08-07,清算の結了等,,,2015-10-05,1,,,,,ピーエフアイフチュウシミンカイカンチュウオウトショカン,0
353,2020001103079,登記記録の閉鎖等,0,2023-08-10,2023-08-08,株式会社エムエースター,,株式会社,東京都,あきる野市,小川東２丁目９番地１９,,13,228,1970822,,,2023-08-08,清算の結了等,,,2015-10-05,1,,,,,エムエースター,0
355,2020001138348,登記記録の閉鎖等,0,2023-08-10,2023-07-27,ラウンドシステム株式会社,,株式会社,神奈川県,横浜市鶴見区,向井町２丁目６８番地４鶴見ダイカンプラザＩＩ４０３号,00121170,14,101,2300037,,,2023-07-27,清算の結了等,,,2020-10-28,1,,,,,ラウンドシステム,0
375,2021005009725,登記記録の閉鎖等,0,2023-08-10,2023-08-08,ＮＰＯ法人アール・ド・ヴィーヴル,,その他の設立登記法人,神奈川県,小田原市,久野４０３番地の１７,,14,206,2500055,,,2023-08-08,清算の結了等,,,2015-10-05,1,,,,,アールドブィーブル,0
379,2030001023854,登記記録の閉鎖等,0,2023-08-10,2023-07-11,株式会社加商,,株式会社,埼玉県,所沢市,堀之内６６０番地の１,,11,208,3591165,,,2023-07-11,清算の結了等,,,2015-10-05,1,,,,,カショウ,0
382,2030001106428,登記記録の閉鎖等,0,2023-08-10,2023-07-18,株式会社ｒ３ｄ,,株式会社,埼玉県,三郷市,彦成３丁目１１番７－４０４号,,11,237,3410003,,,2023-07-18,清算の結了等,,,2015-10-05,1,,,,,アールスリーディー,0
390,2040002067536,登記記録の閉鎖等,0,2023-08-10,2023-07-18,有限会社畠建工業,,有限会社,千葉県,木更津市,請西南４丁目３０番地９,,12,206,2920807,,,2023-07-18,清算の結了等,,,2015-10-05,1,,,,,ハタケンコウギョウ,0
396,2050001012517,登記記録の閉鎖等,0,2023-08-10,2023-07-14,株式会社タカノ,,株式会社,茨城県,土浦市,右籾２３１６－４４,00022080,08,203,3000837,,,2023-07-14,清算の結了等,,,2015-10-05,1,,,,,タカノ,0
404,2070001020393,登記記録の閉鎖等,0,2023-08-10,2023-08-04,株式会社メディカルゲート,,株式会社,群馬県,太田市,尾島町１２７番地２,,10,205,3700401,,,2023-08-04,清算の結了等,,,2015-10-05,1,,,,,メディカルゲート,0
408,2080002002332,登記記録の閉鎖等,0,2023-08-10,2023-08-07,有限会社三徳設備,,有限会社,静岡県,静岡市葵区,上伝馬２０番３２号,,22,101,4200943,,,2023-08-07,清算の結了等,,,2015-10-05,1,,,,,サントクセツビ,0
419,2110002001792,登記記録の閉鎖等,0,2023-08-10,2023-08-02,有限会社川島建築,,有限会社,新潟県,新潟市西区,新通字荒戸３２６１番地１,,15,107,9502035,,,2023-08-02,清算の結了等,,,2015-10-05,1,,,,,カワシマケンチク,0
423,2110005002004,登記記録の閉鎖等,0,2023-08-10,2023-08-02,医療法人社団耳鼻咽喉科坂爪医院,,その他の設立登記法人,新潟県,新潟市秋葉区,新津本町１丁目６番４号,,15,105,9560864,,,2023-08-02,清算の結了等,,,2015-10-05,1,,,,,サカヅメイイン,0
434,2120103004058,登記記録の閉鎖等,0,2023-08-10,2023-08-08,イハラ商事合同会社,,合同会社,大阪府,羽曳野市,島泉８丁目２番２号,,27,222,5830881,,,2023-08-08,清算の結了等,,,2021-02-26,1,,,,,イハラショウジ,0
442,2130001034239,登記記録の閉鎖等,0,2023-08-10,2023-08-02,株式会社システムワーク,,株式会社,京都府,宇治市,菟道平町１５番地１５,00047314,26,204,6110000,,,2023-08-02,清算の結了等,,,2015-10-05,1,,,,,システムワーク,0
472,2180002056459,登記記録の閉鎖等,0,2023-08-10,2023-08-07,有限会社ランドロード,,有限会社,愛知県,名古屋市千種区,園山町１丁目３８番地,,23,101,4640812,,,2023-08-07,清算の結了等,,,2015-10-05,1,,,,,ランドロード,0
474,2180002089112,登記記録の閉鎖等,0,2023-08-10,2023-08-01,有限会社アイ薬局,,有限会社,愛知県,津島市,天王通り６丁目３番地,,23,208,4960807,,,2023-08-01,合併による解散等,4180001096314,令和５年８月１日愛知県津島市天王通り六丁目３番地株式会社浅井藥局（4180001096314）に合併し解散,2015-10-05,1,,,,,アイヤッキョク,0
489,2190002010968,登記記録の閉鎖等,0,2023-08-10,2023-08-01,有限会社ジオ・トーカイ,,有限会社,三重県,度会郡度会町,牧戸９９８番地,,24,470,5162104,,,2023-08-01,清算の結了等,,,2015-10-05,1,,,,,ジオトーカイ,0
492,2200002000257,登記記録の閉鎖等,0,2023-08-10,2023-08-08,有限会社クリーンサービス浄心会,,有限会社,岐阜県,岐阜市,太郎丸新屋敷９９番地,,21,201,5012576,,,2023-08-08,清算の結了等,,,2015-10-05,1,,,,,クリーンサービスジョウシンカイ,0
495,2220001013365,登記記録の閉鎖等,0,2023-08-10,2023-08-03,古川樹脂株式会社,,株式会社,石川県,加賀市,別所町漆器団地８番地５,,17,206,9220274,,,2023-08-03,清算の結了等,,,2015-10-05,1,,,,,フルカワジュシ,0
502,2240001046256,登記記録の閉鎖等,0,2023-08-10,2023-08-01,西部環境発電株式会社,,株式会社,広島県,広島市西区,己斐本町３丁目８番１０号,,34,104,7330812,,,2023-08-01,合併による解散等,1240001046257,令和５年８月１日広島市西区己斐本町三丁目８番１０号環境発電株式会社（1240001046257）に合併し解散,2015-10-05,1,,,,,セイブカンキョウハツデン,0
505,2290001051763,登記記録の閉鎖等,0,2023-08-10,2023-07-28,株式会社保険プラスワン,,株式会社,福岡県,久留米市,東町１番地１１,,40,203,8300032,,,2023-07-28,清算の結了等,,,2015-10-05,1,,,,,ホケンプラスワン,0
516,2290002007863,登記記録の閉鎖等,0,2023-08-10,2023-07-31,有限会社鐘千,,有限会社,福岡県,福岡市早良区,原５丁目２番２号,,40,137,8140022,,,2023-07-31,清算の結了等,,,2015-10-05,1,,,,,カネセン,0
543,2380002035491,登記記録の閉鎖等,0,2023-08-10,2023-08-07,有限会社杉沢林産加工所,,有限会社,福島県,南会津郡只見町,大字長浜字杉沢１２４５番地,,07,367,9680442,,,2023-08-07,清算の結了等,,,2015-10-05,1,,,,,スギサワリンサンカコウショ,0
548,2420001012306,登記記録の閉鎖等,0,2023-08-10,2023-07-28,株式会社豊農園,,株式会社,青森県,上北郡六ヶ所村,大字倉内字道ノ上１２８番地１,,02,411,0393215,,,2023-07-28,清算の結了等,,,2015-10-05,1,,,,,ユタカノウエン,0
555,2460101006906,登記記録の閉鎖等,0,2023-08-10,2023-08-01,Ｏｕｒ　Ｓｔａｒｓ株式会社,,株式会社,北海道,広尾郡大樹町,字芽武６９０番地４,,01,641,0892113,,,2023-08-01,合併による解散等,5010401080445,令和５年８月１日北海道広尾郡大樹町字芽武６９０番地４インターステラテクノロジズ株式会社（5010401080445）に合併し解散,2021-02-02,1,,,,,アワースターズ,0
573,3010001206022,登記記録の閉鎖等,0,2023-08-10,2023-08-01,Ｏ＆Ｈ株式会社,,株式会社,東京都,中央区,佃１丁目１１番９号,,13,102,1040051,,,2023-08-01,合併による解散等,8010701012814,令和５年８月１日東京都中央区佃一丁目１１番９号Ａｓｉａ　ＬＮＧ　Ｈｕｂ株式会社（8010701012814）に合併し解散,2019-12-11,1,,,,,オーアンドエイチ,0
612,3010902014936,登記記録の閉鎖等,0,2023-08-10,2023-08-08,有限会社宮田屋,,有限会社,東京都,世田谷区,北沢２丁目３４番８号,,13,112,1550031,,,2023-08-08,清算の結了等,,,2015-10-05,1,,,,,ミヤタヤ,0
623,3011403000839,登記記録の閉鎖等,0,2023-08-10,2023-08-07,合資会社佐々木電機商会,,合資会社,東京都,板橋区,徳丸３丁目３８番３号,,13,119,1750083,,,2023-08-07,清算の結了等,,,2015-10-05,1,,,,,ササキデンキショウカイササキデンキショウカイ,0
627,3011801009779,登記記録の閉鎖等,0,2023-08-10,2023-08-08,千葉鉄工株式会社,,株式会社,東京都,足立区,入谷７丁目２０番１号,,13,121,1210836,,,2023-08-08,清算の結了等,,,2015-10-05,1,,,,,チバテッコウ,0
634,3013201000806,登記記録の閉鎖等,0,2023-08-10,2023-08-08,エイコー産業株式会社,,株式会社,神奈川県,三浦郡葉山町,一色９２０番地ＳａｋｕｒａＧｒａｃｅ１０１号室,,14,301,2400111,,,2023-08-08,清算の結了等,,,2015-10-05,1,,,,,エイコーサンギョウ,0
639,3013305001997,登記記録の閉鎖等,0,2023-08-10,2023-08-02,一般社団法人女性とこどもの漢方学術院,,その他の設立登記法人,東京都,豊島区,池袋２丁目１９番２号,,13,116,1710014,,,2023-08-02,清算の結了等,,,2015-10-05,1,,,,,ジョセイトコドモノカンポウガクジュツイン,0
640,3020001021387,登記記録の閉鎖等,0,2023-08-10,2023-07-27,早川企画株式会社,,株式会社,神奈川県,横浜市港北区,樽町４丁目１７番４３号,,14,109,2220001,,,2023-07-27,清算の結了等,,,2015-10-05,1,,,,,ハヤカワキカク,0
648,3020002078955,登記記録の閉鎖等,0,2023-08-10,2023-07-27,有限会社Ｒｅ　ＥＤＩＴ,,有限会社,神奈川県,横浜市戸塚区,深谷町８４２,,14,110,2450067,,,2023-07-27,清算の結了等,,,2015-10-05,1,,,,,,0
669,3040002047297,登記記録の閉鎖等,0,2023-08-10,2023-07-18,有限会社電気のちばでん,,有限会社,千葉県,松戸市,栄町５丁目２７４番地の２,,12,207,2710062,,,2023-07-18,清算の結了等,,,2015-10-05,1,,,,,デンキノチバデン,0
679,3080101010284,登記記録の閉鎖等,0,2023-08-10,2023-08-08,株式会社アイシス,,株式会社,静岡県,富士市,中央町３丁目２番１号シゲノブビルＩ３階,00117215,22,210,4170052,,,2023-08-08,清算の結了等,,,2015-10-05,1,,,,,アイシス,0
689,3120001089134,登記記録の閉鎖等,0,2023-08-10,2023-08-03,株式会社ペペローニ,,株式会社,兵庫県,尼崎市,東園田町３丁目１３番地の１８,,28,202,6610953,,,2023-08-03,清算の結了等,,,2015-10-05,1,,,,,ペペローニ,0
700,3120101002673,登記記録の閉鎖等,0,2023-08-10,2023-08-08,株式会社堺集配センター,,株式会社,大阪府,堺市南区,和田２６７番地,,27,145,5900152,,,2023-08-08,清算の結了等,,,2015-10-05,1,,,,,サカイシュウハイセンター,0
701,3120101057511,登記記録の閉鎖等,0,2023-08-10,2023-08-03,メゾンハナビ株式会社,,株式会社,大阪府,堺市中区,深井清水町２０８０番地１５,,27,142,5998273,,,2023-08-03,清算の結了等,,,2017-12-11,1,,,,,メゾンハナビ,0
723,3140003012736,登記記録の閉鎖等,0,2023-08-10,2023-08-04,合同会社カレンビルド,,合同会社,兵庫県,明石市,松が丘１丁目４－１６－３０８号,,28,203,6730862,,,2023-08-04,清算の結了等,,,2018-01-22,1,,,,,カレンビルド,0
738,3180001106817,登記記録の閉鎖等,0,2023-08-10,2023-08-08,桂株式会社,,株式会社,愛知県,名古屋市守山区,向台２丁目１７０４番地,,23,113,4630036,,,2023-08-08,清算の結了等,,,2015-10-05,1,,,,,カツラ,0
741,3180001141665,登記記録の閉鎖等,0,2023-08-10,2023-08-07,ＣＵＲＥＬＯビューティーラボ株式会社,,株式会社,愛知県,名古屋市中区,栄３丁目２番３号名古屋日興證券ビル４階,,23,106,4600008,,,2023-08-07,清算の結了等,,,2020-06-22,1,,,,,キュアロビューティーラボ,0
747,3180003011214,登記記録の閉鎖等,0,2023-08-10,2023-08-07,合資会社河文商店,,合資会社,愛知県,犬山市,大字犬山字南古券１７０番地,,23,215,4840084,,,2023-08-07,清算の結了等,,,2015-10-05,1,,,,,カワブンショウテン,0
751,3180301026269,登記記録の閉鎖等,0,2023-08-10,2023-08-01,株式会社未来,,株式会社,愛知県,豊橋市,下地町字長池５３番地,,23,201,4400086,,,2023-08-01,清算の結了等,,,2015-10-05,1,,,,,ミライ,0
760,3200002004372,登記記録の閉鎖等,0,2023-08-10,2023-08-08,有限会社満豊,,有限会社,岐阜県,岐阜市,東高岩町１９番地,,21,201,5008106,,,2023-08-08,清算の結了等,,,2015-10-05,1,,,,,マンポウ,0
765,3230001014304,登記記録の閉鎖等,0,2023-08-10,2023-07-18,株式会社鶴物産,,株式会社,千葉県,長生郡一宮町,一宮２５９８番地,,12,421,2994301,,,2023-07-18,清算の結了等,,,2015-10-05,1,,,,,ツルブッサン,0
767,3240001026546,登記記録の閉鎖等,0,2023-08-10,2023-08-01,株式会社ホンダアーバン,,株式会社,広島県,呉市,広町田１丁目２番１８号,,34,202,7370104,,,2023-08-01,合併による解散等,6240001026543,令和５年８月１日広島県呉市広古新開二丁目１３番８号株式会社ホンダカーズ中央広島（6240001026543）に合併し解散,2015-10-05,1,,,,,ホンダアーバン,0
774,3260005008761,登記記録の閉鎖等,0,2023-08-10,2023-08-02,真庭設計連合協同組合,,その他の設立登記法人,岡山県,真庭市,下市瀬１０７５番地の３,,33,214,7193143,,,2023-08-02,清算の結了等,,,2015-10-05,1,,,,,,0
780,3290001045509,登記記録の閉鎖等,0,2023-08-10,2023-07-31,株式会社田中商店,,株式会社,福岡県,飯塚市,東徳前４番８号,,40,205,8200032,,,2023-07-31,清算の結了等,,,2015-10-05,1,,,,,,0
801,3370002014025,登記記録の閉鎖等,0,2023-08-10,2023-08-02,有限会社よきち,,有限会社,宮城県,仙台市太白区,八木山緑町１９－１８,,04,104,9820832,,,2023-08-02,清算の結了等,,,2015-10-05,1,,,,,ヨキチ,0
802,3370002018918,登記記録の閉鎖等,0,2023-08-10,2023-08-02,有限会社ｉ’ｚ　ｆｉｔｔｉｎｇｓ,,有限会社,宮城県,仙台市宮城野区,原町５丁目１３番７号,,04,102,9830841,,,2023-08-02,清算の結了等,,,2015-10-05,1,,,,,,0
815,3460101005320,登記記録の閉鎖等,0,2023-08-10,2023-08-04,株式会社十勝均整社,00091201,株式会社,北海道,帯広市,西十八条北１丁目１９番５９号,,01,207,0800048,,,2023-08-04,清算の結了等,,,2015-10-05,1,,,,,トカチキンセイシャ,0
846,4010501020491,登記記録の閉鎖等,0,2023-08-10,2023-08-07,株式会社オクティヴ,,株式会社,東京都,台東区,寿１丁目１１番６号ＳＭＫビル,,13,106,1110042,,,2023-08-07,清算の結了等,,,2015-10-05,1,,,,,,0
849,4010501045679,登記記録の閉鎖等,0,2023-08-10,2023-08-07,株式会社ＢＬＡＳＴ,,株式会社,東京都,台東区,浅草橋３丁目２番１号,,13,106,1110053,,,2023-08-07,清算の結了等,,,2020-05-11,1,,,,,ブラスト,0
870,4011301018189,登記記録の閉鎖等,0,2023-08-10,2023-08-01,株式会社大滝税研,,株式会社,東京都,杉並区,西荻北４丁目１３番１１号,,13,115,1670042,,,2023-08-01,清算の結了等,,,2015-10-05,1,,,,,オオタキゼイケン,0
877,4012403004390,登記記録の閉鎖等,0,2023-08-10,2023-07-18,合同会社ＴＲＡＮＳＩＡ,,合同会社,東京都,港区,赤坂２丁目１４番５号Ｄａｉｗａ赤坂ビル７階,,13,103,1070052,,,2023-07-18,清算の結了等,,,2020-06-15,1,,,,,トランジア,0
878,4012702013877,登記記録の閉鎖等,0,2023-08-10,2023-07-26,セイデン有限会社,,有限会社,東京都,東村山市,美住町１丁目４番地１グリーンタウン美住一番街１９－２２３,,13,213,1890023,,,2023-07-26,清算の結了等,,,2015-10-05,1,,,,,セイデン,0
892,4020002098333,登記記録の閉鎖等,0,2023-08-10,2023-07-28,有限会社南陽商会,,有限会社,神奈川県,川崎市川崎区,鋼管通１丁目１８番２５号,,14,131,2100852,,,2023-07-28,清算の結了等,,,2015-10-05,1,,,,,ナンヨウショウカイ,0
908,4030002003936,登記記録の閉鎖等,0,2023-08-10,2023-07-14,有限会社北村電機工業所,,有限会社,埼玉県,さいたま市浦和区,仲町３丁目２番２４号,,11,107,3300062,,,2023-07-14,清算の結了等,,,2015-10-05,1,,,,,キタムラデンキコウギョウショ,0
909,4030002077435,登記記録の閉鎖等,0,2023-08-10,2023-07-13,有限会社洋信,,有限会社,埼玉県,入間郡三芳町,大字上富１７８２番地２,,11,324,3540045,,,2023-07-13,清算の結了等,,,2015-10-05,1,,,,,ヨウシン,0
910,4030002111152,登記記録の閉鎖等,0,2023-08-10,2023-07-18,有限会社金井製作所,,有限会社,埼玉県,川口市,鳩ヶ谷緑町２丁目１２番地の２,,11,203,3340015,,,2023-07-18,清算の結了等,,,2015-10-05,1,,,,,カナイセイサクショ,0
911,4030002118585,登記記録の閉鎖等,0,2023-08-10,2023-07-13,有限会社アドバンス・プロジェクト,,有限会社,埼玉県,熊谷市,原島１２８１番地５,,11,202,3600811,,,2023-07-13,清算の結了等,,,2015-10-05,1,,,,,アドバンスプロジェクト,0
915,4030005007959,登記記録の閉鎖等,0,2023-08-10,2023-07-28,医療法人社団久誠会,,その他の設立登記法人,埼玉県,春日部市,緑町１丁目１４番１０号,,11,214,3440063,,,2023-07-28,清算の結了等,,,2015-10-05,1,,,,,キュウセイカイ,0
916,4040001027349,登記記録の閉鎖等,0,2023-08-10,2023-07-18,株式会社パリビジョン,,株式会社,千葉県,市川市,市川１丁目７番１号,,12,203,2720034,,,2023-07-18,清算の結了等,,,2015-10-05,1,,,,,パリビジョン,0
933,4080001016091,登記記録の閉鎖等,0,2023-08-10,2023-08-07,株式会社いけがや会館美萠庵,,株式会社,静岡県,焼津市,上新田３２４番地の１,,22,212,4210206,,,2023-08-07,清算の結了等,,,2015-10-05,1,,,,,イケガヤカイカンビホウアン,0
961,4120002058970,登記記録の閉鎖等,0,2023-08-10,2023-08-08,有限会社Ｅｎｔｅｒｔａｉｎｍｅｎｔ　Ｏｆ　Ａｌｌ,,有限会社,大阪府,大阪市港区,田中１丁目１５番２０号ウィステリアＩＩ３０６号,00127677,27,107,5520005,,,2023-08-08,清算の結了等,,,2015-10-05,1,,,,,エンターテインメントオブオール,0
986,4140002003784,登記記録の閉鎖等,0,2023-08-10,2023-08-04,有限会社マルタツ酒店,,有限会社,兵庫県,神戸市灘区,新在家南町５丁目４番１０号,,28,102,6570864,,,2023-08-04,清算の結了等,,,2015-10-05,1,,,,,マルタツサケテン,0
1025,4240003004499,登記記録の閉鎖等,0,2023-08-10,2023-08-04,合同会社エヌ・ケイ商会＆エヌ・ケイタクシー,,合同会社,広島県,広島市安佐北区,三入６丁目９番３３－２号,,34,106,7310211,,,2023-08-04,清算の結了等,,,2019-12-13,1,,,,,エヌケイショウカイエヌケイタクシー,0
1032,4280002000801,登記記録の閉鎖等,0,2023-08-10,2023-08-04,有限会社古志原米穀店,,有限会社,島根県,松江市,古志原５丁目３番１号,,32,201,6900012,,,2023-08-04,清算の結了等,,,2015-10-05,1,,,,,コシバラベイコクテン,0
1060,4370002019122,登記記録の閉鎖等,0,2023-08-10,2023-08-02,有限会社ＥＥエンジニアリング,,有限会社,宮城県,仙台市泉区,寺岡３丁目２番地の４,,04,105,9813204,,,2023-08-02,清算の結了等,,,2015-10-05,1,,,,,イーイーエンジニアリング,0
1074,4460302001927,登記記録の閉鎖等,0,2023-08-10,2023-08-10,有限会社北見保険管理事務所,,有限会社,北海道,北見市,小泉４６６番地の１２,,01,208,0900001,,,2023-08-10,清算の結了等,,,2015-10-05,1,,,,,,0
1081,4500002000968,登記記録の閉鎖等,0,2023-08-10,2023-08-09,いずみ商事有限会社,,有限会社,愛媛県,松山市,南斎院町１４３３番地,,38,201,7918032,,,2023-08-09,清算の結了等,,,2015-10-05,1,,,,,イズミショウジ,0
1082,4500002008210,登記記録の閉鎖等,0,2023-08-10,2023-08-09,有限会社武内商店,,有限会社,愛媛県,伊予市,三秋１７８番地,,38,210,7993124,,,2023-08-09,清算の結了等,,,2015-10-05,1,,,,,タケウチショウテン,0
1085,5010001153048,登記記録の閉鎖等,0,2023-08-10,2023-07-18,株式会社Ｋ＆Ｉグループ,,株式会社,千葉県,柏市,花野井１８５３番地の１４,,12,217,2770812,,,2023-07-18,清算の結了等,,,2015-10-05,1,,,,,ケイアンドアイグループ,0
1096,5010101002022,登記記録の閉鎖等,0,2023-08-10,2023-08-09,株式会社造家工房,,株式会社,東京都,八王子市,千人町３丁目１７番４号,,13,201,1930835,,,2023-08-09,清算の結了等,,,2015-10-05,1,,,,,ゾウケコウボウ,0
1104,5010401107256,登記記録の閉鎖等,0,2023-08-10,2023-08-01,株式会社ＫＭＪ,,株式会社,東京都,千代田区,岩本町２丁目１１番７号,,13,101,1010032,,,2023-08-01,清算の結了等,,,2015-10-05,1,,,,,ケイエムジェイ,0
1137,5011303000458,登記記録の閉鎖等,0,2023-08-10,2023-08-02,合資会社アプレ・サンク,,合資会社,東京都,杉並区,上荻３丁目４番９号,,13,115,1670043,,,2023-08-02,清算の結了等,,,2015-10-05,1,,,,,,0
1140,5011601019027,登記記録の閉鎖等,0,2023-08-10,2023-07-18,株式会社グローバルスタンス,,株式会社,東京都,港区,西新橋１丁目１９番６号,,13,103,1050003,,,2023-07-18,清算の結了等,,,2015-10-05,1,,,,,,0
1168,5021005006216,登記記録の閉鎖等,0,2023-08-10,2023-08-08,雨坪生産森林組合,,その他の設立登記法人,神奈川県,南足柄市,雨坪４９４番地,,14,217,2500134,,,2023-08-08,清算の結了等,,,2015-10-05,1,,,,,アマツボ,0
1182,5040001028206,登記記録の閉鎖等,0,2023-08-10,2023-07-18,千葉ハウス株式会社,,株式会社,千葉県,鎌ケ谷市,南初富６丁目１番７号,,12,224,2730123,,,2023-07-18,清算の結了等,,,2015-10-05,1,,,,,チバハウス,0
1213,5110002026465,登記記録の閉鎖等,0,2023-08-10,2023-08-03,有限会社高野金型,,有限会社,新潟県,糸魚川市,大字桂５６８番地３,,15,216,9491337,,,2023-08-03,清算の結了等,,,2015-10-05,1,,,,,タカノカナガタ,0
1231,5140001054786,登記記録の閉鎖等,0,2023-08-10,2023-08-04,株式会社けんくん,,株式会社,兵庫県,尼崎市,南武庫之荘３丁目１７番８号,,28,202,6610033,,,2023-08-04,清算の結了等,,,2015-10-05,1,,,,,ケンクン,0
1240,5160001009747,登記記録の閉鎖等,0,2023-08-10,2023-08-08,株式会社イチカワ,,株式会社,滋賀県,東近江市,市子殿町１６９番地の１,,25,213,5291537,,,2023-08-08,清算の結了等,,,2015-10-05,1,,,,,イチカワ,0
1266,5190001027580,登記記録の閉鎖等,0,2023-08-10,2023-08-01,松井鋳造株式会社,,株式会社,三重県,鈴鹿市,上田町１３５３番地１,,24,207,5130018,,,2023-08-01,合併による解散等,7190001017225,令和５年８月１日三重県四日市市東日野町４３番地１中部産商株式会社（7190001017225）に合併し解散,2020-08-13,1,,,,,マツイチュウゾウ,0
1286,5250002007212,登記記録の閉鎖等,0,2023-08-10,2023-08-01,有限会社千代田保険事務所,,有限会社,山口県,宇部市,松山町２丁目２番３号,,35,202,7550026,,,2023-08-01,清算の結了等,,,2015-10-05,1,,,,,チヨダホケンジムショ,0
1295,5290001061090,登記記録の閉鎖等,0,2023-08-10,2023-07-18,株式会社和光商事,,株式会社,東京都,港区,南青山２丁目２番１５号ウィン青山１２１４号,,13,103,1070062,,,2023-07-18,清算の結了等,,,2015-10-05,1,,,,,ワコウショウジ,0
1306,5320202000793,登記記録の閉鎖等,0,2023-08-10,2023-08-04,株式会社司興業,,株式会社,大分県,臼杵市,大字臼杵２の１０７番地の３２７,,44,206,8750041,,,2023-08-04,清算の結了等,,,2015-10-05,1,,,,,,0
1372,6010401100821,登記記録の閉鎖等,0,2023-08-10,2023-07-18,アライヴ・コンサルティング株式会社,,株式会社,東京都,港区,麻布十番２丁目１９番１０号,,13,103,1060045,,,2023-07-18,清算の結了等,,,2015-10-05,1,,,,,,0
1374,6010401125455,登記記録の閉鎖等,0,2023-08-10,2023-07-18,株式会社大和,,株式会社,東京都,港区,浜松町２丁目２番１５号浜松町ダイヤビル２Ｆ,,13,103,1050013,,,2023-07-18,清算の結了等,,,2016-06-29,1,,,,,ダイワ,0
1395,6010602015067,登記記録の閉鎖等,0,2023-08-10,2023-08-03,有限会社なかや紙工,,有限会社,東京都,墨田区,墨田２丁目４０番６号,,13,107,1310031,,,2023-08-03,清算の結了等,,,2015-10-05,1,,,,,ナカヤシコウ,0
1427,6011802027835,登記記録の閉鎖等,0,2023-08-10,2023-08-07,有限会社プリンスアイズ,,有限会社,東京都,足立区,西竹の塚２丁目９番１９,,13,121,1210822,,,2023-08-07,清算の結了等,,,2015-10-05,1,,,,,プリンスアイズ,0
1453,6021002059133,登記記録の閉鎖等,0,2023-08-10,2023-08-08,有限会社ノエビア新神奈川販社,,有限会社,神奈川県,平塚市,中原３丁目８番地２号,,14,203,2540075,,,2023-08-08,清算の結了等,,,2015-10-05,1,,,,,,0
1479,6040002092976,登記記録の閉鎖等,0,2023-08-10,2023-07-18,パール縫製有限会社,,有限会社,千葉県,我孫子市,布佐３１９９番地の７,,12,222,2701101,,,2023-07-18,清算の結了等,,,2015-10-05,1,,,,,,0
1488,6070002035362,登記記録の閉鎖等,0,2023-08-10,2023-08-07,有限会社神田技研,,有限会社,群馬県,沼田市,利根町高戸谷５４６番地１,,10,206,3780321,,,2023-08-07,清算の結了等,,,2015-10-05,1,,,,,カンダギケン,0
1494,6080102012310,登記記録の閉鎖等,0,2023-08-10,2023-08-07,有限会社敬愛指圧院,,有限会社,静岡県,駿東郡清水町,長沢１３５番地の３,,22,341,4110905,,,2023-08-07,清算の結了等,,,2015-10-05,1,,,,,ケイアイシアツイン,0
1495,6080401021193,登記記録の閉鎖等,0,2023-08-10,2023-08-09,株式会社ｔｈｒｅｅ　ＰＳ,,株式会社,静岡県,浜松市中区,砂山町３２９番地の１,,22,131,4300926,,,2023-08-09,清算の結了等,,,2015-12-02,1,,,,,スリーピーエス,0
1499,6100002026176,登記記録の閉鎖等,0,2023-08-10,2023-08-03,有限会社エスワイ電子,,有限会社,長野県,北安曇郡松川村,５５５０番地,,20,482,3998501,,,2023-08-03,清算の結了等,,,2015-10-05,1,,,,,エスワイデンシ,0
1504,6110002011177,登記記録の閉鎖等,0,2023-08-10,2023-08-03,有限会社石林住研,,有限会社,新潟県,新潟市西蒲区,曽根７３７番地,,15,108,9590422,,,2023-08-03,清算の結了等,,,2015-10-05,1,,,,,イシハヤシジュウケン,0
1539,6140002037640,登記記録の閉鎖等,0,2023-08-10,2023-08-03,有限会社リー・コーポレーション,,有限会社,兵庫県,神戸市西区,井吹台北町１丁目１番地の９,,28,111,6512244,,,2023-08-03,清算の結了等,,,2015-10-05,1,,,,,リーコーポレーション,0
1551,6180002065489,登記記録の閉鎖等,0,2023-08-10,2023-08-04,有限会社落合製作所,,有限会社,愛知県,春日井市,美濃町２丁目１０５番地の２,,23,206,4860917,,,2023-08-04,清算の結了等,,,2015-10-05,1,,,,,オチアイセイサクショ,0
1552,6180002078623,登記記録の閉鎖等,0,2023-08-10,2023-08-04,有限会社加藤畳店,,有限会社,愛知県,一宮市,木曽川町黒田字宝光寺２６番地の２,,23,203,4930001,,,2023-08-04,清算の結了等,,,2015-10-05,1,,,,,カトウタタミテン,0
1563,6220002014383,登記記録の閉鎖等,0,2023-08-10,2023-08-03,有限会社作間プロパン商会,,有限会社,石川県,鹿島郡中能登町,高畠る部２番地,,17,407,9291635,,,2023-08-03,清算の結了等,,,2015-10-05,1,,,,,サクマプロパンショウカイ,0
1570,6240002036649,登記記録の閉鎖等,0,2023-08-10,2023-08-07,有限会社セイスイ,,有限会社,広島県,廿日市市,串戸３丁目２３番８号,,34,213,7380033,,,2023-08-07,清算の結了等,,,2015-10-05,1,,,,,セイスイ,0
1611,6380005012146,登記記録の閉鎖等,0,2023-08-10,2023-08-04,特定非営利活動法人ひと・まちネットワーク郡山,,その他の設立登記法人,福島県,郡山市,本町２丁目２番５号,,07,203,9638871,,,2023-08-04,清算の結了等,,,2019-04-16,1,,,,,ヒトマチネットワークコオリヤマ,0
1626,6440001001212,登記記録の閉鎖等,0,2023-08-10,2023-08-07,株式会社田澤商事,,株式会社,北海道,函館市,深堀町４１番２１号,,01,202,0420941,,,2023-08-07,清算の結了等,,,2015-10-05,1,,,,,タザワショウジ,0
1640,7010001187853,登記記録の閉鎖等,0,2023-08-10,2023-08-01,日本協創ＡＣ３株式会社,,株式会社,東京都,港区,港南２丁目１５番３号,,13,103,1080075,,,2023-08-01,合併による解散等,1010401169465,令和５年８月１日東京都港区港南二丁目１５番３号ＡＸＳホールディングス株式会社（1010401169465）に合併し解散,2017-11-22,1,,,,,ニホンキョウソウエーシースリー,0
1660,7010405013192,登記記録の閉鎖等,0,2023-08-10,2023-07-18,Ａｒｃａｄｉａ一般社団法人,,その他の設立登記法人,東京都,港区,虎ノ門５丁目１番４号グローバル・ソリューションズ・コンサルティング株式会社内,,13,103,1050001,,,2023-07-18,清算の結了等,,,2015-10-05,1,,,,,アルカディア,0
1668,7010802004612,登記記録の閉鎖等,0,2023-08-10,2023-08-04,グローリー・シー・ブイ・エス有限会社,,有限会社,東京都,大田区,羽田６丁目１番２号,,13,111,1440043,,,2023-08-04,清算の結了等,,,2015-10-05,1,,,,,グローリーシーブイエス,0
1670,7010901012482,登記記録の閉鎖等,0,2023-08-10,2023-08-02,株式会社ユニック,,株式会社,東京都,世田谷区,大蔵５丁目９番１０号,,13,112,1570074,,,2023-08-02,清算の結了等,,,2015-10-05,1,,,,,,0
1671,7010901036894,登記記録の閉鎖等,0,2023-08-10,2023-07-26,イマジネント株式会社,,株式会社,東京都,世田谷区,池尻４丁目１０番１－Ｅ６１４号,,13,112,1540001,,,2023-07-26,清算の結了等,,,2015-10-13,1,,,,,イマジネント,0
1687,7011301003915,登記記録の閉鎖等,0,2023-08-10,2023-08-01,ダイエーリース株式会社,,株式会社,東京都,杉並区,善福寺２丁目２４番１８号,,13,115,1670041,,,2023-08-01,清算の結了等,,,2015-10-05,1,,,,,ダイエーリース,0
1688,7011302007007,登記記録の閉鎖等,0,2023-08-10,2023-08-01,日本車輌管理有限会社,,有限会社,東京都,杉並区,善福寺２丁目２４番１８号,,13,115,1670041,,,2023-08-01,清算の結了等,,,2015-10-05,1,,,,,ニホンシャリョウカンリ,0
1689,7011305001824,登記記録の閉鎖等,0,2023-08-10,2023-07-26,特定非営利活動法人統合療育ステーション,,その他の設立登記法人,東京都,杉並区,久我山４丁目４２番２９号,,13,115,1680082,,,2023-07-26,清算の結了等,,,2015-10-05,1,,,,,トウゴウリョウイクステーション,0
1700,7012401015965,登記記録の閉鎖等,0,2023-08-10,2023-08-04,株式会社ｊｉｎ,,株式会社,東京都,江東区,大島６丁目１２番３号,,13,108,1360072,,,2023-08-04,清算の結了等,,,2015-10-05,1,,,,,ジン,0
1730,7021002023526,登記記録の閉鎖等,0,2023-08-10,2023-08-07,有限会社ヒカリ住建,,有限会社,神奈川県,相模原市南区,下溝９３６番地の２,,14,153,2520335,,,2023-08-07,清算の結了等,,,2015-10-05,1,,,,,ヒカリジュウケン,0
1749,7030002025705,登記記録の閉鎖等,0,2023-08-10,2023-07-18,有限会社永和興産,,有限会社,埼玉県,蕨市,塚越１丁目３番１号,,11,223,3350002,,,2023-07-18,清算の結了等,,,2015-10-05,1,,,,,エイワコウサン,0
1753,7040001010896,登記記録の閉鎖等,0,2023-08-10,2023-07-18,株式会社ヒグレインターナショナル,,株式会社,千葉県,千葉市美浜区,幕張西２丁目３番１号,,12,106,2610026,,,2023-07-18,清算の結了等,,,2015-10-05,1,,,,,ヒグレインターナショナル,0
1754,7040001024120,登記記録の閉鎖等,0,2023-08-10,2023-08-07,株式会社ダイナミックス,,株式会社,千葉県,船橋市,本町６丁目３番１７号,,12,204,2730005,,,2023-08-07,合併による解散等,6120001126850,令和５年８月１日大阪市中央区西心斎橋二丁目２番７号株式会社ＴＭＳ（6120001126850）に合併し解散,2015-10-05,1,,,,,ダイナミックス,0
1767,7050002028532,登記記録の閉鎖等,0,2023-08-10,2023-08-08,有限会社セイコウ,,有限会社,東京都,多摩市,連光寺１丁目１９番地の１,,13,224,2060021,,,2023-08-08,清算の結了等,,,2015-10-05,1,,,,,セイコウ,0
1772,7070002009340,登記記録の閉鎖等,0,2023-08-10,2023-08-04,桂建設有限会社,,有限会社,群馬県,高崎市,中居町３丁目１４番地１１,,10,202,3700852,,,2023-08-04,清算の結了等,,,2015-10-05,1,,,,,カツラケンセツ,0
1781,7120001043533,登記記録の閉鎖等,0,2023-08-10,2023-08-08,株式会社サニーエステート,,株式会社,大阪府,大阪市西区,川口３丁目１１番１０号,,27,106,5500021,,,2023-08-08,清算の結了等,,,2015-10-05,1,,,,,サニーエステート,0
1813,7150002004606,登記記録の閉鎖等,0,2023-08-10,2023-08-08,有限会社トートクサービス,,有限会社,奈良県,奈良市,上深川町７６１番地,,29,201,6320102,,,2023-08-08,合併による解散等,5120001045804,令和５年８月１日大阪市西区西本町２－３－１０東洋特殊鋼業株式会社（5120001045804）に合併し解散,2015-10-05,1,,,,,トートクサービス,0
1815,7160001006206,登記記録の閉鎖等,0,2023-08-10,2023-08-08,株式会社琥狸夢,,株式会社,滋賀県,甲賀市,信楽町長野１１７４番地２,,25,209,5291851,,,2023-08-08,清算の結了等,,,2015-10-05,1,,,,,コリム,0
1821,7180001083805,登記記録の閉鎖等,0,2023-08-10,2023-08-03,マルゴ物産株式会社,,株式会社,愛知県,一宮市,神山１丁目１０番１号,,23,203,4910904,,,2023-08-03,清算の結了等,,,2015-10-05,1,,,,,マルゴブッサン,0
1829,7180002039450,登記記録の閉鎖等,0,2023-08-10,2023-08-07,有限会社水越自動車,,有限会社,愛知県,名古屋市南区,千竈通４丁目２番地,,23,112,4570071,,,2023-08-07,清算の結了等,,,2015-10-05,1,,,,,ミズコシジドウシャ,0
1845,7230001015711,登記記録の閉鎖等,0,2023-08-10,2023-08-07,富山電力株式会社,,株式会社,富山県,高岡市,下牧野３６番地２,,16,202,9340091,,,2023-08-07,合併による解散等,5230001009533,令和５年８月１日富山県高岡市下牧野３５番地１株式会社インカムハウス（5230001009533）に合併し解散,2015-10-05,1,,,,,トヤマデンリョク,0
1856,7250002016954,登記記録の閉鎖等,0,2023-08-10,2023-08-01,有限会社ことぶき商事,,有限会社,山口県,光市,三井５丁目２１番７号,,35,210,7430052,,,2023-08-01,清算の結了等,,,2015-10-05,1,,,,,コトブキショウジ,0
1865,7290001076434,登記記録の閉鎖等,0,2023-08-10,2023-08-01,ホーム・インターナショナル株式会社,,株式会社,福岡県,福岡市博多区,博多駅前２丁目１５番５号,,40,132,8120011,,,2023-08-01,合併による解散等,2290001035832,令和５年８月１日福岡市中央区天神二丁目７番２１号株式会社リアリティ（2290001035832）に合併し解散,2017-01-19,1,,,,,ホームインターナショナル,0
1872,7310005008315,登記記録の閉鎖等,0,2023-08-10,2023-08-07,一般社団法人ながさき住まいと相続相談センター,,その他の設立登記法人,長崎県,諫早市,山川町１番４号－４,,42,204,8540074,,,2023-08-07,清算の結了等,,,2019-05-15,1,,,,,ナガサキスマイトソウゾクソウダンセンター,0
1875,7330001023992,登記記録の閉鎖等,0,2023-08-10,2023-07-26,株式会社阿蘇めぐり牧場,,株式会社,熊本県,阿蘇郡南阿蘇村,大字一関７８８番地１,,43,433,8691504,,,2023-07-26,清算の結了等,,,2017-05-02,1,,,,,アソメグリボクジョウ,0
1890,7380002028367,登記記録の閉鎖等,0,2023-08-10,2023-08-04,有限会社桜不動産,,有限会社,福島県,相馬市,中村字新町１２２番地１,,07,209,9760042,,,2023-08-04,清算の結了等,,,2015-10-05,1,,,,,サクラフドウサン,0
1893,7410001004761,登記記録の閉鎖等,0,2023-08-10,2023-07-31,株式会社黒沢大助商店,,株式会社,秋田県,由利本荘市,田町２８番地,,05,210,0150822,,,2023-07-31,清算の結了等,,,2015-10-05,1,,,,,クロサワダイスケショウテン,0
1899,7430001056999,登記記録の閉鎖等,0,2023-08-10,2023-07-21,株式会社古沢商会,,株式会社,北海道,室蘭市,東町２丁目１６番６号,,01,205,0500083,,,2023-07-21,清算の結了等,,,2015-10-05,1,,,,,フルサワショウカイ,0
1918,8010001047379,登記記録の閉鎖等,0,2023-08-10,2023-07-28,株式会社情報開発,,株式会社,東京都,中央区,日本橋茅場町２丁目１７番６号,,13,102,1030025,,,2023-07-28,清算の結了等,,,2015-10-05,1,,,,,ジョウホウカイハツ,0
1941,8010403025742,登記記録の閉鎖等,0,2023-08-10,2023-08-07,合同会社ｐｌｕｓ,,合同会社,東京都,品川区,西五反田３丁目８－２１パークホームズ目黒１１０８号,,13,109,1410031,,,2023-08-07,清算の結了等,,,2021-07-20,1,,,,,プラス,0
1958,8010703004603,登記記録の閉鎖等,0,2023-08-10,2023-08-07,合同会社ＩＮＳ,,合同会社,東京都,品川区,平塚１丁目７番１号フクセンハウス４０１,,13,109,1420051,,,2023-08-07,清算の結了等,,,2019-01-10,1,,,,,アイエヌエス,0
1978,8011801034541,登記記録の閉鎖等,0,2023-08-10,2023-08-08,株式会社翔友,,株式会社,東京都,江戸川区,大杉１丁目３－１０,,13,123,1320022,,,2023-08-08,清算の結了等,,,2018-04-02,1,,,,,ショウユウ,0
2014,8030001138795,登記記録の閉鎖等,0,2023-08-10,2023-07-18,株式会社ビットグラス,,株式会社,埼玉県,さいたま市中央区,上落合８丁目１０番２２－５１０号,,11,105,3380001,,,2023-07-18,清算の結了等,,,2020-10-15,1,,,,,ビットグラス,0
2019,8030002024425,登記記録の閉鎖等,0,2023-08-10,2023-07-18,有限会社勝栄工芸,,有限会社,埼玉県,戸田市,早瀬１丁目１８番７号,,11,224,3350036,,,2023-07-18,清算の結了等,,,2015-10-05,1,,,,,ショウエイコウゲイ,0
2041,8110005010034,登記記録の閉鎖等,0,2023-08-10,2023-08-02,特定非営利活動法人上越はつらつ元気塾,,その他の設立登記法人,新潟県,上越市,高土町１丁目８番３号,,15,222,9430823,,,2023-08-02,清算の結了等,,,2015-10-05,1,,,,,ジョウエツハツラツゲンキジュク,0
2050,8120002081416,登記記録の閉鎖等,0,2023-08-10,2023-08-08,有限会社サンクラフト,,有限会社,大阪府,門真市,宮野町１３－６,,27,223,5710062,,,2023-08-08,清算の結了等,,,2015-10-05,1,,,,,サンクラフト,0
2065,8140002000035,登記記録の閉鎖等,0,2023-08-10,2023-08-03,有限会社アスカ産業,,有限会社,兵庫県,芦屋市,親王塚町１０番２８号,,28,206,6590016,,,2023-08-03,清算の結了等,,,2015-10-05,1,,,,,アスカサンギョウ,0
2092,8220002008111,登記記録の閉鎖等,0,2023-08-10,2023-08-04,有限会社損保企画宮岸,,有限会社,石川県,野々市市,新庄１丁目１０１番地,,17,212,9218824,,,2023-08-04,清算の結了等,,,2015-10-05,1,,,,,ソンポキカクミヤギシ,0
2099,8260002032033,登記記録の閉鎖等,0,2023-08-10,2023-08-01,有限会社前川商店,,有限会社,岡山県,備前市,日生町寒河３９０３番地の２,,33,211,7013202,,,2023-08-01,清算の結了等,,,2015-10-05,1,,,,,マエカワショウテン,0
2110,8290002000318,登記記録の閉鎖等,0,2023-08-10,2023-07-27,有限会社川崎積算事務所,00092913,有限会社,福岡県,福岡市西区,生松台３丁目６番７号,,40,135,8190044,,,2023-07-27,清算の結了等,,,2015-10-05,1,,,,,カワサキセキサンジムショ,0
2138,8370001022528,登記記録の閉鎖等,0,2023-08-10,2023-08-01,株式会社ユニテク,,株式会社,宮城県,仙台市宮城野区,日の出町１丁目１番２０号,,04,102,9830035,,,2023-08-01,合併による解散等,8370001019375,令和５年８月１日仙台市宮城野区日の出町一丁目２番３号株式会社テラテック（8370001019375）に合併し解散,2015-10-05,1,,,,,,0
2150,8430001077318,登記記録の閉鎖等,0,2023-08-10,2023-08-07,アクティングサービス株式会社,,株式会社,北海道,札幌市中央区,北三条西７丁目１番地１緑苑ビル,,01,101,0600003,,,2023-08-07,清算の結了等,,,2018-09-05,1,,,,,アクティングサービス,0
2181,9010403012244,登記記録の閉鎖等,0,2023-08-10,2023-07-18,Ｆｏｒｔｒｅｓｓ　Ｊａｐａｎ　Ａｉｒｐｏｒｔ　Ｉｎｖｅｓｔｍｅｎｔ合同会社,,合同会社,東京都,港区,虎ノ門５丁目１番４号グローバル・ソリューションズ・コンサルティング株式会社内,,13,103,1050001,,,2023-07-18,清算の結了等,,,2015-10-05,1,,,,,,0
2186,9010601050112,登記記録の閉鎖等,0,2023-08-10,2023-08-03,株式会社ライコム・ホールディングス,,株式会社,東京都,江東区,東砂５丁目１４番１９号,,13,108,1360074,,,2023-08-03,清算の結了等,,,2016-07-20,1,,,,,ライコムホールディングス,0
2202,9010802008264,登記記録の閉鎖等,0,2023-08-10,2023-08-03,有限会社太陽精工,,有限会社,東京都,大田区,南六郷１丁目１５番１１号,,13,111,1440045,,,2023-08-03,清算の結了等,,,2015-10-05,1,,,,,タイヨウセイコウ,0
2219,9011102019555,登記記録の閉鎖等,0,2023-08-10,2023-08-07,有限会社井上商事,,有限会社,東京都,新宿区,百人町１丁目２４番１７号,,13,104,1690073,,,2023-08-07,清算の結了等,,,2015-10-05,1,,,,,イノウエショウジ,0
2223,9011103008284,登記記録の閉鎖等,0,2023-08-10,2023-07-31,合同会社ＯＮＥ’Ｓ　ＦＤＭ　ＪＡＰＡＮ,,合同会社,三重県,鈴鹿市,長太新町１丁目１１番１３号１Ｆ,,24,207,5130041,,,2023-07-31,清算の結了等,,,2018-10-10,1,,,,,ワンズエフディーエムジャパン,0
2231,9011502000437,登記記録の閉鎖等,0,2023-08-10,2023-08-03,有限会社飯田建設,,有限会社,東京都,北区,十条仲原１丁目１５番９号,,13,117,1140031,,,2023-08-03,清算の結了等,,,2015-10-05,1,,,,,イイダケンセツ,0
2232,9011502013034,登記記録の閉鎖等,0,2023-08-10,2023-08-03,東介福祉有限会社,,有限会社,東京都,北区,赤羽西４丁目４０番１０号,,13,117,1150055,,,2023-08-03,清算の結了等,,,2015-10-05,1,,,,,,0
2251,9020002014459,登記記録の閉鎖等,0,2023-08-10,2023-07-27,有限会社シェスタ,,有限会社,神奈川県,横浜市青葉区,市ケ尾町１６７８番地１３３,,14,117,2250024,,,2023-07-27,清算の結了等,,,2015-10-05,1,,,,,シェスタ,0
2256,9021001040413,登記記録の閉鎖等,0,2023-08-10,2023-08-08,株式会社サンティーエー,,株式会社,神奈川県,横須賀市,船越町２丁目１４番地,,14,201,2370076,,,2023-08-08,清算の結了等,,,2015-10-05,1,,,,,サンティーエー,0
2257,9021001050981,登記記録の閉鎖等,0,2023-08-10,2023-08-07,ときめきライフ株式会社,,株式会社,神奈川県,平塚市,片岡１２８４番地,,14,203,2591213,,,2023-08-07,清算の結了等,,,2015-10-05,1,,,,,トキメキライフ,0
2263,9030001037897,登記記録の閉鎖等,0,2023-08-10,2023-07-05,株式会社サポート,,株式会社,埼玉県,草加市,吉町５丁目１番４７号,,11,221,3400017,,,2023-07-05,清算の結了等,,,2015-10-05,1,,,,,サポート,0
2280,9050001046665,登記記録の閉鎖等,0,2023-08-10,2023-08-03,アイビー株式会社,,株式会社,茨城県,坂東市,下出島１２４番地１１,,08,228,3060633,,,2023-08-03,清算の結了等,,,2019-10-16,1,,,,,アイビー,0
2292,9100001028484,登記記録の閉鎖等,0,2023-08-10,2023-08-04,株式会社いざわトータルケア,,株式会社,長野県,諏訪郡下諏訪町,６１７４番地１,,20,361,3930000,,,2023-08-04,清算の結了等,,,2015-10-05,1,,,,,イザワトータルケア,0
2323,9140001000976,登記記録の閉鎖等,0,2023-08-10,2023-08-03,アサヒ産業株式会社,,株式会社,兵庫県,神戸市東灘区,住吉山手９丁目１２番１７号,,28,101,6580063,,,2023-08-03,清算の結了等,,,2015-10-05,1,,,,,アサヒサンギョウ,0
2330,9140002004729,登記記録の閉鎖等,0,2023-08-10,2023-08-03,有限会社西神機電,,有限会社,兵庫県,神戸市西区,今寺３０番地の９,,28,111,6512114,,,2023-08-03,清算の結了等,,,2015-10-05,1,,,,,セイシンキデン,0
2349,9180002063250,登記記録の閉鎖等,0,2023-08-10,2023-08-04,有限会社アンドー設計室,,有限会社,愛知県,愛知郡東郷町,北山台１丁目２番地の１９,,23,302,4700152,,,2023-08-04,清算の結了等,,,2015-10-05,1,,,,,アンドーセッケイシツ,0
2359,9210002011817,登記記録の閉鎖等,0,2023-08-10,2023-07-25,有限会社トーやまだ,,有限会社,福井県,越前市,大屋町５５号１番地,,18,209,9150042,,,2023-07-25,清算の結了等,,,2015-10-05,1,,,,,トーヤマダ,0
2365,9220002001619,登記記録の閉鎖等,0,2023-08-10,2023-08-04,有限会社オートピア北陸,,有限会社,石川県,金沢市,御影町２４番３０号,,17,201,9218021,,,2023-08-04,清算の結了等,,,2015-10-05,1,,,,,オートピアホクリク,0
2366,9220002012789,登記記録の閉鎖等,0,2023-08-10,2023-08-03,有限会社古川総業,,有限会社,石川県,加賀市,別所町漆器団地８番地５,,17,206,9220274,,,2023-08-03,清算の結了等,,,2015-10-05,1,,,,,フルカワソウギョウ,0
2369,9240001026012,登記記録の閉鎖等,0,2023-08-10,2023-08-07,株式会社シンワ,,株式会社,広島県,呉市,焼山本庄５丁目４番８号,,34,202,7370912,,,2023-08-07,清算の結了等,,,2015-10-05,1,,,,,シンワ,0
2377,9240005014624,登記記録の閉鎖等,0,2023-08-10,2023-08-08,一般社団法人こどもけんこう園,,その他の設立登記法人,広島県,広島市中区,広瀬北町３番１１号ソアラビジネスポート,,34,101,7300803,,,2023-08-08,清算の結了等,,,2018-06-27,1,,,,,コドモケンコウエン,0
2378,9240005015036,登記記録の閉鎖等,0,2023-08-10,2023-08-08,一般社団法人トータルメディカルサポート,,その他の設立登記法人,広島県,廿日市市,阿品４丁目２４番３１号,,34,213,7380054,,,2023-08-08,清算の結了等,,,2020-06-05,1,,,,,トータルメディカルサポート,0
2382,9250002010410,登記記録の閉鎖等,0,2023-08-10,2023-08-07,有限会社根来測器,,有限会社,山口県,下関市,伊倉本町２番２９号,,35,201,7510863,,,2023-08-07,合併による解散等,7240001014126,令和５年８月１日広島市中区富士見町１６番２号株式会社ジツタ中国（7240001014126）に合併し解散,2015-10-05,1,,,,,ネゴロソッキ,0
2387,9260001029095,登記記録の閉鎖等,0,2023-08-10,2023-08-03,株式会社Ｋａｈ．Ａｔ設備,,株式会社,岡山県,赤磐市,馬屋２２５番,,33,213,7090825,,,2023-08-03,清算の結了等,,,2015-12-28,1,,,,,カートセツビ,0
2394,9290001088007,登記記録の閉鎖等,0,2023-08-10,2023-07-31,ＳＫＹエネルギー開発株式会社,,株式会社,福岡県,福岡市早良区,百道浜１丁目３番７０号ザ・レジデンシャルスイート福岡,,40,137,8140001,,,2023-07-31,清算の結了等,,,2020-02-07,1,,,,,スカイエネルギーカイハツ,0
2396,9290002010679,登記記録の閉鎖等,0,2023-08-10,2023-07-31,有限会社光栄ビル,,有限会社,福岡県,福岡市中央区,天神３丁目５番１２号,,40,133,8100001,,,2023-07-31,清算の結了等,,,2015-10-05,1,,,,,コウエイビル,0
2403,9300005005988,登記記録の閉鎖等,0,2023-08-10,2023-08-04,特定非営利活動法人きらら,,その他の設立登記法人,佐賀県,多久市,多久町２５１３番地１１,,41,204,8460031,,,2023-08-04,清算の結了等,,,2015-10-05,1,,,,,キララ,0
2423,9370203000041,登記記録の閉鎖等,0,2023-08-10,2023-07-31,合名会社風月堂,,合名会社,宮城県,遠田郡美里町,字藤ケ崎町３１番地,,04,505,9870002,,,2023-07-31,清算の結了等,,,2015-10-05,1,,,,,フウゲツドウ,0
2424,9370305000914,登記記録の閉鎖等,0,2023-08-10,2023-07-26,特定非営利活動法人働く場づくりコナモーレｗ,,その他の設立登記法人,宮城県,牡鹿郡女川町,桜ケ丘５番地の４,,04,581,9862244,,,2023-07-26,清算の結了等,,,2015-10-05,1,,,,,ハタラクバヅクリコナモーレダブリュー,0
2436,9402705000358,登記記録の閉鎖等,0,2023-08-10,2023-07-25,一般社団法人大船渡津波伝承館,,その他の設立登記法人,岩手県,大船渡市,末崎町字高清水３１番地２,,03,203,0220001,,,2023-07-25,清算の結了等,,,2015-10-05,1,,,,,オオフナトツナミデンショウカン,0
2439,9430001012109,登記記録の閉鎖等,0,2023-08-10,2023-07-21,株式会社ナガクラ通信設備,,株式会社,北海道,札幌市北区,北三十条西１０丁目２番２８号,,01,102,0010030,,,2023-07-21,清算の結了等,,,2015-10-05,1,,,,,ナガクラツウシンセツビ,0
