sequenceNumber,corporateNumber,process,correct,updateDate,changeDate,name,nameImageId,kind,prefectureName,cityName,streetNumber,addressImageId,prefectureCode,cityCode,postCode,addressOutside,addressOutsideImageId,closeDate,closeCause,successorCorporateNumber,changeCause,assignmentDate,latest,enName,enPrefectureName,enCityName,enAddressOutside,furigana,hihyoji
10,1010001224331,新規,0,2022-02-07,2022-02-07,文京根津不動産株式会社,,株式会社,東京都,文京区,根津２丁目３７番４－７０２号,,13,105,1130031,,,,,,,2022-02-07,1,,,,,ブンキョウネヅフドウサン,0
11,1010001224389,新規,0,2022-02-07,2022-02-07,株式会社アタラ,,株式会社,東京都,中央区,銀座１丁目２２番１１号銀座大竹ビジデンス２階,,13,102,1040061,,,,,,,2022-02-07,1,,,,,アタラ,0
12,1010001224397,新規,0,2022-02-07,2022-02-07,株式会社ゴルフセイバー,,株式会社,東京都,中央区,銀座１丁目２２番１１号２Ｆ,,13,102,1040061,,,,,,,2022-02-07,1,,,,,ゴルフセイバー,0
13,1010001224414,新規,0,2022-02-07,2022-02-07,株式会社ワクガ,,株式会社,東京都,千代田区,飯田橋１丁目３番８号ＫＤビル２Ｆ,,13,101,1020072,,,,,,,2022-02-07,1,,,,,ワクガ,0
14,1010001224447,新規,0,2022-02-07,2022-02-07,シー・ビー・ティ・フィンテック株式会社,,株式会社,東京都,中央区,日本橋兜町５―１兜町第１平和ビル３階,,13,102,1030026,,,,,,,2022-02-07,1,,,,,シービーティフィンテック,0
25,1010401165357,新規,0,2022-02-07,2022-02-07,Ｃｌｕｅ株式会社,,株式会社,東京都,港区,北青山３丁目６番７号青山パラシオタワー１１Ｆ,,13,103,1070061,,,,,,,2022-02-07,1,,,,,クルー,0
26,1010401165398,新規,0,2022-02-07,2022-02-07,ＣＤＸテクノロジー株式会社,,株式会社,東京都,港区,芝１丁目９番３号芝マツラビル３Ｆ,,13,103,1050014,,,,,,,2022-02-07,1,,,,,シーディーエックステクノロジー,0
27,1010403027027,新規,0,2022-02-07,2022-02-07,キャラシャローネ合同会社,,合同会社,東京都,港区,台場１丁目５－７トミンハイム１０３,,13,103,1350091,,,,,,,2022-02-07,1,,,,,キャラシャローネ,0
28,1010403027043,新規,0,2022-02-07,2022-02-07,ＥＳＲ２６合同会社,,合同会社,東京都,港区,浜松町１丁目２０番１０号ライオネス浜松町５０６号室,,13,103,1050013,,,,,,,2022-02-07,1,,,,,イーエスアールニジュウロク,0
32,1010601060531,新規,0,2022-02-07,2022-02-07,株式会社Ｓｙｎｓｐｅｃｔｉｖｅ　Ｊａｐａｎ,,株式会社,東京都,江東区,三好３丁目１０番３号,,13,108,1350022,,,,,,,2022-02-07,1,,,,,シンスペクティブジャパン,0
33,1010601060622,新規,0,2022-02-07,2022-02-07,ＭＯＧＵ株式会社,,株式会社,東京都,墨田区,業平２丁目１９番３号ＪＴＣＮＥＷＴＯＷＥＲビル,,13,107,1300002,,,,,,,2022-02-07,1,,,,,モグ,0
37,1010701042181,新規,0,2022-02-07,2022-02-07,株式会社ＨＵＧＥ　ＯＶＥＲ,,株式会社,東京都,品川区,大井３丁目４番１５号,,13,109,1400014,,,,,,,2022-02-07,1,,,,,ヒュージオーバー,0
38,1010701042198,新規,0,2022-02-07,2022-02-07,株式会社エムロック,,株式会社,東京都,品川区,東五反田１丁目２５－１２－１０１,,13,109,1410022,,,,,,,2022-02-07,1,,,,,エムロック,0
47,1010803004055,新規,0,2022-02-07,2022-02-07,ヴォワイヤン合同会社,,合同会社,東京都,大田区,西蒲田７丁目４番４号,,13,111,1440051,,,,,,,2022-02-07,1,,,,,,0
49,1010903007131,新規,0,2022-02-07,2022-02-07,合同会社ウルラ,,合同会社,東京都,世田谷区,太子堂３丁目３８－１,,13,112,1540004,,,,,,,2022-02-07,1,,,,,ウルラ,0
55,1011001145451,新規,0,2022-02-07,2022-02-07,株式会社ＲＥＦＥＣＴＯＲ,,株式会社,東京都,渋谷区,神宮前６丁目２３－４桑野ビル２Ｆ,,13,113,1500001,,,,,,,2022-02-07,1,,,,,レフェクター,0
56,1011001145484,新規,0,2022-02-07,2022-02-07,株式会社５０,,株式会社,東京都,渋谷区,神宮前６丁目２３番４号,,13,113,1500001,,,,,,,2022-02-07,1,,,,,ファイブオー,0
57,1011001145518,新規,0,2022-02-07,2022-02-07,株式会社Ｒｉｇｈｔ　ｉｆ,,株式会社,東京都,渋谷区,神宮前６丁目２３番４号桑野ビル２階,,13,113,1500001,,,,,,,2022-02-07,1,,,,,ライトイフ,0
58,1011001145575,新規,0,2022-02-07,2022-02-07,株式会社ＭＩＥＲＴＥ,,株式会社,東京都,渋谷区,恵比寿２丁目６番２８－３０３号,,13,113,1500013,,,,,,,2022-02-07,1,,,,,ミィエルテ,0
59,1011001145583,新規,0,2022-02-07,2022-02-07,株式会社ＡＳＫ,,株式会社,東京都,渋谷区,恵比寿３丁目１番６号ティアラ恵比寿３０３,,13,113,1500013,,,,,,,2022-02-07,1,,,,,エイエスケー,0
60,1011003014118,新規,0,2022-02-07,2022-02-07,合同会社ウィンパス,,合同会社,東京都,渋谷区,恵比寿１丁目１５番９号日宝恵比寿ビル４０３,,13,113,1500013,,,,,,,2022-02-07,1,,,,,ウィンパス,0
61,1011003014126,新規,0,2022-02-07,2022-02-07,Ｐｅｄｙ合同会社,,合同会社,東京都,渋谷区,渋谷２丁目１９－１５宮益坂ビルディング６０９,,13,113,1500002,,,,,,,2022-02-07,1,,,,,ペディー,0
62,1011003014134,新規,0,2022-02-07,2022-02-07,ｍａｔｏｋａ合同会社,,合同会社,東京都,渋谷区,東３丁目１９－８ＳＨ３１９８－３０１,,13,113,1500011,,,,,,,2022-02-07,1,,,,,マトカ,0
64,1011005009413,新規,0,2022-02-07,2022-02-07,特定非営利活動法人インターナショナル子ども支援プロジェクト,,その他の設立登記法人,東京都,渋谷区,神宮前６丁目６番８号,,13,113,1500001,,,,,,,2022-02-07,1,,,,,インターナショナルコドモシエンプロジェクト,0
66,1011101097733,新規,0,2022-02-07,2022-02-07,株式会社リーガルブリッジ,,株式会社,東京都,新宿区,市谷田町２丁目１番３号,,13,104,1620843,,,,,,,2022-02-07,1,,,,,リーガルブリッジ,0
68,1011201023622,新規,0,2022-02-07,2022-02-07,株式会社ＮＡＫＡＭＡＹＯ,,株式会社,東京都,中野区,中野５丁目６０番１４号土屋ビル１階,,13,114,1640001,,,,,,,2022-02-07,1,,,,,ナカマヨ,0
69,1011203003746,新規,0,2022-02-07,2022-02-07,合同会社ゴールド,,合同会社,東京都,中野区,中野３丁目１９番５号２０１号室,,13,114,1640001,,,,,,,2022-02-07,1,,,,,ゴールド,0
73,1011405002182,新規,0,2022-02-07,2022-02-07,一般社団法人ダック,,その他の設立登記法人,東京都,板橋区,徳丸１丁目５１番８号サンパレス徳丸第５、３０６,,13,119,1750083,,,,,,,2022-02-07,1,,,,,ダック,0
76,1011801040307,新規,0,2022-02-07,2022-02-07,世家学舎株式会社,,株式会社,東京都,葛飾区,立石１丁目１－２Ｎフラット１０３,,13,122,1240012,,,,,,,2022-02-07,1,,,,,セイカガクシャ,0
82,1012803002699,新規,0,2022-02-07,2022-02-07,Ｃｈｉｔａ合同会社,00125642,合同会社,東京都,立川市,富士見町６丁目１６番５０２号,,13,202,1900013,,,,,,,2022-02-07,1,,,,,チタ,0
85,1013303006026,新規,0,2022-02-07,2022-02-07,合同会社ｅＳＩＯＮ,,合同会社,東京都,豊島区,東池袋４丁目３８番７号１階,,13,116,1700013,,,,,,,2022-02-07,1,,,,,シオン,0
90,1020003021247,新規,0,2022-02-07,2022-02-07,成佑合同会社,,合同会社,神奈川県,横浜市保土ケ谷区,天王町１丁目２２番１３号トーシン天王町２０１号室,,14,106,2400003,,,,,,,2022-02-07,1,,,,,セイユウ,0
105,1030001146697,新規,0,2022-02-07,2022-02-07,株式会社袴田土建,,株式会社,埼玉県,川口市,江戸袋１丁目１６番３号,,11,203,3340075,,,,,,,2022-02-07,1,,,,,ハカマダドケン,0
113,1030003018795,新規,0,2022-02-07,2022-02-07,合同会社総英工業,,合同会社,埼玉県,桶川市,大字坂田９７１番地の２２６,,11,231,3630008,,,,,,,2022-02-07,1,,,,,ソウエイコウギョウ,0
119,1040001122103,新規,0,2022-02-07,2022-02-07,株式会社センス,,株式会社,千葉県,市川市,東菅野２丁目２２番１７号ハイツ美樹１０１,,12,203,2720823,,,,,,,2022-02-07,1,,,,,センス,0
120,1040001122128,新規,0,2022-02-07,2022-02-07,株式会社ビデオン,,株式会社,千葉県,千葉市若葉区,桜木８丁目５－２ジュネス桜木２０５号,,12,104,2640028,,,,,,,2022-02-07,1,,,,,ビデオン,0
121,1040001122136,新規,0,2022-02-07,2022-02-07,平野電装株式会社,,株式会社,千葉県,八千代市,大和田新田４２７番地５７,,12,221,2760046,,,,,,,2022-02-07,1,,,,,ヒラノデンソウ,0
122,1040001122152,新規,0,2022-02-07,2022-02-07,株式会社マンションＲｅデザイン,,株式会社,千葉県,市川市,平田１丁目７番１２号,,12,203,2720031,,,,,,,2022-02-07,1,,,,,マンションリデザイン,0
124,1040002104967,新規,0,2022-02-07,2022-02-07,有限会社八千代測量建築センター,,有限会社,千葉県,八千代市,萱田町５９２番地４,,12,221,2760044,,,,,,,2022-02-07,1,,,,,,0
126,1040003019405,新規,0,2022-02-07,2022-02-07,合同会社まほらば,,合同会社,千葉県,市川市,国府台２丁目９番１２号ラ・ブリーズ１０１号室,,12,203,2720827,,,,,,,2022-02-07,1,,,,,マホラバ,0
127,1040005021508,新規,0,2022-02-07,2022-02-07,医療法人社団やまぶき訪問クリニック,,その他の設立登記法人,千葉県,千葉市稲毛区,園生町１４３番地１,,12,103,2630051,,,,,,,2022-02-07,1,,,,,ヤマブキホウモンクリニック,0
132,1060001034544,新規,0,2022-02-07,2022-02-07,株式会社ＣｒｅａｔｅＺＥＲＯ,,株式会社,栃木県,佐野市,若松町５９１－１,,09,204,3270846,,,,,,,2022-02-07,1,,,,,クリエイトゼロ,0
137,1070001038924,新規,0,2022-02-07,2022-02-07,株式会社シミズ設備,,株式会社,群馬県,佐波郡玉村町,大字下新田３０３番地３,,10,464,3701132,,,,,,,2022-02-07,1,,,,,シミズセツビ,0
138,1070001038932,新規,0,2022-02-07,2022-02-07,浅商農産株式会社,,株式会社,群馬県,渋川市,渋川３１７番地６,,10,208,3770008,,,,,,,2022-02-07,1,,,,,センショウノウサン,0
141,1080001024741,新規,0,2022-02-07,2022-02-07,株式会社エフプランニング,,株式会社,静岡県,静岡市清水区,宮加三７９５番地の１５,,22,103,4240911,,,,,,,2022-02-07,1,,,,,エフプランニング,0
146,1090001017397,新規,0,2022-02-07,2022-02-07,株式会社ＩＧＵ,,株式会社,山梨県,甲府市,山宮町１２９２番地７,,19,201,4000075,,,,,,,2022-02-07,1,,,,,アイジーユー,0
149,1090003002034,新規,0,2022-02-07,2022-02-07,合同会社小池設備,,合同会社,山梨県,笛吹市,石和町下平井１２９３番地２,,19,211,4060027,,,,,,,2022-02-07,1,,,,,コイケセツビ,0
152,1100003006405,新規,0,2022-02-07,2022-02-07,合同会社ＭＡＲＶＥＬ,,合同会社,長野県,上田市,中之条４９１番地２１,,20,203,3860034,,,,,,,2022-02-07,1,,,,,マーベル,0
167,1120001243618,新規,0,2022-02-07,2022-02-07,株式会社ＭＫ・ＳＴＹＬＥ,,株式会社,大阪府,大阪市東淀川区,豊里２丁目９番２５号,,27,114,5330013,,,,,,,2022-02-07,1,,,,,エムケイスタイル,0
168,1120001243667,新規,0,2022-02-07,2022-02-07,西村産業株式会社,,株式会社,大阪府,寝屋川市,葛原２丁目１４番１２号,,27,215,5720075,,,,,,,2022-02-07,1,,,,,ニシムラサンギョウ,0
169,1120001243683,新規,0,2022-02-07,2022-02-07,株式会社べすとぽじしょん,,株式会社,大阪府,大阪市平野区,喜連西３丁目１７番８号,,27,126,5470026,,,,,,,2022-02-07,1,,,,,ベストポジション,0
170,1120001243709,新規,0,2022-02-07,2022-02-07,株式会社ＴＥＣＴＥＣ,,株式会社,大阪府,大阪市天王寺区,大道１丁目１４番１４号,,27,109,5430052,,,,,,,2022-02-07,1,,,,,テクテク,0
177,1120005022778,新規,0,2022-02-07,2022-02-07,一般財団法人中尾育英財団,,その他の設立登記法人,大阪府,大阪市北区,西天満４丁目１番１５号,,27,127,5300047,,,,,,,2022-02-07,1,,,,,ナカオイクエイザイダン,0
180,1120103004562,新規,0,2022-02-07,2022-02-07,合同会社ヤマタン,,合同会社,大阪府,和泉市,九鬼町５３７番地,,27,219,5941126,,,,,,,2022-02-07,1,,,,,ヤマタン,0
185,1120903004027,新規,0,2022-02-07,2022-02-07,合同会社かば,,合同会社,大阪府,豊中市,曽根西町４丁目１６番３５号,,27,203,5610801,,,,,,,2022-02-07,1,,,,,カバ,0
195,1130001071068,新規,0,2022-02-07,2022-02-07,株式会社菊理,,株式会社,京都府,宇治市,大久保町久保６番地７グリーンサム大久保１０１,,26,204,6110033,,,,,,,2022-02-07,1,,,,,ククリ,0
196,1130001071101,新規,0,2022-02-07,2022-02-07,株式会社アーチクレマ,,株式会社,京都府,久世郡久御山町,市田新珠城７５－１,,26,322,6130022,,,,,,,2022-02-07,1,,,,,アーチクレマ,0
208,1140001124782,新規,0,2022-02-07,2022-02-07,株式会社エステック,,株式会社,兵庫県,養父市,八鹿町坂本５０１番地４,,28,222,6670013,,,,,,,2022-02-07,1,,,,,エステック,0
209,1140001124808,新規,0,2022-02-07,2022-02-07,株式会社ＯＣＩ,,株式会社,兵庫県,神戸市東灘区,向洋町中１丁目１８番地,,28,101,6580032,,,,,,,2022-02-07,1,,,,,オーシーアイ,0
210,1140001124824,新規,0,2022-02-07,2022-02-07,株式会社ＭＥＤ,,株式会社,兵庫県,尼崎市,大庄北２丁目５番２２－２号,,28,202,6600063,,,,,,,2022-02-07,1,,,,,エムイーディー,0
211,1140001124840,新規,0,2022-02-07,2022-02-07,株式会社エスアールジーイー,,株式会社,兵庫県,神戸市灘区,下河原通３丁目５番地１３号,,28,102,6570045,,,,,,,2022-02-07,1,,,,,エスアールジーイー,0
212,1140003017332,新規,0,2022-02-07,2022-02-07,セツビスーパー合同会社,,合同会社,兵庫県,神戸市長田区,二番町２丁目２番１号,,28,106,6530012,,,,,,,2022-02-07,1,,,,,セツビスーパー,0
229,1180001149850,新規,0,2022-02-07,2022-02-07,株式会社クレエ,,株式会社,愛知県,名古屋市中川区,舟戸町７番２１号,,23,110,4540805,,,,,,,2022-02-07,1,,,,,クレエ,0
230,1180001149891,新規,0,2022-02-07,2022-02-07,株式会社フラットエイト,,株式会社,愛知県,名古屋市守山区,小幡南２丁目２番３３号,,23,113,4630048,,,,,,,2022-02-07,1,,,,,フラットエイト,0
231,1180001149909,新規,0,2022-02-07,2022-02-07,はるひ創研株式会社,,株式会社,愛知県,春日井市,天神町１番地２ライオンズガーデン勝川７０２号室,,23,206,4860948,,,,,,,2022-02-07,1,,,,,ハルヒソウケン,0
236,1180003023467,新規,0,2022-02-07,2022-02-07,Ｍ＆Ｓフィナンシャルマネジメント合同会社,,合同会社,愛知県,名古屋市熱田区,大宝４丁目１２番１７号,,23,109,4560062,,,,,,,2022-02-07,1,,,,,エムアンドエスフィナンシャルマネジメント,0
237,1180003023475,新規,0,2022-02-07,2022-02-07,合同会社Ｄ,,合同会社,愛知県,名古屋市中区,錦３丁目３番３０号桜ビル３階,,23,106,4600003,,,,,,,2022-02-07,1,,,,,ディー,0
242,1180303005248,新規,0,2022-02-07,2022-02-07,合同会社Ｌａｐｉｓｌａｚｕｌｉ,,合同会社,愛知県,刈谷市,中手町６丁目４０７番地,,23,210,4480049,,,,,,,2022-02-07,1,,,,,ラピスラズリ,0
257,1240001059267,新規,0,2022-02-07,2022-02-07,株式会社ＡＯＩ,,株式会社,広島県,広島市中区,舟入南２丁目２番８号,,34,101,7300847,,,,,,,2022-02-07,1,,,,,アオイ,0
258,1240001059275,新規,0,2022-02-07,2022-02-07,サクセスグループ株式会社,,株式会社,広島県,福山市,南手城町２丁目１７番１号,,34,207,7210963,,,,,,,2022-02-07,1,,,,,サクセスグループ,0
260,1240003005483,新規,0,2022-02-07,2022-02-07,スマイリー合同会社,,合同会社,広島県,広島市佐伯区,五日市中央５丁目１９番８号,,34,108,7315128,,,,,,,2022-02-07,1,,,,,スマイリー,0
261,1240003005491,新規,0,2022-02-07,2022-02-07,合同会社Ｓｅｃｏｎｄ　Ｌｉｆｅ,,合同会社,広島県,広島市安芸区,矢野西５丁目２番１０号,,34,107,7360085,,,,,,,2022-02-07,1,,,,,セカンドライフ,0
263,1250001019393,新規,0,2022-02-07,2022-02-07,株式会社ＮＢリソース小野田,,株式会社,山口県,山陽小野田市,大字小野田６９０３番地１,,35,216,7560817,,,,,,,2022-02-07,1,,,,,エヌビーリソースオノダ,0
269,1270001008452,新規,0,2022-02-07,2022-02-07,株式会社クリエイティブサポートＭ,,株式会社,鳥取県,米子市,両三柳３２３番地１,,31,202,6830853,,,,,,,2022-02-07,1,,,,,クリエイティブサポートエム,0
271,1280005007466,新規,0,2022-02-07,2022-02-07,一般社団法人ヤングケアラーサロンネットワーク,,その他の設立登記法人,島根県,出雲市,斐川町上直江１８番地２,,32,203,6990624,,,,,,,2022-02-07,1,,,,,ヤングケアラーサロンネットワーク,0
277,1290001096339,新規,0,2022-02-07,2022-02-07,株式会社Ａｌｐｈａ,,株式会社,福岡県,飯塚市,横田５８３番地８ヴィラ．ソフィア１０１号,,40,205,8200044,,,,,,,2022-02-07,1,,,,,アルファ,0
278,1290001096347,新規,0,2022-02-07,2022-02-07,株式会社Ａｓｈ,,株式会社,福岡県,福岡市東区,香椎照葉３丁目３番１－２７１３号,,40,131,8130017,,,,,,,2022-02-07,1,,,,,アッシュ,0
281,1290805009520,新規,0,2022-02-07,2022-02-07,特定非営利活動法人スカイラボサポートセンター,,その他の設立登記法人,福岡県,田川市,大字夏吉１９４番地３８,,40,206,8250004,,,,,,,2022-02-07,1,,,,,スカイラボサポートセンター,0
284,1320003003719,新規,0,2022-02-07,2022-02-07,合同会社安部林業,,合同会社,大分県,宇佐市,院内町田所５６１番地,,44,211,8720473,,,,,,,2022-02-07,1,,,,,アベリンギョウ,0
290,1360001029984,新規,0,2022-02-07,2022-02-07,株式会社大道クリーン,,株式会社,沖縄県,宮古島市,平良字下里１３１２番地３,,47,214,9060013,,,,,,,2022-02-07,1,,,,,,0
291,1360005006591,新規,0,2022-02-07,2022-02-07,特定非営利活動法人ねこハピ,,その他の設立登記法人,沖縄県,宮古島市,平良字東仲宗根添１４４０番地１,,47,214,9060011,,,,,,,2022-02-07,1,,,,,ネコハピ,0
294,1370001048182,新規,0,2022-02-07,2022-02-07,株式会社プラットフォーム,,株式会社,宮城県,仙台市青葉区,中山２丁目７番１８号,,04,101,9810952,,,,,,,2022-02-07,1,,,,,プラットフォーム,0
296,1370003005578,新規,0,2022-02-07,2022-02-07,合同会社レムデクト,,合同会社,宮城県,仙台市泉区,長命ケ丘３丁目２７－３オメガコートビル２０６,,04,105,9813212,,,,,,,2022-02-07,1,,,,,レムデクト,0
307,1380001032549,新規,0,2022-02-07,2022-02-07,株式会社ひさわアグリサービス,,株式会社,福島県,南会津郡南会津町,福米沢字風下２２２番地１,,07,368,9670023,,,,,,,2022-02-07,1,,,,,ヒサワアグリサービス,0
310,1400003002893,新規,0,2022-02-07,2022-02-07,合同会社北のまほろば,,合同会社,岩手県,盛岡市,中ノ橋通１丁目１４番９号,,03,201,0200871,,,,,,,2022-02-07,1,,,,,キタノマホロバ,0
318,1430001085946,新規,0,2022-02-07,2022-02-07,株式会社ＣＯＮＥＪＯ　ＷＥＳＴ,,株式会社,北海道,札幌市中央区,南五条西３丁目１１番地４るりビル,,01,101,0640805,,,,,,,2022-02-07,1,,,,,コネホウエスト,0
335,2010001224339,新規,0,2022-02-07,2022-02-07,株式会社ｒｅＷａｌｋ,,株式会社,東京都,中央区,新川２丁目１３番１１号内田ビル４階,,13,102,1040033,,,,,,,2022-02-07,1,,,,,リウォーク,0
336,2010001224388,新規,0,2022-02-07,2022-02-07,晴の良品株式会社,,株式会社,東京都,中央区,晴海２丁目３番３０－１１０２号,,13,102,1040053,,,,,,,2022-02-07,1,,,,,ハルノリョウヒン,0
337,2010001224421,新規,0,2022-02-07,2022-02-07,株式会社Ａｉｒ,,株式会社,東京都,千代田区,九段南４丁目８番８－４０３号,,13,101,1020074,,,,,,,2022-02-07,1,,,,,エアー,0
339,2010003036939,新規,0,2022-02-07,2022-02-07,合同会社ＷＥＢ衛門,,合同会社,東京都,中央区,日本橋横山町７番１９号第３５イチオクビル３―１３,,13,102,1030003,,,,,,,2022-02-07,1,,,,,ウェブエモン,0
340,2010003036947,新規,0,2022-02-07,2022-02-07,合同会社サンシャイン４,,合同会社,東京都,中央区,日本橋１丁目４番１号日本橋一丁目ビルディング,,13,102,1030027,,,,,,,2022-02-07,1,,,,,サンシャインフォー,0
347,2010103001859,新規,0,2022-02-07,2022-02-07,友達合同会社,,合同会社,東京都,八王子市,平岡町２３－１２コロニアル平岡２Ｄ号室,,13,201,1920061,,,,,,,2022-02-07,1,,,,,トモダチ,0
355,2010401165422,新規,0,2022-02-07,2022-02-07,株式会社シマフクロウ,,株式会社,東京都,港区,浜松町２丁目２番１５号２Ｆ,,13,103,1050013,,,,,,,2022-02-07,1,,,,,シマフクロウ,0
356,2010405020656,新規,0,2022-02-07,2022-02-07,一般社団法人鳥栖不動産開発,,その他の設立登記法人,東京都,港区,虎ノ門３丁目２２番１０－２０１号,,13,103,1050001,,,,,,,2022-02-07,1,,,,,トスフドウサンカイハツ,0
360,2010701042180,新規,0,2022-02-07,2022-02-07,株式会社ＪＡＰＡＮ　Ｘ,,株式会社,東京都,品川区,大崎２丁目９番１号,,13,109,1410032,,,,,,,2022-02-07,1,,,,,ジャパンエックス,0
362,2010703006101,新規,0,2022-02-07,2022-02-07,合同会社シュープリーム,,合同会社,東京都,品川区,上大崎３丁目５番８－１３０３号,,13,109,1410021,,,,,,,2022-02-07,1,,,,,シュープリーム,0
369,2010901050306,新規,0,2022-02-07,2022-02-07,株式会社ＫＮＥＡＤ,,株式会社,東京都,世田谷区,玉川２丁目２４番６号シルク玉川長崎屋ビル８０３号室,,13,112,1580094,,,,,,,2022-02-07,1,,,,,ニード,0
376,2011001145450,新規,0,2022-02-07,2022-02-07,株式会社ＰＡＲＫ３６５,,株式会社,東京都,渋谷区,松濤２丁目１５番１号コルテ松涛２０１,,13,113,1500046,,,,,,,2022-02-07,1,,,,,パークサンロクゴ,0
377,2011001145541,新規,0,2022-02-07,2022-02-07,株式会社ｃｅｎｔｒｅ,,株式会社,東京都,渋谷区,笹塚３丁目９番１０号ＴＷＩＺＡ１０１,,13,113,1510073,,,,,,,2022-02-07,1,,,,,センター,0
380,2011003014117,新規,0,2022-02-07,2022-02-07,ボクノラボ合同会社,,合同会社,東京都,渋谷区,神宮前６丁目２３番４号桑野ビル２階,,13,113,1500001,,,,,,,2022-02-07,1,,,,,ボクノラボ,0
382,2011101097716,新規,0,2022-02-07,2022-02-07,麗維株式会社,,株式会社,東京都,新宿区,高田馬場４丁目１８番１２号中村ビル４Ｇ,,13,104,1690075,,,,,,,2022-02-07,1,,,,,リーウェイ,0
383,2011101097724,新規,0,2022-02-07,2022-02-07,株式会社粋虎,,株式会社,東京都,新宿区,新宿５丁目１０番２号ＫＫビル７階,,13,104,1600022,,,,,,,2022-02-07,1,,,,,スイコ,0
384,2011101097732,新規,0,2022-02-07,2022-02-07,株式会社ｇａｒｎｉｓｈ,,株式会社,東京都,新宿区,西新宿３丁目２番９号,,13,104,1600023,,,,,,,2022-02-07,1,,,,,ガーニッシュ,0
387,2011201023621,新規,0,2022-02-07,2022-02-07,株式会社ＷＡＲＰ,,株式会社,東京都,中野区,大和町１丁目２７番１３号,,13,114,1650034,,,,,,,2022-02-07,1,,,,,ワープ,0
391,2011601025721,新規,0,2022-02-07,2022-02-07,島根中央ホールディングス株式会社,,株式会社,東京都,練馬区,春日町５丁目６番９号コンチネンタルハイム春日町２０２,,13,120,1790074,,,,,,,2022-02-07,1,,,,,シマネチュウオウホールディングス,0
394,2011701025035,新規,0,2022-02-07,2022-02-07,株式会社ｓａｉｌ,,株式会社,東京都,江戸川区,西葛西２丁目２２－４５－４４１号,,13,123,1340088,,,,,,,2022-02-07,1,,,,,セイル,0
395,2011703003063,新規,0,2022-02-07,2022-02-07,合同会社たいせい,,合同会社,東京都,江戸川区,東瑞江２丁目１番１７号,,13,123,1320014,,,,,,,2022-02-07,1,,,,,タイセイ,0
399,2011805003143,新規,0,2022-02-07,2022-02-07,一般社団法人ふる舞い美人アカデミー,,その他の設立登記法人,東京都,足立区,扇２丁目６番１６号,,13,121,1230873,,,,,,,2022-02-07,1,,,,,フルマイビジンアカデミー,0
406,2012401038839,新規,0,2022-02-07,2022-02-07,株式会社フルスイング,,株式会社,東京都,狛江市,岩戸南３丁目７番２６号,,13,219,2010005,,,,,,,2022-02-07,1,,,,,フルスイング,0
409,2012801021386,新規,0,2022-02-07,2022-02-07,株式会社Ｌｕｍｉｒｉｓｅ,00125643,株式会社,東京都,立川市,曙町２丁目９番１号菊屋ビル２階,00125644,13,202,1900012,,,,,,,2022-02-07,1,,,,,ルミライズ,0
411,2012803002698,新規,0,2022-02-07,2022-02-07,ｔｒａｃｅ合同会社,,合同会社,東京都,日野市,日野本町１丁目１２番地の１ＧｒａｎｄｅＲｅｇａｌｏ１０４,,13,212,1910011,,,,,,,2022-02-07,1,,,,,トレイス,0
414,2013301048647,新規,0,2022-02-07,2022-02-07,株式会社ＤＳＫ,,株式会社,東京都,豊島区,池袋２丁目７８番５号,,13,116,1710014,,,,,,,2022-02-07,1,,,,,ディーエスケー,0
420,2020001145121,新規,0,2022-02-07,2022-02-07,ディープインパクト株式会社,,株式会社,神奈川県,川崎市高津区,末長４丁目１４番１８－５０７号,,14,134,2130013,,,,,,,2022-02-07,1,,,,,ディープインパクト,0
421,2020001145154,新規,0,2022-02-07,2022-02-07,株式会社ＭＯＧ,,株式会社,神奈川県,川崎市宮前区,平６丁目１０番５３号,,14,136,2160022,,,,,,,2022-02-07,1,,,,,モグ,0
423,2020003021270,新規,0,2022-02-07,2022-02-07,ＬＡＹＥＲＥＤ合同会社,,合同会社,神奈川県,川崎市麻生区,百合丘２丁目７－６リノヴェール新百合ケ丘５０２,,14,137,2150011,,,,,,,2022-02-07,1,,,,,レイヤード,0
426,2021001075127,新規,0,2022-02-07,2022-02-07,株式会社ＴＯＵＣＨＳＫＹ　ＪＡＰＡＮ,,株式会社,神奈川県,相模原市中央区,矢部２丁目１５－１０,,14,152,2520232,,,,,,,2022-02-07,1,,,,,タッチスカイジャパン,0
427,2021003011377,新規,0,2022-02-07,2022-02-07,合同会社テヒュラ,,合同会社,神奈川県,横須賀市,根岸町２丁目３２番８－１００１号,,14,201,2390807,,,,,,,2022-02-07,1,,,,,テヒュラ,0
438,2030001146671,新規,0,2022-02-07,2022-02-07,株式会社にじそら,,株式会社,埼玉県,春日部市,八丁目８８番地１,,11,214,3440006,,,,,,,2022-02-07,1,,,,,ニジソラ,0
439,2030001146705,新規,0,2022-02-07,2022-02-07,Ｃｒｅａｔｉｖｅ　ｎｕｍｂｅｒｏｎｅ株式会社,,株式会社,埼玉県,さいたま市大宮区,宮町１丁目８６番地１大宮イーストビル７階ワイムビジネスプラザ大宮７２５号室,,11,103,3300802,,,,,,,2022-02-07,1,,,,,クリエイティブナンバーワン,0
443,2030003018786,新規,0,2022-02-07,2022-02-07,合同会社東坂共同実業,,合同会社,埼玉県,さいたま市北区,土呂町２丁目９７番地１,,11,102,3310804,,,,,,,2022-02-07,1,,,,,アガリザカキョウドウジツギョウ,0
444,2030003018811,新規,0,2022-02-07,2022-02-07,Ｄ－Ｗａｙｓ合同会社,,合同会社,埼玉県,鶴ヶ島市,脚折町２丁目２１番２０号,,11,241,3502211,,,,,,,2022-02-07,1,,,,,ディーウェイズ,0
446,2040001122044,新規,0,2022-02-07,2022-02-07,株式会社Ｋａｉ,,株式会社,千葉県,松戸市,岩瀬１２５番地６号ファミール松戸グランドヒルズ４０１号,,12,207,2710076,,,,,,,2022-02-07,1,,,,,カイ,0
447,2040001122060,新規,0,2022-02-07,2022-02-07,株式会社ソンジュ,,株式会社,千葉県,千葉市花見川区,さつきが丘１丁目３４番１棟１０５号,,12,102,2620014,,,,,,,2022-02-07,1,,,,,ソンジュ,0
448,2040001122069,新規,0,2022-02-07,2022-02-07,株式会社オレイド,,株式会社,千葉県,船橋市,市場１丁目２番２０号,,12,204,2730001,,,,,,,2022-02-07,1,,,,,オレイド,0
449,2040001122077,新規,0,2022-02-07,2022-02-07,株式会社コノジアイランド,,株式会社,千葉県,船橋市,夏見４丁目２５番４号,,12,204,2730865,,,,,,,2022-02-07,1,,,,,コノジアイランド,0
450,2040001122093,新規,0,2022-02-07,2022-02-07,株式会社前田商事Ａｉｄｉｏｎ,,株式会社,千葉県,千葉市中央区,富士見２丁目２１番９号しんなかビル３階,,12,101,2600015,,,,,,,2022-02-07,1,,,,,マエダショウジアーイディオン,0
451,2040001122135,新規,0,2022-02-07,2022-02-07,株式会社エレファンツ,,株式会社,千葉県,浦安市,富岡４丁目９番４号,,12,227,2790021,,,,,,,2022-02-07,1,,,,,エレファンツ,0
452,2040001122151,新規,0,2022-02-07,2022-02-07,ＲＲＫ－ＴＯＰＯＮＥ株式会社,,株式会社,千葉県,千葉市若葉区,若松町５３１－３３９,,12,104,2640021,,,,,,,2022-02-07,1,,,,,アールアールケートップワン,0
460,2040003019437,新規,0,2022-02-07,2022-02-07,合同会社Ａｄｏｒａｂｌｅ,,合同会社,千葉県,習志野市,谷津５丁目４番７号ファースト谷津ハイツＮｏ．１－３０２号室,,12,216,2750026,,,,,,,2022-02-07,1,,,,,アドーラブル,0
468,2060001034551,新規,0,2022-02-07,2022-02-07,株式会社ＢＩＮＨ－ＡＮ貿易,,株式会社,栃木県,下都賀郡壬生町,大字上稲葉１７７０番地２,,09,361,3210236,,,,,,,2022-02-07,1,,,,,ビンアンボウエキ,0
469,2060003003942,新規,0,2022-02-07,2022-02-07,エベレスト合同会社,,合同会社,栃木県,栃木市,旭町７番１５号,,09,203,3280035,,,,,,,2022-02-07,1,,,,,エベレスト,0
471,2070001038931,新規,0,2022-02-07,2022-02-07,株式会社トライアンフル,,株式会社,群馬県,桐生市,相生町２丁目２７０番１号前原貸店舗２－Ｂ,,10,203,3760011,,,,,,,2022-02-07,1,,,,,トライアンフル,0
475,2080101023089,新規,0,2022-02-07,2022-02-07,株式会社エキスパート開発,,株式会社,静岡県,沼津市,添地町１５７番地２Ｆ,,22,203,4100803,,,,,,,2022-02-07,1,,,,,エキスパートカイハツ,0
477,2090001017396,新規,0,2022-02-07,2022-02-07,ふじやま株式会社,,株式会社,山梨県,南都留郡富士河口湖町,小立２１８番地,,19,430,4010302,,,,,,,2022-02-07,1,,,,,フジヤマ,0
480,2100001035041,新規,0,2022-02-07,2022-02-07,株式会社マルミツ,,株式会社,長野県,飯田市,鼎名古熊２４３８番地１,,20,205,3950804,,,,,,,2022-02-07,1,,,,,マルミツ,0
482,2100003006404,新規,0,2022-02-07,2022-02-07,合同会社ＲＳ建設,,合同会社,長野県,諏訪市,大字中洲２５１番地８,,20,206,3920015,,,,,,,2022-02-07,1,,,,,アールエスケンセツ,0
483,2100005012821,新規,0,2022-02-07,2022-02-07,一般社団法人地球と遊ぶ,,その他の設立登記法人,長野県,上水内郡小川村,大字瀬戸川９７３番地１,,20,588,3813304,,,,,,,2022-02-07,1,,,,,チキュウトアソブ,0
494,2120001243617,新規,0,2022-02-07,2022-02-07,株式会社惣建,,株式会社,大阪府,寝屋川市,小路北町２４番２４号,,27,215,5720865,,,,,,,2022-02-07,1,,,,,ソウケン,0
495,2120001243682,新規,0,2022-02-07,2022-02-07,ＹｕＢｅｅ株式会社,,株式会社,大阪府,大阪市福島区,吉野２丁目１１番３０－１５０２号,,27,103,5530006,,,,,,,2022-02-07,1,,,,,ユービー,0
496,2120001243699,新規,0,2022-02-07,2022-02-07,株式会社エース,,株式会社,大阪府,大阪市此花区,酉島５丁目９番４９号,,27,104,5540051,,,,,,,2022-02-07,1,,,,,エース,0
500,2120005022785,新規,0,2022-02-07,2022-02-07,特定非営利活動法人ふうせんの会,,その他の設立登記法人,大阪府,交野市,倉治２丁目４４番２１号,,27,230,5760051,,,,,,,2022-02-07,1,,,,,フウセンノカイ,0
502,2120101065036,新規,0,2022-02-07,2022-02-07,株式会社ＴＫ企画,,株式会社,大阪府,堺市堺区,栄橋町１丁５番８号,,27,141,5900971,,,,,,,2022-02-07,1,,,,,ティーケイキカク,0
503,2120101065044,新規,0,2022-02-07,2022-02-07,株式会社メドスマート,,株式会社,大阪府,羽曳野市,誉田３丁目１４番２１号,,27,222,5830857,,,,,,,2022-02-07,1,,,,,メドスマート,0
504,2120903004026,新規,0,2022-02-07,2022-02-07,ソルシティ合同会社,,合同会社,大阪府,吹田市,岸部中４丁目７番２２号,,27,205,5640002,,,,,,,2022-02-07,1,,,,,ソルシティ,0
512,2130001071091,新規,0,2022-02-07,2022-02-07,株式会社ナイントラスト,,株式会社,京都府,京都市下京区,東洞院通七条上る飴屋町２４９番地木村ビル３階,,26,106,6008148,,,,,,,2022-02-07,1,,,,,ナイントラスト,0
515,2130003007614,新規,0,2022-02-07,2022-02-07,Ａｒｉｅｓ合同会社,,合同会社,京都府,京都市中京区,西ノ京笠殿町１５５番地,,26,104,6048482,,,,,,,2022-02-07,1,,,,,アリエス,0
521,2140001124815,新規,0,2022-02-07,2022-02-07,株式会社ＷＳクリエイト,,株式会社,兵庫県,姫路市,岩端町９８番地７,,28,201,6700028,,,,,,,2022-02-07,1,,,,,ダブルエスクリエイト,0
522,2140001124823,新規,0,2022-02-07,2022-02-07,株式会社ボルテージ,,株式会社,兵庫県,神戸市中央区,北野町１丁目５番７号,,28,110,6500002,,,,,,,2022-02-07,1,,,,,ボルテージ,0
528,2140003017315,新規,0,2022-02-07,2022-02-07,合同会社スタイリスト姫路,,合同会社,兵庫県,姫路市,東延末１丁目３８番地メゾンファイブ松本１０１,,28,201,6700965,,,,,,,2022-02-07,1,,,,,スタイリストヒメジ,0
529,2140003017323,新規,0,2022-02-07,2022-02-07,ＹＧ合同会社,,合同会社,兵庫県,神戸市中央区,栄町通２丁目４番１３号神栄ビル６０２号,,28,110,6500023,,,,,,,2022-02-07,1,,,,,ワイジー,0
539,2180001149890,新規,0,2022-02-07,2022-02-07,株式会社中高年起業総合研究所,,株式会社,愛知県,名古屋市西区,名駅２丁目３４番１７号セントラル名古屋１１０１号,,23,104,4510045,,,,,,,2022-02-07,1,,,,,チュウコウネンキギョウソウゴウケンキュウショ,0
540,2180001149908,新規,0,2022-02-07,2022-02-07,株式会社ＢＰＫ　Ｎａｔｉоｎａｌ,,株式会社,愛知県,名古屋市守山区,百合が丘１０１３番地の３,,23,113,4630806,,,,,,,2022-02-07,1,,,,,ビーピーケーナショナル,0
548,2180301035907,新規,0,2022-02-07,2022-02-07,株式会社ムラタ,,株式会社,愛知県,豊川市,蔵子３丁目４番地６,,23,207,4420842,,,,,,,2022-02-07,1,,,,,ムラタ,0
550,2190003003896,新規,0,2022-02-07,2022-02-07,Ｔｅｎ企画合同会社,,合同会社,三重県,度会郡度会町,上久具１１０８番地２,,24,470,5162112,,,,,,,2022-02-07,1,,,,,テンキカク,0
552,2200001039726,新規,0,2022-02-07,2022-02-07,株式会社ＳＯＬＡ,,株式会社,岐阜県,岐阜市,鏡島中１丁目９番４０－３０３号,,21,201,5010124,,,,,,,2022-02-07,1,,,,,ソラ,0
560,2230001019221,新規,0,2022-02-07,2022-02-07,株式会社Ｅｅでんき,,株式会社,富山県,滑川市,北野１４１番地１１,,16,206,9360806,,,,,,,2022-02-07,1,,,,,イーデンキ,0
566,2240001059290,新規,0,2022-02-07,2022-02-07,株式会社Ａ‐ＦＲＡＭＥ,,株式会社,広島県,福山市,水呑町１６７番地６,,34,207,7200832,,,,,,,2022-02-07,1,,,,,エイフレイム,0
567,2240001059299,新規,0,2022-02-07,2022-02-07,株式会社ＣＲＩＢ,,株式会社,広島県,福山市,南蔵王町３丁目１番３４号,,34,207,7210973,,,,,,,2022-02-07,1,,,,,クリブ,0
569,2240003005490,新規,0,2022-02-07,2022-02-07,スカイドリーム合同会社,,合同会社,広島県,安芸郡府中町,茂陰２丁目５番２９号ウイングコート大洲通り３０８号,,34,302,7350029,,,,,,,2022-02-07,1,,,,,スカイドリーム,0
571,2250001019401,新規,0,2022-02-07,2022-02-07,株式会社あおむし,,株式会社,山口県,大島郡周防大島町,大字椋野１８６３,,35,305,7422302,,,,,,,2022-02-07,1,,,,,アオムシ,0
573,2280001008632,新規,0,2022-02-07,2022-02-07,Ｔｅｒｒａｓｔｏｒｙ株式会社,,株式会社,島根県,松江市,母衣町１７２番地,,32,201,6900886,,,,,,,2022-02-07,1,,,,,テラストーリー,0
578,2290001096338,新規,0,2022-02-07,2022-02-07,ＡＤＳ株式会社,,株式会社,福岡県,福岡市東区,箱崎７丁目２０番１１－１００９号,,40,131,8120053,,,,,,,2022-02-07,1,,,,,エーディーエス,0
579,2290001096346,新規,0,2022-02-07,2022-02-07,株式会社セレスティア,,株式会社,福岡県,太宰府市,観世音寺１丁目２６番１５号,,40,221,8180101,,,,,,,2022-02-07,1,,,,,セレスティア,0
580,2290001096370,新規,0,2022-02-07,2022-02-07,ウエツ緑地建設株式会社,,株式会社,福岡県,宗像市,曲１８５８－１０,,40,220,8113413,,,,,,,2022-02-07,1,,,,,ウエツリョクチケンセツ,0
582,2290003012128,新規,0,2022-02-07,2022-02-07,合同会社アバウトフォー,,合同会社,福岡県,糸島市,伊都の杜３丁目１３番１１号,,40,230,8191130,,,,,,,2022-02-07,1,,,,,アバウトフォー,0
583,2290801028226,新規,0,2022-02-07,2022-02-07,株式会社幸進,,株式会社,福岡県,田川郡川崎町,大字池尻１８０番地３,,40,605,8270002,,,,,,,2022-02-07,1,,,,,コウシン,0
584,2290801028242,新規,0,2022-02-07,2022-02-07,トレード・イン株式会社,,株式会社,福岡県,北九州市小倉北区,浅野３丁目８番１号ＡＩＭビル６階,,40,106,8020001,,,,,,,2022-02-07,1,,,,,トレードイン,0
587,2320003003718,新規,0,2022-02-07,2022-02-07,合同会社ｗａｋｕｗｏｒｋｓ,,合同会社,大分県,大分市,大字津守１２５０番地の１３,,44,201,8700945,,,,,,,2022-02-07,1,,,,,ワクワークス,0
596,2330003009235,新規,0,2022-02-07,2022-02-07,合同会社ｇｉｆｔ,,合同会社,熊本県,熊本市南区,砂原町３１５番地１,,43,104,8615255,,,,,,,2022-02-07,1,,,,,ギフト,0
613,2390001016764,新規,0,2022-02-07,2022-02-07,五十鈴建材株式会社,,株式会社,山形県,長井市,寺泉３０７１番地,,06,209,9930061,,,,,,,2022-02-07,1,,,,,イスズケンザイ,0
614,2400001015772,新規,0,2022-02-07,2022-02-07,株式会社ゴールデンベルダ,,株式会社,岩手県,奥州市,水沢東大通り３丁目５番３０号ベルダ,,03,215,0230828,,,,,,,2022-02-07,1,,,,,ゴールデンベルダ,0
619,2430001085945,新規,0,2022-02-07,2022-02-07,株式会社ＣＯＮＥＪＯ　ＮＥＸＴ,,株式会社,北海道,札幌市中央区,南五条西４丁目９番地４新世界ビル,,01,101,0640805,,,,,,,2022-02-07,1,,,,,コネホネクスト,0
620,2430003013598,新規,0,2022-02-07,2022-02-07,合同会社仁,,合同会社,北海道,札幌市清田区,清田七条１丁目９番２１号,,01,110,0040847,,,,,,,2022-02-07,1,,,,,ジン,0
621,2430003013607,新規,0,2022-02-07,2022-02-07,合同会社みんなのガッコウ,,合同会社,北海道,北広島市,輝美町８番地２,,01,234,0611135,,,,,,,2022-02-07,1,,,,,ミンナノガッコウ,0
636,2700150015023,新規,0,2022-02-07,2015-10-09,千葉県生産性本部,,その他,千葉県,千葉市中央区,千葉港４―３千葉県経営者会館内,,12,101,2600026,,,,,,,2015-10-09,1,,,,,チバケンセイサンセイホンブ,0
644,3010001224338,新規,0,2022-02-07,2022-02-07,ＩＴマネジメント・コンサルティング株式会社,,株式会社,東京都,中央区,銀座４丁目１４－１５サントル銀座四丁目８０３号室,,13,102,1040061,,,,,,,2022-02-07,1,,,,,アイティマネジメントコンサルティング,0
645,3010001224395,新規,0,2022-02-07,2022-02-07,株式会社フォアーエックス,,株式会社,東京都,千代田区,東神田２丁目８－１６,,13,101,1010031,,,,,,,2022-02-07,1,,,,,フォアーエックス,0
647,3010003036954,新規,0,2022-02-07,2022-02-07,合同会社ニッコーマテリアル,,合同会社,東京都,千代田区,九段北１丁目２－１２,,13,101,1020073,,,,,,,2022-02-07,1,,,,,ニッコーマテリアル,0
649,3010005034551,新規,0,2022-02-07,2022-02-07,一般社団法人全国介護事業者連盟万博コンソーシアム２０２５,,その他の設立登記法人,東京都,千代田区,麹町４丁目１番４号西脇ビル４階,,13,101,1020083,,,,,,,2022-02-07,1,,,,,ゼンコクカイゴジギョウシャレンメイバンパクコンソーシアムニセンニジュウゴ,0
653,3010103001858,新規,0,2022-02-07,2022-02-07,合同会社ｓｐｒｏｕｔ,,合同会社,東京都,八王子市,緑町６８番地８,,13,201,1930932,,,,,,,2022-02-07,1,,,,,スプラウト,0
663,3010401165388,新規,0,2022-02-07,2022-02-07,株式会社秀明社,,株式会社,東京都,港区,浜松町２丁目２番１５号浜松町ダイヤビル２Ｆ,,13,103,1050013,,,,,,,2022-02-07,1,,,,,シュウメイシャ,0
664,3010401165396,新規,0,2022-02-07,2022-02-07,株式会社ベーシックユニット,,株式会社,東京都,港区,虎ノ門１丁目３番１号東京グローバルスクエア５階,,13,103,1050001,,,,,,,2022-02-07,1,,,,,ベーシックユニット,0
665,3010401165405,新規,0,2022-02-07,2022-02-07,ＥＶＥＲ　ＧＬＯＷ株式会社,,株式会社,東京都,港区,三田１丁目１番１２－５０３号,,13,103,1080073,,,,,,,2022-02-07,1,,,,,エバーグロウ,0
666,3010401165421,新規,0,2022-02-07,2022-02-07,ＫＩキャピタル株式会社,,株式会社,東京都,港区,元麻布３丁目８番５０号Ｔｈｅ・Ｕｐｐｅｒ・Ｈｏｕｓｅ４０４,,13,103,1060046,,,,,,,2022-02-07,1,,,,,ケーアイキャピタル,0
671,3010405020663,新規,0,2022-02-07,2022-02-07,ＵＩ　Ｋｏｎａｎ　Ｋａｎｓａｉ２特定目的会社,,その他の設立登記法人,東京都,港区,元赤坂１丁目１番７号,,13,103,1070051,,,,,,,2022-02-07,1,,,,,ユーアイコナンカンサイツー,0
673,3010503006498,新規,0,2022-02-07,2022-02-07,カジアーキテクツ合同会社,,合同会社,東京都,台東区,上野７丁目１４番７－５０１号朝日サテライト上野,,13,106,1100005,,,,,,,2022-02-07,1,,,,,カジアーキテクツ,0
675,3010601060612,新規,0,2022-02-07,2022-02-07,株式会社すぎかつら,,株式会社,東京都,江東区,大島２丁目３３番１０－１２０６,,13,108,1360072,,,,,,,2022-02-07,1,,,,,スギカツラ,0
676,3010601060620,新規,0,2022-02-07,2022-02-07,ＭＥＤＸ株式会社,,株式会社,東京都,墨田区,太平４丁目１番３号オリナスタワー１２階,,13,107,1300012,,,,,,,2022-02-07,1,,,,,メデックス,0
677,3010601060637,新規,0,2022-02-07,2022-02-07,株式会社Ｐｕｍｐ　ｕｐ　Ｊａｐａｎ,,株式会社,東京都,墨田区,向島３丁目１８－５押上プラザマンション３０１,,13,107,1310033,,,,,,,2022-02-07,1,,,,,パンプアップジャパン,0
678,3010603009384,新規,0,2022-02-07,2022-02-07,合同会社ＢＡＳＥ,,合同会社,東京都,江東区,門前仲町１丁目１９番１１－２０５号,,13,108,1350048,,,,,,,2022-02-07,1,,,,,ベース,0
682,3010901050313,新規,0,2022-02-07,2022-02-07,Ｃｙｐｈｅｒ株式会社,,株式会社,東京都,世田谷区,北沢５丁目３８番２５号,,13,112,1550031,,,,,,,2022-02-07,1,,,,,サイファー,0
689,3011001145474,新規,0,2022-02-07,2022-02-07,株式会社ＤＩＥＴ　ＢＵＴＣＨＥＲ,,株式会社,東京都,渋谷区,神宮前５丁目２５番４号,,13,113,1500001,,,,,,,2022-02-07,1,,,,,ダイエットブッチャー,0
690,3011001145549,新規,0,2022-02-07,2022-02-07,株式会社Ｔｅｃｈｎｏｓｉｒｕ,,株式会社,東京都,渋谷区,神宮前６丁目２３番４号桑野ビル２階,,13,113,1500001,,,,,,,2022-02-07,1,,,,,テクノシル,0
691,3011001145573,新規,0,2022-02-07,2022-02-07,株式会社外国人の窓口,,株式会社,東京都,渋谷区,恵比寿１丁目８番１４号大黒ビル６１５,,13,113,1500013,,,,,,,2022-02-07,1,,,,,ガイコクジンノマドグチ,0
694,3011003014132,新規,0,2022-02-07,2022-02-07,合同会社ナンバーエイト,,合同会社,東京都,渋谷区,道玄坂１丁目１０番８号渋谷道玄坂東急ビル２Ｆ－Ｃ,,13,113,1500043,,,,,,,2022-02-07,1,,,,,ナンバーエイト,0
695,3011003014140,新規,0,2022-02-07,2022-02-07,合同会社ＫＮ　Ａｄｖｉｓｏｒｙ,,合同会社,東京都,渋谷区,富ヶ谷２丁目１７番５号,,13,113,1510063,,,,,,,2022-02-07,1,,,,,ケーエヌアドバイザリー,0
698,3011101097723,新規,0,2022-02-07,2022-02-07,株式会社ＭＣＤ　ｃｏｎｓｔｒｕｃｔｉｏｎ,,株式会社,東京都,新宿区,新宿６丁目２７番１－５０８号ライオンズガーデン,,13,104,1600022,,,,,,,2022-02-07,1,,,,,エムシーディーコンストラクション,0
700,3011103011442,新規,0,2022-02-07,2022-02-07,合同会社ルピナスヤマザキ,,合同会社,東京都,新宿区,築地町１６番地４１０,,13,104,1620818,,,,,,,2022-02-07,1,,,,,ルピナスヤマザキ,0
701,3011105010129,新規,0,2022-02-07,2022-02-07,司法書士法人ａｖｉａｔｏｒｓ,,その他の設立登記法人,東京都,新宿区,西新宿７丁目７番２６号４０６,,13,104,1600023,,,,,,,2022-02-07,1,,,,,アビエイターズ,0
702,3011201023612,新規,0,2022-02-07,2022-02-07,株式会社テレステージ,,株式会社,東京都,中野区,中野３丁目３４番３２号,,13,114,1640001,,,,,,,2022-02-07,1,,,,,テレステージ,0
705,3011401024006,新規,0,2022-02-07,2022-02-07,株式会社ｔｅｒｒａ　ｖｉｓｉｏｎ,,株式会社,東京都,板橋区,成増３丁目３７番１号,,13,119,1750094,,,,,,,2022-02-07,1,,,,,テラビジョン,0
710,3011701025026,新規,0,2022-02-07,2022-02-07,三友商事株式会社,,株式会社,東京都,江戸川区,南小岩７丁目２２番１－１９０２号,,13,123,1330056,,,,,,,2022-02-07,1,,,,,サンユウショウジ,0
711,3011703003062,新規,0,2022-02-07,2022-02-07,合同会社ＧＲＥＥＮ　ＶＥＧＥ－ＷＯＲＫＳ,,合同会社,東京都,江戸川区,東小松川２丁目３５番１２号,,13,123,1320033,,,,,,,2022-02-07,1,,,,,,0
725,3012803002697,新規,0,2022-02-07,2022-02-07,合同会社ベロニカペルシカ,,合同会社,東京都,武蔵村山市,大南１丁目１１６番地２８号,,13,223,2080013,,,,,,,2022-02-07,1,,,,,ベロニカペルシカ,0
726,3013101008841,新規,0,2022-02-07,2022-02-07,やすらぎ葬祭株式会社,,株式会社,東京都,西多摩郡瑞穂町,箱根ケ崎東松原１２番地１,,13,303,1901222,,,,,,,2022-02-07,1,,,,,ヤスラギソウサイ,0
734,3020001145112,新規,0,2022-02-07,2022-02-07,株式会社Ｕ・Ｅ・Ｄ,,株式会社,神奈川県,横浜市青葉区,新石川４丁目８番地３６,,14,117,2250003,,,,,,,2022-02-07,1,,,,,ユーイーディー,0
739,3021001075134,新規,0,2022-02-07,2022-02-07,株式会社ＢＥＸＴ,,株式会社,神奈川県,小田原市,栄町２丁目１２番３号,,14,206,2500011,,,,,,,2022-02-07,1,,,,,ベクスト,0
753,3030001146638,新規,0,2022-02-07,2022-02-07,株式会社Ｙ’ｓメンテナンス,,株式会社,埼玉県,本庄市,寿２丁目１１番地,,11,211,3670023,,,,,,,2022-02-07,1,,,,,ワイズメンテナンス,0
754,3030001146662,新規,0,2022-02-07,2022-02-07,株式会社ｇｏｏｗ,,株式会社,埼玉県,蕨市,錦町３丁目１１番１６号,,11,223,3350005,,,,,,,2022-02-07,1,,,,,グー,0
760,3030003018793,新規,0,2022-02-07,2022-02-07,合同会社ＣＣ,,合同会社,埼玉県,蕨市,南町１丁目３３－３２－２０３,,11,223,3350003,,,,,,,2022-02-07,1,,,,,シーシー,0
761,3030003018802,新規,0,2022-02-07,2022-02-07,合同会社大発,,合同会社,埼玉県,新座市,大和田１丁目１８番１号,,11,230,3520004,,,,,,,2022-02-07,1,,,,,ダイハツ,0
762,3030003018810,新規,0,2022-02-07,2022-02-07,合同会社ＨＳ,,合同会社,埼玉県,朝霞市,西弁財１丁目９番１１号ライオンズステーションプラザ朝霞台１１０２号室,,11,227,3510021,,,,,,,2022-02-07,1,,,,,エイチエス,0
766,3040001122010,新規,0,2022-02-07,2022-02-07,株式会社コラボレーション,,株式会社,千葉県,柏市,五條谷３２番地の１,,12,217,2770913,,,,,,,2022-02-07,1,,,,,コラボレーション,0
767,3040001122068,新規,0,2022-02-07,2022-02-07,株式会社ＮＥＸＴ,,株式会社,千葉県,銚子市,余山町３９３番地の１,,12,202,2880846,,,,,,,2022-02-07,1,,,,,ネクスト,0
768,3040001122092,新規,0,2022-02-07,2022-02-07,株式会社Ｔｉｅｒ　Ｆａｍｉｌｉａｒ,,株式会社,千葉県,浦安市,富士見１丁目１５番１７号ハイグレース３０２号室,,12,227,2790043,,,,,,,2022-02-07,1,,,,,ティアファミリア,0
769,3040001122118,新規,0,2022-02-07,2022-02-07,株式会社ヒュープレックス,,株式会社,千葉県,鎌ケ谷市,道野辺中央５丁目４番３５号,,12,224,2730113,,,,,,,2022-02-07,1,,,,,ヒュープレックス,0
770,3040001122134,新規,0,2022-02-07,2022-02-07,株式会社北王ファーム,,株式会社,千葉県,印旛郡栄町,北辺田５９４番地１,,12,329,2701511,,,,,,,2022-02-07,1,,,,,ホクオウファーム,0
771,3040001122142,新規,0,2022-02-07,2022-02-07,株式会社西東,,株式会社,千葉県,茂原市,茂原１５０９番地９,,12,210,2970026,,,,,,,2022-02-07,1,,,,,シャトウ,0
772,3040001122150,新規,0,2022-02-07,2022-02-07,株式会社ＳＡＬＴＥ,,株式会社,千葉県,習志野市,鷺沼４丁目１２番３０号,,12,216,2750014,,,,,,,2022-02-07,1,,,,,サルテ,0
774,3040003019444,新規,0,2022-02-07,2022-02-07,合同会社Ｍｙｓｔｉｃ　Ｌａｙｅｒ,,合同会社,千葉県,松戸市,二十世紀が丘丸山町１５－７,,12,207,2710084,,,,,,,2022-02-07,1,,,,,ミスティックレイヤー,0
777,3050001050565,新規,0,2022-02-07,2022-02-07,株式会社ＫＩＮ,,株式会社,茨城県,土浦市,桜町２丁目５番１１号,,08,203,3000037,,,,,,,2022-02-07,1,,,,,ケイアイエヌ,0
785,3070001038922,新規,0,2022-02-07,2022-02-07,株式会社ＴＫ　ｃｏｎｓｔｒｕｃｔｉｏｎ,,株式会社,群馬県,太田市,小舞木町２５４番地トータスビル１－Ｂ,,10,205,3730818,,,,,,,2022-02-07,1,,,,,ティーケーコンストラクション,0
786,3070001038930,新規,0,2022-02-07,2022-02-07,株式会社イチデナ・ホールディングス,,株式会社,群馬県,太田市,東新町４９７番地１メゾネット一ノ瀬Ａ－１,,10,205,3730015,,,,,,,2022-02-07,1,,,,,イチデナホールディングス,0
802,3110001036418,新規,0,2022-02-07,2022-02-07,ＡＮＥＳＹＳハセガワ株式会社,,株式会社,新潟県,妙高市,大字十日市４７３番地,,15,217,9440095,,,,,,,2022-02-07,1,,,,,アネシスハセガワ,0
820,3120001243624,新規,0,2022-02-07,2022-02-07,ＲｅｌａｔｉｏｎＦｉｓｈ株式会社,,株式会社,大阪府,大阪市北区,天満１丁目１８番１７号,,27,127,5300043,,,,,,,2022-02-07,1,,,,,リレーションフィッシュ,0
821,3120001243632,新規,0,2022-02-07,2022-02-07,ベーイ株式会社,,株式会社,大阪府,大阪市西成区,花園南１丁目７番２１号,,27,122,5570015,,,,,,,2022-02-07,1,,,,,ベーイ,0
822,3120001243707,新規,0,2022-02-07,2022-02-07,株式会社ＴＡＫＡＭＥＡＵ,,株式会社,大阪府,大阪市西区,土佐堀１丁目１番２１号,,27,106,5500001,,,,,,,2022-02-07,1,,,,,タカメアウ,0
823,3120001243715,新規,0,2022-02-07,2022-02-07,株式会社光陽建設,,株式会社,大阪府,交野市,郡津１丁目１番１２４号,,27,230,5760053,,,,,,,2022-02-07,1,,,,,コウヨウケンセツ,0
826,3120003021086,新規,0,2022-02-07,2022-02-07,合同会社アールケープランニング,,合同会社,大阪府,門真市,元町４番１２－１２０３号,,27,223,5710057,,,,,,,2022-02-07,1,,,,,アールケープランニング,0
827,3120003021094,新規,0,2022-02-07,2022-02-07,Ｄ．Ｐ．Ｒ．Ｓ合同会社,,合同会社,大阪府,大阪市城東区,古市１丁目１番１０－４０２号,,27,118,5360001,,,,,,,2022-02-07,1,,,,,ディーピーアールエス,0
831,3120101065035,新規,0,2022-02-07,2022-02-07,株式会社ＹＭロード,,株式会社,大阪府,堺市東区,白鷺町３丁２３番１５号,,27,143,5998107,,,,,,,2022-02-07,1,,,,,ワイエムロード,0
832,3120101065043,新規,0,2022-02-07,2022-02-07,株式会社Ｙ’ｓ　Ｇｒｏｕｐ,,株式会社,大阪府,堺市中区,深井東町２６５０番地９,,27,142,5998235,,,,,,,2022-02-07,1,,,,,ワイズグループ,0
837,3122001035563,新規,0,2022-02-07,2022-02-07,株式会社ＧＡＲＴＥＮ,,株式会社,大阪府,八尾市,八尾木１丁目１番地の３,,27,212,5810027,,,,,,,2022-02-07,1,,,,,ガルテン,0
840,3130001070943,新規,0,2022-02-07,2022-02-07,株式会社マイスタイル,,株式会社,京都府,京都市中京区,新町通四条上る小結棚町４３１番地ヴォール・ヴォラン２０２号室,,26,104,6048223,,,,,,,2022-02-07,1,,,,,マイスタイル,0
841,3130001071090,新規,0,2022-02-07,2022-02-07,株式会社Ｙ’ｓ　ｓｅｃｕｒｉｔｙ　ｓｅｒｖｉｃｅ,,株式会社,京都府,京都市北区,上賀茂馬ノ目町４９－３７,,26,101,6038033,,,,,,,2022-02-07,1,,,,,ワイズセキュリティサービス,0
846,3130003007613,新規,0,2022-02-07,2022-02-07,Ｆｏｒｓｙｔｈｉａ合同会社,,合同会社,京都府,京都市中京区,西ノ京笠殿町１５５番地,,26,104,6048482,,,,,,,2022-02-07,1,,,,,フォルシシア,0
847,3130003007720,新規,0,2022-02-07,2022-02-07,合同会社Ｍａｔｓｕｉｙａｍａｔｅ　Ｉｎｔｅｒｎａｔｉｏｎａｌ　Ｓｃｈｏｏｌ,,合同会社,京都府,京田辺市,山手西２丁目２番１０号日東センタービル３階,,26,211,6100355,,,,,,,2022-02-07,1,,,,,マツイヤマテインターナショナルスクール,0
848,3130003007737,新規,0,2022-02-07,2022-02-07,合同会社Ｌｉ,,合同会社,京都府,宇治市,広野町寺山５８－４５,,26,204,6110031,,,,,,,2022-02-07,1,,,,,エルアイ,0
861,3140001124624,新規,0,2022-02-07,2022-02-07,サンドボックス株式会社,,株式会社,兵庫県,神戸市東灘区,向洋町中１丁目１０番地１０１号棟２８１２号室,,28,101,6580032,,,,,,,2022-02-07,1,,,,,サンドボックス,0
862,3140001124814,新規,0,2022-02-07,2022-02-07,アローホールディングス株式会社,,株式会社,兵庫県,神戸市中央区,雲井通４丁目２番２号,,28,110,6510096,,,,,,,2022-02-07,1,,,,,アローホールディングス,0
865,3140003017322,新規,0,2022-02-07,2022-02-07,合同会社ＫＳＲ,,合同会社,兵庫県,神戸市中央区,熊内町４丁目３番７号,,28,110,6510056,,,,,,,2022-02-07,1,,,,,ケイエスアール,0
866,3140003017330,新規,0,2022-02-07,2022-02-07,合同会社ＳＨＹ,,合同会社,兵庫県,尼崎市,東難波町４丁目２１－３５－９０９,,28,202,6600892,,,,,,,2022-02-07,1,,,,,シャイ,0
871,3140005025983,新規,0,2022-02-07,2022-02-07,一般社団法人このはホーム,,その他の設立登記法人,兵庫県,明石市,王子２丁目１８番２０号,,28,203,6730022,,,,,,,2022-02-07,1,,,,,コノハホーム,0
881,3180001149824,新規,0,2022-02-07,2022-02-07,株式会社カネ成,,株式会社,愛知県,知多郡南知多町,大字片名字新師崎１１番地の１,,23,445,4703502,,,,,,,2022-02-07,1,,,,,カネセイ,0
882,3180001149832,新規,0,2022-02-07,2022-02-07,エイチエーエナジー株式会社,,株式会社,愛知県,名古屋市北区,光音寺町字野方１９０７番地の１４９（オアシス第２ビル１０１号）,,23,103,4620053,,,,,,,2022-02-07,1,,,,,エイチエーエナジー,0
883,3180001149873,新規,0,2022-02-07,2022-02-07,株式会社山丸,,株式会社,愛知県,東海市,富貴ノ台５丁目２２８番地,,23,222,4760014,,,,,,,2022-02-07,1,,,,,ヤママル,0
884,3180001149881,新規,0,2022-02-07,2022-02-07,株式会社ジーニアル,,株式会社,愛知県,愛西市,大井町樫ノ木１２３番地,,23,232,4960921,,,,,,,2022-02-07,1,,,,,ジーニアル,0
885,3180001149898,新規,0,2022-02-07,2022-02-07,株式会社ＵＮＩＴＥ,,株式会社,愛知県,名古屋市中村区,那古野１丁目３８番１１号サクラＨｉｌｌｓリバーサイドＥＡＳＴ９０６号,,23,105,4500001,,,,,,,2022-02-07,1,,,,,ユナイト,0
897,3180303005246,新規,0,2022-02-07,2022-02-07,Ａメタル合同会社,,合同会社,愛知県,豊橋市,大村町字山所１１番地,,23,201,4400081,,,,,,,2022-02-07,1,,,,,エーメタル,0
907,3200005013305,新規,0,2022-02-07,2022-02-07,一般社団法人覚醒の学校,,その他の設立登記法人,岐阜県,揖斐郡揖斐川町,谷汲名礼１３７７番地１,,21,401,5011314,,,,,,,2022-02-07,1,,,,,カクセイノガッコウ,0
910,3220001024683,新規,0,2022-02-07,2022-02-07,株式会社スモールジム,,株式会社,石川県,金沢市,片町２丁目１０番４２号,,17,201,9200981,,,,,,,2022-02-07,1,,,,,スモールジム,0
922,3250001019400,新規,0,2022-02-07,2022-02-07,株式会社つくる,,株式会社,山口県,下関市,竹崎町３丁目５－２５,,35,201,7500025,,,,,,,2022-02-07,1,,,,,ツクル,0
931,3290001096345,新規,0,2022-02-07,2022-02-07,株式会社Ｌｅｌａｔｅ,,株式会社,福岡県,福岡市東区,千早５丁目４－２５－１０２号,,40,131,8130044,,,,,,,2022-02-07,1,,,,,リレイト,0
933,3290003012127,新規,0,2022-02-07,2022-02-07,合同会社Ｓａｐｐｈｉｒｅ,,合同会社,福岡県,福岡市博多区,中洲２丁目７番８号３階,,40,132,8100801,,,,,,,2022-02-07,1,,,,,サファイア,0
937,3300001012804,新規,0,2022-02-07,2022-02-07,株式会社リベラ,,株式会社,佐賀県,伊万里市,南波多町府招１２１０番地,,41,205,8480015,,,,,,,2022-02-07,1,,,,,リベラ,0
939,3300003001788,新規,0,2022-02-07,2022-02-07,合同会社佐賀ＡＭ,,合同会社,佐賀県,佐賀市,神野東３丁目１２番３８号,,41,201,8400804,,,,,,,2022-02-07,1,,,,,サガエイエム,0
941,3310001017703,新規,0,2022-02-07,2022-02-07,株式会社大和,,株式会社,長崎県,佐世保市,針尾西町３６０番地,,42,202,8593453,,,,,,,2022-02-07,1,,,,,ヤマト,0
944,3320001018873,新規,0,2022-02-07,2022-02-07,株式会社ＤＡＩＫＩ,,株式会社,大分県,臼杵市,大字戸室３７５番地の２,,44,206,8750051,,,,,,,2022-02-07,1,,,,,ダイキ,0
949,3350002019026,新規,0,2022-02-07,2022-02-07,有限会社デンタル・サポート,,有限会社,宮崎県,延岡市,東本小路１２９番地,,45,203,8820813,,,,,,,2022-02-07,1,,,,,デンタルサポート,0
950,3360001029982,新規,0,2022-02-07,2022-02-07,株式会社ドリームワールド,,株式会社,沖縄県,那覇市,久米２丁目２０番２１号,,47,201,9000033,,,,,,,2022-02-07,1,,,,,ドリームワールド,0
954,3370001048164,新規,0,2022-02-07,2022-02-07,株式会社Ｃ－ウエスト,,株式会社,宮城県,仙台市青葉区,中山４丁目９番７号,,04,101,9810952,,,,,,,2022-02-07,1,,,,,シーウエスト,0
955,3370001048180,新規,0,2022-02-07,2022-02-07,ＡＬＰＨＡ株式会社,,株式会社,宮城県,登米市,南方町太田１番地３５,,04,212,9870431,,,,,,,2022-02-07,1,,,,,アルファ,0
969,3430003013597,新規,0,2022-02-07,2022-02-07,合同会社ウィルダネスデザイン,,合同会社,北海道,石狩市,厚田区聚富１２６－１１９,,01,235,0613441,,,,,,,2022-02-07,1,,,,,ウィルダネスデザイン,0
976,3470003002126,新規,0,2022-02-07,2022-02-07,慶合同会社,,合同会社,香川県,高松市,香川町大野１３０７番地７,,37,201,7611701,,,,,,,2022-02-07,1,,,,,ケイ,0
989,4010001224337,新規,0,2022-02-07,2022-02-07,コナミゲーミングテクノロジー株式会社,,株式会社,東京都,中央区,銀座１丁目１１番１号,,13,102,1040061,,,,,,,2022-02-07,1,,,,,コナミゲーミングテクノロジー,0
990,4010001224436,新規,0,2022-02-07,2022-02-07,株式会社ＪＰＴＲＡＤＥ,,株式会社,東京都,千代田区,神田平河町１番地第３東ビル５Ｆ３１号室,,13,101,1010027,,,,,,,2022-02-07,1,,,,,ジェイピートレード,0
991,4010001224444,新規,0,2022-02-07,2022-02-07,株式会社アライフコンサルティング,,株式会社,東京都,千代田区,神田佐久間町３丁目２１番地５ヒガシカンダビル３０７号,,13,101,1010025,,,,,,,2022-02-07,1,,,,,アライフコンサルティング,0
1003,4010401165395,新規,0,2022-02-07,2022-02-07,株式会社ＥＳＱＵＩＳＥ,,株式会社,東京都,港区,南青山２丁目２番１５号,,13,103,1070062,,,,,,,2022-02-07,1,,,,,エスキース,0
1004,4010401165453,新規,0,2022-02-07,2022-02-07,株式会社ライズ・クロス,,株式会社,東京都,港区,六本木１丁目６番１号,,13,103,1060032,,,,,,,2022-02-07,1,,,,,ライズクロス,0
1006,4010403027040,新規,0,2022-02-07,2022-02-07,日吉町合同会社,,合同会社,東京都,港区,虎ノ門３丁目２２番１０－２０１号,,13,103,1050001,,,,,,,2022-02-07,1,,,,,ヒヨシチョウ,0
1012,4010601060628,新規,0,2022-02-07,2022-02-07,株式会社ホームルームパートナー,,株式会社,東京都,江東区,南砂３丁目１４番２２号,,13,108,1360076,,,,,,,2022-02-07,1,,,,,ホームルームパートナー,0
1014,4010701042179,新規,0,2022-02-07,2022-02-07,株式会社ＳＡＮＷＡみらい電力,,株式会社,東京都,品川区,東品川４丁目１２番６号品川シーサイドキャナルタワー１４Ｆ,,13,109,1400002,,,,,,,2022-02-07,1,,,,,サンワミライデンリョク,0
1016,4010901050312,新規,0,2022-02-07,2022-02-07,３６５株式会社,,株式会社,東京都,世田谷区,砧８丁目３２番２３－２０７号,,13,112,1570073,,,,,,,2022-02-07,1,,,,,サンロクゴ,0
1017,4010901050320,新規,0,2022-02-07,2022-02-07,ＴＥＲＡ企画株式会社,,株式会社,東京都,世田谷区,三軒茶屋２丁目５６番７号,,13,112,1540024,,,,,,,2022-02-07,1,,,,,テラキカク,0
1022,4011001145449,新規,0,2022-02-07,2022-02-07,ジーエムソリューション株式会社,,株式会社,東京都,渋谷区,神泉町２０番２３号セルリアンビル,,13,113,1500045,,,,,,,2022-02-07,1,,,,,ジーエムソリューション,0
1023,4011001145564,新規,0,2022-02-07,2022-02-07,株式会社ＭＥＴＡ　ＡＲＴ　ＭＡＮＡＧＥＭＥＮＴ,,株式会社,東京都,渋谷区,渋谷２丁目１９番１５－１４１４号,,13,113,1500002,,,,,,,2022-02-07,1,,,,,メタアートマネジメント,0
1024,4011003014016,新規,0,2022-02-07,2022-02-07,ＥＮ合同会社,,合同会社,東京都,渋谷区,宇田川町３－７ヒューリック渋谷公園通りビル５Ｆ,,13,113,1500042,,,,,,,2022-02-07,1,,,,,エン,0
1025,4011003014148,新規,0,2022-02-07,2022-02-07,合同会社オルター,,合同会社,東京都,渋谷区,神宮前６丁目２３番４号桑野ビル２階,,13,113,1500001,,,,,,,2022-02-07,1,,,,,オルター,0
1029,4011101097739,新規,0,2022-02-07,2022-02-07,株式会社ノーコードアップス,,株式会社,東京都,新宿区,西新宿７丁目１番７号新宿ダイカンプラザＡ１０１８,,13,104,1600023,,,,,,,2022-02-07,1,,,,,ノーコードアップス,0
1030,4011101097747,新規,0,2022-02-07,2022-02-07,Ｉｍｉｚｕ　Ｈｉｂａｒｉ　Ｒｅａｌ　Ｅｓｔａｔｅ株式会社,,株式会社,東京都,新宿区,余丁町１０番１０号新宿余丁町ビル４階,,13,104,1620055,,,,,,,2022-02-07,1,,,,,イミズヒバリリアルエステート,0
1044,4011703003061,新規,0,2022-02-07,2022-02-07,合同会社ワイズ,,合同会社,東京都,江戸川区,中葛西７丁目９番２号サージュ３０１,,13,123,1340083,,,,,,,2022-02-07,1,,,,,ワイズ,0
1051,4012403005232,新規,0,2022-02-07,2022-02-07,諭吉ダイヤモンド合同会社,,合同会社,東京都,三鷹市,井の頭５丁目８番３１号,,13,204,1810001,,,,,,,2022-02-07,1,,,,,ユキチダイヤモンド,0
1053,4012803002696,新規,0,2022-02-07,2022-02-07,合同会社江村会計事務所,,合同会社,東京都,国分寺市,本町２丁目２２番２号第一鴨下ビル２Ｆ,,13,214,1850012,,,,,,,2022-02-07,1,,,,,エムラカイケイジムショ,0
1058,4013301048653,新規,0,2022-02-07,2022-02-07,株式会社シークパートナーズ,,株式会社,東京都,豊島区,南池袋１丁目１８番２３号,,13,116,1710022,,,,,,,2022-02-07,1,,,,,シークパートナーズ,0
1073,4021001075133,新規,0,2022-02-07,2022-02-07,株式会社樹縁,,株式会社,神奈川県,秦野市,鶴巻１４０２番地の１６,,14,211,2570007,,,,,,,2022-02-07,1,,,,,キエン,0
1084,4030001146703,新規,0,2022-02-07,2022-02-07,株式会社ＹＴクリエイション,,株式会社,埼玉県,三郷市,戸ケ崎１丁目３４１－１,,11,237,3410044,,,,,,,2022-02-07,1,,,,,ワイティクリエイション,0
1089,4030003018792,新規,0,2022-02-07,2022-02-07,合同会社ＮＡＧＩＹ,,合同会社,埼玉県,さいたま市大宮区,桜木町２丁目３番地大宮マルイ７階,,11,103,3300854,,,,,,,2022-02-07,1,,,,,ナギー,0
1090,4030003018801,新規,0,2022-02-07,2022-02-07,クリーン＆Ｓ合同会社,,合同会社,埼玉県,北葛飾郡杉戸町,杉戸５丁目４番３３号,,11,464,3450036,,,,,,,2022-02-07,1,,,,,クリーンアンドエス,0
1095,4040001122034,新規,0,2022-02-07,2022-02-07,株式会社ありがと堂,,株式会社,千葉県,市川市,南八幡５丁目１０番５号タナカコーポ２０１号室,,12,203,2720023,,,,,,,2022-02-07,1,,,,,アリガトドウ,0
1096,4040001122075,新規,0,2022-02-07,2022-02-07,株式会社平田工業,,株式会社,千葉県,木更津市,請西３丁目１５番５号パストラル参番館Ｂ１０２,,12,206,2920801,,,,,,,2022-02-07,1,,,,,ヒラタコウギョウ,0
1097,4040001122083,新規,0,2022-02-07,2022-02-07,株式会社ＵＭＵＴＥ,,株式会社,千葉県,印西市,若萩１丁目４番地２３,,12,231,2701609,,,,,,,2022-02-07,1,,,,,ウムテ,0
1098,4040001122091,新規,0,2022-02-07,2022-02-07,株式会社Ａ・Ｒ・Ｎ,,株式会社,千葉県,船橋市,行田町７０番地７,,12,204,2730043,,,,,,,2022-02-07,1,,,,,エーアールエヌ,0
1099,4040001122109,新規,0,2022-02-07,2022-02-07,株式会社ＷＩＮＧ　ＵＰ,,株式会社,千葉県,市川市,本北方３丁目３番７号１０１,,12,203,2720816,,,,,,,2022-02-07,1,,,,,ウィングアップ,0
1100,4040001122117,新規,0,2022-02-07,2022-02-07,株式会社ロンプロ,,株式会社,千葉県,我孫子市,寿２丁目２７番３１号－Ｂ１,,12,222,2701152,,,,,,,2022-02-07,1,,,,,ロンプロ,0
1101,4040001122125,新規,0,2022-02-07,2022-02-07,株式会社Ｓ・Ｂ・ＴＲＡＤＩＮＧ,,株式会社,千葉県,野田市,蕃昌３４６番地の９,,12,208,2780041,,,,,,,2022-02-07,1,,,,,エスビートレーディング,0
1102,4040001122133,新規,0,2022-02-07,2022-02-07,株式会社ウィンライズ,,株式会社,千葉県,柏市,あけぼの４丁目４番６号コーポフラーソッシュ１０１,,12,217,2770841,,,,,,,2022-02-07,1,,,,,ウィンライズ,0
1103,4040001122141,新規,0,2022-02-07,2022-02-07,株式会社三永,,株式会社,千葉県,我孫子市,都部１６７番地の５,,12,222,2701131,,,,,,,2022-02-07,1,,,,,サンエイ,0
1105,4040003019410,新規,0,2022-02-07,2022-02-07,日本経営支援合同会社,,合同会社,千葉県,柏市,富里２丁目１番４６－１０５号,,12,217,2770081,,,,,,,2022-02-07,1,,,,,ニホンケイエイシエン,0
1106,4040003019427,新規,0,2022-02-07,2022-02-07,合同会社ＷＲ,,合同会社,千葉県,船橋市,二子町６２７番地１９ジュネパレス船橋第１９－１０３号,,12,204,2730034,,,,,,,2022-02-07,1,,,,,ダブルアール,0
1107,4040003019443,新規,0,2022-02-07,2022-02-07,ＮＥＴＨＵ　ＰＲＯＤＵＣＴＳ合同会社,,合同会社,千葉県,富里市,御料１４９番地４２,,12,233,2860211,,,,,,,2022-02-07,1,,,,,ネトゥープロダクツ,0
1112,4070001038921,新規,0,2022-02-07,2022-02-07,株式会社うち山,,株式会社,群馬県,太田市,石原町３９６番地５,,10,205,3730808,,,,,,,2022-02-07,1,,,,,ウチヤマ,0
1114,4070003004376,新規,0,2022-02-07,2022-02-07,合同会社ｒｐｇ,,合同会社,群馬県,館林市,西本町４－１,,10,207,3740065,,,,,,,2022-02-07,1,,,,,アールピージー,0
1119,4080103002510,新規,0,2022-02-07,2022-02-07,合同会社天希,,合同会社,静岡県,富士市,本市場４２７番地の５,,22,210,4160906,,,,,,,2022-02-07,1,,,,,テンキ,0
1125,4100003006385,新規,0,2022-02-07,2022-02-07,合同会社スタジオササ,,合同会社,長野県,北佐久郡軽井沢町,大字長倉４３８８番地２コーポ向井Ｂ,,20,321,3890111,,,,,,,2022-02-07,1,,,,,スタジオササ,0
1126,4100003006402,新規,0,2022-02-07,2022-02-07,合同会社かんたん企画,,合同会社,長野県,上田市,山田１０３３番地,,20,203,3861432,,,,,,,2022-02-07,1,,,,,カンタンキカク,0
1130,4110001036400,新規,0,2022-02-07,2022-02-07,株式会社栄商事,,株式会社,新潟県,新潟市南区,白根１４４４番地１,,15,106,9501217,,,,,,,2022-02-07,1,,,,,サカエショウジ,0
1131,4110001036409,新規,0,2022-02-07,2022-02-07,株式会社エステート後藤,,株式会社,新潟県,佐渡市,畑野甲３０６番地１,,15,224,9520206,,,,,,,2022-02-07,1,,,,,エステートゴトウ,0
1132,4110001036417,新規,0,2022-02-07,2022-02-07,株式会社Ｌｉｎｋ　ＨＯＬＤＩＮＧＳ,,株式会社,新潟県,魚沼市,佐梨１１１１番地１３,,15,225,9460021,,,,,,,2022-02-07,1,,,,,リンクホールディングス,0
1144,4120001243615,新規,0,2022-02-07,2022-02-07,株式会社藤原組,,株式会社,大阪府,大阪市住吉区,大領２丁目６番２０号,,27,120,5580001,,,,,,,2022-02-07,1,,,,,フジワラグミ,0
1148,4120003021069,新規,0,2022-02-07,2022-02-07,アイランドヘルスケア合同会社,,合同会社,大阪府,大阪市北区,梅田１丁目２－２－２００大阪駅前第２ビル２階１－１－１号室,,27,127,5300001,,,,,,,2022-02-07,1,,,,,アイランドヘルスケア,0
1149,4120003021093,新規,0,2022-02-07,2022-02-07,合同会社Ｎ－Ｌａｂ．,,合同会社,大阪府,大阪市福島区,福島４丁目３番２３－１２０８号,,27,103,5530003,,,,,,,2022-02-07,1,,,,,エヌラボ,0
1150,4120005022767,新規,0,2022-02-07,2022-02-07,一般社団法人中小企業Ｍ＆Ａ支援協会,,その他の設立登記法人,大阪府,大阪市北区,西天満４丁目３番４号,,27,127,5300047,,,,,,,2022-02-07,1,,,,,チュウショウキギョウエムアンドエーシエンキョウカイ,0
1151,4120005022783,新規,0,2022-02-07,2022-02-07,弁護士法人啓葉法律事務所,,その他の設立登記法人,大阪府,大阪市中央区,北浜４丁目７番２８号住友ビルディング２号館５階,,27,128,5410041,,,,,,,2022-02-07,1,,,,,ケイヨウホウリツジムショ,0
1154,4120101065042,新規,0,2022-02-07,2022-02-07,株式会社ティグレス,,株式会社,大阪府,岸和田市,箕土路町１丁目１４番１５号,,27,202,5960801,,,,,,,2022-02-07,1,,,,,ティグレス,0
1156,4120901045565,新規,0,2022-02-07,2022-02-07,株式会社のあ,,株式会社,大阪府,豊能郡豊能町,光風台６丁目４番地の２１,,27,321,5630104,,,,,,,2022-02-07,1,,,,,ノア,0
1168,4130001071073,新規,0,2022-02-07,2022-02-07,株式会社綺花,,株式会社,京都府,京都市東山区,祇園町北側３４７－９１－２Ｆ,,26,105,6050073,,,,,,,2022-02-07,1,,,,,イロハ,0
1172,4130003007612,新規,0,2022-02-07,2022-02-07,Ｌｉｂｒａ合同会社,,合同会社,京都府,京都市中京区,西ノ京笠殿町１５５番地,,26,104,6048482,,,,,,,2022-02-07,1,,,,,リブラ,0
1173,4130003007736,新規,0,2022-02-07,2022-02-07,合同会社ｂａｂｙｂａｂｙ,,合同会社,京都府,八幡市,美濃山出島６－５６,,26,210,6148288,,,,,,,2022-02-07,1,,,,,ベビーベビー,0
1186,4140001124788,新規,0,2022-02-07,2022-02-07,株式会社アルス,,株式会社,兵庫県,西宮市,戸田町１番１０－９０１号,,28,204,6620916,,,,,,,2022-02-07,1,,,,,アルス,0
1187,4140001124813,新規,0,2022-02-07,2022-02-07,株式会社Ｐｒｉｃｅ　Ｓｔｒｅｅｔ,,株式会社,兵庫県,川西市,栄町１２番１号,,28,217,6660033,,,,,,,2022-02-07,1,,,,,プライスストリート,0
1188,4140001124821,新規,0,2022-02-07,2022-02-07,株式会社ａＮｎ,,株式会社,兵庫県,神戸市西区,桜が丘東町４丁目２番地の１０,,28,111,6512225,,,,,,,2022-02-07,1,,,,,アン,0
1189,4140001124838,新規,0,2022-02-07,2022-02-07,株式会社ＳＥＫＩＴＯＢＡ,,株式会社,兵庫県,神戸市中央区,加納町２丁目８番１０－３０６号,,28,110,6500001,,,,,,,2022-02-07,1,,,,,セキトバ,0
1190,4140001124846,新規,0,2022-02-07,2022-02-07,大正株式会社,,株式会社,兵庫県,神戸市垂水区,神陵台４丁目１番５０－５０７号,,28,108,6550041,,,,,,,2022-02-07,1,,,,,タイショウ,0
1194,4140003017321,新規,0,2022-02-07,2022-02-07,合同会社ラフレイズ,,合同会社,兵庫県,西宮市,甲子園口１丁目１７番１３号,,28,204,6638113,,,,,,,2022-02-07,1,,,,,ラフレイズ,0
1209,4180001149823,新規,0,2022-02-07,2022-02-07,株式会社まぷろ,,株式会社,愛知県,名古屋市名東区,代万町３丁目１１番地,,23,115,4650086,,,,,,,2022-02-07,1,,,,,マプロ,0
1210,4180001149864,新規,0,2022-02-07,2022-02-07,ＭＳＫ株式会社,,株式会社,愛知県,大府市,高丘町３丁目１８４番地,,23,223,4740042,,,,,,,2022-02-07,1,,,,,エムエスケー,0
1211,4180001149897,新規,0,2022-02-07,2022-02-07,株式会社Ｄ－ＭｅＮＴＩＯＮ,,株式会社,愛知県,名古屋市中区,栄３丁目１７－２５ＢＡＵＭＨＡＵＳ２Ｆ,,23,106,4600008,,,,,,,2022-02-07,1,,,,,ディーメンション,0
1213,4180003023464,新規,0,2022-02-07,2022-02-07,合同会社柳戸商事,,合同会社,愛知県,一宮市,柳戸町１丁目３０番地１,,23,203,4910843,,,,,,,2022-02-07,1,,,,,ヤナギドショウジ,0
1214,4180003023480,新規,0,2022-02-07,2022-02-07,合同会社ミアキス,,合同会社,愛知県,名古屋市西区,牛島町名古屋ルーセントタワー４０階,,23,104,4510046,,,,,,,2022-02-07,1,,,,,ミアキス,0
1218,4180305009293,新規,0,2022-02-07,2022-02-07,ＪＶリーディングワールド協同組合,,その他の設立登記法人,愛知県,岡崎市,舳越町字地蔵１９番地４,,23,202,4440902,,,,,,,2022-02-07,1,,,,,ジェイブイリーディングワールド,0
1224,4220001024682,新規,0,2022-02-07,2022-02-07,株式会社ＫＳ　Ｃｏｍｐａｎｙ,,株式会社,石川県,金沢市,須崎町ロ１４２番地５,,17,201,9200207,,,,,,,2022-02-07,1,,,,,ケーエスカンパニー,0
1225,4220003003197,新規,0,2022-02-07,2022-02-07,アセットファイナンス小松合同会社,,合同会社,石川県,金沢市,新神田５丁目５番地,,17,201,9218013,,,,,,,2022-02-07,1,,,,,アセットファイナンスコマツ,0
1230,4240001059306,新規,0,2022-02-07,2022-02-07,株式会社さくら安芸,,株式会社,広島県,広島市中区,八丁堀１番２３－６１１号,,34,101,7300013,,,,,,,2022-02-07,1,,,,,サクラアキ,0
1234,4250001019399,新規,0,2022-02-07,2022-02-07,株式会社Ｈｅａｒｔｚ,,株式会社,山口県,下関市,豊浦町大字川棚６８７０－５,,35,201,7596301,,,,,,,2022-02-07,1,,,,,ハーツ,0
1242,4260003003796,新規,0,2022-02-07,2022-02-07,Ｐ‐ｓｔｙｌｅカンパニー合同会社,,合同会社,岡山県,津山市,志戸部６００番地朝日ヶ丘コーポ２０７号,,33,203,7080825,,,,,,,2022-02-07,1,,,,,ピースタイルカンパニー,0
1245,4290001096328,新規,0,2022-02-07,2022-02-07,株式会社あじまる,,株式会社,福岡県,福岡市博多区,寿町３丁目４番１６号７Ｆ,,40,132,8120884,,,,,,,2022-02-07,1,,,,,アジマル,0
1246,4290001096360,新規,0,2022-02-07,2022-02-07,株式会社アシスト,,株式会社,福岡県,福岡市東区,大字弘２４４３番地１,,40,131,8110324,,,,,,,2022-02-07,1,,,,,アシスト,0
1251,4320003003724,新規,0,2022-02-07,2022-02-07,合同会社ＵＮＩＴＥ,,合同会社,大分県,大分市,敷戸西町１５番１１号,,44,201,8701103,,,,,,,2022-02-07,1,,,,,ユナイト,0
1260,4330003009233,新規,0,2022-02-07,2022-02-07,合同会社アイランド,,合同会社,熊本県,玉名市,岩崎１２番地１ドリームビルＡ,,43,206,8650016,,,,,,,2022-02-07,1,,,,,アイランド,0
1263,4340001024472,新規,0,2022-02-07,2022-02-07,株式会社ハナノキ不動産,,株式会社,鹿児島県,薩摩川内市,花木町７番１１号,,46,215,8950064,,,,,,,2022-02-07,1,,,,,ハナノキフドウサン,0
1264,4340005009404,新規,0,2022-02-07,2022-02-07,一般社団法人ａｌｌ,,その他の設立登記法人,鹿児島県,鹿屋市,西原２丁目３２番２０号,,46,203,8930064,,,,,,,2022-02-07,1,,,,,オール,0
1265,4360001029981,新規,0,2022-02-07,2022-02-07,沖縄環境エンジニアリング株式会社,,株式会社,沖縄県,中頭郡北谷町,字上勢頭７１０番地４,,47,326,9040101,,,,,,,2022-02-07,1,,,,,オキナワカンキョウエンジニアリング,0
1266,4360003011789,新規,0,2022-02-07,2022-02-07,合同会社マツダ建工,,合同会社,沖縄県,うるま市,石川８２１番地１５,,47,213,9041106,,,,,,,2022-02-07,1,,,,,マツダケンコウ,0
1268,4370001048155,新規,0,2022-02-07,2022-02-07,湯浅金属工業株式会社,,株式会社,宮城県,仙台市太白区,郡山字太子堂１番地,,04,104,9820003,,,,,,,2022-02-07,1,,,,,,0
1284,4400001015770,新規,0,2022-02-07,2022-02-07,株式会社ＧＲＯＯＶＥ　ＢＡＳＥ,,株式会社,岩手県,盛岡市,上田堤２丁目２４番４１号,,03,201,0200113,,,,,,,2022-02-07,1,,,,,グルーヴベース,0
1294,4450001013613,新規,0,2022-02-07,2022-02-07,ＲＣＴＪサービス株式会社,,株式会社,北海道,上川郡東川町,東８号北１丁目１２－１３,,01,458,0711438,,,,,,,2022-02-07,1,,,,,アールシーティジェイサービス,0
1299,4470001018957,新規,0,2022-02-07,2022-02-07,大翔工業株式会社,,株式会社,香川県,善通寺市,与北町２９００番地１,,37,204,7650040,,,,,,,2022-02-07,1,,,,,ダイトコウギョウ,0
1313,5010001224352,新規,0,2022-02-07,2022-02-07,株式会社五鈴精工硝子ホールディングス,,株式会社,東京都,中央区,八重洲２丁目４番１号,,13,102,1040028,,,,,,,2022-02-07,1,,,,,イスズセイコウガラスホールディングス,0
1314,5010001224377,新規,0,2022-02-07,2022-02-07,株式会社コーチネクサスジャパン,,株式会社,東京都,千代田区,丸の内３丁目２番２号丸の内二重橋ビル２階,,13,101,1000005,,,,,,,2022-02-07,1,,,,,コーチネクサスジャパン,0
1315,5010001224419,新規,0,2022-02-07,2022-02-07,株式会社グリップグローブ,,株式会社,東京都,千代田区,九段南１丁目５番６号りそな九段ビル５階ＫＳフロア,,13,101,1020074,,,,,,,2022-02-07,1,,,,,グリップグローブ,0
1316,5010001224427,新規,0,2022-02-07,2022-02-07,株式会社ＬｅｏＬｅｐｕｓ,,株式会社,東京都,中央区,新川１丁目１４番１２号,,13,102,1040033,,,,,,,2022-02-07,1,,,,,レオレプス,0
1318,5010003036944,新規,0,2022-02-07,2022-02-07,Ｋｅｉｔｈ　Ｓｉｍｏｎ　Ａｓｓｏｃｉａｔｅｓ合同会社,,合同会社,東京都,中央区,日本橋蛎殻町２丁目８番１１号,,13,102,1030014,,,,,,,2022-02-07,1,,,,,キースサイモンアソシエイツ,0
1319,5010003036960,新規,0,2022-02-07,2022-02-07,東京レジ２５合同会社,,合同会社,東京都,千代田区,丸の内３丁目１番１号東京共同会計事務所内,,13,101,1000005,,,,,,,2022-02-07,1,,,,,トウキョウレジトゥエンティファイブ,0
1332,5010401165394,新規,0,2022-02-07,2022-02-07,ｔｏｋｙｏａｒｔｓｇａｌｌｅｒｙ株式会社,,株式会社,東京都,港区,麻布十番３丁目３番１０号,,13,103,1060045,,,,,,,2022-02-07,1,,,,,トウキョウアーツギャラリー,0
1333,5010401165403,新規,0,2022-02-07,2022-02-07,株式会社ブルーオアシス,,株式会社,東京都,港区,赤坂４丁目３番２７号,,13,103,1070052,,,,,,,2022-02-07,1,,,,,ブルーオアシス,0
1334,5010401165452,新規,0,2022-02-07,2022-02-07,全日空商事ロータスリーシング株式会社,,株式会社,東京都,港区,東新橋１丁目５番２号,,13,103,1050021,,,,,,,2022-02-07,1,,,,,ゼンニックウショウジロータスリーシング,0
1335,5010405020653,新規,0,2022-02-07,2022-02-07,ＤＳＦ一般社団法人,,その他の設立登記法人,東京都,港区,元赤坂１丁目１番７号,,13,103,1070051,,,,,,,2022-02-07,1,,,,,ディーエスエフ,0
1337,5010503006496,新規,0,2022-02-07,2022-02-07,合同会社吉隆,,合同会社,東京都,台東区,松が谷１丁目２番１５号,,13,106,1110036,,,,,,,2022-02-07,1,,,,,ヨシリュウ,0
1338,5010601060643,新規,0,2022-02-07,2022-02-07,株式会社Ｊ’ｓ　Ｍａｒｋｅｔｉｎｇ　Ｐｒｏｊｅｃｔ,,株式会社,東京都,江東区,豊洲２丁目５番１,,13,108,1350061,,,,,,,2022-02-07,1,,,,,ジェイズマーケティングプロジェクト,0
1341,5010701042178,新規,0,2022-02-07,2022-02-07,株式会社ジョーダン,,株式会社,東京都,品川区,上大崎２丁目７番１６号プレミアムレジデンス白金長者丸２０３,,13,109,1410021,,,,,,,2022-02-07,1,,,,,ジョーダン,0
1347,5010901050311,新規,0,2022-02-07,2022-02-07,株式会社シャコウ,,株式会社,東京都,世田谷区,上馬４丁目２番２４－２０１号,,13,112,1540011,,,,,,,2022-02-07,1,,,,,シャコウ,0
1349,5010903007128,新規,0,2022-02-07,2022-02-07,田中ニュース合同会社,,合同会社,東京都,世田谷区,桜丘４丁目１４番１１号,,13,112,1560054,,,,,,,2022-02-07,1,,,,,タナカニュース,0
1352,5011001145448,新規,0,2022-02-07,2022-02-07,株式会社伊七郎,,株式会社,東京都,渋谷区,千駄ヶ谷３丁目２１－１０－４０７,,13,113,1510051,,,,,,,2022-02-07,1,,,,,イヒチロウ,0
1353,5011001145522,新規,0,2022-02-07,2022-02-07,株式会社Ｄｙｎａｍｏ,,株式会社,東京都,渋谷区,渋谷２丁目１９番１５号宮益坂ビルディング６０９,,13,113,1500002,,,,,,,2022-02-07,1,,,,,ダイナモ,0
1354,5011001145530,新規,0,2022-02-07,2022-02-07,株式会社デッラルテ,,株式会社,東京都,渋谷区,神宮前６丁目２３番４号桑名ビル２階,,13,113,1500001,,,,,,,2022-02-07,1,,,,,デッラルテ,0
1355,5011001145555,新規,0,2022-02-07,2022-02-07,株式会社レストランケルン,,株式会社,東京都,目黒区,目黒３丁目１２番１７号,,13,110,1530063,,,,,,,2022-02-07,1,,,,,レストランケルン,0
1358,5011003014114,新規,0,2022-02-07,2022-02-07,合同会社Ｈｉｋｉｇａｎｅ,,合同会社,東京都,渋谷区,渋谷２丁目１９－１５宮益坂ビルディング６０９,,13,113,1500002,,,,,,,2022-02-07,1,,,,,ヒキガネ,0
1359,5011003014122,新規,0,2022-02-07,2022-02-07,合同会社ｔｅｎｄｒｅｓｓｅ,,合同会社,東京都,渋谷区,渋谷２丁目１９－１５宮益坂ビルディング６０９,,13,113,1500002,,,,,,,2022-02-07,1,,,,,タンドレス,0
1360,5011003014147,新規,0,2022-02-07,2022-02-07,ＳＩＳＭＥＴＲＹ合同会社,,合同会社,東京都,渋谷区,笹塚１丁目５４番８－８０２号,,13,113,1510073,,,,,,,2022-02-07,1,,,,,シスメトリー,0
1364,5011103011424,新規,0,2022-02-07,2022-02-07,韓龍合同会社,,合同会社,東京都,新宿区,大久保１丁目１６番１６号,,13,104,1690072,,,,,,,2022-02-07,1,,,,,カンリュウ,0
1365,5011103011440,新規,0,2022-02-07,2022-02-07,合同会社エンジニアート,,合同会社,東京都,新宿区,西新宿３丁目３番１３号西新宿水間ビル６階,,13,104,1600023,,,,,,,2022-02-07,1,,,,,エンジニアート,0
1366,5011401024004,新規,0,2022-02-07,2022-02-07,株式会社モビーディック,,株式会社,東京都,板橋区,板橋３丁目２８番１２号,,13,119,1730004,,,,,,,2022-02-07,1,,,,,モビーディック,0
1370,5011701025024,新規,0,2022-02-07,2022-02-07,株式会社アオイ重量,,株式会社,東京都,江戸川区,西小岩３丁目２３番７号,,13,123,1330057,,,,,,,2022-02-07,1,,,,,アオイジュウリョウ,0
1372,5011801040311,新規,0,2022-02-07,2022-02-07,日新株式会社,,株式会社,東京都,足立区,新田１丁目８－６－８２４,,13,121,1230865,,,,,,,2022-02-07,1,,,,,ニッシン,0
1378,5013301048644,新規,0,2022-02-07,2022-02-07,株式会社ｍｏｎｅｔａトレーディング,,株式会社,東京都,豊島区,南長崎６丁目３４番３－５０１号,,13,116,1710052,,,,,,,2022-02-07,1,,,,,モネタトレーディング,0
1379,5013301048652,新規,0,2022-02-07,2022-02-07,株式会社ｔＥｎ,,株式会社,東京都,豊島区,西池袋４丁目３２番１０号,,13,116,1710021,,,,,,,2022-02-07,1,,,,,テン,0
1386,5020003021219,新規,0,2022-02-07,2022-02-07,オオタニ合同会社,,合同会社,神奈川県,横浜市神奈川区,金港町８番地１－１６０８号,,14,102,2210056,,,,,,,2022-02-07,1,,,,,オオタニ,0
1387,5020003021268,新規,0,2022-02-07,2022-02-07,ＭＡＥＭＵ合同会社,,合同会社,神奈川県,横浜市神奈川区,白幡南町１番１９号,,14,102,2210073,,,,,,,2022-02-07,1,,,,,マエム,0
1401,5030001146719,新規,0,2022-02-07,2022-02-07,株式会社エスポワール,,株式会社,埼玉県,さいたま市大宮区,宮町１丁目８６－１大宮イーストビル６Ｆ,,11,103,3300802,,,,,,,2022-02-07,1,,,,,エスポワール,0
1406,5040001122058,新規,0,2022-02-07,2022-02-07,株式会社ラストレ,,株式会社,千葉県,千葉市緑区,あすみが丘東４丁目１５番地１８,,12,105,2670067,,,,,,,2022-02-07,1,,,,,ラストレ,0
1407,5040001122066,新規,0,2022-02-07,2022-02-07,株式会社アンダースカイ,,株式会社,千葉県,市原市,菊間２０８２番地県営住宅２６棟１０１号,,12,219,2900007,,,,,,,2022-02-07,1,,,,,アンダースカイ,0
1408,5040001122082,新規,0,2022-02-07,2022-02-07,株式会社成富屋,,株式会社,千葉県,八千代市,緑が丘１丁目１１０６番地５,,12,221,2760049,,,,,,,2022-02-07,1,,,,,ナリトミヤ,0
1409,5040001122108,新規,0,2022-02-07,2022-02-07,小八株式会社,,株式会社,千葉県,市川市,南八幡４丁目４－２０市川ルーフガーデンハイツ６０５,,12,203,2720023,,,,,,,2022-02-07,1,,,,,コハチ,0
1410,5040001122116,新規,0,2022-02-07,2022-02-07,株式会社アニマルブライト,,株式会社,千葉県,千葉市美浜区,中瀬１丁目３番地幕張テクノガーデンＣＢ棟３階ＭＢＰ,,12,106,2610023,,,,,,,2022-02-07,1,,,,,アニマルブライト,0
1411,5040001122124,新規,0,2022-02-07,2022-02-07,株式会社花葬,,株式会社,千葉県,柏市,亀甲台町２丁目９番１２号,,12,217,2770031,,,,,,,2022-02-07,1,,,,,ハナソウ,0
1412,5040001122132,新規,0,2022-02-07,2022-02-07,株式会社ＫＳビジョン,,株式会社,千葉県,松戸市,小根本１０番地エクセレントシティ松戸６０２号,,12,207,2710073,,,,,,,2022-02-07,1,,,,,ケーエスビジョン,0
1413,5040001122140,新規,0,2022-02-07,2022-02-07,Ａｓｕｍｉ　Ｍａｎａｇｅｍｅｎｔ株式会社,,株式会社,千葉県,柏市,若柴２６２番地２中央１７８街区４－７０３号,,12,217,2770871,,,,,,,2022-02-07,1,,,,,アスミマネジメント,0
1414,5040001122149,新規,0,2022-02-07,2022-02-07,株式会社Ｉｍｐｒｅｓｔ,,株式会社,千葉県,千葉市中央区,新田町１３番３号フルカワビル１Ｆ,,12,101,2600027,,,,,,,2022-02-07,1,,,,,インプレスト,0
1417,5040003019426,新規,0,2022-02-07,2022-02-07,田丸コンサルティング合同会社,,合同会社,千葉県,習志野市,谷津１丁目１３番１－７０１号,,12,216,2750026,,,,,,,2022-02-07,1,,,,,タマルコンサルティング,0
1421,5050001050588,新規,0,2022-02-07,2022-02-07,株式会社ケンコウ,,株式会社,茨城県,筑西市,舟生４４番地の５,,08,227,3080111,,,,,,,2022-02-07,1,,,,,ケンコウ,0
1428,5070001038920,新規,0,2022-02-07,2022-02-07,ＭＥＣ株式会社,,株式会社,群馬県,太田市,新田村田町１７９０番地７,,10,205,3700312,,,,,,,2022-02-07,1,,,,,メック,0
1429,5070001038929,新規,0,2022-02-07,2022-02-07,結芽株式会社,,株式会社,群馬県,太田市,新井町５６５番地１３ドリームタウン１０９,,10,205,3730852,,,,,,,2022-02-07,1,,,,,ユイガ,0
1430,5080001024738,新規,0,2022-02-07,2022-02-07,Ｊａｖｅｒｓｅ株式会社,,株式会社,静岡県,静岡市駿河区,大和１丁目１番７－２号,,22,102,4228077,,,,,,,2022-02-07,1,,,,,ジャバース,0
1432,5090003002039,新規,0,2022-02-07,2022-02-07,合同会社Ｋ　ＶＥＴＳ,,合同会社,山梨県,中巨摩郡昭和町,西条５１６７番地,,19,384,4093866,,,,,,,2022-02-07,1,,,,,ケイヴェッツ,0
1437,5100001035047,新規,0,2022-02-07,2022-02-07,有旅ワイナリー株式会社,,株式会社,長野県,長野市,篠ノ井布施高田８７６番地,,20,201,3888007,,,,,,,2022-02-07,1,,,,,ウタビワイナリー,0
1438,5100003006401,新規,0,2022-02-07,2022-02-07,の音ＷＩＮＥｓ合同会社,,合同会社,長野県,千曲市,大字倉科１２２３番地,,20,218,3870004,,,,,,,2022-02-07,1,,,,,ノオトワインズ,0
1439,5110001036416,新規,0,2022-02-07,2022-02-07,株式会社フタバホールディングス,,株式会社,新潟県,三条市,川通中町４７７番地,,15,204,9591136,,,,,,,2022-02-07,1,,,,,フタバホールディングス,0
1453,5120001243622,新規,0,2022-02-07,2022-02-07,頭は悪いけど，考えるのが好き株式会社,,株式会社,大阪府,大阪市福島区,福島２丁目３番２３号中之島ＭＳビル１階中央,,27,103,5530003,,,,,,,2022-02-07,1,,,,,アタマハワルイケドカンガエルノガスキ,0
1454,5120001243696,新規,0,2022-02-07,2022-02-07,ｃａｌｍ株式会社,,株式会社,大阪府,大阪市北区,堂島２丁目３番２１号,,27,127,5300003,,,,,,,2022-02-07,1,,,,,カルム,0
1455,5120001243705,新規,0,2022-02-07,2022-02-07,株式会社ＩＣＢ管理,,株式会社,大阪府,大阪市西区,千代崎２丁目１０番８号,,27,106,5500023,,,,,,,2022-02-07,1,,,,,アイシービーカンリ,0
1460,5120003021068,新規,0,2022-02-07,2022-02-07,合同会社ＧＬＭ,,合同会社,大阪府,大阪市西区,北堀江２丁目４番１１号,,27,106,5500014,,,,,,,2022-02-07,1,,,,,ジーエルエム,0
1461,5120003021076,新規,0,2022-02-07,2022-02-07,大阪リヴァンプ合同会社,,合同会社,大阪府,枚方市,岡本町７番１号,,27,210,5730031,,,,,,,2022-02-07,1,,,,,オオサカリヴァンプ,0
1462,5120003021092,新規,0,2022-02-07,2022-02-07,Ｘｐｌｏｄｉｆｙ合同会社,,合同会社,大阪府,大阪市阿倍野区,帝塚山１丁目１３番２５－１０４号,,27,119,5450037,,,,,,,2022-02-07,1,,,,,エクスプロディファイ,0
1463,5120005022782,新規,0,2022-02-07,2022-02-07,特定非営利活動法人Ｐａｒａｄｅｒｏ,,その他の設立登記法人,大阪府,大阪市天王寺区,東高津町８－１－２階,,27,109,5430021,,,,,,,2022-02-07,1,,,,,パラデロ,0
1464,5120101065041,新規,0,2022-02-07,2022-02-07,株式会社関西環境マネジメント,,株式会社,大阪府,堺市南区,桃山台４丁２１番４－３０１号,,27,145,5900141,,,,,,,2022-02-07,1,,,,,カンサイカンキョウマネジメント,0
1465,5120103004559,新規,0,2022-02-07,2022-02-07,合同会社ファミール,,合同会社,大阪府,岸和田市,土生町２丁目２３番１４－２０６号,,27,202,5960825,,,,,,,2022-02-07,1,,,,,ファミール,0
1468,5120901045564,新規,0,2022-02-07,2022-02-07,株式会社ＫＮ不動産,,株式会社,大阪府,豊中市,服部本町１丁目２番２号,,27,203,5610852,,,,,,,2022-02-07,1,,,,,ケイエヌフドウサン,0
1471,5122003002270,新規,0,2022-02-07,2022-02-07,合同会社ＧＬＯＷＩＮＧ,,合同会社,大阪府,八尾市,明美町２丁目６番地２号,,27,212,5810087,,,,,,,2022-02-07,1,,,,,グローイング,0
1476,5130001071056,新規,0,2022-02-07,2022-02-07,ｒｏｕｇｈＲｏｃｋｓ株式会社,,株式会社,京都府,京都市西京区,松室北河原町２１６番地２,,26,111,6158204,,,,,,,2022-02-07,1,,,,,ラフロックス,0
1488,5140001124820,新規,0,2022-02-07,2022-02-07,株式会社ｅ－ｎｅｘｔ,,株式会社,兵庫県,神戸市灘区,六甲町４丁目２番１８号,,28,102,6570053,,,,,,,2022-02-07,1,,,,,イーネクスト,0
1489,5140001124829,新規,0,2022-02-07,2022-02-07,ＴＲＥＳＣ株式会社,,株式会社,兵庫県,神戸市垂水区,平磯４丁目１－８－１Ｗ＆Ｒ５,,28,108,6550892,,,,,,,2022-02-07,1,,,,,トレスク,0
1490,5140001124845,新規,0,2022-02-07,2022-02-07,フロンティアヘルスラボラトリーズ株式会社,,株式会社,兵庫県,神戸市長田区,菅原通６丁目１５番地４号１階,,28,106,6530015,,,,,,,2022-02-07,1,,,,,フロンティアヘルスラボラトリーズ,0
1496,5140005026030,新規,0,2022-02-07,2022-02-07,Ｇｌｏｂａｌ　Ｃａｒｅ　Ｍｉｋｉ協同組合,,その他の設立登記法人,兵庫県,三木市,緑が丘町中１丁目６番地の１６グリーンヒルズアカシア２０４号室,,28,215,6730532,,,,,,,2022-02-07,1,,,,,グローバルケアミキ,0
1499,5150001025316,新規,0,2022-02-07,2022-02-07,ＫＦＡ株式会社,,株式会社,奈良県,奈良市,学園南２丁目１７番５号,,29,201,6310034,,,,,,,2022-02-07,1,,,,,ケイエフエイ,0
1514,5180003023471,新規,0,2022-02-07,2022-02-07,合同会社ゼット,,合同会社,愛知県,名古屋市天白区,高坂町２９５番地の９,,23,116,4680025,,,,,,,2022-02-07,1,,,,,ゼット,0
1517,5180005019617,新規,0,2022-02-07,2022-02-07,愛知専門工事業協同組合,,その他の設立登記法人,愛知県,長久手市,蟹原１１０６番地,,23,238,4801142,,,,,,,2022-02-07,1,,,,,アイチセンモンコウジギョウ,0
1534,5220001024681,新規,0,2022-02-07,2022-02-07,株式会社ツバサ・サービス,,株式会社,石川県,白山市,七原町ヌ９番地１,,17,210,9202143,,,,,,,2022-02-07,1,,,,,ツバササービス,0
1535,5220003003205,新規,0,2022-02-07,2022-02-07,合同会社南風,,合同会社,石川県,羽咋郡志賀町,高浜町ノの５３番地１０,,17,384,9250141,,,,,,,2022-02-07,1,,,,,ナンプウ,0
1548,5260001036500,新規,0,2022-02-07,2022-02-07,株式会社ＹＯＵ企画,,株式会社,岡山県,倉敷市,西中新田２２１番地７,,33,202,7100833,,,,,,,2022-02-07,1,,,,,ユーキカク,0
1552,5290001096310,新規,0,2022-02-07,2022-02-07,ＥＳＳＴＮＥＲ株式会社,,株式会社,福岡県,福岡市中央区,天神２丁目３番１０－７１９号天神パインクレスト,,40,133,8100001,,,,,,,2022-02-07,1,,,,,エストナー,0
1553,5290001096343,新規,0,2022-02-07,2022-02-07,株式会社勝建,,株式会社,福岡県,福岡市西区,拾六町４丁目４５番１３号,,40,135,8190041,,,,,,,2022-02-07,1,,,,,ショウケン,0
1566,5330001029430,新規,0,2022-02-07,2022-02-07,株式会社Ａｘｅ,,株式会社,熊本県,熊本市北区,武蔵ケ丘９丁目１番５５－２０１号,,43,105,8618001,,,,,,,2022-02-07,1,,,,,アックス,0
1568,5340005009403,新規,0,2022-02-07,2022-02-07,社会福祉法人隣の会,,その他の設立登記法人,鹿児島県,鹿屋市,笠之原町７４０２番地５,,46,203,8930023,,,,,,,2022-02-07,1,,,,,リンノカイ,0
1571,5360001029980,新規,0,2022-02-07,2022-02-07,株式会社阮龍,,株式会社,沖縄県,那覇市,繁多川５丁目１番１１号,,47,201,9020071,,,,,,,2022-02-07,1,,,,,ゲンリュウ,0
1575,5370001048170,新規,0,2022-02-07,2022-02-07,株式会社Ｋ－ｐｌａｎ,,株式会社,宮城県,多賀城市,町前３丁目２番６－１１０４号,,04,209,9850845,,,,,,,2022-02-07,1,,,,,ケイプラン,0
1578,5380001032561,新規,0,2022-02-07,2022-02-07,株式会社ｅｎｙｕ,,株式会社,福島県,郡山市,島２丁目１１－３,,07,203,9638034,,,,,,,2022-02-07,1,,,,,,0
1586,5430001085950,新規,0,2022-02-07,2022-02-07,株式会社ＤＥＮ．Ｕ,,株式会社,北海道,札幌市北区,新琴似六条１６丁目１番２２号,,01,102,0010906,,,,,,,2022-02-07,1,,,,,デンユウ,0
1587,5430001085967,新規,0,2022-02-07,2022-02-07,株式会社ＩＴＯ　ＲＥＡＬ　ＤＥＳＩＧＮ　Ｌａｂ．,,株式会社,北海道,札幌市豊平区,美園二条６丁目２－８白南ハイツ美園５０２,,01,105,0620002,,,,,,,2022-02-07,1,,,,,イトウリアルデザインラボ,0
1591,5430003013604,新規,0,2022-02-07,2022-02-07,合同会社仁,,合同会社,北海道,札幌市中央区,円山西町１０丁目１番４６号,,01,101,0640944,,,,,,,2022-02-07,1,,,,,ジン,0
1594,5470001018964,新規,0,2022-02-07,2022-02-07,株式会社美翔不動産,,株式会社,香川県,坂出市,府中町５４３１番地６,,37,203,7620024,,,,,,,2022-02-07,1,,,,,ミショウフドウサン,0
1595,5480001011646,新規,0,2022-02-07,2022-02-07,株式会社四宮農園,,株式会社,徳島県,板野郡上板町,西分字東ツメノ１５番地３,,36,405,7711330,,,,,,,2022-02-07,1,,,,,シノミヤノウエン,0
1607,6010001224335,新規,0,2022-02-07,2022-02-07,株式会社ＨＡＴＴ,,株式会社,東京都,中央区,銀座４丁目１４－２Ｘｃｄ銀座ビル６階,,13,102,1040061,,,,,,,2022-02-07,1,,,,,ハット,0
1608,6010001224343,新規,0,2022-02-07,2022-02-07,メディメイト株式会社,,株式会社,東京都,中央区,京橋１丁目１番６号,,13,102,1040031,,,,,,,2022-02-07,1,,,,,メディメイト,0
1609,6010001224351,新規,0,2022-02-07,2022-02-07,楽創企画株式会社,,株式会社,東京都,中央区,銀座６丁目６番１号銀座風月堂ビル５Ｆ,,13,102,1040061,,,,,,,2022-02-07,1,,,,,ラクソウキカク,0
1610,6010003036935,新規,0,2022-02-07,2022-02-07,リアン合同会社,,合同会社,東京都,千代田区,九段南１丁目５番６号りそな九段ビル５階ＫＳフロア,,13,101,1020074,,,,,,,2022-02-07,1,,,,,リアン,0
1611,6010003036943,新規,0,2022-02-07,2022-02-07,Ｓｅａｎ　Ｓｉｍｏｎ　Ａｓｓｏｃｉａｔｅｓ合同会社,,合同会社,東京都,中央区,日本橋蛎殻町２丁目８番１１号,,13,102,1030014,,,,,,,2022-02-07,1,,,,,ショーンサイモンアソシエイツ,0
1612,6010003036951,新規,0,2022-02-07,2022-02-07,合同会社エブリサイエンス,,合同会社,東京都,中央区,銀座１丁目１２－４Ｎ＆ＥＢＬＤ．７階,,13,102,1040061,,,,,,,2022-02-07,1,,,,,エブリサイエンス,0
1613,6010003036976,新規,0,2022-02-07,2022-02-07,合同会社ＫＰＯＰＧＯＯＤＳ　ＪＡＰＡＮ,,合同会社,東京都,千代田区,大手町１丁目７番２号東京サンケイビル２７階,,13,101,1000004,,,,,,,2022-02-07,1,,,,,ケイポップグッズジャパン,0
1623,6010401165451,新規,0,2022-02-07,2022-02-07,全日空商事リリーリーシング株式会社,,株式会社,東京都,港区,東新橋１丁目５番２号,,13,103,1050021,,,,,,,2022-02-07,1,,,,,ゼンニックウショウジリリーリーシング,0
1627,6010403027039,新規,0,2022-02-07,2022-02-07,ＰＡＴＲＩＺＩＡ　ＭＦ１合同会社,,合同会社,東京都,港区,虎ノ門３丁目２２番１０－２０１号,,13,103,1050001,,,,,,,2022-02-07,1,,,,,パトリチアエムエフワン,0
1630,6010601060618,新規,0,2022-02-07,2022-02-07,株式会社マルマサ,,株式会社,東京都,墨田区,錦糸１丁目２番６－２０２号,,13,107,1300013,,,,,,,2022-02-07,1,,,,,マルマサ,0
1631,6010601060626,新規,0,2022-02-07,2022-02-07,株式会社アンレーヴ,,株式会社,東京都,墨田区,東向島１丁目３５番１１－６０１号,,13,107,1310032,,,,,,,2022-02-07,1,,,,,アンレーヴ,0
1635,6010603009381,新規,0,2022-02-07,2022-02-07,ＳＨＡＫＡ合同会社,,合同会社,東京都,江東区,扇橋１丁目２１番２６－３０７号,,13,108,1350011,,,,,,,2022-02-07,1,,,,,シャカ,0
1636,6010703006097,新規,0,2022-02-07,2022-02-07,合同会社グーポンズネクスト,,合同会社,東京都,品川区,西五反田１丁目１２－１五反田桜小路ファットバー,,13,109,1410031,,,,,,,2022-02-07,1,,,,,グーポンズネクスト,0
1637,6010703006106,新規,0,2022-02-07,2022-02-07,合同会社ブエナビスタ,,合同会社,東京都,品川区,西五反田６丁目２５番２－３１２号,,13,109,1410031,,,,,,,2022-02-07,1,,,,,ブエナビスタ,0
1647,6011001145439,新規,0,2022-02-07,2022-02-07,株式会社ＨＹＰＥ,,株式会社,東京都,渋谷区,渋谷２丁目１９－１５宮益坂ビルディング６０９,,13,113,1500002,,,,,,,2022-02-07,1,,,,,ハイプ,0
1648,6011001145447,新規,0,2022-02-07,2022-02-07,株式会社ビブリオテック,,株式会社,東京都,目黒区,目黒本町６丁目６番１５号,,13,110,1520002,,,,,,,2022-02-07,1,,,,,ビブリオテック,0
1649,6011001145455,新規,0,2022-02-07,2022-02-07,株式会社ＬＡＬＡ,,株式会社,東京都,渋谷区,円山町５番４号フィールＡ渋谷１２０９,,13,113,1500044,,,,,,,2022-02-07,1,,,,,ララ,0
1650,6011001145496,新規,0,2022-02-07,2022-02-07,株式会社ＬＡＧＮＥＲ,,株式会社,東京都,渋谷区,東３丁目１２番７号コーネル不二１０２,,13,113,1500011,,,,,,,2022-02-07,1,,,,,ラグナー,0
1651,6011001145546,新規,0,2022-02-07,2022-02-07,株式会社ｎｅｎ,,株式会社,東京都,渋谷区,神宮前６丁目２３番４号桑野ビル２階,,13,113,1500001,,,,,,,2022-02-07,1,,,,,ネン,0
1658,6011103011448,新規,0,2022-02-07,2022-02-07,合同会社ココア,,合同会社,東京都,新宿区,大久保２丁目３３番１４号ＳｔｕｄｉｏＡｐａｒｔｍｅｎｔ大久保２０１,,13,104,1690072,,,,,,,2022-02-07,1,,,,,ココア,0
1662,6011401024003,新規,0,2022-02-07,2022-02-07,株式会社柴田屋ｔｕｒｆ,,株式会社,東京都,板橋区,本町３８番６－６０２号,,13,119,1730001,,,,,,,2022-02-07,1,,,,,シバタヤターフ,0
1663,6011501027731,新規,0,2022-02-07,2022-02-07,ＬＵＤＥＮＳ株式会社,,株式会社,東京都,荒川区,南千住６丁目２３－１１,,13,118,1160003,,,,,,,2022-02-07,1,,,,,ルーデンス,0
1677,6012801021382,新規,0,2022-02-07,2022-02-07,株式会社フチ,,株式会社,東京都,昭島市,玉川町３丁目１８番１３号,,13,207,1960034,,,,,,,2022-02-07,1,,,,,フチ,0
1679,6013101008847,新規,0,2022-02-07,2022-02-07,株式会社トータルサポートケーツー,,株式会社,東京都,福生市,大字福生１２５３番地１５,,13,218,1970011,,,,,,,2022-02-07,1,,,,,トータルサポートケーツー,0
1685,6013301048651,新規,0,2022-02-07,2022-02-07,アトリエルピナス株式会社,,株式会社,東京都,豊島区,池袋２丁目７８番２－７０３号,,13,116,1710014,,,,,,,2022-02-07,1,,,,,アトリエルピナス,0
1690,6020001145076,新規,0,2022-02-07,2022-02-07,株式会社サンライズ・ガーデニング,,株式会社,神奈川県,横浜市栄区,飯島町２３９９番地１－２０２,,14,115,2440842,,,,,,,2022-02-07,1,,,,,サンライズガーデニング,0
1691,6020001145092,新規,0,2022-02-07,2022-02-07,株式会社ディポ,,株式会社,神奈川県,横浜市都筑区,荏田南４丁目１３番１２号,,14,118,2240007,,,,,,,2022-02-07,1,,,,,ディポ,0
1692,6020001145118,新規,0,2022-02-07,2022-02-07,株式会社サンエイ,,株式会社,神奈川県,横浜市金沢区,洲崎町１４番１２－３０２号,,14,108,2360028,,,,,,,2022-02-07,1,,,,,サンエイ,0
1693,6020001145134,新規,0,2022-02-07,2022-02-07,株式会社ケイグラフィックアート,,株式会社,神奈川県,川崎市多摩区,中野島４丁目２１番１５号,,14,135,2140012,,,,,,,2022-02-07,1,,,,,ケイグラフィックアート,0
1694,6020001145142,新規,0,2022-02-07,2022-02-07,株式会社Ｆｉｃｔｉｏｎｅｒａ,,株式会社,神奈川県,横浜市中区,桜木町２番地２港陽ビル３階,,14,104,2310000,,,,,,,2022-02-07,1,,,,,フィクショネラ,0
1697,6020003021259,新規,0,2022-02-07,2022-02-07,合同会社スターズ,,合同会社,神奈川県,横浜市鶴見区,上末吉１丁目１２番１２号,,14,101,2300011,,,,,,,2022-02-07,1,,,,,スターズ,0
1708,6030001146627,新規,0,2022-02-07,2022-02-07,株式会社ボスコ,,株式会社,埼玉県,深谷市,東方町２丁目６番地３,,11,218,3660042,,,,,,,2022-02-07,1,,,,,ボスコ,0
1709,6030001146643,新規,0,2022-02-07,2022-02-07,株式会社ｎｅｗ　ｐｏｓｓｉｂｉｌｉｔｉｅｓ,,株式会社,埼玉県,本庄市,東台２丁目３番１号,,11,211,3670021,,,,,,,2022-02-07,1,,,,,ニューポッシビリティーズ,0
1710,6030001146692,新規,0,2022-02-07,2022-02-07,株式会社イージー,,株式会社,埼玉県,三郷市,中央１丁目２番地１,,11,237,3410038,,,,,,,2022-02-07,1,,,,,イージー,0
1711,6030001146701,新規,0,2022-02-07,2022-02-07,宝龍株式会社,,株式会社,埼玉県,川口市,西川口１丁目３０番２０－２０６号,,11,203,3320021,,,,,,,2022-02-07,1,,,,,ホウリュウ,0
1715,6030003018808,新規,0,2022-02-07,2022-02-07,合同会社ホシコエクスポート,,合同会社,埼玉県,鴻巣市,筑波２丁目７番７号ニューシティ横田１０１,,11,217,3690114,,,,,,,2022-02-07,1,,,,,ホシコエクスポート,0
1721,6040001122065,新規,0,2022-02-07,2022-02-07,ＥＩＫＩ株式会社,,株式会社,千葉県,印旛郡酒々井町,上岩橋６２番地５テナントクレールＣ,,12,322,2850905,,,,,,,2022-02-07,1,,,,,エイキ,0
1722,6040001122081,新規,0,2022-02-07,2022-02-07,株式会社イシダ総合管理,,株式会社,千葉県,柏市,若葉町３番１９号,,12,217,2770024,,,,,,,2022-02-07,1,,,,,イシダソウゴウカンリ,0
1723,6040001122115,新規,0,2022-02-07,2022-02-07,株式会社サンショウ,,株式会社,千葉県,松戸市,五香８丁目１７番地の２３,,12,207,2702213,,,,,,,2022-02-07,1,,,,,サンショウ,0
1724,6040001122123,新規,0,2022-02-07,2022-02-07,株式会社アールエムエム,,株式会社,千葉県,柏市,弥生町８番９－１号,,12,217,2770015,,,,,,,2022-02-07,1,,,,,アールエムエム,0
1725,6040001122131,新規,0,2022-02-07,2022-02-07,株式会社モノビ,,株式会社,千葉県,船橋市,新高根６丁目９－５,,12,204,2740814,,,,,,,2022-02-07,1,,,,,モノビ,0
1726,6040001122156,新規,0,2022-02-07,2022-02-07,株式会社ＪＥＩＣ,,株式会社,千葉県,成田市,寺台５３２番地６,,12,211,2860022,,,,,,,2022-02-07,1,,,,,ジェイク,0
1727,6040001122164,新規,0,2022-02-07,2022-02-07,＿成商事株式会社,00125646,株式会社,千葉県,佐倉市,西御門５４２番地７,,12,212,2850074,,,,,,,2022-02-07,1,,,,,キンセイショウジ,0
1729,6040003019425,新規,0,2022-02-07,2022-02-07,合同会社ウォーターサプライ,,合同会社,千葉県,船橋市,習志野台２丁目４８番２０号２０２号室,,12,204,2740063,,,,,,,2022-02-07,1,,,,,ウォーターサプライ,0
1730,6040003019441,新規,0,2022-02-07,2022-02-07,Ｇｉｖｅｒｓ合同会社,,合同会社,千葉県,市川市,大野町２丁目１８８２番地２３,,12,203,2720805,,,,,,,2022-02-07,1,,,,,ギバーズ,0
1732,6050001050587,新規,0,2022-02-07,2022-02-07,株式会社さくら産業医事務所,,株式会社,茨城県,筑西市,甲６０番地,,08,227,3080021,,,,,,,2022-02-07,1,,,,,サクラサンギョウイジムショ,0
1733,6050005013012,新規,0,2022-02-07,2022-02-07,一般社団法人ＱＯＬレディース,,その他の設立登記法人,茨城県,水戸市,赤塚１丁目２０６７番地３コーキビル２Ｆ,,08,201,3114141,,,,,,,2022-02-07,1,,,,,キューオーエルレディース,0
1740,6070001038928,新規,0,2022-02-07,2022-02-07,株式会社ハラッチ,,株式会社,群馬県,邑楽郡明和町,須賀３５６番地１,,10,522,3700717,,,,,,,2022-02-07,1,,,,,ハラッチ,0
1747,6080101023085,新規,0,2022-02-07,2022-02-07,株式会社クローバー,,株式会社,静岡県,沼津市,東原５５６番地４,,22,203,4100304,,,,,,,2022-02-07,1,,,,,クローバー,0
1749,6090001017401,新規,0,2022-02-07,2022-02-07,株式会社ＭｓＢ,,株式会社,山梨県,中央市,山之神９８８番地２０,,19,214,4093845,,,,,,,2022-02-07,1,,,,,エムエスビー,0
1756,6100003006400,新規,0,2022-02-07,2022-02-07,合同会社明星,,合同会社,長野県,長野市,金井田３７番地１,,20,201,3812222,,,,,,,2022-02-07,1,,,,,メイセイ,0
1778,6120001243539,新規,0,2022-02-07,2022-02-07,株式会社絆,,株式会社,大阪府,大阪市北区,中津１丁目１２－１１,,27,127,5310071,,,,,,,2022-02-07,1,,,,,キズナ,0
1779,6120001243613,新規,0,2022-02-07,2022-02-07,エス．ファミリア株式会社,,株式会社,大阪府,大阪市阿倍野区,阪南町５丁目２０番２１号,,27,119,5450021,,,,,,,2022-02-07,1,,,,,エスファミリア,0
1780,6120001243621,新規,0,2022-02-07,2022-02-07,株式会社つね,,株式会社,大阪府,大阪市旭区,高殿２丁目８番３８－２２１号,,27,117,5350031,,,,,,,2022-02-07,1,,,,,ツネ,0
1781,6120001243638,新規,0,2022-02-07,2022-02-07,ななつ星グループ株式会社,,株式会社,大阪府,大阪市城東区,野江１丁目１－１０,,27,118,5360006,,,,,,,2022-02-07,1,,,,,ナナツボシグループ,0
1782,6120001243679,新規,0,2022-02-07,2022-02-07,株式会社ロックンロール,,株式会社,大阪府,大阪市北区,茶屋町７番２０－１６０１号,,27,127,5300013,,,,,,,2022-02-07,1,,,,,ロックンロール,0
1784,6120003021100,新規,0,2022-02-07,2022-02-07,合同会社龍幸,,合同会社,大阪府,大阪市西淀川区,中島１丁目２３番２８号,,27,113,5550041,,,,,,,2022-02-07,1,,,,,リュウコウ,0
1789,6120103004558,新規,0,2022-02-07,2022-02-07,合同会社バディジャパン,,合同会社,大阪府,河内長野市,栄町２３番２４号,,27,216,5860032,,,,,,,2022-02-07,1,,,,,バディジャパン,0
1790,6120105009522,新規,0,2022-02-07,2022-02-07,一般社団法人堺設計監理事業協会,,その他の設立登記法人,大阪府,堺市堺区,北瓦町２丁３番２２号,,27,141,5900076,,,,,,,2022-02-07,1,,,,,サカイセッケイカンリジギョウキョウカイ,0
1791,6120901045571,新規,0,2022-02-07,2022-02-07,株式会社リンクアシスト,,株式会社,大阪府,豊中市,城山町１丁目８番３－２０４号,,27,203,5610803,,,,,,,2022-02-07,1,,,,,リンクアシスト,0
1797,6120905006280,新規,0,2022-02-07,2022-02-07,医療法人優桜会,,その他の設立登記法人,大阪府,豊中市,新千里東町１丁目１番３号ＳＥＮＲＩＴＯよみうり３階,,27,203,5600082,,,,,,,2022-02-07,1,,,,,ユウオウカイ,0
1800,6122001035560,新規,0,2022-02-07,2022-02-07,株式会社黒門小雀弥東大阪,,株式会社,大阪府,東大阪市,高井田元町２丁目７番７号,,27,227,5770054,,,,,,,2022-02-07,1,,,,,クロモンコガラヤヒガシオオサカ,0
1807,6130001071071,新規,0,2022-02-07,2022-02-07,株式会社京丹後平田ファーム,,株式会社,京都府,京丹後市,久美浜町平田１０２５番地,,26,212,6293432,,,,,,,2022-02-07,1,,,,,キョウタンゴヒラタファーム,0
1808,6130001071088,新規,0,2022-02-07,2022-02-07,株式会社優希美,,株式会社,京都府,舞鶴市,八反田南町７０番地１,,26,202,6250078,,,,,,,2022-02-07,1,,,,,ユキビ,0
1809,6130001071096,新規,0,2022-02-07,2022-02-07,株式会社名産舘,,株式会社,京都府,京都市伏見区,深草開土町３６－６,,26,109,6120806,,,,,,,2022-02-07,1,,,,,メイサンカン,0
1811,6130003007742,新規,0,2022-02-07,2022-02-07,合同会社伏見屋,,合同会社,京都府,京都市左京区,岡崎北御所町２０番地の８,,26,103,6068336,,,,,,,2022-02-07,1,,,,,フシミヤ,0
1817,6140001124803,新規,0,2022-02-07,2022-02-07,株式会社カブシキ,,株式会社,兵庫県,神戸市長田区,房王寺町４丁目７番１３号,,28,106,6530801,,,,,,,2022-02-07,1,,,,,カブシキ,0
1818,6140001124836,新規,0,2022-02-07,2022-02-07,株式会社サンプランニング,,株式会社,兵庫県,尼崎市,大島３丁目３１番１６－２０１号,,28,202,6600076,,,,,,,2022-02-07,1,,,,,サンプランニング,0
1821,6140003017328,新規,0,2022-02-07,2022-02-07,合同会社こぐまＦＤ,,合同会社,兵庫県,宝塚市,山本丸橋２丁目６番２号シャーメゾン山本丸橋Ｂ１０５号室,,28,214,6650815,,,,,,,2022-02-07,1,,,,,コグマフードデリバリー,0
1824,6160001023986,新規,0,2022-02-07,2022-02-07,一警備株式会社,,株式会社,滋賀県,湖南市,岩根中央２丁目７８番地フリーダム岩根中央１０５号,,25,211,5203254,,,,,,,2022-02-07,1,,,,,ハジメケイビ,0
1833,6180001149862,新規,0,2022-02-07,2022-02-07,株式会社Ｋ－ＳＨＯＷ,,株式会社,愛知県,半田市,泉町１１０番地の１３ライオンズ半田プレステージレジデンス１４０１号,,23,205,4750858,,,,,,,2022-02-07,1,,,,,ケーショー,0
1834,6180001149879,新規,0,2022-02-07,2022-02-07,株式会社ディッスンザット,,株式会社,愛知県,一宮市,今伊勢町宮後字神戸５７番地３,,23,203,4910057,,,,,,,2022-02-07,1,,,,,ディッスンザット,0
1835,6180001149887,新規,0,2022-02-07,2022-02-07,株式会社技巧空間ＮＥＯ,,株式会社,愛知県,名古屋市中川区,松葉町３丁目６８番地,,23,110,4540818,,,,,,,2022-02-07,1,,,,,ギコウクウカンネオ,0
1836,6180001149895,新規,0,2022-02-07,2022-02-07,ウィズソーラー株式会社,,株式会社,愛知県,名古屋市東区,代官町４０番１５号,,23,102,4610002,,,,,,,2022-02-07,1,,,,,ウィズソーラー,0
1844,6180005019616,新規,0,2022-02-07,2022-02-07,一般社団法人外国人雇用推進協会,,その他の設立登記法人,愛知県,半田市,畑合町４番地,,23,205,4750847,,,,,,,2022-02-07,1,,,,,ガイコクジンコヨウスイシンキョウカイ,0
1847,6180301035903,新規,0,2022-02-07,2022-02-07,株式会社タカキホールディングス,,株式会社,愛知県,豊田市,中町東中根５０番地,,23,211,4730904,,,,,,,2022-02-07,1,,,,,タカキホールディングス,0
1852,6200001039722,新規,0,2022-02-07,2022-02-07,太田牧場株式会社,,株式会社,岐阜県,郡上市,高鷲町ひるがの４６７０番地６０１,,21,219,5015301,,,,,,,2022-02-07,1,,,,,オオタボクジョウ,0
1855,6230001019226,新規,0,2022-02-07,2022-02-07,株式会社Ｇｒｅｅｎ,,株式会社,富山県,富山市,二俣３６８番地１,,16,201,9398185,,,,,,,2022-02-07,1,,,,,グリーン,0
1861,6240001059279,新規,0,2022-02-07,2022-02-07,株式会社せともす,,株式会社,広島県,尾道市,瀬戸田町荻２４９８５番地１,,34,205,7222403,,,,,,,2022-02-07,1,,,,,セトモス,0
1864,6250001019397,新規,0,2022-02-07,2022-02-07,株式会社エテルノパワー,,株式会社,山口県,防府市,自由ケ丘１丁目５番４０号,,35,206,7470066,,,,,,,2022-02-07,1,,,,,エテルノパワー,0
1870,6290001096350,新規,0,2022-02-07,2022-02-07,株式会社ショージ,,株式会社,福岡県,福岡市東区,多の津５丁目５番１２号フジノビルサンフォーカス３０５号,,40,131,8130034,,,,,,,2022-02-07,1,,,,,ショージ,0
1871,6290001096359,新規,0,2022-02-07,2022-02-07,株式会社林田ホールディングス,,株式会社,福岡県,福岡市中央区,地行浜２丁目２番５－１７１１号ザ・パークハウス福岡タワーズＥＡＳＴ,,40,133,8100065,,,,,,,2022-02-07,1,,,,,ハヤシダホールディングス,0
1872,6290001096367,新規,0,2022-02-07,2022-02-07,株式会社イーファイブ,,株式会社,福岡県,久留米市,善導寺町木塚４４８番地１,,40,203,8390822,,,,,,,2022-02-07,1,,,,,イーファイブ,0
1873,6290001096375,新規,0,2022-02-07,2022-02-07,株式会社ハンズ,,株式会社,福岡県,福岡市早良区,早良６丁目３９番２１号,,40,137,8111122,,,,,,,2022-02-07,1,,,,,ハンズ,0
1883,6360003011787,新規,0,2022-02-07,2022-02-07,合同会社未来リビング,,合同会社,沖縄県,国頭郡今帰仁村,字玉城９２５の３８,,47,306,9050415,,,,,,,2022-02-07,1,,,,,,0
1890,6390005008936,新規,0,2022-02-07,2022-02-07,一般社団法人山形県地域包括支援センター等協議会,,その他の設立登記法人,山形県,山形市,沖町７９番地１,,06,201,9900818,,,,,,,2022-02-07,1,,,,,ヤマガタケンチイキホウカツシエンセンタートウキョウギカイ,0
1898,6430001085933,新規,0,2022-02-07,2022-02-07,株式会社ＯＥｕｆ　ｄｅｓｉｇｎ,,株式会社,北海道,札幌市中央区,北二条西２５丁目２番１－２０２号,,01,101,0640822,,,,,,,2022-02-07,1,,,,,ウーフデザイン,0
1899,6430001085958,新規,0,2022-02-07,2022-02-07,合鴻国際株式会社,,株式会社,北海道,札幌市東区,北十九条東１０丁目５番２２号,,01,103,0650019,,,,,,,2022-02-07,1,,,,,アイコウコクサイ,0
1906,6450005004326,新規,0,2022-02-07,2022-02-07,初山別事業協同組合,,その他の設立登記法人,北海道,苫前郡初山別村,字初山別６８番地,,01,485,0784421,,,,,,,2022-02-07,1,,,,,ショサンベツ,0
1912,6470001018963,新規,0,2022-02-07,2022-02-07,藤井電機ファーム株式会社,,株式会社,香川県,小豆郡土庄町,甲５０８０番地２,,37,322,7614101,,,,,,,2022-02-07,1,,,,,フジイデンキファーム,0
1920,7010001224342,新規,0,2022-02-07,2022-02-07,株式会社ＤＣＴ　Ｊａｐａｎ,,株式会社,東京都,中央区,日本橋蛎殻町１丁目２７番５号,,13,102,1030014,,,,,,,2022-02-07,1,,,,,ディーシーティージャパン,0
1921,7010001224359,新規,0,2022-02-07,2022-02-07,株式会社Ｏ,,株式会社,東京都,千代田区,岩本町１丁目５番１０－８０２号,,13,101,1010032,,,,,,,2022-02-07,1,,,,,オー,0
1922,7010001224375,新規,0,2022-02-07,2022-02-07,Ｍｅｉｎｈａｒｄｔ　Ｊａｐａｎ株式会社,,株式会社,東京都,千代田区,有楽町１丁目１番２号日比谷三井タワー１２階,,13,101,1000006,,,,,,,2022-02-07,1,,,,,マインハーツジャパン,0
1923,7010001224391,新規,0,2022-02-07,2022-02-07,ＣＯＮＦＩＴ株式会社,,株式会社,東京都,千代田区,神田多町２丁目１番地,,13,101,1010046,,,,,,,2022-02-07,1,,,,,コンフィット,0
1924,7010001224400,新規,0,2022-02-07,2022-02-07,株式会社ギンザビルメンテ,,株式会社,東京都,中央区,銀座８丁目５番６号,,13,102,1040061,,,,,,,2022-02-07,1,,,,,ギンザビルメンテ,0
1925,7010001224409,新規,0,2022-02-07,2022-02-07,株式会社ｋｍｋ,,株式会社,東京都,中央区,東日本橋２丁目１１番３号,,13,102,1030004,,,,,,,2022-02-07,1,,,,,ケーエムケー,0
1926,7010001224458,新規,0,2022-02-07,2022-02-07,株式会社Ａｒｃｈｉ　Ｖｉｌｌａｇｅ,,株式会社,東京都,千代田区,神田錦町３丁目７番地２東京堂錦町ビルディング５Ｆ,,13,101,1010054,,,,,,,2022-02-07,1,,,,,アーキヴィレッジ,0
1928,7010003036934,新規,0,2022-02-07,2022-02-07,合同会社Ｉｒａ,,合同会社,東京都,中央区,銀座１丁目２２番１１号銀座大竹ビジデンス２階,,13,102,1040061,,,,,,,2022-02-07,1,,,,,イラ,0
1929,7010003036950,新規,0,2022-02-07,2022-02-07,合同会社デフムーン,,合同会社,東京都,中央区,日本橋室町１丁目２－６日本橋大栄ビル７階,,13,102,1030022,,,,,,,2022-02-07,1,,,,,デフムーン,0
1930,7010003036959,新規,0,2022-02-07,2022-02-07,東京レジ２４合同会社,,合同会社,東京都,千代田区,丸の内３丁目１番１号東京共同会計事務所内,,13,101,1000005,,,,,,,2022-02-07,1,,,,,トウキョウレジトゥエンティフォー,0
1932,7010401165450,新規,0,2022-02-07,2022-02-07,株式会社ボディアワード,,株式会社,東京都,港区,西麻布４丁目８番２２号ＭＮ４８２２ビル１０６号室,,13,103,1060031,,,,,,,2022-02-07,1,,,,,ボディアワード,0
1935,7010403027038,新規,0,2022-02-07,2022-02-07,合同会社Ｒｙ,,合同会社,東京都,港区,赤坂２丁目１７番５０－１２１４号,,13,103,1070052,,,,,,,2022-02-07,1,,,,,リョ,0
1937,7010405020668,新規,0,2022-02-07,2022-02-07,ＥＳＲ２６・１一般社団法人,,その他の設立登記法人,東京都,港区,浜松町１丁目２０番１０号ライオネス浜松町５０６号室,,13,103,1050013,,,,,,,2022-02-07,1,,,,,イーエスアールニジュウロクイチ,0
1938,7010601060575,新規,0,2022-02-07,2022-02-07,株式会社オクサリスシステムズ,,株式会社,東京都,江東区,東陽２丁目２番１４－１２０４号,,13,108,1350016,,,,,,,2022-02-07,1,,,,,オクサリスシステムズ,0
1940,7010701042192,新規,0,2022-02-07,2022-02-07,株式会社搬入屋,,株式会社,東京都,品川区,平塚１丁目７番７号,,13,109,1420051,,,,,,,2022-02-07,1,,,,,ハンニュウヤ,0
1941,7010703006096,新規,0,2022-02-07,2022-02-07,合同会社スリーエス,,合同会社,東京都,品川区,中延６丁目６番９号,,13,109,1420053,,,,,,,2022-02-07,1,,,,,スリーエス,0
1942,7010703006105,新規,0,2022-02-07,2022-02-07,合同会社石川企画,,合同会社,東京都,品川区,上大崎４丁目６番１６－７２８号,,13,109,1410021,,,,,,,2022-02-07,1,,,,,イシカワキカク,0
1943,7010801032721,新規,0,2022-02-07,2022-02-07,株式会社Ｇｏ　Ｔｏｄａｙ,,株式会社,東京都,大田区,山王３丁目３８番１２号,,13,111,1430023,,,,,,,2022-02-07,1,,,,,ゴートゥデイ,0
1945,7010901050292,新規,0,2022-02-07,2022-02-07,スギタランド株式会社,,株式会社,東京都,世田谷区,南烏山６丁目１７番１号,,13,112,1570062,,,,,,,2022-02-07,1,,,,,スギタランド,0
1946,7010901050326,新規,0,2022-02-07,2022-02-07,株式会社ＵＣＨＯ,,株式会社,東京都,世田谷区,上馬２丁目３７番１２－２０３号,,13,112,1540011,,,,,,,2022-02-07,1,,,,,ウッホ,0
1951,7011001145446,新規,0,2022-02-07,2022-02-07,株式会社Ｋ１０,,株式会社,東京都,渋谷区,恵比寿南２丁目２３番３号恵比寿ＮＨビル３階,,13,113,1500022,,,,,,,2022-02-07,1,,,,,キティ,0
1952,7011001145454,新規,0,2022-02-07,2022-02-07,株式会社ＷＯＯ,,株式会社,東京都,目黒区,中目黒１丁目１－５ソフィアーレ代官山４１６号室,,13,110,1530061,,,,,,,2022-02-07,1,,,,,ウー,0
1953,7011001145561,新規,0,2022-02-07,2022-02-07,株式会社ファインドラボ,,株式会社,東京都,渋谷区,広尾５丁目１９番２－４０６号,,13,113,1500012,,,,,,,2022-02-07,1,,,,,ファインドラボ,0
1954,7011001145578,新規,0,2022-02-07,2022-02-07,株式会社ＢＬＵＥＴＯＷＮ,,株式会社,東京都,目黒区,目黒本町４丁目１５番１１号ＭＤＭ武蔵小山３０１,,13,110,1520002,,,,,,,2022-02-07,1,,,,,ブルータウン,0
1958,7011003014137,新規,0,2022-02-07,2022-02-07,合同会社ＭＡＴＺ　ＴＲＡＤＩＮＧ　ＬＡＢ,,合同会社,東京都,渋谷区,恵比寿３丁目３番３５号,,13,113,1500013,,,,,,,2022-02-07,1,,,,,マツトレーディングラボ,0
1959,7011003014145,新規,0,2022-02-07,2022-02-07,合同会社ＧｒｅａｔＦａｔｈｅｒ,,合同会社,東京都,渋谷区,神宮前６丁目２３番４号桑野ビル２階,,13,113,1500001,,,,,,,2022-02-07,1,,,,,グレートファザー,0
1960,7011005009416,新規,0,2022-02-07,2022-02-07,一般社団法人やまと経営者連盟,,その他の設立登記法人,東京都,渋谷区,恵比寿４丁目２０番３号恵比寿ガーデンプレイスタワー１８階,,13,113,1500013,,,,,,,2022-02-07,1,,,,,ヤマトケイエイシャレンメイ,0
1964,7011101097744,新規,0,2022-02-07,2022-02-07,株式会社ヘッドウォータースプロフェッショナルズ,,株式会社,東京都,新宿区,西新宿６丁目５番１号,,13,104,1600023,,,,,,,2022-02-07,1,,,,,ヘッドウォータースプロフェッショナルズ,0
1967,7011301027542,新規,0,2022-02-07,2022-02-07,株式会社Ａ＆Ａプログレス,,株式会社,東京都,杉並区,今川１丁目１２番２１号,,13,115,1670035,,,,,,,2022-02-07,1,,,,,エイアンドエイプログレス,0
1970,7011603003522,新規,0,2022-02-07,2022-02-07,Ｃ＆Ｊ合同会社,,合同会社,東京都,練馬区,豊玉北６丁目２３－１５,,13,120,1760012,,,,,,,2022-02-07,1,,,,,シーアンドジェイ,0
1972,7011705001713,新規,0,2022-02-07,2022-02-07,一般社団法人平井敬友会,,その他の設立登記法人,東京都,江戸川区,平井４丁目１１番６－４０１,,13,123,1320035,,,,,,,2022-02-07,1,,,,,ヒライケイユウカイ,0
1980,7012301012872,新規,0,2022-02-07,2022-02-07,ニギタエンタープライズ株式会社,,株式会社,東京都,町田市,真光寺１丁目１９番地１６,,13,209,1950057,,,,,,,2022-02-07,1,,,,,ニギタエンタープライズ,0
1982,7012401038792,新規,0,2022-02-07,2022-02-07,株式会社ＡＳＦＯＲＤ,,株式会社,東京都,稲城市,若葉台２丁目１番地の１ロイヤルパークス若葉台２１１,,13,225,2060824,,,,,,,2022-02-07,1,,,,,アスフォード,0
1986,7013101008846,新規,0,2022-02-07,2022-02-07,株式会社平成サービス,,株式会社,東京都,青梅市,野上町３丁目２番地の４１,,13,205,1980032,,,,,,,2022-02-07,1,,,,,ヘイセイサービス,0
1988,7013105001789,新規,0,2022-02-07,2022-02-07,一般社団法人あきる野国際モンテッソーリ教師トレーニングセンター,,その他の設立登記法人,東京都,あきる野市,秋川３丁目７番６号,,13,228,1970804,,,,,,,2022-02-07,1,,,,,アキルノコクサイモンテッソーリキョウシトレーニングセンター,0
1994,7020001145059,新規,0,2022-02-07,2022-02-07,Ｎａｎｏｌｅａｆ　Ｊａｐａｎ株式会社,,株式会社,神奈川県,横浜市中区,本町１丁目５,,14,104,2310005,,,,,,,2022-02-07,1,,,,,ナノリーフジャパン,0
1996,7020005015357,新規,0,2022-02-07,2022-02-07,一般社団法人Ｈｏｍｅ　ＮＯＣ　Ｏｐｅｒａｔｏｒｓ’Ｇｒｏｕｐ,,その他の設立登記法人,神奈川県,横浜市中区,元町５丁目１９７番地１コスモ横濱山手ヒルズ３０４号室,,14,104,2310861,,,,,,,2022-02-07,1,,,,,ホームノックオペレーターズグループ,0
2008,7030001146683,新規,0,2022-02-07,2022-02-07,松下興業株式会社,,株式会社,埼玉県,戸田市,本町５丁目１０番９号,,11,224,3350023,,,,,,,2022-02-07,1,,,,,マツシタコウギョウ,0
2018,7030003018807,新規,0,2022-02-07,2022-02-07,合同会社イノベル,,合同会社,埼玉県,さいたま市大宮区,大門町３丁目１９８番地９－５０３,,11,103,3300846,,,,,,,2022-02-07,1,,,,,イノベル,0
2020,7030005020711,新規,0,2022-02-07,2022-02-07,Ｅｌｐｉｚｏ協同組合,,その他の設立登記法人,埼玉県,草加市,住吉１丁目５番２４号,,11,221,3400014,,,,,,,2022-02-07,1,,,,,エルピス,0
2028,7040001122064,新規,0,2022-02-07,2022-02-07,ＨＲＳ　ＪＡＰＡＮ株式会社,,株式会社,千葉県,船橋市,坪井西１丁目４番３９号ホワイトハウスＡ－２０１号,,12,204,2740069,,,,,,,2022-02-07,1,,,,,エイチアールエスジャパン,0
2029,7040001122080,新規,0,2022-02-07,2022-02-07,株式会社玉心,,株式会社,千葉県,印西市,木刈４丁目３３番地４,,12,231,2701359,,,,,,,2022-02-07,1,,,,,ギョクシン,0
2030,7040001122089,新規,0,2022-02-07,2022-02-07,ＪＳＲ　ＡＲＴＯＮ製造株式会社,,株式会社,千葉県,市原市,千種海岸５番地,,12,219,2990108,,,,,,,2022-02-07,1,,,,,ジェイエスアールアートンセイゾウ,0
2031,7040001122130,新規,0,2022-02-07,2022-02-07,株式会社Ｌ．Ｓ．Ｄｅｓｉｇｎ,,株式会社,千葉県,船橋市,前原西５丁目１３番１４－４号,,12,204,2740825,,,,,,,2022-02-07,1,,,,,エルエスデザイン,0
2032,7040001122139,新規,0,2022-02-07,2022-02-07,株式会社ＨＵＭＡＮＣＬＥ,,株式会社,千葉県,千葉市中央区,新宿１丁目２３－３－４０４,,12,101,2600021,,,,,,,2022-02-07,1,,,,,ヒューマンクル,0
2033,7040001122147,新規,0,2022-02-07,2022-02-07,株式会社空港警備コーポレーション,,株式会社,千葉県,成田市,取香２５５番地２,,12,211,2860106,,,,,,,2022-02-07,1,,,,,クウコウケイビコーポレーション,0
2034,7040001122155,新規,0,2022-02-07,2022-02-07,株式会社ＡｍＺ－ｄｅｓｉｇｎ,,株式会社,千葉県,八千代市,八千代台東１丁目３４－１２宝ビル２Ｆ,,12,221,2760032,,,,,,,2022-02-07,1,,,,,アムズデザイン,0
2037,7040003019424,新規,0,2022-02-07,2022-02-07,合同会社Ｋｕｌａｔｈｕｎｇａ　Ｉｎｔｅｒｎａｔｉｏｎａｌ,,合同会社,千葉県,成田市,村田３３９番地１,,12,211,2870203,,,,,,,2022-02-07,1,,,,,クラトウンガインターナショナル,0
2040,7050001050578,新規,0,2022-02-07,2022-02-07,株式会社アトリエＤ,,株式会社,茨城県,稲敷郡阿見町,大字大室６０番地１２,,08,443,3000303,,,,,,,2022-02-07,1,,,,,アトリエディー,0
2041,7050001050586,新規,0,2022-02-07,2022-02-07,Ｈｅａｒｔｆｕｌ　Ｓｕｐｐｏｒｔ株式会社,,株式会社,茨城県,守谷市,久保ケ丘１丁目６番地１０,,08,224,3020104,,,,,,,2022-02-07,1,,,,,ハートフルサポート,0
2042,7050001050603,新規,0,2022-02-07,2022-02-07,株式会社桜華ソリューション,,株式会社,茨城県,東茨城郡城里町,大字石塚１４２３番地の２,,08,310,3114303,,,,,,,2022-02-07,1,,,,,オウカソリューション,0
2050,7070001038919,新規,0,2022-02-07,2022-02-07,株式会社ＴＯＭＡＲＵ,,株式会社,群馬県,前橋市,問屋町１丁目１０番地８,,10,201,3710855,,,,,,,2022-02-07,1,,,,,トマル,0
2052,7070003004381,新規,0,2022-02-07,2022-02-07,合同会社モードグランディ,,合同会社,群馬県,桐生市,梅田町１丁目７９２番地３,,10,203,3760601,,,,,,,2022-02-07,1,,,,,モードグランディ,0
2058,7080401025615,新規,0,2022-02-07,2022-02-07,株式会社シンク,,株式会社,静岡県,浜松市西区,入野町２００１８－１０,,22,133,4328061,,,,,,,2022-02-07,1,,,,,シンク,0
2061,7090001017383,新規,0,2022-02-07,2022-02-07,株式会社ローグ,,株式会社,山梨県,上野原市,上野原２０７５－１,,19,212,4090112,,,,,,,2022-02-07,1,,,,,ローグ,0
2062,7090001017400,新規,0,2022-02-07,2022-02-07,株式会社原工業所,,株式会社,山梨県,上野原市,秋山１１５０１番地１,,19,212,4010201,,,,,,,2022-02-07,1,,,,,ハラコウギョウショ,0
2082,7120001243604,新規,0,2022-02-07,2022-02-07,三和新材料株式会社,,株式会社,大阪府,大阪市東淀川区,東中島１丁目２０番１２号,,27,114,5330033,,,,,,,2022-02-07,1,,,,,サンワシンザイリョウ,0
2083,7120001243612,新規,0,2022-02-07,2022-02-07,株式会社Ｊｏｉｎ,,株式会社,大阪府,大阪市浪速区,幸町１丁目２－１５レフィシアコート難波６０２号室,,27,111,5560021,,,,,,,2022-02-07,1,,,,,ジョイン,0
2084,7120001243620,新規,0,2022-02-07,2022-02-07,株式会社オールファッション,,株式会社,大阪府,大阪市中央区,船場中央２丁目３－６船場センタービル６号館１０３号,,27,128,5410055,,,,,,,2022-02-07,1,,,,,オールファッション,0
2085,7120001243694,新規,0,2022-02-07,2022-02-07,株式会社ＳＥＳＳＩＯＮ＆ＣＯ,,株式会社,大阪府,大阪市中央区,南船場３丁目１番２６－５０２号,,27,128,5420081,,,,,,,2022-02-07,1,,,,,セッションアンドコー,0
2086,7120001243703,新規,0,2022-02-07,2022-02-07,株式会社ＲＡ,,株式会社,大阪府,大阪市浪速区,恵美須西３丁目１５番５号,,27,111,5560003,,,,,,,2022-02-07,1,,,,,アールエー,0
2087,7120001243711,新規,0,2022-02-07,2022-02-07,株式会社龍麟,,株式会社,大阪府,大阪市福島区,大開１丁目４番１９号,,27,103,5530007,,,,,,,2022-02-07,1,,,,,リュウリン,0
2092,7120003021099,新規,0,2022-02-07,2022-02-07,合同会社ひら卓屋,,合同会社,大阪府,枚方市,田口５丁目２番１号,,27,210,5731162,,,,,,,2022-02-07,1,,,,,ヒラタクヤ,0
2093,7120005022780,新規,0,2022-02-07,2022-02-07,一般社団法人日本こどもみらいラボ,,その他の設立登記法人,大阪府,守口市,金田町１丁目６２番１１号,,27,209,5700011,,,,,,,2022-02-07,1,,,,,ニホンコドモミライラボ,0
2096,7120101065048,新規,0,2022-02-07,2022-02-07,株式会社ＳＡＣＨＩ,,株式会社,大阪府,堺市中区,土師町５丁２３番１３号,,27,142,5998238,,,,,,,2022-02-07,1,,,,,サチ,0
2098,7120901045570,新規,0,2022-02-07,2022-02-07,株式会社ＪＩＮコーポレーション,,株式会社,大阪府,高槻市,北大樋町４５番１号,,27,207,5690041,,,,,,,2022-02-07,1,,,,,ジンコーポレーション,0
2104,7130001071070,新規,0,2022-02-07,2022-02-07,凪株式会社,,株式会社,京都府,城陽市,久世里ノ西１５３番地の２８,,26,207,6100102,,,,,,,2022-02-07,1,,,,,ナギ,0
2105,7130001071087,新規,0,2022-02-07,2022-02-07,株式会社樋口,,株式会社,京都府,京都市中京区,西ノ京右馬寮町８－８７,,26,104,6048492,,,,,,,2022-02-07,1,,,,,ヒグチ,0
2106,7130001071095,新規,0,2022-02-07,2022-02-07,株式会社Ｄｅｃｎｏ,,株式会社,京都府,京都市左京区,下鴨宮崎町１１９番地１,,26,103,6060802,,,,,,,2022-02-07,1,,,,,デクノ,0
2108,7130003007741,新規,0,2022-02-07,2022-02-07,合同会社ａｑｕａｔｅｃｈ,,合同会社,京都府,京都市下京区,葛籠屋町５１９,,26,106,6008085,,,,,,,2022-02-07,1,,,,,アクアテック,0
2138,7180001149812,新規,0,2022-02-07,2022-02-07,株式会社Ｄｅｖｏｔｉｏｎ,,株式会社,愛知県,名古屋市中村区,名駅南１丁目１２番１７号,,23,105,4500003,,,,,,,2022-02-07,1,,,,,デボーション,0
2139,7180001149886,新規,0,2022-02-07,2022-02-07,株式会社ＲｅＡＬＬ,,株式会社,愛知県,名古屋市東区,東桜２丁目９番３４号成田ビル１Ｆ,,23,102,4610005,,,,,,,2022-02-07,1,,,,,リオール,0
2140,7180001149911,新規,0,2022-02-07,2022-02-07,株式会社Ｌｅａｐｓ,,株式会社,愛知県,名古屋市中村区,太閤１丁目２番１２号タウンライフ名駅４０１号,,23,105,4530801,,,,,,,2022-02-07,1,,,,,リープス,0
2158,7200003005449,新規,0,2022-02-07,2022-02-07,合同会社ＲＥＩＮＢＯ,,合同会社,岐阜県,岐阜市,水海道３丁目１２番１号,,21,201,5008223,,,,,,,2022-02-07,1,,,,,レインボ,0
2160,7220001024688,新規,0,2022-02-07,2022-02-07,株式会社ＬＯＴ,,株式会社,石川県,野々市市,御経塚２丁目２３９番地,,17,212,9218801,,,,,,,2022-02-07,1,,,,,ロト,0
2172,7240001059303,新規,0,2022-02-07,2022-02-07,株式会社ＧＲＯＷ,,株式会社,広島県,広島市安佐南区,祇園５丁目３番１２号,,34,105,7310138,,,,,,,2022-02-07,1,,,,,グロウ,0
2187,7290001096374,新規,0,2022-02-07,2022-02-07,株式会社アルクス九州,,株式会社,福岡県,福岡市博多区,博多駅東２丁目８番２６－２０５号,,40,132,8120013,,,,,,,2022-02-07,1,,,,,アルクスキュウシュウ,0
2189,7290801028238,新規,0,2022-02-07,2022-02-07,株式会社ＩＹＯＴＡホースクラブ,,株式会社,福岡県,北九州市若松区,大字乙丸１３９５番地１,,40,103,8080134,,,,,,,2022-02-07,1,,,,,イヨタホースクラブ,0
2190,7290801028246,新規,0,2022-02-07,2022-02-07,株式会社ミラリンク,,株式会社,福岡県,北九州市小倉北区,浅野３丁目８番１号ＡＩＭビル６階,,40,106,8020001,,,,,,,2022-02-07,1,,,,,ミラリンク,0
2193,7300001012800,新規,0,2022-02-07,2022-02-07,株式会社Ｇｒｅｅｎ　ｐａｒａｄｉｓｅ,,株式会社,佐賀県,武雄市,西川登町大字小田志１８３５６番地,,41,206,8430231,,,,,,,2022-02-07,1,,,,,グリーンパラダイス,0
2198,7330003009230,新規,0,2022-02-07,2022-02-07,大新ファーム森岡合同会社,,合同会社,熊本県,天草市,新和町小宮地５００８番地,,43,215,8630101,,,,,,,2022-02-07,1,,,,,ダイシンファームモリオカ,0
2219,7380005012533,新規,0,2022-02-07,2022-02-07,特定非営利活動法人ＳＡＴＯＲＵ,,その他の設立登記法人,福島県,西白河郡矢吹町,井戸尻４８９－１,,07,466,9690287,,,,,,,2022-02-07,1,,,,,サトル,0
2221,7430001085924,新規,0,2022-02-07,2022-02-07,株式会社Ｃｏｒｕｓｃａｎｔ,,株式会社,北海道,札幌市中央区,南四条西１０丁目１００４番地１南４条ユニハウス５０７号室,,01,101,0640804,,,,,,,2022-02-07,1,,,,,コルサント,0
2232,7480001011644,新規,0,2022-02-07,2022-02-07,株式会社リペアント,,株式会社,徳島県,板野郡北島町,鯛浜字かや２０番地６,,36,402,7710204,,,,,,,2022-02-07,1,,,,,リペアント,0
2244,7700150056847,新規,0,2022-02-07,2015-10-09,愛媛県森林土木協会,,その他,愛媛県,松山市,三番町４丁目４－１,,38,201,7900003,,,,,,,2015-10-09,1,,,,,エヒメケンシンリンドボクキヨウカイ,0
2253,8010001224333,新規,0,2022-02-07,2022-02-07,メタシティ株式会社,,株式会社,東京都,千代田区,岩本町１丁目８番１６号,,13,101,1010032,,,,,,,2022-02-07,1,,,,,メタシティ,0
2254,8010001224341,新規,0,2022-02-07,2022-02-07,株式会社Ｓｅａ　Ｇａｔｅ,,株式会社,東京都,中央区,日本橋中洲７番７号１１０３,,13,102,1030008,,,,,,,2022-02-07,1,,,,,シーゲイト,0
2255,8010001224358,新規,0,2022-02-07,2022-02-07,株式会社ＯＰＳ,,株式会社,東京都,千代田区,神田三崎町２丁目１７番８号ドメス水道橋２Ｆ,,13,101,1010061,,,,,,,2022-02-07,1,,,,,オーピーエス,0
2256,8010001224390,新規,0,2022-02-07,2022-02-07,株式会社ＢＲＥＥＺＥ,,株式会社,東京都,千代田区,九段南１丁目５番６号りそな九段ビル５階ＫＳフロア,,13,101,1020074,,,,,,,2022-02-07,1,,,,,ブリーズ,0
2257,8010001224408,新規,0,2022-02-07,2022-02-07,株式会社リトルキャンドル,,株式会社,東京都,千代田区,九段南１丁目５番６号りそな九段ビル５階ＫＳフロア,,13,101,1020074,,,,,,,2022-02-07,1,,,,,リトルキャンドル,0
2258,8010001224449,新規,0,2022-02-07,2022-02-07,マイルストーンインターナショナル株式会社,,株式会社,東京都,中央区,新富１丁目８番２－４０２号,,13,102,1040041,,,,,,,2022-02-07,1,,,,,マイルストーンインターナショナル,0
2259,8010003036966,新規,0,2022-02-07,2022-02-07,合同会社ＷｉｎｇＦｒｅｅ,,合同会社,東京都,中央区,日本橋３丁目２番１４号新槇町ビル別館第一１階,,13,102,1030027,,,,,,,2022-02-07,1,,,,,ウィングフリー,0
2261,8010005034555,新規,0,2022-02-07,2022-02-07,一般財団法人安見科学技術振興財団,,その他の設立登記法人,東京都,千代田区,岩本町２丁目１０番６号,,13,101,1010032,,,,,,,2022-02-07,1,,,,,ヤスミカガクギジュツシンコウザイダン,0
2262,8010005034571,新規,0,2022-02-07,2022-02-07,東京レジ２５一般社団法人,,その他の設立登記法人,東京都,千代田区,丸の内３丁目１番１号東京共同会計事務所内,,13,101,1000005,,,,,,,2022-02-07,1,,,,,トウキョウレジトゥエンティファイブ,0
2264,8010101015054,新規,0,2022-02-07,2022-02-07,株式会社インビジブル,,株式会社,東京都,八王子市,元横山町３丁目１８番１９号グロブナーハウス八王子ＩＩ３３２号,00125647,13,201,1920063,,,,,,,2022-02-07,1,,,,,,0
2270,8010401165391,新規,0,2022-02-07,2022-02-07,株式会社ロイ,,株式会社,東京都,港区,六本木３丁目７番１号,,13,103,1060032,,,,,,,2022-02-07,1,,,,,ロイ,0
2271,8010401165425,新規,0,2022-02-07,2022-02-07,株式会社こだち,,株式会社,東京都,港区,高輪１丁目４番１０－２００５号,,13,103,1080074,,,,,,,2022-02-07,1,,,,,コダチ,0
2272,8010403027045,新規,0,2022-02-07,2022-02-07,Ｗａｎｇ　Ｃａｐｉｔａｌ　Ｐａｒｔｎｅｒｓ合同会社,,合同会社,東京都,港区,元麻布３丁目１番６号,,13,103,1060046,,,,,,,2022-02-07,1,,,,,ワンキャピタルパートナーズ,0
2280,8010601060624,新規,0,2022-02-07,2022-02-07,ＯＴＯＤＯＫＥ株式会社,,株式会社,東京都,江東区,三好３丁目２番８号小倉ビル１階,,13,108,1350022,,,,,,,2022-02-07,1,,,,,オトドケ,0
2283,8010801032704,新規,0,2022-02-07,2022-02-07,株式会社Ａｗｅｓｏｍｅ　Ｐｌａｃｅ,,株式会社,東京都,大田区,田園調布１丁目１番１７号ステラート田園調布２０２号,,13,111,1450071,,,,,,,2022-02-07,1,,,,,オーサムプレイス,0
2284,8010801032720,新規,0,2022-02-07,2022-02-07,ワイズオー株式会社,,株式会社,東京都,大田区,矢口２丁目２１－１２ＹＡＭＡＳＨＩＴＡ８１－３０７,,13,111,1460093,,,,,,,2022-02-07,1,,,,,ワイズオー,0
2285,8010803004040,新規,0,2022-02-07,2022-02-07,合同会社パプカイヤ,,合同会社,東京都,大田区,南馬込５丁目２７番１４－２０４号,,13,111,1430025,,,,,,,2022-02-07,1,,,,,パプカイヤ,0
2289,8010901050309,新規,0,2022-02-07,2022-02-07,株式会社ラフィット,,株式会社,東京都,世田谷区,太子堂３丁目１４番１号千葉ビル３０２,,13,112,1540004,,,,,,,2022-02-07,1,,,,,ラフィット,0
2301,8011001145395,新規,0,2022-02-07,2022-02-07,株式会社ミライ,,株式会社,東京都,渋谷区,広尾２丁目１番１５号,,13,113,1500012,,,,,,,2022-02-07,1,,,,,ミライ,0
2302,8011001145560,新規,0,2022-02-07,2022-02-07,株式会社マイスタープラス,,株式会社,東京都,目黒区,南２丁目１３番５号,,13,110,1520013,,,,,,,2022-02-07,1,,,,,マイスタープラス,0
2303,8011001145569,新規,0,2022-02-07,2022-02-07,株式会社ＥＩＫＯ,,株式会社,東京都,目黒区,八雲５丁目１４番１１号エクセル八雲４Ｆ,,13,110,1520023,,,,,,,2022-02-07,1,,,,,エイコー,0
2304,8011001145577,新規,0,2022-02-07,2022-02-07,株式会社あおの暮らし,,株式会社,東京都,渋谷区,渋谷２丁目１４番６号西田ビル５Ｆ,,13,113,1500002,,,,,,,2022-02-07,1,,,,,アオノクラシ,0
2305,8011003014144,新規,0,2022-02-07,2022-02-07,ＭＩＲＡＣＬＥ合同会社,,合同会社,東京都,目黒区,目黒３丁目４番１３号タリアセンＳＳ－２０３,,13,110,1530063,,,,,,,2022-02-07,1,,,,,ミラクル,0
2307,8011101097743,新規,0,2022-02-07,2022-02-07,株式会社ヘッドウォータースコンサルティング,,株式会社,東京都,新宿区,西新宿６丁目５番１号,,13,104,1600023,,,,,,,2022-02-07,1,,,,,ヘッドウォータースコンサルティング,0
2308,8011105010132,新規,0,2022-02-07,2022-02-07,司法書士法人リーガルフロンティアＹＫ,,その他の設立登記法人,東京都,新宿区,四谷１丁目２番地６アーバンビルサカス３Ｆ,,13,104,1600004,,,,,,,2022-02-07,1,,,,,リーガルフロンティアワイケー,0
2309,8011201023616,新規,0,2022-02-07,2022-02-07,株式会社Ｓｔａｒｌｉｎｇ,,株式会社,東京都,中野区,東中野５丁目１１番８号,,13,114,1640003,,,,,,,2022-02-07,1,,,,,スターリング,0
2311,8011403003556,新規,0,2022-02-07,2022-02-07,ＯｐｔＦｌｅｘ合同会社,,合同会社,東京都,板橋区,志村３丁目１－１９ラフィスタ志村坂上３０６,,13,119,1740056,,,,,,,2022-02-07,1,,,,,オプトフレックス,0
2322,8012803002692,新規,0,2022-02-07,2022-02-07,合同会社アスリートライフデザイン研究所,,合同会社,東京都,日野市,三沢２丁目１１番地５１号,,13,212,1910032,,,,,,,2022-02-07,1,,,,,アスリートライフデザインケンキュウジョ,0
2326,8013303006028,新規,0,2022-02-07,2022-02-07,合同会社Ｓｐｉｃａ　Ｆｅｌｌｏｗ,,合同会社,東京都,豊島区,長崎３丁目１番２３号,,13,116,1710051,,,,,,,2022-02-07,1,,,,,スピカフェロー,0
2330,8020001145132,新規,0,2022-02-07,2022-02-07,株式会社陶瑛,,株式会社,神奈川県,横浜市西区,戸部本町１４番１４号,,14,103,2200041,,,,,,,2022-02-07,1,,,,,,0
2332,8020003021265,新規,0,2022-02-07,2022-02-07,ラフィングゲート横浜合同会社,,合同会社,神奈川県,横浜市戸塚区,矢部町５７１番地４,,14,110,2440002,,,,,,,2022-02-07,1,,,,,ラフィングゲートヨコハマ,0
2350,8030003018814,新規,0,2022-02-07,2022-02-07,合同会社クライフ,,合同会社,埼玉県,さいたま市岩槻区,大字馬込８４１番地１９,,11,110,3390077,,,,,,,2022-02-07,1,,,,,クライフ,0
2352,8040001122071,新規,0,2022-02-07,2022-02-07,株式会社Ｃｏｕｒｔｅｓｙ,,株式会社,千葉県,千葉市花見川区,幕張本郷６丁目２１番１５号,,12,102,2620033,,,,,,,2022-02-07,1,,,,,コーテシー,0
2353,8040001122088,新規,0,2022-02-07,2022-02-07,アートコーポレーション株式会社,,株式会社,千葉県,木更津市,千束台２丁目１３番地３,,12,206,2920808,,,,,,,2022-02-07,1,,,,,アートコーポレーション,0
2354,8040001122096,新規,0,2022-02-07,2022-02-07,株式会社ＦＲＯＮＴＩＥＲ,,株式会社,千葉県,船橋市,三山５丁目４４番４１号,,12,204,2740072,,,,,,,2022-02-07,1,,,,,フロンティア,0
2355,8040001122113,新規,0,2022-02-07,2022-02-07,株式会社ワイズウイングエデュケーション,,株式会社,千葉県,柏市,旭町２丁目１０番３１－１０７号,,12,217,2770852,,,,,,,2022-02-07,1,,,,,ワイズウイングエデュケーション,0
2356,8040001122138,新規,0,2022-02-07,2022-02-07,株式会社Ｙｏｒｉｄｏｋｏｒｏ,,株式会社,千葉県,船橋市,夏見５丁目６番８－１号,,12,204,2730865,,,,,,,2022-02-07,1,,,,,ヨリドコロ,0
2357,8040001122146,新規,0,2022-02-07,2022-02-07,株式会社アストン,,株式会社,千葉県,市川市,柏井町１丁目１２６８番地１９,,12,203,2720802,,,,,,,2022-02-07,1,,,,,アストン,0
2359,8040002104969,新規,0,2022-02-07,2022-02-07,有限会社大野石炭部,,有限会社,千葉県,香取市,佐原イ１３９番地,,12,236,2870003,,,,,,,2022-02-07,1,,,,,,0
2363,8040003019448,新規,0,2022-02-07,2022-02-07,合同会社フレンドシップ,,合同会社,千葉県,市川市,本行徳３８番１２号,,12,203,2720103,,,,,,,2022-02-07,1,,,,,フレンドシップ,0
2364,8050001050593,新規,0,2022-02-07,2022-02-07,株式会社ＦＲＥＥＬ,,株式会社,茨城県,守谷市,百合ケ丘１丁目２０２４番地の９０,,08,224,3020110,,,,,,,2022-02-07,1,,,,,フリール,0
2368,8070001038926,新規,0,2022-02-07,2022-02-07,株式会社ｍｏｋｅ’ｓ,,株式会社,群馬県,高崎市,倉渕町三ノ倉５２０番地,,10,202,3703402,,,,,,,2022-02-07,1,,,,,モケズ,0
2370,8070003004380,新規,0,2022-02-07,2022-02-07,ＨＩＲＯＮＡＧＡ合同会社,,合同会社,群馬県,高崎市,棟高町４３２番地８,,10,202,3703521,,,,,,,2022-02-07,1,,,,,ヒロナガ,0
2373,8080001024735,新規,0,2022-02-07,2022-02-07,株式会社ミネスト,,株式会社,静岡県,静岡市葵区,紺屋町１７－１葵タワー１階,,22,101,4200852,,,,,,,2022-02-07,1,,,,,ミネスト,0
2374,8080001024743,新規,0,2022-02-07,2022-02-07,株式会社ＳＡＫＩＴＯ　ＩＮＴＥＲＮＡＴＩＯＮＡＬ,,株式会社,静岡県,藤枝市,茶町３丁目１番３８号,,22,214,4260023,,,,,,,2022-02-07,1,,,,,サキトインターナショナル,0
2382,8080401025606,新規,0,2022-02-07,2022-02-07,株式会社コネクトパートナーズ,,株式会社,静岡県,浜松市東区,原島町１６７番地の２,,22,132,4350047,,,,,,,2022-02-07,1,,,,,コネクトパートナーズ,0
2386,8110001036413,新規,0,2022-02-07,2022-02-07,株式会社新潟ソフトアカデミー,,株式会社,新潟県,長岡市,大手通２丁目１番地１,,15,202,9400062,,,,,,,2022-02-07,1,,,,,ニイガタソフトアカデミー,0
2399,8120001243603,新規,0,2022-02-07,2022-02-07,中村商店株式会社,,株式会社,大阪府,大阪市此花区,春日出南１丁目１番１４号,,27,104,5540023,,,,,,,2022-02-07,1,,,,,ナカムラショウテン,0
2400,8120001243611,新規,0,2022-02-07,2022-02-07,宮田設備株式会社,,株式会社,大阪府,大阪市東淀川区,井高野３丁目２番１０号,,27,114,5330001,,,,,,,2022-02-07,1,,,,,ミヤタセツビ,0
2401,8120001243652,新規,0,2022-02-07,2022-02-07,株式会社３５,,株式会社,大阪府,大阪市中央区,淡路町１丁目６番９号８階,,27,128,5410047,,,,,,,2022-02-07,1,,,,,サンジュウゴ,0
2402,8120001243685,新規,0,2022-02-07,2022-02-07,株式会社ＩＢｃｅｅｄ,,株式会社,大阪府,大阪市北区,曾根崎２丁目５番１０号梅田パシフィックビルディング４階,,27,127,5300057,,,,,,,2022-02-07,1,,,,,アイビーシード,0
2403,8120001243693,新規,0,2022-02-07,2022-02-07,おさき株式会社,,株式会社,大阪府,大阪市此花区,西九条３丁目４番３４－５０７号,,27,104,5540012,,,,,,,2022-02-07,1,,,,,オサキ,0
2404,8120001243702,新規,0,2022-02-07,2022-02-07,アスプリード株式会社,,株式会社,大阪府,大阪市旭区,生江２丁目９－２５,,27,117,5350004,,,,,,,2022-02-07,1,,,,,アスプリード,0
2405,8120001243710,新規,0,2022-02-07,2022-02-07,株式会社Ｙ＆Ｙソリューション,,株式会社,大阪府,大阪市平野区,加美北６丁目１５番３３号,,27,126,5470001,,,,,,,2022-02-07,1,,,,,ワイアンドワイソリューション,0
2413,8120003021081,新規,0,2022-02-07,2022-02-07,合同会社ＫＯＴ,,合同会社,大阪府,大阪市阿倍野区,阪南町３丁目１－８－１０２,,27,119,5450021,,,,,,,2022-02-07,1,,,,,コット,0
2422,8120101065047,新規,0,2022-02-07,2022-02-07,無限堂株式会社,,株式会社,大阪府,堺市堺区,石津町３丁６番９号,,27,141,5900814,,,,,,,2022-02-07,1,,,,,ムゲンドウ,0
2429,8120901045561,新規,0,2022-02-07,2022-02-07,株式会社ＭＩＫＡＧＥ,,株式会社,大阪府,摂津市,鳥飼本町３丁目３番３１－４０５号,,27,224,5660052,,,,,,,2022-02-07,1,,,,,ミカゲ,0
2435,8122003002268,新規,0,2022-02-07,2022-02-07,合同会社Ｓ．ＳＨＩＮＯＯＫＡ,,合同会社,大阪府,大東市,諸福１丁目１０－１３,,27,218,5740044,,,,,,,2022-02-07,1,,,,,シノオカ,0
2437,8130001071086,新規,0,2022-02-07,2022-02-07,株式会社Ｘ,,株式会社,京都府,京都市中京区,亀屋町３７５－１－３０７,,26,104,6048253,,,,,,,2022-02-07,1,,,,,エックス,0
2441,8130003007740,新規,0,2022-02-07,2022-02-07,合同会社松尾崎農園,00125641,合同会社,京都府,長岡京市,神足２丁目９番１７号,,26,209,6170833,,,,,,,2022-02-07,1,,,,,マツオザキノウエン,0
2447,8140001124784,新規,0,2022-02-07,2022-02-07,株式会社小畑設計,,株式会社,兵庫県,豊岡市,寿町１１番１号寿ビル３階,,28,209,6680024,,,,,,,2022-02-07,1,,,,,オバタセッケイ,0
2448,8140001124818,新規,0,2022-02-07,2022-02-07,株式会社Ｏｊ８ｋ,,株式会社,兵庫県,神戸市北区,唐櫃六甲台３番地の３,,28,109,6511334,,,,,,,2022-02-07,1,,,,,オジバケ,0
2451,8140003017326,新規,0,2022-02-07,2022-02-07,ホープ合同会社,,合同会社,兵庫県,西宮市,北名次町７番１３号,,28,204,6620025,,,,,,,2022-02-07,1,,,,,ホープ,0
2463,8180001149852,新規,0,2022-02-07,2022-02-07,株式会社ＧＩＬ,,株式会社,愛知県,名古屋市守山区,大森北２丁目２１１０番地,,23,113,4630802,,,,,,,2022-02-07,1,,,,,ジーアイエル,0
2464,8180001149877,新規,0,2022-02-07,2022-02-07,株式会社シーレ,,株式会社,愛知県,名古屋市中村区,名駅３丁目３番２号志摩ビル５階Ａ号,,23,105,4500002,,,,,,,2022-02-07,1,,,,,シーレ,0
2467,8180003023469,新規,0,2022-02-07,2022-02-07,合同会社プレザント,,合同会社,愛知県,丹羽郡扶桑町,大字小淵１４０５番地２４,,23,362,4800106,,,,,,,2022-02-07,1,,,,,プレザント,0
2471,8180303005241,新規,0,2022-02-07,2022-02-07,吉川合同会社,,合同会社,愛知県,豊田市,小坂本町２丁目４１番地５レゾンシティ毘森公園１１０２号室,,23,211,4710034,,,,,,,2022-02-07,1,,,,,キッカワ,0
2475,8200001039729,新規,0,2022-02-07,2022-02-07,株式会社慧昭,,株式会社,岐阜県,瑞穂市,本田７８４番地５,,21,216,5010236,,,,,,,2022-02-07,1,,,,,サトショウ,0
2479,8220001024687,新規,0,2022-02-07,2022-02-07,お米を作る会社ＨＮ株式会社,,株式会社,石川県,羽咋郡志賀町,梨谷小山ヲの１６番地,,17,384,9250151,,,,,,,2022-02-07,1,,,,,オコメヲツクルカイシャエイチエヌ,0
2484,8240001059302,新規,0,2022-02-07,2022-02-07,瀬戸内ハウジング株式会社,,株式会社,広島県,広島市中区,十日市町２丁目１番２５－１１１４号,,34,101,7300805,,,,,,,2022-02-07,1,,,,,セトウチハウジング,0
2488,8250003003001,新規,0,2022-02-07,2022-02-07,吉本工務店合同会社,,合同会社,山口県,防府市,大字田島２３２４番地,,35,206,7470834,,,,,,,2022-02-07,1,,,,,ヨシモトコウムテン,0
2493,8290001096282,新規,0,2022-02-07,2022-02-07,株式会社九州ハニーズ,,株式会社,福岡県,大野城市,川久保１丁目１番２２－１０５号,,40,219,8160905,,,,,,,2022-02-07,1,,,,,キュウシュウハニーズ,0
2494,8290001096299,新規,0,2022-02-07,2022-02-07,株式会社グリップ,,株式会社,福岡県,みやま市,瀬高町大草１０７１番地５,,40,229,8350005,,,,,,,2022-02-07,1,,,,,グリップ,0
2495,8290001096357,新規,0,2022-02-07,2022-02-07,株式会社スリジエ九州,,株式会社,福岡県,福岡市博多区,奈良屋町６番３４－２０４号,,40,132,8120023,,,,,,,2022-02-07,1,,,,,スリジエキュウシュウ,0
2496,8290001096381,新規,0,2022-02-07,2022-02-07,株式会社ＳＳＫ‐ＩＮＮＯＶＡＴＩＯＮ,,株式会社,福岡県,福岡市南区,若久団地１１番１１号,,40,134,8150048,,,,,,,2022-02-07,1,,,,,エスエスケイイノベーション,0
2498,8290003012122,新規,0,2022-02-07,2022-02-07,合同会社相島ＣＲＥＷ,,合同会社,福岡県,糟屋郡新宮町,大字相島７７６番地３,,40,345,8110118,,,,,,,2022-02-07,1,,,,,アイノシマクルー,0
2501,8300001012799,新規,0,2022-02-07,2022-02-07,株式会社西九州テクノ,,株式会社,佐賀県,小城市,三日月町久米１８６８番地１,,41,208,8450022,,,,,,,2022-02-07,1,,,,,ニシキュウシュウテクノ,0
2520,8360003011785,新規,0,2022-02-07,2022-02-07,合同会社ＯｃｅａｎＢｒｅｅｚｅ,,合同会社,沖縄県,中頭郡読谷村,字大木８１番地ステラなごみ３０２号室,,47,324,9040316,,,,,,,2022-02-07,1,,,,,オーシャンブリーズ,0
2526,8370001048192,新規,0,2022-02-07,2022-02-07,株式会社スレッド,,株式会社,宮城県,仙台市青葉区,台原３丁目１番３２号,,04,101,9810911,,,,,,,2022-02-07,1,,,,,スレッド,0
2539,8380005012532,新規,0,2022-02-07,2022-02-07,農事組合法人下小島アグリコーポレーション,,その他の設立登記法人,福島県,耶麻郡西会津町,登世島字下小島乙１６５番地１,,07,405,9694401,,,,,,,2022-02-07,1,,,,,シモオジマアグリコーポレーション,0
2542,8390001016783,新規,0,2022-02-07,2022-02-07,スズデンホールディング株式会社,,株式会社,山形県,南陽市,椚塚３５９番地の１,,06,213,9992221,,,,,,,2022-02-07,1,,,,,スズデンホールディング,0
2546,8420003002448,新規,0,2022-02-07,2022-02-07,合同会社ＳＴＡＮＤ　ＡＬＯＮＥ,,合同会社,青森県,弘前市,大字稔町１０番地１３メゾンカサブランカ２０１号,,02,202,0368231,,,,,,,2022-02-07,1,,,,,スタンドアローン,0
2550,8430003013576,新規,0,2022-02-07,2022-02-07,合同会社ひづきめぐり,,合同会社,北海道,札幌市北区,北七条西４丁目１番１号トーカン札幌第一キャステール６０７,,01,102,0600807,,,,,,,2022-02-07,1,,,,,ヒヅキメグリ,0
2551,8430005014390,新規,0,2022-02-07,2022-02-07,一般社団法人食とＷｅｌｌ‐ｂｅｉｎｇ研究所,,その他の設立登記法人,北海道,江別市,文京台東町２９番地の２３,,01,217,0690834,,,,,,,2022-02-07,1,,,,,ショクトウェルビーイングケンキュウショ,0
2566,9010001224209,新規,0,2022-02-07,2022-02-07,ＦＲＡＣＴＡＬ株式会社,,株式会社,東京都,中央区,銀座１丁目１２－４Ｎ＆Ｅ＿ＢＬＤ．７階,,13,102,1040061,,,,,,,2022-02-07,1,,,,,フラクタル,0
2567,9010001224290,新規,0,2022-02-07,2022-02-07,株式会社願いＢＡＳＥ,,株式会社,東京都,中央区,日本橋３丁目２番１４号新槇町ビル別館第一２階,,13,102,1030027,,,,,,,2022-02-07,1,,,,,ネガイベース,0
2568,9010001224357,新規,0,2022-02-07,2022-02-07,株式会社ランドプロデュース,,株式会社,東京都,中央区,新川１丁目６番１２号,,13,102,1040033,,,,,,,2022-02-07,1,,,,,ランドプロデュース,0
2569,9010001224373,新規,0,2022-02-07,2022-02-07,東京海上日動少額短期設立準備株式会社,,株式会社,東京都,中央区,銀座５丁目３番１６号,,13,102,1040061,,,,,,,2022-02-07,1,,,,,トウキョウカイジョウニチドウショウガクタンキセツリツジュンビ,0
2570,9010001224398,新規,0,2022-02-07,2022-02-07,株式会社ＣＳ　Ｔｅｃｈｎｏｌｏｇｉｅｓ,,株式会社,東京都,千代田区,神田佐久間町３丁目２１番地－８０２号,,13,101,1010025,,,,,,,2022-02-07,1,,,,,シーエステクノロジーズ,0
2571,9010001224423,新規,0,2022-02-07,2022-02-07,耶馬渓株式会社,,株式会社,東京都,中央区,東日本橋２丁目２８番５号５０８,,13,102,1030004,,,,,,,2022-02-07,1,,,,,ヤバケイ,0
2574,9010003036949,新規,0,2022-02-07,2022-02-07,合同会社アップヒル,,合同会社,東京都,文京区,大塚６丁目２８番１４号ＫＩＫ大塚ヒルズ１０２号,,13,105,1120012,,,,,,,2022-02-07,1,,,,,アップヒル,0
2575,9010003036957,新規,0,2022-02-07,2022-02-07,合同会社コリブリ,,合同会社,東京都,中央区,築地２丁目１２番２号あやめガーデンビル１２０１号,,13,102,1040045,,,,,,,2022-02-07,1,,,,,コリブリ,0
2576,9010003036965,新規,0,2022-02-07,2022-02-07,桜信用サービス合同会社,,合同会社,東京都,千代田区,丸の内３丁目１番１号東京共同会計事務所内,,13,101,1000005,,,,,,,2022-02-07,1,,,,,サクラシンヨウサービス,0
2579,9010005034570,新規,0,2022-02-07,2022-02-07,東京レジ２４一般社団法人,,その他の設立登記法人,東京都,千代田区,丸の内３丁目１番１号東京共同会計事務所内,,13,101,1000005,,,,,,,2022-02-07,1,,,,,トウキョウレジトゥエンティフォー,0
2580,9010101015061,新規,0,2022-02-07,2022-02-07,株式会社ワカシ,,株式会社,東京都,八王子市,楢原町４７０番地１０,,13,201,1930803,,,,,,,2022-02-07,1,,,,,ワカシ,0
2595,9010401165399,新規,0,2022-02-07,2022-02-07,株式会社ウサギダイニング,,株式会社,東京都,港区,西麻布３丁目２４番１６号西麻布ＳＤビル５Ｆ,,13,103,1060031,,,,,,,2022-02-07,1,,,,,ウサギダイニング,0
2596,9010401165473,新規,0,2022-02-07,2022-02-07,核槙株式会社,,株式会社,東京都,港区,西麻布２丁目２４番２５号,,13,103,1060031,,,,,,,2022-02-07,1,,,,,カクシン,0
2598,9010601060615,新規,0,2022-02-07,2022-02-07,株式会社Ｗｅｂ　Ｓｔｙｌｅｓ,,株式会社,東京都,墨田区,京島１丁目６－６－６０７,,13,107,1310046,,,,,,,2022-02-07,1,,,,,ウェブスタイルズ,0
2599,9010601060631,新規,0,2022-02-07,2022-02-07,フィールドＷ株式会社,,株式会社,東京都,江東区,森下１丁目１０番５－８０４号,,13,108,1350004,,,,,,,2022-02-07,1,,,,,フィールドダブル,0
2600,9010603009379,新規,0,2022-02-07,2022-02-07,合同会社日本先端農業総合研究所,,合同会社,東京都,江東区,大島３丁目８番７号,,13,108,1360072,,,,,,,2022-02-07,1,,,,,ニホンセンタンノウギョウソウゴウケンキュウジョ,0
2601,9010701042190,新規,0,2022-02-07,2022-02-07,株式会社野原事務所,,株式会社,東京都,品川区,上大崎３丁目１番３０－１８１１号,,13,109,1410021,,,,,,,2022-02-07,1,,,,,ノハラジムショ,0
2603,9010703006103,新規,0,2022-02-07,2022-02-07,シーメンス・ラージドライブ合同会社,,合同会社,東京都,品川区,大崎１丁目１１番１号,,13,109,1410032,,,,,,,2022-02-07,1,,,,,シーメンスラージドライブ,0
2606,9010901050316,新規,0,2022-02-07,2022-02-07,株式会社Ｃｉｔｙ　Ｌｉｇｈｔｓ,,株式会社,東京都,世田谷区,上馬５丁目３５番１７号コスモスパジオ上馬１０２,,13,112,1540011,,,,,,,2022-02-07,1,,,,,シティライツ,0
2607,9010903007132,新規,0,2022-02-07,2022-02-07,合同会社Ｄプロダクト,,合同会社,東京都,世田谷区,奥沢４丁目５－１－４０１,,13,112,1580083,,,,,,,2022-02-07,1,,,,,ディプロダクト,0
2612,9011001145452,新規,0,2022-02-07,2022-02-07,株式会社Ｌｅａｄｅｒ　Ｐａｒｔｎｅｒｓ,,株式会社,東京都,渋谷区,松濤１丁目２８－２,,13,113,1500046,,,,,,,2022-02-07,1,,,,,リーダーパートナーズ,0
2613,9011001145535,新規,0,2022-02-07,2022-02-07,株式会社ＡＴＮ,,株式会社,東京都,渋谷区,道玄坂１丁目１２－１渋谷マークシティＷ２２Ｆ,,13,113,1500043,,,,,,,2022-02-07,1,,,,,エイテイエヌ,0
2614,9011001145543,新規,0,2022-02-07,2022-02-07,ツクルコム株式会社,,株式会社,東京都,渋谷区,神宮前６丁目２３番４号桑野ビル２階,,13,113,1500001,,,,,,,2022-02-07,1,,,,,ツクルコム,0
2615,9011003014119,新規,0,2022-02-07,2022-02-07,合同会社ＧＲＡＮＤ　ＡＲＢＲＥ,,合同会社,東京都,目黒区,碑文谷１丁目１０番１８号ランドステージ碑文谷ＷＥＳＴ２０２,,13,110,1520003,,,,,,,2022-02-07,1,,,,,グランアルブル,0
2616,9011003014143,新規,0,2022-02-07,2022-02-07,合同会社トータルディレクト,,合同会社,東京都,渋谷区,渋谷２丁目７番２号プラシード青山２０１,,13,113,1500002,,,,,,,2022-02-07,1,,,,,トータルディレクト,0
2619,9011101097718,新規,0,2022-02-07,2022-02-07,株式会社ＮＴＴ　ＤＸパートナー,,株式会社,東京都,新宿区,西新宿３丁目１９番２号,,13,104,1600023,,,,,,,2022-02-07,1,,,,,エヌティティディーエックスパートナー,0
2620,9011101097734,新規,0,2022-02-07,2022-02-07,ハンパイアファーマ株式会社,,株式会社,東京都,新宿区,津久戸町１番８号,,13,104,1620821,,,,,,,2022-02-07,1,,,,,ハンパイアファーマ,0
2621,9011101097750,新規,0,2022-02-07,2022-02-07,株式会社ＴＨ,,株式会社,東京都,新宿区,早稲田鶴巻町５４７白坂ハイム２０２,,13,104,1620041,,,,,,,2022-02-07,1,,,,,ティーエイチ,0
2622,9011103011429,新規,0,2022-02-07,2022-02-07,合同会社Ａｖｅｎｕｅ,,合同会社,東京都,新宿区,新宿７丁目２７番９－２００３号,,13,104,1600022,,,,,,,2022-02-07,1,,,,,,0
2623,9011105010131,新規,0,2022-02-07,2022-02-07,社会保険労務士法人東京ユナイテッド,,その他の設立登記法人,東京都,新宿区,四谷１丁目４番地,,13,104,1600004,,,,,,,2022-02-07,1,,,,,トウキョウユナイテッド,0
2624,9011201023623,新規,0,2022-02-07,2022-02-07,株式会社亜細亜電算,,株式会社,東京都,中野区,中央１丁目３４番１号２０６号,,13,114,1640011,,,,,,,2022-02-07,1,,,,,アジアデンサン,0
2625,9011203003747,新規,0,2022-02-07,2022-02-07,合同会社ＡＦＣ,,合同会社,東京都,中野区,江古田１丁目１１番２号,,13,114,1650022,,,,,,,2022-02-07,1,,,,,エーエフシー,0
2632,9011603003520,新規,0,2022-02-07,2022-02-07,合同会社シェルパ,,合同会社,東京都,練馬区,上石神井１丁目１６番４号,,13,120,1770044,,,,,,,2022-02-07,1,,,,,シェルパ,0
2633,9011701025037,新規,0,2022-02-07,2022-02-07,株式会社サイドブック,,株式会社,東京都,江戸川区,南篠崎町３丁目２９番１２－５０７号クリスタルハイム瑞江,,13,123,1330065,,,,,,,2022-02-07,1,,,,,サイドブック,0
2647,9013101008844,新規,0,2022-02-07,2022-02-07,ゴリラエンジニアリング株式会社,,株式会社,東京都,青梅市,黒沢１丁目７４番地７,,13,205,1980005,,,,,,,2022-02-07,1,,,,,ゴリラエンジニアリング,0
2650,9013301048649,新規,0,2022-02-07,2022-02-07,株式会社コークリエイト,,株式会社,東京都,豊島区,高田１丁目４０番６号,,13,116,1710033,,,,,,,2022-02-07,1,,,,,コークリエイト,0
2663,9020003021272,新規,0,2022-02-07,2022-02-07,合同会社フラーヴィル,,合同会社,神奈川県,横浜市戸塚区,戸塚町４７９７サンハイム戸塚４１０,,14,110,2440003,,,,,,,2022-02-07,1,,,,,フラーヴィル,0
2667,9021001075129,新規,0,2022-02-07,2022-02-07,株式会社湘光ＨＤ,,株式会社,神奈川県,小田原市,栄町２丁目１２－３,,14,206,2500011,,,,,,,2022-02-07,1,,,,,ショウコウホールディングス,0
2668,9021001075137,新規,0,2022-02-07,2022-02-07,株式会社アメニティトラスト,,株式会社,神奈川県,相模原市中央区,淵野辺本町２丁目１１番１１号,,14,152,2520202,,,,,,,2022-02-07,1,,,,,アメニティトラスト,0
2676,9030001146715,新規,0,2022-02-07,2022-02-07,株式会社ワールド商事,,株式会社,埼玉県,朝霞市,栄町２丁目１２番２１号,,11,227,3510012,,,,,,,2022-02-07,1,,,,,ワールドショウジ,0
2681,9030003018805,新規,0,2022-02-07,2022-02-07,合同会社グローベラ,,合同会社,埼玉県,川口市,朝日３丁目１７番２号,,11,203,3320001,,,,,,,2022-02-07,1,,,,,グローベラ,0
2682,9030003018813,新規,0,2022-02-07,2022-02-07,合同会社昴,,合同会社,埼玉県,飯能市,美杉台４丁目４１番地７,,11,209,3570041,,,,,,,2022-02-07,1,,,,,スバル,0
2687,9040001122070,新規,0,2022-02-07,2022-02-07,株式会社三工業,,株式会社,千葉県,君津市,大和田４丁目４番地４ヴィラボヌールＢ１０２,,12,225,2991146,,,,,,,2022-02-07,1,,,,,サンコウギョウ,0
2688,9040001122087,新規,0,2022-02-07,2022-02-07,株式会社ペアリージュ,,株式会社,千葉県,館山市,安布里２３９番地２ハイツキザエムＤ号室,,12,205,2940043,,,,,,,2022-02-07,1,,,,,ペアリージュ,0
2689,9040001122129,新規,0,2022-02-07,2022-02-07,株式会社ひかり警備保障,,株式会社,千葉県,船橋市,北本町２丁目６番１－１００６号,,12,204,2730864,,,,,,,2022-02-07,1,,,,,ヒカリケイビホショウ,0
2690,9040001122137,新規,0,2022-02-07,2022-02-07,株式会社トレードウインズコーポレーション,,株式会社,千葉県,八千代市,村上１９７５番地７５,,12,221,2760028,,,,,,,2022-02-07,1,,,,,トレードウインズコーポレーション,0
2691,9040001122145,新規,0,2022-02-07,2022-02-07,株式会社ＺＥＰＨＹＲＳ,,株式会社,千葉県,松戸市,緑ケ丘１丁目９６番地の２,,12,207,2710074,,,,,,,2022-02-07,1,,,,,ゼファーズ,0
2692,9040001122153,新規,0,2022-02-07,2022-02-07,株式会社フリーマイホーム,,株式会社,千葉県,千葉市緑区,あすみが丘８丁目１０番地５,,12,105,2670066,,,,,,,2022-02-07,1,,,,,フリーマイホーム,0
2696,9040003019422,新規,0,2022-02-07,2022-02-07,合同会社ＣＲＯＳＳ　ＯＶＥＲ,,合同会社,千葉県,千葉市中央区,富士見２丁目７番９号富士見ビル６０９号,,12,101,2600015,,,,,,,2022-02-07,1,,,,,クロスオーバー,0
2697,9040003019430,新規,0,2022-02-07,2022-02-07,合同会社Ｒ．Ａ．ＥＸＰＯＲＴ,,合同会社,千葉県,千葉市若葉区,加曽利町７９７番地８ルミエールＣ１０６号,,12,104,2640017,,,,,,,2022-02-07,1,,,,,アールエーエクスポート,0
2698,9040003019447,新規,0,2022-02-07,2022-02-07,ｉＳｔａｒｔ合同会社,,合同会社,千葉県,市川市,市川１丁目８－１３市川ファイブビル３０２号,,12,203,2720034,,,,,,,2022-02-07,1,,,,,アイスタート,0
2701,9050001050592,新規,0,2022-02-07,2022-02-07,株式会社ｅ．ｓｔｙｌｅ,,株式会社,茨城県,つくば市,天宝喜２５２番地,,08,220,3001253,,,,,,,2022-02-07,1,,,,,イースタイル,0
2712,9070001038925,新規,0,2022-02-07,2022-02-07,ジェリコ株式会社,,株式会社,群馬県,前橋市,上新田町１１番地１,,10,201,3710821,,,,,,,2022-02-07,1,,,,,ジェリコ,0
2714,9080103002514,新規,0,2022-02-07,2022-02-07,ＲＯＳＥＷＯＯＤ合同会社,,合同会社,静岡県,沼津市,下香貫矢丸１２２４,,22,203,4100822,,,,,,,2022-02-07,1,,,,,ローズウッド,0
2718,9080403004466,新規,0,2022-02-07,2022-02-07,合同会社５５クリーン,,合同会社,静岡県,浜松市中区,領家３丁目１６番１号テラスハウス昇龍ＩＩ－１,00125645,22,131,4300852,,,,,,,2022-02-07,1,,,,,ゴーゴークリーン,0
2719,9090001017398,新規,0,2022-02-07,2022-02-07,株式会社蛇口屋,,株式会社,山梨県,南アルプス市,下今井３３８番地２,,19,208,4000331,,,,,,,2022-02-07,1,,,,,ジャグチヤ,0
2722,9100001035010,新規,0,2022-02-07,2022-02-07,株式会社芹田自動車センター,,株式会社,長野県,長野市,大字大豆島字大境７２４８番地,,20,201,3810022,,,,,,,2022-02-07,1,,,,,セリタジドウシャセンター,0
2725,9100003006406,新規,0,2022-02-07,2022-02-07,合同会社Ｃｒｅａｔｅ　ｔｈｅ　Ｆｕｔｕｒｅ,,合同会社,長野県,長野市,篠ノ井布施高田１００９番地１,,20,201,3888007,,,,,,,2022-02-07,1,,,,,クリエイトザフューチャー,0
2726,9110001036412,新規,0,2022-02-07,2022-02-07,株式会社スマイル,,株式会社,新潟県,村上市,山辺里５２０番地１,,15,212,9580821,,,,,,,2022-02-07,1,,,,,スマイル,0
2735,9120001243619,新規,0,2022-02-07,2022-02-07,株式会社岡本ＩＦＡ総合事務所,,株式会社,大阪府,大阪市北区,梅田２丁目２－２ヒルトンプラザウエストオフィスタワー１８階,,27,127,5300001,,,,,,,2022-02-07,1,,,,,オカモトアイエフエーソウゴウジムショ,0
2736,9120001243627,新規,0,2022-02-07,2022-02-07,株式会社たいき,,株式会社,大阪府,大阪市西淀川区,御幣島６丁目１番２６号,,27,113,5550012,,,,,,,2022-02-07,1,,,,,タイキ,0
2737,9120001243635,新規,0,2022-02-07,2022-02-07,株式会社ギークトップ,,株式会社,大阪府,大阪市淀川区,宮原１丁目１７番１２号,,27,123,5320003,,,,,,,2022-02-07,1,,,,,ギークトップ,0
2738,9120001243651,新規,0,2022-02-07,2022-02-07,白門エステート株式会社,,株式会社,大阪府,寝屋川市,香里新町２番２０－２０２号,,27,215,5720085,,,,,,,2022-02-07,1,,,,,シロモンエステート,0
2739,9120001243692,新規,0,2022-02-07,2022-02-07,株式会社双星,,株式会社,大阪府,大阪市北区,梅田１丁目８番１６号ヒルトンプラザイースト,,27,127,5300001,,,,,,,2022-02-07,1,,,,,ソウセイ,0
2740,9120001243701,新規,0,2022-02-07,2022-02-07,株式会社ＭＩＫＩ,,株式会社,大阪府,大阪市住之江区,南港中５丁目５番３２号サンフラワーハイツ南港はなのまち住宅３２号棟１０７号室,,27,125,5590033,,,,,,,2022-02-07,1,,,,,ミキ,0
2748,9120003021097,新規,0,2022-02-07,2022-02-07,合同会社利源,,合同会社,大阪府,門真市,千石東町４１－７,,27,223,5710013,,,,,,,2022-02-07,1,,,,,リゲン,0
2752,9120101065046,新規,0,2022-02-07,2022-02-07,株式会社アイミル,,株式会社,大阪府,富田林市,津々山台５丁目５番５号,,27,214,5840086,,,,,,,2022-02-07,1,,,,,アイミル,0
2770,9130001071069,新規,0,2022-02-07,2022-02-07,株式会社ロンジェヴィテ,,株式会社,京都府,京都市伏見区,深草紺屋町１１番地４,,26,109,6120087,,,,,,,2022-02-07,1,,,,,ロンジェヴィテ,0
2771,9130001071085,新規,0,2022-02-07,2022-02-07,株式会社藍蔵．Ｎｅｔ,,株式会社,京都府,京都市下京区,玉津島町２９４コモンルーム四条烏丸２Ｆ,,26,106,6008427,,,,,,,2022-02-07,1,,,,,アイクラドットネット,0
2781,9140001124767,新規,0,2022-02-07,2022-02-07,株式会社アルテック,,株式会社,兵庫県,姫路市,南町６３番地ミツワビル２階,,28,201,6700912,,,,,,,2022-02-07,1,,,,,アルテック,0
2782,9140001124809,新規,0,2022-02-07,2022-02-07,株式会社ＳＵＭＩ建装,,株式会社,兵庫県,尼崎市,西川２丁目７番６号,,28,202,6610966,,,,,,,2022-02-07,1,,,,,スミケンソウ,0
2783,9140003017325,新規,0,2022-02-07,2022-02-07,合同会社お問合せ受付窓口,,合同会社,兵庫県,尼崎市,武庫町４丁目４番１６－７０１号,,28,202,6610044,,,,,,,2022-02-07,1,,,,,オトイアワセウケツケマドグチ,0
2790,9180001149819,新規,0,2022-02-07,2022-02-07,株式会社Ｂｉｔ　Ｇｅｅｋ,,株式会社,愛知県,名古屋市西区,名駅２丁目３４番１７号セントラル名古屋１１０１号,,23,104,4510045,,,,,,,2022-02-07,1,,,,,ビットギーク,0
2791,9180001149827,新規,0,2022-02-07,2022-02-07,増田電機株式会社,,株式会社,愛知県,長久手市,岩作酉立花６５番地２,,23,238,4801103,,,,,,,2022-02-07,1,,,,,マスダデンキ,0
2792,9180001149868,新規,0,2022-02-07,2022-02-07,株式会社ＢＮＳ,,株式会社,愛知県,名古屋市中川区,戸田ゆたか１丁目３００４番地の１,,23,110,4540966,,,,,,,2022-02-07,1,,,,,ビーエヌエス,0
2793,9180001149876,新規,0,2022-02-07,2022-02-07,株式会社エヌティー,,株式会社,愛知県,名古屋市西区,中小田井３丁目２０２番地の２,,23,104,4520822,,,,,,,2022-02-07,1,,,,,エヌティー,0
2794,9180001149901,新規,0,2022-02-07,2022-02-07,ＲｉｔｏＬｅ株式会社,,株式会社,愛知県,名古屋市中区,大須１丁目７番１４号パークＩＭビル２Ｆ,,23,106,4600011,,,,,,,2022-02-07,1,,,,,リトレ,0
2796,9180002058977,新規,0,2022-02-07,2022-02-07,有限会社グーテコーポレーション,,有限会社,愛知県,名古屋市西区,南川町１７３番地,,23,104,4520814,,,,,,,2022-02-07,1,,,,,グーテコーポレーション,0
2801,9180003023476,新規,0,2022-02-07,2022-02-07,日本占いホリスティックアカデミー合同会社,,合同会社,愛知県,名古屋市西区,名駅２丁目２９－３プリマヴェール名駅シュール２０４,,23,104,4510045,,,,,,,2022-02-07,1,,,,,ニホンウラナイホリスティックアカデミー,0
2806,9220001024686,新規,0,2022-02-07,2022-02-07,株式会社ＴＫＹ,,株式会社,石川県,能美市,大長野町ル２０番地１,,17,211,9231115,,,,,,,2022-02-07,1,,,,,ティーケイワイ,0
2820,9260001036505,新規,0,2022-02-07,2022-02-07,株式会社Ｔ．ｉ．ｓ,,株式会社,岡山県,総社市,門田３６８番地１３,,33,208,7191156,,,,,,,2022-02-07,1,,,,,ティーアイエス,0
2822,9270001008453,新規,0,2022-02-07,2022-02-07,株式会社成和産業,,株式会社,鳥取県,米子市,彦名町５３９５番地１,,31,202,6830854,,,,,,,2022-02-07,1,,,,,セイワサンギョウ,0
2823,9280005007467,新規,0,2022-02-07,2022-02-07,特定非営利活動法人言の葉・ことのは,,その他の設立登記法人,島根県,浜田市,殿町６２番地５,,32,202,6970027,,,,,,,2022-02-07,1,,,,,,0
2826,9290001096348,新規,0,2022-02-07,2022-02-07,エスケイプラン株式会社,,株式会社,福岡県,八女市,高塚３１７番地１８,,40,210,8340034,,,,,,,2022-02-07,1,,,,,エスケイプラン,0
2830,9290805009521,新規,0,2022-02-07,2022-02-07,松井マンション管理組合法人,,その他の設立登記法人,福岡県,北九州市門司区,東新町１丁目２番１号,,40,101,8000055,,,,,,,2022-02-07,1,,,,,マツイマンション,0
2831,9300005003950,新規,0,2022-02-07,2022-02-07,鹿島製材事業協同組合,,その他の設立登記法人,佐賀県,鹿島市,大字中村８２番地１,,41,207,8491304,,,,,,,2022-02-07,1,,,,,,0
2832,9310001017697,新規,0,2022-02-07,2022-02-07,株式会社濱田屋ホールディングス,,株式会社,長崎県,長崎市,葉山２丁目２７番５号,,42,201,8528053,,,,,,,2022-02-07,1,,,,,ハマダヤホールディングス,0
2833,9310001017706,新規,0,2022-02-07,2022-02-07,株式会社Ｓ＆Ａ　Ｊａｐａｎ,,株式会社,長崎県,諫早市,西栄田町４６４番地４,,42,204,8540082,,,,,,,2022-02-07,1,,,,,エスアンドエージャパン,0
2846,9330003009229,新規,0,2022-02-07,2022-02-07,リアズトレーディング合同会社,,合同会社,熊本県,球磨郡あさぎり町,免田西２３３７番地２,,43,514,8680415,,,,,,,2022-02-07,1,,,,,リアズトレーディング,0
2852,9360001029985,新規,0,2022-02-07,2022-02-07,株式会社クリピカＳＳ沖縄,,株式会社,沖縄県,那覇市,泊１丁目３番地２,,47,201,9000012,,,,,,,2022-02-07,1,,,,,クリピカエスエスオキナワ,0
2863,9380001032533,新規,0,2022-02-07,2022-02-07,株式会社スマイル,,株式会社,福島県,石川郡浅川町,大字簑輪字蟹沢１０番地２,,07,504,9636217,,,,,,,2022-02-07,1,,,,,スマイル,0
2872,9420001017736,新規,0,2022-02-07,2022-02-07,株式会社グロースビュー,,株式会社,青森県,八戸市,小中野４丁目３番４２号,,02,203,0310802,,,,,,,2022-02-07,1,,,,,グロースビュー,0
2873,9430001085939,新規,0,2022-02-07,2022-02-07,Ａｇｒｉｃｕｌｔｕｒｅ岩谷株式会社,,株式会社,北海道,滝川市,南滝の川５０６番地４,,01,225,0730013,,,,,,,2022-02-07,1,,,,,アグリカルチャーイワタニ,0
2874,9430001085947,新規,0,2022-02-07,2022-02-07,株式会社ＣＯＮＥＪＯ　ＥＡＳＴ,,株式会社,北海道,札幌市中央区,南四条西３丁目１番地１第３グリーンビル,,01,101,0640804,,,,,,,2022-02-07,1,,,,,コネホイースト,0
2879,9430003013609,新規,0,2022-02-07,2022-02-07,合同会社フィーライン,,合同会社,北海道,札幌市中央区,南十二条西１２丁目１番４３－４０５号,,01,101,0640912,,,,,,,2022-02-07,1,,,,,フィーライン,0
2884,9460101007138,新規,0,2022-02-07,2022-02-07,株式会社マイミチ,,株式会社,北海道,河東郡上士幌町,字上士幌東１線２３４番地３６プリマ上士幌Ｃ棟３０２号,,01,633,0801408,,,,,,,2022-02-07,1,,,,,マイミチ,0
2894,9700150104991,新規,0,2022-02-07,2021-10-04,フォーラム武蔵野管理組合,,その他,東京都,武蔵野市,境３丁目１８番１号フォーラム武蔵野,,13,203,1800022,,,,,,,2021-10-04,1,,,,,フオーラムムサシノカンリクミアイ,0
