sequenceNumber,corporateNumber,process,correct,updateDate,changeDate,name,nameImageId,kind,prefectureName,cityName,streetNumber,addressImageId,prefectureCode,cityCode,postCode,addressOutside,addressOutsideImageId,closeDate,closeCause,successorCorporateNumber,changeCause,assignmentDate,latest,enName,enPrefectureName,enCityName,enAddressOutside,furigana,hihyoji
16,1010001225627,新規,0,2022-04-12,2022-04-12,株式会社アベエキスプレス,,株式会社,東京都,中央区,日本橋３丁目８番９号日本橋ホリビル３階,,13,102,1030027,,,,,,,2022-04-12,1,,,,,アベエキスプレス,0
17,1010001225668,新規,0,2022-04-12,2022-04-12,株式会社こうづしま観光公社,,株式会社,東京都,神津島村,３７番地２－Ｂ,,13,364,1000601,,,,,,,2022-04-12,1,,,,,コウヅシマカンコウコウシャ,0
18,1010001225726,新規,0,2022-04-12,2022-04-12,ポメラニアン・キャピタル・マネジメント株式会社,,株式会社,東京都,中央区,銀座１丁目２２番１１号２階,,13,102,1040061,,,,,,,2022-04-12,1,,,,,ポメラニアンキャピタルマネジメント,0
19,1010001225817,新規,0,2022-04-12,2022-04-12,ＹＡＳＵＮＡ株式会社,,株式会社,東京都,中央区,佃３丁目３番９－７０２号,,13,102,1040051,,,,,,,2022-04-12,1,,,,,ヤスナ,0
29,1010005034867,新規,0,2022-04-12,2022-04-12,一般社団法人日本メタバース機構,,その他の設立登記法人,東京都,千代田区,平河町１丁目６番１５号ＵＳビル８Ｆ,,13,101,1020093,,,,,,,2022-04-12,1,,,,,ニホンメタバースキコウ,0
34,1010401166644,新規,0,2022-04-12,2022-04-12,株式会社Ｂａｌｌｅｒｓ　Ｏｎｌｙ,,株式会社,東京都,港区,南麻布１丁目１７－２－３Ｆ,,13,103,1060047,,,,,,,2022-04-12,1,,,,,ボーラーズオンリー,0
35,1010401166727,新規,0,2022-04-12,2022-04-12,株式会社ＢｅＬａｂ,,株式会社,東京都,港区,新橋２丁目１２番１号ランディック第３新橋ビル９階,,13,103,1050004,,,,,,,2022-04-12,1,,,,,ビーラボ,0
36,1010401166735,新規,0,2022-04-12,2022-04-12,ステアーズ総合研究所株式会社,,株式会社,東京都,港区,赤坂８丁目４番１４号,,13,103,1070052,,,,,,,2022-04-12,1,,,,,ステアーズソウゴウケンキュウショ,0
39,1010501048701,新規,0,2022-04-12,2022-04-12,株式会社ワイズ,,株式会社,東京都,台東区,千束４丁目４４番２－５０５号,,13,106,1110031,,,,,,,2022-04-12,1,,,,,ワイズ,0
40,1010503006566,新規,0,2022-04-12,2022-04-12,合同会社朝陽,,合同会社,東京都,台東区,下谷２丁目２０－７－７０４,,13,106,1100004,,,,,,,2022-04-12,1,,,,,チョウヨウ,0
44,1010701042487,新規,0,2022-04-12,2022-04-12,株式会社ＢａｎｇＮａｎｇ,,株式会社,東京都,品川区,東五反田５丁目２２番３３号,,13,109,1410022,,,,,,,2022-04-12,1,,,,,バンナン,0
49,1010905004300,新規,0,2022-04-12,2022-04-12,特定非営利活動法人エブリランナー,,その他の設立登記法人,東京都,世田谷区,下馬３丁目２１番１号,,13,112,1540002,,,,,,,2022-04-12,1,,,,,エブリランナー,0
57,1011001146879,新規,0,2022-04-12,2022-04-12,株式会社ＢＥＡＣＯＮ,,株式会社,東京都,渋谷区,恵比寿南１丁目２番９号岡田ビル６階,,13,113,1500022,,,,,,,2022-04-12,1,,,,,ビーコン,0
63,1011105010221,新規,0,2022-04-12,2022-04-12,一般社団法人ＳＰＯＲＴＳ＆ＳＵＳＴＡＩＮＡＢＩＬＩＴＹ　ＪＡＰＡＮ,,その他の設立登記法人,東京都,新宿区,西新宿１丁目２６番２号新宿野村ビル３２階,,13,104,1600023,,,,,,,2022-04-12,1,,,,,スポーツアンドサステナビリティジャパン,0
74,1012403005318,新規,0,2022-04-12,2022-04-12,ジー・エス・サービス合同会社,,合同会社,東京都,武蔵野市,吉祥寺南町１丁目２８番４号,,13,203,1800003,,,,,,,2022-04-12,1,,,,,ジーエスサービス,0
89,1020001145881,新規,0,2022-04-12,2022-04-12,株式会社住まいるハウス,,株式会社,神奈川県,横浜市南区,永田北２丁目５２－１６ブライトハウス永田北,,14,105,2320071,,,,,,,2022-04-12,1,,,,,スマイルハウス,0
98,1021001075680,新規,0,2022-04-12,2022-04-12,株式会社ＡＥＭシステム,,株式会社,神奈川県,相模原市中央区,淵野辺３丁目２１番１６号,,14,152,2520206,,,,,,,2022-04-12,1,,,,,エーイーエムシステム,0
99,1021003011592,新規,0,2022-04-12,2022-04-12,インセクト文化企画合同会社,,合同会社,神奈川県,相模原市緑区,青野原４１７番地７,,14,151,2520161,,,,,,,2022-04-12,1,,,,,インセクトブンカキカク,0
104,1030001147704,新規,0,2022-04-12,2022-04-12,株式会社ＳＩＭ,,株式会社,埼玉県,さいたま市大宮区,仲町３丁目３６番地１コンフォリア大宮１４０１,,11,103,3300845,,,,,,,2022-04-12,1,,,,,エスアイエム,0
111,1030005020799,新規,0,2022-04-12,2022-04-12,医療法人社団天翔会,,その他の設立登記法人,埼玉県,上尾市,愛宕３丁目８番１号イオンモール上尾２階２０２３,,11,219,3620034,,,,,,,2022-04-12,1,,,,,テンショウカイ,0
123,1040001122978,新規,0,2022-04-12,2022-04-12,株式会社グリーンソリューション,,株式会社,千葉県,習志野市,藤崎５丁目８番８号,,12,216,2750017,,,,,,,2022-04-12,1,,,,,グリーンソリューション,0
124,1040001122986,新規,0,2022-04-12,2022-04-12,株式会社タカハシケンチク,,株式会社,千葉県,富津市,亀田９６６番地,,12,226,2930057,,,,,,,2022-04-12,1,,,,,タカハシケンチク,0
125,1040001123010,新規,0,2022-04-12,2022-04-12,株式会社福原商事,,株式会社,千葉県,野田市,中根４０番地の３,,12,208,2780031,,,,,,,2022-04-12,1,,,,,フクハラショウジ,0
126,1040001123027,新規,0,2022-04-12,2022-04-12,株式会社Ｋ‐ＴＲＵＳＴ,,株式会社,千葉県,市川市,南八幡３丁目１０番７－２０１号（サンライズマンション）,,12,203,2720023,,,,,,,2022-04-12,1,,,,,ケートラスト,0
130,1040003019859,新規,0,2022-04-12,2022-04-12,合同会社宝竹,,合同会社,千葉県,白井市,桜台４丁目９番７号,,12,232,2701412,,,,,,,2022-04-12,1,,,,,タカラタケ,0
131,1040003019867,新規,0,2022-04-12,2022-04-12,合同会社ＡＡＧ,,合同会社,千葉県,野田市,山崎１８６１番地の１ルネサンス梅郷駅前９０１,,12,208,2780022,,,,,,,2022-04-12,1,,,,,エーエージー,0
134,1050001050939,新規,0,2022-04-12,2022-04-12,株式会社７３,,株式会社,茨城県,つくば市,豊里の杜１丁目２４番地５,,08,220,3002648,,,,,,,2022-04-12,1,,,,,ナナサン,0
137,1060001034734,新規,0,2022-04-12,2022-04-12,ＮＫ　ＭＯＴＯＲＳ株式会社,,株式会社,栃木県,那須郡那須町,大字高久甲２４４７番地２２,,09,407,3250001,,,,,,,2022-04-12,1,,,,,エヌケーモーターズ,0
141,1070005009979,新規,0,2022-04-12,2022-04-12,弁護士法人Ｐｏｌｅｓｔａｒ,,その他の設立登記法人,群馬県,高崎市,八島町２６５番地イノウエビル４Ｆ,,10,202,3700849,,,,,,,2022-04-12,1,,,,,ポールスター,0
144,1080101023214,新規,0,2022-04-12,2022-04-12,株式会社桔梗ホールディングス,,株式会社,静岡県,伊豆市,湯ケ島８９５番地の１,,22,222,4103206,,,,,,,2022-04-12,1,,,,,キキョウホールディングス,0
145,1080405007441,新規,0,2022-04-12,2022-04-12,特定非営利活動法人ローザ新体操クラブ浜松,,その他の設立登記法人,静岡県,浜松市中区,幸５丁目３番２６号,,22,131,4338123,,,,,,,2022-04-12,1,,,,,ローザシンタイソウクラブハママツ,0
149,1100003006495,新規,0,2022-04-12,2022-04-12,合同会社アルプス工業,,合同会社,長野県,小諸市,大字平原２５２番地５９,,20,208,3840092,,,,,,,2022-04-12,1,,,,,アルプスコウギョウ,0
150,1100005012855,新規,0,2022-04-12,2022-04-12,土地家屋調査士法人双葉,,その他の設立登記法人,長野県,長野市,大字南長野西後町１５５５番地クレスビル２階,,20,201,3800845,,,,,,,2022-04-12,1,,,,,フタバ,0
153,1110001036584,新規,0,2022-04-12,2022-04-12,株式会社サブリ,,株式会社,新潟県,五泉市,村松工業団地２丁目２０７９番地,,15,218,9591739,,,,,,,2022-04-12,1,,,,,サブリ,0
172,1120001245102,新規,0,2022-04-12,2022-04-12,福秉株式会社,,株式会社,大阪府,大阪市西区,立売堀２丁目１番１４－９０１号,,27,106,5500012,,,,,,,2022-04-12,1,,,,,フクヘイ,0
173,1120001245127,新規,0,2022-04-12,2022-04-12,株式会社ギフテッドコーポレーション,,株式会社,大阪府,大阪市都島区,都島中通１丁目１４番６号２Ｆ,,27,102,5340022,,,,,,,2022-04-12,1,,,,,ギフテッドコーポレーション,0
174,1120001245192,新規,0,2022-04-12,2022-04-12,株式会社ＲＡｉＳＥ　ＵＰ,,株式会社,大阪府,大阪市中央区,本町橋１番８号,,27,128,5400029,,,,,,,2022-04-12,1,,,,,レイズアップ,0
179,1120005022860,新規,0,2022-04-12,2022-04-12,エーピーエス社会保険労務士法人,,その他の設立登記法人,大阪府,寝屋川市,田井町３２番２号,,27,215,5720021,,,,,,,2022-04-12,1,,,,,エーピーエス,0
183,1120101065367,新規,0,2022-04-12,2022-04-12,株式会社ホーミー,,株式会社,大阪府,泉大津市,我孫子１丁目３番５０号,,27,206,5950031,,,,,,,2022-04-12,1,,,,,ホーミー,0
186,1120901045840,新規,0,2022-04-12,2022-04-12,Ｏｉｇｎｏｎ株式会社,,株式会社,大阪府,豊中市,東寺内町１１－３５北大阪ハイツ６０３室,,27,203,5610871,,,,,,,2022-04-12,1,,,,,オニョン,0
194,1130001071514,新規,0,2022-04-12,2022-04-12,ＫＫＧコーポレーション株式会社,,株式会社,京都府,京都市山科区,音羽野田町２０トップビル２Ｆ,,26,110,6078075,,,,,,,2022-04-12,1,,,,,ケーケージーコーポレーション,0
195,1130001071522,新規,0,2022-04-12,2022-04-12,アビリティ株式会社,,株式会社,京都府,亀岡市,篠町夕日ケ丘３丁目１４番地１３,,26,206,6210829,,,,,,,2022-04-12,1,,,,,アビリティ,0
214,1140003017539,新規,0,2022-04-12,2022-04-12,合同会社Ｖａｎｃｓ,,合同会社,兵庫県,神戸市西区,池上１丁目１２番地の１－Ｄ－４０２号,,28,111,6512111,,,,,,,2022-04-12,1,,,,,ヴァンクス,0
215,1140003017563,新規,0,2022-04-12,2022-04-12,ＯＫＥＹ　ＤＯＫＥＹ合同会社,,合同会社,兵庫県,西宮市,堤町５番３１号,,28,204,6638012,,,,,,,2022-04-12,1,,,,,オキドキ,0
251,1190003003939,新規,0,2022-04-12,2022-04-12,合同会社八百萬サンガ,,合同会社,三重県,鈴鹿市,桜島町５丁目５－１０,,24,207,5130817,,,,,,,2022-04-12,1,,,,,ヤオヨロズサンガ,0
256,1200001039966,新規,0,2022-04-12,2022-04-12,株式会社しらかぜ,,株式会社,岐阜県,安八郡神戸町,大字神戸１５６８番地の２,,21,381,5032305,,,,,,,2022-04-12,1,,,,,シラカゼ,0
262,1220001024801,新規,0,2022-04-12,2022-04-12,株式会社ＭｉＫＳ,,株式会社,石川県,金沢市,本多町３丁目５番１０号２０１,,17,201,9200964,,,,,,,2022-04-12,1,,,,,ミックス,0
282,1290001097130,新規,0,2022-04-12,2022-04-12,株式会社丸鳳食品,,株式会社,福岡県,福岡市早良区,大字西１５３９番地１,,40,137,8111131,,,,,,,2022-04-12,1,,,,,マルホウショクヒン,0
284,1290003012376,新規,0,2022-04-12,2022-04-12,すみ吉電気合同会社,,合同会社,福岡県,糸島市,三雲４２２番地３,,40,230,8191583,,,,,,,2022-04-12,1,,,,,スミヨシデンキ,0
301,1330001029632,新規,0,2022-04-12,2022-04-12,株式会社公太産業,,株式会社,熊本県,熊本市西区,島崎５丁目１２番１３号,,43,103,8600073,,,,,,,2022-04-12,1,,,,,コウタサンギョウ,0
302,1330001029640,新規,0,2022-04-12,2022-04-12,株式会社ＪＳＫ工業,,株式会社,熊本県,宇土市,宮庄町１３３番地,,43,211,8690457,,,,,,,2022-04-12,1,,,,,ジェイエスケイコウギョウ,0
304,1330005010489,新規,0,2022-04-12,2022-04-12,一般社団法人Ｋ‐ＰＲＯＪＥＣＴ,,その他の設立登記法人,熊本県,玉名郡和水町,瀬川３６６７番地,,43,369,8650135,,,,,,,2022-04-12,1,,,,,ケープロジェクト,0
312,1350003004061,新規,0,2022-04-12,2022-04-12,合同会社安穏,,合同会社,宮崎県,北諸県郡三股町,大字樺山３９２０番地２,,45,341,8891901,,,,,,,2022-04-12,1,,,,,アンノン,0
314,1360001030240,新規,0,2022-04-12,2022-04-12,株式会社阿波根通信,,株式会社,沖縄県,浦添市,当山２丁目８番５号フレンドハウス翼２０１,,47,208,9012104,,,,,,,2022-04-12,1,,,,,アハゴンツウシン,0
322,1390001016864,新規,0,2022-04-12,2022-04-12,株式会社ひらぶき農園,,株式会社,山形県,山形市,南館２丁目５番１４号,,06,201,9902461,,,,,,,2022-04-12,1,,,,,ヒラブキノウエン,0
325,1400003002919,新規,0,2022-04-12,2022-04-12,１９Ｂｒｅｗ合同会社,,合同会社,岩手県,八幡平市,安比高原６０５番地２３,,03,214,0287306,,,,,,,2022-04-12,1,,,,,ナインティーンブリュー,0
338,1430001086341,新規,0,2022-04-12,2022-04-12,株式会社ＣＡＲ　ＰＬＵＳ,,株式会社,北海道,余市郡余市町,沢町４１６番地,,01,408,0460022,,,,,,,2022-04-12,1,,,,,カープラス,0
340,1430003013797,新規,0,2022-04-12,2022-04-12,合同会社パステルトーン,,合同会社,北海道,札幌市東区,東苗穂十二条１丁目２番１０号,,01,103,0070812,,,,,,,2022-04-12,1,,,,,パステルトーン,0
343,1470003002169,新規,0,2022-04-12,2022-04-12,合同会社冨田商会,,合同会社,香川県,高松市,瀬戸内町４０６－２３－３,,37,201,7600012,,,,,,,2022-04-12,1,,,,,トミタショウカイ,0
346,1490001010155,新規,0,2022-04-12,2022-04-12,株式会社ＳＴコーポレーション,,株式会社,高知県,高知市,東秦泉寺７７番３号Ｙ‘ｓコート３０１号室,,39,201,7800023,,,,,,,2022-04-12,1,,,,,エスティコーポレーション,0
348,1700150106252,新規,0,2022-04-12,2021-12-14,ミュージックサークル・ゆめ,,その他,埼玉県,さいたま市岩槻区,大字釣上６０７－１,,11,110,3390024,,,,,,,2021-12-14,1,,,,,ミユージツクサークルユメ,0
349,1700150107473,新規,0,2022-04-12,2022-03-23,Ｍｅｉｂｉ,,その他,東京都,渋谷区,笹塚２丁目２１－２－２０３,,13,113,1510073,,,,,,,2022-03-23,1,,,,,メイビ,0
350,1700150107886,新規,0,2022-04-12,2022-04-12,ＮＥＷ　ＭＡＴＡＬＥ　ＳＣＡＬＥ　ＰＶＴ　Ｌｔｄ,,外国会社等,千葉県,山武市,松尾町借毛本郷６１８－１５,,12,237,2891537,スリランカ民主社会主義共和国、マタレ、メインストリート、２５５－３,,,,,,2022-04-12,1,,,,,ニユーマタレスケールピーヴイテイエルテイデイ,0
364,2010001225626,新規,0,2022-04-12,2022-04-12,株式会社サイルビジネス学院,,株式会社,東京都,千代田区,平河町２丁目５番３号,,13,101,1020093,,,,,,,2022-04-12,1,,,,,サイルビジネスガクイン,0
365,2010001225659,新規,0,2022-04-12,2022-04-12,サットコン株式会社,,株式会社,東京都,千代田区,外神田３丁目３番８号,,13,101,1010021,,,,,,,2022-04-12,1,,,,,サットコン,0
366,2010001225691,新規,0,2022-04-12,2022-04-12,株式会社ＲＯＯＴｓ,,株式会社,東京都,中央区,銀座１丁目１３番８号ハビウル銀座９Ｆ,,13,102,1040061,,,,,,,2022-04-12,1,,,,,ルーツ,0
367,2010001225758,新規,0,2022-04-12,2022-04-12,株式会社パワハラチェック,,株式会社,東京都,千代田区,神田小川町３丁目２０番第２龍名館ビル８階,,13,101,1010052,,,,,,,2022-04-12,1,,,,,パワハラチェック,0
368,2010001225790,新規,0,2022-04-12,2022-04-12,株式会社ストーンアイランド,,株式会社,東京都,中央区,日本橋浜町３丁目３０番７号,,13,102,1030007,,,,,,,2022-04-12,1,,,,,ストーンアイランド,0
369,2010001225816,新規,0,2022-04-12,2022-04-12,Ｓｈｉｎｅ　ｗｉｔｈ株式会社,,株式会社,東京都,中央区,勝どき１丁目８番１号,,13,102,1040054,,,,,,,2022-04-12,1,,,,,,0
377,2010005034866,新規,0,2022-04-12,2022-04-12,一般社団法人ロボッチャ協会,,その他の設立登記法人,東京都,千代田区,紀尾井町３番６号紀尾井町パークビル１Ｆ,,13,101,1020094,,,,,,,2022-04-12,1,,,,,ロボッチャキョウカイ,0
387,2010505003305,新規,0,2022-04-12,2022-04-12,一般社団法人ＷＯＭＡＮ　ＳＨＩＦＴ,,その他の設立登記法人,東京都,台東区,谷中３丁目２４番８号ベビーバード２０３,,13,106,1100001,,,,,,,2022-04-12,1,,,,,ウーマンシフト,0
398,2011001146861,新規,0,2022-04-12,2022-04-12,株式会社Ｓｐｉｅｇｅｌ,,株式会社,東京都,渋谷区,代々木２丁目２４－７,,13,113,1510053,,,,,,,2022-04-12,1,,,,,シュピーゲル,0
402,2011003014513,新規,0,2022-04-12,2022-04-12,合同会社ＬＦＯ,,合同会社,東京都,目黒区,中目黒３丁目６番２号中目黒ＦＳビル３Ｆ,,13,110,1530061,,,,,,,2022-04-12,1,,,,,エルエフオー,0
434,2020001145939,新規,0,2022-04-12,2022-04-12,株式会社サティス,,株式会社,神奈川県,横浜市港北区,綱島東４丁目１１番３０―５０９号,,14,109,2230052,,,,,,,2022-04-12,1,,,,,サティス,0
435,2020001145988,新規,0,2022-04-12,2022-04-12,株式会社伍拾雀堂,,株式会社,神奈川県,川崎市幸区,中幸町３丁目３１番２号,,14,132,2120012,,,,,,,2022-04-12,1,,,,,ゴジュウカラドウ,0
436,2020001146037,新規,0,2022-04-12,2022-04-12,株式会社上創建,,株式会社,神奈川県,横浜市旭区,上白根２丁目５７番３７号,,14,112,2410002,,,,,,,2022-04-12,1,,,,,カミソウケン,0
437,2020001146061,新規,0,2022-04-12,2022-04-12,株式会社ＭＯＲＩＫＥ,,株式会社,神奈川県,横浜市港北区,綱島西３丁目６番２１号三枝ビル２階,,14,109,2230053,,,,,,,2022-04-12,1,,,,,モリケ,0
438,2020001146086,新規,0,2022-04-12,2022-04-12,株式会社ＧＳＨＡＦＴ,,株式会社,神奈川県,横浜市旭区,上川井町１２３４番地４,,14,112,2410802,,,,,,,2022-04-12,1,,,,,ジーシャフト,0
444,2020003021519,新規,0,2022-04-12,2022-04-12,ガンブー合同会社,,合同会社,神奈川県,横浜市港南区,上永谷３丁目１２－１８,,14,111,2330012,,,,,,,2022-04-12,1,,,,,ガンブー,0
460,2030001147620,新規,0,2022-04-12,2022-04-12,ブレイブロジ株式会社,,株式会社,埼玉県,ふじみ野市,うれし野１丁目６番９号,,11,245,3560056,,,,,,,2022-04-12,1,,,,,ブレイブロジ,0
463,2030003019099,新規,0,2022-04-12,2022-04-12,合同会社エルストア,,合同会社,埼玉県,川口市,西川口１丁目１７－１６グレイス４１３,,11,203,3320021,,,,,,,2022-04-12,1,,,,,エルストア,0
468,2040001122985,新規,0,2022-04-12,2022-04-12,株式会社ＡＲＵＫＡ　ＰＲＯＤＵＣＴＩＯＮＳ,,株式会社,千葉県,我孫子市,台田２丁目４番１４号,,12,222,2701167,,,,,,,2022-04-12,1,,,,,アルカプロダクションズ,0
469,2040001123018,新規,0,2022-04-12,2022-04-12,株式会社メディカルヘルスオンライン,,株式会社,千葉県,千葉市美浜区,中瀬１丁目３幕張テクノガーデンＣＢ棟３階,,12,106,2610023,,,,,,,2022-04-12,1,,,,,メディカルヘルスオンライン,0
470,2040001123026,新規,0,2022-04-12,2022-04-12,株式会社円陣,,株式会社,千葉県,流山市,江戸川台東１丁目３６番地,,12,220,2700111,,,,,,,2022-04-12,1,,,,,エンジン,0
472,2040003019866,新規,0,2022-04-12,2022-04-12,合同会社ＲＳ,,合同会社,千葉県,市川市,八幡２丁目１６番２１号ウエストビル２階,,12,203,2720021,,,,,,,2022-04-12,1,,,,,アールエス,0
482,2050005013049,新規,0,2022-04-12,2022-04-12,一般社団法人わかたけヘルスケアシステム,,その他の設立登記法人,茨城県,牛久市,柏田町１５８９番地３,,08,219,3001211,,,,,,,2022-04-12,1,,,,,ワカタケヘルスケアシステム,0
495,2090001017520,新規,0,2022-04-12,2022-04-12,株式会社Ｌａ　ｄｉｖｅｒｓｉｔｅ,,株式会社,山梨県,甲州市,塩山上於曽１８７２番地衣川ビル２Ｆ－Ｃ号,,19,213,4040042,,,,,,,2022-04-12,1,,,,,ラディバシティエ,0
502,2100003006494,新規,0,2022-04-12,2022-04-12,合同会社大吉,,合同会社,長野県,松本市,美須々８番１号,,20,202,3900801,,,,,,,2022-04-12,1,,,,,ダイキチ,0
522,2120001245167,新規,0,2022-04-12,2022-04-12,株式会社Ｔｏｎｙ,,株式会社,大阪府,大阪市北区,本庄西２丁目２２番５－１１０１号,,27,127,5310073,,,,,,,2022-04-12,1,,,,,トニー,0
523,2120001245175,新規,0,2022-04-12,2022-04-12,チャピペット株式会社,,株式会社,大阪府,大阪市西区,新町１丁目２４番８－８０５号,,27,106,5500013,,,,,,,2022-04-12,1,,,,,チャピペット,0
524,2120001245183,新規,0,2022-04-12,2022-04-12,株式会社太陽エネルギー,,株式会社,大阪府,大阪市中央区,島之内１丁目２１番２３号大起興産長堀橋ビル５階,,27,128,5420082,,,,,,,2022-04-12,1,,,,,タイヨウエネルギー,0
527,2120003021467,新規,0,2022-04-12,2022-04-12,合同会社誠建,,合同会社,大阪府,大阪市平野区,平野本町４丁目１１－２０,,27,126,5470044,,,,,,,2022-04-12,1,,,,,セイケン,0
528,2120003021475,新規,0,2022-04-12,2022-04-12,合同会社ＷＴ,,合同会社,大阪府,大阪市平野区,長吉出戸２丁目４番１５号,,27,126,5470011,,,,,,,2022-04-12,1,,,,,ダブリューティー,0
531,2120101065374,新規,0,2022-04-12,2022-04-12,株式会社ＭＩＫＩａｕｔｏ,,株式会社,大阪府,和泉市,東阪本町３４５番地,,27,219,5940051,,,,,,,2022-04-12,1,,,,,ミキオート,0
538,2120903004109,新規,0,2022-04-12,2022-04-12,合同会社ＴＭパートナー,,合同会社,大阪府,豊中市,上新田１丁目７４番地の１（２０９号）,,27,203,5600085,,,,,,,2022-04-12,1,,,,,ティーエムパートナー,0
540,2122003002315,新規,0,2022-04-12,2022-04-12,合同会社どりーむ・ステーション,,合同会社,大阪府,東大阪市,瓜生堂２丁目２３－２,,27,227,5780946,,,,,,,2022-04-12,1,,,,,ドリームステーション,0
541,2130001071463,新規,0,2022-04-12,2022-04-12,株式会社大城設備,,株式会社,京都府,宇治市,菟道平町５２番地３４,00126253,26,204,6110000,,,,,,,2022-04-12,1,,,,,オオシロセツビ,0
542,2130001071513,新規,0,2022-04-12,2022-04-12,株式会社菅名美朽舎,,株式会社,京都府,京都市上京区,＿座通椹木町上る東裏辻町４０３番地３,00126252,26,102,6020000,,,,,,,2022-04-12,1,,,,,カンナビキュウシャ,0
549,2140001125508,新規,0,2022-04-12,2022-04-12,ＹＵＲＩサポート株式会社,,株式会社,兵庫県,姫路市,安田４丁目１７番地４階,,28,201,6700955,,,,,,,2022-04-12,1,,,,,ユリサポート,0
550,2140001125565,新規,0,2022-04-12,2022-04-12,株式会社ミライ,,株式会社,兵庫県,神戸市中央区,北野町１丁目５番７号,,28,110,6500002,,,,,,,2022-04-12,1,,,,,ミライ,0
553,2140003017554,新規,0,2022-04-12,2022-04-12,カクシ合同会社,,合同会社,兵庫県,神戸市中央区,野崎通２丁目５番１０号,,28,110,6510054,,,,,,,2022-04-12,1,,,,,カクシ,0
565,2180001150790,新規,0,2022-04-12,2022-04-12,株式会社カシワヤ薬局,,株式会社,愛知県,半田市,住吉町３丁目１３９番地の２,,23,205,4750862,,,,,,,2022-04-12,1,,,,,カシワヤヤッキョク,0
566,2180001150865,新規,0,2022-04-12,2022-04-12,株式会社増伸,,株式会社,愛知県,春日井市,東山町４丁目４番７号,,23,206,4860811,,,,,,,2022-04-12,1,,,,,ゾウシン,0
570,2180301036095,新規,0,2022-04-12,2022-04-12,ＬＳＧＦ株式会社,,株式会社,愛知県,安城市,三河安城南町１丁目１５－８サンテラス三河安城ビル６Ｆ,,23,212,4460058,,,,,,,2022-04-12,1,,,,,エルエスジーエフ,0
572,2180303005296,新規,0,2022-04-12,2022-04-12,合同会社アトリエヒシダ,,合同会社,愛知県,豊橋市,大岩町字本郷８８番地,,23,201,4413147,,,,,,,2022-04-12,1,,,,,アトリエヒシダ,0
576,2190005011690,新規,0,2022-04-12,2022-04-12,一般社団法人要看護在宅生活サポートセンターようなす,,その他の設立登記法人,三重県,伊勢市,小俣町元町６２３番１,,24,203,5190503,,,,,,,2022-04-12,1,,,,,ヨウカンゴザイタクセイカツサポートセンターヨウナス,0
590,2230001019312,新規,0,2022-04-12,2022-04-12,カネモ株式会社,,株式会社,富山県,下新川郡入善町,芦崎３８６番地,,16,342,9390667,,,,,,,2022-04-12,1,,,,,カネモ,0
592,2240001059596,新規,0,2022-04-12,2022-04-12,株式会社夢進,,株式会社,広島県,福山市,南手城町４丁目１０番５号,,34,207,7210963,,,,,,,2022-04-12,1,,,,,ムシン,0
600,2260001036742,新規,0,2022-04-12,2022-04-12,株式会社Ｔ．Ｃ．Ｅ．,,株式会社,岡山県,倉敷市,粒浦６９５－６,,33,202,7100036,,,,,,,2022-04-12,1,,,,,ティーシーイー,0
601,2260001036750,新規,0,2022-04-12,2022-04-12,アンドエヌティーケー株式会社,,株式会社,岡山県,倉敷市,西阿知町３２番地３ローズヒルズ５０２,,33,202,7100807,,,,,,,2022-04-12,1,,,,,アンドエヌティーケー,0
605,2290001097113,新規,0,2022-04-12,2022-04-12,株式会社ワンネクストグループ,,株式会社,福岡県,福岡市博多区,博多駅前３丁目２７番２３号,,40,132,8120011,,,,,,,2022-04-12,1,,,,,ワンネクストグループ,0
610,2290003012391,新規,0,2022-04-12,2022-04-12,弘正教育合同会社,,合同会社,福岡県,福岡市博多区,美野島２丁目１６番１３号３０２,,40,132,8120017,,,,,,,2022-04-12,1,,,,,コウセイキョウイク,0
617,2290801028432,新規,0,2022-04-12,2022-04-12,株式会社Ｌｅｉ,,株式会社,福岡県,北九州市若松区,浜町２丁目１２番２０－１１０２号,,40,103,8080024,,,,,,,2022-04-12,1,,,,,エルイーアイ,0
623,2310003004329,新規,0,2022-04-12,2022-04-12,合同会社アロマの家,,合同会社,長崎県,諫早市,飯盛町中山７３９番地９,,42,204,8541103,,,,,,,2022-04-12,1,,,,,アロマノイエ,0
624,2310005008609,新規,0,2022-04-12,2022-04-12,一般社団法人ともに幸,,その他の設立登記法人,長崎県,長崎市,平野町８番２６号３０３号,,42,201,8528117,,,,,,,2022-04-12,1,,,,,トモニサチ,0
626,2330001029631,新規,0,2022-04-12,2022-04-12,株式会社ビヨンド,,株式会社,熊本県,山鹿市,石１１８２番地１,,43,208,8610553,,,,,,,2022-04-12,1,,,,,ビヨンド,0
628,2330003009326,新規,0,2022-04-12,2022-04-12,オフィス合同会社,,合同会社,熊本県,人吉市,富ケ尾町２５番地１３,,43,203,8680048,,,,,,,2022-04-12,1,,,,,オフィス,0
634,2360001030264,新規,0,2022-04-12,2022-04-12,株式会社アイハブ,,株式会社,沖縄県,浦添市,仲西２丁目３番８号,,47,208,9012125,,,,,,,2022-04-12,1,,,,,アイハブ,0
638,2370001048438,新規,0,2022-04-12,2022-04-12,株式会社アスゲイト,,株式会社,宮城県,仙台市青葉区,国分町３丁目８番１０号我妻ビル２０２,,04,101,9800803,,,,,,,2022-04-12,1,,,,,アスゲイト,0
655,2390003001946,新規,0,2022-04-12,2022-04-12,合同会社プラムコンサルティング,,合同会社,山形県,山形市,大字長谷堂１７７番地,,06,201,9902363,,,,,,,2022-04-12,1,,,,,プラムコンサルティング,0
660,2410005006461,新規,0,2022-04-12,2022-04-12,特定非営利活動法人おのばホタル会,,その他の設立登記法人,秋田県,秋田市,御野場５丁目１６番１号,,05,201,0101424,,,,,,,2022-04-12,1,,,,,オノバホタルカイ,0
666,2430001086381,新規,0,2022-04-12,2022-04-12,株式会社ワイスピ,,株式会社,北海道,石狩市,花川南三条４丁目２７５番地２プリオールハイツ２－Ｅ,,01,235,0613203,,,,,,,2022-04-12,1,,,,,ワイスピ,0
677,2470003002168,新規,0,2022-04-12,2022-04-12,合同会社山下商会,,合同会社,香川県,さぬき市,志度４５００番地６５,,37,206,7692101,,,,,,,2022-04-12,1,,,,,ヤマシタショウカイ,0
680,2490003001647,新規,0,2022-04-12,2022-04-12,かしのか林業合同会社,,合同会社,高知県,高岡郡津野町,西谷甲３６４－１,,39,411,7850205,,,,,,,2022-04-12,1,,,,,カシノカリンギョウ,0
681,2700150002970,新規,0,2022-04-12,2015-10-09,電気事業連合会,,その他,東京都,千代田区,大手町１丁目３－２経団連会館内,,13,101,1000004,,,,,,,2015-10-09,1,,,,,デンキジギヨウレンゴウカイ,0
682,2700150107506,新規,0,2022-04-12,2022-03-25,第三区一番組,,その他,愛知県,豊田市,喜多町３丁目７２,,23,211,4710027,,,,,,,2022-03-25,1,,,,,ダイサンクイチバンクミ,0
683,2700150107885,新規,0,2022-04-12,2022-04-12,ＰＲＡＢＡＴＨ　ＥＮＴＥＲＰＲＩＳＥＳ,,外国会社等,千葉県,山武市,松尾町木刀１０３６番地３オフィスＡ,,12,237,2891531,スリランカ民主社会主義共和国、キャンディ、ガルヒンナ、ウダガマ、ラマコトゥワ、３Ａ－６７,,,,,,2022-04-12,1,,,,,プラバスエンタープライセス,0
684,2700150107893,新規,0,2022-04-12,2022-04-12,ＲＥＤ　ＳＫＹ　ＢＵＳＩＮＥＳＳ　ＣＯＮＳＵＬＴＡＮＴＳ　ＰＶＴ　ＬＴＤ,,外国会社等,千葉県,山武市,松尾町木刀１０３６番地３オフィスＢ,,12,237,2891531,スリランカ民主社会主義共和国、キャンディ、カトゥガストタ、マタレロード、１０－８Ｃ,,,,,,2022-04-12,1,,,,,レツドスカイビジネスコンサルタンツピーヴイテイエルテイデイ,0
691,3010001225641,新規,0,2022-04-12,2022-04-12,株式会社ＢａｃｋＳｔｏｒｅ,,株式会社,東京都,中央区,築地３丁目７番１号ＴＳＵＫＩＪＩＧＲＡＮＤＥ２階,,13,102,1040045,,,,,,,2022-04-12,1,,,,,バックストア,0
692,3010001225708,新規,0,2022-04-12,2022-04-12,株式会社デロフト,,株式会社,東京都,千代田区,大手町１丁目５番１号,,13,101,1000004,,,,,,,2022-04-12,1,,,,,デロフト,0
693,3010001225732,新規,0,2022-04-12,2022-04-12,株式会社アンサーラビット,,株式会社,東京都,中央区,銀座８丁目１番１５号３階,,13,102,1040061,,,,,,,2022-04-12,1,,,,,アンサーラビット,0
694,3010001225765,新規,0,2022-04-12,2022-04-12,株式会社小学館アカデミー,,株式会社,東京都,千代田区,神田神保町２丁目２０番地,,13,101,1010051,,,,,,,2022-04-12,1,,,,,ショウガクカンアカデミー,0
695,3010001225773,新規,0,2022-04-12,2022-04-12,ＣＰＡ‐Ｃｏｎｓｕｌｔｉｎｇ株式会社,,株式会社,東京都,中央区,銀座１丁目２２番１１号銀座大竹ビジデンス２階,,13,102,1040061,,,,,,,2022-04-12,1,,,,,シーピーエーコンサルティング,0
696,3010001225848,新規,0,2022-04-12,2022-04-12,リーフキャピタル株式会社,,株式会社,東京都,千代田区,神田駿河台２丁目２番地御茶ノ水杏雲ビル１０階,,13,101,1010062,,,,,,,2022-04-12,1,,,,,リーフキャピタル,0
705,3010005034857,新規,0,2022-04-12,2022-04-12,一般社団法人日本冷凍,,その他の設立登記法人,東京都,中央区,日本橋１丁目４番１号,,13,102,1030027,,,,,,,2022-04-12,1,,,,,ニホンレイトウ,0
711,3010401166733,新規,0,2022-04-12,2022-04-12,ＴｉｇｅｒＧｒａｐｈ株式会社,,株式会社,東京都,港区,赤坂２丁目２３番１号アークヒルズフロントタワーＲｏＰ８０６号,,13,103,1070052,,,,,,,2022-04-12,1,,,,,タイガーグラフ,0
714,3010403027446,新規,0,2022-04-12,2022-04-12,合同会社Ｆｉｌａｔｕｒａ,,合同会社,東京都,港区,赤坂８丁目１２番１２号赤坂アンドロン１０１,,13,103,1070052,,,,,,,2022-04-12,1,,,,,フィラトゥーラ,0
721,3010505003304,新規,0,2022-04-12,2022-04-12,特定非営利活動法人Ａｌｍａ,,その他の設立登記法人,東京都,台東区,松が谷３丁目１０番２－９０２号レクセルマンション上野松が谷,,13,106,1110036,,,,,,,2022-04-12,1,,,,,アルマ,0
724,3010601060942,新規,0,2022-04-12,2022-04-12,株式会社Ｍ‐ＰＬＡＣＥ,,株式会社,東京都,墨田区,江東橋１丁目７番１８－３０２号錦糸町シティタワー,,13,107,1300022,,,,,,,2022-04-12,1,,,,,エムプレイス,0
725,3010601060959,新規,0,2022-04-12,2022-04-12,株式会社アメニティソリューションズ,,株式会社,東京都,江東区,豊洲５丁目６番２９－１２０２号,,13,108,1350061,,,,,,,2022-04-12,1,,,,,アメニティソリューションズ,0
729,3010701042502,新規,0,2022-04-12,2022-04-12,株式会社ＡＣＲ,,株式会社,東京都,品川区,東五反田１丁目１２番１０号,,13,109,1410022,,,,,,,2022-04-12,1,,,,,エーシーアール,0
734,3010901050627,新規,0,2022-04-12,2022-04-12,ファーストマネジメント株式会社,,株式会社,東京都,世田谷区,松原３丁目２１番１２号,,13,112,1560043,,,,,,,2022-04-12,1,,,,,ファーストマネジメント,0
735,3010901050692,新規,0,2022-04-12,2022-04-12,株式会社ＦＲＥＡＫＳ・ＡＧＥＮＣＹ,,株式会社,東京都,世田谷区,下馬１丁目１９番１４号,,13,112,1540002,,,,,,,2022-04-12,1,,,,,フリークスエージェンシー,0
737,3011001146910,新規,0,2022-04-12,2022-04-12,株式会社ＫＡＩＨＯＵｚ,,株式会社,東京都,渋谷区,代官山町８番７号Ｄａｉｗａ代官山ビル１階,,13,113,1500034,,,,,,,2022-04-12,1,,,,,カイホウ,0
740,3011003014504,新規,0,2022-04-12,2022-04-12,Ｓｐｈｅｒｅ合同会社,,合同会社,東京都,目黒区,中目黒４丁目６番１－１２０４号,,13,110,1530061,,,,,,,2022-04-12,1,,,,,スフェア,0
741,3011101098432,新規,0,2022-04-12,2022-04-12,株式会社かがやきバンク,,株式会社,東京都,新宿区,西新宿２丁目６番１号,,13,104,1600023,,,,,,,2022-04-12,1,,,,,カガヤキバンク,0
743,3011201023744,新規,0,2022-04-12,2022-04-12,株式会社ケーティーワークス,,株式会社,東京都,中野区,弥生町５丁目２－１９,,13,114,1640013,,,,,,,2022-04-12,1,,,,,ケーティーワークス,0
751,3011605002443,新規,0,2022-04-12,2022-04-12,一般社団法人ＯＳＣ,,その他の設立登記法人,東京都,練馬区,大泉学園町８丁目１６番１８号,,13,120,1780061,,,,,,,2022-04-12,1,,,,,オーエスシー,0
754,3011703003112,新規,0,2022-04-12,2022-04-12,合同会社ＲＥＣ部,,合同会社,東京都,江戸川区,平井６丁目６０番７号Ｌａ・Ｆｒｏｎｔｅｒａ２０３,,13,123,1320035,,,,,,,2022-04-12,1,,,,,レクブ,0
755,3011801040569,新規,0,2022-04-12,2022-04-12,株式会社Ｃｉｖｉｌ　Ｃｏｓｔ,,株式会社,東京都,足立区,千住２丁目１２番地コーポスズキ２０３号,,13,121,1200034,,,,,,,2022-04-12,1,,,,,シビルコスト,0
760,3012401039076,新規,0,2022-04-12,2022-04-12,株式会社Ｅグループ,,株式会社,東京都,府中市,若松町２丁目８番地の２３サンクチュアリフォレスト１００３,,13,206,1830005,,,,,,,2022-04-12,1,,,,,イーグループ,0
761,3012401039084,新規,0,2022-04-12,2022-04-12,株式会社秀春工業,,株式会社,東京都,三鷹市,下連雀６丁目１７番３号,,13,204,1810013,,,,,,,2022-04-12,1,,,,,シュウシュンコウギョウ,0
762,3012403005324,新規,0,2022-04-12,2022-04-12,合同会社ｓｉｍｐｌｉｆｙ,,合同会社,東京都,武蔵野市,吉祥寺本町１丁目２１－２グローリオ吉祥寺本町４０３,,13,203,1800004,,,,,,,2022-04-12,1,,,,,シンプリファイ,0
764,3012701017021,新規,0,2022-04-12,2022-04-12,オオイワグローバル株式会社,,株式会社,東京都,小平市,花小金井南町２丁目１７番２－１１８号,,13,211,1870003,,,,,,,2022-04-12,1,,,,,オオイワグローバル,0
772,3013301048927,新規,0,2022-04-12,2022-04-12,株式会社ＪｅｉＫ,,株式会社,東京都,豊島区,巣鴨１丁目１５番２号アーバンハイツＡ４０５,,13,116,1700002,,,,,,,2022-04-12,1,,,,,ジェイケイ,0
783,3020001146077,新規,0,2022-04-12,2022-04-12,株式会社朔,,株式会社,神奈川県,横浜市中区,尾上町４丁目５７番地,,14,104,2310015,,,,,,,2022-04-12,1,,,,,サク,0
784,3020001146085,新規,0,2022-04-12,2022-04-12,株式会社ライジングセキュリティ,,株式会社,神奈川県,川崎市中原区,市ノ坪５４８番地,,14,133,2110016,,,,,,,2022-04-12,1,,,,,ライジングセキュリティ,0
789,3020005015476,新規,0,2022-04-12,2022-04-12,ちょっとヨットマリーナビーチ事業協同組合,,その他の設立登記法人,神奈川県,横浜市中区,新山下１丁目５番１３号,,14,104,2310801,,,,,,,2022-04-12,1,,,,,チョットヨットマリーナビーチ,0
793,3021003011376,新規,0,2022-04-12,2022-04-12,合同会社Ｔｒｉｎｉｔｙ　ｌｉｆｅ　ｓｏｌｕｔｉｏｎ　ＬＬＣ,,合同会社,神奈川県,茅ヶ崎市,浜竹３丁目３－２８,,14,207,2530021,,,,,,,2022-04-12,1,,,,,,0
806,3030001147719,新規,0,2022-04-12,2022-04-12,株式会社ＲＴＹ,,株式会社,埼玉県,草加市,谷塚仲町５５番地３,,11,221,3400025,,,,,,,2022-04-12,1,,,,,,0
809,3030003019206,新規,0,2022-04-12,2022-04-12,サトワ合同会社,,合同会社,埼玉県,新座市,栗原５丁目６－２６,,11,230,3520035,,,,,,,2022-04-12,1,,,,,サトワ,0
819,3040001123009,新規,0,2022-04-12,2022-04-12,株式会社ＡＣＥ,,株式会社,千葉県,市原市,五井２３３９番地１階,,12,219,2900056,,,,,,,2022-04-12,1,,,,,エース,0
822,3040003019808,新規,0,2022-04-12,2022-04-12,合同会社ｒｏｏｆｓｅｒｖｉｃｅ　ａｎ,,合同会社,千葉県,柏市,手賀の杜２丁目４番地１９,,12,217,2701447,,,,,,,2022-04-12,1,,,,,ルーフサービスアン,0
824,3040003019881,新規,0,2022-04-12,2022-04-12,ストレッチデザイン合同会社,,合同会社,千葉県,習志野市,谷津３丁目１２－２２－２１３,,12,216,2750026,,,,,,,2022-04-12,1,,,,,ストレッチデザイン,0
830,3050005013048,新規,0,2022-04-12,2022-04-12,特定非営利活動法人いばらきＴＵ・ＮＡ・ＧＵジオ,,その他の設立登記法人,茨城県,常陸太田市,常福地町６９番地,,08,212,3110322,,,,,,,2022-04-12,1,,,,,イバラキツナグジオ,0
832,3060001016714,新規,0,2022-04-12,2022-04-12,株式会社天谷建設,,株式会社,栃木県,栃木市,大平町西水代２２８７番地１,,09,203,3294423,,,,,,,2022-04-12,1,,,,,アマガイケンセツ,0
834,3060001034757,新規,0,2022-04-12,2022-04-12,ＡＳＨＲＡＦ　ＡＮＤ　ＳＯＮＳ　ＴＲＡＤＥＲＳ株式会社,,株式会社,栃木県,鹿沼市,西茂呂３丁目１９番地２,,09,205,3220029,,,,,,,2022-04-12,1,,,,,アシュラフアンドサンズトレーダーズ,0
836,3060003004023,新規,0,2022-04-12,2022-04-12,合同会社ＮＯＭＡＤ　ＬＩＦＥ,,合同会社,栃木県,小山市,城東１丁目１７番２号,,09,208,3230807,,,,,,,2022-04-12,1,,,,,ノマドライフ,0
855,3110003004736,新規,0,2022-04-12,2022-04-12,合同会社ソノダ工業,,合同会社,新潟県,糸魚川市,大字西谷内３６６番地２,,15,216,9410024,,,,,,,2022-04-12,1,,,,,ソノダコウギョウ,0
856,3110005016779,新規,0,2022-04-12,2022-04-12,医療法人社団えんどう整形外科クリニック,,その他の設立登記法人,新潟県,燕市,杣木８１５番地１,,15,213,9591284,,,,,,,2022-04-12,1,,,,,エンドウセイケイゲカクリニック,0
869,3120001245166,新規,0,2022-04-12,2022-04-12,株式会社ＴＯＫＫＯ,,株式会社,大阪府,大阪市淀川区,宮原２丁目９番１９－９０４号,,27,123,5320003,,,,,,,2022-04-12,1,,,,,トッコ,0
872,3120101065365,新規,0,2022-04-12,2022-04-12,株式会社勝目工業,,株式会社,大阪府,藤井寺市,国府２丁目２番４７号,,27,226,5830006,,,,,,,2022-04-12,1,,,,,カツメコウギョウ,0
873,3120101065381,新規,0,2022-04-12,2022-04-12,株式会社ＷＥＥＤ,,株式会社,大阪府,大阪狭山市,狭山５丁目２２４６－６－１０２,,27,231,5890005,,,,,,,2022-04-12,1,,,,,ウィード,0
880,3122003002314,新規,0,2022-04-12,2022-04-12,合同会社アンダール,,合同会社,大阪府,八尾市,青山町２丁目８番３号,,27,212,5810018,,,,,,,2022-04-12,1,,,,,アンダール,0
887,3130001071512,新規,0,2022-04-12,2022-04-12,汲古堂株式会社,,株式会社,京都府,京都市南区,久世上久世町１４０番地５,,26,107,6018212,,,,,,,2022-04-12,1,,,,,キュウコドウ,0
888,3130001071520,新規,0,2022-04-12,2022-04-12,株式会社的場タイル,,株式会社,京都府,京都市西京区,大枝塚原町５番地３０６,00126249,26,111,6101105,,,,,,,2022-04-12,1,,,,,マトバタイル,0
889,3130001071545,新規,0,2022-04-12,2022-04-12,株式会社エアートラスト,,株式会社,京都府,京都市伏見区,醍醐西大路町１２８番地２３,,26,109,6011374,,,,,,,2022-04-12,1,,,,,エアートラスト,0
891,3130005016439,新規,0,2022-04-12,2022-04-12,一般社団法人からしだね学園,,その他の設立登記法人,京都府,京都市右京区,西院太田町２番地１,,26,108,6150036,,,,,,,2022-04-12,1,,,,,カラシダネガクエン,0
895,3140001125589,新規,0,2022-04-12,2022-04-12,株式会社ＣＲＡＶＥｓｙｓｔｅｍ,,株式会社,兵庫県,川辺郡猪名川町,つつじが丘２丁目３０－３,,28,301,6660245,,,,,,,2022-04-12,1,,,,,クレイブシステム,0
896,3140001125597,新規,0,2022-04-12,2022-04-12,株式会社平成不動産,,株式会社,兵庫県,姫路市,龍野町５丁目７番地１,,28,201,6700032,,,,,,,2022-04-12,1,,,,,ヘイセイフドウサン,0
916,3180003023696,新規,0,2022-04-12,2022-04-12,オラクルクローラー合同会社,,合同会社,愛知県,名古屋市中村区,名駅３丁目２０番２０号,,23,105,4500002,,,,,,,2022-04-12,1,,,,,オラクルクローラー,0
919,3180301036103,新規,0,2022-04-12,2022-04-12,株式会社大和,,株式会社,愛知県,知立市,谷田町西１丁目１２番地１２,,23,225,4720014,,,,,,,2022-04-12,1,,,,,ヤマト,0
921,3190001029307,新規,0,2022-04-12,2022-04-12,諸戸コーポレーション株式会社,,株式会社,三重県,桑名市,太一丸１８番地,,24,205,5110005,,,,,,,2022-04-12,1,,,,,モロトコーポレーション,0
929,3220001024799,新規,0,2022-04-12,2022-04-12,ＴＥＴＴＵシートメタル工業株式会社,,株式会社,石川県,河北郡内灘町,字向粟崎２丁目５４番地,,17,365,9200274,,,,,,,2022-04-12,1,,,,,テッツシートメタルコウギョウ,0
932,3230003001829,新規,0,2022-04-12,2022-04-12,合同会社かけはし,,合同会社,富山県,高岡市,中川上町１１番４号,,16,202,9330043,,,,,,,2022-04-12,1,,,,,,0
939,3240001059604,新規,0,2022-04-12,2022-04-12,ケージープラン株式会社,,株式会社,広島県,広島市東区,戸坂新町２丁目３５番１５号,,34,102,7320012,,,,,,,2022-04-12,1,,,,,ケージープラン,0
945,3260001036741,新規,0,2022-04-12,2022-04-12,セノスＨＤ株式会社,,株式会社,岡山県,津山市,田町７番地５,,33,203,7080052,,,,,,,2022-04-12,1,,,,,セノスホールディングス,0
951,3280003001601,新規,0,2022-04-12,2022-04-12,合同会社ノーストン,,合同会社,島根県,松江市,東出雲町錦新町２丁目８番１号,,32,201,6990110,,,,,,,2022-04-12,1,,,,,,0
959,3290001097129,新規,0,2022-04-12,2022-04-12,株式会社大河,,株式会社,福岡県,久留米市,通町７番地１,,40,203,8300018,,,,,,,2022-04-12,1,,,,,タイガ,0
962,3290003012366,新規,0,2022-04-12,2022-04-12,合同会社あああつし,,合同会社,福岡県,福岡市中央区,天神２丁目３番１０号天神パインクレスト７１９号室,,40,133,8100001,,,,,,,2022-04-12,1,,,,,アアアツシ,0
963,3290003012390,新規,0,2022-04-12,2022-04-12,合同会社俵屋,,合同会社,福岡県,福岡市博多区,博多駅前２丁目１９－１７トーカン博多第５ビル３１２号室,,40,132,8120011,,,,,,,2022-04-12,1,,,,,タワラヤ,0
966,3290005018634,新規,0,2022-04-12,2022-04-12,一般社団法人Ｗｉｓｈ,,その他の設立登記法人,福岡県,福岡市東区,松香台２丁目１番５－４０７号,,40,131,8130004,,,,,,,2022-04-12,1,,,,,ウィッシュ,0
971,3310001017819,新規,0,2022-04-12,2022-04-12,株式会社小川組,,株式会社,長崎県,大村市,沖田町６８０番地１１,,42,205,8560809,,,,,,,2022-04-12,1,,,,,オガワグミ,0
972,3310003004328,新規,0,2022-04-12,2022-04-12,長崎出島四季彩カンパニー合同会社,,合同会社,長崎県,長崎市,かき道３丁目３番１６号,,42,201,8510115,,,,,,,2022-04-12,1,,,,,ナガサキデジマシキサイカンパニー,0
973,3310005008608,新規,0,2022-04-12,2022-04-12,特定非営利活動法人学童保育真城,,その他の設立登記法人,長崎県,諫早市,真崎町１０３７番地３,,42,204,8540084,,,,,,,2022-04-12,1,,,,,ガクドウホイクシンジョウ,0
974,3320003003774,新規,0,2022-04-12,2022-04-12,合同会社ＩＤ’ｓ,,合同会社,大分県,玖珠郡玖珠町,大字戸畑６５４９番地の７,,44,462,8794331,,,,,,,2022-04-12,1,,,,,アイドズ,0
975,3320005009984,新規,0,2022-04-12,2022-04-12,社会福祉法人雅会,,その他の設立登記法人,大分県,玖珠郡玖珠町,大字塚脇４２８番地の１,,44,462,8794413,,,,,,,2022-04-12,1,,,,,ミヤビカイ,0
977,3330001029639,新規,0,2022-04-12,2022-04-12,株式会社帝建,,株式会社,熊本県,熊本市東区,昭和町１２－２７－３０１,,43,102,8612108,,,,,,,2022-04-12,1,,,,,テイケン,0
978,3330003009325,新規,0,2022-04-12,2022-04-12,ＭＡＥＤＡ合同会社,,合同会社,熊本県,荒尾市,水野１３３０番地,,43,204,8640023,,,,,,,2022-04-12,1,,,,,マエダ,0
979,3330005010495,新規,0,2022-04-12,2022-04-12,一般社団法人山鹿温泉観光協会,,その他の設立登記法人,熊本県,山鹿市,中央通５１０番地２,,43,208,8610516,,,,,,,2022-04-12,1,,,,,ヤマガオンセンカンコウキョウカイ,0
984,3340005009446,新規,0,2022-04-12,2022-04-12,ＮＩＳＨＩＤＡ　ＯＦＦＩＣＥ行政書士法人,,その他の設立登記法人,鹿児島県,鹿児島市,光山１丁目１１番２５号,,46,201,8910151,,,,,,,2022-04-12,1,,,,,ニシダオフィス,0
989,3360001030230,新規,0,2022-04-12,2022-04-12,株式会社ＣＨＥＥＲＳ,,株式会社,沖縄県,浦添市,牧港４丁目２番１２号キャッスルステージ牧港２階,,47,208,9012131,,,,,,,2022-04-12,1,,,,,チアーズ,0
990,3360001030263,新規,0,2022-04-12,2022-04-12,株式会社ＳＴＡＲＴＬＩＮＥ,,株式会社,沖縄県,島尻郡南風原町,字兼城２９８番地,,47,350,9011111,,,,,,,2022-04-12,1,,,,,スタートライン,0
991,3370001048453,新規,0,2022-04-12,2022-04-12,株式会社ｂｏｋｕｔａｋｕ,,株式会社,宮城県,仙台市宮城野区,宮千代２丁目１１番２４号コーポＦ１階,,04,102,9830044,,,,,,,2022-04-12,1,,,,,ボクタク,0
1000,3400003002925,新規,0,2022-04-12,2022-04-12,日興電合同会社,,合同会社,岩手県,北上市,村崎野１４地割４８５－２－５,,03,206,0240004,,,,,,,2022-04-12,1,,,,,ニッキョウデン,0
1001,3410001013155,新規,0,2022-04-12,2022-04-12,株式会社ユースクリエイト,,株式会社,秋田県,秋田市,土崎港西１丁目９番１号,,05,201,0110945,,,,,,,2022-04-12,1,,,,,ユースクリエイト,0
1008,3430001086348,新規,0,2022-04-12,2022-04-12,株式会社ＡＣＮ北海道,,株式会社,北海道,札幌市中央区,大通西４丁目６番地１,,01,101,0600042,,,,,,,2022-04-12,1,,,,,エーシーエヌホッカイドウ,0
1011,3430005014429,新規,0,2022-04-12,2022-04-12,医療法人社団弘樹会,,その他の設立登記法人,北海道,札幌市西区,琴似二条１丁目２番１号塚本ビル５５８８ＫＯＴＯＮＩ３Ｆ,,01,107,0630812,,,,,,,2022-04-12,1,,,,,コウジュカイ,0
1017,3700150065298,新規,0,2022-04-12,2015-10-09,宮崎県町村議会議長会,,その他,宮崎県,宮崎市,宮田町１番８号自治会館,,45,201,8800804,,,,,,,2015-10-09,1,,,,,ミヤザキケンチヨウソンギカイギチヨウカイ,0
1018,3700150107629,新規,0,2022-04-12,2022-04-01,ブルスカカンパニー,,その他,東京都,葛飾区,水元３丁目１６－１３フォルビテッツア３０１号,,13,122,1250032,,,,,,,2022-04-01,1,,,,,ブルスカカンパニー,0
1019,3700150107884,新規,0,2022-04-12,2022-04-12,ＳＵＰＥＲ　ＷＡＧＯＮ　ＥＮＴＥＲＰＲＩＳＥＳ,,外国会社等,千葉県,山武市,木原２０３１－２１オフィスＮｏ．２,,12,237,2891212,スリランカ民主社会主義共和国、ラスマラナ、シリマルウヤナ、アソカマワサ、Ｎｏ．１０８,,,,,,2022-04-12,1,,,,,スーパーワゴンエンタープライセス,0
1029,4010001225764,新規,0,2022-04-12,2022-04-12,株式会社ハートデンタルラボ,,株式会社,東京都,中央区,銀座７丁目１５番８号,,13,102,1040061,,,,,,,2022-04-12,1,,,,,ハートデンタルラボ,0
1030,4010001225772,新規,0,2022-04-12,2022-04-12,株式会社ベースコンストラクション,,株式会社,東京都,中央区,銀座１丁目２２番１１号銀座大竹ビジデンス２階,,13,102,1040061,,,,,,,2022-04-12,1,,,,,ベースコンストラクション,0
1031,4010001225822,新規,0,2022-04-12,2022-04-12,株式会社ＮＹＡＷ,,株式会社,東京都,千代田区,平河町２丁目５番３号ＮａｇａｔａｃｈｏＧＲｉＤ５Ｆ,,13,101,1020093,,,,,,,2022-04-12,1,,,,,ニャウ,0
1032,4010001225855,新規,0,2022-04-12,2022-04-12,日本総合技術株式会社,,株式会社,東京都,千代田区,丸の内１丁目９番２号,,13,101,1000005,,,,,,,2022-04-12,1,,,,,ニホンソウゴウギジュツ,0
1033,4010001225913,新規,0,2022-04-12,2022-04-12,株式会社Ｍ＆Ｍ,,株式会社,東京都,中央区,勝どき１丁目１－１プラザ勝どきＢ棟４２９,,13,102,1040054,,,,,,,2022-04-12,1,,,,,エムアンドエム,0
1046,4010403027420,新規,0,2022-04-12,2022-04-12,合同会社Ｎ　Ｌａｂ．,,合同会社,東京都,港区,浜松町２丁目２番１５号浜松町ダイヤビル２Ｆ,,13,103,1050013,,,,,,,2022-04-12,1,,,,,エヌラボ,0
1047,4010403027478,新規,0,2022-04-12,2022-04-12,合同会社リバーベイマネジメント,,合同会社,東京都,港区,六本木６丁目１０番１号六本木ヒルズ森タワー,,13,103,1060032,,,,,,,2022-04-12,1,,,,,リバーベイマネジメント,0
1051,4010501048681,新規,0,2022-04-12,2022-04-12,株式会社カドン,,株式会社,東京都,台東区,西浅草２丁目１番１号,,13,106,1110035,,,,,,,2022-04-12,1,,,,,カドン,0
1052,4010501048698,新規,0,2022-04-12,2022-04-12,株式会社ももの箱,,株式会社,東京都,台東区,西浅草３丁目１９番３－８０１号,,13,106,1110035,,,,,,,2022-04-12,1,,,,,モモノハコ,0
1058,4010601060966,新規,0,2022-04-12,2022-04-12,リヴォーグ株式会社,,株式会社,東京都,墨田区,東向島２丁目４７番７号,,13,107,1310032,,,,,,,2022-04-12,1,,,,,リヴォーグ,0
1060,4010701042501,新規,0,2022-04-12,2022-04-12,株式会社ＪＣＣ,,株式会社,東京都,品川区,東五反田５丁目２５番１８号,,13,109,1410022,,,,,,,2022-04-12,1,,,,,ジェイシーシー,0
1061,4010705003342,新規,0,2022-04-12,2022-04-12,特定非営利活動法人音めぐり,,その他の設立登記法人,東京都,品川区,上大崎３丁目１４番５８号クリエイト目黒２－Ａ,,13,109,1410021,,,,,,,2022-04-12,1,,,,,オトメグリ,0
1062,4010803004135,新規,0,2022-04-12,2022-04-12,合同会社Ａｃｅ,,合同会社,東京都,大田区,大森北３丁目１番１１号,,13,111,1430016,,,,,,,2022-04-12,1,,,,,エース,0
1075,4011105010219,新規,0,2022-04-12,2022-04-12,一般社団法人ＡＴＤＣ,,その他の設立登記法人,東京都,新宿区,築地町４番地神楽坂テクノスビル,,13,104,1620818,,,,,,,2022-04-12,1,,,,,エーティーディーシー,0
1076,4011201023751,新規,0,2022-04-12,2022-04-12,４ＬＩＦＥ株式会社,,株式会社,東京都,中野区,中野３丁目３５番１号,,13,114,1640001,,,,,,,2022-04-12,1,,,,,フォーライフ,0
1085,4011603003574,新規,0,2022-04-12,2022-04-12,レッドフェニックス合同会社,,合同会社,東京都,練馬区,南田中１丁目１４番１２号,,13,120,1770035,,,,,,,2022-04-12,1,,,,,レッドフェニックス,0
1090,4012403005323,新規,0,2022-04-12,2022-04-12,合同会社サンマキエール,,合同会社,東京都,武蔵野市,境南町２丁目６番１９－９０１号,,13,203,1800023,,,,,,,2022-04-12,1,,,,,サンマキエール,0
1094,4012701017020,新規,0,2022-04-12,2022-04-12,株式会社Ｇｒｏｗｉｎｇ,,株式会社,東京都,小平市,鈴木町１丁目５１４番地の９,,13,211,1870011,,,,,,,2022-04-12,1,,,,,グロウイング,0
1095,4012703002441,新規,0,2022-04-12,2022-04-12,にじいろデンタルラボ合同会社,,合同会社,東京都,小平市,花小金井１丁目６番１号,,13,211,1870002,,,,,,,2022-04-12,1,,,,,ニジイロデンタルラボ,0
1098,4012805003107,新規,0,2022-04-12,2022-04-12,一般社団法人１０代と社会をつなぐプロジェクト,,その他の設立登記法人,東京都,日野市,万願寺４丁目１０番地の１２シンフォートピア高幡ＩＩ４０７,00126247,13,212,1910024,,,,,,,2022-04-12,1,,,,,ジュウダイトシャカイヲツナグプロジェクト,0
1100,4013103001125,新規,0,2022-04-12,2022-04-12,Ｓａｋｅ　Ｇｌｏｂａｌ合同会社,,合同会社,東京都,青梅市,千ヶ瀬町１丁目７番１号ライオンズガーデン河辺リバーサイド５１５,,13,205,1980043,,,,,,,2022-04-12,1,,,,,サケグローバル,0
1113,4020001146051,新規,0,2022-04-12,2022-04-12,株式会社ＤＩＧ　ｍｅ,,株式会社,神奈川県,横浜市神奈川区,台町１番地８－１１０３号,,14,102,2210834,,,,,,,2022-04-12,1,,,,,ディッグミー,0
1119,4020005015483,新規,0,2022-04-12,2022-04-12,医療法人社団正啓会,,その他の設立登記法人,神奈川県,横浜市旭区,鶴ケ峰２丁目９番地１,,14,112,2410022,,,,,,,2022-04-12,1,,,,,セイケイカイ,0
1121,4021005012487,新規,0,2022-04-12,2022-04-12,医療法人社団泰扇会,,その他の設立登記法人,神奈川県,海老名市,扇町３番６号ＭＡＣセントラルビル２階２－Ｃ号室,,14,215,2430436,,,,,,,2022-04-12,1,,,,,タイオウカイ,0
1124,4030001147560,新規,0,2022-04-12,2022-04-12,株式会社ドッグハウス小林,,株式会社,埼玉県,熊谷市,柿沼７８０番地８,,11,202,3600803,,,,,,,2022-04-12,1,,,,,ドッグハウスコバヤシ,0
1128,4030003019213,新規,0,2022-04-12,2022-04-12,合同会社ＰＡＬＰＡＬ　ｃｏｒｐｏｒａｔｉｏｎ,,合同会社,埼玉県,川越市,霞ケ関東１丁目１０－１６ラフォレスタ１０２,,11,201,3501103,,,,,,,2022-04-12,1,,,,,パルパルコーポレーション,0
1129,4030003019221,新規,0,2022-04-12,2022-04-12,合同会社ＨＳＣ,,合同会社,埼玉県,本庄市,朝日町３丁目７－１４リュミエール１号室,,11,211,3670026,,,,,,,2022-04-12,1,,,,,エイチエスシー,0
1130,4030005020805,新規,0,2022-04-12,2022-04-12,医療法人社団翔香会,,その他の設立登記法人,埼玉県,さいたま市南区,南浦和３丁目３番７号,,11,108,3360017,,,,,,,2022-04-12,1,,,,,ショウコウカイ,0
1138,4040001123016,新規,0,2022-04-12,2022-04-12,株式会社まさみファーム,,株式会社,千葉県,いすみ市,高谷２０７１番地２,00126259,12,238,2980021,,,,,,,2022-04-12,1,,,,,マサミファーム,0
1139,4040001123024,新規,0,2022-04-12,2022-04-12,株式会社Ａｘｉｓ,,株式会社,千葉県,千葉市中央区,花輪町４６番地１２７,,12,101,2600803,,,,,,,2022-04-12,1,,,,,アクシス,0
1143,4040003019872,新規,0,2022-04-12,2022-04-12,久遠多夢合同会社,,合同会社,千葉県,市川市,八幡３丁目１０－１３本八幡十番館２０１,,12,203,2720021,,,,,,,2022-04-12,1,,,,,クオンタム,0
1149,4050003006481,新規,0,2022-04-12,2022-04-12,合同会社ＲｅＢｕｉｌｄ,,合同会社,茨城県,土浦市,中高津１丁目１０番３６号,,08,203,3000815,,,,,,,2022-04-12,1,,,,,リビルド,0
1151,4060001034756,新規,0,2022-04-12,2022-04-12,株式会社Ｐａｒａｂｅｌｌｕｍ,,株式会社,栃木県,宇都宮市,戸祭町２６３８－１２,,09,201,3200053,,,,,,,2022-04-12,1,,,,,パラベラム,0
1158,4080001024870,新規,0,2022-04-12,2022-04-12,ラピスフィオーレ株式会社,,株式会社,静岡県,牧之原市,和田１２７番地１,,22,226,4210507,,,,,,,2022-04-12,1,,,,,ラピスフィオーレ,0
1163,4080405007447,新規,0,2022-04-12,2022-04-12,一般社団法人脊椎技術支援,,その他の設立登記法人,静岡県,浜松市中区,住吉２丁目３４－２２,,22,131,4300906,,,,,,,2022-04-12,1,,,,,セキツイギジュツシエン,0
1167,4100005012852,新規,0,2022-04-12,2022-04-12,一般社団法人Ｅｉｒ,,その他の設立登記法人,長野県,上田市,上田原５０１番地１８,,20,203,3861102,,,,,,,2022-04-12,1,,,,,エイル,0
1171,4110005016778,新規,0,2022-04-12,2022-04-12,一般社団法人中郷区さとまる学校,,その他の設立登記法人,新潟県,上越市,中郷区藤沢９８６番地１,,15,222,9492302,,,,,,,2022-04-12,1,,,,,ナカゴウクサトマルガッコウ,0
1185,4120001245132,新規,0,2022-04-12,2022-04-12,ヒュオンスジャパン株式会社,,株式会社,大阪府,大阪市北区,梅田２丁目２番２号ヒルトンプラザウエストオフィスタワー１８階,,27,127,5300001,,,,,,,2022-04-12,1,,,,,ヒュオンスジャパン,0
1190,4120003021374,新規,0,2022-04-12,2022-04-12,合同会社ナノハナ,,合同会社,大阪府,大阪市淀川区,三津屋南１丁目１２番１７号フジパレス神崎川ＩＩ番館２０２号,00126258,27,123,5320035,,,,,,,2022-04-12,1,,,,,ナノハナ,0
1193,4120101065364,新規,0,2022-04-12,2022-04-12,株式会社ストーンワークス,,株式会社,大阪府,岸和田市,上野町西１２番８号,,27,202,5960048,,,,,,,2022-04-12,1,,,,,ストーンワークス,0
1194,4120101065372,新規,0,2022-04-12,2022-04-12,ＭＩＲＡＩ株式会社,,株式会社,大阪府,堺市堺区,甲斐町東５丁１番１０号甲斐町ハイツ１０２,,27,141,5900953,,,,,,,2022-04-12,1,,,,,ミライ,0
1197,4120103004634,新規,0,2022-04-12,2022-04-12,合同会社ＭＫＫ,,合同会社,大阪府,堺市堺区,香ヶ丘町２丁１１番２６号,,27,141,5900011,,,,,,,2022-04-12,1,,,,,エムケーケー,0
1199,4120901045846,新規,0,2022-04-12,2022-04-12,株式会社ベックマン,,株式会社,大阪府,豊中市,庄内西町３丁目７－３４,,27,203,5610832,,,,,,,2022-04-12,1,,,,,ベックマン,0
1200,4120903004107,新規,0,2022-04-12,2022-04-12,合同会社ウェブアドプラス,,合同会社,大阪府,茨木市,彩都やまぶき２丁目２番Ａ－１１０３号,,27,211,5670086,,,,,,,2022-04-12,1,,,,,ウェブアドプラス,0
1203,4130001071461,新規,0,2022-04-12,2022-04-12,覚・プランニング株式会社,,株式会社,京都府,京都市右京区,北嵯峨北ノ段町４４番地６,,26,108,6168441,,,,,,,2022-04-12,1,,,,,カクプランニング,0
1204,4130001071528,新規,0,2022-04-12,2022-04-12,株式会社興島建設,,株式会社,京都府,京都市北区,大北山原谷乾町６０番地１,,26,101,6038487,,,,,,,2022-04-12,1,,,,,オキシマケンセツ,0
1206,4130003007868,新規,0,2022-04-12,2022-04-12,ＮｅｏＳｅｅ合同会社,,合同会社,京都府,城陽市,寺田西ノ口９４－１９,,26,207,6100121,,,,,,,2022-04-12,1,,,,,ネオシー,0
1218,4140003017560,新規,0,2022-04-12,2022-04-12,やねこま合同会社,,合同会社,兵庫県,伊丹市,池尻１丁目１９６番地パストラル昆陽１１２号,,28,207,6640027,,,,,,,2022-04-12,1,,,,,ヤネコマ,0
1236,4180001150839,新規,0,2022-04-12,2022-04-12,株式会社フラットバランス,,株式会社,愛知県,名古屋市千種区,観月町１丁目８番地,,23,101,4640831,,,,,,,2022-04-12,1,,,,,フラットバランス,0
1242,4180301036102,新規,0,2022-04-12,2022-04-12,株式会社吉見建材,,株式会社,愛知県,蒲郡市,形原町北上松６番地１,,23,214,4430104,,,,,,,2022-04-12,1,,,,,ヨシミケンザイ,0
1250,4190003003952,新規,0,2022-04-12,2022-04-12,合同会社Ｏｋａｗａ,,合同会社,三重県,津市,久居二ノ町１６２６,,24,201,5141121,,,,,,,2022-04-12,1,,,,,オオカワ,0
1265,4240001059611,新規,0,2022-04-12,2022-04-12,ＬＥＡＬＥ株式会社,,株式会社,広島県,広島市中区,江波南２丁目９番３７号,,34,101,7300835,,,,,,,2022-04-12,1,,,,,レアーレ,0
1275,4260001036716,新規,0,2022-04-12,2022-04-12,株式会社ＮＡＲＡＺＡＫＩ　ｋｅ,,株式会社,岡山県,倉敷市,真備町上二万３０９１番地２０８,,33,202,7101315,,,,,,,2022-04-12,1,,,,,ナラザキケ,0
1278,4270001008490,新規,0,2022-04-12,2022-04-12,株式会社オーエスホーム,,株式会社,鳥取県,鳥取市,青葉町１丁目１１１番地,,31,201,6800802,,,,,,,2022-04-12,1,,,,,オーエスホーム,0
1287,4290001097037,新規,0,2022-04-12,2022-04-12,株式会社ＮＥＸＴ,,株式会社,福岡県,福岡市東区,松島１丁目３４番１６－５０４号,,40,131,8120062,,,,,,,2022-04-12,1,,,,,ネクスト,0
1288,4290001097094,新規,0,2022-04-12,2022-04-12,ｑｏｗｌａ株式会社,,株式会社,福岡県,福岡市中央区,警固２丁目１５番２０号まどかビル３０１号室,,40,133,8100023,,,,,,,2022-04-12,1,,,,,カウラ,0
1289,4290001097169,新規,0,2022-04-12,2022-04-12,株式会社ｈａｎａリアルエステート,,株式会社,福岡県,福岡市中央区,荒戸３丁目２番８－５０２号,,40,133,8100062,,,,,,,2022-04-12,1,,,,,ハナリアルエステート,0
1291,4290005018633,新規,0,2022-04-12,2022-04-12,医療法人森田クリニック,,その他の設立登記法人,福岡県,福岡市中央区,大手門１丁目４番２１号,,40,133,8100074,,,,,,,2022-04-12,1,,,,,モリタクリニック,0
1294,4290801028430,新規,0,2022-04-12,2022-04-12,トレジャーライフ株式会社,,株式会社,福岡県,遠賀郡遠賀町,遠賀川２丁目４番１０－１０７号,,40,384,8114307,,,,,,,2022-04-12,1,,,,,トレジャーライフ,0
1298,4310001017818,新規,0,2022-04-12,2022-04-12,アシタカデザイン株式会社,,株式会社,長崎県,佐世保市,本島町１番１号本島ビル４Ｆ,,42,202,8570871,,,,,,,2022-04-12,1,,,,,アシタカデザイン,0
1301,4310003004327,新規,0,2022-04-12,2022-04-12,合同会社ウィンクルム,,合同会社,長崎県,諫早市,下大渡野町２６９４番地３,,42,204,8540096,,,,,,,2022-04-12,1,,,,,ウィンクルム,0
1302,4320001019012,新規,0,2022-04-12,2022-04-12,株式会社ＯＭＮＩＳ　ＤＥＳＩＧＮ,,株式会社,大分県,大分市,王子北町４番６９号,,44,201,8700005,,,,,,,2022-04-12,1,,,,,オムニスデザイン,0
1303,4320003003773,新規,0,2022-04-12,2022-04-12,合同会社ＦＩＮＤＦＯＵＮＤ,,合同会社,大分県,別府市,田の湯町３番７号アライアンスタワーＺ４階,,44,202,8740909,,,,,,,2022-04-12,1,,,,,ファインドファウンド,0
1304,4320005009983,新規,0,2022-04-12,2022-04-12,ＮＰＯ法人大分セントラルスポーツクラブ,,その他の設立登記法人,大分県,大分市,大字千歳２３９番地の３７,,44,201,8700132,,,,,,,2022-04-12,1,,,,,オオイタセントラルスポーツクラブ,0
1305,4330001029638,新規,0,2022-04-12,2022-04-12,株式会社ＪＯＬＩＥ　ＪＯＬＩＥ,,株式会社,熊本県,熊本市東区,八反田３丁目４番２２号,,43,102,8618034,,,,,,,2022-04-12,1,,,,,ジョリジョリ,0
1312,4360003011921,新規,0,2022-04-12,2022-04-12,合同会社ソーシャルサポートいろは,,合同会社,沖縄県,豊見城市,字高嶺３９５番地９９号サンライフ高嶺６０２号室,,47,212,9010213,,,,,,,2022-04-12,1,,,,,ソーシャルサポートイロハ,0
1313,4360005006622,新規,0,2022-04-12,2022-04-12,学校法人永志学園,,その他の設立登記法人,沖縄県,沖縄市,諸見里１丁目２５番１号,,47,211,9040032,,,,,,,2022-04-12,1,,,,,エイシガクエン,0
1316,4370001048444,新規,0,2022-04-12,2022-04-12,ゴールドクロス株式会社,,株式会社,宮城県,仙台市青葉区,落合１丁目１６番６８号,,04,101,9893126,,,,,,,2022-04-12,1,,,,,ゴールドクロス,0
1329,4380005012569,新規,0,2022-04-12,2022-04-12,只見働き隊事業協同組合,,その他の設立登記法人,福島県,南会津郡只見町,大字梁取字沖９９６番地の１,,07,367,9680603,,,,,,,2022-04-12,1,,,,,タダミハタラキタイジギョウ,0
1344,4430003013786,新規,0,2022-04-12,2022-04-12,合同会社北国熱源社,,合同会社,北海道,札幌市中央区,南九条西３丁目１番７号,,01,101,0640809,,,,,,,2022-04-12,1,,,,,キタグニネツゲンシャ,0
1345,4430003013794,新規,0,2022-04-12,2022-04-12,合同会社ｊ，ｓ，ｃｏｍｐａｎｙ,,合同会社,北海道,札幌市北区,拓北四条３丁目１番７号,,01,102,0028064,,,,,,,2022-04-12,1,,,,,ジェーエスカンパニー,0
1348,4430005014444,新規,0,2022-04-12,2022-04-12,一般社団法人きれいとげんきのサポートスクール,,その他の設立登記法人,北海道,札幌市手稲区,前田八条１４丁目３番１５号,,01,109,0060818,,,,,,,2022-04-12,1,,,,,キレイトゲンキノサポートスクール,0
1356,4700150107537,新規,0,2022-04-12,2022-03-29,ＮＡＬＤＹ,,その他,岡山県,岡山市北区,下伊福本町８－２６,,33,101,7000053,,,,,,,2022-03-29,1,,,,,ナルデイ,0
1357,4700150107561,新規,0,2022-04-12,2022-03-31,軽井沢森の音楽祭実行委員会,,その他,兵庫県,赤穂郡上郡町,井上１９５－２,,28,481,6781251,,,,,,,2022-03-31,1,,,,,カルイザワモリノオンガクサイジツコウイインカイ,0
1358,4700150107628,新規,0,2022-04-12,2022-04-01,大澤アートアンサンブル,,その他,東京都,杉並区,宮前２丁目３０－２２メゾン宮前１１６,,13,115,1680081,,,,,,,2022-04-01,1,,,,,オオサワアートアンサンブル,0
1359,4700150107883,新規,0,2022-04-12,2022-04-12,ＣＡＲ　ＭＡＲＴ　ＥＮＴＥＲＰＲＩＳＥＳ,,外国会社等,千葉県,山武市,木原２０３１－２１オフィスＮｏ．４,,12,237,2891212,スリランカ民主社会主義共和国、キャンディ、ワッテガマ、ピティイゲダラ、キャンディロード、Ｎｏ．４１０／１／Ｂ,,,,,,2022-04-12,1,,,,,カーマートエンタープライセス,0
1367,5010001225648,新規,0,2022-04-12,2022-04-12,株式会社クリーンハーモニー,,株式会社,東京都,中央区,八丁堀４丁目１３番４号ＳＫビル３階,,13,102,1040032,,,,,,,2022-04-12,1,,,,,クリーンハーモニー,0
1368,5010001225656,新規,0,2022-04-12,2022-04-12,株式会社ＶＡＩＸ　ＪＡＰＡＮ,,株式会社,東京都,千代田区,岩本町２丁目８番８号ユニゾ岩本町二丁目ビル２階,,13,101,1010032,,,,,,,2022-04-12,1,,,,,バイエックスジャパン,0
1369,5010001225689,新規,0,2022-04-12,2022-04-12,株式会社クリーンテクノ,,株式会社,東京都,中央区,京橋３丁目９番６号,,13,102,1040031,,,,,,,2022-04-12,1,,,,,クリーンテクノ,0
1370,5010001225722,新規,0,2022-04-12,2022-04-12,コウソミル株式会社,,株式会社,東京都,文京区,本郷５丁目２５番１８号,,13,105,1130033,,,,,,,2022-04-12,1,,,,,コウソミル,0
1371,5010001225755,新規,0,2022-04-12,2022-04-12,株式会社ＫＴフィナンシャル,,株式会社,東京都,中央区,日本橋兜町１７番１号日本橋ロイヤルプラザ７０６,,13,102,1030026,,,,,,,2022-04-12,1,,,,,ケーティーフィナンシャル,0
1372,5010001225813,新規,0,2022-04-12,2022-04-12,ロル株式会社,,株式会社,東京都,中央区,銀座７丁目１３番６号サガミビル２階,,13,102,1040061,,,,,,,2022-04-12,1,,,,,ロル,0
1373,5010001225838,新規,0,2022-04-12,2022-04-12,株式会社ＧＥＯＴＲＡ,,株式会社,東京都,千代田区,大手町１丁目２番１号,,13,101,1000004,,,,,,,2022-04-12,1,,,,,ジオトラ,0
1380,5010003037463,新規,0,2022-04-12,2022-04-12,日本コールドチェーン１号合同会社,,合同会社,東京都,中央区,日本橋１丁目４番１号,,13,102,1030027,,,,,,,2022-04-12,1,,,,,ニホンコールドチェーンイチゴウ,0
1384,5010005034830,新規,0,2022-04-12,2022-04-12,弁護士法人芝田総合法律事務所,,その他の設立登記法人,東京都,中央区,銀座５丁目１０番６号,,13,102,1040061,,,,,,,2022-04-12,1,,,,,シバタソウゴウホウリツジムショ,0
1385,5010005034863,新規,0,2022-04-12,2022-04-12,スカイホスピタリティー一般社団法人,,その他の設立登記法人,東京都,千代田区,霞が関３丁目２番５号,,13,101,1000013,,,,,,,2022-04-12,1,,,,,,0
1392,5010401166590,新規,0,2022-04-12,2022-04-12,株式会社Ｏｎｅ　Ｌｅａｆ　Ｃｌｏｖｅｒ,,株式会社,東京都,港区,新橋４丁目１番１号,,13,103,1050004,,,,,,,2022-04-12,1,,,,,ワンリーフクローバー,0
1393,5010401166698,新規,0,2022-04-12,2022-04-12,ＨＰＬＵＳ　ｓｐａｃｅ株式会社,,株式会社,東京都,港区,赤坂７丁目９番７号バルビゾン７４－６Ｆ,,13,103,1070052,,,,,,,2022-04-12,1,,,,,エイチプラススペース,0
1394,5010401166715,新規,0,2022-04-12,2022-04-12,株式会社大洋商事,,株式会社,東京都,港区,高輪４丁目２３番６号ハイホーム高輪７０８,,13,103,1080074,,,,,,,2022-04-12,1,,,,,ダイヨウショウジ,0
1395,5010403027444,新規,0,2022-04-12,2022-04-12,合同会社ＴＯＲＣＨ．,,合同会社,東京都,港区,元赤坂１丁目１番７－１００８号オリエント赤坂モートサイド,,13,103,1070051,,,,,,,2022-04-12,1,,,,,トーチ,0
1396,5010403027477,新規,0,2022-04-12,2022-04-12,合同会社内神田リーシング,,合同会社,東京都,港区,六本木６丁目１０番１号六本木ヒルズ森タワー,,13,103,1060032,,,,,,,2022-04-12,1,,,,,ウチカンダリーシング,0
1408,5010701042467,新規,0,2022-04-12,2022-04-12,株式会社クッシー,,株式会社,東京都,品川区,旗の台６丁目２４番１６号ＫＯＵＷＡＲＥＳＩＤＥＮＣＥ２０１,,13,109,1420064,,,,,,,2022-04-12,1,,,,,クッシー,0
1429,5011001146867,新規,0,2022-04-12,2022-04-12,恵比寿商事株式会社,,株式会社,東京都,渋谷区,恵比寿西２丁目１３番１号,,13,113,1500021,,,,,,,2022-04-12,1,,,,,エビスショウジ,0
1436,5011003014527,新規,0,2022-04-12,2022-04-12,Ｓｈｉｂｕｙａ　Ｃｏｓｍｅｔｉｃｓ合同会社,,合同会社,東京都,渋谷区,円山町７番１号,,13,113,1500044,,,,,,,2022-04-12,1,,,,,シブヤコスメティクス,0
1446,5011201023759,新規,0,2022-04-12,2022-04-12,株式会社Ｃｈａｕｄ　Ｒｅａｌ　Ｅｓｔａｔｅ,,株式会社,東京都,中野区,中央２丁目２９番１５号,,13,114,1640011,,,,,,,2022-04-12,1,,,,,チャウドリアルエステート,0
1447,5011203003775,新規,0,2022-04-12,2022-04-12,合同会社メタリース,,合同会社,東京都,中野区,中央３丁目１番３－１０１号,,13,114,1640011,,,,,,,2022-04-12,1,,,,,メタリース,0
1448,5011205002486,新規,0,2022-04-12,2022-04-12,一般社団法人日本救急往診協会,,その他の設立登記法人,東京都,中野区,中野２丁目２番３号株式会社へるす出版内,,13,114,1640001,,,,,,,2022-04-12,1,,,,,ニホンキュウキュウオウシンキョウカイ,0
1453,5011405002195,新規,0,2022-04-12,2022-04-12,一般社団法人桂格,,その他の設立登記法人,東京都,板橋区,常盤台１丁目４０番１６号,,13,119,1740071,,,,,,,2022-04-12,1,,,,,ケイカク,0
1454,5011501027930,新規,0,2022-04-12,2022-04-12,東嘉株式会社,,株式会社,東京都,荒川区,西日暮里２丁目２６番１０号－９Ｆ,,13,118,1160013,,,,,,,2022-04-12,1,,,,,トウカ,0
1455,5011503005133,新規,0,2022-04-12,2022-04-12,合同会社Ｈａｃｏｐｌｕｓ,,合同会社,東京都,荒川区,南千住２丁目８番４号,,13,118,1160003,,,,,,,2022-04-12,1,,,,,ハコプラス,0
1458,5011603003573,新規,0,2022-04-12,2022-04-12,中信商事合同会社,,合同会社,東京都,練馬区,錦１丁目４０番９－２０１号,,13,120,1790082,,,,,,,2022-04-12,1,,,,,ナカシンショウジ,0
1460,5011701025214,新規,0,2022-04-12,2022-04-12,株式会社Ｆｌｏｙｄ,,株式会社,東京都,江戸川区,東葛西６丁目３４番１５号リュミエール・デュ・ソレイユ１０５,,13,123,1340084,,,,,,,2022-04-12,1,,,,,フロイド,0
1465,5012401039066,新規,0,2022-04-12,2022-04-12,ごほうび株式会社,,株式会社,東京都,調布市,飛田給１丁目４５番地１５トムハイツＩＩ２０１号室,00126257,13,208,1820036,,,,,,,2022-04-12,1,,,,,ゴホウビ,0
1466,5012703002440,新規,0,2022-04-12,2022-04-12,ジェントルワールド合同会社,,合同会社,東京都,西東京市,北町２丁目８番５号,,13,229,2020003,,,,,,,2022-04-12,1,,,,,ジェントルワールド,0
1472,5013301048917,新規,0,2022-04-12,2022-04-12,株式会社畑中企画,,株式会社,東京都,豊島区,池袋２丁目４番６号徳永第３ビル４階Ｂ号室,,13,116,1710014,,,,,,,2022-04-12,1,,,,,ハタナカキカク,0
1476,5020001146034,新規,0,2022-04-12,2022-04-12,ハイビレッジ株式会社,,株式会社,神奈川県,川崎市宮前区,小台１丁目７番地３４,,14,136,2160007,,,,,,,2022-04-12,1,,,,,ハイビレッジ,0
1477,5020001146042,新規,0,2022-04-12,2022-04-12,ＲＡＫＳ．ｃｏ株式会社,,株式会社,神奈川県,横浜市磯子区,杉田５丁目１１番９号,,14,107,2350033,,,,,,,2022-04-12,1,,,,,ラックスカンパニー,0
1478,5020001146059,新規,0,2022-04-12,2022-04-12,株式会社ＮＳＦ,,株式会社,神奈川県,川崎市麻生区,片平１５２１番地１３,,14,137,2150023,,,,,,,2022-04-12,1,,,,,エヌエスエフ,0
1479,5020001146083,新規,0,2022-04-12,2022-04-12,株式会社アール,,株式会社,神奈川県,横浜市都筑区,川和台３番１８号,,14,118,2240056,,,,,,,2022-04-12,1,,,,,アール,0
1482,5020005015474,新規,0,2022-04-12,2022-04-12,日本さくら協同組合,,その他の設立登記法人,神奈川県,川崎市川崎区,新川通２番１号,,14,131,2100013,,,,,,,2022-04-12,1,,,,,ニホンサクラ,0
1483,5020005015482,新規,0,2022-04-12,2022-04-12,医療法人横濱浩鳳会,,その他の設立登記法人,神奈川県,横浜市都筑区,仲町台２丁目９番１２号,,14,118,2240041,,,,,,,2022-04-12,1,,,,,ヨコハマコウホウカイ,0
1489,5021003011564,新規,0,2022-04-12,2022-04-12,いろどり合同会社,,合同会社,神奈川県,相模原市緑区,下九沢１９０３番地７サンプラザコメット２０１,,14,151,2520134,,,,,,,2022-04-12,1,,,,,イロドリ,0
1501,5030003019220,新規,0,2022-04-12,2022-04-12,ＪＹ　ＭＯＴＯＲＳ合同会社,,合同会社,埼玉県,大里郡寄居町,大字西ノ入４１６番地４５,,11,408,3691225,,,,,,,2022-04-12,1,,,,,ジェイワイモータース,0
1507,5040001123015,新規,0,2022-04-12,2022-04-12,株式会社ダイバーシステム,,株式会社,千葉県,松戸市,松戸１３０７－１松戸ビル１３Ｆ,,12,207,2710092,,,,,,,2022-04-12,1,,,,,ダイバーシステム,0
1508,5040001123023,新規,0,2022-04-12,2022-04-12,スマイルロック株式会社,,株式会社,千葉県,市川市,南大野２丁目４番４２号,,12,203,2720804,,,,,,,2022-04-12,1,,,,,スマイルロック,0
1516,5050001050902,新規,0,2022-04-12,2022-04-12,株式会社ＲＧＢ,,株式会社,茨城県,守谷市,百合ケ丘３丁目２４９番地１イオンタウン守谷１Ｆ,,08,224,3020110,,,,,,,2022-04-12,1,,,,,アールジービー,0
1519,5050003006497,新規,0,2022-04-12,2022-04-12,合同会社Ｐｒｉｍｉｔｉｖｅ　ｈｕｔ,,合同会社,茨城県,東茨城郡大洗町,大貫町２５６－８２,,08,309,3111311,,,,,,,2022-04-12,1,,,,,プリミティヴハット,0
1520,5050005013046,新規,0,2022-04-12,2022-04-12,一般社団法人茨城県卓球連盟,,その他の設立登記法人,茨城県,笠間市,長兎路６９６番地,,08,216,3091712,,,,,,,2022-04-12,1,,,,,イバラキケンタッキュウレンメイ,0
1536,5070005009975,新規,0,2022-04-12,2022-04-12,一般社団法人群馬県卓球協会,,その他の設立登記法人,群馬県,前橋市,荒牧町２丁目２３番地４Ｂ－２０１,,10,201,3710044,,,,,,,2022-04-12,1,,,,,グンマケンタッキュウキョウカイ,0
1539,5080401025749,新規,0,2022-04-12,2022-04-12,ミントハウス株式会社,,株式会社,静岡県,浜松市中区,広沢１丁目５番３１号,,22,131,4328013,,,,,,,2022-04-12,1,,,,,ミントハウス,0
1549,5100005012851,新規,0,2022-04-12,2022-04-12,一般社団法人池田町観光協会,,その他の設立登記法人,長野県,北安曇郡池田町,大字池田４１６９番地３,,20,481,3998601,,,,,,,2022-04-12,1,,,,,イケダマチカンコウキョウカイ,0
1558,5110001036589,新規,0,2022-04-12,2022-04-12,株式会社松本総建,,株式会社,新潟県,長岡市,宮本町４丁目甲１６９１番地,,15,202,9402042,,,,,,,2022-04-12,1,,,,,マツモトソウケン,0
1572,5120001245189,新規,0,2022-04-12,2022-04-12,株式会社タタアイズ,,株式会社,大阪府,大阪市東淀川区,西淡路１丁目１７－１２,,27,114,5330031,,,,,,,2022-04-12,1,,,,,タタアイズ,0
1580,5120003021472,新規,0,2022-04-12,2022-04-12,合同会社ＴＥｃｈ８９,,合同会社,大阪府,大阪市福島区,福島１丁目５番１３号,,27,103,5530003,,,,,,,2022-04-12,1,,,,,テックハック,0
1583,5120101065363,新規,0,2022-04-12,2022-04-12,株式会社ヴァルシス,,株式会社,大阪府,堺市堺区,三宝町５丁２８７－３,,27,141,5900906,,,,,,,2022-04-12,1,,,,,ヴァルシス,0
1592,5130001071510,新規,0,2022-04-12,2022-04-12,株式会社谷口,,株式会社,京都府,京都市右京区,西院三蔵町１６番地,,26,108,6160000,,,,,,,2022-04-12,1,,,,,タニグチ,0
1594,5130003007867,新規,0,2022-04-12,2022-04-12,合同会社ユキちゃん,,合同会社,京都府,城陽市,寺田樋尻５６番地の２９,00126248,26,207,6100121,,,,,,,2022-04-12,1,,,,,ユキチャン,0
1600,5140001125587,新規,0,2022-04-12,2022-04-12,吉田設備株式会社,00126256,株式会社,兵庫県,加古川市,加古川町北在家４５４番地の５,,28,210,6750031,,,,,,,2022-04-12,1,,,,,ヨシダセツビカブシキガシャ,0
1604,5140003017568,新規,0,2022-04-12,2022-04-12,すまいる倶楽部合同会社,,合同会社,兵庫県,神戸市垂水区,西舞子３丁目９番１０号,,28,108,6550048,,,,,,,2022-04-12,1,,,,,スマイルクラブ,0
1607,5150001025448,新規,0,2022-04-12,2022-04-12,株式会社みどりＤｅｓｉｇｎ室,,株式会社,奈良県,奈良市,東登美ヶ丘４丁目１６番２号,,29,201,6310002,,,,,,,2022-04-12,1,,,,,ミドリデザインシツ,0
1608,5150001025456,新規,0,2022-04-12,2022-04-12,株式会社ユニバーサルリテイリング,,株式会社,奈良県,五條市,田園３丁目３１番地の１４,,29,207,6370093,,,,,,,2022-04-12,1,,,,,ユニバーサルリテイリング,0
1625,5180001150862,新規,0,2022-04-12,2022-04-12,株式会社ＤＴＣ,,株式会社,愛知県,北名古屋市,鍜治ケ一色西二丁目１９５番地フルール１０２号室,,23,234,4810037,,,,,,,2022-04-12,1,,,,,ディーティーシー,0
1632,5180301036101,新規,0,2022-04-12,2022-04-12,株式会社Ｄ．Ｉ．Ｇ,,株式会社,愛知県,刈谷市,南桜町２丁目２５番地リコット刈谷４０６号,,23,210,4480841,,,,,,,2022-04-12,1,,,,,ディーアイジー,0
1633,5180301036126,新規,0,2022-04-12,2022-04-12,株式会社竹中建築,,株式会社,愛知県,岡崎市,井内町字下河原２番地９,,23,202,4440203,,,,,,,2022-04-12,1,,,,,タケナカケンチク,0
1636,5190005011696,新規,0,2022-04-12,2022-04-12,行政書士法人大野事務所,,その他の設立登記法人,三重県,津市,久居射場町６２番地２,,24,201,5141108,,,,,,,2022-04-12,1,,,,,オオノジムショ,0
1645,5220001024797,新規,0,2022-04-12,2022-04-12,株式会社ＡＢＯＢＯＲＡ,,株式会社,石川県,珠洲市,飯田町９部９７番地１,,17,205,9271214,,,,,,,2022-04-12,1,,,,,アボボラ,0
1653,5250001019497,新規,0,2022-04-12,2022-04-12,株式会社ＫＣプランニング,,株式会社,山口県,岩国市,車町３丁目１９番６号,,35,208,7400026,,,,,,,2022-04-12,1,,,,,ケーシープランニング,0
1665,5290001097151,新規,0,2022-04-12,2022-04-12,メイコー株式会社,,株式会社,福岡県,福岡市東区,松崎１丁目４１番３６号,,40,131,8130035,,,,,,,2022-04-12,1,,,,,メイコー,0
1666,5290001097176,新規,0,2022-04-12,2022-04-12,株式会社トゥルー,,株式会社,福岡県,糸島市,志摩桜井１９０３－２,,40,230,8191304,,,,,,,2022-04-12,1,,,,,トゥルー,0
1671,5290005018632,新規,0,2022-04-12,2022-04-12,医療法人花三樹会,,その他の設立登記法人,福岡県,福岡市東区,香椎駅前１丁目１２番２号ＡＳＳＥＴ香椎２階,,40,131,8130013,,,,,,,2022-04-12,1,,,,,カミキカイ,0
1676,5310001017817,新規,0,2022-04-12,2022-04-12,株式会社橋田解体,,株式会社,長崎県,長崎市,梁川町２７番２６号,,42,201,8528013,,,,,,,2022-04-12,1,,,,,ハシダカイタイ,0
1686,5330005010493,新規,0,2022-04-12,2022-04-12,一般社団法人中神温泉,,その他の設立登記法人,熊本県,人吉市,中神町字段５２９番地１,,43,203,8680085,,,,,,,2022-04-12,1,,,,,ナカガミオンセン,0
1687,5330005010502,新規,0,2022-04-12,2022-04-12,一般社団法人シンママ熊本応援団,,その他の設立登記法人,熊本県,熊本市中央区,本荘町７３７番地６フォディアサーティナインビルディング２階,,43,101,8600816,,,,,,,2022-04-12,1,,,,,シンママクマモトオウエンダン,0
1693,5360001030261,新規,0,2022-04-12,2022-04-12,株式会社Ｒｏｔ,,株式会社,沖縄県,那覇市,久茂地１丁目４番６号１階,,47,201,9000015,,,,,,,2022-04-12,1,,,,,ロット,0
1695,5370001048451,新規,0,2022-04-12,2022-04-12,株式会社ボンドファクトリー,,株式会社,宮城県,仙台市青葉区,葉山町５番１０－３０５号,,04,101,9810917,,,,,,,2022-04-12,1,,,,,ボンドファクトリー,0
1708,5410005006459,新規,0,2022-04-12,2022-04-12,農事組合法人北栄ファーム,,その他の設立登記法人,秋田県,鹿角市,花輪字平元古館１番地１,,05,209,0185201,,,,,,,2022-04-12,1,,,,,ホクエイファーム,0
1712,5430001086321,新規,0,2022-04-12,2022-04-12,株式会社ＣＬＥＤＯ,,株式会社,北海道,札幌市南区,川沿一条２丁目１番６号,,01,106,0050801,,,,,,,2022-04-12,1,,,,,クレド,0
1713,5430001086387,新規,0,2022-04-12,2022-04-12,株式会社ジェクス,,株式会社,北海道,札幌市東区,北三十九条東８丁目１番８号１０１号室,,01,103,0070839,,,,,,,2022-04-12,1,,,,,ジェクス,0
1714,5430001086404,新規,0,2022-04-12,2022-04-12,株式会社コンセール,,株式会社,北海道,札幌市中央区,南六条西２丁目８番地５,,01,101,0640806,,,,,,,2022-04-12,1,,,,,コンセール,0
1722,5500001024141,新規,0,2022-04-12,2022-04-12,株式会社１１ｓｔｕｄｉｏ,,株式会社,愛媛県,松山市,北久米町１１４９番地４,,38,201,7900923,,,,,,,2022-04-12,1,,,,,イレブンスタジオ,0
1730,6010001225688,新規,0,2022-04-12,2022-04-12,ニチレキ総研株式会社,,株式会社,東京都,千代田区,九段北４丁目３番２９号,,13,101,1020073,,,,,,,2022-04-12,1,,,,,ニチレキソウケン,0
1731,6010001225705,新規,0,2022-04-12,2022-04-12,ノーブルハウス株式会社,,株式会社,東京都,千代田区,神田淡路町１丁目９番７号３階,,13,101,1010063,,,,,,,2022-04-12,1,,,,,ノーブルハウス,0
1732,6010001225738,新規,0,2022-04-12,2022-04-12,岡三デジタル証券準備株式会社,,株式会社,東京都,中央区,日本橋１丁目１７番６号,,13,102,1030027,,,,,,,2022-04-12,1,,,,,オカサンデジタルショウケンジュンビ,0
1737,6010003037413,新規,0,2022-04-12,2022-04-12,合同会社Ｓｔａｎｄｏｕｔ,,合同会社,東京都,千代田区,九段南１丁目５番６号りそな九段ビル５Ｆ－ＫＳフロア,,13,101,1020074,,,,,,,2022-04-12,1,,,,,スタンドアウト,0
1745,6010005034854,新規,0,2022-04-12,2022-04-12,一般社団法人ステートファーストの会,,その他の設立登記法人,東京都,千代田区,丸の内２丁目３番２号郵船ビルディング１階,,13,101,1000005,,,,,,,2022-04-12,1,,,,,ステートファーストノカイ,0
1757,6010403027476,新規,0,2022-04-12,2022-04-12,合同会社リアルティジャパンワン,,合同会社,東京都,港区,六本木６丁目１０番１号六本木ヒルズ森タワー,,13,103,1060032,,,,,,,2022-04-12,1,,,,,リアルティジャパンワン,0
1759,6010405020883,新規,0,2022-04-12,2022-04-12,ＳＴＡＣＫ　ＯＣＭ特定目的会社,,その他の設立登記法人,東京都,港区,愛宕２丁目５番１号,,13,103,1050002,,,,,,,2022-04-12,1,,,,,スタックオーシーエム,0
1762,6010503006561,新規,0,2022-04-12,2022-04-12,クラフトブルーイング＆テクノロジーズ合同会社,,合同会社,東京都,台東区,松が谷２丁目２－５シントミプラザ稲荷町２０２,,13,106,1110036,,,,,,,2022-04-12,1,,,,,クラフトブルーイングアンドテクノロジーズ,0
1765,6010603009480,新規,0,2022-04-12,2022-04-12,国際総合研究所合同会社,,合同会社,東京都,江東区,豊洲３丁目６番８号,,13,108,1350061,,,,,,,2022-04-12,1,,,,,コクサイソウゴウケンキュウジョ,0
1778,6011001146874,新規,0,2022-04-12,2022-04-12,株式会社ＲａｒｅＧｌｅａｍ,,株式会社,東京都,渋谷区,東２丁目１５番２号ｔｒｉａｓ２１４－６０１,,13,113,1500011,,,,,,,2022-04-12,1,,,,,レアグリーム,0
1788,6011105010225,新規,0,2022-04-12,2022-04-12,医療法人社団雄慶会,,その他の設立登記法人,東京都,新宿区,新宿７丁目２７番１２号コンフォリア東新宿ステーションフロント２階,,13,104,1600022,,,,,,,2022-04-12,1,,,,,ユウケイカイ,0
1790,6011201023758,新規,0,2022-04-12,2022-04-12,株式会社Ｒ＆Ｊ,,株式会社,東京都,中野区,弥生町３丁目３２番６号,,13,114,1640013,,,,,,,2022-04-12,1,,,,,アールアンドジェイ,0
1796,6011601025882,新規,0,2022-04-12,2022-04-12,株式会社クローバー,,株式会社,東京都,練馬区,向山２丁目９番２－１０１号,,13,120,1760022,,,,,,,2022-04-12,1,,,,,クローバー,0
1797,6011603003572,新規,0,2022-04-12,2022-04-12,合同会社アッシュコー,,合同会社,東京都,練馬区,早宮１丁目１３番１１号サンヒルズ早宮４０１,,13,120,1790085,,,,,,,2022-04-12,1,,,,,アッシュコー,0
1798,6011701025213,新規,0,2022-04-12,2022-04-12,株式会社Ｆｅｅｌ,,株式会社,東京都,江戸川区,北小岩３丁目２４番１５号,,13,123,1330051,,,,,,,2022-04-12,1,,,,,フィール,0
1800,6011801040566,新規,0,2022-04-12,2022-04-12,株式会社Ｋｉｎｇ　Ｖａｌｌｅｙ,,株式会社,東京都,足立区,千住２丁目６２番地ラフェットビル２Ｆ,,13,121,1200034,,,,,,,2022-04-12,1,,,,,キングバレー,0
1817,6020003021548,新規,0,2022-04-12,2022-04-12,フリープレイス合同会社,,合同会社,神奈川県,川崎市幸区,南加瀬３丁目３８番２２号,,14,132,2120055,,,,,,,2022-04-12,1,,,,,フリープレイス,0
1818,6020003021572,新規,0,2022-04-12,2022-04-12,クリンネスジャパン合同会社,,合同会社,神奈川県,横浜市港北区,大倉山６丁目１４番１１号２階,,14,109,2220037,,,,,,,2022-04-12,1,,,,,クリンネスジャパン,0
1819,6020003021589,新規,0,2022-04-12,2022-04-12,合同会社ｅｘｃｉｔｅｄ,,合同会社,神奈川県,川崎市多摩区,堰１丁目３番８－３号,,14,135,2140022,,,,,,,2022-04-12,1,,,,,エキサイティド,0
1828,6030001147708,新規,0,2022-04-12,2022-04-12,株式会社ＬＯＮ,,株式会社,埼玉県,さいたま市大宮区,天沼町１丁目４１６番地ロワイヤルフレーズ武蔵野２０８号室,,11,103,3300834,,,,,,,2022-04-12,1,,,,,エルオーエヌ,0
1831,6030005020803,新規,0,2022-04-12,2022-04-12,一般社団法人ｉ‐Ｓｏｒａ,,その他の設立登記法人,埼玉県,さいたま市見沼区,島町１１９９番地２３,,11,104,3370006,,,,,,,2022-04-12,1,,,,,イソラ,0
1832,6040001122973,新規,0,2022-04-12,2022-04-12,株式会社トータルサポート,,株式会社,千葉県,野田市,山崎１４１８番地の６,,12,208,2780022,,,,,,,2022-04-12,1,,,,,トータルサポート,0
1833,6040001122981,新規,0,2022-04-12,2022-04-12,株式会社サイアム,,株式会社,千葉県,我孫子市,つくし野７丁目１番６号,,12,222,2701164,,,,,,,2022-04-12,1,,,,,サイアム,0
1834,6040001123014,新規,0,2022-04-12,2022-04-12,株式会社ＮＥＷＥＲＳ,,株式会社,千葉県,市川市,二俣１丁目１２番１－３０５号,,12,203,2720001,,,,,,,2022-04-12,1,,,,,ネワーズ,0
1836,6040003019870,新規,0,2022-04-12,2022-04-12,合同会社ますかけ,,合同会社,千葉県,柏市,箕輪３６４番地１,,12,217,2770912,,,,,,,2022-04-12,1,,,,,マスカケ,0
1837,6050001050934,新規,0,2022-04-12,2022-04-12,株式会社桜花プロジェクト,,株式会社,茨城県,つくば市,細見８８３番地３,,08,220,3001265,,,,,,,2022-04-12,1,,,,,オウカプロジェクト,0
1849,6080001024877,新規,0,2022-04-12,2022-04-12,株式会社Ａ・Ｆエンジニアリング,,株式会社,静岡県,藤枝市,下当間９２３番地の２,,22,214,4260003,,,,,,,2022-04-12,1,,,,,エイエフエンジニアリング,0
1853,6080401025748,新規,0,2022-04-12,2022-04-12,株式会社ミライズ,,株式会社,静岡県,浜松市中区,蜆塚１丁目１８番３５号,,22,131,4328018,,,,,,,2022-04-12,1,,,,,ミライズ,0
1864,6100005012850,新規,0,2022-04-12,2022-04-12,弁護士法人みなみ信州法律事務所,,その他の設立登記法人,長野県,飯田市,鼎東鼎１３８番地３嶋屋ビル４階,,20,205,3950817,,,,,,,2022-04-12,1,,,,,ミナミシンシュウホウリツジムショ,0
1884,6120001245155,新規,0,2022-04-12,2022-04-12,株式会社和,,株式会社,大阪府,大阪市鶴見区,今津北３丁目６番２５－１５０４号,,27,124,5380041,,,,,,,2022-04-12,1,,,,,ナゴミ,0
1886,6120003021471,新規,0,2022-04-12,2022-04-12,合同会社ＢｉｔＬａｂｏ,,合同会社,大阪府,大阪市生野区,中川東２丁目１１番４号,,27,116,5440006,,,,,,,2022-04-12,1,,,,,ビットラボ,0
1888,6120101065379,新規,0,2022-04-12,2022-04-12,株式会社建真,,株式会社,大阪府,堺市美原区,阿弥４７６番地の１,,27,147,5870003,,,,,,,2022-04-12,1,,,,,ケンシン,0
1889,6120103004649,新規,0,2022-04-12,2022-04-12,合同会社ハムシティ,,合同会社,大阪府,河内長野市,美加の台５丁目２番１０号,,27,216,5860044,,,,,,,2022-04-12,1,,,,,ハムシティ,0
1890,6122001035759,新規,0,2022-04-12,2022-04-12,木畑環境建設株式会社,,株式会社,大阪府,東大阪市,菱屋東３丁目７－１６,,27,227,5780948,,,,,,,2022-04-12,1,,,,,キバタカンキョウケンセツ,0
1895,6130001071550,新規,0,2022-04-12,2022-04-12,株式会社成建,,株式会社,京都府,京都市南区,久世殿城町３０９番地１Ａｎｎｅｘ殿城１０４,,26,107,6018205,,,,,,,2022-04-12,1,,,,,セイケン,0
1897,6130003007866,新規,0,2022-04-12,2022-04-12,Ｋ‐ｎｕｔｓ合同会社,,合同会社,京都府,京都市北区,紫竹北大門町５５番地１４,,26,101,6038416,,,,,,,2022-04-12,1,,,,,ケイナッツ,0
1902,6140001125454,新規,0,2022-04-12,2022-04-12,株式会社ＳＴＯ,,株式会社,兵庫県,姫路市,継１９３番地,,28,201,6728004,,,,,,,2022-04-12,1,,,,,エスティーオー,0
1903,6140001125586,新規,0,2022-04-12,2022-04-12,株式会社大森ロハスクリエイト,,株式会社,兵庫県,神戸市中央区,東町１２３番地の１,,28,110,6500031,,,,,,,2022-04-12,1,,,,,オオモリロハスクリエイト,0
1908,6150001025455,新規,0,2022-04-12,2022-04-12,不動産サービス株式会社,,株式会社,奈良県,橿原市,醍醐町４５９番地の１６,,29,205,6340072,,,,,,,2022-04-12,1,,,,,フドウサンサービス,0
1913,6170001017054,新規,0,2022-04-12,2022-04-12,株式会社ベルテック,,株式会社,和歌山県,和歌山市,吉原７７３－２,,30,201,6400331,,,,,,,2022-04-12,1,,,,,ベルテック,0
1918,6180001150713,新規,0,2022-04-12,2022-04-12,株式会社エース・インターナショナル,,株式会社,愛知県,名古屋市中区,平和２丁目１３番２６号ダイアパレス東別院第２　１００３号,,23,106,4600021,,,,,,,2022-04-12,1,,,,,エースインターナショナル,0
1919,6180001150861,新規,0,2022-04-12,2022-04-12,株式会社ｓｔａｃｋ,,株式会社,愛知県,大府市,長根町６丁目８０番地の７,,23,223,4740021,,,,,,,2022-04-12,1,,,,,スタック,0
1925,6180003023710,新規,0,2022-04-12,2022-04-12,よつばクリエイト合同会社,,合同会社,愛知県,名古屋市中区,千代田４丁目１番２３号,,23,106,4600012,,,,,,,2022-04-12,1,,,,,ヨツバクリエイト,0
1926,6180301036100,新規,0,2022-04-12,2022-04-12,愛知通信設備株式会社,,株式会社,愛知県,豊橋市,神野新田町字ニノ割１３番地７,,23,201,4418077,,,,,,,2022-04-12,1,,,,,アイチツウシンセツビ,0
1927,6180301036109,新規,0,2022-04-12,2022-04-12,株式会社Ｔｒｉｌａｎｄ,,株式会社,愛知県,豊橋市,西口町字土橋３７番地２２,,23,201,4400841,,,,,,,2022-04-12,1,,,,,トライランド,0
1929,6180303005301,新規,0,2022-04-12,2022-04-12,合同会社作手ライフ,,合同会社,愛知県,新城市,作手高里字郷ノ根２９番地１１,,23,221,4411423,,,,,,,2022-04-12,1,,,,,ツクデライフ,0
1930,6190001029312,新規,0,2022-04-12,2022-04-12,ＩＳＧ　ＪＡＰＡＮ株式会社,,株式会社,三重県,度会郡南伊勢町,迫間浦１０２０番地,,24,472,5160116,,,,,,,2022-04-12,1,,,,,アイエスジージャパン,0
1935,6230001019309,新規,0,2022-04-12,2022-04-12,株式会社ｍａｄｏｋａ,,株式会社,富山県,小矢部市,埴生字八俵２６００番地２４,,16,209,9320836,,,,,,,2022-04-12,1,,,,,マドカ,0
1938,6240005015377,新規,0,2022-04-12,2022-04-12,一般社団法人ウォッチオーバー地域健康推進機構,,その他の設立登記法人,広島県,広島市佐伯区,五日市中央４丁目１番２号いとうビル２階,,34,108,7315128,,,,,,,2022-04-12,1,,,,,ウォッチオーバーチイキケンコウスイシンキコウ,0
1954,6290001097134,新規,0,2022-04-12,2022-04-12,株式会社ＡＬＬＹ,,株式会社,福岡県,福岡市中央区,舞鶴３丁目３－１９ＫＭビル赤坂５０２,,40,133,8100073,,,,,,,2022-04-12,1,,,,,アライ,0
1955,6290001097175,新規,0,2022-04-12,2022-04-12,株式会社ＴＡＮＳＡＱ,,株式会社,福岡県,福岡市中央区,天神２丁目３番１０号天神パインクレスト７１９号,,40,133,8100001,,,,,,,2022-04-12,1,,,,,タンサク,0
1959,6290003012396,新規,0,2022-04-12,2022-04-12,博多都市企画合同会社,,合同会社,福岡県,福岡市博多区,美野島２丁目１２番８－４０１号フォレストコート住吉,,40,132,8120017,,,,,,,2022-04-12,1,,,,,ハカタトシキカク,0
1963,6290801028429,新規,0,2022-04-12,2022-04-12,株式会社ＦＳＭ,,株式会社,福岡県,北九州市若松区,青葉台南３丁目１４番６号,,40,103,8080142,,,,,,,2022-04-12,1,,,,,エフエスエム,0
1965,6300001012883,新規,0,2022-04-12,2022-04-12,江頭電器株式会社,,株式会社,佐賀県,三養基郡みやき町,大字市武８９７番地４,,41,346,8401106,,,,,,,2022-04-12,1,,,,,エガシラデンキ,0
1967,6310001017816,新規,0,2022-04-12,2022-04-12,株式会社ＧＳサポート,,株式会社,長崎県,大村市,宮小路３丁目１９９８番地２,,42,205,8560807,,,,,,,2022-04-12,1,,,,,ジーエスサポート,0
1968,6320003003771,新規,0,2022-04-12,2022-04-12,合同会社ドットネット日田,,合同会社,大分県,日田市,吹上町３－８,,44,204,8770083,,,,,,,2022-04-12,1,,,,,ドットネットヒタ,0
1971,6330005010492,新規,0,2022-04-12,2022-04-12,一般社団法人熊本先端画像ネットワーク推進機構,,その他の設立登記法人,熊本県,熊本市北区,四方寄町１４６４番地,,43,105,8615515,,,,,,,2022-04-12,1,,,,,クマモトセンタンガゾウネットワークスイシンキコウ,0
1975,6350001017696,新規,0,2022-04-12,2022-04-12,株式会社スマイル,,株式会社,宮崎県,児湯郡西米良村,大字村所２番地９１,,45,403,8811411,,,,,,,2022-04-12,1,,,,,スマイル,0
1978,6370005010464,新規,0,2022-04-12,2022-04-12,一般社団法人ＯＮＥ　ＴＯＨＯＫＵ　ＨＵＢ,,その他の設立登記法人,宮城県,仙台市青葉区,春日町９番１５号ＴＨＥ６、３Ｆ,,04,101,9800821,,,,,,,2022-04-12,1,,,,,ワントウホクハブ,0
1986,6380003005151,新規,0,2022-04-12,2022-04-12,合同会社鶴丸義塾,,合同会社,福島県,郡山市,駅前２丁目３番７号エリート３０ビル２Ｆ,,07,203,9638002,,,,,,,2022-04-12,1,,,,,,0
1997,6430001086329,新規,0,2022-04-12,2022-04-12,株式会社日栄工業,,株式会社,北海道,雨竜郡雨竜町,字尾白利加８８番地２０２,,01,436,0782600,,,,,,,2022-04-12,1,,,,,ニチエイコウギョウ,0
1998,6430001086353,新規,0,2022-04-12,2022-04-12,株式会社ひだかミート,,株式会社,北海道,日高郡新ひだか町,静内御幸町２丁目１番４９号,,01,610,0560017,,,,,,,2022-04-12,1,,,,,ヒダカミート,0
1999,6430001086403,新規,0,2022-04-12,2022-04-12,株式会社ニューアライバル,,株式会社,北海道,札幌市北区,篠路六条６丁目２番３号,,01,102,0028026,,,,,,,2022-04-12,1,,,,,ニューアライバル,0
2001,6430003013792,新規,0,2022-04-12,2022-04-12,合同会社ＡＩアセットマネジメント,,合同会社,北海道,札幌市手稲区,新発寒五条３丁目１番２２－２０４号,,01,109,0060805,,,,,,,2022-04-12,1,,,,,エーアイアセットマネジメント,0
2017,6490005006839,新規,0,2022-04-12,2022-04-12,八潮協同組合,,その他の設立登記法人,高知県,高知市,北本町１丁目７番２６号,,39,201,7800056,,,,,,,2022-04-12,1,,,,,ヤシオ,0
2020,6700150107353,新規,0,2022-04-12,2022-03-14,ＢＬＡＣＫ☆ＴＩＧＨＴＳ,,その他,大阪府,大阪市阿倍野区,阿倍野筋３丁目４－１４－３０３,,27,119,5450052,,,,,,,2022-03-14,1,,,,,ブラツクタイツ,0
2021,6700150107881,新規,0,2022-04-12,2022-04-12,ＭＯＴＯＲ　ＷＩＮＧＳ　ＥＮＴＥＲＰＲＩＳＥＳ,,外国会社等,千葉県,山武市,木原２０３１－２１オフィスＮｏ．３,,12,237,2891212,スリランカ民主社会主義共和国、ヤッカラ、アンバガハランダワッタ、Ｎｏ．３レーン,,,,,,2022-04-12,1,,,,,モーターウイングスエンタープライセス,0
2029,7010001225621,新規,0,2022-04-12,2022-04-12,多楽日本株式会社,,株式会社,東京都,中央区,東日本橋２丁目２８番５号５０８,,13,102,1030004,,,,,,,2022-04-12,1,,,,,タラクニホン,0
2030,7010001225662,新規,0,2022-04-12,2022-04-12,株式会社ＫＵＯＴＯＲＥ,,株式会社,東京都,中央区,日本橋３丁目２番１４号新槇町ビル別館第一２階,,13,102,1030027,,,,,,,2022-04-12,1,,,,,クオトレ,0
2031,7010001225720,新規,0,2022-04-12,2022-04-12,株式会社共創マーケティング,,株式会社,東京都,千代田区,九段南１丁目５番６号りそな九段ビル５Ｆ・ＫＳフロア,,13,101,1020074,,,,,,,2022-04-12,1,,,,,キョウソウマーケティング,0
2032,7010001225803,新規,0,2022-04-12,2022-04-12,ヒーローズクリエイティブ株式会社,,株式会社,東京都,千代田区,神田多町２丁目９番２号エルプレイス千代田淡路町９０４,,13,101,1010046,,,,,,,2022-04-12,1,,,,,ヒーローズクリエイティブ,0
2041,7010005034812,新規,0,2022-04-12,2022-04-12,弁理士法人フィールズ国際特許事務所,,その他の設立登記法人,東京都,千代田区,永田町２丁目１７番１７号アイオス永田町６１３,,13,101,1000014,,,,,,,2022-04-12,1,,,,,フィールズコクサイトッキョジムショ,0
2043,7010103001895,新規,0,2022-04-12,2022-04-12,合同会社ＴＳＥ,,合同会社,東京都,八王子市,椚田町５８５番地１Ｂ,,13,201,1930942,,,,,,,2022-04-12,1,,,,,ティーエスイー,0
2045,7010401166721,新規,0,2022-04-12,2022-04-12,Ｓｔｅｅｒ　Ｓｈｉｐ株式会社,,株式会社,東京都,港区,芝浦３丁目１７番１１号５０６号室,,13,103,1080023,,,,,,,2022-04-12,1,,,,,スティアーシップ,0
2047,7010403027384,新規,0,2022-04-12,2022-04-12,合同会社メロンアセットアドバイザーズ,,合同会社,東京都,港区,六本木６丁目３－１六本木ヒルズクロスポイント９０３,,13,103,1060032,,,,,,,2022-04-12,1,,,,,メロンアセットアドバイザーズ,0
2048,7010403027418,新規,0,2022-04-12,2022-04-12,アナロジー合同会社,,合同会社,東京都,港区,浜松町２丁目２番１５号浜松町ダイヤビル２Ｆ,,13,103,1050013,,,,,,,2022-04-12,1,,,,,アナロジー,0
2049,7010403027442,新規,0,2022-04-12,2022-04-12,合同会社Ｒｅｅｅ,,合同会社,東京都,港区,北青山３丁目５番１４号青山鈴木硝子ビル７階,,13,103,1070061,,,,,,,2022-04-12,1,,,,,リー,0
2062,7010603009488,新規,0,2022-04-12,2022-04-12,合同会社猫の手,,合同会社,東京都,江東区,塩浜１丁目１番１３－３１１号,,13,108,1350043,,,,,,,2022-04-12,1,,,,,ネコノテ,0
2063,7010701042498,新規,0,2022-04-12,2022-04-12,株式会社Ｅｔｅｒｓｙ,,株式会社,東京都,品川区,東大井５丁目４番１６号フレンドヒル品川６０５,,13,109,1400011,,,,,,,2022-04-12,1,,,,,エタシー,0
2064,7010801032886,新規,0,2022-04-12,2022-04-12,株式会社ライト・ハンド,,株式会社,東京都,大田区,蒲田本町２丁目２５－５,,13,111,1440053,,,,,,,2022-04-12,1,,,,,ライトハンド,0
2072,7010901050656,新規,0,2022-04-12,2022-04-12,にじのほし株式会社,,株式会社,東京都,世田谷区,世田谷１丁目２番１０号プレミアムキューブ世田谷ｍｏ２０１,,13,112,1540017,,,,,,,2022-04-12,1,,,,,ニジノホシ,0
2080,7011001146849,新規,0,2022-04-12,2022-04-12,ｃｏｄａｍａ株式会社,,株式会社,東京都,渋谷区,神宮前６丁目２３番４号桑野ビル２階,,13,113,1500001,,,,,,,2022-04-12,1,,,,,コダマ,0
2082,7011003014509,新規,0,2022-04-12,2022-04-12,Ｔｅｃｈ　Ｆｏｒｅｓｔ合同会社,,合同会社,東京都,渋谷区,道玄坂１丁目１０番８号渋谷道玄坂東急ビル２Ｆ－Ｃ,,13,113,1500043,,,,,,,2022-04-12,1,,,,,テックフォレスト,0
2083,7011003014517,新規,0,2022-04-12,2022-04-12,合同会社エスプリ,,合同会社,東京都,目黒区,祐天寺２丁目１８番３号,,13,110,1530052,,,,,,,2022-04-12,1,,,,,エスプリ,0
2090,7011201023749,新規,0,2022-04-12,2022-04-12,株式会社Ｎコンサルティング,,株式会社,東京都,中野区,上鷺宮５丁目２８番２号,,13,114,1650031,,,,,,,2022-04-12,1,,,,,エヌコンサルティング,0
2091,7011201023757,新規,0,2022-04-12,2022-04-12,エフテックス株式会社,,株式会社,東京都,中野区,中野６丁目２７番２１号,,13,114,1640001,,,,,,,2022-04-12,1,,,,,エフテックス,0
2093,7011401024150,新規,0,2022-04-12,2022-04-12,サントスクリエーション株式会社,,株式会社,東京都,板橋区,東山町２１－１３,,13,119,1740073,,,,,,,2022-04-12,1,,,,,サントスクリエーション,0
2101,7011603003571,新規,0,2022-04-12,2022-04-12,合同会社梟,,合同会社,東京都,練馬区,練馬１丁目２０番８号日建練馬ビル２Ｆ,,13,120,1760001,,,,,,,2022-04-12,1,,,,,フクロウ,0
2102,7011701025220,新規,0,2022-04-12,2022-04-12,株式会社ＯＬＩ,,株式会社,東京都,江戸川区,南小岩５丁目６番１４号,,13,123,1330056,,,,,,,2022-04-12,1,,,,,オリ,0
2103,7011801040557,新規,0,2022-04-12,2022-04-12,金生株式会社,,株式会社,東京都,足立区,綾瀬６丁目２０番４号１０１号室,,13,121,1200005,,,,,,,2022-04-12,1,,,,,キンセイ,0
2105,7012401039072,新規,0,2022-04-12,2022-04-12,株式会社Ｑｄａｎ,,株式会社,東京都,武蔵野市,吉祥寺南町２丁目２番５号,,13,203,1800003,,,,,,,2022-04-12,1,,,,,クダン,0
2108,7013105001797,新規,0,2022-04-12,2022-04-12,特定非営利活動法人フリースペースロビンソン,,その他の設立登記法人,東京都,青梅市,野上町４丁目４番地の２０,,13,205,1980032,,,,,,,2022-04-12,1,,,,,フリースペースロビンソン,0
2117,7020001146049,新規,0,2022-04-12,2022-04-12,株式会社デジタルパレット,,株式会社,神奈川県,川崎市中原区,小杉町３丁目６００コスギサードアヴェニュー２－２９,,14,133,2110063,,,,,,,2022-04-12,1,,,,,デジタルパレット,0
2118,7020001146057,新規,0,2022-04-12,2022-04-12,株式会社ゼローリンクルズ,,株式会社,神奈川県,横浜市鶴見区,馬場３丁目２４番６号,,14,101,2300076,,,,,,,2022-04-12,1,,,,,ゼローリンクルズ,0
2119,7020001146065,新規,0,2022-04-12,2022-04-12,株式会社シーオーシー,,株式会社,神奈川県,川崎市中原区,上丸子山王町２丁目１３５９番地１８,,14,133,2110002,,,,,,,2022-04-12,1,,,,,シーオーシー,0
2127,7021001075626,新規,0,2022-04-12,2022-04-12,株式会社一冨士建興,,株式会社,神奈川県,高座郡寒川町,一之宮５丁目１６番１６号,,14,321,2530111,,,,,,,2022-04-12,1,,,,,イチフジケンコウ,0
2128,7021003011595,新規,0,2022-04-12,2022-04-12,合同会社ｋｏｍｕｇｉｉ,,合同会社,神奈川県,伊勢原市,池端２８３－３１,,14,214,2591144,,,,,,,2022-04-12,1,,,,,コムギ,0
2135,7030001147715,新規,0,2022-04-12,2022-04-12,株式会社佐藤商事,,株式会社,埼玉県,さいたま市大宮区,吉敷町２丁目１０８番地４吉敷スカイハイツ２０９,,11,103,3300843,,,,,,,2022-04-12,1,,,,,サトウショウジ,0
2152,7040001122733,新規,0,2022-04-12,2022-04-12,株式会社ミクモーター,,株式会社,千葉県,船橋市,上山町２丁目３５０番地１６,,12,204,2730046,,,,,,,2022-04-12,1,,,,,ミクモーター,0
2153,7040001122956,新規,0,2022-04-12,2022-04-12,株式会社ＵＩ,,株式会社,千葉県,流山市,大字木８２１番地,,12,220,2700162,,,,,,,2022-04-12,1,,,,,ユイ,0
2154,7040001122989,新規,0,2022-04-12,2022-04-12,株式会社ＪＡＩアニメ,,株式会社,千葉県,松戸市,五香１丁目５－２２,,12,207,2702213,,,,,,,2022-04-12,1,,,,,ジャイアニメ,0
2155,7040001123005,新規,0,2022-04-12,2022-04-12,株式会社伸利,,株式会社,千葉県,千葉市美浜区,若葉３丁目１番地１８幕張ベイパーククロスレジデンスＳ２－１,,12,106,2610014,,,,,,,2022-04-12,1,,,,,シンリ,0
2160,7040003019878,新規,0,2022-04-12,2022-04-12,合同会社ユーフォリア,,合同会社,千葉県,君津市,藤林３１２番地,,12,225,2920531,,,,,,,2022-04-12,1,,,,,ユーフォリア,0
2164,7050003006470,新規,0,2022-04-12,2022-04-12,合同会社ラウンド・コンサルティング,,合同会社,茨城県,取手市,取手３丁目２番３７－１３０５号,,08,217,3020004,,,,,,,2022-04-12,1,,,,,ラウンドコンサルティング,0
2165,7060001034753,新規,0,2022-04-12,2022-04-12,株式会社１６５,,株式会社,栃木県,宇都宮市,宝木町２丁目２５７２番地１１,,09,201,3200061,,,,,,,2022-04-12,1,,,,,イチロクゴ,0
2172,7080101023209,新規,0,2022-04-12,2022-04-12,ユアーズ株式会社,,株式会社,静岡県,伊豆の国市,四日町３９０番地の８,,22,225,4102123,,,,,,,2022-04-12,1,,,,,ユアーズ,0
2173,7080401025747,新規,0,2022-04-12,2022-04-12,加藤建材分割準備株式会社,,株式会社,静岡県,浜松市中区,曳馬３丁目１４番２２号,,22,131,4300901,,,,,,,2022-04-12,1,,,,,カトウケンザイブンカツジュンビ,0
2180,7090003002078,新規,0,2022-04-12,2022-04-12,合同会社レイクヒルプロパティ,,合同会社,山梨県,南都留郡山中湖村,平野３２５９,,19,425,4010502,,,,,,,2022-04-12,1,,,,,レイクヒルプロパティ,0
2189,7110001036570,新規,0,2022-04-12,2022-04-12,株式会社すずまさ農園,,株式会社,新潟県,新潟市西区,立仏１５２２番地１,,15,107,9501103,,,,,,,2022-04-12,1,,,,,スズマサノウエン,0
2190,7110001036587,新規,0,2022-04-12,2022-04-12,陽楽オフィス株式会社,,株式会社,新潟県,新潟市中央区,米山３丁目１番４１号パストラルハイム米山壱番館１３０２号,,15,103,9500916,,,,,,,2022-04-12,1,,,,,ヒナタオフィス,0
2195,7110005016775,新規,0,2022-04-12,2022-04-12,新潟かがやき農業協同組合,,その他の設立登記法人,新潟県,新潟市西蒲区,漆山８８３３番地,,15,108,9530054,,,,,,新潟県阿賀野市土橋２９７番地北蒲みなみ農業協同組合（9110005003697）と新潟県阿賀野市山崎５８番地ささかみ農業協同組合（8110005003698）と新潟市南区七軒字前２１１番地１新潟みらい農業協同組合（3110005002936）と新潟県新潟市秋葉区小戸下組２２２４番地新津さつき農業協同組合（9110005001908）と新潟県新潟市西蒲区漆山８８３３番地越後中央農業協同組合（9110005002690）の合併により設立,2022-04-12,1,,,,,ニイガタカガヤキ,0
2204,7120003021470,新規,0,2022-04-12,2022-04-12,合同会社ミサコーポレーション,,合同会社,大阪府,大阪市鶴見区,今津南４丁目５番２９号,,27,124,5380043,,,,,,,2022-04-12,1,,,,,ミサコーポレーション,0
2210,7122003002310,新規,0,2022-04-12,2022-04-12,ツルマキ合同会社,,合同会社,大阪府,大東市,北条６丁目１６番１号,,27,218,5740011,,,,,,,2022-04-12,1,,,,,ツルマキ,0
2218,7130001071491,新規,0,2022-04-12,2022-04-12,株式会社あん,,株式会社,京都府,亀岡市,篠町柏原上小井根１番地５８,,26,206,6210821,,,,,,,2022-04-12,1,,,,,アン,0
2219,7130001071525,新規,0,2022-04-12,2022-04-12,大黒フードサービス株式会社,,株式会社,京都府,京都市伏見区,京町大黒町１１８番地５,,26,109,6128087,,,,,,,2022-04-12,1,,,,,ダイコクフードサービス,0
2220,7130001071533,新規,0,2022-04-12,2022-04-12,株式会社フォレスト,,株式会社,京都府,京都市山科区,大塚元屋敷町１１番地３１,,26,110,6078126,,,,,,,2022-04-12,1,,,,,フォレスト,0
2221,7130003007865,新規,0,2022-04-12,2022-04-12,トランク・ウッド合同会社,,合同会社,京都府,綾部市,八津合町別当２番地１,,26,203,6231122,,,,,,,2022-04-12,1,,,,,トランクウッド,0
2227,7140001125577,新規,0,2022-04-12,2022-04-12,株式会社なかよし,,株式会社,兵庫県,川西市,火打２丁目９番１２号,,28,217,6660017,,,,,,,2022-04-12,1,,,,,ナカヨシ,0
2235,7140003017558,新規,0,2022-04-12,2022-04-12,合同会社ミズエイト,,合同会社,兵庫県,姫路市,砥堀１１７１－１,,28,201,6700802,,,,,,,2022-04-12,1,,,,,ミズエイト,0
2238,7170001017053,新規,0,2022-04-12,2022-04-12,株式会社ＭＥＧ,,株式会社,和歌山県,和歌山市,湊御殿１丁目３番地５,,30,201,6408286,,,,,,,2022-04-12,1,,,,,エムイージー,0
2259,7180301036099,新規,0,2022-04-12,2022-04-12,株式会社ＡＱＵＳＨ　ｉｎｎｏｖａｔｉｏｎ,,株式会社,愛知県,豊田市,神田町２丁目９番地８ルック神田１Ａ,,23,211,4710868,,,,,,,2022-04-12,1,,,,,アクシュイノベーション,0
2260,7180301036116,新規,0,2022-04-12,2022-04-12,Ｎｅｘｔ　Ｉｎｎｏｖａｔｉｏｎ株式会社,,株式会社,愛知県,刈谷市,東刈谷町３丁目１３番地１１,,23,210,4480807,,,,,,,2022-04-12,1,,,,,ネクストイノベーション,0
2276,7240001059609,新規,0,2022-04-12,2022-04-12,株式会社アークコーポレーション,,株式会社,広島県,福山市,神辺町字平野３６８番地,,34,207,7202116,,,,,,,2022-04-12,1,,,,,アークコーポレーション,0
2277,7240003005585,新規,0,2022-04-12,2022-04-12,合同会社グローバルチャレンジ,,合同会社,広島県,呉市,天応西条３丁目４番２０号,,34,202,7370883,,,,,,,2022-04-12,1,,,,,グローバルチャレンジ,0
2282,7240005015376,新規,0,2022-04-12,2022-04-12,一般社団法人日本ビジネステクノロジー協会,,その他の設立登記法人,広島県,広島市佐伯区,三宅１丁目１番１０号,,34,108,7315143,,,,,,,2022-04-12,1,,,,,ニホンビジネステクノロジーキョウカイ,0
2286,7260001036746,新規,0,2022-04-12,2022-04-12,株式会社ロードセフティ,,株式会社,岡山県,岡山市南区,新保６６８番地２０,,33,104,7000945,,,,,,,2022-04-12,1,,,,,ロードセフティ,0
2291,7280001008677,新規,0,2022-04-12,2022-04-12,株式会社Ｍｉｔｓｕ　Ｆｉｓｈｅｒｍａｎ’ｓ　Ｆａｃｔｏｒｙ,,株式会社,島根県,松江市,鹿島町御津４０２番地,,32,201,6900411,,,,,,,2022-04-12,1,,,,,ミツフィシャーマンズファクトリー,0
2298,7290003012387,新規,0,2022-04-12,2022-04-12,合同会社Ａｘｉａ　Ｓｔｙｌｅ,,合同会社,福岡県,福岡市南区,高木２丁目２３番４号,,40,134,8150004,,,,,,,2022-04-12,1,,,,,アクシアスタイル,0
2300,7290005018622,新規,0,2022-04-12,2022-04-12,一般社団法人みんなの家みんか,,その他の設立登記法人,福岡県,朝倉市,黒川１７６２－２,,40,228,8380072,,,,,,,2022-04-12,1,,,,,ミンナノイエミンカ,0
2307,7300001012882,新規,0,2022-04-12,2022-04-12,株式会社あゆみ,,株式会社,佐賀県,唐津市,町田３丁目１０番３０号,,41,202,8470821,,,,,,,2022-04-12,1,,,,,アユミ,0
2309,7300003001818,新規,0,2022-04-12,2022-04-12,合同会社コテック,,合同会社,佐賀県,佐賀市,兵庫北６丁目５番１４号,,41,201,8490919,,,,,,,2022-04-12,1,,,,,コテック,0
2316,7330001029593,新規,0,2022-04-12,2022-04-12,明治アニマルヘルス株式会社,,株式会社,熊本県,熊本市北区,大窪１丁目６番１号,,43,105,8600083,,,,,,,2022-04-12,1,,,,,メイジアニマルヘルス,0
2317,7330001029619,新規,0,2022-04-12,2022-04-12,株式会社ＲＩＬ　ｐｌｕｓ,,株式会社,熊本県,熊本市中央区,中央街６－２９モダンビル３階,,43,101,8600802,,,,,,,2022-04-12,1,,,,,リルプラス,0
2321,7330003009321,新規,0,2022-04-12,2022-04-12,合同会社アルカス,,合同会社,熊本県,宇城市,松橋町豊福１６８３－１ミスターマックス松橋店敷地内,,43,213,8690524,,,,,,,2022-04-12,1,,,,,アルカス,0
2322,7330005010491,新規,0,2022-04-12,2022-04-12,一般社団法人南阿蘇鉄道管理機構,,その他の設立登記法人,熊本県,阿蘇郡高森町,大字高森１５３７番地６,,43,428,8691602,,,,,,,2022-04-12,1,,,,,ミナミアソテツドウカンリキコウ,0
2323,7330005010500,新規,0,2022-04-12,2022-04-12,一般社団法人一新まちづくりの会,,その他の設立登記法人,熊本県,熊本市中央区,島崎１丁目１７番４号,,43,101,8600073,,,,,,,2022-04-12,1,,,,,イッシンマチヅクリノカイ,0
2332,7360001030210,新規,0,2022-04-12,2022-04-12,株式会社ＬＡＹＤＡＹＢＥＥＲ,,株式会社,沖縄県,うるま市,字赤道１８番地１知名アパート１Ｆ,,47,213,9042245,,,,,,,2022-04-12,1,,,,,レイデイビール,0
2343,7380001032741,新規,0,2022-04-12,2022-04-12,株式会社Ｒｅｖｅｌｉｚｅ,,株式会社,福島県,南相馬市,原町区栄町１丁目２２番地,,07,212,9750003,,,,,,,2022-04-12,1,,,,,リバライズ,0
2356,7410003003646,新規,0,2022-04-12,2022-04-12,合同会社ブルーベリーファーム神代,,合同会社,秋田県,仙北市,田沢湖卒田字早稲田３９０番地,,05,215,0141113,,,,,,,2022-04-12,1,,,,,,0
2365,7430001086352,新規,0,2022-04-12,2022-04-12,株式会社ザイマックスサラ北海道,,株式会社,北海道,札幌市中央区,北一条西３丁目２番地,,01,101,0600001,,,,,,,2022-04-12,1,,,,,ザイマックスサラホッカイドウ,0
2366,7430001086402,新規,0,2022-04-12,2022-04-12,ＯＨＡ株式会社,,株式会社,北海道,札幌市中央区,南十三条西８丁目１番２２号,,01,101,0640913,,,,,,,2022-04-12,1,,,,,オーエイチエー,0
2367,7440001009056,新規,0,2022-04-12,2022-04-12,株式会社あきた動物病院,,株式会社,北海道,函館市,美原３丁目５６番１９号,,01,202,0410806,,,,,,,2022-04-12,1,,,,,アキタドウブツビョウイン,0
2370,7470005006435,新規,0,2022-04-12,2022-04-12,農事組合法人つづみ,,その他の設立登記法人,香川県,さぬき市,昭和３６７５番地２,,37,206,7692304,,,,,,,2022-04-12,1,,,,,ツヅミ,0
2372,7480003001817,新規,0,2022-04-12,2022-04-12,合同会社ＺＩＮＥＮ,,合同会社,徳島県,三好市,西祖谷山村今久保１７５番地,,36,208,7780102,,,,,,,2022-04-12,1,,,,,ジネン,0
2374,7700150107542,新規,0,2022-04-12,2022-03-29,ｆａｃｔｏｒｙ　ｗｏｒｋｓ,,その他,大阪府,大阪市城東区,新喜多東１丁目３－２２,,27,118,5360017,,,,,,,2022-03-29,1,,,,,フアクトリーワークス,0
2375,7700150107889,新規,0,2022-04-12,2022-04-12,ＫＡＷＡＧＯＥ　ＥＮＴＥＲＰＲＩＳＥＳ,,外国会社等,千葉県,東金市,道庭３４４番地１０道庭ビジネスオフィス４,,12,213,2830003,スリランカ民主社会主義共和国、アクラナ、クルンドゥガハエラ、ウッガラロード、２０４－Ａ,,,,,,2022-04-12,1,,,,,カワゴエエンタープライセス,0
2381,8010001225686,新規,0,2022-04-12,2022-04-12,青木商事株式会社,,株式会社,東京都,中央区,築地３丁目１１番４号,,13,102,1040045,,,,,,,2022-04-12,1,,,,,アオキショウジ,0
2382,8010001225802,新規,0,2022-04-12,2022-04-12,トモイク株式会社,,株式会社,東京都,中央区,築地７丁目２番１３号,,13,102,1040045,,,,,,,2022-04-12,1,,,,,トモイク,0
2383,8010001225819,新規,0,2022-04-12,2022-04-12,ターニング・イノベーション株式会社,,株式会社,東京都,中央区,銀座１丁目３番３号Ｇ１ビル７階,,13,102,1040061,,,,,,,2022-04-12,1,,,,,ターニングイノベーション,0
2384,8010001225851,新規,0,2022-04-12,2022-04-12,株式会社ＷＨＯＬＥ　ＵＮＩＶＥＲＳＥ,,株式会社,東京都,中央区,銀座１丁目２２番１１号銀座大竹ビジデンス２Ｆ,,13,102,1040061,,,,,,,2022-04-12,1,,,,,ホールユニバース,0
2393,8010005034803,新規,0,2022-04-12,2022-04-12,一般社団法人住宅問題援助協議会,,その他の設立登記法人,東京都,千代田区,九段北４丁目２番１－１１０８号,,13,101,1020073,,,,,,,2022-04-12,1,,,,,ジュウタクモンダイエンジョキョウギカイ,0
2394,8010005034836,新規,0,2022-04-12,2022-04-12,一般社団法人グローバル多文化社会研究所,,その他の設立登記法人,東京都,文京区,白山１丁目１３番７号アクア白山ビル７Ｆ－１０,,13,105,1130001,,,,,,,2022-04-12,1,,,,,グローバルタブンカシャカイケンシュウジョ,0
2395,8010005034860,新規,0,2022-04-12,2022-04-12,Ｌｕｏｇｏ　Ｖｅｒｄｅ特定目的会社,,その他の設立登記法人,東京都,千代田区,丸の内１丁目８番２号鉄鋼ビルディング４階,,13,101,1000005,,,,,,,2022-04-12,1,,,,,ルオーゴヴェルデ,0
2403,8010401166646,新規,0,2022-04-12,2022-04-12,株式会社アクシオス,,株式会社,東京都,港区,芝５丁目２７番３号ＭＢＣ－Ｂ－１４０,,13,103,1080014,,,,,,,2022-04-12,1,,,,,アクシオス,0
2404,8010401166729,新規,0,2022-04-12,2022-04-12,株式会社ＡＭＹＧＯ,,株式会社,東京都,港区,南青山７丁目２番１０号,,13,103,1070062,,,,,,,2022-04-12,1,,,,,エイミーゴー,0
2407,8010601060921,新規,0,2022-04-12,2022-04-12,株式会社ナガサワ,,株式会社,東京都,墨田区,東向島２丁目１１番１２号,,13,107,1310032,,,,,,,2022-04-12,1,,,,,ナガサワ,0
2410,8010701042472,新規,0,2022-04-12,2022-04-12,株式会社共成,,株式会社,東京都,品川区,東五反田３丁目９番１８号,,13,109,1410022,,,,,,,2022-04-12,1,,,,,キョウセイ,0
2419,8011001146633,新規,0,2022-04-12,2022-04-12,株式会社ＡｌｔＳｏｕｒｃｅ,,株式会社,東京都,渋谷区,神宮前６丁目２３番４号桑野ビル２階,,13,113,1500001,,,,,,,2022-04-12,1,,,,,アルトソース,0
2420,8011001146848,新規,0,2022-04-12,2022-04-12,株式会社ＱＵＯＬｉ,,株式会社,東京都,渋谷区,松濤２丁目１５番５号,,13,113,1500046,,,,,,,2022-04-12,1,,,,,クオリ,0
2421,8011001146864,新規,0,2022-04-12,2022-04-12,株式会社ｏｏｒｄｅｒ,,株式会社,東京都,渋谷区,渋谷１丁目１番３号,,13,113,1500002,,,,,,,2022-04-12,1,,,,,オーダー,0
2422,8011001146872,新規,0,2022-04-12,2022-04-12,株式会社ヘルスケアカルチャー,,株式会社,東京都,渋谷区,恵比寿４丁目５番２８－８０３号,,13,113,1500013,,,,,,,2022-04-12,1,,,,,ヘルスケアカルチャー,0
2423,8011001146880,新規,0,2022-04-12,2022-04-12,株式会社ＴＲＥＸ,,株式会社,東京都,目黒区,三田１丁目１１番１１－６０４号,,13,110,1530062,,,,,,,2022-04-12,1,,,,,トレックス,0
2430,8011501027936,新規,0,2022-04-12,2022-04-12,カガヤキ株式会社,,株式会社,東京都,北区,滝野川６丁目２１番１－５０６号,,13,117,1140023,,,,,,,2022-04-12,1,,,,,カガヤキ,0
2431,8011601025880,新規,0,2022-04-12,2022-04-12,株式会社リカーシブ,,株式会社,東京都,練馬区,西大泉５丁目３７番２号,,13,120,1780065,,,,,,,2022-04-12,1,,,,,リカーシブ,0
2437,8011801040564,新規,0,2022-04-12,2022-04-12,株式会社成幸,,株式会社,東京都,足立区,伊興３丁目１４番４－３０２号,,13,121,1210823,,,,,,,2022-04-12,1,,,,,ナリユキ,0
2443,8012405004724,新規,0,2022-04-12,2022-04-12,特定非営利活動法人日本ピンポン・パーキンソン,,その他の設立登記法人,東京都,調布市,仙川町１丁目８番地４フェアリービラ１階,,13,208,1820002,,,,,,,2022-04-12,1,,,,,ニホンピンポンパーキンソン,0
2444,8012801021505,新規,0,2022-04-12,2022-04-12,株式会社エムアールティー,,株式会社,東京都,立川市,上砂町３丁目２番地の５,,13,202,1900032,,,,,,,2022-04-12,1,,,,,エムアールティー,0
2445,8012805003103,新規,0,2022-04-12,2022-04-12,一般社団法人明星会明星大学同窓会,,その他の設立登記法人,東京都,日野市,程久保２丁目１番地１、明星大学内,,13,212,1910042,,,,,,,2022-04-12,1,,,,,メイセイカイメイセイダイガクドウソウカイ,0
2450,8013303006119,新規,0,2022-04-12,2022-04-12,ＴｈａｉＬａｎｋａ合同会社,,合同会社,東京都,豊島区,南長崎６丁目２４番１０号,,13,116,1710052,,,,,,,2022-04-12,1,,,,,タイランカ,0
2453,8020001146023,新規,0,2022-04-12,2022-04-12,株式会社カイメイ,,株式会社,神奈川県,横浜市旭区,今宿東町６９８番地,,14,112,2410032,,,,,,,2022-04-12,1,,,,,カイメイ,0
2464,8021003011594,新規,0,2022-04-12,2022-04-12,合同会社Ｃｏｍｅ　Ａｌｉｖｅ,,合同会社,神奈川県,茅ヶ崎市,柳島１丁目８－１４エクラージュ１０１,,14,207,2530064,,,,,,,2022-04-12,1,,,,,カムアライブ,0
2471,8030001147607,新規,0,2022-04-12,2022-04-12,株式会社プリティ,,株式会社,埼玉県,深谷市,上柴町西３丁目１７番地１３深谷昭和ビル１０１号,,11,218,3660052,,,,,,,2022-04-12,1,,,,,プリティ,0
2472,8030001147672,新規,0,2022-04-12,2022-04-12,株式会社Ｍ＆Ｍ,,株式会社,埼玉県,春日部市,大枝８６６番地４,,11,214,3440023,,,,,,,2022-04-12,1,,,,,エムアンドエム,0
2473,8030001147697,新規,0,2022-04-12,2022-04-12,山田石材株式会社,,株式会社,埼玉県,富士見市,大字勝瀬１６２４番地１０７,,11,235,3540031,,,,,,,2022-04-12,1,,,,,ヤマダセキザイ,0
2474,8030001147714,新規,0,2022-04-12,2022-04-12,株式会社三匠,,株式会社,埼玉県,川越市,大字大中居２８４番地２３,,11,201,3500021,,,,,,,2022-04-12,1,,,,,サンショウ,0
2480,8040001122988,新規,0,2022-04-12,2022-04-12,大羅電通株式会社,,株式会社,千葉県,市川市,奉免町２６７番地４０,,12,203,2720803,,,,,,,2022-04-12,1,,,,,オオラデンツウ,0
2481,8040001122996,新規,0,2022-04-12,2022-04-12,株式会社スマイルタイル,,株式会社,千葉県,浦安市,猫実４丁目６番１４号,,12,227,2790004,,,,,,,2022-04-12,1,,,,,スマイルタイル,0
2482,8040001123020,新規,0,2022-04-12,2022-04-12,株式会社ＡＭＢＩＮＥＥＲ,,株式会社,千葉県,八街市,東吉田５８０番地１０,,12,230,2891114,,,,,,,2022-04-12,1,,,,,アンビニア,0
2485,8040003019869,新規,0,2022-04-12,2022-04-12,福富合同会社,,合同会社,千葉県,流山市,松ケ丘３丁目２９０番地の５７,,12,220,2700141,,,,,,,2022-04-12,1,,,,,フクトミ,0
2492,8050005013051,新規,0,2022-04-12,2022-04-12,一般社団法人茨城県アスレティックトレーナー協議会,,その他の設立登記法人,茨城県,つくば市,天王台１丁目１番地１筑波大学総合研究棟Ｄ６２２竹村研究室,,08,220,3050006,,,,,,,2022-04-12,1,,,,,イバラキケンアスレティックトレーナーキョウギカイ,0
2508,8080401025746,新規,0,2022-04-12,2022-04-12,カトウコーポレーション分割準備株式会社,,株式会社,静岡県,浜松市中区,曳馬３丁目３６番３号,,22,131,4300901,,,,,,,2022-04-12,1,,,,,カトウコーポレーションブンカツジュンビ,0
2509,8080401025754,新規,0,2022-04-12,2022-04-12,株式会社クリエート,,株式会社,静岡県,浜松市中区,和地山２丁目３６番７号,,22,131,4328003,,,,,,,2022-04-12,1,,,,,クリエート,0
2515,8090003002077,新規,0,2022-04-12,2022-04-12,昭和商事合同会社,,合同会社,山梨県,中巨摩郡昭和町,飯喰１５６２番地７,,19,384,4093852,,,,,,,2022-04-12,1,,,,,ショウワショウジ,0
2526,8120001245129,新規,0,2022-04-12,2022-04-12,株式会社飛魚,,株式会社,大阪府,大阪市浪速区,日本橋５丁目１４番２号２５号,,27,111,5560005,,,,,,,2022-04-12,1,,,,,トビウオ,0
2527,8120001245228,新規,0,2022-04-12,2022-04-12,ふわとろ株式会社,,株式会社,大阪府,大阪市天王寺区,上本町５丁目７番２号５０６,,27,109,5430001,,,,,,,2022-04-12,1,,,,,フワトロ,0
2535,8120101065369,新規,0,2022-04-12,2022-04-12,株式会社栄羽建装,,株式会社,大阪府,羽曳野市,郡戸３００番地の１１５,,27,222,5830874,,,,,,,2022-04-12,1,,,,,エイワケンソウ,0
2537,8120103004647,新規,0,2022-04-12,2022-04-12,ｃｌｉｃｋ　Ｊａｐａｎ合同会社,,合同会社,大阪府,藤井寺市,小山８丁目５番９号,,27,226,5830033,,,,,,,2022-04-12,1,,,,,クリックジャパン,0
2540,8120901045842,新規,0,2022-04-12,2022-04-12,株式会社マノア,,株式会社,大阪府,吹田市,佐井寺１丁目１６番１０号,,27,205,5650836,,,,,,,2022-04-12,1,,,,,マノア,0
2543,8122001035765,新規,0,2022-04-12,2022-04-12,株式会社伊藤防災設備,,株式会社,大阪府,東大阪市,下小阪５丁目４番１３－１０５号,,27,227,5770803,,,,,,,2022-04-12,1,,,,,イトウボウサイセツビ,0
2549,8130001071524,新規,0,2022-04-12,2022-04-12,株式会社本工業,,株式会社,京都府,乙訓郡大山崎町,字下植野小字二階下１０番地２・１０６号,,26,303,6180081,,,,,,,2022-04-12,1,,,,,モトコウギョウ,0
2550,8130001071549,新規,0,2022-04-12,2022-04-12,ハーベストエナジー株式会社,,株式会社,京都府,京都市右京区,嵯峨野清水町１８番地６,,26,108,6168312,,,,,,,2022-04-12,1,,,,,ハーベストエナジー,0
2557,8140001125551,新規,0,2022-04-12,2022-04-12,株式会社ｅ‐ｎｅ,,株式会社,兵庫県,神戸市須磨区,多井畑字若林９－７すま離宮テニスクラブ２Ｆ,,28,107,6540133,,,,,,,2022-04-12,1,,,,,イーネ,0
2558,8140001125576,新規,0,2022-04-12,2022-04-12,株式会社Ｎａｌａ,,株式会社,兵庫県,神戸市東灘区,向洋町中７丁目２番地の１、１番館１０１号,,28,101,6580032,,,,,,,2022-04-12,1,,,,,ナラ,0
2559,8140001125592,新規,0,2022-04-12,2022-04-12,株式会社ＧＯＯＤ　ＢＡＬＡＮＣＥ,,株式会社,兵庫県,神戸市中央区,相生町４丁目２番２８号神戸駅前千代田ビル１階Ｃ号室,,28,110,6500025,,,,,,,2022-04-12,1,,,,,グッドバランス,0
2566,8140003017557,新規,0,2022-04-12,2022-04-12,合同会社Ｍｉｓｓ　ｋｙｏｋｏ,,合同会社,兵庫県,西宮市,生瀬東町３８番１１号,,28,204,6691103,,,,,,,2022-04-12,1,,,,,ミスキョウコ,0
2567,8140003017565,新規,0,2022-04-12,2022-04-12,合同会社兵庫総合支援センター,,合同会社,兵庫県,三木市,別所町小林７３４番４８４,,28,215,6730434,,,,,,,2022-04-12,1,,,,,ヒョウゴソウゴウシエンセンター,0
2570,8140005026135,新規,0,2022-04-12,2022-04-12,一般社団法人淡路島ＢＩＯ協会,,その他の設立登記法人,兵庫県,淡路市,王子１４３０番地,,28,226,6562162,,,,,,,2022-04-12,1,,,,,アワジシマビオキョウカイ,0
2571,8140005026143,新規,0,2022-04-12,2022-04-12,香美町地域づくり事業協同組合,,その他の設立登記法人,兵庫県,美方郡香美町,村岡区相田３９６番地－１,,28,585,6671312,,,,,,,2022-04-12,1,,,,,カミチョウチイキヅクリジギョウ,0
2573,8150001025453,新規,0,2022-04-12,2022-04-12,多井造園株式会社,,株式会社,奈良県,奈良市,法蓮町１７７８番地の７,,29,201,6308113,,,,,,,2022-04-12,1,,,,,オオイゾウエン,0
2574,8150005009386,新規,0,2022-04-12,2022-04-12,一般社団法人川上村ブランディング協会,,その他の設立登記法人,奈良県,橿原市,木原町１７７番地の１,,29,205,6340004,,,,,,,2022-04-12,1,,,,,カワカミムラブランディングキョウカイ,0
2575,8160001024116,新規,0,2022-04-12,2022-04-12,日新国際株式会社,,株式会社,滋賀県,甲賀市,水口町杣中８９３番地,,25,209,5280043,,,,,,,2022-04-12,1,,,,,ニッシンコクサイ,0
2577,8170001017052,新規,0,2022-04-12,2022-04-12,株式会社井善,,株式会社,和歌山県,有田郡湯浅町,大字田７２番地,,30,361,6430006,,,,,,,2022-04-12,1,,,,,イゼン,0
2588,8180001150876,新規,0,2022-04-12,2022-04-12,株式会社寺澤機工,,株式会社,愛知県,一宮市,多加木４丁目８番６号,,23,203,4910837,,,,,,,2022-04-12,1,,,,,テラザワキコウ,0
2592,8180301036098,新規,0,2022-04-12,2022-04-12,株式会社ＷＡＳＡＢＩＺ,,株式会社,愛知県,豊橋市,飯村北２丁目２０番地８,,23,201,4400834,,,,,,,2022-04-12,1,,,,,ワサビズ,0
2593,8180301036115,新規,0,2022-04-12,2022-04-12,株式会社ＫＯＹＵ,,株式会社,愛知県,豊田市,太平町七曲１２番地３６８,,23,211,4710057,,,,,,,2022-04-12,1,,,,,コーユー,0
2600,8200001039968,新規,0,2022-04-12,2022-04-12,ヤマエツ歓写堂株式会社,,株式会社,岐阜県,岐阜市,則武東１丁目６番３３号,,21,201,5020929,,,,,,,2022-04-12,1,,,,,ヤマエツカンシャドウ,0
2623,8290001097157,新規,0,2022-04-12,2022-04-12,株式会社ＧＥＮ,,株式会社,福岡県,福岡市博多区,中洲５丁目４番１０号,,40,132,8100801,,,,,,,2022-04-12,1,,,,,ゲン,0
2624,8290001097165,新規,0,2022-04-12,2022-04-12,株式会社Ｋ,,株式会社,福岡県,福岡市博多区,中洲１丁目３－１５オンリーワンビル２Ｆ,,40,132,8100801,,,,,,,2022-04-12,1,,,,,ケイ,0
2632,8290005018605,新規,0,2022-04-12,2022-04-12,一般社団法人ｍａｉＰＬＡ,,その他の設立登記法人,福岡県,福岡市中央区,天神２丁目３番１０号天神パインクレスト７１９号,,40,133,8100001,,,,,,,2022-04-12,1,,,,,マイプラ,0
2634,8290801028435,新規,0,2022-04-12,2022-04-12,株式会社照和急送,,株式会社,福岡県,北九州市小倉北区,片野２丁目９番２３号,,40,106,8020064,,,,,,,2022-04-12,1,,,,,,0
2646,8350003004063,新規,0,2022-04-12,2022-04-12,オンディア合同会社,,合同会社,宮崎県,宮崎市,大字熊野４８８番地１,,45,201,8892151,,,,,,,2022-04-12,1,,,,,オンディア,0
2653,8360003011926,新規,0,2022-04-12,2022-04-12,合同会社Ｐｅａｃｅ４４Ｈｏｕｓｉｎｇ,,合同会社,沖縄県,国頭郡恩納村,字瀬良垣２４９２番地１,,47,311,9040404,,,,,,,2022-04-12,1,,,,,ピースフォーティーフォーハウジング,0
2654,8360003011934,新規,0,2022-04-12,2022-04-12,合同会社プロスペリテ,,合同会社,沖縄県,中頭郡読谷村,字長浜４９８番地１コーポメーバル３０３号室,,47,324,9040324,,,,,,,2022-04-12,1,,,,,プロスペリテ,0
2656,8370001048440,新規,0,2022-04-12,2022-04-12,株式会社鈴正,,株式会社,宮城県,宮城郡七ヶ浜町,東宮浜字東兼田１１番地の９,,04,404,9850804,,,,,,,2022-04-12,1,,,,,スズマサ,0
2657,8370001048449,新規,0,2022-04-12,2022-04-12,株式会社ＥＷＧ,,株式会社,宮城県,宮城郡七ヶ浜町,遠山２丁目１番６号,,04,404,9850823,,,,,,,2022-04-12,1,,,,,イーダブルジー,0
2658,8370003005654,新規,0,2022-04-12,2022-04-12,合同会社未来安全,,合同会社,宮城県,仙台市青葉区,千代田町９番３４号,,04,101,9810936,,,,,,,2022-04-12,1,,,,,ミライアンゼン,0
2659,8370005010470,新規,0,2022-04-12,2022-04-12,一般社団法人定禅寺通エリアマネジメント,,その他の設立登記法人,宮城県,仙台市青葉区,国分町３丁目３番１号,,04,101,9800803,,,,,,,2022-04-12,1,,,,,ジョウゼンジドオリエリアマネジメント,0
2677,8410003003645,新規,0,2022-04-12,2022-04-12,合同会社三幸木材,,合同会社,秋田県,由利本荘市,鳥海町小川字上根子９９番地１,,05,210,0150505,,,,,,,2022-04-12,1,,,,,サンコウモクザイ,0
2694,8430001086327,新規,0,2022-04-12,2022-04-12,株式会社ＳＡＴＯＳＨＩ,,株式会社,北海道,札幌市北区,新琴似五条５丁目８番１４号,,01,102,0010905,,,,,,,2022-04-12,1,,,,,サトシ,0
2695,8430001086384,新規,0,2022-04-12,2022-04-12,株式会社Ｓｈａｎｇｒｉ‐Ｌａ,,株式会社,北海道,札幌市中央区,南六条西２丁目８番地７,,01,101,0640806,,,,,,,2022-04-12,1,,,,,シャングリラ,0
2706,8470001019027,新規,0,2022-04-12,2022-04-12,株式会社貴翔,,株式会社,香川県,綾歌郡宇多津町,浜七番丁９４番地２（ツインタワー瀬戸大橋１４－９０４）,,37,386,7690207,,,,,,,2022-04-12,1,,,,,キショウ,0
2712,8500001024139,新規,0,2022-04-12,2022-04-12,ＳＥＬＡＣＴ株式会社,,株式会社,愛媛県,松山市,北井門２丁目１番１４号,,38,201,7911105,,,,,,,2022-04-12,1,,,,,セルアクト,0
2722,9010001225628,新規,0,2022-04-12,2022-04-12,ＥｌｅｃｔｒｏＲｏｕｔｅ　Ｊａｐａｎ株式会社,,株式会社,東京都,千代田区,丸の内２丁目３番１号,,13,101,1000005,,,,,,,2022-04-12,1,,,,,エレクトロルートジャパン,0
2723,9010001225818,新規,0,2022-04-12,2022-04-12,株式会社Ｐｒｏｆｅｓｓｉｏｎａｌ　Ｌｉｎｋ,,株式会社,東京都,中央区,銀座１丁目１５番７号マック銀座ビル３階,,13,102,1040061,,,,,,,2022-04-12,1,,,,,プロフェッショナルリンク,0
2731,9010401166496,新規,0,2022-04-12,2022-04-12,株式会社Ｓ＆Ｃｏｍｍｅｒｃｅ,,株式会社,東京都,港区,元麻布１丁目２番２３－１０５号,,13,103,1060046,,,,,,,2022-04-12,1,,,,,エスアンドコマース,0
2738,9010601060912,新規,0,2022-04-12,2022-04-12,株式会社玉光堂ホールディングス,,株式会社,東京都,墨田区,石原３丁目２番３号,,13,107,1300011,,,,,,,2022-04-12,1,,,,,ギョッコウドウホールディングス,0
2744,9010903007297,新規,0,2022-04-12,2022-04-12,Ｂｌｏｃｋｃｈａｉｎ　Ｓｏｌｕｔｉｏｎｓ　Ｊａｐａｎ合同会社,,合同会社,東京都,世田谷区,玉川２丁目１４－１１アベコーマンション６０２,,13,112,1580094,,,,,,,2022-04-12,1,,,,,ブロックチェーンソリューションズジャパン,0
2763,9011401024157,新規,0,2022-04-12,2022-04-12,上官株式会社,,株式会社,東京都,板橋区,徳丸１丁目１５番５号,,13,119,1750083,,,,,,,2022-04-12,1,,,,,ジョウカン,0
2765,9011501027927,新規,0,2022-04-12,2022-04-12,于生一東京株式会社,,株式会社,東京都,荒川区,南千住１丁目４５番８－３０４号,,13,118,1160003,,,,,,,2022-04-12,1,,,,,ウショウイチトウキョウ,0
2768,9011701025210,新規,0,2022-04-12,2022-04-12,瑠璃Ａｒｔ＆Ｍｕｓｉｃ株式会社,,株式会社,東京都,江戸川区,南小岩２丁目３番３号,,13,123,1330056,,,,,,,2022-04-12,1,,,,,ルリアートアンドミュージック,0
2769,9011701025219,新規,0,2022-04-12,2022-04-12,株式会社Ｂトラスト,,株式会社,東京都,江戸川区,西葛西３丁目１５番１６号ＩＲＩＳ・Ａ－１０１,,13,123,1340088,,,,,,,2022-04-12,1,,,,,ビートラスト,0
2771,9011703003115,新規,0,2022-04-12,2022-04-12,合同会社アイリス,,合同会社,東京都,江戸川区,西葛西５丁目６番２０号,,13,123,1340088,,,,,,,2022-04-12,1,,,,,,0
2776,9012401039079,新規,0,2022-04-12,2022-04-12,東盛株式会社,,株式会社,東京都,府中市,八幡町２丁目１９番地の４府中ガーデンハウス８０５,,13,206,1830016,,,,,,,2022-04-12,1,,,,,トウセイ,0
2779,9012805003102,新規,0,2022-04-12,2022-04-12,社会保険労務士法人ねっとわーくす,,その他の設立登記法人,東京都,立川市,柴崎町２丁目２番１６号立川ＭＡビル５０１号,,13,202,1900023,,,,,,,2022-04-12,1,,,,,ネットワークス,0
2787,9020001146039,新規,0,2022-04-12,2022-04-12,株式会社アドミンフェローズ,,株式会社,神奈川県,横浜市西区,北幸１丁目１１番１号水信ビル７階,,14,103,2200004,,,,,,,2022-04-12,1,,,,,アドミンフェローズ,0
2788,9020001146063,新規,0,2022-04-12,2022-04-12,ｊ‐ｆｒｅｅ　ｊａｐａｎ株式会社,,株式会社,神奈川県,横浜市中区,長者町４丁目１１番地１ルリエ横浜長者町１０１１号室,,14,104,2310033,,,,,,,2022-04-12,1,,,,,ジェイフリージャパン,0
2789,9020001146071,新規,0,2022-04-12,2022-04-12,株式会社伯楽,,株式会社,神奈川県,横浜市神奈川区,西寺尾１丁目３０番１５号ラパーチェ西寺尾Ａ号,,14,102,2210001,,,,,,,2022-04-12,1,,,,,ハクラク,0
2791,9020005015462,新規,0,2022-04-12,2022-04-12,医療法人社団ゆめクリニック,,その他の設立登記法人,神奈川県,横浜市戸塚区,戸塚町６００５番地３アスクレピオス戸塚４階,,14,110,2440003,,,,,,,2022-04-12,1,,,,,ユメクリニック,0
2805,9030001147498,新規,0,2022-04-12,2022-04-12,株式会社縁人,,株式会社,埼玉県,狭山市,大字水野４７９番地の３７,,11,215,3501317,,,,,,,2022-04-12,1,,,,,エニシスト,0
2808,9030003019183,新規,0,2022-04-12,2022-04-12,サニーサウンドＳＡＩＴＡＭＡ合同会社,,合同会社,埼玉県,所沢市,緑町４丁目５番１６号マルク新所沢４０２,,11,208,3591111,,,,,,,2022-04-12,1,,,,,,0
2812,9030005020800,新規,0,2022-04-12,2022-04-12,一般社団法人さいたま市子ども食堂ネットワーク,,その他の設立登記法人,埼玉県,さいたま市緑区,原山３丁目２０番９号,,11,109,3360931,,,,,,,2022-04-12,1,,,,,サイタマシコドモショクドウネットワーク,0
2824,9040001122987,新規,0,2022-04-12,2022-04-12,株式会社ＶＶＡ,,株式会社,千葉県,市川市,須和田２丁目３６番４０－１０４号,,12,203,2720825,,,,,,,2022-04-12,1,,,,,ブイブイエー,0
2825,9040001123011,新規,0,2022-04-12,2022-04-12,株式会社フロンティア,,株式会社,千葉県,白井市,冨士１８７番地の１０－４０８号,,12,232,2701432,,,,,,,2022-04-12,1,,,,,フロンティア,0
2826,9040001123028,新規,0,2022-04-12,2022-04-12,株式会社ＭＩＲＡＩ,,株式会社,千葉県,市川市,南八幡４丁目５番１２号,,12,203,2720023,,,,,,,2022-04-12,1,,,,,ミライ,0
2835,9040003019851,新規,0,2022-04-12,2022-04-12,合同会社ｃｏｕｒａｇｅ,,合同会社,千葉県,柏市,高柳１丁目７番地１２,,12,217,2770941,,,,,,,2022-04-12,1,,,,,カーレッジ,0
2836,9040003019868,新規,0,2022-04-12,2022-04-12,合同会社ＳＨＩＴＯ　ＦＡＲＭ,,合同会社,千葉県,大網白里市,細草２９８３番地,,12,239,2993211,,,,,,,2022-04-12,1,,,,,シトウファーム,0
2855,9080003002779,新規,0,2022-04-12,2022-04-12,合同会社ＡＱＵＡ　ＮＩＫＥ,,合同会社,静岡県,藤枝市,高柳１３９２番地の１１,,22,214,4260041,,,,,,,2022-04-12,1,,,,,アクアニケ,0
2858,9080101023207,新規,0,2022-04-12,2022-04-12,株式会社佐野商店,,株式会社,静岡県,富士宮市,猪之頭１５３８番地の１,,22,207,4180108,,,,,,,2022-04-12,1,,,,,サノショウテン,0
2865,9090003002076,新規,0,2022-04-12,2022-04-12,合同会社ＫＢＩ,,合同会社,山梨県,甲府市,池田３丁目１０番３６号,,19,201,4000062,,,,,,,2022-04-12,1,,,,,ケイビーワイ,0
2872,9100003006496,新規,0,2022-04-12,2022-04-12,合同会社ドリームウォーターハート,,合同会社,長野県,南佐久郡小海町,大字千代里３６２０番地１,,20,303,3841105,,,,,,,2022-04-12,1,,,,,ドリームウォーターハート,0
2873,9100005012856,新規,0,2022-04-12,2022-04-12,税理士法人飯田会計,,その他の設立登記法人,長野県,諏訪市,沖田町１丁目１３１番地１,,20,206,3920013,,,,,,,2022-04-12,1,,,,,イイダカイケイ,0
2875,9110001036585,新規,0,2022-04-12,2022-04-12,株式会社タナベＦＰ事務所,,株式会社,新潟県,三条市,北野新田７１９番地,,15,204,9550012,,,,,,,2022-04-12,1,,,,,タナベエフピージムショ,0
2881,9110005016781,新規,0,2022-04-12,2022-04-12,ＮＰＯ法人柿崎まちづくり振興会,,その他の設立登記法人,新潟県,上越市,柿崎区柿崎６４０５番地,,15,222,9493216,,,,,,,2022-04-12,1,,,,,カキザキマチヅクリシンコウカイ,0
2897,9120001245169,新規,0,2022-04-12,2022-04-12,株式会社ティーライズ,,株式会社,大阪府,大阪市此花区,伝法３丁目１１番２３号,,27,104,5540002,,,,,,,2022-04-12,1,,,,,ティーライズ,0
2904,9120003021460,新規,0,2022-04-12,2022-04-12,合同会社ＣＩＲＣＬＥ,,合同会社,大阪府,大阪市旭区,新森１丁目７－２－１１１４,,27,117,5350022,,,,,,,2022-04-12,1,,,,,サークル,0
2908,9120101065376,新規,0,2022-04-12,2022-04-12,株式会社ＭＯＭＩ,,株式会社,大阪府,堺市北区,南花田町８９番地の８,,27,146,5918011,,,,,,,2022-04-12,1,,,,,モミ,0
2910,9120903004102,新規,0,2022-04-12,2022-04-12,合同会社ＩＳＫコンサルティング,,合同会社,大阪府,豊中市,服部西町４丁目３番６号,,27,203,5610858,,,,,,,2022-04-12,1,,,,,アイエスケーコンサルティング,0
2919,9130001071424,新規,0,2022-04-12,2022-04-12,ラボっこねくと株式会社,,株式会社,京都府,京都市左京区,下鴨宮崎町１１９－１,,26,103,6060802,,,,,,,2022-04-12,1,,,,,ラボッコネクト,0
2920,9130001071531,新規,0,2022-04-12,2022-04-12,株式会社モビリティデザイン,,株式会社,京都府,宇治市,伊勢田町遊田４１番地の４０,,26,204,6110043,,,,,,,2022-04-12,1,,,,,モビリティデザイン,0
2923,9130003007863,新規,0,2022-04-12,2022-04-12,合同会社ＧＩＮＧｔｏＮＩＧＧ,,合同会社,京都府,京田辺市,花住坂１丁目２７番地７,,26,211,6100352,,,,,,,2022-04-12,1,,,,,ジントニッグ,0
2924,9130003007871,新規,0,2022-04-12,2022-04-12,Ｆｕｊｉ　Ｔｒａｄｅｒｓ合同会社,,合同会社,京都府,相楽郡精華町,大字菱田小字ハサマ２９番地,,26,366,6190246,,,,,,,2022-04-12,1,,,,,フジトレーダス,0
2925,9130005016425,新規,0,2022-04-12,2022-04-12,一般社団法人おひとりさま相続,,その他の設立登記法人,京都府,京都市中京区,烏丸通二条下る秋野々町５１４番地清栄ビル京都烏丸６階,,26,104,6040847,,,,,,,2022-04-12,1,,,,,オヒトリサマソウゾク,0
2929,9140001125443,新規,0,2022-04-12,2022-04-12,株式会社Ｔ’ｓ企画,,株式会社,兵庫県,神戸市須磨区,千守町１丁目１番５号,,28,107,6540072,,,,,,,2022-04-12,1,,,,,ティーズキカク,0
2930,9140001125492,新規,0,2022-04-12,2022-04-12,ＨＡＹＡＨＩＤＥ株式会社,,株式会社,兵庫県,伊丹市,奥畑２丁目１３０番地,,28,207,6640025,,,,,,,2022-04-12,1,,,,,ハヤヒデ,0
2931,9140001125583,新規,0,2022-04-12,2022-04-12,株式会社ボナール,,株式会社,兵庫県,西宮市,高松町１６番１５号メゾン高松１０１,,28,204,6638204,,,,,,,2022-04-12,1,,,,,ボナール,0
2934,9140005026142,新規,0,2022-04-12,2022-04-12,税理士法人よでんタックスマネジメント,,その他の設立登記法人,兵庫県,尼崎市,南武庫之荘１丁目２３番２６－５０３号,,28,202,6610033,,,,,,,2022-04-12,1,,,,,ヨデンタックスマネジメント,0
2937,9150005009385,新規,0,2022-04-12,2022-04-12,一般社団法人むらのいし,,その他の設立登記法人,奈良県,橿原市,今井町１丁目６番１号,,29,205,6340812,,,,,,,2022-04-12,1,,,,,ムラノイシ,0
2958,9180301036089,新規,0,2022-04-12,2022-04-12,ＥＶＯ株式会社,,株式会社,愛知県,額田郡幸田町,大字深溝字寅蔵８番地１,,23,501,4440124,,,,,,,2022-04-12,1,,,,,イヴォ,0
2962,9190001029318,新規,0,2022-04-12,2022-04-12,株式会社米正,,株式会社,三重県,桑名市,大字大福３５３番地５,,24,205,5110834,,,,,,,2022-04-12,1,,,,,ヨネショウ,0
2966,9200001039967,新規,0,2022-04-12,2022-04-12,株式会社樋口商店,00126245,株式会社,岐阜県,各務原市,松が丘１丁目１４１番地１１,,21,213,5090136,,,,,,,2022-04-12,1,,,,,ヒグチショウテン,0
2971,9210001018879,新規,0,2022-04-12,2022-04-12,大長商事株式会社,,株式会社,福井県,越前市,松森町第２４号９番地,,18,209,9150852,,,,,,,2022-04-12,1,,,,,ダイチョウショウジ,0
2974,9220001024802,新規,0,2022-04-12,2022-04-12,株式会社アイピーアイ,,株式会社,石川県,能美市,大成町リ７２番地１,,17,211,9290113,,,,,,,2022-04-12,1,,,,,アイピーアイ,0
2975,9220005008652,新規,0,2022-04-12,2022-04-12,ＮＰＯ法人ＳＦＣ,,その他の設立登記法人,石川県,金沢市,田上本町４丁目４０番地,,17,201,9201155,,,,,,,2022-04-12,1,,,,,エスエフシー,0
2990,9260001036744,新規,0,2022-04-12,2022-04-12,エコサービス井笠株式会社,,株式会社,岡山県,笠岡市,富岡４７５番地２０,,33,205,7140092,,,,,,,2022-04-12,1,,,,,エコサービスイカサ,0
2991,9260001036752,新規,0,2022-04-12,2022-04-12,株式会社Ｓスタンドプランニング,,株式会社,岡山県,津山市,田町９５－１０,,33,203,7080052,,,,,,,2022-04-12,1,,,,,エススタンドプランニング,0
2995,9270001008486,新規,0,2022-04-12,2022-04-12,株式会社メディカルケア・ソリューション,,株式会社,鳥取県,米子市,安倍２００番地１,,31,202,6830846,,,,,,,2022-04-12,1,,,,,メディカルケアソリューション,0
3000,9290001097172,新規,0,2022-04-12,2022-04-12,株式会社ＭＯＲＥ．,,株式会社,福岡県,福岡市中央区,警固２丁目１６番２１－８０３号,,40,133,8100023,,,,,,,2022-04-12,1,,,,,モア,0
3006,9300001012880,新規,0,2022-04-12,2022-04-12,株式会社きんぎょ薬局,,株式会社,佐賀県,武雄市,武雄町大字昭和１５９番地,,41,206,8430023,,,,,,,2022-04-12,1,,,,,キンギョヤッキョク,0
3016,9350001017693,新規,0,2022-04-12,2022-04-12,株式会社バーテックスプランニング,,株式会社,宮崎県,西都市,大字三宅８２１番地,,45,208,8810005,,,,,,,2022-04-12,1,,,,,バーテックスプランニング,0
3017,9350003004062,新規,0,2022-04-12,2022-04-12,Ｆｏｕｒ　Ｌｅａｆ合同会社,,合同会社,宮崎県,北諸県郡三股町,大字樺山７８８番地８０,,45,341,8891901,,,,,,,2022-04-12,1,,,,,フォーリーフ,0
3024,9390001016865,新規,0,2022-04-12,2022-04-12,マルホンファーム株式会社,,株式会社,山形県,西村山郡朝日町,大字大谷１２９７番地,,06,323,9901304,,,,,,,2022-04-12,1,,,,,マルホンファーム,0
3026,9400005008238,新規,0,2022-04-12,2022-04-12,一般社団法人岩手県マンション管理士会,,その他の設立登記法人,岩手県,盛岡市,北松園１丁目２番５号,,03,201,0200105,,,,,,,2022-04-12,1,,,,,イワテケンマンションカンリシカイ,0
3033,9420001017785,新規,0,2022-04-12,2022-04-12,株式会社ＫＯＭ．ＪＰ,,株式会社,青森県,十和田市,大字伝法寺字荊窪５７番地９,,02,206,0340051,,,,,,,2022-04-12,1,,,,,コムドットジェイピー,0
3037,9430001086342,新規,0,2022-04-12,2022-04-12,株式会社三上農場,,株式会社,北海道,夕張郡長沼町,西６線南５番地,,01,428,0691476,,,,,,,2022-04-12,1,,,,,ミカミノウジョウ,0
3038,9430001086367,新規,0,2022-04-12,2022-04-12,株式会社双王,,株式会社,北海道,札幌市豊平区,平岸一条２丁目８－１,,01,105,0620931,,,,,,,2022-04-12,1,,,,,ソウオウ,0
3039,9430001086383,新規,0,2022-04-12,2022-04-12,株式会社建翔,,株式会社,北海道,札幌市白石区,栄通６丁目１３番３５号,,01,104,0030021,,,,,,,2022-04-12,1,,,,,ケンショウ,0
3040,9430001086400,新規,0,2022-04-12,2022-04-12,株式会社Ｍｙ　Ｗａｙ,,株式会社,北海道,札幌市東区,北十九条東２２丁目１－１５－５１１,,01,103,0650019,,,,,,,2022-04-12,1,,,,,マイウェイ,0
3047,9470001019034,新規,0,2022-04-12,2022-04-12,やくもばし建物株式会社,,株式会社,香川県,高松市,中野町８番４号,,37,201,7600008,,,,,,,2022-04-12,1,,,,,,0
3049,9470005006433,新規,0,2022-04-12,2022-04-12,一般社団法人東かがわ市観光協会,,その他の設立登記法人,香川県,東かがわ市,湊１８４７番地１,,37,207,7692701,,,,,,,2022-04-12,1,,,,,ヒガシカガワシカンコウキョウカイ,0
3054,9500003002810,新規,0,2022-04-12,2022-04-12,合同会社みしま,,合同会社,愛媛県,松山市,堀江町甲１３１３番地１２,,38,201,7992651,,,,,,,2022-04-12,1,,,,,ミシマ,0
