sequenceNumber,corporateNumber,process,correct,updateDate,changeDate,name,nameImageId,kind,prefectureName,cityName,streetNumber,addressImageId,prefectureCode,cityCode,postCode,addressOutside,addressOutsideImageId,closeDate,closeCause,successorCorporateNumber,changeCause,assignmentDate,latest,enName,enPrefectureName,enCityName,enAddressOutside,furigana,hihyoji
9,1010001254700,新規,0,2025-05-13,2025-05-13,塵上株式会社,,株式会社,東京都,千代田区,神田平河町１番地第３東ビル６Ｆ－２１号室,,13,101,1010027,,,,,,,2025-05-13,1,,,,,ジンショウ,0
10,1010001254964,新規,0,2025-05-13,2025-05-13,株式会社ＢＵＩＬＤ,,株式会社,東京都,千代田区,大手町２丁目２番１号新大手町ビル３階,,13,101,1000004,,,,,,,2025-05-13,1,,,,,ビルド,0
11,1010001255013,新規,0,2025-05-13,2025-05-13,株式会社ＴｏＩ　Ｎｅｘｕｓ,,株式会社,東京都,文京区,本郷６丁目２５番１４号,,13,105,1130033,,,,,,,2025-05-13,1,,,,,トイネクサス,0
13,1010005040031,新規,0,2025-05-13,2025-05-13,特定非営利活動法人ＣａｒｅＰｌｕｓ,,その他の設立登記法人,東京都,千代田区,神田淡路町２丁目３番１２号安和淡路町ビル２階,,13,101,1010063,,,,,,,2025-05-13,1,,,,,ケアプラス,0
21,1010401190280,新規,0,2025-05-13,2025-05-13,青山ストラテジックパートナーズ株式会社,,株式会社,東京都,港区,南青山３丁目７番１０号－１０５,,13,103,1070062,,,,,,,2025-05-13,1,,,,,アオヤマストラテジックパートナーズ,0
23,1010403035021,新規,0,2025-05-13,2025-05-13,合同会社ＭＡＲ,,合同会社,東京都,港区,赤坂９丁目１番７赤坂レジデンシャルホテル３５５号室,,13,103,1070052,,,,,,,2025-05-13,1,,,,,エムエーアール,0
29,1010603011557,新規,0,2025-05-13,2025-05-13,Ｕｎ　Ｅｓｐｒｉｔ　Ｌｉｂｒｅ合同会社,,合同会社,東京都,江東区,有明３丁目７－２６有明フロンティアビルＢ棟９Ｆ,,13,108,1350063,,,,,,,2025-05-13,1,,,,,アンエスプリリブレ,0
41,1011001169418,新規,0,2025-05-13,2025-05-13,株式会社ＳｔｕｄｉｏＬｕｃａ,,株式会社,東京都,渋谷区,恵比寿１丁目１５番９号日宝恵比寿ビル４０３,,13,113,1500013,,,,,,,2025-05-13,1,,,,,スタジオルカ,0
42,1011001169426,新規,0,2025-05-13,2025-05-13,ＧｒｏｕｐＸ株式会社,,株式会社,東京都,渋谷区,道玄坂１丁目１２番１号渋谷マークシティ１１階Ｅ３,,13,113,1500043,,,,,,,2025-05-13,1,,,,,グループエックス,0
43,1011001169665,新規,0,2025-05-13,2025-05-13,株式会社ゆかプロモーション,,株式会社,東京都,渋谷区,宇田川町６番２０号パラシオン渋谷３０５,,13,113,1500042,,,,,,,2025-05-13,1,,,,,ユカプロモーション,0
45,1011003021320,新規,0,2025-05-13,2025-05-13,日本カードハウス合同会社,,合同会社,東京都,渋谷区,富ヶ谷１丁目１４番１４号３階・４階,,13,113,1510063,,,,,,,2025-05-13,1,,,,,ニホンカードハウス,0
51,1011101111642,新規,0,2025-05-13,2025-05-13,株式会社仁天堂,,株式会社,東京都,新宿区,西新宿１丁目１５－６ゴールドビル１Ｆ,,13,104,1600023,,,,,,,2025-05-13,1,,,,,ニンテンドウ,0
52,1011101111675,新規,0,2025-05-13,2025-05-13,株式会社ＡｄｄＶａｌｕｅ,,株式会社,東京都,新宿区,西新宿５丁目１８番２６号パレステュディオ西新宿３０６,,13,104,1600023,,,,,,,2025-05-13,1,,,,,アドバリュー,0
55,1011103015800,新規,0,2025-05-13,2025-05-13,合同会社虎岩,,合同会社,東京都,新宿区,百人町３丁目２６番１号,,13,104,1690073,,,,,,,2025-05-13,1,,,,,トライワ,0
63,1011401027084,新規,0,2025-05-13,2025-05-13,株式会社Ｈｏｕｓｅ　Ｎａｖｉ,,株式会社,東京都,板橋区,成増３丁目１５番１６－１０５号,,13,119,1750094,,,,,,,2025-05-13,1,,,,,ハウスナビ,0
70,1011801046106,新規,0,2025-05-13,2025-05-13,ＲＮＳ株式会社,,株式会社,東京都,葛飾区,東堀切３丁目１１番１３号,,13,122,1240004,,,,,,,2025-05-13,1,,,,,アールエヌエス,0
76,1012401043088,新規,0,2025-05-13,2025-05-13,株式会社ユウナギ,,株式会社,東京都,三鷹市,下連雀３丁目２２―１５,,13,204,1810013,,,,,,,2025-05-13,1,,,,,ユウナギ,0
77,1012701018772,新規,0,2025-05-13,2025-05-13,株式会社暁,,株式会社,東京都,東村山市,恩多町１丁目２４－４０,,13,213,1890011,,,,,,,2025-05-13,1,,,,,アカツキ,0
81,1013301054233,新規,0,2025-05-13,2025-05-13,ＡＳＭＡ　ＪＡＰＡＮ株式会社,,株式会社,東京都,豊島区,巣鴨１丁目９番１号グランド東邦ビル,,13,116,1700002,,,,,,,2025-05-13,1,,,,,アスマジャパン,0
82,1013301054241,新規,0,2025-05-13,2025-05-13,株式会社Ｂｌａｎｔ,,株式会社,東京都,豊島区,東池袋３丁目１２－１２正和ビル４ＦＡ号室,,13,116,1700013,,,,,,,2025-05-13,1,,,,,ブラント,0
106,1021003015973,新規,0,2025-05-13,2025-05-13,合同会社ウタ,,合同会社,神奈川県,座間市,東原４丁目３番２３Ｂ－３０４号,,14,216,2520004,,,,,,,2025-05-13,1,,,,,ウタ,0
116,1030001166464,新規,0,2025-05-13,2025-05-13,ツナガルリクルーティング株式会社,,株式会社,埼玉県,富士見市,上沢１丁目１３番５３号,,11,235,3540034,,,,,,,2025-05-13,1,,,,,ツナガルリクルーティング,0
117,1030001166472,新規,0,2025-05-13,2025-05-13,株式会社秀和電気,,株式会社,埼玉県,熊谷市,大麻生９０１番地３,,11,202,3600835,,,,,,,2025-05-13,1,,,,,シュウワデンキ,0
118,1030001166489,新規,0,2025-05-13,2025-05-13,株式会社ラクラス東京,,株式会社,埼玉県,川口市,川口５丁目２番６号,,11,203,3320015,,,,,,,2025-05-13,1,,,,,ラクラストウキョウ,0
130,1040001138719,新規,0,2025-05-13,2025-05-13,株式会社大西商事,,株式会社,千葉県,柏市,十余二４番地１０６,,12,217,2770872,,,,,,,2025-05-13,1,,,,,オオニシショウジ,0
131,1040001138727,新規,0,2025-05-13,2025-05-13,株式会社じい＆みい,,株式会社,千葉県,成田市,松崎２０１８番地,,12,211,2860846,,,,,,,2025-05-13,1,,,,,ジイアンドミイ,0
132,1040001138735,新規,0,2025-05-13,2025-05-13,株式会社ＡＣＴＡＲＩＳＥ,,株式会社,千葉県,市川市,大洲２丁目４番地５号,,12,203,2720032,,,,,,,2025-05-13,1,,,,,アクトアライズ,0
133,1040001138743,新規,0,2025-05-13,2025-05-13,ジョイントライド東京株式会社,,株式会社,千葉県,柏市,大井１４６－３８,,12,217,2770902,,,,,,,2025-05-13,1,,,,,ジョイントライドトウキョウ,0
141,1050001056647,新規,0,2025-05-13,2025-05-13,株式会社丸勝,,株式会社,茨城県,結城郡八千代町,大字大間木４６９番地２０,,08,521,3003552,,,,,,,2025-05-13,1,,,,,マルカツ,0
143,1050005013628,新規,0,2025-05-13,2025-05-13,医療法人翠楓会,,その他の設立登記法人,茨城県,土浦市,神立町字坪ノ内１８５２番地１,,08,203,3000013,,,,,,,2025-05-13,1,,,,,スイフウカイ,0
144,1060001038181,新規,0,2025-05-13,2025-05-13,ＭＩＹＡＺＡＷＡホールディングス株式会社,,株式会社,栃木県,那須塩原市,上赤田２３８番地,,09,213,3292748,,,,,,,2025-05-13,1,,,,,ミヤザワホールディングス,0
154,1080405007739,新規,0,2025-05-13,2025-05-13,ＮＰＯ法人ＳＰＴアカデミー,,その他の設立登記法人,静岡県,浜松市中央区,西塚町３２１番地の６,,22,138,4350044,,,,,,,2025-05-13,1,,,,,エスピーティアカデミー,0
161,1110001039240,新規,0,2025-05-13,2025-05-13,新潟住環境株式会社,,株式会社,新潟県,新潟市北区,太田甲２６６２番地９,,15,101,9503313,,,,,,,2025-05-13,1,,,,,ニイガタジュウカンキョウ,0
162,1110001039257,新規,0,2025-05-13,2025-05-13,株式会社ＳＧＲ,,株式会社,新潟県,新潟市西区,青山２丁目５番１号イオン新潟青山店２階ホワイトニングカフェ,,15,107,9502002,,,,,,,2025-05-13,1,,,,,エスジーアール,0
163,1110003005752,新規,0,2025-05-13,2025-05-13,合同会社うつわ,,合同会社,新潟県,新潟市中央区,米山２丁目２番９号,,15,103,9500916,,,,,,,2025-05-13,1,,,,,ウツワ,0
180,1120001274951,新規,0,2025-05-13,2025-05-13,ＡｒｔＣｏ株式会社,,株式会社,大阪府,大阪市東成区,東今里３丁目１５番２７号３０１,,27,115,5370011,,,,,,,2025-05-13,1,,,,,アートコ,0
181,1120001275231,新規,0,2025-05-13,2025-05-13,株式会社橙工,,株式会社,大阪府,大阪市住吉区,長居東１丁目２５番１３号,,27,120,5580004,,,,,,,2025-05-13,1,,,,,トウコウ,0
182,1120001275322,新規,0,2025-05-13,2025-05-13,株式会社ＹＲＥ,,株式会社,大阪府,大阪市北区,天神西町２番８－１００２号,,27,127,5300045,,,,,,,2025-05-13,1,,,,,ワイアールイー,0
183,1120001275470,新規,0,2025-05-13,2025-05-13,未来株式会社,,株式会社,大阪府,大阪市住吉区,杉本１丁目９－１６グランビルドアビコＩＩ５０３,00139120,27,120,5580022,,,,,,,2025-05-13,1,,,,,ミライ,0
184,1120001275520,新規,0,2025-05-13,2025-05-13,Ｏｌｌｙｖａｎ株式会社,,株式会社,大阪府,大阪市城東区,東中浜３丁目２番２３－２０６号,,27,118,5360023,,,,,,,2025-05-13,1,,,,,オリヴァン,0
185,1120001275611,新規,0,2025-05-13,2025-05-13,星光株式会社,,株式会社,大阪府,大阪市港区,南市岡３丁目１０番２号１０２室,,27,107,5520011,,,,,,,2025-05-13,1,,,,,セイコウ,0
186,1120001275693,新規,0,2025-05-13,2025-05-13,大摩株式会社,,株式会社,大阪府,大阪市東淀川区,西淡路５丁目１番１号２階２０４－７号室,,27,114,5330031,,,,,,,2025-05-13,1,,,,,ダイマ,0
187,1120001275743,新規,0,2025-05-13,2025-05-13,株式会社ライフファーム,,株式会社,大阪府,大阪市生野区,舎利寺３丁目６番５号,,27,116,5440022,,,,,,,2025-05-13,1,,,,,ライフファーム,0
188,1120001275834,新規,0,2025-05-13,2025-05-13,リライフ株式会社,,株式会社,大阪府,大阪市東淀川区,東中島１丁目１７番５ステュディオ新大阪９１４,,27,114,5330033,,,,,,,2025-05-13,1,,,,,リライフ,0
189,1120001275850,新規,0,2025-05-13,2025-05-13,株式会社Ｎｅｗ　Ｃｏｎｎｅｃｔｉｏｎｓ,,株式会社,大阪府,大阪市中央区,南船場１丁目４－１６,,27,128,5420081,,,,,,,2025-05-13,1,,,,,ニューコネクションズ,0
191,1120003029321,新規,0,2025-05-13,2025-05-13,合同会社笑,,合同会社,大阪府,大阪市東成区,東中本３丁目１番３０号,,27,115,5370021,,,,,,,2025-05-13,1,,,,,エミ,0
192,1120003029338,新規,0,2025-05-13,2025-05-13,合同会社ＳＴＡＲ,,合同会社,大阪府,大阪市淀川区,塚本２丁目２８番２４－１０１号,,27,123,5320026,,,,,,,2025-05-13,1,,,,,スター,0
193,1120003029346,新規,0,2025-05-13,2025-05-13,合同会社山手コンサルティング,,合同会社,大阪府,大阪市中央区,谷町１丁目５番７号ストークビル天満橋９０２号室,,27,128,5400012,,,,,,,2025-05-13,1,,,,,ヤマテコンサルティング,0
196,1120103006451,新規,0,2025-05-13,2025-05-13,ＫＤグローバル合同会社,,合同会社,大阪府,泉佐野市,大木４３２,,27,213,5980023,,,,,,,2025-05-13,1,,,,,ケイディーグローバル,0
200,1120903005652,新規,0,2025-05-13,2025-05-13,合同会社２６２６カンパニー,,合同会社,大阪府,吹田市,津雲台１丁目１番２－１２０５号,,27,205,5650862,,,,,,,2025-05-13,1,,,,,ツルツルカンパニー,0
206,1130001079648,新規,0,2025-05-13,2025-05-13,株式会社イズミトレーディング,,株式会社,京都府,京都市北区,上賀茂荒草町２４－３,,26,101,6038061,,,,,,,2025-05-13,1,,,,,イズミトレーディング,0
208,1130003010453,新規,0,2025-05-13,2025-05-13,オープンフィールド合同会社,,合同会社,京都府,宇治市,宇治半白２２番地の１４－３階,,26,204,6110021,,,,,,,2025-05-13,1,,,,,オープンフィールド,0
217,1140001138477,新規,0,2025-05-13,2025-05-13,池水設備株式会社,,株式会社,兵庫県,明石市,大蔵町１４番９号,,28,203,6730872,,,,,,,2025-05-13,1,,,,,イケミズセツビ,0
218,1140001138510,新規,0,2025-05-13,2025-05-13,株式会社ＥＮ,,株式会社,兵庫県,川西市,出在家町１３－８－４０１,,28,217,6660011,,,,,,,2025-05-13,1,,,,,エン,0
219,1140003022019,新規,0,2025-05-13,2025-05-13,Ｒｏｏｍ　Ｔｏｕｒｉｓｔ合同会社,,合同会社,兵庫県,神戸市中央区,脇浜町３丁目４番１３－８０３号,,28,110,6510072,,,,,,,2025-05-13,1,,,,,ルームツーリスト,0
220,1140003022027,新規,0,2025-05-13,2025-05-13,ＯＧＮ合同会社,,合同会社,兵庫県,宝塚市,宝松苑１４－７,,28,214,6650016,,,,,,,2025-05-13,1,,,,,オージーエヌ,0
221,1160001026746,新規,0,2025-05-13,2025-05-13,株式会社プラス,,株式会社,滋賀県,大津市,南志賀１丁目１７番２９－２１３号,,25,201,5200011,,,,,,,2025-05-13,1,,,,,プラス,0
222,1160003003470,新規,0,2025-05-13,2025-05-13,合同会社丹後,,合同会社,滋賀県,彦根市,正法寺町５１９番地１８,,25,202,5220024,,,,,,,2025-05-13,1,,,,,タンゴ,0
225,1170001018610,新規,0,2025-05-13,2025-05-13,株式会社Ａ＆Ｃｏ．,,株式会社,和歌山県,和歌山市,神前１８２番地１,,30,201,6408314,,,,,,,2025-05-13,1,,,,,エーアンドコー,0
229,1180001166648,新規,0,2025-05-13,2025-05-13,株式会社Ｆｉｒｓｔ　Ｓｔａｇｅ,,株式会社,愛知県,名古屋市熱田区,金山町１丁目１４番６号,,23,109,4560002,,,,,,,2025-05-13,1,,,,,ファーストステージ,0
230,1180001166771,新規,0,2025-05-13,2025-05-13,株式会社ｃｏｚｙ,,株式会社,愛知県,名古屋市東区,東桜２丁目８番３１号,,23,102,4610005,,,,,,,2025-05-13,1,,,,,コジィ,0
238,1180005021097,新規,0,2025-05-13,2025-05-13,一般社団法人ＬＥＧＡＬ　ＦＲＯＮＴＩＥＲ　ＧＲＯＵＰ,,その他の設立登記法人,愛知県,名古屋市中区,丸の内１丁目１７番１９号キリックス丸の内ビル７Ｆ,,23,106,4600002,,,,,,,2025-05-13,1,,,,,リーガルフロンティアグループ,0
240,1180301039801,新規,0,2025-05-13,2025-05-13,株式会社ＪＨＮ笑,,株式会社,愛知県,岡崎市,竜美大入町２丁目５番地２,,23,202,4440870,,,,,,,2025-05-13,1,,,,,ジェイエイチエヌエミ,0
242,1190001032213,新規,0,2025-05-13,2025-05-13,ｃｒｅｗｓ　ｃｒｕｉｓｅ株式会社,,株式会社,三重県,津市,一志町高野１６０番地７４１,,24,201,5152504,,,,,,,2025-05-13,1,,,,,,0
247,1210001020165,新規,0,2025-05-13,2025-05-13,ライス株式会社,,株式会社,福井県,福井市,舟橋新１丁目４０４番地２,,18,201,9100068,,,,,,,2025-05-13,1,,,,,ライス,0
250,1230003002424,新規,0,2025-05-13,2025-05-13,合同会社グッド・ドクター,,合同会社,富山県,富山市,根塚町４丁目４番地９,,16,201,9398204,,,,,,,2025-05-13,1,,,,,グッドドクター,0
257,1240001064936,新規,0,2025-05-13,2025-05-13,株式会社ＳＥＴＵＰ,,株式会社,広島県,東広島市,西条町田口３６８番地７１,,34,212,7390036,,,,,,,2025-05-13,1,,,,,セットアップ,0
262,1260001040159,新規,0,2025-05-13,2025-05-13,株式会社いきこと農場,,株式会社,岡山県,津山市,加茂町知和７０,,33,203,7093914,,,,,,,2025-05-13,1,,,,,イキコトノウジョウ,0
263,1260005011478,新規,0,2025-05-13,2025-05-13,一般社団法人こども性暴力防止ネットワーク,,その他の設立登記法人,岡山県,倉敷市,沖新町７番地１０,,33,202,7100837,,,,,,,2025-05-13,1,,,,,コドモセイボウリョクボウシネットワーク,0
264,1270001009203,新規,0,2025-05-13,2025-05-13,株式会社光希,,株式会社,鳥取県,鳥取市,浜坂３丁目２番２８－３０３号アンダマン３０３号,,31,201,6800001,,,,,,,2025-05-13,1,,,,,コウキ,0
267,1290001109562,新規,0,2025-05-13,2025-05-13,株式会社サニックスインベストメント,,株式会社,福岡県,福岡市博多区,博多駅東２丁目１番２３号,,40,132,8120013,,,,,,,2025-05-13,1,,,,,,0
268,1290001109975,新規,0,2025-05-13,2025-05-13,和輝エナジー株式会社,,株式会社,福岡県,福岡市博多区,博多駅南２丁目１－５－２０２,,40,132,8120016,,,,,,,2025-05-13,1,,,,,ワキエナジー,0
276,1290801031528,新規,0,2025-05-13,2025-05-13,株式会社ティーコーポレーション,,株式会社,福岡県,田川市,大字弓削田１２８３番地４,,40,206,8260041,,,,,,,2025-05-13,1,,,,,ティーコーポレーション,0
277,1290801031544,新規,0,2025-05-13,2025-05-13,株式会社ＫＳ工業,,株式会社,福岡県,田川郡大任町,大字大行事３６３３番地１,,40,608,8240512,,,,,,,2025-05-13,1,,,,,ケイエスコウギョウ,0
278,1290803005050,新規,0,2025-05-13,2025-05-13,合同会社スタープロ,,合同会社,福岡県,北九州市小倉北区,竪町２丁目４－４,,40,106,8030818,,,,,,,2025-05-13,1,,,,,スタープロ,0
281,1320003004659,新規,0,2025-05-13,2025-05-13,合同会社ひまより,,合同会社,大分県,大分市,大字木上４０７番地の１６,,44,201,8701161,,,,,,,2025-05-13,1,,,,,ヒマヨリ,0
282,1320005010242,新規,0,2025-05-13,2025-05-13,ＮＰＯ法人国際教育文化福祉研究所ＥＮＧＡＴＥ九州,,その他の設立登記法人,大分県,中津市,中央町１丁目７番２４号,,44,203,8710024,,,,,,,2025-05-13,1,,,,,,0
294,1350003004929,新規,0,2025-05-13,2025-05-13,おのだホーム合同会社,,合同会社,宮崎県,都城市,梅北町１７８０番地１,,45,202,8850063,,,,,,,2025-05-13,1,,,,,オノダホーム,0
296,1360001035181,新規,0,2025-05-13,2025-05-13,株式会社ＩｎＢｅａ,,株式会社,沖縄県,浦添市,西原１丁目１１－１,,47,208,9012101,,,,,,,2025-05-13,1,,,,,インビー,0
297,1360001035198,新規,0,2025-05-13,2025-05-13,株式会社ＳＨＩＭＯＺＡＴＯ,,株式会社,沖縄県,中頭郡北谷町,美浜２丁目５番地２０,,47,326,9040115,,,,,,,2025-05-13,1,,,,,シモザト,0
298,1360003014902,新規,0,2025-05-13,2025-05-13,合同会社Ｔ．Ｃ．Ｓしろねこ,,合同会社,沖縄県,名護市,字安部４００番地２,,47,209,9052263,,,,,,,2025-05-13,1,,,,,ティーシーエスシロネコ,0
302,1370001052556,新規,0,2025-05-13,2025-05-13,株式会社Ｒｉｓｅ開発,,株式会社,宮城県,仙台市太白区,山田北前町４５番１－４０６号,,04,104,9820813,,,,,,,2025-05-13,1,,,,,ライズカイハツ,0
309,1390001017986,新規,0,2025-05-13,2025-05-13,株式会社直吉,,株式会社,山形県,山形市,大字千手堂１４００番地,,06,201,9902172,,,,,,,2025-05-13,1,,,,,ナオキチ,0
313,1400001017035,新規,0,2025-05-13,2025-05-13,カミツレ株式会社,,株式会社,岩手県,宮古市,長根２丁目８番１３号,,03,202,0270055,,,,,,,2025-05-13,1,,,,,カミツレ,0
314,1400005008492,新規,0,2025-05-13,2025-05-13,一般社団法人パステルフォーシーズン,,その他の設立登記法人,岩手県,奥州市,江刺愛宕字北天間１３２番地,,03,215,0231131,,,,,,,2025-05-13,1,,,,,パステルフォーシーズン,0
326,1430003017559,新規,0,2025-05-13,2025-05-13,合同会社Ｔ＆Ｄ,,合同会社,北海道,札幌市西区,山の手二条１１丁目１番１５－２０２号,,01,107,0630002,,,,,,,2025-05-13,1,,,,,ティーアンドディー,0
330,1470001020701,新規,0,2025-05-13,2025-05-13,株式会社ＺＥＲＯ,,株式会社,香川県,高松市,太田下町２２８１番地３,,37,201,7618073,,,,,,,2025-05-13,1,,,,,ゼロ,0
338,2010001254682,新規,0,2025-05-13,2025-05-13,ＵＦＢ　ＴＥＣＨ株式会社,,株式会社,東京都,中央区,日本橋２丁目１番１７号,,13,102,1030027,,,,,,,2025-05-13,1,,,,,ユーエフビーテック,0
339,2010001254699,新規,0,2025-05-13,2025-05-13,Ｓｔａｒｆａｌｌ　Ｔｅｃｈ株式会社,,株式会社,東京都,千代田区,神田佐久間町３丁目３８第５東ビル５Ｆ－９号室,,13,101,1010025,,,,,,,2025-05-13,1,,,,,スターフォールテック,0
340,2010001254765,新規,0,2025-05-13,2025-05-13,隆栄株式会社,,株式会社,東京都,千代田区,神田三崎町３丁目６番２号,,13,101,1010061,,,,,,,2025-05-13,1,,,,,リュウエイ,0
341,2010001254947,新規,0,2025-05-13,2025-05-13,株式会社ＭＫＪ,,株式会社,東京都,文京区,関口２丁目８番４－５０４号,,13,105,1120014,,,,,,,2025-05-13,1,,,,,エムケージェイ,0
343,2010003047325,新規,0,2025-05-13,2025-05-13,ＩＧＩＳ‐ＫＫＭ合同会社,,合同会社,東京都,千代田区,三番町５番地１１－１４０２号,,13,101,1020075,,,,,,,2025-05-13,1,,,,,イージスケーケーエム,0
347,2010103002568,新規,0,2025-05-13,2025-05-13,スフェーン合同会社,,合同会社,東京都,八王子市,犬目町９１８番地１ロイヤルレジデンス１０５,,13,201,1930802,,,,,,,2025-05-13,1,,,,,スフェーン,0
357,2010401190206,新規,0,2025-05-13,2025-05-13,Ｊａｐａｎホイール株式会社,,株式会社,東京都,港区,新橋３丁目９－１０天翔新橋ビル１０階１００１号室,,13,103,1050004,,,,,,,2025-05-13,1,,,,,ジャパンホイール,0
358,2010401190288,新規,0,2025-05-13,2025-05-13,株式会社ＢＯＺ,,株式会社,東京都,港区,東麻布１丁目９番１１号,,13,103,1060044,,,,,,,2025-05-13,1,,,,,ボズ,0
381,2011001169367,新規,0,2025-05-13,2025-05-13,ユニアセット株式会社,,株式会社,東京都,渋谷区,初台２丁目２７番５号初台ロイヤルマンション３０５,,13,113,1510061,,,,,,,2025-05-13,1,,,,,ユニアセット,0
382,2011001169648,新規,0,2025-05-13,2025-05-13,株式会社Ｔａｌｉｓｍａｎ,,株式会社,東京都,渋谷区,道玄坂１丁目７番１０号新大宗ソシアルビル５階,,13,113,1500043,,,,,,,2025-05-13,1,,,,,タリスマン,0
383,2011001169755,新規,0,2025-05-13,2025-05-13,株式会社ウエハラクルー,,株式会社,東京都,渋谷区,上原１丁目３番９号,,13,113,1510064,,,,,,,2025-05-13,1,,,,,ウエハラクルー,0
385,2011003021575,新規,0,2025-05-13,2025-05-13,合同会社アシスト,,合同会社,東京都,渋谷区,神南１丁目１１番４号,,13,113,1500041,,,,,,,2025-05-13,1,,,,,アシスト,0
395,2011201026343,新規,0,2025-05-13,2025-05-13,株式会社サン,,株式会社,東京都,中野区,上高田３丁目１６番３号,,13,114,1640002,,,,,,,2025-05-13,1,,,,,サン,0
397,2011303005542,新規,0,2025-05-13,2025-05-13,合同会社ウルフムーン,,合同会社,東京都,杉並区,善福寺３丁目２５番１号パークウェスト,,13,115,1670041,,,,,,,2025-05-13,1,,,,,ウルフムーン,0
398,2011401027083,新規,0,2025-05-13,2025-05-13,株式会社ＧＥＴ　ＡＬＯＮＧ,,株式会社,東京都,板橋区,大山町２９番９号,,13,119,1730023,,,,,,,2025-05-13,1,,,,,ゲットアロング,0
400,2011701028327,新規,0,2025-05-13,2025-05-13,株式会社Ｈａｒｍｏｎｉａ,,株式会社,東京都,江戸川区,春江町４丁目８番地３,,13,123,1340003,,,,,,,2025-05-13,1,,,,,ハーモニア,0
404,2011803006858,新規,0,2025-05-13,2025-05-13,ナカムラ商会合同会社,,合同会社,東京都,足立区,千住旭町３７番７号,,13,121,1200026,,,,,,,2025-05-13,1,,,,,ナカムラショウカイ,0
405,2012401043070,新規,0,2025-05-13,2025-05-13,株式会社ウイングワークス,,株式会社,東京都,三鷹市,中原１丁目２５番２６号,,13,204,1810005,,,,,,,2025-05-13,1,,,,,ウイングワークス,0
408,2012801023952,新規,0,2025-05-13,2025-05-13,目黒リフォームスタジオ株式会社,,株式会社,東京都,東大和市,芋窪１丁目２０６０番地の８,,13,220,2070033,,,,,,,2025-05-13,1,,,,,メグロリフォームスタジオ,0
412,2013301054232,新規,0,2025-05-13,2025-05-13,ビジョニスト株式会社,,株式会社,東京都,豊島区,南長崎１丁目４番５－１０４号,,13,116,1710052,,,,,,,2025-05-13,1,,,,,ビジョニスト,0
413,2013301054240,新規,0,2025-05-13,2025-05-13,日工ホールディングス株式会社,,株式会社,東京都,豊島区,東池袋５丁目４０番９号,,13,116,1700013,,,,,,,2025-05-13,1,,,,,ニッコウホールディングス,0
414,2013303007659,新規,0,2025-05-13,2025-05-13,合同会社ジャワジャワツアーズ,,合同会社,東京都,豊島区,南大塚１丁目６０番２０号,,13,116,1700005,,,,,,,2025-05-13,1,,,,,ジャワジャワツアーズ,0
435,2030001166216,新規,0,2025-05-13,2025-05-13,株式会社Ｌｉｌｙ,,株式会社,埼玉県,草加市,谷塚上町２２２－２１,,11,221,3400024,,,,,,,2025-05-13,1,,,,,リリー,0
436,2030001166430,新規,0,2025-05-13,2025-05-13,株式会社ハートフル,,株式会社,埼玉県,春日部市,東中野１０９７番地２,,11,214,3440114,,,,,,,2025-05-13,1,,,,,ハートフル,0
437,2030001166463,新規,0,2025-05-13,2025-05-13,株式会社ヴェルテ・グローバル・ジャパン,,株式会社,埼玉県,川口市,元郷５丁目１９番１３号,,11,203,3320011,,,,,,,2025-05-13,1,,,,,ヴェルテグローバルジャパン,0
438,2030001166521,新規,0,2025-05-13,2025-05-13,株式会社ＰＯＣＯＢＲＡＩＮ,,株式会社,埼玉県,和光市,南１丁目２９番７－２０２号,,11,229,3510104,,,,,,,2025-05-13,1,,,,,ポコブレイン,0
447,2040001138494,新規,0,2025-05-13,2025-05-13,株式会社森川住設,,株式会社,千葉県,四街道市,池花２丁目１９番２１号,,12,228,2840014,,,,,,,2025-05-13,1,,,,,モリカワジュウセツ,0
448,2040001138643,新規,0,2025-05-13,2025-05-13,株式会社Ｗｈｉｓｋｙ　Ｏｎ　Ｔｈｅ　Ｌｉｎｅ,,株式会社,千葉県,市川市,新田２丁目１７番７－１０２号,,12,203,2720035,,,,,,,2025-05-13,1,,,,,ウィスキーオンザライン,0
449,2040001138651,新規,0,2025-05-13,2025-05-13,株式会社ＳＴＢ,,株式会社,千葉県,市川市,鬼高３丁目１番１７号,,12,203,2720015,,,,,,,2025-05-13,1,,,,,エスティービー,0
450,2040001138701,新規,0,2025-05-13,2025-05-13,株式会社グレスフォート,,株式会社,千葉県,八千代市,高津１１９６－７グリーンハイツ石井Ｂ４０３,,12,221,2760036,,,,,,,2025-05-13,1,,,,,グレスフォート,0
455,2050001056613,新規,0,2025-05-13,2025-05-13,株式会社ＭＵＳＵＢＡＲＵ,,株式会社,茨城県,取手市,ゆめみ野１丁目４番地４８,,08,217,3020039,,,,,,,2025-05-13,1,,,,,ムスバル,0
456,2050001056662,新規,0,2025-05-13,2025-05-13,株式会社秋真,,株式会社,茨城県,神栖市,波崎６４４０番地１,,08,232,3140408,,,,,,,2025-05-13,1,,,,,シュウシン,0
470,2080003003453,新規,0,2025-05-13,2025-05-13,Ｓｈｉｏｎ合同会社,,合同会社,静岡県,焼津市,道原１２１６－７,,22,212,4250055,,,,,,,2025-05-13,1,,,,,シオン,0
483,2110001039248,新規,0,2025-05-13,2025-05-13,株式会社ＡＤＣ　ＡＮ,,株式会社,新潟県,新発田市,上館３８番地,,15,206,9592452,,,,,,,2025-05-13,1,,,,,エディックアン,0
484,2110001039256,新規,0,2025-05-13,2025-05-13,コスギ板金株式会社,,株式会社,新潟県,新潟市江南区,祖父興野１５番地２,,15,104,9501144,,,,,,,2025-05-13,1,,,,,コスギバンキン,0
486,2110003005751,新規,0,2025-05-13,2025-05-13,合同会社建築企画Ｈｉｒｏ,,合同会社,新潟県,長岡市,新組町２１８４番地１２,,15,202,9400897,,,,,,,2025-05-13,1,,,,,ケンチクキカクヒロ,0
498,2120001275206,新規,0,2025-05-13,2025-05-13,リベルティ株式会社,,株式会社,大阪府,大阪市北区,鶴野町４番１１号朝日プラザ梅田２－９１,,27,127,5300014,,,,,,,2025-05-13,1,,,,,リベルティ,0
499,2120001275313,新規,0,2025-05-13,2025-05-13,株式会社ストライプス,,株式会社,大阪府,大阪市平野区,加美東４丁目３－３３,,27,126,5470002,,,,,,,2025-05-13,1,,,,,ストライプス,0
500,2120001275321,新規,0,2025-05-13,2025-05-13,帝國情報株式会社,,株式会社,大阪府,大阪市此花区,西九条１丁目１４番１８号,,27,104,5540012,,,,,,,2025-05-13,1,,,,,テイコクジョウホウ,0
501,2120001275379,新規,0,2025-05-13,2025-05-13,株式会社Ｍｉｒａｒｃｈ,,株式会社,大阪府,大阪市北区,梅田１丁目２番２号大阪駅前第２ビル１２－１２,,27,127,5300001,,,,,,,2025-05-13,1,,,,,ミラーチ,0
502,2120001275453,新規,0,2025-05-13,2025-05-13,株式会社メゾンボーテ,,株式会社,大阪府,門真市,四宮３丁目８番３１号,,27,223,5710017,,,,,,,2025-05-13,1,,,,,メゾンボーテ,0
503,2120001275866,新規,0,2025-05-13,2025-05-13,株式会社ＩｎＳｈｏｅｓ,,株式会社,大阪府,大阪市北区,梅田１丁目１‐３大阪駅前第３ビル２９階１‐１‐１号室,,27,127,5300001,,,,,,,2025-05-13,1,,,,,インシューズ,0
508,2120003029320,新規,0,2025-05-13,2025-05-13,ＳＮ　ｅｓｔａｔｅ合同会社,,合同会社,大阪府,大阪市中央区,南本町１丁目６－９ＲＪＲ堺筋本町タワー１０１２号,,27,128,5410054,,,,,,,2025-05-13,1,,,,,エスエヌエステート,0
509,2120003029361,新規,0,2025-05-13,2025-05-13,合同会社ＣＲＥＡＳ,,合同会社,大阪府,大阪市北区,梅田１丁目２－２大阪駅前第２ビル１２－１２,,27,127,5300001,,,,,,,2025-05-13,1,,,,,クレアス,0
510,2120003029394,新規,0,2025-05-13,2025-05-13,合同会社夢ごりら,,合同会社,大阪府,大阪市北区,梅田１丁目３－１大阪駅前第一ビルＢ２,,27,127,5300001,,,,,,,2025-05-13,1,,,,,ユメゴリラ,0
514,2120101071637,新規,0,2025-05-13,2025-05-13,株式会社カムクラシン,,株式会社,大阪府,和泉市,青葉台３丁目１２番４号,,27,219,5941153,,,,,,,2025-05-13,1,,,,,カムクラシン,0
515,2120101071661,新規,0,2025-05-13,2025-05-13,株式会社ＲＥＰＯＳ,,株式会社,大阪府,堺市南区,美木多上１３９５－５,,27,145,5900136,,,,,,,2025-05-13,1,,,,,ルポ,0
516,2120901050848,新規,0,2025-05-13,2025-05-13,茨木田畑地所株式会社,,株式会社,大阪府,茨木市,水尾１丁目３番８号,,27,211,5670891,,,,,,,2025-05-13,1,,,,,イバラキタバタジショ,0
522,2130001079589,新規,0,2025-05-13,2025-05-13,株式会社Ｔ．Ｋプレニアル,,株式会社,京都府,京都市中京区,三条通烏丸東入梅忠町２４番地三条ＣＯＨＪＵビル４Ｆ・５Ｆ,,26,104,6048136,,,,,,,2025-05-13,1,,,,,ティーケープレニアル,0
523,2130001079639,新規,0,2025-05-13,2025-05-13,銀元株式会社,,株式会社,京都府,京都市中京区,壬生坊城町９番地３９,,26,104,6048804,,,,,,,2025-05-13,1,,,,,ギンゲン,0
524,2130001079647,新規,0,2025-05-13,2025-05-13,ＨＯＳＯＹＡ　ＤＩＮＩＮＧ株式会社,,株式会社,京都府,京都市上京区,上立売通烏丸東入ル相国寺門前町６４２－４コーポマルス３０５,,26,102,6020000,,,,,,,2025-05-13,1,,,,,ホソヤダイニング,0
526,2130003010452,新規,0,2025-05-13,2025-05-13,合同会社ＬｉｆｅＣｏａｃｈ,,合同会社,京都府,京都市中京区,河原町通二条下る一之船入町５３７番地２０ＦＩＳ御池ビル４０５,,26,104,6040924,,,,,,,2025-05-13,1,,,,,ライフコーチ,0
539,2140001138410,新規,0,2025-05-13,2025-05-13,株式会社ラフィナート,,株式会社,兵庫県,神戸市北区,藤原台南町２丁目７番１０号,,28,109,6511303,,,,,,,2025-05-13,1,,,,,ラフィナート,0
540,2140001138419,新規,0,2025-05-13,2025-05-13,大林国際株式会社,,株式会社,兵庫県,神戸市長田区,御蔵通７丁目３７番地,,28,106,6530014,,,,,,,2025-05-13,1,,,,,オオバヤシコクサイ,0
541,2140001138492,新規,0,2025-05-13,2025-05-13,優家株式会社,,株式会社,兵庫県,神戸市中央区,国香通２丁目２番４－５０１号,,28,110,6510066,,,,,,,2025-05-13,1,,,,,ユウカ,0
545,2140003022050,新規,0,2025-05-13,2025-05-13,Ｓｈｉｎｗａｒｉ　Ｔｒａｄｉｎｇ合同会社,,合同会社,兵庫県,神戸市長田区,房王寺町２丁目２番１９号,,28,106,6530801,,,,,,,2025-05-13,1,,,,,シンワリトレーディング,0
547,2160001026737,新規,0,2025-05-13,2025-05-13,株式会社サンライフ．ｕｐ,,株式会社,滋賀県,甲賀市,水口町山３９１９番地２３８,,25,209,5280067,,,,,,,2025-05-13,1,,,,,サンライフアップ,0
553,2170005007154,新規,0,2025-05-13,2025-05-13,特定非営利活動法人ＨＡＮＤＳ,,その他の設立登記法人,和歌山県,和歌山市,太田２丁目１４－６ビリアビル２階,,30,201,6408323,,,,,,,2025-05-13,1,,,,,ハンズ,0
558,2180001166696,新規,0,2025-05-13,2025-05-13,株式会社ｍｅｒｃｉ．,,株式会社,愛知県,名古屋市中村区,名駅３丁目２０－２１,,23,105,4500002,,,,,,,2025-05-13,1,,,,,メルシー,0
559,2180001166746,新規,0,2025-05-13,2025-05-13,株式会社ユニロコ,,株式会社,愛知県,名古屋市南区,前浜通６丁目４８番地ビラッジオ笠寺３０７号,,23,112,4570058,,,,,,,2025-05-13,1,,,,,ユニロコ,0
560,2180001166779,新規,0,2025-05-13,2025-05-13,株式会社Ｍ’ｓ　Ｓｔｙｌｅ,,株式会社,愛知県,名古屋市西区,見寄町１８７番地２,,23,104,4520839,,,,,,,2025-05-13,1,,,,,エムズスタイル,0
561,2180001166787,新規,0,2025-05-13,2025-05-13,株式会社クリーンラボ,,株式会社,愛知県,一宮市,多加木５丁目３番９号,,23,203,4910837,,,,,,,2025-05-13,1,,,,,クリーンラボ,0
564,2190001032212,新規,0,2025-05-13,2025-05-13,バーディー株式会社,,株式会社,三重県,津市,高茶屋７丁目９番２号,,24,201,5140819,,,,,,,2025-05-13,1,,,,,バーディー,0
565,2190001032220,新規,0,2025-05-13,2025-05-13,Ｄｒｅａｍｓ　Ｅｘｐａｎｄ株式会社,,株式会社,三重県,三重郡川越町,大字南福崎６９１番地７,,24,344,5108124,,,,,,,2025-05-13,1,,,,,ドリームエクスパンド,0
569,2210003001922,新規,0,2025-05-13,2025-05-13,合同会社Ｄｉｒｅｃｔｏｒｓ　Ｈｉｇｈ,,合同会社,福井県,坂井市,三国町北本町１丁目４番３９号,,18,210,9130046,,,,,,,2025-05-13,1,,,,,ディレクターズハイ,0
573,2240001064935,新規,0,2025-05-13,2025-05-13,株式会社ＫＯＩ,,株式会社,広島県,福山市,神辺町大字新湯野２１番地１１,,34,207,7202122,,,,,,,2025-05-13,1,,,,,ケイオーアイ,0
579,2260001040182,新規,0,2025-05-13,2025-05-13,株式会社ＷＯＲＫＳ　ＫＡＪＩＭＯＴＯ,,株式会社,岡山県,津山市,小田中７６９番地１３,,33,203,7080006,,,,,,,2025-05-13,1,,,,,ワークスカジモト,0
584,2290003016806,新規,0,2025-05-13,2025-05-13,合同会社冬留,,合同会社,福岡県,筑紫野市,紫１丁目２３番３号,,40,217,8180061,,,,,,,2025-05-13,1,,,,,フユル,0
585,2290003016814,新規,0,2025-05-13,2025-05-13,合同会社Ｈｉｄｅ‐Ｔｅｃｈ,,合同会社,福岡県,久留米市,北野町中川９５３番地４,,40,203,8301101,,,,,,,2025-05-13,1,,,,,ハイドテック,0
600,2360001035180,新規,0,2025-05-13,2025-05-13,株式会社バラティエ,,株式会社,沖縄県,那覇市,松山２丁目１２番９号ファーストビル１階,,47,201,9000032,,,,,,,2025-05-13,1,,,,,バラティエ,0
601,2360001035189,新規,0,2025-05-13,2025-05-13,ケイズホールディングス株式会社,,株式会社,沖縄県,糸満市,字武富７４３番地の２,,47,210,9010311,,,,,,,2025-05-13,1,,,,,ケイズホールディングス,0
602,2360001035197,新規,0,2025-05-13,2025-05-13,株式会社鉄尚,,株式会社,沖縄県,うるま市,字高江洲３５番地３,,47,213,9042242,,,,,,,2025-05-13,1,,,,,テツショウ,0
603,2360003014918,新規,0,2025-05-13,2025-05-13,リドー商事合同会社,,合同会社,沖縄県,那覇市,字天久８９３番地,,47,201,9000005,,,,,,,2025-05-13,1,,,,,リドーショウジ,0
606,2370001052571,新規,0,2025-05-13,2025-05-13,株式会社ＮＥＩＴ,,株式会社,宮城県,仙台市太白区,長町３丁目９番２８－１０１号,,04,104,9820011,,,,,,,2025-05-13,1,,,,,ネイト,0
612,2400001017034,新規,0,2025-05-13,2025-05-13,株式会社橘友和厩舎,,株式会社,岩手県,盛岡市,新庄字上八木田１０番地４号厩舎,,03,201,0200803,,,,,,,2025-05-13,1,,,,,タチバナトモカズキュウシャ,0
613,2400003003453,新規,0,2025-05-13,2025-05-13,合同会社ＭＩＹＡＫＯＹＡ,,合同会社,岩手県,宮古市,崎鍬ヶ崎第９地割３５番地５６,,03,202,0270096,,,,,,,2025-05-13,1,,,,,ミヤコヤ,0
614,2430001094392,新規,0,2025-05-13,2025-05-13,株式会社田中商店,,株式会社,北海道,札幌市中央区,南一条西７丁目６番地６ファインシティ札幌ザ・タワー大通公園２６０１号,,01,101,0600061,,,,,,,2025-05-13,1,,,,,タナカショウテン,0
617,2460001006007,新規,0,2025-05-13,2025-05-13,株式会社Ｎｏｒｔｈアシスト,,株式会社,北海道,釧路市,星が浦北４丁目３番１９号,,01,206,0840911,,,,,,,2025-05-13,1,,,,,ノースアシスト,0
623,2500001026289,新規,0,2025-05-13,2025-05-13,株式会社アールプロテック愛媛,,株式会社,愛媛県,松山市,千舟町７丁目２番地２,,38,201,7900011,,,,,,,2025-05-13,1,,,,,アールプロテックエヒメ,0
633,3010001254673,新規,0,2025-05-13,2025-05-13,株式会社コムダム,,株式会社,東京都,千代田区,神田和泉町１番地６－１６ヤマトビル４０５,,13,101,1010024,,,,,,,2025-05-13,1,,,,,コムダム,0
634,3010001254731,新規,0,2025-05-13,2025-05-13,株式会社ＲＥＢＯＲＮ　ＢＡＳＥ,,株式会社,東京都,中央区,銀座１丁目１２－４Ｎ＆ＥＢＬＤ．６Ｆ,,13,102,1040061,,,,,,,2025-05-13,1,,,,,リボーンベース,0
635,3010001254789,新規,0,2025-05-13,2025-05-13,恒久工業株式会社,,株式会社,東京都,中央区,日本橋蛎殻町２丁目１３番４号５階,,13,102,1030014,,,,,,,2025-05-13,1,,,,,,0
636,3010001254995,新規,0,2025-05-13,2025-05-13,株式会社ドレッセンス,,株式会社,東京都,中央区,銀座１丁目１２番４号Ｎ＆ＥＢＬＤ．６Ｆ,,13,102,1040061,,,,,,,2025-05-13,1,,,,,ドレッセンス,0
638,3010003046912,新規,0,2025-05-13,2025-05-13,ＥＬＥＤＩＴＩＯＮ合同会社,,合同会社,東京都,中央区,銀座１丁目１２－４Ｎ＆ＥＢＬＤ．７階,,13,102,1040061,,,,,,,2025-05-13,1,,,,,エレディション,0
639,3010005040038,新規,0,2025-05-13,2025-05-13,ブルーインフラホールディングスＬ２号一般社団法人,,その他の設立登記法人,東京都,千代田区,紀尾井町４番１号ニューオータニガーデンコート１９階フィンポート税理士法人内,,13,101,1020094,,,,,,,2025-05-13,1,,,,,ブルーインフラホールディングスエルニゴウ,0
647,3010403034954,新規,0,2025-05-13,2025-05-13,ジュピター１合同会社,,合同会社,東京都,港区,赤坂２丁目１４番５号,,13,103,1070052,,,,,,,2025-05-13,1,,,,,ジュピターワン,0
650,3010601067269,新規,0,2025-05-13,2025-05-13,株式会社ＥＭＰＡＴＨＹ,,株式会社,東京都,墨田区,立花４丁目２番３号,,13,107,1310043,,,,,,,2025-05-13,1,,,,,エンパシー,0
666,3011003021582,新規,0,2025-05-13,2025-05-13,合同会社Ｆａｔ‐Ｃｈｏｉ,,合同会社,東京都,渋谷区,本町１丁目４番１２号ｆｅｌｉｃｉｔｙ１０５,,13,113,1510071,,,,,,,2025-05-13,1,,,,,ファッチョイ,0
670,3011103015864,新規,0,2025-05-13,2025-05-13,Ｃａｎｏｐｙ　Ａｋａｓａｋａ合同会社,,合同会社,東京都,新宿区,西新宿６丁目８番１号住友不動産新宿オークタワー２２階,,13,104,1600023,,,,,,,2025-05-13,1,,,,,キャノピーアカサカ,0
677,3011401027082,新規,0,2025-05-13,2025-05-13,株式会社ＬＡＴＥＡＭ,,株式会社,東京都,板橋区,板橋４丁目４５番７号,,13,119,1730004,,,,,,,2025-05-13,1,,,,,ラティム,0
678,3011501032040,新規,0,2025-05-13,2025-05-13,株式会社ＳＫコア,,株式会社,東京都,北区,豊島８丁目１５番２２－２０２号,,13,117,1140003,,,,,,,2025-05-13,1,,,,,エスケイコア,0
679,3011601028632,新規,0,2025-05-13,2025-05-13,楽文株式会社,,株式会社,東京都,練馬区,氷川台３丁目２９－１パインフラッツ２０６号室,,13,120,1790084,,,,,,,2025-05-13,1,,,,,ラクブン,0
689,3013305003713,新規,0,2025-05-13,2025-05-13,特定非営利活動法人日本タンゴ文化振興協会,,その他の設立登記法人,東京都,豊島区,池袋３丁目３０番２１号マルモビル１階,,13,116,1710014,,,,,,,2025-05-13,1,,,,,ニホンタンゴブンカシンコウキョウカイ,0
693,3020001162719,新規,0,2025-05-13,2025-05-13,株式会社ハッピーキャット,,株式会社,神奈川県,横浜市中区,山下町８７番地３ロンシンリューズタワー３０２号,,14,104,2310023,,,,,,,2025-05-13,1,,,,,ハッピーキャット,0
703,3021005013346,新規,0,2025-05-13,2025-05-13,ＮＰＯ法人みんな地球の子どもじゃん,,その他の設立登記法人,神奈川県,相模原市南区,相模台２丁目２３番１３号,,14,153,2520321,,,,,,,2025-05-13,1,,,,,ミンナチキュウノコドモジャン,0
710,3030001166207,新規,0,2025-05-13,2025-05-13,株式会社ＰＲＩＭＥ　ＰＨＡＳＥ,,株式会社,埼玉県,本庄市,児玉町宮内１１５３番地１,,11,211,3670226,,,,,,,2025-05-13,1,,,,,プライムフェイズ,0
711,3030001166446,新規,0,2025-05-13,2025-05-13,株式会社アイコー,,株式会社,埼玉県,越谷市,大字袋山１７１５番地９,,11,222,3430032,,,,,,,2025-05-13,1,,,,,アイコー,0
712,3030001166454,新規,0,2025-05-13,2025-05-13,Ｐｌｅａｓｉｎｇ　Ｓｏｕｎｄ株式会社,,株式会社,埼玉県,さいたま市南区,白幡３丁目７番１４号コーポオクダ１０２,,11,108,3360022,,,,,,,2025-05-13,1,,,,,プリージングサウンド,0
713,3030001166462,新規,0,2025-05-13,2025-05-13,株式会社ＣａｔＭｅｅｔｓＤｏｇ,,株式会社,埼玉県,蕨市,錦町４丁目７番１号ロイヤルシティーマンション１階,,11,223,3350005,,,,,,,2025-05-13,1,,,,,キャットミーツドッグ,0
724,3040001138691,新規,0,2025-05-13,2025-05-13,Ｗｅｌｌｎｅｓｓ　Ｓｕｐｐｏｒｔ株式会社,,株式会社,千葉県,流山市,おおたかの森北３丁目１－１４,,12,220,2700119,,,,,,,2025-05-13,1,,,,,ウエルネスサポート,0
725,3040001138700,新規,0,2025-05-13,2025-05-13,株式会社ｇｒａｔｉｔｕｄｅ,,株式会社,千葉県,柏市,豊四季３８７番地４６,,12,217,2770863,,,,,,,2025-05-13,1,,,,,グラティテュード,0
726,3040001138717,新規,0,2025-05-13,2025-05-13,Ｃｌｅａｎ　ｕｐ株式会社,,株式会社,千葉県,松戸市,上矢切１４１６番地の１１,,12,207,2710094,,,,,,,2025-05-13,1,,,,,クリーンアップ,0
729,3040003027587,新規,0,2025-05-13,2025-05-13,合同会社マルテック,,合同会社,千葉県,柏市,豊四季９４５番地の３９３,,12,217,2770863,,,,,,,2025-05-13,1,,,,,マルテック,0
732,3050001056653,新規,0,2025-05-13,2025-05-13,株式会社オフィス俵屋,,株式会社,茨城県,つくば市,吾妻１丁目５番地７ダイワロイネットホテルつくばビル２Ｆ,,08,220,3050031,,,,,,,2025-05-13,1,,,,,オフィスタワラヤ,0
745,3080101025489,新規,0,2025-05-13,2025-05-13,株式会社ＳＴＣ,,株式会社,静岡県,熱海市,泉２７６番地の６４,,22,205,4130001,,,,,,,2025-05-13,1,,,,,エスティーシー,0
747,3080403005255,新規,0,2025-05-13,2025-05-13,合同会社ＡＢＣ物産,,合同会社,静岡県,御前崎市,御前崎字元根７‐４,,22,223,4371621,,,,,,,2025-05-13,1,,,,,エービーシーブッサン,0
756,3110001039247,新規,0,2025-05-13,2025-05-13,株式会社瀬伝,00139131,株式会社,新潟県,南魚沼市,大木六８３７番地２,,15,226,9496416,,,,,,,2025-05-13,1,,,,,ライデン,0
757,3110001039255,新規,0,2025-05-13,2025-05-13,株式会社ｉｂｉｓ,,株式会社,新潟県,新潟市西蒲区,巻甲４０８１番地５,,15,108,9530041,,,,,,,2025-05-13,1,,,,,アイビス,0
758,3110001039263,新規,0,2025-05-13,2025-05-13,株式会社ＥＶＯＬ,,株式会社,新潟県,三条市,帯織３７４６番地１,,15,204,9591117,,,,,,,2025-05-13,1,,,,,エヴォル,0
760,3110003005750,新規,0,2025-05-13,2025-05-13,合同会社真昼,,合同会社,新潟県,糸魚川市,大字水保１７０７番地,,15,216,9410044,,,,,,,2025-05-13,1,,,,,マヒル,0
777,3120001275023,新規,0,2025-05-13,2025-05-13,永佳株式会社,,株式会社,大阪府,大阪市淀川区,十三本町１丁目１８－７－６０６号室,,27,123,5320024,,,,,,,2025-05-13,1,,,,,エイカ,0
778,3120001275329,新規,0,2025-05-13,2025-05-13,ＦＢＬ株式会社,,株式会社,大阪府,大阪市西成区,鶴見橋１丁目８番１６号,,27,122,5570031,,,,,,,2025-05-13,1,,,,,エフビーエル,0
779,3120001275378,新規,0,2025-05-13,2025-05-13,Ａｓｔｒａ株式会社,,株式会社,大阪府,大阪市中央区,谷町８丁目１番５２－１００６号,,27,128,5420012,,,,,,,2025-05-13,1,,,,,アストラ,0
780,3120001275386,新規,0,2025-05-13,2025-05-13,株式会社エルドゥン,,株式会社,大阪府,大阪市東淀川区,豊新２丁目５番３０－２０４号,,27,114,5330014,,,,,,,2025-05-13,1,,,,,エルドゥン,0
781,3120001275436,新規,0,2025-05-13,2025-05-13,株式会社フィットエボリューション,,株式会社,大阪府,大阪市天王寺区,大道４丁目５番１３号,,27,109,5430052,,,,,,,2025-05-13,1,,,,,フィットエボリューション,0
790,3120003029328,新規,0,2025-05-13,2025-05-13,ＣＡＲＤ　ＭＲＩ　Ｈｉｊｏｓ　Ｔｏｕｒｓ合同会社,,合同会社,大阪府,大阪市北区,豊崎３丁目１６番１６－１１０１号,,27,127,5310072,,,,,,,2025-05-13,1,,,,,カードエムアールアイヒホスツアーズ,0
791,3120003029352,新規,0,2025-05-13,2025-05-13,合同会社ＳＨＩＮＯ,,合同会社,大阪府,大阪市西区,新町１丁目１４－２新町中央ビル４０１,,27,106,5500013,,,,,,,2025-05-13,1,,,,,シノ,0
792,3120101071660,新規,0,2025-05-13,2025-05-13,株式会社関タイル,,株式会社,大阪府,堺市北区,金岡町７０４番地２エバーグリーン金岡４号館６０６号室,,27,146,5918022,,,,,,,2025-05-13,1,,,,,セキタイル,0
795,3120901050847,新規,0,2025-05-13,2025-05-13,株式会社インテグラルコーポレーション,,株式会社,大阪府,箕面市,桜ケ丘２丁目２番２６号,,27,220,5620046,,,,,,,2025-05-13,1,,,,,インテグラルコーポレーション,0
797,3120903005659,新規,0,2025-05-13,2025-05-13,合同会社ｃａｓａ,,合同会社,大阪府,茨木市,五十鈴町２０番１４号メゾンドプレジールＩＩ２０３号,00139130,27,211,5670842,,,,,,,2025-05-13,1,,,,,カーサ,0
800,3122001039201,新規,0,2025-05-13,2025-05-13,株式会社ＫＺＭ,,株式会社,大阪府,東大阪市,中石切町２丁目７番２６号,,27,227,5798014,,,,,,,2025-05-13,1,,,,,ケーゼットエム,0
801,3122001039226,新規,0,2025-05-13,2025-05-13,株式会社ｉｒｏｄｏｒｉ．,,株式会社,大阪府,東大阪市,下小阪３丁目１３番１２号,,27,227,5770803,,,,,,,2025-05-13,1,,,,,イロドリ,0
804,3130001079605,新規,0,2025-05-13,2025-05-13,株式会社みみふく,,株式会社,京都府,京田辺市,大住三野３５番地３,,26,211,6100343,,,,,,,2025-05-13,1,,,,,ミミフク,0
805,3130001079613,新規,0,2025-05-13,2025-05-13,株式会社ＹＱフード,,株式会社,京都府,京都市左京区,岡崎法勝寺町８２番地１０,,26,103,6068333,,,,,,,2025-05-13,1,,,,,ヤオキュウフード,0
806,3130001079638,新規,0,2025-05-13,2025-05-13,株式会社サンキヤ,,株式会社,京都府,京都市中京区,山崎町２３６番地六角ビルＢ１,,26,104,6048032,,,,,,,2025-05-13,1,,,,,サンキヤ,0
807,3130001079646,新規,0,2025-05-13,2025-05-13,株式会社ｓｕｓｏｎｏ,,株式会社,京都府,京都市下京区,小稲荷町８５－２Ｇｒａｎｄ－Ｋ京都駅前ビル２０１,,26,106,6008208,,,,,,,2025-05-13,1,,,,,スソノ,0
814,3140001138434,新規,0,2025-05-13,2025-05-13,キムラテック株式会社,,株式会社,兵庫県,尼崎市,名神町２丁目１９番２５－１０４号,,28,202,6610021,,,,,,,2025-05-13,1,,,,,キムラテック,0
815,3140001138442,新規,0,2025-05-13,2025-05-13,株式会社ＬＩＢＥＲＴＡ,,株式会社,兵庫県,川西市,東久代２丁目２番５号,,28,217,6660023,,,,,,,2025-05-13,1,,,,,リベルタ,0
816,3140001138500,新規,0,2025-05-13,2025-05-13,株式会社いいもの市場,,株式会社,兵庫県,尼崎市,三反田町１丁目１４－７,,28,202,6610024,,,,,,,2025-05-13,1,,,,,イイモノイチバ,0
817,3140001138525,新規,0,2025-05-13,2025-05-13,株式会社ヨシヒロ,,株式会社,兵庫県,神戸市灘区,鹿ノ下通１丁目２番１号,,28,102,6570044,,,,,,,2025-05-13,1,,,,,ヨシヒロ,0
818,3140001138541,新規,0,2025-05-13,2025-05-13,Ｃ　ｐｌｕｓ　ｃｏｒｐｏｒａｔｉｏｎ株式会社,,株式会社,兵庫県,神戸市兵庫区,新開地１丁目３番１８－８０６号,,28,105,6520811,,,,,,,2025-05-13,1,,,,,シープラスコーポレーション,0
820,3140003022066,新規,0,2025-05-13,2025-05-13,Ｔｅｎｓｏｒ　Ｔｅｃｈｎｏ　Ｈｕｂ合同会社,,合同会社,兵庫県,川西市,小花１丁目９－１森本ビル２０３,,28,217,6660015,,,,,,,2025-05-13,1,,,,,テンサーテクノハブ,0
827,3150001028114,新規,0,2025-05-13,2025-05-13,Ｍｉｃｏｒｅ株式会社,,株式会社,奈良県,北葛城郡広陵町,大字三吉７１８番地２,,29,426,6350823,,,,,,,2025-05-13,1,,,,,ミコア,0
829,3150003003602,新規,0,2025-05-13,2025-05-13,ＷＯＨ合同会社,,合同会社,奈良県,桜井市,大字金屋２５－５,,29,206,6330002,,,,,,,2025-05-13,1,,,,,ダブリューオーエイチ,0
834,3170003002214,新規,0,2025-05-13,2025-05-13,合同会社ＰＯＫＥ,,合同会社,和歌山県,和歌山市,湊３丁目５番２２号,,30,201,6408404,,,,,,,2025-05-13,1,,,,,ポケ,0
844,3180001166654,新規,0,2025-05-13,2025-05-13,株式会社アクティブケア,,株式会社,愛知県,小牧市,東４丁目１７６番地１モン・トレゾールＩＩＩ２０１号,00139113,23,219,4850831,,,,,,,2025-05-13,1,,,,,アクティブケア,0
845,3180001166745,新規,0,2025-05-13,2025-05-13,株式会社ＢＬＵＥ　ＬＥＡＦ,,株式会社,愛知県,名古屋市港区,木場町８番地の２１５,,23,111,4550021,,,,,,,2025-05-13,1,,,,,ブルーリーフ,0
846,3180001166761,新規,0,2025-05-13,2025-05-13,アントコンサルティング株式会社,,株式会社,愛知県,名古屋市中川区,西日置２丁目８番３号,,23,110,4540004,,,,,,,2025-05-13,1,,,,,アントコンサルティング,0
847,3180001166803,新規,0,2025-05-13,2025-05-13,株式会社ＪＯＥ　ＫＩＮＤ,,株式会社,愛知県,名古屋市港区,多加良浦町４丁目１９０番地,,23,111,4550825,,,,,,,2025-05-13,1,,,,,ジョイカインド,0
853,3180003028464,新規,0,2025-05-13,2025-05-13,ジェイリアルエステート合同会社,,合同会社,愛知県,春日井市,如意申町８丁目８番地４,,23,206,4860918,,,,,,,2025-05-13,1,,,,,ジェイリアルエステート,0
857,3180303006574,新規,0,2025-05-13,2025-05-13,合同会社ＪＡＭ,,合同会社,愛知県,豊田市,丸山町４丁目２８番地,,23,211,4710832,,,,,,,2025-05-13,1,,,,,ジャム,0
861,3190003005033,新規,0,2025-05-13,2025-05-13,合同会社デプロ,,合同会社,三重県,松阪市,久保町１８４６番地２９,,24,204,5150044,,,,,,,2025-05-13,1,,,,,デプロ,0
873,3240003007206,新規,0,2025-05-13,2025-05-13,合同会社矢野新聞舗,,合同会社,広島県,東広島市,安芸津町三津４３７３番地４,,34,212,7392402,,,,,,,2025-05-13,1,,,,,ヤノシンブンホ,0
882,3290001109899,新規,0,2025-05-13,2025-05-13,株式会社Ｃｕｌｔｉｖａｔｅ,,株式会社,福岡県,糸島市,志摩芥屋３３８３－６,,40,230,8191335,,,,,,,2025-05-13,1,,,,,カルティベート,0
883,3290001109981,新規,0,2025-05-13,2025-05-13,株式会社ＥＮ　ＰＬＵＳ,,株式会社,福岡県,福岡市東区,香椎駅東１丁目３８番２２号,,40,131,8130012,,,,,,,2025-05-13,1,,,,,エンプラス,0
884,3290003016821,新規,0,2025-05-13,2025-05-13,合同会社ｈ．ｅ　ｔｅｃｈ,,合同会社,福岡県,飯塚市,伊岐須４２８番地,,40,205,8200053,,,,,,,2025-05-13,1,,,,,エイチイーテック,0
887,3290801031542,新規,0,2025-05-13,2025-05-13,ＤＯ‐ＪＪ株式会社,,株式会社,福岡県,遠賀郡芦屋町,中ノ浜８番２号,,40,381,8070113,,,,,,,2025-05-13,1,,,,,ドゥージェイジェイ,0
893,3350001019522,新規,0,2025-05-13,2025-05-13,株式会社そのだ,,株式会社,宮崎県,東臼杵郡門川町,加草１丁目１３２番地,,45,421,8890603,,,,,,,2025-05-13,1,,,,,ソノダ,0
894,3350001019530,新規,0,2025-05-13,2025-05-13,株式会社満木畜産,,株式会社,宮崎県,都城市,梅北町６１２番地,,45,202,8850063,,,,,,,2025-05-13,1,,,,,ミツキチクサン,0
898,3360001035163,新規,0,2025-05-13,2025-05-13,株式会社稲嶺,,株式会社,沖縄県,那覇市,首里大名町１丁目１０３番地,,47,201,9030802,,,,,,,2025-05-13,1,,,,,イナミネ,0
899,3360001035188,新規,0,2025-05-13,2025-05-13,株式会社ＷＯＲＬＤＰＥＡＣＥ,,株式会社,沖縄県,浦添市,字港川２５２番地５－１５０３号室,,47,208,9012134,,,,,,,2025-05-13,1,,,,,ワールドピース,0
900,3360003014883,新規,0,2025-05-13,2025-05-13,合同会社ＳＥＣＲＥＴ　Ｇｒｏｕｐ,,合同会社,沖縄県,那覇市,高良１丁目２－６５フルール赤嶺２０２,,47,201,9010145,,,,,,,2025-05-13,1,,,,,シークレットグループ,0
901,3360003014917,新規,0,2025-05-13,2025-05-13,合同会社ｆｅｉｎ．ｇｒｏｕｐ,,合同会社,沖縄県,南城市,知念字安座真３２９番地,,47,215,9011502,,,,,,,2025-05-13,1,,,,,フェイングループ,0
902,3370001052570,新規,0,2025-05-13,2025-05-13,株式会社ｍａｒｕｈｉｒｏ,,株式会社,宮城県,仙台市泉区,南光台１丁目５７番５号,,04,105,9818003,,,,,,,2025-05-13,1,,,,,マルヒロ,0
906,3380003006037,新規,0,2025-05-13,2025-05-13,合同会社Ｃｒｅｓｔ,,合同会社,福島県,郡山市,台新１丁目３１番９号山一ビル２０２号,,07,203,9638852,,,,,,,2025-05-13,1,,,,,クレスト,0
908,3420001019135,新規,0,2025-05-13,2025-05-13,株式会社ｆａｍｉｌｌｅ,,株式会社,青森県,青森市,勝田１丁目１８番５号長谷川貸家５号,,02,201,0300821,,,,,,,2025-05-13,1,,,,,ファミーユ,0
912,3430001094383,新規,0,2025-05-13,2025-05-13,ＳＨＩＫＩＫＯＴＳＵ株式会社,,株式会社,北海道,札幌市中央区,宮の森三条３丁目１番２０‐１０３号,,01,101,0640953,,,,,,,2025-05-13,1,,,,,シキコウツウ,0
917,3450003002656,新規,0,2025-05-13,2025-05-13,合同会社プレッジ,,合同会社,北海道,旭川市,東光二条１０丁目４番２号,,01,204,0788342,,,,,,,2025-05-13,1,,,,,プレッジ,0
918,3470001020708,新規,0,2025-05-13,2025-05-13,株式会社Ｎｉｓｈｉｏｋａ,,株式会社,香川県,坂出市,小山町１番１０６号,,37,203,7620026,,,,,,,2025-05-13,1,,,,,,0
919,3490003002017,新規,0,2025-05-13,2025-05-13,合同会社きんちゃく,,合同会社,高知県,高知市,御畳瀬４７６番地２,,39,201,7810261,,,,,,,2025-05-13,1,,,,,キンチャク,0
923,3500005008794,新規,0,2025-05-13,2025-05-13,特定非営利活動法人Ｓａｋｕｒａ　Ｃａｔ,,その他の設立登記法人,愛媛県,松山市,美沢２丁目３番地３１,,38,201,7918022,,,,,,,2025-05-13,1,,,,,サクラキャット,0
940,4010401190286,新規,0,2025-05-13,2025-05-13,木火通明株式会社,,株式会社,東京都,港区,六本木１丁目４番５号アークヒルズサウスタワー１６階,,13,103,1060032,,,,,,,2025-05-13,1,,,,,モッカツウメイ,0
944,4010501054069,新規,0,2025-05-13,2025-05-13,シン・タヨウアン株式会社,,株式会社,東京都,台東区,西浅草３丁目２８番１９号ニッケンマンション１０１,,13,106,1110035,,,,,,,2025-05-13,1,,,,,シンタヨウアン,0
947,4010601067292,新規,0,2025-05-13,2025-05-13,ＯＰＲＡＨ株式会社,,株式会社,東京都,江東区,森下２丁目２０番４号,,13,108,1350004,,,,,,,2025-05-13,1,,,,,オプラ,0
948,4010603011554,新規,0,2025-05-13,2025-05-13,合同会社どっとらいん,,合同会社,東京都,江東区,冬木１１－１０クオリタス門前仲町２０３,,13,108,1350041,,,,,,,2025-05-13,1,,,,,ドットライン,0
960,4010901057340,新規,0,2025-05-13,2025-05-13,株式会社みやび,,株式会社,東京都,世田谷区,奥沢３丁目４４番２号,,13,112,1580083,,,,,,,2025-05-13,1,,,,,ミヤビ,0
965,4011001169308,新規,0,2025-05-13,2025-05-13,株式会社Ａｒｉｎｏｓｓ,,株式会社,東京都,渋谷区,恵比寿南１丁目１番１号ヒューマックス恵比寿ビル８Ｆ,,13,113,1500022,,,,,,,2025-05-13,1,,,,,アリノス,0
966,4011001169340,新規,0,2025-05-13,2025-05-13,ＩＲＥＴＡＩＬＥＲ　ＳＯＬＵＴＩＯＮＳ株式会社,,株式会社,東京都,渋谷区,代々木２丁目２１－８－３０１号,,13,113,1510053,,,,,,,2025-05-13,1,,,,,アイリテーラーソリューションズ,0
967,4011001169687,新規,0,2025-05-13,2025-05-13,セレンディファイン株式会社,,株式会社,東京都,目黒区,青葉台３丁目１５番１７号ＦＡＲＯ中目黒１階,,13,110,1530042,,,,,,,2025-05-13,1,,,,,セレンディファイン,0
968,4011003021524,新規,0,2025-05-13,2025-05-13,瞬旅合同会社,,合同会社,東京都,渋谷区,幡ヶ谷３丁目３８－１０リビオレゾン渋谷笹塚５０１,,13,113,1510072,,,,,,,2025-05-13,1,,,,,マタタビ,0
969,4011003021680,新規,0,2025-05-13,2025-05-13,ＭＴライフアセット合同会社,,合同会社,東京都,渋谷区,代々木４丁目２４‐１１‐６０１号,,13,113,1510053,,,,,,,2025-05-13,1,,,,,エムティーライフアセット,0
973,4011101111689,新規,0,2025-05-13,2025-05-13,株式会社ＬＯＮＧＥＶＩＡ,,株式会社,東京都,新宿区,西新宿１丁目２２番２号新宿サンエービル９Ｆ,,13,104,1600023,,,,,,,2025-05-13,1,,,,,ロンジェヴィア,0
981,4011303005532,新規,0,2025-05-13,2025-05-13,モビハク合同会社,,合同会社,東京都,杉並区,上井草１丁目２１番１８号コーポ千峯１０３,,13,115,1670023,,,,,,,2025-05-13,1,,,,,,0
986,4011603004705,新規,0,2025-05-13,2025-05-13,ＦＭＰマネジメント合同会社,,合同会社,東京都,練馬区,栄町４４番８号ウイスタリア３０１,,13,120,1760006,,,,,,,2025-05-13,1,,,,,エフエムピーマネジメント,0
990,4011803006856,新規,0,2025-05-13,2025-05-13,合同会社キズナ建設,,合同会社,東京都,葛飾区,東金町３丁目３１番地４ユニレジデンス金町３０２,,13,122,1250041,,,,,,,2025-05-13,1,,,,,キズナケンセツ,0
991,4011805003455,新規,0,2025-05-13,2025-05-13,一般社団法人ＣＦＡ,,その他の設立登記法人,東京都,足立区,関原３丁目１５－４,,13,121,1230852,,,,,,,2025-05-13,1,,,,,シーエフエー,0
993,4012401043069,新規,0,2025-05-13,2025-05-13,株式会社竹庭苑,,株式会社,東京都,府中市,紅葉丘３丁目４８番地の１８,,13,206,1830004,,,,,,,2025-05-13,1,,,,,タケテイエン,0
994,4012801023959,新規,0,2025-05-13,2025-05-13,株式会社Ｉｂｂ,,株式会社,東京都,昭島市,昭和町３丁目１０番２１号,,13,207,1960015,,,,,,,2025-05-13,1,,,,,アイビービー,0
997,4013301054247,新規,0,2025-05-13,2025-05-13,株式会社インプルーブ,,株式会社,東京都,豊島区,東池袋１丁目３４番５号いちご東池袋ビル６Ｆ,,13,116,1700013,,,,,,,2025-05-13,1,,,,,インプルーブ,0
1000,4020001162692,新規,0,2025-05-13,2025-05-13,株式会社ＴＭＷ,,株式会社,神奈川県,横浜市西区,浅間町１丁目４番３号ウィザードビル４０２,,14,103,2200072,,,,,,,2025-05-13,1,,,,,ティーエムダブリュー,0
1008,4021003015979,新規,0,2025-05-13,2025-05-13,合同会社ＮＡＧＩ,,合同会社,神奈川県,逗子市,新宿２丁目２番１６号,,14,208,2490007,,,,,,,2025-05-13,1,,,,,ナギ,0
1009,4021003015987,新規,0,2025-05-13,2025-05-13,合同会社ｈａｐｐｙ　ｂｅａｃｈ,,合同会社,神奈川県,藤沢市,鵠沼橘１丁目２番４号クゲヌマファースト４Ｆ,00139135,14,205,2510024,,,,,,,2025-05-13,1,,,,,ハッピービーチ,0
1021,4040001138625,新規,0,2025-05-13,2025-05-13,株式会社遊ｐａｒｔｙ,,株式会社,千葉県,千葉市中央区,富士見２丁目１９番地４パークスポット１Ｆ,,12,101,2600015,,,,,,,2025-05-13,1,,,,,ユウパーティー,0
1022,4040001138641,新規,0,2025-05-13,2025-05-13,株式会社ａｙａｋａｓｈｉ,,株式会社,千葉県,東金市,三ケ尻２番地４,,12,213,2830832,,,,,,,2025-05-13,1,,,,,アヤカシ,0
1023,4040001138699,新規,0,2025-05-13,2025-05-13,株式会社Ｔｅｎｎｉｓ　ＨＵＢ,,株式会社,千葉県,柏市,松ケ崎４９６番地７ブルーメゾン松ヶ崎２０４,,12,217,2770835,,,,,,,2025-05-13,1,,,,,テニスハブ,0
1024,4040001138716,新規,0,2025-05-13,2025-05-13,株式会社ＳＨＫ,,株式会社,千葉県,木更津市,羽鳥野５丁目４番地１９,,12,206,2920819,,,,,,,2025-05-13,1,,,,,エスエイチケイ,0
1025,4040001138732,新規,0,2025-05-13,2025-05-13,株式会社ＴＨＭＤ,,株式会社,千葉県,佐倉市,下志津字申塚１４２３－１,,12,212,2850841,,,,,,,2025-05-13,1,,,,,ティーエイチエムディー,0
1026,4040001138749,新規,0,2025-05-13,2025-05-13,株式会社アール・ワークス,,株式会社,千葉県,市川市,北方町４丁目１９０３番地９,,12,203,2720811,,,,,,,2025-05-13,1,,,,,アールワークス,0
1028,4040003027545,新規,0,2025-05-13,2025-05-13,合同会社コネクト,,合同会社,千葉県,千葉市稲毛区,天台１丁目９番１号サンクレイドル千葉天台３１６号,,12,103,2630016,,,,,,,2025-05-13,1,,,,,コネクト,0
1031,4050001056652,新規,0,2025-05-13,2025-05-13,株式会社つくば感染症検査・研究支援センター,,株式会社,茨城県,つくば市,天王台１丁目１－１筑波大学医学系学系棟４Ｇ０３０室,,08,220,3050006,,,,,,,2025-05-13,1,,,,,ツクバカンセンショウケンサケンキュウシエンセンター,0
1042,4080001026933,新規,0,2025-05-13,2025-05-13,ＮＡＲＩＭＩ株式会社,,株式会社,静岡県,静岡市駿河区,丸子７０７８,,22,102,4210103,,,,,,,2025-05-13,1,,,,,ナリミ,0
1043,4080003003451,新規,0,2025-05-13,2025-05-13,合同会社Ｆｒｅｅｄｏｍ,,合同会社,静岡県,静岡市駿河区,栗原１６－４１－１０２,,22,102,4228008,,,,,,,2025-05-13,1,,,,,フリーダム,0
1054,4110001039246,新規,0,2025-05-13,2025-05-13,株式会社ＣＲＳ,,株式会社,新潟県,新潟市中央区,堀之内南１丁目３２番１６号,,15,103,9500982,,,,,,,2025-05-13,1,,,,,シーアールエス,0
1055,4110001039262,新規,0,2025-05-13,2025-05-13,マークツー株式会社,,株式会社,新潟県,新潟市中央区,一番堀通町５１３番地４－２階,,15,103,9518132,,,,,,,2025-05-13,1,,,,,マークツー,0
1057,4110005017231,新規,0,2025-05-13,2025-05-13,一般社団法人ＴＴＳ　Ｔｅｒａｍａｃｈｉ　Ｔｏｕｒｉｓｍ　Ｓｕｐｐｏｒｔ,,その他の設立登記法人,新潟県,上越市,五智４丁目７番１４号,,15,222,9420081,,,,,,,2025-05-13,1,,,,,ティティエステラマチツーリズムサポート,0
1071,4120001275022,新規,0,2025-05-13,2025-05-13,３ＡＭ　Ｈａｉｒ　Ｓａｌｏｎ株式会社,,株式会社,大阪府,大阪市淀川区,十三本町１丁目１８－７－５０１号室,,27,123,5320024,,,,,,,2025-05-13,1,,,,,スリーエイエムヘアサロン,0
1072,4120001275278,新規,0,2025-05-13,2025-05-13,株式会社ＡＩ　Ｒｅｖｏｌｕｔｉｏｎ,,株式会社,大阪府,大阪市北区,梅田１丁目２番２号大阪駅前第２ビル１２－１２,,27,127,5300001,,,,,,,2025-05-13,1,,,,,エーアイレボリューション,0
1073,4120001275311,新規,0,2025-05-13,2025-05-13,株式会社ＩＳＯ,,株式会社,大阪府,大阪市北区,大深町３番１号グランフロント大阪タワーＢ３５Ｆ,,27,127,5300011,,,,,,,2025-05-13,1,,,,,アイエスオー,0
1074,4120001275369,新規,0,2025-05-13,2025-05-13,株式会社ＭＯＧ,,株式会社,大阪府,大阪市北区,曾根崎新地１丁目７－１２ダーリンビル２Ｆ,,27,127,5300002,,,,,,,2025-05-13,1,,,,,モグ,0
1075,4120001275377,新規,0,2025-05-13,2025-05-13,一帆緑化園芸株式会社,,株式会社,大阪府,大阪市都島区,都島中通２丁目１１－１０－１０２,,27,102,5340022,,,,,,,2025-05-13,1,,,,,イツハンリョッカエンゲイ,0
1076,4120001275468,新規,0,2025-05-13,2025-05-13,ＬｕＬｕ　Ｔｅｃｈ株式会社,,株式会社,大阪府,大阪市住吉区,杉本１丁目９－１６グランビルドアビコＩＩ５０１,00139119,27,120,5580022,,,,,,,2025-05-13,1,,,,,ルルテック,0
1082,4120003029343,新規,0,2025-05-13,2025-05-13,合同会社ＳＥＣＴＩＯＮ　ＺＥＲＯ,,合同会社,大阪府,大阪市住吉区,苅田９丁目１６番２１－８０８号,,27,120,5580011,,,,,,,2025-05-13,1,,,,,セクションゼロ,0
1083,4120005024929,新規,0,2025-05-13,2025-05-13,一般社団法人子ども養育者関係支援研究研修センター,,その他の設立登記法人,大阪府,大阪市北区,梅田１丁目１番３号大阪駅前第３ビル２９階１－１－１号室,,27,127,5300001,,,,,,,2025-05-13,1,,,,,コドモヨウイクシャカンケイシエンケンキュウケンシュウセンター,0
1089,4122003003187,新規,0,2025-05-13,2025-05-13,ノースアップ合同会社,,合同会社,大阪府,東大阪市,東山町８番１０号,,27,227,5798027,,,,,,,2025-05-13,1,,,,,ノースアップ,0
1094,4130001079612,新規,0,2025-05-13,2025-05-13,株式会社ＢＳ,,株式会社,京都府,京都市伏見区,川東町１１番地３イニシア丹波橋４０９,,26,109,6128375,,,,,,,2025-05-13,1,,,,,ビーエス,0
1095,4130003010442,新規,0,2025-05-13,2025-05-13,合同会社ＳＡＣＨＩ,,合同会社,京都府,京都市東山区,今熊野北日吉町５２番地４３,,26,105,6050926,,,,,,,2025-05-13,1,,,,,サチ,0
1096,4130003010450,新規,0,2025-05-13,2025-05-13,合同会社つばさ,,合同会社,京都府,京都市中京区,西ノ京銅駝町２６サニーサイド西御池２０５号室,,26,104,6048425,,,,,,,2025-05-13,1,,,,,ツバサ,0
1104,4140001138433,新規,0,2025-05-13,2025-05-13,株式会社ｅ‐Ｇｌｅ　Ｔｅｃｈ．,,株式会社,兵庫県,川西市,小花２丁目２２番１１号,,28,217,6660015,,,,,,,2025-05-13,1,,,,,イーグルテック,0
1105,4140001138490,新規,0,2025-05-13,2025-05-13,桐安株式会社,,株式会社,兵庫県,神戸市長田区,大塚町９丁目１番１０－１０１号,,28,106,6530811,,,,,,,2025-05-13,1,,,,,トウアン,0
1106,4140001138508,新規,0,2025-05-13,2025-05-13,Ｏｎｅ　Ｌｉｆｅ株式会社,,株式会社,兵庫県,西宮市,産所町１４番９号５０１号,,28,204,6620978,,,,,,,2025-05-13,1,,,,,ワンライフ,0
1107,4140001138516,新規,0,2025-05-13,2025-05-13,森下農園株式会社,,株式会社,兵庫県,朝来市,山東町早田２１７－１,,28,225,6695122,,,,,,,2025-05-13,1,,,,,モリシタノウエン,0
1112,4140003022032,新規,0,2025-05-13,2025-05-13,合同会社ミニクロカンパニー,,合同会社,兵庫県,尼崎市,武庫之荘東２丁目１０番３号,,28,202,6610032,,,,,,,2025-05-13,1,,,,,ミニクロカンパニー,0
1114,4150001028121,新規,0,2025-05-13,2025-05-13,株式会社トワーズライト,,株式会社,奈良県,奈良市,尼辻西町３－５,00139132,29,201,6308023,,,,,,,2025-05-13,1,,,,,トワーズライト,0
1124,4180001166752,新規,0,2025-05-13,2025-05-13,富士商事株式会社,,株式会社,愛知県,東海市,富木島町前田面１２６－１,,23,222,4760011,,,,,,,2025-05-13,1,,,,,フジショウジ,0
1125,4180001166760,新規,0,2025-05-13,2025-05-13,株式会社大地不動産,,株式会社,愛知県,名古屋市港区,港栄４丁目３番１５号,,23,111,4550015,,,,,,,2025-05-13,1,,,,,ダイチフドウサン,0
1132,4180003028447,新規,0,2025-05-13,2025-05-13,ルミライズ合同会社,,合同会社,愛知県,名古屋市中村区,平池町４丁目６０番地の５ロイヤルパークスＥＲささしま１３３１号,,23,105,4530872,,,,,,,2025-05-13,1,,,,,ルミライズ,0
1135,4190001032219,新規,0,2025-05-13,2025-05-13,株式会社Ｃｌｅａｒ　Ｆｅｅｌｉｎｇ,,株式会社,三重県,鈴鹿市,野町西１丁目２番３号,,24,207,5100218,,,,,,,2025-05-13,1,,,,,クリアフィーリング,0
1136,4190003005024,新規,0,2025-05-13,2025-05-13,合同会社ＥＸＰＲＥＳＳＩＯＮ,,合同会社,三重県,津市,中河原３４５番地３プリムローズ１号,,24,201,5140018,,,,,,,2025-05-13,1,,,,,エクスプレション,0
1148,4220005008970,新規,0,2025-05-13,2025-05-13,医療法人社団羽柴クリニック,,その他の設立登記法人,石川県,金沢市,泉野町１丁目１９番１６号,,17,201,9218034,,,,,,,2025-05-13,1,,,,,ハシバクリニック,0
1153,4240001064933,新規,0,2025-05-13,2025-05-13,株式会社ギャラリー陽貴,,株式会社,広島県,広島市西区,南観音町９番１０－３０１号,,34,104,7330034,,,,,,,2025-05-13,1,,,,,ギャラリーヨウキ,0
1157,4240005015940,新規,0,2025-05-13,2025-05-13,一般社団法人ココテラスひろしま,,その他の設立登記法人,広島県,広島市中区,大手町１丁目１－２０相生橋ビル７階Ａ号室,,34,101,7300051,,,,,,,2025-05-13,1,,,,,ココテラスヒロシマ,0
1160,4290001109915,新規,0,2025-05-13,2025-05-13,株式会社ＫＭＹ,,株式会社,福岡県,大牟田市,本町４丁目７番地１３,,40,202,8360046,,,,,,,2025-05-13,1,,,,,ケイエムワイ,0
1161,4290001109956,新規,0,2025-05-13,2025-05-13,ＭＳＲホールディングス株式会社,,株式会社,福岡県,福岡市中央区,高砂１丁目２４番２０号,,40,133,8100011,,,,,,,2025-05-13,1,,,,,エムエスアールホールディングス,0
1162,4290001110014,新規,0,2025-05-13,2025-05-13,匯豊閣株式会社,,株式会社,福岡県,福岡市中央区,今泉２丁目１番７０－１０７号ロマネスク天神第２,,40,133,8100021,,,,,,,2025-05-13,1,,,,,カイホウカク,0
1169,4290803005048,新規,0,2025-05-13,2025-05-13,ｏｆｆｉｃｅ　ＭｏＭｏ合同会社,,合同会社,福岡県,北九州市八幡西区,岸の浦２丁目４番２５号西日本サンハイツ３０１号,,40,109,8060034,,,,,,,2025-05-13,1,,,,,オフィスモモ,0
1178,4330005010916,新規,0,2025-05-13,2025-05-13,一般社団法人てとてとココロ,,その他の設立登記法人,熊本県,熊本市北区,武蔵ケ丘４丁目１０－１４医療法人清藤クリニック内,,43,105,8618001,,,,,,,2025-05-13,1,,,,,テトテトココロ,0
1180,4340001027327,新規,0,2025-05-13,2025-05-13,株式会社ＡＵＴＯＢＯＤＹ　Ｋ,,株式会社,鹿児島県,姶良市,加治木町木田２４７３番地１,,46,225,8995241,,,,,,,2025-05-13,1,,,,,オートボディケー,0
1188,4360001035170,新規,0,2025-05-13,2025-05-13,株式会社ケアＬａｂｏ,,株式会社,沖縄県,豊見城市,字饒波８６６番地２,,47,212,9010211,,,,,,,2025-05-13,1,,,,,ケアラボ,0
1189,4360001035195,新規,0,2025-05-13,2025-05-13,ＭＩＮＴ株式会社沖縄,,株式会社,沖縄県,名護市,宇茂佐の森５丁目７番地２プレサンスロジェ名護宇茂佐ヴォール６０４号,,47,209,9050009,,,,,,,2025-05-13,1,,,,,ミントオキナワ,0
1191,4370001052561,新規,0,2025-05-13,2025-05-13,青葉コース管理株式会社,,株式会社,宮城県,白石市,大鷹沢大町字矢ノ口下５１番地の１,,04,206,9890212,,,,,,,2025-05-13,1,,,,,アオバコースカンリ,0
1193,4370003007084,新規,0,2025-05-13,2025-05-13,合同会社べる,,合同会社,宮城県,仙台市青葉区,愛子東１丁目４番６号,,04,101,9893127,,,,,,,2025-05-13,1,,,,,ベル,0
1194,4370003007092,新規,0,2025-05-13,2025-05-13,合同会社己解,,合同会社,宮城県,大崎市,三本木字南町５９,,04,215,9896321,,,,,,,2025-05-13,1,,,,,キカイ,0
1196,4380003006036,新規,0,2025-05-13,2025-05-13,Ｃｌｙｎｅ合同会社,,合同会社,福島県,郡山市,大槻町字原田４４番地の５,,07,203,9630201,,,,,,,2025-05-13,1,,,,,クライン,0
1211,4430001094283,新規,0,2025-05-13,2025-05-13,東晨金属株式会社,,株式会社,北海道,夕張郡栗山町,字湯地９５番地６３,,01,429,0691508,,,,,,,2025-05-13,1,,,,,トシンキンゾク,0
1213,4430003017655,新規,0,2025-05-13,2025-05-13,合同会社ＢＯＳＳ,,合同会社,北海道,札幌市中央区,南三条西３丁目８克美ビル２階,,01,101,0600063,,,,,,,2025-05-13,1,,,,,ボス,0
1214,4430005015228,新規,0,2025-05-13,2025-05-13,一般社団法人障がい者ＩＴキャリア支援機構,,その他の設立登記法人,北海道,札幌市北区,あいの里三条９丁目２４番８号,,01,102,0028073,,,,,,,2025-05-13,1,,,,,ショウガイシャアイティキャリアシエンキコウ,0
1216,4470003002884,新規,0,2025-05-13,2025-05-13,合同会社スリーユー,,合同会社,香川県,さぬき市,鴨庄４３７４番地２３,,37,206,7692102,,,,,,,2025-05-13,1,,,,,スリーユー,0
1219,4700150130381,新規,0,2025-05-13,2025-05-13,ＮＡＪＡＭ　ＡＬＡＲＥＥＳＨ　ＳＨＩＰＰＩＮＧ　ＬＬＣ,,外国会社等,千葉県,山武市,木原８７－Ｃ,,12,237,2891212,アラブ首長国連邦ドバイ市アルスクアルカベエル、マシュレクビル１階１０１－３１８,,,,,,2025-05-13,1,,,,,ナジヤムマラリーシシイピングエルエルシー,0
1230,5010003047322,新規,0,2025-05-13,2025-05-13,合同会社ＤＵＧＯＮＧ,,合同会社,東京都,千代田区,神田三崎町３丁目６番２号原島三崎町ビル２階司法書士法人リージェンツ内,,13,101,1010061,,,,,,,2025-05-13,1,,,,,ジュゴン,0
1232,5010005040044,新規,0,2025-05-13,2025-05-13,一般社団法人ＡＴロジスティクス,,その他の設立登記法人,東京都,千代田区,丸の内１丁目４番１号東京共同会計事務所内,,13,101,1000005,,,,,,,2025-05-13,1,,,,,エーティーロジスティクス,0
1238,5010401190260,新規,0,2025-05-13,2025-05-13,エシカルタイムズ株式会社,,株式会社,東京都,港区,南青山３丁目１番３６号青山丸竹ビル６Ｆ,,13,103,1070062,,,,,,,2025-05-13,1,,,,,エシカルタイムズ,0
1239,5010403035067,新規,0,2025-05-13,2025-05-13,花束のしおり合同会社,,合同会社,東京都,港区,北青山１丁目３番１号,,13,103,1070061,,,,,,,2025-05-13,1,,,,,ハナタバノシオリ,0
1246,5010601067259,新規,0,2025-05-13,2025-05-13,株式会社ＲＢＭ,,株式会社,東京都,江東区,亀戸４丁目３７番７号,,13,108,1360071,,,,,,,2025-05-13,1,,,,,アールビーエム,0
1249,5010603011553,新規,0,2025-05-13,2025-05-13,合同会社ＳＴＤ,,合同会社,東京都,墨田区,江東橋４丁目１５番４号第９大澤ビル５Ｆ,,13,107,1300022,,,,,,,2025-05-13,1,,,,,エスティーディー,0
1256,5010701047664,新規,0,2025-05-13,2025-05-13,株式会社５２ＴＯＹＳ　ＪＡＰＡＮ,,株式会社,東京都,品川区,西五反田２丁目１１番１５－６０３号,,13,109,1410031,,,,,,,2025-05-13,1,,,,,フィフティーツートイズジャパン,0
1262,5010803005388,新規,0,2025-05-13,2025-05-13,ＣＣクエスト合同会社,,合同会社,東京都,大田区,池上２丁目１６番３号,,13,111,1460082,,,,,,,2025-05-13,1,,,,,シーシークエスト,0
1263,5010805003175,新規,0,2025-05-13,2025-05-13,一般社団法人インディペンデント・ジェネレーション・プランナー協会,,その他の設立登記法人,東京都,大田区,南千束３丁目２２番２０号,,13,111,1450063,,,,,,,2025-05-13,1,,,,,インディペンデントジェネレーションプランナーキョウカイ,0
1271,5011001169315,新規,0,2025-05-13,2025-05-13,株式会社日昇,,株式会社,東京都,渋谷区,神宮前１丁目２３番２８号,,13,113,1500001,,,,,,,2025-05-13,1,,,,,ニッショウ,0
1273,5011003021523,新規,0,2025-05-13,2025-05-13,デーデ合同会社,,合同会社,東京都,渋谷区,渋谷２丁目１９－１５宮益坂ビルディング６０９,,13,113,1500002,,,,,,,2025-05-13,1,,,,,デーデ,0
1280,5011101111663,新規,0,2025-05-13,2025-05-13,后福重々株式会社,,株式会社,東京都,新宿区,高田馬場２丁目１４番６号スワンビル５Ｆ,,13,104,1690075,,,,,,,2025-05-13,1,,,,,コウフクジュウジュウ,0
1281,5011103015838,新規,0,2025-05-13,2025-05-13,合同会社Ｎａｖｉｇａｔｅ　Ｎｉｐｐｏｎ,,合同会社,東京都,新宿区,若葉１丁目１９番地１,,13,104,1600011,,,,,,,2025-05-13,1,,,,,ナビゲートニッポン,0
1282,5011103015879,新規,0,2025-05-13,2025-05-13,合同会社リッツマネージメント,,合同会社,東京都,新宿区,百人町１丁目２３番１１号土田ビル２Ｆ,,13,104,1690073,,,,,,,2025-05-13,1,,,,,リッツマネージメント,0
1285,5011201026324,新規,0,2025-05-13,2025-05-13,株式会社ＪＨ,,株式会社,東京都,中野区,中央４丁目１－３ボニータ新中野ビル４Ｆ,,13,114,1640011,,,,,,,2025-05-13,1,,,,,ジェイエイチ,0
1291,5011301030564,新規,0,2025-05-13,2025-05-13,株式会社Ａｌｐａｃａ書籍,,株式会社,東京都,杉並区,天沼１丁目１番１１号,,13,115,1670032,,,,,,,2025-05-13,1,,,,,アルパカショセキ,0
1295,5011503006511,新規,0,2025-05-13,2025-05-13,２Ｍ　Ｐｏｗｅｒ　Ｎ７合同会社,,合同会社,東京都,荒川区,東日暮里３丁目２－１４ガーデンヒルズ東日暮里１０１－Ｊ,,13,118,1160014,,,,,,,2025-05-13,1,,,,,ニーエムパワーエヌセブン,0
1296,5011603004704,新規,0,2025-05-13,2025-05-13,ＰＡＷ合同会社,,合同会社,東京都,練馬区,関町南２丁目１５－３,,13,120,1770053,,,,,,,2025-05-13,1,,,,,パウ,0
1297,5011701028340,新規,0,2025-05-13,2025-05-13,株式会社トレードマニア,,株式会社,東京都,江戸川区,南篠崎町４丁目１６番１６号Ｅ．Ｉ．レジデンスＡ３０３,,13,123,1330065,,,,,,,2025-05-13,1,,,,,トレードマニア,0
1299,5011801046110,新規,0,2025-05-13,2025-05-13,株式会社ジニアリティ,,株式会社,東京都,足立区,千住大川町２番１５号プロスタ２０２,,13,121,1200031,,,,,,,2025-05-13,1,,,,,ジニアリティ,0
1300,5011801046119,新規,0,2025-05-13,2025-05-13,株式会社錦尚,,株式会社,東京都,足立区,鹿浜２丁目３５－２－１０１,,13,121,1230864,,,,,,,2025-05-13,1,,,,,キンショウ,0
1302,5012301014375,新規,0,2025-05-13,2025-05-13,Ｓｗｉｎｇ‐Ｂｙ株式会社,,株式会社,東京都,町田市,原町田４丁目１－３みすず町田ビル３Ｆ,,13,209,1940013,,,,,,,2025-05-13,1,,,,,スイングバイ,0
1305,5012303002155,新規,0,2025-05-13,2025-05-13,合同会社Ｏｎｌｙ　ｏｎｅ,,合同会社,東京都,町田市,中町１丁目４番２号,,13,209,1940021,,,,,,,2025-05-13,1,,,,,オンリーワン,0
1308,5012401043068,新規,0,2025-05-13,2025-05-13,株式会社ＫＪＲ,,株式会社,東京都,多摩市,連光寺１丁目３０番地の１５,,13,224,2060021,,,,,,,2025-05-13,1,,,,,ケイジェイアール,0
1309,5012403007112,新規,0,2025-05-13,2025-05-13,Ｂｒｉｇｈｔ　Ｆｕｔｕｒｅ　Ｐａｒｔｎｅｒｓ合同会社,,合同会社,東京都,三鷹市,大沢３丁目１１番１７号,,13,204,1810015,,,,,,,2025-05-13,1,,,,,ブライトフューチャーパートナーズ,0
1314,5013301054213,新規,0,2025-05-13,2025-05-13,富和国際株式会社,,株式会社,東京都,豊島区,池袋２丁目６１番５号エシールＫ・Ｔビル８０２号,,13,116,1710014,,,,,,,2025-05-13,1,,,,,トミワコクサイ,0
1315,5013301054238,新規,0,2025-05-13,2025-05-13,株式会社ＰＥＣＯＮＥ,,株式会社,東京都,豊島区,北大塚１丁目１６番５号パークアクシス大塚ステーションゲートタワー２２０８号,,13,116,1700004,,,,,,,2025-05-13,1,,,,,ペックワン,0
1318,5013305003711,新規,0,2025-05-13,2025-05-13,弁護士法人東京借地借家人法律事務所,,その他の設立登記法人,東京都,豊島区,南池袋１丁目２１番５号第７野萩ビル地下１階,,13,116,1710022,,,,,,,2025-05-13,1,,,,,トウキョウシャクチシャクヤニンホウリツジムショ,0
1332,5020001162717,新規,0,2025-05-13,2025-05-13,株式会社ツヨミカ,,株式会社,神奈川県,横浜市西区,北幸１丁目１１番１号　水信ビル７階,,14,103,2200004,,,,,,,2025-05-13,1,,,,,ツヨミカ,0
1340,5021001085197,新規,0,2025-05-13,2025-05-13,株式会社野口住設,,株式会社,神奈川県,相模原市南区,当麻８８９番地４,,14,153,2520336,,,,,,,2025-05-13,1,,,,,,0
1344,5021005013360,新規,0,2025-05-13,2025-05-13,一般社団法人精神構造分析普及協会,,その他の設立登記法人,神奈川県,藤沢市,遠藤４６８７番地,,14,205,2520816,,,,,,,2025-05-13,1,,,,,セイシンコウゾウブンセキフキュウキョウカイ,0
1351,5030001166469,新規,0,2025-05-13,2025-05-13,東京寧和株式会社,,株式会社,埼玉県,所沢市,喜多町６番９ー３０２号Ｇｌｅｅ,,11,208,3591113,,,,,,,2025-05-13,1,,,,,トウキョウネイワ,0
1352,5030001166502,新規,0,2025-05-13,2025-05-13,株式会社Ｅｉｇｈｔ,,株式会社,埼玉県,さいたま市南区,辻１丁目２５番７号,00139115,11,108,3360026,,,,,,,2025-05-13,1,,,,,エイト,0
1353,5030003026745,新規,0,2025-05-13,2025-05-13,イエス合同会社,,合同会社,埼玉県,さいたま市北区,別所町１１２７番地１－１０１号,,11,102,3310821,,,,,,,2025-05-13,1,,,,,イエス,0
1354,5030003026761,新規,0,2025-05-13,2025-05-13,ＨＩＴＯＭＩ　ＧＬＯＢＡＬ合同会社,,合同会社,埼玉県,川口市,大字榛松１６７９番地,,11,203,3340062,,,,,,,2025-05-13,1,,,,,ヒトミグローバル,0
1362,5040001138649,新規,0,2025-05-13,2025-05-13,株式会社とよしきフードワークス,,株式会社,千葉県,柏市,篠籠田１４００－１３,,12,217,2770862,,,,,,,2025-05-13,1,,,,,トヨシキフードワークス,0
1363,5040001138681,新規,0,2025-05-13,2025-05-13,株式会社土屋防災設備,,株式会社,千葉県,鎌ケ谷市,中沢８８６番地１,,12,224,2730118,,,,,,,2025-05-13,1,,,,,ツチヤボウサイセツビ,0
1366,5040003027528,新規,0,2025-05-13,2025-05-13,合同会社ランドマネジメント,,合同会社,千葉県,八街市,大関９２番地４４,,12,230,2891142,,,,,,,2025-05-13,1,,,,,ランドマネジメント,0
1367,5040003027544,新規,0,2025-05-13,2025-05-13,合同会社ひないろ,,合同会社,千葉県,松戸市,大金平５丁目３８１番地の３サンモールＥ,,12,207,2700006,,,,,,,2025-05-13,1,,,,,ヒナイロ,0
1368,5040003027585,新規,0,2025-05-13,2025-05-13,合同会社イーエムティージャパン,,合同会社,千葉県,松戸市,八ケ崎３丁目３４－１,,12,207,2700023,,,,,,,2025-05-13,1,,,,,イーエムティージャパン,0
1374,5060001038186,新規,0,2025-05-13,2025-05-13,株式会社アート工房,,株式会社,栃木県,栃木市,大平町真弓５５０番地,,09,203,3294415,,,,,,,2025-05-13,1,,,,,アートコウボウ,0
1379,5060003005548,新規,0,2025-05-13,2025-05-13,合同会社花絆,,合同会社,栃木県,日光市,鬼怒川温泉大原１３９８番地８,,09,206,3212522,,,,,,,2025-05-13,1,,,,,ハナキズナ,0
1384,5070001042930,新規,0,2025-05-13,2025-05-13,株式会社プログレヤ,,株式会社,群馬県,藤岡市,篠塚２８１番地１,,10,209,3750017,,,,,,,2025-05-13,1,,,,,,0
1386,5070003005919,新規,0,2025-05-13,2025-05-13,合同会社ホワネモ,,合同会社,群馬県,高崎市,矢島町３７６－３,,10,202,3700016,,,,,,,2025-05-13,1,,,,,,0
1388,5080101025495,新規,0,2025-05-13,2025-05-13,株式会社静岡ふじ産業医事務所,,株式会社,静岡県,富士市,島田町１丁目５０,,22,210,4170033,,,,,,,2025-05-13,1,,,,,シズオカフジサンギョウイジムショ,0
1391,5080403005261,新規,0,2025-05-13,2025-05-13,合同会社Ｌｉｌｌｙ　ｍｅ,,合同会社,静岡県,浜松市中央区,湖東町１０６番地１,,22,138,4311103,,,,,,,2025-05-13,1,,,,,リリーミー,0
1392,5090001019266,新規,0,2025-05-13,2025-05-13,株式会社Ａ．Ｒ．Ｆ,,株式会社,山梨県,笛吹市,御坂町大野寺８０９番地１,,19,211,4060817,,,,,,,2025-05-13,1,,,,,エーアールエフ,0
1396,5110001039261,新規,0,2025-05-13,2025-05-13,明和０１株式会社,,株式会社,新潟県,新潟市西蒲区,打越１３５番地１,,15,108,9501348,,,,,,,2025-05-13,1,,,,,メイワゼロイチ,0
1397,5110003005749,新規,0,2025-05-13,2025-05-13,合同会社郷光,,合同会社,新潟県,十日町市,丙３３７番地３,,15,210,9480000,,,,,,,2025-05-13,1,,,,,サトヒカリ,0
1409,5120001275021,新規,0,2025-05-13,2025-05-13,拓胤貿易投資株式会社,,株式会社,大阪府,大阪市西成区,萩之茶屋２丁目５番４号３階３０３号室,,27,122,5570004,,,,,,,2025-05-13,1,,,,,タクミボウエキトウシ,0
1410,5120001275376,新規,0,2025-05-13,2025-05-13,雲＿国際貿易株式会社,00139124,株式会社,大阪府,大阪市港区,八幡屋３丁目５－１－３０３室,,27,107,5520014,,,,,,,2025-05-13,1,,,,,ウンキコクサイボウエキ,0
1411,5120001275384,新規,0,2025-05-13,2025-05-13,孫小贏餐飲株式会社,00139123,株式会社,大阪府,大阪市生野区,中川４丁目２番４号ホワイトビル３０２号,,27,116,5440005,,,,,,,2025-05-13,1,,,,,ソンショウエイサンイン,0
1412,5120001275475,新規,0,2025-05-13,2025-05-13,永利投資株式会社,,株式会社,大阪府,大阪市西成区,橘１丁目１１－２８オフィスポート橘４１０号室,,27,122,5570051,,,,,,,2025-05-13,1,,,,,エイリトウシ,0
1413,5120001275517,新規,0,2025-05-13,2025-05-13,永涛株式会社,,株式会社,大阪府,大阪市西成区,萩之茶屋２丁目６番４号ニューかめや１５１号,,27,122,5570004,,,,,,,2025-05-13,1,,,,,エイトウ,0
1430,5120901050853,新規,0,2025-05-13,2025-05-13,株式会社カネミズ,,株式会社,大阪府,摂津市,別府３丁目２番９号,,27,224,5660046,,,,,,,2025-05-13,1,,,,,カネミズ,0
1431,5120901050861,新規,0,2025-05-13,2025-05-13,株式会社ＤＳ,,株式会社,大阪府,豊中市,島江町２丁目１７－１６－１０２,,27,203,5610826,,,,,,,2025-05-13,1,,,,,ディーエス,0
1438,5122001039190,新規,0,2025-05-13,2025-05-13,株式会社未来企画,,株式会社,大阪府,東大阪市,御厨栄町２丁目４番７号,,27,227,5770036,,,,,,,2025-05-13,1,,,,,ミライキカク,0
1439,5122001039208,新規,0,2025-05-13,2025-05-13,株式会社夢広,,株式会社,大阪府,四條畷市,中野本町３番２４号,,27,229,5750051,,,,,,,2025-05-13,1,,,,,ユメヒロ,0
1452,5140001138432,新規,0,2025-05-13,2025-05-13,Ｅｓｃｏｒｔ株式会社,,株式会社,兵庫県,姫路市,田寺東３丁目２５番１８号,,28,201,6700081,,,,,,,2025-05-13,1,,,,,エスコート,0
1453,5140001138473,新規,0,2025-05-13,2025-05-13,株式会社ｆｉｒｓｔ　ｓｐｒｏｕｔ,,株式会社,兵庫県,神戸市中央区,下山手通３丁目１０－２ファルマシアントアロード１階,,28,110,6500011,,,,,,,2025-05-13,1,,,,,ファーストスプラウト,0
1460,5140003022031,新規,0,2025-05-13,2025-05-13,ＨＡＲＩＯＲＩ合同会社,,合同会社,兵庫県,赤穂郡上郡町,與井９０１番地１,,28,481,6781225,,,,,,,2025-05-13,1,,,,,ハリオリ,0
1461,5140003022048,新規,0,2025-05-13,2025-05-13,合同会社ｏｃｔａ,,合同会社,兵庫県,神戸市東灘区,向洋町中５丁目１－５２４－９０６,,28,101,6580032,,,,,,,2025-05-13,1,,,,,オクタ,0
1463,5140005027499,新規,0,2025-05-13,2025-05-13,弁護士法人神戸パートナーズ,,その他の設立登記法人,兵庫県,神戸市中央区,海岸通６番地建隆ビルＩＩ３階,00139129,28,110,6500024,,,,,,,2025-05-13,1,,,,,コウベパートナーズ,0
1467,5160001026734,新規,0,2025-05-13,2025-05-13,株式会社ＹＥ企画,,株式会社,滋賀県,草津市,野路５丁目２番２１号,,25,206,5250059,,,,,,,2025-05-13,1,,,,,ワイイーキカク,0
1474,5180001166768,新規,0,2025-05-13,2025-05-13,株式会社クゥ・ドゥ・ラパン,,株式会社,愛知県,名古屋市名東区,高社２丁目９７番地ニッチュウハイツ１０１号,,23,115,4650095,,,,,,,2025-05-13,1,,,,,クゥドゥラパン,0
1477,5180003028479,新規,0,2025-05-13,2025-05-13,合同会社Ｒ,,合同会社,愛知県,名古屋市中区,錦３丁目１９番２６号,,23,106,4600003,,,,,,,2025-05-13,1,,,,,アール,0
1481,5180303006572,新規,0,2025-05-13,2025-05-13,リアルエステート悠誠合同会社,,合同会社,愛知県,蒲郡市,水竹町千丸１０５番地１,,23,214,4430005,,,,,,,2025-05-13,1,,,,,リアルエステートハルカマコト,0
1483,5190001032218,新規,0,2025-05-13,2025-05-13,ｅｎ　ｐｌａｎｎｉｎｇ株式会社,,株式会社,三重県,三重郡菰野町,大字菰野１４３８番地３,,24,341,5101233,,,,,,,2025-05-13,1,,,,,エンプランニング,0
1486,5220001026678,新規,0,2025-05-13,2025-05-13,株式会社ＣｌｅａｎＬｉｎｋ,,株式会社,石川県,白山市,辰巳町４８番地,,17,210,9240875,,,,,,,2025-05-13,1,,,,,クリーンリンク,0
1491,5240001064932,新規,0,2025-05-13,2025-05-13,株式会社シンバイオス研究所,,株式会社,広島県,三原市,小泉町３８７７番地７,,34,204,7292361,,,,,,,2025-05-13,1,,,,,シンバイオスケンキュウショ,0
1493,5240003007204,新規,0,2025-05-13,2025-05-13,Ｒａｐｉ合同会社,,合同会社,広島県,呉市,川尻町東３丁目１番３３号,,34,202,7372607,,,,,,,2025-05-13,1,,,,,ラピ,0
1495,5260001040155,新規,0,2025-05-13,2025-05-13,株式会社ＡＲＣＨ,,株式会社,岡山県,岡山市北区,表町２丁目６番２１号,,33,101,7000822,,,,,,,2025-05-13,1,,,,,アーキ,0
1496,5260003005172,新規,0,2025-05-13,2025-05-13,合同会社ＯＳＨＩＫＵＲＡＭＥＮ,,合同会社,岡山県,岡山市北区,辰巳１１－１０９－１０１,,33,101,7000976,,,,,,,2025-05-13,1,,,,,オシクラメン,0
1503,5290003016786,新規,0,2025-05-13,2025-05-13,海港未来合同会社,,合同会社,福岡県,福岡市東区,箱崎４丁目３８番１７号２０５号室,,40,131,8120053,,,,,,,2025-05-13,1,,,,,カイコウミライ,0
1508,5330001033168,新規,0,2025-05-13,2025-05-13,株式会社岩村住建,,株式会社,熊本県,玉名郡南関町,大字関外目１２５３番地５,,43,367,8610801,,,,,,,2025-05-13,1,,,,,イワムラジュウケン,0
1509,5330001033192,新規,0,2025-05-13,2025-05-13,Ｐｕｅｎｔｅ株式会社,,株式会社,熊本県,荒尾市,荒尾１９０６番地３,,43,204,8640041,,,,,,,2025-05-13,1,,,,,プエンテ,0
1517,5350003004933,新規,0,2025-05-13,2025-05-13,合同会社皆森工業,,合同会社,宮崎県,都城市,都北町６３２１番地１,,45,202,8850004,,,,,,,2025-05-13,1,,,,,ミナモリコウギョウ,0
1519,5360003014915,新規,0,2025-05-13,2025-05-13,合同会社Ｕメディカルサポート,,合同会社,沖縄県,沖縄市,胡屋４丁目１４番２８号,,47,211,9040021,,,,,,,2025-05-13,1,,,,,ユーメディカルサポート,0
1520,5370001052552,新規,0,2025-05-13,2025-05-13,株式会社平石建設,,株式会社,宮城県,仙台市宮城野区,榴岡４丁目６番２３号今野ビル２Ｆ,,04,102,9830852,,,,,,,2025-05-13,1,,,,,ヒライシケンセツ,0
1536,5430003017605,新規,0,2025-05-13,2025-05-13,まるにこ合同会社,,合同会社,北海道,虻田郡洞爺湖町,成香１０４,,01,584,0495832,,,,,,,2025-05-13,1,,,,,マルニコ,0
1544,6010001254662,新規,0,2025-05-13,2025-05-13,株式会社ＡＲＣＨ,,株式会社,東京都,中央区,日本橋堀留町１丁目４番２号日本橋ノーススクエア９階,,13,102,1030012,,,,,,,2025-05-13,1,,,,,,0
1545,6010001254679,新規,0,2025-05-13,2025-05-13,ＵＣ　ＡｎｉｍａｌＣａｒｅ　Ｐａｒｔｎｅｒｓ株式会社,,株式会社,東京都,千代田区,紀尾井町４番１号,,13,101,1020094,,,,,,,2025-05-13,1,,,,,ユーシーアニマルケアパートナーズ,0
1546,6010001254951,新規,0,2025-05-13,2025-05-13,凌志投資株式会社,,株式会社,東京都,中央区,入船１丁目２番８号サンパーク東京銀座９０４,,13,102,1040042,,,,,,,2025-05-13,1,,,,,リョウシトウシ,0
1549,6010103002572,新規,0,2025-05-13,2025-05-13,合同会社ＭＹＲＴＬＥ,,合同会社,東京都,八王子市,子安町１丁目２－４、２Ｆ,,13,201,1920904,,,,,,,2025-05-13,1,,,,,マートル,0
1551,6010401190284,新規,0,2025-05-13,2025-05-13,株式会社５‐Ｖｅｔ,,株式会社,東京都,港区,赤坂８丁目８－７アルボレスビル３Ｆ,,13,103,1070052,,,,,,,2025-05-13,1,,,,,ファイブベット,0
1552,6010405024315,新規,0,2025-05-13,2025-05-13,一般社団法人工業製品製造技能人材機構,,その他の設立登記法人,東京都,港区,虎ノ門５丁目１１番２号,,13,103,1050001,,,,,,,2025-05-13,1,,,,,コウギョウセイヒンセイゾウギノウジンザイキコウ,0
1570,6011001169314,新規,0,2025-05-13,2025-05-13,株式会社ＴｏＭｏＲｕ,,株式会社,東京都,渋谷区,渋谷２丁目１９－１５宮益坂ビルディング６０９,,13,113,1500002,,,,,,,2025-05-13,1,,,,,トモル,0
1571,6011001169388,新規,0,2025-05-13,2025-05-13,Ｔｓｕｂａｍｅ　Ｌａｂ株式会社,,株式会社,東京都,目黒区,下目黒１丁目１番１４号コノトラビル７Ｆ,,13,110,1530064,,,,,,,2025-05-13,1,,,,,ツバメラボ,0
1572,6011001169677,新規,0,2025-05-13,2025-05-13,株式会社デルファイサウンド,,株式会社,東京都,渋谷区,代官山町１４番２３号,,13,113,1500034,,,,,,,2025-05-13,1,,,,,デルファイサウンド,0
1574,6011003021472,新規,0,2025-05-13,2025-05-13,ＴＡＹＯ　ＷＯＲＫＳ合同会社,,合同会社,東京都,渋谷区,神南１丁目１１－４ＦＰＧリンクス神南５階,,13,113,1500041,,,,,,,2025-05-13,1,,,,,タヨワークス,0
1575,6011003021555,新規,0,2025-05-13,2025-05-13,合同会社ＳｅｍＦｉｍ,,合同会社,東京都,目黒区,緑が丘２丁目２２－２,,13,110,1520034,,,,,,,2025-05-13,1,,,,,センフィム,0
1582,6011101111588,新規,0,2025-05-13,2025-05-13,株式会社ｓｐｊｏｙ,,株式会社,東京都,新宿区,西新宿３丁目３番１３号西新宿水間ビル６階,,13,104,1600023,,,,,,,2025-05-13,1,,,,,スポジョイ,0
1587,6011303005530,新規,0,2025-05-13,2025-05-13,合同会社ＡＳＨ　Ｐｒｏｐｅｒｔｙ,,合同会社,東京都,杉並区,成田東５丁目９－３,,13,115,1660015,,,,,,,2025-05-13,1,,,,,エーエスエイチプロパティ,0
1590,6011503006510,新規,0,2025-05-13,2025-05-13,２Ｍ　Ｐｏｗｅｒ　Ｎ６合同会社,,合同会社,東京都,荒川区,東日暮里３丁目２－１４ガーデンヒルズ東日暮里１０１－Ｉ,00139122,13,118,1160014,,,,,,,2025-05-13,1,,,,,ニーエムパワーエヌシックス,0
1593,6011701028331,新規,0,2025-05-13,2025-05-13,Ｒｅｄ　Ｃａｂ株式会社,,株式会社,東京都,江戸川区,中葛西５丁目１１番２５号,,13,123,1340083,,,,,,,2025-05-13,1,,,,,レッドキャブ,0
1595,6011801046126,新規,0,2025-05-13,2025-05-13,株式会社競馬女子会,,株式会社,東京都,葛飾区,金町１丁目１３番４号,,13,122,1250042,,,,,,,2025-05-13,1,,,,,ケイバジョシカイ,0
1596,6011803006838,新規,0,2025-05-13,2025-05-13,合同会社ＫＡＨＯＵ,,合同会社,東京都,葛飾区,柴又２丁目５番２８－３１２号ガーデンプラザ柴又弐番館,,13,122,1250052,,,,,,,2025-05-13,1,,,,,カホウ,0
1610,6020001162708,新規,0,2025-05-13,2025-05-13,株式会社Ｈａｒｕ,,株式会社,神奈川県,横浜市中区,山下町２５５番地１リリファ横濱山下町５０５号室,,14,104,2310023,,,,,,,2025-05-13,1,,,,,ハル,0
1619,6021001085196,新規,0,2025-05-13,2025-05-13,株式会社物語,,株式会社,神奈川県,相模原市南区,東大沼４丁目１７番３６号エクレールＨＡＲＵＩＩ２０１,00139128,14,153,2520333,,,,,,,2025-05-13,1,,,,,モノガタリ,0
1621,6021003015952,新規,0,2025-05-13,2025-05-13,Ｍ＆Ａ　ｓｕｐｐｏｒｔ合同会社,,合同会社,神奈川県,相模原市中央区,相模原５丁目２－１,,14,152,2520231,,,,,,,2025-05-13,1,,,,,エムアンドエーサポート,0
1627,6030001166476,新規,0,2025-05-13,2025-05-13,株式会社環境産業,,株式会社,埼玉県,鴻巣市,赤見台４丁目１３番７号,,11,217,3650064,,,,,,,2025-05-13,1,,,,,カンキョウサンギョウ,0
1628,6030001166518,新規,0,2025-05-13,2025-05-13,和興国際貿易株式会社,,株式会社,埼玉県,さいたま市岩槻区,府内１丁目４番１７－１号,,11,110,3390042,,,,,,,2025-05-13,1,,,,,ワコウコクサイボウエキ,0
1635,6040001138697,新規,0,2025-05-13,2025-05-13,ぱぁず株式会社,,株式会社,千葉県,佐倉市,表町３丁目１５番地１,,12,212,2850811,,,,,,,2025-05-13,1,,,,,パァズ,0
1636,6040001138706,新規,0,2025-05-13,2025-05-13,株式会社ＭＡＨＡＬＯ工務店,,株式会社,千葉県,白井市,神々廻１７６９番地１,,12,232,2701416,,,,,,,2025-05-13,1,,,,,マハロコウムテン,0
1637,6040001138714,新規,0,2025-05-13,2025-05-13,株式会社ＴＯＣＯＴＯＣＯ,,株式会社,千葉県,八街市,文違３０１番地７５０,,12,230,2891104,,,,,,,2025-05-13,1,,,,,トコトコ,0
1638,6040001138722,新規,0,2025-05-13,2025-05-13,株式会社ＮＫＰＮ,,株式会社,千葉県,浦安市,当代島１丁目５番８－５０３号,,12,227,2790001,,,,,,,2025-05-13,1,,,,,エヌケイピイエヌ,0
1639,6040001138747,新規,0,2025-05-13,2025-05-13,株式会社福留工業,,株式会社,千葉県,四街道市,大日１５７番地１,,12,228,2840001,,,,,,,2025-05-13,1,,,,,フクドメコウギョウ,0
1640,6040003027527,新規,0,2025-05-13,2025-05-13,合同会社Ｍｉｌｌｉｏｎ　Ｄｒｅａｍｓ,,合同会社,千葉県,千葉市緑区,あすみが丘９丁目４番９号,,12,105,2670066,,,,,,,2025-05-13,1,,,,,ミリオンドリームズ,0
1641,6040003027535,新規,0,2025-05-13,2025-05-13,ＲＥＮＯＢ合同会社,,合同会社,千葉県,松戸市,六高台４丁目１１２,,12,207,2702203,,,,,,,2025-05-13,1,,,,,リノブ,0
1644,6050001056667,新規,0,2025-05-13,2025-05-13,株式会社福,00139133,株式会社,茨城県,土浦市,荒川沖東２丁目１６番２号,,08,203,3000871,,,,,,,2025-05-13,1,,,,,フク,0
1657,6080105006508,新規,0,2025-05-13,2025-05-13,特定非営利活動法人コスモスクール未来富士校,,その他の設立登記法人,静岡県,富士市,松岡１５１５番地の１７,,22,210,4160909,,,,,,,2025-05-13,1,,,,,コスモスクールミライフジコウ,0
1662,6100003008140,新規,0,2025-05-13,2025-05-13,合同会社共栄クリーニング,,合同会社,長野県,下高井郡山ノ内町,大字佐野５９８番地ロ,,20,561,3810402,,,,,,,2025-05-13,1,,,,,キョウエイクリーニング,0
1663,6110001039244,新規,0,2025-05-13,2025-05-13,扇和株式会社,,株式会社,新潟県,南魚沼郡湯沢町,湯沢２丁目２番地１２,,15,461,9496101,,,,,,,2025-05-13,1,,,,,センワ,0
1681,6120001275441,新規,0,2025-05-13,2025-05-13,Ａｖａｎｄａ株式会社,,株式会社,大阪府,大阪市港区,南市岡３丁目１０－２－７０５室,,27,107,5520011,,,,,,,2025-05-13,1,,,,,アヴァンダ,0
1682,6120001275508,新規,0,2025-05-13,2025-05-13,融達株式会社,,株式会社,大阪府,大阪市此花区,春日出中１丁目９番１３－１０４Ａ,,27,104,5540022,,,,,,,2025-05-13,1,,,,,ユウタツ,0
1683,6120001275516,新規,0,2025-05-13,2025-05-13,双豊株式会社,,株式会社,大阪府,大阪市西成区,萩之茶屋２丁目６番４号ニューかめや１５２号,,27,122,5570004,,,,,,,2025-05-13,1,,,,,ソウホウ,0
1684,6120001275565,新規,0,2025-05-13,2025-05-13,株式会社ＯＮＬ,,株式会社,大阪府,大阪市浪速区,元町２丁目１２番１６号,,27,111,5560016,,,,,,,2025-05-13,1,,,,,オーエヌエル,0
1685,6120001275689,新規,0,2025-05-13,2025-05-13,株式会社九龍企画,,株式会社,大阪府,大阪市中央区,日本橋２丁目１７番２号,,27,128,5420073,,,,,,,2025-05-13,1,,,,,クーロンキカク,0
1692,6120101071583,新規,0,2025-05-13,2025-05-13,株式会社ＶＡＺＳＴ,,株式会社,大阪府,羽曳野市,白鳥３丁目６番９号,,27,222,5830856,,,,,,,2025-05-13,1,,,,,ヴァースト,0
1696,6120901050844,新規,0,2025-05-13,2025-05-13,ｆＤＭ株式会社,,株式会社,大阪府,池田市,栄本町１０番１４号五月Ｆ池田１０１号室,,27,204,5630058,,,,,,,2025-05-13,1,,,,,エフディーエム,0
1699,6120903005656,新規,0,2025-05-13,2025-05-13,合同会社ヤマグチ,,合同会社,大阪府,豊中市,日出町１丁目６番２０の６号,,27,203,5610821,,,,,,,2025-05-13,1,,,,,ヤマグチ,0
1700,6122001039207,新規,0,2025-05-13,2025-05-13,株式会社ミライヤ,,株式会社,大阪府,東大阪市,衣摺６丁目６－２０,,27,227,5770827,,,,,,,2025-05-13,1,,,,,ミライヤ,0
1704,6130001079602,新規,0,2025-05-13,2025-05-13,株式会社森脇石材,,株式会社,京都府,亀岡市,東つつじケ丘都台２丁目２番３０号,,26,206,6210832,,,,,,,2025-05-13,1,,,,,モリワキセキザイ,0
1705,6130001079619,新規,0,2025-05-13,2025-05-13,株式会社青菁社,,株式会社,京都府,京都市南区,唐橋羅城門町４０番地３,,26,107,6018453,,,,,,,2025-05-13,1,,,,,セイセイシャ,0
1706,6130001079635,新規,0,2025-05-13,2025-05-13,ＳＵＮＴＣ株式会社,,株式会社,京都府,京都市左京区,下鴨貴船町４９番地２貴船マンション２０６号,,26,103,6060813,,,,,,,2025-05-13,1,,,,,サンテック,0
1707,6130001079651,新規,0,2025-05-13,2025-05-13,株式会社ＥＺ　ＷＯＲＬＤ,,株式会社,京都府,京都市下京区,七条通油小路東入大黒町２２７番地第２キョートビル４０２,,26,106,6008223,,,,,,,2025-05-13,1,,,,,イージーワールド,0
1709,6140001138299,新規,0,2025-05-13,2025-05-13,株式会社ＩＲＯＡＳ,,株式会社,兵庫県,明石市,大久保町松陰５４６番地の３,,28,203,6740053,,,,,,,2025-05-13,1,,,,,イロアス,0
1710,6140001138497,新規,0,2025-05-13,2025-05-13,株式会社ｎｏｄａｃｈｉ,,株式会社,兵庫県,明石市,大久保町大窪６２３番地の７,,28,203,6740051,,,,,,,2025-05-13,1,,,,,ノダチ,0
1711,6140001138530,新規,0,2025-05-13,2025-05-13,株式会社ＳＣ,,株式会社,兵庫県,西宮市,枝川町１１番５４号,,28,204,6638143,,,,,,,2025-05-13,1,,,,,エスシー,0
1714,6140003022022,新規,0,2025-05-13,2025-05-13,アンリミティッドエナジー合同会社,,合同会社,兵庫県,芦屋市,伊勢町９番２０号,,28,206,6590052,,,,,,,2025-05-13,1,,,,,アンリミティッドエナジー,0
1715,6140003022039,新規,0,2025-05-13,2025-05-13,合同会社ＳＩリンク,,合同会社,兵庫県,川西市,平野２丁目２１番１３号,,28,217,6660121,,,,,,,2025-05-13,1,,,,,エスアイリンク,0
1729,6180001166701,新規,0,2025-05-13,2025-05-13,株式会社丸二久田,,株式会社,愛知県,名古屋市中川区,下之一色町字権野７６番地１,,23,110,4540945,,,,,,,2025-05-13,1,,,,,マルニヒサダ,0
1730,6180001166783,新規,0,2025-05-13,2025-05-13,株式会社山毅,,株式会社,愛知県,東海市,名和町寝覚１５６番地,,23,222,4760002,,,,,,,2025-05-13,1,,,,,サンキ,0
1731,6180001166791,新規,0,2025-05-13,2025-05-13,株式会社ＨＵＪＲＡ,,株式会社,愛知県,弥富市,鍋田町六野３４番,,23,235,4980068,,,,,,,2025-05-13,1,,,,,フジュラ,0
1737,6180003028461,新規,0,2025-05-13,2025-05-13,合同会社ビジョナリースマートトレード,,合同会社,愛知県,名古屋市中区,新栄２丁目２番７号,,23,106,4600007,,,,,,,2025-05-13,1,,,,,ビジョナリースマートトレード,0
1752,6200001043765,新規,0,2025-05-13,2025-05-13,Ｈ＆Ｙ恒源商事株式会社,,株式会社,岐阜県,大垣市,長松町８９５番地６,,21,202,5030997,,,,,,,2025-05-13,1,,,,,エイチアンドワイコウゲン,0
1753,6220001026677,新規,0,2025-05-13,2025-05-13,株式会社Ｔａｌｅｎｔｉａ,,株式会社,石川県,金沢市,もりの里３丁目２３６コータ・コートＮ１０１号,,17,201,9201167,,,,,,,2025-05-13,1,,,,,タレンティア,0
1760,6230001020902,新規,0,2025-05-13,2025-05-13,株式会社プライムフードマネジメント,,株式会社,富山県,富山市,桜町１丁目６番１８号,,16,201,9300003,,,,,,,2025-05-13,1,,,,,プライムフードマネジメント,0
1762,6240001064931,新規,0,2025-05-13,2025-05-13,株式会社Ｂｅｌｌａ　ｌｕｋｅ,,株式会社,広島県,福山市,幕山台２丁目２０番２０号,,34,207,7210913,,,,,,,2025-05-13,1,,,,,ベラルーク,0
1767,6260003005171,新規,0,2025-05-13,2025-05-13,Ｈｉｎａｓｏｄｅ合同会社,,合同会社,岡山県,岡山市北区,今５丁目２－８ＲＵＲＵ今３０３,,33,101,7000975,,,,,,,2025-05-13,1,,,,,ヒナソデ,0
1770,6290003016785,新規,0,2025-05-13,2025-05-13,雋翊商事合同会社,00139117,合同会社,福岡県,福岡市東区,箱崎４丁目３８番１７号パークコート箱崎ＩＩ２０６号室,00139118,40,131,8120053,,,,,,,2025-05-13,1,,,,,ジュンイツショウジ,0
1771,6290003016793,新規,0,2025-05-13,2025-05-13,合同会社ＴＩＮＨ　ＤＵＹ,,合同会社,福岡県,福岡市博多区,博多駅南３丁目１５番３０－４０８号,,40,132,8120016,,,,,,,2025-05-13,1,,,,,ティンユイ,0
1772,6290005019737,新規,0,2025-05-13,2025-05-13,一般社団法人外国人材就労共生パートナー協会,,その他の設立登記法人,福岡県,久留米市,大橋町合楽１６３番地２,,40,203,8390832,,,,,,,2025-05-13,1,,,,,ガイコクジンザイシュウロウキョウセイパートナーキョウカイ,0
1775,6300005007244,新規,0,2025-05-13,2025-05-13,医療法人裕正会,,その他の設立登記法人,佐賀県,佐賀市,駅前中央２丁目１番１号北口ビル１階,,41,201,8400801,,,,,,,2025-05-13,1,,,,,ユウセイカイ,0
1779,6320003004654,新規,0,2025-05-13,2025-05-13,闖溢合同会社,00139125,合同会社,大分県,佐伯市,蒲江畑野浦２７４番地１,,44,205,8760000,,,,,,,2025-05-13,1,,,,,チンイツ,0
1785,6330003011006,新規,0,2025-05-13,2025-05-13,ＧＣ合同会社,,合同会社,熊本県,荒尾市,川登２０６０－１２,,43,204,8640131,,,,,,,2025-05-13,1,,,,,ジーシー,0
1792,6340003004850,新規,0,2025-05-13,2025-05-13,合同会社あさひな経営,,合同会社,鹿児島県,鹿児島市,鴨池新町２１番７号鴨池シーサイドビル３０１,,46,201,8900064,,,,,,,2025-05-13,1,,,,,アサヒナケイエイ,0
1795,6360001035169,新規,0,2025-05-13,2025-05-13,浦添ガスホールディングス株式会社,,株式会社,沖縄県,浦添市,字港川５００番地の１５,,47,208,9012134,,,,,,,2025-05-13,1,,,,,ウラソエガスホールディングス,0
1796,6360003014914,新規,0,2025-05-13,2025-05-13,ヤンバルクイナ合同会社,,合同会社,沖縄県,那覇市,久米２丁目３３番２０号－８０５,,47,201,9000033,,,,,,,2025-05-13,1,,,,,ヤンバルクイナ,0
1801,6380001035316,新規,0,2025-05-13,2025-05-13,株式会社Ａ．Ａ．Ｉ．,,株式会社,福島県,南相馬市,原町区旭町４丁目８２番地の１２,,07,212,9750004,,,,,,,2025-05-13,1,,,,,エーエーアイ,0
1802,6380003006034,新規,0,2025-05-13,2025-05-13,合同会社Ｌｉｖｅｓｔｏ,,合同会社,福島県,いわき市,平字一町目１４番地,,07,204,9708026,,,,,,,2025-05-13,1,,,,,リヴェスト,0
1813,6430003017645,新規,0,2025-05-13,2025-05-13,合同会社Ｍ．ＴＩＥＳ,,合同会社,北海道,札幌市中央区,南九条西１６丁目１番１０－４０２号,,01,101,0640809,,,,,,,2025-05-13,1,,,,,エムタイズ,0
1831,7010001254686,新規,0,2025-05-13,2025-05-13,株式会社ミラエイト,,株式会社,東京都,千代田区,神田和泉町１－６－１６ヤマトビル４０５,,13,101,1010024,,,,,,,2025-05-13,1,,,,,ミラエイト,0
1833,7010003047122,新規,0,2025-05-13,2025-05-13,ルナンジュ合同会社,,合同会社,東京都,中央区,日本橋横山町７－１０第２７イチオクビル２Ｆ－２Ｄ,,13,102,1030003,,,,,,,2025-05-13,1,,,,,ルナンジュ,0
1834,7010003047337,新規,0,2025-05-13,2025-05-13,合同会社Ｓｏｌａｃｉａ,,合同会社,東京都,中央区,京橋２丁目５番２２号キムラヤビル３階,,13,102,1040031,,,,,,,2025-05-13,1,,,,,ソラシア,0
1835,7010101016680,新規,0,2025-05-13,2025-05-13,株式会社ＦａｓｔＧｏ,,株式会社,東京都,八王子市,大船町１０２９－２０,,13,201,1930935,,,,,,,2025-05-13,1,,,,,ファストゴー,0
1845,7010405024396,新規,0,2025-05-13,2025-05-13,住吉ホールディング２一般社団法人,,その他の設立登記法人,東京都,港区,虎ノ門３丁目２２番１０－２０１号,,13,103,1050001,,,,,,,2025-05-13,1,,,,,スミヨシホールディングツー,0
1869,7010901057338,新規,0,2025-05-13,2025-05-13,株式会社ＭＡＭＵＣＡ,,株式会社,東京都,世田谷区,桜新町１丁目２７番２２号,,13,112,1540015,,,,,,,2025-05-13,1,,,,,マムカ,0
1870,7010903009915,新規,0,2025-05-13,2025-05-13,合同会社Ｍｅｒａｋ,,合同会社,東京都,世田谷区,北沢１丁目２３―１４マノシティ３０３,,13,112,1550031,,,,,,,2025-05-13,1,,,,,メラク,0
1877,7011001169726,新規,0,2025-05-13,2025-05-13,Ｇｅｎｓｅｎ株式会社,,株式会社,東京都,渋谷区,渋谷２丁目１９番１５号宮益坂ビルディング６０９,,13,113,1500002,,,,,,,2025-05-13,1,,,,,ゲンセン,0
1878,7011001169841,新規,0,2025-05-13,2025-05-13,Ｓｏｌｐｌｕｓ株式会社,,株式会社,東京都,渋谷区,円山町５番３号ＭＩＥＵＸ渋谷ビル８階,,13,113,1500044,,,,,,,2025-05-13,1,,,,,ソルプラス,0
1886,7011101111645,新規,0,2025-05-13,2025-05-13,株式会社ＢＡＮＫＡ,,株式会社,東京都,新宿区,西新宿３丁目３番１３号西新宿水間ビル２Ｆ,,13,104,1600023,,,,,,,2025-05-13,1,,,,,バンカ,0
1887,7011101111686,新規,0,2025-05-13,2025-05-13,株式会社Ａｌｅｘｉｓ,,株式会社,東京都,新宿区,西新宿３丁目３番１３号西新宿水間ビル２階,,13,104,1600023,,,,,,,2025-05-13,1,,,,,アレクシス,0
1890,7011103015852,新規,0,2025-05-13,2025-05-13,ＳＷＩＦＴ　ＰＬＡＴＩＮＵＭ合同会社,,合同会社,東京都,新宿区,若松町３４番７号Ｊコート若松３Ｆ,,13,104,1620056,,,,,,,2025-05-13,1,,,,,スウィフトプラチナ,0
1891,7011103015877,新規,0,2025-05-13,2025-05-13,合同会社ＶＩＬＩＦＥ,,合同会社,東京都,新宿区,西新宿３丁目３番１３号西新宿水間ビル２Ｆ,,13,104,1600023,,,,,,,2025-05-13,1,,,,,ヴィライフ,0
1892,7011301030570,新規,0,2025-05-13,2025-05-13,株式会社ｗｏｗｂｅ,,株式会社,東京都,杉並区,井草４丁目３番１４号,,13,115,1670021,,,,,,,2025-05-13,1,,,,,,0
1897,7011601028629,新規,0,2025-05-13,2025-05-13,宙豊キャピタルマネジメント株式会社,,株式会社,東京都,練馬区,関町北５丁目１９番１８号,,13,120,1770051,,,,,,,2025-05-13,1,,,,,チュウホウキャピタルマネジメント,0
1898,7011601028645,新規,0,2025-05-13,2025-05-13,集英株式会社,,株式会社,東京都,練馬区,春日町６丁目１６番１１号２０１号室,,13,120,1790074,,,,,,,2025-05-13,1,,,,,シュウエイ,0
1899,7011603004702,新規,0,2025-05-13,2025-05-13,合同会社ＭｕＭｅｔｓａ,,合同会社,東京都,練馬区,大泉学園町２丁目１３番４号ルミエール５０１,,13,120,1780061,,,,,,,2025-05-13,1,,,,,ムーメッサ,0
1900,7011701028330,新規,0,2025-05-13,2025-05-13,株式会社ジェイブ,,株式会社,東京都,江戸川区,西一之江１丁目４番２６号,,13,123,1320023,,,,,,,2025-05-13,1,,,,,ジェイブ,0
1901,7011801046117,新規,0,2025-05-13,2025-05-13,株式会社ＲｅＴｏ,,株式会社,東京都,足立区,一ツ家１丁目５番１３号,,13,121,1210075,,,,,,,2025-05-13,1,,,,,リト,0
1902,7011803006845,新規,0,2025-05-13,2025-05-13,合同会社Ａｈａｎｔｉｎｇ,,合同会社,東京都,足立区,千住１丁目３０－３－１８０５,,13,121,1200034,,,,,,,2025-05-13,1,,,,,エーハンティング,0
1903,7012301014365,新規,0,2025-05-13,2025-05-13,株式会社ＭＡＹ,,株式会社,東京都,町田市,森野２丁目３１番１１号シャレー三井２０１,,13,209,1940022,,,,,,,2025-05-13,1,,,,,メイ,0
1905,7012401043074,新規,0,2025-05-13,2025-05-13,株式会社Ｉｎｏｖａｎｃｅ,,株式会社,東京都,調布市,東つつじケ丘２丁目２６番地１６ファースト１１３,,13,208,1820005,,,,,,,2025-05-13,1,,,,,イノヴァンス,0
1908,7012801023956,新規,0,2025-05-13,2025-05-13,株式会社秦都,,株式会社,東京都,東大和市,湖畔３丁目９６９番地の１７,,13,220,2070002,,,,,,,2025-05-13,1,,,,,シント,0
1910,7013301054236,新規,0,2025-05-13,2025-05-13,株式会社ｐａｔｈ．,,株式会社,東京都,豊島区,目白５丁目２１番１３号グローベルザ目白プレミアム１３０１号室,,13,116,1710031,,,,,,,2025-05-13,1,,,,,パス,0
1911,7013303007662,新規,0,2025-05-13,2025-05-13,合同会社ＣｏｒｅＶｉｓｉｏｎ,,合同会社,東京都,豊島区,高松３丁目８番１３－３１５号,,13,116,1710042,,,,,,,2025-05-13,1,,,,,コアビジョン,0
1917,7020001162707,新規,0,2025-05-13,2025-05-13,株式会社ＭＳＴ,,株式会社,神奈川県,川崎市川崎区,四谷上町４番２３号,,14,131,2100828,,,,,,,2025-05-13,1,,,,,エムエスティー,0
1922,7020005016818,新規,0,2025-05-13,2025-05-13,一般社団法人メンタルケアサポート会,,その他の設立登記法人,神奈川県,横浜市西区,浅間町１丁目４番３号ウィザードビル４０２,,14,103,2200072,,,,,,,2025-05-13,1,,,,,メンタルケアサポートカイ,0
1923,7020005016834,新規,0,2025-05-13,2025-05-13,一般社団法人ＬＦコンサート,,その他の設立登記法人,神奈川県,川崎市幸区,大宮町１４番地３フォレストマインズ２０２,,14,132,2120014,,,,,,,2025-05-13,1,,,,,,0
1936,7030001166442,新規,0,2025-05-13,2025-05-13,株式会社ＦＴＣ,,株式会社,埼玉県,さいたま市南区,辻３丁目４番１４－１０１号,00139114,11,108,3360026,,,,,,,2025-05-13,1,,,,,エフティーシー,0
1937,7030001166483,新規,0,2025-05-13,2025-05-13,株式会社ＡＤＣＯＮＳＵＬＴＡＮＴ＆ＦＬＯＷＥＲ,,株式会社,埼玉県,川口市,差間２丁目３１番２７号,,11,203,3330816,,,,,,,2025-05-13,1,,,,,エディコンサルタントアンドフラワー,0
1938,7030001166500,新規,0,2025-05-13,2025-05-13,株式会社アールアイエス,,株式会社,埼玉県,川口市,並木４丁目１６番１７－７０７号青木パークハイツ,,11,203,3320034,,,,,,,2025-05-13,1,,,,,アールアイエス,0
1953,7040001138671,新規,0,2025-05-13,2025-05-13,株式会社遮那,,株式会社,千葉県,君津市,戸崎２７５１番地１、２０１,,12,225,2920441,,,,,,,2025-05-13,1,,,,,シャナ,0
1954,7040001138705,新規,0,2025-05-13,2025-05-13,オークラ保険ＭＫ株式会社,,株式会社,千葉県,香取市,大倉４８３番地１,,12,236,2870013,,,,,,,2025-05-13,1,,,,,オークラホケンエムケー,0
1955,7040001138713,新規,0,2025-05-13,2025-05-13,株式会社ワンクレスト,,株式会社,千葉県,印西市,西の原３丁目１７番地２棟６０５号,,12,231,2701334,,,,,,,2025-05-13,1,,,,,ワンクレスト,0
1956,7040001138721,新規,0,2025-05-13,2025-05-13,株式会社ＢＵＤＬＩＴ,,株式会社,千葉県,千葉市緑区,土気町１３８１番地３３,,12,105,2670061,,,,,,,2025-05-13,1,,,,,バドリット,0
1957,7040001138738,新規,0,2025-05-13,2025-05-13,株式会社ほり針灸マッサージ院,,株式会社,千葉県,野田市,野田６６７番地リック野田３０１号室,,12,208,2780037,,,,,,,2025-05-13,1,,,,,ホリシンキュウマッサージイン,0
1959,7040003027443,新規,0,2025-05-13,2025-05-13,合同会社ｐｉｃｏ,,合同会社,千葉県,市原市,下矢田１０９３－４,,12,219,2900518,,,,,,,2025-05-13,1,,,,,ピコ,0
1960,7040003027518,新規,0,2025-05-13,2025-05-13,ＳＫＲ合同会社,,合同会社,千葉県,千葉市中央区,富士見２丁目７番９号富士見ビル６０９号,,12,101,2600015,,,,,,,2025-05-13,1,,,,,エスケーアール,0
1962,7050001056658,新規,0,2025-05-13,2025-05-13,株式会社寿恵廣錦,,株式会社,茨城県,鹿嶋市,大字宮中４８番地５,,08,222,3140031,,,,,,,2025-05-13,1,,,,,スエヒロニシキ,0
1970,7070003005917,新規,0,2025-05-13,2025-05-13,萍地起合同会社,,合同会社,群馬県,桐生市,広沢町３丁目４０４６番地の３,,10,203,3760013,,,,,,,2025-05-13,1,,,,,ピンディチ,0
1975,7080105006507,新規,0,2025-05-13,2025-05-13,一般社団法人伊東市移住支援協会,,その他の設立登記法人,静岡県,伊東市,和田２丁目２番５０号スマートステイ伊東１階,,22,208,4140024,,,,,,,2025-05-13,1,,,,,イトウシイジュウシエンキョウカイ,0
1980,7090001019248,新規,0,2025-05-13,2025-05-13,じゅわり株式会社,,株式会社,山梨県,南アルプス市,加賀美２７２４－５,,19,208,4000335,,,,,,,2025-05-13,1,,,,,,0
1985,7100001038584,新規,0,2025-05-13,2025-05-13,株式会社いと忠,,株式会社,長野県,飯田市,松尾新井６４３３番地１,,20,205,3950821,,,,,,,2025-05-13,1,,,,,イトチュウ,0
1987,7110001039243,新規,0,2025-05-13,2025-05-13,株式会社ｍｘエムクロス,,株式会社,新潟県,南魚沼市,二日町１２６番地,,15,226,9496772,,,,,,,2025-05-13,1,,,,,エムクロス,0
1988,7110001039268,新規,0,2025-05-13,2025-05-13,株式会社ランママネジメント,,株式会社,新潟県,三条市,泉新田６０番地,,15,204,9591143,,,,,,,2025-05-13,1,,,,,ランママネジメント,0
1998,7120001275374,新規,0,2025-05-13,2025-05-13,株式会社ステッジ,,株式会社,大阪府,大阪市東淀川区,淡路４丁目７番２５,,27,114,5330032,,,,,,,2025-05-13,1,,,,,ステッジ,0
2003,7120003029316,新規,0,2025-05-13,2025-05-13,クレケア合同会社,,合同会社,大阪府,大阪市福島区,福島３丁目３番６－１１０１号,,27,103,5530003,,,,,,,2025-05-13,1,,,,,クレケア,0
2005,7120101071558,新規,0,2025-05-13,2025-05-13,株式会社Ｋ‐ＵＮＩＴ,,株式会社,大阪府,貝塚市,東山２丁目１５番１５号,,27,208,5970046,,,,,,,2025-05-13,1,,,,,ケイユニット,0
2006,7120101071657,新規,0,2025-05-13,2025-05-13,株式会社ＫＦＣ,,株式会社,大阪府,和泉市,府中町１丁目１１番３号,,27,219,5940071,,,,,,,2025-05-13,1,,,,,ケーエフシー,0
2019,7130001079584,新規,0,2025-05-13,2025-05-13,株式会社マジカルハピネスコーポレーション,,株式会社,京都府,乙訓郡大山崎町,字大山崎小字竜光５３番地１、２０５号,,26,303,6180071,,,,,,,2025-05-13,1,,,,,マジカルハピネスコーポレーション,0
2020,7130001079601,新規,0,2025-05-13,2025-05-13,二本一碾茶株式会社,,株式会社,京都府,相楽郡和束町,大字中小字二本一５５番地,,26,365,6191205,,,,,,,2025-05-13,1,,,,,ニホンイチテンチャ,0
2021,7130001079634,新規,0,2025-05-13,2025-05-13,株式会社京ロジ,,株式会社,京都府,京都市伏見区,久我石原町６番地７１,,26,109,6128491,,,,,,,2025-05-13,1,,,,,キョウロジ,0
2022,7130001079667,新規,0,2025-05-13,2025-05-13,株式会社大岡設備,,株式会社,京都府,京都市伏見区,深草真宗院山町１番地１５,,26,109,6120872,,,,,,,2025-05-13,1,,,,,オオオカセツビ,0
2023,7130003010431,新規,0,2025-05-13,2025-05-13,合同会社ＳｕｒＦｌｏ,,合同会社,京都府,京都市左京区,下鴨泉川町９４番地,,26,103,6060807,,,,,,,2025-05-13,1,,,,,サーフロウ,0
2024,7130003010456,新規,0,2025-05-13,2025-05-13,不二音京合同会社,,合同会社,京都府,京都市中京区,柳馬場通姉小路上る柳八幡町７４番地,,26,104,6048101,,,,,,,2025-05-13,1,,,,,フジオンキョウ,0
2031,7140001138397,新規,0,2025-05-13,2025-05-13,Ｗａｋａｋｉ　Ｂｅａｕｔｙ株式会社,,株式会社,兵庫県,神戸市灘区,篠原北町３丁目１４番１２－１３０１号,,28,102,6570068,,,,,,,2025-05-13,1,,,,,ワカキビューティー,0
2032,7140001138505,新規,0,2025-05-13,2025-05-13,株式会社エポムｅｎｔ,,株式会社,兵庫県,神戸市西区,竜が岡３丁目９番地の１０,,28,111,6512412,,,,,,,2025-05-13,1,,,,,エポムエンタープライズ,0
2036,7140003022038,新規,0,2025-05-13,2025-05-13,リファエステート合同会社,,合同会社,兵庫県,神戸市北区,谷上東町３番１１－３０２号,,28,109,6511245,,,,,,,2025-05-13,1,,,,,リファエステート,0
2037,7140005027506,新規,0,2025-05-13,2025-05-13,一般社団法人アトリエ・コパン,,その他の設立登記法人,兵庫県,西宮市,能登町２番２３－２０４号,,28,204,6620838,,,,,,,2025-05-13,1,,,,,アトリエコパン,0
2041,7160001026757,新規,0,2025-05-13,2025-05-13,株式会社ＣＲＥＡＮＤＥ,,株式会社,滋賀県,大津市,京町１丁目１番３５－１５１０号,,25,201,5200044,,,,,,,2025-05-13,1,,,,,クレアンデ,0
2043,7170003002210,新規,0,2025-05-13,2025-05-13,合同会社双葉,,合同会社,和歌山県,和歌山市,小松原５丁目５－２１,,30,201,6408265,,,,,,,2025-05-13,1,,,,,フタバ,0
2055,7180001166782,新規,0,2025-05-13,2025-05-13,株式会社友照,,株式会社,愛知県,名古屋市中川区,山王３丁目１６番６号,,23,110,4540011,,,,,,,2025-05-13,1,,,,,トモテラス,0
2064,7190001032216,新規,0,2025-05-13,2025-05-13,株式会社ｙａｓｕｒａｇｉ,,株式会社,三重県,四日市市,鵜の森２丁目１番４号,,24,202,5100074,,,,,,,2025-05-13,1,,,,,ヤスラギ,0
2067,7200001043780,新規,0,2025-05-13,2025-05-13,ＫＴ株式会社,,株式会社,岐阜県,本巣郡北方町,北方１６番地の１リバティ北方３０５号,,21,421,5010431,,,,,,,2025-05-13,1,,,,,ケイティ,0
2079,7240001064939,新規,0,2025-05-13,2025-05-13,株式会社兵建,,株式会社,広島県,広島市佐伯区,千同３丁目３８４番地２（３０３）,,34,108,7315141,,,,,,,2025-05-13,1,,,,,ヒョウケン,0
2085,7290001109978,新規,0,2025-05-13,2025-05-13,悠然株式会社,,株式会社,福岡県,福岡市博多区,博多駅東１丁目１４番３４号博多ＩＣビル２Ｆ,,40,132,8120013,,,,,,,2025-05-13,1,,,,,ユウゼン,0
2086,7290003016784,新規,0,2025-05-13,2025-05-13,晨崎商貿合同会社,,合同会社,福岡県,福岡市東区,箱崎４丁目３８番１７号２０３号室,,40,131,8120053,,,,,,,2025-05-13,1,,,,,シンキショウボウ,0
2087,7290005019744,新規,0,2025-05-13,2025-05-13,一般社団法人日本Ｆｏａｍ　Ｄｏｄｇｅｂａｌｌ協会,,その他の設立登記法人,福岡県,福岡市中央区,天神２丁目２番１２号Ｔ＆Ｊビルディング７Ｆ,,40,133,8100001,,,,,,,2025-05-13,1,,,,,ニホンフォームドッジボールキョウカイ,0
2094,7320003004661,新規,0,2025-05-13,2025-05-13,合同会社ＯＮＥ,,合同会社,大分県,別府市,元町１２番１３号,,44,202,8740944,,,,,,,2025-05-13,1,,,,,ワン,0
2099,7330001033199,新規,0,2025-05-13,2025-05-13,九鹿株式会社,,株式会社,熊本県,熊本市中央区,下通１丁目３番８号下通ＮＳビル６階,,43,101,8600807,,,,,,,2025-05-13,1,,,,,キュウカ,0
2101,7330005010913,新規,0,2025-05-13,2025-05-13,ＮＰＯ法人ペット防災ネットワーク,,その他の設立登記法人,熊本県,熊本市中央区,新町１丁目１０番１１－７０５号,,43,101,8600004,,,,,,,2025-05-13,1,,,,,ペットボウサイネットワーク,0
2107,7340003004841,新規,0,2025-05-13,2025-05-13,合同会社ドルフィン,,合同会社,鹿児島県,鹿児島市,錦江町１１－３３－４０１,,46,201,8920836,,,,,,,2025-05-13,1,,,,,ドルフィン,0
2109,7360001035192,新規,0,2025-05-13,2025-05-13,株式会社ＢｏｕｎｄＦｏｒ,,株式会社,沖縄県,那覇市,字安謝６２０番地３０グランデュールマーサ６０１,,47,201,9000003,,,,,,,2025-05-13,1,,,,,バウンドフォー,0
2118,7410003004099,新規,0,2025-05-13,2025-05-13,桃源の杜合同会社,,合同会社,秋田県,大館市,早口字高岨上段６４番地３,,05,204,0183505,,,,,,,2025-05-13,1,,,,,トウゲンノモリ,0
2123,7430001094396,新規,0,2025-05-13,2025-05-13,ｃｏｔｏｂａｔｏ株式会社,,株式会社,北海道,札幌市北区,新琴似八条５丁目７－１６,,01,102,0010908,,,,,,,2025-05-13,1,,,,,コトバト,0
2128,7430003017628,新規,0,2025-05-13,2025-05-13,合同会社Ｏｒｉｇｉｎ　Ｖａｎｇｕａｒｄ,,合同会社,北海道,札幌市豊平区,平岸四条１３丁目３番１６号第２吉智ビル２０１号,,01,105,0620934,,,,,,,2025-05-13,1,,,,,オリジンヴァンガード,0
2129,7430003017644,新規,0,2025-05-13,2025-05-13,合同会社サクハナ,,合同会社,北海道,札幌市中央区,南一条西１６丁目１番地３２３春野ビル３階,,01,101,0600061,,,,,,,2025-05-13,1,,,,,サクハナ,0
2143,8010001254925,新規,0,2025-05-13,2025-05-13,ｉｎｓｉｇｈｔａ　ｃｌｏｕｄ株式会社,,株式会社,東京都,千代田区,神田小川町１丁目８－３小川町北ビル３Ｆ,,13,101,1010052,,,,,,,2025-05-13,1,,,,,インサイタクラウド,0
2146,8010003047294,新規,0,2025-05-13,2025-05-13,合同会社エムキャピタル,,合同会社,東京都,中央区,日本橋兜町１７番２号兜町第６葉山ビル４階,,13,102,1030026,,,,,,,2025-05-13,1,,,,,エムキャピタル,0
2147,8010103002570,新規,0,2025-05-13,2025-05-13,合同会社ハラデザイン,,合同会社,東京都,八王子市,犬目町１２４８番地１１,,13,201,1930802,,,,,,,2025-05-13,1,,,,,ハラデザイン,0
2149,8010401190167,新規,0,2025-05-13,2025-05-13,株式会社ヒューラック,,株式会社,東京都,港区,新橋４丁目１４番１号新橋ＡＵＮＢＬＤＧ４階,,13,103,1050004,,,,,,,2025-05-13,1,,,,,ヒューラック,0
2150,8010401190175,新規,0,2025-05-13,2025-05-13,株式会社ＬＦＧ,,株式会社,東京都,港区,芝５丁目２５－７－５２８６芝４Ｆ,,13,103,1080014,,,,,,,2025-05-13,1,,,,,エルエフジー,0
2152,8010405024395,新規,0,2025-05-13,2025-05-13,住吉ホールディング１一般社団法人,,その他の設立登記法人,東京都,港区,虎ノ門３丁目２２番１０－２０１号,,13,103,1050001,,,,,,,2025-05-13,1,,,,,スミヨシホールディングワン,0
2155,8010501054065,新規,0,2025-05-13,2025-05-13,株式会社ＬｏｄｇｅＵｐ,,株式会社,東京都,台東区,蔵前２丁目１２番４号,,13,106,1110051,,,,,,,2025-05-13,1,,,,,ロッジアップ,0
2158,8010601067248,新規,0,2025-05-13,2025-05-13,株式会社ＵＬＵＨＡＳＨＩ,,株式会社,東京都,江東区,南砂７丁目１３番１５号,,13,108,1360076,,,,,,,2025-05-13,1,,,,,ウルハシ,0
2164,8010903009906,新規,0,2025-05-13,2025-05-13,合同会社才能戦略ラボ,,合同会社,東京都,世田谷区,船橋３丁目４番１８－１０３号,,13,112,1560055,,,,,,,2025-05-13,1,,,,,サイノウセンリャクラボ,0
2172,8011001169287,新規,0,2025-05-13,2025-05-13,ＹｕｍｅＬｉｎｋ株式会社,,株式会社,東京都,渋谷区,円山町５番５号Ｎａｖｉ渋谷Ｖ３階,,13,113,1500044,,,,,,,2025-05-13,1,,,,,ユメリンク,0
2173,8011001169304,新規,0,2025-05-13,2025-05-13,Ｆｌｏｕｒｉａ株式会社,,株式会社,東京都,渋谷区,恵比寿西２丁目４番８号ウィンド恵比寿ビル８Ｆ,,13,113,1500021,,,,,,,2025-05-13,1,,,,,フローリア,0
2174,8011001169337,新規,0,2025-05-13,2025-05-13,株式会社ｔｅａｚｉｒｏ,,株式会社,東京都,渋谷区,道玄坂１丁目１６－６二葉ビル８ｂ,,13,113,1500043,,,,,,,2025-05-13,1,,,,,ティージロ,0
2177,8011005011008,新規,0,2025-05-13,2025-05-13,一般社団法人日本リーダーシップ開発ネットワーク,,その他の設立登記法人,東京都,渋谷区,恵比寿４丁目３番５号クレヴィア恵比寿９０４号室,,13,113,1500013,,,,,,,2025-05-13,1,,,,,ニホンリーダーシップカイハツネットワーク,0
2180,8011101111644,新規,0,2025-05-13,2025-05-13,桜の森株式会社,,株式会社,東京都,新宿区,榎町３４－３榎町ビル７階－１４室,,13,104,1620806,,,,,,,2025-05-13,1,,,,,サクラノモリ,0
2181,8011101111669,新規,0,2025-05-13,2025-05-13,株式会社シンコキュウ,,株式会社,東京都,新宿区,西新宿３丁目３番１３号西新宿水間ビル６階,,13,104,1600023,,,,,,,2025-05-13,1,,,,,シンコキュウ,0
2182,8011101111710,新規,0,2025-05-13,2025-05-13,株式会社美木,,株式会社,東京都,新宿区,四谷坂町１番１５－１０１号,,13,104,1600002,,,,,,,2025-05-13,1,,,,,ミキ,0
2184,8011103015793,新規,0,2025-05-13,2025-05-13,合同会社ＲＡＯＮ,,合同会社,東京都,新宿区,西新宿３丁目３番１３号西新宿水間ビル６階,,13,104,1600023,,,,,,,2025-05-13,1,,,,,ラオン,0
2185,8011201026346,新規,0,2025-05-13,2025-05-13,株式会社ＴＨＥ　ＰＥＡＫ,,株式会社,東京都,中野区,東中野１丁目３２番８,,13,114,1640003,,,,,,,2025-05-13,1,,,,,ザピーク,0
2193,8011503006525,新規,0,2025-05-13,2025-05-13,合同会社Ｙｕａ,,合同会社,東京都,北区,浮間３丁目５番１５－１２７号,,13,117,1150051,,,,,,,2025-05-13,1,,,,,ユア,0
2194,8011601028636,新規,0,2025-05-13,2025-05-13,株式会社ＩＧＮＡＳ　Ｈｏｌｄｉｎｇｓ,,株式会社,東京都,練馬区,平和台３丁目１４番１４－２０１号,,13,120,1790083,,,,,,,2025-05-13,1,,,,,イグナスホールディングス,0
2199,8011801046116,新規,0,2025-05-13,2025-05-13,株式会社中日建設一級建築士事務所,,株式会社,東京都,足立区,伊興２丁目１４－１０,,13,121,1210823,,,,,,,2025-05-13,1,,,,,チュウニチケンセツイッキュウケンチクシジムショ,0
2200,8011803006844,新規,0,2025-05-13,2025-05-13,合同会社マインズ,,合同会社,東京都,足立区,西新井本町１丁目２６番９号メゾンピアレスＩＩ２０２号室,00139134,13,121,1230845,,,,,,,2025-05-13,1,,,,,マインズ,0
2201,8012301014372,新規,0,2025-05-13,2025-05-13,株式会社ＳＡＩＷＡＩ工業,,株式会社,東京都,町田市,薬師台３丁目６番地９,,13,209,1950073,,,,,,,2025-05-13,1,,,,,サイワイコウギョウ,0
2207,8012403007118,新規,0,2025-05-13,2025-05-13,合同会社カコ,,合同会社,東京都,狛江市,西野川３丁目１４番５－５０２号,,13,219,2010001,,,,,,,2025-05-13,1,,,,,カコ,0
2234,8030001166466,新規,0,2025-05-13,2025-05-13,パインマム警備株式会社,,株式会社,埼玉県,所沢市,こぶし町２７番４４号,,11,208,3590033,,,,,,,2025-05-13,1,,,,,パインマムケイビ,0
2235,8030001166499,新規,0,2025-05-13,2025-05-13,ＴＫトレイド株式会社,,株式会社,埼玉県,川口市,西川口１丁目４０番地３－１Ｆ,,11,203,3320021,,,,,,,2025-05-13,1,,,,,ティーケートレイド,0
2239,8030003026750,新規,0,2025-05-13,2025-05-13,合同会社和光アスリートケア,,合同会社,埼玉県,和光市,本町１２番１６号１０４,,11,229,3510114,,,,,,,2025-05-13,1,,,,,ワコウアスリートケア,0
2240,8030003026759,新規,0,2025-05-13,2025-05-13,レフリペ合同会社,,合同会社,埼玉県,川口市,中青木４丁目１６番１２号,,11,203,3320032,,,,,,,2025-05-13,1,,,,,レフリペ,0
2241,8030003026767,新規,0,2025-05-13,2025-05-13,合同会社Ｄ‐Ｌｉｇｈｔｅｄ,,合同会社,埼玉県,戸田市,大字新曽１４１３番地の２プレイヤード戸田３０７号室,,11,224,3350021,,,,,,,2025-05-13,1,,,,,ディライティッド,0
2244,8040001138687,新規,0,2025-05-13,2025-05-13,株式会社ｆｕｕｍａ,,株式会社,千葉県,八千代市,八千代台東６丁目１２番２０号,,12,221,2760032,,,,,,,2025-05-13,1,,,,,フウマ,0
2245,8040001138704,新規,0,2025-05-13,2025-05-13,株式会社ＳＡＴ企画,,株式会社,千葉県,松戸市,松戸１２２８―１松戸ステーションビル５Ｆ,,12,207,2710092,,,,,,,2025-05-13,1,,,,,エスエーティーキカク,0
2246,8040001138745,新規,0,2025-05-13,2025-05-13,株式会社３６０＆ｗｏｒｋｓ,,株式会社,千葉県,市原市,能満３０４番地２,,12,219,2900011,,,,,,,2025-05-13,1,,,,,サブロクアンドワークス,0
2274,8080401027908,新規,0,2025-05-13,2025-05-13,飯田淡水魚株式会社,,株式会社,静岡県,浜松市中央区,西ケ崎町２３３０番地の１,,22,138,4313115,,,,,,,2025-05-13,1,,,,,イイダタンスイギョ,0
2283,8110003005754,新規,0,2025-05-13,2025-05-13,合同会社Ｔｒａｙｓｃ,,合同会社,新潟県,燕市,小高７０２４番地２,,15,213,9591241,,,,,,,2025-05-13,1,,,,,トレーシュ,0
2295,8120001275258,新規,0,2025-05-13,2025-05-13,株式会社ＴＲＡＤＥ　ＧＯＯＤＳ,,株式会社,大阪府,大阪市淀川区,宮原１丁目１７－３３北沢産業ビル３Ｆ,,27,123,5320003,,,,,,,2025-05-13,1,,,,,トレードグッズ,0
2296,8120001275423,新規,0,2025-05-13,2025-05-13,新和設備テック株式会社,,株式会社,大阪府,大阪市平野区,瓜破西３丁目１番１５号２０,,27,126,5470025,,,,,,,2025-05-13,1,,,,,シンワセツビテック,0
2300,8120101071631,新規,0,2025-05-13,2025-05-13,株式会社ブルートレイン,,株式会社,大阪府,貝塚市,東山４丁目１４番１号,,27,208,5970046,,,,,,,2025-05-13,1,,,,,ブルートレイン,0
2301,8120101071656,新規,0,2025-05-13,2025-05-13,株式会社なかよし,,株式会社,大阪府,岸和田市,五軒屋町６番１５号－１Ｆ,,27,202,5960055,,,,,,,2025-05-13,1,,,,,ナカヨシ,0
2302,8120101071664,新規,0,2025-05-13,2025-05-13,帝遠株式会社,,株式会社,大阪府,堺市堺区,五条通５番１３号,,27,141,5900044,,,,,,,2025-05-13,1,,,,,テイエン,0
2304,8120105010008,新規,0,2025-05-13,2025-05-13,一般社団法人ライフサポートジャパン,,その他の設立登記法人,大阪府,堺市西区,北条町２丁２７番３６号,,27,144,5938302,,,,,,,2025-05-13,1,,,,,ライフサポートジャパン,0
2315,8120901050859,新規,0,2025-05-13,2025-05-13,株式会社ＢＯＮＤＳ,,株式会社,大阪府,吹田市,江の木町１２番５－３０９号,,27,205,5640053,,,,,,,2025-05-13,1,,,,,ボンズ,0
2317,8120903005654,新規,0,2025-05-13,2025-05-13,合同会社ＳＳＷ,,合同会社,大阪府,吹田市,泉町５丁目１５番２２号２Ｆ,,27,205,5640041,,,,,,,2025-05-13,1,,,,,エスエスダブリュー,0
2324,8130001079658,新規,0,2025-05-13,2025-05-13,株式会社Ｍｉｌｌｅｏ,,株式会社,京都府,宇治市,神明宮北９番地５３,,26,204,6110025,,,,,,,2025-05-13,1,,,,,ミレオ,0
2325,8130005017366,新規,0,2025-05-13,2025-05-13,一般社団法人かみつれ会,,その他の設立登記法人,京都府,木津川市,相楽城西６９番地２,,26,214,6190222,,,,,,,2025-05-13,1,,,,,カミツレカイ,0
2331,8140001138438,新規,0,2025-05-13,2025-05-13,元花株式会社,,株式会社,兵庫県,西宮市,甲子園口北町２５番１５号,,28,204,6638112,,,,,,,2025-05-13,1,,,,,モトハナ,0
2332,8140001138446,新規,0,2025-05-13,2025-05-13,株式会社ｄｏｈａｋｕ,,株式会社,兵庫県,神戸市中央区,海岸通５丁目２番２号建洋ビル２階,,28,110,6500024,,,,,,,2025-05-13,1,,,,,ドウハク,0
2333,8140001138487,新規,0,2025-05-13,2025-05-13,株式会社誠建,,株式会社,兵庫県,尼崎市,東園田町５丁目５７番地の１,,28,202,6610953,,,,,,,2025-05-13,1,,,,,セイケン,0
2337,8140003022037,新規,0,2025-05-13,2025-05-13,合同会社明喜警備,,合同会社,兵庫県,姫路市,飾磨区今在家６丁目１６３番地,,28,201,6728079,,,,,,,2025-05-13,1,,,,,メイキケイビ,0
2338,8140003022045,新規,0,2025-05-13,2025-05-13,合同会社ネオ・アルファ,,合同会社,兵庫県,西宮市,柏堂町６－２８－１０４,,28,204,6620097,,,,,,,2025-05-13,1,,,,,ネオアルファ,0
2340,8140005027488,新規,0,2025-05-13,2025-05-13,一般社団法人ＴＦＣ,,その他の設立登記法人,兵庫県,川西市,小花２丁目７番３－１０６号,,28,217,6660015,,,,,,,2025-05-13,1,,,,,ティーエフシー,0
2341,8160001026723,新規,0,2025-05-13,2025-05-13,株式会社スプラウト,,株式会社,滋賀県,草津市,南草津２丁目２番１号ブランズシティ南草津６０１号,,25,206,5250050,,,,,,,2025-05-13,1,,,,,スプラウト,0
2351,8180001166732,新規,0,2025-05-13,2025-05-13,株式会社Ｄクリエイツホールディングス,,株式会社,愛知県,小牧市,弥生町１３５番地,,23,219,4850071,,,,,,,2025-05-13,1,,,,,ディークリエイツホールディングス,0
2358,8180003028468,新規,0,2025-05-13,2025-05-13,合同会社ＣａｔＮａｐ　Ｃａｐｉｔａｌ,,合同会社,愛知県,丹羽郡大口町,伝右２丁目３１８番地,,23,361,4800126,,,,,,,2025-05-13,1,,,,,キャットナップキャピタル,0
2365,8190003004996,新規,0,2025-05-13,2025-05-13,合同会社Ｒｏａｄ,,合同会社,三重県,津市,久居新町１１５７番地１２,,24,201,5141118,,,,,,,2025-05-13,1,,,,,ロード,0
2377,8240001064938,新規,0,2025-05-13,2025-05-13,ゴリラ不動産株式会社,,株式会社,広島県,東広島市,西条西本町２６番９号,,34,212,7390043,,,,,,,2025-05-13,1,,,,,ゴリラフドウサン,0
2379,8260001040185,新規,0,2025-05-13,2025-05-13,株式会社ライズエンジ,,株式会社,岡山県,倉敷市,片島町９１２番地７,,33,202,7100805,,,,,,,2025-05-13,1,,,,,ライズエンジ,0
2385,8290001109960,新規,0,2025-05-13,2025-05-13,株式会社大可奇,,株式会社,福岡県,福岡市南区,平和１丁目９番２０号,,40,134,8150071,,,,,,,2025-05-13,1,,,,,ダイカキ,0
2386,8290001110002,新規,0,2025-05-13,2025-05-13,株式会社ＵＮＩＱＵＥ　ＫＩＮＧ,,株式会社,福岡県,福岡市博多区,吉塚１丁目３６番１５－１号,,40,132,8120041,,,,,,,2025-05-13,1,,,,,ユニークキング,0
2387,8290003016791,新規,0,2025-05-13,2025-05-13,合同会社フジパックスパートナーズ,,合同会社,福岡県,福岡市東区,香椎台５丁目１６番２号,,40,131,8130014,,,,,,,2025-05-13,1,,,,,フジパックスパートナーズ,0
2388,8290003016817,新規,0,2025-05-13,2025-05-13,合同会社Ｍ‐ｓｔｙｌｅ,,合同会社,福岡県,久留米市,北野町塚島２４２番地８,,40,203,8301107,,,,,,,2025-05-13,1,,,,,エムスタイル,0
2389,8290005019743,新規,0,2025-05-13,2025-05-13,税理士法人福,,その他の設立登記法人,福岡県,筑紫野市,大字永岡２３６番地２１・２階,,40,217,8180066,,,,,,,2025-05-13,1,,,,,フク,0
2391,8300001014184,新規,0,2025-05-13,2025-05-13,仁徳株式会社,,株式会社,佐賀県,武雄市,山内町大字鳥海９７３１番地６,,41,206,8492302,,,,,,,2025-05-13,1,,,,,ジントク,0
2393,8300005007242,新規,0,2025-05-13,2025-05-13,医療法人しげまつ歯科口腔クリニック,,その他の設立登記法人,佐賀県,佐賀市,大和町大字尼寺３２１７番２,,41,201,8400201,,,,,,,2025-05-13,1,,,,,シゲマツシカコウクウクリニック,0
2394,8310003005016,新規,0,2025-05-13,2025-05-13,ＴＨＥ　ＦＩＳＨ合同会社,,合同会社,長崎県,長崎市,丸山町１番１号,,42,201,8500902,,,,,,,2025-05-13,1,,,,,ザフィッシュ,0
2399,8330001033165,新規,0,2025-05-13,2025-05-13,阿蘇ファームリアルエステート株式会社,,株式会社,熊本県,阿蘇市,的石字端辺７７５番地の３２,,43,214,8692237,,,,,,,2025-05-13,1,,,,,アソファームリアルエステート,0
2400,8330001033198,新規,0,2025-05-13,2025-05-13,株式会社ＢｌｏｏｍＬｉｎｋｓ,,株式会社,熊本県,熊本市南区,城南町さんさん２丁目１０番地６,,43,104,8614206,,,,,,,2025-05-13,1,,,,,ブルームリンクス,0
2401,8330003010996,新規,0,2025-05-13,2025-05-13,合同会社山内企画,,合同会社,熊本県,熊本市東区,画図東１丁目９番２６号,,43,102,8620961,,,,,,,2025-05-13,1,,,,,ヤマウチキカク,0
2402,8330003011004,新規,0,2025-05-13,2025-05-13,合同会社フォーディール,,合同会社,熊本県,天草市,天草町福連木１３－２,,43,215,8632806,,,,,,,2025-05-13,1,,,,,フォーディール,0
2405,8340001027323,新規,0,2025-05-13,2025-05-13,株式会社ワタリ不動産,,株式会社,鹿児島県,奄美市,名瀬有屋町１番地２３,,46,222,8940062,,,,,,,2025-05-13,1,,,,,ワタリフドウサン,0
2414,8360001035159,新規,0,2025-05-13,2025-05-13,株式会社ＢＯＯＫ,,株式会社,沖縄県,沖縄市,登川１丁目２２番１号,,47,211,9042142,,,,,,,2025-05-13,1,,,,,ブック,0
2415,8360001035183,新規,0,2025-05-13,2025-05-13,株式会社ＢｒｉｎｇＵｐ,,株式会社,沖縄県,宜野湾市,大山７丁目１０番４１－１００２号,,47,205,9012223,,,,,,,2025-05-13,1,,,,,ブリングアップ,0
2417,8370001052566,新規,0,2025-05-13,2025-05-13,北日本友健株式会社,,株式会社,宮城県,仙台市青葉区,愛子東３丁目１０番５０－５号,,04,101,9893127,,,,,,,2025-05-13,1,,,,,キタニホンユウケン,0
2419,8380001035314,新規,0,2025-05-13,2025-05-13,株式会社テクノ・コア,,株式会社,福島県,郡山市,御前南６丁目１４２番地,,07,203,9630209,,,,,,,2025-05-13,1,,,,,テクノコア,0
2426,8400001017037,新規,0,2025-05-13,2025-05-13,株式会社ＪＫＳ,,株式会社,岩手県,遠野市,宮守町下宮守２７地割１０５番地,,03,208,0280304,,,,,,,2025-05-13,1,,,,,ジェイケイエス,0
2436,8430001094338,新規,0,2025-05-13,2025-05-13,株式会社Ｎ電,,株式会社,北海道,札幌市清田区,里塚三条４丁目１６番２６号,,01,110,0040803,,,,,,,2025-05-13,1,,,,,エヌデン,0
2437,8430003017610,新規,0,2025-05-13,2025-05-13,合同会社Ｉｒｉｓ,,合同会社,北海道,札幌市白石区,本通１６丁目北４番８５号,,01,104,0030027,,,,,,,2025-05-13,1,,,,,アイリス,0
2438,8440001009609,新規,0,2025-05-13,2025-05-13,株式会社ＦＵＫＵ,,株式会社,北海道,函館市,本町２３番４号,,01,202,0400011,,,,,,,2025-05-13,1,,,,,フク,0
2446,9010001254924,新規,0,2025-05-13,2025-05-13,株式会社Ｅｎｓｏｐｈ,,株式会社,東京都,中央区,晴海４丁目１－１－１１０９,,13,102,1040053,,,,,,,2025-05-13,1,,,,,エンソフ,0
2451,9010005040040,新規,0,2025-05-13,2025-05-13,一般社団法人ファンドドゥ２１号,,その他の設立登記法人,東京都,千代田区,霞が関３丁目２番５号,,13,101,1000013,,,,,,,2025-05-13,1,,,,,ファンドドゥニジュウイチゴウ,0
2455,9010401190158,新規,0,2025-05-13,2025-05-13,ａｒｔｉｆｉｃｉａｌ　ｉｎｔｅｌｌｉｇｅｎｃｅ　ａｎａｌｙｓｉｓ株式会社,,株式会社,東京都,港区,白金６丁目４番１４号,,13,103,1080072,,,,,,,2025-05-13,1,,,,,アーティフィシャルインテリジェンスアナリシス,0
2459,9010503007838,新規,0,2025-05-13,2025-05-13,野上財託合同会社,,合同会社,東京都,台東区,谷中３丁目７番１９号,,13,106,1100001,,,,,,,2025-05-13,1,,,,,ノガミザイタク,0
2462,9010601067288,新規,0,2025-05-13,2025-05-13,日本テナントソリューション株式会社,,株式会社,東京都,墨田区,錦糸１丁目２番１号アルカセントラル１４Ｆ,,13,107,1300013,,,,,,,2025-05-13,1,,,,,ニホンテナントソリューション,0
2471,9010903009913,新規,0,2025-05-13,2025-05-13,合同会社ＩＮＴＥＣＨ,,合同会社,東京都,世田谷区,船橋４丁目４番１９号,,13,112,1560055,,,,,,,2025-05-13,1,,,,,インテック,0
2475,9011001169360,新規,0,2025-05-13,2025-05-13,ロングテックインベストメント株式会社,,株式会社,東京都,渋谷区,神南１丁目１１－４ＦＰＧリンクス神南５階,,13,113,1500041,,,,,,,2025-05-13,1,,,,,ロングテックインベストメント,0
2476,9011001169377,新規,0,2025-05-13,2025-05-13,株式会社Ｓｔｒａｔｉｃａ,,株式会社,東京都,渋谷区,道玄坂１丁目１６－６二葉ビル８ｂ,,13,113,1500043,,,,,,,2025-05-13,1,,,,,ストラティカ,0
2477,9011001169724,新規,0,2025-05-13,2025-05-13,株式会社ＭＩＮＹ＆ＭＯＥ,,株式会社,東京都,目黒区,自由が丘２丁目１３－２,,13,110,1520035,,,,,,,2025-05-13,1,,,,,マイニーアンドモー,0
2482,9011101111610,新規,0,2025-05-13,2025-05-13,株式会社つむぎコンシェルジュ,,株式会社,東京都,新宿区,新宿２丁目１２番１３号新宿アントレサロンビル２階,,13,104,1600022,,,,,,,2025-05-13,1,,,,,ツムギコンシェルジュ,0
2483,9011101111635,新規,0,2025-05-13,2025-05-13,健療出版株式会社,,株式会社,東京都,新宿区,西新宿３丁目３番１３号西新宿水間ビル６階,,13,104,1600023,,,,,,,2025-05-13,1,,,,,ケンリョウシュッパン,0
2484,9011103015867,新規,0,2025-05-13,2025-05-13,ＢＡＮＡＮＡＦＩＳＨ　ＴＯＫＹＯ合同会社,,合同会社,東京都,新宿区,西新宿７丁目１７番１４号,,13,104,1600023,,,,,,,2025-05-13,1,,,,,バナナフィッシュトウキョウ,0
2488,9011401027085,新規,0,2025-05-13,2025-05-13,株式会社いたばし給与計算・労務ラボ,,株式会社,東京都,板橋区,板橋２丁目６４－１３Ｇ・Ｌ・Ｏ板橋７階,,13,119,1730004,,,,,,,2025-05-13,1,,,,,イタバシキュウヨケイサンロウムラボ,0
2495,9011801046107,新規,0,2025-05-13,2025-05-13,大麦株式会社,,株式会社,東京都,足立区,宮城１丁目１６番３１号パークステージ王子宮城６０２,,13,121,1200047,,,,,,,2025-05-13,1,,,,,ダイマイ,0
2499,9012403007109,新規,0,2025-05-13,2025-05-13,合同会社Ｔ’ｓキッチン,,合同会社,東京都,武蔵野市,吉祥寺本町１丁目１１番３０号ダイアパレス吉祥寺２Ｆ,,13,203,1800004,,,,,,,2025-05-13,1,,,,,ティーズキッチン,0
2500,9012701018856,新規,0,2025-05-13,2025-05-13,ＳＡＭ株式会社,,株式会社,東京都,西東京市,西原町４丁目２番３号,,13,229,1880004,,,,,,,2025-05-13,1,,,,,エスエイエム,0
2505,9013301054234,新規,0,2025-05-13,2025-05-13,宝盈株式会社,,株式会社,東京都,豊島区,北大塚２丁目６番３－８０２号,,13,116,1700004,,,,,,,2025-05-13,1,,,,,ホウエイ,0
2506,9013301054250,新規,0,2025-05-13,2025-05-13,熙睿工業株式会社,,株式会社,東京都,豊島区,巣鴨５丁目３８－５・２０１号室,,13,116,1700002,,,,,,,2025-05-13,1,,,,,キエイコウギョウ,0
2507,9013301054259,新規,0,2025-05-13,2025-05-13,株式会社かい始,,株式会社,東京都,豊島区,東池袋２丁目６２番８号ＢＩＧオフィスプラザ池袋１２０６,,13,116,1700013,,,,,,,2025-05-13,1,,,,,カイシ,0
2508,9013303007652,新規,0,2025-05-13,2025-05-13,合同会社ＯＣＯＣ,,合同会社,東京都,豊島区,東池袋２丁目４２番１号コンテル東池袋１０１号,,13,116,1700013,,,,,,,2025-05-13,1,,,,,オーシーオーシー,0
2509,9013303007660,新規,0,2025-05-13,2025-05-13,Ａ＆Ｋ　ＴＯＫＹＯ合同会社,,合同会社,東京都,豊島区,北大塚１丁目１２番３号永和ビル３０２号室,,13,116,1700004,,,,,,,2025-05-13,1,,,,,エイアンドケイトウキョウ,0
2531,9020003028490,新規,0,2025-05-13,2025-05-13,合同会社ちいさなメダル,,合同会社,神奈川県,横浜市鶴見区,馬場１丁目２２番１９号,,14,101,2300076,,,,,,,2025-05-13,1,,,,,チイサナメダル,0
2533,9021001085210,新規,0,2025-05-13,2025-05-13,株式会社ＺＥＲＯ　ｔｏ　ＯＮＥ,,株式会社,神奈川県,厚木市,栄町１丁目１７－１６グレートコンストラクションワールド３０１,,14,212,2430017,,,,,,,2025-05-13,1,,,,,ゼロトゥワン,0
2540,9030001166309,新規,0,2025-05-13,2025-05-13,ＲＯＢＯＴ　ＢＡＳＥ株式会社,,株式会社,埼玉県,鴻巣市,天神１丁目１０番６１号,,11,217,3650036,,,,,,,2025-05-13,1,,,,,ロボットベース,0
2541,9030001166473,新規,0,2025-05-13,2025-05-13,新福興株式会社,,株式会社,埼玉県,さいたま市桜区,大字白鍬２４７番地５,,11,106,3380811,,,,,,,2025-05-13,1,,,,,シンフクコウ,0
2542,9030001166523,新規,0,2025-05-13,2025-05-13,株式会社桜,,株式会社,埼玉県,ふじみ野市,福岡中央２丁目９番３号,,11,245,3560031,,,,,,,2025-05-13,1,,,,,サクラ,0
2551,9030003026758,新規,0,2025-05-13,2025-05-13,合同会社ベーシックプロ,,合同会社,埼玉県,朝霞市,根岸台４丁目２番２３号,,11,227,3510005,,,,,,,2025-05-13,1,,,,,ベーシックプロ,0
2552,9030003026766,新規,0,2025-05-13,2025-05-13,合同会社ＴＫＲ,,合同会社,埼玉県,草加市,瀬崎６丁目９番５１－２０３号,,11,221,3400022,,,,,,,2025-05-13,1,,,,,ティーケーアール,0
2555,9040001138703,新規,0,2025-05-13,2025-05-13,株式会社グローアップ・ソリューション,,株式会社,千葉県,四街道市,和良比２５６－２０,,12,228,2840044,,,,,,,2025-05-13,1,,,,,グローアップソリューション,0
2556,9040001138736,新規,0,2025-05-13,2025-05-13,Ｉｈｓｉｎ株式会社,,株式会社,千葉県,市原市,五井２５５９番地５,,12,219,2900056,,,,,,,2025-05-13,1,,,,,イシン,0
2561,9040003027482,新規,0,2025-05-13,2025-05-13,合同会社豊浦事務所,,合同会社,千葉県,船橋市,習志野台６丁目２４番６号,,12,204,2740063,,,,,,,2025-05-13,1,,,,,トヨウラジムショ,0
2562,9040003027516,新規,0,2025-05-13,2025-05-13,ＲＫＵ合同会社,,合同会社,千葉県,船橋市,上山町２丁目３３９番地１６,,12,204,2730046,,,,,,,2025-05-13,1,,,,,アールケーユー,0
2563,9040003027532,新規,0,2025-05-13,2025-05-13,合同会社リフォームハウスＨＡＰＰＹ,,合同会社,千葉県,流山市,南流山３丁目１０－１０－３１７,,12,220,2700163,,,,,,,2025-05-13,1,,,,,,0
2564,9040003027540,新規,0,2025-05-13,2025-05-13,ＭＴＩインベストメント合同会社,,合同会社,千葉県,木更津市,千束台２丁目７－２３,,12,206,2920808,,,,,,,2025-05-13,1,,,,,エムティーアイインベストメント,0
2571,9050001056598,新規,0,2025-05-13,2025-05-13,株式会社コジビエ,,株式会社,茨城県,筑西市,松原１５０－３,,08,227,3004541,,,,,,,2025-05-13,1,,,,,コジビエ,0
2594,9100003008146,新規,0,2025-05-13,2025-05-13,合同会社ｖｅｒｄｅ,,合同会社,長野県,飯田市,下殿岡９９０番地６,,20,205,3950154,,,,,,,2025-05-13,1,,,,,ベルデ,0
2598,9110001039258,新規,0,2025-05-13,2025-05-13,角中ホールディングス株式会社,,株式会社,新潟県,新潟市中央区,鐙３丁目９番１１号,,15,103,9500913,,,,,,,2025-05-13,1,,,,,カクナカホールディングス,0
2599,9110001039266,新規,0,2025-05-13,2025-05-13,株式会社Ｒｅａｌｌｙ,,株式会社,新潟県,上越市,本町４丁目１－７ｂｉｂｉｔビル,,15,222,9430832,,,,,,,2025-05-13,1,,,,,リアリー,0
2602,9110003005753,新規,0,2025-05-13,2025-05-13,合同会社吾え門,,合同会社,新潟県,西蒲原郡弥彦村,大字大戸３５７番地１７,,15,342,9590308,,,,,,,2025-05-13,1,,,,,ゴエモン,0
2614,9120001275026,新規,0,2025-05-13,2025-05-13,三和運輸株式会社,,株式会社,大阪府,大阪市住之江区,浜口西１丁目１３－１５カトレアビル２０２,,27,125,5590006,,,,,,,2025-05-13,1,,,,,サンワウンユ,0
2615,9120001275273,新規,0,2025-05-13,2025-05-13,同盛株式会社,,株式会社,大阪府,大阪市中央区,松屋町９番２０号ローレルステート松屋町１００５Ｃ,,27,128,5420067,,,,,,,2025-05-13,1,,,,,ドウセイ,0
2616,9120001275323,新規,0,2025-05-13,2025-05-13,結心社株式会社,,株式会社,大阪府,大阪市西成区,鶴見橋１丁目１０番１４号４０２室,,27,122,5570031,,,,,,,2025-05-13,1,,,,,ケッシンシャ,0
2617,9120001275348,新規,0,2025-05-13,2025-05-13,株式会社ＲＥＮ,,株式会社,大阪府,門真市,船田町１２番２６号店舗１号室,,27,223,5710000,,,,,,,2025-05-13,1,,,,,レン,0
2618,9120001275430,新規,0,2025-05-13,2025-05-13,Ｏｎｌｙ　Ｊａｐａｎ株式会社,,株式会社,大阪府,枚方市,南船橋１丁目５－５,,27,210,5731123,,,,,,,2025-05-13,1,,,,,オンリージャパン,0
2619,9120001275521,新規,0,2025-05-13,2025-05-13,東牛商事株式会社,,株式会社,大阪府,大阪市西淀川区,姫島２丁目４番１０号パークアベニュー２階Ａ室,,27,113,5550033,,,,,,,2025-05-13,1,,,,,トウギュウショウジ,0
2620,9120001275620,新規,0,2025-05-13,2025-05-13,株式会社希望,,株式会社,大阪府,大阪市中央区,安土町２丁目４番１１－４１０２号,,27,128,5410052,,,,,,,2025-05-13,1,,,,,キボウ,0
2621,9120001275694,新規,0,2025-05-13,2025-05-13,信誠ソフト株式会社,,株式会社,大阪府,大阪市城東区,東中浜３丁目２番２３－３０７号,,27,118,5360023,,,,,,,2025-05-13,1,,,,,シンセイソフト,0
2622,9120001275876,新規,0,2025-05-13,2025-05-13,株式会社風の街,,株式会社,大阪府,大阪市鶴見区,放出東３丁目３１番２８号,,27,124,5380044,,,,,,,2025-05-13,1,,,,,カゼノマチ,0
2635,9130001079657,新規,0,2025-05-13,2025-05-13,株式会社ＰＯＮＣＨＯ,,株式会社,京都府,京都市北区,西賀茂水垣町８１－２０１,,26,101,6038827,,,,,,,2025-05-13,1,,,,,ポンチョ,0
2636,9130001079673,新規,0,2025-05-13,2025-05-13,株式会社水見,,株式会社,京都府,京都市下京区,中堂寺鍵田町１４－９,,26,106,6008805,,,,,,,2025-05-13,1,,,,,ミズミ,0
2637,9130005017365,新規,0,2025-05-13,2025-05-13,一般社団法人絆,,その他の設立登記法人,京都府,宇治市,伊勢田町新中ノ荒３３番地３,,26,204,6110043,,,,,,,2025-05-13,1,,,,,キズナ,0
2641,9140001138494,新規,0,2025-05-13,2025-05-13,株式会社Ｌｅ　Ｌｉｅｎ,,株式会社,兵庫県,神戸市中央区,元町通２丁目９番１号元町プラザ６０１－Ａ号,,28,110,6500022,,,,,,,2025-05-13,1,,,,,ルリアン,0
2645,9140003022028,新規,0,2025-05-13,2025-05-13,Ｋ＆Ｅワークス合同会社,,合同会社,兵庫県,川西市,清和台西４丁目２番地の３０,,28,217,6660143,,,,,,,2025-05-13,1,,,,,ケイアンドイーワークス,0
2649,9140005027504,新規,0,2025-05-13,2025-05-13,一般社団法人こうべ高齢者あんしんプラザ,,その他の設立登記法人,兵庫県,神戸市中央区,御幸通６丁目１番２０号,,28,110,6510087,,,,,,,2025-05-13,1,,,,,コウベコウレイシャアンシンプラザ,0
2650,9150001028117,新規,0,2025-05-13,2025-05-13,株式会社吉野食房,,株式会社,奈良県,橿原市,内膳町５丁目１－２７,,29,205,6340804,,,,,,,2025-05-13,1,,,,,ヨシノショクボウ,0
2653,9160001026755,新規,0,2025-05-13,2025-05-13,株式会社Ｃｏｍｐａｌｙｚｅ,,株式会社,滋賀県,草津市,西大路町２番２号草津－ＢＡＳＥ－９,,25,206,5250037,,,,,,,2025-05-13,1,,,,,カンパライズ,0
2662,9180001166673,新規,0,2025-05-13,2025-05-13,ツカサホールディングス株式会社,,株式会社,愛知県,半田市,中午町１７８番地,,23,205,4750037,,,,,,,2025-05-13,1,,,,,ツカサホールディングス,0
2668,9180003028418,新規,0,2025-05-13,2025-05-13,云舍合同会社,,合同会社,愛知県,名古屋市東区,新出来２丁目１番１３号ＭＯＮＯＬＩＴＨ６０６号,,23,102,4610038,,,,,,,2025-05-13,1,,,,,ウンシャ,0
2672,9190003005028,新規,0,2025-05-13,2025-05-13,合同会社Ｐｕｂｌｉｃ　Ｈｏｕｓｅ　ｕｌｕ,,合同会社,三重県,名張市,蔵持町原出１２９３番地,,24,208,5180752,,,,,,,2025-05-13,1,,,,,パブリックハウスウル,0
2685,9240003007191,新規,0,2025-05-13,2025-05-13,合同会社山本工業,,合同会社,広島県,福山市,青葉台４丁目１５番２号,,34,207,7210911,,,,,,,2025-05-13,1,,,,,ヤマモトコウギョウ,0
2688,9260001040184,新規,0,2025-05-13,2025-05-13,株式会社ふるいち農園,,株式会社,岡山県,岡山市東区,政津１３２９番地３,,33,103,7048165,,,,,,,2025-05-13,1,,,,,フルイチノウエン,0
2695,9290003016790,新規,0,2025-05-13,2025-05-13,グリュック合同会社,,合同会社,福岡県,福岡市博多区,博多駅前１丁目２３番１号ＰａｒｋＦｒｏｎｔ博多駅前一丁目５Ｆ－Ｂ,,40,132,8120011,,,,,,,2025-05-13,1,,,,,グリュック,0
2696,9290003016799,新規,0,2025-05-13,2025-05-13,エコクリーン合同会社,,合同会社,福岡県,福岡市早良区,高取１丁目５番２０－２０２号ＫＯＵＤＡＩ高取,,40,137,8140011,,,,,,,2025-05-13,1,,,,,エコクリーン,0
2700,9290803005051,新規,0,2025-05-13,2025-05-13,Ｐｉｋｋｕ合同会社,,合同会社,福岡県,遠賀郡水巻町,樋口東４番２号,00139127,40,382,8070004,,,,,,,2025-05-13,1,,,,,ピック,0
2702,9310001019603,新規,0,2025-05-13,2025-05-13,株式会社アセットジョイ,,株式会社,長崎県,長崎市,魚の町７番１３－３０２号,,42,201,8500874,,,,,,,2025-05-13,1,,,,,アセットジョイ,0
2715,9340003004831,新規,0,2025-05-13,2025-05-13,合同会社Ｋｕｂｅｒａ,,合同会社,鹿児島県,鹿屋市,野里町３８３１番地,,46,203,8930055,,,,,,,2025-05-13,1,,,,,クベーラ,0
2720,9360001035158,新規,0,2025-05-13,2025-05-13,株式会社日建パートナーズ,,株式会社,沖縄県,那覇市,首里山川町１丁目６８番地ファイブテラス１階,,47,201,9030825,,,,,,,2025-05-13,1,,,,,ニッケンパートナーズ,0
2721,9360001035174,新規,0,2025-05-13,2025-05-13,株式会社マイネオ,,株式会社,沖縄県,中頭郡北谷町,字浜川２４５番地２Ｆ,,47,326,9040112,,,,,,,2025-05-13,1,,,,,マイネオ,0
2722,9360001035182,新規,0,2025-05-13,2025-05-13,エンバイロアナライザー株式会社,,株式会社,沖縄県,沖縄市,美里６丁目２５－１６カーサスペリオルＩＩＩ２Ｆ,00139121,47,211,9042153,,,,,,,2025-05-13,1,,,,,エンバイロアナライザー,0
2723,9360001035199,新規,0,2025-05-13,2025-05-13,ＬｉｎｋＮｅｓｓ株式会社,,株式会社,沖縄県,島尻郡与那原町,字与那原８番地の２ネクスコート屋比久２０２号室,,47,348,9011303,,,,,,,2025-05-13,1,,,,,リンクネス,0
2724,9360003014911,新規,0,2025-05-13,2025-05-13,合同会社フォルトナ,,合同会社,沖縄県,宜野湾市,真志喜１丁目１２番２２号,,47,205,9012224,,,,,,,2025-05-13,1,,,,,フォルトナ,0
2725,9360003014928,新規,0,2025-05-13,2025-05-13,合同会社ぱぱや,,合同会社,沖縄県,石垣市,字桴海４９１番地１,,47,207,9070451,,,,,,,2025-05-13,1,,,,,パパヤ,0
2729,9370001052557,新規,0,2025-05-13,2025-05-13,株式会社三太郎,,株式会社,宮城県,仙台市青葉区,立町１番２０号,,04,101,9800822,,,,,,,2025-05-13,1,,,,,サンタロウ,0
2735,9380005012969,新規,0,2025-05-13,2025-05-13,一般社団法人ｍａｓｈｉｃａ　ｃｒｅａｔｅ,,その他の設立登記法人,福島県,白河市,本町２番地マイタウン白河２階,,07,205,9610905,,,,,,,2025-05-13,1,,,,,マシカクリエイト,0
2746,9470001020702,新規,0,2025-05-13,2025-05-13,株式会社Ｇｒａｎｄ　Ｌｕｘｅ,,株式会社,香川県,高松市,太田下町２２８１番地３,,37,201,7618073,,,,,,,2025-05-13,1,,,,,グランリュクセ,0
2747,9470005006623,新規,0,2025-05-13,2025-05-13,一般社団法人華樹会,,その他の設立登記法人,香川県,高松市,郷東町１６番地１労住協１５ビル６０７,,37,201,7618031,,,,,,,2025-05-13,1,,,,,ハナジュカイ,0
2749,9480001012830,新規,0,2025-05-13,2025-05-13,株式会社南風,,株式会社,徳島県,吉野川市,川島町川島２７３番地,,36,205,7793301,,,,,,,2025-05-13,1,,,,,ナンプウ,0
2751,9500003003503,新規,0,2025-05-13,2025-05-13,アレグリア合同会社,,合同会社,愛媛県,松山市,石手１丁目４番４号まほろば１０２号,,38,201,7900852,,,,,,,2025-05-13,1,,,,,アレグリア,0
2754,9700150130419,新規,0,2025-05-13,2025-05-13,神明下土地改良区,,その他,福井県,吉田郡永平寺町,鳴鹿山鹿１２－１６,,18,322,9101201,,,,,,,2025-05-13,1,,,,,シンメイシタトチカイリヨウク,0
