sequenceNumber,corporateNumber,process,correct,updateDate,changeDate,name,nameImageId,kind,prefectureName,cityName,streetNumber,addressImageId,prefectureCode,cityCode,postCode,addressOutside,addressOutsideImageId,closeDate,closeCause,successorCorporateNumber,changeCause,assignmentDate,latest,enName,enPrefectureName,enCityName,enAddressOutside,furigana,hihyoji
14,1010001222970,新規,0,2021-12-03,2021-12-03,株式会社Ｔｅａｌ＆Ｏｒａｎｇｅ,,株式会社,東京都,千代田区,九段南１丁目５番６号りそな九段ビル５Ｆ・ＫＳフロア,,13,101,1020074,,,,,,,2021-12-03,1,,,,,ティールアンドオレンジ,0
15,1010003036460,新規,0,2021-12-03,2021-12-03,Ｓａｐｐｏｒｏ　Ｈｏｔｅｌ　Ｍａｎａｇｅｍｅｎｔ合同会社,,合同会社,東京都,千代田区,九段北４丁目１番９号市ヶ谷ＭＳビル６階,,13,101,1020073,,,,,,,2021-12-03,1,,,,,サッポロホテルマネジメント,0
16,1010005034280,新規,0,2021-12-03,2021-12-03,一般社団法人ＲＦ５,,その他の設立登記法人,東京都,千代田区,内幸町２丁目１番６号,,13,101,1000011,,,,,,,2021-12-03,1,,,,,アールエフファイブ,0
17,1010005034289,新規,0,2021-12-03,2021-12-03,一般社団法人Ｃｏｎｎｅｃｔ－ＣＭＳユーザ会,,その他の設立登記法人,東京都,中央区,晴海３丁目１３番１－４８０７号,,13,102,1040053,,,,,,,2021-12-03,1,,,,,コネクトシーエムエスユーザカイ,0
27,1010401164177,新規,0,2021-12-03,2021-12-03,株式会社ＤＴアセット,,株式会社,東京都,港区,白金３丁目１５番１５号,,13,103,1080072,,,,,,,2021-12-03,1,,,,,ディティーアセット,0
28,1010401164185,新規,0,2021-12-03,2021-12-03,株式会社Ｌｏｃｕｓ　Ｔｏｋｙｏ,,株式会社,東京都,港区,赤坂６丁目１０番３９号,,13,103,1070052,,,,,,,2021-12-03,1,,,,,ローカストウキョウ,0
29,1010401164219,新規,0,2021-12-03,2021-12-03,ピー・ホールディングス株式会社,,株式会社,東京都,港区,港南２丁目１８番１号,,13,103,1080075,,,,,,,2021-12-03,1,,,,,ピーホールディングス,0
32,1010405020459,新規,0,2021-12-03,2021-12-03,一般社団法人ブライダル音楽申請システム,,その他の設立登記法人,東京都,港区,浜松町１丁目１８番地１３高桑ビル３階,,13,103,1050013,,,,,,,2021-12-03,1,,,,,ブライダルオンガクシンセイシステム,0
34,1010501048107,新規,0,2021-12-03,2021-12-03,グリーントータル株式会社,,株式会社,東京都,台東区,西浅草３丁目２番４号,,13,106,1110035,,,,,,,2021-12-03,1,,,,,グリーントータル,0
35,1010503006442,新規,0,2021-12-03,2021-12-03,合同会社スマイルジャパン,,合同会社,東京都,台東区,蔵前３丁目１番１１号,,13,106,1110051,,,,,,,2021-12-03,1,,,,,スマイルジャパン,0
37,1010603009287,新規,0,2021-12-03,2021-12-03,合同会社デルタ,,合同会社,東京都,江東区,猿江２丁目１番４,,13,108,1350003,,,,,,,2021-12-03,1,,,,,デルタ,0
55,1011001144313,新規,0,2021-12-03,2021-12-03,株式会社ＦｏｒＮ,,株式会社,東京都,渋谷区,渋谷３丁目６－２,,13,113,1500002,,,,,,,2021-12-03,1,,,,,フォーン,0
56,1011001144354,新規,0,2021-12-03,2021-12-03,株式会社資格スクエア,,株式会社,東京都,渋谷区,神宮前６丁目２７番８号,,13,113,1500001,,,,,,,2021-12-03,1,,,,,シカクスクエア,0
63,1011105010064,新規,0,2021-12-03,2021-12-03,中嶋社会保険労務士法人,,その他の設立登記法人,東京都,新宿区,高田馬場３丁目５番６号月の雫ビル４階,,13,104,1690075,,,,,,,2021-12-03,1,,,,,ナカジマ,0
64,1011201023457,新規,0,2021-12-03,2021-12-03,ピジョンメディ株式会社,,株式会社,東京都,中野区,中野５丁目３２番４－４０２号,,13,114,1640001,,,,,,,2021-12-03,1,,,,,ピジョンメディ,0
72,1011401023884,新規,0,2021-12-03,2021-12-03,レイス株式会社,,株式会社,東京都,板橋区,赤塚３丁目３９番２号モリヤパレス１・１０２,,13,119,1750092,,,,,,,2021-12-03,1,,,,,レイス,0
85,1012401038600,新規,0,2021-12-03,2021-12-03,株式会社蘇月,,株式会社,東京都,狛江市,中和泉５丁目３２番３号,,13,219,2010012,,,,,,,2021-12-03,1,,,,,ソゲツ,0
86,1012401038609,新規,0,2021-12-03,2021-12-03,ユナイトネットワークス株式会社,,株式会社,東京都,多摩市,永山３丁目１８番地の４－４１２,,13,224,2060025,,,,,,,2021-12-03,1,,,,,ユナイトネットワークス,0
87,1012403005144,新規,0,2021-12-03,2021-12-03,合同会社野林法務会計事務所,,合同会社,東京都,武蔵野市,中町１丁目２２番７号,,13,203,1800006,,,,,,,2021-12-03,1,,,,,ノバヤシホウムカイケイジムショ,0
102,1020001144149,新規,0,2021-12-03,2021-12-03,株式会社ウェーブフィールド,,株式会社,神奈川県,横浜市港北区,日吉２丁目１８番３３－５号１０１,,14,109,2230061,,,,,,,2021-12-03,1,,,,,ウェーブフィールド,0
103,1020001144198,新規,0,2021-12-03,2021-12-03,Ｊｕｒｏ　Ｓｃｉｅｎｃｅｓ株式会社,,株式会社,神奈川県,横浜市中区,山下町２４番地８,,14,104,2310023,,,,,,,2021-12-03,1,,,,,ジュロサイエンシズ,0
110,1021001074633,新規,0,2021-12-03,2021-12-03,株式会社ピーススポーツ,,株式会社,神奈川県,高座郡寒川町,倉見１１１７番地,,14,321,2530101,,,,,,,2021-12-03,1,,,,,ピーススポーツ,0
111,1021001074641,新規,0,2021-12-03,2021-12-03,Ａｉｒ　ＶＩＳＩＯＮ株式会社,,株式会社,神奈川県,横須賀市,長沢６丁目３１,,14,201,2390842,,,,,,,2021-12-03,1,,,,,エアビジョン,0
112,1021001074666,新規,0,2021-12-03,2021-12-03,株式会社軽’ｓネット,,株式会社,神奈川県,綾瀬市,落合南２丁目２４番１３号,,14,218,2521115,,,,,,,2021-12-03,1,,,,,ケイズネット,0
113,1021001074674,新規,0,2021-12-03,2021-12-03,エムアンドイーピー株式会社,,株式会社,神奈川県,横須賀市,深田台２番地６８,,14,201,2380016,,,,,,,2021-12-03,1,,,,,エムアンドイーピー,0
114,1021001074682,新規,0,2021-12-03,2021-12-03,株式会社ＫＡＮＯＥ,,株式会社,神奈川県,三浦郡葉山町,堀内１７３５番地の５４,,14,301,2400112,,,,,,,2021-12-03,1,,,,,カノエ,0
115,1021001074690,新規,0,2021-12-03,2021-12-03,株式会社沖塗装,,株式会社,神奈川県,茅ヶ崎市,高田３丁目１６番２４号,,14,207,2530002,,,,,,,2021-12-03,1,,,,,オキトソウ,0
116,1021003011147,新規,0,2021-12-03,2021-12-03,Ｍｒ＆Ｍｓ　Ｍｉｋａｍｉ合同会社,,合同会社,神奈川県,大和市,中央２丁目７番地２１号,,14,213,2420021,,,,,,,2021-12-03,1,,,,,ミスターアンドミズミカミ,0
117,1021003011155,新規,0,2021-12-03,2021-12-03,合同会社片倉商事,,合同会社,神奈川県,平塚市,諏訪町１番３０号,,14,203,2540063,,,,,,,2021-12-03,1,,,,,,0
122,1030001145641,新規,0,2021-12-03,2021-12-03,鋳研工業株式会社,,株式会社,埼玉県,春日部市,武里中野７７１番地６,,11,214,3440026,,,,,,,2021-12-03,1,,,,,チュウケンコウギョウ,0
123,1030001145674,新規,0,2021-12-03,2021-12-03,Ｇｒｏｗ株式会社,,株式会社,埼玉県,さいたま市南区,沼影１丁目６－１９霜田ビル３階,,11,108,3360027,,,,,,,2021-12-03,1,,,,,グロウ,0
130,1030003018432,新規,0,2021-12-03,2021-12-03,合同会社花月庵,,合同会社,埼玉県,さいたま市中央区,円阿弥５丁目９番１１号,,11,105,3380007,,,,,,,2021-12-03,1,,,,,カゲツアン,0
140,1040001121220,新規,0,2021-12-03,2021-12-03,株式会社王道家直伝,,株式会社,千葉県,松戸市,小金きよしケ丘４丁目３番地１１,,12,207,2700013,,,,,,,2021-12-03,1,,,,,オウドウヤジキデン,0
141,1040001121237,新規,0,2021-12-03,2021-12-03,株式会社ＳＵＰＰＯＲＴＰＲＯ,,株式会社,千葉県,市原市,五井東２丁目１５番地５,,12,219,2900055,,,,,,,2021-12-03,1,,,,,サポートプロ,0
142,1040001121253,新規,0,2021-12-03,2021-12-03,株式会社ＳＦＩＤＡ,,株式会社,千葉県,船橋市,飯山満町３丁目１３５１－５１,,12,204,2740822,,,,,,,2021-12-03,1,,,,,スフィーダ,0
143,1040001121261,新規,0,2021-12-03,2021-12-03,株式会社落合ｊｏｅグループ,,株式会社,千葉県,鎌ケ谷市,中佐津間２丁目７番１４号,,12,224,2730135,,,,,,,2021-12-03,1,,,,,オチアイジョーグループ,0
152,1050001050261,新規,0,2021-12-03,2021-12-03,栄炭ＪＡＰＡＮ株式会社,,株式会社,茨城県,常総市,大塚戸町４０－４,,08,211,3030045,,,,,,,2021-12-03,1,,,,,エイタンジャパン,0
153,1050003006229,新規,0,2021-12-03,2021-12-03,アシカエンジ合同会社,,合同会社,茨城県,神栖市,大野原１丁目５番１号幸武ビル１０９、２－１室,,08,232,3140144,,,,,,,2021-12-03,1,,,,,アシカエンジ,0
154,1050003006237,新規,0,2021-12-03,2021-12-03,合同会社アポロ,,合同会社,茨城県,つくば市,古来６２８番地２,,08,220,3050021,,,,,,,2021-12-03,1,,,,,アポロ,0
157,1060001034338,新規,0,2021-12-03,2021-12-03,株式会社ミハラオート,,株式会社,栃木県,大田原市,美原２丁目３３１４番地１６,,09,210,3240047,,,,,,,2021-12-03,1,,,,,ミハラオート,0
163,1080101022950,新規,0,2021-12-03,2021-12-03,十国峠株式会社,,株式会社,静岡県,田方郡函南町,桑原１４００番地の２０,,22,325,4190101,,,,,,,2021-12-03,1,,,,,ジュッコクトウゲ,0
167,1090001017307,新規,0,2021-12-03,2021-12-03,株式会社東雲サービス,,株式会社,山梨県,山梨市,上神内川１７２番地,,19,205,4050018,,,,,,,2021-12-03,1,,,,,シノノメサービス,0
168,1100001034861,新規,0,2021-12-03,2021-12-03,株式会社はらさわ,,株式会社,長野県,松本市,大字島立３２３９番地,,20,202,3900852,,,,,,,2021-12-03,1,,,,,ハラサワ,0
169,1100003006306,新規,0,2021-12-03,2021-12-03,合同会社ＢＡＳＥ　ＰＬＡＮ,,合同会社,長野県,長野市,大字高田２２４８番地３,,20,201,3810034,,,,,,,2021-12-03,1,,,,,ベイスプラン,0
170,1110001036238,新規,0,2021-12-03,2021-12-03,株式会社ＣＬＥＡＳＳ,,株式会社,新潟県,新潟市東区,東明３丁目１０番地１－２０５,,15,102,9500853,,,,,,,2021-12-03,1,,,,,クリアス,0
183,1120001242058,新規,0,2021-12-03,2021-12-03,株式会社壱松エンターテインメント,,株式会社,大阪府,枚方市,山之上西町１番７号,,27,210,5730048,,,,,,,2021-12-03,1,,,,,イチマツエンターテインメント,0
184,1120001242198,新規,0,2021-12-03,2021-12-03,株式会社リガレーヴ,,株式会社,大阪府,大阪市中央区,玉造１丁目６番１３号玉造ロイヤル和光ビル３Ａ,,27,128,5400004,,,,,,,2021-12-03,1,,,,,リガレーヴ,0
185,1120001242231,新規,0,2021-12-03,2021-12-03,ＰＬＥＩＡ　ＤＥ　ＳＰＩＣＡ株式会社,,株式会社,大阪府,大阪市淀川区,東三国５丁目７番７号Ｂ４０１号,,27,123,5320002,,,,,,,2021-12-03,1,,,,,プレアデスピカ,0
186,1120001242248,新規,0,2021-12-03,2021-12-03,株式会社ＡＭＰ,,株式会社,大阪府,大阪市西成区,南津守４丁目４番２７号マルテックビル,,27,122,5570063,,,,,,,2021-12-03,1,,,,,エーエムピー,0
187,1120001242256,新規,0,2021-12-03,2021-12-03,シンオオサカ株式会社,,株式会社,大阪府,大阪市天王寺区,勝山３丁目９番２５号,,27,109,5430043,,,,,,,2021-12-03,1,,,,,シンオオサカ,0
188,1120001242264,新規,0,2021-12-03,2021-12-03,株式会社リンクック,,株式会社,大阪府,大阪市中央区,博労町４丁目３番２号ＫＵＳビル８Ｆ,,27,128,5410059,,,,,,,2021-12-03,1,,,,,リンクック,0
189,1120001242272,新規,0,2021-12-03,2021-12-03,恒信株式会社,,株式会社,大阪府,大阪市西成区,千本北１丁目１１番７号,,27,122,5570053,,,,,,,2021-12-03,1,,,,,コウシン,0
192,1120003020692,新規,0,2021-12-03,2021-12-03,合同会社Ｋ’ｓ　ｗｏｒｋｓ,,合同会社,大阪府,大阪市中央区,南久宝寺町４丁目６番６－４０５号,,27,128,5410058,,,,,,,2021-12-03,1,,,,,ケーズワークス,0
193,1120005022638,新規,0,2021-12-03,2021-12-03,一般社団法人いわはら数秘術協会,,その他の設立登記法人,大阪府,大阪市北区,梅田２丁目５番１３号桜橋第一ビル３０４号,,27,127,5300001,,,,,,,2021-12-03,1,,,,,イワハラスウヒジュツキョウカイ,0
194,1120101064724,新規,0,2021-12-03,2021-12-03,株式会社ｄｏｇ,,株式会社,大阪府,堺市堺区,砂道町２丁３番２２号２Ｆ,,27,141,5900002,,,,,,,2021-12-03,1,,,,,ドッグ,0
201,1140001124007,新規,0,2021-12-03,2021-12-03,株式会社ピットＫ,,株式会社,兵庫県,神戸市北区,藤原台北町５丁目３番１０－２０８号,,28,109,6511301,,,,,,,2021-12-03,1,,,,,,0
202,1140001124048,新規,0,2021-12-03,2021-12-03,株式会社ヤマト総合産業,,株式会社,兵庫県,明石市,魚住町錦が丘３丁目４番地の３７,,28,203,6740081,,,,,,,2021-12-03,1,,,,,ヤマトソウゴウサンギョウ,0
203,1140001124056,新規,0,2021-12-03,2021-12-03,株式会社ＷＥＢＯ,,株式会社,兵庫県,神戸市中央区,下山手通４丁目７番１７号,,28,110,6500011,,,,,,,2021-12-03,1,,,,,ウェボ,0
204,1140001124072,新規,0,2021-12-03,2021-12-03,猫の手本舗株式会社,,株式会社,兵庫県,宝塚市,中州２丁目７番２３号,,28,214,6650021,,,,,,,2021-12-03,1,,,,,ネコノテホンポ,0
205,1140001124080,新規,0,2021-12-03,2021-12-03,株式会社Ｈ．Ａ．Ｂ．,,株式会社,兵庫県,丹波市,春日町野村２５４３番地２,,28,223,6694132,,,,,,,2021-12-03,1,,,,,エイッチエービー,0
206,1140001124089,新規,0,2021-12-03,2021-12-03,株式会社ファミリー新開地,,株式会社,兵庫県,神戸市兵庫区,新開地３丁目３番１７－１０１号,,28,105,6520811,,,,,,,2021-12-03,1,,,,,ファミリーシンカイチ,0
212,1160001023842,新規,0,2021-12-03,2021-12-03,株式会社アディションプラス,,株式会社,滋賀県,大津市,下阪本５丁目５番２号,,25,201,5200105,,,,,,,2021-12-03,1,,,,,アディションプラス,0
213,1160001023850,新規,0,2021-12-03,2021-12-03,大寧プルーフ株式会社,,株式会社,滋賀県,草津市,東草津４丁目４番４号,,25,206,5250033,,,,,,,2021-12-03,1,,,,,ダイネイプルーフ,0
214,1170001016878,新規,0,2021-12-03,2021-12-03,株式会社ヨツワ再生資源,,株式会社,和歌山県,紀の川市,西脇１４８－１,,30,208,6496616,,,,,,,2021-12-03,1,,,,,ヨツワサイセイシゲン,0
215,1170001016886,新規,0,2021-12-03,2021-12-03,株式会社マウンテンビュー,,株式会社,和歌山県,東牟婁郡那智勝浦町,大字田垣内２０９２番地,,30,421,6495462,,,,,,,2021-12-03,1,,,,,マウンテンビュー,0
226,1180001148968,新規,0,2021-12-03,2021-12-03,株式会社ＳＰＡＣＥ,,株式会社,愛知県,春日井市,神屋町２２９８－１５５,,23,206,4800304,,,,,,,2021-12-03,1,,,,,スペース,0
227,1180001148976,新規,0,2021-12-03,2021-12-03,株式会社アトロス,,株式会社,愛知県,名古屋市中村区,名駅南５丁目９番３号第十五和興ビル１Ｆ,,23,105,4500003,,,,,,,2021-12-03,1,,,,,アトロス,0
228,1180001148984,新規,0,2021-12-03,2021-12-03,株式会社山真,,株式会社,愛知県,東海市,荒尾町西川５１番地１３,,23,222,4760003,,,,,,,2021-12-03,1,,,,,ヤマシン,0
234,1180301035684,新規,0,2021-12-03,2021-12-03,株式会社ノンアス,,株式会社,愛知県,刈谷市,小垣江町須賀１５３番地１,,23,210,4480813,,,,,,,2021-12-03,1,,,,,ノンアス,0
235,1180301035692,新規,0,2021-12-03,2021-12-03,株式会社Ｗｏｎｄｅｒ　Ｆｕｔｕｒｅ,,株式会社,愛知県,岡崎市,明大寺町字西郷中２０番地９,,23,202,4440867,,,,,,,2021-12-03,1,,,,,ワンダーフューチャー,0
237,1190001028896,新規,0,2021-12-03,2021-12-03,株式会社ＦＵＪＩＤＥＮ,,株式会社,三重県,伊勢市,小俣町元町１２４４番地,,24,203,5190503,,,,,,,2021-12-03,1,,,,,フジデン,0
241,1200001039479,新規,0,2021-12-03,2021-12-03,株式会社千葉電気,,株式会社,岐阜県,岐阜市,柳津町高桑１丁目１３７番地２,,21,201,5016122,,,,,,,2021-12-03,1,,,,,チバデンキ,0
246,1210003001428,新規,0,2021-12-03,2021-12-03,Ｒａｋｕｓａ合同会社,,合同会社,福井県,越前市,真柄町第２５号６８番地,,18,209,9150005,,,,,,,2021-12-03,1,,,,,ラクサ,0
251,1240001058995,新規,0,2021-12-03,2021-12-03,株式会社Ｄ＆Ｍ,,株式会社,広島県,尾道市,高須町１９２３番地６,,34,205,7290141,,,,,,,2021-12-03,1,,,,,ディーアンドエム,0
252,1240001059003,新規,0,2021-12-03,2021-12-03,株式会社ＵＴ‐Ｇ,,株式会社,広島県,広島市西区,大宮１丁目１番３３号,,34,104,7330007,,,,,,,2021-12-03,1,,,,,ユーティージー,0
253,1240001059011,新規,0,2021-12-03,2021-12-03,株式会社オーサム,,株式会社,広島県,広島市南区,宇品西６丁目４番１０号,,34,103,7340014,,,,,,,2021-12-03,1,,,,,オーサム,0
256,1250001019278,新規,0,2021-12-03,2021-12-03,株式会社ＮＫホールディングス,,株式会社,山口県,岩国市,麻里布町４丁目３番２３号,,35,208,7400018,,,,,,,2021-12-03,1,,,,,エヌケイホールディングス,0
262,1260001036256,新規,0,2021-12-03,2021-12-03,株式会社ＲＩＳＶＥＧＬＩＯ,,株式会社,岡山県,倉敷市,玉島乙島８２３０番地４２,,33,202,7138103,,,,,,,2021-12-03,1,,,,,リズヴェリオ,0
264,1280001008575,新規,0,2021-12-03,2021-12-03,株式会社和田建築,,株式会社,島根県,邑智郡邑南町,三日市３８２番地２,,32,449,6960311,,,,,,,2021-12-03,1,,,,,ワダケンチク,0
268,1290001095638,新規,0,2021-12-03,2021-12-03,辻デザイン株式会社,00125019,株式会社,福岡県,福岡市博多区,豊１丁目５番２６－１号,,40,132,8120042,,,,,,,2021-12-03,1,,,,,ツジデザイン,0
269,1290001095646,新規,0,2021-12-03,2021-12-03,株式会社ＷＧ,,株式会社,福岡県,筑紫野市,岡田１丁目１５番地１１,,40,217,8180013,,,,,,,2021-12-03,1,,,,,ダブルジー,0
271,1290003011898,新規,0,2021-12-03,2021-12-03,合同会社田中水産,,合同会社,福岡県,糸島市,二丈吉井３８１５番地９,,40,230,8191641,,,,,,,2021-12-03,1,,,,,タナカスイサン,0
276,1300001012731,新規,0,2021-12-03,2021-12-03,株式会社中裕商店,,株式会社,佐賀県,鳥栖市,本町１丁目９１３番地２エバーライフ鳥栖１１０４,,41,203,8410037,,,,,,,2021-12-03,1,,,,,ナカヒロショウテン,0
280,1320003003669,新規,0,2021-12-03,2021-12-03,合同会社ＨＹ企画,,合同会社,大分県,大分市,大道町２丁目８番２７号,,44,201,8700822,,,,,,,2021-12-03,1,,,,,エイチワイキカク,0
287,1330001029236,新規,0,2021-12-03,2021-12-03,めぐみ工業株式会社,,株式会社,熊本県,下益城郡美里町,遠野１７１番地１,,43,348,8614702,,,,,,,2021-12-03,1,,,,,メグミコウギョウ,0
289,1340001024310,新規,0,2021-12-03,2021-12-03,株式会社イデックスバイエルンモータース,,株式会社,鹿児島県,鹿児島市,東郡元町１２番４６号,,46,201,8900068,,,,,,,2021-12-03,1,,,,,イデックスバイエルンモータース,0
293,1350001017445,新規,0,2021-12-03,2021-12-03,株式会社東ファーム,,株式会社,宮崎県,都城市,高城町有水１９５５番地１６４,,45,202,8851311,,,,,,,2021-12-03,1,,,,,ヒガシファーム,0
305,1380005012506,新規,0,2021-12-03,2021-12-03,ＮＰＯ法人ａｃｔｙ,,その他の設立登記法人,福島県,福島市,丸子字沢目２８番地の９,,07,201,9600111,,,,,,,2021-12-03,1,,,,,アクティ,0
307,1400001015699,新規,0,2021-12-03,2021-12-03,株式会社ＭＧファーム,,株式会社,岩手県,九戸郡洋野町,中野第１地割１０２番地３,,03,507,0287906,,,,,,,2021-12-03,1,,,,,エムジーファーム,0
311,1400003002869,新規,0,2021-12-03,2021-12-03,照らす宣伝合同会社,,合同会社,岩手県,奥州市,水沢真城字幅下１９－３,,03,215,0230841,,,,,,,2021-12-03,1,,,,,テラスセンデン,0
321,1430001085475,新規,0,2021-12-03,2021-12-03,株式会社Ｃｅｅｄｓ,,株式会社,北海道,札幌市南区,澄川二条３丁目４－７－２０１,,01,106,0050002,,,,,,,2021-12-03,1,,,,,シーズ,0
322,1430001085500,新規,0,2021-12-03,2021-12-03,株式会社Ｍｉｙａｂｉエステート,,株式会社,北海道,苫小牧市,小糸井町１丁目７番１９号,,01,213,0530813,,,,,,,2021-12-03,1,,,,,ミヤビエステート,0
323,1430001085509,新規,0,2021-12-03,2021-12-03,株式会社Ｌａｕｌｅ’ａ,,株式会社,北海道,石狩市,花川北一条１丁目２番地４６,,01,235,0613211,,,,,,,2021-12-03,1,,,,,ラウレア,0
327,1450001013541,新規,0,2021-12-03,2021-12-03,株式会社リバーシブル,,株式会社,北海道,旭川市,一条通１９丁目９１７番地,,01,204,0788211,,,,,,,2021-12-03,1,,,,,リバーシブル,0
332,1462501000919,新規,0,2021-12-03,2021-12-03,株式会社ＩＭＡＩ　ＦＡＲＭ,,株式会社,北海道,野付郡別海町,中西別２３３番地９５,,01,691,0860345,,,,,,,2021-12-03,1,,,,,イマイファーム,0
336,1480001011567,新規,0,2021-12-03,2021-12-03,アドバンストシステム株式会社,,株式会社,徳島県,鳴門市,里浦町里浦字花面５１０番地１,,36,202,7720021,,,,,,,2021-12-03,1,,,,,アドバンストシステム,0
339,1480003001764,新規,0,2021-12-03,2021-12-03,合同会社ナガオカ,,合同会社,徳島県,徳島市,川内町加賀須野１０６０番地,,36,201,7710130,,,,,,,2021-12-03,1,,,,,ナガオカ,0
353,1700150105816,新規,0,2021-12-03,2021-11-16,歌友会,,その他,東京都,江東区,大島８丁目３番８号,,13,108,1360072,,,,,,,2021-11-16,1,,,,,カユウカイ,0
361,2010001222904,新規,0,2021-12-03,2021-12-03,株式会社ＳＵＰＥＲＮＯＶＡ,,株式会社,東京都,千代田区,神田練塀町３００番２階,,13,101,1010022,,,,,,,2021-12-03,1,,,,,スーパーノヴァ,0
362,2010001222937,新規,0,2021-12-03,2021-12-03,株式会社ＴＡＭ台湾,,株式会社,東京都,千代田区,神田小川町３丁目２８番地９三東ビル２Ｆ,,13,101,1010052,,,,,,,2021-12-03,1,,,,,タムタイワン,0
363,2010001222945,新規,0,2021-12-03,2021-12-03,Ｍ＆Ａロイヤルアドバイザリー株式会社,,株式会社,東京都,千代田区,丸の内１丁目８－３丸の内トラストタワー本館２０階,,13,101,1000005,,,,,,,2021-12-03,1,,,,,エムアンドエーロイヤルアドバイザリー,0
364,2010001223019,新規,0,2021-12-03,2021-12-03,株式会社ミギウデ,,株式会社,東京都,中央区,銀座６丁目２番１号Ｄａｉｗａ銀座ビル８Ｆ,,13,102,1040061,,,,,,,2021-12-03,1,,,,,,0
365,2010003036435,新規,0,2021-12-03,2021-12-03,ＲＢソーラーシリウス合同会社,,合同会社,東京都,中央区,八丁堀４丁目２番１０号ＡＯＪ税理士法人内,,13,102,1040032,,,,,,,2021-12-03,1,,,,,アールビーソーラーシリウス,0
366,2010003036451,新規,0,2021-12-03,2021-12-03,合同会社ＲＦ５,,合同会社,東京都,千代田区,内幸町２丁目１番６号,,13,101,1000011,,,,,,,2021-12-03,1,,,,,アールエフファイブ,0
375,2010401164168,新規,0,2021-12-03,2021-12-03,ＬＳ－Ａｖｉａｔｉｏｎ第４２号株式会社,,株式会社,東京都,港区,六本木１丁目６番１号,,13,103,1060032,,,,,,,2021-12-03,1,,,,,エルエスアビエーションダイヨンジュウニゴウ,0
376,2010401164176,新規,0,2021-12-03,2021-12-03,株式会社ブレインズラボ,,株式会社,東京都,港区,南青山２丁目２－１５ウィン青山ビル,,13,103,1070062,,,,,,,2021-12-03,1,,,,,ブレインズラボ,0
378,2010601060316,新規,0,2021-12-03,2021-12-03,株式会社ＰＵＧｓ,,株式会社,東京都,墨田区,太平４丁目１番１－６１１号,,13,107,1300012,,,,,,,2021-12-03,1,,,,,パグズ,0
381,2010701041868,新規,0,2021-12-03,2021-12-03,株式会社ＫＲｏｎｅＺ,,株式会社,東京都,品川区,勝島１丁目４番２０－１８２１号,,13,109,1400012,,,,,,,2021-12-03,1,,,,,クローンズ,0
383,2010801032536,新規,0,2021-12-03,2021-12-03,株式会社ＭＥＤ　ＢＥＡＵＴＹ,,株式会社,東京都,大田区,北千束１丁目４８番２号柴田ビル５Ｆ,,13,111,1450062,,,,,,,2021-12-03,1,,,,,メドビューティー,0
387,2010903006990,新規,0,2021-12-03,2021-12-03,合同会社みのや,,合同会社,東京都,世田谷区,玉川１丁目６－２,,13,112,1580094,,,,,,,2021-12-03,1,,,,,ミノヤ,0
393,2011001144295,新規,0,2021-12-03,2021-12-03,株式会社ＬＤ６,,株式会社,東京都,渋谷区,代官山町２０番９号,,13,113,1500034,,,,,,,2021-12-03,1,,,,,エルディーシックス,0
394,2011001144320,新規,0,2021-12-03,2021-12-03,東京スタート株式会社,,株式会社,東京都,渋谷区,恵比寿西１丁目２０番６号中島グリーンハイツ６０２号,,13,113,1500021,,,,,,,2021-12-03,1,,,,,トウキョウスタート,0
407,2011703003014,新規,0,2021-12-03,2021-12-03,合同会社豊光,,合同会社,東京都,江戸川区,篠崎町３丁目２６番１８号サン・ラ・フォーレ篠崎１０６,,13,123,1330061,,,,,,,2021-12-03,1,,,,,トヨミツ,0
410,2011801040017,新規,0,2021-12-03,2021-12-03,株式会社ＳＵＮＳＨＩＮＥ　ＰＬＵＳ,,株式会社,東京都,足立区,保木間３丁目２６番１８号ドミソレイユ１０１,,13,121,1210064,,,,,,,2021-12-03,1,,,,,サンシャインプラス,0
411,2012401038590,新規,0,2021-12-03,2021-12-03,花原株式会社,,株式会社,東京都,武蔵野市,吉祥寺本町１丁目２６番１号ＪＫ吉祥寺ビル２階,,13,203,1800004,,,,,,,2021-12-03,1,,,,,ハナバラ,0
412,2012401038616,新規,0,2021-12-03,2021-12-03,株式会社ＰｉｔＦ,,株式会社,東京都,小金井市,本町１丁目１９番１０号,,13,210,1840004,,,,,,,2021-12-03,1,,,,,ピット,0
413,2012403005143,新規,0,2021-12-03,2021-12-03,合同会社インベスティーレ,,合同会社,東京都,三鷹市,下連雀３丁目３３番５－５０３,,13,204,1810013,,,,,,,2021-12-03,1,,,,,インベスティーレ,0
417,2012703002360,新規,0,2021-12-03,2021-12-03,合同会社ＮＳＲトラスト,,合同会社,東京都,西東京市,北町３丁目３番１２号,,13,229,2020003,,,,,,,2021-12-03,1,,,,,エヌエスアールトラスト,0
420,2012801021246,新規,0,2021-12-03,2021-12-03,フェルグラム株式会社,,株式会社,東京都,東大和市,中央４丁目１０６１番地３号,,13,220,2070015,,,,,,,2021-12-03,1,,,,,フェルグラム,0
421,2013101008792,新規,0,2021-12-03,2021-12-03,株式会社あきる野総合新聞販売,,株式会社,東京都,あきる野市,二宮２２３５番地１４,,13,228,1970814,,,,,,,2021-12-03,1,,,,,アキルノソウゴウシンブンハンバイ,0
422,2013301048366,新規,0,2021-12-03,2021-12-03,ＡＬＩＯＤＤ株式会社,,株式会社,東京都,豊島区,東池袋１丁目２４番１号,,13,116,1700013,,,,,,,2021-12-03,1,,,,,アリオッド,0
423,2013303005927,新規,0,2021-12-03,2021-12-03,合同会社ｃｏｓｍｏｓ,,合同会社,東京都,豊島区,長崎４丁目７番１１号マスターズ東長崎１階,,13,116,1710051,,,,,,,2021-12-03,1,,,,,コスモス,0
438,2020001144148,新規,0,2021-12-03,2021-12-03,株式会社北建,,株式会社,神奈川県,川崎市多摩区,長沢１丁目１７番９－１号,,14,135,2140035,,,,,,,2021-12-03,1,,,,,キタケン,0
439,2020001144156,新規,0,2021-12-03,2021-12-03,株式会社ＳＫＹアドバイザーズ,,株式会社,神奈川県,川崎市幸区,南幸町２丁目２６番地,,14,132,2120016,,,,,,,2021-12-03,1,,,,,スカイアドバイザーズ,0
443,2021001074624,新規,0,2021-12-03,2021-12-03,極美グループ株式会社,,株式会社,神奈川県,平塚市,老松町１８－２５－２０１,,14,203,2540033,,,,,,,2021-12-03,1,,,,,キワミグループ,0
444,2021001074640,新規,0,2021-12-03,2021-12-03,ヤスエプラン株式会社,,株式会社,神奈川県,平塚市,平塚４丁目３３番６号,,14,203,2540052,,,,,,,2021-12-03,1,,,,,ヤスエプラン,0
445,2021001074649,新規,0,2021-12-03,2021-12-03,株式会社Ｋ・Ｍ・Ｂ,,株式会社,神奈川県,海老名市,中新田３１番地１４,,14,215,2430422,,,,,,,2021-12-03,1,,,,,ケイエムビイ,0
446,2021001074657,新規,0,2021-12-03,2021-12-03,房竹丸水産株式会社,,株式会社,神奈川県,横須賀市,長井３丁目５０番１３号,,14,201,2380316,,,,,,,2021-12-03,1,,,,,フサタケマルスイサン,0
449,2021005012365,新規,0,2021-12-03,2021-12-03,司法書士法人コネクション,,その他の設立登記法人,神奈川県,藤沢市,湘南台２丁目７番地の２０ｖｉｖａｎｔ１階,,14,205,2520804,,,,,,,2021-12-03,1,,,,,コネクション,0
453,2030001145649,新規,0,2021-12-03,2021-12-03,がやてっく株式会社,,株式会社,埼玉県,越谷市,東越谷４丁目２８番地５２,,11,222,3430023,,,,,,,2021-12-03,1,,,,,ガヤテック,0
467,2040001121161,新規,0,2021-12-03,2021-12-03,株式会社ＥＭＩＮＡ　ＴＲＡＤＩＮＧＳ　ＣＯＭＰＡＮＹ,,株式会社,千葉県,君津市,泉９６５番地１－１,,12,225,2991112,,,,,,,2021-12-03,1,,,,,,0
468,2040001121203,新規,0,2021-12-03,2021-12-03,株式会社プクル,,株式会社,千葉県,千葉市若葉区,若松町２１１７番地３４,,12,104,2640021,,,,,,,2021-12-03,1,,,,,プクル,0
469,2040001121228,新規,0,2021-12-03,2021-12-03,株式会社カットバック,,株式会社,千葉県,千葉市若葉区,桜木３丁目１３番２３号,,12,104,2640028,,,,,,,2021-12-03,1,,,,,カットバック,0
470,2040001121236,新規,0,2021-12-03,2021-12-03,株式会社Ｆｏｒｔｕｎｅ　Ｉｓｌａｎｄ,,株式会社,千葉県,佐倉市,王子台２丁目２８番地６,,12,212,2850837,,,,,,,2021-12-03,1,,,,,フォーチュンアイランド,0
471,2040001121252,新規,0,2021-12-03,2021-12-03,株式会社Ｌａｐｓ,,株式会社,千葉県,流山市,鰭ケ崎１４番地の１０,,12,220,2700161,,,,,,,2021-12-03,1,,,,,ラップス,0
472,2040001121260,新規,0,2021-12-03,2021-12-03,株式会社カニアナ,,株式会社,千葉県,千葉市中央区,中央１丁目７番８号,,12,101,2600013,,,,,,,2021-12-03,1,,,,,カニアナ,0
477,2040003019040,新規,0,2021-12-03,2021-12-03,合同会社グリット,,合同会社,千葉県,松戸市,新松戸６丁目３４４番地の１,,12,207,2700034,,,,,,,2021-12-03,1,,,,,グリット,0
478,2040003019057,新規,0,2021-12-03,2021-12-03,合同会社ＮＥＸＴジャパン,,合同会社,千葉県,木更津市,貝渕２丁目１０番３号,,12,206,2920833,,,,,,,2021-12-03,1,,,,,ネクストジャパン,0
479,2040003019065,新規,0,2021-12-03,2021-12-03,ＭＦパートナーズ合同会社,,合同会社,千葉県,浦安市,高洲５丁目２番１－１２１１,,12,227,2790023,,,,,,,2021-12-03,1,,,,,エムエフパートナーズ,0
481,2050001050228,新規,0,2021-12-03,2021-12-03,Ｎａｇｏｍｉホールディングス株式会社,,株式会社,茨城県,神栖市,奥野谷６１２９番地１８,,08,232,3140116,,,,,,,2021-12-03,1,,,,,ナゴミホールディングス,0
482,2050001050252,新規,0,2021-12-03,2021-12-03,株式会社Ｎｅｗ　Ｆｉｅｌｄ,,株式会社,茨城県,水戸市,笠原町１１５５番地の２,,08,201,3100852,,,,,,,2021-12-03,1,,,,,ニューフィールド,0
484,2050003006236,新規,0,2021-12-03,2021-12-03,ＪＫ　ＴＲＡＤＩＮＧ合同会社,,合同会社,茨城県,坂東市,逆井３５３６大都ビル１０６号,,08,228,3060501,,,,,,,2021-12-03,1,,,,,ジェイケイトレーディング,0
488,2060001034337,新規,0,2021-12-03,2021-12-03,ハラモデリング株式会社,,株式会社,栃木県,足利市,里矢場町２３７３番地３,,09,202,3260835,,,,,,,2021-12-03,1,,,,,ハラモデリング,0
489,2060003003892,新規,0,2021-12-03,2021-12-03,合同会社Ｌｕｉｓａｎｔ,,合同会社,栃木県,栃木市,片柳町１丁目１１番２１号,,09,203,3280053,,,,,,,2021-12-03,1,,,,,リュイザン,0
490,2070001038709,新規,0,2021-12-03,2021-12-03,株式会社山光,,株式会社,群馬県,前橋市,樋越町１６９番地１０,00125026,10,201,3710221,,,,,,,2021-12-03,1,,,,,サンコー,0
493,2080001024617,新規,0,2021-12-03,2021-12-03,株式会社野口,,株式会社,静岡県,静岡市駿河区,向手越１丁目２－１０,,22,102,4210107,,,,,,,2021-12-03,1,,,,,ノグチ,0
496,2080401025504,新規,0,2021-12-03,2021-12-03,山本商店株式会社,,株式会社,静岡県,浜松市天竜区,春野町気田６９６番地の８,,22,137,4370605,,,,,,,2021-12-03,1,,,,,ヤマモトショウテン,0
506,2090001017306,新規,0,2021-12-03,2021-12-03,株式会社フラットグッド,,株式会社,山梨県,笛吹市,境川町小黒坂４０番地,,19,211,4060851,,,,,,,2021-12-03,1,,,,,フラットグッド,0
511,2110001036237,新規,0,2021-12-03,2021-12-03,株式会社勇輝,,株式会社,新潟県,燕市,灰方１５番地５,,15,213,9591201,,,,,,,2021-12-03,1,,,,,ユウキ,0
512,2110001036245,新規,0,2021-12-03,2021-12-03,株式会社ネコのしあわせ,,株式会社,新潟県,新潟市中央区,上大川前通７番町１２３０番地７ストークビル鏡橋７階,,15,103,9518068,,,,,,,2021-12-03,1,,,,,ネコノシアワセ,0
524,2120001242230,新規,0,2021-12-03,2021-12-03,株式会社サンアイコーポレーション,,株式会社,大阪府,守口市,南寺方東通４丁目２０番２６号,,27,209,5700043,,,,,,,2021-12-03,1,,,,,サンアイコーポレーション,0
525,2120001242247,新規,0,2021-12-03,2021-12-03,都市建物管理株式会社,,株式会社,大阪府,枚方市,楠葉並木１丁目９番８号,,27,210,5731118,,,,,,,2021-12-03,1,,,,,トシタテモノカンリ,0
526,2120001242288,新規,0,2021-12-03,2021-12-03,株式会社フォレストファーム,,株式会社,大阪府,大阪市西区,江戸堀３丁目６番２５号,,27,106,5500002,,,,,,,2021-12-03,1,,,,,フォレストファーム,0
542,2122001035399,新規,0,2021-12-03,2021-12-03,株式会社山口,,株式会社,大阪府,東大阪市,加納８丁目２番４３号,,27,227,5780901,,,,,,,2021-12-03,1,,,,,ヤマグチ,0
543,2122001035408,新規,0,2021-12-03,2021-12-03,株式会社ハピネス,,株式会社,大阪府,東大阪市,長堂１丁目１７番２５号,,27,227,5770056,,,,,,,2021-12-03,1,,,,,ハピネス,0
554,2140001124063,新規,0,2021-12-03,2021-12-03,株式会社ソウワ工業,,株式会社,兵庫県,加東市,下久米１２２７番地８３０,,28,228,6731415,,,,,,,2021-12-03,1,,,,,ソウワコウギョウ,0
558,2140005025919,新規,0,2021-12-03,2021-12-03,一般社団法人あさひ後見サポート,,その他の設立登記法人,兵庫県,神戸市中央区,江戸町９５番地井門神戸ビル５階,,28,110,6500033,,,,,,,2021-12-03,1,,,,,アサヒコウケンサポート,0
559,2140005025935,新規,0,2021-12-03,2021-12-03,一般社団法人ユニテ,,その他の設立登記法人,兵庫県,加西市,北条町北条８８２番地の２４,,28,220,6752312,,,,,,,2021-12-03,1,,,,,ユニテ,0
562,2150001025145,新規,0,2021-12-03,2021-12-03,かじろう鉄建株式会社,,株式会社,奈良県,天理市,丹波市町元中方６８番地１,,29,204,6320034,,,,,,,2021-12-03,1,,,,,カジロウテッケン,0
565,2160003002439,新規,0,2021-12-03,2021-12-03,合同会社行雲,,合同会社,滋賀県,長浜市,常喜町７１４番地２,,25,203,5260823,,,,,,,2021-12-03,1,,,,,コウウン,0
569,2180001148967,新規,0,2021-12-03,2021-12-03,ＦｔｒｉＸ株式会社,,株式会社,愛知県,名古屋市中川区,高畑５丁目２５９番地,,23,110,4540911,,,,,,,2021-12-03,1,,,,,エフトリックス,0
575,2180301035683,新規,0,2021-12-03,2021-12-03,株式会社ＧＡＲＡＧＥ　ＩＳ,,株式会社,愛知県,高浜市,八幡町６丁目６番地２,,23,227,4441302,,,,,,,2021-12-03,1,,,,,ガレージアイエス,0
582,2200001039486,新規,0,2021-12-03,2021-12-03,株式会社スカイコーポレーション,,株式会社,岐阜県,多治見市,太平町６丁目１０７番地の１,,21,204,5070041,,,,,,,2021-12-03,1,,,,,スカイコーポレーション,0
583,2200003005387,新規,0,2021-12-03,2021-12-03,ｓｆｉｄａ合同会社,,合同会社,岐阜県,関市,武芸川町八幡１３５８番地９,,21,205,5012603,,,,,,,2021-12-03,1,,,,,スフィーダ,0
595,2240001059019,新規,0,2021-12-03,2021-12-03,株式会社スプレッド,,株式会社,広島県,広島市安佐南区,西原４丁目３４番２９－２０３号,,34,105,7310113,,,,,,,2021-12-03,1,,,,,スプレッド,0
597,2250001019285,新規,0,2021-12-03,2021-12-03,株式会社想い出の森斎場,,株式会社,山口県,下松市,中島町２丁目１番４５号,,35,207,7440077,,,,,,,2021-12-03,1,,,,,オモイデノモリサイジョウ,0
602,2260001036263,新規,0,2021-12-03,2021-12-03,株式会社みをつくす,,株式会社,岡山県,苫田郡鏡野町,瀬戸３１６番地１０,,33,606,7080325,,,,,,,2021-12-03,1,,,,,ミヲツクス,0
604,2260005010999,新規,0,2021-12-03,2021-12-03,社会保険労務士法人エニー,,その他の設立登記法人,岡山県,倉敷市,水江１１７２番地３イングレッソ水江３０３,,33,202,7100802,,,,,,,2021-12-03,1,,,,,エニー,0
606,2280001008574,新規,0,2021-12-03,2021-12-03,株式会社多古定置網,,株式会社,島根県,松江市,島根町多古５０５番地１,,32,201,6901213,,,,,,,2021-12-03,1,,,,,タコテイチアミ,0
610,2290001095612,新規,0,2021-12-03,2021-12-03,株式会社大善,,株式会社,福岡県,太宰府市,朱雀１丁目１０番６号,,40,221,8180103,,,,,,,2021-12-03,1,,,,,ダイゼン,0
611,2290001095620,新規,0,2021-12-03,2021-12-03,株式会社ｂａｌａｎｃｅ　ｔｏ　ｂ,,株式会社,福岡県,久留米市,東櫛原町２３０３番地１,00125031,40,203,8300003,,,,,,,2021-12-03,1,,,,,バランストゥービー,0
612,2290001095629,新規,0,2021-12-03,2021-12-03,ハクトウホールディングス株式会社,,株式会社,福岡県,福岡市東区,松田３丁目１０番３７号,,40,131,8120064,,,,,,,2021-12-03,1,,,,,ハクトウホールディングス,0
613,2290001095637,新規,0,2021-12-03,2021-12-03,株式会社チャーム,,株式会社,福岡県,福岡市中央区,渡辺通２丁目８－１０－１Ｆ,,40,133,8100004,,,,,,,2021-12-03,1,,,,,チャーム,0
614,2290003011897,新規,0,2021-12-03,2021-12-03,ＤＱ　ＧＲＯＵＰ合同会社,,合同会社,福岡県,福岡市博多区,博多駅南３丁目２２番２,,40,132,8120016,,,,,,,2021-12-03,1,,,,,ディーキューグループ,0
619,2290801028044,新規,0,2021-12-03,2021-12-03,株式会社ＡＹＴ,,株式会社,福岡県,北九州市八幡西区,藤田４丁目３番１－１２０４号,,40,109,8060022,,,,,,,2021-12-03,1,,,,,エーワイティー,0
625,2300001012730,新規,0,2021-12-03,2021-12-03,株式会社大島商会,,株式会社,佐賀県,嬉野市,嬉野町大字下宿乙１９３番地１,,41,209,8430301,,,,,,,2021-12-03,1,,,,,オオシマショウカイ,0
628,2310001017613,新規,0,2021-12-03,2021-12-03,株式会社シビルサポート,,株式会社,長崎県,大村市,木場２丁目３２２番地３,,42,205,8560046,,,,,,,2021-12-03,1,,,,,シビルサポート,0
631,2320001018767,新規,0,2021-12-03,2021-12-03,株式会社ＴＡＫＥＭＩＴＳＵ,,株式会社,大分県,大分市,大字関園８７８番地の３,,44,201,8700115,,,,,,,2021-12-03,1,,,,,タケミツ,0
636,2320005009952,新規,0,2021-12-03,2021-12-03,医療法人ＧＯＯＤ　ＳＫＹ,,その他の設立登記法人,大分県,大分市,東大道１丁目８－１５カサベルデ駅南２階,,44,201,8700823,,,,,,,2021-12-03,1,,,,,グッドスカイ,0
638,2340003003641,新規,0,2021-12-03,2021-12-03,奄美らいず‐Ｓｈｉｍａ‐Ｄｏ合同会社,,合同会社,鹿児島県,鹿児島市,坂元町４７番８９号,,46,201,8920862,,,,,,,2021-12-03,1,,,,,,0
639,2350001017444,新規,0,2021-12-03,2021-12-03,株式会社一電通,,株式会社,宮崎県,東臼杵郡門川町,栄ケ丘２丁目６７番地３,,45,421,8890615,,,,,,,2021-12-03,1,,,,,イチデンツウ,0
646,2370001047910,新規,0,2021-12-03,2021-12-03,株式会社縁,,株式会社,宮城県,石巻市,門脇字浦屋敷８３番地２４,,04,202,9860853,,,,,,,2021-12-03,1,,,,,エン,0
652,2420001017668,新規,0,2021-12-03,2021-12-03,株式会社Ａｐｐｌｅ　ＰＡＰＡ,,株式会社,青森県,南津軽郡藤崎町,大字西豊田１丁目９番地３,,02,361,0383803,,,,,,,2021-12-03,1,,,,,アップルパパ,0
656,2430001085466,新規,0,2021-12-03,2021-12-03,圓家株式会社,,株式会社,北海道,札幌市中央区,南十二条西１丁目２番３－５０１号,,01,101,0640912,,,,,,,2021-12-03,1,,,,,エンヤ,0
657,2430001085482,新規,0,2021-12-03,2021-12-03,株式会社佐藤地質,,株式会社,北海道,札幌市北区,篠路二条６丁目５番１３－６０５号,,01,102,0028022,,,,,,,2021-12-03,1,,,,,サトウチシツ,0
658,2430001085499,新規,0,2021-12-03,2021-12-03,村上建業株式会社,,株式会社,北海道,苫小牧市,澄川町４丁目２２番１２号,,01,213,0591271,,,,,,,2021-12-03,1,,,,,,0
662,2430003013417,新規,0,2021-12-03,2021-12-03,合同会社ベル,,合同会社,北海道,札幌市東区,北十五条東１丁目１番２２－７０１号,,01,103,0650015,,,,,,,2021-12-03,1,,,,,ベル,0
663,2450001013549,新規,0,2021-12-03,2021-12-03,株式会社モノリス,,株式会社,北海道,旭川市,神居八条１０丁目２番２号,,01,204,0708018,,,,,,,2021-12-03,1,,,,,モノリス,0
664,2460101007094,新規,0,2021-12-03,2021-12-03,株式会社柏原左官工業,,株式会社,北海道,河東郡音更町,中鈴蘭南４丁目７番地,,01,631,0800308,,,,,,,2021-12-03,1,,,,,カシワバラサカンコウギョウ,0
670,2470003002085,新規,0,2021-12-03,2021-12-03,合同会社居宅介護支援事業所つなぐ,,合同会社,香川県,高松市,香川町川東上２２１８番地５,,37,201,7611706,,,,,,,2021-12-03,1,,,,,キョタクカイゴシエンジギョウショツナグ,0
672,2480001011566,新規,0,2021-12-03,2021-12-03,株式会社ＲｕｎＳｕｎＪａｐａｎ,,株式会社,徳島県,板野郡藍住町,勝瑞字西勝地８８－３,,36,403,7711270,,,,,,,2021-12-03,1,,,,,ランサンジャパン,0
673,2500001023848,新規,0,2021-12-03,2021-12-03,株式会社リープトライス,,株式会社,愛媛県,今治市,常盤町８丁目１番３６号玉井ハイツ１０７号,,38,202,7940015,,,,,,,2021-12-03,1,,,,,リープトライス,0
689,2700150064706,新規,0,2021-12-03,2015-10-09,阿久根市農業再生協議会,,その他,鹿児島県,阿久根市,鶴見町２００,,46,206,8991626,,,,,,,2015-10-09,1,,,,,アクネシノウギヨウサイセイキヨウギカイ,0
695,3010001222952,新規,0,2021-12-03,2021-12-03,Ｄｅ　Ｂｅｅｒｓ株式会社,,株式会社,東京都,千代田区,紀尾井町４番１号ニューオータニガーデンコート７階,,13,101,1020094,,,,,,,2021-12-03,1,,,,,デビアス,0
696,3010001222977,新規,0,2021-12-03,2021-12-03,株式会社ライズリアルティ,,株式会社,東京都,千代田区,丸の内３丁目１番１号,,13,101,1000005,,,,,,,2021-12-03,1,,,,,ライズリアルティ,0
697,3010001222993,新規,0,2021-12-03,2021-12-03,株式会社トップビジュアル,,株式会社,東京都,千代田区,神田司町２丁目４ＭＥ神田司町ビル２Ｆ,,13,101,1010048,,,,,,,2021-12-03,1,,,,,トップビジュアル,0
698,3010001223026,新規,0,2021-12-03,2021-12-03,株式会社４４１０,,株式会社,東京都,千代田区,神田和泉町１番地１０の９三宏ビル３階,,13,101,1010024,,,,,,,2021-12-03,1,,,,,ヨンヨンイチゼロ,0
701,3010003036418,新規,0,2021-12-03,2021-12-03,合同会社平行四辺形,,合同会社,東京都,千代田区,五番町１２番地７－２０４３,,13,101,1020076,,,,,,,2021-12-03,1,,,,,ヘイコウシヘンケイ,0
702,3010003036434,新規,0,2021-12-03,2021-12-03,ＲＢソーラーリゲル合同会社,,合同会社,東京都,中央区,八丁堀４丁目２番１０号ＡＯＪ税理士法人内,,13,102,1040032,,,,,,,2021-12-03,1,,,,,アールビーソーラーリゲル,0
703,3010003036450,新規,0,2021-12-03,2021-12-03,合同会社桜月夜,,合同会社,東京都,千代田区,麹町３丁目７－８麹町山口ビル４階,,13,101,1020083,,,,,,,2021-12-03,1,,,,,サクラヅキヨ,0
704,3010003036459,新規,0,2021-12-03,2021-12-03,Ａｍａｇａｓａｋｉ　Ｈｏｔｅｌ　Ｍａｎａｇｅｍｅｎｔ合同会社,,合同会社,東京都,千代田区,九段北４丁目１番９号市ヶ谷ＭＳビル６階,,13,101,1020073,,,,,,,2021-12-03,1,,,,,アマガサキホテルマネジメント,0
705,3010003036475,新規,0,2021-12-03,2021-12-03,プレミア・アドバイザリー合同会社,,合同会社,東京都,中央区,銀座７丁目１３番６号サガミビル２階,,13,102,1040061,,,,,,,2021-12-03,1,,,,,プレミアアドバイザリー,0
712,3010401164167,新規,0,2021-12-03,2021-12-03,ＬＳ－Ａｖｉａｔｉｏｎ第４３号株式会社,,株式会社,東京都,港区,六本木１丁目６番１号,,13,103,1060032,,,,,,,2021-12-03,1,,,,,エルエスアビエーションダイヨンジュウサンゴウ,0
713,3010401164183,新規,0,2021-12-03,2021-12-03,株式会社ＲＩＧＨＴＨＡＮＤ,,株式会社,東京都,港区,浜松町２丁目２－１５浜松町ダイヤビル２Ｆ,,13,103,1050013,,,,,,,2021-12-03,1,,,,,ライトハンド,0
714,3010401164191,新規,0,2021-12-03,2021-12-03,ＵＣＯ　ＣＯＮＮＥＣＴ株式会社,,株式会社,東京都,港区,芝５丁目２番１号星野ビル２階,,13,103,1080014,,,,,,,2021-12-03,1,,,,,ユーシーオーコネクト,0
715,3010401164209,新規,0,2021-12-03,2021-12-03,株式会社トップサイド,,株式会社,東京都,港区,芝２丁目１２番１５号芝大一ビル４階,,13,103,1050014,,,,,,,2021-12-03,1,,,,,トップサイド,0
718,3010405020481,新規,0,2021-12-03,2021-12-03,一般社団法人ＷＦＣクラブ,,その他の設立登記法人,東京都,港区,台場２丁目２－４,,13,103,1350091,,,,,,,2021-12-03,1,,,,,ダブリューエフシークラブ,0
725,3010603009285,新規,0,2021-12-03,2021-12-03,薪宇合同会社,,合同会社,東京都,江東区,木場５丁目１－５メイプルハイム木場Ｂ－１１８,,13,108,1350042,,,,,,,2021-12-03,1,,,,,シンウ,0
731,3010701041867,新規,0,2021-12-03,2021-12-03,株式会社ＥｄｏＧｏｌｆ,,株式会社,東京都,品川区,南大井１丁目４番１号,,13,109,1400013,,,,,,,2021-12-03,1,,,,,エドゴルフ,0
734,3010801032535,新規,0,2021-12-03,2021-12-03,株式会社ディーグロウ,,株式会社,東京都,大田区,矢口３丁目２４番４４号,,13,111,1460093,,,,,,,2021-12-03,1,,,,,ディーグロウ,0
735,3010901049850,新規,0,2021-12-03,2021-12-03,株式会社リッチキャピタル,,株式会社,東京都,世田谷区,弦巻５丁目１番８号－５３６,,13,112,1540016,,,,,,,2021-12-03,1,,,,,リッチキャピタル,0
742,3011003013803,新規,0,2021-12-03,2021-12-03,Ｆｕｔｕｒｅ　Ｉｎｎｏｖａｔｉｏｎ　Ｈｏｌｄｉｎｇｓ合同会社,,合同会社,東京都,渋谷区,渋谷２丁目７－１４ＶＯＲＴＡＯＹＡＭＡ３０２,,13,113,1500002,,,,,,,2021-12-03,1,,,,,フューチャーイノベーションホールディングス,0
749,3011201023455,新規,0,2021-12-03,2021-12-03,株式会社ＬｅｉＬ,,株式会社,東京都,中野区,上鷺宮４丁目１６番１号,,13,114,1650031,,,,,,,2021-12-03,1,,,,,レイル,0
757,3011701024886,新規,0,2021-12-03,2021-12-03,株式会社ｋｏａ,,株式会社,東京都,江戸川区,北葛西５丁目２３番４号,,13,123,1340081,,,,,,,2021-12-03,1,,,,,コア,0
759,3011801040016,新規,0,2021-12-03,2021-12-03,ＹｏｕＭｅ株式会社,,株式会社,東京都,足立区,西新井栄町２丁目３番７号第１１１新井ビル３０５号,,13,121,1230843,,,,,,,2021-12-03,1,,,,,ユーミー,0
760,3011801040024,新規,0,2021-12-03,2021-12-03,株式会社東大門魚類,,株式会社,東京都,足立区,保木間３丁目３０番１１号４０８,,13,121,1210064,,,,,,,2021-12-03,1,,,,,ヒガシダイモンギョルイ,0
765,3012401038607,新規,0,2021-12-03,2021-12-03,Ａ＆Ｍミュージックパートナー株式会社,,株式会社,東京都,稲城市,矢野口３１０５番地の１０,,13,225,2060812,,,,,,,2021-12-03,1,,,,,エーアンドエムミュージックパートナー,0
766,3012401038615,新規,0,2021-12-03,2021-12-03,株式会社ＷＡＹＯインターナショナル,,株式会社,東京都,多摩市,山王下１丁目５番地１０,,13,224,2060042,,,,,,,2021-12-03,1,,,,,ワヨウインターナショナル,0
769,3012403005134,新規,0,2021-12-03,2021-12-03,合同会社セイラーズカンパニー,,合同会社,東京都,調布市,佐須町３丁目３０番地１０,,13,208,1820016,,,,,,,2021-12-03,1,,,,,セイラーズカンパニー,0
773,3013101008791,新規,0,2021-12-03,2021-12-03,株式会社ＴＧＣ,,株式会社,東京都,福生市,大字福生２２５１番地１パレット１Ｆ,,13,218,1970011,,,,,,,2021-12-03,1,,,,,ティージーシー,0
781,3020001144147,新規,0,2021-12-03,2021-12-03,株式会社ＫＩＲＵＢＥ,,株式会社,神奈川県,横浜市港北区,新吉田東１丁目６０番１３－３号,,14,109,2230058,,,,,,,2021-12-03,1,,,,,キルベ,0
782,3020001144155,新規,0,2021-12-03,2021-12-03,株式会社Ｑｕｏｎ,,株式会社,神奈川県,川崎市多摩区,堰２丁目４番１６号,,14,135,2140022,,,,,,,2021-12-03,1,,,,,クオン,0
790,3020003020916,新規,0,2021-12-03,2021-12-03,勝美興業合同会社,,合同会社,神奈川県,横浜市緑区,北八朔町１４２１番地,,14,113,2260021,,,,,,,2021-12-03,1,,,,,カツミコウギョウ,0
794,3021001074656,新規,0,2021-12-03,2021-12-03,株式会社フローライト,,株式会社,神奈川県,藤沢市,辻堂新町１丁目１９番１８号,,14,205,2510042,,,,,,,2021-12-03,1,,,,,フローライト,0
795,3021001074672,新規,0,2021-12-03,2021-12-03,株式会社友希淡水,,株式会社,神奈川県,厚木市,山際９７１番地１０,,14,212,2430803,,,,,,,2021-12-03,1,,,,,ユウキタンスイ,0
803,3030001145565,新規,0,2021-12-03,2021-12-03,株式会社イシカワワークス,,株式会社,埼玉県,さいたま市大宮区,三橋１丁目４９２番地１－３０１号,,11,103,3300856,,,,,,,2021-12-03,1,,,,,イシカワワークス,0
804,3030001145615,新規,0,2021-12-03,2021-12-03,シライシホールディングス株式会社,,株式会社,埼玉県,川口市,西川口２丁目４番３号,,11,203,3320021,,,,,,,2021-12-03,1,,,,,シライシホールディングス,0
805,3030001145689,新規,0,2021-12-03,2021-12-03,株式会社ＭＡＮＯ,,株式会社,埼玉県,さいたま市南区,大谷場２丁目８番３号,,11,108,3360016,,,,,,,2021-12-03,1,,,,,マノ,0
817,3040001121210,新規,0,2021-12-03,2021-12-03,株式会社三栄建設,,株式会社,千葉県,印旛郡栄町,安食３３０２番地９,,12,329,2701516,,,,,,,2021-12-03,1,,,,,サンエイケンセツ,0
818,3040001121219,新規,0,2021-12-03,2021-12-03,エスプルーフ株式会社,,株式会社,千葉県,八千代市,米本１２２１番地１４,,12,221,2760015,,,,,,,2021-12-03,1,,,,,エスプルーフ,0
819,3040001121227,新規,0,2021-12-03,2021-12-03,株式会社リーテック,,株式会社,千葉県,市川市,伊勢宿１３番２１号,,12,203,2720106,,,,,,,2021-12-03,1,,,,,リーテック,0
826,3040003019056,新規,0,2021-12-03,2021-12-03,合同会社洋介商事,,合同会社,千葉県,千葉市若葉区,御殿町２４８４番地の２,,12,104,2650074,,,,,,,2021-12-03,1,,,,,ヨウスケショウジ,0
827,3040003019064,新規,0,2021-12-03,2021-12-03,合同会社ＳＲＣＧ角田＆パートナーズ会計監査事務所,,合同会社,千葉県,市川市,南行徳３丁目１番２号,,12,203,2720138,,,,,,,2021-12-03,1,,,,,エスアールシージースミダアンドパートナーズカイケイカンサジムショ,0
828,3050001050227,新規,0,2021-12-03,2021-12-03,株式会社ＮＳ大子ファーム,,株式会社,茨城県,久慈郡大子町,大字初原２１５７番地,,08,364,3193542,,,,,,,2021-12-03,1,,,,,エヌエスダイゴファーム,0
829,3050001050235,新規,0,2021-12-03,2021-12-03,株式会社エムズ,,株式会社,茨城県,土浦市,板谷１丁目６６６番地１１２,,08,203,3000007,,,,,,,2021-12-03,1,,,,,エムズ,0
830,3050001050243,新規,0,2021-12-03,2021-12-03,株式会社ＢＡＢＥＬ,,株式会社,茨城県,水戸市,根本２丁目５９２番地の１,,08,201,3100067,,,,,,,2021-12-03,1,,,,,バベル,0
840,3080401025503,新規,0,2021-12-03,2021-12-03,株式会社石川製麺,,株式会社,静岡県,袋井市,松原８８８番地,,22,216,4371117,,,,,,,2021-12-03,1,,,,,イシカワセイメン,0
841,3080403004422,新規,0,2021-12-03,2021-12-03,合同会社白鳥建装,,合同会社,静岡県,浜松市東区,白鳥町７１６番地,,22,132,4350002,,,,,,,2021-12-03,1,,,,,シラトリケンソウ,0
843,3090001017305,新規,0,2021-12-03,2021-12-03,株式会社ｙ’ｓｆａｃｔｏｒｙ,,株式会社,山梨県,南巨摩郡南部町,南部３０９１番地１,,19,366,4092212,,,,,,,2021-12-03,1,,,,,ワイズファクトリー,0
845,3100001034868,新規,0,2021-12-03,2021-12-03,株式会社ピーテック,,株式会社,長野県,長野市,豊野町豊野９６６番地４,,20,201,3891105,,,,,,,2021-12-03,1,,,,,ピーテック,0
847,3110001036236,新規,0,2021-12-03,2021-12-03,株式会社ノートス,,株式会社,新潟県,新潟市秋葉区,あおば通１丁目６番１９号,,15,105,9560017,,,,,,,2021-12-03,1,,,,,ノートス,0
861,3120001242188,新規,0,2021-12-03,2021-12-03,達人プロモーション株式会社,,株式会社,大阪府,大阪市中央区,南船場１丁目１３番２０号－８階,,27,128,5420081,,,,,,,2021-12-03,1,,,,,タツジンプロモーション,0
862,3120001242205,新規,0,2021-12-03,2021-12-03,品怡株式会社,,株式会社,大阪府,大阪市中央区,内本町２丁目４番１０号ネオハイツ内本町２０９号,,27,128,5400026,,,,,,,2021-12-03,1,,,,,ヒンイ,0
863,3120001242246,新規,0,2021-12-03,2021-12-03,株式会社Ｂｉｔ,,株式会社,大阪府,大阪市西淀川区,御幣島５丁目４番２２号,,27,113,5550012,,,,,,,2021-12-03,1,,,,,ビット,0
864,3120001242270,新規,0,2021-12-03,2021-12-03,ＩＭＫ株式会社,,株式会社,大阪府,大阪市浪速区,浪速東１丁目２番１０号三興ビル,,27,111,5560025,,,,,,,2021-12-03,1,,,,,アイエムケー,0
865,3120001242279,新規,0,2021-12-03,2021-12-03,株式会社ログシェア,,株式会社,大阪府,大阪市中央区,南本町２丁目２番３号本町ＵＮＩＣＯビル４階,,27,128,5410054,,,,,,,2021-12-03,1,,,,,ログシェア,0
866,3120001242295,新規,0,2021-12-03,2021-12-03,株式会社薬師堂本舗,,株式会社,大阪府,大阪市天王寺区,上本町６丁目３－３１ハイハイタウンＢ１０８Ｄ,,27,109,5430001,,,,,,,2021-12-03,1,,,,,ヤクシドウホンポ,0
876,3120903003927,新規,0,2021-12-03,2021-12-03,サンリット合同会社,,合同会社,大阪府,摂津市,鳥飼和道１丁目１３番５号,,27,224,5660073,,,,,,,2021-12-03,1,,,,,サンリット,0
880,3122001035398,新規,0,2021-12-03,2021-12-03,アイムテックス株式会社,,株式会社,大阪府,四條畷市,岡山５丁目１０番５号,,27,229,5750002,,,,,,,2021-12-03,1,,,,,アイムテックス,0
881,3122001035407,新規,0,2021-12-03,2021-12-03,株式会社愉遊自適,,株式会社,大阪府,東大阪市,荒川１丁目３番１３号Ｍ’ｓビル１Ｆ,,27,227,5770843,,,,,,,2021-12-03,1,,,,,ユウユウジテキ,0
896,3140001124046,新規,0,2021-12-03,2021-12-03,株式会社新結,,株式会社,兵庫県,宍粟市,山崎町五十波６５番地６８,,28,227,6712515,,,,,,,2021-12-03,1,,,,,シンユウ,0
897,3140001124070,新規,0,2021-12-03,2021-12-03,共和テック株式会社,,株式会社,兵庫県,姫路市,家島町真浦１９８８番地,,28,201,6720101,,,,,,,2021-12-03,1,,,,,キョウワテック,0
898,3140001124087,新規,0,2021-12-03,2021-12-03,株式会社ミライズ,,株式会社,兵庫県,尼崎市,道意町５丁目２６番地,,28,202,6600083,,,,,,,2021-12-03,1,,,,,ミライズ,0
901,3140005025918,新規,0,2021-12-03,2021-12-03,医療法人コこころのクリニック,,その他の設立登記法人,兵庫県,神戸市長田区,御屋敷通３丁目２番８号サンタウンアコルデ２階,,28,106,6530843,,,,,,,2021-12-03,1,,,,,コココロノクリニック,0
902,3140005025926,新規,0,2021-12-03,2021-12-03,医療法人社団ハーモニーレディースクリニック,,その他の設立登記法人,兵庫県,神戸市西区,学園西町５丁目２番地の５,,28,111,6512103,,,,,,,2021-12-03,1,,,,,ハーモニーレディースクリニック,0
907,3170001016884,新規,0,2021-12-03,2021-12-03,株式会社味季屋,,株式会社,和歌山県,日高郡みなべ町,南道６４番地,,30,391,6450005,,,,,,,2021-12-03,1,,,,,アジキヤ,0
911,3180001148933,新規,0,2021-12-03,2021-12-03,株式会社虎輝,,株式会社,愛知県,名古屋市緑区,東神の倉１丁目１４１１番地の２,,23,114,4580808,,,,,,,2021-12-03,1,,,,,トラキ,0
912,3180001148958,新規,0,2021-12-03,2021-12-03,ユーエルホールディングス株式会社,,株式会社,愛知県,春日井市,明知町８２１番地１,,23,206,4800303,,,,,,,2021-12-03,1,,,,,ユーエルホールディングス,0
917,3180003023259,新規,0,2021-12-03,2021-12-03,合同会社ダーマジン,,合同会社,愛知県,名古屋市瑞穂区,中山町１丁目１番地,,23,108,4670803,,,,,,,2021-12-03,1,,,,,ダーマジン,0
931,3240001059001,新規,0,2021-12-03,2021-12-03,株式会社タカマサ,,株式会社,広島県,広島市中区,橋本町２番４－５０３号,,34,101,7300015,,,,,,,2021-12-03,1,,,,,タカマサ,0
935,3250001019284,新規,0,2021-12-03,2021-12-03,株式会社Ｏ‐ＳＴＡＲ,,株式会社,山口県,宇部市,東小羽山町４丁目１番２号,,35,202,7550082,,,,,,,2021-12-03,1,,,,,オースター,0
944,3260001036270,新規,0,2021-12-03,2021-12-03,株式会社朝日ホールディングス,,株式会社,岡山県,岡山市北区,建部町福渡４８６番地２,,33,101,7093111,,,,,,,2021-12-03,1,,,,,アサヒホールディングス,0
945,3260001036279,新規,0,2021-12-03,2021-12-03,ｍ’ｓ　ｐｌａｎｎｉｎｇ株式会社,,株式会社,岡山県,岡山市北区,下石井１丁目１‐１７アクロスキューブセンター３１８号室,,33,101,7000907,,,,,,,2021-12-03,1,,,,,エムズプランニング,0
953,3280001008573,新規,0,2021-12-03,2021-12-03,株式会社石見プロジェクト,,株式会社,島根県,益田市,乙吉町イ３３２番地１ファイン乙吉４０１号室,,32,204,6980003,,,,,,,2021-12-03,1,,,,,イワミプロジェクト,0
957,3290001095628,新規,0,2021-12-03,2021-12-03,株式会社みらい総研,,株式会社,福岡県,福岡市博多区,空港前２丁目５番４０号,,40,132,8120002,,,,,,,2021-12-03,1,,,,,ミライソウケン,0
958,3290001095644,新規,0,2021-12-03,2021-12-03,泓崎実業株式会社,,株式会社,福岡県,福岡市博多区,博多駅南３丁目１５番３０号,,40,132,8120016,,,,,,,2021-12-03,1,,,,,ヒロサキジツギョウ,0
959,3290001095660,新規,0,2021-12-03,2021-12-03,株式会社Ｒ‐ＳＴＡＲ,,株式会社,福岡県,福岡市中央区,警固１丁目１５－３８カイタックスクエアガーデン３Ｆ（Ｗ３０３ｂｏｒｄｅｒ）,,40,133,8100023,,,,,,,2021-12-03,1,,,,,アールスター,0
971,3310001017620,新規,0,2021-12-03,2021-12-03,Ａｚｕｓａ設計株式会社,,株式会社,長崎県,長崎市,小江原３丁目２６番１９号,,42,201,8511132,,,,,,,2021-12-03,1,,,,,アズサセッケイ,0
979,3330001029242,新規,0,2021-12-03,2021-12-03,株式会社キタオカ,,株式会社,熊本県,熊本市北区,八景水谷２丁目２番５－２０３号,,43,105,8618064,,,,,,,2021-12-03,1,,,,,キタオカ,0
981,3340001024309,新規,0,2021-12-03,2021-12-03,株式会社ＣＬＯＶＥＲ,,株式会社,鹿児島県,鹿屋市,西祓川町１１３３番地１１８ＥＸＣＥＬ打馬Ｂ棟２０１号,,46,203,8930025,,,,,,,2021-12-03,1,,,,,クローバー,0
983,3360001029710,新規,0,2021-12-03,2021-12-03,株式会社スリーアローズ,,株式会社,沖縄県,那覇市,首里崎山町４丁目２０５番地６,,47,201,9030814,,,,,,,2021-12-03,1,,,,,スリーアローズ,0
984,3360001029719,新規,0,2021-12-03,2021-12-03,株式会社いぶき,,株式会社,沖縄県,那覇市,字安里４２０番地１松和産業ビル４－Ａ,,47,201,9020067,,,,,,,2021-12-03,1,,,,,イブキ,0
987,3360003011617,新規,0,2021-12-03,2021-12-03,かりゆしエアー合同会社,,合同会社,沖縄県,石垣市,字真栄里２５５番地１オアシスファミリーＩＩＩがん太４０７,00125034,47,207,9070002,,,,,,,2021-12-03,1,,,,,カリユシエアー,0
997,3400001015697,新規,0,2021-12-03,2021-12-03,株式会社サンキューハート,,株式会社,岩手県,盛岡市,西仙北１丁目８番１１号,,03,201,0200864,,,,,,,2021-12-03,1,,,,,サンキューハート,0
1005,3430001085498,新規,0,2021-12-03,2021-12-03,株式会社Ｍａｈａｌｏ,,株式会社,北海道,札幌市北区,屯田十一条３丁目３番３号,,01,102,0020861,,,,,,,2021-12-03,1,,,,,マハロ,0
1011,3450001013548,新規,0,2021-12-03,2021-12-03,株式会社Ａ・ｍｏｔｉｏｎ,,株式会社,北海道,旭川市,五条西１丁目２番５号コーポ２１世紀２０２,,01,204,0700055,,,,,,,2021-12-03,1,,,,,エーモーション,0
1013,3480001011565,新規,0,2021-12-03,2021-12-03,株式会社アルファライン,,株式会社,徳島県,徳島市,国府町府中４９０番地５,,36,201,7793122,,,,,,,2021-12-03,1,,,,,アルファライン,0
1015,3500001023847,新規,0,2021-12-03,2021-12-03,株式会社丸文,,株式会社,愛媛県,松山市,福音寺町４４４番地１０,,38,201,7900921,,,,,,,2021-12-03,1,,,,,マルブン,0
1019,3700150036258,新規,0,2021-12-03,2015-10-09,宮城県柴田高等学校　父母教師会,,その他,宮城県,柴田郡柴田町,大字本船迫字十八津入７－３,,04,323,9891621,,,,,,,2015-10-09,1,,,,,ミヤギケンシバタコウトウガツコウフボキヨウシカイ,0
1039,4010001222951,新規,0,2021-12-03,2021-12-03,株式会社ＨＯＵＳＥ　Ｂ,,株式会社,東京都,千代田区,六番町６番地,,13,101,1020085,,,,,,,2021-12-03,1,,,,,ハウスビー,0
1040,4010001222968,新規,0,2021-12-03,2021-12-03,ＮＥＤデジタルグリッド株式会社,,株式会社,東京都,中央区,八重洲１丁目５番１５号田中八重洲ビル２階,,13,102,1030028,,,,,,,2021-12-03,1,,,,,エヌイーディーデジタルグリッド,0
1041,4010001222992,新規,0,2021-12-03,2021-12-03,株式会社Ｑ＆Ｎ,,株式会社,東京都,中央区,日本橋兜町１７番２号兜町第６葉山ビル４階,,13,102,1030026,,,,,,,2021-12-03,1,,,,,キューアンドエヌ,0
1044,4010003036433,新規,0,2021-12-03,2021-12-03,ＲＢソーラーオリオン合同会社,,合同会社,東京都,中央区,八丁堀４丁目２番１０号ＡＯＪ税理士法人内,,13,102,1040032,,,,,,,2021-12-03,1,,,,,アールビーソーラーオリオン,0
1046,4010005034278,新規,0,2021-12-03,2021-12-03,一般財団法人ＫＩＲＩＩ財団,,その他の設立登記法人,東京都,千代田区,内幸町１丁目１番１号帝国ホテルタワー１８階,,13,101,1000011,,,,,,,2021-12-03,1,,,,,キリイザイダン,0
1053,4010401164208,新規,0,2021-12-03,2021-12-03,チームレバレッジ株式会社,,株式会社,東京都,港区,三田３丁目９番７号三田三好ビル５階,,13,103,1080073,,,,,,,2021-12-03,1,,,,,チームレバレッジ,0
1054,4010401164216,新規,0,2021-12-03,2021-12-03,株式会社メルシーランド,,株式会社,東京都,港区,六本木７丁目１２番１１号,,13,103,1060032,,,,,,,2021-12-03,1,,,,,メルシーランド,0
1057,4010405020480,新規,0,2021-12-03,2021-12-03,一般社団法人ＡＴＨＥＮＡ,,その他の設立登記法人,東京都,港区,六本木４丁目１０番１１号八巻ビル４階,,13,103,1060032,,,,,,,2021-12-03,1,,,,,アテナ,0
1060,4010501048153,新規,0,2021-12-03,2021-12-03,株式会社インダストリアリスト,,株式会社,東京都,台東区,西浅草３丁目２３番１２号服部ビル１階,,13,106,1110035,,,,,,,2021-12-03,1,,,,,インダストリアリスト,0
1061,4010603009292,新規,0,2021-12-03,2021-12-03,合同会社ＳＲ,,合同会社,東京都,江東区,住吉１丁目１６番３－８０６号,,13,108,1350002,,,,,,,2021-12-03,1,,,,,エスアール,0
1064,4010703006025,新規,0,2021-12-03,2021-12-03,Ｌａｐｉｎｕｓ　Ｉｎｖｅｓｔｍｅｎｔ合同会社,,合同会社,東京都,品川区,上大崎３丁目１番３０－１４０１号,,13,109,1410021,,,,,,,2021-12-03,1,,,,,ラピナスインベストメント,0
1065,4010801032534,新規,0,2021-12-03,2021-12-03,株式会社東和クリーンサービス,,株式会社,東京都,大田区,北千束２丁目９番１号２Ｆ,,13,111,1450062,,,,,,,2021-12-03,1,,,,,トウワクリーンサービス,0
1086,4011601025579,新規,0,2021-12-03,2021-12-03,東京三安商事株式会社,,株式会社,東京都,練馬区,関町北５丁目６番７号関町マンション３０２Ａ,,13,120,1770051,,,,,,,2021-12-03,1,,,,,トウキョウサンアンショウジ,0
1088,4011801040023,新規,0,2021-12-03,2021-12-03,株式会社つじまる,,株式会社,東京都,足立区,扇３丁目２１番８号,,13,121,1230873,,,,,,,2021-12-03,1,,,,,ツジマル,0
1089,4012401038606,新規,0,2021-12-03,2021-12-03,株式会社Ｏｒｋｕｎ　Ｆｉｌｍｓ,,株式会社,東京都,武蔵野市,吉祥寺本町１丁目５番１号吉祥寺ＰＡＲＣＯ８階ＳｋｉｉＭａＫＩＣＨＩＪＯＪＩ内,,13,203,1800004,,,,,,,2021-12-03,1,,,,,オークンフィルムズ,0
1090,4012403005141,新規,0,2021-12-03,2021-12-03,Ｋ’ｓ・ｒａｄｉａｎｃｅ合同会社,,合同会社,東京都,府中市,天神町１丁目１番８５－８０１号,,13,206,1830053,,,,,,,2021-12-03,1,,,,,ケイズラディエンス,0
1092,4012701016798,新規,0,2021-12-03,2021-12-03,株式会社オーピュア,,株式会社,東京都,西東京市,北原町３丁目１番１５号,,13,229,1880003,,,,,,,2021-12-03,1,,,,,オーピュア,0
1093,4012701016807,新規,0,2021-12-03,2021-12-03,ＤＯＧ５８株式会社,,株式会社,東京都,東久留米市,南沢５丁目３番１２号,,13,222,2030023,,,,,,,2021-12-03,1,,,,,ドッグゴア,0
1099,4013303005933,新規,0,2021-12-03,2021-12-03,合同会社ＥＬＥＶＥＮ,,合同会社,東京都,豊島区,池袋１丁目５番２－２０４号,,13,116,1700014,,,,,,,2021-12-03,1,,,,,イレブン,0
1109,4020001144162,新規,0,2021-12-03,2021-12-03,株式会社アイラＰｌｕｓ,,株式会社,神奈川県,横浜市西区,平沼２丁目７番２号ＹＫビル１０２号室,,14,103,2200023,,,,,,,2021-12-03,1,,,,,アイラプラス,0
1110,4020001144170,新規,0,2021-12-03,2021-12-03,株式会社タスメディア,,株式会社,神奈川県,横浜市中区,弁天通３丁目４８番地弁三ビル,,14,104,2310007,,,,,,,2021-12-03,1,,,,,タスメディア,0
1111,4020001144204,新規,0,2021-12-03,2021-12-03,株式会社ＩＫＤ,,株式会社,神奈川県,横浜市港北区,仲手原２丁目４３番４３号ＫＣＫビル２階,,14,109,2220023,,,,,,,2021-12-03,1,,,,,アイケイディー,0
1115,4020003020915,新規,0,2021-12-03,2021-12-03,合同会社Ｍａｈｉｎａ＆１９ホールディングス,,合同会社,神奈川県,横浜市青葉区,美しが丘２丁目４０番地１１,,14,117,2250002,,,,,,,2021-12-03,1,,,,,マヒナアンドナインティーンホールディングス,0
1119,4021001074671,新規,0,2021-12-03,2021-12-03,株式会社ＢＯＯＶＡ,,株式会社,神奈川県,藤沢市,大庭５４２５番地の１０,,14,205,2510861,,,,,,,2021-12-03,1,,,,,ブーバ,0
1125,4021003011144,新規,0,2021-12-03,2021-12-03,フツレ合同会社,,合同会社,神奈川県,茅ヶ崎市,南湖４丁目９－２９,,14,207,2530061,,,,,,,2021-12-03,1,,,,,フツレ,0
1135,4030001145688,新規,0,2021-12-03,2021-12-03,株式会社榮喜,,株式会社,埼玉県,東松山市,大字大谷４４７３番地８,,11,212,3550008,,,,,,,2021-12-03,1,,,,,エイキ,0
1139,4030003018421,新規,0,2021-12-03,2021-12-03,合同会社Ｋホーム,,合同会社,埼玉県,戸田市,本町１丁目１０番１４－２０２号（ラグゼナ戸田公園ＩＩ）,00125020,11,224,3350023,,,,,,,2021-12-03,1,,,,,ケーホーム,0
1147,4040001121201,新規,0,2021-12-03,2021-12-03,株式会社ＬＨＤ,,株式会社,千葉県,八街市,八街ほ２３７番地９,,12,230,2891115,,,,,,,2021-12-03,1,,,,,エルエイチディー,0
1148,4040001121242,新規,0,2021-12-03,2021-12-03,Ｍ’ｓエンジニアリング株式会社,,株式会社,千葉県,八千代市,緑が丘西６丁目１２－４３,,12,221,2760040,,,,,,,2021-12-03,1,,,,,エムズエンジニアリング,0
1149,4040001121259,新規,0,2021-12-03,2021-12-03,株式会社シュウメイ,,株式会社,千葉県,松戸市,串崎南町７６番地,,12,207,2702215,,,,,,,2021-12-03,1,,,,,シュウメイ,0
1158,4040003019030,新規,0,2021-12-03,2021-12-03,合同会社ＡＢＣ,,合同会社,千葉県,市川市,欠真間１丁目１１番７－５０１号,,12,203,2720142,,,,,,,2021-12-03,1,,,,,エービーシー,0
1159,4040003019055,新規,0,2021-12-03,2021-12-03,合同会社わらや,,合同会社,千葉県,長生郡長柄町,大庭６１３番地,,12,426,2970222,,,,,,,2021-12-03,1,,,,,ワラヤ,0
1160,4040003019063,新規,0,2021-12-03,2021-12-03,リベラルワークスタイル合同会社,,合同会社,千葉県,千葉市若葉区,若松町９０２－２－２－６０９,,12,104,2640021,,,,,,,2021-12-03,1,,,,,リベラルワークスタイル,0
1161,4040005021455,新規,0,2021-12-03,2021-12-03,オオソラモ土気団地管理組合法人,,その他の設立登記法人,千葉県,千葉市緑区,土気町１５１６番地２６,,12,105,2670061,,,,,,,2021-12-03,1,,,,,オオソラモトケ,0
1163,4050001050226,新規,0,2021-12-03,2021-12-03,株式会社ＴＨＣ,,株式会社,茨城県,行方市,山田２０３２番地,,08,233,3111704,,,,,,,2021-12-03,1,,,,,ティーエイチシー,0
1164,4050001050259,新規,0,2021-12-03,2021-12-03,ＢＬＯＳＳＡＭ株式会社,,株式会社,茨城県,土浦市,川口１丁目５番２０－２号スプリングコート１０１,,08,203,3000033,,,,,,,2021-12-03,1,,,,,ブロッサム,0
1168,4060001034335,新規,0,2021-12-03,2021-12-03,株式会社ネクストライン,,株式会社,栃木県,那須塩原市,東三島４丁目４５番地３,,09,213,3292751,,,,,,,2021-12-03,1,,,,,ネクストライン,0
1170,4060003003890,新規,0,2021-12-03,2021-12-03,合同会社Ｗａｋｅ　ｆｒｏｎｔ,,合同会社,栃木県,宇都宮市,南町５番１６号,,09,201,3210142,,,,,,,2021-12-03,1,,,,,ウェイクフロント,0
1171,4070001038707,新規,0,2021-12-03,2021-12-03,株式会社ＡＣＥコーポレーション,,株式会社,群馬県,館林市,本町４丁目１１番２２号,,10,207,3740024,,,,,,,2021-12-03,1,,,,,エースコーポレーション,0
1177,4080403004421,新規,0,2021-12-03,2021-12-03,合同会社ｎａｎａｋａ,,合同会社,静岡県,浜松市南区,東若林町１２７０番１号,,22,134,4328052,,,,,,,2021-12-03,1,,,,,ナナカ,0
1181,4110001036235,新規,0,2021-12-03,2021-12-03,オクト・ホールディングス株式会社,,株式会社,新潟県,新潟市中央区,女池南３丁目２番３２号,,15,103,9500948,,,,,,,2021-12-03,1,,,,,オクトホールディングス,0
1182,4110001036243,新規,0,2021-12-03,2021-12-03,大野精工プラス株式会社,,株式会社,新潟県,新潟市南区,新飯田２６１５番地１,,15,106,9501455,,,,,,,2021-12-03,1,,,,,オオノセイコウプラス,0
1184,4110003004636,新規,0,2021-12-03,2021-12-03,合同会社ＳＡＫＵＲＡ,,合同会社,新潟県,魚沼市,池平１０１番地,,15,225,9460064,,,,,,,2021-12-03,1,,,,,サクラ,0
1191,4120001242204,新規,0,2021-12-03,2021-12-03,ＳＫＹ株式会社,,株式会社,大阪府,守口市,南寺方北通１丁目１３番３号,,27,209,5700046,,,,,,,2021-12-03,1,,,,,スカイ,0
1192,4120001242229,新規,0,2021-12-03,2021-12-03,株式会社ＰＡＷＳＯＭＥ,,株式会社,大阪府,大阪市福島区,海老江６丁目６番９号,,27,103,5530001,,,,,,,2021-12-03,1,,,,,パウサム,0
1193,4120001242261,新規,0,2021-12-03,2021-12-03,日建産業株式会社,,株式会社,大阪府,大阪市西区,立売堀２丁目９番２号,,27,106,5500012,,,,,,,2021-12-03,1,,,,,ニッケンサンギョウ,0
1194,4120001242294,新規,0,2021-12-03,2021-12-03,株式会社Ｙａａｈａ,,株式会社,大阪府,大阪市中央区,高津２丁目４－２１おおきに道頓堀ビル６０８号室,,27,128,5420072,,,,,,,2021-12-03,1,,,,,ヤーハ,0
1195,4120001242303,新規,0,2021-12-03,2021-12-03,株式会社アヴェイル,,株式会社,大阪府,大阪市西区,靱本町１丁目５番１８号,,27,106,5500004,,,,,,,2021-12-03,1,,,,,アヴェイル,0
1196,4120001242311,新規,0,2021-12-03,2021-12-03,株式会社ＰｏｎＰｏｎｙＰｌａｎｅｔ,,株式会社,大阪府,大阪市城東区,野江３丁目１番２号大宝野江ロイヤルハイツ１０３号室,,27,118,5360006,,,,,,,2021-12-03,1,,,,,ポンポニープラネット,0
1197,4120003020698,新規,0,2021-12-03,2021-12-03,合同会社ＧＳ　ＨＯＸＩ,,合同会社,大阪府,大阪市生野区,巽北３丁目１３番１号,00125028,27,116,5440004,,,,,,,2021-12-03,1,,,,,ジーエスホクシー,0
1198,4120005022643,新規,0,2021-12-03,2021-12-03,一般社団法人遊々会,,その他の設立登記法人,大阪府,大阪市北区,東天満１丁目１１番９号,,27,127,5300044,,,,,,,2021-12-03,1,,,,,ユウユウカイ,0
1200,4120103004436,新規,0,2021-12-03,2021-12-03,合同会社トータルケアサービス森田,,合同会社,大阪府,松原市,高見の里１丁目１２－２,,27,217,5800021,,,,,,,2021-12-03,1,,,,,トータルケアサービスモリタ,0
1201,4120103004460,新規,0,2021-12-03,2021-12-03,合同会社ＲＩＮ,,合同会社,大阪府,藤井寺市,小山７丁目１２２５番地の９,,27,226,5830033,,,,,,,2021-12-03,1,,,,,リン,0
1204,4120901045292,新規,0,2021-12-03,2021-12-03,株式会社真和パートナーズ,,株式会社,大阪府,豊中市,服部寿町３丁目４番１９号,,27,203,5610857,,,,,,,2021-12-03,1,,,,,シンワパートナーズ,0
1205,4120903003926,新規,0,2021-12-03,2021-12-03,合同会社Ｓａｍｐｏ　Ｄｅｖｅｌｏｐｍｅｎｔ,,合同会社,大阪府,吹田市,千里丘北１番２０－８２４号,,27,205,5650815,,,,,,,2021-12-03,1,,,,,サンポデベロップメント,0
1208,4122001035372,新規,0,2021-12-03,2021-12-03,株式会社ＭＡＮＡＢＥ　ＳＡＫＡＮ,,株式会社,大阪府,東大阪市,高井田８番１２号,,27,227,5770053,,,,,,,2021-12-03,1,,,,,マナベサカン,0
1209,4122001035397,新規,0,2021-12-03,2021-12-03,株式会社大東ホンダ販売,,株式会社,大阪府,大東市,御供田２丁目１番３号,,27,218,5740025,,,,,,,2021-12-03,1,,,,,ダイトウホンダハンバイ,0
1219,4140001124004,新規,0,2021-12-03,2021-12-03,株式会社クラフトハウスＭ,,株式会社,兵庫県,西脇市,高田井町５８番地の２,,28,213,6770016,,,,,,,2021-12-03,1,,,,,クラフトハウスエム,0
1220,4140001124029,新規,0,2021-12-03,2021-12-03,株式会社政,,株式会社,兵庫県,宝塚市,中筋１丁目５番１５－２号,,28,214,6650874,,,,,,,2021-12-03,1,,,,,マツリ,0
1221,4140001124037,新規,0,2021-12-03,2021-12-03,株式会社カインドエステート,,株式会社,兵庫県,神戸市北区,谷上東町１番１号谷上ＳＨビル１階,,28,109,6511245,,,,,,,2021-12-03,1,,,,,カインドエステート,0
1222,4140001124045,新規,0,2021-12-03,2021-12-03,株式会社グラウス,,株式会社,兵庫県,加古川市,別府町別府７０２番地３－２０２号,,28,210,6750122,,,,,,,2021-12-03,1,,,,,グラウス,0
1223,4140001124053,新規,0,2021-12-03,2021-12-03,株式会社北川研磨工作所,,株式会社,兵庫県,加西市,馬渡谷町８５番地の１,,28,220,6752414,,,,,,,2021-12-03,1,,,,,キタガワケンマコウサクショ,0
1226,4140003017057,新規,0,2021-12-03,2021-12-03,Ｓ．Ｐ合同会社,,合同会社,兵庫県,神戸市兵庫区,新開地２丁目５番１１号,,28,105,6520811,,,,,,,2021-12-03,1,,,,,エスピー,0
1228,4140005025917,新規,0,2021-12-03,2021-12-03,医療法人社団関医院,,その他の設立登記法人,兵庫県,神戸市長田区,房王寺町７丁目１２番９号,,28,106,6530801,,,,,,,2021-12-03,1,,,,,セキイイン,0
1229,4140005025925,新規,0,2021-12-03,2021-12-03,医療法人社団かんだ内科クリニック,,その他の設立登記法人,兵庫県,たつの市,新宮町吉島６１９番地６,,28,229,6794305,,,,,,,2021-12-03,1,,,,,カンダナイカクリニック,0
1232,4150001025143,新規,0,2021-12-03,2021-12-03,株式会社ＬＴＷ　Ｗｏｒｋｓ,,株式会社,奈良県,生駒市,萩原町８６６番地１０,,29,209,6300234,,,,,,,2021-12-03,1,,,,,エルティダブリュワークス,0
1234,4160001023848,新規,0,2021-12-03,2021-12-03,株式会社ジョインネクスト,,株式会社,滋賀県,甲賀市,水口町名坂１２番地４,,25,209,5280035,,,,,,,2021-12-03,1,,,,,ジョインネクスト,0
1243,4180001148841,新規,0,2021-12-03,2021-12-03,株式会社シーシーディー,,株式会社,愛知県,春日井市,不二ガ丘１丁目１６４－３,,23,206,4870023,,,,,,,2021-12-03,1,,,,,シーシーディー,0
1244,4180001148940,新規,0,2021-12-03,2021-12-03,株式会社ＹＲＹ,,株式会社,愛知県,名古屋市中川区,尾頭橋３丁目１４番１１号,,23,110,4540012,,,,,,,2021-12-03,1,,,,,ワイアールワイ,0
1248,4180005019535,新規,0,2021-12-03,2021-12-03,社会保険労務士法人三律コンサルタンツ,,その他の設立登記法人,愛知県,名古屋市東区,筒井３丁目１３番５号,,23,102,4610003,,,,,,,2021-12-03,1,,,,,サンリツコンサルタンツ,0
1255,4180301035681,新規,0,2021-12-03,2021-12-03,株式会社ファーストスタッフ,,株式会社,愛知県,豊田市,田茂平町新子４３８番地１,,23,211,4700423,,,,,,,2021-12-03,1,,,,,ファーストスタッフ,0
1259,4180303005187,新規,0,2021-12-03,2021-12-03,イズミビジョンラボ合同会社,,合同会社,愛知県,安城市,和泉町南本郷１９０番地１,,23,212,4441221,,,,,,,2021-12-03,1,,,,,イズミビジョンラボ,0
1261,4190001028893,新規,0,2021-12-03,2021-12-03,日関運送株式会社,,株式会社,三重県,四日市市,住吉町１３番５号,,24,202,5108003,,,,,,,2021-12-03,1,,,,,ニッセキウンソウ,0
1262,4190001028902,新規,0,2021-12-03,2021-12-03,株式会社リン・テラス,,株式会社,三重県,四日市市,南坂部町１６番地６,,24,202,5120914,,,,,,,2021-12-03,1,,,,,リンテラス,0
1268,4200001039492,新規,0,2021-12-03,2021-12-03,株式会社ｒｉｃо,,株式会社,岐阜県,各務原市,鵜沼東町６丁目７６番地１,,21,213,5090126,,,,,,,2021-12-03,1,,,,,リコ,0
1271,4210001018719,新規,0,2021-12-03,2021-12-03,株式会社ＳＡＮＫＯ,,株式会社,福井県,小浜市,遠敷第７５号４番地,,18,204,9170241,,,,,,,2021-12-03,1,,,,,サンコー,0
1273,4240001059000,新規,0,2021-12-03,2021-12-03,株式会社Ｐｒｏ　ＳＰＥＣ,,株式会社,広島県,広島市中区,銀山町６番１９－２０２号,,34,101,7300022,,,,,,,2021-12-03,1,,,,,プロスペック,0
1274,4240001059009,新規,0,2021-12-03,2021-12-03,株式会社新生サービス,,株式会社,広島県,広島市安佐南区,東野２丁目２９番２９－９号,,34,105,7310111,,,,,,,2021-12-03,1,,,,,アラオサービス,0
1278,4250001019283,新規,0,2021-12-03,2021-12-03,株式会社Ｂｅａｕｔｙ　Ｍａｄｅ,,株式会社,山口県,宇部市,東新川町６番３２号,,35,202,7550019,,,,,,,2021-12-03,1,,,,,ビューティーメイド,0
1289,4290001095635,新規,0,2021-12-03,2021-12-03,エス・ワイ・エス株式会社,,株式会社,福岡県,福岡市中央区,那の川２丁目７番２号,,40,133,8100015,,,,,,,2021-12-03,1,,,,,エスワイエス,0
1290,4290001095643,新規,0,2021-12-03,2021-12-03,株式会社サミットインターナショナル,,株式会社,福岡県,福岡市博多区,博多駅前３丁目９番５－５１１号,,40,132,8120011,,,,,,,2021-12-03,1,,,,,サミットインターナショナル,0
1291,4290003011895,新規,0,2021-12-03,2021-12-03,合同会社アプレット,,合同会社,福岡県,糟屋郡須惠町,大字須恵８４４番地７,,40,344,8112100,,,,,,,2021-12-03,1,,,,,アプレット,0
1294,4300001012729,新規,0,2021-12-03,2021-12-03,株式会社新和堂,,株式会社,佐賀県,西松浦郡有田町,黒牟田丙２８７７番地,,41,401,8440022,,,,,,,2021-12-03,1,,,,,シンワドウ,0
1295,4310001017611,新規,0,2021-12-03,2021-12-03,株式会社フジナガ商事,,株式会社,長崎県,佐世保市,小佐々町葛籠２１８番地,00125029,42,202,8570405,,,,,,,2021-12-03,1,,,,,フジナガショウジ,0
1302,4320003003666,新規,0,2021-12-03,2021-12-03,合同会社ゆうしん,,合同会社,大分県,大分市,大字田尻８４５番地の１６,,44,201,8701143,,,,,,,2021-12-03,1,,,,,ユウシン,0
1304,4330001029241,新規,0,2021-12-03,2021-12-03,株式会社市原農園,,株式会社,熊本県,阿蘇市,一の宮町坂梨１６９７番地,,43,214,8692611,,,,,,,2021-12-03,1,,,,,イチハラノウエン,0
1305,4330003009150,新規,0,2021-12-03,2021-12-03,合同会社アネストリー,,合同会社,熊本県,熊本市北区,山室５丁目３番１４号,,43,105,8600084,,,,,,,2021-12-03,1,,,,,アネストリー,0
1307,4340001024308,新規,0,2021-12-03,2021-12-03,株式会社ＫＯＦ,,株式会社,鹿児島県,鹿屋市,吾平町上名６６３９番地２,,46,203,8931101,,,,,,,2021-12-03,1,,,,,ケオエフ,0
1316,4360001029718,新規,0,2021-12-03,2021-12-03,ＮＥＷ　ＷＡＶＥ株式会社,,株式会社,沖縄県,那覇市,字天久１０９０番地１波之上産業天久マンションＢ－５０９,,47,201,9000005,,,,,,,2021-12-03,1,,,,,ニューウェーブ,0
1340,4430001085480,新規,0,2021-12-03,2021-12-03,株式会社しゃこまる,,株式会社,北海道,積丹郡積丹町,大字美国町字大沢６９８番地２,,01,405,0460201,,,,,,,2021-12-03,1,,,,,シャコマル,0
1341,4430001085497,新規,0,2021-12-03,2021-12-03,株式会社リベテック,,株式会社,北海道,札幌市清田区,平岡公園東１０丁目３番５号,,01,110,0040882,,,,,,,2021-12-03,1,,,,,リベテック,0
1343,4430003013415,新規,0,2021-12-03,2021-12-03,合同会社ひぐち,,合同会社,北海道,札幌市北区,北三十八条西５丁目１番３５号,,01,102,0010038,,,,,,,2021-12-03,1,,,,,ヒグチ,0
1350,4460301005020,新規,0,2021-12-03,2021-12-03,ライフ・ワン株式会社,,株式会社,北海道,北見市,北四条東７丁目１番地６サンケイビル,,01,208,0900024,,,,,,,2021-12-03,1,,,,,ライフワン,0
1369,5010001222975,新規,0,2021-12-03,2021-12-03,株式会社ブレンド,,株式会社,東京都,千代田区,神田小川町２丁目１－６,,13,101,1010052,,,,,,,2021-12-03,1,,,,,,0
1370,5010001223024,新規,0,2021-12-03,2021-12-03,シーガル準備株式会社,,株式会社,東京都,千代田区,丸の内２丁目１番１号明治安田生命ビル１１階,,13,101,1000005,,,,,,,2021-12-03,1,,,,,シーガルジュンビ,0
1374,5010003036432,新規,0,2021-12-03,2021-12-03,ＲＢソーラーシルマ合同会社,,合同会社,東京都,中央区,八丁堀４丁目２番１０号ＡＯＪ税理士法人内,,13,102,1040032,,,,,,,2021-12-03,1,,,,,アールビーソーラーシルマ,0
1383,5010501048177,新規,0,2021-12-03,2021-12-03,ＬＵＸ販売株式会社,,株式会社,東京都,台東区,上野６丁目１番６号,,13,106,1100005,,,,,,,2021-12-03,1,,,,,ラックスハンバイ,0
1386,5010601060313,新規,0,2021-12-03,2021-12-03,株式会社ＨＲビズ,,株式会社,東京都,江東区,豊洲６丁目２番３１－２４０８号,,13,108,1350061,,,,,,,2021-12-03,1,,,,,エイチアールビズ,0
1388,5010603009291,新規,0,2021-12-03,2021-12-03,合同会社さんじ,,合同会社,東京都,墨田区,八広４丁目１３番７号,,13,107,1310041,,,,,,,2021-12-03,1,,,,,サンジ,0
1393,5010801032533,新規,0,2021-12-03,2021-12-03,株式会社ｙｔコーポレーション,,株式会社,東京都,大田区,中央２丁目２５番７－２０４号,,13,111,1430024,,,,,,,2021-12-03,1,,,,,ワイティコーポレーション,0
1401,5011001144350,新規,0,2021-12-03,2021-12-03,Ｅｎｊｏｙ　Ｗｉｔｈ株式会社,,株式会社,東京都,渋谷区,恵比寿南２丁目２５番１－２０４号,,13,113,1500022,,,,,,,2021-12-03,1,,,,,エンジョイウィズ,0
1403,5011101097093,新規,0,2021-12-03,2021-12-03,ＴＯＫＹＯ　ＭＹＴＥＣＨ株式会社,,株式会社,東京都,新宿区,新宿１丁目２４番７号,,13,104,1600022,,,,,,,2021-12-03,1,,,,,トウキョウマイテック,0
1404,5011303004236,新規,0,2021-12-03,2021-12-03,インディゴ合同会社,,合同会社,東京都,杉並区,和泉２丁目１５番４－１０７号,,13,115,1680063,,,,,,,2021-12-03,1,,,,,インディゴ,0
1407,5011601025578,新規,0,2021-12-03,2021-12-03,富環株式会社,,株式会社,東京都,練馬区,関町北５丁目６番７号関町マンション３０２Ｂ,,13,120,1770051,,,,,,,2021-12-03,1,,,,,フカン,0
1408,5011603003458,新規,0,2021-12-03,2021-12-03,ＡｙａＨａｎａ合同会社,,合同会社,東京都,練馬区,桜台１丁目１１番３号３Ｆ,,13,120,1760002,,,,,,,2021-12-03,1,,,,,アヤハナ,0
1411,5011701024884,新規,0,2021-12-03,2021-12-03,株式会社湯田住建,,株式会社,東京都,江戸川区,北小岩８丁目２５番１７号,,13,123,1330051,,,,,,,2021-12-03,1,,,,,ユダジュウケン,0
1416,5012401038605,新規,0,2021-12-03,2021-12-03,株式会社オフィス・アイダ,,株式会社,東京都,三鷹市,上連雀８丁目１２番３－４０１号メゾン・クレール,,13,204,1810012,,,,,,,2021-12-03,1,,,,,オフィスアイダ,0
1417,5012401038613,新規,0,2021-12-03,2021-12-03,株式会社ＷＯＬＶＥＳ,,株式会社,東京都,稲城市,大丸８９９番地,,13,225,2060801,,,,,,,2021-12-03,1,,,,,ウルブス,0
1423,5012701016806,新規,0,2021-12-03,2021-12-03,株式会社マツモト販売,,株式会社,東京都,小平市,小川町２丁目２０３６番地,,13,211,1870032,,,,,,,2021-12-03,1,,,,,マツモトハンバイ,0
1428,5013303005932,新規,0,2021-12-03,2021-12-03,キラリ合同会社,,合同会社,東京都,豊島区,東池袋１丁目４４番１０タイガースビル４０８,,13,116,1700013,,,,,,,2021-12-03,1,,,,,キラリ,0
1444,5020003020914,新規,0,2021-12-03,2021-12-03,合同会社ＰＬＡＺＡ　ＨＡＮＡ企画,,合同会社,神奈川県,横浜市青葉区,美しが丘２丁目４０番地１１,,14,117,2250002,,,,,,,2021-12-03,1,,,,,プラザハナキカク,0
1451,5021001074638,新規,0,2021-12-03,2021-12-03,株式会社Ｇコーポレーション,,株式会社,神奈川県,逗子市,久木８丁目１４番５６号,,14,208,2490001,,,,,,,2021-12-03,1,,,,,ジーコーポレーション,0
1452,5021001074662,新規,0,2021-12-03,2021-12-03,株式会社マエケンメディカル,,株式会社,神奈川県,平塚市,根坂間２７４番地の７,,14,203,2540904,,,,,,,2021-12-03,1,,,,,マエケンメディカル,0
1463,5030001145687,新規,0,2021-12-03,2021-12-03,株式会社アルファー,,株式会社,埼玉県,草加市,新善町４２８番地６－２０７号,,11,221,3400054,,,,,,,2021-12-03,1,,,,,アルファー,0
1464,5030003018420,新規,0,2021-12-03,2021-12-03,Ｎａｎａ　Ｇｒｏｕｐ　Ｉｎｔｅｒｎａｔｉｏｎａｌ合同会社,,合同会社,埼玉県,越谷市,花田３丁目９番地１６サンハイム２－２,,11,222,3430015,,,,,,,2021-12-03,1,,,,,ナナグループインターナショナル,0
1475,5040001121209,新規,0,2021-12-03,2021-12-03,株式会社ＡＫＣ　Ｔｏｔａｌ　Ｓｕｐｐｏｒｔ,,株式会社,千葉県,袖ケ浦市,神納１４０７番地１,,12,229,2990257,,,,,,,2021-12-03,1,,,,,エーケーシートータルサポート,0
1476,5040001121225,新規,0,2021-12-03,2021-12-03,株式会社今上農産,,株式会社,千葉県,野田市,今上２４３番地,,12,208,2780025,,,,,,,2021-12-03,1,,,,,イマガミノウサン,0
1477,5040001121258,新規,0,2021-12-03,2021-12-03,ユー・ライズ株式会社,,株式会社,千葉県,柏市,酒井根２丁目５番２３号,,12,217,2770053,,,,,,,2021-12-03,1,,,,,ユーライズ,0
1478,5040001121266,新規,0,2021-12-03,2021-12-03,株式会社ハタヒロ,,株式会社,千葉県,野田市,今上４２番地,,12,208,2780025,,,,,,,2021-12-03,1,,,,,ハタヒロ,0
1481,5040003019038,新規,0,2021-12-03,2021-12-03,合同会社２,,合同会社,千葉県,我孫子市,我孫子４丁目２１番３５号２０２,,12,222,2701166,,,,,,,2021-12-03,1,,,,,ニジョウ,0
1482,5040003019046,新規,0,2021-12-03,2021-12-03,みらい生活ラボ合同会社,,合同会社,千葉県,船橋市,海神３丁目２６番８号,,12,204,2730021,,,,,,,2021-12-03,1,,,,,ミライセイカツラボ,0
1484,5050001050225,新規,0,2021-12-03,2021-12-03,株式会社ラ・バーズスクレート,,株式会社,茨城県,つくばみらい市,新戸６７番地,,08,235,3002354,,,,,,,2021-12-03,1,,,,,ラバーズスクレート,0
1485,5050001050258,新規,0,2021-12-03,2021-12-03,株式会社満喜葉,00125021,株式会社,茨城県,那珂市,瓜連１７２３番地２,,08,226,3192102,,,,,,,2021-12-03,1,,,,,マキバ,0
1488,5060001034334,新規,0,2021-12-03,2021-12-03,株式会社芳澤美装,,株式会社,栃木県,宇都宮市,金田町７５８番地２,,09,201,3210406,,,,,,,2021-12-03,1,,,,,ヨシザワビソウ,0
1495,5080001024614,新規,0,2021-12-03,2021-12-03,株式会社秋山塗装,,株式会社,静岡県,焼津市,焼津１丁目２番７号,,22,212,4250026,,,,,,,2021-12-03,1,,,,,アキヤマトソウ,0
1498,5080401025501,新規,0,2021-12-03,2021-12-03,株式会社ミヤビ,,株式会社,静岡県,浜松市浜北区,小松６３１番地,,22,136,4340042,,,,,,,2021-12-03,1,,,,,ミヤビ,0
1503,5090003001998,新規,0,2021-12-03,2021-12-03,合同会社コモリ,,合同会社,山梨県,甲府市,落合町４５０番地２,,19,201,4000834,,,,,,,2021-12-03,1,,,,,コモリ,0
1504,5090005007449,新規,0,2021-12-03,2021-12-03,一般社団法人山梨県スケートボード協会,,その他の設立登記法人,山梨県,中巨摩郡昭和町,押越１０４番地１,,19,384,4093864,,,,,,,2021-12-03,1,,,,,ヤマナシケンスケートボードキョウカイ,0
1508,5110001036234,新規,0,2021-12-03,2021-12-03,株式会社Ｃｌｅｓｔ,,株式会社,新潟県,長岡市,川崎２丁目２４５８番地９コーポ清風１０１号室,,15,202,9400864,,,,,,,2021-12-03,1,,,,,クレスト,0
1524,5120001242153,新規,0,2021-12-03,2021-12-03,株式会社侑生,,株式会社,大阪府,大阪市東住吉区,照ケ丘矢田１丁目１７番７,,27,121,5460021,,,,,,,2021-12-03,1,,,,,ユイ,0
1525,5120001242260,新規,0,2021-12-03,2021-12-03,友橋株式会社,,株式会社,大阪府,大阪市北区,末広町１番１６－１００１号,,27,127,5300053,,,,,,,2021-12-03,1,,,,,トモハシ,0
1526,5120001242293,新規,0,2021-12-03,2021-12-03,株式会社ｃｏｃｏｒｏ心,,株式会社,大阪府,大阪市都島区,都島本通２丁目１６番１２号,,27,102,5340021,,,,,,,2021-12-03,1,,,,,ココロ,0
1528,5120003020706,新規,0,2021-12-03,2021-12-03,合同会社ＺＵＩ,,合同会社,大阪府,大阪市北区,同心２丁目４番１３号ヴェール同心１０１号室,,27,127,5300035,,,,,,,2021-12-03,1,,,,,ズイ,0
1536,5120901045275,新規,0,2021-12-03,2021-12-03,株式会社アールディー,,株式会社,大阪府,吹田市,五月が丘南４－１９,,27,205,5650832,,,,,,,2021-12-03,1,,,,,アールディー,0
1537,5120901045283,新規,0,2021-12-03,2021-12-03,株式会社Ｈｏｍｅ　Ｓｗｅｅｔ　Ｈｏｍｅ,,株式会社,大阪府,高槻市,京口町１０番３１号の２,,27,207,5690072,,,,,,,2021-12-03,1,,,,,ホームスイートホーム,0
1538,5122001035396,新規,0,2021-12-03,2021-12-03,株式会社ｔｉｅｓ,,株式会社,大阪府,柏原市,国分本町７丁目１番１４号,,27,221,5820021,,,,,,,2021-12-03,1,,,,,タイズ,0
1552,5140001124028,新規,0,2021-12-03,2021-12-03,株式会社ユースフル,,株式会社,兵庫県,南あわじ市,山添１６７番地１,,28,224,6560121,,,,,,,2021-12-03,1,,,,,ユースフル,0
1553,5140001124044,新規,0,2021-12-03,2021-12-03,株式会社Ｆ．Ｄ　ＢＵＩＬＤ,,株式会社,兵庫県,淡路市,岩屋１８２５番地２１,,28,226,6562401,,,,,,,2021-12-03,1,,,,,エフディビルド,0
1554,5140001124093,新規,0,2021-12-03,2021-12-03,株式会社ベストハウジング,,株式会社,兵庫県,高砂市,阿弥陀１丁目６番１２,,28,216,6760815,,,,,,,2021-12-03,1,,,,,ベストハウジング,0
1563,5140003017048,新規,0,2021-12-03,2021-12-03,合同会社Ｋ－２Ｔｒａｎｓｐｏｒｔ,,合同会社,兵庫県,尼崎市,西難波町１丁目１２番５－３０１号,,28,202,6600893,,,,,,,2021-12-03,1,,,,,ケーツートランスポート,0
1566,5140005025916,新規,0,2021-12-03,2021-12-03,医療法人社団きしもと眼科,,その他の設立登記法人,兵庫県,神戸市東灘区,魚崎中町１丁目９番－１１号ＹＭビル魚崎中町３０１－Ａ号室,,28,101,6580083,,,,,,,2021-12-03,1,,,,,キシモトガンカ,0
1567,5140005025924,新規,0,2021-12-03,2021-12-03,医療法人社団くればやし内科,,その他の設立登記法人,兵庫県,西宮市,薬師町２－５６クリニックステーション西宮北口１－Ｂ,,28,204,6638024,,,,,,,2021-12-03,1,,,,,クレバヤシナイカ,0
1568,5140005025932,新規,0,2021-12-03,2021-12-03,医療法人ＴＩＣ,,その他の設立登記法人,兵庫県,宝塚市,栄町２丁目１－２ソリオ２－３階,,28,214,6650845,,,,,,,2021-12-03,1,,,,,ティーアイシー,0
1570,5150001025142,新規,0,2021-12-03,2021-12-03,株式会社宝塔,,株式会社,奈良県,桜井市,大字桜井２５４番地の１１、３０４,,29,206,6330091,,,,,,,2021-12-03,1,,,,,ホウトウ,0
1571,5160001023847,新規,0,2021-12-03,2021-12-03,株式会社匠総建,,株式会社,滋賀県,大津市,坂本２丁目１３番２７号,,25,201,5200113,,,,,,,2021-12-03,1,,,,,タクミソウケン,0
1577,5170001016882,新規,0,2021-12-03,2021-12-03,株式会社Ｇｘｘｘ,,株式会社,和歌山県,和歌山市,北町２８番地１,,30,201,6408038,,,,,,,2021-12-03,1,,,,,ジーエックス,0
1578,5170001016890,新規,0,2021-12-03,2021-12-03,株式会社紀の川トマトファーム,,株式会社,和歌山県,和歌山市,西浜１丁目４番１号,,30,201,6410036,,,,,,,2021-12-03,1,,,,,キノカワトマトファーム,0
1583,5180001148997,新規,0,2021-12-03,2021-12-03,ＥＬＳＹＳクリーンサービス株式会社,,株式会社,愛知県,愛西市,大井町弥八１番地ミワ第三ビル１０８,,23,232,4960921,,,,,,,2021-12-03,1,,,,,エルシスクリーンサービス,0
1585,5180003023257,新規,0,2021-12-03,2021-12-03,合同会社アイディーケーハウス,,合同会社,愛知県,名古屋市西区,上名古屋２丁目２１番２５号,,23,104,4510025,,,,,,,2021-12-03,1,,,,,アイディーケーハウス,0
1587,5180301035689,新規,0,2021-12-03,2021-12-03,株式会社ｃｈｏｐｓｔｉｃｋｓ,,株式会社,愛知県,岡崎市,広幡町３番地１,,23,202,4440066,,,,,,,2021-12-03,1,,,,,チョップスティックス,0
1588,5180301035697,新規,0,2021-12-03,2021-12-03,株式会社未来創造,,株式会社,愛知県,岡崎市,北野町字大訳４３番地１,,23,202,4440951,,,,,,,2021-12-03,1,,,,,ミライソウゾウ,0
1593,5190001028901,新規,0,2021-12-03,2021-12-03,銘玉商事株式会社,,株式会社,三重県,津市,片田新田１３番地３,,24,201,5140000,,,,,,,2021-12-03,1,,,,,メイタマショウジ,0
1598,5200001039483,新規,0,2021-12-03,2021-12-03,株式会社ＫＹＲ,,株式会社,岐阜県,羽島市,足近町南之川８８７番地１,,21,209,5016205,,,,,,,2021-12-03,1,,,,,ケーワイアール,0
1608,5240001059016,新規,0,2021-12-03,2021-12-03,株式会社才ノ助商店,,株式会社,広島県,広島市西区,商工センター３丁目４番２１号,,34,104,7330833,,,,,,,2021-12-03,1,,,,,サイノスケショウテン,0
1609,5240001059024,新規,0,2021-12-03,2021-12-03,ＧＲＩＮＤ株式会社,,株式会社,広島県,広島市西区,己斐上２丁目１５番２６号,,34,104,7330815,,,,,,,2021-12-03,1,,,,,グラインド,0
1619,5260001036269,新規,0,2021-12-03,2021-12-03,株式会社アトリエ・ヨシミズ,,株式会社,岡山県,倉敷市,中帯江８８番地３,,33,202,7100013,,,,,,,2021-12-03,1,,,,,アトリエヨシミズ,0
1620,5260001036285,新規,0,2021-12-03,2021-12-03,エスワイ住建株式会社,,株式会社,岡山県,岡山市南区,浦安本町１６番地１１,,33,104,7028026,,,,,,,2021-12-03,1,,,,,エスワイジュウケン,0
1630,5290001095618,新規,0,2021-12-03,2021-12-03,高田創献株式会社,,株式会社,福岡県,福岡市東区,多々良１丁目１０番１１号,,40,131,8130033,,,,,,,2021-12-03,1,,,,,タカダソウケン,0
1631,5290001095659,新規,0,2021-12-03,2021-12-03,株式会社ｔｉｐｉ,,株式会社,福岡県,福岡市東区,香椎照葉６丁目４番２－３０５号フォレストプレイス香椎照葉ザ・テラス０２,,40,131,8130017,,,,,,,2021-12-03,1,,,,,ティピ,0
1636,5300001012728,新規,0,2021-12-03,2021-12-03,ライズワン株式会社,,株式会社,佐賀県,鳥栖市,田代大官町３８８番地１代官町ハイツ２０９号,,41,203,8410017,,,,,,,2021-12-03,1,,,,,ライズワン,0
1637,5310001017610,新規,0,2021-12-03,2021-12-03,株式会社泰建,,株式会社,長崎県,西海市,西彼町上岳郷２４９番地４,,42,212,8513304,,,,,,,2021-12-03,1,,,,,タイケン,0
1640,5330001029249,新規,0,2021-12-03,2021-12-03,株式会社ＭＹ企画,,株式会社,熊本県,熊本市北区,弓削５丁目２番３３号,,43,105,8618002,,,,,,,2021-12-03,1,,,,,マイキカク,0
1644,5330003009141,新規,0,2021-12-03,2021-12-03,合同会社ＳＭＩＬＥ　ＭＡＫＥＲＳ,,合同会社,熊本県,熊本市東区,尾ノ上１丁目７番２０号,,43,102,8620913,,,,,,,2021-12-03,1,,,,,スマイルメイカーズ,0
1647,5340001024307,新規,0,2021-12-03,2021-12-03,株式会社八,,株式会社,鹿児島県,出水郡長島町,諸浦１２８５番地,,46,404,8991403,,,,,,,2021-12-03,1,,,,,ハチ,0
1650,5360001029709,新規,0,2021-12-03,2021-12-03,株式会社ハピスル,,株式会社,沖縄県,那覇市,真嘉比２丁目３０番１７号,,47,201,9020068,,,,,,,2021-12-03,1,,,,,ハピスル,0
1656,5370001047890,新規,0,2021-12-03,2021-12-03,株式会社らいふ,,株式会社,宮城県,仙台市宮城野区,小田原２丁目２－４６高橋ビル１Ｆ,,04,102,9830803,,,,,,,2021-12-03,1,,,,,ライフ,0
1659,5370005010390,新規,0,2021-12-03,2021-12-03,一般社団法人心と心を繋ぐ会,,その他の設立登記法人,宮城県,宮城郡利府町,中央３丁目１０番地２メゾンルミエール２０１,,04,406,9810104,,,,,,,2021-12-03,1,,,,,ココロトココロヲツナグカイ,0
1666,5400001015695,新規,0,2021-12-03,2021-12-03,サンロード株式会社,,株式会社,岩手県,奥州市,江刺八日町１丁目３番１４－１号くり住宅３号,,03,215,0231102,,,,,,,2021-12-03,1,,,,,サンロード,0
1675,5430001085496,新規,0,2021-12-03,2021-12-03,株式会社サンセリテ,,株式会社,北海道,札幌市厚別区,厚別中央三条６丁目１番７号,,01,108,0040053,,,,,,,2021-12-03,1,,,,,サンセリテ,0
1676,5430001085505,新規,0,2021-12-03,2021-12-03,ＨＲＢ株式会社,,株式会社,北海道,札幌市中央区,南七条西１丁目６　４０７,,01,101,0640807,,,,,,,2021-12-03,1,,,,,エイチアールビー,0
1677,5430003013422,新規,0,2021-12-03,2021-12-03,合同会社たのしくらす,,合同会社,北海道,札幌市中央区,宮の森二条１１丁目３番１号,,01,101,0640952,,,,,,,2021-12-03,1,,,,,タノシクラス,0
1678,5440001008984,新規,0,2021-12-03,2021-12-03,株式会社プリマステラ,,株式会社,北海道,函館市,湯川町２丁目４３－４,,01,202,0420932,,,,,,,2021-12-03,1,,,,,プリマステラ,0
1732,6010001222842,新規,0,2021-12-03,2021-12-03,株式会社ＭＥＮＴ,,株式会社,東京都,中央区,湊３丁目１番３号,,13,102,1040043,,,,,,,2021-12-03,1,,,,,メント,0
1733,6010001222958,新規,0,2021-12-03,2021-12-03,株式会社ワタシモ,,株式会社,東京都,中央区,銀座１丁目２２－１１,,13,102,1040061,,,,,,,2021-12-03,1,,,,,ワタシモ,0
1734,6010001222974,新規,0,2021-12-03,2021-12-03,株式会社東京ダイケンビルサービス,,株式会社,東京都,千代田区,二番町１２番地２,,13,101,1020084,,,,,,,2021-12-03,1,,,,,トウキョウダイケンビルサービス,0
1735,6010001222999,新規,0,2021-12-03,2021-12-03,株式会社ＭａｒＭｏｔ,,株式会社,東京都,中央区,日本橋兜町１７番２号兜町第６葉山ビル４階,,13,102,1030026,,,,,,,2021-12-03,1,,,,,マーモット,0
1738,6010003036415,新規,0,2021-12-03,2021-12-03,一宮市北高井東地区開発合同会社,,合同会社,東京都,千代田区,神田小川町２丁目１０番地,,13,101,1010052,,,,,,,2021-12-03,1,,,,,,0
1739,6010003036423,新規,0,2021-12-03,2021-12-03,ＢｅＭＡＮＡＧＥＭＥＮＴ合同会社,,合同会社,東京都,中央区,日本橋兜町９番５－２２３号,,13,102,1030026,,,,,,,2021-12-03,1,,,,,ビーマネジメント,0
1749,6010401164172,新規,0,2021-12-03,2021-12-03,株式会社ＲｅｅｌＺ,,株式会社,東京都,港区,西新橋１丁目２番９号日比谷セントラルビル１４階,,13,103,1050003,,,,,,,2021-12-03,1,,,,,リールズ,0
1750,6010401164180,新規,0,2021-12-03,2021-12-03,株式会社ｍｕｒｍｕｒ,,株式会社,東京都,港区,白金台５丁目１１番４号,,13,103,1080071,,,,,,,2021-12-03,1,,,,,マーマー,0
1753,6010403026635,新規,0,2021-12-03,2021-12-03,合同会社メデル,,合同会社,東京都,港区,西新橋３丁目１７番７－１３０２号,,13,103,1050003,,,,,,,2021-12-03,1,,,,,メデル,0
1755,6010405020479,新規,0,2021-12-03,2021-12-03,羽生特定目的会社,,その他の設立登記法人,東京都,港区,元赤坂１丁目１番８号株式会社赤坂国際会計内,,13,103,1070051,,,,,,,2021-12-03,1,,,,,ハニュウ,0
1758,6010503006446,新規,0,2021-12-03,2021-12-03,合同会社サカイ,,合同会社,東京都,台東区,台東４丁目１４番１４号,,13,106,1100016,,,,,,,2021-12-03,1,,,,,サカイ,0
1762,6010601060320,新規,0,2021-12-03,2021-12-03,株式会社上東匠,,株式会社,東京都,江東区,亀戸１丁目１１番４号１Ｂ,,13,108,1360071,,,,,,,2021-12-03,1,,,,,ジョウトウショウ,0
1763,6010601060329,新規,0,2021-12-03,2021-12-03,株式会社サティスファクション,,株式会社,東京都,江東区,東陽３丁目５番１１号東陽ファーストビル３０１,,13,108,1350016,,,,,,,2021-12-03,1,,,,,サティスファクション,0
1767,6010603009290,新規,0,2021-12-03,2021-12-03,徳野合同会社,,合同会社,東京都,江東区,東砂４丁目１４番１３号,,13,108,1360074,,,,,,,2021-12-03,1,,,,,トクノ,0
1768,6010605004018,新規,0,2021-12-03,2021-12-03,一般社団法人あいばかい,,その他の設立登記法人,東京都,江東区,青海２丁目７番４号ｔｈｅＳＯＨＯ２０８Ｍ,,13,108,1350064,,,,,,,2021-12-03,1,,,,,アイバカイ,0
1774,6010901049914,新規,0,2021-12-03,2021-12-03,ルースト株式会社,,株式会社,東京都,世田谷区,新町１丁目１８番１０号ＮＥＷＴＯＷＮＨＩＬＬＳ２０４号室,,13,112,1540014,,,,,,,2021-12-03,1,,,,,ルースト,0
1775,6010901049922,新規,0,2021-12-03,2021-12-03,ＹＯＫホームパーティー株式会社,,株式会社,東京都,世田谷区,世田谷１丁目３２番１５号シティパーク世田谷３０３号室,,13,112,1540017,,,,,,,2021-12-03,1,,,,,ワイオーケイホームパーティー,0
1782,6011003013791,新規,0,2021-12-03,2021-12-03,Ｓｅａｌｉｌｙ合同会社,,合同会社,東京都,渋谷区,渋谷２丁目１９－１５宮益坂ビルディング６０９,,13,113,1500002,,,,,,,2021-12-03,1,,,,,シーリリィ,0
1792,6011601025577,新規,0,2021-12-03,2021-12-03,株式会社ＳＫＹ　ＳＥＲＶＥ,,株式会社,東京都,練馬区,関町北１丁目２４番１１－１０１号,,13,120,1770051,,,,,,,2021-12-03,1,,,,,スカイサーブ,0
1796,6011801040021,新規,0,2021-12-03,2021-12-03,株式会社ニコデモ,,株式会社,東京都,足立区,竹の塚１丁目４０番１５号５階,,13,121,1210813,,,,,,,2021-12-03,1,,,,,ニコデモ,0
1799,6011803004882,新規,0,2021-12-03,2021-12-03,合同会社ＥＬＥＸＯＬ,,合同会社,東京都,葛飾区,鎌倉４丁目２１番３号ハイツフジケン１０３,,13,122,1250053,,,,,,,2021-12-03,1,,,,,エレソル,0
1800,6012401038595,新規,0,2021-12-03,2021-12-03,株式会社ユニバーサルＩＲ,,株式会社,東京都,武蔵野市,吉祥寺北町３丁目８番３１号,,13,203,1800001,,,,,,,2021-12-03,1,,,,,ユニバーサルアイアール,0
1801,6012401038604,新規,0,2021-12-03,2021-12-03,株式会社シータガーデン,,株式会社,東京都,稲城市,大丸２１５番地若林第二ビル３０３,,13,225,2060801,,,,,,,2021-12-03,1,,,,,シータガーデン,0
1805,6012703002357,新規,0,2021-12-03,2021-12-03,むさしのアーツ合同会社,,合同会社,東京都,東村山市,富士見町１丁目２番地４６ファインシティ武蔵野富士見５１６,,13,213,1890024,,,,,,,2021-12-03,1,,,,,ムサシノアーツ,0
1806,6012803002653,新規,0,2021-12-03,2021-12-03,ＫＯＲＡＴＷＥＲＫ合同会社,,合同会社,東京都,立川市,曙町３丁目１８－２２シティコート立川曙町２１１号室,,13,202,1900012,,,,,,,2021-12-03,1,,,,,コラットワーク,0
1808,6013101008789,新規,0,2021-12-03,2021-12-03,株式会社ＬＥＦ　ＴＯＫＹＯ,,株式会社,東京都,福生市,大字福生二宮２４７７番地１５,,13,218,1970014,,,,,,,2021-12-03,1,,,,,エルイーエフトウキョウ,0
1820,6020001144144,新規,0,2021-12-03,2021-12-03,株式会社クラルテ,,株式会社,神奈川県,横浜市西区,戸部本町８番１６－６０１号,,14,103,2200041,,,,,,,2021-12-03,1,,,,,クラルテ,0
1828,6020003020905,新規,0,2021-12-03,2021-12-03,合同会社ＳＨＴ,,合同会社,神奈川県,川崎市中原区,新丸子東２丁目９２４番地１６,,14,133,2110004,,,,,,,2021-12-03,1,,,,,エスエイチティ,0
1829,6020003020913,新規,0,2021-12-03,2021-12-03,合同会社Ｖａｒｍトラスト,,合同会社,神奈川県,横浜市青葉区,美しが丘２丁目４０番地１１,,14,117,2250002,,,,,,,2021-12-03,1,,,,,バルムトラスト,0
1830,6021001074661,新規,0,2021-12-03,2021-12-03,ＩＣＰ－ＩＮＴＥＲＩＯＲ株式会社,,株式会社,神奈川県,大和市,深見西８丁目４－１３グランドヒル１０８,,14,213,2420018,,,,,,,2021-12-03,1,,,,,アイシーピーインテリア,0
1835,6030003018345,新規,0,2021-12-03,2021-12-03,Ｎ建グループ合同会社,,合同会社,埼玉県,所沢市,泉町９０８番地の２６,,11,208,3591112,,,,,,,2021-12-03,1,,,,,エヌケングループ,0
1841,6040001121216,新規,0,2021-12-03,2021-12-03,株式会社ユウスイ,,株式会社,千葉県,松戸市,金ケ作２５５番地の３８,,12,207,2702251,,,,,,,2021-12-03,1,,,,,ユウスイ,0
1842,6040001121224,新規,0,2021-12-03,2021-12-03,株式会社ＣＨＡＲＭ５,,株式会社,千葉県,市川市,菅野４丁目１０－６,,12,203,2720824,,,,,,,2021-12-03,1,,,,,チャームズ,0
1843,6040001121257,新規,0,2021-12-03,2021-12-03,株式会社ラピコス,,株式会社,千葉県,習志野市,実籾５丁目９番２８号,00125027,12,216,2750002,,,,,,,2021-12-03,1,,,,,ラピコス,0
1847,6040003019029,新規,0,2021-12-03,2021-12-03,合同会社Ｔｈａｉ　Ｃｏｒｎｅｒ　Ａｓｉａ　Ｓｔｏｒｅ,,合同会社,千葉県,市川市,新浜１丁目２番１,,12,203,2720136,,,,,,,2021-12-03,1,,,,,タイコーナーアジアストア,0
1848,6040003019037,新規,0,2021-12-03,2021-12-03,合同会社大吉,,合同会社,千葉県,船橋市,西船５丁目２番６号,,12,204,2730031,,,,,,,2021-12-03,1,,,,,ダイキチ,0
1849,6040003019045,新規,0,2021-12-03,2021-12-03,合同会社うるつ,,合同会社,千葉県,市原市,喜多６１３番地６３,,12,219,2900167,,,,,,,2021-12-03,1,,,,,ウルツ,0
1850,6040003019061,新規,0,2021-12-03,2021-12-03,合同会社ＣＫ　ＥＮＴＥＲＰＲＩＳＥＳ,,合同会社,千葉県,八千代市,島田９０３番地４,,12,221,2760005,,,,,,,2021-12-03,1,,,,,シーケーエンタープライゼス,0
1852,6050001050232,新規,0,2021-12-03,2021-12-03,株式会社森電テクニカ,,株式会社,茨城県,取手市,西１丁目９番３号,,08,217,3020025,,,,,,,2021-12-03,1,,,,,モリデンテクニカ,0
1853,6050001050240,新規,0,2021-12-03,2021-12-03,株式会社Ｋ・Ｙ,,株式会社,茨城県,水戸市,吉沢町３５４番地３０,,08,201,3100845,,,,,,,2021-12-03,1,,,,,ケーワイ,0
1854,6050001050257,新規,0,2021-12-03,2021-12-03,株式会社ＹＣ境,,株式会社,茨城県,猿島郡境町,７１７,,08,546,3060433,,,,,,,2021-12-03,1,,,,,ワイシーサカイ,0
1862,6060001034333,新規,0,2021-12-03,2021-12-03,株式会社高スピリット,00125025,株式会社,栃木県,宇都宮市,屋板町１２２番地１３,,09,201,3210112,,,,,,,2021-12-03,1,,,,,タカスピリット,0
1865,6070001038705,新規,0,2021-12-03,2021-12-03,株式会社サンガレージ,,株式会社,群馬県,藤岡市,下大塚７５３番地１,,10,209,3750052,,,,,,,2021-12-03,1,,,,,サンガレージ,0
1873,6080401025500,新規,0,2021-12-03,2021-12-03,ＨＭＫ　Ｎｅｘｕｓ株式会社,,株式会社,静岡県,浜松市南区,寺脇町１７０１番地の１,,22,134,4300841,,,,,,,2021-12-03,1,,,,,エイチエムケイネクサス,0
1875,6090001017302,新規,0,2021-12-03,2021-12-03,株式会社エレファクト,,株式会社,山梨県,上野原市,野田尻１０３３番地,,19,212,4090125,,,,,,,2021-12-03,1,,,,,エレファクト,0
1876,6090005007448,新規,0,2021-12-03,2021-12-03,一般社団法人ＦＣｙＦＩＮＥＰＬＵＳ,,その他の設立登記法人,山梨県,甲府市,宮前町６番４３号,,19,201,4000021,,,,,,,2021-12-03,1,,,,,エフシーワイファインプラス,0
1890,6120001242160,新規,0,2021-12-03,2021-12-03,ランドマ－ク株式会社,,株式会社,大阪府,大阪市中央区,難波４丁目１番１５号近鉄難波ビル１階,,27,128,5420076,,,,,,,2021-12-03,1,,,,,ランドマーク,0
1891,6120001242185,新規,0,2021-12-03,2021-12-03,株式会社ＪＣＷ毯帝,,株式会社,大阪府,大阪市阿倍野区,阪南町５丁目４番２８号ファイブコート阪南町２階２号室,,27,119,5450021,,,,,,,2021-12-03,1,,,,,ジェイシーダブリュタンテイ,0
1892,6120001242219,新規,0,2021-12-03,2021-12-03,株式会社ＡＬＬＩＥＲ,,株式会社,大阪府,大阪市淀川区,木川西４丁目１番３１号,,27,123,5320013,,,,,,,2021-12-03,1,,,,,アリエ,0
1893,6120001242235,新規,0,2021-12-03,2021-12-03,畠山工業株式会社,,株式会社,大阪府,大阪市東淀川区,東中島２丁目２３番２５号,,27,114,5330033,,,,,,,2021-12-03,1,,,,,ハタケヤマコウギョウ,0
1894,6120001242251,新規,0,2021-12-03,2021-12-03,株式会社竹田製作所,,株式会社,大阪府,大阪市住之江区,東加賀屋１丁目１２番９－１１０４号,,27,125,5590012,,,,,,,2021-12-03,1,,,,,タケダセイサクショ,0
1895,6120001242276,新規,0,2021-12-03,2021-12-03,株式会社東光ホームズ,,株式会社,大阪府,大阪市中央区,北久宝寺四丁目４番１５号,,27,128,5390000,,,,,,,2021-12-03,1,,,,,トウコウホームズ,0
1896,6120001242292,新規,0,2021-12-03,2021-12-03,ｚｏｋｕ株式会社,,株式会社,大阪府,大阪市中央区,日本橋２丁目１番２２号上野ビル２０１,,27,128,5420073,,,,,,,2021-12-03,1,,,,,ゾク,0
1897,6120003020688,新規,0,2021-12-03,2021-12-03,合同会社Ｌｅｈ,,合同会社,大阪府,大阪市中央区,南船場２丁目１０番１７号,,27,128,5420081,,,,,,,2021-12-03,1,,,,,レフ,0
1898,6120003020696,新規,0,2021-12-03,2021-12-03,ＣｏＭ合同会社,,合同会社,大阪府,大阪市住吉区,帝塚山西４丁目３番８号,,27,120,5580052,,,,,,,2021-12-03,1,,,,,シーオーエム,0
1902,6120005022633,新規,0,2021-12-03,2021-12-03,一般社団法人りりあん,,その他の設立登記法人,大阪府,枚方市,長尾元町６丁目３９番１５号,,27,210,5730163,,,,,,,2021-12-03,1,,,,,リリアン,0
1905,6120103004459,新規,0,2021-12-03,2021-12-03,合同会社ＹＨｏＫＳＯ,,合同会社,大阪府,河内長野市,汐の宮町３０番２１号,,27,216,5860011,,,,,,,2021-12-03,1,,,,,ヨーコソ,0
1908,6120901045282,新規,0,2021-12-03,2021-12-03,株式会社Ｎｏｂｌｅ　Ｎｅｔ,,株式会社,大阪府,吹田市,広芝町１２番３１号,,27,205,5640052,,,,,,,2021-12-03,1,,,,,ノーブルネット,0
1909,6120901045299,新規,0,2021-12-03,2021-12-03,株式会社ササキアニマルコーポレーション,,株式会社,大阪府,高槻市,城東町１番８号,,27,207,5690052,,,,,,,2021-12-03,1,,,,,ササキアニマルコーポレーション,0
1910,6122001035404,新規,0,2021-12-03,2021-12-03,株式会社古木興業,,株式会社,大阪府,大東市,三箇３丁目６番６号メゾン山口２番館３－Ａ,,27,218,5740077,,,,,,,2021-12-03,1,,,,,フルキコウギョウ,0
1911,6122003002229,新規,0,2021-12-03,2021-12-03,フィクス合同会社,,合同会社,大阪府,八尾市,沼４丁目５番地,,27,212,5810036,,,,,,,2021-12-03,1,,,,,フィクス,0
1915,6130003007610,新規,0,2021-12-03,2021-12-03,合同会社京都丹波自然工房,,合同会社,京都府,南丹市,日吉町保野田狭間２８番地３,,26,213,6290301,,,,,,,2021-12-03,1,,,,,キョウトタンバシゼンコウボウ,0
1922,6140001124027,新規,0,2021-12-03,2021-12-03,株式会社Ｅｍａｊｕｎ,,株式会社,兵庫県,姫路市,辻井８丁目６番２６号,00125022,28,201,6700083,,,,,,,2021-12-03,1,,,,,エマージュン,0
1923,6140001124035,新規,0,2021-12-03,2021-12-03,株式会社大健工業,,株式会社,兵庫県,たつの市,揖保川町片島９０６番地３８,,28,229,6711651,,,,,,,2021-12-03,1,,,,,ダイケンコウギョウ,0
1924,6140001124043,新規,0,2021-12-03,2021-12-03,株式会社テラコッタ,,株式会社,兵庫県,西宮市,高松町７番３６号,,28,204,6638204,,,,,,,2021-12-03,1,,,,,テラコッタ,0
1925,6140001124051,新規,0,2021-12-03,2021-12-03,ＯＳＰ株式会社,,株式会社,兵庫県,淡路市,志筑３９６９番地３,,28,226,6562131,,,,,,,2021-12-03,1,,,,,オーエスピー,0
1928,6140005025915,新規,0,2021-12-03,2021-12-03,医療法人社団律誠会,,その他の設立登記法人,兵庫県,明石市,藤江若林１０５４番地の５,,28,203,6730045,,,,,,,2021-12-03,1,,,,,リッセイカイ,0
1929,6140005025923,新規,0,2021-12-03,2021-12-03,医療法人社団梶歯科医院,,その他の設立登記法人,兵庫県,神戸市垂水区,天ノ下町１番地１０の２２３,,28,108,6550029,,,,,,,2021-12-03,1,,,,,カジシカイイン,0
1930,6140005025931,新規,0,2021-12-03,2021-12-03,医療法人社団なかた歯科クリニック,,その他の設立登記法人,兵庫県,神戸市西区,水谷２丁目７番１号,,28,111,6512121,,,,,,,2021-12-03,1,,,,,ナカタシカクリニック,0
1935,6160001023846,新規,0,2021-12-03,2021-12-03,株式会社オパール,,株式会社,滋賀県,大津市,皇子が丘３丁目９番１３号ハイツ紅葉２０２号室,,25,201,5200025,,,,,,,2021-12-03,1,,,,,オパール,0
1948,6180001148922,新規,0,2021-12-03,2021-12-03,株式会社ジャングルジム,,株式会社,愛知県,名古屋市南区,星宮町２３５番地リバーサイド２３５　１０２号,,23,112,4570055,,,,,,,2021-12-03,1,,,,,ジャングルジム,0
1949,6180001149012,新規,0,2021-12-03,2021-12-03,株式会社リロード,,株式会社,愛知県,名古屋市中村区,鳥居通２丁目１２番地１Ｆ,,23,105,4530044,,,,,,,2021-12-03,1,,,,,リロード,0
1950,6180001149020,新規,0,2021-12-03,2021-12-03,株式会社インセクトＩＴ,,株式会社,愛知県,名古屋市千種区,赤坂町２丁目２１番地ショッピ赤坂ビル２０４,,23,101,4640094,,,,,,,2021-12-03,1,,,,,インセクトアイティー,0
1958,6180301035688,新規,0,2021-12-03,2021-12-03,株式会社ＨＨ,,株式会社,愛知県,岡崎市,梅園町字虎石１番地４,,23,202,4440031,,,,,,,2021-12-03,1,,,,,エイチエイチ,0
1965,6200001039490,新規,0,2021-12-03,2021-12-03,株式会社Ｃｉｖｉｌ　Ｓｕｐｐｏｒｔ,,株式会社,岐阜県,羽島市,舟橋町宮北２丁目３５番地（ゲイラハイツ２０２号室）,,21,209,5016301,,,,,,,2021-12-03,1,,,,,シビルサポート,0
1972,6230003001768,新規,0,2021-12-03,2021-12-03,合同会社モリタ,,合同会社,富山県,射水市,今井２８１番地,,16,211,9340046,,,,,,,2021-12-03,1,,,,,モリタ,0
1978,6240001059007,新規,0,2021-12-03,2021-12-03,アルカナハウス株式会社,,株式会社,広島県,福山市,松永町４丁目１６番４５－２号,,34,207,7290104,,,,,,,2021-12-03,1,,,,,アルカナハウス,0
1979,6240001059015,新規,0,2021-12-03,2021-12-03,株式会社Ｋ‐プランニング,,株式会社,広島県,広島市安芸区,矢野南４丁目３番１７号,,34,107,7360086,,,,,,,2021-12-03,1,,,,,ケイプランニング,0
1987,6250001019281,新規,0,2021-12-03,2021-12-03,ＣＯＯＬ株式会社,,株式会社,山口県,周南市,大字須々万本郷１２７７－８４,,35,215,7450122,,,,,,,2021-12-03,1,,,,,クール,0
1989,6250003002954,新規,0,2021-12-03,2021-12-03,合同会社縁樹,,合同会社,山口県,山口市,小郡新町７丁目１２番１１号,,35,203,7540031,,,,,,,2021-12-03,1,,,,,エンジュ,0
1991,6260001036268,新規,0,2021-12-03,2021-12-03,株式会社１ＳＴＥＰホームサービス,,株式会社,岡山県,笠岡市,美の浜８番地５４,,33,205,7140042,,,,,,,2021-12-03,1,,,,,ワンステップホームサービス,0
1998,6290001095575,新規,0,2021-12-03,2021-12-03,株式会社ウェルネスエキスパート,,株式会社,福岡県,福岡市中央区,天神２丁目３番１０号天神パインクレスト７１９号,,40,133,8100001,,,,,,,2021-12-03,1,,,,,ウェルネスエキスパート,0
1999,6290001095583,新規,0,2021-12-03,2021-12-03,株式会社Ｅ‐Ｔｅａｍ,,株式会社,福岡県,福岡市東区,御島崎２丁目２１番１８－４０４号,,40,131,8130005,,,,,,,2021-12-03,1,,,,,イーチーム,0
2000,6290001095633,新規,0,2021-12-03,2021-12-03,株式会社ＴＩＭＥ,,株式会社,福岡県,福岡市中央区,天神２丁目１１番１号５Ｆ,,40,133,8100001,,,,,,,2021-12-03,1,,,,,タイム,0
2001,6290001095641,新規,0,2021-12-03,2021-12-03,株式会社アストロミック,,株式会社,福岡県,大野城市,月の浦１丁目５番３７号,,40,219,8160983,,,,,,,2021-12-03,1,,,,,アストロミック,0
2002,6290001095658,新規,0,2021-12-03,2021-12-03,株式会社裕護,,株式会社,福岡県,柳川市,沖端町４７番地２,,40,207,8320065,,,,,,,2021-12-03,1,,,,,ユウモリ,0
2007,6290003011893,新規,0,2021-12-03,2021-12-03,合同会社オールスマイルズ,,合同会社,福岡県,大野城市,東大利１丁目１２番２０号３０１号,,40,219,8160941,,,,,,,2021-12-03,1,,,,,オールスマイルズ,0
2010,6290801028049,新規,0,2021-12-03,2021-12-03,ＴＣＫ株式会社,,株式会社,福岡県,北九州市若松区,深町１丁目７番７３号,,40,103,8080012,,,,,,,2021-12-03,1,,,,,ティーシーケー,0
2016,6320005009949,新規,0,2021-12-03,2021-12-03,さくら咲税理士法人,,その他の設立登記法人,大分県,大分市,金池南１丁目１３番６号,,44,201,8700839,,,,,,,2021-12-03,1,,,,,サクラサク,0
2018,6330001029248,新規,0,2021-12-03,2021-12-03,株式会社ライフタクト,,株式会社,熊本県,熊本市中央区,九品寺２丁目３番７号,,43,101,8620976,,,,,,,2021-12-03,1,,,,,ライフタクト,0
2020,6330003009157,新規,0,2021-12-03,2021-12-03,合同会社たばた会計事務所,,合同会社,熊本県,熊本市北区,龍田７丁目３６番７１－３号,,43,105,8618006,,,,,,,2021-12-03,1,,,,,タバタカイケイジムショ,0
2021,6340005009377,新規,0,2021-12-03,2021-12-03,特定非営利活動法人かごしまゲンキッズ,,その他の設立登記法人,鹿児島県,鹿児島市,易居町９番６号大空パレス２階,,46,201,8920815,,,,,,,2021-12-03,1,,,,,カゴシマゲンキッズ,0
2027,6360003011614,新規,0,2021-12-03,2021-12-03,合同会社マニーホールド,,合同会社,沖縄県,島尻郡八重瀬町,字伊覇１０６番地５アビタシオンＴ・Ｋ１０６,,47,362,9010405,,,,,,,2021-12-03,1,,,,,マニーホールド,0
2037,6400001015686,新規,0,2021-12-03,2021-12-03,株式会社コネクト,,株式会社,岩手県,北上市,有田町９番５０号,,03,206,0240081,,,,,,,2021-12-03,1,,,,,コネクト,0
2038,6400001015694,新規,0,2021-12-03,2021-12-03,朝田株式会社,,株式会社,岩手県,西磐井郡平泉町,平泉字鈴沢４番地１,,03,402,0294102,,,,,,,2021-12-03,1,,,,,アサダ,0
2046,6430003013421,新規,0,2021-12-03,2021-12-03,合同会社Ｐｏｌａｒｉｓ,,合同会社,北海道,札幌市南区,澄川五条３丁目３番１１－４０２号,,01,106,0050005,,,,,,,2021-12-03,1,,,,,ポラリス,0
2048,6430005014327,新規,0,2021-12-03,2021-12-03,一般社団法人日本色彩心理学マーケティング協会,,その他の設立登記法人,北海道,札幌市東区,北七条東１丁目１番１０ー２３０１号,,01,103,0600907,,,,,,,2021-12-03,1,,,,,ニホンシキサイシンリガクマーケティングキョウカイ,0
2051,6440003001433,新規,0,2021-12-03,2021-12-03,合同会社イーグルスカイ,,合同会社,北海道,函館市,鍛治１丁目３３番２０号,,01,202,0410852,,,,,,,2021-12-03,1,,,,,,0
2055,6470001018856,新規,0,2021-12-03,2021-12-03,株式会社北野建築設計事務所,,株式会社,香川県,観音寺市,瀬戸町３丁目３番３２号,,37,205,7680065,,,,,,,2021-12-03,1,,,,,キタノケンチクセッケイジムショ,0
2056,6470005006394,新規,0,2021-12-03,2021-12-03,日本人材開発サービス協同組合,,その他の設立登記法人,香川県,高松市,楠上町１丁目８番３７号,,37,201,7600075,,,,,,,2021-12-03,1,,,,,ニホンジンザイカイハツサービス,0
2057,6480001011570,新規,0,2021-12-03,2021-12-03,株式会社セイシン食品,,株式会社,徳島県,徳島市,北沖洲４丁目１３－９,,36,201,7700872,,,,,,,2021-12-03,1,,,,,セイシンショクヒン,0
2059,6490001010043,新規,0,2021-12-03,2021-12-03,Ｑｕｉｎｔｓ株式会社,,株式会社,高知県,高知市,北本町２丁目２番８－４０４号,,39,201,7800056,,,,,,,2021-12-03,1,,,,,クインツ,0
2062,6500001023844,新規,0,2021-12-03,2021-12-03,株式会社２４７,,株式会社,愛媛県,松山市,六軒家町３番４２号ハローコートＭＭ６０３号室,,38,201,7918021,,,,,,,2021-12-03,1,,,,,ニヨンナナ,0
2081,7010001222973,新規,0,2021-12-03,2021-12-03,ＸＰ　Ａｇｅｎｔ株式会社,,株式会社,東京都,中央区,銀座６丁目９番８号銀座ＵＫビル８階,,13,102,1040061,,,,,,,2021-12-03,1,,,,,エックスピーエージェント,0
2082,7010001223030,新規,0,2021-12-03,2021-12-03,エイアイテクノロジーズ株式会社,,株式会社,東京都,千代田区,神田須田町１丁目２番７号,,13,101,1010041,,,,,,,2021-12-03,1,,,,,エイアイテクノロジーズ,0
2087,7010101014973,新規,0,2021-12-03,2021-12-03,躍進塗装株式会社,,株式会社,東京都,八王子市,元八王子町１丁目５１９番地７,,13,201,1930826,,,,,,,2021-12-03,1,,,,,ヤクシントソウ,0
2092,7010405020478,新規,0,2021-12-03,2021-12-03,一般社団法人国際人道プラットフォーム,,その他の設立登記法人,東京都,港区,赤坂６丁目３番２０号,,13,103,1070052,,,,,,,2021-12-03,1,,,,,コクサイジンドウプラットフォーム,0
2094,7010503006445,新規,0,2021-12-03,2021-12-03,ＭｅｔａＬｉｆｅ合同会社,,合同会社,東京都,台東区,千束２丁目３０番７号マンションｋ２,,13,106,1110031,,,,,,,2021-12-03,1,,,,,メタライフ,0
2097,7010601060328,新規,0,2021-12-03,2021-12-03,株式会社ベストパートナー,,株式会社,東京都,江東区,亀戸５丁目１０番６号,,13,108,1360071,,,,,,,2021-12-03,1,,,,,ベストパートナー,0
2099,7010701041863,新規,0,2021-12-03,2021-12-03,株式会社Ｈｉｗａｙ,,株式会社,東京都,品川区,北品川５丁目５番１５号大崎ブライトコア４階,,13,109,1410001,,,,,,,2021-12-03,1,,,,,ハイウェイ,0
2101,7010801032531,新規,0,2021-12-03,2021-12-03,借金１１０番株式会社,,株式会社,東京都,大田区,久が原３丁目３７番６号ステージ久が原弐番館５０１号室,,13,111,1460085,,,,,,,2021-12-03,1,,,,,シャッキンヒャクトオバン,0
2104,7010901049921,新規,0,2021-12-03,2021-12-03,株式会社ラボル,,株式会社,東京都,世田谷区,用賀４丁目１０番１号,,13,112,1580097,,,,,,,2021-12-03,1,,,,,,0
2105,7010903006978,新規,0,2021-12-03,2021-12-03,合同会社みづから音楽出版,,合同会社,東京都,世田谷区,桜新町１丁目１番６号,,13,112,1540015,,,,,,,2021-12-03,1,,,,,ミヅカラオンガクシュッパン,0
2108,7011001144282,新規,0,2021-12-03,2021-12-03,株式会社Ｔｈｅ　Ｄｅｅｐ　ＡＩ　Ｃｏｍｐａｎｙ,,株式会社,東京都,目黒区,中目黒２丁目８番７－４０３号,,13,110,1530061,,,,,,,2021-12-03,1,,,,,ザディープエーアイカンパニー,0
2113,7011203003708,新規,0,2021-12-03,2021-12-03,合同会社加藤企画,,合同会社,東京都,中野区,沼袋３丁目８番６号,,13,114,1650025,,,,,,,2021-12-03,1,,,,,カトウキカク,0
2129,7011801040020,新規,0,2021-12-03,2021-12-03,株式会社ＦＯＲＣＡＳＱ,,株式会社,東京都,足立区,神明南２丁目１２番１４号,,13,121,1210057,,,,,,,2021-12-03,1,,,,,フォーキャスク,0
2135,7012701016804,新規,0,2021-12-03,2021-12-03,株式会社５ｃｍ,,株式会社,東京都,小平市,仲町４２５－１,,13,211,1870042,,,,,,,2021-12-03,1,,,,,ゴセンチ,0
2140,7013303005897,新規,0,2021-12-03,2021-12-03,合同会社Ｎоｎ,,合同会社,東京都,豊島区,南大塚３丁目４３－７藤和シティコープ南大塚６０２,,13,116,1700005,,,,,,,2021-12-03,1,,,,,ノン,0
2149,7020001143938,新規,0,2021-12-03,2021-12-03,株式会社ＴＥＮＲＩＣＨ,,株式会社,神奈川県,横浜市神奈川区,西神奈川３丁目２番地１１第５カヤギヤビル７０１号,,14,102,2210822,,,,,,,2021-12-03,1,,,,,テンリッチ,0
2150,7020001144143,新規,0,2021-12-03,2021-12-03,ウエインズホールディングス株式会社,,株式会社,神奈川県,横浜市中区,山下町３３番地,,14,104,2310023,,,,,,,2021-12-03,1,,,,,ウエインズホールディングス,0
2159,7020003020920,新規,0,2021-12-03,2021-12-03,合同会社パクス,,合同会社,神奈川県,川崎市幸区,幸町３丁目５５５－４イトーピア多摩川グランビュー８０６,,14,132,2120011,,,,,,,2021-12-03,1,,,,,パクス,0
2165,7021001074644,新規,0,2021-12-03,2021-12-03,株式会社ＴＲＥＩＺＥ,,株式会社,神奈川県,秦野市,曲松２丁目４番７－１０号,,14,211,2591321,,,,,,,2021-12-03,1,,,,,トレーズ,0
2166,7021001074652,新規,0,2021-12-03,2021-12-03,株式会社サンエースホールディングス,,株式会社,神奈川県,愛甲郡愛川町,中津４０５８番地,,14,401,2430303,,,,,,,2021-12-03,1,,,,,サンエースホールディングス,0
2167,7021001074685,新規,0,2021-12-03,2021-12-03,株式会社ＣＩＲＣＬＥｓ,,株式会社,神奈川県,相模原市中央区,宮下本町１丁目３２番８号,,14,152,2520211,,,,,,,2021-12-03,1,,,,,サークルズ,0
2170,7021003011125,新規,0,2021-12-03,2021-12-03,合同会社天樹,,合同会社,神奈川県,相模原市緑区,日連８９３番地,,14,151,2520185,,,,,,,2021-12-03,1,,,,,テンジュ,0
2173,7030003018435,新規,0,2021-12-03,2021-12-03,合同会社セイシン,,合同会社,埼玉県,北本市,荒井４丁目２４９,,11,233,3640026,,,,,,,2021-12-03,1,,,,,セイシン,0
2174,7040001121207,新規,0,2021-12-03,2021-12-03,株式会社ＹＳＫＥホールディングス,,株式会社,千葉県,流山市,駒木６０３番地の４,,12,220,2700132,,,,,,,2021-12-03,1,,,,,ワイエスケーイーホールディングス,0
2175,7040001121215,新規,0,2021-12-03,2021-12-03,株式会社ソウシーズ,,株式会社,千葉県,八街市,八街ほ２５５番地１３,,12,230,2891115,,,,,,,2021-12-03,1,,,,,ソウシーズ,0
2176,7040003019036,新規,0,2021-12-03,2021-12-03,合同会社ＦＵＮ　ＢＡＳＥ,,合同会社,千葉県,市川市,八幡６丁目１４番２１号,,12,203,2720021,,,,,,,2021-12-03,1,,,,,ファンベース,0
2177,7040005021452,新規,0,2021-12-03,2021-12-03,協同組合ＭＵＳＵＢＩ,,その他の設立登記法人,千葉県,船橋市,湊町２丁目８番１１－２０９号,,12,204,2730011,,,,,,,2021-12-03,1,,,,,ムスビ,0
2182,7050001050198,新規,0,2021-12-03,2021-12-03,株式会社ＦＭ　ＴＲＡＤＩＮＧ,,株式会社,茨城県,坂東市,上出島１１１０番地５２アイランドコーポ１０３号,,08,228,3060654,,,,,,,2021-12-03,1,,,,,エフエムトレーディング,0
2188,7070005009924,新規,0,2021-12-03,2021-12-03,一般社団法人群馬大学医学部医学科同窓会刀城クラブ,,その他の設立登記法人,群馬県,前橋市,昭和町３丁目３９番２２号,,10,201,3710034,,,,,,,2021-12-03,1,,,,,グンマダイガクイガクブイガッカドウソウカイトウジョウクラブ,0
2191,7080001024612,新規,0,2021-12-03,2021-12-03,株式会社山脇豊左官,,株式会社,静岡県,焼津市,小川２８０５番地の２,,22,212,4250033,,,,,,,2021-12-03,1,,,,,ヤマワキユタカサカン,0
2194,7080401025499,新規,0,2021-12-03,2021-12-03,株式会社スリーアール,,株式会社,静岡県,袋井市,太田７７３番地の９,,22,216,4370052,,,,,,,2021-12-03,1,,,,,スリーアール,0
2202,7100001034856,新規,0,2021-12-03,2021-12-03,株式会社英々,,株式会社,長野県,下伊那郡松川町,元大島１７８５番地,,20,402,3993303,,,,,,,2021-12-03,1,,,,,エイエイ,0
2203,7100001034864,新規,0,2021-12-03,2021-12-03,株式会社Ｄ．テクニカル,,株式会社,長野県,長野市,三輪４丁目１８番１８号,,20,201,3800803,,,,,,,2021-12-03,1,,,,,ディーテクニカル,0
2205,7110001036232,新規,0,2021-12-03,2021-12-03,株式会社旭永,,株式会社,新潟県,新潟市南区,下塩俵８２８番地,,15,106,9501241,,,,,,,2021-12-03,1,,,,,キョクエイ,0
2206,7110003004641,新規,0,2021-12-03,2021-12-03,合同会社Ｋスタイル,,合同会社,新潟県,見附市,市野坪町２番５３－１号,,15,211,9540083,,,,,,,2021-12-03,1,,,,,ケイスタイル,0
2215,7120001242201,新規,0,2021-12-03,2021-12-03,株式会社Ｓｔａｇｅ,,株式会社,大阪府,大阪市都島区,友渕町２丁目７－１４,,27,102,5340016,,,,,,,2021-12-03,1,,,,,ステージ,0
2216,7120001242218,新規,0,2021-12-03,2021-12-03,株式会社床屋,,株式会社,大阪府,大阪市淀川区,三津屋南１丁目１０番５号,,27,123,5320035,,,,,,,2021-12-03,1,,,,,ユカヤ,0
2217,7120001242242,新規,0,2021-12-03,2021-12-03,株式会社ＭＯＵＭＯＵ,,株式会社,大阪府,大阪市西区,南堀江１丁目２０番１９号西村ビル１Ｆ,,27,106,5500015,,,,,,,2021-12-03,1,,,,,モウモウ,0
2218,7120001242259,新規,0,2021-12-03,2021-12-03,オフェスタ株式会社,,株式会社,大阪府,枚方市,楠葉並木２丁目２番４１－４０２号,,27,210,5731118,,,,,,,2021-12-03,1,,,,,オフェスタ,0
2219,7120001242267,新規,0,2021-12-03,2021-12-03,株式会社ライフラインクリエイト,,株式会社,大阪府,大阪市鶴見区,諸口６丁目３番５４－１１１１号,,27,124,5380051,,,,,,,2021-12-03,1,,,,,ライフラインクリエイト,0
2226,7120901045298,新規,0,2021-12-03,2021-12-03,株式会社久米設備,,株式会社,大阪府,高槻市,三島江１丁目３番１３号,,27,207,5690835,,,,,,,2021-12-03,1,,,,,クメセツビ,0
2230,7130001070659,新規,0,2021-12-03,2021-12-03,株式会社Ｓｅｐｔｅｎｔｒｉｏｎ,,株式会社,京都府,京都市西京区,大枝北沓掛町６丁目３番地の７,,26,111,6101101,,,,,,,2021-12-03,1,,,,,セプテントリオン,0
2240,7140001124026,新規,0,2021-12-03,2021-12-03,ＶＩＣＯ不動産株式会社,,株式会社,兵庫県,芦屋市,大東町１番１１－１０１号,,28,206,6590023,,,,,,,2021-12-03,1,,,,,ヴィーコフドウサン,0
2242,7140003017046,新規,0,2021-12-03,2021-12-03,合同会社ＤＥＮ,,合同会社,兵庫県,西宮市,北名次町９番１３－５０４号,,28,204,6620025,,,,,,,2021-12-03,1,,,,,デン,0
2244,7140005025914,新規,0,2021-12-03,2021-12-03,医療法人社団かわしま内科クリニック,,その他の設立登記法人,兵庫県,加古郡播磨町,北本荘１丁目１４番１４号,,28,382,6750144,,,,,,,2021-12-03,1,,,,,カワシマナイカクリニック,0
2245,7140005025922,新規,0,2021-12-03,2021-12-03,医療法人社団きのこ歯科こども歯科,,その他の設立登記法人,兵庫県,明石市,大久保町大久保町４５０番地の１,,28,203,6740067,,,,,,,2021-12-03,1,,,,,キノコシカコドモシカ,0
2246,7140005025930,新規,0,2021-12-03,2021-12-03,ＮＰＯ法人いながわリンク,,その他の設立登記法人,兵庫県,川辺郡猪名川町,つつじが丘５丁目４０番地８,,28,301,6660245,,,,,,,2021-12-03,1,,,,,イナガワリンク,0
2250,7150001025140,新規,0,2021-12-03,2021-12-03,株式会社リトルウイング設計事務所,,株式会社,奈良県,奈良市,西大寺国見町１丁目４番３－４２５号,,29,201,6310823,,,,,,,2021-12-03,1,,,,,リトルウイングセッケイジムショ,0
2251,7150005009354,新規,0,2021-12-03,2021-12-03,医療法人慈友会,,その他の設立登記法人,奈良県,奈良市,藤ノ木台３丁目２番１２号,,29,201,6310044,,,,,,,2021-12-03,1,,,,,ジユウカイ,0
2252,7160001023845,新規,0,2021-12-03,2021-12-03,ニンジャスワットフィールド株式会社,,株式会社,滋賀県,東近江市,南菩提寺町５７２－２,,25,213,5270136,,,,,,,2021-12-03,1,,,,,ニンジャスワットフィールド,0
2260,7180001149003,新規,0,2021-12-03,2021-12-03,株式会社エメシス,,株式会社,愛知県,一宮市,三条字小辰己１８番地２ハイツガーデン２０７号,,23,203,4940003,,,,,,,2021-12-03,1,,,,,エメシス,0
2267,7180301035687,新規,0,2021-12-03,2021-12-03,株式会社ｆｉｚ　ｂｅａｕｔｙ,,株式会社,愛知県,豊橋市,山田一番町６８番地１,,23,201,4418102,,,,,,,2021-12-03,1,,,,,フィズビューティー,0
2268,7180301035695,新規,0,2021-12-03,2021-12-03,株式会社エムキャンパス,,株式会社,愛知県,豊橋市,駅前大通２丁目８１番地ｅｍＣＡＭＰＵＳ（ＥＡＳＴ）,,23,201,4400888,,,,,,,2021-12-03,1,,,,,エムキャンパス,0
2273,7190001028899,新規,0,2021-12-03,2021-12-03,株式会社未来伊勢,,株式会社,三重県,伊勢市,岩渕２丁目８番５号,,24,203,5160037,,,,,,,2021-12-03,1,,,,,ミライセ,0
2278,7200001039481,新規,0,2021-12-03,2021-12-03,株式会社聖香園,,株式会社,岐阜県,土岐市,鶴里町細野１３６番地の２,,21,212,5095311,,,,,,,2021-12-03,1,,,,,セイカエン,0
2279,7200003005390,新規,0,2021-12-03,2021-12-03,合同会社ノース・エンド,,合同会社,岐阜県,可児市,下恵土２４８４番地１メイゾン下恵土１０２,,21,214,5090203,,,,,,,2021-12-03,1,,,,,,0
2280,7200005013284,新規,0,2021-12-03,2021-12-03,医療法人多治見矯正歯科クリニック,,その他の設立登記法人,岐阜県,多治見市,本町３丁目１０１番地１クリスタルプラザ多治見３階,,21,204,5070033,,,,,,,2021-12-03,1,,,,,タジミキョウセイシカクリニック,0
2288,7240001058998,新規,0,2021-12-03,2021-12-03,株式会社原一,,株式会社,広島県,江田島市,江田島町江南１丁目２４番６号,,34,215,7372132,,,,,,,2021-12-03,1,,,,,ハライチ,0
2289,7240001059006,新規,0,2021-12-03,2021-12-03,井上技研株式会社,,株式会社,広島県,東広島市,豊栄町清武１３１３番地１,,34,212,7392313,,,,,,,2021-12-03,1,,,,,イノウエギケン,0
2290,7240001059014,新規,0,2021-12-03,2021-12-03,株式会社Ｖｉｌｌａ中司,,株式会社,広島県,広島市安佐南区,長楽寺１丁目３２番３５号,,34,105,7310143,,,,,,,2021-12-03,1,,,,,ヴィラナカツカサ,0
2294,7250001019280,新規,0,2021-12-03,2021-12-03,株式会社ＳＳ．ｆｉｒｍ,,株式会社,山口県,下関市,幸町６番２４号,,35,201,7500001,,,,,,,2021-12-03,1,,,,,エスエスファーム,0
2295,7250003002953,新規,0,2021-12-03,2021-12-03,合同会社ＭＯＲＩＴＡ,,合同会社,山口県,下関市,菊川町久野６７５番地,,35,201,7500000,,,,,,,2021-12-03,1,,,,,モリタ,0
2298,7260001036267,新規,0,2021-12-03,2021-12-03,西谷マシナリ－株式会社,,株式会社,岡山県,倉敷市,児島下の町５丁目７番２７号,,33,202,7110906,,,,,,,2021-12-03,1,,,,,ニシタニマシナリー,0
2302,7270003001375,新規,0,2021-12-03,2021-12-03,合同会社未来創造,,合同会社,鳥取県,米子市,安倍８６６番地２,,31,202,6830846,,,,,,,2021-12-03,1,,,,,ミライソウゾウ,0
2311,7290001095616,新規,0,2021-12-03,2021-12-03,株式会社ルーチェ,,株式会社,福岡県,那珂川市,今光３丁目１７１番地,,40,231,8111211,,,,,,,2021-12-03,1,,,,,ルーチェ,0
2316,7290005018440,新規,0,2021-12-03,2021-12-03,一般社団法人ＩＫＫアカデミー,,その他の設立登記法人,福岡県,糟屋郡志免町,片峰３丁目６番５号,,40,343,8112245,,,,,,,2021-12-03,1,,,,,アイケイケイアカデミー,0
2326,7340001024305,新規,0,2021-12-03,2021-12-03,株式会社Ｃｈｅｓｔ　Ｃｏｍｐａｎｙ,,株式会社,鹿児島県,薩摩川内市,東向田町１４番１２号,,46,215,8950026,,,,,,,2021-12-03,1,,,,,チェストカンパニー,0
2327,7340005009376,新規,0,2021-12-03,2021-12-03,一般社団法人大隅バスケットボールプロモーション,,その他の設立登記法人,鹿児島県,鹿屋市,東原町６０３１番地６,,46,203,8930021,,,,,,,2021-12-03,1,,,,,,0
2328,7350003003982,新規,0,2021-12-03,2021-12-03,合同会社進化,,合同会社,宮崎県,延岡市,野田３丁目５－２,,45,203,8820805,,,,,,,2021-12-03,1,,,,,シンカ,0
2337,7360001029715,新規,0,2021-12-03,2021-12-03,株式会社バイオクレイ,,株式会社,沖縄県,宮古島市,平良字西里４６５番地１,,47,214,9060012,,,,,,,2021-12-03,1,,,,,バイオクレイ,0
2347,7380003005068,新規,0,2021-12-03,2021-12-03,合同会社吉田コンサルタント,,合同会社,福島県,いわき市,錦町江栗３丁目７０番地の１,,07,204,9748232,,,,,,,2021-12-03,1,,,,,ヨシダコンサルタント,0
2349,7390001016702,新規,0,2021-12-03,2021-12-03,株式会社太陽設備工業,,株式会社,山形県,南陽市,萩生田１３２１番地,,06,213,9992263,,,,,,,2021-12-03,1,,,,,タイヨウセツビコウギョウ,0
2351,7390003001900,新規,0,2021-12-03,2021-12-03,合同会社Ｙ＆Ｍ,,合同会社,山形県,新庄市,住吉町２番２９号,,06,205,9960022,,,,,,,2021-12-03,1,,,,,ワイアンドエム,0
2353,7390005008927,新規,0,2021-12-03,2021-12-03,医療法人社団馬見ヶ崎こどもクリニック,,その他の設立登記法人,山形県,山形市,馬見ケ崎１丁目１８番６号,,06,201,9900810,,,,,,,2021-12-03,1,,,,,マミガサキコドモクリニック,0
2358,7410005006440,新規,0,2021-12-03,2021-12-03,特定非営利活動法人オレンジＡＫＩＴＡ,,その他の設立登記法人,秋田県,秋田市,本道一丁目１番１号,,05,201,0100000,,,,,,,2021-12-03,1,,,,,,0
2370,7430003013420,新規,0,2021-12-03,2021-12-03,合同会社夕工建設,,合同会社,北海道,札幌市東区,中沼町１８１番地９,,01,103,0070890,,,,,,,2021-12-03,1,,,,,ユウコウケンセツ,0
2374,7450001013544,新規,0,2021-12-03,2021-12-03,Ｂｅｉｎｇ株式会社,,株式会社,北海道,富良野市,幸町１３番１号,,01,229,0760024,,,,,,,2021-12-03,1,,,,,ビーイング,0
2379,7460305001970,新規,0,2021-12-03,2021-12-03,一般社団法人シャノワール,,その他の設立登記法人,北海道,北見市,高栄東町２丁目１１番３５号,,01,208,0900051,,,,,,,2021-12-03,1,,,,,シャノワール,0
2394,8010001222972,新規,0,2021-12-03,2021-12-03,株式会社マールマッチング,,株式会社,東京都,千代田区,麹町４丁目１番地１麹町ダイヤモンドビル,,13,101,1020083,,,,,,,2021-12-03,1,,,,,マールマッチング,0
2397,8010003036454,新規,0,2021-12-03,2021-12-03,合同会社ウィル・ライズ,,合同会社,東京都,中央区,明石町１番３－６１４号,,13,102,1040044,,,,,,,2021-12-03,1,,,,,ウィルライズ,0
2398,8010005034282,新規,0,2021-12-03,2021-12-03,一般社団法人遠隔健康医療相談適正推進機構,,その他の設立登記法人,東京都,中央区,築地１丁目１３番１号,,13,102,1040045,,,,,,,2021-12-03,1,,,,,エンカクケンコウイリョウソウダンテキセイスイシンキコウ,0
2399,8010005034290,新規,0,2021-12-03,2021-12-03,一般社団法人日本ウズベキスタン文化センター,,その他の設立登記法人,東京都,中央区,日本橋堀留町２丁目６番６号,,13,102,1030012,,,,,,,2021-12-03,1,,,,,ニホンウズベキスタンブンカセンター,0
2407,8010401164154,新規,0,2021-12-03,2021-12-03,ボルトテックジャパン株式会社,,株式会社,東京都,港区,虎ノ門４丁目３番２０号,,13,103,1050001,,,,,,,2021-12-03,1,,,,,ボルトテックジャパン,0
2408,8010401164195,新規,0,2021-12-03,2021-12-03,シタデル・セキュリティーズ証券設立準備株式会社,,株式会社,東京都,港区,南麻布３丁目１９番２３号オーク南麻布ビル２階,,13,103,1060047,,,,,,,2021-12-03,1,,,,,シタデルセキュリティーズショウケンセツリツジュンビ,0
2410,8010403026625,新規,0,2021-12-03,2021-12-03,９Ｌｉｖｅｓ合同会社,,合同会社,東京都,港区,三田３丁目７番１３－７０８号,,13,103,1080073,,,,,,,2021-12-03,1,,,,,ナインアライヴス,0
2412,8010405020477,新規,0,2021-12-03,2021-12-03,Ｓｈａｃｈｉ一般社団法人,,その他の設立登記法人,東京都,港区,虎ノ門３丁目２２番１０－２０１号,,13,103,1050001,,,,,,,2021-12-03,1,,,,,シャチ,0
2414,8010603009280,新規,0,2021-12-03,2021-12-03,合同会社Ｔｗｏ　Ｔｈｉｒｄｓ,,合同会社,東京都,江東区,東砂８丁目４番１２－１０７号,,13,108,1360074,,,,,,,2021-12-03,1,,,,,ツーサード,0
2415,8010603009289,新規,0,2021-12-03,2021-12-03,合同会社Ｈａｒｖｅｙ,,合同会社,東京都,江東区,大島４丁目８番８号ルフォンリブレ大島４０１号室,,13,108,1360072,,,,,,,2021-12-03,1,,,,,ハーヴィー,0
2424,8010901049929,新規,0,2021-12-03,2021-12-03,株式会社Ｌｕｃｅｎｔ,,株式会社,東京都,世田谷区,喜多見５丁目１７番２０号－５,,13,112,1570067,,,,,,,2021-12-03,1,,,,,ルーセント,0
2426,8010903006977,新規,0,2021-12-03,2021-12-03,Ｊｉｎｇｌｅ　Ｊａｎｇｌｅ合同会社,,合同会社,東京都,世田谷区,桜新町１丁目１番６号,,13,112,1540015,,,,,,,2021-12-03,1,,,,,ジングルジャングル,0
2431,8011001144380,新規,0,2021-12-03,2021-12-03,株式会社Ｓｅａ,,株式会社,東京都,渋谷区,渋谷２丁目１９番１５－６０９号宮益坂ビルディング,,13,113,1500002,,,,,,,2021-12-03,1,,,,,シー,0
2441,8011303004225,新規,0,2021-12-03,2021-12-03,ＲＯＭＩ　ＩＮＴＥＲＮＡＴＩＯＮＡＬ合同会社,,合同会社,東京都,杉並区,阿佐谷北４丁目２番１４号ライフピア阿佐ヶ谷北２０１,,13,115,1660001,,,,,,,2021-12-03,1,,,,,ロミインターナショナル,0
2443,8011601025575,新規,0,2021-12-03,2021-12-03,ＤＯ－ＴＡＮＫ株式会社,,株式会社,東京都,練馬区,石神井町８丁目４７番１０号,,13,120,1770041,,,,,,,2021-12-03,1,,,,,ドゥタンク,0
2449,8011701024881,新規,0,2021-12-03,2021-12-03,秋東精工株式会社,,株式会社,東京都,江戸川区,船堀３丁目１０番２２号,,13,123,1340091,,,,,,,2021-12-03,1,,,,,シュウトウセイコウ,0
2451,8011801040028,新規,0,2021-12-03,2021-12-03,株式会社ビサイド,,株式会社,東京都,足立区,東和３丁目４番１４－９０２号,,13,121,1200003,,,,,,,2021-12-03,1,,,,,ビサイド,0
2453,8011803004880,新規,0,2021-12-03,2021-12-03,合同会社クレッセントコート,,合同会社,東京都,足立区,竹の塚５丁目６番１６－７０１号,,13,121,1210813,,,,,,,2021-12-03,1,,,,,クレッセントコート,0
2457,8012401038560,新規,0,2021-12-03,2021-12-03,株式会社Ｅｓｐａｃｅ　Ｌａｂ,,株式会社,東京都,三鷹市,牟礼４丁目２１番２３号２Ｆ,,13,204,1810002,,,,,,,2021-12-03,1,,,,,イースペースラボ,0
2458,8012401038602,新規,0,2021-12-03,2021-12-03,宮本スパイス株式会社,,株式会社,東京都,狛江市,岩戸南３丁目３番１１号,,13,219,2010005,,,,,,,2021-12-03,1,,,,,ミヤモトスパイス,0
2459,8012401038610,新規,0,2021-12-03,2021-12-03,株式会社ｙｕａｉｔｏ,,株式会社,東京都,多摩市,乞田７０７番地ファミリーナ・タマＩ－３０２,00125023,13,224,2060014,,,,,,,2021-12-03,1,,,,,ユアイト,0
2481,8020001144118,新規,0,2021-12-03,2021-12-03,株式会社ｓｌｏｗｐｌｉｎｅ,,株式会社,神奈川県,横浜市港北区,師岡町１１６０番地１２大倉山パークハイツ５２７,,14,109,2220002,,,,,,,2021-12-03,1,,,,,スロープライン,0
2482,8020001144200,新規,0,2021-12-03,2021-12-03,株式会社ＲＡＩＮＢＯＷ　ＣＩＴＹ,,株式会社,神奈川県,横浜市神奈川区,鶴屋町３丁目３３番地の８アサヒビル３Ｆ,,14,102,2210835,,,,,,,2021-12-03,1,,,,,レインボーシティ,0
2483,8020001144209,新規,0,2021-12-03,2021-12-03,株式会社ペアーズ,,株式会社,神奈川県,横浜市西区,南幸２丁目１６番２０号オーチュー横浜ビル７階,,14,103,2200005,,,,,,,2021-12-03,1,,,,,ペアーズ,0
2490,8021001074635,新規,0,2021-12-03,2021-12-03,株式会社すぷらうとアカデミー,,株式会社,神奈川県,小田原市,中里４７番地の７,,14,206,2500872,,,,,,,2021-12-03,1,,,,,スプラウトアカデミー,0
2491,8021001074643,新規,0,2021-12-03,2021-12-03,株式会社Ｈｉｒａｍｅｋｕ,,株式会社,神奈川県,藤沢市,辻堂西海岸１丁目５番８～１３号,,14,205,2510046,,,,,,,2021-12-03,1,,,,,ヒラメク,0
2492,8021001074651,新規,0,2021-12-03,2021-12-03,株式会社インターネボット,,株式会社,神奈川県,愛甲郡愛川町,半原３１０８－２,,14,401,2430307,,,,,,,2021-12-03,1,,,,,インターネボット,0
2493,8021001074684,新規,0,2021-12-03,2021-12-03,朋月総業株式会社,,株式会社,神奈川県,伊勢原市,桜台２丁目７番３６号ホワイトハイム１０２,,14,214,2591132,,,,,,,2021-12-03,1,,,,,ホウヅキソウギョウ,0
2499,8030003018434,新規,0,2021-12-03,2021-12-03,合同会社優の字,,合同会社,埼玉県,川口市,芝富士２丁目９番１８号,,11,203,3330854,,,,,,,2021-12-03,1,,,,,ユウノジ,0
2500,8030005020644,新規,0,2021-12-03,2021-12-03,特定非営利活動法人しいのみ学童クラブ,,その他の設立登記法人,埼玉県,熊谷市,上之１７９５番地１,,11,202,3600012,,,,,,,2021-12-03,1,,,,,シイノミガクドウクラブ,0
2508,8040001121222,新規,0,2021-12-03,2021-12-03,株式会社ケアコネクト,,株式会社,千葉県,市原市,山木１１９１番地３,,12,219,2900005,,,,,,,2021-12-03,1,,,,,ケアコネクト,0
2509,8040001121239,新規,0,2021-12-03,2021-12-03,株式会社エフパークジャパン,,株式会社,千葉県,富津市,富津４９番地１１,,12,226,2930021,,,,,,,2021-12-03,1,,,,,エフパークジャパン,0
2510,8040001121271,新規,0,2021-12-03,2021-12-03,株式会社Ｔｏｂｉｒａ,,株式会社,千葉県,柏市,藤ケ谷５８０－１パークレジデンス２０２,,12,217,2770931,,,,,,,2021-12-03,1,,,,,トビラ,0
2514,8040003019051,新規,0,2021-12-03,2021-12-03,合同会社ＢＥＹＯＮＤ,,合同会社,千葉県,木更津市,長須賀９２３－１レジデンス木更津Ｃ棟,,12,206,2920054,,,,,,,2021-12-03,1,,,,,ビヨンド,0
2516,8050001050230,新規,0,2021-12-03,2021-12-03,たちばな産業株式会社,,株式会社,茨城県,土浦市,荒川沖２３６番地１５,,08,203,3000873,,,,,,,2021-12-03,1,,,,,タチバナサンギョウ,0
2517,8050001050239,新規,0,2021-12-03,2021-12-03,株式会社恵比寿,,株式会社,茨城県,土浦市,荒川沖６１番８,,08,203,3000873,,,,,,,2021-12-03,1,,,,,エビス,0
2520,8060001034331,新規,0,2021-12-03,2021-12-03,株式会社シオングループ,,株式会社,栃木県,小山市,大字三拝川岸２８５番地１２,,09,208,3230015,,,,,,,2021-12-03,1,,,,,シオングループ,0
2525,8070001038711,新規,0,2021-12-03,2021-12-03,株式会社はなはな,,株式会社,群馬県,高崎市,上滝町４９８番地１,,10,202,3700027,,,,,,,2021-12-03,1,,,,,ハナハナ,0
2532,8080401025498,新規,0,2021-12-03,2021-12-03,株式会社ｔｒｅｖｏ,,株式会社,静岡県,浜松市中区,高丘西２丁目３３番２９号,,22,131,4338118,,,,,,,2021-12-03,1,,,,,トレーヴォ,0
2533,8080401025507,新規,0,2021-12-03,2021-12-03,株式会社ラフ,,株式会社,静岡県,磐田市,富士見台４番地６,,22,211,4380088,,,,,,,2021-12-03,1,,,,,ラフ,0
2538,8090003001995,新規,0,2021-12-03,2021-12-03,合同会社グリーンライフ,,合同会社,山梨県,都留市,古川渡１８５―１,,19,204,4020004,,,,,,,2021-12-03,1,,,,,グリーンライフ,0
2541,8100001034855,新規,0,2021-12-03,2021-12-03,株式会社エビデント,,株式会社,長野県,上伊那郡辰野町,大字伊那富６６６６番地,,20,382,3990428,,,,,,,2021-12-03,1,,,,,エビデント,0
2544,8110001036231,新規,0,2021-12-03,2021-12-03,Ｇｏｏｄ　ｎａｐ株式会社,,株式会社,新潟県,胎内市,羽黒１２９４番地１,,15,227,9592624,,,,,,,2021-12-03,1,,,,,グッドナップ,0
2545,8110003004640,新規,0,2021-12-03,2021-12-03,合同会社都市企画開発研究所,,合同会社,新潟県,長岡市,曙３丁目３番地１２－２０２,,15,202,9400832,,,,,,,2021-12-03,1,,,,,トシキカクカイハツケンキュウジョ,0
2552,8120001242217,新規,0,2021-12-03,2021-12-03,久星株式会社,,株式会社,大阪府,大阪市生野区,巽北１丁目１番１号１Ｆ－Ｈ,00125032,27,116,5440004,,,,,,,2021-12-03,1,,,,,キュウセイ,0
2553,8120001242225,新規,0,2021-12-03,2021-12-03,株式会社タヤマ商店,,株式会社,大阪府,大阪市平野区,加美鞍作２丁目８番１９号,,27,126,5470004,,,,,,,2021-12-03,1,,,,,タヤマショウテン,0
2554,8120001242233,新規,0,2021-12-03,2021-12-03,株式会社ＢＡＳＥＬＡＢ　ＣＯＭＰＡＮＹ,,株式会社,大阪府,大阪市都島区,都島南通２丁目４番１４号ＴＳビル３０３,,27,102,5340023,,,,,,,2021-12-03,1,,,,,ベースラボカンパニー,0
2555,8120001242266,新規,0,2021-12-03,2021-12-03,株式会社北村商会,,株式会社,大阪府,大阪市東淀川区,豊里５丁目６番１７号１０２,,27,114,5330013,,,,,,,2021-12-03,1,,,,,キタムラショウカイ,0
2556,8120001242282,新規,0,2021-12-03,2021-12-03,Ｋ’ｚメタル株式会社,,株式会社,大阪府,大阪市西淀川区,大和田６丁目１６番２９号,,27,113,5550032,,,,,,,2021-12-03,1,,,,,ケーズメタル,0
2557,8120001242290,新規,0,2021-12-03,2021-12-03,株式会社メイクプロジェクト,,株式会社,大阪府,大阪市阿倍野区,阪南町２丁目１番１５号,,27,119,5450021,,,,,,,2021-12-03,1,,,,,メイクプロジェクト,0
2574,8122001035402,新規,0,2021-12-03,2021-12-03,株式会社アーチ,,株式会社,大阪府,八尾市,千塚２丁目１６２番地,,27,212,5810862,,,,,,,2021-12-03,1,,,,,アーチ,0
2581,8130001070633,新規,0,2021-12-03,2021-12-03,株式会社ＲＢＴ,,株式会社,京都府,京都市伏見区,深草加賀屋敷町２１番地１３,,26,109,6128434,,,,,,,2021-12-03,1,,,,,アールビーティー,0
2582,8130001070641,新規,0,2021-12-03,2021-12-03,株式会社京都電子美術査定社,,株式会社,京都府,京都市上京区,中立売通堀川西入役人町２６０番地,,26,102,6028241,,,,,,,2021-12-03,1,,,,,キョウトデンシビジュツサテイシャ,0
2584,8130003007609,新規,0,2021-12-03,2021-12-03,合同会社ｓａｊｉ,,合同会社,京都府,京都市中京区,押小路通御幸町西入橘町６０４番地,,26,104,6040944,,,,,,,2021-12-03,1,,,,,サジ,0
2590,8140001124033,新規,0,2021-12-03,2021-12-03,株式会社佐藤祐,,株式会社,兵庫県,尼崎市,崇徳院２丁目１５７番地,,28,202,6600071,,,,,,,2021-12-03,1,,,,,サトウユウ,0
2591,8140001124074,新規,0,2021-12-03,2021-12-03,株式会社伊藤,,株式会社,兵庫県,姫路市,北条宮の町２５８番地キノシタビル４０２,,28,201,6700948,,,,,,,2021-12-03,1,,,,,イトウ,0
2600,8160001023844,新規,0,2021-12-03,2021-12-03,株式会社プラスワン,,株式会社,滋賀県,栗東市,高野５００番地１０,,25,208,5203045,,,,,,,2021-12-03,1,,,,,プラスワン,0
2602,8170003001665,新規,0,2021-12-03,2021-12-03,ＷｈｉｔｅＲｏｃｋ合同会社,,合同会社,和歌山県,和歌山市,梶取２８１番地３,,30,201,6408411,,,,,,,2021-12-03,1,,,,,ホワイトロック,0
2612,8180301035686,新規,0,2021-12-03,2021-12-03,株式会社ＫＳＫ,,株式会社,愛知県,刈谷市,泉田町割田３４番地,,23,210,4480004,,,,,,,2021-12-03,1,,,,,ケーエスケー,0
2613,8180301035694,新規,0,2021-12-03,2021-12-03,株式会社ＵＧ,,株式会社,愛知県,豊橋市,藤沢町５４番地２,,23,201,4418061,,,,,,,2021-12-03,1,,,,,ユージー,0
2617,8190001028898,新規,0,2021-12-03,2021-12-03,株式会社ＪＳＬ　ＪＡＰＡＮ,,株式会社,三重県,四日市市,新正４丁目７番８号,,24,202,5100064,,,,,,,2021-12-03,1,,,,,ジェイエスエルジャパン,0
2627,8210001018715,新規,0,2021-12-03,2021-12-03,永平寺エステート株式会社,,株式会社,福井県,吉田郡永平寺町,松岡春日３丁目７６－１,,18,322,9101133,,,,,,,2021-12-03,1,,,,,エイヘイジエステート,0
2634,8240001059005,新規,0,2021-12-03,2021-12-03,株式会社ＳＥＲＩＮＯＡＨ,,株式会社,広島県,広島市中区,舟入幸町３番１－１３０２号,,34,101,7300844,,,,,,,2021-12-03,1,,,,,セリノア,0
2635,8240001059021,新規,0,2021-12-03,2021-12-03,株式会社シンクロニシティ,,株式会社,広島県,広島市東区,牛田新町４丁目１９番２号１０１号,,34,102,7320068,,,,,,,2021-12-03,1,,,,,,0
2640,8240005015301,新規,0,2021-12-03,2021-12-03,一般社団法人スポーツプロモーション福山,,その他の設立登記法人,広島県,福山市,明王台３丁目７番２９号,,34,207,7200834,,,,,,,2021-12-03,1,,,,,スポーツプロモーションフクヤマ,0
2646,8250003002952,新規,0,2021-12-03,2021-12-03,合同会社アイシンプラント,,合同会社,山口県,岩国市,元町３丁目９番４号,,35,208,7400012,,,,,,,2021-12-03,1,,,,,アイシンプラント,0
2652,8260003003735,新規,0,2021-12-03,2021-12-03,合同会社８８７,,合同会社,岡山県,英田郡西粟倉村,大字長尾１７３４番地,,33,643,7070504,,,,,,,2021-12-03,1,,,,,ハチハチナナ,0
2653,8270003001374,新規,0,2021-12-03,2021-12-03,ＦＲＥＥＦＵ合同会社,,合同会社,鳥取県,鳥取市,南吉方２丁目５６番地６,,31,201,6800843,,,,,,,2021-12-03,1,,,,,フリーフ,0
2654,8280001008577,新規,0,2021-12-03,2021-12-03,株式会社中林,,株式会社,島根県,仁多郡奥出雲町,三成３２４番地２０,,32,343,6991511,,,,,,,2021-12-03,1,,,,,,0
2658,8290001095656,新規,0,2021-12-03,2021-12-03,株式会社タマシー,,株式会社,福岡県,福岡市博多区,博多駅中央街１番１号,,40,132,8120012,,,,,,,2021-12-03,1,,,,,タマシー,0
2670,8320001018761,新規,0,2021-12-03,2021-12-03,株式会社シエロソル,,株式会社,大分県,大分市,高砂町３番５号ビルダービル５階,,44,201,8700029,,,,,,,2021-12-03,1,,,,,シエロソル,0
2679,8330001029254,新規,0,2021-12-03,2021-12-03,株式会社ベルマーレ,,株式会社,熊本県,熊本市南区,馬渡１丁目２番３０号,,43,104,8620968,,,,,,,2021-12-03,1,,,,,ベルマーレ,0
2684,8330003009155,新規,0,2021-12-03,2021-12-03,合同会社ＣＬＡＭＰ,,合同会社,熊本県,熊本市中央区,九品寺５丁目５番８号九品寺ビル１０２,,43,101,8620976,,,,,,,2021-12-03,1,,,,,クランプ,0
2685,8340001024304,新規,0,2021-12-03,2021-12-03,株式会社組人起重,,株式会社,鹿児島県,鹿屋市,旭原町３６４６番地７,,46,203,8930022,,,,,,,2021-12-03,1,,,,,クミニンキジュウ,0
2686,8350001017447,新規,0,2021-12-03,2021-12-03,株式会社ＤＲＫ企画,,株式会社,宮崎県,宮崎市,城ケ崎２丁目１７番地５本山ビル５０５号,,45,201,8800917,,,,,,,2021-12-03,1,,,,,ディアールケイキカク,0
2689,8350003003981,新規,0,2021-12-03,2021-12-03,合同会社ひこばえ,,合同会社,宮崎県,都城市,蔵原町１０街区１３号,,45,202,8850051,,,,,,,2021-12-03,1,,,,,ヒコバエ,0
2690,8360001029714,新規,0,2021-12-03,2021-12-03,株式会社Ｎｉｃｅ,,株式会社,沖縄県,那覇市,おもろまち４丁目７番１１－６０６号,,47,201,9000006,,,,,,,2021-12-03,1,,,,,ナイス,0
2695,8390001016701,新規,0,2021-12-03,2021-12-03,株式会社ｃｈｉｋｙｕｙａ,,株式会社,山形県,山形市,大字片谷地１２４番地５２,,06,201,9902316,,,,,,,2021-12-03,1,,,,,チキュウヤ,0
2698,8400001015692,新規,0,2021-12-03,2021-12-03,株式会社鳳,,株式会社,岩手県,九戸郡九戸村,大字伊保内第１２地割５５番地１,,03,506,0286502,,,,,,,2021-12-03,1,,,,,オオトリ,0
2705,8430001085493,新規,0,2021-12-03,2021-12-03,株式会社札幌不動産,,株式会社,北海道,札幌市白石区,本通２丁目南６番１２号,,01,104,0030026,,,,,,,2021-12-03,1,,,,,サッポロフドウサン,0
2706,8430001085510,新規,0,2021-12-03,2021-12-03,株式会社オルク,,株式会社,北海道,千歳市,寿３丁目１番１３号,,01,224,0660023,,,,,,,2021-12-03,1,,,,,オルク,0
2710,8450001013543,新規,0,2021-12-03,2021-12-03,株式会社スリーアールロット,,株式会社,北海道,旭川市,東光六条５丁目１番１３号,,01,204,0788346,,,,,,,2021-12-03,1,,,,,スリーアールロット,0
2718,8500001023842,新規,0,2021-12-03,2021-12-03,株式会社新政,,株式会社,愛媛県,四国中央市,上分町２１５番地４,,38,213,7990121,,,,,,,2021-12-03,1,,,,,シンセイ,0
2735,9010001222963,新規,0,2021-12-03,2021-12-03,株式会社ＥＧＧ－ＯＮＥ,,株式会社,東京都,中央区,勝どき４丁目９番２号ＣＡＳＡＫＡＣＨＩＤＯＫＩ３０３号,,13,102,1040054,,,,,,,2021-12-03,1,,,,,エッグワン,0
2737,9010003036461,新規,0,2021-12-03,2021-12-03,合同会社ルインスペック,,合同会社,東京都,中央区,東日本橋２丁目２８番４号日本橋ＣＥＴビル２階,,13,102,1030004,,,,,,,2021-12-03,1,,,,,ルインスペック,0
2739,9010005034281,新規,0,2021-12-03,2021-12-03,一般社団法人地方創生日本の酒輸出振興協会,,その他の設立登記法人,東京都,中央区,築地２丁目７番１０号,,13,102,1040045,,,,,,,2021-12-03,1,,,,,チホウソウセイニホンノサケユシュツシンコウキョウカイ,0
2740,9010101014971,新規,0,2021-12-03,2021-12-03,株式会社トライエステート,,株式会社,東京都,八王子市,三崎町５番１６号,,13,201,1920084,,,,,,,2021-12-03,1,,,,,トライエステート,0
2745,9010403026632,新規,0,2021-12-03,2021-12-03,合同会社一一,,合同会社,東京都,港区,西新橋１丁目１１番６号,,13,103,1050003,,,,,,,2021-12-03,1,,,,,カズイチ,0
2747,9010501048173,新規,0,2021-12-03,2021-12-03,アイトティー株式会社,,株式会社,東京都,台東区,元浅草４丁目４番４号,,13,106,1110041,,,,,,,2021-12-03,1,,,,,アイトティー,0
2763,9011001144223,新規,0,2021-12-03,2021-12-03,株式会社ａａｒｕ,,株式会社,東京都,渋谷区,神宮前３丁目１４番３号パークコート表参道２０４,,13,113,1500001,,,,,,,2021-12-03,1,,,,,アアル,0
2765,9011003013806,新規,0,2021-12-03,2021-12-03,合同会社ＭＩＴＳＵＧＩ,,合同会社,東京都,渋谷区,渋谷１丁目１５－１５テラス渋谷美竹８１４号室,,13,113,1500002,,,,,,,2021-12-03,1,,,,,ミツギ,0
2773,9011501027522,新規,0,2021-12-03,2021-12-03,株式会社Ｒｅｌｉｓｈ,,株式会社,東京都,北区,西ケ原３丁目５７番３４号,,13,117,1140024,,,,,,,2021-12-03,1,,,,,レリッシュ,0
2778,9011701024856,新規,0,2021-12-03,2021-12-03,株式会社マリコーポレーション,,株式会社,東京都,江戸川区,春江町２丁目４９番１７号,,13,123,1320003,,,,,,,2021-12-03,1,,,,,マリコーポレーション,0
2785,9011801040019,新規,0,2021-12-03,2021-12-03,７Ｇ株式会社,,株式会社,東京都,葛飾区,青戸１丁目１０番１号あわのすビル１階,,13,122,1250062,,,,,,,2021-12-03,1,,,,,セブンジー,0
2786,9012401038601,新規,0,2021-12-03,2021-12-03,株式会社亜土未来,,株式会社,東京都,府中市,宮町１丁目３６番４号府中フラット２０１,,13,206,1830023,,,,,,,2021-12-03,1,,,,,アドミライ,0
2788,9012403005137,新規,0,2021-12-03,2021-12-03,ヒロワパートナー合同会社,,合同会社,東京都,三鷹市,井の頭５丁目１０－２４,,13,204,1810001,,,,,,,2021-12-03,1,,,,,ヒロワパートナー,0
2790,9012701016802,新規,0,2021-12-03,2021-12-03,ＨＧＫ株式会社,,株式会社,東京都,清瀬市,野塩４丁目７１番地１０,,13,221,2040004,,,,,,,2021-12-03,1,,,,,エイチジーケー,0
2814,9020001144158,新規,0,2021-12-03,2021-12-03,株式会社Ｉ．Ｏ．Ｙ．Ｋ,,株式会社,神奈川県,川崎市麻生区,早野３９３番地３,,14,137,2150016,,,,,,,2021-12-03,1,,,,,アイオーワイケー,0
2815,9020001144166,新規,0,2021-12-03,2021-12-03,株式会社ライフネクスト,,株式会社,神奈川県,川崎市川崎区,本町１丁目９番地７－１０１１,,14,131,2100001,,,,,,,2021-12-03,1,,,,,ライフネクスト,0
2816,9020001144199,新規,0,2021-12-03,2021-12-03,株式会社クリエイティブシティ,,株式会社,神奈川県,横浜市神奈川区,鶴屋町３丁目３３番地の８アサヒビル３Ｆ,,14,102,2210835,,,,,,,2021-12-03,1,,,,,クリエイティブシティ,0
2824,9020003020910,新規,0,2021-12-03,2021-12-03,合同会社アブシンス,,合同会社,神奈川県,横浜市港北区,樽町２丁目５番１１－２号,,14,109,2220001,,,,,,,2021-12-03,1,,,,,アブシンス,0
2828,9021001074650,新規,0,2021-12-03,2021-12-03,Ｂｅ　Ｃｌｅａｎ株式会社,,株式会社,神奈川県,藤沢市,村岡東２丁目２０番地の３ラフィネ４０３,,14,205,2510012,,,,,,,2021-12-03,1,,,,,ビークリーン,0
2829,9021001074667,新規,0,2021-12-03,2021-12-03,株式会社ＢＲＩＧＡＤＥ,,株式会社,神奈川県,藤沢市,鵠沼石上２丁目５－１,,14,205,2510025,,,,,,,2021-12-03,1,,,,,ブリゲード,0
2830,9021001074683,新規,0,2021-12-03,2021-12-03,イヌカイラボ株式会社,,株式会社,神奈川県,藤沢市,亀井野５３３番地の１３,,14,205,2520813,,,,,,,2021-12-03,1,,,,,イヌカイラボ,0
2844,9030001145634,新規,0,2021-12-03,2021-12-03,吉屋農業株式会社,,株式会社,埼玉県,東松山市,大字大谷４０番地１,,11,212,3550008,,,,,,,2021-12-03,1,,,,,ヨシヤノウギョウ,0
2845,9030001145683,新規,0,2021-12-03,2021-12-03,株式会社ユタカ建工,,株式会社,埼玉県,さいたま市緑区,大字三室９８７番地１６,,11,109,3360911,,,,,,,2021-12-03,1,,,,,ユタカケンコウ,0
2846,9030003018433,新規,0,2021-12-03,2021-12-03,鴻興合同会社,,合同会社,埼玉県,坂戸市,三光町３番２７号ホワイトハウス１０３号室,,11,239,3500235,,,,,,,2021-12-03,1,,,,,コウキョウ,0
2851,9040001121221,新規,0,2021-12-03,2021-12-03,株式会社ＦＰＩＣＯ,,株式会社,千葉県,富里市,七栄２４３番地１３,,12,233,2860221,,,,,,,2021-12-03,1,,,,,エフピコ,0
2852,9040001121238,新規,0,2021-12-03,2021-12-03,株式会社タスクエージェント,,株式会社,千葉県,松戸市,本町１７－１１芹澤ビル６Ｆ,,12,207,2710091,,,,,,,2021-12-03,1,,,,,タスクエージェント,0
2856,9040003019050,新規,0,2021-12-03,2021-12-03,おとな・こどもサービス合同会社,,合同会社,千葉県,千葉市稲毛区,天台５丁目３番１号１階,,12,103,2630016,,,,,,,2021-12-03,1,,,,,オトナコドモサービス,0
2861,9050001050246,新規,0,2021-12-03,2021-12-03,株式会社ＯＮＥ　ＬＩＮＥ,,株式会社,茨城県,笠間市,東平２丁目１番８号常井産業ビル５Ｆ,,08,216,3091705,,,,,,,2021-12-03,1,,,,,ワンライン,0
2862,9050001050254,新規,0,2021-12-03,2021-12-03,株式会社Ｌｕｃａ,,株式会社,茨城県,筑西市,幸町１丁目１０番６号,,08,227,3080848,,,,,,,2021-12-03,1,,,,,ルカ,0
2871,9080001024610,新規,0,2021-12-03,2021-12-03,Ｇ－ＣＯＭＰＡＮＹ株式会社,,株式会社,静岡県,静岡市清水区,山原３０５番地の３７,,22,103,4240002,,,,,,,2021-12-03,1,,,,,ジーカンパニー,0
2872,9080001024619,新規,0,2021-12-03,2021-12-03,株式会社Ｆ－ｓｔｙｌｅ,,株式会社,静岡県,静岡市駿河区,中島１２７４番地１カーサライトワンＡ３０６,,22,102,4228046,,,,,,,2021-12-03,1,,,,,エフスタイル,0
2879,9080401025506,新規,0,2021-12-03,2021-12-03,株式会社ライフワークス,,株式会社,静岡県,浜松市北区,新都田３丁目４番３３号,,22,135,4312103,,,,,,,2021-12-03,1,,,,,ライフワークス,0
2887,9110001036230,新規,0,2021-12-03,2021-12-03,株式会社Ｈｏｐｅ,,株式会社,新潟県,新潟市北区,木崎２７３４番地９,,15,101,9503304,,,,,,,2021-12-03,1,,,,,ホープ,0
2888,9110001036239,新規,0,2021-12-03,2021-12-03,株式会社米生活,,株式会社,新潟県,新潟市北区,白新町３丁目８番７号,,15,101,9503325,,,,,,,2021-12-03,1,,,,,マイライフ,0
2899,9120001242059,新規,0,2021-12-03,2021-12-03,株式会社飛勝パーク,,株式会社,大阪府,枚方市,山之上西町１番７号,,27,210,5730048,,,,,,,2021-12-03,1,,,,,ヒショウパーク,0
2900,9120001242199,新規,0,2021-12-03,2021-12-03,株式会社リリマム,,株式会社,大阪府,大阪市阿倍野区,阿倍野元町３番４－７０１号,,27,119,5450034,,,,,,,2021-12-03,1,,,,,リリマム,0
2901,9120001242216,新規,0,2021-12-03,2021-12-03,Ｌ＆Ｙ株式会社,,株式会社,大阪府,大阪市生野区,巽北１丁目２１番２９号生野ハイツ１１１１号室,00125033,27,116,5440004,,,,,,,2021-12-03,1,,,,,エルアンドワイ,0
2902,9120001242232,新規,0,2021-12-03,2021-12-03,株式会社ＯＫＵＤＡ,,株式会社,大阪府,大阪市旭区,清水４丁目３番２４号,,27,117,5350021,,,,,,,2021-12-03,1,,,,,オクダ,0
2903,9120001242249,新規,0,2021-12-03,2021-12-03,ベストセル株式会社,,株式会社,大阪府,大阪市中央区,谷町２丁目８番１号,,27,128,5400012,,,,,,,2021-12-03,1,,,,,ベストセル,0
2909,9120003020702,新規,0,2021-12-03,2021-12-03,合同会社ねこのて,,合同会社,大阪府,大阪市東住吉区,杭全３丁目１０番１４号,,27,121,5460002,,,,,,,2021-12-03,1,,,,,ネコノテ,0
2912,9120005022639,新規,0,2021-12-03,2021-12-03,コーサライト・ファミーユ協同組合,,その他の設立登記法人,大阪府,大阪市西区,京町堀１丁目７番９号東洋ビル４０５,,27,106,5500003,,,,,,,2021-12-03,1,,,,,,0
2913,9120105009486,新規,0,2021-12-03,2021-12-03,ＮＰＯ法人日本伝統派防具付空手道教育振興会,,その他の設立登記法人,大阪府,泉佐野市,南中安松１６４９番地の３,,27,213,5980033,,,,,,,2021-12-03,1,,,,,ニホンデントウハボウグツキカラテドウキョウイクシンコウカイ,0
2918,9122001035401,新規,0,2021-12-03,2021-12-03,株式会社アスティ,,株式会社,大阪府,東大阪市,高井田元町２丁目４番５－２０８号,,27,227,5770054,,,,,,,2021-12-03,1,,,,,アスティ,0
2923,9130001070640,新規,0,2021-12-03,2021-12-03,株式会社メゾルブ,,株式会社,京都府,京都市伏見区,竹田北三ツ杭町４８,,26,109,6128419,,,,,,,2021-12-03,1,,,,,メゾルブ,0
2933,9140001124032,新規,0,2021-12-03,2021-12-03,森本自動車株式会社,,株式会社,兵庫県,たつの市,神岡町大住寺９０７番地,,28,229,6794108,,,,,,,2021-12-03,1,,,,,モリモトジドウシャ,0
2934,9140001124040,新規,0,2021-12-03,2021-12-03,株式会社ＫＩＤ,,株式会社,兵庫県,小野市,天神町８０番地の１７６７,,28,218,6751316,,,,,,,2021-12-03,1,,,,,ケイアイディー,0
2935,9140001124049,新規,0,2021-12-03,2021-12-03,株式会社Ｍｅｔｅ,,株式会社,兵庫県,神戸市兵庫区,新開地１丁目３番１８－１３０４号,,28,105,6520811,,,,,,,2021-12-03,1,,,,,メテ,0
2938,9140003017044,新規,0,2021-12-03,2021-12-03,ステーションいっちゃん合同会社,,合同会社,兵庫県,尼崎市,東園田町９丁目３３番地の６－２０５号室,,28,202,6610953,,,,,,,2021-12-03,1,,,,,ステーションイッチャン,0
2939,9140005025920,新規,0,2021-12-03,2021-12-03,医療法人健翔会,,その他の設立登記法人,兵庫県,神戸市中央区,小野柄通７丁目１番５号マキビル１０２,,28,110,6510088,,,,,,,2021-12-03,1,,,,,ケンショウカイ,0
2941,9160001023843,新規,0,2021-12-03,2021-12-03,株式会社ツバキ,,株式会社,滋賀県,彦根市,高宮町１２３９番地５,,25,202,5220201,,,,,,,2021-12-03,1,,,,,ツバキ,0
2950,9180001148960,新規,0,2021-12-03,2021-12-03,株式会社ｄｉｐａ,,株式会社,愛知県,名古屋市昭和区,長戸町６丁目１５番地の１３,,23,107,4660848,,,,,,,2021-12-03,1,,,,,ディーパ,0
2951,9180001148977,新規,0,2021-12-03,2021-12-03,株式会社クボテック,,株式会社,愛知県,北名古屋市,二子栄和８１番地,,23,234,4810013,,,,,,,2021-12-03,1,,,,,クボテック,0
2957,9180301035685,新規,0,2021-12-03,2021-12-03,株式会社互恵,,株式会社,愛知県,みよし市,莇生町小根３４番地９,,23,236,4700206,,,,,,,2021-12-03,1,,,,,ゴケイ,0
2958,9180301035693,新規,0,2021-12-03,2021-12-03,ルディーハウス株式会社,,株式会社,愛知県,新城市,豊島字西川原５番地,,23,221,4411345,,,,,,,2021-12-03,1,,,,,ルディーハウス,0
2964,9190001028897,新規,0,2021-12-03,2021-12-03,タクサイホールディングス株式会社,,株式会社,三重県,桑名市,大字今島２１３５番地,,24,205,5110801,,,,,,,2021-12-03,1,,,,,タクサイホールディングス,0
2968,9200003005389,新規,0,2021-12-03,2021-12-03,Ｂｌｏｃｋ　Ｎｉｎｅ合同会社,,合同会社,岐阜県,大垣市,赤坂新町２丁目１８番地５０,,21,202,5032206,,,,,,,2021-12-03,1,,,,,ブロックナイン,0
2978,9240003005393,新規,0,2021-12-03,2021-12-03,Ｒｅａｌｉｓｍ合同会社,,合同会社,広島県,呉市,広横路２丁目８番１４号,,34,202,7370113,,,,,,,2021-12-03,1,,,,,,0
2980,9250001019279,新規,0,2021-12-03,2021-12-03,株式会社ストアーなかむら,,株式会社,山口県,山口市,矢原７４４番地７,,35,203,7530861,,,,,,,2021-12-03,1,,,,,ストアーナカムラ,0
2981,9250001019287,新規,0,2021-12-03,2021-12-03,株式会社心技工務店,,株式会社,山口県,萩市,大字土原２７番地,,35,204,7580025,,,,,,,2021-12-03,1,,,,,シンギコウムテン,0
2982,9250003002951,新規,0,2021-12-03,2021-12-03,合同会社小橋装飾,,合同会社,山口県,萩市,大字山田４９４３番地,,35,204,7580063,,,,,,,2021-12-03,1,,,,,コバシソウショク,0
2985,9270003001373,新規,0,2021-12-03,2021-12-03,Ｌ．Ｓ．Ｙ．合同会社,,合同会社,鳥取県,米子市,皆生３丁目１８番１号,,31,202,6830003,,,,,,,2021-12-03,1,,,,,エルエスワイ,0
2986,9280001008576,新規,0,2021-12-03,2021-12-03,株式会社カワムラ,,株式会社,島根県,浜田市,旭町丸原７０番地１,,32,202,6970426,,,,,,,2021-12-03,1,,,,,カワムラ,0
2992,9290001095564,新規,0,2021-12-03,2021-12-03,ＳｙｎＱ　Ｐａｒｔｎｅｒｓ株式会社,,株式会社,福岡県,福岡市中央区,天神１丁目１－１アクロス福岡１Ｆｆａｂｂｉｔ　Ｇｌｏｂａｌ　Ｇａｔｅｗａｙ　ＡＣＲＯＳ　Ｆｕｋｕｏｋａ,,40,133,8100001,,,,,,,2021-12-03,1,,,,,シンクパートナーズ,0
2993,9290001095589,新規,0,2021-12-03,2021-12-03,ＴＨＩＮＫＩＮ株式会社,,株式会社,福岡県,福岡市中央区,天神２丁目４番５号,,40,133,8100001,,,,,,,2021-12-03,1,,,,,スィンキン,0
2994,9290003011899,新規,0,2021-12-03,2021-12-03,合同会社ＣＲＥＡＳ,,合同会社,福岡県,福岡市西区,野方１丁目２番２８－１０１号セレッサ野方,,40,135,8190043,,,,,,,2021-12-03,1,,,,,クレアス,0
3002,9320001018769,新規,0,2021-12-03,2021-12-03,アプサラスインターナショナル株式会社,,株式会社,大分県,別府市,上田の湯町２番２６号,,44,202,8740908,,,,,,,2021-12-03,1,,,,,アプサラスインターナショナル,0
3006,9330001029253,新規,0,2021-12-03,2021-12-03,株式会社山内設備,,株式会社,熊本県,熊本市北区,楡木２丁目１０番６１号,,43,105,8618083,,,,,,,2021-12-03,1,,,,,ヤマウチセツビ,0
3008,9330003009154,新規,0,2021-12-03,2021-12-03,ブーランジェリーパパン合同会社,,合同会社,熊本県,熊本市南区,出仲間１丁目３番２４号,,43,104,8620963,,,,,,,2021-12-03,1,,,,,ブーランジェリーパパン,0
3011,9340001024303,新規,0,2021-12-03,2021-12-03,株式会社ｃｈｏｒｄ,,株式会社,鹿児島県,鹿児島市,田上６丁目１５番５号,,46,201,8900034,,,,,,,2021-12-03,1,,,,,コード,0
3012,9340001024311,新規,0,2021-12-03,2021-12-03,株式会社ＲＥ－ＳＩＧＮ,,株式会社,鹿児島県,霧島市,国分府中８２１番地２,,46,218,8994345,,,,,,,2021-12-03,1,,,,,リザイン,0
3015,9350001017446,新規,0,2021-12-03,2021-12-03,株式会社國部板金工業,,株式会社,宮崎県,宮崎市,田野町甲３７２１番地１６,,45,201,8891701,,,,,,,2021-12-03,1,,,,,コクブバンキンコウギョウ,0
3022,9370001047895,新規,0,2021-12-03,2021-12-03,株式会社ＴＫメディカル,,株式会社,宮城県,塩竈市,藤倉２丁目４番２２号,,04,203,9850004,,,,,,,2021-12-03,1,,,,,ティーケイメディカル,0
3025,9370005010395,新規,0,2021-12-03,2021-12-03,一般社団法人仙台技術者養成センター,,その他の設立登記法人,宮城県,仙台市若林区,卸町１丁目６番地１７,,04,103,9840015,,,,,,,2021-12-03,1,,,,,センダイギジュツシャヨウセイセンター,0
3039,9430001085492,新規,0,2021-12-03,2021-12-03,株式会社菊池自動車,,株式会社,北海道,札幌市東区,中沼町９２番地１７５,,01,103,0070890,,,,,,,2021-12-03,1,,,,,キクチジドウシャ,0
3040,9430001085501,新規,0,2021-12-03,2021-12-03,エルエーマネジメント株式会社,,株式会社,北海道,札幌市北区,屯田六条１２丁目４番８号,,01,102,0020856,,,,,,,2021-12-03,1,,,,,エルエーマネジメント,0
3042,9430003013419,新規,0,2021-12-03,2021-12-03,ＴＨＥ　ＳＴＡＮＤＢＹＭＥ合同会社,,合同会社,北海道,江別市,緑ケ丘３２番地の４,,01,217,0690823,,,,,,,2021-12-03,1,,,,,ザスタンドバイミー,0
3043,9450001013542,新規,0,2021-12-03,2021-12-03,株式会社プログレ,,株式会社,北海道,旭川市,宮下通７丁目２３９９番地１明治屋ビル３階,,01,204,0700030,,,,,,,2021-12-03,1,,,,,プログレ,0
3046,9470001018861,新規,0,2021-12-03,2021-12-03,株式会社ミキヤ,,株式会社,香川県,木田郡三木町,大字池戸９３１番地９,,37,341,7610701,,,,,,,2021-12-03,1,,,,,ミキヤ,0
3047,9480001011568,新規,0,2021-12-03,2021-12-03,オリーブハウジング株式会社,,株式会社,徳島県,徳島市,助任橋２丁目３４番地１０,,36,201,7700815,,,,,,,2021-12-03,1,,,,,オリーブハウジング,0
3050,9500001023841,新規,0,2021-12-03,2021-12-03,ＴＫ企画株式会社,,株式会社,愛媛県,松山市,常光寺町乙１０６番地２,,38,201,7900851,,,,,,,2021-12-03,1,,,,,ティーケィキカク,0
3059,9700150104851,新規,0,2021-12-03,2021-09-27,野々口音楽企画,,その他,千葉県,船橋市,本町６丁目１８－１９第３山中ビル４０１,,12,204,2730005,,,,,,,2021-09-27,1,,,,,ノノグチオンガクキカク,0
