sequenceNumber,corporateNumber,process,correct,updateDate,changeDate,name,nameImageId,kind,prefectureName,cityName,streetNumber,addressImageId,prefectureCode,cityCode,postCode,addressOutside,addressOutsideImageId,closeDate,closeCause,successorCorporateNumber,changeCause,assignmentDate,latest,enName,enPrefectureName,enCityName,enAddressOutside,furigana,hihyoji
9,1010001262133,新規,0,2026-01-30,2026-01-30,Ａｎｔａｌｐｈａ　Ｊａｐａｎ株式会社,,株式会社,東京都,千代田区,永田町２丁目１１番１号山王パークタワー３階,,13,101,1000014,,,,,,,2026-01-30,1,,,,,アンタルファジャパン,0
10,1010001262265,新規,0,2026-01-30,2026-01-30,株式会社ＨＡＣＣＩ,,株式会社,東京都,中央区,日本橋富沢町３番６号安川ビル２Ｆ,,13,102,1030006,,,,,,,2026-01-30,1,,,,,ハッチ,0
11,1010001262364,新規,0,2026-01-30,2026-01-30,株式会社ラクラボ,,株式会社,東京都,中央区,日本橋人形町２丁目１３番１１号３階,,13,102,1030013,,,,,,,2026-01-30,1,,,,,ラクラボ,0
16,1010003050081,新規,0,2026-01-30,2026-01-30,合同会社ＮＡＩＴＯ　ＥＮＥＲＧＹ　ＬＬＣ．,,合同会社,東京都,中央区,銀座７丁目５番４号毛利ビル５階,,13,102,1040061,,,,,,,2026-01-30,1,,,,,ナイトウエナジーエルエルシー,0
17,1010003050098,新規,0,2026-01-30,2026-01-30,合同会社ＴＡＣ,,合同会社,東京都,中央区,日本橋室町１丁目１１番１２号日本橋水野ビル７階,,13,102,1030022,,,,,,,2026-01-30,1,,,,,ティーエイシイ,0
18,1010003050107,新規,0,2026-01-30,2026-01-30,クリージア合同会社,,合同会社,東京都,中央区,銀座１丁目１２番４号Ｎ＆ＥＢＬＤ．６Ｆ,,13,102,1040061,,,,,,,2026-01-30,1,,,,,クリージア,0
20,1010005041293,新規,0,2026-01-30,2026-01-30,一般社団法人日本ディスクゴルフ協会,,その他の設立登記法人,東京都,千代田区,神田佐久間町２丁目１８番地１秋葉原ＳＴＮフロント１０階,,13,101,1010025,,,,,,,2026-01-30,1,,,,,ニホンディスクゴルフキョウカイ,0
34,1010401196105,新規,0,2026-01-30,2026-01-30,Ｖｉｅｒｋｌｅｅ株式会社,,株式会社,東京都,港区,南青山３丁目１番３６号青山丸竹ビル６Ｆ,,13,103,1070062,,,,,,,2026-01-30,1,,,,,フィアクレー,0
35,1010401196154,新規,0,2026-01-30,2026-01-30,ニューブリッジ１６株式会社,,株式会社,東京都,港区,西新橋２丁目８番６号,,13,103,1050003,,,,,,,2026-01-30,1,,,,,ニューブリッジシックスティーン,0
36,1010401196179,新規,0,2026-01-30,2026-01-30,株式会社Ｕ４２４,,株式会社,東京都,港区,浜松町２丁目５－３,,13,103,1050013,,,,,,,2026-01-30,1,,,,,ユーヨンニヨン,0
39,1010403037190,新規,0,2026-01-30,2026-01-30,中泊今泉風力発電合同会社,,合同会社,東京都,港区,南青山３丁目１番７号青山コンパルビル２階ｗｐｄジャパン株式会社内,,13,103,1070062,,,,,,,2026-01-30,1,,,,,ナカドマリイマイズミフウリョクハツデン,0
40,1010403037208,新規,0,2026-01-30,2026-01-30,紅葉ホールディングス合同会社,,合同会社,東京都,港区,六本木１丁目９番１０号アークヒルズ仙石山森タワー２８階ベーカー＆マッケンジー法律事務所（外国法共同事業）内,,13,103,1060032,,,,,,,2026-01-30,1,,,,,コウヨウホールディングス,0
55,1010901058861,新規,0,2026-01-30,2026-01-30,株式会社Ｐａｙ　ｉｔ　ｆｏｒｗａｒｄ,,株式会社,東京都,世田谷区,尾山台１丁目２番１２号,,13,112,1580086,,,,,,,2026-01-30,1,,,,,ペイイットフォワード,0
59,1010903010580,新規,0,2026-01-30,2026-01-30,合同会社Ｒｅｌｉｎｋ,,合同会社,東京都,世田谷区,松原３丁目３６番８号,,13,112,1560043,,,,,,,2026-01-30,1,,,,,リリンク,0
65,1011001175036,新規,0,2026-01-30,2026-01-30,エヌアイジャパン株式会社,,株式会社,東京都,渋谷区,道玄坂１丁目１０番８号渋谷道玄坂東急ビル２Ｆ－Ｃ,,13,113,1500043,,,,,,,2026-01-30,1,,,,,エヌアイジャパン,0
66,1011001175060,新規,0,2026-01-30,2026-01-30,株式会社ベアシステム,,株式会社,東京都,渋谷区,円山町５番３号ＭＩＥＵＸ渋谷ビル８階,,13,113,1500044,,,,,,,2026-01-30,1,,,,,ベアシステム,0
67,1011001175110,新規,0,2026-01-30,2026-01-30,株式会社ＦＹＬ,,株式会社,東京都,渋谷区,渋谷２丁目１９－１５宮益坂ビルディング６０９,,13,113,1500002,,,,,,,2026-01-30,1,,,,,,0
70,1011005011336,新規,0,2026-01-30,2026-01-30,一般社団法人コモンズ,,その他の設立登記法人,東京都,渋谷区,猿楽町１２番３５号シャトレブランシェ代官山１０２,,13,113,1500033,,,,,,,2026-01-30,1,,,,,コモンズ,0
82,1011103017012,新規,0,2026-01-30,2026-01-30,合同会社えんぶん,,合同会社,東京都,新宿区,西新宿３丁目３番１３号西新宿水間ビル２Ｆ,,13,104,1600023,,,,,,,2026-01-30,1,,,,,エンブン,0
83,1011105011723,新規,0,2026-01-30,2026-01-30,ＣＲ１ホールディングス一般社団法人,,その他の設立登記法人,東京都,新宿区,富久町８番２６号東京ユナイテッド綜合事務所内,,13,104,1620067,,,,,,,2026-01-30,1,,,,,シーアールワンホールディングス,0
85,1011201026930,新規,0,2026-01-30,2026-01-30,ペキチワークス株式会社,,株式会社,東京都,中野区,江古田４丁目３６番３号,,13,114,1650022,,,,,,,2026-01-30,1,,,,,ペキチワークス,0
87,1011401027753,新規,0,2026-01-30,2026-01-30,株式会社きづくケア,,株式会社,東京都,板橋区,大山金井町４５－２,,13,119,1730024,,,,,,,2026-01-30,1,,,,,キヅクケア,0
94,1011701029128,新規,0,2026-01-30,2026-01-30,Ｒ．Ｏ．Ｄ株式会社,,株式会社,東京都,江戸川区,松江７丁目３３番９号,,13,123,1320025,,,,,,,2026-01-30,1,,,,,アールオーディー,0
96,1011703004509,新規,0,2026-01-30,2026-01-30,合同会社アイドール,,合同会社,東京都,江戸川区,西葛西７丁目２２番２１－２０４号第２林ビル,,13,123,1340088,,,,,,,2026-01-30,1,,,,,アイドール,0
99,1011801047376,新規,0,2026-01-30,2026-01-30,株式会社ＧＵＩＬＤ,,株式会社,東京都,葛飾区,亀有３丁目１８－１鶴屋ビル６Ｆ,,13,122,1250061,,,,,,,2026-01-30,1,,,,,ギルド,0
100,1011801047384,新規,0,2026-01-30,2026-01-30,株式会社こうの,,株式会社,東京都,足立区,竹の塚１丁目３６番７－６０１号,,13,121,1210813,,,,,,,2026-01-30,1,,,,,コウノ,0
114,1012401044078,新規,0,2026-01-30,2026-01-30,株式会社リンカス,,株式会社,東京都,府中市,片町２丁目１８－７エグゼクティブビレッジ２Ｈ,,13,206,1830021,,,,,,,2026-01-30,1,,,,,リンカス,0
117,1012403007586,新規,0,2026-01-30,2026-01-30,合同会社ロイドラボ,,合同会社,東京都,調布市,西つつじケ丘２丁目８番地３１,,13,208,1820006,,,,,,,2026-01-30,1,,,,,ロイドラボ,0
121,1012803003986,新規,0,2026-01-30,2026-01-30,ＮＡＧＩ合同会社,,合同会社,東京都,国分寺市,西恋ヶ窪１丁目９番地１００,,13,214,1850013,,,,,,,2026-01-30,1,,,,,ナギ,0
129,1013301055677,新規,0,2026-01-30,2026-01-30,株式会社エスケーワン,,株式会社,東京都,豊島区,東池袋１丁目３４番５号いちご東池袋ビル６階,,13,116,1700013,,,,,,,2026-01-30,1,,,,,エスケーワン,0
131,1013305003822,新規,0,2026-01-30,2026-01-30,弁護士法人Ｒｅ‐Ｓｔａｒｔ法律事務所,,その他の設立登記法人,東京都,豊島区,東池袋３丁目１－１サンシャイン６０－１２Ｆ,,13,116,1700013,,,,,,,2026-01-30,1,,,,,リスタートホウリツジムショ,0
143,1020003029942,新規,0,2026-01-30,2026-01-30,Ａｉｓｈａ　Ｃｏｎｓｕｌｔｉｎｇ合同会社,,合同会社,神奈川県,横浜市鶴見区,鶴見中央３丁目２番１号,,14,101,2300051,,,,,,,2026-01-30,1,,,,,アイシャコンサルティング,0
144,1020003030272,新規,0,2026-01-30,2026-01-30,合同会社フォーストレップ,,合同会社,神奈川県,川崎市高津区,溝口１丁目７‐７‐９０３,,14,134,2130001,,,,,,,2026-01-30,1,,,,,フォーストレップ,0
153,1021005013521,新規,0,2026-01-30,2026-01-30,一般社団法人クリエイターズ倶楽部,,その他の設立登記法人,神奈川県,鎌倉市,御成町１１番２号ヤノヤビル２Ｆ,,14,204,2480012,,,,,,,2026-01-30,1,,,,,クリエイターズクラブ,0
158,1030003028547,新規,0,2026-01-30,2026-01-30,ＨＪトレーディング合同会社,,合同会社,埼玉県,川越市,稲荷町１８番地１０小松ハイツ２０１号室,,11,201,3501144,,,,,,,2026-01-30,1,,,,,エイチジェイトレーディング,0
162,1040001142299,新規,0,2026-01-30,2026-01-30,株式会社朝陽ソフトウェア,,株式会社,千葉県,船橋市,藤原１丁目２－１０,,12,204,2730047,,,,,,,2026-01-30,1,,,,,アサヒソフトウェア,0
170,1060003005915,新規,0,2026-01-30,2026-01-30,合同会社ＣＯ２Ｃｂａｒ,,合同会社,栃木県,栃木市,大平町西水代１８２５番地２,,09,203,3294423,,,,,,,2026-01-30,1,,,,,シーオーツーシーバー,0
172,1070001043775,新規,0,2026-01-30,2026-01-30,ユーカリキャピタル株式会社,,株式会社,群馬県,桐生市,西久方町１丁目２番２３号,,10,203,3760054,,,,,,,2026-01-30,1,,,,,ユーカリキャピタル,0
175,1090001019716,新規,0,2026-01-30,2026-01-30,株式会社吏工業,,株式会社,山梨県,南アルプス市,西野２２４７番地１,,19,208,4000213,,,,,,,2026-01-30,1,,,,,ツカコウギョウ,0
176,1090005007758,新規,0,2026-01-30,2026-01-30,一般社団法人ストライバーズ,,その他の設立登記法人,山梨県,中巨摩郡昭和町,上河東５４３番地２９,,19,384,4093862,,,,,,,2026-01-30,1,,,,,ストライバーズ,0
177,1100001039299,新規,0,2026-01-30,2026-01-30,株式会社インフラエッジ,,株式会社,長野県,松本市,双葉１５番１５－３０２号,,20,202,3900833,,,,,,,2026-01-30,1,,,,,インフラエッジ,0
178,1100001039308,新規,0,2026-01-30,2026-01-30,株式会社ＥＱＵＩＮＡ,,株式会社,長野県,須坂市,臥竜６丁目１８番地８,,20,207,3820028,,,,,,,2026-01-30,1,,,,,エクイナ,0
181,1110003006057,新規,0,2026-01-30,2026-01-30,ＰＲＩＭＥ　ＷＯＲＫＳ合同会社,,合同会社,新潟県,新潟市中央区,弁天橋通１丁目１２番１０号,,15,103,9500925,,,,,,,2026-01-30,1,,,,,プライムワークス,0
190,1120001283787,新規,0,2026-01-30,2026-01-30,承光麗株式会社,,株式会社,大阪府,大阪市西成区,萩之茶屋１丁目１２番７－６０号室,,27,122,5570004,,,,,,,2026-01-30,1,,,,,ショウコウレイ,0
191,1120001283837,新規,0,2026-01-30,2026-01-30,株式会社Ｋブラッド,,株式会社,大阪府,大阪市北区,梅田１丁目１－３大阪駅前第３ビル２９階１－１－１号室,,27,127,5300001,,,,,,,2026-01-30,1,,,,,ケーブラッド,0
194,1120003031780,新規,0,2026-01-30,2026-01-30,合同会社ＣＯＮＳＴＲＵＣＴ‐ＪＰ,,合同会社,大阪府,大阪市浪速区,元町３丁目６番１０号マンションバッハ２０６,,27,111,5560016,,,,,,,2026-01-30,1,,,,,コンストラクトジャパン,0
195,1120003031806,新規,0,2026-01-30,2026-01-30,ＧｒａｎＣａｖａｌｌｏ合同会社,,合同会社,大阪府,大阪市北区,梅田２丁目２－２ヒルトンプラザウエストオフィスタワー１８階,,27,127,5300001,,,,,,,2026-01-30,1,,,,,グランカヴァッロ,0
203,1130003011113,新規,0,2026-01-30,2026-01-30,合同会社Ｇｒａｉｇｎ,,合同会社,京都府,京都市下京区,西七条西八反田町１０３番地,,26,106,6008892,,,,,,,2026-01-30,1,,,,,グレイン,0
211,1140001141514,新規,0,2026-01-30,2026-01-30,Ｌｏａｄｍａｓｔｅｒ株式会社,,株式会社,兵庫県,西宮市,北六甲台４丁目１３－１３,,28,204,6511413,,,,,,,2026-01-30,1,,,,,ロードマスター,0
212,1140001141539,新規,0,2026-01-30,2026-01-30,株式会社にこまる,,株式会社,兵庫県,神戸市中央区,磯辺通１丁目１番１８号カサベラ国際プラザビル７０７号室,,28,110,6510084,,,,,,,2026-01-30,1,,,,,ニコマル,0
234,1180001170484,新規,0,2026-01-30,2026-01-30,株式会社黒馬,,株式会社,愛知県,名古屋市港区,藤前１丁目８３２番地,,23,111,4550855,,,,,,,2026-01-30,1,,,,,コクマ,0
241,1180003029712,新規,0,2026-01-30,2026-01-30,アルメガ合同会社,,合同会社,愛知県,名古屋市中村区,則武２丁目１４番１１号名駅富士ビル３階,,23,105,4530014,,,,,,,2026-01-30,1,,,,,アルメガ,0
242,1180301040643,新規,0,2026-01-30,2026-01-30,株式会社ＳＵＮ　ＳＩＺＥ,,株式会社,愛知県,刈谷市,半城土町山ノ腰１７５番地１４,,23,210,4480804,,,,,,,2026-01-30,1,,,,,サンサイズ,0
244,1190001032865,新規,0,2026-01-30,2026-01-30,株式会社ワークアップ,,株式会社,三重県,松阪市,駅部田町１５６９番地８,,24,204,5150045,,,,,,,2026-01-30,1,,,,,ワークアップ,0
247,1200003007211,新規,0,2026-01-30,2026-01-30,鴻＿貿易合同会社,00142385,合同会社,岐阜県,美濃加茂市,本郷町２丁目４番２４号,,21,211,5050027,,,,,,,2026-01-30,1,,,,,コウキンボウエキ,0
248,1200005013843,新規,0,2026-01-30,2026-01-30,一般社団法人フォー・ヒズ・キングダム,,その他の設立登記法人,岐阜県,岐阜市,諏訪山３丁目１番８号,,21,201,5013142,,,,,,,2026-01-30,1,,,,,フォーヒズキングダム,0
253,1220001027143,新規,0,2026-01-30,2026-01-30,株式会社Ｍテクニカル,,株式会社,石川県,金沢市,八日市３丁目５８２番地１,,17,201,9218064,,,,,,,2026-01-30,1,,,,,エムテクニカル,0
425,1280003002031,新規,0,2026-01-30,2026-01-30,合同会社たぐる,,合同会社,島根県,出雲市,芦渡町１８３４番地,,32,203,6930035,,,,,,,2026-01-30,1,,,,,タグル,0
437,1330003011415,新規,0,2026-01-30,2026-01-30,合同会社ＳＡＬＥＳＬＩＮＫ,,合同会社,熊本県,熊本市中央区,国府３丁目２１番１７号,,43,101,8620949,,,,,,,2026-01-30,1,,,,,セールスリンク,0
439,1360001036312,新規,0,2026-01-30,2026-01-30,株式会社想結サポート,,株式会社,沖縄県,那覇市,樋川１丁目４番２９号,,47,201,9000022,,,,,,,2026-01-30,1,,,,,ウマムイサポート,0
441,1360003015586,新規,0,2026-01-30,2026-01-30,ＡＸＩＳ　ＳＩＴＥ　ＤＡＴＡ合同会社,,合同会社,沖縄県,中頭郡北谷町,美浜３丁目３番地８Ｃｏｍｆｏｒｔ美浜２０２,,47,326,9040115,,,,,,,2026-01-30,1,,,,,アクシスサイトデータ,0
443,1370003007459,新規,0,2026-01-30,2026-01-30,Ｔ’ｓ　ｉＤｅｓｉｇｎ合同会社,,合同会社,宮城県,仙台市太白区,松が丘３６番３号,,04,104,9820821,,,,,,,2026-01-30,1,,,,,ティーズアイデザイン,0
466,1380001035840,新規,0,2026-01-30,2026-01-30,株式会社天音,,株式会社,福島県,福島市,笹木野字街道北２８番地の３,,07,201,9608057,,,,,,,2026-01-30,1,,,,,アマト,0
510,1460103001781,新規,0,2026-01-30,2026-01-30,合同会社ＬＩＦＴＯ,,合同会社,北海道,帯広市,白樺十六条東５丁目５番地２,,01,207,0800050,,,,,,,2026-01-30,1,,,,,リフト,0
513,1500001026752,新規,0,2026-01-30,2026-01-30,丸茂水産株式会社,,株式会社,愛媛県,宇和島市,津島町田之浜１７０９番地２,,38,203,7983357,,,,,,,2026-01-30,1,,,,,マルシゲスイサン,0
518,2010001261712,新規,0,2026-01-30,2026-01-30,株式会社ビービットテック,,株式会社,東京都,千代田区,大手町２丁目２番１号新大手町ビル１０階,,13,101,1000004,,,,,,,2026-01-30,1,,,,,ビービットテック,0
519,2010001262198,新規,0,2026-01-30,2026-01-30,株式会社ディライト・グロウ,,株式会社,東京都,千代田区,神田須田町１丁目７番８号ＶＯＲＴ秋葉原ＩＶ２Ｆ,,13,101,1010041,,,,,,,2026-01-30,1,,,,,ディライトグロウ,0
520,2010001262363,新規,0,2026-01-30,2026-01-30,ＮＹＣＩ１８株式会社,,株式会社,東京都,中央区,新川１丁目６番１１号,,13,102,1040033,,,,,,,2026-01-30,1,,,,,エヌワイシーアイエイティーン,0
523,2010003050097,新規,0,2026-01-30,2026-01-30,合同会社どらます,,合同会社,東京都,千代田区,神田神保町３丁目１１番６号神保町ビル１０階,,13,101,1010051,,,,,,,2026-01-30,1,,,,,ドラマス,0
524,2010003050163,新規,0,2026-01-30,2026-01-30,合同会社つたくる,,合同会社,東京都,文京区,本郷１丁目３５番２８－６０２号,,13,105,1130033,,,,,,,2026-01-30,1,,,,,ツタクル,0
537,2010401195923,新規,0,2026-01-30,2026-01-30,株式会社ｍａｎａｃｈｉｈｏ,,株式会社,東京都,港区,浜松町２丁目２番１５号浜松町ダイヤビル２Ｆ,,13,103,1050013,,,,,,,2026-01-30,1,,,,,マナチホ,0
538,2010401196112,新規,0,2026-01-30,2026-01-30,ルミノテック株式会社,,株式会社,東京都,港区,新橋５丁目２３－５ＡＳＯＯＭ新橋１４階,,13,103,1050004,,,,,,,2026-01-30,1,,,,,ルミノテック,0
539,2010401196120,新規,0,2026-01-30,2026-01-30,ＣｉＫ株式会社,,株式会社,東京都,港区,南青山３丁目１番３６号青山丸竹ビル６Ｆ,,13,103,1070062,,,,,,,2026-01-30,1,,,,,シック,0
540,2010401196129,新規,0,2026-01-30,2026-01-30,株式会社スタープラチナ,,株式会社,東京都,港区,南青山３丁目１番３６号青山丸竹ビル６Ｆ,,13,103,1070062,,,,,,,2026-01-30,1,,,,,スタープラチナ,0
541,2010401196153,新規,0,2026-01-30,2026-01-30,ニューブリッジ１５株式会社,,株式会社,東京都,港区,西新橋２丁目８番６号,,13,103,1050003,,,,,,,2026-01-30,1,,,,,ニューブリッジフィフティーン,0
543,2010403037181,新規,0,2026-01-30,2026-01-30,新創設備合同会社,,合同会社,東京都,港区,浜松町２丁目２番１５号浜松町ダイヤビル２Ｆ,,13,103,1050013,,,,,,,2026-01-30,1,,,,,シンソウセツビ,0
544,2010403037207,新規,0,2026-01-30,2026-01-30,紅葉箱根２合同会社,,合同会社,東京都,港区,六本木１丁目９番１０号アークヒルズ仙石山森タワー２８階ベーカー＆マッケンジー法律事務所（外国法共同事業）内,,13,103,1060032,,,,,,,2026-01-30,1,,,,,コウヨウハコネツー,0
545,2010405025226,新規,0,2026-01-30,2026-01-30,一般社団法人全国外部評価機関協議会,,その他の設立登記法人,東京都,港区,南青山２丁目２番１５号ウイン青山９４２,,13,103,1070062,,,,,,,2026-01-30,1,,,,,ゼンコクガイブヒョウカキカンキョウギカイ,0
548,2010501055374,新規,0,2026-01-30,2026-01-30,ＴＳＨ株式会社,,株式会社,東京都,台東区,三筋２丁目１０番１６号１階１０１室,,13,106,1110055,,,,,,,2026-01-30,1,,,,,ティエスエイチ,0
550,2010603012050,新規,0,2026-01-30,2026-01-30,ＰｏｌａｒＳｉｇｈｔ　Ａｄｖｉｓｏｒｙ合同会社,,合同会社,東京都,江東区,白河３丁目１２番１－３００３,,13,108,1350021,,,,,,,2026-01-30,1,,,,,ポーラーサイトアドバイザリー,0
556,2010901058844,新規,0,2026-01-30,2026-01-30,株式会社トラストパートナーズ,,株式会社,東京都,世田谷区,野毛３丁目７番６号,,13,112,1580092,,,,,,,2026-01-30,1,,,,,トラストパートナーズ,0
565,2011001175101,新規,0,2026-01-30,2026-01-30,株式会社ネイビーブルー,,株式会社,東京都,渋谷区,道玄坂１丁目１０番８号渋谷道玄坂東急ビル２Ｆ－Ｃ,,13,113,1500043,,,,,,,2026-01-30,1,,,,,,0
572,2011101114660,新規,0,2026-01-30,2026-01-30,壹十三国際ホールディングス株式会社,,株式会社,東京都,新宿区,市谷仲之町４番３９号,,13,104,1620064,,,,,,,2026-01-30,1,,,,,イチジュウサンコクサイホールディングス,0
573,2011105011706,新規,0,2026-01-30,2026-01-30,一般社団法人ブライダルピラティス協会,,その他の設立登記法人,東京都,新宿区,余丁町１２番１７号ＢｒｉｄａｌＰｉｌａｔｅｓＳａｌｏｎ,,13,104,1620055,,,,,,,2026-01-30,1,,,,,ブライダルピラティスキョウカイ,0
579,2011501033048,新規,0,2026-01-30,2026-01-30,威敬機電設備株式会社,,株式会社,東京都,荒川区,南千住３丁目２７－２浅草ビル５０８,,13,118,1160003,,,,,,,2026-01-30,1,,,,,イケイキデンセツビ,0
582,2011503006852,新規,0,2026-01-30,2026-01-30,合同会社サイエンスキッチン,,合同会社,東京都,北区,赤羽西６丁目３６番９号東研化工ビル,,13,117,1150055,,,,,,,2026-01-30,1,,,,,サイエンスキッチン,0
584,2011603004995,新規,0,2026-01-30,2026-01-30,ＹＦアセット合同会社,,合同会社,東京都,練馬区,中村北４丁目２０－２,,13,120,1760023,,,,,,,2026-01-30,1,,,,,ワイエフアセット,0
585,2011701029127,新規,0,2026-01-30,2026-01-30,ＹＵＩＭＡＲＵ　ＬＩＦＥ株式会社,,株式会社,東京都,江戸川区,松江２丁目４番２号,,13,123,1320025,,,,,,,2026-01-30,1,,,,,ユイマールライフ,0
611,2012401044069,新規,0,2026-01-30,2026-01-30,ブルーカードジャパン株式会社,,株式会社,東京都,狛江市,元和泉１丁目１番２号エコルマ２－２０１号,,13,219,2010013,,,,,,,2026-01-30,1,,,,,ブルーカードジャパン,0
615,2012403007593,新規,0,2026-01-30,2026-01-30,Ｋ２合同会社,,合同会社,東京都,武蔵野市,御殿山１丁目６番１１号,,13,203,1800005,,,,,,,2026-01-30,1,,,,,ケイツー,0
617,2012701019299,新規,0,2026-01-30,2026-01-30,Ｃａｎａｒｙ　Ｔｅｃｈｎｏｌｏｇｉｅｓ株式会社,,株式会社,東京都,小平市,花小金井６丁目３１番２１号,,13,211,1870002,,,,,,,2026-01-30,1,,,,,カナリーテクノロジーズ,0
644,2020003030271,新規,0,2026-01-30,2026-01-30,Ｄ＆Ｓ合同会社,,合同会社,神奈川県,横浜市戸塚区,下倉田町１７５番地,,14,110,2440815,,,,,,,2026-01-30,1,,,,,ディーアンドエス,0
655,2030003028538,新規,0,2026-01-30,2026-01-30,ＯＣ合同会社,,合同会社,埼玉県,桶川市,坂田西１丁目５－１２,,11,231,3630018,,,,,,,2026-01-30,1,,,,,オーシー,0
669,2060005010409,新規,0,2026-01-30,2026-01-30,一般社団法人全国通勤バスネットワーク協議会,,その他の設立登記法人,栃木県,宇都宮市,今宮４丁目６番３０号,,09,201,3210166,,,,,,,2026-01-30,1,,,,,ゼンコクツウキンバスネットワークキョウギカイ,0
674,2080101026050,新規,0,2026-01-30,2026-01-30,システムクリニック株式会社,,株式会社,静岡県,沼津市,大岡１９６１番地,,22,203,4100022,,,,,,,2026-01-30,1,,,,,システムクリニック,0
680,2100001039298,新規,0,2026-01-30,2026-01-30,株式会社Ｐ・Ｇ・Ｆ,,株式会社,長野県,佐久市,中込３７１３番地２０９,,20,217,3850051,,,,,,,2026-01-30,1,,,,,ピージーエフ,0
682,2100003008598,新規,0,2026-01-30,2026-01-30,ＫＡＲＵＩＺＡＷＡ　ＧＲＯＵＰ合同会社,,合同会社,長野県,北佐久郡軽井沢町,大字軽井沢１１７８番地５７６,,20,321,3890102,,,,,,,2026-01-30,1,,,,,カルイザワグループ,0
692,2120001283844,新規,0,2026-01-30,2026-01-30,株式会社白と空色,,株式会社,大阪府,大阪市北区,梅田１丁目２番２号大阪駅前第２ビル１２‐１２,,27,127,5300001,,,,,,,2026-01-30,1,,,,,シロトソライロ,0
694,2120003031813,新規,0,2026-01-30,2026-01-30,アッパレワークス合同会社,,合同会社,大阪府,大阪市北区,梅田１丁目１番３号大阪駅前第３ビル１１階２号室,,27,127,5300001,,,,,,,2026-01-30,1,,,,,アッパレワークス,0
695,2120005025367,新規,0,2026-01-30,2026-01-30,特定非営利活動法人ａｌｉｖｅ　ｗｉｔｈ　ｍｕｓｉｃ‐音でつながるプロジェクト,,その他の設立登記法人,大阪府,大阪市中央区,本町４丁目４－５ナカノビル３０１号室,,27,128,5410053,,,,,,,2026-01-30,1,,,,,アライブウィズミュージックオトデツナガルプロジェクト,0
700,2120905006846,新規,0,2026-01-30,2026-01-30,一般社団法人ナガト,,その他の設立登記法人,大阪府,豊中市,上野東１丁目１０番４５－３０４号,,27,203,5600013,,,,,,,2026-01-30,1,,,,,ナガト,0
709,2160003003718,新規,0,2026-01-30,2026-01-30,合同会社ＵＳＨＩＴＯ,,合同会社,滋賀県,蒲生郡日野町,大字上野田１３６番地７,,25,383,5291642,,,,,,,2026-01-30,1,,,,,ウシト,0
890,2240001066106,新規,0,2026-01-30,2026-01-30,株式会社森原ライスセンター,,株式会社,広島県,東広島市,河内町小田２７３４番地,,34,212,7392207,,,,,,,2026-01-30,1,,,,,モリハラライスセンター,0
917,2330003011406,新規,0,2026-01-30,2026-01-30,合同会社ＮＯＶＡ,,合同会社,熊本県,菊池郡大津町,大字錦野７０３番地,,43,403,8691216,,,,,,,2026-01-30,1,,,,,ノヴァ,0
918,2330005011024,新規,0,2026-01-30,2026-01-30,一般社団法人植木温泉観光旅館組合,,その他の設立登記法人,熊本県,熊本市北区,植木町米塚１２４番地１,,43,105,8610115,,,,,,,2026-01-30,1,,,,,ウエキオンセンカンコウリョカンクミアイ,0
923,2360001036311,新規,0,2026-01-30,2026-01-30,株式会社徳川リゾート＆テック,,株式会社,沖縄県,名護市,宮里１丁目２８－８－Ｋ１９１,,47,209,9050011,,,,,,,2026-01-30,1,,,,,トクガワリゾートアンドテック,0
959,2400005008541,新規,0,2026-01-30,2026-01-30,一般社団法人ＡＢＥＲＴＯスポーツクラブ,,その他の設立登記法人,岩手県,盛岡市,太田７丁目１０－２７,,03,201,0200056,,,,,,,2026-01-30,1,,,,,,0
972,2430003018548,新規,0,2026-01-30,2026-01-30,Ｈ＆Ｃｏ合同会社,,合同会社,北海道,札幌市東区,北八条東４丁目１－２０ＥＺＯＨＵＢ　ＳＡＰＰＯＲＯ,,01,103,0600908,,,,,,,2026-01-30,1,,,,,エイチアンドコー,0
976,2700150134252,新規,0,2026-01-30,2026-01-30,ＧＴＱ　ＸＶ，ＬＬＣ,,外国会社等,,,,,,,,９９　ＨＵＤＳＯＮ　ＳＴ　ＦＬ　５　ＮＥＷ　ＹＯＲＫ，ＮＹ　１００１３,,,,,,2026-01-30,1,,,,,ジーティーキューエックスビーエルエルシー,0
984,3010001262123,新規,0,2026-01-30,2026-01-30,株式会社ＪＣＰ,,株式会社,東京都,千代田区,岩本町１丁目３－１神田ビジネスセンター１Ｆ号室,,13,101,1010032,,,,,,,2026-01-30,1,,,,,ジェーシーピー,0
985,3010001262131,新規,0,2026-01-30,2026-01-30,株式会社ＴＨＥＶＯＯＮ,,株式会社,東京都,中央区,銀座１丁目２２番１１号銀座大竹ビジデンス２Ｆ,,13,102,1040061,,,,,,,2026-01-30,1,,,,,ザブーン,0
986,3010003050088,新規,0,2026-01-30,2026-01-30,合同会社ＤＭＣ,,合同会社,東京都,千代田区,神田須田町１丁目７番８号ＶＯＲＴ秋葉原ＩＶ２Ｆ,00142384,13,101,1010041,,,,,,,2026-01-30,1,,,,,ディーエムシー,0
987,3010003050146,新規,0,2026-01-30,2026-01-30,ヨウコク合同会社,,合同会社,東京都,中央区,銀座１丁目２２番１１号銀座大竹ビジデンス２Ｆ,,13,102,1040061,,,,,,,2026-01-30,1,,,,,ヨウコク,0
988,3010003050162,新規,0,2026-01-30,2026-01-30,アイディイー合同会社,,合同会社,東京都,中央区,日本橋兜町１７－２兜町第６６葉山ビル４Ｆ,,13,102,1030026,,,,,,,2026-01-30,1,,,,,アイディイー,0
989,3010003050170,新規,0,2026-01-30,2026-01-30,中部ロジスティクスファンド合同会社,,合同会社,東京都,千代田区,霞が関３丁目２番５号,,13,101,1000013,,,,,,,2026-01-30,1,,,,,チュブロジティクスファンド,0
990,3010003050220,新規,0,2026-01-30,2026-01-30,合同会社ＶＡＬＥＮＴＩＡ,,合同会社,東京都,中央区,築地６丁目２３－２－１１０３,,13,102,1040045,,,,,,,2026-01-30,1,,,,,バレンティア,0
997,3010401196227,新規,0,2026-01-30,2026-01-30,リングロード株式会社,,株式会社,東京都,港区,北青山３丁目５－５ティアラ北青山１０１,,13,103,1070061,,,,,,,2026-01-30,1,,,,,リングロード,0
1002,3010403037164,新規,0,2026-01-30,2026-01-30,ＳＤＣ合同会社,,合同会社,東京都,港区,南青山３丁目１２番３号,,13,103,1070062,,,,,,,2026-01-30,1,,,,,エスディーシー,0
1003,3010405025209,新規,0,2026-01-30,2026-01-30,税理士法人三尾会計事務所,,その他の設立登記法人,東京都,港区,芝５丁目２７番５号山田ビル５０１号室,,13,103,1080014,,,,,,,2026-01-30,1,,,,,ミオカイケイジムショ,0
1004,3010501055381,新規,0,2026-01-30,2026-01-30,株式会社Ｃｏａｄｍａｐ,,株式会社,東京都,台東区,北上野１丁目９番１０号朝日デジタルセンタービル４階,,13,106,1100014,,,,,,,2026-01-30,1,,,,,コードマップ,0
1006,3010601068622,新規,0,2026-01-30,2026-01-30,株式会社ＰｌｕｓＴｅｃｈ,,株式会社,東京都,墨田区,東向島５丁目３２番３号１階,,13,107,1310032,,,,,,,2026-01-30,1,,,,,プラステック,0
1023,3011001175026,新規,0,2026-01-30,2026-01-30,株式会社ｙｏｆｕｋａｓｈｉ　ｓｔｕｄｉｏ,,株式会社,東京都,渋谷区,西原３丁目２４番５号大黒マンション４０５号室,,13,113,1510066,,,,,,,2026-01-30,1,,,,,ヨフカシスタジオ,0
1024,3011001175216,新規,0,2026-01-30,2026-01-30,Ｆｕｊｉｅ　Ｃｒｅｗ株式会社,,株式会社,東京都,渋谷区,渋谷２丁目７番１４号ＶＯＲＴ　ＡＯＹＡＭＡ３０２,,13,113,1500002,,,,,,,2026-01-30,1,,,,,フジエクルー,0
1027,3011005011334,新規,0,2026-01-30,2026-01-30,特定非営利活動法人ＷＥＢ魚図鑑,,その他の設立登記法人,東京都,渋谷区,神宮前６丁目２３番４号桑野ビル２階,,13,113,1500001,,,,,,,2026-01-30,1,,,,,ウェブサカナズカン,0
1029,3011103016937,新規,0,2026-01-30,2026-01-30,フリーウエイト合同会社,,合同会社,東京都,新宿区,西新宿８丁目３番１号西新宿ＧＦビルＴＨＥＨＵＢ西新宿２Ｄ,,13,104,1600023,,,,,,,2026-01-30,1,,,,,フリーウエイト,0
1030,3011105011705,新規,0,2026-01-30,2026-01-30,一般社団法人篤志解剖全国連合会,,その他の設立登記法人,東京都,新宿区,西新宿３丁目３番２３号ファミール西新宿４階４０４号,,13,104,1600023,,,,,,,2026-01-30,1,,,,,トクシカイボウゼンコクレンゴウカイ,0
1035,3011701029126,新規,0,2026-01-30,2026-01-30,株式会社Ｅａｓｉｖｅｒｓｅ,,株式会社,東京都,江戸川区,西葛西５丁目７－６ＥＳ－ＩＩＩビル５階５０５号室,00142386,13,123,1340088,,,,,,,2026-01-30,1,,,,,イージーバース,0
1038,3012301014699,新規,0,2026-01-30,2026-01-30,スペースワークス株式会社,,株式会社,東京都,町田市,山崎町３３１番地６,,13,209,1950074,,,,,,,2026-01-30,1,,,,,スペースワークス,0
1065,3013101009914,新規,0,2026-01-30,2026-01-30,株式会社レネラ,,株式会社,東京都,青梅市,勝沼１丁目３４番地４階,,13,205,1980041,,,,,,,2026-01-30,1,,,,,レネラ,0
1066,3013101009922,新規,0,2026-01-30,2026-01-30,株式会社フェリーチェシモダ,,株式会社,東京都,羽村市,羽西３丁目１１番２０号,,13,227,2050017,,,,,,,2026-01-30,1,,,,,フェリーチェシモダ,0
1081,3020001166918,新規,0,2026-01-30,2026-01-30,ヨアケマエスタジオ株式会社,,株式会社,神奈川県,川崎市高津区,溝口２丁目１５番１３号,,14,134,2130001,,,,,,,2026-01-30,1,,,,,ヨアケマエスタジオ,0
1084,3020003030262,新規,0,2026-01-30,2026-01-30,合同会社Ｃａｌｉｃｏ　ＭＭ,,合同会社,神奈川県,横浜市南区,大岡１丁目４４番３号,,14,105,2320061,,,,,,,2026-01-30,1,,,,,キャリコエムエム,0
1089,3021001087336,新規,0,2026-01-30,2026-01-30,株式会社Ｐｒｅｍａ,,株式会社,神奈川県,小田原市,成田４８０番地５号,,14,206,2500862,,,,,,,2026-01-30,1,,,,,プレマ,0
1103,3030003028545,新規,0,2026-01-30,2026-01-30,エトワール商事合同会社,,合同会社,埼玉県,川口市,西川口３丁目１４番１４－１０６号フドウ西川口ハイツ,,11,203,3320021,,,,,,,2026-01-30,1,,,,,エトワールショウジ,0
1106,3040001142157,新規,0,2026-01-30,2026-01-30,株式会社黒川いろどりファーム,,株式会社,千葉県,市原市,二日市場４８１番地１,,12,219,2900216,,,,,,,2026-01-30,1,,,,,クロカワイロドリファーム,0
1107,3040001142322,新規,0,2026-01-30,2026-01-30,ＰＦＩ成田スマートウェルネス株式会社,,株式会社,千葉県,成田市,花崎町９４３番地１,,12,211,2860033,,,,,,,2026-01-30,1,,,,,ピーエフアイナリタスマートウェルネス,0
1121,3060005010408,新規,0,2026-01-30,2026-01-30,特定非営利活動法人北犬飼こども食堂ライト,,その他の設立登記法人,栃木県,鹿沼市,西茂呂３丁目３３番２号,,09,205,3220029,,,,,,,2026-01-30,1,,,,,キタイヌカイコドモショクドウライト,0
1123,3070001043716,新規,0,2026-01-30,2026-01-30,コサカホールディングス株式会社,,株式会社,群馬県,沼田市,上沼須町１０７番地２,,10,206,3780011,,,,,,,2026-01-30,1,,,,,コサカホールディングス,0
1125,3080001027404,新規,0,2026-01-30,2026-01-30,株式会社リノベクト,,株式会社,静岡県,静岡市清水区,大内７０－５,,22,103,4240061,,,,,,,2026-01-30,1,,,,,リノベクト,0
1141,3120001283728,新規,0,2026-01-30,2026-01-30,広豊堂株式会社,,株式会社,大阪府,大阪市東淀川区,東中島１丁目１７－５－２３８号室,,27,114,5330033,,,,,,,2026-01-30,1,,,,,コウホウドウ,0
1142,3120001283744,新規,0,2026-01-30,2026-01-30,株式会社ＳＬＡＹ　ＣＲＥＡＴＩＶＥ　ＳＴＵＤＩＯ,,株式会社,大阪府,大阪市中央区,南船場１丁目１８－２４－１１０２,,27,128,5420081,,,,,,,2026-01-30,1,,,,,スレイクリエイティブスタジオ,0
1143,3120001283769,新規,0,2026-01-30,2026-01-30,株式会社出田地所,,株式会社,大阪府,大阪市住之江区,新北島１丁目２番１８－１３０１号,,27,125,5590024,,,,,,,2026-01-30,1,,,,,イデタジショ,0
1144,3120001283810,新規,0,2026-01-30,2026-01-30,株式会社ＬＩＮＫ　ＭＥＤＩＡ　ＪＡＰＡＮ,,株式会社,大阪府,大阪市中央区,島之内１丁目２２番２３号堺筋山忠ビル９０２,,27,128,5420082,,,,,,,2026-01-30,1,,,,,リンクメディアジャパン,0
1152,3120905006845,新規,0,2026-01-30,2026-01-30,ＮＰＯ法人北摂杉の樹会,,その他の設立登記法人,大阪府,高槻市,南大樋町１番１号,,27,207,5690042,,,,,,,2026-01-30,1,,,,,ホクセツスギノキカイ,0
1155,3122001040134,新規,0,2026-01-30,2026-01-30,株式会社サマー,,株式会社,大阪府,東大阪市,近江堂２丁目８番１３号,,27,227,5770817,,,,,,,2026-01-30,1,,,,,サマー,0
1156,3122001040142,新規,0,2026-01-30,2026-01-30,株式会社ＯＷＮ,,株式会社,大阪府,八尾市,高美町４丁目１３－２１,,27,212,5810017,,,,,,,2026-01-30,1,,,,,オウン,0
1157,3122003003444,新規,0,2026-01-30,2026-01-30,錬金堂合同会社,,合同会社,大阪府,東大阪市,衣摺３丁目６番１８号,,27,227,5770827,,,,,,,2026-01-30,1,,,,,レンキンドウ,0
1179,3140001141520,新規,0,2026-01-30,2026-01-30,株式会社Ｆ＆Ｇ　ＲｅａｌＥｓｔａｔｅ,,株式会社,兵庫県,西宮市,田代町１９番６－１０１号,,28,204,6638201,,,,,,,2026-01-30,1,,,,,エフアンドジーリアルエステート,0
1180,3140001141537,新規,0,2026-01-30,2026-01-30,ユニコマース株式会社,,株式会社,兵庫県,神戸市中央区,磯辺通２丁目２－１０－１００６号室,,28,110,6510084,,,,,,,2026-01-30,1,,,,,ユニコマース,0
1181,3140001141545,新規,0,2026-01-30,2026-01-30,株式会社興洋商事,,株式会社,兵庫県,姫路市,飾磨区今在家１１４０番地５,,28,201,6728079,,,,,,,2026-01-30,1,,,,,コウヨウショウジ,0
1185,3160001027387,新規,0,2026-01-30,2026-01-30,株式会社Ｗａｇｙｕ　Ｇｕｉｌｄ　Ｊａｐａｎ,,株式会社,滋賀県,野洲市,小篠原８６５番地２,,25,210,5202331,,,,,,,2026-01-30,1,,,,,ワギュウギルドジャパン,0
1189,3180001170219,新規,0,2026-01-30,2026-01-30,ＰＡＬＥＴＴＥ　ＬＡＢ　ＪＡＰＡＮ株式会社,,株式会社,愛知県,清須市,朝日弥生１３７メゾンドタミー３０３,,23,233,4520932,,,,,,,2026-01-30,1,,,,,パレットラボジャパン,0
1191,3180001170466,新規,0,2026-01-30,2026-01-30,株式会社ＨＡＫＵ,,株式会社,愛知県,名古屋市守山区,守山２丁目１４番３号,,23,113,4630067,,,,,,,2026-01-30,1,,,,,ハク,0
1192,3180001170482,新規,0,2026-01-30,2026-01-30,株式会社Ａｎｏｔｈｅｒ　Ｓｋｙ,,株式会社,愛知県,瀬戸市,西松山町３丁目３８番地,,23,204,4890912,,,,,,,2026-01-30,1,,,,,アナザースカイ,0
1215,3190003005339,新規,0,2026-01-30,2026-01-30,千種合同会社,,合同会社,三重県,桑名市,中央町１丁目３０番地１,,24,205,5110068,,,,,,,2026-01-30,1,,,,,チクサ,0
1218,3210001020477,新規,0,2026-01-30,2026-01-30,株式会社ｍ・ｂホールディングス,,株式会社,福井県,小浜市,千種１丁目９番３号,,18,204,9170072,,,,,,,2026-01-30,1,,,,,エムビーホールディングス,0
1221,3220003004213,新規,0,2026-01-30,2026-01-30,どにちのワークス合同会社,,合同会社,石川県,金沢市,北安江４丁目２８－１４キャッスル駅西２０２号室,,17,201,9200022,,,,,,,2026-01-30,1,,,,,ドニチノワークス,0
1392,3240001066105,新規,0,2026-01-30,2026-01-30,株式会社ＭＩＬＬＥＲＳ,,株式会社,広島県,江田島市,沖美町是長５４６番１望海荘１０３号,,34,215,7372313,,,,,,,2026-01-30,1,,,,,ミラーズ,0
1425,3350001019919,新規,0,2026-01-30,2026-01-30,株式会社ひだふく,,株式会社,宮崎県,宮崎市,上野町１０番６号,,45,201,8800011,,,,,,,2026-01-30,1,,,,,ヒダフク,0
1427,3360001036302,新規,0,2026-01-30,2026-01-30,株式会社ｂｏｔｔｌｅ　ｐａｌｍ　ｇａｒｄｅｎ,,株式会社,沖縄県,国頭郡本部町,字瀬底４０５４－１,,47,308,9050227,,,,,,,2026-01-30,1,,,,,ボトルパームガーデン,0
1444,3380001035839,新規,0,2026-01-30,2026-01-30,株式会社アペタイザー,,株式会社,福島県,福島市,下野寺字山神５１番地の７,,07,201,9608075,,,,,,,2026-01-30,1,,,,,アペタイザー,0
1452,3400001017306,新規,0,2026-01-30,2026-01-30,株式会社ＯＭＵＧＩＴＡＣＨＩ,,株式会社,岩手県,盛岡市,永井１５地割４６番地２,,03,201,0200834,,,,,,,2026-01-30,1,,,,,オムギタチ,0
1478,3430001096157,新規,0,2026-01-30,2026-01-30,株式会社北ノ将,,株式会社,北海道,札幌市中央区,南二十七条西１３丁目１番１２－２０３号,,01,101,0640927,,,,,,,2026-01-30,1,,,,,キタノショウ,0
1484,3440001009753,新規,0,2026-01-30,2026-01-30,株式会社ＳＱＵＡＲＥ,,株式会社,北海道,函館市,日吉町３丁目２１番１１号,,01,202,0410841,,,,,,,2026-01-30,1,,,,,スクエア,0
1486,3460101007812,新規,0,2026-01-30,2026-01-30,株式会社サニーロータス,,株式会社,北海道,中川郡幕別町,札内西町３２番地の１６,,01,643,0890536,,,,,,,2026-01-30,1,,,,,サニーロータス,0
1505,4010001261850,新規,0,2026-01-30,2026-01-30,ＤｅｌｉｇｈｔＳ株式会社,,株式会社,東京都,中央区,日本橋浜町２丁目１０－９,,13,102,1030007,,,,,,,2026-01-30,1,,,,,ディライツ,0
1506,4010001262213,新規,0,2026-01-30,2026-01-30,株式会社グロースワークス,,株式会社,東京都,千代田区,神田佐久間町４丁目１番地ベラカーサ秋葉原９０４号,,13,101,1010025,,,,,,,2026-01-30,1,,,,,グロースワークス,0
1507,4010001262403,新規,0,2026-01-30,2026-01-30,株式会社ＭＥＥＺＩ,,株式会社,東京都,中央区,銀座１丁目１２番４号Ｎ＆ＥＢＬＤ．６Ｆ,,13,102,1040061,,,,,,,2026-01-30,1,,,,,ミージー,0
1512,4010003050112,新規,0,2026-01-30,2026-01-30,Ｌｉｂｕｐ合同会社,,合同会社,東京都,中央区,東日本橋２丁目９番７－６０３号,,13,102,1030004,,,,,,,2026-01-30,1,,,,,リバップ,0
1513,4010003050129,新規,0,2026-01-30,2026-01-30,アルカ・アセンド合同会社,,合同会社,東京都,中央区,銀座１丁目１２番４号ＮＥビル６Ｆ,,13,102,1040061,,,,,,,2026-01-30,1,,,,,アルカアセンド,0
1514,4010003050178,新規,0,2026-01-30,2026-01-30,合同会社エムアイ,,合同会社,東京都,中央区,銀座１丁目１２番４号Ｎ＆ＥＢＬＤ．６Ｆ,,13,102,1040061,,,,,,,2026-01-30,1,,,,,エムアイ,0
1519,4010401196119,新規,0,2026-01-30,2026-01-30,卓悦株式会社,,株式会社,東京都,港区,北青山１丁目３番１号アールキューブ青山８階ＰｕｒｐｌｅＣａｐｉｔａｌ内,,13,103,1070061,,,,,,,2026-01-30,1,,,,,タクエツ,0
1520,4010401196184,新規,0,2026-01-30,2026-01-30,株式会社ＢｅｔａＬａｂ,,株式会社,東京都,港区,芝浦３丁目１５番４号,,13,103,1080023,,,,,,,2026-01-30,1,,,,,ベータラボ,0
1521,4010401196192,新規,0,2026-01-30,2026-01-30,株式会社東川,,株式会社,東京都,港区,港南２丁目１６番１号品川イーストワンタワー４階４４５号室,,13,103,1080075,,,,,,,2026-01-30,1,,,,,トウセン,0
1540,4011001174877,新規,0,2026-01-30,2026-01-30,Ｂｌｕｅ　Ｓｈｉｅｌｄ　Ｊａｐａｎ株式会社,,株式会社,東京都,渋谷区,富ヶ谷１丁目１４番１４号スタンフォードアネックスビル４Ｆ,,13,113,1510063,,,,,,,2026-01-30,1,,,,,ブルーシールドジャパン,0
1541,4011001174943,新規,0,2026-01-30,2026-01-30,ＴａｌｋＯｎｅ株式会社,,株式会社,東京都,渋谷区,道玄坂１丁目１０番８号渋谷道玄坂東急ビル２Ｆ－Ｃ,,13,113,1500043,,,,,,,2026-01-30,1,,,,,トークワン,0
1542,4011001175082,新規,0,2026-01-30,2026-01-30,株式会社Ｃａｔｒａ,,株式会社,東京都,渋谷区,神南１丁目１１－４ＦＰＧリンクス神南５階,,13,113,1500041,,,,,,,2026-01-30,1,,,,,カトラ,0
1552,4011103016936,新規,0,2026-01-30,2026-01-30,合同会社Ｆｅｎｉｘ,,合同会社,東京都,新宿区,歌舞伎町１丁目１８－１０吉川ビル４Ｆ,,13,104,1600021,,,,,,,2026-01-30,1,,,,,フェニックス,0
1592,4012403007591,新規,0,2026-01-30,2026-01-30,合同会社古賀総業,,合同会社,東京都,三鷹市,下連雀７丁目９番８－５０１号,,13,204,1810013,,,,,,,2026-01-30,1,,,,,コガソウギョウ,0
1611,4020003030237,新規,0,2026-01-30,2026-01-30,ＹＪインターナショナル合同会社,,合同会社,神奈川県,横浜市中区,吉田町１２－２－７０７,,14,104,2310041,,,,,,,2026-01-30,1,,,,,ワイジェーインターナショナル,0
1613,4020005017125,新規,0,2026-01-30,2026-01-30,一般社団法人Ｍ　Ｌａｂ．,,その他の設立登記法人,神奈川県,川崎市多摩区,登戸２５５２番地ロワゾーブルー３０３,,14,135,2140014,,,,,,,2026-01-30,1,,,,,エムラボ,0
1615,4021001087401,新規,0,2026-01-30,2026-01-30,株式会社湘南機械,,株式会社,神奈川県,三浦郡葉山町,堀内３９０番地の７,,14,301,2400112,,,,,,,2026-01-30,1,,,,,ショウナンキカイ,0
1624,4030001170752,新規,0,2026-01-30,2026-01-30,株式会社マスターテック,,株式会社,埼玉県,白岡市,新白岡３丁目３４番地１,,11,246,3490212,,,,,,,2026-01-30,1,,,,,マスターテック,0
1625,4030001170760,新規,0,2026-01-30,2026-01-30,タクトマネジメント株式会社,,株式会社,埼玉県,八潮市,中央１丁目１８番地１６,,11,234,3400816,,,,,,,2026-01-30,1,,,,,タクトマネジメント,0
1627,4030003028379,新規,0,2026-01-30,2026-01-30,合同会社ハレルヤベンリー,,合同会社,埼玉県,入間市,大字小谷田４７番１号グランドソレイユＩＩ２０２,00142383,11,225,3580026,,,,,,,2026-01-30,1,,,,,ハレルヤベンリー,0
1628,4030003028544,新規,0,2026-01-30,2026-01-30,トラストバリュー合同会社,,合同会社,埼玉県,川越市,宮元町５６番地２８,,11,201,3500838,,,,,,,2026-01-30,1,,,,,トラストバリュー,0
1639,4040003029384,新規,0,2026-01-30,2026-01-30,合同会社エイロウ,,合同会社,千葉県,木更津市,請西１８０５番地１,,12,206,2920801,,,,,,,2026-01-30,1,,,,,エイロウ,0
1644,4070001043780,新規,0,2026-01-30,2026-01-30,株式会社Ｂ．Ｄ．Ｓ．,,株式会社,群馬県,邑楽郡大泉町,朝日４丁目１３番２３号,,10,524,3700514,,,,,,,2026-01-30,1,,,,,ビーディーエス,0
1648,4080001027403,新規,0,2026-01-30,2026-01-30,株式会社ＧｌｏｗＵｐ,,株式会社,静岡県,静岡市葵区,門屋１１１番地の１,,22,101,4212107,,,,,,,2026-01-30,1,,,,,グローアップ,0
1657,4100003008596,新規,0,2026-01-30,2026-01-30,合同会社ＮＯＭ‐ＢＥＳＳ１号,,合同会社,長野県,上田市,上田原７９２番地９,,20,203,3861102,,,,,,,2026-01-30,1,,,,,ノムベスイチゴウ,0
1664,4120003031720,新規,0,2026-01-30,2026-01-30,合同会社ＭＩＲＯＫ　ＥＳＴＡＴＥ,,合同会社,大阪府,大阪市西区,南堀江３丁目１０番８号,,27,106,5500015,,,,,,,2026-01-30,1,,,,,ミロクエステート,0
1665,4120003031803,新規,0,2026-01-30,2026-01-30,合同会社ＪＵＵＮＯ,,合同会社,大阪府,大阪市生野区,新今里５丁目４番７号,,27,116,5440001,,,,,,,2026-01-30,1,,,,,ジューノ,0
1666,4120003031811,新規,0,2026-01-30,2026-01-30,合同会社エクラ,,合同会社,大阪府,大阪市天王寺区,大道１丁目１３番１７－２０１号,,27,109,5430052,,,,,,,2026-01-30,1,,,,,エクラ,0
1667,4120101073128,新規,0,2026-01-30,2026-01-30,Ｆａｃｔｏｒｙ　Ｅｉｇｈｔ株式会社,,株式会社,大阪府,羽曳野市,蔵之内６４７―１,,27,222,5830863,,,,,,,2026-01-30,1,,,,,ファクトリーエイト,0
1668,4120103006969,新規,0,2026-01-30,2026-01-30,ＩＮＡＢＡ　ＣＡＲＳ合同会社,,合同会社,大阪府,岸和田市,稲葉町９４７,,27,202,5960103,,,,,,,2026-01-30,1,,,,,イナバカーズ,0
1677,4130001081502,新規,0,2026-01-30,2026-01-30,株式会社ビッグホエール,,株式会社,京都府,京都市山科区,東野舞台町８８－１－１Ｆ,,26,110,6078146,,,,,,,2026-01-30,1,,,,,ビッグホエール,0
1678,4130001081519,新規,0,2026-01-30,2026-01-30,株式会社増子鉄工所,,株式会社,京都府,久世郡久御山町,野村村東１４８番地６,,26,322,6130023,,,,,,,2026-01-30,1,,,,,マスコテッコウショ,0
1687,4140001141528,新規,0,2026-01-30,2026-01-30,株式会社ＳＡＮＡＲｅｎ,,株式会社,兵庫県,神戸市垂水区,名谷町字北野屋敷３０５２－２,,28,108,6550852,,,,,,,2026-01-30,1,,,,,サナーレン,0
1692,4140003023113,新規,0,2026-01-30,2026-01-30,合同会社ブルーム,,合同会社,兵庫県,宝塚市,安倉中４丁目１３－２,,28,214,6650822,,,,,,,2026-01-30,1,,,,,ブルーム,0
1693,4150003003824,新規,0,2026-01-30,2026-01-30,合同会社讃重,,合同会社,奈良県,磯城郡田原本町,大字阪手３６０－９,,29,363,6360247,,,,,,,2026-01-30,1,,,,,アキシゲ,0
1696,4160003003716,新規,0,2026-01-30,2026-01-30,小泉合同会社,,合同会社,滋賀県,栗東市,安養寺４丁目２番６号,,25,208,5203015,,,,,,,2026-01-30,1,,,,,コイズミ,0
1697,4170001018962,新規,0,2026-01-30,2026-01-30,株式会社松依,,株式会社,和歌山県,田辺市,明洋３丁目２番７号,,30,206,6460062,,,,,,,2026-01-30,1,,,,,マツエ,0
1723,4180301040599,新規,0,2026-01-30,2026-01-30,株式会社リコプラス,,株式会社,愛知県,田原市,和地町北山２番地,,23,231,4413622,,,,,,,2026-01-30,1,,,,,リコプラス,0
1724,4180301040640,新規,0,2026-01-30,2026-01-30,株式会社ＴＲＵＮＫ不動産,,株式会社,愛知県,豊田市,宮上町８丁目９７番地,,23,211,4710038,,,,,,,2026-01-30,1,,,,,トランクフドウサン,0
1728,4190003005338,新規,0,2026-01-30,2026-01-30,Ｍ．Ａ．Ｓ．合同会社,,合同会社,三重県,伊勢市,楠部町３５‐１グリーンハイツ倉田山２‐３,,24,203,5160014,,,,,,,2026-01-30,1,,,,,エムエーエス,0
1734,4220003004212,新規,0,2026-01-30,2026-01-30,合同会社オールトラスト,,合同会社,石川県,金沢市,粟崎町ニ６４番地２,,17,201,9200226,,,,,,,2026-01-30,1,,,,,オールトラスト,0
1922,4260001003773,新規,0,2026-01-30,2026-01-30,全洋水産株式会社,,株式会社,岡山県,岡山市南区,藤田２０１１番地の３,,33,104,7010221,,,,,,,2026-01-30,1,,,,,ゼンヨウスイサン,0
1925,4260003005495,新規,0,2026-01-30,2026-01-30,合同会社心花,,合同会社,岡山県,美作市,栄町９２番地４,,33,215,7070025,,,,,,,2026-01-30,1,,,,,ココハナ,0
1926,4270001009381,新規,0,2026-01-30,2026-01-30,株式会社とりぎん地域デザインパートナーズ,,株式会社,鳥取県,鳥取市,永楽温泉町１７１番地,,31,201,6800834,,,,,,,2026-01-30,1,,,,,トリギンチイキデザインパートナーズ,0
1932,4300001014493,新規,0,2026-01-30,2026-01-30,タイガー建機株式会社,,株式会社,佐賀県,鹿島市,浜町甲８０７番地,,41,207,8491322,,,,,,,2026-01-30,1,,,,,タイガーケンキ,0
1937,4320003004887,新規,0,2026-01-30,2026-01-30,合同会社ＲＥ・ＤＥＳＩＧＮ,,合同会社,大分県,日田市,大字求来里４８３番地,,44,204,8770000,,,,,,,2026-01-30,1,,,,,リデザイン,0
1943,4350001019918,新規,0,2026-01-30,2026-01-30,株式会社倉薗牧場,,株式会社,宮崎県,小林市,北西方５０５３番地３,,45,205,8860006,,,,,,,2026-01-30,1,,,,,クラゾノボクジョウ,0
1975,4400001017305,新規,0,2026-01-30,2026-01-30,株式会社インテリオール,,株式会社,岩手県,盛岡市,清水町２番６号,,03,201,0200875,,,,,,,2026-01-30,1,,,,,インテリオール,0
1977,4400003003600,新規,0,2026-01-30,2026-01-30,合同会社岩信商事,,合同会社,岩手県,西磐井郡平泉町,長島字杉９番地５,,03,402,0294101,,,,,,,2026-01-30,1,,,,,イワシンショウジ,0
2006,4430001096164,新規,0,2026-01-30,2026-01-30,株式会社ファクトリアル,,株式会社,北海道,札幌市中央区,北四条西４丁目１番７号ＭＭＳ札幌駅前ビル１階,,01,101,0600004,,,,,,,2026-01-30,1,,,,,ファクトリアル,0
2008,4450001014850,新規,0,2026-01-30,2026-01-30,株式会社ｅｖｉａｓ,,株式会社,北海道,旭川市,豊岡一条３丁目１番１８号,,01,204,0788231,,,,,,,2026-01-30,1,,,,,エビアス,0
2023,5010003050103,新規,0,2026-01-30,2026-01-30,合同会社タンデム・パートナーズ,,合同会社,東京都,文京区,本郷５丁目１８番２－５０７号,,13,105,1130033,,,,,,,2026-01-30,1,,,,,タンデムパートナーズ,0
2024,5010003050177,新規,0,2026-01-30,2026-01-30,こざくら合同会社,,合同会社,東京都,文京区,水道２丁目３－２１クボタマンション２０４,,13,105,1120005,,,,,,,2026-01-30,1,,,,,コザクラ,0
2025,5010103002747,新規,0,2026-01-30,2026-01-30,合同会社ＦＡＮＧ,,合同会社,東京都,八王子市,南大沢３丁目１４番地２－５０１,,13,201,1920364,,,,,,,2026-01-30,1,,,,,ファング,0
2028,5010401196134,新規,0,2026-01-30,2026-01-30,株式会社Ｃｏｎｐｈｏｎｉｔｙ,,株式会社,東京都,港区,南青山２丁目２番１５－９４２号,,13,103,1070062,,,,,,,2026-01-30,1,,,,,コンフォニティ,0
2029,5010401196175,新規,0,2026-01-30,2026-01-30,照隅の杜株式会社,,株式会社,東京都,港区,新橋４丁目１９番５号プロスペラ新橋３０２,,13,103,1050004,,,,,,,2026-01-30,1,,,,,ショウグウノモリ,0
2032,5010403037146,新規,0,2026-01-30,2026-01-30,構造建設合同会社,,合同会社,東京都,港区,南青山５丁目１１番２４号グレイセス２Ｆ,,13,103,1070062,,,,,,,2026-01-30,1,,,,,コウゾウケンセツ,0
2033,5010403037187,新規,0,2026-01-30,2026-01-30,合同会社ｅＴＲＩＸ,,合同会社,東京都,港区,芝浦１丁目１番１号,,13,103,1050023,,,,,,,2026-01-30,1,,,,,イートリックス,0
2047,5011003023387,新規,0,2026-01-30,2026-01-30,松田拓写真事務所合同会社,,合同会社,東京都,目黒区,中町２丁目５番１３号ザ・ピーク３Ｆ,,13,110,1530065,,,,,,,2026-01-30,1,,,,,マツダタクシャシンジムショ,0
2052,5011103016943,新規,0,2026-01-30,2026-01-30,合同会社ケイズアシスト,,合同会社,東京都,新宿区,荒木町１番地４３木村ビル１階,,13,104,1600007,,,,,,,2026-01-30,1,,,,,ケイズアシスト,0
2058,5011701029132,新規,0,2026-01-30,2026-01-30,株式会社グリーンアバディ,,株式会社,東京都,江戸川区,瑞江２丁目６番１１号プレステージ瑞江２階,,13,123,1320011,,,,,,,2026-01-30,1,,,,,グリーンアバディ,0
2078,5012401044025,新規,0,2026-01-30,2026-01-30,株式会社鳳笙メディカルサービス,,株式会社,東京都,調布市,国領町７丁目３３番地１－２Ｆ,,13,208,1820022,,,,,,,2026-01-30,1,,,,,ホウショウメディカルサービス,0
2079,5012401044074,新規,0,2026-01-30,2026-01-30,株式会社Ｏｒａｄａｓ,,株式会社,東京都,三鷹市,井口３丁目３番２４－１０６号,,13,204,1810011,,,,,,,2026-01-30,1,,,,,オラダス,0
2099,5020001166874,新規,0,2026-01-30,2026-01-30,株式会社ｃｈｉｃｏ‐ｗｅｌｌｎｅｓｓ　ｇｒｏｕｐ,,株式会社,神奈川県,川崎市川崎区,田町２丁目４番１４－１０１,,14,131,2100822,,,,,,,2026-01-30,1,,,,,チエコーウェルネスグループ,0
2102,5020003030161,新規,0,2026-01-30,2026-01-30,合同会社ポケポケ商店,,合同会社,神奈川県,横浜市神奈川区,沢渡３１番地３２,,14,102,2210844,,,,,,,2026-01-30,1,,,,,ポケポケショウテン,0
2103,5020003030269,新規,0,2026-01-30,2026-01-30,合同会社未来のかけはし,,合同会社,神奈川県,川崎市高津区,久末４８７番地５９,,14,134,2130026,,,,,,,2026-01-30,1,,,,,ミライノカケハシ,0
2117,5030001170751,新規,0,2026-01-30,2026-01-30,株式会社オーキフル,,株式会社,埼玉県,さいたま市南区,白幡３丁目４番１４－９０２号,,11,108,3360022,,,,,,,2026-01-30,1,,,,,オーキフル,0
2120,5030003028543,新規,0,2026-01-30,2026-01-30,合同会社Ｈｏｐｅ,,合同会社,埼玉県,所沢市,東町２２－６所沢ＫＭビル７０２,,11,208,3591116,,,,,,,2026-01-30,1,,,,,ホープ,0
2131,5040005023021,新規,0,2026-01-30,2026-01-30,医療法人社団正溪会,,その他の設立登記法人,千葉県,松戸市,小金２番地ピコティ西館１階１１３,,12,207,2700014,,,,,,,2026-01-30,1,,,,,セイケイカイ,0
2137,5080001027402,新規,0,2026-01-30,2026-01-30,株式会社モリシン工業,,株式会社,静岡県,藤枝市,高柳３丁目１９番６号,,22,214,4260041,,,,,,,2026-01-30,1,,,,,モリシンコウギョウ,0
2140,5080103003516,新規,0,2026-01-30,2026-01-30,合同会社Ｈａｎａ,,合同会社,静岡県,下田市,六丁目１４番２０号,,22,219,4150026,,,,,,,2026-01-30,1,,,,,ハナ,0
2147,5100003008595,新規,0,2026-01-30,2026-01-30,合同会社ＮＯＭ‐ＢＥＳＳ２号,,合同会社,長野県,上田市,上田原７９２番地９,,20,203,3861102,,,,,,,2026-01-30,1,,,,,ノムベスニゴウ,0
2161,5120001283668,新規,0,2026-01-30,2026-01-30,株式会社Ｔｒｕｓｔ　Ｅｄｇｅ,,株式会社,大阪府,大阪市中央区,平野町２丁目２－９ビル皿井４０２,,27,128,5410046,,,,,,,2026-01-30,1,,,,,トラストエッジ,0
2162,5120001283800,新規,0,2026-01-30,2026-01-30,株式会社エール,,株式会社,大阪府,門真市,舟田町５４番１号,,27,223,5710021,,,,,,,2026-01-30,1,,,,,エール,0
2163,5120001283809,新規,0,2026-01-30,2026-01-30,株式会社ＧＦ,,株式会社,大阪府,大阪市生野区,巽北４丁目１２番１６号ファミールＤ希ＩＩ１０８,00142401,27,116,5440004,,,,,,,2026-01-30,1,,,,,ジーエフ,0
2167,5120003031810,新規,0,2026-01-30,2026-01-30,合同会社ウィーゴール,,合同会社,大阪府,大阪市東淀川区,大桐５丁目１４－１１－３０８,,27,114,5330011,,,,,,,2026-01-30,1,,,,,ウィーゴール,0
2168,5120005025372,新規,0,2026-01-30,2026-01-30,司法書士法人ＦＩＲＳＴ　ＣＡＬＬ,,その他の設立登記法人,大阪府,大阪市淀川区,十三元今里２丁目５番６号高橋ビル２Ｆ,00142397,27,123,5320028,,,,,,,2026-01-30,1,,,,,ファーストコール,0
2174,5120901052156,新規,0,2026-01-30,2026-01-30,株式会社ソルテラ,,株式会社,大阪府,吹田市,千里山西５丁目４１番２０－１号,,27,205,5650851,,,,,,,2026-01-30,1,,,,,ソルテラ,0
2176,5130001081518,新規,0,2026-01-30,2026-01-30,株式会社内里自動車販売,,株式会社,京都府,八幡市,内里東ノ口３番地の１,,26,210,6148226,,,,,,,2026-01-30,1,,,,,ウチサトジドウシャハンバイ,0
2197,5180001170448,新規,0,2026-01-30,2026-01-30,ＥＮＶＡＳＴ株式会社,,株式会社,愛知県,名古屋市中村区,名駅３丁目４－１０アルティメイト名駅１ｓｔ２階,,23,105,4500002,,,,,,,2026-01-30,1,,,,,エンヴァスト,0
2202,5180003029709,新規,0,2026-01-30,2026-01-30,合同会社ＷＧプロダクション,,合同会社,愛知県,名古屋市中村区,名駅４丁目２４番５号第２森ビル４０１,,23,105,4500002,,,,,,,2026-01-30,1,,,,,ダブルジープロダクション,0
2207,5190003005337,新規,0,2026-01-30,2026-01-30,合同会社エイト,,合同会社,三重県,鈴鹿市,三畑町５０７９番地の６９,,24,207,5190322,,,,,,,2026-01-30,1,,,,,エイト,0
2383,5240001066103,新規,0,2026-01-30,2026-01-30,株式会社イシカワ設立準備会社,,株式会社,広島県,廿日市市,峠１０２４５番地３７,,34,213,7380202,,,,,,,2026-01-30,1,,,,,イシカワセツリツジュンビガイシャ,0
2394,5240005016038,新規,0,2026-01-30,2026-01-30,一般社団法人福山ムスリム協会,,その他の設立登記法人,広島県,福山市,御船一丁目１０－１３,,34,207,7210000,,,,,,,2026-01-30,1,,,,,フクヤマムスリムキョウカイ,0
2412,5350003005130,新規,0,2026-01-30,2026-01-30,合同会社プロストック,,合同会社,宮崎県,宮崎市,宮崎駅東３丁目１２－６－４０２,,45,201,8800879,,,,,,,2026-01-30,1,,,,,プロストック,0
2415,5360003015590,新規,0,2026-01-30,2026-01-30,ｎａｋｅｄ　Ａｓｓｅｔｓ　Ｊａｐａｎ合同会社,,合同会社,沖縄県,那覇市,泉崎１丁目２０番６号,,47,201,9000021,,,,,,,2026-01-30,1,,,,,ネイキッドアセッツジャパン,0
2445,5400001017304,新規,0,2026-01-30,2026-01-30,株式会社滝商店,,株式会社,岩手県,一関市,末広２丁目５番７号,,03,209,0210032,,,,,,,2026-01-30,1,,,,,タキショウテン,0
2447,5400003003640,新規,0,2026-01-30,2026-01-30,香村合同会社,,合同会社,岩手県,花巻市,東和町田瀬９区１８３,,03,205,0280123,,,,,,,2026-01-30,1,,,,,コウムラ,0
2475,5430001096122,新規,0,2026-01-30,2026-01-30,株式会社ＳＰＯＲＴＥＲＩＡ,,株式会社,北海道,札幌市中央区,南二条西５丁目３１‐１ＲＭＢｌｄ．７０１,,01,101,0600062,,,,,,,2026-01-30,1,,,,,スポテリア,0
2480,5700150134258,新規,0,2026-01-30,2026-01-30,ぺんてる健康保険組合,,その他,東京都,中央区,日本橋兜町１番１０号,,13,102,1030026,,,,,,,2026-01-30,1,,,,,ペンテルケンコウホケンクミアイ,0
2485,6010001262211,新規,0,2026-01-30,2026-01-30,人とまち株式会社,,株式会社,東京都,中央区,銀座１丁目１２－４Ｎ＆ＥＢＬＤ．７階,,13,102,1040061,,,,,,,2026-01-30,1,,,,,ヒトトマチ,0
2486,6010001262401,新規,0,2026-01-30,2026-01-30,プレケアメディカル株式会社,,株式会社,東京都,中央区,東日本橋２丁目１番１２号,,13,102,1030004,,,,,,,2026-01-30,1,,,,,プレケアメディカル,0
2488,6010003050127,新規,0,2026-01-30,2026-01-30,合同会社ＮＥＫＯＴＡ,,合同会社,東京都,文京区,小石川１丁目５番１－２４０１号,,13,105,1120002,,,,,,,2026-01-30,1,,,,,,0
2507,6010403037070,新規,0,2026-01-30,2026-01-30,ＷＬ　Ｃａｐｉｔａｌ　ＳＰＣ１号合同会社,,合同会社,東京都,港区,愛宕２丁目５番１号愛宕グリーンヒルズＭＯＲＩタワー３４階,,13,103,1050002,,,,,,,2026-01-30,1,,,,,ダブリューエルキャピタルエスピーシーイチゴウ,0
2508,6010403037178,新規,0,2026-01-30,2026-01-30,合同会社Ｃｈａｔｅａｕｇａｙ,,合同会社,東京都,港区,虎ノ門１丁目１番１８号ヒューリック虎ノ門ビル９階Ｌ＆Ｐ司法書士法人内,,13,103,1050001,,,,,,,2026-01-30,1,,,,,シャートゲイ,0
2509,6010403037186,新規,0,2026-01-30,2026-01-30,合同会社Ｎ‐Ｃｏｎｎｅｃｔ２号,,合同会社,東京都,港区,芝浦１丁目１番１号,,13,103,1050023,,,,,,,2026-01-30,1,,,,,エヌコネクトニゴウ,0
2510,6010405025305,新規,0,2026-01-30,2026-01-30,一般社団法人Ｍｉｔａｇ,,その他の設立登記法人,東京都,港区,虎ノ門１丁目１番１８号ヒューリック虎ノ門ビル９階Ｌ＆Ｐ司法書士法人内,,13,103,1050001,,,,,,,2026-01-30,1,,,,,ミートク,0
2513,6010801037003,新規,0,2026-01-30,2026-01-30,株式会社ＫＨＭ,,株式会社,東京都,大田区,池上６丁目１番２１号ＣＳ池上ビル１Ｆ,,13,111,1460082,,,,,,,2026-01-30,1,,,,,ケイエイチエム,0
2520,6011001175031,新規,0,2026-01-30,2026-01-30,株式会社ファルコネクス,,株式会社,東京都,渋谷区,神南１丁目２３番１４号リージャス渋谷公園通りセンター,,13,113,1500041,,,,,,,2026-01-30,1,,,,,ファルコネクス,0
2521,6011001175064,新規,0,2026-01-30,2026-01-30,株式会社Ｓｔｕｄｉｏ　ＫＵＵ,,株式会社,東京都,目黒区,五本木２丁目４９番２０－３０８号,,13,110,1530053,,,,,,,2026-01-30,1,,,,,,0
2528,6011101114566,新規,0,2026-01-30,2026-01-30,晴禾株式会社,,株式会社,東京都,新宿区,西新宿３丁目３番１３号西新宿水間ビル２Ｆ,,13,104,1600023,,,,,,,2026-01-30,1,,,,,ハレカ,0
2530,6011103016934,新規,0,2026-01-30,2026-01-30,合同会社Ｓｔｕｄｉｏ　Ｈｉｋａｒｉ,,合同会社,東京都,新宿区,西新宿３丁目３番１３号西新宿水間ビル２Ｆ,,13,104,1600023,,,,,,,2026-01-30,1,,,,,スタジオヒカリ,0
2584,6013301055623,新規,0,2026-01-30,2026-01-30,株式会社ゆいと,,株式会社,東京都,豊島区,東池袋１丁目３４番５号いちご東池袋ビル６階,,13,116,1700013,,,,,,,2026-01-30,1,,,,,ユイト,0
2599,6020001166832,新規,0,2026-01-30,2026-01-30,株式会社Ｅａｒｔｉｓ　Ｌａｂ,,株式会社,神奈川県,横浜市西区,浅間町１丁目４番３号ウィザードビル４０２号,,14,103,2200072,,,,,,,2026-01-30,1,,,,,アーティスラボ,0
2600,6020001166915,新規,0,2026-01-30,2026-01-30,ＢＵＳＯ株式会社,,株式会社,神奈川県,横浜市港北区,綱島東１丁目８番２０号,,14,109,2230052,,,,,,,2026-01-30,1,,,,,ブソウ,0
2621,6040001142154,新規,0,2026-01-30,2026-01-30,日藤商事株式会社,,株式会社,千葉県,千葉市若葉区,小倉町１７５１番地３６ベルレール小倉台壱番館２０６号室,,12,104,2640007,,,,,,,2026-01-30,1,,,,,ニットウショウジ,0
2622,6040001142286,新規,0,2026-01-30,2026-01-30,ＳＫＪ１１４ファーム株式会社,,株式会社,千葉県,東金市,福俵９６０番地,,12,213,2830812,,,,,,,2026-01-30,1,,,,,エスケイジェイイチイチヨンファーム,0
2623,6040001142294,新規,0,2026-01-30,2026-01-30,畑企画株式会社,,株式会社,千葉県,千葉市花見川区,幕張町２丁目２４２５番地３,,12,102,2620032,,,,,,,2026-01-30,1,,,,,ハタキカク,0
2626,6040005023029,新規,0,2026-01-30,2026-01-30,特定非営利活動法人空き家相談窓口センター,,その他の設立登記法人,千葉県,千葉市中央区,中央４丁目１７番１号（ＫＪビル）,,12,101,2600013,,,,,,,2026-01-30,1,,,,,アキヤソウダンマドグチセンター,0
2642,6100003008594,新規,0,2026-01-30,2026-01-30,合同会社ＮＯＭ‐ＢＥＳＳ３号,,合同会社,長野県,上田市,上田原７９２番地９,,20,203,3861102,,,,,,,2026-01-30,1,,,,,ノムベスサンゴウ,0
2655,6120001283790,新規,0,2026-01-30,2026-01-30,株式会社ベイカ・ワン,,株式会社,大阪府,大阪市北区,梅田１丁目１番３号大阪駅前第３ビル２Ｆ,,27,127,5300001,,,,,,,2026-01-30,1,,,,,ベイカワン,0
2656,6120001283808,新規,0,2026-01-30,2026-01-30,Ｌｉｎｋ　Ｍｕｓｉｃ株式会社,,株式会社,大阪府,大阪市東淀川区,東中島１丁目１９番４号,,27,114,5330033,,,,,,,2026-01-30,1,,,,,リンクミュージック,0
2661,6120005025371,新規,0,2026-01-30,2026-01-30,行政書士法人ＦＩＲＳＴ　ＣＡＬＬ,,その他の設立登記法人,大阪府,大阪市淀川区,十三元今里２丁目５番６号高橋ビル２Ｆ,00142398,27,123,5320028,,,,,,,2026-01-30,1,,,,,ファーストコール,0
2665,6120105010117,新規,0,2026-01-30,2026-01-30,一般社団法人泉南石橋農園,,その他の設立登記法人,大阪府,泉南市,樽井６丁目１９番１５号,,27,228,5900521,,,,,,,2026-01-30,1,,,,,センナンイシバシノウエン,0
2668,6120901052163,新規,0,2026-01-30,2026-01-30,株式会社ｍａｒ,,株式会社,大阪府,茨木市,東太田２丁目１４番２０号,,27,211,5670012,,,,,,,2026-01-30,1,,,,,マール,0
2672,6130003011125,新規,0,2026-01-30,2026-01-30,エコアグリ合同会社,,合同会社,京都府,京都市右京区,西院安塚町８９番地７パラドール西院パートＩ５０８,00142399,26,108,6150051,,,,,,,2026-01-30,1,,,,,エコアグリ,0
2685,6180001170488,新規,0,2026-01-30,2026-01-30,コモンズエステイト株式会社,,株式会社,愛知県,愛知郡東郷町,北山台４丁目１０番地１４スペクトル東郷北山台９０５号,,23,302,4700152,,,,,,,2026-01-30,1,,,,,コモンズエステイト,0
2694,6180301040639,新規,0,2026-01-30,2026-01-30,日本ハイテクノロジー株式会社,,株式会社,愛知県,知立市,西丘町西丘９３番地知立パビリオン２棟１０４号,,23,225,4720027,,,,,,,2026-01-30,1,,,,,ニホンハイテクノロジー,0
2695,6190003005336,新規,0,2026-01-30,2026-01-30,合同会社エコビジット,,合同会社,三重県,熊野市,有馬町１６９９番地,,24,212,5194325,,,,,,,2026-01-30,1,,,,,エコビジット,0
2697,6200001044672,新規,0,2026-01-30,2026-01-30,すぎぼく株式会社,,株式会社,岐阜県,本巣市,根尾能郷津高９５２番地,,21,218,5011506,,,,,,,2026-01-30,1,,,,,スギボク,0
2928,6350001019916,新規,0,2026-01-30,2026-01-30,株式会社クローバー,,株式会社,宮崎県,宮崎市,大字田吉４４２８番地２８,,45,201,8800911,,,,,,,2026-01-30,1,,,,,クローバー,0
2967,6400003003598,新規,0,2026-01-30,2026-01-30,合同会社のぼりふじ,,合同会社,岩手県,西磐井郡平泉町,長島字新田６０番地,,03,402,0294101,,,,,,,2026-01-30,1,,,,,ノボリフジ,0
2988,6430001096154,新規,0,2026-01-30,2026-01-30,株式会社札幌クリーンイノベーション,,株式会社,北海道,札幌市豊平区,平岸四条１１丁目８番６号,,01,105,0620934,,,,,,,2026-01-30,1,,,,,サッポロクリーンイノベーション,0
2992,6470001021075,新規,0,2026-01-30,2026-01-30,西日本興産株式会社,,株式会社,香川県,三豊市,豊中町下高野２７５６番地１,,37,208,7691508,,,,,,,2026-01-30,1,,,,,ニシニホンコウサン,0
2993,6480003002378,新規,0,2026-01-30,2026-01-30,Ｐｅａｋ　Ｓｏｌｖｅ合同会社,,合同会社,徳島県,徳島市,川内町榎瀬６８９番地の１２,,36,201,7710144,,,,,,,2026-01-30,1,,,,,ピークソルベ,0
2997,6700150134257,新規,0,2026-01-30,2026-01-30,Ｓｈｅｎｚｈｅｎ　Ｖｉｗｏｏｄｓ　Ｔｅｃｈｎｏｌｏｇｙ　＆　Ｄｅｓｉｇｎ　Ｃｏ．，Ｌｔｄ．,,外国会社等,,,,,,,,Ｒｏｏｍ　７０５，Ｂｕｉｌｄｉｎｇ　Ｗ２－Ａ，Ｈｉｇｈ－ｔｅｃｈ　Ｉｎｄｕｓｔｒｉａｌ　Ｖｉｌｌａｇｅ，Ｎｏ．０２５　Ｈｉｇｈ－ｔｅｃｈ　Ｓｏｕｔｈ　４ｔｈ　Ｒｏａｄ，Ｈｉｇｈ－ｔｅｃｈ　Ｃｏｍｍｕｎｉｔｙ，Ｙｕｅｈａｉ　Ｓｕｂｄｉｓｔｒｉｃｔ，Ｎａｎｓｈａｎ　Ｄｉｓｔｒｉｃｔ，Ｓｈｅｎｚｈｅｎ,,,,,,2026-01-30,1,,,,,シンセンヴィーウッズテクノロジーアンドデザインカンパニーリミテッド,0
3004,7010001261534,新規,0,2026-01-30,2026-01-30,株式会社キャビア,,株式会社,東京都,千代田区,麹町３丁目３番地４,,13,101,1020083,,,,,,,2026-01-30,1,,,,,キャビア,0
3005,7010001262136,新規,0,2026-01-30,2026-01-30,株式会社ｅｎＤａｎ,,株式会社,東京都,中央区,日本橋室町１丁目１１番１２号日本橋水野ビル７階,,13,102,1030022,,,,,,,2026-01-30,1,,,,,エンダン,0
3006,7010001262350,新規,0,2026-01-30,2026-01-30,バルビオン・コンサルティング株式会社,,株式会社,東京都,中央区,銀座８丁目１７番５号,,13,102,1040061,,,,,,,2026-01-30,1,,,,,バルビオンコンサルティング,0
3007,7010001262400,新規,0,2026-01-30,2026-01-30,株式会社ステラージジャパン,,株式会社,東京都,中央区,銀座６丁目１３番５号銀座ＮＨビル７階,,13,102,1040061,,,,,,,2026-01-30,1,,,,,ステラージジャパン,0
3018,7010401196041,新規,0,2026-01-30,2026-01-30,株式会社ｋｌａｒｍ,,株式会社,東京都,港区,南青山２丁目５番１７号ポーラ青山ビルディング５階Ｏｖｅｒｌａｐ,,13,103,1070062,,,,,,,2026-01-30,1,,,,,クラーム,0
3019,7010401196157,新規,0,2026-01-30,2026-01-30,ニューブリッジ１９株式会社,,株式会社,東京都,港区,西新橋２丁目８番６号,,13,103,1050003,,,,,,,2026-01-30,1,,,,,ニューブリッジナインティーン,0
3020,7010401196173,新規,0,2026-01-30,2026-01-30,株式会社ＯｐｅｎＪｏｂｓ,,株式会社,東京都,港区,赤坂２丁目１６番６号ＴＨＥｈｕｂ赤坂２０３,,13,103,1070052,,,,,,,2026-01-30,1,,,,,オープンジョブズ,0
3025,7010403037169,新規,0,2026-01-30,2026-01-30,ピーアールエイチ合同会社,,合同会社,東京都,港区,元赤坂１丁目２番１７号２８０５,,13,103,1070051,,,,,,,2026-01-30,1,,,,,ピーアールエイチ,0
3026,7010403037193,新規,0,2026-01-30,2026-01-30,西深川パワー合同会社,,合同会社,東京都,港区,新橋３丁目９番１０号天翔新橋ビル７０１号室,,13,103,1050004,,,,,,,2026-01-30,1,,,,,ニシフカワパワー,0
3027,7010405025205,新規,0,2026-01-30,2026-01-30,一般社団法人法定雇用率推進協会,,その他の設立登記法人,東京都,港区,高輪２丁目１１番２１－３０２号,,13,103,1080074,,,,,,,2026-01-30,1,,,,,ホウテイコヨウリツスイシンキョウカイ,0
3030,7010501055353,新規,0,2026-01-30,2026-01-30,株式会社イロリス,,株式会社,東京都,台東区,上野１丁目１７番６号広小路ビル８Ｆ－Ｂ,,13,106,1100005,,,,,,,2026-01-30,1,,,,,イロリス,0
3035,7010601068635,新規,0,2026-01-30,2026-01-30,イガドノキャピタル株式会社,,株式会社,東京都,江東区,豊洲３丁目６番８号,,13,108,1350061,,,,,,,2026-01-30,1,,,,,イガドノキャピタル,0
3047,7011001175047,新規,0,2026-01-30,2026-01-30,株式会社ＬＵＣＡＬＢＡ,,株式会社,東京都,渋谷区,広尾１丁目２番地１号ヒカリビル４階,,13,113,1500012,,,,,,,2026-01-30,1,,,,,,0
3048,7011001175088,新規,0,2026-01-30,2026-01-30,株式会社めぐるーぷ,,株式会社,東京都,渋谷区,道玄坂１丁目１０番８号渋谷道玄坂東急ビル２Ｆ－Ｃ,,13,113,1500043,,,,,,,2026-01-30,1,,,,,メグループ,0
3049,7011001175096,新規,0,2026-01-30,2026-01-30,株式会社住田康年事務所,,株式会社,東京都,渋谷区,大山町３番１１号,,13,113,1510065,,,,,,,2026-01-30,1,,,,,スミダヤストシジムショ,0
3051,7011003023402,新規,0,2026-01-30,2026-01-30,ホンパス合同会社,,合同会社,東京都,渋谷区,道玄坂１丁目１０番８号渋谷道玄坂東急ビル２Ｆ－Ｃ,,13,113,1500043,,,,,,,2026-01-30,1,,,,,ホンパス,0
3052,7011003023419,新規,0,2026-01-30,2026-01-30,Ｗ＆Ｓ合同会社,,合同会社,東京都,渋谷区,渋谷２丁目１９－１５宮益坂ビルディング６０９,,13,113,1500002,,,,,,,2026-01-30,1,,,,,ダブリューアンドエス,0
3056,7011101114623,新規,0,2026-01-30,2026-01-30,ＪＥＫ株式会社,,株式会社,東京都,新宿区,西新宿７丁目２０番１号プラティーヌ３０４,,13,104,1600023,,,,,,,2026-01-30,1,,,,,ジェイイーケイ,0
3057,7011101114771,新規,0,2026-01-30,2026-01-30,株式会社Ｋｉｚｕｎａ１,,株式会社,東京都,新宿区,神楽坂６丁目１９番地２Ｆ,,13,104,1620825,,,,,,,2026-01-30,1,,,,,キズナイチ,0
3092,7012701019303,新規,0,2026-01-30,2026-01-30,株式会社ｃｏｒｄｉａｌｅｍｅｎｔ,,株式会社,東京都,西東京市,栄町３丁目１番７－２０１号,,13,229,2020006,,,,,,,2026-01-30,1,,,,,コーディアルモン,0
3093,7012703003461,新規,0,2026-01-30,2026-01-30,Ｔｒｉｐｌｅ　Ｊａｐａｎ合同会社,,合同会社,東京都,清瀬市,中里５丁目６３６番地１３,,13,221,2040003,,,,,,,2026-01-30,1,,,,,トリプルジャパン,0
3094,7012801024509,新規,0,2026-01-30,2026-01-30,株式会社Ｎｅｘｔ　ｉｎｎｏｖａｔｉｏｎｓ,,株式会社,東京都,国立市,青柳１丁目２９番地の１４,,13,215,1860013,,,,,,,2026-01-30,1,,,,,ネクストイノベーションズ,0
3095,7012803003989,新規,0,2026-01-30,2026-01-30,合同会社ｎｅｎｅｎｅ,,合同会社,東京都,立川市,羽衣町１丁目９番１１号２Ｆ,,13,202,1900021,,,,,,,2026-01-30,1,,,,,ネネネ,0
3110,7020001166856,新規,0,2026-01-30,2026-01-30,株式会社サッシテイク,,株式会社,神奈川県,川崎市川崎区,港町５－３－１５２８,,14,131,2100807,,,,,,,2026-01-30,1,,,,,サッシテイク,0
3111,7020001166872,新規,0,2026-01-30,2026-01-30,株式会社ＹＯＵＳＡＹＳＯＵＮＤＳ,,株式会社,神奈川県,川崎市多摩区,生田３丁目１９－１０－３Ｆ,,14,135,2140038,,,,,,,2026-01-30,1,,,,,ユウセイサウンズ,0
3112,7020001166889,新規,0,2026-01-30,2026-01-30,株式会社自分らしさ研究所,,株式会社,神奈川県,横浜市神奈川区,神大寺３丁目２－７ＫＣハイム１階,,14,102,2210801,,,,,,,2026-01-30,1,,,,,ジブンラシサケンキュウジョ,0
3113,7020001166914,新規,0,2026-01-30,2026-01-30,サムライアプス株式会社,,株式会社,神奈川県,横浜市西区,北幸２丁目１０番４８号,,14,103,2200004,,,,,,,2026-01-30,1,,,,,サムライアプス,0
3114,7020005017130,新規,0,2026-01-30,2026-01-30,一般社団法人かながわ市民カレッジ,,その他の設立登記法人,神奈川県,横浜市港北区,菊名１丁目４番２号第一橘ビル２１４号室,,14,109,2220011,,,,,,,2026-01-30,1,,,,,カナガワシミンカレッジ,0
3129,7030003028558,新規,0,2026-01-30,2026-01-30,ＮＫ合同会社,,合同会社,埼玉県,蕨市,塚越２丁目１９番１号ラ・カーサ・フェリーチェ蕨６０１号,,11,223,3350002,,,,,,,2026-01-30,1,,,,,エヌケー,0
3132,7040001142277,新規,0,2026-01-30,2026-01-30,株式会社Ｄａｉｎｉｃｈｉ　Ｒｅｓｏｒｔ,,株式会社,千葉県,四街道市,大日１９２０番地,,12,228,2840001,,,,,,,2026-01-30,1,,,,,ダイニチリゾート,0
3140,7060001038969,新規,0,2026-01-30,2026-01-30,株式会社アオヤギ,,株式会社,栃木県,下野市,石橋２４７番地５,,09,216,3290511,,,,,,,2026-01-30,1,,,,,アオヤギ,0
3142,7070001043778,新規,0,2026-01-30,2026-01-30,松風株式会社,,株式会社,群馬県,太田市,下浜田町４７４番地６５,,10,205,3730821,,,,,,,2026-01-30,1,,,,,マツカゼ,0
3145,7100003008593,新規,0,2026-01-30,2026-01-30,合同会社ＮＯＭ‐ＢＥＳＳ５号,,合同会社,長野県,上田市,上田原７９２番地９,,20,203,3861102,,,,,,,2026-01-30,1,,,,,ノムベスゴゴウ,0
3153,7120001283773,新規,0,2026-01-30,2026-01-30,株式会社ハナミズキ,,株式会社,大阪府,大阪市北区,西天満５丁目１０番１６号,,27,127,5300047,,,,,,,2026-01-30,1,,,,,ハナミズキ,0
3154,7120001283807,新規,0,2026-01-30,2026-01-30,株式会社玉＿商行,00142396,株式会社,大阪府,大阪市西成区,南津守７丁目８番６－２Ｅ,,27,122,5570063,,,,,,,2026-01-30,1,,,,,ギョクテイショウコウ,0
3156,7120003031809,新規,0,2026-01-30,2026-01-30,ＹＥＵＤ合同会社,,合同会社,大阪府,大阪市東成区,中道１丁目４番２－８０８号,,27,115,5370025,,,,,,,2026-01-30,1,,,,,ユード,0
3158,7120901052154,新規,0,2026-01-30,2026-01-30,獅昂コーポレーション株式会社,,株式会社,大阪府,豊中市,曽根東町６丁目１２番１３－４０１号,,27,203,5610802,,,,,,,2026-01-30,1,,,,,シコウコーポレーション,0
3160,7122001040139,新規,0,2026-01-30,2026-01-30,株式会社Ｓｅｅ　ｂｙ．Ｃａｌｅ,,株式会社,大阪府,八尾市,青山町３丁目２－３２,,27,212,5810018,,,,,,,2026-01-30,1,,,,,シーバイカル,0
3169,7130001081508,新規,0,2026-01-30,2026-01-30,株式会社京都藤誠,,株式会社,京都府,京都市左京区,一乗寺東浦町４５番地６,,26,103,6068136,,,,,,,2026-01-30,1,,,,,キョウトフジセイ,0
3172,7130003011116,新規,0,2026-01-30,2026-01-30,ＦＯＲＹ合同会社,,合同会社,京都府,京都市下京区,朱雀宝蔵町４４協栄ビル２階ＡＶ－３０４,,26,106,6008846,,,,,,,2026-01-30,1,,,,,フォーリー,0
3179,7160003003713,新規,0,2026-01-30,2026-01-30,合同会社みんな元気,,合同会社,滋賀県,彦根市,鳥居本町１１０１－１,,25,202,5220004,,,,,,,2026-01-30,1,,,,,ミンナゲンキ,0
3192,7180001170470,新規,0,2026-01-30,2026-01-30,株式会社Ｄｉｇｎｉｔｙ,,株式会社,愛知県,名古屋市守山区,新守山１４２２番地の５,,23,113,4630070,,,,,,,2026-01-30,1,,,,,ディグニティー,0
3349,7240001066092,新規,0,2026-01-30,2026-01-30,株式会社ＬＩＮＫ,,株式会社,広島県,福山市,新涯町２丁目１５番８号,,34,207,7210955,,,,,,,2026-01-30,1,,,,,リンク,0
3384,7300001014490,新規,0,2026-01-30,2026-01-30,株式会社リプル,,株式会社,佐賀県,唐津市,藤崎通６９２０番地４,,41,202,8470874,,,,,,,2026-01-30,1,,,,,リプル,0
3402,7340005009938,新規,0,2026-01-30,2026-01-30,一般社団法人Ｓｔａｒｔ　Ｌｉｎｅ,,その他の設立登記法人,鹿児島県,霧島市,国分福島３丁目６１番７号,,46,218,8994322,,,,,,,2026-01-30,1,,,,,スタートライン,0
3404,7360003015589,新規,0,2026-01-30,2026-01-30,合同会社食路,,合同会社,沖縄県,島尻郡南風原町,字宮平５９６番地２Ｂ－４,,47,350,9011104,,,,,,,2026-01-30,1,,,,,ショクジ,0
3426,7380005013052,新規,0,2026-01-30,2026-01-30,特定非営利活動法人里山いきものネットワーク,,その他の設立登記法人,福島県,東白川郡鮫川村,大字西山字岩野草２７番地,,07,484,9638408,,,,,,,2026-01-30,1,,,,,サトヤマイキモノネットワーク,0
3428,7390001018236,新規,0,2026-01-30,2026-01-30,さいとう農園株式会社,,株式会社,山形県,最上郡戸沢村,大字松坂５０８０番地の２,,06,367,9996314,,,,,,,2026-01-30,1,,,,,サイトウノウエン,0
3461,7430001096161,新規,0,2026-01-30,2026-01-30,ＵＳパートナーズ株式会社,,株式会社,北海道,札幌市中央区,南九条西４丁目３番１号２９０３号室,,01,101,0640809,,,,,,,2026-01-30,1,,,,,ユーエスパートナーズ,0
3464,7430003018543,新規,0,2026-01-30,2026-01-30,合同会社渡辺商事,,合同会社,北海道,余市郡余市町,栄町２５４番地,,01,408,0460001,,,,,,,2026-01-30,1,,,,,ワタナベショウジ,0
3466,7450005004473,新規,0,2026-01-30,2026-01-30,北竜ひまわり地域づくり協同組合,,その他の設立登記法人,北海道,雨竜郡北竜町,字板谷１６３番地２,,01,437,0782511,,,,,,,2026-01-30,1,,,,,ホクリュウヒマワリチイキヅクリ,0
3470,7470001021074,新規,0,2026-01-30,2026-01-30,株式会社すまいる,,株式会社,香川県,丸亀市,中津町５０８番地,,37,202,7630054,,,,,,,2026-01-30,1,,,,,スマイル,0
3472,7480003002377,新規,0,2026-01-30,2026-01-30,合同会社一期一会,,合同会社,徳島県,徳島市,川内町平石若宮１８０番地の１３,,36,201,7710137,,,,,,,2026-01-30,1,,,,,,0
3474,7700150134256,新規,0,2026-01-30,2026-01-30,Ｊｉａｎｇｙｉｎ　ＬＹＳＩＡＮ　Ｅ－ｃｏｍｍｅｒｃｅ　Ｃｏ．，Ｌｔｄ．,,外国会社等,,,,,,,,Ｎｏ．６　Ｘｉｎｙｕａｎ　Ｒｏａｄ　Ｃｈｅｎｇｃｈｕａｎｇ　Ｅ　Ｓｐａｃｅ　１－６，１ｓｔ　Ｆｌｏｏｒ，Ｂｕｉｌｄｉｎｇ　Ｃ　Ｊｉａｎｇｙｉｎ　Ｗｕｘｉ　Ｊｉａｎｇｓｕ　２１４４２４　Ｃｈｉｎａ,,,,,,2026-01-30,1,,,,,ジアンインリシアンイーコマースカンパニーリミテッド,0
3482,8010001262267,新規,0,2026-01-30,2026-01-30,株式会社Ｒｅｊｏｕｉｓｓａｎｃｅ,,株式会社,東京都,文京区,湯島３丁目４６－８波岡ビル１Ｆ,,13,105,1130034,,,,,,,2026-01-30,1,,,,,レジュイサンス,0
3483,8010001262432,新規,0,2026-01-30,2026-01-30,双日シェアジェット株式会社,,株式会社,東京都,千代田区,内幸町２丁目１番１号,,13,101,1000011,,,,,,,2026-01-30,1,,,,,ソウジツシェアジェット,0
3491,8010401196156,新規,0,2026-01-30,2026-01-30,ニューブリッジ１８株式会社,,株式会社,東京都,港区,西新橋２丁目８番６号,,13,103,1050003,,,,,,,2026-01-30,1,,,,,ニューブリッジエイティーン,0
3492,8010401196180,新規,0,2026-01-30,2026-01-30,株式会社ＶＲＨ,,株式会社,東京都,港区,西新橋１丁目１番１号,,13,103,1050003,,,,,,,2026-01-30,1,,,,,ヴイアールエイチ,0
3496,8010403037192,新規,0,2026-01-30,2026-01-30,吉川パワー合同会社,,合同会社,東京都,港区,新橋３丁目９番１０号天翔新橋ビル７０１号室,,13,103,1050004,,,,,,,2026-01-30,1,,,,,ヨシカワパワー,0
3499,8010501055377,新規,0,2026-01-30,2026-01-30,株式会社江東ライフケア,,株式会社,東京都,台東区,根岸２丁目２０－５パストラル根岸７０１,,13,106,1100003,,,,,,,2026-01-30,1,,,,,コウトウライフケア,0
3508,8010903010590,新規,0,2026-01-30,2026-01-30,合同会社昴,,合同会社,東京都,世田谷区,太子堂４丁目１８番１５号マガザン三軒茶屋２－３Ｆ－３,,13,112,1540004,,,,,,,2026-01-30,1,,,,,スバル,0
3513,8011001175038,新規,0,2026-01-30,2026-01-30,株式会社ＵＰＴＨＥＲＥ,,株式会社,東京都,渋谷区,桜丘町２３－１７シティーコート桜丘４０４,,13,113,1500031,,,,,,,2026-01-30,1,,,,,アップゼア,0
3514,8011001175095,新規,0,2026-01-30,2026-01-30,ＳＣ株式会社,,株式会社,東京都,渋谷区,松濤１丁目１７番２号ロワイヤル松濤３０１,,13,113,1500046,,,,,,,2026-01-30,1,,,,,エスシー,0
3529,8011701029146,新規,0,2026-01-30,2026-01-30,株式会社マルイ,,株式会社,東京都,江戸川区,松江６丁目５番１４号,,13,123,1320025,,,,,,,2026-01-30,1,,,,,マルイ,0
3562,8012701019302,新規,0,2026-01-30,2026-01-30,株式会社ＮｅｏＰｈｏｅｎｉｘ　Ｐｒｏｐｅｒｔｉｅｓ,,株式会社,東京都,小平市,鈴木町２丁目１９４－２５,,13,211,1870011,,,,,,,2026-01-30,1,,,,,ネオフェニックスプロパティーズ,0
3571,8013301055646,新規,0,2026-01-30,2026-01-30,Ａｓｓｅｔ　Ｖｉｓｉｏｎ　Ｒｅａｌｉｔｙ株式会社,,株式会社,東京都,豊島区,要町１丁目４１番４号ミハス要町ＩＩ１０１号,00142382,13,116,1710043,,,,,,,2026-01-30,1,,,,,アセットビジョンリアリティ,0
3582,8020001166780,新規,0,2026-01-30,2026-01-30,株式会社Ａ　ＶＩＮＴＡＧＥ,,株式会社,神奈川県,横浜市西区,北幸２丁目１１―４７―１１０１,,14,103,2200004,,,,,,,2026-01-30,1,,,,,エービンテージ,0
3586,8020003030274,新規,0,2026-01-30,2026-01-30,マインピークソリューションズ合同会社,,合同会社,神奈川県,横浜市保土ケ谷区,権太坂１丁目２４番３号,,14,106,2400026,,,,,,,2026-01-30,1,,,,,マインピークソリューションズ,0
3596,8021003017071,新規,0,2026-01-30,2026-01-30,合同会社鎌倉コミュニケーションズ,,合同会社,神奈川県,鎌倉市,稲村ガ崎１丁目９番２号メイン２０２,,14,204,2480024,,,,,,,2026-01-30,1,,,,,カマクラコミュニケーションズ,0
3602,8030005022401,新規,0,2026-01-30,2026-01-30,特定非営利活動法人日本障がい者ゴルフアカデミー,,その他の設立登記法人,埼玉県,熊谷市,本石１丁目２１０ＭＯＭＯ１０・７０３号室,,11,202,3600815,,,,,,,2026-01-30,1,,,,,,0
3607,8040001142276,新規,0,2026-01-30,2026-01-30,株式会社ネクサス,,株式会社,千葉県,四街道市,千代田３丁目３５番７号,,12,228,2840015,,,,,,,2026-01-30,1,,,,,ネクサス,0
3620,8070001043777,新規,0,2026-01-30,2026-01-30,トライグリッド株式会社,,株式会社,群馬県,前橋市,堀越町７３６番地３,,10,201,3710231,,,,,,,2026-01-30,1,,,,,トライグリッド,0
3626,8080401028402,新規,0,2026-01-30,2026-01-30,株式会社次助,,株式会社,静岡県,浜松市中央区,佐鳴台５丁目１０番２号,,22,138,4328021,,,,,,,2026-01-30,1,,,,,ジスケ,0
3627,8090001019718,新規,0,2026-01-30,2026-01-30,ハーベストラボ株式会社,,株式会社,山梨県,南アルプス市,在家塚６６６番地,,19,208,4000221,,,,,,,2026-01-30,1,,,,,ハーベストラボ,0
3629,8090003002977,新規,0,2026-01-30,2026-01-30,合同会社Ｅｎｒｉｄｇｅ,,合同会社,山梨県,甲府市,川田町５１７,,19,201,4000811,,,,,,,2026-01-30,1,,,,,エンリッジ,0
3631,8100003008592,新規,0,2026-01-30,2026-01-30,合同会社ＮＯＭ‐ＢＥＳＳ４号,,合同会社,長野県,上田市,上田原７９２番地９,,20,203,3861102,,,,,,,2026-01-30,1,,,,,ノムベスヨンゴウ,0
3649,8120001283780,新規,0,2026-01-30,2026-01-30,沐森株式会社,,株式会社,大阪府,大阪市住吉区,南住吉１丁目８－２２－３０２号,,27,120,5580041,,,,,,,2026-01-30,1,,,,,モクシン,0
3650,8120001283789,新規,0,2026-01-30,2026-01-30,防災安全機材株式会社,,株式会社,大阪府,大阪市淀川区,西宮原２丁目７番４５号フルーレ第２新大阪７０７号,,27,123,5320004,,,,,,,2026-01-30,1,,,,,ボウサイアンゼンキザイ,0
3651,8120001283806,新規,0,2026-01-30,2026-01-30,Ｍ．Ａ．Ｇ株式会社,,株式会社,大阪府,大阪市北区,本庄西３丁目１番２号アイシーマンション６０３号室,,27,127,5310073,,,,,,,2026-01-30,1,,,,,エムエージー,0
3652,8120001283830,新規,0,2026-01-30,2026-01-30,株式会社ちとせ２号,,株式会社,大阪府,大阪市北区,梅田１丁目２番２号大阪駅前第２ビル１２－１２,,27,127,5300001,,,,,,,2026-01-30,1,,,,,チトセニゴウ,0
3653,8120003031808,新規,0,2026-01-30,2026-01-30,合同会社Ｕｅ２,,合同会社,大阪府,大阪市平野区,加美鞍作１丁目１１番２２号ガーデンハイツ加美Ｂ１棟２１０８号,,27,126,5470004,,,,,,,2026-01-30,1,,,,,ユーツー,0
3654,8120005025386,新規,0,2026-01-30,2026-01-30,医療法人にじいろ会,,その他の設立登記法人,大阪府,大阪市鶴見区,諸口４丁目８番１７号,,27,124,5380051,,,,,,,2026-01-30,1,,,,,ニジイロカイ,0
3674,8140003023142,新規,0,2026-01-30,2026-01-30,ＩＬＬＯＮＹ　ＩＮＶＥＳＴＭＥＮＴ合同会社,,合同会社,兵庫県,芦屋市,打出小槌町１４番１０号サンパレス門１階,,28,206,6590028,,,,,,,2026-01-30,1,,,,,アイロニーインベストメント,0
3676,8160001027382,新規,0,2026-01-30,2026-01-30,株式会社ＣＲＥＬＩ,,株式会社,滋賀県,東近江市,躰光寺町１４６４－１２,,25,213,5211205,,,,,,,2026-01-30,1,,,,,クレリ,0
3875,8240003007572,新規,0,2026-01-30,2026-01-30,合同会社ＧＲＡＴＩＡ　ＯＮＥ,,合同会社,広島県,広島市南区,翠３丁目１７番１４－１号,,34,103,7340005,,,,,,,2026-01-30,1,,,,,グラティアワン,0
3886,8280005007682,新規,0,2026-01-30,2026-01-30,医療法人スマイル・クリエイション,,その他の設立登記法人,島根県,松江市,竹矢町１７６１番地,,32,201,6900023,,,,,,,2026-01-30,1,,,,,スマイルクリエイション,0
3894,8290005019982,新規,0,2026-01-30,2026-01-30,一般社団法人Ｈｉｋａｒｉ　Ｃｒｅａｔｉｖｅ　Ａｒｔｓ,,その他の設立登記法人,福岡県,古賀市,花見南２丁目２７番２８号,,40,223,8113111,,,,,,,2026-01-30,1,,,,,ヒカリクリエイティブアーツ,0
3895,8290005019990,新規,0,2026-01-30,2026-01-30,医療法人ＧＯＲＩＬＬＡＨＯＯＤ,,その他の設立登記法人,福岡県,福岡市中央区,警固３丁目６番クラシオン桜坂１階,,40,133,8100023,,,,,,,2026-01-30,1,,,,,ゴリラフッド,0
3896,8290801032206,新規,0,2026-01-30,2026-01-30,株式会社ひかりファーム,,株式会社,福岡県,築上郡築上町,大字越路１２１７番地１,,40,647,8290332,,,,,,,2026-01-30,1,,,,,ヒカリファーム,0
3903,8350001019914,新規,0,2026-01-30,2026-01-30,株式会社ティ・ワイアペックス,,株式会社,宮崎県,宮崎市,高岡町飯田２丁目１３番地３,,45,201,8802224,,,,,,,2026-01-30,1,,,,,ティワイアペックス,0
3924,8400003003638,新規,0,2026-01-30,2026-01-30,合同会社山守ワークス,,合同会社,岩手県,気仙郡住田町,下有住字中上８３,,03,441,0292502,,,,,,,2026-01-30,1,,,,,,0
3946,8430001096144,新規,0,2026-01-30,2026-01-30,株式会社ＴＦＧ日高牧場,,株式会社,北海道,沙流郡日高町,字広富１４４番地,,01,601,0592125,,,,,,,2026-01-30,1,,,,,ティーエフジーヒダカボクジョウ,0
3947,8430001096160,新規,0,2026-01-30,2026-01-30,株式会社エゾコム,,株式会社,北海道,札幌市東区,北八条東４丁目１番２０号,,01,103,0600908,,,,,,,2026-01-30,1,,,,,エゾコム,0
3949,8430003018542,新規,0,2026-01-30,2026-01-30,ＲＵＢＡＮＩ　ＴＲＡＤＥＲＳ合同会社,,合同会社,北海道,小樽市,長橋５丁目３５番８号,,01,203,0470036,,,,,,,2026-01-30,1,,,,,ルバニトレーダーズ,0
3950,8460103001783,新規,0,2026-01-30,2026-01-30,るるとるぱ合同会社,,合同会社,北海道,河東郡音更町,南鈴蘭南３丁目５番地６３プリズムＢ１０３号室,,01,631,0800312,,,,,,,2026-01-30,1,,,,,ルルトルパ,0
3951,8460301005339,新規,0,2026-01-30,2026-01-30,株式会社ａｔｅｌｉｅｒ　Ｊｏｌｉｉ,,株式会社,北海道,紋別郡湧別町,開盛４４５－１,,01,559,0996503,,,,,,,2026-01-30,1,,,,,アトリエジョリー,0
3952,8470001021065,新規,0,2026-01-30,2026-01-30,新英ファイブ株式会社,,株式会社,香川県,高松市,茜町２０番１４号,,37,201,7600002,,,,,,,2026-01-30,1,,,,,シンエイファイブ,0
3964,9010001262159,新規,0,2026-01-30,2026-01-30,ＳｏｌａＭｉｌＳｙｓｔｅｍｓ株式会社,,株式会社,東京都,千代田区,平河町１丁目６－１５ＵＳビル８Ｆ,,13,101,1020093,,,,,,,2026-01-30,1,,,,,ソラミルシステムズ,0
3965,9010003050090,新規,0,2026-01-30,2026-01-30,合同会社Ｋｙａｎｉｔｅ,,合同会社,東京都,中央区,晴海３丁目１３番１,,13,102,1040053,,,,,,,2026-01-30,1,,,,,カイヤナイト,0
3966,9010003050099,新規,0,2026-01-30,2026-01-30,合同会社ＷａｔｅｒＧｌｉｔｃｈ,,合同会社,東京都,千代田区,神田和泉町一丁目６番１６号ヤマトビル４０５,,13,101,1010024,,,,,,,2026-01-30,1,,,,,ウォーターグリッチ,0
3976,9010401196106,新規,0,2026-01-30,2026-01-30,株式会社ＳＨＩＮＩＮＧ　ＳＴＡＲ　ＧＡＭＥＳ,,株式会社,東京都,港区,南青山３丁目１番３６号青山丸竹ビル６Ｆ,,13,103,1070062,,,,,,,2026-01-30,1,,,,,シャイニングスターゲームズ,0
3977,9010401196155,新規,0,2026-01-30,2026-01-30,ニューブリッジ１７株式会社,,株式会社,東京都,港区,西新橋２丁目８番６号,,13,103,1050003,,,,,,,2026-01-30,1,,,,,ニューブリッジセブンティーン,0
3981,9010403037191,新規,0,2026-01-30,2026-01-30,江崎パワー合同会社,,合同会社,東京都,港区,新橋３丁目９番１０号天翔新橋ビル７０１号室,,13,103,1050004,,,,,,,2026-01-30,1,,,,,エサキパワー,0
3989,9010801037009,新規,0,2026-01-30,2026-01-30,株式会社ホープリング,,株式会社,東京都,大田区,南雪谷５丁目１０番２号,,13,111,1450066,,,,,,,2026-01-30,1,,,,,ホープリング,0
3990,9010803005707,新規,0,2026-01-30,2026-01-30,合同会社アミタニスモウラボ,,合同会社,東京都,大田区,西蒲田７丁目４－４小山第二ビル６Ｆ,,13,111,1440051,,,,,,,2026-01-30,1,,,,,アミタニスモウラボ,0
4001,9011001175037,新規,0,2026-01-30,2026-01-30,株式会社トオク,,株式会社,東京都,渋谷区,神南１丁目１１－４ＦＰＧリンクス神南５階,,13,113,1500041,,,,,,,2026-01-30,1,,,,,トオク,0
4002,9011001175045,新規,0,2026-01-30,2026-01-30,株式会社ラックエス,,株式会社,東京都,渋谷区,渋谷２丁目１９番１５号宮益坂ビルディング４１０,,13,113,1500002,,,,,,,2026-01-30,1,,,,,ラックエス,0
4003,9011001175094,新規,0,2026-01-30,2026-01-30,株式会社スカイジェニックス,,株式会社,東京都,渋谷区,神南１丁目１１番４号ＦＰＧリンクス神南５階,,13,113,1500041,,,,,,,2026-01-30,1,,,,,スカイジェニックス,0
4004,9011001175111,新規,0,2026-01-30,2026-01-30,株式会社零式,,株式会社,東京都,渋谷区,円山町５番,,13,113,1500044,,,,,,,2026-01-30,1,,,,,,0
4010,9011003023417,新規,0,2026-01-30,2026-01-30,合同会社Ｊａｐａｎ　Ｐｈａｒｍａ　Ｃｏｍｐｌｉａｎｃｅ　Ｐａｒｔｎｅｒｓ,,合同会社,東京都,目黒区,柿の木坂１丁目２８番１７号ＢＨＦ柿の木坂１０２,,13,110,1520022,,,,,,,2026-01-30,1,,,,,,0
4011,9011005011337,新規,0,2026-01-30,2026-01-30,一般社団法人スカルプアートメディカ,,その他の設立登記法人,東京都,渋谷区,代々木２丁目１３－５ＫＴ新宿ビル５階,,13,113,1510053,,,,,,,2026-01-30,1,,,,,スカルプアートメディカ,0
4017,9011303005833,新規,0,2026-01-30,2026-01-30,ＬＩＮＫ　ＦＩＥＬＤ合同会社,,合同会社,東京都,杉並区,宮前４丁目７番１３号,,13,115,1680081,,,,,,,2026-01-30,1,,,,,リンクフィールド,0
4025,9011801047360,新規,0,2026-01-30,2026-01-30,Ｃｏｒｅｖｏｘ　Ｊａｐａｎ株式会社,,株式会社,東京都,葛飾区,東金町６丁目６番５号センタービル金町４階４１８室,,13,122,1250041,,,,,,,2026-01-30,1,,,,,コアボックスジャパン,0
4055,9012801024507,新規,0,2026-01-30,2026-01-30,株式会社わとな不動産,,株式会社,東京都,日野市,西平山１丁目１２番地の１００,,13,212,1910055,,,,,,,2026-01-30,1,,,,,ワトナフドウサン,0
4069,9020001166870,新規,0,2026-01-30,2026-01-30,株式会社ＭＯＲＩＤＥＮ,,株式会社,神奈川県,横浜市神奈川区,金港町５－１４クアドリフォリオ８階,,14,102,2210056,,,,,,,2026-01-30,1,,,,,モリデン,0
4070,9020001166904,新規,0,2026-01-30,2026-01-30,株式会社ちゃんとしろ,,株式会社,神奈川県,横浜市西区,浅間町１丁目４番地３ウィザードビル４０２,,14,103,2200072,,,,,,,2026-01-30,1,,,,,チャントシロ,0
4089,9030001170756,新規,0,2026-01-30,2026-01-30,株式会社Ｒｅｆａｒｅ,,株式会社,埼玉県,所沢市,大字久米１４１７番地の１９－２０６,,11,208,3591131,,,,,,,2026-01-30,1,,,,,リファーレ,0
4094,9030005022400,新規,0,2026-01-30,2026-01-30,一般社団法人ＡＳＬＥＹ　ＪＡＰＡＮ,,その他の設立登記法人,埼玉県,川越市,大字下赤坂６６３番地１,,11,201,3501155,,,,,,,2026-01-30,1,,,,,アスリージャパン,0
4106,9040002105520,新規,0,2026-01-30,2026-01-30,有限会社飯嶌商事,,有限会社,千葉県,旭市,西足洗３０６３番地の３,,12,215,2892515,,,,,,,2026-01-30,1,,,,,イイジマショウジ,0
4110,9040005023042,新規,0,2026-01-30,2026-01-30,司法書士法人ミライトラスト,,その他の設立登記法人,千葉県,千葉市中央区,栄町３６番１０号甲南アセット千葉中央ビル３階,,12,101,2600016,,,,,,,2026-01-30,1,,,,,ミライトラスト,0
4113,9050001057910,新規,0,2026-01-30,2026-01-30,株式会社ＳＩＺＵ,,株式会社,茨城県,鹿嶋市,大字荒野２１１７番地,,08,222,3112221,,,,,,,2026-01-30,1,,,,,シズ,0
4115,9060005010410,新規,0,2026-01-30,2026-01-30,一般社団法人全国警備業協働推進協議会,,その他の設立登記法人,栃木県,宇都宮市,今宮４丁目６番３０号,,09,201,3210166,,,,,,,2026-01-30,1,,,,,ゼンコクケイビギョウキョウドウスイシンキョウギカイ,0
4129,9100003008591,新規,0,2026-01-30,2026-01-30,合同会社ＮＯＭ‐ＢＥＳＳ６号,,合同会社,長野県,上田市,上田原７９２番地９,,20,203,3861102,,,,,,,2026-01-30,1,,,,,ノムベスロクゴウ,0
4139,9120001283656,新規,0,2026-01-30,2026-01-30,竹村国際株式会社,,株式会社,大阪府,大阪市東淀川区,東中島１丁目１１－１８－８０２号室,,27,114,5330033,,,,,,,2026-01-30,1,,,,,タケムラコクサイ,0
4140,9120001283805,新規,0,2026-01-30,2026-01-30,株式会社ＳＨＯ,,株式会社,大阪府,大阪市平野区,流町４丁目５番１２号,,27,126,5470032,,,,,,,2026-01-30,1,,,,,ショウ,0
4141,9120001283813,新規,0,2026-01-30,2026-01-30,株式会社ｎｏｔｅ,,株式会社,大阪府,大阪市西区,新町４丁目１－１－５０２,,27,106,5500013,,,,,,,2026-01-30,1,,,,,ノート,0
4146,9120903006057,新規,0,2026-01-30,2026-01-30,合同会社ＥＮＮＥＡ,,合同会社,大阪府,豊中市,岡町８番１１号シティヒルズウオアサ２０２号,,27,203,5610885,,,,,,,2026-01-30,1,,,,,エンネア,0
4164,9140001141515,新規,0,2026-01-30,2026-01-30,創フロンティア株式会社,,株式会社,兵庫県,美方郡香美町,香住区余部２０５２,,28,585,6696671,,,,,,,2026-01-30,1,,,,,ソウフロンティア,0
4183,9180301040644,新規,0,2026-01-30,2026-01-30,株式会社ゴリラス,,株式会社,愛知県,豊橋市,住吉町一丁目９５番地,,23,201,4400052,,,,,,,2026-01-30,1,,,,,ゴリラス,0
4184,9190001032866,新規,0,2026-01-30,2026-01-30,ＮＯＶＡＲＩＳ株式会社,,株式会社,三重県,度会郡度会町,田口１１２５,,24,470,5162118,,,,,,,2026-01-30,1,,,,,ノバリス,0
4187,9200001044620,新規,0,2026-01-30,2026-01-30,株式会社カレッタセントラル,,株式会社,岐阜県,岐阜市,長住町７丁目１番,,21,201,5008175,,,,,,,2026-01-30,1,,,,,カレッタセントラル,0
4190,9230003002573,新規,0,2026-01-30,2026-01-30,合同会社七福恵美寿,,合同会社,富山県,高岡市,荒屋敷４３番地１,,16,202,9330319,,,,,,,2026-01-30,1,,,,,シチフクエビス,0
4377,9250001021524,新規,0,2026-01-30,2026-01-30,株式会社ＴＳＰ,,株式会社,山口県,下関市,長府黒門南町１０番１２号,,35,201,7520989,,,,,,,2026-01-30,1,,,,,ティーエスピー,0
4381,9290001112955,新規,0,2026-01-30,2026-01-30,ＭＯＯＮ・ＧＡＲＤＥＮ株式会社,,株式会社,福岡県,福岡市博多区,博多駅南５丁目８番１５号,,40,132,8120016,,,,,,,2026-01-30,1,,,,,ムーンガーデン,0
4391,9340001027941,新規,0,2026-01-30,2026-01-30,株式会社季,,株式会社,鹿児島県,志布志市,志布志町安楽１３５９番地４１,,46,221,8997104,,,,,,,2026-01-30,1,,,,,トキ,0
4414,9380001035841,新規,0,2026-01-30,2026-01-30,株式会社オフビート,,株式会社,福島県,須賀川市,仁井田字関下１３６番地２,,07,207,9620402,,,,,,,2026-01-30,1,,,,,オフビート,0
4422,9400003003637,新規,0,2026-01-30,2026-01-30,合同会社ファームテック,,合同会社,岩手県,北上市,更木１６地割９９番地,,03,206,0240103,,,,,,,2026-01-30,1,,,,,ファームテック,0
4452,9430003018467,新規,0,2026-01-30,2026-01-30,合同会社雷牙,,合同会社,北海道,日高郡新ひだか町,静内青柳町４丁目７－１－４０４,,01,610,0560019,,,,,,,2026-01-30,1,,,,,ライガ,0
4453,9460103001782,新規,0,2026-01-30,2026-01-30,合同会社マルホ,,合同会社,北海道,帯広市,東二条南１６丁目１１番地パシフィッククリオコート４０１号室,,01,207,0800802,,,,,,,2026-01-30,1,,,,,マルホ,0
4455,9470001021072,新規,0,2026-01-30,2026-01-30,株式会社ツリーワークプロ,,株式会社,香川県,丸亀市,飯山町東坂元３２７３番地２,,37,202,7620081,,,,,,,2026-01-30,1,,,,,ツリーワークプロ,0
