sequenceNumber,corporateNumber,process,correct,updateDate,changeDate,name,nameImageId,kind,prefectureName,cityName,streetNumber,addressImageId,prefectureCode,cityCode,postCode,addressOutside,addressOutsideImageId,closeDate,closeCause,successorCorporateNumber,changeCause,assignmentDate,latest,enName,enPrefectureName,enCityName,enAddressOutside,furigana,hihyoji
2,1010001088743,登記記録の閉鎖等,0,2025-10-08,2025-10-01,ＪＦＥドラムサービス株式会社,,株式会社,東京都,千代田区,神田猿楽町１丁目５番１５号,,13,101,1010064,,,2025-10-01,合併による解散等,6010001112820,令和７年１０月１日東京都千代田区神田猿楽町一丁目５番１５号ＪＦＥコンテイナー株式会社（6010001112820）に合併し解散,2015-10-05,1,,,,,ジェイエフイードラムサービス,0
10,1010001232210,登記記録の閉鎖等,0,2025-10-08,2025-09-24,Ｓｔａｂｉｌｉｔｙ　ＡＩ　Ｊａｐａｎ株式会社,,株式会社,東京都,中央区,日本橋茅場町１丁目１３番２１号阪神ビル６階,,13,102,1030025,,,2025-09-24,清算の結了等,,,2023-01-17,1,,,,,スタビリティエーアイジャパン,0
49,1010801026225,登記記録の閉鎖等,0,2025-10-08,2025-09-18,株式会社ミリミリ,,株式会社,埼玉県,川口市,栄町２丁目１２－４－Ａ２０５,,11,203,3320017,,,2025-09-18,清算の結了等,,,2015-12-02,1,,,,,ミリミリ,0
70,1011101104539,登記記録の閉鎖等,0,2025-10-08,2025-09-03,株式会社Ｆｌｕｓｓ,,株式会社,東京都,新宿区,西新宿７丁目５番地５号プラザ７０９,,13,104,1600023,,,2025-09-03,清算の結了等,,,2023-09-28,1,,,,,フルス,0
78,1011201020909,登記記録の閉鎖等,0,2025-10-08,2025-09-22,株式会社ＰｉｎｅＬｕｃｋ　Ｊａｐａｎ,,株式会社,東京都,中野区,野方４丁目１９番４号,,13,114,1650027,,,2025-09-22,清算の結了等,,,2018-10-05,1,,,,,,0
90,1012401022042,登記記録の閉鎖等,0,2025-10-08,2025-09-25,ワイケーシー株式会社,,株式会社,東京都,小金井市,本町３丁目１３番１３号,,13,210,1840004,,,2025-09-25,清算の結了等,,,2015-10-05,1,,,,,ワイケーシー,0
93,1012801001918,登記記録の閉鎖等,0,2025-10-08,2025-10-06,株式会社臼井燃料,,株式会社,東京都,立川市,一番町４丁目４７番地５,,13,202,1900033,,,2025-10-06,合併による解散等,9013301006607,令和７年１０月１日東京都新宿区西新宿八丁目１４番２４号臼井大和ガス株式会社（9013301006607）に合併し解散,2015-10-05,1,,,,,ウスイネンリョウ,0
106,1013302007842,登記記録の閉鎖等,0,2025-10-08,2025-10-01,有限会社白峰ドレス,,有限会社,東京都,北区,西ケ原４丁目２２番８号,,13,117,1140024,,,2025-10-01,清算の結了等,,,2015-10-05,1,,,,,シラミネドレス,0
107,1020001068967,登記記録の閉鎖等,0,2025-10-08,2025-09-17,株式会社榎本商店,,株式会社,神奈川県,川崎市中原区,上丸子山王町１丁目８６５番地,,14,133,2110002,,,2025-09-17,清算の結了等,,,2015-10-05,1,,,,,エノモトショウテン,0
115,1020003022419,登記記録の閉鎖等,0,2025-10-08,2025-09-19,Ｍｏｎｇａｔｅ合同会社,,合同会社,神奈川県,川崎市高津区,梶ケ谷３丁目５－１コスモ梶が谷アーバンフォルム１０３,,14,134,2130015,,,2025-09-19,清算の結了等,,,2022-09-16,1,,,,,モンゲート,0
165,1080003000121,登記記録の閉鎖等,0,2025-10-08,2025-10-01,高田産業合資会社,00067605,合資会社,静岡県,静岡市葵区,上桶屋町２７番地の１,,22,101,4200014,,,2025-10-01,合併による解散等,4080001005482,令和７年１０月１日静岡市葵区上桶屋町２７番地山六産業株式会社（4080001005482）に合併し解散,2015-10-05,1,,,,,タカダサンギョウ,0
169,1100001029424,登記記録の閉鎖等,0,2025-10-08,2025-10-01,株式会社防災ダイレクト,,株式会社,長野県,長野市,平林１丁目２２番３号ニューＹＳビル２０２,,20,201,3810036,,,2025-10-01,合併による解散等,7100002008066,令和７年１０月１日長野市平林一丁目２２番３号ニューＹＳビル２０２株式会社防災防犯ダイレクト（7100002008066）に合併し解散,2016-06-13,1,,,,,ボウサイダイレクト,0
177,1120001001356,登記記録の閉鎖等,0,2025-10-08,2025-09-30,ワーキング株式会社,,株式会社,大阪府,大阪市旭区,赤川４丁目４番１０号,,27,117,5350005,,,2025-09-30,清算の結了等,,,2015-10-05,1,,,,,ワーキング,0
179,1120001051566,登記記録の閉鎖等,0,2025-10-08,2025-09-30,木原ニツト株式会社,,株式会社,大阪府,大阪市東淀川区,豊里６丁目２４番１６号,,27,114,5330013,,,2025-09-30,清算の結了等,,,2015-10-05,1,,,,,キハラニツト,0
214,1130001057810,登記記録の閉鎖等,0,2025-10-08,2025-10-01,株式会社むすびの,,株式会社,京都府,京都市伏見区,横大路下三栖東ノ口町１の３,,26,109,6128235,,,2025-10-01,合併による解散等,1130001016270,令和７年１０月１日京都市伏見区横大路下三栖東の口町１の３シュンビン株式会社（1130001016270）に合併し解散,2016-06-27,1,,,,,ムスビノ,0
216,1130003009909,登記記録の閉鎖等,0,2025-10-08,2025-10-01,合同会社三輪舎,,合同会社,京都府,京都市山科区,御陵鳥ノ向町２７番地１,,26,110,6078408,,,2025-10-01,清算の結了等,,,2024-10-07,1,,,,,サンリンシャ,0
218,1140001082254,登記記録の閉鎖等,0,2025-10-08,2025-09-29,株式会社みはら屋建装,,株式会社,兵庫県,宝塚市,安倉南１丁目６番１号,,28,214,6650823,,,2025-09-29,清算の結了等,,,2015-10-05,1,,,,,ミハラヤケンソウ,0
230,1180001023477,登記記録の閉鎖等,0,2025-10-08,2025-09-22,株式会社倉井,,株式会社,愛知県,名古屋市天白区,道明町１１１番地,,23,116,4680064,,,2025-09-22,清算の結了等,,,2015-10-05,1,,,,,クライ,0
238,1180002004435,登記記録の閉鎖等,0,2025-10-08,2025-09-22,有限会社ショウネン,,有限会社,愛知県,名古屋市千種区,振甫町１丁目５０番２,,23,101,4640072,,,2025-09-22,清算の結了等,,,2015-10-05,1,,,,,ショウネン,0
239,1180002061798,登記記録の閉鎖等,0,2025-10-08,2025-09-22,菊むら有限会社,,有限会社,愛知県,愛知郡東郷町,白鳥３丁目４番地の１,,23,302,4700155,,,2025-09-22,清算の結了等,,,2015-10-05,1,,,,,キクムラ,0
246,1180005020082,登記記録の閉鎖等,0,2025-10-08,2025-10-03,一般社団法人ＰＬＡＩＮＥ,,その他の設立登記法人,愛知県,名古屋市南区,呼続５丁目１５番６号,,23,112,4570014,,,2025-10-03,清算の結了等,,,2023-01-20,1,,,,,プレイン,0
249,1180301019381,登記記録の閉鎖等,0,2025-10-08,2025-09-19,溝口電機株式会社,,株式会社,愛知県,豊田市,小川町２丁目３５番地５,,23,211,4710857,,,2025-09-19,清算の結了等,,,2015-10-05,1,,,,,ミゾグチデンキ,0
253,1180302002816,登記記録の閉鎖等,0,2025-10-08,2025-09-24,有限会社まるこし,,有限会社,愛知県,岡崎市,羽根町字東ノ郷４０番地１,,23,202,4440813,,,2025-09-24,清算の結了等,,,2015-10-05,1,,,,,マルコシ,0
255,1190001004765,登記記録の閉鎖等,0,2025-10-08,2025-09-30,株式会社ささえあい,,株式会社,三重県,津市,観音寺町７６０番地２６,,24,201,5140062,,,2025-09-30,清算の結了等,,,2015-10-05,1,,,,,ササエアイ,0
259,1200002016659,登記記録の閉鎖等,0,2025-10-08,2025-10-02,有限会社北村電設,,有限会社,岐阜県,加茂郡坂祝町,酒倉７５６番地の４０,,21,501,5050074,,,2025-10-02,清算の結了等,,,2015-10-05,1,,,,,キタムラデンセツ,0
266,1240001056157,登記記録の閉鎖等,0,2025-10-08,2025-10-02,株式会社マジック,,株式会社,広島県,広島市中区,宝町７番１７号,,34,101,7300044,,,2025-10-02,清算の結了等,,,2020-05-29,1,,,,,マジック,0
291,1290802009589,登記記録の閉鎖等,0,2025-10-08,2025-10-02,有限会社たんぽぽ,,有限会社,福岡県,北九州市門司区,大里戸ノ上１丁目６番１５号,,40,101,8000024,,,2025-10-02,清算の結了等,,,2015-10-05,1,,,,,タンポポ,0
311,1390001005454,登記記録の閉鎖等,0,2025-10-08,2025-10-02,株式会社丸尚ＳＶＳ,,株式会社,山形県,山形市,下条町３丁目２番１号,,06,201,9900823,,,2025-10-02,清算の結了等,,,2015-10-05,1,,,,,マルショウエスヴイエス,0
324,1470001002352,登記記録の閉鎖等,0,2025-10-08,2025-10-03,株式会社セルコン,,株式会社,香川県,高松市,一宮町７１０番地１,,37,201,7618084,,,2025-10-03,清算の結了等,,,2015-10-05,1,,,,,セルコン,0
330,2010001027997,登記記録の閉鎖等,0,2025-10-08,2025-09-25,株式会社文精社,,株式会社,東京都,千代田区,神田駿河台３丁目７番地,,13,101,1010062,,,2025-09-25,清算の結了等,,,2015-10-05,1,,,,,ブンセイシャ,0
333,2010001086754,登記記録の閉鎖等,0,2025-10-08,2025-09-22,日通東京流通サービス株式会社,,株式会社,東京都,中央区,日本橋人形町２丁目２６番５号,,13,102,1030013,,,2025-09-22,清算の結了等,,,2015-10-05,1,,,,,ニッツウトウキョウリュウツウサービス,0
334,2010001095400,登記記録の閉鎖等,0,2025-10-08,2025-10-02,株式会社ジーエー企画,,株式会社,東京都,板橋区,中台３丁目２７Ｊ－６０８,,13,119,1740064,,,2025-10-02,清算の結了等,,,2015-10-05,1,,,,,ジーエーキカク,0
339,2010001189111,登記記録の閉鎖等,0,2025-10-08,2025-09-25,株式会社ＢＡＮＡＮＡ　ＩＮＮＯＶＡＴＩＯＮ,,株式会社,東京都,江東区,豊洲１丁目３番７－９０５号,,13,108,1350061,,,2025-09-25,清算の結了等,,,2018-01-23,1,,,,,バナナイノベーション,0
347,2010002051773,登記記録の閉鎖等,0,2025-10-08,2025-09-16,有限会社Ａｒｉｅｌ,,有限会社,東京都,中央区,日本橋兜町１５－６製粉会館９階Ｅ,,13,102,1030026,,,2025-09-16,合併による解散等,1040001111114,令和７年９月１日東京都中央区日本橋兜町１５－６製粉会館９階Ｅ株式会社東海総合損害サービス（1040001111114）に合併し解散,2015-10-05,1,,,,,アリエル,0
354,2010401102722,登記記録の閉鎖等,0,2025-10-08,2025-09-05,株式会社アシスト,,株式会社,東京都,港区,芝４丁目１６番２－３３０１号,,13,103,1080014,,,2025-09-05,清算の結了等,,,2015-10-05,1,,,,,アシスト,0
367,2010405019120,登記記録の閉鎖等,0,2025-10-08,2025-09-05,撫子一般社団法人,,その他の設立登記法人,東京都,港区,西新橋１丁目１番１号ＥＰコンサルティングサービス内,,13,103,1050003,,,2025-09-05,清算の結了等,,,2020-09-23,1,,,,,ナデシコ,0
376,2010602015707,登記記録の閉鎖等,0,2025-10-08,2025-09-25,緑シヤツ工業有限会社,,有限会社,東京都,墨田区,緑２丁目１５番８号,,13,107,1300021,,,2025-09-25,清算の結了等,,,2015-10-05,1,,,,,ミドリシャツコウギョウ,0
381,2010801034227,登記記録の閉鎖等,0,2025-10-08,2025-09-29,株式会社ＮＯＡＨ,,株式会社,東京都,大田区,南蒲田２丁目１９番９号,,13,111,1440035,,,2025-09-29,清算の結了等,,,2023-08-10,1,,,,,ノア,0
385,2010901012875,登記記録の閉鎖等,0,2025-10-08,2025-10-06,株式会社りゆう企画住宅センター,,株式会社,東京都,世田谷区,南烏山６丁目２７番２号第一りゆうビル３０２,,13,112,1570062,,,2025-10-06,清算の結了等,,,2015-10-05,1,,,,,リユウ,0
391,2010902014714,登記記録の閉鎖等,0,2025-10-08,2025-10-06,有限会社ミントオフィス,,有限会社,東京都,世田谷区,代田２丁目３３番４号,,13,112,1550033,,,2025-10-06,清算の結了等,,,2015-10-05,1,,,,,ミントオフィス,0
394,2010902025645,登記記録の閉鎖等,0,2025-10-08,2025-10-02,有限会社エッグプラス,,有限会社,東京都,世田谷区,松原１丁目１３番８号,,13,112,1560043,,,2025-10-02,清算の結了等,,,2015-10-05,1,,,,,エッグプラス,0
426,2011402008405,登記記録の閉鎖等,0,2025-10-08,2025-10-03,有限会社丸正製作所,,有限会社,東京都,板橋区,小豆沢４丁目１０番５号,,13,119,1740051,,,2025-10-03,清算の結了等,,,2015-10-05,1,,,,,マルショウセイサクショ,0
431,2011801001885,登記記録の閉鎖等,0,2025-10-08,2025-10-06,株式会社ザ・ベストプランニング,,株式会社,東京都,葛飾区,柴又５丁目１７番４号,,13,122,1250052,,,2025-10-06,清算の結了等,,,2015-10-05,1,,,,,ザベストプランニング,0
439,2012702002460,登記記録の閉鎖等,0,2025-10-08,2025-10-02,有限会社香織設計,,有限会社,東京都,東村山市,萩山町２丁目４番地７,,13,213,1890012,,,2025-10-02,清算の結了等,,,2015-10-05,1,,,,,カオリセッケイ,0
445,2013301050058,登記記録の閉鎖等,0,2025-10-08,2025-09-26,ｍｏｃｃｕ株式会社,,株式会社,東京都,豊島区,北大塚１丁目１５番５号,,13,116,1700004,,,2025-09-26,清算の結了等,,,2022-12-13,1,,,,,モック,0
446,2013301050149,登記記録の閉鎖等,0,2025-10-08,2025-09-30,北都金属新材料株式会社,,株式会社,東京都,豊島区,北大塚３丁目３４番１号,,13,116,1700004,,,2025-09-30,清算の結了等,,,2023-01-13,1,,,,,ホクトキンゾクシンザイリョウ,0
449,2020001022155,登記記録の閉鎖等,0,2025-10-08,2025-09-25,株式会社ローラン,,株式会社,神奈川県,横浜市港北区,新吉田東３丁目１２番１号コンフォート新吉田Ａ１０１号室,,14,109,2230058,,,2025-09-25,合併による解散等,9020001030283,令和７年６月３０日横浜市港北区新吉田東三丁目１２番１号コンフォート新吉田Ａ１０１号室株式会社京や不動産（9020001030283）に合併し解散,2015-10-05,1,,,,,ローラン,0
474,2030001148775,登記記録の閉鎖等,0,2025-10-08,2025-09-29,株式会社ソレアード,,株式会社,埼玉県,所沢市,大字下富１０４３番地の１２８,,11,208,3590001,,,2025-09-29,清算の結了等,,,2022-06-17,1,,,,,ソレアード,0
475,2030001153767,登記記録の閉鎖等,0,2025-10-08,2025-10-02,株式会社ストラットン・オークモント,,株式会社,埼玉県,越谷市,南越谷４丁目５番１号－４Ｇ,,11,222,3430845,,,2025-10-02,合併による解散等,9011001136179,令和７年９月３０日東京都中央区日本橋二丁目２番３号ＲＩＳＨＥビルＵＣＦ４０２株式会社創栄建設（9011001136179）に合併し解散,2023-05-17,1,,,,,ストラットンオークモント,0
485,2030002104026,登記記録の閉鎖等,0,2025-10-08,2025-09-30,有限会社鈴義機械工業,,有限会社,埼玉県,川口市,幸町２丁目７番１５号,,11,203,3320016,,,2025-09-30,清算の結了等,,,2015-10-05,1,,,,,スズヨシキカイコウギョウ,0
489,2040001056606,登記記録の閉鎖等,0,2025-10-08,2025-09-05,株式会社ＯｚＮＥＴ,,株式会社,千葉県,千葉市中央区,富士見２丁目２１番８,,12,101,2600015,,,2025-09-05,清算の結了等,,,2015-10-05,1,,,,,,0
494,2040005018206,登記記録の閉鎖等,0,2025-10-08,2025-09-03,特定非営利活動法人住み良いまちづくり研究所,,その他の設立登記法人,千葉県,我孫子市,白山２丁目１９番２５号,,12,222,2701154,,,2025-09-03,清算の結了等,,,2015-10-05,1,,,,,スミヨイマチヅクリケンキュウジョ,0
502,2050002032547,登記記録の閉鎖等,0,2025-10-08,2025-10-01,有限会社成田金型製作所,,有限会社,茨城県,北茨城市,磯原町上相田６９５番地,,08,215,3191544,,,2025-10-01,清算の結了等,,,2015-10-05,1,,,,,ナリタカナガタセイサクショ,0
507,2070002031423,登記記録の閉鎖等,0,2025-10-08,2025-09-30,有限会社ヨシダ工房,,有限会社,群馬県,太田市,岩瀬川町１４３番地の３,,10,205,3730841,,,2025-09-30,清算の結了等,,,2015-10-05,1,,,,,ヨシダコウボウ,0
513,2080105001207,登記記録の閉鎖等,0,2025-10-08,2025-10-01,ジェイビルジャパン労働組合,,その他の設立登記法人,静岡県,御殿場市,駒門１丁目１５０番地,,22,215,4120038,,,2025-10-01,清算の結了等,,,2015-10-05,1,,,,,ジェイビルジャパン,0
514,2080402000539,登記記録の閉鎖等,0,2025-10-08,2025-09-30,新井建設有限会社,,有限会社,静岡県,浜松市中央区,西山町１８６７番地の１,,22,138,4328001,,,2025-09-30,清算の結了等,,,2015-10-05,1,,,,,アライケンセツ,0
522,2110002008326,登記記録の閉鎖等,0,2025-10-08,2025-10-01,有限会社大正エアテック,,有限会社,新潟県,新潟市江南区,横越中央２丁目２番３９号,,15,104,9500208,,,2025-10-01,清算の結了等,,,2015-10-05,1,,,,,タイショウエアテック,0
525,2120001139253,登記記録の閉鎖等,0,2025-10-08,2025-09-30,家具セレクトコム株式会社,,株式会社,大阪府,大阪市中央区,備後町２丁目５番６－７０２号,,27,128,5410051,,,2025-09-30,清算の結了等,,,2015-10-05,1,,,,,カグセレクトコム,0
565,2180001011258,登記記録の閉鎖等,0,2025-10-08,2025-09-19,株式会社モリヤ,,株式会社,愛知県,名古屋市瑞穂区,玉水町２丁目２４番地,,23,108,4670046,,,2025-09-19,清算の結了等,,,2015-10-05,1,,,,,モリヤ,0
582,2180005007054,登記記録の閉鎖等,0,2025-10-08,2025-10-01,国際産業振興事業協同組合,,その他の設立登記法人,愛知県,名古屋市中村区,菊水町１丁目１番２号,,23,105,4530068,,,2025-10-01,清算の結了等,,,2015-10-05,1,,,,,コクサイサンギョウシンコウ,0
584,2180301021618,登記記録の閉鎖等,0,2025-10-08,2025-09-22,株式会社重原産業,,株式会社,愛知県,豊田市,保見町南山２０５番地,,23,211,4700344,,,2025-09-22,清算の結了等,,,2015-10-05,1,,,,,シゲハラサンギョウ,0
585,2180301024884,登記記録の閉鎖等,0,2025-10-08,2025-09-24,株式会社エフエイチ,,株式会社,愛知県,豊橋市,多米西町２丁目１１番地７,,23,201,4400026,,,2025-09-24,清算の結了等,,,2015-10-05,1,,,,,エフエイチ,0
588,2190001009053,登記記録の閉鎖等,0,2025-10-08,2025-09-30,株式会社住澤工務店,,株式会社,三重県,伊賀市,青山羽根１５０６番地,,24,216,5180227,,,2025-09-30,清算の結了等,,,2015-10-05,1,,,,,スミザワコウムテン,0
589,2190001015134,登記記録の閉鎖等,0,2025-10-08,2025-10-01,ジェイルジャパン株式会社,,株式会社,三重県,四日市市,北浜町８番１６号,,24,202,5100091,,,2025-10-01,清算の結了等,,,2015-10-05,1,,,,,ジェイルジャパン,0
604,2260001010680,登記記録の閉鎖等,0,2025-10-08,2025-09-30,岡山ウェディングス株式会社,,株式会社,岡山県,岡山市北区,伊福町２丁目１８番１２号,,33,101,7000013,,,2025-09-30,清算の結了等,,,2015-10-05,1,,,,,オカヤマウェディングス,0
613,2290002028595,登記記録の閉鎖等,0,2025-10-08,2025-09-08,有限会社アイドリーム,,有限会社,福岡県,福岡市東区,馬出１丁目１３番８号,,40,131,8120054,,,2025-09-08,清算の結了等,,,2015-10-05,1,,,,,アイドリーム,0
615,2290002033331,登記記録の閉鎖等,0,2025-10-08,2025-09-05,有限会社Ｇｅｎ＆パートナーズ建築事務所,,有限会社,福岡県,糸島市,志摩芥屋１７７０番地の１４,,40,230,8191335,,,2025-09-05,清算の結了等,,,2015-10-05,1,,,,,ゲンアンドパートナーズケンチクジムショ,0
634,2330001021308,登記記録の閉鎖等,0,2025-10-08,2025-09-30,株式会社シンク,,株式会社,熊本県,熊本市東区,東町４丁目１０番１号,,43,102,8620901,,,2025-09-30,合併による解散等,9330001005733,令和７年９月３０日熊本市東区東町四丁目１０番１号株式会社スマイル（9330001005733）に合併し解散,2015-10-05,1,,,,,シンク,0
648,2370001046771,登記記録の閉鎖等,0,2025-10-08,2025-09-22,株式会社ＲＹＫ,,株式会社,宮城県,仙台市泉区,北中山３丁目１０番地の１２,,04,105,9813215,,,2025-09-22,清算の結了等,,,2021-03-04,1,,,,,アールワイケイ,0
653,2380002027753,登記記録の閉鎖等,0,2025-10-08,2025-09-29,有限会社ＴＡＷＡＲＡ,,有限会社,福島県,いわき市,平字三町目９番地の１,,07,204,9708026,,,2025-09-29,清算の結了等,,,2015-10-05,1,,,,,タワラ,0
654,2380002028181,登記記録の閉鎖等,0,2025-10-08,2025-09-29,有限会社エムズテクニカ,,有限会社,福島県,南相馬市,原町区橋本町４丁目２番地の５シーサウザント１０１号室,,07,212,9750006,,,2025-09-29,清算の結了等,,,2015-10-05,1,,,,,エムズテクニカ,0
656,2390002003349,登記記録の閉鎖等,0,2025-10-08,2025-10-03,有限会社大和屋呉服店,,有限会社,山形県,東村山郡山辺町,大字山辺３１４番地,,06,301,9900301,,,2025-10-03,清算の結了等,,,2015-10-05,1,,,,,ヤマトヤゴフクテン,0
657,2390002012853,登記記録の閉鎖等,0,2025-10-08,2025-10-02,有限会社五伸,,有限会社,山形県,米沢市,中央５丁目３番１３号,,06,202,9920045,,,2025-10-02,清算の結了等,,,2015-10-05,1,,,,,ゴシン,0
659,2420001004451,登記記録の閉鎖等,0,2025-10-08,2025-09-29,株式会社ｍａｋａｄｅｎ,,株式会社,青森県,青森市,大字矢田前字本泉２３番地１３,,02,201,0300936,,,2025-09-29,清算の結了等,,,2015-10-05,1,,,,,マカデン,0
660,2420001004831,登記記録の閉鎖等,0,2025-10-08,2025-09-26,株式会社よつば,,株式会社,青森県,青森市,大字安田字近野１３４番地１４,,02,201,0380021,,,2025-09-26,清算の結了等,,,2015-10-05,1,,,,,ヨツバ,0
671,2700150015733,登記記録の閉鎖等,0,2025-10-08,2025-06-30,市川経営協会,,その他,千葉県,市川市,南八幡４丁目１２－５－６０６,,12,203,2720023,,,2025-06-30,その他の清算の結了等,,,2015-10-09,1,,,,,イチカワケイエイキヨウカイ,0
674,3010001028920,登記記録の閉鎖等,0,2025-10-08,2025-09-22,平成不動産株式会社,,株式会社,東京都,千代田区,一番町２２番地７,,13,101,1020082,,,2025-09-22,清算の結了等,,,2015-10-05,1,,,,,ヘイセイフドウサン,0
686,3010001217250,登記記録の閉鎖等,0,2025-10-08,2025-09-10,株式会社ＧＤＦｕｎｃｔｉｏｎ,,株式会社,東京都,中央区,日本橋兜町１７番２号兜町第６葉山ビル４階,,13,102,1030026,,,2025-09-10,清算の結了等,,,2021-04-08,1,,,,,,0
688,3010001228066,登記記録の閉鎖等,0,2025-10-08,2025-09-17,アフィン株式会社,,株式会社,東京都,千代田区,東神田３丁目１番１５号東豊ハイツ５０２号,,13,101,1010031,,,2025-09-17,清算の結了等,,,2022-07-12,1,,,,,アフィン,0
690,3010001240467,登記記録の閉鎖等,0,2025-10-08,2025-09-25,株式会社ブリッジフィールド,,株式会社,東京都,中央区,銀座６丁目６番１号銀座風月堂ビル５階,,13,102,1040061,,,2025-09-25,清算の結了等,,,2023-12-01,1,,,,,ブリッジフィールド,0
711,3010401152519,登記記録の閉鎖等,0,2025-10-08,2025-09-30,Ｆｏｕｒ　Ｌｕｃｋｙ商事株式会社,,株式会社,東京都,豊島区,上池袋１丁目３２番２０－２１０号,,13,116,1700012,,,2025-09-30,清算の結了等,,,2020-04-24,1,,,,,フォーラッキー,0
720,3010403022793,登記記録の閉鎖等,0,2025-10-08,2025-09-25,合同会社ユーコートエナジー,,合同会社,東京都,千代田区,大手町１丁目５番１号,,13,101,1000004,,,2025-09-25,清算の結了等,,,2020-04-09,1,,,,,ユーコートエナジー,0
724,3010405023889,登記記録の閉鎖等,0,2025-10-08,2025-09-05,一般社団法人ＳＯ２号,,その他の設立登記法人,東京都,港区,西新橋１丁目２番９号メンターキャピタル税理士法人内,,13,103,1050003,,,2025-09-05,清算の結了等,,,2024-12-13,1,,,,,エスオーニゴウ,0
735,3010603009954,登記記録の閉鎖等,0,2025-10-08,2025-09-25,Ｗｅａｌｔｈ　Ｍａｎａｇｅｍｅｎｔ合同会社,,合同会社,東京都,江東区,東陽４丁目７番３５－１２０２号,,13,108,1350016,,,2025-09-25,清算の結了等,,,2023-01-24,1,,,,,ウェルスマネージメント,0
736,3010603010821,登記記録の閉鎖等,0,2025-10-08,2025-09-22,ＰＵＮＴＯＤＥＸ合同会社,,合同会社,北海道,札幌市中央区,南十条西１０丁目１－２０,,01,101,0640810,,,2025-09-22,清算の結了等,,,2024-05-10,1,,,,,プントデックス,0
739,3010701033963,登記記録の閉鎖等,0,2025-10-08,2025-10-01,株式会社ＺＯＮＥ,,株式会社,東京都,品川区,東五反田１丁目１４番９号ＦＳビル４階,,13,109,1410022,,,2025-10-01,合併による解散等,8010801008844,令和７年１０月１日東京都品川区上大崎二丁目２７番６号エムディー目黒成田興業株式会社（8010801008844）に合併し解散,2017-04-12,1,,,,,ゾーン,0
760,3011005002952,登記記録の閉鎖等,0,2025-10-08,2025-09-25,特定非営利活動法人福祉フォーラム・ジャパン,,その他の設立登記法人,東京都,渋谷区,代々木４丁目３０番３号新宿ミッドウェストビル,,13,113,1510053,,,2025-09-25,清算の結了等,,,2015-10-05,1,,,,,フクシフォーラムジャパン,0
761,3011005006037,登記記録の閉鎖等,0,2025-10-08,2025-09-25,一般社団法人障害者の差別の禁止・解消を推進する全国ネットワーク,,その他の設立登記法人,東京都,渋谷区,代々木４丁目３０番３号,,13,113,1510053,,,2025-09-25,清算の結了等,,,2015-10-05,1,,,,,ショウガイシャノサベツノキンシカイショウヲスイシンスルゼンコクネットワーク,0
768,3011201023109,登記記録の閉鎖等,0,2025-10-08,2025-09-22,株式会社Ｓｔｈａｎｋ,,株式会社,東京都,中野区,野方６丁目１０番８号,,13,114,1650027,,,2025-09-22,清算の結了等,,,2021-07-08,1,,,,,,0
789,3012801009109,登記記録の閉鎖等,0,2025-10-08,2025-09-19,日通東京西運輸株式会社,,株式会社,東京都,立川市,曙町１丁目１０番１８号,00058913,13,202,1900012,,,2025-09-19,清算の結了等,,,2015-10-05,1,,,,,ニッツウトウキョウニシウンユ,0
816,3021001075084,登記記録の閉鎖等,0,2025-10-08,2025-09-12,株式会社リベロルミ,,株式会社,神奈川県,小田原市,国府津２丁目４－４,,14,206,2560812,,,2025-09-12,清算の結了等,,,2022-02-01,1,,,,,リベロルミ,0
820,3021005011003,登記記録の閉鎖等,0,2025-10-08,2025-09-19,特定非営利活動法人防災総合ペット育成協会,,その他の設立登記法人,神奈川県,小田原市,桑原６２７番地の１,,14,206,2500861,,,2025-09-19,清算の結了等,,,2017-06-06,1,,,,,ボウサイソウゴウペットイクセイキョウカイ,0
824,3030001053941,登記記録の閉鎖等,0,2025-10-08,2025-09-29,株式会社昇栄,,株式会社,埼玉県,所沢市,林３丁目５２６番地の９,,11,208,3591167,,,2025-09-29,清算の結了等,,,2015-10-05,1,,,,,ショウエイ,0
839,3030005017835,登記記録の閉鎖等,0,2025-10-08,2025-09-30,あしすと特定非営利活動法人,,その他の設立登記法人,埼玉県,鴻巣市,宮前３５１番地,,11,217,3650051,,,2025-09-30,清算の結了等,,,2016-03-07,1,,,,,アシスト,0
850,3050005009178,登記記録の閉鎖等,0,2025-10-08,2025-09-29,医療法人社団仁風会,,その他の設立登記法人,茨城県,取手市,本郷５丁目９番２１号,,08,217,3020022,,,2025-09-29,清算の結了等,,,2015-10-05,1,,,,,ジンフウカイ,0
854,3060001026309,登記記録の閉鎖等,0,2025-10-08,2025-10-01,株式会社オリエント,,株式会社,栃木県,足利市,堀込町１３２番地２,,09,202,3260831,,,2025-10-01,清算の結了等,,,2015-10-05,1,,,,,オリエント,0
861,3080003001274,登記記録の閉鎖等,0,2025-10-08,2025-10-01,合同会社針谷,,合同会社,静岡県,静岡市駿河区,小黒３丁目６番９号,,22,102,4228072,,,2025-10-01,清算の結了等,,,2015-10-05,1,,,,,ハリガヤ,0
863,3080101006976,登記記録の閉鎖等,0,2025-10-08,2025-10-01,株式会社サンライズ,,株式会社,静岡県,三島市,萩２２０番地,,22,206,4110045,,,2025-10-01,清算の結了等,,,2015-10-05,1,,,,,サンライズ,0
868,3110002031533,登記記録の閉鎖等,0,2025-10-08,2025-09-29,有限会社大関トリミング,,有限会社,新潟県,見附市,上新田町８番１７号,,15,211,9540112,,,2025-09-29,清算の結了等,,,2015-10-05,1,,,,,オオセキトリミング,0
909,3150005008698,登記記録の閉鎖等,0,2025-10-08,2025-09-26,特定非営利活動法人あうんの会,,その他の設立登記法人,奈良県,奈良市,西登美ヶ丘４丁目１６－１２,,29,201,6310006,,,2025-09-26,清算の結了等,,,2016-03-08,1,,,,,アウンノカイ,0
911,3160005009415,登記記録の閉鎖等,0,2025-10-08,2025-09-29,ＮＰＯ法人篠原シニアネット,,その他の設立登記法人,滋賀県,野洲市,小南４７１番地１,,25,210,5202301,,,2025-09-29,清算の結了等,,,2015-10-05,1,,,,,シノハラシニアネット,0
913,3180001031552,登記記録の閉鎖等,0,2025-10-08,2025-09-22,東海中経株式会社,,株式会社,愛知県,名古屋市中村区,名駅４丁目４番１０号,,23,105,4500002,,,2025-09-22,清算の結了等,,,2015-10-05,1,,,,,トーカイチュウケイ,0
919,3180002034190,登記記録の閉鎖等,0,2025-10-08,2025-09-22,有限会社ツツミ,,有限会社,愛知県,名古屋市千種区,千種通６丁目３０番地の１,,23,101,4640855,,,2025-09-22,清算の結了等,,,2015-10-05,1,,,,,ツツミ,0
938,3240002044992,登記記録の閉鎖等,0,2025-10-08,2025-09-29,有限会社保険スタッフ,,有限会社,広島県,福山市,神辺町字十九軒屋２７５－４－２Ｆ,,34,207,7202106,,,2025-09-29,清算の結了等,,,2015-10-05,1,,,,,ホケンスタッフ,0
941,3250001017544,登記記録の閉鎖等,0,2025-10-08,2025-10-01,株式会社アスカ,,株式会社,山口県,下関市,山の田本町１７番２３号,,35,201,7510838,,,2025-10-01,合併による解散等,8250001005032,令和７年１０月１日山口県下関市山の田本町１７番１０号株式会社飛鳥会館（8250001005032）に合併し解散,2019-02-06,1,,,,,アスカ,0
943,3260001002966,登記記録の閉鎖等,0,2025-10-08,2025-09-30,佐藤繊維株式会社,,株式会社,岡山県,岡山市北区,表町２丁目７番６号,,33,101,7000822,,,2025-09-30,清算の結了等,,,2015-10-05,1,,,,,サトウセンイ,0
949,3260002028176,登記記録の閉鎖等,0,2025-10-08,2025-09-29,有限会社日下工業,,有限会社,岡山県,津山市,志戸部６６１番地１,,33,203,7080825,,,2025-09-29,清算の結了等,,,2015-10-05,1,,,,,クサカコウギョウ,0
951,3270001006545,登記記録の閉鎖等,0,2025-10-08,2025-10-01,株式会社肉の今川,,株式会社,鳥取県,米子市,米原９丁目３番１６号,,31,202,6830804,,,2025-10-01,合併による解散等,1270001004617,令和７年１０月１日鳥取県西伯郡伯耆町大内桝水高原１０６９番地５０エムケイ開発株式会社（1270001004617）に合併し解散,2015-10-05,1,,,,,ニクノイマガワ,0
955,3290001055607,登記記録の閉鎖等,0,2025-10-08,2025-09-11,株式会社イーシーオー,,株式会社,福岡県,福岡市早良区,次郎丸５丁目５番７号,,40,137,8140165,,,2025-09-11,清算の結了等,,,2015-10-05,1,,,,,イーシーオー,0
979,3330001027733,登記記録の閉鎖等,0,2025-10-08,2025-09-30,カイテキ株式会社,,株式会社,熊本県,八代市,大村町２５７番地１,,43,202,8660895,,,2025-09-30,清算の結了等,,,2020-08-12,1,,,,,カイテキ,0
981,3330002024143,登記記録の閉鎖等,0,2025-10-08,2025-09-30,有限会社雅工業,,有限会社,熊本県,宇城市,小川町西海東１２７５番地１,,43,213,8690615,,,2025-09-30,清算の結了等,,,2015-10-05,1,,,,,ミヤビコウギョウ,0
1004,3380001019123,登記記録の閉鎖等,0,2025-10-08,2025-10-01,浅草建材株式会社,,株式会社,福島県,南会津郡只見町,大字楢戸字舘ノ川１５８４番地１,00117694,07,367,9680431,,,2025-10-01,合併による解散等,2380001019223,令和７年１０月１日福島県南会津郡只見町大字楢戸字二本柳１４３７の１永洸建設株式会社（2380001019223）に合併し解散,2015-10-05,1,,,,,アサクサケンザイ,0
1006,3380002013208,登記記録の閉鎖等,0,2025-10-08,2025-09-26,有限会社リーフヒル,,有限会社,福島県,郡山市,大槻町字中ノ平東１番地,,07,203,9630201,,,2025-09-26,清算の結了等,,,2015-10-05,1,,,,,リーフヒル,0
1008,3380002028065,登記記録の閉鎖等,0,2025-10-08,2025-09-26,有限会社荒建工,,有限会社,福島県,相馬市,赤木字段下６５番地,,07,209,9792521,,,2025-09-26,清算の結了等,,,2015-10-05,1,,,,,アラケンコウ,0
1013,3410002013708,登記記録の閉鎖等,0,2025-10-08,2025-10-06,有限会社沖田鈑金,,有限会社,秋田県,横手市,赤坂字仁坂２３番地３,,05,203,0130064,,,2025-10-06,清算の結了等,,,2015-10-05,1,,,,,,0
1024,3490001003990,登記記録の閉鎖等,0,2025-10-08,2025-10-03,株式会社岡林設計,,株式会社,高知県,高知市,西久万１３６番地３,,39,201,7800984,,,2025-10-03,清算の結了等,,,2015-10-05,1,,,,,オカバヤシセッケイ,0
1025,3490002000624,登記記録の閉鎖等,0,2025-10-08,2025-10-06,有限会社岩崎建設,00006507,有限会社,高知県,高知市,潮見台２丁目２００５番地,,39,201,7815108,,,2025-10-06,清算の結了等,,,2015-10-05,1,,,,,イワサキケンセツ,0
1045,4010002027747,登記記録の閉鎖等,0,2025-10-08,2025-09-25,有限会社ハーフプライス,,有限会社,東京都,中央区,月島３丁目６番４号,,13,102,1040052,,,2025-09-25,清算の結了等,,,2015-10-05,1,,,,,ハーフプライス,0
1053,4010401087037,登記記録の閉鎖等,0,2025-10-08,2025-09-02,株式会社ＹＳカンパニー,,株式会社,東京都,港区,高輪２丁目１番９号,,13,103,1080074,,,2025-09-02,合併による解散等,5011001058996,令和７年９月１日東京都港区南青山一丁目１０番３号株式会社スタープレイヤーズ（5011001058996）に合併し解散,2015-10-05,1,,,,,ワイエスカンパニー,0
1074,4010403023832,登記記録の閉鎖等,0,2025-10-08,2025-09-05,撫子合同会社,,合同会社,東京都,港区,西新橋１丁目１番１号ＥＰコンサルティングサービス内,,13,103,1050003,,,2025-09-05,清算の結了等,,,2020-10-01,1,,,,,ナデシコ,0
1076,4010403025878,登記記録の閉鎖等,0,2025-10-08,2025-10-02,けんこうライフラボ合同会社,,合同会社,東京都,豊島区,西巣鴨４丁目６番１号庚申ビル３階,,13,116,1700001,,,2025-10-02,合併による解散等,1010903004285,令和７年７月３１日東京都中央区銀座一丁目２２番１１号銀座大竹ビジデンス２階ＨａｎａＦｕｓａ合同会社（1010903004285）に合併し解散,2021-08-12,1,,,,,ケンコウライフラボ,0
1077,4010403029383,登記記録の閉鎖等,0,2025-10-08,2025-09-05,ダブル・エー・ワークス合同会社,,合同会社,東京都,港区,港南４丁目７番５５号ブランファーレ３２０３,,13,103,1080075,,,2025-09-05,合併による解散等,3010403019096,令和７年９月１日東京都港区港南四丁目７番５５－３２０３号ダブル・ケー・ワークス合同会社（3010403019096）に合併し解散,2023-02-02,1,,,,,ダブルエーワークス,0
1086,4010601055058,登記記録の閉鎖等,0,2025-10-08,2025-09-29,株式会社フレンディ,,株式会社,東京都,墨田区,京島１丁目３８番１号,,13,107,1310046,,,2025-09-29,清算の結了等,,,2019-02-19,1,,,,,フレンディ,0
1096,4010901018391,登記記録の閉鎖等,0,2025-10-08,2025-10-06,株式会社エスプリ・デクス,,株式会社,東京都,世田谷区,羽根木２丁目３５番１５号,,13,112,1560042,,,2025-10-06,清算の結了等,,,2015-10-05,1,,,,,エスプリデクス,0
1103,4011001122142,登記記録の閉鎖等,0,2025-10-08,2025-09-24,株式会社となり,,株式会社,東京都,日野市,旭が丘５丁目６番地の２０ジュネパレス旭が丘３０３号室,,13,212,1910065,,,2025-09-24,清算の結了等,,,2018-05-10,1,,,,,トナリ,0
1119,4011101095627,登記記録の閉鎖等,0,2025-10-08,2025-10-06,ディーキューブ株式会社,,株式会社,東京都,新宿区,西新宿１丁目２４番１号,,13,104,1600023,,,2025-10-06,合併による解散等,4120001143889,令和７年１０月１日大阪市中央区久太郎町三丁目３番９号ビズキューブ・コンサルティング株式会社（4120001143889）に合併し解散,2021-07-06,1,,,,,ディーキューブ,0
1132,4011602022600,登記記録の閉鎖等,0,2025-10-08,2025-09-30,有限会社ＡＲＴｗｏｒｋｓ,,有限会社,東京都,豊島区,池袋２丁目５４番２号アーバンハウス２０１,,13,116,1710014,,,2025-09-30,清算の結了等,,,2015-10-05,1,,,,,アートワークス,0
1149,4020001123496,登記記録の閉鎖等,0,2025-10-08,2025-09-26,トップアローズ株式会社,,株式会社,神奈川県,横浜市緑区,三保町１１０８番地,,14,113,2260015,,,2025-09-26,合併による解散等,3020002003707,令和７年９月２６日神奈川県横浜市緑区三保町１１０８番地株式会社あおい運輸（3020002003707）に合併し解散,2017-10-23,1,,,,,トップアローズ,0
1192,4060002035844,登記記録の閉鎖等,0,2025-10-08,2025-10-01,有限会社川岸合成,,有限会社,栃木県,足利市,葉鹿町６２５番地１,,09,202,3260143,,,2025-10-01,清算の結了等,,,2015-10-05,1,,,,,カワギシゴウセイ,0
1208,4110002003473,登記記録の閉鎖等,0,2025-10-08,2025-09-19,有限会社スポーツショップわたべ,,有限会社,新潟県,新潟市西区,松美台１５番２５号,,15,107,9502072,,,2025-09-19,清算の結了等,,,2015-10-05,1,,,,,スポーツショップワタベ,0
1216,4120001225142,登記記録の閉鎖等,0,2025-10-08,2025-10-01,マックスエンタープライズ株式会社,,株式会社,大阪府,大阪市中央区,瓦町２丁目４番１０号,,27,128,5410048,,,2025-10-01,清算の結了等,,,2019-11-15,1,,,,,マックスエンタープライズ,0
1242,4120102023610,登記記録の閉鎖等,0,2025-10-08,2025-10-02,有限会社晃和自動車,,有限会社,大阪府,泉佐野市,上瓦屋２０８番地の１,,27,213,5980001,,,2025-10-02,合併による解散等,4150001002118,令和７年１０月１日奈良市北之庄町７２３番地１３フジトランスポート株式会社（4150001002118）に合併し解散,2015-10-05,1,,,,,コウワジドウシャ,0
1247,4130001020609,登記記録の閉鎖等,0,2025-10-08,2025-10-01,株式会社グランディア,,株式会社,京都府,京都市左京区,松ケ崎横縄手町４番地９,,26,103,6060965,,,2025-10-01,合併による解散等,4130001057634,令和７年１０月１日京都市左京区松ヶ崎横縄手町４番地９株式会社ゼロホールディングス（4130001057634）に合併し解散,2015-10-05,1,,,,,グランディア,0
1259,4160003003138,登記記録の閉鎖等,0,2025-10-08,2025-10-01,天華合同会社,,合同会社,滋賀県,彦根市,城町２丁目９番７号,,25,202,5220068,,,2025-10-01,清算の結了等,,,2024-03-19,1,,,,,テンカ,0
1274,4190001025734,登記記録の閉鎖等,0,2025-10-08,2025-10-01,株式会社ネクストイノベーション,,株式会社,三重県,多気郡大台町,高奈１１０番地２,,24,443,5192429,,,2025-10-01,清算の結了等,,,2018-07-26,1,,,,,ネクストイノベーション,0
1280,4200002010279,登記記録の閉鎖等,0,2025-10-08,2025-10-02,有限会社瑞穂開発,,有限会社,岐阜県,瑞穂市,本田１５５２番地３６９,,21,216,5010236,,,2025-10-02,清算の結了等,,,2015-10-05,1,,,,,ミズホカイハツ,0
1281,4200003006160,登記記録の閉鎖等,0,2025-10-08,2025-09-29,合同会社三谷商店,,合同会社,岐阜県,岐阜市,竜田町４丁目１１番地プレサンスロジェ岐阜ザ・クラス１１０３,,21,201,5008402,,,2025-09-29,清算の結了等,,,2023-11-21,1,,,,,ミタニショウテン,0
1295,4250001014474,登記記録の閉鎖等,0,2025-10-08,2025-10-01,株式会社アローズ,,株式会社,山口県,宇部市,大字船木６６７番地１０,,35,202,7570216,,,2025-10-01,合併による解散等,5250001015521,令和７年１０月１日山口県宇部市西宇部南四丁目８番９号株式会社ステージ（5250001015521）に合併し解散,2015-10-05,1,,,,,アローズ,0
1304,4270001000646,登記記録の閉鎖等,0,2025-10-08,2025-10-01,日ノ丸印刷株式会社,,株式会社,鳥取県,鳥取市,南栄町３４番地,,31,201,6891121,,,2025-10-01,合併による解散等,6270001000446,令和７年１０月１日鳥取市南栄町３４番地中央印刷株式会社（6270001000446）に合併し解散,2015-10-05,1,,,,,ヒノマルインサツ,0
1307,4290001061422,登記記録の閉鎖等,0,2025-10-08,2025-09-08,株式会社アドバンス,,株式会社,福岡県,福津市,花見が浜３丁目２番１７号,,40,224,8113216,,,2025-09-08,清算の結了等,,,2015-10-05,1,,,,,アドバンス,0
1310,4290002043345,登記記録の閉鎖等,0,2025-10-08,2025-09-11,甘木農業資材有限会社,,有限会社,福岡県,朝倉市,馬田１１３０番地,,40,228,8380058,,,2025-09-11,清算の結了等,,,2015-10-05,1,,,,,アマギノウギョウシザイ,0
1313,4290801025733,登記記録の閉鎖等,0,2025-10-08,2025-10-06,株式会社ブルーワールド,,株式会社,福岡県,北九州市八幡西区,里中３丁目３番２４号,,40,109,8070846,,,2025-10-06,清算の結了等,,,2019-07-26,1,,,,,ブルーワールド,0
1329,4370001001205,登記記録の閉鎖等,0,2025-10-08,2025-09-24,ミクロプラスチツクス株式会社,,株式会社,宮城県,仙台市泉区,野村字二重袋５番地,,04,105,9813124,,,2025-09-24,清算の結了等,,,2015-10-05,1,,,,,ミクロプラスチックス,0
1332,4370003001285,登記記録の閉鎖等,0,2025-10-08,2025-09-22,合資会社日の出屋,,合資会社,宮城県,富谷市,日吉台３丁目１２番地の１２,,04,216,9813362,,,2025-09-22,清算の結了等,,,2015-10-05,1,,,,,ヒノデヤ,0
1336,4370802000470,登記記録の閉鎖等,0,2025-10-08,2025-09-22,東新機械有限会社,,有限会社,宮城県,名取市,名取が丘３丁目１７番２号,,04,207,9811235,,,2025-09-22,清算の結了等,,,2015-10-05,1,,,,,トウシンキカイ,0
1337,4380002006185,登記記録の閉鎖等,0,2025-10-08,2025-09-30,有限会社協栄工務店,,有限会社,福島県,伊達市,保原町大泉字平地内７９番地,,07,213,9600634,,,2025-09-30,清算の結了等,,,2015-10-05,1,,,,,キョウエイコウムテン,0
1350,4480001009550,登記記録の閉鎖等,0,2025-10-08,2025-10-01,ペーパーストーリー株式会社,,株式会社,徳島県,徳島市,問屋町７７番地３,,36,201,7708056,,,2025-10-01,合併による解散等,6480001003824,令和７年１０月１日徳島市問屋町７７番地３ペーパーストーリー株式会社（6480001003824）に合併し解散,2016-02-16,1,,,,,ペーパーストーリー,0
1356,5010001011899,登記記録の閉鎖等,0,2025-10-08,2025-09-05,株式会社ＧＬＯＢＡＬ　ＮＥＸＴ　ＬＥＡＤＥＲＳ,,株式会社,千葉県,我孫子市,天王台２丁目１６番１６号,,12,222,2701143,,,2025-09-05,清算の結了等,,,2015-10-05,1,,,,,グローバルネクストリーダーズ,0
1366,5010002006130,登記記録の閉鎖等,0,2025-10-08,2025-09-24,有限会社森田屋,,有限会社,東京都,文京区,湯島３丁目３０番６号,,13,105,1130034,,,2025-09-24,清算の結了等,,,2015-10-05,1,,,,,モリタヤ,0
1373,5010401099923,登記記録の閉鎖等,0,2025-10-08,2025-10-01,Ｎｏｖａｕｒａ　Ｊａｐａｎ株式会社,,株式会社,東京都,八王子市,西片倉２丁目６番１６号ラベニール４０３,,13,201,1920917,,,2025-10-01,清算の結了等,,,2015-10-05,1,,,,,ノバウラジャパン,0
1389,5010501027783,登記記録の閉鎖等,0,2025-10-08,2025-09-12,株式会社竜泉高桑電業社,,株式会社,東京都,台東区,竜泉２丁目５番地１号片桐ビルＡ号,,13,106,1100012,,,2025-09-12,清算の結了等,,,2015-10-05,1,,,,,,0
1396,5010601012248,登記記録の閉鎖等,0,2025-10-08,2025-09-25,株式会社進興樹脂工業所,,株式会社,東京都,墨田区,八広２丁目４番８号,,13,107,1310041,,,2025-09-25,清算の結了等,,,2015-10-05,1,,,,,シンコウジュシコウギョウショ,0
1398,5010602006876,登記記録の閉鎖等,0,2025-10-08,2025-09-30,有限会社藤中商事,,有限会社,東京都,江東区,東陽５丁目５番７号,,13,108,1350016,,,2025-09-30,清算の結了等,,,2015-10-05,1,,,,,フジナカショウジ,0
1428,5011402019655,登記記録の閉鎖等,0,2025-10-08,2025-10-01,有限会社アートボーイ,,有限会社,東京都,板橋区,板橋１丁目５３番１５－６０８号,,13,119,1730004,,,2025-10-01,清算の結了等,,,2015-10-05,1,,,,,アートボーイ,0
1437,5011702003375,登記記録の閉鎖等,0,2025-10-08,2025-10-03,有限会社京都苑,,有限会社,東京都,江戸川区,鹿骨４丁目７番８号,,13,123,1330073,,,2025-10-03,清算の結了等,,,2015-10-05,1,,,,,キョウトエン,0
1450,5020001133206,登記記録の閉鎖等,0,2025-10-08,2025-09-17,株式会社マシソン,,株式会社,神奈川県,横浜市旭区,中沢１丁目５４番２４号－３０２,,14,112,2410814,,,2025-09-17,清算の結了等,,,2019-10-11,1,,,,,マシソン,0
1499,5040001128336,登記記録の閉鎖等,0,2025-10-08,2025-09-04,株式会社ＣＳ　ＭＡＮＡＧＥＭＥＮＴ,,株式会社,千葉県,千葉市花見川区,幕張本郷１丁目３６番１７号,,12,102,2620033,,,2025-09-04,清算の結了等,,,2023-05-11,1,,,,,シーエスマネジメント,0
1521,5080401018918,登記記録の閉鎖等,0,2025-10-08,2025-10-06,株式会社加藤写真室,,株式会社,静岡県,浜松市中央区,大人見町１７５０番地の３７８,,22,138,4311112,,,2025-10-06,清算の結了等,,,2015-10-05,1,,,,,,0
1551,5120002003579,登記記録の閉鎖等,0,2025-10-08,2025-09-25,有限会社バード,,有限会社,大阪府,大阪市阿倍野区,帝塚山１丁目７番５号,,27,119,5450037,,,2025-09-25,清算の結了等,,,2015-10-05,1,,,,,バード,0
1564,5122002006470,登記記録の閉鎖等,0,2025-10-08,2025-10-02,有限会社Ｂ－ＩＳＴ,,有限会社,大阪府,東大阪市,荒本北２丁目５番５号,,27,227,5770011,,,2025-10-02,清算の結了等,,,2015-10-05,1,,,,,ビーイスト,0
1567,5130001020970,登記記録の閉鎖等,0,2025-10-08,2025-10-01,三要リフオーム株式会社,,株式会社,京都府,京都市中京区,西ノ京馬代町１９番地,,26,104,6048457,,,2025-10-01,合併による解散等,4130001020303,令和７年９月３０日京都市中京区西ノ京馬代町１９番地要建設株式会社（4130001020303）に合併し解散,2015-10-05,1,,,,,サンヨウリフォーム,0
1573,5130005014102,登記記録の閉鎖等,0,2025-10-08,2025-10-02,特定非営利活動法人京都いえのこと勉強会,,その他の設立登記法人,京都府,京都市左京区,下鴨蓼倉町７１番地６,,26,103,6060806,,,2025-10-02,清算の結了等,,,2015-10-05,1,,,,,キョウトイエノコトベンキョウカイ,0
1595,5180001150508,登記記録の閉鎖等,0,2025-10-08,2025-09-22,株式会社日東バイオラボ,,株式会社,愛知県,名古屋市北区,下飯田町３丁目５５番地２,,23,103,4620865,,,2025-09-22,清算の結了等,,,2022-03-24,1,,,,,ニットウバイオラボ,0
1599,5180002022689,登記記録の閉鎖等,0,2025-10-08,2025-09-17,有限会社石波志,,有限会社,愛知県,名古屋市西区,那古野１丁目１０番１０号,00072991,23,104,4510042,,,2025-09-17,清算の結了等,,,2015-10-05,1,,,,,イシバシ,0
1605,5180301021953,登記記録の閉鎖等,0,2025-10-08,2025-09-29,株式会社三悠,,株式会社,愛知県,豊橋市,西山町字西山５５番地の９,,23,201,4413121,,,2025-09-29,清算の結了等,,,2015-10-05,1,,,,,サンユウ,0
1611,5180302007258,登記記録の閉鎖等,0,2025-10-08,2025-09-24,有限会社グリーン中山,,有限会社,愛知県,豊橋市,石巻中山町字向イ７番地,,23,201,4411104,,,2025-09-24,清算の結了等,,,2015-10-05,1,,,,,グリーンナカヤマ,0
1618,5200001001947,登記記録の閉鎖等,0,2025-10-08,2025-10-02,光和株式会社,,株式会社,岐阜県,岐阜市,金園町１０丁目３２番地,,21,201,5008113,,,2025-10-02,清算の結了等,,,2015-10-05,1,,,,,コウワ,0
1634,5260002003937,登記記録の閉鎖等,0,2025-10-08,2025-09-30,有限会社小林協同会計,,有限会社,岡山県,岡山市北区,富田町２丁目１０番７号,,33,101,7000816,,,2025-09-30,清算の結了等,,,2015-10-05,1,,,,,コバヤシキョウドウカイケイ,0
1640,5290002027669,登記記録の閉鎖等,0,2025-10-08,2025-09-11,有限会社オービー旅行,,有限会社,福岡県,福岡市東区,青葉６丁目２７番３号,,40,131,8130025,,,2025-09-11,清算の結了等,,,2015-10-05,1,,,,,オービーリョコウ,0
1647,5290802006624,登記記録の閉鎖等,0,2025-10-08,2025-10-03,山岡商事有限会社,,有限会社,福岡県,北九州市小倉南区,八幡町３２番９号,,40,107,8020805,,,2025-10-03,清算の結了等,,,2015-10-05,1,,,,,ヤマオカショウジ,0
1654,5330002006684,登記記録の閉鎖等,0,2025-10-08,2025-10-01,有限会社谷口自動車,,有限会社,熊本県,熊本市北区,飛田３丁目２番１８号,,43,105,8615514,,,2025-10-01,合併による解散等,4330001001134,令和７年１０月１日熊本市西区上代四丁目１３番３４号九州産交オートサービス株式会社（4330001001134）に合併し解散,2015-10-05,1,,,,,タニグチジドウシャ,0
1658,5340001006874,登記記録の閉鎖等,0,2025-10-08,2025-10-01,株式会社ＧＯＴＯ,,株式会社,鹿児島県,鹿児島市,中町１２番８号,,46,201,8920827,,,2025-10-01,清算の結了等,,,2015-10-05,1,,,,,ゴトウ,0
1665,5370001015617,登記記録の閉鎖等,0,2025-10-08,2025-09-22,株式会社ノースジャパンサテライト,,株式会社,宮城県,仙台市若林区,伊在１丁目１２－６－１００３,,04,103,9840038,,,2025-09-22,清算の結了等,,,2015-10-05,1,,,,,ノースジャパンサテライト,0
1670,5380001034046,登記記録の閉鎖等,0,2025-10-08,2025-10-01,株式会社Ｉ’ＮＡＳ　Ｐｌａｎｎｉｎｇ,,株式会社,福島県,いわき市,平字白銀町１番地の１不二屋第一ビルＢ１階,,07,204,9708026,,,2025-10-01,合併による解散等,5380001022158,令和７年１０月１日福島県双葉郡広野町大字下北迫字火の口６５番地１株式会社稲村屋（5380001022158）に合併し解散,2023-10-13,1,,,,,アイナスプランニング,0
1672,5380003004212,登記記録の閉鎖等,0,2025-10-08,2025-09-26,合同会社トリプティ,,合同会社,福島県,郡山市,虎丸町１１番５号アネックス郡山５１２号,,07,203,9638014,,,2025-09-26,清算の結了等,,,2018-04-05,1,,,,,トリプティ,0
1677,5410002001594,登記記録の閉鎖等,0,2025-10-08,2025-10-06,有限会社三栄ボデー,,有限会社,秋田県,秋田市,新屋豊町４番２４号,,05,201,0101612,,,2025-10-06,清算の結了等,,,2015-10-05,1,,,,,,0
1686,5480002005936,登記記録の閉鎖等,0,2025-10-08,2025-10-06,有限会社まつうら松寿殿,,有限会社,徳島県,名西郡神山町,神領字中津１４２番地２,,36,342,7713310,,,2025-10-06,清算の結了等,,,2015-10-05,1,,,,,マツウラショウジュデン,0
1688,5500001022392,登記記録の閉鎖等,0,2025-10-08,2025-10-06,株式会社タカハシ鮮魚,,株式会社,愛媛県,松山市,萱町３丁目５番地１７,,38,201,7900813,,,2025-10-06,清算の結了等,,,2019-12-03,1,,,,,タカハシセンギョ,0
1690,5700150082044,登記記録の閉鎖等,0,2025-10-08,2024-03-31,生きた建築ミュージアム大阪実行委員会,,その他,大阪府,大阪市中央区,道修町３丁目４－１１新芝川ビル１０５,,27,128,5410045,,,2024-03-31,その他の清算の結了等,,,2017-03-27,1,,,,,イキタケンチクミユージアムオオサカジツコウイインカイ,0
1696,6010001218881,登記記録の閉鎖等,0,2025-10-08,2025-09-17,株式会社ＦＴ,,株式会社,東京都,千代田区,飯田橋１丁目１２番１３号いずみ九段ビル２階,,13,101,1020072,,,2025-09-17,清算の結了等,,,2021-06-17,1,,,,,エフティー,0
1705,6010005038269,登記記録の閉鎖等,0,2025-10-08,2025-10-03,税理士法人ジェミナイ税理士事務所,,その他の設立登記法人,東京都,中央区,日本橋小網町８番２号ＢＩＺＭＡＲＫＳ日本橋茅場町７階,,13,102,1030016,,,2025-10-03,清算の結了等,,,2024-05-07,1,,,,,ジェミナイゼイリシジムショ,0
1707,6010101010882,登記記録の閉鎖等,0,2025-10-08,2025-10-01,株式会社明亮創建,,株式会社,東京都,八王子市,暁町３丁目７番３号,,13,201,1920043,,,2025-10-01,清算の結了等,,,2015-10-05,1,,,,,メイリョウソウケン,0
1708,6010401139983,登記記録の閉鎖等,0,2025-10-08,2025-10-02,ＨａｓｈｉＣｏｒｐ　Ｊａｐａｎ株式会社,,株式会社,千葉県,浦安市,入船４丁目３６番６号,,12,227,2790012,,,2025-10-02,合併による解散等,1010001128061,令和７年９月１日東京都港区虎ノ門二丁目６番１号日本アイ・ビー・エム株式会社（1010001128061）に合併し解散,2018-08-03,1,,,,,ハシコープジャパン,0
1710,6010401166854,登記記録の閉鎖等,0,2025-10-08,2025-09-02,株式会社ミンカブＷｅｂ３ウォレット,,株式会社,東京都,港区,赤坂５丁目２番２０号,,13,103,1070052,,,2025-09-02,合併による解散等,1010001085245,令和７年９月１日東京都港区赤坂五丁目２番２０号株式会社トレードワークス（1010001085245）に合併し解散,2022-04-15,1,,,,,ミンカブウェブスリーウォレット,0
1718,6010403034002,登記記録の閉鎖等,0,2025-10-08,2025-09-05,合同会社ＳＦ２号,,合同会社,東京都,港区,西新橋１丁目２番９号メンターキャピタル税理士法人内,,13,103,1050003,,,2025-09-05,清算の結了等,,,2024-12-13,1,,,,,エスエフニゴウ,0
1741,6010902014108,登記記録の閉鎖等,0,2025-10-08,2025-10-02,有限会社まいらいふ,,有限会社,東京都,世田谷区,喜多見３丁目２２番１７号ピレーネＩＩ１０３号,00052908,13,112,1570067,,,2025-10-02,清算の結了等,,,2015-10-05,1,,,,,マイライフ,0
1746,6011001156089,登記記録の閉鎖等,0,2025-10-08,2025-09-25,Ｖａｌｕｅ＆Ｃｏｍｐａｎｙ株式会社,,株式会社,東京都,渋谷区,神宮前６丁目２３番４号桑野ビル２階,,13,113,1500001,,,2025-09-25,清算の結了等,,,2023-08-07,1,,,,,ヴァリューアンドカンパニー,0
1759,6011103009087,登記記録の閉鎖等,0,2025-10-08,2025-09-24,合同会社東逗子インベスターズ,,合同会社,東京都,千代田区,大手町２丁目２番２号アーバンネット大手町ビル,,13,101,1000004,,,2025-09-24,清算の結了等,,,2019-09-06,1,,,,,ヒガシズシインベスターズ,0
1777,6013201017161,登記記録の閉鎖等,0,2025-10-08,2025-10-01,ケイズマネージメント株式会社,,株式会社,東京都,新宿区,新宿４丁目２番１８号,,13,104,1600022,,,2025-10-01,合併による解散等,2011101032020,令和７年１０月１日東京都新宿区新宿四丁目２番１８号株式会社リロケーション・ジャパン（2011101032020）に合併し解散,2015-10-05,1,,,,,ケイズマネージメント,0
1780,6013301051515,登記記録の閉鎖等,0,2025-10-08,2025-10-01,株式会社ハートリッツ,,株式会社,東京都,豊島区,巣鴨３丁目１０番１９号,,13,116,1700002,,,2025-10-01,清算の結了等,,,2023-10-23,1,,,,,ハートリッツ,0
1797,6030001081592,登記記録の閉鎖等,0,2025-10-08,2025-09-29,株式会社コハラ,,株式会社,埼玉県,川口市,青木２丁目１０番３１号,,11,203,3320031,,,2025-09-29,清算の結了等,,,2015-10-05,1,,,,,コハラ,0
1798,6030001092763,登記記録の閉鎖等,0,2025-10-08,2025-09-29,株式会社シーズケア,,株式会社,埼玉県,草加市,瀬崎３丁目２２番１４号大竹コーポ２０２,,11,221,3400022,,,2025-09-29,清算の結了等,,,2015-10-05,1,,,,,シーズケア,0
1801,6030001122033,登記記録の閉鎖等,0,2025-10-08,2025-09-29,株式会社アストラ,,株式会社,埼玉県,川越市,大字小堤４５５番地３,,11,201,3500811,,,2025-09-29,清算の結了等,,,2017-09-08,1,,,,,アストラ,0
1827,6070001042616,登記記録の閉鎖等,0,2025-10-08,2025-09-29,株式会社プレコ,,株式会社,群馬県,館林市,松原３丁目７番地の４,,10,207,3740016,,,2025-09-29,清算の結了等,,,2025-02-12,1,,,,,プレコ,0
1836,6080401021391,登記記録の閉鎖等,0,2025-10-08,2025-10-01,株式会社ゴールドクラブ,,株式会社,静岡県,浜松市中央区,和光町５０８番地,,22,138,4311101,,,2025-10-01,合併による解散等,4080401012070,令和７年９月３０日静岡県浜松市中央区和光町５０５番地の１株式会社エムエスケイ（4080401012070）に合併し解散,2016-04-08,1,,,,,ゴールドクラブ,0
1848,6110002009790,登記記録の閉鎖等,0,2025-10-08,2025-10-01,有限会社新潟メンテナンス,,有限会社,新潟県,新潟市秋葉区,小口８７８番地２,,15,105,9560834,,,2025-10-01,清算の結了等,,,2015-10-05,1,,,,,ニイガタメンテナンス,0
1919,6180301029509,登記記録の閉鎖等,0,2025-10-08,2025-09-24,株式会社ｓａｎｎｋａステージ,,株式会社,愛知県,豊橋市,南大清水町字富士見３５６番地の２,,23,201,4418132,,,2025-09-24,清算の結了等,,,2016-08-17,1,,,,,サンカステージ,0
1943,6290805006182,登記記録の閉鎖等,0,2025-10-08,2025-10-02,慶雲寺,,その他の設立登記法人,福岡県,豊前市,大字下河内１８４３番地,,40,214,8280074,,,2025-10-02,清算の結了等,,,2015-10-05,1,,,,,ケイウンジ,0
1954,6340001018687,登記記録の閉鎖等,0,2025-10-08,2025-09-30,株式会社中村内装,,株式会社,鹿児島県,鹿児島市,東谷山５丁目９－６－２０１,,46,201,8910113,,,2025-09-30,清算の結了等,,,2015-10-05,1,,,,,ナカムラナイソウ,0
1955,6340001020346,登記記録の閉鎖等,0,2025-10-08,2025-10-02,株式会社大智建設工業,,株式会社,鹿児島県,鹿児島市,吉野町１０７７５番地３,,46,201,8920871,,,2025-10-02,清算の結了等,,,2017-06-07,1,,,,,ダイチケンセツコウギョウ,0
1967,6390001012173,登記記録の閉鎖等,0,2025-10-08,2025-10-03,朝日ビニール工業株式会社,,株式会社,山形県,西村山郡朝日町,大字馬神２０番地の１,,06,323,9901303,,,2025-10-03,清算の結了等,,,2015-10-05,1,,,,,アサヒビニールコウギョウ,0
1968,6390002008039,登記記録の閉鎖等,0,2025-10-08,2025-10-02,有限会社モード美容室,,有限会社,山形県,酒田市,大町１７番１３号,,06,204,9980859,,,2025-10-02,清算の結了等,,,2015-10-05,1,,,,,モードビヨウシツ,0
1970,6400002009431,登記記録の閉鎖等,0,2025-10-08,2025-09-26,有限会社設備企画工房,,有限会社,岩手県,北上市,上野町２丁目８番１４号,,03,206,0240021,,,2025-09-26,清算の結了等,,,2015-10-05,1,,,,,セツビキカクコウボウ,0
1973,6420001007871,登記記録の閉鎖等,0,2025-10-08,2025-09-29,株式会社和勝,,株式会社,青森県,三戸郡田子町,大字遠瀬字水亦８５番地１,,02,443,0390314,,,2025-09-29,清算の結了等,,,2015-10-05,1,,,,,ワショウ,0
1974,6420002018380,登記記録の閉鎖等,0,2025-10-08,2025-09-26,有限会社エビナ畜産,,有限会社,青森県,上北郡東北町,上北南２丁目３０番地１０８,,02,408,0392405,,,2025-09-26,清算の結了等,,,2015-10-05,1,,,,,エビナチクサン,0
1976,6430002014313,登記記録の閉鎖等,0,2025-10-08,2025-09-24,有限会社永井シーリング,,有限会社,北海道,札幌市北区,篠路七条６丁目５番１１号,,01,102,0028027,,,2025-09-24,清算の結了等,,,2015-10-05,1,,,,,ナガイシーリング,0
1985,6480002015950,登記記録の閉鎖等,0,2025-10-08,2025-10-06,有限会社山西建設,,有限会社,徳島県,三好郡東みよし町,足代１６７９番地,,36,489,7712502,,,2025-10-06,清算の結了等,,,2015-10-05,1,,,,,ヤマニシケンセツ,0
1995,7010001046002,登記記録の閉鎖等,0,2025-10-08,2025-09-24,株式会社松進社製本,,株式会社,東京都,中央区,八丁堀４丁目３番１１号,,13,102,1040032,,,2025-09-24,清算の結了等,,,2015-10-05,1,,,,,ショウシンシャセイホン,0
1996,7010001087517,登記記録の閉鎖等,0,2025-10-08,2025-10-02,ＳＨＯＷＡ　ＣＯＲＰＯＲＡＴＩＯＮ株式会社,,株式会社,東京都,中央区,築地１丁目１２番２２号,,13,102,1040045,,,2025-10-02,合併による解散等,5140001042626,令和７年９月３０日兵庫県加古川市平岡町新在家１１７番地株式会社エルアンドジー（5140001042626）に合併し解散,2015-10-05,1,,,,,ショウワコーポレーション,0
1998,7010001189461,登記記録の閉鎖等,0,2025-10-08,2025-10-06,キミースマイル株式会社,,株式会社,東京都,中央区,日本橋３丁目２－１４,,13,102,1030027,,,2025-10-06,清算の結了等,,,2018-02-08,1,,,,,キミースマイル,0
2012,7010005025638,登記記録の閉鎖等,0,2025-10-08,2025-09-18,一般社団法人チーム・ケーチルドレン,,その他の設立登記法人,埼玉県,さいたま市北区,日進町１丁目４９８番地１１,,11,102,3310823,,,2025-09-18,清算の結了等,,,2016-08-08,1,,,,,チームケーチルドレン,0
2016,7010401076540,登記記録の閉鎖等,0,2025-10-08,2025-09-02,株式会社スタープレイヤーズ・ミュージックパブリッシング,,株式会社,東京都,港区,南青山１丁目１０番３号,,13,103,1070062,,,2025-09-02,合併による解散等,5011001058996,令和７年９月１日東京都港区南青山一丁目１０番３号株式会社スタープレイヤーズ（5011001058996）に合併し解散,2015-10-05,1,,,,,スタープレイヤーズミュージックパブリッシング,0
2017,7010401104978,登記記録の閉鎖等,0,2025-10-08,2025-09-05,株式会社和味大輔,,株式会社,東京都,港区,白金２丁目６番１４号,,13,103,1080072,,,2025-09-05,清算の結了等,,,2015-10-05,1,,,,,ワミダイスケ,0
2025,7010401185696,登記記録の閉鎖等,0,2025-10-08,2025-10-02,ワイエス商事株式会社,,株式会社,東京都,中央区,日本橋室町３丁目２番１号,,13,102,1030022,,,2025-10-02,合併による解散等,7140001009895,令和７年９月２６日神戸市中央区磯辺通四丁目１番３８号西本Ｗｉｓｍｅｔｔａｃホールディングス株式会社（7140001009895）に合併し解散,2024-10-15,1,,,,,ワイエスショウジ,0
2031,7010501006224,登記記録の閉鎖等,0,2025-10-08,2025-09-25,株式会社梶田商店,,株式会社,東京都,台東区,花川戸２丁目１２番１０号,,13,106,1110033,,,2025-09-25,清算の結了等,,,2015-10-05,1,,,,,カジタショウテン,0
2041,7010603010933,登記記録の閉鎖等,0,2025-10-08,2025-09-22,ＧＲＵＰＯ　ＦＵＴＵＲＯ合同会社,,合同会社,北海道,札幌市中央区,南十条西１０丁目１－２０,,01,101,0640810,,,2025-09-22,清算の結了等,,,2024-07-08,1,,,,,グルポフトゥーロ,0
2052,7010905002736,登記記録の閉鎖等,0,2025-10-08,2025-10-03,特定非営利活動法人小児臨床研究支援ネットワーク,,その他の設立登記法人,東京都,世田谷区,粕谷２丁目６番１８号,,13,112,1570063,,,2025-10-03,清算の結了等,,,2015-10-05,1,,,,,ショウニリンショウケンキュウシエンネットワーク,0
2053,7011001067979,登記記録の閉鎖等,0,2025-10-08,2025-09-03,株式会社シーエイチ・エコ,,株式会社,東京都,渋谷区,元代々木町２５番７号元代々木ポイントＦ号,,13,113,1510062,,,2025-09-03,清算の結了等,,,2015-10-05,1,,,,,,0
2069,7011101068811,登記記録の閉鎖等,0,2025-10-08,2025-09-30,株式会社Ｏｖｅｒ５,,株式会社,東京都,大田区,仲六郷１丁目６番２３号仲六郷ハウス５１０号,,13,111,1440055,,,2025-09-30,清算の結了等,,,2015-10-05,1,,,,,オーバーファイブ,0
2073,7011402002997,登記記録の閉鎖等,0,2025-10-08,2025-10-01,栗山空罐有限会社,,有限会社,東京都,豊島区,高田３丁目４１番８－１１０３号,,13,116,1710033,,,2025-10-01,清算の結了等,,,2015-10-05,1,,,,,クリヤマクウカン,0
2084,7012801016200,登記記録の閉鎖等,0,2025-10-08,2025-09-24,武州総合サービス静岡株式会社,,株式会社,東京都,国分寺市,西恋ヶ窪１丁目４５番地１９,,13,214,1850013,,,2025-09-24,清算の結了等,,,2015-10-05,1,,,,,ブシュウソウゴウサービスシズオカ,0
2113,7030001120696,登記記録の閉鎖等,0,2025-10-08,2025-09-24,株式会社千菱,,株式会社,埼玉県,越谷市,大字恩間３５７番地,,11,222,3430033,,,2025-09-24,清算の結了等,,,2017-06-13,1,,,,,センビシ,0
2120,7040001002084,登記記録の閉鎖等,0,2025-10-08,2025-09-04,京葉珈琲株式会社,,株式会社,千葉県,千葉市若葉区,加曽利町６８９番地の３,,12,104,2640017,,,2025-09-04,清算の結了等,,,2015-10-05,1,,,,,,0
2122,7040001036248,登記記録の閉鎖等,0,2025-10-08,2025-09-10,株式会社東興産業,,株式会社,千葉県,松戸市,南花島４丁目６３番地の１４,,12,207,2710065,,,2025-09-10,清算の結了等,,,2015-10-05,1,,,,,トウコウサンギョウ,0
2128,7040005003962,登記記録の閉鎖等,0,2025-10-08,2025-09-04,医療法人社団デンタル・オフィス・湊,,その他の設立登記法人,千葉県,市川市,湊５番２号,,12,203,2720131,,,2025-09-04,清算の結了等,,,2015-10-05,1,,,,,デンタルオフィスミナト,0
2134,7050002007866,登記記録の閉鎖等,0,2025-10-08,2025-09-30,有限会社澤弥,,有限会社,茨城県,東茨城郡茨城町,大字奥谷６８１番地,,08,302,3113156,,,2025-09-30,清算の結了等,,,2015-10-05,1,,,,,サワヤ,0
2139,7070002000662,登記記録の閉鎖等,0,2025-10-08,2025-10-01,有限会社稲葉電気,,有限会社,群馬県,前橋市,岩神町２丁目１７番１２号,,10,201,3710035,,,2025-10-01,清算の結了等,,,2015-10-05,1,,,,,イナバデンキ,0
2154,7100002025482,登記記録の閉鎖等,0,2025-10-08,2025-10-01,有限会社サントラスト,,有限会社,長野県,松本市,大字神林７１０７番地４２,,20,202,3901243,,,2025-10-01,合併による解散等,6100001013175,令和７年１０月１日長野県松本市大字神林７１０７番地４２サン・フーズ株式会社（6100001013175）に合併し解散,2015-10-05,1,,,,,サントラスト,0
2158,7110002019723,登記記録の閉鎖等,0,2025-10-08,2025-09-29,有限会社小田自動車,,有限会社,新潟県,燕市,笹曲２番２３号,,15,213,9590117,,,2025-09-29,清算の結了等,,,2015-10-05,1,,,,,オダジドウシャ,0
2167,7120001209010,登記記録の閉鎖等,0,2025-10-08,2025-10-01,株式会社アディーム,,株式会社,大阪府,大阪市中央区,瓦屋町１丁目４番１４号,,27,128,5420066,,,2025-10-01,合併による解散等,3120002042918,令和７年１０月１日大阪市中央区瓦屋町一丁目４番１４号株式会社マエダマニュファクチャリング（3120002042918）に合併し解散,2017-10-20,1,,,,,アディーム,0
2185,7120101008221,登記記録の閉鎖等,0,2025-10-08,2025-09-19,株式会社泉紅園,,株式会社,大阪府,高石市,東羽衣７丁目５番６－２０１号,,27,225,5920003,,,2025-09-19,清算の結了等,,,2015-10-05,1,,,,,センコウエン,0
2186,7120101027691,登記記録の閉鎖等,0,2025-10-08,2025-09-18,株式会社双修,,株式会社,大阪府,堺市西区,家原寺町１丁３番２４号,,27,144,5938304,,,2025-09-18,清算の結了等,,,2015-10-05,1,,,,,ソウシュウ,0
2206,7150003002006,登記記録の閉鎖等,0,2025-10-08,2025-10-06,美企画合同会社,,合同会社,奈良県,奈良市,奈保町５番５号,,29,201,6308107,,,2025-10-06,清算の結了等,,,2019-09-09,1,,,,,ビキカク,0
2207,7150005009049,登記記録の閉鎖等,0,2025-10-08,2025-09-29,一般社団法人桜奉会,,その他の設立登記法人,奈良県,桜井市,大字初瀬８３７番地,,29,206,6330112,,,2025-09-29,清算の結了等,,,2019-02-19,1,,,,,オウホウカイ,0
2214,7180001117026,登記記録の閉鎖等,0,2025-10-08,2025-09-19,株式会社みやび,,株式会社,愛知県,一宮市,浅井町小日比野字大萩９５２番地２４,,23,203,4910104,,,2025-09-19,清算の結了等,,,2015-10-05,1,,,,,ミヤビ,0
2222,7180002040615,登記記録の閉鎖等,0,2025-10-08,2025-09-22,有限会社石原工業所,,有限会社,愛知県,清須市,西枇杷島町地領２丁目２番地の１,,23,233,4520008,,,2025-09-22,清算の結了等,,,2015-10-05,1,,,,,イシハラコウギョウショ,0
2223,7180002071528,登記記録の閉鎖等,0,2025-10-08,2025-09-22,有限会社圓山製陶所,,有限会社,愛知県,瀬戸市,上ノ切町４６番地,,23,204,4890892,,,2025-09-22,清算の結了等,,,2015-10-05,1,,,,,エンザンセイトウショ,0
2224,7180002089909,登記記録の閉鎖等,0,2025-10-08,2025-09-16,有限会社石川電機,,有限会社,愛知県,弥富市,境町８９番地,,23,235,4980055,,,2025-09-16,清算の結了等,,,2015-10-05,1,,,,,イシカワデンキ,0
2225,7180003013009,登記記録の閉鎖等,0,2025-10-08,2025-09-22,合資会社豊浜大学堂薬局,,合資会社,愛知県,知多郡美浜町,新浦戸２丁目１０番地８,,23,446,4702411,,,2025-09-22,清算の結了等,,,2015-10-05,1,,,,,トヨハマダイガクドウヤッキョク,0
2226,7180301017470,登記記録の閉鎖等,0,2025-10-08,2025-09-22,ハックコンサルティング株式会社,,株式会社,愛知県,安城市,朝日町６番４号安城パーク・ホームズ６０５,,23,212,4460031,,,2025-09-22,清算の結了等,,,2015-10-05,1,,,,,ハックコンサルティング,0
2241,7240002030270,登記記録の閉鎖等,0,2025-10-08,2025-10-01,有限会社野田鉄工所,,有限会社,広島県,三次市,三次町１８９２番地の４,,34,209,7280021,,,2025-10-01,清算の結了等,,,2015-10-05,1,,,,,ノダテッコウショ,0
2244,7250001014620,登記記録の閉鎖等,0,2025-10-08,2025-10-02,株式会社周冷サービス,,株式会社,山口県,岩国市,周東町下久原６０３番地１３,,35,208,7420417,,,2025-10-02,清算の結了等,,,2015-10-05,1,,,,,シュウレイサービス,0
2248,7250002017102,登記記録の閉鎖等,0,2025-10-08,2025-10-01,光保全有限会社,,有限会社,山口県,光市,島田５丁目１４番４３号,,35,210,7430063,,,2025-10-01,合併による解散等,1250001010170,令和７年１０月１日山口県光市大字島田３４３４番地小川興産株式会社（1250001010170）に合併し解散,2015-10-05,1,,,,,ヒカリホゼン,0
2250,7260001024726,登記記録の閉鎖等,0,2025-10-08,2025-09-30,株式会社アズウッド,,株式会社,岡山県,岡山市北区,辰巳２３番地１２５ストーク辰巳２０１,,33,101,7000976,,,2025-09-30,清算の結了等,,,2015-10-05,1,,,,,アズウッド,0
2254,7260002018578,登記記録の閉鎖等,0,2025-10-08,2025-09-30,三和包装有限会社,,有限会社,岡山県,倉敷市,児島塩生２７６７番地１２,,33,202,7110934,,,2025-09-30,清算の結了等,,,2015-10-05,1,,,,,サンワホウソウ,0
2261,7290001105382,登記記録の閉鎖等,0,2025-10-08,2025-09-08,株式会社ＭＧＹ,,株式会社,福岡県,福岡市中央区,春吉２丁目９－２５ラ・レジダンス・ド・レーヌ３０６号室,,40,133,8100003,,,2025-09-08,清算の結了等,,,2024-04-16,1,,,,,エムジーワイ,0
2267,7290002047434,登記記録の閉鎖等,0,2025-10-08,2025-09-10,有限会社西日本新聞エリアセンター福島,,有限会社,福岡県,八女市,本町１５５番地の１,,40,210,8340031,,,2025-09-10,清算の結了等,,,2015-10-05,1,,,,,ニシニホンシンブンエリアセンターフクシマ,0
2268,7290003009680,登記記録の閉鎖等,0,2025-10-08,2025-09-11,合同会社ＴＡＮＯＢＩＺ,,合同会社,福岡県,福岡市西区,姪の浜２丁目１３番１４号石橋ビル１０１号室,,40,135,8190002,,,2025-09-11,清算の結了等,,,2020-01-17,1,,,,,タノビズ,0
2297,7380002019580,登記記録の閉鎖等,0,2025-10-08,2025-09-26,有限会社アトラス,,有限会社,福島県,須賀川市,芦田塚６２番地,00083758,07,207,9620868,,,2025-09-26,清算の結了等,,,2015-10-05,1,,,,,アトラス,0
2305,7400502000112,登記記録の閉鎖等,0,2025-10-08,2025-09-26,有限会社エイト,,有限会社,岩手県,一関市,新大町４１番地,,03,209,0210883,,,2025-09-26,清算の結了等,,,2015-10-05,1,,,,,エイト,0
2316,7450005004374,登記記録の閉鎖等,0,2025-10-08,2025-10-02,特定非営利活動法人ＯＩＤＥ,,その他の設立登記法人,北海道,上川郡和寒町,字日ノ出４番地３３３,,01,464,0980101,,,2025-10-02,清算の結了等,,,2023-07-07,1,,,,,オイデ,0
2324,7700150046286,登記記録の閉鎖等,0,2025-10-08,2025-07-08,浜松市船明土地区画整理組合,,その他,静岡県,浜松市中央区,中央１丁目２番１号,,22,138,4300929,,,2025-07-08,その他の清算の結了等,,,2015-10-09,1,,,,,ハママツシフナギラトチクカクセイリクミアイ,0
2334,8010001250049,登記記録の閉鎖等,0,2025-10-08,2025-09-24,株式会社名業グループ,,株式会社,東京都,文京区,本郷２丁目９番８号本郷朝風ビル３階,,13,105,1130033,,,2025-09-24,清算の結了等,,,2024-11-19,1,,,,,メイギョウグループ,0
2357,8010405021649,登記記録の閉鎖等,0,2025-10-08,2025-09-05,一般社団法人Ｓａｎｂａ,,その他の設立登記法人,東京都,港区,虎ノ門５丁目１番４号,,13,103,1050001,,,2025-09-05,清算の結了等,,,2022-12-06,1,,,,,サンバ,0
2389,8011003012172,登記記録の閉鎖等,0,2025-10-08,2025-09-30,合同会社Ｐｒｏｏｆ　Ｏｆ,,合同会社,埼玉県,加須市,鴻茎５－６０,,11,210,3470111,,,2025-09-30,清算の結了等,,,2021-02-01,1,,,,,プルーフオブ,0
2401,8011601011848,登記記録の閉鎖等,0,2025-10-08,2025-09-29,株式会社スリーエス・コーポレーション,,株式会社,埼玉県,和光市,白子３丁目１１－１,,11,229,3510101,,,2025-09-29,清算の結了等,,,2015-10-05,1,,,,,スリーエスコーポレーション,0
2415,8012701015680,登記記録の閉鎖等,0,2025-10-08,2025-10-03,Ｐａｒｔｎｅｒｓ　ｉｎ　Ｐｅｒｆｏｒｍａｎｃｅ　Ｊａｐａｎ株式会社,,株式会社,東京都,小平市,花小金井６丁目３１番２１号,,13,211,1870002,,,2025-10-03,合併による解散等,7010401001556,令和７年９月１日東京都港区赤坂一丁目８番１号アクセンチュア株式会社（7010401001556）に合併し解散,2020-01-07,1,,,,,パートナーズインパフォーマンスジャパン,0
2419,8013301029798,登記記録の閉鎖等,0,2025-10-08,2025-09-26,株式会社目白ホーム,,株式会社,東京都,豊島区,目白５丁目２０番１３号,,13,116,1710031,,,2025-09-26,清算の結了等,,,2015-10-05,1,,,,,メジロホーム,0
2421,8020001113147,登記記録の閉鎖等,0,2025-10-08,2025-09-16,ＭＩＥＬ株式会社,,株式会社,神奈川県,鎌倉市,由比ガ浜４丁目４番３７号の３,,14,204,2480014,,,2025-09-16,合併による解散等,3021001009199,令和７年９月１日神奈川県鎌倉市大船三丁目１番５号湘南パーキング株式会社（3021001009199）に合併し解散,2015-10-22,1,,,,,ミエル,0
2455,8040001002141,登記記録の閉鎖等,0,2025-10-08,2025-10-06,日本ドライメンテナンス株式会社,,株式会社,千葉県,千葉市中央区,中央港１丁目２４番１４号,,12,101,2600024,,,2025-10-06,合併による解散等,2010701007860,令和７年１０月１日東京都北区田端六丁目１番１号日本ドライケミカル株式会社（2010701007860）に合併し解散,2015-10-05,1,,,,,ニッポンドライメンテナンス,0
2456,8040001006712,登記記録の閉鎖等,0,2025-10-08,2025-09-04,株式会社フレーバーコーヒー,,株式会社,千葉県,千葉市若葉区,加曽利町６８９番地の３,,12,104,2640017,,,2025-09-04,清算の結了等,,,2015-10-05,1,,,,,フレーバーコーヒー,0
2467,8040002071111,登記記録の閉鎖等,0,2025-10-08,2025-09-08,ケイプラン有限会社,,有限会社,千葉県,木更津市,木更津１丁目２番２０号,,12,206,2920056,,,2025-09-08,清算の結了等,,,2015-10-05,1,,,,,,0
2470,8040005021765,登記記録の閉鎖等,0,2025-10-08,2025-09-04,医療法人社団実相会,,その他の設立登記法人,千葉県,船橋市,本郷町６６３番地３ソレーユ西船橋１０２号室,,12,204,2730033,,,2025-09-04,清算の結了等,,,2022-10-11,1,,,,,ジッソウカイ,0
2485,8090005004575,登記記録の閉鎖等,0,2025-10-08,2025-09-26,医療法人忠友会,,その他の設立登記法人,山梨県,韮崎市,神山町北宮地字河原谷下３番地,,19,207,4070042,,,2025-09-26,清算の結了等,,,2015-10-05,1,,,,,チュウユウカイ,0
2492,8120001072738,登記記録の閉鎖等,0,2025-10-08,2025-10-01,日本楽譜・音楽書販売株式会社,,株式会社,大阪府,大阪市北区,末広町２番２６号,,27,127,5300053,,,2025-10-01,合併による解散等,7120001258668,令和７年１０月１日大阪市北区天神橋三丁目２番３２号株式会社ハーモニー（7120001258668）に合併し解散,2015-10-05,1,,,,,ニホンガクフオンガクショハンバイ,0
2498,8120001256547,登記記録の閉鎖等,0,2025-10-08,2025-09-29,椿雲株式会社,,株式会社,大阪府,大阪市東成区,深江北３丁目４番２１号エクラ深江橋８０８Ａ,,27,115,5370001,,,2025-09-29,清算の結了等,,,2023-07-21,1,,,,,チンウン,0
2513,8130001007354,登記記録の閉鎖等,0,2025-10-08,2025-09-30,株式会社丸伸製作所,,株式会社,京都府,京都市左京区,東竹屋町通川端東入東竹屋町６０番地１７,,26,103,6068393,,,2025-09-30,清算の結了等,,,2015-10-05,1,,,,,マルシンセイサクショ,0
2527,8160001017359,登記記録の閉鎖等,0,2025-10-08,2025-10-02,株式会社弐零壱参不忘寿会,,株式会社,滋賀県,大津市,中央２丁目２番２２号プリントセンター内,,25,201,5200043,,,2025-10-02,清算の結了等,,,2015-10-05,1,,,,,ニゼロイチサンフボウジュカイ,0
2529,8160003002004,登記記録の閉鎖等,0,2025-10-08,2025-10-01,クラフトリゾート合同会社,,合同会社,滋賀県,甲賀市,水口町山６７８番地８３,,25,209,5280067,,,2025-10-01,清算の結了等,,,2020-02-26,1,,,,,クラフトリゾート,0
2533,8180001107620,登記記録の閉鎖等,0,2025-10-08,2025-09-22,カーサ・エムプラス株式会社,,株式会社,愛知県,名古屋市名東区,西里町２丁目２番３号,,23,115,4650084,,,2025-09-22,清算の結了等,,,2015-10-05,1,,,,,カーサエムプラス,0
2545,8180002029533,登記記録の閉鎖等,0,2025-10-08,2025-10-01,有限会社アーネフト,,有限会社,愛知県,名古屋市中区,丸の内１丁目２番２８号,,23,106,4600002,,,2025-10-01,清算の結了等,,,2015-10-05,1,,,,,アーネフト,0
2547,8180002045142,登記記録の閉鎖等,0,2025-10-08,2025-09-22,有限会社天野機工,,有限会社,愛知県,名古屋市港区,正保町８丁目１８番地の２,,23,111,4550074,,,2025-09-22,清算の結了等,,,2015-10-05,1,,,,,アマノキコウ,0
2563,8210002011669,登記記録の閉鎖等,0,2025-10-08,2025-10-03,有限会社清水刃物,,有限会社,福井県,越前市,池ノ上町第４９号１２番地,,18,209,9150873,,,2025-10-03,清算の結了等,,,2015-10-05,1,,,,,シミズハモノ,0
2564,8210002012147,登記記録の閉鎖等,0,2025-10-08,2025-10-02,有限会社棟田板金工業,,有限会社,福井県,越前市,岩本町第１７号８番地,,18,209,9150233,,,2025-10-02,清算の結了等,,,2015-10-05,1,,,,,ムネダバンキンコウギョウ,0
2570,8240001054583,登記記録の閉鎖等,0,2025-10-08,2025-10-03,株式会社ビカムワン,,株式会社,広島県,広島市西区,井口５丁目３１番４号,,34,104,7330842,,,2025-10-03,清算の結了等,,,2019-07-02,1,,,,,ビカムワン,0
2576,8260002016036,登記記録の閉鎖等,0,2025-10-08,2025-09-30,有限会社中機システムズ,,有限会社,岡山県,岡山市北区,駅前町２丁目５番２４号,,33,101,7000023,,,2025-09-30,清算の結了等,,,2015-10-05,1,,,,,チュウキシステムズ,0
2588,8320002003663,登記記録の閉鎖等,0,2025-10-08,2025-10-02,有限会社白瀧屋,,有限会社,大分県,大分市,大字中戸次５６１９番地,,44,201,8797761,,,2025-10-02,清算の結了等,,,2015-10-05,1,,,,,,0
2600,8360005005109,登記記録の閉鎖等,0,2025-10-08,2025-10-01,一般社団法人クラボ沖縄,,その他の設立登記法人,沖縄県,那覇市,おもろまち４丁目１２番９号４Ｆ,,47,201,9000006,,,2025-10-01,清算の結了等,,,2015-10-05,1,,,,,クラボオキナワ,0
2601,8370001012933,登記記録の閉鎖等,0,2025-10-08,2025-10-02,ＭＫエコプラント株式会社,,株式会社,宮城県,仙台市青葉区,一番町２丁目５番１７号,,04,101,9800811,,,2025-10-02,合併による解散等,4010001030520,令和７年９月３０日東京都千代田区神田須田町二丁目８番地１向井建設株式会社（4010001030520）に合併し解散,2015-10-05,1,,,,,エムケイエコプラント,0
2605,8370802002141,登記記録の閉鎖等,0,2025-10-08,2025-09-22,有限会社大空メディカル,,有限会社,宮城県,名取市,那智が丘２丁目１８番地の１３,,04,207,9811244,,,2025-09-22,清算の結了等,,,2015-10-05,1,,,,,オオゾラメディカル,0
2608,8390001008830,登記記録の閉鎖等,0,2025-10-08,2025-10-03,株式会社ＳＫ,,株式会社,山形県,最上郡最上町,大字大堀９８７番地,,06,362,9996211,,,2025-10-03,清算の結了等,,,2015-10-05,1,,,,,エスケー,0
2614,8410005002918,登記記録の閉鎖等,0,2025-10-08,2025-10-03,医療法人雄仁会,,その他の設立登記法人,秋田県,大館市,御成町３丁目３番２号,,05,204,0170044,,,2025-10-03,清算の結了等,,,2015-10-05,1,,,,,ユウジンカイ,0
2629,8450002011629,登記記録の閉鎖等,0,2025-10-08,2025-10-02,有限会社かんだ,,有限会社,北海道,利尻郡利尻富士町,鴛泊字栄町２５番地,,01,519,0970101,,,2025-10-02,清算の結了等,,,2015-10-05,1,,,,,カンダ,0
2637,8490005001367,登記記録の閉鎖等,0,2025-10-08,2025-10-02,特定非営利活動法人よさこい祭り広報センター,,その他の設立登記法人,高知県,高知市,堺町５番１４号,,39,201,7800834,,,2025-10-02,清算の結了等,,,2015-10-05,1,,,,,ヨサコイマツリコウホウセンター,0
2651,9010003028095,登記記録の閉鎖等,0,2025-10-08,2025-09-08,合同会社ＯＮＴｉＢ,,合同会社,東京都,千代田区,麹町３丁目５番地４麹町インテリジェントビルＢ－１,,13,101,1020083,,,2025-09-08,清算の結了等,,,2018-08-15,1,,,,,オンテビ,0
2663,9010401007262,登記記録の閉鎖等,0,2025-10-08,2025-09-24,上山商事株式会社,,株式会社,宮城県,仙台市青葉区,国見５丁目１３番２０号,,04,101,9810943,,,2025-09-24,清算の結了等,,,2015-10-05,1,,,,,カミヤマショウジ,0
2681,9010601055342,登記記録の閉鎖等,0,2025-10-08,2025-09-26,Ｆ－ｇｒｏｕｐ株式会社,,株式会社,東京都,墨田区,両国１丁目３番１１号アオヤギ両国ビル３Ｆ,,13,107,1300026,,,2025-09-26,清算の結了等,,,2019-04-15,1,,,,,エフグループ,0
2686,9010702003472,登記記録の閉鎖等,0,2025-10-08,2025-10-02,有限会社柵木商店,,有限会社,東京都,品川区,二葉４丁目４番１６号,,13,109,1420043,,,2025-10-02,清算の結了等,,,2015-10-05,1,,,,,,0
2687,9010803004205,登記記録の閉鎖等,0,2025-10-08,2025-09-29,合同会社松栄堂エステート,,合同会社,東京都,大田区,山王４丁目３０番８号,,13,111,1430023,,,2025-09-29,清算の結了等,,,2022-06-15,1,,,,,ショウエイドウエステート,0
2689,9011001104243,登記記録の閉鎖等,0,2025-10-08,2025-09-02,株式会社スタープレイヤーズ・レコーズ,,株式会社,東京都,港区,南青山１丁目１０番３号,,13,103,1070062,,,2025-09-02,合併による解散等,5011001058996,令和７年９月１日東京都港区南青山一丁目１０番３号株式会社スタープレイヤーズ（5011001058996）に合併し解散,2015-10-05,1,,,,,スタープレイヤーズレコーズ,0
2690,9011001117963,登記記録の閉鎖等,0,2025-10-08,2025-09-26,株式会社コトバデザイン,,株式会社,東京都,港区,六本木１丁目７番２７号,,13,103,1060032,,,2025-09-26,清算の結了等,,,2017-08-23,1,,,,,コトバデザイン,0
2712,9011101079815,登記記録の閉鎖等,0,2025-10-08,2025-09-25,アークリッチ株式会社,,株式会社,東京都,千代田区,東神田１丁目２－１２,,13,101,1010031,,,2025-09-25,清算の結了等,,,2017-03-07,1,,,,,アークリッチ,0
2722,9011405001937,登記記録の閉鎖等,0,2025-10-08,2025-10-01,ＴＡＧ都市整備協同組合,,その他の設立登記法人,東京都,板橋区,西台３丁目８番１５号,,13,119,1750045,,,2025-10-01,清算の結了等,,,2017-11-01,1,,,,,ティーエージートシセイビ,0
2743,9013301042255,登記記録の閉鎖等,0,2025-10-08,2025-09-19,株式会社ジャパンコンテンツファクトリー,,株式会社,東京都,千代田区,紀尾井町３番１２号,,13,101,1020094,,,2025-09-19,清算の結了等,,,2018-05-10,1,,,,,ジャパンコンテンツファクトリー,0
2749,9020001092753,登記記録の閉鎖等,0,2025-10-08,2025-10-06,株式会社横浜リアルエステート,,株式会社,神奈川県,横浜市中区,山下町１シルクセンター９２１,,14,104,2310023,,,2025-10-06,清算の結了等,,,2015-10-05,1,,,,,ヨコハマリアルエステート,0
2750,9020001095211,登記記録の閉鎖等,0,2025-10-08,2025-09-17,株式会社さくらサービス,,株式会社,神奈川県,横浜市青葉区,あざみ野１丁目３２番７号,,14,117,2250011,,,2025-09-17,清算の結了等,,,2015-10-05,1,,,,,サクラサービス,0
2752,9020001151369,登記記録の閉鎖等,0,2025-10-08,2025-09-17,ＫＫプロジェクト株式会社,,株式会社,神奈川県,横浜市保土ケ谷区,天王町２丁目５０－１天王町スカイハイツ５－２１１,,14,106,2400003,,,2025-09-17,清算の結了等,,,2023-04-28,1,,,,,ケーケープロジェクト,0
2779,9040002057233,登記記録の閉鎖等,0,2025-10-08,2025-09-04,有限会社クリーン塗装,,有限会社,千葉県,印西市,高花５丁目１０番地の２,,12,231,2701342,,,2025-09-04,清算の結了等,,,2015-10-05,1,,,,,クリーントソウ,0
2796,9070002031631,登記記録の閉鎖等,0,2025-10-08,2025-10-01,有限会社恵翔,,有限会社,群馬県,太田市,西本町３３番１６号,,10,205,3730033,,,2025-10-01,清算の結了等,,,2015-10-05,1,,,,,ケイショウ,0
2800,9080402006125,登記記録の閉鎖等,0,2025-10-08,2025-10-01,有限会社浜松自動車登録センター,,有限会社,静岡県,浜松市中央区,下石田町１７９６番地,,22,138,4350006,,,2025-10-01,合併による解散等,2080402002262,令和７年９月３０日静岡県浜松市中央区河輪町７６番地の１株式会社川口砂利（2080402002262）に合併し解散,2015-10-05,1,,,,,ハママツジドウシャトウロクセンター,0
2805,9110003004466,登記記録の閉鎖等,0,2025-10-08,2025-09-30,フルールジャパン合同会社,,合同会社,新潟県,阿賀野市,学校町４－７９,,15,223,9592032,,,2025-09-30,清算の結了等,,,2021-05-06,1,,,,,フルールジャパン,0
2806,9120001009417,登記記録の閉鎖等,0,2025-10-08,2025-10-07,株式会社岡部工業所,,株式会社,大阪府,大阪市東住吉区,今川４丁目１３番１９号,,27,121,5460003,,,2025-10-07,清算の結了等,,,2015-10-05,1,,,,,オカベコウギョウショ,0
2809,9120001170359,登記記録の閉鎖等,0,2025-10-08,2025-10-01,株式会社Ｔコミュニティ,,株式会社,大阪府,大阪市西成区,千本南１丁目２３番１６号,,27,122,5570055,,,2025-10-01,合併による解散等,9120001111619,令和７年１０月１日大阪市阿倍野区阪南町三丁目４１番１４号株式会社リコファミリア（9120001111619）に合併し解散,2015-10-05,1,,,,,ティーコミュニティ,0
2861,9180002076946,登記記録の閉鎖等,0,2025-10-08,2025-09-22,有限会社谷口織物修整,,有限会社,愛知県,一宮市,浅井町尾関字上り戸４７番地の１,,23,203,4910101,,,2025-09-22,清算の結了等,,,2015-10-05,1,,,,,タニグチオリモノシュウセイ,0
2863,9180003027460,登記記録の閉鎖等,0,2025-10-08,2025-09-22,合同会社Ｙｕｋｉｍｏｏ,,合同会社,愛知県,北名古屋市,久地野９番地１,,23,234,4810012,,,2025-09-22,清算の結了等,,,2024-10-09,1,,,,,ユキモー,0
2872,9190001025416,登記記録の閉鎖等,0,2025-10-08,2025-10-01,株式会社志摩リネンサプライ,,株式会社,三重県,志摩市,阿児町鵜方２８５０番地２６３,,24,215,5170501,,,2025-10-01,合併による解散等,1190001025415,令和７年１０月１日三重県志摩市阿児町鵜方３２３６番地４株式会社志摩クリーニングセンター（1190001025415）に合併し解散,2018-04-04,1,,,,,シマリネンサプライ,0
2880,9240001034469,登記記録の閉鎖等,0,2025-10-08,2025-10-01,株式会社ユアーズエージエント,,株式会社,広島県,府中市,府中町２８番地の４,,34,208,7260005,,,2025-10-01,合併による解散等,2240001034112,令和７年１０月１日広島県府中市鵜飼町７００番地の８アシナトランジット株式会社（2240001034112）に合併し解散,2015-10-05,1,,,,,ユアーズエージエント,0
2901,9320001007111,登記記録の閉鎖等,0,2025-10-08,2025-10-01,株式会社　佐藤断熱,,株式会社,大分県,別府市,大字南立石２０３５番地の１１,,44,202,8740000,,,2025-10-01,清算の結了等,,,2015-10-05,1,,,,,サトウダンネツ,0
2910,9330003006804,登記記録の閉鎖等,0,2025-10-08,2025-09-26,合同会社ゆうだい,,合同会社,熊本県,熊本市東区,桜木１丁目１８番１０号,,43,102,8612101,,,2025-09-26,清算の結了等,,,2016-08-17,1,,,,,ユウダイ,0
2917,9360001012792,登記記録の閉鎖等,0,2025-10-08,2025-10-01,株式会社比嘉農産,,株式会社,沖縄県,国頭郡国頭村,字安波９７番地,,47,301,9051504,,,2025-10-01,清算の結了等,,,2015-10-05,1,,,,,ヒガノウサン,0
2921,9370001041675,登記記録の閉鎖等,0,2025-10-08,2025-09-25,株式会社フェニックス,,株式会社,宮城県,仙台市泉区,山の寺３丁目２３番１３号,,04,105,9813103,,,2025-09-25,清算の結了等,,,2017-06-19,1,,,,,フェニックス,0
2934,9430002010854,登記記録の閉鎖等,0,2025-10-08,2025-09-24,有限会社上野幌商事,,有限会社,北海道,札幌市厚別区,上野幌二条５丁目１番１６号,,01,108,0040032,,,2025-09-24,清算の結了等,,,2015-10-05,1,,,,,カミノッポロショウジ,0
2942,9700150003814,登記記録の閉鎖等,0,2025-10-08,2022-03-25,日本橋室町三丁目地区市街地再開発組合,,その他,東京都,中央区,日本橋室町３丁目二番一号,,13,102,1030022,,,2022-03-25,その他の清算の結了等,,,2015-10-09,1,,,,,ニホンバシムロマチサンチヨウメチクシガイチサイカイハツクミアイ,0
2943,9700150011172,登記記録の閉鎖等,0,2025-10-08,2025-03-31,ミツミ健康保険組合,,その他,東京都,多摩市,鶴牧２丁目１１－２,,13,224,2060034,,,2025-03-31,その他の清算の結了等,,,2015-10-09,1,,,,,ミツミケンコウホケンクミアイ,0
