sequenceNumber,corporateNumber,process,correct,updateDate,changeDate,name,nameImageId,kind,prefectureName,cityName,streetNumber,addressImageId,prefectureCode,cityCode,postCode,addressOutside,addressOutsideImageId,closeDate,closeCause,successorCorporateNumber,changeCause,assignmentDate,latest,enName,enPrefectureName,enCityName,enAddressOutside,furigana,hihyoji
2,1010001165724,登記記録の閉鎖等,0,2022-11-02,2022-10-27,プレシジョン・マーケティング・コンサルタント株式会社,,株式会社,東京都,千代田区,霞が関３丁目２番６号東京倶楽部ビルディング,,13,101,1000013,,,2022-10-27,清算の結了等,,,2015-10-05,1,,,,,プレシジョンマーケティングコンサルタント,0
12,1010003027781,登記記録の閉鎖等,0,2022-11-02,2022-10-28,合同会社エスケーパートナーズ,,合同会社,東京都,千代田区,平河町１丁目６番１５号ＵＳビル８階,,13,101,1020093,,,2022-10-28,清算の結了等,,,2018-06-25,1,,,,,エスケーパートナーズ,0
25,1010501009752,登記記録の閉鎖等,0,2022-11-02,2022-10-26,日新化薬株式会社,,株式会社,埼玉県,川口市,大字芝４３１１番地の６,,11,203,3330866,,,2022-10-26,清算の結了等,,,2015-10-05,1,,,,,ニッシンカヤク,0
40,1010902014054,登記記録の閉鎖等,0,2022-11-02,2022-11-01,有限会社マイティ,,有限会社,東京都,世田谷区,世田谷３丁目８番２号,,13,112,1540017,,,2022-11-01,清算の結了等,,,2015-10-05,1,,,,,マイティ,0
59,1011301017045,登記記録の閉鎖等,0,2022-11-02,2022-10-25,美光産業株式会社,,株式会社,東京都,杉並区,西荻南２丁目１９番１０号,,13,115,1670053,,,2022-10-25,清算の結了等,,,2015-10-05,1,,,,,ビコウサンギョウ,0
62,1011502004643,登記記録の閉鎖等,0,2022-11-02,2022-10-27,有限会社ハウス情報館,,有限会社,東京都,北区,赤羽西１丁目７番１－１１０号,,13,117,1150055,,,2022-10-27,清算の結了等,,,2015-10-05,1,,,,,ハウスジョウホウカン,0
72,1012802005249,登記記録の閉鎖等,0,2022-11-02,2022-10-25,有限会社旅荘いこい,,有限会社,東京都,武蔵村山市,中藤５丁目１０５番地の１,,13,223,2080001,,,2022-10-25,清算の結了等,,,2015-10-05,1,,,,,リョソウイコイ,0
123,1040005020550,登記記録の閉鎖等,0,2022-11-02,2022-10-27,司法書士法人アイフェロー,,その他の設立登記法人,千葉県,船橋市,西船５丁目２番６号西船橋マンション４０３号室,,12,204,2730031,,,2022-10-27,清算の結了等,,,2019-09-24,1,,,,,アイフェロー,0
140,1080001021004,登記記録の閉鎖等,0,2022-11-02,2022-10-31,株式会社カウンズ・メディカル,,株式会社,静岡県,藤枝市,駅前１丁目８番１１号,,22,214,4260034,,,2022-10-31,清算の結了等,,,2016-06-29,1,,,,,カウンズメディカル,0
150,1100001034300,登記記録の閉鎖等,0,2022-11-02,2022-10-24,株式会社エーワイ,,株式会社,長野県,長野市,大字赤沼５０１番地,,20,201,3810001,,,2022-10-24,合併による解散等,9100001033063,令和４年１０月２２日長野市豊野町豊野字沖４６９番地８株式会社ＣＲＥＳＴ（9100001033063）に合併し解散,2021-06-01,1,,,,,エーワイ,0
178,1120902011783,登記記録の閉鎖等,0,2022-11-02,2022-10-31,有限会社ベルウッド,,有限会社,兵庫県,尼崎市,西難波町１丁目１番１－７０１号,,28,202,6600893,,,2022-10-31,清算の結了等,,,2015-10-05,1,,,,,ベルウッド,0
202,1140002009207,登記記録の閉鎖等,0,2022-11-02,2022-10-31,有限会社ベフ印刷,,有限会社,兵庫県,神戸市長田区,御船通４丁目９番地,,28,106,6530832,,,2022-10-31,清算の結了等,,,2015-10-05,1,,,,,ベフインサツ,0
208,1170005001843,登記記録の閉鎖等,0,2022-11-02,2022-11-01,特定非営利活動法人和歌山県木質資源開発機構,,その他の設立登記法人,和歌山県,和歌山市,和佐関戸９０番地の３,,30,201,6496322,,,2022-11-01,清算の結了等,,,2015-10-05,1,,,,,ワカヤマケンモクシツシゲンカイハツキコウ,0
214,1180002075393,登記記録の閉鎖等,0,2022-11-02,2022-10-31,有限会社木村情報設備,,有限会社,愛知県,犬山市,大字羽黒字堂ケ洞２０番地１３３,,23,215,4840894,,,2022-10-31,清算の結了等,,,2015-10-05,1,,,,,キムラジョウホウセツビ,0
215,1180003019151,登記記録の閉鎖等,0,2022-11-02,2022-10-31,合同会社アルファベット,,合同会社,愛知県,長久手市,岩作中脇４番地,,23,238,4801103,,,2022-10-31,清算の結了等,,,2018-07-30,1,,,,,アルファベット,0
249,1250001005682,登記記録の閉鎖等,0,2022-11-02,2022-10-28,下関食糧株式会社,,株式会社,山口県,下関市,東大和町１丁目４番２０号,,35,201,7500066,,,2022-10-28,清算の結了等,,,2015-10-05,1,,,,,,0
252,1260002004501,登記記録の閉鎖等,0,2022-11-02,2022-11-01,有限会社サン電工,,有限会社,岡山県,岡山市南区,福吉町２３番２号,,33,104,7028048,,,2022-11-01,清算の結了等,,,2015-10-05,1,,,,,サンデンコウ,0
253,1260002018856,登記記録の閉鎖等,0,2022-11-02,2022-10-31,有限会社写真のコアラ,,有限会社,岡山県,倉敷市,藤戸町天城７５６番地,,33,202,7100132,,,2022-10-31,清算の結了等,,,2015-10-05,1,,,,,シャシンノコアラ,0
256,1280002002239,登記記録の閉鎖等,0,2022-11-02,2022-11-01,丸正食品有限会社,,有限会社,島根県,松江市,嫁島町１１番２４号,,32,201,6900047,,,2022-11-01,清算の結了等,,,2015-10-05,1,,,,,マルショウショクヒン,0
260,1290002019967,登記記録の閉鎖等,0,2022-11-02,2022-10-31,有限会社ビアンコ,,有限会社,福岡県,飯塚市,太郎丸４８５番地４,,40,205,8200076,,,2022-10-31,清算の結了等,,,2015-10-05,1,,,,,ビアンコ,0
310,1490001002375,登記記録の閉鎖等,0,2022-11-02,2022-10-26,フリーダム株式会社,,株式会社,高知県,高知市,上町２丁目１０番２３号,,39,201,7800901,,,2022-10-26,清算の結了等,,,2015-10-05,1,,,,,フリーダム,0
339,2010401130715,登記記録の閉鎖等,0,2022-11-02,2022-10-03,アヴィバソフトウェア株式会社,,株式会社,東京都,港区,芝浦２丁目１５番６号オアーゼ芝浦ＭＪビル,,13,103,1080023,,,2022-10-03,合併による解散等,7020001034501,令和４年１０月１日東京都港区芝浦二丁目１５番６号オアーゼ芝浦ＭＪビルアヴィバ株式会社（7020001034501）に合併し解散,2017-04-17,1,,,,,アヴィバソフトウェア,0
353,2010802014327,登記記録の閉鎖等,0,2022-11-02,2022-10-25,有限会社夢宇,,有限会社,東京都,大田区,久が原６丁目７番１５号,,13,111,1460085,,,2022-10-25,清算の結了等,,,2015-10-05,1,,,,,ムウ,0
377,2011105006689,登記記録の閉鎖等,0,2022-11-02,2022-10-28,一般財団法人日本健保事務協会,,その他の設立登記法人,東京都,杉並区,成田東４丁目３８番１７号,,13,115,1660015,,,2022-10-28,清算の結了等,,,2015-10-05,1,,,,,ニホンケンポジムキョウカイ,0
385,2011502005756,登記記録の閉鎖等,0,2022-11-02,2022-10-26,有限会社水川歯槽膿漏,,有限会社,埼玉県,さいたま市緑区,太田窪３丁目１１番１１－１０２号,,11,109,3360936,,,2022-10-26,清算の結了等,,,2015-10-05,1,,,,,ミズカワシソウノウロウ,0
388,2011601024327,登記記録の閉鎖等,0,2022-11-02,2022-10-28,株式会社ｊカンパニー,,株式会社,東京都,練馬区,大泉学園町２丁目１番１８－１０４号,,13,120,1780061,,,2022-10-28,清算の結了等,,,2020-07-07,1,,,,,ジェーカンパニー,0
400,2011802007956,登記記録の閉鎖等,0,2022-11-02,2022-10-31,有限会社矢島屋,,有限会社,東京都,葛飾区,奥戸２丁目３３番１７号,,13,122,1240022,,,2022-10-31,清算の結了等,,,2015-10-05,1,,,,,,0
409,2020001090202,登記記録の閉鎖等,0,2022-11-02,2022-10-17,関東宝樹運輸株式会社,,株式会社,神奈川県,川崎市川崎区,田辺新田６５番１,,14,131,2100856,,,2022-10-17,合併による解散等,2030001032748,令和４年１０月１日埼玉県加須市鴻茎１２番地９トーウントラフィック株式会社（2030001032748）に合併し解散,2015-10-05,1,,,,,カントウホウジュウンユ,0
412,2020002012642,登記記録の閉鎖等,0,2022-11-02,2022-10-26,有限会社ビートブロスヨコハマ,,有限会社,神奈川県,横浜市泉区,西が岡１丁目１８番地１０,,14,116,2450006,,,2022-10-26,清算の結了等,,,2015-10-05,1,,,,,ビートブロスヨコハマ,0
417,2020002096859,登記記録の閉鎖等,0,2022-11-02,2022-10-27,有限会社光陽テント,,有限会社,神奈川県,川崎市川崎区,殿町２丁目６番３号,,14,131,2100821,,,2022-10-27,清算の結了等,,,2015-10-05,1,,,,,コウヨウテント,0
421,2021002030469,登記記録の閉鎖等,0,2022-11-02,2022-10-28,有限会社會田石材店,,有限会社,神奈川県,厚木市,東町８番４号,,14,212,2430001,,,2022-10-28,清算の結了等,,,2015-10-05,1,,,,,アイダセキザイテン,0
434,2030002065508,登記記録の閉鎖等,0,2022-11-02,2022-10-25,有限会社ツノダ,,有限会社,埼玉県,新座市,野火止５丁目２９番１５号,,11,230,3520011,,,2022-10-25,清算の結了等,,,2015-10-05,1,,,,,ツノダ,0
439,2040002008424,登記記録の閉鎖等,0,2022-11-02,2022-10-27,有限会社鳥海不動産,,有限会社,千葉県,千葉市稲毛区,小仲台６丁目１９番２１号,,12,103,2630043,,,2022-10-27,清算の結了等,,,2015-10-05,1,,,,,,0
442,2040002077626,登記記録の閉鎖等,0,2022-11-02,2022-10-26,有限会社中つた,,有限会社,千葉県,東金市,東金１２０８番地,,12,213,2830802,,,2022-10-26,清算の結了等,,,2015-10-05,1,,,,,ナカツタ,0
468,2080401018838,登記記録の閉鎖等,0,2022-11-02,2022-10-31,株式会社フルール・ド・アン,,株式会社,静岡県,浜松市東区,和田町４２６番地の１,,22,132,4350016,,,2022-10-31,清算の結了等,,,2015-10-05,1,,,,,フルールドアン,0
479,2120001076505,登記記録の閉鎖等,0,2022-11-02,2022-10-31,株式会社奥村,,株式会社,大阪府,大阪市中央区,（大阪市南区上汐二丁目５番１４号）,,27,128,5390000,,,2022-10-31,清算の結了等,,,2015-10-05,1,,,,,オクムラ,1
490,2120001238807,登記記録の閉鎖等,0,2022-11-02,2022-10-28,株式会社Ｎｅｃｅ,,株式会社,大阪府,大阪市北区,梅田２丁目２－２ヒルトンプラザウエスト１９階,,27,127,5300001,,,2022-10-28,清算の結了等,,,2021-07-07,1,,,,,ニース,0
509,2130001009315,登記記録の閉鎖等,0,2022-11-02,2022-10-27,山陽興業株式会社,,株式会社,京都府,京都市東山区,東大路渋谷下る妙法院前側町４３１番地,,26,105,6050932,,,2022-10-27,清算の結了等,,,2015-10-05,1,,,,,サンヨウコウギョウ,0
516,2130003004025,登記記録の閉鎖等,0,2022-11-02,2022-10-28,合同会社ＡＴ企画,,合同会社,京都府,京都市右京区,西院東貝川町３１番地,,26,108,6150057,,,2022-10-28,清算の結了等,,,2015-10-05,1,,,,,エーティーキカク,0
535,2180001091721,登記記録の閉鎖等,0,2022-11-02,2022-10-31,株式会社佐五銀,,株式会社,愛知県,半田市,乙川吉野町７７番地,,23,205,4750058,,,2022-10-31,清算の結了等,,,2015-10-05,1,,,,,サゴギン,0
537,2180001098171,登記記録の閉鎖等,0,2022-11-02,2022-10-27,株式会社ニツサン,,株式会社,愛知県,海部郡大治町,大字花常字東江端３番地の１,,23,424,4901136,,,2022-10-27,清算の結了等,,,2015-10-05,1,,,,,ニツサン,0
551,2180303005370,登記記録の閉鎖等,0,2022-11-02,2022-10-27,田中合同会社,,合同会社,愛知県,岡崎市,東明大寺町８番地１竜美丘ハウスＡ－４,,23,202,4440863,,,2022-10-27,清算の結了等,,,2022-06-24,1,,,,,タナカ,0
555,2200001004333,登記記録の閉鎖等,0,2022-11-02,2022-11-01,美誠電工株式会社,,株式会社,岐阜県,岐阜市,大洞桐が丘３丁目９３番地,,21,201,5013121,,,2022-11-01,清算の結了等,,,2015-10-05,1,,,,,ビセイデンコウ,0
556,2200001017087,登記記録の閉鎖等,0,2022-11-02,2022-11-01,株式会社オオワキ,,株式会社,岐阜県,美濃加茂市,前平町１丁目７７番地,,21,211,5050037,,,2022-11-01,清算の結了等,,,2015-10-05,1,,,,,オオワキ,0
567,2230001000486,登記記録の閉鎖等,0,2022-11-02,2022-11-01,大高商事株式会社,,株式会社,富山県,富山市,新庄北町３０番５号,,16,201,9300997,,,2022-11-01,清算の結了等,,,2015-10-05,1,,,,,オオタカショウジ,0
578,2260001022164,登記記録の閉鎖等,0,2022-11-02,2022-11-01,氏家建設株式会社,,株式会社,岡山県,玉野市,日比２丁目２番７号,,33,204,7060027,,,2022-11-01,清算の結了等,,,2015-10-05,1,,,,,ウジイエケンセツ,0
590,2290001022120,登記記録の閉鎖等,0,2022-11-02,2022-10-31,株式会社九州三星,,株式会社,福岡県,福岡市中央区,天神４丁目１番１８号,,40,133,8100001,,,2022-10-31,清算の結了等,,,2015-10-05,1,,,,,キュウシュウミツボシ,0
609,2330001010186,登記記録の閉鎖等,0,2022-11-02,2022-10-31,株式会社ユウビジネス,,株式会社,熊本県,熊本市中央区,南坪井町５－２７－１ロマージュ上通並木坂１Ｆ,,43,101,8600848,,,2022-10-31,清算の結了等,,,2015-10-05,1,,,,,ユウビジネス,0
612,2340001007594,登記記録の閉鎖等,0,2022-11-02,2022-10-31,黒木建設株式会社,,株式会社,鹿児島県,霧島市,牧園町上中津川１５６９番地９,,46,218,8996504,,,2022-10-31,清算の結了等,,,2015-10-05,1,,,,,クロキケンセツ,0
619,2360003000265,登記記録の閉鎖等,0,2022-11-02,2022-10-26,合資会社大敬アパート,,合資会社,沖縄県,那覇市,与儀１丁目１９番７号,,47,201,9020076,,,2022-10-26,清算の結了等,,,2015-10-05,1,,,,,オオケイアパート,0
624,2370002019009,登記記録の閉鎖等,0,2022-11-02,2022-10-26,有限会社ワンエイティ,,有限会社,宮城県,仙台市太白区,青山２丁目２０番１９号,,04,104,9820834,,,2022-10-26,清算の結了等,,,2015-10-05,1,,,,,ワンエイティ,0
630,2390001000875,登記記録の閉鎖等,0,2022-11-02,2022-10-31,株式会社シブヤ,,株式会社,山形県,山形市,北田６９番地,,06,201,9900896,,,2022-10-31,清算の結了等,,,2015-10-05,1,,,,,,0
632,2390003000361,登記記録の閉鎖等,0,2022-11-02,2022-10-31,株式会社はねまん,,株式会社,山形県,山形市,小立３丁目１３番２２号２Ｆ,,06,201,9902402,,,2022-10-31,清算の結了等,,,2015-10-05,1,,,,,ハネマン,0
635,2410005005042,登記記録の閉鎖等,0,2022-11-02,2022-10-12,天理教朝倉郷分教会,,その他の設立登記法人,秋田県,横手市,睦成字吉沢上台１１９番地,,05,203,0130008,,,2022-10-12,合併による解散等,3410005004290,令和４年１０月１２日秋田県仙北郡美郷町六郷字宝門清水５８番地天理教六郷分教会（3410005004290）に合併し解散,2015-10-05,1,,,,,,0
674,3010401141884,登記記録の閉鎖等,0,2022-11-02,2022-10-18,トライレーヴ株式会社,,株式会社,東京都,港区,北青山２丁目７番１３号,,13,103,1070061,,,2022-10-18,清算の結了等,,,2018-11-07,1,,,,,トライレーヴ,0
690,3010901021867,登記記録の閉鎖等,0,2022-11-02,2022-10-31,株式会社育伸,,株式会社,東京都,世田谷区,玉川３丁目２０番２－５０１号,,13,112,1580094,,,2022-10-31,清算の結了等,,,2015-10-05,1,,,,,イクシン,0
698,3011001108902,登記記録の閉鎖等,0,2022-11-02,2022-10-31,株式会社ＢｅａｕｔｙＳｐａｃｅＧｌｏｂａｌ,,株式会社,東京都,渋谷区,東３丁目１２番１２号,,13,113,1500011,,,2022-10-31,合併による解散等,2120001120980,令和４年１０月１日大阪市中央区南本町二丁目２番９号株式会社ジオベック（2120001120980）に合併し解散,2016-01-06,1,,,,,,0
718,3011601006596,登記記録の閉鎖等,0,2022-11-02,2022-10-28,株式会社まんだら社,,株式会社,東京都,練馬区,豊玉中３丁目１９番２号,,13,120,1760013,,,2022-10-28,清算の結了等,,,2015-10-05,1,,,,,,0
754,3040001094563,登記記録の閉鎖等,0,2022-11-02,2022-10-26,株式会社エスピーエー,,株式会社,千葉県,袖ケ浦市,奈良輪７９２番地４,,12,229,2990263,,,2022-10-26,清算の結了等,,,2016-03-23,1,,,,,エスピーエー,0
756,3040002069498,登記記録の閉鎖等,0,2022-11-02,2022-10-26,有限会社アイエム,,有限会社,千葉県,君津市,人見２丁目４番１３号,,12,225,2991147,,,2022-10-26,清算の結了等,,,2015-10-05,1,,,,,アイエム,0
757,3040002076049,登記記録の閉鎖等,0,2022-11-02,2022-10-26,千代田印刷有限会社,,有限会社,千葉県,市原市,玉前１３２２番地,,12,219,2900041,,,2022-10-26,清算の結了等,,,2015-10-05,1,,,,,チヨダインサツ,0
763,3060002012266,登記記録の閉鎖等,0,2022-11-02,2022-10-27,有限会社吉成商会,,有限会社,栃木県,さくら市,氏家２７１２番地,,09,214,3291311,,,2022-10-27,清算の結了等,,,2015-10-05,1,,,,,ヨシナリショウカイ,0
769,3070005003955,登記記録の閉鎖等,0,2022-11-02,2022-09-29,八王子神社,,その他の設立登記法人,群馬県,藤岡市,上日野９５２番地,,10,209,3750047,,,2022-09-29,合併による解散等,2070005003840,令和４年９月２９日群馬県藤岡市上日野１８１６番地鹿島神社（2070005003840）に合併し解散,2015-10-05,1,,,,,ハチオウジジンジャ,0
771,3080102021909,登記記録の閉鎖等,0,2022-11-02,2022-10-21,有限会社伊豆スチロール,,有限会社,静岡県,下田市,六丁目１３番１９号,,22,219,4150026,,,2022-10-21,清算の結了等,,,2015-10-05,1,,,,,イズスチロール,0
824,3130003004024,登記記録の閉鎖等,0,2022-11-02,2022-10-28,合同会社ＡＹ企画,,合同会社,京都府,京都市右京区,西院東貝川町３１番地,,26,108,6150057,,,2022-10-28,清算の結了等,,,2015-10-05,1,,,,,エーワイキカク,0
842,3170002007239,登記記録の閉鎖等,0,2022-11-02,2022-10-31,有限会社平成工業,,有限会社,和歌山県,有田市,港町８４２番地１,,30,204,6490305,,,2022-10-31,清算の結了等,,,2015-10-05,1,,,,,ヘイセイコウギョウ,0
844,3180001090623,登記記録の閉鎖等,0,2022-11-02,2022-10-07,株式会社あんしん不動産,,株式会社,愛知県,名古屋市中区,栄５丁目１９番３１号Ｔ＆Ｍビル３Ｆ,,23,106,4600008,,,2022-10-07,清算の結了等,,,2015-10-05,1,,,,,アンシンフドウサン,0
866,3230002013172,登記記録の閉鎖等,0,2022-11-02,2022-10-31,有限会社村松屋,,有限会社,富山県,氷見市,比美町３番１３号,,16,205,9350012,,,2022-10-31,清算の結了等,,,2015-10-05,1,,,,,ムラマツヤ,0
875,3250002004459,登記記録の閉鎖等,0,2022-11-02,2022-10-27,有限会社かきまる,,有限会社,山口県,宇部市,中央町２丁目８番２号,,35,202,7550045,,,2022-10-27,清算の結了等,,,2015-10-05,1,,,,,カキマル,0
876,3260002014077,登記記録の閉鎖等,0,2022-11-02,2022-10-28,有限会社有森建創,,有限会社,岡山県,岡山市北区,津高６９９番地,,33,101,7011152,,,2022-10-28,清算の結了等,,,2015-10-05,1,,,,,アリモリケンソウ,0
881,3270002010835,登記記録の閉鎖等,0,2022-11-02,2022-10-28,有限会社ファミリーマートコハラ,,有限会社,鳥取県,東伯郡湯梨浜町,大字門田９５番地１,,31,370,6890736,,,2022-10-28,清算の結了等,,,2015-10-05,1,,,,,ファミリーマートコハラ,0
883,3290001003763,登記記録の閉鎖等,0,2022-11-02,2022-10-31,博多計器株式会社,,株式会社,福岡県,福岡市東区,二又瀬２０番１８号,,40,131,8120066,,,2022-10-31,清算の結了等,,,2015-10-05,1,,,,,ハカタケイキ,0
919,3380002026688,登記記録の閉鎖等,0,2022-11-02,2022-10-28,有限会社吉田長兵衛商店,,有限会社,福島県,いわき市,中之作字入６３番地,,07,204,9700313,,,2022-10-28,清算の結了等,,,2015-10-05,1,,,,,ヨシダチョウベイショウテン,0
928,3430001020430,登記記録の閉鎖等,0,2022-11-02,2022-10-19,株式会社ＳＡＩＡＳ,,株式会社,北海道,札幌市中央区,南一条西１１丁目３２７番地８,,01,101,0600061,,,2022-10-19,清算の結了等,,,2015-10-05,1,,,,,サイアス,0
939,3460402000508,登記記録の閉鎖等,0,2022-11-02,2022-10-31,有限会社マルマサフーズ,,有限会社,北海道,根室市,宝林町４丁目５１番地５７,,01,223,0870024,,,2022-10-31,清算の結了等,,,2015-10-05,1,,,,,マルマサフーズ,0
943,3470002002647,登記記録の閉鎖等,0,2022-11-02,2022-10-31,広栄設備有限会社,,有限会社,香川県,高松市,瀬戸内町４７番１５号,,37,201,7600012,,,2022-10-31,清算の結了等,,,2015-10-05,1,,,,,コウエイセツビ,0
952,3500003002114,登記記録の閉鎖等,0,2022-11-02,2022-10-31,合同会社Ｆｅｅｌ　Ｓｏ　Ｎｉｃｅ,,合同会社,愛媛県,今治市,八町西４丁目３番２７号,,38,202,7940832,,,2022-10-31,清算の結了等,,,2018-07-06,1,,,,,フィールソーナイス,0
964,4010001210254,登記記録の閉鎖等,0,2022-11-02,2022-10-27,株式会社ＭＡＤＯＲＩＧＡＬ,,株式会社,東京都,中央区,銀座１丁目６番６号ＡＲＲＯＷＳＢ１階,,13,102,1040061,,,2022-10-27,清算の結了等,,,2020-06-11,1,,,,,マドリガル,0
968,4010003030849,登記記録の閉鎖等,0,2022-11-02,2022-10-28,合同会社ＡＬＥＲＯ４４,,合同会社,東京都,千代田区,神田錦町１丁目２１番１号,,13,101,1010054,,,2022-10-28,清算の結了等,,,2019-10-09,1,,,,,アレーロフォーティーフォー,0
977,4010401082723,登記記録の閉鎖等,0,2022-11-02,2022-10-28,株式会社公共ファイナンス研究所,,株式会社,東京都,品川区,上大崎３丁目１番１号,,13,109,1410021,,,2022-10-28,清算の結了等,,,2015-10-05,1,,,,,コウキョウファイナンスケンキュウジョ,0
983,4010403024616,登記記録の閉鎖等,0,2022-11-02,2022-10-14,Ｋｙａｔｔ合同会社,,合同会社,東京都,港区,南青山２丁目２番１５号,,13,103,1070062,,,2022-10-14,清算の結了等,,,2021-02-08,1,,,,,キャット,0
987,4010601033063,登記記録の閉鎖等,0,2022-11-02,2022-10-31,株式会社ＪＯＫＥＲＳ,,株式会社,東京都,江東区,枝川３丁目９番１０－５３７号,,13,108,1350051,,,2022-10-31,清算の結了等,,,2015-10-05,1,,,,,ジョーカーズ,0
1000,4010902006222,登記記録の閉鎖等,0,2022-11-02,2022-10-31,有限会社サイクルセンターキョーエイ,,有限会社,東京都,世田谷区,世田谷１丁目４８番１１号,,13,112,1540017,,,2022-10-31,清算の結了等,,,2015-10-05,1,,,,,サイクルセンターキョーエイ,0
1031,4012301008493,登記記録の閉鎖等,0,2022-11-02,2022-10-31,株式会社フラットウェルインテリアワークス,,株式会社,東京都,町田市,南町田２丁目７番１－８１６号,,13,209,1940005,,,2022-10-31,清算の結了等,,,2015-10-05,1,,,,,,0
1045,4020001026559,登記記録の閉鎖等,0,2022-11-02,2022-10-28,崔測量設計株式会社,,株式会社,神奈川県,横浜市中区,長者町４丁目９番８号,,14,104,2310033,,,2022-10-28,清算の結了等,,,2015-10-05,1,,,,,サイソクリョウセッケイ,0
1052,4020001090225,登記記録の閉鎖等,0,2022-11-02,2022-10-28,株式会社ＹＪキャピタルマネジメント,,株式会社,神奈川県,横浜市泉区,緑園４丁目２番地の１サンステージ緑園都市３番館７０２号,,14,116,2450002,,,2022-10-28,清算の結了等,,,2015-10-05,1,,,,,ワイジェイキャピタルマネジメント,0
1081,4040002062403,登記記録の閉鎖等,0,2022-11-02,2022-10-26,有限会社手羽矢,,有限会社,千葉県,四街道市,大日２３６番地の５,,12,228,2840001,,,2022-10-26,清算の結了等,,,2015-10-05,1,,,,,,0
1084,4040005019631,登記記録の閉鎖等,0,2022-11-02,2022-10-27,ＮＰＯ法人千葉がん基金,,その他の設立登記法人,千葉県,八千代市,高津３９０番地２４７,,12,221,2760036,,,2022-10-27,清算の結了等,,,2017-08-09,1,,,,,チバガンキキン,0
1088,4060001029228,登記記録の閉鎖等,0,2022-11-02,2022-10-27,株式会社エムエスティ,,株式会社,栃木県,宇都宮市,問屋町３４２６番地４６,,09,201,3210911,,,2022-10-27,清算の結了等,,,2017-03-31,1,,,,,エムエスティ,0
1094,4080001001069,登記記録の閉鎖等,0,2022-11-02,2022-11-01,株式会社カネセイ製茶,,株式会社,静岡県,静岡市駿河区,向敷地１２０１番地,,22,102,4210101,,,2022-11-01,合併による解散等,2080001000956,令和４年１１月１日静岡市駿河区向敷地１１９８番地の１株式会社小柳津清一商店（2080001000956）に合併し解散,2015-10-05,1,,,,,カネセイセイチャ,0
1118,4120001215705,登記記録の閉鎖等,0,2022-11-02,2022-10-31,株式会社エフファクトリー,,株式会社,大阪府,寝屋川市,池田３丁目８番９号,,27,215,5720039,,,2022-10-31,清算の結了等,,,2018-09-07,1,,,,,エフファクトリー,0
1130,4120102000270,登記記録の閉鎖等,0,2022-11-02,2022-10-31,有限会社アドバンストデータテクノロジーズ,,有限会社,大阪府,堺市東区,北野田３４番地,,27,143,5998123,,,2022-10-31,清算の結了等,,,2015-10-05,1,,,,,アドバンストデータテクノロジーズ,0
1135,4120902001798,登記記録の閉鎖等,0,2022-11-02,2022-11-01,有限会社リブレ三光,,有限会社,大阪府,茨木市,稲葉町１３番１４号,,27,211,5670827,,,2022-11-01,清算の結了等,,,2015-10-05,1,,,,,リブレサンコウ,0
1196,4220002016596,登記記録の閉鎖等,0,2022-11-02,2022-10-31,有限会社すぎ工業,,有限会社,石川県,河北郡津幡町,字加賀爪ワ６１番地,,17,361,9290325,,,2022-10-31,清算の結了等,,,2015-10-05,1,,,,,スギコウギョウ,0
1206,4240002011513,登記記録の閉鎖等,0,2022-11-02,2022-11-01,有限会社鳥越経営センター,,有限会社,広島県,広島市東区,中山上２丁目２３番１３号,,34,102,7320027,,,2022-11-01,清算の結了等,,,2015-10-05,1,,,,,トリゴエケイエイセンター,0
1208,4240002021017,登記記録の閉鎖等,0,2022-11-02,2022-10-31,有限会社セカンドシーン,,有限会社,広島県,広島市中区,紙屋町２丁目３－２３アークビル３Ｆ,,34,101,7300031,,,2022-10-31,清算の結了等,,,2015-10-05,1,,,,,セカンドシーン,0
1219,4280001007855,登記記録の閉鎖等,0,2022-11-02,2022-11-01,株式会社グラスマイル,,株式会社,島根県,出雲市,上塩冶町２６６４番地３,,32,203,6930022,,,2022-11-01,合併による解散等,5280001007854,令和４年１１月１日島根県出雲市今市町南本町１９番地３株式会社リレーションシップ（5280001007854）に合併し解散,2018-11-20,1,,,,,グラスマイル,0
1220,4290001006740,登記記録の閉鎖等,0,2022-11-02,2022-10-28,おもだか商事株式会社,,株式会社,福岡県,福岡市中央区,荒津１丁目１番７号,,40,133,8100076,,,2022-10-28,清算の結了等,,,2015-10-05,1,,,,,オモダカショウジ,0
1266,4390002015986,登記記録の閉鎖等,0,2022-11-02,2022-10-31,有限会社ベルモード,,有限会社,山形県,西村山郡河北町,谷地戊１８番地の１,,06,321,9993511,,,2022-10-31,清算の結了等,,,2015-10-05,1,,,,,,0
1272,4420005003200,登記記録の閉鎖等,0,2022-11-02,2022-10-07,天理教岳陸分教会,,その他の設立登記法人,青森県,三戸郡五戸町,字天満２番地３,,02,442,0391519,,,2022-10-07,合併による解散等,2420005003202,令和４年１０月７日青森県三戸郡五戸町字蛯川村３４番地３号天理教東五戸分教会（2420005003202）に合併し解散,2015-10-05,1,,,,,テンリキョウガクリクブンキョウカイ,0
1290,5010001213875,登記記録の閉鎖等,0,2022-11-02,2022-10-28,ＳＥＮＳＥ株式会社,,株式会社,東京都,中央区,日本橋堀留町１丁目３番１１号,,13,102,1030012,,,2022-10-28,清算の結了等,,,2020-11-24,1,,,,,センス,0
1291,5010001219988,登記記録の閉鎖等,0,2022-11-02,2022-10-18,エナジーウィズ株式会社,,株式会社,東京都,千代田区,神田練塀町３番地,,13,101,1010022,,,2022-10-18,合併による解散等,8010401159708,令和４年１０月１日東京都港区虎ノ門四丁目１番２８号虎ノ門タワーズオフィス１７階サステナブル・バッテリー・ソリューションズ株式会社（8010401159708）に合併し解散,2021-07-29,1,,,,,エナジーウイズ,0
1293,5010002052926,登記記録の閉鎖等,0,2022-11-02,2022-10-28,有限会社ＺＥＲＯ,,有限会社,東京都,中央区,日本橋浜町２丁目４２番８－２０１号,,13,102,1030007,,,2022-10-28,清算の結了等,,,2015-10-05,1,,,,,ゼロ,0
1295,5010003032571,登記記録の閉鎖等,0,2022-11-02,2022-10-28,リニューアブルインフラ２号合同会社,,合同会社,東京都,千代田区,九段南３丁目７番７号成和綜合会計事務所内,,13,101,1020074,,,2022-10-28,清算の結了等,,,2020-07-17,1,,,,,リニューアブルインフラニゴウ,0
1328,5011601006421,登記記録の閉鎖等,0,2022-11-02,2022-10-27,丸平木材株式会社,,株式会社,東京都,練馬区,高松１丁目３８番１７号,,13,120,1790075,,,2022-10-27,清算の結了等,,,2022-10-13,1,,,,,マルヘイモクザイ,0
1329,5011601018680,登記記録の閉鎖等,0,2022-11-02,2022-10-28,株式会社キャラメルアート,,株式会社,東京都,中央区,東日本橋２丁目２８番４号日本橋ＣＥＴビル２階,,13,102,1030004,,,2022-10-28,清算の結了等,,,2015-10-05,1,,,,,,0
1358,5030002053617,登記記録の閉鎖等,0,2022-11-02,2022-10-27,有限会社栗林製作所,,有限会社,埼玉県,上尾市,大字領家１４番地の２,,11,219,3620066,,,2022-10-27,清算の結了等,,,2015-10-05,1,,,,,クリバヤシセイサクジョ,0
1383,5070001001234,登記記録の閉鎖等,0,2022-11-02,2022-10-20,株式会社近藤,,株式会社,群馬県,前橋市,端気町３８０番地の１,,10,201,3710133,,,2022-10-20,清算の結了等,,,2015-10-05,1,,,,,コンドウ,0
1386,5070005003838,登記記録の閉鎖等,0,2022-11-02,2022-09-29,春日神社,,その他の設立登記法人,群馬県,藤岡市,上日野１１９番地,,10,209,3750047,,,2022-09-29,合併による解散等,2070005003840,令和４年９月２９日群馬県藤岡市上日野１８１６番地鹿島神社（2070005003840）に合併し解散,2015-10-05,1,,,,,カスガジンジャ,0
1392,5080102006940,登記記録の閉鎖等,0,2022-11-02,2022-10-31,有限会社御殿場カメヤ,,有限会社,静岡県,御殿場市,新橋７４０番地の１,,22,215,4120043,,,2022-10-31,合併による解散等,6080101005471,令和４年１０月３１日静岡県駿東郡清水町新宿８１５番地の２カメヤ食品株式会社（6080101005471）に合併し解散,2015-10-05,1,,,,,ゴテンバカメヤ,0
1397,5090001017716,登記記録の閉鎖等,0,2022-11-02,2022-10-19,興和商事株式会社,,株式会社,山梨県,富士吉田市,下吉田１０１９番地,,19,202,4030004,,,2022-10-19,清算の結了等,,,2022-08-09,1,,,,,,0
1399,5090002010744,登記記録の閉鎖等,0,2022-11-02,2022-10-28,有限会社小宮山商事,,有限会社,山梨県,山梨市,北９４５番地３,,19,205,4050041,,,2022-10-28,清算の結了等,,,2015-10-05,1,,,,,コミヤマショウジ,0
1405,5120001036415,登記記録の閉鎖等,0,2022-11-02,2022-10-31,株式会社前田哲男商店,,株式会社,大阪府,大阪市福島区,野田１丁目１番８６号大阪市中央卸売市場内,,27,103,5530005,,,2022-10-31,清算の結了等,,,2015-10-05,1,,,,,,0
1406,5120001087862,登記記録の閉鎖等,0,2022-11-02,2022-11-01,ビックモア株式会社,,株式会社,大阪府,大阪市平野区,瓜破西１丁目８番２６号,,27,126,5470025,,,2022-11-01,合併による解散等,2120001037572,令和４年１１月１日大阪市浪速区桜川二丁目２番３１号株式会社ザクロコーポレーション（2120001037572）に合併し解散,2015-10-05,1,,,,,ビックモア,0
1408,5120001089165,登記記録の閉鎖等,0,2022-11-02,2022-10-31,株式会社ヘルスネット,,株式会社,大阪府,大阪市西区,立売堀１丁目４番９号,,27,106,5500012,,,2022-10-31,清算の結了等,,,2015-10-05,1,,,,,,0
1411,5120001150785,登記記録の閉鎖等,0,2022-11-02,2022-10-31,武東工業株式会社,,株式会社,大阪府,枚方市,船橋本町１丁目７５１番地の１,,27,210,5731116,,,2022-10-31,清算の結了等,,,2015-10-05,1,,,,,,0
1412,5120001155594,登記記録の閉鎖等,0,2022-11-02,2022-10-31,協栄整送機株式会社,,株式会社,大阪府,守口市,大日町３丁目３８番７号,,27,209,5700003,,,2022-10-31,清算の結了等,,,2015-10-05,1,,,,,キョウエイセイソウキ,0
1420,5120002019856,登記記録の閉鎖等,0,2022-11-02,2022-11-01,有限会社小林商事,,有限会社,大阪府,大阪市浪速区,塩草３丁目３番１７号,,27,111,5560024,,,2022-11-01,合併による解散等,1120001038167,令和４年１１月１日大阪市浪速区塩草三丁目３番１７号株式会社小林木村家（1120001038167）に合併し解散,2015-10-05,1,,,,,コバヤシショウジ,0
1429,5122001031387,登記記録の閉鎖等,0,2022-11-02,2022-10-31,株式会社萬屋,,株式会社,大阪府,東大阪市,花園西町２丁目７番４号,,27,227,5780936,,,2022-10-31,清算の結了等,,,2018-03-05,1,,,,,ヨロズヤ,0
1442,5140001053160,登記記録の閉鎖等,0,2022-11-02,2022-10-31,泰平産業株式会社,,株式会社,兵庫県,尼崎市,南武庫之荘２丁目１３番６号,,28,202,6610033,,,2022-10-31,清算の結了等,,,2015-10-05,1,,,,,,0
1451,5140005001165,登記記録の閉鎖等,0,2022-11-02,2022-10-17,天理教神種分教会,,その他の設立登記法人,兵庫県,神戸市須磨区,東白川台３丁目１１番地６,,28,107,6540102,,,2022-10-17,合併による解散等,4140005014804,令和４年１０月１７日兵庫県神崎郡市川町西川辺８５８番地の１天理教神川大教会（4140005014804）に合併し解散,2015-10-05,1,,,,,テンリキョウジンジュブンキョウカイ,0
1459,5180001015999,登記記録の閉鎖等,0,2022-11-02,2022-10-28,株式会社アツタ商会,,株式会社,愛知県,名古屋市東区,芳野２丁目８番４号,,23,102,4610027,,,2022-10-28,清算の結了等,,,2015-10-05,1,,,,,アツタショウカイ,0
1462,5180001097534,登記記録の閉鎖等,0,2022-11-02,2022-10-28,セントラルウッド株式会社,,株式会社,愛知県,海部郡飛島村,木場１丁目１７番地,,23,427,4901444,,,2022-10-28,清算の結了等,,,2015-10-05,1,,,,,セントラルウッド,0
1467,5180002022623,登記記録の閉鎖等,0,2022-11-02,2022-10-28,有限会社アシハラ工業,,有限会社,愛知県,名古屋市西区,あし原町１８７番地,,23,104,4520823,,,2022-10-28,清算の結了等,,,2015-10-05,1,,,,,アシハラコウギョウ,0
1471,5180002064054,登記記録の閉鎖等,0,2022-11-02,2022-10-28,有限会社シャルレ里生,,有限会社,愛知県,豊明市,新田町門先７番地の８,,23,229,4701112,,,2022-10-28,清算の結了等,,,2015-10-05,1,,,,,シャルレリオ,0
1479,5180302015657,登記記録の閉鎖等,0,2022-11-02,2022-10-27,有限会社武生,,有限会社,愛知県,蒲郡市,府相町１丁目１４０番地,,23,214,4430054,,,2022-10-27,清算の結了等,,,2015-10-05,1,,,,,タケセイ,0
1486,5200001022241,登記記録の閉鎖等,0,2022-11-02,2022-11-01,株式会社エイチ・アイ・エス　どこでもドア,,株式会社,岐阜県,多治見市,音羽町１丁目６番地の２,,21,204,5070037,,,2022-11-01,清算の結了等,,,2015-10-05,1,,,,,エイチアイエスドコデモドア,0
1510,5290001010213,登記記録の閉鎖等,0,2022-11-02,2022-10-28,株式会社プシュケ,,株式会社,福岡県,福岡市中央区,赤坂１丁目１０番７号,,40,133,8100042,,,2022-10-28,清算の結了等,,,2015-10-05,1,,,,,プシュケ,0
1570,6010001119725,登記記録の閉鎖等,0,2022-11-02,2022-10-26,株式会社ベアーレイドエンターテインメント,,株式会社,東京都,中央区,日本橋２丁目１番１７号丹生ビル２階,,13,102,1030027,,,2022-10-26,清算の結了等,,,2015-10-05,1,,,,,ベアーレイドエンターテインメント,0
1605,6011101039961,登記記録の閉鎖等,0,2022-11-02,2022-11-01,株式会社ＤＩＤ,,株式会社,東京都,新宿区,西新宿４丁目３２番４号,,13,104,1600023,,,2022-11-01,清算の結了等,,,2015-10-05,1,,,,,,0
1612,6011801003291,登記記録の閉鎖等,0,2022-11-02,2022-10-31,東海食品株式会社,,株式会社,東京都,葛飾区,奥戸３丁目２１番２号,,13,122,1240022,,,2022-10-31,清算の結了等,,,2015-10-05,1,,,,,トウカイショクヒン,0
1614,6011803002688,登記記録の閉鎖等,0,2022-11-02,2022-10-28,光頼ホールディングス合同会社,00108581,合同会社,東京都,足立区,西新井栄町２丁目２０番８号,,13,121,1230843,,,2022-10-28,清算の結了等,,,2016-12-02,1,,,,,ミツヨリホールディングス,0
1617,6012301011132,登記記録の閉鎖等,0,2022-11-02,2022-10-31,株式会社藤建ｐｒｏｊｅｃｔ,,株式会社,東京都,町田市,小山町１２６４番地８,,13,209,1940212,,,2022-10-31,清算の結了等,,,2017-09-19,1,,,,,トウケンプロジェクト,0
1619,6012401009134,登記記録の閉鎖等,0,2022-11-02,2022-10-31,株式会社創美学苑,,株式会社,東京都,世田谷区,玉川１丁目１５番３－２８０５号,,13,112,1580094,,,2022-10-31,清算の結了等,,,2015-10-05,1,,,,,ソウビガクエン,0
1623,6013201004622,登記記録の閉鎖等,0,2022-11-02,2022-10-24,株式会社ハイパーワークス,,株式会社,東京都,目黒区,中目黒３丁目８番１１号,,13,110,1530061,,,2022-10-24,清算の結了等,,,2015-10-05,1,,,,,ハイパーワークス,0
1631,6020001120863,登記記録の閉鎖等,0,2022-11-02,2022-10-28,英孝工業株式会社,,株式会社,神奈川県,横浜市鶴見区,潮田町１丁目４３番地,,14,101,2300041,,,2022-10-28,清算の結了等,,,2017-04-14,1,,,,,エイコウコウギョウ,0
1677,6080005000032,登記記録の閉鎖等,0,2022-11-02,2022-11-01,下茶農業協同組合,,その他の設立登記法人,静岡県,静岡市葵区,下１６９５番地の１,,22,101,4212108,,,2022-11-01,清算の結了等,,,2015-10-05,1,,,,,シモチャ,0
1690,6110002029946,登記記録の閉鎖等,0,2022-11-02,2022-10-31,有限会社小方商店,,有限会社,新潟県,長岡市,鳥越甲３５８番地,,15,202,9402316,,,2022-10-31,清算の結了等,,,2015-10-05,1,,,,,,0
1703,6120001126108,登記記録の閉鎖等,0,2022-11-02,2022-10-31,株式会社美彩館,,株式会社,大阪府,大阪市住吉区,殿辻２丁目７番２３号３階,00029051,27,120,5580042,,,2022-10-31,清算の結了等,,,2015-10-05,1,,,,,,0
1713,6120002054778,登記記録の閉鎖等,0,2022-11-02,2022-11-01,有限会社マザー介護,,有限会社,大阪府,大阪市西淀川区,野里１丁目２５番５号,,27,113,5550024,,,2022-11-01,清算の結了等,,,2015-10-05,1,,,,,マザーカイゴ,0
1716,6120102023971,登記記録の閉鎖等,0,2022-11-02,2022-10-31,松浪織布有限会社,,有限会社,大阪府,泉佐野市,上瓦屋７４１番地,,27,213,5980001,,,2022-10-31,清算の結了等,,,2015-10-05,1,,,,,マツナミシキフ,0
1741,6150001001530,登記記録の閉鎖等,0,2022-11-02,2022-10-28,株式会社ナビオビル,,株式会社,奈良県,奈良市,西大寺本町１番５号,,29,201,6310816,,,2022-10-28,清算の結了等,,,2015-10-05,1,,,,,ナビオビル,0
1742,6150001017510,登記記録の閉鎖等,0,2022-11-02,2022-10-31,ＭＯコーポレーション株式会社,,株式会社,奈良県,生駒郡斑鳩町,興留４丁目３番１６号,,29,344,6360123,,,2022-10-31,清算の結了等,,,2015-10-05,1,,,,,エムオーコーポレーション,0
1751,6180001053131,登記記録の閉鎖等,0,2022-11-02,2022-10-31,東海グラウト株式会社,,株式会社,愛知県,名古屋市守山区,幸心３丁目７１１番地,,23,113,4630079,,,2022-10-31,清算の結了等,,,2015-10-05,1,,,,,トウカイグラウト,0
1765,6180005015697,登記記録の閉鎖等,0,2022-11-02,2022-10-21,特定非営利活動法人おもいでかえる,,その他の設立登記法人,宮城県,仙台市若林区,六丁の目元町１３番２０号,,04,103,9840014,,,2022-10-21,清算の結了等,,,2015-10-05,1,,,,,,0
1769,6190002014882,登記記録の閉鎖等,0,2022-11-02,2022-11-01,有限会社高岡通信設備,00076026,有限会社,三重県,松阪市,甚目町６０２番地の２０,,24,204,5152108,,,2022-11-01,清算の結了等,,,2015-10-05,1,,,,,タカオカツウシンセツビ,0
1780,6230005008753,登記記録の閉鎖等,0,2022-11-02,2022-10-26,一般社団法人ナントライフ,,その他の設立登記法人,富山県,南砺市,利賀村上百瀬１６５番地,,16,210,9392513,,,2022-10-26,清算の結了等,,,2017-02-02,1,,,,,ナントライフ,0
1796,6290002017669,登記記録の閉鎖等,0,2022-11-02,2022-10-28,有限会社真佐忠興業,,有限会社,福岡県,福岡市中央区,清川１丁目１１番５－８０３号,,40,133,8100005,,,2022-10-28,清算の結了等,,,2015-10-05,1,,,,,マサチュウコウギョウ,0
1832,6360005004491,登記記録の閉鎖等,0,2022-11-02,2022-10-19,特定非営利活動法人あらた,,その他の設立登記法人,沖縄県,宮古島市,平良字下里１２６５番地１４,,47,214,9060013,,,2022-10-19,清算の結了等,,,2015-10-05,1,,,,,アラタ,0
1834,6370001042040,登記記録の閉鎖等,0,2022-11-02,2022-10-26,株式会社萬福,,株式会社,宮城県,仙台市青葉区,一番町１丁目８番２２－６０３,,04,101,9800811,,,2022-10-26,清算の結了等,,,2017-09-08,1,,,,,,0
1842,6390005002237,登記記録の閉鎖等,0,2022-11-02,2022-10-12,天理教羽山分教会,00085128,その他の設立登記法人,山形県,天童市,大字寺津２４４番地,,06,210,9940073,,,2022-10-12,合併による解散等,3390005000342,令和４年１０月１２日山形県山形市本町一丁目２番１６号天理教北山形分教会（3390005000342）に合併し解散,2015-10-05,1,,,,,テンリキョウウヤマブンキョウカイ,0
1859,6470001005268,登記記録の閉鎖等,0,2022-11-02,2022-10-31,とみた食品株式会社,,株式会社,香川県,高松市,香川町大野１１５１番地,,37,201,7611701,,,2022-10-31,清算の結了等,,,2015-10-05,1,,,,,トミタショクヒン,0
1867,6500002010255,登記記録の閉鎖等,0,2022-11-02,2022-11-01,有限会社倖友建設工業,,有限会社,愛媛県,松山市,和泉南４丁目２番１３号,,38,201,7900941,,,2022-11-01,清算の結了等,,,2015-10-05,1,,,,,コウユウケンセツコウギョウ,0
1889,7010901005404,登記記録の閉鎖等,0,2022-11-02,2022-10-31,株式会社自然法則学会,,株式会社,東京都,世田谷区,下馬１丁目２８番７号,,13,112,1540002,,,2022-10-31,清算の結了等,,,2015-10-05,1,,,,,シゼンホウソクガッカイ,0
1892,7010901046563,登記記録の閉鎖等,0,2022-11-02,2022-11-01,株式会社Ｆｏｏｔｓｔｅｐｓ,,株式会社,東京都,世田谷区,経堂４丁目１２番７号経堂サンハイツ２０７,,13,112,1560052,,,2022-11-01,清算の結了等,,,2020-07-08,1,,,,,フットステップ,0
1932,7012401025493,登記記録の閉鎖等,0,2022-11-02,2022-10-28,株式会社イーダッシュ,,株式会社,東京都,武蔵野市,吉祥寺南町２丁目２０番８号Ｂ１Ｆ,,13,203,1800003,,,2022-10-28,合併による解散等,3011301008091,令和４年１０月２８日東京都武蔵野市吉祥寺南町二丁目２０番８号株式会社エム・ティ・エム（3011301008091）に合併し解散,2015-10-05,1,,,,,イーダッシュ,0
1936,7013401004660,登記記録の閉鎖等,0,2022-11-02,2022-10-26,株式会社比留間環境教育研究所,,株式会社,東京都,日野市,大字日野１１４３番地,,13,212,1910012,,,2022-10-26,清算の結了等,,,2015-10-05,1,,,,,ヒルマカンキョウキョウイクケンキュウジョ,0
1947,7020002080899,登記記録の閉鎖等,0,2022-11-02,2022-10-27,有限会社寿屋,,有限会社,神奈川県,川崎市幸区,古川町１１１番地７,,14,132,2120025,,,2022-10-27,清算の結了等,,,2015-10-05,1,,,,,コトブキヤ,0
1949,7020005006570,登記記録の閉鎖等,0,2022-11-02,2022-10-26,特定非営利活動法人日本ヘルスプロモーション協会,,その他の設立登記法人,神奈川県,横浜市青葉区,桂台２丁目１２番１０号,,14,117,2270034,,,2022-10-26,清算の結了等,,,2015-10-05,1,,,,,ニホンヘルスプロモーションキョウカイ,0
1966,7030002006622,登記記録の閉鎖等,0,2022-11-02,2022-10-24,有限会社ジュエリーオトワ,,有限会社,埼玉県,さいたま市浦和区,北浦和３丁目１２番６号３０３,,11,107,3300074,,,2022-10-24,清算の結了等,,,2015-10-05,1,,,,,ジュエリーオトワ,0
1967,7030002026067,登記記録の閉鎖等,0,2022-11-02,2022-10-25,有限会社ダイマス産業,,有限会社,埼玉県,蕨市,中央５丁目１６番１９号,,11,223,3350004,,,2022-10-25,清算の結了等,,,2015-10-05,1,,,,,ダイマスサンギョウ,0
1972,7040002049991,登記記録の閉鎖等,0,2022-11-02,2022-10-25,有限会社コヤス,,有限会社,千葉県,松戸市,六高台５丁目３６番地１９,,12,207,2702203,,,2022-10-25,清算の結了等,,,2015-10-05,1,,,,,コヤス,0
1996,7110001005179,登記記録の閉鎖等,0,2022-11-02,2022-10-31,堀川商事株式会社,,株式会社,新潟県,新潟市中央区,東大通１丁目１番１６号,,15,103,9500087,,,2022-10-31,合併による解散等,9110001005177,令和４年１０月３１日新潟市中央区東大通一丁目１番１６号堀川事業株式会社（9110001005177）に合併し解散,2015-10-05,1,,,,,ホリカワショウジ,0
1997,7110001010451,登記記録の閉鎖等,0,2022-11-02,2022-10-31,株式会社イタクラ,,株式会社,新潟県,新潟市西蒲区,鷲ノ木１４６６番地,,15,108,9530072,,,2022-10-31,清算の結了等,,,2015-10-05,1,,,,,イタクラ,0
1998,7110002009889,登記記録の閉鎖等,0,2022-11-02,2022-10-28,有限会社やまけい,,有限会社,新潟県,新潟市秋葉区,古田２丁目１番１４号,,15,105,9560025,,,2022-10-28,清算の結了等,,,2015-10-05,1,,,,,ヤマケイ,0
2002,7120001036388,登記記録の閉鎖等,0,2022-11-02,2022-10-31,株式会社堀江商店,,株式会社,大阪府,大阪市福島区,吉野４丁目３番３号,,27,103,5530006,,,2022-10-31,清算の結了等,,,2015-10-05,1,,,,,ホリエショウテン,0
2009,7120001230619,登記記録の閉鎖等,0,2022-11-02,2022-10-31,株式会社ＭａｌｉｃｉａＤｅｓｉｇｎ,,株式会社,大阪府,大阪市中央区,難波５丁目１－６０なんばスカイオ２７階ＷｅＷｏｒｋ,,27,128,5420076,,,2022-10-31,清算の結了等,,,2020-07-27,1,,,,,マリーシアデザイン,0
2023,7120101026611,登記記録の閉鎖等,0,2022-11-02,2022-10-31,大晃建設株式会社,,株式会社,大阪府,大阪狭山市,大野台２丁目４番８号,,27,231,5890023,,,2022-10-31,清算の結了等,,,2015-10-05,1,,,,,ダイコウケンセツ,0
2029,7122001004936,登記記録の閉鎖等,0,2022-11-02,2022-10-31,株式会社テラニシ製作所,,株式会社,大阪府,東大阪市,下小阪１丁目３０番２号,,27,227,5770803,,,2022-10-31,清算の結了等,,,2015-10-05,1,,,,,テラニシセイサクショ,0
2049,7140002044875,登記記録の閉鎖等,0,2022-11-02,2022-10-31,有限会社アットホームなかしま,,有限会社,兵庫県,尼崎市,上ノ島町２丁目２５番１５号,,28,202,6610014,,,2022-10-31,清算の結了等,,,2015-10-05,1,,,,,アットホームナカシマ,0
2050,7140002068684,登記記録の閉鎖等,0,2022-11-02,2022-10-31,有限会社淡路島旅行センター,,有限会社,兵庫県,洲本市,栄町２丁目３番４１号,,28,205,6560026,,,2022-10-31,清算の結了等,,,2015-10-05,1,,,,,アワジシマリョコウセンター,0
2057,7170002002987,登記記録の閉鎖等,0,2022-11-02,2022-10-31,橋戸建設有限会社,,有限会社,和歌山県,和歌山市,上三毛９４６番地の１,,30,201,6496262,,,2022-10-31,清算の結了等,,,2015-10-05,1,,,,,ハシドケンセツ,0
2065,7180002011574,登記記録の閉鎖等,0,2022-11-02,2022-10-28,シンクアクト株式会社,,株式会社,愛知県,名古屋市北区,中味鋺１丁目７０４番地,,23,103,4620015,,,2022-10-28,清算の結了等,,,2015-10-05,1,,,,,シンクアクト,0
2066,7180002069844,登記記録の閉鎖等,0,2022-11-02,2022-10-28,有限会社プラモォード,,有限会社,愛知県,小牧市,桃ケ丘１丁目３６番地の１０,,23,219,4850813,,,2022-10-28,清算の結了等,,,2015-10-05,1,,,,,プラモォード,0
2083,7210001015366,登記記録の閉鎖等,0,2022-11-02,2022-10-31,株式会社ふきのとう,,株式会社,福井県,鯖江市,住吉町２丁目１６番１２号,,18,207,9160056,,,2022-10-31,清算の結了等,,,2015-10-05,1,,,,,フキノトウ,0
2092,7230003000224,登記記録の閉鎖等,0,2022-11-02,2022-11-01,合資会社ファイブワンプランニング,,合資会社,富山県,富山市,牛島本町１丁目１番８７号牛島ハイツ７０１号,,16,201,9300859,,,2022-11-01,清算の結了等,,,2015-10-05,1,,,,,ファイブワンプランニング,0
2101,7240002031896,登記記録の閉鎖等,0,2022-11-02,2022-10-31,有限会社高野精密,,有限会社,広島県,庄原市,高野町上湯川６４４番地１,,34,210,7270411,,,2022-10-31,清算の結了等,,,2015-10-05,1,,,,,タカノセイミツ,0
2109,7260005000649,登記記録の閉鎖等,0,2022-11-02,2022-10-17,天理教中仁分教会,,その他の設立登記法人,岡山県,岡山市南区,小串３３８０番地,,33,104,7028016,,,2022-10-17,合併による解散等,5320005007722,令和４年１０月１１日大分県中津市大字下池永５１９番地天理教中津大教会（5320005007722）に合併し解散,2015-10-05,1,,,,,テンリキョウチュウジンブンキョウカイ,0
2110,7290001016670,登記記録の閉鎖等,0,2022-11-02,2022-10-26,株式会社マリックス,,株式会社,福岡県,福岡市中央区,長浜１丁目３番４号綾杉ビル北天神７Ｆ,,40,133,8100072,,,2022-10-26,合併による解散等,4290001025088,令和４年１０月２６日福岡市中央区長浜一丁目３番４号綾杉ビル北天神５Ｆケアユー株式会社（4290001025088）に合併し解散,2015-10-05,1,,,,,マリックス,0
2112,7290001049919,登記記録の閉鎖等,0,2022-11-02,2022-10-31,株式会社ノーマ・ジーン,,株式会社,福岡県,久留米市,山川追分２丁目６番５１号,,40,203,8390814,,,2022-10-31,清算の結了等,,,2015-10-05,1,,,,,ノーマジーン,0
2115,7290002003965,登記記録の閉鎖等,0,2022-11-02,2022-10-31,有限会社吉田筑紫堂,,有限会社,福岡県,福岡市南区,塩原３丁目２６－１８第二幸田ビル１Ｆ,,40,134,8150032,,,2022-10-31,清算の結了等,,,2015-10-05,1,,,,,ヨシダチクシドウ,0
2122,7320001015322,登記記録の閉鎖等,0,2022-11-02,2022-10-31,サンテック株式会社,,株式会社,大分県,大分市,横尾東町４丁目９番２４号,,44,201,8700130,,,2022-10-31,清算の結了等,,,2016-12-07,1,,,,,サンテック,0
2132,7340002000552,登記記録の閉鎖等,0,2022-11-02,2022-11-01,有限会社スエヒロ,,有限会社,鹿児島県,日置市,伊集院町大田７９５番地,,46,216,8992521,,,2022-11-01,清算の結了等,,,2015-10-05,1,,,,,スエヒロ,0
2137,7370001019475,登記記録の閉鎖等,0,2022-11-02,2022-10-26,株式会社エーティープラス,,株式会社,宮城県,仙台市太白区,八木山南６丁目５番地の１,,04,104,9820807,,,2022-10-26,清算の結了等,,,2015-10-05,1,,,,,エーティープラス,0
2150,7430001064853,登記記録の閉鎖等,0,2022-11-02,2022-10-24,ＴＨＥ　ＮＩＳＥＫＯ　ＳＵＰＥＲＭＡＲＫＥＴ＆ＤＥＬＩ株式会社,,株式会社,北海道,虻田郡倶知安町,字山田１７９番地８,,01,400,0440081,,,2022-10-24,清算の結了等,,,2015-10-05,1,,,,,ザニセコスーパーマッケットアンドデリ,0
2161,7490002005909,登記記録の閉鎖等,0,2022-11-02,2022-10-26,有限会社りょうま,,有限会社,高知県,高知市,介良甲９６２番地５,,39,201,7815105,,,2022-10-26,清算の結了等,,,2015-10-05,1,,,,,リョウマ,0
2163,7500002009370,登記記録の閉鎖等,0,2022-11-02,2022-10-31,有限会社夢２１,,有限会社,愛媛県,松山市,南町１丁目３番３５号,,38,201,7900856,,,2022-10-31,清算の結了等,,,2015-10-05,1,,,,,,0
2188,8010701003887,登記記録の閉鎖等,0,2022-11-02,2022-10-31,株式会社三協工具製作所,,株式会社,東京都,品川区,旗の台１丁目１０番１２号,,13,109,1420064,,,2022-10-31,清算の結了等,,,2015-10-05,1,,,,,サンキョウコウグセイサクショ,0
2198,8011001073118,登記記録の閉鎖等,0,2022-11-02,2022-10-14,Ｑｕｉｃｋ　Ｈｅａｌ　Ｔｅｃｈｎｏｌｏｇｉｅｓ　Ｊａｐａｎ株式会社,,株式会社,東京都,港区,赤坂２丁目１４番５号Ｄａｉｗａ赤坂ビル７階,,13,103,1070052,,,2022-10-14,清算の結了等,,,2015-10-05,1,,,,,クイックヒールテクノロジーズジャパン,0
2214,8011502003283,登記記録の閉鎖等,0,2022-11-02,2022-10-26,晴都医療設備有限会社,,有限会社,埼玉県,さいたま市緑区,太田窪３丁目１１番１１－１０２号,,11,109,3360936,,,2022-10-26,清算の結了等,,,2015-10-05,1,,,,,セイトイリョウセツビ,0
2243,8020002093009,登記記録の閉鎖等,0,2022-11-02,2022-10-28,有限会社野村青果,,有限会社,神奈川県,川崎市多摩区,宿河原４丁目２８番７号,,14,135,2140021,,,2022-10-28,清算の結了等,,,2015-10-05,1,,,,,ノムラセイカ,0
2262,8040001012025,登記記録の閉鎖等,0,2022-11-02,2022-10-26,株式会社千葉総合管理,,株式会社,千葉県,千葉市若葉区,小倉台３丁目２２番２号,,12,104,2640006,,,2022-10-26,清算の結了等,,,2015-10-05,1,,,,,チバソウゴウカンリ,0
2285,8080002016062,登記記録の閉鎖等,0,2022-11-02,2022-11-01,有限会社トヨダ薬局,,有限会社,静岡県,焼津市,小土１００７番地の５,,22,212,4250086,,,2022-11-01,清算の結了等,,,2015-10-05,1,,,,,トヨダヤッキョク,0
2295,8110002017271,登記記録の閉鎖等,0,2022-11-02,2022-10-31,有限会社ストークプロダクツ,,有限会社,新潟県,三条市,上保内７９４番地４,,15,204,9550022,,,2022-10-31,清算の結了等,,,2015-10-05,1,,,,,ストークプロダクツ,0
2306,8120001186694,登記記録の閉鎖等,0,2022-11-02,2022-11-01,株式会社ＨＤＯ,,株式会社,大阪府,大阪市西成区,南津守５丁目２番５５号,,27,122,5570063,,,2022-11-01,合併による解散等,5120001033544,令和４年１１月１日大阪市浪速区湊町一丁目４番３６－１７０８号株式会社ＨＤＳ（5120001033544）に合併し解散,2015-10-05,1,,,,,エイチディーオー,0
2320,8120002043531,登記記録の閉鎖等,0,2022-11-02,2022-10-31,有限会社コーシン,,有限会社,大阪府,大阪市旭区,生江１丁目７番１２号,,27,117,5350004,,,2022-10-31,清算の結了等,,,2015-10-05,1,,,,,,0
2321,8120002051121,登記記録の閉鎖等,0,2022-11-02,2022-10-31,有限会社アバンツアーズ,,有限会社,大阪府,大阪市西区,京町堀１丁目７番９号,,27,106,5500003,,,2022-10-31,清算の結了等,,,2015-10-05,1,,,,,アバンツアーズ,0
2355,8180001088480,登記記録の閉鎖等,0,2022-11-02,2022-10-28,株式会社尾関園芸,,株式会社,愛知県,一宮市,浅井町河端字古川筋１６９番地,,23,203,4910111,,,2022-10-28,清算の結了等,,,2015-10-05,1,,,,,オゼキエンゲイ,0
2404,8330001018637,登記記録の閉鎖等,0,2022-11-02,2022-10-31,株式会社シンセイエクスプレス運輸倉庫,,株式会社,熊本県,山鹿市,方保田８０４番地,,43,208,8610382,,,2022-10-31,清算の結了等,,,2015-10-05,1,,,,,シンセイエクスプレスウンユソウコ,0
2443,8450002011323,登記記録の閉鎖等,0,2022-11-02,2022-10-31,有限会社山や山谷商店,,有限会社,北海道,天塩郡豊富町,字豊富市街地表通４４番地,,01,516,0984100,,,2022-10-31,清算の結了等,,,2015-10-05,1,,,,,ヤマヤヤマヤショウテン,0
2447,8470002014035,登記記録の閉鎖等,0,2022-11-02,2022-10-21,有限会社トップフーズ,,有限会社,香川県,丸亀市,郡家町１３４６番地６,,37,202,7630093,,,2022-10-21,清算の結了等,,,2015-10-05,1,,,,,,0
2463,9010005015884,登記記録の閉鎖等,0,2022-11-02,2022-10-17,特定非営利活動法人日本歯科矯正専門医認定機構,,その他の設立登記法人,東京都,港区,新橋６丁目７番９号新橋アイランドビル公益総研内,,13,103,1050004,,,2022-10-17,清算の結了等,,,2015-10-05,1,,,,,ニホンシカキョウセイセンモンイニンテイキコウ,0
2494,9011001103278,登記記録の閉鎖等,0,2022-11-02,2022-10-05,株式会社ＡＲＳ,,株式会社,東京都,港区,南青山１丁目２番６号,,13,103,1070062,,,2022-10-05,合併による解散等,8010001035763,令和４年１０月１日東京都港区南青山一丁目２番６号株式会社アーティスソリューションズ（8010001035763）に合併し解散,2015-10-05,1,,,,,エーアールエス,0
2504,9011102012626,登記記録の閉鎖等,0,2022-11-02,2022-10-31,有限会社ミヤプランニング,,有限会社,東京都,新宿区,新宿３丁目２７番５号,,13,104,1600022,,,2022-10-31,合併による解散等,2011101006569,令和４年１０月３１日東京都新宿区新宿三丁目２３番４号株式会社晃商事（2011101006569）に合併し解散,2015-10-05,1,,,,,,0
2512,9011401021534,登記記録の閉鎖等,0,2022-11-02,2022-10-31,キャピタルプランナー株式会社,,株式会社,東京都,台東区,東上野３丁目１６番５号,,13,106,1100015,,,2022-10-31,清算の結了等,,,2018-12-27,1,,,,,キャピタルプランナー,0
2515,9011503004610,登記記録の閉鎖等,0,2022-11-02,2022-10-27,ワンダー合同会社,,合同会社,東京都,荒川区,東日暮里５丁目５０番９号もみじばしビル２Ｆ,,13,118,1160014,,,2022-10-27,清算の結了等,,,2020-12-22,1,,,,,ワンダー,0
2518,9011801033105,登記記録の閉鎖等,0,2022-11-02,2022-10-28,株式会社アニビアワークス,,株式会社,東京都,足立区,西新井栄町２丁目２０番８号,,13,121,1230843,,,2022-10-28,清算の結了等,,,2017-04-10,1,,,,,,0
2521,9012402011540,登記記録の閉鎖等,0,2022-11-02,2022-10-27,有限会社西南地所,,有限会社,東京都,調布市,上石原２丁目２９番地６,,13,208,1820035,,,2022-10-27,清算の結了等,,,2015-10-05,1,,,,,セイナンジショ,0
2546,9020002101950,登記記録の閉鎖等,0,2022-11-02,2022-10-28,有限会社　宮前サポートゆうゆう,,有限会社,神奈川県,川崎市宮前区,宮崎６５７番地３,,14,136,2160033,,,2022-10-28,清算の結了等,,,2015-10-05,1,,,,,,0
2558,9030001075427,登記記録の閉鎖等,0,2022-11-02,2022-10-25,住協株式会社,,株式会社,埼玉県,川口市,芝下３丁目４５番１５号,,11,203,3330848,,,2022-10-25,清算の結了等,,,2015-10-05,1,,,,,ジュウキョウ,0
2579,9060002008589,登記記録の閉鎖等,0,2022-11-02,2022-10-27,有限会社松本農場,,有限会社,栃木県,宇都宮市,氷室町字細野２３９４番地,,09,201,3213232,,,2022-10-27,清算の結了等,,,2015-10-05,1,,,,,マツモトノウジョウ,0
2594,9080402017246,登記記録の閉鎖等,0,2022-11-02,2022-10-31,有限会社オカザキ,,有限会社,静岡県,掛川市,千羽４０３番地の８,,22,213,4360008,,,2022-10-31,清算の結了等,,,2015-10-05,1,,,,,オカザキ,0
2605,9110002011934,登記記録の閉鎖等,0,2022-11-02,2022-10-21,有限会社Ｔ．Ｎ．Ｐ,,有限会社,新潟県,新潟市西区,坂井砂山１丁目１６番１４号,,15,107,9502044,,,2022-10-21,清算の結了等,,,2015-10-05,1,,,,,ティーエヌピー,0
2607,9120001167388,登記記録の閉鎖等,0,2022-11-02,2022-11-01,株式会社ＴＷＸ,,株式会社,大阪府,大阪市中央区,南本町１丁目４番１０号,,27,128,5410054,,,2022-11-01,合併による解散等,3120001024982,令和４年１１月１日大阪市中央区南本町一丁目４番１０号株式会社ビーエムエス（3120001024982）に合併し解散,2015-10-05,1,,,,,ティーダブリューエックス,0
2611,9120001190662,登記記録の閉鎖等,0,2022-11-02,2022-11-01,力天株式会社,,株式会社,大阪府,大阪市北区,豊崎３丁目１８番３－５０５号,,27,127,5310072,,,2022-11-01,清算の結了等,,,2015-10-05,1,,,,,リキテン,0
2613,9120001243866,登記記録の閉鎖等,0,2022-11-02,2022-10-31,光ホールディングス株式会社,,株式会社,大阪府,門真市,脇田町３番４号,,27,223,5710011,,,2022-10-31,清算の結了等,,,2022-02-21,1,,,,,ヒカルホールディングス,0
2644,9130005007713,登記記録の閉鎖等,0,2022-11-02,2022-10-25,特定非営利活動法人芦生自然学校,00038696,その他の設立登記法人,京都府,南丹市,美山町芦生スケ尻１４番地２,00038697,26,213,6010703,,,2022-10-25,清算の結了等,,,2015-10-05,1,,,,,アシウシゼンガッコウ,0
2645,9140001070656,登記記録の閉鎖等,0,2022-11-02,2022-10-31,山和青果株式会社,,株式会社,兵庫県,西宮市,池田町４番１０号,,28,204,6620911,,,2022-10-31,清算の結了等,,,2015-10-05,1,,,,,ヤマワセイカ,0
2651,9160002013645,登記記録の閉鎖等,0,2022-11-02,2022-11-01,有限会社真幸,,有限会社,滋賀県,草津市,西矢倉３丁目６番７－２号,,25,206,5250052,,,2022-11-01,清算の結了等,,,2015-10-05,1,,,,,シンコウ,0
2662,9180003016455,登記記録の閉鎖等,0,2022-11-02,2022-10-26,ｂｅｅａｎｚ株式会社,,株式会社,愛知県,名古屋市天白区,原１丁目１２０９番地ホワイトキャッスル平針ＩＩ２Ｆ２０８,00119439,23,116,4680015,,,2022-10-26,清算の結了等,,,2015-10-05,1,,,,,ビーンズ,0
2663,9180003022890,登記記録の閉鎖等,0,2022-11-02,2022-10-31,合同会社リアン,,合同会社,愛知県,名古屋市港区,当知２丁目８０１番地の２エクセレント港６０２号,,23,111,4550804,,,2022-10-31,清算の結了等,,,2021-08-24,1,,,,,リアン,0
2667,9180301009961,登記記録の閉鎖等,0,2022-11-02,2022-10-27,株式会社大黒地所,,株式会社,愛知県,豊川市,中央通３丁目３０番地,,23,207,4420051,,,2022-10-27,清算の結了等,,,2015-10-05,1,,,,,ダイコクチショ,0
2670,9180305008010,登記記録の閉鎖等,0,2022-11-02,2022-10-28,一般社団法人竹藪から竹林ニシオう,,その他の設立登記法人,愛知県,西尾市,上矢田町郷後２２番地,,23,213,4440313,,,2022-10-28,清算の結了等,,,2015-10-05,1,,,,,タケヤブカラチクリンニシオウ,0
2676,9200003001066,登記記録の閉鎖等,0,2022-11-02,2022-10-31,合資会社写学,,合資会社,岐阜県,岐阜市,御杉町２６の２,,21,201,5008079,,,2022-10-31,清算の結了等,,,2015-10-05,1,,,,,シャガク,0
2681,9220001023614,登記記録の閉鎖等,0,2022-11-02,2022-10-31,株式会社ココエスタ金澤,,株式会社,石川県,金沢市,入江１丁目１５７番地,,17,201,9218011,,,2022-10-31,清算の結了等,,,2020-06-24,1,,,,,ココエスタカナザワ,0
2689,9240002030640,登記記録の閉鎖等,0,2022-11-02,2022-10-31,有限会社大平建設,,有限会社,広島県,三次市,三和町敷名４３４３番地,,34,209,7296702,,,2022-10-31,清算の結了等,,,2015-10-05,1,,,,,オオヒラケンセツ,0
2727,9330003004659,登記記録の閉鎖等,0,2022-11-02,2022-11-01,合同会社Ｇｒｅｅｎ　Ｒｏｓｅ,,合同会社,熊本県,熊本市中央区,中央街１２番１６－９０３号,,43,101,8600802,,,2022-11-01,合併による解散等,7330003005106,令和４年１１月１日熊本市中央区大江五丁目８番２０－１００号合同会社７ｉｒｏｎ（7330003005106）に合併し解散,2015-10-05,1,,,,,グリーンローズ,0
2748,9380002017830,登記記録の閉鎖等,0,2022-11-02,2022-10-27,有限会社サトー家電,,有限会社,福島県,西白河郡西郷村,字豊作東３１番地,,07,461,9618041,,,2022-10-27,清算の結了等,,,2015-10-05,1,,,,,サトーカデン,0
2762,9460002001850,登記記録の閉鎖等,0,2022-11-02,2022-10-31,有限会社太平洋ビル,,有限会社,北海道,釧路市,新富町７番４号,,01,206,0850004,,,2022-10-31,清算の結了等,,,2015-10-05,1,,,,,タイヘイヨウビル,0
