sequenceNumber,corporateNumber,process,correct,updateDate,changeDate,name,nameImageId,kind,prefectureName,cityName,streetNumber,addressImageId,prefectureCode,cityCode,postCode,addressOutside,addressOutsideImageId,closeDate,closeCause,successorCorporateNumber,changeCause,assignmentDate,latest,enName,enPrefectureName,enCityName,enAddressOutside,furigana,hihyoji
14,1010001250930,新規,0,2024-12-23,2024-12-23,ハルパートナーズ株式会社,,株式会社,東京都,中央区,湊１丁目１４番１９号５階,,13,102,1040043,,,,,,,2024-12-23,1,,,,,ハルパートナーズ,0
15,1010001250939,新規,0,2024-12-23,2024-12-23,スピリッジ株式会社,,株式会社,東京都,千代田区,神田駿河台３丁目２番地,,13,101,1010062,,,,,,,2024-12-23,1,,,,,スピリッジ,0
18,1010005039313,新規,0,2024-12-23,2024-12-23,一般社団法人円錐角膜支援の会,,その他の設立登記法人,東京都,中央区,日本橋２丁目１番１７号,,13,102,1030027,,,,,,,2024-12-23,1,,,,,エンスイカクマクシエンノカイ,0
24,1010401187104,新規,0,2024-12-23,2024-12-23,株式会社ＡｎｄＺｅａｌ,,株式会社,東京都,港区,浜松町２丁目２－１５浜松町ダイヤビル２Ｆ,,13,103,1050013,,,,,,,2024-12-23,1,,,,,アンドジール,0
41,1011001166522,新規,0,2024-12-23,2024-12-23,ＢｉｔＳｏｎｉｃ株式会社,,株式会社,東京都,渋谷区,渋谷２丁目１９－１５宮益坂ビルディング６０９,,13,113,1500002,,,,,,,2024-12-23,1,,,,,ビットソニック,0
42,1011001166530,新規,0,2024-12-23,2024-12-23,株式会社タオライン,,株式会社,東京都,渋谷区,神宮前６丁目２３番４号桑野ビル２階,,13,113,1500001,,,,,,,2024-12-23,1,,,,,タオライン,0
43,1011001166539,新規,0,2024-12-23,2024-12-23,株式会社ストライク,,株式会社,東京都,渋谷区,渋谷２丁目１９番１５号宮益坂ビルディング６０９,,13,113,1500002,,,,,,,2024-12-23,1,,,,,ストライク,0
44,1011001166563,新規,0,2024-12-23,2024-12-23,シンクムーブ株式会社,,株式会社,東京都,渋谷区,神南１丁目１１番４号ＦＰＧリンクス神南５階,,13,113,1500041,,,,,,,2024-12-23,1,,,,,シンクムーブ,0
45,1011001166571,新規,0,2024-12-23,2024-12-23,フォーカスラボ株式会社,,株式会社,東京都,渋谷区,渋谷３丁目１７番２号ＫＩＹＯＳＡＷＡＢＬＤ．５Ｆ,,13,113,1500002,,,,,,,2024-12-23,1,,,,,フォーカスラボ,0
46,1011001166596,新規,0,2024-12-23,2024-12-23,株式会社ＦＯＲＬＩＡ,,株式会社,東京都,渋谷区,神宮前１丁目９番８号ＫＩ－４３８ビル２ＦＡ号,,13,113,1500001,,,,,,,2024-12-23,1,,,,,フォーリア,0
47,1011001166613,新規,0,2024-12-23,2024-12-23,株式会社ＤＥＳＥＮＩＸ,,株式会社,東京都,渋谷区,千駄ヶ谷５丁目３２－７野村不動産南新宿ビル３Ｆ,,13,113,1510051,,,,,,,2024-12-23,1,,,,,デセニックス,0
48,1011001166638,新規,0,2024-12-23,2024-12-23,株式会社ＪＪ,,株式会社,東京都,目黒区,中央町１丁目３番３１－１０４号Ｔ’ｓｇａｒｄｅｎ学芸大学,,13,110,1520001,,,,,,,2024-12-23,1,,,,,ジェイジェイ,0
49,1011001166646,新規,0,2024-12-23,2024-12-23,ｍａｔｓｕｄｏ株式会社,,株式会社,東京都,渋谷区,幡ヶ谷１丁目２－５－８０１,,13,113,1510072,,,,,,,2024-12-23,1,,,,,マツド,0
50,1011001166654,新規,0,2024-12-23,2024-12-23,株式会社Ｒｉｓｅ,,株式会社,東京都,渋谷区,道玄坂１丁目１０－８渋谷道玄坂東急ビル２ＦーＣ,,13,113,1500043,,,,,,,2024-12-23,1,,,,,ライズ,0
51,1011001166704,新規,0,2024-12-23,2024-12-23,株式会社ＬＯＷＲＬ,,株式会社,東京都,渋谷区,宇田川町１１番６号渋谷宇田川ｋｋビル７Ｆ,,13,113,1500042,,,,,,,2024-12-23,1,,,,,ロウル,0
55,1011101109967,新規,0,2024-12-23,2024-12-23,株式会社ドットノート,,株式会社,東京都,新宿区,新宿６丁目２７番２９号コンフォリア新宿イーストサイドタワー２３０１,,13,104,1600022,,,,,,,2024-12-23,1,,,,,ドットノート,0
56,1011101109975,新規,0,2024-12-23,2024-12-23,株式会社ＩＮＦＩＮＩＴＹ,,株式会社,東京都,新宿区,新宿１丁目３６番２号新宿第七葉山ビル３Ｆ,,13,104,1600022,,,,,,,2024-12-23,1,,,,,インフィニティー,0
57,1011101109991,新規,0,2024-12-23,2024-12-23,ソシャラボ株式会社,,株式会社,東京都,新宿区,西新宿３丁目３番１３号,,13,104,1600023,,,,,,,2024-12-23,1,,,,,ソシャラボ,0
62,1011201026014,新規,0,2024-12-23,2024-12-23,株式会社Ｈｏｒｉｚｏｎ　ｊｏｂ,,株式会社,東京都,中野区,野方１丁目３８番１２号ハイムアトレイユ５０２,,13,114,1650027,,,,,,,2024-12-23,1,,,,,ホリズンジョブ,0
65,1011401026656,新規,0,2024-12-23,2024-12-23,集源株式会社,,株式会社,東京都,板橋区,仲宿６３番７号ＯＥＯｆｆｉｃｅＢｌｄｇ．２１３号,,13,119,1730005,,,,,,,2024-12-23,1,,,,,シュウゲン,0
66,1011401026672,新規,0,2024-12-23,2024-12-23,株式会社イメージストア,,株式会社,東京都,板橋区,上板橋１丁目２番４号,,13,119,1740076,,,,,,,2024-12-23,1,,,,,イメージストア,0
67,1011501031515,新規,0,2024-12-23,2024-12-23,株式会社ｉｎｆｉｎｉｔｙ　ｇｒｏｗｔｈ,,株式会社,東京都,北区,豊島８丁目２２番９号,,13,117,1140003,,,,,,,2024-12-23,1,,,,,インフィニティグロース,0
68,1011601028320,新規,0,2024-12-23,2024-12-23,株式会社Ｎｉｙｏｎ　ｗｏｒｋｓ,,株式会社,東京都,練馬区,大泉町１丁目４９－２２,,13,120,1780062,,,,,,,2024-12-23,1,,,,,ニヨンワークス,0
73,1012801023656,新規,0,2024-12-23,2024-12-23,ＫＢＭファネル株式会社,,株式会社,東京都,国立市,富士見台２丁目１４番地の１,,13,215,1860003,,,,,,,2024-12-23,1,,,,,ケービーエムファネル,0
84,1020003027509,新規,0,2024-12-23,2024-12-23,合同会社アイアンオックス,,合同会社,神奈川県,横浜市港北区,岸根町６６７番地５,,14,109,2220034,,,,,,,2024-12-23,1,,,,,アイアンオックス,0
86,1020005016641,新規,0,2024-12-23,2024-12-23,ＮＰＯ法人麻生区ソーシャルデザインセンター,,その他の設立登記法人,神奈川県,川崎市麻生区,百合丘２丁目１１番地３藤和新百合ヶ丘コープ１０５,,14,137,2150011,,,,,,,2024-12-23,1,,,,,アサオクソーシャルデザインセンター,0
89,1021001084054,新規,0,2024-12-23,2024-12-23,ＳＡＮＡＸ株式会社,,株式会社,神奈川県,大和市,上和田４４３－１０,,14,213,2420014,,,,,,,2024-12-23,1,,,,,サナックス,0
90,1021001084062,新規,0,2024-12-23,2024-12-23,株式会社矢野建総業,,株式会社,神奈川県,座間市,南栗原３丁目１８番２０－１号,,14,216,2520015,,,,,,,2024-12-23,1,,,,,ヤノケンソウギョウ,0
92,1021003015379,新規,0,2024-12-23,2024-12-23,合同会社ＢｅｓｔＨｏｍｅ総合住宅リフォーム,,合同会社,神奈川県,座間市,西栗原１丁目１０番３３－１０９号,,14,216,2520016,,,,,,,2024-12-23,1,,,,,ベストホームソウゴウジュウタクリフォーム,0
102,1030003025742,新規,0,2024-12-23,2024-12-23,合同会社ムライム,,合同会社,埼玉県,日高市,大字鹿山２５０番地１４,,11,242,3501231,,,,,,,2024-12-23,1,,,,,ムライム,0
110,1040003026450,新規,0,2024-12-23,2024-12-23,合同会社長持,,合同会社,千葉県,大網白里市,金谷郷２８３番地１０,,12,239,2993242,,,,,,,2024-12-23,1,,,,,ナガモチ,0
112,1080003003355,新規,0,2024-12-23,2024-12-23,合同会社ｋｉｉｔｏ,,合同会社,静岡県,藤枝市,岡出山２丁目８番８号鈴木貸店舗Ａ,,22,214,4260026,,,,,,,2024-12-23,1,,,,,キイト,0
114,1080101025193,新規,0,2024-12-23,2024-12-23,株式会社大麓,,株式会社,静岡県,富士宮市,麓１５６番地,,22,207,4180109,,,,,,,2024-12-23,1,,,,,ダイロク,0
122,1090003002703,新規,0,2024-12-23,2024-12-23,合同会社Ｌｉｅｎ,,合同会社,山梨県,北杜市,長坂町大八田５２０８番地２,,19,209,4080034,,,,,,,2024-12-23,1,,,,,リアン,0
127,1110001038944,新規,0,2024-12-23,2024-12-23,株式会社Ｋ　ＩＳＬＡＮＤ,,株式会社,新潟県,新潟市中央区,古町通８番町１４４６番地一蔵ビル１Ｆ,,15,103,9518063,,,,,,,2024-12-23,1,,,,,ケーアイランド,0
141,1120001271288,新規,0,2024-12-23,2024-12-23,中騰株式会社,,株式会社,大阪府,大阪市淀川区,西宮原２丁目６番１６－５２３号,,27,123,5320004,,,,,,,2024-12-23,1,,,,,チュウトウ,0
149,1120903005462,新規,0,2024-12-23,2024-12-23,合同会社カルチャーリンクス,,合同会社,大阪府,箕面市,小野原東５丁目２６－１５－６１４,,27,220,5620031,,,,,,,2024-12-23,1,,,,,カルチャーリンクス,0
158,1140001136811,新規,0,2024-12-23,2024-12-23,株式会社ＣｏｃｏＫｕｒａ　Ｗｏｒｋｓ,,株式会社,兵庫県,尼崎市,南武庫之荘１丁目２２番２４号,,28,202,6610033,,,,,,,2024-12-23,1,,,,,ココクラワークス,0
162,1140003021251,新規,0,2024-12-23,2024-12-23,合同会社Ｌａｆｍａｒｋｅｔｉｎｇ,,合同会社,兵庫県,芦屋市,潮見町２７－６,,28,206,6590043,,,,,,,2024-12-23,1,,,,,ラフマーケティング,0
164,1140005027321,新規,0,2024-12-23,2024-12-23,一般社団法人Ｗｏｍａｎ’ｓ　Ｗｅｌｌｂｅｉｎｇ協会,,その他の設立登記法人,兵庫県,洲本市,五色町鮎原神陽６００番地１６,,28,205,6561318,,,,,,,2024-12-23,1,,,,,ウーマンズウェルビーイングキョウカイ,0
170,1170001018420,新規,0,2024-12-23,2024-12-23,株式会社ビーグローブ,,株式会社,和歌山県,和歌山市,中之島１１２５番地,,30,201,6408392,,,,,,,2024-12-23,1,,,,,ビーグローブ,0
174,1180005020867,新規,0,2024-12-23,2024-12-23,ＭＲＴ行政書士法人,,その他の設立登記法人,愛知県,名古屋市港区,川西通５丁目４４番地中京ウエストビル１０２号室,,23,111,4550073,,,,,,,2024-12-23,1,,,,,エムアールティー,0
181,1230001020675,新規,0,2024-12-23,2024-12-23,株式会社村上パッケージ,,株式会社,富山県,射水市,中野６７３番地,,16,211,9390273,,,,,,,2024-12-23,1,,,,,ムラカミパッケージ,0
186,1240005015869,新規,0,2024-12-23,2024-12-23,一般社団法人安田えーのう,,その他の設立登記法人,広島県,神石郡神石高原町,安田６７６番地２,,34,545,7201811,,,,,,,2024-12-23,1,,,,,ヤスダエーノウ,0
197,1290001108390,新規,0,2024-12-23,2024-12-23,株式会社Ａｌｐｈａ,,株式会社,福岡県,福岡市博多区,板付５丁目１２番２６号,,40,132,8120888,,,,,,,2024-12-23,1,,,,,アルファ,0
206,1290005019584,新規,0,2024-12-23,2024-12-23,Ｊａｐａｎ　Ｈｅｒｅｄｉｔａｒｙ　Ｕｒｏｌｉｔｈｉａｓｉｓ　Ｒｅｓｅａｒｃｈ　Ｇｒｏｕｐ　ＮＰＯ法人,,その他の設立登記法人,福岡県,久留米市,旭町６７久留米大学小児科医局内,,40,203,8300011,,,,,,,2024-12-23,1,,,,,ジャパンヘレディタリーウロリシアシスリサーチグループ,0
208,1310001019370,新規,0,2024-12-23,2024-12-23,株式会社ＭＪマーチ,,株式会社,長崎県,西彼杵郡長与町,まなび野３丁目３１番地５,,42,307,8512130,,,,,,,2024-12-23,1,,,,,エムジェイマーチ,0
222,1370005010873,新規,0,2024-12-23,2024-12-23,医療法人ＫＯＨ,,その他の設立登記法人,宮城県,名取市,相互台１丁目１１番地の４,,04,207,9811246,,,,,,,2024-12-23,1,,,,,コー,0
223,1370005010881,新規,0,2024-12-23,2024-12-23,医療法人佐々木医院,,その他の設立登記法人,宮城県,大崎市,古川諏訪１丁目３番３７号,,04,215,9896175,,,,,,,2024-12-23,1,,,,,ササキイイン,0
226,1380001034982,新規,0,2024-12-23,2024-12-23,株式会社佳晴,,株式会社,福島県,東白川郡矢祭町,大字下関河内字宮脇２１番地,,07,482,9635113,,,,,,,2024-12-23,1,,,,,カセイ,0
233,1410003004022,新規,0,2024-12-23,2024-12-23,合同会社ｓｔａｒｔ　ｕｐ,,合同会社,秋田県,秋田市,山王中島町１２番６号ビューティフルヒル美丘Ｂ２０２号,,05,201,0100955,,,,,,,2024-12-23,1,,,,,スタートアップ,0
240,1430001093321,新規,0,2024-12-23,2024-12-23,株式会社ノースプロリード,,株式会社,北海道,札幌市白石区,菊水六条２丁目４番１８－１００３号,,01,104,0030806,,,,,,,2024-12-23,1,,,,,ノースプロリード,0
241,1440001009540,新規,0,2024-12-23,2024-12-23,イアス函館株式会社,,株式会社,北海道,函館市,東山町１４４番地１７４,,01,202,0410834,,,,,,,2024-12-23,1,,,,,イアスハコダテ,0
245,1700150053024,新規,0,2024-12-23,2015-10-09,山口県立徳山高等学校ＰＴＡ法人会計,,その他,山口県,周南市,鐘楼町２番５０号,,35,215,7450061,,,,,,,2015-10-09,1,,,,,ヤマグチケンリツトクヤマコウトウガツコウピーテイーエーホウジンカイケイ,0
246,1700150128032,新規,0,2024-12-23,2024-12-23,Ｐｅｎｕｍｂｒａ，Ｉｎｃ．,,外国会社等,,,,,,,,１３５１　ＨＡＲＢＯＲ　ＢＡＹ　ＰＫＷＹ　ＡＬＡＭＥＤＡ，ＣＡ　９４５０１,,,,,,2024-12-23,1,,,,,ペナンブラインク,0
247,1700150128338,新規,0,2024-12-23,2024-12-23,萩原区自治会,,その他,茨城県,神栖市,萩原８１１番地２,,08,232,3140122,,,,,,,2024-12-23,1,,,,,ハギワラクジチカイ,0
252,2010001250780,新規,0,2024-12-23,2024-12-23,株式会社ＡＺ,,株式会社,東京都,千代田区,神田須田町１丁目７番８号,,13,101,1010041,,,,,,,2024-12-23,1,,,,,アズ,0
253,2010001250871,新規,0,2024-12-23,2024-12-23,中投建設集団日本株式会社,,株式会社,東京都,中央区,銀座１丁目２７番８号セントラルビル５Ｆ,,13,102,1040061,,,,,,,2024-12-23,1,,,,,チュウトウケンセツシュウダンニホン,0
259,2010003045832,新規,0,2024-12-23,2024-12-23,Ｔｈｅ　Ｐｅａｋ　Ｓｅｒｉｅｓ　Ｘ合同会社,,合同会社,東京都,千代田区,四番町４番地９新東京国際リーガル内,,13,101,1020081,,,,,,,2024-12-23,1,,,,,ザピークシリーズテン,0
261,2010005039295,新規,0,2024-12-23,2024-12-23,特定非営利活動法人日本の移植医療を支える会,,その他の設立登記法人,東京都,千代田区,三番町９番地６三番町パークテラス桜苑６０７号,,13,101,1020075,,,,,,,2024-12-23,1,,,,,ニホンノイショクイリョウヲササエルカイ,0
270,2010401187037,新規,0,2024-12-23,2024-12-23,Ｋｏｋａ　Ｎｅｔｗｏｒｋ株式会社,,株式会社,東京都,港区,芝２丁目２番１２号浜松町ＰＲＥＸ１１階,,13,103,1050014,,,,,,,2024-12-23,1,,,,,コウカネットワーク,0
271,2010401187136,新規,0,2024-12-23,2024-12-23,株式会社ＢＡＳＩＱＵＥ,,株式会社,東京都,港区,北青山１丁目３番１号アールキューブ青山３階,,13,103,1070061,,,,,,,2024-12-23,1,,,,,バジック,0
272,2010403034055,新規,0,2024-12-23,2024-12-23,合同会社ＶＯＲＡＣＥ,,合同会社,東京都,港区,浜松町２丁目２－１５浜松町ダイヤビル２Ｆ,,13,103,1050013,,,,,,,2024-12-23,1,,,,,ヴォラス,0
276,2010501053254,新規,0,2024-12-23,2024-12-23,芸峰株式会社,,株式会社,東京都,台東区,台東２丁目３１－１０第二掛川ビル１１３号室,,13,106,1100016,,,,,,,2024-12-23,1,,,,,ゲイホウ,0
277,2010501053329,新規,0,2024-12-23,2024-12-23,株式会社ＫＫＡＰ,,株式会社,東京都,台東区,浅草橋３丁目２番３－４０３号ランドステージ浅草橋,,13,106,1110053,,,,,,,2024-12-23,1,,,,,ケーケーエーピー,0
278,2010503007679,新規,0,2024-12-23,2024-12-23,ｆｏｒｍａｌｉｇｈｔｉｎｇ　ｊａｐａｎ合同会社,,合同会社,東京都,台東区,浅草橋３丁目５番８号レインボーシーカー００６,,13,106,1110053,,,,,,,2024-12-23,1,,,,,フォーマライティングジャパン,0
288,2011001166554,新規,0,2024-12-23,2024-12-23,株式会社Ｑｕｅｅｎ’ｓＱｕａｒｔｅｒｓ,,株式会社,東京都,渋谷区,渋谷１丁目１０番１号八千代ビル８階,,13,113,1500002,,,,,,,2024-12-23,1,,,,,クイーンズクウォーターズ,0
289,2011001166595,新規,0,2024-12-23,2024-12-23,Ｓｉｘ　Ｓｉｇｍａ　Ｏｐｅｒａｔｉｏｎｓ株式会社,,株式会社,東京都,渋谷区,大山町３９番２２号カーサドゥレイズ代々木上原１０３号室,,13,113,1510065,,,,,,,2024-12-23,1,,,,,シックスシグマオペレーションズ,0
290,2011001166637,新規,0,2024-12-23,2024-12-23,アソビギルド株式会社,,株式会社,東京都,渋谷区,神宮前３丁目２１番８号,,13,113,1500001,,,,,,,2024-12-23,1,,,,,アソビギルド,0
291,2011001166653,新規,0,2024-12-23,2024-12-23,株式会社ＦｏｏｄＳｔｏｒｙ＆Ｔｅｃｈ,,株式会社,東京都,渋谷区,渋谷２丁目２１番１号渋谷ヒカリエ３３Ｆ,,13,113,1500002,,,,,,,2024-12-23,1,,,,,フードストーリーアンドテック,0
292,2011001166686,新規,0,2024-12-23,2024-12-23,コネクト株式会社,,株式会社,東京都,渋谷区,神宮前６丁目１５番２号,,13,113,1500001,,,,,,,2024-12-23,1,,,,,コネクト,0
293,2011001166736,新規,0,2024-12-23,2024-12-23,株式会社ＷｅｌｌＹｏｕｒＷａｙ,,株式会社,東京都,渋谷区,渋谷２丁目１９―１５宮益坂ビルディング６０９,,13,113,1500002,,,,,,,2024-12-23,1,,,,,ウェルユアウェイ,0
294,2011003020610,新規,0,2024-12-23,2024-12-23,ＭＡＫＥＲＳ　ＣＬＵＢ合同会社,,合同会社,東京都,目黒区,下目黒１丁目１番１４号コノトラビル７Ｆ,,13,110,1530064,,,,,,,2024-12-23,1,,,,,メーカーズクラブ,0
295,2011003020619,新規,0,2024-12-23,2024-12-23,合同会社ＳＺＴＲ,,合同会社,東京都,渋谷区,恵比寿西２丁目８番４号ＥＸ恵比寿西ビル５階,,13,113,1500021,,,,,,,2024-12-23,1,,,,,エスゼットティーアール,0
296,2011003020627,新規,0,2024-12-23,2024-12-23,合同会社アセンディア,,合同会社,東京都,渋谷区,道玄坂１丁目１０番８号渋谷道玄坂東急ビル２Ｆ－Ｃ,,13,113,1500043,,,,,,,2024-12-23,1,,,,,アセンディア,0
297,2011003020635,新規,0,2024-12-23,2024-12-23,合同会社ト・リアエズ,,合同会社,東京都,渋谷区,道玄坂１丁目１０番８号渋谷道玄坂東急ビル２Ｆ－Ｃ,,13,113,1500043,,,,,,,2024-12-23,1,,,,,トリアエズ,0
298,2011003020651,新規,0,2024-12-23,2024-12-23,合同会社２２６,,合同会社,東京都,渋谷区,上原３丁目１３番１６号オープンレジデンス代々木上原３０６,,13,113,1510064,,,,,,,2024-12-23,1,,,,,ニーニーロク,0
306,2011103015329,新規,0,2024-12-23,2024-12-23,合同会社ＫＳＢ　Ｔａｂｌｅ,,合同会社,東京都,新宿区,西落合１丁目１－１４,,13,104,1610031,,,,,,,2024-12-23,1,,,,,ケーエスビーテーブル,0
310,2011201026013,新規,0,2024-12-23,2024-12-23,株式会社ＬａｔＴＥ,,株式会社,東京都,中野区,中央２丁目４３番１５号,,13,114,1640011,,,,,,,2024-12-23,1,,,,,ラテ,0
312,2011503006349,新規,0,2024-12-23,2024-12-23,合同会社ＲＯＲＯ,,合同会社,東京都,荒川区,西日暮里５丁目１５－１３三共プラザビル７０２,,13,118,1160013,,,,,,,2024-12-23,1,,,,,ロロ,0
328,2012401042601,新規,0,2024-12-23,2024-12-23,イアス府中株式会社,,株式会社,東京都,府中市,寿町３丁目１０番地の３２,,13,206,1830056,,,,,,,2024-12-23,1,,,,,イアスフチュウ,0
330,2013303007436,新規,0,2024-12-23,2024-12-23,合同会社和田事務所,,合同会社,東京都,豊島区,南長崎３丁目８－１４,,13,116,1710052,,,,,,,2024-12-23,1,,,,,ワダジムショ,0
338,2020003027499,新規,0,2024-12-23,2024-12-23,コモンズ合同会社,,合同会社,神奈川県,横浜市港南区,日限山１丁目７番７号,,14,111,2330015,,,,,,,2024-12-23,1,,,,,コモンズ,0
339,2020005016649,新規,0,2024-12-23,2024-12-23,一般社団法人ＡＫＵＴＡＧＡＷＡ　ＮＷ,,その他の設立登記法人,神奈川県,川崎市麻生区,上麻生５丁目４７番１号,,14,137,2150021,,,,,,,2024-12-23,1,,,,,アクタガワエヌダブリュー,0
342,2021001084061,新規,0,2024-12-23,2024-12-23,株式会社レアリザーレ,,株式会社,神奈川県,鎌倉市,御成町４番１６号,,14,204,2480012,,,,,,,2024-12-23,1,,,,,レアリザーレ,0
344,2021005013248,新規,0,2024-12-23,2024-12-23,特定非営利活動法人みんなのて,,その他の設立登記法人,神奈川県,秦野市,鶴巻北１丁目７番２３号,,14,211,2570001,,,,,,,2024-12-23,1,,,,,ミンナノテ,0
348,2030001164054,新規,0,2024-12-23,2024-12-23,株式会社ＴＲ　Ｗｏｒｋｓ,,株式会社,埼玉県,坂戸市,大字塚越４２２－７,,11,239,3500209,,,,,,,2024-12-23,1,,,,,ティーアールワークス,0
349,2030001164079,新規,0,2024-12-23,2024-12-23,株式会社色彩工房,,株式会社,埼玉県,草加市,氷川町５３２番地１３,,11,221,3400034,,,,,,,2024-12-23,1,,,,,シキサイコウボウ,0
350,2030001164087,新規,0,2024-12-23,2024-12-23,株式会社プラス・スリー,,株式会社,埼玉県,越谷市,南越谷１丁目１４番地１－４０２号,,11,222,3430845,,,,,,,2024-12-23,1,,,,,プラススリー,0
353,2030003025733,新規,0,2024-12-23,2024-12-23,ＫＨＡＮＧ　ＴＲＡＮＧ合同会社,,合同会社,埼玉県,越谷市,谷中町１丁目２０番地１クリーンハイツ１０２号,,11,222,3430856,,,,,,,2024-12-23,1,,,,,カンチャン,0
357,2040001136647,新規,0,2024-12-23,2024-12-23,レゾバティール株式会社,,株式会社,千葉県,成田市,不動ケ岡２１５９番地３,,12,211,2860044,,,,,,,2024-12-23,1,,,,,レゾバティール,0
367,2080103003221,新規,0,2024-12-23,2024-12-23,合同会社プロスパー,,合同会社,静岡県,駿東郡清水町,柿田３４６番地の１ディスカバリー柿田ＩＩ２０５,00137412,22,341,4110904,,,,,,,2024-12-23,1,,,,,プロスパー,0
370,2080401027640,新規,0,2024-12-23,2024-12-23,株式会社ＧＯＤＴＡＩＬ,,株式会社,静岡県,浜松市浜名区,三ヶ日町都筑３１０３番地の１プリオール浜名湖１１１７,,22,139,4311402,,,,,,,2024-12-23,1,,,,,ゴッテイル,0
375,2110001038927,新規,0,2024-12-23,2024-12-23,株式会社Ｅｎｖｉｓｉｏｎ,,株式会社,新潟県,新潟市江南区,北山１８９番地１３,,15,104,9500116,,,,,,,2024-12-23,1,,,,,エンビジョン,0
376,2110001038943,新規,0,2024-12-23,2024-12-23,株式会社ｅｎ,,株式会社,新潟県,新潟市中央区,東大通２丁目３番１５号,,15,103,9500087,,,,,,,2024-12-23,1,,,,,エン,0
377,2110001038951,新規,0,2024-12-23,2024-12-23,ｅｎｎプラス株式会社,,株式会社,新潟県,新潟市中央区,東大通２丁目８番４号,,15,103,9500087,,,,,,,2024-12-23,1,,,,,エンプラス,0
388,2120001271312,新規,0,2024-12-23,2024-12-23,株式会社Ｖａｌｕｅ,,株式会社,大阪府,大阪市西淀川区,中島１丁目３５番１５７－９号,,27,113,5550041,,,,,,,2024-12-23,1,,,,,バリュー,0
389,2120001271353,新規,0,2024-12-23,2024-12-23,株式会社ＰＩＮＫ　ＬＯＶＥ,,株式会社,大阪府,大阪市西成区,萩之茶屋２丁目８－３ハイツニューコンパ３０１号,,27,122,5570004,,,,,,,2024-12-23,1,,,,,ピンクラブ,0
390,2120001271361,新規,0,2024-12-23,2024-12-23,株式会社浩治会コンサルタンツ,,株式会社,大阪府,大阪市東成区,大今里西２丁目１７番１６号７階,,27,115,5370014,,,,,,,2024-12-23,1,,,,,コウチカイコンサルタンツ,0
391,2120001271394,新規,0,2024-12-23,2024-12-23,株式会社ミラクル,,株式会社,大阪府,大阪市平野区,加美北９丁目９番３０号,,27,126,5470001,,,,,,,2024-12-23,1,,,,,ミラクル,0
397,2120003028207,新規,0,2024-12-23,2024-12-23,セカンド合同会社,,合同会社,大阪府,大阪市東淀川区,菅原７丁目３番６号第一嵯峨ハイツ２１０号,,27,114,5330022,,,,,,,2024-12-23,1,,,,,セカンド,0
398,2120101070795,新規,0,2024-12-23,2024-12-23,株式会社藤商事,,株式会社,大阪府,松原市,北新町１丁目１３番１０号,,27,217,5800025,,,,,,,2024-12-23,1,,,,,フジショウジ,0
400,2122001038757,新規,0,2024-12-23,2024-12-23,株式会社ＡＲＣＨＳ,,株式会社,大阪府,大東市,三住町２番１４号,,27,218,5740027,,,,,,,2024-12-23,1,,,,,アークス,0
406,2130001078640,新規,0,2024-12-23,2024-12-23,株式会社ネルソン,,株式会社,京都府,京都市下京区,富小路通六条上る本塩竈町５３３－３,,26,106,6008119,,,,,,,2024-12-23,1,,,,,ネルソン,0
415,2140001136835,新規,0,2024-12-23,2024-12-23,アイティワード株式会社,,株式会社,兵庫県,神戸市東灘区,住吉宮町３丁目１４－１３,,28,101,6580053,,,,,,,2024-12-23,1,,,,,アイティワード,0
422,2140005027320,新規,0,2024-12-23,2024-12-23,医療法人社団森岡歯科医院,,その他の設立登記法人,兵庫県,小野市,黒川町１２番１号,,28,218,6751371,,,,,,,2024-12-23,1,,,,,モリオカシカイイン,0
425,2170003002140,新規,0,2024-12-23,2024-12-23,合同会社ｏｆｆｉｃｅＴＫ,,合同会社,和歌山県,田辺市,鮎川２４５２番地の１,,30,206,6461101,,,,,,,2024-12-23,1,,,,,オフィスティーケー,0
433,2180005020817,新規,0,2024-12-23,2024-12-23,一般社団法人むげんだい,,その他の設立登記法人,愛知県,海部郡飛島村,木場１丁目８８番地,,23,427,4901444,,,,,,,2024-12-23,1,,,,,ムゲンダイ,0
434,2180301039354,新規,0,2024-12-23,2024-12-23,Ｋ　ＷＯＮＳ株式会社,,株式会社,愛知県,豊田市,豊栄町１丁目８８番地,,23,211,4701201,,,,,,,2024-12-23,1,,,,,ケーワンズ,0
435,2180301039362,新規,0,2024-12-23,2024-12-23,株式会社ｃｒｏｓｓ,,株式会社,愛知県,安城市,井杭山町高見７番地１１,,23,212,4460074,,,,,,,2024-12-23,1,,,,,クロス,0
439,2200001043257,新規,0,2024-12-23,2024-12-23,ＲＣＯＲＥ株式会社,,株式会社,岐阜県,岐阜市,則武東４丁目２２番１２号,,21,201,5020929,,,,,,,2024-12-23,1,,,,,リコア,0
452,2270001009103,新規,0,2024-12-23,2024-12-23,株式会社スマートエネルギーとっとり,,株式会社,鳥取県,鳥取市,若葉台南２丁目１６番１号,,31,201,6891112,,,,,,,2024-12-23,1,,,,,スマートエネルギートットリ,0
464,2290801031139,新規,0,2024-12-23,2024-12-23,株式会社Ａｖｅｃ,,株式会社,福岡県,北九州市小倉北区,熊本１丁目１－３,,40,106,8020044,,,,,,,2024-12-23,1,,,,,アベック,0
466,2310001019378,新規,0,2024-12-23,2024-12-23,イアス長崎株式会社,,株式会社,長崎県,長崎市,赤迫３丁目１４番１０号,,42,201,8528156,,,,,,,2024-12-23,1,,,,,イアスナガサキ,0
478,2370005010880,新規,0,2024-12-23,2024-12-23,医療法人惺夏会,,その他の設立登記法人,宮城県,仙台市若林区,大和町４丁目２３番２４号,,04,103,9840042,,,,,,,2024-12-23,1,,,,,セイカカイ,0
493,2490001010922,新規,0,2024-12-23,2024-12-23,株式会社大野建築,,株式会社,高知県,高岡郡佐川町,加茂１４１１番地,,39,402,7891204,,,,,,,2024-12-23,1,,,,,オオノケンチク,0
495,2700150013092,新規,0,2024-12-23,2015-10-09,小机学童保育クラブ　こばとの家運営委員会,,その他,神奈川県,横浜市港北区,小机町１０１０－３,,14,109,2220036,,,,,,,2015-10-09,1,,,,,コヅクエガクドウホイククラブコバトノイエウンエイイインカイ,0
496,2700150128337,新規,0,2024-12-23,2024-12-23,Ｍｅｔａｃｏｒｅ　Ｇａｍｅｓ　Ｏｙ,,外国会社等,,,,,,,,Ｐｏｒｋｋａｌａｎｋａｔｕ　２４，Ｈｅｌｓｉｎｋｉ，００１８０　Ｆｉｎｌａｎｄ,,,,,,2024-12-23,1,,,,,メタコアゲームスオーワイ,0
503,3010001250846,新規,0,2024-12-23,2024-12-23,Ｐｒｏｄｕｃｔ　Ｌｉｆｅ　Ｊａｐａｎ株式会社,,株式会社,東京都,千代田区,丸の内１丁目９番２号グラントウキョウサウスタワー１１階,,13,101,1000005,,,,,,,2024-12-23,1,,,,,プロダクトライフジャパン,0
508,3010003045807,新規,0,2024-12-23,2024-12-23,合同会社ワイナギ商事,,合同会社,東京都,中央区,銀座１丁目１２番４号Ｎ＆ＥＢＬＤ．６Ｆ,,13,102,1040061,,,,,,,2024-12-23,1,,,,,ワイナギショウジ,0
509,3010003045831,新規,0,2024-12-23,2024-12-23,Ｔｈｅ　Ｐｅａｋ　Ｓｅｒｉｅｓ　ＩＸ合同会社,,合同会社,東京都,千代田区,四番町４番地９新東京国際リーガル内,,13,101,1020081,,,,,,,2024-12-23,1,,,,,ザピークシリーズナイン,0
511,3010101016461,新規,0,2024-12-23,2024-12-23,株式会社ルリアンヴェール,,株式会社,東京都,八王子市,元八王子町３丁目２２３０番地７,,13,201,1930826,,,,,,,2024-12-23,1,,,,,ルリアンヴェール,0
516,3010401187143,新規,0,2024-12-23,2024-12-23,株式会社Ｅｌｅｎａ,,株式会社,東京都,港区,白金台３丁目１１－７,,13,103,1080071,,,,,,,2024-12-23,1,,,,,エレナ,0
522,3010501053369,新規,0,2024-12-23,2024-12-23,株式会社長矢,,株式会社,東京都,台東区,浅草橋３丁目９番３ー１００１号,,13,106,1110053,,,,,,,2024-12-23,1,,,,,ナガヤ,0
523,3010601066502,新規,0,2024-12-23,2024-12-23,株式会社ＲＩ．Ｂａｎ．Ｉｎｆｉｂｉｌｉｔｉｓ,,株式会社,東京都,江東区,青海２丁目７－４ｔｈｅＳＯＨＯ８３９号室,,13,108,1350064,,,,,,,2024-12-23,1,,,,,リーバンインフィビリティス,0
526,3010801035686,新規,0,2024-12-23,2024-12-23,株式会社選挙と日々,,株式会社,東京都,大田区,下丸子３丁目２８番１号,,13,111,1460092,,,,,,,2024-12-23,1,,,,,センキョトヒビ,0
531,3011001166470,新規,0,2024-12-23,2024-12-23,株式会社ＥｉＬ　Ｍｕｓｉｃ,,株式会社,東京都,渋谷区,道玄坂１丁目１６－６二葉ビル８ｂ,,13,113,1500043,,,,,,,2024-12-23,1,,,,,エイルミュージック,0
532,3011001166520,新規,0,2024-12-23,2024-12-23,Ｕｅｄａ　Ｄｅｓｉｇｎ株式会社,,株式会社,東京都,渋谷区,渋谷３丁目２６番１６号第五叶ビル５Ｆｃｏ－ｂａｓｉｂｕｙａ,,13,113,1500002,,,,,,,2024-12-23,1,,,,,ウエダデザイン,0
533,3011001166529,新規,0,2024-12-23,2024-12-23,株式会社ＬＢＭ,,株式会社,東京都,渋谷区,神宮前１丁目２番８号,,13,113,1500001,,,,,,,2024-12-23,1,,,,,エルビーエム,0
534,3011001166561,新規,0,2024-12-23,2024-12-23,株式会社ＡＫＰ,,株式会社,東京都,渋谷区,道玄坂１丁目１０番８号渋谷道玄坂東急ビル２Ｆ－Ｃ,,13,113,1500043,,,,,,,2024-12-23,1,,,,,エーケーピー,0
535,3011001166578,新規,0,2024-12-23,2024-12-23,ケイトレーディング株式会社,,株式会社,東京都,渋谷区,恵比寿４丁目２０番４号グラススクエアＢ１－ＦＤ０４,,13,113,1500013,,,,,,,2024-12-23,1,,,,,ケイトレーディング,0
536,3011001166586,新規,0,2024-12-23,2024-12-23,株式会社ＤＩＧＤＩＧ,,株式会社,東京都,目黒区,上目黒２丁目２５－１３エムス東１０１,,13,110,1530051,,,,,,,2024-12-23,1,,,,,ディグディグ,0
537,3011001166628,新規,0,2024-12-23,2024-12-23,株式会社ＣＯＨＡＣＯ,,株式会社,東京都,目黒区,東が丘２丁目１３番２０号,,13,110,1520021,,,,,,,2024-12-23,1,,,,,コハコ,0
538,3011001166636,新規,0,2024-12-23,2024-12-23,株式会社Ｎｅｓｔｏｒｙ,,株式会社,東京都,渋谷区,桜丘町１５番１４号フジビル４０－７０８,,13,113,1500031,,,,,,,2024-12-23,1,,,,,ネストリー,0
539,3011001166652,新規,0,2024-12-23,2024-12-23,株式会社ｆｒｅｅｄ,,株式会社,東京都,渋谷区,円山町１０番１１号,,13,113,1500044,,,,,,,2024-12-23,1,,,,,フリード,0
540,3011001166660,新規,0,2024-12-23,2024-12-23,株式会社シェアハピ,,株式会社,東京都,渋谷区,恵比寿１丁目１３番１０－３０８号恵比寿壱番館,,13,113,1500013,,,,,,,2024-12-23,1,,,,,シェアハピ,0
541,3011001166669,新規,0,2024-12-23,2024-12-23,株式会社セカンドエフォート,,株式会社,東京都,渋谷区,初台１丁目４７番１号,,13,113,1510061,,,,,,,2024-12-23,1,,,,,セカンドエフォート,0
542,3011001166685,新規,0,2024-12-23,2024-12-23,レジーナ住宅株式会社,,株式会社,東京都,渋谷区,千駄ヶ谷３丁目２０番８号千駄ヶ谷Ｓ’ビル３階,,13,113,1510051,,,,,,,2024-12-23,1,,,,,レジーナジュウタク,0
543,3011003020618,新規,0,2024-12-23,2024-12-23,合同会社ａｒｔ　ｄｉ　ｐｏｅ,,合同会社,東京都,渋谷区,恵比寿西２丁目８－４ＥＸ恵比寿西ビル５階,,13,113,1500021,,,,,,,2024-12-23,1,,,,,アートディポー,0
544,3011003020650,新規,0,2024-12-23,2024-12-23,合同会社Ｖｏｌｏｎｔｅ,,合同会社,東京都,目黒区,青葉台１丁目１９番１２号ＥＳＣＥＮＡＲＩＯＡＯＢＡＤＡＩ－２０２,,13,110,1530042,,,,,,,2024-12-23,1,,,,,ヴォロンテ,0
545,3011101110007,新規,0,2024-12-23,2024-12-23,株式会社縁,,株式会社,東京都,新宿区,新宿１丁目３６番２号新宿第七葉山ビル３階,,13,104,1600022,,,,,,,2024-12-23,1,,,,,エン,0
548,3011301030244,新規,0,2024-12-23,2024-12-23,株式会社Ｕｒｂａｎ　Ｖａｌｕｅ,,株式会社,東京都,杉並区,高円寺南１丁目２５番１６号,,13,115,1660003,,,,,,,2024-12-23,1,,,,,アーバンバリュー,0
549,3011303005368,新規,0,2024-12-23,2024-12-23,Ｎ‐Ｓｉｍｐｌｉｃｉｔｙ合同会社,,合同会社,東京都,杉並区,松ノ木１丁目１２－３５－Ｂ３０６,,13,115,1660014,,,,,,,2024-12-23,1,,,,,,0
553,3011701027914,新規,0,2024-12-23,2024-12-23,和創築造株式会社,,株式会社,東京都,江戸川区,江戸川６丁目４０番１４－２０２号,,13,123,1340013,,,,,,,2024-12-23,1,,,,,ワソウチクゾウ,0
556,3011801045361,新規,0,2024-12-23,2024-12-23,株式会社漢道,,株式会社,東京都,足立区,竹の塚７丁目７－２１,,13,121,1210813,,,,,,,2024-12-23,1,,,,,オトコミチ,0
567,3020001160697,新規,0,2024-12-23,2024-12-23,株式会社黒崎ホールディングス,00137423,株式会社,神奈川県,川崎市川崎区,藤崎２丁目１８番１１－１１号,,14,131,2100804,,,,,,,2024-12-23,1,,,,,クロサキホールディングス,0
572,3020005016648,新規,0,2024-12-23,2024-12-23,医療法人ココヨコ,,その他の設立登記法人,神奈川県,横浜市西区,北幸１丁目７番６号日土地横浜西口第一ビル地下２階,,14,103,2200004,,,,,,,2024-12-23,1,,,,,ココヨコ,0
576,3021001084060,新規,0,2024-12-23,2024-12-23,ＭＢ．ｒｉｓｅ株式会社,,株式会社,神奈川県,相模原市緑区,下九沢２０２６番地５,,14,151,2520134,,,,,,,2024-12-23,1,,,,,エムビーピリオドライズ,0
578,3021003015377,新規,0,2024-12-23,2024-12-23,合同会社都二,,合同会社,神奈川県,横須賀市,ハイランド１丁目３３番１６号,,14,201,2390833,,,,,,,2024-12-23,1,,,,,トモニ,0
583,3030001164037,新規,0,2024-12-23,2024-12-23,株式会社岩崎商事,00137414,株式会社,埼玉県,行田市,長野３丁目１６番２６号,,11,206,3610023,,,,,,,2024-12-23,1,,,,,イワサキショウジ,0
584,3030001164078,新規,0,2024-12-23,2024-12-23,株式会社Ｒｅｖｅ,,株式会社,埼玉県,春日部市,内牧３１１９番地１県営春日部内牧団地１－４０６号,,11,214,3440051,,,,,,,2024-12-23,1,,,,,レーブ,0
585,3030001164086,新規,0,2024-12-23,2024-12-23,株式会社グレイス,,株式会社,埼玉県,さいたま市緑区,道祖土２丁目１６番１５号,,11,109,3360907,,,,,,,2024-12-23,1,,,,,グレイス,0
588,3030003025749,新規,0,2024-12-23,2024-12-23,ＭｕＭｕ合同会社,,合同会社,埼玉県,さいたま市大宮区,桜木町１丁目２３１永野マンションＩ－４０１,00137425,11,103,3300854,,,,,,,2024-12-23,1,,,,,ムム,0
594,3040001136621,新規,0,2024-12-23,2024-12-23,株式会社エイド,,株式会社,千葉県,千葉市中央区,浜野町６４４番地２シャンティ浜野Ｂ棟１０１号,,12,101,2600824,,,,,,,2024-12-23,1,,,,,エイド,0
595,3040001136687,新規,0,2024-12-23,2024-12-23,株式会社Ｏｎｆｅｅｔ,,株式会社,千葉県,松戸市,新松戸１丁目４５１番地,,12,207,2700034,,,,,,,2024-12-23,1,,,,,オンフィート,0
602,3060003005368,新規,0,2024-12-23,2024-12-23,合同会社ＳＵＮＳＨＩＮＥ,,合同会社,栃木県,小山市,大字喜沢２００－１ハモネト２－１０２,,09,208,3230014,,,,,,,2024-12-23,1,,,,,サンシャイン,0
619,3110001038942,新規,0,2024-12-23,2024-12-23,株式会社Ｒｉａｎ,,株式会社,新潟県,新潟市中央区,東大通２丁目１番７号松屋ビル１Ｆ,,15,103,9500087,,,,,,,2024-12-23,1,,,,,リアン,0
631,3120001271278,新規,0,2024-12-23,2024-12-23,株式会社ＯＬＣ,,株式会社,大阪府,大阪市西成区,天下茶屋１丁目４番１８号ＳＵＮ生一番館１０１号室,,27,122,5570014,,,,,,,2024-12-23,1,,,,,オウエルシー,0
632,3120001271286,新規,0,2024-12-23,2024-12-23,ＹＫプランニング株式会社,,株式会社,大阪府,大阪市城東区,関目５丁目２２番５－７０２号,,27,118,5360008,,,,,,,2024-12-23,1,,,,,ワイケイプランニング,0
633,3120001271303,新規,0,2024-12-23,2024-12-23,騰龍株式会社,,株式会社,大阪府,大阪市淀川区,十三元今里２丁目１２番２５－２０２号,,27,123,5320028,,,,,,,2024-12-23,1,,,,,トウリュウ,0
634,3120001271344,新規,0,2024-12-23,2024-12-23,本来生活株式会社,,株式会社,大阪府,大阪市淀川区,西中島７丁目２－１３－８０３号室,,27,123,5320011,,,,,,,2024-12-23,1,,,,,ホンライセイカツ,0
638,3120003028197,新規,0,2024-12-23,2024-12-23,合同会社ｙｏｕ＆Ｃｏ．,,合同会社,大阪府,大阪市中央区,北久宝寺町３丁目６－１サーブコープ本町南ガーデンシティ７階,,27,128,5410057,,,,,,,2024-12-23,1,,,,,ユーアンドコー,0
658,3170001018419,新規,0,2024-12-23,2024-12-23,ジャワン株式会社,,株式会社,和歌山県,和歌山市,三葛１１４番地７,,30,201,6410011,,,,,,,2024-12-23,1,,,,,ジャワン,0
667,3180303006376,新規,0,2024-12-23,2024-12-23,悟工業合同会社,,合同会社,愛知県,岡崎市,竜泉寺町字後山１１８番地２１,,23,202,4443524,,,,,,,2024-12-23,1,,,,,サトルコウギョウ,0
677,3230001020665,新規,0,2024-12-23,2024-12-23,株式会社Ｔｏｙｍａｋｅｒ,,株式会社,富山県,富山市,千石町４丁目３番５‐３０７号,,16,201,9300066,,,,,,,2024-12-23,1,,,,,トイメーカー,0
679,3240001064281,新規,0,2024-12-23,2024-12-23,株式会社ロコ＆マリ,,株式会社,広島県,廿日市市,串戸３丁目２番３０号,,34,213,7380033,,,,,,,2024-12-23,1,,,,,ロコアンドマリ,0
685,3270001009102,新規,0,2024-12-23,2024-12-23,ようこそようこそ株式会社,,株式会社,鳥取県,東伯郡湯梨浜町,大字筒地３５０番地２,,31,370,6890604,,,,,,,2024-12-23,1,,,,,ヨウコソヨウコソ,0
696,3290001108348,新規,0,2024-12-23,2024-12-23,株式会社ダブリュコーポレーション,,株式会社,福岡県,福岡市中央区,白金１丁目２番２１号,,40,133,8100012,,,,,,,2024-12-23,1,,,,,ダブリュコーポレーション,0
697,3290001108380,新規,0,2024-12-23,2024-12-23,株式会社ｓｗｅｌｌ,,株式会社,福岡県,福岡市城南区,松山２丁目４０番２４号,,40,136,8140131,,,,,,,2024-12-23,1,,,,,スウェル,0
698,3290001108389,新規,0,2024-12-23,2024-12-23,株式会社ＮＹエステート,,株式会社,福岡県,春日市,松ヶ丘１丁目２８番地,,40,218,8160843,,,,,,,2024-12-23,1,,,,,エヌワイエステート,0
704,3310001019377,新規,0,2024-12-23,2024-12-23,株式会社ビッドプログレス,,株式会社,長崎県,諫早市,中田町４７５番地,,42,204,8590313,,,,,,,2024-12-23,1,,,,,ビッドプログレス,0
714,3350005006277,新規,0,2024-12-23,2024-12-23,一般社団法人おがわ作小屋村,,その他の設立登記法人,宮崎県,児湯郡西米良村,大字小川２５４番地,,45,403,8811302,,,,,,,2024-12-23,1,,,,,オガワサクゴヤムラ,0
717,3360001034561,新規,0,2024-12-23,2024-12-23,株式会社マカナ,,株式会社,沖縄県,浦添市,仲間２丁目２０番８－３０３号第２武商マンション,,47,208,9012103,,,,,,,2024-12-23,1,,,,,マカナ,0
718,3360003014537,新規,0,2024-12-23,2024-12-23,合同会社城間測建,,合同会社,沖縄県,南城市,玉城字屋嘉部１２０番地４,,47,215,9010619,,,,,,,2024-12-23,1,,,,,シロマソッケン,0
719,3370003006863,新規,0,2024-12-23,2024-12-23,芳賀けんちく工房合同会社,,合同会社,宮城県,富谷市,明石台５丁目１８番地２７,,04,216,9813332,,,,,,,2024-12-23,1,,,,,ハガケンチクコウボウ,0
738,3440001009539,新規,0,2024-12-23,2024-12-23,イアス東山株式会社,,株式会社,北海道,函館市,東山町１４４番地３４,,01,202,0410834,,,,,,,2024-12-23,1,,,,,イアスヒガシヤマ,0
739,3450003002573,新規,0,2024-12-23,2024-12-23,Ｓｈｉｍｏｇｏｒｙｏ　Ｂａｓｅ合同会社,,合同会社,北海道,富良野市,字下御料,,01,229,0760017,,,,,,,2024-12-23,1,,,,,シモゴリョウベース,0
751,4010001250845,新規,0,2024-12-23,2024-12-23,株式会社ＣｌｅａｒＰａｔｈ,,株式会社,東京都,千代田区,神田須田町１丁目７番８号ＶＯＲＴ秋葉原ＩＶ２Ｆ,00137416,13,101,1010041,,,,,,,2024-12-23,1,,,,,クリアパス,0
758,4010003045830,新規,0,2024-12-23,2024-12-23,Ｔｈｅ　Ｐｅａｋ　Ｓｅｒｉｅｓ　ＶＩＩＩ合同会社,,合同会社,東京都,千代田区,四番町４番地９新東京国際リーガル内,,13,101,1020081,,,,,,,2024-12-23,1,,,,,ザピークシリーズエイト,0
773,4010403034045,新規,0,2024-12-23,2024-12-23,Ｍｏｎｔａｎａ　Ｆｕｒｎｉｔｕｒｅ　Ｊａｐａｎ合同会社,,合同会社,東京都,港区,赤坂２丁目１４番５号Ｄａｉｗａ赤坂ビル４階,,13,103,1070052,,,,,,,2024-12-23,1,,,,,モンタナファーニチャージャパン,0
774,4010501053384,新規,0,2024-12-23,2024-12-23,ｇ＆ｉコンサルティング株式会社,,株式会社,東京都,台東区,東上野１丁目１５番４号キスワイヤ御徒町ビル４階,,13,106,1100015,,,,,,,2024-12-23,1,,,,,ジーアンドアイコンサルティング,0
779,4010803005216,新規,0,2024-12-23,2024-12-23,合同会社金箱,,合同会社,東京都,大田区,山王２丁目２６番９号ドルチェ大森山王２０３,,13,111,1430023,,,,,,,2024-12-23,1,,,,,カネバコ,0
787,4011001166379,新規,0,2024-12-23,2024-12-23,株式会社文藝,,株式会社,東京都,渋谷区,道玄坂１丁目１０番８号渋谷道玄坂東急ビル２Ｆ－Ｃ,,13,113,1500043,,,,,,,2024-12-23,1,,,,,ブンゲイ,0
788,4011001166528,新規,0,2024-12-23,2024-12-23,株式会社レキップ・エンターテイメント,,株式会社,東京都,渋谷区,神宮前１丁目２番８号,,13,113,1500001,,,,,,,2024-12-23,1,,,,,レキップエンターテイメント,0
789,4011001166552,新規,0,2024-12-23,2024-12-23,ＭＩＹＡＫＯ株式会社,,株式会社,東京都,渋谷区,道玄坂１丁目１０番８号渋谷道玄坂東急ビル２Ｆ－Ｃ,,13,113,1500043,,,,,,,2024-12-23,1,,,,,ミヤコ,0
790,4011001166560,新規,0,2024-12-23,2024-12-23,株式会社ばける,,株式会社,東京都,渋谷区,恵比寿西２丁目８番４号,,13,113,1500021,,,,,,,2024-12-23,1,,,,,バケル,0
791,4011001166585,新規,0,2024-12-23,2024-12-23,株式会社元屋,,株式会社,東京都,渋谷区,恵比寿南２丁目１６番９号,,13,113,1500022,,,,,,,2024-12-23,1,,,,,ハジメヤ,0
792,4011001166593,新規,0,2024-12-23,2024-12-23,株式会社フロウライフメガネ,,株式会社,東京都,渋谷区,富ヶ谷１丁目３５番１５－３０１号,,13,113,1510063,,,,,,,2024-12-23,1,,,,,フロウライフメガネ,0
793,4011001166627,新規,0,2024-12-23,2024-12-23,株式会社ｓｕｚｕｍｅ,,株式会社,東京都,渋谷区,恵比寿１丁目６番１号グリーンハウス高橋２０３,,13,113,1500013,,,,,,,2024-12-23,1,,,,,スズメ,0
794,4011001166635,新規,0,2024-12-23,2024-12-23,Ｃｏｎｄｕｉｔ株式会社,,株式会社,東京都,渋谷区,神宮前６丁目２８番９号東武ビル５Ｆ,,13,113,1500001,,,,,,,2024-12-23,1,,,,,コンジット,0
795,4011001166643,新規,0,2024-12-23,2024-12-23,株式会社ＢＥＬＥＡＲ,,株式会社,東京都,渋谷区,神宮前２丁目２２－２ＦＯＬＤＢＬＤ．３階,,13,113,1500001,,,,,,,2024-12-23,1,,,,,ベリア,0
796,4011001166651,新規,0,2024-12-23,2024-12-23,株式会社ＪＯＩＮＡＮＤＪＯＩＮ　ＪＡＰＡＮ,,株式会社,東京都,渋谷区,神南１丁目１１－４ＦＰＧリンクス神南５階,,13,113,1500041,,,,,,,2024-12-23,1,,,,,ジョインアンドジョインジャパン,0
797,4011003020625,新規,0,2024-12-23,2024-12-23,合同会社ＲＵＮＡＩ,,合同会社,東京都,目黒区,祐天寺１丁目１５番１号ＤＷＥＬＬ祐天寺２Ｆ,,13,110,1530052,,,,,,,2024-12-23,1,,,,,ランエーアイ,0
798,4011003020641,新規,0,2024-12-23,2024-12-23,合同会社ＦＬＵＦＦＹ　ＤＯＧ,,合同会社,東京都,渋谷区,広尾２丁目９－１７,,13,113,1500012,,,,,,,2024-12-23,1,,,,,,0
799,4011005010797,新規,0,2024-12-23,2024-12-23,一般社団法人全国大麻商工業協議会,,その他の設立登記法人,東京都,渋谷区,恵比寿西２丁目４番８号ウィンド恵比寿ビル８Ｆ,,13,113,1500021,,,,,,,2024-12-23,1,,,,,ゼンコクタイマショウコウギョウキョウギカイ,0
807,4011101110014,新規,0,2024-12-23,2024-12-23,株式会社Ｒｉｏｔ,,株式会社,東京都,新宿区,西新宿７丁目７番地３３号新銘ビル２階,,13,104,1600023,,,,,,,2024-12-23,1,,,,,ライオット,0
816,4011605002624,新規,0,2024-12-23,2024-12-23,一般社団法人Ｂｅ‐ＭＵＳＩＣ,,その他の設立登記法人,東京都,練馬区,桜台６丁目２８番２号,,13,120,1760002,,,,,,,2024-12-23,1,,,,,ビーミュージック,0
817,4011703004068,新規,0,2024-12-23,2024-12-23,合同会社ＲＥＡＬ,,合同会社,東京都,江戸川区,南小岩８丁目１４番２１号,,13,123,1330056,,,,,,,2024-12-23,1,,,,,リアル,0
822,4012401042590,新規,0,2024-12-23,2024-12-23,株式会社Ｓｏｒａ　Ｐｒｏ,,株式会社,東京都,府中市,南町３丁目３０番地の１６,,13,206,1830026,,,,,,,2024-12-23,1,,,,,ソラプロ,0
832,4020001160622,新規,0,2024-12-23,2024-12-23,彦藤アセット株式会社,,株式会社,神奈川県,横浜市港北区,綱島上町１番地１,,14,109,2230055,,,,,,,2024-12-23,1,,,,,ヒコフジアセット,0
838,4020003027497,新規,0,2024-12-23,2024-12-23,合同会社Ｍｉｌｄｒｅｄ,,合同会社,神奈川県,横浜市西区,浅間町１丁目４番３号ウィザードビル４０２,,14,103,2200072,,,,,,,2024-12-23,1,,,,,ミルドレッド,0
842,4021001084068,新規,0,2024-12-23,2024-12-23,株式会社高杉工務店,00137424,株式会社,神奈川県,高座郡寒川町,宮山３３５－１ダイモンハイツ２０３,,14,321,2530106,,,,,,,2024-12-23,1,,,,,タカスギコウムテン,0
844,4021003015384,新規,0,2024-12-23,2024-12-23,合同会社オフィス佐助,,合同会社,神奈川県,鎌倉市,佐助１丁目１５番４－２号,,14,204,2480017,,,,,,,2024-12-23,1,,,,,オフィスサスケ,0
859,4030001164052,新規,0,2024-12-23,2024-12-23,株式会社古名屋,,株式会社,埼玉県,坂戸市,大字浅羽１５４８番地の１,,11,239,3500238,,,,,,,2024-12-23,1,,,,,コナヤ,0
860,4030001164060,新規,0,2024-12-23,2024-12-23,株式会社Ｌ‐ＫＩＮＤ,,株式会社,埼玉県,さいたま市緑区,芝原２丁目１６－６東浦和ガーデンプラザ壱番館１０５,,11,109,3360917,,,,,,,2024-12-23,1,,,,,エルカインド,0
861,4030001164077,新規,0,2024-12-23,2024-12-23,株式会社布瑠部,,株式会社,埼玉県,草加市,清門３丁目３５番地７ヴァレンチ２０５号,,11,221,3400055,,,,,,,2024-12-23,1,,,,,フルベ,0
864,4030003025731,新規,0,2024-12-23,2024-12-23,ＶＴ　ＫＡＮＴＯ合同会社,,合同会社,埼玉県,坂戸市,八幡２丁目２０８番地１６,,11,239,3500223,,,,,,,2024-12-23,1,,,,,ヴイティーカントー,0
865,4030003025748,新規,0,2024-12-23,2024-12-23,合同会社八福,,合同会社,埼玉県,さいたま市大宮区,土手町２丁目１５番地吉田ビル２階,,11,103,3300801,,,,,,,2024-12-23,1,,,,,ハチフク,0
866,4030003025756,新規,0,2024-12-23,2024-12-23,一東越谷合同会社,,合同会社,埼玉県,越谷市,東越谷６丁目２０５番地８,,11,222,3430023,,,,,,,2024-12-23,1,,,,,イットウコシガヤ,0
877,4040001136645,新規,0,2024-12-23,2024-12-23,株式会社ドリームチェイサー,,株式会社,千葉県,市川市,東大和田１丁目６番３－２０５号（ラフィーヌ本八幡）,,12,203,2720026,,,,,,,2024-12-23,1,,,,,ドリームチェイサー,0
878,4040001136661,新規,0,2024-12-23,2024-12-23,株式会社大永田電気,,株式会社,千葉県,野田市,春日町４７番地の２７,,12,208,2780052,,,,,,,2024-12-23,1,,,,,ダイナガタデンキ,0
880,4040003026448,新規,0,2024-12-23,2024-12-23,合同会社仲真,,合同会社,千葉県,八千代市,勝田台北３丁目２４番２３号アーバン村上２０１号,,12,221,2760020,,,,,,,2024-12-23,1,,,,,ナカマ,0
887,4070001042477,新規,0,2024-12-23,2024-12-23,株式会社ＴＯＮＥ,,株式会社,群馬県,高崎市,山名町１６１９番地５１,,10,202,3701213,,,,,,,2024-12-23,1,,,,,トーン,0
888,4070003005713,新規,0,2024-12-23,2024-12-23,ＡＲＴＥ合同会社,,合同会社,群馬県,伊勢崎市,稲荷町３３９番地１,,10,204,3720804,,,,,,,2024-12-23,1,,,,,アルテ,0
896,4080401027639,新規,0,2024-12-23,2024-12-23,株式会社ベンダーネクスト,,株式会社,静岡県,磐田市,藤上原４８１番地１,,22,211,4380001,,,,,,,2024-12-23,1,,,,,ベンダーネクスト,0
898,4100001038141,新規,0,2024-12-23,2024-12-23,株式会社Ｋｏｍｉｓｙｏｕ,,株式会社,長野県,長野市,真島町真島２７０番地２,,20,201,3812204,,,,,,,2024-12-23,1,,,,,コミショウ,0
899,4110001038941,新規,0,2024-12-23,2024-12-23,株式会社Ｉ‐ＬＩＮＫ,,株式会社,新潟県,新潟市中央区,花園１丁目２番２号コープシティ花園ガレッソ２Ｆ,,15,103,9500086,,,,,,,2024-12-23,1,,,,,アイリンク,0
909,4120001271351,新規,0,2024-12-23,2024-12-23,株式会社フレスカ,,株式会社,大阪府,大阪市中央区,上汐２丁目３番５号,,27,128,5420064,,,,,,,2024-12-23,1,,,,,フレスカ,0
910,4120001271401,新規,0,2024-12-23,2024-12-23,株式会社ｕｎｉｔｙ,,株式会社,大阪府,大阪市城東区,関目１丁目１３番１６号,,27,118,5360008,,,,,,,2024-12-23,1,,,,,ユニティ,0
914,4120003028213,新規,0,2024-12-23,2024-12-23,合同会社神高,,合同会社,大阪府,大阪市浪速区,幸町３丁目７番１５号,,27,111,5560021,,,,,,,2024-12-23,1,,,,,シンコウ,0
915,4120003028221,新規,0,2024-12-23,2024-12-23,組み込みプライム合同会社,,合同会社,大阪府,大阪市北区,梅田１丁目２番２号大阪駅前第２ビル１２－１２,,27,127,5300001,,,,,,,2024-12-23,1,,,,,クミコミプライム,0
916,4120101070793,新規,0,2024-12-23,2024-12-23,ＳＳバッテリー株式会社,,株式会社,大阪府,松原市,田井城４丁目８番２５号,,27,217,5800044,,,,,,,2024-12-23,1,,,,,エスエスバッテリー,0
924,4130001078606,新規,0,2024-12-23,2024-12-23,京個観光株式会社,,株式会社,京都府,京都市伏見区,竹田向代町５１番地の５京都自動車会館４階,,26,109,6128418,,,,,,,2024-12-23,1,,,,,キョウコカンコウ,0
925,4130003010087,新規,0,2024-12-23,2024-12-23,合同会社クラウド９,,合同会社,京都府,京都市下京区,西七条比輪田町３０番地ライジングコート京都西院フロンティアＩＩ２０６,00137411,26,106,6008882,,,,,,,2024-12-23,1,,,,,クラウドナイン,0
929,4140001136825,新規,0,2024-12-23,2024-12-23,株式会社タノシクト,,株式会社,兵庫県,加古川市,平岡町新在家２１６７－８,,28,210,6750101,,,,,,,2024-12-23,1,,,,,タノシクト,0
931,4140003021406,新規,0,2024-12-23,2024-12-23,合同会社エムニティー,,合同会社,兵庫県,宝塚市,中筋山手７丁目１セーリオ宝塚２－１０３,,28,214,6650875,,,,,,,2024-12-23,1,,,,,エムニティー,0
932,4140005027319,新規,0,2024-12-23,2024-12-23,医療法人社団涼淡会,,その他の設立登記法人,兵庫県,淡路市,志筑１８６０番地１,,28,226,6562131,,,,,,,2024-12-23,1,,,,,リョウタンカイ,0
933,4170003002139,新規,0,2024-12-23,2024-12-23,合同会社ＫＡＮＡＬ,,合同会社,和歌山県,橋本市,高野口町伏原１２０３番地,,30,203,6497202,,,,,,,2024-12-23,1,,,,,カナエル,0
937,4180001164632,新規,0,2024-12-23,2024-12-23,中部ＴＥＸ株式会社,,株式会社,愛知県,名古屋市中川区,富船町３丁目１番地の１,,23,110,4540823,,,,,,,2024-12-23,1,,,,,チュウブテックス,0
943,4180005020872,新規,0,2024-12-23,2024-12-23,一般社団法人女性起業家クリエーション協会,,その他の設立登記法人,愛知県,名古屋市中村区,名駅１丁目１番１号ＪＰタワー名古屋２１階,,23,105,4500002,,,,,,,2024-12-23,1,,,,,ジョセイキギョウカクリエーションキョウカイ,0
944,4180303006375,新規,0,2024-12-23,2024-12-23,合同会社よさそう,,合同会社,愛知県,岡崎市,洞町字向山２５番地２５,,23,202,4440008,,,,,,,2024-12-23,1,,,,,ヨサソウ,0
946,4190001031889,新規,0,2024-12-23,2024-12-23,株式会社きひら,,株式会社,三重県,北牟婁郡紀北町,島原３３９４番地,,24,543,5193203,,,,,,,2024-12-23,1,,,,,キヒラ,0
948,4200001043255,新規,0,2024-12-23,2024-12-23,株式会社ローカルプロパティマネジメント,,株式会社,岐阜県,岐阜市,鏡島西３丁目３番１３号,,21,201,5010123,,,,,,,2024-12-23,1,,,,,ローカルプロパティマネジメント,0
949,4200003006631,新規,0,2024-12-23,2024-12-23,高山開発合同会社,,合同会社,岐阜県,高山市,朝日町西洞字若林１６２８番地１６６,,21,203,5093314,,,,,,,2024-12-23,1,,,,,タカヤマカイハツ,0
956,4220003003916,新規,0,2024-12-23,2024-12-23,合同会社子どもの夢,,合同会社,石川県,金沢市,清川町１番１号,,17,201,9218032,,,,,,,2024-12-23,1,,,,,コドモノユメ,0
964,4250003003616,新規,0,2024-12-23,2024-12-23,ＭＯＮＤＡ　ＯＣＥＡＮＯ合同会社,,合同会社,山口県,下関市,豊浦町宇賀７８４９－１,,35,201,7500000,,,,,,,2024-12-23,1,,,,,モンダオセアーノ,0
965,4250005008968,新規,0,2024-12-23,2024-12-23,農事組合法人大畑農場,,その他の設立登記法人,山口県,長門市,渋木５１２番地２,,35,211,7594104,,,,,,,2024-12-23,1,,,,,オオハタノウジョウ,0
966,4260001039727,新規,0,2024-12-23,2024-12-23,株式会社クロスインフィニティ,,株式会社,岡山県,岡山市南区,芳泉４丁目５‐３６‐３,,33,104,7028027,,,,,,,2024-12-23,1,,,,,クロスインフィニティ,0
971,4290001108363,新規,0,2024-12-23,2024-12-23,株式会社ＬａｐｉｓＬａｚｕｌｉ,,株式会社,福岡県,大野城市,大城１丁目２４番２４号,,40,219,8160911,,,,,,,2024-12-23,1,,,,,ラピスラズリ,0
972,4290001108388,新規,0,2024-12-23,2024-12-23,株式会社ウメレイ,,株式会社,福岡県,福岡市東区,高美台４丁目３０番７号,,40,131,8110215,,,,,,,2024-12-23,1,,,,,ウメレイ,0
981,4310001019376,新規,0,2024-12-23,2024-12-23,株式会社ルーキス,,株式会社,長崎県,長崎市,若草町１１番１６号,,42,201,8528023,,,,,,,2024-12-23,1,,,,,ルーキス,0
987,4360001034453,新規,0,2024-12-23,2024-12-23,ＪＳＩＰ株式会社,,株式会社,沖縄県,沖縄市,中央１丁目７番８号２Ｆ,,47,211,9040004,,,,,,,2024-12-23,1,,,,,ジェイシップ,0
989,4370001052058,新規,0,2024-12-23,2024-12-23,つばめ株式会社,,株式会社,宮城県,仙台市太白区,緑ケ丘１丁目１０番１３号,,04,104,9820021,,,,,,,2024-12-23,1,,,,,ツバメ,0
991,4380003005913,新規,0,2024-12-23,2024-12-23,合同会社テイクバックタイム,,合同会社,福島県,福島市,松川町浅川字舘２１番地の１,,07,201,9601245,,,,,,,2024-12-23,1,,,,,テイクバックタイム,0
1002,4430003017093,新規,0,2024-12-23,2024-12-23,由樹写真合同会社,,合同会社,北海道,小樽市,稲穂５丁目７－６,,01,203,0470032,,,,,,,2024-12-23,1,,,,,ユキシャシン,0
1007,4490001010920,新規,0,2024-12-23,2024-12-23,株式会社ＳＥＮＳＨＩＮ,,株式会社,高知県,土佐市,高岡町丙５３２番地２,,39,205,7811103,,,,,,,2024-12-23,1,,,,,センシン,0
1009,4700150128335,新規,0,2024-12-23,2024-12-23,只見町布沢区,,その他,福島県,南会津郡只見町,大字布沢字片道１１４５－１,,07,367,9680607,,,,,,,2024-12-23,1,,,,,タダミマチフザワク,0
1013,5010001250737,新規,0,2024-12-23,2024-12-23,株式会社ＹＮ　ＨＯＬＤＩＮＧＳ,,株式会社,東京都,中央区,銀座１丁目１２番４号Ｎ＆ＥＢＬＤ．７階,,13,102,1040061,,,,,,,2024-12-23,1,,,,,ワイエヌホールディングス,0
1014,5010001250811,新規,0,2024-12-23,2024-12-23,株式会社ＩＧコンサルティング,,株式会社,東京都,千代田区,一番町２７番地２理工図書ビル６階,,13,101,1020082,,,,,,,2024-12-23,1,,,,,アイジーコンサルティング,0
1015,5010001250844,新規,0,2024-12-23,2024-12-23,株式会社ＳＣＣ,,株式会社,東京都,中央区,日本橋３丁目３番３号,,13,102,1030027,,,,,,,2024-12-23,1,,,,,エスシーシー,0
1016,5010001250869,新規,0,2024-12-23,2024-12-23,株式会社Ｉｎｔｅｒｎａｔｉｏｎａｌ　Ｔｅｎｎｉｓ　Ａｃａｄｅｍｙ,,株式会社,東京都,中央区,晴海３丁目１３番１号ＤＥＵＸＴＯＵＲＳＣＡＮＡＬ＆ＳＰＡＥＡＳＴ４６１７号室,,13,102,1040053,,,,,,,2024-12-23,1,,,,,インターナショナルテニスアカデミー,0
1017,5010001250885,新規,0,2024-12-23,2024-12-23,株式会社ＹＢＯ,,株式会社,東京都,中央区,晴海３丁目１３番１号ドゥ・トゥールイースト４７０１,,13,102,1040053,,,,,,,2024-12-23,1,,,,,ワイビーオー,0
1024,5010003045879,新規,0,2024-12-23,2024-12-23,東品川合同会社,,合同会社,東京都,千代田区,丸の内１丁目４番１号東京共同会計事務所内,,13,101,1000005,,,,,,,2024-12-23,1,,,,,ヒガシシナガワ,0
1032,5010401187141,新規,0,2024-12-23,2024-12-23,株式会社ｋｏｒｅｋｏｒｅ,,株式会社,東京都,港区,北青山２丁目９番１４号２Ｆ,,13,103,1070061,,,,,,,2024-12-23,1,,,,,コレコレ,0
1033,5010403034036,新規,0,2024-12-23,2024-12-23,１Ｏａｋ　Ｔｏｋｙｏ合同会社,,合同会社,東京都,港区,赤坂２丁目２１番４号－５０６Ａ－ｕｎｉｔ,,13,103,1070052,,,,,,,2024-12-23,1,,,,,ワンオークトウキョウ,0
1034,5010403034044,新規,0,2024-12-23,2024-12-23,Ｔｅｌｅｇｒａｐｈ　Ｈｏｌｄｉｎｇ合同会社,,合同会社,東京都,港区,白金台３丁目１０番１０号,,13,103,1080071,,,,,,,2024-12-23,1,,,,,テレグラフホールディング,0
1035,5010403034052,新規,0,2024-12-23,2024-12-23,ｏｂｖｉｏｕｓ合同会社,,合同会社,東京都,港区,北青山１丁目３番１号アールキューブ青山３階,,13,103,1070061,,,,,,,2024-12-23,1,,,,,オブヴィアス,0
1040,5010803005215,新規,0,2024-12-23,2024-12-23,合同会社ｅＫＤ,,合同会社,東京都,大田区,久が原３丁目１番１４号,,13,111,1460085,,,,,,,2024-12-23,1,,,,,イーケーデイー,0
1043,5011001166543,新規,0,2024-12-23,2024-12-23,Ｋｌｏｕｄｙｎｅｔ　Ｊａｐａｎ株式会社,,株式会社,東京都,目黒区,目黒１丁目３番２１号朝日目黒マンション２０３,,13,110,1530063,,,,,,,2024-12-23,1,,,,,クラウディネットジャパン,0
1044,5011001166584,新規,0,2024-12-23,2024-12-23,株式会社アポロ,,株式会社,東京都,目黒区,自由が丘２丁目１６番１２号ＲＪ３,,13,110,1520035,,,,,,,2024-12-23,1,,,,,アポロ,0
1045,5011001166592,新規,0,2024-12-23,2024-12-23,株式会社ＴＥＮ,,株式会社,東京都,渋谷区,渋谷２丁目１９－１５宮益坂ビルディング６０９,,13,113,1500002,,,,,,,2024-12-23,1,,,,,テン,0
1046,5011001166618,新規,0,2024-12-23,2024-12-23,株式会社カズエコーポレーション,,株式会社,東京都,渋谷区,恵比寿南１丁目１６番７号エビスツイン仁平５０１,,13,113,1500022,,,,,,,2024-12-23,1,,,,,カズエコーポレーション,0
1047,5011001166626,新規,0,2024-12-23,2024-12-23,株式会社はむとぱん,,株式会社,東京都,目黒区,鷹番２丁目５番２３号サンシティ鷹番２０２,,13,110,1520004,,,,,,,2024-12-23,1,,,,,ハムトパン,0
1048,5011001166634,新規,0,2024-12-23,2024-12-23,株式会社Ｗｉｄｅ　Ｐｏｃｋｅｔ,,株式会社,東京都,渋谷区,神宮前４丁目２８番４号１階３号室,,13,113,1500001,,,,,,,2024-12-23,1,,,,,ワイドポケット,0
1049,5011001166642,新規,0,2024-12-23,2024-12-23,株式会社あみの,,株式会社,東京都,渋谷区,神泉町１０番１５号アネックス神泉３０１,,13,113,1500045,,,,,,,2024-12-23,1,,,,,アミノ,0
1050,5011001166675,新規,0,2024-12-23,2024-12-23,株式会社ＡＹＵＲＡ,,株式会社,東京都,渋谷区,桜丘町２６－１セルリアンタワー１５階,,13,113,1500031,,,,,,,2024-12-23,1,,,,,アユラ,0
1051,5011001166683,新規,0,2024-12-23,2024-12-23,株式会社ｗｈｉｔｅｍａｐ,,株式会社,東京都,渋谷区,千駄ヶ谷５丁目１２番８号第６瑞穂ビル４Ｆ,,13,113,1510051,,,,,,,2024-12-23,1,,,,,ホワイトマップ,0
1053,5011003020640,新規,0,2024-12-23,2024-12-23,合同会社アネロコネクト,,合同会社,東京都,目黒区,下目黒３丁目７－８ガラ・ステージ目黒３０５,,13,110,1530064,,,,,,,2024-12-23,1,,,,,,0
1054,5011003020649,新規,0,2024-12-23,2024-12-23,Ｙａｍａｍｏｔｏ　Ｅｎｇｉｎｅｅｒ　Ｓｅｒｖｉｃｅ合同会社,,合同会社,東京都,渋谷区,道玄坂１丁目１０番８号渋谷道玄坂東急ビル２Ｆ－Ｃ,,13,113,1500043,,,,,,,2024-12-23,1,,,,,ヤマモトエンジニアサービス,0
1058,5011101109864,新規,0,2024-12-23,2024-12-23,ＯｎｅＣｌｉｃｋＤｏｃｔｏｒ株式会社,,株式会社,東京都,新宿区,戸山１丁目１５番１３号,,13,104,1620052,,,,,,,2024-12-23,1,,,,,ワンクリックドクター,0
1059,5011101109971,新規,0,2024-12-23,2024-12-23,株式会社ＮＡＮＲＩ,,株式会社,東京都,新宿区,西新宿８丁目３番３７号光栄ビル４０３,,13,104,1600023,,,,,,,2024-12-23,1,,,,,ナンリ,0
1060,5011101109996,新規,0,2024-12-23,2024-12-23,株式会社Ｖｉｓｉｏｎ　Ｌｉｎｋ,,株式会社,東京都,新宿区,新宿６丁目２７番３０号,,13,104,1600022,,,,,,,2024-12-23,1,,,,,ビジョンリンク,0
1061,5011101110005,新規,0,2024-12-23,2024-12-23,ＲｅＰａｔｈ株式会社,,株式会社,東京都,新宿区,西新宿５丁目８番２号惠徳ビル８０１号室,,13,104,1600023,,,,,,,2024-12-23,1,,,,,リパス,0
1068,5011401026677,新規,0,2024-12-23,2024-12-23,鴻安株式会社,,株式会社,東京都,板橋区,仲町３６－１－４０５号,,13,119,1730022,,,,,,,2024-12-23,1,,,,,コウアン,0
1069,5011401026693,新規,0,2024-12-23,2024-12-23,株式会社フィリアスＤ,,株式会社,東京都,板橋区,常盤台１丁目４４番１－２１２号,,13,119,1740071,,,,,,,2024-12-23,1,,,,,フィリアスディー,0
1084,5013301053545,新規,0,2024-12-23,2024-12-23,ＭＳＴＡＹ株式会社,,株式会社,東京都,豊島区,池袋３丁目５２番１２号,,13,116,1710014,,,,,,,2024-12-23,1,,,,,エムステイ,0
1095,5021001084059,新規,0,2024-12-23,2024-12-23,ＥＯＳ株式会社,,株式会社,神奈川県,大和市,中央林間４丁目２５番７号,,14,213,2420007,,,,,,,2024-12-23,1,,,,,イオス,0
1096,5021001084067,新規,0,2024-12-23,2024-12-23,ＬＩＦＥ　ＢＯＯＳＴ株式会社,,株式会社,神奈川県,高座郡寒川町,倉見２４７９番地２,,14,321,2530101,,,,,,,2024-12-23,1,,,,,ライフブースト,0
1100,5021003015383,新規,0,2024-12-23,2024-12-23,本間陽子バレエスクール合同会社,,合同会社,神奈川県,鎌倉市,由比ガ浜２丁目１９番２１号,,14,204,2480014,,,,,,,2024-12-23,1,,,,,ホンマヨウコバレエスクール,0
1103,5030001164010,新規,0,2024-12-23,2024-12-23,印象江南株式会社,,株式会社,埼玉県,川口市,西川口６丁目４－６第二荻島ビル２２６号室,,11,203,3320021,,,,,,,2024-12-23,1,,,,,インショウコウナン,0
1104,5030001164076,新規,0,2024-12-23,2024-12-23,株式会社アディオロリエベ,,株式会社,埼玉県,草加市,柳島町２８０番地１６,,11,221,3400033,,,,,,,2024-12-23,1,,,,,アディオロリエベ,0
1108,5030003025722,新規,0,2024-12-23,2024-12-23,Ｔｏｋｙｏ　Ｏｐｅｎｓｈｉｐ合同会社,,合同会社,埼玉県,熊谷市,弥藤吾１６０－６三合ビル１０２,,11,202,3600203,,,,,,,2024-12-23,1,,,,,トウキョウオープンシップ,0
1109,5030003025747,新規,0,2024-12-23,2024-12-23,合同会社Ｄ．Ｔ．Ｒ．Ｉ,,合同会社,埼玉県,戸田市,下戸田２丁目３２－１３三栄わらびハイツ３１１号,,11,224,3350011,,,,,,,2024-12-23,1,,,,,ディーティーアールアイ,0
1112,5040001136669,新規,0,2024-12-23,2024-12-23,ＤｏｏｒＣｒａｗｌ株式会社,,株式会社,千葉県,柏市,若柴１７８番地４柏の葉キャンパス１４８街区１パークシティ柏の葉キャンパスザ・ゲートタワーウェスト３階,,12,217,2770871,,,,,,,2024-12-23,1,,,,,ドアクロール,0
1113,5040001136685,新規,0,2024-12-23,2024-12-23,株式会社いちごの杜,,株式会社,千葉県,香取市,大角１７３０番地１,,12,236,2890425,,,,,,,2024-12-23,1,,,,,イチゴノモリ,0
1114,5040003026430,新規,0,2024-12-23,2024-12-23,しろ合同会社,,合同会社,千葉県,市原市,郡本４丁目１２５番地３,,12,219,2900013,,,,,,,2024-12-23,1,,,,,シロ,0
1115,5040003026439,新規,0,2024-12-23,2024-12-23,オレンジカンパニー合同会社,,合同会社,千葉県,木更津市,新田１丁目１番３６号バードピア新田Ｃ棟１０１号室,,12,206,2920832,,,,,,,2024-12-23,1,,,,,オレンジカンパニー,0
1116,5050003008898,新規,0,2024-12-23,2024-12-23,ＮＩＨＯＮ　ＴＲ　ＩＮＴＥＲＮＡＴＩＯＮＡＬ合同会社,,合同会社,茨城県,下妻市,古沢４番地１,,08,210,3040041,,,,,,,2024-12-23,1,,,,,ニホンティーアールインターナショナル,0
1118,5060001037758,新規,0,2024-12-23,2024-12-23,株式会社ＭＯＲＩ工業,,株式会社,栃木県,鹿沼市,千渡１７８４番地３５,,09,205,3220002,,,,,,,2024-12-23,1,,,,,モリコウギョウ,0
1123,5070003005712,新規,0,2024-12-23,2024-12-23,合同会社たむや,,合同会社,群馬県,吾妻郡中之条町,大字折田２２３９番地１,,10,421,3770433,,,,,,,2024-12-23,1,,,,,タムヤ,0
1124,5080001026676,新規,0,2024-12-23,2024-12-23,株式会社Ｓｕｒｖｅｙ　Ｌｉｆｅ,,株式会社,静岡県,静岡市葵区,城北１０６番地の１,,22,101,4200805,,,,,,,2024-12-23,1,,,,,サーベイライフ,0
1127,5080401027638,新規,0,2024-12-23,2024-12-23,株式会社Ｅ‐ＣＲＥＡＸ,,株式会社,静岡県,浜松市中央区,神ケ谷町７８４０番地,,22,138,4328005,,,,,,,2024-12-23,1,,,,,イークレアス,0
1130,5110001038932,新規,0,2024-12-23,2024-12-23,グローバルエクスポート株式会社,,株式会社,新潟県,新潟市中央区,南笹口１丁目１番３８号コープオリンピア８０８,,15,103,9500912,,,,,,,2024-12-23,1,,,,,グローバルエクスポート,0
1131,5110001038940,新規,0,2024-12-23,2024-12-23,株式会社Ｔｕｔｔｏｂｅｎｅ,,株式会社,新潟県,新潟市中央区,米山１丁目１番２６号ＴＯＭＯＳ米山２０１号,,15,103,9500916,,,,,,,2024-12-23,1,,,,,トゥットベーネ,0
1137,5120001271276,新規,0,2024-12-23,2024-12-23,米芸株式会社,,株式会社,大阪府,大阪市生野区,生野東２丁目７番１６号,,27,116,5440025,,,,,,,2024-12-23,1,,,,,ミーイー,0
1138,5120001271301,新規,0,2024-12-23,2024-12-23,株式会社Ｂｒｉｌｌｏ　Ｃｒｅａｔｉｖｅ　Ｃｏｍｐａｎｙ,,株式会社,大阪府,大阪市阿倍野区,旭町３丁目１番２－２０４号,,27,119,5450051,,,,,,,2024-12-23,1,,,,,ブリジオクリエイティブカンパニー,0
1139,5120001271334,新規,0,2024-12-23,2024-12-23,株式会社笑覚,,株式会社,大阪府,大阪市中央区,瓦町４丁目３番９号ユーロハイツ５０３号室,,27,128,5410048,,,,,,,2024-12-23,1,,,,,エガク,0
1140,5120001271342,新規,0,2024-12-23,2024-12-23,株式会社Ｐｒｉｍｅ,,株式会社,大阪府,大阪市北区,梅田１丁目１－３大阪駅前第３ビル２９階１－１－１号室,,27,127,5300001,,,,,,,2024-12-23,1,,,,,プライム,0
1144,5120901050201,新規,0,2024-12-23,2024-12-23,株式会社森沢電気,,株式会社,大阪府,吹田市,金田町２６番１９号,,27,205,5640045,,,,,,,2024-12-23,1,,,,,モリサワデンキ,0
1146,5122003003070,新規,0,2024-12-23,2024-12-23,福韻合同会社,,合同会社,大阪府,東大阪市,水走１丁目３－４５、２０４室,,27,227,5780921,,,,,,,2024-12-23,1,,,,,フクイン,0
1147,5130001078638,新規,0,2024-12-23,2024-12-23,林猫株式会社,,株式会社,京都府,京都市下京区,西新屋敷下之町１２番１,,26,106,6008829,,,,,,,2024-12-23,1,,,,,ハヤシネコ,0
1148,5130003010086,新規,0,2024-12-23,2024-12-23,ＭＩＮＨ　ＱＵＡＮ合同会社,,合同会社,京都府,京都市伏見区,深草泓ノ壺町１１番９号プレーアル伏見深草ＩＩ１０３,00137422,26,109,6128435,,,,,,,2024-12-23,1,,,,,ミンクアン,0
1155,5140001136799,新規,0,2024-12-23,2024-12-23,アグリテックファーム株式会社,,株式会社,兵庫県,淡路市,中田３９８６番地３,,28,226,6562163,,,,,,,2024-12-23,1,,,,,アグリテックファーム,0
1157,5140003021438,新規,0,2024-12-23,2024-12-23,合同会社ＭａＨａＮａ,,合同会社,兵庫県,姫路市,飾磨区思案橋１０－７,,28,201,6728075,,,,,,,2024-12-23,1,,,,,マハナ,0
1159,5140005027318,新規,0,2024-12-23,2024-12-23,医療法人社団真永会,,その他の設立登記法人,兵庫県,神戸市中央区,三宮町１丁目７番１８号Ｍ．Ｈ．ＢＬＤＧ．３Ｆ,,28,110,6500021,,,,,,,2024-12-23,1,,,,,シンエイカイ,0
1160,5160001026412,新規,0,2024-12-23,2024-12-23,株式会社ＦＬＹＨＥＩＴ,,株式会社,滋賀県,甲賀市,甲南町池田２２８７番地１,,25,209,5203302,,,,,,,2024-12-23,1,,,,,フライハイト,0
1165,5180001164648,新規,0,2024-12-23,2024-12-23,株式会社ＭＡＳｉｔコンサルティング,,株式会社,愛知県,名古屋市中区,丸の内３丁目２１番２１号丸の内東桜ビル９０３号,,23,106,4600002,,,,,,,2024-12-23,1,,,,,マシットコンサルティング,0
1169,5180005020863,新規,0,2024-12-23,2024-12-23,行政書士法人Ｋｏｋｏｒｏ　Ｉｎｔｅｒｎａｔｉｏｎａｌ,,その他の設立登記法人,愛知県,名古屋市中村区,椿町１４番１３号ウエストポイント６Ｆ,,23,105,4530015,,,,,,,2024-12-23,1,,,,,ココロインターナショナル,0
1174,5200001043254,新規,0,2024-12-23,2024-12-23,株式会社石黒産業,,株式会社,岐阜県,大垣市,綾野２丁目１５番地１,,21,202,5030984,,,,,,,2024-12-23,1,,,,,イシグロサンギョウ,0
1177,5230001020671,新規,0,2024-12-23,2024-12-23,ＨＡＩトランスポート株式会社,,株式会社,富山県,富山市,今市１２７４番地,,16,201,9302221,,,,,,,2024-12-23,1,,,,,エイチエーアイトランスポート,0
1183,5250003003615,新規,0,2024-12-23,2024-12-23,合同会社アシスト,,合同会社,山口県,宇部市,東平原１丁目１１番４－１号,,35,202,7550807,,,,,,,2024-12-23,1,,,,,アシスト,0
1193,5290003016209,新規,0,2024-12-23,2024-12-23,ヒカリテラス合同会社,,合同会社,福岡県,福岡市博多区,博多駅前４丁目１８－２５エスリードグランビューロー博多駅前９１０,,40,132,8120011,,,,,,,2024-12-23,1,,,,,ヒカリテラス,0
1196,5300005007220,新規,0,2024-12-23,2024-12-23,一般社団法人佐賀県強度行動障害支援推進協議会,,その他の設立登記法人,佐賀県,佐賀市,高木瀬東５丁目１８番８号,,41,201,8490922,,,,,,,2024-12-23,1,,,,,サガケンキョウドコウドウショウガイシエンスイシンキョウギカイ,0
1197,5310001019375,新規,0,2024-12-23,2024-12-23,株式会社司工業,,株式会社,長崎県,西海市,西彼町平山郷２番地７,,42,212,8513425,,,,,,,2024-12-23,1,,,,,ツカサコウギョウ,0
1200,5340003004694,新規,0,2024-12-23,2024-12-23,合同会社潮騒,,合同会社,鹿児島県,いちき串木野市,大里６２４３番地,,46,219,8992103,,,,,,,2024-12-23,1,,,,,シオサイ,0
1202,5370005010878,新規,0,2024-12-23,2024-12-23,医療法人緑生会,,その他の設立登記法人,宮城県,仙台市太白区,あすと長町１丁目３番１号ＳＨＩＰ仙台ビル２Ｆ,,04,104,9820007,,,,,,,2024-12-23,1,,,,,リョクセイカイ,0
1221,6010001250892,新規,0,2024-12-23,2024-12-23,悟空株式会社,,株式会社,東京都,中央区,日本橋蛎殻町１丁目３０－１１ヨートービル４０１号,,13,102,1030014,,,,,,,2024-12-23,1,,,,,ゴクウ,0
1228,6010003045861,新規,0,2024-12-23,2024-12-23,合同会社エフ・エス・エス,,合同会社,東京都,中央区,日本橋箱崎町４１－４エクセリア日本橋箱崎２０２号室,,13,102,1030015,,,,,,,2024-12-23,1,,,,,エフエスエス,0
1231,6010005039283,新規,0,2024-12-23,2024-12-23,アストロ２特定目的会社,,その他の設立登記法人,東京都,中央区,銀座１丁目６番１１号アースタックス税理士法人内,,13,102,1040061,,,,,,,2024-12-23,1,,,,,アストロツー,0
1240,6010401187140,新規,0,2024-12-23,2024-12-23,株式会社ごり‐やく,,株式会社,東京都,港区,三田３丁目４番１５－９０３号,,13,103,1080073,,,,,,,2024-12-23,1,,,,,ゴリーヤク,0
1241,6010403034035,新規,0,2024-12-23,2024-12-23,合同会社Ｒｅｒａｉｎ,,合同会社,東京都,港区,浜松町２丁目２－１５浜松町ダイヤビル２Ｆ,,13,103,1050013,,,,,,,2024-12-23,1,,,,,リレイン,0
1243,6010501053291,新規,0,2024-12-23,2024-12-23,株式会社銘沢,,株式会社,東京都,台東区,上野６丁目７－１６川久保ビル７１８号室,,13,106,1100005,,,,,,,2024-12-23,1,,,,,メイタク,0
1246,6010601066499,新規,0,2024-12-23,2024-12-23,ＡＩ　Ｆａｒｍ株式会社,,株式会社,東京都,江東区,豊洲５丁目１－１３,,13,108,1350061,,,,,,,2024-12-23,1,,,,,エーアイファーム,0
1253,6011001166526,新規,0,2024-12-23,2024-12-23,ＵＴＡＫＡＮＡ　ＭＵＳＩＣ＆ＡＲＴＳ株式会社,,株式会社,東京都,渋谷区,渋谷２丁目１９－１５宮益坂ビルディング６０９,,13,113,1500002,,,,,,,2024-12-23,1,,,,,ウタカナミュージックアンドアーツ,0
1254,6011001166534,新規,0,2024-12-23,2024-12-23,渡辺ファーマケア株式会社,,株式会社,東京都,渋谷区,神宮前６丁目２３番４号,,13,113,1500001,,,,,,,2024-12-23,1,,,,,ワタナベファーマケア,0
1255,6011001166583,新規,0,2024-12-23,2024-12-23,株式会社ＫＯＵ　ｃｒｅａｔｉｖｅ,,株式会社,東京都,渋谷区,神泉町２２番３号－８０６,,13,113,1500045,,,,,,,2024-12-23,1,,,,,コウクリエイティブ,0
1256,6011001166591,新規,0,2024-12-23,2024-12-23,株式会社コーチオブコーチ,,株式会社,東京都,渋谷区,神宮前２丁目１３番１８号,,13,113,1500001,,,,,,,2024-12-23,1,,,,,コーチオブコーチ,0
1257,6011001166600,新規,0,2024-12-23,2024-12-23,メディクタ株式会社,,株式会社,東京都,渋谷区,円山町５番５号Ｎａｖｉ渋谷Ｖ３階,,13,113,1500044,,,,,,,2024-12-23,1,,,,,,0
1258,6011001166617,新規,0,2024-12-23,2024-12-23,株式会社Ｃｙｓ,,株式会社,東京都,渋谷区,神山町１０番４－４０１号ルーエ渋谷神山町,,13,113,1500047,,,,,,,2024-12-23,1,,,,,シーワイエス,0
1259,6011001166674,新規,0,2024-12-23,2024-12-23,株式会社ＶＩ‐Ｓｍｉｌｅ,,株式会社,東京都,渋谷区,円山町５番５号Ｎａｖｉ渋谷Ｖ３階,,13,113,1500044,,,,,,,2024-12-23,1,,,,,,0
1260,6011001166682,新規,0,2024-12-23,2024-12-23,株式会社Ｒｕｎｗｅｌｌ,,株式会社,東京都,渋谷区,神泉町１０番１５号アネックス神泉３０１,,13,113,1500045,,,,,,,2024-12-23,1,,,,,ランウェル,0
1261,6011003020615,新規,0,2024-12-23,2024-12-23,合同会社彩晴,,合同会社,東京都,渋谷区,神南１丁目１１－４ＦＰＧリンクス神南５階,,13,113,1500041,,,,,,,2024-12-23,1,,,,,イロハ,0
1264,6011101109995,新規,0,2024-12-23,2024-12-23,株式会社ミヤハラ企画室,,株式会社,東京都,新宿区,北新宿４丁目３５番３号ドルミ東中野２０２号,,13,104,1690074,,,,,,,2024-12-23,1,,,,,ミヤハラキカクシツ,0
1265,6011203004558,新規,0,2024-12-23,2024-12-23,合同会社サンクチュアリ,,合同会社,東京都,中野区,東中野１丁目５７番７号,,13,114,1640003,,,,,,,2024-12-23,1,,,,,サンクチュアリ,0
1266,6011401026684,新規,0,2024-12-23,2024-12-23,株式会社リバーストーン,,株式会社,東京都,板橋区,大谷口上町１５番１０号,,13,119,1730032,,,,,,,2024-12-23,1,,,,,リバーストーン,0
1270,6011603004554,新規,0,2024-12-23,2024-12-23,合同会社ＳＹグループ,,合同会社,東京都,練馬区,大泉町２丁目３８－２１,,13,120,1780062,,,,,,,2024-12-23,1,,,,,エスワイグループ,0
1277,6011801045342,新規,0,2024-12-23,2024-12-23,ＯｐｅｎＣＢ株式会社,,株式会社,東京都,足立区,保木間５丁目２７－７,,13,121,1210064,,,,,,,2024-12-23,1,,,,,オープンシービー,0
1279,6012703003157,新規,0,2024-12-23,2024-12-23,合同会社こしの,,合同会社,東京都,西東京市,ひばりが丘２丁目６番２７号,,13,229,2020001,,,,,,,2024-12-23,1,,,,,コシノ,0
1286,6013301053560,新規,0,2024-12-23,2024-12-23,啓明株式会社,,株式会社,東京都,豊島区,北大塚３丁目２７－１０,,13,116,1700004,,,,,,,2024-12-23,1,,,,,ケイメイ,0
1300,6020005016645,新規,0,2024-12-23,2024-12-23,特定非営利活動法人よこはま教育相談センター,,その他の設立登記法人,神奈川県,横浜市旭区,若葉台４丁目３５番１号,,14,112,2410801,,,,,,,2024-12-23,1,,,,,ヨコハマキョウイクソウダンセンター,0
1302,6021005013244,新規,0,2024-12-23,2024-12-23,一般社団法人血糖値コントロールサポート協会,,その他の設立登記法人,神奈川県,相模原市南区,相模台２丁目２番２号ガーデンビルＩＩ３階フェルゴ内,00137420,14,153,2520321,,,,,,,2024-12-23,1,,,,,ケットウチコントロールサポートキョウカイ,0
1311,6030001164050,新規,0,2024-12-23,2024-12-23,株式会社ＦＣＳ　ＲＩＳＩＮＧ,,株式会社,埼玉県,さいたま市北区,吉野町１丁目３３９番地３３,,11,102,3310811,,,,,,,2024-12-23,1,,,,,エフシーエスライジング,0
1312,6030003025746,新規,0,2024-12-23,2024-12-23,合同会社Ｂｒｉｄｇｅ　ａｎｄ,,合同会社,埼玉県,蕨市,塚越２丁目１６－１１イルレガーロ１０３,,11,223,3350002,,,,,,,2024-12-23,1,,,,,ブリッジアンド,0
1313,6030003025754,新規,0,2024-12-23,2024-12-23,合同会社ＤＥＳＩＧＮＳ　ＦＬＡＧＳ,,合同会社,埼玉県,さいたま市桜区,西堀７丁目１６番１－２号ゲハイムバーシスＢ２,,11,106,3380832,,,,,,,2024-12-23,1,,,,,デザインズフラッグス,0
1331,6080101025206,新規,0,2024-12-23,2024-12-23,エステート杉山株式会社,,株式会社,静岡県,富士市,蓼原７０３番地の１,,22,210,4160931,,,,,,,2024-12-23,1,,,,,エステートスギヤマ,0
1342,6120001271093,新規,0,2024-12-23,2024-12-23,中晟アウトドア科技株式会社,,株式会社,大阪府,大阪市北区,南森町１丁目１番１－２１３号,,27,127,5300054,,,,,,,2024-12-23,1,,,,,チュウセイアウトドアカギ,0
1343,6120003028203,新規,0,2024-12-23,2024-12-23,エムサン松山合同会社,,合同会社,大阪府,大阪市北区,兎我野町３番８号寿楽ビル８０３室,,27,127,5300056,,,,,,,2024-12-23,1,,,,,エムサンマツヤマ,0
1351,6130001078637,新規,0,2024-12-23,2024-12-23,大覚株式会社,,株式会社,京都府,京都市右京区,嵯峨一本木町４０番地９,,26,108,6168354,,,,,,,2024-12-23,1,,,,,ダイカク,0
1352,6130001078645,新規,0,2024-12-23,2024-12-23,株式会社田中工業所,,株式会社,京都府,京都市伏見区,小栗栖小阪町２４番地,,26,109,6011455,,,,,,,2024-12-23,1,,,,,タナカコウギョウショ,0
1354,6140001136815,新規,0,2024-12-23,2024-12-23,株式会社エヌファム,,株式会社,兵庫県,神戸市中央区,磯辺通１丁目１番１８号カサベラ国際プラザビル７０７号室,,28,110,6510084,,,,,,,2024-12-23,1,,,,,エヌファム,0
1358,6140005027317,新規,0,2024-12-23,2024-12-23,医療法人社団博祐会,,その他の設立登記法人,兵庫県,三田市,あかしあ台５丁目３２番１ウッディ殿ビル３階３０３号室,,28,219,6691323,,,,,,,2024-12-23,1,,,,,ハクユウカイ,0
1360,6160003003359,新規,0,2024-12-23,2024-12-23,合同会社那須建物管理,,合同会社,滋賀県,長浜市,宮司町９２１番地,,25,203,5260831,,,,,,,2024-12-23,1,,,,,ナスタテモノカンリ,0
1371,6180005020862,新規,0,2024-12-23,2024-12-23,特定非営利活動法人スリランカ日本文化経済交流協会,,その他の設立登記法人,愛知県,稲沢市,附島町郷前１０－１,,23,220,4928442,,,,,,,2024-12-23,1,,,,,スリランカニホンブンカケイザイコウリュウキョウカイ,0
1374,6190001031879,新規,0,2024-12-23,2024-12-23,株式会社キング観光ホールディングス,,株式会社,三重県,桑名市,中央町１丁目９６番地,,24,205,5110068,,,,,,,2024-12-23,1,,,,,キングカンコウホールディングス,0
1384,6240003006989,新規,0,2024-12-23,2024-12-23,合同会社ニュージャパンビルメンテナンス,,合同会社,広島県,広島市南区,西霞町４番１８号,,34,103,7340044,,,,,,,2024-12-23,1,,,,,ニュージャパンビルメンテナンス,0
1388,6260001039725,新規,0,2024-12-23,2024-12-23,株式会社たね火,,株式会社,岡山県,倉敷市,白楽町３２４番地１アルファスマート白楽町９０３号,,33,202,7100824,,,,,,,2024-12-23,1,,,,,タネビ,0
1389,6270003001698,新規,0,2024-12-23,2024-12-23,合同会社ＦｏｏｄＰａｒｋ,,合同会社,鳥取県,米子市,皆生４丁目１－１４,,31,202,6830003,,,,,,,2024-12-23,1,,,,,フードパーク,0
1403,6290003016208,新規,0,2024-12-23,2024-12-23,合同会社アクティブ,,合同会社,福岡県,太宰府市,梅香苑４丁目１６番３０号シャトー和桂美１０１号,,40,221,8180124,,,,,,,2024-12-23,1,,,,,アクティブ,0
1408,6310001019374,新規,0,2024-12-23,2024-12-23,株式会社ぽると総本舗,,株式会社,長崎県,佐世保市,本島町４番１９号,,42,202,8570871,,,,,,,2024-12-23,1,,,,,ポルトソウホンポ,0
1409,6320001020868,新規,0,2024-12-23,2024-12-23,高倉サポート株式会社,00137421,株式会社,大分県,大分市,大字八幡１７５４番地の２,,44,201,8700100,,,,,,,2024-12-23,1,,,,,タカクラサポート,0
1413,6340005009798,新規,0,2024-12-23,2024-12-23,特定非営利活動法人ゆらり,,その他の設立登記法人,鹿児島県,鹿児島市,本名町１６８８番地４,,46,201,8911304,,,,,,,2024-12-23,1,,,,,ユラリ,0
1414,6350003004809,新規,0,2024-12-23,2024-12-23,合同会社Ｇｌｏｒｉａ,,合同会社,宮崎県,宮崎市,東宮２丁目２２５番地,,45,201,8800928,,,,,,,2024-12-23,1,,,,,グロリア,0
1416,6360001034559,新規,0,2024-12-23,2024-12-23,株式会社タイキコーポレーション,,株式会社,沖縄県,浦添市,仲西１丁目１６番１号,,47,208,9012125,,,,,,,2024-12-23,1,,,,,タイキコーポレーション,0
1417,6360001034567,新規,0,2024-12-23,2024-12-23,株式会社Ａｇｅ　Ｈｕｎｄｒｅｄ,,株式会社,沖縄県,那覇市,壺川１丁目１７番２－７０１号エンゼルハイム壺川,,47,201,9000025,,,,,,,2024-12-23,1,,,,,エイジハンドレッド,0
1419,6370001052056,新規,0,2024-12-23,2024-12-23,株式会社オールイン,,株式会社,宮城県,宮城郡利府町,森郷字大窪南１２番地３,,04,406,9810103,,,,,,,2024-12-23,1,,,,,オールイン,0
1422,6400003003367,新規,0,2024-12-23,2024-12-23,ワイドゴー合同会社,,合同会社,岩手県,盛岡市,茶畑１丁目１９番２号,,03,201,0200822,,,,,,,2024-12-23,1,,,,,ワイドゴー,0
1426,6430001093317,新規,0,2024-12-23,2024-12-23,エスケーシー株式会社,,株式会社,北海道,札幌市豊平区,美園四条７丁目２番１９号,,01,105,0620004,,,,,,,2024-12-23,1,,,,,エスケーシー,0
1428,6430003017091,新規,0,2024-12-23,2024-12-23,合同会社ＳＵＮＴ,,合同会社,北海道,札幌市白石区,菊水九条２丁目１番８,,01,104,0030809,,,,,,,2024-12-23,1,,,,,サント,0
1430,6450001014477,新規,0,2024-12-23,2024-12-23,株式会社Ａｌｌ　ｉｎ,,株式会社,北海道,旭川市,四条通６丁目３２８番１プラネットビル２階,,01,204,0700034,,,,,,,2024-12-23,1,,,,,オールイン,0
1434,6700150128333,新規,0,2024-12-23,2024-12-23,鹿部行政区,,その他,福岡県,古賀市,日吉３丁目１４番１３号,,40,223,8113106,,,,,,,2024-12-23,1,,,,,シシブギヨウセイク,0
1435,6700150128341,新規,0,2024-12-23,2024-12-23,ＶＩＲＧＯ　ＨＯＬＤＩＮＧＳ，ＰＴＥ．ＬＴＤ,,外国会社等,,,,,,,,シンガポール市サンテック・タワースリー、＃３５－０２Ａ、テマセク・ブールバード８,,,,,,2024-12-23,1,,,,,ヴアルゴホールデイングスピーテイーイーエルテイーデイー,0
1439,7010001250784,新規,0,2024-12-23,2024-12-23,株式会社街クリ,,株式会社,東京都,中央区,築地１丁目８番１号亀井橋ビル６階,,13,102,1040045,,,,,,,2024-12-23,1,,,,,マチクリ,0
1440,7010001250891,新規,0,2024-12-23,2024-12-23,Ｇｌｏｗｉｔｈ株式会社,,株式会社,東京都,中央区,銀座１丁目１２－４Ｎ＆ＥＢＬＤ．７階,,13,102,1040061,,,,,,,2024-12-23,1,,,,,グロウィズ,0
1441,7010001250933,新規,0,2024-12-23,2024-12-23,株式会社Ｔ．Ｉ　ＦＩＥＬＤ,,株式会社,東京都,中央区,築地６丁目１７番１－２０２号室,,13,102,1040045,,,,,,,2024-12-23,1,,,,,ティーアイフィールド,0
1447,7010003045860,新規,0,2024-12-23,2024-12-23,合同会社エフリック,,合同会社,東京都,中央区,月島１丁目５－１キャピタルゲートプレイスザ・タワー３６０４,,13,102,1040052,,,,,,,2024-12-23,1,,,,,エフリック,0
1456,7010403034034,新規,0,2024-12-23,2024-12-23,Ｖｅｒｄｅ合同会社,,合同会社,東京都,港区,芝浦４丁目１６番１４－１４０３号,,13,103,1080023,,,,,,,2024-12-23,1,,,,,ヴェルデ,0
1459,7010501053381,新規,0,2024-12-23,2024-12-23,開瑞商用車研究院株式会社,,株式会社,東京都,台東区,下谷２丁目１０番１３号ルフォンプログレ上野入谷プレイス１１０１,,13,106,1100004,,,,,,,2024-12-23,1,,,,,カイズイショウヨウシャケンキュウイン,0
1462,7010603011287,新規,0,2024-12-23,2024-12-23,ハナメ合同会社,,合同会社,東京都,江東区,北砂１丁目４番１９号,,13,108,1360073,,,,,,,2024-12-23,1,,,,,ハナメ,0
1475,7011001166558,新規,0,2024-12-23,2024-12-23,江口商會株式会社,,株式会社,東京都,渋谷区,本町１丁目２０番２号,,13,113,1510071,,,,,,,2024-12-23,1,,,,,エグチショウカイ,0
1476,7011001166574,新規,0,2024-12-23,2024-12-23,株式会社Ｌｅｖｅｌ　ｕｐ　Ｏｐｅｒａｔｉｏｎｓ,,株式会社,東京都,渋谷区,神南１丁目１１番４号ＦＰＧリンクス神南５Ｆ,,13,113,1500041,,,,,,,2024-12-23,1,,,,,レベルアップオペレーションズ,0
1477,7011001166582,新規,0,2024-12-23,2024-12-23,株式会社Ｔｈｒｅａｄ,,株式会社,東京都,渋谷区,渋谷２丁目１９番１５号宮益坂ビルディング６０９,,13,113,1500002,,,,,,,2024-12-23,1,,,,,,0
1478,7011001166599,新規,0,2024-12-23,2024-12-23,コードキャスト株式会社,,株式会社,東京都,渋谷区,恵比寿南２丁目１９番７－６０１号,,13,113,1500022,,,,,,,2024-12-23,1,,,,,コードキャスト,0
1479,7011001166640,新規,0,2024-12-23,2024-12-23,あるがままに生きる株式会社,,株式会社,東京都,渋谷区,道玄坂１丁目１０番８号渋谷道玄坂東急ビル２ＦーＣ,,13,113,1500043,,,,,,,2024-12-23,1,,,,,アルガママニイキル,0
1480,7011001166657,新規,0,2024-12-23,2024-12-23,ＬＥＦＦ株式会社,,株式会社,東京都,渋谷区,渋谷２丁目１９－１５宮益坂ビルディング６０９,,13,113,1500002,,,,,,,2024-12-23,1,,,,,レフ,0
1481,7011001166665,新規,0,2024-12-23,2024-12-23,エグゼクティブマーケティングパートナーズ株式会社,,株式会社,東京都,渋谷区,渋谷２丁目１９－１５宮益坂ビルディング６０９,,13,113,1500002,,,,,,,2024-12-23,1,,,,,エグゼクティブマーケティングパートナーズ,0
1482,7011001166673,新規,0,2024-12-23,2024-12-23,株式会社Ｓ・Ｈ・Ｇ,,株式会社,東京都,渋谷区,円山町５番５号Ｎａｖｉ渋谷Ｖ３階,,13,113,1500044,,,,,,,2024-12-23,1,,,,,エスエイチジー,0
1483,7011001166681,新規,0,2024-12-23,2024-12-23,月工房株式会社,,株式会社,東京都,渋谷区,代々木１丁目３０番１５号,,13,113,1510053,,,,,,,2024-12-23,1,,,,,ツキコウボウ,0
1484,7011001166707,新規,0,2024-12-23,2024-12-23,株式会社Ｂｒａｎｄｓ　Ｒｅｐｕｂｌｉｃ,,株式会社,東京都,渋谷区,代々木２丁目３８番６号掬月ビル５階,,13,113,1510053,,,,,,,2024-12-23,1,,,,,ブランズリパブリック,0
1486,7011003020630,新規,0,2024-12-23,2024-12-23,合同会社ふくおか,,合同会社,東京都,目黒区,大橋２丁目１９番６－８２３号,,13,110,1530044,,,,,,,2024-12-23,1,,,,,フクオカ,0
1487,7011003020639,新規,0,2024-12-23,2024-12-23,合同会社Ｐｒｏｊｅｃｔ　Ｋ,,合同会社,東京都,渋谷区,渋谷２丁目１９－１５宮益坂ビルディング６０９,,13,113,1500002,,,,,,,2024-12-23,1,,,,,プロジェクトケー,0
1488,7011003020647,新規,0,2024-12-23,2024-12-23,Ｖｅｎｄｕｘ合同会社,,合同会社,東京都,渋谷区,渋谷２丁目１９－１５宮益坂ビルディング６０９,,13,113,1500002,,,,,,,2024-12-23,1,,,,,ヴェンダックス,0
1490,7011101109994,新規,0,2024-12-23,2024-12-23,ｍｏｂｉＡＩ株式会社,,株式会社,東京都,新宿区,四谷坂町１番地１１号５Ｆ四谷クリエイトビル,,13,104,1600002,,,,,,,2024-12-23,1,,,,,モビエイアイ,0
1493,7011401026691,新規,0,2024-12-23,2024-12-23,誉昇商事株式会社,,株式会社,東京都,板橋区,南常盤台１丁目１６番１５－４０５号,,13,119,1740072,,,,,,,2024-12-23,1,,,,,ヨショウショウジ,0
1500,7011803006606,新規,0,2024-12-23,2024-12-23,Ｔ．Ｋ合同会社,,合同会社,東京都,足立区,佐野２丁目４番１１号エクセルフラットＩＩＩ１０１,00137415,13,121,1210053,,,,,,,2024-12-23,1,,,,,ティーケー,0
1503,7012705002437,新規,0,2024-12-23,2024-12-23,ニューデイツゥデイ一般社団法人,,その他の設立登記法人,東京都,東久留米市,新川町１丁目２番１２号,,13,222,2030013,,,,,,,2024-12-23,1,,,,,ニューデイツゥデイ,0
1510,7020001160685,新規,0,2024-12-23,2024-12-23,Ｔ・Ｅオフィス株式会社,,株式会社,神奈川県,横浜市泉区,中田西３丁目３０番１号,,14,116,2450015,,,,,,,2024-12-23,1,,,,,ティーイーオフィス,0
1513,7020005016652,新規,0,2024-12-23,2024-12-23,社会保険労務士法人協奏,,その他の設立登記法人,神奈川県,川崎市多摩区,南生田３丁目９番２－４号,,14,135,2140036,,,,,,,2024-12-23,1,,,,,キョウソウ,0
1519,7030001164041,新規,0,2024-12-23,2024-12-23,株式会社Ｍｕｓａ,,株式会社,埼玉県,川口市,並木２丁目４０番７－７０８号,,11,203,3320034,,,,,,,2024-12-23,1,,,,,ムーサ,0
1520,7030001164074,新規,0,2024-12-23,2024-12-23,彩北ワークス株式会社,,株式会社,埼玉県,深谷市,上野台１９９－５,,11,218,3660801,,,,,,,2024-12-23,1,,,,,サイホクワークス,0
1528,7040001136675,新規,0,2024-12-23,2024-12-23,株式会社ＢＬＯＦＦ,,株式会社,千葉県,成田市,赤荻１９０１番地,,12,211,2860832,,,,,,,2024-12-23,1,,,,,ブロフ,0
1529,7040001136683,新規,0,2024-12-23,2024-12-23,ＨＹＡ株式会社,,株式会社,千葉県,松戸市,小根本８４番地の３ジュネス松戸４０３号,,12,207,2710073,,,,,,,2024-12-23,1,,,,,エイチワイエー,0
1530,7040001136691,新規,0,2024-12-23,2024-12-23,株式会社Ｒｉｎｋ,,株式会社,千葉県,習志野市,鷺沼５丁目６番２６号,,12,216,2750014,,,,,,,2024-12-23,1,,,,,リンク,0
1541,7070001042474,新規,0,2024-12-23,2024-12-23,株式会社ｕｎｅｕｎ．,,株式会社,群馬県,高崎市,倉賀野町１６７０番地１,,10,202,3701201,,,,,,,2024-12-23,1,,,,,ユヌアン,0
1544,7070003005710,新規,0,2024-12-23,2024-12-23,ＡＵＴＯ　ＶＩＳＩＯＮ　ＬＡＮＫＡ合同会社,,合同会社,群馬県,桐生市,宮前町２丁目１番１０号永寿荘５号,,10,203,3760046,,,,,,,2024-12-23,1,,,,,オートビジョンランカ,0
1551,7110001038939,新規,0,2024-12-23,2024-12-23,株式会社Ｉｏｎｉｃ,,株式会社,新潟県,上越市,大字下荒浜３８４番地１,,15,222,9420022,,,,,,,2024-12-23,1,,,,,アイオニック,0
1558,7120001271266,新規,0,2024-12-23,2024-12-23,株式会社じかん,,株式会社,大阪府,大阪市西区,新町１丁目２５番１８号,,27,106,5500013,,,,,,,2024-12-23,1,,,,,ジカン,0
1559,7120001271357,新規,0,2024-12-23,2024-12-23,株式会社ジュリエット,,株式会社,大阪府,大阪市天王寺区,東上町４－１８－真和ビル３０２Ａ号室,,27,109,5430026,,,,,,,2024-12-23,1,,,,,ジュリエット,0
1561,7120003028210,新規,0,2024-12-23,2024-12-23,合同会社ＦＵＪＩ,,合同会社,大阪府,大阪市西区,新町２丁目１番２－１６０５号,,27,106,5500013,,,,,,,2024-12-23,1,,,,,フジ,0
1564,7120101070790,新規,0,2024-12-23,2024-12-23,株式会社フリースタイル,,株式会社,大阪府,泉大津市,清水町５番４号,,27,206,5950043,,,,,,,2024-12-23,1,,,,,フリースタイル,0
1567,7122001038752,新規,0,2024-12-23,2024-12-23,株式会社ＨＡＲＸＩＡ,,株式会社,大阪府,八尾市,木の本２丁目１１８番９号棟,,27,212,5810044,,,,,,,2024-12-23,1,,,,,ハルジア,0
1568,7122003003069,新規,0,2024-12-23,2024-12-23,楽敬合同会社,,合同会社,大阪府,東大阪市,水走１丁目３－４５－２０５室,,27,227,5780921,,,,,,,2024-12-23,1,,,,,ラクケイ,0
1572,7130001078636,新規,0,2024-12-23,2024-12-23,株式会社一心,,株式会社,京都府,京都市東山区,弓矢町５０番地１・３０３室,,26,105,6050817,,,,,,,2024-12-23,1,,,,,イッシン,0
1573,7130003010092,新規,0,2024-12-23,2024-12-23,新京野菜種苗合同会社,,合同会社,京都府,京都市西京区,大原野上里鳥見町１９－１７,,26,111,6101127,,,,,,,2024-12-23,1,,,,,シンキョウヤサイシュビョウ,0
1577,7140001136756,新規,0,2024-12-23,2024-12-23,株式会社Ｎｅｕ,,株式会社,兵庫県,西宮市,産所町１４番７号秀正ビル２階,,28,204,6620978,,,,,,,2024-12-23,1,,,,,ノイ,0
1578,7140001136789,新規,0,2024-12-23,2024-12-23,株式会社タカツキベース,,株式会社,兵庫県,明石市,東人丸町９番２３号３０４,,28,203,6730876,,,,,,,2024-12-23,1,,,,,タカツキベース,0
1582,7170003002136,新規,0,2024-12-23,2024-12-23,合同会社ｍａｍａｆａｒｍｅｒ,,合同会社,和歌山県,和歌山市,弘西４５０番地２１,,30,201,6496339,,,,,,,2024-12-23,1,,,,,ママファーマー,0
1591,7180301039358,新規,0,2024-12-23,2024-12-23,新栄コーポレーション株式会社,,株式会社,愛知県,安城市,東端町用地１００番地,,23,212,4441213,,,,,,,2024-12-23,1,,,,,シンエイコーポレーション,0
1594,7200001043252,新規,0,2024-12-23,2024-12-23,株式会社ＧＡＴＥ,,株式会社,岐阜県,岐阜市,高田３丁目１５番９号,,21,201,5008224,,,,,,,2024-12-23,1,,,,,ゲート,0
1600,7260001039724,新規,0,2024-12-23,2024-12-23,愛勝株式会社,,株式会社,岡山県,井原市,東江原町３４６１番地１,,33,207,7150003,,,,,,,2024-12-23,1,,,,,アイショウ,0
1609,7290001108369,新規,0,2024-12-23,2024-12-23,株式会社Ｍ＆Ｙ　ｓｙｎｅｒｇｙ,,株式会社,福岡県,糟屋郡粕屋町,原町５丁目６番１－２０５号,,40,349,8112307,,,,,,,2024-12-23,1,,,,,エムアンドワイシナジー,0
1610,7290001108393,新規,0,2024-12-23,2024-12-23,株式会社田所商店,,株式会社,福岡県,久留米市,城島町江上本５３６番地,,40,203,8300214,,,,,,,2024-12-23,1,,,,,タドコロショウテン,0
1614,7290003016207,新規,0,2024-12-23,2024-12-23,合同会社九州レジデンス,,合同会社,福岡県,太宰府市,観世音寺３丁目７番１８号,,40,221,8180101,,,,,,,2024-12-23,1,,,,,キュウシュウレジデンス,0
1620,7300001014020,新規,0,2024-12-23,2024-12-23,株式会社ＯＺ,,株式会社,佐賀県,佐賀市,中央本町４番７号,,41,201,8400825,,,,,,,2024-12-23,1,,,,,オズ,0
1623,7310005008819,新規,0,2024-12-23,2024-12-23,一般社団法人日本ペットロスグリーフケア協会,,その他の設立登記法人,長崎県,長崎市,大井手町４１番,,42,201,8500024,,,,,,,2024-12-23,1,,,,,ニホンペットロスグリーフケアキョウカイ,0
1624,7320001020867,新規,0,2024-12-23,2024-12-23,株式会社Ｓｗａｍｐ　Ｆｉｅｌｄ,,株式会社,大分県,別府市,大字内竈１１８５番地の５ＣＲＥＣＥＲ２０２号,,44,202,8740011,,,,,,,2024-12-23,1,,,,,スワンプフィールド,0
1627,7340001027010,新規,0,2024-12-23,2024-12-23,株式会社ＲＥ．Ｐｌｅｄｇｅ,,株式会社,鹿児島県,鹿児島市,樋之口町１０番４５号２階,00137413,46,201,8920845,,,,,,,2024-12-23,1,,,,,リプレッジ,0
1628,7360001034558,新規,0,2024-12-23,2024-12-23,Ｔｈｒｅｅ　Ａｒｒｏｗｓ株式会社,,株式会社,沖縄県,宜野湾市,新城１丁目３１番７号第三安里ビル１Ｆ,,47,205,9012201,,,,,,,2024-12-23,1,,,,,スリーアローズ,0
1633,7400003003366,新規,0,2024-12-23,2024-12-23,バイオレットルミエール合同会社,,合同会社,岩手県,盛岡市,上堂３丁目１７番４３号メゾン北星Ａ－３号,,03,201,0200125,,,,,,,2024-12-23,1,,,,,バイオレットルミエール,0
1644,7460303000850,新規,0,2024-12-23,2024-12-23,合同会社鈴音,,合同会社,北海道,北見市,公園町１６１番地７,,01,208,0900015,,,,,,,2024-12-23,1,,,,,スズネ,0
1647,7470003002774,新規,0,2024-12-23,2024-12-23,合同会社リガード,,合同会社,香川県,高松市,上林町５３０番地１６,,37,201,7610302,,,,,,,2024-12-23,1,,,,,リガード,0
1652,7700150128340,新規,0,2024-12-23,2024-12-23,Ｐｒｅｔｔｙ　Ｗｏｍａｎ　Ｐｒｏｄｕｃｔｉｏｎｓ　Ｉｎｃ,,外国会社等,,,,,,,,９２００　Ｃｏｒｐｏｒａｔｅ　ＢＬＶＤ　Ｓｕｉｔｅ　２２０　ＲＯＣＫＶＩＬＬＥ，ＭＤ　２０８５０　Ｕ．Ｓ．Ａ．,,,,,,2024-12-23,1,,,,,プリテイウーマンプロダクシヨンズインク,0
1661,8010001250866,新規,0,2024-12-23,2024-12-23,川森株式会社,,株式会社,東京都,千代田区,神田平河町１番地第３東ビル５ＦイーオフィスＡＫＩＢＡ２番館２７号室,,13,101,1010027,,,,,,,2024-12-23,1,,,,,カワモリ,0
1662,8010003045843,新規,0,2024-12-23,2024-12-23,合同会社システムコーポレーション,,合同会社,東京都,千代田区,神田三崎町２丁目１２番９号,,13,101,1010061,,,,,,,2024-12-23,1,,,,,システムコーポレーション,0
1665,8010401187130,新規,0,2024-12-23,2024-12-23,Ａｋｉｙａｚ株式会社,,株式会社,東京都,港区,赤坂２丁目２１－４天翔赤坂ＡＮＮＥＸビル５階５０３－Ｄ号室,,13,103,1070052,,,,,,,2024-12-23,1,,,,,アキヤズ,0
1666,8010401187139,新規,0,2024-12-23,2024-12-23,株式会社リアクター,,株式会社,東京都,港区,北青山２丁目７番１３号プラセオ青山ビル３階,,13,103,1070061,,,,,,,2024-12-23,1,,,,,リアクター,0
1670,8010405023876,新規,0,2024-12-23,2024-12-23,一般財団法人日本遺産財団,,その他の設立登記法人,東京都,港区,六本木６丁目１２番４号六本木ヒルズレジデンスＤ１０３,,13,103,1060032,,,,,,,2024-12-23,1,,,,,ニホンイサンザイダン,0
1674,8010501053372,新規,0,2024-12-23,2024-12-23,ＬｉｎｋＣｏｒｅ株式会社,,株式会社,東京都,台東区,台東２丁目２７番３号ＮＳＫビル１０Ｆ,,13,106,1100016,,,,,,,2024-12-23,1,,,,,リンクコア,0
1676,8010603011286,新規,0,2024-12-23,2024-12-23,ＲＳ．ａｉ合同会社,,合同会社,東京都,江東区,豊洲３丁目６―５―４１５,,13,108,1350061,,,,,,,2024-12-23,1,,,,,アールエスドットエーアイ,0
1678,8010901056529,新規,0,2024-12-23,2024-12-23,ＬＩＮＫ株式会社,,株式会社,東京都,世田谷区,野毛２丁目２２番２１号,,13,112,1580092,,,,,,,2024-12-23,1,,,,,リンク,0
1681,8011001166549,新規,0,2024-12-23,2024-12-23,株式会社パスチャー,,株式会社,東京都,渋谷区,東３丁目８番４号,,13,113,1500011,,,,,,,2024-12-23,1,,,,,パスチャー,0
1682,8011001166565,新規,0,2024-12-23,2024-12-23,株式会社Ｍ．ＡＫ,,株式会社,東京都,渋谷区,宇田川町３６番２号,,13,113,1500042,,,,,,,2024-12-23,1,,,,,エムドットエーケー,0
1683,8011001166623,新規,0,2024-12-23,2024-12-23,株式会社ホームギャラリー,,株式会社,東京都,渋谷区,代々木１丁目５５番１４号セントヒルズ代々木９０４号室,,13,113,1510053,,,,,,,2024-12-23,1,,,,,ホームギャラリー,0
1684,8011001166631,新規,0,2024-12-23,2024-12-23,株式会社ワークストリーム,,株式会社,東京都,渋谷区,道玄坂１丁目１０－８渋谷道玄坂東急ビル２Ｆ－Ｃ,,13,113,1500043,,,,,,,2024-12-23,1,,,,,ワークストリーム,0
1685,8011001166648,新規,0,2024-12-23,2024-12-23,株式会社Ｓｕｂｓｔａｎｃｅ,,株式会社,東京都,渋谷区,渋谷２丁目１６番１号,,13,113,1500002,,,,,,,2024-12-23,1,,,,,サブスタンス,0
1686,8011001166656,新規,0,2024-12-23,2024-12-23,株式会社ＹＮＨ,,株式会社,東京都,目黒区,東が丘１丁目２８番１３号,,13,110,1520021,,,,,,,2024-12-23,1,,,,,ワイエヌエイチ,0
1687,8011001166664,新規,0,2024-12-23,2024-12-23,株式会社ＮＩＸ,,株式会社,東京都,目黒区,目黒１丁目４番１６号目黒Ｇビル５階,,13,110,1530063,,,,,,,2024-12-23,1,,,,,ニックス,0
1688,8011001166680,新規,0,2024-12-23,2024-12-23,株式会社ＷＥＬＬＶＹ,,株式会社,東京都,目黒区,青葉台１丁目２２番４号,,13,110,1530042,,,,,,,2024-12-23,1,,,,,ウェルビー,0
1690,8011003020621,新規,0,2024-12-23,2024-12-23,合同会社ｋｎｏｔ,,合同会社,東京都,渋谷区,渋谷２丁目１９－１５宮益坂ビルディング６０９,,13,113,1500002,,,,,,,2024-12-23,1,,,,,ノット,0
1691,8011003020654,新規,0,2024-12-23,2024-12-23,プロリテール合同会社,,合同会社,東京都,渋谷区,神宮前６丁目２３番４号桑野ビル２階,,13,113,1500001,,,,,,,2024-12-23,1,,,,,プロリテール,0
1692,8011005010802,新規,0,2024-12-23,2024-12-23,一般社団法人老人と孫,,その他の設立登記法人,東京都,渋谷区,道玄坂１丁目１０番８号,,13,113,1500043,,,,,,,2024-12-23,1,,,,,ロウジントマゴ,0
1693,8011101109985,新規,0,2024-12-23,2024-12-23,株式会社ＨＩＧＨ　ＬＡＮＤ,,株式会社,東京都,新宿区,矢来町８８番地ＭａｉｓｏｎＶｏｙａｇｅＶ－２,,13,104,1620805,,,,,,,2024-12-23,1,,,,,ハイランド,0
1694,8011101110019,新規,0,2024-12-23,2024-12-23,株式会社ｍａｃｓｋａ,,株式会社,東京都,新宿区,西新宿７丁目５番８号ＧＯＷＡ西新宿５階,,13,104,1600023,,,,,,,2024-12-23,1,,,,,マチカ,0
1697,8011103015331,新規,0,2024-12-23,2024-12-23,合同会社ＩＳＧ,,合同会社,東京都,新宿区,新宿５丁目１０－８第三東邦ビル２０１,,13,104,1600022,,,,,,,2024-12-23,1,,,,,アイエスジー,0
1701,8011401026674,新規,0,2024-12-23,2024-12-23,信美株式会社,,株式会社,東京都,板橋区,仲宿６３番地７号ＯＥＯｆｆｉｃｅＢｌｄｇ．１０３号,,13,119,1730005,,,,,,,2024-12-23,1,,,,,シンビ,0
1703,8011501031517,新規,0,2024-12-23,2024-12-23,ＮｅｘｔＸ株式会社,,株式会社,東京都,荒川区,西日暮里１丁目６２番５号成友ＫＳビル２階２０７,,13,118,1160013,,,,,,,2024-12-23,1,,,,,ネクストエックス,0
1708,8011803006613,新規,0,2024-12-23,2024-12-23,エレファントインベストメント合同会社,,合同会社,東京都,足立区,千住柳町２２番１－２０６号,,13,121,1200032,,,,,,,2024-12-23,1,,,,,エレファントインベストメント,0
1714,8013301053550,新規,0,2024-12-23,2024-12-23,株式会社Ａｍｐｌｉｕｍ,,株式会社,東京都,豊島区,池袋本町１丁目７番１２－２０２号,,13,116,1700011,,,,,,,2024-12-23,1,,,,,アンプリウム,0
1722,8020003027485,新規,0,2024-12-23,2024-12-23,合同会社加とう,,合同会社,神奈川県,横浜市港北区,新吉田東８丁目５１番地１２―３１３号,,14,109,2230058,,,,,,,2024-12-23,1,,,,,カトウ,0
1723,8020005016651,新規,0,2024-12-23,2024-12-23,医療法人石陽会,,その他の設立登記法人,神奈川県,川崎市幸区,南加瀬３丁目５番３号トキワクリニックビル４階,,14,132,2120055,,,,,,,2024-12-23,1,,,,,セキヨウカイ,0
1727,8021001084023,新規,0,2024-12-23,2024-12-23,株式会社アーク・エテルナ,,株式会社,神奈川県,大和市,中央４丁目１番２４号６Ｆ,,14,213,2420021,,,,,,,2024-12-23,1,,,,,アークエテルナ,0
1728,8021001084056,新規,0,2024-12-23,2024-12-23,株式会社ＫＥＮ企画Ｚ,,株式会社,神奈川県,横須賀市,本町２丁目３番地６アロハビル,,14,201,2380041,,,,,,,2024-12-23,1,,,,,ケンキカクゼット,0
1729,8021001084064,新規,0,2024-12-23,2024-12-23,イアス秦野株式会社,,株式会社,神奈川県,秦野市,菖蒲１１００番地の３,,14,211,2591332,,,,,,,2024-12-23,1,,,,,イアスハダノ,0
1732,8021003015348,新規,0,2024-12-23,2024-12-23,ＳＶＧＩｎｖｅｓｔｍｅｎｔ合同会社,,合同会社,神奈川県,大和市,柳橋１丁目１０―３レクセルマンション大和２０４号山口方,,14,213,2420022,,,,,,,2024-12-23,1,,,,,エスヴィージーインベストメント,0
1740,8030001164049,新規,0,2024-12-23,2024-12-23,株式会社ＳＵＧＡ,,株式会社,埼玉県,川越市,新富町２丁目７番地１新富町伊勢原第３ビル４階,,11,201,3500043,,,,,,,2024-12-23,1,,,,,スガ,0
1747,8030003025744,新規,0,2024-12-23,2024-12-23,合同会社ウィッシュ,,合同会社,埼玉県,川越市,仙波町２丁目３番地１３単正ハイツ２０７号室,,11,201,3500034,,,,,,,2024-12-23,1,,,,,ウィッシュ,0
1749,8040001136633,新規,0,2024-12-23,2024-12-23,株式会社ジェスホールディングス,,株式会社,千葉県,成田市,飯田町１０８番９佐野屋ビル２０１号,,12,211,2860041,,,,,,,2024-12-23,1,,,,,ジェスホールディングス,0
1750,8040001136666,新規,0,2024-12-23,2024-12-23,株式会社ｊｏｂｃｉｔｙ,,株式会社,千葉県,千葉市中央区,中央２丁目３番１６号千葉センタースクエアビル７Ｆ,,12,101,2600013,,,,,,,2024-12-23,1,,,,,ジョブシティ,0
1754,8040003026428,新規,0,2024-12-23,2024-12-23,合同会社Ｐｉｎｎａｃｌｅ　Ｉｎｓｉｇｈｔ　Ｐａｒｔｎｅｒｓ,,合同会社,千葉県,千葉市中央区,松波３丁目７番４号,,12,101,2600044,,,,,,,2024-12-23,1,,,,,ピナクルインサイトパートナーズ,0
1756,8060001037763,新規,0,2024-12-23,2024-12-23,株式会社水色工務店,,株式会社,栃木県,栃木市,都賀町臼久保８２番地３,,09,203,3280105,,,,,,,2024-12-23,1,,,,,ミズイロコウムテン,0
1765,8080101025204,新規,0,2024-12-23,2024-12-23,株式会社ミヤブラザーズ,,株式会社,静岡県,富士市,増川４６４番地の３,,22,210,4170815,,,,,,,2024-12-23,1,,,,,ミヤブラザーズ,0
1768,8080405007699,新規,0,2024-12-23,2024-12-23,特定非営利活動法人感助,,その他の設立登記法人,静岡県,菊川市,堀之内１４４６番地,,22,224,4390006,,,,,,,2024-12-23,1,,,,,カンスケ,0
1769,8110001038938,新規,0,2024-12-23,2024-12-23,株式会社Ｒｅｃｏｌｌｅｃｔｉｏｎ,,株式会社,新潟県,新潟市中央区,花園１丁目６番１１号ＢＵＥＮＡ花園１Ｆ,,15,103,9500086,,,,,,,2024-12-23,1,,,,,リコレクション,0
1785,8120001270969,新規,0,2024-12-23,2024-12-23,株式会社Ａｓｐｉｒｅ　Ｐａｒｔｎｅｒｓ,,株式会社,大阪府,大阪市北区,梅田１丁目２‐２,,27,127,5300001,,,,,,,2024-12-23,1,,,,,アスパイアパートナーズ,0
1786,8120001271067,新規,0,2024-12-23,2024-12-23,Ｈ．Ｅ国際コンサルティング株式会社,,株式会社,大阪府,大阪市西成区,萩之茶屋１丁目１２番７号－１階４号室,,27,122,5570004,,,,,,,2024-12-23,1,,,,,エイチイーコクサイコンサルティング,0
1787,8120001271182,新規,0,2024-12-23,2024-12-23,ワークサポート株式会社,,株式会社,大阪府,大阪市北区,中崎３丁目３番１９号２０１号室,,27,127,5300016,,,,,,,2024-12-23,1,,,,,ワークサポート,0
1788,8120001271216,新規,0,2024-12-23,2024-12-23,株式会社Ｑｕｅｌｌｅ,,株式会社,大阪府,大阪市淀川区,加島４丁目１９番２４号サンエイビル２０２号,,27,123,5320031,,,,,,,2024-12-23,1,,,,,クヴェレ,0
1789,8120001271298,新規,0,2024-12-23,2024-12-23,株式会社ブリコマスターズ,,株式会社,大阪府,大阪市中央区,瓦町２丁目５－２リノ瓦町ビル５０２号室,,27,128,5410048,,,,,,,2024-12-23,1,,,,,ブリコマスターズ,0
1790,8120001271307,新規,0,2024-12-23,2024-12-23,天山コネ株式会社,,株式会社,大阪府,大阪市中央区,東心斎橋１丁目３番３－２２０３,,27,128,5420083,,,,,,,2024-12-23,1,,,,,テンザンコネ,0
1796,8122001038751,新規,0,2024-12-23,2024-12-23,青音株式会社,,株式会社,大阪府,東大阪市,小阪本町１丁目１４－２０,,27,227,5770802,,,,,,,2024-12-23,1,,,,,アオネ,0
1798,8130003010091,新規,0,2024-12-23,2024-12-23,合同会社ＮＩＣＥ,,合同会社,京都府,京都市伏見区,納所町１３０ブール・ラ・レーヌ５号室,,26,109,6128275,,,,,,,2024-12-23,1,,,,,ナイス,0
1811,8140001136813,新規,0,2024-12-23,2024-12-23,株式会社ＲＥＣＯＮ,,株式会社,兵庫県,姫路市,飾磨区構４丁目１２７番地,,28,201,6728071,,,,,,,2024-12-23,1,,,,,レコン,0
1815,8170001018422,新規,0,2024-12-23,2024-12-23,株式会社中尾さんち,,株式会社,和歌山県,有田郡有田川町,大字杉野原２４７,,30,366,6430602,,,,,,,2024-12-23,1,,,,,ナカオサンチ,0
1823,8180005020869,新規,0,2024-12-23,2024-12-23,特定非営利活動法人ハピサンハウス,,その他の設立登記法人,愛知県,名古屋市南区,呼続１丁目２－８ヨビツギナガヤＡ号,,23,112,4570014,,,,,,,2024-12-23,1,,,,,ハピサンハウス,0
1826,8190001031885,新規,0,2024-12-23,2024-12-23,株式会社ミヤケホールディングス,,株式会社,三重県,伊賀市,佐那具町１６２６番地,,24,216,5180001,,,,,,,2024-12-23,1,,,,,ミヤケホールディングス,0
1834,8220001026386,新規,0,2024-12-23,2024-12-23,新博悦株式会社,,株式会社,石川県,金沢市,南新保町ハ３４－１ＫＩＢ２階２０５室,,17,201,9200064,,,,,,,2024-12-23,1,,,,,シンハクエツ,0
1845,8290001108376,新規,0,2024-12-23,2024-12-23,株式会社イノゲート,,株式会社,福岡県,福岡市博多区,博多駅前１丁目２３番２号ＰａｒｋＦｒｏｎｔ博多駅前一丁目５Ｆ－Ｂ,,40,132,8120011,,,,,,,2024-12-23,1,,,,,イノゲート,0
1858,8310001019372,新規,0,2024-12-23,2024-12-23,株式会社ＫＯＴＥＣ,,株式会社,長崎県,諫早市,多良見町舟津１６３５番地１,,42,204,8590417,,,,,,,2024-12-23,1,,,,,コーテック,0
1867,8350001019328,新規,0,2024-12-23,2024-12-23,株式会社池上林業,,株式会社,宮崎県,小林市,東方２０００番地３３,,45,205,8860001,,,,,,,2024-12-23,1,,,,,イケウエリンギョウ,0
1873,8380001035000,新規,0,2024-12-23,2024-12-23,Ｙａｐｐｅ株式会社,,株式会社,福島県,郡山市,石渕町１番９号,,07,203,9638814,,,,,,,2024-12-23,1,,,,,ヤッペ,0
1876,8380003005918,新規,0,2024-12-23,2024-12-23,アイテックス合同会社,,合同会社,福島県,いわき市,平南白土１丁目１０番地の４ホワイトソイルＩＩ２Ｆ,00137417,07,204,9708025,,,,,,,2024-12-23,1,,,,,アイテックス,0
1878,8410001014017,新規,0,2024-12-23,2024-12-23,ＧｒａｍＰ株式会社,,株式会社,秋田県,横手市,南町２０番１２号,,05,203,0130045,,,,,,,2024-12-23,1,,,,,グランプ,0
1882,8430001093323,新規,0,2024-12-23,2024-12-23,株式会社ウインドパス,,株式会社,北海道,札幌市中央区,南九条西１１丁目１番２３号,,01,101,0640809,,,,,,,2024-12-23,1,,,,,ウインドパス,0
1883,8430003017098,新規,0,2024-12-23,2024-12-23,合同会社エルクス,,合同会社,北海道,札幌市中央区,南一条西６丁目２０番地２ＹＫビル８Ｆ,,01,101,0600061,,,,,,,2024-12-23,1,,,,,エルクス,0
1884,8430005015125,新規,0,2024-12-23,2024-12-23,一般社団法人ゴールデンベアーズサポーターズ倶楽部,,その他の設立登記法人,北海道,札幌市豊平区,平岸二条１０丁目５番１号,,01,105,0620932,,,,,,,2024-12-23,1,,,,,ゴールデンベアーズサポーターズクラブ,0
1885,8470001020505,新規,0,2024-12-23,2024-12-23,グランクラス株式会社,,株式会社,香川県,高松市,上福岡町１２３４番地１,,37,201,7600077,,,,,,,2024-12-23,1,,,,,グランクラス,0
1886,8480001012682,新規,0,2024-12-23,2024-12-23,株式会社白鷺屋,,株式会社,徳島県,徳島市,住吉１丁目６番２２号,,36,201,7700861,,,,,,,2024-12-23,1,,,,,シラサギヤ,0
1889,8700150083469,新規,0,2024-12-23,2017-05-25,トーカンマンション大分中央管理組合,,その他,大分県,大分市,寿町８－４,,44,201,8700036,,,,,,,2017-05-25,1,,,,,トーカンマンシヨンオオイタチユウオウカンリクミアイ,0
1894,9010001250881,新規,0,2024-12-23,2024-12-23,株式会社ＡｌｌＴｅｓｔ,,株式会社,東京都,千代田区,大手町１丁目５番１号大手町ファーストスクエアイーストタワー４階,,13,101,1000004,,,,,,,2024-12-23,1,,,,,オールテスト,0
1898,9010003045842,新規,0,2024-12-23,2024-12-23,ＲｅＡｓｓｅｍｂｌｒ合同会社,,合同会社,東京都,中央区,銀座１丁目１２－４Ｎ＆ＥＢＬＤ．６Ｆ,,13,102,1040061,,,,,,,2024-12-23,1,,,,,リアサンブレー,0
1899,9010003045859,新規,0,2024-12-23,2024-12-23,合同会社ＪＣＭ,,合同会社,東京都,中央区,日本橋箱崎町４１－４エクセリア日本橋箱崎２０２号室,,13,102,1030015,,,,,,,2024-12-23,1,,,,,ジェーシーエム,0
1905,9010401187121,新規,0,2024-12-23,2024-12-23,株式会社ＮＡＮＡＫＡ,,株式会社,東京都,港区,南青山３丁目１番３６号青山丸竹ビル６Ｆ,,13,103,1070062,,,,,,,2024-12-23,1,,,,,ナナカ,0
1906,9010401187170,新規,0,2024-12-23,2024-12-23,株式会社１２３４ａｂｃｄ　ｈｏｌｄｉｎｇｓ,,株式会社,東京都,港区,赤坂４丁目８番１９号,,13,103,1070052,,,,,,,2024-12-23,1,,,,,イチニーサンシエービーシーディーホールディングス,0
1911,9010501053371,新規,0,2024-12-23,2024-12-23,ＬＭ株式会社,,株式会社,東京都,台東区,台東３丁目１７－１ダイアパレス御徒町ｖ１０３室,,13,106,1100016,,,,,,,2024-12-23,1,,,,,エルエム,0
1914,9010603011285,新規,0,2024-12-23,2024-12-23,合同会社Ｉｎｆｉｎｉｔｅ　ｓｋｙ,,合同会社,東京都,江東区,大島２丁目２番２０－１０３号,,13,108,1360072,,,,,,,2024-12-23,1,,,,,インフィニットスカイ,0
1924,9011001166523,新規,0,2024-12-23,2024-12-23,株式会社Ｒｏｕｇｅ,,株式会社,東京都,渋谷区,道玄坂２丁目１８－１１サンモール道玄坂２０４,,13,113,1500043,,,,,,,2024-12-23,1,,,,,ルージュ,0
1925,9011001166548,新規,0,2024-12-23,2024-12-23,株式会社環,,株式会社,東京都,渋谷区,東１丁目２８番６－１４０７号,,13,113,1500011,,,,,,,2024-12-23,1,,,,,タマキ,0
1926,9011001166564,新規,0,2024-12-23,2024-12-23,Ｈｅｒｅ　Ｆｏｒ　Ｙｏｕ株式会社,,株式会社,東京都,渋谷区,渋谷２丁目１９－１５宮益坂ビルディング６０９,,13,113,1500002,,,,,,,2024-12-23,1,,,,,ヒアフォーユー,0
1927,9011001166572,新規,0,2024-12-23,2024-12-23,株式会社ＴＷＳマネジメント,,株式会社,東京都,渋谷区,渋谷１丁目５番２号須藤ビル３０２,,13,113,1500002,,,,,,,2024-12-23,1,,,,,ティーダブリューエスマネジメント,0
1928,9011001166614,新規,0,2024-12-23,2024-12-23,株式会社スピカ,,株式会社,東京都,渋谷区,渋谷２丁目１９－１５宮益坂ビルディング６０９,,13,113,1500002,,,,,,,2024-12-23,1,,,,,スピカ,0
1929,9011001166630,新規,0,2024-12-23,2024-12-23,ごちそう株式会社,,株式会社,東京都,目黒区,東山１丁目１５－５,,13,110,1530043,,,,,,,2024-12-23,1,,,,,ゴチソウ,0
1930,9011001166647,新規,0,2024-12-23,2024-12-23,ＦＵＮ　ＳＵＮ株式会社,,株式会社,東京都,渋谷区,渋谷２丁目７－１４ＶＯＲＴＡＯＹＡＭＡ４０３,,13,113,1500002,,,,,,,2024-12-23,1,,,,,ファンソン,0
1931,9011001166655,新規,0,2024-12-23,2024-12-23,株式会社ＮＡＭＩＮＯＲＩ,,株式会社,東京都,渋谷区,神山町１７番３－２０５号ネイバーズ渋谷神山町,,13,113,1500047,,,,,,,2024-12-23,1,,,,,ナミノリ,0
1933,9011003020629,新規,0,2024-12-23,2024-12-23,ＣｏＯＤＳ合同会社,,合同会社,東京都,渋谷区,代々木４丁目４０－１－４０１,,13,113,1510053,,,,,,,2024-12-23,1,,,,,,0
1934,9011003020637,新規,0,2024-12-23,2024-12-23,合同会社Ｄ．Ｍ．,,合同会社,東京都,渋谷区,恵比寿西２丁目８番４号ＥＸ恵比寿西ビル５階,,13,113,1500021,,,,,,,2024-12-23,1,,,,,ディーエム,0
1935,9011005010801,新規,0,2024-12-23,2024-12-23,一般社団法人コロレクペディア,,その他の設立登記法人,東京都,渋谷区,恵比寿西２丁目４番８号ウィンド恵比寿ビル８Ｆ,,13,113,1500021,,,,,,,2024-12-23,1,,,,,コロレクペディア,0
1936,9011101109968,新規,0,2024-12-23,2024-12-23,ＫＥＸ株式会社,,株式会社,東京都,新宿区,新宿６丁目２１－１７セラヴィ新宿ビル１階,,13,104,1600022,,,,,,,2024-12-23,1,,,,,ケーイーエックス,0
1937,9011101109984,新規,0,2024-12-23,2024-12-23,株式会社西川扇藏事務所,,株式会社,東京都,新宿区,市谷台町８番１２号,,13,104,1620066,,,,,,,2024-12-23,1,,,,,ニシカワセンゾウジムショ,0
1938,9011101110001,新規,0,2024-12-23,2024-12-23,株式会社グローバルトラディション,,株式会社,東京都,新宿区,四谷１丁目１３番地,,13,104,1600004,,,,,,,2024-12-23,1,,,,,グローバルトラディション,0
1947,9011503006350,新規,0,2024-12-23,2024-12-23,合同会社ＰＩＶＯＴ,,合同会社,東京都,荒川区,西日暮里５丁目１５－１３三共サンプラザ７Ｆ,,13,118,1160013,,,,,,,2024-12-23,1,,,,,ピボット,0
1950,9011701027900,新規,0,2024-12-23,2024-12-23,天口株式会社,,株式会社,東京都,江戸川区,東小岩５丁目１２番６号,,13,123,1330052,,,,,,,2024-12-23,1,,,,,テングチ,0
1971,9020001160725,新規,0,2024-12-23,2024-12-23,株式会社Ｔ‐ＵＮＩＴ,,株式会社,神奈川県,横浜市神奈川区,金港町５－１４クアドリフォリオ８階,,14,102,2210056,,,,,,,2024-12-23,1,,,,,ティーユニット,0
1977,9020005016650,新規,0,2024-12-23,2024-12-23,未来経営研究協同組合,,その他の設立登記法人,神奈川県,横浜市戸塚区,吉田町１８４６番地２１号,,14,110,2440817,,,,,,,2024-12-23,1,,,,,ミライケイエイケンキュウ,0
1980,9021001084055,新規,0,2024-12-23,2024-12-23,ＥＭＥＣＨ株式会社,,株式会社,神奈川県,藤沢市,高谷５－２－２ヒルクレスト湘南Ｃ棟,,14,205,2510017,,,,,,,2024-12-23,1,,,,,エメチ,0
1983,9030001164048,新規,0,2024-12-23,2024-12-23,株式会社美星,,株式会社,埼玉県,新座市,道場２丁目１８番２号,,11,230,3520024,,,,,,,2024-12-23,1,,,,,ビセイ,0
1988,9030003025702,新規,0,2024-12-23,2024-12-23,ｉｎｖｅｓｔｉｇａｔｉｏｎｆｉｒｍｊｅＯＦ会計ｅｘ合同会社,,合同会社,埼玉県,さいたま市南区,大字大谷口２５６６番地６,,11,108,3360042,,,,,,,2024-12-23,1,,,,,インヴェスティゲイションファームジェイオヴカイケイエックス,0
1989,9030003025735,新規,0,2024-12-23,2024-12-23,オフィス鳥海合同会社,,合同会社,埼玉県,さいたま市浦和区,木崎２丁目２５番１０－１０７号,,11,107,3300042,,,,,,,2024-12-23,1,,,,,オフィストリウミ,0
1990,9030003025743,新規,0,2024-12-23,2024-12-23,合同会社ＮＤＳ,,合同会社,埼玉県,新座市,栗原５丁目１番６号,,11,230,3520035,,,,,,,2024-12-23,1,,,,,エヌディエス,0
1991,9030003025751,新規,0,2024-12-23,2024-12-23,合同会社もさもさ,,合同会社,埼玉県,朝霞市,朝志ケ丘１丁目７番２３号,,11,227,3510035,,,,,,,2024-12-23,1,,,,,モサモサ,0
1998,9040001136649,新規,0,2024-12-23,2024-12-23,Ｓｕｎｎｙ株式会社,,株式会社,千葉県,千葉市緑区,大椎町１１９９番地２２,,12,105,2670065,,,,,,,2024-12-23,1,,,,,サニー,0
1999,9040001136665,新規,0,2024-12-23,2024-12-23,株式会社Ｒｅｇｉｓｔａ,,株式会社,千葉県,成田市,米野６８番地１,,12,211,2860016,,,,,,,2024-12-23,1,,,,,レジスタ,0
2003,9040003026427,新規,0,2024-12-23,2024-12-23,Ｌａｘｍｉ　Ｎａｒａｙａｎ合同会社,,合同会社,千葉県,習志野市,東習志野２丁目１番１４号,,12,216,2750001,,,,,,,2024-12-23,1,,,,,ラクシミィナラヤン,0
2005,9070001042456,新規,0,2024-12-23,2024-12-23,株式会社マルエイ,,株式会社,群馬県,伊勢崎市,赤堀今井町２丁目１４１１番１,,10,204,3792215,,,,,,,2024-12-23,1,,,,,,0
2013,9090001019056,新規,0,2024-12-23,2024-12-23,ＭＹＤ株式会社,,株式会社,山梨県,富士吉田市,新西原４丁目１５番１０号リトルフォレスト２０１,,19,202,4030017,,,,,,,2024-12-23,1,,,,,エムワイディー,0
2018,9110001038937,新規,0,2024-12-23,2024-12-23,株式会社ＥＶＥＲ．Ｃｏｒｐｏｒａｔｉｏｎ,,株式会社,新潟県,新潟市東区,東明３丁目１０‐１リプロビル２階２０５号室,,15,102,9500853,,,,,,,2024-12-23,1,,,,,エバァーコーポレーション,0
2019,9110003005613,新規,0,2024-12-23,2024-12-23,合同会社ＨＰ　ＪＡＰＡＮ,,合同会社,新潟県,長岡市,千代栄町４３番地５,,15,202,9400819,,,,,,,2024-12-23,1,,,,,エッチピージャパン,0
2029,9120001271215,新規,0,2024-12-23,2024-12-23,海青豪株式会社,,株式会社,大阪府,大阪市東住吉区,杭全５丁目９番６号,,27,121,5460002,,,,,,,2024-12-23,1,,,,,カイセイゴウ,0
2030,9120001271280,新規,0,2024-12-23,2024-12-23,株式会社ＭＹＳ,,株式会社,大阪府,大阪市鶴見区,放出東３丁目２１－４０ローレルコート放出２０５,,27,124,5380044,,,,,,,2024-12-23,1,,,,,マイス,0
2032,9120003028225,新規,0,2024-12-23,2024-12-23,合同会社結まーる,,合同会社,大阪府,大阪市東淀川区,大道南２丁目２１番７号クオリティ東淀川１０１号,,27,114,5330012,,,,,,,2024-12-23,1,,,,,ユイマール,0
2033,9120005024668,新規,0,2024-12-23,2024-12-23,一般社団法人福祉事業共栄会,,その他の設立登記法人,大阪府,大阪市中央区,内本町２丁目１－１９,,27,128,5400026,,,,,,,2024-12-23,1,,,,,フクシジギョウキョウエイカイ,0
2044,9122001038759,新規,0,2024-12-23,2024-12-23,株式会社アセットバンク,,株式会社,大阪府,東大阪市,長田２丁目１番１１号,,27,227,5770015,,,,,,,2024-12-23,1,,,,,アセットバンク,0
2048,9130001078634,新規,0,2024-12-23,2024-12-23,株式会社理,,株式会社,京都府,舞鶴市,字上安小字中ノ脇１７００番地,,26,202,6240912,,,,,,,2024-12-23,1,,,,,コトワリ,0
2049,9130001078642,新規,0,2024-12-23,2024-12-23,株式会社ＧＯＡＬ,,株式会社,京都府,京都市下京区,小稲荷町８５－２Ｇｒａｎｄ－Ｋ京都駅前ビル２０１,,26,106,6008208,,,,,,,2024-12-23,1,,,,,ゴール,0
2057,9140001136779,新規,0,2024-12-23,2024-12-23,株式会社プライム,,株式会社,兵庫県,西宮市,上之町１２番２１号,,28,204,6638021,,,,,,,2024-12-23,1,,,,,プライム,0
2064,9170001018421,新規,0,2024-12-23,2024-12-23,株式会社Ｎｏｒｔｈ　ｗａｔｅｒ　Ｐａｌａｃｅ,,株式会社,和歌山県,和歌山市,砂山南３丁目３番３４号,,30,201,6408272,,,,,,,2024-12-23,1,,,,,ノースウォータパレス,0
2075,9190003004888,新規,0,2024-12-23,2024-12-23,合同会社ＤｏｕｂｌｅＳｌａｐ,,合同会社,三重県,四日市市,市場町２０７７番地,,24,202,5121302,,,,,,,2024-12-23,1,,,,,ダブルスラップ,0
2077,9200001043259,新規,0,2024-12-23,2024-12-23,コダマプラスト株式会社,,株式会社,岐阜県,安八郡神戸町,大字末守字長池３７７番地の１,,21,381,5032321,,,,,,,2024-12-23,1,,,,,コダマプラスト,0
2079,9210001020001,新規,0,2024-12-23,2024-12-23,株式会社Ｓ　ＭＯＤＥＬ　ＷＯＲＫＳ,,株式会社,福井県,福井市,加茂緑苑町４１３番地１,,18,201,9188058,,,,,,,2024-12-23,1,,,,,エスモデルワークス,0
2099,9290003016196,新規,0,2024-12-23,2024-12-23,合同会社ふくおか政策経営研究所,,合同会社,福岡県,福岡市早良区,城西２丁目５番３０－５０４号,,40,137,8140003,,,,,,,2024-12-23,1,,,,,フクオカセイサクケイエイケンキュウジョ,0
2101,9310001019371,新規,0,2024-12-23,2024-12-23,株式会社ＫＦＫ,,株式会社,長崎県,佐世保市,天神４丁目２４１７番地５,,42,202,8571174,,,,,,,2024-12-23,1,,,,,ケイエフケイ,0
2102,9320001020865,新規,0,2024-12-23,2024-12-23,株式会社Ｉｎｔｅｌｌｅｃｔ　Ｂｒａｉｎ,,株式会社,大分県,大分市,碩田町３丁目１オフィスニューガイヤ大分北３０１号室,,44,201,8700048,,,,,,,2024-12-23,1,,,,,インテレクトブレイン,0
2103,9340001027009,新規,0,2024-12-23,2024-12-23,ＳＱＵＩＤ　ＴＲＩＢＥ株式会社,,株式会社,鹿児島県,熊毛郡屋久島町,宮之浦４２１番地３４,,46,505,8914205,,,,,,,2024-12-23,1,,,,,スクイッドトライブ,0
2111,9360001034548,新規,0,2024-12-23,2024-12-23,株式会社カパリノ,,株式会社,沖縄県,沖縄市,上地１丁目５番１号仲本ビル１Ａ,,47,211,9040031,,,,,,,2024-12-23,1,,,,,カパリノ,0
2112,9360001034556,新規,0,2024-12-23,2024-12-23,ＷＢＹ株式会社,,株式会社,沖縄県,那覇市,西２丁目３番１５号碧村ビル２Ｆ,,47,201,9000036,,,,,,,2024-12-23,1,,,,,ダブリュビーワイ,0
2121,9430001093314,新規,0,2024-12-23,2024-12-23,株式会社ｓｔｕｄｉｏ　ｎｏｔｔａ,,株式会社,北海道,札幌市中央区,北一条西２８丁目２番５号,,01,101,0640821,,,,,,,2024-12-23,1,,,,,スタジオノッタ,0
