sequenceNumber,corporateNumber,process,correct,updateDate,changeDate,name,nameImageId,kind,prefectureName,cityName,streetNumber,addressImageId,prefectureCode,cityCode,postCode,addressOutside,addressOutsideImageId,closeDate,closeCause,successorCorporateNumber,changeCause,assignmentDate,latest,enName,enPrefectureName,enCityName,enAddressOutside,furigana,hihyoji
10,1010001244890,新規,0,2024-05-23,2024-05-23,コトノハピーアール株式会社,,株式会社,東京都,中央区,日本橋兜町１７番２号,,13,102,1030026,,,,,,,2024-05-23,1,,,,,コトノハピーアール,0
11,1010001245006,新規,0,2024-05-23,2024-05-23,野村鉱業株式会社,,株式会社,東京都,千代田区,大手町１丁目７番２号,,13,101,1000004,,,,,,,2024-05-23,1,,,,,,0
17,1010003043795,新規,0,2024-05-23,2024-05-23,合同会社ビー商事,,合同会社,東京都,中央区,日本橋兜町１７－１－７０７,,13,102,1030026,,,,,,,2024-05-23,1,,,,,ビーショウジ,0
26,1010401182600,新規,0,2024-05-23,2024-05-23,株式会社ｏｒｂ,,株式会社,東京都,港区,南青山６丁目１３番５号,,13,103,1070062,,,,,,,2024-05-23,1,,,,,オーブ,0
27,1010401182666,新規,0,2024-05-23,2024-05-23,ＬＳ‐ＳＨＩＰ第６２号株式会社,,株式会社,東京都,港区,六本木１丁目６番１号,,13,103,1060032,,,,,,,2024-05-23,1,,,,,エルエスシップダイロクジュウニゴウ,0
28,1010401182690,新規,0,2024-05-23,2024-05-23,株式会社ザイオン,,株式会社,東京都,港区,芝２丁目３１番１７号,,13,103,1050014,,,,,,,2024-05-23,1,,,,,ザイオン,0
32,1010501052307,新規,0,2024-05-23,2024-05-23,株式会社エンタープライズ,,株式会社,東京都,台東区,上野２丁目１２番２号池本ビル２階Ｂ室,,13,106,1100005,,,,,,,2024-05-23,1,,,,,エンタープライズ,0
33,1010503007449,新規,0,2024-05-23,2024-05-23,合同会社アカリ・ナカムラヤ,,合同会社,東京都,台東区,浅草１丁目１３番５号,,13,106,1110032,,,,,,,2024-05-23,1,,,,,アカリナカムラヤ,0
36,1010601065225,新規,0,2024-05-23,2024-05-23,ＤｉＳＥＭ株式会社,,株式会社,東京都,江東区,有明３丁目７番２６号有明フロンティアビルＢ棟９階,,13,108,1350063,,,,,,,2024-05-23,1,,,,,ディセム,0
39,1010701046042,新規,0,2024-05-23,2024-05-23,株式会社ＨＮＹＯ,,株式会社,東京都,品川区,東大井５丁目１７番２号野村ビルＢ１階,,13,109,1400011,,,,,,,2024-05-23,1,,,,,エイチエヌワイオー,0
46,1011001162091,新規,0,2024-05-23,2024-05-23,Ａｂｌｏｏｍ　Ｒｉｔｚ株式会社,,株式会社,東京都,渋谷区,本町２丁目３番１号,,13,113,1510071,,,,,,,2024-05-23,1,,,,,アブルームリッツ,0
47,1011001162125,新規,0,2024-05-23,2024-05-23,バックオフィスバンク株式会社,,株式会社,東京都,渋谷区,神宮前６丁目２３番４号桑野ビル２階,,13,113,1500001,,,,,,,2024-05-23,1,,,,,バックオフィスバンク,0
48,1011001162199,新規,0,2024-05-23,2024-05-23,株式会社ａｄｒａ　ｃｏｎｎｅｃｔ,,株式会社,東京都,渋谷区,宇田川町３番７号ヒューリック渋谷公園通りビル５階－９４,,13,113,1500042,,,,,,,2024-05-23,1,,,,,アドラコネクト,0
49,1011001162216,新規,0,2024-05-23,2024-05-23,株式会社Ｈｅａｐ,,株式会社,東京都,渋谷区,神宮前６丁目２３番４号桑野ビル２階,,13,113,1500001,,,,,,,2024-05-23,1,,,,,ヒープ,0
50,1011003019216,新規,0,2024-05-23,2024-05-23,合同会社Ｉ　ａｍ　Ｍｅ．,,合同会社,東京都,渋谷区,代々木３丁目１－１１パシフィックスクエア２ＦＢｌｏｃｋ０３,,13,113,1510053,,,,,,,2024-05-23,1,,,,,アイアムミードット,0
56,1011203004397,新規,0,2024-05-23,2024-05-23,合同会社ＳｏｆＲｏｃｋ　Ｇａｍｅｓ,,合同会社,東京都,中野区,本町６丁目２７－１２ＴＡＳ＋ＮＡＫＡＮＯＢＬＤ．５０３,,13,114,1640012,,,,,,,2024-05-23,1,,,,,ソフロックゲームズ,0
57,1011301029692,新規,0,2024-05-23,2024-05-23,株式会社清水興業,,株式会社,東京都,杉並区,下高井戸３丁目３６番１９号ハイムＭＫＳ,,13,115,1680073,,,,,,,2024-05-23,1,,,,,シミズコウギョウ,0
59,1011401026111,新規,0,2024-05-23,2024-05-23,株式会社ナカムラ,,株式会社,東京都,板橋区,中台３丁目２７番Ｆ－１３１２,,13,119,1740064,,,,,,,2024-05-23,1,,,,,ナカムラ,0
60,1011403004395,新規,0,2024-05-23,2024-05-23,ＢＢＭ合同会社,,合同会社,東京都,板橋区,徳丸６丁目４６番６号,,13,119,1750083,,,,,,,2024-05-23,1,,,,,ビービーエム,0
62,1011501030707,新規,0,2024-05-23,2024-05-23,株式会社タムテック,,株式会社,東京都,荒川区,荒川４丁目１０番１４号,,13,118,1160002,,,,,,,2024-05-23,1,,,,,タムテック,0
66,1011801044274,新規,0,2024-05-23,2024-05-23,株式会社エムアイ,,株式会社,東京都,葛飾区,東金町３丁目４番７号,,13,122,1250041,,,,,,,2024-05-23,1,,,,,エムアイ,0
70,1012401041892,新規,0,2024-05-23,2024-05-23,株式会社Ｕ‐Ｇａｒｄｅｎ,,株式会社,東京都,府中市,紅葉丘３丁目４８番７３号,,13,206,1830004,,,,,,,2024-05-23,1,,,,,ユーガーデン,0
74,1013103001342,新規,0,2024-05-23,2024-05-23,合同会社紘企画,,合同会社,東京都,西多摩郡日の出町,大字大久野９３８―９,,13,305,1900181,,,,,,,2024-05-23,1,,,,,ヒロキカク,0
77,1013301052575,新規,0,2024-05-23,2024-05-23,株式会社三六五,,株式会社,東京都,豊島区,東池袋４丁目２番１－２９０５号,,13,116,1700013,,,,,,,2024-05-23,1,,,,,サンロクゴ,0
79,1020001157332,新規,0,2024-05-23,2024-05-23,鈴繁株式会社,,株式会社,神奈川県,横浜市神奈川区,片倉１丁目５番１７号２階,,14,102,2210865,,,,,,,2024-05-23,1,,,,,スズシゲ,0
80,1020001157340,新規,0,2024-05-23,2024-05-23,ＷｉｎｄＣａｌｍ株式会社,,株式会社,神奈川県,横浜市港北区,新横浜３丁目９－５新横浜第３東昇ビルＢ１０７,,14,109,2220033,,,,,,,2024-05-23,1,,,,,ウインドカーム,0
81,1020001157365,新規,0,2024-05-23,2024-05-23,医療シスウェル株式会社,,株式会社,神奈川県,横浜市西区,北幸２丁目１０番４８号むつみビル３階,,14,103,2200004,,,,,,,2024-05-23,1,,,,,イリョウシスウェル,0
84,1020003026171,新規,0,2024-05-23,2024-05-23,合同会社せんじゅ,,合同会社,神奈川県,川崎市川崎区,桜本１丁目１８－２１,,14,131,2100833,,,,,,,2024-05-23,1,,,,,センジュ,0
95,1030001160392,新規,0,2024-05-23,2024-05-23,ＭＡＮＹ　ＮＥＸＵＳ株式会社,,株式会社,埼玉県,さいたま市見沼区,染谷３丁目４８８番地,,11,104,3370026,,,,,,,2024-05-23,1,,,,,メニーネクサス,0
96,1030001160525,新規,0,2024-05-23,2024-05-23,株式会社あんきち工房,,株式会社,埼玉県,日高市,大字女影１２３２銀河堂２Ｆ,,11,242,3501227,,,,,,,2024-05-23,1,,,,,アンキチコウボウ,0
102,1030003024307,新規,0,2024-05-23,2024-05-23,合同会社ＫＯＴＯＢＡ,,合同会社,埼玉県,さいたま市見沼区,大字小深作１９５フォレンツェ３０３,,11,104,3370005,,,,,,,2024-05-23,1,,,,,コトバ,0
103,1030003024348,新規,0,2024-05-23,2024-05-23,合同会社Ｅａｒｌｙｈｅａｒｔ,,合同会社,埼玉県,川口市,西川口４丁目４－２３－１,,11,203,3320021,,,,,,,2024-05-23,1,,,,,アーリーハート,0
104,1030003024356,新規,0,2024-05-23,2024-05-23,合同会社洋一制作,,合同会社,埼玉県,川口市,芝新町４－８ＵＲＢＡＮＦＯＲＵＭ蕨５Ｆ（Ｃ３８）,,11,203,3330851,,,,,,,2024-05-23,1,,,,,ヨウイチセイサク,0
105,1030005021707,新規,0,2024-05-23,2024-05-23,一般社団法人日本メルテック協会,,その他の設立登記法人,埼玉県,川口市,元郷２丁目２番６,,11,203,3320011,,,,,,,2024-05-23,1,,,,,ニホンメルテックキョウカイ,0
109,1040001133744,新規,0,2024-05-23,2024-05-23,株式会社金正運送,,株式会社,千葉県,松戸市,松戸２０８８番地,,12,207,2710092,,,,,,,2024-05-23,1,,,,,カネマサウンソウ,0
110,1040001133760,新規,0,2024-05-23,2024-05-23,ＡＬＰＨＡ　ＧＲＯＵＰ株式会社,,株式会社,千葉県,野田市,柏寺１４０番地７,,12,208,2700214,,,,,,,2024-05-23,1,,,,,アルファグループ,0
111,1040001133769,新規,0,2024-05-23,2024-05-23,株式会社ケーズアクトモーションプラス,,株式会社,千葉県,船橋市,夏見６丁目１２―２０,,12,204,2730865,,,,,,,2024-05-23,1,,,,,ケーズアクトモーションプラス,0
117,1050001054790,新規,0,2024-05-23,2024-05-23,ＲＡ‐ＮＯ’Ｓ　ＲＡＣＩＮＧ株式会社,,株式会社,茨城県,常総市,国生１４２１番地７,,08,211,3002741,,,,,,,2024-05-23,1,,,,,ラノーズレーシング,0
119,1050003008381,新規,0,2024-05-23,2024-05-23,合同会社縁心Ｇ,,合同会社,茨城県,鉾田市,鹿田１０８番地３,,08,234,3111416,,,,,,,2024-05-23,1,,,,,エンハートグループ,0
123,1060001037126,新規,0,2024-05-23,2024-05-23,株式会社ブルーベリーと里山と,,株式会社,栃木県,芳賀郡益子町,大字大沢２８２１番地１１,,09,342,3214104,,,,,,,2024-05-23,1,,,,,ブルーベリートサトヤマト,0
136,1110001038432,新規,0,2024-05-23,2024-05-23,株式会社Ｇｌｏｂａｌ　Ｔａｓｔｅ　Ｖｅｎｔｕｒｅｓ,,株式会社,新潟県,長岡市,三和１丁目１番２４号,,15,202,9401151,,,,,,,2024-05-23,1,,,,,グローバルテイストベンチャーズ,0
148,1120001265001,新規,0,2024-05-23,2024-05-23,エジソンキャピトル株式会社,,株式会社,大阪府,大阪市北区,天満２丁目９－１７－５０３号,,27,127,5300043,,,,,,,2024-05-23,1,,,,,エジソンキャピトル,0
150,1120001265224,新規,0,2024-05-23,2024-05-23,イーブ株式会社,,株式会社,大阪府,大阪市北区,同心２丁目３番地１９号ルネサンス同心ビル３階,,27,127,5300035,,,,,,,2024-05-23,1,,,,,イーブ,0
151,1120001265257,新規,0,2024-05-23,2024-05-23,軒本技研株式会社,,株式会社,大阪府,大阪市東淀川区,東中島１丁目１７番５号,,27,114,5330033,,,,,,,2024-05-23,1,,,,,ノキモトギケン,0
156,1120003026665,新規,0,2024-05-23,2024-05-23,合同会社ｓｈｏｗ,,合同会社,大阪府,大阪市東住吉区,針中野３丁目６番２６号,,27,121,5460011,,,,,,,2024-05-23,1,,,,,ショウ,0
161,1130001077107,新規,0,2024-05-23,2024-05-23,アピスプロパティ株式会社,,株式会社,京都府,京都市右京区,梅津中村町１５－１ＶｉＶｉ嵐山１０１,,26,108,6150916,,,,,,,2024-05-23,1,,,,,アピスプロパティ,0
162,1130003009586,新規,0,2024-05-23,2024-05-23,合同会社中島商店,,合同会社,京都府,京都市山科区,音羽乙出町２番地３,,26,110,6078074,,,,,,,2024-05-23,1,,,,,ナカジマショウテン,0
165,1130005017100,新規,0,2024-05-23,2024-05-23,ＮＰＯ法人京都障害福祉デジタル化推進協会,,その他の設立登記法人,京都府,京都市左京区,下鴨夜光町１６－１コスモエル下鴨,,26,103,6060837,,,,,,,2024-05-23,1,,,,,キョウトショウガイフクシデジダルカスイシンキョウカイ,0
169,1140001134501,新規,0,2024-05-23,2024-05-23,ミライコンパス株式会社,,株式会社,兵庫県,西宮市,苦楽園二番町１９番３３号,,28,204,6620082,,,,,,,2024-05-23,1,,,,,ミライコンパス,0
176,1160001025946,新規,0,2024-05-23,2024-05-23,よこななめ株式会社,,株式会社,滋賀県,大津市,皇子が丘１丁目６番６－６１１号,,25,201,5200025,,,,,,,2024-05-23,1,,,,,ヨコナナメ,0
180,1180001161533,新規,0,2024-05-23,2024-05-23,株式会社キーノスロジック,,株式会社,愛知県,名古屋市千種区,仲田２丁目１７番７号池下タワーズ４階,,23,101,4640074,,,,,,,2024-05-23,1,,,,,キーノスロジック,0
181,1180001161582,新規,0,2024-05-23,2024-05-23,株式会社アンドチル,,株式会社,愛知県,名古屋市中村区,井深町１１番１２号,,23,105,4530012,,,,,,,2024-05-23,1,,,,,アンドチル,0
182,1180001161616,新規,0,2024-05-23,2024-05-23,株式会社ディアホープ,,株式会社,愛知県,瀬戸市,やまて坂１丁目２２番地,,23,204,4890980,,,,,,,2024-05-23,1,,,,,ディアホープ,0
183,1180001161624,新規,0,2024-05-23,2024-05-23,株式会社丹羽保温,,株式会社,愛知県,名古屋市中川区,万場５丁目１５０４番地,,23,110,4540997,,,,,,,2024-05-23,1,,,,,ニワホオン,0
185,1180003026809,新規,0,2024-05-23,2024-05-23,ＮＡＵＴＩＬＵＳ合同会社,,合同会社,愛知県,名古屋市千種区,唐山町１丁目５６番地の２グランドメゾン東山ザ・コート４０３号,,23,101,4640806,,,,,,,2024-05-23,1,,,,,ノーチラス,0
188,1180301038670,新規,0,2024-05-23,2024-05-23,株式会社八かい,,株式会社,愛知県,みよし市,明知町八和田山３番地２２６,,23,236,4700214,,,,,,,2024-05-23,1,,,,,ハッカイ,0
202,1260001039093,新規,0,2024-05-23,2024-05-23,株式会社ひかさ産業医事務所,,株式会社,岡山県,岡山市北区,磨屋町３－１０ＴＯＧＩＴＯＧＩ２Ｆ,,33,101,7000826,,,,,,,2024-05-23,1,,,,,ヒカササンギョウイジムショ,0
205,1290001105850,新規,0,2024-05-23,2024-05-23,株式会社ヴァンセット,,株式会社,福岡県,福岡市中央区,警固３丁目１番２６号１Ｆ,,40,133,8100023,,,,,,,2024-05-23,1,,,,,,0
206,1290003015239,新規,0,2024-05-23,2024-05-23,合同会社ＴＴＭ,,合同会社,福岡県,福岡市中央区,渡辺通５丁目１０番１号モアフィールド天神南６０３号,,40,133,8100004,,,,,,,2024-05-23,1,,,,,ティーティーエム,0
207,1290003015288,新規,0,2024-05-23,2024-05-23,合同会社えんしゅう,,合同会社,福岡県,糸島市,前原中央２丁目１３番３号,,40,230,8191116,,,,,,,2024-05-23,1,,,,,エンシュウ,0
208,1290003015313,新規,0,2024-05-23,2024-05-23,合同会社トラプロ,,合同会社,福岡県,福岡市南区,屋形原５丁目１０－４７－２０６,,40,134,8111351,,,,,,,2024-05-23,1,,,,,トラプロ,0
216,1340005009737,新規,0,2024-05-23,2024-05-23,一般社団法人きみのせき舎,,その他の設立登記法人,鹿児島県,伊佐市,大口上町２番１２,,46,224,8952513,,,,,,,2024-05-23,1,,,,,キミノセキシャ,0
218,1360001033714,新規,0,2024-05-23,2024-05-23,株式会社よっち,,株式会社,沖縄県,石垣市,字新川１６３３番地１,,47,207,9070024,,,,,,,2024-05-23,1,,,,,ヨッチ,0
223,1370001051310,新規,0,2024-05-23,2024-05-23,株式会社信大機工,,株式会社,宮城県,登米市,南方町瀬ノ淵８２番地５,,04,212,9870411,,,,,,,2024-05-23,1,,,,,シンダイキコウ,0
236,1440001009441,新規,0,2024-05-23,2024-05-23,株式会社ファニング,,株式会社,北海道,函館市,宮前町４番１３号ｋｏｍａビル３Ｆ,,01,202,0400073,,,,,,,2024-05-23,1,,,,,ファニング,0
237,1450001014325,新規,0,2024-05-23,2024-05-23,株式会社ＬＵＸＥ,,株式会社,北海道,旭川市,二条通８丁目４３２番地の１サンエイビル１Ｆ,,01,204,0700032,,,,,,,2024-05-23,1,,,,,リュクス,0
241,1480001012482,新規,0,2024-05-23,2024-05-23,Ｙ’ｓカンパニー株式会社,,株式会社,徳島県,三好郡東みよし町,足代２２４５番地,,36,489,7712502,,,,,,,2024-05-23,1,,,,,ワイズカンパニー,0
243,1500001025655,新規,0,2024-05-23,2024-05-23,ＤＯＰＥ２４株式会社,,株式会社,愛媛県,松山市,道後緑台１０－３,,38,201,7900847,,,,,,,2024-05-23,1,,,,,ドープニジュウヨン,0
246,1700150119130,新規,0,2024-05-23,2024-05-23,Ｓｈｅｎｚｈｅｎ　Ｙｉｙｉｈａｉ　Ｅｌｅｃｔｒｏｎｉｃ　Ｃｏｍｍｅｒｃｅ　Ｃｏ．，Ｌｔｄ．,,外国会社等,,,,,,,,Ｒｏｏｍ　２８０６－Ｑ４６，Ｗａｉ　Ｍａｏ　Ｊｉ　Ｔｕａｎ　Ｂｕｉｌｄｉｎｇ，Ｎｏ．２３９，Ｚｈｏｎｇｘｉｎｇ　Ｒｏａｄ，Ｃｈｅｎｇｄｏｎｇ　Ｃｏｍｍｕｎｉｔｙ，Ｄｏｎｇｍｅｎ　Ｓｔｒｅｅｔ，Ｌｕｏｈｕ　Ｄｉｓｔｒｉｃｔ，Ｓｈｅｎｚｈｅｎ，Ｇｕａｎｇｄｏｎｇ,,,,,,2024-05-23,1,,,,,シンセンイチカイヨウデンシショウヒトリヒキトリヒキユウゲンガイシャ,0
247,1700150120749,新規,0,2024-05-23,2024-05-23,Ｓｈｅｎ　ｚｈｅｎ　ｓｈｉ　ｚｈｉ　ｙｉ　ｍａｏ　ｙｉ　ｙｏｕ　ｘｉａｎ　ｇｏｎｇ　ｓｉ,,外国会社等,,,,,,,,Ｌｏｎｇ　ｈｕａ　ｘｉｎ　ｑｕ　ｍｉｎ　ｚｈｉ　ｊｉｅ　ｄａｏ　ｍｉｎ　ｔａｉ　ｄａ　ｓｈａ　ｚｏｎｇ　ｈｅ　ｌｏｕ　１０　ｃｅｎｇ　１００７Ｂ　Ｓｈｅｎ　ｚｈｅｎ　Ｇｕａｎｇ　ｄｏｎｇ,,,,,,2024-05-23,1,,,,,シェンジェンシジイマオイヨウシエンゴンス,0
254,2010001245013,新規,0,2024-05-23,2024-05-23,Ｎｉｐｐｏｎ株式会社,,株式会社,東京都,中央区,湊３丁目１２番６－３０３号,,13,102,1040043,,,,,,,2024-05-23,1,,,,,ニッポン,0
255,2010001245021,新規,0,2024-05-23,2024-05-23,株式会社Ｋａｒｄａｍｏｍ,,株式会社,東京都,中央区,銀座１丁目１２番４号Ｎ＆ＥＢＬＤ．６Ｆ,,13,102,1040061,,,,,,,2024-05-23,1,,,,,カルダモン,0
256,2010001245079,新規,0,2024-05-23,2024-05-23,三澤株式会社,,株式会社,東京都,千代田区,神田三崎町２丁目１０番１１号４Ａ－６,,13,101,1010061,,,,,,,2024-05-23,1,,,,,ミサワ,0
257,2010001245087,新規,0,2024-05-23,2024-05-23,りちゃる株式会社,,株式会社,東京都,千代田区,東神田１丁目１６番５号４Ｆ,,13,101,1010031,,,,,,,2024-05-23,1,,,,,リチャル,0
259,2010003043836,新規,0,2024-05-23,2024-05-23,ＯＳＪ　ＢＡＮＤＡＩ合同会社,,合同会社,東京都,千代田区,丸の内３丁目１番１号東京共同会計事務所内,,13,101,1000005,,,,,,,2024-05-23,1,,,,,オーエスジェイバンダイ,0
268,2010401182566,新規,0,2024-05-23,2024-05-23,Ａｖｅｎｉｒ株式会社,,株式会社,東京都,港区,南青山３丁目５番２号南青山第一韮沢ビル３Ｆ－３２８,,13,103,1070062,,,,,,,2024-05-23,1,,,,,アヴニール,0
269,2010401182599,新規,0,2024-05-23,2024-05-23,株式会社Ｇｏｏｄ　Ｌｕｃｋ,,株式会社,東京都,港区,北青山１丁目３番１号アールキューブ青山３階,,13,103,1070061,,,,,,,2024-05-23,1,,,,,グッドラック,0
270,2010401182665,新規,0,2024-05-23,2024-05-23,ＬＳ‐ＳＨＩＰ第６１号株式会社,,株式会社,東京都,港区,六本木１丁目６番１号,,13,103,1060032,,,,,,,2024-05-23,1,,,,,エルエスシップダイロクジュウイチゴウ,0
272,2010403032637,新規,0,2024-05-23,2024-05-23,合同会社４Ｂｒｉｎｇ,,合同会社,東京都,港区,東麻布１丁目９番１６号４階,,13,103,1060044,,,,,,,2024-05-23,1,,,,,ヨンビーリング,0
275,2010501052306,新規,0,2024-05-23,2024-05-23,株式会社グランドクーニー,,株式会社,東京都,台東区,柳橋１丁目１４番３－１０１号,,13,106,1110052,,,,,,,2024-05-23,1,,,,,グランドクーニー,0
279,2010601065265,新規,0,2024-05-23,2024-05-23,福翁・アンド・アソシエイツ株式会社,,株式会社,東京都,墨田区,太平４丁目１番１,,13,107,1300012,,,,,,,2024-05-23,1,,,,,フクオウアンドアソシエイツ,0
281,2010801035084,新規,0,2024-05-23,2024-05-23,Ｌｉｂｏ株式会社,,株式会社,東京都,大田区,西蒲田７丁目９番１０号ウイズ月むら４０１,,13,111,1440051,,,,,,,2024-05-23,1,,,,,リーボ,0
283,2010901055338,新規,0,2024-05-23,2024-05-23,株式会社Ｃｒｅｍｍａ,,株式会社,東京都,世田谷区,北沢３丁目２１番４号,,13,112,1550031,,,,,,,2024-05-23,1,,,,,クレマ,0
285,2010903009085,新規,0,2024-05-23,2024-05-23,ランバーラップジャパン合同会社,,合同会社,東京都,世田谷区,奥沢５丁目１番１１号メゾンドジョワ２０２,,13,112,1580083,,,,,,,2024-05-23,1,,,,,ランバーラップジャパン,0
293,2011001162082,新規,0,2024-05-23,2024-05-23,株式会社モンキーポッド,,株式会社,東京都,渋谷区,恵比寿西１丁目３１番１６－３０１号,,13,113,1500021,,,,,,,2024-05-23,1,,,,,モンキーポッド,0
294,2011001162108,新規,0,2024-05-23,2024-05-23,株式会社アベリアＨＲパートナーズ,,株式会社,東京都,渋谷区,神宮前６丁目２３番４号桑野ビル２Ｆ,,13,113,1500001,,,,,,,2024-05-23,1,,,,,アベリアエイチアールパートナーズ,0
295,2011001162116,新規,0,2024-05-23,2024-05-23,Ｏｎｅ　Ｐｏｉｎｔ　Ｆｉｖｅ株式会社,,株式会社,東京都,目黒区,下目黒１丁目１番１４号コノトラビル７Ｆ,,13,110,1530064,,,,,,,2024-05-23,1,,,,,ワンポイントファイブ,0
296,2011001162124,新規,0,2024-05-23,2024-05-23,株式会社ライブメント,,株式会社,東京都,渋谷区,神宮前６丁目２３番４号桑野ビル２階,,13,113,1500001,,,,,,,2024-05-23,1,,,,,ライブメント,0
297,2011003019198,新規,0,2024-05-23,2024-05-23,合同会社ハローブルー,,合同会社,東京都,目黒区,自由が丘２丁目１６番１２号ＲＪ３,,13,110,1520035,,,,,,,2024-05-23,1,,,,,ハローブルー,0
300,2011101107367,新規,0,2024-05-23,2024-05-23,Ａｌａｗ株式会社,,株式会社,東京都,新宿区,北新宿３丁目９番１６号２階,,13,104,1690074,,,,,,,2024-05-23,1,,,,,アロウ,0
301,2011101107400,新規,0,2024-05-23,2024-05-23,株式会社ｅＮＥＴ,,株式会社,東京都,新宿区,新宿５丁目１７番２号ＹＭビル８階,,13,104,1600022,,,,,,,2024-05-23,1,,,,,エネット,0
303,2011103014462,新規,0,2024-05-23,2024-05-23,グローバルハーモニー合同会社,,合同会社,東京都,新宿区,西新宿１丁目２６番２号新宿野村ビル３２階,,13,104,1600023,,,,,,,2024-05-23,1,,,,,グローバルハーモニー,0
305,2011203004396,新規,0,2024-05-23,2024-05-23,合同会社インクワイアリー,,合同会社,東京都,中野区,上鷺宮２丁目１８番６号,,13,114,1650031,,,,,,,2024-05-23,1,,,,,インクワイアリー,0
307,2011401026127,新規,0,2024-05-23,2024-05-23,ＰＳＰ株式会社,,株式会社,東京都,板橋区,常盤台１丁目５番８－２０１号シルバン,,13,119,1740071,,,,,,,2024-05-23,1,,,,,ピーエスピー,0
309,2011501030706,新規,0,2024-05-23,2024-05-23,ＫＸＹ　ＣＩＫＥ株式会社,,株式会社,東京都,荒川区,町屋１丁目２１番１７号,,13,118,1160001,,,,,,,2024-05-23,1,,,,,ケーエックスワイチーケ,0
311,2011801044273,新規,0,2024-05-23,2024-05-23,株式会社新喜コーポレーション,,株式会社,東京都,葛飾区,高砂２丁目３番１２号,,13,122,1250054,,,,,,,2024-05-23,1,,,,,シンキコーポレーション,0
319,2012403006570,新規,0,2024-05-23,2024-05-23,合同会社ビヨンド,,合同会社,東京都,三鷹市,野崎２丁目５番２号,,13,204,1810014,,,,,,,2024-05-23,1,,,,,ビヨンド,0
325,2013103001341,新規,0,2024-05-23,2024-05-23,合同会社躍心,,合同会社,東京都,西多摩郡瑞穂町,大字箱根ケ崎７０８‐８９,,13,303,1901221,,,,,,,2024-05-23,1,,,,,,0
328,2020001157315,新規,0,2024-05-23,2024-05-23,ビルド・ライフ株式会社,,株式会社,神奈川県,横浜市神奈川区,西神奈川１丁目１７番地１エルハイム西神奈川４０１号,,14,102,2210822,,,,,,,2024-05-23,1,,,,,ビルドライフ,0
329,2020001157331,新規,0,2024-05-23,2024-05-23,株式会社ＡＬＯ,,株式会社,神奈川県,横浜市青葉区,青葉台２丁目７番地２鴨志田ビル４０２,,14,117,2270062,,,,,,,2024-05-23,1,,,,,エーエルオー,0
330,2020001157348,新規,0,2024-05-23,2024-05-23,株式会社コア,,株式会社,神奈川県,横浜市中区,元浜町３丁目２３番地,,14,104,2310004,,,,,,,2024-05-23,1,,,,,コア,0
331,2020001157356,新規,0,2024-05-23,2024-05-23,株式会社ミディエンタープライズ,,株式会社,神奈川県,横浜市鶴見区,平安町１丁目１３番地,,14,101,2300031,,,,,,,2024-05-23,1,,,,,ミディエンタープライズ,0
334,2020003026170,新規,0,2024-05-23,2024-05-23,さるいのデザイン合同会社,,合同会社,神奈川県,横浜市鶴見区,東寺尾３丁目２４－２,,14,101,2300077,,,,,,,2024-05-23,1,,,,,サルイノデザイン,0
335,2020003026187,新規,0,2024-05-23,2024-05-23,合同会社彼方此方,,合同会社,神奈川県,横浜市西区,北幸２丁目１０番４８号むつみビル３階,,14,103,2200004,,,,,,,2024-05-23,1,,,,,アチコチ,0
341,2021003014545,新規,0,2024-05-23,2024-05-23,合同会社村上ハウジング,,合同会社,神奈川県,茅ヶ崎市,萩園１７３９番地５,,14,207,2530071,,,,,,,2024-05-23,1,,,,,ムラカミハウジング,0
344,2030001160383,新規,0,2024-05-23,2024-05-23,株式会社ＪＥ．ＷＩＮＧ,,株式会社,埼玉県,さいたま市北区,土呂町１丁目３６番地８,,11,102,3310804,,,,,,,2024-05-23,1,,,,,ジェイイーウイング,0
345,2030001160474,新規,0,2024-05-23,2024-05-23,Ｘ　Ｐｌｕｓ株式会社,,株式会社,埼玉県,所沢市,南住吉１５番４号,,11,208,3591125,,,,,,,2024-05-23,1,,,,,エクスプラス,0
346,2030001160516,新規,0,2024-05-23,2024-05-23,株式会社ＧｏＩｃｈｉ,,株式会社,埼玉県,川口市,並木１丁目１７番２０号,,11,203,3320034,,,,,,,2024-05-23,1,,,,,ゴイチ,0
347,2030001160524,新規,0,2024-05-23,2024-05-23,株式会社ｔｆｖ,,株式会社,埼玉県,春日部市,本田町１丁目１３４番地２,,11,214,3440016,,,,,,,2024-05-23,1,,,,,ティエフヴィ,0
352,2040001133743,新規,0,2024-05-23,2024-05-23,株式会社ファクトリー,,株式会社,千葉県,千葉市中央区,出洲港７番３７号サンクタス千葉シーサイドアベニュー４０６号,,12,101,2600023,,,,,,,2024-05-23,1,,,,,ファクトリー,0
361,2060003005071,新規,0,2024-05-23,2024-05-23,合同会社サルバチエラサービス,,合同会社,栃木県,下野市,上大領３０６番地５１,,09,216,3290517,,,,,,,2024-05-23,1,,,,,サルバチエラサービス,0
367,2070005010275,新規,0,2024-05-23,2024-05-23,一般社団法人自動車盗難防止協会,,その他の設立登記法人,群馬県,渋川市,北橘町下箱田６２６番地２６,,10,208,3770061,,,,,,,2024-05-23,1,,,,,ジドウシャトウナンボウシキョウカイ,0
383,2100001037475,新規,0,2024-05-23,2024-05-23,株式会社アンビシャス,,株式会社,長野県,松本市,宮田１１番６５－６０７号,,20,202,3990001,,,,,,,2024-05-23,1,,,,,アンビシャス,0
386,2100003007567,新規,0,2024-05-23,2024-05-23,合同会社コトノモト,,合同会社,長野県,北佐久郡軽井沢町,大字発地２５８４番地６,,20,321,3890113,,,,,,,2024-05-23,1,,,,,コトノモト,0
390,2110001038431,新規,0,2024-05-23,2024-05-23,株式会社ＭＬＡ,,株式会社,新潟県,妙高市,大字田口１４５２番地２３,,15,217,9492106,,,,,,,2024-05-23,1,,,,,エムエルエー,0
391,2110003005405,新規,0,2024-05-23,2024-05-23,淡雪合同会社,,合同会社,新潟県,新潟市中央区,本町通１２番町２７８２番地,,15,103,9518067,,,,,,,2024-05-23,1,,,,,アワユキ,0
396,2120001265058,新規,0,2024-05-23,2024-05-23,エナジースタッフ関西圏株式会社,,株式会社,大阪府,大阪市北区,梅田２丁目５番１３号,,27,127,5300001,,,,,,,2024-05-23,1,,,,,エナジースタッフカンサイケン,0
397,2120001265181,新規,0,2024-05-23,2024-05-23,株式会社Ｂｌｏｏｍ　Ｂｏｍｂ,,株式会社,大阪府,大阪市中央区,東心斎橋１丁目２番１号,,27,128,5420083,,,,,,,2024-05-23,1,,,,,ブルームボム,0
398,2120001265198,新規,0,2024-05-23,2024-05-23,株式会社Ｃｈａｎｇｅ　ａｎｄ　ｇｏ,,株式会社,大阪府,大阪市北区,芝田２丁目８－１１共栄ビル３階,,27,127,5300012,,,,,,,2024-05-23,1,,,,,チェンジアンドゴー,0
399,2120001265223,新規,0,2024-05-23,2024-05-23,アセット株式会社,,株式会社,大阪府,大阪市西成区,潮路２丁目１７番９号,,27,122,5570052,,,,,,,2024-05-23,1,,,,,アセット,0
400,2120001265231,新規,0,2024-05-23,2024-05-23,株式会社パワーレーザー,,株式会社,大阪府,大阪市北区,長柄東２丁目１番２４－１１０５号,,27,127,5310063,,,,,,,2024-05-23,1,,,,,パワーレーザー,0
401,2120001265272,新規,0,2024-05-23,2024-05-23,株式会社エムディー警備,,株式会社,大阪府,大阪市淀川区,西中島４丁目６番１６号,,27,123,5320011,,,,,,,2024-05-23,1,,,,,エムディーケイビ,0
403,2120003026656,新規,0,2024-05-23,2024-05-23,ＳＨＡＷＡＲＭＡ　ＨＯＵＳＥ合同会社,,合同会社,大阪府,大阪市中央区,久太郎町３丁目１番２７号ヒグチビル１階,,27,128,5410056,,,,,,,2024-05-23,1,,,,,シャワルマハウス,0
425,2150001027298,新規,0,2024-05-23,2024-05-23,株式会社ネクストアーク,,株式会社,奈良県,大和郡山市,満願寺町６３３番地３,,29,203,6391041,,,,,,,2024-05-23,1,,,,,ネクストアーク,0
431,2170001018155,新規,0,2024-05-23,2024-05-23,Ｍｉｎｄ　ｂｌｏｓｓｏｍ株式会社,,株式会社,和歌山県,海南市,日方１２８９番地１９７,,30,202,6420002,,,,,,,2024-05-23,1,,,,,マインドブロッサム,0
435,2180001161532,新規,0,2024-05-23,2024-05-23,株式会社海栄工業,,株式会社,愛知県,名古屋市港区,正徳町１丁目１９番地,,23,111,4550075,,,,,,,2024-05-23,1,,,,,カイエイコウギョウ,0
436,2180001161540,新規,0,2024-05-23,2024-05-23,株式会社大幸,,株式会社,愛知県,北名古屋市,井瀬木五町４４番地,,23,234,4810014,,,,,,,2024-05-23,1,,,,,ダイコウ,0
437,2180001161565,新規,0,2024-05-23,2024-05-23,株式会社ヤマダ技研,,株式会社,愛知県,名古屋市名東区,高針２丁目１６０１番地,,23,115,4650061,,,,,,,2024-05-23,1,,,,,ヤマダギケン,0
438,2180001161573,新規,0,2024-05-23,2024-05-23,東和不動産販売株式会社,,株式会社,愛知県,豊明市,沓掛町小廻間１６番地２８７,,23,229,4701103,,,,,,,2024-05-23,1,,,,,トウワフドウサンハンバイ,0
439,2180001161607,新規,0,2024-05-23,2024-05-23,ボッカルーポ株式会社,,株式会社,愛知県,名古屋市守山区,瀬古１丁目７０１番地の１,,23,113,4630068,,,,,,,2024-05-23,1,,,,,ボッカルーポ,0
440,2180001161615,新規,0,2024-05-23,2024-05-23,かつお株式会社,,株式会社,愛知県,小牧市,小木南３丁目４８３番地,,23,219,4850056,,,,,,,2024-05-23,1,,,,,カツオ,0
441,2180001161623,新規,0,2024-05-23,2024-05-23,株式会社ＧＥＮ,,株式会社,愛知県,名古屋市東区,橦木町３丁目３０番地セントクレスト橦木２０２号,,23,102,4610014,,,,,,,2024-05-23,1,,,,,ジーイーエヌ,0
451,2230001020360,新規,0,2024-05-23,2024-05-23,森田電器株式会社,,株式会社,富山県,南砺市,福野１５８６番地２,,16,210,9391561,,,,,,,2024-05-23,1,,,,,モリタデンキ,0
454,2240001063268,新規,0,2024-05-23,2024-05-23,株式会社Ｇ　ｓｑｕａｒｅ,,株式会社,広島県,広島市西区,高須台４丁目３番５号,,34,104,7330876,,,,,,,2024-05-23,1,,,,,ジースクエア,0
456,2240003006679,新規,0,2024-05-23,2024-05-23,合同会社ソフィー・ホーキンス,,合同会社,広島県,尾道市,長江２丁目２１番３２号,,34,205,7220046,,,,,,,2024-05-23,1,,,,,ソフィーホーキンス,0
471,2290001105783,新規,0,2024-05-23,2024-05-23,皓恩株式会社,,株式会社,福岡県,福岡市中央区,赤坂２丁目２番９－４０５号,,40,133,8100042,,,,,,,2024-05-23,1,,,,,コウオン,0
473,2290003015304,新規,0,2024-05-23,2024-05-23,合同会社ＡＮ　Ｄｅｓｉｇｎ,,合同会社,福岡県,福岡市中央区,天神２丁目２番１２号Ｔ＆Ｊビルディング７Ｆ,,40,133,8100001,,,,,,,2024-05-23,1,,,,,アンデザイン,0
474,2290003015312,新規,0,2024-05-23,2024-05-23,Ｃｏ‐Ｃｒｅａｔｉｏｎ　Ｃｏｍｐａｎｙ合同会社,,合同会社,福岡県,那珂川市,松木１丁目２０番地グランド・ルー博多南ガーデネッセ９０８号,,40,231,8111251,,,,,,,2024-05-23,1,,,,,コクリエイションカンパニー,0
476,2290801030594,新規,0,2024-05-23,2024-05-23,株式会社ｓｏｃｉａｌｍａｇｉｃ,,株式会社,福岡県,北九州市小倉北区,木町２丁目１７－３　２０２,,40,106,8030851,,,,,,,2024-05-23,1,,,,,ソーシャルマジック,0
482,2360001033713,新規,0,2024-05-23,2024-05-23,株式会社孝栄,,株式会社,沖縄県,宜野湾市,野嵩２丁目１番３号ＳｕｎＥａｓｔＩＩＩ（４Ｆ）,00134874,47,205,9012203,,,,,,,2024-05-23,1,,,,,コウエイ,0
483,2360003014001,新規,0,2024-05-23,2024-05-23,合同会社ＡＬＯＨＡ,,合同会社,沖縄県,うるま市,字田場１０８７－５,,47,213,9042213,,,,,,,2024-05-23,1,,,,,アロハ,0
485,2370001051326,新規,0,2024-05-23,2024-05-23,ＩＱＲＡ　ＴＲＡＤＩＮＧ株式会社,,株式会社,宮城県,仙台市青葉区,台原３丁目３３番１６号２号室,,04,101,9810911,,,,,,,2024-05-23,1,,,,,イクラトレーディング,0
490,2430001091869,新規,0,2024-05-23,2024-05-23,株式会社奏ファーム,,株式会社,北海道,余市郡赤井川村,字富田８１番地,,01,409,0460532,,,,,,,2024-05-23,1,,,,,カナデファーム,0
491,2440001009440,新規,0,2024-05-23,2024-05-23,株式会社丸加加賀谷商店,,株式会社,北海道,函館市,元町２５番１５号,,01,202,0400054,,,,,,,2024-05-23,1,,,,,マルカカガヤショウテン,0
492,2450003002491,新規,0,2024-05-23,2024-05-23,合同会社プロストン,,合同会社,北海道,上川郡鷹栖町,南二条１丁目１番１０号,,01,452,0711202,,,,,,,2024-05-23,1,,,,,プロストン,0
498,2500003003253,新規,0,2024-05-23,2024-05-23,合同会社胡蝶,,合同会社,愛媛県,松山市,二番町１丁目３番地１３,,38,201,7900002,,,,,,,2024-05-23,1,,,,,コチョウ,0
507,3010001245029,新規,0,2024-05-23,2024-05-23,ＳｕｋａｊａｎＴｏｋｙｏ株式会社,,株式会社,東京都,千代田区,三番町９番地４ホーマット三番町４０１号,,13,101,1020075,,,,,,,2024-05-23,1,,,,,スカジャントウキョウ,0
508,3010001245078,新規,0,2024-05-23,2024-05-23,新東京リライアンス株式会社,,株式会社,東京都,千代田区,一ツ橋１丁目１番１号パレスサイドビルディング１階,,13,101,1000003,,,,,,,2024-05-23,1,,,,,シントウキョウリライアンス,0
509,3010001245111,新規,0,2024-05-23,2024-05-23,株式会社とらいろ,,株式会社,東京都,中央区,日本橋２丁目２番３号,,13,102,1030027,,,,,,,2024-05-23,1,,,,,トライロ,0
510,3010003043752,新規,0,2024-05-23,2024-05-23,合同会社ＳＴＪ１,,合同会社,東京都,中央区,日本橋１丁目４番１号日本橋一丁目ビルディング,,13,102,1030027,,,,,,,2024-05-23,1,,,,,エスティージェーワン,0
511,3010003043827,新規,0,2024-05-23,2024-05-23,Ｒｅａｌｅｓｔａｔｅ　Ｃａｐｉｔａｌ　Ｐａｒｔｎｅｒｓ合同会社,,合同会社,東京都,千代田区,霞が関３丁目７－１霞ヶ関東急ビル,,13,101,1000013,,,,,,,2024-05-23,1,,,,,リアルエステートキャピタルパートナーズ,0
523,3010401182581,新規,0,2024-05-23,2024-05-23,株式会社Ｌｏｅｔｉｇｅ,,株式会社,東京都,港区,西麻布２丁目２１番６－２０１号,,13,103,1060031,,,,,,,2024-05-23,1,,,,,ロエティージュ,0
524,3010401182598,新規,0,2024-05-23,2024-05-23,１２７株式会社,,株式会社,東京都,港区,海岸１丁目６－１－２１０４,,13,103,1050022,,,,,,,2024-05-23,1,,,,,イチニナナ,0
525,3010401182664,新規,0,2024-05-23,2024-05-23,ＬＳ‐Ａｖｉａｔｉｏｎ第６３号株式会社,,株式会社,東京都,港区,六本木１丁目６番１号,,13,103,1060032,,,,,,,2024-05-23,1,,,,,エルエスアビエーションダイロクジュウサンゴウ,0
528,3010501052263,新規,0,2024-05-23,2024-05-23,株式会社ｆｒｅｅｂｉｚ,,株式会社,東京都,台東区,浅草１丁目１３－５井門浅草すしや通りビルビズコンフォート７階－４１,,13,106,1110032,,,,,,,2024-05-23,1,,,,,フリービズ,0
530,3010601065248,新規,0,2024-05-23,2024-05-23,盈谷株式会社,,株式会社,東京都,江東区,豊洲５丁目１－１３ブランズタワー豊洲４６１０号室,,13,108,1350061,,,,,,,2024-05-23,1,,,,,エイコク,0
537,3010801035083,新規,0,2024-05-23,2024-05-23,株式会社はまいち,,株式会社,東京都,大田区,西馬込２丁目１０番１０号はまいちビル,,13,111,1430026,,,,,,,2024-05-23,1,,,,,ハマイチ,0
544,3010901055337,新規,0,2024-05-23,2024-05-23,サンシャイン株式会社,,株式会社,東京都,世田谷区,世田谷１丁目４１番２号,,13,112,1540017,,,,,,,2024-05-23,1,,,,,サンシャイン,0
546,3010903009084,新規,0,2024-05-23,2024-05-23,プリエ合同会社,,合同会社,東京都,世田谷区,上馬１丁目１－７－１１９,,13,112,1540011,,,,,,,2024-05-23,1,,,,,プリエ,0
553,3011001162098,新規,0,2024-05-23,2024-05-23,株式会社ほしぞらハウス,,株式会社,東京都,渋谷区,幡ヶ谷３丁目４１番,,13,113,1510072,,,,,,,2024-05-23,1,,,,,ホシゾラハウス,0
554,3011001162115,新規,0,2024-05-23,2024-05-23,株式会社ＰＵＲＥＶＡＴＥ,,株式会社,東京都,渋谷区,松濤２丁目９番５号,,13,113,1500046,,,,,,,2024-05-23,1,,,,,ピュアベイト,0
555,3011001162123,新規,0,2024-05-23,2024-05-23,株式会社ＪＰＳ,,株式会社,東京都,目黒区,青葉台１丁目１９番７号ＭＳビル１Ｆ,,13,110,1530042,,,,,,,2024-05-23,1,,,,,ジェイピーエス,0
568,3011103014445,新規,0,2024-05-23,2024-05-23,ＮＩＫＡ合同会社,,合同会社,東京都,新宿区,北新宿２丁目４番１６号メゾン・ルミエール１０６号室,,13,104,1690074,,,,,,,2024-05-23,1,,,,,ニカ,0
569,3011105011036,新規,0,2024-05-23,2024-05-23,税理士法人ソレイユ,,その他の設立登記法人,東京都,新宿区,高田馬場２丁目１７番３号,,13,104,1690075,,,,,,,2024-05-23,1,,,,,ソレイユ,0
576,3011501030713,新規,0,2024-05-23,2024-05-23,株式会社ＧＬ,,株式会社,東京都,荒川区,東尾久３丁目１６番１６－１１０２号,,13,118,1160012,,,,,,,2024-05-23,1,,,,,ジーエル,0
577,3011503006075,新規,0,2024-05-23,2024-05-23,ミンスンジャパン合同会社,,合同会社,東京都,荒川区,西日暮里２丁目３４－３,,13,118,1160013,,,,,,,2024-05-23,1,,,,,ミンスンジャパン,0
579,3011601027774,新規,0,2024-05-23,2024-05-23,穂積株式会社,,株式会社,東京都,練馬区,上石神井南町１１番１２号,,13,120,1770043,,,,,,,2024-05-23,1,,,,,ホヅミ,0
581,3011701027303,新規,0,2024-05-23,2024-05-23,株式会社ｗｉｓｈ,,株式会社,東京都,江戸川区,南葛西６丁目１６－７,,13,123,1340085,,,,,,,2024-05-23,1,,,,,ウィッシュ,0
585,3011803006254,新規,0,2024-05-23,2024-05-23,ＭＩＮ合同会社,,合同会社,東京都,足立区,梅田２丁目２３番１０号,,13,121,1230851,,,,,,,2024-05-23,1,,,,,ミン,0
592,3013303007146,新規,0,2024-05-23,2024-05-23,合同会社ＤＩＭ,,合同会社,東京都,豊島区,要町３丁目２６番３号,,13,116,1710043,,,,,,,2024-05-23,1,,,,,ディーアイエム,0
597,3020001157314,新規,0,2024-05-23,2024-05-23,心栄空調株式会社,,株式会社,神奈川県,横浜市泉区,岡津町２３７０番地１０,,14,116,2450003,,,,,,,2024-05-23,1,,,,,シンエイクウチョウ,0
598,3020001157355,新規,0,2024-05-23,2024-05-23,ＢＩＢ　Ｒｏｂｏｔｉｃｓ　Ｊａｐａｎ株式会社,,株式会社,神奈川県,横浜市西区,中央１丁目３５－３三上ビル２Ｆ,,14,103,2200051,,,,,,,2024-05-23,1,,,,,ビーアイビーロボティクスジャパン,0
599,3020001157363,新規,0,2024-05-23,2024-05-23,柏億通商株式会社,,株式会社,神奈川県,横浜市中区,不老町１丁目６番地１０,,14,104,2310032,,,,,,,2024-05-23,1,,,,,ハクオクツウショウ,0
601,3020003026186,新規,0,2024-05-23,2024-05-23,合同会社ＯＧＢＰ１６,,合同会社,神奈川県,川崎市幸区,南加瀬３丁目１７番２８号,,14,132,2120055,,,,,,,2024-05-23,1,,,,,オージービーピーイチロク,0
607,3030001160531,新規,0,2024-05-23,2024-05-23,株式会社丸修,,株式会社,埼玉県,さいたま市見沼区,大字片柳１０６１番地５,,11,104,3370024,,,,,,,2024-05-23,1,,,,,マルシュウ,0
609,3030003024354,新規,0,2024-05-23,2024-05-23,合同会社Ｄｉｖｅｒ　Ｔｉｍｅｎｔｏ,,合同会社,埼玉県,さいたま市大宮区,桜木町２丁目３番地大宮マルイ７階,,11,103,3300854,,,,,,,2024-05-23,1,,,,,ダイバーテイメント,0
613,3040001133742,新規,0,2024-05-23,2024-05-23,寧睿科技株式会社,,株式会社,千葉県,千葉市中央区,新宿２丁目２－５藤ビル６階,,12,101,2600021,,,,,,,2024-05-23,1,,,,,ネイエカギ,0
617,3040003025046,新規,0,2024-05-23,2024-05-23,合同会社ハーモニ,,合同会社,千葉県,勝浦市,墨名８０１－２４タウンズビル３０２,,12,218,2995225,,,,,,,2024-05-23,1,,,,,ハーモニー,0
618,3040003025062,新規,0,2024-05-23,2024-05-23,合同会社渡辺インテリア,,合同会社,千葉県,市川市,幸２丁目１３番２４－３０２号,,12,203,2720123,,,,,,,2024-05-23,1,,,,,ワタナベインテリア,0
634,3080401027202,新規,0,2024-05-23,2024-05-23,株式会社ＢＶＢ,,株式会社,静岡県,浜松市中央区,東若林町１１番地の１,,22,138,4328052,,,,,,,2024-05-23,1,,,,,ビーブイビー,0
638,3110001038430,新規,0,2024-05-23,2024-05-23,株式会社ＲＫＭ,,株式会社,新潟県,妙高市,大字田口１４５２番地２３,,15,217,9492106,,,,,,,2024-05-23,1,,,,,アールケーエム,0
646,3120001265189,新規,0,2024-05-23,2024-05-23,株式会社産直センター,,株式会社,大阪府,大阪市生野区,巽南１丁目５番２８号,00134871,27,116,5440015,,,,,,,2024-05-23,1,,,,,サンチョクセンター,0
647,3120001265197,新規,0,2024-05-23,2024-05-23,豊栄商事株式会社,,株式会社,大阪府,大阪市平野区,長吉出戸２丁目４番２６－５０７号,,27,126,5470011,,,,,,,2024-05-23,1,,,,,ホウエイショウジ,0
648,3120001265206,新規,0,2024-05-23,2024-05-23,桂昇株式会社,,株式会社,大阪府,大阪市浪速区,恵美須東１丁目５－１８,,27,111,5560002,,,,,,,2024-05-23,1,,,,,ケイショウ,0
649,3120001265214,新規,0,2024-05-23,2024-05-23,株式会社晨栄,00134868,株式会社,大阪府,大阪市生野区,小路３丁目１７番１７号,,27,116,5440002,,,,,,,2024-05-23,1,,,,,シンエイ,0
650,3120001265230,新規,0,2024-05-23,2024-05-23,株式会社プライムズ,,株式会社,大阪府,大阪市中央区,淡路町４丁目３－５ＦＰＧリンクス御堂筋１Ｆ,,27,128,5410047,,,,,,,2024-05-23,1,,,,,プライムズ,0
651,3120001265255,新規,0,2024-05-23,2024-05-23,Ｋｅｙ　Ｂｒｉｄｇｅ株式会社,,株式会社,大阪府,大阪市中央区,谷町６丁目１７番３号,,27,128,5420012,,,,,,,2024-05-23,1,,,,,キーブリッジ,0
653,3120003026663,新規,0,2024-05-23,2024-05-23,合同会社ＳＦＹトレーディング,,合同会社,大阪府,大阪市西区,江戸堀２丁目１－１江戸堀センタービル９階,,27,106,5500002,,,,,,,2024-05-23,1,,,,,エスエフワイトレーディング,0
661,3120901049187,新規,0,2024-05-23,2024-05-23,北急エステート株式会社,,株式会社,大阪府,豊中市,永楽荘２丁目１番１４号,,27,203,5600051,,,,,,,2024-05-23,1,,,,,キタキュウエステート,0
672,3130003009576,新規,0,2024-05-23,2024-05-23,合同会社Ｆｕｃｈｓｉａ,,合同会社,京都府,京都市左京区,岩倉幡枝町２０８３－２,,26,103,6060015,,,,,,,2024-05-23,1,,,,,フーシャ,0
673,3130003009584,新規,0,2024-05-23,2024-05-23,合同会社メモリアルサポート,,合同会社,京都府,京都市山科区,御陵中内町２９番地１０２,,26,110,6078414,,,,,,,2024-05-23,1,,,,,メモリアルサポート,0
674,3130003009592,新規,0,2024-05-23,2024-05-23,ＳＴＵ．Ｌｅｖｅｒａｇｅ合同会社,,合同会社,京都府,京都市下京区,朱雀宝蔵町４４番地協栄ビル２階京都朱雀スタジオ,,26,106,6008846,,,,,,,2024-05-23,1,,,,,エスティーユーレバレッジ,0
678,3140001134474,新規,0,2024-05-23,2024-05-23,株式会社ウェルシーインベスト,,株式会社,兵庫県,加古川市,平岡町新在家２０３６番地の６,,28,210,6750101,,,,,,,2024-05-23,1,,,,,ウェルシーインベスト,0
682,3160001025944,新規,0,2024-05-23,2024-05-23,株式会社ＴＫ,,株式会社,滋賀県,湖南市,下田２７４７番地４,,25,211,5203201,,,,,,,2024-05-23,1,,,,,ティーケー,0
688,3170001018154,新規,0,2024-05-23,2024-05-23,株式会社新和,,株式会社,和歌山県,和歌山市,三沢町２丁目３９番地アナベル２０１号室,,30,201,6408123,,,,,,,2024-05-23,1,,,,,シンワ,0
695,3180001161531,新規,0,2024-05-23,2024-05-23,株式会社ＴＳＵＲＵＧＩ,,株式会社,愛知県,名古屋市守山区,川東山１４１８番地の２,,23,113,4630006,,,,,,,2024-05-23,1,,,,,ツルギ,0
696,3180001161564,新規,0,2024-05-23,2024-05-23,株式会社ＭＹホールディングス,,株式会社,愛知県,名古屋市中村区,椿町１５番５号,,23,105,4530015,,,,,,,2024-05-23,1,,,,,エムワイホールディングス,0
697,3180001161688,新規,0,2024-05-23,2024-05-23,株式会社Ａｎｉｃｏｒ,,株式会社,愛知県,知多郡東浦町,大字緒川字旭２７－１２,,23,442,4702102,,,,,,,2024-05-23,1,,,,,エニコル,0
702,3180301038669,新規,0,2024-05-23,2024-05-23,株式会社ゼロ,,株式会社,愛知県,岡崎市,蓑川新町３丁目５番地１,,23,202,4443526,,,,,,,2024-05-23,1,,,,,ゼロ,0
703,3180303006129,新規,0,2024-05-23,2024-05-23,合同会社ｋａ‐ｇａ‐ｍｉ,,合同会社,愛知県,岡崎市,岩津町字新城１２１番地８,,23,202,4442144,,,,,,,2024-05-23,1,,,,,カガミ,0
709,3210003001797,新規,0,2024-05-23,2024-05-23,合同会社サマシー,,合同会社,福井県,福井市,高木１丁目２１４ラフィネ１０１,,18,201,9100805,,,,,,,2024-05-23,1,,,,,サマシー,0
714,3230003002216,新規,0,2024-05-23,2024-05-23,合同会社アタッチメント,,合同会社,富山県,射水市,太閤山１丁目６３番地２,,16,211,9390362,,,,,,,2024-05-23,1,,,,,アタッチメント,0
715,3230005009390,新規,0,2024-05-23,2024-05-23,一般社団法人日本ＥＱラボ協会,,その他の設立登記法人,富山県,富山市,中央通り２丁目３番２２号,,16,201,9300044,,,,,,,2024-05-23,1,,,,,ニホンイーキューラボキョウカイ,0
718,3240001063275,新規,0,2024-05-23,2024-05-23,株式会社夢建設,,株式会社,広島県,広島市南区,宇品東１丁目７番５－１０２号,,34,103,7340003,,,,,,,2024-05-23,1,,,,,ユメケンセツ,0
728,3280003001849,新規,0,2024-05-23,2024-05-23,合同会社田中薬局,,合同会社,島根県,出雲市,大塚町７４５番地２,,32,203,6930063,,,,,,,2024-05-23,1,,,,,タナカヤッキョク,0
734,3290001105774,新規,0,2024-05-23,2024-05-23,株式会社水城建設,,株式会社,福岡県,朝倉市,古賀１２１番地,,40,228,8380063,,,,,,,2024-05-23,1,,,,,ミズキケンセツ,0
738,3290003015303,新規,0,2024-05-23,2024-05-23,ｓｍｉｌｅ　ｃｈａｉｎ合同会社,,合同会社,福岡県,嘉穂郡桂川町,大字豆田５１７－２,,40,421,8200608,,,,,,,2024-05-23,1,,,,,スマイルチェーン,0
739,3290003015311,新規,0,2024-05-23,2024-05-23,Ａｒｂｏｌ　Ｆｌｏｓ合同会社,,合同会社,福岡県,朝倉市,甘木２１１１番地１,,40,228,8380068,,,,,,,2024-05-23,1,,,,,アルボルフロース,0
741,3290801030593,新規,0,2024-05-23,2024-05-23,株式会社ティーエス,,株式会社,福岡県,北九州市小倉北区,熊本２丁目４番３号,,40,106,8020044,,,,,,,2024-05-23,1,,,,,ティーエス,0
744,3310003004798,新規,0,2024-05-23,2024-05-23,合同会社ＣｏｌｏｒｅＨｏｕｓｅ,,合同会社,長崎県,佐世保市,天神２丁目１０－３７,,42,202,8571174,,,,,,,2024-05-23,1,,,,,クロレハウス,0
752,3360003014000,新規,0,2024-05-23,2024-05-23,合同会社客室清掃,,合同会社,沖縄県,沖縄市,比屋根６丁目７番１１号,,47,211,9042173,,,,,,,2024-05-23,1,,,,,キャクシツセイソウ,0
754,3370001051325,新規,0,2024-05-23,2024-05-23,株式会社Ｎｅｅｄｌｅｓｓ,,株式会社,宮城県,名取市,愛の杜１丁目１２番地の３,,04,207,9811230,,,,,,,2024-05-23,1,,,,,ニードレス,0
759,3380001034551,新規,0,2024-05-23,2024-05-23,ＭＵＲＡＹＡＭＡ株式会社,,株式会社,福島県,喜多方市,字清水台２丁目１９番地ツカサハイツＢ,,07,208,9660092,,,,,,,2024-05-23,1,,,,,ムラヤマ,0
764,3410003003930,新規,0,2024-05-23,2024-05-23,合同会社Ｌｉｎｏ,,合同会社,秋田県,秋田市,新屋町字関町後２０５番地２フリーデ１０３,,05,201,0101623,,,,,,,2024-05-23,1,,,,,リノ,0
771,3430001091868,新規,0,2024-05-23,2024-05-23,株式会社Ｓ４Ｗ,,株式会社,北海道,小樽市,色内１丁目１５番３号,,01,203,0470031,,,,,,,2024-05-23,1,,,,,エスフォーダブリュー,0
772,3430001091876,新規,0,2024-05-23,2024-05-23,株式会社ぱんだメンタル,,株式会社,北海道,札幌市北区,北三十三条西３丁目２番１５号ＮＯＲＤ３３－１Ｆ－Ｂ号室,,01,102,0010033,,,,,,,2024-05-23,1,,,,,パンダメンタル,0
774,3480001012480,新規,0,2024-05-23,2024-05-23,株式会社Ｆｕｌｌ　Ｂｌｏｏｍ,,株式会社,徳島県,徳島市,安宅３丁目３番地１７,,36,201,7700863,,,,,,,2024-05-23,1,,,,,フルブルーム,0
775,3480003002133,新規,0,2024-05-23,2024-05-23,合同会社果穂,,合同会社,徳島県,徳島市,八万町馬場山３３番地,,36,201,7708070,,,,,,,2024-05-23,1,,,,,カホ,0
784,3700150119129,新規,0,2024-05-23,2024-05-23,Ｓｈｅｎｚｈｅｎ　Ｌｉｎｚｅ　Ｔｅｃｈｎｏｌｏｇｙ　Ｃｏ．，Ｌｔｄ,,外国会社等,,,,,,,,ｓｈｅｎｚｈｅｎｓｈｉ　ｂａｏａｎｑｕ　ｓｈｉｙａｎｊｉｅｄａｏ　ｌｏｎｇｔｅｎｇ　ｓｈｅｑｕ　ｌｉｈｕｈｕａｙｕａｎ６ｈａｏ　４１１　ｓｈｅｎｚｈｅｎｓｈｉ　ｇｕａｎｇｄｏｎｇｓｈｅｎｇ,,,,,,2024-05-23,1,,,,,シンセンリンチョウケイキユウゲンガイシャ,0
785,3700150120747,新規,0,2024-05-23,2024-05-23,Ｓｈｅｎ　ｚｈｅｎ　ｓｈｉ　ｆａｎｇ　ｚｈｅｎ　ｋｅ　ｊｉ　ｙｏｕ　ｘｉａｎ　ｇｏｎｇ　ｓｉ,,外国会社等,,,,,,,,ｍｉｎ　ｚｈｉ　ｊｉｅ　ｄａｏ　ｚｈａｎｇ　ｋｅｎｇ　ｙｉ　ｑｕ　１５３　ｄｏｎｇ　２０２　ｌｏｎｇ　ｈｕａ　ｘｉｎ　ｑｕ　ｇｕａｎｇ　ｄｏｎｇ　ｓｈｅｎ　ｚｈｅｎ,,,,,,2024-05-23,1,,,,,シェンジェンシファンジェンコァジヨウシエンゴンス,0
794,4010001244970,新規,0,2024-05-23,2024-05-23,サイズザデイコンサルティング株式会社,,株式会社,東京都,中央区,銀座１丁目１２番４号Ｎ＆ＥＢＬＤ．６Ｆ,,13,102,1040061,,,,,,,2024-05-23,1,,,,,サイズザデイコンサルティング,0
795,4010001244987,新規,0,2024-05-23,2024-05-23,ＢＮｅｘｔ　Ｊａｐａｎ株式会社,,株式会社,東京都,中央区,京橋２丁目２番１号京橋エドグラン２７階,,13,102,1040031,,,,,,,2024-05-23,1,,,,,ビーネクストジャパン,0
796,4010001245085,新規,0,2024-05-23,2024-05-23,株式会社チョウエイ,,株式会社,東京都,千代田区,永田町２丁目１７番５－４１１号,,13,101,1000014,,,,,,,2024-05-23,1,,,,,チョウエイ,0
797,4010003043801,新規,0,2024-05-23,2024-05-23,榎澄商事合同会社,,合同会社,東京都,千代田区,東神田１丁目８番４－１２０２号,,13,101,1010031,,,,,,,2024-05-23,1,,,,,カスミショウジ,0
798,4010003043818,新規,0,2024-05-23,2024-05-23,合同会社グローバルディスカバリー,,合同会社,東京都,千代田区,神田和泉町１番地６－１６,,13,101,1010024,,,,,,,2024-05-23,1,,,,,グローバルディスカバリー,0
799,4010003043826,新規,0,2024-05-23,2024-05-23,合同会社ＺＥＨＰＪ１１,,合同会社,東京都,中央区,銀座４丁目６番１号三幸アセットマネジメント株式会社内,,13,102,1040061,,,,,,,2024-05-23,1,,,,,ゼッチピージェーイレブン,0
800,4010101016155,新規,0,2024-05-23,2024-05-23,株式会社ＭＥＮＳＨＯＷ,,株式会社,東京都,八王子市,明神町４丁目１２番地２号岡本ビル,,13,201,1920046,,,,,,,2024-05-23,1,,,,,メンショウ,0
807,4010401182663,新規,0,2024-05-23,2024-05-23,ＬＳ‐Ａｖｉａｔｉｏｎ第６２号株式会社,,株式会社,東京都,港区,六本木１丁目６番１号,,13,103,1060032,,,,,,,2024-05-23,1,,,,,エルエスアビエーションダイロクジュウニゴウ,0
808,4010401182671,新規,0,2024-05-23,2024-05-23,ＤＣ　Ｒｅｘ１株式会社,,株式会社,東京都,港区,南青山３丁目１番３号スプライン青山東急ビル３階,,13,103,1070062,,,,,,,2024-05-23,1,,,,,ディーシーレックスワン,0
815,4010503007454,新規,0,2024-05-23,2024-05-23,アキバベース合同会社,,合同会社,東京都,台東区,台東４丁目３１番１号,,13,106,1100016,,,,,,,2024-05-23,1,,,,,アキバベース,0
821,4010701046015,新規,0,2024-05-23,2024-05-23,東京アーユルヴェーダカンパニー株式会社,,株式会社,東京都,品川区,上大崎２丁目２４番１０号,,13,109,1410021,,,,,,,2024-05-23,1,,,,,トウキョウアーユルヴェーダカンパニー,0
836,4010903009083,新規,0,2024-05-23,2024-05-23,合同会社ウイングス,,合同会社,東京都,世田谷区,喜多見３丁目２４番１９号マンションジンヤ３０１,,13,112,1570067,,,,,,,2024-05-23,1,,,,,ウイングス,0
839,4011001162114,新規,0,2024-05-23,2024-05-23,株式会社ＲＥＮＯ,,株式会社,東京都,渋谷区,道玄坂１丁目１７番６号プロスペクト渋谷道玄坂１００３,,13,113,1500043,,,,,,,2024-05-23,1,,,,,レノ,0
840,4011001162221,新規,0,2024-05-23,2024-05-23,株式会社ＣＨＩＬＬ,,株式会社,東京都,渋谷区,幡ヶ谷３丁目７６‐５‐７０６,,13,113,1510072,,,,,,,2024-05-23,1,,,,,チル,0
841,4011003019171,新規,0,2024-05-23,2024-05-23,合同会社Ｍｕｓｉｃａ,,合同会社,東京都,渋谷区,渋谷２丁目１９番１５宮益坂ビルディング６０９号,,13,113,1500002,,,,,,,2024-05-23,1,,,,,ムジカ,0
842,4011003019188,新規,0,2024-05-23,2024-05-23,ｉｎ‐Ｃｔｙ合同会社,,合同会社,東京都,渋谷区,道玄坂１丁目１０番８号渋谷道玄坂東急ビル２Ｆ－Ｃ,,13,113,1500043,,,,,,,2024-05-23,1,,,,,,0
843,4011003019196,新規,0,2024-05-23,2024-05-23,合同会社青竹ワークス,,合同会社,東京都,目黒区,三田２丁目７番２６号クレスト恵比寿３０１,,13,110,1530062,,,,,,,2024-05-23,1,,,,,アオタケワークス,0
849,4011501030687,新規,0,2024-05-23,2024-05-23,株式会社ＫＫＴＧ,,株式会社,東京都,荒川区,東尾久２丁目３９－３,,13,118,1160012,,,,,,,2024-05-23,1,,,,,ケーケーティージー,0
851,4011503006074,新規,0,2024-05-23,2024-05-23,シートレーディング合同会社,,合同会社,東京都,荒川区,東日暮里６丁目１８－７,,13,118,1160014,,,,,,,2024-05-23,1,,,,,シートレーディング,0
852,4011601027773,新規,0,2024-05-23,2024-05-23,Ｌｉｎｋ株式会社,,株式会社,東京都,練馬区,平和台４丁目２２番１８号１階,,13,120,1790083,,,,,,,2024-05-23,1,,,,,リンク,0
853,4011601027781,新規,0,2024-05-23,2024-05-23,株式会社シャインテイル,,株式会社,東京都,練馬区,上石神井南町１１－３パールハウス１０１,,13,120,1770043,,,,,,,2024-05-23,1,,,,,シャインテイル,0
855,4011701027302,新規,0,2024-05-23,2024-05-23,株式会社Ｐｏｌａｒｉｓ,,株式会社,東京都,江戸川区,北篠崎１丁目２番１７号,,13,123,1330053,,,,,,,2024-05-23,1,,,,,ポラリス,0
858,4011801044271,新規,0,2024-05-23,2024-05-23,株式会社Ａ＆Ｃ,,株式会社,東京都,足立区,弘道１丁目２１番１３号,,13,121,1200013,,,,,,,2024-05-23,1,,,,,エーアンドシー,0
861,4012403006569,新規,0,2024-05-23,2024-05-23,合同会社ＯＴＷ,,合同会社,東京都,小金井市,緑町４丁目６番３８号,,13,210,1840003,,,,,,,2024-05-23,1,,,,,オーティーダブリュー,0
862,4012403006577,新規,0,2024-05-23,2024-05-23,合同会社グッドサービス,,合同会社,東京都,武蔵野市,吉祥寺南町２丁目２６番５号プライム吉祥寺１Ｆ,,13,203,1800003,,,,,,,2024-05-23,1,,,,,グッドサービス,0
870,4020001157296,新規,0,2024-05-23,2024-05-23,株式会社ＮＥＸＵＳ,,株式会社,神奈川県,横浜市鶴見区,獅子ケ谷１丁目５番５９号コンフォール北寺尾２０６,,14,101,2300073,,,,,,,2024-05-23,1,,,,,ネクサス,0
871,4020001157346,新規,0,2024-05-23,2024-05-23,株式会社クインタプルスター,,株式会社,神奈川県,横浜市西区,北幸２丁目１０番４８号むつみビル３階,,14,103,2200004,,,,,,,2024-05-23,1,,,,,クインタプルスター,0
882,4021001082294,新規,0,2024-05-23,2024-05-23,株式会社Ｍｉｉｓｅｌ,,株式会社,神奈川県,藤沢市,辻堂東海岸４丁目１０－２０－２,,14,205,2510045,,,,,,,2024-05-23,1,,,,,ミーセル,0
886,4030001160514,新規,0,2024-05-23,2024-05-23,Ａ‐ＺＣｒｏｓｓｉｎｇ株式会社,,株式会社,埼玉県,蕨市,塚越６丁目１番３号,,11,223,3350002,,,,,,,2024-05-23,1,,,,,エイーゼットクロッシング,0
887,4030003024353,新規,0,2024-05-23,2024-05-23,合同会社栄,,合同会社,埼玉県,川口市,並木４丁目１番１－１１０４号ライオンズマンション西川口ヴィアーレ,,11,203,3320034,,,,,,,2024-05-23,1,,,,,サカエ,0
901,4050003008395,新規,0,2024-05-23,2024-05-23,合同会社アセット,,合同会社,茨城県,北相馬郡利根町,大字八幡台１２－１４,,08,564,3001623,,,,,,,2024-05-23,1,,,,,アセット,0
909,4080003003212,新規,0,2024-05-23,2024-05-23,合同会社四代目魚八ＥＢＩＳＵ‐ＳＵＳＨＩ,,合同会社,静岡県,島田市,竹下３９６番地の１,,22,209,4280008,,,,,,,2024-05-23,1,,,,,ヨンダイメウオハチエビススシ,0
929,4120001265205,新規,0,2024-05-23,2024-05-23,タケダトレッキング株式会社,,株式会社,大阪府,大阪市中央区,島之内２丁目８－３４－５０１号室,,27,128,5420082,,,,,,,2024-05-23,1,,,,,タケダトレッキング,0
930,4120001265246,新規,0,2024-05-23,2024-05-23,株式会社又社,,株式会社,大阪府,大阪市中央区,谷町９丁目４番５号,,27,128,5420012,,,,,,,2024-05-23,1,,,,,マタジャ,0
931,4120001265270,新規,0,2024-05-23,2024-05-23,半島速航海運株式会社,,株式会社,大阪府,大阪市大正区,平尾４丁目１１番７号（３０６）,,27,108,5510012,,,,,,,2024-05-23,1,,,,,ハントウソクコウカイウン,0
933,4120003026654,新規,0,2024-05-23,2024-05-23,太平国際合同会社,,合同会社,大阪府,大阪市西成区,山王１丁目１２番５号,,27,122,5570001,,,,,,,2024-05-23,1,,,,,タイヘイコクサイ,0
934,4120003026670,新規,0,2024-05-23,2024-05-23,トレード・ウインド・サービス合同会社,,合同会社,大阪府,大阪市北区,梅田１丁目２番２号大阪駅前第２ビル１２－１２,,27,127,5300001,,,,,,,2024-05-23,1,,,,,トレードウインドサービス,0
935,4120103005855,新規,0,2024-05-23,2024-05-23,合同会社ＧＬＯＲＹ　ＳＨＩＰ,,合同会社,大阪府,堺市北区,黒土町２２－１,,27,146,5918024,,,,,,,2024-05-23,1,,,,,グローリーシップ,0
937,4120901049211,新規,0,2024-05-23,2024-05-23,株式会社中島商会,,株式会社,大阪府,吹田市,佐井寺３丁目１番５－４１１号,,27,205,5650836,,,,,,,2024-05-23,1,,,,,ナカジマショウカイ,0
949,4160003003195,新規,0,2024-05-23,2024-05-23,合同会社レコメ,,合同会社,滋賀県,草津市,南笠町１９０４‐８８,,25,206,5250056,,,,,,,2024-05-23,1,,,,,レコメ,0
956,4180001161571,新規,0,2024-05-23,2024-05-23,株式会社ＩＧ不動産,,株式会社,愛知県,名古屋市千種区,田代町字四観音道西５番地の９,,23,101,4640052,,,,,,,2024-05-23,1,,,,,アイジーフドウサン,0
957,4180001161621,新規,0,2024-05-23,2024-05-23,ＬＢ　ＢＲＯＴＨＥＲＳ株式会社,,株式会社,愛知県,尾張旭市,瀬戸川町２丁目９番地,,23,226,4880023,,,,,,,2024-05-23,1,,,,,エルビーブラザーズ,0
958,4180001161638,新規,0,2024-05-23,2024-05-23,ＡＰ株式会社,,株式会社,愛知県,名古屋市中村区,名駅３丁目４番１０号アルティメイト名駅１ｓｔ２階,,23,105,4500002,,,,,,,2024-05-23,1,,,,,エーピー,0
961,4180003026814,新規,0,2024-05-23,2024-05-23,合同会社ＡＤＩ,,合同会社,愛知県,名古屋市天白区,音聞山８４０番地,,23,116,4680063,,,,,,,2024-05-23,1,,,,,アディ,0
962,4180301038668,新規,0,2024-05-23,2024-05-23,山際グループ株式会社,,株式会社,愛知県,豊田市,小坂本町１丁目２－５第２コーポみのる４０１号,,23,211,4710034,,,,,,,2024-05-23,1,,,,,ヤマギワグループ,0
965,4200001042538,新規,0,2024-05-23,2024-05-23,株式会社徠煌工業,,株式会社,岐阜県,美濃加茂市,加茂野町稲辺４７３番地１,,21,211,5050055,,,,,,,2024-05-23,1,,,,,ライコウコウギョウ,0
973,4230001020359,新規,0,2024-05-23,2024-05-23,株式会社ファミリーホーム,,株式会社,富山県,富山市,太郎丸西町１丁目３－１５図南ビル３階,,16,201,9398271,,,,,,,2024-05-23,1,,,,,ファミリーホーム,0
974,4230003002215,新規,0,2024-05-23,2024-05-23,合同会社Ｎｅｘｕｓ,,合同会社,富山県,富山市,水橋専光寺８５番地１,,16,201,9390554,,,,,,,2024-05-23,1,,,,,ネクス,0
976,4240001063266,新規,0,2024-05-23,2024-05-23,株式会社ＮＣＨ,,株式会社,広島県,広島市中区,上八丁堀８番２８－２４０４号,,34,101,7300012,,,,,,,2024-05-23,1,,,,,エヌシーエイチ,0
977,4240001063274,新規,0,2024-05-23,2024-05-23,株式会社Ｆｉｖｅ　Ｌｉｎｅ,,株式会社,広島県,広島市佐伯区,皆賀２丁目７番１８号,,34,108,7315124,,,,,,,2024-05-23,1,,,,,ファイブライン,0
985,4290001105682,新規,0,2024-05-23,2024-05-23,株式会社セキワ,,株式会社,福岡県,宗像市,池田３５１５－６８,,40,220,8113515,,,,,,,2024-05-23,1,,,,,セキワ,0
986,4290001105798,新規,0,2024-05-23,2024-05-23,九州ヘンプ産業株式会社,,株式会社,福岡県,福岡市博多区,博多駅前３丁目１９番２３号簡ビル,,40,132,8120011,,,,,,,2024-05-23,1,,,,,,0
987,4290001105856,新規,0,2024-05-23,2024-05-23,株式会社ｔｄｋ,,株式会社,福岡県,福岡市中央区,大濠２丁目１３番３８,,40,133,8100052,,,,,,,2024-05-23,1,,,,,ティーディーケー,0
988,4290003015319,新規,0,2024-05-23,2024-05-23,合同会社ＡＣＥ,,合同会社,福岡県,福岡市東区,西戸崎３丁目４―７５,,40,131,8110321,,,,,,,2024-05-23,1,,,,,エース,0
990,4290803004735,新規,0,2024-05-23,2024-05-23,合同会社埴山姫,,合同会社,福岡県,北九州市八幡東区,山路１丁目１６－２０,,40,108,8050035,,,,,,,2024-05-23,1,,,,,ハニヤマヒメ,0
994,4340001026527,新規,0,2024-05-23,2024-05-23,株式会社ＴＩＭ,,株式会社,鹿児島県,鹿屋市,今坂町１０１１２番地１６,,46,203,8930057,,,,,,,2024-05-23,1,,,,,ティーアイエム,0
996,4360001033711,新規,0,2024-05-23,2024-05-23,株式会社リプレイス,,株式会社,沖縄県,那覇市,おもろまち１丁目１番２５－２９０４号,,47,201,9000006,,,,,,,2024-05-23,1,,,,,リプレイス,0
1016,4430001091875,新規,0,2024-05-23,2024-05-23,株式会社ＡＹＳ,,株式会社,北海道,夕張市,沼ノ沢１０３番地１,,01,209,0680751,,,,,,,2024-05-23,1,,,,,エーワイエス,0
1023,4480003002132,新規,0,2024-05-23,2024-05-23,合同会社ＹＯＳＨＩＯＫＡ,,合同会社,徳島県,吉野川市,鴨島町上浦４３０番地１,,36,205,7760037,,,,,,,2024-05-23,1,,,,,ヨシオカ,0
1034,4700150125539,新規,0,2024-05-23,2024-05-23,Ｈａｎｇｚｈｏｕ　Ｃｈａｎｇｃｈｅｎ　Ｅｌｅｃｔｒｏｎｉｃ　Ｔｅｃｈｎｏｌｏｇｙ　Ｃｏ　Ｌｔｄ,,外国会社等,,,,,,,,ｘｉｈｕ　ｈｕｉｆｅｎｇｇｕｏｊｉｓｈａｎｇｗｕｚｈｏｎｇｘｉｎ　４ｈａｏ　ｌｏｕ　Ｄ２１６　ｒｏｏｍ　ｈａｎｇｚｈｏｕ　ｚｈｅｊｉａｎｇ　Ｃｈｉｎａ,,,,,,2024-05-23,1,,,,,ハンゾウチャンチェンイレクトゥロニックテクノロジーカンパニーリミテッド,0
1050,5010001245027,新規,0,2024-05-23,2024-05-23,株式会社ＦＡＮＩ,,株式会社,東京都,中央区,日本橋室町１丁目１１番１２号日本橋水野ビル７階,,13,102,1030022,,,,,,,2024-05-23,1,,,,,ファニ,0
1051,5010001245084,新規,0,2024-05-23,2024-05-23,尚道株式会社,,株式会社,東京都,中央区,日本橋箱崎町１７番８号７山京ビル,,13,102,1030015,,,,,,,2024-05-23,1,,,,,シャンドウ,0
1052,5010001245134,新規,0,2024-05-23,2024-05-23,株式会社ＡＢＹＳＳ,,株式会社,東京都,文京区,小石川２丁目７－２森ビル２Ｆ,,13,105,1120002,,,,,,,2024-05-23,1,,,,,アビス,0
1060,5010003043809,新規,0,2024-05-23,2024-05-23,苫小牧弁天バイオマスパワー合同会社,,合同会社,東京都,中央区,京橋２丁目２番１号京橋エドグラン,,13,102,1040031,,,,,,,2024-05-23,1,,,,,トマコマイベンテンバイオマスパワー,0
1064,5010101016154,新規,0,2024-05-23,2024-05-23,株式会社バリスロット,,株式会社,東京都,八王子市,元八王子町２丁目１１５８番地２,,13,201,1930826,,,,,,,2024-05-23,1,,,,,バリスロット,0
1076,5010401182530,新規,0,2024-05-23,2024-05-23,株式会社ロケットスターキャピタル,,株式会社,東京都,港区,赤坂９丁目７－１ミッドタウン・タワー１８Ｆ,,13,103,1070052,,,,,,,2024-05-23,1,,,,,ロケットスターキャピタル,0
1077,5010401182638,新規,0,2024-05-23,2024-05-23,株式会社美風,,株式会社,東京都,港区,赤坂３丁目１６番７号,,13,103,1070052,,,,,,,2024-05-23,1,,,,,ビフウ,0
1078,5010401182670,新規,0,2024-05-23,2024-05-23,ＤＣ　Ｒｅｘ２株式会社,,株式会社,東京都,港区,南青山３丁目１番３号スプライン青山東急ビル３階,,13,103,1070062,,,,,,,2024-05-23,1,,,,,ディーシーレックスツー,0
1079,5010403032667,新規,0,2024-05-23,2024-05-23,合同会社ウエスト・ストリート・ジャパン・スリー,,合同会社,東京都,港区,虎ノ門２丁目６番１号虎ノ門ヒルズステーションタワー,,13,103,1050001,,,,,,,2024-05-23,1,,,,,ウエストストリートジャパンスリー,0
1082,5010503007445,新規,0,2024-05-23,2024-05-23,嘉林合同会社,,合同会社,東京都,台東区,東上野４丁目１８－２東建シティハイツ上野８０７号,,13,106,1100015,,,,,,,2024-05-23,1,,,,,カリン,0
1084,5010603010860,新規,0,2024-05-23,2024-05-23,福祉推進企画合同会社,,合同会社,東京都,墨田区,横網２丁目４番７号,,13,107,1300015,,,,,,,2024-05-23,1,,,,,フクシスイシンキカク,0
1086,5010701046006,新規,0,2024-05-23,2024-05-23,ＴＡＮＴ　ＳＯＵＮＤ　ＷＯＲＫＳ株式会社,,株式会社,東京都,品川区,二葉２丁目１９番６号,,13,109,1420043,,,,,,,2024-05-23,1,,,,,タントサウンドワークス,0
1090,5011001161791,新規,0,2024-05-23,2024-05-23,株式会社国際企業投資センター,,株式会社,東京都,目黒区,目黒４丁目１７－１６,,13,110,1530063,,,,,,,2024-05-23,1,,,,,コクサイキギョウトウシセンター,0
1091,5011001162088,新規,0,2024-05-23,2024-05-23,Ｐｕｒｐｌｅ　Ｓｔｕｄｉｏ株式会社,,株式会社,東京都,目黒区,自由が丘２丁目１６番１２号ＲＪ３,,13,110,1520035,,,,,,,2024-05-23,1,,,,,パープルスタジオ,0
1092,5011001162113,新規,0,2024-05-23,2024-05-23,株式会社１９８６ＥＮＴＥＲＴＡＩＮＭＥＮＴ,,株式会社,東京都,渋谷区,広尾５丁目１４番２号,,13,113,1500012,,,,,,,2024-05-23,1,,,,,イチキュウハチロクエンターテインメント,0
1093,5011001162138,新規,0,2024-05-23,2024-05-23,株式会社Ｍｏｎｏｔｙｐｅ　Ｓｅｒｖｉｃｅ,,株式会社,東京都,渋谷区,東３丁目２番１６号,,13,113,1500011,,,,,,,2024-05-23,1,,,,,モノタイプサービス,0
1096,5011003019195,新規,0,2024-05-23,2024-05-23,合同会社タカサイト,,合同会社,東京都,目黒区,下目黒１丁目１番１４号コノトラビル７Ｆ,,13,110,1530064,,,,,,,2024-05-23,1,,,,,タカサイト,0
1104,5011103014427,新規,0,2024-05-23,2024-05-23,佳芳庵益田屋合同会社,,合同会社,東京都,新宿区,百人町２丁目２０番１７号,,13,104,1690073,,,,,,,2024-05-23,1,,,,,カホウアンマスダヤ,0
1105,5011201025458,新規,0,2024-05-23,2024-05-23,株式会社Ｆｉｎｄ　Ａｉｄ,,株式会社,東京都,中野区,南台２丁目１３番３号,,13,114,1640014,,,,,,,2024-05-23,1,,,,,ファインドエイド,0
1106,5011201025482,新規,0,2024-05-23,2024-05-23,株式会社ニューオーダー,,株式会社,東京都,中野区,野方２丁目４９番７号パルハイム１０２,,13,114,1650027,,,,,,,2024-05-23,1,,,,,ニューオーダー,0
1109,5011501030711,新規,0,2024-05-23,2024-05-23,ＦＡＳＴ株式会社,,株式会社,東京都,北区,上中里３丁目１５番１号,,13,117,1140016,,,,,,,2024-05-23,1,,,,,ファスト,0
1123,5013301052571,新規,0,2024-05-23,2024-05-23,株式会社ごじょいるサポート,,株式会社,東京都,豊島区,北大塚２丁目３番１５号,,13,116,1700004,,,,,,,2024-05-23,1,,,,,ゴジョイルサポート,0
1129,5020001157329,新規,0,2024-05-23,2024-05-23,株式会社ＤＭコンサルティング,,株式会社,神奈川県,横浜市戸塚区,柏尾町１０３２番地１０４,,14,110,2440812,,,,,,,2024-05-23,1,,,,,ディーエムコンサルティング,0
1130,5020001157361,新規,0,2024-05-23,2024-05-23,株式会社Ｋｅｉｏ設備,,株式会社,神奈川県,川崎市多摩区,長沢１丁目２番１６－２０５号扶桑ハイツ生田の杜,,14,135,2140035,,,,,,,2024-05-23,1,,,,,ケイオーセツビ,0
1132,5020003026168,新規,0,2024-05-23,2024-05-23,合同会社ＴＡＩＧＡ,,合同会社,神奈川県,横浜市神奈川区,斎藤分町３０番１８－２０４号,,14,102,2210811,,,,,,,2024-05-23,1,,,,,タイガ,0
1133,5020005016423,新規,0,2024-05-23,2024-05-23,一般社団法人コドモジブンケンキュウ,,その他の設立登記法人,神奈川県,横浜市磯子区,森１丁目８番３３－８０１号,,14,107,2350023,,,,,,,2024-05-23,1,,,,,コドモジブンケンキュウ,0
1137,5021001082293,新規,0,2024-05-23,2024-05-23,ＫＧホーム株式会社,,株式会社,神奈川県,相模原市中央区,上溝４５９番地３,,14,152,2520243,,,,,,,2024-05-23,1,,,,,ケイジーホーム,0
1155,5040001133724,新規,0,2024-05-23,2024-05-23,株式会社天然酵母研究所,,株式会社,千葉県,長生郡長柄町,山根１９８１番地９０,,12,426,2970206,,,,,,,2024-05-23,1,,,,,テンネンコウボケンキュウジョ,0
1158,5040003025044,新規,0,2024-05-23,2024-05-23,合同会社和楽家,,合同会社,千葉県,柏市,布施新町４丁目１１番７号,,12,217,2770823,,,,,,,2024-05-23,1,,,,,ワガヤ,0
1159,5040003025052,新規,0,2024-05-23,2024-05-23,合同会社きっ粋,,合同会社,千葉県,東金市,小野９１９番地１,,12,213,2830821,,,,,,,2024-05-23,1,,,,,キッスイ,0
1168,5070001041783,新規,0,2024-05-23,2024-05-23,株式会社Ａ．Ｇ,,株式会社,群馬県,藤岡市,下戸塚２２６番地１１,,10,209,3750012,,,,,,,2024-05-23,1,,,,,エージー,0
1174,5100001037480,新規,0,2024-05-23,2024-05-23,株式会社ＥＣＯ．ＴＳＵＫＡ,,株式会社,長野県,佐久市,塩名田１１０１番地１,,20,217,3842102,,,,,,,2024-05-23,1,,,,,エコツカ,0
1192,5120001264651,新規,0,2024-05-23,2024-05-23,株式会社ＨＩＴ．Ｃｏｒｐｏｒａｔｉｏｎ,,株式会社,大阪府,大阪市西区,南堀江１丁目１６－１１,,27,106,5500015,,,,,,,2024-05-23,1,,,,,エイチアイテイーコーポレーション,0
1193,5120001265138,新規,0,2024-05-23,2024-05-23,株式会社キヅキサポート,,株式会社,大阪府,大阪市東淀川区,菅原１丁目１４番１１号,,27,114,5330022,,,,,,,2024-05-23,1,,,,,キヅキサポート,0
1194,5120001265179,新規,0,2024-05-23,2024-05-23,ＮＡＮ株式会社,,株式会社,大阪府,大阪市生野区,中川５丁目１－１９,,27,116,5440005,,,,,,,2024-05-23,1,,,,,エヌエイエヌ,0
1195,5120001265204,新規,0,2024-05-23,2024-05-23,禎楽株式会社,,株式会社,大阪府,大阪市東住吉区,東田辺３丁目１－１－２Ｆ－Ａ,,27,121,5460032,,,,,,,2024-05-23,1,,,,,テイラク,0
1196,5120001265220,新規,0,2024-05-23,2024-05-23,株式会社笑顔,,株式会社,大阪府,大阪市浪速区,木津川２丁目４番５５号,,27,111,5560027,,,,,,,2024-05-23,1,,,,,エガオ,0
1197,5120001265229,新規,0,2024-05-23,2024-05-23,株式会社ＶａｌｕｅＴａｉｌｏｒ,,株式会社,大阪府,大阪市西区,京町堀３丁目１番３－１４０１号,,27,106,5500003,,,,,,,2024-05-23,1,,,,,バリューテーラー,0
1198,5120001265237,新規,0,2024-05-23,2024-05-23,株式会社リード,,株式会社,大阪府,大阪市西淀川区,御幣島２丁目６番２１号,,27,113,5550012,,,,,,,2024-05-23,1,,,,,リード,0
1202,5120003026661,新規,0,2024-05-23,2024-05-23,合同会社ネイピア,,合同会社,大阪府,大阪市中央区,久太郎町４丁目２－１３本町ＳＫビル４Ｆ,,27,128,5410056,,,,,,,2024-05-23,1,,,,,ネイピア,0
1203,5120003026686,新規,0,2024-05-23,2024-05-23,Ａｃａｍａｒ合同会社,,合同会社,大阪府,大阪市淀川区,野中北２丁目２‐２１‐３０４,,27,123,5320034,,,,,,,2024-05-23,1,,,,,アカマル,0
1204,5120005024341,新規,0,2024-05-23,2024-05-23,一般社団法人サスマンス,,その他の設立登記法人,大阪府,大阪市北区,豊崎１丁目１番３号,,27,127,5310072,,,,,,,2024-05-23,1,,,,,サスマンス,0
1209,5120103005838,新規,0,2024-05-23,2024-05-23,シズカ合同会社,,合同会社,大阪府,岸和田市,天神山町２丁目９－６－２０３室,,27,202,5960834,,,,,,,2024-05-23,1,,,,,シズカ,0
1213,5120901049210,新規,0,2024-05-23,2024-05-23,株式会社ＥＣＯみらいプランニング,,株式会社,大阪府,高槻市,別所本町１９－１９,,27,207,5691112,,,,,,,2024-05-23,1,,,,,エコミライプランニング,0
1215,5122001038127,新規,0,2024-05-23,2024-05-23,株式会社西和テック,,株式会社,大阪府,八尾市,老原５丁目２２５番地の１－１０１号室,,27,212,5810092,,,,,,,2024-05-23,1,,,,,セイワテック,0
1217,5130001077086,新規,0,2024-05-23,2024-05-23,株式会社Ｎｒｏｓｅ,,株式会社,京都府,京都市北区,紫竹上梅ノ木町２９番地,,26,101,6038179,,,,,,,2024-05-23,1,,,,,エヌローズ,0
1219,5130003009590,新規,0,2024-05-23,2024-05-23,合同会社Ｔ　ＢＲＩＤＧＥ　ＰＡＲＴＮＥＲＳ,,合同会社,京都府,京都市東山区,古川町通三条下る三丁目唐戸鼻町５５０番地２アビタシオン東山３０３,,26,105,6050000,,,,,,,2024-05-23,1,,,,,ティーブリッジパートナーズ,0
1225,5140001134464,新規,0,2024-05-23,2024-05-23,株式会社クプラス,,株式会社,兵庫県,姫路市,安田４丁目４９番１１,,28,201,6700955,,,,,,,2024-05-23,1,,,,,クプラス,0
1237,5180001161570,新規,0,2024-05-23,2024-05-23,株式会社一＿工業,00134869,株式会社,愛知県,犬山市,羽黒菊川３３番地３,,23,215,4840882,,,,,,,2024-05-23,1,,,,,イチテツコウギョウ,0
1238,5180001161612,新規,0,2024-05-23,2024-05-23,株式会社セオリコーポレーション,,株式会社,愛知県,稲沢市,北市場本町１丁目５番地１メゾンボー隅田１０３号,,23,220,4928178,,,,,,,2024-05-23,1,,,,,セオリコーポレーション,0
1239,5180001161629,新規,0,2024-05-23,2024-05-23,デザインルーム９２８株式会社,,株式会社,愛知県,あま市,七宝町安松１３丁目９番１号,,23,237,4970011,,,,,,,2024-05-23,1,,,,,デザインルームキュウニイハチ,0
1240,5180001161637,新規,0,2024-05-23,2024-05-23,株式会社ＮＥＸＴＳＱＵＡＲＥ　ＪＡＰＡＮ,,株式会社,愛知県,名古屋市中村区,那古野１丁目４７番１号名古屋国際センタービル１８階（ＧＰＣｅｎｔｅｒ内）,00134870,23,105,4500001,,,,,,,2024-05-23,1,,,,,ネクストスクエアジャパン,0
1243,5180003026821,新規,0,2024-05-23,2024-05-23,ムスタファ合同会社,,合同会社,愛知県,名古屋市港区,明正１丁目７グリーンパーク３０２,,23,111,4550806,,,,,,,2024-05-23,1,,,,,ムスタファ,0
1249,5180301038667,新規,0,2024-05-23,2024-05-23,新和薬品株式会社,,株式会社,愛知県,豊橋市,菰口町５丁目８９番地,,23,201,4418011,,,,,,,2024-05-23,1,,,,,,0
1254,5200001042537,新規,0,2024-05-23,2024-05-23,株式会社シン・アングル,,株式会社,岐阜県,各務原市,那加北洞町２丁目３２６番地,,21,213,5040011,,,,,,,2024-05-23,1,,,,,シンアングル,0
1260,5240001063257,新規,0,2024-05-23,2024-05-23,ぷらたなすきかく株式会社,,株式会社,広島県,呉市,西愛宕町１１―１４,,34,202,7370827,,,,,,,2024-05-23,1,,,,,プラタナスキカク,0
1261,5240001063273,新規,0,2024-05-23,2024-05-23,株式会社オーアイ,,株式会社,広島県,廿日市市,阿品２丁目２０番３２－１３号,,34,213,7380054,,,,,,,2024-05-23,1,,,,,オーアイ,0
1262,5240003006684,新規,0,2024-05-23,2024-05-23,合同会社仁心会,,合同会社,広島県,広島市東区,若草町１１番２－７０９号,,34,102,7320053,,,,,,,2024-05-23,1,,,,,ジンシンカイ,0
1263,5240005015774,新規,0,2024-05-23,2024-05-23,特定非営利活動法人Ｌｉｆｅｗｏｒｋ,,その他の設立登記法人,広島県,尾道市,向東町３３０２番３２号,,34,205,7220062,,,,,,,2024-05-23,1,,,,,ライフワーク,0
1265,5250001020661,新規,0,2024-05-23,2024-05-23,株式会社Ｍｉｄｍｏａ,,株式会社,山口県,大島郡周防大島町,大字西三蒲２４７６－２,,35,305,7422101,,,,,,,2024-05-23,1,,,,,ミッドモア,0
1273,5290001105814,新規,0,2024-05-23,2024-05-23,株式会社Ｌｉｅｎ,,株式会社,福岡県,福岡市中央区,那の川２丁目８－１５エステートモア平尾パージュ１２０１,,40,133,8100015,,,,,,,2024-05-23,1,,,,,リアン,0
1275,5290005019399,新規,0,2024-05-23,2024-05-23,一般社団法人九州韓国文化教育協会,,その他の設立登記法人,福岡県,福岡市東区,若宮５丁目４番１７号,,40,131,8130036,,,,,,,2024-05-23,1,,,,,キュウシュウカンコクブンカキョウイクキョウカイ,0
1280,5320003004374,新規,0,2024-05-23,2024-05-23,Ｓｈｅｅｐ　ｄｒｅａｍ　ｐｒｏｊｅｃｔ合同会社,,合同会社,大分県,宇佐市,安心院町大見尾１１１７番地の３,,44,211,8720663,,,,,,,2024-05-23,1,,,,,,0
1281,5330001032087,新規,0,2024-05-23,2024-05-23,ＹＪ科技株式会社,,株式会社,熊本県,熊本市中央区,新屋敷３丁目４－３エリーナ新屋敷３０４号室,,43,101,8620975,,,,,,,2024-05-23,1,,,,,ワイジェーテクノロジー,0
1282,5340001026518,新規,0,2024-05-23,2024-05-23,あまみアドバイザリー株式会社,,株式会社,鹿児島県,鹿児島市,玉里団地３丁目１１－９,,46,201,8920811,,,,,,,2024-05-23,1,,,,,アマミアドバイザリー,0
1283,5340001026526,新規,0,2024-05-23,2024-05-23,株式会社ＤＥＣソリューションズ,,株式会社,鹿児島県,鹿児島市,紫原６丁目３７番１７号,,46,201,8900082,,,,,,,2024-05-23,1,,,,,デックソリューションズ,0
1305,5480003002131,新規,0,2024-05-23,2024-05-23,合同会社セレクトスタイル,,合同会社,徳島県,徳島市,かちどき橋３丁目６番地１サン・ミッシェル１０１,,36,201,7700939,,,,,,,2024-05-23,1,,,,,セレクトスタイル,0
1314,5500001025635,新規,0,2024-05-23,2024-05-23,株式会社高田工業,,株式会社,愛媛県,宇和島市,和霊元町２丁目１番２０号,,38,203,7980015,,,,,,,2024-05-23,1,,,,,タカタコウギョウ,0
1315,5700150119135,新規,0,2024-05-23,2024-05-23,Ｊｉｕｊｉａｎｇｘｉａｏｂｕｄｉａｎｍａｏｙｉｙｏｕｘｉａｎｇｏｎｇｓｉ,,外国会社等,,,,,,,,ｊｉａｎｇｘｉｓｈｅｎｇｊｉｕｊｉａｎｇｓｈｉｌｉａｎｘｉｑｕｘｉｙａｎｇｌｏｎｇａｎｚｈｉｘｉａｏｑｕ７ｄｏｎｇ２－１８ｈａｏｍｅｎｍｉａｎ,,,,,,2024-05-23,1,,,,,キュウコウギョウハディアンシャンマオユウゲンゴウシ,0
1316,5700150122130,新規,0,2024-05-23,2024-05-23,Ｓｈａｎｇｈａｉ　ＹＩＮＳＨＩ　Ｎｅｔｗｏｒｋ　ａｎｄ　Ｔｅｃｈｎｏｌｏｇｙ　Ｌｔｄ,,外国会社等,,,,,,,,Ｒｏｏｍ　１５３，Ａｒｅａ　Ｂ，Ｂｕｉｌｄｉｎｇ　６，Ｎｏ１０８８　Ｔａｉｈｅ　Ｒｏａｄ　Ｂａｏｓｈａｎ　Ｓｈａｎｇｈａｉ,,,,,,2024-05-23,1,,,,,シャンハイインシワンルオコァジヨウシエンゴンス,0
1317,5700150125538,新規,0,2024-05-23,2024-05-23,Ｓｈｅｎｚｈｅｎｓｈｉ　Ｘｉａｏｗｅｉ　Ｅｌｅｃｔｒｏｎｉｃｓ　Ｃｏ．Ｌｔｄ,,外国会社等,,,,,,,,Ｒｏｏｍ１５０９　Ｎｏ．１４　Ｂｌｄｇ．２ｎｄ　Ｌａｎｅ　Ｃｈａｎｇｋｅｎｇ　Ｄｉｓｔｒｉｃｔ　Ｙａｎｇｍｅｉ　Ｃｏｍｍｕｎｉｔｙ　Ｂａｎｔｉａｎ　Ｓｔｒｅｅｔ　Ｌｏｎｇｇａｎｇ　Ｄｉｓｔｒｉｃｔ　Ｓｈｅｎｚｈｅｎ　Ｇｕａｎｇｄｏｎｇ　ＣＮ,,,,,,2024-05-23,1,,,,,シンセンシシャオウェイイレクトゥロニクスカンパニーリミテッド,0
1330,6010003043774,新規,0,2024-05-23,2024-05-23,グローリーエクスプレス合同会社,,合同会社,東京都,千代田区,霞が関３丁目２番５号,,13,101,1000013,,,,,,,2024-05-23,1,,,,,グローリーエクスプレス,0
1331,6010003043808,新規,0,2024-05-23,2024-05-23,ルーデンスコンサルティング合同会社,,合同会社,東京都,中央区,晴海３丁目１３番２－３２１０号,,13,102,1040053,,,,,,,2024-05-23,1,,,,,ルーデンスコンサルティング,0
1338,6010401182637,新規,0,2024-05-23,2024-05-23,株式会社ＪＩＡ１号,,株式会社,東京都,港区,赤坂８丁目２－７－２０３,,13,103,1070052,,,,,,,2024-05-23,1,,,,,ジェイアイエイイチゴウ,0
1339,6010401182703,新規,0,2024-05-23,2024-05-23,株式会社スリースターズ,,株式会社,東京都,港区,六本木７丁目１５番１７号ユニ六本木９階,,13,103,1060032,,,,,,,2024-05-23,1,,,,,スリースターズ,0
1343,6010403032658,新規,0,2024-05-23,2024-05-23,合同会社ＲＭ,,合同会社,東京都,港区,北青山１丁目３番１号アールキューブ青山３階,,13,103,1070061,,,,,,,2024-05-23,1,,,,,アールエム,0
1345,6010501052310,新規,0,2024-05-23,2024-05-23,株式会社Ｌｉｂｌｕｖ,,株式会社,東京都,台東区,竜泉１丁目１番２号,,13,106,1100012,,,,,,,2024-05-23,1,,,,,リブラヴ,0
1346,6010501052319,新規,0,2024-05-23,2024-05-23,株式会社Ｔｅｒｔｒａｃｃｉａ,,株式会社,東京都,台東区,池之端１丁目１－４第２ワタイフラットＢ１Ｆ,,13,106,1100008,,,,,,,2024-05-23,1,,,,,テルトラッキア,0
1347,6010503007452,新規,0,2024-05-23,2024-05-23,合同会社Ｔｈｕｍｂｓ　ｕｐ,,合同会社,東京都,台東区,蔵前２丁目１３－４,,13,106,1110051,,,,,,,2024-05-23,1,,,,,サムズアップ,0
1356,6010801035080,新規,0,2024-05-23,2024-05-23,株式会社不動ＤＸ,,株式会社,東京都,大田区,多摩川１丁目１１－３－２Ｆ,,13,111,1460095,,,,,,,2024-05-23,1,,,,,フドウディーエックス,0
1360,6010903009073,新規,0,2024-05-23,2024-05-23,Ｋｏｌｏｍｕａ合同会社,,合同会社,東京都,世田谷区,砧１丁目２５－１５,,13,112,1570073,,,,,,,2024-05-23,1,,,,,コロムア,0
1364,6011001162178,新規,0,2024-05-23,2024-05-23,ＦＩＴＹ株式会社,,株式会社,東京都,渋谷区,恵比寿西２丁目８番４号ＥＸ恵比寿西ビル５階,,13,113,1500021,,,,,,,2024-05-23,1,,,,,フィティ,0
1365,6011001162211,新規,0,2024-05-23,2024-05-23,コルディアル株式会社,,株式会社,東京都,渋谷区,円山町５番５号Ｎａｖｉ渋谷Ｖ３階,00134872,13,113,1500044,,,,,,,2024-05-23,1,,,,,コルディアル,0
1374,6011103014450,新規,0,2024-05-23,2024-05-23,合同会社ＨＡＰＰＹそーだ,,合同会社,東京都,新宿区,西新宿３丁目３番１３号西新宿水間ビル６階,,13,104,1600023,,,,,,,2024-05-23,1,,,,,ハッピーソーダ,0
1378,6011501030702,新規,0,2024-05-23,2024-05-23,株式会社ＵＬＴＲＡコミュニケーション協会,,株式会社,東京都,北区,東田端２丁目８番１５－２０７号,,13,117,1140013,,,,,,,2024-05-23,1,,,,,ウルトラコミュニケーションキョウカイ,0
1379,6011501030719,新規,0,2024-05-23,2024-05-23,株式会社ミチキカク,,株式会社,東京都,荒川区,東日暮里６丁目６番７号山川ビル４０１,,13,118,1160014,,,,,,,2024-05-23,1,,,,,ミチキカク,0
1382,6011701027300,新規,0,2024-05-23,2024-05-23,株式会社Ｇ‐ＬＯＴＵＳ,,株式会社,東京都,江戸川区,西瑞江４丁目１４－６３サンシティビル１階,,13,123,1340015,,,,,,,2024-05-23,1,,,,,ジーロータス,0
1385,6011703003828,新規,0,2024-05-23,2024-05-23,合同会社ＭＡＡ　ＡＡＲＹＡ　ＴＡＲＡ,,合同会社,東京都,江戸川区,北小岩７丁目２７番１９号,,13,123,1330051,,,,,,,2024-05-23,1,,,,,マーアリャタラ,0
1386,6012301013913,新規,0,2024-05-23,2024-05-23,株式会社シェルバード,,株式会社,東京都,町田市,小山町３１６９番地１,,13,209,1940212,,,,,,,2024-05-23,1,,,,,シェルバード,0
1391,6012703003000,新規,0,2024-05-23,2024-05-23,ＫＢＲ　Ｎｅｗｓ　Ａｇｅｎｃｙ合同会社,,合同会社,東京都,小平市,小川東町２６０５番地の２２,,13,211,1870031,,,,,,,2024-05-23,1,,,,,ケービーアールニュースエージェンシー,0
1395,6020003026167,新規,0,2024-05-23,2024-05-23,みなとさくコンサルティング合同会社,,合同会社,神奈川県,横浜市西区,老松町５７番地７,,14,103,2200032,,,,,,,2024-05-23,1,,,,,ミナトサクコンサルティング,0
1396,6020003026183,新規,0,2024-05-23,2024-05-23,カポクオーカサーレ合同会社,,合同会社,神奈川県,横浜市港北区,箕輪町２丁目６番１７－５０５号,,14,109,2230051,,,,,,,2024-05-23,1,,,,,カポクオーカサーレ,0
1397,6020003026191,新規,0,2024-05-23,2024-05-23,合同会社Ａ．Ｃ．Ｅ,,合同会社,神奈川県,横浜市青葉区,美しが丘西２丁目２２番地４１,,14,117,2250001,,,,,,,2024-05-23,1,,,,,エーシーイー,0
1401,6021001082301,新規,0,2024-05-23,2024-05-23,ＡＣＥ株式会社,,株式会社,神奈川県,大和市,福田１５５６番地７１,,14,213,2420024,,,,,,,2024-05-23,1,,,,,エース,0
1405,6030001160512,新規,0,2024-05-23,2024-05-23,ユニフレックス株式会社,,株式会社,埼玉県,川口市,上青木３丁目１２番６３号彩の国ビジュアルプラザ９０６号室,,11,203,3330844,,,,,,,2024-05-23,1,,,,,ユニフレックス,0
1406,6030001160520,新規,0,2024-05-23,2024-05-23,源裕株式会社,,株式会社,埼玉県,川口市,西川口１丁目３０番２０－３０６号,,11,203,3320021,,,,,,,2024-05-23,1,,,,,ゲンユウ,0
1412,6030003024351,新規,0,2024-05-23,2024-05-23,ＳＡＭＯＵＲＡＩ　ＢＵＳＩＮＥＳＳ　ＡＮＤ　ＴＲＡＤＩＮＧ合同会社,,合同会社,埼玉県,狭山市,柏原３５５３－１,,11,215,3501335,,,,,,,2024-05-23,1,,,,,サムライビジネスアンドトレーディング,0
1418,6040003025051,新規,0,2024-05-23,2024-05-23,合同会社Ｆｉｘｅｒ　Ｗｏｒｋｓ,,合同会社,千葉県,浦安市,今川１丁目３―９アダージョ１０５,,12,227,2790022,,,,,,,2024-05-23,1,,,,,フィクサーワークス,0
1419,6040005022402,新規,0,2024-05-23,2024-05-23,グローバルアクティブ事業協同組合,,その他の設立登記法人,千葉県,野田市,大殿井中坪２６３－１番地,,12,208,2780017,,,,,,,2024-05-23,1,,,,,グローバルアクティブ,0
1443,6110001038436,新規,0,2024-05-23,2024-05-23,株式会社９９９,,株式会社,新潟県,新潟市東区,下木戸２丁目４番１５号２１,,15,102,9500885,,,,,,,2024-05-23,1,,,,,キュウキュウキュウ,0
1454,6120001265178,新規,0,2024-05-23,2024-05-23,ＤＥＲＩＣＨ　ＪＡＰＡＮ株式会社,,株式会社,大阪府,大阪市中央区,島之内２丁目６－２９福田ビル長堀６０２,,27,128,5420082,,,,,,,2024-05-23,1,,,,,デリッチジャパン,0
1455,6120001265203,新規,0,2024-05-23,2024-05-23,騰皓商事株式会社,,株式会社,大阪府,大阪市浪速区,桜川１丁目７番３１号４Ｆ,,27,111,5560022,,,,,,,2024-05-23,1,,,,,トウコウショウジ,0
1456,6120001265244,新規,0,2024-05-23,2024-05-23,株式会社Ｎ’ｓ,,株式会社,大阪府,大阪市中央区,農人橋１丁目１番８－１Ｆ,,27,128,5400011,,,,,,,2024-05-23,1,,,,,エヌズ,0
1462,6120003026652,新規,0,2024-05-23,2024-05-23,上杉合同会社,,合同会社,大阪府,大阪市港区,市岡３丁目１３番９号２Ｆ,,27,107,5520012,,,,,,,2024-05-23,1,,,,,ウエスギ,0
1465,6120005024340,新規,0,2024-05-23,2024-05-23,一般社団法人日本アダプティブファッション協会,,その他の設立登記法人,大阪府,大阪市住吉区,万代東１丁目３番１９号ゆらっとステーション内,,27,120,5580056,,,,,,,2024-05-23,1,,,,,ニホンアダプティブファッションキョウカイ,0
1474,6120103005853,新規,0,2024-05-23,2024-05-23,こだまＨ＆Ｔ合同会社,,合同会社,大阪府,南河内郡河南町,大宝５丁目１番７号,,27,382,5850005,,,,,,,2024-05-23,1,,,,,コダマエイチアンパサンドティ,0
1485,6130001077093,新規,0,2024-05-23,2024-05-23,ブルーオプトエンジニアリング株式会社,,株式会社,京都府,相楽郡精華町,精華台７丁目５番地１けいはんなオープンイノベーションセンター,,26,366,6190238,,,,,,,2024-05-23,1,,,,,ブルーオプトエンジニアリング,0
1486,6130001077110,新規,0,2024-05-23,2024-05-23,鳥居電業株式会社,,株式会社,京都府,京都市中京区,姉小路通高倉西入木之下町２７４番地の６,,26,104,6048104,,,,,,,2024-05-23,1,,,,,トリイデンギョウ,0
1488,6130005017095,新規,0,2024-05-23,2024-05-23,一般財団法人ＭＡＲＵＫＩＴＡ財団,,その他の設立登記法人,京都府,京都市左京区,吉田橘町３０番地４－１０３,,26,103,6068303,,,,,,,2024-05-23,1,,,,,マルキタザイダン,0
1499,6180001161545,新規,0,2024-05-23,2024-05-23,株式会社Ｎ‐ＳＴＡＧＥ,,株式会社,愛知県,春日井市,高山町１丁目１６番地１５,,23,206,4860912,,,,,,,2024-05-23,1,,,,,エヌステージ,0
1500,6180001161636,新規,0,2024-05-23,2024-05-23,株式会社ケイズファシリティ,,株式会社,愛知県,大府市,北崎町２丁目８８番地の１６,,23,223,4740002,,,,,,,2024-05-23,1,,,,,ケイズファシリティ,0
1502,6180003026804,新規,0,2024-05-23,2024-05-23,合同会社ＫＳ９,,合同会社,愛知県,名古屋市昭和区,桜山町４丁目６７番地の３マルシェＶ２０２号,,23,107,4660044,,,,,,,2024-05-23,1,,,,,ケーエスナイン,0
1503,6180003026820,新規,0,2024-05-23,2024-05-23,合同会社ベッセル,,合同会社,愛知県,春日井市,柏原町５丁目２４０番地,,23,206,4860913,,,,,,,2024-05-23,1,,,,,ベッセル,0
1504,6180003026829,新規,0,2024-05-23,2024-05-23,合同会社ＫｉｃｈｅｎＷａｒｅ，Ｓ,,合同会社,愛知県,名古屋市天白区,池見２丁目１９３番地ベルコモンズ池見２Ｄ号,,23,116,4680067,,,,,,,2024-05-23,1,,,,,キッチンウェアーズ,0
1516,6240001063264,新規,0,2024-05-23,2024-05-23,株式会社ＦＯＲＤＥＣホールディングス,,株式会社,広島県,広島市西区,商工センター６丁目９番３９号,,34,104,7330833,,,,,,,2024-05-23,1,,,,,フォーデックホールディングス,0
1517,6240003006683,新規,0,2024-05-23,2024-05-23,合同会社鯉男子,,合同会社,広島県,広島市中区,大手町１丁目１－２０相生橋ビル７階Ａ号室,,34,101,7300051,,,,,,,2024-05-23,1,,,,,コイダンシ,0
1519,6250001020660,新規,0,2024-05-23,2024-05-23,株式会社ＳＯＵワークス,,株式会社,山口県,下関市,伊崎町２丁目１３番３４号,,35,201,7500065,,,,,,,2024-05-23,1,,,,,エスオーユーワークス,0
1523,6260001039097,新規,0,2024-05-23,2024-05-23,ＡＫ　Ｌｉｎｋ株式会社,,株式会社,岡山県,倉敷市,中庄９４３－７,,33,202,7100016,,,,,,,2024-05-23,1,,,,,エーケーリンク,0
1524,6260003004693,新規,0,2024-05-23,2024-05-23,河合金属合同会社,,合同会社,岡山県,岡山市中区,倉田６６３番地１５,,33,102,7038265,,,,,,,2024-05-23,1,,,,,カワイキンゾク,0
1530,6290001105739,新規,0,2024-05-23,2024-05-23,株式会社Ｍ＆Ａ,,株式会社,福岡県,大牟田市,本町３丁目１番地２,,40,202,8360046,,,,,,,2024-05-23,1,,,,,,0
1531,6290001105838,新規,0,2024-05-23,2024-05-23,株式会社マーズトランスポート,,株式会社,福岡県,福岡市中央区,舞鶴１丁目３番１４号小榎ビル３－Ｆ号室,,40,133,8100073,,,,,,,2024-05-23,1,,,,,マーズトランスポート,0
1535,6290801030590,新規,0,2024-05-23,2024-05-23,サークルフーズ株式会社,,株式会社,福岡県,北九州市若松区,本町２丁目１７番１号ベイサイドプラザ若松２Ｆ,,40,103,8080034,,,,,,,2024-05-23,1,,,,,サークルフーズ,0
1539,6320003004373,新規,0,2024-05-23,2024-05-23,合同会社Ｒａｄｉｃａｌ,,合同会社,大分県,大分市,今津留１丁目１８番１５－８０８号サーパス舞鶴,,44,201,8700938,,,,,,,2024-05-23,1,,,,,ラジカル,0
1540,6330005010798,新規,0,2024-05-23,2024-05-23,一般社団法人熊本県レクリエーション協会,,その他の設立登記法人,熊本県,熊本市東区,石原２丁目９番１号（熊本県民総合運動公園内）,,43,102,8618046,,,,,,,2024-05-23,1,,,,,クマモトケンレクリエーションキョウカイ,0
1542,6340001026533,新規,0,2024-05-23,2024-05-23,株式会社ブライトストーン,,株式会社,鹿児島県,鹿児島市,甲突町２５番５号アミューパレスＧ４０１号,,46,201,8920837,,,,,,,2024-05-23,1,,,,,ブライトストーン,0
1551,6430001091873,新規,0,2024-05-23,2024-05-23,高橋開発株式会社,,株式会社,北海道,札幌市厚別区,厚別西三条２丁目１番１－４０３号,,01,108,0040063,,,,,,,2024-05-23,1,,,,,タカハシカイハツ,0
1553,6430003016333,新規,0,2024-05-23,2024-05-23,合同会社ミゾグチ,,合同会社,北海道,札幌市北区,北二十五条西１４丁目５番１１号,,01,102,0010025,,,,,,,2024-05-23,1,,,,,ミゾグチ,0
1562,6700150125537,新規,0,2024-05-23,2024-05-23,ＰＵＪＩＡＮＧ　ＭＩＥＲ　ＴＲＡＤＩＮＧ　ＣＯ．，ＬＴＤ,,外国会社等,,,,,,,,Ｎｏ．５８，Ｔｉａｎｈｏｕ　Ｌｉ，Ｘｕｃｕｎ，Ｘｉａｎｈｕａ　Ｓｔｒｅｅｔ，Ｐｕｊｉａｎｇ　Ｃｏｕｎｔｙ，Ｚｈｅｊｉａｎｇ　ＣＮ,,,,,,2024-05-23,1,,,,,プジャンミエルトゥレイディングカンパニーリミテッド,0
1568,7010001245041,新規,0,2024-05-23,2024-05-23,東京リバノス株式会社,,株式会社,東京都,千代田区,神田和泉町１－６－１６ヤマトビル４０５,,13,101,1010024,,,,,,,2024-05-23,1,,,,,トウキョウリバノス,0
1573,7010003043765,新規,0,2024-05-23,2024-05-23,合同会社日本オブノ,,合同会社,東京都,千代田区,二番町３番地１１ＶＯＲＴ二番町５階,,13,101,1020084,,,,,,,2024-05-23,1,,,,,ニホンオブノ,0
1585,7010401182636,新規,0,2024-05-23,2024-05-23,株式会社ＬＹＮＸＳ,,株式会社,東京都,港区,虎ノ門１丁目１７番１号虎ノ門ヒルズビジネスタワー１５階,,13,103,1050001,,,,,,,2024-05-23,1,,,,,リンクス,0
1586,7010401182669,新規,0,2024-05-23,2024-05-23,ＬＳ‐ＳＨＩＰ第６５号株式会社,,株式会社,東京都,港区,六本木１丁目６番１号,,13,103,1060032,,,,,,,2024-05-23,1,,,,,エルエスシップダイロクジュウゴゴウ,0
1588,7010403032657,新規,0,2024-05-23,2024-05-23,合同会社ＳＨＩＢＡＤＯＧ,,合同会社,東京都,港区,北青山１丁目３番１号アールキューブ青山３階,,13,103,1070061,,,,,,,2024-05-23,1,,,,,シバドッグ,0
1594,7010601065244,新規,0,2024-05-23,2024-05-23,ＣＨＩＭＥＩ　ＧＬＯＢＡＬ　Ｊａｐａｎ株式会社,,株式会社,東京都,墨田区,緑１丁目１４番６号シティポート両国３Ｆ,,13,107,1300021,,,,,,,2024-05-23,1,,,,,チーメイグローバルジャパン,0
1595,7010601065260,新規,0,2024-05-23,2024-05-23,株式会社グリュデコンシェルサービス,,株式会社,東京都,江東区,大島２丁目１０番２１号きんしコート１０２号,,13,108,1360072,,,,,,,2024-05-23,1,,,,,グリュデコンシェルサービス,0
1602,7010705003629,新規,0,2024-05-23,2024-05-23,一般社団法人ｂｏｎｕｍ　ｃｏｒｐｕｓ,,その他の設立登記法人,東京都,品川区,上大崎３丁目５番８－６０６号,,13,109,1410021,,,,,,,2024-05-23,1,,,,,ボヌムコルプス,0
1608,7011001162103,新規,0,2024-05-23,2024-05-23,株式会社ｕｎｏｔ．ｄｅｓｉｇｎ,,株式会社,東京都,渋谷区,千駄ヶ谷１丁目１９番９号セルモビル７Ｆ,,13,113,1510051,,,,,,,2024-05-23,1,,,,,アノットデザイン,0
1612,7011003019193,新規,0,2024-05-23,2024-05-23,ＭＡＩＳＯＮ・ＭＥＥ合同会社,,合同会社,東京都,目黒区,上目黒５丁目８番１５－２０５号,,13,110,1530051,,,,,,,2024-05-23,1,,,,,メゾンミー,0
1613,7011003019202,新規,0,2024-05-23,2024-05-23,ｍｉｉｓ合同会社,,合同会社,東京都,渋谷区,恵比寿西２丁目８番４号ＥＸ恵比寿西ビル５階,,13,113,1500021,,,,,,,2024-05-23,1,,,,,ミース,0
1614,7011005010506,新規,0,2024-05-23,2024-05-23,一般社団法人インタープレナー協会,,その他の設立登記法人,東京都,渋谷区,恵比寿４丁目２０番３号恵比寿ガーデンプレイスタワー１８階,,13,113,1500013,,,,,,,2024-05-23,1,,,,,インタープレナーキョウカイ,0
1623,7011101107370,新規,0,2024-05-23,2024-05-23,株式会社マウイ,,株式会社,東京都,新宿区,東五軒町５－４－５０２,,13,104,1620813,,,,,,,2024-05-23,1,,,,,マウイ,0
1624,7011101107387,新規,0,2024-05-23,2024-05-23,株式会社ＣＯＲＡＺＯＮ,,株式会社,東京都,新宿区,大久保１丁目４番２０号三島屋ビル２０１－Ｉ,00134875,13,104,1690072,,,,,,,2024-05-23,1,,,,,コラソン,0
1625,7011101107395,新規,0,2024-05-23,2024-05-23,株式会社エンターエイト,,株式会社,東京都,新宿区,西新宿３丁目３番１３号西新宿水間ビル６階,,13,104,1600023,,,,,,,2024-05-23,1,,,,,エンターエイト,0
1626,7011103014441,新規,0,2024-05-23,2024-05-23,ｂｉｏｐｈｏｔｏｎ　ｆｉｌｍｓ合同会社,,合同会社,東京都,新宿区,西新宿３丁目３番１３号西新宿水間ビル２Ｆ,,13,104,1600023,,,,,,,2024-05-23,1,,,,,バイオフォトンフィルムス,0
1629,7011301029695,新規,0,2024-05-23,2024-05-23,株式会社ＬＥＭＯＮ,,株式会社,東京都,杉並区,堀ノ内３丁目８番５号,,13,115,1660013,,,,,,,2024-05-23,1,,,,,レモン,0
1630,7011401026106,新規,0,2024-05-23,2024-05-23,株式会社ＡＳＡ,,株式会社,東京都,板橋区,小茂根１丁目３番１５号,,13,119,1730037,,,,,,,2024-05-23,1,,,,,エイエスエイ,0
1632,7011501030651,新規,0,2024-05-23,2024-05-23,株式会社作間デザイン経営,,株式会社,東京都,北区,赤羽南１丁目９－４クリオ赤羽壱番館２０２,,13,117,1150044,,,,,,,2024-05-23,1,,,,,サクマデザインケイエイ,0
1634,7011601027770,新規,0,2024-05-23,2024-05-23,Ｈｙｐｅ株式会社,,株式会社,東京都,練馬区,旭町１丁目８－１サンフラワー徳力ビル４２６号室,,13,120,1790071,,,,,,,2024-05-23,1,,,,,ハイプ,0
1639,7011801044269,新規,0,2024-05-23,2024-05-23,株式会社ＭＩＲＡＩＡＳＵ,,株式会社,東京都,葛飾区,東金町５丁目１番４号アーネストビル１０５,,13,122,1250041,,,,,,,2024-05-23,1,,,,,ミライアス,0
1642,7012401041904,新規,0,2024-05-23,2024-05-23,株式会社ＫＡＬＭＥＲ,,株式会社,東京都,府中市,若松町２丁目１０番６５号,,13,206,1830005,,,,,,,2024-05-23,1,,,,,カルメ,0
1648,7012801023188,新規,0,2024-05-23,2024-05-23,株式会社ＳＴＳ,,株式会社,東京都,東大和市,上北台１丁目４番１３号,,13,220,2070023,,,,,,,2024-05-23,1,,,,,,0
1650,7013305003602,新規,0,2024-05-23,2024-05-23,行政書士法人クロスサークル,,その他の設立登記法人,東京都,豊島区,西池袋３丁目２２番１４号国土西池ビル３階,,13,116,1710021,,,,,,,2024-05-23,1,,,,,クロスサークル,0
1651,7020001157310,新規,0,2024-05-23,2024-05-23,株式会社リバーサル,,株式会社,神奈川県,横浜市中区,南仲通３丁目３５番地８Ｆ,,14,104,2310006,,,,,,,2024-05-23,1,,,,,リバーサル,0
1652,7020001157327,新規,0,2024-05-23,2024-05-23,株式会社与吉,,株式会社,神奈川県,横浜市鶴見区,獅子ケ谷３丁目５番１９号,,14,101,2300073,,,,,,,2024-05-23,1,,,,,ヨキチ,0
1653,7020001157335,新規,0,2024-05-23,2024-05-23,Ｂｕｄｄｙｕｐ株式会社,,株式会社,神奈川県,川崎市中原区,北谷町４５－１－２０６,,14,133,2110015,,,,,,,2024-05-23,1,,,,,バディアップ,0
1654,7020003026174,新規,0,2024-05-23,2024-05-23,シンミライ合同会社,,合同会社,神奈川県,横浜市西区,平沼１丁目２４番８号ドム横浜２０３,,14,103,2200023,,,,,,,2024-05-23,1,,,,,シンミライ,0
1655,7020003026190,新規,0,2024-05-23,2024-05-23,合同会社ジャスミン,,合同会社,神奈川県,川崎市麻生区,金程２丁目１３－２,,14,137,2150006,,,,,,,2024-05-23,1,,,,,ジャスミン,0
1657,7021001082291,新規,0,2024-05-23,2024-05-23,株式会社ＹＯＬＯ　Ｐｒｏｐｅｒｔｉｅｓ,,株式会社,神奈川県,相模原市中央区,富士見５丁目２番１２号,,14,152,2520236,,,,,,,2024-05-23,1,,,,,ヨロプロパティーズ,0
1658,7021003014557,新規,0,2024-05-23,2024-05-23,ＡＩ　Ｈｏｕｓｅ合同会社,,合同会社,神奈川県,相模原市中央区,水郷田名３丁目７番１０号,,14,152,2520246,,,,,,,2024-05-23,1,,,,,エイアイハウス,0
1668,7030001160486,新規,0,2024-05-23,2024-05-23,株式会社ＵＳＳ・Ｇｌｏｂａｌ,,株式会社,埼玉県,北本市,石戸６丁目１番地４,,11,233,3640024,,,,,,,2024-05-23,1,,,,,ユーエスエスグローバル,0
1679,7040003025050,新規,0,2024-05-23,2024-05-23,ＭＭ　ＭＯＴＯＲＳ合同会社,,合同会社,千葉県,東金市,川場７０８番地５,,12,213,2830064,,,,,,,2024-05-23,1,,,,,エムエムモータース,0
1680,7040003025059,新規,0,2024-05-23,2024-05-23,合同会社ＭＥＤＡＫＡ,,合同会社,千葉県,四街道市,鹿渡１１７４番地１８,,12,228,2840003,,,,,,,2024-05-23,1,,,,,メダカ,0
1692,7080103003068,新規,0,2024-05-23,2024-05-23,合同会社Ｖｉｃｔｏｒｙ,,合同会社,静岡県,沼津市,多比３５４番地の２,,22,203,4100101,,,,,,,2024-05-23,1,,,,,ビクトリー,0
1696,7100001037479,新規,0,2024-05-23,2024-05-23,株式会社ｉｚｕｒｕ,,株式会社,長野県,長野市,川中島町上氷鉋１５６９番地１,,20,201,3812233,,,,,,,2024-05-23,1,,,,,イズル,0
1707,7120001265219,新規,0,2024-05-23,2024-05-23,舟川貿易株式会社,,株式会社,大阪府,大阪市生野区,中川３丁目４番１７号３０５室,,27,116,5440005,,,,,,,2024-05-23,1,,,,,フナカワボウエキ,0
1708,7120001265268,新規,0,2024-05-23,2024-05-23,エンゲージメントパートナーズ株式会社,,株式会社,大阪府,大阪市中央区,北久宝寺町３丁目６番１号本町南ガーデンシティ７階,,27,128,5410057,,,,,,,2024-05-23,1,,,,,エンゲージメントパートナーズ,0
1709,7120001265284,新規,0,2024-05-23,2024-05-23,株式会社ｉＮ　Ｎａｔｕｒａｌ　Ｄｒｅａｍ　Ｉｎｔｅｒｎａｔｉｏｎａｌ,,株式会社,大阪府,大阪市北区,神山町８番１号梅田辰巳ビル６階,,27,127,5300026,,,,,,,2024-05-23,1,,,,,インナチュラルドリームインターナショナル,0
1711,7120003026610,新規,0,2024-05-23,2024-05-23,合同会社ｓｎｏｗ　ｕｐ,,合同会社,大阪府,大阪市中央区,本町橋７番１８号,,27,128,5400029,,,,,,,2024-05-23,1,,,,,スノウアップ,0
1726,7140001134504,新規,0,2024-05-23,2024-05-23,株式会社山根製材所,,株式会社,兵庫県,宍粟市,一宮町下野田４６１番地,,28,227,6714144,,,,,,,2024-05-23,1,,,,,ヤマネセイザイショ,0
1730,7150001027302,新規,0,2024-05-23,2024-05-23,株式会社花と星,,株式会社,奈良県,大和高田市,北本町５番３１号,,29,202,6350097,,,,,,,2024-05-23,1,,,,,ハナトホシ,0
1732,7160001025940,新規,0,2024-05-23,2024-05-23,株式会社ｏｎｅ　ｂｏｕｎｄ,,株式会社,滋賀県,守山市,幸津川町１３７０番地,,25,207,5240215,,,,,,,2024-05-23,1,,,,,ワンバウンド,0
1740,7180001161552,新規,0,2024-05-23,2024-05-23,エムケーツー株式会社,,株式会社,愛知県,名古屋市千種区,内山２丁目１２番２０号リバティハイツ３０５,,23,101,4640075,,,,,,,2024-05-23,1,,,,,エムケーツー,0
1741,7180001161602,新規,0,2024-05-23,2024-05-23,株式会社ＲＥＮＣＥ,,株式会社,愛知県,名古屋市中村区,黄金通５丁目３１番地,,23,105,4530804,,,,,,,2024-05-23,1,,,,,レンス,0
1742,7180001161619,新規,0,2024-05-23,2024-05-23,株式会社ＫＩＲｓｔｙｌｅ,,株式会社,愛知県,名古屋市中区,大須３丁目１１番１６号,,23,106,4600011,,,,,,,2024-05-23,1,,,,,キールスタイル,0
1743,7180001161635,新規,0,2024-05-23,2024-05-23,株式会社ユージーフロンティア,,株式会社,愛知県,名古屋市中村区,名駅３丁目４－１０アルティメイト名駅１ｓｔ２階,,23,105,4500002,,,,,,,2024-05-23,1,,,,,ユージーフロンティア,0
1744,7180001161643,新規,0,2024-05-23,2024-05-23,株式会社エムズコーポレーション,,株式会社,愛知県,稲沢市,島本郷町１０６番地,,23,220,4928258,,,,,,,2024-05-23,1,,,,,エムズコーポレーション,0
1748,7190001031358,新規,0,2024-05-23,2024-05-23,株式会社フレジエ,,株式会社,三重県,三重郡川越町,大字豊田１５８９番地,,24,344,5108122,,,,,,,2024-05-23,1,,,,,フレジエ,0
1752,7220003003756,新規,0,2024-05-23,2024-05-23,合同会社アベラコンベア,,合同会社,石川県,白山市,手取町コ５７番地６,,17,210,9290212,,,,,,,2024-05-23,1,,,,,アベラコンベア,0
1758,7240001063263,新規,0,2024-05-23,2024-05-23,株式会社ミヤタ,,株式会社,広島県,呉市,広文化町６番４３号,,34,202,7370114,,,,,,,2024-05-23,1,,,,,ミヤタ,0
1763,7290001105812,新規,0,2024-05-23,2024-05-23,株式会社香凛,,株式会社,福岡県,福岡市東区,下原１丁目１４番２４号,,40,131,8130002,,,,,,,2024-05-23,1,,,,,,0
1764,7290001105845,新規,0,2024-05-23,2024-05-23,株式会社エムシステム,,株式会社,福岡県,福岡市城南区,片江３丁目２２番１６－１０２号,,40,136,8140142,,,,,,,2024-05-23,1,,,,,エムシステム,0
1765,7290001105903,新規,0,2024-05-23,2024-05-23,阪田工業株式会社,,株式会社,福岡県,三潴郡大木町,大字前牟田５７７番地８,,40,522,8300406,,,,,,,2024-05-23,1,,,,,サカタコウギョウ,0
1768,7290003015324,新規,0,2024-05-23,2024-05-23,合同会社ｃｕｄｄｌｅ　ｃｌｏｓｅ,,合同会社,福岡県,福岡市中央区,天神１丁目１番１号アクロス福岡１階ｆａｂｂｉｔ,,40,133,8100001,,,,,,,2024-05-23,1,,,,,カドルクロス,0
1769,7290003015332,新規,0,2024-05-23,2024-05-23,エムズボーテ合同会社,,合同会社,福岡県,福岡市東区,西戸崎５丁目１８番７号,,40,131,8110321,,,,,,,2024-05-23,1,,,,,エムズボーテ,0
1772,7320001020479,新規,0,2024-05-23,2024-05-23,株式会社レミニスわさく,,株式会社,大分県,由布市,湯布院町川上２１６６番地３,,44,213,8795102,,,,,,,2024-05-23,1,,,,,レミニスワサク,0
1773,7320003004372,新規,0,2024-05-23,2024-05-23,合同会社一九,,合同会社,大分県,大分市,新川町１丁目８番１１号,,44,201,8700016,,,,,,,2024-05-23,1,,,,,イッキュウ,0
1776,7330003010386,新規,0,2024-05-23,2024-05-23,合同会社だるま,,合同会社,熊本県,熊本市中央区,渡鹿６丁目１１番７７－３０２号,,43,101,8620970,,,,,,,2024-05-23,1,,,,,ダルマ,0
1777,7330005010797,新規,0,2024-05-23,2024-05-23,一般社団法人ケアラーサポートふのよか,,その他の設立登記法人,熊本県,宇城市,小川町南小川８３２番地４,,43,213,8690614,,,,,,,2024-05-23,1,,,,,,0
1785,7350001018974,新規,0,2024-05-23,2024-05-23,株式会社日向珈琲,,株式会社,宮崎県,日向市,鶴町１丁目７番１号,,45,206,8830052,,,,,,,2024-05-23,1,,,,,ヒュウガコーヒー,0
1789,7360003014005,新規,0,2024-05-23,2024-05-23,合同会社Ｓ＆Ｄ　Ｇｒｏｕｐ,,合同会社,沖縄県,うるま市,安慶名２丁目９番２４号,,47,213,9042214,,,,,,,2024-05-23,1,,,,,エスアンドディグループ,0
1794,7380001034564,新規,0,2024-05-23,2024-05-23,株式会社響,,株式会社,福島県,会津若松市,門田町大字堤沢字北村２１０番地の４,,07,202,9650827,,,,,,,2024-05-23,1,,,,,ヒビキ,0
1804,7430001091856,新規,0,2024-05-23,2024-05-23,株式会社ワイズ,,株式会社,北海道,岩内郡岩内町,字万代１７番地３,,01,402,0450003,,,,,,,2024-05-23,1,,,,,ワイズ,0
1805,7430001091872,新規,0,2024-05-23,2024-05-23,株式会社エステクノ,,株式会社,北海道,札幌市東区,伏古一条５丁目１番１－５０５号,,01,103,0070861,,,,,,,2024-05-23,1,,,,,エステクノ,0
1807,7430003016365,新規,0,2024-05-23,2024-05-23,合同会社ｔ‐ｓｐｅｒａｎｚａ,,合同会社,北海道,札幌市東区,北二十三条東１丁目８番１０号,,01,103,0650023,,,,,,,2024-05-23,1,,,,,ティスペランツァ,0
1814,7700150122129,新規,0,2024-05-23,2024-05-23,ＳｈａｎｇＨａｉＣｕｉＬｉａｎｇＤｉａｎＺｉＳｈａｎｇＷｕＹｏｕＸｉａｎＧｏｎｇＳｉ,,外国会社等,,,,,,,,ＹｕｅＰｕＺｈｅｎＴａｎｇＮａｎＪｉｅ５７Ｈａｏ　２ＺｈｕａｎｇＹｉＣｅｎｇ２１８５Ｓｈｉ　ＢａｏＳｈａｎＱｕ　ＳｈａｎｇＨａｉＳｈｉ,,,,,,2024-05-23,1,,,,,シャンハイツゥイリヤンディエンズシャンウヨウシエンゴンス,0
1827,8010001244967,新規,0,2024-05-23,2024-05-23,株式会社祺盛,,株式会社,東京都,中央区,入船２丁目３－７築地エー・アイ・ユービル５階,,13,102,1040042,,,,,,,2024-05-23,1,,,,,キセイ,0
1828,8010001245049,新規,0,2024-05-23,2024-05-23,株式会社百川商事,,株式会社,東京都,千代田区,一番町４－２２プレイアデ一番町３０２号室,,13,101,1020082,,,,,,,2024-05-23,1,,,,,モモカワショウジ,0
1829,8010001245131,新規,0,2024-05-23,2024-05-23,株式会社テイルズ,,株式会社,東京都,文京区,向丘１丁目１番１７号タカサキヤビル９階,,13,105,1130023,,,,,,,2024-05-23,1,,,,,テイルズ,0
1835,8010003043731,新規,0,2024-05-23,2024-05-23,ＡＭＳ　ＴＲＡＤＩＮＧ合同会社,,合同会社,東京都,千代田区,神田平河町１番地、第３東ビル５Ｆ（イーオフィスＡＫＩＢＡ２番館１５号室）,,13,101,1010027,,,,,,,2024-05-23,1,,,,,エイエムエストレーディング,0
1846,8010401182635,新規,0,2024-05-23,2024-05-23,Ｘ　Ｔｅｃｈ株式会社,,株式会社,東京都,港区,東新橋１丁目２番５号,,13,103,1050021,,,,,,,2024-05-23,1,,,,,エックステック,0
1847,8010401182668,新規,0,2024-05-23,2024-05-23,ＬＳ‐ＳＨＩＰ第６４号株式会社,,株式会社,東京都,港区,六本木１丁目６番１号,,13,103,1060032,,,,,,,2024-05-23,1,,,,,エルエスシップダイロクジュウヨンゴウ,0
1851,8010403032689,新規,0,2024-05-23,2024-05-23,合同会社ＳＡＭＵＲＡＩ２０,,合同会社,東京都,港区,赤坂２丁目１０番５号税理士法人赤坂国際会計事務所内,,13,103,1070052,,,,,,,2024-05-23,1,,,,,サムライトゥエンティ,0
1852,8010405023273,新規,0,2024-05-23,2024-05-23,千葉日の出特定目的会社,,その他の設立登記法人,東京都,港区,元赤坂１丁目１番８号株式会社赤坂国際会計内,,13,103,1070051,,,,,,,2024-05-23,1,,,,,チバヒノデ,0
1858,8010601065219,新規,0,2024-05-23,2024-05-23,ダマモ株式会社,,株式会社,東京都,墨田区,錦糸１丁目１２－５カーサ錦糸町３１５号室,,13,107,1300013,,,,,,,2024-05-23,1,,,,,ダマモ,0
1864,8010701046036,新規,0,2024-05-23,2024-05-23,株式会社イデアルキャリア,,株式会社,東京都,品川区,西五反田３丁目４－１０目黒ＭＡＲＣレジデンスタワー１８０２,,13,109,1410031,,,,,,,2024-05-23,1,,,,,イデアルキャリア,0
1873,8010901055332,新規,0,2024-05-23,2024-05-23,株式会社Ｅｎｎｅ,,株式会社,東京都,世田谷区,豪徳寺１丁目５５番２７号,,13,112,1540021,,,,,,,2024-05-23,1,,,,,エンネ,0
1881,8011001162085,新規,0,2024-05-23,2024-05-23,株式会社Ｊ６デザイン,,株式会社,東京都,渋谷区,神宮前６丁目２３番４号桑野ビル２階,,13,113,1500001,,,,,,,2024-05-23,1,,,,,ジェイロクデザイン,0
1886,8011101107411,新規,0,2024-05-23,2024-05-23,株式会社ぶらっくかんぱにー,,株式会社,東京都,新宿区,西新宿３丁目３番１３号西新宿水間ビル６階,,13,104,1600023,,,,,,,2024-05-23,1,,,,,ブラックカンパニー,0
1888,8011103014449,新規,0,2024-05-23,2024-05-23,合同会社ＷＡＴＯ,,合同会社,東京都,新宿区,西新宿６丁目５－１新宿アイランドタワー２階合同会社ＷＡＴＯ,,13,104,1600023,,,,,,,2024-05-23,1,,,,,ワット,0
1889,8011203004399,新規,0,2024-05-23,2024-05-23,合同会社ナウル広告社,,合同会社,東京都,中野区,中野６丁目２０－９ナウル会館,,13,114,1640001,,,,,,,2024-05-23,1,,,,,ナウルコウコクシャ,0
1891,8011501030683,新規,0,2024-05-23,2024-05-23,株式会社Ｅｘｐａｌｅ,,株式会社,東京都,北区,志茂４丁目３８番４号,,13,117,1150042,,,,,,,2024-05-23,1,,,,,エクスペール,0
1892,8011501030717,新規,0,2024-05-23,2024-05-23,株式会社オアゾジャパン,,株式会社,東京都,荒川区,南千住３丁目４１－３－８０７,,13,118,1160003,,,,,,,2024-05-23,1,,,,,オアゾジャパン,0
1896,8011703003834,新規,0,2024-05-23,2024-05-23,合同会社エコリターン,,合同会社,東京都,江戸川区,東葛西４丁目４６－２２ベルサローク東葛西Ｂ号室,,13,123,1340084,,,,,,,2024-05-23,1,,,,,エコリターン,0
1897,8011703003850,新規,0,2024-05-23,2024-05-23,合同会社Ｊｕｎｋ　Ｆｌｏｏｒ,,合同会社,東京都,江戸川区,東葛西５丁目６番３－４０３号,,13,123,1340084,,,,,,,2024-05-23,1,,,,,ジャンクフロア,0
1902,8011801044268,新規,0,2024-05-23,2024-05-23,株式会社アイリス,,株式会社,東京都,葛飾区,東堀切１丁目１２番６号,,13,122,1240004,,,,,,,2024-05-23,1,,,,,アイリス,0
1903,8011801044276,新規,0,2024-05-23,2024-05-23,稲田株式会社,,株式会社,東京都,葛飾区,西新小岩５丁目２８番２０－１０２号,,13,122,1240025,,,,,,,2024-05-23,1,,,,,イナダ,0
1909,8012701018270,新規,0,2024-05-23,2024-05-23,カセイライティング株式会社,,株式会社,東京都,西東京市,栄町１丁目１４番２４号,,13,229,2020006,,,,,,,2024-05-23,1,,,,,カセイライティング,0
1915,8020001157326,新規,0,2024-05-23,2024-05-23,株式会社ＨＩｔｏ　Ｌａｂ．ｃｏｍｍｕｎｉｔｙ,,株式会社,神奈川県,横浜市都筑区,仲町台５丁目７番７号,,14,118,2240041,,,,,,,2024-05-23,1,,,,,ヒトラボコミュニティー,0
1916,8020001157375,新規,0,2024-05-23,2024-05-23,株式会社虹を結んで,,株式会社,神奈川県,横浜市西区,浅間町１丁目４番３号ウィザードビル４０２,,14,103,2200072,,,,,,,2024-05-23,1,,,,,ニジヲムスンデ,0
1917,8020003026157,新規,0,2024-05-23,2024-05-23,合同会社二四七家,,合同会社,神奈川県,横浜市神奈川区,神大寺３丁目１２－１３,,14,102,2210801,,,,,,,2024-05-23,1,,,,,ニシナヤ,0
1922,8021003014556,新規,0,2024-05-23,2024-05-23,つつ合同会社,,合同会社,神奈川県,相模原市緑区,橋本２丁目１８番１４号ＤＲＡＧＯＮ橋本六番館３０５号,,14,151,2520143,,,,,,,2024-05-23,1,,,,,ツツ,0
1936,8030003024283,新規,0,2024-05-23,2024-05-23,合同会社ＪＹプロパティ,,合同会社,埼玉県,さいたま市大宮区,堀の内町１丁目１１－１３,,11,103,3300804,,,,,,,2024-05-23,1,,,,,ジェーワイプロパティ,0
1948,8040003025058,新規,0,2024-05-23,2024-05-23,合同会社ＨＡＲＵ,,合同会社,千葉県,八街市,文違２９０番地９０,,12,230,2891104,,,,,,,2024-05-23,1,,,,,ハル,0
1959,8080101024767,新規,0,2024-05-23,2024-05-23,さくら株式会社,,株式会社,静岡県,富士市,中丸１０１番地の２ＹＨサンフラワー１０３号,,22,210,4160933,,,,,,,2024-05-23,1,,,,,サクラ,0
1964,8080401027197,新規,0,2024-05-23,2024-05-23,株式会社小林建設,,株式会社,静岡県,磐田市,見付６００４番地,,22,211,4380086,,,,,,,2024-05-23,1,,,,,コバヤシケンセツ,0
1970,8100001037478,新規,0,2024-05-23,2024-05-23,株式会社私たちの農園,,株式会社,長野県,茅野市,米沢４３４８番地１,,20,214,3910216,,,,,,,2024-05-23,1,,,,,ワタシタチノノウエン,0
1976,8100005013178,新規,0,2024-05-23,2024-05-23,一般社団法人量子システム推進機構,,その他の設立登記法人,長野県,安曇野市,穂高５６９７番地３,,20,220,3998303,,,,,,,2024-05-23,1,,,,,リョウシシステムスイシンキコウ,0
1987,8120001265085,新規,0,2024-05-23,2024-05-23,株式会社Ｋａｎｏ　Ａ,,株式会社,大阪府,大阪市北区,大淀南２丁目１番１号グランドメゾン新梅田タワー２００６,,27,127,5310075,,,,,,,2024-05-23,1,,,,,カノア,0
1988,8120001265250,新規,0,2024-05-23,2024-05-23,株式会社仲田建装,,株式会社,大阪府,大阪市東住吉区,桑津４丁目２番７号,,27,121,5460041,,,,,,,2024-05-23,1,,,,,ナカタケンソウ,0
1994,8120005024339,新規,0,2024-05-23,2024-05-23,弁護士法人ウィステリア法律事務所,,その他の設立登記法人,大阪府,大阪市中央区,南本町１丁目３番１７号南本町ＩＫビル３階,,27,128,5410054,,,,,,,2024-05-23,1,,,,,ウィステリアホウリツジムショ,0
1998,8120901049208,新規,0,2024-05-23,2024-05-23,株式会社ピッキー,,株式会社,大阪府,摂津市,鳥飼銘木町１番４０号,,27,224,5660063,,,,,,,2024-05-23,1,,,,,ピッキー,0
2000,8122001038124,新規,0,2024-05-23,2024-05-23,株式会社Ｔ‐ａｃｔ,,株式会社,大阪府,東大阪市,柏田西２丁目１８－１０,,27,227,5770835,,,,,,,2024-05-23,1,,,,,ティーアクト,0
2014,8150001027301,新規,0,2024-05-23,2024-05-23,株式会社Ｔａｄａｋｕｒｕ,,株式会社,奈良県,奈良市,三条町４７５松田ビル２Ｆ,,29,201,6308244,,,,,,,2024-05-23,1,,,,,タダクル,0
2024,8180001161568,新規,0,2024-05-23,2024-05-23,ラバーテックジャパン株式会社,,株式会社,愛知県,名古屋市千種区,神田町１３番２２号,,23,101,4640077,,,,,,,2024-05-23,1,,,,,ラバーテックジャパン,0
2025,8180001161576,新規,0,2024-05-23,2024-05-23,株式会社デントリペア・ブルーノ,,株式会社,愛知県,小牧市,弥生町６０番地,,23,219,4850071,,,,,,,2024-05-23,1,,,,,デントリペアブルーノ,0
2026,8180001161634,新規,0,2024-05-23,2024-05-23,株式会社ＢＬＵＥ‐Ｍ,,株式会社,愛知県,名古屋市中村区,名駅３丁目４番１０号アルティメイト名駅１ｓｔ２階,,23,105,4500002,,,,,,,2024-05-23,1,,,,,ブルーム,0
2030,8180003026810,新規,0,2024-05-23,2024-05-23,合同会社ＴＲＹ０４２０,,合同会社,愛知県,尾張旭市,晴丘町池上９４番地２,,23,226,4880032,,,,,,,2024-05-23,1,,,,,トライゼロヨンニーゼロ,0
2045,8240003006681,新規,0,2024-05-23,2024-05-23,合同会社ＴＡＫＥＭＯＴＯ,,合同会社,広島県,福山市,手城町２丁目２１番３号,,34,207,7210966,,,,,,,2024-05-23,1,,,,,タケモト,0
2050,8260001039087,新規,0,2024-05-23,2024-05-23,株式会社Ｓｔｅｅｒ　ｓｈｉｐ,,株式会社,岡山県,岡山市北区,高松原古才２５番地６,,33,101,7011334,,,,,,,2024-05-23,1,,,,,スティアシップ,0
2058,8290001105662,新規,0,2024-05-23,2024-05-23,株式会社ＹＮＳ,,株式会社,福岡県,福岡市西区,石丸２丁目１３番３３号,,40,135,8190025,,,,,,,2024-05-23,1,,,,,ワイエヌエス,0
2059,8290001105852,新規,0,2024-05-23,2024-05-23,株式会社ＦＯＲＴＵＮＡ,,株式会社,福岡県,福岡市博多区,博多駅前１丁目２３番２号ＰａｒｋＦｒｏｎｔ博多駅前１丁目５Ｆ－Ｂ,,40,132,8120011,,,,,,,2024-05-23,1,,,,,フォルトゥーナ,0
2061,8290003015315,新規,0,2024-05-23,2024-05-23,Ｇｌｏｂａｌ　Ｐｒｏｆｉｔ　Ｊａｐａｎ合同会社,,合同会社,福岡県,福岡市中央区,大手門１丁目８番８号ベイサージュ大手門６０４号室,,40,133,8100074,,,,,,,2024-05-23,1,,,,,グローバルプロフィットジャパン,0
2062,8290003015348,新規,0,2024-05-23,2024-05-23,合同会社エムズエステート,,合同会社,福岡県,那珂川市,松原２番１０号,,40,231,8111215,,,,,,,2024-05-23,1,,,,,エムズエステート,0
2064,8290801030589,新規,0,2024-05-23,2024-05-23,株式会社なつかしい未来,,株式会社,福岡県,北九州市八幡西区,森下町１１番３号,,40,109,8060046,,,,,,,2024-05-23,1,,,,,ナツカシイミライ,0
2070,8340003004485,新規,0,2024-05-23,2024-05-23,合同会社ＭａＮａ,,合同会社,鹿児島県,姶良市,加治木町反土６７９番地１－１０２号,,46,225,8995231,,,,,,,2024-05-23,1,,,,,マナ,0
2075,8360001033716,新規,0,2024-05-23,2024-05-23,ＳＨＩＮＹ　ＦＡＲＭ株式会社,,株式会社,沖縄県,中頭郡西原町,字幸地１７９－１,,47,329,9030116,,,,,,,2024-05-23,1,,,,,シャイニーファーム,0
2079,8380001034563,新規,0,2024-05-23,2024-05-23,株式会社藤進,,株式会社,福島県,いわき市,小名浜島字高田町１番地１,,07,204,9718125,,,,,,,2024-05-23,1,,,,,トウシン,0
2087,8430003016364,新規,0,2024-05-23,2024-05-23,合同会社ＹｕｎＴＡ,,合同会社,北海道,札幌市白石区,栄通１８丁目２－７,,01,104,0030021,,,,,,,2024-05-23,1,,,,,ユンタ,0
2090,8450001014327,新規,0,2024-05-23,2024-05-23,株式会社藤田建設,,株式会社,北海道,旭川市,東光二十三条６丁目４番３号,,01,204,0788363,,,,,,,2024-05-23,1,,,,,フジタケンセツ,0
2091,8460303000825,新規,0,2024-05-23,2024-05-23,合同会社ＡｓｐｉｒａｔｉｏｎｓＣＯ．,,合同会社,北海道,網走郡大空町,女満別西六条５丁目１番１７号,,01,564,0992326,,,,,,,2024-05-23,1,,,,,アスピレーションズコーポレーション,0
2105,8700150125535,新規,0,2024-05-23,2024-05-23,Ｒ．Ｓ．Ｍ．ＬＡＮＫＡ　ＨＯＬＤＩＮＧ　ＰＲＩＶＡＴＥ　ＬＩＭＩＴＥＤ,,外国会社等,神奈川県,愛甲郡愛川町,三増３５０番８－Ｎｏ．２,,14,401,2430308,スリランカ民主社会主義共和国、ウェランピティヤ、ファーストレーン、バランディヤワッタＮｏ．３０９／４０／１,,,,,,2024-05-23,1,,,,,アールエスエムランカホールデイングプライベートリミテツド,0
2113,9010001245031,新規,0,2024-05-23,2024-05-23,Ｇｒｏｗｔｈｉｘ株式会社,,株式会社,東京都,中央区,勝どき６丁目３番２－４６０３号,,13,102,1040054,,,,,,,2024-05-23,1,,,,,グロウシックス,0
2114,9010001245048,新規,0,2024-05-23,2024-05-23,丸福海運株式会社,,株式会社,東京都,千代田区,神田美倉町１２－１ＭＨ－ＫＩＹＡビル５階,,13,101,1010038,,,,,,,2024-05-23,1,,,,,マルフクカイウン,0
2115,9010001245106,新規,0,2024-05-23,2024-05-23,株式会社Ｇｏｂａｌ,,株式会社,東京都,文京区,湯島３丁目２５－１１東京堂湯島ビル２階,,13,105,1130034,,,,,,,2024-05-23,1,,,,,ゴーバル,0
2119,9010003043672,新規,0,2024-05-23,2024-05-23,合同会社ｒｉｋｉｍａｒｕ　Ｌａｂ,,合同会社,東京都,中央区,銀座１丁目１２－４Ｎ＆ＥＢＬＤ．７階,,13,102,1040061,,,,,,,2024-05-23,1,,,,,リキマルラボ,0
2124,9010401182097,新規,0,2024-05-23,2024-05-23,株式会社ＱＲＥＡＴＯＲＳ　Ｃｏｎｓｕｌｔｉｎｇ,,株式会社,東京都,港区,芝１丁目９－２－３０３,,13,103,1050014,,,,,,,2024-05-23,1,,,,,クリエイターズコンサルティング,0
2126,9010401182576,新規,0,2024-05-23,2024-05-23,株式会社Ｐ・Ｆ・Ｊ,,株式会社,東京都,港区,虎ノ門１丁目１７番１号虎ノ門ヒルズビジネスタワー,,13,103,1050001,,,,,,,2024-05-23,1,,,,,ピーエフジェー,0
2127,9010401182634,新規,0,2024-05-23,2024-05-23,ｉ　Ｔｅｃｈ株式会社,,株式会社,東京都,港区,東新橋１丁目２番５号,,13,103,1050021,,,,,,,2024-05-23,1,,,,,アイテック,0
2128,9010401182659,新規,0,2024-05-23,2024-05-23,株式会社京滋リバイタル,,株式会社,東京都,港区,港南２丁目１５番３号,,13,103,1080075,,,,,,,2024-05-23,1,,,,,ケイジリバイタル,0
2129,9010401182667,新規,0,2024-05-23,2024-05-23,ＬＳ‐ＳＨＩＰ第６３号株式会社,,株式会社,東京都,港区,六本木１丁目６番１号,,13,103,1060032,,,,,,,2024-05-23,1,,,,,エルエスシップダイロクジュウサンゴウ,0
2130,9010401182691,新規,0,2024-05-23,2024-05-23,株式会社Ｍ‐ＲＥＶＯ,,株式会社,東京都,港区,麻布十番１丁目９番２号ユニマット麻布十番ビル４階,,13,103,1060045,,,,,,,2024-05-23,1,,,,,エムレボ,0
2134,9010403032671,新規,0,2024-05-23,2024-05-23,ＩＮＴＥＧＲＩＴＹ　ＧＬＯＢＡＬ　ＡＧＥＮＣＹ合同会社,,合同会社,東京都,港区,元赤坂１丁目２番７号赤坂Ｋタワー４階,,13,103,1070051,,,,,,,2024-05-23,1,,,,,インテグリティグローバルエージェンシー,0
2136,9010405023215,新規,0,2024-05-23,2024-05-23,一般社団法人日本旅行業自動車協会,,その他の設立登記法人,東京都,港区,赤坂３丁目２番８号ＶＯＲＴ赤坂見附ＩＩ６階,00134873,13,103,1070052,,,,,,,2024-05-23,1,,,,,ニホンリョコウギョウジドウシャキョウカイ,0
2143,9010601065250,新規,0,2024-05-23,2024-05-23,Ｈｉｔ　Ｍｕｓｉｃ　Ｒｅｃｏｒｄｓ株式会社,,株式会社,東京都,江東区,豊洲３丁目６番５号ＴＨＥＴＯＹＯＳＵＴＯＷＥＲ２７０１,,13,108,1350061,,,,,,,2024-05-23,1,,,,,ヒットミュージックレコーズ,0
2155,9010903009062,新規,0,2024-05-23,2024-05-23,合同会社ボンテンポ,,合同会社,東京都,世田谷区,池尻１丁目７番６－６０２号,,13,112,1540001,,,,,,,2024-05-23,1,,,,,ボンテンポ,0
2159,9011001161978,新規,0,2024-05-23,2024-05-23,株式会社Ｋｏｉ　Ｆｉｓｈ　Ｌａｂｓ,,株式会社,東京都,渋谷区,道玄坂１丁目１０番８号渋谷道玄坂東急ビル２Ｆ－Ｃ,,13,113,1500043,,,,,,,2024-05-23,1,,,,,コイフィッシュラボ,0
2160,9011001162043,新規,0,2024-05-23,2024-05-23,株式会社ＮＥＯＳ,,株式会社,東京都,渋谷区,恵比寿南３丁目９番２０－２０３号,,13,113,1500022,,,,,,,2024-05-23,1,,,,,ネオス,0
2161,9011001162126,新規,0,2024-05-23,2024-05-23,株式会社ＯＡＲ　ＦＯＯＤＳ,,株式会社,東京都,渋谷区,本町３丁目４４－２ＣＡＳＡ６０１,,13,113,1510071,,,,,,,2024-05-23,1,,,,,オールフーズ,0
2163,9011003019200,新規,0,2024-05-23,2024-05-23,ユリタコ合同会社,,合同会社,東京都,渋谷区,道玄坂１丁目１０番８号渋谷道玄坂東急ビル２Ｆ－Ｃ,,13,113,1500043,,,,,,,2024-05-23,1,,,,,ユリタコ,0
2168,9011103014448,新規,0,2024-05-23,2024-05-23,合同会社ＪＲＥ,,合同会社,東京都,新宿区,西新宿４丁目２２－２４－２０５,,13,104,1600023,,,,,,,2024-05-23,1,,,,,ジェイアールイー,0
2171,9011301029693,新規,0,2024-05-23,2024-05-23,株式会社フリースタイル,,株式会社,東京都,杉並区,高井戸東４丁目１番１５号プレミスト浜田山３０２,,13,115,1680072,,,,,,,2024-05-23,1,,,,,,0
2174,9011401026112,新規,0,2024-05-23,2024-05-23,月吉木株式会社,,株式会社,東京都,板橋区,坂下１丁目２８番２号,,13,119,1740043,,,,,,,2024-05-23,1,,,,,ツキヨシキ,0
2180,9012303001995,新規,0,2024-05-23,2024-05-23,Ｍ２合同会社,,合同会社,東京都,町田市,相原町１３７６,,13,209,1940211,,,,,,,2024-05-23,1,,,,,エムツー,0
2182,9012401041885,新規,0,2024-05-23,2024-05-23,株式会社ＮＦＴＭｅｄｉａ,,株式会社,東京都,武蔵野市,吉祥寺本町３丁目２１番１２－２００号,,13,203,1800004,,,,,,,2024-05-23,1,,,,,エヌエフティーメディア,0
2183,9012403006572,新規,0,2024-05-23,2024-05-23,ＥＹＬ合同会社,,合同会社,東京都,稲城市,向陽台５丁目１０リベレ向陽台３－４０６号,,13,225,2060803,,,,,,,2024-05-23,1,,,,,イーワイエル,0
2184,9013303007149,新規,0,2024-05-23,2024-05-23,合同会社オフィスしましま,,合同会社,東京都,豊島区,東池袋１丁目１７－１１パークハイツ池袋１１０５号,,13,116,1700013,,,,,,,2024-05-23,1,,,,,オフィスシマシマ,0
2188,9020001157176,新規,0,2024-05-23,2024-05-23,ワンステップアヘッド株式会社,,株式会社,神奈川県,川崎市川崎区,駅前本町１１番地２川崎フロンティアビル４階,,14,131,2100007,,,,,,,2024-05-23,1,,,,,ワンステップアヘッド,0
2189,9020001157317,新規,0,2024-05-23,2024-05-23,プロメシアン株式会社,,株式会社,神奈川県,横浜市青葉区,美しが丘西３丁目３５番地１,,14,117,2250001,,,,,,,2024-05-23,1,,,,,プロメシアン,0
2190,9020001157341,新規,0,2024-05-23,2024-05-23,アプローチ株式会社,,株式会社,神奈川県,横浜市戸塚区,汲沢町５０８番地４８,,14,110,2450062,,,,,,,2024-05-23,1,,,,,アプローチ,0
2191,9020001157374,新規,0,2024-05-23,2024-05-23,株式会社水野設備,,株式会社,神奈川県,横浜市鶴見区,下野谷町４丁目１６６番地５,,14,101,2300047,,,,,,,2024-05-23,1,,,,,ミズノセツビ,0
2193,9020003026180,新規,0,2024-05-23,2024-05-23,合同会社Ｒｅｙｕｘ,,合同会社,神奈川県,横浜市中区,常盤町３丁目２４サンビル６Ｆ,,14,104,2310014,,,,,,,2024-05-23,1,,,,,リュクス,0
2196,9021003014522,新規,0,2024-05-23,2024-05-23,ＳＳＲ合同会社,,合同会社,神奈川県,座間市,ひばりが丘５丁目５６番１－１０３号アルエット・コリーヌ,,14,216,2520003,,,,,,,2024-05-23,1,,,,,エスエスアール,0
2202,9030001160476,新規,0,2024-05-23,2024-05-23,株式会社ソウ,,株式会社,埼玉県,秩父市,宮側町２４番１３号,,11,207,3680046,,,,,,,2024-05-23,1,,,,,ソウ,0
2203,9030001160492,新規,0,2024-05-23,2024-05-23,株式会社ネンカク,,株式会社,埼玉県,川越市,大字藤間１０６５－１－１０２,,11,201,3501142,,,,,,,2024-05-23,1,,,,,ネンカク,0
2204,9030001160526,新規,0,2024-05-23,2024-05-23,株式会社スタームーン,,株式会社,埼玉県,所沢市,小手指町１丁目２４番１５号,,11,208,3591141,,,,,,,2024-05-23,1,,,,,スタームーン,0
2205,9030001160559,新規,0,2024-05-23,2024-05-23,株式会社Ｎｉｃｈｉｙｕ　Ｌｏｇｉｓｙｓ,,株式会社,埼玉県,戸田市,上戸田１丁目９番６号,,11,224,3350022,,,,,,,2024-05-23,1,,,,,ニチユロジシス,0
2207,9030003024349,新規,0,2024-05-23,2024-05-23,Ｔコンサルティング合同会社,,合同会社,埼玉県,新座市,東北２丁目３９－１０ドゥーセット弐番館６Ｆ（ＮＯ．４４）,,11,230,3520001,,,,,,,2024-05-23,1,,,,,ティコンサルティング,0
2217,9040001133753,新規,0,2024-05-23,2024-05-23,株式会社武久興業,,株式会社,千葉県,富里市,七栄４８９番地６１ＳｈａＭａｉｓｏｎ小松台１０１号室,,12,233,2860221,,,,,,,2024-05-23,1,,,,,ブキュウコウギョウ,0
2221,9040003025049,新規,0,2024-05-23,2024-05-23,ＳＰＥＥＤ　ＦＯＲＣＥ合同会社,,合同会社,千葉県,四街道市,小名木９４番地６３,,12,228,2840042,,,,,,,2024-05-23,1,,,,,スピードフォース,0
2224,9050001054817,新規,0,2024-05-23,2024-05-23,ウェルド株式会社,,株式会社,茨城県,守谷市,御所ケ丘４丁目４番地１２,,08,224,3020119,,,,,,,2024-05-23,1,,,,,ウェルド,0
2229,9080001026318,新規,0,2024-05-23,2024-05-23,サクセス株式会社,,株式会社,静岡県,牧之原市,静波２３４４番地２,,22,226,4210422,,,,,,,2024-05-23,1,,,,,サクセス,0
2235,9100001037469,新規,0,2024-05-23,2024-05-23,株式会社ビジネスカウンシル・甲信越,,株式会社,長野県,岡谷市,長地柴宮３丁目１７番３号ＦＫビル西２０２号,,20,204,3940083,,,,,,,2024-05-23,1,,,,,ビジネスカウンシルコウシンエツ,0
2236,9100001037485,新規,0,2024-05-23,2024-05-23,株式会社Ｂｌｕｅ　ＯＸ,,株式会社,長野県,松本市,波田１０１１９番地１ボム・コリーヌＩＩ２０２,00134876,20,202,3901401,,,,,,,2024-05-23,1,,,,,ブルーオックス,0
2243,9100005013177,新規,0,2024-05-23,2024-05-23,一般社団法人日本防災キャンプアウトドア協会,,その他の設立登記法人,長野県,須坂市,大字須坂３６９番地３２,,20,207,3820000,,,,,,,2024-05-23,1,,,,,ニホンボウサイキャンプアウトドアキョウカイ,0
2258,9120001265175,新規,0,2024-05-23,2024-05-23,株式会社エール,,株式会社,大阪府,寝屋川市,高宮新町１番１８号,,27,215,5720847,,,,,,,2024-05-23,1,,,,,エール,0
2259,9120001265183,新規,0,2024-05-23,2024-05-23,若水株式会社,,株式会社,大阪府,大阪市東成区,深江南１丁目１４－２０ＪＨＣハイツ６０６号室,,27,115,5370002,,,,,,,2024-05-23,1,,,,,ワカミズ,0
2260,9120001265225,新規,0,2024-05-23,2024-05-23,楽希株式会社,,株式会社,大阪府,大阪市中央区,島之内２丁目４番１３号メゾン・デ・ノムラ島之内９１４号室,,27,128,5420082,,,,,,,2024-05-23,1,,,,,ラッキ,0
2261,9120001265233,新規,0,2024-05-23,2024-05-23,株式会社Ｒｕｆｆ,,株式会社,大阪府,大阪市中央区,南船場３丁目２番２２号おおきに南船場ビル２０５,,27,128,5420081,,,,,,,2024-05-23,1,,,,,ラフ,0
2262,9120001265274,新規,0,2024-05-23,2024-05-23,株式会社Ｇｌｏｗ,,株式会社,大阪府,大阪市北区,梅田１丁目１番３号大阪駅前第３ビル２９階１－１－１号室,,27,127,5300001,,,,,,,2024-05-23,1,,,,,グロウ,0
2265,9120003026666,新規,0,2024-05-23,2024-05-23,合同会社ハニーエンターテイメント,,合同会社,大阪府,大阪市東成区,深江北１丁目７－１６－９０５,,27,115,5370001,,,,,,,2024-05-23,1,,,,,ハニーエンターテイメント,0
2270,9120005024338,新規,0,2024-05-23,2024-05-23,一般社団法人日中野球交流協会,,その他の設立登記法人,大阪府,大阪市中央区,船場中央１丁目４番３－１２２号,,27,128,5410055,,,,,,,2024-05-23,1,,,,,ニッチュウヤキュウコウリュウキョウカイ,0
2273,9120101069600,新規,0,2024-05-23,2024-05-23,株式会社尊天,,株式会社,大阪府,羽曳野市,郡戸２４７番地,,27,222,5830874,,,,,,,2024-05-23,1,,,,,ソンテン,0
2274,9120101069609,新規,0,2024-05-23,2024-05-23,株式会社プレイバン,,株式会社,大阪府,堺市中区,深井水池町２８６４番地,,27,142,5998237,,,,,,,2024-05-23,1,,,,,プレイバン,0
2275,9120103005834,新規,0,2024-05-23,2024-05-23,昌久合同会社,,合同会社,大阪府,岸和田市,天神山町２丁目９－６－１１０室,,27,202,5960834,,,,,,,2024-05-23,1,,,,,ショウキュウ,0
2282,9130003009587,新規,0,2024-05-23,2024-05-23,ＶｏｙａｇｅＢｒｉｇｈｔ合同会社,,合同会社,京都府,京都市下京区,大黒町２２７番地第２キョートビル４０２,,26,106,6008043,,,,,,,2024-05-23,1,,,,,ボヤージュブライト,0
2287,9140003020601,新規,0,2024-05-23,2024-05-23,合同会社ＡＡＰ,,合同会社,兵庫県,神戸市中央区,磯辺通１丁目１番１８号カサベラ国際プラザビル７０７号室,,28,110,6510084,,,,,,,2024-05-23,1,,,,,エイエイピー,0
2303,9180001161567,新規,0,2024-05-23,2024-05-23,雄和運輸株式会社,,株式会社,愛知県,稲沢市,西町１丁目７番１６号,,23,220,4928218,,,,,,,2024-05-23,1,,,,,ユウワウンユ,0
2304,9180001161583,新規,0,2024-05-23,2024-05-23,株式会社ファンコム,,株式会社,愛知県,日進市,米野木台６丁目１２０５番地１,,23,230,4700118,,,,,,,2024-05-23,1,,,,,ファンコム,0
2305,9180001161617,新規,0,2024-05-23,2024-05-23,株式会社ｉｍｐｒｏｖｅ,,株式会社,愛知県,名古屋市守山区,鳥羽見２丁目１６番７号,,23,113,4630076,,,,,,,2024-05-23,1,,,,,インプルーブ,0
2312,9180301038671,新規,0,2024-05-23,2024-05-23,株式会社ウィンツー,,株式会社,愛知県,岡崎市,上地１丁目５４番地５３,,23,202,4440823,,,,,,,2024-05-23,1,,,,,ウィンツー,0
2317,9230001020362,新規,0,2024-05-23,2024-05-23,株式会社越南通商,,株式会社,富山県,富山市,四方６３４番地２,,16,201,9302243,,,,,,,2024-05-23,1,,,,,エツナンツウショウ,0
2322,9240003006680,新規,0,2024-05-23,2024-05-23,合同会社ガーベラ,,合同会社,広島県,東広島市,黒瀬桜が丘１丁目１４－３,,34,212,7392618,,,,,,,2024-05-23,1,,,,,ガーベラ,0
2325,9280001009186,新規,0,2024-05-23,2024-05-23,株式会社石見商店,,株式会社,島根県,江津市,有福温泉町６３８番地２,,32,207,6950156,,,,,,,2024-05-23,1,,,,,イワミショウテン,0
2332,9290001105802,新規,0,2024-05-23,2024-05-23,株式会社フルアド,,株式会社,福岡県,福岡市南区,井尻３丁目２５－９,,40,134,8111302,,,,,,,2024-05-23,1,,,,,,0
2333,9290001105819,新規,0,2024-05-23,2024-05-23,株式会社ＴＲＵＳＴ　ＡＧＥＮＴ,,株式会社,福岡県,古賀市,中央２丁目１１番１１号,,40,223,8113103,,,,,,,2024-05-23,1,,,,,トラストエージェント,0
2352,9360001033681,新規,0,2024-05-23,2024-05-23,株式会社ＥＸｃｈａｒｇｅ,,株式会社,沖縄県,沖縄市,泡瀬４丁目３５番６号,,47,211,9042172,,,,,,,2024-05-23,1,,,,,エクスチャージ,0
2353,9360003013987,新規,0,2024-05-23,2024-05-23,ポリグロット合同会社,,合同会社,沖縄県,那覇市,字大道２１６番地５Ｌａ　Ｏｒｉｇｉｎ９０３,,47,201,9020066,,,,,,,2024-05-23,1,,,,,ポリグロット,0
2357,9380001034562,新規,0,2024-05-23,2024-05-23,株式会社フラワーコンサル,,株式会社,福島県,郡山市,咲田２丁目２２番２０号－１４０５,,07,203,9638012,,,,,,,2024-05-23,1,,,,,フラワーコンサル,0
2377,9430001091862,新規,0,2024-05-23,2024-05-23,ＷＯＲＬＤ　ＥＳＴＡＴＥ株式会社,,株式会社,北海道,札幌市中央区,大通西１８丁目１番地１４藪商事ビル３Ｆ,,01,101,0600042,,,,,,,2024-05-23,1,,,,,ワールドエステート,0
2378,9440001009442,新規,0,2024-05-23,2024-05-23,株式会社カネキュウ商店,,株式会社,北海道,茅部郡森町,字本町９１番地１,,01,345,0492325,,,,,,,2024-05-23,1,,,,,カネキュウショウテン,0
2380,9450003002493,新規,0,2024-05-23,2024-05-23,ＬＡＳＴＬＡＮＤ合同会社,,合同会社,北海道,雨竜郡沼田町,本通３丁目３―３６号,,01,438,0782203,,,,,,,2024-05-23,1,,,,,ラストランド,0
2383,9480001012483,新規,0,2024-05-23,2024-05-23,株式会社ＹＯＫＯＨＩＲＯ,,株式会社,徳島県,徳島市,東沖洲２丁目２６番地１５,,36,201,7700873,,,,,,,2024-05-23,1,,,,,ヨコヒロ,0
