sequenceNumber,corporateNumber,process,correct,updateDate,changeDate,name,nameImageId,kind,prefectureName,cityName,streetNumber,addressImageId,prefectureCode,cityCode,postCode,addressOutside,addressOutsideImageId,closeDate,closeCause,successorCorporateNumber,changeCause,assignmentDate,latest,enName,enPrefectureName,enCityName,enAddressOutside,furigana,hihyoji
3,1010001117618,登記記録の閉鎖等,0,2024-09-13,2024-09-03,株式会社Ｈ＆Ｒ　Ｆｌａｇ,,株式会社,東京都,中央区,八丁堀２丁目３０番１７号亀島橋ビル５階,,13,102,1040032,,,2024-09-03,清算の結了等,,,2015-10-05,1,,,,,エイチアンドアールフラッグ,0
4,1010001157639,登記記録の閉鎖等,0,2024-09-13,2024-08-23,株式会社マンハッタンデリ,,株式会社,東京都,港区,六本木３丁目１１番６号野沢ビル６階,,13,103,1060032,,,2024-08-23,清算の結了等,,,2015-10-05,1,,,,,マンハッタンデリ,0
7,1010002006794,登記記録の閉鎖等,0,2024-09-13,2024-09-02,有限会社浅野,,有限会社,東京都,千代田区,丸の内１丁目２番１号,,13,101,1000005,,,2024-09-02,清算の結了等,,,2015-10-05,1,,,,,アサノ,0
19,1010401103820,登記記録の閉鎖等,0,2024-09-13,2024-09-10,キャスレーホールディングス株式会社,,株式会社,東京都,文京区,本郷６丁目１７番９号本郷綱ビル１０Ｆ,,13,105,1130033,,,2024-09-10,合併による解散等,6011001072567,令和６年９月１日東京都渋谷区渋谷３－１－９渋谷ＹＡＺＡＷＡビル３Ｆキャスレーホールディングス株式会社（6011001072567）に合併し解散,2015-10-05,1,,,,,キャスレーホールディングス,0
26,1010403021070,登記記録の閉鎖等,0,2024-09-13,2024-08-23,合同会社峯,,合同会社,東京都,港区,赤坂２丁目１３番１８号コリンズ３３ビル４階Ｊ室,,13,103,1070052,,,2024-08-23,清算の結了等,,,2019-07-11,1,,,,,ミネ,0
35,1010703001870,登記記録の閉鎖等,0,2024-09-13,2024-09-11,株式会社クラフトジャパン,,株式会社,埼玉県,さいたま市南区,別所５丁目１５番２号,,11,108,3360021,,,2024-09-11,清算の結了等,,,2015-10-05,1,,,,,クラフトジャパン,0
56,1012302008537,登記記録の閉鎖等,0,2024-09-13,2024-09-06,有限会社ＭＤＡ,,有限会社,東京都,町田市,本町田３１１１番地５,,13,209,1940032,,,2024-09-06,清算の結了等,,,2015-10-05,1,,,,,エムディーエー,0
60,1012802003120,登記記録の閉鎖等,0,2024-09-13,2024-09-06,有限会社三恵塗装,,有限会社,東京都,昭島市,美堀町２丁目９番３７号,,13,207,1960001,,,2024-09-06,清算の結了等,,,2015-10-05,1,,,,,サンケイトソウ,0
64,1020001053580,登記記録の閉鎖等,0,2024-09-13,2024-09-02,株式会社オープンハウジング,,株式会社,神奈川県,横浜市保土ケ谷区,和田１丁目７番２９号,,14,106,2400065,,,2024-09-02,清算の結了等,,,2015-10-05,1,,,,,オープンハウジング,0
65,1020001068653,登記記録の閉鎖等,0,2024-09-13,2024-08-30,株式会社ユーエイ設計,,株式会社,神奈川県,川崎市宮前区,鷺沼１丁目２２番地３,,14,136,2160004,,,2024-08-30,清算の結了等,,,2015-10-05,1,,,,,ユーエイセッケイ,0
69,1020001113293,登記記録の閉鎖等,0,2024-09-13,2024-09-02,株式会社Ｒ＆Ｔ,,株式会社,神奈川県,横浜市青葉区,あざみ野３丁目２６番地５８,,14,117,2250011,,,2024-09-02,清算の結了等,,,2015-10-22,1,,,,,アールアンドティー,0
76,1021001071036,登記記録の閉鎖等,0,2024-09-13,2024-08-16,Ｍａｘｗｅｌｌ　Ｅｄｕｃａｔｉｏｎ　Ｇｒｏｕｐ株式会社,,株式会社,神奈川県,横浜市中区,桜木町１丁目１－７ヒューリックみなとみらい１０階,,14,104,2310062,,,2024-08-16,合併による解散等,4040001128163,令和６年７月１７日千葉県松戸市東平賀３７０－１リベール北小金フオレスタ４０７号ポテンシャルプラス株式会社（4040001128163）に合併し解散,2020-10-12,1,,,,,マックスウェルエデュケーショングループ,0
92,1040001002783,登記記録の閉鎖等,0,2024-09-13,2024-09-06,株式会社サニーオフィス,,株式会社,千葉県,千葉市花見川区,花見川３番２６棟１０１号,,12,102,2620046,,,2024-09-06,清算の結了等,,,2015-10-05,1,,,,,サニーオフィス,0
93,1040001041476,登記記録の閉鎖等,0,2024-09-13,2024-09-09,株式会社らぽーる,,株式会社,東京都,練馬区,中村南３丁目２６－７－２０３,,13,120,1760025,,,2024-09-09,清算の結了等,,,2015-10-05,1,,,,,ラポール,0
94,1040001045064,登記記録の閉鎖等,0,2024-09-13,2024-09-05,株式会社アラ,,株式会社,千葉県,富里市,日吉台１丁目６番地１,,12,233,2860201,,,2024-09-05,清算の結了等,,,2015-10-05,1,,,,,アラ,0
95,1040001054882,登記記録の閉鎖等,0,2024-09-13,2024-09-06,株式会社ＴＯＫＹＯ　ＣＡＰＩＴＡＬ,,株式会社,千葉県,市原市,姉崎７００番地９,,12,219,2990111,,,2024-09-06,合併による解散等,6040001052139,令和６年９月６日千葉県君津市俵田１６３５番地ひらいホールディングス株式会社（6040001052139）に合併し解散,2015-10-05,1,,,,,トウキョウキャピタル,0
111,1080403000092,登記記録の閉鎖等,0,2024-09-13,2024-09-06,合資会社加藤商会,,合資会社,静岡県,浜松市中央区,尾張町１２５番地の１３,,22,138,4300949,,,2024-09-06,清算の結了等,,,2015-10-05,1,,,,,カトウショウカイ,0
112,1100005007046,登記記録の閉鎖等,0,2024-09-13,2024-08-28,特定非営利活動法人グラウンドアートギャラリー深志,,その他の設立登記法人,長野県,松本市,村井町西１丁目２－７３,,20,202,3990037,,,2024-08-28,清算の結了等,,,2015-10-05,1,,,,,グラウンドアートギャラリーフカシ,0
118,1120001213166,登記記録の閉鎖等,0,2024-09-13,2024-09-06,株式会社ＳＴＹＬＵＸ,,株式会社,千葉県,千葉市若葉区,若松町２０６０－１－５０８,,12,104,2640021,,,2024-09-06,清算の結了等,,,2018-05-11,1,,,,,スタイラックス,0
123,1120002013375,登記記録の閉鎖等,0,2024-09-13,2024-09-10,有限会社虎の子ホーム,,有限会社,大阪府,大阪市天王寺区,六万体町４番１９号,,27,109,5430074,,,2024-09-10,清算の結了等,,,2015-10-05,1,,,,,,0
138,1130002008003,登記記録の閉鎖等,0,2024-09-13,2024-09-09,有限会社宮井建築設計事務所,,有限会社,京都府,京都市下京区,大宮通四条下る四条大宮町２１番地新三虎ビル４Ｆ,,26,106,6008389,,,2024-09-09,清算の結了等,,,2015-10-05,1,,,,,ミヤイケンチクセッケイジムショ,0
142,1160001009420,登記記録の閉鎖等,0,2024-09-13,2024-09-06,株式会社ティ・エヌ・ケーフーズカンパニー,,株式会社,滋賀県,愛知郡愛荘町,愛知川１９０番地１,,25,425,5291331,,,2024-09-06,合併による解散等,5160001009094,令和６年９月６日滋賀県彦根市幸町７４番地１ドリームフーズ株式会社（5160001009094）に合併し解散,2015-10-05,1,,,,,ティエヌケーフーズカンパニー,0
144,1160002010360,登記記録の閉鎖等,0,2024-09-13,2024-09-11,旭縫製有限会社,,有限会社,滋賀県,近江八幡市,上田町１０５８番地の３,,25,204,5230015,,,2024-09-11,清算の結了等,,,2015-10-05,1,,,,,アサヒホウセイ,0
149,1180001135116,登記記録の閉鎖等,0,2024-09-13,2024-09-04,株式会社きぐね,,株式会社,愛知県,半田市,清水北町４５番２,,23,205,4750866,,,2024-09-04,清算の結了等,,,2019-01-15,1,,,,,キグネ,0
151,1180005016865,登記記録の閉鎖等,0,2024-09-13,2024-09-10,一般社団法人化学物質安全性評価研究推進機構,,その他の設立登記法人,愛知県,名古屋市中川区,荒子１丁目１３４番地,,23,110,4540869,,,2024-09-10,清算の結了等,,,2016-07-20,1,,,,,カガクブッシツアンゼンセイヒョウカケンキュウスイシンキコウ,0
166,1230005003263,登記記録の閉鎖等,0,2024-09-13,2024-09-11,慶哉寺,,その他の設立登記法人,富山県,中新川郡立山町,利田１３８０番地,,16,323,9300275,,,2024-09-11,清算の結了等,,,2015-10-05,1,,,,,ケイサイジ,0
173,1260002014789,登記記録の閉鎖等,0,2024-09-13,2024-09-10,有限会社オフィス・アユナ,,有限会社,岡山県,岡山市北区,西長瀬１２２２番地３,,33,101,7000965,,,2024-09-10,清算の結了等,,,2015-10-05,1,,,,,オフィスアユナ,0
195,1350003003906,登記記録の閉鎖等,0,2024-09-13,2024-09-09,合同会社作物ライフ,,合同会社,宮崎県,都城市,今町７７３７番地４,,45,202,8850064,,,2024-09-09,清算の結了等,,,2021-08-10,1,,,,,サクモツライフ,0
205,1380001000274,登記記録の閉鎖等,0,2024-09-13,2024-09-03,株式会社太田建築設計事務所,,株式会社,福島県,福島市,丸子字富塚３０番地の７,,07,201,9600111,,,2024-09-03,清算の結了等,,,2015-10-05,1,,,,,オオタケンチクセッケイジムショ,0
209,1400001013281,登記記録の閉鎖等,0,2024-09-13,2024-09-11,株式会社三和,,株式会社,北海道,北見市,美山町南１丁目１番地１７,,01,208,0900068,,,2024-09-11,清算の結了等,,,2016-07-13,1,,,,,サンワ,0
214,1430001073265,登記記録の閉鎖等,0,2024-09-13,2024-09-09,株式会社ボンゲッチュグループ,,株式会社,北海道,苫小牧市,新中野町１丁目６番２０－４０３号,,01,213,0530006,,,2024-09-09,清算の結了等,,,2017-02-08,1,,,,,ボンゲッチュグループ,0
216,1430005003961,登記記録の閉鎖等,0,2024-09-13,2024-09-09,税理士法人さっぽろ税務会計,,その他の設立登記法人,北海道,札幌市中央区,南三条西２２丁目１番２７号,,01,101,0640803,,,2024-09-09,清算の結了等,,,2015-10-05,1,,,,,サッポロゼイムカイケイ,0
224,1500005006288,登記記録の閉鎖等,0,2024-09-13,2024-08-19,天理教北宇和分教会,,その他の設立登記法人,愛媛県,宇和島市,和霊元町２丁目２番１７号,,38,203,7980015,,,2024-08-19,合併による解散等,6490005002383,令和６年７月１７日高知県四万十市中村上小姓町１５７８番地イ天理教幡多分教会（6490005002383）に合併し解散,2015-10-05,1,,,,,,0
227,2010001053275,登記記録の閉鎖等,0,2024-09-13,2024-09-10,デルタエンジニアリング株式会社,,株式会社,東京都,中央区,日本橋蛎殻町１丁目１０番１号,,13,102,1030014,,,2024-09-10,合併による解散等,5010001053248,令和６年８月１日千葉県千葉市美浜区中瀬一丁目３番地日綜産業株式会社（5010001053248）に合併し解散,2015-10-05,1,,,,,デルタエンジニアリング,0
232,2010001160914,登記記録の閉鎖等,0,2024-09-13,2024-09-10,株式会社物流サービス,,株式会社,東京都,中央区,日本橋蛎殻町１丁目１０番１号,,13,102,1030014,,,2024-09-10,合併による解散等,5010001053248,令和６年８月１日千葉県千葉市美浜区中瀬一丁目３番地日綜産業株式会社（5010001053248）に合併し解散,2015-10-05,1,,,,,ブツリュウサービス,0
288,2012302007397,登記記録の閉鎖等,0,2024-09-13,2024-09-09,有限会社ヴィジョンクリエイト,,有限会社,東京都,町田市,金森４丁目１８番１３号,,13,209,1940012,,,2024-09-09,清算の結了等,,,2015-10-05,1,,,,,,0
290,2012701013962,登記記録の閉鎖等,0,2024-09-13,2024-09-06,株式会社スズプロ,,株式会社,東京都,清瀬市,旭が丘６丁目９４１番地４６,,13,221,2040002,,,2024-09-06,清算の結了等,,,2016-10-17,1,,,,,スズプロ,0
301,2020002104134,登記記録の閉鎖等,0,2024-09-13,2024-09-02,有限会社デヴァイス,,有限会社,神奈川県,横浜市中区,根岸旭台３７番地１Ｓ－３０９号,,14,104,2310854,,,2024-09-02,清算の結了等,,,2015-10-05,1,,,,,デヴァイス,0
302,2021001039172,登記記録の閉鎖等,0,2024-09-13,2024-09-12,株式会社ハッピーレインボー,,株式会社,神奈川県,平塚市,御殿１丁目１４番３９号,,14,203,2540061,,,2024-09-12,清算の結了等,,,2015-10-05,1,,,,,ハッピーレインボー,0
308,2030001006330,登記記録の閉鎖等,0,2024-09-13,2024-09-06,株式会社ニーズ,,株式会社,埼玉県,さいたま市桜区,西堀２丁目１１番１－２０２号,,11,106,3380832,,,2024-09-06,清算の結了等,,,2015-10-05,1,,,,,ニーズ,0
311,2030001088757,登記記録の閉鎖等,0,2024-09-13,2024-09-09,株式会社生産方式研究所,,株式会社,埼玉県,深谷市,宿根８６６番地１,,11,218,3660810,,,2024-09-09,清算の結了等,,,2015-10-05,1,,,,,セイサンホウシキケンキュウショ,0
344,2100001015241,登記記録の閉鎖等,0,2024-09-13,2024-09-09,株式会社とをしや薬局,,株式会社,長野県,安曇野市,穂高有明１００２２番地,,20,220,3998301,,,2024-09-09,合併による解散等,3030001002411,令和６年９月１日東京都千代田区外神田二丁目２番１５号ウエルシア薬局株式会社（3030001002411）に合併し解散,2015-10-05,1,,,,,トヲシヤヤッキョク,0
346,2100002017674,登記記録の閉鎖等,0,2024-09-13,2024-09-04,有限会社ソウコン倶楽部,,有限会社,長野県,下高井郡木島平村,大字上木島２３７２番地２,,20,562,3892303,,,2024-09-04,清算の結了等,,,2015-10-05,1,,,,,ソウコンクラブ,0
348,2110001035271,登記記録の閉鎖等,0,2024-09-13,2024-09-05,株式会社タムラ不動産販売,,株式会社,新潟県,上越市,大字四ケ所１７０番地２９,,15,222,9430155,,,2024-09-05,清算の結了等,,,2020-11-06,1,,,,,タムラフドウサンハンバイ,0
378,2180001003065,登記記録の閉鎖等,0,2024-09-13,2024-09-03,名東ビル株式会社,,株式会社,愛知県,名古屋市名東区,神丘町１丁目４５番地,,23,115,4650083,,,2024-09-03,清算の結了等,,,2015-10-05,1,,,,,メイトウビル,0
394,2240001004131,登記記録の閉鎖等,0,2024-09-13,2024-09-05,佐々木自動車株式会社,,株式会社,広島県,広島市東区,東蟹屋町８番１１号,,34,102,7320055,,,2024-09-05,清算の結了等,,,2015-10-05,1,,,,,ササキジドウシャ,0
395,2240001027421,登記記録の閉鎖等,0,2024-09-13,2024-09-05,株式会社シャインフォレスト,,株式会社,広島県,呉市,広古新開６丁目１７番１１号,,34,202,7370112,,,2024-09-05,清算の結了等,,,2015-10-05,1,,,,,シャインフォレスト,0
404,2260005000744,登記記録の閉鎖等,0,2024-09-13,2024-08-01,日蓮宗三蟠教会,00003978,その他の設立登記法人,岡山県,岡山市中区,藤崎６３番地,,33,102,7028006,,,2024-08-01,合併による解散等,7260005000863,令和６年８月１日岡山市北区三門東町７番１号妙林寺（7260005000863）に合併し解散,2015-10-05,1,,,,,ニチレンシュウサンバンキョウカイ,0
413,2290805001113,登記記録の閉鎖等,0,2024-09-13,2024-08-06,天理教若葉分教会,,その他の設立登記法人,福岡県,北九州市戸畑区,元宮町１０番６号,,40,105,8040072,,,2024-08-06,合併による解散等,7290805005290,令和６年８月６日北九州市若松区修多羅二丁目６番３号天理教若松分教会（7290805005290）に合併し解散,2015-10-05,1,,,,,テンリキョウワカバブンキョウカイ,0
422,2360003001429,登記記録の閉鎖等,0,2024-09-13,2024-09-10,合資会社よしひろ,,合資会社,沖縄県,那覇市,壺屋１丁目１３番１５号,,47,201,9020065,,,2024-09-10,清算の結了等,,,2015-10-05,1,,,,,,0
425,2370405000580,登記記録の閉鎖等,0,2024-09-13,2024-09-03,登米市振興協同組合,,その他の設立登記法人,宮城県,登米市,迫町佐沼字上舟丁１２番地の６,,04,212,9870511,,,2024-09-03,清算の結了等,,,2015-10-05,1,,,,,トメシシンコウ,0
433,2410002001606,登記記録の閉鎖等,0,2024-09-13,2024-09-06,有限会社サンエス商会,,有限会社,秋田県,秋田市,飯島道東２丁目１４番２０号,,05,201,0110917,,,2024-09-06,清算の結了等,,,2015-10-05,1,,,,,サンエスショウカイ,0
437,2410003001869,登記記録の閉鎖等,0,2024-09-13,2024-09-09,合名会社三國統也商店,,合名会社,秋田県,能代市,二ツ井町字比井野９９番地,,05,202,0183155,,,2024-09-09,清算の結了等,,,2015-10-05,1,,,,,ミクニトウヤショウテン,0
448,2490005002379,登記記録の閉鎖等,0,2024-09-13,2024-07-17,天理教下田港分教会,,その他の設立登記法人,高知県,四万十市,下田４３１０番地１３３,,39,210,7870155,,,2024-07-17,合併による解散等,6490005002383,令和６年７月１７日高知県四万十市中村上小姓町１５７８番地イ天理教幡多分教会（6490005002383）に合併し解散,2015-10-05,1,,,,,,0
449,2500005003210,登記記録の閉鎖等,0,2024-09-13,2024-08-19,天理教土居村分教会,,その他の設立登記法人,愛媛県,西予市,城川町土居３１８番地,,38,214,7971701,,,2024-08-19,合併による解散等,6490005002383,令和６年７月１７日高知県四万十市中村上小姓町１５７８番地イ天理教幡多分教会（6490005002383）に合併し解散,2015-10-05,1,,,,,,0
452,3010001127722,登記記録の閉鎖等,0,2024-09-13,2024-09-10,株式会社エンゼル,,株式会社,東京都,千代田区,有楽町２丁目１０番１号,,13,101,1000006,,,2024-09-10,合併による解散等,1010401010471,令和６年９月１日静岡県熱海市田原本町９番１号株式会社エンゼルフォレストリゾート（1010401010471）に合併し解散,2015-10-05,1,,,,,エンゼル,0
453,3010001150930,登記記録の閉鎖等,0,2024-09-13,2024-08-23,株式会社ＲＥワーク,,株式会社,東京都,港区,新橋２丁目１３番８号,,13,103,1050004,,,2024-08-23,清算の結了等,,,2015-10-05,1,,,,,リワーク,0
472,3010403018321,登記記録の閉鎖等,0,2024-09-13,2024-09-06,合同会社Ｍｉスタイル,,合同会社,東京都,品川区,北品川２丁目８番１１－２０１号,,13,109,1400001,,,2024-09-06,清算の結了等,,,2018-03-20,1,,,,,エムアイスタイル,0
474,3010405020531,登記記録の閉鎖等,0,2024-09-13,2024-09-09,ＩＫＥＵＣＨＩ　ＧＡＴＥ特定目的会社,,その他の設立登記法人,東京都,中央区,日本橋１丁目４番１号,,13,102,1030027,,,2024-09-09,清算の結了等,,,2021-12-20,1,,,,,イケウチゲート,0
476,3010701005822,登記記録の閉鎖等,0,2024-09-13,2024-09-06,タクストンコンサルティング株式会社,,株式会社,東京都,品川区,荏原４丁目４番１２－１２０３号,,13,109,1420063,,,2024-09-06,清算の結了等,,,2015-10-05,1,,,,,タクストンコンサルティング,0
480,3010902016899,登記記録の閉鎖等,0,2024-09-13,2024-09-10,有限会社渡辺薬局,,有限会社,東京都,世田谷区,上馬１丁目１７番１０号,,13,112,1540011,,,2024-09-10,清算の結了等,,,2015-10-05,1,,,,,ワタナベヤッキョク,0
490,3011101009802,登記記録の閉鎖等,0,2024-09-13,2024-09-02,新宿興産株式会社,,株式会社,東京都,新宿区,歌舞伎町２丁目４５番１６号,,13,104,1600021,,,2024-09-02,清算の結了等,,,2015-10-05,1,,,,,シンジュクコウサン,0
502,3011403003321,登記記録の閉鎖等,0,2024-09-13,2024-09-09,合同会社ＧＡＩＮ,,合同会社,東京都,板橋区,板橋１丁目１６番地３号ＪＲ板橋駅前ビルＢ１,,13,119,1730004,,,2024-09-09,清算の結了等,,,2021-05-06,1,,,,,ゲイン,0
513,3012402000722,登記記録の閉鎖等,0,2024-09-13,2024-09-10,有限会社角倉工務店,,有限会社,東京都,府中市,本町４丁目１８番地の１３,,13,206,1830027,,,2024-09-10,清算の結了等,,,2015-10-05,1,,,,,カドクラコウムテン,0
515,3020001004078,登記記録の閉鎖等,0,2024-09-13,2024-09-02,株式会社創工社,,株式会社,神奈川県,横浜市港南区,日野２丁目１２番３４号,,14,111,2340051,,,2024-09-02,清算の結了等,,,2015-10-05,1,,,,,ソウコウシャ,0
570,3120002071677,登記記録の閉鎖等,0,2024-09-13,2024-09-11,有限会社大京電工,,有限会社,大阪府,交野市,私部５丁目２４番８号,,27,230,5760052,,,2024-09-11,清算の結了等,,,2015-10-05,1,,,,,ダイキョウデンコウ,0
596,3150002007133,登記記録の閉鎖等,0,2024-09-13,2024-09-12,大徳運輸有限会社,00043517,有限会社,奈良県,宇陀市,大宇陀春日３３７番地,,29,212,6332114,,,2024-09-12,清算の結了等,,,2015-10-05,1,,,,,ダイトクウンユ,0
614,3180302013745,登記記録の閉鎖等,0,2024-09-13,2024-09-09,有限会社庭匠,,有限会社,愛知県,豊川市,金沢町天王１５番地２,,23,207,4411212,,,2024-09-09,清算の結了等,,,2015-10-05,1,,,,,ニワショウ,0
615,3180303001286,登記記録の閉鎖等,0,2024-09-13,2024-09-09,合資会社牧野商店,,合資会社,愛知県,豊橋市,前田中町１番地の２６,,23,201,4400872,,,2024-09-09,清算の結了等,,,2015-10-05,1,,,,,マキノショウテン,0
618,3190001007667,登記記録の閉鎖等,0,2024-09-13,2024-09-10,株式会社藤松屋,,株式会社,三重県,伊勢市,宮後２丁目９番５号,,24,203,5160072,,,2024-09-10,合併による解散等,2190002009481,令和６年９月４日三重県伊勢市小俣町湯田９６４番地１株式会社バーナル（2190002009481）に合併し解散,2015-10-05,1,,,,,フジマツヤ,0
629,3240001044969,登記記録の閉鎖等,0,2024-09-13,2024-09-05,株式会社川西測量設計事務所,,株式会社,広島県,福山市,光南町１丁目１番２８号,,34,207,7200814,,,2024-09-05,清算の結了等,,,2015-10-05,1,,,,,カワニシソクリョウセッケイジムショ,0
637,3260002027203,登記記録の閉鎖等,0,2024-09-13,2024-09-06,有限会社こうえい,,有限会社,岡山県,新見市,新見７３９番地の７,,33,210,7180011,,,2024-09-06,清算の結了等,,,2015-10-05,1,,,,,コウエイ,0
638,3260002027847,登記記録の閉鎖等,0,2024-09-13,2024-08-29,有限会社エフケイシー,,有限会社,岡山県,津山市,勝部１０６６番地の３,,33,203,7080804,,,2024-08-29,清算の結了等,,,2015-10-05,1,,,,,エフケイシー,0
642,3290001087451,登記記録の閉鎖等,0,2024-09-13,2024-08-08,株式会社２５訪問看護ステーション,,株式会社,福岡県,福岡市南区,曰佐１丁目２５番３９号,,40,134,8111313,,,2024-08-08,清算の結了等,,,2019-12-17,1,,,,,ニコホウモンカンゴステーション,0
645,3290001102573,登記記録の閉鎖等,0,2024-09-13,2024-08-13,株式会社ハイエスト,,株式会社,福岡県,福岡市博多区,祇園町８－１２ロータリー大和６２８,,40,132,8120038,,,2024-08-13,清算の結了等,,,2023-08-08,1,,,,,ハイエスト,0
647,3290003001550,登記記録の閉鎖等,0,2024-09-13,2024-08-07,合同会社マイデスク,,合同会社,福岡県,福岡市早良区,室見３丁目９番７号ラベンダー室見Ａ棟,,40,137,8140015,,,2024-08-07,清算の結了等,,,2015-10-05,1,,,,,マイデスク,0
656,3330003005877,登記記録の閉鎖等,0,2024-09-13,2024-09-04,合同会社ＥＭＩコンサルタント,,合同会社,熊本県,八代市,南平和町２５２番地２,,43,202,8695165,,,2024-09-04,清算の結了等,,,2015-10-05,1,,,,,イーエムアイコンサルタント,0
657,3330003008764,登記記録の閉鎖等,0,2024-09-13,2024-09-04,合同会社いいね,,合同会社,熊本県,山鹿市,鹿本町御宇田６９０番地４クレスティーク御宇田Ｂ棟２０２号,,43,208,8610304,,,2024-09-04,清算の結了等,,,2021-02-09,1,,,,,イイネ,0
678,3380001024131,登記記録の閉鎖等,0,2024-09-13,2024-08-19,株式会社一印工業,,株式会社,福島県,相馬市,黒木字北台１２５番地の８,,07,209,9760052,,,2024-08-19,清算の結了等,,,2015-10-05,1,,,,,イチジルシコウギョウ,0
680,3380002021598,登記記録の閉鎖等,0,2024-09-13,2024-09-05,有限会社ブラスト・ホースステーブル,,有限会社,千葉県,成田市,大栄十余三２４５番地２６１,,12,211,2870243,,,2024-09-05,清算の結了等,,,2015-10-05,1,,,,,ブラストホースステーブル,0
692,3450001007194,登記記録の閉鎖等,0,2024-09-13,2024-09-09,コアルシード株式会社,,株式会社,北海道,旭川市,緑が丘東一条３丁目１番６号旭川リサーチセンター内,,01,204,0788801,,,2024-09-09,清算の結了等,,,2015-10-05,1,,,,,コアルシード,0
693,3460001003119,登記記録の閉鎖等,0,2024-09-13,2024-09-11,鈴木木材工業株式会社,,株式会社,北海道,厚岸郡浜中町,霧多布西一条２丁目８５番地,,01,663,0881551,,,2024-09-11,清算の結了等,,,2015-10-05,1,,,,,スズキモクザイコウギョウ,0
699,3500005003184,登記記録の閉鎖等,0,2024-09-13,2024-08-19,天理教惣河分教会,,その他の設立登記法人,愛媛県,西予市,野村町惣川１３５８番地１,,38,214,7971432,,,2024-08-19,合併による解散等,6490005002383,令和６年７月１７日高知県四万十市中村上小姓町１５７８番地イ天理教幡多分教会（6490005002383）に合併し解散,2015-10-05,1,,,,,,0
700,4010001014358,登記記録の閉鎖等,0,2024-09-13,2024-09-10,株式会社銀座花菱,,株式会社,東京都,千代田区,平河町２丁目８番９号,,13,101,1020093,,,2024-09-10,合併による解散等,7120001007570,令和６年９月１日大阪市都島区都島本通三丁目１３番１号ＨＢＳホールディングス株式会社（7120001007570）に合併し解散,2015-10-05,1,,,,,ギンザハナビシ,0
702,4010001045849,登記記録の閉鎖等,0,2024-09-13,2024-09-02,新日本通商株式会社,,株式会社,東京都,中央区,日本橋人形町３丁目７番３号,,13,102,1030013,,,2024-09-02,清算の結了等,,,2015-10-05,1,,,,,,0
705,4010001054189,登記記録の閉鎖等,0,2024-09-13,2024-09-10,株式会社花菱,,株式会社,東京都,中央区,銀座６丁目６番１９号,,13,102,1040061,,,2024-09-10,合併による解散等,7120001007570,令和６年９月１日大阪市都島区都島本通三丁目１３番１号ＨＢＳホールディングス株式会社（7120001007570）に合併し解散,2015-10-05,1,,,,,,0
709,4010001098533,登記記録の閉鎖等,0,2024-09-13,2024-08-29,株式会社ばんせい総合研究所,,株式会社,東京都,中央区,新川１丁目２１番２号,,13,102,1040033,,,2024-08-29,合併による解散等,8010001129499,令和６年４月１５日東京都中央区新川一丁目２１番２号茅場町タワーばんせい保険コミュニティ株式会社（8010001129499）に合併し解散,2015-10-05,1,,,,,バンセイソウゴウケンキュウジョ,0
714,4010001157685,登記記録の閉鎖等,0,2024-09-13,2024-09-03,株式会社ＭＣＡＰ　ＪＡＰＡＮ０２,,株式会社,東京都,港区,六本木１丁目６番１号泉ガーデンタワーＫＰＭＧ税理士法人内,,13,103,1060032,,,2024-09-03,清算の結了等,,,2015-10-05,1,,,,,エムシーエーピージャパンゼロツー,0
732,4010401112496,登記記録の閉鎖等,0,2024-09-13,2024-08-23,Ａｄａｒａ　Ｊａｐａｎ株式会社,,株式会社,東京都,港区,六本木７丁目３番８号,,13,103,1060032,,,2024-08-23,清算の結了等,,,2015-10-05,1,,,,,アダラジャパン,0
738,4010403020565,登記記録の閉鎖等,0,2024-09-13,2024-08-23,ＭＩＨ合同会社,,合同会社,東京都,港区,北青山３丁目５番１４号６階,,13,103,1070061,,,2024-08-23,清算の結了等,,,2019-04-18,1,,,,,エムアイエイチ,0
739,4010601058110,登記記録の閉鎖等,0,2024-09-13,2024-09-06,朗希株式会社,,株式会社,東京都,台東区,北上野２丁目２５番９号－４０４号室,,13,106,1100014,,,2024-09-06,清算の結了等,,,2020-10-08,1,,,,,ロウキ,0
773,4011801016543,登記記録の閉鎖等,0,2024-09-13,2024-09-10,株式会社ＮＫＯ,,株式会社,東京都,足立区,西竹の塚１丁目１８番９号,,13,121,1210822,,,2024-09-10,清算の結了等,,,2015-10-05,1,,,,,エヌケイオー,0
781,4012702013869,登記記録の閉鎖等,0,2024-09-13,2024-09-06,有限会社三井一征事務所,,有限会社,東京都,小平市,上水南町３丁目１５番９号,,13,211,1870021,,,2024-09-06,清算の結了等,,,2015-10-05,1,,,,,ミツイイッセイジムショ,0
786,4020001069120,登記記録の閉鎖等,0,2024-09-13,2024-08-30,川崎ホテルサービス株式会社,,株式会社,神奈川県,川崎市中原区,下新城１丁目８番１号,,14,133,2110042,,,2024-08-30,清算の結了等,,,2015-10-05,1,,,,,カワサキホテルサービス,0
797,4021001039187,登記記録の閉鎖等,0,2024-09-13,2024-09-09,ワールドサプライズ株式会社,,株式会社,神奈川県,平塚市,桃浜町３１番２５号,,14,203,2540815,,,2024-09-09,清算の結了等,,,2015-10-05,1,,,,,ワールドサプライズ,0
808,4030001082691,登記記録の閉鎖等,0,2024-09-13,2024-09-09,株式会社こどもの夢,,株式会社,埼玉県,川口市,大字木曽呂９８４番地,,11,203,3330831,,,2024-09-09,清算の結了等,,,2015-10-05,1,,,,,コドモノユメ,0
813,4030002038916,登記記録の閉鎖等,0,2024-09-13,2024-09-06,有限会社佐藤鉄工所,,有限会社,埼玉県,久喜市,菖蒲町小林２２３９番地,,11,232,3460115,,,2024-09-06,清算の結了等,,,2015-10-05,1,,,,,サトウテッコウショ,0
818,4030005016910,登記記録の閉鎖等,0,2024-09-13,2024-09-06,一般社団法人日本墨喋家協会,,その他の設立登記法人,埼玉県,行田市,大字埼玉４２３番地３,,11,206,3610025,,,2024-09-06,清算の結了等,,,2015-10-05,1,,,,,ニホンボクチョウカキョウカイ,0
820,4040001026557,登記記録の閉鎖等,0,2024-09-13,2024-09-06,ジャパンメタル株式会社,,株式会社,千葉県,市川市,南大野２丁目３番Ｂ棟１１０８号,,12,203,2720804,,,2024-09-06,清算の結了等,,,2015-10-05,1,,,,,ジャパンメタル,0
825,4050001041084,登記記録の閉鎖等,0,2024-09-13,2024-09-05,株式会社けやきハウジングひたち,,株式会社,茨城県,日立市,弁天町３丁目９番１号,,08,202,3170072,,,2024-09-05,清算の結了等,,,2016-06-07,1,,,,,ケヤキハウジングヒタチ,0
828,4070001025201,登記記録の閉鎖等,0,2024-09-13,2024-09-11,株式会社Ｆｏｒｃｅ　Ｅｌｅｍｅｎｓ,,株式会社,群馬県,館林市,富士原町９２２番地１７,,10,207,3740041,,,2024-09-11,清算の結了等,,,2015-10-05,1,,,,,フォースエレメンス,0
875,4170002008698,登記記録の閉鎖等,0,2024-09-13,2024-09-09,有限会社紀南薬局,,有限会社,和歌山県,田辺市,湊１５番５号,,30,206,6460031,,,2024-09-09,清算の結了等,,,2015-10-05,1,,,,,キナンヤッキョク,0
896,4210005005440,登記記録の閉鎖等,0,2024-09-13,2024-09-10,医療法人米野耳鼻咽喉科医院,,その他の設立登記法人,福井県,大野市,明倫町６番２０号,,18,205,9120083,,,2024-09-10,清算の結了等,,,2015-10-05,1,,,,,コメノジビインコウカイイン,0
900,4240001019508,登記記録の閉鎖等,0,2024-09-13,2024-09-09,ＫＥＹＴＥＣ株式会社,,株式会社,広島県,広島市中区,広瀬北町９番４－３０４号,,34,101,7300803,,,2024-09-09,清算の結了等,,,2015-10-05,1,,,,,キーテック,0
908,4290001004612,登記記録の閉鎖等,0,2024-09-13,2024-08-09,株式会社信和会,,株式会社,福岡県,福岡市城南区,友丘５丁目１８番１２号,,40,136,8140112,,,2024-08-09,清算の結了等,,,2015-10-05,1,,,,,シンワカイ,0
910,4290001025336,登記記録の閉鎖等,0,2024-09-13,2024-08-09,株式会社システムハウス,,株式会社,福岡県,福岡市博多区,竹丘町２丁目３番９号楓通り筑紫弐番館３階,,40,132,8120878,,,2024-08-09,清算の結了等,,,2015-10-05,1,,,,,システムハウス,0
924,4330002017220,登記記録の閉鎖等,0,2024-09-13,2024-09-06,有限会社西合志運送,,有限会社,熊本県,合志市,野々島５３７９番地４,,43,216,8611103,,,2024-09-06,清算の結了等,,,2015-10-05,1,,,,,ニシゴウシウンソウ,0
932,4360003011038,登記記録の閉鎖等,0,2024-09-13,2024-09-10,合同会社Ｔｈａｎｋ　ｙｏｕ,,合同会社,沖縄県,宜野湾市,真志喜３丁目４番１－２０１号,,47,205,9012224,,,2024-09-10,清算の結了等,,,2021-04-07,1,,,,,テンキュー,0
943,4380002026910,登記記録の閉鎖等,0,2024-09-13,2024-09-03,有限会社アーステック,,有限会社,福島県,いわき市,小名浜岡小名字住ケ谷７番地の８,,07,204,9718151,,,2024-09-03,清算の結了等,,,2015-10-05,1,,,,,アーステック,0
944,4380003000600,登記記録の閉鎖等,0,2024-09-13,2024-09-02,合資会社クレヨンスタジオ,,合資会社,福島県,郡山市,横川町字大谷地１０３－４,,07,203,9630665,,,2024-09-02,清算の結了等,,,2015-10-05,1,,,,,クレヨンスタジオ,0
950,4430002058964,登記記録の閉鎖等,0,2024-09-13,2024-09-09,有限会社鈴木商店,,有限会社,北海道,苫小牧市,啓北町１丁目１４番地１５・１６・２８,,01,213,0530854,,,2024-09-09,清算の結了等,,,2015-10-05,1,,,,,スズキショウテン,0
951,4430003008497,登記記録の閉鎖等,0,2024-09-13,2024-09-09,合同会社パークオオサワ,,合同会社,北海道,札幌市中央区,北十三条西１５丁目６番３１－４０７号,,01,101,0600013,,,2024-09-09,清算の結了等,,,2017-06-19,1,,,,,パークオオサワ,0
954,4430005009493,登記記録の閉鎖等,0,2024-09-13,2024-09-05,日高地方廃タイヤ協同組合,,その他の設立登記法人,北海道,沙流郡日高町,富川西１２丁目６９番地１０４,,01,601,0550007,,,2024-09-05,清算の結了等,,,2015-10-05,1,,,,,ヒダカチホウハイタイヤ,0
957,4490005006782,登記記録の閉鎖等,0,2024-09-13,2024-09-10,一般社団法人ｏｏｋｉ　ｂｅａｃｈ,,その他の設立登記法人,高知県,土佐清水市,大岐２０３０番地３,,39,209,7870301,,,2024-09-10,清算の結了等,,,2021-04-26,1,,,,,オオキビーチ,0
961,5010001120056,登記記録の閉鎖等,0,2024-09-13,2024-09-10,株式会社ライゼフーズ,,株式会社,東京都,新宿区,西早稲田３丁目１７番２１号,,13,104,1690051,,,2024-09-10,合併による解散等,6010001141968,令和６年９月１日東京都中央区入船一丁目３番９号株式会社セレクション（6010001141968）に合併し解散,2015-10-05,1,,,,,ライゼフーズ,0
975,5010401001566,登記記録の閉鎖等,0,2024-09-13,2024-08-23,株式会社厚川,,株式会社,東京都,港区,西新橋１丁目１８番１５号,,13,103,1050003,,,2024-08-23,清算の結了等,,,2015-10-05,1,,,,,アツカワ,0
992,5010701023871,登記記録の閉鎖等,0,2024-09-13,2024-09-02,株式会社時の生産物,,株式会社,東京都,文京区,本郷５丁目２５番１４号,,13,105,1130033,,,2024-09-02,合併による解散等,7013101004696,令和６年９月１日東京都文京区本郷五丁目２５番１４号株式会社いちしんウエルフェア（7013101004696）に合併し解散,2015-10-05,1,,,,,トキノセイサンブツ,0
1008,5011105002702,登記記録の閉鎖等,0,2024-09-13,2024-08-23,社会保険労務士法人ＳＣＳ,,その他の設立登記法人,東京都,港区,虎ノ門２丁目１０番４号オークラプレステージタワー１８階,,13,103,1050001,,,2024-08-23,清算の結了等,,,2015-10-05,1,,,,,エスシーエス,0
1016,5011402009722,登記記録の閉鎖等,0,2024-09-13,2024-09-06,有限会社わんぱくクラブ,,有限会社,東京都,板橋区,板橋４丁目６番１号,,13,119,1730004,,,2024-09-06,清算の結了等,,,2015-10-05,1,,,,,ワンパククラブ,0
1032,5020002099009,登記記録の閉鎖等,0,2024-09-13,2024-09-02,有限会社フアインアートデンタルラボラトリー,,有限会社,神奈川県,川崎市川崎区,浅田１丁目８番１１－１０３号,,14,131,2100847,,,2024-09-02,清算の結了等,,,2015-10-05,1,,,,,フアインアートデンタルラボラトリー,0
1036,5021002067194,登記記録の閉鎖等,0,2024-09-13,2024-09-10,有限会社宮崎鈑金塗装工場,00013922,有限会社,神奈川県,横須賀市,大矢部３丁目１７番１９号,,14,201,2380024,,,2024-09-10,清算の結了等,,,2015-10-05,1,,,,,ミヤザキバンキントソウコウジョウ,0
1037,5021003004031,登記記録の閉鎖等,0,2024-09-13,2024-08-30,合同会社農民連旬神奈川ふるさとネットワーク,,合同会社,神奈川県,川崎市幸区,塚越４丁目３２０番地の４ソフィアガーデンズ川崎２０３,,14,132,2120024,,,2024-08-30,清算の結了等,,,2015-10-05,1,,,,,ノウミンレンシュンカナガワフルサトネットワーク,0
1045,5030001116275,登記記録の閉鎖等,0,2024-09-13,2024-09-06,株式会社ＡＸＩＯＭ,,株式会社,埼玉県,さいたま市南区,白幡５丁目８番７号,,11,108,3360022,,,2024-09-06,清算の結了等,,,2016-09-09,1,,,,,アクシアム,0
1046,5030001123239,登記記録の閉鎖等,0,2024-09-13,2024-09-02,株式会社タクミ,,株式会社,埼玉県,川越市,新宿町２丁目４番地１５,,11,201,3501124,,,2024-09-02,清算の結了等,,,2017-12-01,1,,,,,タクミ,0
1047,5030001132314,登記記録の閉鎖等,0,2024-09-13,2024-09-06,古杢家商店株式会社,,株式会社,埼玉県,草加市,住吉２丁目３番４５号,,11,221,3400014,,,2024-09-06,清算の結了等,,,2019-08-07,1,,,,,コモクヤショウテン,0
1053,5030002017258,登記記録の閉鎖等,0,2024-09-13,2024-09-10,千代間石材工業有限会社,,有限会社,埼玉県,さいたま市北区,奈良町１３６番地５１奈良町団地４－４０４,,11,102,3310822,,,2024-09-10,清算の結了等,,,2015-10-05,1,,,,,チヨマセキザイコウギョウ,0
1062,5040002036793,登記記録の閉鎖等,0,2024-09-13,2024-09-05,有限会社みさお丸,,有限会社,千葉県,市川市,高谷３丁目９番,,12,203,2720013,,,2024-09-05,清算の結了等,,,2015-10-05,1,,,,,ミサオマル,0
1063,5040003022990,登記記録の閉鎖等,0,2024-09-13,2024-09-06,合同会社ＩＫＥ,,合同会社,千葉県,野田市,木間ケ瀬５０５番地,,12,208,2700222,,,2024-09-06,清算の結了等,,,2023-07-24,1,,,,,イケ,0
1070,5050002009807,登記記録の閉鎖等,0,2024-09-13,2024-09-05,有限会社ベアーズ,,有限会社,茨城県,東茨城郡大洗町,磯浜町２０４番地,,08,309,3111301,,,2024-09-05,清算の結了等,,,2015-10-05,1,,,,,ベアーズ,0
1080,5080001004599,登記記録の閉鎖等,0,2024-09-13,2024-09-06,株式会社ブレーン,,株式会社,静岡県,静岡市駿河区,中島６２８番地,,22,102,4228046,,,2024-09-06,清算の結了等,,,2015-10-05,1,,,,,ブレーン,0
1091,5120001040342,登記記録の閉鎖等,0,2024-09-13,2024-09-02,山本機械産業株式会社,,株式会社,神奈川県,横浜市磯子区,汐見台３丁目２番地４－１０３号,,14,107,2350022,,,2024-09-02,清算の結了等,,,2015-10-05,1,,,,,ヤマモトキカイサンギョウ,0
1112,5122001002495,登記記録の閉鎖等,0,2024-09-13,2024-09-06,光洋特殊異型線株式会社,,株式会社,大阪府,東大阪市,西石切町６丁目４番３３号,,27,227,5798013,,,2024-09-06,清算の結了等,,,2015-10-05,1,,,,,コウヨウトクシュイケイセン,0
1115,5130001059968,登記記録の閉鎖等,0,2024-09-13,2024-09-09,株式会社ＢＥＺＩ,,株式会社,京都府,亀岡市,大井町土田１丁目８番３７号,,26,206,6210011,,,2024-09-09,清算の結了等,,,2017-06-07,1,,,,,ベジ,0
1123,5140003006455,登記記録の閉鎖等,0,2024-09-13,2024-09-09,Ｉ＆Ｙｕ合同会社,,合同会社,兵庫県,朝来市,和田山町東谷２１３番地２３,,28,225,6695202,,,2024-09-09,合併による解散等,8140002033092,令和６年９月１日東京都品川区北品川五丁目３番１号パークシティ大崎ザタワー２９Ｆ１３号株式会社ファブール（8140002033092）に合併し解散,2015-10-05,1,,,,,アイアンドユウ,0
1126,5150001026223,登記記録の閉鎖等,0,2024-09-13,2024-09-10,ＫＴフィットネス・アンド・パートナーズ株式会社,,株式会社,奈良県,奈良市,西大寺南町４－１１－７０２,,29,201,6310824,,,2024-09-10,清算の結了等,,,2023-03-13,1,,,,,ケーティーフィットネスアンドパートナーズ,0
1133,5180001096890,登記記録の閉鎖等,0,2024-09-13,2024-09-04,株式会社三星電機製作所,,株式会社,愛知県,海部郡蟹江町,大字須成字西須成前１８２６番地,,23,425,4970031,,,2024-09-04,清算の結了等,,,2015-10-05,1,,,,,サンセイデンキセイサクショ,0
1134,5180001102541,登記記録の閉鎖等,0,2024-09-13,2024-09-02,株式会社クローバーガーデン,,株式会社,東京都,新宿区,西新宿６丁目６－３新宿国際ビルディング新館４Ｆ,,13,104,1600023,,,2024-09-02,合併による解散等,4011101098142,令和６年９月１日東京都新宿区西新宿六丁目６番３号新宿国際ビルディング新館４Ｆ株式会社リブイン（4011101098142）に合併し解散,2015-10-05,1,,,,,クローバーガーデン,0
1139,5180002002369,登記記録の閉鎖等,0,2024-09-13,2024-09-04,有限会社シバタ,,有限会社,愛知県,名古屋市名東区,名東本通５丁目１３番地,,23,115,4650087,,,2024-09-04,清算の結了等,,,2015-10-05,1,,,,,シバタ,0
1140,5180002011279,登記記録の閉鎖等,0,2024-09-13,2024-09-04,有限会社桑原設備,,有限会社,愛知県,春日井市,中切町２丁目８の５,,23,206,4860925,,,2024-09-04,清算の結了等,,,2015-10-05,1,,,,,クワハラセツビ,0
1144,5180301011987,登記記録の閉鎖等,0,2024-09-13,2024-09-05,株式会社イトヒロ,,株式会社,愛知県,豊川市,牛久保駅通３丁目１４番地１,,23,207,4420886,,,2024-09-05,清算の結了等,,,2015-10-05,1,,,,,イトヒロ,0
1145,5180302010880,登記記録の閉鎖等,0,2024-09-13,2024-09-05,有限会社丸ア・カワイ建設,,有限会社,愛知県,田原市,野田町市ノ西屋敷１５番地,,23,231,4413432,,,2024-09-05,清算の結了等,,,2015-10-05,1,,,,,マルアカワイケンセツ,0
1158,5240002043786,登記記録の閉鎖等,0,2024-09-13,2024-09-04,有限会社ローヤルエンタープライズ福山,,有限会社,広島県,福山市,南町２番４号,,34,207,7200806,,,2024-09-04,清算の結了等,,,2015-10-05,1,,,,,ローヤルエンタープライズフクヤマ,0
1160,5250002002675,登記記録の閉鎖等,0,2024-09-13,2024-09-06,有限会社ナガイ,,有限会社,山口県,山口市,阿知須４６２番地の１,,35,203,7541277,,,2024-09-06,清算の結了等,,,2015-10-05,1,,,,,ナガイ,0
1163,5260005001731,登記記録の閉鎖等,0,2024-09-13,2024-08-15,医療法人竜操整形,,その他の設立登記法人,岡山県,岡山市中区,高屋１７番地の２,,33,102,7038233,,,2024-08-15,合併による解散等,2290005001525,令和６年７月１日福岡市博多区店屋町６番１８号医療法人相生会（2290005001525）に合併し解散,2015-10-05,1,,,,,リュウソウセイケイ,0
1164,5270002004711,登記記録の閉鎖等,0,2024-09-13,2024-09-12,有限会社日ノ出サービス,,有限会社,鳥取県,八頭郡智頭町,大字山根５２３番地５,,31,328,6891431,,,2024-09-12,清算の結了等,,,2015-10-05,1,,,,,ヒノデサービス,0
1186,5340005008702,登記記録の閉鎖等,0,2024-09-13,2024-08-13,特定非営利活動法人つながる鹿児島,,その他の設立登記法人,鹿児島県,鹿児島市,下荒田４丁目３４番１１号コスモハイツ１階,,46,201,8900056,,,2024-08-13,合併による解散等,8340005002297,令和６年８月１３日鹿児島市下荒田四丁目３０番５号プレジデント下荒田４０３号特定非営利活動法人やどかりプラス（8340005002297）に合併し解散,2017-03-15,1,,,,,ツナガルカゴシマ,0
1197,5410002009191,登記記録の閉鎖等,0,2024-09-13,2024-09-06,有限会社フルーク,,有限会社,秋田県,北秋田市,今泉字根立場３８番地１,,05,213,0183343,,,2024-09-06,清算の結了等,,,2015-10-05,1,,,,,フルーク,0
1198,5430001079481,登記記録の閉鎖等,0,2024-09-13,2024-09-12,株式会社アンティークセラーズ,,株式会社,北海道,札幌市中央区,南二条西９丁目１番地２７リシュレーヴ５０５号,,01,101,0600062,,,2024-09-12,清算の結了等,,,2019-07-23,1,,,,,アンティークセラーズ,0
1206,5490005001881,登記記録の閉鎖等,0,2024-09-13,2024-09-11,特定非営利活動法人うげうげ王国,,その他の設立登記法人,高知県,高知市,和泉町１５番３－４０７号ビ・ウェル和泉町,,39,201,7800064,,,2024-09-11,清算の結了等,,,2015-10-05,1,,,,,ウゲウゲオウコク,0
1207,5490005002715,登記記録の閉鎖等,0,2024-09-13,2024-07-17,天理教幡西分教会,,その他の設立登記法人,高知県,宿毛市,平田町戸内１２１８番地,,39,208,7880783,,,2024-07-17,合併による解散等,6490005002383,令和６年７月１７日高知県四万十市中村上小姓町１５７８番地イ天理教幡多分教会（6490005002383）に合併し解散,2015-10-05,1,,,,,,0
1208,5500002015206,登記記録の閉鎖等,0,2024-09-13,2024-09-10,双葉タオル有限会社,,有限会社,愛媛県,西条市,三津屋南８番１３,,38,206,7991353,,,2024-09-10,清算の結了等,,,2015-10-05,1,,,,,フタバタオル,0
1214,6010001197151,登記記録の閉鎖等,0,2024-09-13,2024-08-16,プラスアプリ株式会社,,株式会社,東京都,中央区,銀座７丁目１３番６号サガミビル２階,,13,102,1040061,,,2024-08-16,清算の結了等,,,2018-12-17,1,,,,,プラスアプリ,0
1216,6010001202869,登記記録の閉鎖等,0,2024-09-13,2024-09-03,ＡＭＣＫ　Ａｖｉａｔｉｏｎ　Ｊａｐａｎ株式会社,,株式会社,東京都,港区,六本木１丁目６番１号泉ガーデンタワーＫＰＭＧ税理士法人内,,13,103,1060032,,,2024-09-03,清算の結了等,,,2019-07-31,1,,,,,エーエムシーケーアビエーションジャパン,0
1220,6010002020270,登記記録の閉鎖等,0,2024-09-13,2024-09-02,有限会社さより,,有限会社,東京都,中央区,勝どき３丁目１６番７号,,13,102,1040054,,,2024-09-02,清算の結了等,,,2015-10-05,1,,,,,,0
1223,6010005033146,登記記録の閉鎖等,0,2024-09-13,2024-09-09,大正ロジスティクス特定目的会社,,その他の設立登記法人,東京都,中央区,日本橋１丁目４番１号,,13,102,1030027,,,2024-09-09,清算の結了等,,,2021-03-31,1,,,,,タイショウロジスティクス,0
1228,6010401120308,登記記録の閉鎖等,0,2024-09-13,2024-09-02,巧友建装株式会社,,株式会社,東京都,新宿区,神楽坂２丁目１４番地,,13,104,1620825,,,2024-09-02,合併による解散等,6010401051585,令和６年９月１日東京都新宿区神楽坂二丁目１４番地アイデックス株式会社（6010401051585）に合併し解散,2015-10-05,1,,,,,コウユウケンソウ,0
1258,6011001111564,登記記録の閉鎖等,0,2024-09-13,2024-09-09,株式会社Ｓａｇａ　Ｃｒｅａｔｉｖｅ　Ｊａｐａｎ,,株式会社,東京都,板橋区,南常盤台１丁目１１－６レフア南常盤台１０１号室,,13,119,1740072,,,2024-09-09,清算の結了等,,,2016-06-27,1,,,,,サガクリエイティブジャパン,0
1261,6011002035795,登記記録の閉鎖等,0,2024-09-13,2024-09-02,ネットポルコ有限会社,,有限会社,広島県,三原市,宮沖１丁目７番１６号,,34,204,7230016,,,2024-09-02,清算の結了等,,,2015-10-05,1,,,,,ネットポルコ,0
1269,6011102003347,登記記録の閉鎖等,0,2024-09-13,2024-09-10,有限会社川口電気商会,,有限会社,東京都,練馬区,光が丘２丁目７－３－１０１４,,13,120,1790072,,,2024-09-10,清算の結了等,,,2015-10-05,1,,,,,カワグチデンキショウカイ,0
1284,6011802029518,登記記録の閉鎖等,0,2024-09-13,2024-09-10,有限会社サンセイ家具,,有限会社,東京都,足立区,鹿浜１丁目１１番２０号,,13,121,1230864,,,2024-09-10,清算の結了等,,,2015-10-05,1,,,,,サンセイカグ,0
1294,6020001146405,登記記録の閉鎖等,0,2024-09-13,2024-09-02,株式会社大栄,,株式会社,神奈川県,横浜市戸塚区,秋葉町４８７番地３１,,14,110,2450052,,,2024-09-02,清算の結了等,,,2022-05-11,1,,,,,ダイエイ,0
1296,6020002014107,登記記録の閉鎖等,0,2024-09-13,2024-09-02,有限会社桑水流工務店,,有限会社,神奈川県,横浜市青葉区,荏田町３４６番地２,,14,117,2250013,,,2024-09-02,清算の結了等,,,2015-10-05,1,,,,,クワズルコウムテン,0
1297,6020002019576,登記記録の閉鎖等,0,2024-09-13,2024-09-02,有限会社花春,,有限会社,神奈川県,横浜市港南区,日野５丁目２３番９三井ビル１０１号,,14,111,2340051,,,2024-09-02,清算の結了等,,,2015-10-05,1,,,,,ハナハル,0
1298,6020003011136,登記記録の閉鎖等,0,2024-09-13,2024-08-30,ルース合同会社,,合同会社,神奈川県,川崎市川崎区,砂子２丁目６番２３号雨澤ビル２Ｆ,,14,131,2100006,,,2024-08-30,清算の結了等,,,2016-04-01,1,,,,,ルース,0
1304,6021003006935,登記記録の閉鎖等,0,2024-09-13,2024-08-30,合同会社ジーアセット,,合同会社,神奈川県,逗子市,逗子５丁目１１番３９号,,14,208,2490006,,,2024-08-30,合併による解散等,7020003011663,令和６年８月３０日神奈川県逗子市逗子五丁目１１番３９合同会社ケイユー企画（7020003011663）に合併し解散,2017-09-07,1,,,,,ジーアセット,0
1309,6030001117058,登記記録の閉鎖等,0,2024-09-13,2024-09-09,株式会社小林システム開発,,株式会社,埼玉県,川口市,芝富士１丁目３番１７－１０２号,,11,203,3330854,,,2024-09-09,清算の結了等,,,2016-11-02,1,,,,,コバヤシシステムカイハツ,0
1328,6040002033261,登記記録の閉鎖等,0,2024-09-13,2024-09-05,有限会社織原研磨工業所,,有限会社,千葉県,市川市,下貝塚３丁目２番３号,,12,203,2720821,,,2024-09-05,清算の結了等,,,2015-10-05,1,,,,,オリハラケンマコウギョウショ,0
1329,6040003024417,登記記録の閉鎖等,0,2024-09-13,2024-09-05,合同会社わかば,,合同会社,千葉県,東金市,台方６８８番地９,,12,213,2830811,,,2024-09-05,清算の結了等,,,2024-02-29,1,,,,,ワカバ,0
1332,6040005003113,登記記録の閉鎖等,0,2024-09-13,2024-09-06,医療法人社団米寿会,,その他の設立登記法人,千葉県,船橋市,宮本２丁目２番２号,,12,204,2730003,,,2024-09-06,清算の結了等,,,2015-10-05,1,,,,,シャダンベイジュカイ,0
1355,6120001056750,登記記録の閉鎖等,0,2024-09-13,2024-09-09,武田技研サービス株式会社,,株式会社,大阪府,大阪市淀川区,十三本町２丁目１７番８５号武田薬品工業株式会社大阪工場内,,27,123,5320024,,,2024-09-09,清算の結了等,,,2015-10-05,1,,,,,タケダギケンサービス,0
1366,6120002026793,登記記録の閉鎖等,0,2024-09-13,2024-09-10,有限会社キャスト,,有限会社,大阪府,大阪市中央区,淡路町４丁目３番１号,,27,128,5410047,,,2024-09-10,清算の結了等,,,2015-10-05,1,,,,,キャスト,0
1373,6120902009468,登記記録の閉鎖等,0,2024-09-13,2024-09-06,有限会社アクル,,有限会社,大阪府,高槻市,岡本町６３番１０号,,27,207,5691137,,,2024-09-06,清算の結了等,,,2015-10-05,1,,,,,アクル,0
1383,6160002000497,登記記録の閉鎖等,0,2024-09-13,2024-09-11,有限会社勝部建具店,,有限会社,滋賀県,大津市,尾花川８番７号,,25,201,5200031,,,2024-09-11,清算の結了等,,,2015-10-05,1,,,,,カツベタテグテン,0
1390,6180001029627,登記記録の閉鎖等,0,2024-09-13,2024-09-09,エヌ・ティ・ティ・システム技研株式会社,,株式会社,愛知県,名古屋市中村区,名駅５丁目１６番１７号,,23,105,4500002,,,2024-09-09,合併による解散等,2010001095739,令和６年９月１日東京都中央区日本橋本町四丁目８番１４号東京コンピュータサービス株式会社（2010001095739）に合併し解散,2015-10-05,1,,,,,エヌティティシステムギケン,0
1409,6240002024884,登記記録の閉鎖等,0,2024-09-13,2024-09-03,有限会社ハーティ・ラバー,,有限会社,広島県,広島市安佐北区,白木町大字三田９８５５番地１,,34,106,7391521,,,2024-09-03,清算の結了等,,,2015-10-05,1,,,,,ハーティラバー,0
1423,6290003006860,登記記録の閉鎖等,0,2024-09-13,2024-08-09,合同会社マルナカ研磨,,合同会社,福岡県,福岡市博多区,博多駅前１丁目２３番２号５Ｆ－Ｂ,,40,132,8120011,,,2024-08-09,清算の結了等,,,2016-12-08,1,,,,,マルナカケンマ,0
1425,6290801003555,登記記録の閉鎖等,0,2024-09-13,2024-08-20,丸栄化工株式会社,,株式会社,福岡県,北九州市小倉南区,大字新道寺９１０番地,,40,107,8030186,,,2024-08-20,合併による解散等,4010001242446,令和６年８月１日東京都千代田区大手町一丁目７番２号丸栄化工株式会社（4010001242446）に合併し解散,2015-10-05,1,,,,,マルエイカコウ,0
1433,6350001008605,登記記録の閉鎖等,0,2024-09-13,2024-09-05,デーリィ販売株式会社,,株式会社,宮崎県,都城市,上長飯町４号１番地,,45,202,8850042,,,2024-09-05,合併による解散等,1350001008320,令和６年９月１日宮崎県都城市姫城町３２街区３号南日本酪農協同株式会社（1350001008320）に合併し解散,2015-10-05,1,,,,,デーリィハンバイ,0
1435,6350002016929,登記記録の閉鎖等,0,2024-09-13,2024-09-09,有限会社山下建設,,有限会社,宮崎県,日南市,大字板敷字鳥居田２７１番地１,,45,204,8892532,,,2024-09-09,清算の結了等,,,2015-10-05,1,,,,,ヤマシタケンセツ,0
1444,6370003003998,登記記録の閉鎖等,0,2024-09-13,2024-09-03,合同会社ニコホームズ,,合同会社,宮城県,大崎市,古川南町３丁目１番１０号,,04,215,9896155,,,2024-09-03,清算の結了等,,,2017-11-15,1,,,,,ニコホームズ,0
1446,6370301002784,登記記録の閉鎖等,0,2024-09-13,2024-09-02,日本水技巧株式会社,,株式会社,宮城県,東松島市,大曲字上納南８８番地,,04,214,9810502,,,2024-09-02,清算の結了等,,,2015-10-05,1,,,,,ニホンミズギコウ,0
1447,6370601002757,登記記録の閉鎖等,0,2024-09-13,2024-09-02,Ｇ・トレード株式会社,,株式会社,宮城県,登米市,迫町森字平柳３２番地,,04,212,9870512,,,2024-09-02,合併による解散等,3370201002169,令和６年９月１日宮城県遠田郡涌谷町字蔵人沖名１６９番地株式会社千坂（3370201002169）に合併し解散,2015-10-05,1,,,,,ジートレード,0
1459,6430002050366,登記記録の閉鎖等,0,2024-09-13,2024-09-06,有限会社たがみ,,有限会社,北海道,三笠市,本郷町６６８番地２,,01,222,0682161,,,2024-09-06,清算の結了等,,,2015-10-05,1,,,,,タガミ,0
1465,6470001009748,登記記録の閉鎖等,0,2024-09-13,2024-09-10,株式会社グラビア堀内,,株式会社,香川県,丸亀市,川西町南９１６番地,,37,202,7630092,,,2024-09-10,清算の結了等,,,2015-10-05,1,,,,,グラビアホリウチ,0
1480,7010001126506,登記記録の閉鎖等,0,2024-09-13,2024-09-03,株式会社ティーエムピー,,株式会社,東京都,中央区,八丁堀２丁目３０番１７号亀島橋ビル５階,,13,102,1040032,,,2024-09-03,清算の結了等,,,2015-10-05,1,,,,,ティーエムピー,0
1486,7010002053641,登記記録の閉鎖等,0,2024-09-13,2024-09-03,有限会社ＳＲＣ投資,,有限会社,東京都,中央区,新川２丁目３番９－１１０２号,,13,102,1040033,,,2024-09-03,清算の結了等,,,2015-10-05,1,,,,,エスアールシートウシ,0
1492,7010403020604,登記記録の閉鎖等,0,2024-09-13,2024-08-23,ゴールデンゲート・インベストメント合同会社,,合同会社,東京都,港区,虎ノ門５丁目１３番１号虎ノ門４０ＭＴビル７階,,13,103,1050001,,,2024-08-23,清算の結了等,,,2019-04-24,1,,,,,ゴールデンゲートインベストメント,0
1500,7010701013243,登記記録の閉鎖等,0,2024-09-13,2024-09-06,中沢塗装株式会社,,株式会社,東京都,品川区,豊町６丁目１６番１５号,,13,109,1420042,,,2024-09-06,清算の結了等,,,2015-10-05,1,,,,,ナカザワトソウ,0
1511,7011001060240,登記記録の閉鎖等,0,2024-09-13,2024-08-26,コンソルテ株式会社,,株式会社,東京都,渋谷区,代々木２丁目１９番１２号唐沢第２ビル４階,,13,113,1510053,,,2024-08-26,清算の結了等,,,2015-10-05,1,,,,,コンソルテ,0
1513,7011001154827,登記記録の閉鎖等,0,2024-09-13,2024-09-05,株式会社シーラリアルティ,,株式会社,東京都,渋谷区,広尾１丁目１番３９号,,13,113,1500012,,,2024-09-05,合併による解散等,2013201019095,令和６年９月１日東京都渋谷区広尾一丁目１番３９号株式会社シーラ（2013201019095）に合併し解散,2023-06-02,1,,,,,シーラリアルティ,0
1530,7011502007839,登記記録の閉鎖等,0,2024-09-13,2024-09-10,有限会社カミザワ建装,,有限会社,東京都,荒川区,町屋３丁目２８番８号,,13,118,1160001,,,2024-09-10,清算の結了等,,,2015-10-05,1,,,,,カミザワケンソウ,0
1552,7020001089173,登記記録の閉鎖等,0,2024-09-13,2024-09-02,株式会社セキュア,,株式会社,神奈川県,横浜市瀬谷区,相沢５丁目４９番,,14,114,2460013,,,2024-09-02,清算の結了等,,,2015-10-05,1,,,,,セキュア,0
1557,7020002013603,登記記録の閉鎖等,0,2024-09-13,2024-09-02,有限会社上野空調設備,,有限会社,神奈川県,横浜市青葉区,新石川４丁目２番地１３,,14,117,2250003,,,2024-09-02,清算の結了等,,,2015-10-05,1,,,,,,0
1558,7020002016564,登記記録の閉鎖等,0,2024-09-13,2024-09-02,小松測量設計有限会社,,有限会社,神奈川県,横浜市西区,平沼１丁目３２番９号,,14,103,2200023,,,2024-09-02,清算の結了等,,,2015-10-05,1,,,,,,0
1560,7020002030565,登記記録の閉鎖等,0,2024-09-13,2024-08-30,株式会社高岡電気工事,,株式会社,神奈川県,横浜市南区,大岡３丁目２３番１号,,14,105,2320061,,,2024-08-30,清算の結了等,,,2015-10-05,1,,,,,タカオカデンキコウジ,0
1563,7020003016522,登記記録の閉鎖等,0,2024-09-13,2024-09-02,エスアンドエフ合同会社,,合同会社,神奈川県,横浜市栄区,桂台東１２番１０号,,14,115,2470032,,,2024-09-02,清算の結了等,,,2019-08-13,1,,,,,エスアンドエフ,0
1564,7020003017009,登記記録の閉鎖等,0,2024-09-13,2024-09-02,合同会社ＢＳＰ,,合同会社,神奈川県,横浜市緑区,鴨居５丁目５番６号メゾンクレール鴨居１０３号,,14,113,2260003,,,2024-09-02,清算の結了等,,,2019-12-06,1,,,,,ビーエスピー,0
1591,7040001006408,登記記録の閉鎖等,0,2024-09-13,2024-09-02,株式会社ひまわり,,株式会社,東京都,千代田区,神田東松下町３７番地２加瀬ビル１３０,,13,101,1010042,,,2024-09-02,清算の結了等,,,2015-10-05,1,,,,,ヒマワリ,0
1595,7040002038763,登記記録の閉鎖等,0,2024-09-13,2024-09-05,有限会社ティ・エー・エム,,有限会社,千葉県,茂原市,弓渡１０８１番地２,,12,210,2994105,,,2024-09-05,清算の結了等,,,2015-10-05,1,,,,,ティエーエム,0
1597,7040005015339,登記記録の閉鎖等,0,2024-09-13,2024-09-06,医療法人厚生会,,その他の設立登記法人,千葉県,安房郡鋸南町,勝山３６０番地,,12,463,2992117,,,2024-09-06,清算の結了等,,,2015-10-05,1,,,,,コウセイカイ,0
1603,7070001038506,登記記録の閉鎖等,0,2024-09-13,2024-09-06,株式会社ＴＯＳ,,株式会社,千葉県,野田市,木間ケ瀬３５２４番地１,,12,208,2700222,,,2024-09-06,清算の結了等,,,2021-10-05,1,,,,,ティーオーエス,0
1637,7120003014813,登記記録の閉鎖等,0,2024-09-13,2024-09-10,合同会社ロジカルソリューションズ,,合同会社,大阪府,大阪市北区,梅田１丁目１－３大阪駅前第３ビル２３０７,,27,127,5300001,,,2024-09-10,清算の結了等,,,2018-10-12,1,,,,,ロジカルソリューションズ,0
1648,7120902022024,登記記録の閉鎖等,0,2024-09-13,2024-09-09,有限会社Ｈ＆Ｋ,,有限会社,大阪府,豊中市,緑丘１丁目３２番１１－４０３号,,27,203,5600002,,,2024-09-09,清算の結了等,,,2015-10-05,1,,,,,エイチアンドケイ,0
1669,7180001019437,登記記録の閉鎖等,0,2024-09-13,2024-09-04,株式会社児玉製作所,,株式会社,愛知県,名古屋市中川区,辻畑町４２番地,00071913,23,110,4540827,,,2024-09-04,清算の結了等,,,2015-10-05,1,,,,,コダマセイサクショ,0
1672,7180002063450,登記記録の閉鎖等,0,2024-09-13,2024-09-05,有限会社ヘアーカットミキ,,有限会社,愛知県,長久手市,岩作中島４３番地の１,,23,238,4801103,,,2024-09-05,清算の結了等,,,2015-10-05,1,,,,,ヘアーカットミキ,0
1673,7180002078028,登記記録の閉鎖等,0,2024-09-13,2024-09-04,和光重量有限会社,,有限会社,愛知県,一宮市,丹羽字堀口１０２２番地の４,,23,203,4910083,,,2024-09-04,清算の結了等,,,2015-10-05,1,,,,,ワコウジュウリョウ,0
1680,7190002019666,登記記録の閉鎖等,0,2024-09-13,2024-09-11,有限会社角二製麺所,00076100,有限会社,三重県,四日市市,大矢知町１０３１番地の１,,24,202,5108034,,,2024-09-11,清算の結了等,,,2015-10-05,1,,,,,カクニセイメンショ,0
1684,7210002009854,登記記録の閉鎖等,0,2024-09-13,2024-09-09,有限会社七福洞商事,,有限会社,福井県,勝山市,片瀬第４６号７番地,,18,206,9110811,,,2024-09-09,清算の結了等,,,2015-10-05,1,,,,,シチフクドウショウジ,0
1686,7220002013252,登記記録の閉鎖等,0,2024-09-13,2024-09-05,有限会社誠興舎,,有限会社,石川県,小松市,長谷町ク２１番地,,17,203,9230181,,,2024-09-05,清算の結了等,,,2015-10-05,1,,,,,セイコウシャ,0
1695,7270002000584,登記記録の閉鎖等,0,2024-09-13,2024-09-11,有限会社ギフトショップトダ,,有限会社,鳥取県,鳥取市,古海６４７番地１,,31,201,6800921,,,2024-09-11,清算の結了等,,,2015-10-05,1,,,,,ギフトショップトダ,0
1696,7280002003545,登記記録の閉鎖等,0,2024-09-13,2024-09-11,有限会社小川技建,,有限会社,島根県,松江市,東朝日町１５８番地３,,32,201,6900001,,,2024-09-11,清算の結了等,,,2015-10-05,1,,,,,オガワギケン,0
1709,7290805005803,登記記録の閉鎖等,0,2024-09-13,2024-08-07,天理教西直方分教会,,その他の設立登記法人,福岡県,直方市,大字上新入１９７７番地,,40,204,8220033,,,2024-08-07,合併による解散等,7290805005290,令和６年８月７日北九州市若松区修多羅二丁目６番３号天理教若松分教会（7290805005290）に合併し解散,2015-10-05,1,,,,,テンリキョウニシノオガタブンキョウカイ,0
1739,7480001008021,登記記録の閉鎖等,0,2024-09-13,2024-08-27,株式会社ＰＡＮ　ＳＨＩＫＯＫＵ,,株式会社,徳島県,吉野川市,鴨島町山路１６８９番地２,,36,205,7760036,,,2024-08-27,清算の結了等,,,2015-10-05,1,,,,,パンシコク,0
1764,8010003037923,登記記録の閉鎖等,0,2024-09-13,2024-09-03,合同会社東京モーター,,合同会社,東京都,中央区,銀座１丁目２２番１１号銀座大竹ビジデンス２階,,13,102,1040061,,,2024-09-03,清算の結了等,,,2022-06-17,1,,,,,トウキョウモーター,0
1771,8010401168312,登記記録の閉鎖等,0,2024-09-13,2024-08-26,科来日本株式会社,,株式会社,東京都,港区,赤坂１丁目１２番３２号,,13,103,1070052,,,2024-08-26,清算の結了等,,,2022-07-04,1,,,,,コライニホン,0
1773,8010403019983,登記記録の閉鎖等,0,2024-09-13,2024-08-23,合同会社ＳＬＰ,,合同会社,東京都,港区,芝大門１丁目１６番８号,,13,103,1050012,,,2024-08-23,清算の結了等,,,2019-01-16,1,,,,,エスエルピー,0
1780,8010605001797,登記記録の閉鎖等,0,2024-09-13,2024-09-11,特定非営利活動法人フラジャパン文化協会,,その他の設立登記法人,大阪府,大阪市東淀川区,西淡路１丁目１４－７－５０２,,27,114,5330031,,,2024-09-11,清算の結了等,,,2015-10-05,1,,,,,フラジャパンブンカキョウカイ,0
1828,8020001042858,登記記録の閉鎖等,0,2024-09-13,2024-09-02,株式会社花建,,株式会社,神奈川県,横浜市港南区,下永谷６丁目２番１５号,,14,111,2330016,,,2024-09-02,清算の結了等,,,2015-10-05,1,,,,,ハナケン,0
1832,8020001144927,登記記録の閉鎖等,0,2024-09-13,2024-09-02,Ｓｅｃｕｒｅ　Ｓｈｅｌｌ　Ｃｏｒｐｏｒａｔｉｏｎ株式会社,,株式会社,神奈川県,横浜市旭区,若葉台２丁目１６番,,14,112,2410801,,,2024-09-02,清算の結了等,,,2022-01-25,1,,,,,セキュアシェルコーポレーション,0
1838,8021001024796,登記記録の閉鎖等,0,2024-09-13,2024-09-02,株式会社プレジャー・コム,,株式会社,東京都,文京区,本郷５丁目２５番１４号,,13,105,1130033,,,2024-09-02,合併による解散等,7013101004696,令和６年９月１日東京都文京区本郷五丁目２５番１４号株式会社いちしんウエルフェア（7013101004696）に合併し解散,2015-10-05,1,,,,,プレジャーコム,0
1840,8030001044358,登記記録の閉鎖等,0,2024-09-13,2024-09-10,株式会社ＯＳＫ,,株式会社,埼玉県,さいたま市岩槻区,大字平林寺２４３番地,,11,110,3390076,,,2024-09-10,合併による解散等,4380001006062,令和６年９月１日福島県郡山市鶴見坦一丁目１４番５号株式会社内藤工業所（4380001006062）に合併し解散,2015-10-05,1,,,,,オーエスケー,0
1849,8030002105150,登記記録の閉鎖等,0,2024-09-13,2024-09-09,有限会社藤英総建,,有限会社,埼玉県,川口市,中青木４丁目１４番１８号,,11,203,3320032,,,2024-09-09,清算の結了等,,,2015-10-05,1,,,,,,0
1862,8040005004919,登記記録の閉鎖等,0,2024-09-13,2024-09-05,医療法人社団ことほぎ会,,その他の設立登記法人,千葉県,市川市,新田４丁目７番９号アフェールヤジマ２Ｆ,,12,203,2720035,,,2024-09-05,清算の結了等,,,2015-10-05,1,,,,,コトホギカイ,0
1865,8050002016610,登記記録の閉鎖等,0,2024-09-13,2024-09-05,チェコビジネスパーク有限会社,,有限会社,茨城県,小美玉市,羽刈６２３番地の１８,,08,236,3190121,,,2024-09-05,清算の結了等,,,2015-10-05,1,,,,,チェコビジネスパーク,0
1879,8100002007075,登記記録の閉鎖等,0,2024-09-13,2024-09-02,有限会社長野教育システム,,有限会社,長野県,長野市,青木島町綱島４９０番地５,,20,201,3812206,,,2024-09-02,合併による解散等,8100001000221,令和６年９月１日長野市西尾張部３８７番地石坂教育図書株式会社（8100001000221）に合併し解散,2015-10-05,1,,,,,ナガノキョウイクシステム,0
1885,8110005009497,登記記録の閉鎖等,0,2024-09-13,2024-08-07,善照寺,,その他の設立登記法人,新潟県,上越市,名立区丸田１０２６番地,,15,222,9491612,,,2024-08-07,合併による解散等,3110005009502,令和６年８月７日新潟県上越市名立区名立大町２７０番地名立寺（3110005009502）に合併し解散,2015-10-05,1,,,,,ゼンショウジ,0
1888,8120001014145,登記記録の閉鎖等,0,2024-09-13,2024-09-12,株式会社アイエスエーリサーチ,,株式会社,大阪府,大阪市城東区,鴫野西３丁目４番３－５０２号,,27,118,5360014,,,2024-09-12,清算の結了等,,,2015-10-05,1,,,,,アイエスエーリサーチ,0
1889,8120001033203,登記記録の閉鎖等,0,2024-09-13,2024-09-12,株式会社田建築研究所,,株式会社,大阪府,大阪市住吉区,我孫子４丁目１０番２５号,,27,120,5580014,,,2024-09-12,清算の結了等,,,2015-10-05,1,,,,,デンケンチクケンキュウショ,0
1905,8120101058950,登記記録の閉鎖等,0,2024-09-13,2024-09-06,ふじケアサービス株式会社,,株式会社,大阪府,岸和田市,吉井町３丁目６番５１号,,27,202,5960002,,,2024-09-06,清算の結了等,,,2018-11-06,1,,,,,フジケアサービス,0
1914,8130002010828,登記記録の閉鎖等,0,2024-09-13,2024-09-10,有限会社健美クロック商事,,有限会社,京都府,京都市南区,西九条南田町１番地４,,26,107,6018441,,,2024-09-10,清算の結了等,,,2015-10-05,1,,,,,ケンビクロックショウジ,0
1919,8140001040239,登記記録の閉鎖等,0,2024-09-13,2024-09-11,播磨酒類販売株式会社,,株式会社,兵庫県,赤穂郡上郡町,井上２６５、２６３番地,,28,481,6781251,,,2024-09-11,清算の結了等,,,2015-10-05,1,,,,,,0
1928,8140003019495,登記記録の閉鎖等,0,2024-09-13,2024-09-11,合同会社ｉｐｏｍｏｅａ　ｎｉｌ,,合同会社,兵庫県,尼崎市,戸ノ内町２丁目１０番１４－２号,,28,202,6610961,,,2024-09-11,清算の結了等,,,2023-09-06,1,,,,,イポメアニル,0
1939,8180002058458,登記記録の閉鎖等,0,2024-09-13,2024-09-04,有限会社アテナコミュニケーションズ,,有限会社,愛知県,一宮市,浅井町西海戸字余陸寺５２番地,,23,203,4910115,,,2024-09-04,清算の結了等,,,2015-10-05,1,,,,,アテナコミュニケーションズ,0
1941,8180003012653,登記記録の閉鎖等,0,2024-09-13,2024-09-04,合同会社ＣＯＬＯＲＦＵＬ,,合同会社,愛知県,名古屋市港区,高木町１丁目４６番地の３,,23,111,4550821,,,2024-09-04,清算の結了等,,,2015-10-05,1,,,,,カラフル,0
1946,8190003004352,登記記録の閉鎖等,0,2024-09-13,2024-09-12,合同会社リライフ,,合同会社,三重県,津市,久居一色町２２３番地４０,,24,201,5141253,,,2024-09-12,清算の結了等,,,2023-06-13,1,,,,,リライフ,0
1951,8230002006898,登記記録の閉鎖等,0,2024-09-13,2024-09-10,有限会社ハル,,有限会社,富山県,中新川郡上市町,中小泉６８番地４,,16,322,9300316,,,2024-09-10,合併による解散等,7230002007591,令和６年９月１日富山県高岡市野村１５４８番地１ユニバーサルホールディングス株式会社（7230002007591）に合併し解散,2015-10-05,1,,,,,ハル,0
1952,8230005005583,登記記録の閉鎖等,0,2024-09-13,2024-09-09,農事組合法人赤尾木工生産組合,,その他の設立登記法人,富山県,南砺市,西赤尾町４７０番地,,16,210,9391977,,,2024-09-09,清算の結了等,,,2015-10-05,1,,,,,アカオモッコウセイサンクミアイ,0
1953,8240001029288,登記記録の閉鎖等,0,2024-09-13,2024-09-09,株式会社中国不動産サービス,,株式会社,広島県,広島市中区,流川町５番１５号４階,,34,101,7300028,,,2024-09-09,清算の結了等,,,2015-10-05,1,,,,,チュウゴクフドウサンサービス,0
1958,8260001011913,登記記録の閉鎖等,0,2024-09-13,2024-09-09,カトリ株式会社,,株式会社,岡山県,岡山市北区,大供２丁目１３番２４号,,33,101,7000913,,,2024-09-09,清算の結了等,,,2015-10-05,1,,,,,カトリ,0
1962,8260002008388,登記記録の閉鎖等,0,2024-09-13,2024-09-02,有限会社平田設計事務所,,有限会社,岡山県,岡山市南区,妹尾２６１８番地,,33,104,7010205,,,2024-09-02,清算の結了等,,,2015-10-05,1,,,,,ヒラタセッケイジムショ,0
1964,8290001097165,登記記録の閉鎖等,0,2024-09-13,2024-08-13,株式会社Ｋ,,株式会社,福岡県,福岡市博多区,中洲１丁目３－１５オンリーワンビル２Ｆ,,40,132,8100801,,,2024-08-13,清算の結了等,,,2022-04-12,1,,,,,ケイ,0
1972,8320002001460,登記記録の閉鎖等,0,2024-09-13,2024-09-12,有限会社大倉空調,,有限会社,大分県,大分市,南春日町７番７号,,44,201,8700815,,,2024-09-12,清算の結了等,,,2015-10-05,1,,,,,,0
1982,8380002031873,登記記録の閉鎖等,0,2024-09-13,2024-09-03,有限会社サクセス,,有限会社,福島県,耶麻郡猪苗代町,字古城町１３３番地３,,07,408,9693123,,,2024-09-03,清算の結了等,,,2015-10-05,1,,,,,サクセス,0
1986,8390002006767,登記記録の閉鎖等,0,2024-09-13,2024-09-04,有限会社アドバンス,,有限会社,山形県,天童市,南町３丁目１４番５号,,06,210,9940049,,,2024-09-04,清算の結了等,,,2015-10-05,1,,,,,アドバンス,0
1987,8390003001759,登記記録の閉鎖等,0,2024-09-13,2024-09-04,Ｔ－ＷＡＶＥ合同会社,,合同会社,山形県,山形市,長町３丁目７番７号,,06,201,9900811,,,2024-09-04,清算の結了等,,,2020-09-14,1,,,,,ティーウェーブ,0
1999,8470002018052,登記記録の閉鎖等,0,2024-09-13,2024-09-11,有限会社名倉酒店,,有限会社,香川県,さぬき市,津田町鶴羽２１７７番地５,,37,206,7692402,,,2024-09-11,清算の結了等,,,2015-10-05,1,,,,,ナグラサケテン,0
2008,9010001043311,登記記録の閉鎖等,0,2024-09-13,2024-09-02,小西紙業株式会社,,株式会社,東京都,中央区,日本橋小伝馬町１６番２０号,,13,102,1030001,,,2024-09-02,清算の結了等,,,2015-10-05,1,,,,,コニシシギョウ,0
2017,9010003035463,登記記録の閉鎖等,0,2024-09-13,2024-09-03,合同会社太平プランニング,,合同会社,東京都,中央区,日本橋兜町１７番２号兜町第６葉山ビル４階,,13,102,1030026,,,2024-09-03,清算の結了等,,,2021-08-11,1,,,,,タイヘイプランニング,0
2019,9010005011611,登記記録の閉鎖等,0,2024-09-13,2024-09-10,一般社団法人七福神ホールディング,,その他の設立登記法人,東京都,千代田区,大手町１丁目５番５号,,13,101,1000004,,,2024-09-10,清算の結了等,,,2015-10-05,1,,,,,シチフクジンホールディング,0
2027,9010403005586,登記記録の閉鎖等,0,2024-09-13,2024-09-06,フィンテックグローバルキャピタル合同会社,,合同会社,東京都,品川区,上大崎３丁目１番１号目黒セントラルスクエア１５階,,13,109,1410021,,,2024-09-06,清算の結了等,,,2015-10-05,1,,,,,フィンテックグローバルキャピタル,0
2032,9010901024682,登記記録の閉鎖等,0,2024-09-13,2024-09-09,株式会社Ｓ＆Ｄ建築設計,,株式会社,東京都,世田谷区,成城１丁目２２番１２号,,13,112,1570066,,,2024-09-09,清算の結了等,,,2015-10-05,1,,,,,エスアンドディーケンチクセッケイ,0
2034,9010901050290,登記記録の閉鎖等,0,2024-09-13,2024-09-11,株式会社観照舎,,株式会社,東京都,世田谷区,下馬５丁目３４番３－３０４号,,13,112,1540002,,,2024-09-11,合併による解散等,1010701044541,令和６年９月１日東京都品川区東品川二丁目２番４号天王洲ファーストタワー２３階ＣＤＩヒューマンキャピタル株式会社（1010701044541）に合併し解散,2022-02-03,1,,,,,カンショウシャ,0
2045,9011003011149,登記記録の閉鎖等,0,2024-09-13,2024-07-30,みんマスファクトリ―合同会社,,合同会社,東京都,目黒区,東山３丁目１番１９号,,13,110,1530043,,,2024-07-30,合併による解散等,3011003006195,令和６年７月３０日東京都目黒区東山三丁目１番１９号２０５号室Ｔｏｋｙｏ　Ｌｉｇｈｔｉｎｇ　Ｄｅｓｉｇｎ合同会社（3011003006195）に合併し解散,2020-05-12,1,,,,,ミンマスファクトリー,0
2049,9011101080723,登記記録の閉鎖等,0,2024-09-13,2024-09-02,Ｉ・Ｆ・Ｃホールディングス株式会社,,株式会社,東京都,新宿区,西新宿７丁目８番２号,,13,104,1600023,,,2024-09-02,清算の結了等,,,2017-06-06,1,,,,,,0
2066,9012701003239,登記記録の閉鎖等,0,2024-09-13,2024-09-06,株式会社ワークフォース,,株式会社,東京都,西東京市,中町１丁目１１番２８号,,13,229,2020013,,,2024-09-06,清算の結了等,,,2015-10-05,1,,,,,ワークフォース,0
2073,9020001119226,登記記録の閉鎖等,0,2024-09-13,2024-09-02,鎌田機工株式会社,,株式会社,神奈川県,川崎市高津区,千年１０４０番地３０２,,14,134,2130022,,,2024-09-02,清算の結了等,,,2016-12-27,1,,,,,カマタキコウ,0
2079,9020002012347,登記記録の閉鎖等,0,2024-09-13,2024-08-26,有限会社ティーイーエル,,有限会社,神奈川県,横浜市港北区,小机町８７０番地１,,14,109,2220036,,,2024-08-26,清算の結了等,,,2015-10-05,1,,,,,ティーイーエル,0
2086,9021002049858,登記記録の閉鎖等,0,2024-09-13,2024-09-11,有限会社まるなか,,有限会社,神奈川県,足柄下郡真鶴町,真鶴１３７４番地の１６,,14,383,2590201,,,2024-09-11,清算の結了等,,,2015-10-05,1,,,,,マルナカ,0
2087,9021003003525,登記記録の閉鎖等,0,2024-09-13,2024-09-11,ビターエンド合同会社,,合同会社,神奈川県,三浦市,三崎町小網代１００７番地,,14,210,2380225,,,2024-09-11,清算の結了等,,,2015-10-05,1,,,,,ビターエンド,0
2091,9030001141492,登記記録の閉鎖等,0,2024-09-13,2024-09-09,株式会社ｗｉｔｈ　ｋｅｙ,,株式会社,埼玉県,戸田市,大字新曽３９７メゾンサファイア１０９,,11,224,3350021,,,2024-09-09,清算の結了等,,,2021-04-02,1,,,,,ウィズキー,0
2099,9030002059890,登記記録の閉鎖等,0,2024-09-13,2024-09-06,有限会社エステー急送,,有限会社,埼玉県,志木市,上宗岡１丁目４番２－１０３号,,11,228,3530001,,,2024-09-06,清算の結了等,,,2015-10-05,1,,,,,エステーキュウソウ,0
2103,9040001059429,登記記録の閉鎖等,0,2024-09-13,2024-09-02,株式会社冨士越化成,,株式会社,千葉県,茂原市,押日４８８番地１３,,12,210,2970075,,,2024-09-02,清算の結了等,,,2015-10-05,1,,,,,フジコシカセイ,0
2107,9040001095721,登記記録の閉鎖等,0,2024-09-13,2024-09-06,佐原商船株式会社,,株式会社,千葉県,香取市,佐原イ５０３番地１,,12,236,2870003,,,2024-09-06,清算の結了等,,,2016-06-09,1,,,,,サワラショウセン,0
2109,9040003023795,登記記録の閉鎖等,0,2024-09-13,2024-09-06,合同会社ルークス,,合同会社,千葉県,八街市,八街は３番地２０９,,12,230,2891107,,,2024-09-06,清算の結了等,,,2023-11-22,1,,,,,ルークス,0
2113,9050002021519,登記記録の閉鎖等,0,2024-09-13,2024-09-06,有限会社清勝,,有限会社,茨城県,つくば市,小野崎１１３１番地の１,,08,220,3050034,,,2024-09-06,清算の結了等,,,2015-10-05,1,,,,,セイショウ,0
2124,9080401023757,登記記録の閉鎖等,0,2024-09-13,2024-09-06,ＡＲＵ．Ｌｉｆｅｃｒｅａｔｅ株式会社,,株式会社,静岡県,袋井市,鷲巣８１７番地の７,,22,216,4370017,,,2024-09-06,清算の結了等,,,2019-07-16,1,,,,,エーアールユーライフクリエイト,0
2132,9100002011051,登記記録の閉鎖等,0,2024-09-13,2024-09-03,有限会社長野装飾,,有限会社,長野県,佐久市,臼田２１４４番地,,20,217,3840301,,,2024-09-03,清算の結了等,,,2015-10-05,1,,,,,ナガノソウショク,0
2135,9110002013419,登記記録の閉鎖等,0,2024-09-13,2024-09-05,有限会社光建,,有限会社,新潟県,阿賀野市,長起３３５番地,,15,223,9591911,,,2024-09-05,清算の結了等,,,2015-10-05,1,,,,,,0
2140,9120001229031,登記記録の閉鎖等,0,2024-09-13,2024-09-10,株式会社永有,,株式会社,大阪府,大阪市西区,江戸堀２丁目１－１江戸堀センタービル９階,,27,106,5500002,,,2024-09-10,清算の結了等,,,2020-05-15,1,,,,,エイユウ,0
2150,9130001053447,登記記録の閉鎖等,0,2024-09-13,2024-09-12,株式会社ＲＥＧＥＮＤ,,株式会社,京都府,京都市南区,久世大藪町５５７番地ライオンズマンション向日町１００４号,,26,107,6010000,,,2024-09-12,清算の結了等,,,2015-10-05,1,,,,,レジェンド,0
2162,9140005013116,登記記録の閉鎖等,0,2024-09-13,2024-09-04,ＮＰＯ法人クロスハンド,,その他の設立登記法人,兵庫県,神戸市中央区,相生町４丁目８番１５号第２谷口ビル,,28,110,6500025,,,2024-09-04,清算の結了等,,,2015-10-05,1,,,,,クロスハンド,0
2172,9180001061197,登記記録の閉鎖等,0,2024-09-13,2024-09-11,株式会社ソレイユ,,株式会社,大阪府,阪南市,緑ヶ丘３丁目１０番２３号,,27,232,5990216,,,2024-09-11,清算の結了等,,,2015-10-05,1,,,,,ソレイユ,0
2181,9180002065049,登記記録の閉鎖等,0,2024-09-13,2024-09-03,有限会社アルファ商事,,有限会社,愛知県,春日井市,高蔵寺町北４丁目７番地の３,,23,206,4870016,,,2024-09-03,清算の結了等,,,2015-10-05,1,,,,,アルファショウジ,0
2189,9200001027988,登記記録の閉鎖等,0,2024-09-13,2024-09-12,株式会社河口設計,,株式会社,岐阜県,岐阜市,津島町４丁目６７番地３,,21,201,5020846,,,2024-09-12,清算の結了等,,,2015-10-05,1,,,,,カワグチセッケイ,0
2197,9240001019156,登記記録の閉鎖等,0,2024-09-13,2024-09-04,株式会社トラスト・フォース,,株式会社,愛知県,名古屋市中区,栄１丁目２番３号,,23,106,4600008,,,2024-09-04,清算の結了等,,,2015-10-05,1,,,,,トラストフォース,0
2224,9290801023170,登記記録の閉鎖等,0,2024-09-13,2024-09-05,株式会社夢ノ蔵,,株式会社,福岡県,北九州市小倉北区,馬借２丁目６番１１－３１０１号,,40,106,8020077,,,2024-09-05,清算の結了等,,,2017-01-10,1,,,,,ユメノクラ,0
2227,9310001016765,登記記録の閉鎖等,0,2024-09-13,2024-09-05,株式会社インテグラ・インフォテック・ジャパン,,株式会社,長崎県,壱岐市,芦辺町深江鶴亀触１０９２番地５,,42,210,8115322,,,2024-09-05,清算の結了等,,,2020-07-09,1,,,,,インテグラインフォテックジャパン,0
2228,9310002000479,登記記録の閉鎖等,0,2024-09-13,2024-09-10,有限会社インテリアパトス,,有限会社,長崎県,長崎市,岩川町１４番２０号,,42,201,8528106,,,2024-09-10,清算の結了等,,,2015-10-05,1,,,,,インテリアパトス,0
2230,9330002021663,登記記録の閉鎖等,0,2024-09-13,2024-09-10,有限会社浦田工務店,,有限会社,熊本県,荒尾市,荒尾２１９１番地１,,43,204,8640041,,,2024-09-10,清算の結了等,,,2015-10-05,1,,,,,ウラタコウムテン,0
2250,9410002005039,登記記録の閉鎖等,0,2024-09-13,2024-09-06,有限会社カルム,,有限会社,秋田県,秋田市,将軍野東４丁目１３番１１号,,05,201,0110931,,,2024-09-06,清算の結了等,,,2015-10-05,1,,,,,カルム,0
