sequenceNumber,corporateNumber,process,correct,updateDate,changeDate,name,nameImageId,kind,prefectureName,cityName,streetNumber,addressImageId,prefectureCode,cityCode,postCode,addressOutside,addressOutsideImageId,closeDate,closeCause,successorCorporateNumber,changeCause,assignmentDate,latest,enName,enPrefectureName,enCityName,enAddressOutside,furigana,hihyoji
8,1010003038688,新規,0,2022-09-20,2022-09-20,合同会社ＤＵＭＳ３,,合同会社,東京都,千代田区,丸の内３丁目１番１号東京共同会計事務所内,,13,101,1000005,,,,,,,2022-09-20,1,,,,,ディーユーエムエススリー,0
12,1010401169721,新規,0,2022-09-20,2022-09-20,株式会社地方企業からミライを,,株式会社,東京都,港区,南麻布４丁目１３番８号プランドール南麻布７Ｆ,,13,103,1060047,,,,,,,2022-09-20,1,,,,,チホウキギョウカラミライヲ,0
13,1010401169770,新規,0,2022-09-20,2022-09-20,ＷＡ　Ｐｒｏｄｕｃｔｉｏｎ株式会社,,株式会社,東京都,港区,六本木１丁目４番５号１６階,,13,103,1060032,,,,,,,2022-09-20,1,,,,,ワプロダクション,0
16,1010403028495,新規,0,2022-09-20,2022-09-20,合同会社セントラルビル,,合同会社,東京都,港区,新橋４丁目２７番１号セントラルビル,,13,103,1050004,,,,,,,2022-09-20,1,,,,,セントラルビル,0
20,1010601061868,新規,0,2022-09-20,2022-09-20,株式会社フェニックス,,株式会社,東京都,墨田区,立花６丁目４番５号,,13,107,1310043,,,,,,,2022-09-20,1,,,,,フェニックス,0
31,1011001149675,新規,0,2022-09-20,2022-09-20,株式会社Ｙ．Ｎ．Ｋ,,株式会社,東京都,渋谷区,恵比寿１丁目２４番１４－１００１号,,13,113,1500013,,,,,,,2022-09-20,1,,,,,,0
32,1011001149816,新規,0,2022-09-20,2022-09-20,株式会社歯医者の窓口,,株式会社,東京都,渋谷区,神山町４１番５号,,13,113,1500047,,,,,,,2022-09-20,1,,,,,ハイシャノマドグチ,0
33,1011001149832,新規,0,2022-09-20,2022-09-20,株式会社ホッピーロータス,,株式会社,東京都,目黒区,原町１丁目２２番１５号,,13,110,1520011,,,,,,,2022-09-20,1,,,,,ホッピーロータス,0
39,1011203003911,新規,0,2022-09-20,2022-09-20,合同会社ＳＫＴ,,合同会社,東京都,中野区,野方６丁目３６番１５号レオのがた１０１,,13,114,1650027,,,,,,,2022-09-20,1,,,,,エスケイティ,0
40,1011301028100,新規,0,2022-09-20,2022-09-20,日本天遠国際商事株式会社,,株式会社,東京都,杉並区,井草４丁目１８－２６－３０８,,13,115,1670021,,,,,,,2022-09-20,1,,,,,ニホンテンエンコクサイジョウジ,0
41,1011301028109,新規,0,2022-09-20,2022-09-20,株式会社ＳＥＲＯ,,株式会社,東京都,杉並区,西荻北４丁目１番１７号西荻窪ハイツ３０４,,13,115,1670042,,,,,,,2022-09-20,1,,,,,セロ,0
43,1011501028486,新規,0,2022-09-20,2022-09-20,株式会社ＭＭＤＨ,,株式会社,東京都,北区,赤羽南１丁目１７番６号,,13,117,1150044,,,,,,,2022-09-20,1,,,,,エムエムディーエイチ,0
44,1011701025630,新規,0,2022-09-20,2022-09-20,ナカハラコーポレーション株式会社,,株式会社,東京都,江戸川区,東小松川１丁目１２番１０号,,13,123,1320033,,,,,,,2022-09-20,1,,,,,ナカハラコーポレーション,0
52,1012701017246,新規,0,2022-09-20,2022-09-20,株式会社ムート企画,,株式会社,東京都,小平市,小川町２丁目２０４９番地,,13,211,1870032,,,,,,,2022-09-20,1,,,,,ムートキカク,0
53,1012803002880,新規,0,2022-09-20,2022-09-20,アオ＆パートナー合同会社,,合同会社,東京都,東大和市,上北台１丁目８１３番地の１３,,13,220,2070023,,,,,,,2022-09-20,1,,,,,,0
56,1020001148216,新規,0,2022-09-20,2022-09-20,株式会社ＰＵＳＨＰＡ,,株式会社,神奈川県,川崎市中原区,北谷町２０番地１０岩村ビル２０１,,14,133,2110015,,,,,,,2022-09-20,1,,,,,プスパ,0
57,1020001148240,新規,0,2022-09-20,2022-09-20,株式会社ＴＡＩＹＯ,,株式会社,神奈川県,横浜市中区,長者町３丁目８番地８ＧＳハイム長者町幸山４０６号室,,14,104,2310033,,,,,,,2022-09-20,1,,,,,タイヨウ,0
59,1020003022410,新規,0,2022-09-20,2022-09-20,合同会社Ｈａｂ,,合同会社,神奈川県,川崎市麻生区,片平４丁目２０番２号,,14,137,2150023,,,,,,,2022-09-20,1,,,,,ハブ,0
73,1030001150138,新規,0,2022-09-20,2022-09-20,株式会社ＡＹＵＡ,,株式会社,埼玉県,朝霞市,幸町１丁目５番２０号緑ケ丘レジデンス２０２,,11,227,3510015,,,,,,,2022-09-20,1,,,,,アユア,0
74,1030001150162,新規,0,2022-09-20,2022-09-20,ボルジギン株式会社,,株式会社,埼玉県,草加市,新栄２丁目６番地２２,,11,221,3400056,,,,,,,2022-09-20,1,,,,,ボルジギン,0
80,1040001125106,新規,0,2022-09-20,2022-09-20,ＮＥＷ　ＬＥＡＶＥＳ株式会社,,株式会社,千葉県,八千代市,緑が丘２丁目２番地１０,,12,221,2760049,,,,,,,2022-09-20,1,,,,,ニューリーヴス,0
81,1040001125130,新規,0,2022-09-20,2022-09-20,うらやす観光株式会社,,株式会社,千葉県,浦安市,北栄１丁目１６番１４号ＴＣ８３浦安ビル５階,,12,227,2790002,,,,,,,2022-09-20,1,,,,,ウラヤスカンコウ,0
87,1040003020866,新規,0,2022-09-20,2022-09-20,おがでん合同会社,,合同会社,千葉県,大網白里市,柳橋９２番地,,12,239,2993263,,,,,,,2022-09-20,1,,,,,オガデン,0
91,1050001051689,新規,0,2022-09-20,2022-09-20,株式会社ＰＵＮＪＡＢ,,株式会社,茨城県,牛久市,田宮町１５９番地１１,,08,219,3001236,,,,,,,2022-09-20,1,,,,,パンジャブ,0
98,1080103002653,新規,0,2022-09-20,2022-09-20,合同会社ウッズ,,合同会社,静岡県,伊豆の国市,浮橋１５９９番地の４５,,22,225,4102311,,,,,,,2022-09-20,1,,,,,ウッズ,0
118,1120001248889,新規,0,2022-09-20,2022-09-20,株式会社ｏｎｌｙ　ＹＯＵ,,株式会社,大阪府,大阪市西区,北堀江１丁目１４番１９号北堀江レジデンス６０６号室,,27,106,5500014,,,,,,,2022-09-20,1,,,,,オンリーユー,0
119,1120001248897,新規,0,2022-09-20,2022-09-20,遠橋株式会社,,株式会社,大阪府,大阪市中央区,谷町７丁目３番４－２１５号Ｂ,,27,128,5420012,,,,,,,2022-09-20,1,,,,,エンキョウ,0
120,1120001248906,新規,0,2022-09-20,2022-09-20,株式会社ＳｅｖｅｎＲ,,株式会社,大阪府,大阪市西区,九条１丁目１９番１８号グランドゥール九条２０３号室,,27,106,5500027,,,,,,,2022-09-20,1,,,,,セブンアール,0
121,1120001248922,新規,0,2022-09-20,2022-09-20,株式会社ｖｉｖｉｖｉ,,株式会社,大阪府,大阪市西区,土佐堀３丁目３番２－１２０８号,,27,106,5500001,,,,,,,2022-09-20,1,,,,,ビビビ,0
126,1120003022482,新規,0,2022-09-20,2022-09-20,Ｉｎｆｉｎｉｔｙ合同会社,,合同会社,大阪府,大阪市浪速区,日本橋東２丁目２番３－４０７号,,27,111,5560006,,,,,,,2022-09-20,1,,,,,インフィニティー,0
127,1120101066241,新規,0,2022-09-20,2022-09-20,株式会社ＵＬＵ．,,株式会社,大阪府,堺市南区,赤坂台３丁１０番５号,,27,145,5900144,,,,,,,2022-09-20,1,,,,,ウル,0
131,1120901046459,新規,0,2022-09-20,2022-09-20,三文殊株式会社,,株式会社,大阪府,摂津市,正雀本町１１８－２１,,27,224,5660000,,,,,,,2022-09-20,1,,,,,サンモンジュ,0
137,1130001072652,新規,0,2022-09-20,2022-09-20,株式会社未無,,株式会社,京都府,南丹市,美山町長尾上ノ山２３番地,,26,213,6010734,,,,,,,2022-09-20,1,,,,,ミム,0
145,1140005026315,新規,0,2022-09-20,2022-09-20,特定非営利活動法人Ｅａｓｔ　Ｖｉｌｌａｇｅ,,その他の設立登記法人,兵庫県,神戸市北区,広陵町１丁目１５９－１,,28,109,6511213,,,,,,,2022-09-20,1,,,,,イーストビレッジ,0
151,1160003002670,新規,0,2022-09-20,2022-09-20,合同会社ｃｌａｓｓｙ,,合同会社,滋賀県,草津市,野路１丁目１－１０－３０１,,25,206,5250059,,,,,,,2022-09-20,1,,,,,クラッシー,0
160,1180001153051,新規,0,2022-09-20,2022-09-20,株式会社加古工業,,株式会社,愛知県,大府市,明成町４丁目１０２番地,,23,223,4740056,,,,,,,2022-09-20,1,,,,,カココウギョウ,0
167,1180003024275,新規,0,2022-09-20,2022-09-20,ハクスイマシンサービス合同会社,,合同会社,愛知県,名古屋市港区,船見町３０番地,,23,111,4550027,,,,,,,2022-09-20,1,,,,,ハクスイマシンサービス,0
171,1180301036641,新規,0,2022-09-20,2022-09-20,株式会社心,,株式会社,愛知県,豊川市,豊川元町５４－２Ｆ,,23,207,4420035,,,,,,,2022-09-20,1,,,,,ココロ,0
174,1180303005446,新規,0,2022-09-20,2022-09-20,合同会社京羽,,合同会社,愛知県,豊田市,広久手町２丁目１－３バンベール豊田西８０４号,,23,211,4710036,,,,,,,2022-09-20,1,,,,,キョウハ,0
187,1240005015456,新規,0,2022-09-20,2022-09-20,医療法人ゆたか歯科クリニック,,その他の設立登記法人,広島県,広島市西区,草津南３丁目４番２２号,,34,104,7330863,,,,,,,2022-09-20,1,,,,,ユタカシカクリニック,0
188,1250001019773,新規,0,2022-09-20,2022-09-20,株式会社ＥＯＴ,,株式会社,山口県,下関市,椋野町３丁目２２番３８号,,35,201,7510816,,,,,,,2022-09-20,1,,,,,エオット,0
189,1280001008781,新規,0,2022-09-20,2022-09-20,右田本店株式会社,,株式会社,島根県,益田市,本町３番３０号,,32,204,6980005,,,,,,,2022-09-20,1,,,,,ミギタホンテン,0
197,1290003012962,新規,0,2022-09-20,2022-09-20,合同会社ヨネナガ商事,,合同会社,福岡県,福岡市中央区,六本松２丁目１２番６－３０４号,,40,133,8100044,,,,,,,2022-09-20,1,,,,,ヨネナガショウジ,0
199,1300001013069,新規,0,2022-09-20,2022-09-20,株式会社ＫＥＩＣＨＯ,,株式会社,佐賀県,佐賀市,駅前中央２丁目７番２４－９０１号,,41,201,8400801,,,,,,,2022-09-20,1,,,,,ケイチョウ,0
201,1310001018034,新規,0,2022-09-20,2022-09-20,株式会社一汰建設,,株式会社,長崎県,佐世保市,塩浸町６０６番地１,,42,202,8593154,,,,,,,2022-09-20,1,,,,,,0
206,1330001030061,新規,0,2022-09-20,2022-09-20,成和観光株式会社,,株式会社,熊本県,熊本市西区,河内町船津２７０９番地,,43,103,8615347,,,,,,,2022-09-20,1,,,,,,0
208,1340005009506,新規,0,2022-09-20,2022-09-20,医療法人章史会,,その他の設立登記法人,鹿児島県,姶良市,西餅田３３４４番地２並木ビル１Ｆ,,46,225,8995431,,,,,,,2022-09-20,1,,,,,ショウシカイ,0
209,1360001030967,新規,0,2022-09-20,2022-09-20,株式会社ジャパンエンターテイメントホールディングス,,株式会社,沖縄県,名護市,大中１丁目１９番２４号,,47,209,9050017,,,,,,,2022-09-20,1,,,,,ジャパンエンターテイメントホールディングス,0
232,1430003014283,新規,0,2022-09-20,2022-09-20,合同会社Ｎ‐ＦＬＯＷ,,合同会社,北海道,札幌市中央区,南五条西７丁目９－１－７０１,,01,101,0640805,,,,,,,2022-09-20,1,,,,,エヌフロウ,0
246,2010001229528,新規,0,2022-09-20,2022-09-20,株式会社ＫＭ‐ＬＩＮＥ,,株式会社,東京都,千代田区,神田神保町１丁目５２番１２号,,13,101,1010051,,,,,,,2022-09-20,1,,,,,ケーエムライン,0
247,2010001229536,新規,0,2022-09-20,2022-09-20,株式会社スマートポスト,,株式会社,東京都,千代田区,九段南１丁目５番６号りそな九段ビル５Ｆ,,13,101,1020074,,,,,,,2022-09-20,1,,,,,スマートポスト,0
248,2010001229593,新規,0,2022-09-20,2022-09-20,パスファインダー株式会社,,株式会社,東京都,千代田区,神田錦町２丁目５番９号３０２,,13,101,1010054,,,,,,,2022-09-20,1,,,,,パスファインダー,0
249,2010001229602,新規,0,2022-09-20,2022-09-20,ｔａｂｌｅＸ株式会社,,株式会社,東京都,中央区,銀座１丁目２２番１１号銀座大竹ビジデンス２階,,13,102,1040061,,,,,,,2022-09-20,1,,,,,テーブルクロス,0
257,2010401169695,新規,0,2022-09-20,2022-09-20,雪沢株式会社,,株式会社,東京都,港区,三田１丁目２番１８号ＴＴＤビル,,13,103,1080073,,,,,,,2022-09-20,1,,,,,ユキザワ,0
258,2010401169753,新規,0,2022-09-20,2022-09-20,株式会社日本遺産情報センター,,株式会社,東京都,港区,三田５丁目８番８－４０５号,,13,103,1080073,,,,,,,2022-09-20,1,,,,,ニホンイサンジョウホウセンター,0
259,2010401169836,新規,0,2022-09-20,2022-09-20,Ｂ２Ｂ２株式会社,,株式会社,東京都,港区,東新橋１丁目７番１号,,13,103,1050021,,,,,,,2022-09-20,1,,,,,ビーツービーツー,0
262,2010403028503,新規,0,2022-09-20,2022-09-20,合同会社ＫＹＹＡＨ,,合同会社,東京都,港区,白金３丁目１番１３号日恵ビル２階,,13,103,1080072,,,,,,,2022-09-20,1,,,,,キーヤー,0
263,2010405021398,新規,0,2022-09-20,2022-09-20,一般社団法人メディカルカーボンニュートラル研究機構,,その他の設立登記法人,東京都,港区,海岸１丁目１６番２号インターコンチネンタルトウキョウベイ,,13,103,1050022,,,,,,,2022-09-20,1,,,,,メディカルカーボンニュートラルケンキュウキコウ,0
264,2010503006722,新規,0,2022-09-20,2022-09-20,合同会社アスコア,,合同会社,東京都,台東区,浅草橋５丁目２－３鈴和ビル２階,,13,106,1110053,,,,,,,2022-09-20,1,,,,,アスコア,0
266,2010605004129,新規,0,2022-09-20,2022-09-20,医療法人社団慧療会,,その他の設立登記法人,東京都,江東区,大島１丁目２９番４号１０１号室,,13,108,1360072,,,,,,,2022-09-20,1,,,,,ケイリョウカイ,0
270,2010901051650,新規,0,2022-09-20,2022-09-20,株式会社ティ・オー・フォー,,株式会社,東京都,世田谷区,深沢８丁目１９番３７号,,13,112,1580081,,,,,,,2022-09-20,1,,,,,ティオーフォー,0
271,2010903007650,新規,0,2022-09-20,2022-09-20,Ｒｉｏ合同会社,,合同会社,東京都,世田谷区,尾山台３丁目１３番１号,,13,112,1580086,,,,,,,2022-09-20,1,,,,,リオ,0
279,2011001149781,新規,0,2022-09-20,2022-09-20,株式会社神宮前キャピタル,,株式会社,東京都,渋谷区,神宮前２丁目１８番１９号,,13,113,1500001,,,,,,,2022-09-20,1,,,,,ジングウマエキャピタル,0
280,2011001149807,新規,0,2022-09-20,2022-09-20,ＰｒｉｍｅＬｉｆｅ株式会社,,株式会社,東京都,渋谷区,富ヶ谷２丁目６番３－４０３号,,13,113,1510063,,,,,,,2022-09-20,1,,,,,プライムライフ,0
281,2011001149815,新規,0,2022-09-20,2022-09-20,株式会社ＭＯＫＡ,,株式会社,東京都,目黒区,三田２丁目７－２２,,13,110,1530062,,,,,,,2022-09-20,1,,,,,モカ,0
285,2011101100231,新規,0,2022-09-20,2022-09-20,株式会社Ｂｅａｎｓ,,株式会社,東京都,新宿区,中落合２丁目１５番７号,,13,104,1610032,,,,,,,2022-09-20,1,,,,,ビーンズ,0
287,2011401024551,新規,0,2022-09-20,2022-09-20,株式会社清閑堂,,株式会社,東京都,板橋区,高島平５丁目３番１号,,13,119,1750082,,,,,,,2022-09-20,1,,,,,セイカンドウ,0
288,2011701025621,新規,0,2022-09-20,2022-09-20,株式会社メイコー・サービス,,株式会社,東京都,江戸川区,東葛西５丁目１番１号,,13,123,1340084,,,,,,,2022-09-20,1,,,,,メイコーサービス,0
291,2012301013140,新規,0,2022-09-20,2022-09-20,株式会社アークン,,株式会社,東京都,町田市,山崎１丁目４番９号,,13,209,1950075,,,,,,,2022-09-20,1,,,,,,0
301,2013301049678,新規,0,2022-09-20,2022-09-20,株式会社ＨＡＶＥ　ＦＵＮ　ＴＯＧＥＴＨＥＲ,,株式会社,東京都,豊島区,東池袋５丁目７番３号アゼリア東池袋４０１,,13,116,1700013,,,,,,,2022-09-20,1,,,,,ハブファントゥギャザー,0
318,2021003012160,新規,0,2022-09-20,2022-09-20,アラヘイケア合同会社,,合同会社,神奈川県,伊勢原市,串橋２０５番地の１２,,14,214,2591136,,,,,,,2022-09-20,1,,,,,アラヘイケア,0
331,2030003020222,新規,0,2022-09-20,2022-09-20,合同会社ＡＬＬＭＥＲＵ,,合同会社,埼玉県,川口市,安行出羽１丁目９番２３号,,11,203,3340052,,,,,,,2022-09-20,1,,,,,アルメール,0
334,2040001125113,新規,0,2022-09-20,2022-09-20,ＤＤＤ株式会社,,株式会社,千葉県,我孫子市,栄２４－７,,12,222,2701141,,,,,,,2022-09-20,1,,,,,ディーディーディー,0
336,2040003020857,新規,0,2022-09-20,2022-09-20,ＡＫＡＩＮ　ＩＮＴＥＲＮＡＴＩＯＮＡＬ合同会社,,合同会社,千葉県,山武郡横芝光町,牛熊８８２番地,,12,410,2891742,,,,,,,2022-09-20,1,,,,,アケーンインターナショナル,0
337,2040005012654,新規,0,2022-09-20,2022-09-20,飯岡町農業協同組合,,その他の設立登記法人,千葉県,旭市,飯岡２２８９番地,,12,215,2892705,,,,,,,2022-09-20,1,,,,,,0
339,2050001051696,新規,0,2022-09-20,2022-09-20,株式会社サポートライフ,,株式会社,茨城県,筑西市,横塚１３番地１,,08,227,3091116,,,,,,,2022-09-20,1,,,,,サポートライフ,0
345,2060001035269,新規,0,2022-09-20,2022-09-20,株式会社財智会,,株式会社,栃木県,小山市,城東４丁目１９番２５号,,09,208,3230807,,,,,,,2022-09-20,1,,,,,ザイチカイ,0
351,2080001025193,新規,0,2022-09-20,2022-09-20,株式会社アメイズ,,株式会社,静岡県,静岡市駿河区,宮本町７番３３号,,22,102,4228065,,,,,,,2022-09-20,1,,,,,アメイズ,0
366,2120001248855,新規,0,2022-09-20,2022-09-20,株式会社ワイズコーポレーション,,株式会社,大阪府,大阪市城東区,関目６丁目１４番Ａ－４１７号,,27,118,5360008,,,,,,,2022-09-20,1,,,,,ワイズコーポレーション,0
367,2120001248871,新規,0,2022-09-20,2022-09-20,株式会社ゆう,,株式会社,大阪府,大阪市都島区,高倉町３丁目８番６号,,27,102,5340011,,,,,,,2022-09-20,1,,,,,ユウ,0
368,2120001248896,新規,0,2022-09-20,2022-09-20,フリーコム株式会社,,株式会社,大阪府,大阪市西淀川区,柏里２丁目７番２６号ラ・ピース塚本５０２号室,,27,113,5550022,,,,,,,2022-09-20,1,,,,,フリーコム,0
369,2120001248913,新規,0,2022-09-20,2022-09-20,株式会社ＳＥＴＯ,,株式会社,大阪府,大阪市東住吉区,山坂５丁目１４番１８号,,27,121,5460035,,,,,,,2022-09-20,1,,,,,セト,0
370,2120001248921,新規,0,2022-09-20,2022-09-20,エイエイ株式会社,,株式会社,大阪府,大阪市中央区,船場中央２丁目１番４号船場センタービル４号館地下一階Ｂ１０８ＲＯＹＡＬＯＦＦＩＣＥ内,,27,128,5410055,,,,,,,2022-09-20,1,,,,,エイエイ,0
374,2120003022473,新規,0,2022-09-20,2022-09-20,東洋昇合同会社,,合同会社,大阪府,大阪市生野区,巽北１丁目２１番２９号生野ハイツ３１３号室,00127879,27,116,5440004,,,,,,,2022-09-20,1,,,,,トウヨウショウ,0
375,2120103004859,新規,0,2022-09-20,2022-09-20,ａＲｉｎｇ合同会社,,合同会社,大阪府,泉南郡熊取町,若葉１丁目１１－２３,,27,361,5900433,,,,,,,2022-09-20,1,,,,,アリン,0
378,2120901046508,新規,0,2022-09-20,2022-09-20,株式会社ＯｒＬｉｎＫ,,株式会社,大阪府,豊中市,新千里西町２丁目５番４号,,27,203,5600083,,,,,,,2022-09-20,1,,,,,オルリンク,0
379,2122001036249,新規,0,2022-09-20,2022-09-20,山勝工業株式会社,,株式会社,大阪府,八尾市,南木の本９丁目４９番地の２,,27,212,5810042,,,,,,,2022-09-20,1,,,,,ヤマカツコウギョウ,0
383,2130001072643,新規,0,2022-09-20,2022-09-20,株式会社オオノホーム,,株式会社,京都府,京都市山科区,音羽野田町２０トップビル２階,,26,110,6078075,,,,,,,2022-09-20,1,,,,,オオノホーム,0
389,2140005026314,新規,0,2022-09-20,2022-09-20,一般社団法人淡路島花みどり協会,,その他の設立登記法人,兵庫県,淡路市,里３０番地１,,28,226,6562143,,,,,,,2022-09-20,1,,,,,アワジシマハナミドリキョウカイ,0
396,2180001153075,新規,0,2022-09-20,2022-09-20,株式会社オート,,株式会社,愛知県,春日井市,味美町２丁目１０６番地２,,23,206,4860968,,,,,,,2022-09-20,1,,,,,オート,0
397,2180003024258,新規,0,2022-09-20,2022-09-20,カシフ・エンタープライズ合同会社,,合同会社,愛知県,名古屋市中区,錦１丁目１７番１３号,,23,106,4600003,,,,,,,2022-09-20,1,,,,,カシフエンタープライズ,0
398,2180003024274,新規,0,2022-09-20,2022-09-20,合同会社ふく,,合同会社,愛知県,名古屋市北区,中切町１丁目７９番地,,23,103,4620051,,,,,,,2022-09-20,1,,,,,フク,0
400,2180301036649,新規,0,2022-09-20,2022-09-20,株式会社ワタルマシン,,株式会社,愛知県,岡崎市,寿町３番地７,,23,202,4442116,,,,,,,2022-09-20,1,,,,,ワタルマシン,0
406,2230003001912,新規,0,2022-09-20,2022-09-20,合同会社稀代,,合同会社,富山県,富山市,婦中町増田８１番地６,,16,201,9392714,,,,,,,2022-09-20,1,,,,,キダイ,0
409,2240005015455,新規,0,2022-09-20,2022-09-20,医療法人ＫＲＣ,,その他の設立登記法人,広島県,広島市西区,楠木町３丁目１番１０号,,34,104,7330002,,,,,,,2022-09-20,1,,,,,ケイアールシー,0
423,2330001030119,新規,0,2022-09-20,2022-09-20,千徳株式会社,00127880,株式会社,熊本県,熊本市北区,徳王１丁目１５番１４号,,43,105,8615525,,,,,,,2022-09-20,1,,,,,セントク,0
427,2360001030982,新規,0,2022-09-20,2022-09-20,株式会社ＹＴＭハウジング,,株式会社,沖縄県,宮古島市,平良字下里７６０番地３カーサビアンカ１０３,,47,214,9060013,,,,,,,2022-09-20,1,,,,,ワイティエムハウジング,0
432,2390001017028,新規,0,2022-09-20,2022-09-20,株式会社グリット,,株式会社,山形県,山形市,東原町３丁目３番５０号,,06,201,9900034,,,,,,,2022-09-20,1,,,,,グリット,0
434,2420001018014,新規,0,2022-09-20,2022-09-20,株式会社倖誠,,株式会社,青森県,青森市,大字新城字平岡１５１番地６３,,02,201,0380042,,,,,,,2022-09-20,1,,,,,コウセイ,0
439,2430001087529,新規,0,2022-09-20,2022-09-20,株式会社ケイ・エス・マシナリー,,株式会社,北海道,札幌市手稲区,曙三条２丁目１番１８号,00127881,01,109,0060833,,,,,,,2022-09-20,1,,,,,ケイエスマシナリー,0
441,2430003014282,新規,0,2022-09-20,2022-09-20,藤原運送合同会社,,合同会社,北海道,札幌市白石区,中央二条５丁目９番１０号,,01,104,0030012,,,,,,,2022-09-20,1,,,,,フジワラウンソウ,0
442,2430005014561,新規,0,2022-09-20,2022-09-20,医療法人芳正会,,その他の設立登記法人,北海道,札幌市北区,新琴似一条１２丁目６番１号,,01,102,0010901,,,,,,,2022-09-20,1,,,,,ホウショウカイ,0
453,3010003038686,新規,0,2022-09-20,2022-09-20,合同会社プライム,,合同会社,東京都,中央区,湊２丁目１５番１４号,,13,102,1040043,,,,,,,2022-09-20,1,,,,,プライム,0
479,3011001149814,新規,0,2022-09-20,2022-09-20,ＭＳＳ株式会社,,株式会社,東京都,渋谷区,神宮前６丁目２３－４桑野ビル２Ｆ,,13,113,1500001,,,,,,,2022-09-20,1,,,,,エムエスエス,0
481,3011003015394,新規,0,2022-09-20,2022-09-20,合同会社イシン,,合同会社,東京都,渋谷区,代々木５丁目２９番８－３１２号,,13,113,1510053,,,,,,,2022-09-20,1,,,,,イシン,0
489,3011603003699,新規,0,2022-09-20,2022-09-20,ＡＤＨＩＲＡ　ＩＮＴＥＲＮＡＴＩＯＮＡＬ合同会社,,合同会社,東京都,練馬区,上石神井４丁目３０番２号,,13,120,1770044,,,,,,,2022-09-20,1,,,,,アドヒラインターナショナル,0
492,3012403005588,新規,0,2022-09-20,2022-09-20,ＡＭＡＭＮ合同会社,,合同会社,東京都,狛江市,和泉本町１丁目１－２エコルマ２、２Ｆ,,13,219,2010003,,,,,,,2022-09-20,1,,,,,アマウン,0
500,3020001148230,新規,0,2022-09-20,2022-09-20,株式会社ＮＯＮＯＮ,,株式会社,神奈川県,横浜市港南区,日野７丁目３０－６－２０２,,14,111,2340051,,,,,,,2022-09-20,1,,,,,ノノン,0
502,3020003022400,新規,0,2022-09-20,2022-09-20,ムエタイ空合同会社,,合同会社,神奈川県,川崎市川崎区,中島２丁目１３－４テルス川崎中島１０５,,14,131,2100806,,,,,,,2022-09-20,1,,,,,,0
503,3020003022417,新規,0,2022-09-20,2022-09-20,デルフィナス合同会社,,合同会社,神奈川県,川崎市中原区,井田２丁目１３番地１号,,14,133,2110035,,,,,,,2022-09-20,1,,,,,デルフィナス,0
506,3021003012135,新規,0,2022-09-20,2022-09-20,ウエルビーイング・ライフ合同会社,,合同会社,神奈川県,鎌倉市,坂ノ下１番９号,,14,204,2480021,,,,,,,2022-09-20,1,,,,,ウエルビーイングライフ,0
523,3040001125070,新規,0,2022-09-20,2022-09-20,株式会社ゼイオン,,株式会社,千葉県,船橋市,夏見２丁目１０番１０号,,12,204,2730865,,,,,,,2022-09-20,1,,,,,ゼイオン,0
524,3040001125129,新規,0,2022-09-20,2022-09-20,泰＿＿苑商事株式会社,00127877,株式会社,千葉県,松戸市,西馬橋蔵元町５５,,12,207,2710046,,,,,,,2022-09-20,1,,,,,タイシンインエンショウジ,0
525,3040003020856,新規,0,2022-09-20,2022-09-20,レアレアサービス合同会社,,合同会社,千葉県,我孫子市,都部９９番地１,,12,222,2701131,,,,,,,2022-09-20,1,,,,,レアレアサービス,0
531,3050001051687,新規,0,2022-09-20,2022-09-20,株式会社ロクイチ,,株式会社,茨城県,行方市,吉川１０３８番地,,08,233,3111711,,,,,,,2022-09-20,1,,,,,ロクイチ,0
532,3050001051695,新規,0,2022-09-20,2022-09-20,株式会社ＭＡＲＩＩ,,株式会社,茨城県,つくば市,二の宮１丁目２３番地４,,08,220,3050051,,,,,,,2022-09-20,1,,,,,マリイ,0
540,3060001035284,新規,0,2022-09-20,2022-09-20,株式会社ＦＵＪＩＹＡＭＡ,,株式会社,栃木県,鹿沼市,東町３丁目７－２０,,09,205,3220022,,,,,,,2022-09-20,1,,,,,フジヤマ,0
544,3070003004625,新規,0,2022-09-20,2022-09-20,ＫＡＩＳＨＩ合同会社,,合同会社,群馬県,沼田市,岩本町２０８番地１,,10,206,3780021,,,,,,,2022-09-20,1,,,,,カイシ,0
546,3080101023534,新規,0,2022-09-20,2022-09-20,株式会社かつまたグリーン,,株式会社,静岡県,裾野市,佐野１１６４番地の３,,22,220,4101118,,,,,,,2022-09-20,1,,,,,カツマタグリーン,0
550,3080103002651,新規,0,2022-09-20,2022-09-20,合同会社ＡＲＡＳＨＩ　ＬＩＦＥ,,合同会社,静岡県,沼津市,今沢２０４番の４,,22,203,4100875,,,,,,,2022-09-20,1,,,,,アラシライフ,0
551,3080401026047,新規,0,2022-09-20,2022-09-20,株式会社みかん工房,,株式会社,静岡県,浜松市北区,三ヶ日町宇志５２６番地の１,,22,135,4311404,,,,,,,2022-09-20,1,,,,,ミカンコウボウ,0
571,3120001248904,新規,0,2022-09-20,2022-09-20,Ｍｉｃｈｉｎｏｒｉ株式会社,,株式会社,大阪府,大阪市北区,鶴野町４－１１朝日プラザ梅田ビル２Ｆ－４,,27,127,5300014,,,,,,,2022-09-20,1,,,,,ミチノリ,0
577,3120003022489,新規,0,2022-09-20,2022-09-20,合同会社ＧａｍｅＬｉｎｋｓ,,合同会社,大阪府,大阪市東成区,玉津３丁目８番６－２０３号,,27,115,5370023,,,,,,,2022-09-20,1,,,,,ゲームリンクス,0
579,3120005023196,新規,0,2022-09-20,2022-09-20,一般社団法人日本アダプテッドブレイキン協会,,その他の設立登記法人,大阪府,大阪市北区,同心２丁目５－２２川村同心ビル,,27,127,5300035,,,,,,,2022-09-20,1,,,,,ニホンアダプテッドブレイキンキョウカイ,0
580,3120901046507,新規,0,2022-09-20,2022-09-20,株式会社イシュタル,,株式会社,大阪府,吹田市,寿町１丁目３番１９号,,27,205,5640036,,,,,,,2022-09-20,1,,,,,イシュタル,0
581,3120905006374,新規,0,2022-09-20,2022-09-20,さくら未来協同組合,,その他の設立登記法人,大阪府,摂津市,鶴野３丁目６番１１号,,27,224,5660035,,,,,,,2022-09-20,1,,,,,サクラミライ,0
583,3122001036248,新規,0,2022-09-20,2022-09-20,株式会社ＹＵ　ＪＩＮＧ,,株式会社,大阪府,東大阪市,菱屋西１丁目１７番８号１階,,27,227,5770807,,,,,,,2022-09-20,1,,,,,ユジン,0
592,3130001072626,新規,0,2022-09-20,2022-09-20,株式会社Ｍｅｄｉｘｐｏｓｔ,,株式会社,京都府,京都市下京区,中堂寺南町１３４番地ＡＳＴＥＭビル８階,,26,106,6008813,,,,,,,2022-09-20,1,,,,,メディックスポスト,0
593,3130001072634,新規,0,2022-09-20,2022-09-20,株式会社日本創研,,株式会社,京都府,京都市下京区,中堂寺南町１３４番地京都リサーチパークＡＳＴＥＭ棟８階８Ｄ１７,,26,106,6008813,,,,,,,2022-09-20,1,,,,,ニホンソウケン,0
594,3130001072642,新規,0,2022-09-20,2022-09-20,株式会社Ｃｏｎｎｅｃｔ,,株式会社,京都府,京都市山科区,音羽乙出町５番地萬年青ガーデン６０５,,26,110,6078074,,,,,,,2022-09-20,1,,,,,コネクト,0
599,3140001127387,新規,0,2022-09-20,2022-09-20,株式会社桃喜社,,株式会社,兵庫県,宝塚市,山手台西２丁目４番１号,,28,214,6650886,,,,,,,2022-09-20,1,,,,,モモキシャ,0
603,3160003002669,新規,0,2022-09-20,2022-09-20,Ｊａｐａｎ　Ｏｒｂｉｃ合同会社,,合同会社,滋賀県,彦根市,新海浜２丁目１０番地５,,25,202,5211136,,,,,,,2022-09-20,1,,,,,ジャパンオルビック,0
608,3180001153058,新規,0,2022-09-20,2022-09-20,株式会社イワショー,,株式会社,愛知県,一宮市,貴船２丁目１３番３８号,,23,203,4910037,,,,,,,2022-09-20,1,,,,,イワショー,0
610,3180003024265,新規,0,2022-09-20,2022-09-20,ＭＴＩ合同会社,,合同会社,愛知県,名古屋市天白区,島田２丁目３０１番地,,23,116,4680056,,,,,,,2022-09-20,1,,,,,エムティーアイ,0
611,3180003024273,新規,0,2022-09-20,2022-09-20,合同会社桜雅,,合同会社,愛知県,瀬戸市,下半田川町６４８番地,,23,204,4801202,,,,,,,2022-09-20,1,,,,,オウガ,0
622,3240003005804,新規,0,2022-09-20,2022-09-20,ＡＳＯＢＵ　ＤＥＳＩＧＮ合同会社,,合同会社,広島県,広島市中区,大手町１丁目１番２６号大手町１番ビル３０５,,34,101,7300051,,,,,,,2022-09-20,1,,,,,アソブデザイン,0
623,3240005015454,新規,0,2022-09-20,2022-09-20,医療法人ＴＤＣ津島歯科クリニック,,その他の設立登記法人,広島県,広島市中区,広瀬町７番５号,,34,101,7300804,,,,,,,2022-09-20,1,,,,,ティーディーシーツシマシカクリニック,0
640,3320001019335,新規,0,2022-09-20,2022-09-20,株式会社龍軌,,株式会社,大分県,大分市,大字津守１４０－３,,44,201,8700945,,,,,,,2022-09-20,1,,,,,タツキ,0
660,3430005014560,新規,0,2022-09-20,2022-09-20,医療法人社団北川会,,その他の設立登記法人,北海道,滝川市,栄町２丁目５番１３号,,01,225,0730031,,,,,,,2022-09-20,1,,,,,シャダンキタガワカイ,0
661,3460103001482,新規,0,2022-09-20,2022-09-20,合同会社エスアール,,合同会社,北海道,帯広市,西二条南１９丁目１８番地３,,01,207,0800012,,,,,,,2022-09-20,1,,,,,エスアール,0
666,3500001024465,新規,0,2022-09-20,2022-09-20,株式会社マルシン工業,,株式会社,愛媛県,今治市,波方町樋口甲２６７番地,00127878,38,202,7992102,,,,,,,2022-09-20,1,,,,,マルシンコウギョウ,0
672,4010001229609,新規,0,2022-09-20,2022-09-20,株式会社アンピー,,株式会社,東京都,中央区,銀座１丁目２２番１１号銀座大竹ビジデンス２階,,13,102,1040061,,,,,,,2022-09-20,1,,,,,アンピー,0
674,4010003038702,新規,0,2022-09-20,2022-09-20,合同会社ぐーな商会,,合同会社,東京都,文京区,本駒込２丁目２９番１９－３０１号,,13,105,1130021,,,,,,,2022-09-20,1,,,,,グーナショウカイ,0
689,4010401169710,新規,0,2022-09-20,2022-09-20,株式会社ＲｅａｌＯｎｅＦｏｒｅｓｔ,,株式会社,東京都,港区,海岸１丁目１－１－１６０４,,13,103,1050022,,,,,,,2022-09-20,1,,,,,リアルワンフォレスト,0
690,4010401169834,新規,0,2022-09-20,2022-09-20,Ｔ．インベスト株式会社,,株式会社,東京都,港区,西麻布３丁目１７番１７－２０９号,,13,103,1060031,,,,,,,2022-09-20,1,,,,,ティーインベスト,0
694,4010405021405,新規,0,2022-09-20,2022-09-20,一般社団法人Ａｓｔｅｒｏｉｄ,,その他の設立登記法人,東京都,港区,元赤坂１丁目１番８号赤坂コミュニティビル４階,,13,103,1070051,,,,,,,2022-09-20,1,,,,,アステロイド,0
696,4010501049325,新規,0,2022-09-20,2022-09-20,株式会社ごとう,,株式会社,東京都,台東区,駒形１丁目１０番９－９０４号,,13,106,1110043,,,,,,,2022-09-20,1,,,,,ゴトウ,0
697,4010501049374,新規,0,2022-09-20,2022-09-20,ＦＩＫＡ株式会社,,株式会社,東京都,台東区,根岸３丁目１１番－９菅田ビル３－Ｃ,,13,106,1100003,,,,,,,2022-09-20,1,,,,,フィーカ,0
711,4010705003425,新規,0,2022-09-20,2022-09-20,一般社団法人個人事業主支援協会,,その他の設立登記法人,東京都,品川区,西五反田７丁目１番１０号Ｕ’ｓ－１ビル８階,,13,109,1410031,,,,,,,2022-09-20,1,,,,,コジンジギョウヌシシエンキョウカイ,0
714,4010901051649,新規,0,2022-09-20,2022-09-20,株式会社ユナタス,,株式会社,東京都,世田谷区,砧５丁目１番４号,,13,112,1570073,,,,,,,2022-09-20,1,,,,,ユナタス,0
718,4011001149796,新規,0,2022-09-20,2022-09-20,株式会社ＯＮＥ　Ｒｅｃ．,,株式会社,東京都,渋谷区,渋谷２丁目１９番１５－６０９号宮益坂ビルディング,,13,113,1500002,,,,,,,2022-09-20,1,,,,,ワンレック,0
719,4011001149805,新規,0,2022-09-20,2022-09-20,株式会社ＢＯＬＴＯＮ,,株式会社,東京都,渋谷区,神宮前２丁目６番１４号,,13,113,1500001,,,,,,,2022-09-20,1,,,,,ボルトン,0
720,4011003015039,新規,0,2022-09-20,2022-09-20,合同会社Ｖｅｎｉ,,合同会社,東京都,渋谷区,神宮前６丁目２３番４号桑野ビル２階,,13,113,1500001,,,,,,,2022-09-20,1,,,,,ベニ,0
721,4011003015402,新規,0,2022-09-20,2022-09-20,合同会社ｔｕｂａｍｅ,,合同会社,東京都,渋谷区,道玄坂１丁目１０番８号渋谷道玄坂東急ビル２Ｆ－Ｃ,,13,113,1500043,,,,,,,2022-09-20,1,,,,,ツバメ,0
722,4011101100246,新規,0,2022-09-20,2022-09-20,傑瑞新材料株式会社,,株式会社,東京都,新宿区,西新宿３丁目３番１３号西新宿水間ビル６階,,13,104,1600023,,,,,,,2022-09-20,1,,,,,ケツズイシンザイリョウ,0
723,4011103012183,新規,0,2022-09-20,2022-09-20,合同会社Ｔｒｉｏｎ　Ｇａｍｅ,,合同会社,東京都,新宿区,西新宿３丁目３番１３号西新宿水間ビル６階,,13,104,1600023,,,,,,,2022-09-20,1,,,,,トリオンゲーム,0
724,4011201024106,新規,0,2022-09-20,2022-09-20,株式会社モダンシングス,,株式会社,東京都,中野区,新井２丁目３０番１１号,,13,114,1650026,,,,,,,2022-09-20,1,,,,,モダンシングス,0
725,4011303004526,新規,0,2022-09-20,2022-09-20,セル合同会社,,合同会社,東京都,杉並区,和田１丁目１９番１３－７０５号ザ・パークハウス杉並和田,,13,115,1660012,,,,,,,2022-09-20,1,,,,,セル,0
732,4011801041293,新規,0,2022-09-20,2022-09-20,惠創株式会社,,株式会社,東京都,葛飾区,新小岩１丁目２６番１７号レミハウス２０２号室,,13,122,1240024,,,,,,,2022-09-20,1,,,,,ケイソウ,0
734,4012703002540,新規,0,2022-09-20,2022-09-20,合同会社ドゥイット,,合同会社,東京都,小平市,大沼町４丁目２８番１６－８号,,13,211,1870001,,,,,,,2022-09-20,1,,,,,ドゥイット,0
749,4020001148238,新規,0,2022-09-20,2022-09-20,株式会社ｉ　ｔｅｃ　ｐｌａｎｎｉｎｇ,,株式会社,神奈川県,川崎市宮前区,有馬７丁目１６番９号,,14,136,2160003,,,,,,,2022-09-20,1,,,,,アイテックプランニング,0
750,4020001148246,新規,0,2022-09-20,2022-09-20,株式会社ＲｅＣＴ,,株式会社,神奈川県,川崎市幸区,小向西町１丁目７１番地１,,14,132,2120004,,,,,,,2022-09-20,1,,,,,レクト,0
755,4020003022390,新規,0,2022-09-20,2022-09-20,合同会社Ｎアソシエイツ,,合同会社,神奈川県,川崎市幸区,塚越２丁目２３７番地,,14,132,2120024,,,,,,,2022-09-20,1,,,,,エヌアソシエイツ,0
757,4021001077014,新規,0,2022-09-20,2022-09-20,株式会社新形態,,株式会社,神奈川県,鎌倉市,鎌倉山２丁目１９番３１号,,14,204,2480031,,,,,,,2022-09-20,1,,,,,シンケイタイ,0
758,4021001077022,新規,0,2022-09-20,2022-09-20,株式会社エムエヌスタジオ,,株式会社,神奈川県,三浦郡葉山町,下山口５２０番地の６,,14,301,2400116,,,,,,,2022-09-20,1,,,,,エムエヌスタジオ,0
774,4040001125111,新規,0,2022-09-20,2022-09-20,株式会社ＮＥＯＬＩＦＥ,,株式会社,千葉県,流山市,東初石４丁目１９０番地の６オークヒルズＩＩＩＢ－２,00127882,12,220,2700114,,,,,,,2022-09-20,1,,,,,ネオライフ,0
778,4040003020830,新規,0,2022-09-20,2022-09-20,ＭＴ合同会社,,合同会社,千葉県,市川市,北方町４丁目１４４１番地２,,12,203,2720811,,,,,,,2022-09-20,1,,,,,エムティー,0
779,4040003020847,新規,0,2022-09-20,2022-09-20,合同会社旭レント,,合同会社,千葉県,山武市,横田１０７３－８８,,12,237,2891226,,,,,,,2022-09-20,1,,,,,アサヒレント,0
780,4050001051694,新規,0,2022-09-20,2022-09-20,株式会社かれんさ,,株式会社,茨城県,取手市,取手２丁目１２番１３号,,08,217,3020004,,,,,,,2022-09-20,1,,,,,カレンサ,0
782,4050005013146,新規,0,2022-09-20,2022-09-20,一般社団法人デンタルジャパン,,その他の設立登記法人,茨城県,つくば市,松代１丁目１８－３,,08,220,3050035,,,,,,,2022-09-20,1,,,,,デンタルジャパン,0
785,4070001039647,新規,0,2022-09-20,2022-09-20,株式会社レナ,,株式会社,群馬県,高崎市,上佐野町２６０番地３グリーンハイツ１０５号,,10,202,3700857,,,,,,,2022-09-20,1,,,,,レナ,0
788,4080101023533,新規,0,2022-09-20,2022-09-20,株式会社Ｇｏ　Ｅｎ　Ｔｉｍｅ,,株式会社,静岡県,伊豆の国市,田京２４１番地,,22,225,4102315,,,,,,,2022-09-20,1,,,,,ゴーエンタイム,0
806,4120001248878,新規,0,2022-09-20,2022-09-20,暁林株式会社,,株式会社,大阪府,大阪市西成区,鶴見橋１丁目６番１９号塩谷マンション２０３号,,27,122,5570031,,,,,,,2022-09-20,1,,,,,ギョウリン,0
807,4120001248903,新規,0,2022-09-20,2022-09-20,株式会社ｃｕｏｒｅ,,株式会社,大阪府,大阪市平野区,平野馬場２丁目５番６号メゾン２４０，３Ａ号,,27,126,5470048,,,,,,,2022-09-20,1,,,,,クオーレ,0
808,4120001248911,新規,0,2022-09-20,2022-09-20,株式会社三鷹パートナーズ,,株式会社,大阪府,大阪市生野区,巽西１丁目９番２６号,00127884,27,116,5440012,,,,,,,2022-09-20,1,,,,,ミタカパートナーズ,0
809,4120001248928,新規,0,2022-09-20,2022-09-20,福瑞株式会社,,株式会社,大阪府,大阪市東成区,大今里西３丁目２番２９－３０３号,,27,115,5370014,,,,,,,2022-09-20,1,,,,,フクズイ,0
814,4120003022455,新規,0,2022-09-20,2022-09-20,合同会社ｃｈｉｎｉ,,合同会社,大阪府,大阪市中央区,高麗橋１丁目７番７－５４０２号,,27,128,5410043,,,,,,,2022-09-20,1,,,,,チニ,0
816,4120005023195,新規,0,2022-09-20,2022-09-20,一般社団法人ゆうじん,,その他の設立登記法人,大阪府,大阪市阿倍野区,阿倍野筋３丁目１０番１－１５０２号,,27,119,5450052,,,,,,,2022-09-20,1,,,,,ユウジン,0
820,4122001036247,新規,0,2022-09-20,2022-09-20,株式会社ナラティブ・ガイド,,株式会社,大阪府,大東市,灰塚３丁目３番１０号,,27,218,5740043,,,,,,,2022-09-20,1,,,,,ナラティブガイド,0
825,4130001072633,新規,0,2022-09-20,2022-09-20,株式会社レインボープレゼンツ,,株式会社,京都府,京都市中京区,三条通烏丸西入る御倉町６８プリオール烏丸三条３０２,,26,104,6040000,,,,,,,2022-09-20,1,,,,,レインボープレゼンツ,0
826,4130001072641,新規,0,2022-09-20,2022-09-20,株式会社Ｎａ‐Ｔｓｕ,,株式会社,京都府,京都市中京区,河原町通二条下る二丁目下丸屋町４０３番地,,26,104,6040000,,,,,,,2022-09-20,1,,,,,ナツ,0
828,4130005016578,新規,0,2022-09-20,2022-09-20,一般社団法人命と創造に愛を,,その他の設立登記法人,京都府,京都市左京区,松ケ崎井出ケ海道町５番地１グレースと～べえ６０２号,,26,103,6060931,,,,,,,2022-09-20,1,,,,,イノチトソウゾウニアイヲ,0
830,4140001127361,新規,0,2022-09-20,2022-09-20,Ｔ‐コネクト株式会社,,株式会社,兵庫県,豊岡市,庄境１２０番地の１,,28,209,6680873,,,,,,,2022-09-20,1,,,,,ティーコネクト,0
831,4140001127378,新規,0,2022-09-20,2022-09-20,スロープ株式会社,,株式会社,兵庫県,神戸市中央区,中町通４丁目２番１１号村上ビル４階,,28,110,6500027,,,,,,,2022-09-20,1,,,,,スロープ,0
832,4140001127394,新規,0,2022-09-20,2022-09-20,嘉禾貿易株式会社,,株式会社,兵庫県,神戸市中央区,熊内町１丁目１－１５－１０３,,28,110,6510056,,,,,,,2022-09-20,1,,,,,ヨノギボウエキ,0
856,4190003004091,新規,0,2022-09-20,2022-09-20,Ｍ’ｓ　Ｗｅｂｍａｒｋｅｔｉｎｇ合同会社,,合同会社,三重県,津市,久居北口町２６６１番地７９,,24,201,5141105,,,,,,,2022-09-20,1,,,,,エムズウェブマーケティング,0
857,4200001040459,新規,0,2022-09-20,2022-09-20,株式会社アフコム,,株式会社,岐阜県,岐阜市,久保見町７９番地１,,21,201,5008349,,,,,,,2022-09-20,1,,,,,アフコム,0
863,4240001060338,新規,0,2022-09-20,2022-09-20,株式会社ユーノス福山,,株式会社,広島県,福山市,沼隈町大字常石１０８３番地,,34,207,7200313,,,,,,,2022-09-20,1,,,,,ユーノスフクヤマ,0
864,4240001060379,新規,0,2022-09-20,2022-09-20,株式会社セポビル,,株式会社,広島県,広島市中区,上幟町１０番３０－１１０２号,,34,101,7300014,,,,,,,2022-09-20,1,,,,,セポビル,0
865,4240003005803,新規,0,2022-09-20,2022-09-20,Ｂｌｕｅ　Ｏｒａｎｇｅ合同会社,,合同会社,広島県,大竹市,北栄４番５号,,34,211,7390604,,,,,,,2022-09-20,1,,,,,ブルーオレンジ,0
866,4240003005811,新規,0,2022-09-20,2022-09-20,フォローアップサポート合同会社,,合同会社,広島県,広島市西区,南観音２丁目２番４３,,34,104,7330035,,,,,,,2022-09-20,1,,,,,フォローアップサポート,0
877,4290801028901,新規,0,2022-09-20,2022-09-20,株式会社Ｒｅｓｔ,,株式会社,福岡県,北九州市小倉北区,中井２丁目１８番１９号,,40,106,8030836,,,,,,,2022-09-20,1,,,,,レスト,0
878,4320001019342,新規,0,2022-09-20,2022-09-20,株式会社花蔵,,株式会社,大分県,大分市,古国府３丁目１３番３号,,44,201,8700844,,,,,,,2022-09-20,1,,,,,ハナクラ,0
882,4340001025041,新規,0,2022-09-20,2022-09-20,株式会社カーメイトミツドメ,,株式会社,鹿児島県,姶良市,加治木町木田１６７４番地,,46,225,8995241,,,,,,,2022-09-20,1,,,,,カーメイトミツドメ,0
887,4350001017962,新規,0,2022-09-20,2022-09-20,株式会社Ｗ．ＳＴＡＮＤＡＲＤ,,株式会社,宮崎県,宮崎市,大字富吉２２４８番地,,45,201,8802114,,,,,,,2022-09-20,1,,,,,ダブルスタンダード,0
890,4360005006713,新規,0,2022-09-20,2022-09-20,一般社団法人ｈａｈａｈａ,,その他の設立登記法人,沖縄県,中頭郡読谷村,字伊良皆４０１番地,,47,324,9040303,,,,,,,2022-09-20,1,,,,,ハハハ,0
896,4430001087510,新規,0,2022-09-20,2022-09-20,株式会社ＥＯＳ,,株式会社,北海道,札幌市中央区,北四条西１６丁目１番地第一ビル６階,,01,101,0600004,,,,,,,2022-09-20,1,,,,,エオス,0
898,4430005014543,新規,0,2022-09-20,2022-09-20,一般財団法人千の花々みはらしの丘,,その他の設立登記法人,北海道,札幌市中央区,南四条東１丁目フェアフィールド・バイ・マリオット札幌内,,01,101,0600054,,,,,,,2022-09-20,1,,,,,センノハナバナミハラシノオカ,0
901,4470001019261,新規,0,2022-09-20,2022-09-20,株式会社英叶,,株式会社,香川県,三豊市,山本町大野２８４０番地５,,37,208,7680102,,,,,,,2022-09-20,1,,,,,エイト,0
902,4500001024472,新規,0,2022-09-20,2022-09-20,株式会社ローカルカラー,,株式会社,愛媛県,松山市,堀江町甲８４５番地２５,,38,201,7992651,,,,,,,2022-09-20,1,,,,,ローカルカラー,0
911,5010001229624,新規,0,2022-09-20,2022-09-20,株式会社アートと専門家,,株式会社,東京都,中央区,銀座５丁目３－１２壹番館ビル,,13,102,1040061,,,,,,,2022-09-20,1,,,,,アートトセンモンカ,0
918,5010005035548,新規,0,2022-09-20,2022-09-20,社会保険労務士法人三澤経営事務所,,その他の設立登記法人,東京都,中央区,日本橋２丁目１番３号アーバンネット日本橋二丁目ビル１０階,,13,102,1030027,,,,,,,2022-09-20,1,,,,,ミサワケイエイジムショ,0
927,5010401169750,新規,0,2022-09-20,2022-09-20,株式会社ＡＫＥＢＩ,,株式会社,東京都,港区,南青山２丁目２番１５号,,13,103,1070062,,,,,,,2022-09-20,1,,,,,アケビ,0
929,5010403028533,新規,0,2022-09-20,2022-09-20,ＤＥＥ合同会社,,合同会社,東京都,港区,南青山２丁目２番１５号,,13,103,1070062,,,,,,,2022-09-20,1,,,,,ディー,0
930,5010405021404,新規,0,2022-09-20,2022-09-20,一般社団法人Ｓｏｌａｒ２,,その他の設立登記法人,東京都,港区,元赤坂１丁目１番８号赤坂コミュニティビル４階,,13,103,1070051,,,,,,,2022-09-20,1,,,,,ソーラーツー,0
935,5010703006387,新規,0,2022-09-20,2022-09-20,合同会社ＢＡＮＯＵＮＯ,,合同会社,東京都,品川区,南品川５丁目１６番５０－３１４号,,13,109,1400004,,,,,,,2022-09-20,1,,,,,バヌーノ,0
936,5010705003424,新規,0,2022-09-20,2022-09-20,一般社団法人国際キャリアコーチング協会,,その他の設立登記法人,東京都,品川区,西品川２丁目２番２３号,,13,109,1410033,,,,,,,2022-09-20,1,,,,,コクサイキャリアコーチングキョウカイ,0
938,5010801033275,新規,0,2022-09-20,2022-09-20,株式会社ＩＢＹ,,株式会社,東京都,大田区,中馬込１丁目１番１５号,,13,111,1430027,,,,,,,2022-09-20,1,,,,,アイビーワイ,0
942,5010901051631,新規,0,2022-09-20,2022-09-20,イズミヤ防災株式会社,,株式会社,東京都,世田谷区,北烏山９丁目３１番２号,,13,112,1570061,,,,,,,2022-09-20,1,,,,,イズミヤボウサイ,0
943,5010901051648,新規,0,2022-09-20,2022-09-20,株式会社英検塾,,株式会社,東京都,世田谷区,上馬４丁目５番６号ネスグローバルビル１階,,13,112,1540011,,,,,,,2022-09-20,1,,,,,エイケンジュク,0
944,5010901051656,新規,0,2022-09-20,2022-09-20,株式会社ＬＶＣ,,株式会社,東京都,世田谷区,玉川３丁目２０番２号マノア玉川第３ビル５０１号室,,13,112,1580094,,,,,,,2022-09-20,1,,,,,エルブイシー,0
960,5011001149804,新規,0,2022-09-20,2022-09-20,株式会社Ｌａｎｄ＆Ｃｏｍｐａｎｙ,,株式会社,東京都,渋谷区,恵比寿１丁目２１番１８－５０１号,,13,113,1500013,,,,,,,2022-09-20,1,,,,,ランドアンドカンパニー,0
961,5011001149837,新規,0,2022-09-20,2022-09-20,ｉｉＮｏｍｉ株式会社,,株式会社,東京都,目黒区,東山１丁目２９番２号,,13,110,1530043,,,,,,,2022-09-20,1,,,,,イイノミ,0
967,5011105010399,新規,0,2022-09-20,2022-09-20,医療法人社団円遊会,,その他の設立登記法人,東京都,新宿区,高田馬場２丁目１４番８号竹内ビル５Ｆ,,13,104,1690075,,,,,,,2022-09-20,1,,,,,エンユウカイ,0
968,5011201024113,新規,0,2022-09-20,2022-09-20,株式会社ＸＳコーポレーション,,株式会社,東京都,中野区,本町４丁目４８番１７号新中野駅上プラザ２０３号室,,13,114,1640012,,,,,,,2022-09-20,1,,,,,エックスエスコーポレーション,0
969,5011205002511,新規,0,2022-09-20,2022-09-20,医療法人社団百慶会,,その他の設立登記法人,東京都,中野区,中野５丁目２６番８号,,13,114,1640001,,,,,,,2022-09-20,1,,,,,ヒャッケイカイ,0
970,5011303004525,新規,0,2022-09-20,2022-09-20,合同会社Ｒ．Ｋ．ｓｔｕｄｉｏ,,合同会社,東京都,杉並区,高円寺南４丁目７番３サンシャイン高円寺８０３号,,13,115,1660003,,,,,,,2022-09-20,1,,,,,アールケースタジオ,0
974,5012403005586,新規,0,2022-09-20,2022-09-20,合同会社エンジェル,,合同会社,東京都,府中市,清水が丘２丁目３番地の２５,,13,206,1830015,,,,,,,2022-09-20,1,,,,,エンジェル,0
976,5012701017250,新規,0,2022-09-20,2022-09-20,株式会社益永設備サービス,,株式会社,東京都,清瀬市,竹丘２丁目２７番１９号,,13,221,2040023,,,,,,,2022-09-20,1,,,,,マスナガセツビサービス,0
977,5012701017259,新規,0,2022-09-20,2022-09-20,株式会社祐‐Ｔａｓｕｋｕ,,株式会社,東京都,小平市,小川東町４丁目５番１０－３０２号,,13,211,1870031,,,,,,,2022-09-20,1,,,,,タスク,0
984,5013301049675,新規,0,2022-09-20,2022-09-20,株式会社ステラ,,株式会社,東京都,豊島区,南長崎５丁目３番１６号リベルテ南長崎６０２号,,13,116,1710052,,,,,,,2022-09-20,1,,,,,ステラ,0
993,5020001148237,新規,0,2022-09-20,2022-09-20,株式会社ＣＨＯＫＯ技研,,株式会社,神奈川県,川崎市多摩区,菅城下２２番２１号ライオンズマンション京王稲田堤第２－１０５,,14,135,2140007,,,,,,,2022-09-20,1,,,,,チョウコウギケン,0
994,5020001148253,新規,0,2022-09-20,2022-09-20,株式会社ＰＵＣ,,株式会社,神奈川県,川崎市川崎区,観音２丁目１５－６,,14,131,2100831,,,,,,,2022-09-20,1,,,,,ピーユーシー,0
995,5020003022365,新規,0,2022-09-20,2022-09-20,アウトソース合同会社,,合同会社,神奈川県,川崎市川崎区,駅前本町１８番１号メルスサイトー７０２,,14,131,2100007,,,,,,,2022-09-20,1,,,,,アウトソース,0
996,5020003022415,新規,0,2022-09-20,2022-09-20,合同会社未来夢芽育,,合同会社,神奈川県,川崎市中原区,上小田中６丁目８番１－３０３号,,14,133,2110053,,,,,,,2022-09-20,1,,,,,ミライユメイク,0
1010,5030003020211,新規,0,2022-09-20,2022-09-20,ＳＷＡＳＴＩＫ合同会社,,合同会社,埼玉県,坂戸市,三光町３４番地６コピ坂戸１０１号,,11,239,3500235,,,,,,,2022-09-20,1,,,,,スワスティク,0
1013,5040001125102,新規,0,2022-09-20,2022-09-20,千の星株式会社,,株式会社,千葉県,袖ケ浦市,野里１２２９番地１,,12,229,2990211,,,,,,,2022-09-20,1,,,,,センノホシ,0
1014,5040001125110,新規,0,2022-09-20,2022-09-20,株式会社蜂屋,,株式会社,千葉県,船橋市,前原東６丁目１５－６,,12,204,2740824,,,,,,,2022-09-20,1,,,,,ハチヤ,0
1019,5040003020846,新規,0,2022-09-20,2022-09-20,潤貿易合同会社,,合同会社,千葉県,山武市,本須賀３８４１番地３３７,,12,237,2891305,,,,,,,2022-09-20,1,,,,,ジュンボウエキ,0
1021,5050001051685,新規,0,2022-09-20,2022-09-20,株式会社ＳＣＩＥＮＴＩＳＴＳ＆ＣＯＦＦＥＥ,,株式会社,茨城県,つくば市,天久保４丁目８番地３メゾンフローラ１０３号,,08,220,3050005,,,,,,,2022-09-20,1,,,,,サイエンティスツアンドコーヒー,0
1024,5050005013145,新規,0,2022-09-20,2022-09-20,一般社団法人国際バイオプロセス・サステナビリティ学会,,その他の設立登記法人,茨城県,つくば市,天王台１丁目１番地１,,08,220,3050006,,,,,,,2022-09-20,1,,,,,コクサイバイオプロセスサステナビリティガッカイ,0
1028,5060001035282,新規,0,2022-09-20,2022-09-20,株式会社ラブリーホープ,,株式会社,栃木県,宇都宮市,ゆいの杜２丁目２３番３５号,,09,201,3213226,,,,,,,2022-09-20,1,,,,,ラブリーホープ,0
1031,5070003004623,新規,0,2022-09-20,2022-09-20,合同会社ＪＯＹＩＡ　ＴＲＡＤＩＮＧ,,合同会社,群馬県,太田市,由良町７１０番地２ハイムダイイチ２０２号,,10,205,3730036,,,,,,,2022-09-20,1,,,,,ジョウイヤトレーディング,0
1034,5080005007482,新規,0,2022-09-20,2022-09-20,一般社団法人ＢＯＳＡＩ　Ｅｄｕｌａｂ,,その他の設立登記法人,静岡県,静岡市駿河区,小鹿９３３番地の２レタンＡ２０１,,22,102,4228021,,,,,,,2022-09-20,1,,,,,ボウサイエデュラボ,0
1043,5090003002162,新規,0,2022-09-20,2022-09-20,合同会社ぽち,,合同会社,山梨県,甲斐市,富竹新田３７３番地３,,19,210,4000113,,,,,,,2022-09-20,1,,,,,ポチ,0
1057,5120001248844,新規,0,2022-09-20,2022-09-20,豪子株式会社,,株式会社,大阪府,大阪市北区,天満４丁目５番３号,,27,127,5300043,,,,,,,2022-09-20,1,,,,,ゴウシ,0
1058,5120001248902,新規,0,2022-09-20,2022-09-20,株式会社ｔｓｕｊｉｒｙｕ,,株式会社,大阪府,大阪市住之江区,南港北２丁目１－１０ＡＴＣビルＩＴＭ棟１０Ｆ,,27,125,5590034,,,,,,,2022-09-20,1,,,,,ツジリュウ,0
1059,5120001248910,新規,0,2022-09-20,2022-09-20,セカンドブレイク株式会社,,株式会社,大阪府,交野市,郡津４丁目２０番１０号,,27,230,5760053,,,,,,,2022-09-20,1,,,,,セカンドブレイク,0
1060,5120001248927,新規,0,2022-09-20,2022-09-20,株式会社関西住宅,,株式会社,大阪府,大阪市中央区,平野町２丁目３番７号アーバンエース北浜ビル１階,,27,128,5410046,,,,,,,2022-09-20,1,,,,,カンサイジュウタク,0
1062,5120003022479,新規,0,2022-09-20,2022-09-20,合同会社華澤,,合同会社,大阪府,大阪市西成区,玉出西２丁目１２番１１号チェリーハイツ３０５号室,,27,122,5570045,,,,,,,2022-09-20,1,,,,,カサワ,0
1063,5120003022487,新規,0,2022-09-20,2022-09-20,合同会社内山,,合同会社,大阪府,大阪市中央区,法円坂１丁目１番４０－８０９号,,27,128,5400006,,,,,,,2022-09-20,1,,,,,ウチヤマ,0
1066,5120101066221,新規,0,2022-09-20,2022-09-20,株式会社ツバキサービス,,株式会社,大阪府,泉南市,樽井７丁目１０番４号,,27,228,5900521,,,,,,,2022-09-20,1,,,,,ツバキサービス,0
1074,5130001072624,新規,0,2022-09-20,2022-09-20,オールクレーン株式会社,,株式会社,京都府,宇治市,槇島町本屋敷１５９番地の１９,,26,204,6110041,,,,,,,2022-09-20,1,,,,,オールクレーン,0
1075,5130001072640,新規,0,2022-09-20,2022-09-20,素未謀株式会社,,株式会社,京都府,京都市中京区,姉小路通柳馬場西入木之下町２７４番地２１,,26,104,6048104,,,,,,,2022-09-20,1,,,,,スメイモ,0
1076,5130005016577,新規,0,2022-09-20,2022-09-20,京丹後地域づくり協同組合,,その他の設立登記法人,京都府,京丹後市,久美浜町佐野４５０番地,,26,212,6293562,,,,,,,2022-09-20,1,,,,,キョウタンゴチイキヅクリ,0
1082,5140001127385,新規,0,2022-09-20,2022-09-20,株式会社Ｎコンサル,,株式会社,兵庫県,西宮市,愛宕山１０番１５－５０２号,,28,204,6620871,,,,,,,2022-09-20,1,,,,,エヌコンサル,0
1083,5140001127393,新規,0,2022-09-20,2022-09-20,株式会社ｓ．ｌ．ｄ,,株式会社,兵庫県,姫路市,町坪３９２番地５,,28,201,6700984,,,,,,,2022-09-20,1,,,,,エスエルディー,0
1098,5180001153056,新規,0,2022-09-20,2022-09-20,Ｙ’ｓ　ｗｏｒｋｓ株式会社,,株式会社,愛知県,名古屋市西区,名駅１丁目１－１７名駅ダイヤメイテツビル１１階,,23,104,4510045,,,,,,,2022-09-20,1,,,,,ワイズワークス,0
1099,5180001153072,新規,0,2022-09-20,2022-09-20,株式会社Ｋ　ａｎｄ　Ｙ,,株式会社,愛知県,大府市,共和町末広３番地１９,,23,223,4740057,,,,,,,2022-09-20,1,,,,,ケーアンドワイ,0
1102,5180003024271,新規,0,2022-09-20,2022-09-20,合同会社グリシーヌ・エステート,,合同会社,愛知県,名古屋市名東区,高針５丁目７２５番地,,23,115,4650061,,,,,,,2022-09-20,1,,,,,グリシーヌエステート,0
1104,5180301036638,新規,0,2022-09-20,2022-09-20,Ｎａｍｓ株式会社,,株式会社,愛知県,岡崎市,若松町字南之切９番地２,,23,202,4440826,,,,,,,2022-09-20,1,,,,,ナムズ,0
1111,5220001025036,新規,0,2022-09-20,2022-09-20,株式会社ＦＯＯＤＳ　ＳＴＵＤＩＯ,,株式会社,石川県,野々市市,高橋町１４番３３号,,17,212,9218811,,,,,,,2022-09-20,1,,,,,フーヅスタジオ,0
1119,5260001019967,新規,0,2022-09-20,2022-09-20,津山合同食料株式会社,,株式会社,岡山県,津山市,津山口２５４番地の１７,,33,203,7080884,,,,,,,2022-09-20,1,,,,,ツヤマゴウドウショクリョウ,0
1120,5260001037259,新規,0,2022-09-20,2022-09-20,株式会社タイムライン,,株式会社,岡山県,岡山市中区,平井２丁目２３９２番地９,,33,102,7038282,,,,,,,2022-09-20,1,,,,,タイムライン,0
1130,5290803004206,新規,0,2022-09-20,2022-09-20,合同会社Ｈｏｔｅｌ　Ｌｏｖｅ　Ｊｅｗｅｌ,,合同会社,福岡県,北九州市小倉南区,上曽根新町２番１８号,,40,107,8000215,,,,,,,2022-09-20,1,,,,,ホテルラブジュエル,0
1136,5330001030116,新規,0,2022-09-20,2022-09-20,株式会社熊日デジタル,,株式会社,熊本県,熊本市中央区,世安１丁目５番１号,,43,101,8600827,,,,,,,2022-09-20,1,,,,,クマニチデジタル,0
1142,5350001017961,新規,0,2022-09-20,2022-09-20,株式会社宮崎ねんりん市場,,株式会社,宮崎県,宮崎市,大工３丁目４６番地リバーサイド吉田４０３号,,45,201,8800015,,,,,,,2022-09-20,1,,,,,ミヤザキネンリンイチバ,0
1149,5360003012316,新規,0,2022-09-20,2022-09-20,合同会社エムティエス,,合同会社,沖縄県,那覇市,小禄１丁目２８番２４号ウエストヒル２１小禄４０３,,47,201,9010152,,,,,,,2022-09-20,1,,,,,エムティエス,0
1160,5430003014288,新規,0,2022-09-20,2022-09-20,合同会社萬屋本舗Ｋｓ,,合同会社,北海道,三笠市,幸町２１番地５,,01,222,0682153,,,,,,,2022-09-20,1,,,,,ヨロズヤホンポケーエス,0
1161,5440001009157,新規,0,2022-09-20,2022-09-20,株式会社丸恵工業,,株式会社,北海道,函館市,田家町２０番４１号ボンヌシャーンスＩＩ１０３号室,00127888,01,202,0400081,,,,,,,2022-09-20,1,,,,,マルエコウギョウ,0
1165,5470001019260,新規,0,2022-09-20,2022-09-20,株式会社三彩農産,,株式会社,香川県,三豊市,財田町財田上２７７番地１,,37,208,7690401,,,,,,,2022-09-20,1,,,,,ミサイノウサン,0
1173,6010001229516,新規,0,2022-09-20,2022-09-20,株式会社ライジング,,株式会社,東京都,中央区,銀座６丁目１３番１６号,,13,102,1040061,,,,,,,2022-09-20,1,,,,,ライジング,0
1175,6010001229557,新規,0,2022-09-20,2022-09-20,中達通実業株式会社,,株式会社,東京都,中央区,東日本橋２丁目２８番５号５０８,,13,102,1030004,,,,,,,2022-09-20,1,,,,,チュウダツツウジツギョウ,0
1182,6010101015329,新規,0,2022-09-20,2022-09-20,株式会社Ｋａｌｏｐｓｉａ,,株式会社,東京都,八王子市,堀之内３丁目３２番６ハイホーム京王堀之内５０３号,,13,201,1920355,,,,,,,2022-09-20,1,,,,,カロプシア,0
1185,6010401169700,新規,0,2022-09-20,2022-09-20,株式会社ビズランド,,株式会社,東京都,港区,白金３丁目１番１３号,,13,103,1080072,,,,,,,2022-09-20,1,,,,,ビズランド,0
1186,6010401169766,新規,0,2022-09-20,2022-09-20,株式会社Ｇｏｌｄｅｎ　Ｔｒｉｎｉｔｙ,,株式会社,東京都,港区,麻布十番３丁目１４番３－８０１号,,13,103,1060045,,,,,,,2022-09-20,1,,,,,ゴールデントリニティ,0
1187,6010403028524,新規,0,2022-09-20,2022-09-20,ＢＬＳグループジャパン合同会社,,合同会社,東京都,港区,南青山３丁目１番３６号青山丸竹ビル６Ｆ,,13,103,1070062,,,,,,,2022-09-20,1,,,,,ビーエルエスグループ,0
1188,6010405021403,新規,0,2022-09-20,2022-09-20,一般社団法人Ｇａｌａｘｙ２,,その他の設立登記法人,東京都,港区,元赤坂１丁目１番８号赤坂コミュニティビル４階,,13,103,1070051,,,,,,,2022-09-20,1,,,,,ギャラクシーツー,0
1195,6010601061764,新規,0,2022-09-20,2022-09-20,株式会社カラーズミカヅキモモコ,,株式会社,東京都,墨田区,東駒形４丁目２３番１１号,,13,107,1300005,,,,,,,2022-09-20,1,,,,,カラーズミカヅキモモコ,0
1196,6010601061871,新規,0,2022-09-20,2022-09-20,Ｉ・Ｃ警備保障株式会社,,株式会社,東京都,墨田区,江東橋２丁目２番１４－３０３号東神ビル,,13,107,1300022,,,,,,,2022-09-20,1,,,,,アイシーケイビホショウ,0
1201,6010701043225,新規,0,2022-09-20,2022-09-20,株式会社Ｈｉｔｏｆｕｒｉ,,株式会社,東京都,品川区,西五反田８丁目２－１２アール五反田７Ａ,,13,109,1410031,,,,,,,2022-09-20,1,,,,,ヒトフリ,0
1204,6010801033274,新規,0,2022-09-20,2022-09-20,株式会社ＹＲ２,,株式会社,東京都,大田区,池上６丁目３２－１０－４０１,,13,111,1460082,,,,,,,2022-09-20,1,,,,,ワイアールツー,0
1208,6010901051655,新規,0,2022-09-20,2022-09-20,株式会社ＡＶＩＮＵＳ,,株式会社,東京都,世田谷区,駒沢５丁目２６番７号,,13,112,1540012,,,,,,,2022-09-20,1,,,,,アヴィナス,0
1215,6011001149794,新規,0,2022-09-20,2022-09-20,株式会社ＴＷＯ‐ＳＩＤＥＷＡＹＳ,,株式会社,東京都,渋谷区,渋谷２丁目１９－１５宮益坂ビルディング６０９,,13,113,1500002,,,,,,,2022-09-20,1,,,,,トゥーサイドウェイズ,0
1216,6011001149811,新規,0,2022-09-20,2022-09-20,株式会社ＵＵＡＶＥ,,株式会社,東京都,渋谷区,道玄坂１丁目１０番８号渋谷道玄坂東急ビル２Ｆ－Ｃ,,13,113,1500043,,,,,,,2022-09-20,1,,,,,ウエーブ,0
1217,6011001149860,新規,0,2022-09-20,2022-09-20,株式会社ＲｉｌＭｅ,,株式会社,東京都,渋谷区,神南１丁目１４番１号コーポナポリ２０１号室,,13,113,1500041,,,,,,,2022-09-20,1,,,,,リルミー,0
1218,6011003015400,新規,0,2022-09-20,2022-09-20,道の合同会社,,合同会社,東京都,渋谷区,桜丘町２３番１７号シティコート桜丘４０８,,13,113,1500031,,,,,,,2022-09-20,1,,,,,ミチノ,0
1225,6011303004524,新規,0,2022-09-20,2022-09-20,合同会社Ｄｉｇｉｔａｌ　Ｂａｓｉｃｓ,,合同会社,東京都,杉並区,宮前４丁目２４番３－８号,,13,115,1680081,,,,,,,2022-09-20,1,,,,,デジタルベーシックス,0
1226,6011403003772,新規,0,2022-09-20,2022-09-20,帝都資産管理合同会社,,合同会社,東京都,板橋区,成増１丁目３５番３－２１８号,,13,119,1750094,,,,,,,2022-09-20,1,,,,,テイトシサンカンリ,0
1235,6013301049666,新規,0,2022-09-20,2022-09-20,株式会社満足ち住宅,,株式会社,東京都,豊島区,東池袋１丁目３３番３号,,13,116,1700013,,,,,,,2022-09-20,1,,,,,マンゾクチジュウタク,0
1236,6020001148244,新規,0,2022-09-20,2022-09-20,株式会社Ｗｅｌｌａｒｄ,,株式会社,神奈川県,横浜市中区,山手町１２０番地４６,,14,104,2310862,,,,,,,2022-09-20,1,,,,,ウェラード,0
1238,6020003022422,新規,0,2022-09-20,2022-09-20,合同会社福田家フーズ,,合同会社,神奈川県,横浜市中区,弁天通２丁目２８番,,14,104,2310007,,,,,,,2022-09-20,1,,,,,,0
1241,6021001077012,新規,0,2022-09-20,2022-09-20,株式会社本多電設,,株式会社,神奈川県,小田原市,国府津２１２６番地の１,,14,206,2560812,,,,,,,2022-09-20,1,,,,,ホンダデンセツ,0
1253,6040001125134,新規,0,2022-09-20,2022-09-20,株式会社ヒカリ,,株式会社,千葉県,君津市,中野３丁目７番１４号グレイス周西１０１,,12,225,2991151,,,,,,,2022-09-20,1,,,,,ヒカリ,0
1259,6040003020845,新規,0,2022-09-20,2022-09-20,合同会社ナカジュン,,合同会社,千葉県,我孫子市,中峠１６０４番地の９０,,12,222,2701121,,,,,,,2022-09-20,1,,,,,ナカジュン,0
1260,6040003020853,新規,0,2022-09-20,2022-09-20,合同会社令和インターナショナル,,合同会社,千葉県,船橋市,金杉５丁目２１番２５号,,12,204,2730853,,,,,,,2022-09-20,1,,,,,レイワインターナショナル,0
1261,6040005021734,新規,0,2022-09-20,2022-09-20,ＮＰＯ法人レストナック教育支援,,その他の設立登記法人,千葉県,千葉市緑区,辺田町５５２番地,,12,105,2660007,,,,,,,2022-09-20,1,,,,,レストナックキョウイクシエン,0
1262,6050001051692,新規,0,2022-09-20,2022-09-20,株式会社澤,,株式会社,茨城県,かすみがうら市,下稲吉１４６０番地,,08,230,3150052,,,,,,,2022-09-20,1,,,,,サワ,0
1266,6070001039645,新規,0,2022-09-20,2022-09-20,株式会社永福,,株式会社,群馬県,北群馬郡榛東村,大字山子田１２０６番地４,,10,344,3703502,,,,,,,2022-09-20,1,,,,,エイフク,0
1267,6070005010040,新規,0,2022-09-20,2022-09-20,一般社団法人ジャムサンド,,その他の設立登記法人,群馬県,前橋市,元総社町２丁目２４番地２０,,10,201,3710846,,,,,,,2022-09-20,1,,,,,ジャムサンド,0
1269,6080101023531,新規,0,2022-09-20,2022-09-20,株式会社アセットシード４ｔｈ,,株式会社,静岡県,駿東郡長泉町,東野１４３番地の１９,,22,342,4110931,,,,,,,2022-09-20,1,,,,,アセットシードフォース,0
1270,6080403004618,新規,0,2022-09-20,2022-09-20,合同会社シナジーウェーブ,,合同会社,静岡県,浜松市中区,田町２２３番地の２１ビオラ田町３階,,22,131,4300944,,,,,,,2022-09-20,1,,,,,シナジーウェーブ,0
1271,6080405007486,新規,0,2022-09-20,2022-09-20,特定非営利活動法人はまはっぴー,,その他の設立登記法人,静岡県,浜松市浜北区,内野２４３２番地の１,,22,136,4340044,,,,,,,2022-09-20,1,,,,,ハマハッピー,0
1287,6120001248843,新規,0,2022-09-20,2022-09-20,泰玉株式会社,,株式会社,大阪府,大阪市浪速区,恵美須東３丁目２番９号,,27,111,5560002,,,,,,,2022-09-20,1,,,,,タイギョク,0
1288,6120001248868,新規,0,2022-09-20,2022-09-20,株式会社ヘルメス・カーズン,,株式会社,大阪府,大阪市中央区,北浜３丁目１番２２号,,27,128,5410041,,,,,,,2022-09-20,1,,,,,ヘルメスカーズン,0
1289,6120001248876,新規,0,2022-09-20,2022-09-20,Ｆａｒｇｏ　Ｈｏｌｄｉｎｇｓ　ｏｆ　Ｊａｐａｎ株式会社,,株式会社,大阪府,大阪市中央区,松屋町９番２０号ローレルステート松屋町５０５Ｂ,,27,128,5420067,,,,,,,2022-09-20,1,,,,,ファーゴホールディングスオブジャパン,0
1290,6120001248918,新規,0,2022-09-20,2022-09-20,株式会社ココカーサ,,株式会社,大阪府,大阪市北区,松ケ枝町６番２３号,,27,127,5300037,,,,,,,2022-09-20,1,,,,,ココカーサ,0
1305,6130005016576,新規,0,2022-09-20,2022-09-20,特定非営利活動法人ダジック・アース・プロジェクト,,その他の設立登記法人,京都府,京都市左京区,浄土寺上南田町８９番地,,26,103,6068405,,,,,,,2022-09-20,1,,,,,ダジックアースプロジェクト,0
1313,6140003018128,新規,0,2022-09-20,2022-09-20,合同会社ＳＫＳ,,合同会社,兵庫県,神戸市垂水区,山手５丁目１番１１号,,28,108,6550891,,,,,,,2022-09-20,1,,,,,エスケイエス,0
1317,6180001153055,新規,0,2022-09-20,2022-09-20,Ｏｎｅ　ｓｔｅｐ株式会社,,株式会社,愛知県,名古屋市中村区,名駅４丁目２４番５号第２森ビル４０１,,23,105,4500002,,,,,,,2022-09-20,1,,,,,ワンステップ,0
1318,6180001153063,新規,0,2022-09-20,2022-09-20,株式会社とだメディカル,,株式会社,愛知県,名古屋市天白区,表山１丁目１８１４番地,,23,116,4680069,,,,,,,2022-09-20,1,,,,,トダメディカル,0
1319,6180001153071,新規,0,2022-09-20,2022-09-20,株式会社添,,株式会社,愛知県,名古屋市守山区,脇田町３０７番地,,23,113,4630024,,,,,,,2022-09-20,1,,,,,ソウ,0
1325,6200001040457,新規,0,2022-09-20,2022-09-20,株式会社ニジュウサンド,,株式会社,岐阜県,岐阜市,福光東３丁目１８番１２号,,21,201,5020813,,,,,,,2022-09-20,1,,,,,ニジュウサンド,0
1338,6280003001648,新規,0,2022-09-20,2022-09-20,Ｊ３合同会社,,合同会社,島根県,松江市,東津田町１４５１番地３,,32,201,6900011,,,,,,,2022-09-20,1,,,,,ジェイスリー,0
1346,6290003012966,新規,0,2022-09-20,2022-09-20,合同会社ＭＹ　ＬＩＦＥ,,合同会社,福岡県,福岡市東区,千早６丁目５番６号,,40,131,8130044,,,,,,,2022-09-20,1,,,,,マイライフ,0
1365,6360003012307,新規,0,2022-09-20,2022-09-20,合同会社ｒｅＫａｖａ,,合同会社,沖縄県,那覇市,若狭２丁目２２－７うみそらビル２０２,,47,201,9000031,,,,,,,2022-09-20,1,,,,,リカバ,0
1369,6370001049052,新規,0,2022-09-20,2022-09-20,株式会社ニューヤマダ,,株式会社,宮城県,名取市,名取が丘３丁目２０番１号,,04,207,9811235,,,,,,,2022-09-20,1,,,,,ニューヤマダ,0
1371,6380001033121,新規,0,2022-09-20,2022-09-20,株式会社バイオカネショウ,,株式会社,福島県,石川郡古殿町,大字松川字薄木４２番地４,,07,505,9638304,,,,,,,2022-09-20,1,,,,,バイオカネショウ,0
1379,6430001087491,新規,0,2022-09-20,2022-09-20,株式会社至誠,,株式会社,北海道,札幌市中央区,南五条西２丁目サイバーシティビル７階,,01,101,0640805,,,,,,,2022-09-20,1,,,,,シセイ,0
1395,7010001229606,新規,0,2022-09-20,2022-09-20,Ｃｏｎｖｅｒｇｅ　Ｊａｐａｎ　Ｅｌｅｃｔｒｏｎｉｃｓ株式会社,,株式会社,東京都,千代田区,丸の内２丁目１番１号明治生命館７階ディーエルエイ・パイパー東京パートナーシップ外国法共同事業法律事務所内,,13,101,1000005,,,,,,,2022-09-20,1,,,,,コンバージジャパンエレクトロニクス,0
1396,7010001229622,新規,0,2022-09-20,2022-09-20,株式会社エス・ペイロール,,株式会社,東京都,千代田区,二番町９－３ＴＨＥＨＵＢ麹町,,13,101,1020084,,,,,,,2022-09-20,1,,,,,エスペイロール,0
1404,7010401169749,新規,0,2022-09-20,2022-09-20,株式会社ＺｅｒｏＳｔａｒｔ,,株式会社,東京都,港区,南麻布４丁目４番６－２１０号,,13,103,1060047,,,,,,,2022-09-20,1,,,,,ゼロスタート,0
1405,7010401169773,新規,0,2022-09-20,2022-09-20,株式会社アーム・アセットナビ,,株式会社,東京都,港区,浜松町２丁目１番１８号トップスビル４階,,13,103,1050013,,,,,,,2022-09-20,1,,,,,アームアセットナビ,0
1409,7010403028507,新規,0,2022-09-20,2022-09-20,ｅｖｅｒｇｒｅｅｎ合同会社,,合同会社,東京都,港区,南青山３丁目１番３６号青山丸竹ビル６Ｆ,,13,103,1070062,,,,,,,2022-09-20,1,,,,,エヴァーグリーン,0
1410,7010405021369,新規,0,2022-09-20,2022-09-20,一般社団法人日本パネットーネ協会,,その他の設立登記法人,東京都,港区,麻布十番３丁目１番１号プロポンス麻布１１０１号,,13,103,1060045,,,,,,,2022-09-20,1,,,,,ニホンパネットーネキョウカイ,0
1417,7010505003341,新規,0,2022-09-20,2022-09-20,医療法人社団英仁会,,その他の設立登記法人,東京都,台東区,三ノ輪１丁目２７番１５号コートカメリア１階,,13,106,1100011,,,,,,,2022-09-20,1,,,,,エイジンカイ,0
1420,7010601061870,新規,0,2022-09-20,2022-09-20,ＵＮＩＣＯ　Ａｕｔｏ株式会社,,株式会社,東京都,江東区,青海１丁目１番２０号７階,,13,108,1350064,,,,,,,2022-09-20,1,,,,,ユニコオート,0
1423,7010703006385,新規,0,2022-09-20,2022-09-20,合同会社リベロ,,合同会社,東京都,品川区,南品川６丁目８番１７号,,13,109,1400004,,,,,,,2022-09-20,1,,,,,リベロ,0
1424,7010705003422,新規,0,2022-09-20,2022-09-20,一般社団法人ＪＡＬ鵬友会,,その他の設立登記法人,東京都,品川区,東品川２丁目４番１１号,,13,109,1400002,,,,,,,2022-09-20,1,,,,,ジャルホウユウカイ,0
1427,7010803004289,新規,0,2022-09-20,2022-09-20,ＮＣＣジャパン合同会社,,合同会社,東京都,大田区,東雪谷２丁目３５番５号,,13,111,1450065,,,,,,,2022-09-20,1,,,,,エヌシーシージャパン,0
1431,7010901051662,新規,0,2022-09-20,2022-09-20,株式会社ＳＴＭ,,株式会社,東京都,世田谷区,成城８丁目２４番３－２０７号,,13,112,1570066,,,,,,,2022-09-20,1,,,,,エスティエム,0
1433,7010905004369,新規,0,2022-09-20,2022-09-20,一般社団法人日本有機ゲルマニウム協会,,その他の設立登記法人,東京都,世田谷区,太子堂４丁目４番１号,,13,112,1540004,,,,,,,2022-09-20,1,,,,,ニホンユウキゲルマニウムキョウカイ,0
1437,7011001149579,新規,0,2022-09-20,2022-09-20,株式会社ＧＳｏｌｕｔｉｏｎｓ,,株式会社,東京都,渋谷区,道玄坂１丁目１０番８号渋谷道玄坂東急ビル２Ｆ－Ｃ,,13,113,1500043,,,,,,,2022-09-20,1,,,,,ジーソリューションズ,0
1438,7011001149802,新規,0,2022-09-20,2022-09-20,株式会社四方良,,株式会社,東京都,渋谷区,広尾５丁目２５番地８号第二フラワーハイホームＢ棟４０３,,13,113,1500012,,,,,,,2022-09-20,1,,,,,シホウヨシ,0
1439,7011001149810,新規,0,2022-09-20,2022-09-20,コードペイント株式会社,,株式会社,東京都,渋谷区,桜丘町２３番１７号,,13,113,1500031,,,,,,,2022-09-20,1,,,,,コードペイント,0
1444,7011101100202,新規,0,2022-09-20,2022-09-20,秋天株式会社,,株式会社,東京都,新宿区,山吹町３６１－１ＪａｐａｎＨｏｕｓｅ江戸川橋１０１号室,,13,104,1620801,,,,,,,2022-09-20,1,,,,,シュウテン,0
1448,7011103012180,新規,0,2022-09-20,2022-09-20,森をつなぐ合同会社,,合同会社,東京都,新宿区,西新宿１丁目２６番２号,,13,104,1600023,,,,,,,2022-09-20,1,,,,,モリヲツナグ,0
1454,7011303004523,新規,0,2022-09-20,2022-09-20,合同会社Ｒａｉｎｍａｋｅｒ,,合同会社,東京都,杉並区,南荻窪４丁目７番９号,,13,115,1670052,,,,,,,2022-09-20,1,,,,,レインメーカー,0
1456,7011405002219,新規,0,2022-09-20,2022-09-20,医療法人社団武蔵,,その他の設立登記法人,東京都,板橋区,常盤台３丁目１番１６号ときわ３１１６ビル２階,,13,119,1740071,,,,,,,2022-09-20,1,,,,,ムサシ,0
1466,7012405004790,新規,0,2022-09-20,2022-09-20,医療法人社団仁忠会,,その他の設立登記法人,東京都,武蔵野市,桜堤２丁目７番２７号メディシャトル桜堤１０２号,,13,203,1800021,,,,,,,2022-09-20,1,,,,,ジンチュウカイ,0
1467,7012805003153,新規,0,2022-09-20,2022-09-20,一般社団法人国産製品推進協会,,その他の設立登記法人,東京都,国立市,西２丁目１９番地３６,,13,215,1860005,,,,,,,2022-09-20,1,,,,,コクサンセイヒンスイシンキョウカイ,0
1475,7020001148219,新規,0,2022-09-20,2022-09-20,株式会社あひる屋,,株式会社,神奈川県,横浜市青葉区,美しが丘１丁目１３－１０吉村ビル１０７号,,14,117,2250002,,,,,,,2022-09-20,1,,,,,アヒルヤ,0
1476,7020001148235,新規,0,2022-09-20,2022-09-20,株式会社Ｍｅｘｐｏ,,株式会社,神奈川県,横浜市鶴見区,駒岡４丁目１２番４３号,,14,101,2300071,,,,,,,2022-09-20,1,,,,,メクスポ,0
1481,7020003022413,新規,0,2022-09-20,2022-09-20,合同会社ＤＯＬＣＥ,,合同会社,神奈川県,川崎市川崎区,堀之内町１１－５,,14,131,2100003,,,,,,,2022-09-20,1,,,,,ドルチェ,0
1496,7030003020201,新規,0,2022-09-20,2022-09-20,ベストフード合同会社,,合同会社,埼玉県,ふじみ野市,上福岡１丁目１５番６号,,11,245,3560004,,,,,,,2022-09-20,1,,,,,ベストフード,0
1497,7030005020983,新規,0,2022-09-20,2022-09-20,特定非営利活動法人アニマイル,,その他の設立登記法人,埼玉県,川口市,長蔵１丁目１６番地１９号クレアーレ１Ｆ,,11,203,3330807,,,,,,,2022-09-20,1,,,,,アニマイル,0
1503,7040001125091,新規,0,2022-09-20,2022-09-20,株式会社倉忠,,株式会社,千葉県,船橋市,丸山１丁目３８番１７号,,12,204,2730048,,,,,,,2022-09-20,1,,,,,クラチュウ,0
1504,7040001125109,新規,0,2022-09-20,2022-09-20,トラストリノベーション株式会社,,株式会社,千葉県,成田市,公津の杜４丁目１２番地プロシードＣＯ－Ｚ東館３１２,,12,211,2860048,,,,,,,2022-09-20,1,,,,,トラストリノベーション,0
1506,7040003020745,新規,0,2022-09-20,2022-09-20,４Ｔ合同会社,,合同会社,千葉県,八千代市,島田１７０５－１,,12,221,2760005,,,,,,,2022-09-20,1,,,,,シテ,0
1507,7040003020794,新規,0,2022-09-20,2022-09-20,ｓｏｉｌｄｏｏｒ合同会社,,合同会社,千葉県,市川市,行徳駅前１丁目２６番地１６号２Ｆ,,12,203,2720133,,,,,,,2022-09-20,1,,,,,ソイルドアー,0
1508,7040003020852,新規,0,2022-09-20,2022-09-20,合同会社メルティ,,合同会社,千葉県,千葉市中央区,登戸３丁目１４番１７号,,12,101,2600032,,,,,,,2022-09-20,1,,,,,メルティ,0
1509,7050001051691,新規,0,2022-09-20,2022-09-20,株式会社Ｕｍ,,株式会社,茨城県,水戸市,河和田２丁目２４番地の１２Ｂ棟３０３,,08,201,3114152,,,,,,,2022-09-20,1,,,,,ユーエム,0
1520,7070001039652,新規,0,2022-09-20,2022-09-20,株式会社Ｒｅｎｔ　Ｌｉｎｘ,,株式会社,群馬県,伊勢崎市,東本町９５番８,,10,204,3720025,,,,,,,2022-09-20,1,,,,,レントリンクス,0
1527,7080401026043,新規,0,2022-09-20,2022-09-20,ＹＫ・コラボ株式会社,,株式会社,静岡県,浜松市浜北区,中瀬７２８番地,,22,136,4340012,,,,,,,2022-09-20,1,,,,,ワイケイコラボ,0
1528,7080402013453,新規,0,2022-09-20,2022-09-20,有限会社田中織物,,有限会社,静岡県,浜松市西区,村櫛町３５４５番地,,22,133,4311207,,,,,,,2022-09-20,1,,,,,,0
1538,7120001248917,新規,0,2022-09-20,2022-09-20,株式会社ＮＥＸＴ　ＧＡＴＥ,,株式会社,大阪府,大阪市北区,鶴野町４番１１号朝日プラザ梅田２Ｆ,,27,127,5300014,,,,,,,2022-09-20,1,,,,,ネクストゲート,0
1539,7120001248925,新規,0,2022-09-20,2022-09-20,株式会社Ｍａｔｅｒｉａｌ　Ｄｏｏｒｓ,,株式会社,大阪府,大阪市北区,梅田１丁目１－３大阪駅前第３ビル２９階１－１－１号室,,27,127,5300001,,,,,,,2022-09-20,1,,,,,マテリアルドアーズ,0
1554,7130001072639,新規,0,2022-09-20,2022-09-20,株式会社Ｊ＆Ｌ,,株式会社,京都府,京都市中京区,西ノ京船塚町１８－２３－１０１,00127883,26,104,6048426,,,,,,,2022-09-20,1,,,,,ジェイアンドエル,0
1557,7140001127383,新規,0,2022-09-20,2022-09-20,ＮＥＮ株式会社,,株式会社,兵庫県,西宮市,六湛寺町９番２５号,,28,204,6620918,,,,,,,2022-09-20,1,,,,,エヌイーエヌ,0
1558,7140001127433,新規,0,2022-09-20,2022-09-20,株式会社バンブーボスコ,,株式会社,兵庫県,尼崎市,武庫之荘１丁目１４番１５－１号,,28,202,6610035,,,,,,,2022-09-20,1,,,,,バンブーボスコ,0
1560,7150001025818,新規,0,2022-09-20,2022-09-20,株式会社青丹コンサルティング,,株式会社,奈良県,北葛城郡王寺町,王寺２丁目４番７号王寺クリニックスクエア５Ｆ,,29,425,6360002,,,,,,,2022-09-20,1,,,,,セイタンコンサルティング,0
1562,7160001024521,新規,0,2022-09-20,2022-09-20,株式会社らく家,,株式会社,滋賀県,草津市,南笠東１丁目１１－１３,,25,206,5250071,,,,,,,2022-09-20,1,,,,,ラクヤ,0
1569,7180001153046,新規,0,2022-09-20,2022-09-20,株式会社インベスト,,株式会社,愛知県,名古屋市昭和区,隼人町８番地の８,,23,107,4660833,,,,,,,2022-09-20,1,,,,,インベスト,0
1575,7180003024278,新規,0,2022-09-20,2022-09-20,合同会社ＭＴＵ,,合同会社,愛知県,名古屋市中区,丸の内３丁目１５番２１号Ｃｅｒｅｓ丸の内１００２,,23,106,4600002,,,,,,,2022-09-20,1,,,,,エムティーユー,0
1585,7260001037257,新規,0,2022-09-20,2022-09-20,株式会社ＷＩＤＥ,,株式会社,岡山県,岡山市南区,豊成１丁目１１番４８号,,33,104,7000942,,,,,,,2022-09-20,1,,,,,ワイド,0
1594,7290801028898,新規,0,2022-09-20,2022-09-20,株式会社ケイトラスト,,株式会社,福岡県,遠賀郡遠賀町,大字上別府７３７番地の１,,40,384,8114332,,,,,,,2022-09-20,1,,,,,ケイトラスト,0
1603,7330001030114,新規,0,2022-09-20,2022-09-20,株式会社ワイズワン,,株式会社,熊本県,菊池郡菊陽町,光の森２丁目１０－１８住吉ハイツ１０１,,43,404,8691108,,,,,,,2022-09-20,1,,,,,ワイズワン,0
1607,7350003004171,新規,0,2022-09-20,2022-09-20,合同会社Ｈｉｇｈ　Ｈｏｐｅｓ,,合同会社,宮崎県,宮崎市,大字島之内９３１７－２３,,45,201,8800121,,,,,,,2022-09-20,1,,,,,ハイホープス,0
1617,7390001017023,新規,0,2022-09-20,2022-09-20,Ｏｒｉｇａｍｉ　Ｃｏｎｓｕｌｔｉｎｇ株式会社,,株式会社,山形県,山形市,南二番町１０‐１０,,06,201,9902442,,,,,,,2022-09-20,1,,,,,オリガミコンサルティング,0
1618,7390003001999,新規,0,2022-09-20,2022-09-20,合同会社ＦＲＥＥ,,合同会社,山形県,天童市,大字乱川１６３番の２,,06,210,9940002,,,,,,,2022-09-20,1,,,,,フリー,0
1628,7440001009155,新規,0,2022-09-20,2022-09-20,ＨＡＫＯＤＡＴＥ・ＦＡＲＭ株式会社,,株式会社,北海道,函館市,若松町９番３号,,01,202,0400063,,,,,,,2022-09-20,1,,,,,ハコダテファーム,0
1629,7480001011859,新規,0,2022-09-20,2022-09-20,株式会社三好敷物,,株式会社,徳島県,三好市,三野町芝生１２９３番地８,,36,208,7712304,,,,,,,2022-09-20,1,,,,,ミヨシシキモノ,0
1632,7500003002894,新規,0,2022-09-20,2022-09-20,伍光堂合同会社,,合同会社,愛媛県,松山市,千舟町５丁目３－１７市駅前ビル４階,,38,201,7900011,,,,,,,2022-09-20,1,,,,,,0
1636,7700150111759,新規,0,2022-09-20,2022-09-20,ＰａｙＰｒｏ　Ｅｕｒｏｐｅ　Ｌｉｍｉｔｅｄ,,外国会社等,,,,,,,,Ｂｅｒｋｅｌｅｙ　Ｓｑｕａｒｅ　Ｈｏｕｓｅ，Ｂｅｒｋｅｌｅｙ　Ｓｑｕａｒｅ，Ｌｏｎｄｏｎ，Ｗ１Ｊ　６ＢＤ，ＵＫ,,,,,,2022-09-20,1,,,,,ペイプロヨーロッパリミテッド,0
1642,8010001229621,新規,0,2022-09-20,2022-09-20,株式会社ＡＴＥ,,株式会社,東京都,中央区,銀座１丁目２２番１１号銀座大竹ビジデンス２階,,13,102,1040061,,,,,,,2022-09-20,1,,,,,エテ,0
1645,8010005035578,新規,0,2022-09-20,2022-09-20,一般社団法人ＤＬＳＦ,,その他の設立登記法人,東京都,千代田区,丸の内３丁目１番１号東京共同会計事務所内,,13,101,1000005,,,,,,,2022-09-20,1,,,,,ディーエルエスエフ,0
1646,8010103001985,新規,0,2022-09-20,2022-09-20,合同会社ＣＩＢＩＴ,,合同会社,東京都,八王子市,七国４丁目１８－１,,13,201,1920919,,,,,,,2022-09-20,1,,,,,シビット,0
1649,8010403028497,新規,0,2022-09-20,2022-09-20,ＪＯＳ合同会社,,合同会社,東京都,港区,浜松町１丁目１６－７浜松町オークビル４Ｆ,,13,103,1050013,,,,,,,2022-09-20,1,,,,,ジェイオエス,0
1657,8010603009735,新規,0,2022-09-20,2022-09-20,ＴＮＳ　Ｃｏｒｐｏｒａｔｉｏｎ合同会社,,合同会社,東京都,江東区,亀戸９丁目１０番１－１６１０号,,13,108,1360071,,,,,,,2022-09-20,1,,,,,ティーエヌエスコーポレーション,0
1658,8010701043223,新規,0,2022-09-20,2022-09-20,ｓａｌｅｓ　ｊｏｉｎｔ株式会社,,株式会社,東京都,品川区,東五反田１丁目６番地３号,,13,109,1410022,,,,,,,2022-09-20,1,,,,,セールスジョイント,0
1672,8010901051653,新規,0,2022-09-20,2022-09-20,株式会社ＳＵＰＲＥＭＯ,,株式会社,東京都,世田谷区,経堂４丁目２１番５号,,13,112,1560052,,,,,,,2022-09-20,1,,,,,スプレモ,0
1676,8011001149801,新規,0,2022-09-20,2022-09-20,株式会社椿会,,株式会社,東京都,渋谷区,道玄坂２丁目１６番５号,,13,113,1500043,,,,,,,2022-09-20,1,,,,,ツバキカイ,0
1677,8011001149834,新規,0,2022-09-20,2022-09-20,株式会社ＴＣＪ,,株式会社,東京都,渋谷区,代々木２丁目２３番１－１０２５号,,13,113,1510053,,,,,,,2022-09-20,1,,,,,ティーシージェイ,0
1678,8011001149859,新規,0,2022-09-20,2022-09-20,株式会社クマノテ,,株式会社,東京都,渋谷区,道玄坂１丁目１０番８号渋谷道玄坂東急ビル２Ｆ－Ｃ,,13,113,1500043,,,,,,,2022-09-20,1,,,,,クマノテ,0
1685,8011203003913,新規,0,2022-09-20,2022-09-20,合同会社全善旅行,,合同会社,東京都,中野区,白鷺１丁目１番１号,,13,114,1650035,,,,,,,2022-09-20,1,,,,,ゼンゼンリョコウ,0
1701,8020001148267,新規,0,2022-09-20,2022-09-20,株式会社ドクターホーム,,株式会社,神奈川県,横浜市保土ケ谷区,西谷３丁目１４－２７,,14,106,2400054,,,,,,,2022-09-20,1,,,,,ドクターホーム,0
1703,8020003022404,新規,0,2022-09-20,2022-09-20,ＢＵＺＺＬＥＡＤ　ＪＡＰＡＮ合同会社,,合同会社,神奈川県,横浜市西区,北幸１丁目１番８号エキニア横浜５階ＨａｍａＰｏｒｔ内,,14,103,2200004,,,,,,,2022-09-20,1,,,,,バズリードジャパン,0
1704,8020003022420,新規,0,2022-09-20,2022-09-20,ベラビスタ合同会社,,合同会社,神奈川県,横浜市鶴見区,生麦３丁目８番１３－１００６,,14,101,2300052,,,,,,,2022-09-20,1,,,,,ベラビスタ,0
1706,8021001077019,新規,0,2022-09-20,2022-09-20,乾際株式会社,,株式会社,神奈川県,相模原市中央区,淵野辺２丁目６番５－４０１号,,14,152,2520206,,,,,,,2022-09-20,1,,,,,カンサイ,0
1717,8030003020233,新規,0,2022-09-20,2022-09-20,姫宮ＶＩＧサービス合同会社,,合同会社,埼玉県,南埼玉郡宮代町,東姫宮１丁目１６番１４－２号,,11,442,3450813,,,,,,,2022-09-20,1,,,,,ヒメミヤヴィッグサービス,0
1720,8040001125108,新規,0,2022-09-20,2022-09-20,株式会社ＴＨＫ・ＬＩＮＥ,,株式会社,千葉県,四街道市,吉岡１８００番地６,,12,228,2840032,,,,,,,2022-09-20,1,,,,,ティーエイチケイライン,0
1721,8040001125116,新規,0,2022-09-20,2022-09-20,株式会社ＮＥＫＩアドバイザリー,,株式会社,千葉県,印西市,大塚３丁目２２番地２３,,12,231,2701352,,,,,,,2022-09-20,1,,,,,ネキアドバイザリー,0
1723,8040003020819,新規,0,2022-09-20,2022-09-20,合同会社メディアート,,合同会社,千葉県,鎌ケ谷市,丸山２丁目１０番６号,,12,224,2730103,,,,,,,2022-09-20,1,,,,,メディアート,0
1724,8040003020851,新規,0,2022-09-20,2022-09-20,合同会社サンドストーム,,合同会社,千葉県,千葉市花見川区,幕張本郷２丁目３番１号ニューエイト本郷第１－１０４号室,,12,102,2620033,,,,,,,2022-09-20,1,,,,,サンドストーム,0
1730,8060003004241,新規,0,2022-09-20,2022-09-20,ＡＭＭＡＲ　ＴＲＡＤＩＮＧ合同会社,,合同会社,栃木県,下都賀郡野木町,大字南赤塚８３０番地１３,,09,364,3290112,,,,,,,2022-09-20,1,,,,,アンマールトレーディング,0
1733,8070005010039,新規,0,2022-09-20,2022-09-20,特定非営利活動法人あいず,,その他の設立登記法人,群馬県,館林市,堀工町１８６３番地の２,,10,207,3740033,,,,,,,2022-09-20,1,,,,,アイズ,0
1736,8080103002655,新規,0,2022-09-20,2022-09-20,合同会社悠,,合同会社,静岡県,富士市,松岡３５５番地の１２,,22,210,4160909,,,,,,,2022-09-20,1,,,,,ユウ,0
1744,8100003006695,新規,0,2022-09-20,2022-09-20,合同会社ＣＡＳＡ,,合同会社,長野県,長野市,大字石渡２７８番地,,20,201,3810015,,,,,,,2022-09-20,1,,,,,カーサ,0
1759,8120001248874,新規,0,2022-09-20,2022-09-20,蓮花日本株式会社,,株式会社,大阪府,大阪市西区,立売堀４丁目３番１６号５階,,27,106,5500012,,,,,,,2022-09-20,1,,,,,レンカニホン,0
1760,8120001248908,新規,0,2022-09-20,2022-09-20,ＫＡＭＡ株式会社,,株式会社,大阪府,大阪市中央区,船場中央２丁目１番４号船場センタービル４号館地下一階Ｂ１０８ＲＯＹＡＬＯＦＦＩＣＥ内,,27,128,5410055,,,,,,,2022-09-20,1,,,,,カマ,0
1761,8120001248924,新規,0,2022-09-20,2022-09-20,株式会社ＥＡＧＬＥ　ＧＬＯＢＡＬ,,株式会社,大阪府,大阪市北区,梅田１丁目１－３大阪駅前第３ビル２９階１－１－１号室,,27,127,5300001,,,,,,,2022-09-20,1,,,,,イーグルグローバル,0
1762,8120001248932,新規,0,2022-09-20,2022-09-20,株式会社カワバタ,,株式会社,大阪府,大阪市浪速区,恵美須西１丁目３番４号,,27,111,5560003,,,,,,,2022-09-20,1,,,,,カワバタ,0
1763,8120003022484,新規,0,2022-09-20,2022-09-20,合同会社Ｎｏｎｔｅｎｉ,,合同会社,大阪府,大阪市鶴見区,諸口３丁目１番１１号フォーチュンレングス１０３,,27,124,5380051,,,,,,,2022-09-20,1,,,,,ノンテニ,0
1773,8130001072638,新規,0,2022-09-20,2022-09-20,株式会社Ｔｉｎｙ　Ｄｒｅａｍ,,株式会社,京都府,京都市中京区,瓦町５６３番地３０３号室,,26,104,6040827,,,,,,,2022-09-20,1,,,,,タイニードリーム,0
1774,8130001072646,新規,0,2022-09-20,2022-09-20,株式会社Ｌｉｆｅｘｉａ,,株式会社,京都府,福知山市,三和町芦渕４５０,,26,201,6201444,,,,,,,2022-09-20,1,,,,,ライフシア,0
1778,8130003008177,新規,0,2022-09-20,2022-09-20,合同会社ＤｉｇＭａｒｔ,,合同会社,京都府,京都市伏見区,深草大亀谷万帖敷町３９０番地の１,,26,109,6120846,,,,,,,2022-09-20,1,,,,,ディグマート,0
1782,8140003018134,新規,0,2022-09-20,2022-09-20,ＴＣＡトレーディング合同会社,,合同会社,兵庫県,芦屋市,宮塚町６－５－３０１,,28,206,6590062,,,,,,,2022-09-20,1,,,,,ティーシーエートレーディング,0
1784,8150001025817,新規,0,2022-09-20,2022-09-20,株式会社Ｍｅｒｒｙ　Ｌｉｆｅ,,株式会社,奈良県,橿原市,曲川町２丁目３番１０号,,29,205,6340837,,,,,,,2022-09-20,1,,,,,メリーライフ,0
1785,8160001024520,新規,0,2022-09-20,2022-09-20,株式会社英大,,株式会社,滋賀県,草津市,追分４丁目１２番８号,,25,206,5250047,,,,,,,2022-09-20,1,,,,,エイダイ,0
1786,8160003002672,新規,0,2022-09-20,2022-09-20,Ｔ‐ＧＲＡＣＥ合同会社,,合同会社,滋賀県,蒲生郡日野町,大字川原１０７３,,25,383,5291613,,,,,,,2022-09-20,1,,,,,ティーグレイス,0
1792,8180001153053,新規,0,2022-09-20,2022-09-20,カドル株式会社,,株式会社,愛知県,尾張旭市,東栄町３丁目１番地１,,23,226,4880011,,,,,,,2022-09-20,1,,,,,カドル,0
1793,8180001153061,新規,0,2022-09-20,2022-09-20,信友株式会社,,株式会社,愛知県,名古屋市港区,船頭場５丁目８２２番地の８,,23,111,4550881,,,,,,,2022-09-20,1,,,,,シンユ,0
1796,8180301036643,新規,0,2022-09-20,2022-09-20,住大技研株式会社,,株式会社,愛知県,西尾市,吉良町吉田宮前４０番地２８,,23,213,4440516,,,,,,,2022-09-20,1,,,,,スミヒロギケン,0
1806,8200001040455,新規,0,2022-09-20,2022-09-20,株式会社Ｓｍｉｌｅ　Ｌａｎ,,株式会社,岐阜県,多治見市,美坂町１丁目３４番地,,21,204,5070803,,,,,,,2022-09-20,1,,,,,スマイルラン,0
1814,8260001037256,新規,0,2022-09-20,2022-09-20,株式会社ファームシャイン,,株式会社,岡山県,岡山市中区,今在家２０５番地２,,33,102,7038208,,,,,,,2022-09-20,1,,,,,ファームシャイン,0
1819,8290001098948,新規,0,2022-09-20,2022-09-20,株式会社飛龍,,株式会社,福岡県,福岡市博多区,博多駅前１丁目１５番２０号ＮＭＦ博多駅前ビル２Ｆ,,40,132,8120011,,,,,,,2022-09-20,1,,,,,ヒリュウ,0
1820,8290001098964,新規,0,2022-09-20,2022-09-20,株式会社プリズム,,株式会社,福岡県,福岡市中央区,赤坂３丁目１１番３２号ベネフィス赤坂１２０３,,40,133,8100042,,,,,,,2022-09-20,1,,,,,プリズム,0
1829,8320001019339,新規,0,2022-09-20,2022-09-20,株式会社Ｒｅめいく,,株式会社,大分県,中津市,大字相原字大塚３１２５番地８,,44,203,8710022,,,,,,,2022-09-20,1,,,,,リメイク,0
1830,8320003003910,新規,0,2022-09-20,2022-09-20,あいる合同会社,,合同会社,大分県,大分市,千代町３丁目２－２２笠木アパート１０５,,44,201,8700033,,,,,,,2022-09-20,1,,,,,アイル,0
1838,8350005006099,新規,0,2022-09-20,2022-09-20,医療法人茉佑会,,その他の設立登記法人,宮崎県,延岡市,出北３丁目５番１４号,,45,203,8820856,,,,,,,2022-09-20,1,,,,,マユウカイ,0
1840,8360001030977,新規,0,2022-09-20,2022-09-20,フタコザ株式会社,,株式会社,沖縄県,豊見城市,字豊崎１番地１２０９,,47,212,9010225,,,,,,,2022-09-20,1,,,,,フタコザ,0
1841,8360003012313,新規,0,2022-09-20,2022-09-20,楽旅グループ合同会社,,合同会社,沖縄県,中頭郡北谷町,字宮城１－１アルトゥーレ美浜１１２７,,47,326,9040113,,,,,,,2022-09-20,1,,,,,ラクタビグループ,0
1849,8390003001998,新規,0,2022-09-20,2022-09-20,合同会社ＳＡＫＵＲＡｓｔｙｌｅ,,合同会社,山形県,寒河江市,中央１丁目８‐５１卯月不動産ビル３０１,,06,206,9910021,,,,,,,2022-09-20,1,,,,,サクラスタイル,0
1850,8400001016006,新規,0,2022-09-20,2022-09-20,株式会社永翔,,株式会社,岩手県,盛岡市,東松園１丁目１４番１４号,,03,201,0200106,,,,,,,2022-09-20,1,,,,,エイト,0
1852,8430001087531,新規,0,2022-09-20,2022-09-20,株式会社ＺＥＲＯＰＨＩＬＩＡ　Ｈｏｌｄｉｎｇｓ．,,株式会社,北海道,札幌市豊平区,平岸一条１０丁目１番１０－７０２号,,01,105,0620931,,,,,,,2022-09-20,1,,,,,ゼロフィリアホールディングス,0
1857,8430003014277,新規,0,2022-09-20,2022-09-20,合同会社ＩＳＴ,,合同会社,北海道,札幌市中央区,南十三条西１５丁目３番１－６０１号,,01,101,0640913,,,,,,,2022-09-20,1,,,,,アイエスティー,0
1859,8440001009154,新規,0,2022-09-20,2022-09-20,株式会社Ｃｏａｒｃ,,株式会社,北海道,函館市,美原２丁目２番８－２号,,01,202,0410806,,,,,,,2022-09-20,1,,,,,コアーク,0
1860,8440005002733,新規,0,2022-09-20,2022-09-20,一般社団法人海と日本推進機構,,その他の設立登記法人,北海道,函館市,旭町６番１４号,,01,202,0400037,,,,,,,2022-09-20,1,,,,,ウミトニホンスイシンキコウ,0
1863,8460301005099,新規,0,2022-09-20,2022-09-20,株式会社グルワール,,株式会社,北海道,北見市,川東５６番地１８９,,01,208,0900807,,,,,,,2022-09-20,1,,,,,グルワール,0
1868,8500003002893,新規,0,2022-09-20,2022-09-20,はし浜ドラッグ合同会社,,合同会社,愛媛県,新居浜市,庄内町２丁目８番２１号,,38,205,7920811,,,,,,,2022-09-20,1,,,,,ハシハマドラッグ,0
1881,9010001229595,新規,0,2022-09-20,2022-09-20,Ｍ＆Ａテクニカルソリューションズ株式会社,,株式会社,東京都,千代田区,平河町１丁目６番１５号ＵＳビル８階,,13,101,1020093,,,,,,,2022-09-20,1,,,,,エムアンドエーテクニカルソリューションズ,0
1886,9010005035577,新規,0,2022-09-20,2022-09-20,ジェイコアレジ７一般社団法人,,その他の設立登記法人,東京都,千代田区,丸の内３丁目１番１号東京共同会計事務所内,,13,101,1000005,,,,,,,2022-09-20,1,,,,,ジェイコアレジセブン,0
1891,9010401169813,新規,0,2022-09-20,2022-09-20,株式会社アルデバラン,,株式会社,東京都,港区,西麻布１丁目４番１２号,,13,103,1060031,,,,,,,2022-09-20,1,,,,,アルデバラン,0
1907,9010901051660,新規,0,2022-09-20,2022-09-20,株式会社カイト,,株式会社,東京都,世田谷区,北沢４丁目８番１９号ココン北沢１０５,,13,112,1550031,,,,,,,2022-09-20,1,,,,,カイト,0
1913,9011001149726,新規,0,2022-09-20,2022-09-20,株式会社Ｙｏｕｍｅｅｔ,,株式会社,東京都,渋谷区,桜丘町１４番６号黒松ビル４０２,,13,113,1500031,,,,,,,2022-09-20,1,,,,,ユーミート,0
1914,9011001149833,新規,0,2022-09-20,2022-09-20,株式会社ＮＥＯ,,株式会社,東京都,渋谷区,代官山町１６番５号,,13,113,1500034,,,,,,,2022-09-20,1,,,,,ニオ,0
1915,9011001149882,新規,0,2022-09-20,2022-09-20,ＡＫＱＡ　ＵＫＡ株式会社,,株式会社,東京都,渋谷区,恵比寿２丁目３６番１３号,,13,113,1500013,,,,,,,2022-09-20,1,,,,,エイケイキューエイウカ,0
1916,9011003015406,新規,0,2022-09-20,2022-09-20,ＯＤＩ合同会社,,合同会社,東京都,渋谷区,代々木３丁目３３番７号,,13,113,1510053,,,,,,,2022-09-20,1,,,,,オーディーアイ,0
1919,9011101100233,新規,0,2022-09-20,2022-09-20,Ｓｈａｎｏｍａｂｄ株式会社,,株式会社,東京都,新宿区,新宿２丁目５番３号ＡＭビル７階,,13,104,1600022,,,,,,,2022-09-20,1,,,,,シャノマブド,0
1920,9011101100241,新規,0,2022-09-20,2022-09-20,株式会社アガルートテクノロジーズ,,株式会社,東京都,新宿区,新小川町５番５号,,13,104,1620814,,,,,,,2022-09-20,1,,,,,アガルートテクノロジーズ,0
1922,9011203003912,新規,0,2022-09-20,2022-09-20,合同会社ＭＴＮＷ３,,合同会社,東京都,中野区,弥生町２丁目４１－１７－１０,,13,114,1640013,,,,,,,2022-09-20,1,,,,,エムティーエヌダブリュースリー,0
1923,9011303004521,新規,0,2022-09-20,2022-09-20,Ｐｌｅａｓａｎｔ合同会社,,合同会社,東京都,杉並区,永福２丁目６０番７号ＥＳＴビルＢ１,,13,115,1680064,,,,,,,2022-09-20,1,,,,,プレザント,0
1925,9011401024545,新規,0,2022-09-20,2022-09-20,株式会社ＭＩＣ,,株式会社,東京都,板橋区,西台４丁目８番１号,,13,119,1750045,,,,,,,2022-09-20,1,,,,,エムアイシー,0
1932,9011701025607,新規,0,2022-09-20,2022-09-20,ＡＢＬＥ　ＥＮＧＩＮＥＥＲＩＮＧ　ＪＡＰＡＮ株式会社,,株式会社,東京都,江戸川区,北小岩６丁目４７番１３号,,13,123,1330051,,,,,,,2022-09-20,1,,,,,エイブルエンジニアリングジャパン,0
1933,9011801041297,新規,0,2022-09-20,2022-09-20,Ａｎｔ　ｔｅｃｈｎｏｌｏｇｉｅｓ株式会社,,株式会社,東京都,足立区,梅島３丁目３３－６－２Ｆ４１,,13,121,1210816,,,,,,,2022-09-20,1,,,,,アントテクノロジズ,0
1942,9013301049671,新規,0,2022-09-20,2022-09-20,株式会社ステップアップジャパン,,株式会社,東京都,豊島区,池袋３丁目２４番１４号,,13,116,1710014,,,,,,,2022-09-20,1,,,,,ステップアップジャパン,0
1943,9013305003377,新規,0,2022-09-20,2022-09-20,行政書士法人椿坂事務所,,その他の設立登記法人,東京都,豊島区,西池袋２丁目３６番１０号ＡＣＮ池袋ビル１０階,,13,116,1710021,,,,,,,2022-09-20,1,,,,,ツバキサカジムショ,0
1968,9040001125081,新規,0,2022-09-20,2022-09-20,友本商事株式会社,,株式会社,千葉県,船橋市,藤原４丁目４番１７,,12,204,2730047,,,,,,,2022-09-20,1,,,,,トモモトショウジ,0
1969,9040001125107,新規,0,2022-09-20,2022-09-20,株式会社ミレ,,株式会社,千葉県,鎌ケ谷市,鎌ケ谷９丁目８番１７－４号,,12,224,2730105,,,,,,,2022-09-20,1,,,,,ミレ,0
1971,9040003020850,新規,0,2022-09-20,2022-09-20,ＡＳＩＡＮ　ＭＯＴＯＲＳ合同会社,,合同会社,千葉県,山武市,松尾町借毛本郷２２８８番地３,,12,237,2891537,,,,,,,2022-09-20,1,,,,,アジアンモータース,0
1976,9070001039642,新規,0,2022-09-20,2022-09-20,株式会社メシア,,株式会社,群馬県,太田市,新田木崎町１１０２番地７３,,10,205,3700321,,,,,,,2022-09-20,1,,,,,メシア,0
1977,9070001039650,新規,0,2022-09-20,2022-09-20,株式会社原澤牧場,,株式会社,群馬県,利根郡みなかみ町,羽場１０９５番地１,,10,449,3791412,,,,,,,2022-09-20,1,,,,,ハラサワボクジョウ,0
1978,9080103002638,新規,0,2022-09-20,2022-09-20,ＳＨＩＮＰＵ　ＥＸＰＲＥＳＳ合同会社,,合同会社,静岡県,御殿場市,神場６４６番地の２５９,,22,215,4120047,,,,,,,2022-09-20,1,,,,,シンプウエキスプレス,0
1994,9120001248915,新規,0,2022-09-20,2022-09-20,株式会社マックス,,株式会社,大阪府,大阪市中央区,宗右衛門町４番６号平の家ビル４０３号,,27,128,5420084,,,,,,,2022-09-20,1,,,,,マックス,0
1995,9120001248923,新規,0,2022-09-20,2022-09-20,獅子岩株式会社,,株式会社,大阪府,大阪市中央区,船場中央２丁目１番４号船場センタービル４号館地下一階Ｂ１０８ＲＯＹＡＬＯＦＦＩＣＥ内,,27,128,5410055,,,,,,,2022-09-20,1,,,,,シシイワ,0
1996,9120001248931,新規,0,2022-09-20,2022-09-20,株式会社イーティーオー,,株式会社,大阪府,大阪市住之江区,粉浜西２丁目１７番３０号,,27,125,5590007,,,,,,,2022-09-20,1,,,,,イーティーオー,0
2004,9130001072604,新規,0,2022-09-20,2022-09-20,株式会社ｌｏｃｏｈｏｕｓｅ,,株式会社,京都府,京都市南区,唐橋赤金町１番地,,26,107,6018463,,,,,,,2022-09-20,1,,,,,ロコハウス,0
2005,9130001072645,新規,0,2022-09-20,2022-09-20,株式会社ＡＹＡＮＯ,,株式会社,京都府,京都市左京区,下鴨上川原町２４,,26,103,6060812,,,,,,,2022-09-20,1,,,,,アヤノ,0
2018,9180001153036,新規,0,2022-09-20,2022-09-20,株式会社大空,,株式会社,愛知県,稲沢市,平和町鷲尾４２６番地１,,23,220,4901305,,,,,,,2022-09-20,1,,,,,オオゾラ,0
2019,9180001153044,新規,0,2022-09-20,2022-09-20,株式会社ナオス,,株式会社,愛知県,名古屋市西区,名塚町１丁目１１６番地,,23,104,4510081,,,,,,,2022-09-20,1,,,,,ナオス,0
2020,9180001153052,新規,0,2022-09-20,2022-09-20,株式会社ウインクシオ,,株式会社,愛知県,丹羽郡扶桑町,大字高雄字定松８番地１,,23,362,4800102,,,,,,,2022-09-20,1,,,,,ウインクシオ,0
2036,9200001040454,新規,0,2022-09-20,2022-09-20,株式会社ＲＰＭ　Ｍｏｔｏｒｓ,,株式会社,岐阜県,安八郡安八町,西結字東甚内山２３６７番地,,21,383,5030111,,,,,,,2022-09-20,1,,,,,アールピーエムモータース,0
2038,9200003005678,新規,0,2022-09-20,2022-09-20,合同会社花水木,,合同会社,岐阜県,岐阜市,下奈良３丁目３番５号,,21,201,5008385,,,,,,,2022-09-20,1,,,,,ハナミズキ,0
2047,9240005015457,新規,0,2022-09-20,2022-09-20,医療法人社団りんご会,,その他の設立登記法人,広島県,広島市西区,庚午南１丁目３０番１３号,,34,104,7330823,,,,,,,2022-09-20,1,,,,,リンゴカイ,0
2060,9290001098963,新規,0,2022-09-20,2022-09-20,株式会社明幸舎,,株式会社,福岡県,福岡市中央区,警固２丁目６－１６ＭＯＤＥＲＮ　ＰＡＬＡＺＺＯ　Ｋｅｇｏ　Ｆｏｒｅｓｔ１０３号,,40,133,8100023,,,,,,,2022-09-20,1,,,,,メイコウシャ,0
2071,9310001018035,新規,0,2022-09-20,2022-09-20,株式会社アトリエ雪草,,株式会社,長崎県,西海市,大瀬戸町雪浦上郷１２３番地,,42,212,8572327,,,,,,,2022-09-20,1,,,,,アトリエユキクサ,0
2072,9320001019338,新規,0,2022-09-20,2022-09-20,株式会社Ｓａｎｄａｙｓ　Ｈｉｌｌ,,株式会社,大分県,大分市,新貝１２番５０－７０８号パレスト高城エクシア,,44,201,8700911,,,,,,,2022-09-20,1,,,,,サンデイズヒル,0
2094,9430001087514,新規,0,2022-09-20,2022-09-20,株式会社ＳＹＵＬＩＳＴ,,株式会社,北海道,札幌市北区,拓北六条１丁目６番１号,,01,102,0028066,,,,,,,2022-09-20,1,,,,,シュウリスト,0
2097,9430003014284,新規,0,2022-09-20,2022-09-20,合同会社ＩＮＦＩＮＩＴＹ,,合同会社,北海道,札幌市中央区,北六条西１１丁目２５番地１号セントラルシックス１０１号室,,01,101,0600006,,,,,,,2022-09-20,1,,,,,インフィニティ,0
