sequenceNumber,corporateNumber,process,correct,updateDate,changeDate,name,nameImageId,kind,prefectureName,cityName,streetNumber,addressImageId,prefectureCode,cityCode,postCode,addressOutside,addressOutsideImageId,closeDate,closeCause,successorCorporateNumber,changeCause,assignmentDate,latest,enName,enPrefectureName,enCityName,enAddressOutside,furigana,hihyoji
11,1010003025372,登記記録の閉鎖等,0,2026-02-16,2026-02-12,合同会社ＣＲＥＣＩＥＮＴＥ,,合同会社,東京都,中央区,銀座７丁目１３番６号サガミビル２階,,13,102,1040061,,,2026-02-12,合併による解散等,8010703003027,令和８年１月３１日東京都品川区小山台一丁目２９番１号合同会社ＧＲＯＷＩＮＧ（8010703003027）に合併し解散,2017-05-19,1,,,,,,0
45,1010801005501,登記記録の閉鎖等,0,2026-02-16,2026-02-03,株式会社島田企画,,株式会社,東京都,大田区,大森中１丁目１５番６号,,13,111,1430014,,,2026-02-03,清算の結了等,,,2015-10-05,1,,,,,シマダキカク,0
46,1010802012174,登記記録の閉鎖等,0,2026-02-16,2026-02-05,有限会社広美精機,,有限会社,東京都,大田区,多摩川２丁目２１番６号,,13,111,1460095,,,2026-02-05,清算の結了等,,,2015-10-05,1,,,,,ヒロミセイキ,0
65,1011101017690,登記記録の閉鎖等,0,2026-02-16,2026-02-04,株式会社パルホーム,,株式会社,東京都,新宿区,西新宿８丁目８番１５号,,13,104,1600023,,,2026-02-04,清算の結了等,,,2025-07-10,1,,,,,パルホーム,0
66,1011101021395,登記記録の閉鎖等,0,2026-02-16,2026-02-06,株式会社山銀,,株式会社,東京都,新宿区,西新宿７丁目８番６号,,13,104,1600023,,,2026-02-06,清算の結了等,,,2025-12-12,1,,,,,ヤマギン,0
74,1011602021365,登記記録の閉鎖等,0,2026-02-16,2026-02-10,有限会社ワールドヘルスケア,,有限会社,東京都,練馬区,大泉学園町６丁目２番２５号,,13,120,1780061,,,2026-02-10,清算の結了等,,,2015-10-05,1,,,,,ワールドヘルスケア,0
77,1011702007875,登記記録の閉鎖等,0,2026-02-16,2026-02-06,有限会社東京キムラフーズ,,有限会社,東京都,江戸川区,東葛西４丁目６番１２号,,13,123,1340084,,,2026-02-06,清算の結了等,,,2015-10-05,1,,,,,トウキョウキムラフーズ,0
81,1012402017578,登記記録の閉鎖等,0,2026-02-16,2026-02-04,有限会社ビッグバン,,有限会社,東京都,西東京市,柳沢２丁目１４番６－７０３号,,13,229,2020022,,,2026-02-04,清算の結了等,,,2015-10-05,1,,,,,ビッグバン,0
84,1013202006333,登記記録の閉鎖等,0,2026-02-16,2026-01-22,有限会社明芳,,有限会社,東京都,目黒区,下目黒５丁目９番１号,,13,110,1530064,,,2026-01-22,清算の結了等,,,2015-10-05,1,,,,,メイホウ,0
87,1020001144099,登記記録の閉鎖等,0,2026-02-16,2026-02-02,株式会社ＫＵＫＵＲＵ,,株式会社,神奈川県,横浜市青葉区,鴨志田町５６３番地２０,,14,117,2270033,,,2026-02-02,合併による解散等,6020001126729,令和８年２月１日神奈川県横浜市青葉区美しが丘西三丁目６４番地１０メゾンベールたまプラーザ２０１株式会社ウェルミナス（6020001126729）に合併し解散,2021-11-29,1,,,,,ククル,0
101,1030002119280,登記記録の閉鎖等,0,2026-02-16,2026-02-10,有限会社エー・ダブル電子,,有限会社,静岡県,富士市,松岡４２６番地７,,22,210,4160909,,,2026-02-10,清算の結了等,,,2015-10-05,1,,,,,エーダブルデンシ,0
114,1050001017649,登記記録の閉鎖等,0,2026-02-16,2026-02-09,株式会社江原工業所,,株式会社,茨城県,つくば市,谷田部２２６５番地１,,08,220,3050861,,,2026-02-09,清算の結了等,,,2015-10-05,1,,,,,エバラコウギョウショ,0
119,1050002032952,登記記録の閉鎖等,0,2026-02-16,2026-02-04,有限会社アイエムエンタープライズ,,有限会社,茨城県,龍ケ崎市,小柴３丁目１０番地１２,,08,208,3010044,,,2026-02-04,清算の結了等,,,2015-10-05,1,,,,,アイエムエンタープライズ,0
123,1070002012390,登記記録の閉鎖等,0,2026-02-16,2026-02-09,めんぼう山本有限会社,,有限会社,群馬県,高崎市,浜川町２３４番地５,,10,202,3700081,,,2026-02-09,清算の結了等,,,2015-10-05,1,,,,,メンボウヤマモト,0
129,1120001137134,登記記録の閉鎖等,0,2026-02-16,2026-02-10,株式会社ジュッポー・メディカルソリューション,,株式会社,大阪府,大阪市北区,松ケ枝町１番３９号,,27,127,5300037,,,2026-02-10,清算の結了等,,,2015-10-05,1,,,,,ジュッポーメディカルソリューション,0
133,1120003028843,登記記録の閉鎖等,0,2026-02-16,2026-02-10,系統引導伝習院合同会社,,合同会社,大阪府,大阪市天王寺区,寺田町２丁目５－６－８０６室,,27,109,5430045,,,2026-02-10,清算の結了等,,,2025-03-18,1,,,,,ケイトウインドウデンシュウイン,0
138,1120102012228,登記記録の閉鎖等,0,2026-02-16,2026-02-02,有限会社池田組,,有限会社,大阪府,堺市美原区,平尾３２３３番４号,,27,147,5870022,,,2026-02-02,清算の結了等,,,2015-10-05,1,,,,,イケダグミ,0
142,1122001004248,登記記録の閉鎖等,0,2026-02-16,2026-02-02,大銘プラスチック株式会社,,株式会社,大阪府,東大阪市,七軒家１８番１５号,,27,227,5770005,,,2026-02-02,合併による解散等,3122001008486,令和８年２月１日大阪府東大阪市七軒家１８番１５号大阪銘板株式会社（3122001008486）に合併し解散,2015-10-05,1,,,,,ダイメイプラスチック,0
152,1140001059806,登記記録の閉鎖等,0,2026-02-16,2026-02-10,大同通信工業株式会社,,株式会社,兵庫県,姫路市,北平野台町２番２９号,,28,201,6700895,,,2026-02-10,清算の結了等,,,2015-10-05,1,,,,,ダイドウツウシンコウギョウ,0
163,1180001047105,登記記録の閉鎖等,0,2026-02-16,2026-02-10,株式会社テラコ,,株式会社,愛知県,名古屋市南区,豊２丁目１３番３号,,23,112,4570863,,,2026-02-10,清算の結了等,,,2015-10-05,1,,,,,テラコ,0
174,1210002007566,登記記録の閉鎖等,0,2026-02-16,2026-02-13,有限会社喜船,,有限会社,福井県,あわら市,舟津第４７号５１番地,,18,208,9104105,,,2026-02-13,清算の結了等,,,2015-10-05,1,,,,,キフネ,0
179,1250001013388,登記記録の閉鎖等,0,2026-02-16,2026-02-09,株式会社ＫＭ,,株式会社,山口県,下関市,綾羅木新町１丁目１０－２５,,35,201,7510865,,,2026-02-09,清算の結了等,,,2015-10-05,1,,,,,ケイエム,0
201,1370001049180,登記記録の閉鎖等,0,2026-02-16,2026-02-10,株式会社八木組,,株式会社,宮城県,東松島市,牛網字駅前二丁目３２番地１４,,04,214,9810301,,,2026-02-10,清算の結了等,,,2022-10-28,1,,,,,ヤギグミ,0
202,1370002007872,登記記録の閉鎖等,0,2026-02-16,2026-02-10,有限会社扇田,,有限会社,宮城県,仙台市宮城野区,銀杏町７番４０号,,04,102,9830047,,,2026-02-10,清算の結了等,,,2015-10-05,1,,,,,センダ,0
209,1390001008705,登記記録の閉鎖等,0,2026-02-16,2026-02-02,船実運輸株式会社,,株式会社,山形県,最上郡舟形町,堀内１５２２番地,,06,363,9994604,,,2026-02-02,合併による解散等,3390002011086,令和８年２月１日山形県最上郡舟形町堀内１５２２番地株式会社門脇産業（3390002011086）に合併し解散,2015-10-05,1,,,,,フナミウンユ,0
221,1490002003109,登記記録の閉鎖等,0,2026-02-16,2026-02-12,有限会社高木建設工業,,有限会社,高知県,高知市,孕西町２５２番地,,39,201,7808022,,,2026-02-12,清算の結了等,,,2015-10-05,1,,,,,タカギケンセツコウギョウ,0
224,2010001087125,登記記録の閉鎖等,0,2026-02-16,2025-09-30,株式会社エスアイピー,,株式会社,東京都,千代田区,神田練塀町３番,,13,101,1010022,,,2025-09-30,合併による解散等,9040001021322,令和７年９月３０日東京都千代田区神田練塀町３番株式会社ワンズコーポレーション（9040001021322）に合併し解散,2015-10-05,1,,,,,エスアイピー,0
241,2010003024828,登記記録の閉鎖等,0,2026-02-16,2026-01-28,睦合同会社,,合同会社,東京都,千代田区,神田司町２丁目２－２大森ビル９０２,,13,101,1010048,,,2026-01-28,清算の結了等,,,2017-02-10,1,,,,,ムツミ,0
242,2010003039272,登記記録の閉鎖等,0,2026-02-16,2026-01-28,ＴＣ１１合同会社,,合同会社,東京都,中央区,日本橋１丁目４番１号日本橋一丁目ビルディング,,13,102,1030027,,,2026-01-28,清算の結了等,,,2022-12-07,1,,,,,ティーシーイレブン,0
243,2010003043076,登記記録の閉鎖等,0,2026-02-16,2026-01-27,新庄ヒルズカントリークラブ合同会社,,合同会社,東京都,中央区,日本橋２丁目２番２１号日本橋二丁目ビル４階スリーエス内,,13,102,1030027,,,2026-01-27,清算の結了等,,,2024-03-04,1,,,,,シンジョウヒルズカントリークラブ,0
264,2010801011770,登記記録の閉鎖等,0,2026-02-16,2026-02-02,株式会社明王化成,,株式会社,神奈川県,横浜市港北区,綱島東５丁目８番８号,,14,109,2230052,,,2026-02-02,合併による解散等,3020001020348,令和８年２月１日横浜市港北区綱島東五丁目８番８号株式会社山王（3020001020348）に合併し解散,2015-10-05,1,,,,,メイオウカセイ,0
266,2010902023533,登記記録の閉鎖等,0,2026-02-16,2026-02-09,有限会社ＡＺＺＵＲＲＯ,,有限会社,東京都,世田谷区,弦巻１丁目２３番８－３１１号,,13,112,1540016,,,2026-02-09,清算の結了等,,,2015-10-05,1,,,,,,0
267,2011001138470,登記記録の閉鎖等,0,2026-02-16,2026-01-21,株式会社薺,,株式会社,東京都,渋谷区,神宮前３丁目３６番２６－１０１号,,13,113,1500001,,,2026-01-21,清算の結了等,,,2021-02-08,1,,,,,ナズナ,0
277,2011103009479,登記記録の閉鎖等,0,2026-02-16,2026-02-03,合同会社ｉｒｉｓ　ｏｎｌｉｎｅ,,合同会社,東京都,東久留米市,本町１丁目４番４７号,,13,222,2030053,,,2026-02-03,清算の結了等,,,2020-02-17,1,,,,,イリスオンライン,0
322,2040001012690,登記記録の閉鎖等,0,2026-02-16,2026-01-22,渋井興業株式会社,,株式会社,千葉県,千葉市稲毛区,穴川１丁目８番１５号,,12,103,2630024,,,2026-01-22,清算の結了等,,,2015-10-05,1,,,,,シブイコウギョウ,0
328,2040002006122,登記記録の閉鎖等,0,2026-02-16,2026-01-22,有限会社砂田設備工業,,有限会社,千葉県,千葉市美浜区,高洲２丁目６番２棟１０５号,,12,106,2610004,,,2026-01-22,清算の結了等,,,2015-10-05,1,,,,,スナダセツビコウギョウ,0
341,2100002021809,登記記録の閉鎖等,0,2026-02-16,2026-02-10,有限会社ミルクネット,,有限会社,長野県,松本市,大字島内１９８４番地,,20,202,3900851,,,2026-02-10,清算の結了等,,,2015-10-05,1,,,,,ミルクネット,0
342,2100002025000,登記記録の閉鎖等,0,2026-02-16,2026-02-12,有限会社ソーン設計事務所,,有限会社,東京都,八王子市,大船町１８０番地１８,,13,201,1930935,,,2026-02-12,清算の結了等,,,2015-10-05,1,,,,,ソーンセッケイジムショ,0
344,2110003004308,登記記録の閉鎖等,0,2026-02-16,2026-02-06,グラーテス合同会社,,合同会社,新潟県,新潟市西蒲区,巻甲４０４５番地１,,15,108,9530041,,,2026-02-06,清算の結了等,,,2020-11-06,1,,,,,グラーテス,0
364,2130001006659,登記記録の閉鎖等,0,2026-02-16,2026-02-06,株式会社スペシャリー,,株式会社,京都府,京都市下京区,仏光寺通室町東入釘隠町２４４番地,,26,106,6008423,,,2026-02-06,合併による解散等,2130001018571,令和８年１月３０日京都市下京区仏光寺通室町東入釘隠町２３８・２４０番地合地株式会社平田清商店（2130001018571）に合併し解散,2015-10-05,1,,,,,スペシャリー,0
367,2130001021740,登記記録の閉鎖等,0,2026-02-16,2026-02-12,株式会社デコス,,株式会社,京都府,京都市北区,上賀茂本山２０８番地３０,,26,101,6038047,,,2026-02-12,清算の結了等,,,2015-10-05,1,,,,,デコス,0
377,2160003001449,登記記録の閉鎖等,0,2026-02-16,2026-02-09,合同会社横山フードテクノ,,合同会社,滋賀県,近江八幡市,船木町１３０５,,25,204,5230084,,,2026-02-09,清算の結了等,,,2016-12-13,1,,,,,ヨコヤマフードテクノ,0
379,2170002009013,登記記録の閉鎖等,0,2026-02-16,2026-02-12,有限会社広井コンタクトレンズ,,有限会社,和歌山県,田辺市,下屋敷町８７番地,,30,206,6460032,,,2026-02-12,清算の結了等,,,2015-10-05,1,,,,,ヒロイコンタクトレンズ,0
380,2180001005961,登記記録の閉鎖等,0,2026-02-16,2026-02-10,アオキ流通株式会社,,株式会社,愛知県,名古屋市港区,多加良浦町４丁目６６番地,,23,111,4550825,,,2026-02-10,清算の結了等,,,2015-10-05,1,,,,,アオキリュウツウ,0
390,2180302027077,登記記録の閉鎖等,0,2026-02-16,2026-02-12,有限会社ミヤテック,,有限会社,愛知県,西尾市,吉良町富田市子野５８番地１,,23,213,4440525,,,2026-02-12,清算の結了等,,,2015-10-05,1,,,,,ミヤテック,0
399,2240001027586,登記記録の閉鎖等,0,2026-02-16,2026-02-10,株式会社モリヒロ,,株式会社,広島県,呉市,安浦町内海南４丁目３番９号,,34,202,7372519,,,2026-02-10,清算の結了等,,,2015-10-05,1,,,,,モリヒロ,0
401,2250002013766,登記記録の閉鎖等,0,2026-02-16,2026-02-12,有限会社江崎アパレル,,有限会社,山口県,萩市,大字下田万１６２６番地４,,35,204,7593112,,,2026-02-12,清算の結了等,,,2015-10-05,1,,,,,エサキアパレル,0
406,2280002006313,登記記録の閉鎖等,0,2026-02-16,2026-02-09,山陰パック有限会社,,有限会社,島根県,出雲市,斐川町富村１３３７番地１,,32,203,6990621,,,2026-02-09,合併による解散等,9011101009961,令和８年１月１日東京都新宿区市谷本村町２番１２号昭和パックス株式会社（9011101009961）に合併し解散,2015-10-05,1,,,,,サンインパック,0
432,2380001019479,登記記録の閉鎖等,0,2026-02-16,2026-02-09,小松商事株式会社,,株式会社,福島県,いわき市,泉玉露２丁目１４番地の２７,,07,204,9718172,,,2026-02-09,清算の結了等,,,2015-10-05,1,,,,,コマツショウジ,0
452,3010001024779,登記記録の閉鎖等,0,2026-02-16,2026-02-03,トリノ電子工業株式会社,,株式会社,東京都,台東区,浅草橋４丁目１５番５号,,13,106,1110053,,,2026-02-03,清算の結了等,,,2015-10-05,1,,,,,トリノデンシコウギョウ,0
453,3010001175325,登記記録の閉鎖等,0,2026-02-16,2026-02-04,日本長期収載品機構株式会社,,株式会社,東京都,新宿区,西新宿６丁目１０番１号日土地西新宿ビル１３階,,13,104,1600023,,,2026-02-04,合併による解散等,6010401126445,令和８年２月１日東京都新宿区西新宿六丁目１０番１号日土地西新宿ビル１３階ＬＴＬファーマ株式会社（6010401126445）に合併し解散,2016-04-28,1,,,,,ニホンチョウキシュウサイヒンキコウ,0
467,3010003043075,登記記録の閉鎖等,0,2026-02-16,2026-01-27,新庄ＨＣＣ合同会社,,合同会社,東京都,中央区,日本橋２丁目２番２１号日本橋二丁目ビル４階スリーエス内,,13,102,1030027,,,2026-01-27,清算の結了等,,,2024-02-29,1,,,,,シンジョウエイチシーシー,0
494,3010702001341,登記記録の閉鎖等,0,2026-02-16,2026-02-09,有限会社エス企画,,有限会社,東京都,品川区,大崎３丁目５番７号,,13,109,1410032,,,2026-02-09,清算の結了等,,,2015-10-05,1,,,,,エスキカク,0
516,3012805003173,登記記録の閉鎖等,0,2026-02-16,2026-02-09,一般社団法人生産性向上推進機構,,その他の設立登記法人,東京都,昭島市,昭和町５丁目１番１２号,,13,207,1960015,,,2026-02-09,清算の結了等,,,2023-02-01,1,,,,,セイサンセイコウジョウスイシンキコウ,0
517,3013102003263,登記記録の閉鎖等,0,2026-02-16,2026-02-10,有限会社渡邉技研工業,00059756,有限会社,東京都,西多摩郡瑞穂町,大字高根字高根新田５６８番地の１,,13,303,1901203,,,2026-02-10,清算の結了等,,,2015-10-05,1,,,,,,0
520,3020001005844,登記記録の閉鎖等,0,2026-02-16,2026-02-02,アールテック株式会社,,株式会社,神奈川県,横浜市金沢区,福浦２丁目４番地の１,,14,108,2360004,,,2026-02-02,合併による解散等,5020001020585,令和８年２月１日横浜市港北区新横浜三丁目２２番地４株式会社ジョブ（5020001020585）に合併し解散,2015-10-05,1,,,,,アールテック,0
534,3030001131301,登記記録の閉鎖等,0,2026-02-16,2026-02-05,株式会社ＣＲＡＮＥコーポレーション,,株式会社,埼玉県,川口市,大字安行原１３０番地,,11,203,3340057,,,2026-02-05,清算の結了等,,,2019-06-07,1,,,,,クレインコーポレーション,0
543,3040003021202,登記記録の閉鎖等,0,2026-02-16,2026-01-20,合同会社ケアプランたなか,,合同会社,千葉県,四街道市,大日２３５番地,,12,228,2840001,,,2026-01-20,清算の結了等,,,2022-11-02,1,,,,,ケアプランタナカ,0
560,3080101020044,登記記録の閉鎖等,0,2026-02-16,2026-02-10,株式会社ＢＫエイト,,株式会社,静岡県,沼津市,鳥谷６９９番地の４,,22,203,4100305,,,2026-02-10,清算の結了等,,,2017-09-06,1,,,,,ビーケーエイト,0
580,3120101047611,登記記録の閉鎖等,0,2026-02-16,2026-02-02,株式会社ヒロックス,,株式会社,大阪府,貝塚市,麻生中９６番地４,,27,208,5970081,,,2026-02-02,清算の結了等,,,2015-10-05,1,,,,,ヒロックス,0
592,3140001086220,登記記録の閉鎖等,0,2026-02-16,2026-02-10,株式会社きしもと,,株式会社,兵庫県,南あわじ市,福良甲８２１番地５,,28,224,6560501,,,2026-02-10,清算の結了等,,,2015-10-05,1,,,,,キシモト,0
600,3140005022980,登記記録の閉鎖等,0,2026-02-16,2026-02-09,特定非営利活動法人ＧＰＩ神戸,,その他の設立登記法人,兵庫県,神戸市須磨区,高倉町１丁目２番１２－５０５号,,28,107,6540074,,,2026-02-09,清算の結了等,,,2016-05-24,1,,,,,ジーピーアイコウベ,0
607,3180002011727,登記記録の閉鎖等,0,2026-02-16,2026-02-05,有限会社鈴和工業,,有限会社,愛知県,名古屋市北区,北久手町１８８番地,,23,103,4620001,,,2026-02-05,清算の結了等,,,2015-10-05,1,,,,,,0
618,3190005011418,登記記録の閉鎖等,0,2026-02-16,2026-02-10,一般社団法人お片づけ魔女の学校,,その他の設立登記法人,三重県,名張市,松崎町１４４３番地３３、３０１,,24,208,5180722,,,2026-02-10,清算の結了等,,,2020-03-27,1,,,,,オカタヅケマジョノガッコウ,0
619,3200002021070,登記記録の閉鎖等,0,2026-02-16,2026-02-06,有限会社織部電工,,有限会社,岐阜県,土岐市,泉が丘町５丁目１２８番地,,21,212,5095161,,,2026-02-06,清算の結了等,,,2015-10-05,1,,,,,オリベデンコウ,0
649,3380001018182,登記記録の閉鎖等,0,2026-02-16,2026-02-09,伊丹ブロック工業株式会社,,株式会社,福島県,会津若松市,山鹿町６番１２号,,07,202,9650876,,,2026-02-09,清算の結了等,,,2025-10-01,1,,,,,イタミブロックコウギョウ,0
667,3460002002169,登記記録の閉鎖等,0,2026-02-16,2026-02-10,有限会社那知建設,,有限会社,北海道,釧路市,益浦４丁目３０番２０号,,01,206,0850803,,,2026-02-10,清算の結了等,,,2015-10-05,1,,,,,ナチケンセツ,0
669,3480001011012,登記記録の閉鎖等,0,2026-02-16,2026-02-12,株式会社モモ住設工房,,株式会社,徳島県,徳島市,不動東町１丁目１３８１番地の８,,36,201,7700062,,,2026-02-12,清算の結了等,,,2020-05-11,1,,,,,モモジュウセツコウボウ,0
685,4010001212085,登記記録の閉鎖等,0,2026-02-16,2026-01-28,Ｐｒｏｊｅｃｔ　Ｐｅｏｐｌｅ　Ｊａｐａｎ株式会社,,株式会社,東京都,千代田区,大手町１丁目５番１号大手町ファーストスクエアイーストタワー４階,,13,101,1000004,,,2026-01-28,清算の結了等,,,2020-09-11,1,,,,,プロジェクトピープルジャパン,0
686,4010001225161,登記記録の閉鎖等,0,2026-02-16,2026-01-28,株式会社シースリーソリューションズ,,株式会社,東京都,中央区,築地２丁目１番１６号５階,,13,102,1040045,,,2026-01-28,清算の結了等,,,2022-03-17,1,,,,,シースリーソリューションズ,0
726,4010703005563,登記記録の閉鎖等,0,2026-02-16,2026-01-19,Ａｏｎｏｒｙ合同会社,,合同会社,東京都,品川区,西五反田８丁目２－１３シティインデックス西五反田１１０３,,13,109,1410031,,,2026-01-19,清算の結了等,,,2020-12-23,1,,,,,アオノリ,0
737,4011003016202,登記記録の閉鎖等,0,2026-02-16,2026-01-26,合同会社ＡＦＲＡ　Ｊａｐａｎ　ＭＣ　ＪＰＹ,,合同会社,東京都,目黒区,大橋２丁目２２番７号,,13,110,1530044,,,2026-01-26,清算の結了等,,,2023-01-30,1,,,,,エーエフアールエージャパンエムシージェーピーワイ,0
755,4012701000050,登記記録の閉鎖等,0,2026-02-16,2026-02-03,株式会社マルヨ,,株式会社,東京都,小平市,津田町３丁目２５番３１号,,13,211,1870025,,,2026-02-03,清算の結了等,,,2015-10-05,1,,,,,マルヨ,0
767,4020001057430,登記記録の閉鎖等,0,2026-02-16,2026-02-09,株式会社パインリバー,,株式会社,神奈川県,川崎市川崎区,江川２丁目１５番１－６０２号,,14,131,2100823,,,2026-02-09,清算の結了等,,,2015-10-05,1,,,,,パインリバー,0
772,4020001158773,登記記録の閉鎖等,0,2026-02-16,2026-02-02,株式会社ｍｉｃｏｔ,,株式会社,神奈川県,横浜市青葉区,鴨志田町５６３番地２０,,14,117,2270033,,,2026-02-02,合併による解散等,6020001126729,令和８年２月１日神奈川県横浜市青葉区美しが丘西三丁目６４番地１０メゾンベールたまプラーザ２０１株式会社ウェルミナス（6020001126729）に合併し解散,2024-08-28,1,,,,,ミコット,0
803,4060001035143,登記記録の閉鎖等,0,2026-02-16,2026-02-12,アキ株式会社,,株式会社,栃木県,宇都宮市,下栗町７５７番地３６ソーレルメゾン２０１,,09,201,3210923,,,2026-02-12,清算の結了等,,,2022-08-05,1,,,,,アキ,0
806,4070002012082,登記記録の閉鎖等,0,2026-02-16,2026-02-10,有限会社マツバラ,,有限会社,群馬県,高崎市,上豊岡町７５１番地,,10,202,3700871,,,2026-02-10,清算の結了等,,,2015-10-05,1,,,,,マツバラ,0
808,4100001028167,登記記録の閉鎖等,0,2026-02-16,2026-02-10,株式会社岡谷エンジニアリング,,株式会社,長野県,岡谷市,大栄町１丁目１０番３号,,20,204,3940025,,,2026-02-10,清算の結了等,,,2015-10-05,1,,,,,オカヤエンジニアリング,0
829,4120901033941,登記記録の閉鎖等,0,2026-02-16,2026-02-03,株式会社メディアホールディングス,,株式会社,大阪府,吹田市,垂水町３丁目２番１号,,27,205,5640062,,,2026-02-03,合併による解散等,7120901014237,令和８年２月１日大阪府吹田市垂水町三丁目２番１号株式会社ネクスト（7120901014237）に合併し解散,2015-10-05,1,,,,,メディアホールディングス,0
830,4122003001100,登記記録の閉鎖等,0,2026-02-16,2026-02-03,合同会社Ｔｅａｍ,,合同会社,大阪府,東大阪市,菱屋西１丁目９番５号,,27,227,5770807,,,2026-02-03,清算の結了等,,,2015-10-05,1,,,,,チーム,0
839,4140001041851,登記記録の閉鎖等,0,2026-02-16,2026-02-12,株式会社松岡瓦店,,株式会社,兵庫県,丹波篠山市,川北８０５番地,,28,221,6692724,,,2026-02-12,清算の結了等,,,2015-10-05,1,,,,,マツオカカワラテン,0
853,4190001020272,登記記録の閉鎖等,0,2026-02-16,2026-02-09,Ｖコーポレーション株式会社,,株式会社,三重県,四日市市,生桑町１６１８番地５,,24,202,5120911,,,2026-02-09,清算の結了等,,,2015-10-05,1,,,,,ブイコーポレーション,0
857,4230002012272,登記記録の閉鎖等,0,2026-02-16,2026-02-12,有限会社吉江左官工業所,,有限会社,富山県,高岡市,清水町２丁目６番１号,,16,202,9330866,,,2026-02-12,清算の結了等,,,2015-10-05,1,,,,,ヨシエサカンコウギョウショ,0
862,4260001017906,登記記録の閉鎖等,0,2026-02-16,2026-02-09,安原建鉄株式会社,,株式会社,岡山県,笠岡市,笠岡２３５５番地の１６,,33,205,7140081,,,2026-02-09,清算の結了等,,,2015-10-05,1,,,,,ヤスハラケンテツ,0
879,4340001011248,登記記録の閉鎖等,0,2026-02-16,2026-02-09,霧島建設株式会社,,株式会社,鹿児島県,霧島市,溝辺町崎森１１０２番地１０,,46,218,8996405,,,2026-02-09,清算の結了等,,,2015-10-05,1,,,,,キリシマケンセツ,0
881,4340002001966,登記記録の閉鎖等,0,2026-02-16,2026-02-10,有限会社エム・エム・ケイ,,有限会社,鹿児島県,鹿児島市,新屋敷町７番３６号１Ｆ,,46,201,8920838,,,2026-02-10,清算の結了等,,,2015-10-05,1,,,,,エムエムケイ,0
889,4430001023738,登記記録の閉鎖等,0,2026-02-16,2026-02-10,丸松総業株式会社,,株式会社,北海道,札幌市北区,あいの里三条１０丁目１１番８号,,01,102,0028073,,,2026-02-10,清算の結了等,,,2015-10-05,1,,,,,マルマツソウギョウ,0
900,4430002008886,登記記録の閉鎖等,0,2026-02-16,2026-02-10,有限会社サワダ,,有限会社,北海道,札幌市手稲区,新発寒三条５丁目６番３号,,01,109,0060803,,,2026-02-10,清算の結了等,,,2015-10-05,1,,,,,サワダ,0
907,4460302004418,登記記録の閉鎖等,0,2026-02-16,2026-02-12,有限会社とみや商店,,有限会社,北海道,網走市,南六条東２丁目１番地,,01,211,0930006,,,2026-02-12,清算の結了等,,,2015-10-05,1,,,,,,0
909,4490001007140,登記記録の閉鎖等,0,2026-02-16,2026-02-12,株式会社ニワトリノニワ,,株式会社,徳島県,阿波市,土成町土成字山ノ本３番地,,36,206,7711506,,,2026-02-12,清算の結了等,,,2015-10-05,1,,,,,ニワトリノニワ,0
910,4490002013121,登記記録の閉鎖等,0,2026-02-16,2026-02-13,有限会社吉良川造船所,,有限会社,高知県,室戸市,吉良川町甲４４３番地,,39,202,7816832,,,2026-02-13,清算の結了等,,,2015-10-05,1,,,,,キラガワゾウセンショ,0
917,5010001206689,登記記録の閉鎖等,0,2026-02-16,2026-02-09,株式会社にほん,,株式会社,東京都,品川区,東品川１丁目３２番３号アイルサイドテラス５０２,,13,109,1400002,,,2026-02-09,清算の結了等,,,2020-01-15,1,,,,,ニホン,0
959,5010901004721,登記記録の閉鎖等,0,2026-02-16,2026-02-10,佐々木合成株式会社,,株式会社,東京都,世田谷区,上馬４丁目３２番１号,,13,112,1540011,,,2026-02-10,清算の結了等,,,2015-10-05,1,,,,,ササキゴウセイ,0
983,5011101078894,登記記録の閉鎖等,0,2026-02-16,2026-02-02,株式会社フェリアース,,株式会社,東京都,東久留米市,幸町３丁目８番１２号,,13,222,2030052,,,2026-02-02,清算の結了等,,,2016-12-02,1,,,,,フェリアース,0
992,5011503004234,登記記録の閉鎖等,0,2026-02-16,2026-02-12,合同会社ファイブエレメンツ,,合同会社,東京都,荒川区,東日暮里４丁目６番１号コスモ東日暮里グレイスフォルム６０１号,,13,118,1160014,,,2026-02-12,清算の結了等,,,2019-12-27,1,,,,,ファイブエレメンツ,0
1000,5012801023264,登記記録の閉鎖等,0,2026-02-16,2026-02-06,Ｍｉｌａｎ　Ｙｕｚｕ　Ｊａｐａｎ株式会社,,株式会社,東京都,国立市,富士見台１丁目１３番地の９神代マンション２０５,,13,215,1860003,,,2026-02-06,清算の結了等,,,2024-06-21,1,,,,,ミランユズジャパン,0
1033,5040001138178,登記記録の閉鎖等,0,2026-02-16,2026-01-20,マーケットリフト株式会社,,株式会社,千葉県,松戸市,新松戸３丁目３２８番地Ｂ－２１７,,12,207,2700034,,,2026-01-20,清算の結了等,,,2025-04-10,1,,,,,マーケットリフト,0
1036,5040002021234,登記記録の閉鎖等,0,2026-02-16,2026-01-20,有限会社小野尾商事,,有限会社,千葉県,船橋市,日の出２丁目６番１１号,,12,204,2730015,,,2026-01-20,清算の結了等,,,2015-10-05,1,,,,,オノオショウジ,0
1037,5040002035721,登記記録の閉鎖等,0,2026-02-16,2026-01-21,有限会社登尚園,,有限会社,千葉県,市川市,塩浜２丁目３３番１,,12,203,2720127,,,2026-01-21,清算の結了等,,,2015-10-05,1,,,,,トウショウエン,0
1041,5050001015608,登記記録の閉鎖等,0,2026-02-16,2026-02-02,株式会社近藤工務店,,株式会社,茨城県,つくば市,谷田部３２２９番地３,,08,220,3050861,,,2026-02-02,合併による解散等,7050001025349,令和８年２月１日茨城県つくば市六斗１０２３番１株式会社田崎（7050001025349）に合併し解散,2015-10-05,1,,,,,コンドウコウムテン,0
1044,5050002009674,登記記録の閉鎖等,0,2026-02-16,2026-02-10,有限会社シオサイ,,有限会社,茨城県,東茨城郡大洗町,磯浜町８２２８番地の７０,,08,309,3111301,,,2026-02-10,清算の結了等,,,2015-10-05,1,,,,,シオサイ,0
1045,5050002024384,登記記録の閉鎖等,0,2026-02-16,2026-02-05,有限会社綾部電気,,有限会社,茨城県,古河市,小堤１４２０番地の７,,08,204,3060231,,,2026-02-05,清算の結了等,,,2015-10-05,1,,,,,アヤベデンキ,0
1059,5070002018847,登記記録の閉鎖等,0,2026-02-16,2026-02-10,有限会社グルーポマルシン,,有限会社,群馬県,伊勢崎市,今泉町２丁目８４８番地,,10,204,3720031,,,2026-02-10,清算の結了等,,,2015-10-05,1,,,,,グルーポマルシン,0
1060,5080001005333,登記記録の閉鎖等,0,2026-02-16,2026-02-12,安銀木材株式会社,,株式会社,静岡県,静岡市葵区,新伝馬３丁目９番５０号,,22,101,4200944,,,2026-02-12,清算の結了等,,,2015-10-05,1,,,,,ヤスギンモクザイ,0
1061,5080001018269,登記記録の閉鎖等,0,2026-02-16,2026-02-12,ＡＲＭＳ株式会社,,株式会社,静岡県,静岡市駿河区,八幡３丁目１３－３,,22,102,4228076,,,2026-02-12,清算の結了等,,,2015-10-05,1,,,,,アームス,0
1091,5122001009318,登記記録の閉鎖等,0,2026-02-16,2026-02-02,株式会社エックスバリュー,,株式会社,大阪府,東大阪市,七軒家１８番１５号,,27,227,5770005,,,2026-02-02,合併による解散等,3122001008486,令和８年２月１日大阪府東大阪市七軒家１８番１５号大阪銘板株式会社（3122001008486）に合併し解散,2015-10-05,1,,,,,エックスバリュー,0
1096,5130002001862,登記記録の閉鎖等,0,2026-02-16,2026-02-10,有限会社ワイディディ,,有限会社,京都府,京都市右京区,嵯峨天龍寺今堀町１４番地の９,,26,108,6168366,,,2026-02-10,清算の結了等,,,2015-10-05,1,,,,,ワイディディ,0
1109,5170005003514,登記記録の閉鎖等,0,2026-02-16,2026-02-12,医療法人広井眼科医院,,その他の設立登記法人,和歌山県,田辺市,下屋敷町８７番地の１,,30,206,6460032,,,2026-02-12,清算の結了等,,,2015-10-05,1,,,,,ヒロイガンカイイン,0
1112,5180001081868,登記記録の閉鎖等,0,2026-02-16,2026-02-05,株式会社サンクスマイル,,株式会社,愛知県,名古屋市東区,葵３丁目２０番３３号アゴラ葵３０１号,,23,102,4610004,,,2026-02-05,清算の結了等,,,2015-10-05,1,,,,,サンクスマイル,0
1123,5180003028900,登記記録の閉鎖等,0,2026-02-16,2026-02-05,合同会社ｎｉｋｏ　ｌａｂｏ,,合同会社,愛知県,知多市,八幡字里之前４０番地の１,,23,224,4780001,,,2026-02-05,清算の結了等,,,2025-08-20,1,,,,,ニコラボ,0
1142,5250001020876,登記記録の閉鎖等,0,2026-02-16,2026-02-10,アソンデ株式会社,,株式会社,山口県,防府市,天神１丁目３番１号１Ｆ,,35,206,7470034,,,2026-02-10,清算の結了等,,,2024-11-01,1,,,,,アソンデ,0
1144,5260001021279,登記記録の閉鎖等,0,2026-02-16,2026-02-10,株式会社サンエイコーキ,,株式会社,岡山県,和気郡和気町,益原８６０番地の１,,33,346,7090452,,,2026-02-10,清算の結了等,,,2015-10-05,1,,,,,サンエイコーキ,0
1180,5430002027935,登記記録の閉鎖等,0,2026-02-16,2026-02-10,有限会社こもりく,,有限会社,北海道,札幌市厚別区,上野幌三条３丁目２番２号,,01,108,0040033,,,2026-02-10,清算の結了等,,,2015-10-05,1,,,,,コモリク,0
1196,6010001148006,登記記録の閉鎖等,0,2026-02-16,2026-02-02,株式会社ＣｏｏｌＰｒｏｐｓ,,株式会社,東京都,台東区,台東３丁目３２番１号,,13,106,1100016,,,2026-02-02,清算の結了等,,,2015-10-05,1,,,,,,0
1219,6010103000840,登記記録の閉鎖等,0,2026-02-16,2026-02-12,タイバト合同会社,,合同会社,東京都,八王子市,高倉町６２番地市営住宅高倉団地３－１０２,,13,201,1920033,,,2026-02-12,清算の結了等,,,2015-10-05,1,,,,,タイバト,0
1221,6010401116264,登記記録の閉鎖等,0,2026-02-16,2026-02-06,株式会社アベニュー,,株式会社,愛知県,東海市,名和町石田４６番地メゾン兜山ＩＩ（３０１号）,00129172,23,222,4760002,,,2026-02-06,清算の結了等,,,2015-10-05,1,,,,,アベニュー,0
1254,6011002034616,登記記録の閉鎖等,0,2026-02-16,2026-01-21,有限会社ＣＲＡＮＥ,,有限会社,東京都,渋谷区,渋谷２丁目８番１号,,13,113,1500002,,,2026-01-21,清算の結了等,,,2015-10-05,1,,,,,クレーン,0
1264,6011103010490,登記記録の閉鎖等,0,2026-02-16,2026-01-21,合同会社ＭＩＣＥ総合研究所,,合同会社,東京都,新宿区,新小川町８番１８号,,13,104,1620814,,,2026-01-21,清算の結了等,,,2021-03-19,1,,,,,マイスソウゴウケンキュウショ,0
1267,6011602007987,登記記録の閉鎖等,0,2026-02-16,2026-02-10,有限会社パズル,,有限会社,東京都,練馬区,豊玉南２丁目１７番１２号,,13,120,1760014,,,2026-02-10,清算の結了等,,,2015-10-05,1,,,,,パズル,0
1288,6021001049936,登記記録の閉鎖等,0,2026-02-16,2026-01-23,株式会社ＭＡＳＨ,,株式会社,神奈川県,藤沢市,善行１丁目１８番地の４ビューシティ善行２０５,,14,205,2510871,,,2026-01-23,清算の結了等,,,2015-10-05,1,,,,,マッシュ,0
1301,6040001037313,登記記録の閉鎖等,0,2026-02-16,2026-01-09,株式会社パティオ,,株式会社,千葉県,松戸市,六高台４丁目９２番地近鉄ハイツ六実３１０号,,12,207,2702203,,,2026-01-09,清算の結了等,,,2015-10-05,1,,,,,パティオ,0
1302,6040001074587,登記記録の閉鎖等,0,2026-02-16,2026-01-21,株式会社アル・コミュニケーションズ,,株式会社,千葉県,館山市,佐野５８３番地の１２７,,12,205,2940225,,,2026-01-21,清算の結了等,,,2015-10-05,1,,,,,アルコミュニケーションズ,0
1305,6040003005037,登記記録の閉鎖等,0,2026-02-16,2026-01-23,合同会社アトム企画,,合同会社,千葉県,船橋市,習志野５丁目４番１－５０２号,,12,204,2740071,,,2026-01-23,清算の結了等,,,2015-10-05,1,,,,,アトムキカク,0
1307,6050001017933,登記記録の閉鎖等,0,2026-02-16,2026-02-06,株式会社サムライロック,,株式会社,茨城県,つくば市,東新井１９番地３７,,08,220,3050033,,,2026-02-06,清算の結了等,,,2015-10-05,1,,,,,サムライロック,0
1312,6050001050785,登記記録の閉鎖等,0,2026-02-16,2026-02-09,Ｊａｋｅ　Ｉｔｏ　Ｐｒｏｄｕｃｔｓ　Ｄｅｓｉｇｎ株式会社,,株式会社,茨城県,つくば市,吾妻３丁目１３－９（スズキビル）,,08,220,3050031,,,2026-02-09,清算の結了等,,,2022-03-15,1,,,,,ジェイクイトウプロダクツデザイン,0
1339,6120005023689,登記記録の閉鎖等,0,2026-02-16,2026-02-10,一般社団法人福祉総合支援協議会,,その他の設立登記法人,大阪府,大阪市西成区,梅南２丁目４－２７,,27,122,5570033,,,2026-02-10,清算の結了等,,,2023-06-16,1,,,,,フクシソウゴウシエンキョウギカイ,0
1340,6120101070453,登記記録の閉鎖等,0,2026-02-16,2026-02-02,海時大阪株式会社,,株式会社,大阪府,堺市北区,中村町３１７－２,,27,146,5918012,,,2026-02-02,清算の結了等,,,2024-10-24,1,,,,,カイジオオサカ,0
1346,6120902013734,登記記録の閉鎖等,0,2026-02-16,2026-02-03,有限会社リンカーン,,有限会社,大阪府,吹田市,垂水町３丁目２番１号,,27,205,5640062,,,2026-02-03,合併による解散等,7120901014237,令和８年２月１日大阪府吹田市垂水町三丁目２番１号株式会社ネクスト（7120901014237）に合併し解散,2015-10-05,1,,,,,リンカーン,0
1347,6122001035321,登記記録の閉鎖等,0,2026-02-16,2026-02-02,株式会社グリッター,,株式会社,大阪府,八尾市,陽光園１丁目１３番２号,,27,212,5810086,,,2026-02-02,清算の結了等,,,2021-11-09,1,,,,,グリッター,0
1368,6180001009001,登記記録の閉鎖等,0,2026-02-16,2026-02-09,名古屋第一商事株式会社,,株式会社,愛知県,名古屋市昭和区,福江１丁目２６番３号,,23,107,4660059,,,2026-02-09,清算の結了等,,,2015-10-05,1,,,,,ナゴヤダイイチショウジ,0
1371,6180001025188,登記記録の閉鎖等,0,2026-02-16,2026-02-05,株式会社銀扇,,株式会社,愛知県,名古屋市西区,名駅３丁目８番２８号,,23,104,4510045,,,2026-02-05,清算の結了等,,,2015-10-05,1,,,,,,0
1372,6180001092006,登記記録の閉鎖等,0,2026-02-16,2026-02-06,株式会社フアッション館コア,,株式会社,愛知県,半田市,青山１丁目５番地の１４,,23,205,4750836,,,2026-02-06,清算の結了等,,,2015-10-05,1,,,,,フアッションカンコア,0
1375,6180001121061,登記記録の閉鎖等,0,2026-02-16,2026-02-10,株式会社Ａｆｆｅｒｏ,,株式会社,愛知県,名古屋市名東区,富が丘１６７番地,,23,115,4650031,,,2026-02-10,清算の結了等,,,2015-11-17,1,,,,,アフェーロ,0
1382,6180301033254,登記記録の閉鎖等,0,2026-02-16,2026-01-29,株式会社オルタナ,,株式会社,愛知県,刈谷市,寿町４丁目６０１番地,,23,210,4480856,,,2026-01-29,清算の結了等,,,2019-12-24,1,,,,,オルタナ,0
1388,6220001021488,登記記録の閉鎖等,0,2026-02-16,2026-02-12,株式会社キタイチ,,株式会社,石川県,加賀市,柴山町１５８番地,,17,206,9220402,,,2026-02-12,清算の結了等,,,2017-02-21,1,,,,,キタイチ,0
1394,6240005015955,登記記録の閉鎖等,0,2026-02-16,2026-02-16,一般社団法人アジア人財サポート共育会,,その他の設立登記法人,広島県,福山市,明王台５丁目３番２０号,,34,207,7200834,,,2026-02-16,清算の結了等,,,2025-07-09,1,,,,,アジアジンザイサポートキョウイクカイ,0
1417,6310005005222,登記記録の閉鎖等,0,2026-02-16,2026-02-12,特定非営利活動法人大ばとこばと会,,その他の設立登記法人,長崎県,佐世保市,早岐１丁目４番１２号,,42,202,8593215,,,2026-02-12,清算の結了等,,,2015-10-05,1,,,,,オオバトコバトカイ,0
1420,6340001026244,登記記録の閉鎖等,0,2026-02-16,2026-02-06,株式会社ＭＳＴ,,株式会社,鹿児島県,鹿児島市,山之口町８番３５号３Ｆ,,46,201,8920844,,,2026-02-06,清算の結了等,,,2024-01-29,1,,,,,エムエスティー,0
1421,6340005004717,登記記録の閉鎖等,0,2026-02-16,2026-02-06,医療法人美仁会,,その他の設立登記法人,鹿児島県,奄美市,名瀬有屋町１５番地３,,46,222,8940062,,,2026-02-06,清算の結了等,,,2015-10-05,1,,,,,ビジンカイ,0
1431,6370005009928,登記記録の閉鎖等,0,2026-02-16,2026-02-09,農事組合法人二俣南,,その他の設立登記法人,宮城県,石巻市,北境字久保５０番地２,,04,202,9860123,,,2026-02-09,清算の結了等,,,2019-05-07,1,,,,,フタマタミナミ,0
1434,6400002010430,登記記録の閉鎖等,0,2026-02-16,2026-02-06,有限会社ショクサンとおの,,有限会社,岩手県,遠野市,松崎町白岩１９地割８８番地,,03,208,0280541,,,2026-02-06,清算の結了等,,,2015-10-05,1,,,,,ショクサントオノ,0
1435,6420002012747,登記記録の閉鎖等,0,2026-02-16,2026-02-10,あい医療サービス有限会社,,有限会社,青森県,弘前市,大字中野５丁目５番地１７,,02,202,0368155,,,2026-02-10,清算の結了等,,,2015-10-05,1,,,,,アイイリョウサービス,0
1439,6430002063426,登記記録の閉鎖等,0,2026-02-16,2026-02-12,有限会社福井乳業,,有限会社,北海道,伊達市,末永町１２番地４７,,01,233,0520021,,,2026-02-12,清算の結了等,,,2015-10-05,1,,,,,フクイニュウギョウ,0
1448,7010001116044,登記記録の閉鎖等,0,2026-02-16,2026-01-29,大和ビジネスコンサルティング株式会社,,株式会社,東京都,千代田区,一ツ橋１丁目１番１号,,13,101,1000003,,,2026-01-29,清算の結了等,,,2015-10-05,1,,,,,ダイワビジネスコンサルティング,0
1451,7010001251270,登記記録の閉鎖等,0,2026-02-16,2026-01-28,Ｐｕｄｕ　Ｉｎｔｅｒｎａｔｉｏｎａｌ　Ｊａｐａｎ株式会社,,株式会社,東京都,中央区,入船１丁目９－８ピエノアーク入船８Ｆ,,13,102,1040042,,,2026-01-28,清算の結了等,,,2025-01-10,1,,,,,プドウインターナショナルジャパン,0
1453,7010001256914,登記記録の閉鎖等,0,2026-02-16,2026-01-27,驥安株式会社,,株式会社,東京都,文京区,千石３丁目３番３号千石明穂ハイツ１０４－Ｈ,,13,105,1120011,,,2026-01-27,清算の結了等,,,2025-07-16,1,,,,,キアン,0
1492,7010605003225,登記記録の閉鎖等,0,2026-02-16,2025-12-23,一般社団法人ＧＯＯＤＬＹ　ＳＰＯＲＴＳ　ＣＬＵＢ,,その他の設立登記法人,千葉県,鎌ケ谷市,南初富３丁目１１－８０シティハイム雅１０２,,12,224,2730123,,,2025-12-23,清算の結了等,,,2016-03-31,1,,,,,グッドリースポーツクラブ,0
1532,7013401004941,登記記録の閉鎖等,0,2026-02-16,2026-02-06,株式会社テクノエンジニアリング,,株式会社,東京都,多摩市,関戸２丁目３２番地５,,13,224,2060011,,,2026-02-06,清算の結了等,,,2015-10-05,1,,,,,テクノエンジニアリング,0
1533,7020001122413,登記記録の閉鎖等,0,2026-02-16,2026-02-09,株式会社エムアイストーリー,,株式会社,神奈川県,横浜市中区,元浜町３丁目２１－２ヘリオス関内ビル,,14,104,2310004,,,2026-02-09,清算の結了等,,,2017-08-03,1,,,,,エムアイストーリー,0
1552,7040001108146,登記記録の閉鎖等,0,2026-02-16,2026-01-05,株式会社オービーケイ,,株式会社,千葉県,木更津市,請西南４丁目１番地１,,12,206,2920807,,,2026-01-05,合併による解散等,5040001083696,令和８年１月１日千葉県木更津市真舟一丁目２番１３号エーエスケイ株式会社（5040001083696）に合併し解散,2019-02-26,1,,,,,オービーケイ,0
1556,7040002017866,登記記録の閉鎖等,0,2026-02-16,2026-01-22,有限会社コパックス,,有限会社,千葉県,千葉市中央区,中央港１丁目１５番－１４号サンクタス千葉みなとポートレジデンス９０１号,,12,101,2600024,,,2026-01-22,清算の結了等,,,2015-10-05,1,,,,,コパックス,0
1558,7040002044464,登記記録の閉鎖等,0,2026-02-16,2026-01-19,有限会社上村事務所,,有限会社,千葉県,松戸市,南花島３丁目４７番地,,12,207,2710065,,,2026-01-19,清算の結了等,,,2015-10-05,1,,,,,ウエムラジムショ,0
1569,7070002030610,登記記録の閉鎖等,0,2026-02-16,2026-02-04,有限会社原沢工業,,有限会社,群馬県,太田市,新井町５６５番地,,10,205,3730852,,,2026-02-04,合併による解散等,1070001019379,令和８年２月１日群馬県太田市新井町５６５番地三和産業株式会社（1070001019379）に合併し解散,2015-10-05,1,,,,,ハラサワコウギョウ,0
1579,7100002035829,登記記録の閉鎖等,0,2026-02-16,2026-02-10,有限会社飯田製材,,有限会社,長野県,飯田市,曙町５６番地１,,20,205,3950072,,,2026-02-10,清算の結了等,,,2015-10-05,1,,,,,イイダセイザイ,0
1596,7120101062276,登記記録の閉鎖等,0,2026-02-16,2026-01-30,三咲書店株式会社,,株式会社,大阪府,堺市北区,中百舌鳥町１丁９１番地１０,,27,146,5918023,,,2026-01-30,清算の結了等,,,2020-09-04,1,,,,,ミサキショテン,0
1601,7130001030299,登記記録の閉鎖等,0,2026-02-16,2026-02-10,東京貿易株式会社,,株式会社,兵庫県,神戸市中央区,下山手通３丁目８番１１号,,28,110,6500011,,,2026-02-10,清算の結了等,,,2015-10-05,1,,,,,トウキョウボウエキ,0
1605,7130003005803,登記記録の閉鎖等,0,2026-02-16,2026-02-10,未来こども工房合同会社,,合同会社,京都府,京都市中京区,室町通御池上る御池之町３２３番ミサワ京都ビル５階,,26,104,6040022,,,2026-02-10,清算の結了等,,,2018-12-27,1,,,,,ミライコドモコウボウ,0
1607,7130005015973,登記記録の閉鎖等,0,2026-02-16,2026-02-09,特定非営利活動法人絆,,その他の設立登記法人,京都府,宇治市,大久保町大竹２０番地１８,,26,204,6110033,,,2026-02-09,清算の結了等,,,2020-08-27,1,,,,,キズナ,0
1609,7140001108549,登記記録の閉鎖等,0,2026-02-16,2026-02-06,株式会社四禅阜,,株式会社,兵庫県,西脇市,和布町１０９番地の６,,28,213,6770053,,,2026-02-06,清算の結了等,,,2017-12-20,1,,,,,シゼンフ,0
1613,7180001020221,登記記録の閉鎖等,0,2026-02-16,2026-02-10,東海プラント工事株式会社,,株式会社,愛知県,名古屋市中川区,中須町字桜井６８番地の３,,23,110,4540925,,,2026-02-10,清算の結了等,,,2015-10-05,1,,,,,トウカイプラントコウジ,0
1619,7180002053567,登記記録の閉鎖等,0,2026-02-16,2026-02-10,株式会社伸和ケアセンター,,株式会社,愛知県,名古屋市名東区,極楽３丁目１１０番地,,23,115,4650053,,,2026-02-10,清算の結了等,,,2015-10-05,1,,,,,シンワケアセンター,0
1623,7180005019994,登記記録の閉鎖等,0,2026-02-16,2026-02-10,一般社団法人日本寄附支援センター,,その他の設立登記法人,愛知県,名古屋市千種区,四谷通２丁目１番地マストスクエア本山四谷通７０３号,,23,101,4640819,,,2026-02-10,清算の結了等,,,2022-11-08,1,,,,,ニホンキフシエンセンター,0
1638,7260001023760,登記記録の閉鎖等,0,2026-02-16,2026-02-09,株式会社野尻,,株式会社,岡山県,岡山市中区,湊１６３番地１１,,33,102,7038266,,,2026-02-09,清算の結了等,,,2015-10-05,1,,,,,ノジリ,0
1655,7350001013604,登記記録の閉鎖等,0,2026-02-16,2026-02-10,えがお株式会社,,株式会社,宮崎県,宮崎市,大字新名爪１８３６番地,,45,201,8800124,,,2026-02-10,清算の結了等,,,2015-10-05,1,,,,,エガオ,0
1660,7390001007288,登記記録の閉鎖等,0,2026-02-16,2026-02-06,株式会社文下屋,,株式会社,山形県,酒田市,中町２丁目１番２号,,06,204,9980044,,,2026-02-06,清算の結了等,,,2015-10-05,1,,,,,ホウダシヤ,0
1669,7440001006986,登記記録の閉鎖等,0,2026-02-16,2026-02-09,株式会社はこだてみやげ,,株式会社,北海道,函館市,西桔梗町５８９番地の４６,,01,202,0410824,,,2026-02-09,清算の結了等,,,2015-10-05,1,,,,,ハコダテミヤゲ,0
1677,7490002011444,登記記録の閉鎖等,0,2026-02-16,2026-02-12,有限会社ナオキ,,有限会社,高知県,香美市,土佐山田町楠目３９番地１,,39,212,7820051,,,2026-02-12,清算の結了等,,,2015-10-05,1,,,,,ナオキ,0
1689,8010001142659,登記記録の閉鎖等,0,2026-02-16,2026-02-02,東京Ｒ＆Ｄコンポジット工業株式会社,,株式会社,東京都,千代田区,内幸町２丁目２番２号,,13,101,1000011,,,2026-02-02,合併による解散等,6010001140251,令和８年２月１日東京都千代田区内幸町二丁目２番２号株式会社東京アールアンドデー（6010001140251）に合併し解散,2015-10-05,1,,,,,トウキョウアールアンドデーコンポジットコウギョウ,0
1710,8010101010658,登記記録の閉鎖等,0,2026-02-16,2026-02-10,株式会社フアインＥＣＯ,,株式会社,東京都,八王子市,上柚木３丁目３番地１０－２０８,,13,201,1920373,,,2026-02-10,清算の結了等,,,2015-10-05,1,,,,,フアインエコ,0
1733,8010901021623,登記記録の閉鎖等,0,2026-02-16,2026-02-12,株式会社セイカイドウ,,株式会社,東京都,世田谷区,瀬田４丁目４番１３号,,13,112,1580095,,,2026-02-12,清算の結了等,,,2015-10-05,1,,,,,セイカイドウ,0
1754,8011303003301,登記記録の閉鎖等,0,2026-02-16,2026-02-10,Ｂｌｕｅｚ合同会社,,合同会社,茨城県,稲敷市,神宮寺４３９番地サジャドマンション１０５,,08,229,3000622,,,2026-02-10,清算の結了等,,,2019-05-22,1,,,,,ブルーズ,0
1762,8012702000186,登記記録の閉鎖等,0,2026-02-16,2026-02-04,有限会社アリストレーディング,,有限会社,東京都,小平市,小川町２丁目１２０３番地の１４,,13,211,1870032,,,2026-02-04,清算の結了等,,,2015-10-05,1,,,,,アリストレーディング,0
1763,8012702000475,登記記録の閉鎖等,0,2026-02-16,2026-02-03,有限会社オグラ企画,,有限会社,東京都,清瀬市,元町２丁目２３番１号,,13,221,2040021,,,2026-02-03,清算の結了等,,,2015-10-05,1,,,,,,0
1767,8013202002474,登記記録の閉鎖等,0,2026-02-16,2026-01-21,有限会社小泉和子生活史研究所,,有限会社,東京都,目黒区,目黒本町３丁目１３番１９号,,13,110,1520002,,,2026-01-21,清算の結了等,,,2015-10-05,1,,,,,コイズミカズコセイカツシケンキュウジョ,0
1775,8021001053011,登記記録の閉鎖等,0,2026-02-16,2026-02-10,株式会社ＲＱリープリゾート,,株式会社,神奈川県,足柄下郡湯河原町,宮上７１６番地の１,,14,384,2590314,,,2026-02-10,合併による解散等,6010401069322,令和８年１月１日東京都渋谷区神宮前六丁目３４番２３号ＯＰ．Ｓｔ．Ｍ・１Ｄ株式会社リアルクオリティ（6010401069322）に合併し解散,2015-10-05,1,,,,,アールキューリープリゾート,0
1787,8040001138324,登記記録の閉鎖等,0,2026-02-16,2026-01-20,株式会社ＢＥ　ＨＡＰＰＹ,,株式会社,千葉県,富津市,竹岡３０８番地,,12,226,2991621,,,2026-01-20,清算の結了等,,,2025-04-24,1,,,,,ビーハッピー,0
1789,8050001006901,登記記録の閉鎖等,0,2026-02-16,2026-02-09,株式会社ダッチ,,株式会社,茨城県,水戸市,青柳町４２６８番地１,,08,201,3100004,,,2026-02-09,清算の結了等,,,2015-10-05,1,,,,,ダッチ,0
1790,8050001011100,登記記録の閉鎖等,0,2026-02-16,2026-02-06,株式会社つくばリハウス,,株式会社,茨城県,つくば市,東新井１９番地３７,,08,220,3050033,,,2026-02-06,清算の結了等,,,2015-10-05,1,,,,,ツクバリハウス,0
1791,8050001022163,登記記録の閉鎖等,0,2026-02-16,2026-02-06,山懸工業株式会社,,株式会社,茨城県,神栖市,下幡木９２８番地４,,08,232,3140131,,,2026-02-06,清算の結了等,,,2015-10-05,1,,,,,ヤマケンコウギョウ,0
1804,8080001019966,登記記録の閉鎖等,0,2026-02-16,2026-02-10,株式会社ＳＪ保険管理パートナーズ,,株式会社,静岡県,島田市,道悦３丁目１４番２号,,22,209,4270019,,,2026-02-10,清算の結了等,,,2015-10-05,1,,,,,エスジェイホケンカンリパートナーズ,0
1809,8120001003742,登記記録の閉鎖等,0,2026-02-16,2026-02-09,大鵬商事株式会社,,株式会社,大阪府,大阪市西成区,千本南１丁目２番６号,,27,122,5570055,,,2026-02-09,清算の結了等,,,2015-10-05,1,,,,,タイホウショウジ,0
1822,8120002048126,登記記録の閉鎖等,0,2026-02-16,2026-02-09,有限会社大徳,00031022,有限会社,大阪府,大阪市西成区,千本南１丁目２番６号,,27,122,5570055,,,2026-02-09,清算の結了等,,,2015-10-05,1,,,,,オオノリ,0
1823,8120101043341,登記記録の閉鎖等,0,2026-02-16,2026-02-02,株式会社ステップグランドスタッフ,,株式会社,大阪府,和泉市,府中町１丁目２０番１号フチュール和泉２０３号,,27,219,5940071,,,2026-02-02,合併による解散等,8120101047367,令和８年２月１日大阪府岸和田市下池田町二丁目１０番５号株式会社ファイン（8120101047367）に合併し解散,2015-10-05,1,,,,,ステップグランドスタッフ,0
1827,8122001029346,登記記録の閉鎖等,0,2026-02-16,2026-02-10,株式会社ＨＡＰＰＹ　ＧＲＥＥＮ,,株式会社,大阪府,大阪市中央区,東心斎橋２丁目４番７号パレス千年ビル１階,,27,128,5420083,,,2026-02-10,清算の結了等,,,2016-03-03,1,,,,,ハッピーグリーン,0
1865,8240005003660,登記記録の閉鎖等,0,2026-02-16,2026-02-12,柏原生産森林組合,,その他の設立登記法人,広島県,東広島市,西条町郷曽４０９０番地,,34,212,7390035,,,2026-02-12,清算の結了等,,,2015-10-05,1,,,,,,0
1891,8390005000734,登記記録の閉鎖等,0,2026-02-16,2026-02-12,山形県営業写真家協同組合,,その他の設立登記法人,山形県,山形市,旅篭町１丁目１０番２９号,,06,201,9900047,,,2026-02-12,清算の結了等,,,2015-10-05,1,,,,,ヤマガタケンエイギョウシャシンカ,0
1903,8500001008199,登記記録の閉鎖等,0,2026-02-16,2026-02-12,ＡＳＡ大洲株式会社,,株式会社,愛媛県,大洲市,大洲６８５番地の２,,38,207,7950012,,,2026-02-12,清算の結了等,,,2015-10-05,1,,,,,アサオオズ,0
1905,8700150106808,登記記録の閉鎖等,0,2026-02-16,2025-12-10,ＥＮＶＩＲＯＴＡＩＮＥＲ　ＬＴＤ,,外国会社等,,,,,,,,Ｕｎｉｔ　Ｂ２，ＬＯＣ　８　Ａｓｈｆｏｒｄ　Ｒｏａｄ，Ｈｏｌｌｉｎｇｂｏｕｒｎｅ，Ｍａｉｄｓｔｏｎｅ，Ｋｅｎｔ　ＭＥ１７　１ＷＲ，Ｕｎｉｔｅｄ　Ｋｉｎｇｄｏｍ,,2025-12-10,その他の清算の結了等,,,2022-01-26,1,,,,,エンヴィロテイナーエルティーディー,0
1913,9010001221148,登記記録の閉鎖等,0,2026-02-16,2026-02-06,株式会社アドバンス,,株式会社,東京都,千代田区,外神田６丁目６番９号杉山ビル１Ｆ,,13,101,1010021,,,2026-02-06,清算の結了等,,,2021-09-14,1,,,,,アドバンス,0
1916,9010001247523,登記記録の閉鎖等,0,2026-02-16,2026-02-10,株式会社クローバー,,株式会社,東京都,千代田区,大手町１丁目６番１号,,13,101,1000004,,,2026-02-10,合併による解散等,5180001086660,令和８年２月１日愛知県一宮市浅野字大曲り３０番地３株式会社ファルマリンク（5180001086660）に合併し解散,2024-08-15,1,,,,,,0
1951,9010501040221,登記記録の閉鎖等,0,2026-02-16,2026-02-02,株式会社エテルナ,,株式会社,東京都,台東区,柳橋１丁目２３－１１齋藤ビル１階,,13,106,1110052,,,2026-02-02,清算の結了等,,,2016-11-11,1,,,,,,0
1970,9011201009449,登記記録の閉鎖等,0,2026-02-16,2026-02-05,サンシステム株式会社,,株式会社,東京都,中野区,上高田５丁目２９番８号,,13,114,1640002,,,2026-02-05,清算の結了等,,,2015-10-05,1,,,,,サンシステム,0
1988,9020001065726,登記記録の閉鎖等,0,2026-02-16,2026-02-10,和光電気産業株式会社,,株式会社,神奈川県,川崎市麻生区,王禅寺西７丁目５番１０号,,14,137,2150017,,,2026-02-10,清算の結了等,,,2015-10-05,1,,,,,ワコウデンキサンギョウ,0
1989,9020001153349,登記記録の閉鎖等,0,2026-02-16,2026-02-09,株式会社ＴＹメタル,,株式会社,神奈川県,川崎市中原区,木月祗園町４番２８号,,14,133,2110033,,,2026-02-09,清算の結了等,,,2023-09-06,1,,,,,ティーワイメタル,0
1997,9030001005037,登記記録の閉鎖等,0,2026-02-16,2026-02-06,宝製袋株式会社,,株式会社,埼玉県,さいたま市桜区,栄和１丁目４番２８号,,11,106,3380823,,,2026-02-06,清算の結了等,,,2015-10-05,1,,,,,タカラセイタイ,0
2007,9040001103302,登記記録の閉鎖等,0,2026-02-16,2026-01-21,株式会社フクショウ,,株式会社,千葉県,松戸市,金ケ作３０２番地の９１,,12,207,2702251,,,2026-01-21,清算の結了等,,,2018-01-26,1,,,,,フクショウ,0
2009,9040002000102,登記記録の閉鎖等,0,2026-02-16,2026-01-22,有限会社愛信プランニング,,有限会社,千葉県,千葉市若葉区,中野町２３６番地,,12,104,2650051,,,2026-01-22,清算の結了等,,,2015-10-05,1,,,,,アイシンプランニング,0
2015,9060002022391,登記記録の閉鎖等,0,2026-02-16,2026-02-09,有限会社大那コスモ建設,,有限会社,栃木県,那須塩原市,末広町７７番地３０,,09,213,3250061,,,2026-02-09,清算の結了等,,,2015-10-05,1,,,,,ダイナコスモケンセツ,0
2016,9060002036409,登記記録の閉鎖等,0,2026-02-16,2026-02-09,有限会社清水建材店,,有限会社,栃木県,足利市,八椚町１８５番地,,09,202,3260015,,,2026-02-09,清算の結了等,,,2015-10-05,1,,,,,シミズケンザイテン,0
2020,9070001011972,登記記録の閉鎖等,0,2026-02-16,2026-02-10,株式会社山口ホーム工業,,株式会社,群馬県,富岡市,藤木５８２番地２,,10,210,3702307,,,2026-02-10,清算の結了等,,,2015-10-05,1,,,,,ヤマグチホームコウギョウ,0
2027,9080401015127,登記記録の閉鎖等,0,2026-02-16,2026-02-06,株式会社ＳＫＣリース,,株式会社,静岡県,御前崎市,白羽５４１２番地の１,,22,223,4371622,,,2026-02-06,清算の結了等,,,2015-10-05,1,,,,,エスケーシーリース,0
2051,9130002021436,登記記録の閉鎖等,0,2026-02-16,2026-02-10,有限会社オオエ,,有限会社,京都府,京都市伏見区,醍醐上端山町１１番地の２４,,26,109,6011333,,,2026-02-10,清算の結了等,,,2015-10-05,1,,,,,オオエ,0
2053,9140001015355,登記記録の閉鎖等,0,2026-02-16,2026-02-02,深江工業株式会社,,株式会社,兵庫県,神戸市中央区,浜辺通５丁目１番１４号,,28,110,6510083,,,2026-02-02,合併による解散等,5140001008420,令和８年２月１日神戸市中央区浜辺通五丁目１番１４号新丸菱海運株式会社（5140001008420）に合併し解散,2015-10-05,1,,,,,フカエコウギョウ,0
2057,9140003017358,登記記録の閉鎖等,0,2026-02-16,2026-02-09,但馬訪問看護合同会社,,合同会社,兵庫県,豊岡市,若松町１２番２９号Ｋ＆Ｋビル３階,,28,209,6680027,,,2026-02-09,清算の結了等,,,2022-02-22,1,,,,,タジマホウモンカンゴ,0
2059,9160001018802,登記記録の閉鎖等,0,2026-02-16,2026-02-03,株式会社フェニックス高島,,株式会社,滋賀県,高島市,マキノ町野口１３４５番地,,25,212,5201802,,,2026-02-03,清算の結了等,,,2015-10-05,1,,,,,フェニックスタカシマ,0
2065,9180001005071,登記記録の閉鎖等,0,2026-02-16,2026-02-09,株式会社丹羽建築工業,00071754,株式会社,愛知県,名古屋市千種区,東千種台１５番１６号,,23,101,4640001,,,2026-02-09,清算の結了等,,,2015-10-05,1,,,,,ニワケンチクコウギョウ,0
2075,9200001016859,登記記録の閉鎖等,0,2026-02-16,2026-02-10,北山電気株式会社,,株式会社,岐阜県,不破郡垂井町,府中２２９２番地の１,,21,361,5032114,,,2026-02-10,清算の結了等,,,2015-10-05,1,,,,,キタヤマデンキ,0
2085,9240002006590,登記記録の閉鎖等,0,2026-02-16,2026-02-09,サンケイ開発有限会社,,有限会社,広島県,広島市東区,牛田新町２丁目４番３４号,,34,102,7320068,,,2026-02-09,清算の結了等,,,2015-10-05,1,,,,,サンケイカイハツ,0
2087,9250002016003,登記記録の閉鎖等,0,2026-02-16,2026-02-10,有限会社吉重住設,,有限会社,山口県,下松市,東陽３丁目１７番１３号,,35,207,7440043,,,2026-02-10,清算の結了等,,,2015-10-05,1,,,,,ヨシシゲジュウセツ,0
2106,9290805008143,登記記録の閉鎖等,0,2026-02-16,2026-02-10,特定非営利活動法人北九州タウンツーリズム,,その他の設立登記法人,福岡県,北九州市小倉北区,魚町３丁目３番２０号,,40,106,8020006,,,2026-02-10,清算の結了等,,,2015-10-05,1,,,,,キタキュウシュウタウンツーリズム,0
2111,9350002001408,登記記録の閉鎖等,0,2026-02-16,2026-02-10,有限会社クエスト,,有限会社,宮崎県,宮崎市,大字新名爪１６６３番地,,45,201,8800124,,,2026-02-10,清算の結了等,,,2015-10-05,1,,,,,クエスト,0
2121,9370003007105,登記記録の閉鎖等,0,2026-02-16,2026-02-12,Ｃｏｕｃｈ　Ｃｒｅａｔｉｖｅｓ合同会社,,合同会社,宮城県,石巻市,あゆみ野２丁目１１－７,,04,202,9860850,,,2026-02-12,清算の結了等,,,2025-05-23,1,,,,,カウチクリエイティブス,0
2135,9450002000465,登記記録の閉鎖等,0,2026-02-16,2026-02-06,株式会社旭川お城の鯉寿し,,株式会社,北海道,旭川市,忠和六条７丁目１番１７号,,01,204,0708046,,,2026-02-06,合併による解散等,4430001075572,令和８年１月３１日札幌市中央区南三条西九丁目９９８番地６株式会社旭川トーヨーアドバンス（4430001075572）に合併し解散,2015-10-05,1,,,,,アサヒカワオシロノコイズシ,0
