sequenceNumber,corporateNumber,process,correct,updateDate,changeDate,name,nameImageId,kind,prefectureName,cityName,streetNumber,addressImageId,prefectureCode,cityCode,postCode,addressOutside,addressOutsideImageId,closeDate,closeCause,successorCorporateNumber,changeCause,assignmentDate,latest,enName,enPrefectureName,enCityName,enAddressOutside,furigana,hihyoji
10,1010001261036,新規,0,2025-12-15,2025-12-15,ＰＣＧＶＩ‐２株式会社,,株式会社,東京都,千代田区,丸の内１丁目９番１号,,13,101,1000005,,,,,,,2025-12-15,1,,,,,ピーシージーシックスツー,0
11,1010001261052,新規,0,2025-12-15,2025-12-15,株式会社ＰｒａＬｏｇｕｅ,,株式会社,東京都,千代田区,神田須田町１丁目７番８号ＶＯＲＴ秋葉原ＩＶ２Ｆ,00141874,13,101,1010041,,,,,,,2025-12-15,1,,,,,プラナローグ,0
12,1010001261060,新規,0,2025-12-15,2025-12-15,株式会社フランスティーコーポレーション,,株式会社,東京都,中央区,銀座１丁目１２番４号Ｎ＆ＥＢＬＤ．６Ｆ,,13,102,1040061,,,,,,,2025-12-15,1,,,,,フランスティーコーポレーション,0
13,1010001261176,新規,0,2025-12-15,2025-12-15,株式会社Ｅｐｓｏｍ　Ｃｏｌｌｅｇｅ　Ｔｏｋｙｏ,,株式会社,東京都,千代田区,内神田２丁目１３番９号,,13,101,1010047,,,,,,,2025-12-15,1,,,,,エプソムカレッジトウキョウ,0
14,1010003049693,新規,0,2025-12-15,2025-12-15,合同会社龍元,,合同会社,東京都,中央区,銀座７丁目１３番６号サガミビル２階,,13,102,1040061,,,,,,,2025-12-15,1,,,,,タツモト,0
18,1010005041062,新規,0,2025-12-15,2025-12-15,一般社団法人全日本音楽著作家協会,,その他の設立登記法人,東京都,中央区,東日本橋３丁目１２番１１号アヅマビル８Ｆ,,13,102,1030004,,,,,,,2025-12-15,1,,,,,ゼンニホンオンガクチョサクカキョウカイ,0
25,1010401195107,新規,0,2025-12-15,2025-12-15,吉田産業ファシリティーズ株式会社,,株式会社,東京都,港区,赤坂３丁目１７番３号Ｈ１Ｏ赤坂７階,,13,103,1070052,,,,,,,2025-12-15,1,,,,,ヨシダサンギョウファシリティーズ,0
26,1010401195156,新規,0,2025-12-15,2025-12-15,株式会社Ｍａｉｓｏｎ４５,,株式会社,東京都,港区,白金６丁目１４番１５号,,13,103,1080072,,,,,,,2025-12-15,1,,,,,メゾンフォーティーファイブ,0
30,1010403036738,新規,0,2025-12-15,2025-12-15,合同会社ＷＫ,,合同会社,東京都,港区,麻布十番４丁目１－１０ＯＬＩＯ麻布十番６０８,,13,103,1060045,,,,,,,2025-12-15,1,,,,,ダブルケイ,0
31,1010403036795,新規,0,2025-12-15,2025-12-15,Ｆｏｒｓｅｔｉ合同会社,,合同会社,東京都,港区,三田３丁目１４－１－２Ｆ,,13,103,1080073,,,,,,,2025-12-15,1,,,,,,0
38,1010801036876,新規,0,2025-12-15,2025-12-15,株式会社ＢＬＵＥ　ＢＡＳＥ,,株式会社,東京都,大田区,大森北１丁目１２番１１号１Ｆ,,13,111,1430016,,,,,,,2025-12-15,1,,,,,ブルーベース,0
43,1011001174392,新規,0,2025-12-15,2025-12-15,ＵＴマーケティング株式会社,,株式会社,東京都,渋谷区,道玄坂２丁目２５番１２号道玄坂通４階,,13,113,1500043,,,,,,,2025-12-15,1,,,,,ユーティーマーケティング,0
49,1011101114199,新規,0,2025-12-15,2025-12-15,株式会社イニシャルポート,,株式会社,東京都,新宿区,西新宿３丁目３番１３号西新宿水間ビル６階,,13,104,1600023,,,,,,,2025-12-15,1,,,,,イニシャルポート,0
50,1011101114372,新規,0,2025-12-15,2025-12-15,株式会社フォルスティア,,株式会社,東京都,新宿区,四谷４丁目１８番２号,,13,104,1600004,,,,,,,2025-12-15,1,,,,,フォルスティア,0
53,1011301031120,新規,0,2025-12-15,2025-12-15,株式会社ＬＩＦＥ＆ＳＰＡＣＥ,,株式会社,東京都,杉並区,高井戸東１丁目３１番４－４０３号パークシティ浜田山Ｃ棟,,13,115,1680072,,,,,,,2025-12-15,1,,,,,ライフアンドスペース,0
54,1011401027638,新規,0,2025-12-15,2025-12-15,株式会社リオルティ,,株式会社,東京都,板橋区,蓮根３丁目４番７号,,13,119,1740046,,,,,,,2025-12-15,1,,,,,リオルティ,0
55,1011403004965,新規,0,2025-12-15,2025-12-15,合同会社丸農地,,合同会社,東京都,板橋区,南常盤台１丁目７番１４号南ときわ台ビル２０２号室,,13,119,1740072,,,,,,,2025-12-15,1,,,,,マルノウチ,0
57,1011503006812,新規,0,2025-12-15,2025-12-15,合同会社ＤＭＰａｙ,,合同会社,東京都,荒川区,西日暮里１丁目３９－６クレサス西日暮里１０１号,,13,118,1160013,,,,,,,2025-12-15,1,,,,,ディーエムペイ,0
60,1011701029029,新規,0,2025-12-15,2025-12-15,株式会社ＭＲＫ,,株式会社,東京都,江戸川区,中葛西２丁目２４番１９号,,13,123,1340083,,,,,,,2025-12-15,1,,,,,エムアールケー,0
62,1011801047178,新規,0,2025-12-15,2025-12-15,ＣＯＣＯＲＵ株式会社,,株式会社,東京都,足立区,竹の塚２丁目３番２５号,,13,121,1210813,,,,,,,2025-12-15,1,,,,,ココル,0
65,1012401043922,新規,0,2025-12-15,2025-12-15,シンデレラクリエイト株式会社,,株式会社,東京都,三鷹市,新川１丁目３番２１号,,13,204,1810004,,,,,,,2025-12-15,1,,,,,シンデレラクリエイト,0
68,1012701019226,新規,0,2025-12-15,2025-12-15,株式会社ＧＬＥＥＫ,,株式会社,東京都,清瀬市,松山１丁目１４番１０号ＨＭビル１Ｆ,,13,221,2040022,,,,,,,2025-12-15,1,,,,,グリーク,0
76,1013301055438,新規,0,2025-12-15,2025-12-15,株式会社つかえるＡＩ,,株式会社,東京都,豊島区,南長崎１丁目２１番２号ソシエ南長崎４０３号,,13,116,1710052,,,,,,,2025-12-15,1,,,,,ツカエルエーアイ,0
77,1013303007998,新規,0,2025-12-15,2025-12-15,唯合同会社,,合同会社,東京都,豊島区,南長崎５丁目２６－１４サザンヒルズぶんぶく２０２,,13,116,1710052,,,,,,,2025-12-15,1,,,,,ユイ,0
83,1020001166234,新規,0,2025-12-15,2025-12-15,株式会社東横トライブ,,株式会社,神奈川県,横浜市保土ケ谷区,峰岡町１丁目３番地３Ｂ棟１Ｆ,,14,106,2400064,,,,,,,2025-12-15,1,,,,,トウヨコトライブ,0
84,1020001166283,新規,0,2025-12-15,2025-12-15,株式会社タビアム,,株式会社,神奈川県,横浜市西区,北幸２丁目１０番４８号むつみビル３階,,14,103,2200004,,,,,,,2025-12-15,1,,,,,タビアム,0
85,1020001166300,新規,0,2025-12-15,2025-12-15,ロムボ株式会社,,株式会社,神奈川県,横浜市西区,浅間町１丁目４番３号ウィザードビル４０２,,14,103,2200072,,,,,,,2025-12-15,1,,,,,,0
87,1020003029983,新規,0,2025-12-15,2025-12-15,合同会社Ｙ’ｓ　ＡＲＫ,,合同会社,神奈川県,横浜市都筑区,勝田南２丁目１番１－６０１号,,14,118,2240036,,,,,,,2025-12-15,1,,,,,ワイズアーク,0
93,1021001087024,新規,0,2025-12-15,2025-12-15,アプトアーキテクツ株式会社,,株式会社,神奈川県,藤沢市,湘南台２丁目１０番５号アンドウビル４Ｆ－２２,,14,205,2520804,,,,,,,2025-12-15,1,,,,,アプトアーキテクツ,0
94,1021003016914,新規,0,2025-12-15,2025-12-15,無双電気合同会社,,合同会社,神奈川県,横須賀市,平作６丁目３番１号,,14,201,2380032,,,,,,,2025-12-15,1,,,,,ムソウデンキ,0
96,1021005013496,新規,0,2025-12-15,2025-12-15,医療法人社団菊武会,,その他の設立登記法人,神奈川県,横須賀市,武３丁目５番３６号,,14,201,2380313,,,,,,,2025-12-15,1,,,,,キクタケカイ,0
102,1030001170111,新規,0,2025-12-15,2025-12-15,株式会社萬屋,,株式会社,埼玉県,深谷市,人見２４６番地３,,11,218,3660811,,,,,,,2025-12-15,1,,,,,ヨロズヤ,0
104,1030003028209,新規,0,2025-12-15,2025-12-15,合同会社ネクサスコマース,,合同会社,埼玉県,深谷市,本田６１７５番地１,,11,218,3691105,,,,,,,2025-12-15,1,,,,,ネクサスコマース,0
105,1030003028258,新規,0,2025-12-15,2025-12-15,合同会社鉄謙,,合同会社,埼玉県,川口市,川口３丁目２番６号リプレ川口一番街６号棟４０６,,11,203,3320015,,,,,,,2025-12-15,1,,,,,テッケン,0
106,1030003028266,新規,0,2025-12-15,2025-12-15,ｔｅｒｒａ合同会社,,合同会社,埼玉県,春日部市,大場１０５１番地４,,11,214,3440021,,,,,,,2025-12-15,1,,,,,テラ,0
109,1040001141706,新規,0,2025-12-15,2025-12-15,株式会社ジィキュー,,株式会社,千葉県,木更津市,太田１丁目１３番２号,,12,206,2920044,,,,,,,2025-12-15,1,,,,,ジィキュー,0
110,1040001141788,新規,0,2025-12-15,2025-12-15,株式会社ＢＳホーム,,株式会社,千葉県,千葉市若葉区,大宮台４丁目７番８号,,12,104,2640015,,,,,,,2025-12-15,1,,,,,ビーエスホーム,0
114,1050001057703,新規,0,2025-12-15,2025-12-15,株式会社ＧＯＩＮＧ,,株式会社,茨城県,水戸市,酒門町３２７８番地５,,08,201,3100841,,,,,,,2025-12-15,1,,,,,ゴーイング,0
119,1070001043651,新規,0,2025-12-15,2025-12-15,株式会社アンサング,,株式会社,群馬県,高崎市,矢島町４６４－３,,10,202,3700016,,,,,,,2025-12-15,1,,,,,,0
121,1070003006219,新規,0,2025-12-15,2025-12-15,ＡＬＩ　ＴＲＡＤＩＮＧ合同会社,,合同会社,群馬県,太田市,西新町７８番地１サンパレス西新町Ｂ－１０１号,,10,205,3730847,,,,,,,2025-12-15,1,,,,,,0
123,1080001027331,新規,0,2025-12-15,2025-12-15,ＢＡＧＵＬＩＦＥ株式会社,,株式会社,静岡県,静岡市駿河区,小鹿１丁目１０番７号,,22,102,4228021,,,,,,,2025-12-15,1,,,,,バグライフ,0
127,1080101025961,新規,0,2025-12-15,2025-12-15,株式会社ネクサス,,株式会社,静岡県,田方郡函南町,畑毛５２７番地,,22,325,4190111,,,,,,,2025-12-15,1,,,,,ネクサス,0
137,1100001039191,新規,0,2025-12-15,2025-12-15,株式会社ＸＷ,,株式会社,長野県,松本市,並柳１丁目１６－２４,,20,202,3900825,,,,,,,2025-12-15,1,,,,,エックスダブリュー,0
138,1100003008509,新規,0,2025-12-15,2025-12-15,ｍｏｘｉｅｓ合同会社,,合同会社,長野県,岡谷市,湊４丁目１８番地６,,20,204,3940044,,,,,,,2025-12-15,1,,,,,モクシーズ,0
158,1120001282277,新規,0,2025-12-15,2025-12-15,株式会社Ｒｅｌａｔｉｏｎ,,株式会社,大阪府,大阪市西区,新町１丁目２９番９号４０８号室,,27,106,5500013,,,,,,,2025-12-15,1,,,,,リレーション,0
159,1120001282632,新規,0,2025-12-15,2025-12-15,株式会社ＢＦＴ,,株式会社,大阪府,大阪市旭区,高殿７丁目１番３０号２階,,27,117,5350031,,,,,,,2025-12-15,1,,,,,ビーエフティー,0
160,1120001282657,新規,0,2025-12-15,2025-12-15,株式会社ＫｉｃｋＯｆｆ,,株式会社,大阪府,大阪市中央区,島之内２丁目５番４－３０５号,,27,128,5420082,,,,,,,2025-12-15,1,,,,,キックオフ,0
161,1120001282756,新規,0,2025-12-15,2025-12-15,株式会社Ｋ．Ｈマーケティング,,株式会社,大阪府,大阪市北区,梅田１丁目２番２号,,27,127,5300001,,,,,,,2025-12-15,1,,,,,ケーエイチマーケティング,0
162,1120001282764,新規,0,2025-12-15,2025-12-15,リビルド株式会社,,株式会社,大阪府,大阪市北区,梅田１丁目２番２号大阪駅前第２ビル１２－１２,,27,127,5300001,,,,,,,2025-12-15,1,,,,,リビルド,0
164,1120005025302,新規,0,2025-12-15,2025-12-15,一般社団法人Ｒ・ＡＳＫ１９,,その他の設立登記法人,大阪府,大阪市北区,梅田３丁目２番２号,,27,127,5300001,,,,,,,2025-12-15,1,,,,,アールエーエスケーナインティーン,0
168,1120103006897,新規,0,2025-12-15,2025-12-15,合同会社ＬＩＰＡＣＥ,,合同会社,大阪府,堺市中区,堀上町１５６－１３,,27,142,5998261,,,,,,,2025-12-15,1,,,,,リペース,0
194,1180001169898,新規,0,2025-12-15,2025-12-15,トライポット株式会社,,株式会社,愛知県,名古屋市中区,新栄１丁目２番５号６階,,23,106,4600007,,,,,,,2025-12-15,1,,,,,トライポット,0
197,1180005021345,新規,0,2025-12-15,2025-12-15,天理教本中野藤分教会,,その他の設立登記法人,愛知県,名古屋市千種区,富士見台１丁目１４番地の２,,23,101,4640015,,,,,,,2025-12-15,1,,,,,テンリキョウホンナカノフジブンキョウカイ,0
205,1200001044512,新規,0,2025-12-15,2025-12-15,株式会社しえん,,株式会社,岐阜県,多治見市,笠原町４０２４番地の２６,,21,204,5070901,,,,,,,2025-12-15,1,,,,,シエン,0
208,1220001027077,新規,0,2025-12-15,2025-12-15,株式会社ジオフィックス,,株式会社,石川県,小松市,長崎町甲１１８番地,,17,203,9230004,,,,,,,2025-12-15,1,,,,,ジオフィックス,0
216,1290001112442,新規,0,2025-12-15,2025-12-15,株式会社インテリアワーク,,株式会社,福岡県,那珂川市,中原４丁目１１番１号,,40,231,8111213,,,,,,,2025-12-15,1,,,,,インテリアワーク,0
217,1290001112500,新規,0,2025-12-15,2025-12-15,株式会社スマイルグローバルワークス,,株式会社,福岡県,福岡市博多区,比恵町１９番２８号,,40,132,8120014,,,,,,,2025-12-15,1,,,,,スマイルグローバルワークス,0
218,1290001112517,新規,0,2025-12-15,2025-12-15,株式会社Ｓｉｇｎｓキューブ,,株式会社,福岡県,久留米市,太郎原町１４６２番地１,,40,203,8390821,,,,,,,2025-12-15,1,,,,,サインズキューブ,0
219,1290001112533,新規,0,2025-12-15,2025-12-15,株式会社ｍｅｄＨｅａｒｔ,,株式会社,福岡県,福岡市早良区,祖原６番２０号,,40,137,8140005,,,,,,,2025-12-15,1,,,,,メドハート,0
220,1290001112541,新規,0,2025-12-15,2025-12-15,株式会社プラスアルファ・サービス,,株式会社,福岡県,福岡市博多区,博多駅前１丁目２３番１号ＰａｒｋＦｒｏｎｔ博多駅前１丁目５Ｆ－Ｂ,,40,132,8120011,,,,,,,2025-12-15,1,,,,,プラスアルファサービス,0
221,1290003017821,新規,0,2025-12-15,2025-12-15,合同会社ＷＩＮＧコーポレーション,,合同会社,福岡県,久留米市,日吉町１３番地１９ウルトラキャニオンシティビルＢ棟２ＦＢ号室,,40,203,8300017,,,,,,,2025-12-15,1,,,,,ウィングコーポレーション,0
224,1290005019907,新規,0,2025-12-15,2025-12-15,一般社団法人東峰むらたび観光局,,その他の設立登記法人,福岡県,朝倉郡東峰村,大字宝珠山６４２５番地,,40,448,8381701,,,,,,,2025-12-15,1,,,,,トウホウムラタビカンコウキョク,0
229,1320001021490,新規,0,2025-12-15,2025-12-15,株式会社ホーライヤ小店,,株式会社,大分県,別府市,野口中町１１番２０号,,44,202,8740932,,,,,,,2025-12-15,1,,,,,ホーライヤコミセ,0
230,1330005011000,新規,0,2025-12-15,2025-12-15,医療法人ＶＩＴＡ　ＥＴＥＲＮＡ,,その他の設立登記法人,熊本県,宇城市,松橋町曲野字南田２２７５番地１,,43,213,8690511,,,,,,,2025-12-15,1,,,,,ヴィータエテルナ,0
245,1370001053315,新規,0,2025-12-15,2025-12-15,株式会社ＯＫＳ,,株式会社,宮城県,仙台市若林区,沖野３丁目１６番５６号庄子ハイツＡ－１０１,,04,103,9840831,,,,,,,2025-12-15,1,,,,,オーケイエス,0
246,1370003007418,新規,0,2025-12-15,2025-12-15,合同会社ＳＡもーる,,合同会社,宮城県,大崎市,岩出山下野目字川原４９番地１,,04,215,9896412,,,,,,,2025-12-15,1,,,,,エスエーモール,0
253,1430001095854,新規,0,2025-12-15,2025-12-15,北斗アカウンティング株式会社,,株式会社,北海道,札幌市中央区,北一条西７丁目３番地,,01,101,0600001,,,,,,,2025-12-15,1,,,,,ホクトアカウンティング,0
268,1700150133437,新規,0,2025-12-15,2025-12-15,トーテックグループ健康保険組合,,その他,愛知県,名古屋市西区,名駅２丁目２７－８,,23,104,4510045,,,,,,,2025-12-15,1,,,,,トーテックグループケンコウホケンクミアイ,0
269,1700150133445,新規,0,2025-12-15,2025-12-15,京セラ健康保険組合,,その他,京都府,京都市伏見区,竹田鳥羽殿町６番地,,26,109,6128450,,,,,,,2025-12-15,1,,,,,キョウセラケンコウホケンクミアイ,0
270,1700150133453,新規,0,2025-12-15,2025-12-15,独立行政法人鉄道建設・運輸施設整備支援機構健康保険組合,,その他,東京都,港区,芝公園２丁目４番１号　芝パークビルＢ館２階,,13,103,1050011,,,,,,,2025-12-15,1,,,,,ドクリツギョウセイホウジンテツドウケンセツウンユシセツセイビシエンキコウケンコウホケンクミアイ,0
278,2010001261175,新規,0,2025-12-15,2025-12-15,株式会社ＲｅＳｕｐｐｌｅ,,株式会社,東京都,中央区,銀座４丁目１３番８号ソフィアスクエア銀座２０４,,13,102,1040061,,,,,,,2025-12-15,1,,,,,リサプリ,0
280,2010003049684,新規,0,2025-12-15,2025-12-15,合同会社ＶａｌｕｅＬａｂ,,合同会社,東京都,中央区,銀座１丁目１２－４Ｎ＆ＥＢＬＤ．７階,,13,102,1040061,,,,,,,2025-12-15,1,,,,,バリューラボ,0
281,2010003049718,新規,0,2025-12-15,2025-12-15,ｃｏｃｏ＆ａｓｓｏｃｉａｔｅｓ合同会社,,合同会社,東京都,千代田区,神田神保町３丁目６番地２－４０１号,,13,101,1010051,,,,,,,2025-12-15,1,,,,,ココアンドアソシエイツ,0
287,2010401195072,新規,0,2025-12-15,2025-12-15,株式会社ＳＴＵＤＩＯ　ＤＡＯ,,株式会社,東京都,港区,東麻布２丁目６番１４号サンライトヒルズ３０１,,13,103,1060044,,,,,,,2025-12-15,1,,,,,,0
288,2010401195196,新規,0,2025-12-15,2025-12-15,株式会社Ｍｅｍｅ　Ｊａｐａｎ,,株式会社,東京都,港区,南青山３丁目３－３リビエラ南青山ビルＡ館４０４,,13,103,1070062,,,,,,,2025-12-15,1,,,,,ミームジャパン,0
289,2010401195205,新規,0,2025-12-15,2025-12-15,フリード・キャピタル・ジャパン株式会社,,株式会社,東京都,港区,六本木１丁目９番１０号アークヒルズ仙石山森タワー４０階,,13,103,1060032,,,,,,,2025-12-15,1,,,,,フリードキャピタルジャパン,0
294,2010601068425,新規,0,2025-12-15,2025-12-15,株式会社Ｂ５,,株式会社,東京都,墨田区,江東橋２丁目７番１０号ＨＯ－ＥＩビル３Ｆ,,13,107,1300022,,,,,,,2025-12-15,1,,,,,ビーゴ,0
306,2011001174219,新規,0,2025-12-15,2025-12-15,Ｈｉｍｅｓｅｎ株式会社,,株式会社,東京都,渋谷区,桜丘町４番８号プレシャス渋谷２０３,,13,113,1500031,,,,,,,2025-12-15,1,,,,,ヒメセン,0
307,2011001174227,新規,0,2025-12-15,2025-12-15,株式会社リッチ＆ビルド,,株式会社,東京都,渋谷区,恵比寿西２丁目１番８号,,13,113,1500021,,,,,,,2025-12-15,1,,,,,リッチアンドビルド,0
308,2011001174326,新規,0,2025-12-15,2025-12-15,株式会社日本企業超会議,,株式会社,東京都,渋谷区,神宮前４丁目１番２４号,,13,113,1500001,,,,,,,2025-12-15,1,,,,,ニホンキギョウチョウカイギ,0
311,2011003023159,新規,0,2025-12-15,2025-12-15,合同会社ＹＵＵＫＵ,,合同会社,東京都,渋谷区,西原２丁目９番３－３０１号,,13,113,1510066,,,,,,,2025-12-15,1,,,,,ユーク,0
319,2011101114173,新規,0,2025-12-15,2025-12-15,フォルズンコア株式会社,,株式会社,東京都,新宿区,西新宿３丁目３番１３号西新宿水間ビル６階,,13,104,1600023,,,,,,,2025-12-15,1,,,,,フォルズンコア,0
320,2011101114330,新規,0,2025-12-15,2025-12-15,株式会社プライド,,株式会社,東京都,新宿区,新宿２丁目７番２号３０２,,13,104,1600022,,,,,,,2025-12-15,1,,,,,プライド,0
321,2011103016847,新規,0,2025-12-15,2025-12-15,桜瀚合同会社,,合同会社,東京都,新宿区,新宿２丁目１２番１６号セントフォービル５０２－Ｂ,,13,104,1600022,,,,,,,2025-12-15,1,,,,,オウカン,0
324,2011203004909,新規,0,2025-12-15,2025-12-15,合同会社山川電子計算センター,,合同会社,東京都,中野区,上鷺宮４丁目１５番９号１０１号室,,13,114,1650031,,,,,,,2025-12-15,1,,,,,ヤマカワデンシケイサンセンター,0
326,2011401027637,新規,0,2025-12-15,2025-12-15,株式会社しまなみインベストメント,,株式会社,東京都,板橋区,仲宿６０番１６号,,13,119,1730005,,,,,,,2025-12-15,1,,,,,シマナミインベストメント,0
333,2011701029028,新規,0,2025-12-15,2025-12-15,株式会社トラディアス,,株式会社,東京都,江戸川区,東葛西８丁目７番５号,,13,123,1340084,,,,,,,2025-12-15,1,,,,,トラディアス,0
334,2011705001924,新規,0,2025-12-15,2025-12-15,一般社団法人プレミアリーグＵ‐１１,,その他の設立登記法人,東京都,江戸川区,船堀４丁目２番１４－４０２号,,13,123,1340091,,,,,,,2025-12-15,1,,,,,プレミアリーグユージュウイチ,0
339,2012301014642,新規,0,2025-12-15,2025-12-15,株式会社ＥｎＧｒａｔ,,株式会社,東京都,町田市,原町田４丁目１１－１３天野ビル４階,,13,209,1940013,,,,,,,2025-12-15,1,,,,,エングラット,0
343,2012401043921,新規,0,2025-12-15,2025-12-15,株式会社洗浄くん・塗装くん・綺麗にしちゃうくん,,株式会社,東京都,調布市,西つつじケ丘３丁目２６番地７アーバンフラッツМＡ２０３,,13,208,1820006,,,,,,,2025-12-15,1,,,,,センジョウクントソウクンキレニシチャウクン,0
347,2012803003944,新規,0,2025-12-15,2025-12-15,合名会社スモールタウン,,合名会社,東京都,立川市,富士見町６丁目６４番１５号,,13,202,1900013,,,,,,,2025-12-15,1,,,,,スモールタウン,0
357,2013301055429,新規,0,2025-12-15,2025-12-15,株式会社義理人情,,株式会社,東京都,豊島区,池袋２丁目６９番地３メゾン王城２０３号,,13,116,1710014,,,,,,,2025-12-15,1,,,,,ギリニンジョウ,0
358,2013301055437,新規,0,2025-12-15,2025-12-15,青藤樹生命科学株式会社,,株式会社,東京都,豊島区,東池袋５丁目７番３号アゼリア東池袋３０２号,,13,116,1700013,,,,,,,2025-12-15,1,,,,,セイトウジュセイメイカガク,0
371,2020001166266,新規,0,2025-12-15,2025-12-15,株式会社ｆａｃｔｏｒ　ｔｈｒｅｅ,,株式会社,神奈川県,川崎市幸区,塚越４丁目３２０番地４ソフィア・ガーデンズ川崎１０９,,14,132,2120024,,,,,,,2025-12-15,1,,,,,ファクタースリー,0
372,2020001166274,新規,0,2025-12-15,2025-12-15,株式会社ティーケイコンサルティング,,株式会社,神奈川県,横浜市青葉区,美しが丘５丁目２９番地２３,,14,117,2250002,,,,,,,2025-12-15,1,,,,,ティーケイコンサルティング,0
373,2020001166282,新規,0,2025-12-15,2025-12-15,株式会社Ｒｅ・Ｌａｃｔ,,株式会社,神奈川県,横浜市戸塚区,戸塚町１０番地ラピス１ビル２階,,14,110,2440003,,,,,,,2025-12-15,1,,,,,リラクト,0
374,2020001166290,新規,0,2025-12-15,2025-12-15,ｗａｖｅ　ｆａｃｔｏｒｙ株式会社,,株式会社,神奈川県,横浜市青葉区,美しが丘５丁目８番地２１,,14,117,2250002,,,,,,,2025-12-15,1,,,,,ウェーブファクトリー,0
375,2020001166299,新規,0,2025-12-15,2025-12-15,株式会社ａｉｌｅ,,株式会社,神奈川県,横浜市青葉区,桜台２６番地７東急森アパートメント１０２,,14,117,2270061,,,,,,,2025-12-15,1,,,,,エール,0
381,2021001087023,新規,0,2025-12-15,2025-12-15,株式会社モノクローム電力,,株式会社,神奈川県,横須賀市,秋谷４３２１,,14,201,2400105,,,,,,,2025-12-15,1,,,,,モノクロームデンリョク,0
383,2021003016905,新規,0,2025-12-15,2025-12-15,サンリット合同会社,,合同会社,神奈川県,茅ヶ崎市,新栄町７－５－３Ｆ,,14,207,2530044,,,,,,,2025-12-15,1,,,,,サンリット,0
385,2021005013504,新規,0,2025-12-15,2025-12-15,土地家屋調査士法人八鍬・辻事務所,00141884,その他の設立登記法人,神奈川県,厚木市,水引１丁目５番１２号,,14,212,2430004,,,,,,,2025-12-15,1,,,,,ヤクワツジジムショ,0
393,2030001170127,新規,0,2025-12-15,2025-12-15,株式会社シラハラサービス,,株式会社,埼玉県,蓮田市,大字井沼１１２１番地１２,,11,238,3490135,,,,,,,2025-12-15,1,,,,,シラハラサービス,0
398,2040001141770,新規,0,2025-12-15,2025-12-15,株式会社ＴＯＫＩＷＡ,,株式会社,千葉県,習志野市,鷺沼２丁目９番５０－７０５号,,12,216,2750014,,,,,,,2025-12-15,1,,,,,トキワ,0
409,2050001057719,新規,0,2025-12-15,2025-12-15,株式会社みろく,,株式会社,茨城県,坂東市,大口３６８番地１,,08,228,3060615,,,,,,,2025-12-15,1,,,,,ミロク,0
412,2060001038858,新規,0,2025-12-15,2025-12-15,株式会社Ｒｉｖｅｒｉｓｅ,,株式会社,栃木県,河内郡上三川町,しらさぎ１丁目３４番地６,,09,301,3290618,,,,,,,2025-12-15,1,,,,,リバライズ,0
414,2070001043650,新規,0,2025-12-15,2025-12-15,株式会社ＭＣ　ＪＡＰＡＮ,,株式会社,群馬県,太田市,内ケ島町１０８０番地４,,10,205,3730813,,,,,,,2025-12-15,1,,,,,エムシージャパン,0
416,2070003006218,新規,0,2025-12-15,2025-12-15,ＡＤＮＡＮ　ＴＲＡＤＩＮＧ合同会社,,合同会社,群馬県,太田市,由良町１６５３番地２,,10,205,3730036,,,,,,,2025-12-15,1,,,,,,0
422,2090001019657,新規,0,2025-12-15,2025-12-15,ＣＴＲ株式会社,,株式会社,山梨県,甲府市,丸の内２丁目２番１号ＣＲＯＳＳ５００・１Ｆ,,19,201,4000031,,,,,,,2025-12-15,1,,,,,シーティーアール,0
427,2110001039784,新規,0,2025-12-15,2025-12-15,ブライモントジャパン株式会社,,株式会社,新潟県,新潟市南区,清水１１４８番地１,,15,106,9501457,,,,,,,2025-12-15,1,,,,,ブライモントジャパン,0
429,2110003005999,新規,0,2025-12-15,2025-12-15,合同会社Ｅｎｓｅｍｂｌｅ　Ｃａｒｅ,,合同会社,新潟県,新発田市,緑町２丁目５番５号,,15,206,9570018,,,,,,,2025-12-15,1,,,,,アンサンブルケア,0
438,2120001282722,新規,0,2025-12-15,2025-12-15,橙蕉株式会社,,株式会社,大阪府,大阪市住之江区,御崎１丁目１１－１９インキュセンタービル４０５号室,,27,125,5590013,,,,,,,2025-12-15,1,,,,,オレンバ,0
439,2120001282755,新規,0,2025-12-15,2025-12-15,株式会社ＣｏｎｎｅｃｔＪＰ,,株式会社,大阪府,大阪市西区,江戸堀１丁目１５番２１号９９９９ビル１１０２,,27,106,5500002,,,,,,,2025-12-15,1,,,,,コネクトジェイピー,0
441,2120003031458,新規,0,2025-12-15,2025-12-15,合同会社＿啄パートナーズ,00141883,合同会社,大阪府,大阪市北区,東天満２丁目１番１１－１５０１号,,27,127,5300044,,,,,,,2025-12-15,1,,,,,ソッタクパートナーズ,0
442,2120003031466,新規,0,2025-12-15,2025-12-15,合同会社ｒｅｐｒｅｓｅｎｔ,,合同会社,大阪府,大阪市中央区,南船場３丁目２番２２号おおきに南船場ビル２０５,,27,128,5420081,,,,,,,2025-12-15,1,,,,,リプレゼント,0
443,2120005025301,新規,0,2025-12-15,2025-12-15,一般社団法人Ｒ・ＡＳＫ１８,,その他の設立登記法人,大阪府,大阪市北区,梅田３丁目２番２号,,27,127,5300001,,,,,,,2025-12-15,1,,,,,アールエーエスケーエイティーン,0
446,2120101072957,新規,0,2025-12-15,2025-12-15,株式会社ＢＯＫＵＲＡ,,株式会社,大阪府,堺市中区,上之８０３番地,,27,142,5998244,,,,,,,2025-12-15,1,,,,,ボクラ,0
451,2120901051953,新規,0,2025-12-15,2025-12-15,株式会社エスニーナ,,株式会社,大阪府,吹田市,東御旅町８番６４号,,27,205,5640033,,,,,,,2025-12-15,1,,,,,エスニーナ,0
455,2130001081215,新規,0,2025-12-15,2025-12-15,株式会社Ｐｌａｎ・Ｄｏ・Ｓｅｅ　ＦＡＣＴＯＲＹ＆ＬＡＢＯ,,株式会社,京都府,久世郡久御山町,下津屋北野４６番地２,,26,322,6130035,,,,,,,2025-12-15,1,,,,,プランドゥーシーファクトリーアンドラボ,0
456,2130003010980,新規,0,2025-12-15,2025-12-15,合同会社ＡＰＯＬＬＯ,,合同会社,京都府,京都市中京区,梅忠町２０番地１烏丸アネックス２－９１５,,26,104,6048136,,,,,,,2025-12-15,1,,,,,アポロ,0
459,2140001141091,新規,0,2025-12-15,2025-12-15,ＶＯＲＴＥＣＨ株式会社,,株式会社,兵庫県,尼崎市,武庫之荘１丁目５番１１号,,28,202,6610035,,,,,,,2025-12-15,1,,,,,ボーテック,0
462,2150003003776,新規,0,2025-12-15,2025-12-15,ＬＵＣＦＡＭ合同会社,,合同会社,奈良県,大和郡山市,代官町２番６３号,,29,203,6391003,,,,,,,2025-12-15,1,,,,,ラクファム,0
468,2180001169864,新規,0,2025-12-15,2025-12-15,株式会社研鼎,,株式会社,愛知県,名古屋市熱田区,金山町１丁目１９番１４号,,23,109,4560002,,,,,,,2025-12-15,1,,,,,ケンテイ,0
469,2180001169930,新規,0,2025-12-15,2025-12-15,カリノ株式会社,,株式会社,愛知県,名古屋市中区,錦２丁目４番２４号,,23,106,4600003,,,,,,,2025-12-15,1,,,,,カリノ,0
472,2180005021344,新規,0,2025-12-15,2025-12-15,一般社団法人リバティホールディングス,,その他の設立登記法人,愛知県,名古屋市西区,幅下２丁目１番２２号幅下小塩橋ビル４Ｆ,,23,104,4510041,,,,,,,2025-12-15,1,,,,,リバティホールディングス,0
474,2180301040493,新規,0,2025-12-15,2025-12-15,ＯＳＫ株式会社,,株式会社,愛知県,刈谷市,東境町新林２２番地,,23,210,4480007,,,,,,,2025-12-15,1,,,,,オーエスケー,0
478,2190001032757,新規,0,2025-12-15,2025-12-15,東晟名古屋株式会社,,株式会社,三重県,四日市市,八王子町１３９９番地１,,24,202,5100947,,,,,,,2025-12-15,1,,,,,トウセイナゴヤ,0
483,2220001027076,新規,0,2025-12-15,2025-12-15,株式会社アシーズホールディングス,,株式会社,石川県,金沢市,稚日野町北８番地,,17,201,9200355,,,,,,,2025-12-15,1,,,,,アシーズホールディングス,0
484,2220003004189,新規,0,2025-12-15,2025-12-15,合同会社Ｐｈｏｅｎｉｘ,,合同会社,石川県,鳳珠郡能登町,字藤波５５－２０,,17,463,9270441,,,,,,,2025-12-15,1,,,,,フェニックス,0
492,2230003002555,新規,0,2025-12-15,2025-12-15,合同会社サンプラン企画,,合同会社,富山県,富山市,稲荷元町１丁目１２－２コーポイナリ３０１,,16,201,9300010,,,,,,,2025-12-15,1,,,,,,0
494,2240001065925,新規,0,2025-12-15,2025-12-15,株式会社ＣＨＩＫＡＲＡ,,株式会社,広島県,広島市中区,新天地５－１３,,34,101,7300034,,,,,,,2025-12-15,1,,,,,チカラ,0
499,2260003005448,新規,0,2025-12-15,2025-12-15,合同会社ｌＥａＦ,,合同会社,岡山県,倉敷市,水島西栄町二丁目１番５０６号,,33,202,7128034,,,,,,,2025-12-15,1,,,,,リーフ,0
508,2290001112482,新規,0,2025-12-15,2025-12-15,株式会社ＳＡＲＡ,,株式会社,福岡県,福岡市博多区,比恵町４番２５号イーストアンサンブル１００１号,,40,132,8120014,,,,,,,2025-12-15,1,,,,,サラ,0
509,2290001112499,新規,0,2025-12-15,2025-12-15,株式会社Ａｏｎｏｚｏｕ,,株式会社,福岡県,小郡市,三国が丘５丁目１５７番地,,40,216,8380103,,,,,,,2025-12-15,1,,,,,アオノゾウ,0
510,2290001112508,新規,0,2025-12-15,2025-12-15,株式会社ＣＸ,,株式会社,福岡県,福岡市中央区,六本松４丁目１０－１３－７０１,,40,133,8100044,,,,,,,2025-12-15,1,,,,,シーエックス,0
511,2290001112516,新規,0,2025-12-15,2025-12-15,株式会社ととと,,株式会社,福岡県,福岡市博多区,博多駅前４丁目８番１０号１Ｆ,,40,132,8120011,,,,,,,2025-12-15,1,,,,,トトト,0
518,2290003017804,新規,0,2025-12-15,2025-12-15,合同会社再始,,合同会社,福岡県,みやま市,瀬高町本吉６９３番地４,,40,229,8350003,,,,,,,2025-12-15,1,,,,,サイシ,0
519,2290003017829,新規,0,2025-12-15,2025-12-15,合同会社ホヌＨｅａｒｔ,,合同会社,福岡県,那珂川市,片縄北３丁目３番７－２号（ＩＩ－２号）,00141880,40,231,8111203,,,,,,,2025-12-15,1,,,,,ホヌハート,0
524,2290005019906,新規,0,2025-12-15,2025-12-15,一般社団法人アジア福祉産業協会,,その他の設立登記法人,福岡県,福岡市西区,小戸１丁目１６番２４号,,40,135,8190001,,,,,,,2025-12-15,1,,,,,アジアフクシサンギョウキョウカイ,0
529,2310003005145,新規,0,2025-12-15,2025-12-15,宮崎医研合同会社,00141881,合同会社,長崎県,長崎市,樺島町８番１８－１２０１号,,42,201,8500034,,,,,,,2025-12-15,1,,,,,ミヤザキイケン,0
533,2360001036146,新規,0,2025-12-15,2025-12-15,株式会社ＡＧＹＵ,,株式会社,沖縄県,那覇市,牧志２丁目１６番１９号ワコーマンション１０４,,47,201,9000013,,,,,,,2025-12-15,1,,,,,アギュー,0
536,2370001053314,新規,0,2025-12-15,2025-12-15,株式会社ｏｎｅ　ｏｎｅ　ｃｏｒｐｏｒａｔｉｏｎ,,株式会社,宮城県,仙台市若林区,土樋２８４－１－３１０,,04,103,9840065,,,,,,,2025-12-15,1,,,,,ワンワンコーポレーション,0
541,2400005008533,新規,0,2025-12-15,2025-12-15,一般社団法人ＢｔｏＲ,,その他の設立登記法人,岩手県,盛岡市,北飯岡２丁目４番２３号,,03,201,0200857,,,,,,,2025-12-15,1,,,,,ビートゥアール,0
561,2500001026677,新規,0,2025-12-15,2025-12-15,株式会社リッチクラウドフーズ,,株式会社,愛媛県,西条市,上市甲３５９番地１,,38,206,7991336,,,,,,,2025-12-15,1,,,,,リッチクラウドフーズ,0
564,2500005008837,新規,0,2025-12-15,2025-12-15,一般社団法人Ｌｉｂ,,その他の設立登記法人,愛媛県,松山市,久米窪田町４２８番地３５,,38,201,7911101,,,,,,,2025-12-15,1,,,,,リブ,0
566,2700150133436,新規,0,2025-12-15,2025-12-15,住友共同電力健康保険組合,,その他,愛媛県,新居浜市,磯浦町１６番５号,,38,205,7920002,,,,,,,2025-12-15,1,,,,,スミトモキョウドウデンリョクケンコウホケンクミアイ,0
567,2700150133452,新規,0,2025-12-15,2025-12-15,Ｓｈｅｎｚｈｅｎ　Ｓｈｉ　Ｓｉ　Ｋｅ　Ｘｉｎｇｘｉｎｇ　Ｄｉａｎｚｉ　Ｙｏｕｘｉａｎ　Ｇｏｎｇｓｉ,,外国会社等,,,,,,,,Ｒｏｏｍ　２０２－６，Ｓｉｈａｉ　Ｙｉｊｉａ　Ｎｏｒｔｈ　Ｓｏｕｔｈ　Ｔｏｗｅｒｓ，Ｎｏ．２５，Ｇｏｎｇｙｕａｎ　Ｒｏａｄ，Ｈｕａｇｕｏｓｈａｎ　Ｃｏｍｍｕｎｉｔｙ，Ｚｈａｏｓｈａｎｇ　Ｓｔｒｅｅｔ，Ｎａｎｓｈａｎ　Ｄｉｓｔｒｉｃｔ，Ｓｈｅｎｚｈｅｎ　Ｃｉｔｙ,,,,,,2025-12-15,1,,,,,シェンジェンシースーコーシンシンディエンズーヨウシエンゴンスー,0
568,2700150133460,新規,0,2025-12-15,2025-12-15,キクチ健康保険組合,,その他,愛知県,春日井市,高森台４丁目１１番１号,,23,206,4870032,,,,,,,2025-12-15,1,,,,,キクチケンコウホケンクミアイ,0
574,3010001261109,新規,0,2025-12-15,2025-12-15,株式会社ひとつぶ,,株式会社,東京都,文京区,本郷５丁目１－１１ＫＩＩＨＯＵＳＥ２０２,,13,105,1130033,,,,,,,2025-12-15,1,,,,,ヒトツブ,0
575,3010001261174,新規,0,2025-12-15,2025-12-15,ダイヤアヤソルク株式会社,,株式会社,東京都,千代田区,丸の内１丁目５番１号,,13,101,1000005,,,,,,,2025-12-15,1,,,,,ダイヤアヤソルク,0
577,3010003049683,新規,0,2025-12-15,2025-12-15,輸出入総合管理合同会社,,合同会社,東京都,文京区,千石４丁目１４番９号１階,,13,105,1120011,,,,,,,2025-12-15,1,,,,,ユシュツニュウソウゴウカンリ,0
578,3010003049709,新規,0,2025-12-15,2025-12-15,神田エナジー合同会社,,合同会社,東京都,千代田区,神田東松下町１３番地,,13,101,1010042,,,,,,,2025-12-15,1,,,,,カンダエナジー,0
579,3010003049717,新規,0,2025-12-15,2025-12-15,合同会社ＢｒｉｇｈｔＳｅｅｄ,,合同会社,東京都,中央区,銀座１丁目１２番４号Ｎ＆ＥＢＬＤ．６Ｆ,,13,102,1040061,,,,,,,2025-12-15,1,,,,,ブライトシード,0
586,3010401194833,新規,0,2025-12-15,2025-12-15,株式会社ｍａｅ　ｐｒｏｊｅｃｔ,,株式会社,東京都,港区,虎ノ門５丁目２番７号土井ビル５階,,13,103,1050001,,,,,,,2025-12-15,1,,,,,マエプロジェクト,0
587,3010401195162,新規,0,2025-12-15,2025-12-15,オルセー株式会社,,株式会社,東京都,港区,白金１丁目１７番１－１１１号,,13,103,1080072,,,,,,,2025-12-15,1,,,,,オルセー,0
591,3010403036819,新規,0,2025-12-15,2025-12-15,Ａｎｙｗａｙｓ　Ｓｏｌｕｔｉｏｎｓ合同会社,,合同会社,東京都,港区,北青山１丁目３－３三橋ビル３階,,13,103,1070061,,,,,,,2025-12-15,1,,,,,エニイウェイズソリューションズ,0
593,3010601068424,新規,0,2025-12-15,2025-12-15,株式会社Ｒ,,株式会社,東京都,墨田区,文花１丁目１８番１３号,,13,107,1310044,,,,,,,2025-12-15,1,,,,,アール,0
596,3010701048771,新規,0,2025-12-15,2025-12-15,株式会社ブライトコネクション,,株式会社,東京都,品川区,東中延１丁目１２番７号アイディーコート荏原中延４０１,,13,109,1420052,,,,,,,2025-12-15,1,,,,,ブライトコネクション,0
603,3010901058562,新規,0,2025-12-15,2025-12-15,Ｌｏｏｋ　Ａｔ　Ｗｏｎｄｅｒｌａｎｄ株式会社,,株式会社,東京都,世田谷区,北沢２丁目５－２下北沢ビッグベンビル５階,,13,112,1550031,,,,,,,2025-12-15,1,,,,,ルックアットワンダーランド,0
612,3011005011284,新規,0,2025-12-15,2025-12-15,一般社団法人ジャルダン・フランセ,,その他の設立登記法人,東京都,目黒区,平町２丁目２番８号,,13,110,1520032,,,,,,,2025-12-15,1,,,,,ジャルダンフランセ,0
616,3011101114296,新規,0,2025-12-15,2025-12-15,徳来貿易株式会社,,株式会社,東京都,新宿区,喜久井町３６番地メゾン・オリザ１０４号室,,13,104,1620044,,,,,,,2025-12-15,1,,,,,トクライボウエキ,0
618,3011401027652,新規,0,2025-12-15,2025-12-15,株式会社ｅ．ｏ．ｈ,,株式会社,東京都,板橋区,小茂根４丁目２１番１５－５０３号,,13,119,1730037,,,,,,,2025-12-15,1,,,,,イーオーエイチ,0
620,3011403004971,新規,0,2025-12-15,2025-12-15,合同会社モルガン,,合同会社,東京都,板橋区,舟渡１丁目１９番１号オータムスクエア２０１,,13,119,1740041,,,,,,,2025-12-15,1,,,,,モルガン,0
623,3011701029027,新規,0,2025-12-15,2025-12-15,株式会社心光企画,,株式会社,東京都,江戸川区,南葛西４丁目１０番２１号ＫＳフォーミュラ４０６号,,13,123,1340085,,,,,,,2025-12-15,1,,,,,シンコウキカク,0
627,3012401043920,新規,0,2025-12-15,2025-12-15,株式会社Ｄｅｅｐ　Ｔｒａｉｎｉｎｇ　Ｓｔｙｌｅ,,株式会社,東京都,稲城市,平尾１丁目５４番地の２０,,13,225,2060823,,,,,,,2025-12-15,1,,,,,ディープトレーニングスタイル,0
632,3020001166265,新規,0,2025-12-15,2025-12-15,ナインホープ株式会社,,株式会社,神奈川県,横浜市鶴見区,鶴見中央４丁目２番４号,,14,101,2300051,,,,,,,2025-12-15,1,,,,,ナインホープ,0
633,3020001166273,新規,0,2025-12-15,2025-12-15,株式会社ＣａｍｐｕｓＷｉｔｈ,,株式会社,神奈川県,横浜市戸塚区,南舞岡３丁目１２番２１号,,14,110,2440814,,,,,,,2025-12-15,1,,,,,キャンパスウィズ,0
634,3020001166281,新規,0,2025-12-15,2025-12-15,相川不動産株式会社,,株式会社,神奈川県,横浜市南区,吉野町３丁目７番地ＡＴＯＭＶＩＥＷ４号室,,14,105,2320014,,,,,,,2025-12-15,1,,,,,アイカワフドウサン,0
639,3020003029949,新規,0,2025-12-15,2025-12-15,合同会社ライフパートナー,,合同会社,神奈川県,横浜市西区,北幸２丁目１０番４８号むつみビル３階,,14,103,2200004,,,,,,,2025-12-15,1,,,,,,0
643,3021001087088,新規,0,2025-12-15,2025-12-15,株式会社ｍｏａｍｏｒｅ,,株式会社,神奈川県,秦野市,南が丘１丁目５番地の１５３,,14,211,2570013,,,,,,,2025-12-15,1,,,,,モアモア,0
665,3040001141753,新規,0,2025-12-15,2025-12-15,東京ベイパワー株式会社,,株式会社,千葉県,浦安市,猫実４丁目１９番８－５ＦＤ号ＴＲＥＥＨＯＵＳＥ,,12,227,2790004,,,,,,,2025-12-15,1,,,,,トウキョウベイパワー,0
666,3040001141778,新規,0,2025-12-15,2025-12-15,株式会社オキ・プロパティマネジメント,,株式会社,千葉県,市川市,市川１丁目２２番６号,,12,203,2720034,,,,,,,2025-12-15,1,,,,,オキプロパティマネジメント,0
669,3050001057718,新規,0,2025-12-15,2025-12-15,株式会社ブリングジョイ,,株式会社,茨城県,龍ケ崎市,白羽３丁目１８番地７,,08,208,3010841,,,,,,,2025-12-15,1,,,,,,0
670,3050001057726,新規,0,2025-12-15,2025-12-15,株式会社栗のいえ,,株式会社,茨城県,笠間市,土師１２８５番地２５,,08,216,3190204,,,,,,,2025-12-15,1,,,,,クリノイエ,0
707,3120001282564,新規,0,2025-12-15,2025-12-15,株式会社中村工業,,株式会社,大阪府,大阪市北区,梅田１丁目２番２号大阪駅前第２ビル１２－１２,,27,127,5300001,,,,,,,2025-12-15,1,,,,,ナカムラコウギョウ,0
708,3120001282688,新規,0,2025-12-15,2025-12-15,ｇｏｅｎ．ｎｏｉ　Ｒｅａｓｏｎ株式会社,,株式会社,大阪府,大阪市東住吉区,駒川５丁目１４番５号,,27,121,5460043,,,,,,,2025-12-15,1,,,,,ゴエンノイリーズン,0
709,3120001282705,新規,0,2025-12-15,2025-12-15,株式会社エフ・エステイツ,,株式会社,大阪府,守口市,八雲西町１丁目２３番２号,,27,209,5700006,,,,,,,2025-12-15,1,,,,,エフエステイツ,0
710,3120001282721,新規,0,2025-12-15,2025-12-15,ＲｅＶｉｔａ株式会社,,株式会社,大阪府,大阪市生野区,巽南２丁目７－１－１０１号室,00141893,27,116,5440015,,,,,,,2025-12-15,1,,,,,リヴィタ,0
711,3120001282738,新規,0,2025-12-15,2025-12-15,凌雲株式会社,,株式会社,大阪府,大阪市平野区,加美正覚寺１丁目１４番３号南野マンション１０５号室,,27,126,5470006,,,,,,,2025-12-15,1,,,,,リョウウン,0
712,3120001282779,新規,0,2025-12-15,2025-12-15,ミドシー株式会社,,株式会社,大阪府,大阪市北区,西天満５丁目９番１０号,,27,127,5300047,,,,,,,2025-12-15,1,,,,,ミドシー,0
713,3120001282787,新規,0,2025-12-15,2025-12-15,株式会社マリンビューホテルマネジメント,,株式会社,大阪府,大阪市中央区,本町４丁目４番１０号,,27,128,5410053,,,,,,,2025-12-15,1,,,,,マリンビューホテルマネジメント,0
714,3120001282804,新規,0,2025-12-15,2025-12-15,株式会社ＥＮＫＲ,,株式会社,大阪府,大阪市淀川区,西宮原２丁目６番６７－９０７号,,27,123,5320004,,,,,,,2025-12-15,1,,,,,エンクル,0
717,3120003031465,新規,0,2025-12-15,2025-12-15,合同会社アオテンジョウ,,合同会社,大阪府,大阪市北区,梅田１丁目２番２号大阪駅前第２ビル１２－１２,,27,127,5300001,,,,,,,2025-12-15,1,,,,,アオテンジョウ,0
718,3120005025300,新規,0,2025-12-15,2025-12-15,一般社団法人Ｒ・ＡＳＫ１７,,その他の設立登記法人,大阪府,大阪市北区,梅田３丁目２番２号,,27,127,5300001,,,,,,,2025-12-15,1,,,,,アールエーエスケーセブンティーン,0
720,3120103006887,新規,0,2025-12-15,2025-12-15,のばな合同会社,,合同会社,大阪府,泉大津市,曽根町３丁目１－３４,,27,206,5950011,,,,,,,2025-12-15,1,,,,,ノバナ,0
735,3140003022966,新規,0,2025-12-15,2025-12-15,クロスリンク合同会社,,合同会社,兵庫県,西宮市,山口町上山口４丁目７番１３ヴィルヌーブＩＶ２０３,00141882,28,204,6511421,,,,,,,2025-12-15,1,,,,,クロスリンク,0
741,3180001169921,新規,0,2025-12-15,2025-12-15,Ｓ．サポート株式会社,,株式会社,愛知県,春日井市,八事町２丁目１６５番地,,23,206,4860836,,,,,,,2025-12-15,1,,,,,エスドットサポート,0
746,3180003029504,新規,0,2025-12-15,2025-12-15,合同会社松久,,合同会社,愛知県,長久手市,根嶽４３０番地,,23,238,4801148,,,,,,,2025-12-15,1,,,,,マツキュウ,0
747,3180301040492,新規,0,2025-12-15,2025-12-15,株式会社ＪＵＭＢＯ,,株式会社,愛知県,安城市,三河安城東町２丁目１１番地３,,23,212,4460057,,,,,,,2025-12-15,1,,,,,ジャンボ,0
751,3200001044519,新規,0,2025-12-15,2025-12-15,株式会社レベルアップ,,株式会社,岐阜県,岐阜市,加納朝日町１丁目２１番地２長谷川アパート２階西,,21,201,5008452,,,,,,,2025-12-15,1,,,,,レベルアップ,0
752,3200001044527,新規,0,2025-12-15,2025-12-15,株式会社シェルス,,株式会社,岐阜県,関市,小屋名１２９３番地１シャンポール赤土坂Ａ棟２０５号室,,21,205,5013941,,,,,,,2025-12-15,1,,,,,シェルス,0
754,3200003007168,新規,0,2025-12-15,2025-12-15,合同会社クラフターデザイン,,合同会社,岐阜県,岐阜市,近島５丁目２番１５号,,21,201,5020908,,,,,,,2025-12-15,1,,,,,クラフターデザイン,0
763,3240001065924,新規,0,2025-12-15,2025-12-15,株式会社コンフォートライフ,,株式会社,広島県,尾道市,御調町徳永９２番地２,,34,205,7220345,,,,,,,2025-12-15,1,,,,,コンフォートライフ,0
769,3290001112515,新規,0,2025-12-15,2025-12-15,株式会社アピスト,,株式会社,福岡県,福岡市西区,姪浜駅南２丁目１６番２２号イ・セレーノ姪浜駅南１００２号,,40,135,8190006,,,,,,,2025-12-15,1,,,,,アピスト,0
770,3290001112523,新規,0,2025-12-15,2025-12-15,株式会社ドリップラボ,,株式会社,福岡県,福岡市中央区,平尾２丁目１０番５号,,40,133,8100014,,,,,,,2025-12-15,1,,,,,ドリップラボ,0
771,3290001112531,新規,0,2025-12-15,2025-12-15,株式会社春田会計事務所,,株式会社,福岡県,福岡市西区,姪浜駅南１丁目３－２６姪浜駅南ビル３０１号,,40,135,8190006,,,,,,,2025-12-15,1,,,,,ハルタカイケイジムショ,0
772,3290003017828,新規,0,2025-12-15,2025-12-15,合同会社Ｏｈａｎａ,,合同会社,福岡県,福岡市早良区,飯倉４丁目２８番５２－１０１号,,40,137,8140161,,,,,,,2025-12-15,1,,,,,オハナ,0
773,3290005019905,新規,0,2025-12-15,2025-12-15,ＮＰＯ法人高齢者・障がい者安心サポートネット宗像,,その他の設立登記法人,福岡県,宗像市,東郷２丁目１番４３号,,40,220,8113436,,,,,,,2025-12-15,1,,,,,コウレイシャショウガイシャアンシンサポートネットムナカタ,0
777,3290801032094,新規,0,2025-12-15,2025-12-15,株式会社Ｎｅｘｕｓ,,株式会社,福岡県,田川市,平松町２番８号,,40,206,8260032,,,,,,,2025-12-15,1,,,,,ネクサス,0
787,3330001033839,新規,0,2025-12-15,2025-12-15,株式会社Ｊａｐａｎ　Ａｇｒｉ　Ｃｏｎｎｅｃｔ,,株式会社,熊本県,熊本市西区,河内町河内１４５４番地７７,,43,103,8615346,,,,,,,2025-12-15,1,,,,,ジャパンアグリコネクト,0
790,3340001027815,新規,0,2025-12-15,2025-12-15,株式会社さつま本陣,,株式会社,鹿児島県,鹿児島市,吉野町１０９７２番地８,,46,201,8920871,,,,,,,2025-12-15,1,,,,,サツマホンジン,0
794,3360001036137,新規,0,2025-12-15,2025-12-15,株式会社Ｓａｖｅｒｙ,,株式会社,沖縄県,沖縄市,知花５丁目１６番４１号プレミアムコート知花４０２,,47,211,9042143,,,,,,,2025-12-15,1,,,,,セイブリー,0
798,3360003015469,新規,0,2025-12-15,2025-12-15,合同会社Ｇａｊｕ,,合同会社,沖縄県,糸満市,字喜屋武２６７－４,,47,210,9010354,,,,,,,2025-12-15,1,,,,,ガジュ,0
799,3360003015477,新規,0,2025-12-15,2025-12-15,合同会社Ｗａｎ．Ｎｙａｎ．ｂｒｅｌｌａ,,合同会社,沖縄県,島尻郡八重瀬町,字屋宜原５２１番地の３,,47,362,9010406,,,,,,,2025-12-15,1,,,,,ワンニャンブレラ,0
800,3370001053305,新規,0,2025-12-15,2025-12-15,アガッタ株式会社,,株式会社,宮城県,仙台市泉区,南光台南２丁目１１番７号,,04,105,9818002,,,,,,,2025-12-15,1,,,,,アガッタ,0
801,3370003007416,新規,0,2025-12-15,2025-12-15,Ｅｄｖｅｘ合同会社,,合同会社,宮城県,仙台市若林区,荒井字丑ノ頭１０１番地の１,,04,103,9840032,,,,,,,2025-12-15,1,,,,,エドベックス,0
802,3370005011044,新規,0,2025-12-15,2025-12-15,医療法人まさみ歯科,,その他の設立登記法人,宮城県,仙台市青葉区,南吉成３丁目１番２３号,,04,101,9893204,,,,,,,2025-12-15,1,,,,,マサミシカ,0
809,3400003003576,新規,0,2025-12-15,2025-12-15,合同会社ノーワカルナリバザー,,合同会社,岩手県,盛岡市,館向町３６番１４号コーポグラント１０５号,,03,201,0200115,,,,,,,2025-12-15,1,,,,,ノーワカルナリバザー,0
821,3460001006055,新規,0,2025-12-15,2025-12-15,アイコーポ不動産株式会社,,株式会社,北海道,釧路市,愛国東１丁目２１番６号,,01,206,0850058,,,,,,,2025-12-15,1,,,,,アイコーポフドウサン,0
824,3700150133435,新規,0,2025-12-15,2025-12-15,オリエンタルランド健康保険組合,,その他,千葉県,浦安市,舞浜１番地１,,12,227,2790031,,,,,,,2025-12-15,1,,,,,オリエンタルランドケンコウホケンクミアイ,0
825,3700150133443,新規,0,2025-12-15,2025-12-15,虹技健康保険組合,,その他,兵庫県,姫路市,大津区勘兵衛町４丁目１番地,,28,201,6711132,,,,,,,2025-12-15,1,,,,,コウギケンコウホケンクミアイ,0
826,3700150133451,新規,0,2025-12-15,2025-12-15,三菱ケミカル健康保険組合,,その他,東京都,千代田区,丸の内１丁目１番１号,,13,101,1000005,,,,,,,2025-12-15,1,,,,,ミツビシケミカルケンコウホケンクミアイ,0
829,4010001261074,新規,0,2025-12-15,2025-12-15,大関商事株式会社,,株式会社,東京都,中央区,銀座１丁目１２－４Ｎ＆ＥＢＬＤ．７階,,13,102,1040061,,,,,,,2025-12-15,1,,,,,オオゼキショウジ,0
830,4010001261173,新規,0,2025-12-15,2025-12-15,ダイヤエフェス株式会社,,株式会社,東京都,千代田区,丸の内１丁目５番１号,,13,101,1000005,,,,,,,2025-12-15,1,,,,,ダイヤエフェス,0
831,4010001261181,新規,0,2025-12-15,2025-12-15,斯其大日本株式会社,,株式会社,東京都,千代田区,飯田橋３丁目１番５号Ｓ３（Ｒｏｌｅｓ）千代田飯田橋８Ｆ,,13,101,1020072,,,,,,,2025-12-15,1,,,,,シキダイニッポン,0
833,4010003049724,新規,0,2025-12-15,2025-12-15,ＴＩＫＫパートナーズ合同会社,,合同会社,東京都,中央区,銀座１丁目１２－４Ｎ＆ＥＢＬＤ．７階,,13,102,1040061,,,,,,,2025-12-15,1,,,,,ティアイケイケイパートナーズ,0
835,4010005041076,新規,0,2025-12-15,2025-12-15,一般社団法人２１,,その他の設立登記法人,東京都,千代田区,丸の内１丁目４番１号東京共同会計事務所内,,13,101,1000005,,,,,,,2025-12-15,1,,,,,ニジュウイチ,0
842,4010401195070,新規,0,2025-12-15,2025-12-15,株式会社ＵＰＤＡＴＥ,,株式会社,東京都,港区,新橋３丁目１９番４号,,13,103,1050004,,,,,,,2025-12-15,1,,,,,アップデート,0
843,4010401195186,新規,0,2025-12-15,2025-12-15,人本株式会社,,株式会社,東京都,港区,芝浦２丁目１７－１３保坂興産ビル６Ｆ,,13,103,1080023,,,,,,,2025-12-15,1,,,,,ヒトモト,0
846,4010501055182,新規,0,2025-12-15,2025-12-15,吉＿高照株式会社,00141876,株式会社,東京都,台東区,上野１丁目１０番８アジア商事上野ビル,,13,106,1100005,,,,,,,2025-12-15,1,,,,,キッキンコウショウ,0
853,4010903010487,新規,0,2025-12-15,2025-12-15,Ｍｅｄｉｃａｌ　ｓｅｒｖｉｃｅ合同会社,,合同会社,東京都,世田谷区,上北沢１丁目２０番２６－１０１号,,13,112,1560057,,,,,,,2025-12-15,1,,,,,メディカルサービス,0
860,4011001174027,新規,0,2025-12-15,2025-12-15,ＥＳＴＨＥＳＩＡ　ＡＲＣＨＩＴＥＣＴＳ株式会社,,株式会社,東京都,渋谷区,元代々木町４９番１７号,,13,113,1510062,,,,,,,2025-12-15,1,,,,,エステジアアーキテクツ,0
861,4011001174308,新規,0,2025-12-15,2025-12-15,株式会社バニータートル,,株式会社,東京都,渋谷区,円山町５番３号ＭＩＥＵＸ渋谷ビル８階,,13,113,1500044,,,,,,,2025-12-15,1,,,,,バニータートル,0
865,4011003021904,新規,0,2025-12-15,2025-12-15,ユニターン合同会社,,合同会社,東京都,渋谷区,道玄坂１丁目１０－８渋谷道玄坂東急ビル２Ｆ－Ｃ,,13,113,1500043,,,,,,,2025-12-15,1,,,,,ユニターン,0
866,4011003023108,新規,0,2025-12-15,2025-12-15,合同会社Ｓｕｋｉｍａ,,合同会社,東京都,渋谷区,広尾１丁目２番地１号ヒカリビル４階,,13,113,1500012,,,,,,,2025-12-15,1,,,,,スキマ,0
867,4011101114295,新規,0,2025-12-15,2025-12-15,山田Ａ．Ｒ．Ｅ．株式会社,,株式会社,東京都,新宿区,若葉１丁目６番１号ビジネスガーデン四ツ谷アネックス３０２号室,,13,104,1600011,,,,,,,2025-12-15,1,,,,,ヤマダエーアールイー,0
868,4011103016812,新規,0,2025-12-15,2025-12-15,Ａｍｉ　Ｖｉｅｒ合同会社,,合同会社,東京都,新宿区,新宿１丁目３６－２新宿第七葉山ビル３Ｆ,,13,104,1600022,,,,,,,2025-12-15,1,,,,,アミフィーア,0
869,4011103016853,新規,0,2025-12-15,2025-12-15,Ｔｒｉｎｉ　Ａｓｓｅｔ合同会社,,合同会社,東京都,新宿区,山吹町３６６番地１新宿山吹アインスタワー２１０２,,13,104,1620801,,,,,,,2025-12-15,1,,,,,トリニアセット,0
870,4011201026853,新規,0,2025-12-15,2025-12-15,株式会社一花,,株式会社,東京都,中野区,東中野１丁目４７番１号,,13,114,1640003,,,,,,,2025-12-15,1,,,,,イチカ,0
877,4011701029034,新規,0,2025-12-15,2025-12-15,ケイワンソリューションズ株式会社,,株式会社,東京都,江戸川区,東葛西５丁目３８番４号,,13,123,1340084,,,,,,,2025-12-15,1,,,,,ケイワンソリューションズ,0
885,4013301055427,新規,0,2025-12-15,2025-12-15,株式会社ＵＬ運輸,,株式会社,東京都,豊島区,西巣鴨１丁目９番３号,,13,116,1700001,,,,,,,2025-12-15,1,,,,,ユーエルウンユ,0
887,4013303007987,新規,0,2025-12-15,2025-12-15,ＲＭエステート合同会社,,合同会社,東京都,豊島区,目白３丁目２２番６号,,13,116,1710031,,,,,,,2025-12-15,1,,,,,アールエムエステート,0
892,4020001166272,新規,0,2025-12-15,2025-12-15,株式会社ＳＯＬＵＸ,,株式会社,神奈川県,横浜市神奈川区,羽沢町１２００番地６１,,14,102,2210863,,,,,,,2025-12-15,1,,,,,ソラクス,0
895,4021001087021,新規,0,2025-12-15,2025-12-15,株式会社オハラ・マネジメント・システムズ,,株式会社,神奈川県,座間市,東原２丁目１０番２６－７号,,14,216,2520004,,,,,,,2025-12-15,1,,,,,オハラマネジメントシステムズ,0
900,4030001170109,新規,0,2025-12-15,2025-12-15,株式会社川口総合不動産,,株式会社,埼玉県,川口市,坂下町４丁目１９番２号ラ・ストラーダ１０５号,,11,203,3340003,,,,,,,2025-12-15,1,,,,,カワグチソウゴウフドウサン,0
914,4050001057733,新規,0,2025-12-15,2025-12-15,スキルゲート株式会社,,株式会社,茨城県,水戸市,中央２丁目７番１４号,,08,201,3100805,,,,,,,2025-12-15,1,,,,,スキルゲート,0
922,4060003005887,新規,0,2025-12-15,2025-12-15,合同会社Ｒ‐ｗｅｌｉｎａ,,合同会社,栃木県,大田原市,中央２丁目１番１３号,,09,210,3240056,,,,,,,2025-12-15,1,,,,,アールウェリナ,0
923,4070001043649,新規,0,2025-12-15,2025-12-15,サトー外構株式会社,,株式会社,群馬県,北群馬郡吉岡町,大字下野田７２０番地１０,,10,345,3703608,,,,,,,2025-12-15,1,,,,,サトーガイコウ,0
926,4080101025959,新規,0,2025-12-15,2025-12-15,伊東温泉にぎわいカンパニー株式会社,,株式会社,静岡県,伊東市,中央町６番１５号,,22,208,4140003,,,,,,,2025-12-15,1,,,,,イトウオンセンニギワイカンパニー,0
938,4110005017297,新規,0,2025-12-15,2025-12-15,税理士法人度量衡,,その他の設立登記法人,新潟県,長岡市,幸町１丁目１１番１０号,,15,202,9400084,,,,,,,2025-12-15,1,,,,,ドリョウコウ,0
951,4120001282737,新規,0,2025-12-15,2025-12-15,株式会社楽業,,株式会社,大阪府,大阪市淀川区,西中島３丁目１８－９新大阪日大ビル４１５Ａ,,27,123,5320011,,,,,,,2025-12-15,1,,,,,ラクギョウ,0
952,4120001282761,新規,0,2025-12-15,2025-12-15,株式会社ｔｅｍｐｏ,,株式会社,大阪府,大阪市北区,野崎町１番３０－１８１２号,,27,127,5300055,,,,,,,2025-12-15,1,,,,,テンポ,0
953,4120001282794,新規,0,2025-12-15,2025-12-15,株式会社ミライネ,,株式会社,大阪府,大阪市東淀川区,瑞光２丁目７番２０号,,27,114,5330005,,,,,,,2025-12-15,1,,,,,ミライネ,0
956,4120005025299,新規,0,2025-12-15,2025-12-15,一般社団法人Ｒ・ＡＳＫ１６,,その他の設立登記法人,大阪府,大阪市北区,梅田３丁目２番２号,,27,127,5300001,,,,,,,2025-12-15,1,,,,,アールエーエスケーシックスティーン,0
959,4120103006894,新規,0,2025-12-15,2025-12-15,河内生野荘合同会社,,合同会社,大阪府,羽曳野市,埴生野１０８７番９,,27,222,5830866,,,,,,,2025-12-15,1,,,,,カワチイクノソウ,0
969,4130005017535,新規,0,2025-12-15,2025-12-15,特定非営利活動法人国際介護人材育成協会,,その他の設立登記法人,京都府,京都市下京区,中堂寺粟田町９３ＫＲＰ４号館３階ＫＲＰＢＩＺＮＥＸＴ,,26,106,6008815,,,,,,,2025-12-15,1,,,,,コクサイカイゴジンザイイクセイキョウカイ,0
982,4180001169887,新規,0,2025-12-15,2025-12-15,株式会社イグナイトガレージ,,株式会社,愛知県,名古屋市昭和区,駒方町２丁目３６番地の１,,23,107,4660832,,,,,,,2025-12-15,1,,,,,イグナイトガレージ,0
983,4180001169904,新規,0,2025-12-15,2025-12-15,株式会社ＦＲｏｏｍ,,株式会社,愛知県,名古屋市東区,葵１丁目２番２０号,,23,102,4610004,,,,,,,2025-12-15,1,,,,,フルーム,0
986,4180301040500,新規,0,2025-12-15,2025-12-15,株式会社クラフト,,株式会社,愛知県,豊田市,大林町１２丁目３－３ＯＢＡＹＡＹＡＳＨＩＢＡＳＥ２号,,23,211,4730902,,,,,,,2025-12-15,1,,,,,クラフト,0
989,4190001032755,新規,0,2025-12-15,2025-12-15,株式会社聖駿,,株式会社,三重県,伊賀市,安場３２１９番地の１,,24,216,5181145,,,,,,,2025-12-15,1,,,,,セイシュン,0
990,4210005010242,新規,0,2025-12-15,2025-12-15,若狭ワーク＆ライフ協同組合,,その他の設立登記法人,福井県,三方上中郡若狭町,熊川第３７号９番地ＫＩＫＵＹＡ２階,,18,501,9191532,,,,,,,2025-12-15,1,,,,,ワカサワークアンドライフ,0
993,4220001027066,新規,0,2025-12-15,2025-12-15,株式会社Ｈｅａｒｔｆｕｌ　Ｔｅｒｒａｃｅ,,株式会社,石川県,金沢市,三馬３丁目１５１番地,,17,201,9218162,,,,,,,2025-12-15,1,,,,,ハートフルテラス,0
1000,4250003003863,新規,0,2025-12-15,2025-12-15,合同会社楽や,,合同会社,山口県,山陽小野田市,大字厚狭４７８番地１,,35,216,7570001,,,,,,,2025-12-15,1,,,,,ラクヤ,0
1011,4290001112497,新規,0,2025-12-15,2025-12-15,株式会社ＥＹＬ,,株式会社,福岡県,久留米市,津福本町２１９５番地１０,,40,203,8300047,,,,,,,2025-12-15,1,,,,,イール,0
1012,4290001112522,新規,0,2025-12-15,2025-12-15,株式会社よりそい,,株式会社,福岡県,糟屋郡志免町,南里６丁目２０番１０号,,40,343,8112207,,,,,,,2025-12-15,1,,,,,ヨリソイ,0
1013,4290001112539,新規,0,2025-12-15,2025-12-15,こどもの安心研究所もーもー株式会社,,株式会社,福岡県,みやま市,瀬高町太神１１５１番地,,40,229,8350013,,,,,,,2025-12-15,1,,,,,コドモノアンシンケンキュウジョモーモー,0
1016,4290801032102,新規,0,2025-12-15,2025-12-15,株式会社Ｔ＆Ｃ　ｓａｎｃｔｕａｒｙ,,株式会社,福岡県,北九州市八幡西区,鷹見台１丁目８番５号,,40,109,8070853,,,,,,,2025-12-15,1,,,,,ティーアンドシーサンクチュアリ,0
1019,4330001033838,新規,0,2025-12-15,2025-12-15,エイトバリュー株式会社,,株式会社,熊本県,八代市,南平和町２７番地２,,43,202,8695165,,,,,,,2025-12-15,1,,,,,エイトバリュー,0
1023,4360001036136,新規,0,2025-12-15,2025-12-15,Ａｌｕｋ株式会社,,株式会社,沖縄県,島尻郡八重瀬町,字伊覇１４６番地１ベアーズコート八重瀬パークヒルズ４０５号室,,47,362,9010405,,,,,,,2025-12-15,1,,,,,アルク,0
1024,4360001036144,新規,0,2025-12-15,2025-12-15,花城工業株式会社,,株式会社,沖縄県,うるま市,石川白浜１丁目１２－１白浜店舗２Ｆ右,,47,213,9041105,,,,,,,2025-12-15,1,,,,,ハナシロコウギョウ,0
1025,4360003015476,新規,0,2025-12-15,2025-12-15,ＧＯＬＶＥＳＴＡ合同会社,,合同会社,沖縄県,那覇市,具志３丁目４番２０号２Ｆ,,47,201,9010146,,,,,,,2025-12-15,1,,,,,ゴルヴェスタ,0
1028,4370005011043,新規,0,2025-12-15,2025-12-15,蔵王福祉の森事業協同組合,,その他の設立登記法人,宮城県,刈田郡蔵王町,遠刈田温泉寿町３１番地,,04,301,9890915,,,,,,,2025-12-15,1,,,,,ザオウフクシノモリ,0
1030,4380001035747,新規,0,2025-12-15,2025-12-15,Ａｓａｈｉ　Ｈｏｒｉｚｏｎ　Ｈｏｌｄｉｎｇｓ株式会社,,株式会社,福島県,郡山市,安積３丁目２３１番地,,07,203,9630107,,,,,,,2025-12-15,1,,,,,アサヒホライゾンホールディングス,0
1042,4470003003032,新規,0,2025-12-15,2025-12-15,合同会社スクリレックス,,合同会社,香川県,さぬき市,津田町鶴羽４０番地４,,37,206,7692402,,,,,,,2025-12-15,1,,,,,スクリレックス,0
1044,4490001011233,新規,0,2025-12-15,2025-12-15,株式会社ドラゴンホース,,株式会社,高知県,土佐市,高岡町甲４３３－１,,39,205,7811101,,,,,,,2025-12-15,1,,,,,ドラゴンホース,0
1046,4700150133434,新規,0,2025-12-15,2025-12-15,阪神内燃機工業健康保険組合,,その他,兵庫県,明石市,貴崎５丁目８番７０号,,28,203,6730037,,,,,,,2025-12-15,1,,,,,ハンシンナイネンキコウギョウケンコウホケンクミアイ,0
1047,4700150133442,新規,0,2025-12-15,2025-12-15,日清紡健康保険組合,,その他,東京都,中央区,日本橋人形町２丁目３１－１１,,13,102,1030013,,,,,,,2025-12-15,1,,,,,ニッシンボウケンコウホケンクミアイ,0
1048,4700150133450,新規,0,2025-12-15,2025-12-15,タチエス健康保険組合,,その他,東京都,青梅市,末広町１丁目３番１号,,13,205,1980025,,,,,,,2025-12-15,1,,,,,タチエスケンコウホケンクミアイ,0
1049,4700150133459,新規,0,2025-12-15,2025-12-15,ＡＮＡグループ健康保険組合,,その他,東京都,大田区,羽田空港３丁目３番２号　第１旅客ターミナルビル,,13,111,1440041,,,,,,,2025-12-15,1,,,,,エーエヌエーグループケンコウホケンクミアイ,0
1056,5010001261065,新規,0,2025-12-15,2025-12-15,株式会社エフウィッツ,,株式会社,東京都,千代田区,神田須田町１丁目７番８号ＶＯＲＴ秋葉原ＩＶ２Ｆ,00141872,13,101,1010041,,,,,,,2025-12-15,1,,,,,エフウィッツ,0
1057,5010001261164,新規,0,2025-12-15,2025-12-15,株式会社ラビ,,株式会社,東京都,千代田区,神田須田町１丁目７番地８ＶＯＲＴ秋葉原ＩＶ２Ｆ,00141873,13,101,1010041,,,,,,,2025-12-15,1,,,,,ラビ,0
1058,5010001261172,新規,0,2025-12-15,2025-12-15,エンデバー・ユナイテッド・パートナーズ・４３株式会社,,株式会社,東京都,千代田区,丸の内２丁目５番１号丸の内二丁目ビル６階,,13,101,1000005,,,,,,,2025-12-15,1,,,,,エンデバーユナイテッドパートナーズフォーティースリー,0
1064,5010005041075,新規,0,2025-12-15,2025-12-15,一般社団法人浪江ソーラーファンド,,その他の設立登記法人,東京都,千代田区,丸の内１丁目４番１号東京共同会計事務所内,,13,101,1000005,,,,,,,2025-12-15,1,,,,,ナミエソーラーファンド,0
1073,5010401195160,新規,0,2025-12-15,2025-12-15,株式会社Ｌｉｂｅｒｏ,,株式会社,東京都,港区,白金１丁目２番１－Ｅ５３０号,,13,103,1080072,,,,,,,2025-12-15,1,,,,,リベロ,0
1074,5010401195185,新規,0,2025-12-15,2025-12-15,株式会社ＢＩＪＵＢＩＪＵ,,株式会社,東京都,港区,南青山２丁目２９番８号フロンティアビルディング７０１,,13,103,1070062,,,,,,,2025-12-15,1,,,,,ビジュビジュ,0
1077,5010403036800,新規,0,2025-12-15,2025-12-15,合同会社星光,,合同会社,東京都,港区,芝４丁目１６番１号カテリーナ三田,,13,103,1080014,,,,,,,2025-12-15,1,,,,,セイコウ,0
1086,5010603011958,新規,0,2025-12-15,2025-12-15,合同会社ホワイト,,合同会社,東京都,江東区,豊洲６丁目２－３１スカイズタワー＆ガーデン３２１０号室,,13,108,1350061,,,,,,,2025-12-15,1,,,,,ホワイト,0
1089,5010701048729,新規,0,2025-12-15,2025-12-15,ＹｕｉＣｏｎｎｅｃｔ株式会社,,株式会社,東京都,品川区,西五反田４丁目３０番７号,,13,109,1410031,,,,,,,2025-12-15,1,,,,,ユイコネクト,0
1090,5010701048778,新規,0,2025-12-15,2025-12-15,株式会社ＹＭ,,株式会社,東京都,品川区,大崎１丁目１１番２号,,13,109,1410032,,,,,,,2025-12-15,1,,,,,ワイエム,0
1094,5010801036872,新規,0,2025-12-15,2025-12-15,ＦＭＬＡＢＯ株式会社,,株式会社,東京都,大田区,池上４丁目３１―１７福田ビル４０１,,13,111,1460082,,,,,,,2025-12-15,1,,,,,エフエムラボ,0
1107,5011001174182,新規,0,2025-12-15,2025-12-15,株式会社ＶＥＲＳＥ,,株式会社,東京都,目黒区,下目黒１丁目１番１４号コノトラビル７Ｆ,,13,110,1530064,,,,,,,2025-12-15,1,,,,,ヴァース,0
1108,5011001174216,新規,0,2025-12-15,2025-12-15,株式会社インテリックスホールディングス,,株式会社,東京都,渋谷区,桜丘町３番２号,,13,113,1500031,,,,,,,2025-12-15,1,,,,,インテリックスホールディングス,0
1116,5011103016729,新規,0,2025-12-15,2025-12-15,ＳＲＩＹＡＭ商事合同会社,,合同会社,東京都,新宿区,西新宿４丁目１０－１９－１０２室,,13,104,1600023,,,,,,,2025-12-15,1,,,,,シュリヤムショウジ,0
1118,5011201026852,新規,0,2025-12-15,2025-12-15,和弥Ｗｅｌｌｎｅｓｓ株式会社,,株式会社,東京都,中野区,沼袋４丁目２９番１７号テイク・ファイヴビル１階,,13,114,1650025,,,,,,,2025-12-15,1,,,,,ナゴミヤウェルネス,0
1122,5011401027659,新規,0,2025-12-15,2025-12-15,信豪株式会社,,株式会社,東京都,板橋区,仲宿５６番７－１００７号,,13,119,1730005,,,,,,,2025-12-15,1,,,,,シンゴウ,0
1127,5011701029033,新規,0,2025-12-15,2025-12-15,株式会社ナカネ,,株式会社,東京都,江戸川区,東葛西９丁目９番８－６０１号,,13,123,1340084,,,,,,,2025-12-15,1,,,,,ナカネ,0
1136,5012403007475,新規,0,2025-12-15,2025-12-15,関口製紋所合同会社,,合同会社,東京都,府中市,四谷５丁目８番地の４５,,13,206,1830035,,,,,,,2025-12-15,1,,,,,セキグチセイモンショ,0
1139,5013301055426,新規,0,2025-12-15,2025-12-15,株式会社ＫＡＲＩＮ,,株式会社,東京都,豊島区,東池袋２丁目６２番８号ＢＩＧオフィスプラザ池袋１２０６,,13,116,1700013,,,,,,,2025-12-15,1,,,,,カリン,0
1144,5020001166156,新規,0,2025-12-15,2025-12-15,グローアップワークス株式会社,,株式会社,神奈川県,横浜市金沢区,六浦１丁目９番３６号,,14,108,2360031,,,,,,,2025-12-15,1,,,,,グローアップワークス,0
1150,5020003029988,新規,0,2025-12-15,2025-12-15,Ｃａｓａ　Ｓｕｍｉ合同会社,,合同会社,神奈川県,横浜市西区,浅間町１丁目４番３号ウィザードビル４０２,,14,103,2200072,,,,,,,2025-12-15,1,,,,,カーサスミ,0
1162,5030001170090,新規,0,2025-12-15,2025-12-15,株式会社Ｓｅｉｃａ,,株式会社,埼玉県,熊谷市,筑波１丁目５１番地２,,11,202,3600037,,,,,,,2025-12-15,1,,,,,セイカ,0
1171,5040001141719,新規,0,2025-12-15,2025-12-15,ＴＡＮＧ＆Ｃｏ．株式会社,,株式会社,千葉県,いすみ市,岬町嘉谷１２９７番地１,,12,238,2994625,,,,,,,2025-12-15,1,,,,,タンアンドコウ,0
1179,5050001057708,新規,0,2025-12-15,2025-12-15,株式会社マウントハウジング,,株式会社,茨城県,牛久市,南４丁目３８番地４,,08,219,3001222,,,,,,,2025-12-15,1,,,,,マウントハウジング,0
1180,5050001057724,新規,0,2025-12-15,2025-12-15,株式会社ビジョンパートナー水戸,,株式会社,茨城県,水戸市,宮町２丁目１番８号,,08,201,3100015,,,,,,,2025-12-15,1,,,,,ビジョンパートナーミト,0
1181,5050001057732,新規,0,2025-12-15,2025-12-15,株式会社ヨコスカ,,株式会社,茨城県,ひたちなか市,新光町３８番地ひたちなかテクノセンターＡ１０４,,08,221,3120005,,,,,,,2025-12-15,1,,,,,ヨコスカ,0
1182,5050003009797,新規,0,2025-12-15,2025-12-15,合同会社ほっとＱ,,合同会社,茨城県,土浦市,生田町７－１８,,08,203,3000047,,,,,,,2025-12-15,1,,,,,ホットキュウ,0
1188,5080401028322,新規,0,2025-12-15,2025-12-15,株式会社アンドセルズ,,株式会社,静岡県,浜松市中央区,三方原町２９３番地の２,,22,138,4338105,,,,,,,2025-12-15,1,,,,,アンドセルズ,0
1217,5120001282678,新規,0,2025-12-15,2025-12-15,株式会社ｓｉｓｍｏｏｎ,,株式会社,大阪府,大阪市中央区,平野町３丁目３番１１－１５０１号,,27,128,5410046,,,,,,,2025-12-15,1,,,,,シスムーン,0
1218,5120001282777,新規,0,2025-12-15,2025-12-15,株式会社ＭＴＴ,,株式会社,大阪府,大阪市淀川区,加島４丁目１９番３３号,,27,123,5320031,,,,,,,2025-12-15,1,,,,,エムティーティー,0
1222,5120005025298,新規,0,2025-12-15,2025-12-15,一般社団法人Ｒ・ＡＳＫ１５,,その他の設立登記法人,大阪府,大阪市北区,梅田３丁目２番２号,,27,127,5300001,,,,,,,2025-12-15,1,,,,,アールエーエスケーフィフティーン,0
1224,5120101072938,新規,0,2025-12-15,2025-12-15,株式会社林建設,,株式会社,大阪府,松原市,天美我堂４丁目３番２１号,,27,217,5800026,,,,,,,2025-12-15,1,,,,,ハヤシケンセツ,0
1235,5130001081204,新規,0,2025-12-15,2025-12-15,株式会社洛電創,,株式会社,京都府,京都市中京区,金屋町７７３番地４,,26,104,6048352,,,,,,,2025-12-15,1,,,,,ラクデンソウ,0
1238,5130003011010,新規,0,2025-12-15,2025-12-15,合同会社Ｐｉｖｏｔ　ＡＩ,,合同会社,京都府,亀岡市,亀岡駅北２丁目６－１９,,26,206,6210807,,,,,,,2025-12-15,1,,,,,ピボットエーアイ,0
1245,5140001141080,新規,0,2025-12-15,2025-12-15,株式会社カワバタ,,株式会社,兵庫県,尼崎市,塚口町３丁目１６番地の１３,,28,202,6610002,,,,,,,2025-12-15,1,,,,,カワバタ,0
1247,5140005027714,新規,0,2025-12-15,2025-12-15,一般社団法人明石市体操協会,,その他の設立登記法人,兵庫県,明石市,小久保２丁目１０番地の３アルファステイツ西明石駅前９０１号,,28,203,6730005,,,,,,,2025-12-15,1,,,,,アカシシタイソウキョウカイ,0
1255,5170001018912,新規,0,2025-12-15,2025-12-15,株式会社濱田ホールディングス,,株式会社,和歌山県,紀の川市,中井阪１９３番地,,30,208,6496425,,,,,,,2025-12-15,1,,,,,ハマダホールディングス,0
1257,5170003002352,新規,0,2025-12-15,2025-12-15,合同会社ＨＩＤＥ　ＬＩＮＫＳ,,合同会社,和歌山県,田辺市,上秋津１６１６番地の５,,30,206,6460001,,,,,,,2025-12-15,1,,,,,ヒデリンクス,0
1259,5180001169861,新規,0,2025-12-15,2025-12-15,森輝株式会社,,株式会社,愛知県,名古屋市昭和区,川名町４丁目２４中商ビル,,23,107,4660856,,,,,,,2025-12-15,1,,,,,シンキ,0
1260,5180001169911,新規,0,2025-12-15,2025-12-15,株式会社Ｍｅｌｏ．ｍｙ,,株式会社,愛知県,名古屋市中区,栄３丁目２番３号名古屋日興證券ビル４階,,23,106,4600008,,,,,,,2025-12-15,1,,,,,メロマイ,0
1272,5210001020418,新規,0,2025-12-15,2025-12-15,株式会社ＮＧｒａｐｈ,,株式会社,福井県,福井市,問屋町１丁目１２４ラフォーレ北野２０１,,18,201,9188231,,,,,,,2025-12-15,1,,,,,エヌグラフ,0
1273,5220001027073,新規,0,2025-12-15,2025-12-15,株式会社心感,,株式会社,石川県,小松市,菩提町リ１４８番地,,17,203,9230334,,,,,,,2025-12-15,1,,,,,シンカン,0
1281,5240001065922,新規,0,2025-12-15,2025-12-15,株式会社ＲｉｖｅｒＬａｂ．,,株式会社,広島県,呉市,広本町１丁目１２－１９－２Ｆ,,34,202,7370125,,,,,,,2025-12-15,1,,,,,リバーラボ,0
1285,5260001040816,新規,0,2025-12-15,2025-12-15,株式会社きざし工舎,,株式会社,岡山県,岡山市東区,目黒町６８番地１,,33,103,7048171,,,,,,,2025-12-15,1,,,,,キザシコウシャ,0
1288,5270003001823,新規,0,2025-12-15,2025-12-15,合同会社ＭＣ２Ｕ,,合同会社,鳥取県,鳥取市,気高町下光元字山崎１７１番地,,31,201,6890213,,,,,,,2025-12-15,1,,,,,エムシートゥーユー,0
1294,5290001112307,新規,0,2025-12-15,2025-12-15,株式会社ＶＥＳＳＩＥ,,株式会社,福岡県,福岡市博多区,板付２丁目１２番２７－１号板付グリーン事務所,,40,132,8120888,,,,,,,2025-12-15,1,,,,,ベッシエ,0
1295,5290001112439,新規,0,2025-12-15,2025-12-15,株式会社イマジュー,,株式会社,福岡県,福岡市博多区,博多駅南６丁目９番２８－５０５号,,40,132,8120016,,,,,,,2025-12-15,1,,,,,イマジュー,0
1296,5290001112463,新規,0,2025-12-15,2025-12-15,ＬＣ株式会社,,株式会社,福岡県,福岡市博多区,博多駅前１丁目２３番２号ＰａｒｋＦｒｏｎｔ博多駅前一丁目５Ｆ－Ｂ,,40,132,8120011,,,,,,,2025-12-15,1,,,,,エルシー,0
1297,5290001112538,新規,0,2025-12-15,2025-12-15,株式会社ＭＯＦＭＯＦ,,株式会社,福岡県,福岡市中央区,大名１丁目３番３２号ラ・コルテ大名２０３,,40,133,8100041,,,,,,,2025-12-15,1,,,,,モフモフ,0
1299,5290003017792,新規,0,2025-12-15,2025-12-15,合同会社ＮＮＷ,,合同会社,福岡県,福岡市中央区,平和５丁目９番４－６０２エクセルシオ平和,,40,133,8100016,,,,,,,2025-12-15,1,,,,,ニコニコワーカー,0
1300,5290003017834,新規,0,2025-12-15,2025-12-15,合同会社２ｎｄＹｏｕｔｈ,,合同会社,福岡県,福岡市東区,原田１丁目９番１５－２０３号,,40,131,8120063,,,,,,,2025-12-15,1,,,,,セカンドユース,0
1303,5290005019903,新規,0,2025-12-15,2025-12-15,一般社団法人Ｏｎ,,その他の設立登記法人,福岡県,福津市,勝浦４８３４番地の３,,40,224,8113521,,,,,,,2025-12-15,1,,,,,オン,0
1309,5360001036143,新規,0,2025-12-15,2025-12-15,ＴＥＮＹＩ株式会社,,株式会社,沖縄県,浦添市,仲西１丁目３番地２５・５階５０２の６,,47,208,9012125,,,,,,,2025-12-15,1,,,,,テンイ,0
1310,5360003015467,新規,0,2025-12-15,2025-12-15,Ｐｏｎｏ　Ｈｏｕｓｅ合同会社,,合同会社,沖縄県,那覇市,泊２丁目１番地１８Ｔ＆Ｃ泊ビル５Ｆ,,47,201,9000012,,,,,,,2025-12-15,1,,,,,ポノハウス,0
1311,5360003015475,新規,0,2025-12-15,2025-12-15,合同会社ＨＡＮＡ,,合同会社,沖縄県,那覇市,泉崎１丁目１６番１７号コーポアルファ３０１,,47,201,9000021,,,,,,,2025-12-15,1,,,,,ハナ,0
1319,5390001018188,新規,0,2025-12-15,2025-12-15,株式会社Ｋｏｋｕｅｉ,,株式会社,山形県,東田川郡庄内町,福島字西大坪４番地の１,,06,428,9997736,,,,,,,2025-12-15,1,,,,,コクエー,0
1324,5460003001085,新規,0,2025-12-15,2025-12-15,合同会社Ｋワークス,,合同会社,北海道,釧路市,住吉１丁目６番１６号,,01,206,0850831,,,,,,,2025-12-15,1,,,,,ケーワークス,0
1327,5700150133433,新規,0,2025-12-15,2025-12-15,森下仁丹健康保険組合,,その他,大阪府,大阪市中央区,玉造１丁目２番４０号,,27,128,5400004,,,,,,,2025-12-15,1,,,,,モリシタジンタンケンコウホケンクミアイ,0
1328,5700150133441,新規,0,2025-12-15,2025-12-15,ＰａｙＰａｙカード健康保険組合,,その他,福岡県,福岡市博多区,博多駅前４丁目２１番２６号,,40,132,8120011,,,,,,,2025-12-15,1,,,,,ペイペイカードケンコウホケンクミアイ,0
1329,5700150133458,新規,0,2025-12-15,2025-12-15,トマト銀行健康保険組合,,その他,岡山県,岡山市北区,番町２丁目２番１５号,,33,101,7000811,,,,,,,2025-12-15,1,,,,,トマトギンコウケンコウホケンクミアイ,0
1335,6010001260974,新規,0,2025-12-15,2025-12-15,株式会社日本皇寿,,株式会社,東京都,千代田区,神田猿楽町２丁目８番１１号ＶＯＲＴ水道橋ＩＩＩ－２階,00141889,13,101,1010064,,,,,,,2025-12-15,1,,,,,,0
1336,6010001261080,新規,0,2025-12-15,2025-12-15,株式会社長瀞ＩＳＡ,,株式会社,東京都,中央区,銀座１丁目１２－４Ｎ＆ＥＢＬＤ．７階,,13,102,1040061,,,,,,,2025-12-15,1,,,,,ナガトロアイエスエー,0
1337,6010001261106,新規,0,2025-12-15,2025-12-15,心響株式会社,,株式会社,東京都,千代田区,神田多町２丁目９－１２,,13,101,1010046,,,,,,,2025-12-15,1,,,,,シンキョウ,0
1338,6010003049706,新規,0,2025-12-15,2025-12-15,ＳｏｒａＴｏ合同会社,,合同会社,東京都,千代田区,東神田２丁目８番地９リバーレ秋葉原７０２,,13,101,1010031,,,,,,,2025-12-15,1,,,,,ソラト,0
1339,6010003049714,新規,0,2025-12-15,2025-12-15,合同会社Ｃｈｒｏｎｏ　Ｗａｌｋｅｒ,,合同会社,東京都,中央区,銀座１丁目１２－４　Ｎ＆Ｅ　ＢＬＤ．７階,,13,102,1040061,,,,,,,2025-12-15,1,,,,,クロノウォーカー,0
1353,6010401195143,新規,0,2025-12-15,2025-12-15,株式会社ＵＮＩ,,株式会社,東京都,港区,赤坂１丁目４－４－５０３,,13,103,1070052,,,,,,,2025-12-15,1,,,,,ウニ,0
1354,6010403036799,新規,0,2025-12-15,2025-12-15,合同会社ＰＹＧＭＡ,,合同会社,東京都,港区,南青山３丁目１番３６号青山丸竹ビル６Ｆ,,13,103,1070062,,,,,,,2025-12-15,1,,,,,ピグマ,0
1356,6010405025065,新規,0,2025-12-15,2025-12-15,一般社団法人コネクトエールポート,,その他の設立登記法人,東京都,港区,南青山３丁目１番３６号青山丸竹ビル６Ｆ,,13,103,1070062,,,,,,,2025-12-15,1,,,,,コネクトエールポート,0
1363,6010701048760,新規,0,2025-12-15,2025-12-15,株式会社スタジオギフト,,株式会社,東京都,品川区,西五反田１丁目２６番２号五反田サンハイツ９１１,,13,109,1410031,,,,,,,2025-12-15,1,,,,,スタジオギフト,0
1384,6011101114203,新規,0,2025-12-15,2025-12-15,株式会社すみれ,,株式会社,東京都,新宿区,新宿４丁目２－２５三ツ星不動産ビル１Ｆ,,13,104,1600022,,,,,,,2025-12-15,1,,,,,スミレ,0
1385,6011101114293,新規,0,2025-12-15,2025-12-15,Ｍａｇｎａ　ＡＩ株式会社,,株式会社,東京都,新宿区,新宿４丁目１番６号,,13,104,1600022,,,,,,,2025-12-15,1,,,,,マグナエーアイ,0
1386,6011101114327,新規,0,2025-12-15,2025-12-15,株式会社ＳＯＬＡ,,株式会社,東京都,新宿区,西新宿３丁目３番１３号西新宿水間ビル２Ｆ,,13,104,1600023,,,,,,,2025-12-15,1,,,,,ソラ,0
1387,6011101114343,新規,0,2025-12-15,2025-12-15,株式会社トライスターズ,,株式会社,東京都,新宿区,大久保３丁目１番３－１１０５号,,13,104,1690072,,,,,,,2025-12-15,1,,,,,トライスターズ,0
1389,6011201026851,新規,0,2025-12-15,2025-12-15,株式会社フジヤホールディングス,,株式会社,東京都,中野区,中野５丁目６１番１号,,13,114,1640001,,,,,,,2025-12-15,1,,,,,フジヤホールディングス,0
1404,6011701029024,新規,0,2025-12-15,2025-12-15,株式会社ボヌール,,株式会社,東京都,江戸川区,西葛西６丁目１３番１号西葛西たかみビル５Ｆ,,13,123,1340088,,,,,,,2025-12-15,1,,,,,ボヌール,0
1405,6011701029032,新規,0,2025-12-15,2025-12-15,株式会社ＰＤＤＳｌａｂ,,株式会社,東京都,江戸川区,一之江８丁目１８番１１号,,13,123,1320024,,,,,,,2025-12-15,1,,,,,ピーディーディーエスラボ,0
1407,6012403007508,新規,0,2025-12-15,2025-12-15,合同会社Ｍｉ　Ｂａｒｒｉｏ,,合同会社,東京都,狛江市,東和泉３丁目１２‐１０,,13,219,2010014,,,,,,,2025-12-15,1,,,,,ミバリオ,0
1408,6012801024419,新規,0,2025-12-15,2025-12-15,エイチ・キューブ・プラス株式会社,,株式会社,東京都,立川市,羽衣町３丁目１０番２７号,,13,202,1900021,,,,,,,2025-12-15,1,,,,,エイチキューブプラス,0
1420,6020001166279,新規,0,2025-12-15,2025-12-15,株式会社シャリテ,,株式会社,神奈川県,横浜市金沢区,能見台１丁目１０番地６,,14,108,2360057,,,,,,,2025-12-15,1,,,,,シャリテ,0
1422,6020003029979,新規,0,2025-12-15,2025-12-15,合同会社Ｂｅｇｉｎ　Ｇｌｏｂａｌ　Ｃｏｎｓｕｌｔｉｎｇ,,合同会社,神奈川県,横浜市中区,扇町１丁目２番地３フェリズ横浜公園９０４,,14,104,2310027,,,,,,,2025-12-15,1,,,,,ビギングローバルコンサルティング,0
1427,6021003016901,新規,0,2025-12-15,2025-12-15,合同会社Ｂｅ　ＡＬＬＹ,,合同会社,神奈川県,厚木市,旭町１丁目１０番５号,,14,212,2430014,,,,,,,2025-12-15,1,,,,,ビーアライ,0
1429,6030001170107,新規,0,2025-12-15,2025-12-15,株式会社ミオサポ,,株式会社,埼玉県,熊谷市,原島３５１番地１,,11,202,3600811,,,,,,,2025-12-15,1,,,,,ミオサポ,0
1434,6040001141610,新規,0,2025-12-15,2025-12-15,株式会社ヤマキｎｅｘｔ,,株式会社,千葉県,千葉市若葉区,都賀３丁目６番１号,,12,104,2640025,,,,,,,2025-12-15,1,,,,,ヤマキネクスト,0
1435,6040001141750,新規,0,2025-12-15,2025-12-15,ＷＡＳＥＩ　Ｐａｒｔｎｅｒｓ株式会社,,株式会社,千葉県,市川市,田尻３丁目６－５－１０１,,12,203,2720014,,,,,,,2025-12-15,1,,,,,ワセイパートナーズ,0
1436,6040001141791,新規,0,2025-12-15,2025-12-15,リプロマンスリーサービス株式会社,,株式会社,千葉県,柏市,柏２丁目４－１冨士屋ビルＡ棟２階,,12,217,2770005,,,,,,,2025-12-15,1,,,,,リプロマンスリーサービス,0
1447,6080101025957,新規,0,2025-12-15,2025-12-15,オレンヂコンサーブス株式会社,,株式会社,静岡県,田方郡函南町,塚本１８５番地の１,,22,325,4190124,,,,,,,2025-12-15,1,,,,,オレンヂコンサーブス,0
1462,6120001282776,新規,0,2025-12-15,2025-12-15,株式会社ＥＩＳＨＩＮ,,株式会社,大阪府,枚方市,中宮本町３－５０,,27,210,5731196,,,,,,,2025-12-15,1,,,,,エイシン,0
1463,6120003031421,新規,0,2025-12-15,2025-12-15,合同会社インフィニア,,合同会社,大阪府,大阪市北区,野崎町７－８梅田パークビル３０５,,27,127,5300055,,,,,,,2025-12-15,1,,,,,インフィニア,0
1465,6120101072953,新規,0,2025-12-15,2025-12-15,株式会社双星,,株式会社,大阪府,貝塚市,麻生中１０２２番地１,,27,208,5970081,,,,,,,2025-12-15,1,,,,,ソウセイ,0
1481,6140001141121,新規,0,2025-12-15,2025-12-15,むすびアドバイザリー株式会社,,株式会社,兵庫県,神戸市東灘区,本山南町３丁目５番１０－７０８号,,28,101,6580015,,,,,,,2025-12-15,1,,,,,ムスビアドバイザリー,0
1484,6150003003780,新規,0,2025-12-15,2025-12-15,ＭＤＳ合同会社,,合同会社,奈良県,奈良市,五条西２丁目１３番１号,,29,201,6308034,,,,,,,2025-12-15,1,,,,,エムディーエス,0
1487,6170003002351,新規,0,2025-12-15,2025-12-15,合同会社ｃｏｃｏ,,合同会社,和歌山県,岩出市,森２４番地の５,,30,209,6496205,,,,,,,2025-12-15,1,,,,,ココ,0
1494,6180001169869,新規,0,2025-12-15,2025-12-15,エコミライ株式会社,,株式会社,愛知県,あま市,本郷郷中９６番地７,,23,237,4901116,,,,,,,2025-12-15,1,,,,,エコミライ,0
1495,6180001169877,新規,0,2025-12-15,2025-12-15,株式会社ＲＥＶＡＲＥ,,株式会社,愛知県,名古屋市中区,栄３丁目２０番５号,,23,106,4600008,,,,,,,2025-12-15,1,,,,,レヴァーレ,0
1496,6180001169885,新規,0,2025-12-15,2025-12-15,スペースアルファ株式会社,,株式会社,愛知県,知多郡武豊町,字長尾山４５番地ＪＵＮＨＯＵＳＥ１０１号,,23,447,4702346,,,,,,,2025-12-15,1,,,,,スペースアルファ,0
1497,6180001169902,新規,0,2025-12-15,2025-12-15,株式会社すみやクリニックメディカルサービス,,株式会社,愛知県,名古屋市千種区,仲田２丁目１８番１４号,,23,101,4640074,,,,,,,2025-12-15,1,,,,,スミヤクリニックメディカルサービス,0
1500,6180003029492,新規,0,2025-12-15,2025-12-15,合同会社ホールド,,合同会社,愛知県,半田市,宮本町３丁目２１７－２１セントラルビル２０２,,23,205,4750925,,,,,,,2025-12-15,1,,,,,ホールド,0
1505,6200005013830,新規,0,2025-12-15,2025-12-15,特定非営利活動法人美濃和ウインドオーケストラ,,その他の設立登記法人,岐阜県,美濃市,１９３５番地,,21,207,5013701,,,,,,,2025-12-15,1,,,,,ミノワウインドオーケストラ,0
1513,6240001065921,新規,0,2025-12-15,2025-12-15,株式会社Ｒａｉｚ,,株式会社,広島県,広島市中区,舟入本町１２番９－９０３号,,34,101,7300843,,,,,,,2025-12-15,1,,,,,レイズ,0
1516,6260001040815,新規,0,2025-12-15,2025-12-15,株式会社内田,,株式会社,岡山県,岡山市南区,三浜町２丁目１０番１５号,,33,104,7028036,,,,,,,2025-12-15,1,,,,,ウチダ,0
1519,6290001112495,新規,0,2025-12-15,2025-12-15,ＬＯＯＰ株式会社,,株式会社,福岡県,福岡市南区,若久５丁目２４－２５ニュークリエイト若久３０１号室,,40,134,8150042,,,,,,,2025-12-15,1,,,,,ループ,0
1520,6290001112504,新規,0,2025-12-15,2025-12-15,株式会社伊予鑑定,,株式会社,福岡県,福岡市中央区,渡辺通５丁目８－１８ロマネスク天神アネックス５０５,,40,133,8100004,,,,,,,2025-12-15,1,,,,,イヨカンテイ,0
1521,6290001112512,新規,0,2025-12-15,2025-12-15,株式会社クマールコーポレーション,,株式会社,福岡県,筑紫野市,武蔵５丁目７番１号,,40,217,8180052,,,,,,,2025-12-15,1,,,,,クマールコーポレーション,0
1522,6290001112520,新規,0,2025-12-15,2025-12-15,株式会社ＳＡＫＥＢＩ,,株式会社,福岡県,福岡市中央区,天神２丁目２番１２号Ｔ＆Ｊビルディング７Ｆ,,40,133,8100001,,,,,,,2025-12-15,1,,,,,サケビ,0
1523,6290001112537,新規,0,2025-12-15,2025-12-15,株式会社ｒｉｎｎｅ,,株式会社,福岡県,筑紫野市,二日市北３丁目３―１２,,40,217,8180056,,,,,,,2025-12-15,1,,,,,リンネ,0
1524,6290001112545,新規,0,2025-12-15,2025-12-15,株式会社ＳＩＢＩＲＥＬＯ,,株式会社,福岡県,福岡市早良区,西新５丁目１５番２８－１３０１号Ｎｅｗ８西新,,40,137,8140002,,,,,,,2025-12-15,1,,,,,シビレロ,0
1526,6290003017817,新規,0,2025-12-15,2025-12-15,合同会社ＴＡＴＳＵＡＫＩ,,合同会社,福岡県,福岡市東区,和白東３丁目３－１２,,40,131,8110214,,,,,,,2025-12-15,1,,,,,タツアキ,0
1527,6290801032091,新規,0,2025-12-15,2025-12-15,ｅｎｅｆｉｔ株式会社,,株式会社,福岡県,北九州市小倉北区,白銀２丁目３番１２号,,40,106,8020074,,,,,,,2025-12-15,1,,,,,エネフィット,0
1528,6310001019886,新規,0,2025-12-15,2025-12-15,株式会社ＣＲＥＡｉＴ　ＡＣＴＩＶＥ,,株式会社,長崎県,佐世保市,島地町１番１７号太陽第一ビル２０２号室,,42,202,8570879,,,,,,,2025-12-15,1,,,,,クリエイトアクティブ,0
1531,6320003004852,新規,0,2025-12-15,2025-12-15,合同会社ＥＷＲＣ,,合同会社,大分県,別府市,楠町１４番２４号,,44,202,8740943,,,,,,,2025-12-15,1,,,,,イーダブリュアールシー,0
1536,6330001033828,新規,0,2025-12-15,2025-12-15,株式会社Ｆｏｒ　Ｙｏｕ,,株式会社,熊本県,熊本市中央区,新町２丁目１１－３３アンピール新町９０５,,43,101,8600004,,,,,,,2025-12-15,1,,,,,フォーユー,0
1547,6360001036134,新規,0,2025-12-15,2025-12-15,株式会社ＫＩＮＤ,,株式会社,沖縄県,沖縄市,池原１丁目７番３２号,,47,211,9042141,,,,,,,2025-12-15,1,,,,,カインド,0
1556,6370001053310,新規,0,2025-12-15,2025-12-15,株式会社Ｒｅｊｏｉｃｅ　Ａｕｔｏ　Ｃｏｍｐａｎｙ,,株式会社,宮城県,多賀城市,市川字伏石２５番地の４,,04,209,9850864,,,,,,,2025-12-15,1,,,,,リジョイスオートカンパニー,0
1577,6460003001084,新規,0,2025-12-15,2025-12-15,合同会社みんなのおうち,,合同会社,北海道,釧路市,東川町１２番３号,,01,206,0850056,,,,,,,2025-12-15,1,,,,,ミンナノオウチ,0
1583,6700150133432,新規,0,2025-12-15,2025-12-15,巨樹の会健康保険組合,,その他,佐賀県,武雄市,武雄町大字富岡１２６２８番地,,41,206,8430024,,,,,,,2025-12-15,1,,,,,キョジュノカイケンコウホケンクミアイ,0
1584,6700150133440,新規,0,2025-12-15,2025-12-15,ノバルティス健康保険組合,,その他,東京都,港区,虎ノ門１丁目２３番１号,,13,103,1050001,,,,,,,2025-12-15,1,,,,,ノバルティスケンコウホケンクミアイ,0
1585,6700150133449,新規,0,2025-12-15,2025-12-15,塩野義健康保険組合,,その他,大阪府,大阪市中央区,道修町４丁目７番６号,,27,128,5410045,,,,,,,2025-12-15,1,,,,,シオノギケンコウホケンクミアイ,0
1591,7010001261138,新規,0,2025-12-15,2025-12-15,株式会社Ｔｏｕｃｈ＆Ｒｉｓｅ,,株式会社,東京都,中央区,日本橋３丁目２番１４号新槇町ビル別館第一１階,,13,102,1030027,,,,,,,2025-12-15,1,,,,,タッチアンドライズ,0
1592,7010001261154,新規,0,2025-12-15,2025-12-15,Ｓｅｒｅｗｅｌｌ株式会社,,株式会社,東京都,中央区,銀座１丁目２８番１７－８０４号,,13,102,1040061,,,,,,,2025-12-15,1,,,,,セレウェル,0
1593,7010001261170,新規,0,2025-12-15,2025-12-15,ＮＹＣＩ１６株式会社,,株式会社,東京都,中央区,新川１丁目６番１１号,,13,102,1040033,,,,,,,2025-12-15,1,,,,,エヌワイシーアイシックスティーン,0
1594,7010001261195,新規,0,2025-12-15,2025-12-15,青山化学工業株式会社,,株式会社,東京都,千代田区,神田神保町３丁目１１番６号神保町ビル１０階,,13,101,1010051,,,,,,,2025-12-15,1,,,,,アオヤマカガクコウギョウ,0
1596,7010003049705,新規,0,2025-12-15,2025-12-15,Ｓｇｍｔ合同会社,,合同会社,東京都,中央区,晴海５丁目５番３－１２０６号,,13,102,1040053,,,,,,,2025-12-15,1,,,,,エスジーエムティー,0
1597,7010003049713,新規,0,2025-12-15,2025-12-15,ＮＣリトス合同会社,,合同会社,東京都,千代田区,霞が関３丁目２番５号,,13,101,1000013,,,,,,,2025-12-15,1,,,,,エヌシーリトス,0
1598,7010003049721,新規,0,2025-12-15,2025-12-15,合同会社ＵＭＩＳＯＫＯホテルマネジメント,,合同会社,東京都,千代田区,九段南３丁目７番７号成和綜合会計事務所内,,13,101,1020074,,,,,,,2025-12-15,1,,,,,ウミソコホテルマネジメント,0
1604,7010005041065,新規,0,2025-12-15,2025-12-15,一般社団法人国際自然保護連合日本委員会,,その他の設立登記法人,東京都,中央区,新川１丁目１６番１０号ミトヨビル２Ｆ,,13,102,1040033,,,,,,,2025-12-15,1,,,,,コクサイシゼンホゴレンゴウニホンイインカイ,0
1605,7010005041073,新規,0,2025-12-15,2025-12-15,せせらぎ特定目的会社,,その他の設立登記法人,東京都,中央区,日本橋３丁目９番１号日本橋三丁目スクエア１１階,,13,102,1030027,,,,,,,2025-12-15,1,,,,,セセラギ,0
1616,7010401194929,新規,0,2025-12-15,2025-12-15,株式会社オーテックシステムズ,,株式会社,東京都,港区,六本木３丁目１６番１２号六本木ＫＳビル５Ｆ,,13,103,1060032,,,,,,,2025-12-15,1,,,,,オーテックシステムズ,0
1617,7010401195142,新規,0,2025-12-15,2025-12-15,株式会社藁ケ谷,,株式会社,東京都,港区,浜松町２丁目２番１５号浜松町ダイヤビル２階,,13,103,1050013,,,,,,,2025-12-15,1,,,,,ワラガヤ,0
1618,7010401195191,新規,0,2025-12-15,2025-12-15,Ｃａｔａｌｙｓｔ　Ｍａｒｉｎ　Ｃａｐｉｔａｌ株式会社,,株式会社,東京都,港区,赤坂１丁目１４番５号アークヒルズ・エグゼクティブタワーＳ９０１,,13,103,1070052,,,,,,,2025-12-15,1,,,,,カタリストマリンキャピタル,0
1619,7010401195200,新規,0,2025-12-15,2025-12-15,株式会社ＩＮＰＥＸウエストアグン,,株式会社,東京都,港区,赤坂５丁目３番１号,,13,103,1070052,,,,,,,2025-12-15,1,,,,,インペックスウエストアグン,0
1620,7010401195241,新規,0,2025-12-15,2025-12-15,ＧＲＡＣＥ　ＲＥＷＡＲＤ株式会社,,株式会社,東京都,港区,白金台２丁目２３番６号,,13,103,1080071,,,,,,,2025-12-15,1,,,,,グレイスリワード,0
1621,7010403036807,新規,0,2025-12-15,2025-12-15,合同会社アストロメロディ,,合同会社,東京都,港区,芝浦２丁目１５－１９Ｃａｎａｌ芝浦４０３,,13,103,1080023,,,,,,,2025-12-15,1,,,,,アストロメロディ,0
1626,7010701048776,新規,0,2025-12-15,2025-12-15,株式会社真堂,,株式会社,東京都,品川区,上大崎３丁目１３－２１ヴェラハイツ目黒ガーデン４１２,,13,109,1410021,,,,,,,2025-12-15,1,,,,,マコトドウ,0
1629,7010803005642,新規,0,2025-12-15,2025-12-15,Ｕｍａ　Ｕｍａ合同会社,,合同会社,東京都,大田区,中央２丁目２０番１２号,,13,111,1430024,,,,,,,2025-12-15,1,,,,,ウーマウーマ,0
1639,7011001174180,新規,0,2025-12-15,2025-12-15,Ａｉｍｅｒｉｓ株式会社,,株式会社,東京都,目黒区,上目黒１丁目１４－６メゾンベルウッド１階店舗区画,,13,110,1530051,,,,,,,2025-12-15,1,,,,,エメリス,0
1640,7011001174214,新規,0,2025-12-15,2025-12-15,ラム株式会社,,株式会社,東京都,目黒区,下目黒２丁目１６番１２－６０４号ジェイパーク目黒ＩＶ,00141875,13,110,1530064,,,,,,,2025-12-15,1,,,,,ラム,0
1641,7011001174362,新規,0,2025-12-15,2025-12-15,株式会社Ｇｒｏｗ,,株式会社,東京都,渋谷区,道玄坂１丁目１０番８号渋谷道玄坂東急ビル２Ｆ－Ｃ,,13,113,1500043,,,,,,,2025-12-15,1,,,,,グロウ,0
1642,7011001174445,新規,0,2025-12-15,2025-12-15,株式会社ＳＯＵＬ　ＢＥＡＵＴＹ　ＪＡＰＡＮ,,株式会社,東京都,渋谷区,桜丘町４番１４号ＶＯＲＴ渋谷桜丘５Ｆ,,13,113,1500031,,,,,,,2025-12-15,1,,,,,ソウルビューティージャパン,0
1645,7011101114185,新規,0,2025-12-15,2025-12-15,ＥＫ商事株式会社,,株式会社,東京都,新宿区,西新宿７丁目２０番１号プラティーヌ３０４,,13,104,1600023,,,,,,,2025-12-15,1,,,,,イーケーショウジ,0
1649,7011301031123,新規,0,2025-12-15,2025-12-15,株式会社寛拓,,株式会社,東京都,杉並区,下高井戸４丁目２０番９号ハイツ高橋１階,,13,115,1680073,,,,,,,2025-12-15,1,,,,,ヒロタク,0
1656,7011701029031,新規,0,2025-12-15,2025-12-15,株式会社二日酔解消,,株式会社,東京都,江戸川区,一之江８丁目１８番１１号,,13,123,1320024,,,,,,,2025-12-15,1,,,,,フツカヨイカイショウ,0
1659,7012403007515,新規,0,2025-12-15,2025-12-15,ＳＭＡＴＳ合同会社,,合同会社,東京都,三鷹市,新川６丁目３６番３６号,,13,204,1810004,,,,,,,2025-12-15,1,,,,,スマッツ,0
1667,7020001166229,新規,0,2025-12-15,2025-12-15,株式会社ＦＰ‐Ｔａｌｅｎｔｅｃ,,株式会社,神奈川県,横浜市都筑区,東山田２丁目２７番１５号,,14,118,2240023,,,,,,,2025-12-15,1,,,,,エフピータレンテック,0
1673,7021001086986,新規,0,2025-12-15,2025-12-15,株式会社ＡＴＢＷ,,株式会社,神奈川県,藤沢市,辻堂神台２丁目２番１号アイクロス湘南５階Ｅ号室,,14,205,2510041,,,,,,,2025-12-15,1,,,,,アットビーダブリュ,0
1674,7021001087019,新規,0,2025-12-15,2025-12-15,株式会社トライズネクスト,,株式会社,神奈川県,座間市,栗原１８０６－１,,14,216,2520013,,,,,,,2025-12-15,1,,,,,トライズネクスト,0
1675,7021001087043,新規,0,2025-12-15,2025-12-15,株式会社ＡＺｙｎｅ,,株式会社,神奈川県,相模原市南区,相武台１丁目１２番１５,,14,153,2520324,,,,,,,2025-12-15,1,,,,,アザイン,0
1679,7021003016891,新規,0,2025-12-15,2025-12-15,合同会社小方事務,,合同会社,神奈川県,藤沢市,鵠沼石上２丁目５番１号３階Ｃ号室,,14,205,2510025,,,,,,,2025-12-15,1,,,,,オガタジム,0
1684,7030001170106,新規,0,2025-12-15,2025-12-15,株式会社イー・ホームクリエイト,,株式会社,埼玉県,川越市,仲町１番地１４神山ビル２０３,,11,201,3500065,,,,,,,2025-12-15,1,,,,,イーホームクリエイト,0
1685,7030001170114,新規,0,2025-12-15,2025-12-15,株式会社多聞ホールディングス,,株式会社,埼玉県,春日部市,大場６８７番地,,11,214,3440021,,,,,,,2025-12-15,1,,,,,タモンホールディングス,0
1691,7030003028260,新規,0,2025-12-15,2025-12-15,合同会社めいず,,合同会社,埼玉県,越谷市,千間台西５丁目２番地７ジュネス千間台２０４,,11,222,3430041,,,,,,,2025-12-15,1,,,,,メイズ,0
1696,7040001141758,新規,0,2025-12-15,2025-12-15,株式会社芳樺組,,株式会社,千葉県,市川市,柏井町１丁目１６０２番地２６,,12,203,2720802,,,,,,,2025-12-15,1,,,,,ヨシバグミ,0
1703,7050001057656,新規,0,2025-12-15,2025-12-15,株式会社ＲＴ,,株式会社,茨城県,ひたちなか市,大字高野２１２－２２シャンテフルール２０４号,,08,221,3120002,,,,,,,2025-12-15,1,,,,,アールティー,0
1704,7050003009795,新規,0,2025-12-15,2025-12-15,合同会社エヴァンスレイ,,合同会社,茨城県,つくば市,吉沼４０４８番地８,,08,220,3002617,,,,,,,2025-12-15,1,,,,,エヴァンスレイ,0
1711,7070003006221,新規,0,2025-12-15,2025-12-15,合同会社Ｒｉｏｓ,,合同会社,群馬県,前橋市,東金丸町９１番地３９１,,10,201,3710234,,,,,,,2025-12-15,1,,,,,,0
1741,7120001282619,新規,0,2025-12-15,2025-12-15,株式会社Ｍａｃｈｉｋａｎｅ　Ｉｎｎｏｖａｔｉｏｎｓ,,株式会社,大阪府,大阪市北区,梅田１丁目２‐２大阪駅前第２ビル１２‐１２,,27,127,5300001,,,,,,,2025-12-15,1,,,,,マチカネイノベーションズ,0
1742,7120001282734,新規,0,2025-12-15,2025-12-15,クラフトハーツ株式会社,,株式会社,大阪府,大阪市住之江区,南港中４丁目７番２１－３１２号,,27,125,5590033,,,,,,,2025-12-15,1,,,,,クラフトハーツ,0
1743,7120001282759,新規,0,2025-12-15,2025-12-15,Ｖａｌａｒ　Ｉｎｔｅｌｌｉｇｅｎｃｅ株式会社,,株式会社,大阪府,大阪市北区,芝田２丁目８番１１号・３階,,27,127,5300012,,,,,,,2025-12-15,1,,,,,ヴァラールインテリジェンス,0
1744,7120001282767,新規,0,2025-12-15,2025-12-15,至欽株式会社,,株式会社,大阪府,大阪市中央区,内平野町１丁目２番９号グランドメゾン大手前５０４号室,,27,128,5400037,,,,,,,2025-12-15,1,,,,,シキン,0
1747,7120003031453,新規,0,2025-12-15,2025-12-15,合同会社シックストーン,,合同会社,大阪府,大阪市中央区,南船場３丁目２番２２号おおきに南船場ビル２０５,,27,128,5420081,,,,,,,2025-12-15,1,,,,,シックストーン,0
1748,7120101072944,新規,0,2025-12-15,2025-12-15,ジーエスライフ株式会社,,株式会社,大阪府,堺市東区,菩提町３丁３９番地１５８,,27,143,5998103,,,,,,,2025-12-15,1,,,,,ジーエスライフ,0
1758,7130001081202,新規,0,2025-12-15,2025-12-15,株式会社京都国際医療技術交流センター,,株式会社,京都府,京都市西京区,御陵谷町４１番地８,,26,111,6158241,,,,,,,2025-12-15,1,,,,,キョウトコクサイイリョウギジュツコウリュウセンター,0
1759,7130003011009,新規,0,2025-12-15,2025-12-15,合同会社プラスアルファ,,合同会社,京都府,京都市下京区,七条通油小路東入大黒町２２７番地第２キョートビル４０２,,26,106,6008223,,,,,,,2025-12-15,1,,,,,プラスアルファ,0
1770,7140001141079,新規,0,2025-12-15,2025-12-15,井上マリン株式会社,,株式会社,兵庫県,神戸市中央区,八幡通３丁目１番９－２０１号,,28,110,6510085,,,,,,,2025-12-15,1,,,,,イノウエマリン,0
1776,7150003003771,新規,0,2025-12-15,2025-12-15,合同会社Ｗｅ　ｍｅｔｈｏｄ,,合同会社,奈良県,大和郡山市,額田部北町１２２５－１９,,29,203,6391037,,,,,,,2025-12-15,1,,,,,ウィーメソッド,0
1792,7210003001983,新規,0,2025-12-15,2025-12-15,合同会社ＧａｒｄｅｎＢ,,合同会社,福井県,福井市,木田１丁目１８０９番地２,,18,201,9188105,,,,,,,2025-12-15,1,,,,,ガーデンビー,0
1794,7230005009511,新規,0,2025-12-15,2025-12-15,行政書士法人いま結,,その他の設立登記法人,富山県,氷見市,鞍川３７２番地,,16,205,9350025,,,,,,,2025-12-15,1,,,,,イマユイ,0
1804,7290001112494,新規,0,2025-12-15,2025-12-15,株式会社Ｆｕマルス,,株式会社,福岡県,福岡市博多区,博多駅前１丁目２３番２号ＰａｒｋＦｒｏｎｔ博多駅前１丁目５Ｆ－Ｂ,,40,132,8120011,,,,,,,2025-12-15,1,,,,,エフユーマルス,0
1805,7290001112503,新規,0,2025-12-15,2025-12-15,株式会社秋吉興産,,株式会社,福岡県,久留米市,北野町高良２４７８番地,,40,203,8301114,,,,,,,2025-12-15,1,,,,,アキヨシコウサン,0
1806,7290001112528,新規,0,2025-12-15,2025-12-15,株式会社ネオコンセプション,,株式会社,福岡県,福岡市中央区,大手門１丁目２番２３－９１０号,,40,133,8100074,,,,,,,2025-12-15,1,,,,,ネオコンセプション,0
1808,7290003017832,新規,0,2025-12-15,2025-12-15,ＨＤＫ合同会社,,合同会社,福岡県,福岡市東区,東浜１丁目９－２７－９０９,,40,131,8120055,,,,,,,2025-12-15,1,,,,,ヒデキ,0
1813,7310005008884,新規,0,2025-12-15,2025-12-15,ＮＰＯ法人国際交流の家からりん,,その他の設立登記法人,長崎県,諫早市,小船越町５７１番地５２,,42,204,8540062,,,,,,,2025-12-15,1,,,,,コクサイコウリュウノイエカラリン,0
1817,7350001019840,新規,0,2025-12-15,2025-12-15,株式会社潮風ホールディングス,,株式会社,宮崎県,宮崎市,吉村町北中甲１２３２番地４,,45,201,8800841,,,,,,,2025-12-15,1,,,,,シオカゼホールディングス,0
1821,7360001036125,新規,0,2025-12-15,2025-12-15,株式会社ロイヤルプラン,,株式会社,沖縄県,那覇市,字安謝２４８番地９,,47,201,9000003,,,,,,,2025-12-15,1,,,,,ロイヤルプラン,0
1822,7360001036141,新規,0,2025-12-15,2025-12-15,株式会社ちゅらとも,,株式会社,沖縄県,宜野湾市,大山７丁目１０番４１号,,47,205,9012223,,,,,,,2025-12-15,1,,,,,チュラトモ,0
1823,7360003015473,新規,0,2025-12-15,2025-12-15,八重山ケーブルネット合同会社,,合同会社,沖縄県,石垣市,字登野城９番地４,,47,207,9070004,,,,,,,2025-12-15,1,,,,,ヤエヤマケーブルネット,0
1824,7360003015481,新規,0,2025-12-15,2025-12-15,合同会社笑,,合同会社,沖縄県,名護市,宇茂佐の森２丁目６番９,,47,209,9050009,,,,,,,2025-12-15,1,,,,,エミ,0
1832,7380003006207,新規,0,2025-12-15,2025-12-15,合同会社キリュウ,,合同会社,福島県,東白川郡矢祭町,大字小田川字大高１３８－１,,07,482,9635119,,,,,,,2025-12-15,1,,,,,,0
1839,7450003002751,新規,0,2025-12-15,2025-12-15,合同会社ＲＡＶＯ,,合同会社,北海道,名寄市,西一条南１２丁目１番地２８,,01,221,0960011,,,,,,,2025-12-15,1,,,,,,0
1847,7490001011239,新規,0,2025-12-15,2025-12-15,株式会社測営,,株式会社,高知県,高知市,朝倉丙７０９番地１１,,39,201,7808063,,,,,,,2025-12-15,1,,,,,ソクエイ,0
1853,7700150114349,新規,0,2025-12-15,2025-12-15,Ｄｏｎｇｇｕａｎ　Ｘｉｎｊｉｔｏｎｇ　Ｅｌｅｃｔｒｏｎｉｃ　Ｔｅｃｈｎｏｌｏｇｙ　Ｃｏ．，Ｌｔｄ,,外国会社等,,,,,,,,Ｒｏｏｍ　１２０１，Ｂｕｉｌｄｉｎｇ　３，Ｎｏ．７２，Ｆｕｍｉｎ　Ｓｏｕｔｈ　Ｒｏａｄ　Ｄａｌａｎｇ　Ｔｏｗｎ，Ｄｏｎｇｇｕａｎ　Ｃｉｔｙ，Ｇｕａｎｇｄｏｎｇ　Ｐｒｏｖｉｎｃｅ　ｄｏｎｇｇｕａｎ　ｇｕａｎｇｄｏｎｇ　Ｃｈｉｎａ　５２３０００,,,,,,2025-12-15,1,,,,,トウカンシシンギツウエレクトロニックテクノロジーカンパニーリミテッド,0
1854,7700150133448,新規,0,2025-12-15,2025-12-15,レゾナック健康保険組合,,その他,東京都,港区,芝大門２丁目８番１３号,,13,103,1050012,,,,,,,2025-12-15,1,,,,,レゾナックケンコウホケンクミアイ,0
1855,7700150133456,新規,0,2025-12-15,2025-12-15,ミライト・ワン健康保険組合,,その他,東京都,江東区,豊洲５丁目６番３６号,,13,108,1350061,,,,,,,2025-12-15,1,,,,,ミライトワンケンコウホケンクミアイ,0
1860,8010001261054,新規,0,2025-12-15,2025-12-15,ＫＥＩＮＴ　ＡＤＶＩＳＯＲＹ株式会社,,株式会社,東京都,中央区,日本橋茅場町１丁目９番２号,,13,102,1030025,,,,,,,2025-12-15,1,,,,,ケイントアドバイザリー,0
1861,8010001261112,新規,0,2025-12-15,2025-12-15,株式会社エージェンシー,,株式会社,東京都,千代田区,神田須田町１丁目７番８号ＶＯＲＴ秋葉原ＩＶ２Ｆ,00141890,13,101,1010041,,,,,,,2025-12-15,1,,,,,エージェンシー,0
1862,8010001261137,新規,0,2025-12-15,2025-12-15,株式会社美悦姫,,株式会社,東京都,中央区,銀座１丁目１２番４号Ｎ＆ＥＢＬＤ．６Ｆ,,13,102,1040061,,,,,,,2025-12-15,1,,,,,ビエツヒメ,0
1865,8010003049720,新規,0,2025-12-15,2025-12-15,合同会社ＵＭＩＳＯＫＯ,,合同会社,東京都,千代田区,九段南３丁目７番７号成和綜合会計事務所内,,13,101,1020074,,,,,,,2025-12-15,1,,,,,ウミソコ,0
1868,8010005041072,新規,0,2025-12-15,2025-12-15,特定非営利活動法人国際ＡＫＩＢＡ総合支援協会ＪＡＰＡＮ,,その他の設立登記法人,東京都,千代田区,神田鍛冶町３丁目７番地３３神田駅前プラザ３０１号,,13,101,1010045,,,,,,,2025-12-15,1,,,,,コクサイアドホケイトカンダインテグリティボーダレスアソシエーションソウゴウシエンキョウカイジャパン,0
1878,8010401195166,新規,0,2025-12-15,2025-12-15,株式会社マイトーンズ,,株式会社,東京都,港区,三田３丁目４番３号ＲＩＰＬ９,,13,103,1080073,,,,,,,2025-12-15,1,,,,,マイトーンズ,0
1879,8010401195199,新規,0,2025-12-15,2025-12-15,株式会社ＩＮＰＥＸイーストアグン,,株式会社,東京都,港区,赤坂５丁目３番１号,,13,103,1070052,,,,,,,2025-12-15,1,,,,,インペックスイーストアグン,0
1881,8010405025063,新規,0,2025-12-15,2025-12-15,一般社団法人ファミリー薬局支援協会,,その他の設立登記法人,東京都,港区,赤坂３丁目１１番１９号,,13,103,1070052,,,,,,,2025-12-15,1,,,,,ファミリーヤッキョクシエンキョウカイ,0
1882,8010503008119,新規,0,2025-12-15,2025-12-15,ＫＳＭ合同会社,,合同会社,東京都,台東区,千束３丁目３３番１２号金子ハイム１階,,13,106,1110031,,,,,,,2025-12-15,1,,,,,ケーエスエム,0
1890,8010701048759,新規,0,2025-12-15,2025-12-15,株式会社野村ＹＬＯ,,株式会社,東京都,品川区,中延５丁目４番５号,,13,109,1420053,,,,,,,2025-12-15,1,,,,,ノムラワイエルオー,0
1900,8011001174163,新規,0,2025-12-15,2025-12-15,株式会社ＦｅａｔＵ,,株式会社,東京都,渋谷区,道玄坂１丁目１０番８号渋谷道玄坂東急ビル２Ｆ－Ｃ,,13,113,1500043,,,,,,,2025-12-15,1,,,,,フィーチュ,0
1901,8011001174337,新規,0,2025-12-15,2025-12-15,株式会社ｇｌｏｖｉａ,,株式会社,東京都,渋谷区,神南１丁目１１番４号ＦＰＧリンクス神南５階,,13,113,1500041,,,,,,,2025-12-15,1,,,,,グロービア,0
1902,8011001174378,新規,0,2025-12-15,2025-12-15,ｙａｅ株式会社,,株式会社,東京都,渋谷区,桜丘町２９番２１号カスタリア渋谷櫻丘５０１,,13,113,1500031,,,,,,,2025-12-15,1,,,,,ヤエ,0
1904,8011003023112,新規,0,2025-12-15,2025-12-15,合同会社ＹＫＦ,,合同会社,東京都,目黒区,五本木３丁目２９番６号,,13,110,1530053,,,,,,,2025-12-15,1,,,,,ワイケイエフ,0
1907,8011101114151,新規,0,2025-12-15,2025-12-15,株式会社ＭＭｙ　Ｓｏｌｕｔｉｏｎｓ,,株式会社,東京都,新宿区,西新宿７丁目１番１２－３１３号,,13,104,1600023,,,,,,,2025-12-15,1,,,,,マイソリューションズ,0
1908,8011101114226,新規,0,2025-12-15,2025-12-15,菱和六三四株式会社,,株式会社,東京都,新宿区,西新宿１丁目２６番２号,,13,104,1600023,,,,,,,2025-12-15,1,,,,,リョウワムサシ,0
1909,8011101114325,新規,0,2025-12-15,2025-12-15,株式会社ＴｗｏＫｅｙｓ　Ｃａｐｉｔａｌ,,株式会社,東京都,新宿区,大久保１丁目７番１号プレール・ドゥーク東新宿ＩＩ４０１号,00141878,13,104,1690072,,,,,,,2025-12-15,1,,,,,トゥーキーズキャピタル,0
1914,8011701029030,新規,0,2025-12-15,2025-12-15,株式会社眠気解消,,株式会社,東京都,江戸川区,一之江８丁目１８番１１号,,13,123,1320024,,,,,,,2025-12-15,1,,,,,ネムケカイショウ,0
1916,8011803007223,新規,0,2025-12-15,2025-12-15,かめゆき合同会社,,合同会社,東京都,足立区,西新井本町１丁目１２－１４,,13,121,1230845,,,,,,,2025-12-15,1,,,,,カメユキ,0
1919,8012801024417,新規,0,2025-12-15,2025-12-15,株式会社Ｒｉｎｋａ,,株式会社,東京都,立川市,上砂町２丁目２５－１２,,13,202,1900032,,,,,,,2025-12-15,1,,,,,リンカ,0
1943,8030001170105,新規,0,2025-12-15,2025-12-15,株式会社高梨商事,00141879,株式会社,埼玉県,加須市,上崎１７１３番地３,,11,210,3470125,,,,,,,2025-12-15,1,,,,,タカナシショウジ,0
1948,8040001141773,新規,0,2025-12-15,2025-12-15,Ｏｃｅａｎ　ｐｒｏｐｅｒｔｙ株式会社,,株式会社,千葉県,船橋市,大穴南５丁目２２番１２号,,12,204,2740067,,,,,,,2025-12-15,1,,,,,オーシャンプロパティ,0
1953,8040003029141,新規,0,2025-12-15,2025-12-15,合同会社Ｓｕｎ　Ｌｉｇｈｔ,,合同会社,千葉県,鎌ケ谷市,南鎌ケ谷３丁目１番４１号,,12,224,2730106,,,,,,,2025-12-15,1,,,,,サンライト,0
1958,8070001043645,新規,0,2025-12-15,2025-12-15,株式会社Ｈｅｒｅ　ｗｅ　ｇｏ,,株式会社,群馬県,吾妻郡長野原町,大字応桑８７番地１,,10,424,3771411,,,,,,,2025-12-15,1,,,,,ヒアウイゴウ,0
1959,8070003006220,新規,0,2025-12-15,2025-12-15,合同会社Ｂａｓａｌｔ,,合同会社,群馬県,高崎市,金古町１４９８番地１０クイーンハイツ１０２号,,10,202,3703511,,,,,,,2025-12-15,1,,,,,,0
1963,8090001019627,新規,0,2025-12-15,2025-12-15,株式会社ケアブル,,株式会社,山梨県,上野原市,上野原３６３２番地スコールプラザ１０２,,19,212,4090112,,,,,,,2025-12-15,1,,,,,ケアブル,0
1975,8120001282683,新規,0,2025-12-15,2025-12-15,森怡株式会社,,株式会社,大阪府,大阪市中央区,島之内２丁目６－６－１０１ウーロ島之内,,27,128,5420082,,,,,,,2025-12-15,1,,,,,モリイ,0
1976,8120001282691,新規,0,2025-12-15,2025-12-15,森観光株式会社,,株式会社,大阪府,大阪市此花区,島屋６丁目２番１１０－１６０８号,,27,104,5540024,,,,,,,2025-12-15,1,,,,,モリカンコウ,0
1977,8120001282717,新規,0,2025-12-15,2025-12-15,株式会社木子,,株式会社,大阪府,大阪市平野区,瓜破東３丁目６番４５号,,27,126,5470022,,,,,,,2025-12-15,1,,,,,キコ,0
1978,8120001282733,新規,0,2025-12-15,2025-12-15,星空傳奇株式会社,,株式会社,大阪府,大阪市中央区,船場中央２丁目２番５号船場センタービル５号館地下一階Ｂ１２９ＲＯＹＡＬＯＦＦＩＣＥ内,,27,128,5410055,,,,,,,2025-12-15,1,,,,,セイクウデンキ,0
1979,8120001282758,新規,0,2025-12-15,2025-12-15,株式会社ＴＹＳ,,株式会社,大阪府,大阪市東成区,大今里南１丁目６番１－４０４号,,27,115,5370013,,,,,,,2025-12-15,1,,,,,ティーワイエス,0
1994,8130003011008,新規,0,2025-12-15,2025-12-15,合同会社ｗａｃｏ　ｃｌｏｕｄ,,合同会社,京都府,京都市東山区,宮川筋６丁目３５５番地,,26,105,6050801,,,,,,,2025-12-15,1,,,,,ワコクラウド,0
2001,8140001141103,新規,0,2025-12-15,2025-12-15,株式会社菱伸,,株式会社,兵庫県,姫路市,魚町４５,,28,201,6700905,,,,,,,2025-12-15,1,,,,,リョウシン,0
2002,8140001141128,新規,0,2025-12-15,2025-12-15,株式会社フロンティア,,株式会社,兵庫県,朝来市,和田山町中１９６番地,,28,225,6695226,,,,,,,2025-12-15,1,,,,,フロンティア,0
2006,8140003022953,新規,0,2025-12-15,2025-12-15,合同会社ライトワーカー,,合同会社,兵庫県,尼崎市,上ノ島町３丁目２４番１１号,,28,202,6610014,,,,,,,2025-12-15,1,,,,,ライトワーカー,0
2007,8140005027728,新規,0,2025-12-15,2025-12-15,一般社団法人Ｂｒｉｇｈｔ　Ｆｕｔｕｒｅ　ＫＯＢＥ,,その他の設立登記法人,兵庫県,神戸市中央区,港島南町５丁目４－８,,28,110,6500047,,,,,,,2025-12-15,1,,,,,ブライトフューチャーコウベ,0
2008,8160003003679,新規,0,2025-12-15,2025-12-15,青海合同会社,,合同会社,滋賀県,草津市,東草津２丁目６番１－７号,,25,206,5250033,,,,,,,2025-12-15,1,,,,,アオウミ,0
2010,8180001169859,新規,0,2025-12-15,2025-12-15,株式会社ＰＥＡＫ　ａｎｄ　Ｆｌｏｗ,,株式会社,愛知県,名古屋市西区,牛島町６番１号,,23,104,4510046,,,,,,,2025-12-15,1,,,,,ピークアンドフロー,0
2011,8180001169883,新規,0,2025-12-15,2025-12-15,株式会社Ｋ‐ＳＴＡＲＴ,,株式会社,愛知県,一宮市,三ツ井５丁目５番２７号,,23,203,4910827,,,,,,,2025-12-15,1,,,,,ケースタート,0
2016,8200001044514,新規,0,2025-12-15,2025-12-15,株式会社ＳＴ,,株式会社,岐阜県,土岐市,妻木町３００番地,,21,212,5095301,,,,,,,2025-12-15,1,,,,,エスティー,0
2021,8240001065928,新規,0,2025-12-15,2025-12-15,株式会社ＮＥＳＴ・ＰＬＡＮ,,株式会社,広島県,広島市中区,大手町１丁目７番２１号４Ｆ,,34,101,7300051,,,,,,,2025-12-15,1,,,,,ネストプラン,0
2022,8240003007523,新規,0,2025-12-15,2025-12-15,合同会社Ｓテイト地域,,合同会社,広島県,広島市東区,福田８丁目２７番１１号,,34,102,7320029,,,,,,,2025-12-15,1,,,,,エステイトチイキ,0
2027,8270001009353,新規,0,2025-12-15,2025-12-15,株式会社Ｈｉ　Ｇｒｏｕｐ,,株式会社,鳥取県,鳥取市,賀露町西３丁目２２番７号,,31,201,6800908,,,,,,,2025-12-15,1,,,,,エイチアイグループ,0
2031,8290001112510,新規,0,2025-12-15,2025-12-15,同福居株式会社,,株式会社,福岡県,福岡市博多区,東光寺町１丁目２番２号前田ビル１０１,,40,132,8120896,,,,,,,2025-12-15,1,,,,,ドウフクキョ,0
2032,8290001112519,新規,0,2025-12-15,2025-12-15,株式会社エアくん,,株式会社,福岡県,みやま市,瀬高町泰仙寺２１０－１,,40,229,8350015,,,,,,,2025-12-15,1,,,,,エアクン,0
2033,8290001112527,新規,0,2025-12-15,2025-12-15,Ｋｙｕｓｈｕ　Ｔｅａ　Ｊａｐａｎ株式会社,,株式会社,福岡県,糸島市,前原中央２丁目１３番３号,,40,230,8191116,,,,,,,2025-12-15,1,,,,,キュウシュウティージャパン,0
2036,8290003017807,新規,0,2025-12-15,2025-12-15,合同会社Ｏｐｒｉａ,,合同会社,福岡県,福岡市中央区,大名２丁目１１番２５号４階,,40,133,8100041,,,,,,,2025-12-15,1,,,,,オプリア,0
2047,8360001036140,新規,0,2025-12-15,2025-12-15,株式会社ＴＵＫＴＵＫ　ＤＲＥＡＭ,,株式会社,沖縄県,那覇市,字識名１１０２－３５－Ｂ１,,47,201,9020078,,,,,,,2025-12-15,1,,,,,トゥクトゥクドリーム,0
2051,8360003015480,新規,0,2025-12-15,2025-12-15,サンサングループ合同会社,,合同会社,沖縄県,沖縄市,大里２丁目３１番１８号,,47,211,9042163,,,,,,,2025-12-15,1,,,,,サンサングループ,0
2056,8440001009724,新規,0,2025-12-15,2025-12-15,株式会社Ｎｅｓｔｌｉｎｋ,,株式会社,北海道,松前郡松前町,字朝日４９５－２,,01,331,0491517,,,,,,,2025-12-15,1,,,,,ネストリンク,0
2058,8450003002750,新規,0,2025-12-15,2025-12-15,合同会社いやさか,,合同会社,北海道,旭川市,神居八条４丁目２番１号,,01,204,0708018,,,,,,,2025-12-15,1,,,,,イヤサカ,0
2063,8500003003644,新規,0,2025-12-15,2025-12-15,合同会社ＮＡＺＺＹ,,合同会社,愛媛県,北宇和郡松野町,大字松丸１２２番地松丸定住促進住宅１０５号,,38,484,7982101,,,,,,,2025-12-15,1,,,,,ナジー,0
2064,8700150133439,新規,0,2025-12-15,2025-12-15,トヨタ自動車東日本健康保険組合,,その他,宮城県,黒川郡大衡村,中央平１番地,,04,424,9813609,,,,,,,2025-12-15,1,,,,,トヨタジドウシャヒガシニホンケンコウホケンクミアイ,0
2065,8700150133447,新規,0,2025-12-15,2025-12-15,ルネサス健康保険組合,,その他,東京都,小平市,上水本町５丁目２０番１号,,13,211,1870022,,,,,,,2025-12-15,1,,,,,ルネサスケンコウホケンクミアイ,0
2066,8700150133455,新規,0,2025-12-15,2025-12-15,日本生命健康保険組合,,その他,大阪府,大阪市中央区,今橋３丁目５番１２号,,27,128,5410042,,,,,,,2025-12-15,1,,,,,ニホンセイメイケンコウホケンクミアイ,0
2071,9010001261128,新規,0,2025-12-15,2025-12-15,株式会社Ａ３,,株式会社,東京都,中央区,日本橋室町１丁目１１番１２号日本橋水野ビル７階,,13,102,1030022,,,,,,,2025-12-15,1,,,,,エースリー,0
2072,9010001261136,新規,0,2025-12-15,2025-12-15,ＦＯＲＴＵＲＩＯＮ株式会社,,株式会社,東京都,中央区,銀座１丁目１２番４号Ｎ＆ＥＢＬＤ．７階,,13,102,1040061,,,,,,,2025-12-15,1,,,,,フォーチュリオン,0
2073,9010003049703,新規,0,2025-12-15,2025-12-15,ユニバーサルハーベストステーション合同会社,,合同会社,東京都,千代田区,神田和泉町１番地６－１６ヤマトビル４０５,,13,101,1010024,,,,,,,2025-12-15,1,,,,,ユニバーサルハーベストステーション,0
2076,9010005041063,新規,0,2025-12-15,2025-12-15,社会保険労務士法人アルボスエイド,,その他の設立登記法人,東京都,千代田区,内神田１丁目１８番１１号東京ロイヤルプラザ１０１６号,,13,101,1010047,,,,,,,2025-12-15,1,,,,,アルボスエイド,0
2082,9010401195198,新規,0,2025-12-15,2025-12-15,株式会社ＩＮＰＥＸノースマドゥラ,,株式会社,東京都,港区,赤坂５丁目３番１号,,13,103,1070052,,,,,,,2025-12-15,1,,,,,インペックスノースマドゥラ,0
2084,9010403036771,新規,0,2025-12-15,2025-12-15,太田房江企画合同会社,,合同会社,東京都,港区,白金６丁目１６番６号,,13,103,1080072,,,,,,,2025-12-15,1,,,,,,0
2085,9010403036796,新規,0,2025-12-15,2025-12-15,合同会社自由,,合同会社,東京都,港区,高輪４丁目１番２７号,,13,103,1080074,,,,,,,2025-12-15,1,,,,,ジユウ,0
2088,9010503008118,新規,0,2025-12-15,2025-12-15,嘉宝合同会社,,合同会社,東京都,台東区,台東１丁目２９番３－３１７号,,13,106,1100016,,,,,,,2025-12-15,1,,,,,カホウ,0
2105,9010901058581,新規,0,2025-12-15,2025-12-15,ジエルイ貿易株式会社,,株式会社,東京都,世田谷区,喜多見５丁目２２－１１,,13,112,1570067,,,,,,,2025-12-15,1,,,,,ジエルイボウエキ,0
2110,9011001174336,新規,0,2025-12-15,2025-12-15,株式会社スグサポ,,株式会社,東京都,渋谷区,桜丘町２３番１７号シティコート桜丘４０４,,13,113,1500031,,,,,,,2025-12-15,1,,,,,スグサポ,0
2112,9011003023037,新規,0,2025-12-15,2025-12-15,合同会社ＹＡＭＡＮＩ,,合同会社,東京都,渋谷区,恵比寿３丁目３６番１３号ライオンズマンション広尾第二１０７,,13,113,1500013,,,,,,,2025-12-15,1,,,,,ヤマニ,0
2113,9011003023078,新規,0,2025-12-15,2025-12-15,合同会社モノクロ,,合同会社,東京都,渋谷区,道玄坂１丁目１０番８号,,13,113,1500043,,,,,,,2025-12-15,1,,,,,モノクロ,0
2116,9011101114299,新規,0,2025-12-15,2025-12-15,株式会社サードプレイス,,株式会社,東京都,新宿区,西新宿６丁目１５番１号セントラルパークタワー・ラトゥール新宿,,13,104,1600023,,,,,,,2025-12-15,1,,,,,サードプレイス,0
2118,9011301031121,新規,0,2025-12-15,2025-12-15,Ｃｈｉｃｏｌｅｔ株式会社,,株式会社,東京都,杉並区,高円寺南４丁目１３番３号,,13,115,1660003,,,,,,,2025-12-15,1,,,,,チコレット,0
2127,9012401043915,新規,0,2025-12-15,2025-12-15,株式会社ケイアンドエー,,株式会社,東京都,調布市,仙川町１丁目２５番地６,,13,208,1820002,,,,,,,2025-12-15,1,,,,,ケイアンドエー,0
2128,9012401043931,新規,0,2025-12-15,2025-12-15,ビークリーン株式会社,,株式会社,東京都,調布市,深大寺元町２丁目５－６－１０１,,13,208,1820017,,,,,,,2025-12-15,1,,,,,ビークリーン,0
2137,9020001166219,新規,0,2025-12-15,2025-12-15,ウェルコネクト株式会社,,株式会社,神奈川県,川崎市多摩区,登戸新町１９３番地,,14,135,2140013,,,,,,,2025-12-15,1,,,,,ウェルコネクト,0
2138,9020001166292,新規,0,2025-12-15,2025-12-15,株式会社翔建,,株式会社,神奈川県,横浜市青葉区,美しが丘１丁目１３‐１０‐１０７,,14,117,2250002,,,,,,,2025-12-15,1,,,,,ショウケン,0
2151,9030003028259,新規,0,2025-12-15,2025-12-15,合同会社日和,,合同会社,埼玉県,所沢市,南住吉２０番２１号ソリティア所沢第９－１０１,,11,208,3591125,,,,,,,2025-12-15,1,,,,,ヒヨリ,0
2156,9040001141772,新規,0,2025-12-15,2025-12-15,Ｔｈａｎｋｓ‐ｕ株式会社,,株式会社,千葉県,松戸市,六実６丁目２２－１０,,12,207,2702204,,,,,,,2025-12-15,1,,,,,サンクスユー,0
2157,9040001141780,新規,0,2025-12-15,2025-12-15,株式会社ＹＧ,,株式会社,千葉県,松戸市,二十世紀が丘美野里町９１番地の１ＧｒｅｅｎＦｉｅｌｄＣ－２０３号,,12,207,2710081,,,,,,,2025-12-15,1,,,,,ワイジー,0
2163,9050001057662,新規,0,2025-12-15,2025-12-15,株式会社ヘルステック,,株式会社,茨城県,筑西市,木戸１１７番地,,08,227,3080104,,,,,,,2025-12-15,1,,,,,ヘルステック,0
2164,9050001057704,新規,0,2025-12-15,2025-12-15,株式会社さかい農園,,株式会社,茨城県,古河市,中田１０４８番地４,,08,204,3060053,,,,,,,2025-12-15,1,,,,,サカイノウエン,0
2165,9050001057712,新規,0,2025-12-15,2025-12-15,ｎｅｌｕ株式会社,,株式会社,茨城県,つくば市,春日２丁目３－８ＬｉｆｅＯｎｅ３０１,,08,220,3050821,,,,,,,2025-12-15,1,,,,,ネル,0
2167,9050003009793,新規,0,2025-12-15,2025-12-15,合同会社巡旋,,合同会社,茨城県,つくばみらい市,西ノ台南３１３番地７４,,08,235,3002443,,,,,,,2025-12-15,1,,,,,ジュンセン,0
2168,9050003009802,新規,0,2025-12-15,2025-12-15,合同会社クラシステム,,合同会社,茨城県,龍ケ崎市,城ノ内４丁目１３番地１９,,08,208,3010847,,,,,,,2025-12-15,1,,,,,クラシステム,0
2172,9060001038835,新規,0,2025-12-15,2025-12-15,株式会社樹,,株式会社,栃木県,小山市,城東５丁目１３番８号フラワーレジデンスリラＡ－１０２号,,09,208,3230807,,,,,,,2025-12-15,1,,,,,タツキ,0
2177,9080001027332,新規,0,2025-12-15,2025-12-15,株式会社ＭＡＤＯＫＡ,,株式会社,静岡県,榛原郡吉田町,神戸１５８４番地の１グローバル吉田Ａ２０２,,22,424,4210304,,,,,,,2025-12-15,1,,,,,マドカ,0
2178,9080003003620,新規,0,2025-12-15,2025-12-15,合同会社エスワークス,,合同会社,静岡県,焼津市,吉永１１９２番地の１,,22,212,4210211,,,,,,,2025-12-15,1,,,,,エスワークス,0
2184,9080401028319,新規,0,2025-12-15,2025-12-15,株式会社匠和,,株式会社,静岡県,浜松市中央区,市野町１５０１番地の８,,22,138,4350051,,,,,,,2025-12-15,1,,,,,ショウワ,0
2199,9120001282682,新規,0,2025-12-15,2025-12-15,株式会社Ｇｏｌｄ　Ｔｒｕｓｔ,,株式会社,大阪府,大阪市中央区,南久宝寺町３丁目４番１５号加藤ビル４０３,,27,128,5410058,,,,,,,2025-12-15,1,,,,,ゴールドトラスト,0
2200,9120001282699,新規,0,2025-12-15,2025-12-15,プランＡＡ解体株式会社,,株式会社,大阪府,大阪市西区,江戸堀１丁目２４番１５号,,27,106,5500002,,,,,,,2025-12-15,1,,,,,プランエーエーカイタイ,0
2201,9120001282781,新規,0,2025-12-15,2025-12-15,株式会社西森,,株式会社,大阪府,守口市,東町２丁目１９番７号,,27,209,5700013,,,,,,,2025-12-15,1,,,,,ニシモリ,0
2203,9120003031427,新規,0,2025-12-15,2025-12-15,合同会社モリソン,,合同会社,大阪府,枚方市,山之上１丁目２２‐１６,,27,210,5730047,,,,,,,2025-12-15,1,,,,,モリソン,0
2204,9120003031443,新規,0,2025-12-15,2025-12-15,合同会社Ｋ’ｓ　Ｌｉｎｅ,,合同会社,大阪府,守口市,馬場町３丁目４番１５号,,27,209,5700062,,,,,,,2025-12-15,1,,,,,ケーズライン,0
2205,9120003031451,新規,0,2025-12-15,2025-12-15,ＡＡＳＨＴ　Ｉｎｔｅｒｎａｔｉｏｎａｌ合同会社,,合同会社,大阪府,大阪市中央区,谷町６丁目３番１２号,,27,128,5420012,,,,,,,2025-12-15,1,,,,,エーエーエスエイチティインターナショナル,0
2208,9120005025303,新規,0,2025-12-15,2025-12-15,一般社団法人Ｒ・ＡＳＫ２０,,その他の設立登記法人,大阪府,大阪市北区,梅田３丁目２番２号,,27,127,5300001,,,,,,,2025-12-15,1,,,,,アールエーエスケートゥエンティ,0
2232,9140001141119,新規,0,2025-12-15,2025-12-15,株式会社ＹＫ,,株式会社,兵庫県,加古川市,平岡町一色東２丁目７２番地,,28,210,6750116,,,,,,,2025-12-15,1,,,,,ワイケー,0
2235,9140003022969,新規,0,2025-12-15,2025-12-15,ふわりあ合同会社,,合同会社,兵庫県,神戸市長田区,雲雀ケ丘３丁目６番ヴィラナリー雲雀ケ丘５－１１０,,28,106,6530879,,,,,,,2025-12-15,1,,,,,フワリア,0
2243,9180001169866,新規,0,2025-12-15,2025-12-15,株式会社星薬堂,,株式会社,愛知県,名古屋市中区,栄３丁目３５番４７号サン・栄三丁目ビル２０１号,,23,106,4600008,,,,,,,2025-12-15,1,,,,,セイヤクドウ,0
2244,9180001169882,新規,0,2025-12-15,2025-12-15,株式会社Ａｍａｚｉｎｇ,,株式会社,愛知県,日進市,赤池町箕ノ手２番地１１１８,,23,230,4700126,,,,,,,2025-12-15,1,,,,,アメージング,0
2247,9180003029465,新規,0,2025-12-15,2025-12-15,合同会社かしのき,,合同会社,愛知県,名古屋市北区,金城４丁目１７番２６号モアグレース黒川名城公園１００４号,,23,103,4620847,,,,,,,2025-12-15,1,,,,,カシノキ,0
2248,9180005021338,新規,0,2025-12-15,2025-12-15,ＮＰＯ法人ＵＮＩＳＴＡＲ,,その他の設立登記法人,愛知県,北名古屋市,六ツ師山の神７番地２階,,23,234,4810001,,,,,,,2025-12-15,1,,,,,ユニスター,0
2249,9180005021346,新規,0,2025-12-15,2025-12-15,一般社団法人コンシェンス,,その他の設立登記法人,愛知県,春日井市,東野町３丁目８番地１４,,23,206,4860817,,,,,,,2025-12-15,1,,,,,コンシェンス,0
2250,9190001032759,新規,0,2025-12-15,2025-12-15,株式会社リネクト,,株式会社,三重県,鈴鹿市,御薗町２９８０番地,,24,207,5100261,,,,,,,2025-12-15,1,,,,,リネクト,0
2255,9210003001981,新規,0,2025-12-15,2025-12-15,合同会社共陽,,合同会社,福井県,今立郡池田町,薮田第４号１番地９,,18,382,9102511,,,,,,,2025-12-15,1,,,,,キョウヨウ,0
2256,9220001027078,新規,0,2025-12-15,2025-12-15,株式会社ＫａｍｉｎｏＣｏｎｎｅｃｔ,,株式会社,石川県,能美市,佐野町ク１５番地１,,17,211,9231112,,,,,,,2025-12-15,1,,,,,カミノコネクト,0
2259,9220003004190,新規,0,2025-12-15,2025-12-15,合同会社ＰＲＯＵＤＩＡｇｒｏｕｐ,,合同会社,石川県,野々市市,押越２丁目６０番地,,17,212,9218803,,,,,,,2025-12-15,1,,,,,,0
2264,9240003007522,新規,0,2025-12-15,2025-12-15,合同会社せとの,,合同会社,広島県,広島市中区,小網町７－８－２－４０１,,34,101,7300855,,,,,,,2025-12-15,1,,,,,セトノ,0
2270,9290001112501,新規,0,2025-12-15,2025-12-15,株式会社ＥＩＳＨＩＮ,,株式会社,福岡県,福岡市博多区,美野島４丁目１番２－４０２号,,40,132,8120017,,,,,,,2025-12-15,1,,,,,エイシン,0
2271,9290001112518,新規,0,2025-12-15,2025-12-15,ナカムラホールディングス株式会社,,株式会社,福岡県,福岡市中央区,舞鶴３丁目２番６号,,40,133,8100073,,,,,,,2025-12-15,1,,,,,ナカムラホールディングス,0
2272,9290001112526,新規,0,2025-12-15,2025-12-15,株式会社Ｗｅｓｔ　Ｖｉｌｌａｇｅ,,株式会社,福岡県,筑後市,大字野町５２１番地１,,40,211,8330032,,,,,,,2025-12-15,1,,,,,ウエストビレッジ,0
2273,9290001112534,新規,0,2025-12-15,2025-12-15,株式会社ライフサポート福岡,,株式会社,福岡県,久留米市,梅満町１１２０番地２７,,40,203,8300048,,,,,,,2025-12-15,1,,,,,ライフサポートフクオカ,0
2276,9290003017806,新規,0,2025-12-15,2025-12-15,合同会社よろづ屋,,合同会社,福岡県,糟屋郡粕屋町,原町１丁目２番１８号,,40,349,8112307,,,,,,,2025-12-15,1,,,,,ヨロヅヤ,0
2277,9290003017830,新規,0,2025-12-15,2025-12-15,リフォルマ合同会社,,合同会社,福岡県,福岡市博多区,博多駅前１丁目２３番２号ＰａｒｋＦｒｏｎｔ博多駅前１丁目５Ｆ－Ｂ,,40,132,8120011,,,,,,,2025-12-15,1,,,,,リフォルマ,0
2299,9380005013042,新規,0,2025-12-15,2025-12-15,一般社団法人縁きゃりＬａｂ,,その他の設立登記法人,福島県,福島市,三河南町１番２０号コラッセふくしま２階ＣＢＳ内,,07,201,9608053,,,,,,,2025-12-15,1,,,,,エンキャリラボ,0
2303,9420003003214,新規,0,2025-12-15,2025-12-15,合同会社ＬＤＨ,,合同会社,青森県,弘前市,大字桔梗野５丁目８番地２７,,02,202,0368227,,,,,,,2025-12-15,1,,,,,エルディーエイチ,0
2308,9480003002359,新規,0,2025-12-15,2025-12-15,合同会社ミライリンク,,合同会社,徳島県,徳島市,川内町鈴江東６番地の１アメンド７３・３０１号室,,36,201,7710121,,,,,,,2025-12-15,1,,,,,,0
2310,9700150133438,新規,0,2025-12-15,2025-12-15,ダイワボウ健康保険組合,,その他,大阪府,大阪市中央区,久太郎町３丁目６番８号,,27,128,5410056,,,,,,,2025-12-15,1,,,,,ダイワボウケンコウホケンクミアイ,0
2311,9700150133446,新規,0,2025-12-15,2025-12-15,公文健康保険組合,,その他,大阪府,大阪市北区,梅田１丁目２番２号,,27,127,5300001,,,,,,,2025-12-15,1,,,,,クモンケンコウホケンクミアイ,0
2312,9700150133454,新規,0,2025-12-15,2025-12-15,日本石油輸送グループ健康保険組合,,その他,東京都,品川区,大崎１丁目１１－１　ゲートシティ大崎ウエストタワー１６Ｆ,,13,109,1410032,,,,,,,2025-12-15,1,,,,,ニホンセキユユソウグループケンコウホケンクミアイ,0
