sequenceNumber,corporateNumber,process,correct,updateDate,changeDate,name,nameImageId,kind,prefectureName,cityName,streetNumber,addressImageId,prefectureCode,cityCode,postCode,addressOutside,addressOutsideImageId,closeDate,closeCause,successorCorporateNumber,changeCause,assignmentDate,latest,enName,enPrefectureName,enCityName,enAddressOutside,furigana,hihyoji
12,1010001250476,新規,0,2024-12-05,2024-12-05,株式会社Ｏｎｅ　Ｔｒｅｅ,,株式会社,東京都,中央区,勝どき４丁目６番１－３８０６号,,13,102,1040054,,,,,,,2024-12-05,1,,,,,ワンツリー,0
13,1010001250501,新規,0,2024-12-05,2024-12-05,株式会社パウス,,株式会社,東京都,文京区,湯島４丁目４番６号,,13,105,1130034,,,,,,,2024-12-05,1,,,,,パウス,0
16,1010003045684,新規,0,2024-12-05,2024-12-05,ＪＤ合同会社,,合同会社,東京都,中央区,晴海５丁目４－４－１５１０,,13,102,1040053,,,,,,,2024-12-05,1,,,,,ジェーディー,0
31,1010801035639,新規,0,2024-12-05,2024-12-05,株式会社ＯＮＥエクスプレス,,株式会社,東京都,大田区,大森北３丁目３９番５－９０５号,,13,111,1430016,,,,,,,2024-12-05,1,,,,,ワンエクスプレス,0
34,1010901056436,新規,0,2024-12-05,2024-12-05,株式会社トリプト,,株式会社,東京都,世田谷区,下馬２丁目２１番２７号,,13,112,1540002,,,,,,,2024-12-05,1,,,,,トリプト,0
37,1011001166175,新規,0,2024-12-05,2024-12-05,株式会社ＭＥＤＩＣＡＬ　ＢＯＯＳＴ,,株式会社,東京都,渋谷区,神宮前６丁目２３番４号桑野ビル２階,,13,113,1500001,,,,,,,2024-12-05,1,,,,,メディカルブースト,0
38,1011001166274,新規,0,2024-12-05,2024-12-05,株式会社Ｋａｌｌｉｎ,,株式会社,東京都,渋谷区,上原２丁目３０番１号,,13,113,1510064,,,,,,,2024-12-05,1,,,,,コーリン,0
39,1011003020479,新規,0,2024-12-05,2024-12-05,リスリー合同会社,,合同会社,東京都,渋谷区,道玄坂１丁目１０番８号渋谷道玄坂東急ビル２Ｆ－Ｃ,,13,113,1500043,,,,,,,2024-12-05,1,,,,,リスリー,0
42,1011103015263,新規,0,2024-12-05,2024-12-05,合同会社Ｂｅｙｏｎｄ　Ｒｅｑｕｅｓｔｓ,,合同会社,東京都,新宿区,新宿１丁目３６－２新宿第七葉山ビル３Ｆ,,13,104,1600022,,,,,,,2024-12-05,1,,,,,ビヨンドリクエスト,0
43,1011201025973,新規,0,2024-12-05,2024-12-05,株式会社ビジュー,,株式会社,東京都,中野区,中野２丁目２９番１５号サンハイツ中野４０６号室,,13,114,1640001,,,,,,,2024-12-05,1,,,,,ビジュー,0
44,1011203004546,新規,0,2024-12-05,2024-12-05,合同会社ＵＧＣＢＡＮＫ,,合同会社,東京都,中野区,新井１丁目１６－１４ＣＩＣＡＤＡＮＡＫＡＮＯ２０３,,13,114,1650026,,,,,,,2024-12-05,1,,,,,ユージーシーバンク,0
47,1011401026623,新規,0,2024-12-05,2024-12-05,株式会社ノマドリ,,株式会社,東京都,板橋区,赤塚７丁目２６番７号,,13,119,1750092,,,,,,,2024-12-05,1,,,,,ノマドリ,0
48,1011403004569,新規,0,2024-12-05,2024-12-05,ＭＴＩ合同会社,,合同会社,東京都,板橋区,清水町９１番１－３２５号,,13,119,1740053,,,,,,,2024-12-05,1,,,,,エムティアイ,0
49,1011503006325,新規,0,2024-12-05,2024-12-05,合同会社忍,,合同会社,東京都,北区,十条台１丁目３番２０－６０４号,,13,117,1140033,,,,,,,2024-12-05,1,,,,,シノブ,0
56,1011803006586,新規,0,2024-12-05,2024-12-05,合同会社富栄商建,,合同会社,東京都,足立区,辰沼２丁目１２－２１,,13,121,1210054,,,,,,,2024-12-05,1,,,,,トミエイショウケン,0
59,1012303002076,新規,0,2024-12-05,2024-12-05,グラス・フィールズ合同会社,,合同会社,東京都,町田市,本町田３５９９番地４４,,13,209,1940032,,,,,,,2024-12-05,1,,,,,グラスフィールズ,0
60,1013101009577,新規,0,2024-12-05,2024-12-05,株式会社Ｙ＆Ｔフロンティア,,株式会社,東京都,青梅市,東青梅５丁目９番地１２,,13,205,1980042,,,,,,,2024-12-05,1,,,,,ワイアンドティフロンティア,0
61,1013301053466,新規,0,2024-12-05,2024-12-05,スキルラボ株式会社,,株式会社,東京都,豊島区,北大塚１丁目１４－６東京大塚ビル２階,,13,116,1700004,,,,,,,2024-12-05,1,,,,,スキルラボ,0
73,1020001160121,新規,0,2024-12-05,2024-12-05,ＭＡＥ＆Ｂｋ’ｓ　ＨＯＭＥ株式会社,,株式会社,神奈川県,横浜市鶴見区,佃野町３番１７号－１０３,,14,101,2300061,,,,,,,2024-12-05,1,,,,,メイエンドビケズホーム,0
75,1020003027392,新規,0,2024-12-05,2024-12-05,アーツ合同会社,,合同会社,神奈川県,横浜市都筑区,仲町台１丁目２４番２１号ＦｉｎｓＮｏｕｓ４０２,,14,118,2240041,,,,,,,2024-12-05,1,,,,,アーツ,0
76,1020003027401,新規,0,2024-12-05,2024-12-05,合同会社ＭＩＪＡ,,合同会社,神奈川県,横浜市南区,真金町２丁目２０番７号１階,,14,105,2320021,,,,,,,2024-12-05,1,,,,,ミジャ,0
84,1030001163775,新規,0,2024-12-05,2024-12-05,株式会社Ｈｉｎａｔａ,,株式会社,埼玉県,入間市,下藤沢３丁目１９番地１２モダンブルーノ１０２,,11,225,3580011,,,,,,,2024-12-05,1,,,,,ヒナタ,0
85,1030001163825,新規,0,2024-12-05,2024-12-05,株式会社諭工務店,,株式会社,埼玉県,鶴ヶ島市,大字太田ヶ谷７５９番地６,,11,241,3502214,,,,,,,2024-12-05,1,,,,,,0
86,1030001163833,新規,0,2024-12-05,2024-12-05,株式会社アールスター,,株式会社,埼玉県,三郷市,さつき平２丁目２番２－５０３号,,11,237,3410021,,,,,,,2024-12-05,1,,,,,アールスター,0
90,1030005021962,新規,0,2024-12-05,2024-12-05,一般財団法人弘道,,その他の設立登記法人,埼玉県,さいたま市大宮区,吉敷町４丁目２６２番地６すばる新都心内,,11,103,3300843,,,,,,,2024-12-05,1,,,,,コウドウ,0
94,1040001136391,新規,0,2024-12-05,2024-12-05,株式会社ＫＤＨ,,株式会社,千葉県,成田市,馬橋１番地１８－２Ｆ,,12,211,2860034,,,,,,,2024-12-05,1,,,,,ケーディーエイッチ,0
95,1040001136425,新規,0,2024-12-05,2024-12-05,株式会社Ｈ．Ｒ．Ｍコーポレーション,,株式会社,千葉県,船橋市,本町７丁目５番１号ＳＴビル１Ｆ,,12,204,2730005,,,,,,,2024-12-05,1,,,,,エイチアールエムコーポレーション,0
96,1040001136433,新規,0,2024-12-05,2024-12-05,株式会社エヌビジョン,,株式会社,千葉県,千葉市美浜区,中瀬２丁目６番地１,,12,106,2610023,,,,,,,2024-12-05,1,,,,,エヌビジョン,0
100,1040003026302,新規,0,2024-12-05,2024-12-05,Ｔ‐Ｃｏｒｐ合同会社,,合同会社,千葉県,浦安市,高洲４丁目３番１－１５１０号,,12,227,2790023,,,,,,,2024-12-05,1,,,,,ティーコープ,0
101,1040005022588,新規,0,2024-12-05,2024-12-05,特定非営利活動法人とある,,その他の設立登記法人,千葉県,松戸市,本町１７番１１号芹澤ビル６Ｆ,,12,207,2710091,,,,,,,2024-12-05,1,,,,,トアル,0
105,1050001055839,新規,0,2024-12-05,2024-12-05,株式会社フィルトラスト,,株式会社,茨城県,つくば市,要８２番地２コンフォートメゾン１０８号,,08,220,3002622,,,,,,,2024-12-05,1,,,,,フィルトラスト,0
106,1050001055847,新規,0,2024-12-05,2024-12-05,さかどびより株式会社,,株式会社,茨城県,水戸市,百合が丘町６番地の１１,,08,201,3111134,,,,,,,2024-12-05,1,,,,,サカドビヨリ,0
108,1050003008860,新規,0,2024-12-05,2024-12-05,合同会社ＡＣＥ,,合同会社,茨城県,鹿嶋市,大字佐田５５５番地‐３‐１０１号,,08,222,3140027,,,,,,,2024-12-05,1,,,,,エース,0
112,1070005010334,新規,0,2024-12-05,2024-12-05,一般社団法人群馬県ゴルフ協会,,その他の設立登記法人,群馬県,前橋市,大渡町１丁目１０番地７群馬県公社総合ビル８階,,10,201,3710854,,,,,,,2024-12-05,1,,,,,グンマケンゴルフキョウカイ,0
115,1080001026639,新規,0,2024-12-05,2024-12-05,株式会社Ｉｎｎｏｖａｔｅ　Ｌａｂ,,株式会社,静岡県,静岡市葵区,伝馬町１－２ホテルシティオ静岡３Ｆ,,22,101,4200858,,,,,,,2024-12-05,1,,,,,イノベートラボ,0
116,1080101025169,新規,0,2024-12-05,2024-12-05,株式会社一綜,,株式会社,静岡県,伊豆の国市,四日町３５７番地の５ヴィラメゾン時空庵１０３号,,22,225,4102123,,,,,,,2024-12-05,1,,,,,イッソウ,0
117,1080103003206,新規,0,2024-12-05,2024-12-05,Ｇｉｐａｎｇｏ合同会社,,合同会社,静岡県,伊東市,鎌田２８１―１３,,22,208,4140054,,,,,,,2024-12-05,1,,,,,ジパンゴ,0
134,1120001270645,新規,0,2024-12-05,2024-12-05,株式会社ｔｏｃｃａ,,株式会社,大阪府,大阪市浪速区,難波中３丁目９番３号ＲＥ－０２０,,27,111,5560011,,,,,,,2024-12-05,1,,,,,トッカ,0
135,1120001270752,新規,0,2024-12-05,2024-12-05,大衛家株式会社,,株式会社,大阪府,大阪市阿倍野区,阪南町５丁目１１－９,,27,119,5450021,,,,,,,2024-12-05,1,,,,,オオエイカ,0
136,1120001270819,新規,0,2024-12-05,2024-12-05,株式会社よねくら,,株式会社,大阪府,大阪市中央区,東心斎橋２丁目５番１１号,,27,128,5420083,,,,,,,2024-12-05,1,,,,,ヨネクラ,0
137,1120001270827,新規,0,2024-12-05,2024-12-05,ＲＯＰ株式会社,,株式会社,大阪府,大阪市北区,中津１丁目２番３号中津清風ビル５０１号,,27,127,5310071,,,,,,,2024-12-05,1,,,,,ロップ,0
138,1120001270851,新規,0,2024-12-05,2024-12-05,株式会社Ｅｔｏｌｕｃｅ　Ｊａｐａｎ,,株式会社,大阪府,大阪市北区,梅田１丁目２番２号大阪駅前第２ビル１２－１２,,27,127,5300001,,,,,,,2024-12-05,1,,,,,エトルーチェジャパン,0
144,1120003028100,新規,0,2024-12-05,2024-12-05,ＳＴＡＹＧＯＬＤ合同会社,,合同会社,大阪府,大阪市生野区,巽南２丁目５－１２,00137245,27,116,5440015,,,,,,,2024-12-05,1,,,,,ステイゴールド,0
145,1120003028125,新規,0,2024-12-05,2024-12-05,ＭＩＹＡＢＩ合同会社,,合同会社,大阪府,大阪市阿倍野区,北畠３丁目７番３６号,,27,119,5450035,,,,,,,2024-12-05,1,,,,,ミヤビ,0
148,1120101070697,新規,0,2024-12-05,2024-12-05,株式会社ＲＡＫＤＯＨ,,株式会社,大阪府,堺市西区,鳳東町６丁６８２番地１プレオール鳳５０８号,,27,144,5938324,,,,,,,2024-12-05,1,,,,,ラクドウ,0
152,1120903005438,新規,0,2024-12-05,2024-12-05,合同会社なちゅーる,,合同会社,大阪府,高槻市,上田辺町１番１－８０３号,,27,207,5690805,,,,,,,2024-12-05,1,,,,,ナチュール,0
155,1122001038717,新規,0,2024-12-05,2024-12-05,株式会社高田プラスト,00137243,株式会社,大阪府,八尾市,宮町３丁目４番３８号,,27,212,5810815,,,,,,,2024-12-05,1,,,,,タカダプラスト,0
161,1130001078484,新規,0,2024-12-05,2024-12-05,株式会社光陽電工,,株式会社,京都府,京都市南区,吉祥院東前田町９番地１,,26,107,6018342,,,,,,,2024-12-05,1,,,,,コウヨウデンコウ,0
162,1130001078518,新規,0,2024-12-05,2024-12-05,株式会社ＲＹＭ,,株式会社,京都府,京田辺市,大住池ノ端７１－６,,26,211,6100343,,,,,,,2024-12-05,1,,,,,アールワイエム,0
163,1130001078526,新規,0,2024-12-05,2024-12-05,株式会社きぃすとん助太刀サービス,,株式会社,京都府,長岡京市,金ケ原寿先６番地１,,26,209,6170856,,,,,,,2024-12-05,1,,,,,キィストンスケダチサービス,0
164,1130001078550,新規,0,2024-12-05,2024-12-05,株式会社ＯＳＡ,,株式会社,京都府,京都市右京区,嵯峨新宮町９番地２１,,26,108,6168355,,,,,,,2024-12-05,1,,,,,オーエスエイ,0
165,1130003010049,新規,0,2024-12-05,2024-12-05,合同会社Ｋ’ｓ．ｃｏ,,合同会社,京都府,木津川市,加茂町里南古田１００番地,,26,214,6191152,,,,,,,2024-12-05,1,,,,,ケイズドットシーオー,0
171,1140001136621,新規,0,2024-12-05,2024-12-05,株式会社シマドロボー,,株式会社,兵庫県,南あわじ市,八木新庄４４７番地１,,28,224,6560436,,,,,,,2024-12-05,1,,,,,シマドロボー,0
172,1140001136638,新規,0,2024-12-05,2024-12-05,無風国際株式会社,,株式会社,兵庫県,神戸市中央区,港島中町３丁目１番地２神戸ポートビレジ南棟１階１７号室,,28,110,6500046,,,,,,,2024-12-05,1,,,,,ムフウコクサイ,0
173,1140001136646,新規,0,2024-12-05,2024-12-05,株式会社ＭＩＮＡ兵庫,,株式会社,兵庫県,明石市,大久保町谷八木１１２３－１,,28,203,6740062,,,,,,,2024-12-05,1,,,,,ミーナヒョウゴ,0
174,1140001136654,新規,0,2024-12-05,2024-12-05,株式会社からあげ,,株式会社,兵庫県,尼崎市,塚口本町１丁目３１番３号,,28,202,6610001,,,,,,,2024-12-05,1,,,,,カラアゲ,0
181,1140003021383,新規,0,2024-12-05,2024-12-05,合同会社ＲＥＦＡＲＭＡ,,合同会社,兵庫県,姫路市,西二階町４１,,28,201,6700901,,,,,,,2024-12-05,1,,,,,リファーマ,0
192,1180001164429,新規,0,2024-12-05,2024-12-05,株式会社インセプション,,株式会社,愛知県,一宮市,大和町戸塚字東浦７６番地６,,23,203,4910927,,,,,,,2024-12-05,1,,,,,インセプション,0
193,1180305009627,新規,0,2024-12-05,2024-12-05,アジアテクノ協同組合,,その他の設立登記法人,愛知県,蒲郡市,御幸町２０番１１号,,23,214,4430042,,,,,,,2024-12-05,1,,,,,アジアテクノ,0
194,1190001031850,新規,0,2024-12-05,2024-12-05,株式会社やまいそ,,株式会社,三重県,鈴鹿市,白子町１４８７番地の１,,24,207,5100244,,,,,,,2024-12-05,1,,,,,ヤマイソ,0
204,1280003001900,新規,0,2024-12-05,2024-12-05,梅田屋合同会社,,合同会社,島根県,浜田市,吉地町イ１４４番地,,32,202,6971325,,,,,,,2024-12-05,1,,,,,ウメダヤ,0
214,1310001019354,新規,0,2024-12-05,2024-12-05,高山金属株式会社,,株式会社,長崎県,西海市,西海町七釜郷６３３番地２７,,42,212,8572223,,,,,,,2024-12-05,1,,,,,タカヤマキンゾク,0
216,1320001020848,新規,0,2024-12-05,2024-12-05,株式会社信美企画,,株式会社,大分県,大分市,大字松岡字外原８０３０番地,,44,201,8700125,,,,,,,2024-12-05,1,,,,,シンビキカク,0
220,1330001032719,新規,0,2024-12-05,2024-12-05,株式会社ＪＴＥＸ熊本,,株式会社,熊本県,宇城市,不知火町御領２６１番地１４,,43,213,8690551,,,,,,,2024-12-05,1,,,,,ジェイテックスクマモト,0
223,1340001026975,新規,0,2024-12-05,2024-12-05,株式会社ＩＲＩＳ,,株式会社,鹿児島県,奄美市,名瀬柳町１１－５－１Ｆ,,46,222,8940032,,,,,,,2024-12-05,1,,,,,アイリス,0
224,1340001026983,新規,0,2024-12-05,2024-12-05,株式会社Ｎｅｘｔ,,株式会社,鹿児島県,鹿児島市,東開町２番５号鹿児島食品雑貨流通センター内,,46,201,8910115,,,,,,,2024-12-05,1,,,,,ネクスト,0
230,1360001034514,新規,0,2024-12-05,2024-12-05,株式会社Ｓｔｒａｗｂｅｒｒｙ　Ｆｉｅｌｄｓ,,株式会社,沖縄県,国頭郡金武町,字屋嘉２７４０番地プレミアムコート金武屋嘉１００７号,,47,314,9041203,,,,,,,2024-12-05,1,,,,,ストロベリーフィールズ,0
231,1360005007136,新規,0,2024-12-05,2024-12-05,一般社団法人カルバリーチャペル読谷,,その他の設立登記法人,沖縄県,中頭郡読谷村,字喜納４５８番地３Ｒ５８喜納店舗Ｄ,,47,324,9040300,,,,,,,2024-12-05,1,,,,,カルバリーチャペルヨミタン,0
238,1390001017813,新規,0,2024-12-05,2024-12-05,株式会社ジオフラット,,株式会社,山形県,西置賜郡白鷹町,大字荒砥乙１０１４番地,,06,402,9920832,,,,,,,2024-12-05,1,,,,,ジオフラット,0
246,1430001093214,新規,0,2024-12-05,2024-12-05,株式会社ホームプラス,,株式会社,北海道,札幌市東区,北三十三条東６丁目２番２６－Ｃ号,,01,103,0650033,,,,,,,2024-12-05,1,,,,,ホームプラス,0
250,1460103001666,新規,0,2024-12-05,2024-12-05,ティーウェーブ合同会社,,合同会社,北海道,中川郡本別町,北６丁目２番地２３,,01,646,0893334,,,,,,,2024-12-05,1,,,,,ティーウェーブ,0
254,1500001026026,新規,0,2024-12-05,2024-12-05,株式会社フリーク,,株式会社,愛媛県,松山市,東方町甲１４３８番地１,,38,201,7911123,,,,,,,2024-12-05,1,,,,,フリーク,0
256,1700150128057,新規,0,2024-12-05,2024-12-05,ＨＤ韓国造船海洋株式会社,,外国会社等,東京都,千代田区,有楽町１丁目７番１号,,13,101,1000006,大韓民国京畿道城南市盆唐区盆唐水西路４７７（亭子洞）,,,,,,2024-12-05,1,,,,,エイチデイーカンコクゾウセンカイヨウカブシキガイシヤ,0
267,2010001250434,新規,0,2024-12-05,2024-12-05,株式会社ＰＯＰＰＯ,,株式会社,東京都,中央区,日本橋蛎殻町２丁目１１番３号,,13,102,1030014,,,,,,,2024-12-05,1,,,,,ポッポ,0
268,2010001250491,新規,0,2024-12-05,2024-12-05,株式会社公務員転職．ｃｏｍ,,株式会社,東京都,千代田区,四番町２番地１クレール東郷坂１Ｆ,,13,101,1020081,,,,,,,2024-12-05,1,,,,,コウムインテンショクドットコム,0
272,2010005039205,新規,0,2024-12-05,2024-12-05,一般社団法人ＢＳファイン総合研究所,,その他の設立登記法人,東京都,中央区,銀座５丁目１２番５号,,13,102,1040061,,,,,,,2024-12-05,1,,,,,ビーエスファインソウゴウケンキュウショ,0
279,2010503007654,新規,0,2024-12-05,2024-12-05,合同会社ＭＯＡ,,合同会社,東京都,台東区,松が谷４丁目５番５ー３０１号レフィーズ上野,,13,106,1110036,,,,,,,2024-12-05,1,,,,,モア,0
282,2010801035646,新規,0,2024-12-05,2024-12-05,株式会社エム,,株式会社,東京都,大田区,矢口２丁目１番２０－８１１号,,13,111,1460093,,,,,,,2024-12-05,1,,,,,エム,0
289,2011001166133,新規,0,2024-12-05,2024-12-05,株式会社ＨＡＮＡ,,株式会社,東京都,渋谷区,神宮前２丁目２８番９号エルオフィス神宮前１０１,,13,113,1500001,,,,,,,2024-12-05,1,,,,,ハナ,0
290,2011001166141,新規,0,2024-12-05,2024-12-05,株式会社Ｌ＆Ｄ,,株式会社,東京都,目黒区,青葉台３丁目１４番６－１０３号ピアース目黒青葉台,,13,110,1530042,,,,,,,2024-12-05,1,,,,,エルアンドディー,0
294,2011101109801,新規,0,2024-12-05,2024-12-05,株式会社ｎｏｂｉｓｈｉｒｏ,,株式会社,東京都,新宿区,西新宿３丁目３番１３号西新宿水間ビル２Ｆ,,13,104,1600023,,,,,,,2024-12-05,1,,,,,ノビシロ,0
295,2011101109818,新規,0,2024-12-05,2024-12-05,株式会社Ｏｌｉｖｅｒ,,株式会社,東京都,新宿区,歌舞伎町２丁目４２番１１号カーサ新宿５Ｆ,,13,104,1600021,,,,,,,2024-12-05,1,,,,,オリバー,0
296,2011103015254,新規,0,2024-12-05,2024-12-05,合同会社ＳＳホールディングス,,合同会社,東京都,新宿区,舟町１番地１８,,13,104,1600006,,,,,,,2024-12-05,1,,,,,エスエスホールディングス,0
297,2011103015270,新規,0,2024-12-05,2024-12-05,ＳＨＲＥＥ　ＬＡＸＭＩ合同会社,,合同会社,東京都,新宿区,山吹町２９６番地コーポ山吹４０５,,13,104,1620801,,,,,,,2024-12-05,1,,,,,シリラクシミ,0
302,2011401026630,新規,0,2024-12-05,2024-12-05,ファーストリング株式会社,,株式会社,東京都,板橋区,西台１丁目３６番１２号,,13,119,1740045,,,,,,,2024-12-05,1,,,,,ファーストリング,0
310,2011801045271,新規,0,2024-12-05,2024-12-05,佳運株式会社,,株式会社,東京都,葛飾区,西新小岩５丁目２８番２０号,,13,122,1240025,,,,,,,2024-12-05,1,,,,,カウン,0
311,2011803006585,新規,0,2024-12-05,2024-12-05,Ｒｅ　Ｗｏｒｋｓ合同会社,,合同会社,東京都,足立区,花畑３丁目３４番２１号リブレス足立花畑１０１号室,,13,121,1210061,,,,,,,2024-12-05,1,,,,,リワークス,0
314,2012401042535,新規,0,2024-12-05,2024-12-05,株式会社グレート,,株式会社,東京都,武蔵野市,吉祥寺本町２丁目４番１８号,,13,203,1800004,,,,,,,2024-12-05,1,,,,,グレート,0
315,2012401042543,新規,0,2024-12-05,2024-12-05,ＳＨＯＭＡ株式会社,,株式会社,東京都,三鷹市,下連雀３丁目２７番１号,,13,204,1810013,,,,,,,2024-12-05,1,,,,,ショーマ,0
318,2013305003672,新規,0,2024-12-05,2024-12-05,一般社団法人笑顔の会,,その他の設立登記法人,東京都,豊島区,池袋３丁目３４番７号ビジネスパーク池袋,,13,116,1710014,,,,,,,2024-12-05,1,,,,,エガオノカイ,0
323,2020001160475,新規,0,2024-12-05,2024-12-05,株式会社ＳＨＯＮＡＮ　ＲＯＡＤ,,株式会社,神奈川県,横浜市戸塚区,東俣野町７２番地３,,14,110,2450065,,,,,,,2024-12-05,1,,,,,ショウナンロード,0
324,2020003027367,新規,0,2024-12-05,2024-12-05,合同会社ＨＡＳＵＩＦＵＮＤ,,合同会社,神奈川県,横浜市中区,北仲通５丁目５７番地２ザ・タワー横浜北仲４２１６号室,,14,104,2310003,,,,,,,2024-12-05,1,,,,,ハスイファンド,0
325,2020003027391,新規,0,2024-12-05,2024-12-05,Ｑｕｉｎｔｏ合同会社,,合同会社,神奈川県,川崎市中原区,新丸子東３丁目１１１１番地１レジデンス・ザ・武蔵小杉２０４,,14,133,2110004,,,,,,,2024-12-05,1,,,,,クイント,0
326,2020003027400,新規,0,2024-12-05,2024-12-05,合同会社ｅｋｏコーポレーション,,合同会社,神奈川県,横浜市中区,山手町２２２－１３,,14,104,2310862,,,,,,,2024-12-05,1,,,,,エココーポレーション,0
332,2021003015312,新規,0,2024-12-05,2024-12-05,合同会社ＨＩＥＮＯ,,合同会社,神奈川県,藤沢市,本鵠沼１丁目１８番９号,,14,205,2510028,,,,,,,2024-12-05,1,,,,,ヒエノ,0
341,2030003025634,新規,0,2024-12-05,2024-12-05,ときわ訪問介護ステーション合同会社,,合同会社,埼玉県,幸手市,大字西関宿３２８番地５,,11,240,3400131,,,,,,,2024-12-05,1,,,,,トキワホウモンカンゴステーション,0
342,2040001136408,新規,0,2024-12-05,2024-12-05,株式会社ＲｅＳｈｉｎｅ,,株式会社,千葉県,安房郡鋸南町,下佐久間２４７８番地３,,12,463,2992115,,,,,,,2024-12-05,1,,,,,アールイーシャイン,0
344,2050001055846,新規,0,2024-12-05,2024-12-05,鹿嶋水産株式会社,,株式会社,茨城県,神栖市,横瀬１１５９番地,,08,232,3140113,,,,,,,2024-12-05,1,,,,,カシマスイサン,0
345,2050003008868,新規,0,2024-12-05,2024-12-05,合同会社沖崎リサーチ＆アドバイザリー,,合同会社,茨城県,守谷市,松並青葉１丁目１７番地３,,08,224,3020132,,,,,,,2024-12-05,1,,,,,オキザキリサーチアンドアドバイザリー,0
347,2060001037711,新規,0,2024-12-05,2024-12-05,株式会社フリート,,株式会社,栃木県,河内郡上三川町,大字多功５５９番地,,09,301,3290524,,,,,,,2024-12-05,1,,,,,フリート,0
348,2060003005352,新規,0,2024-12-05,2024-12-05,ＧＥＡＲ＆ＧＬＯＲＹ　ＭＯＴＯＲ合同会社,,合同会社,栃木県,足利市,小俣町４５４番地１１－１０２号,,09,202,3260141,,,,,,,2024-12-05,1,,,,,ギアアンドグローリーモーター,0
358,2110005017159,新規,0,2024-12-05,2024-12-05,特定非営利活動法人生糧‐ｉｋｉｒｕｋａｔｅ,,その他の設立登記法人,新潟県,新潟市中央区,姥ケ山４丁目１２番２２号,,15,103,9500923,,,,,,,2024-12-05,1,,,,,イキルカテ,0
367,2120001270784,新規,0,2024-12-05,2024-12-05,Ｅｌｅ‐Ｆｕｔｕｒｅ　Ｔｅｃｈ株式会社,,株式会社,大阪府,大阪市阿倍野区,阿倍野筋１丁目１番４３－３１０１号,,27,119,5450052,,,,,,,2024-12-05,1,,,,,エレフューチャーテック,0
368,2120001270801,新規,0,2024-12-05,2024-12-05,株式会社ムーンライト,,株式会社,大阪府,大阪市浪速区,桜川２丁目１０番２０－５０５号,,27,111,5560022,,,,,,,2024-12-05,1,,,,,ムーンライト,0
369,2120001270850,新規,0,2024-12-05,2024-12-05,株式会社ワークル,,株式会社,大阪府,大阪市中央区,南船場１丁目６－８,,27,128,5420081,,,,,,,2024-12-05,1,,,,,ワークル,0
370,2120001270875,新規,0,2024-12-05,2024-12-05,株式会社ＳｐｒｉｎｇＨｏｍｅ,,株式会社,大阪府,大阪市中央区,北新町４番１号,,27,128,5400023,,,,,,,2024-12-05,1,,,,,スプリングホーム,0
371,2120001270900,新規,0,2024-12-05,2024-12-05,大光株式会社,,株式会社,大阪府,大阪市東淀川区,豊里２丁目１１番５８号木元ハイツ４０２号,,27,114,5330013,,,,,,,2024-12-05,1,,,,,ダイミツ,0
373,2120101070696,新規,0,2024-12-05,2024-12-05,株式会社タカテック,,株式会社,大阪府,堺市西区,津久野町３丁２７番４３－２０２号,,27,144,5938322,,,,,,,2024-12-05,1,,,,,タカテック,0
374,2120101070705,新規,0,2024-12-05,2024-12-05,株式会社晴空管工,,株式会社,大阪府,富田林市,若松町２丁目６番８号,,27,214,5840024,,,,,,,2024-12-05,1,,,,,セイクウカンコウ,0
382,2122001038708,新規,0,2024-12-05,2024-12-05,株式会社ＪＩＮＧＩ,,株式会社,大阪府,八尾市,跡部本町２丁目２番３号,,27,212,5810064,,,,,,,2024-12-05,1,,,,,ジンギ,0
383,2122001038716,新規,0,2024-12-05,2024-12-05,エネルギーライフサポート株式会社,,株式会社,大阪府,東大阪市,長田東３丁目２番４３号長田ＳＫパークビル,,27,227,5770012,,,,,,,2024-12-05,1,,,,,エネルギーライフサポート,0
384,2122001038724,新規,0,2024-12-05,2024-12-05,株式会社天照園,,株式会社,大阪府,東大阪市,横枕西５番６号,,27,227,5780956,,,,,,,2024-12-05,1,,,,,テンショウエン,0
386,2122003003049,新規,0,2024-12-05,2024-12-05,Ｊａｐａｎ　Ｍａｒｋｅｔ　Ｅｘｐｅｒｔｓ合同会社,,合同会社,大阪府,四條畷市,田原台８丁目２４－２０,,27,229,5750013,,,,,,,2024-12-05,1,,,,,ジャパンマーケットエクスパート,0
388,2130001078483,新規,0,2024-12-05,2024-12-05,Ｃｒｏｓｓｌｉｎｋｓ株式会社,,株式会社,京都府,京都市上京区,釜座通丸太町上る夷川町３８０番地２シュワルベ６０５号室,,26,102,6028032,,,,,,,2024-12-05,1,,,,,クロスリンクス,0
389,2130001078500,新規,0,2024-12-05,2024-12-05,株式会社ＢｅＬ,,株式会社,京都府,長岡京市,天神１丁目３番２５号ロワール１Ｆ－Ａ,,26,209,6170824,,,,,,,2024-12-05,1,,,,,ベル,0
390,2130001078509,新規,0,2024-12-05,2024-12-05,株式会社レックス,,株式会社,京都府,京都市上京区,一条通御前通西入３丁目西町２３番地の６,,26,102,6028374,,,,,,,2024-12-05,1,,,,,レックス,0
396,2140001136620,新規,0,2024-12-05,2024-12-05,株式会社世界一分かりやすい繁盛店の作り方,,株式会社,兵庫県,南あわじ市,八木新庄４４７番地１,,28,224,6560436,,,,,,,2024-12-05,1,,,,,セカイイチワカリヤスイハンジョウテンノツクリカタ,0
397,2140001136629,新規,0,2024-12-05,2024-12-05,シュテリエ株式会社,,株式会社,兵庫県,神戸市須磨区,大田町２丁目４番２号,,28,107,6540024,,,,,,,2024-12-05,1,,,,,シュテリエ,0
398,2140001136645,新規,0,2024-12-05,2024-12-05,株式会社ＭＩＮＡ姫路,,株式会社,兵庫県,姫路市,西中島４３３－１７,,28,201,6700805,,,,,,,2024-12-05,1,,,,,ミーナヒメジ,0
399,2140001136653,新規,0,2024-12-05,2024-12-05,株式会社ＹＲＭ,,株式会社,兵庫県,尼崎市,南清水２９番２８号ネオヴェール９７－１０１,,28,202,6610985,,,,,,,2024-12-05,1,,,,,ワイアールエム,0
400,2140001136661,新規,0,2024-12-05,2024-12-05,株式会社グラウンドファイブ,,株式会社,兵庫県,神戸市西区,平野町芝崎３３１－２,,28,111,6512254,,,,,,,2024-12-05,1,,,,,グラウンドファイブ,0
402,2140003021390,新規,0,2024-12-05,2024-12-05,フリーステリア合同会社,,合同会社,兵庫県,西宮市,下葭原町３－８－５０６,,28,204,6620956,,,,,,,2024-12-05,1,,,,,フリーステリア,0
406,2160001026398,新規,0,2024-12-05,2024-12-05,株式会社Ｄ．Ｏ．Ｍ,,株式会社,滋賀県,栗東市,手原７丁目４番３－５０１号,,25,208,5203047,,,,,,,2024-12-05,1,,,,,ディーオーエム,0
407,2180001164444,新規,0,2024-12-05,2024-12-05,株式会社エルセド,,株式会社,愛知県,名古屋市東区,泉２丁目１２番１１号,,23,102,4610001,,,,,,,2024-12-05,1,,,,,エルセド,0
408,2180001164452,新規,0,2024-12-05,2024-12-05,株式会社ＥＳＳ,,株式会社,愛知県,名古屋市昭和区,広路本町６丁目２３－１サンレジデンス広路２０２,,23,107,4660841,,,,,,,2024-12-05,1,,,,,イーエスエス,0
414,2180003027698,新規,0,2024-12-05,2024-12-05,合同会社ＤＬｅａｒｎｉｎｇ,,合同会社,愛知県,名古屋市中村区,大宮町３丁目１２番地リヴィアン大宮Ｉ－５,,23,105,4530821,,,,,,,2024-12-05,1,,,,,ディーラーニング,0
416,2190001031841,新規,0,2024-12-05,2024-12-05,よっかいちクリーンエネルギー株式会社,,株式会社,三重県,四日市市,栄町３番８号,,24,202,5100084,,,,,,,2024-12-05,1,,,,,ヨッカイチクリーンエネルギー,0
417,2190001031858,新規,0,2024-12-05,2024-12-05,株式会社カーエル,,株式会社,三重県,桑名市,大字東方１８５５番地１,,24,205,5110811,,,,,,,2024-12-05,1,,,,,カーエル,0
420,2210001019990,新規,0,2024-12-05,2024-12-05,株式会社全力,,株式会社,福井県,福井市,大和田２丁目５１１番地ＦＵＫＵビル２Ｅ,,18,201,9100836,,,,,,,2024-12-05,1,,,,,ゼンリョク,0
426,2240001064217,新規,0,2024-12-05,2024-12-05,Ｔｓｕｂａｍｅ　ＨＤ株式会社,,株式会社,広島県,広島市東区,牛田本町４丁目５番１０号,,34,102,7320066,,,,,,,2024-12-05,1,,,,,ツバメエイチディ,0
427,2240001064225,新規,0,2024-12-05,2024-12-05,株式会社ふれねる,,株式会社,広島県,広島市中区,大手町５丁目７番２号,,34,101,7300051,,,,,,,2024-12-05,1,,,,,フレネル,0
428,2240003006968,新規,0,2024-12-05,2024-12-05,元町合同会社,,合同会社,広島県,広島市東区,矢賀新町５丁目３番２５号,,34,102,7320044,,,,,,,2024-12-05,1,,,,,モトマチ,0
433,2260003004986,新規,0,2024-12-05,2024-12-05,Ｐａｒｓ　Ａｓｓｅｔ合同会社,,合同会社,岡山県,倉敷市,吉岡３８８番地１３,,33,202,7100842,,,,,,,2024-12-05,1,,,,,パースアセット,0
436,2260005011428,新規,0,2024-12-05,2024-12-05,一般社団法人フルールａｎｄパレット,,その他の設立登記法人,岡山県,倉敷市,二子１５１９番地２,,33,202,7010115,,,,,,,2024-12-05,1,,,,,フルールアンドパレット,0
442,2290802010711,新規,0,2024-12-05,2024-12-05,瀬戸内産業有限会社,,有限会社,広島県,安芸郡府中町,浜田１丁目６番２４－２０５号,,34,302,7350013,,,,,,,2024-12-05,1,,,,,セトウチサンギョウ,0
448,2340001026974,新規,0,2024-12-05,2024-12-05,株式会社一心に結希,,株式会社,鹿児島県,大島郡和泊町,大字国頭１２８５番地１,,46,533,8919101,,,,,,,2024-12-05,1,,,,,イッシンニユウキ,0
451,2360001034505,新規,0,2024-12-05,2024-12-05,株式会社言葉にならない,,株式会社,沖縄県,名護市,字真喜屋１１３番地,,47,209,9051143,,,,,,,2024-12-05,1,,,,,コトバニナラナイ,0
452,2360001034521,新規,0,2024-12-05,2024-12-05,株式会社Ｌｙｎｘ,,株式会社,沖縄県,那覇市,牧志２丁目１７－２７－４０１,,47,201,9000013,,,,,,,2024-12-05,1,,,,,リンクス,0
453,2370001052002,新規,0,2024-12-05,2024-12-05,ＰＷＤｓ　ＪＡＰＡＮ株式会社,,株式会社,宮城県,仙台市宮城野区,榴岡１丁目１番１号ＪＲ仙台イーストゲートビル６階,,04,102,9830852,,,,,,,2024-12-05,1,,,,,ピーダブルディーズジャパン,0
457,2380001034957,新規,0,2024-12-05,2024-12-05,ワイズサービス株式会社,,株式会社,福島県,いわき市,遠野町上根本字前田５２番地,,07,204,9720252,,,,,,,2024-12-05,1,,,,,ワイズサービス,0
461,2420003003030,新規,0,2024-12-05,2024-12-05,合同会社豊川酒店,,合同会社,青森県,三戸郡三戸町,大字六日町４０番地２,,02,441,0390144,,,,,,,2024-12-05,1,,,,,トヨカワサケテン,0
463,2430001093188,新規,0,2024-12-05,2024-12-05,ジェーエルホールディングス株式会社,,株式会社,北海道,虻田郡倶知安町,北四条西３丁目３番地４,,01,400,0440054,,,,,,,2024-12-05,1,,,,,ジェーエルホールディングス,0
464,2430001093213,新規,0,2024-12-05,2024-12-05,株式会社Ｏｒｙｚａ　Ｌａｂｏ,,株式会社,北海道,札幌市豊平区,福住三条９丁目４番２２号,,01,105,0620043,,,,,,,2024-12-05,1,,,,,オリザラボ,0
472,2480001012671,新規,0,2024-12-05,2024-12-05,株式会社ＡＷＡＫＥＮ,,株式会社,徳島県,阿波市,市場町香美字住吉本１６４番地１,,36,206,7711610,,,,,,,2024-12-05,1,,,,,アワケン,0
474,2500001026025,新規,0,2024-12-05,2024-12-05,株式会社ミライズ,,株式会社,愛媛県,松山市,北条辻２６７番地５,00137254,38,201,7992430,,,,,,,2024-12-05,1,,,,,ミライズ,0
478,2700150127966,新規,0,2024-12-05,2024-12-05,ｇｕａｎｇｚｈｏｕｌｉｎａｎｚｈｉｙｕａｎｓｈａｎｇｍａｏｙｏｕｘｉａｎｇｏｎｇｓｉ,,外国会社等,,,,,,,,ｔｉａｎｈｅｑｕｈｕａｇｕａｎｌｕ１９３３ｈａｏｚｈｉｅｒ，２０３ｆａｎｇＤ１５６（ｊｉｎｘｉａｎｂａｎｇｏｎｇ），ｇｕａｎｇｚｙｏｕ，ｇｕａｎｇｄｏｎｇ，５１００００　Ｃｈｉｎａ,,,,,,2024-12-05,1,,,,,コウシユウリツナンチエンシヨウボウユウゲンコウシ,0
479,2700150128056,新規,0,2024-12-05,2024-12-05,ＴＯＲＯＮＴＯ　ＭＯＴＯＲＳ　ＰＶＴ　ＬＴＤ,,外国会社等,千葉県,東金市,下武射田２７０６番地３－１,,12,213,2830012,スリランカ民主社会主義共和国、キャンディ、アクラナ、マタレロード、Ｎｏ．５１,,,,,,2024-12-05,1,,,,,トロントモータースプライベートリミテツド,0
491,3010001250524,新規,0,2024-12-05,2024-12-05,ＫＪＩホールディングス株式会社,,株式会社,東京都,千代田区,紀尾井町４番１号ニューオータニガーデンコート１９階,,13,101,1020094,,,,,,,2024-12-05,1,,,,,ケイジェーアイホールディングス,0
496,3010005039229,新規,0,2024-12-05,2024-12-05,一般社団法人Ｐａｒｋ　Ｌｉｎｅ推進協議会,,その他の設立登記法人,東京都,千代田区,神田錦町３丁目２２番地,,13,101,1010054,,,,,,,2024-12-05,1,,,,,パークラインスイシンキョウギカイ,0
497,3010005039237,新規,0,2024-12-05,2024-12-05,アストロ２ゼロ一般社団法人,,その他の設立登記法人,東京都,中央区,銀座１丁目６番１１号アースタックス税理士法人内,,13,102,1040061,,,,,,,2024-12-05,1,,,,,アストロツーゼロ,0
504,3010501053278,新規,0,2024-12-05,2024-12-05,株式会社Ｎｉｃｏ,,株式会社,東京都,台東区,東上野４丁目２６番７号三和ビル２Ｆ,,13,106,1100015,,,,,,,2024-12-05,1,,,,,ニコ,0
506,3010701046932,新規,0,2024-12-05,2024-12-05,株式会社野村管理,,株式会社,東京都,品川区,東五反田５丁目２７番１０号,,13,109,1410022,,,,,,,2024-12-05,1,,,,,ノムラカンリ,0
507,3010701046940,新規,0,2024-12-05,2024-12-05,株式会社東和,,株式会社,東京都,品川区,上大崎２丁目２４番１９号,,13,109,1410021,,,,,,,2024-12-05,1,,,,,トウワ,0
509,3010803005191,新規,0,2024-12-05,2024-12-05,Ｇｅｎｅｒａｌ　Ｃａｒｅ合同会社,,合同会社,東京都,大田区,西馬込１丁目１９番１２－８０１号,,13,111,1430026,,,,,,,2024-12-05,1,,,,,ジェネラルケア,0
512,3010901056434,新規,0,2024-12-05,2024-12-05,株式会社ダンスフォールド,,株式会社,東京都,世田谷区,代田１丁目１７番１０号,,13,112,1550033,,,,,,,2024-12-05,1,,,,,ダンスフォールド,0
513,3010901056442,新規,0,2024-12-05,2024-12-05,ＭＩＴ’ｓコーポレーション株式会社,,株式会社,東京都,世田谷区,野毛３丁目２１番１８－３１２号,,13,112,1580092,,,,,,,2024-12-05,1,,,,,ミツコーポレーション,0
514,3010903009547,新規,0,2024-12-05,2024-12-05,合同会社ｌｅａ,,合同会社,東京都,世田谷区,玉川３丁目２０番１１号マノア玉川第１・２０３,,13,112,1580094,,,,,,,2024-12-05,1,,,,,レア,0
515,3011001166198,新規,0,2024-12-05,2024-12-05,Ｃ＆Ｔミライズ株式会社,,株式会社,東京都,目黒区,下目黒２丁目１７番１８号４階,,13,110,1530064,,,,,,,2024-12-05,1,,,,,シーアンドティーミライズ,0
518,3011003020485,新規,0,2024-12-05,2024-12-05,ＤＯＬＣＥ合同会社,,合同会社,東京都,目黒区,目黒本町２丁目２２番５号,,13,110,1520002,,,,,,,2024-12-05,1,,,,,ドルチェ,0
522,3011101109817,新規,0,2024-12-05,2024-12-05,ネオランド株式会社,,株式会社,東京都,新宿区,西新宿３丁目３番１３号西新宿水間ビル６Ｆ,,13,104,1600023,,,,,,,2024-12-05,1,,,,,ネオランド,0
523,3011101109825,新規,0,2024-12-05,2024-12-05,株式会社ＭＯＳＳ,,株式会社,東京都,新宿区,新宿１丁目３６－２新宿第七葉山ビル３Ｆ,,13,104,1600022,,,,,,,2024-12-05,1,,,,,モス,0
525,3011103015253,新規,0,2024-12-05,2024-12-05,ＢＨＦ合同会社,,合同会社,東京都,新宿区,西新宿３丁目３番１３号西新宿水間ビル２Ｆ,,13,104,1600023,,,,,,,2024-12-05,1,,,,,ビーエイチエフ,0
528,3011301030211,新規,0,2024-12-05,2024-12-05,株式会社ＬＩＢ,,株式会社,東京都,杉並区,高井戸西２丁目１０番９号ノースメインビル３０５,,13,115,1680071,,,,,,,2024-12-05,1,,,,,リブ,0
531,3011401026621,新規,0,2024-12-05,2024-12-05,株式会社ＪＣＰ,,株式会社,東京都,板橋区,大山金井町５３番４－２０１号室,,13,119,1730024,,,,,,,2024-12-05,1,,,,,ジェイシーピー,0
538,3011701027880,新規,0,2024-12-05,2024-12-05,株式会社ＳｔａｙＧｏｌｄ,,株式会社,東京都,江戸川区,西葛西７丁目７番１号,,13,123,1340088,,,,,,,2024-12-05,1,,,,,ステイゴールド,0
540,3011801045262,新規,0,2024-12-05,2024-12-05,株式会社Ｔ．Ｏ．Ｐ,,株式会社,東京都,足立区,六町２丁目６番４号,,13,121,1210073,,,,,,,2024-12-05,1,,,,,ティードットオードットピー,0
556,3020001160383,新規,0,2024-12-05,2024-12-05,アールズホーム株式会社,,株式会社,神奈川県,横浜市戸塚区,戸塚町２１５３番地２６,,14,110,2440003,,,,,,,2024-12-05,1,,,,,アールズホーム,0
557,3020001160400,新規,0,2024-12-05,2024-12-05,快晴土木株式会社,,株式会社,神奈川県,横浜市南区,永田山王台３９番２０号－１０５,,14,105,2320074,,,,,,,2024-12-05,1,,,,,カイセイドボク,0
558,3020001160441,新規,0,2024-12-05,2024-12-05,株式会社ディエイチエム,,株式会社,神奈川県,川崎市麻生区,千代ケ丘５丁目１番地２４,,14,137,2150005,,,,,,,2024-12-05,1,,,,,ディエイチエム,0
565,3020003027358,新規,0,2024-12-05,2024-12-05,Ｄｅｌｕｓｉｏｎ　Ｌａｂ合同会社,,合同会社,神奈川県,川崎市宮前区,宮崎１丁目９番地１宮崎台ビューグリーン７０１号,,14,136,2160033,,,,,,,2024-12-05,1,,,,,デリュージョンラボ,0
568,3020005016623,新規,0,2024-12-05,2024-12-05,一般社団法人横浜個人事業主連合,,その他の設立登記法人,神奈川県,横浜市青葉区,あざみ野４丁目２８番地５０,,14,117,2250011,,,,,,,2024-12-05,1,,,,,ヨコハマコジンジギョウヌシレンゴウ,0
577,3021003015311,新規,0,2024-12-05,2024-12-05,鷲月合同会社,,合同会社,神奈川県,座間市,立野台３丁目６－１１－３０３ハイム立野,,14,216,2520023,,,,,,,2024-12-05,1,,,,,ワシヅキ,0
581,3030001163757,新規,0,2024-12-05,2024-12-05,旭昇株式会社,,株式会社,埼玉県,川口市,上青木１丁目１９番１０号,,11,203,3330844,,,,,,,2024-12-05,1,,,,,キョクショウ,0
584,3030003025567,新規,0,2024-12-05,2024-12-05,合同会社アリス,,合同会社,埼玉県,川越市,砂新田４丁目８－１－第ＩＩフラワーコーポ２０２,00137240,11,201,3501137,,,,,,,2024-12-05,1,,,,,アリス,0
585,3040001136398,新規,0,2024-12-05,2024-12-05,株式会社サンピュアテック,,株式会社,千葉県,千葉市稲毛区,小仲台１丁目４番１号アイ・プレイス稲毛１棟４１０号,,12,103,2630043,,,,,,,2024-12-05,1,,,,,サンピュアテック,0
586,3040001136423,新規,0,2024-12-05,2024-12-05,株式会社スズキシール,,株式会社,千葉県,流山市,南流山３丁目１０番地の８ダイヤモンドクレスト南流山１階４号室,,12,220,2700163,,,,,,,2024-12-05,1,,,,,スズキシール,0
587,3040001136431,新規,0,2024-12-05,2024-12-05,株式会社防音ラボ,,株式会社,千葉県,山武郡横芝光町,横芝２０４１－１－２０５,,12,410,2891732,,,,,,,2024-12-05,1,,,,,ボウオンラボ,0
589,3040003026309,新規,0,2024-12-05,2024-12-05,合同会社ＡＳＣＲＥＳＴ,,合同会社,千葉県,市川市,宮久保１丁目９番１－４１８号,,12,203,2720822,,,,,,,2024-12-05,1,,,,,アスクレスト,0
591,3050001055829,新規,0,2024-12-05,2024-12-05,ＭＩＹＡＭＡ株式会社,,株式会社,茨城県,古河市,東３丁目１２番２号,,08,204,3060011,,,,,,,2024-12-05,1,,,,,ミヤマ,0
592,3050001055837,新規,0,2024-12-05,2024-12-05,ＦＬＵＧＥＬ株式会社,,株式会社,茨城県,那珂郡東海村,大字石神内宿２４５３番地９７,,08,341,3191102,,,,,,,2024-12-05,1,,,,,フリューゲル,0
593,3050001055845,新規,0,2024-12-05,2024-12-05,株式会社Ｇｏｏｄ　Ｂｙ,,株式会社,茨城県,日立市,東大沼町３丁目２８番３号,,08,202,3160023,,,,,,,2024-12-05,1,,,,,グッドバイ,0
594,3050003008859,新規,0,2024-12-05,2024-12-05,楽日合同会社,,合同会社,茨城県,つくば市,館野４６８番地５,,08,220,3050067,,,,,,,2024-12-05,1,,,,,ラクニチ,0
603,3070005010332,新規,0,2024-12-05,2024-12-05,一般社団法人めぐみ,,その他の設立登記法人,群馬県,高崎市,中居町３丁目２０番地７,,10,202,3700852,,,,,,,2024-12-05,1,,,,,メグミ,0
606,3080403005156,新規,0,2024-12-05,2024-12-05,プラス管理合同会社,,合同会社,静岡県,浜松市中央区,向宿２丁目１７番２号,,22,138,4300851,,,,,,,2024-12-05,1,,,,,プラスカンリ,0
614,3110001038892,新規,0,2024-12-05,2024-12-05,あすてる農園株式会社,,株式会社,新潟県,新潟市西蒲区,大原４９６番地,,15,108,9590511,,,,,,,2024-12-05,1,,,,,アステルノウエン,0
629,3120001270817,新規,0,2024-12-05,2024-12-05,株式会社オダ商会,,株式会社,大阪府,大阪市西区,南堀江３丁目７番１１－３０３号,,27,106,5500015,,,,,,,2024-12-05,1,,,,,オダショウカイ,0
630,3120001270841,新規,0,2024-12-05,2024-12-05,クロスプラスホーム株式会社,,株式会社,大阪府,大阪市北区,曾根崎２丁目８－５,,27,127,5300057,,,,,,,2024-12-05,1,,,,,クロスプラスホーム,0
631,3120001270858,新規,0,2024-12-05,2024-12-05,メラフェイスインベストメント株式会社,,株式会社,大阪府,大阪市北区,曾根崎２丁目１２番７号,,27,127,5300057,,,,,,,2024-12-05,1,,,,,メラフェイスインベストメント,0
635,3120003028107,新規,0,2024-12-05,2024-12-05,合同会社Ｋ’ｓホールディングス,,合同会社,大阪府,大阪市中央区,備後町１丁目４番８号,,27,128,5410051,,,,,,,2024-12-05,1,,,,,ケイズホールディングス,0
638,3120101070704,新規,0,2024-12-05,2024-12-05,株式会社のぞみ,,株式会社,大阪府,堺市堺区,北三国ヶ丘町２丁４番２０号,,27,141,5900021,,,,,,,2024-12-05,1,,,,,ノゾミ,0
641,3120901050120,新規,0,2024-12-05,2024-12-05,株式会社ヨシケイ北大阪,,株式会社,大阪府,茨木市,鮎川５丁目６番１１号,,27,211,5670831,,,,,,,2024-12-05,1,,,,,ヨシケイキタオオサカ,0
642,3120901050129,新規,0,2024-12-05,2024-12-05,株式会社アズ企画,,株式会社,大阪府,豊中市,螢池東町１丁目１番２３号,,27,203,5600032,,,,,,,2024-12-05,1,,,,,アズキカク,0
644,3122001038715,新規,0,2024-12-05,2024-12-05,美軒株式会社,,株式会社,大阪府,東大阪市,金岡２丁目１５－９,,27,227,5770823,,,,,,,2024-12-05,1,,,,,ビケン,0
645,3122001038723,新規,0,2024-12-05,2024-12-05,株式会社大東,,株式会社,大阪府,東大阪市,玉串元町２丁目６番７号,,27,227,5780933,,,,,,,2024-12-05,1,,,,,オオヒガシ,0
648,3130001078466,新規,0,2024-12-05,2024-12-05,ニチイハウジング株式会社,,株式会社,京都府,京都市北区,紫野西蓮台野町７１番地９６－２０１号,,26,101,6038245,,,,,,,2024-12-05,1,,,,,ニチイハウジング,0
649,3130001078499,新規,0,2024-12-05,2024-12-05,永富株式会社,,株式会社,京都府,京都市東山区,大和大路通七条下る３丁目上池田町５４４番地１７,,26,105,6050968,,,,,,,2024-12-05,1,,,,,ナガトミ,0
650,3130001078508,新規,0,2024-12-05,2024-12-05,株式会社ラ・クール小野,,株式会社,京都府,長岡京市,調子１丁目６番３９号,,26,209,6170844,,,,,,,2024-12-05,1,,,,,ラクールオノ,0
651,3130001078532,新規,0,2024-12-05,2024-12-05,株式会社ＲＥＡＬＩＺＥ,,株式会社,京都府,八幡市,八幡園内６３番地の３５,,26,210,6148038,,,,,,,2024-12-05,1,,,,,リアライズ,0
653,3130003010055,新規,0,2024-12-05,2024-12-05,合同会社シトラス,,合同会社,京都府,京都市山科区,上野山田２番地９,,26,110,6078442,,,,,,,2024-12-05,1,,,,,シトラス,0
656,3140001136586,新規,0,2024-12-05,2024-12-05,株式会社天城,,株式会社,兵庫県,神戸市北区,鳴子２丁目２０番地の５,,28,109,6511133,,,,,,,2024-12-05,1,,,,,アマギ,0
657,3140001136594,新規,0,2024-12-05,2024-12-05,株式会社総建テック,,株式会社,兵庫県,伊丹市,山田３丁目１２番１５号,,28,207,6640874,,,,,,,2024-12-05,1,,,,,ソウケンテック,0
658,3140001136628,新規,0,2024-12-05,2024-12-05,マルチコム株式会社,,株式会社,兵庫県,姫路市,飾磨区妻鹿１３６０番地１３,,28,201,6728031,,,,,,,2024-12-05,1,,,,,マルチコム,0
659,3140001136636,新規,0,2024-12-05,2024-12-05,株式会社ＳＡＺＡｎａｍｉ,,株式会社,兵庫県,三木市,緑が丘町本町１丁目１２１番地の４,,28,215,6730534,,,,,,,2024-12-05,1,,,,,サザナミ,0
660,3140001136644,新規,0,2024-12-05,2024-12-05,グロリアコンサルティング株式会社,,株式会社,兵庫県,川西市,栄根２丁目２番８号,,28,217,6660021,,,,,,,2024-12-05,1,,,,,グロリアコンサルティング,0
661,3140001136652,新規,0,2024-12-05,2024-12-05,株式会社永山商事,,株式会社,兵庫県,多可郡多可町,中区曽我井９０７－１９４,,28,365,6791131,,,,,,,2024-12-05,1,,,,,ナガヤマショウジ,0
672,3180001164410,新規,0,2024-12-05,2024-12-05,株式会社Ｂｅ　ｍｏｒｅ,,株式会社,愛知県,名古屋市瑞穂区,中根町４丁目１２番地の７,,23,108,4670055,,,,,,,2024-12-05,1,,,,,ビーモア,0
673,3180003027697,新規,0,2024-12-05,2024-12-05,合同会社ＡＨｏｒｓｅ,,合同会社,愛知県,名古屋市東区,泉１丁目２２－２９ストークビル久屋４階,,23,102,4610001,,,,,,,2024-12-05,1,,,,,エーホース,0
678,3200005013692,新規,0,2024-12-05,2024-12-05,一般社団法人岐阜県部活動推進協議会,,その他の設立登記法人,岐阜県,岐阜市,萱場東町３丁目２４番地２４－３０１号,,21,201,5020935,,,,,,,2024-12-05,1,,,,,ギフケンブカツドウスイシンキョウギカイ,0
679,3220001026358,新規,0,2024-12-05,2024-12-05,株式会社サナダイチ,,株式会社,石川県,金沢市,打木町東２４,,17,201,9200377,,,,,,,2024-12-05,1,,,,,サナダイチ,0
680,3220001026366,新規,0,2024-12-05,2024-12-05,株式会社ａｓｉｓ,,株式会社,石川県,金沢市,木倉町６番９号テナント２号室,,17,201,9200988,,,,,,,2024-12-05,1,,,,,アズイス,0
695,3260001039694,新規,0,2024-12-05,2024-12-05,株式会社３９,,株式会社,岡山県,倉敷市,児島小川９丁目６番１６号,,33,202,7110911,,,,,,,2024-12-05,1,,,,,サンキュウ,0
696,3260003004985,新規,0,2024-12-05,2024-12-05,配膳ボーイズ合同会社,,合同会社,岡山県,真庭市,久世２８５４番地,,33,214,7193201,,,,,,,2024-12-05,1,,,,,ハイゼンボーイズ,0
698,3260005011427,新規,0,2024-12-05,2024-12-05,医療法人社団寺門矯正歯科,,その他の設立登記法人,岡山県,岡山市北区,中山下１丁目１番１号グレースタワーＩＩＩ２Ｆ,00137255,33,101,7000821,,,,,,,2024-12-05,1,,,,,テラカドキョウセイシカ,0
702,3290801031096,新規,0,2024-12-05,2024-12-05,旭日商事株式会社,,株式会社,福岡県,北九州市門司区,大字畑４６番地１２,,40,101,8000112,,,,,,,2024-12-05,1,,,,,アサヒショウジ,0
703,3310001019352,新規,0,2024-12-05,2024-12-05,株式会社ＮＩＴＡ,,株式会社,長崎県,五島市,岐宿町二本楠１０５０番地２,,42,211,8530311,,,,,,,2024-12-05,1,,,,,ニタ,0
705,3320001020838,新規,0,2024-12-05,2024-12-05,株式会社デマラージュ,,株式会社,大分県,別府市,大字北石垣１１２７番地１ぱれっと中須賀１０３,,44,202,8740000,,,,,,,2024-12-05,1,,,,,デマラージュ,0
708,3340001026981,新規,0,2024-12-05,2024-12-05,ブレーンアークス株式会社,,株式会社,鹿児島県,鹿児島市,東千石町９番２号　セントラルビル１Ｆ－Ｃ,,46,201,8920842,,,,,,,2024-12-05,1,,,,,ブレーンアークス,0
710,3360001034512,新規,0,2024-12-05,2024-12-05,株式会社ＣＥＲＣＬＥ,,株式会社,沖縄県,うるま市,字上江洲１２９番地９,,47,213,9042222,,,,,,,2024-12-05,1,,,,,セルクル,0
711,3360001034520,新規,0,2024-12-05,2024-12-05,株式会社翁屋,,株式会社,沖縄県,那覇市,寄宮２丁目２９番４５号,,47,201,9020064,,,,,,,2024-12-05,1,,,,,オキナヤ,0
713,3370001052018,新規,0,2024-12-05,2024-12-05,いわさ不動産株式会社,,株式会社,宮城県,仙台市宮城野区,福室６丁目１５番４５号,,04,102,9830005,,,,,,,2024-12-05,1,,,,,イワサフドウサン,0
727,3400001016877,新規,0,2024-12-05,2024-12-05,紫波中央駅前エネルギーステーション株式会社,,株式会社,岩手県,紫波郡紫波町,紫波中央駅前２丁目３番地９３,,03,321,0283318,,,,,,,2024-12-05,1,,,,,シワチュウオウエキマエエネルギーステーション,0
730,3420001018946,新規,0,2024-12-05,2024-12-05,株式会社横浜衛生社,,株式会社,青森県,上北郡横浜町,字三保野１８５番地２,,02,406,0394141,,,,,,,2024-12-05,1,,,,,ヨコハマエイセイシャ,0
737,3430001093212,新規,0,2024-12-05,2024-12-05,株式会社ＨＷＨＤ,,株式会社,北海道,札幌市中央区,北一条西１０丁目１番地２８－１１０４号,,01,101,0600001,,,,,,,2024-12-05,1,,,,,エイチダブリューエイチディー,0
740,3440001009530,新規,0,2024-12-05,2024-12-05,株式会社プロスパリティ,,株式会社,北海道,函館市,北美原２丁目１０番３号,,01,202,0410807,,,,,,,2024-12-05,1,,,,,プロスパリティ,0
748,3480001012670,新規,0,2024-12-05,2024-12-05,株式会社善玲工業,,株式会社,徳島県,徳島市,福島１丁目１０番４４－２号,,36,201,7700868,,,,,,,2024-12-05,1,,,,,ゼンレイコウギョウ,0
749,3480003002208,新規,0,2024-12-05,2024-12-05,合同会社Ｔｅａｍ　ＷＩＳＤＯＭ,,合同会社,徳島県,阿波市,吉野町西条字大西５７番地３丸ビル吉野２階,,36,206,7711402,,,,,,,2024-12-05,1,,,,,チームウィズダム,0
750,3500001026024,新規,0,2024-12-05,2024-12-05,八潮メンテナンスサービス株式会社,,株式会社,愛媛県,西条市,飯岡１２４１番地８２,,38,206,7930010,,,,,,,2024-12-05,1,,,,,ヤシオメンテナンスサービス,0
752,3700150128063,新規,0,2024-12-05,2024-12-05,群青財団設立準備会,,その他,大阪府,高槻市,北大樋町１３番４号,,27,207,5690041,,,,,,,2024-12-05,1,,,,,グンジョウザイダンセツリツジュンビカイ,0
761,4010001250424,新規,0,2024-12-05,2024-12-05,株式会社佑喜,,株式会社,東京都,文京区,湯島３丁目１３番８号湯島不二ビル３０２－２,,13,105,1130034,,,,,,,2024-12-05,1,,,,,ユウキ,0
762,4010001250465,新規,0,2024-12-05,2024-12-05,Ｎｅｓｔｅｒ株式会社,,株式会社,東京都,中央区,銀座１丁目２２番１１号銀座大竹ビジデンス２階,,13,102,1040061,,,,,,,2024-12-05,1,,,,,ネスター,0
763,4010001250523,新規,0,2024-12-05,2024-12-05,ＫＪＩ株式会社,,株式会社,東京都,千代田区,紀尾井町４番１号ニューオータニガーデンコート１９階,,13,101,1020094,,,,,,,2024-12-05,1,,,,,ケイジェーアイ,0
773,4010501053277,新規,0,2024-12-05,2024-12-05,株式会社アカシックレコード,,株式会社,東京都,台東区,上野２丁目１２番２号池本ビル５階,,13,106,1100005,,,,,,,2024-12-05,1,,,,,アカシックレコード,0
784,4010801035636,新規,0,2024-12-05,2024-12-05,日本金融経済教育株式会社,,株式会社,東京都,大田区,蒲田２丁目１－８メゾンドサカエ２０６,,13,111,1440052,,,,,,,2024-12-05,1,,,,,ニホンキンユウケイザイキョウイク,0
787,4010803005182,新規,0,2024-12-05,2024-12-05,ＬＩＢＥＲＡ　ＧＬＯＢＡＬ合同会社,,合同会社,東京都,大田区,上池台１丁目４番７号３０１,,13,111,1450064,,,,,,,2024-12-05,1,,,,,リベラグローバル,0
788,4010803005190,新規,0,2024-12-05,2024-12-05,合同会社神来月,,合同会社,東京都,大田区,山王３丁目６－２７コンシェリア大森山王１０１,,13,111,1430023,,,,,,,2024-12-05,1,,,,,カミキヅキ,0
791,4010901056433,新規,0,2024-12-05,2024-12-05,株式会社ＳＨＩＭＯＤＡ,,株式会社,東京都,世田谷区,池尻３丁目４番１４－３０４号,,13,112,1540001,,,,,,,2024-12-05,1,,,,,シモダ,0
793,4010905004702,新規,0,2024-12-05,2024-12-05,一般社団法人クリエーティブ教育研究所,,その他の設立登記法人,東京都,世田谷区,下馬１丁目６番１２－１０１号,,13,112,1540002,,,,,,,2024-12-05,1,,,,,クリエーティブキョウイクケンキュウジョ,0
797,4011001166156,新規,0,2024-12-05,2024-12-05,株式会社ニシエヒガシエ,,株式会社,東京都,渋谷区,広尾５丁目２５番５号７Ｆ,,13,113,1500012,,,,,,,2024-12-05,1,,,,,ニシエヒガシエ,0
798,4011001166164,新規,0,2024-12-05,2024-12-05,株式会社ｙｏｎ,,株式会社,東京都,渋谷区,猿楽町１１番１９号アルファ―ストＩＩ３０１,00137248,13,113,1500033,,,,,,,2024-12-05,1,,,,,ヨン,0
799,4011001166189,新規,0,2024-12-05,2024-12-05,株式会社Ｉ　ＦＲＯＮＴ,,株式会社,東京都,渋谷区,恵比寿２丁目１６番６号ＬｏｔｕｓＰａｒｋ４Ｆユークリッド・エージェンシー,,13,113,1500013,,,,,,,2024-12-05,1,,,,,アイフロント,0
800,4011001166255,新規,0,2024-12-05,2024-12-05,株式会社ユアーズホールディングス,,株式会社,東京都,渋谷区,神山町２０番１４号,,13,113,1500047,,,,,,,2024-12-05,1,,,,,ユアーズホールディングス,0
801,4011001166321,新規,0,2024-12-05,2024-12-05,株式会社Ｙｏｕ　ｔｏｏ,,株式会社,東京都,渋谷区,道玄坂１丁目１０番８号渋谷道玄坂東急ビル２ＦーＣ,,13,113,1500043,,,,,,,2024-12-05,1,,,,,ユートゥー,0
802,4011001166404,新規,0,2024-12-05,2024-12-05,株式会社リトルウインドウ,,株式会社,東京都,渋谷区,道玄坂１丁目１０番８号渋谷道玄坂東急ビル２Ｆ‐Ｃ,,13,113,1500043,,,,,,,2024-12-05,1,,,,,リトルウインドウ,0
803,4011003020559,新規,0,2024-12-05,2024-12-05,合同会社デントエステイト,,合同会社,東京都,渋谷区,広尾２丁目２番９号,,13,113,1500012,,,,,,,2024-12-05,1,,,,,デントエステイト,0
804,4011005010764,新規,0,2024-12-05,2024-12-05,特定非営利活動法人えんじゅ,,その他の設立登記法人,東京都,渋谷区,広尾５丁目２３番５号長谷部第一ビル４０２号,,13,113,1500012,,,,,,,2024-12-05,1,,,,,エンジュ,0
810,4011101109816,新規,0,2024-12-05,2024-12-05,株式会社ポラリス,,株式会社,東京都,新宿区,歌舞伎町２丁目３番２１号,,13,104,1600021,,,,,,,2024-12-05,1,,,,,ポラリス,0
812,4011301030210,新規,0,2024-12-05,2024-12-05,株式会社ｈａｔｔｏ,,株式会社,東京都,杉並区,高円寺南５丁目２８番１５－３０１号,,13,115,1660003,,,,,,,2024-12-05,1,,,,,ハット,0
817,4011501031438,新規,0,2024-12-05,2024-12-05,美和商会株式会社,,株式会社,東京都,荒川区,東日暮里６丁目３９番１３号メゾンヴェルデ１Ｆ,,13,118,1160014,,,,,,,2024-12-05,1,,,,,ミワショウカイ,0
822,4011801045253,新規,0,2024-12-05,2024-12-05,ＧＺ株式会社,,株式会社,東京都,足立区,足立４丁目２番３号トップ五反野第４マンション１０６号,,13,121,1200015,,,,,,,2024-12-05,1,,,,,ジーゼイー,0
823,4011801045261,新規,0,2024-12-05,2024-12-05,株式会社松尾商事,,株式会社,東京都,足立区,東伊興３丁目２４番３０号,,13,121,1210801,,,,,,,2024-12-05,1,,,,,マツオショウジ,0
828,4012403006866,新規,0,2024-12-05,2024-12-05,合同会社オカクンフード,,合同会社,東京都,府中市,宮西町４丁目１番地の１１サーパス府中セントマークス８０３,,13,206,1830022,,,,,,,2024-12-05,1,,,,,オカクンフード,0
829,4012701018588,新規,0,2024-12-05,2024-12-05,ＲＥＳＩＬＩＥＮＺＡ　ＪＡＰＡＮ株式会社,,株式会社,東京都,小平市,天神町４丁目１７番２６号,,13,211,1870004,,,,,,,2024-12-05,1,,,,,レジリエンザジャパン,0
830,4013301053463,新規,0,2024-12-05,2024-12-05,株式会社ｔｏｒｃｈｉ,,株式会社,東京都,豊島区,目白４丁目３０－６,,13,116,1710031,,,,,,,2024-12-05,1,,,,,トーチ,0
840,4020001160275,新規,0,2024-12-05,2024-12-05,株式会社エバーグリーンテクノロジー,,株式会社,神奈川県,横浜市南区,永田北２丁目４７－１１,,14,105,2320071,,,,,,,2024-12-05,1,,,,,エバーグリーンテクノロジー,0
841,4020001160440,新規,0,2024-12-05,2024-12-05,株式会社ＫＪＨ,,株式会社,神奈川県,横浜市鶴見区,本町通２丁目６７番地,,14,101,2300048,,,,,,,2024-12-05,1,,,,,ケイジェイエイチ,0
842,4020001160449,新規,0,2024-12-05,2024-12-05,株式会社ＫＧヨコハマ,,株式会社,神奈川県,横浜市磯子区,森３丁目１３番２１－３号,,14,107,2350023,,,,,,,2024-12-05,1,,,,,ケージーヨコハマ,0
843,4020001160457,新規,0,2024-12-05,2024-12-05,株式会社幸建,,株式会社,神奈川県,横浜市港北区,綱島東３丁目１１番４５号綱島東マンション３０２,,14,109,2230052,,,,,,,2024-12-05,1,,,,,コウケン,0
844,4020001160481,新規,0,2024-12-05,2024-12-05,株式会社ホワイトカレッジ,,株式会社,神奈川県,横浜市西区,北幸２丁目１０番４８号むつみビル３階,,14,103,2200004,,,,,,,2024-12-05,1,,,,,ホワイトカレッジ,0
849,4020003027332,新規,0,2024-12-05,2024-12-05,合同会社サニーテラス研究所,,合同会社,神奈川県,横浜市港北区,箕輪町３丁目１５番４３号,,14,109,2230051,,,,,,,2024-12-05,1,,,,,サニーテラスケンキュウジョ,0
850,4020003027398,新規,0,2024-12-05,2024-12-05,合同会社ＴＳソリューションズ,,合同会社,神奈川県,横浜市旭区,東希望が丘１１８－２５,,14,112,2410826,,,,,,,2024-12-05,1,,,,,ティーエスソリューションズ,0
851,4020005016622,新規,0,2024-12-05,2024-12-05,特定非営利活動法人ほんもくのみらい,,その他の設立登記法人,神奈川県,横浜市中区,石川町１丁目２４－１＋ＣＯｗｏｒｋ＆ｓｐａｃｅ,,14,104,2310868,,,,,,,2024-12-05,1,,,,,ホンモクノミライ,0
853,4021001083945,新規,0,2024-12-05,2024-12-05,株式会社鎌倉匠人,,株式会社,神奈川県,鎌倉市,小町３丁目６－７,,14,204,2480006,,,,,,,2024-12-05,1,,,,,カマクラショウニン,0
855,4021005013238,新規,0,2024-12-05,2024-12-05,医療法人Ｂｅｌｌｗｏｏｄ,,その他の設立登記法人,神奈川県,藤沢市,善行１丁目２２番地の１１,,14,205,2510871,,,,,,,2024-12-05,1,,,,,ベルウッド,0
861,4030001163780,新規,0,2024-12-05,2024-12-05,株式会社クロネコスタジオ,,株式会社,埼玉県,入間市,大字南峯３７６番地１,,11,225,3580046,,,,,,,2024-12-05,1,,,,,クロネコスタジオ,0
862,4030001163830,新規,0,2024-12-05,2024-12-05,関西総合サポート株式会社,,株式会社,埼玉県,富士見市,関沢３丁目１１番２号レオパレスみずほセカンド１０８,,11,235,3540025,,,,,,,2024-12-05,1,,,,,カンサイソウゴウサポート,0
866,4030003025624,新規,0,2024-12-05,2024-12-05,サンプラス合同会社,,合同会社,埼玉県,深谷市,藤野木１１７番地６,,11,218,3660014,,,,,,,2024-12-05,1,,,,,サンプラス,0
867,4030003025640,新規,0,2024-12-05,2024-12-05,合同会社Ｙ’ｓサロン,,合同会社,埼玉県,ふじみ野市,うれし野２丁目１６番１号ＬＣモールうれし野１階,,11,245,3560056,,,,,,,2024-12-05,1,,,,,ワイズサロン,0
868,4030005021968,新規,0,2024-12-05,2024-12-05,税理士法人吉島会計事務所,,その他の設立登記法人,埼玉県,飯能市,南町２番２号,,11,209,3570036,,,,,,,2024-12-05,1,,,,,ヨシジマカイケイジムショ,0
871,4040001136414,新規,0,2024-12-05,2024-12-05,株式会社ＢＤ　ＪＡＰＡＮ,,株式会社,千葉県,柏市,篠籠田７４５番３,,12,217,2770862,,,,,,,2024-12-05,1,,,,,ビーディージャパン,0
872,4040001136422,新規,0,2024-12-05,2024-12-05,株式会社ｈａｎｏｎ,,株式会社,千葉県,浦安市,高洲４丁目３番１－３０９号,,12,227,2790023,,,,,,,2024-12-05,1,,,,,ハノン,0
876,4040003026299,新規,0,2024-12-05,2024-12-05,合同会社ＴＨＥ　ＣＯＭＰＡＮＹ,,合同会社,千葉県,千葉市中央区,祐光２丁目１１番１２号ＳＫマンション３０２,,12,101,2600007,,,,,,,2024-12-05,1,,,,,ザカンパニー,0
877,4040003026332,新規,0,2024-12-05,2024-12-05,合同会社ナカガワプランニング,,合同会社,千葉県,成田市,三里塚光ケ丘１－３８０－１０１,,12,211,2860117,,,,,,,2024-12-05,1,,,,,ナカガワプランニング,0
881,4050001055844,新規,0,2024-12-05,2024-12-05,一本木株式会社,,株式会社,茨城県,水戸市,宮町１丁目２番４号ＭＹＭビル３Ｆ７号室,,08,201,3100015,,,,,,,2024-12-05,1,,,,,イッポンギ,0
882,4050001055852,新規,0,2024-12-05,2024-12-05,株式会社ＣＯＮＮＥＣＴ,,株式会社,茨城県,日立市,東金沢町２丁目８－２７,,08,202,3160014,,,,,,,2024-12-05,1,,,,,コネクト,0
885,4050003008858,新規,0,2024-12-05,2024-12-05,合同会社Ｈｏｓｈｉｔｏ　Ｉｎｔｅｒｎａｔｉｏｎａｌ,,合同会社,茨城県,坂東市,沓掛４９３９番地１,,08,228,3060515,,,,,,,2024-12-05,1,,,,,ホシトインターナショナル,0
886,4050003008866,新規,0,2024-12-05,2024-12-05,ＥＳＴ合同会社,,合同会社,茨城県,神栖市,大野原２丁目２７番１０号,,08,232,3140144,,,,,,,2024-12-05,1,,,,,エスト,0
891,4060003005350,新規,0,2024-12-05,2024-12-05,合同会社日台市場,,合同会社,栃木県,下野市,緑１丁目１０番地３ＳＵＮＳＥＴＭＡＬＬ－Ａ１０２号室,,09,216,3290433,,,,,,,2024-12-05,1,,,,,ニッタイシジョウ,0
892,4070003005688,新規,0,2024-12-05,2024-12-05,地合同会社,,合同会社,群馬県,高崎市,通町３６番地１ピーチヒル４Ｆ,,10,202,3700053,,,,,,,2024-12-05,1,,,,,チ,0
894,4080001026644,新規,0,2024-12-05,2024-12-05,株式会社シムトレック,,株式会社,静岡県,静岡市葵区,本通７丁目２－３,,22,101,4200064,,,,,,,2024-12-05,1,,,,,シムトレック,0
896,4080101025174,新規,0,2024-12-05,2024-12-05,株式会社Ａ‐ｇｌｏｗ,,株式会社,静岡県,熱海市,中央町８番１０号,,22,205,4130015,,,,,,,2024-12-05,1,,,,,エーグロー,0
898,4080103003211,新規,0,2024-12-05,2024-12-05,合同会社ＳＵＣＣＥＳＳ,,合同会社,静岡県,駿東郡長泉町,納米里４７５番地の６,,22,342,4110933,,,,,,,2024-12-05,1,,,,,サクセス,0
899,4080105006468,新規,0,2024-12-05,2024-12-05,国際育成就労ＧＲＩＴ協同組合,,その他の設立登記法人,静岡県,三島市,松本２６８番地の５エムエスコーポ２０８号室,,22,206,4110822,,,,,,,2024-12-05,1,,,,,コクサイイクセイシュウロウグリット,0
905,4090001019036,新規,0,2024-12-05,2024-12-05,株式会社Ｂｒａｖｅ,,株式会社,山梨県,南アルプス市,野牛島２４３５番地３,,19,208,4000205,,,,,,,2024-12-05,1,,,,,ブレイブ,0
911,4110001038891,新規,0,2024-12-05,2024-12-05,株式会社ＮＡＫ,,株式会社,新潟県,新潟市北区,嘉山１丁目２番２６号,,15,101,9503322,,,,,,,2024-12-05,1,,,,,エヌエーケー,0
912,4110003005601,新規,0,2024-12-05,2024-12-05,アトリエプレール合同会社,,合同会社,新潟県,長岡市,関原南１丁目４３３０番地,,15,202,9402039,,,,,,,2024-12-05,1,,,,,アトリエプレール,0
924,4120001270824,新規,0,2024-12-05,2024-12-05,株式会社エーシーズ,,株式会社,大阪府,大阪市東住吉区,北田辺６丁目１０番７号,,27,121,5460044,,,,,,,2024-12-05,1,,,,,エーシーズ,0
925,4120001270849,新規,0,2024-12-05,2024-12-05,ＦＩＶＥＳ株式会社,,株式会社,大阪府,大阪市北区,梅田２丁目２－２ヒルトンプラザウエストオフィスタワー１９階,,27,127,5300001,,,,,,,2024-12-05,1,,,,,ファイブス,0
926,4120001270873,新規,0,2024-12-05,2024-12-05,株式会社ｋｉｔｅｎ,,株式会社,大阪府,守口市,竹町８－１８,,27,209,5700086,,,,,,,2024-12-05,1,,,,,キテン,0
927,4120001270898,新規,0,2024-12-05,2024-12-05,株式会社メタブリッジ,,株式会社,大阪府,大阪市淀川区,木川東２丁目９－２６,,27,123,5320012,,,,,,,2024-12-05,1,,,,,メタブリッジ,0
932,4120101070686,新規,0,2024-12-05,2024-12-05,ＪＴＮホールディングス株式会社,,株式会社,大阪府,河内長野市,野作町１４番２１号,,27,216,5860023,,,,,,,2024-12-05,1,,,,,ジェイティーエヌホールディングス,0
935,4120905006662,新規,0,2024-12-05,2024-12-05,社会保険労務士法人アライブ,,その他の設立登記法人,大阪府,池田市,栄町６番６－２０５号,,27,204,5630056,,,,,,,2024-12-05,1,,,,,アライブ,0
938,4130001078498,新規,0,2024-12-05,2024-12-05,カナガエ株式会社,,株式会社,京都府,京都市下京区,中堂寺坊城町１６－３,,26,106,6008811,,,,,,,2024-12-05,1,,,,,カナガエ,0
939,4130001078507,新規,0,2024-12-05,2024-12-05,株式会社ＳＥＢＩＣＡ,,株式会社,京都府,京都市中京区,西ノ京御輿岡町２１番地２８,,26,104,6048451,,,,,,,2024-12-05,1,,,,,セビカ,0
940,4130001078531,新規,0,2024-12-05,2024-12-05,株式会社Ｆｕｔｕｒｅ　Ｅｎｅｒｇｙ,,株式会社,京都府,京都市左京区,高野竹屋町４０せせらぎ荘３号室,,26,103,6068104,,,,,,,2024-12-05,1,,,,,フューチャーエナジー,0
941,4130003010054,新規,0,2024-12-05,2024-12-05,ＩＪＡＺ　ＴＲＡＤＩＮＧ合同会社,,合同会社,京都府,八幡市,八幡土井１０２－４藤荘１０１号室,,26,210,6148002,,,,,,,2024-12-05,1,,,,,イジャーズトレーディング,0
944,4140001136610,新規,0,2024-12-05,2024-12-05,株式会社バーンヤードグラスフィールド,,株式会社,兵庫県,西宮市,郷免町２番１６－１０１号,,28,204,6620965,,,,,,,2024-12-05,1,,,,,バーンヤードグラスフィールド,0
945,4140001136619,新規,0,2024-12-05,2024-12-05,株式会社ルシア,,株式会社,兵庫県,神戸市中央区,磯辺通１丁目１番１８号カサベラ国際プラザビル７０７,,28,110,6510084,,,,,,,2024-12-05,1,,,,,ルシア,0
946,4140001136651,新規,0,2024-12-05,2024-12-05,株式会社ｌｏｏｋ,,株式会社,兵庫県,神戸市灘区,箕岡通１丁目４番２号,,28,102,6570812,,,,,,,2024-12-05,1,,,,,ルック,0
947,4140003021389,新規,0,2024-12-05,2024-12-05,ＳＡＦ商店合同会社,,合同会社,兵庫県,神戸市兵庫区,新開地４丁目５番１５号,,28,105,6520811,,,,,,,2024-12-05,1,,,,,エスエイエフショウテン,0
948,4170001018401,新規,0,2024-12-05,2024-12-05,大十ホールディングス株式会社,,株式会社,和歌山県,海南市,船尾２００番地の２,,30,202,6420001,,,,,,,2024-12-05,1,,,,,ダイジュウホールディングス,0
962,4180001164426,新規,0,2024-12-05,2024-12-05,株式会社ＳＫコンサルティング,,株式会社,愛知県,名古屋市熱田区,三本松町１２番２３号,,23,109,4560032,,,,,,,2024-12-05,1,,,,,エスケーコンサルティング,0
963,4180001164459,新規,0,2024-12-05,2024-12-05,株式会社朋翔,,株式会社,愛知県,春日井市,押沢台１丁目２－７,,23,206,4870005,,,,,,,2024-12-05,1,,,,,ホウショウ,0
965,4180003027688,新規,0,2024-12-05,2024-12-05,合同会社ＳＥＲＥＮＩＱＵＥ,,合同会社,愛知県,名古屋市東区,矢田５丁目１０－５－２０３,,23,102,4610040,,,,,,,2024-12-05,1,,,,,セレニーク,0
967,4180305009632,新規,0,2024-12-05,2024-12-05,行政書士法人あおい相続手続プラザ,,その他の設立登記法人,愛知県,岡崎市,上和田町字南屋敷３番地,,23,202,4440201,,,,,,,2024-12-05,1,,,,,アオイソウゾクテツヅキプラザ,0
971,4200001043206,新規,0,2024-12-05,2024-12-05,株式会社フォーナインズ,,株式会社,岐阜県,岐阜市,長良竜東町５丁目１７番地３,,21,201,5020061,,,,,,,2024-12-05,1,,,,,フォーナインズ,0
978,4240001064198,新規,0,2024-12-05,2024-12-05,株式会社セブントゥエンティディグリーズ,,株式会社,広島県,世羅郡世羅町,大字賀茂３２７９番地,,34,462,7221626,,,,,,,2024-12-05,1,,,,,セブントウェンティディグリーズゥエ,0
979,4240001064223,新規,0,2024-12-05,2024-12-05,株式会社シャルム,,株式会社,広島県,広島市中区,堀川町４番１４号,,34,101,7300033,,,,,,,2024-12-05,1,,,,,シャルム,0
981,4260001039702,新規,0,2024-12-05,2024-12-05,ＨＡＳＨＭＩ　ＴＲＡＤＩＮＧ株式会社,,株式会社,岡山県,瀬戸内市,牛窓町長浜６８５９番地１,,33,212,7014301,,,,,,,2024-12-05,1,,,,,ハシュミトレイディング,0
986,4310001019343,新規,0,2024-12-05,2024-12-05,株式会社ＭＩＫＡＺＵＫＩ,,株式会社,長崎県,長崎市,大手２丁目７番３号,,42,201,8528127,,,,,,,2024-12-05,1,,,,,ミカズキ,0
992,4330001032708,新規,0,2024-12-05,2024-12-05,株式会社ＫＡＹＡＷＯＲＫ,,株式会社,熊本県,熊本市中央区,花畑町１０－１３銀杏北通りやぼ天ビル５Ｆ,,43,101,8600806,,,,,,,2024-12-05,1,,,,,カヤワーク,0
998,4360001034511,新規,0,2024-12-05,2024-12-05,ホワイトワンネットワーク株式会社,,株式会社,沖縄県,糸満市,西崎町３丁目５１０番地の２１２、Ｂ－１６,,47,210,9010306,,,,,,,2024-12-05,1,,,,,ホワイトワンネットワーク,0
999,4370003006846,新規,0,2024-12-05,2024-12-05,合同会社ＵｎｉＢｉｒｔｈ,,合同会社,宮城県,仙台市泉区,八乙女中央１丁目６－１５八乙女スクエアビル２Ｆ,,04,105,9813135,,,,,,,2024-12-05,1,,,,,ユニバース,0
1006,4390005009093,新規,0,2024-12-05,2024-12-05,医療法人社団しぶや歯科医院,,その他の設立登記法人,山形県,東村山郡中山町,あおば１４番地４,,06,302,9900411,,,,,,,2024-12-05,1,,,,,シブヤシカイイン,0
1011,4420001018945,新規,0,2024-12-05,2024-12-05,株式会社ＫＴ．カマタコーポレーション,,株式会社,青森県,三戸郡五戸町,字新田窪２８番地５,,02,442,0391541,,,,,,,2024-12-05,1,,,,,ケイティードットカマタコーポレーション,0
1014,4430001093211,新規,0,2024-12-05,2024-12-05,株式会社Ｕ,,株式会社,北海道,札幌市手稲区,富丘五条４丁目１０番８号,,01,109,0060015,,,,,,,2024-12-05,1,,,,,ユウ,0
1016,4430003017044,新規,0,2024-12-05,2024-12-05,ネクストイノベーション合同会社,,合同会社,北海道,札幌市中央区,南十条西１３丁目３番３１号,,01,101,0640810,,,,,,,2024-12-05,1,,,,,ネクストイノベーション,0
1020,4700150128062,新規,0,2024-12-05,2024-12-05,東京ロープ共栄会,,その他,東京都,江東区,永代２丁目３７番２８号,,13,108,1350034,,,,,,,2024-12-05,1,,,,,トウキョウロープキョウエイカイ,0
1025,5010001250340,新規,0,2024-12-05,2024-12-05,シーマ・テクノロジー・ジャパン株式会社,,株式会社,東京都,千代田区,丸の内１丁目８番３号丸の内トラストタワー本館２０階,,13,101,1000005,,,,,,,2024-12-05,1,,,,,シーマテクノロジージャパン,0
1026,5010001250431,新規,0,2024-12-05,2024-12-05,ＭＤテック株式会社,,株式会社,東京都,中央区,銀座７丁目１３番２０号銀座ＴＨビル９階,,13,102,1040061,,,,,,,2024-12-05,1,,,,,エムディテック,0
1027,5010001250563,新規,0,2024-12-05,2024-12-05,ナガセダイアグノスティックス株式会社,,株式会社,東京都,中央区,日本橋小舟町１２番１５号,,13,102,1030024,,,,,,,2024-12-05,1,,,,,ナガセダイアグノスティックス,0
1033,5010003045697,新規,0,2024-12-05,2024-12-05,ワンプロパティー合同会社,,合同会社,東京都,千代田区,丸の内１丁目１１番１号,,13,101,1000005,,,,,,,2024-12-05,1,,,,,ワンプロパティー,0
1047,5010601066368,新規,0,2024-12-05,2024-12-05,株式会社麗勝,,株式会社,東京都,墨田区,江東橋３丁目３番８号タカヨビルＢ１－Ｄ,,13,107,1300022,,,,,,,2024-12-05,1,,,,,レイショウ,0
1048,5010701046930,新規,0,2024-12-05,2024-12-05,株式会社Ｍａｋｅ　Ｆｏｏｄ’ｓ　Ｓｔｙｌｅ,,株式会社,東京都,品川区,西五反田２丁目９－７ドルミ五反田アンメゾン４０７号,,13,109,1410031,,,,,,,2024-12-05,1,,,,,メイクフーズスタイル,0
1051,5010901056432,新規,0,2024-12-05,2024-12-05,株式会社八輪,,株式会社,東京都,世田谷区,南烏山６丁目３３番４号カーサからすやま３０１,,13,112,1570062,,,,,,,2024-12-05,1,,,,,ハチリン,0
1052,5010901056440,新規,0,2024-12-05,2024-12-05,株式会社Ａｖｉｓ,,株式会社,東京都,世田谷区,喜多見９丁目１１番９－１１５号,,13,112,1570067,,,,,,,2024-12-05,1,,,,,アヴィス,0
1053,5010903009537,新規,0,2024-12-05,2024-12-05,龍馬合同会社,,合同会社,東京都,世田谷区,千歳台３丁目９番１６号,,13,112,1570071,,,,,,,2024-12-05,1,,,,,リュウマ,0
1060,5011001166155,新規,0,2024-12-05,2024-12-05,株式会社ＫＮＷＯＯ,,株式会社,東京都,渋谷区,千駄ヶ谷３丁目２８番５－２０２号,,13,113,1510051,,,,,,,2024-12-05,1,,,,,ヌー,0
1061,5011001166205,新規,0,2024-12-05,2024-12-05,株式会社Ｒａｎ’ｓ,,株式会社,東京都,渋谷区,神泉町１０番１５号アネックス神泉３０１,,13,113,1500045,,,,,,,2024-12-05,1,,,,,ランズ,0
1067,5011701027879,新規,0,2024-12-05,2024-12-05,株式会社ヤマザキ産業,,株式会社,東京都,江戸川区,西一之江２丁目２３番９号,,13,123,1320023,,,,,,,2024-12-05,1,,,,,ヤマザキサンギョウ,0
1072,5012401042540,新規,0,2024-12-05,2024-12-05,株式会社Ｓ‐ＣＵＢＥ,,株式会社,東京都,三鷹市,中原３丁目１番５３号ユーフォレスト１０５,,13,204,1810005,,,,,,,2024-12-05,1,,,,,エスキューブ,0
1073,5012403006865,新規,0,2024-12-05,2024-12-05,合同会社Ｄｏｇｗｏｏｄ,,合同会社,東京都,武蔵野市,吉祥寺北町１丁目２０－９,,13,203,1800001,,,,,,,2024-12-05,1,,,,,ドッグウッド,0
1086,5013301053462,新規,0,2024-12-05,2024-12-05,株式会社Ｆｕｔｕｒｅ　ｃｏｒｐｏｒａｔｉｏｎ,,株式会社,東京都,豊島区,東池袋４丁目１７番１４号,,13,116,1700013,,,,,,,2024-12-05,1,,,,,フューチャーコーポレーション,0
1094,5020001160299,新規,0,2024-12-05,2024-12-05,特Ａサービス株式会社,,株式会社,神奈川県,川崎市中原区,井田三舞町８番３４号,,14,133,2110037,,,,,,,2024-12-05,1,,,,,トクエーサービス,0
1095,5020001160448,新規,0,2024-12-05,2024-12-05,株式会社パートナーズエステート,,株式会社,神奈川県,横浜市都筑区,仲町台５丁目２番２５号,,14,118,2240041,,,,,,,2024-12-05,1,,,,,パートナーズエステート,0
1096,5020001160472,新規,0,2024-12-05,2024-12-05,株式会社ＡｔｅｌｉｅｒＳｐｒｉｎｇＦｌｏｗｅｒｓ,,株式会社,神奈川県,横浜市青葉区,美しが丘２丁目３番２号ドレッセ美しが丘６０４,,14,117,2250002,,,,,,,2024-12-05,1,,,,,アトリエスプリングフラワーズ,0
1097,5020001160489,新規,0,2024-12-05,2024-12-05,株式会社宏盛,,株式会社,神奈川県,横浜市南区,中村町４丁目２７４番地９クレッセント横濱ベイシス７０３号,,14,105,2320033,,,,,,,2024-12-05,1,,,,,コウセイ,0
1101,5020005016621,新規,0,2024-12-05,2024-12-05,一般社団法人横浜市総合型地域スポーツクラブ協議会,,その他の設立登記法人,神奈川県,横浜市西区,平沼２丁目１番９号コーポ平沼２０２,,14,103,2200023,,,,,,,2024-12-05,1,,,,,ヨコハマシソウゴウガタチイキスポーツクラブキョウギカイ,0
1104,5021001083944,新規,0,2024-12-05,2024-12-05,株式会社ベネクロ,,株式会社,神奈川県,茅ヶ崎市,緑が浜８－２４－３１１,,14,207,2530034,,,,,,,2024-12-05,1,,,,,ベネクロ,0
1109,5030001163771,新規,0,2024-12-05,2024-12-05,株式会社シンシアリー・イリオス,,株式会社,埼玉県,川口市,大字藤兵衛新田８２番地の１,,11,203,3330803,,,,,,,2024-12-05,1,,,,,シンシアリーイリオス,0
1113,5040001136388,新規,0,2024-12-05,2024-12-05,株式会社エス,,株式会社,千葉県,市原市,更級２丁目４番地１３ベイリーフ３０５号,,12,219,2900050,,,,,,,2024-12-05,1,,,,,エス,0
1114,5040001136438,新規,0,2024-12-05,2024-12-05,株式会社ＡＸ,,株式会社,千葉県,袖ケ浦市,坂戸市場６５番地１,,12,229,2990262,,,,,,,2024-12-05,1,,,,,アックス,0
1118,5040003026315,新規,0,2024-12-05,2024-12-05,合同会社ＮＯＯＶＡＤＯ　ＪＡＰＡＮ,,合同会社,千葉県,千葉市稲毛区,小仲台２丁目６番１号京成稲毛ビル２Ｆ－３４,,12,103,2630043,,,,,,,2024-12-05,1,,,,,ヌーバドジャパン,0
1119,5040003026323,新規,0,2024-12-05,2024-12-05,合同会社粉ノ舎,,合同会社,千葉県,大網白里市,経田２８８番地１,,12,239,2993231,,,,,,,2024-12-05,1,,,,,コナノスミカ,0
1122,5050001055843,新規,0,2024-12-05,2024-12-05,ＪＢＶ株式会社,,株式会社,茨城県,土浦市,木田余４９７８番地,,08,203,3000026,,,,,,,2024-12-05,1,,,,,ジェービーブイ,0
1123,5050001055851,新規,0,2024-12-05,2024-12-05,東宇株式会社,,株式会社,茨城県,稲敷郡阿見町,大字若栗１３０７－２１－４号室,,08,443,3000333,,,,,,,2024-12-05,1,,,,,トウウ,0
1124,5050003008865,新規,0,2024-12-05,2024-12-05,合同会社笑,,合同会社,茨城県,那珂郡東海村,大字船場６８０番地６,,08,341,3191115,,,,,,,2024-12-05,1,,,,,ワライ,0
1131,5080001026635,新規,0,2024-12-05,2024-12-05,株式会社エムストラ,,株式会社,静岡県,静岡市葵区,城東町２３番１６号,,22,101,4200846,,,,,,,2024-12-05,1,,,,,エムストラ,0
1132,5080001026643,新規,0,2024-12-05,2024-12-05,令和電気株式会社,,株式会社,静岡県,静岡市駿河区,小鹿１丁目２２番４号,,22,102,4228021,,,,,,,2024-12-05,1,,,,,レイワデンキ,0
1133,5080101025173,新規,0,2024-12-05,2024-12-05,株式会社ＡＴＯＰ,,株式会社,静岡県,熱海市,中央町９番７号橋本ビル１Ａ,,22,205,4130015,,,,,,,2024-12-05,1,,,,,アトップ,0
1134,5080401027613,新規,0,2024-12-05,2024-12-05,春野ティーマスター株式会社,,株式会社,静岡県,浜松市天竜区,春野町田河内３４４番地の１,,22,140,4370611,,,,,,,2024-12-05,1,,,,,ハルノティーマスター,0
1136,5090003002682,新規,0,2024-12-05,2024-12-05,合同会社石川オフィス,,合同会社,山梨県,甲府市,中央１丁目１２番２０号異人館ビル３階,,19,201,4000032,,,,,,,2024-12-05,1,,,,,イシカワオフィス,0
1139,5110001038890,新規,0,2024-12-05,2024-12-05,騰達金属株式会社,,株式会社,新潟県,上越市,春日新田２丁目１番２２号サンフィル早津１０５号,,15,222,9420061,,,,,,,2024-12-05,1,,,,,トウタツキンゾク,0
1140,5110003005600,新規,0,2024-12-05,2024-12-05,合同会社カムイ,,合同会社,新潟県,長岡市,西宮内２丁目９２－２,,15,202,9401162,,,,,,,2024-12-05,1,,,,,カムイ,0
1151,5120001270773,新規,0,2024-12-05,2024-12-05,シャルムエンジニアリング株式会社,,株式会社,大阪府,大阪市阿倍野区,昭和町５丁目５番２８号三谷ビル２０１号,,27,119,5450011,,,,,,,2024-12-05,1,,,,,シャルムエンジニアリング,0
1161,5120101070693,新規,0,2024-12-05,2024-12-05,株式会社Ｓｉｎｓ,,株式会社,大阪府,堺市堺区,御陵通３番１７号,,27,141,5900057,,,,,,,2024-12-05,1,,,,,シンズ,0
1162,5120101070702,新規,0,2024-12-05,2024-12-05,株式会社Ｊリクルート,,株式会社,大阪府,泉南市,樽井２丁目２２番１０号町谷ビル２０２号室,,27,228,5900521,,,,,,,2024-12-05,1,,,,,ジェイリクルート,0
1166,5120903005450,新規,0,2024-12-05,2024-12-05,合同会社ＫＭスタジオ,,合同会社,大阪府,摂津市,北別府町４番３号,,27,224,5660041,,,,,,,2024-12-05,1,,,,,ケーエムスタジオ,0
1169,5122001038721,新規,0,2024-12-05,2024-12-05,株式会社ＳＡＫＵＲＡ　ＲＥＦＯＲＭ,,株式会社,大阪府,東大阪市,東石切町５丁目７番５５号,,27,227,5798011,,,,,,,2024-12-05,1,,,,,サクラリフォーム,0
1172,5130001078489,新規,0,2024-12-05,2024-12-05,株式会社シアスターツ,,株式会社,京都府,久世郡久御山町,栄２丁目１番地７４,,26,322,6130032,,,,,,,2024-12-05,1,,,,,シアスターツ,0
1173,5130001078555,新規,0,2024-12-05,2024-12-05,キャンディータフト株式会社,,株式会社,京都府,京都市下京区,玉津島町２９４コモンルーム四条烏丸５０９号室,,26,106,6008427,,,,,,,2024-12-05,1,,,,,キャンディータフト,0
1174,5130003010053,新規,0,2024-12-05,2024-12-05,ＧＡ　ＴＲＡＤＩＮＧ合同会社,,合同会社,京都府,八幡市,八幡土井１０２－４藤荘２０３号室,,26,210,6148002,,,,,,,2024-12-05,1,,,,,ジエトレーディング,0
1178,5140001136584,新規,0,2024-12-05,2024-12-05,株式会社ＣＩＳ,,株式会社,兵庫県,加古川市,加古川町河原４６番地の１８,,28,210,6750067,,,,,,,2024-12-05,1,,,,,シーアイエス,0
1179,5140001136626,新規,0,2024-12-05,2024-12-05,株式会社ｌｉｖｅｎ　ｕｐキャピタルマーケッツ,,株式会社,兵庫県,神戸市東灘区,向洋町中５丁目６－２－５２７,,28,101,6580032,,,,,,,2024-12-05,1,,,,,リビンアップキャピタルマーケッツ,0
1180,5140001136634,新規,0,2024-12-05,2024-12-05,ウエストアップ株式会社,,株式会社,兵庫県,西宮市,高須町１丁目１番１７－２１０号,,28,204,6638141,,,,,,,2024-12-05,1,,,,,ウエストアップ,0
1181,5140001136642,新規,0,2024-12-05,2024-12-05,フロウアス株式会社,,株式会社,兵庫県,神戸市中央区,伊藤町１１９,,28,110,6500032,,,,,,,2024-12-05,1,,,,,フロウアス,0
1182,5140001136650,新規,0,2024-12-05,2024-12-05,株式会社マロン総合研究所,,株式会社,兵庫県,神戸市中央区,中山手通１丁目２２番２３－２０３号,,28,110,6500004,,,,,,,2024-12-05,1,,,,,マロンソウゴウケンキュウショ,0
1183,5140003021388,新規,0,2024-12-05,2024-12-05,合同会社いろどりフーズ,,合同会社,兵庫県,伊丹市,大鹿７丁目９６番地１,,28,207,6640899,,,,,,,2024-12-05,1,,,,,イロドリフーズ,0
1184,5160001026395,新規,0,2024-12-05,2024-12-05,株式会社ｅｎ,,株式会社,滋賀県,彦根市,後三条町４７８番地１,,25,202,5220086,,,,,,,2024-12-05,1,,,,,エン,0
1187,5180003027704,新規,0,2024-12-05,2024-12-05,合同会社ｉｓｓｉｎ　Ｒ,,合同会社,愛知県,名古屋市中区,新栄２丁目１番２０号Ｃｏｃｏｒ．ｓｈｉｎｓａｋａｅ６０１号,,23,106,4600007,,,,,,,2024-12-05,1,,,,,イッシンアル,0
1189,5180301039302,新規,0,2024-12-05,2024-12-05,株式会社セントラル,,株式会社,愛知県,豊田市,土橋町４丁目５０番地４サンシャイン八城２０２号室,,23,211,4710842,,,,,,,2024-12-05,1,,,,,セントラル,0
1190,5180301039310,新規,0,2024-12-05,2024-12-05,ブルーウイングコンサルティング株式会社,,株式会社,愛知県,岡崎市,緑丘２丁目２番地１１,,23,202,4440806,,,,,,,2024-12-05,1,,,,,ブルーウイングコンサルティング,0
1191,5180305009631,新規,0,2024-12-05,2024-12-05,一般社団法人ＧＬＯＷ,,その他の設立登記法人,愛知県,豊川市,本野ケ原１丁目２０８番地,,23,207,4420005,,,,,,,2024-12-05,1,,,,,グロー,0
1196,5200001043213,新規,0,2024-12-05,2024-12-05,株式会社ＳＦＣ,,株式会社,岐阜県,岐阜市,茶屋新田４丁目７番地,,21,201,5016135,,,,,,,2024-12-05,1,,,,,エスエフシー,0
1205,5220001026372,新規,0,2024-12-05,2024-12-05,株式会社誠工,,株式会社,石川県,白山市,富光寺町２２７番地,,17,210,9202165,,,,,,,2024-12-05,1,,,,,セイコウ,0
1212,5250003003607,新規,0,2024-12-05,2024-12-05,藤井牧場合同会社,,合同会社,山口県,山陽小野田市,大字厚狭１１９２番地,,35,216,7570001,,,,,,,2024-12-05,1,,,,,フジイボクジョウ,0
1214,5250005008967,新規,0,2024-12-05,2024-12-05,特定非営利活動法人めぐみの里灯り,,その他の設立登記法人,山口県,山口市,今井町２－１４メルヴェーユ２１－１０１号,,35,203,7530055,,,,,,,2024-12-05,1,,,,,メグミノサトアカリ,0
1221,5290005019572,新規,0,2024-12-05,2024-12-05,一般社団法人お母さん大学福岡支局,,その他の設立登記法人,福岡県,久留米市,諏訪野町１８３０－４エヴァ諏訪野６０３,,40,203,8300037,,,,,,,2024-12-05,1,,,,,オカアサンダイガクフクオカシキョク,0
1223,5290801031103,新規,0,2024-12-05,2024-12-05,株式会社波創,,株式会社,福岡県,北九州市八幡西区,割子川２丁目２番８号,,40,109,8060064,,,,,,,2024-12-05,1,,,,,ハソウ,0
1227,5310001019350,新規,0,2024-12-05,2024-12-05,株式会社ともひろ,,株式会社,長崎県,大村市,片町２９番地３９,,42,205,8560833,,,,,,,2024-12-05,1,,,,,トモヒロ,0
1232,5340001026971,新規,0,2024-12-05,2024-12-05,リビルドガレージ株式会社,,株式会社,鹿児島県,姶良市,蒲生町下久徳３９４番地３,,46,225,8995304,,,,,,,2024-12-05,1,,,,,リビルドガレージ,0
1235,5360001034510,新規,0,2024-12-05,2024-12-05,株式会社ＦＡＣＥ　ＯＦＦ,,株式会社,沖縄県,那覇市,牧志２丁目３番２０号アーバンコア牧志ビル２Ｆ,,47,201,9000013,,,,,,,2024-12-05,1,,,,,フェイスオフ,0
1240,5360003014502,新規,0,2024-12-05,2024-12-05,合同会社ＴＢ,,合同会社,沖縄県,那覇市,壺屋１丁目３１番２号ＬａＶｉｅＢｅｌｌｅＢｅｎｏｋｉ２０３号室,,47,201,9020065,,,,,,,2024-12-05,1,,,,,ティービー,0
1247,5390005009092,新規,0,2024-12-05,2024-12-05,医療法人社団いなげ内科呼吸器内科医院,,その他の設立登記法人,山形県,東置賜郡川西町,大字西大塚１４０１－１,,06,382,9920601,,,,,,,2024-12-05,1,,,,,イナゲナイカコキュウキナイカイイン,0
1249,5410001014011,新規,0,2024-12-05,2024-12-05,株式会社ヴィクスト,,株式会社,秋田県,仙北市,角館町西田２５番地９,,05,215,0140377,,,,,,,2024-12-05,1,,,,,ヴィクスト,0
1250,5420001018944,新規,0,2024-12-05,2024-12-05,株式会社イナテック,,株式会社,青森県,八戸市,大字長苗代字窪田１４番地３,,02,203,0391103,,,,,,,2024-12-05,1,,,,,イナテック,0
1253,5430001093202,新規,0,2024-12-05,2024-12-05,株式会社スタートネット,,株式会社,北海道,札幌市中央区,北二条西２丁目１番地１,,01,101,0600002,,,,,,,2024-12-05,1,,,,,スタートネット,0
1254,5430001093210,新規,0,2024-12-05,2024-12-05,株式会社ビジネス・サポート,,株式会社,北海道,札幌市東区,東苗穂六条３丁目９番１０－１０１号,,01,103,0070806,,,,,,,2024-12-05,1,,,,,ビジネスサポート,0
1256,5450001014461,新規,0,2024-12-05,2024-12-05,株式会社ＡＹＤｌａｂ,,株式会社,北海道,旭川市,宮下通１１丁目３番５－９０３号,,01,204,0700030,,,,,,,2024-12-05,1,,,,,エイワイディーラボ,0
1257,5450003002563,新規,0,2024-12-05,2024-12-05,合同会社リファイン,,合同会社,北海道,旭川市,永山十条６丁目３番５号サフラン１０１号室,,01,204,0798420,,,,,,,2024-12-05,1,,,,,リファイン,0
1260,5500001026022,新規,0,2024-12-05,2024-12-05,株式会社松本環境サービス,,株式会社,愛媛県,宇和島市,三間町是延２０１番地,,38,203,7981139,,,,,,,2024-12-05,1,,,,,マツモトカンキョウサービス,0
1265,5700150128061,新規,0,2024-12-05,2024-12-05,Ｌａｎｄ　ｈｏｕｓｉｎｇ（Ｔｈａｉｌａｎｄ）Ｃｏ．，Ｌｔｄ．,,外国会社等,,,,,,,,３９９　Ｉｎｔｅｒｃｈａｎｇｅ　２１　Ｂｕｉｌｄｉｎｇ，ＧＦＬ，ｒｏｏｍ　１１０、１２６ー１２７，Ｓｕｋｈｕｍｖｉｔ　Ｒｄ．　Ｋｌｏｎｇ　ＴｏｅｉＮｕｅａ，Ｗａｔｔｈａｎａ，Ｂａｎｇｋｏｋ　１０１１０　Ｔｈａｉｌａｎｄ,,,,,,2024-12-05,1,,,,,ランドハウジングタイランドカンパニーリミテツド,0
1267,6000020298591,新規,0,2024-12-05,2024-12-05,奈良県広域水道企業団,,地方公共団体,奈良県,磯城郡田原本町,大字宮古４０４－７,,29,363,6360302,,,,,,,2024-12-05,1,,,,,ナラケンコウイキスイドウキギョウダン,0
1274,6010001250389,新規,0,2024-12-05,2024-12-05,株式会社エデュリバー,,株式会社,東京都,中央区,東日本橋２丁目２８番４号日本橋ＣＥＴビル２階,,13,102,1030004,,,,,,,2024-12-05,1,,,,,エデュリバー,0
1275,6010001250397,新規,0,2024-12-05,2024-12-05,株式会社フィロリ,,株式会社,東京都,中央区,八丁堀４丁目１番３－３０４号,,13,102,1040032,,,,,,,2024-12-05,1,,,,,フィロリ,0
1276,6010001250422,新規,0,2024-12-05,2024-12-05,メープルラウンド株式会社,,株式会社,東京都,千代田区,大手町１丁目４番２号,,13,101,1000004,,,,,,,2024-12-05,1,,,,,メープルラウンド,0
1277,6010001250447,新規,0,2024-12-05,2024-12-05,株式会社ＤｒｅａｍＨｕｂ,,株式会社,東京都,千代田区,九段南１丁目５番６号,,13,101,1020074,,,,,,,2024-12-05,1,,,,,ドリームハブ,0
1278,6010001250471,新規,0,2024-12-05,2024-12-05,株式会社クリエイターのうえきばち,,株式会社,東京都,千代田区,神田神保町３丁目２１番７号英弘ビル３Ｆ,,13,101,1010051,,,,,,,2024-12-05,1,,,,,クリエイターノウエキバチ,0
1281,6010003045696,新規,0,2024-12-05,2024-12-05,錦プロパティー合同会社,,合同会社,東京都,千代田区,丸の内１丁目１１番１号,,13,101,1000005,,,,,,,2024-12-05,1,,,,,ニシキプロパティー,0
1284,6010005039234,新規,0,2024-12-05,2024-12-05,コネクトＩＰ弁理士法人,,その他の設立登記法人,東京都,千代田区,有楽町１丁目５番２号東宝日比谷プロムナードビルディング１１階,,13,101,1000006,,,,,,,2024-12-05,1,,,,,コネクトアイピー,0
1285,6010005039242,新規,0,2024-12-05,2024-12-05,一般社団法人ＯＭ新大阪,,その他の設立登記法人,東京都,中央区,日本橋１丁目４番１号日本橋一丁目ビルディング,,13,102,1030027,,,,,,,2024-12-05,1,,,,,オーエムシンオオサカ,0
1297,6010405023878,新規,0,2024-12-05,2024-12-05,厚木上依知特定目的会社,,その他の設立登記法人,東京都,港区,元赤坂１丁目１番８号株式会社赤坂国際会計内,,13,103,1070051,,,,,,,2024-12-05,1,,,,,アツギカミエチ,0
1306,6010901056407,新規,0,2024-12-05,2024-12-05,株式会社ミラグロ,,株式会社,東京都,世田谷区,駒沢４丁目１番２０号駒沢公園テラスハウス１１０,,13,112,1540012,,,,,,,2024-12-05,1,,,,,ミラグロ,0
1307,6010901056431,新規,0,2024-12-05,2024-12-05,木羽順利株式会社,,株式会社,東京都,世田谷区,松原６丁目３３番４号メゾン・ド・ヴェスペール４０２号室,,13,112,1560043,,,,,,,2024-12-05,1,,,,,キバジュンリ,0
1309,6010905004700,新規,0,2024-12-05,2024-12-05,一般社団法人マザーツリー,,その他の設立登記法人,東京都,世田谷区,上北沢１丁目３９番１６号,,13,112,1560057,,,,,,,2024-12-05,1,,,,,マザーツリー,0
1311,6011001166162,新規,0,2024-12-05,2024-12-05,株式会社ＯｕｒＰｌａｎ,,株式会社,東京都,渋谷区,南平台町２－１７Ａ－Ｐｌａｃｅ渋谷南平台２階,,13,113,1500036,,,,,,,2024-12-05,1,,,,,アワプラン,0
1312,6011001166170,新規,0,2024-12-05,2024-12-05,株式会社Ｖｅｅｎａ,,株式会社,東京都,渋谷区,宇田川町３－７ヒューリック渋谷公園通りビル５Ｆ－１１２,,13,113,1500042,,,,,,,2024-12-05,1,,,,,ヴィーナ,0
1313,6011003020581,新規,0,2024-12-05,2024-12-05,合同会社ｓｏｙ　ｌａｔｔｅ,,合同会社,東京都,渋谷区,道玄坂１丁目１０番８号渋谷道玄坂東急ビル２Ｆ‐Ｃ,,13,113,1500043,,,,,,,2024-12-05,1,,,,,ソイラテ,0
1315,6011005010770,新規,0,2024-12-05,2024-12-05,一般社団法人ＳＡＶＥ　ＴＨＥ　ＳＥＥＤ,,その他の設立登記法人,東京都,渋谷区,宇田川町４２番９号Ｄ１ＵＤＡＧＡＷＡ４０２号室,,13,113,1500042,,,,,,,2024-12-05,1,,,,,セーブザシード,0
1326,6012403006864,新規,0,2024-12-05,2024-12-05,合同会社ＪＩＵ,,合同会社,東京都,武蔵野市,西久保２丁目１８番３号Ｑビル２０２,,13,203,1800013,,,,,,,2024-12-05,1,,,,,ジウ,0
1343,6020001160364,新規,0,2024-12-05,2024-12-05,コドモズームホールディングス株式会社,,株式会社,神奈川県,横浜市保土ケ谷区,新桜ケ丘２丁目２４番２５号,,14,106,2400036,,,,,,,2024-12-05,1,,,,,コドモズームホールディングス,0
1344,6020001160389,新規,0,2024-12-05,2024-12-05,ネクステート株式会社,,株式会社,神奈川県,川崎市高津区,坂戸２丁目２５番７号,,14,134,2130012,,,,,,,2024-12-05,1,,,,,ネクステート,0
1345,6020001160471,新規,0,2024-12-05,2024-12-05,株式会社みらい,,株式会社,神奈川県,横浜市都筑区,南山田町４０４５番地,,14,118,2240026,,,,,,,2024-12-05,1,,,,,ミライ,0
1351,6020003027314,新規,0,2024-12-05,2024-12-05,合同会社Ｌｉｔｔｌｅ　Ａｒｔｓ,,合同会社,神奈川県,川崎市高津区,新作２丁目５番１１号,,14,134,2130014,,,,,,,2024-12-05,1,,,,,リトルアーツ,0
1352,6020003027371,新規,0,2024-12-05,2024-12-05,合同会社サムズ・アセットマネジメント,,合同会社,神奈川県,川崎市高津区,久地３丁目１６番６－１７０７号,,14,134,2130032,,,,,,,2024-12-05,1,,,,,サムズアセットマネジメント,0
1353,6020003027405,新規,0,2024-12-05,2024-12-05,Ｒｏｏｔ　Ｓｈｏｒｅ合同会社,,合同会社,神奈川県,横浜市磯子区,西町１２番１号根岸駅前第二共同ビル１１０,,14,107,2350007,,,,,,,2024-12-05,1,,,,,ルートショア,0
1357,6021001083919,新規,0,2024-12-05,2024-12-05,株式会社ＲＯＯＭ,,株式会社,神奈川県,大和市,中央林間３丁目１２番１５号コートパル小林１０３号,,14,213,2420007,,,,,,,2024-12-05,1,,,,,ルーム,0
1358,6021001083935,新規,0,2024-12-05,2024-12-05,株式会社ＡＮＤＣＯＲＥ,,株式会社,神奈川県,大和市,中央林間西４丁目５－４Ｍ＆Ｋ大和１Ｆ,,14,213,2420008,,,,,,,2024-12-05,1,,,,,アンドコア,0
1366,6030001163812,新規,0,2024-12-05,2024-12-05,株式会社彩トラスト,,株式会社,埼玉県,上尾市,上平中央２丁目３３番地２０,,11,219,3620008,,,,,,,2024-12-05,1,,,,,サイトラスト,0
1370,6030003025639,新規,0,2024-12-05,2024-12-05,合同会社Ｃ３Ｌｉｆｅ,,合同会社,埼玉県,ふじみ野市,うれし野２丁目１６番１号ＬＣモールうれし野１階,,11,245,3560056,,,,,,,2024-12-05,1,,,,,シースリーライフ,0
1371,6040001136395,新規,0,2024-12-05,2024-12-05,ｄｋ　ｐａｒｔｎｅｒｓ株式会社,,株式会社,千葉県,木更津市,東中央１丁目３番３号ｄｋビル,,12,206,2920057,,,,,,,2024-12-05,1,,,,,エヌ,0
1372,6040001136429,新規,0,2024-12-05,2024-12-05,株式会社眞喜屋工務店,,株式会社,千葉県,船橋市,習志野台６丁目２４番１－１０３号,,12,204,2740063,,,,,,,2024-12-05,1,,,,,マキヤコウムテン,0
1373,6040001136445,新規,0,2024-12-05,2024-12-05,誠進工業株式会社,,株式会社,千葉県,千葉市若葉区,大草町１０８２番地１５,,12,104,2640011,,,,,,,2024-12-05,1,,,,,セイシンコウギョウ,0
1374,6040001136453,新規,0,2024-12-05,2024-12-05,ウインドリーム株式会社,,株式会社,千葉県,市川市,新井３丁目２５番３号,,12,203,2720144,,,,,,,2024-12-05,1,,,,,ウインドリーム,0
1375,6040003026314,新規,0,2024-12-05,2024-12-05,合同会社ＳＡＹＡ　ＩＮＴＥＲＮＡＴＩＯＮＡＬ,,合同会社,千葉県,八街市,八街ろ９５番地１８０,,12,230,2891144,,,,,,,2024-12-05,1,,,,,サヤインターナショナル,0
1376,6040003026339,新規,0,2024-12-05,2024-12-05,合同会社Ｈｕｍａｐｐｙ,,合同会社,千葉県,千葉市中央区,栄町３３－７中央ＳＪビル５０１,,12,101,2600016,,,,,,,2024-12-05,1,,,,,ヒューマッピー,0
1381,6050001055842,新規,0,2024-12-05,2024-12-05,株式会社Ｗａｌｄｙ,,株式会社,茨城県,つくばみらい市,陽光台１丁目１１番地７,,08,235,3002358,,,,,,,2024-12-05,1,,,,,ヴァルティ,0
1387,6070001042418,新規,0,2024-12-05,2024-12-05,株式会社人,,株式会社,群馬県,高崎市,江木町１７９番地１プチタウンＡ－Ｂ,,10,202,3700046,,,,,,,2024-12-05,1,,,,,ヒト,0
1391,6110001038881,新規,0,2024-12-05,2024-12-05,株式会社丸八,,株式会社,新潟県,五泉市,三本木３０４１番地１,,15,218,9591811,,,,,,,2024-12-05,1,,,,,マルハチ,0
1398,6120001270797,新規,0,2024-12-05,2024-12-05,ＡＧＡＲＥ株式会社,,株式会社,大阪府,大阪市北区,天神橋２丁目５番１８号南森町センタービル１０５号,,27,127,5300041,,,,,,,2024-12-05,1,,,,,アガレ,0
1399,6120001270863,新規,0,2024-12-05,2024-12-05,メイプルビジョン株式会社,,株式会社,大阪府,大阪市住之江区,粉浜１丁目３番２５－１０１号,,27,125,5590001,,,,,,,2024-12-05,1,,,,,メイプルビジョン,0
1400,6120001270896,新規,0,2024-12-05,2024-12-05,構造物設計ホールディングス株式会社,,株式会社,大阪府,大阪市淀川区,西中島６丁目７番８号,,27,123,5320011,,,,,,,2024-12-05,1,,,,,コウゾウブツセッケイホールディングス,0
1402,6120003028095,新規,0,2024-12-05,2024-12-05,合同会社ＳＫＲ,,合同会社,大阪府,大阪市北区,梅田１丁目８番１６号ヒルトンプラザイースト,,27,127,5300001,,,,,,,2024-12-05,1,,,,,エスケーアール,0
1403,6120003028104,新規,0,2024-12-05,2024-12-05,ＡＢＢ材料合同会社,,合同会社,大阪府,大阪市西成区,鶴見橋１丁目１５番８号ユタカハイツ３０３号室,,27,122,5570031,,,,,,,2024-12-05,1,,,,,エービービーザイリョウ,0
1405,6120101070701,新規,0,2024-12-05,2024-12-05,株式会社福井電気サービス,,株式会社,大阪府,堺市美原区,小寺４０２－１２,,27,147,5870065,,,,,,,2024-12-05,1,,,,,フクイデンキサービス,0
1407,6120903005409,新規,0,2024-12-05,2024-12-05,合同会社バディホープ,,合同会社,大阪府,高槻市,上土室３丁目１－１号コージーガーデン２０３,,27,207,5691044,,,,,,,2024-12-05,1,,,,,バディホープ,0
1409,6122003003061,新規,0,2024-12-05,2024-12-05,合同会社うのかわ,,合同会社,大阪府,東大阪市,長堂２丁目１７番８－６０６号,,27,227,5770056,,,,,,,2024-12-05,1,,,,,ウノカワ,0
1410,6130001078496,新規,0,2024-12-05,2024-12-05,株式会社ＢＯＢ,,株式会社,京都府,京田辺市,山手中央３番地２,,26,211,6100356,,,,,,,2024-12-05,1,,,,,ビーオービー,0
1411,6130001078521,新規,0,2024-12-05,2024-12-05,株式会社ぜん京都,,株式会社,京都府,長岡京市,河陽が丘１丁目１９番地の２,,26,209,6170852,,,,,,,2024-12-05,1,,,,,ゼンキョウト,0
1412,6130001078538,新規,0,2024-12-05,2024-12-05,株式会社ＮＴアセット,,株式会社,京都府,京田辺市,松井ケ丘４丁目５番地１１,,26,211,6100353,,,,,,,2024-12-05,1,,,,,エヌティーアセット,0
1421,6140001136617,新規,0,2024-12-05,2024-12-05,株式会社山球,,株式会社,兵庫県,加古川市,尾上町口里３２９番地の４,,28,210,6750022,,,,,,,2024-12-05,1,,,,,サンキュウ,0
1422,6140001136641,新規,0,2024-12-05,2024-12-05,株式会社神戸竹内屋,,株式会社,兵庫県,神戸市中央区,中山手通１丁目１３番８号村上ビル２階,,28,110,6500004,,,,,,,2024-12-05,1,,,,,コウベタケウチヤ,0
1425,6140003021379,新規,0,2024-12-05,2024-12-05,合同会社ランテルナ,,合同会社,兵庫県,宝塚市,雲雀丘１丁目１３番８－２０６号,,28,214,6650805,,,,,,,2024-12-05,1,,,,,ランテルナ,0
1426,6140003021387,新規,0,2024-12-05,2024-12-05,合同会社ＡＯＰ,,合同会社,兵庫県,西宮市,花園町３番２号,,28,204,6638187,,,,,,,2024-12-05,1,,,,,エーオーピー,0
1427,6150001027724,新規,0,2024-12-05,2024-12-05,Ｔａｋｉｎｇ株式会社,,株式会社,奈良県,大和高田市,大字神楽１３９番地３,,29,202,6350026,,,,,,,2024-12-05,1,,,,,テイキング,0
1429,6160001026394,新規,0,2024-12-05,2024-12-05,株式会社ユウゼン,,株式会社,滋賀県,草津市,草津１丁目７番２２号,,25,206,5250034,,,,,,,2024-12-05,1,,,,,ユウゼン,0
1432,6180001164382,新規,0,2024-12-05,2024-12-05,ＣＯＲＥ　ＦＡＲＭＡ株式会社,,株式会社,愛知県,名古屋市西区,那古野２丁目２３番地２１号ｄｅｒａ－ｄｏ：ｌａ名駅２ｋ,,23,104,4510042,,,,,,,2024-12-05,1,,,,,コアファーマ,0
1433,6180001164424,新規,0,2024-12-05,2024-12-05,株式会社仁杏凜縁,,株式会社,愛知県,春日井市,花長町１丁目２１番地２２,,23,206,4860951,,,,,,,2024-12-05,1,,,,,ジアリエ,0
1434,6180001164449,新規,0,2024-12-05,2024-12-05,株式会社ワンモアレップ,,株式会社,愛知県,名古屋市中区,栄５丁目２０番２４号フローラル栄ＩＩ５０５号,00137250,23,106,4600008,,,,,,,2024-12-05,1,,,,,ワンモアレップ,0
1435,6180001164457,新規,0,2024-12-05,2024-12-05,株式会社旬家,,株式会社,愛知県,名古屋市名東区,名東本通３丁目４９番メートービル２０Ｂ,,23,115,4650087,,,,,,,2024-12-05,1,,,,,シュンカ,0
1437,6180301039284,新規,0,2024-12-05,2024-12-05,安徳工業株式会社,00137246,株式会社,愛知県,岡崎市,真伝吉祥２丁目２３番地１グランコート吉祥１－１０３,,23,202,4443176,,,,,,,2024-12-05,1,,,,,アントクコウギョウ,0
1438,6180301039301,新規,0,2024-12-05,2024-12-05,鈴木システム株式会社,,株式会社,愛知県,豊橋市,前田町２丁目１２番地２８,,23,201,4400814,,,,,,,2024-12-05,1,,,,,スズキシステム,0
1441,6210001019987,新規,0,2024-12-05,2024-12-05,株式会社コムフル,,株式会社,福井県,鯖江市,神中町１丁目３０３番,,18,207,9160016,,,,,,,2024-12-05,1,,,,,コムフル,0
1445,6220003003906,新規,0,2024-12-05,2024-12-05,合同会社Ｌａ‐ＦＳ,,合同会社,石川県,金沢市,此花町５番６号ライフ金沢第一ビル６０１Ａ,,17,201,9200852,,,,,,,2024-12-05,1,,,,,ラフス,0
1449,6240001064205,新規,0,2024-12-05,2024-12-05,株式会社侑,,株式会社,広島県,三原市,小坂町２５７番地,,34,204,7230131,,,,,,,2024-12-05,1,,,,,ユウ,0
1450,6240001064213,新規,0,2024-12-05,2024-12-05,株式会社ＣＡＭ,,株式会社,広島県,広島市佐伯区,八幡東３丁目２５番１３－１号,,34,108,7315115,,,,,,,2024-12-05,1,,,,,サン,0
1451,6240003006964,新規,0,2024-12-05,2024-12-05,Ｇｏｏｄｒｏｏｔｓ良い嶺合同会社,,合同会社,広島県,広島市佐伯区,五日市中央３丁目１６番７号ルピナス五日市中央１３０４,,34,108,7315128,,,,,,,2024-12-05,1,,,,,グッドルーツイイネ,0
1455,6260005011424,新規,0,2024-12-05,2024-12-05,ＮＰＯ法人まにわアニマルフレンドリー,,その他の設立登記法人,岡山県,真庭市,禾津３７３番地１,,33,214,7170413,,,,,,,2024-12-05,1,,,,,マニワアニマルフレンドリー,0
1467,6330001032722,新規,0,2024-12-05,2024-12-05,ＮＨＣ株式会社,,株式会社,熊本県,熊本市中央区,国府本町１２－９,,43,101,8620948,,,,,,,2024-12-05,1,,,,,エヌエイチシー,0
1476,6360003014501,新規,0,2024-12-05,2024-12-05,合同会社ＫＯＵ,,合同会社,沖縄県,南城市,佐敷字津波古２３９９番地Ｓｈａｎｇｒｉ－ｌａ２０５号室,,47,215,9011414,,,,,,,2024-12-05,1,,,,,コウ,0
1490,6430003017042,新規,0,2024-12-05,2024-12-05,合同会社ＳＡＴＯＲＵ　ＣＯＭＰＡＮＹ,,合同会社,北海道,札幌市北区,新琴似町１００４番地１３,,01,102,0010915,,,,,,,2024-12-05,1,,,,,サトルカンパニー,0
1496,6700150128028,新規,0,2024-12-05,2024-12-05,Ｋｒｕｃｋｅｌ　Ｃｏｍｐａｎｙ,,外国会社等,,,,,,,,Ｒｏｏｍ　Ｇ，５５／Ｆ，Ｔｏｗｅｒ　５，Ｌａｋｅ　Ｓｉｌｖｅｒ５９９　Ｓａｉ　Ｓｈａ　Ｒｏａｄ　Ｌａｋｅ　Ｓｉｌｖｅｒ　Ｍａ　Ｏｎ　Ｓｈａｎ,,,,,,2024-12-05,1,,,,,クラケルカンパニー,0
1502,7010001250355,新規,0,2024-12-05,2024-12-05,株式会社アップステージＡＩ,,株式会社,東京都,千代田区,内幸町２丁目２番２号富国生命ビル渥美坂井法律事務所・外国法共同事業内,,13,101,1000011,,,,,,,2024-12-05,1,,,,,アップステージエーアイ,0
1503,7010001250479,新規,0,2024-12-05,2024-12-05,株式会社スキルアップ,,株式会社,東京都,中央区,銀座１丁目１２番４号Ｎ＆Ｅ，ＢＬＤ．７Ｆ,,13,102,1040061,,,,,,,2024-12-05,1,,,,,スキルアップ,0
1514,7010005039233,新規,0,2024-12-05,2024-12-05,司法書士法人ｍｉｊｉｋａ,,その他の設立登記法人,東京都,中央区,日本橋小網町８番２号ビズマークス日本橋茅場町,,13,102,1030016,,,,,,,2024-12-05,1,,,,,ミジカ,0
1522,7010401186876,新規,0,2024-12-05,2024-12-05,株式会社ＮＥＯＢＡＮＫテクノロジーズ,,株式会社,東京都,港区,六本木３丁目２番１号,,13,103,1060032,,,,,,,2024-12-05,1,,,,,ネオバンクテクノロジーズ,0
1526,7010403033944,新規,0,2024-12-05,2024-12-05,合同会社ＧＬＯＢＡＬ　ＥＸＰＡＮＳＩＯＮ,,合同会社,東京都,港区,赤坂２丁目１７番１２号チュリス赤坂７０２,,13,103,1070052,,,,,,,2024-12-05,1,,,,,グローバルエクスペンション,0
1529,7010501053308,新規,0,2024-12-05,2024-12-05,ＵＥＫＯ株式会社,,株式会社,東京都,台東区,台東２丁目２０－３パークアクシス御徒町１２０１,,13,106,1100016,,,,,,,2024-12-05,1,,,,,ウエコー,0
1530,7010503007658,新規,0,2024-12-05,2024-12-05,合同会社ＴＫ　ＧＲＯＵＰ,,合同会社,東京都,台東区,下谷１丁目５－２８－１２０４,,13,106,1100004,,,,,,,2024-12-05,1,,,,,ティーケーグループ,0
1538,7010901056430,新規,0,2024-12-05,2024-12-05,株式会社きらび,,株式会社,東京都,世田谷区,船橋２丁目８番９号エイトビル４０５,,13,112,1560055,,,,,,,2024-12-05,1,,,,,キラビ,0
1539,7010901056447,新規,0,2024-12-05,2024-12-05,株式会社エルディア,,株式会社,東京都,世田谷区,奥沢６丁目３２番９号ローズコート自由が丘４Ａ,,13,112,1580083,,,,,,,2024-12-05,1,,,,,エルディア,0
1541,7010905004699,新規,0,2024-12-05,2024-12-05,特定非営利活動法人生徒会活動振興会,,その他の設立登記法人,東京都,世田谷区,成城４丁目３３番５－１０１号,,13,112,1570066,,,,,,,2024-12-05,1,,,,,セイトカイカツドウシンコウカイ,0
1553,7011001166137,新規,0,2024-12-05,2024-12-05,株式会社黒戌,,株式会社,東京都,渋谷区,代々木４丁目５番１号ダイヤビル２階,,13,113,1510053,,,,,,,2024-12-05,1,,,,,クロイヌ,0
1554,7011001166161,新規,0,2024-12-05,2024-12-05,株式会社モメンタム,,株式会社,東京都,目黒区,目黒本町５丁目２１番３号シャーメゾン武蔵小山３０１,,13,110,1520002,,,,,,,2024-12-05,1,,,,,モメンタム,0
1555,7011001166384,新規,0,2024-12-05,2024-12-05,株式会社健康通信,,株式会社,東京都,渋谷区,恵比寿４丁目３番５号,,13,113,1500013,,,,,,,2024-12-05,1,,,,,ケンコウツウシン,0
1560,7011101109821,新規,0,2024-12-05,2024-12-05,トラスト株式会社,,株式会社,東京都,新宿区,西新宿３丁目３番１３号西新宿水間ビル６階,,13,104,1600023,,,,,,,2024-12-05,1,,,,,トラスト,0
1561,7011101109862,新規,0,2024-12-05,2024-12-05,株式会社ＪＡＰＯＮＩＳＭ,,株式会社,東京都,新宿区,西新宿６丁目５番１号新宿アイランドタワー２階,,13,104,1600023,,,,,,,2024-12-05,1,,,,,ジャポニズム,0
1564,7011303005348,新規,0,2024-12-05,2024-12-05,合同会社Ｃ‐ＡＲＣ,,合同会社,東京都,杉並区,和泉３丁目６番８号第１０プラムハイツ１０１,,13,115,1680063,,,,,,,2024-12-05,1,,,,,シーアルク,0
1574,7011701027877,新規,0,2024-12-05,2024-12-05,株式会社万吉,,株式会社,東京都,江戸川区,西小岩４丁目１４番１７－５０１号,,13,123,1330057,,,,,,,2024-12-05,1,,,,,マンキチ,0
1575,7011701027885,新規,0,2024-12-05,2024-12-05,一一株式会社,,株式会社,東京都,江戸川区,興宮町１９－６－１０２号,,13,123,1330042,,,,,,,2024-12-05,1,,,,,イチイチ,0
1576,7011703004049,新規,0,2024-12-05,2024-12-05,合同会社ＮＵＲＵ　ｃｏｍｐａｎｙ,,合同会社,東京都,江戸川区,大杉１丁目８－１４京葉コーポ３０２,,13,123,1320022,,,,,,,2024-12-05,1,,,,,ヌルカンパニー,0
1580,7012301014183,新規,0,2024-12-05,2024-12-05,細野ホールディングス株式会社,,株式会社,東京都,町田市,南町田１丁目３１番４１号,,13,209,1940005,,,,,,,2024-12-05,1,,,,,ホソノホールディングス,0
1584,7012403006863,新規,0,2024-12-05,2024-12-05,合同会社なにもの,,合同会社,東京都,三鷹市,上連雀１丁目１２－１７三鷹ビジネスパークＢ１Ｆ,,13,204,1810012,,,,,,,2024-12-05,1,,,,,ナニモノ,0
1599,7020001160446,新規,0,2024-12-05,2024-12-05,株式会社ｔｅｎｙ,,株式会社,神奈川県,横浜市中区,不老町２丁目１１番地８税研センター３階,,14,104,2310032,,,,,,,2024-12-05,1,,,,,テニー,0
1600,7020001160479,新規,0,2024-12-05,2024-12-05,Ｓｕｎ．株式会社,,株式会社,神奈川県,横浜市戸塚区,品濃町８８０－５－５３０,,14,110,2440801,,,,,,,2024-12-05,1,,,,,サン,0
1602,7020003027404,新規,0,2024-12-05,2024-12-05,手島製作所合同会社,,合同会社,神奈川県,横浜市神奈川区,金港町５－１４クアドリフォリオ８階,,14,102,2210056,,,,,,,2024-12-05,1,,,,,テシマセイサクジョ,0
1606,7021001083918,新規,0,2024-12-05,2024-12-05,株式会社ＷａｋａＲｉｓｅ,,株式会社,神奈川県,藤沢市,円行１丁目１２番地の２９,,14,205,2520805,,,,,,,2024-12-05,1,,,,,ワカライズ,0
1614,7030001163828,新規,0,2024-12-05,2024-12-05,株式会社インテラス,,株式会社,埼玉県,川口市,戸塚南５丁目２３番１４号,,11,203,3330817,,,,,,,2024-12-05,1,,,,,インテラス,0
1615,7030001163860,新規,0,2024-12-05,2024-12-05,株式会社プロフェイス,,株式会社,埼玉県,さいたま市緑区,宮本２丁目２９番地３９,,11,109,3360916,,,,,,,2024-12-05,1,,,,,プロフェイス,0
1622,7040001136444,新規,0,2024-12-05,2024-12-05,Ｊｐｈｉｌ　Ｔｅｃ株式会社,,株式会社,千葉県,市原市,飯沼６０２－５,,12,219,2900037,,,,,,,2024-12-05,1,,,,,ジェイフィルテック,0
1623,7040003026305,新規,0,2024-12-05,2024-12-05,合同会社空き家再生ドットコム,,合同会社,千葉県,勝浦市,松部１５２９番地２,,12,218,2995241,,,,,,,2024-12-05,1,,,,,アキヤサイセイドットコム,0
1624,7040003026313,新規,0,2024-12-05,2024-12-05,ハウスセイバー合同会社,,合同会社,千葉県,松戸市,八ケ崎５丁目２－８,,12,207,2700023,,,,,,,2024-12-05,1,,,,,ハウスセイバー,0
1627,7050001055841,新規,0,2024-12-05,2024-12-05,株式会社グッドパートナーズ,,株式会社,茨城県,土浦市,蓮河原新町２番１３－１０１号,,08,203,3000821,,,,,,,2024-12-05,1,,,,,グッドパートナーズ,0
1631,7070003005693,新規,0,2024-12-05,2024-12-05,合同会社ツリーフィールド,,合同会社,群馬県,桐生市,相生町２丁目８７２番１号,,10,203,3760011,,,,,,,2024-12-05,1,,,,,ツリーフィールド,0
1634,7080005007654,新規,0,2024-12-05,2024-12-05,一般社団法人静岡県型枠工事業協会,,その他の設立登記法人,静岡県,静岡市葵区,吉野町４番７号,,22,101,4200046,,,,,,,2024-12-05,1,,,,,シズオカケンカタワクコウジギョウキョウカイ,0
1638,7090003002689,新規,0,2024-12-05,2024-12-05,合同会社テン・フィールド,,合同会社,山梨県,甲府市,上石田３丁目７番１７号,,19,201,4000041,,,,,,,2024-12-05,1,,,,,テンフィールド,0
1642,7100001038089,新規,0,2024-12-05,2024-12-05,株式会社駒沢商店,,株式会社,長野県,長野市,大字下駒沢３８１番地,,20,201,3810008,,,,,,,2024-12-05,1,,,,,コマザワショウテン,0
1647,7110001038889,新規,0,2024-12-05,2024-12-05,株式会社拓新建商,,株式会社,新潟県,長岡市,新産４丁目４番地２,,15,202,9402127,,,,,,,2024-12-05,1,,,,,タクシンケンショウ,0
1648,7110003005598,新規,0,2024-12-05,2024-12-05,合同会社ｔｒｕｓｔ　ｍｏｏｎ,,合同会社,新潟県,燕市,桜町４４番地１２,,15,213,9591281,,,,,,,2024-12-05,1,,,,,,0
1655,7120001270648,新規,0,2024-12-05,2024-12-05,搏麗株式会社,,株式会社,大阪府,大阪市東淀川区,西淡路５丁目１番１号２階２０４－９号室,,27,114,5330031,,,,,,,2024-12-05,1,,,,,ハクレイ,0
1656,7120001270706,新規,0,2024-12-05,2024-12-05,株式会社都島君,,株式会社,大阪府,大阪市城東区,成育４丁目２４－１３,,27,118,5360007,,,,,,,2024-12-05,1,,,,,ミヤコジマクン,0
1657,7120001270821,新規,0,2024-12-05,2024-12-05,星儀株式会社,,株式会社,大阪府,大阪市港区,八幡屋３丁目１－３ＪＰアパートメント港４０６号室,,27,107,5520014,,,,,,,2024-12-05,1,,,,,セイギ,0
1658,7120001270879,新規,0,2024-12-05,2024-12-05,株式会社ＯＳＫ,,株式会社,大阪府,大阪市東淀川区,菅原３丁目１２番９－４０１号,,27,114,5330022,,,,,,,2024-12-05,1,,,,,オーエスケー,0
1670,7120901050125,新規,0,2024-12-05,2024-12-05,株式会社オプティオ,,株式会社,大阪府,吹田市,南吹田３丁目９番地１４号Ｄ棟,,27,205,5640043,,,,,,,2024-12-05,1,,,,,オプティオ,0
1674,7130001078520,新規,0,2024-12-05,2024-12-05,株式会社Ｅｍｍａｂｅｌｌ,,株式会社,京都府,綴喜郡宇治田原町,銘城台８番地の５,,26,344,6100254,,,,,,,2024-12-05,1,,,,,エマーベル,0
1675,7130001078529,新規,0,2024-12-05,2024-12-05,株式会社ＸｍＡｐ,,株式会社,京都府,京田辺市,花住坂３丁目２１番地２,,26,211,6100352,,,,,,,2024-12-05,1,,,,,エックスマップ,0
1676,7130003010051,新規,0,2024-12-05,2024-12-05,創健合同会社,,合同会社,京都府,京都市山科区,御陵鳥ノ向町２１番地富士菱ビル１Ｆ,,26,110,6078408,,,,,,,2024-12-05,1,,,,,ソウケン,0
1683,7140001136541,新規,0,2024-12-05,2024-12-05,株式会社Ｓコンシェルジュオフィス,,株式会社,兵庫県,神戸市須磨区,戎町４丁目１－６－２０１,,28,107,6540023,,,,,,,2024-12-05,1,,,,,エスコンシェルジュオフィス,0
1684,7140001136616,新規,0,2024-12-05,2024-12-05,株式会社Ｋ‐ＦＡＣＴＯＲＹ,,株式会社,兵庫県,神戸市兵庫区,湊町３丁目４番２号,,28,105,6520812,,,,,,,2024-12-05,1,,,,,ケイファクトリー,0
1685,7140001136624,新規,0,2024-12-05,2024-12-05,ＥＭラボマニュファクチャリング株式会社,,株式会社,兵庫県,神戸市長田区,水笠通１丁目４－１３,,28,106,6530842,,,,,,,2024-12-05,1,,,,,イーエムラボマニュファクチャリング,0
1686,7140001136640,新規,0,2024-12-05,2024-12-05,株式会社不動産コンサルティング名田事務所,,株式会社,兵庫県,宝塚市,鹿塩１丁目７番４号,,28,214,6650054,,,,,,,2024-12-05,1,,,,,フドウサンコンサルティングナダジムショ,0
1689,7150001027723,新規,0,2024-12-05,2024-12-05,株式会社おとたま農園,,株式会社,奈良県,五條市,今井４丁目２番５７号,,29,207,6370004,,,,,,,2024-12-05,1,,,,,オトタマノウエン,0
1690,7160001026393,新規,0,2024-12-05,2024-12-05,株式会社悠里商会,,株式会社,滋賀県,米原市,三吉１０２８番地３３,,25,214,5210023,,,,,,,2024-12-05,1,,,,,,0
1699,7190001031845,新規,0,2024-12-05,2024-12-05,吹上ホールディングス株式会社,,株式会社,三重県,伊勢市,黒瀬町１４６４番地,,24,203,5160018,,,,,,,2024-12-05,1,,,,,フキアゲホールディングス,0
1700,7190001031853,新規,0,2024-12-05,2024-12-05,株式会社クオン,,株式会社,三重県,伊賀市,上野池町１３４９番地６,,24,216,5180853,,,,,,,2024-12-05,1,,,,,クオン,0
1704,7200003006612,新規,0,2024-12-05,2024-12-05,合同会社どうだん,,合同会社,岐阜県,中津川市,苗木２３１９番地の１,,21,206,5080101,,,,,,,2024-12-05,1,,,,,ドウダン,0
1714,7240001064212,新規,0,2024-12-05,2024-12-05,セキソウ株式会社,,株式会社,広島県,呉市,広多賀谷２丁目３番１２号,,34,202,7370134,,,,,,,2024-12-05,1,,,,,セキソウ,0
1716,7240003006963,新規,0,2024-12-05,2024-12-05,合同会社リベラート,,合同会社,広島県,広島市中区,本川町２丁目１番１４－９０３号,,34,101,7300802,,,,,,,2024-12-05,1,,,,,リベラート,0
1721,7250001020924,新規,0,2024-12-05,2024-12-05,株式会社蓮華,,株式会社,山口県,山口市,秋穂東７５３９,,35,203,7541101,,,,,,,2024-12-05,1,,,,,レンゲ,0
1727,7270001009098,新規,0,2024-12-05,2024-12-05,株式会社美Ｐｌｕｓ,,株式会社,鳥取県,鳥取市,岩吉１２２番地２０,,31,201,6800931,,,,,,,2024-12-05,1,,,,,ビプラス,0
1728,7280001009304,新規,0,2024-12-05,2024-12-05,株式会社ＵｎｉＰａｔｈ,,株式会社,島根県,雲南市,大東町須賀８２０番地１,,32,209,6991205,,,,,,,2024-12-05,1,,,,,ユニパス,0
1741,7330001032713,新規,0,2024-12-05,2024-12-05,株式会社中野実業,,株式会社,熊本県,熊本市南区,南高江６丁目３番２０号,,43,104,8614106,,,,,,,2024-12-05,1,,,,,ナカノジツギョウ,0
1742,7330001032721,新規,0,2024-12-05,2024-12-05,ＳＫ虹光株式会社,,株式会社,熊本県,熊本市東区,長嶺東４丁目８番２４号,,43,102,8618038,,,,,,,2024-12-05,1,,,,,エスケーコウコウ,0
1750,7360001034509,新規,0,2024-12-05,2024-12-05,株式会社崎原工房,,株式会社,沖縄県,中頭郡西原町,字呉屋４３７番地の１,,47,329,9030124,,,,,,,2024-12-05,1,,,,,サキハラコウボウ,0
1751,7360001034517,新規,0,2024-12-05,2024-12-05,株式会社グッドパシフィック,,株式会社,沖縄県,浦添市,字港川２５２番地５－１４１２,,47,208,9012134,,,,,,,2024-12-05,1,,,,,グッドパシフィック,0
1766,7430001093191,新規,0,2024-12-05,2024-12-05,株式会社ベイスリー,,株式会社,北海道,札幌市清田区,真栄四条２丁目１９番１３号,,01,110,0040834,,,,,,,2024-12-05,1,,,,,ベイスリー,0
1786,8010001250420,新規,0,2024-12-05,2024-12-05,株式会社コスモ,,株式会社,東京都,千代田区,神田須田町１丁目７番地８ＶＯＲＴ秋葉原ＩＶ２階,00137241,13,101,1010041,,,,,,,2024-12-05,1,,,,,コスモ,0
1788,8010003045711,新規,0,2024-12-05,2024-12-05,デロイトトーマツＴ＆Ｌ合同会社,,合同会社,東京都,千代田区,丸の内３丁目２番３号丸の内二重橋ビルディング,,13,101,1000005,,,,,,,2024-12-05,1,,,,,デロイトトーマツティーアンドエル,0
1789,8010005039240,新規,0,2024-12-05,2024-12-05,心斎橋みらい特定目的会社,,その他の設立登記法人,東京都,千代田区,丸の内１丁目４番１号東京共同会計事務所内,,13,101,1000005,,,,,,,2024-12-05,1,,,,,シンサイバシミライ,0
1797,8010403033943,新規,0,2024-12-05,2024-12-05,合同会社ＳＩＲｉＴＡＩ,,合同会社,東京都,港区,南麻布３丁目１０番２７号,,13,103,1060047,,,,,,,2024-12-05,1,,,,,シリタイ,0
1798,8010405023819,新規,0,2024-12-05,2024-12-05,特定目的会社ＴＳＭＺ６,,その他の設立登記法人,東京都,港区,元赤坂１丁目１番７号,,13,103,1070051,,,,,,,2024-12-05,1,,,,,ティーエスエムゼットシックス,0
1801,8010501053298,新規,0,2024-12-05,2024-12-05,東京メトロエデュケーショナル株式会社,,株式会社,東京都,台東区,東上野３丁目１９番６号,,13,106,1100015,,,,,,,2024-12-05,1,,,,,トウキョウメトロエデュケーショナル,0
1802,8010503007657,新規,0,2024-12-05,2024-12-05,フィルマネジメント合同会社,,合同会社,東京都,台東区,柳橋１丁目３０番５号ＫＹビル７０３,,13,106,1110052,,,,,,,2024-12-05,1,,,,,フィルマネジメント,0
1806,8010805003148,新規,0,2024-12-05,2024-12-05,特定非営利活動法人オールオオタ,,その他の設立登記法人,東京都,大田区,東糀谷５丁目２２番１３号,,13,111,1440033,,,,,,,2024-12-05,1,,,,,オールオオタ,0
1818,8011001166128,新規,0,2024-12-05,2024-12-05,株式会社ビジョンエンターテインメント,,株式会社,東京都,渋谷区,神宮前５丁目４６番２号シンシア表参道１階,,13,113,1500001,,,,,,,2024-12-05,1,,,,,ビジョンエンターテインメント,0
1819,8011001166152,新規,0,2024-12-05,2024-12-05,株式会社ワイイノベーションズ,,株式会社,東京都,渋谷区,神宮前６丁目１８番３号,,13,113,1500001,,,,,,,2024-12-05,1,,,,,ワイイノベーションズ,0
1820,8011001166169,新規,0,2024-12-05,2024-12-05,株式会社ＫＩＫＡ,,株式会社,東京都,渋谷区,猿楽町１２番３６号,,13,113,1500033,,,,,,,2024-12-05,1,,,,,キカ,0
1825,8011101109787,新規,0,2024-12-05,2024-12-05,Ｒ＆Ｈ株式会社,,株式会社,東京都,新宿区,新宿２丁目７番２号,,13,104,1600022,,,,,,,2024-12-05,1,,,,,アールアンドエイチ,0
1829,8011103015257,新規,0,2024-12-05,2024-12-05,合同会社ｎｘｅ,,合同会社,東京都,新宿区,榎町３４番地３榎町ビル５階０５室,,13,104,1620806,,,,,,,2024-12-05,1,,,,,エヌエックスイー,0
1833,8011301030207,新規,0,2024-12-05,2024-12-05,株式会社杉並絵画修復工房,,株式会社,東京都,杉並区,本天沼２丁目３１番９号アミーズ荻窪１０７号室,,13,115,1670031,,,,,,,2024-12-05,1,,,,,スギナミカイガシュウフクコウボウ,0
1840,8011701027884,新規,0,2024-12-05,2024-12-05,松康株式会社,,株式会社,東京都,江戸川区,松江２丁目１番１３－３０９号室,,13,123,1320025,,,,,,,2024-12-05,1,,,,,ショウコウ,0
1841,8011801045258,新規,0,2024-12-05,2024-12-05,Ｓｐａｃｅｗａｌｋｅｒ　Ｔｅｃｈｎｏｌｏｇｙ　Ｊａｐａｎ株式会社,,株式会社,東京都,葛飾区,東金町６丁目６番５号センタービル金町４階４１８室,,13,122,1250041,,,,,,,2024-12-05,1,,,,,スペースウォーカーテクノロジージャパン,0
1843,8012301014182,新規,0,2024-12-05,2024-12-05,株式会社フリスコ,,株式会社,東京都,町田市,南成瀬５丁目２５番地１４,,13,209,1940045,,,,,,,2024-12-05,1,,,,,フリスコ,0
1846,8013101009579,新規,0,2024-12-05,2024-12-05,株式会社ＦＲＥＥＫＳ,,株式会社,東京都,福生市,大字福生２４０８番地１０,,13,218,1970011,,,,,,,2024-12-05,1,,,,,フリークス,0
1862,8020001160404,新規,0,2024-12-05,2024-12-05,株式会社リナワタル,,株式会社,神奈川県,横浜市青葉区,大場町１７４番地２８,,14,117,2250023,,,,,,,2024-12-05,1,,,,,リナワタル,0
1863,8020001160429,新規,0,2024-12-05,2024-12-05,株式会社リーブル,,株式会社,神奈川県,横浜市金沢区,能見台５丁目１３番地１７－２,,14,108,2360057,,,,,,,2024-12-05,1,,,,,リーブル,0
1864,8020001160461,新規,0,2024-12-05,2024-12-05,株式会社可林こーぽれーしょん,,株式会社,神奈川県,川崎市中原区,中丸子１３番地１０リエトコート武蔵小杉ＴＨＥ・ＣＬＡＳＳＹＴＯＷＥＲ４３０３号室,,14,133,2110012,,,,,,,2024-12-05,1,,,,,カリンコーポレーション,0
1865,8020001160478,新規,0,2024-12-05,2024-12-05,ｓｅｖｅｎ　ｒｅｐ　ｔｏｋｙｏ株式会社,,株式会社,神奈川県,横浜市港南区,野庭町５９３番地９サンライズＮＯＶＡ１０５,,14,111,2340056,,,,,,,2024-12-05,1,,,,,セブンレップトウキョウ,0
1872,8021001083925,新規,0,2024-12-05,2024-12-05,株式会社グリーンピース,,株式会社,神奈川県,横須賀市,岩戸４丁目２０番１４号,,14,201,2390844,,,,,,,2024-12-05,1,,,,,グリーンピース,0
1873,8021001083933,新規,0,2024-12-05,2024-12-05,株式会社三和冷機,,株式会社,神奈川県,大和市,大和東３丁目４－２１レジデンスヒダ店舗１階１０２号室,,14,213,2420017,,,,,,,2024-12-05,1,,,,,サンワレイキ,0
1874,8021001083941,新規,0,2024-12-05,2024-12-05,株式会社ＯＣＥＡＮ’ＳＨＯＭＥ,,株式会社,神奈川県,相模原市中央区,相模原３丁目１番１号,,14,152,2520231,,,,,,,2024-12-05,1,,,,,オーシャンズホーム,0
1876,8021003015307,新規,0,2024-12-05,2024-12-05,ＫａｍａｋｕｒａＰｅａｋＰａｒｔｎｅｒｓ合同会社,,合同会社,神奈川県,鎌倉市,長谷２丁目１番１７号Ａ,,14,204,2480016,,,,,,,2024-12-05,1,,,,,カマクラピークパートナーズ,0
1880,8030001163694,新規,0,2024-12-05,2024-12-05,株式会社Ｂｏｎｉ　Ｊｅｗｅｌｒｙ　Ｊａｐａｎ,,株式会社,埼玉県,川越市,広栄町２番地２レーベンハイム川越サンシエナ５０２,,11,201,3501117,,,,,,,2024-12-05,1,,,,,ボニジュエリージャパン,0
1881,8030001163760,新規,0,2024-12-05,2024-12-05,株式会社ＢｌｏｏｍＣｏｎｎｅｃｔｉｏｎ,,株式会社,埼玉県,川口市,大字木曽呂３２４番地,,11,203,3330831,,,,,,,2024-12-05,1,,,,,ブルームコネクション,0
1882,8030001163827,新規,0,2024-12-05,2024-12-05,株式会社ＢＡＲＡＮ　ｃｏｒｐｏｒａｔｉｏｎ,,株式会社,埼玉県,越谷市,赤山町２丁目１６４番地パステルハイツ２０５,,11,222,3430807,,,,,,,2024-12-05,1,,,,,バランコーポレーション,0
1888,8040001136427,新規,0,2024-12-05,2024-12-05,株式会社米昭,,株式会社,千葉県,いすみ市,岬町中原５４４番地１,,12,238,2994502,,,,,,,2024-12-05,1,,,,,ヨネショウ,0
1889,8040001136435,新規,0,2024-12-05,2024-12-05,４０４株式会社,,株式会社,千葉県,千葉市若葉区,小倉台２丁目１０２１番地１グロリオーサＪ棟２０６号,,12,104,2640006,,,,,,,2024-12-05,1,,,,,ヨンゼロヨン,0
1890,8040001136451,新規,0,2024-12-05,2024-12-05,株式会社ＫＪ,,株式会社,千葉県,茂原市,長尾２６９１番地９,,12,210,2970073,,,,,,,2024-12-05,1,,,,,ケージェー,0
1892,8040003026312,新規,0,2024-12-05,2024-12-05,合同会社ワイプラス,,合同会社,千葉県,松戸市,緑ケ丘１丁目３８番地の２,,12,207,2710074,,,,,,,2024-12-05,1,,,,,ワイプラス,0
1898,8060001037706,新規,0,2024-12-05,2024-12-05,株式会社アライ空調工業,,株式会社,栃木県,足利市,百頭町２１１４番地２,,09,202,3260336,,,,,,,2024-12-05,1,,,,,アライクウチョウコウギョウ,0
1901,8080001026640,新規,0,2024-12-05,2024-12-05,株式会社ＡＳＱＵＡＲＥ,,株式会社,静岡県,静岡市駿河区,中原９３１－１中原５階建て貸しビル１階,,22,102,4228058,,,,,,,2024-12-05,1,,,,,アスクエア,0
1907,8100003007900,新規,0,2024-12-05,2024-12-05,合同会社ＭｏＣａ,,合同会社,長野県,松本市,大字寿小赤２７３１番地ヒルサイドＴＭ１０３,,20,202,3990024,,,,,,,2024-12-05,1,,,,,モカ,0
1917,8120001270770,新規,0,2024-12-05,2024-12-05,株式会社ＳＰＥＣＩＯ　ＪＡＰＡＮ,,株式会社,大阪府,大阪市北区,西天満６丁目８番１９－１２０１号,,27,127,5300047,,,,,,,2024-12-05,1,,,,,スペシオジャパン,0
1918,8120001270795,新規,0,2024-12-05,2024-12-05,株式会社ＳＧＯ,,株式会社,大阪府,大阪市西成区,岸里１丁目３番３８号,,27,122,5570041,,,,,,,2024-12-05,1,,,,,エスジーオー,0
1919,8120001270812,新規,0,2024-12-05,2024-12-05,株式会社ＫＯＭＯＲＥＢＩ,,株式会社,大阪府,大阪市東淀川区,西淡路５丁目１番１号２階２０４－１号室,,27,114,5330031,,,,,,,2024-12-05,1,,,,,コモレビ,0
1920,8120001270845,新規,0,2024-12-05,2024-12-05,エコロジ株式会社,,株式会社,大阪府,大阪市住之江区,南港中４丁目２番１４－１３１４号,,27,125,5590033,,,,,,,2024-12-05,1,,,,,エコロジ,0
1921,8120001270861,新規,0,2024-12-05,2024-12-05,株式会社ジャストミート,,株式会社,大阪府,大阪市此花区,酉島１丁目１５番地１３号,,27,104,5540051,,,,,,,2024-12-05,1,,,,,ジャストミート,0
1922,8120001270878,新規,0,2024-12-05,2024-12-05,株式会社ＨＯＵＳＥ　ＡＲＴ,,株式会社,大阪府,門真市,末広町３７番２３－１０２号,,27,223,5710030,,,,,,,2024-12-05,1,,,,,ハウスアート,0
1925,8120003028110,新規,0,2024-12-05,2024-12-05,合同会社コスモス,,合同会社,大阪府,大阪市東成区,深江南３丁目１９番１６号４０３,,27,115,5370002,,,,,,,2024-12-05,1,,,,,コスモス,0
1930,8120101070690,新規,0,2024-12-05,2024-12-05,株式会社和の光,,株式会社,大阪府,阪南市,黒田１２１番地,,27,232,5990203,,,,,,,2024-12-05,1,,,,,ワノヒカリ,0
1943,8130001078528,新規,0,2024-12-05,2024-12-05,日辰株式会社,,株式会社,京都府,京都市山科区,竹鼻竹ノ街道町６５番地１－３０２号,,26,110,6078080,,,,,,,2024-12-05,1,,,,,ニッタツ,0
1945,8130003010050,新規,0,2024-12-05,2024-12-05,合同会社ＪＭプランニング,,合同会社,京都府,宇治市,広野町寺山５８番地８３,,26,204,6110031,,,,,,,2024-12-05,1,,,,,ジェイエムプランニング,0
1946,8130003010059,新規,0,2024-12-05,2024-12-05,合同会社氣,,合同会社,京都府,京都市西京区,桂千代原町３５番地の１６,,26,111,6158085,,,,,,,2024-12-05,1,,,,,イキ,0
1948,8140001136615,新規,0,2024-12-05,2024-12-05,株式会社ＭｙＤａｙ,,株式会社,兵庫県,神戸市中央区,旗塚通３丁目３番９号奥谷ビル３０３,,28,110,6510068,,,,,,,2024-12-05,1,,,,,マイデイ,0
1949,8140001136623,新規,0,2024-12-05,2024-12-05,株式会社ホームメイク,,株式会社,兵庫県,明石市,大久保町山手台４丁目１９５番地の２５,,28,203,6740056,,,,,,,2024-12-05,1,,,,,ホームメイク,0
1950,8140001136631,新規,0,2024-12-05,2024-12-05,つづらの商事株式会社,,株式会社,兵庫県,神戸市東灘区,御影３丁目２番１１号－３７,,28,101,6580047,,,,,,,2024-12-05,1,,,,,ツヅラノショウジ,0
1951,8140001136648,新規,0,2024-12-05,2024-12-05,株式会社ＨＦ,,株式会社,兵庫県,たつの市,新宮町井野原７０７番地４,,28,229,6794315,,,,,,,2024-12-05,1,,,,,エイチエフ,0
1960,8160001026392,新規,0,2024-12-05,2024-12-05,株式会社Ｓｈｉｆｔｙ,,株式会社,滋賀県,大津市,松本１丁目８番１４号,,25,201,5200807,,,,,,,2024-12-05,1,,,,,シフティ,0
1962,8170001018406,新規,0,2024-12-05,2024-12-05,株式会社デンタルアートスタジオ,,株式会社,和歌山県,和歌山市,湊本町３丁目１０番地,,30,201,6408222,,,,,,,2024-12-05,1,,,,,デンタルアートスタジオ,0
1964,8180001164422,新規,0,2024-12-05,2024-12-05,株式会社エムズコーポレーション,,株式会社,愛知県,一宮市,森本１丁目４番１２号ロックナーヴェ２０２号,,23,203,4910831,,,,,,,2024-12-05,1,,,,,エムズコーポレーション,0
1965,8180001164439,新規,0,2024-12-05,2024-12-05,株式会社エイトンホールディングス,,株式会社,愛知県,名古屋市中村区,名駅５丁目３番８号,,23,105,4500002,,,,,,,2024-12-05,1,,,,,エイトンホールディングス,0
1968,8180301039299,新規,0,2024-12-05,2024-12-05,株式会社菊池ファクトリー,,株式会社,愛知県,豊川市,東上町勝川３８番地２,,23,207,4411201,,,,,,,2024-12-05,1,,,,,キクチファクトリー,0
1977,8230001020644,新規,0,2024-12-05,2024-12-05,株式会社Ａ＆Ｋ,,株式会社,富山県,富山市,中川原２６３番地１,,16,201,9398015,,,,,,,2024-12-05,1,,,,,エーアンドケー,0
1983,8240001064211,新規,0,2024-12-05,2024-12-05,株式会社咲人工業,,株式会社,広島県,尾道市,西藤町４１５番地１７,,34,205,7290142,,,,,,,2024-12-05,1,,,,,サクトコウギョウ,0
1984,8240003006962,新規,0,2024-12-05,2024-12-05,合同会社こと,,合同会社,広島県,広島市西区,観音新町１丁目１２番６－１０１号,,34,104,7330036,,,,,,,2024-12-05,1,,,,,コト,0
1987,8260003004997,新規,0,2024-12-05,2024-12-05,合同会社ＹＯＳＨＩＳＵＥ,,合同会社,岡山県,岡山市南区,西市７２３番地１６,,33,104,7000953,,,,,,,2024-12-05,1,,,,,ヨシスエ,0
1988,8280001009303,新規,0,2024-12-05,2024-12-05,株式会社モットスマイル,,株式会社,島根県,松江市,山代町１０１７,,32,201,6900031,,,,,,,2024-12-05,1,,,,,モットスマイル,0
1994,8290803004913,新規,0,2024-12-05,2024-12-05,合同会社庭崎,,合同会社,福岡県,北九州市戸畑区,高峰２丁目５番１３号,,40,105,8040051,,,,,,,2024-12-05,1,,,,,ニワサキ,0
1995,8290805009786,新規,0,2024-12-05,2024-12-05,一般社団法人井川トラスト,,その他の設立登記法人,福岡県,北九州市若松区,くきのうみ中央７番１８号,,40,103,8080066,,,,,,,2024-12-05,1,,,,,イガワトラスト,0
1998,8320001020841,新規,0,2024-12-05,2024-12-05,株式会社三陽テック,,株式会社,大分県,豊後高田市,来縄２５８８番地１,,44,209,8790614,,,,,,,2024-12-05,1,,,,,サンヨウテック,0
2000,8320003004529,新規,0,2024-12-05,2024-12-05,合同会社ＯｍｏＲｉ,,合同会社,大分県,大分市,大字旦野原８４７番地の１１４,,44,201,8701124,,,,,,,2024-12-05,1,,,,,オモリ,0
2001,8330001032720,新規,0,2024-12-05,2024-12-05,株式会社ＲｉｚｅＯｎｅ,,株式会社,熊本県,熊本市中央区,国府１丁目２２番６－２Ｂ号室,,43,101,8620949,,,,,,,2024-12-05,1,,,,,ライズワン,0
2003,8340003004683,新規,0,2024-12-05,2024-12-05,合同会社やくしまいこ,,合同会社,鹿児島県,熊毛郡屋久島町,小瀬田８番地１５,,46,505,8914207,,,,,,,2024-12-05,1,,,,,ヤクシマイコ,0
2008,8370001052005,新規,0,2024-12-05,2024-12-05,ＨＩ‐ＴＥＣ株式会社,,株式会社,宮城県,黒川郡大和町,吉岡南２丁目８－１２－１０２,,04,421,9813626,,,,,,,2024-12-05,1,,,,,ハイテック,0
2011,8370005010867,新規,0,2024-12-05,2024-12-05,一般社団法人仙台市中央卸売市場運営協力会,,その他の設立登記法人,宮城県,仙台市若林区,卸町４丁目３番地の１,,04,103,9840015,,,,,,,2024-12-05,1,,,,,センダイシチュウオウオロシウリシジョウウンエイキョウリョクカイ,0
2025,8430001093190,新規,0,2024-12-05,2024-12-05,株式会社ＴＫ‐Ｌａｂ．Ａｍｂｉｔｉｏｎ,,株式会社,北海道,石狩郡新篠津村,第４７線北１４番地,,01,304,0681100,,,,,,,2024-12-05,1,,,,,ティーケーラボアンビション,0
2026,8430001093208,新規,0,2024-12-05,2024-12-05,株式会社Ｔｈｅ　ｏｎｅ,,株式会社,北海道,札幌市豊平区,平岸四条８丁目９番１９号,,01,105,0620934,,,,,,,2024-12-05,1,,,,,ザワン,0
2027,8430001093216,新規,0,2024-12-05,2024-12-05,株式会社ナインプロモーション,,株式会社,北海道,札幌市中央区,南一条西５丁目１６プレジデント松井ビル１００　３０５Ａ,,01,101,0600061,,,,,,,2024-12-05,1,,,,,ナインプロモーション,0
2041,8700150128059,新規,0,2024-12-05,2024-12-05,一身田平野土地改良区,,その他,三重県,津市,一身田平野５１１番地,,24,201,5140111,,,,,,,2024-12-05,1,,,,,イツシンデンヒラノトチカイリヨウク,0
2054,9010001250320,新規,0,2024-12-05,2024-12-05,株式会社ケンブリッジセンター,,株式会社,東京都,千代田区,丸の内２丁目３番２号郵船ビルディング１階,,13,101,1000005,,,,,,,2024-12-05,1,,,,,ケンブリッジセンター,0
2055,9010001250428,新規,0,2024-12-05,2024-12-05,株式会社ｂｅｌｏｎｇｉｎｇＪＡＰＡＮ,,株式会社,東京都,中央区,京橋２丁目２番１号,,13,102,1040031,,,,,,,2024-12-05,1,,,,,ビロンギングジャパン,0
2056,9010001250436,新規,0,2024-12-05,2024-12-05,株式会社ベガスフーズ,,株式会社,東京都,中央区,銀座１丁目２２番１１号銀座大竹ビジデンス２Ｆ,,13,102,1040061,,,,,,,2024-12-05,1,,,,,ベガスフーズ,0
2057,9010001250485,新規,0,2024-12-05,2024-12-05,霞ヶ関建設株式会社,,株式会社,東京都,千代田区,霞が関３丁目２番１号,,13,101,1000013,,,,,,,2024-12-05,1,,,,,カスミガセキケンセツ,0
2058,9010003045693,新規,0,2024-12-05,2024-12-05,合同会社ＭＥＥＴ　ＹＯＵ,,合同会社,東京都,利島村,１０,,13,362,1000301,,,,,,,2024-12-05,1,,,,,ミートユー,0
2062,9010005039231,新規,0,2024-12-05,2024-12-05,一般社団法人ＩＫＪ相続あんしんセンター,,その他の設立登記法人,東京都,中央区,京橋２丁目２番１号京橋エドグラン２６階,,13,102,1040031,,,,,,,2024-12-05,1,,,,,アイケイジェイソウゾクアンシンセンター,0
2076,9010501053314,新規,0,2024-12-05,2024-12-05,株式会社ダブルレインボー,,株式会社,東京都,台東区,下谷１丁目５番６－７０２号クレストフォルム上野の杜,,13,106,1100004,,,,,,,2024-12-05,1,,,,,ダブルレインボー,0
2089,9011001166143,新規,0,2024-12-05,2024-12-05,株式会社ＣａｒｅｅｒＮｅｘｕｓ,,株式会社,東京都,渋谷区,南平台町１６番２８号Ｄａｉｗａ渋谷スクエア１階,,13,113,1500036,,,,,,,2024-12-05,1,,,,,キャリアネクサス,0
2095,9011101109803,新規,0,2024-12-05,2024-12-05,株式会社ＳｔｏｒｍＳｔｏｒｙ,,株式会社,東京都,新宿区,中落合２丁目１２番１８－２０１号,,13,104,1610032,,,,,,,2024-12-05,1,,,,,ストームストーリー,0
2096,9011103015256,新規,0,2024-12-05,2024-12-05,合同会社フリーダムスペース,,合同会社,東京都,新宿区,高田馬場３丁目３４－１６ＹＳビル３０１,,13,104,1690075,,,,,,,2024-12-05,1,,,,,フリーダムスペース,0
2102,9011401026624,新規,0,2024-12-05,2024-12-05,株式会社ＫＯＳＨＩＲＡＥＧＯＴＯ,,株式会社,東京都,板橋区,三園１丁目３８番４号,,13,119,1750091,,,,,,,2024-12-05,1,,,,,コシラエゴト,0
2105,9011701027875,新規,0,2024-12-05,2024-12-05,世成株式会社,,株式会社,東京都,江戸川区,中葛西５丁目１１番２５－９１１号,,13,123,1340083,,,,,,,2024-12-05,1,,,,,セナル,0
2111,9012401042537,新規,0,2024-12-05,2024-12-05,株式会社ＴＡＫＡＲＡ　ＷＯＲＫＳ,,株式会社,東京都,府中市,小柳町５丁目３６番地の２４,,13,206,1830013,,,,,,,2024-12-05,1,,,,,タカラワークス,0
2122,9013301053467,新規,0,2024-12-05,2024-12-05,統好商事株式会社,,株式会社,東京都,豊島区,池袋１丁目１６番２０号,,13,116,1700014,,,,,,,2024-12-05,1,,,,,トウコウショウジ,0
2124,9020001160403,新規,0,2024-12-05,2024-12-05,司ホールディングス株式会社,,株式会社,神奈川県,横浜市青葉区,榎が丘１３番地２,,14,117,2270063,,,,,,,2024-12-05,1,,,,,ツカサホールディングス,0
2125,9020001160477,新規,0,2024-12-05,2024-12-05,株式会社アールエー・ビジョン,,株式会社,神奈川県,川崎市麻生区,細山７丁目１６番７号,,14,137,2150001,,,,,,,2024-12-05,1,,,,,アールエービジョン,0
2132,9020003027352,新規,0,2024-12-05,2024-12-05,合同会社ＲｅＣｏｄｅ,,合同会社,神奈川県,川崎市多摩区,登戸２１３番地１,,14,135,2140014,,,,,,,2024-12-05,1,,,,,リコード,0
2140,9021001083924,新規,0,2024-12-05,2024-12-05,ＮＥＸＴ　ＣＡＲＥ株式会社,,株式会社,神奈川県,横須賀市,浦郷町１丁目４４番地３,,14,201,2370062,,,,,,,2024-12-05,1,,,,,ネクストケア,0
2151,9030001163776,新規,0,2024-12-05,2024-12-05,株式会社ＳＨＩＲＡＫＡＷＡ,,株式会社,埼玉県,新座市,西堀２丁目１０番５０－４号,,11,230,3520031,,,,,,,2024-12-05,1,,,,,シラカワ,0
2152,9030001163826,新規,0,2024-12-05,2024-12-05,０１１２プロダクション株式会社,,株式会社,埼玉県,越谷市,南越谷４丁目１１番地５トラビ南越谷６Ｆ－２８,,11,222,3430845,,,,,,,2024-12-05,1,,,,,ゼロイチイチニプロダクション,0
2153,9030001163834,新規,0,2024-12-05,2024-12-05,株式会社ｅｆ．ｔ,,株式会社,埼玉県,さいたま市大宮区,桜木町２丁目３番地大宮マルイ７階,,11,103,3300854,,,,,,,2024-12-05,1,,,,,エフト,0
2156,9030003025636,新規,0,2024-12-05,2024-12-05,合同会社ルオーロ,,合同会社,埼玉県,所沢市,大字山口２００７番地の１４,,11,208,3591145,,,,,,,2024-12-05,1,,,,,ルオーロ,0
2157,9030003025644,新規,0,2024-12-05,2024-12-05,ａｉｇ合同会社,,合同会社,埼玉県,さいたま市岩槻区,大字平林寺６３４番地８,,11,110,3390076,,,,,,,2024-12-05,1,,,,,エーアイジー,0
2158,9040001136418,新規,0,2024-12-05,2024-12-05,株式会社ＫＯＫＯＲＯ,,株式会社,千葉県,柏市,柏７丁目５番５４号,,12,217,2770005,,,,,,,2024-12-05,1,,,,,ココロ,0
2159,9040001136434,新規,0,2024-12-05,2024-12-05,株式会社ＥＳＳＥＮＣＥ,,株式会社,千葉県,松戸市,五香８丁目３７－１０,,12,207,2702213,,,,,,,2024-12-05,1,,,,,エッセンス,0
2164,9060001037705,新規,0,2024-12-05,2024-12-05,株式会社モビリティサポート,,株式会社,栃木県,日光市,豊田１６８番地１３,,09,206,3212414,,,,,,,2024-12-05,1,,,,,モビリティサポート,0
2176,9100001038112,新規,0,2024-12-05,2024-12-05,株式会社ピノビスタ,,株式会社,長野県,諏訪郡富士見町,落合１０７３１番地１,,20,362,3990214,,,,,,,2024-12-05,1,,,,,ピノビスタ,0
2180,9110001038887,新規,0,2024-12-05,2024-12-05,エーネクスト株式会社,,株式会社,新潟県,新潟市江南区,茅野山２丁目２番７号,,15,104,9500144,,,,,,,2024-12-05,1,,,,,エーネクスト,0
2181,9110001038895,新規,0,2024-12-05,2024-12-05,株式会社ヒロセホテルズ＆リゾーツ,,株式会社,新潟県,新潟市西区,善久８２３番地,,15,107,9501102,,,,,,,2024-12-05,1,,,,,ヒロセホテルズアンドリゾーツ,0
2182,9110003005596,新規,0,2024-12-05,2024-12-05,ＬＥＯＮ合同会社,,合同会社,新潟県,新潟市秋葉区,小須戸３４９１番地,,15,105,9560101,,,,,,,2024-12-05,1,,,,,レオン,0
2191,9120001270563,新規,0,2024-12-05,2024-12-05,株式会社Ｒｓｔｏｃｋ,,株式会社,大阪府,大阪市東淀川区,上新庄２丁目６番１号,,27,114,5330006,,,,,,,2024-12-05,1,,,,,アールストック,0
2192,9120001270828,新規,0,2024-12-05,2024-12-05,株式会社天下茶屋シティハイツ,,株式会社,大阪府,大阪市西成区,千本北１丁目２０番１５号,,27,122,5570053,,,,,,,2024-12-05,1,,,,,テンガチャヤシティハイツ,0
2193,9120001270852,新規,0,2024-12-05,2024-12-05,株式会社Ｎｏａｈ,,株式会社,大阪府,守口市,大日東町４番Ｄ－３３０５号,,27,209,5700016,,,,,,,2024-12-05,1,,,,,ノア,0
2194,9120001270869,新規,0,2024-12-05,2024-12-05,さくら代行株式会社,,株式会社,大阪府,大阪市中央区,船場中央２丁目３番６号船場センタービル６号館３１１号室,,27,128,5410055,,,,,,,2024-12-05,1,,,,,サクラダイコウ,0
2201,9120003028101,新規,0,2024-12-05,2024-12-05,Ｎｅｗ　Ｅａｒｔｈ　ＫＩＤＳ合同会社,,合同会社,大阪府,大阪市北区,梅田１丁目２番２号大阪駅前第２ビル１２－１２,,27,127,5300001,,,,,,,2024-12-05,1,,,,,ニューアースキッズ,0
2202,9120005024643,新規,0,2024-12-05,2024-12-05,一般社団法人カンボジア日本希望協会関西支部,,その他の設立登記法人,大阪府,大阪市中央区,城見２丁目１番６１号,,27,128,5400001,,,,,,,2024-12-05,1,,,,,カンボジアニホンキボウキョウカイカンサイシブ,0
2207,9120103006171,新規,0,2024-12-05,2024-12-05,合同会社Ｒａｔｔｅ,,合同会社,大阪府,泉南市,樽井７丁目１３番３２－１００２号,,27,228,5900521,,,,,,,2024-12-05,1,,,,,ラテ,0
2209,9120903005439,新規,0,2024-12-05,2024-12-05,合同会社ＣＯＭ’Ｓ,,合同会社,大阪府,茨木市,水尾１丁目２番４号,,27,211,5670891,,,,,,,2024-12-05,1,,,,,コムス,0
2213,9130001078485,新規,0,2024-12-05,2024-12-05,株式会社ＨＡＬＯ,,株式会社,京都府,京都市中京区,西ノ京車坂町１番地１４,,26,104,6048405,,,,,,,2024-12-05,1,,,,,ハロ,0
2214,9130001078493,新規,0,2024-12-05,2024-12-05,ＣＶＳ株式会社,,株式会社,京都府,京都市上京区,東堀川通丸太町上る六町目２１２番地１０１室,,26,102,6028035,,,,,,,2024-12-05,1,,,,,シーブイエス,0
2215,9130001078510,新規,0,2024-12-05,2024-12-05,株式会社グラティレート,,株式会社,京都府,京都市西京区,大枝東長町２番地３クロスオーバービル１階,,26,111,6101111,,,,,,,2024-12-05,1,,,,,グラティレート,0
2216,9130001078543,新規,0,2024-12-05,2024-12-05,株式会社カムズカンパニー,,株式会社,京都府,京都市右京区,西京極大門町１７番地４グランシティオ西京極１００４,,26,108,6150812,,,,,,,2024-12-05,1,,,,,カムズカンパニー,0
2221,9140001136622,新規,0,2024-12-05,2024-12-05,株式会社アクティブフューチャージャパン,,株式会社,兵庫県,姫路市,市川橋通２丁目２８番地１・２階,,28,201,6700825,,,,,,,2024-12-05,1,,,,,アクティブフューチャージャパン,0
2222,9140001136630,新規,0,2024-12-05,2024-12-05,株式会社ＩＢＮビジネスサポートセンター,,株式会社,兵庫県,加古川市,加古川町篠原町５９番地の３,,28,210,6750065,,,,,,,2024-12-05,1,,,,,アイビーエヌビジネスサポートセンター,0
2223,9140001136655,新規,0,2024-12-05,2024-12-05,株式会社享楽,,株式会社,兵庫県,神戸市中央区,中山手通１丁目１－８,,28,110,6500004,,,,,,,2024-12-05,1,,,,,キョウラク,0
2225,9140003021392,新規,0,2024-12-05,2024-12-05,グローバルＣＭＣ合同会社,,合同会社,兵庫県,芦屋市,翠ケ丘町１９番３６－２０３号,,28,206,6590014,,,,,,,2024-12-05,1,,,,,グローバルシーエムシー,0
2229,9180001164405,新規,0,2024-12-05,2024-12-05,株式会社天馬,,株式会社,愛知県,一宮市,浅井町河田字桜の里９２番地,,23,203,4910142,,,,,,,2024-12-05,1,,,,,テンマ,0
2230,9180001164421,新規,0,2024-12-05,2024-12-05,ＳＴスタート株式会社,,株式会社,愛知県,名古屋市中川区,供米田２丁目２１０４番地ドミール貝沼１０２号,,23,110,4540984,,,,,,,2024-12-05,1,,,,,エスティスタート,0
2231,9180001164454,新規,0,2024-12-05,2024-12-05,株式会社アジュテ,,株式会社,愛知県,名古屋市中区,丸の内２丁目１３－２３ＦＫビル丸の内２階,,23,106,4600002,,,,,,,2024-12-05,1,,,,,アジュテ,0
2232,9180001164470,新規,0,2024-12-05,2024-12-05,株式会社ＵＤ,,株式会社,愛知県,名古屋市東区,砂田橋４丁目１番５７号メガシティテラス１棟８０５号,,23,102,4610045,,,,,,,2024-12-05,1,,,,,ユーディー,0
2235,9180303006362,新規,0,2024-12-05,2024-12-05,合同会社Ｂｅｎｉ,,合同会社,愛知県,豊橋市,町畑町字森田３８番地７０,,23,201,4418108,,,,,,,2024-12-05,1,,,,,ベニ,0
2236,9190001031851,新規,0,2024-12-05,2024-12-05,ＹＢＨ株式会社,,株式会社,三重県,四日市市,桜新町２丁目２１２番地,,24,202,5121215,,,,,,,2024-12-05,1,,,,,ワイビーエイチ,0
2242,9200003006610,新規,0,2024-12-05,2024-12-05,合同会社下呂ケアプランセンター,,合同会社,岐阜県,下呂市,森６７１番地６,,21,220,5092202,,,,,,,2024-12-05,1,,,,,ゲロケアプランセンター,0
2244,9220001026369,新規,0,2024-12-05,2024-12-05,株式会社もりもり工房,,株式会社,石川県,羽咋市,柳田町へ９番地１,,17,207,9250018,,,,,,,2024-12-05,1,,,,,モリモリコウボウ,0
2246,9230003002342,新規,0,2024-12-05,2024-12-05,合同会社スマッシュ,,合同会社,富山県,高岡市,中曽根２６２３,,16,202,9340092,,,,,,,2024-12-05,1,,,,,スマッシュ,0
2248,9240001064193,新規,0,2024-12-05,2024-12-05,株式会社ひろしまインキュベーション＆キャピタル,,株式会社,広島県,広島市南区,霞１丁目２番３号,,34,103,7340037,,,,,,,2024-12-05,1,,,,,ヒロシマインキュベーションアンドキャピタル,0
2252,9260001039697,新規,0,2024-12-05,2024-12-05,株式会社岸元製作所,,株式会社,岡山県,美作市,太田１１７番地２,,33,215,7070404,,,,,,,2024-12-05,1,,,,,キシモトセイサクショ,0
2253,9260003004996,新規,0,2024-12-05,2024-12-05,エムエスアシスト合同会社,,合同会社,岡山県,岡山市北区,問屋町７番地１０１（７０４）,,33,101,7000977,,,,,,,2024-12-05,1,,,,,エムエスアシスト,0
2269,9310003004909,新規,0,2024-12-05,2024-12-05,Ｇｒｅｅｎ‐ｊｕｎｓｔｙｌｅ合同会社,,合同会社,長崎県,北松浦郡佐々町,本田原免２１３番地２,,42,391,8570311,,,,,,,2024-12-05,1,,,,,グリーンジュンスタイル,0
2270,9320003004528,新規,0,2024-12-05,2024-12-05,エスフォレスト合同会社,,合同会社,大分県,大分市,大字中戸次１４６６番地の５,,44,201,8797761,,,,,,,2024-12-05,1,,,,,エスフォレスト,0
2271,9330003010665,新規,0,2024-12-05,2024-12-05,合同会社ＲＩＮＧ,,合同会社,熊本県,熊本市北区,徳王２丁目７－６６５－６６,,43,105,8615525,,,,,,,2024-12-05,1,,,,,リング,0
2273,9340001026984,新規,0,2024-12-05,2024-12-05,株式会社蒲生レンジャー,,株式会社,鹿児島県,姶良市,蒲生町米丸１８３３番地,,46,225,8995308,,,,,,,2024-12-05,1,,,,,,0
2275,9340003004682,新規,0,2024-12-05,2024-12-05,Ｎａｉｓｙ．合同会社,,合同会社,鹿児島県,薩摩川内市,東大小路町３７番２５号,,46,215,8950075,,,,,,,2024-12-05,1,,,,,ネイジー,0
2278,9360001034515,新規,0,2024-12-05,2024-12-05,株式会社新和,,株式会社,沖縄県,那覇市,首里金城町２丁目９３番地,,47,201,9030815,,,,,,,2024-12-05,1,,,,,シンワ,0
2287,9390001017814,新規,0,2024-12-05,2024-12-05,株式会社井上電気工事,,株式会社,山形県,西村山郡河北町,谷地所岡１丁目９番地１１,,06,321,9993513,,,,,,,2024-12-05,1,,,,,イノウエデンキコウジ,0
2296,9430001093215,新規,0,2024-12-05,2024-12-05,株式会社Ｅｔｈｒｕｓｔ,,株式会社,北海道,江別市,大麻中町２２番地の１３,,01,217,0690854,,,,,,,2024-12-05,1,,,,,イースラスト,0
2298,9490001010916,新規,0,2024-12-05,2024-12-05,株式会社ゼンゼロ,,株式会社,高知県,高岡郡四万十町,若井川９３１番地１,,39,412,7860062,,,,,,,2024-12-05,1,,,,,ゼンゼロ,0
2302,9500001026027,新規,0,2024-12-05,2024-12-05,株式会社高岡建設,00137249,株式会社,愛媛県,松山市,小坂２丁目１番２７－２号,,38,201,7900963,,,,,,,2024-12-05,1,,,,,タカオカケンセツ,0
2303,9500005008748,新規,0,2024-12-05,2024-12-05,医療法人山形耳鼻咽喉科,,その他の設立登記法人,愛媛県,松山市,会津町１１番２３号,,38,201,7918076,,,,,,,2024-12-05,1,,,,,ヤマガタジビインコウカ,0
2304,9700150128058,新規,0,2024-12-05,2024-12-05,ＣＲＥＡＴＩＶＥ　ＲＡＩＮＢＯＷ　ＬＩＭＩＴＥＤ,,外国会社等,,,,,,,,Ｖｉｓｔｒａ　Ｃｏｒｐｏｒａｔｅ　Ｓｅｒｖｉｃｅｓ　Ｃｅｎｔｒｅ，Ｇｒｏｕｎｄ　Ｆｌｏｏｒ　ＮＰＦ　Ｂｕｉｌｄｉｎｇ，Ｂｅａｃｈ　Ｒｏａｄ，Ａｐｉａ，Ｓａｍｏａ,,,,,,2024-12-05,1,,,,,クリエイテイブレインボーリミテツド,0
