sequenceNumber,corporateNumber,process,correct,updateDate,changeDate,name,nameImageId,kind,prefectureName,cityName,streetNumber,addressImageId,prefectureCode,cityCode,postCode,addressOutside,addressOutsideImageId,closeDate,closeCause,successorCorporateNumber,changeCause,assignmentDate,latest,enName,enPrefectureName,enCityName,enAddressOutside,furigana,hihyoji
5,1010001206536,登記記録の閉鎖等,0,2025-03-25,2025-03-10,株式会社Ｍａｉｍｏ,,株式会社,東京都,中央区,京橋２丁目８番２１－７１５号,,13,102,1040031,,,2025-03-10,清算の結了等,,,2020-01-10,1,,,,,マイモ,0
6,1010001206858,登記記録の閉鎖等,0,2025-03-25,2025-03-11,富士森田化工業株式会社,,株式会社,東京都,千代田区,東神田２丁目６番７号６０８号室,,13,101,1010031,,,2025-03-11,清算の結了等,,,2020-01-22,1,,,,,フジモリタカコウギョウ,0
16,1010002037006,登記記録の閉鎖等,0,2025-03-25,2025-03-10,有限会社酒井メディア工房,,有限会社,東京都,千代田区,神田錦町３丁目２１番地,,13,101,1010054,,,2025-03-10,清算の結了等,,,2015-10-05,1,,,,,,0
24,1010601017969,登記記録の閉鎖等,0,2025-03-25,2025-03-24,株式会社墨田工業所,,株式会社,東京都,墨田区,八広５丁目１８番５号,,13,107,1310041,,,2025-03-24,清算の結了等,,,2015-10-05,1,,,,,スミダコウギョウショ,0
40,1011101060055,登記記録の閉鎖等,0,2025-03-25,2025-03-11,株式会社ＡＣＮ東京,,株式会社,東京都,新宿区,西新宿１丁目２５番１号新宿センタービル,,13,104,1600023,,,2025-03-11,清算の結了等,,,2015-10-05,1,,,,,エーシーエヌトウキョウ,0
41,1011101063289,登記記録の閉鎖等,0,2025-03-25,2025-03-10,株式会社Ｔ　ＤＩＮＩＮＧ,,株式会社,東京都,新宿区,神楽坂４丁目５番地,,13,104,1620825,,,2025-03-10,清算の結了等,,,2015-10-05,1,,,,,ティーダイニング,0
53,1011702008205,登記記録の閉鎖等,0,2025-03-25,2025-03-11,トキワ企業有限会社,,有限会社,東京都,中央区,湊３丁目８番１,,13,102,1040043,,,2025-03-11,清算の結了等,,,2015-10-05,1,,,,,トキワキギョウ,0
55,1011802028986,登記記録の閉鎖等,0,2025-03-25,2025-03-21,有限会社河内製作所,,有限会社,東京都,足立区,中央本町２丁目２０番８号,,13,121,1200011,,,2025-03-21,清算の結了等,,,2015-10-05,1,,,,,カワウチセイサクショ,0
85,1040003023596,登記記録の閉鎖等,0,2025-03-25,2025-03-12,合同会社ほわいとぼーど,,合同会社,千葉県,千葉市中央区,中央２丁目５－１千葉中央ツインビル２号館７階,,12,101,2600013,,,2025-03-12,清算の結了等,,,2023-10-20,1,,,,,ホワイトボード,0
88,1060002017374,登記記録の閉鎖等,0,2025-03-25,2025-03-19,有限会社仙波工務店,,有限会社,栃木県,真岡市,上大沼３６６番地,,09,209,3214355,,,2025-03-19,清算の結了等,,,2015-10-05,1,,,,,センバコウムテン,0
92,1080102001904,登記記録の閉鎖等,0,2025-03-25,2025-03-17,有限会社スタジオリバティ,,有限会社,静岡県,沼津市,西島町１番３９号,,22,203,4100835,,,2025-03-17,清算の結了等,,,2015-10-05,1,,,,,スタジオリバティ,0
95,1100002037351,登記記録の閉鎖等,0,2025-03-25,2025-03-14,有限会社松下建設,,有限会社,長野県,飯田市,上郷飯沼１３７０番地５,,20,205,3950002,,,2025-03-14,清算の結了等,,,2015-10-05,1,,,,,マツシタケンセツ,0
105,1120001270273,登記記録の閉鎖等,0,2025-03-25,2025-03-21,株式会社ＡｎｔｅＢｌｏＣｋｓ,,株式会社,大阪府,大阪市北区,西天満２丁目１１番８号アメリカンビル５階,,27,127,5300047,,,2025-03-21,清算の結了等,,,2024-11-15,1,,,,,アンテブロックス,0
133,1140002067130,登記記録の閉鎖等,0,2025-03-25,2025-03-17,有限会社ティー・アールエンジニアリング,,有限会社,兵庫県,宝塚市,武庫山２丁目４番３３－７０４号,,28,214,6650005,,,2025-03-17,清算の結了等,,,2015-10-05,1,,,,,ティーアールエンジニアリング,0
134,1140003012795,登記記録の閉鎖等,0,2025-03-25,2025-03-19,合同会社リッチライフフロンティア,,合同会社,大阪府,大阪市北区,天神橋１丁目１８番２７号,,27,127,5300041,,,2025-03-19,合併による解散等,9290003006528,令和７年３月１２日福岡市東区原田二丁目１４番７号株式会社リアライフ（9290003006528）に合併し解散,2018-02-20,1,,,,,リッチライフフロンティア,0
143,1170002010698,登記記録の閉鎖等,0,2025-03-25,2025-03-24,有限会社編集室マース,,有限会社,和歌山県,橋本市,紀見ケ丘３丁目９－８,,30,203,6480092,,,2025-03-24,清算の結了等,,,2015-10-05,1,,,,,ヘンシュウシツマース,0
148,1180001147739,登記記録の閉鎖等,0,2025-03-25,2025-03-17,夢企画建築株式会社,,株式会社,愛知県,知多市,新知東町２丁目２５番地の１０,,23,224,4780065,,,2025-03-17,清算の結了等,,,2021-09-08,1,,,,,ユメキカクケンチク,0
151,1180301021602,登記記録の閉鎖等,0,2025-03-25,2025-03-19,株式会社成和電機,,株式会社,愛知県,豊田市,京町２丁目６番地８,,23,211,4710063,,,2025-03-19,清算の結了等,,,2015-10-05,1,,,,,セイワデンキ,0
172,1290002056721,登記記録の閉鎖等,0,2025-03-25,2025-03-10,有限会社山崎建設,00093644,有限会社,福岡県,うきは市,浮羽町山北６４７番地の１,,40,225,8391408,,,2025-03-10,清算の結了等,,,2015-10-05,1,,,,,ヤマサキケンセツ,0
179,1310002002144,登記記録の閉鎖等,0,2025-03-25,2025-03-21,有限会社サン薬局,,有限会社,長崎県,長崎市,銅座町４番６号,,42,201,8500841,,,2025-03-21,清算の結了等,,,2015-10-05,1,,,,,サンヤッキョク,0
180,1330001007943,登記記録の閉鎖等,0,2025-03-25,2025-03-18,株式会社エアーズ,,株式会社,熊本県,熊本市中央区,坪井２丁目２－４２ニュー広町ビル１Ｆ１２号,,43,101,8600863,,,2025-03-18,清算の結了等,,,2015-10-05,1,,,,,エアーズ,0
184,1370005003480,登記記録の閉鎖等,0,2025-03-25,2025-03-17,特定非営利活動法人みやぎ産婦人科医療情報ネットワーク協議会,,その他の設立登記法人,宮城県,仙台市青葉区,星陵町１番１号東北大学医学部産婦人科,,04,101,9800872,,,2025-03-17,清算の結了等,,,2015-10-05,1,,,,,ミヤギサンフジンカイリョウジョウホウネットワークキョウギカイ,0
191,1390002000917,登記記録の閉鎖等,0,2025-03-25,2025-03-14,有限会社ケイアイオフイス,,有限会社,山形県,山形市,青田４丁目９番３１号,,06,201,9902435,,,2025-03-14,清算の結了等,,,2015-10-05,1,,,,,ケイアイオフィス,0
195,1420001013825,登記記録の閉鎖等,0,2025-03-25,2025-03-21,株式会社旨道,,株式会社,青森県,青森市,南佃２丁目３番１７号,,02,201,0300964,,,2025-03-21,清算の結了等,,,2015-10-05,1,,,,,ウマドウ,0
246,2011001119900,登記記録の閉鎖等,0,2025-03-25,2025-02-21,ＡＢＳ　Ｇｌｏｂａｌ　Ｔｒａｄｉｎｇ株式会社,,株式会社,東京都,渋谷区,恵比寿４丁目３番５号７０４号室アークアウトソーシング株式会社内,,13,113,1500013,,,2025-02-21,清算の結了等,,,2017-12-26,1,,,,,エービーエスグローバルトレーディング,0
247,2011001130089,登記記録の閉鎖等,0,2025-03-25,2025-02-25,株式会社ＦＡＳ,,株式会社,東京都,目黒区,青葉台１丁目９番６号,,13,110,1530042,,,2025-02-25,清算の結了等,,,2019-09-30,1,,,,,ファス,0
257,2011105010591,登記記録の閉鎖等,0,2025-03-25,2025-03-11,一般社団法人グローバル汐留,,その他の設立登記法人,東京都,新宿区,四谷２丁目９番地１５東京ユナイテッド綜合事務所内,,13,104,1600004,,,2025-03-11,清算の結了等,,,2023-03-20,1,,,,,グローバルシオドメ,0
262,2011702014474,登記記録の閉鎖等,0,2025-03-25,2025-03-17,有限会社友々亭,,有限会社,東京都,江戸川区,南小岩６丁目１８番８号,,13,123,1330056,,,2025-03-17,清算の結了等,,,2015-10-05,1,,,,,ユウユウテイ,0
278,2020003003434,登記記録の閉鎖等,0,2025-03-25,2025-03-07,合資会社フジインターナショナル,,合資会社,神奈川県,横浜市金沢区,釜利谷西５丁目２０番２７号,,14,108,2360046,,,2025-03-07,清算の結了等,,,2015-10-05,1,,,,,フジインターナショナル,0
327,2122001029707,登記記録の閉鎖等,0,2025-03-25,2025-03-24,株式会社エスジョイ,,株式会社,大阪府,東大阪市,御厨栄町２丁目１０番２７号,,27,227,5770036,,,2025-03-24,清算の結了等,,,2016-06-20,1,,,,,,0
334,2140001054054,登記記録の閉鎖等,0,2025-03-25,2025-03-18,株式会社ジャック・シップ,,株式会社,兵庫県,尼崎市,御園１丁目１７番１６号,,28,202,6610984,,,2025-03-18,清算の結了等,,,2015-10-05,1,,,,,,0
341,2140002057865,登記記録の閉鎖等,0,2025-03-25,2025-03-19,有限会社マキツボ,,有限会社,兵庫県,西宮市,田近野町２番２４－２０５号,,28,204,6638001,,,2025-03-19,清算の結了等,,,2015-10-05,1,,,,,マキツボ,0
354,2180001121817,登記記録の閉鎖等,0,2025-03-25,2025-03-19,株式会社トップスピリッツ,,株式会社,愛知県,名古屋市南区,内田橋１丁目３番４号,,23,112,4570862,,,2025-03-19,清算の結了等,,,2016-01-22,1,,,,,トップスピリッツ,0
355,2180002009516,登記記録の閉鎖等,0,2025-03-25,2025-03-19,有限会社近藤鉄工所,,有限会社,愛知県,名古屋市瑞穂区,豆田町２丁目１２番地,,23,108,4670864,,,2025-03-19,清算の結了等,,,2015-10-05,1,,,,,コンドウテッコウショ,0
362,2210001009892,登記記録の閉鎖等,0,2025-03-25,2025-03-14,株式会社平成大野屋,,株式会社,福井県,大野市,元町１番２号,,18,205,9120081,,,2025-03-14,清算の結了等,,,2015-10-05,1,,,,,ヘイセイオオノヤ,0
364,2230001012606,登記記録の閉鎖等,0,2025-03-25,2025-03-18,株式会社浅井斫工業,,株式会社,富山県,射水市,中老田新５８２番地の３,,16,211,9390312,,,2025-03-18,清算の結了等,,,2015-10-05,1,,,,,アサイハツリコウギョウ,0
365,2240001014923,登記記録の閉鎖等,0,2025-03-25,2025-03-21,株式会社アロウズ,,株式会社,広島県,広島市佐伯区,五日市中央３丁目１番１号,,34,108,7315128,,,2025-03-21,清算の結了等,,,2015-10-05,1,,,,,アロウズ,0
386,2290802010711,登記記録の閉鎖等,0,2025-03-25,2025-03-21,瀬戸内産業有限会社,,有限会社,広島県,安芸郡府中町,浜田１丁目６番２４－２０５号,,34,302,7350013,,,2025-03-21,清算の結了等,,,2024-12-05,1,,,,,セトウチサンギョウ,0
392,2340005002088,登記記録の閉鎖等,0,2025-03-25,2025-03-17,特定非営利活動法人介護支援専門員協会鹿児島,,その他の設立登記法人,鹿児島県,鹿児島市,下荒田１丁目８－１１,,46,201,8900056,,,2025-03-17,清算の結了等,,,2015-10-05,1,,,,,カイゴシエンセンモンインキョウカイカゴシマ,0
397,2360001023508,登記記録の閉鎖等,0,2025-03-25,2025-03-21,株式会社Ｗｈｉｔｅ,,株式会社,沖縄県,那覇市,安謝２丁目２５番６号,,47,201,9000003,,,2025-03-21,清算の結了等,,,2018-02-08,1,,,,,ホワイト,0
405,2370002017805,登記記録の閉鎖等,0,2025-03-25,2025-03-17,有限会社仙南レンタル販売,,有限会社,宮城県,仙台市泉区,住吉台西１丁目１４番地の２,,04,105,9813223,,,2025-03-17,清算の結了等,,,2015-10-05,1,,,,,センナンレンタルハンバイ,0
430,3010001054958,登記記録の閉鎖等,0,2025-03-25,2025-03-07,株式会社ビィクトリィ,,株式会社,東京都,中央区,日本橋２丁目２番２１号,,13,102,1030027,,,2025-03-07,清算の結了等,,,2015-10-05,1,,,,,ビィクトリィ,0
444,3010501043849,登記記録の閉鎖等,0,2025-03-25,2025-03-10,株式会社Ｓａｋｕｒａ　Ｈｏｓｅｋｉ,,株式会社,東京都,台東区,小島１丁目９番２号,,13,106,1110056,,,2025-03-10,合併による解散等,1010501027085,令和７年２月２８日東京都台東区小島一丁目９番２号株式会社ナムニットダイヤモンド（1010501027085）に合併し解散,2019-03-15,1,,,,,サクラホウセキ,0
450,3010802003031,登記記録の閉鎖等,0,2025-03-25,2025-03-10,翁興業有限会社,00052303,有限会社,東京都,大田区,池上７丁目１４番１０号,,13,111,1460082,,,2025-03-10,清算の結了等,,,2015-10-05,1,,,,,オキナコウギョウ,0
465,3011101104801,登記記録の閉鎖等,0,2025-03-25,2025-03-10,株式会社ＳＢ,,株式会社,東京都,新宿区,東榎町１番地ＴＹＫビル２０２号室,,13,104,1620807,,,2025-03-10,清算の結了等,,,2023-10-18,1,,,,,エスビー,0
472,3011302002366,登記記録の閉鎖等,0,2025-03-25,2025-03-21,有限会社カーニバル,,有限会社,東京都,杉並区,和泉３丁目４９番９号,,13,115,1680063,,,2025-03-21,清算の結了等,,,2015-10-05,1,,,,,カーニバル,0
476,3011701002157,登記記録の閉鎖等,0,2025-03-25,2025-03-17,桂興産株式会社,,株式会社,東京都,江戸川区,春江町３丁目２２番１８号,,13,123,1320003,,,2025-03-17,清算の結了等,,,2015-10-05,1,,,,,,0
478,3011705001295,登記記録の閉鎖等,0,2025-03-25,2025-03-17,一般社団法人日本フードビジネスコンサルタント協会,,その他の設立登記法人,東京都,江戸川区,西葛西５丁目４番６号,,13,123,1340088,,,2025-03-17,清算の結了等,,,2015-10-05,1,,,,,ニホンフードビジネスコンサルタントキョウカイ,0
482,3012401023237,登記記録の閉鎖等,0,2025-03-25,2025-02-25,株式会社Ｎｉｎｉｃｏｄｅ,,株式会社,東京都,渋谷区,渋谷２丁目１９番１５号宮益坂ビルディング６０９,,13,113,1500002,,,2025-02-25,清算の結了等,,,2015-10-05,1,,,,,ニニコード,0
490,3020001008525,登記記録の閉鎖等,0,2025-03-25,2025-03-12,株式会社ケイ・エムコーポレーション,,株式会社,神奈川県,横浜市都筑区,茅ケ崎東２丁目８番７号,,14,118,2240033,,,2025-03-12,清算の結了等,,,2015-10-05,1,,,,,ケイエムコーポレーション,0
511,3030002089019,登記記録の閉鎖等,0,2025-03-25,2025-03-19,有限会社リンクス,,有限会社,埼玉県,越谷市,蒲生２丁目１６番３３号ハイブリッヂ１０３号室,,11,222,3430838,,,2025-03-19,清算の結了等,,,2015-10-05,1,,,,,リンクス,0
525,3070005007948,登記記録の閉鎖等,0,2025-03-25,2025-03-19,特定非営利活動法人ドリーム,,その他の設立登記法人,群馬県,伊勢崎市,東本町９４番地１１,,10,204,3720025,,,2025-03-19,清算の結了等,,,2015-10-05,1,,,,,ドリーム,0
526,3080002001291,登記記録の閉鎖等,0,2025-03-25,2025-03-21,有限会社おだまき米店,,有限会社,静岡県,静岡市葵区,古庄３丁目１８番２０号,,22,101,4200812,,,2025-03-21,清算の結了等,,,2015-10-05,1,,,,,オダマキコメテン,0
541,3120001232569,登記記録の閉鎖等,0,2025-03-25,2025-03-21,株式会社ＭｅｄｉａＸ,,株式会社,大阪府,大阪市北区,梅田１丁目１１番４－１０００号大阪駅前第４ビル１０階,,27,127,5300001,,,2025-03-21,清算の結了等,,,2020-10-23,1,,,,,メディアエックス,0
551,3120003027232,登記記録の閉鎖等,0,2025-03-25,2025-03-10,合同会社道求,,合同会社,大阪府,大阪市中央区,北浜１丁目１番２７号,,27,128,5410041,,,2025-03-10,清算の結了等,,,2024-08-15,1,,,,,ドウキュウ,0
552,3120101046126,登記記録の閉鎖等,0,2025-03-25,2025-03-13,株式会社大地,,株式会社,大阪府,岸和田市,北町１５番１２号,,27,202,5960056,,,2025-03-13,清算の結了等,,,2015-10-05,1,,,,,ダイチ,0
565,3130002033321,登記記録の閉鎖等,0,2025-03-25,2025-03-18,京北商事有限会社,,有限会社,京都府,綾部市,味方町アミダジ２１番地２,,26,203,6230031,,,2025-03-18,清算の結了等,,,2015-10-05,1,,,,,キョウキタショウジ,0
568,3140001047544,登記記録の閉鎖等,0,2025-03-25,2025-03-17,尼信ビジネス・サービス株式会社,,株式会社,兵庫県,尼崎市,開明町２丁目１２番地,,28,202,6600862,,,2025-03-17,清算の結了等,,,2015-10-05,1,,,,,アマシンビジネスサービス,0
571,3140002045241,登記記録の閉鎖等,0,2025-03-25,2025-03-17,通信設備工業有限会社,,有限会社,兵庫県,西宮市,堤町１番３１号,,28,204,6638012,,,2025-03-17,清算の結了等,,,2015-10-05,1,,,,,ツウシンセツビコウギョウ,0
600,3180301024743,登記記録の閉鎖等,0,2025-03-25,2025-03-21,伊藤インベストメント株式会社,,株式会社,愛知県,豊川市,千両町昇貝津４番地,,23,207,4420001,,,2025-03-21,清算の結了等,,,2015-10-05,1,,,,,イトウインベストメント,0
604,3200001014612,登記記録の閉鎖等,0,2025-03-25,2025-03-24,中日ヒューム管株式会社,,株式会社,岐阜県,安八郡神戸町,大字北一色４６８番地の１,,21,381,5032306,,,2025-03-24,清算の結了等,,,2015-10-05,1,,,,,,0
612,3240002035034,登記記録の閉鎖等,0,2025-03-25,2025-03-21,有限会社なかした,,有限会社,広島県,呉市,川尻町小用１丁目２２番４号,,34,202,7372608,,,2025-03-21,清算の結了等,,,2015-10-05,1,,,,,ナカシタ,0
632,3320002001192,登記記録の閉鎖等,0,2025-03-25,2025-03-24,有限会社エイ・エヌ・ピーひめの,,有限会社,大分県,大分市,西鶴崎１丁目３番７号,,44,201,8700105,,,2025-03-24,清算の結了等,,,2015-10-05,1,,,,,,0
665,4010001163436,登記記録の閉鎖等,0,2025-03-25,2025-03-03,株式会社山の上ホテル,,株式会社,東京都,千代田区,神田小川町３丁目２０番地,,13,101,1010052,,,2025-03-03,合併による解散等,8010001031036,令和７年３月１日東京都千代田区神田小川町三丁目２０番地株式会社山の上ホテル（8010001031036）に合併し解散,2015-10-05,1,,,,,ヤマノウエホテル,0
672,4010001236200,登記記録の閉鎖等,0,2025-03-25,2025-03-18,株式会社ＢＣＪ‐７４,,株式会社,東京都,千代田区,丸の内１丁目１番１号パレスビル５階,,13,101,1000005,,,2025-03-18,合併による解散等,5011401004245,令和７年３月１日埼玉県入間郡三芳町大字竹間沢２８３番地１株式会社Ｔ＆Ｋ　ＴＯＫＡ（5011401004245）に合併し解散,2023-06-16,1,,,,,ビーシージェイセブンティーフォー,0
676,4010003020486,登記記録の閉鎖等,0,2025-03-25,2025-03-10,ＳＳＪメガソーラー１８合同会社,,合同会社,東京都,千代田区,神田三崎町２丁目４番１号ＴＵＧ－Ｉビル９Ｆ,00112218,13,101,1010061,,,2025-03-10,清算の結了等,,,2015-10-05,1,,,,,エスエスジェイメガソーラージュウハチ,0
687,4010401064408,登記記録の閉鎖等,0,2025-03-25,2025-03-04,ティー・エム・サービスアパートメント株式会社,,株式会社,東京都,港区,赤坂９丁目７番２号,,13,103,1070052,,,2025-03-04,清算の結了等,,,2015-10-05,1,,,,,ティーエムサービスアパートメント,0
695,4010601009889,登記記録の閉鎖等,0,2025-03-25,2025-03-21,株式会社岡本建築設計事務所,,株式会社,東京都,墨田区,東駒形１丁目５番９号,,13,107,1300005,,,2025-03-21,清算の結了等,,,2015-10-05,1,,,,,オカモトケンチクセッケイジムショ,0
712,4011001069441,登記記録の閉鎖等,0,2025-03-25,2025-03-21,株式会社ジャングルジャム,,株式会社,東京都,目黒区,大橋１丁目７番４号第１久保ビル４Ｆ－Ｂ,,13,110,1530044,,,2025-03-21,清算の結了等,,,2015-10-05,1,,,,,ジャングルジャム,0
721,4011003002160,登記記録の閉鎖等,0,2025-03-25,2025-02-21,合同会社デイ・ブレイク,,合同会社,東京都,渋谷区,代官山町２０番９号,,13,113,1500034,,,2025-02-21,清算の結了等,,,2015-10-05,1,,,,,デイブレイク,0
723,4011201000981,登記記録の閉鎖等,0,2025-03-25,2025-03-21,株式会社大坂屋,,株式会社,東京都,中野区,東中野４丁目１０番１６号,,13,114,1640003,,,2025-03-21,清算の結了等,,,2015-10-05,1,,,,,オオサカヤ,0
732,4011801008680,登記記録の閉鎖等,0,2025-03-25,2025-03-19,株式会社猩々テクノ,,株式会社,東京都,足立区,江北６丁目７番７号,,13,121,1230872,,,2025-03-19,合併による解散等,9100001018568,令和７年３月１日長野県諏訪市大字湖南４５２９番地株式会社ｎｉｔｔｏｈ（9100001018568）に合併し解散,2015-10-05,1,,,,,ショウジョウテクノ,0
735,4011802016022,登記記録の閉鎖等,0,2025-03-25,2025-03-21,有限会社テス・モード,,有限会社,東京都,足立区,花畑３丁目９番７号,,13,121,1210061,,,2025-03-21,清算の結了等,,,2015-10-05,1,,,,,,0
760,4030005018502,登記記録の閉鎖等,0,2025-03-25,2025-03-19,特定非営利活動法人ウイホープＬ・Ｄ・Ｓ,,その他の設立登記法人,埼玉県,熊谷市,上恩田４３２番地１,,11,202,3600125,,,2025-03-19,清算の結了等,,,2017-05-09,1,,,,,ウイホープエルディーエス,0
773,4060001002341,登記記録の閉鎖等,0,2025-03-25,2025-03-19,杉浦工業株式会社,,株式会社,栃木県,宇都宮市,瑞穂３丁目１１番５号,,09,201,3210921,,,2025-03-19,清算の結了等,,,2015-10-05,1,,,,,スギウラコウギョウ,0
785,4120001099173,登記記録の閉鎖等,0,2025-03-25,2025-03-18,毎日新聞大阪中央販売株式会社,,株式会社,大阪府,大阪市北区,本庄東３丁目４番４０号,,27,127,5310074,,,2025-03-18,合併による解散等,2010001029969,令和７年３月１日東京都千代田区一ツ橋一丁目１番１号株式会社毎日新聞社（2010001029969）に合併し解散,2015-10-05,1,,,,,マイニチシンブンオオサカチュウオウハンバイ,0
830,4180002031088,登記記録の閉鎖等,0,2025-03-25,2025-03-19,有限会社真栄ビジネス,,有限会社,愛知県,名古屋市中区,栄２丁目３番１６号,,23,106,4600008,,,2025-03-19,清算の結了等,,,2015-10-05,1,,,,,シンエイビジネス,0
832,4180002080457,登記記録の閉鎖等,0,2025-03-25,2025-03-18,有限会社岡崎組,,有限会社,愛知県,稲沢市,下津町東下町１８番地,,23,220,4928075,,,2025-03-18,清算の結了等,,,2015-10-05,1,,,,,オカザキグミ,0
839,4210001000305,登記記録の閉鎖等,0,2025-03-25,2025-03-10,株式会社ケンコウ,,株式会社,福井県,福井市,大手２丁目１５番１１号,,18,201,9100005,,,2025-03-10,合併による解散等,4210001002350,令和７年３月１日福井市渕三丁目３１５番地株式会社ダスキン福井（4210001002350）に合併し解散,2015-10-05,1,,,,,ケンコウ,0
862,4290801024479,登記記録の閉鎖等,0,2025-03-25,2025-03-19,株式会社虎開発,,株式会社,福岡県,北九州市八幡西区,木屋瀬２丁目３番１２号,,40,109,8071261,,,2025-03-19,清算の結了等,,,2018-04-04,1,,,,,,0
863,4290802004570,登記記録の閉鎖等,0,2025-03-25,2025-03-19,有限会社長尾電設,,有限会社,福岡県,北九州市小倉北区,上富野２丁目１３番１１－３号,,40,106,8020022,,,2025-03-19,清算の結了等,,,2015-10-05,1,,,,,,0
866,4320001011357,登記記録の閉鎖等,0,2025-03-25,2025-03-21,大和建設株式会社,,株式会社,大分県,中津市,大字鍋島１０４６番地,,44,203,8790102,,,2025-03-21,清算の結了等,,,2015-10-05,1,,,,,ヤマトケンセツ,0
890,4500005001815,登記記録の閉鎖等,0,2025-03-25,2025-03-19,医療法人藤野医院,,その他の設立登記法人,愛媛県,伊予郡松前町,大字筒井３９９番地１,,38,401,7913120,,,2025-03-19,清算の結了等,,,2015-10-05,1,,,,,フジノイイン,0
893,5010001199388,登記記録の閉鎖等,0,2025-03-25,2025-03-10,株式会社ａｎｄ　ｆａｍｉｌｙ,,株式会社,東京都,中央区,日本橋小網町８番２号,,13,102,1030016,,,2025-03-10,清算の結了等,,,2019-03-22,1,,,,,アンドファミリー,0
894,5010001215426,登記記録の閉鎖等,0,2025-03-25,2025-03-10,株式会社ファイナンス事業準備法人,,株式会社,東京都,中央区,日本橋２丁目７番１号,,13,102,1030027,,,2025-03-10,清算の結了等,,,2021-01-29,1,,,,,ファイナンスジギョウジュンビホウジン,0
907,5010403028715,登記記録の閉鎖等,0,2025-03-25,2025-03-04,合同会社Ｉｄｅｅ,,合同会社,東京都,港区,虎ノ門５丁目１番４号,,13,103,1050001,,,2025-03-04,清算の結了等,,,2022-10-17,1,,,,,イデー,0
909,5010501004766,登記記録の閉鎖等,0,2025-03-25,2025-03-12,株式会社三和袋物,,株式会社,東京都,台東区,元浅草１丁目４番１２号４階,,13,106,1110041,,,2025-03-12,清算の結了等,,,2015-10-05,1,,,,,サンワフクロモノ,0
911,5010603010092,登記記録の閉鎖等,0,2025-03-25,2025-02-28,合同会社Ｇ＆Ｂ,,合同会社,東京都,港区,南青山３丁目１番３６号青山丸竹ビル６Ｆ,,13,103,1070062,,,2025-02-28,清算の結了等,,,2023-04-14,1,,,,,ジーアンドビー,0
915,5010902004101,登記記録の閉鎖等,0,2025-03-25,2025-03-17,有限会社神田塗装,,有限会社,東京都,世田谷区,成城１丁目５番８号,,13,112,1570066,,,2025-03-17,清算の結了等,,,2015-10-05,1,,,,,カンダトソウ,0
937,5011003008784,登記記録の閉鎖等,0,2025-03-25,2025-02-21,ＧＧＳ　Ｉｎｆｏｒｍａｔｉｏｎ　Ｓｅｒｖｉｃｅｓ　Ｊａｐａｎ合同会社,,合同会社,東京都,渋谷区,広尾１丁目１番３９号恵比寿プライムスクェアタワー１６階,,13,113,1500012,,,2025-02-21,清算の結了等,,,2018-05-11,1,,,,,ジージーエスインフォメーションサービスジャパン,0
940,5011101048955,登記記録の閉鎖等,0,2025-03-25,2025-03-10,アポロマネジメント株式会社,,株式会社,神奈川県,川崎市多摩区,長尾７丁目２５番４号,,14,135,2140023,,,2025-03-10,清算の結了等,,,2015-10-05,1,,,,,アポロマネジメント,0
968,5013201013814,登記記録の閉鎖等,0,2025-03-25,2025-02-21,株式会社スイミー,,株式会社,東京都,目黒区,緑が丘１丁目２０－７グリーンハイネス１０２号,,13,110,1520034,,,2025-02-21,清算の結了等,,,2015-10-05,1,,,,,,0
969,5013202008160,登記記録の閉鎖等,0,2025-03-25,2025-03-17,ＮＥＷ　ＣＬＡＳＳＩＣ株式会社,,株式会社,東京都,世田谷区,等々力２丁目１４番３号,,13,112,1580082,,,2025-03-17,清算の結了等,,,2015-10-05,1,,,,,ニュークラシック,0
970,5013301047118,登記記録の閉鎖等,0,2025-03-25,2025-03-17,株式会社Ｓｕｎ　Ｒｏａｄ,,株式会社,東京都,豊島区,南池袋１丁目１６番地１５号ダイヤゲート５階ＲＥＧＡＳ５２７号室,,13,116,1710022,,,2025-03-17,清算の結了等,,,2021-03-17,1,,,,,サンロード,0
994,5030002108585,登記記録の閉鎖等,0,2025-03-25,2025-03-19,有限会社モト・トラスト,,有限会社,埼玉県,川口市,南町１丁目７番１５号,,11,203,3320026,,,2025-03-19,清算の結了等,,,2015-10-05,1,,,,,モトトラスト,0
1016,5080101001843,登記記録の閉鎖等,0,2025-03-25,2025-03-17,マルマン水産株式会社,,株式会社,静岡県,沼津市,下河原町１丁目１１番地の２,,22,203,4100841,,,2025-03-17,清算の結了等,,,2015-10-05,1,,,,,マルマンスイサン,0
1019,5080402018289,登記記録の閉鎖等,0,2025-03-25,2025-03-14,有限会社富士楽器,,有限会社,静岡県,掛川市,大坂４６２番地の１,,22,213,4371421,,,2025-03-14,清算の結了等,,,2015-10-05,1,,,,,フジガッキ,0
1041,5120003016183,登記記録の閉鎖等,0,2025-03-25,2025-03-12,Ｔ＆Ｔアカウンティングパートナーズ合同会社,,合同会社,大阪府,大阪市淀川区,宮原１丁目１番１号阪急新大阪ビル３Ｆ,,27,123,5320003,,,2025-03-12,清算の結了等,,,2019-08-29,1,,,,,ティーアンドティーアカウンティングパートナーズ,0
1044,5120005005589,登記記録の閉鎖等,0,2025-03-25,2025-03-21,医療法人北星会,,その他の設立登記法人,大阪府,大阪市此花区,春日出北３丁目１番４号,,27,104,5540021,,,2025-03-21,清算の結了等,,,2015-10-05,1,,,,,ホクセイカイ,0
1073,5180001011370,登記記録の閉鎖等,0,2025-03-25,2025-03-19,ワドウ軽金株式会社,,株式会社,愛知県,名古屋市熱田区,沢下町二丁目１４番地,,23,109,4560006,,,2025-03-19,清算の結了等,,,2015-10-05,1,,,,,ワドウケイキン,0
1078,5180001124726,登記記録の閉鎖等,0,2025-03-25,2025-03-06,犬山国際人財株式会社,,株式会社,愛知県,犬山市,大字犬山字西三条１３番地１,,23,215,4840081,,,2025-03-06,清算の結了等,,,2016-09-07,1,,,,,イヌヤマコクサイジンザイ,0
1084,5180005018247,登記記録の閉鎖等,0,2025-03-25,2025-02-25,サーラ協同組合,,その他の設立登記法人,愛知県,一宮市,浅野字長島２７番地１,,23,203,4910871,,,2025-02-25,清算の結了等,,,2019-05-07,1,,,,,サーラ,0
1095,5240003006866,登記記録の閉鎖等,0,2025-03-25,2025-03-11,Ｖｏｒｔａｌａｂｓ合同会社,,合同会社,広島県,広島市安佐南区,相田３丁目２５番２３号,,34,105,7310141,,,2025-03-11,清算の結了等,,,2024-09-26,1,,,,,ヴォルタラボ,0
1098,5250002020000,登記記録の閉鎖等,0,2025-03-25,2025-03-21,有限会社せいしん,,有限会社,山口県,熊毛郡平生町,大字宇佐木３４５番地の４,,35,344,7421104,,,2025-03-21,清算の結了等,,,2015-10-05,1,,,,,セイシン,0
1103,5290001101136,登記記録の閉鎖等,0,2025-03-25,2025-03-17,株式会社腸美健,,株式会社,福岡県,糸島市,前原西４丁目３番６号,,40,230,8191117,,,2025-03-17,清算の結了等,,,2023-04-14,1,,,,,チョウビケン,0
1105,5290003007736,登記記録の閉鎖等,0,2025-03-25,2025-03-14,合同会社筑紫創生堂,,合同会社,福岡県,筑紫野市,二日市中央２丁目２番１５号,,40,217,8180072,,,2025-03-14,清算の結了等,,,2018-01-12,1,,,,,チクシソウセイドウ,0
1127,5390001010392,登記記録の閉鎖等,0,2025-03-25,2025-03-17,株式会社エスエス,,株式会社,山形県,米沢市,春日３丁目３番１６号,,06,202,9920044,,,2025-03-17,清算の結了等,,,2015-10-05,1,,,,,エスエス,0
1136,5470001010021,登記記録の閉鎖等,0,2025-03-25,2025-03-19,トキワ観光サービス株式会社,,株式会社,香川県,観音寺市,出作町５４２番地,,37,205,7680011,,,2025-03-19,清算の結了等,,,2015-10-05,1,,,,,トキワカンコウサービス,0
1178,6010703005520,登記記録の閉鎖等,0,2025-03-25,2025-03-10,合同会社Ｇｏｏｓｅ,,合同会社,東京都,大田区,田園調布２丁目２０番１３号,,13,111,1450071,,,2025-03-10,清算の結了等,,,2020-11-25,1,,,,,グース,0
1195,6011102027940,登記記録の閉鎖等,0,2025-03-25,2025-03-10,有限会社ＸＰＥＲＩＭＥＮＴＡＬ　ＭＵＳＩＣ　ＪＡＰＡＮ,,有限会社,東京都,新宿区,住吉町８番２７号塩谷ビル２階,,13,104,1620065,,,2025-03-10,清算の結了等,,,2015-10-05,1,,,,,エクスペリメンタルミュージックジャパン,0
1212,6021001055521,登記記録の閉鎖等,0,2025-03-25,2025-03-18,株式会社エムズキッチン,,株式会社,神奈川県,藤沢市,鵠沼石上１丁目３番１３号,,14,205,2510025,,,2025-03-18,清算の結了等,,,2015-10-05,1,,,,,エムズキッチン,0
1221,6030002038303,登記記録の閉鎖等,0,2025-03-25,2025-03-21,有限会社浜田企画,,有限会社,埼玉県,久喜市,久喜中央３丁目９番４７号,,11,232,3460003,,,2025-03-21,清算の結了等,,,2015-10-05,1,,,,,ハマダキカク,0
1251,6110001020988,登記記録の閉鎖等,0,2025-03-25,2025-03-21,株式会社高金,00070396,株式会社,新潟県,十日町市,栄町２番地,,15,210,9480068,,,2025-03-21,清算の結了等,,,2015-10-05,1,,,,,コウキン,0
1253,6110002001434,登記記録の閉鎖等,0,2025-03-25,2025-03-21,有限会社桶松酒店,,有限会社,新潟県,新潟市東区,紫竹６丁目１７番２号,,15,102,9500864,,,2025-03-21,清算の結了等,,,2015-10-05,1,,,,,オケマツサケテン,0
1267,6120005020208,登記記録の閉鎖等,0,2025-03-25,2025-03-21,特定非営利活動法人やすらぎクリエイト,,その他の設立登記法人,大阪府,大阪市西成区,旭２丁目８－２７,,27,122,5570032,,,2025-03-21,清算の結了等,,,2018-05-29,1,,,,,ヤスラギクリエイト,0
1269,6122001014837,登記記録の閉鎖等,0,2025-03-25,2025-03-24,株式会社エスピーイーエス,,株式会社,大阪府,東大阪市,御厨東２丁目１１番２５号,,27,227,5770033,,,2025-03-24,清算の結了等,,,2015-10-05,1,,,,,,0
1293,6180002083706,登記記録の閉鎖等,0,2025-03-25,2025-03-18,有限会社トーカイメンテナンス,,有限会社,愛知県,半田市,青山４丁目２番地の１,,23,205,4750836,,,2025-03-18,清算の結了等,,,2015-10-05,1,,,,,トーカイメンテナンス,0
1294,6180002088036,登記記録の閉鎖等,0,2025-03-25,2025-03-17,有限会社マルニケン,,有限会社,愛知県,東海市,富木島町東山田３０番地の２,,23,222,4760011,,,2025-03-17,清算の結了等,,,2015-10-05,1,,,,,マルニケン,0
1302,6210002000797,登記記録の閉鎖等,0,2025-03-25,2025-02-26,有限会社オカダ時計店,,有限会社,福井県,福井市,順化２丁目１３番２１号,,18,201,9100023,,,2025-02-26,清算の結了等,,,2015-10-05,1,,,,,オカダトケイテン,0
1324,6340002001873,登記記録の閉鎖等,0,2025-03-25,2025-03-21,有限会社枝元建具,,有限会社,鹿児島県,鹿児島市,田上町３９２４番地１２,,46,201,8900035,,,2025-03-21,清算の結了等,,,2015-10-05,1,,,,,,0
1389,7010903007290,登記記録の閉鎖等,0,2025-03-25,2025-03-17,合同会社芳賀メディカル,,合同会社,東京都,世田谷区,玉川４丁目２０－１２,,13,112,1580094,,,2025-03-17,清算の結了等,,,2022-04-08,1,,,,,ハガメディカル,0
1397,7011101010681,登記記録の閉鎖等,0,2025-03-25,2025-03-10,株式会社スバック,,株式会社,東京都,新宿区,四谷三栄町６番７号,,13,104,1600008,,,2025-03-10,清算の結了等,,,2015-10-05,1,,,,,スバック,0
1398,7011101042031,登記記録の閉鎖等,0,2025-03-25,2025-03-17,株式会社アイ・ピー・エム,,株式会社,東京都,東村山市,秋津町１丁目１１番地６,,13,213,1890001,,,2025-03-17,清算の結了等,,,2015-10-05,1,,,,,アイピーエム,0
1409,7013101006536,登記記録の閉鎖等,0,2025-03-25,2025-03-24,株式会社横山自動車商会,,株式会社,東京都,西多摩郡瑞穂町,箱根ケ崎東松原３番地７,,13,303,1901222,,,2025-03-24,清算の結了等,,,2015-10-05,1,,,,,ヨコヤマジドウシャショウカイ,0
1419,7021001030317,登記記録の閉鎖等,0,2025-03-25,2025-03-21,株式会社五十嵐建設工業,,株式会社,神奈川県,綾瀬市,寺尾本町１丁目１７番６６号,,14,218,2521133,,,2025-03-21,清算の結了等,,,2015-10-05,1,,,,,イガラシケンセツコウギョウ,0
1423,7030001053483,登記記録の閉鎖等,0,2025-03-25,2025-03-21,株式会社ＡＲＣ－マイメックス,,株式会社,栃木県,栃木市,岩舟町和泉６８１番地１,,09,203,3294303,,,2025-03-21,清算の結了等,,,2015-10-05,1,,,,,エーアールシーマイメックス,0
1428,7030001129985,登記記録の閉鎖等,0,2025-03-25,2025-03-21,ハイエク電機株式会社,,株式会社,埼玉県,川口市,並木２丁目４１番２３－６０４号オーベル川口並木サウシア,,11,203,3320034,,,2025-03-21,清算の結了等,,,2019-03-15,1,,,,,ハイエクデンキ,0
1431,7030002061898,登記記録の閉鎖等,0,2025-03-25,2025-03-07,テクノ平成電気有限会社,,有限会社,埼玉県,新座市,栗原１丁目３番３２号,,11,230,3520035,,,2025-03-07,清算の結了等,,,2015-10-05,1,,,,,テクノヘイセイデンキ,0
1447,7080101015057,登記記録の閉鎖等,0,2025-03-25,2025-03-17,株式会社ウィズ,,株式会社,静岡県,賀茂郡東伊豆町,奈良本１２７４番地の５７,,22,301,4130302,,,2025-03-17,清算の結了等,,,2015-10-05,1,,,,,ウィズ,0
1454,7110001037263,登記記録の閉鎖等,0,2025-03-25,2025-03-21,株式会社チーム,,株式会社,新潟県,五泉市,横町３丁目２番３０－３号,,15,218,9591874,,,2025-03-21,清算の結了等,,,2023-01-31,1,,,,,チーム,0
1456,7120001031785,登記記録の閉鎖等,0,2025-03-25,2025-03-14,株式会社メディカル・サポート,,株式会社,大阪府,大阪市住之江区,住之江１丁目４番２４号,,27,125,5590004,,,2025-03-14,合併による解散等,2120001031220,令和７年２月１日大阪市住之江区住之江一丁目４番２４号株式会社データ・ボックス（2120001031220）に合併し解散,2015-10-05,1,,,,,メディカルサポート,0
1464,7120101009946,登記記録の閉鎖等,0,2025-03-25,2025-03-19,毎日新聞南大阪販売株式会社,,株式会社,大阪府,堺市南区,三原台３丁４０番７号,,27,145,5900111,,,2025-03-19,合併による解散等,2010001029969,令和７年３月１日東京都千代田区一ツ橋一丁目１番１号株式会社毎日新聞社（2010001029969）に合併し解散,2015-10-05,1,,,,,マイニチシンブンミナミオオサカハンバイ,0
1465,7120101039225,登記記録の閉鎖等,0,2025-03-25,2025-03-19,株式会社オトマツリアルエステート,,株式会社,大阪府,大阪市中央区,本町２丁目３番６号,,27,128,5410053,,,2025-03-19,合併による解散等,1120101038034,令和７年３月１４日大阪府岸和田市磯上町四丁目２２番３３号片山工業株式会社（1120101038034）に合併し解散,2015-10-05,1,,,,,オトマツリアルエステート,0
1473,7120901039465,登記記録の閉鎖等,0,2025-03-25,2025-03-21,株式会社松山興産,,株式会社,大阪府,豊中市,千成町３丁目３番１５号住販ビル１階,,27,203,5610829,,,2025-03-21,清算の結了等,,,2018-01-29,1,,,,,マツヤマコウサン,0
1497,7160001012261,登記記録の閉鎖等,0,2025-03-25,2025-03-21,株式会社キックス,,株式会社,滋賀県,高島市,新旭町熊野本２丁目１１番地４,,25,212,5201532,,,2025-03-21,清算の結了等,,,2015-10-05,1,,,,,キックス,0
1507,7180005019235,登記記録の閉鎖等,0,2025-03-25,2025-03-18,一般社団法人国際デジタル貿易促進協会,,その他の設立登記法人,愛知県,名古屋市中区,錦２丁目１９番１号,,23,106,4600003,,,2025-03-18,清算の結了等,,,2021-04-19,1,,,,,コクサイデジタルボウエキソクシンキョウカイ,0
1528,7280002001474,登記記録の閉鎖等,0,2025-03-25,2025-03-24,有限会社つちや,,有限会社,島根県,松江市,白潟本町１３番地１,,32,201,6900000,,,2025-03-24,清算の結了等,,,2015-10-05,1,,,,,ツチヤ,0
1545,7310001002395,登記記録の閉鎖等,0,2025-03-25,2025-03-21,ソフト・エー・トゥー・ジー株式会社,,株式会社,長崎県,長崎市,興善町４番６号岩産ビル６Ｆ６０２号,,42,201,8500032,,,2025-03-21,清算の結了等,,,2015-10-05,1,,,,,ソフトエートゥージー,0
1548,7310001013640,登記記録の閉鎖等,0,2025-03-25,2025-03-21,株式会社吉岡保険企画,,株式会社,長崎県,諫早市,多良見町シーサイド１番地２１３,,42,204,8590407,,,2025-03-21,清算の結了等,,,2015-10-05,1,,,,,ヨシオカホケンキカク,0
1561,7370002010078,登記記録の閉鎖等,0,2025-03-25,2025-03-17,有限会社エムネットプロモーション,,有限会社,宮城県,仙台市若林区,二軒茶屋１２番３１号,,04,103,9840046,,,2025-03-17,清算の結了等,,,2015-10-05,1,,,,,エムネットプロモーション,0
1570,7420001016145,登記記録の閉鎖等,0,2025-03-25,2025-03-21,株式会社プラスクリーン,,株式会社,青森県,八戸市,湊高台７丁目２２番１６－２号,,02,203,0310823,,,2025-03-21,清算の結了等,,,2018-04-09,1,,,,,プラスクリーン,0
1571,7420002007507,登記記録の閉鎖等,0,2025-03-25,2025-03-19,有限会社関向プラント工事,,有限会社,青森県,八戸市,大字河原木字八太郎山１０番地２８５,,02,203,0391161,,,2025-03-19,清算の結了等,,,2015-10-05,1,,,,,セキムカイプラントコウジ,0
1594,8010001109518,登記記録の閉鎖等,0,2025-03-25,2025-03-10,株式会社財産・事業承継コンサルティングファーム,,株式会社,東京都,千代田区,神田須田町１丁目１２番９号,,13,101,1010041,,,2025-03-10,清算の結了等,,,2015-10-05,1,,,,,ザイサンジギョウショウケイコンサルテイングファーム,0
1596,8010001174074,登記記録の閉鎖等,0,2025-03-25,2025-03-10,株式会社日本橋横田商店,,株式会社,東京都,中央区,日本橋箱崎町２８－１－２０１,,13,102,1030015,,,2025-03-10,清算の結了等,,,2016-03-08,1,,,,,ニホンバシヨコタショウテン,0
1606,8010002012472,登記記録の閉鎖等,0,2025-03-25,2025-03-12,テイエイエス有限会社,,有限会社,千葉県,鎌ケ谷市,東中沢３丁目４番７号,,12,224,2730112,,,2025-03-12,清算の結了等,,,2015-10-05,1,,,,,テイエイエス,0
1615,8010401132243,登記記録の閉鎖等,0,2025-03-25,2025-03-03,Ｇｒａｃｅ　Ｌｉｖｉｎｇ株式会社,,株式会社,東京都,港区,芝４丁目７番６号芝ビルディング７０４号室,,13,103,1080014,,,2025-03-03,清算の結了等,,,2017-06-28,1,,,,,グレイスリビング,0
1629,8011001134258,登記記録の閉鎖等,0,2025-03-25,2025-03-21,株式会社Ｌａｍｉｔｔｅ　Ｍａｒｋｅｔｉｎｇ　Ｊａｐａｎ,,株式会社,東京都,渋谷区,桜丘町２３番１７号シティコート桜丘４０８,,13,113,1500031,,,2025-03-21,清算の結了等,,,2020-06-26,1,,,,,ラミテマーケティングジャパン,0
1645,8011103010828,登記記録の閉鎖等,0,2025-03-25,2025-03-10,合同会社ｍｕｓｉｃｇ,,合同会社,東京都,新宿区,富久町１０番２０－１４０１号,,13,104,1620067,,,2025-03-10,清算の結了等,,,2021-07-06,1,,,,,ミュージグ,0
1651,8011305001815,登記記録の閉鎖等,0,2025-03-25,2025-03-12,特定非営利活動法人Ｗｉｌｌ,,その他の設立登記法人,東京都,豊島区,東池袋４丁目３１番３号,,13,116,1700013,,,2025-03-12,清算の結了等,,,2015-10-05,1,,,,,ウィル,0
1656,8011801015839,登記記録の閉鎖等,0,2025-03-25,2025-03-19,株式会社ライズ,,株式会社,東京都,足立区,谷在家２丁目２１番３号,,13,121,1230863,,,2025-03-19,清算の結了等,,,2015-10-05,1,,,,,ライズ,0
1673,8030001115621,登記記録の閉鎖等,0,2025-03-25,2025-03-17,ＳＭＣＫ株式会社,,株式会社,東京都,江戸川区,北小岩３丁目１３番１０号２階,,13,123,1330051,,,2025-03-17,清算の結了等,,,2016-07-27,1,,,,,エスエムシーケイ,0
1676,8030005007261,登記記録の閉鎖等,0,2025-03-25,2025-03-18,一般財団法人生活科学研究所,,その他の設立登記法人,東京都,中央区,築地２丁目１４番１２号,,13,102,1040045,,,2025-03-18,清算の結了等,,,2015-10-05,1,,,,,セイカツカガクケンキュウジョ,0
1689,8050001042459,登記記録の閉鎖等,0,2025-03-25,2025-03-14,株式会社Ｓ．Ｒ．Ｔ,,株式会社,茨城県,つくばみらい市,福田５４６番地１,,08,235,3002341,,,2025-03-14,清算の結了等,,,2017-03-22,1,,,,,,0
1692,8070001027301,登記記録の閉鎖等,0,2025-03-25,2025-03-18,株式会社グループリビング,,株式会社,群馬県,利根郡昭和村,大字貝野瀬７８番地４,,10,448,3791202,,,2025-03-18,清算の結了等,,,2015-10-05,1,,,,,グループリビング,0
1711,8120001199523,登記記録の閉鎖等,0,2025-03-25,2025-03-19,レスプロＪＡＰＡＮ株式会社,,株式会社,大阪府,堺市中区,八田北町１０１２番地１,,27,142,5998262,,,2025-03-19,清算の結了等,,,2016-07-15,1,,,,,,0
1742,8160001008135,登記記録の閉鎖等,0,2025-03-25,2025-03-21,株式会社大阪電機,,株式会社,滋賀県,彦根市,立花町２番５６号,,25,202,5220062,,,2025-03-21,清算の結了等,,,2015-10-05,1,,,,,オオサカデンキ,0
1748,8180001103727,登記記録の閉鎖等,0,2025-03-25,2025-03-18,株式会社ＡＧＡＩＡ,,株式会社,愛知県,名古屋市中区,金山１丁目１４番９号,,23,106,4600022,,,2025-03-18,清算の結了等,,,2015-10-05,1,,,,,アガイア,0
1769,8260005010713,登記記録の閉鎖等,0,2025-03-25,2025-03-19,一般社団法人食で未来を創るアカデミー,,その他の設立登記法人,岡山県,岡山市北区,絵図町９番４０号,,33,101,7000028,,,2025-03-19,清算の結了等,,,2020-02-06,1,,,,,ショクデミライヲツクルアカデミー,0
1778,8290002045940,登記記録の閉鎖等,0,2025-03-25,2025-03-13,福友産業有限会社,,有限会社,福岡県,飯塚市,川島７９番地,,40,205,8200002,,,2025-03-13,清算の結了等,,,2015-10-05,1,,,,,フクトモサンギョウ,0
1810,8500001000288,登記記録の閉鎖等,0,2025-03-25,2025-03-21,株式会社アスキス,,株式会社,愛媛県,松山市,南久米町４４２番地３,,38,201,7900924,,,2025-03-21,清算の結了等,,,2015-10-05,1,,,,,アスキス,0
1828,9010002009716,登記記録の閉鎖等,0,2025-03-25,2025-03-10,有限会社國葉ビルサービス,,有限会社,東京都,千代田区,飯田橋１丁目１２番１４号,,13,101,1020072,,,2025-03-10,清算の結了等,,,2015-10-05,1,,,,,コクハビルサービス,0
1849,9010601055193,登記記録の閉鎖等,0,2025-03-25,2025-03-21,株式会社ＣＨＩＣＣＪＡＰＡＮ,,株式会社,東京都,江東区,豊洲６丁目２番３１－２４２７号室,,13,108,1350061,,,2025-03-21,清算の結了等,,,2019-03-18,1,,,,,チックジャパン,0
1859,9011101061021,登記記録の閉鎖等,0,2025-03-25,2025-03-13,株式会社ＵＳＭＯＲＥ,,株式会社,東京都,中央区,日本橋兜町１６番５号,,13,102,1030026,,,2025-03-13,合併による解散等,5120001145083,令和７年３月１日東京都中央区日本橋兜町１６番５号株式会社イートウイング（5120001145083）に合併し解散,2015-10-05,1,,,,,アスモア,0
1861,9011102010720,登記記録の閉鎖等,0,2025-03-25,2025-03-11,有限会社平井碁盤店,,有限会社,東京都,新宿区,山吹町３６６番地,,13,104,1620801,,,2025-03-11,清算の結了等,,,2015-10-05,1,,,,,ヒライゴバンテン,0
1866,9011801000856,登記記録の閉鎖等,0,2025-03-25,2025-03-21,株式会社オックス,,株式会社,東京都,葛飾区,南水元２丁目２１番１７号,,13,122,1250035,,,2025-03-21,清算の結了等,,,2015-10-05,1,,,,,,0
1932,9120005018901,登記記録の閉鎖等,0,2025-03-25,2025-03-19,一般財団法人ライフサイエンス研究財団,,その他の設立登記法人,大阪府,大阪市淀川区,西中島７丁目１番２６号,,27,123,5320011,,,2025-03-19,清算の結了等,,,2016-08-31,1,,,,,ライフサイエンスケンキュウザイダン,0
1936,9120103001882,登記記録の閉鎖等,0,2025-03-25,2025-03-18,合同会社メゾフォルテ,,合同会社,大阪府,堺市西区,草部１３５番地８,,27,144,5938312,,,2025-03-18,清算の結了等,,,2015-10-05,1,,,,,メゾフォルテ,0
1983,9220002009538,登記記録の閉鎖等,0,2025-03-25,2025-03-19,有限会社ライフアップ,,有限会社,石川県,白山市,宮原町５番地,,17,210,9240069,,,2025-03-19,清算の結了等,,,2015-10-05,1,,,,,ライフアップ,0
1984,9230001002138,登記記録の閉鎖等,0,2025-03-25,2025-03-17,株式会社富山中央管理センター,,株式会社,富山県,富山市,掛尾町５００番地,,16,201,9398212,,,2025-03-17,清算の結了等,,,2015-10-05,1,,,,,トヤマチュウオウカンリセンター,0
1987,9250001002912,登記記録の閉鎖等,0,2025-03-25,2025-03-21,株式会社マルセイ,,株式会社,山口県,宇部市,大字東岐波３８０５番地の１,,35,202,7550241,,,2025-03-21,清算の結了等,,,2015-10-05,1,,,,,マルセイ,0
1991,9270001003207,登記記録の閉鎖等,0,2025-03-25,2025-03-24,株式会社ホープタウン,,株式会社,鳥取県,米子市,米原２丁目１番１号,,31,202,6830804,,,2025-03-24,清算の結了等,,,2015-10-05,1,,,,,ホープタウン,0
2027,9420003002216,登記記録の閉鎖等,0,2025-03-25,2025-03-18,株式会社ヒラケドア,,株式会社,青森県,八戸市,大字白銀町字雷３９番地４,,02,203,0310822,,,2025-03-18,合併による解散等,5290003007645,令和７年２月２８日福岡市中央区天神一丁目１番１号アクロス福岡１Ｆ福岡商事株式会社（5290003007645）に合併し解散,2020-11-24,1,,,,,ヒラケドア,0
2035,9470001012807,登記記録の閉鎖等,0,2025-03-25,2025-03-24,Ｉｎｓｐｉｒａｔｉｏｎ株式会社,,株式会社,香川県,高松市,伏石町２１０７番地１２,,37,201,7618071,,,2025-03-24,清算の結了等,,,2015-10-05,1,,,,,インスピレーション,0
