sequenceNumber,corporateNumber,process,correct,updateDate,changeDate,name,nameImageId,kind,prefectureName,cityName,streetNumber,addressImageId,prefectureCode,cityCode,postCode,addressOutside,addressOutsideImageId,closeDate,closeCause,successorCorporateNumber,changeCause,assignmentDate,latest,enName,enPrefectureName,enCityName,enAddressOutside,furigana,hihyoji
8,1010001223309,新規,0,2021-12-21,2021-12-21,スマートワン株式会社,,株式会社,東京都,千代田区,飯田橋４丁目４番地８号,,13,101,1020072,,,,,,,2021-12-21,1,,,,,スマートワン,0
9,1010001223366,新規,0,2021-12-21,2021-12-21,コスモジャパン株式会社,,株式会社,東京都,千代田区,九段北１丁目４番７号喜助九段北ビル５０３号室,,13,101,1020073,,,,,,,2021-12-21,1,,,,,コスモジャパン,0
10,1010001223382,新規,0,2021-12-21,2021-12-21,ドゥ・プライド株式会社,,株式会社,東京都,中央区,日本橋３丁目２番１４号,,13,102,1030027,,,,,,,2021-12-21,1,,,,,ドゥプライド,0
12,1010005034339,新規,0,2021-12-21,2021-12-21,一般財団法人日本サイクリングネットワーク,,その他の設立登記法人,東京都,千代田区,紀尾井町３番２９号,,13,101,1020094,,,,,,,2021-12-21,1,,,,,ニホンサイクリングネットワーク,0
13,1010005034355,新規,0,2021-12-21,2021-12-21,一般社団法人日本租税正義研究学会,,その他の設立登記法人,東京都,千代田区,神田駿河台４丁目３番地新お茶の水ビルディング,,13,101,1010062,,,,,,,2021-12-21,1,,,,,ニホンソゼイセイギケンキュウガッカイ,0
25,1010401164540,新規,0,2021-12-21,2021-12-21,株式会社ＬＩＬＣＩＡ,,株式会社,東京都,港区,南青山２丁目２番１５号,,13,103,1070062,,,,,,,2021-12-21,1,,,,,リルシア,0
31,1010501048230,新規,0,2021-12-21,2021-12-21,株式会社ＹＫ,,株式会社,東京都,台東区,台東４丁目３２番７号,,13,106,1100016,,,,,,,2021-12-21,1,,,,,ワイケー,0
32,1010501048239,新規,0,2021-12-21,2021-12-21,株式会社ＬＯＮＡ,,株式会社,東京都,台東区,松が谷２丁目２９－３－１Ｆ,,13,106,1110036,,,,,,,2021-12-21,1,,,,,ロナ,0
37,1010601060416,新規,0,2021-12-21,2021-12-21,株式会社奧村技工,,株式会社,東京都,江東区,大島８丁目１番９号,,13,108,1360072,,,,,,,2021-12-21,1,,,,,オクムラギコウ,0
47,1011001144692,新規,0,2021-12-21,2021-12-21,株式会社Ｃｏｎｎｅｃｔ　Ｌｉｖｅ,,株式会社,東京都,渋谷区,渋谷３丁目１８番１０号大野ビル２号館３階,,13,113,1500002,,,,,,,2021-12-21,1,,,,,コネクトライブ,0
48,1011003013904,新規,0,2021-12-21,2021-12-21,イエロテック合同会社,,合同会社,東京都,渋谷区,東１丁目２４番７,,13,113,1500011,,,,,,,2021-12-21,1,,,,,イエロテック,0
54,1011101097287,新規,0,2021-12-21,2021-12-21,株式会社エーシーズ,,株式会社,東京都,新宿区,西新宿２丁目６番１号新宿住友ビル３２階,,13,104,1600023,,,,,,,2021-12-21,1,,,,,エーシーズ,0
55,1011103011295,新規,0,2021-12-21,2021-12-21,合同会社やったるで,,合同会社,東京都,新宿区,新宿２丁目１５番１２号,,13,104,1600022,,,,,,,2021-12-21,1,,,,,ヤッタルデ,0
56,1011103011304,新規,0,2021-12-21,2021-12-21,ＡＴＡＴＡＫＡ　ＴＯＫＹＯ合同会社,,合同会社,東京都,新宿区,西新宿３丁目３番１３号西新宿水間ビル６階,,13,104,1600023,,,,,,,2021-12-21,1,,,,,アタタカトーキョー,0
57,1011301027440,新規,0,2021-12-21,2021-12-21,松＿機電精機株式会社,00125194,株式会社,東京都,杉並区,天沼２丁目７番７号マンション大竹３０１,,13,115,1670032,,,,,,,2021-12-21,1,,,,,ショウワイキデンセイキ,0
58,1011401023918,新規,0,2021-12-21,2021-12-21,株式会社ＢＡＹ　ＢＬＵＥ,,株式会社,東京都,板橋区,四葉２丁目１９番６ファーストインヨツバ１０１号,,13,119,1750084,,,,,,,2021-12-21,1,,,,,ベイブルー,0
66,1011703003031,新規,0,2021-12-21,2021-12-21,イシアルプラス合同会社,,合同会社,東京都,江戸川区,北葛西５丁目１５番５号,,13,123,1340081,,,,,,,2021-12-21,1,,,,,イシアルプラス,0
69,1011801040083,新規,0,2021-12-21,2021-12-21,株式会社ワイジーテクノサービス,,株式会社,東京都,葛飾区,東水元２丁目１５番１１号,,13,122,1250033,,,,,,,2021-12-21,1,,,,,ワイジーテクノサービス,0
70,1011801040091,新規,0,2021-12-21,2021-12-21,ルナーレーベルズ株式会社,,株式会社,東京都,葛飾区,亀有２丁目６３番７－４０３号コスモ亀有シティフォルム,,13,122,1250061,,,,,,,2021-12-21,1,,,,,ルナーレーベルズ,0
77,1012401038674,新規,0,2021-12-21,2021-12-21,株式会社スーパーＣＦＯ,,株式会社,東京都,稲城市,長峰２丁目５番地杜の五番街３－３０４,,13,225,2060821,,,,,,,2021-12-21,1,,,,,スーパーシーエフオー,0
78,1012405004680,新規,0,2021-12-21,2021-12-21,一般社団法人春夏秋冬,,その他の設立登記法人,東京都,稲城市,長峰３丁目３番地杜の二番街４－４０２,,13,225,2060821,,,,,,,2021-12-21,1,,,,,シュンカシュウトウ,0
93,1020001144396,新規,0,2021-12-21,2021-12-21,株式会社ファシリティサポート,,株式会社,神奈川県,横浜市神奈川区,鶴屋町２丁目２６番地の３,,14,102,2210835,,,,,,,2021-12-21,1,,,,,ファシリティサポート,0
94,1020001144421,新規,0,2021-12-21,2021-12-21,ＯＭＡＴＡ　ＴＯＳＯ　ＢＵＩＬＤＩＮＧ　ＳＯＣＩＥＴＹ株式会社,,株式会社,神奈川県,川崎市高津区,二子１丁目１１番２１号,,14,134,2130002,,,,,,,2021-12-21,1,,,,,オマタトソウビルディングソサエティ,0
102,1020003021008,新規,0,2021-12-21,2021-12-21,ターンザコーナー合同会社,,合同会社,神奈川県,横浜市鶴見区,鶴見中央１丁目５番５号アオキビル第２８－１０３,,14,101,2300051,,,,,,,2021-12-21,1,,,,,ターンザコーナー,0
109,1021005012399,新規,0,2021-12-21,2021-12-21,医療法人社団ふくしま歯科医院,,その他の設立登記法人,神奈川県,鎌倉市,大船３丁目６番２２号米倉ビル２階,,14,204,2470056,,,,,,,2021-12-21,1,,,,,フクシマシカイイン,0
115,1030001145856,新規,0,2021-12-21,2021-12-21,株式会社Ｒｏｎｄ－Ｐｏｉｎｔ,,株式会社,埼玉県,さいたま市見沼区,東大宮５丁目４番地１,,11,104,3370051,,,,,,,2021-12-21,1,,,,,ロンポアン,0
116,1030001145947,新規,0,2021-12-21,2021-12-21,株式会社ＺＥＡＬ,,株式会社,埼玉県,さいたま市西区,大字二ツ宮５１番地１１,,11,101,3310065,,,,,,,2021-12-21,1,,,,,ゼル,0
131,1050003006278,新規,0,2021-12-21,2021-12-21,栄進合同会社,,合同会社,茨城県,水戸市,けやき台１丁目５３－１,,08,201,3100842,,,,,,,2021-12-21,1,,,,,エイシン,0
135,1070003004338,新規,0,2021-12-21,2021-12-21,ＴＳプライベートカンパニー合同会社,,合同会社,群馬県,沼田市,薄根町３３７３番地９,,10,206,3780031,,,,,,,2021-12-21,1,,,,,ティーエスプライベートカンパニー,0
138,1090001017331,新規,0,2021-12-21,2021-12-21,株式会社アーヴェント,,株式会社,山梨県,富士吉田市,新西原１丁目８番１号,,19,202,4030017,,,,,,,2021-12-21,1,,,,,アーヴェント,0
141,1100001034911,新規,0,2021-12-21,2021-12-21,株式会社Ｎｅｘｔ　Ｇｅｎｅｒａｔｉｏｎ,,株式会社,長野県,長野市,南千歳１丁目２０－２アンジェラックスビル２階,,20,201,3800823,,,,,,,2021-12-21,1,,,,,ネクストジェネレーション,0
156,1120001242628,新規,0,2021-12-21,2021-12-21,株式会社Ｎ＆Ｍ,,株式会社,大阪府,大阪市北区,堂島浜１丁目４番２７－１６０２号,,27,127,5300004,,,,,,,2021-12-21,1,,,,,エヌアンドエム,0
157,1120001242636,新規,0,2021-12-21,2021-12-21,ＫＲ株式会社,,株式会社,大阪府,守口市,淀江町３番３－１０５号,,27,209,5700004,,,,,,,2021-12-21,1,,,,,ケイアール,0
158,1120001242660,新規,0,2021-12-21,2021-12-21,マツオ不動産株式会社,,株式会社,大阪府,交野市,幾野１丁目２２番１０号,,27,230,5760054,,,,,,,2021-12-21,1,,,,,マツオフドウサン,0
166,1120101064815,新規,0,2021-12-21,2021-12-21,株式会社ａｍｉｃａｌ,,株式会社,大阪府,堺市中区,深井沢町３３５３番地エステートＢＬＤＩＩＩ４０２号室,00125188,27,142,5998236,,,,,,,2021-12-21,1,,,,,アミカル,0
171,1120901045361,新規,0,2021-12-21,2021-12-21,ムア・サポート株式会社,,株式会社,大阪府,吹田市,樫切山４番１７号,,27,205,5650806,,,,,,,2021-12-21,1,,,,,ムアサポート,0
173,1120903003953,新規,0,2021-12-21,2021-12-21,合同会社ＭＫ看護,,合同会社,大阪府,高槻市,松が丘３丁目２５番２１号,,27,207,5691031,,,,,,,2021-12-21,1,,,,,エムケイカンゴ,0
178,1130001070730,新規,0,2021-12-21,2021-12-21,株式会社カチウム,,株式会社,京都府,福知山市,字堀１９６５番地の２,,26,201,6200000,,,,,,,2021-12-21,1,,,,,,0
179,1130003007615,新規,0,2021-12-21,2021-12-21,合同会社ＪＯ,,合同会社,京都府,京都市中京区,西ノ京原町４番地シエール西の京３０１,,26,104,6048431,,,,,,,2021-12-21,1,,,,,ジョー,0
180,1130005016341,新規,0,2021-12-21,2021-12-21,一般社団法人Ａエリア再開発協議会,,その他の設立登記法人,京都府,京都市伏見区,深草飯食山町２１番地７,,26,109,6120815,,,,,,,2021-12-21,1,,,,,エーエリアサイカイハツキョウギカイ,0
183,1140001124221,新規,0,2021-12-21,2021-12-21,株式会社ＭｉｒａｉＺＯ,,株式会社,兵庫県,神戸市中央区,琴ノ緒町５丁目７番２０号明花ビル４Ａ,,28,110,6510094,,,,,,,2021-12-21,1,,,,,ミライゾー,0
184,1140001124254,新規,0,2021-12-21,2021-12-21,株式会社ＡＳＧ,,株式会社,兵庫県,神戸市中央区,琴ノ緒町５丁目５番２９号三経ビル２０１号,,28,110,6510094,,,,,,,2021-12-21,1,,,,,エーエスジー,0
189,1150001025179,新規,0,2021-12-21,2021-12-21,株式会社パーパス,,株式会社,奈良県,奈良市,南登美ヶ丘３２番８号,,29,201,6310023,,,,,,,2021-12-21,1,,,,,パーパス,0
190,1150003002572,新規,0,2021-12-21,2021-12-21,ＫＡＤＯＹＡ合同会社,,合同会社,奈良県,桜井市,大字草川６９番地の７,,29,206,6330081,,,,,,,2021-12-21,1,,,,,カドヤ,0
191,1160003002448,新規,0,2021-12-21,2021-12-21,合同会社Ａｈｍａｄ　Ｔｒａｄｅｒｓ,,合同会社,滋賀県,蒲生郡日野町,大字別所１０９３－２２９,,25,383,5291647,,,,,,,2021-12-21,1,,,,,,0
196,1180001149181,新規,0,2021-12-21,2021-12-21,株式会社ｉｎｄｉｖｉｄｕａｌ,,株式会社,愛知県,名古屋市千種区,仲田２丁目１４番１６号中日本開発ビルディング,,23,101,4640074,,,,,,,2021-12-21,1,,,,,インディビジュアル,0
197,1180001149215,新規,0,2021-12-21,2021-12-21,株式会社ソラリス,,株式会社,愛知県,尾張旭市,大塚町２丁目１番１０号,,23,226,4880826,,,,,,,2021-12-21,1,,,,,ソラリス,0
203,1190001028954,新規,0,2021-12-21,2021-12-21,株式会社すきや極,,株式会社,三重県,鳥羽市,鳥羽１丁目３番１３号,,24,211,5170011,,,,,,,2021-12-21,1,,,,,スキヤキワミ,0
213,1240001059069,新規,0,2021-12-21,2021-12-21,ＳＵＮＮＹ株式会社,,株式会社,広島県,呉市,中通１丁目５番２６号,,34,202,7370046,,,,,,,2021-12-21,1,,,,,サニー,0
223,1290001095794,新規,0,2021-12-21,2021-12-21,株式会社ＲＡＤＭＵ,,株式会社,福岡県,久留米市,櫛原町７３番地１,,40,203,8300013,,,,,,,2021-12-21,1,,,,,ラドミュー,0
225,1290005018479,新規,0,2021-12-21,2021-12-21,医療法人はらだ歯科医院,,その他の設立登記法人,福岡県,福岡市東区,和白丘４丁目２０番２６号,,40,131,8110213,,,,,,,2021-12-21,1,,,,,ハラダシカイイン,0
227,1290801028103,新規,0,2021-12-21,2021-12-21,クローバー株式会社,,株式会社,福岡県,北九州市小倉北区,米町１丁目１番１号小倉駅前ひびきビル６階,,40,106,8020003,,,,,,,2021-12-21,1,,,,,クローバー,0
228,1300001012748,新規,0,2021-12-21,2021-12-21,株式会社Ｒｅｔｏｃｏｓ,,株式会社,佐賀県,唐津市,高島４３６,,41,202,8470027,,,,,,,2021-12-21,1,,,,,リトコス,0
239,1360001029786,新規,0,2021-12-21,2021-12-21,株式会社ＡＧクリーン,,株式会社,沖縄県,石垣市,字石垣８１７番地,,47,207,9070023,,,,,,,2021-12-21,1,,,,,エージークリーン,0
241,1360003011668,新規,0,2021-12-21,2021-12-21,合同会社一斗,,合同会社,沖縄県,国頭郡金武町,字金武４２４０－３１Ｆ,,47,314,9041201,,,,,,,2021-12-21,1,,,,,イチト,0
243,1370001047977,新規,0,2021-12-21,2021-12-21,株式会社ＹＡＭＡＮＯＮＥ,,株式会社,宮城県,柴田郡川崎町,大字前川字手代塚山１番地６２０,,04,324,9890901,,,,,,,2021-12-21,1,,,,,ヤマノネ,0
245,1370003005520,新規,0,2021-12-21,2021-12-21,合同会社Ｌｅｔｈａｌ,,合同会社,宮城県,仙台市泉区,北中山４丁目３０番地２０,,04,105,9813215,,,,,,,2021-12-21,1,,,,,リーサル,0
249,1380001032400,新規,0,2021-12-21,2021-12-21,株式会社一進建設,,株式会社,福島県,いわき市,植田町横町１８番地の８,,07,204,9748261,,,,,,,2021-12-21,1,,,,,イッシンケンセツ,0
250,1380001032409,新規,0,2021-12-21,2021-12-21,株式会社スロープワークス,,株式会社,福島県,会津若松市,山見町２９２番地１コーポ長谷川１－７号室,,07,202,9650021,,,,,,,2021-12-21,1,,,,,スロープワークス,0
270,1430001085632,新規,0,2021-12-21,2021-12-21,株式会社肉ソン大統領,,株式会社,北海道,札幌市中央区,北四条東１丁目３番地１－１００１号,,01,101,0600034,,,,,,,2021-12-21,1,,,,,ニクソンダイトウリョウ,0
284,2010001223357,新規,0,2021-12-21,2021-12-21,ＬＣＧ　ＭＡＮＡＧＥＭＥＮＴ株式会社,,株式会社,東京都,中央区,晴海３丁目１３番２号,,13,102,1040053,,,,,,,2021-12-21,1,,,,,エルシージーマネジメント,0
285,2010001223373,新規,0,2021-12-21,2021-12-21,駿羽投資株式会社,,株式会社,東京都,中央区,日本橋箱崎町３２番９号猪子ビル３Ｆ,,13,102,1030015,,,,,,,2021-12-21,1,,,,,シュンワトウシ,0
286,2010001223407,新規,0,2021-12-21,2021-12-21,ＣＳホールディングス株式会社,,株式会社,東京都,中央区,日本橋室町２丁目４番３号,,13,102,1030022,,,,,,,2021-12-21,1,,,,,シーエスホールディングス,0
302,2010401164531,新規,0,2021-12-21,2021-12-21,株式会社Ｐｒｏｊｅｃｔ　Ｋ,,株式会社,東京都,港区,南青山２丁目２番８号ＤＦビル５階５０３号室,,13,103,1070062,,,,,,,2021-12-21,1,,,,,プロジェクトケイ,0
334,2011001144691,新規,0,2021-12-21,2021-12-21,株式会社ｍｅｒｃｉｉ,,株式会社,東京都,渋谷区,神宮前６丁目２３番地４,,13,113,1500001,,,,,,,2021-12-21,1,,,,,メルシー,0
339,2011101097253,新規,0,2021-12-21,2021-12-21,パークホームズ株式会社,,株式会社,東京都,新宿区,早稲田鶴巻町２５１番４５号,,13,104,1620041,,,,,,,2021-12-21,1,,,,,パークホームズ,0
340,2011101097278,新規,0,2021-12-21,2021-12-21,株式会社盛和インベストメント,,株式会社,東京都,新宿区,大久保２丁目７番１号大久保フジビル３０９号,,13,104,1690072,,,,,,,2021-12-21,1,,,,,セイワインベストメント,0
341,2011103011294,新規,0,2021-12-21,2021-12-21,合同会社回,,合同会社,東京都,新宿区,西新宿３丁目３番１３号西新宿水間ビル６階,,13,104,1600023,,,,,,,2021-12-21,1,,,,,メグリ,0
343,2011201023497,新規,0,2021-12-21,2021-12-21,株式会社ＫＴＲコンサルティング,,株式会社,東京都,中野区,大和町３丁目３８－１９メルヴェイユ２０１,,13,114,1650034,,,,,,,2021-12-21,1,,,,,ケーティーアールコンサルティング,0
347,2011503005012,新規,0,2021-12-21,2021-12-21,合同会社コスカ,,合同会社,東京都,荒川区,東日暮里１丁目９番３号,,13,118,1160014,,,,,,,2021-12-21,1,,,,,コスカ,0
349,2011701024912,新規,0,2021-12-21,2021-12-21,株式会社ツナグ,,株式会社,東京都,江戸川区,松島４丁目４６－９天賞堂ビル１Ｆ,,13,123,1320031,,,,,,,2021-12-21,1,,,,,ツナグ,0
350,2011801040082,新規,0,2021-12-21,2021-12-21,株式会社クリエイト,,株式会社,東京都,足立区,鹿浜６丁目２６番１号,,13,121,1230864,,,,,,,2021-12-21,1,,,,,クリエイト,0
353,2011803004894,新規,0,2021-12-21,2021-12-21,ｓｗｅｌｌ合同会社,,合同会社,東京都,葛飾区,東四つ木１丁目１９番２０号,,13,122,1240014,,,,,,,2021-12-21,1,,,,,スウェル,0
359,2012801021287,新規,0,2021-12-21,2021-12-21,オフィスＮＹ株式会社,,株式会社,東京都,日野市,百草９５８番地の４３,,13,212,1910033,,,,,,,2021-12-21,1,,,,,オフィスエヌワイ,0
371,2020001144288,新規,0,2021-12-21,2021-12-21,株式会社ＧＲＯＷ,,株式会社,神奈川県,横浜市旭区,川井宿町２４－３１,,14,112,2410804,,,,,,,2021-12-21,1,,,,,グロー,0
372,2020001144379,新規,0,2021-12-21,2021-12-21,ＨＡＭＡＹＯＫＯ’Ｓ株式会社,,株式会社,神奈川県,横浜市栄区,上郷町９２番地４パークハイム福辺田４０１号,,14,115,2470013,,,,,,,2021-12-21,1,,,,,ハマヨコ,0
373,2020001144404,新規,0,2021-12-21,2021-12-21,タカハシ商事株式会社,,株式会社,神奈川県,横浜市瀬谷区,相沢７丁目５７番地の４,,14,114,2460013,,,,,,,2021-12-21,1,,,,,タカハシショウジ,0
374,2020001144420,新規,0,2021-12-21,2021-12-21,株式会社ＦＨＳ,,株式会社,神奈川県,川崎市川崎区,池田２丁目５番２－５０２号,,14,131,2100022,,,,,,,2021-12-21,1,,,,,エフエイチエス,0
375,2020001144445,新規,0,2021-12-21,2021-12-21,株式会社日本アルプスアーキテクツ,,株式会社,神奈川県,横浜市港北区,新吉田東８丁目３３番３４号,,14,109,2230058,,,,,,,2021-12-21,1,,,,,ニホンアルプスアーキテクツ,0
379,2020003021007,新規,0,2021-12-21,2021-12-21,合同会社アリスレイ,,合同会社,神奈川県,川崎市宮前区,馬絹４丁目４４番２８－５０７号,,14,136,2160035,,,,,,,2021-12-21,1,,,,,アリスレイ,0
384,2021003011204,新規,0,2021-12-21,2021-12-21,Ｚ・Ａ　ＴＲＡＤＥＲＳ合同会社,,合同会社,神奈川県,相模原市南区,新磯野５丁目８番４号パークアベニュー１０１,,14,153,2520325,,,,,,,2021-12-21,1,,,,,ゼットエイトレーダーズ,0
391,2030001145913,新規,0,2021-12-21,2021-12-21,株式会社スプレッド,,株式会社,埼玉県,さいたま市大宮区,櫛引町１丁目５７６番地１池田ハイム２０４号,,11,103,3300851,,,,,,,2021-12-21,1,,,,,スプレッド,0
392,2030001145921,新規,0,2021-12-21,2021-12-21,アンドライフ株式会社,,株式会社,埼玉県,さいたま市北区,日進町２丁目１５４８番地,,11,102,3310823,,,,,,,2021-12-21,1,,,,,アンドライフ,0
393,2030001145979,新規,0,2021-12-21,2021-12-21,ＶＩＤＡ株式会社,,株式会社,埼玉県,さいたま市大宮区,宮町１丁目３４番地３大宮Ｍ１ビル４階,,11,103,3300802,,,,,,,2021-12-21,1,,,,,ヴィダ,0
398,2030003018489,新規,0,2021-12-21,2021-12-21,合同会社エンカレッジ,,合同会社,埼玉県,川口市,戸塚東４丁目２８－６,,11,203,3330802,,,,,,,2021-12-21,1,,,,,エンカレッジ,0
401,2030005020666,新規,0,2021-12-21,2021-12-21,ＮＰＯ法人ぽかぽか,,その他の設立登記法人,埼玉県,鴻巣市,吹上富士見２丁目７番５－５０２号,,11,217,3690121,,,,,,,2021-12-21,1,,,,,ポカポカ,0
404,2040001121459,新規,0,2021-12-21,2021-12-21,株式会社みらい創造,,株式会社,千葉県,浦安市,今川１丁目２番１号,,12,227,2790022,,,,,,,2021-12-21,1,,,,,ミライソウゾウ,0
409,2040003019164,新規,0,2021-12-21,2021-12-21,合同会社ＬＩＶＥ,,合同会社,千葉県,千葉市中央区,浜野町１１８５番地１,,12,101,2600824,,,,,,,2021-12-21,1,,,,,ライブ,0
410,2040005021465,新規,0,2021-12-21,2021-12-21,和貴社会保険労務士法人,,その他の設立登記法人,千葉県,船橋市,本町２丁目１４番２３号,,12,204,2730005,,,,,,,2021-12-21,1,,,,,ワキ,0
412,2050001050319,新規,0,2021-12-21,2021-12-21,株式会社Ｌｉｆｅサポート,,株式会社,茨城県,ひたちなか市,外野１丁目３５番地２２号,,08,221,3120053,,,,,,,2021-12-21,1,,,,,ライフサポート,0
416,2060001034411,新規,0,2021-12-21,2021-12-21,株式会社ＳＡＴＯＲＵ建築設計事務所,,株式会社,栃木県,宇都宮市,西原３丁目６番６号,,09,201,3200862,,,,,,,2021-12-21,1,,,,,サトルケンチクセッケイジムショ,0
418,2070001038758,新規,0,2021-12-21,2021-12-21,株式会社ｆｏｏｄｓ　ｆｒｅｅ,,株式会社,群馬県,高崎市,貝沢町７４７番地３,,10,202,3700042,,,,,,,2021-12-21,1,,,,,フーズフリー,0
423,2080403004431,新規,0,2021-12-21,2021-12-21,合同会社ツツミ,,合同会社,静岡県,浜松市北区,東三方町１３０番地の２,,22,135,4338104,,,,,,,2021-12-21,1,,,,,ツツミ,0
431,2100001034910,新規,0,2021-12-21,2021-12-21,株式会社善友,,株式会社,長野県,長野市,吉田２丁目３番２７号,,20,201,3810043,,,,,,,2021-12-21,1,,,,,ゼンユウ,0
438,2110003004646,新規,0,2021-12-21,2021-12-21,合同会社ＤＲＡＷＡＰＰＳ,,合同会社,新潟県,新潟市西区,新中浜５丁目１番１８号,,15,107,9502163,,,,,,,2021-12-21,1,,,,,ドロウアップ,0
445,2120001242627,新規,0,2021-12-21,2021-12-21,ＳＫＷインターネット株式会社,,株式会社,大阪府,枚方市,長尾家具町２丁目３番地の２９,,27,210,5730102,,,,,,,2021-12-21,1,,,,,エスケイダブリューインターネット,0
446,2120001242643,新規,0,2021-12-21,2021-12-21,株式会社アームズ,,株式会社,大阪府,枚方市,出口１丁目２番１６－６１２号,,27,210,5730065,,,,,,,2021-12-21,1,,,,,アームズ,0
447,2120001242651,新規,0,2021-12-21,2021-12-21,株式会社ＦＵＪＩＴＡ,,株式会社,大阪府,大阪市住吉区,長居西１丁目１３番２８－２０６号,,27,120,5580002,,,,,,,2021-12-21,1,,,,,フジタ,0
448,2120001242668,新規,0,2021-12-21,2021-12-21,株式会社ＳＹＭ,,株式会社,大阪府,大阪市天王寺区,国分町１３番８号３Ｆ,,27,109,5430044,,,,,,,2021-12-21,1,,,,,エスワイエム,0
453,2120003020816,新規,0,2021-12-21,2021-12-21,合同会社ＩＣＯＮＩＣ,,合同会社,大阪府,大阪市西区,北堀江１丁目６番１６－７０１号,,27,106,5500014,,,,,,,2021-12-21,1,,,,,アイコニック,0
456,2120101064814,新規,0,2021-12-21,2021-12-21,株式会社Ａｎ,,株式会社,大阪府,岸和田市,西大路町１６９番地,,27,202,5960802,,,,,,,2021-12-21,1,,,,,アン,0
459,2120103004470,新規,0,2021-12-21,2021-12-21,ＹＯＳＨＩＫＯ商会合同会社,,合同会社,大阪府,南河内郡河南町,大宝４丁目２８番３号,,27,382,5850005,,,,,,,2021-12-21,1,,,,,ヨシコショウカイ,0
464,2130001070738,新規,0,2021-12-21,2021-12-21,児嶋防災株式会社,,株式会社,京都府,京都市山科区,勧修寺西金ケ崎３４２番地３,,26,110,6078221,,,,,,,2021-12-21,1,,,,,コジマボウサイ,0
465,2130001070746,新規,0,2021-12-21,2021-12-21,株式会社未来マネジメント,,株式会社,京都府,京都市中京区,柳馬場通四条上る瀬戸屋町４７０番地錦柳ビル３Ｆ,,26,104,6048122,,,,,,,2021-12-21,1,,,,,ミライマネジメント,0
466,2130001070754,新規,0,2021-12-21,2021-12-21,株式会社デイサービスセンター千寿館,,株式会社,京都府,京都市北区,平野宮本町４番地２ｇｏｏｄ８ｍｉｒａｉ１Ｆ,,26,101,6038322,,,,,,,2021-12-21,1,,,,,デイサービスセンターセンジュカン,0
468,2130005016340,新規,0,2021-12-21,2021-12-21,社会福祉法人いろどり,,その他の設立登記法人,京都府,京田辺市,同志社山手４丁目３番地１,,26,211,6100315,,,,,,,2021-12-21,1,,,,,イロドリ,0
473,2140001124245,新規,0,2021-12-21,2021-12-21,シンクス株式会社,,株式会社,兵庫県,神戸市東灘区,向洋町中６丁目３番地の４０,,28,101,6580032,,,,,,,2021-12-21,1,,,,,シンクス,0
476,2150001025186,新規,0,2021-12-21,2021-12-21,株式会社ホクレア,,株式会社,奈良県,橿原市,葛本町９５番地の３８,,29,205,6340007,,,,,,,2021-12-21,1,,,,,ホクレア,0
477,2150003002571,新規,0,2021-12-21,2021-12-21,ＤＣＭ合同会社,,合同会社,奈良県,生駒市,北新町１０－１ボヌール生駒２０３,,29,209,6300245,,,,,,,2021-12-21,1,,,,,ディーシーエム,0
484,2180001149180,新規,0,2021-12-21,2021-12-21,株式会社ＢＲＡＶＥ,,株式会社,愛知県,愛西市,東保町西河原３５１番地,,23,232,4960912,,,,,,,2021-12-21,1,,,,,ブレイブ,0
485,2180001149189,新規,0,2021-12-21,2021-12-21,福円食品株式会社,,株式会社,愛知県,一宮市,せんい２丁目９番３号,,23,203,4910873,,,,,,,2021-12-21,1,,,,,フクマルショクヒン,0
486,2180001149197,新規,0,2021-12-21,2021-12-21,株式会社中部サービス,,株式会社,愛知県,犬山市,字中唐曽８６番地５０,,23,215,4840934,,,,,,,2021-12-21,1,,,,,チュウブサービス,0
495,2240003005417,新規,0,2021-12-21,2021-12-21,合同会社ＵＩＮＩＴＹ,,合同会社,広島県,広島市東区,矢賀２丁目１番３５号,,34,102,7320042,,,,,,,2021-12-21,1,,,,,ユイニティ,0
506,2260003003749,新規,0,2021-12-21,2021-12-21,合同会社こころざし,,合同会社,岡山県,高梁市,落合町阿部１８４１番地１,,33,209,7160061,,,,,,,2021-12-21,1,,,,,,0
507,2270001008419,新規,0,2021-12-21,2021-12-21,株式会社あゆん企画,,株式会社,鳥取県,米子市,博労町１丁目７４番地,,31,202,6830052,,,,,,,2021-12-21,1,,,,,アユンキカク,0
515,2290801028102,新規,0,2021-12-21,2021-12-21,株式会社スガイ,,株式会社,福岡県,直方市,津田町３番７号,,40,204,8220026,,,,,,,2021-12-21,1,,,,,スガイ,0
517,2340001024342,新規,0,2021-12-21,2021-12-21,株式会社アグリファームエムズ,,株式会社,鹿児島県,鹿屋市,輝北町市成６９１番地４,,46,203,8998511,,,,,,,2021-12-21,1,,,,,アグリファームエムズ,0
518,2360001029793,新規,0,2021-12-21,2021-12-21,株式会社佐久川管理栄養士事務所,,株式会社,沖縄県,国頭郡本部町,字野原６７３－１,,47,308,9050215,,,,,,,2021-12-21,1,,,,,サクガワカンリエイヨウシジムショ,0
524,2370001047976,新規,0,2021-12-21,2021-12-21,株式会社Ｃ’ｓプランニング,,株式会社,宮城県,仙台市宮城野区,福室２丁目８番１７号,,04,102,9830005,,,,,,,2021-12-21,1,,,,,シーズプランニング,0
535,2380003005072,新規,0,2021-12-21,2021-12-21,合同会社ＡＩＺＵウィンタースクール,,合同会社,福島県,耶麻郡猪苗代町,字猫石山７１０２番地１７２,,07,408,9693102,,,,,,,2021-12-21,1,,,,,アイヅウィンタースクール,0
548,2430001085631,新規,0,2021-12-21,2021-12-21,株式会社ＲＯＷＡＮ,,株式会社,北海道,札幌市白石区,本通４丁目北６番１号－３Ａ,,01,104,0030027,,,,,,,2021-12-21,1,,,,,ロアン,0
549,2430003013466,新規,0,2021-12-21,2021-12-21,アンカーズ・シニアサポート合同会社,,合同会社,北海道,札幌市北区,百合が原７丁目５番１４号,,01,102,0028081,,,,,,,2021-12-21,1,,,,,アンカーズシニアサポート,0
564,3010001223389,新規,0,2021-12-21,2021-12-21,株式会社ワイユー,,株式会社,東京都,中央区,京橋３丁目４番２号フォーチュンビル３階,,13,102,1040031,,,,,,,2021-12-21,1,,,,,ワイユー,0
565,3010001223397,新規,0,2021-12-21,2021-12-21,スマートローカル株式会社,,株式会社,東京都,千代田区,丸の内３丁目４番２号新日石ビル５階,,13,101,1000005,,,,,,,2021-12-21,1,,,,,スマートローカル,0
566,3010001223406,新規,0,2021-12-21,2021-12-21,株式会社Ａｕｓｓｉｅ　Ｓｔｕｄｙ,,株式会社,東京都,千代田区,九段南１丁目５番６号りそな九段ビル５Ｆ・ＫＳフロア,,13,101,1020074,,,,,,,2021-12-21,1,,,,,オージースタディ,0
579,3010401164563,新規,0,2021-12-21,2021-12-21,株式会社ソワレ,,株式会社,東京都,港区,三田２丁目１４番５号フロイントゥ三田１００５号室,,13,103,1080073,,,,,,,2021-12-21,1,,,,,ソワレ,0
580,3010401164596,新規,0,2021-12-21,2021-12-21,Ｂａｉｎｓｏｆｔ株式会社,,株式会社,東京都,港区,六本木１丁目９番３５－９０４号,,13,103,1060032,,,,,,,2021-12-21,1,,,,,ベインソフト,0
584,3010501048237,新規,0,2021-12-21,2021-12-21,株式会社ティ,,株式会社,東京都,台東区,東上野１丁目１４番１０号翁堂ビル５階,,13,106,1100015,,,,,,,2021-12-21,1,,,,,ティ,0
589,3010601060406,新規,0,2021-12-21,2021-12-21,株式会社考える,,株式会社,東京都,墨田区,墨田４丁目５６番１０号,,13,107,1310031,,,,,,,2021-12-21,1,,,,,カンガエル,0
594,3010805002906,新規,0,2021-12-21,2021-12-21,一般社団法人精神障害当事者会ポルケ,,その他の設立登記法人,東京都,大田区,西馬込１丁目３１番１８号,,13,111,1430026,,,,,,,2021-12-21,1,,,,,セイシンショウガイトウジシャカイポルケ,0
596,3010901050024,新規,0,2021-12-21,2021-12-21,株式会社ＮＯＤＥクリエイティブ,,株式会社,東京都,世田谷区,羽根木１丁目２１番１号亀甲新は６６,,13,112,1560042,,,,,,,2021-12-21,1,,,,,ノードクリエイティブ,0
597,3010901050032,新規,0,2021-12-21,2021-12-21,ＵＭＧ株式会社,,株式会社,東京都,世田谷区,駒沢１丁目１３番１２号駒沢タカシビル３０２,,13,112,1540012,,,,,,,2021-12-21,1,,,,,ユーエムジー,0
598,3010901050040,新規,0,2021-12-21,2021-12-21,株式会社Ｋｒａｎｅｉａ,,株式会社,東京都,世田谷区,上野毛４丁目１４－３,,13,112,1580093,,,,,,,2021-12-21,1,,,,,クラネイア,0
602,3011001144682,新規,0,2021-12-21,2021-12-21,株式会社岳,,株式会社,東京都,渋谷区,神宮前４丁目８番７号,,13,113,1500001,,,,,,,2021-12-21,1,,,,,ガク,0
603,3011001144716,新規,0,2021-12-21,2021-12-21,Ｂｒｉｄｇｉｎｇ　Ｇｌｏｂａｌ株式会社,,株式会社,東京都,渋谷区,恵比寿南３丁目１番１号,,13,113,1500022,,,,,,,2021-12-21,1,,,,,ブリッジンググローバル,0
607,3011101097260,新規,0,2021-12-21,2021-12-21,株式会社Ｒｅｃｏ,,株式会社,東京都,新宿区,高田馬場１丁目２８番１０号,,13,104,1690075,,,,,,,2021-12-21,1,,,,,レコ,0
608,3011101097302,新規,0,2021-12-21,2021-12-21,株式会社ａｔｅｆａｎ,,株式会社,東京都,新宿区,市谷本村町３番２６号,,13,104,1620845,,,,,,,2021-12-21,1,,,,,エイトファン,0
612,3011301027439,新規,0,2021-12-21,2021-12-21,株式会社清水自動車,,株式会社,東京都,杉並区,本天沼１丁目１８番１１号,,13,115,1670031,,,,,,,2021-12-21,1,,,,,シミズジドウシャ,0
626,3012405004679,新規,0,2021-12-21,2021-12-21,マートルコート調布第２管理組合法人,,その他の設立登記法人,東京都,調布市,布田２丁目３８番１,,13,208,1820024,,,,,,,2021-12-21,1,,,,,マートルコートチョウフダイニ,0
627,3012801021286,新規,0,2021-12-21,2021-12-21,株式会社ケイイーエス,,株式会社,東京都,国立市,西２丁目３番地の９さくらヴィレッジ国立２０７,,13,215,1860005,,,,,,,2021-12-21,1,,,,,ケイイーエス,0
628,3012803002664,新規,0,2021-12-21,2021-12-21,合同会社Ｃｏｃｏ．Ｉｎｔｅｒｎａｔｉｏｎａｌ,,合同会社,東京都,日野市,万願寺３丁目１５番地６号ロジュマンアンジュ１０３,,13,212,1910024,,,,,,,2021-12-21,1,,,,,ココドットインターナショナル,0
631,3013301048448,新規,0,2021-12-21,2021-12-21,東京総合探偵興信社株式会社,,株式会社,東京都,豊島区,南池袋１丁目１６－１５ダイヤゲート池袋５階,,13,116,1710022,,,,,,,2021-12-21,1,,,,,トウキョウソウゴウタンテイコウシンシャ,0
638,3020001144428,新規,0,2021-12-21,2021-12-21,株式会社パーク不動産,,株式会社,神奈川県,横浜市西区,藤棚町２丁目２１０番地１１,,14,103,2200053,,,,,,,2021-12-21,1,,,,,パークフドウサン,0
650,3021003011186,新規,0,2021-12-21,2021-12-21,合同会社モビスタ,,合同会社,神奈川県,南足柄市,矢倉沢２４５３,,14,217,2500136,,,,,,,2021-12-21,1,,,,,モビスタ,0
652,3030001145920,新規,0,2021-12-21,2021-12-21,株式会社丑山型枠工業,,株式会社,埼玉県,さいたま市大宮区,三橋４丁目６４２番地１０,,11,103,3300856,,,,,,,2021-12-21,1,,,,,ウシヤマカタワクコウギョウ,0
657,3030005020665,新規,0,2021-12-21,2021-12-21,一般財団法人川越女子高等学校同窓会吉川奨学財団,00125186,その他の設立登記法人,埼玉県,川越市,六軒町１丁目２３,,11,201,3500041,,,,,,,2021-12-21,1,,,,,カワゴエジョシコウトウガッコウドウソウカイキッカワショウガクザイダン,0
658,3040001121458,新規,0,2021-12-21,2021-12-21,株式会社ヴァンダ,,株式会社,千葉県,船橋市,宮本１丁目２１番８号,,12,204,2730003,,,,,,,2021-12-21,1,,,,,ヴァンダ,0
663,3050001050334,新規,0,2021-12-21,2021-12-21,つたや工業株式会社,,株式会社,茨城県,那珂市,向山１２７８番地９,,08,226,3110102,,,,,,,2021-12-21,1,,,,,ツタヤコウギョウ,0
665,3050003006276,新規,0,2021-12-21,2021-12-21,合同会社長松電設,,合同会社,茨城県,神栖市,下幡木４０４９番地７,,08,232,3140131,,,,,,,2021-12-21,1,,,,,ナガマツデンセツ,0
669,3060003003900,新規,0,2021-12-21,2021-12-21,合同会社ＳＰＡＲＫＬＩＮＫ,,合同会社,栃木県,宇都宮市,東峰町３１１９番地３２,,09,201,3210944,,,,,,,2021-12-21,1,,,,,スパークリンク,0
672,3070003004336,新規,0,2021-12-21,2021-12-21,合同会社ラフターズマーケティング,,合同会社,群馬県,みどり市,笠懸町鹿２９７６番地５,,10,212,3792313,,,,,,,2021-12-21,1,,,,,ラフターズマーケティング,0
673,3070005009928,新規,0,2021-12-21,2021-12-21,一般社団法人太田熊谷ホテル協議会,,その他の設立登記法人,群馬県,太田市,出塚町３５５番地１,,10,205,3700424,,,,,,,2021-12-21,1,,,,,オオタクマガヤホテルキョウギカイ,0
678,3080401025528,新規,0,2021-12-21,2021-12-21,株式会社森ホールディングス,,株式会社,静岡県,周智郡森町,草ケ谷４５８番地,,22,461,4370214,,,,,,,2021-12-21,1,,,,,モリホールディングス,0
680,3080403004430,新規,0,2021-12-21,2021-12-21,エー・エス・インターナショナル合同会社,,合同会社,静岡県,御前崎市,白羽３２１６番地の１サンハイツ白羽１０２,,22,223,4371622,,,,,,,2021-12-21,1,,,,,エーエスインターナショナル,0
683,3100001034901,新規,0,2021-12-21,2021-12-21,八千穂ブリューイングカンパニー株式会社,,株式会社,長野県,南佐久郡佐久穂町,大字八郡２０４９番８６５,,20,309,3840704,,,,,,,2021-12-21,1,,,,,ヤチホブリューイングカンパニー,0
684,3110003004661,新規,0,2021-12-21,2021-12-21,合同会社５５オンライン,,合同会社,新潟県,上越市,下門前１８６６番地マストタウン下門前Ｂ１０２号,,15,222,9420063,,,,,,,2021-12-21,1,,,,,ゴーゴーオンライン,0
688,3120001242618,新規,0,2021-12-21,2021-12-21,株式会社ＭＭＳ,,株式会社,大阪府,大阪市天王寺区,東上町８番４１号,,27,109,5430026,,,,,,,2021-12-21,1,,,,,エムエムエス,0
689,3120001242626,新規,0,2021-12-21,2021-12-21,ミヤモト商店株式会社,,株式会社,大阪府,寝屋川市,小路北町５番２８号,,27,215,5720865,,,,,,,2021-12-21,1,,,,,ミヤモトショウテン,0
690,3120001242634,新規,0,2021-12-21,2021-12-21,株式会社Ｏｎｅ　Ｆｌａｔ,,株式会社,大阪府,大阪市中央区,谷町３丁目１－２４－６０６,,27,128,5400012,,,,,,,2021-12-21,1,,,,,ワンフラット,0
691,3120001242642,新規,0,2021-12-21,2021-12-21,旭エンジニア株式会社,,株式会社,大阪府,門真市,ひえ島町２５番４６号,,27,223,5710037,,,,,,,2021-12-21,1,,,,,アサヒエンジニア,0
692,3120001242650,新規,0,2021-12-21,2021-12-21,スマイルファーマシー株式会社,,株式会社,大阪府,大阪市西区,阿波座２丁目２番１８号いちご西本町ビル７Ｆ,,27,106,5500011,,,,,,,2021-12-21,1,,,,,スマイルファーマシー,0
693,3120001242659,新規,0,2021-12-21,2021-12-21,株式会社Ｄｉｃｅ　Ｔｏｔａｌ　Ｓｅｒｖｉｃｅ,,株式会社,大阪府,大阪市平野区,長吉六反３丁目５－３,,27,126,5470012,,,,,,,2021-12-21,1,,,,,ダイストータルサービス,0
702,3120101064821,新規,0,2021-12-21,2021-12-21,株式会社ヒーローズワーク,,株式会社,大阪府,堺市堺区,浅香山町１丁３番５号ウィズ玉置１０３号,,27,141,5900012,,,,,,,2021-12-21,1,,,,,ヒーローズワーク,0
707,3120901045351,新規,0,2021-12-21,2021-12-21,Ｓｕｎメディカル株式会社,,株式会社,大阪府,箕面市,桜４丁目１８番１４号メゾンアーデンＩＩＩ３１０号室,00125189,27,220,5620041,,,,,,,2021-12-21,1,,,,,サンメディカル,0
709,3120903003951,新規,0,2021-12-21,2021-12-21,合同会社Ａｓ,,合同会社,大阪府,茨木市,大池１丁目１４番２４－２０２号,,27,211,5670826,,,,,,,2021-12-21,1,,,,,エイエス,0
715,3130001070745,新規,0,2021-12-21,2021-12-21,ｆｏｌｌｏｗ株式会社,,株式会社,京都府,京都市山科区,北花山山田町６４－１６,,26,110,6078472,,,,,,,2021-12-21,1,,,,,フォロー,0
719,3140001124236,新規,0,2021-12-21,2021-12-21,株式会社ＯＲＩＯＮ,,株式会社,兵庫県,神戸市灘区,鹿ノ下通１丁目４番８号シティ六甲Ｒ２ビル６Ｆ,,28,102,6570044,,,,,,,2021-12-21,1,,,,,オライオン,0
720,3140001124244,新規,0,2021-12-21,2021-12-21,ルナック株式会社,,株式会社,兵庫県,神戸市東灘区,向洋町中６丁目３番地の４０,,28,101,6580032,,,,,,,2021-12-21,1,,,,,ルナック,0
721,3140001124252,新規,0,2021-12-21,2021-12-21,株式会社藤井,,株式会社,兵庫県,神戸市長田区,神楽町４丁目５番１２号,,28,106,6530836,,,,,,,2021-12-21,1,,,,,フジイ,0
722,3140001124277,新規,0,2021-12-21,2021-12-21,センチュリー都市開発株式会社,,株式会社,兵庫県,神戸市北区,東大池２丁目３０番１４号,,28,109,6511333,,,,,,,2021-12-21,1,,,,,センチュリートシカイハツ,0
726,3140003017124,新規,0,2021-12-21,2021-12-21,リコー工業合同会社,,合同会社,兵庫県,丹波篠山市,草野５６番地,,28,221,6692113,,,,,,,2021-12-21,1,,,,,,0
727,3140003017132,新規,0,2021-12-21,2021-12-21,合同会社トゥルシ,,合同会社,兵庫県,神戸市北区,山田町下谷上字梅木谷１－８・３０２号,,28,109,6511243,,,,,,,2021-12-21,1,,,,,トゥルシ,0
741,3180001149188,新規,0,2021-12-21,2021-12-21,株式会社Ｅ‐クレスト,,株式会社,愛知県,東海市,名和町緑陽台１番地（Ｂ７０１）,,23,222,4760002,,,,,,,2021-12-21,1,,,,,イークレスト,0
748,3180303005196,新規,0,2021-12-21,2021-12-21,合同会社ｄｏｔ．,,合同会社,愛知県,豊川市,東曙町１４,,23,207,4420011,,,,,,,2021-12-21,1,,,,,ドット,0
749,3180305009278,新規,0,2021-12-21,2021-12-21,医療法人ｉМＴ,,その他の設立登記法人,愛知県,碧南市,緑町２丁目７０番地,,23,209,4470041,,,,,,,2021-12-21,1,,,,,アイエムティー,0
761,3240005015314,新規,0,2021-12-21,2021-12-21,一般財団法人泉田基金,,その他の設立登記法人,広島県,広島市佐伯区,八幡が丘２丁目９番９号,,34,108,7315117,,,,,,,2021-12-21,1,,,,,イズミダキキン,0
767,3260003003748,新規,0,2021-12-21,2021-12-21,合同会社ＳＲＣ,,合同会社,岡山県,岡山市南区,藤田２０１６番地,,33,104,7010221,,,,,,,2021-12-21,1,,,,,エスアールシー,0
771,3290001095677,新規,0,2021-12-21,2021-12-21,株式会社Ｌｕａｎａ,,株式会社,福岡県,福岡市城南区,南片江４丁目１１番１０号,,40,136,8140143,,,,,,,2021-12-21,1,,,,,ルアナ,0
772,3290001095776,新規,0,2021-12-21,2021-12-21,株式会社ベルベット・パス,,株式会社,福岡県,福岡市早良区,原６丁目１８番１８号,,40,137,8140022,,,,,,,2021-12-21,1,,,,,ベルベットパス,0
774,3290005018477,新規,0,2021-12-21,2021-12-21,医療法人ハレクラニアロハ歯科小児・矯正歯科クリニック,,その他の設立登記法人,福岡県,糟屋郡粕屋町,大字酒殿１９２－１イオンモール福岡２Ｆ,,40,349,8112303,,,,,,,2021-12-21,1,,,,,ハレクラニアロハシカショウニキョウセイシカクリニック,0
775,3290005018485,新規,0,2021-12-21,2021-12-21,医療法人ふなこし内科・循環器内科,,その他の設立登記法人,福岡県,福岡市中央区,笹丘１丁目４－１２,,40,133,8100034,,,,,,,2021-12-21,1,,,,,フナコシナイカジュンカンキナイカ,0
783,3310003004229,新規,0,2021-12-21,2021-12-21,ＵＮＺＥＮ　ＫＡＮＧＥＴＳＵ合同会社,,合同会社,長崎県,雲仙市,国見町多比良乙９３番地,,42,213,8591322,,,,,,,2021-12-21,1,,,,,ウンゼンカンゲツ,0
791,3330003009176,新規,0,2021-12-21,2021-12-21,クリエイト合同会社,,合同会社,熊本県,菊池市,野間口５４２番地１１,,43,210,8611324,,,,,,,2021-12-21,1,,,,,クリエイト,0
794,3340003003657,新規,0,2021-12-21,2021-12-21,合同会社ＭＩＣＨＩＲＵ,,合同会社,鹿児島県,出水郡長島町,浦底２５８５番地２２,,46,404,8991402,,,,,,,2021-12-21,1,,,,,ミチル,0
795,3350003003994,新規,0,2021-12-21,2021-12-21,合同会社ＧＥＲＢＥＲＡ,,合同会社,宮崎県,宮崎市,橘通西５丁目６番５０号,,45,201,8800001,,,,,,,2021-12-21,1,,,,,ガーベラ,0
798,3370001047967,新規,0,2021-12-21,2021-12-21,株式会社ＨＦパートナー,,株式会社,宮城県,遠田郡美里町,平針字中川前二番１５番地,,04,505,9870021,,,,,,,2021-12-21,1,,,,,エイチエフパートナー,0
799,3370003005519,新規,0,2021-12-21,2021-12-21,合同会社Ｆ－ＴＥＣＨ,,合同会社,宮城県,大崎市,古川下中目字新小路浦１６６番地,,04,215,9896123,,,,,,,2021-12-21,1,,,,,エフテック,0
804,3380001032415,新規,0,2021-12-21,2021-12-21,株式会社グラスフィールドパートナーズ,,株式会社,福島県,双葉郡楢葉町,大字大谷字鐘突堂１９番地の１０,,07,542,9790605,,,,,,,2021-12-21,1,,,,,グラスフィールドパートナーズ,0
816,3430001085630,新規,0,2021-12-21,2021-12-21,株式会社ＥＺＡ　Ｈｏｌｄｉｎｇｓ,,株式会社,北海道,札幌市白石区,本通４丁目北６番１号－３Ａ,,01,104,0030027,,,,,,,2021-12-21,1,,,,,エザホールディングス,0
817,3430001085639,新規,0,2021-12-21,2021-12-21,株式会社翼,,株式会社,北海道,札幌市手稲区,前田六条１０丁目２番１０号,,01,109,0060816,,,,,,,2021-12-21,1,,,,,ツバサ,0
822,3440003001436,新規,0,2021-12-21,2021-12-21,合同会社花奏,,合同会社,北海道,函館市,山の手１丁目１０番１５－１号,,01,202,0410836,,,,,,,2021-12-21,1,,,,,カナデ,0
824,3490001010054,新規,0,2021-12-21,2021-12-21,株式会社Ｊｅｎｎｙ,,株式会社,高知県,四万十市,中村天神橋５９－９,,39,210,7870027,,,,,,,2021-12-21,1,,,,,ジェニー,0
831,4010001223371,新規,0,2021-12-21,2021-12-21,株式会社ｅｎｄｏｒｐｈｉｎ,,株式会社,東京都,千代田区,神田三崎町２丁目１９番９号,,13,101,1010061,,,,,,,2021-12-21,1,,,,,エンドルフィン,0
848,4010401164546,新規,0,2021-12-21,2021-12-21,株式会社パーソナルコード,,株式会社,東京都,港区,南青山２丁目２番８号ＤＦビル,,13,103,1070062,,,,,,,2021-12-21,1,,,,,パーソナルコード,0
849,4010401164554,新規,0,2021-12-21,2021-12-21,株式会社きじま,,株式会社,東京都,港区,南青山３丁目８番４０号,,13,103,1070062,,,,,,,2021-12-21,1,,,,,キジマ,0
853,4010403026744,新規,0,2021-12-21,2021-12-21,合同会社エーバイエー,,合同会社,東京都,港区,南青山２丁目１０番８号ＭＤＡｏｙａｍａ４階,,13,103,1070062,,,,,,,2021-12-21,1,,,,,エーバイエー,0
858,4010501048236,新規,0,2021-12-21,2021-12-21,株式会社ＳＯＬＩＴＡＩＲＥ,,株式会社,東京都,台東区,台東２丁目２６番８－５０６号,,13,106,1100016,,,,,,,2021-12-21,1,,,,,ソリティア,0
859,4010503006456,新規,0,2021-12-21,2021-12-21,合同会社リボーン,,合同会社,東京都,台東区,東上野１丁目９番８号,,13,106,1100015,,,,,,,2021-12-21,1,,,,,リボーン,0
862,4010601060413,新規,0,2021-12-21,2021-12-21,株式会社ノイモント,,株式会社,東京都,江東区,東砂７丁目１７番２－１２０１号,,13,108,1360074,,,,,,,2021-12-21,1,,,,,ノイモント,0
866,4010703006041,新規,0,2021-12-21,2021-12-21,ＭＫＴ合同会社,,合同会社,東京都,品川区,東品川１丁目２５番３号ＴＭ東品川２０３,,13,109,1400002,,,,,,,2021-12-21,1,,,,,エムケイティ,0
868,4010801032591,新規,0,2021-12-21,2021-12-21,株式会社イスカンダル,,株式会社,東京都,大田区,東六郷３丁目１２番８号,,13,111,1440046,,,,,,,2021-12-21,1,,,,,イスカンダル,0
878,4011001144681,新規,0,2021-12-21,2021-12-21,株式会社ＴＯＤＯＫＥＲＵ,,株式会社,東京都,渋谷区,幡ヶ谷３丁目３番２号,,13,113,1510072,,,,,,,2021-12-21,1,,,,,トドケル,0
879,4011001144715,新規,0,2021-12-21,2021-12-21,株式会社アルトバローレ,,株式会社,東京都,渋谷区,神宮前６丁目２３番４号桑野ビル２階,,13,113,1500001,,,,,,,2021-12-21,1,,,,,アルトバローレ,0
884,4011101097235,新規,0,2021-12-21,2021-12-21,株式会社エンジンフリーク,,株式会社,東京都,新宿区,神楽坂５丁目４３番地２ＲＯＪＩ神楽坂ビル１階,,13,104,1620825,,,,,,,2021-12-21,1,,,,,エンジンフリーク,0
885,4011101097284,新規,0,2021-12-21,2021-12-21,おまつり総研株式会社,,株式会社,東京都,新宿区,若葉３丁目４－４０、２０９,,13,104,1600011,,,,,,,2021-12-21,1,,,,,オマツリソウケン,0
886,4011101097292,新規,0,2021-12-21,2021-12-21,榎本商事株式会社,,株式会社,東京都,新宿区,下落合１丁目５番９－２１０号,,13,104,1610033,,,,,,,2021-12-21,1,,,,,エノモトショウジ,0
893,4011503005010,新規,0,2021-12-21,2021-12-21,東君小宇合同会社,,合同会社,東京都,北区,中里３丁目１７番１７号,,13,117,1140015,,,,,,,2021-12-21,1,,,,,トウクンショウウ,0
898,4011801040089,新規,0,2021-12-21,2021-12-21,株式会社ＴＥＲＲＡＣＥ,,株式会社,東京都,足立区,日ノ出町３５番１３－１０７号,,13,121,1200021,,,,,,,2021-12-21,1,,,,,テラス,0
899,4011805003133,新規,0,2021-12-21,2021-12-21,一般社団法人エアコン取付工事士協会,,その他の設立登記法人,東京都,葛飾区,南水元２丁目１７番２号,,13,122,1250035,,,,,,,2021-12-21,1,,,,,エアコントリツケコウジシキョウカイ,0
904,4012701016831,新規,0,2021-12-21,2021-12-21,株式会社Ｓｈｕｓｅｉ,,株式会社,東京都,小平市,小川町１丁目７４１番地の１２Ｐｒｉｎｔｅｍｐ１０２号,,13,211,1870032,,,,,,,2021-12-21,1,,,,,シュウセイ,0
906,4012803002663,新規,0,2021-12-21,2021-12-21,合同会社ＳＲＳ,,合同会社,東京都,国立市,西１丁目２番地の５ミオカステーロ国立４０４号,,13,215,1860005,,,,,,,2021-12-21,1,,,,,エスアールエス,0
925,4020001144393,新規,0,2021-12-21,2021-12-21,ＡＲＡＴＡ建機株式会社,,株式会社,神奈川県,川崎市中原区,新城中町１３番１６号,,14,133,2110043,,,,,,,2021-12-21,1,,,,,アラタケンキ,0
926,4020001144402,新規,0,2021-12-21,2021-12-21,株式会社ＫＳＡＰ,,株式会社,神奈川県,横浜市青葉区,市ケ尾町４９４番地４７,,14,117,2250024,,,,,,,2021-12-21,1,,,,,ケーエスエーピー,0
927,4020001144427,新規,0,2021-12-21,2021-12-21,株式会社時遊空間,,株式会社,神奈川県,横浜市西区,北幸１丁目１１番１号水信ビル７階,,14,103,2200004,,,,,,,2021-12-21,1,,,,,ジユウクウカン,0
939,4021001074787,新規,0,2021-12-21,2021-12-21,株式会社ｃｕｂｉｃ,,株式会社,神奈川県,相模原市中央区,矢部３丁目１番１９号,,14,152,2520232,,,,,,,2021-12-21,1,,,,,キュービック,0
943,4021003011210,新規,0,2021-12-21,2021-12-21,ＢＥＡＣＨ　ＷＩＮＧ合同会社,,合同会社,神奈川県,厚木市,山際８９６番地１２,,14,212,2430803,,,,,,,2021-12-21,1,,,,,ビーチウィング,0
950,4030001145911,新規,0,2021-12-21,2021-12-21,株式会社セキネ,,株式会社,埼玉県,さいたま市岩槻区,大字南辻１０４番地２,00125187,11,110,3390062,,,,,,,2021-12-21,1,,,,,セキネ,0
951,4030001145952,新規,0,2021-12-21,2021-12-21,株式会社レップシード,,株式会社,埼玉県,さいたま市大宮区,桜木町２丁目３番地大宮マルイ７階,,11,103,3300854,,,,,,,2021-12-21,1,,,,,レップシード,0
958,4030005020664,新規,0,2021-12-21,2021-12-21,オーベル川口管理組合法人,,その他の設立登記法人,埼玉県,川口市,幸町２丁目１２番２４号,,11,203,3320016,,,,,,,2021-12-21,1,,,,,オーベルカワグチ,0
967,4050001050309,新規,0,2021-12-21,2021-12-21,株式会社ウィーブ,,株式会社,茨城県,結城市,新福寺２丁目１３番地４,,08,207,3070053,,,,,,,2021-12-21,1,,,,,ウィーブ,0
968,4050001050317,新規,0,2021-12-21,2021-12-21,Ｅｎｏｃｈ株式会社,,株式会社,茨城県,那珂市,菅谷１５８３番地１６菅谷Ｋ住宅,,08,226,3110105,,,,,,,2021-12-21,1,,,,,エノク,0
969,4050001050325,新規,0,2021-12-21,2021-12-21,株式会社ＯＭＳ工管,,株式会社,茨城県,土浦市,神立町６４３番地２０千代田ハイツＡ２０３,,08,203,3000013,,,,,,,2021-12-21,1,,,,,オーエムエスコウカン,0
972,4050003006275,新規,0,2021-12-21,2021-12-21,ＮＥＷ　ＭＯＲＥ合同会社,,合同会社,茨城県,取手市,宮和田５３１番２グリーンコーポ藤代２号棟１１０６号,,08,217,3001514,,,,,,,2021-12-21,1,,,,,ニューモア,0
974,4060001034401,新規,0,2021-12-21,2021-12-21,ＩＢＮＥ　ＨＯＳＳＡＩＮ株式会社,,株式会社,栃木県,栃木市,岩舟町新里１３０３－２,,09,203,3294316,,,,,,,2021-12-21,1,,,,,イブネホセイン,0
978,4080001024648,新規,0,2021-12-21,2021-12-21,株式会社ぱぷりか,,株式会社,静岡県,静岡市葵区,七間町１２番地の４、１００７号,,22,101,4200035,,,,,,,2021-12-21,1,,,,,パプリカ,0
985,4110003004660,新規,0,2021-12-21,2021-12-21,合同会社シカマソフト,,合同会社,新潟県,新発田市,貝屋１４５－２,,15,206,9592472,,,,,,,2021-12-21,1,,,,,シカマソフト,0
995,4120001242633,新規,0,2021-12-21,2021-12-21,ジェットグループ株式会社,,株式会社,大阪府,大阪市淀川区,塚本２丁目１６番１３－１０１号,,27,123,5320026,,,,,,,2021-12-21,1,,,,,ジェットグループ,0
996,4120001242641,新規,0,2021-12-21,2021-12-21,株式会社ｍａｎａ,,株式会社,大阪府,大阪市城東区,今福西６丁目２番２－１２２６号,,27,118,5360004,,,,,,,2021-12-21,1,,,,,マナ,0
1000,4120003020806,新規,0,2021-12-21,2021-12-21,合同会社Ｗｉｎｄ　Ｈｏｕｎｄ,,合同会社,大阪府,大阪市平野区,長吉川辺３丁目６番６号,,27,126,5470014,,,,,,,2021-12-21,1,,,,,ウィンドハウンド,0
1002,4120101064820,新規,0,2021-12-21,2021-12-21,株式会社ＴＲＩＳＥ,,株式会社,大阪府,大阪狭山市,岩室１丁目３４４番地の１３,,27,231,5890032,,,,,,,2021-12-21,1,,,,,トライズ,0
1004,4120103004485,新規,0,2021-12-21,2021-12-21,合同会社リレイション,,合同会社,大阪府,高石市,千代田２丁目１２－３３,,27,225,5920005,,,,,,,2021-12-21,1,,,,,リレイション,0
1006,4120901045375,新規,0,2021-12-21,2021-12-21,株式会社アニマケア,,株式会社,大阪府,茨木市,若園町１６－８,,27,211,5670894,,,,,,,2021-12-21,1,,,,,アニマケア,0
1010,4130001070744,新規,0,2021-12-21,2021-12-21,株式会社ダイバース,,株式会社,京都府,京都市中京区,西ノ京島ノ内町２６番地の４,,26,104,6048443,,,,,,,2021-12-21,1,,,,,ダイバース,0
1017,4140001124227,新規,0,2021-12-21,2021-12-21,株式会社ａｅｇｉｓ,,株式会社,兵庫県,神戸市長田区,蓮宮通４丁目３３番地の１ＲＡＤＩＡＮＲＥＳＩＣＥ１０１号,,28,106,6530831,,,,,,,2021-12-21,1,,,,,イージス,0
1018,4140003017123,新規,0,2021-12-21,2021-12-21,合同会社Ｍ＆Ｋサービス,,合同会社,兵庫県,小野市,王子町２２番地の１ニーズハイツ王子４０４号,,28,218,6751378,,,,,,,2021-12-21,1,,,,,エムアンドケーサービス,0
1033,4180001149195,新規,0,2021-12-21,2021-12-21,株式会社ツジ鈑金リフォーム,,株式会社,愛知県,名古屋市瑞穂区,白砂町２丁目３６番地の１５,,23,108,4670056,,,,,,,2021-12-21,1,,,,,ツジバンキンリフォーム,0
1034,4180001149220,新規,0,2021-12-21,2021-12-21,株式会社みやび商店,,株式会社,愛知県,名古屋市守山区,向台２丁目５０７番地の１,,23,113,4630036,,,,,,,2021-12-21,1,,,,,ミヤビショウテン,0
1038,4180305009277,新規,0,2021-12-21,2021-12-21,医療法人コンフォール,,その他の設立登記法人,愛知県,岡崎市,上地３丁目４９番地３,,23,202,4440823,,,,,,,2021-12-21,1,,,,,コンフォール,0
1040,4190001028951,新規,0,2021-12-21,2021-12-21,株式会社ガレージハウス,,株式会社,三重県,松阪市,春日町１丁目１５２番地,,24,204,5150078,,,,,,,2021-12-21,1,,,,,ガレージハウス,0
1045,4200001039550,新規,0,2021-12-21,2021-12-21,ｎｅｗｒｅａｓｏｎ．株式会社,,株式会社,岐阜県,各務原市,蘇原東島町３丁目１４４番地１,,21,213,5040816,,,,,,,2021-12-21,1,,,,,ニューリーズンピリオド,0
1056,4240001059066,新規,0,2021-12-21,2021-12-21,林業舎雨と森株式会社,,株式会社,広島県,山県郡安芸太田町,大字土居８１４番地,,34,368,7313821,,,,,,,2021-12-21,1,,,,,リンギョウシャアメトモリ,0
1067,4290801028100,新規,0,2021-12-21,2021-12-21,株式会社Ｊ‐ＴＥＣ,,株式会社,福岡県,北九州市八幡西区,藤原１丁目２番２０－６０２号,,40,109,8070873,,,,,,,2021-12-21,1,,,,,ジェイテック,0
1069,4310001017644,新規,0,2021-12-21,2021-12-21,長崎プロテクス株式会社,,株式会社,長崎県,長崎市,三京町６４１番地１,,42,201,8512206,,,,,,,2021-12-21,1,,,,,ナガサキプロテクス,0
1072,4340001024340,新規,0,2021-12-21,2021-12-21,株式会社陸創建,,株式会社,鹿児島県,姶良市,脇元３３６番地１,,46,225,8995651,,,,,,,2021-12-21,1,,,,,リクソウケン,0
1080,4370001047958,新規,0,2021-12-21,2021-12-21,株式会社小泉林業,,株式会社,宮城県,気仙沼市,本吉町外尾７３番地３,,04,205,9880334,,,,,,,2021-12-21,1,,,,,コイズミリンギョウ,0
1081,4370003005518,新規,0,2021-12-21,2021-12-21,合同会社ディッパーズ,,合同会社,宮城県,刈田郡七ヶ宿町,字峠田２５,,04,302,9890621,,,,,,,2021-12-21,1,,,,,ディッパーズ,0
1098,4430003013472,新規,0,2021-12-21,2021-12-21,ｋｉｔａＲｉＢＢｏｎ合同会社,,合同会社,北海道,札幌市東区,北九条東１１丁目１番２０号,,01,103,0650009,,,,,,,2021-12-21,1,,,,,キタリボン,0
1102,4462501000924,新規,0,2021-12-21,2021-12-21,株式会社マルヒロＨ＆Ａ,,株式会社,北海道,野付郡別海町,尾岱沼潮見町６３番地,,01,691,0861644,,,,,,,2021-12-21,1,,,,,マルヒロツダエイチアンドエー,0
1105,4700150106324,新規,0,2021-12-21,2021-12-21,三菱商事健康保険組合,,その他,東京都,千代田区,丸の内２丁目３番１号,,13,101,1000005,,,,,,,2021-12-21,1,,,,,ミツビシショウジケンコウホケンクミアイ,0
1112,5010001223354,新規,0,2021-12-21,2021-12-21,ｘＦｕｓｉｏｎ技術日本株式会社,,株式会社,東京都,千代田区,大手町１丁目６番１号,,13,101,1000004,,,,,,,2021-12-21,1,,,,,エックスフュージョンギジュツニホン,0
1113,5010001223387,新規,0,2021-12-21,2021-12-21,株式会社Ａｏｕｎ,,株式会社,東京都,文京区,本駒込３丁目１番１－１１０１号,,13,105,1130021,,,,,,,2021-12-21,1,,,,,アウン,0
1120,5010401164561,新規,0,2021-12-21,2021-12-21,株式会社睡蓮,,株式会社,東京都,港区,六本木３丁目９番３号六本木ロイヤルビル地上３階３０１号室,,13,103,1060032,,,,,,,2021-12-21,1,,,,,スイレン,0
1133,5010603009317,新規,0,2021-12-21,2021-12-21,合同会社ＦＬＯＲＳ,,合同会社,東京都,江東区,森下１丁目６－２,,13,108,1350004,,,,,,,2021-12-21,1,,,,,フロールス,0
1137,5010701041956,新規,0,2021-12-21,2021-12-21,株式会社Ｔｉｎｙ　Ｔａｂｌｅ,,株式会社,東京都,品川区,豊町１丁目７番５号プラムアーク戸越１Ｆ,,13,109,1420042,,,,,,,2021-12-21,1,,,,,タイニーテーブル,0
1139,5010901050030,新規,0,2021-12-21,2021-12-21,株式会社ｏｏｏｏｏ,,株式会社,東京都,世田谷区,弦巻１丁目２０番１２号,,13,112,1540016,,,,,,,2021-12-21,1,,,,,オース,0
1141,5010903007029,新規,0,2021-12-21,2021-12-21,合同会社ララエイビス,,合同会社,東京都,世田谷区,砧１丁目２１－１８ウエリス世田谷砧５０３,,13,112,1570073,,,,,,,2021-12-21,1,,,,,ララエイビス,0
1148,5011001144648,新規,0,2021-12-21,2021-12-21,株式会社Ｔｒａｄｉｎｇ　Ｐｌｕｓ,,株式会社,東京都,渋谷区,神南１丁目１２－１４渋谷宮田ビル６Ｆ,,13,113,1500041,,,,,,,2021-12-21,1,,,,,トレーディングプラス,0
1149,5011001144680,新規,0,2021-12-21,2021-12-21,株式会社ＢＨＭ,,株式会社,東京都,目黒区,大岡山１丁目３番１８号Ｍフラット１０２,,13,110,1520033,,,,,,,2021-12-21,1,,,,,ビーエイチエム,0
1153,5011101097250,新規,0,2021-12-21,2021-12-21,株式会社佳晟,,株式会社,東京都,新宿区,西新宿３丁目７番１号,,13,104,1600023,,,,,,,2021-12-21,1,,,,,カセイ,0
1154,5011101097259,新規,0,2021-12-21,2021-12-21,株式会社ゲルニカ,,株式会社,東京都,新宿区,西新宿６丁目９番１号オークコート７０２号室,,13,104,1600023,,,,,,,2021-12-21,1,,,,,ゲルニカ,0
1155,5011101097267,新規,0,2021-12-21,2021-12-21,株式会社ペリペティア,,株式会社,東京都,新宿区,西新宿３丁目１番５号新宿嘉泉ビル８Ｆ,,13,104,1600023,,,,,,,2021-12-21,1,,,,,ペリペティア,0
1156,5011101097291,新規,0,2021-12-21,2021-12-21,株式会社Ｏｎｅ　Ｃｈａｎｃｅ,,株式会社,東京都,新宿区,百人町１丁目１８番９号,,13,104,1690073,,,,,,,2021-12-21,1,,,,,ワンチャンス,0
1157,5011103011300,新規,0,2021-12-21,2021-12-21,合同会社住友ＣＬＦ,,合同会社,東京都,新宿区,西新宿４丁目１３番２号,,13,104,1600023,,,,,,,2021-12-21,1,,,,,スミトモシーエルエフ,0
1158,5011103011309,新規,0,2021-12-21,2021-12-21,合同会社ＮｅｗＳｔｏｒｙ,,合同会社,東京都,新宿区,新宿７丁目１２番９号宮庭東新宿ビル８０２,,13,104,1600022,,,,,,,2021-12-21,1,,,,,ニューストーリー,0
1159,5011303004252,新規,0,2021-12-21,2021-12-21,合同会社ｊｉｒｉ－ｏｎ,,合同会社,東京都,杉並区,下高井戸２丁目２５番８号,,13,115,1680073,,,,,,,2021-12-21,1,,,,,ジリオン,0
1172,5012401038670,新規,0,2021-12-21,2021-12-21,株式会社願海,,株式会社,東京都,武蔵野市,吉祥寺本町２丁目１８番８号,,13,203,1800004,,,,,,,2021-12-21,1,,,,,ガンカイ,0
1185,5020001144401,新規,0,2021-12-21,2021-12-21,アイシーリンク株式会社,,株式会社,神奈川県,川崎市高津区,久本３丁目４番８－４１６号,,14,134,2130011,,,,,,,2021-12-21,1,,,,,アイシーリンク,0
1186,5020001144434,新規,0,2021-12-21,2021-12-21,株式会社パシモン,,株式会社,神奈川県,横浜市泉区,中田西１丁目７番５－３０６号,,14,116,2450015,,,,,,,2021-12-21,1,,,,,パシモン,0
1200,5021001074712,新規,0,2021-12-21,2021-12-21,株式会社ソリューション,,株式会社,神奈川県,茅ヶ崎市,共恵１丁目８番１２－３０４号ドミトリーハウス茅ヶ崎,,14,207,2530056,,,,,,,2021-12-21,1,,,,,ソリューション,0
1212,5030001145910,新規,0,2021-12-21,2021-12-21,株式会社インスピリッツＮＥＸＴ,,株式会社,埼玉県,さいたま市中央区,本町西２丁目２番１５号,,11,105,3380004,,,,,,,2021-12-21,1,,,,,インスピリッツネクスト,0
1213,5030001145927,新規,0,2021-12-21,2021-12-21,株式会社Ｋ＆Ｋ,,株式会社,埼玉県,狭山市,大字笹井３１５９番地の５,,11,215,3501327,,,,,,,2021-12-21,1,,,,,ケーアンドケー,0
1219,5030003018536,新規,0,2021-12-21,2021-12-21,合同会社オフィス羽角,,合同会社,埼玉県,新座市,野寺１丁目７番２号,,11,230,3520034,,,,,,,2021-12-21,1,,,,,オフィスウカク,0
1221,5030005020663,新規,0,2021-12-21,2021-12-21,一般社団法人日本エシカル塗装協会,,その他の設立登記法人,埼玉県,日高市,大字中鹿山２７１番地３,,11,242,3501232,,,,,,,2021-12-21,1,,,,,ニホンエシカルトソウキョウカイ,0
1225,5040001121398,新規,0,2021-12-21,2021-12-21,株式会社裕建設,,株式会社,千葉県,印旛郡栄町,安食２４８１番地２６,,12,329,2701516,,,,,,,2021-12-21,1,,,,,ユタカケンセツ,0
1226,5040001121456,新規,0,2021-12-21,2021-12-21,株式会社アンティークナレッジ,,株式会社,千葉県,千葉市中央区,白旗３丁目２７－３,,12,101,2600841,,,,,,,2021-12-21,1,,,,,アンティークナレッジ,0
1232,5050001050324,新規,0,2021-12-21,2021-12-21,株式会社ＩＺＡＰ,,株式会社,茨城県,下妻市,村岡乙１４０番地１,,08,210,3040824,,,,,,,2021-12-21,1,,,,,アイザップ,0
1235,5050003006274,新規,0,2021-12-21,2021-12-21,合同会社ＲａｓｐＬａｂ,,合同会社,茨城県,東茨城郡茨城町,大字近藤１９４番地２,,08,302,3113113,,,,,,,2021-12-21,1,,,,,ラズラボ,0
1238,5080001024647,新規,0,2021-12-21,2021-12-21,株式会社ナカムラ,,株式会社,静岡県,藤枝市,上藪田１１６番地の２７,,22,214,4260202,,,,,,,2021-12-21,1,,,,,ナカムラ,0
1239,5080101022988,新規,0,2021-12-21,2021-12-21,株式会社弘喜,,株式会社,静岡県,伊豆の国市,韮山金谷２４７番地の１,,22,225,4102142,,,,,,,2021-12-21,1,,,,,ヒロキ,0
1248,5090003002014,新規,0,2021-12-21,2021-12-21,合同会社杜設計,,合同会社,山梨県,甲府市,上町１０４６番地１,,19,201,4000831,,,,,,,2021-12-21,1,,,,,モリセッケイ,0
1267,5120001242640,新規,0,2021-12-21,2021-12-21,アプレンティー株式会社,,株式会社,大阪府,大阪市西区,阿波座２丁目２番２０号６０Ｇ,,27,106,5500011,,,,,,,2021-12-21,1,,,,,アプレンティー,0
1268,5120001242649,新規,0,2021-12-21,2021-12-21,ファーマシーとやま株式会社,,株式会社,大阪府,大阪市西区,阿波座２丁目２番１８号いちご西本町ビル７Ｆ,,27,106,5500011,,,,,,,2021-12-21,1,,,,,ファーマシートヤマ,0
1271,5120003020805,新規,0,2021-12-21,2021-12-21,合同会社ＢｌｕｅＧｒｅｅｎ,,合同会社,大阪府,大阪市西淀川区,佃２丁目１３番１９－５０３号,,27,113,5550001,,,,,,,2021-12-21,1,,,,,ブルーグリーン,0
1278,5120901045374,新規,0,2021-12-21,2021-12-21,株式会社Ｇｏｏｄ　ｎｅｘｔ,,株式会社,大阪府,茨木市,駅前３丁目１０－２３－３０１,,27,211,5670888,,,,,,,2021-12-21,1,,,,,グッドネクスト,0
1284,5130001070743,新規,0,2021-12-21,2021-12-21,株式会社ソノイチ,,株式会社,京都府,京都市東山区,今熊野南日吉町３６番地４０,,26,105,6050953,,,,,,,2021-12-21,1,,,,,ソノイチ,0
1288,5140001124201,新規,0,2021-12-21,2021-12-21,心和印刷株式会社,,株式会社,兵庫県,伊丹市,池尻４丁目１番地５,,28,207,6640027,,,,,,,2021-12-21,1,,,,,シンワインサツ,0
1289,5140001124234,新規,0,2021-12-21,2021-12-21,株式会社ｎｅｘｕｓ　ｆｉｔ,,株式会社,兵庫県,姫路市,別所町佐土２丁目８３番地,,28,201,6710224,,,,,,,2021-12-21,1,,,,,ネクサスフィット,0
1290,5140001124250,新規,0,2021-12-21,2021-12-21,株式会社ラパン,,株式会社,兵庫県,神戸市中央区,磯上通６丁目１－１,,28,110,6510086,,,,,,,2021-12-21,1,,,,,ラパン,0
1291,5140001124275,新規,0,2021-12-21,2021-12-21,アーツ株式会社,,株式会社,兵庫県,姫路市,夢前町玉田２７３－１２－１,,28,201,6712124,,,,,,,2021-12-21,1,,,,,アーツ,0
1292,5140003017106,新規,0,2021-12-21,2021-12-21,Ｙ・Ｍ商事合同会社,,合同会社,兵庫県,三田市,武庫が丘４丁目９番５号グリーンハイツ５号棟２０２号,,28,219,6691544,,,,,,,2021-12-21,1,,,,,ワイエムショウジ,0
1300,5180001149194,新規,0,2021-12-21,2021-12-21,アットファイナンス株式会社,,株式会社,愛知県,尾張旭市,旭台３丁目２１番地１０,,23,226,4880001,,,,,,,2021-12-21,1,,,,,アットファイナンス,0
1301,5180001149211,新規,0,2021-12-21,2021-12-21,株式会社バローフィナンシャルサービス,,株式会社,愛知県,名古屋市中村区,名駅南１丁目１６番２１号,,23,105,4500003,,,,,,,2021-12-21,1,,,,,バローフィナンシャルサービス,0
1323,5240003005414,新規,0,2021-12-21,2021-12-21,合同会社Ｌｕｃｉｒ,,合同会社,広島県,広島市中区,袋町１番１１－６０１号,,34,101,7300036,,,,,,,2021-12-21,1,,,,,ルシール,0
1327,5250001019308,新規,0,2021-12-21,2021-12-21,株式会社ＫＷアセット,,株式会社,山口県,周南市,城ケ丘４丁目２番１１号,,35,215,7450807,,,,,,,2021-12-21,1,,,,,ケイダブリューアセット,0
1332,5260005011012,新規,0,2021-12-21,2021-12-21,医療法人社団ゆずりは会,,その他の設立登記法人,岡山県,倉敷市,児島味野１丁目１３番３０号,,33,202,7110913,,,,,,,2021-12-21,1,,,,,ユズリハカイ,0
1335,5270001008416,新規,0,2021-12-21,2021-12-21,株式会社コモングラウンド,,株式会社,鳥取県,鳥取市,吉成南町１丁目２４番２号,,31,201,6800871,,,,,,,2021-12-21,1,,,,,コモングラウンド,0
1341,5290001095782,新規,0,2021-12-21,2021-12-21,株式会社チャレンジ,,株式会社,福岡県,福岡市中央区,大名１丁目２番２０号－５０９,,40,133,8100041,,,,,,,2021-12-21,1,,,,,チャレンジ,0
1342,5290005018483,新規,0,2021-12-21,2021-12-21,医療法人にしだ整形外科,,その他の設立登記法人,福岡県,福岡市南区,清水１丁目７番１４号,,40,134,8150031,,,,,,,2021-12-21,1,,,,,ニシダセイケイゲカ,0
1346,5300005007055,新規,0,2021-12-21,2021-12-21,一般社団法人さがＫＳワーカーズ連合リアン,,その他の設立登記法人,佐賀県,佐賀市,本庄町本庄５７５番地４,,41,201,8490000,,,,,,,2021-12-21,1,,,,,サガケイエスワーカーズレンゴウリアン,0
1347,5310001017635,新規,0,2021-12-21,2021-12-21,株式会社あるある不動産,,株式会社,長崎県,東彼杵郡波佐見町,折敷瀬郷１０７９番地３,,42,323,8593701,,,,,,,2021-12-21,1,,,,,アルアルフドウサン,0
1348,5310001017643,新規,0,2021-12-21,2021-12-21,株式会社ＨＡＫＵ,,株式会社,長崎県,佐世保市,上京町７番１０号２階,,42,202,8570872,,,,,,,2021-12-21,1,,,,,ハク,0
1356,5350001017482,新規,0,2021-12-21,2021-12-21,株式会社１０．ＣＡＲＥ　ＢＡＬＡＮＣＥ,,株式会社,宮崎県,宮崎市,広島１丁目３－１８－１０１,,45,201,8800806,,,,,,,2021-12-21,1,,,,,テンケアバランス,0
1359,5360001029782,新規,0,2021-12-21,2021-12-21,南洋設備工業株式会社,,株式会社,沖縄県,南城市,佐敷字新里６５６番地,,47,215,9011412,,,,,,,2021-12-21,1,,,,,ナンヨウセツビコウギョウ,0
1360,5360001029790,新規,0,2021-12-21,2021-12-21,株式会社総合サポート沖縄,,株式会社,沖縄県,浦添市,牧港２丁目４５番７号,,47,208,9012131,,,,,,,2021-12-21,1,,,,,ソウゴウサポートオキナワ,0
1361,5370001047965,新規,0,2021-12-21,2021-12-21,株式会社蔵本製作所,,株式会社,宮城県,白石市,福岡蔵本字滝下６８番地,,04,206,9890231,,,,,,,2021-12-21,1,,,,,クラモトセイサクショ,0
1362,5370001047973,新規,0,2021-12-21,2021-12-21,株式会社スクラム,,株式会社,宮城県,仙台市若林区,今泉２丁目３番３８号,,04,103,9840835,,,,,,,2021-12-21,1,,,,,スクラム,0
1373,5420005007778,新規,0,2021-12-21,2021-12-21,一般社団法人ＭＩＮＯＬＩＡ,,その他の設立登記法人,青森県,三沢市,淋代３丁目３９２番地,,02,207,0330113,,,,,,,2021-12-21,1,,,,,ミノリア,0
1377,5430001085620,新規,0,2021-12-21,2021-12-21,株式会社遺品整理士認定協会,,株式会社,北海道,千歳市,春日町１丁目２番１２ポレスター春日公園９０２号室,,01,224,0660065,,,,,,,2021-12-21,1,,,,,イヒンセイリシニンテイキョウカイ,0
1378,5430001085629,新規,0,2021-12-21,2021-12-21,株式会社ＯＯＤＡ,,株式会社,北海道,札幌市白石区,本通４丁目北６番１号－３Ａ,,01,104,0030027,,,,,,,2021-12-21,1,,,,,ウーダ,0
1379,5430001085637,新規,0,2021-12-21,2021-12-21,株式会社ＣＬＯＣＫ,,株式会社,北海道,札幌市中央区,南十ニ条西六丁目１－２０,,01,101,0600000,,,,,,,2021-12-21,1,,,,,クロック,0
1394,5700150106323,新規,0,2021-12-21,2021-12-21,ＥＢＤＡ　ＣＯＮＳＵＬＴＩＮＧ　ＦＺ－ＬＬＣ,,外国会社等,東京都,港区,虎ノ門３丁目８番２６号巴町アネックス４Ｆ,,13,103,1050001,アラブ首長国連邦ラス・アル・ハイマ・ＲＡＫＥＺビジネスゾーン－ＦＺアカデミックゾーン０１－ビジネスセンター５，　Ｂ５－１０８－Ｂ,,,,,,2021-12-21,1,,,,,エビダコンサルティング,0
1403,6010101014990,新規,0,2021-12-21,2021-12-21,プリュスサポート株式会社,,株式会社,東京都,八王子市,横山町３番６号４Ｆ,,13,201,1920081,,,,,,,2021-12-21,1,,,,,プリュスサポート,0
1409,6010401164544,新規,0,2021-12-21,2021-12-21,株式会社ＧＮＤｅｖｅｌｏｐｍｅｎｔ,,株式会社,東京都,港区,赤坂２丁目１６番８号６Ｆ,,13,103,1070052,,,,,,,2021-12-21,1,,,,,ジーエヌデヴェロップメント,0
1410,6010401164585,新規,0,2021-12-21,2021-12-21,株式会社ユースフル,,株式会社,東京都,港区,浜松町２丁目１２番１４号竹内ビル１階,,13,103,1050013,,,,,,,2021-12-21,1,,,,,ユースフル,0
1411,6010401164593,新規,0,2021-12-21,2021-12-21,株式会社ＮＡＧＯＭＩ,,株式会社,東京都,港区,浜松町２丁目２番１５号浜松町ダイヤビル２Ｆ,,13,103,1050013,,,,,,,2021-12-21,1,,,,,ナゴミ,0
1419,6010403026610,新規,0,2021-12-21,2021-12-21,合同会社ＭＩＯ,,合同会社,東京都,港区,海岸３丁目１６－１,,13,103,1080022,,,,,,,2021-12-21,1,,,,,エムアイオー,0
1420,6010403026726,新規,0,2021-12-21,2021-12-21,ＰｒｏＦｉｔ　Ａｓｓｅｔ合同会社,,合同会社,東京都,港区,南青山２丁目２番１５号ウィン青山１３０２,,13,103,1070062,,,,,,,2021-12-21,1,,,,,,0
1421,6010403026750,新規,0,2021-12-21,2021-12-21,合同会社アドバンス,,合同会社,東京都,港区,台場１丁目５番４号,,13,103,1350091,,,,,,,2021-12-21,1,,,,,アドバンス,0
1423,6010501048234,新規,0,2021-12-21,2021-12-21,株式会社リブラ,,株式会社,東京都,台東区,根岸２丁目１８番２－５１１号,,13,106,1100003,,,,,,,2021-12-21,1,,,,,リブラ,0
1434,6010901050038,新規,0,2021-12-21,2021-12-21,株式会社ＯＯＯ,,株式会社,東京都,世田谷区,赤堤１丁目３５－４,,13,112,1560044,,,,,,,2021-12-21,1,,,,,オーオーオー,0
1438,6011001144688,新規,0,2021-12-21,2021-12-21,株式会社かしわ,,株式会社,東京都,渋谷区,千駄ヶ谷５丁目１９番１号アベリア千駄ヶ谷１Ｆ,,13,113,1510051,,,,,,,2021-12-21,1,,,,,カシワ,0
1439,6011001144705,新規,0,2021-12-21,2021-12-21,株式会社ＹＭＳ,,株式会社,東京都,目黒区,下目黒５丁目１８番１４号ＤＩＣＥ－１,,13,110,1530064,,,,,,,2021-12-21,1,,,,,ワイエムエス,0
1440,6011101097266,新規,0,2021-12-21,2021-12-21,Ｎｉｃｅ　Ｍｅｔａｖｅｒｓｅ株式会社,,株式会社,東京都,新宿区,西早稲田１丁目２１番２－７０４号,,13,104,1690051,,,,,,,2021-12-21,1,,,,,ナイスメタバース,0
1441,6011103011282,新規,0,2021-12-21,2021-12-21,ＡＮＵＲＡＤＨＡ合同会社,,合同会社,東京都,新宿区,百人町２丁目２１番２号ノエル大久保百人町２０３,,13,104,1690073,,,,,,,2021-12-21,1,,,,,アヌラドハ,0
1449,6011403003525,新規,0,2021-12-21,2021-12-21,ＦＤＮＣ合同会社,,合同会社,東京都,板橋区,舟渡２丁目３１番１－５０７号,,13,119,1740041,,,,,,,2021-12-21,1,,,,,エフデーエヌシー,0
1455,6011601025619,新規,0,2021-12-21,2021-12-21,株式会社デゥミ,,株式会社,東京都,練馬区,練馬１丁目２０－８日建練馬ビル２Ｆ,,13,120,1760001,,,,,,,2021-12-21,1,,,,,デゥミ,0
1457,6011701024917,新規,0,2021-12-21,2021-12-21,株式会社Ｐ＆Ｐコンサルティング,,株式会社,東京都,江戸川区,船堀７丁目５番６号,,13,123,1340091,,,,,,,2021-12-21,1,,,,,ピーアンドピーコンサルティング,0
1458,6011705001706,新規,0,2021-12-21,2021-12-21,特定非営利活動法人和装和文化振興会,,その他の設立登記法人,東京都,江戸川区,西葛西３丁目１３番５－１０３号ファーストマンション,,13,123,1340088,,,,,,,2021-12-21,1,,,,,ワソウワブンカシンコウカイ,0
1461,6011803004899,新規,0,2021-12-21,2021-12-21,合同会社ＴＯＯＬＢＯＸ,,合同会社,東京都,足立区,舎人５丁目１３番３号１０１,,13,121,1210831,,,,,,,2021-12-21,1,,,,,ツールボックス,0
1466,6012703002373,新規,0,2021-12-21,2021-12-21,合同会社ひのでや,,合同会社,東京都,西東京市,西原町１丁目６番１７－２０１号,,13,229,1880004,,,,,,,2021-12-21,1,,,,,ヒノデヤ,0
1473,6020001144425,新規,0,2021-12-21,2021-12-21,Ｃｈｉｎａ　Ｄｅｃｋ　Ｙｏｋｏｈａｍａ株式会社,,株式会社,神奈川県,横浜市中区,山下町２１６番地５清和ビル５０３,,14,104,2310023,,,,,,,2021-12-21,1,,,,,チャイナデックヨコハマ,0
1483,6020005015317,新規,0,2021-12-21,2021-12-21,医療法人社団柚花会,,その他の設立登記法人,神奈川県,横浜市緑区,長津田６丁目１番６号東急ドエル・ファナス長津田１０１号室,,14,113,2260027,,,,,,,2021-12-21,1,,,,,ユズハナカイ,0
1489,6021003011191,新規,0,2021-12-21,2021-12-21,合同会社エフアニマート,,合同会社,神奈川県,大和市,下鶴間４２７番地１チェリーブロッサムつきみ野２－２０４,,14,213,2420001,,,,,,,2021-12-21,1,,,,,エフアニマート,0
1498,6030001145934,新規,0,2021-12-21,2021-12-21,興明株式会社,,株式会社,埼玉県,川口市,大字安行小山４１８番地,,11,203,3340055,,,,,,,2021-12-21,1,,,,,コウメイ,0
1499,6030001145950,新規,0,2021-12-21,2021-12-21,株式会社ディーソルＭＤＨオペレーションズ,,株式会社,埼玉県,所沢市,大字南永井６６７番地１,,11,208,3590011,,,,,,,2021-12-21,1,,,,,ディーソルエムディエイチオペレーションズ,0
1500,6030001145975,新規,0,2021-12-21,2021-12-21,株式会社リドミィ,,株式会社,埼玉県,川口市,芝高木１丁目１４番２３号,,11,203,3330868,,,,,,,2021-12-21,1,,,,,リドミィ,0
1502,6030003018527,新規,0,2021-12-21,2021-12-21,ブルーグリーン合同会社,,合同会社,埼玉県,飯能市,八幡町２１番２４－１号,,11,209,3570033,,,,,,,2021-12-21,1,,,,,ブルーグリーン,0
1519,6050005012988,新規,0,2021-12-21,2021-12-21,一般社団法人ラフェット・デラーブル,,その他の設立登記法人,茨城県,那珂郡東海村,舟石川駅西１丁目１５番１５号,,08,341,3191116,,,,,,,2021-12-21,1,,,,,ラフェットデラーブル,0
1526,6060003003906,新規,0,2021-12-21,2021-12-21,合同会社ＴＫ,,合同会社,栃木県,佐野市,堀米町２６２６－１サウスベルク１０１,,09,204,3270843,,,,,,,2021-12-21,1,,,,,ティーケー,0
1532,6080001024646,新規,0,2021-12-21,2021-12-21,株式会社Ｍａｌｅ,,株式会社,静岡県,静岡市葵区,瀬名１丁目１３番２０－３号,,22,101,4200911,,,,,,,2021-12-21,1,,,,,メイル,0
1556,6120001242615,新規,0,2021-12-21,2021-12-21,三宝ケミカル株式会社,,株式会社,大阪府,守口市,菊水通４丁目１１番１１号,,27,209,5700032,,,,,,,2021-12-21,1,,,,,サンポウケミカル,0
1558,6120003020787,新規,0,2021-12-21,2021-12-21,合同会社ＬＯＣＡＬ,,合同会社,大阪府,大阪市浪速区,日本橋５丁目７－１７,,27,111,5560005,,,,,,,2021-12-21,1,,,,,ローカル,0
1559,6120005022658,新規,0,2021-12-21,2021-12-21,一般社団法人淀川ヘルスケアネット,,その他の設立登記法人,大阪府,大阪市西淀川区,福町３丁目２番３９号社会医療法人愛仁会千船病院内,,27,113,5550034,,,,,,,2021-12-21,1,,,,,ヨドガワヘルスケアネット,0
1560,6120005022666,新規,0,2021-12-21,2021-12-21,一般社団法人Ｙ’ｓ,,その他の設立登記法人,大阪府,大阪市北区,西天満４丁目１０番３号,,27,127,5300047,,,,,,,2021-12-21,1,,,,,ワイズ,0
1563,6120101064819,新規,0,2021-12-21,2021-12-21,株式会社あわや水道設備,,株式会社,大阪府,泉南市,岡田２丁目２６１番地,,27,228,5900531,,,,,,,2021-12-21,1,,,,,アワヤスイドウセツビ,0
1567,6120901045373,新規,0,2021-12-21,2021-12-21,丸新フーズ株式会社,,株式会社,大阪府,吹田市,穂波町１０番２８－２０３号,,27,205,5640042,,,,,,,2021-12-21,1,,,,,マルシンフーズ,0
1568,6122001035445,新規,0,2021-12-21,2021-12-21,藤田鉄工株式会社,,株式会社,大阪府,八尾市,南木の本９丁目８０番地の１,,27,212,5810042,,,,,,,2021-12-21,1,,,,,フジタテッコウ,0
1569,6130001070750,新規,0,2021-12-21,2021-12-21,株式会社ｃｌｉｐ,,株式会社,京都府,京都市北区,衣笠総門町１１番地シュシュパルク鹿苑４０２号室,,26,101,6038363,,,,,,,2021-12-21,1,,,,,,0
1570,6130001070759,新規,0,2021-12-21,2021-12-21,株式会社京都デニッシュパン工房,,株式会社,京都府,京都市伏見区,向島庚申町２１－１０,,26,109,6128122,,,,,,,2021-12-21,1,,,,,キョウトデニッシュパンコウボウ,0
1571,6130003007643,新規,0,2021-12-21,2021-12-21,合同会社ライド・ハイ,,合同会社,京都府,京都市伏見区,竹田中川原町３５８,,26,109,6128412,,,,,,,2021-12-21,1,,,,,ライドハイ,0
1580,6140001124233,新規,0,2021-12-21,2021-12-21,株式会社ｃｏｃｏｒｏ,,株式会社,兵庫県,姫路市,香寺町中仁野３２８番地３,,28,201,6792143,,,,,,,2021-12-21,1,,,,,ココロ,0
1582,6140003017105,新規,0,2021-12-21,2021-12-21,ＣＥＬＥ　ＢＡＬＬＥＴＡ合同会社,,合同会社,兵庫県,芦屋市,茶屋之町２番２３号２Ｆ,,28,206,6590067,,,,,,,2021-12-21,1,,,,,セレバレッタ,0
1585,6150001025182,新規,0,2021-12-21,2021-12-21,株式会社心栄生コン,,株式会社,奈良県,奈良市,本子守町１番地の１メゾンドヴァンイノウエ３０１号室,,29,201,6308231,,,,,,,2021-12-21,1,,,,,シンエイナマコン,0
1587,6180001149185,新規,0,2021-12-21,2021-12-21,司電設株式会社,,株式会社,愛知県,春日井市,不二ガ丘３丁目４７番地１,,23,206,4870023,,,,,,,2021-12-21,1,,,,,ツカサデンセツ,0
1588,6180001149193,新規,0,2021-12-21,2021-12-21,株式会社やすい商店,,株式会社,愛知県,名古屋市南区,星宮町３３番地,,23,112,4570055,,,,,,,2021-12-21,1,,,,,ヤスイショウテン,0
1589,6180001149202,新規,0,2021-12-21,2021-12-21,株式会社三八屋本店,,株式会社,愛知県,丹羽郡大口町,新宮２丁目２３番地,,23,361,4800127,,,,,,,2021-12-21,1,,,,,サンパチヤホンテン,0
1590,6180001149210,新規,0,2021-12-21,2021-12-21,株式会社ＭＱ,,株式会社,愛知県,名古屋市中区,新栄１丁目３５番４号,,23,106,4600007,,,,,,,2021-12-21,1,,,,,エムキュー,0
1591,6180001149219,新規,0,2021-12-21,2021-12-21,株式会社ＲＡＴＴＡＮ,,株式会社,愛知県,名古屋市中川区,万場５丁目４３８番地,,23,110,4540997,,,,,,,2021-12-21,1,,,,,ラタン,0
1594,6180005019566,新規,0,2021-12-21,2021-12-21,一般社団法人Ｒｏｍａｎ,,その他の設立登記法人,愛知県,春日井市,神屋町１１７７番地２,,23,206,4800304,,,,,,,2021-12-21,1,,,,,ローマン,0
1616,6250003002962,新規,0,2021-12-21,2021-12-21,合同会社すがお,,合同会社,山口県,下関市,山の田本町１８－１０久寿ビル１０３号室,,35,201,7510838,,,,,,,2021-12-21,1,,,,,スガオ,0
1618,6260003003745,新規,0,2021-12-21,2021-12-21,合同会社６２２,,合同会社,岡山県,岡山市北区,磨屋町６番４号グリーンビル５Ｆ北,,33,101,7000826,,,,,,,2021-12-21,1,,,,,ロクニニ,0
1624,6290001095765,新規,0,2021-12-21,2021-12-21,株式会社マザーセツコ,,株式会社,福岡県,糟屋郡宇美町,若草２丁目１３番５号,,40,341,8112124,,,,,,,2021-12-21,1,,,,,マザーセツコ,0
1636,6340003003654,新規,0,2021-12-21,2021-12-21,合同会社ちいき文化ネットワーク,,合同会社,鹿児島県,出水郡長島町,指江１３６１番地７,,46,404,8991303,,,,,,,2021-12-21,1,,,,,チイキブンカネットワーク,0
1637,6350001017481,新規,0,2021-12-21,2021-12-21,株式会社航成水産,,株式会社,宮崎県,日南市,吾田東１０丁目７番２６号,,45,204,8892541,,,,,,,2021-12-21,1,,,,,コウセイスイサン,0
1642,6360003011663,新規,0,2021-12-21,2021-12-21,合同会社Ｏｆｆ－ＪＴおきなわ,,合同会社,沖縄県,豊見城市,字真玉橋２４５番地６Ｆステージとよみ１０２号,,47,212,9010201,,,,,,,2021-12-21,1,,,,,オフジェイティオキナワ,0
1659,6430001085611,新規,0,2021-12-21,2021-12-21,株式会社共栄エンジニア,,株式会社,北海道,札幌市東区,東苗穂十三条３丁目１２番８号,,01,103,0070813,,,,,,,2021-12-21,1,,,,,キョウエイエンジニア,0
1660,6430001085636,新規,0,2021-12-21,2021-12-21,株式会社ラック,,株式会社,北海道,札幌市豊平区,月寒東三条７丁目８番２０－４０５号,,01,105,0620053,,,,,,,2021-12-21,1,,,,,ラック,0
1661,6430003013454,新規,0,2021-12-21,2021-12-21,合同会社エヌペディア,,合同会社,北海道,美唄市,東三条南５丁目３番４２号,,01,215,0720014,,,,,,,2021-12-21,1,,,,,エヌペディア,0
1662,6430003013470,新規,0,2021-12-21,2021-12-21,合同会社カナン,,合同会社,北海道,札幌市北区,新琴似九条１２丁目１０番１号,,01,102,0010909,,,,,,,2021-12-21,1,,,,,カナン,0
1666,6490003001610,新規,0,2021-12-21,2021-12-21,モナ合同会社,,合同会社,高知県,安芸市,川北甲４５２４番地１,,39,203,7840043,,,,,,,2021-12-21,1,,,,,モナ,0
1672,7010001223369,新規,0,2021-12-21,2021-12-21,株式会社クロスサークル,,株式会社,東京都,中央区,日本橋箱崎町３４番４号４階,,13,102,1030015,,,,,,,2021-12-21,1,,,,,クロスサークル,0
1676,7010003036595,新規,0,2021-12-21,2021-12-21,インベナジー・プロパティ・マネジメント合同会社,,合同会社,東京都,千代田区,麹町３丁目２番地９,,13,101,1020083,,,,,,,2021-12-21,1,,,,,インベナジープロパティマネジメント,0
1679,7010403026741,新規,0,2021-12-21,2021-12-21,合同会社マーケティングアライアンスコミュニティ,,合同会社,東京都,港区,六本木５丁目１０番３１号シーマックスビル,,13,103,1060032,,,,,,,2021-12-21,1,,,,,マーケティングアライアンスコミュニティ,0
1680,7010403026766,新規,0,2021-12-21,2021-12-21,合同会社ＲＮ－Ｃ,,合同会社,東京都,港区,南青山２丁目２番１５号ウィン青山１３０２,,13,103,1070062,,,,,,,2021-12-21,1,,,,,アールエヌシー,0
1687,7010601060419,新規,0,2021-12-21,2021-12-21,株式会社ダッシュワン,,株式会社,東京都,墨田区,両国４丁目３８番１号ＴＳビル４階,,13,107,1300026,,,,,,,2021-12-21,1,,,,,ダッシュワン,0
1690,7010703006030,新規,0,2021-12-21,2021-12-21,合同会社たのもす,,合同会社,東京都,品川区,中延１丁目５－５－４０５,,13,109,1420053,,,,,,,2021-12-21,1,,,,,タノモス,0
1695,7010901050029,新規,0,2021-12-21,2021-12-21,株式会社石島写真事務所,,株式会社,東京都,世田谷区,世田谷１丁目１５番１５－５０７号,,13,112,1540017,,,,,,,2021-12-21,1,,,,,イシジマシャシンジムショ,0
1697,7010903007027,新規,0,2021-12-21,2021-12-21,ジャストチーズ合同会社,,合同会社,東京都,世田谷区,瀬田４丁目７－１１ガーデンハウス９０５,,13,112,1580095,,,,,,,2021-12-21,1,,,,,ジャストチーズ,0
1702,7011001144679,新規,0,2021-12-21,2021-12-21,株式会社メグレナジー,,株式会社,東京都,渋谷区,千駄ヶ谷５丁目８番１０号,,13,113,1510051,,,,,,,2021-12-21,1,,,,,メグレナジー,0
1703,7011001144695,新規,0,2021-12-21,2021-12-21,株式会社ｅＫｏｒｔｓ,,株式会社,東京都,渋谷区,円山町５－５Ｎａｖｉ渋谷Ｖ３階,,13,113,1500044,,,,,,,2021-12-21,1,,,,,イーコーツ,0
1708,7011101097249,新規,0,2021-12-21,2021-12-21,株式会社イマイク,,株式会社,東京都,新宿区,新宿６丁目２５－１４,,13,104,1600022,,,,,,,2021-12-21,1,,,,,イマイク,0
1709,7011101097281,新規,0,2021-12-21,2021-12-21,ＭＯＮＯＴＯ株式会社,,株式会社,東京都,新宿区,西新宿３丁目３番１３号西新宿水間ビル６階,,13,104,1600023,,,,,,,2021-12-21,1,,,,,モノト,0
1711,7011203003716,新規,0,2021-12-21,2021-12-21,合同会社大和矢商店,,合同会社,東京都,中野区,中央１丁目４０番３号,,13,114,1640011,,,,,,,2021-12-21,1,,,,,ヤマトヤショウテン,0
1713,7011303004250,新規,0,2021-12-21,2021-12-21,合同会社Ｄｏｔ．Ｓ,,合同会社,東京都,杉並区,阿佐谷南３丁目２番９号プロステージ阿佐ヶ谷２０５－Ａ,,13,115,1660004,,,,,,,2021-12-21,1,,,,,ドットエス,0
1733,7012301012815,新規,0,2021-12-21,2021-12-21,志田電気株式会社,,株式会社,東京都,町田市,成瀬５丁目２１番６号,,13,209,1940044,,,,,,,2021-12-21,1,,,,,シダデンキ,0
1749,7020001144399,新規,0,2021-12-21,2021-12-21,株式会社ＴＭＫ,,株式会社,神奈川県,川崎市川崎区,港町５番２－６１４号,,14,131,2100807,,,,,,,2021-12-21,1,,,,,ティーエムケー,0
1750,7020001144432,新規,0,2021-12-21,2021-12-21,ひづるストラテジック・パートナーズ株式会社,,株式会社,神奈川県,横浜市青葉区,新石川１丁目２２番地９－１０６号,,14,117,2250003,,,,,,,2021-12-21,1,,,,,ヒヅルストラテジックパートナーズ,0
1758,7021003011208,新規,0,2021-12-21,2021-12-21,合同会社ｈａｎａｋａ,,合同会社,神奈川県,藤沢市,円行２丁目２６－１４プレミスト湘南台１０２,,14,205,2520805,,,,,,,2021-12-21,1,,,,,ハナカ,0
1770,7030001145909,新規,0,2021-12-21,2021-12-21,株式会社齋藤設備工業,,株式会社,埼玉県,川口市,江戸袋１丁目５番２２号,,11,203,3340075,,,,,,,2021-12-21,1,,,,,サイトウセツビコウギョウ,0
1771,7030001145925,新規,0,2021-12-21,2021-12-21,株式会社Ａ＆Ｋ　Ｔｅｃｈｎｏｌｏｇｙ,,株式会社,埼玉県,久喜市,西大輪１丁目１５番地１９,,11,232,3400206,,,,,,,2021-12-21,1,,,,,エーアンドケイテクノロジー,0
1772,7030001145974,新規,0,2021-12-21,2021-12-21,株式会社ＫＥーＴＡ,,株式会社,埼玉県,加須市,北大桑３８番地２,,11,210,3491147,,,,,,,2021-12-21,1,,,,,ケータ,0
1779,7030003018526,新規,0,2021-12-21,2021-12-21,ＭＡＬＥＫ　ＥＮＴＥＲＰＲＩＳＥ合同会社,,合同会社,埼玉県,八潮市,中央１丁目２９番地８ヤマオカビル２０１,,11,234,3400816,,,,,,,2021-12-21,1,,,,,マリックエンタープライズ,0
1795,7050001050322,新規,0,2021-12-21,2021-12-21,株式会社ＢｅＢｅ,,株式会社,茨城県,行方市,南５６８番地２,,08,233,3113836,,,,,,,2021-12-21,1,,,,,ベベ,0
1796,7050001050330,新規,0,2021-12-21,2021-12-21,株式会社ＯＨ,,株式会社,茨城県,つくば市,島名４３７０番地（諏訪Ｃ２２街区７画地）,,08,220,3002655,,,,,,,2021-12-21,1,,,,,オーエイチ,0
1801,7060001034398,新規,0,2021-12-21,2021-12-21,リフォームの森株式会社,,株式会社,栃木県,塩谷郡塩谷町,大字大宮２５３９番地４,,09,384,3292332,,,,,,,2021-12-21,1,,,,,リフォームノモリ,0
1803,7060003003905,新規,0,2021-12-21,2021-12-21,合同会社ｂｕｙｓ,,合同会社,栃木県,日光市,小代字東原１４８５－２２,,09,206,3211107,,,,,,,2021-12-21,1,,,,,バイス,0
1809,7070001038753,新規,0,2021-12-21,2021-12-21,株式会社平形電気設備,,株式会社,群馬県,高崎市,棟高町９９８番地４,,10,202,3703521,,,,,,,2021-12-21,1,,,,,ヒラカタデンキセツビ,0
1819,7110001036281,新規,0,2021-12-21,2021-12-21,株式会社菱越工業,,株式会社,新潟県,長岡市,宮内６丁目１２番２２号,,15,202,9401106,,,,,,,2021-12-21,1,,,,,リョウエツコウギョウ,0
1829,7120001242507,新規,0,2021-12-21,2021-12-21,泓哲株式会社,,株式会社,大阪府,大阪市中央区,徳井町２丁目４－５－４０６,,27,128,5400025,,,,,,,2021-12-21,1,,,,,オウテツ,0
1830,7120001242515,新規,0,2021-12-21,2021-12-21,株式会社アーク,,株式会社,大阪府,大阪市中央区,宗右衛門町２番３号美松ビル２階２Ｋ号室,,27,128,5420084,,,,,,,2021-12-21,1,,,,,アーク,0
1831,7120001242614,新規,0,2021-12-21,2021-12-21,株式会社ＲｏｙＧ　Ｂｉｖ,,株式会社,大阪府,大阪市平野区,瓜破東４丁目２番６０号フローライトｖｅｇａ１０２号,,27,126,5470022,,,,,,,2021-12-21,1,,,,,ロイジービヴ,0
1832,7120001242630,新規,0,2021-12-21,2021-12-21,株式会社アップセット,,株式会社,大阪府,大阪市北区,中崎３丁目４番２２－１００５号,,27,127,5300016,,,,,,,2021-12-21,1,,,,,アップセット,0
1833,7120001242647,新規,0,2021-12-21,2021-12-21,株式会社ＮＡＮＩＫＯＲＥ　ＣＯＭＰＡＮＹ,,株式会社,大阪府,大阪市中央区,東心斎橋２丁目８番１６号松田ビル２階,,27,128,5420083,,,,,,,2021-12-21,1,,,,,ナニコレカンパニー,0
1837,7120005022665,新規,0,2021-12-21,2021-12-21,一般社団法人アイビスライフ,,その他の設立登記法人,大阪府,大阪市東住吉区,北田辺４丁目２２番５号,,27,121,5460044,,,,,,,2021-12-21,1,,,,,アイビスライフ,0
1843,7120101064818,新規,0,2021-12-21,2021-12-21,株式会社世堺,,株式会社,大阪府,和泉市,箕形町１丁目４番６０－２０３号,,27,219,5940042,,,,,,,2021-12-21,1,,,,,サカイ,0
1846,7120901045364,新規,0,2021-12-21,2021-12-21,株式会社フットブーツ,,株式会社,大阪府,豊中市,新千里北町１丁目７番５号,,27,203,5600081,,,,,,,2021-12-21,1,,,,,フットブーツ,0
1847,7120903003948,新規,0,2021-12-21,2021-12-21,合同会社Ｍｅｉｋｏｈ　Ａｃｒｏｓｓ,,合同会社,大阪府,茨木市,真砂１丁目２８番１７号,,27,211,5670851,,,,,,,2021-12-21,1,,,,,メイコーアクロス,0
1852,7130003007626,新規,0,2021-12-21,2021-12-21,合同会社ＴＫＹ,,合同会社,京都府,京都市上京区,御車道通清和院口上る梶井町４４８番地６６,,26,102,6020841,,,,,,,2021-12-21,1,,,,,ティーケーワイ,0
1853,7130003007642,新規,0,2021-12-21,2021-12-21,京都和三郎合同会社,,合同会社,京都府,京都市西京区,樫原山路１５番地１２,,26,111,6158123,,,,,,,2021-12-21,1,,,,,キョウトワサブロウ,0
1856,7140001124232,新規,0,2021-12-21,2021-12-21,株式会社Ａｌｂｉｒｅｏ,,株式会社,兵庫県,宍粟市,一宮町深河谷２９４番地,,28,227,6714124,,,,,,,2021-12-21,1,,,,,アルビレオ,0
1857,7140001124257,新規,0,2021-12-21,2021-12-21,株式会社Ｍｕｕ,,株式会社,兵庫県,西宮市,湯元町２番１６号,,28,204,6620005,,,,,,,2021-12-21,1,,,,,ムー,0
1858,7140001124273,新規,0,2021-12-21,2021-12-21,株式会社中西左官,,株式会社,兵庫県,尼崎市,上ノ島町３丁目２６－１９－３,,28,202,6610014,,,,,,,2021-12-21,1,,,,,ナカニシサカン,0
1871,7180001149168,新規,0,2021-12-21,2021-12-21,株式会社ＫＡＷＡＭＯＴＯホールディングス,,株式会社,愛知県,名古屋市中区,大須４丁目１１番３９号,,23,106,4600011,,,,,,,2021-12-21,1,,,,,カワモトホールディングス,0
1872,7180001149176,新規,0,2021-12-21,2021-12-21,株式会社ＭＹＫ,,株式会社,愛知県,一宮市,両郷町１丁目１５番地１モアグレース両郷２０１号,,23,203,4910022,,,,,,,2021-12-21,1,,,,,エムワイケー,0
1873,7180001149184,新規,0,2021-12-21,2021-12-21,株式会社Ｃ－ＷＯＲＫＳ,,株式会社,愛知県,名古屋市中川区,南脇町１丁目６８番地,,23,110,4540817,,,,,,,2021-12-21,1,,,,,シーワークス,0
1874,7180001149192,新規,0,2021-12-21,2021-12-21,株式会社正興工業,,株式会社,愛知県,名古屋市西区,浮野町９７番地の９３（平田荘１２棟６０１号）,,23,104,4520846,,,,,,,2021-12-21,1,,,,,セイコウコウギョウ,0
1877,7180003023313,新規,0,2021-12-21,2021-12-21,合同会社ひかり,,合同会社,愛知県,一宮市,八幡２丁目１１－２０－２０３,,23,203,4910903,,,,,,,2021-12-21,1,,,,,ヒカリ,0
1881,7190003003850,新規,0,2021-12-21,2021-12-21,合同会社ＭＨ,,合同会社,三重県,桑名市,高塚町３丁目２３番地ルミフォートＩＩＢ棟,00125190,24,205,5110818,,,,,,,2021-12-21,1,,,,,エムエイチ,0
1890,7230001019142,新規,0,2021-12-21,2021-12-21,ハッピーチャーター株式会社,,株式会社,富山県,富山市,八尾町杉田９２０番地１,,16,201,9392302,,,,,,,2021-12-21,1,,,,,ハッピーチャーター,0
1907,7290001095764,新規,0,2021-12-21,2021-12-21,株式会社ＬｅｖａｎＴｅ,,株式会社,福岡県,福岡市中央区,天神５丁目９番２号,,40,133,8100001,,,,,,,2021-12-21,1,,,,,レバンテ,0
1928,7380001032411,新規,0,2021-12-21,2021-12-21,株式会社トウショー,,株式会社,福島県,いわき市,四倉町玉山字門馬前４４番地の１,,07,204,9790216,,,,,,,2021-12-21,1,,,,,トウショー,0
1933,7430001085619,新規,0,2021-12-21,2021-12-21,ＭｅｒｒｙＲｅｉｚ株式会社,,株式会社,北海道,札幌市中央区,南二条西４丁目１１ダイビルＰＩＶＯＴ南館２Ｆ,,01,101,0600062,,,,,,,2021-12-21,1,,,,,メリーライツ,0
1934,7430001085627,新規,0,2021-12-21,2021-12-21,株式会社笠原組,,株式会社,北海道,苫小牧市,ときわ町４丁目９番１７号,,01,213,0591261,,,,,,,2021-12-21,1,,,,,カサハラグミ,0
1935,7430001085635,新規,0,2021-12-21,2021-12-21,スギヤマクリーンサービス株式会社,,株式会社,北海道,札幌市清田区,北野四条４丁目９番８号,,01,110,0040864,,,,,,,2021-12-21,1,,,,,スギヤマクリーンサービス,0
1937,7450001013560,新規,0,2021-12-21,2021-12-21,株式会社モロハシグループ,,株式会社,北海道,旭川市,神楽四条１２丁目６番３号,,01,204,0708004,,,,,,,2021-12-21,1,,,,,モロハシグループ,0
1940,7460103001413,新規,0,2021-12-21,2021-12-21,合同会社いとつむぎ,,合同会社,北海道,中川郡幕別町,札内青葉町１０番地の８ＢＬ１０８　１Ｆ,,01,643,0890541,,,,,,,2021-12-21,1,,,,,イトツムギ,0
1968,8010001223368,新規,0,2021-12-21,2021-12-21,ＤＺＮ株式会社,,株式会社,東京都,千代田区,鍛冶町２丁目８番６号グランフォークス神田イーストタワー１１０１,,13,101,1010044,,,,,,,2021-12-21,1,,,,,ディーズン,0
1969,8010001223376,新規,0,2021-12-21,2021-12-21,株式会社サンライズ,,株式会社,東京都,中央区,銀座１丁目２２番１１号銀座大竹ビジデンス２階,,13,102,1040061,,,,,,,2021-12-21,1,,,,,サンライズ,0
1970,8010001223392,新規,0,2021-12-21,2021-12-21,株式会社アリア,,株式会社,東京都,文京区,湯島１丁目５番２８－９０７号,,13,105,1130034,,,,,,,2021-12-21,1,,,,,アリア,0
1972,8010003036594,新規,0,2021-12-21,2021-12-21,合同会社ＬＯＧＩ　ＦＬＡＧ４号,,合同会社,東京都,中央区,日本橋１丁目４番１号,,13,102,1030027,,,,,,,2021-12-21,1,,,,,ロジフラッグヨンゴウ,0
1980,8010401164526,新規,0,2021-12-21,2021-12-21,株式会社自然美通販,,株式会社,東京都,港区,海岸３丁目２番９号３２２号室,,13,103,1080022,,,,,,,2021-12-21,1,,,,,シゼンビツウハン,0
1981,8010401164542,新規,0,2021-12-21,2021-12-21,株式会社Ｃ２,,株式会社,東京都,港区,赤坂８丁目１２番２５号,,13,103,1070052,,,,,,,2021-12-21,1,,,,,シーツー,0
1982,8010403026740,新規,0,2021-12-21,2021-12-21,合同会社メタネクサス,,合同会社,東京都,港区,浜松町２丁目２番１５号浜松町ダイヤビル２Ｆ,,13,103,1050013,,,,,,,2021-12-21,1,,,,,メタネクサス,0
1983,8010403026757,新規,0,2021-12-21,2021-12-21,蓮合同会社,,合同会社,東京都,港区,西新橋１丁目１番１号ＥＰコンサルティングサービス内,,13,103,1050003,,,,,,,2021-12-21,1,,,,,ハス,0
1989,8010501048240,新規,0,2021-12-21,2021-12-21,株式会社Ｒｉｎｇ,,株式会社,東京都,台東区,柳橋１丁目２３番４号須賀ビル２階,,13,106,1110052,,,,,,,2021-12-21,1,,,,,リング,0
1994,8010601060418,新規,0,2021-12-21,2021-12-21,ＴＲＥＳ株式会社,,株式会社,東京都,墨田区,江東橋３丁目６番１１号１階,,13,107,1300022,,,,,,,2021-12-21,1,,,,,トレス,0
1998,8010801032596,新規,0,2021-12-21,2021-12-21,株式会社ＡＭＢＥＲ,,株式会社,東京都,大田区,西六郷２丁目１番３号,,13,111,1440056,,,,,,,2021-12-21,1,,,,,アンバー,0
2008,8011001144678,新規,0,2021-12-21,2021-12-21,クリニケア株式会社,,株式会社,東京都,渋谷区,渋谷１丁目２０番１号,,13,113,1500002,,,,,,,2021-12-21,1,,,,,クリニケア,0
2015,8011101097248,新規,0,2021-12-21,2021-12-21,株式会社ＦＩＲＥＣＡＭＰ,,株式会社,東京都,新宿区,西新宿７丁目１４番１２号ペアレンツビル１階,,13,104,1600023,,,,,,,2021-12-21,1,,,,,ファイヤーキャンプ,0
2016,8011103011306,新規,0,2021-12-21,2021-12-21,ガンガサガル合同会社,,合同会社,東京都,新宿区,西早稲田１丁目４番１８号,,13,104,1690051,,,,,,,2021-12-21,1,,,,,ガンガサガル,0
2021,8011301027434,新規,0,2021-12-21,2021-12-21,株式会社アートＰＲＯＤＵＣＴＩＯＮ,,株式会社,東京都,杉並区,荻窪５丁目２１番１６－５０６号ハイエスト荻窪,,13,115,1670051,,,,,,,2021-12-21,1,,,,,アートプロダクション,0
2026,8011601025617,新規,0,2021-12-21,2021-12-21,株式会社東日本住宅美創,,株式会社,東京都,練馬区,大泉学園町３丁目１番３２－２０１号Ｔ＆Ｋ大泉学園ビル,,13,120,1780061,,,,,,,2021-12-21,1,,,,,ヒガシニホンジュウタクビソウ,0
2031,8011801040077,新規,0,2021-12-21,2021-12-21,雲米株式会社,,株式会社,東京都,足立区,西新井本町５丁目２番４－１０２号,,13,121,1230845,,,,,,,2021-12-21,1,,,,,ウンマイ,0
2032,8011801040093,新規,0,2021-12-21,2021-12-21,株式会社和,,株式会社,東京都,足立区,鹿浜５丁目２２番１９号２０１号,,13,121,1230864,,,,,,,2021-12-21,1,,,,,カズ,0
2033,8012301012814,新規,0,2021-12-21,2021-12-21,株式会社裕結,,株式会社,東京都,町田市,森野２丁目３１番地２－１００２号,,13,209,1940022,,,,,,,2021-12-21,1,,,,,ユユ,0
2040,8013101008804,新規,0,2021-12-21,2021-12-21,株式会社啓,,株式会社,東京都,あきる野市,入野１５１番地７,,13,228,1900161,,,,,,,2021-12-21,1,,,,,ハジメ,0
2049,8020001144398,新規,0,2021-12-21,2021-12-21,株式会社ＴＳＵＮＡＧＯＯＯ,,株式会社,神奈川県,横浜市磯子区,杉田４丁目１３番１５号,,14,107,2350033,,,,,,,2021-12-21,1,,,,,ツナゴー,0
2050,8020001144407,新規,0,2021-12-21,2021-12-21,ディアベリー株式会社,,株式会社,神奈川県,横浜市保土ケ谷区,常盤台７９－１,,14,106,2400067,,,,,,,2021-12-21,1,,,,,ディアベリー,0
2051,8020001144415,新規,0,2021-12-21,2021-12-21,株式会社ＦＳＢ,,株式会社,神奈川県,横浜市神奈川区,西神奈川１丁目２番地１ナイスアーバンシティ東神奈川６０３号室,,14,102,2210822,,,,,,,2021-12-21,1,,,,,エフエスビー,0
2052,8020001144431,新規,0,2021-12-21,2021-12-21,株式会社共創,,株式会社,神奈川県,横浜市磯子区,森６丁目１４番２５号,,14,107,2350023,,,,,,,2021-12-21,1,,,,,キョウソウ,0
2055,8020003021001,新規,0,2021-12-21,2021-12-21,合同会社ＵＮＩＱＵＥ,,合同会社,神奈川県,川崎市宮前区,水沢３丁目４－３８,,14,136,2160012,,,,,,,2021-12-21,1,,,,,ユニーク,0
2062,8021005012401,新規,0,2021-12-21,2021-12-21,一般社団法人マスジド・トゥバ,,その他の設立登記法人,神奈川県,相模原市中央区,水郷田名１丁目４番１号,,14,152,2520246,,,,,,,2021-12-21,1,,,,,マスジドトゥバ,0
2068,8030001145825,新規,0,2021-12-21,2021-12-21,株式会社オフィス９６,,株式会社,埼玉県,所沢市,大字上山口１８６３番地の８,,11,208,3591153,,,,,,,2021-12-21,1,,,,,オフィスキュウジュウロク,0
2069,8030001145908,新規,0,2021-12-21,2021-12-21,株式会社明工業,,株式会社,埼玉県,川越市,大字木野目５０２番地１０,,11,201,3500016,,,,,,,2021-12-21,1,,,,,アキラコウギョウ,0
2070,8030001145957,新規,0,2021-12-21,2021-12-21,株式会社ＧＵＩＤＥ　ＳＩＧＮ,,株式会社,埼玉県,さいたま市浦和区,常盤３丁目１１番１３－６０４号,,11,107,3300061,,,,,,,2021-12-21,1,,,,,ガイドサイン,0
2071,8030001145965,新規,0,2021-12-21,2021-12-21,株式会社ＧＥＫＩＵＭＡ,,株式会社,埼玉県,さいたま市浦和区,東仲町１１番３号,,11,107,3300056,,,,,,,2021-12-21,1,,,,,ゲキウマ,0
2073,8030003018517,新規,0,2021-12-21,2021-12-21,合同会社エイチエム,,合同会社,埼玉県,川口市,幸町３丁目１２番３号ｔｒｅｖｅｎｔｏ２０１,,11,203,3320016,,,,,,,2021-12-21,1,,,,,エイチエム,0
2080,8040001121404,新規,0,2021-12-21,2021-12-21,株式会社Ｂｅ’ｓ,,株式会社,千葉県,鎌ケ谷市,くぬぎ山４丁目８番３０号,,12,224,2730128,,,,,,,2021-12-21,1,,,,,ビーズ,0
2081,8040003019167,新規,0,2021-12-21,2021-12-21,合同会社千扇,,合同会社,千葉県,松戸市,大谷口５６７番地の１エクセレントシティ新松戸５０５,,12,207,2700005,,,,,,,2021-12-21,1,,,,,センオウ,0
2082,8040005021468,新規,0,2021-12-21,2021-12-21,一般社団法人礼和の杜,,その他の設立登記法人,千葉県,船橋市,夏見４丁目２３番２４号,,12,204,2730865,,,,,,,2021-12-21,1,,,,,レイワノモリ,0
2084,8050003006271,新規,0,2021-12-21,2021-12-21,合同会社ＳＹＴＭ,,合同会社,茨城県,土浦市,西根南２丁目７番４号,,08,203,3000842,,,,,,,2021-12-21,1,,,,,エスワイティーエム,0
2088,8060001034397,新規,0,2021-12-21,2021-12-21,株式会社エコピカ,,株式会社,栃木県,鹿沼市,深程５３６番地１,,09,205,3220302,,,,,,,2021-12-21,1,,,,,エコピカ,0
2090,8070001038744,新規,0,2021-12-21,2021-12-21,株式会社リードパブリッシング,,株式会社,群馬県,高崎市,箕郷町上芝８４５番地５,,10,202,3703104,,,,,,,2021-12-21,1,,,,,リードパブリッシング,0
2091,8070001038752,新規,0,2021-12-21,2021-12-21,株式会社サンセツ,,株式会社,群馬県,太田市,西本町５１番９号,,10,205,3730033,,,,,,,2021-12-21,1,,,,,サンセツ,0
2094,8080003002706,新規,0,2021-12-21,2021-12-21,合同会社ｎｏｔ　ｅｑｕａｌ,,合同会社,静岡県,静岡市葵区,伝馬町１０番地１号ヴィラ伝馬町２階,,22,101,4200858,,,,,,,2021-12-21,1,,,,,ノットイコール,0
2101,8100001034905,新規,0,2021-12-21,2021-12-21,ＹＯＬＯ．ＸＤ株式会社,,株式会社,長野県,松本市,中央１丁目７番１７号,,20,202,3900811,,,,,,,2021-12-21,1,,,,,ヨロエックスディー,0
2102,8100001034913,新規,0,2021-12-21,2021-12-21,株式会社クローバー北アルプス,,株式会社,長野県,安曇野市,三郷温４８９８番地８,,20,220,3998102,,,,,,,2021-12-21,1,,,,,クローバーキタアルプス,0
2112,8120001242571,新規,0,2021-12-21,2021-12-21,株式会社夕星,,株式会社,大阪府,寝屋川市,早子町２３番２－６０３号,,27,215,5720837,,,,,,,2021-12-21,1,,,,,ユウセイ,0
2113,8120001242621,新規,0,2021-12-21,2021-12-21,株式会社東和グループ,,株式会社,大阪府,大阪市中央区,本町橋２番１７号７Ｆ,,27,128,5400029,,,,,,,2021-12-21,1,,,,,トウワグループ,0
2114,8120001242638,新規,0,2021-12-21,2021-12-21,株式会社ＫＯＳ,,株式会社,大阪府,大阪市平野区,加美北１丁目１３番１０号,,27,126,5470001,,,,,,,2021-12-21,1,,,,,コス,0
2117,8120003020810,新規,0,2021-12-21,2021-12-21,合同会社山森,,合同会社,大阪府,大阪市住吉区,我孫子５丁目９番１７－３０８号,,27,120,5580014,,,,,,,2021-12-21,1,,,,,サンシン,0
2120,8120005022656,新規,0,2021-12-21,2021-12-21,ＮＰＯ法人ＫＥＹ,,その他の設立登記法人,大阪府,枚方市,尊延寺６丁目２２－１,,27,210,5730112,,,,,,,2021-12-21,1,,,,,キー,0
2123,8120101064825,新規,0,2021-12-21,2021-12-21,株式会社ＭＡＲＳ,,株式会社,大阪府,大阪狭山市,山本東１８番地の８（６０７号）,,27,231,5890036,,,,,,,2021-12-21,1,,,,,マース,0
2127,8122001035443,新規,0,2021-12-21,2021-12-21,ワイツーエムツー株式会社,,株式会社,大阪府,東大阪市,稲田本町１丁目１３番２４号,,27,227,5770007,,,,,,,2021-12-21,1,,,,,ワイツーエムツー,0
2139,8140001124248,新規,0,2021-12-21,2021-12-21,株式会社アルル,,株式会社,兵庫県,姫路市,飾磨区中浜町２丁目１５番地,,28,201,6728085,,,,,,,2021-12-21,1,,,,,アルル,0
2142,8140005025954,新規,0,2021-12-21,2021-12-21,一般社団法人こどものちから,,その他の設立登記法人,兵庫県,神戸市兵庫区,福原町２５－４福原ハイツ１階,,28,105,6520036,,,,,,,2021-12-21,1,,,,,コドモノチカラ,0
2143,8150001025189,新規,0,2021-12-21,2021-12-21,アスカビル株式会社,,株式会社,奈良県,橿原市,兵部町８番５号,,29,205,6340076,,,,,,,2021-12-21,1,,,,,アスカビル,0
2146,8180001149200,新規,0,2021-12-21,2021-12-21,株式会社ＥＣＥ,,株式会社,愛知県,名古屋市港区,春田野１丁目１３０６番地,,23,111,4550873,,,,,,,2021-12-21,1,,,,,イーシーイー,0
2147,8180301035744,新規,0,2021-12-21,2021-12-21,株式会社ＨＯＰＥ,,株式会社,愛知県,豊田市,青木町２丁目５番地２０シャンポール青木１Ｃ号,,23,211,4700335,,,,,,,2021-12-21,1,,,,,ホープ,0
2152,8190001028956,新規,0,2021-12-21,2021-12-21,大起システム株式会社,,株式会社,三重県,桑名市,大字蓮花寺１９３８番地,,24,205,5110854,,,,,,,2021-12-21,1,,,,,ダイキシステム,0
2156,8200005013291,新規,0,2021-12-21,2021-12-21,農事組合法人あおの,,その他の設立登記法人,岐阜県,大垣市,青野町６９１番地,,21,202,5032227,,,,,,,2021-12-21,1,,,,,アオノ,0
2158,8230001019141,新規,0,2021-12-21,2021-12-21,株式会社Ｓｕｐｅｒｃｅｌｌ,,株式会社,富山県,富山市,湊入船町３番３０号ＫＮＢ入船別館４階,,16,201,9300805,,,,,,,2021-12-21,1,,,,,スーパーセル,0
2160,8240001059070,新規,0,2021-12-21,2021-12-21,ブック株式会社,,株式会社,広島県,呉市,安浦町大字三津口２１０２番地３,,34,202,7372502,,,,,,,2021-12-21,1,,,,,ブック,0
2161,8240001059079,新規,0,2021-12-21,2021-12-21,株式会社ネクストワールド,,株式会社,広島県,広島市安佐南区,上安６丁目１６番１７号,,34,105,7310154,,,,,,,2021-12-21,1,,,,,ネクストワールド,0
2167,8260001036332,新規,0,2021-12-21,2021-12-21,株式会社Ｒａｃｃｏｎｔ,,株式会社,岡山県,岡山市北区,花尻あかね町８‐１０７パルネット茜１０１,,33,101,7010133,,,,,,,2021-12-21,1,,,,,ラッコント,0
2170,8280005007451,新規,0,2021-12-21,2021-12-21,医療法人社団やまぼうし,,その他の設立登記法人,島根県,邑智郡邑南町,山田９７番地３,,32,449,6960313,,,,,,,2021-12-21,1,,,,,ヤマボウシ,0
2172,8290001095788,新規,0,2021-12-21,2021-12-21,株式会社Ｄｉｍｅ,,株式会社,福岡県,福岡市東区,香椎駅東３丁目２５番４０号,,40,131,8130012,,,,,,,2021-12-21,1,,,,,ダイム,0
2173,8290005018480,新規,0,2021-12-21,2021-12-21,医療法人智治矯正歯科,,その他の設立登記法人,福岡県,福岡市西区,今宿西１丁目１５番２２号,,40,135,8190169,,,,,,,2021-12-21,1,,,,,トモハルキョウセイシカ,0
2198,8380005012516,新規,0,2021-12-21,2021-12-21,特定非営利活動法人はーぐる,,その他の設立登記法人,福島県,福島市,野田町５丁目１０番２７号,,07,201,9608055,,,,,,,2021-12-21,1,,,,,ハーグル,0
2205,8430001085634,新規,0,2021-12-21,2021-12-21,株式会社Ｂａｓｅｃａｍｐ,,株式会社,北海道,札幌市中央区,南一条西７丁目１２番地都市ビル６Ｆ,,01,101,0600061,,,,,,,2021-12-21,1,,,,,ベースキャンプ,0
2239,9010001223086,新規,0,2021-12-21,2021-12-21,株式会社ＡＴＬ,,株式会社,東京都,千代田区,有楽町１丁目６－３,,13,101,1000006,,,,,,,2021-12-21,1,,,,,エーティーエル,0
2240,9010001223367,新規,0,2021-12-21,2021-12-21,セタニーアルファ株式会社,,株式会社,東京都,千代田区,二番町２番地１２平田ビル４０４号,,13,101,1020084,,,,,,,2021-12-21,1,,,,,セタニーアルファ,0
2241,9010001223383,新規,0,2021-12-21,2021-12-21,ブレインワークス株式会社,,株式会社,東京都,中央区,晴海３丁目１３番１－５００４号ドゥ・トゥールＥＡＳＴ棟,,13,102,1040053,,,,,,,2021-12-21,1,,,,,ブレインワークス,0
2242,9010003036593,新規,0,2021-12-21,2021-12-21,ＨＩＫＡＲＩ合同会社,,合同会社,東京都,文京区,本郷５丁目１１番１４－２０３号,,13,105,1130033,,,,,,,2021-12-21,1,,,,,ヒカリ,0
2250,9010401164475,新規,0,2021-12-21,2021-12-21,株式会社ＡＳＣ,,株式会社,東京都,港区,浜松町２丁目２番１５号浜松町ダイヤビル２階,,13,103,1050013,,,,,,,2021-12-21,1,,,,,エイエスシー,0
2251,9010401164541,新規,0,2021-12-21,2021-12-21,株式会社Ｒ＆Ａ,,株式会社,東京都,港区,六本木３丁目１１番６号,,13,103,1060032,,,,,,,2021-12-21,1,,,,,アールアンドエー,0
2252,9010401164599,新規,0,2021-12-21,2021-12-21,ＩＪＫプロパティーズＳ株式会社,,株式会社,東京都,港区,南青山３丁目１４番２７号,,13,103,1070062,,,,,,,2021-12-21,1,,,,,アイジェーケープロパティーズエス,0
2254,9010403026756,新規,0,2021-12-21,2021-12-21,柊合同会社,,合同会社,東京都,港区,西新橋１丁目１番１号ＥＰコンサルティングサービス内,,13,103,1050003,,,,,,,2021-12-21,1,,,,,ヒイラギ,0
2260,9010501048231,新規,0,2021-12-21,2021-12-21,株式会社Ａｆｔｅｒ　ＴＨＲＥＥ,,株式会社,東京都,台東区,台東１丁目２９番４号第一共和ビル１階,,13,106,1100016,,,,,,,2021-12-21,1,,,,,アフタースリー,0
2266,9010803003990,新規,0,2021-12-21,2021-12-21,合同会社真会計,,合同会社,東京都,大田区,田園調布１丁目４４番１８号,,13,111,1450071,,,,,,,2021-12-21,1,,,,,シンカイケイ,0
2272,9011001144685,新規,0,2021-12-21,2021-12-21,ハズム株式会社,,株式会社,東京都,渋谷区,渋谷２丁目１９番１５号宮益坂ビルディング６０９,,13,113,1500002,,,,,,,2021-12-21,1,,,,,ハズム,0
2273,9011003013888,新規,0,2021-12-21,2021-12-21,合同会社ＲＩＣＨＫＵＮ,,合同会社,東京都,渋谷区,神宮三丁目３番１３号松岡ビル４０１,,13,113,1500000,,,,,,,2021-12-21,1,,,,,リッチクン,0
2281,9011301027441,新規,0,2021-12-21,2021-12-21,日本生命科学研究院テクノロジー株式会社,,株式会社,東京都,杉並区,天沼２丁目７番７号マンション大竹３０１,,13,115,1670032,,,,,,,2021-12-21,1,,,,,ニホンセイメイカガクケンキュウインテクノロジー,0
2284,9011801040084,新規,0,2021-12-21,2021-12-21,ＧＢＬ株式会社,,株式会社,東京都,葛飾区,金町２丁目２番１４－２０４号,,13,122,1250042,,,,,,,2021-12-21,1,,,,,ジービーエル,0
2285,9011801040092,新規,0,2021-12-21,2021-12-21,株式会社ノア,,株式会社,東京都,足立区,島根３丁目８番８号,,13,121,1210815,,,,,,,2021-12-21,1,,,,,ノア,0
2286,9012305001985,新規,0,2021-12-21,2021-12-21,一般社団法人日本医療福祉アドバイザー協会,,その他の設立登記法人,東京都,町田市,中町１丁目１０番１５号武藤フラット２Ｆ,,13,209,1940021,,,,,,,2021-12-21,1,,,,,ニホンイリョウフクシアドバイザーキョウカイ,0
2289,9013101008803,新規,0,2021-12-21,2021-12-21,株式会社Ａ・サポート,,株式会社,東京都,福生市,大字福生１２７５,,13,218,1970011,,,,,,,2021-12-21,1,,,,,エーサポート,0
2290,9013303005953,新規,0,2021-12-21,2021-12-21,合同会社ＭＯＵＮＤ,,合同会社,東京都,豊島区,南池袋１丁目１６－２０ぬかりやビル６Ｆ,,13,116,1710022,,,,,,,2021-12-21,1,,,,,マウンド,0
2296,9020001144414,新規,0,2021-12-21,2021-12-21,株式会社ナカツイ設備,,株式会社,神奈川県,横浜市旭区,さちが丘９６番地１７,,14,112,2410822,,,,,,,2021-12-21,1,,,,,ナカツイセツビ,0
2310,9021001074782,新規,0,2021-12-21,2021-12-21,紙式社株式会社,,株式会社,神奈川県,大和市,上草柳１７７番地７号,,14,213,2420029,,,,,,,2021-12-21,1,,,,,カミシキヤシロ,0
2317,9021005012400,新規,0,2021-12-21,2021-12-21,医療法人社団Ｃｒａｉｌｅ,,その他の設立登記法人,神奈川県,鎌倉市,御成町７番８号御成ｅｖｅｒ３階,,14,204,2480012,,,,,,,2021-12-21,1,,,,,クレイル,0
2328,9030003018532,新規,0,2021-12-21,2021-12-21,合同会社インバディ,,合同会社,埼玉県,川口市,芝下２丁目１３－１,,11,203,3330848,,,,,,,2021-12-21,1,,,,,インバディ,0
2334,9040001121436,新規,0,2021-12-21,2021-12-21,株式会社インテリアイノウエ,,株式会社,千葉県,君津市,八重原１７２番地２５０,,12,225,2991171,,,,,,,2021-12-21,1,,,,,インテリアイノウエ,0
2338,9050001050312,新規,0,2021-12-21,2021-12-21,Ｎａｔｕｒａｌ　Ｉｎｔｅｒｎａｔｉｏｎａｌ株式会社,,株式会社,茨城県,つくば市,北条３４６,,08,220,3004231,,,,,,,2021-12-21,1,,,,,ナチュラルインターナショナル,0
2339,9050001050329,新規,0,2021-12-21,2021-12-21,Ｖｏｇｕｅ　Ｈｏｍｅｓ株式会社,,株式会社,茨城県,常総市,三坂町１０２３番地,,08,211,3002506,,,,,,,2021-12-21,1,,,,,ヴォーグホームズ,0
2343,9050005012977,新規,0,2021-12-21,2021-12-21,特定非営利活動法人茨城陸上クラブ,,その他の設立登記法人,茨城県,日立市,大沼町３丁目３７番３１－２０１号,,08,202,3160022,,,,,,,2021-12-21,1,,,,,,0
2346,9080003002705,新規,0,2021-12-21,2021-12-21,Ｎｅｗ　Ｍｅｄｉａ合同会社,,合同会社,静岡県,静岡市葵区,瀬名中央３丁目１９－５,,22,101,4200916,,,,,,,2021-12-21,1,,,,,ニューメディア,0
2350,9080401025539,新規,0,2021-12-21,2021-12-21,株式会社ａｌａ,,株式会社,静岡県,浜松市東区,篠ケ瀬町７６２番地,,22,132,4350042,,,,,,,2021-12-21,1,,,,,エーエルエー,0
2352,9090001017332,新規,0,2021-12-21,2021-12-21,むすび不動産株式会社,,株式会社,山梨県,甲府市,相生１丁目１８－１,,19,201,4000858,,,,,,,2021-12-21,1,,,,,ムスビフドウサン,0
2378,9120001242604,新規,0,2021-12-21,2021-12-21,株式会社Ａｍｏｕｒ,,株式会社,大阪府,大阪市中央区,本町橋２－１５,,27,128,5400029,,,,,,,2021-12-21,1,,,,,アムール,0
2379,9120001242629,新規,0,2021-12-21,2021-12-21,株式会社ＡＵＲＡ,,株式会社,大阪府,枚方市,長尾元町３丁目５０番４８号,,27,210,5730163,,,,,,,2021-12-21,1,,,,,オーラ,0
2380,9120001242645,新規,0,2021-12-21,2021-12-21,株式会社タカヨシ産業,,株式会社,大阪府,大阪市住吉区,長居西１丁目５番８号,,27,120,5580002,,,,,,,2021-12-21,1,,,,,タカヨシサンギョウ,0
2383,9120003020792,新規,0,2021-12-21,2021-12-21,Ｈ２Ｖ合同会社,,合同会社,大阪府,大阪市西成区,天下茶屋北１丁目１番９号オレンジマンション２０１号,,27,122,5570003,,,,,,,2021-12-21,1,,,,,エイチニブイ,0
2384,9120003020818,新規,0,2021-12-21,2021-12-21,合同会社Ｌ,,合同会社,大阪府,大阪市福島区,大開１丁目１５番３２号阪神レジャービル２０２号室,,27,103,5530007,,,,,,,2021-12-21,1,,,,,エル,0
2394,9130001070731,新規,0,2021-12-21,2021-12-21,株式会社砂木,,株式会社,京都府,京都市中京区,指物屋町３７５番地の２・４Ｆ,,26,104,6040095,,,,,,,2021-12-21,1,,,,,スナキ,0
2395,9130003007616,新規,0,2021-12-21,2021-12-21,合同会社コウテイ,,合同会社,京都府,京都市下京区,大宮町一丁目５６８番地ウィズ大宮１０２,,26,106,6008138,,,,,,,2021-12-21,1,,,,,コウテイ,0
2401,9140001124222,新規,0,2021-12-21,2021-12-21,株式会社オーシャンブルー,,株式会社,兵庫県,神戸市中央区,東川崎町１丁目５番９－３４０６号,,28,110,6500044,,,,,,,2021-12-21,1,,,,,オーシャンブルー,0
2402,9140001124239,新規,0,2021-12-21,2021-12-21,ＹＡＵＲＵＳ株式会社,,株式会社,兵庫県,神戸市中央区,橘通１丁目２番７－２０２号,,28,110,6500016,,,,,,,2021-12-21,1,,,,,ヤユラス,0
2404,9140005025953,新規,0,2021-12-21,2021-12-21,農事組合法人淡路一宮いざなぎファーム,,その他の設立登記法人,兵庫県,淡路市,多賀１５５５番地１,,28,226,6561521,,,,,,,2021-12-21,1,,,,,アワジイチノミヤイザナギファーム,0
2406,9150003002573,新規,0,2021-12-21,2021-12-21,合同会社７Ｓ３Ｔ田中塾,,合同会社,奈良県,奈良市,富雄川西２丁目１５番８号,,29,201,6310077,,,,,,,2021-12-21,1,,,,,ナナエスサンティータナカジュク,0
2412,9180001149182,新規,0,2021-12-21,2021-12-21,株式会社ＳＧコンストラクション,,株式会社,愛知県,北名古屋市,中之郷八反２番地１,,23,234,4810045,,,,,,,2021-12-21,1,,,,,エスジーコンストラクション,0
2413,9180001149190,新規,0,2021-12-21,2021-12-21,株式会社ナンセイ名古屋,,株式会社,愛知県,名古屋市熱田区,新尾頭１丁目２番９号第１７金山フクマルビル６Ｆ,,23,109,4560018,,,,,,,2021-12-21,1,,,,,ナンセイナゴヤ,0
2414,9180001149199,新規,0,2021-12-21,2021-12-21,株式会社名翔,,株式会社,愛知県,名古屋市南区,道徳新町６丁目４８番地,,23,112,4570847,,,,,,,2021-12-21,1,,,,,メイショウ,0
2415,9180001149208,新規,0,2021-12-21,2021-12-21,株式会社あすゆめ,,株式会社,愛知県,小牧市,常普請１丁目３５番地,,23,219,4850044,,,,,,,2021-12-21,1,,,,,アスユメ,0
2416,9180001149224,新規,0,2021-12-21,2021-12-21,株式会社ゆうき,,株式会社,愛知県,名古屋市中区,東桜２丁目２２番１５号泉ビル３０１,,23,106,4600005,,,,,,,2021-12-21,1,,,,,ユウキ,0
2419,9180301035743,新規,0,2021-12-21,2021-12-21,株式会社ｓｙｍｂｏｌ,,株式会社,愛知県,豊田市,柿本町３丁目１番地ビクトリー３６－２０１号,,23,211,4710855,,,,,,,2021-12-21,1,,,,,シンボル,0
2426,9200005013290,新規,0,2021-12-21,2021-12-21,特定非営利活動法人揖斐川町外国人介護人材受入地域推進協議会,,その他の設立登記法人,岐阜県,揖斐郡揖斐川町,谷汲名礼２４６番地２,,21,401,5011314,,,,,,,2021-12-21,1,,,,,イビガワチョウガイコクジンカイゴジンザイウケイレチイキスイシンキョウギカイ,0
2441,9260003003750,新規,0,2021-12-21,2021-12-21,合同会社Ｊ,,合同会社,岡山県,岡山市北区,中央町９－２パラダイス中央町３階,,33,101,7000836,,,,,,,2021-12-21,1,,,,,ジェイ,0
2442,9260005011009,新規,0,2021-12-21,2021-12-21,医療法人社団ももスキンケアクリニック,,その他の設立登記法人,岡山県,岡山市北区,中山下１丁目８番４５号ＮＴＴクレド岡山ビル９階,,33,101,7000821,,,,,,,2021-12-21,1,,,,,モモスキンケアクリニック,0
2444,9280003001562,新規,0,2021-12-21,2021-12-21,ＬｉＭ合同会社,,合同会社,島根県,出雲市,今市町南本町２０番地１,,32,203,6930003,,,,,,,2021-12-21,1,,,,,リム,0
2446,9290005018488,新規,0,2021-12-21,2021-12-21,医療法人やました歯科,,その他の設立登記法人,福岡県,八女郡広川町,大字広川１３４９－１,,40,544,8340121,,,,,,,2021-12-21,1,,,,,ヤマシタシカ,0
2448,9300001012740,新規,0,2021-12-21,2021-12-21,松田ホールディングス株式会社,,株式会社,佐賀県,武雄市,北方町大字志久２５７２番地４,,41,206,8492201,,,,,,,2021-12-21,1,,,,,マツダホールディングス,0
2458,9360003011669,新規,0,2021-12-21,2021-12-21,合同会社グロウ,,合同会社,沖縄県,宜野湾市,嘉数３丁目１７－３グランメゾンＩＨＡ３０１,,47,205,9012226,,,,,,,2021-12-21,1,,,,,グロウ,0
2484,9430001085641,新規,0,2021-12-21,2021-12-21,株式会社ベッカライ余市,,株式会社,北海道,余市郡余市町,黒川町１２丁目７３番地６,,01,408,0460003,,,,,,,2021-12-21,1,,,,,ベッカライヨイチ,0
2485,9430003013468,新規,0,2021-12-21,2021-12-21,合同会社エム・エス・トランスポート,,合同会社,北海道,千歳市,自由ケ丘１丁目６番１５号,,01,224,0660072,,,,,,,2021-12-21,1,,,,,エムエストランスポート,0
2486,9450001013559,新規,0,2021-12-21,2021-12-21,株式会社マハロ,,株式会社,北海道,旭川市,永山八条１６丁目１番９－２号,,01,204,0798418,,,,,,,2021-12-21,1,,,,,マハロ,0
