sequenceNumber,corporateNumber,process,correct,updateDate,changeDate,name,nameImageId,kind,prefectureName,cityName,streetNumber,addressImageId,prefectureCode,cityCode,postCode,addressOutside,addressOutsideImageId,closeDate,closeCause,successorCorporateNumber,changeCause,assignmentDate,latest,enName,enPrefectureName,enCityName,enAddressOutside,furigana,hihyoji
24,1010502004686,登記記録の閉鎖等,0,2025-02-17,2025-02-04,有限会社サンインダストリー,,有限会社,東京都,台東区,東上野３丁目３８番２号,,13,106,1100015,,,2025-02-04,清算の結了等,,,2015-10-05,1,,,,,サンインダストリー,0
25,1010503006731,登記記録の閉鎖等,0,2025-02-17,2025-02-06,合同会社佩龍,,合同会社,東京都,台東区,上野６丁目７番１６号川久保ビル７１９号室,,13,106,1100005,,,2025-02-06,清算の結了等,,,2022-09-28,1,,,,,ハイリュウ,0
51,1011203002509,登記記録の閉鎖等,0,2025-02-17,2025-02-03,合同会社ＡＬＬ　Ｗｅａｔｈｅｒ,,合同会社,東京都,杉並区,天沼３丁目１３番５号ストーリア荻窪１Ｆ,,13,115,1670032,,,2025-02-03,合併による解散等,8011203003095,令和７年２月１日東京都杉並区天沼三丁目１３番５号ストーリア荻窪１Ｆ合同会社ＫＲＦ（8011203003095）に合併し解散,2017-02-21,1,,,,,オールウェザー,0
53,1011301015718,登記記録の閉鎖等,0,2025-02-17,2025-02-06,株式会社ヒューマンリング,,株式会社,東京都,杉並区,井草２丁目１０番１３号,,13,115,1670021,,,2025-02-06,清算の結了等,,,2015-10-05,1,,,,,,0
77,1013305003392,登記記録の閉鎖等,0,2025-02-17,2025-02-05,特定非営利活動法人みらいウクライナ・アフガニスタン等難民支援基金,,その他の設立登記法人,東京都,豊島区,高田１丁目３８番１１号,,13,116,1710033,,,2025-02-05,清算の結了等,,,2022-10-14,1,,,,,ミライウクライナアフガニスタントウナンミンシエンキキン,0
89,1020002032352,登記記録の閉鎖等,0,2025-02-17,2025-01-31,有限会社アサマ工業,,有限会社,神奈川県,横浜市港北区,新吉田東４丁目１４番１６号,,14,109,2230058,,,2025-01-31,清算の結了等,,,2015-10-05,1,,,,,アサマコウギョウ,0
91,1020002065732,登記記録の閉鎖等,0,2025-02-17,2025-01-31,有限会社ジュリーズ,,有限会社,神奈川県,横浜市中区,山下町１２８番地２メゾーネ山下町５０３,,14,104,2310023,,,2025-01-31,清算の結了等,,,2015-10-05,1,,,,,ジュリーズ,0
105,1030005020188,登記記録の閉鎖等,0,2025-02-17,2025-02-12,一般社団法人あらぐさの実,,その他の設立登記法人,埼玉県,所沢市,旭町２８番２１号,,11,208,3590036,,,2025-02-12,清算の結了等,,,2020-12-10,1,,,,,アラグサノミ,0
116,1040002102236,登記記録の閉鎖等,0,2025-02-17,2025-02-10,有限会社キッセイ,,有限会社,千葉県,勝浦市,川津２２６番地,,12,218,2995232,,,2025-02-10,清算の結了等,,,2015-10-05,1,,,,,キッセイ,0
125,1080101018271,登記記録の閉鎖等,0,2025-02-17,2025-01-24,ウベスレート販売株式会社,,株式会社,東京都,港区,芝浦１丁目２番３号,,13,103,1050023,,,2025-01-24,清算の結了等,,,2015-10-05,1,,,,,ウベスレートハンバイ,0
128,1080401010184,登記記録の閉鎖等,0,2025-02-17,2025-02-14,株式会社貴宝堂,,株式会社,静岡県,浜松市浜名区,沼２４６番地の１,,22,139,4340037,,,2025-02-14,清算の結了等,,,2015-10-05,1,,,,,,0
143,1120001168922,登記記録の閉鎖等,0,2025-02-17,2025-02-12,株式会社公紳,,株式会社,大阪府,大阪市北区,大淀中３丁目１３番１号アクア西梅田２・１０２号,,27,127,5310076,,,2025-02-12,清算の結了等,,,2015-10-05,1,,,,,コウシン,0
145,1120001267451,登記記録の閉鎖等,0,2025-02-17,2025-02-13,ＬｏｗｅｒＦａｃｉａｌ　ｄｅｓｉｇｎ株式会社,,株式会社,大阪府,大阪市西区,北堀江１丁目２０番１３号,,27,106,5500014,,,2025-02-13,清算の結了等,,,2024-08-06,1,,,,,ロウアフェイシャルデザイン,0
178,1200003001585,登記記録の閉鎖等,0,2025-02-17,2025-02-14,合同会社エスエイチコーポレーション,,合同会社,岐阜県,瑞穂市,別府７８２番地３,,21,216,5010222,,,2025-02-14,清算の結了等,,,2015-10-05,1,,,,,エスエイチコーポレーション,0
180,1200005011285,登記記録の閉鎖等,0,2025-02-17,2025-02-13,特定非営利活動法人美濃タリィ,,その他の設立登記法人,岐阜県,土岐市,駄知町１９８６番地の２,,21,212,5095401,,,2025-02-13,清算の結了等,,,2015-10-05,1,,,,,ミノタリィ,0
181,1210001015322,登記記録の閉鎖等,0,2025-02-17,2025-02-13,ＡＲＴＥＳ　ＴＲＡＳＴＯＳ株式会社,,株式会社,福井県,越前市,大平町第２号の４．８９番地,,18,209,9150228,,,2025-02-13,清算の結了等,,,2015-10-05,1,,,,,アルテストラストス,0
183,1230002010667,登記記録の閉鎖等,0,2025-02-17,2025-02-12,有限会社いちもんめ,,有限会社,富山県,高岡市,昭和町２丁目２番８号,,16,202,9330946,,,2025-02-12,清算の結了等,,,2015-10-05,1,,,,,イチモンメ,0
198,1290001058405,登記記録の閉鎖等,0,2025-02-17,2025-01-31,クオリティ総合企画株式会社,,株式会社,福岡県,福岡市南区,井尻２丁目４３番２３号,,40,134,8111302,,,2025-01-31,清算の結了等,,,2015-10-05,1,,,,,クオリティソウゴウキカク,0
215,1350002002529,登記記録の閉鎖等,0,2025-02-17,2025-02-14,有限会社セッティー,,有限会社,宮崎県,宮崎市,淀川３丁目２番３０号,,45,201,8800907,,,2025-02-14,清算の結了等,,,2015-10-05,1,,,,,セッティー,0
217,1350002009004,登記記録の閉鎖等,0,2025-02-17,2025-02-10,有限会社サンパレス,,有限会社,宮崎県,児湯郡高鍋町,大字北高鍋１０５５番地,,45,401,8840002,,,2025-02-10,清算の結了等,,,2015-10-05,1,,,,,サンパレス,0
226,1400001013819,登記記録の閉鎖等,0,2025-02-17,2025-02-04,アグリヤハバ株式会社,,株式会社,岩手県,盛岡市,大ケ生２２地割４４番地,,03,201,0200404,,,2025-02-04,清算の結了等,,,2017-08-09,1,,,,,アグリヤハバ,0
233,1440002010002,登記記録の閉鎖等,0,2025-02-17,2025-02-12,有限会社憲従興業,,有限会社,北海道,奥尻郡奥尻町,字奥尻４６２番地２,,01,367,0431401,,,2025-02-12,清算の結了等,,,2015-10-05,1,,,,,カズショウコウギョウ,0
237,1490002003117,登記記録の閉鎖等,0,2025-02-17,2025-02-14,有限会社高坂エンジニアリング,,有限会社,高知県,高知市,みづき３丁目３６０５番地,,39,201,7800976,,,2025-02-14,清算の結了等,,,2015-10-05,1,,,,,,0
238,1490002005682,登記記録の閉鎖等,0,2025-02-17,2025-02-14,有限会社ワイエムビル管理事務所,,有限会社,高知県,高知市,東久万１６番地１,,39,201,7800982,,,2025-02-14,清算の結了等,,,2015-10-05,1,,,,,ワイエムビルカンリジムショ,0
239,1490005006455,登記記録の閉鎖等,0,2025-02-17,2025-02-12,一般社団法人南国市土地開発機構,,その他の設立登記法人,高知県,南国市,田村乙１７２４番地,,39,204,7830092,,,2025-02-12,清算の結了等,,,2016-01-08,1,,,,,ナンコクシトチカイハツキコウ,0
244,2010001112774,登記記録の閉鎖等,0,2025-02-17,2025-02-03,ＧＩＮＺＡＦＡＲＭ株式会社,,株式会社,東京都,中央区,銀座１丁目３番１号,,13,102,1040061,,,2025-02-03,清算の結了等,,,2015-10-05,1,,,,,ギンザファーム,0
254,2010401146026,登記記録の閉鎖等,0,2025-02-17,2025-01-14,株式会社ユナイテッド・ロジソル,,株式会社,東京都,港区,北青山３丁目５番１０号,,13,103,1070061,,,2025-01-14,合併による解散等,2011001068809,令和７年１月１日東京都港区北青山三丁目５番１０号株式会社ファッション・コ・ラボ（2011001068809）に合併し解散,2019-06-10,1,,,,,ユナイテッドロジソル,0
267,2011001016528,登記記録の閉鎖等,0,2025-02-17,2025-01-21,東京マイビス株式会社,,株式会社,東京都,渋谷区,渋谷１丁目９番８号,,13,113,1500002,,,2025-01-21,清算の結了等,,,2015-10-05,1,,,,,トウキョウマイビス,0
270,2011001134107,登記記録の閉鎖等,0,2025-02-17,2025-01-07,株式会社Ｂ４Ａ　Ｔｅｃｈｎｏｌｏｇｉｅｓ,,株式会社,東京都,港区,西新橋１丁目７番１号虎ノ門セントラルビル８Ｆ,,13,103,1050003,,,2025-01-07,合併による解散等,2011001138033,令和６年１２月２７日東京都港区西新橋一丁目７番１号虎ノ門セントラルビル８Ｆ株式会社Ｂ４Ａ（2011001138033）に合併し解散,2020-06-05,1,,,,,ビーフォーエーテクノロジーズ,0
280,2011003016591,登記記録の閉鎖等,0,2025-02-17,2025-01-20,合同会社テンスリー,,合同会社,東京都,渋谷区,道玄坂１丁目１０番８号渋谷道玄坂東急ビル２Ｆ－Ｃ,,13,113,1500043,,,2025-01-20,清算の結了等,,,2023-04-17,1,,,,,テンスリー,0
282,2011101016089,登記記録の閉鎖等,0,2025-02-17,2025-01-31,雄松堂ビルディング株式会社,,株式会社,東京都,千代田区,神田錦町１丁目２３番地,,13,101,1010054,,,2025-01-31,清算の結了等,,,2015-10-05,1,,,,,ユウショウドウビルディング,0
290,2011501007217,登記記録の閉鎖等,0,2025-02-17,2025-02-10,セブンシーズ株式会社,,株式会社,東京都,荒川区,東日暮里３丁目４１番７号,,13,118,1160014,,,2025-02-10,清算の結了等,,,2015-10-05,1,,,,,セブンシーズ,0
294,2011702013625,登記記録の閉鎖等,0,2025-02-17,2025-02-03,有限会社エスケイホーム,,有限会社,東京都,江戸川区,北小岩５丁目８番４号,,13,123,1330051,,,2025-02-03,清算の結了等,,,2015-10-05,1,,,,,エスケイホーム,0
300,2012402012784,登記記録の閉鎖等,0,2025-02-17,2025-02-10,有限会社ユーミー,,有限会社,千葉県,千葉市緑区,誉田町２丁目１番地１０,,12,105,2660005,,,2025-02-10,清算の結了等,,,2015-10-05,1,,,,,ユーミー,0
301,2012705000214,登記記録の閉鎖等,0,2025-02-17,2025-02-12,医療法人社団保谷中央医院,,その他の設立登記法人,東京都,西東京市,東町１丁目５番１８号,,13,229,2020012,,,2025-02-12,清算の結了等,,,2015-10-05,1,,,,,ホウヤチュウオウイイン,0
311,2020001037797,登記記録の閉鎖等,0,2025-02-17,2025-02-03,株式会社ワイビーケー,,株式会社,神奈川県,横浜市中区,太田町４丁目４８番地川島ビル,,14,104,2310011,,,2025-02-03,清算の結了等,,,2015-10-05,1,,,,,ワイビーケー,0
322,2020002031502,登記記録の閉鎖等,0,2025-02-17,2025-01-31,有限会社マガネ薬局,,有限会社,神奈川県,横浜市南区,真金町２丁目１８番地,,14,105,2320021,,,2025-01-31,清算の結了等,,,2015-10-05,1,,,,,マガネヤッキョク,0
325,2021001036211,登記記録の閉鎖等,0,2025-02-17,2025-02-14,株式会社永光商会,,株式会社,神奈川県,平塚市,南金目７４６番地,,14,203,2591201,,,2025-02-14,清算の結了等,,,2015-10-05,1,,,,,エイコウショウカイ,0
333,2021005004957,登記記録の閉鎖等,0,2025-02-17,2025-02-13,大和銀座商店街協同組合,,その他の設立登記法人,神奈川県,大和市,大和南１丁目３番２号株式会社モミヤマ内,,14,213,2420016,,,2025-02-13,清算の結了等,,,2015-10-05,1,,,,,ヤマトギンザショウテンガイ,0
344,2040003019420,登記記録の閉鎖等,0,2025-02-17,2025-02-10,合同会社Ｎｉｎｏｄｅｎｔ,,合同会社,千葉県,佐倉市,宮前３丁目２１番地６,,12,212,2850005,,,2025-02-10,清算の結了等,,,2022-02-02,1,,,,,ニノデント,0
350,2060001013679,登記記録の閉鎖等,0,2025-02-17,2025-02-10,高原画像技術株式会社,,株式会社,栃木県,矢板市,玉田３９７番地１３１コリーナ矢板Ｈ－１９５６,,09,211,3291577,,,2025-02-10,清算の結了等,,,2015-10-05,1,,,,,タカハラガゾウギジュツ,0
351,2060001019973,登記記録の閉鎖等,0,2025-02-17,2025-02-10,ゴールドラグーンダイナーズ株式会社,,株式会社,栃木県,足利市,田中町９３４番地１３,,09,202,3260822,,,2025-02-10,清算の結了等,,,2015-10-05,1,,,,,ゴールドラグーンダイナーズ,0
359,2110002031823,登記記録の閉鎖等,0,2025-02-17,2025-02-13,有限会社マーチフアツシヨン,,有限会社,新潟県,見附市,南本町３丁目１番３７号,,15,211,9540056,,,2025-02-13,清算の結了等,,,2015-10-05,1,,,,,マーチフアツシヨン,0
368,2120101004910,登記記録の閉鎖等,0,2025-02-17,2025-02-10,株式会社タガタ電機,,株式会社,大阪府,堺市南区,大庭寺５５番地の１,,27,145,5900153,,,2025-02-10,清算の結了等,,,2015-10-05,1,,,,,タガタデンキ,0
379,2140001121507,登記記録の閉鎖等,0,2025-02-17,2025-02-13,株式会社ＣＫＭ,,株式会社,兵庫県,西宮市,甲風園１丁目５番１９号,,28,204,6620832,,,2025-02-13,合併による解散等,8120001130041,令和７年２月１日大阪府東大阪市御厨南二丁目５番２９号株式会社とまりどり（8120001130041）に合併し解散,2021-05-17,1,,,,,シーケイエム,0
391,2180003026980,登記記録の閉鎖等,0,2025-02-17,2025-02-10,合同会社太功,,合同会社,愛知県,名古屋市東区,泉１丁目２２番３５号チサンマンション桜通久屋８１４号,,23,102,4610001,,,2025-02-10,清算の結了等,,,2024-06-21,1,,,,,タイコウ,0
412,2280005003695,登記記録の閉鎖等,0,2025-02-17,2025-02-13,圓立寺,,その他の設立登記法人,島根県,大田市,大田町野城ロ３０７番地,,32,205,6940062,,,2025-02-13,清算の結了等,,,2015-10-05,1,,,,,エンリュウジ,0
424,2290001061291,登記記録の閉鎖等,0,2025-02-17,2025-02-03,株式会社サンオーガニック,,株式会社,福岡県,八女市,立花町山崎２６２３番地１,,40,210,8340081,,,2025-02-03,清算の結了等,,,2015-10-05,1,,,,,サンオーガニック,0
428,2290001092898,登記記録の閉鎖等,0,2025-02-17,2025-02-12,櫻井株式会社,,株式会社,福岡県,福岡市中央区,高砂２丁目１２－１３－１０４,,40,133,8100011,,,2025-02-12,清算の結了等,,,2021-04-23,1,,,,,サクライ,0
452,2350001000433,登記記録の閉鎖等,0,2025-02-17,2025-02-13,アジメーク百彩株式会社,,株式会社,宮崎県,宮崎市,田野町乙５６１６番地,,45,201,8891702,,,2025-02-13,清算の結了等,,,2015-10-05,1,,,,,アジメークヒャクサイ,0
456,2360003012137,登記記録の閉鎖等,0,2025-02-17,2025-02-13,合同会社アビューダ,,合同会社,沖縄県,浦添市,字経塚５２８ガーデンハイツ７０２,,47,208,9012111,,,2025-02-13,清算の結了等,,,2022-07-13,1,,,,,アビューダ,0
474,2462501000471,登記記録の閉鎖等,0,2025-02-17,2025-02-14,標津観光株式会社,,株式会社,北海道,標津郡標津町,字茶志骨１番地４３,,01,693,0861622,,,2025-02-14,清算の結了等,,,2015-10-05,1,,,,,シベツカンコウ,0
476,2470001013621,登記記録の閉鎖等,0,2025-02-17,2025-02-12,アサヒテクニカ株式会社,,株式会社,香川県,坂出市,元町４丁目１番２３号,,37,203,7620045,,,2025-02-12,清算の結了等,,,2015-10-05,1,,,,,アサヒテクニカ,0
502,3010405020226,登記記録の閉鎖等,0,2025-02-17,2025-01-23,Ｄホテル札幌ホールディングス一般社団法人,,その他の設立登記法人,東京都,港区,元赤坂１丁目１番７号,,13,103,1070051,,,2025-01-23,清算の結了等,,,2021-09-16,1,,,,,ディーホテルサッポロホールディングス,0
503,3010405020837,登記記録の閉鎖等,0,2025-02-17,2025-01-23,弁護士法人サウスゲイト法律事務所,,その他の設立登記法人,東京都,港区,赤坂９丁目５番１２号パークサイドシックス３０５,,13,103,1070052,,,2025-01-23,清算の結了等,,,2022-03-28,1,,,,,サウスゲイトホウリツジムショ,0
507,3010601047452,登記記録の閉鎖等,0,2025-02-17,2025-01-14,株式会社ＡＣマネジメント,,株式会社,東京都,江東区,青海２丁目７番４号ｔｈｅＳＯＨＯ１０１１,,13,108,1350064,,,2025-01-14,清算の結了等,,,2015-10-05,1,,,,,エーシーマネジメント,0
534,3011303000245,登記記録の閉鎖等,0,2025-02-17,2025-02-10,合名会社佐藤商会,,合名会社,東京都,杉並区,天沼３丁目３０番４号,,13,115,1670032,,,2025-02-10,清算の結了等,,,2015-10-05,1,,,,,サトウショウカイ,0
539,3011703003830,登記記録の閉鎖等,0,2025-02-17,2025-02-10,合同会社グローバル・エンターテイメント,,合同会社,東京都,北区,赤羽１丁目７－９赤羽第一葉山ビル４Ｆ,,13,117,1150045,,,2025-02-10,清算の結了等,,,2024-05-22,1,,,,,グローバルエンターテイメント,0
546,3012401030555,登記記録の閉鎖等,0,2025-02-17,2025-02-03,シダックストラベラーズコミュニティー株式会社,,株式会社,東京都,練馬区,向山４丁目１番１号,,13,120,1760022,,,2025-02-03,合併による解散等,6012401007856,令和７年２月１日東京都練馬区向山四丁目１番１号シダックス・コミュニティー株式会社（6012401007856）に合併し解散,2015-10-05,1,,,,,シダックストラベラーズコミュニティー,0
551,3013201018014,登記記録の閉鎖等,0,2025-02-17,2025-01-16,株式会社スタジオ・イズ,,株式会社,東京都,目黒区,東山１丁目１５番３号,,13,110,1530043,,,2025-01-16,清算の結了等,,,2015-10-05,1,,,,,スタジオイズ,0
564,3030001147479,登記記録の閉鎖等,0,2025-02-17,2025-02-10,株式会社ＳＨ寿架設,,株式会社,埼玉県,坂戸市,大字紺屋３４６番地１Ｆ,,11,239,3500204,,,2025-02-10,清算の結了等,,,2022-03-31,1,,,,,エスエイチコトブキカセツ,0
587,3060002039887,登記記録の閉鎖等,0,2025-02-17,2025-02-10,有限会社塚原自動車工業所,00024828,有限会社,栃木県,佐野市,栃本町２８０９番地,,09,204,3270312,,,2025-02-10,清算の結了等,,,2015-10-05,1,,,,,ツカハラジドウシャコウギョウショ,0
595,3080001003611,登記記録の閉鎖等,0,2025-02-17,2025-02-13,株式会社手塚鉄工所,,株式会社,静岡県,静岡市葵区,音羽町２３番６号,,22,101,4200834,,,2025-02-13,清算の結了等,,,2015-10-05,1,,,,,テヅカテッコウジョ,0
613,3120005012141,登記記録の閉鎖等,0,2025-02-17,2025-02-04,特定非営利活動法人Ｌａ－Ｖｉｄａ,,その他の設立登記法人,沖縄県,宮古島市,城辺字西里添７６０番地１１,,47,214,9060106,,,2025-02-04,清算の結了等,,,2015-10-05,1,,,,,ラヴィーダ,0
657,3190002000150,登記記録の閉鎖等,0,2025-02-17,2025-02-13,伊藤住宅有限会社,,有限会社,三重県,津市,垂水２７３０番地の１,,24,201,5140821,,,2025-02-13,清算の結了等,,,2015-10-05,1,,,,,イトウジュウタク,0
660,3200001024099,登記記録の閉鎖等,0,2025-02-17,2025-02-12,株式会社ＦＩＫＳ,,株式会社,岐阜県,中津川市,手賀野６４７番地の６,,21,206,5080015,,,2025-02-12,清算の結了等,,,2015-10-05,1,,,,,フィックス,0
674,3290001006576,登記記録の閉鎖等,0,2025-02-17,2025-02-03,エンマキ株式会社,,株式会社,福岡県,福岡市中央区,長浜３丁目１１番３号,,40,133,8100072,,,2025-02-03,清算の結了等,,,2015-10-05,1,,,,,エンマキ,0
677,3290001043512,登記記録の閉鎖等,0,2025-02-17,2025-01-31,株式会社システム大和,,株式会社,福岡県,太宰府市,大字内山５４３番地４,,40,221,8180115,,,2025-01-31,清算の結了等,,,2015-10-05,1,,,,,システムダイワ,0
711,3360001021709,登記記録の閉鎖等,0,2025-02-17,2025-02-12,株式会社ドリームズ沖縄,,株式会社,沖縄県,那覇市,久米２丁目２４番５－７０１号,,47,201,9000033,,,2025-02-12,合併による解散等,1011101042045,令和７年２月１日東京都新宿区高田馬場三丁目１４番３号株式会社ドリームズ（1011101042045）に合併し解散,2016-12-21,1,,,,,ドリームズオキナワ,0
714,3370001042539,登記記録の閉鎖等,0,2025-02-17,2025-02-12,株式会社都市創造研究所,,株式会社,宮城県,仙台市青葉区,上杉６丁目１０番１８－１０５号,,04,101,9800011,,,2025-02-12,清算の結了等,,,2018-01-15,1,,,,,トシソウゾウケンキュウショ,0
749,4010401066239,登記記録の閉鎖等,0,2025-02-17,2025-01-16,株式会社シーメンズネット,,株式会社,東京都,渋谷区,西原２丁目４６番８－１０６号アンソレイユ代々木上原,,13,113,1510066,,,2025-01-16,清算の結了等,,,2015-10-05,1,,,,,シーメンズネット,0
764,4010502008024,登記記録の閉鎖等,0,2025-02-17,2025-02-05,有限会社鳥幸,,有限会社,東京都,台東区,浅草３丁目３３番７号,,13,106,1110032,,,2025-02-05,清算の結了等,,,2015-10-05,1,,,,,トリコウ,0
770,4010702000739,登記記録の閉鎖等,0,2025-02-17,2025-02-03,有限会社市川商店,,有限会社,東京都,品川区,西中延１丁目８番１１号,,13,109,1420054,,,2025-02-03,清算の結了等,,,2015-10-05,1,,,,,イチカワショウテン,0
774,4010902014794,登記記録の閉鎖等,0,2025-02-17,2025-02-12,有限会社水上,,有限会社,東京都,世田谷区,北沢２丁目３３番１２号,,13,112,1550031,,,2025-02-12,清算の結了等,,,2015-10-05,1,,,,,ミズカミ,0
786,4011002033446,登記記録の閉鎖等,0,2025-02-17,2025-01-06,有限会社Ｂネット,,有限会社,東京都,港区,南青山４丁目５番１８号,,13,103,1070062,,,2025-01-06,清算の結了等,,,2015-10-05,1,,,,,ビーネット,0
800,4011301007811,登記記録の閉鎖等,0,2025-02-17,2025-02-10,エーブイ・プレーヤードットネット株式会社,,株式会社,東京都,杉並区,高円寺南４丁目１２番１８号大竹マンション１Ｆ,,13,115,1660003,,,2025-02-10,清算の結了等,,,2015-10-05,1,,,,,エーブイプレーヤードットネット,0
804,4011501005128,登記記録の閉鎖等,0,2025-02-17,2025-02-12,株式会社旭商事,,株式会社,東京都,荒川区,町屋５丁目６番２号,,13,118,1160001,,,2025-02-12,清算の結了等,,,2015-10-05,1,,,,,,0
810,4011502006281,登記記録の閉鎖等,0,2025-02-17,2025-02-12,有限会社陽春フロンティア・インターナショナル,,有限会社,東京都,北区,赤羽台１丁目３番９－３０５号,,13,117,1150053,,,2025-02-12,清算の結了等,,,2015-10-05,1,,,,,ヨウシュンフロンティアインターナショナル,0
820,4012701001610,登記記録の閉鎖等,0,2025-02-17,2025-02-05,株式会社プロシスタス,,株式会社,東京都,新宿区,富久町１３番１５号,,13,104,1620067,,,2025-02-05,合併による解散等,8011101095383,令和７年２月１日東京都新宿区富久町１３番１５号わらべや日洋食品株式会社（8011101095383）に合併し解散,2015-10-05,1,,,,,プロシスタス,0
826,4020001057892,登記記録の閉鎖等,0,2025-02-17,2025-02-07,株式会社Ｒｓ－ＪＡＰＡＮ,,株式会社,神奈川県,横浜市中区,不老町１丁目１番５号横浜東芝ビル９階,,14,104,2310032,,,2025-02-07,合併による解散等,2180001141237,令和７年２月１日名古屋市中区大須三丁目２５番３１号株式会社コメ兵（2180001141237）に合併し解散,2015-10-05,1,,,,,アールエスジャパン,0
832,4021002029187,登記記録の閉鎖等,0,2025-02-17,2025-02-14,株式会社ベアープランシステム,,株式会社,神奈川県,相模原市緑区,根小屋２４６６番地,,14,151,2520153,,,2025-02-14,清算の結了等,,,2015-10-05,1,,,,,ベアープランシステム,0
841,4030002040863,登記記録の閉鎖等,0,2025-02-17,2025-02-10,有限会社金和,,有限会社,埼玉県,加須市,栄１６０５番地５,,11,210,3491213,,,2025-02-10,清算の結了等,,,2015-10-05,1,,,,,カネワ,0
851,4040001063567,登記記録の閉鎖等,0,2025-02-17,2025-02-10,株式会社正栄堂小笠原,,株式会社,千葉県,香取市,佐原イ５２０番地,,12,236,2870003,,,2025-02-10,清算の結了等,,,2015-10-05,1,,,,,ショウエイドウオガサワラ,0
858,4060001004338,登記記録の閉鎖等,0,2025-02-17,2025-02-10,株式会社ミヤコ自動車商会,,株式会社,栃木県,宇都宮市,桜４丁目１番２７号,,09,201,3200043,,,2025-02-10,清算の結了等,,,2015-10-05,1,,,,,ミヤコジドウシャショウカイ,0
868,4070002002942,登記記録の閉鎖等,0,2025-02-17,2025-02-13,有限会社鈴鹿屋,,有限会社,群馬県,前橋市,富士見町小暮６９９番地９,,10,201,3710103,,,2025-02-13,清算の結了等,,,2015-10-05,1,,,,,スズカヤ,0
870,4080101023293,登記記録の閉鎖等,0,2025-02-17,2025-02-13,株式会社ＴＯＴＡＬ４Ｅ,,株式会社,静岡県,牧之原市,白井１３５９番１,,22,226,4210502,,,2025-02-13,清算の結了等,,,2022-05-18,1,,,,,トータルフォーイ,0
904,4150001017000,登記記録の閉鎖等,0,2025-02-17,2025-02-13,株式会社アーセラジャパン,,株式会社,奈良県,生駒市,真弓南１丁目８番５号,,29,209,6300123,,,2025-02-13,清算の結了等,,,2015-10-05,1,,,,,アーセラジャパン,0
919,4180003026863,登記記録の閉鎖等,0,2025-02-17,2025-02-10,合同会社天伸,,合同会社,愛知県,名古屋市瑞穂区,中根町２丁目６５番地ボックスツリー２０２号,,23,108,4670055,,,2025-02-10,清算の結了等,,,2024-05-31,1,,,,,テンシン,0
922,4190002021773,登記記録の閉鎖等,0,2025-02-17,2025-02-10,有限会社フジ商事,,有限会社,三重県,四日市市,城東町１５番１０号,,24,202,5100824,,,2025-02-10,清算の結了等,,,2015-10-05,1,,,,,フジショウジ,0
931,4220001022315,登記記録の閉鎖等,0,2025-02-17,2025-02-07,株式会社ＥＤＥＮ,,株式会社,石川県,金沢市,片町１丁目９番１５号,,17,201,9200981,,,2025-02-07,清算の結了等,,,2018-06-01,1,,,,,,0
941,4290001059160,登記記録の閉鎖等,0,2025-02-17,2025-01-31,株式会社マシンビジョンシステム,,株式会社,福岡県,福岡市中央区,荒戸２丁目３番４５－６０１号,,40,133,8100062,,,2025-01-31,清算の結了等,,,2015-10-05,1,,,,,マシンビジョンシステム,0
945,4290001075331,登記記録の閉鎖等,0,2025-02-17,2025-01-31,株式会社誠和不動産,,株式会社,福岡県,福岡市中央区,天神５丁目９番２号,,40,133,8100001,,,2025-01-31,清算の結了等,,,2016-10-03,1,,,,,セイワフドウサン,0
947,4290001089595,登記記録の閉鎖等,0,2025-02-17,2025-02-03,アース・ロード株式会社,,株式会社,福岡県,筑後市,大字富重６５１番地４,,40,211,8330051,,,2025-02-03,清算の結了等,,,2020-07-28,1,,,,,アースロード,0
963,4290802012631,登記記録の閉鎖等,0,2025-02-17,2025-02-14,有限会社山王商事,,有限会社,福岡県,北九州市八幡東区,荒生田２丁目２番２９号,,40,108,8050015,,,2025-02-14,清算の結了等,,,2015-10-05,1,,,,,サンノウショウジ,0
964,4310001001499,登記記録の閉鎖等,0,2025-02-17,2025-02-13,長崎ホテルサービス株式会社,,株式会社,長崎県,長崎市,常盤町２番２４号,,42,201,8500843,,,2025-02-13,清算の結了等,,,2015-10-05,1,,,,,ナガサキホテルサービス,0
965,4310003004673,登記記録の閉鎖等,0,2025-02-17,2025-02-14,合同会社北村工務店,,合同会社,長崎県,諫早市,小長井町打越１７６番地,,42,204,8590151,,,2025-02-14,清算の結了等,,,2023-11-02,1,,,,,キタムラコウムテン,0
966,4350002001940,登記記録の閉鎖等,0,2025-02-17,2025-02-13,有限会社サンコー商事,,有限会社,宮崎県,宮崎市,吾妻町１６４番地オリエンタルハイツ１１０１号,,45,201,8800864,,,2025-02-13,清算の結了等,,,2015-10-05,1,,,,,サンコーショウジ,0
978,4430001055368,登記記録の閉鎖等,0,2025-02-17,2025-02-12,丸惣食品株式会社,,株式会社,北海道,日高郡新ひだか町,静内山手町４丁目４番１７号,,01,610,0560024,,,2025-02-12,清算の結了等,,,2025-01-30,1,,,,,マルソウショクヒン,0
1000,5010001155960,登記記録の閉鎖等,0,2025-02-17,2025-02-03,株式会社アイカデザイン,,株式会社,福岡県,福岡市早良区,百道浜３丁目８番３３号,,40,137,8140001,,,2025-02-03,清算の結了等,,,2015-10-05,1,,,,,アイカデザイン,0
1016,5010401087226,登記記録の閉鎖等,0,2025-02-17,2025-01-20,株式会社ＫＰＴワールド,,株式会社,東京都,渋谷区,神宮前６丁目２９番４号原宿ｋｏｍｉｙａビル６階,,13,113,1500001,,,2025-01-20,清算の結了等,,,2015-10-05,1,,,,,ケーピーティーワールド,0
1025,5010403030860,登記記録の閉鎖等,0,2025-02-17,2025-01-28,Ｐｒｏｊｅｃｔ　Ｓｎｏｗ　Ｌｉｍｉｔｅｄ合同会社,,合同会社,東京都,港区,元麻布３丁目１番６号,,13,103,1060046,,,2025-01-28,清算の結了等,,,2023-09-06,1,,,,,プロジェクトスノーリミテッド,0
1032,5010502020127,登記記録の閉鎖等,0,2025-02-17,2025-02-06,有限会社リエゾンドォール,,有限会社,東京都,台東区,蔵前２丁目８番３号,,13,106,1110051,,,2025-02-06,清算の結了等,,,2015-10-05,1,,,,,リエゾンドォール,0
1035,5010701006059,登記記録の閉鎖等,0,2025-02-17,2025-02-03,ツツミ興産株式会社,,株式会社,東京都,品川区,西五反田１丁目２４番１号,,13,109,1410031,,,2025-02-03,清算の結了等,,,2015-10-05,1,,,,,ツツミコウサン,0
1038,5010901034883,登記記録の閉鎖等,0,2025-02-17,2025-02-03,株式会社Ｓｈｉｆｔ,,株式会社,東京都,中央区,築地２丁目１５番１９号,,13,102,1040045,,,2025-02-03,清算の結了等,,,2015-10-05,1,,,,,シフト,0
1061,5011301014014,登記記録の閉鎖等,0,2025-02-17,2025-02-12,株式会社コニストンアソシエイツ,,株式会社,東京都,杉並区,清水３丁目５番１９号,,13,115,1670033,,,2025-02-12,清算の結了等,,,2015-10-05,1,,,,,コニストンアソシエイツ,0
1077,5020001049708,登記記録の閉鎖等,0,2025-02-17,2025-02-03,城間興業株式会社,,株式会社,神奈川県,横浜市鶴見区,潮田町１丁目７６番地の５,,14,101,2300041,,,2025-02-03,清算の結了等,,,2015-10-05,1,,,,,シロマコウギョウ,0
1082,5020001130888,登記記録の閉鎖等,0,2025-02-17,2025-02-07,ティーシー株式会社,,株式会社,神奈川県,横浜市港北区,新横浜３丁目６番地１２,,14,109,2220033,,,2025-02-07,合併による解散等,7021001018907,令和７年２月１日東京都中央区京橋一丁目６番６号アイディ株式会社（7021001018907）に合併し解散,2019-04-23,1,,,,,ティーシー,0
1086,5021001024576,登記記録の閉鎖等,0,2025-02-17,2025-02-07,システムクラフト株式会社,,株式会社,東京都,世田谷区,奥沢５丁目１番１１号メゾンドジョワ２０２,,13,112,1580083,,,2025-02-07,清算の結了等,,,2015-10-05,1,,,,,システムクラフト,0
1090,5030001059565,登記記録の閉鎖等,0,2025-02-17,2025-02-10,株式会社フェアリーアイ,,株式会社,埼玉県,ふじみ野市,上福岡１丁目７番２７号新井ビル５Ｆ,,11,245,3560004,,,2025-02-10,清算の結了等,,,2015-10-05,1,,,,,フェアリーアイ,0
1092,5030001070621,登記記録の閉鎖等,0,2025-02-17,2025-02-10,宮崎総合企画株式会社,00015165,株式会社,埼玉県,坂戸市,大字石井２２４４番地,,11,239,3500212,,,2025-02-10,清算の結了等,,,2015-10-05,1,,,,,ミヤザキソウゴウキカク,0
1113,5060001016423,登記記録の閉鎖等,0,2025-02-17,2025-02-10,株式会社太陽ハウジング,,株式会社,栃木県,栃木市,泉町７番２３号,,09,203,3280014,,,2025-02-10,清算の結了等,,,2015-10-05,1,,,,,タイヨウハウジング,0
1119,5110001010370,登記記録の閉鎖等,0,2025-02-17,2025-02-12,株式会社フィフス,,株式会社,新潟県,新潟市南区,上下諏訪木１０４４番地１９,,15,106,9501214,,,2025-02-12,清算の結了等,,,2015-10-05,1,,,,,フィフス,0
1150,5140005008532,登記記録の閉鎖等,0,2025-02-17,2025-02-13,特定非営利活動法人とまり樹,,その他の設立登記法人,兵庫県,丹波市,山南町谷川字東山３６４２番地,,28,223,6693131,,,2025-02-13,清算の結了等,,,2015-10-05,1,,,,,トマリギ,0
1151,5160001004970,登記記録の閉鎖等,0,2025-02-17,2025-02-13,株式会社三雲製材所,,株式会社,滋賀県,湖南市,三雲１９１番地,,25,211,5203221,,,2025-02-13,清算の結了等,,,2015-10-05,1,,,,,ミクモセイザイショ,0
1159,5180001095356,登記記録の閉鎖等,0,2025-02-17,2025-02-12,株式会社大野工業所,,株式会社,愛知県,知多郡東浦町,大字緒川字大草１番地の８２,,23,442,4702102,,,2025-02-12,清算の結了等,,,2015-10-05,1,,,,,オオノコウギョウショ,0
1161,5180001146324,登記記録の閉鎖等,0,2025-02-17,2025-02-07,株式会社Ｋコネクト,,株式会社,愛知県,名古屋市昭和区,御器所２丁目５番６号,,23,107,4660051,,,2025-02-07,清算の結了等,,,2021-06-03,1,,,,,ケーコネクト,0
1167,5180005014857,登記記録の閉鎖等,0,2025-02-17,2025-02-13,一般社団法人光祥会,00074373,その他の設立登記法人,愛知県,名古屋市中区,古渡町１８番８号,,23,106,4600025,,,2025-02-13,清算の結了等,,,2015-10-05,1,,,,,コウショウカイ,0
1170,5180302017240,登記記録の閉鎖等,0,2025-02-17,2025-02-07,有限会社丸敬自動車,,有限会社,愛知県,安城市,箕輪町新田１１番地４,,23,212,4460051,,,2025-02-07,清算の結了等,,,2015-10-05,1,,,,,マルケイジドウシャ,0
1173,5240001002644,登記記録の閉鎖等,0,2025-02-17,2025-02-14,株式会社木村リース,,株式会社,広島県,広島市安佐北区,口田１丁目２３番１５号,,34,106,7391734,,,2025-02-14,清算の結了等,,,2015-10-05,1,,,,,キムラリース,0
1185,5290003016019,登記記録の閉鎖等,0,2025-02-17,2025-01-30,合同会社介,,合同会社,福岡県,福岡市西区,姪浜駅南４丁目１番１４アイ・ビー・ビーウィル姪浜３０３号,,40,135,8190006,,,2025-01-30,清算の結了等,,,2024-11-05,1,,,,,カイ,0
1192,5310001005037,登記記録の閉鎖等,0,2025-02-17,2025-02-14,株式会社カーソル,,株式会社,長崎県,西彼杵郡長与町,高田郷１００６番地３３７,,42,307,8512127,,,2025-02-14,清算の結了等,,,2015-10-05,1,,,,,カーソル,0
1193,5310001008527,登記記録の閉鎖等,0,2025-02-17,2025-02-12,株式会社有明ホテル,,株式会社,長崎県,雲仙市,小浜町雲仙３８０番地,,42,213,8540621,,,2025-02-12,清算の結了等,,,2015-10-05,1,,,,,ユウメイホテル,0
1202,5360005006299,登記記録の閉鎖等,0,2025-02-17,2025-02-13,一般社団法人西原,,その他の設立登記法人,沖縄県,浦添市,城間２丁目７番１２号,,47,208,9012133,,,2025-02-13,清算の結了等,,,2020-09-24,1,,,,,ニシハラ,0
1204,5380001031316,登記記録の閉鎖等,0,2025-02-17,2025-02-10,株式会社ユーエス・コーポレーション,,株式会社,埼玉県,草加市,柿木町７６０番地,,11,221,3400001,,,2025-02-10,清算の結了等,,,2020-10-30,1,,,,,ユーエスコーポレーション,0
1237,6010001232899,登記記録の閉鎖等,0,2025-02-17,2025-02-03,シェルター工業株式会社,,株式会社,東京都,中央区,銀座８丁目８番６号,,13,102,1040061,,,2025-02-03,清算の結了等,,,2023-02-09,1,,,,,シェルターコウギョウ,0
1241,6010002053642,登記記録の閉鎖等,0,2025-02-17,2025-02-03,有限会社自由が丘ブラン,,有限会社,東京都,中央区,銀座６丁目１３番９号ｂｉｚｃｕｂｅ,,13,102,1040061,,,2025-02-03,清算の結了等,,,2015-10-05,1,,,,,ジユウガオカブラン,0
1247,6010101013563,登記記録の閉鎖等,0,2025-02-17,2025-02-12,株式会社サクセス,,株式会社,東京都,八王子市,東町１２番５号一平ビル５階,,13,201,1920082,,,2025-02-12,清算の結了等,,,2018-12-28,1,,,,,サクセス,0
1248,6010101014958,登記記録の閉鎖等,0,2025-02-17,2025-02-10,株式会社晃華堂,,株式会社,東京都,八王子市,下恩方町５０９番地,,13,201,1920154,,,2025-02-10,清算の結了等,,,2021-11-15,1,,,,,コウカドウ,0
1263,6010501000731,登記記録の閉鎖等,0,2025-02-17,2025-02-06,井上ビル株式会社,,株式会社,東京都,台東区,上野５丁目２２番１号,,13,106,1100005,,,2025-02-06,清算の結了等,,,2015-10-05,1,,,,,イノウエビル,0
1264,6010501021942,登記記録の閉鎖等,0,2025-02-17,2025-02-03,株式会社アクチュアリー．アンド．アカウンタント．アドヴァイザリー,,株式会社,東京都,台東区,池之端４丁目１６番８－１０４号,,13,106,1100008,,,2025-02-03,清算の結了等,,,2015-10-05,1,,,,,,0
1270,6010801001818,登記記録の閉鎖等,0,2025-02-17,2025-02-03,株式会社エムスリー,,株式会社,東京都,大田区,東海３丁目２番６号,,13,111,1430001,,,2025-02-03,合併による解散等,5010801022815,令和７年２月１日東京都大田区東海三丁目２番６号株式会社ビッグアップル（5010801022815）に合併し解散,2015-10-05,1,,,,,エムスリー,0
1287,6011003009253,登記記録の閉鎖等,0,2025-02-17,2025-01-20,エンペラドール合同会社,,合同会社,東京都,渋谷区,東１丁目１１番１４号セントアイブス渋谷１Ａ,,13,113,1500011,,,2025-01-20,清算の結了等,,,2018-10-16,1,,,,,エンペラドール,0
1291,6011005009078,登記記録の閉鎖等,0,2025-02-17,2025-01-17,一般社団法人ビジネス・キャリアメンター協会,,その他の設立登記法人,東京都,渋谷区,宇田川町３７番１１号大久保ビル,,13,113,1500042,,,2025-01-17,清算の結了等,,,2021-06-01,1,,,,,ビジネスキャリヤメンターキョウカイ,0
1292,6011101011301,登記記録の閉鎖等,0,2025-02-17,2025-01-31,株式会社セプト,,株式会社,神奈川県,横浜市南区,井土ケ谷下町４５番地の２,,14,105,2320053,,,2025-01-31,清算の結了等,,,2015-10-05,1,,,,,セプト,0
1303,6011302002215,登記記録の閉鎖等,0,2025-02-17,2025-02-07,有限会社大高工務店,00054489,有限会社,東京都,杉並区,堀ノ内３丁目１４番７号,,13,115,1660013,,,2025-02-07,清算の結了等,,,2015-10-05,1,,,,,オオタカコウムテン,0
1309,6011403004291,登記記録の閉鎖等,0,2025-02-17,2025-02-07,広信合同会社,,合同会社,東京都,板橋区,大谷口上町４０番７号,,13,119,1730032,,,2025-02-07,清算の結了等,,,2024-03-07,1,,,,,コウシン,0
1311,6011503004803,登記記録の閉鎖等,0,2025-02-17,2025-02-10,合同会社ｈａｒｍｏｎｙ,,合同会社,千葉県,印西市,戸神台２丁目１－４ザ・レジデンス千葉ニュータウン中央８３５,,12,231,2701349,,,2025-02-10,清算の結了等,,,2021-06-18,1,,,,,ハーモニー,0
1314,6011701018225,登記記録の閉鎖等,0,2025-02-17,2025-02-07,株式会社Ｍ＆Ｈプラス,,株式会社,東京都,江戸川区,西小松川町２０番１３号,,13,123,1320032,,,2025-02-07,清算の結了等,,,2015-10-05,1,,,,,エムアンドエイチプラス,0
1315,6011801026854,登記記録の閉鎖等,0,2025-02-17,2025-02-06,株式会社Ｒ．Ｍ．Ｃ,,株式会社,東京都,足立区,一ツ家３丁目８－１,,13,121,1210075,,,2025-02-06,清算の結了等,,,2015-10-05,1,,,,,アールエムシー,0
1328,6020002012036,登記記録の閉鎖等,0,2025-02-17,2025-01-31,昭和塗装有限会社,,有限会社,神奈川県,横浜市戸塚区,品濃町５２４番地７,,14,110,2440801,,,2025-01-31,清算の結了等,,,2015-10-05,1,,,,,ショウワトソウ,0
1349,6030002035903,登記記録の閉鎖等,0,2025-02-17,2025-02-10,有限会社丸五畜産,,有限会社,埼玉県,入間市,宮寺２５８６番地の３,,11,225,3580014,,,2025-02-10,清算の結了等,,,2015-10-05,1,,,,,マルゴチクサン,0
1356,6050002043169,登記記録の閉鎖等,0,2025-02-17,2025-02-06,有限会社関東ホーム,,有限会社,茨城県,筑西市,稲野辺３７９番１,,08,227,3080805,,,2025-02-06,清算の結了等,,,2015-10-05,1,,,,,カントウホーム,0
1364,6080101008284,登記記録の閉鎖等,0,2025-02-17,2025-02-12,岡島運輸株式会社,,株式会社,静岡県,富士市,前田９７番地の９,,22,210,4160937,,,2025-02-12,清算の結了等,,,2015-10-05,1,,,,,,0
1366,6080102013795,登記記録の閉鎖等,0,2025-02-17,2025-02-12,有限会社クリタ塗装工業所,,有限会社,静岡県,富士市,伝法８４１番地の１,,22,210,4170061,,,2025-02-12,清算の結了等,,,2015-10-05,1,,,,,クリタトソウコウギョウショ,0
1371,6110002001987,登記記録の閉鎖等,0,2025-02-17,2025-02-14,有限会社クォークエキスパート,,有限会社,新潟県,新潟市東区,東中島１丁目１５番３号,,15,102,9500823,,,2025-02-14,清算の結了等,,,2015-10-05,1,,,,,クォークエキスパート,0
1374,6110003003727,登記記録の閉鎖等,0,2025-02-17,2025-02-13,季絵座合同会社,,合同会社,新潟県,十日町市,中条乙１３３２番地,,15,210,9498616,,,2025-02-13,清算の結了等,,,2018-07-06,1,,,,,トキエザ,0
1407,6180002017548,登記記録の閉鎖等,0,2025-02-17,2025-02-10,有限会社エヌピーエフ,,有限会社,愛知県,名古屋市中川区,大畑町１丁目１２４番地,,23,110,4540843,,,2025-02-10,清算の結了等,,,2015-10-05,1,,,,,エヌピーエフ,0
1409,6180003026911,登記記録の閉鎖等,0,2025-02-17,2025-02-10,合同会社利商,,合同会社,愛知県,北名古屋市,鹿田西赤土４８番地１四季慶１０３号室,,23,234,4810004,,,2025-02-10,清算の結了等,,,2024-06-07,1,,,,,リショウ,0
1411,6180301008248,登記記録の閉鎖等,0,2025-02-17,2025-02-06,株式会社オ・アル環境リサイクル,,株式会社,愛知県,豊橋市,小向町字西小向４９番地１,,23,201,4418003,,,2025-02-06,清算の結了等,,,2015-10-05,1,,,,,オアルカンキョウリサイクル,0
1412,6180302001953,登記記録の閉鎖等,0,2025-02-17,2025-02-12,有限会社ちから,,有限会社,愛知県,岡崎市,竜美中２丁目２番地１,,23,202,4440879,,,2025-02-12,清算の結了等,,,2015-10-05,1,,,,,チカラ,0
1414,6190001012251,登記記録の閉鎖等,0,2025-02-17,2025-02-14,株式会社山月,,株式会社,三重県,桑名市,船馬町３２番地,,24,205,5110011,,,2025-02-14,清算の結了等,,,2015-10-05,1,,,,,サンゲツ,0
1432,6280005004500,登記記録の閉鎖等,0,2025-02-17,2025-02-13,江津駅前商店会協同組合,,その他の設立登記法人,島根県,江津市,江津町１５１７番地５０,,32,207,6950011,,,2025-02-13,清算の結了等,,,2015-10-05,1,,,,,ゴウツエキマエショウテンカイ,0
1454,6340002006154,登記記録の閉鎖等,0,2025-02-17,2025-02-13,有限会社玉利興産,,有限会社,鹿児島県,鹿児島市,田上台２丁目４８番５号,,46,201,8900036,,,2025-02-13,清算の結了等,,,2015-10-05,1,,,,,タマリコウサン,0
1465,6400502000162,登記記録の閉鎖等,0,2025-02-17,2025-02-03,有限会社一関旅館,,有限会社,岩手県,一関市,駅前５番地,,03,209,0210867,,,2025-02-03,清算の結了等,,,2015-10-05,1,,,,,イチノセキリョカン,0
1468,6420002000966,登記記録の閉鎖等,0,2025-02-17,2025-02-07,有限会社京裳呉服店,,有限会社,青森県,青森市,花園２丁目７番２６号,,02,201,0300966,,,2025-02-07,清算の結了等,,,2015-10-05,1,,,,,キョウショウゴフクテン,0
1469,6420002001873,登記記録の閉鎖等,0,2025-02-17,2025-02-07,有限会社チバトレーディング,,有限会社,青森県,青森市,筒井４丁目２番２５号２号室,,02,201,0300944,,,2025-02-07,清算の結了等,,,2015-10-05,1,,,,,チバトレーディング,0
1499,7010401128184,登記記録の閉鎖等,0,2025-02-17,2025-01-24,株式会社ＫｏＫｏＭｉｎｇ,,株式会社,東京都,港区,赤坂４丁目６番３号,,13,103,1070052,,,2025-01-24,清算の結了等,,,2016-11-16,1,,,,,ココミン,0
1502,7010402008823,登記記録の閉鎖等,0,2025-02-17,2025-01-27,有限会社デストロイヤー・カムパニー,,有限会社,東京都,港区,虎ノ門２丁目２番５号共同通信会館２階,,13,103,1050001,,,2025-01-27,清算の結了等,,,2015-10-05,1,,,,,,0
1504,7010405017441,登記記録の閉鎖等,0,2025-02-17,2025-01-23,一般社団法人エムティーアンドエス,,その他の設立登記法人,東京都,港区,芝５丁目１４番１６号,,13,103,1080014,,,2025-01-23,清算の結了等,,,2019-02-12,1,,,,,エムティーアンドエス,0
1510,7010601051756,登記記録の閉鎖等,0,2025-02-17,2025-02-12,クリーンスター株式会社,,株式会社,東京都,江東区,大島７丁目３９番３－３１０号,,13,108,1360072,,,2025-02-12,清算の結了等,,,2017-06-15,1,,,,,クリーンスター,0
1512,7010701039998,登記記録の閉鎖等,0,2025-02-17,2025-02-04,株式会社Ｊａｐａｎ　ＤＨＡホールディングス,,株式会社,東京都,港区,虎ノ門３丁目２２番１４号,,13,103,1050001,,,2025-02-04,合併による解散等,1010401184258,令和７年２月１日東京都港区虎ノ門三丁目２２番１４号クルマテラス株式会社（1010401184258）に合併し解散,2020-10-30,1,,,,,ジャパンディーエイチエーホールディングス,0
1517,7010901029576,登記記録の閉鎖等,0,2025-02-17,2025-01-20,株式会社Ｌｉｌｌｙ,,株式会社,東京都,渋谷区,神宮前１丁目６番地１５号原宿ジュネスビル２階,,13,113,1500001,,,2025-01-20,清算の結了等,,,2015-10-05,1,,,,,リリー,0
1522,7010903003166,登記記録の閉鎖等,0,2025-02-17,2025-02-13,合同会社クレメンティ,,合同会社,東京都,世田谷区,深沢７丁目１３番２号,,13,112,1580081,,,2025-02-13,清算の結了等,,,2016-05-30,1,,,,,クレメンティ,0
1523,7010905003701,登記記録の閉鎖等,0,2025-02-17,2025-02-10,一般社団法人日本ネットワーク技術者協会,,その他の設立登記法人,東京都,世田谷区,鎌田２丁目１４番９号,,13,112,1570077,,,2025-02-10,清算の結了等,,,2018-12-28,1,,,,,ニホンネットワークギジュツシャキョウカイ,0
1532,7011003020275,登記記録の閉鎖等,0,2025-02-17,2025-02-12,合同会社清和産業,,合同会社,東京都,渋谷区,神宮前１丁目５番８号,,13,113,1500001,,,2025-02-12,合併による解散等,3010001020588,令和７年２月１日東京都葛飾区堀切三丁目７番４号清和ビル清和産業株式会社（3010001020588）に合併し解散,2024-10-28,1,,,,,セイワサンギョウ,0
1551,7011802005393,登記記録の閉鎖等,0,2025-02-17,2025-02-06,有限会社トーエイ,,有限会社,東京都,葛飾区,西新小岩４丁目８番２０号,,13,122,1240025,,,2025-02-06,清算の結了等,,,2015-10-05,1,,,,,トーエイ,0
1556,7012702000146,登記記録の閉鎖等,0,2025-02-17,2025-02-12,有限会社安藤正四工務店,,有限会社,東京都,小平市,小川西町５丁目３４番７号,,13,211,1870035,,,2025-02-12,清算の結了等,,,2015-10-05,1,,,,,アンドウマサヨシコウムテン,0
1561,7020001068169,登記記録の閉鎖等,0,2025-02-17,2025-02-03,株式会社トラスティ,,株式会社,神奈川県,川崎市宮前区,有馬４丁目１２番７－３０１号,,14,136,2160003,,,2025-02-03,清算の結了等,,,2015-10-05,1,,,,,トラスティ,0
1563,7020001073251,登記記録の閉鎖等,0,2025-02-17,2025-01-31,株式会社品川ナックス,,株式会社,神奈川県,川崎市川崎区,大島上町１１番９号,,14,131,2100836,,,2025-01-31,清算の結了等,,,2015-10-05,1,,,,,シナガワナックス,0
1565,7020001103479,登記記録の閉鎖等,0,2025-02-17,2025-02-10,株式会社ジャパン・リンク,,株式会社,兵庫県,芦屋市,翠ケ丘町１１番４３号芦屋ハイツ翠ヶ丘３０４号室,,28,206,6590014,,,2025-02-10,清算の結了等,,,2015-10-05,1,,,,,ジャパンリンク,0
1572,7020002039813,登記記録の閉鎖等,0,2025-02-17,2025-02-03,有限会社日本バウ,,有限会社,神奈川県,横浜市鶴見区,馬場７丁目２５番２号,,14,101,2300076,,,2025-02-03,清算の結了等,,,2015-10-05,1,,,,,ニホンバウ,0
1579,7030001033072,登記記録の閉鎖等,0,2025-02-17,2025-02-07,株式会社スワロー大利根,,株式会社,東京都,江戸川区,西葛西６丁目８番１号,,13,123,1340088,,,2025-02-07,合併による解散等,7011701013472,令和７年２月１日東京都江戸川区西葛西六丁目８番１株式会社スワローロジプロ（7011701013472）に合併し解散,2015-10-05,1,,,,,スワローオオトネ,0
1580,7030001089668,登記記録の閉鎖等,0,2025-02-17,2025-02-10,大川興業株式会社,,株式会社,埼玉県,日高市,大字下大谷沢７２番地３,,11,242,3501221,,,2025-02-10,清算の結了等,,,2015-10-05,1,,,,,オオカワコウギョウ,0
1590,7030005010712,登記記録の閉鎖等,0,2025-02-17,2025-02-10,特定非営利活動法人Ｖｉｌｌａｇｅ,,その他の設立登記法人,埼玉県,さいたま市岩槻区,大字真福寺１２０８番地２,,11,110,3390044,,,2025-02-10,清算の結了等,,,2015-10-05,1,,,,,ビレッジ,0
1595,7040002086944,登記記録の閉鎖等,0,2025-02-17,2025-02-10,有限会社鈴木緑化,,有限会社,千葉県,香取市,九美上２８番地,,12,236,2870022,,,2025-02-10,清算の結了等,,,2015-10-05,1,,,,,スズキリョクカ,0
1603,7070003001156,登記記録の閉鎖等,0,2025-02-17,2025-02-13,合同会社金吉,,合同会社,群馬県,みどり市,大間々町大間々１４０２番地,,10,212,3760101,,,2025-02-13,清算の結了等,,,2015-10-05,1,,,,,カネヨシ,0
1604,7080102013571,登記記録の閉鎖等,0,2025-02-17,2025-02-12,岡田運送有限会社,,有限会社,静岡県,富士市,依田橋２０４番地の１,,22,210,4170002,,,2025-02-12,清算の結了等,,,2015-10-05,1,,,,,,0
1608,7100002020616,登記記録の閉鎖等,0,2025-02-17,2025-02-06,有限会社高野自動車整備工場,,有限会社,長野県,松本市,高宮東４番２０号,,20,202,3900835,,,2025-02-06,清算の結了等,,,2015-10-05,1,,,,,タカノジドウシャセイビコウジョウ,0
1610,7110001038823,登記記録の閉鎖等,0,2025-02-17,2025-02-13,フォロメシア株式会社,,株式会社,新潟県,南蒲原郡田上町,大字羽生田丙１１１番地９,,15,361,9591512,,,2025-02-13,清算の結了等,,,2024-11-05,1,,,,,フォロメシア,0
1638,7150001007790,登記記録の閉鎖等,0,2025-02-17,2025-02-13,株式会社イーエステクノ,,株式会社,奈良県,生駒市,真弓南１丁目８番５号,,29,209,6300123,,,2025-02-13,清算の結了等,,,2015-10-05,1,,,,,イーエステクノ,0
1645,7180001121234,登記記録の閉鎖等,0,2025-02-17,2025-02-12,株式会社デコンス,,株式会社,愛知県,名古屋市中区,丸の内３丁目７番２９号,,23,106,4600002,,,2025-02-12,清算の結了等,,,2015-12-07,1,,,,,デコンス,0
1658,7200001030779,登記記録の閉鎖等,0,2025-02-17,2025-02-14,株式会社ニシバ,,株式会社,岐阜県,多治見市,大針町６７４番地の１４,,21,204,5070062,,,2025-02-14,清算の結了等,,,2015-10-05,1,,,,,,0
1663,7230001011066,登記記録の閉鎖等,0,2025-02-17,2025-02-12,株式会社メタリックス,,株式会社,富山県,富山市,婦中町速星２３９番地３,,16,201,9392706,,,2025-02-12,清算の結了等,,,2015-10-05,1,,,,,メタリックス,0
1678,7290001043681,登記記録の閉鎖等,0,2025-02-17,2025-02-03,株式会社アイコントロールシステム,,株式会社,福岡県,福岡市東区,松島１丁目４６番１２号,,40,131,8120062,,,2025-02-03,清算の結了等,,,2015-10-05,1,,,,,アイコントロールシステム,0
1719,7430002002894,登記記録の閉鎖等,0,2025-02-17,2025-02-12,有限会社駅前ショップふじ,,有限会社,北海道,札幌市手稲区,星置二条３丁目１４番１４号,,01,109,0060852,,,2025-02-12,清算の結了等,,,2015-10-05,1,,,,,エキマエショップフジ,0
1724,7460105001717,登記記録の閉鎖等,0,2025-02-17,2025-02-14,十勝林産協同組合,,その他の設立登記法人,北海道,河東郡音更町,駒場南二条通２番地,,01,631,0800566,,,2025-02-14,清算の結了等,,,2015-10-05,1,,,,,トカチリンサン,0
1742,8010401036329,登記記録の閉鎖等,0,2025-02-17,2025-01-24,株式会社ピーアンドディー,,株式会社,東京都,港区,南青山１丁目１５番３７号,,13,103,1070062,,,2025-01-24,清算の結了等,,,2015-10-05,1,,,,,ピーアンドディー,0
1746,8010401116460,登記記録の閉鎖等,0,2025-02-17,2025-01-27,株式会社キャリエール,,株式会社,東京都,港区,北青山２丁目５番８号,,13,103,1070061,,,2025-01-27,清算の結了等,,,2015-10-05,1,,,,,キャリエール,0
1763,8010703004000,登記記録の閉鎖等,0,2025-02-17,2025-02-03,Ｋｒａｕｓｓ　ＪＰ合同会社,,合同会社,東京都,品川区,上大崎２丁目５番３号,,13,109,1410021,,,2025-02-03,清算の結了等,,,2017-12-15,1,,,,,クラウスジェーピー,0
1769,8010902007274,登記記録の閉鎖等,0,2025-02-17,2025-02-12,有限会社真気学會,,有限会社,東京都,世田谷区,八幡山３丁目１６番６号,,13,112,1560056,,,2025-02-12,清算の結了等,,,2015-10-05,1,,,,,シンキガッカイ,0
1776,8011003010515,登記記録の閉鎖等,0,2025-02-17,2025-01-16,Ａｍｅｒｉｃａｎ　Ｅａｇｌｅ　Ｏｕｔｆｉｔｔｅｒｓ　Ｊａｐａｎ合同会社,,合同会社,東京都,渋谷区,桜丘町２６番１号セルリアンタワー１５階,,13,113,1500031,,,2025-01-16,清算の結了等,,,2019-11-12,1,,,,,アメリカンイーグルアウトフィッターズジャパン,0
1788,8011301022550,登記記録の閉鎖等,0,2025-02-17,2025-02-06,株式会社ＮＡＭＵ　ＰＬＵＳ,,株式会社,東京都,杉並区,上荻１丁目１９番１０号,,13,115,1670043,,,2025-02-06,清算の結了等,,,2016-09-15,1,,,,,,0
1805,8020001002473,登記記録の閉鎖等,0,2025-02-17,2025-01-28,株式会社丸弘,,株式会社,神奈川県,横浜市緑区,霧が丘６丁目１８番３号,,14,113,2260016,,,2025-01-28,清算の結了等,,,2015-10-05,1,,,,,マルヒロ,0
1811,8020002089023,登記記録の閉鎖等,0,2025-02-17,2025-01-30,有限会社三晃紙業,,有限会社,神奈川県,川崎市高津区,千年２５６番地１メイツ武蔵小杉富士見台６０４号,,14,134,2130022,,,2025-01-30,清算の結了等,,,2015-10-05,1,,,,,サンコウシギョウ,0
1814,8020003010961,登記記録の閉鎖等,0,2025-02-17,2025-01-31,合同会社わもか,,合同会社,神奈川県,横浜市港北区,日吉本町６丁目１３番７号,,14,109,2230062,,,2025-01-31,清算の結了等,,,2016-02-18,1,,,,,ワモカ,0
1834,8030002035950,登記記録の閉鎖等,0,2025-02-17,2025-02-10,マルゴ商事有限会社,,有限会社,埼玉県,入間市,宮寺２５８６番地３,,11,225,3580014,,,2025-02-10,清算の結了等,,,2015-10-05,1,,,,,マルゴショウジ,0
1835,8030002086259,登記記録の閉鎖等,0,2025-02-17,2025-02-10,有限会社サントップ企画,,有限会社,埼玉県,越谷市,大字砂原東１５６９番地１,,11,222,3430803,,,2025-02-10,清算の結了等,,,2015-10-05,1,,,,,サントップキカク,0
1844,8040003004937,登記記録の閉鎖等,0,2025-02-17,2025-02-10,合同会社山治,,合同会社,千葉県,千葉市美浜区,真砂２丁目１５番３棟１００３号,,12,106,2610011,,,2025-02-10,清算の結了等,,,2015-10-05,1,,,,,ヤマジ,0
1871,8120001018534,登記記録の閉鎖等,0,2025-02-17,2025-02-10,ハリキ産業株式会社,,株式会社,大阪府,東大阪市,新池島町１丁目２番２３号,,27,227,5798065,,,2025-02-10,清算の結了等,,,2015-10-05,1,,,,,ハリキサンギョウ,0
1889,8120902019829,登記記録の閉鎖等,0,2025-02-17,2025-02-07,有限会社まつや電器商会,,有限会社,大阪府,豊中市,服部元町１丁目２番６号,,27,203,5610851,,,2025-02-07,清算の結了等,,,2015-10-05,1,,,,,マツヤデンキショウカイ,0
1893,8130003007071,登記記録の閉鎖等,0,2025-02-17,2025-02-06,ＫＹＯＴＯ　ＹＯＯＳＡＮ合同会社,,合同会社,京都府,与謝郡与謝野町,字後野８１１番地２,,26,465,6292404,,,2025-02-06,清算の結了等,,,2021-03-15,1,,,,,キョウトヨウサン,0
1898,8140002061382,登記記録の閉鎖等,0,2025-02-17,2025-02-07,有限会社大村電機,,有限会社,兵庫県,加東市,喜田８１番地,,28,228,6731465,,,2025-02-07,清算の結了等,,,2015-10-05,1,,,,,オオムラデンキ,0
1905,8180001125779,登記記録の閉鎖等,0,2025-02-17,2025-02-12,アイルｃａｆｅ株式会社,,株式会社,愛知県,名古屋市中川区,野田２丁目４５０番地,,23,110,4540912,,,2025-02-12,清算の結了等,,,2016-12-07,1,,,,,アイルカフェ,0
1912,8180003026884,登記記録の閉鎖等,0,2025-02-17,2025-02-10,合同会社六一六,,合同会社,愛知県,北名古屋市,鹿田坂巻５３番地,,23,234,4810004,,,2025-02-10,清算の結了等,,,2024-06-04,1,,,,,ロクイチロク,0
1913,8180003026934,登記記録の閉鎖等,0,2025-02-17,2025-02-10,合同会社成太,,合同会社,愛知県,北名古屋市,徳重米野１４８番地スコレＢ館１０６号,,23,234,4810038,,,2025-02-10,清算の結了等,,,2024-06-12,1,,,,,ショウダイ,0
1914,8180003026950,登記記録の閉鎖等,0,2025-02-17,2025-02-10,合同会社アート,,合同会社,愛知県,北名古屋市,鹿田２５１２番地１グリーンシティＤ－３１９,,23,234,4810004,,,2025-02-10,清算の結了等,,,2024-06-14,1,,,,,アート,0
1923,8230002003144,登記記録の閉鎖等,0,2025-02-17,2025-02-12,有限会社北越館,,有限会社,富山県,富山市,桜町１丁目３番５号,,16,201,9300003,,,2025-02-12,清算の結了等,,,2015-10-05,1,,,,,ホクエツカン,0
1924,8240001003994,登記記録の閉鎖等,0,2025-02-17,2025-02-14,株式会社サンキ工業,,株式会社,広島県,広島市安佐南区,伴北５丁目２９５０番地,,34,105,7313163,,,2025-02-14,清算の結了等,,,2015-10-05,1,,,,,,0
1927,8240003001996,登記記録の閉鎖等,0,2025-02-17,2025-02-13,大樹合資会社,,合資会社,広島県,尾道市,栗原町１－５,,34,205,7220022,,,2025-02-13,清算の結了等,,,2015-10-05,1,,,,,タイキ,0
1938,8290001039349,登記記録の閉鎖等,0,2025-02-17,2025-01-28,ウォーターキング九州株式会社,,株式会社,福岡県,糟屋郡宇美町,四王寺坂３丁目１８番２２号,,40,341,8112103,,,2025-01-28,清算の結了等,,,2015-10-05,1,,,,,ウォーターキングキュウシュウ,0
1950,8290005014182,登記記録の閉鎖等,0,2025-02-17,2025-01-31,一般社団法人ｅ‐ＺＵＫＡ　Ｔｅｃｈ　Ｓｔｕｄｉｏ,,その他の設立登記法人,福岡県,飯塚市,幸袋５３０番地２５,,40,205,8200066,,,2025-01-31,清算の結了等,,,2015-10-05,1,,,,,イイヅカテックスタジオ,0
1952,8300003000488,登記記録の閉鎖等,0,2025-02-17,2025-02-13,合同会社寺崎組,00109073,合同会社,佐賀県,三養基郡みやき町,大字原古賀３０８番地,,41,346,8490101,,,2025-02-13,清算の結了等,,,2015-10-05,1,,,,,テラサキグミ,0
1954,8310002002154,登記記録の閉鎖等,0,2025-02-17,2025-02-14,有限会社サンライズ企画,,有限会社,長崎県,長崎市,花丘町１３番２１－１号,,42,201,8528153,,,2025-02-14,清算の結了等,,,2015-10-05,1,,,,,サンライズキカク,0
1962,8340005004021,登記記録の閉鎖等,0,2025-02-17,2025-02-07,医療法人明光,,その他の設立登記法人,鹿児島県,指宿市,湊１丁目１１番４５号,,46,210,8910405,,,2025-02-07,清算の結了等,,,2015-10-05,1,,,,,メイコウ,0
1965,8350002015714,登記記録の閉鎖等,0,2025-02-17,2025-02-12,有限会社アレンジスタージャパン,,有限会社,宮崎県,都城市,庄内町８６９３番地４,,45,202,8850114,,,2025-02-12,清算の結了等,,,2015-10-05,1,,,,,アレンジスタージャパン,0
1973,8430001043468,登記記録の閉鎖等,0,2025-02-17,2025-02-10,エルドラード株式会社,,株式会社,千葉県,千葉市美浜区,真砂２丁目１４番１－３０４号,,12,106,2610011,,,2025-02-10,清算の結了等,,,2015-10-05,1,,,,,エルドラード,0
1983,8500002016622,登記記録の閉鎖等,0,2025-02-17,2025-02-12,有限会社高橋酒店,,有限会社,愛媛県,新居浜市,中須賀町２丁目７番６号,,38,205,7920012,,,2025-02-12,清算の結了等,,,2015-10-05,1,,,,,タカハシサケテン,0
2005,9010401062349,登記記録の閉鎖等,0,2025-02-17,2025-01-24,株式会社ＭＵＳＩＣＩＡＮ,,株式会社,東京都,港区,赤坂９丁目１番７－４８０号,,13,103,1070052,,,2025-01-24,清算の結了等,,,2015-10-05,1,,,,,,0
2030,9010903008114,登記記録の閉鎖等,0,2025-02-17,2025-02-03,ＬＹＮＸ．合同会社,,合同会社,東京都,世田谷区,松原４丁目９―１７ＫＴビルＢ１,,13,112,1560043,,,2025-02-03,清算の結了等,,,2023-04-19,1,,,,,リンクス,0
2049,9011402002698,登記記録の閉鎖等,0,2025-02-17,2025-02-12,有限会社共栄商事,,有限会社,東京都,荒川区,西日暮里３丁目１８番７号,,13,118,1160013,,,2025-02-12,清算の結了等,,,2015-10-05,1,,,,,キョウエイショウジ,0
2057,9011801038772,登記記録の閉鎖等,0,2025-02-17,2025-02-06,ぐっどむーびー株式会社,,株式会社,東京都,足立区,千住橋戸町１－２０ＡＱＵＡＶＩＳＴＡ８１８,,13,121,1200038,,,2025-02-06,清算の結了等,,,2021-02-17,1,,,,,グッドムービー,0
2061,9012302001534,登記記録の閉鎖等,0,2025-02-17,2025-02-13,有限会社清野タイル店,,有限会社,東京都,町田市,野津田町１３８２番地８,,13,209,1950063,,,2025-02-13,清算の結了等,,,2015-10-05,1,,,,,,0
2067,9020001018122,登記記録の閉鎖等,0,2025-02-17,2024-12-27,株式会社鶴見工業,,株式会社,神奈川県,横浜市鶴見区,元宮１丁目１７番８号,,14,101,2300004,,,2024-12-27,清算の結了等,,,2015-10-05,1,,,,,ツルミコウギョウ,0
2075,9020001133037,登記記録の閉鎖等,0,2025-02-17,2025-01-31,株式会社フィールドウェーブ,,株式会社,神奈川県,横浜市神奈川区,白幡上町３８番１６号,,14,102,2210075,,,2025-01-31,清算の結了等,,,2019-10-08,1,,,,,フィールドウェーブ,0
2098,9030003004334,登記記録の閉鎖等,0,2025-02-17,2025-02-06,合同会社カタリベ,,合同会社,東京都,板橋区,上板橋２丁目５２番６号メゾン・ド・和３０３号,,13,119,1740076,,,2025-02-06,清算の結了等,,,2015-10-05,1,,,,,,0
2114,9050002036285,登記記録の閉鎖等,0,2025-02-17,2025-02-05,有限会社笠原事務所,,有限会社,茨城県,取手市,青柳３６２番地の２７,,08,217,3020006,,,2025-02-05,清算の結了等,,,2015-10-05,1,,,,,カサハラジムショ,0
2116,9060001019067,登記記録の閉鎖等,0,2025-02-17,2025-02-10,株式会社ハル,,株式会社,栃木県,足利市,山川町２３番地９,,09,202,3260021,,,2025-02-10,清算の結了等,,,2015-10-05,1,,,,,ハル,0
2117,9060001032994,登記記録の閉鎖等,0,2025-02-17,2025-02-12,株式会社ＲＥＡ　ＭＡＲＩＺ　ＣＯＬＬＥＣＴＩＯＮ,,株式会社,栃木県,足利市,福居町１８０２番地１レーベン・モーアＣ,,09,202,3260338,,,2025-02-12,清算の結了等,,,2020-09-30,1,,,,,レアマリズコレクション,0
2121,9070002031937,登記記録の閉鎖等,0,2025-02-17,2025-02-14,有限会社小林建築,,有限会社,群馬県,太田市,別所町５０２番地,,10,205,3730041,,,2025-02-14,清算の結了等,,,2015-10-05,1,,,,,コバヤシケンチク,0
2165,9180001096292,登記記録の閉鎖等,0,2025-02-17,2025-02-12,株式会社エムテック,,株式会社,愛知県,知多市,にしの台１丁目７０２番地の１,,23,224,4780055,,,2025-02-12,清算の結了等,,,2015-10-05,1,,,,,エムテック,0
2167,9180001161798,登記記録の閉鎖等,0,2025-02-17,2025-02-13,株式会社ロテレ,,株式会社,愛知県,名古屋市西区,中小田井１丁目３８６番地,,23,104,4520822,,,2025-02-13,清算の結了等,,,2024-06-04,1,,,,,ロテレ,0
2196,9290003003252,登記記録の閉鎖等,0,2025-02-17,2025-02-03,合名会社樫原商事,,合名会社,福岡県,大牟田市,久保田町１丁目１番地の１８,,40,202,8360045,,,2025-02-03,清算の結了等,,,2015-10-05,1,,,,,カシハラショウジ,0
2198,9290801000252,登記記録の閉鎖等,0,2025-02-17,2025-02-03,池畑産業株式会社,,株式会社,福岡県,北九州市戸畑区,牧山新町７番８号,,40,105,8040054,,,2025-02-03,清算の結了等,,,2024-12-10,1,,,,,イケハタサンギョウ,0
2203,9310001005677,登記記録の閉鎖等,0,2025-02-17,2025-02-10,大和金属株式会社,,株式会社,長崎県,佐世保市,桑木場町２５９８番地,,42,202,8593157,,,2025-02-10,清算の結了等,,,2015-10-05,1,,,,,ダイワキンゾク,0
2214,9400005008353,登記記録の閉鎖等,0,2025-02-17,2025-02-05,一般社団法人Ｃｒａｆｔ　Ｂａｓｉｃ,,その他の設立登記法人,岩手県,盛岡市,好摩字野中２８番地２１８,,03,201,0284125,,,2025-02-05,清算の結了等,,,2023-07-27,1,,,,,クラフトベーシック,0
2219,9460303000691,登記記録の閉鎖等,0,2025-02-17,2025-02-12,合同会社アルス３Ｄ・ＪＡＰＡＮ,,合同会社,北海道,網走郡大空町,女満別西四条２丁目４番,,01,564,0992324,,,2025-02-12,清算の結了等,,,2020-08-04,1,,,,,アルススリーディージャパン,0
2222,9480003002160,登記記録の閉鎖等,0,2025-02-17,2025-02-13,合同会社ＭＡＫＩＨＡＲＵ,,合同会社,徳島県,阿南市,那賀川町工地２７３番地２２,,36,204,7791236,,,2025-02-13,清算の結了等,,,2024-07-11,1,,,,,マキハル,0
