sequenceNumber,corporateNumber,process,correct,updateDate,changeDate,name,nameImageId,kind,prefectureName,cityName,streetNumber,addressImageId,prefectureCode,cityCode,postCode,addressOutside,addressOutsideImageId,closeDate,closeCause,successorCorporateNumber,changeCause,assignmentDate,latest,enName,enPrefectureName,enCityName,enAddressOutside,furigana,hihyoji
8,1010001252596,新規,0,2025-02-27,2025-02-27,株式会社ＷＯＲＫＳＯＵＴ,,株式会社,東京都,中央区,入船１丁目７番８号,,13,102,1040042,,,,,,,2025-02-27,1,,,,,ワークスアウト,0
9,1010001252605,新規,0,2025-02-27,2025-02-27,ＥＧトレーディング株式会社,,株式会社,東京都,千代田区,丸の内１丁目６番５号丸の内北口ビルディング９階,,13,101,1000005,,,,,,,2025-02-27,1,,,,,イージートレーディング,0
10,1010001252613,新規,0,2025-02-27,2025-02-27,株式会社Ｃｏ．ｍｏｒｅ‐ｂｅ,,株式会社,東京都,中央区,日本橋箱崎町７番２号,,13,102,1030015,,,,,,,2025-02-27,1,,,,,,0
12,1010003046542,新規,0,2025-02-27,2025-02-27,ＩＤＥＮＴＩＴＹ　ＣＡＰＩＴＡＬ合同会社,,合同会社,東京都,千代田区,神田和泉町１番地６の１６ヤマトビル４０５,,13,101,1010024,,,,,,,2025-02-27,1,,,,,アイデンティティキャピタル,0
13,1010003046550,新規,0,2025-02-27,2025-02-27,ＫＡＭＩ＆ＦＵＪＩ合同会社,,合同会社,東京都,文京区,湯島２丁目２２番１３－９０３号,,13,105,1130034,,,,,,,2025-02-27,1,,,,,カミアンドフジ,0
14,1010003046583,新規,0,2025-02-27,2025-02-27,ツインロータス合同会社,,合同会社,東京都,文京区,大塚６丁目３０－７,,13,105,1120012,,,,,,,2025-02-27,1,,,,,ツインロータス,0
15,1010005039635,新規,0,2025-02-27,2025-02-27,一般社団法人Ｔｏｇｅｔ‐ＨＥＲ,,その他の設立登記法人,東京都,千代田区,神田和泉町１番地６－１６ヤマトビル４０５,,13,101,1010024,,,,,,,2025-02-27,1,,,,,トゥゲザー,0
29,1010405024113,新規,0,2025-02-27,2025-02-27,ジー・エイ・ワン・レジデンス・ナイン一般社団法人,,その他の設立登記法人,東京都,港区,虎ノ門５丁目１番４号,,13,103,1050001,,,,,,,2025-02-27,1,,,,,ジーエイワンレジデンスナイン,0
30,1010503007738,新規,0,2025-02-27,2025-02-27,ＹＨＴＳ　ＳＴＵＤＩＯＳ合同会社,,合同会社,東京都,台東区,谷中６丁目１番２１号,,13,106,1100001,,,,,,,2025-02-27,1,,,,,ワイエイチティエススタジオズ,0
32,1010601066842,新規,0,2025-02-27,2025-02-27,Ｂｒｉｇｈｔ　Ｓｅａ　Ｈｏｌｄｉｎｇｓ株式会社,,株式会社,東京都,江東区,有明１丁目４―２０ブリリア有明スカイタワー２９１７,,13,108,1350063,,,,,,,2025-02-27,1,,,,,ブライトシーホールディングス,0
33,1010601066850,新規,0,2025-02-27,2025-02-27,株式会社ネオナ,,株式会社,東京都,墨田区,石原３丁目７番１０号,,13,107,1300011,,,,,,,2025-02-27,1,,,,,ネオナ,0
46,1011001167966,新規,0,2025-02-27,2025-02-27,ＥｄｕｓａｍａＪａｐａｎ株式会社,,株式会社,東京都,渋谷区,南平台町２－８日興パレス南平台アヅマ＃５０１,,13,113,1500036,,,,,,,2025-02-27,1,,,,,エデュサマジャパン,0
47,1011001168007,新規,0,2025-02-27,2025-02-27,株式会社ラメ,,株式会社,東京都,渋谷区,松濤２丁目１５番５－５０２号,,13,113,1500046,,,,,,,2025-02-27,1,,,,,,0
48,1011001168089,新規,0,2025-02-27,2025-02-27,株式会社ガチコレ,,株式会社,東京都,渋谷区,富ヶ谷１丁目３９番１３号,,13,113,1510063,,,,,,,2025-02-27,1,,,,,ガチコレ,0
53,1011101110735,新規,0,2025-02-27,2025-02-27,株式会社Ｎｅｗ　Ｖａｌｕｅ,,株式会社,東京都,新宿区,西新宿８丁目１６番１,,13,104,1600023,,,,,,,2025-02-27,1,,,,,ニューバリュー,0
55,1011103015569,新規,0,2025-02-27,2025-02-27,合同会社リモエ,,合同会社,東京都,新宿区,神楽坂６丁目４２神楽坂喜多川ビル８階,,13,104,1620825,,,,,,,2025-02-27,1,,,,,リモエ,0
67,1011801045685,新規,0,2025-02-27,2025-02-27,株式会社オフィスＫＴ,,株式会社,東京都,足立区,東和３丁目１３番１－８１７号,,13,121,1200003,,,,,,,2025-02-27,1,,,,,オフィスケーティー,0
70,1012401042809,新規,0,2025-02-27,2025-02-27,吟遊詩人株式会社,,株式会社,東京都,武蔵野市,吉祥寺本町２丁目１２－２仲田ビルＢ１,,13,203,1800004,,,,,,,2025-02-27,1,,,,,ギンユウシジン,0
71,1012401042825,新規,0,2025-02-27,2025-02-27,株式会社ＳＡＫＩＲＡ,,株式会社,東京都,府中市,白糸台３丁目２９番地の７,,13,206,1830011,,,,,,,2025-02-27,1,,,,,サキラ,0
74,1012403006992,新規,0,2025-02-27,2025-02-27,ＳＴＡＲＴＯＷＡＲＤ合同会社,,合同会社,東京都,府中市,住吉町４丁目７番地の１８,,13,206,1830034,,,,,,,2025-02-27,1,,,,,スタートウォード,0
75,1012705002450,新規,0,2025-02-27,2025-02-27,一般社団法人内雅会,,その他の設立登記法人,東京都,小平市,喜平町１丁目９番８－１号,,13,211,1870044,,,,,,,2025-02-27,1,,,,,ダイガカイ,0
86,1020001161557,新規,0,2025-02-27,2025-02-27,株式会社ＧＲＳインベストメント,,株式会社,神奈川県,横浜市港北区,日吉本町２丁目３１－２－５１５号,,14,109,2230062,,,,,,,2025-02-27,1,,,,,ジーアールエスインベストメント,0
87,1020001161598,新規,0,2025-02-27,2025-02-27,株式会社ＹＡＨＩＫＯ　ＡＵＴＯ,,株式会社,神奈川県,川崎市宮前区,宮崎３丁目１２番地３－３０１,,14,136,2160033,,,,,,,2025-02-27,1,,,,,ヤヒコオート,0
98,1021001084541,新規,0,2025-02-27,2025-02-27,メイゼンミライ株式会社,,株式会社,神奈川県,相模原市中央区,清新７丁目１－１,,14,152,2520216,,,,,,,2025-02-27,1,,,,,メイゼンミライ,0
105,1030001165053,新規,0,2025-02-27,2025-02-27,株式会社ＡＱＵＡＲＯＯＦ,,株式会社,埼玉県,川口市,大字芝４３６３番地の２シャーメゾンアイＧ,,11,203,3330866,,,,,,,2025-02-27,1,,,,,アクアルーフ,0
110,1030005022052,新規,0,2025-02-27,2025-02-27,一般社団法人宏雅会,,その他の設立登記法人,埼玉県,狭山市,大字水野４４３番地の３９,,11,215,3501317,,,,,,,2025-02-27,1,,,,,コウガカイ,0
114,1040001137547,新規,0,2025-02-27,2025-02-27,株式会社ベビーウェルネス,,株式会社,千葉県,市川市,富浜２丁目１１番８－１０５号（第３赤城コーポ）,,12,203,2720115,,,,,,,2025-02-27,1,,,,,ベビーウェルネス,0
115,1040001137555,新規,0,2025-02-27,2025-02-27,株式会社喜世来,,株式会社,千葉県,木更津市,ほたる野３丁目２６番地３,,12,206,2920038,,,,,,,2025-02-27,1,,,,,キセキ,0
116,1040001137563,新規,0,2025-02-27,2025-02-27,株式会社ライアン,,株式会社,千葉県,市川市,行徳駅前４丁目１８番１号行徳第一マンション３０５,,12,203,2720133,,,,,,,2025-02-27,1,,,,,ライアン,0
117,1040001137571,新規,0,2025-02-27,2025-02-27,株式会社ジェーワード,,株式会社,千葉県,船橋市,夏見台４丁目１７番地４号,,12,204,2730866,,,,,,,2025-02-27,1,,,,,ジェーワード,0
121,1050001056218,新規,0,2025-02-27,2025-02-27,株式会社ｎａｎａ,,株式会社,茨城県,取手市,井野７５８番地５,,08,217,3020011,,,,,,,2025-02-27,1,,,,,ナナ,0
123,1050003009058,新規,0,2025-02-27,2025-02-27,ＴＲＩＥＵ　ＱＵＡＮＧ合同会社,,合同会社,茨城県,鉾田市,鉾田１０９番地ＨＫ１０９,,08,234,3111517,,,,,,,2025-02-27,1,,,,,チウクアン,0
136,1100005013300,新規,0,2025-02-27,2025-02-27,労働者協同組合ワーカーズ・コレクティブ楽Ｌｕｃｋ,,その他の設立登記法人,長野県,東御市,滋野乙４４４２－１１,,20,219,3890512,,,,,,,2025-02-27,1,,,,,ワーカーズコレクティブラクラック,0
140,1110003005678,新規,0,2025-02-27,2025-02-27,合同会社モアスピード,,合同会社,新潟県,長岡市,西宮内２丁目１５１,,15,202,9401162,,,,,,,2025-02-27,1,,,,,モアスピード,0
153,1120001273078,新規,0,2025-02-27,2025-02-27,ｆｏｒｍ株式会社,,株式会社,大阪府,大阪市中央区,南船場３丁目２番２２号おおきに南船場ビル２０５,,27,128,5420081,,,,,,,2025-02-27,1,,,,,フォーム,0
154,1120001273160,新規,0,2025-02-27,2025-02-27,三金浩月株式会社,,株式会社,大阪府,大阪市中央区,松屋町９番２０号ローレルステート松屋町７０６Ａ,,27,128,5420067,,,,,,,2025-02-27,1,,,,,サンキンコウゲツ,0
155,1120001273169,新規,0,2025-02-27,2025-02-27,達智商事株式会社,,株式会社,大阪府,大阪市浪速区,日本橋東３丁目７－７川田ビル４Ｆ,,27,111,5560006,,,,,,,2025-02-27,1,,,,,タツチショウジ,0
156,1120001273268,新規,0,2025-02-27,2025-02-27,株式会社リュークルークリエーターズ,,株式会社,大阪府,大阪市北区,曾根崎新地１丁目１３番２２号,,27,127,5300002,,,,,,,2025-02-27,1,,,,,リュークルークリエーターズ,0
159,1120103006294,新規,0,2025-02-27,2025-02-27,合同会社Ｙ’ｓ,,合同会社,大阪府,和泉市,小田町５８６番地の１メゾンドールラーバン和泉１－５１５,,27,219,5940074,,,,,,,2025-02-27,1,,,,,ワイズ,0
169,1140003021706,新規,0,2025-02-27,2025-02-27,合同会社御城設備,,合同会社,兵庫県,宝塚市,鹿塩１丁目４－３０,,28,214,6650054,,,,,,,2025-02-27,1,,,,,オシロセツビ,0
170,1140003021714,新規,0,2025-02-27,2025-02-27,ＵｍｉＮｅ合同会社,,合同会社,兵庫県,宝塚市,月見山２丁目３番２１号,,28,214,6650002,,,,,,,2025-02-27,1,,,,,ウミネ,0
173,1150001027902,新規,0,2025-02-27,2025-02-27,ハッピィグリーン株式会社,,株式会社,奈良県,奈良市,学園大和町１丁目１３６９－４－２０６,,29,201,6310041,,,,,,,2025-02-27,1,,,,,ハッピィグリーン,0
174,1160001026572,新規,0,2025-02-27,2025-02-27,ＧＥＪ株式会社,,株式会社,滋賀県,長浜市,勝町１１５番地,,25,203,5260042,,,,,,,2025-02-27,1,,,,,ジーイージェー,0
185,1190005012021,新規,0,2025-02-27,2025-02-27,一般社団法人日本フックドラグ協会,,その他の設立登記法人,三重県,南牟婁郡御浜町,大字栗須１７８番地２,,24,561,5195326,,,,,,,2025-02-27,1,,,,,ニホンフックドラグキョウカイ,0
186,1200001043464,新規,0,2025-02-27,2025-02-27,株式会社ＯＤＯＲＩＧＩ,,株式会社,岐阜県,郡上市,明宝気良１７９４番地,,21,219,5014303,,,,,,,2025-02-27,1,,,,,オドリギ,0
188,1200003006709,新規,0,2025-02-27,2025-02-27,合同会社にしの屋,,合同会社,岐阜県,土岐市,泉町大富２７４番地の２,,21,212,5095132,,,,,,,2025-02-27,1,,,,,ニシノヤ,0
193,1210005010187,新規,0,2025-02-27,2025-02-27,行政書士法人日本綜研,,その他の設立登記法人,福井県,福井市,手寄１丁目２０番１号,,18,201,9100858,,,,,,,2025-02-27,1,,,,,ニホンソウケン,0
198,1240003007083,新規,0,2025-02-27,2025-02-27,合同会社星あい,,合同会社,広島県,広島市西区,大芝１丁目１７番４－３０３号,,34,104,7330001,,,,,,,2025-02-27,1,,,,,ホシアイ,0
202,1260001039944,新規,0,2025-02-27,2025-02-27,株式会社Ｓ．ｈ．ｉ．ｖ．ａ,,株式会社,岡山県,笠岡市,中央町３３番地５,,33,205,7140088,,,,,,,2025-02-27,1,,,,,シバ,0
207,1290003016385,新規,0,2025-02-27,2025-02-27,合同会社ＢＬＡＺＥ,,合同会社,福岡県,福岡市博多区,博多駅前１丁目２３番２号ＰａｒｋＦｒｏｎｔ博多駅前１丁目５Ｆ－Ｂ,,40,132,8120011,,,,,,,2025-02-27,1,,,,,ブレイズ,0
210,1290803004977,新規,0,2025-02-27,2025-02-27,合同会社よし乃,,合同会社,福岡県,北九州市門司区,吉志７丁目３番１０号,,40,101,8000114,,,,,,,2025-02-27,1,,,,,ヨシノ,0
213,1330003010813,新規,0,2025-02-27,2025-02-27,ＩＭ９号蓄電所合同会社,,合同会社,熊本県,球磨郡あさぎり町,深田西２３２６番地１６８,,43,514,8680444,,,,,,,2025-02-27,1,,,,,アイエムキュウゴウチクデンショ,0
214,1330003010821,新規,0,2025-02-27,2025-02-27,ＩＭ１７号蓄電所合同会社,,合同会社,熊本県,球磨郡あさぎり町,深田西２３２６番地１６８,,43,514,8680444,,,,,,,2025-02-27,1,,,,,アイエムジュウナナゴウチクデンショ,0
218,1370001052275,新規,0,2025-02-27,2025-02-27,ＣｒｅａｔｉｖｅＭａｐ株式会社,,株式会社,宮城県,仙台市青葉区,本町１丁目５番２８号カーニープレイス仙台駅前通６０３号室,,04,101,9800014,,,,,,,2025-02-27,1,,,,,クリエイティブマップ,0
221,1370003006956,新規,0,2025-02-27,2025-02-27,テレエットオーシャネオス合同会社,,合同会社,宮城県,仙台市青葉区,木町通１丁目６番７号,,04,101,9800801,,,,,,,2025-02-27,1,,,,,テレエットオーシャネオス,0
226,1400001016953,新規,0,2025-02-27,2025-02-27,株式会社ＮＯＸ,,株式会社,岩手県,盛岡市,大通２丁目３番７号ＣＴ３３ビル６階,,03,201,0200022,,,,,,,2025-02-27,1,,,,,ノックス,0
229,1430001093767,新規,0,2025-02-27,2025-02-27,株式会社ＹＯＵＲ　ＬＩＦＥ,,株式会社,北海道,札幌市白石区,菊水上町三条３丁目３８０番地４ローズガーデン弐番館２０２号,,01,104,0030813,,,,,,,2025-02-27,1,,,,,ユアライフ,0
230,1430001093775,新規,0,2025-02-27,2025-02-27,株式会社明徳,00138149,株式会社,北海道,札幌市東区,北二十三条東２３丁目４番１－２０３号,,01,103,0650023,,,,,,,2025-02-27,1,,,,,メイトク,0
245,2010001252629,新規,0,2025-02-27,2025-02-27,株式会社オプティゲート,,株式会社,東京都,千代田区,神田小川町３丁目１番地５須田ビル８Ｆ,,13,101,1010052,,,,,,,2025-02-27,1,,,,,オプティゲート,0
246,2010001252637,新規,0,2025-02-27,2025-02-27,オーエムウェーブ株式会社,,株式会社,東京都,中央区,日本橋人形町１丁目１０番３号スクエアードコート日本橋人形町８０３号室,,13,102,1030013,,,,,,,2025-02-27,1,,,,,オーエムウェーブ,0
249,2010003046558,新規,0,2025-02-27,2025-02-27,ｅＮＮ　Ｆａｍｉｌｙ　Ｏｆｆｉｃｅ合同会社,,合同会社,東京都,中央区,日本橋浜町２丁目５５番１－１００３号,,13,102,1030007,,,,,,,2025-02-27,1,,,,,エンファミリーオフィス,0
250,2010003046566,新規,0,2025-02-27,2025-02-27,合同会社未来エッセンシャルズ,,合同会社,東京都,中央区,銀座１丁目１２－４Ｎ＆ＥＢＬＤ．７階,,13,102,1040061,,,,,,,2025-02-27,1,,,,,ミライエッセンシャルズ,0
255,2010103002519,新規,0,2025-02-27,2025-02-27,合同会社小暮事務所,,合同会社,東京都,八王子市,大和田町５丁目３１番１６号,,13,201,1920045,,,,,,,2025-02-27,1,,,,,コグレジムショ,0
261,2010403034468,新規,0,2025-02-27,2025-02-27,ジー・エイ・ワン・レジデンス・ナイン合同会社,,合同会社,東京都,港区,虎ノ門５丁目１番４号,,13,103,1050001,,,,,,,2025-02-27,1,,,,,ジーエイワンレジデンスナイン,0
265,2010501053691,新規,0,2025-02-27,2025-02-27,株式会社人材育成,,株式会社,東京都,台東区,東上野１丁目１０番８号旭光ビル３０１号,,13,106,1100015,,,,,,,2025-02-27,1,,,,,ジンザイイクセイ,0
284,2010901056872,新規,0,2025-02-27,2025-02-27,株式会社流星舎,,株式会社,東京都,世田谷区,若林５丁目４０番５号,,13,112,1540023,,,,,,,2025-02-27,1,,,,,リュウセイシャ,0
285,2010903009746,新規,0,2025-02-27,2025-02-27,合同会社ｅｍｏｔｉｏｎｓ,,合同会社,東京都,世田谷区,船橋３丁目２６番６号クローバーハウス２０１,,13,112,1560055,,,,,,,2025-02-27,1,,,,,エモーションズ,0
289,2011003021071,新規,0,2025-02-27,2025-02-27,合同会社ＣＨＩＧＵＮＯ,,合同会社,東京都,目黒区,祐天寺１丁目１番３号ヴィータローゼア２０１,,13,110,1530052,,,,,,,2025-02-27,1,,,,,チグノ,0
291,2011101110767,新規,0,2025-02-27,2025-02-27,株式会社ＫＴＳＴ,,株式会社,東京都,新宿区,水道町４番１３号三晃ビル３階,,13,104,1620811,,,,,,,2025-02-27,1,,,,,ケイティエスティ,0
292,2011101110775,新規,0,2025-02-27,2025-02-27,株式会社ＨＥＲＥＳＹ,,株式会社,東京都,新宿区,歌舞伎町２丁目３５番５号リゾンビル５階,,13,104,1600021,,,,,,,2025-02-27,1,,,,,ヘレシー,0
293,2011101110791,新規,0,2025-02-27,2025-02-27,ＥＮｔｏＷＡ株式会社,,株式会社,東京都,新宿区,西新宿６丁目５番１号新宿アイランドタワー２階,,13,104,1600023,,,,,,,2025-02-27,1,,,,,エントワ,0
295,2011303005427,新規,0,2025-02-27,2025-02-27,合同会社ミチノリ,,合同会社,東京都,杉並区,桃井２丁目４番８号,,13,115,1670034,,,,,,,2025-02-27,1,,,,,ミチノリ,0
296,2011501031745,新規,0,2025-02-27,2025-02-27,ＯＰ不動産仲介株式会社,,株式会社,東京都,北区,中里１丁目２１番２号中里ビル１Ｆ,,13,117,1140015,,,,,,,2025-02-27,1,,,,,オーピーフドウサンチュウカイ,0
302,2011801045692,新規,0,2025-02-27,2025-02-27,株式会社アクシス,,株式会社,東京都,足立区,綾瀬５丁目７番１５号ＰａｒｋｓｉｄｅＫａｌｍｉａ１０１,,13,121,1200005,,,,,,,2025-02-27,1,,,,,アクシス,0
307,2012403006991,新規,0,2025-02-27,2025-02-27,雅合同会社,,合同会社,東京都,三鷹市,上連雀６丁目１８番１６－２０４号,,13,204,1810012,,,,,,,2025-02-27,1,,,,,ミヤビ,0
309,2013301053837,新規,0,2025-02-27,2025-02-27,株式会社マイハウジング,,株式会社,東京都,豊島区,東池袋１丁目１７－３－６０５,,13,116,1700013,,,,,,,2025-02-27,1,,,,,マイハウジング,0
310,2013303007551,新規,0,2025-02-27,2025-02-27,合同会社ＫＩＣ,,合同会社,東京都,豊島区,池袋１丁目１３番２４号ハーモニーレジデンス池袋８０２号,,13,116,1700014,,,,,,,2025-02-27,1,,,,,ケイアイシー,0
316,2020001161465,新規,0,2025-02-27,2025-02-27,株式会社ＶＡＲＥＴ,,株式会社,神奈川県,横浜市神奈川区,金港町５－１４クアドリフォリオ８階,,14,102,2210056,,,,,,,2025-02-27,1,,,,,ヴァレット,0
323,2020003027838,新規,0,2025-02-27,2025-02-27,合同会社トミショウ,,合同会社,神奈川県,横浜市都筑区,北山田１丁目１１番６－７０３号,,14,118,2240021,,,,,,,2025-02-27,1,,,,,トミショウ,0
331,2030001165052,新規,0,2025-02-27,2025-02-27,泡泡永株式会社,,株式会社,埼玉県,川口市,西川口１丁目３０番２０－５Ｄ号,,11,203,3320021,,,,,,,2025-02-27,1,,,,,ホウホウエイ,0
340,2040001137554,新規,0,2025-02-27,2025-02-27,株式会社ＲＥＶＯＶＥＲ,,株式会社,千葉県,君津市,南子安６丁目１８－１４,,12,225,2991162,,,,,,,2025-02-27,1,,,,,レヴォーヴァー,0
343,2050003009049,新規,0,2025-02-27,2025-02-27,Ｍ．Ｋ　ＩＮＴＥＲＮＡＴＩＯＮＡＬ合同会社,,合同会社,茨城県,常総市,山口６３１番地,,08,211,3002715,,,,,,,2025-02-27,1,,,,,エムケーインターナショナル,0
344,2050003009057,新規,0,2025-02-27,2025-02-27,ＩＫＢ合同会社,,合同会社,茨城県,常総市,内守谷町２７１９－１,,08,211,3030043,,,,,,,2025-02-27,1,,,,,アイケイビー,0
347,2070001042660,新規,0,2025-02-27,2025-02-27,ＭＰ　ＰＬＵＳ株式会社,,株式会社,群馬県,前橋市,大利根町２丁目３２－８,,10,201,3710825,,,,,,,2025-02-27,1,,,,,エムピープラス,0
348,2080003003395,新規,0,2025-02-27,2025-02-27,スズラボ合同会社,,合同会社,静岡県,静岡市葵区,栄町２番地５アークビルディング５０２,,22,101,4200859,,,,,,,2025-02-27,1,,,,,スズラボ,0
350,2080103003262,新規,0,2025-02-27,2025-02-27,合同会社しずおかや,,合同会社,静岡県,伊豆の国市,北江間２０番地の５,,22,225,4102223,,,,,,,2025-02-27,1,,,,,,0
353,2080405007713,新規,0,2025-02-27,2025-02-27,静岡アシスト協同組合,,その他の設立登記法人,静岡県,磐田市,今之浦５丁目１番地１,,22,211,4380071,,,,,,,2025-02-27,1,,,,,シズオカアシスト,0
365,2110003005677,新規,0,2025-02-27,2025-02-27,合同会社スペック,,合同会社,新潟県,五泉市,駅前１丁目１１番１５号,,15,218,9591823,,,,,,,2025-02-27,1,,,,,スペック,0
376,2120005024815,新規,0,2025-02-27,2025-02-27,一般社団法人伝統発酵食文化協会,,その他の設立登記法人,大阪府,交野市,梅が枝５５－１０,,27,230,5760042,,,,,,,2025-02-27,1,,,,,デントウハッコウショクブンカキョウカイ,0
379,2120101071133,新規,0,2025-02-27,2025-02-27,株式会社ＧｒｏｗＵｐ,,株式会社,大阪府,堺市堺区,北三国ヶ丘町８丁６番２４－１号,,27,141,5900021,,,,,,,2025-02-27,1,,,,,グロウアップ,0
380,2120101071141,新規,0,2025-02-27,2025-02-27,漢恒株式会社,,株式会社,大阪府,堺市堺区,神保通２番１号,,27,141,5900056,,,,,,,2025-02-27,1,,,,,カンコウ,0
381,2120901050501,新規,0,2025-02-27,2025-02-27,いい波株式会社,,株式会社,大阪府,箕面市,粟生間谷東６丁目７番７号,,27,220,5620022,,,,,,,2025-02-27,1,,,,,イイナミ,0
388,2140001137511,新規,0,2025-02-27,2025-02-27,株式会社ＳＴＭ,,株式会社,兵庫県,姫路市,香寺町田野１０４２番地３２,,28,201,6792153,,,,,,,2025-02-27,1,,,,,エスティエム,0
389,2140001137536,新規,0,2025-02-27,2025-02-27,株式会社アグリ・イタイ,,株式会社,兵庫県,加西市,網引町７８３番地の１,,28,220,6752113,,,,,,,2025-02-27,1,,,,,,0
393,2140003021713,新規,0,2025-02-27,2025-02-27,合同会社Ｋｏｂｅ　Ｋｅｙ　Ｐｅｒｓｏｎｓ,,合同会社,兵庫県,神戸市中央区,中山手通１丁目１６番１２号東門ヴィレッジ５０５,,28,110,6500004,,,,,,,2025-02-27,1,,,,,コウベキーパーソンズ,0
410,2180001165599,新規,0,2025-02-27,2025-02-27,株式会社ｒａｔｕｍ,,株式会社,愛知県,名古屋市中村区,名駅４丁目２４番５号第２森ビル４０１,,23,105,4500002,,,,,,,2025-02-27,1,,,,,ラタム,0
411,2180001165624,新規,0,2025-02-27,2025-02-27,株式会社Ｒｅ‐ＰＬＵＳ,,株式会社,愛知県,名古屋市東区,矢田２丁目１５番７号,,23,102,4610040,,,,,,,2025-02-27,1,,,,,リプラス,0
412,2180001165632,新規,0,2025-02-27,2025-02-27,株式会社ラプラス,,株式会社,愛知県,一宮市,栄１丁目１１番８号,,23,203,4910858,,,,,,,2025-02-27,1,,,,,ラプラス,0
413,2180001165640,新規,0,2025-02-27,2025-02-27,株式会社Ａｎｄ　Ｓ,,株式会社,愛知県,長久手市,久保山２５１１フリーダム２０１,,23,238,4801151,,,,,,,2025-02-27,1,,,,,アンドエス,0
417,2180003028052,新規,0,2025-02-27,2025-02-27,ｓｕｃｄｅｒｉａ１９２０合同会社,,合同会社,愛知県,春日井市,旭町１丁目１１番地,,23,206,4860929,,,,,,,2025-02-27,1,,,,,スクーデリアイチキュウニイゼロ,0
418,2180301039552,新規,0,2025-02-27,2025-02-27,株式会社ＴＭオート,,株式会社,愛知県,豊橋市,新栄町字南小向４７番地１,,23,201,4418016,,,,,,,2025-02-27,1,,,,,ティーエムオート,0
421,2190001032022,新規,0,2025-02-27,2025-02-27,株式会社ＮＡＮＯ,,株式会社,三重県,伊勢市,小俣町明野３０４番地１８,,24,203,5190501,,,,,,,2025-02-27,1,,,,,ナノ,0
422,2190001032030,新規,0,2025-02-27,2025-02-27,株式会社浅野電設,,株式会社,三重県,四日市市,生桑町２００７番地５４,,24,202,5120911,,,,,,,2025-02-27,1,,,,,アサノデンセツ,0
425,2220003003959,新規,0,2025-02-27,2025-02-27,馨馨商事合同会社,,合同会社,石川県,野々市市,御経塚１丁目５２６－Ｃ区画,,17,212,9218801,,,,,,,2025-02-27,1,,,,,ケイケイショウジ,0
432,2260001039943,新規,0,2025-02-27,2025-02-27,トップトレーディング株式会社,,株式会社,岡山県,岡山市北区,南方４丁目８番２１－１号,,33,101,7000807,,,,,,,2025-02-27,1,,,,,トップトレーディング,0
435,2290001109099,新規,0,2025-02-27,2025-02-27,株式会社ＪＭＴ,,株式会社,福岡県,福岡市中央区,古小烏町７１番地２Ｊ－ＰＬＡＣＥ古小烏,,40,133,8100026,,,,,,,2025-02-27,1,,,,,ジェイエムティー,0
437,2290003016467,新規,0,2025-02-27,2025-02-27,Ｍｏｒｐｈ合同会社,,合同会社,福岡県,福岡市中央区,天神２丁目３番１０号天神パインクレスト７１９号,,40,133,8100001,,,,,,,2025-02-27,1,,,,,モーフ,0
440,2300001014099,新規,0,2025-02-27,2025-02-27,株式会社みかわファーム,,株式会社,佐賀県,神埼市,千代田町姉３９１番地１,,41,210,8420052,,,,,,,2025-02-27,1,,,,,ミカワファーム,0
443,2330003010812,新規,0,2025-02-27,2025-02-27,ＩＭ８号蓄電所合同会社,,合同会社,熊本県,球磨郡あさぎり町,深田西２３２６番地１６８,,43,514,8680444,,,,,,,2025-02-27,1,,,,,アイエムハチゴウチクデンショ,0
444,2330003010820,新規,0,2025-02-27,2025-02-27,ＩＭ１６号蓄電所合同会社,,合同会社,熊本県,球磨郡あさぎり町,深田西２３２６番地１６８,,43,514,8680444,,,,,,,2025-02-27,1,,,,,アイエムジュウロクゴウチクデンショ,0
446,2340001027139,新規,0,2025-02-27,2025-02-27,株式会社ＭＤＫ,,株式会社,鹿児島県,鹿児島市,七ツ島１丁目４番地１６,,46,201,8910132,,,,,,,2025-02-27,1,,,,,エムディーケー,0
449,2360001034819,新規,0,2025-02-27,2025-02-27,株式会社富永養殖,,株式会社,沖縄県,糸満市,西崎町１丁目４－１２,,47,210,9010306,,,,,,,2025-02-27,1,,,,,トミナガヨウショク,0
450,2360001034835,新規,0,2025-02-27,2025-02-27,株式会社ＴＯＲＩＯ,,株式会社,沖縄県,宮古島市,下地字洲鎌９７２番地４,,47,214,9060303,,,,,,,2025-02-27,1,,,,,トリオ,0
466,2420005007946,新規,0,2025-02-27,2025-02-27,特定非営利活動法人青森県外国人労働者雇用協会,,その他の設立登記法人,青森県,青森市,大字大矢沢字野田１３８番地６,,02,201,0300123,,,,,,,2025-02-27,1,,,,,アオモリケンガイコクジンロウドウシャコヨウキョウカイ,0
469,2430001093766,新規,0,2025-02-27,2025-02-27,株式会社ＳＨＡＫＯＴＡＮ海森学校,,株式会社,北海道,積丹郡積丹町,大字美国町字船澗３９番地３６,,01,405,0460201,,,,,,,2025-02-27,1,,,,,シャコタンウミモリガッコウ,0
470,2430001093774,新規,0,2025-02-27,2025-02-27,株式会社悠鶴原,,株式会社,北海道,虻田郡ニセコ町,字曽我５４５－７Ｇｒａｎｄ　Ｔｓｕｒｕ　Ｎｉｓｅｋｏ　Ｖｉｌｌａ　Ｃ,,01,395,0481522,,,,,,,2025-02-27,1,,,,,ユウカクゲン,0
482,2700150129112,新規,0,2025-02-27,2025-02-07,小本地域振興協議会,,その他,岩手県,下閉伊郡岩泉町,小本字南中野２３９番地１,,03,483,0270421,,,,,,,2025-02-07,1,,,,,オモトチイキシンコウキヨウギカイ,0
483,2700150129302,新規,0,2025-02-27,2025-02-27,Ｊａｖｅ　Ｙｕａｎ　Ｅｌｅｃｔｒｉｃ　Ｗｉｒｅ　Ｃｏ．，Ｌｔｄ．,,外国会社等,,,,,,,,Ｎｏ．２３５，ＮａｎＰｉｎｇ　Ｒｄ．ＰｉｎｇＺｈｅｎ　Ｄｉｓｔ．ＴａｏＹｕａｎ　Ｃｉｔｙ　３２４５４　ＴＷ,,,,,,2025-02-27,1,,,,,ジェイブユアンエレクトリックワイヤーカンパニーリミテッド,0
486,3010001252611,新規,0,2025-02-27,2025-02-27,株式会社ＷＲＩＴＩＮＧ＆ＤＥＳＩＧＮ　ＰＡＲＴＮＥＲＳ,,株式会社,東京都,中央区,月島１丁目１５番１０－８０１号,,13,102,1040052,,,,,,,2025-02-27,1,,,,,ライティングアンドデザインパートナーズ,0
487,3010001252669,新規,0,2025-02-27,2025-02-27,株式会社ＭＵＳＴＩ　ＯＮＥ,,株式会社,東京都,中央区,入船２丁目２番２号,,13,102,1040042,,,,,,,2025-02-27,1,,,,,ムスティワン,0
488,3010001252685,新規,0,2025-02-27,2025-02-27,ＡｂＺｅｒｏ株式会社,,株式会社,東京都,中央区,新川１丁目７－１－２０９,,13,102,1040033,,,,,,,2025-02-27,1,,,,,アブゼロ,0
489,3010003046549,新規,0,2025-02-27,2025-02-27,合同会社サニーブレイジャス,,合同会社,東京都,文京区,千駄木３丁目４２番２－１１０１号,,13,105,1130022,,,,,,,2025-02-27,1,,,,,サニーブレイジャス,0
490,3010005039641,新規,0,2025-02-27,2025-02-27,一般社団法人大翔会,,その他の設立登記法人,東京都,中央区,銀座１丁目２２番１１号銀座大竹ビジデンス２Ｆ,,13,102,1040061,,,,,,,2025-02-27,1,,,,,タイショウカイ,0
496,3010401188208,新規,0,2025-02-27,2025-02-27,株式会社保育リンク,,株式会社,東京都,港区,西新橋３丁目４番２号,,13,103,1050003,,,,,,,2025-02-27,1,,,,,ホイクリンク,0
497,3010401188356,新規,0,2025-02-27,2025-02-27,株式会社長谷工総合開発,,株式会社,東京都,港区,芝２丁目３１番１９号,,13,103,1050014,,,,,,,2025-02-27,1,,,,,ハセコウソウゴウカイハツ,0
498,3010401188538,新規,0,2025-02-27,2025-02-27,イデアコンサル株式会社,,株式会社,東京都,港区,南青山３丁目１－３６青山丸竹ビル６Ｆ,,13,103,1070062,,,,,,,2025-02-27,1,,,,,イデアコンサル,0
499,3010403034475,新規,0,2025-02-27,2025-02-27,合同会社薫福,,合同会社,東京都,港区,元麻布３丁目１番６号,,13,103,1060046,,,,,,,2025-02-27,1,,,,,シンフー,0
501,3010405024037,新規,0,2025-02-27,2025-02-27,一般社団法人私彩会,,その他の設立登記法人,東京都,港区,六本木５丁目２－２トーマスビル１階,,13,103,1060032,,,,,,,2025-02-27,1,,,,,シサイカイ,0
502,3010405024103,新規,0,2025-02-27,2025-02-27,Ｎｏｚｏｍｉ特定目的会社,,その他の設立登記法人,東京都,港区,六本木１丁目９番１０号アークヒルズ仙石山森タワー４０階,,13,103,1060032,,,,,,,2025-02-27,1,,,,,ノゾミ,0
506,3010501053690,新規,0,2025-02-27,2025-02-27,株式会社助六,,株式会社,東京都,台東区,雷門２丁目１９番１３号,,13,106,1110034,,,,,,,2025-02-27,1,,,,,スケロク,0
507,3010501053708,新規,0,2025-02-27,2025-02-27,浅草雷門レザー株式会社,,株式会社,東京都,台東区,東浅草１丁目３－９,,13,106,1110025,,,,,,,2025-02-27,1,,,,,アサクサカミナリモンレザー,0
508,3010601066840,新規,0,2025-02-27,2025-02-27,秀和国際株式会社,,株式会社,東京都,墨田区,文花１丁目３４番１１－３０６号室,,13,107,1310044,,,,,,,2025-02-27,1,,,,,シュウワコクサイ,0
512,3010703007593,新規,0,2025-02-27,2025-02-27,テラグチ合同会社,,合同会社,東京都,品川区,北品川３丁目６番４６－８０５号,,13,109,1400001,,,,,,,2025-02-27,1,,,,,テラグチ,0
513,3010705003731,新規,0,2025-02-27,2025-02-27,一般社団法人Ｗｅ　Ｃａｎ,,その他の設立登記法人,東京都,品川区,旗の台５丁目１３番１号,,13,109,1420064,,,,,,,2025-02-27,1,,,,,ウィーキャン,0
515,3010801035868,新規,0,2025-02-27,2025-02-27,株式会社ＵＣＨＩＭＵＲＡ,,株式会社,東京都,大田区,東糀谷２丁目９番７号,,13,111,1440033,,,,,,,2025-02-27,1,,,,,ウチムラ,0
526,3011001167650,新規,0,2025-02-27,2025-02-27,株式会社ゼペット,,株式会社,東京都,渋谷区,渋谷２丁目１９番１５号宮益坂ビルディング６０９,,13,113,1500002,,,,,,,2025-02-27,1,,,,,ゼペット,0
527,3011001168046,新規,0,2025-02-27,2025-02-27,株式会社ＳＥＲＡ　ＢＥＡＵＴＹ　ＣＬＩＮＩＣ,,株式会社,東京都,渋谷区,恵比寿西１丁目１０番１０号若葉西ビル９階,,13,113,1500021,,,,,,,2025-02-27,1,,,,,セラビューティークリニック,0
532,3011101110634,新規,0,2025-02-27,2025-02-27,株式会社ｅｒａ‐ｓ,,株式会社,東京都,新宿区,四谷４丁目２３第一富士川ビル４０２,,13,104,1600004,,,,,,,2025-02-27,1,,,,,イーラス,0
535,3011301030384,新規,0,2025-02-27,2025-02-27,株式会社アカリス,,株式会社,東京都,杉並区,阿佐谷南１丁目３０－１６サンパレス阿佐ヶ谷２０１,,13,115,1660004,,,,,,,2025-02-27,1,,,,,アカリス,0
540,3011703004135,新規,0,2025-02-27,2025-02-27,合同会社Ｂｅｔｒａｙａｌ,,合同会社,東京都,江戸川区,鹿骨５丁目３７－１１－２０２,,13,123,1330073,,,,,,,2025-02-27,1,,,,,ベトレイアル,0
543,3011801045691,新規,0,2025-02-27,2025-02-27,光莱株式会社,,株式会社,東京都,葛飾区,東金町３丁目１７－１０ＫＢＳ、Ｄ－２号,,13,122,1250041,,,,,,,2025-02-27,1,,,,,コウライ,0
544,3011801045700,新規,0,2025-02-27,2025-02-27,ハーバーストーン株式会社,,株式会社,東京都,足立区,東和２丁目２１番２号３Ｆ,,13,121,1200003,,,,,,,2025-02-27,1,,,,,ハーバーストーン,0
546,3011803006709,新規,0,2025-02-27,2025-02-27,ｋｈ合同会社,,合同会社,東京都,足立区,関原２丁目１番６号,,13,121,1230852,,,,,,,2025-02-27,1,,,,,ケーエイチ,0
548,3012303002116,新規,0,2025-02-27,2025-02-27,合同会社ＦＵＫ,,合同会社,東京都,町田市,中町４丁目２１番６号Ｌｅｎｆｏｒｔ町田２Ｈ,,13,209,1940021,,,,,,,2025-02-27,1,,,,,エフユーケー,0
550,3012401042815,新規,0,2025-02-27,2025-02-27,株式会社Ｈｏｎｅｓｔ,,株式会社,東京都,三鷹市,下連雀２丁目２８番９号,,13,204,1810013,,,,,,,2025-02-27,1,,,,,オネスト,0
552,3013301053836,新規,0,2025-02-27,2025-02-27,株式会社ＴＨＢ,,株式会社,東京都,豊島区,東池袋３丁目５番７号ユニオンビルヂング２０２号室,,13,116,1700013,,,,,,,2025-02-27,1,,,,,ティーエイチビー,0
569,3030001165035,新規,0,2025-02-27,2025-02-27,株式会社ＴＲＹＬｉｎｋｓ,,株式会社,埼玉県,三郷市,栄１丁目３２５番地４アリビオＡ１０３号室,,11,237,3410043,,,,,,,2025-02-27,1,,,,,トライリンクス,0
570,3030005022050,新規,0,2025-02-27,2025-02-27,一般社団法人日中教育国際交流協会,,その他の設立登記法人,埼玉県,ふじみ野市,清見３丁目４番地１７,,11,245,3560002,,,,,,,2025-02-27,1,,,,,ニッチュウキョウイクコクサイコウリュウキョウカイ,0
578,3040001137537,新規,0,2025-02-27,2025-02-27,株式会社後楽,,株式会社,千葉県,千葉市中央区,本千葉町９番１３号２階,,12,101,2600014,,,,,,,2025-02-27,1,,,,,コウラク,0
579,3040001137553,新規,0,2025-02-27,2025-02-27,株式会社ＡＩコーポレーション,,株式会社,千葉県,柏市,高南台１丁目１５番地１４,,12,217,2770942,,,,,,,2025-02-27,1,,,,,エーアイコーポレーション,0
582,3050003009056,新規,0,2025-02-27,2025-02-27,合同会社丸宮,,合同会社,茨城県,結城郡八千代町,大字若６８番地,,08,521,3003544,,,,,,,2025-02-27,1,,,,,マルミヤ,0
587,3060003005442,新規,0,2025-02-27,2025-02-27,タッポイ合同会社,,合同会社,栃木県,宇都宮市,東宝木町９番２２号ニューレジデンス東宝木２０８,,09,201,3200062,,,,,,,2025-02-27,1,,,,,タッポイ,0
593,3080401027763,新規,0,2025-02-27,2025-02-27,株式会社チヨダハーネス,,株式会社,静岡県,浜松市天竜区,二俣町二俣２０５８番地,,22,140,4313314,,,,,,,2025-02-27,1,,,,,チヨダハーネス,0
597,3100001038324,新規,0,2025-02-27,2025-02-27,株式会社ツナグフード,,株式会社,長野県,長野市,若穂川田１９７７,,20,201,3810103,,,,,,,2025-02-27,1,,,,,ツナグフード,0
598,3100003008003,新規,0,2025-02-27,2025-02-27,合同会社ＴＳＡ,,合同会社,長野県,北佐久郡軽井沢町,大字長倉５８２７番地１０３,,20,321,3890111,,,,,,,2025-02-27,1,,,,,ティーエスエー,0
607,3120001273159,新規,0,2025-02-27,2025-02-27,尊諾株式会社,,株式会社,大阪府,大阪市中央区,松屋町９番２０号ローレルステート松屋町１１０７Ａ,,27,128,5420067,,,,,,,2025-02-27,1,,,,,ソンダク,0
608,3120001273209,新規,0,2025-02-27,2025-02-27,ＵＭＡ　ＣＬＡＮ株式会社,,株式会社,大阪府,大阪市浪速区,大国３丁目１番１５号,,27,111,5560014,,,,,,,2025-02-27,1,,,,,ユーマクラン,0
618,3120103006284,新規,0,2025-02-27,2025-02-27,堺三義合同会社,,合同会社,大阪府,堺市堺区,材木町西１－１－２２,,27,141,5900000,,,,,,,2025-02-27,1,,,,,サカイサンギ,0
619,3120103006292,新規,0,2025-02-27,2025-02-27,合同会社太陽,,合同会社,大阪府,貝塚市,久保３丁目１番２０号,,27,208,5970031,,,,,,,2025-02-27,1,,,,,タイヨウ,0
625,3122001038921,新規,0,2025-02-27,2025-02-27,株式会社宏達,,株式会社,大阪府,東大阪市,柏田西３丁目８－３０,,27,227,5770835,,,,,,,2025-02-27,1,,,,,コウタツ,0
633,3140001137527,新規,0,2025-02-27,2025-02-27,株式会社ｔｒｙ　ａｉｄ　ｋｏｂｅ,,株式会社,兵庫県,神戸市垂水区,中道５丁目１番２６－１号,,28,108,6550896,,,,,,,2025-02-27,1,,,,,トライエイドコウベ,0
634,3140001137543,新規,0,2025-02-27,2025-02-27,四時甜叙株式会社,,株式会社,兵庫県,神戸市中央区,二宮町４丁目２番３号サンヴィラ三宮１０２号,,28,110,6510093,,,,,,,2025-02-27,1,,,,,シジテンジョ,0
635,3140001137551,新規,0,2025-02-27,2025-02-27,Ａｓａｈｉ　Ｇｒｏｕｐ株式会社,,株式会社,兵庫県,明石市,林崎町１丁目７番８号２階,,28,203,6730033,,,,,,,2025-02-27,1,,,,,アサヒグループ,0
638,3140005027385,新規,0,2025-02-27,2025-02-27,一般社団法人いきいきライフ協会播磨町きらり,,その他の設立登記法人,兵庫県,加古郡播磨町,南大中３丁目２番１号リベラルハイツ３階,,28,382,6750147,,,,,,,2025-02-27,1,,,,,イキイキライフキョウカイハリマチョウキラリ,0
640,3150003003511,新規,0,2025-02-27,2025-02-27,ＳＭＴコンサルティング合同会社,,合同会社,奈良県,橿原市,土橋町１３４番地の１１,,29,205,6340844,,,,,,,2025-02-27,1,,,,,エスエムティコンサルティング,0
644,3160001026570,新規,0,2025-02-27,2025-02-27,株式会社ＣｒｅａｔｉｖｅＧｒｉｄ,,株式会社,滋賀県,守山市,守山１丁目６‐１,,25,207,5240022,,,,,,,2025-02-27,1,,,,,クリエイティブグリッド,0
652,3180001165615,新規,0,2025-02-27,2025-02-27,株式会社ＴＢテクニカル,,株式会社,愛知県,一宮市,千秋町町屋字郷西９番地１,,23,203,4910813,,,,,,,2025-02-27,1,,,,,ティービーテクニカル,0
653,3180001165631,新規,0,2025-02-27,2025-02-27,株式会社Ｃａｔｅｒｈａｍ　Ｇｌｏｂａｌ,,株式会社,愛知県,名古屋市中区,錦３丁目１０番３２号,,23,106,4600003,,,,,,,2025-02-27,1,,,,,ケータハムグローバル,0
654,3180003028051,新規,0,2025-02-27,2025-02-27,合同会社白山,,合同会社,愛知県,瀬戸市,瀬戸口町１２４番地,,23,204,4890941,,,,,,,2025-02-27,1,,,,,ハクサン,0
659,3200001043470,新規,0,2025-02-27,2025-02-27,株式会社ＬＵＳＣＥＮＴ,,株式会社,岐阜県,各務原市,大佐野町１丁目２５番地,,21,213,5040931,,,,,,,2025-02-27,1,,,,,ルセント,0
664,3240001064579,新規,0,2025-02-27,2025-02-27,株式会社未来の森,,株式会社,広島県,広島市安芸区,阿戸町６３９３番地６,,34,107,7314231,,,,,,,2025-02-27,1,,,,,ミライノモリ,0
669,3250001021018,新規,0,2025-02-27,2025-02-27,ｈａｎａｍａｒｕ７株式会社,,株式会社,山口県,岩国市,牛野谷町１丁目１９番３７－３号,,35,208,7410071,,,,,,,2025-02-27,1,,,,,ハナマルセブン,0
679,3290001109081,新規,0,2025-02-27,2025-02-27,株式会社藤丸商店,,株式会社,福岡県,柳川市,三橋町百町１３０７番地３,,40,207,8320821,,,,,,,2025-02-27,1,,,,,フジマルショウテン,0
680,3290001109098,新規,0,2025-02-27,2025-02-27,ＺＥＲＯ株式会社,,株式会社,福岡県,朝倉市,頓田５０番地１,,40,228,8380064,,,,,,,2025-02-27,1,,,,,ゼロ,0
681,3290001109115,新規,0,2025-02-27,2025-02-27,株式会社ソルーナエージェンシー,,株式会社,福岡県,福岡市城南区,鳥飼５丁目１７番２３－３０７号,,40,136,8140103,,,,,,,2025-02-27,1,,,,,ソルーナエージェンシー,0
684,3290003016466,新規,0,2025-02-27,2025-02-27,スライブ合同会社,,合同会社,福岡県,福岡市南区,弥永５丁目１７番１４－５０５号,,40,134,8111323,,,,,,,2025-02-27,1,,,,,スライブ,0
688,3290801031294,新規,0,2025-02-27,2025-02-27,山和株式会社,,株式会社,福岡県,北九州市八幡西区,陣山２丁目１番４号,,40,109,8060012,,,,,,,2025-02-27,1,,,,,サンワ,0
689,3290801031303,新規,0,2025-02-27,2025-02-27,株式会社悠楽ハウス,,株式会社,福岡県,鞍手郡小竹町,大字勝野２６３０－２３,,40,401,8201103,,,,,,,2025-02-27,1,,,,,ユウラクハウス,0
690,3290803004975,新規,0,2025-02-27,2025-02-27,合同会社ＮＯＡＨ,,合同会社,福岡県,北九州市戸畑区,北鳥旗町４番１９号,,40,105,8040075,,,,,,,2025-02-27,1,,,,,ノア,0
695,3320001020961,新規,0,2025-02-27,2025-02-27,株式会社ガードテック,,株式会社,大分県,臼杵市,野津町烏嶽３３５番地１,,44,206,8750000,,,,,,,2025-02-27,1,,,,,ガードテック,0
696,3330001032923,新規,0,2025-02-27,2025-02-27,株式会社つなぎコレクティブ,,株式会社,熊本県,葦北郡津奈木町,大字岩城４３５番地,,43,484,8695603,,,,,,,2025-02-27,1,,,,,ツナギコレクティブ,0
698,3330003010811,新規,0,2025-02-27,2025-02-27,ＩＭ７号蓄電所合同会社,,合同会社,熊本県,球磨郡あさぎり町,深田西２３２６番地１６８,,43,514,8680444,,,,,,,2025-02-27,1,,,,,アイエムナナゴウチクデンショ,0
699,3330003010828,新規,0,2025-02-27,2025-02-27,ＩＭ２４号蓄電所合同会社,,合同会社,熊本県,球磨郡あさぎり町,深田西２３２６番地１６８,,43,514,8680444,,,,,,,2025-02-27,1,,,,,アイエムニジュウヨンゴウチクデンショ,0
705,3360001034826,新規,0,2025-02-27,2025-02-27,株式会社ＥＮ,,株式会社,沖縄県,那覇市,久茂地３丁目１７－１ワイズグレイズシティ８０３,,47,201,9000015,,,,,,,2025-02-27,1,,,,,エン,0
706,3370001052298,新規,0,2025-02-27,2025-02-27,株式会社アドエックス,,株式会社,宮城県,仙台市太白区,袋原６丁目２０番５６号,,04,104,9811102,,,,,,,2025-02-27,1,,,,,アドエックス,0
709,3370003006954,新規,0,2025-02-27,2025-02-27,レッツトライ合同会社,,合同会社,宮城県,大崎市,三本木字南町５９番地,,04,215,9896321,,,,,,,2025-02-27,1,,,,,レッツトライ,0
713,3380001035112,新規,0,2025-02-27,2025-02-27,株式会社ＫＹＲＩＯＳ,,株式会社,福島県,福島市,野田町３丁目８番３１号,,07,201,9608055,,,,,,,2025-02-27,1,,,,,キュリオス,0
718,3430001093765,新規,0,2025-02-27,2025-02-27,株式会社リファイン,,株式会社,北海道,札幌市豊平区,平岸三条１４丁目２－２８レジデンス平岸３１２－２０１,,01,105,0620933,,,,,,,2025-02-27,1,,,,,リファイン,0
719,3430001093773,新規,0,2025-02-27,2025-02-27,Ｂａｒａｎｎｓｕ株式会社,,株式会社,北海道,小樽市,桜２丁目１０番１６号,,01,203,0470156,,,,,,,2025-02-27,1,,,,,バランス,0
732,3480001012753,新規,0,2025-02-27,2025-02-27,株式会社ｉｍｐｒｏｖｅ,,株式会社,徳島県,徳島市,中央通４丁目１３番地２－２Ｆ,,36,201,7700936,,,,,,,2025-02-27,1,,,,,インプルーヴ,0
734,3490003001984,新規,0,2025-02-27,2025-02-27,合同会社アシスト,,合同会社,高知県,香南市,野市町母代寺６６６番地３４,,39,211,7815222,,,,,,,2025-02-27,1,,,,,アシスト,0
736,3500001026148,新規,0,2025-02-27,2025-02-27,今井商事株式会社,,株式会社,愛媛県,今治市,波止浜２丁目１番１７号,,38,202,7992112,,,,,,,2025-02-27,1,,,,,イマイショウジ,0
739,3700150129301,新規,0,2025-02-27,2025-02-27,ＸＩ’ＡＮ　ｒｕｉｚｈｉ　ｄｉａｎｚｉ　ｓｈａｎｇｗｕ　ｙｏｕｘｉａｎｇｏｎｇｓｉ,,外国会社等,,,,,,,,ｇａｏｘｉｎｑｕｋｅｊｉｅｒｌｕ７２ｈａｏｔｉａｎｚｅｄａｓｈａｄｉｅｒｃｅｎｇ２０３ｓｈｉ　Ｘｉ　ａｎ，Ｓｈａｎｘｉ　７１００００　ＣＮ,,,,,,2025-02-27,1,,,,,シーアンルイジーディエンズーシャンウヨウシェンゴンスー,0
748,4010001252627,新規,0,2025-02-27,2025-02-27,株式会社ホットポケット,,株式会社,東京都,中央区,銀座１丁目１２番４号Ｎ＆ＥＢＬＤ．６Ｆ,,13,102,1040061,,,,,,,2025-02-27,1,,,,,ホットポケット,0
749,4010005039640,新規,0,2025-02-27,2025-02-27,一般社団法人センターライン,,その他の設立登記法人,東京都,千代田区,霞が関３丁目２番５号,,13,101,1000013,,,,,,,2025-02-27,1,,,,,センターライン,0
750,4010005039649,新規,0,2025-02-27,2025-02-27,日本橋１３一般社団法人,,その他の設立登記法人,東京都,千代田区,平河町１丁目６番１５号シルスフィア会計事務所内,,13,101,1020093,,,,,,,2025-02-27,1,,,,,ニホンバシサーティーン,0
751,4010101016535,新規,0,2025-02-27,2025-02-27,株式会社Ｓ．Ｋコーポレーション,,株式会社,東京都,八王子市,子安町４丁目７番１－３５１１号,,13,201,1920904,,,,,,,2025-02-27,1,,,,,エスケーコーポレーション,0
772,4011001167930,新規,0,2025-02-27,2025-02-27,ボタニカルベース株式会社,,株式会社,東京都,渋谷区,桜丘町２３番１７号シティーコート４０８,,13,113,1500031,,,,,,,2025-02-27,1,,,,,ボタニカルベース,0
773,4011001168061,新規,0,2025-02-27,2025-02-27,株式会社一戸不動産,,株式会社,東京都,渋谷区,広尾５丁目４番１２号大成鋼機ビル５Ｆ,,13,113,1500012,,,,,,,2025-02-27,1,,,,,イチノヘフドウサン,0
778,4011101110757,新規,0,2025-02-27,2025-02-27,株式会社いずみグループ,,株式会社,東京都,新宿区,北新宿１丁目１番１－１２０３号,,13,104,1690074,,,,,,,2025-02-27,1,,,,,イズミグループ,0
780,4011201026119,新規,0,2025-02-27,2025-02-27,七色通商株式会社,,株式会社,東京都,中野区,沼袋４丁目１２－３ライフピアフィージー１０３,,13,114,1650025,,,,,,,2025-02-27,1,,,,,ナナイロツウショウ,0
781,4011203004618,新規,0,2025-02-27,2025-02-27,ＴＯＣＹＵＵＮＯＹＡ合同会社,,合同会社,東京都,中野区,沼袋４丁目３０番１５－１０１号,,13,114,1650025,,,,,,,2025-02-27,1,,,,,トチュウノヤ,0
785,4011403004632,新規,0,2025-02-27,2025-02-27,合同会社ミライズ,,合同会社,東京都,板橋区,徳丸２丁目７番３２号,,13,119,1750083,,,,,,,2025-02-27,1,,,,,ミライズ,0
787,4011501031743,新規,0,2025-02-27,2025-02-27,日本科達株式会社,,株式会社,東京都,荒川区,町屋３丁目２番１号Ｂ１Ｆ,,13,118,1160001,,,,,,,2025-02-27,1,,,,,ニホンカタツ,0
789,4011605002632,新規,0,2025-02-27,2025-02-27,一般社団法人日本ミャンマー協力Ｃｏｎｎｅｃｔ団体,,その他の設立登記法人,東京都,練馬区,西大泉１丁目２５番１１号メゾン第２大泉２０１,,13,120,1780065,,,,,,,2025-02-27,1,,,,,ニホンミャンマーキョウリョクコネクトダンタイ,0
791,4011703004142,新規,0,2025-02-27,2025-02-27,合同会社ファーストクラス配送,,合同会社,東京都,江戸川区,西葛西２丁目１６―１８,,13,123,1340088,,,,,,,2025-02-27,1,,,,,ファーストクラスハイソウ,0
793,4011801045690,新規,0,2025-02-27,2025-02-27,株式会社Ｍ＆Ｃ,,株式会社,東京都,足立区,舎人４丁目１１番１６号,,13,121,1210831,,,,,,,2025-02-27,1,,,,,エムアンドシー,0
794,4011801045699,新規,0,2025-02-27,2025-02-27,早慶教育株式会社,,株式会社,東京都,葛飾区,柴又３丁目１１－１１カエデ柴又１０６号室,,13,122,1250052,,,,,,,2025-02-27,1,,,,,ソウケイキョウイク,0
796,4011803006708,新規,0,2025-02-27,2025-02-27,Ｍａｓｔｅｒ　Ｐａｌｌｅｔ合同会社,,合同会社,東京都,足立区,舎人５丁目１３－２３アーデル１４０１,,13,121,1210831,,,,,,,2025-02-27,1,,,,,マスターパレット,0
798,4012301014186,新規,0,2025-02-27,2025-02-27,株式会社すずとみ工事店,,株式会社,東京都,町田市,金井１丁目３７－２,,13,209,1950072,,,,,,,2025-02-27,1,,,,,スズトミコウジテン,0
804,4012701018720,新規,0,2025-02-27,2025-02-27,株式会社ティントルーム,,株式会社,東京都,東村山市,本町２丁目１４番地５５,,13,213,1890014,,,,,,,2025-02-27,1,,,,,ティントルーム,0
807,4013301053835,新規,0,2025-02-27,2025-02-27,株式会社ハピネスホールディングス,,株式会社,東京都,豊島区,池袋本町４丁目１２番６号,,13,116,1700011,,,,,,,2025-02-27,1,,,,,ハピネスホールディングス,0
822,4021001084555,新規,0,2025-02-27,2025-02-27,株式会社古川商事,,株式会社,神奈川県,三浦市,向ケ崎町１番１号,,14,210,2380233,,,,,,,2025-02-27,1,,,,,フルカワショウジ,0
829,4030001164977,新規,0,2025-02-27,2025-02-27,株式会社ｅ‐プラン,,株式会社,埼玉県,川越市,大字砂９２９－１６,,11,201,3501133,,,,,,,2025-02-27,1,,,,,イープラン,0
830,4030001165059,新規,0,2025-02-27,2025-02-27,ＳＴＳ株式会社,,株式会社,埼玉県,さいたま市見沼区,東大宮６丁目４３番地１３,,11,104,3370051,,,,,,,2025-02-27,1,,,,,エスティエス,0
840,4040001137544,新規,0,2025-02-27,2025-02-27,株式会社ＴＴＣ,,株式会社,千葉県,市原市,国分寺台中央４丁目２番地１１,,12,219,2900073,,,,,,,2025-02-27,1,,,,,ティーティーシー,0
848,4040003026968,新規,0,2025-02-27,2025-02-27,合同会社コスモス,,合同会社,千葉県,鎌ケ谷市,南鎌ケ谷１丁目１２－３５,,12,224,2730106,,,,,,,2025-02-27,1,,,,,コスモス,0
850,4050001056215,新規,0,2025-02-27,2025-02-27,ＩＳＩ株式会社,,株式会社,茨城県,龍ケ崎市,城ノ内２丁目６番地８,,08,208,3010847,,,,,,,2025-02-27,1,,,,,アイエスアイ,0
851,4050001056223,新規,0,2025-02-27,2025-02-27,株式会社Ｋｉｎｏｉｅ　Ｇｕｅｓｔｈｏｕｓｅ,,株式会社,茨城県,水戸市,上水戸４丁目－１－６３,,08,201,3100041,,,,,,,2025-02-27,1,,,,,キノイエゲストハウス,0
852,4050001056231,新規,0,2025-02-27,2025-02-27,株式会社ヤマエンタープライズ,,株式会社,茨城県,牛久市,小坂町１９２９番地５,,08,219,3001286,,,,,,,2025-02-27,1,,,,,ヤマエンタープライズ,0
854,4050003009055,新規,0,2025-02-27,2025-02-27,合同会社杉山興業,,合同会社,茨城県,石岡市,山崎３２０１番地１３セピアコート八郷２０１,,08,205,3150125,,,,,,,2025-02-27,1,,,,,スギヤマコウギョウ,0
874,4120001273265,新規,0,2025-02-27,2025-02-27,株式会社ソラ,,株式会社,大阪府,大阪市中央区,南船場３丁目１１番１０号心斎橋大陽ビル,,27,128,5420081,,,,,,,2025-02-27,1,,,,,ソラ,0
879,4120005024813,新規,0,2025-02-27,2025-02-27,一般社団法人ＳＡＶＥ　ＴＨＥ　ＰＬＡＮＥＴ,,その他の設立登記法人,大阪府,寝屋川市,葛原１丁目１３番２０号,,27,215,5720075,,,,,,,2025-02-27,1,,,,,セイブザプラネット,0
889,4140005027384,新規,0,2025-02-27,2025-02-27,一般社団法人ほのぼの,,その他の設立登記法人,兵庫県,明石市,本町２丁目５番１３号玉澤ビル２０１号,,28,203,6730892,,,,,,,2025-02-27,1,,,,,ホノボノ,0
892,4170001018509,新規,0,2025-02-27,2025-02-27,株式会社スモールワン,,株式会社,和歌山県,和歌山市,東釘貫丁２丁目４７番地４,,30,201,6408064,,,,,,,2025-02-27,1,,,,,スモールワン,0
893,4170005007136,新規,0,2025-02-27,2025-02-27,特定非営利活動法人キセキ,,その他の設立登記法人,和歌山県,和歌山市,鳴神１１３番地２１,,30,201,6408303,,,,,,,2025-02-27,1,,,,,キセキ,0
899,4180001165614,新規,0,2025-02-27,2025-02-27,株式会社ダイジ商店,,株式会社,愛知県,名古屋市天白区,向が丘３丁目２０６番地の３,,23,116,4680012,,,,,,,2025-02-27,1,,,,,ダイジショウテン,0
902,4180301039526,新規,0,2025-02-27,2025-02-27,株式会社ＥＶＥＲＹ　ＮＥＸＵＳ,,株式会社,愛知県,安城市,三河安城南町１丁目１５－８サンテラス三河安城ビル６Ｆ,,23,212,4460058,,,,,,,2025-02-27,1,,,,,エブリィネクサス,0
904,4180303006466,新規,0,2025-02-27,2025-02-27,Ｐｉｅｃｅ　Ｕｎｉｑｕｅ　Ｆｉｎａｎｃｉａｌ　Ａｄｖｉｓｏｒｙ合同会社,,合同会社,愛知県,刈谷市,相生町２丁目２０パークホテルＱＳ２ＦＩＫＯＭＡＩＤＥＳＫ,,23,210,4480027,,,,,,,2025-02-27,1,,,,,ピエスユニックファイナンシャルアドバイザリー,0
905,4190001032029,新規,0,2025-02-27,2025-02-27,株式会社ｓｏａｒ,,株式会社,三重県,松阪市,垣鼻町８０９番地６９,,24,204,5150033,,,,,,,2025-02-27,1,,,,,ソアー,0
909,4200005013725,新規,0,2025-02-27,2025-02-27,特定非営利活動法人ねこのひげ,,その他の設立登記法人,岐阜県,高山市,神明町３丁目５３番地,,21,203,5060821,,,,,,,2025-02-27,1,,,,,ネコノヒゲ,0
917,4240001064578,新規,0,2025-02-27,2025-02-27,株式会社グリーンペッパー,,株式会社,広島県,広島市安佐南区,八木３丁目３７番１１号,,34,105,7310101,,,,,,,2025-02-27,1,,,,,グリーンペッパー,0
919,4240005015908,新規,0,2025-02-27,2025-02-27,医療法人しらさぎ,,その他の設立登記法人,広島県,広島市佐伯区,楽々園２丁目１番３４号,,34,108,7315136,,,,,,,2025-02-27,1,,,,,シラサギ,0
926,4290001109122,新規,0,2025-02-27,2025-02-27,株式会社アサヒグローバル,,株式会社,福岡県,福岡市東区,美和台７丁目１６番３号,,40,131,8110212,,,,,,,2025-02-27,1,,,,,アサヒグローバル,0
929,4290003016465,新規,0,2025-02-27,2025-02-27,合同会社ＤＳＳ,,合同会社,福岡県,福岡市南区,市崎２丁目１番１９号,,40,134,8150084,,,,,,,2025-02-27,1,,,,,ディーエスエス,0
936,4330003010810,新規,0,2025-02-27,2025-02-27,ＩＭ６号蓄電所合同会社,,合同会社,熊本県,球磨郡あさぎり町,深田西２３２６番地１６８,,43,514,8680444,,,,,,,2025-02-27,1,,,,,アイエムロクゴウチクデンショ,0
937,4330003010819,新規,0,2025-02-27,2025-02-27,ＩＭ１５号蓄電所合同会社,,合同会社,熊本県,球磨郡あさぎり町,深田西２３２６番地１６８,,43,514,8680444,,,,,,,2025-02-27,1,,,,,アイエムジュウゴゴウチクデンショ,0
938,4330003010827,新規,0,2025-02-27,2025-02-27,ＩＭ２３号蓄電所合同会社,,合同会社,熊本県,球磨郡あさぎり町,深田西２３２６番地１６８,,43,514,8680444,,,,,,,2025-02-27,1,,,,,アイエムニジュウサンゴウチクデンショ,0
940,4350001019414,新規,0,2025-02-27,2025-02-27,株式会社ＭＣＥ,,株式会社,宮崎県,宮崎市,丸山１丁目１７５番地セレスト宮崎９０１号,,45,201,8800052,,,,,,,2025-02-27,1,,,,,エムシーイー,0
941,4370001052289,新規,0,2025-02-27,2025-02-27,株式会社リハビリデイサービスＬｉｆｅ,,株式会社,宮城県,栗原市,志波姫新沼崎５１番地３,,04,213,9895613,,,,,,,2025-02-27,1,,,,,リハビリデイサービスライフ,0
942,4380001035103,新規,0,2025-02-27,2025-02-27,株式会社ソライロ,,株式会社,福島県,郡山市,安積町成田字田向１５０番地の３７,,07,203,9630112,,,,,,,2025-02-27,1,,,,,ソライロ,0
950,4430001093748,新規,0,2025-02-27,2025-02-27,ニセコトランスポート株式会社,,株式会社,北海道,虻田郡倶知安町,字峠下１２７番地４,,01,400,0440085,,,,,,,2025-02-27,1,,,,,ニセコトランスポート,0
951,4430001093772,新規,0,2025-02-27,2025-02-27,株式会社Ａｖａｎｚａｒ,,株式会社,北海道,札幌市中央区,南二条西５丁目３１－１ＲＭＢｌｄ．７０１,,01,101,0600062,,,,,,,2025-02-27,1,,,,,アヴァンサル,0
954,4440003001666,新規,0,2025-02-27,2025-02-27,合同会社Ｗ‐ａｃｔ,,合同会社,北海道,函館市,白鳥町５番６号,,01,202,0400082,,,,,,,2025-02-27,1,,,,,ダブルアクト,0
956,4480005007063,新規,0,2025-02-27,2025-02-27,一般社団法人心郷,,その他の設立登記法人,徳島県,徳島市,南昭和町５丁目６８番地２,,36,201,7700944,,,,,,,2025-02-27,1,,,,,シンキョウ,0
958,4700150129300,新規,0,2025-02-27,2025-02-27,Ｓｈａｎｇ　Ｈａｉ　Ｘｉｎ　Ｂａ　Ｓｈｉ　Ｙｅ　Ｙｏｕ　Ｘｉａｎ　Ｇｏｎｇ　Ｓｉ,,外国会社等,,,,,,,,Ｚｈａｎｇｙａｎ　Ｅｃｏｎｏｍｉｃ　Ｐａｒｋ，Ｎｏ．６９　Ｈｕａｘｉａｎ　Ｒｏａｄ，Ｚｈａｎｇｙａｎ　Ｔｏｗｎ，Ｊｉｎｓｈａｎ　Ｄｉｓｔ，Ｓｈａｎｇｈａｉ　２０１５４０　ＣＮ,,,,,,2025-02-27,1,,,,,シャンハイシンバシーイエヨウシェンゴンスー,0
962,5010001252592,新規,0,2025-02-27,2025-02-27,株式会社Ｊａｐａｎ　Ｐｒｏｍｏｔｉｏｎ　Ｈｏｌｄｉｎｇｓ,,株式会社,東京都,千代田区,大手町１丁目７番２号,,13,101,1000004,,,,,,,2025-02-27,1,,,,,ジャパンプロモーションホールディングス,0
963,5010001252601,新規,0,2025-02-27,2025-02-27,株式会社スターフィールド,,株式会社,東京都,中央区,京橋１丁目１番５号,,13,102,1040031,,,,,,,2025-02-27,1,,,,,スターフィールド,0
964,5010001252618,新規,0,2025-02-27,2025-02-27,ＲＥＡＣＵＢＥ株式会社,,株式会社,東京都,千代田区,外神田２丁目３番１号,,13,101,1010021,,,,,,,2025-02-27,1,,,,,レアキューブ,0
966,5010003046563,新規,0,2025-02-27,2025-02-27,ユリ伏見合同会社,,合同会社,東京都,千代田区,神田神保町１丁目１１番地さくら綜合事務所内,,13,101,1010051,,,,,,,2025-02-27,1,,,,,ユリフシミ,0
969,5010005039648,新規,0,2025-02-27,2025-02-27,鳥栖産業施設一般社団法人,,その他の設立登記法人,東京都,千代田区,平河町１丁目６番１５号シルスフィア会計事務所内,,13,101,1020093,,,,,,,2025-02-27,1,,,,,トスサンギョウシセツ,0
980,5010401188098,新規,0,2025-02-27,2025-02-27,新企程株式会社,,株式会社,東京都,港区,西新橋３丁目１４番５号エラスムス虎ノ門３階,,13,103,1050003,,,,,,,2025-02-27,1,,,,,シンキテイ,0
986,5010403034465,新規,0,2025-02-27,2025-02-27,合同会社生成ＡＩ解析研究所,,合同会社,東京都,港区,六本木３丁目２番２,,13,103,1060032,,,,,,,2025-02-27,1,,,,,セイセイエーアイカイセキケンキュウジョ,0
990,5010703007591,新規,0,2025-02-27,2025-02-27,合同会社アンダーアーム,,合同会社,東京都,品川区,東五反田１丁目１９番８－４０２号,,13,109,1410022,,,,,,,2025-02-27,1,,,,,アンダーアーム,0
1000,5011003021085,新規,0,2025-02-27,2025-02-27,合同会社咲,,合同会社,東京都,渋谷区,渋谷２丁目１９番１５号宮益坂ビルディング６０９,,13,113,1500002,,,,,,,2025-02-27,1,,,,,サキ,0
1001,5011003021102,新規,0,2025-02-27,2025-02-27,合同会社ｎａｔｕｒｅ　ｔｈｉｎｋ,,合同会社,東京都,渋谷区,代官山町１４‐６レジェンド代官山２０７,,13,113,1500034,,,,,,,2025-02-27,1,,,,,ネイチャーシンク,0
1007,5011701028084,新規,0,2025-02-27,2025-02-27,ＢＬＵＥ　ＳＫＹ株式会社,,株式会社,東京都,江戸川区,平井４丁目２９番９－５０４号,,13,123,1320035,,,,,,,2025-02-27,1,,,,,ブルースカイ,0
1009,5011801045707,新規,0,2025-02-27,2025-02-27,株式会社ＸＭａｔ,,株式会社,東京都,葛飾区,新宿６丁目３－１,,13,122,1250051,,,,,,,2025-02-27,1,,,,,エックスマット,0
1010,5011803006707,新規,0,2025-02-27,2025-02-27,ＴＲＩＣＫ合同会社,,合同会社,東京都,足立区,西加平２丁目５－１１－１０５,,13,121,1210074,,,,,,,2025-02-27,1,,,,,トリック,0
1022,5020001161421,新規,0,2025-02-27,2025-02-27,Ｓｏｕｔｈ　Ｐｒｏｄｕｃｔｉｏｎｓ株式会社,,株式会社,神奈川県,横浜市瀬谷区,上瀬谷町２７番地１４,,14,114,2460006,,,,,,,2025-02-27,1,,,,,サウスプロダクションズ,0
1027,5020003027851,新規,0,2025-02-27,2025-02-27,ＥＭＰＩＲＥ　ＥＮＴＥＲＰＲＩＳＥＳ合同会社,,合同会社,神奈川県,横浜市港南区,最戸２丁目１８番３号メゾン上大岡１０２,,14,111,2330008,,,,,,,2025-02-27,1,,,,,エンパイアエンタープライズィズ,0
1038,5030001165017,新規,0,2025-02-27,2025-02-27,株式会社小笹機型製作所,,株式会社,埼玉県,川口市,朝日５丁目２番８号,,11,203,3320001,,,,,,,2025-02-27,1,,,,,オザサキガタセイサクショ,0
1039,5030001165058,新規,0,2025-02-27,2025-02-27,令建美装株式会社,,株式会社,埼玉県,坂戸市,山田町４－２１グランシャトレ坂戸ソレイユコート４０５,,11,239,3500224,,,,,,,2025-02-27,1,,,,,レイケンビソウ,0
1042,5030003026209,新規,0,2025-02-27,2025-02-27,合同会社ＰＲＩＭＥ,,合同会社,埼玉県,吉川市,大字川野１０４－１,,11,243,3420051,,,,,,,2025-02-27,1,,,,,プライム,0
1046,5040001137551,新規,0,2025-02-27,2025-02-27,Ｔｈｒｅｅ　Ｄｏｏｒｓ株式会社,,株式会社,千葉県,千葉市稲毛区,園生町４５１－１－３階Ａ,,12,103,2630051,,,,,,,2025-02-27,1,,,,,ツリードアーズ,0
1047,5040001137584,新規,0,2025-02-27,2025-02-27,ＴＩＣ株式会社,,株式会社,千葉県,習志野市,津田沼２丁目６番１０－６１０号,,12,216,2750016,,,,,,,2025-02-27,1,,,,,ティーアイシー,0
1051,5040003026967,新規,0,2025-02-27,2025-02-27,合同会社けやき,,合同会社,千葉県,鎌ケ谷市,南鎌ケ谷１丁目１２－３５,,12,224,2730106,,,,,,,2025-02-27,1,,,,,ケヤキ,0
1068,5120001273248,新規,0,2025-02-27,2025-02-27,株式会社ＧｌｏｗＬｉｎｅ,,株式会社,大阪府,大阪市浪速区,元町２丁目２番１７号,,27,111,5560016,,,,,,,2025-02-27,1,,,,,グローライン,0
1069,5120001273256,新規,0,2025-02-27,2025-02-27,株式会社ＭＤ,,株式会社,大阪府,大阪市生野区,田島２丁目１０番３０号２０１,,27,116,5440011,,,,,,,2025-02-27,1,,,,,エムディー,0
1070,5120005024812,新規,0,2025-02-27,2025-02-27,一般社団法人日本リーダーシップ・ウェルビーイング医学会,,その他の設立登記法人,大阪府,大阪市北区,豊崎３丁目１５番５号ＴＫビル２階,,27,127,5310072,,,,,,,2025-02-27,1,,,,,ニホンリーダーシップウェルビーイングイガクカイ,0
1073,5120901050498,新規,0,2025-02-27,2025-02-27,株式会社ロコ,,株式会社,大阪府,茨木市,彩都あさぎ２丁目１番６－８０６号,,27,211,5670085,,,,,,,2025-02-27,1,,,,,ロコ,0
1076,5120905006694,新規,0,2025-02-27,2025-02-27,一般社団法人Ｃｈｅｚ　ｍｏｉ,,その他の設立登記法人,大阪府,箕面市,桜５丁目８番７号,,27,220,5620041,,,,,,,2025-02-27,1,,,,,シェモア,0
1078,5122001038928,新規,0,2025-02-27,2025-02-27,株式会社新佑,,株式会社,大阪府,東大阪市,若江東町６丁目３番３２号,,27,227,5780935,,,,,,,2025-02-27,1,,,,,シンユウ,0
1096,5180001165563,新規,0,2025-02-27,2025-02-27,株式会社ＭＴＫ,,株式会社,愛知県,名古屋市中区,上前津１丁目３番１５号高間ビル１階,,23,106,4600013,,,,,,,2025-02-27,1,,,,,エムティーケイ,0
1104,5200001043469,新規,0,2025-02-27,2025-02-27,ウエルライフファーマシー株式会社,,株式会社,岐阜県,岐阜市,北一色１０丁目１１番１２号,,21,201,5008227,,,,,,,2025-02-27,1,,,,,ウエルライフファーマシー,0
1105,5200003006705,新規,0,2025-02-27,2025-02-27,合同会社プログレス,,合同会社,岐阜県,羽島郡岐南町,伏屋１丁目５番地の４,,21,302,5016006,,,,,,,2025-02-27,1,,,,,プログレス,0
1107,5200005013724,新規,0,2025-02-27,2025-02-27,一般社団法人アシストかわうえ,,その他の設立登記法人,岐阜県,中津川市,川上１０５８番地２,,21,206,5099201,,,,,,,2025-02-27,1,,,,,アシストカワウエ,0
1117,5240005015907,新規,0,2025-02-27,2025-02-27,一般社団法人ヒアルロン酸協会,,その他の設立登記法人,広島県,広島市中区,大手町１丁目８番２２号３階,,34,101,7300051,,,,,,,2025-02-27,1,,,,,ヒアルロンサンキョウカイ,0
1119,5260001039932,新規,0,2025-02-27,2025-02-27,株式会社岩倉建工,,株式会社,岡山県,倉敷市,水江１４００番地,,33,202,7100802,,,,,,,2025-02-27,1,,,,,イワクラケンコウ,0
1123,5290001109105,新規,0,2025-02-27,2025-02-27,ホーム不動産株式会社,,株式会社,福岡県,福岡市早良区,有田８丁目８番３１号,,40,137,8140033,,,,,,,2025-02-27,1,,,,,ホームフドウサン,0
1124,5290001109113,新規,0,2025-02-27,2025-02-27,ＫＳＰ株式会社,,株式会社,福岡県,福岡市博多区,東平尾２丁目１３番３２号,,40,132,8120853,,,,,,,2025-02-27,1,,,,,ケーエスピー,0
1125,5290001109121,新規,0,2025-02-27,2025-02-27,株式会社Ｌａｐｏ,,株式会社,福岡県,八女郡広川町,大字新代９７３番地８,,40,544,8340115,,,,,,,2025-02-27,1,,,,,ラポ,0
1128,5290003016464,新規,0,2025-02-27,2025-02-27,合同会社ネクストリード,,合同会社,福岡県,福岡市東区,香椎駅東３丁目２２番６２－３０２号アベックス香椎,,40,131,8130012,,,,,,,2025-02-27,1,,,,,ネクストリード,0
1130,5290005019663,新規,0,2025-02-27,2025-02-27,特定非営利活動法人福岡不登校・ひきこもり支援研究会,,その他の設立登記法人,福岡県,福岡市博多区,上牟田２丁目８番１０号,,40,132,8120006,,,,,,,2025-02-27,1,,,,,フクオカフトウコウヒキコモリシエンケンキュウカイ,0
1146,5330001032905,新規,0,2025-02-27,2025-02-27,株式会社ドクタードクター,,株式会社,熊本県,熊本市中央区,水前寺４丁目８番５号スカイコート水前寺１０１号,,43,101,8620950,,,,,,,2025-02-27,1,,,,,ドクタードクター,0
1147,5330003010818,新規,0,2025-02-27,2025-02-27,ＩＭ１４号蓄電所合同会社,,合同会社,熊本県,球磨郡あさぎり町,深田西２３２６番地１６８,,43,514,8680444,,,,,,,2025-02-27,1,,,,,アイエムジュウヨンゴウチクデンショ,0
1148,5330003010826,新規,0,2025-02-27,2025-02-27,ＩＭ２２号蓄電所合同会社,,合同会社,熊本県,球磨郡あさぎり町,深田西２３２６番地１６８,,43,514,8680444,,,,,,,2025-02-27,1,,,,,アイエムニジュウニゴウチクデンショ,0
1149,5350001019413,新規,0,2025-02-27,2025-02-27,株式会社ＳＴＥＰ　ＯＮＥ,,株式会社,宮崎県,都城市,金田町２１３５番地２,,45,202,8850001,,,,,,,2025-02-27,1,,,,,ステップワン,0
1150,5350003004850,新規,0,2025-02-27,2025-02-27,合同会社ありさんｆａｒｍ,,合同会社,宮崎県,えびの市,大字坂元７９０番地１７,,45,209,8894312,,,,,,,2025-02-27,1,,,,,アリサンファーム,0
1151,5360001034824,新規,0,2025-02-27,2025-02-27,株式会社輝企画,,株式会社,沖縄県,中頭郡読谷村,字座喜味５２１番地,,47,324,9040301,,,,,,,2025-02-27,1,,,,,テルキカク,0
1152,5360003014691,新規,0,2025-02-27,2025-02-27,合同会社ハナシロ,,合同会社,沖縄県,沖縄市,高原５丁目１番２１号Ａ,,47,211,9042171,,,,,,,2025-02-27,1,,,,,ハナシロ,0
1153,5360003014725,新規,0,2025-02-27,2025-02-27,布袋の里合同会社,,合同会社,沖縄県,国頭郡本部町,字伊豆味２８２１－５,,47,308,9050221,,,,,,,2025-02-27,1,,,,,ホテイノサト,0
1155,5370001052288,新規,0,2025-02-27,2025-02-27,株式会社ますこ,,株式会社,宮城県,仙台市宮城野区,二の森１０番１０号,,04,102,9830838,,,,,,,2025-02-27,1,,,,,マスコ,0
1156,5370003006952,新規,0,2025-02-27,2025-02-27,ＳＡＫＵＲＡ合同会社,,合同会社,宮城県,石巻市,立町２丁目３番２３号シルクヒルズ３階,,04,202,9860824,,,,,,,2025-02-27,1,,,,,サクラ,0
1162,5380001035110,新規,0,2025-02-27,2025-02-27,Ａｉｚｕ‐ＢＡＳＥ株式会社,,株式会社,福島県,会津若松市,一箕町大字鶴賀字上居合１２９番地の３,,07,202,9650006,,,,,,,2025-02-27,1,,,,,アイヅベース,0
1170,5420001019034,新規,0,2025-02-27,2025-02-27,株式会社リーベシムラ,,株式会社,青森県,八戸市,大字鍛冶町１７番地,,02,203,0310037,,,,,,,2025-02-27,1,,,,,リーベシムラ,0
1180,5430001093739,新規,0,2025-02-27,2025-02-27,株式会社ＲＥＬＡＩＲ,,株式会社,北海道,札幌市西区,琴似四条１丁目１－１５Ｄ’グラフォート琴似メトロポリス５２５号,,01,107,0630814,,,,,,,2025-02-27,1,,,,,リレア,0
1181,5430001093755,新規,0,2025-02-27,2025-02-27,札幌小町株式会社,,株式会社,北海道,札幌市中央区,北四条西２４丁目１番１０号,,01,101,0640824,,,,,,,2025-02-27,1,,,,,サッポロコマチ,0
1182,5430001093771,新規,0,2025-02-27,2025-02-27,株式会社ＬｏｃａｌＡｉｄ,,株式会社,北海道,札幌市豊平区,美園三条８丁目１番１－４０３号,,01,105,0620003,,,,,,,2025-02-27,1,,,,,ローカルエイド,0
1191,5700150129299,新規,0,2025-02-27,2025-02-27,ＭＡＸＧＥＡＲ　ＯＦＦＩＣＥ　ＬＩＭＩＴＥＤ,,外国会社等,,,,,,,,Ｈｏ　Ｋｉｎｇ　Ｃｏｍｍｅｒｃｉａｌ　Ｂｕｉｌｄｉｎｇ　１６ｔｈ　ｆｌｏｏｒ，Ｒｏｏｍ　４　Ｋｏｗｌｏｏｎ　Ｍｏｎｇ　Ｋｏｋ　Ｆａ　Ｙｕｅｎ　Ｓｔｒｅｅｔ　Ｎｕｍｂｅｒ　２－１６　Ｈｏｎｇ　Ｋｏｎｇ　９９９０７７　ＨＫ,,,,,,2025-02-27,1,,,,,マックスギアオフィスリミテッド,0
1198,6010001252591,新規,0,2025-02-27,2025-02-27,株式会社ベンゴシステム,,株式会社,東京都,千代田区,平河町１丁目４－１５平河町小池ビル４Ｆ,,13,101,1020093,,,,,,,2025-02-27,1,,,,,ベンゴシステム,0
1199,6010001252633,新規,0,2025-02-27,2025-02-27,ゲームセプト株式会社,,株式会社,東京都,中央区,銀座１丁目１２番４号Ｎ＆Ｅ－ＢＬＤ．６Ｆ,,13,102,1040061,,,,,,,2025-02-27,1,,,,,ゲームセプト,0
1200,6010001252641,新規,0,2025-02-27,2025-02-27,株式会社Ｎｅｘｕｓ,,株式会社,東京都,千代田区,神田多町２丁目８番２０号５０５号室,,13,101,1010046,,,,,,,2025-02-27,1,,,,,ネクサス,0
1201,6010001252674,新規,0,2025-02-27,2025-02-27,株式会社Ｓｅｐｔｅｍｂｅｒ４,,株式会社,東京都,中央区,日本橋室町１丁目１１番１２号日本橋水野ビル７階,,13,102,1030022,,,,,,,2025-02-27,1,,,,,セプテンバーフォース,0
1203,6010003046554,新規,0,2025-02-27,2025-02-27,滝井オフィス合同会社,,合同会社,東京都,中央区,銀座６丁目１０－１ＧＩＮＺＡＳＩＸ１３Ｆ,,13,102,1040061,,,,,,,2025-02-27,1,,,,,,0
1206,6010005039639,新規,0,2025-02-27,2025-02-27,一般社団法人Ｈａｉｔｉ　Ｃｏｒｅ,,その他の設立登記法人,東京都,中央区,新川１丁目１７番１８号,,13,102,1040033,,,,,,,2025-02-27,1,,,,,ハイチコア,0
1207,6010101016533,新規,0,2025-02-27,2025-02-27,株式会社Ｓｕｚａｋｉ商店,,株式会社,東京都,八王子市,中野上町４丁目２５番１４号,,13,201,1920041,,,,,,,2025-02-27,1,,,,,スザキショウテン,0
1211,6010401188238,新規,0,2025-02-27,2025-02-27,ＡＧＢキャピタル株式会社,,株式会社,東京都,港区,赤坂１丁目１２－３２,,13,103,1070052,,,,,,,2025-02-27,1,,,,,エージービーキャピタル,0
1214,6010501053696,新規,0,2025-02-27,2025-02-27,株式会社Ｃｈｏｕｅｔｔｅ,,株式会社,東京都,台東区,鳥越２丁目８番１２号浅沼ビル２Ｆ,,13,106,1110054,,,,,,,2025-02-27,1,,,,,シュエット,0
1215,6010501053721,新規,0,2025-02-27,2025-02-27,観瀾株式会社,,株式会社,東京都,台東区,東上野６丁目１番１７号東上野中央ビル３０６号室,,13,106,1100015,,,,,,,2025-02-27,1,,,,,カンラン,0
1220,6010801035873,新規,0,2025-02-27,2025-02-27,株式会社Ｚｅｅｔｉｏ,,株式会社,東京都,大田区,大森南４丁目７番２号,,13,111,1430013,,,,,,,2025-02-27,1,,,,,ゼーティオ,0
1225,6010903009734,新規,0,2025-02-27,2025-02-27,合同会社ＴＩＭＳ　ＥＮＴＥＲＴＡＩＮＭＥＮＴ,,合同会社,東京都,世田谷区,北沢２丁目１４番６号,,13,112,1550031,,,,,,,2025-02-27,1,,,,,ティムズエンターテインメント,0
1233,6011005010878,新規,0,2025-02-27,2025-02-27,一般社団法人Ｃａｎｏｐｙｏｎ　Ｉｎｉｔｉａｔｉｖｅ,,その他の設立登記法人,東京都,目黒区,自由が丘２丁目１６番１２号ＲＪ３,,13,110,1520035,,,,,,,2025-02-27,1,,,,,キャノピオンイニシアチブ,0
1238,6011101110739,新規,0,2025-02-27,2025-02-27,株式会社ネコアイランド,,株式会社,東京都,新宿区,西新宿８丁目１１番１０号星野ビル３０８室,,13,104,1600023,,,,,,,2025-02-27,1,,,,,ネコアイランド,0
1239,6011101110771,新規,0,2025-02-27,2025-02-27,株式会社ＢＲＡＶＥ,,株式会社,東京都,新宿区,高田馬場１丁目２９－２２寿ビル２０２号室,,13,104,1690075,,,,,,,2025-02-27,1,,,,,ブレイブ,0
1240,6011103015589,新規,0,2025-02-27,2025-02-27,ＫＥＩＧＡＮエナジー１号合同会社,,合同会社,東京都,新宿区,西新宿６丁目１０－１日土地西新宿ビル,,13,104,1600023,,,,,,,2025-02-27,1,,,,,ケイガンエナジーイチゴウ,0
1254,6011801045697,新規,0,2025-02-27,2025-02-27,鴻禧株式会社,,株式会社,東京都,葛飾区,鎌倉１丁目２２番４号,,13,122,1250053,,,,,,,2025-02-27,1,,,,,コウキ,0
1255,6012403006996,新規,0,2025-02-27,2025-02-27,合同会社パーソナルコンサルタンツ,,合同会社,東京都,府中市,是政４丁目８番地８,,13,206,1830014,,,,,,,2025-02-27,1,,,,,パーソナルコンサルタンツ,0
1259,6013301053841,新規,0,2025-02-27,2025-02-27,株式会社エムズライフ,,株式会社,東京都,豊島区,西池袋５丁目２６番１６号ＣＨＩＢＡビル４Ｆ,,13,116,1710021,,,,,,,2025-02-27,1,,,,,エムズライフ,0
1267,6020001161429,新規,0,2025-02-27,2025-02-27,株式会社クラン,,株式会社,神奈川県,横浜市保土ケ谷区,鎌谷町１４２－３１１,,14,106,2400063,,,,,,,2025-02-27,1,,,,,クラン,0
1282,6030001165008,新規,0,2025-02-27,2025-02-27,Ｇエージェント株式会社,,株式会社,埼玉県,川口市,金山町１２番１号Ｍｉо川口２０８号,,11,203,3320014,,,,,,,2025-02-27,1,,,,,ジーエージェント,0
1283,6030001165016,新規,0,2025-02-27,2025-02-27,株式会社のぞみ,,株式会社,埼玉県,朝霞市,仲町１丁目４番３５号星野ビル３階,,11,227,3510006,,,,,,,2025-02-27,1,,,,,ノゾミ,0
1284,6030001165040,新規,0,2025-02-27,2025-02-27,株式会社クロスフィールド,,株式会社,埼玉県,さいたま市中央区,上峰４丁目１３番１４－１号,,11,105,3380014,,,,,,,2025-02-27,1,,,,,クロスフィールド,0
1295,6040001137501,新規,0,2025-02-27,2025-02-27,株式会社ケイオーマネジメント,,株式会社,千葉県,市川市,真間１丁目１番５号,,12,203,2720826,,,,,,,2025-02-27,1,,,,,ケイオーマネジメント,0
1296,6040001137550,新規,0,2025-02-27,2025-02-27,恒誠堂株式会社,,株式会社,千葉県,千葉市若葉区,加曽利町９４７－７,,12,104,2640017,,,,,,,2025-02-27,1,,,,,コウセイドウ,0
1297,6040001137559,新規,0,2025-02-27,2025-02-27,森珀株式会社,,株式会社,千葉県,いすみ市,高谷１６番,,12,238,2980021,,,,,,,2025-02-27,1,,,,,シンハク,0
1298,6040001137567,新規,0,2025-02-27,2025-02-27,株式会社エスシステムコンサルタント,,株式会社,千葉県,千葉市若葉区,都賀の台４丁目１２－３,,12,104,2640033,,,,,,,2025-02-27,1,,,,,エスシステムコンサルタント,0
1302,6040003026966,新規,0,2025-02-27,2025-02-27,合同会社七つ星,,合同会社,千葉県,松戸市,西馬橋蔵元町１３－５０１,,12,207,2710046,,,,,,,2025-02-27,1,,,,,ナナツボシ,0
1307,6050001056188,新規,0,2025-02-27,2025-02-27,株式会社ソフトＡＩ,,株式会社,茨城県,つくば市,二の宮１丁目２番地２,,08,220,3050051,,,,,,,2025-02-27,1,,,,,ソフトエイアイ,0
1309,6050003009061,新規,0,2025-02-27,2025-02-27,合同会社ＣＡＮ,,合同会社,茨城県,筑西市,海老ヶ島１３４６－１,,08,227,3004517,,,,,,,2025-02-27,1,,,,,キャン,0
1313,6060001037939,新規,0,2025-02-27,2025-02-27,株式会社心裕会メディカルサポートグループ,,株式会社,栃木県,宇都宮市,上戸祭町２８３４番地２２０,,09,201,3200051,,,,,,,2025-02-27,1,,,,,シンユウカイメディカルサポートグループ,0
1314,6060001037955,新規,0,2025-02-27,2025-02-27,ＭＯＭＯ株式会社,,株式会社,栃木県,栃木市,薗部町４丁目１７,,09,203,3280074,,,,,,,2025-02-27,1,,,,,モモ,0
1322,6090001019141,新規,0,2025-02-27,2025-02-27,株式会社スレッド,,株式会社,山梨県,甲斐市,長塚３９番地２,,19,210,4000125,,,,,,,2025-02-27,1,,,,,スレッド,0
1334,6120001273255,新規,0,2025-02-27,2025-02-27,Ｎｅｘｕｓ株式会社,,株式会社,大阪府,大阪市淀川区,西三国３丁目１７番１８号２階Ｄ室,,27,123,5320006,,,,,,,2025-02-27,1,,,,,ネクサス,0
1335,6120001273271,新規,0,2025-02-27,2025-02-27,株式会社Ｇ＆Ｂ,,株式会社,大阪府,大阪市北区,天神橋１丁目１９－１５,,27,127,5300041,,,,,,,2025-02-27,1,,,,,ジーアンドビー,0
1337,6120003028723,新規,0,2025-02-27,2025-02-27,合同会社希望開拓堂,,合同会社,大阪府,大阪市東住吉区,田辺２丁目５番２２号,,27,121,5460031,,,,,,,2025-02-27,1,,,,,キボウカイタクドウ,0
1338,6120005024811,新規,0,2025-02-27,2025-02-27,一般社団法人日本オートミール協会,,その他の設立登記法人,大阪府,大阪市中央区,常盤町２丁目４番８号,,27,128,5400028,,,,,,,2025-02-27,1,,,,,ニホンオートミールキョウカイ,0
1339,6120101071138,新規,0,2025-02-27,2025-02-27,株式会社ＭＯＫＡＮＡ,,株式会社,大阪府,和泉市,室堂町２８０－１,,27,219,5941101,,,,,,,2025-02-27,1,,,,,モカナ,0
1342,6120901050497,新規,0,2025-02-27,2025-02-27,株式会社Ｓｈａｄｅ　ｏｆ　ａ　ｔｒｅｅ,,株式会社,大阪府,吹田市,山手町１丁目２２番３４－１０１号,,27,205,5640073,,,,,,,2025-02-27,1,,,,,シェイドオブアツリー,0
1343,6130001079065,新規,0,2025-02-27,2025-02-27,株式会社金子建設工業,,株式会社,京都府,京都市伏見区,淀本町２２４番地１,,26,109,6130903,,,,,,,2025-02-27,1,,,,,カネコケンセツコウギョウ,0
1344,6130001079073,新規,0,2025-02-27,2025-02-27,九縁商事株式会社,,株式会社,京都府,京都市南区,上鳥羽南唐戸町７番地５０４号室,,26,107,6018107,,,,,,,2025-02-27,1,,,,,キュウエンショウジ,0
1350,6140001137532,新規,0,2025-02-27,2025-02-27,井上産業株式会社,,株式会社,兵庫県,神戸市東灘区,御影２丁目１２番２６－２０２号,,28,101,6580047,,,,,,,2025-02-27,1,,,,,イノウエサンギョウ,0
1351,6140001137540,新規,0,2025-02-27,2025-02-27,ＹＭ２株式会社,,株式会社,兵庫県,多可郡多可町,加美区箸荷８４８番地５,,28,365,6791334,,,,,,,2025-02-27,1,,,,,ワイエムツー,0
1352,6140003021718,新規,0,2025-02-27,2025-02-27,ＪＭＨ合同会社,,合同会社,兵庫県,姫路市,飾磨区天神９１番地,,28,201,6728061,,,,,,,2025-02-27,1,,,,,ジェイエムエイチ,0
1357,6150001027906,新規,0,2025-02-27,2025-02-27,株式会社えほん不動産,,株式会社,奈良県,奈良市,学園大和町５丁目３３番地平井マンション１０６号室,,29,201,6310041,,,,,,,2025-02-27,1,,,,,エホンフドウサン,0
1358,6160001026576,新規,0,2025-02-27,2025-02-27,株式会社ＲｉＴＡ,,株式会社,滋賀県,草津市,矢橋町１５４２番地３,,25,206,5250066,,,,,,,2025-02-27,1,,,,,リタ,0
1365,6180001165604,新規,0,2025-02-27,2025-02-27,ＡＳＳ株式会社,,株式会社,愛知県,長久手市,北浦２５１８番地２８４,,23,238,4801301,,,,,,,2025-02-27,1,,,,,エーエスエス,0
1366,6180001165612,新規,0,2025-02-27,2025-02-27,ＦＰＴスマートテクノロジーズジャパン株式会社,,株式会社,愛知県,名古屋市中区,丸の内３丁目２２番２４号,,23,106,4600002,,,,,,,2025-02-27,1,,,,,エフピーティースマートテクノロジーズジャパン,0
1367,6180001165620,新規,0,2025-02-27,2025-02-27,株式会社Ｊｉｎ不動産,,株式会社,愛知県,名古屋市中川区,中郷５丁目３９番地,,23,110,4540921,,,,,,,2025-02-27,1,,,,,ジンフドウサン,0
1368,6180001165629,新規,0,2025-02-27,2025-02-27,株式会社インサイト,,株式会社,愛知県,名古屋市千種区,高見２丁目８番３６号セントラルガーデン・レジデンスＡ－１３０４号,,23,101,4640073,,,,,,,2025-02-27,1,,,,,インサイト,0
1374,6180005020961,新規,0,2025-02-27,2025-02-27,一般社団法人就労支援心理士協会,,その他の設立登記法人,愛知県,名古屋市東区,徳川２丁目２４番３号第２山中ビル４０１,,23,102,4610025,,,,,,,2025-02-27,1,,,,,シュウロウシエンシンリシキョウカイ,0
1380,6200003006704,新規,0,2025-02-27,2025-02-27,ＭＨ　ＴＲＡＤＩＮＧ合同会社,,合同会社,岐阜県,安八郡安八町,氷取１０２番地メゾンヒノデ１０２号,,21,383,5030121,,,,,,,2025-02-27,1,,,,,エムエイチトレーディング,0
1393,6240001064527,新規,0,2025-02-27,2025-02-27,株式会社７Ｒ,,株式会社,広島県,三原市,旭町２丁目６番１１号,,34,204,7230012,,,,,,,2025-02-27,1,,,,,セブンアール,0
1394,6240001064576,新規,0,2025-02-27,2025-02-27,東亜建設株式会社,,株式会社,広島県,広島市安佐北区,可部町大字南原１５３番地１,,34,106,7310215,,,,,,,2025-02-27,1,,,,,トウアケンセツ,0
1398,6260001039948,新規,0,2025-02-27,2025-02-27,株式会社ＬｕｓｈＴｏｗｎ,,株式会社,岡山県,倉敷市,玉島２丁目２９番３－２号,,33,202,7138102,,,,,,,2025-02-27,1,,,,,ラッシュタウン,0
1407,6290001109005,新規,0,2025-02-27,2025-02-27,株式会社ＩＳサポート,,株式会社,福岡県,八女市,宅間田４７８番地２,,40,210,8340001,,,,,,,2025-02-27,1,,,,,アイエスサポート,0
1408,6290001109087,新規,0,2025-02-27,2025-02-27,株式会社ロクシアシステムズ,,株式会社,福岡県,福岡市中央区,天神２丁目２番１２号Ｔ＆Ｊビルディング７Ｆ,,40,133,8100001,,,,,,,2025-02-27,1,,,,,ロクシアシステムズ,0
1409,6290001109095,新規,0,2025-02-27,2025-02-27,株式会社エイティーン,,株式会社,福岡県,春日市,春日原北町５丁目２７番地１０３号,,40,218,8160802,,,,,,,2025-02-27,1,,,,,エイティーン,0
1410,6290001109120,新規,0,2025-02-27,2025-02-27,＿晟株式会社,00138150,株式会社,福岡県,福岡市中央区,渡辺通２丁目１番２７－６０２号ミスモ天神,,40,133,8100004,,,,,,,2025-02-27,1,,,,,コウセイ,0
1414,6290003016463,新規,0,2025-02-27,2025-02-27,合同会社宗和軽運,,合同会社,福岡県,久留米市,三潴町西牟田６１５１番地１,,40,203,8300111,,,,,,,2025-02-27,1,,,,,ソウワケイウン,0
1418,6290801031291,新規,0,2025-02-27,2025-02-27,株式会社ｍａｄｅ　ｉｎ　ｓｈｏｋｏ,,株式会社,福岡県,北九州市八幡東区,東田３丁目２－１０２イオンモール八幡東３Ｆ　ＨＵＧＬＯＴ内,,40,108,8050071,,,,,,,2025-02-27,1,,,,,メイドインショーコ,0
1419,6290801031300,新規,0,2025-02-27,2025-02-27,株式会社ＫＭＳ,,株式会社,福岡県,北九州市八幡西区,池田３丁目６－１６,,40,109,8071125,,,,,,,2025-02-27,1,,,,,ケイエムエス,0
1423,6330003010809,新規,0,2025-02-27,2025-02-27,ＩＭ５号蓄電所合同会社,,合同会社,熊本県,球磨郡あさぎり町,深田西２３２６番地１６８,,43,514,8680444,,,,,,,2025-02-27,1,,,,,アイエムゴゴウチクデンショ,0
1424,6330003010817,新規,0,2025-02-27,2025-02-27,ＩＭ１３号蓄電所合同会社,,合同会社,熊本県,球磨郡あさぎり町,深田西２３２６番地１６８,,43,514,8680444,,,,,,,2025-02-27,1,,,,,アイエムジュウサンゴウチクデンショ,0
1425,6330003010825,新規,0,2025-02-27,2025-02-27,ＩＭ２１号蓄電所合同会社,,合同会社,熊本県,球磨郡あさぎり町,深田西２３２６番地１６８,,43,514,8680444,,,,,,,2025-02-27,1,,,,,アイエムニジュウイチゴウチクデンショ,0
1426,6330003010866,新規,0,2025-02-27,2025-02-27,合同会社サウスアイランドＫＤ,,合同会社,熊本県,熊本市南区,島町５丁目１０番１６号,,43,104,8614133,,,,,,,2025-02-27,1,,,,,サウスアイランドケーディー,0
1432,6360005007180,新規,0,2025-02-27,2025-02-27,一般社団法人沖縄中資企業協会,,その他の設立登記法人,沖縄県,宜野湾市,大山６丁目３番３号２Ｆ,,47,205,9012223,,,,,,,2025-02-27,1,,,,,オキナワチュウシキギョウキョウカイ,0
1433,6370001052287,新規,0,2025-02-27,2025-02-27,株式会社加藤菓子店,,株式会社,宮城県,石巻市,築山１丁目１番１１９号,,04,202,9860857,,,,,,,2025-02-27,1,,,,,カトウカシテン,0
1434,6370001052295,新規,0,2025-02-27,2025-02-27,ＩＤＥＡｓ　ｆｏｒ　ｎｅｘｔ株式会社,,株式会社,宮城県,気仙沼市,東新城２丁目７番地５,,04,205,9880066,,,,,,,2025-02-27,1,,,,,アイディアズフォネクスト,0
1439,6390001017890,新規,0,2025-02-27,2025-02-27,株式会社国際研究機構パートナーズ,,株式会社,山形県,鶴岡市,大宝寺字日本国３８８番地５－４０１,,06,203,9970017,,,,,,,2025-02-27,1,,,,,コクサイケンキュウキコウパートナーズ,0
1447,6420001019033,新規,0,2025-02-27,2025-02-27,株式会社Ｌｉｖｖｙ,,株式会社,青森県,十和田市,大字赤沼字下平２６３番地３３２,,02,206,0340071,,,,,,,2025-02-27,1,,,,,リヴィー,0
1450,6430001093770,新規,0,2025-02-27,2025-02-27,株式会社ＴｏＴｅＴｕ,,株式会社,北海道,札幌市東区,北十四条東７丁目１番３６号マサハルビル２階,,01,103,0650014,,,,,,,2025-02-27,1,,,,,トテツ,0
1455,6450001014543,新規,0,2025-02-27,2025-02-27,株式会社Ｋ．Ｕ企画,,株式会社,北海道,旭川市,一条通１丁目４番地６１グランスクエア４０２号,,01,204,0700031,,,,,,,2025-02-27,1,,,,,ケーユーキカク,0
1461,6700150018187,新規,0,2025-02-27,2015-10-09,茨城県民間社会福祉事業従事者互助会,,その他,茨城県,水戸市,千波町１９１８,,08,201,3100851,,,,,,,2015-10-09,1,,,,,イバラキケンミンカンシヤカイフクシジギヨウジユウジシヤゴジヨカイ,0
1462,7000020298590,新規,0,2025-02-27,2025-02-27,奈良県広域水道企業団,,地方公共団体,奈良県,磯城郡田原本町,大字宮古４０４－７,,29,363,6360302,,,,,,,2025-02-27,1,,,,,ナラケンコウイキスイドウキギョウダン,0
1466,7010001252434,新規,0,2025-02-27,2025-02-27,Ｆｏｒｔｉｓ　Ｉｎｔｅｌｌｉｇｅｎｃｅ　Ａｄｖｉｓｏｒｙ株式会社,,株式会社,東京都,千代田区,九段南１丁目５番６号りそな九段ビル５Ｆ,,13,101,1020074,,,,,,,2025-02-27,1,,,,,フォルティスインテリジェンスアドバイザリー,0
1467,7010001252616,新規,0,2025-02-27,2025-02-27,ＩＴイノベーション・プラットフォーム株式会社,,株式会社,東京都,千代田区,神田錦町３丁目７番地２,,13,101,1010054,,,,,,,2025-02-27,1,,,,,アイティーイノベーションプラットフォーム,0
1468,7010001252632,新規,0,2025-02-27,2025-02-27,コネクトドットエナジー株式会社,,株式会社,東京都,千代田区,神田須田町１丁目７番８号ＶＯＲＴ秋葉原ＩＶ２Ｆ,00138141,13,101,1010041,,,,,,,2025-02-27,1,,,,,コネクトドットエナジー,0
1469,7010001252640,新規,0,2025-02-27,2025-02-27,株式会社Ｓｍａｒｔ　Ｓｐａｃｅ,,株式会社,東京都,大島町,元町４丁目６番１２号,,13,361,1000101,,,,,,,2025-02-27,1,,,,,スマートスペース,0
1472,7010003046545,新規,0,2025-02-27,2025-02-27,アスペン・リサーチ合同会社,,合同会社,東京都,千代田区,丸の内１丁目８番３号丸の内トラストタワー本館２０階,,13,101,1000005,,,,,,,2025-02-27,1,,,,,アスペンリサーチ,0
1473,7010003046553,新規,0,2025-02-27,2025-02-27,中井２丁目プロジェクト合同会社,,合同会社,東京都,千代田区,丸の内２丁目３番２号,,13,101,1000005,,,,,,,2025-02-27,1,,,,,ナカイニチョウメプロジェクト,0
1482,7010501053729,新規,0,2025-02-27,2025-02-27,共創未来株式会社,,株式会社,東京都,台東区,柳橋２丁目２１番２号小幡ビル３階,,13,106,1110052,,,,,,,2025-02-27,1,,,,,キョウソウミライ,0
1484,7010601066837,新規,0,2025-02-27,2025-02-27,ＢＳＳＳクラップ株式会社,,株式会社,東京都,江東区,大島８丁目２８番５－１０５号,,13,108,1360072,,,,,,,2025-02-27,1,,,,,ビーズスクラップ,0
1495,7011001167985,新規,0,2025-02-27,2025-02-27,いろどり株式会社,,株式会社,東京都,渋谷区,恵比寿西１丁目１０番１１号フジワラビルディング２階,,13,113,1500021,,,,,,,2025-02-27,1,,,,,イロドリ,0
1497,7011003021075,新規,0,2025-02-27,2025-02-27,Ｊａｆｌｕｘ合同会社,,合同会社,東京都,渋谷区,神南１丁目１１番４号ＦＰＧリンクス神南５階,,13,113,1500041,,,,,,,2025-02-27,1,,,,,ジャフラックス,0
1510,7011803006705,新規,0,2025-02-27,2025-02-27,合同会社ｍｉｒｉｏｎ　ｈａｎｚｕ,,合同会社,東京都,葛飾区,西水元３丁目３１番５号,,13,122,1250031,,,,,,,2025-02-27,1,,,,,ミリオンハンズ,0
1512,7012401042811,新規,0,2025-02-27,2025-02-27,株式会社上越ムービープロダクション,,株式会社,東京都,武蔵野市,中町２丁目３２番３号,,13,203,1800006,,,,,,,2025-02-27,1,,,,,ジョウエツムービープロダクション,0
1517,7013301053840,新規,0,2025-02-27,2025-02-27,株式会社ベストデイエンタープライズ,,株式会社,東京都,豊島区,東池袋１丁目２５番６号,,13,116,1700013,,,,,,,2025-02-27,1,,,,,ベストデイエンタープライズ,0
1532,7020003027916,新規,0,2025-02-27,2025-02-27,Ｆａｂｕｌｉｆｅ合同会社,,合同会社,神奈川県,横浜市南区,弘明寺町字山下３２２番地河合アパートＡ２０３号,,14,105,2320067,,,,,,,2025-02-27,1,,,,,ファビュライフ,0
1544,7030001164917,新規,0,2025-02-27,2025-02-27,株式会社Ｅｃｏ　Ｒｉｃｈ,,株式会社,埼玉県,八潮市,大瀬３丁目１番３９号リヴィエールメゾン１０１,,11,234,3400822,,,,,,,2025-02-27,1,,,,,エコリッチ,0
1545,7030001165031,新規,0,2025-02-27,2025-02-27,ハナハウス株式会社,,株式会社,埼玉県,さいたま市大宮区,桜木町２丁目３番地大宮マルイ７階,,11,103,3300854,,,,,,,2025-02-27,1,,,,,ハナハウス,0
1546,7030001165056,新規,0,2025-02-27,2025-02-27,株式会社ＡＫＴＵＲＫ,,株式会社,埼玉県,越谷市,北越谷２丁目１９番１２号コアクレスト北越谷Ｉ－２０３号室,00138139,11,222,3430026,,,,,,,2025-02-27,1,,,,,アクトルコ,0
1549,7040001137566,新規,0,2025-02-27,2025-02-27,株式会社Ｂｌｕｅ,,株式会社,千葉県,長生郡一宮町,一宮２９９８―２,,12,421,2994301,,,,,,,2025-02-27,1,,,,,ブルー,0
1551,7040003026973,新規,0,2025-02-27,2025-02-27,合同会社ＳＡＮＫＹＵ　ＧＯＲＯ,,合同会社,千葉県,白井市,十余一４８番地２１４号,,12,232,2701411,,,,,,,2025-02-27,1,,,,,サンキューゴロー,0
1552,7040005022673,新規,0,2025-02-27,2025-02-27,ＹＭＴ労働者協同組合,,その他の設立登記法人,千葉県,大網白里市,細草４０１,,12,239,2993211,,,,,,,2025-02-27,1,,,,,,0
1557,7070003005801,新規,0,2025-02-27,2025-02-27,新生工業合同会社,,合同会社,群馬県,高崎市,中尾町１１１２番地,,10,202,3700001,,,,,,,2025-02-27,1,,,,,シンセイコウギョウ,0
1558,7080101025329,新規,0,2025-02-27,2025-02-27,ＴＨＣ株式会社,,株式会社,静岡県,田方郡函南町,仁田楠台７７７番地の４,,22,325,4190114,,,,,,,2025-02-27,1,,,,,ティーエイチシー,0
1563,7100003008008,新規,0,2025-02-27,2025-02-27,合同会社仙丈カンテイ,,合同会社,長野県,伊那市,上新田２２１０番地２３,,20,209,3960012,,,,,,,2025-02-27,1,,,,,センジョウカンテイ,0
1576,7120001273163,新規,0,2025-02-27,2025-02-27,七濃株式会社,,株式会社,大阪府,大阪市都島区,中野町４丁目３番６号Ｈ２Ｈ大阪桜之宮邸１Ｄ－３,,27,102,5340027,,,,,,,2025-02-27,1,,,,,シチノウ,0
1577,7120001273254,新規,0,2025-02-27,2025-02-27,二不株式会社,,株式会社,大阪府,大阪市中央区,久太郎町１丁目４番１１号ヒロビル２０２号室,,27,128,5410056,,,,,,,2025-02-27,1,,,,,ニフ,0
1578,7120001273262,新規,0,2025-02-27,2025-02-27,木禾堂株式会社,,株式会社,大阪府,大阪市中央区,農人橋１丁目４番２８－３０２号,,27,128,5400011,,,,,,,2025-02-27,1,,,,,モクノギドウ,0
1579,7120005024810,新規,0,2025-02-27,2025-02-27,一般社団法人マタニティチャームズ,,その他の設立登記法人,大阪府,枚方市,上野２丁目９－４７－４０３,,27,210,5731175,,,,,,,2025-02-27,1,,,,,マタニティチャームズ,0
1583,7120901050496,新規,0,2025-02-27,2025-02-27,株式会社リコミンチャーレ,,株式会社,大阪府,高槻市,大塚町２丁目１７番１７号,,27,207,5690034,,,,,,,2025-02-27,1,,,,,リコミンチャーレ,0
1594,7140001137507,新規,0,2025-02-27,2025-02-27,ＱＵＥＥＮ　ＣＬＥＡＮＥＲＳ株式会社,,株式会社,兵庫県,尼崎市,昭和南通３丁目１２番地の２,,28,202,6600882,,,,,,,2025-02-27,1,,,,,クイーンクリナーズ,0
1595,7140001137531,新規,0,2025-02-27,2025-02-27,株式会社ＲｅＢＯＲＮ,,株式会社,兵庫県,明石市,小久保８－６ＮＯＢＳＯＮ西明石１階,,28,203,6730005,,,,,,,2025-02-27,1,,,,,リボーン,0
1596,7140001137548,新規,0,2025-02-27,2025-02-27,村上Ｙ株式会社,,株式会社,兵庫県,伊丹市,平松７丁目６番１－１２０５号,,28,207,6640853,,,,,,,2025-02-27,1,,,,,ムラカミワイ,0
1597,7140003021717,新規,0,2025-02-27,2025-02-27,クレール合同会社,,合同会社,兵庫県,高砂市,阿弥陀町北池５２－１６,,28,216,6760825,,,,,,,2025-02-27,1,,,,,クレール,0
1601,7160003003408,新規,0,2025-02-27,2025-02-27,ＮＧＯＣ　ＧＩＡＮＧ合同会社,,合同会社,滋賀県,東近江市,妙法寺町８７７番地２,,25,213,5270046,,,,,,,2025-02-27,1,,,,,ゴックザン,0
1604,7170001018506,新規,0,2025-02-27,2025-02-27,鏡株式会社,,株式会社,和歌山県,海南市,七山１４４０－４０,,30,202,6400441,,,,,,,2025-02-27,1,,,,,カガミ,0
1608,7180001165603,新規,0,2025-02-27,2025-02-27,株式会社三国,,株式会社,愛知県,名古屋市西区,五才美町６番地メゾンヤスフク４０３号室,,23,104,4520806,,,,,,,2025-02-27,1,,,,,ミクニ,0
1612,7180003028056,新規,0,2025-02-27,2025-02-27,合同会社ＯＳＣ,,合同会社,愛知県,あま市,森５丁目１－１０,,23,237,4901107,,,,,,,2025-02-27,1,,,,,オーエスシー,0
1627,7240001064575,新規,0,2025-02-27,2025-02-27,株式会社Ｉｇｎｉｓ,,株式会社,広島県,東広島市,西条中央６丁目１０番１８号浅原コーポ２０９号,,34,212,7390025,,,,,,,2025-02-27,1,,,,,イグニス,0
1629,7240003007086,新規,0,2025-02-27,2025-02-27,合同会社おむすび,,合同会社,広島県,広島市西区,己斐上２丁目６０－３,,34,104,7330815,,,,,,,2025-02-27,1,,,,,オムスビ,0
1630,7240005015905,新規,0,2025-02-27,2025-02-27,一般社団法人ＹＯＳＨＩＹＵＫＩ,,その他の設立登記法人,広島県,東広島市,西条町寺家４１８０番地１５,,34,212,7390041,,,,,,,2025-02-27,1,,,,,ヨシユキ,0
1633,7260001039947,新規,0,2025-02-27,2025-02-27,Ｆｕｋｕｙａｍａ　Ｅｎｔｅｒｐｒｉｓｅ株式会社,,株式会社,岡山県,岡山市北区,北長瀬表町３丁目１６番６－１号,,33,101,7000962,,,,,,,2025-02-27,1,,,,,フクヤマエンタープライズ,0
1639,7290001109094,新規,0,2025-02-27,2025-02-27,株式会社ＣＨＩＳＡＴＯ,,株式会社,福岡県,久留米市,城島町江島１０番地,,40,203,8300216,,,,,,,2025-02-27,1,,,,,チサト,0
1645,7330003010808,新規,0,2025-02-27,2025-02-27,ＩＭ４号蓄電所合同会社,,合同会社,熊本県,球磨郡あさぎり町,深田西２３２６番地１６８,,43,514,8680444,,,,,,,2025-02-27,1,,,,,アイエムヨンゴウチクデンショ,0
1646,7330003010816,新規,0,2025-02-27,2025-02-27,ＩＭ１２号蓄電所合同会社,,合同会社,熊本県,球磨郡あさぎり町,深田西２３２６番地１６８,,43,514,8680444,,,,,,,2025-02-27,1,,,,,アイエムジュウニゴウチクデンショ,0
1647,7330003010824,新規,0,2025-02-27,2025-02-27,ＩＭ２０号蓄電所合同会社,,合同会社,熊本県,球磨郡あさぎり町,深田西２３２６番地１６８,,43,514,8680444,,,,,,,2025-02-27,1,,,,,アイエムニジュウゴウチクデンショ,0
1651,7350001019411,新規,0,2025-02-27,2025-02-27,宮崎クロージング株式会社,00138136,株式会社,宮崎県,日南市,吾田東８丁目３番７号,,45,204,8892541,,,,,,,2025-02-27,1,,,,,ミヤザキクロージング,0
1654,7360001034830,新規,0,2025-02-27,2025-02-27,株式会社ｌｏｃａ,,株式会社,沖縄県,豊見城市,字座安２２２番６,,47,212,9010221,,,,,,,2025-02-27,1,,,,,ロカ,0
1658,7380001035117,新規,0,2025-02-27,2025-02-27,株式会社ＥＭＩ,,株式会社,福島県,福島市,上町５－１３,,07,201,9608101,,,,,,,2025-02-27,1,,,,,イーエムアイ,0
1666,7430001093778,新規,0,2025-02-27,2025-02-27,株式会社ひまわり設備,,株式会社,北海道,札幌市清田区,北野二条２丁目２４番３１号２Ｆ,,01,110,0040862,,,,,,,2025-02-27,1,,,,,ヒマワリセツビ,0
1667,7430003017322,新規,0,2025-02-27,2025-02-27,合同会社Ｓｅａｎｏｎ,,合同会社,北海道,札幌市西区,二十四軒一条４丁目４番１７号,,01,107,0630801,,,,,,,2025-02-27,1,,,,,シーノン,0
1669,7470001020588,新規,0,2025-02-27,2025-02-27,株式会社ＯＲＣ秋田,,株式会社,香川県,三豊市,仁尾町仁尾丁３９６番地,,37,208,7691407,,,,,,,2025-02-27,1,,,,,オーアールシーアキタ,0
1670,7470001020596,新規,0,2025-02-27,2025-02-27,島崎設備株式会社,00138152,株式会社,香川県,坂出市,久米町２丁目５番３９号,,37,203,7620003,,,,,,,2025-02-27,1,,,,,,0
1673,8010001252615,新規,0,2025-02-27,2025-02-27,株式会社ナガトミソリューション,,株式会社,東京都,中央区,日本橋兜町９－５兜町平和ダイヤビル３１０号室,,13,102,1030026,,,,,,,2025-02-27,1,,,,,ナガトミソリューション,0
1674,8010001252623,新規,0,2025-02-27,2025-02-27,株式会社ふじみ堂,,株式会社,東京都,千代田区,富士見１丁目８番４号タウンコート富士見６０１,,13,101,1020071,,,,,,,2025-02-27,1,,,,,フジミドウ,0
1675,8010001252631,新規,0,2025-02-27,2025-02-27,株式会社ＫＨＳ,,株式会社,東京都,千代田区,神田須田町１丁目１５番地,,13,101,1010041,,,,,,,2025-02-27,1,,,,,ケーエイチエス,0
1678,8010003046437,新規,0,2025-02-27,2025-02-27,合同会社ファーネクスト,,合同会社,東京都,千代田区,神田和泉町１番地６―１６ヤマトビル４０５,,13,101,1010024,,,,,,,2025-02-27,1,,,,,ファーネクスト,0
1679,8010003046544,新規,0,2025-02-27,2025-02-27,合同会社ＺＥＰＨＣＩＡＲＡＮ,,合同会社,東京都,中央区,銀座１丁目２２番１１号銀座大竹ビジデンス２階,,13,102,1040061,,,,,,,2025-02-27,1,,,,,ゼフキーラン,0
1680,8010003046552,新規,0,2025-02-27,2025-02-27,Ｓ＆Ｃマネジメント合同会社,,合同会社,東京都,中央区,日本橋小伝馬町１５番１８号,,13,102,1030001,,,,,,,2025-02-27,1,,,,,エスアンドシーマネジメント,0
1681,8010003046560,新規,0,2025-02-27,2025-02-27,ＤＬＳ１合同会社,,合同会社,東京都,中央区,銀座４丁目６番１号三幸アセットマネジメント株式会社内,,13,102,1040061,,,,,,,2025-02-27,1,,,,,ディーエルエスワン,0
1682,8010005039629,新規,0,2025-02-27,2025-02-27,シーエムユー一般社団法人,,その他の設立登記法人,東京都,千代田区,神田神保町１丁目１１番地さくら綜合事務所内,,13,101,1010051,,,,,,,2025-02-27,1,,,,,シーエムユー,0
1692,8010405024073,新規,0,2025-02-27,2025-02-27,一般社団法人Ｗｏｒｌｄ　Ｓａｋｕｒａ　Ｎｅｔｗｏｒｋ,,その他の設立登記法人,東京都,港区,浜松町２丁目２番１５号浜松町ダイヤビル２Ｆ,,13,103,1050013,,,,,,,2025-02-27,1,,,,,ワールドサクラネットワーク,0
1693,8010405024123,新規,0,2025-02-27,2025-02-27,一般社団法人さくら地域活性化基金,,その他の設立登記法人,東京都,港区,虎ノ門３丁目２２番１０－２０１号,,13,103,1050001,,,,,,,2025-02-27,1,,,,,サクラチイキカッセイカキキン,0
1700,8010701047307,新規,0,2025-02-27,2025-02-27,基承株式会社,,株式会社,東京都,品川区,西五反田２丁目１１番１５－６０３,,13,109,1410031,,,,,,,2025-02-27,1,,,,,キショウ,0
1703,8010803005294,新規,0,2025-02-27,2025-02-27,Ｔ’ｓ　ｇｒｏｕｐ合同会社,,合同会社,東京都,大田区,北千束２丁目１９番４－８０１号,,13,111,1450062,,,,,,,2025-02-27,1,,,,,ティーズグループ,0
1710,8011001168009,新規,0,2025-02-27,2025-02-27,株式会社スカイ,,株式会社,東京都,渋谷区,宇田川町１番１２－２４０２号パークコート渋谷ザタワー,,13,113,1500042,,,,,,,2025-02-27,1,,,,,スカイ,0
1711,8011001168041,新規,0,2025-02-27,2025-02-27,株式会社ｍｉｇｉｕｄｅ,,株式会社,東京都,目黒区,青葉台３丁目３番７号,,13,110,1530042,,,,,,,2025-02-27,1,,,,,ミギウデ,0
1712,8011001168090,新規,0,2025-02-27,2025-02-27,株式会社ショピタン,,株式会社,東京都,渋谷区,富ヶ谷１丁目３９番１３号,,13,113,1510063,,,,,,,2025-02-27,1,,,,,ショピタン,0
1717,8011101110704,新規,0,2025-02-27,2025-02-27,株式会社ＯＭＺ,,株式会社,東京都,新宿区,高田馬場３丁目３６番７号６Ｆ,,13,104,1690075,,,,,,,2025-02-27,1,,,,,オームズ,0
1718,8011101110761,新規,0,2025-02-27,2025-02-27,株式会社ＣＭＲパートナーズ,,株式会社,東京都,新宿区,高田馬場１丁目３３－６平和相互ビル４０１,,13,104,1690075,,,,,,,2025-02-27,1,,,,,シーエムアールパートナーズ,0
1719,8011103015579,新規,0,2025-02-27,2025-02-27,Ｍｏｎｄｅ　Ｌｅａｄ合同会社,,合同会社,東京都,新宿区,新宿７丁目１６番６号,,13,104,1600022,,,,,,,2025-02-27,1,,,,,モンリード,0
1720,8011103015587,新規,0,2025-02-27,2025-02-27,ＳＥＭＧ合同会社,,合同会社,東京都,新宿区,富久町１３番１５号サウスタワー１０Ｆ,,13,104,1620067,,,,,,,2025-02-27,1,,,,,エスイーエムジー,0
1721,8011103015595,新規,0,2025-02-27,2025-02-27,クラフト合同会社,,合同会社,東京都,新宿区,原町３丁目４２－３－８０１,,13,104,1620053,,,,,,,2025-02-27,1,,,,,クラフト,0
1726,8011601028446,新規,0,2025-02-27,2025-02-27,株式会社水島医療情報研究所,,株式会社,東京都,練馬区,石神井町２丁目３４番２７号,,13,120,1770041,,,,,,,2025-02-27,1,,,,,ミズシマイリョウジョウホウケンキュウショ,0
1728,8011803006704,新規,0,2025-02-27,2025-02-27,ＫＯＮＮＯ・ＧＬＯＢＡＬ合同会社,,合同会社,東京都,足立区,千住曙町６番１－８０３号,,13,121,1200023,,,,,,,2025-02-27,1,,,,,コンノグローバル,0
1734,8013301053831,新規,0,2025-02-27,2025-02-27,榮利株式会社,,株式会社,東京都,豊島区,巣鴨１丁目１１－２巣鴨陽光ハイツ１００９号,,13,116,1700002,,,,,,,2025-02-27,1,,,,,エイリ,0
1747,8020001161518,新規,0,2025-02-27,2025-02-27,株式会社ＰＡＲＳＬＥＹ,,株式会社,神奈川県,川崎市宮前区,菅生ケ丘５－１０－１,,14,136,2160014,,,,,,,2025-02-27,1,,,,,パセリ,0
1752,8020003027849,新規,0,2025-02-27,2025-02-27,合同会社オフィス・アーク,,合同会社,神奈川県,横浜市栄区,飯島町２０８４番地１フォレストサイド本郷台６０２,,14,115,2440842,,,,,,,2025-02-27,1,,,,,オフィスアーク,0
1769,8030001165047,新規,0,2025-02-27,2025-02-27,株式会社東亜,,株式会社,埼玉県,川越市,大字小ケ谷７５５番地２１,,11,201,3501104,,,,,,,2025-02-27,1,,,,,トウア,0
1771,8030003026197,新規,0,2025-02-27,2025-02-27,どりーマーズ合同会社,,合同会社,埼玉県,越谷市,越ヶ谷３丁目３番１６号２階,,11,222,3430813,,,,,,,2025-02-27,1,,,,,ドリーマーズ,0
1779,8040001137557,新規,0,2025-02-27,2025-02-27,株式会社アイシン,,株式会社,千葉県,千葉市花見川区,畑町８９５番地３,,12,102,2620018,,,,,,,2025-02-27,1,,,,,アイシン,0
1783,8050001056228,新規,0,2025-02-27,2025-02-27,Ｊ‐ｐｌｕｓ株式会社,,株式会社,茨城県,つくば市,篠崎８６７番地１,,08,220,3003264,,,,,,,2025-02-27,1,,,,,ジェイプラス,0
1793,8110001039069,新規,0,2025-02-27,2025-02-27,株式会社Ｖｉｖｏ,,株式会社,新潟県,新潟市北区,早通北６丁目１番８号,,15,101,9503376,,,,,,,2025-02-27,1,,,,,ヴィーヴォ,0
1798,8120001273162,新規,0,2025-02-27,2025-02-27,翰林株式会社,,株式会社,大阪府,大阪市大正区,三軒家西３丁目４番１６号中山ビル２０７Ｂ,,27,108,5510001,,,,,,,2025-02-27,1,,,,,カンリン,0
1799,8120001273212,新規,0,2025-02-27,2025-02-27,株式会社Ｎｏ　Ｍａｒｋ,,株式会社,大阪府,大阪市東住吉区,湯里２丁目１９－１６－２Ｆ－１,,27,121,5460013,,,,,,,2025-02-27,1,,,,,ノーマーク,0
1800,8120001273261,新規,0,2025-02-27,2025-02-27,雲海天株式会社,,株式会社,大阪府,大阪市生野区,桃谷３丁目２０番２５号桃谷ハイツ２０３号室,,27,116,5440034,,,,,,,2025-02-27,1,,,,,ウンカイテン,0
1804,8120103006296,新規,0,2025-02-27,2025-02-27,ＡＮＴＩ　ＥＭＥＲＧＥＮＣＹ合同会社,,合同会社,大阪府,泉南郡岬町,淡輪３０６５の１,,27,366,5990301,,,,,,,2025-02-27,1,,,,,アンチイマージンシー,0
1809,8130001079071,新規,0,2025-02-27,2025-02-27,株式会社忠嗣,,株式会社,京都府,京都市下京区,中堂寺庄ノ内町３４番地の３８,,26,106,6008814,,,,,,,2025-02-27,1,,,,,タダシ,0
1818,8140001137506,新規,0,2025-02-27,2025-02-27,株式会社ｂｌｕｅ　ｓｈｉｐｓ,,株式会社,兵庫県,西脇市,野村町２３７番地の３,,28,213,6770054,,,,,,,2025-02-27,1,,,,,ブルーシップス,0
1825,8140005027389,新規,0,2025-02-27,2025-02-27,特定非営利活動法人ＣＡＬＳ　Ｊａｐａｎ,,その他の設立登記法人,兵庫県,尼崎市,南塚口町６丁目９番１－１２０９号,,28,202,6610012,,,,,,,2025-02-27,1,,,,,キャルスジャパン,0
1836,8200001043474,新規,0,2025-02-27,2025-02-27,株式会社ＤＲＯＮＥ　Ｄｅｓｉｇｎ,,株式会社,岐阜県,羽島市,足近町市場１２５５番地５,,21,209,5016202,,,,,,,2025-02-27,1,,,,,ドローンデザイン,0
1838,8220003003961,新規,0,2025-02-27,2025-02-27,百笑合同会社,,合同会社,石川県,白山市,乙丸町６１７番地２,,17,210,9240826,,,,,,,2025-02-27,1,,,,,ヒャクショウ,0
1846,8260001039946,新規,0,2025-02-27,2025-02-27,ソラナプラントエンジ株式会社,,株式会社,岡山県,倉敷市,平田１５５番地７０,,33,202,7100003,,,,,,,2025-02-27,1,,,,,ソラナプラントエンジ,0
1856,8290003016429,新規,0,2025-02-27,2025-02-27,合同会社サンメディカル,,合同会社,福岡県,大牟田市,本町４丁目３－１金田ビル２０１号,,40,202,8360046,,,,,,,2025-02-27,1,,,,,サンメディカル,0
1861,8310005008826,新規,0,2025-02-27,2025-02-27,特定非営利活動法人うないさん隊,,その他の設立登記法人,長崎県,諫早市,高城町５番１０号,,42,204,8540016,,,,,,,2025-02-27,1,,,,,ウナイサンタイ,0
1864,8330003010807,新規,0,2025-02-27,2025-02-27,ＩＭ３号蓄電所合同会社,,合同会社,熊本県,球磨郡あさぎり町,深田西２３２６番地１６８,,43,514,8680444,,,,,,,2025-02-27,1,,,,,アイエムサンゴウチクデンショ,0
1865,8330003010815,新規,0,2025-02-27,2025-02-27,ＩＭ１１号蓄電所合同会社,,合同会社,熊本県,球磨郡あさぎり町,深田西２３２６番地１６８,,43,514,8680444,,,,,,,2025-02-27,1,,,,,アイエムジュウイチゴウチクデンショ,0
1866,8330003010823,新規,0,2025-02-27,2025-02-27,ＩＭ１９号蓄電所合同会社,,合同会社,熊本県,球磨郡あさぎり町,深田西２３２６番地１６８,,43,514,8680444,,,,,,,2025-02-27,1,,,,,アイエムジュウキュウゴウチクデンショ,0
1871,8380001035116,新規,0,2025-02-27,2025-02-27,株式会社ＬＵＱＬＡ,,株式会社,福島県,須賀川市,塚田１７０番地メゾンドコマＢ棟Ａ号室,,07,207,9620859,,,,,,,2025-02-27,1,,,,,ルクラ,0
1872,8390001017889,新規,0,2025-02-27,2025-02-27,株式会社Ｕｎｂａｓｉｃ,,株式会社,山形県,鶴岡市,末広町６番３号ＴＭＫビル２Ｆ,,06,203,9970015,,,,,,,2025-02-27,1,,,,,アンベーシック,0
1888,8430001093752,新規,0,2025-02-27,2025-02-27,ＥＭＡ　Ｇｌｏｂａｌ　Ｊａｐａｎ株式会社,,株式会社,北海道,札幌市中央区,南一条西５丁目８番地愛生舘ビル５０８Ｂ室,,01,101,0600061,,,,,,,2025-02-27,1,,,,,イーエムエーグローバルジャパン,0
1889,8430001093760,新規,0,2025-02-27,2025-02-27,Ａｋａｒｉ　Ｓｔｕｄｉｏ株式会社,,株式会社,北海道,札幌市中央区,北六条西２５丁目２番５号Ｅ－ｈｏｒｉｚｏｎ北円山ＢＬＤ６階,,01,101,0600006,,,,,,,2025-02-27,1,,,,,アカリスタジオ,0
1890,8430001093769,新規,0,2025-02-27,2025-02-27,株式会社ｂｕｌｌｅ　ｄｅ　ｓａｖｏｎ,,株式会社,北海道,江別市,元町１１番地５　２Ｆ,,01,217,0670031,,,,,,,2025-02-27,1,,,,,ブリュデサボン,0
1891,8430003017321,新規,0,2025-02-27,2025-02-27,合同会社令和解体,,合同会社,北海道,札幌市東区,東苗穂五条３丁目７番３０‐９０３号,,01,103,0070805,,,,,,,2025-02-27,1,,,,,レイワカイタイ,0
1892,8470001020595,新規,0,2025-02-27,2025-02-27,株式会社扇産業,,株式会社,香川県,高松市,香西本町７４２番地８４,,37,201,7618012,,,,,,,2025-02-27,1,,,,,オオギサンギョウ,0
1912,9010001252630,新規,0,2025-02-27,2025-02-27,株式会社ＨＡＹＡＴＥ,,株式会社,東京都,千代田区,六番町４番地５,,13,101,1020085,,,,,,,2025-02-27,1,,,,,ハヤテ,0
1913,9010001252639,新規,0,2025-02-27,2025-02-27,株式会社Ｓｍａｒｔ　Ｒｅｓｏｒｔ,,株式会社,東京都,大島町,元町４丁目６番１２号,,13,361,1000101,,,,,,,2025-02-27,1,,,,,スマートリゾート,0
1916,9010003046576,新規,0,2025-02-27,2025-02-27,Ｅｎｌｉｆｅｍｅｎｔ合同会社,,合同会社,東京都,中央区,新川１丁目２７－５－１２０５,,13,102,1040033,,,,,,,2025-02-27,1,,,,,エンライフメント,0
1917,9010005039644,新規,0,2025-02-27,2025-02-27,ＦＯＵＲＥ公共ＰＰＡ一般社団法人,,その他の設立登記法人,東京都,中央区,京橋２丁目１２番６号ＡＯＪ税理士法人内,,13,102,1040031,,,,,,,2025-02-27,1,,,,,フォーレコウキョウピーピーエイ,0
1920,9010401188383,新規,0,2025-02-27,2025-02-27,株式会社Ｌｅａｆ,,株式会社,東京都,港区,南青山３丁目１番３６号青山丸竹ビル６Ｆ,,13,103,1070062,,,,,,,2025-02-27,1,,,,,リーフ,0
1921,9010401188499,新規,0,2025-02-27,2025-02-27,株式会社ＬＬＥ,,株式会社,東京都,港区,南青山３丁目１番３６号青山丸竹ビル６Ｆ,,13,103,1070062,,,,,,,2025-02-27,1,,,,,エルエルイー,0
1922,9010401188508,新規,0,2025-02-27,2025-02-27,徳康株式会社,,株式会社,東京都,港区,六本木７丁目７番１３－２３０１号,,13,103,1060032,,,,,,,2025-02-27,1,,,,,トクヤス,0
1926,9010501053693,新規,0,2025-02-27,2025-02-27,株式会社Ｌｅｇａｃｙ　Ｂｉｔｅｓ,,株式会社,東京都,台東区,台東３丁目２７－９４Ｆ,,13,106,1100016,,,,,,,2025-02-27,1,,,,,レガシーバイツ,0
1927,9010501053727,新規,0,2025-02-27,2025-02-27,酒井株式会社,,株式会社,東京都,台東区,上野６丁目２４番７号香川ビル４０１号室,,13,106,1100005,,,,,,,2025-02-27,1,,,,,サケイ,0
1928,9010601066851,新規,0,2025-02-27,2025-02-27,ｄａｎｇｏｏ株式会社,,株式会社,東京都,江東区,越中島３丁目６番１―８１６号,,13,108,1350044,,,,,,,2025-02-27,1,,,,,ダングー,0
1930,9010701047306,新規,0,2025-02-27,2025-02-27,株式会社ＬＡＥＳＳＥ　Ｃｒｅａｖｉａ,,株式会社,東京都,品川区,上大崎１丁目１１－１７プラムアーク白金台２０３,,13,109,1410021,,,,,,,2025-02-27,1,,,,,ラエッセクリヴィア,0
1933,9010801035870,新規,0,2025-02-27,2025-02-27,株式会社２ｎｄ　ＧＥＮｓ,,株式会社,東京都,大田区,仲池上２丁目２３番１号,,13,111,1460081,,,,,,,2025-02-27,1,,,,,セカンドジェンズ,0
1942,9011001168016,新規,0,2025-02-27,2025-02-27,株式会社ＴＳＵＹＵＭＩ・ＷＯＲＫＳ,,株式会社,東京都,目黒区,中目黒３丁目１２番１６－５０２,,13,110,1530061,,,,,,,2025-02-27,1,,,,,ツユミワークス,0
1943,9011001168040,新規,0,2025-02-27,2025-02-27,株式会社ラポールテクノロジーズ,,株式会社,東京都,渋谷区,渋谷２丁目９番９号ＳＡＮＷＡ青山Ｂｌｄｇ．９階,,13,113,1500002,,,,,,,2025-02-27,1,,,,,ラポールテクノロジーズ,0
1953,9011801045694,新規,0,2025-02-27,2025-02-27,株式会社スカイクリーンテック,,株式会社,東京都,足立区,島根４丁目２３番３号,,13,121,1210815,,,,,,,2025-02-27,1,,,,,スカイクリーンテック,0
1960,9012701018724,新規,0,2025-02-27,2025-02-27,株式会社スマイルヤマト,,株式会社,東京都,東久留米市,八幡町１丁目７番３２号,,13,222,2030042,,,,,,,2025-02-27,1,,,,,スマイルヤマト,0
1963,9013303007553,新規,0,2025-02-27,2025-02-27,合同会社ＮＡＴＡＬＩＳ,,合同会社,東京都,豊島区,池袋２丁目６７番９号メゾンタジマ３０１号,,13,116,1710014,,,,,,,2025-02-27,1,,,,,ナタリス,0
1987,9030003026205,新規,0,2025-02-27,2025-02-27,合同会社アリーナ,,合同会社,埼玉県,白岡市,篠津５８３番地１２,,11,246,3490204,,,,,,,2025-02-27,1,,,,,アリーナ,0
1991,9040001137548,新規,0,2025-02-27,2025-02-27,Ｌｅｐｏ株式会社,,株式会社,千葉県,市川市,妙典２丁目９番１７号（ＴｅｃｈｎｏＴｏｗｎＭｙｏｄｅｎ）,,12,203,2720111,,,,,,,2025-02-27,1,,,,,レポ,0
1992,9040001137556,新規,0,2025-02-27,2025-02-27,株式会社西田グリーンメンテ,,株式会社,千葉県,四街道市,大日３７２番地１０,,12,228,2840001,,,,,,,2025-02-27,1,,,,,ニシダグリーンメンテ,0
2004,9060003005437,新規,0,2025-02-27,2025-02-27,Ａｓｇｈａｒ　Ｔｒａｄｉｎｇ合同会社,,合同会社,栃木県,栃木市,日ノ出町１番２５号,,09,203,3280031,,,,,,,2025-02-27,1,,,,,アスガルトレーディング,0
2005,9060003005445,新規,0,2025-02-27,2025-02-27,ビジョン工房合同会社,,合同会社,栃木県,宇都宮市,鶴田町５７４番地２グランドハイツ鶴田２１５号室,,09,201,3200851,,,,,,,2025-02-27,1,,,,,ビジョンコウボウ,0
2006,9080001026771,新規,0,2025-02-27,2025-02-27,ＫＯＭＡ株式会社,,株式会社,静岡県,藤枝市,志太５丁目５番３号,,22,214,4260071,,,,,,,2025-02-27,1,,,,,コマ,0
2010,9080405007715,新規,0,2025-02-27,2025-02-27,ＮＰＯ法人浜松ラジオクラブ,,その他の設立登記法人,静岡県,浜松市中央区,海老塚２丁目１４番５号,,22,138,4328033,,,,,,,2025-02-27,1,,,,,ハママツラジオクラブ,0
2011,9100001038293,新規,0,2025-02-27,2025-02-27,株式会社ｄｅｂｌｙｎｘ,,株式会社,長野県,長野市,大字鶴賀上千歳町１１３７番地２３・２Ｆ・ビジネスポート長野,,20,201,3800821,,,,,,,2025-02-27,1,,,,,デブリンクス,0
2012,9100003008006,新規,0,2025-02-27,2025-02-27,ＴｅａｌＶａａＳ合同会社,,合同会社,長野県,長野市,上松３丁目６番２１号,,20,201,3800802,,,,,,,2025-02-27,1,,,,,ティールバース,0
2023,9120001273161,新規,0,2025-02-27,2025-02-27,影正科技株式会社,,株式会社,大阪府,大阪市生野区,小路東６丁目８番１７号昭和エクセルビュー東大阪１０３－Ｇ２５,,27,116,5440003,,,,,,,2025-02-27,1,,,,,エイセイカギ,0
2024,9120001273244,新規,0,2025-02-27,2025-02-27,長甲株式会社,,株式会社,大阪府,大阪市中央区,内久宝寺町３丁目１番１４号アザリア３０１号室,,27,128,5400013,,,,,,,2025-02-27,1,,,,,チョウコウ,0
2025,9120001273260,新規,0,2025-02-27,2025-02-27,株式会社ＭＡＩＢＵ,,株式会社,大阪府,枚方市,招提平野町１３番６号,,27,210,5731135,,,,,,,2025-02-27,1,,,,,マイブ,0
2027,9120103006287,新規,0,2025-02-27,2025-02-27,Ｏｒａｎｇｅマネージメント合同会社,,合同会社,大阪府,富田林市,寿町４丁目７番３７号,,27,214,5840031,,,,,,,2025-02-27,1,,,,,オレンジマネージメント,0
2033,9130001079079,新規,0,2025-02-27,2025-02-27,株式会社アイボリーラボ,,株式会社,京都府,京都市左京区,田中西高原町１７番地１４,,26,103,6068241,,,,,,,2025-02-27,1,,,,,アイボリーラボ,0
2037,9130005017299,新規,0,2025-02-27,2025-02-27,一般社団法人エコロジーウォーキングジャパン,,その他の設立登記法人,京都府,京都市伏見区,新町４丁目４６５番地５マース・リヴィエール１Ｆ,,26,109,6128081,,,,,,,2025-02-27,1,,,,,エコロジーウォーキングジャパン,0
2045,9150001027894,新規,0,2025-02-27,2025-02-27,森嵐株式会社,,株式会社,奈良県,奈良市,横井３丁目１７５番地１０３,,29,201,6308422,,,,,,,2025-02-27,1,,,,,シンラン,0
2047,9150003003514,新規,0,2025-02-27,2025-02-27,合同会社ＦＥＬＩＺ,,合同会社,奈良県,香芝市,真美ヶ丘６丁目９番地２１棟４０１号室,,29,210,6390223,,,,,,,2025-02-27,1,,,,,フェリス,0
2052,9180001165576,新規,0,2025-02-27,2025-02-27,株式会社縁ｖｉｓｉｏｎ,,株式会社,愛知県,名古屋市東区,泉３丁目２９番１２号（泉トレス８０２号）,,23,102,4610001,,,,,,,2025-02-27,1,,,,,エンヴィジョン,0
2053,9180001165584,新規,0,2025-02-27,2025-02-27,株式会社クレストギルド,,株式会社,愛知県,名古屋市中区,栄４丁目４番４号栄メッツビル６Ｆ,,23,106,4600008,,,,,,,2025-02-27,1,,,,,クレストギルド,0
2057,9180003028054,新規,0,2025-02-27,2025-02-27,合同会社ｖｏｇｕｅ,,合同会社,愛知県,名古屋市東区,古出来１丁目５番１４号,,23,102,4610049,,,,,,,2025-02-27,1,,,,,ヴォーグ,0
2067,9260001039937,新規,0,2025-02-27,2025-02-27,株式会社ＴＯＰＢＲＩＤＧＥ,,株式会社,岡山県,倉敷市,笹沖１３４５－１,,33,202,7100834,,,,,,,2025-02-27,1,,,,,トップブリッジ,0
2068,9270001009154,新規,0,2025-02-27,2025-02-27,株式会社ｏｖｅｒｌａｙ,,株式会社,鳥取県,鳥取市,湖山町西２丁目５４７,,31,201,6800947,,,,,,,2025-02-27,1,,,,,オーバーレイ,0
2089,9330003010806,新規,0,2025-02-27,2025-02-27,ＩＭ２号蓄電所合同会社,,合同会社,熊本県,球磨郡あさぎり町,深田西２３２６番地１６８,,43,514,8680444,,,,,,,2025-02-27,1,,,,,アイエムニゴウチクデンショ,0
2090,9330003010814,新規,0,2025-02-27,2025-02-27,ＩＭ１０号蓄電所合同会社,,合同会社,熊本県,球磨郡あさぎり町,深田西２３２６番地１６８,,43,514,8680444,,,,,,,2025-02-27,1,,,,,アイエムジュウゴウチクデンショ,0
2091,9330003010822,新規,0,2025-02-27,2025-02-27,ＩＭ１８号蓄電所合同会社,,合同会社,熊本県,球磨郡あさぎり町,深田西２３２６番地１６８,,43,514,8680444,,,,,,,2025-02-27,1,,,,,アイエムジュウハチゴウチクデンショ,0
2094,9340003004757,新規,0,2025-02-27,2025-02-27,合同会社満園農園,,合同会社,鹿児島県,志布志市,松山町泰野３４４６番地,,46,221,8997602,,,,,,,2025-02-27,1,,,,,ミツゾノノウエン,0
2100,9360003014721,新規,0,2025-02-27,2025-02-27,合同会社わらいふ,,合同会社,沖縄県,中頭郡中城村,字津覇５２８－４,,47,328,9012413,,,,,,,2025-02-27,1,,,,,ワライフ,0
2103,9370001052292,新規,0,2025-02-27,2025-02-27,はーるまーる株式会社,,株式会社,宮城県,黒川郡大郷町,川内字上田布施畑２２番地,,04,422,9813514,,,,,,,2025-02-27,1,,,,,ハールマール,0
2105,9400001016954,新規,0,2025-02-27,2025-02-27,ＢＥＥＲＡＣＬＥ株式会社,,株式会社,岩手県,盛岡市,永井１９地割３４番地２１,,03,201,0200834,,,,,,,2025-02-27,1,,,,,ビラクル,0
2108,9430001093768,新規,0,2025-02-27,2025-02-27,ＪｏｂＲｉｓｅ株式会社,,株式会社,北海道,夕張郡栗山町,字中里７７番地,,01,429,0691522,,,,,,,2025-02-27,1,,,,,ジョブライズ,0
2110,9430003017320,新規,0,2025-02-27,2025-02-27,合同会社ファーストメンテ,,合同会社,北海道,登別市,新生町４丁目１９番地１１,,01,230,0590032,,,,,,,2025-02-27,1,,,,,ファーストメンテ,0
2111,9430005015157,新規,0,2025-02-27,2025-02-27,特定非営利活動法人ひとのわ,,その他の設立登記法人,北海道,恵庭市,恵み野西６丁目２０－６,,01,231,0611373,,,,,,,2025-02-27,1,,,,,ヒトノワ,0
2114,9500001026159,新規,0,2025-02-27,2025-02-27,株式会社ＧＲＡＶＩＳ,,株式会社,愛媛県,松山市,木屋町２丁目１番地１６,,38,201,7900821,,,,,,,2025-02-27,1,,,,,グラビス,0
