sequenceNumber,corporateNumber,process,correct,updateDate,changeDate,name,nameImageId,kind,prefectureName,cityName,streetNumber,addressImageId,prefectureCode,cityCode,postCode,addressOutside,addressOutsideImageId,closeDate,closeCause,successorCorporateNumber,changeCause,assignmentDate,latest,enName,enPrefectureName,enCityName,enAddressOutside,furigana,hihyoji
3,1010001249964,新規,0,2024-12-03,2024-12-03,マナ・システム株式会社,,株式会社,東京都,千代田区,平河町１丁目５番１５号,,13,101,1020093,,,,,,,2024-12-03,1,,,,,マナシステム,0
4,1010001250328,新規,0,2024-12-03,2024-12-03,株式会社ＭＭ７,,株式会社,東京都,中央区,銀座１丁目１２－４Ｎ＆ＥＢＬＤ．７階,,13,102,1040061,,,,,,,2024-12-03,1,,,,,エムエムセブン,0
5,1010001250385,新規,0,2024-12-03,2024-12-03,如水明珠株式会社,,株式会社,東京都,千代田区,岩本町３丁目８番４号－３階,,13,101,1010032,,,,,,,2024-12-03,1,,,,,ジョスイメイシュ,0
11,1010003045651,新規,0,2024-12-03,2024-12-03,合同会社春日部研究所,,合同会社,東京都,千代田区,内幸町１丁目３番１号,,13,101,1000011,,,,,,,2024-12-03,1,,,,,カスガベケンキュウジョ,0
12,1010003045692,新規,0,2024-12-03,2024-12-03,アイオライトフォー合同会社,,合同会社,東京都,中央区,日本橋１丁目４番１号日本橋一丁目ビルディング,,13,102,1030027,,,,,,,2024-12-03,1,,,,,アイオライトフォー,0
20,1010401186709,新規,0,2024-12-03,2024-12-03,Ｍｉｒａｉｔｅｒａｓｕ株式会社,,株式会社,東京都,港区,北青山１丁目３番１号アールキューブ青山３階,,13,103,1070061,,,,,,,2024-12-03,1,,,,,ミライテラス,0
21,1010401186766,新規,0,2024-12-03,2024-12-03,レ・フェルム株式会社,,株式会社,東京都,港区,六本木６丁目１２番４―５１６号,,13,103,1060032,,,,,,,2024-12-03,1,,,,,レフェルム,0
24,1010403033933,新規,0,2024-12-03,2024-12-03,ＪＩＣＣ‐０４合同会社,,合同会社,東京都,港区,虎ノ門１丁目３番１号,,13,103,1050001,,,,,,,2024-12-03,1,,,,,ジェイアイシーシーゼロヨン,0
28,1010601066396,新規,0,2024-12-03,2024-12-03,株式会社Ｋｏｈｔｏ,,株式会社,東京都,江東区,豊洲６丁目４番３４号,,13,108,1350061,,,,,,,2024-12-03,1,,,,,コオト,0
30,1010703007488,新規,0,2024-12-03,2024-12-03,合同会社ＳＳＳ,,合同会社,東京都,品川区,荏原３丁目８番５号オーパスレジデンス武蔵小山２０７,,13,109,1420063,,,,,,,2024-12-03,1,,,,,スリーエス,0
37,1011001166167,新規,0,2024-12-03,2024-12-03,ＣＲＹＳＴＡＬ　ＭＯＯＤ株式会社,,株式会社,東京都,渋谷区,恵比寿４丁目２０－３恵比寿ガーデンプレイスタワー１８階,,13,113,1500013,,,,,,,2024-12-03,1,,,,,クリスタルムード,0
40,1011101109802,新規,0,2024-12-03,2024-12-03,株式会社Ｎｏ　Ｍｏｒｅ　Ｆ＆Ｂ,,株式会社,東京都,新宿区,大久保１丁目１６番１５号豊生堂ビル２０３号室,,13,104,1690072,,,,,,,2024-12-03,1,,,,,ノーモアエフアンドビー,0
46,1011301030205,新規,0,2024-12-03,2024-12-03,株式会社ミヤマデンタルサポート,,株式会社,東京都,杉並区,荻窪４丁目１３番１６－２０３号,,13,115,1670051,,,,,,,2024-12-03,1,,,,,ミヤマデンタルサポート,0
54,1011701027874,新規,0,2024-12-03,2024-12-03,ＴＵＣホールディングス株式会社,,株式会社,東京都,江戸川区,中葛西３丁目２７番２０号,,13,123,1340083,,,,,,,2024-12-03,1,,,,,ティーユーシーホールディングス,0
56,1011801045256,新規,0,2024-12-03,2024-12-03,株式会社Ｍ．Ｒトランスポート,,株式会社,東京都,葛飾区,奥戸３丁目２５番１０号,,13,122,1240022,,,,,,,2024-12-03,1,,,,,エムドットアールトランスポート,0
57,1012403006860,新規,0,2024-12-03,2024-12-03,マイケル・アグロ・サービス合同会社,,合同会社,東京都,多摩市,関戸２丁目３２番地の１９,,13,224,2060011,,,,,,,2024-12-03,1,,,,,マイケルアグロサービス,0
59,1012703003145,新規,0,2024-12-03,2024-12-03,合同会社山本プランニング,,合同会社,東京都,東村山市,野口町３丁目３８番地２０サン・ヴェルメゾン３０６,,13,213,1890022,,,,,,,2024-12-03,1,,,,,ヤマモトプランニング,0
67,1020001160393,新規,0,2024-12-03,2024-12-03,株式会社ドットローカライズ,,株式会社,神奈川県,横浜市神奈川区,栄町１９番地の２,,14,102,2210052,,,,,,,2024-12-03,1,,,,,ドットローカライズ,0
71,1021001083873,新規,0,2024-12-03,2024-12-03,瑞達国際株式会社,,株式会社,神奈川県,秦野市,南矢名２２２３番地の４東海ビル１１３Ａ,,14,211,2570003,,,,,,,2024-12-03,1,,,,,スイタツコクサイ,0
72,1021001083898,新規,0,2024-12-03,2024-12-03,株式会社小田原三の丸会計サービス,,株式会社,神奈川県,小田原市,本町１丁目２番１０号竹久保ビル４階,,14,206,2500012,,,,,,,2024-12-03,1,,,,,オダワラサンノマルカイケイサービス,0
79,1030001163718,新規,0,2024-12-03,2024-12-03,株式会社リンクビズ,,株式会社,埼玉県,上尾市,浅間台２丁目２０番地４６,,11,219,3620073,,,,,,,2024-12-03,1,,,,,リンクビズ,0
80,1040001136383,新規,0,2024-12-03,2024-12-03,株式会社ＳＥ,,株式会社,千葉県,市川市,大野町４丁目３２１４番地２５,,12,203,2720805,,,,,,,2024-12-03,1,,,,,ヤスーイ,0
82,1040003026293,新規,0,2024-12-03,2024-12-03,ＣＨＯ　ＶＩＥＴ　ＦＵＮＡＢＡＳＨＩ合同会社,,合同会社,千葉県,船橋市,宮本２丁目１４番５－１０５号,,12,204,2730003,,,,,,,2024-12-03,1,,,,,チョヴェトフナバシ,0
85,1050003008852,新規,0,2024-12-03,2024-12-03,合同会社ＡＰＯＬＬＯ,,合同会社,茨城県,ひたちなか市,大字足崎３４７番地１,,08,221,3120003,,,,,,,2024-12-03,1,,,,,アポロ,0
88,1060001037704,新規,0,2024-12-03,2024-12-03,株式会社Ｔｅｃｈ　Ｌｏｔｕｓ,,株式会社,栃木県,宇都宮市,岩曽町９６７番地３,,09,201,3210973,,,,,,,2024-12-03,1,,,,,テックロータス,0
95,1080401027600,新規,0,2024-12-03,2024-12-03,株式会社Ｂｅｌｌｅｚｅｌｌ,,株式会社,静岡県,浜松市中央区,鍛冶町３２０－２３ＱＦＡＣＥビル３Ｆ,,22,138,4300933,,,,,,,2024-12-03,1,,,,,ベルゼル,0
121,1120001270744,新規,0,2024-12-03,2024-12-03,株式会社丈,,株式会社,大阪府,大阪市天王寺区,勝山４丁目８－８－１２０２,,27,109,5430043,,,,,,,2024-12-03,1,,,,,タケ,0
125,1120003028018,新規,0,2024-12-03,2024-12-03,合同会社ＯＬＧＡ,,合同会社,大阪府,大阪市北区,梅田１丁目１番３大阪駅前第３ビル２９階１－１－１号室,,27,127,5300001,,,,,,,2024-12-03,1,,,,,オルガ,0
126,1120003028067,新規,0,2024-12-03,2024-12-03,合同会社Ｆ．Ｃ　ＢＲＡＩＮＳ,,合同会社,大阪府,大阪市北区,南扇町７－１７ＭＦ梅田ビル８階Ａ号室,,27,127,5300052,,,,,,,2024-12-03,1,,,,,エフシーブレインズ,0
129,1120101070689,新規,0,2024-12-03,2024-12-03,株式会社ＵＭ,,株式会社,大阪府,堺市堺区,田出井町一丁１番ベルマージュ堺１１６号室,,27,141,5900014,,,,,,,2024-12-03,1,,,,,ユーエム,0
135,1120901050097,新規,0,2024-12-03,2024-12-03,ロックウッドケミカル株式会社,,株式会社,大阪府,吹田市,広芝町１０番８号江坂董友ビル３２０号,,27,205,5640052,,,,,,,2024-12-03,1,,,,,ロックウッドケミカル,0
136,1120901050106,新規,0,2024-12-03,2024-12-03,株式会社トールフライト,,株式会社,大阪府,吹田市,山田北８番２８－１０４号,,27,205,5650825,,,,,,,2024-12-03,1,,,,,トールフライト,0
137,1120901050114,新規,0,2024-12-03,2024-12-03,株式会社ウエ,,株式会社,大阪府,池田市,宇保町８番１０－３０５号,,27,204,5630042,,,,,,,2024-12-03,1,,,,,ウエ,0
143,1130001078451,新規,0,2024-12-03,2024-12-03,株式会社ゼノベイト,,株式会社,京都府,京都市伏見区,横大路一本木２４番９号,,26,109,6128252,,,,,,,2024-12-03,1,,,,,ゼノベイト,0
144,1130001078501,新規,0,2024-12-03,2024-12-03,株式会社シモツウ,,株式会社,京都府,長岡京市,奥海印寺東山６番地１７,,26,209,6170853,,,,,,,2024-12-03,1,,,,,シモツウ,0
159,1180001164370,新規,0,2024-12-03,2024-12-03,株式会社ＥＢＩＳＵ,,株式会社,愛知県,知多市,岡田字西違脇８１番地の１４,,23,224,4780021,,,,,,,2024-12-03,1,,,,,エビス,0
160,1180001164404,新規,0,2024-12-03,2024-12-03,株式会社ｈｉｒｏ’ｓ,,株式会社,愛知県,名古屋市東区,泉２丁目１８番２６号スカイハイツ高岳１３０３号,,23,102,4610001,,,,,,,2024-12-03,1,,,,,ヒロズ,0
161,1180001164412,新規,0,2024-12-03,2024-12-03,Ｊｕｎｇｌｅ株式会社,,株式会社,愛知県,名古屋市千種区,穂波町１丁目２４番地,,23,101,4640822,,,,,,,2024-12-03,1,,,,,ジャングル,0
162,1180001164420,新規,0,2024-12-03,2024-12-03,株式会社Ｓｏｕｎｄ　Ｐｉｔ,,株式会社,愛知県,名古屋市中川区,柳森町９０９番地,,23,110,4540871,,,,,,,2024-12-03,1,,,,,サウンドピット,0
163,1180001164437,新規,0,2024-12-03,2024-12-03,株式会社ＧＶ　Ｉｎｖｅｓｔｍｅｎｔ,,株式会社,愛知県,名古屋市中区,錦２丁目７番７号,,23,106,4600003,,,,,,,2024-12-03,1,,,,,ジーブイインベストメント,0
167,1180005020850,新規,0,2024-12-03,2024-12-03,特定非営利活動法人少年少女スポーツ育成協議会,,その他の設立登記法人,愛知県,一宮市,木曽川町黒田字下市場南１２８－５,,23,203,4930001,,,,,,,2024-12-03,1,,,,,ショウネンショウジョスポーツイクセイキョウギカイ,0
169,1180301039297,新規,0,2024-12-03,2024-12-03,株式会社ビーオーケー,,株式会社,愛知県,岡崎市,戸崎町字榎ケ坪２６番地グラシオン仁大４０１,,23,202,4440840,,,,,,,2024-12-03,1,,,,,ビーオーケー,0
172,1180303006361,新規,0,2024-12-03,2024-12-03,合同会社サカエサービス,,合同会社,愛知県,豊田市,竹町栄８９番地,,23,211,4730906,,,,,,,2024-12-03,1,,,,,サカエサービス,0
174,1200001043191,新規,0,2024-12-03,2024-12-03,Ｉ・ＬＡＮＤＳＣＡＰＥ株式会社,,株式会社,岐阜県,加茂郡八百津町,野上１４８６番地５,,21,505,5050307,,,,,,,2024-12-03,1,,,,,アイランドスケープ,0
177,1230001020642,新規,0,2024-12-03,2024-12-03,ＰＡＨＬＡＰＵＵ株式会社,,株式会社,富山県,高岡市,芳野１７３番地,,16,202,9330872,,,,,,,2024-12-03,1,,,,,パラプウ,0
178,1240001064201,新規,0,2024-12-03,2024-12-03,株式会社ｅｆｆｅｃｔ,,株式会社,広島県,広島市中区,大手町３丁目３番２７－８０６号,,34,101,7300051,,,,,,,2024-12-03,1,,,,,エフェクト,0
180,1250001020913,新規,0,2024-12-03,2024-12-03,三合商事株式会社,,株式会社,山口県,下関市,長府才川２丁目１６番２０号,,35,201,7520928,,,,,,,2024-12-03,1,,,,,サンゴウショウジ,0
181,1250003003602,新規,0,2024-12-03,2024-12-03,合同会社未来想繋,,合同会社,山口県,岩国市,三笠町１丁目６番１３号,,35,208,7400016,,,,,,,2024-12-03,1,,,,,ミライソウケイ,0
184,1290001108052,新規,0,2024-12-03,2024-12-03,合光株式会社,,株式会社,福岡県,福岡市東区,香住ヶ丘２丁目８番２号１０２－１号室,,40,131,8130003,,,,,,,2024-12-03,1,,,,,ゴウコウ,0
185,1290001108110,新規,0,2024-12-03,2024-12-03,株式会社ＳＳホールディングス,,株式会社,福岡県,福岡市南区,高宮３丁目３番１－９０３号,,40,134,8150083,,,,,,,2024-12-03,1,,,,,エスエスホールディングス,0
186,1290001108168,新規,0,2024-12-03,2024-12-03,株式会社ＳＩ,,株式会社,福岡県,福岡市中央区,春吉２丁目１番１号,,40,133,8100003,,,,,,,2024-12-03,1,,,,,エスアイ,0
189,1290003016138,新規,0,2024-12-03,2024-12-03,あいであふぁーむ合同会社,,合同会社,福岡県,福岡市南区,長丘２丁目２０番２１号ライオンズマンション長丘ガーデン１番館５０７号,,40,134,8150075,,,,,,,2024-12-03,1,,,,,アイデアファーム,0
191,1290005019568,新規,0,2024-12-03,2024-12-03,一般社団法人Ｖｉｒｕｆｙ　Ｆｕｋｕｏｋａ,,その他の設立登記法人,福岡県,福岡市西区,大字元岡７４４番地,,40,135,8190385,,,,,,,2024-12-03,1,,,,,ヴィルファイフクオカ,0
192,1290801031081,新規,0,2024-12-03,2024-12-03,株式会社ぱんのこと,,株式会社,福岡県,豊前市,大字今市１２６番地１,,40,214,8280062,,,,,,,2024-12-03,1,,,,,パンノコト,0
200,1360001034506,新規,0,2024-12-03,2024-12-03,株式会社ＤＥＳＴＩＮＡＴＩＯＮ　ＪＡＰＡＮ,,株式会社,沖縄県,那覇市,久茂地１丁目１番１号パレットくもじ９階,,47,201,9000015,,,,,,,2024-12-03,1,,,,,デスティネーションジャパン,0
201,1360003014497,新規,0,2024-12-03,2024-12-03,合同会社ＬＩＦＥ,,合同会社,沖縄県,那覇市,長田２丁目２４番８２号フリーベル那覇シティ長田４０６,,47,201,9020077,,,,,,,2024-12-03,1,,,,,,0
207,1370001052003,新規,0,2024-12-03,2024-12-03,株式会社Ｒａｉｓｅ　Ｂａｓｅ,,株式会社,宮城県,仙台市青葉区,花京院１丁目２番１５号仙台ソララプラザ３階,,04,101,9800013,,,,,,,2024-12-03,1,,,,,レイズベース,0
216,1400001016870,新規,0,2024-12-03,2024-12-03,株式会社エイナソンズ,,株式会社,岩手県,花巻市,太田第６６地割８９番地１,,03,205,0250037,,,,,,,2024-12-03,1,,,,,エイナソンズ,0
218,1400003003355,新規,0,2024-12-03,2024-12-03,合同会社Ｒ’ｓアセットマネジメント,,合同会社,岩手県,北上市,上江釣子第５地割４５番４,,03,206,0240071,,,,,,,2024-12-03,1,,,,,アールズアセットマネジメント,0
223,1430001093197,新規,0,2024-12-03,2024-12-03,プロワーク株式会社,,株式会社,北海道,室蘭市,港北町５丁目１０３番地４,,01,205,0500063,,,,,,,2024-12-03,1,,,,,プロワーク,0
243,2010001250277,新規,0,2024-12-03,2024-12-03,株式会社Ｂｌｕｅ　ｓｈａｃｋ,,株式会社,東京都,中央区,日本橋茅場町２丁目４－１－５Ｆ,,13,102,1030025,,,,,,,2024-12-03,1,,,,,ブルーシャック,0
244,2010001250319,新規,0,2024-12-03,2024-12-03,株式会社ＥＮＯＡ,,株式会社,東京都,中央区,銀座１丁目１２番４号Ｎ＆ＥＢＬＤ．６Ｆ,,13,102,1040061,,,,,,,2024-12-03,1,,,,,エノア,0
245,2010001250376,新規,0,2024-12-03,2024-12-03,株式会社５１１,,株式会社,東京都,中央区,晴海３丁目１３番２－２７０１号,,13,102,1040053,,,,,,,2024-12-03,1,,,,,ゴーイチイチ,0
246,2010001250392,新規,0,2024-12-03,2024-12-03,ＯＳＥＫＫＡＩ株式会社,,株式会社,東京都,文京区,西片１丁目４－６,,13,105,1130024,,,,,,,2024-12-03,1,,,,,オセッカイ,0
251,2010003045691,新規,0,2024-12-03,2024-12-03,トパーズスリー合同会社,,合同会社,東京都,中央区,日本橋１丁目４番１号日本橋一丁目ビルディング,,13,102,1030027,,,,,,,2024-12-03,1,,,,,トパーズスリー,0
257,2010401186781,新規,0,2024-12-03,2024-12-03,Ｚａｚａインダストリアルホールディングス株式会社,,株式会社,東京都,港区,虎ノ門２丁目９番１号虎ノ門ヒルズ江戸見坂テラス１１０１号室,,13,103,1050001,,,,,,,2024-12-03,1,,,,,ザザインダストリアルホールディングス,0
258,2010401186831,新規,0,2024-12-03,2024-12-03,株式会社Ｓ．ＫＩＮＧ　ＨＯＬＤＩＮＧＳ,,株式会社,東京都,港区,北青山１丁目３番１号アールキューブ青山３Ｆ,,13,103,1070061,,,,,,,2024-12-03,1,,,,,エスキングホールディングス,0
264,2010403033932,新規,0,2024-12-03,2024-12-03,ＵＩ　Ａｇｅｏ合同会社,,合同会社,東京都,港区,元赤坂１丁目１番７号,,13,103,1070051,,,,,,,2024-12-03,1,,,,,ユーアイアゲオ,0
265,2010405023857,新規,0,2024-12-03,2024-12-03,一般社団法人ＴＳ,,その他の設立登記法人,東京都,港区,新橋４丁目２６番４号愛場新橋タワー１階,,13,103,1050004,,,,,,,2024-12-03,1,,,,,ティーエス,0
266,2010603011250,新規,0,2024-12-03,2024-12-03,合同会社Ｋ‐ＳＴＹＬＥホールディングス,,合同会社,東京都,墨田区,江東橋２丁目６番１０号,,13,107,1300022,,,,,,,2024-12-03,1,,,,,ケイスタイルホールディングス,0
285,2011001166117,新規,0,2024-12-03,2024-12-03,日本嘉立創株式会社,,株式会社,東京都,渋谷区,恵比寿２丁目２４番６－２０１号,,13,113,1500013,,,,,,,2024-12-03,1,,,,,ニホンカリツソウ,0
288,2011003020544,新規,0,2024-12-03,2024-12-03,合同会社ＨＫＡ,,合同会社,東京都,渋谷区,代々木２丁目２６番１０号風蓮人ビル１０２,,13,113,1510053,,,,,,,2024-12-03,1,,,,,エイチケイエイ,0
291,2011101109784,新規,0,2024-12-03,2024-12-03,村上地域共生エネルギー株式会社,,株式会社,東京都,新宿区,神楽坂１丁目３番地,,13,104,1620825,,,,,,,2024-12-03,1,,,,,ムラカミチイキキョウセイエネルギー,0
298,2011403004527,新規,0,2024-12-03,2024-12-03,合同会社インフォメーションネクサス,,合同会社,東京都,板橋区,本町２４－３－２０３,,13,119,1730001,,,,,,,2024-12-03,1,,,,,インフォメーションネクサス,0
302,2011801045255,新規,0,2024-12-03,2024-12-03,株式会社スカイコネクト,,株式会社,東京都,足立区,東六月町６番３０号,,13,121,1210071,,,,,,,2024-12-03,1,,,,,スカイコネクト,0
305,2011803006577,新規,0,2024-12-03,2024-12-03,リトライ合同会社,,合同会社,東京都,足立区,中央本町１丁目１８番１４－６０９号,,13,121,1200011,,,,,,,2024-12-03,1,,,,,リトライ,0
309,2012703003144,新規,0,2024-12-03,2024-12-03,合同会社ロング,,合同会社,東京都,小平市,花小金井１丁目４番６－３０６号,,13,211,1870002,,,,,,,2024-12-03,1,,,,,ロング,0
310,2012801023606,新規,0,2024-12-03,2024-12-03,株式会社ＴＯＰ,,株式会社,東京都,昭島市,拝島町４丁目２０番３２号,,13,207,1960002,,,,,,,2024-12-03,1,,,,,トップ,0
314,2020001160442,新規,0,2024-12-03,2024-12-03,株式会社サポートＣＡＤ,,株式会社,神奈川県,横浜市保土ケ谷区,瀬戸ケ谷町１９０番地１,,14,106,2400024,,,,,,,2024-12-03,1,,,,,サポートキャド,0
317,2020003027375,新規,0,2024-12-03,2024-12-03,ＮＥＸＴＳＴＡＧＥ合同会社,,合同会社,神奈川県,横浜市港南区,最戸１丁目４番５号第二スカイハイム８１０,,14,111,2330008,,,,,,,2024-12-03,1,,,,,ネクストステージ,0
321,2021001083872,新規,0,2024-12-03,2024-12-03,日本黒石株式会社,,株式会社,神奈川県,秦野市,南矢名２２２３番地の４東海ビル１０９Ｂ,,14,211,2570003,,,,,,,2024-12-03,1,,,,,ニホンクロイシ,0
323,2021005013231,新規,0,2024-12-03,2024-12-03,一般財団法人かながわパラスポーツ協会,,その他の設立登記法人,神奈川県,藤沢市,善行７丁目１番２号,,14,205,2510871,,,,,,,2024-12-03,1,,,,,カナガワパラスポーツキョウカイ,0
328,2030001163790,新規,0,2024-12-03,2024-12-03,嶺株式会社,,株式会社,埼玉県,新座市,栄１丁目７番１５号,,11,230,3520014,,,,,,,2024-12-03,1,,,,,ミネ,0
337,2040001136374,新規,0,2024-12-03,2024-12-03,株式会社コーワン,,株式会社,千葉県,野田市,宮崎１２６番地の３４,,12,208,2780005,,,,,,,2024-12-03,1,,,,,コーワン,0
339,2040003026292,新規,0,2024-12-03,2024-12-03,合同会社羽音,,合同会社,千葉県,市川市,菅野１丁目２７－１５－２０１号（ソレイユ）,,12,203,2720824,,,,,,,2024-12-03,1,,,,,ハアト,0
342,2050001055763,新規,0,2024-12-03,2024-12-03,軒啓株式会社,,株式会社,茨城県,鉾田市,徳宿２４３６番地４６,,08,234,3111503,,,,,,,2024-12-03,1,,,,,ノキケイ,0
345,2070001042413,新規,0,2024-12-03,2024-12-03,株式会社ホシノ木材,,株式会社,群馬県,桐生市,菱町５丁目６１６番地の６,,10,203,3760001,,,,,,,2024-12-03,1,,,,,ホシノモクザイ,0
346,2080401027599,新規,0,2024-12-03,2024-12-03,株式会社ＳｅａＴｕｒｔｌｅ,,株式会社,静岡県,浜松市中央区,寺島町８５３番地の１０一条レジデンス浜松１４０１,,22,138,4300925,,,,,,,2024-12-03,1,,,,,シータートル,0
366,2120001270586,新規,0,2024-12-03,2024-12-03,ＴＥＲＭＩＮＡＬ・Ｋ＆Ｖ株式会社,,株式会社,大阪府,大阪市中央区,南船場１丁目１０番１２号５０３,,27,128,5420081,,,,,,,2024-12-03,1,,,,,ターミナルケイウィ,0
367,2120001270644,新規,0,2024-12-03,2024-12-03,株式会社ＪＵＮＯ　ＪＡＰＡＮ,,株式会社,大阪府,大阪市北区,芝田１丁目１０番１０号芝田グランドビル４０７号,,27,127,5300012,,,,,,,2024-12-03,1,,,,,ジュノジャパン,0
368,2120001270685,新規,0,2024-12-03,2024-12-03,オンセントラベル株式会社,,株式会社,大阪府,大阪市中央区,南本町２丁目１－１１ライラック南本町ビル３Ｆ,,27,128,5410054,,,,,,,2024-12-03,1,,,,,オンセントラベル,0
369,2120001270818,新規,0,2024-12-03,2024-12-03,享吉利株式会社,,株式会社,大阪府,大阪市生野区,今里二丁目１０番２２号３階,,27,116,5440000,,,,,,,2024-12-03,1,,,,,コウキチリ,0
371,2120003028082,新規,0,2024-12-03,2024-12-03,ＡＦＲＯ　ＪＡＭ合同会社,,合同会社,大阪府,大阪市天王寺区,石ケ辻町２－１１大宝上本町ロイヤルハイツ２０３号室,,27,109,5430031,,,,,,,2024-12-03,1,,,,,アフロジャム,0
379,2130001078467,新規,0,2024-12-03,2024-12-03,ＭＯＭ　Ｓｃｈｏｏｌ　Ｋｙｏｔｏ株式会社,,株式会社,京都府,京都市中京区,白壁町４３６番地,,26,104,6048075,,,,,,,2024-12-03,1,,,,,マムスクールキョウト,0
380,2130003010048,新規,0,2024-12-03,2024-12-03,合同会社Ｔｈｅ　ＴｒａｖｅＬａｎｄ　Ｊａｐａｎ,,合同会社,京都府,京都市右京区,太秦中筋町３０番地２クレール京都太秦３０３,,26,108,6168184,,,,,,,2024-12-03,1,,,,,ザトラベランドジャパン,0
387,2160003003346,新規,0,2024-12-03,2024-12-03,合同会社スフィーダ,,合同会社,滋賀県,草津市,下物町３８２,,25,206,5250001,,,,,,,2024-12-03,1,,,,,,0
404,2180301039296,新規,0,2024-12-03,2024-12-03,中部Ｅｑｕｉｐｍｅｎｔ株式会社,,株式会社,愛知県,西尾市,米津町仲之畑１７番地６,,23,213,4450802,,,,,,,2024-12-03,1,,,,,チュウブエクイップメント,0
405,2180303006360,新規,0,2024-12-03,2024-12-03,合同会社ｋｅｉ‐ａｎ,,合同会社,愛知県,豊橋市,下地町字宮前５４,,23,201,4400086,,,,,,,2024-12-03,1,,,,,ケイアン,0
409,2200001043199,新規,0,2024-12-03,2024-12-03,株式会社みちびき,,株式会社,岐阜県,岐阜市,尻毛２丁目２６番地１メゾンＳＳ３０２号,,21,201,5011147,,,,,,,2024-12-03,1,,,,,ミチビキ,0
412,2230001020625,新規,0,2024-12-03,2024-12-03,株式会社コアキャリア,,株式会社,富山県,高岡市,福岡町赤丸６５７番地,,16,202,9390101,,,,,,,2024-12-03,1,,,,,コアキャリア,0
414,2240001064200,新規,0,2024-12-03,2024-12-03,３９えがお株式会社,,株式会社,広島県,広島市佐伯区,河内南１丁目５番３３号,,34,108,7315153,,,,,,,2024-12-03,1,,,,,サンキューエガオ,0
418,2260001039679,新規,0,2024-12-03,2024-12-03,守安産業株式会社,,株式会社,岡山県,岡山市北区,下中野７０７番地１０３,,33,101,7000973,,,,,,,2024-12-03,1,,,,,モリヤスサンギョウ,0
419,2260001039687,新規,0,2024-12-03,2024-12-03,Ｌｅａｆｉａ株式会社,,株式会社,岡山県,岡山市南区,福富東１丁目７番１３号クレアフォートＩＩ２０３号室,00137203,33,104,7028033,,,,,,,2024-12-03,1,,,,,リーフィア,0
429,2290001108159,新規,0,2024-12-03,2024-12-03,ＹＫテック株式会社,,株式会社,福岡県,筑紫野市,原田３丁目１４番地１７,,40,217,8180024,,,,,,,2024-12-03,1,,,,,ワイケーテック,0
430,2290001108167,新規,0,2024-12-03,2024-12-03,株式会社ＤＡＨ,,株式会社,福岡県,春日市,小倉３丁目６９－２アーサー春日弥生ヶ丘２０９,,40,218,8160824,,,,,,,2024-12-03,1,,,,,ディーエーエイチ,0
431,2290001108183,新規,0,2024-12-03,2024-12-03,株式会社Ｗｉｔｈ　Ｕ,,株式会社,福岡県,福岡市南区,長丘４丁目６番３８号,,40,134,8150075,,,,,,,2024-12-03,1,,,,,ウイズユー,0
433,2290003016104,新規,0,2024-12-03,2024-12-03,合同会社メディカルケアベース,,合同会社,福岡県,みやま市,瀬高町松田１６６番地－１,,40,229,8350011,,,,,,,2024-12-03,1,,,,,メディカルケアベース,0
436,2290801031089,新規,0,2024-12-03,2024-12-03,株式会社ＴＡＭＡ’ｓ　ｃｏｒｐｏｒａｔｉｏｎ,,株式会社,福岡県,北九州市八幡西区,的場町１番１７号,,40,109,8070841,,,,,,,2024-12-03,1,,,,,タマズコーポレーション,0
442,2310003004907,新規,0,2024-12-03,2024-12-03,合同会社ココ・ルル,,合同会社,長崎県,長崎市,琴海村松町７１３番地１４,,42,201,8513102,,,,,,,2024-12-03,1,,,,,ココルル,0
443,2340001026966,新規,0,2024-12-03,2024-12-03,株式会社ｅ‐ｄｅｓｉｇｎ,,株式会社,鹿児島県,鹿児島市,東郡元町８－１７－４０８サーパス鴨池通り２－４０８,,46,201,8900068,,,,,,,2024-12-03,1,,,,,イーデザイン,0
444,2340005009793,新規,0,2024-12-03,2024-12-03,一般社団法人ヒューマンネクスト,,その他の設立登記法人,鹿児島県,鹿児島市,下竜尾町１番１０号,,46,201,8920852,,,,,,,2024-12-03,1,,,,,ヒューマンネクスト,0
451,2370005010864,新規,0,2024-12-03,2024-12-03,一般社団法人創啓クラブ,,その他の設立登記法人,宮城県,仙台市太白区,恵和町３２番１５号,,04,104,9820823,,,,,,,2024-12-03,1,,,,,ソウケイクラブ,0
461,2430001093163,新規,0,2024-12-03,2024-12-03,キボウプラス株式会社,,株式会社,北海道,札幌市南区,川沿四条３丁目２－４,,01,106,0050804,,,,,,,2024-12-03,1,,,,,キボウプラス,0
462,2430001093196,新規,0,2024-12-03,2024-12-03,ＨＡＫＯＢＵ株式会社,,株式会社,北海道,苫小牧市,字勇払１４５番７３,,01,213,0591372,,,,,,,2024-12-03,1,,,,,ハコブ,0
464,2460303000847,新規,0,2024-12-03,2024-12-03,ＵＭＩＮＥＫＯ合同会社,,合同会社,北海道,斜里郡斜里町,ウトロ西６９,,01,545,0994354,,,,,,,2024-12-03,1,,,,,ウミネコ,0
467,2470001020485,新規,0,2024-12-03,2024-12-03,株式会社ｅｃｏ　ｎｅｗｚ　ｇｒｅｅｎ,,株式会社,香川県,高松市,成合町９１９番地７,,37,201,7618081,,,,,,,2024-12-03,1,,,,,エコニューズグリーン,0
471,2700150128031,新規,0,2024-12-03,2024-12-03,ｈｕｉｚｈｏｕｓｈｉｋｅｄｕｏｓｈｅｎｇｋｅｊｉｙｏｕｘｉａｎｇｏｎｇｓｉ,,外国会社等,,,,,,,,ｇｕａｎｇｄｏｎｇｓｈｅｎｇ，ｈｕｉｚｈｏｕｓｈｉ３ｌｏｕｙｉｃｅｎｇｃｈａｎｇｆａｎｇ，ｂｏｌｕｏｘｉａｎｓｈｉｗａｎｚｈｅｎｚｈｏｎｇｇａｎｇｃｕｎｈｏｎｇｘｉｎｇｃｈａｎｇ,,,,,,2024-12-03,1,,,,,フイジョウシーコードゥオションコージーヨウシエンゴンスー,0
476,3010001250318,新規,0,2024-12-03,2024-12-03,株式会社クエラコンピューティングジャパン,,株式会社,東京都,中央区,日本橋３丁目９番１号日本橋三丁目スクエア１１階,,13,102,1030027,,,,,,,2024-12-03,1,,,,,クエラコンピューティングジャパン,0
477,3010001250334,新規,0,2024-12-03,2024-12-03,ＮＯ＆Ｔ　Ｄａｔａ　Ｌａｂ株式会社,,株式会社,東京都,千代田区,丸の内２丁目７番２号ＪＰタワー３６階,,13,101,1000005,,,,,,,2024-12-03,1,,,,,エヌオーアンドティーデータラボ,0
478,3010001250350,新規,0,2024-12-03,2024-12-03,株式会社Ｎｏｒｔｈ　Ｗａｙ,,株式会社,東京都,千代田区,二番町１－２番町ハイム５２４,,13,101,1020084,,,,,,,2024-12-03,1,,,,,ノースウェイ,0
479,3010001250359,新規,0,2024-12-03,2024-12-03,株式会社ＨａｒＶｅｙ,,株式会社,東京都,中央区,日本橋大伝馬町１２番１７－２０３号,,13,102,1030011,,,,,,,2024-12-03,1,,,,,ハーヴィ,0
480,3010001250417,新規,0,2024-12-03,2024-12-03,株式会社豊智,,株式会社,東京都,千代田区,隼町３番１１号,,13,101,1020092,,,,,,,2024-12-03,1,,,,,トヨトモ,0
484,3010003045658,新規,0,2024-12-03,2024-12-03,合同会社ＣｈｕＳｏｎ,,合同会社,東京都,千代田区,外神田２丁目１２番３号ＩＳＭ御茶ノ水１０１号,,13,101,1010021,,,,,,,2024-12-03,1,,,,,チューソン,0
485,3010003045666,新規,0,2024-12-03,2024-12-03,合同会社ＩＳｏｎｅ,,合同会社,東京都,中央区,銀座１丁目１２－４Ｎ＆ＥＢＬＤ．７階,,13,102,1040061,,,,,,,2024-12-03,1,,,,,アイエスワン,0
486,3010003045690,新規,0,2024-12-03,2024-12-03,クンツァイトスリー合同会社,,合同会社,東京都,中央区,日本橋１丁目４番１号日本橋一丁目ビルディング,,13,102,1030027,,,,,,,2024-12-03,1,,,,,クンツァイトスリー,0
487,3010003045708,新規,0,2024-12-03,2024-12-03,スケールアップ・パートナーズ合同会社,,合同会社,東京都,中央区,銀座１丁目１２番４号Ｎ＆ＥＢＬＤ．６Ｆ,,13,102,1040061,,,,,,,2024-12-03,1,,,,,スケールアップパートナーズ,0
488,3010005039204,新規,0,2024-12-03,2024-12-03,一般社団法人未来医療・復興支援協議会,,その他の設立登記法人,東京都,千代田区,霞が関３丁目２番５号,,13,101,1000013,,,,,,,2024-12-03,1,,,,,ミライイリョウフッコウシエンキョウギカイ,0
491,3010101016437,新規,0,2024-12-03,2024-12-03,株式会社ライフ・アライブ,,株式会社,東京都,八王子市,大谷町８７１番地９,,13,201,1920034,,,,,,,2024-12-03,1,,,,,ライフアライブ,0
492,3010105002318,新規,0,2024-12-03,2024-12-03,特定非営利活動法人豊栄,,その他の設立登記法人,東京都,八王子市,滝山町１丁目１４番地１,,13,201,1920011,,,,,,,2024-12-03,1,,,,,,0
500,3010401186822,新規,0,2024-12-03,2024-12-03,株式会社ＳＥＮＳＥ,,株式会社,東京都,港区,麻布台３丁目５番３－８０６号,,13,103,1060041,,,,,,,2024-12-03,1,,,,,センス,0
503,3010403033915,新規,0,2024-12-03,2024-12-03,国下池メガフロート合同会社,,合同会社,東京都,港区,愛宕１丁目６番８号,,13,103,1050002,,,,,,,2024-12-03,1,,,,,クニシタイケメガフロート,0
505,3010601066386,新規,0,2024-12-03,2024-12-03,ＰＵＲＥ　ＧＲＥＥＮ株式会社,,株式会社,東京都,江東区,有明３丁目６番１１号ＴＦＴビル東館,,13,108,1350063,,,,,,,2024-12-03,1,,,,,ピュアグリーン,0
510,3010901056384,新規,0,2024-12-03,2024-12-03,株式会社タクミクーンキャピタル,,株式会社,東京都,世田谷区,池尻２丁目３１番１０号クレスト池尻４０２,,13,112,1540001,,,,,,,2024-12-03,1,,,,,タクミクーンキャピタル,0
511,3010901056418,新規,0,2024-12-03,2024-12-03,ｄｍｚ株式会社,,株式会社,東京都,世田谷区,経堂２丁目１０番７号‐１,,13,112,1560052,,,,,,,2024-12-03,1,,,,,ディーエムゼット,0
516,3011003020543,新規,0,2024-12-03,2024-12-03,合同会社ＰｏｗｅｒＦｏｒｃｅ,,合同会社,東京都,渋谷区,道玄坂１丁目１６‐６二葉ビル８ｂ,,13,113,1500043,,,,,,,2024-12-03,1,,,,,パワーフォース,0
519,3011103015237,新規,0,2024-12-03,2024-12-03,合同会社ＳＬ,,合同会社,東京都,新宿区,百人町１丁目２１番３号ヴェルト新宿６０１,,13,104,1690073,,,,,,,2024-12-03,1,,,,,エスエル,0
520,3011201025963,新規,0,2024-12-03,2024-12-03,株式会社ＦＬＯＷＯＮ,,株式会社,東京都,中野区,中野４丁目２０番７号,,13,114,1640001,,,,,,,2024-12-03,1,,,,,フローオン,0
523,3011301030203,新規,0,2024-12-03,2024-12-03,株式会社ＤＥ’ＣＯＭＰＡＮＹ,,株式会社,東京都,杉並区,高井戸西２丁目７－４０ウィスタリアフォレストサウスＳ１１,,13,115,1680071,,,,,,,2024-12-03,1,,,,,,0
536,3012401042534,新規,0,2024-12-03,2024-12-03,早稲田でんき株式会社,,株式会社,東京都,府中市,住吉町２丁目３０－４０－７２６,,13,206,1830034,,,,,,,2024-12-03,1,,,,,ワセダデンキ,0
541,3013101009575,新規,0,2024-12-03,2024-12-03,株式会社キュープランニング,,株式会社,東京都,あきる野市,雨間７３９番イ号地,,13,228,1970825,,,,,,,2024-12-03,1,,,,,キュープランニング,0
550,3020001160375,新規,0,2024-12-03,2024-12-03,株式会社光栄建設,,株式会社,神奈川県,川崎市宮前区,南平台２番５－１０４号パストラルピーノ,,14,136,2160024,,,,,,,2024-12-03,1,,,,,コウエイケンセツ,0
551,3020001160425,新規,0,2024-12-03,2024-12-03,知也株式会社,,株式会社,神奈川県,横浜市磯子区,杉田３丁目１３－２９吉原ビル３０２号室,,14,107,2350033,,,,,,,2024-12-03,1,,,,,チヤ,0
559,3021001083839,新規,0,2024-12-03,2024-12-03,株式会社爽新,,株式会社,神奈川県,平塚市,天沼７番３２－１号,,14,203,2540031,,,,,,,2024-12-03,1,,,,,ソウシン,0
563,3030001163708,新規,0,2024-12-03,2024-12-03,ジー・プラウジー株式会社,,株式会社,埼玉県,さいたま市大宮区,桜木町２丁目３番地大宮マルイ７Ｆ,,11,103,3300854,,,,,,,2024-12-03,1,,,,,ジープラウジー,0
564,3030001163732,新規,0,2024-12-03,2024-12-03,ＨＣＢ株式会社,,株式会社,埼玉県,川口市,西青木１丁目２６番２０号,,11,203,3320035,,,,,,,2024-12-03,1,,,,,エイチシービー,0
566,3030003025575,新規,0,2024-12-03,2024-12-03,ラストオーダーズ合同会社,,合同会社,埼玉県,和光市,丸山台２丁目８－１０プレミスト和光丸山台４０７,,11,229,3510112,,,,,,,2024-12-03,1,,,,,ラストオーダーズ,0
570,3040001136299,新規,0,2024-12-03,2024-12-03,株式会社蘭学,,株式会社,千葉県,野田市,清水６８番地駒ビル３階２号室,,12,208,2780043,,,,,,,2024-12-03,1,,,,,ランガク,0
572,3040003026226,新規,0,2024-12-03,2024-12-03,合同会社ｇｒａｎｄｅ,,合同会社,千葉県,市川市,東国分１丁目２９－８東国分ロフト２０６,,12,203,2720833,,,,,,,2024-12-03,1,,,,,グランデ,0
573,3040003026283,新規,0,2024-12-03,2024-12-03,合同会社ＯＮＥＷＯＲＫＳ,,合同会社,千葉県,八千代市,上高野１１１２番地３８,,12,221,2760022,,,,,,,2024-12-03,1,,,,,ワンワークス,0
578,3050001055804,新規,0,2024-12-03,2024-12-03,株式会社ケーズ電設,,株式会社,茨城県,日立市,滑川本町１丁目１９番３ー１０４号,,08,202,3170051,,,,,,,2024-12-03,1,,,,,ケーズデンセツ,0
581,3050003008834,新規,0,2024-12-03,2024-12-03,合同会社ＭＵＳＵＢＵ,,合同会社,茨城県,土浦市,乙戸南２丁目１０－２７－３,,08,203,3000845,,,,,,,2024-12-03,1,,,,,ムスブ,0
582,3060001037702,新規,0,2024-12-03,2024-12-03,株式会社ＨＯＵＴＥＮホールディングス,,株式会社,栃木県,宇都宮市,下岡本町３７２８番地８,,09,201,3291104,,,,,,,2024-12-03,1,,,,,ホウテンホールディングス,0
586,3070001042420,新規,0,2024-12-03,2024-12-03,株式会社Ｌｅｌｉｎａ,,株式会社,群馬県,前橋市,上泉町６８０番地１ベイシア前橋モール店１階売るナビ,,10,201,3710007,,,,,,,2024-12-03,1,,,,,レリーナ,0
597,3090001019029,新規,0,2024-12-03,2024-12-03,エスティ商事株式会社,,株式会社,山梨県,中巨摩郡昭和町,河東中島２５６番地９,,19,384,4093863,,,,,,,2024-12-03,1,,,,,エスティショウジ,0
601,3100001038084,新規,0,2024-12-03,2024-12-03,株式会社リロード,,株式会社,長野県,安曇野市,明科中川手１３０１番地８,,20,220,3997102,,,,,,,2024-12-03,1,,,,,リロード,0
616,3120001270726,新規,0,2024-12-03,2024-12-03,株式会社エピエステート,,株式会社,大阪府,大阪市西区,北堀江１丁目１番７号四ツ橋日生ビル５Ｆ,,27,106,5500014,,,,,,,2024-12-03,1,,,,,エピエステート,0
617,3120001270791,新規,0,2024-12-03,2024-12-03,大阪国際株式会社,,株式会社,大阪府,大阪市北区,天神橋７丁目３番２号,,27,127,5310041,,,,,,,2024-12-03,1,,,,,オオサカコクサイ,0
623,3120901050112,新規,0,2024-12-03,2024-12-03,株式会社Ｅｔｅｒｎａｌｌｙ，Ｌｉｆｅ,,株式会社,大阪府,箕面市,瀬川２丁目４番６１号２０２号室,,27,220,5620045,,,,,,,2024-12-03,1,,,,,エターナリーライフ,0
627,3130001078482,新規,0,2024-12-03,2024-12-03,株式会社ＴＲＹ,,株式会社,京都府,京都市西京区,山田中吉見町１番地１５,,26,111,6158237,,,,,,,2024-12-03,1,,,,,トライ,0
628,3130001078490,新規,0,2024-12-03,2024-12-03,株式会社サササツ,,株式会社,京都府,京都市伏見区,桃山町丹後２番地１藤和ライブタウン桃山４０１号,,26,109,6128018,,,,,,,2024-12-03,1,,,,,サササツ,0
633,3140001136611,新規,0,2024-12-03,2024-12-03,株式会社ＫＡＫＥＴＵＫＥ,,株式会社,兵庫県,神戸市中央区,中町通２丁目２－１７武田ビル２Ｂ号室,,28,110,6500027,,,,,,,2024-12-03,1,,,,,カケツケ,0
635,3140003021357,新規,0,2024-12-03,2024-12-03,合同会社コンパスオート,,合同会社,兵庫県,姫路市,御立東１丁目６番１号,,28,201,6700072,,,,,,,2024-12-03,1,,,,,コンパスオート,0
639,3160001026380,新規,0,2024-12-03,2024-12-03,桂田不動産株式会社,,株式会社,滋賀県,大津市,仰木の里東１丁目５番１０号,,25,201,5200248,,,,,,,2024-12-03,1,,,,,カツラダフドウサン,0
640,3160005011362,新規,0,2024-12-03,2024-12-03,一般社団法人ハピネスター,,その他の設立登記法人,滋賀県,大津市,真野５丁目１２番１９号,,25,201,5200232,,,,,,,2024-12-03,1,,,,,ハピネスター,0
648,3180001164385,新規,0,2024-12-03,2024-12-03,Ｘｉｎ　Ｐｏｉｎｔ　Ｊａｐａｎ株式会社,,株式会社,愛知県,名古屋市中村区,名駅３丁目２８番１２号大名古屋ビルヂング１１階,,23,105,4500002,,,,,,,2024-12-03,1,,,,,シンポイントジャパン,0
649,3180001164419,新規,0,2024-12-03,2024-12-03,株式会社やるべ,,株式会社,愛知県,名古屋市千種区,内山３丁目１９－１６－２０１,,23,101,4640075,,,,,,,2024-12-03,1,,,,,ヤルベ,0
654,3200001043198,新規,0,2024-12-03,2024-12-03,株式会社絶好調,,株式会社,岐阜県,海津市,南濃町田鶴３２５番地１０,,21,221,5030533,,,,,,,2024-12-03,1,,,,,ゼッコウチョウ,0
656,3210001019981,新規,0,2024-12-03,2024-12-03,ギャレックス福井株式会社,,株式会社,福井県,福井市,灯明寺１丁目１６０５番地,,18,201,9100063,,,,,,,2024-12-03,1,,,,,ギャレックスフクイ,0
660,3240001064199,新規,0,2024-12-03,2024-12-03,株式会社ｐｕｒｅ　ｆｒｉｅｎｄｓ,,株式会社,広島県,東広島市,西条町西条東８１７番地,,34,212,7390042,,,,,,,2024-12-03,1,,,,,ピュアフレンズ,0
662,3260001039686,新規,0,2024-12-03,2024-12-03,株式会社サナビタクト,,株式会社,岡山県,倉敷市,四十瀬２２－１６,,33,202,7100835,,,,,,,2024-12-03,1,,,,,サナビタクト,0
670,3290001108117,新規,0,2024-12-03,2024-12-03,株式会社ＥＡＲＬＹＷＥＬＬ,,株式会社,福岡県,宗像市,栄町２番地１－２Ｆ,,40,220,8114173,,,,,,,2024-12-03,1,,,,,アーリィウェル,0
671,3290001108182,新規,0,2024-12-03,2024-12-03,株式会社トライアルフードパーク,,株式会社,福岡県,福岡市東区,多の津１丁目７番５号,,40,131,8130034,,,,,,,2024-12-03,1,,,,,トライアルフードパーク,0
672,3290003016144,新規,0,2024-12-03,2024-12-03,インシアコンサルティング合同会社,,合同会社,福岡県,福岡市中央区,天神２丁目３番１０号天神パインクレスト７１９号,,40,133,8100001,,,,,,,2024-12-03,1,,,,,インシアコンサルティング,0
686,3340001026965,新規,0,2024-12-03,2024-12-03,株式会社みのりの種,,株式会社,鹿児島県,霧島市,溝辺町竹子１０１４番地１,,46,218,8996402,,,,,,,2024-12-03,1,,,,,ミノリノタネ,0
687,3340005009792,新規,0,2024-12-03,2024-12-03,一般社団法人すまいる,,その他の設立登記法人,鹿児島県,大島郡徳之島町,亀津３１２５番地,,46,530,8917101,,,,,,,2024-12-03,1,,,,,スマイル,0
688,3350003004794,新規,0,2024-12-03,2024-12-03,オーラ・アソシエイツ合同会社,,合同会社,宮崎県,宮崎市,薫る坂１丁目３番１２号,,45,201,8800947,,,,,,,2024-12-03,1,,,,,オーラアソシエイツ,0
697,3390001017811,新規,0,2024-12-03,2024-12-03,Ｒ株式会社,,株式会社,山形県,山形市,蔵王半郷１１１３番地１３,,06,201,9902305,,,,,,,2024-12-03,1,,,,,アール,0
705,3430001093195,新規,0,2024-12-03,2024-12-03,きの株式会社,,株式会社,北海道,札幌市北区,新琴似七条７丁目１番２号,,01,102,0010907,,,,,,,2024-12-03,1,,,,,キノ,0
708,3430003017045,新規,0,2024-12-03,2024-12-03,合同会社シンキロウ,,合同会社,北海道,札幌市手稲区,前田一条３丁目１番１５号,,01,109,0060811,,,,,,,2024-12-03,1,,,,,シンキロウ,0
720,3700150128030,新規,0,2024-12-03,2024-12-03,ｇｕａｎｇ　ｚｈｏｕ　ｓｈｉ　ｙｉｎ　ｑｉ　ｓｈｉ　ｍａｏ　ｙｉ　ｙｏｕ　ｘｉａｎ　ｇｏｎｇ　ｓｉ,,外国会社等,,,,,,,,ｙｕｅ　ｘｉｕ　ｑｕ　ｒｅｎ　ｍｉｎ　ｂｅｉ　ｌｕ　ｎｕｍｂｅｒ　８２９－８３１　Ｒｏｏｍ　Ｂ１６０　Ｇｕａｎｇｚｈｏｕ　Ｇｕａｎｇｄｏｎｇ,,,,,,2024-12-03,1,,,,,グワンジョウシーインチーシーマオイーヨウシエンゴンスー,0
727,4010001250390,新規,0,2024-12-03,2024-12-03,株式会社アイデイズ,,株式会社,東京都,中央区,銀座１丁目１２番４号Ｎ＆ＥＢＬＤ．６Ｆ,,13,102,1040061,,,,,,,2024-12-03,1,,,,,アイデイズ,0
728,4010001250416,新規,0,2024-12-03,2024-12-03,株式会社Ｐｌａｙｂｏｘ,,株式会社,東京都,千代田区,神田和泉町１－６－１６ヤマトビル４０５,,13,101,1010024,,,,,,,2024-12-03,1,,,,,プレイボックス,0
731,4010003045632,新規,0,2024-12-03,2024-12-03,合同会社Ｍ．Ｐ．Ｓ．Ｔ．,,合同会社,東京都,中央区,銀座１丁目１２番４号Ｎ＆ＥＢＬＤ．６Ｆ,,13,102,1040061,,,,,,,2024-12-03,1,,,,,エムピーエスティー,0
732,4010003045657,新規,0,2024-12-03,2024-12-03,合同会社流しのビリヤニ,,合同会社,東京都,中央区,日本橋本町３丁目１１－１０ＢＯＮＵＳＢＬＤ２Ｆ,,13,102,1030023,,,,,,,2024-12-03,1,,,,,ナガシノビリヤニ,0
736,4010005039228,新規,0,2024-12-03,2024-12-03,一般社団法人ＳＲＦ２号,,その他の設立登記法人,東京都,中央区,日本橋１丁目４番１号日本橋一丁目ビルディング,,13,102,1030027,,,,,,,2024-12-03,1,,,,,エスアールエフニゴウ,0
747,4010401186747,新規,0,2024-12-03,2024-12-03,株式会社サムライメディア,,株式会社,東京都,港区,赤坂９丁目６番１１－７０３号,,13,103,1070052,,,,,,,2024-12-03,1,,,,,サムライメディア,0
748,4010401186771,新規,0,2024-12-03,2024-12-03,株式会社Ｒａｃｑｅｓｓ,,株式会社,東京都,港区,南青山１丁目１番１号新青山ビル西館７階,,13,103,1070062,,,,,,,2024-12-03,1,,,,,ラケス,0
749,4010401186796,新規,0,2024-12-03,2024-12-03,ｂａｎｉｆｌｏｗ株式会社,,株式会社,東京都,港区,南青山３丁目１番３６号－６階,,13,103,1070062,,,,,,,2024-12-03,1,,,,,バニフロー,0
755,4010601066328,新規,0,2024-12-03,2024-12-03,楓樺株式会社,,株式会社,東京都,墨田区,石原２丁目１６番１０－３０３号,,13,107,1300011,,,,,,,2024-12-03,1,,,,,フウカ,0
756,4010601066385,新規,0,2024-12-03,2024-12-03,株式会社匠計画,,株式会社,東京都,江東区,豊洲４丁目９－１３－８１９,,13,108,1350061,,,,,,,2024-12-03,1,,,,,タクミケイカク,0
757,4010601066402,新規,0,2024-12-03,2024-12-03,株式会社ｉｉｎｅｅ　Ｊａｐａｎ,,株式会社,東京都,江東区,豊洲５丁目５番１－３４０４号,,13,108,1350061,,,,,,,2024-12-03,1,,,,,イイネジャパン,0
770,4010903009546,新規,0,2024-12-03,2024-12-03,合同会社ＳＫアセットマネジメント,,合同会社,東京都,世田谷区,駒沢１丁目９―８,,13,112,1540012,,,,,,,2024-12-03,1,,,,,エスケーアセットマネジメント,0
777,4011003020542,新規,0,2024-12-03,2024-12-03,合同会社Ｍｏｖｉｎｇ　Ｈｅａｒｔｓ,,合同会社,東京都,渋谷区,渋谷２丁目１９‐１５宮益坂ビルディング６０９,,13,113,1500002,,,,,,,2024-12-03,1,,,,,ムービングハーツ,0
779,4011101109799,新規,0,2024-12-03,2024-12-03,株式会社Ｆａｉｔｈ,,株式会社,東京都,新宿区,西新宿３丁目３番１３号西新宿水間ビル２Ｆ,,13,104,1600023,,,,,,,2024-12-03,1,,,,,フェイス,0
781,4011203004543,新規,0,2024-12-03,2024-12-03,Ｈ＆Ｄ合同会社,,合同会社,東京都,中野区,中野５丁目４４番１４号パールシティ中野１１２号室,,13,114,1640001,,,,,,,2024-12-03,1,,,,,エイチアンドディ,0
782,4011401026620,新規,0,2024-12-03,2024-12-03,株式会社Ｎａｎａｍｉ,,株式会社,東京都,板橋区,三園１丁目４１－１０,,13,119,1750091,,,,,,,2024-12-03,1,,,,,ナナミ,0
790,4012703003142,新規,0,2024-12-03,2024-12-03,合同会社ＮｏｒｉｏＡ＆Ｓ,,合同会社,東京都,小平市,御幸町１３１－１３６,,13,211,1870012,,,,,,,2024-12-03,1,,,,,ノリオエーアンドエス,0
801,4020001160382,新規,0,2024-12-03,2024-12-03,株式会社Ｎａｚ．,,株式会社,神奈川県,横浜市瀬谷区,阿久和西３丁目５１番地１８,,14,114,2460025,,,,,,,2024-12-03,1,,,,,,0
804,4020003027357,新規,0,2024-12-03,2024-12-03,駿和グローバル合同会社,,合同会社,神奈川県,横浜市神奈川区,松見町４丁目１００２番地６,,14,102,2210005,,,,,,,2024-12-03,1,,,,,シュンワグローバル,0
805,4020003027365,新規,0,2024-12-03,2024-12-03,合同会社Ｄ＆Ａ,,合同会社,神奈川県,横浜市南区,永田北１丁目２４番１７号,,14,105,2320071,,,,,,,2024-12-03,1,,,,,ディーアンドエー,0
806,4020003027373,新規,0,2024-12-03,2024-12-03,えんりん合同会社,,合同会社,神奈川県,川崎市中原区,井田１丁目３番２４－１号,,14,133,2110035,,,,,,,2024-12-03,1,,,,,エンリン,0
809,4021001083887,新規,0,2024-12-03,2024-12-03,株式会社関山建材興業,,株式会社,神奈川県,相模原市南区,当麻９７番地３,,14,153,2520336,,,,,,,2024-12-03,1,,,,,セキヤマケンザイコウギョウ,0
810,4021001083895,新規,0,2024-12-03,2024-12-03,株式会社アオ．アソシエイツ,,株式会社,神奈川県,三浦郡葉山町,下山口３８１番地の４,,14,301,2400116,,,,,,,2024-12-03,1,,,,,アオアソシエイツ,0
814,4021003015293,新規,0,2024-12-03,2024-12-03,ＹＵＭＥ　ＭＯＴＯＲＳ合同会社,,合同会社,神奈川県,厚木市,下荻野８９７番地１,,14,212,2430203,,,,,,,2024-12-03,1,,,,,ユメモータース,0
820,4030001163698,新規,0,2024-12-03,2024-12-03,株式会社乃彩,,株式会社,埼玉県,北葛飾郡杉戸町,大字本郷１０８２番地２,,11,464,3450023,,,,,,,2024-12-03,1,,,,,ノア,0
821,4030001163723,新規,0,2024-12-03,2024-12-03,中洲国際株式会社,,株式会社,埼玉県,川口市,川口５丁目１１番１５－２０３号,,11,203,3320015,,,,,,,2024-12-03,1,,,,,ナカスコクサイ,0
822,4030001163756,新規,0,2024-12-03,2024-12-03,株式会社ＮＥＯ,,株式会社,埼玉県,蕨市,塚越１丁目５番３号シティハウス蕨ステーションコート１２０２,,11,223,3350002,,,,,,,2024-12-03,1,,,,,ネオ,0
829,4030003025608,新規,0,2024-12-03,2024-12-03,ＮＩＫＯＮＩＫＯ　ＧＬＯＢＡＬ合同会社,,合同会社,埼玉県,さいたま市大宮区,大成町１丁目４４６番地１,,11,103,3300852,,,,,,,2024-12-03,1,,,,,ニコニコグローバル,0
834,4040003026282,新規,0,2024-12-03,2024-12-03,ＲＯＹＡＬ　ＧＬＯＢＡＬ　ＬＯＧＩＳＴＩＣＳ合同会社,,合同会社,千葉県,野田市,木間ケ瀬７４０－６,,12,208,2700222,,,,,,,2024-12-03,1,,,,,ロイヤルグローバルロジスティックス,0
837,4060001037701,新規,0,2024-12-03,2024-12-03,株式会社シマヅ化成,,株式会社,栃木県,日光市,塩野室町３４０番地,,09,206,3212351,,,,,,,2024-12-03,1,,,,,シマヅカセイ,0
840,4080001026636,新規,0,2024-12-03,2024-12-03,株式会社クリーンサービス,,株式会社,静岡県,静岡市葵区,新伝馬３丁目１５番５号,,22,101,4200944,,,,,,,2024-12-03,1,,,,,クリーンサービス,0
842,4080401027606,新規,0,2024-12-03,2024-12-03,株式会社スタークス,,株式会社,静岡県,浜松市中央区,天王町１４２０番地の１,,22,138,4350052,,,,,,,2024-12-03,1,,,,,スタークス,0
847,4100001038083,新規,0,2024-12-03,2024-12-03,ビーエス株式会社,,株式会社,長野県,塩尻市,大字広丘原新田２２６番地１,,20,215,3990706,,,,,,,2024-12-03,1,,,,,ビーエス,0
848,4100001038091,新規,0,2024-12-03,2024-12-03,ＲＯＵＮＤ＆ＧＬＩＤＥ株式会社,,株式会社,長野県,長野市,中御所４丁目４、２－Ａ,,20,201,3800935,,,,,,,2024-12-03,1,,,,,ラウンドアンドグライド,0
861,4120001270386,新規,0,2024-12-03,2024-12-03,新啓株式会社,,株式会社,大阪府,大阪市住吉区,東粉浜１丁目１２番１２号みどりビル２０１号室,,27,120,5580051,,,,,,,2024-12-03,1,,,,,シンケイ,0
862,4120001270741,新規,0,2024-12-03,2024-12-03,株式会社ＡＲＣ　ＨＯＬＤＩＮＧＳ,,株式会社,大阪府,大阪市中央区,瓦町４丁目５－９,,27,128,5410048,,,,,,,2024-12-03,1,,,,,アークホールディングス,0
863,4120001270774,新規,0,2024-12-03,2024-12-03,ブルズアイ株式会社,,株式会社,大阪府,大阪市北区,曾根崎２丁目１５番３１－４８０３号,,27,127,5300057,,,,,,,2024-12-03,1,,,,,ブルズアイ,0
865,4120101070694,新規,0,2024-12-03,2024-12-03,株式会社ＬＩＭ,,株式会社,大阪府,堺市堺区,西永山園１番８号Ａ２０１号,,27,141,5900032,,,,,,,2024-12-03,1,,,,,リム,0
866,4120101070703,新規,0,2024-12-03,2024-12-03,ＹＮ　ｂａｓｅ株式会社,,株式会社,大阪府,松原市,天美南２丁目８２番２号,,27,217,5800033,,,,,,,2024-12-03,1,,,,,ワイエヌベース,0
868,4120103006168,新規,0,2024-12-03,2024-12-03,ＭＫ合同会社,,合同会社,大阪府,松原市,高見の里３丁目４番４２号,,27,217,5800021,,,,,,,2024-12-03,1,,,,,エムケイ,0
869,4120105009937,新規,0,2024-12-03,2024-12-03,一般社団法人保育サービス評価機構,,その他の設立登記法人,大阪府,堺市北区,中百舌鳥町５丁６中百舌鳥駅前ビル１階,,27,146,5918023,,,,,,,2024-12-03,1,,,,,ホイクサービスヒョウカキコウ,0
871,4120901050111,新規,0,2024-12-03,2024-12-03,株式会社Ｇｒａｓｓ　Ｔｒｅｅ,,株式会社,大阪府,吹田市,江の木町１４番９号２階,,27,205,5640053,,,,,,,2024-12-03,1,,,,,グラスツリー,0
872,4120903005435,新規,0,2024-12-03,2024-12-03,川西倉庫合同会社,,合同会社,大阪府,摂津市,鶴野１丁目２番２８号,,27,224,5660035,,,,,,,2024-12-03,1,,,,,カワニシソウコ,0
875,4122003003055,新規,0,2024-12-03,2024-12-03,ＨＵＮＧＲＹ　ＯＳＡＫＡ　ＴＯＵＲＳ合同会社,,合同会社,大阪府,大東市,北条６丁目１８番３号,,27,218,5740011,,,,,,,2024-12-03,1,,,,,ハングリーオオサカツアーズ,0
879,4140001136544,新規,0,2024-12-03,2024-12-03,株式会社アグリー商会,,株式会社,兵庫県,川辺郡猪名川町,荘苑３丁目３番地４,,28,301,6660238,,,,,,,2024-12-03,1,,,,,アグリーショウカイ,0
880,4140001136560,新規,0,2024-12-03,2024-12-03,ミライエール株式会社,,株式会社,兵庫県,加古郡播磨町,南野添１丁目２１番９号,,28,382,6750150,,,,,,,2024-12-03,1,,,,,ミライエール,0
881,4140003021380,新規,0,2024-12-03,2024-12-03,ＵＮＩＱＵＥ　ＪＡＰＡＮ　ＴＲＡＤＩＮＧ合同会社,,合同会社,兵庫県,宝塚市,千種２丁目１番３６号デュプレックス宝塚千種２,,28,214,6650072,,,,,,,2024-12-03,1,,,,,ユニークジャパントレーディング,0
885,4160001026388,新規,0,2024-12-03,2024-12-03,株式会社楽水車,,株式会社,滋賀県,守山市,守山１丁目２番３号,,25,207,5240022,,,,,,,2024-12-03,1,,,,,ラクスイシャ,0
887,4160003003344,新規,0,2024-12-03,2024-12-03,合同会社ＭａＨａＲｏ農園,,合同会社,滋賀県,近江八幡市,西生来町１３５７番地,,25,204,5230004,,,,,,,2024-12-03,1,,,,,マハロノウエン,0
888,4160005011361,新規,0,2024-12-03,2024-12-03,一般社団法人知恵の寺子屋,,その他の設立登記法人,滋賀県,守山市,浮気町２４１番地６６,,25,207,5240033,,,,,,,2024-12-03,1,,,,,チエノテラコヤ,0
899,4180001164343,新規,0,2024-12-03,2024-12-03,株式会社てくてくペディア,,株式会社,愛知県,名古屋市中村区,名駅４丁目２４番５号森ビル４０１,,23,105,4500002,,,,,,,2024-12-03,1,,,,,テクテクペディア,0
900,4180001164351,新規,0,2024-12-03,2024-12-03,株式会社ＨＡＩＲＬＤ,,株式会社,愛知県,豊明市,二村台２丁目１８番地１５,,23,229,4701131,,,,,,,2024-12-03,1,,,,,ヘアード,0
901,4180001164384,新規,0,2024-12-03,2024-12-03,株式会社太郎グループ,,株式会社,愛知県,名古屋市中村区,寿町２番地,,23,105,4530028,,,,,,,2024-12-03,1,,,,,タロウグループ,0
902,4180001164401,新規,0,2024-12-03,2024-12-03,株式会社Ｒｅｖｉｖｅ,,株式会社,愛知県,名古屋市中村区,名駅４丁目２４番１６号,,23,105,4500002,,,,,,,2024-12-03,1,,,,,リヴァイブ,0
903,4180003027696,新規,0,2024-12-03,2024-12-03,はむたまご合同会社,,合同会社,愛知県,名古屋市中区,栄５丁目１８番３号アパルトメントＳＡＫＡＥ５・６０２号,,23,106,4600008,,,,,,,2024-12-03,1,,,,,ハムタマゴ,0
904,4180003027705,新規,0,2024-12-03,2024-12-03,レディビートル合同会社,,合同会社,愛知県,春日井市,鳥居松町１丁目１９６番地４,,23,206,4860844,,,,,,,2024-12-03,1,,,,,レディビートル,0
907,4200005013691,新規,0,2024-12-03,2024-12-03,一般財団法人オンダマテック奨学会,,その他の設立登記法人,岐阜県,山県市,富永５６番地,,21,215,5012257,,,,,,,2024-12-03,1,,,,,オンダマテックショウガクカイ,0
911,4220001026365,新規,0,2024-12-03,2024-12-03,株式会社地域未来創造,,株式会社,石川県,金沢市,南町２番１号,,17,201,9200919,,,,,,,2024-12-03,1,,,,,チイキミライソウゾウ,0
915,4250001020919,新規,0,2024-12-03,2024-12-03,株式会社３９,,株式会社,山口県,山陽小野田市,新生１丁目９番１２号,,35,216,7560092,,,,,,,2024-12-03,1,,,,,スリーナイン,0
916,4250003003599,新規,0,2024-12-03,2024-12-03,合同会社日韓翻訳,,合同会社,山口県,山陽小野田市,大字鴨庄８７－３,,35,216,7570005,,,,,,,2024-12-03,1,,,,,ニッカンホンヤク,0
917,4260003004984,新規,0,2024-12-03,2024-12-03,スマイルソフィア合同会社,,合同会社,岡山県,倉敷市,水島東栄町５－２,,33,202,7128033,,,,,,,2024-12-03,1,,,,,スマイルソフィア,0
921,4290001108124,新規,0,2024-12-03,2024-12-03,株式会社ＣＡＦＷＥＬＬホールディングス,,株式会社,福岡県,福岡市南区,鶴田４丁目３番１８号４階,,40,134,8111352,,,,,,,2024-12-03,1,,,,,カフウェルホールディングス,0
922,4290001108165,新規,0,2024-12-03,2024-12-03,ナインテック株式会社,,株式会社,福岡県,福岡市中央区,天神４丁目６－２８天神ファーストビル７階,,40,133,8100001,,,,,,,2024-12-03,1,,,,,ナインテック,0
923,4290001108223,新規,0,2024-12-03,2024-12-03,株式会社塩屋組,,株式会社,福岡県,久留米市,北野町高良１９８３番地５,,40,203,8301114,,,,,,,2024-12-03,1,,,,,シオヤグミ,0
924,4290003016135,新規,0,2024-12-03,2024-12-03,合同会社ギアスタッフ,,合同会社,福岡県,福岡市中央区,高砂１丁目１７－７パルム渡辺通りＩＩＩ－１０２,00137206,40,133,8100011,,,,,,,2024-12-03,1,,,,,ギアスタッフ,0
926,4290801031087,新規,0,2024-12-03,2024-12-03,株式会社Ｓ‐ＳＫＹ,,株式会社,福岡県,北九州市小倉北区,中井１丁目２３番１１－１０２号,,40,106,8030836,,,,,,,2024-12-03,1,,,,,エススカイ,0
929,4320001020845,新規,0,2024-12-03,2024-12-03,株式会社三好,,株式会社,大分県,大分市,横田１丁目１番１０号,,44,201,8700263,,,,,,,2024-12-03,1,,,,,ミヨシ,0
937,4350001019307,新規,0,2024-12-03,2024-12-03,串間板金工業株式会社,,株式会社,宮崎県,都城市,早水町１６号６番地２,,45,202,8850016,,,,,,,2024-12-03,1,,,,,クシマバンキンコウギョウ,0
938,4350003004793,新規,0,2024-12-03,2024-12-03,合同会社エスユー,,合同会社,宮崎県,宮崎市,大塚台西３丁目３７号８番,,45,201,8802105,,,,,,,2024-12-03,1,,,,,エスユー,0
940,4360001034494,新規,0,2024-12-03,2024-12-03,株式会社山里産業,,株式会社,沖縄県,沖縄市,泡瀬４丁目１５番８号,,47,211,9042172,,,,,,,2024-12-03,1,,,,,ヤマザトサンギョウ,0
941,4360001034503,新規,0,2024-12-03,2024-12-03,Ｓｈａｌｌｏｗ　Ｓｅａ株式会社,,株式会社,沖縄県,石垣市,字新川２３５７番地１７,,47,207,9070024,,,,,,,2024-12-03,1,,,,,シャローシー,0
943,4370001051976,新規,0,2024-12-03,2024-12-03,三陸リアスネット株式会社,,株式会社,宮城県,気仙沼市,本吉町前浜１６３番地１,,04,205,9880282,,,,,,,2024-12-03,1,,,,,サンリクリアスネット,0
944,4380001034939,新規,0,2024-12-03,2024-12-03,株式会社かとりっぷ観光,,株式会社,福島県,耶麻郡猪苗代町,大字川桁字新町３６０５番地,,07,408,9692663,,,,,,,2024-12-03,1,,,,,カトリップカンコウ,0
950,4410003004011,新規,0,2024-12-03,2024-12-03,合同会社ＳＥＡ　ＯＦ　ＪＡＰＡＮ,,合同会社,秋田県,能代市,字鳥小屋１５番地２１,,05,202,0160864,,,,,,,2024-12-03,1,,,,,シーオブジャパン,0
954,4430001093186,新規,0,2024-12-03,2024-12-03,株式会社札幌海まる,,株式会社,北海道,札幌市中央区,北十一条西２２丁目１番１号,,01,101,0600011,,,,,,,2024-12-03,1,,,,,サッポロウミマル,0
957,4470001020483,新規,0,2024-12-03,2024-12-03,株式会社高木綜合商事,,株式会社,香川県,高松市,鹿角町７１５番地１７,,37,201,7618082,,,,,,,2024-12-03,1,,,,,,0
970,5010001250332,新規,0,2024-12-03,2024-12-03,株式会社ＡＫＲ,,株式会社,東京都,中央区,銀座７丁目５番１５号銀座蒲田ビル３Ｆ－ＡＢ号室,,13,102,1040061,,,,,,,2024-12-03,1,,,,,アキラ,0
971,5010001250365,新規,0,2024-12-03,2024-12-03,株式会社ＳＨＩＭＡ　ＰＲＯＤＵＣＴ,,株式会社,東京都,千代田区,神田神保町２丁目１０番１号,,13,101,1010051,,,,,,,2024-12-03,1,,,,,シマプロダクト,0
972,5010001250407,新規,0,2024-12-03,2024-12-03,ＣＳＲＩ１号株式会社,,株式会社,東京都,中央区,京橋１丁目６番１２号,,13,102,1040031,,,,,,,2024-12-03,1,,,,,シーエスアールアイイチゴウ,0
973,5010001250415,新規,0,2024-12-03,2024-12-03,株式会社豊桜,,株式会社,東京都,千代田区,隼町３番１１号,,13,101,1020092,,,,,,,2024-12-03,1,,,,,トヨザクラ,0
976,5010005039210,新規,0,2024-12-03,2024-12-03,一般社団法人日本ポータブル電源協会,,その他の設立登記法人,東京都,千代田区,神田東紺屋町２８番地,,13,101,1010034,,,,,,,2024-12-03,1,,,,,ニホンポータブルデンゲンキョウカイ,0
981,5010401186713,新規,0,2024-12-03,2024-12-03,株式会社ＫＵＬＯＧ　ＢＯＯＫ,,株式会社,東京都,港区,六本木７丁目３番８－６１２号,,13,103,1060032,,,,,,,2024-12-03,1,,,,,クログブック,0
982,5010401186779,新規,0,2024-12-03,2024-12-03,株式会社ＮＡＧＩ,,株式会社,東京都,港区,北青山１丁目３番１号アールキューブ青山３階,,13,103,1070061,,,,,,,2024-12-03,1,,,,,ナギ,0
983,5010401186787,新規,0,2024-12-03,2024-12-03,株式会社ｈｙｐｅｒｌｉｎｋｓ,,株式会社,東京都,港区,西麻布１丁目４番１２号綾ビル３階,,13,103,1060031,,,,,,,2024-12-03,1,,,,,ハイパーリンクス,0
986,5010405023879,新規,0,2024-12-03,2024-12-03,一般社団法人エルインベストメント４,,その他の設立登記法人,東京都,港区,元赤坂１丁目１番８号株式会社赤坂国際会計内,,13,103,1070051,,,,,,,2024-12-03,1,,,,,エルインベストメントフォー,0
987,5010501053284,新規,0,2024-12-03,2024-12-03,株式会社熊本セカンド,,株式会社,東京都,台東区,台東１丁目１０番６号,,13,106,1100016,,,,,,,2024-12-03,1,,,,,クマモトセカンド,0
988,5010601066401,新規,0,2024-12-03,2024-12-03,株式会社ｉ　Ｗｏｒｌｄ　Ｊａｐａｎ,,株式会社,東京都,江東区,猿江２丁目３番２０－１３０７号,,13,108,1350003,,,,,,,2024-12-03,1,,,,,アイワールドジャパン,0
990,5010803005181,新規,0,2024-12-03,2024-12-03,合同会社カーサ企画,,合同会社,東京都,大田区,南蒲田３丁目８番２４号,,13,111,1440035,,,,,,,2024-12-03,1,,,,,カーサキカク,0
992,5010901056424,新規,0,2024-12-03,2024-12-03,株式会社郡善,,株式会社,東京都,世田谷区,松原５丁目１１番２０号,,13,112,1560043,,,,,,,2024-12-03,1,,,,,グンゼン,0
1001,5011003020533,新規,0,2024-12-03,2024-12-03,合同会社ＳＴｏＲｙ　Ｗｅｂ　Ｓｏｌｕｔｉｏｎｓ,,合同会社,東京都,渋谷区,渋谷２丁目１９‐１５宮益坂ビルディング６０９,,13,113,1500002,,,,,,,2024-12-03,1,,,,,ストーリーウェブソリューションズ,0
1002,5011005010788,新規,0,2024-12-03,2024-12-03,一般社団法人ゴーオーガニクスジャパン,,その他の設立登記法人,東京都,渋谷区,渋谷２丁目１９－１５宮益坂ビルディング６０９,,13,113,1500002,,,,,,,2024-12-03,1,,,,,ゴーオーガニクスジャパン,0
1007,5011501031420,新規,0,2024-12-03,2024-12-03,未来食品東京株式会社,,株式会社,東京都,荒川区,南千住３丁目２７－２浅草ビル５０８,,13,118,1160003,,,,,,,2024-12-03,1,,,,,ミライショクヒントウキョウ,0
1010,5011601028250,新規,0,2024-12-03,2024-12-03,株式会社Ｗａｖｅｍｙ,,株式会社,東京都,練馬区,大泉学園町２丁目１４番１３号,,13,120,1780061,,,,,,,2024-12-03,1,,,,,ウェーブミー,0
1016,5012701018579,新規,0,2024-12-03,2024-12-03,株式会社ＢＵＲＭＳ,,株式会社,東京都,西東京市,北原町２丁目１６番６号ピュアグレイス１０１,,13,229,1880003,,,,,,,2024-12-03,1,,,,,バームス,0
1019,5012801023611,新規,0,2024-12-03,2024-12-03,ケイマックス株式会社,,株式会社,東京都,立川市,柴崎町２丁目１０番１号,,13,202,1900023,,,,,,,2024-12-03,1,,,,,ケイマックス,0
1029,5020001160373,新規,0,2024-12-03,2024-12-03,株式会社ａｄｖａｎｃｅ,,株式会社,神奈川県,横浜市西区,高島２丁目６－４２,,14,103,2200011,,,,,,,2024-12-03,1,,,,,アドバンス,0
1030,5020001160407,新規,0,2024-12-03,2024-12-03,株式会社ＩＦ,,株式会社,神奈川県,横浜市西区,浅間町１丁目４番３号ウィザードビル４０２,,14,103,2200072,,,,,,,2024-12-03,1,,,,,アイエフ,0
1031,5020001160415,新規,0,2024-12-03,2024-12-03,株式会社ｒｉｃｈｇｌｏｗ,,株式会社,神奈川県,横浜市磯子区,森２丁目７番３－２０５号,,14,107,2350023,,,,,,,2024-12-03,1,,,,,リッチグロウ,0
1035,5020003027323,新規,0,2024-12-03,2024-12-03,合同会社Ｗａｌｋ　ｗｉｔｈ,,合同会社,神奈川県,横浜市神奈川区,金港町５番地１４クアドリフォリオ８階,,14,102,2210056,,,,,,,2024-12-03,1,,,,,ウォークウィズ,0
1037,5021001083903,新規,0,2024-12-03,2024-12-03,株式会社クドウ建設,,株式会社,神奈川県,厚木市,飯山４５４７番地１,,14,212,2430213,,,,,,,2024-12-03,1,,,,,クドウケンセツ,0
1040,5021003015301,新規,0,2024-12-03,2024-12-03,Ｔｈｅ　ＡＵＢＥ合同会社,,合同会社,神奈川県,茅ヶ崎市,共恵１丁目１－５Ｂ．Ｌ．ＤＮａｇａｓｈｉｍａ３０１ＣＯＰＬＡＣＥ,,14,207,2530056,,,,,,,2024-12-03,1,,,,,ジオーブ,0
1045,5030001163648,新規,0,2024-12-03,2024-12-03,株式会社ＮＦＩ,,株式会社,埼玉県,越谷市,赤山本町３番地２４ライオンズグローベル越谷ステーションプラザ１２０１号,,11,222,3430808,,,,,,,2024-12-03,1,,,,,エヌエフアイ,0
1046,5030001163672,新規,0,2024-12-03,2024-12-03,株式会社ＲＩＳＩＮＧ．ＣＫ,,株式会社,埼玉県,越谷市,大字小曽川５３１番地１,,11,222,3430802,,,,,,,2024-12-03,1,,,,,ライジングシーケー,0
1051,5040003026307,新規,0,2024-12-03,2024-12-03,合同会社ＷＩＺＵコンサルティング,,合同会社,千葉県,市川市,大洲３丁目９番１４ー６０５号アイディコート市川,,12,203,2720032,,,,,,,2024-12-03,1,,,,,ウィズユーコンサルティング,0
1055,5050001055785,新規,0,2024-12-03,2024-12-03,株式会社ネクストステップ,,株式会社,茨城県,古河市,下大野２９５７番地１６,,08,204,3060204,,,,,,,2024-12-03,1,,,,,ネクストステップ,0
1056,5050001055810,新規,0,2024-12-03,2024-12-03,ＸＬＰＯＷＥＲ株式会社,,株式会社,茨城県,守谷市,けやき台３丁目１０番地１６,,08,224,3020128,,,,,,,2024-12-03,1,,,,,エクセルパワー,0
1058,5060001037700,新規,0,2024-12-03,2024-12-03,株式会社ハピネスブランチ,,株式会社,栃木県,鹿沼市,西茂呂２丁目３番地２０,,09,205,3220029,,,,,,,2024-12-03,1,,,,,ハピネスブランチ,0
1064,5080401027605,新規,0,2024-12-03,2024-12-03,株式会社ＧＳ,,株式会社,静岡県,浜松市中央区,頭陀寺町３２１番地１６,,22,138,4300817,,,,,,,2024-12-03,1,,,,,ジーエス,0
1067,5100001038090,新規,0,2024-12-03,2024-12-03,株式会社ＭＯＤＯＦ　ＤＥＳＩＧＮ,,株式会社,長野県,長野市,大字栗田２１２５番地、長栄長野東口ビル１Ｆ・２Ｆ,,20,201,3800921,,,,,,,2024-12-03,1,,,,,モドフデザイン,0
1079,5120001270674,新規,0,2024-12-03,2024-12-03,株式会社ベース,,株式会社,大阪府,大阪市中央区,島之内１丁目２２番２２号第一住建島之内堺筋ビル５０３号,,27,128,5420082,,,,,,,2024-12-03,1,,,,,ベース,0
1080,5120001270815,新規,0,2024-12-03,2024-12-03,能登株式会社,,株式会社,大阪府,大阪市浪速区,大国１丁目６番８号,,27,111,5560014,,,,,,,2024-12-03,1,,,,,ノウトウ,0
1083,5120101070685,新規,0,2024-12-03,2024-12-03,ＫＡＭＡＫＵＲＡ　ＡＵＴＯ株式会社,,株式会社,大阪府,貝塚市,三ケ山５６８番地１,,27,208,5970101,,,,,,,2024-12-03,1,,,,,カマクラオート,0
1084,5120901050093,新規,0,2024-12-03,2024-12-03,株式会社ＭＡＭＯ,,株式会社,大阪府,吹田市,岸部中４丁目７番６号,,27,205,5640002,,,,,,,2024-12-03,1,,,,,マーモ,0
1085,5120901050110,新規,0,2024-12-03,2024-12-03,澄軒株式会社,,株式会社,大阪府,吹田市,藤白台５丁目７番３号,,27,205,5650873,,,,,,,2024-12-03,1,,,,,チョウケン,0
1086,5120905006661,新規,0,2024-12-03,2024-12-03,一般社団法人経営者創業立案協会,,その他の設立登記法人,大阪府,茨木市,西駅前町５番１０号,,27,211,5670032,,,,,,,2024-12-03,1,,,,,ケイエイシャソウギョウリツアンキョウカイ,0
1087,5122001038696,新規,0,2024-12-03,2024-12-03,リアルマネジメント株式会社,,株式会社,大阪府,東大阪市,川俣１丁目５番１６号,,27,227,5770063,,,,,,,2024-12-03,1,,,,,リアルマネジメント,0
1095,5140001136618,新規,0,2024-12-03,2024-12-03,株式会社Ｌ＆Ｗ,,株式会社,兵庫県,西宮市,松園町７番２２－１０１号,,28,204,6620053,,,,,,,2024-12-03,1,,,,,エルアンドダブリュー,0
1097,5150001027717,新規,0,2024-12-03,2024-12-03,三済株式会社,,株式会社,奈良県,香芝市,関屋北５丁目１２－１６,,29,210,6390254,,,,,,,2024-12-03,1,,,,,サンセイ,0
1101,5170001018400,新規,0,2024-12-03,2024-12-03,株式会社ベストＡ・Ｋ,,株式会社,和歌山県,海南市,重根２１４８番地７１,,30,202,6420023,,,,,,,2024-12-03,1,,,,,ベストエーケー,0
1111,5180001164391,新規,0,2024-12-03,2024-12-03,ひとまちイノベーションマネジメント株式会社,,株式会社,愛知県,名古屋市中村区,名駅３丁目４－１０アルティメイト名駅１ｓｔ２階,,23,105,4500002,,,,,,,2024-12-03,1,,,,,ヒトマチイノベーションマネジメント,0
1117,5200001043196,新規,0,2024-12-03,2024-12-03,株式会社イシグロ・ラボ,,株式会社,岐阜県,土岐市,泉町久尻２０番地の１６,,21,212,5095142,,,,,,,2024-12-03,1,,,,,イシグロラボ,0
1122,5260001039692,新規,0,2024-12-03,2024-12-03,株式会社グッド＆トライモ,,株式会社,岡山県,倉敷市,児島小川９丁目８番５３号プラティーヌＫ．Ｄ２０２号,,33,202,7110911,,,,,,,2024-12-03,1,,,,,グッドアンドトライモ,0
1127,5290001108164,新規,0,2024-12-03,2024-12-03,株式会社ＳＰＳジャパン,,株式会社,福岡県,福岡市博多区,祇園町２番２４号ルエメゾンロワール祇園６０２,,40,132,8120038,,,,,,,2024-12-03,1,,,,,エスピーエス,0
1128,5290001108180,新規,0,2024-12-03,2024-12-03,株式会社ＴＯＴＡＬ　Ｉｎｃ,,株式会社,福岡県,福岡市中央区,荒戸２丁目４番３号エステートマンション西公園２０１,,40,133,8100062,,,,,,,2024-12-03,1,,,,,トータルインク,0
1129,5290001108214,新規,0,2024-12-03,2024-12-03,株式会社Ａｒｗｉｎ,,株式会社,福岡県,福岡市中央区,天神３丁目４番１０号天神西茂ビル６０１号,,40,133,8100001,,,,,,,2024-12-03,1,,,,,アーウィン,0
1131,5290003016134,新規,0,2024-12-03,2024-12-03,合同会社Ｎｅｅｄ,,合同会社,福岡県,福岡市博多区,千代４丁目４番２９－８０６号ＲＪＲプレシア千代県庁口駅前,,40,132,8120044,,,,,,,2024-12-03,1,,,,,ニード,0
1138,5330001032707,新規,0,2024-12-03,2024-12-03,株式会社アゴラホーム,,株式会社,熊本県,合志市,御代志１７４４番地２１,,43,216,8611104,,,,,,,2024-12-03,1,,,,,アゴラホーム,0
1141,5330003010669,新規,0,2024-12-03,2024-12-03,合同会社茉莉花,,合同会社,熊本県,熊本市西区,小島９丁目８番３号,,43,103,8615287,,,,,,,2024-12-03,1,,,,,マリカ,0
1143,5350001019306,新規,0,2024-12-03,2024-12-03,株式会社クリエイト・サン南,,株式会社,宮崎県,宮崎市,大淀３丁目２番１９号,,45,201,8800902,,,,,,,2024-12-03,1,,,,,クリエイトサンミナミ,0
1151,5360001034502,新規,0,2024-12-03,2024-12-03,株式会社千桜コーポレーション,,株式会社,沖縄県,那覇市,繁多川５丁目２番１５号,,47,201,9020071,,,,,,,2024-12-03,1,,,,,チオコーポレーション,0
1164,5400005008456,新規,0,2024-12-03,2024-12-03,行政書士法人かみやま事務所,,その他の設立登記法人,岩手県,奥州市,水沢字南大鐘１０５番地２,,03,215,0230855,,,,,,,2024-12-03,1,,,,,カミヤマジムショ,0
1167,5430001093193,新規,0,2024-12-03,2024-12-03,株式会社藤総,,株式会社,北海道,石狩市,花川南一条５丁目４７番地,,01,235,0613201,,,,,,,2024-12-03,1,,,,,フジソウ,0
1170,5430003017035,新規,0,2024-12-03,2024-12-03,合同会社ｈ．ｆｉａ,,合同会社,北海道,恵庭市,恵み野北６丁目６番７,,01,231,0611374,,,,,,,2024-12-03,1,,,,,エイチフィア,0
1172,5440001009529,新規,0,2024-12-03,2024-12-03,株式会社肉のふじた函館,,株式会社,北海道,函館市,昭和２丁目１１番２号,,01,202,0410812,,,,,,,2024-12-03,1,,,,,ニクノフジタハコダテ,0
1180,5700150128029,新規,0,2024-12-03,2024-12-03,Ｓｈｅｎｚｈｅｎ　Ｄｉｎｇｓｉ　Ｔｒａｄｉｎｇ　Ｃｏ．，Ｌｔｄ．,,外国会社等,,,,,,,,Ｒｏｏｍ　２０６，Ｎｏ．２，Ｌａｎｅ　１，Ｅａｓｔ　Ｌａｎｅ，Ｘｉｎ　ａｎ　Ｒｏａｄ，Ｇｕａｎｇｙａｙｕａｎ　Ｖｉｌｌａｇｅ，Ｂａｎｔｉａｎ　Ｓｔｒｅｅｔ，Ｌｏｎｇｇａｎｇ　Ｄｉｓｔｒｉｃｔ，Ｓｈｅｎｚｈｅｎ,,,,,,2024-12-03,1,,,,,シェンジェンシーディンスーマオイーヨウシエンゴンスー,0
1186,6010001250331,新規,0,2024-12-03,2024-12-03,株式会社ＦＴＳ,,株式会社,東京都,千代田区,三番町３０番８号第二生光ビル６０２,,13,101,1020075,,,,,,,2024-12-03,1,,,,,エフティエス,0
1187,6010001250380,新規,0,2024-12-03,2024-12-03,株式会社シャンティ,,株式会社,東京都,文京区,白山１丁目３番１０号,,13,105,1130001,,,,,,,2024-12-03,1,,,,,シャンティ,0
1191,6010003045688,新規,0,2024-12-03,2024-12-03,シトリンスリー合同会社,,合同会社,東京都,中央区,日本橋１丁目４番１号日本橋一丁目ビルディング,,13,102,1030027,,,,,,,2024-12-03,1,,,,,シトリンスリー,0
1194,6010005039226,新規,0,2024-12-03,2024-12-03,一般社団法人ヴェルディクラブ,,その他の設立登記法人,東京都,千代田区,神田錦町３丁目２０番地,,13,101,1010054,,,,,,,2024-12-03,1,,,,,ヴェルディクラブ,0
1196,6010101016434,新規,0,2024-12-03,2024-12-03,株式会社誠電気,,株式会社,東京都,八王子市,元横山町２丁目５番１８号ヴィラ元横山１０２号,,13,201,1920063,,,,,,,2024-12-03,1,,,,,セイデンキ,0
1210,6010501053275,新規,0,2024-12-03,2024-12-03,株式会社ソウルメイト・ウィズ,,株式会社,東京都,台東区,下谷３丁目１番３３－６０２号プレシス入谷,,13,106,1100004,,,,,,,2024-12-03,1,,,,,ソウルメイトウィズ,0
1215,6010701046871,新規,0,2024-12-03,2024-12-03,株式会社ＶＩＬＩＦＥＡＲＸ,,株式会社,東京都,品川区,上大崎１丁目１２番地８ＣＵＢＥＳ白金台２０８,,13,109,1410021,,,,,,,2024-12-03,1,,,,,ヴィライフアークス,0
1228,6011003020508,新規,0,2024-12-03,2024-12-03,琥珀合同会社,,合同会社,東京都,目黒区,目黒１丁目４番１６号目黒Ｇビル５階,,13,110,1530063,,,,,,,2024-12-03,1,,,,,コハク,0
1229,6011005010795,新規,0,2024-12-03,2024-12-03,一般社団法人日本貧血改善協会,,その他の設立登記法人,東京都,渋谷区,神宮前６丁目２３番４号桑野ビル２階,,13,113,1500001,,,,,,,2024-12-03,1,,,,,ニホンヒンケツカイゼンキョウカイ,0
1230,6011101109789,新規,0,2024-12-03,2024-12-03,ＦＳ２４株式会社,,株式会社,東京都,新宿区,四谷２丁目１４番地３７,,13,104,1600004,,,,,,,2024-12-03,1,,,,,エフエスニジュウヨン,0
1233,6011203004541,新規,0,2024-12-03,2024-12-03,合同会社Ｆｌｅｘ,,合同会社,東京都,中野区,中野５丁目５８－９ソシアルビル山田２０１,,13,114,1640001,,,,,,,2024-12-03,1,,,,,フレックス,0
1238,6011301030200,新規,0,2024-12-03,2024-12-03,株式会社ＥＵＲＯＳＴＵＤＹ,,株式会社,東京都,杉並区,下井草２丁目４２番４号,,13,115,1670022,,,,,,,2024-12-03,1,,,,,ユーロスタディー,0
1241,6011401026610,新規,0,2024-12-03,2024-12-03,ＧＯＬＤＥＮ　ＪＡＣＫ株式会社,,株式会社,東京都,板橋区,仲宿６３－７－４０９号,,13,119,1730005,,,,,,,2024-12-03,1,,,,,ゴールデンジャック,0
1243,6011403004564,新規,0,2024-12-03,2024-12-03,ＴＡＵ合同会社,,合同会社,東京都,板橋区,大谷口北町４７番地１,,13,119,1730031,,,,,,,2024-12-03,1,,,,,タウ,0
1246,6011603004538,新規,0,2024-12-03,2024-12-03,ＭＡＫＩ合同会社,,合同会社,東京都,練馬区,中村北２丁目４番１４号,,13,120,1760023,,,,,,,2024-12-03,1,,,,,マキ,0
1248,6011801045251,新規,0,2024-12-03,2024-12-03,友利株式会社,,株式会社,東京都,葛飾区,西新小岩５丁目２８番２０－１１２号,,13,122,1240025,,,,,,,2024-12-03,1,,,,,ユウリ,0
1249,6011803006581,新規,0,2024-12-03,2024-12-03,ＬＯＮＧＷＩＮ　ＪＡＰＡＮ合同会社,,合同会社,東京都,足立区,小台１丁目１６番１１－６０１Ａ,,13,121,1200046,,,,,,,2024-12-03,1,,,,,ロングウィンジャパン,0
1251,6012703003149,新規,0,2024-12-03,2024-12-03,エンフル合同会社,,合同会社,東京都,小平市,学園西町２丁目１３番４号みどり荘２－Ａ,,13,211,1870045,,,,,,,2024-12-03,1,,,,,エンフル,0
1261,6020001160406,新規,0,2024-12-03,2024-12-03,株式会社ｋｉｎｃｈａｎｂｂｈ．ｃｏｍ,,株式会社,神奈川県,横浜市栄区,小管ケ谷一丁目２２番２－１１６号,,14,115,2470000,,,,,,,2024-12-03,1,,,,,キンチャンビービーエイチドットコム,0
1262,6020001160414,新規,0,2024-12-03,2024-12-03,Ｂｅｙｏｎｄ株式会社,,株式会社,神奈川県,横浜市神奈川区,鶴屋町２丁目９－２２日興パレス横浜８０４,,14,102,2210835,,,,,,,2024-12-03,1,,,,,ビヨンド,0
1264,6021001083877,新規,0,2024-12-03,2024-12-03,株式会社ＭＷ,,株式会社,神奈川県,相模原市中央区,横山台１丁目１７番１９号,,14,152,2520241,,,,,,,2024-12-03,1,,,,,エムダブリュー,0
1265,6021001083910,新規,0,2024-12-03,2024-12-03,世界のモネ株式会社,,株式会社,神奈川県,茅ヶ崎市,中海岸１丁目１番４３号,,14,207,2530055,,,,,,,2024-12-03,1,,,,,セカイノモネ,0
1267,6021003015300,新規,0,2024-12-03,2024-12-03,合同会社ＫＮＲケア,,合同会社,神奈川県,相模原市緑区,二本松１丁目６番３３号,,14,151,2520137,,,,,,,2024-12-03,1,,,,,ケーエヌアールケア,0
1281,6040001136379,新規,0,2024-12-03,2024-12-03,ＴＯＭＯ明株式会社,,株式会社,千葉県,千葉市中央区,都町２丁目２２番１０号２０１,,12,101,2600001,,,,,,,2024-12-03,1,,,,,トモメイ,0
1282,6040001136404,新規,0,2024-12-03,2024-12-03,株式会社千歳マシナリー,,株式会社,千葉県,木更津市,築地２番地,,12,206,2920835,,,,,,,2024-12-03,1,,,,,チトセマシナリー,0
1287,6050001055826,新規,0,2024-12-03,2024-12-03,株式会社ＳＯＬ　Ｓｐｏｒｔｓ,,株式会社,茨城県,鉾田市,新鉾田２丁目１番地１４,,08,234,3111516,,,,,,,2024-12-03,1,,,,,ソルスポーツ,0
1291,6080101025172,新規,0,2024-12-03,2024-12-03,株式会社ＬＤＪ,,株式会社,静岡県,沼津市,高島町２１番２６号,,22,203,4100056,,,,,,,2024-12-03,1,,,,,エルディージェイ,0
1292,6080403005153,新規,0,2024-12-03,2024-12-03,合同会社ｅｌｕ,,合同会社,静岡県,浜松市中央区,西伊場町１番３号,,22,138,4328038,,,,,,,2024-12-03,1,,,,,エル,0
1294,6090001019026,新規,0,2024-12-03,2024-12-03,ａｒｏｇｉ株式会社,,株式会社,山梨県,甲州市,塩山西広門田２６７番地６,,19,213,4040037,,,,,,,2024-12-03,1,,,,,アロギ,0
1304,6120001270748,新規,0,2024-12-03,2024-12-03,株式会社川善,,株式会社,大阪府,大阪市鶴見区,緑１丁目１８番２３号,,27,124,5380054,,,,,,,2024-12-03,1,,,,,カワゼン,0
1305,6120001270780,新規,0,2024-12-03,2024-12-03,株式会社７分,,株式会社,大阪府,大阪市中央区,南船場４丁目１０－５南船場ＳＯＨＯビル７０２,,27,128,5420081,,,,,,,2024-12-03,1,,,,,ナナフン,0
1306,6120005024638,新規,0,2024-12-03,2024-12-03,一般社団法人ブリッジブック,,その他の設立登記法人,大阪府,大阪市中央区,南船場３丁目２番２２号おおきに南船場ビル２０５,,27,128,5420081,,,,,,,2024-12-03,1,,,,,ブリッジブック,0
1309,6120101070684,新規,0,2024-12-03,2024-12-03,エムズ・エステート・リサーチ株式会社,,株式会社,大阪府,堺市北区,東雲東町３丁７番２号,,27,146,5918041,,,,,,,2024-12-03,1,,,,,エムズエステートリサーチ,0
1310,6120103006166,新規,0,2024-12-03,2024-12-03,合同会社ＲＡＩＺ,,合同会社,大阪府,堺市北区,百舌鳥本町３丁８番地２２,,27,146,5918036,,,,,,,2024-12-03,1,,,,,ライズ,0
1316,6122003003053,新規,0,2024-12-03,2024-12-03,ＤＡＩ　ＴＨＡＮＨ合同会社,,合同会社,大阪府,東大阪市,瓜生堂２丁目１－１５,,27,227,5780946,,,,,,,2024-12-03,1,,,,,ダイタン,0
1324,6140001136609,新規,0,2024-12-03,2024-12-03,大和翔輝株式会社,,株式会社,兵庫県,神戸市北区,有野町唐櫃４０２９番３－３０６号室,,28,109,6511331,,,,,,,2024-12-03,1,,,,,ダイワショウキ,0
1327,6160001026386,新規,0,2024-12-03,2024-12-03,ＣｏｒｅＬｉｎｏ株式会社,,株式会社,滋賀県,大津市,本堅田１丁目２１番１号,,25,201,5200242,,,,,,,2024-12-03,1,,,,,コアリノ,0
1329,6170001018399,新規,0,2024-12-03,2024-12-03,株式会社ＯＫＩＢＩ,,株式会社,和歌山県,和歌山市,伝法橋南ノ丁１１－１－８０３,,30,201,6408204,,,,,,,2024-12-03,1,,,,,オキビ,0
1337,6180001164399,新規,0,2024-12-03,2024-12-03,株式会社イタク,,株式会社,愛知県,名古屋市中村区,名駅３丁目２２番４号,,23,105,4500002,,,,,,,2024-12-03,1,,,,,イタク,0
1338,6180001164416,新規,0,2024-12-03,2024-12-03,株式会社ＳＴＳ,,株式会社,愛知県,名古屋市中区,新栄２丁目４番７号東和パークビル東館５０２号室,,23,106,4600007,,,,,,,2024-12-03,1,,,,,エスティーエス,0
1343,6180003027686,新規,0,2024-12-03,2024-12-03,合同会社メドフォワード,,合同会社,愛知県,名古屋市千種区,向陽町２丁目１９番地の１,,23,101,4640062,,,,,,,2024-12-03,1,,,,,メドフォワード,0
1344,6180003027711,新規,0,2024-12-03,2024-12-03,アカウンティングサポート合同会社,,合同会社,愛知県,名古屋市千種区,菊坂町１丁目９番地グランドメゾン菊坂町７０１号,,23,101,4640836,,,,,,,2024-12-03,1,,,,,アカウンティングサポート,0
1347,6180305009630,新規,0,2024-12-03,2024-12-03,矢作橋社会保険労務士法人,,その他の設立登記法人,愛知県,岡崎市,矢作町字桜海道２１番地１,,23,202,4440943,,,,,,,2024-12-03,1,,,,,ヤハギバシ,0
1348,6190001031854,新規,0,2024-12-03,2024-12-03,株式会社ＭＩＲＡＩ建設,,株式会社,三重県,桑名市,大字蛎塚新田８７５番地３,,24,205,5110861,,,,,,,2024-12-03,1,,,,,ミライケンセツ,0
1349,6190003004866,新規,0,2024-12-03,2024-12-03,合同会社しあわせマーケット,,合同会社,三重県,鈴鹿市,白子３丁目２１番１０号,,24,207,5100243,,,,,,,2024-12-03,1,,,,,シアワセマーケット,0
1355,6250003003580,新規,0,2024-12-03,2024-12-03,合同会社ｔｈｒｅｅＲｐｌｕｓ,,合同会社,山口県,下関市,豊浦町大字川棚７３０７番１,,35,201,7596301,,,,,,,2024-12-03,1,,,,,スリーアールプラス,0
1356,6250003003606,新規,0,2024-12-03,2024-12-03,合同会社肉の立道,,合同会社,山口県,下関市,竹崎町３丁目１番１号,,35,201,7500025,,,,,,,2024-12-03,1,,,,,ニクノタテミチ,0
1357,6260001039683,新規,0,2024-12-03,2024-12-03,株式会社ヤマダビートレーディング,,株式会社,岡山県,苫田郡鏡野町,市場１９４番地,,33,606,7080315,,,,,,,2024-12-03,1,,,,,ヤマダビートレーディング,0
1358,6260003004990,新規,0,2024-12-03,2024-12-03,ｔｋ合同会社,,合同会社,岡山県,岡山市中区,八幡１４１番地７,,33,102,7038254,,,,,,,2024-12-03,1,,,,,ティーケー,0
1360,6290001108147,新規,0,2024-12-03,2024-12-03,エムジーシステム株式会社,,株式会社,福岡県,八女市,新庄３９３番地,,40,210,8340052,,,,,,,2024-12-03,1,,,,,エムジーシステム,0
1361,6290001108188,新規,0,2024-12-03,2024-12-03,株式会社ｂ‐ｇｒｏｕｐ,,株式会社,福岡県,福岡市中央区,今泉１丁目１８番２３号１Ｆ,,40,133,8100021,,,,,,,2024-12-03,1,,,,,ビーグループ,0
1362,6290001108196,新規,0,2024-12-03,2024-12-03,株式会社ＪＲ九州の仲介,,株式会社,福岡県,福岡市博多区,寿町２丁目９番３０号,,40,132,8120884,,,,,,,2024-12-03,1,,,,,ジェイアールキュウシュウノチュウカイ,0
1364,6290005019571,新規,0,2024-12-03,2024-12-03,一般社団法人ＫＭＣ,,その他の設立登記法人,福岡県,福岡市西区,野方２丁目３９番３３号,,40,135,8190043,,,,,,,2024-12-03,1,,,,,ケイエムシー,0
1366,6310001019341,新規,0,2024-12-03,2024-12-03,株式会社ＨＫＨ,,株式会社,長崎県,対馬市,厳原町東里２２３番地,,42,209,8170016,,,,,,,2024-12-03,1,,,,,エイチケーエイチ,0
1367,6320001020835,新規,0,2024-12-03,2024-12-03,皆順株式会社,,株式会社,大分県,大分市,大字角子原１３３８番１－２階,,44,201,8700271,,,,,,,2024-12-03,1,,,,,カイジュン,0
1368,6320001020843,新規,0,2024-12-03,2024-12-03,セレクト不動産株式会社,,株式会社,大分県,大分市,西鶴崎１丁目１２番２２号ヴェルメゾン鶴崎２０３,,44,201,8700105,,,,,,,2024-12-03,1,,,,,セレクトフドウサン,0
1371,6330003010668,新規,0,2024-12-03,2024-12-03,合同会社Ｎｅｗｔｕ,,合同会社,熊本県,熊本市西区,島崎２丁目２番７－２号テラスハウス島崎Ｄ号室,,43,103,8600073,,,,,,,2024-12-03,1,,,,,ニューツ,0
1376,6350001019305,新規,0,2024-12-03,2024-12-03,三桜リアルエステート株式会社,,株式会社,宮崎県,宮崎市,大字小松字下川原１１５８番地の１１,,45,201,8802112,,,,,,,2024-12-03,1,,,,,ミサクラリアルエステート,0
1386,6370001051990,新規,0,2024-12-03,2024-12-03,株式会社Ｂｅ．Ｉ,,株式会社,宮城県,仙台市青葉区,上杉３丁目８番２７号,,04,101,9800011,,,,,,,2024-12-03,1,,,,,ビーアイ,0
1387,6370001052007,新規,0,2024-12-03,2024-12-03,日本技研株式会社,,株式会社,宮城県,仙台市若林区,今泉１丁目５番３０号フレマリール・トミーＢ棟１０２号室,,04,103,9840835,,,,,,,2024-12-03,1,,,,,ニホンギケン,0
1394,6380003005903,新規,0,2024-12-03,2024-12-03,Ｒｙｕ商事合同会社,,合同会社,福島県,岩瀬郡天栄村,大字小川字漆畑１,,07,344,9620516,,,,,,,2024-12-03,1,,,,,リュウショウジ,0
1402,6430001093168,新規,0,2024-12-03,2024-12-03,株式会社サンシェール,,株式会社,北海道,札幌市中央区,南一条西１丁目１５－３－３Ｆ　ＬＩＧＨＴ　ＯＦＦＩＣＥ,,01,101,0600061,,,,,,,2024-12-03,1,,,,,サンシェール,0
1403,6430001093192,新規,0,2024-12-03,2024-12-03,株式会社建翔,,株式会社,北海道,札幌市清田区,平岡二条３丁目８番２号２０１,,01,110,0040872,,,,,,,2024-12-03,1,,,,,ケンショウ,0
1408,6480001012668,新規,0,2024-12-03,2024-12-03,モビリティ徳島株式会社,,株式会社,徳島県,徳島市,中前川町５丁目１番地１,,36,201,7700807,,,,,,,2024-12-03,1,,,,,モビリティトクシマ,0
1419,7010003045695,新規,0,2024-12-03,2024-12-03,ミュースカーレット合同会社,,合同会社,東京都,千代田区,丸の内１丁目４番１号東京共同会計事務所内,,13,101,1000005,,,,,,,2024-12-03,1,,,,,ミュースカーレット,0
1422,7010101016425,新規,0,2024-12-03,2024-12-03,株式会社極工業,,株式会社,東京都,八王子市,楢原町７４６番地１グレースＩ２０１号,00137210,13,201,1930803,,,,,,,2024-12-03,1,,,,,キワミコウギョウ,0
1423,7010101016433,新規,0,2024-12-03,2024-12-03,株式会社開花,,株式会社,東京都,八王子市,大和田町７丁目１１番１５号,,13,201,1920045,,,,,,,2024-12-03,1,,,,,カイカ,0
1428,7010401186752,新規,0,2024-12-03,2024-12-03,ミニッシュＪＡＰＡＮ株式会社,,株式会社,東京都,港区,南青山３丁目１番３６号青山丸竹ビル６Ｆ,,13,103,1070062,,,,,,,2024-12-03,1,,,,,ミニッシュジャパン,0
1429,7010401186835,新規,0,2024-12-03,2024-12-03,株式会社ＥＮＵＸ,,株式会社,東京都,港区,北青山１丁目３－１アールキューブ青山３階,,13,103,1070061,,,,,,,2024-12-03,1,,,,,エヌクス,0
1431,7010403033911,新規,0,2024-12-03,2024-12-03,Ｋｉｚｕｎａ　Ｆｌａｒｅ合同会社,,合同会社,東京都,港区,南青山３丁目１番３６号青山丸竹ビル６Ｆ,,13,103,1070062,,,,,,,2024-12-03,1,,,,,キズナフレア,0
1432,7010403033952,新規,0,2024-12-03,2024-12-03,合同会社エルインベストメント４,,合同会社,東京都,港区,元赤坂１丁目１番８号株式会社赤坂国際会計内,,13,103,1070051,,,,,,,2024-12-03,1,,,,,エルインベストメントフォー,0
1435,7010501053290,新規,0,2024-12-03,2024-12-03,株式会社ＥＭＩＫＡ,,株式会社,東京都,台東区,根岸４丁目１４番１８号,,13,106,1100003,,,,,,,2024-12-03,1,,,,,エミカ,0
1436,7010601066416,新規,0,2024-12-03,2024-12-03,Ｓｈａｒｅｒｉｓ株式会社,,株式会社,東京都,江東区,有明３丁目７―１１有明パークビル２０階,,13,108,1350063,,,,,,,2024-12-03,1,,,,,シェアリス,0
1438,7010603011238,新規,0,2024-12-03,2024-12-03,合同会社北砂麦酒,,合同会社,東京都,江東区,北砂５丁目２０第１２号棟第１０５号室,,13,108,1360073,,,,,,,2024-12-03,1,,,,,キタスナバクシュ,0
1443,7010901056439,新規,0,2024-12-03,2024-12-03,株式会社Ｃｒｏｓｓｂｉｌｌ,,株式会社,東京都,世田谷区,成城６丁目１４―２３グランドメゾン成城六丁目２０４号,,13,112,1570066,,,,,,,2024-12-03,1,,,,,クロスビル,0
1450,7011001166343,新規,0,2024-12-03,2024-12-03,Ｗａｔｅｒｓｔｏｎｅ株式会社,,株式会社,東京都,渋谷区,道玄坂１丁目１０番８号渋谷道玄坂東急ビル２Ｆ‐Ｃ,,13,113,1500043,,,,,,,2024-12-03,1,,,,,ウォーターストーン,0
1452,7011003020515,新規,0,2024-12-03,2024-12-03,合同会社トップノック,,合同会社,東京都,渋谷区,神宮前３丁目３９番５号Ｑｉｚアオヤマ４階,,13,113,1500001,,,,,,,2024-12-03,1,,,,,トップノック,0
1458,7011801045250,新規,0,2024-12-03,2024-12-03,株式会社ナイスフェローズ,,株式会社,東京都,足立区,千住１丁目３１番６号,,13,121,1200034,,,,,,,2024-12-03,1,,,,,ナイスフェローズ,0
1468,7012801023601,新規,0,2024-12-03,2024-12-03,友禅菊株式会社,,株式会社,東京都,日野市,東豊田３丁目２２番地の１３豊田第２コーポラス１１３,,13,212,1910052,,,,,,,2024-12-03,1,,,,,ユウゼンギク,0
1483,7020001160371,新規,0,2024-12-03,2024-12-03,株式会社新昇伝行,,株式会社,神奈川県,川崎市高津区,溝口１丁目９－７長谷川ビル５Ｆ,,14,134,2130001,,,,,,,2024-12-03,1,,,,,シンショウデンギョウ,0
1484,7020001160421,新規,0,2024-12-03,2024-12-03,株式会社ｎｏｏｋ,,株式会社,神奈川県,川崎市中原区,上丸子天神町３６２－１０,,14,133,2110007,,,,,,,2024-12-03,1,,,,,ヌック,0
1485,7020003027354,新規,0,2024-12-03,2024-12-03,合同会社碧,,合同会社,神奈川県,横浜市青葉区,梅が丘２５番地２号,,14,117,2270052,,,,,,,2024-12-03,1,,,,,アオ,0
1490,7030001163687,新規,0,2024-12-03,2024-12-03,ＭＡＫＥ　ＴＥＣＨ株式会社,,株式会社,埼玉県,所沢市,けやき台１丁目５１番１号－３０１,,11,208,3591118,,,,,,,2024-12-03,1,,,,,メイクテック,0
1491,7040001136386,新規,0,2024-12-03,2024-12-03,株式会社キャピタルエンパイヤ,,株式会社,千葉県,市原市,山田橋２丁目３番地１８,,12,219,2900021,,,,,,,2024-12-03,1,,,,,キャピタルエンパイヤ,0
1499,7050001055833,新規,0,2024-12-03,2024-12-03,株式会社フジケミカル,,株式会社,茨城県,坂東市,上出島３８６番地,,08,228,3060654,,,,,,,2024-12-03,1,,,,,フジケミカル,0
1503,7050003008847,新規,0,2024-12-03,2024-12-03,合同会社ＴＪ‐ＣＯＮＮＥＣＴ,,合同会社,茨城県,守谷市,高野１７８２－２,,08,224,3020125,,,,,,,2024-12-03,1,,,,,ティージェイコネクト,0
1504,7050003008855,新規,0,2024-12-03,2024-12-03,合同会社シアフル,,合同会社,茨城県,つくば市,長高野１８５番地,,08,220,3003265,,,,,,,2024-12-03,1,,,,,シアフル,0
1505,7060002033589,新規,0,2024-12-03,2024-12-03,有限会社正札堂,,有限会社,栃木県,下都賀郡藤岡町,大字大田和１００５番地４,,09,366,3231100,,,,,,,2024-12-03,1,,,,,ショウフダドウ,0
1509,7070001042409,新規,0,2024-12-03,2024-12-03,ＧＨＡＺＩ　ＴＲＡＤＥＲＳ株式会社,,株式会社,群馬県,前橋市,朝日町４丁目１５－６,,10,201,3710014,,,,,,,2024-12-03,1,,,,,ガジトレーダーズ,0
1512,7070003005685,新規,0,2024-12-03,2024-12-03,合同会社Ｗｏｎｄｅｒｆｕｌ　Ｌｉｆｅ,,合同会社,群馬県,北群馬郡吉岡町,大字上野田１４０,,10,345,3703606,,,,,,,2024-12-03,1,,,,,ワンダフルライフ,0
1513,7080001026633,新規,0,2024-12-03,2024-12-03,オカザキ電気株式会社,,株式会社,静岡県,静岡市駿河区,桃園町１２番２９号,,22,102,4210114,,,,,,,2024-12-03,1,,,,,オカザキデンキ,0
1515,7080003003341,新規,0,2024-12-03,2024-12-03,ＰｌｕｓＡｎｄｏ合同会社,,合同会社,静岡県,静岡市葵区,大岩１丁目２番２５号,,22,101,4200886,,,,,,,2024-12-03,1,,,,,プラスアンドウ,0
1516,7080401027603,新規,0,2024-12-03,2024-12-03,株式会社エスプラス,,株式会社,静岡県,浜松市中央区,中野町３２４４番地の１,,22,138,4350004,,,,,,,2024-12-03,1,,,,,エスプラス,0
1518,7080403005152,新規,0,2024-12-03,2024-12-03,合同会社Ｓａｍｕｅｌ＆Ｍａｒｉｅ,,合同会社,静岡県,浜松市中央区,三方原町１３６９番地の２,,22,138,4338105,,,,,,,2024-12-03,1,,,,,サミュエルアンドマリー,0
1541,7120001270615,新規,0,2024-12-03,2024-12-03,バイナル株式会社,,株式会社,大阪府,大阪市中央区,南久宝寺町４丁目１番２号御堂筋ダイビル４階,,27,128,5410058,,,,,,,2024-12-03,1,,,,,バイナル,0
1542,7120001270623,新規,0,2024-12-03,2024-12-03,株式会社盛馳,,株式会社,大阪府,大阪市東住吉区,今川８丁目５－３４－２０６号室,,27,121,5460003,,,,,,,2024-12-03,1,,,,,モリハセ,0
1543,7120001270680,新規,0,2024-12-03,2024-12-03,株式会社わいが悠太やで,,株式会社,大阪府,大阪市中央区,天満橋京町３番３－３０７号,,27,128,5400032,,,,,,,2024-12-03,1,,,,,ワイガユウタヤデ,0
1544,7120001270771,新規,0,2024-12-03,2024-12-03,株式会社ｙｏｉｎ,,株式会社,大阪府,大阪市西淀川区,御幣島６丁目１５番２０号,,27,113,5550012,,,,,,,2024-12-03,1,,,,,ヨイン,0
1546,7120003028094,新規,0,2024-12-03,2024-12-03,合同会社Ｔｉｎａ,,合同会社,大阪府,枚方市,町楠葉１丁目２２番３０－１０１号,,27,210,5731106,,,,,,,2024-12-03,1,,,,,ティナ,0
1551,7122003003052,新規,0,2024-12-03,2024-12-03,合同会社心,,合同会社,大阪府,大東市,三箇１丁目２２番１４号,,27,218,5740077,,,,,,,2024-12-03,1,,,,,シン,0
1560,7130001078479,新規,0,2024-12-03,2024-12-03,株式会社ＪＯＫ,,株式会社,京都府,京都市伏見区,納所北城堀３０番地１７,,26,109,6128279,,,,,,,2024-12-03,1,,,,,ジェイオーケー,0
1567,7140003021353,新規,0,2024-12-03,2024-12-03,合同会社ｓａｎａ　ａｌｌ,,合同会社,兵庫県,尼崎市,杭瀬本町２丁目２０－１－２０１,,28,202,6600814,,,,,,,2024-12-03,1,,,,,サナオール,0
1573,7150003003433,新規,0,2024-12-03,2024-12-03,合同会社ＧＯＯＤＳＰＥＥＤＣＯＰ,,合同会社,奈良県,葛城市,葛木９４番地１,00137204,29,211,6392144,,,,,,,2024-12-03,1,,,,,グッドスピードコーポ,0
1575,7160003003333,新規,0,2024-12-03,2024-12-03,合同会社ｇｏｏｄ　ｍｏｒｎｉｎｇ,,合同会社,滋賀県,長浜市,高畑町２３３,,25,203,5260273,,,,,,,2024-12-03,1,,,,,グッドモーニング,0
1586,7180001164398,新規,0,2024-12-03,2024-12-03,株式会社まなこ出版,,株式会社,愛知県,名古屋市中村区,那古野１丁目３９番３号,00137212,23,105,4500001,,,,,,,2024-12-03,1,,,,,マナコシュッパン,0
1594,7190003004865,新規,0,2024-12-03,2024-12-03,合同会社ＯＮＥ　ｉｓ　ＡＬＬ,,合同会社,三重県,松阪市,嬉野黒田町４８番地７,,24,204,5152311,,,,,,,2024-12-03,1,,,,,ワンイズオール,0
1595,7200001043153,新規,0,2024-12-03,2024-12-03,株式会社長尾サービスステイション,,株式会社,岐阜県,岐阜市,殿町６丁目６１２番地,,21,201,5008116,,,,,,,2024-12-03,1,,,,,ナガオサービスステイション,0
1596,7200003006604,新規,0,2024-12-03,2024-12-03,アバンス合同会社,,合同会社,岐阜県,羽島郡岐南町,野中３丁目１３０番地の６,,21,302,5016004,,,,,,,2024-12-03,1,,,,,アバンス,0
1600,7220001026362,新規,0,2024-12-03,2024-12-03,株式会社創建,,株式会社,石川県,河北郡内灘町,字緑台１丁目７６番地１,,17,365,9200276,,,,,,,2024-12-03,1,,,,,ソウケン,0
1601,7230001020637,新規,0,2024-12-03,2024-12-03,沢田鉄工ホールディングス株式会社,,株式会社,富山県,砺波市,石丸４３４番地の３,,16,208,9391301,,,,,,,2024-12-03,1,,,,,サワダテッコウホールディングス,0
1603,7240001064187,新規,0,2024-12-03,2024-12-03,株式会社丸八ホールディングス,,株式会社,広島県,福山市,松永町３５１番地３,,34,207,7290104,,,,,,,2024-12-03,1,,,,,マルハチホールディングス,0
1604,7240001064195,新規,0,2024-12-03,2024-12-03,株式会社カキイレドキ,,株式会社,広島県,広島市東区,戸坂くるめ木１丁目２０番１２－２０３号,,34,102,7320008,,,,,,,2024-12-03,1,,,,,カキイレドキ,0
1608,7290001108154,新規,0,2024-12-03,2024-12-03,成進建設株式会社,,株式会社,福岡県,福岡市博多区,西月隈３丁目８番１２－５１４号,,40,132,8120857,,,,,,,2024-12-03,1,,,,,セイシンケンセツ,0
1610,7290801031084,新規,0,2024-12-03,2024-12-03,トライズネクスト株式会社,,株式会社,福岡県,北九州市小倉北区,東篠崎１丁目５番１４号,,40,106,8020072,,,,,,,2024-12-03,1,,,,,トライズネクスト,0
1611,7290801031092,新規,0,2024-12-03,2024-12-03,株式会社ふくる,,株式会社,福岡県,北九州市八幡西区,折尾３丁目１２－２２,,40,109,8070825,,,,,,,2024-12-03,1,,,,,フクル,0
1612,7290803004906,新規,0,2024-12-03,2024-12-03,合同会社どりぃ夢,,合同会社,福岡県,北九州市門司区,吉志新町１丁目４番４号,,40,101,8000118,,,,,,,2024-12-03,1,,,,,ドリイム,0
1615,7310001019349,新規,0,2024-12-03,2024-12-03,株式会社キチ・エステート,,株式会社,長崎県,雲仙市,国見町多比良甲６９３番地,,42,213,8591321,,,,,,,2024-12-03,1,,,,,キチエステート,0
1618,7320001020842,新規,0,2024-12-03,2024-12-03,株式会社ＰＨ,,株式会社,大分県,大分市,大字千歳３９４番地の１,,44,201,8700132,,,,,,,2024-12-03,1,,,,,ピーエイチ,0
1619,7330001032705,新規,0,2024-12-03,2024-12-03,株式会社ムサシ,,株式会社,熊本県,熊本市西区,春日２丁目１１番２８－５０６号,,43,103,8600047,,,,,,,2024-12-03,1,,,,,ムサシ,0
1621,7330003010667,新規,0,2024-12-03,2024-12-03,合同会社ＳＡＬＥＨ　ＴＲＡＤＩＮＧ,,合同会社,熊本県,熊本市南区,近見６丁目１２番８５号園田アパート１０１,,43,104,8614101,,,,,,,2024-12-03,1,,,,,サレトレーディング,0
1623,7350001019304,新規,0,2024-12-03,2024-12-03,一徳株式会社,,株式会社,宮崎県,宮崎市,永楽町２０６番地１,,45,201,8800872,,,,,,,2024-12-03,1,,,,,イットク,0
1627,7360001034500,新規,0,2024-12-03,2024-12-03,株式会社ダイナ,,株式会社,沖縄県,那覇市,楚辺１丁目２番３３号楚辺レジデンス１０１,,47,201,9000023,,,,,,,2024-12-03,1,,,,,ダイナ,0
1635,7380003005902,新規,0,2024-12-03,2024-12-03,ゆいぱーとなー合同会社,,合同会社,福島県,二本松市,木ノ崎４２０番地１階,,07,210,9640956,,,,,,,2024-12-03,1,,,,,ユイパートナー,0
1637,7410003004009,新規,0,2024-12-03,2024-12-03,おすそわけ合同会社,,合同会社,秋田県,由利本荘市,高尾１０‐１,,05,210,0180844,,,,,,,2024-12-03,1,,,,,,0
1642,7430001093200,新規,0,2024-12-03,2024-12-03,株式会社アテカン,,株式会社,北海道,札幌市中央区,南二条西７丁目１番５号２・７ビル２階,,01,101,0600062,,,,,,,2024-12-03,1,,,,,アテカン,0
1645,7460101007635,新規,0,2024-12-03,2024-12-03,株式会社Ｊａｐａｎ　Ｃｏｆｆｅｅ　Ｇｅａｒ,,株式会社,北海道,帯広市,東一条南６丁目２番地,,01,207,0800801,,,,,,,2024-12-03,1,,,,,ジャパンコーヒーギア,0
1656,8010001250123,新規,0,2024-12-03,2024-12-03,株式会社ＮＤ・Ｈｏｌｄｉｎｇｓ,,株式会社,東京都,中央区,築地２丁目１２番１０号,,13,102,1040045,,,,,,,2024-12-03,1,,,,,エヌディーホールディングス,0
1661,8010003045620,新規,0,2024-12-03,2024-12-03,合同会社ＵＦＫ,,合同会社,東京都,中央区,銀座１丁目１２－４Ｎ＆ＥＢＬＤ．７階,,13,102,1040061,,,,,,,2024-12-03,1,,,,,ユーエフケー,0
1662,8010003045661,新規,0,2024-12-03,2024-12-03,合同会社ＬＯＧＩ　ＦＬＡＧ１０号,,合同会社,東京都,中央区,日本橋１丁目４番１号,,13,102,1030027,,,,,,,2024-12-03,1,,,,,ロジフラッグジュウゴウ,0
1675,8010401186735,新規,0,2024-12-03,2024-12-03,株式会社ＢＥＢＯＰ,,株式会社,東京都,港区,南青山３丁目１番３６号青山丸竹ビル６階,,13,103,1070062,,,,,,,2024-12-03,1,,,,,ビバップ,0
1678,8010403033927,新規,0,2024-12-03,2024-12-03,合同会社ＷｉｎｅＢａｎｋ　Ｐ４,,合同会社,東京都,港区,六本木４丁目１２番８号,,13,103,1060032,,,,,,,2024-12-03,1,,,,,ワインバンクピーフォー,0
1679,8010403033935,新規,0,2024-12-03,2024-12-03,合同会社南二条ホテルオペレーションズ,,合同会社,東京都,港区,赤坂１丁目１２番３２号,,13,103,1070052,,,,,,,2024-12-03,1,,,,,ミナミニジョウホテルオペレーションズ,0
1684,8010405023851,新規,0,2024-12-03,2024-12-03,国下池メガフロート一般社団法人,,その他の設立登記法人,東京都,港区,愛宕１丁目６番８号,,13,103,1050002,,,,,,,2024-12-03,1,,,,,クニシタイケメガフロート,0
1686,8010601066324,新規,0,2024-12-03,2024-12-03,株式会社ハヤブサホールディングス,,株式会社,東京都,江東区,有明１丁目４－１１ブリリアマーレ有明３０１８号室,,13,108,1350063,,,,,,,2024-12-03,1,,,,,ハヤブサホールディングス,0
1687,8010601066381,新規,0,2024-12-03,2024-12-03,星辰株式会社,,株式会社,東京都,墨田区,両国２丁目１７－１７両国ダイヤハイツ２０２－１２号室,,13,107,1300026,,,,,,,2024-12-03,1,,,,,セイシン,0
1688,8010605004395,新規,0,2024-12-03,2024-12-03,アサヒグループ食品労働組合,,その他の設立登記法人,東京都,墨田区,吾妻橋１丁目２３番１号,,13,107,1300001,,,,,,,2024-12-03,1,,,,,アサヒグループショクヒン,0
1693,8010901056421,新規,0,2024-12-03,2024-12-03,株式会社デア,,株式会社,東京都,世田谷区,太子堂４丁目１８－１５マガザン三軒茶屋２－３Ｆ－３,,13,112,1540004,,,,,,,2024-12-03,1,,,,,デア,0
1709,8011003020480,新規,0,2024-12-03,2024-12-03,合同会社イチブ,,合同会社,東京都,渋谷区,恵比寿西２丁目８番４号ＥＸ恵比寿西ビル５階,,13,113,1500021,,,,,,,2024-12-03,1,,,,,イチブ,0
1710,8011005010793,新規,0,2024-12-03,2024-12-03,一般社団法人言語認知発達支援士協会,,その他の設立登記法人,東京都,渋谷区,渋谷２丁目１９－１５宮益坂ビルディング６０９,,13,113,1500002,,,,,,,2024-12-03,1,,,,,ゲンゴニンチハッタツシエンキョウカイ,0
1718,8011403004562,新規,0,2024-12-03,2024-12-03,合同会社Ｖａｌｕｅ　Ｃｏｎｎｅｃｔ,,合同会社,東京都,板橋区,若木３丁目２７番９－５０５号,,13,119,1740065,,,,,,,2024-12-03,1,,,,,バリューコネクト,0
1719,8011605002620,新規,0,2024-12-03,2024-12-03,特定非営利活動法人Ｒｅｓｏｎａｎｃｅ,,その他の設立登記法人,東京都,練馬区,大泉学園町３丁目１１番１８号,,13,120,1780061,,,,,,,2024-12-03,1,,,,,レゾナンス,0
1727,8012701018592,新規,0,2024-12-03,2024-12-03,株式会社ターファ,,株式会社,東京都,清瀬市,中里４丁目７０１番地３３,,13,221,2040003,,,,,,,2024-12-03,1,,,,,ターファ,0
1732,8013303007414,新規,0,2024-12-03,2024-12-03,ＳｅｅＤｓ合同会社,,合同会社,東京都,豊島区,高田１丁目４０番１４号フェザンツ目白４０１号,,13,116,1710033,,,,,,,2024-12-03,1,,,,,シーズ,0
1736,8020003027345,新規,0,2024-12-03,2024-12-03,ＭｕｇａＡｒ合同会社,,合同会社,神奈川県,横浜市緑区,中山６丁目１２－４７,,14,113,2260019,,,,,,,2024-12-03,1,,,,,ムガール,0
1737,8020003027361,新規,0,2024-12-03,2024-12-03,ｈｏｉｐ合同会社,,合同会社,神奈川県,横浜市港北区,大倉山３丁目１６－１９,,14,109,2220037,,,,,,,2024-12-03,1,,,,,ホイップ,0
1738,8020003027378,新規,0,2024-12-03,2024-12-03,合同会社アップライト,,合同会社,神奈川県,横浜市港北区,新横浜１丁目２９番地１０－２０３号,,14,109,2220033,,,,,,,2024-12-03,1,,,,,アップライト,0
1739,8020003027403,新規,0,2024-12-03,2024-12-03,ミッドビレッジ合同会社,,合同会社,神奈川県,川崎市麻生区,栗平２丁目８番８－１１１号,,14,137,2150031,,,,,,,2024-12-03,1,,,,,ミッドビレッジ,0
1745,8021001083875,新規,0,2024-12-03,2024-12-03,株式会社一勝,,株式会社,神奈川県,大和市,中央林間西２丁目７番１５号,,14,213,2420008,,,,,,,2024-12-03,1,,,,,イッカツ,0
1746,8021001083891,新規,0,2024-12-03,2024-12-03,株式会社福丸,,株式会社,神奈川県,鎌倉市,津西１丁目２番９号,,14,204,2480034,,,,,,,2024-12-03,1,,,,,フクマル,0
1757,8030003025595,新規,0,2024-12-03,2024-12-03,サクラＴＬＡ合同会社,,合同会社,埼玉県,八潮市,大字八條３７１０番地１,,11,234,3400801,,,,,,,2024-12-03,1,,,,,サクラティーエルエー,0
1758,8030003025604,新規,0,2024-12-03,2024-12-03,合同会社五つのパンと二匹の魚,,合同会社,埼玉県,北本市,大字下石戸下４９５－１,,11,233,3640023,,,,,,,2024-12-03,1,,,,,イツツノパントニヒキノサカナ,0
1762,8040001136377,新規,0,2024-12-03,2024-12-03,東旭貿易株式会社,,株式会社,千葉県,千葉市中央区,新宿２丁目２－５藤ビル６階,,12,101,2600021,,,,,,,2024-12-03,1,,,,,トウキョクボウエキ,0
1765,8040003026295,新規,0,2024-12-03,2024-12-03,エヌケイトレーディング合同会社,,合同会社,千葉県,松戸市,紙敷１５１７番地の３・２Ｆ,,12,207,2702221,,,,,,,2024-12-03,1,,,,,エヌケイトレーディング,0
1768,8050001055808,新規,0,2024-12-03,2024-12-03,株式会社アグリサポート,,株式会社,茨城県,鉾田市,菅野谷６４６番地１,,08,234,3111531,,,,,,,2024-12-03,1,,,,,アグリサポート,0
1769,8050001055824,新規,0,2024-12-03,2024-12-03,株式会社ＦＡＺＡＬ　ＴＲＡＤＩＮＧ,,株式会社,茨城県,結城市,大字武井１３２２番地１９中村住宅Ｎｏ．６,,08,207,3070043,,,,,,,2024-12-03,1,,,,,ファザルトレーディング,0
1772,8050003008846,新規,0,2024-12-03,2024-12-03,合同会社ガーベン,,合同会社,茨城県,水戸市,渋井町５５７番地の４Ｕハウス,,08,201,3100826,,,,,,,2024-12-03,1,,,,,ガーベン,0
1777,8070001042424,新規,0,2024-12-03,2024-12-03,株式会社群馬ミライホールディングス,,株式会社,群馬県,富岡市,七日市１２８番地１,,10,210,3702343,,,,,,,2024-12-03,1,,,,,グンマミライホールディングス,0
1778,8070003005684,新規,0,2024-12-03,2024-12-03,合同会社ｅｍｉｔ．,,合同会社,群馬県,みどり市,笠懸町久宮２０１番地１３０,,10,212,3792312,,,,,,,2024-12-03,1,,,,,エミット,0
1780,8080001026632,新規,0,2024-12-03,2024-12-03,株式会社ＯＮＥ‐ＲＡＩＳＥ,,株式会社,静岡県,静岡市葵区,南安倍２丁目９－１６,,22,101,4200054,,,,,,,2024-12-03,1,,,,,ワンレイズ,0
1781,8080003003340,新規,0,2024-12-03,2024-12-03,合同会社ＴＷＩＮＫＬＥ,,合同会社,静岡県,静岡市清水区,谷田２１番１０－２０２号Ｍ．Ｆｌａｔ草薙Ｋ,,22,103,4240887,,,,,,,2024-12-03,1,,,,,ツインクル,0
1782,8080101025170,新規,0,2024-12-03,2024-12-03,株式会社ＵＮＩＴＥＤ　ＪＡＰＡＮ,,株式会社,静岡県,富士市,今泉３０６８番地の１オリエンタル旭２０１号,,22,210,4170001,,,,,,,2024-12-03,1,,,,,ユナイテッドジャパン,0
1783,8080401027602,新規,0,2024-12-03,2024-12-03,株式会社エグジング,,株式会社,静岡県,浜松市中央区,萩丘２丁目４番１７－５号,,22,138,4338121,,,,,,,2024-12-03,1,,,,,エグジング,0
1787,8090003002688,新規,0,2024-12-03,2024-12-03,合同会社Ｂｅ　Ｇｕｍｐ,,合同会社,山梨県,南都留郡富士河口湖町,富士ヶ嶺１１１０番１９６,,19,430,4010338,,,,,,,2024-12-03,1,,,,,ビーガンプ,0
1789,8100001038088,新規,0,2024-12-03,2024-12-03,株式会社オリエンタルスクエア,,株式会社,長野県,茅野市,ちの３０２５番地１Ｓｕｎ　Ｅｃｈｏ　Ｃｈｉｎｏ３０２号,,20,214,3910001,,,,,,,2024-12-03,1,,,,,オリエンタルスクエア,0
1803,8120001270655,新規,0,2024-12-03,2024-12-03,株式会社アンカースピリット,,株式会社,大阪府,大阪市北区,鶴野町４番１１号朝日プラザ梅田４０９号,,27,127,5300014,,,,,,,2024-12-03,1,,,,,アンカースピリット,0
1804,8120001270705,新規,0,2024-12-03,2024-12-03,Ｈｉｇｈｌｉｎｅ株式会社,,株式会社,大阪府,大阪市浪速区,桜川３丁目１－３１クイーン桜川３Ｆ,,27,111,5560022,,,,,,,2024-12-03,1,,,,,ハイライン,0
1805,8120003028085,新規,0,2024-12-03,2024-12-03,天諾合同会社,,合同会社,大阪府,大阪市生野区,新今里５丁目７番６－１０１号,,27,116,5440001,,,,,,,2024-12-03,1,,,,,テンダク,0
1806,8120101070699,新規,0,2024-12-03,2024-12-03,株式会社ｓｏｉｎ,,株式会社,大阪府,松原市,阿保５丁目１８番３号,,27,217,5800043,,,,,,,2024-12-03,1,,,,,ソワン,0
1807,8120103006172,新規,0,2024-12-03,2024-12-03,合同会社ＡＥＱＵＵＳ,,合同会社,大阪府,大阪狭山市,東池尻２丁目１１２２番地の７,,27,231,5890004,,,,,,,2024-12-03,1,,,,,アエクース,0
1813,8130001078461,新規,0,2024-12-03,2024-12-03,株式会社峰,,株式会社,京都府,京都市左京区,下鴨森ケ前町２８番地２４,,26,103,6060867,,,,,,,2024-12-03,1,,,,,ミネ,0
1814,8130001078478,新規,0,2024-12-03,2024-12-03,東都株式会社,,株式会社,京都府,京都市中京区,西ノ京星池町８－３１コーポエトワール４０１号室,,26,104,6048416,,,,,,,2024-12-03,1,,,,,トウト,0
1815,8130001078511,新規,0,2024-12-03,2024-12-03,株式会社ＭＩＹＡＢＩ,,株式会社,京都府,京都市中京区,御池通東洞院東入笹屋町４３６永和御池ビル６０６号,,26,104,6048187,,,,,,,2024-12-03,1,,,,,ミヤビ,0
1823,8150001027722,新規,0,2024-12-03,2024-12-03,株式会社ゆきもの,,株式会社,奈良県,奈良市,西新屋町３２番地,,29,201,6308334,,,,,,,2024-12-03,1,,,,,ユキモノ,0
1825,8150003003432,新規,0,2024-12-03,2024-12-03,合同会社Ｃｌｏｖｅｒ　Ｊａｐａｎ,,合同会社,奈良県,奈良市,北向町３０番地の１,,29,201,6308232,,,,,,,2024-12-03,1,,,,,クローバージャパン,0
1826,8160001026384,新規,0,2024-12-03,2024-12-03,株式会社ゴディス,,株式会社,滋賀県,大津市,稲津１丁目６番３２号,,25,201,5202271,,,,,,,2024-12-03,1,,,,,ゴディス,0
1837,8180001164471,新規,0,2024-12-03,2024-12-03,オーテクノ株式会社,,株式会社,愛知県,名古屋市中川区,助光２丁目６０５番地（パセオ助光１０１号）,,23,110,4540947,,,,,,,2024-12-03,1,,,,,オーテクノ,0
1842,8180003027692,新規,0,2024-12-03,2024-12-03,合同会社ソレイユ,,合同会社,愛知県,名古屋市名東区,社台３丁目４番地の１,,23,115,4650092,,,,,,,2024-12-03,1,,,,,ソレイユ,0
1844,8190001031844,新規,0,2024-12-03,2024-12-03,株式会社ボデーオートカトー,,株式会社,三重県,志摩市,阿児町神明１９８８番地２,,24,215,5170502,,,,,,,2024-12-03,1,,,,,ボデーオートカトー,0
1846,8190003004864,新規,0,2024-12-03,2024-12-03,合同会社一花,,合同会社,三重県,津市,大園町１１番４３号,,24,201,5140046,,,,,,,2024-12-03,1,,,,,イチカ,0
1847,8200001043202,新規,0,2024-12-03,2024-12-03,株式会社ＯＨＭＩ,,株式会社,岐阜県,加茂郡八百津町,上牧野３９３番地２,,21,505,5050304,,,,,,,2024-12-03,1,,,,,オウミ,0
1850,8240001064186,新規,0,2024-12-03,2024-12-03,株式会社音掌堂,,株式会社,広島県,広島市安佐北区,深川６丁目５２番６号,,34,106,7391751,,,,,,,2024-12-03,1,,,,,オンショウドウ,0
1851,8240001064194,新規,0,2024-12-03,2024-12-03,株式会社えがお,,株式会社,広島県,広島市中区,白島北町１０番１８号,,34,101,7300001,,,,,,,2024-12-03,1,,,,,エガオ,0
1852,8240001064203,新規,0,2024-12-03,2024-12-03,株式会社琥珀電工,,株式会社,広島県,広島市東区,馬木７丁目２３４４番地６,,34,102,7320031,,,,,,,2024-12-03,1,,,,,コハクデンコウ,0
1855,8250001020923,新規,0,2024-12-03,2024-12-03,株式会社ミニスタ,,株式会社,山口県,宇部市,西平原２丁目１２番１２－７号,,35,202,7550808,,,,,,,2024-12-03,1,,,,,ミニスタ,0
1861,8290001108153,新規,0,2024-12-03,2024-12-03,株式会社フラットワン,,株式会社,福岡県,那珂川市,王塚台１丁目７７番地１,,40,231,8111221,,,,,,,2024-12-03,1,,,,,フラットワン,0
1865,8290803004905,新規,0,2024-12-03,2024-12-03,合同会社ベルテック,,合同会社,福岡県,遠賀郡水巻町,中央３番１８号,,40,382,8070023,,,,,,,2024-12-03,1,,,,,ベルテック,0
1866,8300001013995,新規,0,2024-12-03,2024-12-03,株式会社絆,,株式会社,佐賀県,神埼市,神埼町鶴９５６番地１,,41,210,8420007,,,,,,,2024-12-03,1,,,,,キズナ,0
1867,8310001019348,新規,0,2024-12-03,2024-12-03,株式会社滝元工業,,株式会社,長崎県,長崎市,竿浦町６７２番地,,42,201,8500994,,,,,,,2024-12-03,1,,,,,タキモトコウギョウ,0
1871,8330001032704,新規,0,2024-12-03,2024-12-03,株式会社アケト,,株式会社,熊本県,合志市,栄６１番地３,,43,216,8611113,,,,,,,2024-12-03,1,,,,,アケト,0
1894,8400003003357,新規,0,2024-12-03,2024-12-03,ＬｅＬｉｅｎ合同会社,,合同会社,岩手県,奥州市,水沢東大通り３丁目１－４,,03,215,0230828,,,,,,,2024-12-03,1,,,,,ルリアン,0
1897,8430001093182,新規,0,2024-12-03,2024-12-03,株式会社ＡＩマネジメント,,株式会社,北海道,札幌市中央区,大通西９丁目３番３３号,,01,101,0600042,,,,,,,2024-12-03,1,,,,,エーアイマネジメント,0
1898,8430001093199,新規,0,2024-12-03,2024-12-03,株式会社ブレイネット,,株式会社,北海道,札幌市南区,南三十条西８丁目２番２０－８０３号,,01,106,0050030,,,,,,,2024-12-03,1,,,,,ブイレイネット,0
1899,8430003017040,新規,0,2024-12-03,2024-12-03,合同会社乙,,合同会社,北海道,札幌市清田区,平岡公園東７丁目４番３号,,01,110,0040882,,,,,,,2024-12-03,1,,,,,オツ,0
1900,8460001005952,新規,0,2024-12-03,2024-12-03,株式会社釧路ウッドプロダクツ,,株式会社,北海道,釧路市,堀川町５番地アビタシオンリビエール２２１,,01,206,0850007,,,,,,,2024-12-03,1,,,,,クシロウッドプロダクツ,0
1906,8480001012666,新規,0,2024-12-03,2024-12-03,株式会社サカモト塗装工業,,株式会社,徳島県,徳島市,方上町高坂２０番地の７,,36,201,7708033,,,,,,,2024-12-03,1,,,,,サカモトトソウコウギョウ,0
1919,9010001250295,新規,0,2024-12-03,2024-12-03,ダイレクトオーダーシステム株式会社,,株式会社,東京都,中央区,日本橋堀留町１丁目１０－１９,,13,102,1030012,,,,,,,2024-12-03,1,,,,,ダイレクトオーダーシステム,0
1920,9010001250361,新規,0,2024-12-03,2024-12-03,Ｖａｌｕｅ　Ｉｎｎｏｖａｔｉｏｎ　Ｐｌｕｓ株式会社,,株式会社,東京都,中央区,銀座１丁目１２番４号Ｎ＆ＥＢＬＤ．６Ｆ,,13,102,1040061,,,,,,,2024-12-03,1,,,,,バリューイノベーションプラス,0
1921,9010001250411,新規,0,2024-12-03,2024-12-03,日本井藤製薬株式会社,,株式会社,東京都,文京区,千石４丁目１４番９号,,13,105,1120011,,,,,,,2024-12-03,1,,,,,ニホンイトウセイヤク,0
1924,9010003045644,新規,0,2024-12-03,2024-12-03,ＦＬインベストメント１号合同会社,,合同会社,東京都,中央区,京橋２丁目１２番６号ＡＯＪ税理士法人内,,13,102,1040031,,,,,,,2024-12-03,1,,,,,エフエルインベストメントイチゴウ,0
1927,9010005039215,新規,0,2024-12-03,2024-12-03,一般社団法人心斎橋みらい,,その他の設立登記法人,東京都,千代田区,丸の内１丁目４番１号東京共同会計事務所内,,13,101,1000005,,,,,,,2024-12-03,1,,,,,シンサイバシミライ,0
1929,9010101016431,新規,0,2024-12-03,2024-12-03,株式会社ＬＩＢＥＲ　ＪＡＰＡＮ,,株式会社,東京都,八王子市,旭町６番１１号,,13,201,1920083,,,,,,,2024-12-03,1,,,,,リベルジャパン,0
1935,9010403033777,新規,0,2024-12-03,2024-12-03,ワンオークトラスト合同会社,,合同会社,東京都,港区,赤坂４丁目１４－１４．１７０５パークコート赤坂ザタワー,,13,103,1070052,,,,,,,2024-12-03,1,,,,,ワンオークトラスト,0
1939,9010601066380,新規,0,2024-12-03,2024-12-03,株式会社Ｈｏｗｄｄｙ,,株式会社,東京都,墨田区,本所１丁目２番１４－４０３号,,13,107,1300004,,,,,,,2024-12-03,1,,,,,ハウディ,0
1940,9010605004394,新規,0,2024-12-03,2024-12-03,アサヒグループジャパン労働組合,,その他の設立登記法人,東京都,墨田区,吾妻橋１丁目２３番１号,,13,107,1300001,,,,,,,2024-12-03,1,,,,,アサヒグループジャパン,0
1942,9010901056404,新規,0,2024-12-03,2024-12-03,福栄株式会社,,株式会社,東京都,世田谷区,赤堤２丁目２番５号,,13,112,1560044,,,,,,,2024-12-03,1,,,,,フクエイ,0
1943,9010903009533,新規,0,2024-12-03,2024-12-03,合資会社林商事,,合資会社,東京都,世田谷区,桜新町２丁目２５番１２－８０２号,,13,112,1540015,,,,,,,2024-12-03,1,,,,,ハヤシショウジ,0
1950,9011003020496,新規,0,2024-12-03,2024-12-03,ＳＨＩＲＯ　ＮＩ　ＳＥＫＡＩ合同会社,,合同会社,東京都,渋谷区,恵比寿西２丁目４番８号ウィンド恵比寿ビル８Ｆ,,13,113,1500021,,,,,,,2024-12-03,1,,,,,シロニセカイ,0
1954,9011101109786,新規,0,2024-12-03,2024-12-03,株式会社ＳＨＩＯＮ,,株式会社,東京都,新宿区,西新宿８丁目１７番２－２９０３号,,13,104,1600023,,,,,,,2024-12-03,1,,,,,シオン,0
1961,9011301030197,新規,0,2024-12-03,2024-12-03,株式会社成田商事,,株式会社,東京都,杉並区,成田東３丁目３２番１号,,13,115,1660015,,,,,,,2024-12-03,1,,,,,ナリタショウジ,0
1962,9011301030206,新規,0,2024-12-03,2024-12-03,株式会社ゆめみらい,,株式会社,東京都,杉並区,桃井３丁目１０番１号ロイヤルパークス荻窪２１８,,13,115,1670034,,,,,,,2024-12-03,1,,,,,ユメミライ,0
1970,9012403006861,新規,0,2024-12-03,2024-12-03,合同会社ＵＭＣＣサービス,,合同会社,東京都,調布市,布田３丁目４５番地８,,13,208,1820024,,,,,,,2024-12-03,1,,,,,ユーエムシーシーサービス,0
1973,9012705002435,新規,0,2024-12-03,2024-12-03,一般社団法人ソトカム,,その他の設立登記法人,東京都,小平市,小川東町５丁目１８番８－５０２号,,13,211,1870031,,,,,,,2024-12-03,1,,,,,ソトカム,0
1978,9020001160386,新規,0,2024-12-03,2024-12-03,株式会社若松パーソナルジム,,株式会社,神奈川県,川崎市多摩区,南生田２丁目２６番５４号,,14,135,2140036,,,,,,,2024-12-03,1,,,,,ワカマツパーソナルジム,0
1979,9020001160436,新規,0,2024-12-03,2024-12-03,株式会社セレクトコミュニケーション,,株式会社,神奈川県,横浜市西区,高島２丁目１１番２号スカイメナー横浜５１９,,14,103,2200011,,,,,,,2024-12-03,1,,,,,セレクトコミュニケーション,0
1988,9021001083890,新規,0,2024-12-03,2024-12-03,ＬＲＩＬａｂ株式会社,,株式会社,神奈川県,藤沢市,鵠沼石上１丁目７番８号ビックライズビル５階,,14,205,2510025,,,,,,,2024-12-03,1,,,,,エルアールアイラボ,0
2006,9030003025553,新規,0,2024-12-03,2024-12-03,合同会社３１０コーポレーション,,合同会社,埼玉県,戸田市,笹目３丁目１９番地の８（ソシアル３３－２０１号室）,,11,224,3350034,,,,,,,2024-12-03,1,,,,,サンイチマルコーポレーション,0
2007,9030003025603,新規,0,2024-12-03,2024-12-03,合同会社夢源,,合同会社,埼玉県,入間郡越生町,大字西和田５５５番地,,11,327,3500412,,,,,,,2024-12-03,1,,,,,ムゲン,0
2008,9030003025611,新規,0,2024-12-03,2024-12-03,ネクストハイ合同会社,,合同会社,埼玉県,三郷市,番匠免１丁目３９９番地１,,11,237,3410056,,,,,,,2024-12-03,1,,,,,ネクストハイ,0
2012,9040001136376,新規,0,2024-12-03,2024-12-03,株式会社Ｄｅｐａｒｔｕｒｅ,,株式会社,千葉県,習志野市,花咲１丁目２０番７号,,12,216,2750013,,,,,,,2024-12-03,1,,,,,ディパーチャー,0
2014,9050001055807,新規,0,2024-12-03,2024-12-03,株式会社なかむら,,株式会社,茨城県,取手市,双葉３丁目３７番１号,,08,217,3001501,,,,,,,2024-12-03,1,,,,,ナカムラ,0
2016,9060001037696,新規,0,2024-12-03,2024-12-03,株式会社かみいなば,,株式会社,栃木県,下都賀郡壬生町,大字上稲葉２２９８番地,,09,361,3210236,,,,,,,2024-12-03,1,,,,,カミイナバ,0
2023,9080001026631,新規,0,2024-12-03,2024-12-03,株式会社ＧＵＴＳ,,株式会社,静岡県,静岡市駿河区,聖一色６５８番地の１,,22,102,4228007,,,,,,,2024-12-03,1,,,,,ガッツ,0
2024,9080401027601,新規,0,2024-12-03,2024-12-03,あづみファミリー株式会社,,株式会社,静岡県,浜松市中央区,米津町７１７番地,,22,138,4328056,,,,,,,2024-12-03,1,,,,,アヅミファミリー,0
2045,9120001270712,新規,0,2024-12-03,2024-12-03,株式会社まえかぶ,,株式会社,大阪府,大阪市西区,北堀江１丁目１４番１９－３１１号,,27,106,5500014,,,,,,,2024-12-03,1,,,,,マエカブ,0
2046,9120001270720,新規,0,2024-12-03,2024-12-03,株式会社Ｄ　ｓｔａｒ,,株式会社,大阪府,大阪市中央区,道頓堀１丁目７番５号,,27,128,5420071,,,,,,,2024-12-03,1,,,,,ディースター,0
2047,9120001270745,新規,0,2024-12-03,2024-12-03,玄山株式会社,,株式会社,大阪府,大阪市中央区,島之内１丁目４番８－６０４号,,27,128,5420082,,,,,,,2024-12-03,1,,,,,クロヤマ,0
2048,9120001270761,新規,0,2024-12-03,2024-12-03,株式会社ＶＩＣＴＺ,,株式会社,大阪府,大阪市天王寺区,東上町２番２０,,27,109,5430026,,,,,,,2024-12-03,1,,,,,ヴィクス,0
2051,9120003028084,新規,0,2024-12-03,2024-12-03,合同会社ネーム,,合同会社,大阪府,大阪市北区,南森町２丁目４番３１,,27,127,5300054,,,,,,,2024-12-03,1,,,,,ネーム,0
2052,9120101070681,新規,0,2024-12-03,2024-12-03,株式会社ＯＬＬＩＥ,,株式会社,大阪府,岸和田市,沼町３４番１８号,,27,202,5960053,,,,,,,2024-12-03,1,,,,,オーリー,0
2053,9120101070698,新規,0,2024-12-03,2024-12-03,株式会社田村テクノ,,株式会社,大阪府,堺市中区,深井中町３２６７番地８,,27,142,5998272,,,,,,,2024-12-03,1,,,,,タムラテクノ,0
2070,9160001026383,新規,0,2024-12-03,2024-12-03,株式会社Ｋ・ウォーク,,株式会社,滋賀県,草津市,矢橋町１０６６番地２,,25,206,5250066,,,,,,,2024-12-03,1,,,,,ケイウォーク,0
2071,9160003003348,新規,0,2024-12-03,2024-12-03,合同会社ＳＯＢＯ,,合同会社,滋賀県,長浜市,三ツ矢元町２７番１５号,,25,203,5260024,,,,,,,2024-12-03,1,,,,,ソボ,0
2078,9180001164413,新規,0,2024-12-03,2024-12-03,株式会社ａｌｌｅｓ,,株式会社,愛知県,名古屋市西区,庄内通４丁目２４番地６Ｍａｉｓｏｒｉｅ庄内通３０２,,23,104,4510016,,,,,,,2024-12-03,1,,,,,アレス,0
2080,9180003027667,新規,0,2024-12-03,2024-12-03,合同会社ＷｏｎｄｅｒＷａｌｌ,,合同会社,愛知県,あま市,七宝町鷹居３丁目９０番地の９,,23,237,4970014,,,,,,,2024-12-03,1,,,,,ワンダーウォール,0
2082,9180301039298,新規,0,2024-12-03,2024-12-03,株式会社ギャラクシービー,,株式会社,愛知県,岡崎市,百々西町１３番地２７,,23,202,4442117,,,,,,,2024-12-03,1,,,,,ギャラクシービー,0
2083,9180305009628,新規,0,2024-12-03,2024-12-03,一般社団法人華光中日ビジネス振興協会,,その他の設立登記法人,愛知県,豊川市,三上町本郷４５番地の６,,23,207,4420812,,,,,,,2024-12-03,1,,,,,カコウチュウニチビジネスシンコウキョウカイ,0
2085,9190001031843,新規,0,2024-12-03,2024-12-03,株式会社夲み,,株式会社,三重県,津市,久居野村町３７２番地３３ユニベール１０１,,24,201,5141113,,,,,,,2024-12-03,1,,,,,モトミ,0
2100,9260001039689,新規,0,2024-12-03,2024-12-03,株式会社ＡＣＩＤ　ＨＯＵＳＥ,,株式会社,岡山県,倉敷市,児島下の町９丁目１２番シ２５号,,33,202,7110906,,,,,,,2024-12-03,1,,,,,アシッドハウス,0
2103,9260003004988,新規,0,2024-12-03,2024-12-03,合同会社ｍｉｓｏｒａ,,合同会社,岡山県,英田郡西粟倉村,大字大茅４３５,,33,643,7070501,,,,,,,2024-12-03,1,,,,,ミソラ,0
2113,9290001108152,新規,0,2024-12-03,2024-12-03,ＫＴレンタル株式会社,,株式会社,福岡県,福岡市博多区,博多駅中央街８－１ＪＲＪＰ博多ビル３階,,40,132,8120012,,,,,,,2024-12-03,1,,,,,ケーティーレンタル,0
2114,9290001108169,新規,0,2024-12-03,2024-12-03,株式会社川越,,株式会社,福岡県,福岡市博多区,中洲４丁目１番２８号,,40,132,8100801,,,,,,,2024-12-03,1,,,,,カワゴエ,0
2115,9290001108185,新規,0,2024-12-03,2024-12-03,ドロワースタイルズ株式会社,,株式会社,福岡県,福岡市中央区,大手門２丁目１－１０－５１１,,40,133,8100074,,,,,,,2024-12-03,1,,,,,ドロワースタイルズ,0
2120,9290003016139,新規,0,2024-12-03,2024-12-03,合同会社Ａｃｃｅｓｏ,,合同会社,福岡県,福岡市中央区,天神２丁目２番１２号Ｔ＆Ｊビルディング７Ｆ,,40,133,8100001,,,,,,,2024-12-03,1,,,,,アクセッソ,0
2121,9310005008817,新規,0,2024-12-03,2024-12-03,一般社団法人トラフグ未来ネットワーク,,その他の設立登記法人,長崎県,長崎市,文教町１番１４号長崎大学水産学部水産食品衛生学研究室内,,42,201,8528131,,,,,,,2024-12-03,1,,,,,トラフグミライネットワーク,0
2131,9370001052004,新規,0,2024-12-03,2024-12-03,サトックホールディング株式会社,,株式会社,宮城県,牡鹿郡女川町,鷲神浜字内山５８番地の３,,04,581,9862243,,,,,,,2024-12-03,1,,,,,サトックホールディング,0
2137,9380003005900,新規,0,2024-12-03,2024-12-03,合同会社猫の事務所,,合同会社,福島県,須賀川市,柱田字長井１番地５,,07,207,9620302,,,,,,,2024-12-03,1,,,,,ネコノジムショ,0
2141,9400001016871,新規,0,2024-12-03,2024-12-03,株式会社青山町,,株式会社,岩手県,盛岡市,青山３丁目２０番６号,,03,201,0200133,,,,,,,2024-12-03,1,,,,,アオヤマチョウ,0
2143,9410005006612,新規,0,2024-12-03,2024-12-03,西仙北開拓農業協同組合,,その他の設立登記法人,秋田県,大仙市,字刈和野７１番地の１,,05,212,0192112,,,,,,,2024-12-03,1,,,,,ニシセンボクカイタク,0
2147,9430005015116,新規,0,2024-12-03,2024-12-03,一般社団法人Ｂｒａｉｎ　Ｗｅｌｌｎｅｓｓ,,その他の設立登記法人,北海道,札幌市西区,発寒六条１３丁目１番１９号,,01,107,0630826,,,,,,,2024-12-03,1,,,,,ブレインウェルネス,0
2150,9460101007633,新規,0,2024-12-03,2024-12-03,株式会社アトカチ,,株式会社,北海道,河西郡芽室町,西二条４丁目２番地,,01,637,0820032,,,,,,,2024-12-03,1,,,,,アトカチ,0
2154,9480001012665,新規,0,2024-12-03,2024-12-03,ボディキング株式会社,,株式会社,徳島県,徳島市,北山町下田尻１４番地の７,,36,201,7708032,,,,,,,2024-12-03,1,,,,,ボディキング,0
2161,9700150128033,新規,0,2024-12-03,2024-12-03,相続財産法人　被相続人亡島村晴義,,その他,神奈川県,横須賀市,林４丁目１０６番地４,,14,201,2380315,,,,,,,2024-12-03,1,,,,,ソウゾクザイサンホウジンヒソウゾクニンナキシマムラハルヨシ,0
