sequenceNumber,corporateNumber,process,correct,updateDate,changeDate,name,nameImageId,kind,prefectureName,cityName,streetNumber,addressImageId,prefectureCode,cityCode,postCode,addressOutside,addressOutsideImageId,closeDate,closeCause,successorCorporateNumber,changeCause,assignmentDate,latest,enName,enPrefectureName,enCityName,enAddressOutside,furigana,hihyoji
11,1010401112128,登記記録の閉鎖等,0,2025-05-21,2025-04-16,ＢｌｕｅＢｅｌｌ株式会社,,株式会社,東京都,港区,六本木１丁目９番１０号アークヒルズ仙石山森タワー２８階ベーカー＆マッケンジー法律事務所内,,13,103,1060032,,,2025-04-16,清算の結了等,,,2015-10-05,1,,,,,ブルーベル,0
31,1010702000782,登記記録の閉鎖等,0,2025-05-21,2025-04-21,有限会社伊那工芸社,,有限会社,東京都,品川区,中延４丁目５番１４号サンコービル１階,,13,109,1420053,,,2025-04-21,清算の結了等,,,2015-10-05,1,,,,,イナコウゲイシャ,0
38,1011001161655,登記記録の閉鎖等,0,2025-05-21,2025-04-21,株式会社マージナイズ,,株式会社,東京都,渋谷区,渋谷２丁目１９－１５宮益坂ビルディング６０９,,13,113,1500002,,,2025-04-21,清算の結了等,,,2024-04-30,1,,,,,マージナイズ,0
45,1011103012723,登記記録の閉鎖等,0,2025-05-21,2025-04-24,グローリースカイ合同会社,,合同会社,東京都,新宿区,四谷２丁目９番地１５東京ユナイテッド綜合事務所内,,13,104,1600004,,,2025-04-24,清算の結了等,,,2023-02-22,1,,,,,グローリースカイ,0
72,1020001130462,登記記録の閉鎖等,0,2025-05-21,2025-04-16,株式会社ＬＯＳ　ＡＮＧＥＬＥＳ　ＡＰＰＡＲＥＬ　ＪＡＰＡＮ,,株式会社,東京都,港区,南青山５丁目４番６号パレロワイヤル南青山２０１,,13,103,1070062,,,2025-04-16,清算の結了等,,,2019-03-28,1,,,,,ロサンゼルスアパレルジャパン,0
79,1020002067753,登記記録の閉鎖等,0,2025-05-21,2025-05-15,有限会社クルミ教育プラン,,有限会社,神奈川県,横浜市神奈川区,高島台１５番地１１,,14,102,2210833,,,2025-05-15,清算の結了等,,,2015-10-05,1,,,,,クルミキョウイクプラン,0
97,1030003010934,登記記録の閉鎖等,0,2025-05-21,2025-05-15,合同会社楓企画,,合同会社,埼玉県,さいたま市中央区,大字下落合１７２２番地,,11,105,3380002,,,2025-05-15,合併による解散等,9010003022577,令和７年４月３０日札幌市西区八軒三条西一丁目６番２１号ル・ソレイユ４０１合同会社ひまわり企画（9010003022577）に合併し解散,2017-10-25,1,,,,,,0
121,1050001024793,登記記録の閉鎖等,0,2025-05-21,2025-05-19,株式会社大塚工業,,株式会社,茨城県,北茨城市,中郷町石岡１０５６番地,,08,215,3191558,,,2025-05-19,清算の結了等,,,2015-10-05,1,,,,,オオツカコウギョウ,0
131,1060001010215,登記記録の閉鎖等,0,2025-05-21,2025-05-15,岩井興産株式会社,,株式会社,栃木県,鹿沼市,武子１５３３番地２,,09,205,3220007,,,2025-05-15,清算の結了等,,,2015-10-05,1,,,,,イワイコウサン,0
133,1070001022390,登記記録の閉鎖等,0,2025-05-21,2025-05-15,株式会社エフ・ケー・シー,,株式会社,群馬県,太田市,龍舞町５５３４番地,,10,205,3730806,,,2025-05-15,清算の結了等,,,2015-10-05,1,,,,,エフケーシー,0
139,1080102012091,登記記録の閉鎖等,0,2025-05-21,2025-05-15,有限会社和田組,,有限会社,静岡県,駿東郡長泉町,本宿９０番地の１４,,22,342,4110945,,,2025-05-15,清算の結了等,,,2015-10-05,1,,,,,ワダグミ,0
155,1120001253815,登記記録の閉鎖等,0,2025-05-21,2025-05-13,ＴＨＡＮＨ　ＴＡＭ株式会社,,株式会社,大阪府,大阪市浪速区,稲荷１丁目７番３０号サンハイツヤマサキ４Ｃ号,,27,111,5560023,,,2025-05-13,清算の結了等,,,2023-04-06,1,,,,,タンタム,0
166,1120002081521,登記記録の閉鎖等,0,2025-05-21,2025-05-12,有限会社龍騎,,有限会社,大阪府,守口市,河原町１０番１５－４０６号,,27,209,5700038,,,2025-05-12,清算の結了等,,,2015-10-05,1,,,,,リュウキ,0
171,1120102004357,登記記録の閉鎖等,0,2025-05-21,2025-05-14,有限会社邦正興産,,有限会社,大阪府,堺市南区,御池台１丁２２番１７号,,27,145,5900134,,,2025-05-14,清算の結了等,,,2015-10-05,1,,,,,ホウセイコウサン,0
175,1130001015181,登記記録の閉鎖等,0,2025-05-21,2025-05-12,株式会社徳永建設,,株式会社,京都府,京都市伏見区,両替町１４丁目１５４番地,,26,109,6128082,,,2025-05-12,清算の結了等,,,2015-10-05,1,,,,,トクナガケンセツ,0
183,1140001055854,登記記録の閉鎖等,0,2025-05-21,2025-05-15,太田商事株式会社,,株式会社,兵庫県,豊岡市,山王町２番２６号,,28,209,6680044,,,2025-05-15,清算の結了等,,,2015-10-05,1,,,,,オオタショウジ,0
191,1140002062197,登記記録の閉鎖等,0,2025-05-21,2025-05-16,有限会社アエフ,,有限会社,兵庫県,加西市,別府町甲２４４６番地,,28,220,6790103,,,2025-05-16,清算の結了等,,,2015-10-05,1,,,,,アエフ,0
225,1230001012326,登記記録の閉鎖等,0,2025-05-21,2025-05-13,渡辺精機株式会社,,株式会社,富山県,高岡市,福岡町赤丸４３４番地,,16,202,9390101,,,2025-05-13,合併による解散等,1180301023276,令和７年５月１日愛知県西尾市一色町大塚赤西１８番地３榊原工業株式会社（1180301023276）に合併し解散,2015-10-05,1,,,,,ワタナベセイキ,0
228,1240001052544,登記記録の閉鎖等,0,2025-05-21,2025-05-19,株式会社ワンダーウォール,,株式会社,広島県,福山市,胡町１番２３号,,34,207,7200055,,,2025-05-19,合併による解散等,2260001004880,令和７年５月１日岡山市北区柳町二丁目２番２３号株式会社中島商会（2260001004880）に合併し解散,2018-03-23,1,,,,,ワンダーウォール,0
244,1290001038778,登記記録の閉鎖等,0,2025-05-21,2025-05-01,株式会社トータルクリエイション,,株式会社,福岡県,糟屋郡粕屋町,花ヶ浦１丁目７番１号,,40,349,8112310,,,2025-05-01,合併による解散等,9290001003601,令和７年５月１日福岡市博多区博多駅東一丁目１番３３号株式会社トータルスタッフ（9290001003601）に合併し解散,2015-10-05,1,,,,,トータルクリエイション,0
246,1290001086661,登記記録の閉鎖等,0,2025-05-21,2025-05-01,トリゼンオーシャンズ株式会社,,株式会社,福岡県,福岡市博多区,千代１丁目８番１３号,,40,132,8120044,,,2025-05-01,合併による解散等,8290001015052,令和７年５月１日福岡市博多区千代一丁目８番１３号トリゼンフーズ株式会社（8290001015052）に合併し解散,2019-10-15,1,,,,,トリゼンオーシャンズ,0
262,1360001016108,登記記録の閉鎖等,0,2025-05-21,2025-05-08,株式会社仲井眞商店,,株式会社,沖縄県,那覇市,鏡原町２４番１号,,47,201,9010151,,,2025-05-08,清算の結了等,,,2015-10-05,1,,,,,ナカイマショウテン,0
263,1360001016248,登記記録の閉鎖等,0,2025-05-21,2025-05-08,株式会社エイコーワールド,,株式会社,沖縄県,豊見城市,字翁長６５６番地２１,,47,212,9010223,,,2025-05-08,清算の結了等,,,2015-10-05,1,,,,,エイコーワールド,0
280,1430001029151,登記記録の閉鎖等,0,2025-05-21,2025-05-16,株式会社マジックプランナー,,株式会社,北海道,札幌市厚別区,厚別南２丁目１１番３１号,,01,108,0040022,,,2025-05-16,清算の結了等,,,2015-10-05,1,,,,,マジックプランナー,0
288,1430002057622,登記記録の閉鎖等,0,2025-05-21,2025-05-15,有限会社中村建設,,有限会社,北海道,岩内郡岩内町,字栄１３９番地の８,,01,402,0450011,,,2025-05-15,清算の結了等,,,2015-10-05,1,,,,,ナカムラケンセツ,0
292,1450005000684,登記記録の閉鎖等,0,2025-05-21,2025-05-16,生活協同組合北海道高齢協,,その他の設立登記法人,北海道,旭川市,住吉四条１丁目４番５号,,01,204,0700864,,,2025-05-16,清算の結了等,,,2015-10-05,1,,,,,ホッカイドウコウレイキョウ,0
308,2010003020471,登記記録の閉鎖等,0,2025-05-21,2025-04-14,ＧＳＳＧ　Ｓｏｌａｒ　Ｊａｐａｎ　Ｈｏｌｄｉｎｇｓ３合同会社,,合同会社,東京都,港区,高輪１丁目３番１３号ＮＢＦ高輪ビル７階,,13,103,1080074,,,2025-04-14,清算の結了等,,,2015-10-05,1,,,,,ジーエスエスジーソーラージャパンホールディングススリー,0
314,2010401139731,登記記録の閉鎖等,0,2025-05-21,2025-04-16,株式会社ゲンティン・ジャパン,,株式会社,東京都,港区,六本木１丁目９番１０号アークヒルズ仙石山森タワー２８階ベーカー＆マッケンジー法律事務所内,,13,103,1060032,,,2025-04-16,清算の結了等,,,2018-07-23,1,,,,,ゲンティンジャパン,0
315,2010401151851,登記記録の閉鎖等,0,2025-05-21,2025-05-20,ナイルインターナショナル株式会社,,株式会社,神奈川県,藤沢市,鵠沼海岸３丁目１２番３３号,,14,205,2510037,,,2025-05-20,清算の結了等,,,2020-03-25,1,,,,,ナイルインターナショナル,0
321,2010402007482,登記記録の閉鎖等,0,2025-05-21,2025-04-14,有限会社ゼンチクサービス,,有限会社,東京都,港区,港南２丁目５番７号,,13,103,1080075,,,2025-04-14,合併による解散等,9010401015760,令和７年４月１日東京都港区港南二丁目５番７号スターゼン株式会社（9010401015760）に合併し解散,2015-10-05,1,,,,,ゼンチクサービス,0
329,2010901015143,登記記録の閉鎖等,0,2025-05-21,2025-05-13,株式会社ＪＡＰＡＮ　ＧＲＥＹＨＯＵＮＤ　ＡＳＳＯＣＩＡＴＩＯＮ,,株式会社,東京都,世田谷区,奥沢２丁目４４番５号,,13,112,1580083,,,2025-05-13,清算の結了等,,,2015-10-05,1,,,,,,0
332,2010903008698,登記記録の閉鎖等,0,2025-05-21,2025-05-20,Ｂｒｏｄｉ　Ｃｏｒｐｏｒａｔｉｏｎ合同会社,,合同会社,東京都,世田谷区,宇奈根３丁目１３番６号ガーデンパレスＢ－２,,13,112,1570068,,,2025-05-20,清算の結了等,,,2024-01-23,1,,,,,ブロディコーポレーション,0
335,2011001119875,登記記録の閉鎖等,0,2025-05-21,2025-04-21,義足のボクサー株式会社,,株式会社,東京都,渋谷区,千駄ヶ谷５丁目１６番１６号千駄ヶ谷フラワーマンション３０１号室,,13,113,1510051,,,2025-04-21,清算の結了等,,,2017-12-26,1,,,,,ギソクノボクサー,0
350,2011402003785,登記記録の閉鎖等,0,2025-05-21,2025-05-19,有限会社三基建物調査事務所,,有限会社,東京都,板橋区,板橋１丁目３１番１１号,,13,119,1730004,,,2025-05-19,清算の結了等,,,2015-10-05,1,,,,,サンキタテモノチョウサジムショ,0
370,2012702004820,登記記録の閉鎖等,0,2025-05-21,2025-05-16,有限会社富士熱機サービス,,有限会社,東京都,西東京市,中町１丁目８番１０号,,13,229,2020013,,,2025-05-16,清算の結了等,,,2015-10-05,1,,,,,フジネッキサービス,0
375,2020001122244,登記記録の閉鎖等,0,2025-05-21,2025-05-14,株式会社ＭＩコーポレーション,,株式会社,神奈川県,川崎市宮前区,野川本町２丁目２５番１１号,,14,136,2160041,,,2025-05-14,清算の結了等,,,2017-07-19,1,,,,,エムアイコーポレーション,0
382,2020003019975,登記記録の閉鎖等,0,2025-05-21,2025-05-16,ＭＫＫ合同会社,,合同会社,神奈川県,横浜市西区,高島２丁目１１番２号スカイメナー横浜内,,14,103,2200011,,,2025-05-16,清算の結了等,,,2021-06-14,1,,,,,エムケイケイ,0
384,2020005003589,登記記録の閉鎖等,0,2025-05-21,2025-05-09,農事組合法人横浜泉種豚組合,,その他の設立登記法人,神奈川県,横浜市泉区,中田東４丁目５１番３０号,,14,116,2450013,,,2025-05-09,清算の結了等,,,2015-10-05,1,,,,,ヨコハマイズミシュトンクミアイ,0
408,2040002004522,登記記録の閉鎖等,0,2025-05-21,2025-05-01,有限会社三枝電気商会,,有限会社,千葉県,千葉市稲毛区,作草部１丁目３１番２３号,,12,103,2630015,,,2025-05-01,清算の結了等,,,2015-10-05,1,,,,,サエグサデンキショウカイ,0
434,2100001002041,登記記録の閉鎖等,0,2025-05-21,2025-05-15,株式会社アイン信州,,株式会社,長野県,長野市,大字栗田源田窪２１２５番地,,20,201,3800921,,,2025-05-15,合併による解散等,4011101056331,令和７年５月１日埼玉県さいたま市大宮区桜木町一丁目７番地５株式会社アイン中央（4011101056331）に合併し解散,2015-10-05,1,,,,,アインシンシュウ,0
439,2100003006412,登記記録の閉鎖等,0,2025-05-21,2025-05-15,合同会社リオ,,合同会社,長野県,松本市,中央１丁目１５番７号,,20,202,3900811,,,2025-05-15,合併による解散等,8180001161782,令和７年５月１日名古屋市中区正木四丁目８番７号株式会社プラネット（8180001161782）に合併し解散,2022-02-10,1,,,,,リオ,0
458,2120101040856,登記記録の閉鎖等,0,2025-05-21,2025-05-13,株式会社スウブィ,,株式会社,大阪府,泉南郡熊取町,大久保東１丁目５番１６号,,27,361,5900406,,,2025-05-13,清算の結了等,,,2015-10-05,1,,,,,スウブィ,0
467,2130005016514,登記記録の閉鎖等,0,2025-05-21,2025-05-20,一般社団法人イマカラ,,その他の設立登記法人,京都府,京都市右京区,嵯峨野千代ノ道町１番地１,,26,108,6168321,,,2025-05-20,清算の結了等,,,2022-06-28,1,,,,,イマカラ,0
469,2140001067452,登記記録の閉鎖等,0,2025-05-21,2025-05-19,株式会社ショッカー,,株式会社,兵庫県,神戸市西区,学園西町１丁目１番２号,,28,111,6512103,,,2025-05-19,清算の結了等,,,2015-10-05,1,,,,,ショッカー,0
471,2140001125516,登記記録の閉鎖等,0,2025-05-21,2025-05-19,株式会社ブレイブ,,株式会社,兵庫県,神戸市北区,有野町二郎１７９番地の２,,28,109,6511311,,,2025-05-19,清算の結了等,,,2022-04-08,1,,,,,ブレイブ,0
480,2140005020663,登記記録の閉鎖等,0,2025-05-21,2025-05-19,一般社団法人神戸葬助会,,その他の設立登記法人,兵庫県,神戸市中央区,下山手通５丁目８番２１,,28,110,6500011,,,2025-05-19,清算の結了等,,,2015-10-05,1,,,,,,0
485,2180001021513,登記記録の閉鎖等,0,2025-05-21,2025-05-19,株式会社伊藤商店,,株式会社,愛知県,名古屋市熱田区,川並町２番２２号,,23,109,4560072,,,2025-05-19,清算の結了等,,,2015-10-05,1,,,,,イトウショウテン,0
486,2180001025729,登記記録の閉鎖等,0,2025-05-21,2025-05-15,株式会社清水盛光堂,,株式会社,愛知県,名古屋市西区,あし原町２５９番地,,23,104,4520823,,,2025-05-15,合併による解散等,5290001049615,令和７年５月１日福岡県久留米市山川市ノ上町７番２０号株式会社丸信（5290001049615）に合併し解散,2015-10-05,1,,,,,シミズセイコウドウ,0
487,2180001031000,登記記録の閉鎖等,0,2025-05-21,2025-05-19,大三化成株式会社,,株式会社,愛知県,名古屋市中村区,下米野町３丁目３６番地,,23,105,4530802,,,2025-05-19,清算の結了等,,,2015-10-05,1,,,,,ダイサンカセイ,0
488,2180001071590,登記記録の閉鎖等,0,2025-05-21,2025-05-12,株式会社若貴,,株式会社,愛知県,名古屋市中区,丸の内２丁目７番１号,,23,106,4600002,,,2025-05-12,合併による解散等,7180001097763,令和７年５月１日愛知県あま市下萱津坪井９番地栄屋食品株式会社（7180001097763）に合併し解散,2015-10-05,1,,,,,ワカキ,0
494,2180302010446,登記記録の閉鎖等,0,2025-05-21,2025-05-15,有限会社與エ門,,有限会社,愛知県,豊橋市,柱三番町８番地,,23,201,4418052,,,2025-05-15,清算の結了等,,,2015-10-05,1,,,,,ヨエモン,0
497,2180305008933,登記記録の閉鎖等,0,2025-05-21,2025-05-14,特定非営利活動法人ひとすじの会,,その他の設立登記法人,愛知県,豊橋市,前田南町１丁目２０番地の２,,23,201,4400851,,,2025-05-14,清算の結了等,,,2019-07-11,1,,,,,ヒトスジノカイ,0
499,2190001010440,登記記録の閉鎖等,0,2025-05-21,2025-05-07,株式会社ニイミ,,株式会社,三重県,松阪市,大黒田町１７２０番地,,24,204,5150063,,,2025-05-07,清算の結了等,,,2015-10-05,1,,,,,ニイミ,0
502,2200003001691,登記記録の閉鎖等,0,2025-05-21,2025-05-16,株式会社西川商店,,株式会社,岐阜県,大垣市,伝馬町１００番地,,21,202,5030897,,,2025-05-16,清算の結了等,,,2015-10-05,1,,,,,ニシカワショウテン,0
528,2290005015467,登記記録の閉鎖等,0,2025-05-21,2025-05-16,ＮＰＯ法人ＡＧＲＩ,,その他の設立登記法人,福岡県,朝倉郡筑前町,東小田７４２番地,,40,447,8380214,,,2025-05-16,清算の結了等,,,2015-10-05,1,,,,,アグリ,0
552,2430001000235,登記記録の閉鎖等,0,2025-05-21,2025-05-15,株式会社アーバンアート,,株式会社,北海道,札幌市中央区,南一条西７丁目１番地３,,01,101,0600061,,,2025-05-15,清算の結了等,,,2015-10-05,1,,,,,アーバンアート,0
556,2430001073388,登記記録の閉鎖等,0,2025-05-21,2025-05-19,株式会社増田建設運輸,,株式会社,北海道,石狩市,厚田区聚富４８番地,,01,235,0613441,,,2025-05-19,清算の結了等,,,2017-02-28,1,,,,,マスダケンセツウンユ,0
561,2500005007731,登記記録の閉鎖等,0,2025-05-21,2025-05-19,特定非営利活動法人ひうちなだ,,その他の設立登記法人,愛媛県,四国中央市,金田町半田乙１３番地の１,,38,213,7990122,,,2025-05-19,清算の結了等,,,2016-01-14,1,,,,,ヒウチナダ,0
564,3010001157372,登記記録の閉鎖等,0,2025-05-21,2025-04-28,株式会社アーバニー,,株式会社,東京都,中央区,銀座１丁目２２－１銀座タワー１７０１,,13,102,1040061,,,2025-04-28,清算の結了等,,,2015-10-05,1,,,,,アーバニー,0
574,3010401026367,登記記録の閉鎖等,0,2025-05-21,2025-05-16,プロセス機器株式会社,,株式会社,埼玉県,入間市,宮寺２８０３番地２,,11,225,3580014,,,2025-05-16,清算の結了等,,,2015-10-05,1,,,,,プロセスキキ,0
576,3010401139730,登記記録の閉鎖等,0,2025-05-21,2025-04-16,株式会社ゲンティン東京,,株式会社,東京都,港区,六本木１丁目９番１０号アークヒルズ仙石山森タワー２８階ベーカー＆マッケンジー法律事務所内,,13,103,1060032,,,2025-04-16,清算の結了等,,,2018-07-23,1,,,,,ゲンティントーキョー,0
586,3010405015837,登記記録の閉鎖等,0,2025-05-21,2025-04-15,ＧＳＳＧ　Ｓｏｌａｒ　Ｊａｐａｎ　Ｈｏｌｄｉｎｇｓ３一般社団法人,,その他の設立登記法人,東京都,港区,赤坂１丁目１１番４４号赤坂インターシティ５階Ｍａｚａｒｓ・Ｊａｐａｎ株式会社内,,13,103,1070052,,,2025-04-15,清算の結了等,,,2017-06-07,1,,,,,ジーエスエスジーソーラージャパンホールディングススリー,0
599,3011001016758,登記記録の閉鎖等,0,2025-05-21,2025-04-14,株式会社中村建築設計室,,株式会社,東京都,渋谷区,千駄ヶ谷３丁目６番５号,,13,113,1510051,,,2025-04-14,清算の結了等,,,2015-10-05,1,,,,,ナカムラケンチクセッケイシツ,0
600,3011001122845,登記記録の閉鎖等,0,2025-05-21,2025-05-09,株式会社ＧｏｎＧ,,株式会社,神奈川県,川崎市中原区,井田中ノ町７－２６ユナイト元住吉モンゴメリーの杜２階事務所,,14,133,2110034,,,2025-05-09,清算の結了等,,,2018-06-21,1,,,,,ジーオンジー,0
619,3012402013170,登記記録の閉鎖等,0,2025-05-21,2025-05-16,有限会社オユサービス,,有限会社,東京都,狛江市,猪方３丁目２６番１１号,,13,219,2010015,,,2025-05-16,清算の結了等,,,2015-10-05,1,,,,,オユサービス,0
627,3020001034455,登記記録の閉鎖等,0,2025-05-21,2025-05-16,株式会社エクステック,,株式会社,神奈川県,横浜市瀬谷区,五貫目町８番地１０,,14,114,2460008,,,2025-05-16,清算の結了等,,,2015-10-05,1,,,,,エクステック,0
646,3021002005073,登記記録の閉鎖等,0,2025-05-21,2025-05-14,有限会社ヤスユキ,,有限会社,神奈川県,藤沢市,みその台４番３－２０２号,,14,205,2510873,,,2025-05-14,清算の結了等,,,2015-10-05,1,,,,,ヤスユキ,0
660,3030001055070,登記記録の閉鎖等,0,2025-05-21,2025-05-16,大正建設株式会社,,株式会社,埼玉県,川越市,東田町１６番地３,,11,201,3501114,,,2025-05-16,清算の結了等,,,2015-10-05,1,,,,,タイショウケンセツ,0
668,3030005012084,登記記録の閉鎖等,0,2025-05-21,2025-05-15,医療法人山内歯科医院,,その他の設立登記法人,埼玉県,川口市,元郷５丁目１番１２号,,11,203,3320011,,,2025-05-15,清算の結了等,,,2015-10-05,1,,,,,ヤマウチシカイイン,0
670,3040001129220,登記記録の閉鎖等,0,2025-05-21,2025-05-01,株式会社ＰＲＥＸＩＡ,,株式会社,千葉県,船橋市,みやぎ台１丁目２４番１２号,,12,204,2740804,,,2025-05-01,清算の結了等,,,2023-07-14,1,,,,,プレシア,0
675,3040002029056,登記記録の閉鎖等,0,2025-05-21,2025-05-01,有限会社光楽,,有限会社,千葉県,八千代市,八千代台西１丁目１番地,,12,221,2760034,,,2025-05-01,清算の結了等,,,2015-10-05,1,,,,,コウラク,0
680,3050002018495,登記記録の閉鎖等,0,2025-05-21,2025-05-15,有限会社寿司芳,,有限会社,茨城県,猿島郡境町,９６５番地の５８,,08,546,3060433,,,2025-05-15,清算の結了等,,,2015-10-05,1,,,,,スシヨシ,0
695,3120001060202,登記記録の閉鎖等,0,2025-05-21,2025-05-14,アトミック経営株式会社,,株式会社,大阪府,大阪市北区,梅田１丁目３番１号,,27,127,5300001,,,2025-05-14,清算の結了等,,,2015-10-05,1,,,,,アトミックケイエイ,0
696,3120001072098,登記記録の閉鎖等,0,2025-05-21,2025-05-12,菱和商事株式会社,,株式会社,大阪府,大阪市北区,梅田１丁目１番３号,,27,127,5300001,,,2025-05-12,清算の結了等,,,2015-10-05,1,,,,,リョウワショウジ,0
737,3140001078358,登記記録の閉鎖等,0,2025-05-21,2025-05-19,株式会社栄屋菓子舗,,株式会社,兵庫県,伊丹市,昆陽３丁目１０３番地,,28,207,6640881,,,2025-05-19,清算の結了等,,,2015-10-05,1,,,,,サカエヤカシホ,0
738,3140001090305,登記記録の閉鎖等,0,2025-05-21,2025-05-19,株式会社Ｇａｔｔｏ,,株式会社,兵庫県,神戸市中央区,旭通２丁目１番１１号,,28,110,6510095,,,2025-05-19,清算の結了等,,,2015-10-05,1,,,,,ガトー,0
742,3140001124616,登記記録の閉鎖等,0,2025-05-21,2025-05-16,バイオアライフサイエンスジャパン株式会社,,株式会社,兵庫県,神戸市中央区,港島中町４丁目１番１号,,28,110,6500046,,,2025-05-16,清算の結了等,,,2022-01-18,1,,,,,バイオアライフサイエンスジャパン,0
743,3140002061395,登記記録の閉鎖等,0,2025-05-21,2025-05-16,有限会社阪田商事,,有限会社,兵庫県,加古川市,上荘町薬栗３４３番地,,28,210,6751217,,,2025-05-16,清算の結了等,,,2015-10-05,1,,,,,サカタショウジ,0
757,3180002071201,登記記録の閉鎖等,0,2025-05-21,2025-05-12,株式会社Ｍ＆Ｓフーズ,,株式会社,愛知県,名古屋市中区,丸の内２丁目７番１号,,23,106,4600002,,,2025-05-12,合併による解散等,7180001097763,令和７年５月１日愛知県あま市下萱津坪井９番地栄屋食品株式会社（7180001097763）に合併し解散,2015-10-05,1,,,,,エムアンドエスフーズ,0
771,3240002052681,登記記録の閉鎖等,0,2025-05-21,2025-05-20,有限会社スペースプランニング,,有限会社,広島県,世羅郡世羅町,大字小国３９３７番地,,34,462,7221701,,,2025-05-20,清算の結了等,,,2015-10-05,1,,,,,スペースプランニング,0
782,3290001108942,登記記録の閉鎖等,0,2025-05-21,2025-05-12,株式会社ウマミＪＰ,,株式会社,福岡県,福岡市中央区,天神１丁目９番１７号福岡天神フコク生命ビル１５階,,40,133,8100001,,,2025-05-12,清算の結了等,,,2025-02-13,1,,,,,ウマミジェイピー,0
803,3360005006409,登記記録の閉鎖等,0,2025-05-21,2025-05-01,一般財団法人ＤＡＲＣ大きな和,,その他の設立登記法人,沖縄県,宮古島市,平良字狩俣３９７９番地４,,47,214,9060002,,,2025-05-01,合併による解散等,4360005007166,令和７年５月１日沖縄県中頭郡北谷町字桑江６８８番地２一般社団法人大きな和同志会（4360005007166）に合併し解散,2021-04-08,1,,,,,ダルクオオキナワ,0
812,3390002003587,登記記録の閉鎖等,0,2025-05-21,2025-05-15,有限会社裕禅,,有限会社,山形県,山形市,城南町１丁目１番１号,,06,201,9900827,,,2025-05-15,清算の結了等,,,2015-10-05,1,,,,,,0
813,3420002016866,登記記録の閉鎖等,0,2025-05-21,2025-05-13,有限会社十和田ハウジング,,有限会社,青森県,十和田市,西二十三番町５８番３５号,,02,206,0340089,,,2025-05-13,清算の結了等,,,2015-10-05,1,,,,,トワダハウジング,0
814,3430001072249,登記記録の閉鎖等,0,2025-05-21,2025-05-15,アルファコート帯広西３・９地区開発株式会社,,株式会社,北海道,札幌市中央区,南一条西７丁目１番地３,,01,101,0600061,,,2025-05-15,清算の結了等,,,2016-08-26,1,,,,,アルファコートオビヒロシニサンキュウチクカイハツ,0
826,4010001163683,登記記録の閉鎖等,0,2025-05-21,2025-04-30,ＰＦＣ株式会社,,株式会社,東京都,千代田区,外神田２丁目１７番６－６０３号,,13,101,1010021,,,2025-04-30,清算の結了等,,,2015-10-05,1,,,,,ピーエフシー,0
829,4010001191610,登記記録の閉鎖等,0,2025-05-21,2025-04-28,株式会社エアールームテクノロジーズ,,株式会社,東京都,中央区,築地７丁目２番１号,,13,102,1040045,,,2025-04-28,清算の結了等,,,2018-05-08,1,,,,,エアールームテクノロジーズ,0
832,4010001232199,登記記録の閉鎖等,0,2025-05-21,2025-04-28,１０ｓｉｚｅ株式会社,,株式会社,東京都,中央区,銀座１丁目２２番１１号銀座大竹ビジデンス２Ｆ,,13,102,1040061,,,2025-04-28,清算の結了等,,,2023-01-17,1,,,,,テンサイズ,0
839,4010005013224,登記記録の閉鎖等,0,2025-05-21,2025-05-19,特定非営利活動法人ＣＯＭＰＡＳＳ,,その他の設立登記法人,東京都,文京区,本郷７丁目３番１号東京大学国際センター原田研究室内,,13,105,1130033,,,2025-05-19,清算の結了等,,,2015-10-05,1,,,,,コンパス,0
863,4010503005887,登記記録の閉鎖等,0,2025-05-21,2025-05-01,合同会社ＫＣＦＢ,,合同会社,東京都,台東区,今戸２丁目１６番１１号今二マンション４０２,,13,106,1110024,,,2025-05-01,清算の結了等,,,2020-04-14,1,,,,,ケーシーエフビー,0
864,4010602023063,登記記録の閉鎖等,0,2025-05-21,2025-05-16,有限会社カワナ,,有限会社,東京都,墨田区,菊川１丁目１８番１５号,,13,107,1300024,,,2025-05-16,清算の結了等,,,2015-10-05,1,,,,,カワナ,0
867,4010605004077,登記記録の閉鎖等,0,2025-05-21,2025-05-16,一般社団法人未来家計研究所,,その他の設立登記法人,東京都,墨田区,業平２丁目１６番８号呂府ビル１Ｆ,,13,107,1300002,,,2025-05-16,清算の結了等,,,2022-05-18,1,,,,,ミライカケイケンキュウジョ,0
877,4011101017770,登記記録の閉鎖等,0,2025-05-21,2025-05-19,株式会社ピーアンドエヌ,,株式会社,東京都,墨田区,緑４丁目８番６－５０３号,,13,107,1300021,,,2025-05-19,清算の結了等,,,2015-10-05,1,,,,,ピーアンドエヌ,0
882,4011101080059,登記記録の閉鎖等,0,2025-05-21,2025-04-22,株式会社ＳｏｃｉａｌＳｐｏｔ,,株式会社,東京都,新宿区,新宿７丁目２６番７号,,13,104,1600022,,,2025-04-22,清算の結了等,,,2017-04-03,1,,,,,ソーシャルスポット,0
886,4011103006474,登記記録の閉鎖等,0,2025-05-21,2025-04-24,羽田ホテル開発合同会社,,合同会社,東京都,新宿区,四谷２丁目９番地１５あると綜合事務所内,,13,104,1600004,,,2025-04-24,清算の結了等,,,2016-08-17,1,,,,,ハネダホテルカイハツ,0
893,4011601007305,登記記録の閉鎖等,0,2025-05-21,2025-05-13,株式会社リーディングホーム,,株式会社,東京都,練馬区,早宮２丁目２６番１４号,,13,120,1790085,,,2025-05-13,清算の結了等,,,2015-10-05,1,,,,,リーディングホーム,0
896,4011801029058,登記記録の閉鎖等,0,2025-05-21,2025-04-16,サイマックス株式会社,,株式会社,東京都,港区,南青山２丁目２番１５号,,13,103,1070062,,,2025-04-16,清算の結了等,,,2015-10-05,1,,,,,サイマックス,0
899,4012401000929,登記記録の閉鎖等,0,2025-05-21,2025-05-19,株式会社台星商事,,株式会社,東京都,府中市,宮西町３丁目５番地の４パークヒル２階,,13,206,1830022,,,2025-05-19,清算の結了等,,,2015-10-05,1,,,,,,0
901,4012702013324,登記記録の閉鎖等,0,2025-05-21,2025-05-15,有限会社クァリテ,,有限会社,東京都,西東京市,谷戸町２丁目１番７５号８１１号室,,13,229,1880001,,,2025-05-15,清算の結了等,,,2015-10-05,1,,,,,クァリテ,0
927,4030001096007,登記記録の閉鎖等,0,2025-05-21,2025-05-19,武州吉沢商事株式会社,,株式会社,埼玉県,飯能市,大字中山４９７番地７,,11,209,3570006,,,2025-05-19,清算の結了等,,,2015-10-05,1,,,,,ブシュウヨシザワショウジ,0
942,4070001039606,登記記録の閉鎖等,0,2025-05-21,2025-05-12,ＣＲＥＷ株式会社,,株式会社,群馬県,太田市,大原町１２１番地４,,10,205,3792304,,,2025-05-12,清算の結了等,,,2022-09-05,1,,,,,クルー,0
946,4080002001027,登記記録の閉鎖等,0,2025-05-21,2025-05-16,有限会社エムエムピー,,有限会社,静岡県,静岡市葵区,千代田７丁目７番７号,,22,101,4200803,,,2025-05-16,清算の結了等,,,2015-10-05,1,,,,,,0
948,4080102001463,登記記録の閉鎖等,0,2025-05-21,2025-05-14,有限会社サスカ山亀,,有限会社,静岡県,沼津市,蓼原町３５番地の２,,22,203,4100843,,,2025-05-14,清算の結了等,,,2015-10-05,1,,,,,サスカヤマカメ,0
957,4110002016302,登記記録の閉鎖等,0,2025-05-21,2025-05-08,有限会社みやむら,,有限会社,新潟県,胎内市,西栄町５番２８号,,15,227,9592646,,,2025-05-08,清算の結了等,,,2015-10-05,1,,,,,ミヤムラ,0
963,4120001149408,登記記録の閉鎖等,0,2025-05-21,2025-05-13,京栄産業株式会社,,株式会社,大阪府,枚方市,伊加賀栄町９番６号,,27,210,5730062,,,2025-05-13,清算の結了等,,,2015-10-05,1,,,,,キョウエイサンギョウ,0
992,4130005016925,登記記録の閉鎖等,0,2025-05-21,2025-05-15,一般社団法人ダイバーシティ能力検定協会,,その他の設立登記法人,京都府,京都市上京区,室町通今出川下る北小路室町３９８番地１－６０２,,26,102,6020901,,,2025-05-15,清算の結了等,,,2023-11-10,1,,,,,ダイバーシティノウリョクケンテイキョウカイ,0
993,4140001016424,登記記録の閉鎖等,0,2025-05-21,2025-05-13,但馬工業株式会社,,株式会社,兵庫県,神戸市長田区,梅ケ香町２丁目２３－２,,28,106,6530021,,,2025-05-13,清算の結了等,,,2015-10-05,1,,,,,タジマコウギョウ,0
1009,4170002003699,登記記録の閉鎖等,0,2025-05-21,2025-05-20,有限会社ミヤコヤ,,有限会社,和歌山県,和歌山市,中ノ店南ノ丁３３番地の１,,30,201,6408026,,,2025-05-20,清算の結了等,,,2015-10-05,1,,,,,ミヤコヤ,0
1030,4190005010807,登記記録の閉鎖等,0,2025-05-21,2025-05-12,特定非営利活動法人ＮＥＸＵＳ,,その他の設立登記法人,三重県,熊野市,久生屋町８１０番地１８,,24,212,5194326,,,2025-05-12,清算の結了等,,,2015-10-05,1,,,,,ネクサス,0
1033,4220001016515,登記記録の閉鎖等,0,2025-05-21,2025-05-19,坂下建設株式会社,,株式会社,石川県,輪島市,水守町タキシヤ１０番地,,17,204,9280063,,,2025-05-19,清算の結了等,,,2015-10-05,1,,,,,サカシタケンセツ,0
1042,4240002042525,登記記録の閉鎖等,0,2025-05-21,2025-05-19,有限会社平井商店,,有限会社,広島県,福山市,鞆町鞆７８１番地,00001428,34,207,7200201,,,2025-05-19,清算の結了等,,,2015-10-05,1,,,,,ヒライショウテン,0
1047,4260002024810,登記記録の閉鎖等,0,2025-05-21,2025-05-13,石井建設工業有限会社,,有限会社,岡山県,浅口市,鴨方町深田５４番地の１,,33,216,7190244,,,2025-05-13,清算の結了等,,,2015-10-05,1,,,,,イシイケンセツコウギョウ,0
1051,4290001080521,登記記録の閉鎖等,0,2025-05-21,2025-05-08,株式会社りの,,株式会社,福岡県,福津市,光陽台４丁目１番１９号,,40,224,8113223,,,2025-05-08,清算の結了等,,,2018-02-15,1,,,,,リノ,0
1053,4290001105575,登記記録の閉鎖等,0,2025-05-21,2025-05-07,株式会社デジタル・エスイー,,株式会社,福岡県,糸島市,前原中央３丁目１１番３２号,,40,230,8191116,,,2025-05-07,清算の結了等,,,2024-05-07,1,,,,,デジタルエスイー,0
1058,4290803004339,登記記録の閉鎖等,0,2025-05-21,2025-05-19,合同会社ゆくママ,,合同会社,福岡県,北九州市小倉南区,朽網西４丁目１４番３号,,40,107,8000233,,,2025-05-19,清算の結了等,,,2023-02-10,1,,,,,ユクママ,0
1063,4350001007402,登記記録の閉鎖等,0,2025-05-21,2025-05-16,株式会社霧立山地・ごかせ農園,,株式会社,宮崎県,西臼杵郡五ヶ瀬町,大字鞍岡２９２３番地１,,45,443,8821201,,,2025-05-16,清算の結了等,,,2015-10-05,1,,,,,キリタチサンチゴカセノウエン,0
1076,4370002018941,登記記録の閉鎖等,0,2025-05-21,2025-05-12,有限会社結庵,,有限会社,宮城県,仙台市青葉区,国見ケ丘２丁目３－８,,04,101,9893201,,,2025-05-12,清算の結了等,,,2015-10-05,1,,,,,,0
1090,4490001010326,登記記録の閉鎖等,0,2025-05-21,2025-05-20,株式会社ワイズ,,株式会社,高知県,高知市,南竹島町３９番地９,,39,201,7808017,,,2025-05-20,清算の結了等,,,2022-11-07,1,,,,,ワイズ,0
1111,5010401026126,登記記録の閉鎖等,0,2025-05-21,2025-04-16,株式会社不老園,,株式会社,東京都,港区,浜松町１丁目１５番９号,,13,103,1050013,,,2025-04-16,清算の結了等,,,2015-10-05,1,,,,,フロウエン,0
1137,5010801021206,登記記録の閉鎖等,0,2025-05-21,2025-04-28,株式会社ＥＳフードサービス,,株式会社,東京都,千代田区,三番町３０－６日興パレス１０４,,13,101,1020075,,,2025-04-28,清算の結了等,,,2015-10-05,1,,,,,イーエスフードサービス,0
1138,5010801022229,登記記録の閉鎖等,0,2025-05-21,2025-05-13,ケップラボ株式会社,,株式会社,東京都,大田区,平和島３丁目４番１号,,13,111,1430006,,,2025-05-13,清算の結了等,,,2015-10-05,1,,,,,ケップラボ,0
1143,5011001036135,登記記録の閉鎖等,0,2025-05-21,2025-05-14,株式会社ディ・ディ・アイ企画,,株式会社,神奈川県,横浜市神奈川区,神大寺２丁目１４番１６号,,14,102,2210801,,,2025-05-14,清算の結了等,,,2015-10-05,1,,,,,ディディアイキカク,0
1144,5011001056653,登記記録の閉鎖等,0,2025-05-21,2025-05-07,株式会社ワトゥサ・インターナショナル,,株式会社,東京都,渋谷区,渋谷３丁目５番５号,,13,113,1500002,,,2025-05-07,清算の結了等,,,2015-10-05,1,,,,,ワトゥサインターナショナル,0
1152,5011101043683,登記記録の閉鎖等,0,2025-05-21,2025-04-14,株式会社グッピーズ,,株式会社,東京都,港区,六本木６丁目１０番１号,,13,103,1060032,,,2025-04-14,合併による解散等,4010401082351,令和７年４月１日東京都港区六本木六丁目１０番１号株式会社メドレー（4010401082351）に合併し解散,2015-10-05,1,,,,,グッピーズ,0
1157,5011202010673,登記記録の閉鎖等,0,2025-05-21,2025-05-13,四次元アイ有限会社,,有限会社,東京都,中野区,松が丘２丁目１９番１１号,,13,114,1650024,,,2025-05-13,清算の結了等,,,2015-10-05,1,,,,,ヨジゲンアイ,0
1166,5012802006425,登記記録の閉鎖等,0,2025-05-21,2025-05-14,有限会社エナジィ,,有限会社,東京都,立川市,曙町１丁目１３番９号,00059371,13,202,1900012,,,2025-05-14,清算の結了等,,,2015-10-05,1,,,,,エナジィ,0
1187,5021001019527,登記記録の閉鎖等,0,2025-05-21,2025-05-14,株式会社小河イーエム研究所,,株式会社,神奈川県,厚木市,酒井２５６６番地の６,,14,212,2430022,,,2025-05-14,清算の結了等,,,2015-10-05,1,,,,,オガワイーエムケンキュウショ,0
1188,5021001045399,登記記録の閉鎖等,0,2025-05-21,2025-05-09,株式会社ナチュラルサポート,,株式会社,神奈川県,茅ヶ崎市,甘沼１０１５番地,,14,207,2530004,,,2025-05-09,清算の結了等,,,2015-10-05,1,,,,,ナチュラルサポート,0
1191,5030001058229,登記記録の閉鎖等,0,2025-05-21,2025-05-19,株式会社シェンリ,,株式会社,埼玉県,川越市,六軒町１丁目１４－２,,11,201,3500041,,,2025-05-19,清算の結了等,,,2015-10-05,1,,,,,シェンリ,0
1195,5030002004347,登記記録の閉鎖等,0,2025-05-21,2025-05-16,有限会社グローバル,,有限会社,埼玉県,さいたま市中央区,上峰１丁目５番６号,,11,105,3380014,,,2025-05-16,清算の結了等,,,2015-10-05,1,,,,,グローバル,0
1204,5040001134458,登記記録の閉鎖等,0,2025-05-21,2025-05-01,株式会社ビーバー,,株式会社,千葉県,印旛郡酒々井町,酒々井１６５５－３（セリエＫ１０１）,,12,322,2850927,,,2025-05-01,清算の結了等,,,2024-08-02,1,,,,,ビーバー,0
1210,5040002086376,登記記録の閉鎖等,0,2025-05-21,2025-05-02,有限会社小関板金,,有限会社,千葉県,山武郡横芝光町,坂田５６７番地,,12,410,2891754,,,2025-05-02,清算の結了等,,,2015-10-05,1,,,,,コセキバンキン,0
1214,5060001004584,登記記録の閉鎖等,0,2025-05-21,2025-04-23,郵船ロジスティクス北関東株式会社,,株式会社,栃木県,宇都宮市,下桑島町１２００番地２０,,09,201,3210914,,,2025-04-23,合併による解散等,4010401090222,令和７年４月１日東京都品川区東品川四丁目１２番４号郵船ロジスティクス株式会社（4010401090222）に合併し解散,2015-10-05,1,,,,,ユウセンロジスティクスキタカントウ,0
1216,5070001032394,登記記録の閉鎖等,0,2025-05-21,2025-05-15,株式会社未来,,株式会社,群馬県,高崎市,吉井町南陽台２丁目９番地１２,,10,202,3702101,,,2025-05-15,清算の結了等,,,2016-07-12,1,,,,,ミライ,0
1219,5070002015027,登記記録の閉鎖等,0,2025-05-21,2025-05-19,有限会社萩原電気工事,,有限会社,群馬県,安中市,安中１丁目１３番３２号,,10,211,3790116,,,2025-05-19,清算の結了等,,,2015-10-05,1,,,,,ハギワラデンキコウジ,0
1223,5100002008646,登記記録の閉鎖等,0,2025-05-21,2025-05-20,有限会社永戸,,有限会社,長野県,須坂市,大字塩川５７１番地,,20,207,3820000,,,2025-05-20,清算の結了等,,,2015-10-05,1,,,,,ナガト,0
1242,5120002054812,登記記録の閉鎖等,0,2025-05-21,2025-05-08,永毘寿介護企画有限会社,,有限会社,大阪府,大阪市旭区,今市２丁目９番５号,,27,117,5350011,,,2025-05-08,清算の結了等,,,2015-10-05,1,,,,,エビスカイゴキカク,0
1243,5120002081154,登記記録の閉鎖等,0,2025-05-21,2025-05-12,有限会社イーティーテック,,有限会社,大阪府,門真市,舟田町５５番２７号,,27,223,5710021,,,2025-05-12,清算の結了等,,,2015-10-05,1,,,,,イーティーテック,0
1259,5130005015926,登記記録の閉鎖等,0,2025-05-21,2025-05-19,一般社団法人セイシェル,,その他の設立登記法人,京都府,城陽市,久世上大谷３２番地の１０,,26,207,6100102,,,2025-05-19,清算の結了等,,,2020-07-06,1,,,,,セイシェル,0
1260,5140001081112,登記記録の閉鎖等,0,2025-05-21,2025-05-19,株式会社Ｆｒｅｅクローバー彩花,,株式会社,兵庫県,伊丹市,伊丹８丁目３番２８号,,28,207,6640846,,,2025-05-19,清算の結了等,,,2015-10-05,1,,,,,フリークローバーアヤカ,0
1267,5140002067572,登記記録の閉鎖等,0,2025-05-21,2025-05-15,有限会社来夢,,有限会社,兵庫県,宝塚市,中筋４丁目８番１号,,28,214,6650874,,,2025-05-15,清算の結了等,,,2015-10-05,1,,,,,ライム,0
1284,5190001029197,登記記録の閉鎖等,0,2025-05-21,2025-05-14,株式会社リンダボルゲリ,,株式会社,三重県,津市,一志町田尻９４番地３,,24,201,5152516,,,2025-05-14,清算の結了等,,,2022-03-02,1,,,,,リンダボルゲリ,0
1317,5300002002422,登記記録の閉鎖等,0,2025-05-21,2025-05-14,有限会社インフォテックス,,有限会社,佐賀県,佐賀市,川副町大字犬井道１９０５番地４,,41,201,8402212,,,2025-05-14,清算の結了等,,,2015-10-05,1,,,,,インフォテックス,0
1322,5350002018133,登記記録の閉鎖等,0,2025-05-21,2025-05-15,有限会社小林旅行センター,,有限会社,宮崎県,小林市,真方４６４番地１２,,45,205,8860007,,,2025-05-15,清算の結了等,,,2024-08-29,1,,,,,コバヤシリョコウセンター,0
1348,5500002015791,登記記録の閉鎖等,0,2025-05-21,2025-05-19,有限会社赤鬼,,有限会社,愛媛県,新居浜市,宇高町２丁目１０番１７号,,38,205,7920866,,,2025-05-19,清算の結了等,,,2015-10-05,1,,,,,アカオニ,0
1352,6010001001156,登記記録の閉鎖等,0,2025-05-21,2025-04-30,株式会社エンジニアリング・ジャーナル社,,株式会社,東京都,文京区,湯島４丁目２番３号,,13,105,1130034,,,2025-04-30,清算の結了等,,,2015-10-05,1,,,,,エンジニアリングジャーナルシャ,0
1365,6010401014963,登記記録の閉鎖等,0,2025-05-21,2025-04-14,スターゼンファーム株式会社,,株式会社,東京都,港区,港南２丁目５番７号,,13,103,1080075,,,2025-04-14,合併による解散等,9010401015760,令和７年４月１日東京都港区港南二丁目５番７号スターゼン株式会社（9010401015760）に合併し解散,2015-10-05,1,,,,,スターゼンファーム,0
1366,6010401024186,登記記録の閉鎖等,0,2025-05-21,2025-05-07,株式会社ハッカ,,株式会社,東京都,港区,西麻布２丁目７番９号,,13,103,1060031,,,2025-05-07,清算の結了等,,,2015-10-05,1,,,,,ハッカ,0
1373,6010403017444,登記記録の閉鎖等,0,2025-05-21,2025-04-14,ＧＳＳＧ　Ｓｏｌａｒ　Ｊａｐａｎ　Ｈｏｌｄｉｎｇｓ４合同会社,,合同会社,東京都,港区,高輪１丁目３番１３号ＮＢＦ高輪ビル７階,,13,103,1080074,,,2025-04-14,清算の結了等,,,2017-10-24,1,,,,,ジーエスエスジーソーラージャパンホールディングスフォー,0
1377,6010502002413,登記記録の閉鎖等,0,2025-05-21,2025-05-01,有限会社及川技術研究所,,有限会社,東京都,台東区,橋場１丁目２５番４号,,13,106,1110023,,,2025-05-01,清算の結了等,,,2015-10-05,1,,,,,オイカワギジュツケンキュウジョ,0
1378,6010502014037,登記記録の閉鎖等,0,2025-05-21,2025-04-30,有限会社オオノ,,有限会社,東京都,千代田区,霞が関３丁目２番５号,,13,101,1000013,,,2025-04-30,清算の結了等,,,2015-10-05,1,,,,,オオノ,0
1396,6011002021746,登記記録の閉鎖等,0,2025-05-21,2025-04-14,有限会社ネットアド,,有限会社,東京都,渋谷区,初台２丁目３１番９号,,13,113,1510061,,,2025-04-14,清算の結了等,,,2015-10-05,1,,,,,ネットアド,0
1403,6011105010811,登記記録の閉鎖等,0,2025-05-21,2025-04-23,一般社団法人日本就業支援調査機構,,その他の設立登記法人,東京都,新宿区,新宿１丁目３６－２新宿第七葉山ビル３Ｆ,,13,104,1600022,,,2025-04-23,清算の結了等,,,2023-10-05,1,,,,,ニホンシュウギョウシエンチョウサキコウ,0
1427,6020001020865,登記記録の閉鎖等,0,2025-05-21,2025-05-16,大洋金属工業株式会社,,株式会社,神奈川県,横浜市港北区,箕輪町２丁目１５番１号,,14,109,2230051,,,2025-05-16,清算の結了等,,,2015-10-05,1,,,,,タイヨウキンゾクコウギョウ,0
1448,6030001160272,登記記録の閉鎖等,0,2025-05-21,2025-05-16,相徳商事株式会社,00134734,株式会社,埼玉県,上尾市,井戸木４丁目３３－３２,,11,219,3620071,,,2025-05-16,清算の結了等,,,2024-05-14,1,,,,,ソウトクショウジ,0
1449,6030002029442,登記記録の閉鎖等,0,2025-05-21,2025-05-15,有限会社東京ビデオサービス,,有限会社,東京都,東村山市,栄町３丁目１２番地８プレステージパレス２１７,,13,213,1890013,,,2025-05-15,清算の結了等,,,2015-10-05,1,,,,,トウキョウビデオサービス,0
1473,6100001002145,登記記録の閉鎖等,0,2025-05-21,2025-05-20,東明縫製株式会社,,株式会社,長野県,長野市,吉田５丁目９番２８号,,20,201,3810043,,,2025-05-20,清算の結了等,,,2015-10-05,1,,,,,トウメイホウセイ,0
1480,6110002023536,登記記録の閉鎖等,0,2025-05-21,2025-05-08,有限会社丸山工業所,,有限会社,新潟県,上越市,南本町２丁目２番１１号,,15,222,9430841,,,2025-05-08,清算の結了等,,,2015-10-05,1,,,,,マルヤマコウギョウショ,0
1486,6120001141825,登記記録の閉鎖等,0,2025-05-21,2025-05-14,株式会社グローバル,,株式会社,大阪府,大阪市北区,梅田１丁目３番１号,,27,127,5300001,,,2025-05-14,清算の結了等,,,2015-10-05,1,,,,,グローバル,0
1528,6140003001595,登記記録の閉鎖等,0,2025-05-21,2025-05-15,合名会社谷川折箱工業所,,合名会社,兵庫県,神戸市中央区,多聞通２丁目３番１１号,,28,110,6500015,,,2025-05-15,清算の結了等,,,2015-10-05,1,,,,,タニガワオリバココウギョウショ,0
1532,6170001002543,登記記録の閉鎖等,0,2025-05-21,2025-05-20,株式会社Ｅａｒｔｈ,,株式会社,和歌山県,和歌山市,吐前８６番地の１,,30,201,6496275,,,2025-05-20,清算の結了等,,,2015-10-05,1,,,,,アース,0
1534,6180001031368,登記記録の閉鎖等,0,2025-05-21,2025-05-19,株式会社中部ヘルストロン,,株式会社,愛知県,名古屋市中村区,太閤通５丁目３３番地の１,,23,105,4530811,,,2025-05-19,清算の結了等,,,2015-10-05,1,,,,,チュウブヘルストロン,0
1549,6180003022596,登記記録の閉鎖等,0,2025-05-21,2025-05-16,朋和合同会社,,合同会社,愛知県,名古屋市西区,名駅２丁目３４番１７号セントラル名古屋内,,23,104,4510045,,,2025-05-16,清算の結了等,,,2021-06-11,1,,,,,ホウワ,0
1579,6290801002648,登記記録の閉鎖等,0,2025-05-21,2025-05-20,株式会社都市環境総合サービス,,株式会社,福岡県,北九州市小倉北区,白銀１丁目８番２６号,,40,106,8020074,,,2025-05-20,清算の結了等,,,2015-10-05,1,,,,,トシカンキョウソウゴウサービス,0
1609,6390001000723,登記記録の閉鎖等,0,2025-05-21,2025-05-15,サンシステム開発株式会社,,株式会社,山形県,山形市,立谷川２丁目８６番地２９,,06,201,9902251,,,2025-05-15,清算の結了等,,,2015-10-05,1,,,,,,0
1619,6430002040400,登記記録の閉鎖等,0,2025-05-21,2025-05-13,有限会社トゥーコムス,,有限会社,北海道,札幌市中央区,南二条西１０丁目１０００－２４,,01,101,0600062,,,2025-05-13,清算の結了等,,,2015-10-05,1,,,,,トゥーコムス,0
1620,6450005002008,登記記録の閉鎖等,0,2025-05-21,2025-05-15,道北地区読売会事業協同組合,,その他の設立登記法人,北海道,士別市,西一条６丁目１９３２番地４,,01,220,0950021,,,2025-05-15,清算の結了等,,,2015-10-05,1,,,,,ドウホクチクヨミウリカイ,0
1653,7010605000560,登記記録の閉鎖等,0,2025-05-21,2025-05-16,医療法人社団東柏会,,その他の設立登記法人,東京都,江東区,北砂４丁目６番２号,,13,108,1360073,,,2025-05-16,清算の結了等,,,2015-10-05,1,,,,,トウハクカイ,0
1655,7010701034644,登記記録の閉鎖等,0,2025-05-21,2025-04-08,ホッペ株式会社,,株式会社,東京都,港区,赤坂９丁目７－１－１８Ｆ,,13,103,1070052,,,2025-04-08,合併による解散等,5010401125167,令和７年４月１日東京都港区赤坂９－１－７株式会社新成堂薬局（5010401125167）に合併し解散,2017-08-25,1,,,,,ホッペ,0
1656,7010701035361,登記記録の閉鎖等,0,2025-05-21,2025-04-28,株式会社ＲＮｃｏａｃｈ６２,,株式会社,東京都,中央区,銀座６丁目１３番１６号銀座ＷａｌｌビルＵＣＦ５０１,,13,102,1040061,,,2025-04-28,清算の結了等,,,2018-02-19,1,,,,,アールエヌコーチロクジュウニ,0
1662,7011001126438,登記記録の閉鎖等,0,2025-05-21,2025-05-16,株式会社ｂｒｏｓｓｏｍ,,株式会社,東京都,渋谷区,桜丘町２３番３号篠田ビル３階グロース渋谷,,13,113,1500031,,,2025-05-16,合併による解散等,9010401173666,令和７年４月１日東京都港区芝四丁目１番２８号ＰＭＯ田町ＩＩＩ７Ｆ株式会社ＥＮＩＬＩＳ（9010401173666）に合併し解散,2019-02-06,1,brossom Inc.,,,,ブロッサム,0
1684,7011701004884,登記記録の閉鎖等,0,2025-05-21,2025-05-14,高中建設株式会社,,株式会社,東京都,江戸川区,南葛西４丁目１９番７号,,13,123,1340085,,,2025-05-14,清算の結了等,,,2015-10-05,1,,,,,タカナカケンセツカブシキガイシャ,0
1687,7011801024510,登記記録の閉鎖等,0,2025-05-21,2025-05-19,Ｋダイニング株式会社,,株式会社,東京都,足立区,扇２丁目２５番１号,,13,121,1230873,,,2025-05-19,清算の結了等,,,2015-10-05,1,,,,,ケイダイニング,0
1688,7011801042966,登記記録の閉鎖等,0,2025-05-21,2025-05-16,株式会社アンニコーポレーション,,株式会社,東京都,足立区,西新井２丁目１８番８号石塚第二ビル１１０号,,13,121,1230841,,,2025-05-16,清算の結了等,,,2023-08-31,1,,,,,アンニコーポレーション,0
1707,7021001034846,登記記録の閉鎖等,0,2025-05-21,2025-05-14,株式会社新和,,株式会社,神奈川県,小田原市,永塚２２７番地,,14,206,2500214,,,2025-05-14,清算の結了等,,,2015-10-05,1,,,,,シンワ,0
1710,7030001038914,登記記録の閉鎖等,0,2025-05-21,2025-05-16,リンチャイナ株式会社,,株式会社,埼玉県,草加市,神明１丁目１２番１９号,,11,221,3400012,,,2025-05-16,清算の結了等,,,2015-10-05,1,,,,,リンチャイナ,0
1711,7030001052931,登記記録の閉鎖等,0,2025-05-21,2025-05-16,株式会社イシモ住宅,,株式会社,埼玉県,春日部市,浜川戸２丁目１３番地１３,,11,214,3440054,,,2025-05-16,清算の結了等,,,2015-10-05,1,,,,,イシモジュウタク,0
1724,7040002074461,登記記録の閉鎖等,0,2025-05-21,2025-05-02,有限会社戸山商店,,有限会社,千葉県,市原市,ちはら台東３丁目１番地７,,12,219,2900141,,,2025-05-02,清算の結了等,,,2015-10-05,1,,,,,トヤマショウテン,0
1728,7040005021601,登記記録の閉鎖等,0,2025-05-21,2025-05-16,一般社団法人首都圏ＰＣＲ検査機構,,その他の設立登記法人,埼玉県,加須市,大越３１６４番地５,,11,210,3470001,,,2025-05-16,清算の結了等,,,2022-05-10,1,,,,,シュトケンピーシーアールケンサキコウ,0
1749,7100002026596,登記記録の閉鎖等,0,2025-05-21,2025-05-19,有限会社栂池高原ホテル,,有限会社,長野県,北安曇郡小谷村,大字千国乙１２８４０番地１,,20,486,3999422,,,2025-05-19,清算の結了等,,,2015-10-05,1,,,,,ツガイケコウゲンホテル,0
1750,7110001016242,登記記録の閉鎖等,0,2025-05-21,2025-05-07,株式会社バリテック新潟,,株式会社,新潟県,燕市,物流センタ－二丁目２０番地,,15,213,9591200,,,2025-05-07,清算の結了等,,,2015-10-05,1,,,,,バリテックニイガタ,0
1755,7110002024566,登記記録の閉鎖等,0,2025-05-21,2025-05-07,有限会社衣料のソーハチ,,有限会社,新潟県,上越市,名立区名立大町７０番地,,15,222,9491602,,,2025-05-07,清算の結了等,,,2015-10-05,1,,,,,イリョウノソーハチ,0
1760,7120001091607,登記記録の閉鎖等,0,2025-05-21,2025-05-12,株式会社ユーディーディー,,株式会社,大阪府,大阪市中央区,淡路町２丁目１番１０ー９０２,,27,128,5410047,,,2025-05-12,清算の結了等,,,2015-10-05,1,,,,,ユーディーディー,0
1775,7120002079799,登記記録の閉鎖等,0,2025-05-21,2025-05-12,晋和警備保障有限会社,,有限会社,大阪府,門真市,新橋町５番３５号,,27,223,5710048,,,2025-05-12,清算の結了等,,,2015-10-05,1,,,,,シンワケイビホショウ,0
1793,7140002012584,登記記録の閉鎖等,0,2025-05-21,2025-05-19,有限会社兵庫食料品店,,有限会社,兵庫県,神戸市兵庫区,新開地２丁目１番９号,,28,105,6520811,,,2025-05-19,清算の結了等,,,2015-10-05,1,,,,,ヒョウゴショクリョウヒンテン,0
1801,7180001073772,登記記録の閉鎖等,0,2025-05-21,2025-05-16,エースコーヒー株式会社,,株式会社,愛知県,春日井市,中央通２丁目１０３番地,,23,206,4860825,,,2025-05-16,清算の結了等,,,2015-10-05,1,,,,,エースコーヒー,0
1803,7180001153302,登記記録の閉鎖等,0,2025-05-21,2025-05-16,株式会社さくら建設,,株式会社,愛知県,一宮市,馬見塚字長畑２６番地１サンハイツ丹羽１０１号室,,23,203,4910874,,,2025-05-16,清算の結了等,,,2022-10-07,1,,,,,サクラケンセツ,0
1818,7190002000923,登記記録の閉鎖等,0,2025-05-21,2025-05-16,有限会社タナカ園,,有限会社,三重県,津市,半田１５３８番地の４,,24,201,5140823,,,2025-05-16,清算の結了等,,,2015-10-05,1,,,,,タナカエン,0
1833,7290001024252,登記記録の閉鎖等,0,2025-05-21,2025-05-09,株式会社アトラックス,,株式会社,福岡県,福岡市博多区,中呉服町３番１１号,,40,132,8120035,,,2025-05-09,清算の結了等,,,2015-10-05,1,,,,,アトラックス,0
1842,7290805000837,登記記録の閉鎖等,0,2025-05-21,2025-05-19,小倉交通グループ協同組合,,その他の設立登記法人,福岡県,北九州市小倉北区,宇佐町２丁目２番１５号,,40,106,8020016,,,2025-05-19,清算の結了等,,,2015-10-05,1,,,,,コクラコウツウグループ,0
1865,7380005000983,登記記録の閉鎖等,0,2025-05-21,2025-05-07,妙法教会,,その他の設立登記法人,福島県,福島市,伏拝字清水内５２番地,,07,201,9608154,,,2025-05-07,清算の結了等,,,2015-10-05,1,,,,,ミョウホウキョウカイ,0
1870,7420002012548,登記記録の閉鎖等,0,2025-05-21,2025-05-19,有限会社太田林業土木,,有限会社,青森県,西津軽郡鰺ヶ沢町,大字舞戸町字東禿１３０番地１,,02,321,0382761,,,2025-05-19,清算の結了等,,,2015-10-05,1,,,,,オオタリンギョウドボク,0
1880,7490001011024,登記記録の閉鎖等,0,2025-05-21,2025-05-20,株式会社土佐林業機械製作所,,株式会社,高知県,高知市,桟橋通４丁目２番２０号,,39,201,7818010,,,2025-05-20,清算の結了等,,,2025-05-08,1,,,,,トサリンギョウキカイセイサクショ,0
1883,7500001001972,登記記録の閉鎖等,0,2025-05-21,2025-05-15,株式会社四国ノバックス,,株式会社,愛媛県,松山市,土居田町３３番地１,,38,201,7900056,,,2025-05-15,合併による解散等,6122001015843,令和７年５月１日大阪府大東市諸福五丁目１３番１２号株式会社光新星（6122001015843）に合併し解散,2015-10-05,1,,,,,シコクノバックス,0
1888,8010001015807,登記記録の閉鎖等,0,2025-05-21,2025-04-30,京葉土地開発株式会社,,株式会社,東京都,千代田区,大手町１丁目１番１号,,13,101,1000004,,,2025-04-30,清算の結了等,,,2015-10-05,1,,,,,ケイヨウトチカイハツ,0
1889,8010001030228,登記記録の閉鎖等,0,2025-05-21,2025-04-30,株式会社ミロ,,株式会社,東京都,千代田区,神田駿河台２丁目４番地,,13,101,1010062,,,2025-04-30,清算の結了等,,,2015-10-05,1,,,,,ミロ,0
1902,8010401112014,登記記録の閉鎖等,0,2025-05-21,2025-04-16,株式会社リゾート・ワールド東京,,株式会社,東京都,港区,六本木１丁目９番１０号アークヒルズ仙石山森タワー２８階ベーカー＆マッケンジー法律事務所内,,13,103,1060032,,,2025-04-16,清算の結了等,,,2015-10-05,1,,,,,リゾートワールドトウキョウ,0
1903,8010401146615,登記記録の閉鎖等,0,2025-05-21,2025-05-15,株式会社メディカルアシスト,,株式会社,愛知県,安城市,東栄町３丁目８－１７,,23,212,4460007,,,2025-05-15,清算の結了等,,,2019-07-08,1,,,,,メディカルアシスト,0
1909,8010405016161,登記記録の閉鎖等,0,2025-05-21,2025-04-15,ＧＳＳＧ　Ｓｏｌａｒ　Ｊａｐａｎ　Ｈｏｌｄｉｎｇｓ４一般社団法人,,その他の設立登記法人,東京都,港区,赤坂１丁目１１番４４号赤坂インターシティ５階Ｍａｚａｒｓ・Ｊａｐａｎ株式会社内,,13,103,1070052,,,2025-04-15,清算の結了等,,,2017-10-20,1,,,,,ジーエスエスジーソーラージャパンホールディングスフォー,0
1916,8010702005321,登記記録の閉鎖等,0,2025-05-21,2025-04-21,有限会社ティーズ・ワン,,有限会社,東京都,品川区,中延５丁目１０番１２－１０１号,,13,109,1420053,,,2025-04-21,清算の結了等,,,2015-10-05,1,,,,,ティーズワン,0
1932,8011301002552,登記記録の閉鎖等,0,2025-05-21,2025-05-08,株式会社コム,,株式会社,東京都,杉並区,桃井２丁目１７番６号,,13,115,1670034,,,2025-05-08,清算の結了等,,,2015-10-05,1,,,,,コム,0
1944,8012701003891,登記記録の閉鎖等,0,2025-05-21,2025-04-25,株式会社南沢電気,,株式会社,東京都,東久留米市,南沢４丁目８番３号,,13,222,2030023,,,2025-04-25,清算の結了等,,,2015-10-05,1,,,,,ミナミサワデンキ,0
1945,8013301007226,登記記録の閉鎖等,0,2025-05-21,2025-05-01,田淵産業株式会社,,株式会社,東京都,豊島区,駒込１丁目３１番８号,,13,116,1700003,,,2025-05-01,清算の結了等,,,2015-10-05,1,,,,,タブチサンギョウ,0
1951,8013403000608,登記記録の閉鎖等,0,2025-05-21,2025-05-16,合同会社ソックスオウル,,合同会社,東京都,多摩市,関戸２丁目２３番地の５ハイツ中桜１０１,,13,224,2060011,,,2025-05-16,清算の結了等,,,2015-10-05,1,,,,,ソックスオウル,0
1970,8021001082398,登記記録の閉鎖等,0,2025-05-21,2025-05-09,株式会社鎌丹,,株式会社,神奈川県,鎌倉市,材木座３丁目７－７,,14,204,2480013,,,2025-05-09,清算の結了等,,,2024-06-10,1,,,,,カマタン,0
1971,8021005008283,登記記録の閉鎖等,0,2025-05-21,2025-05-09,特定非営利活動法人葉山町民オンブズマン,,その他の設立登記法人,神奈川県,三浦郡葉山町,堀内１７３５番地の１０９,,14,301,2400112,,,2025-05-09,清算の結了等,,,2015-10-05,1,,,,,,0
1977,8040001032931,登記記録の閉鎖等,0,2025-05-21,2025-05-01,株式会社アドバンスＦ＆Ｅ,,株式会社,千葉県,松戸市,六高台７丁目２２番地１０３号,,12,207,2702203,,,2025-05-01,清算の結了等,,,2015-10-05,1,,,,,アドバンスエフアンドイー,0
1979,8040002022493,登記記録の閉鎖等,0,2025-05-21,2025-05-01,有限会社三友モード,,有限会社,千葉県,船橋市,松が丘４丁目５６番２号,,12,204,2740064,,,2025-05-01,清算の結了等,,,2015-10-05,1,,,,,サンユウモード,0
1982,8040002072803,登記記録の閉鎖等,0,2025-05-21,2025-04-30,有限会社角屋商店,,有限会社,千葉県,市原市,朝生原１８１番地,,12,219,2900535,,,2025-04-30,清算の結了等,,,2015-10-05,1,,,,,カドヤショウテン,0
1983,8040002099499,登記記録の閉鎖等,0,2025-05-21,2025-05-02,有限会社館山見番,,有限会社,千葉県,館山市,北条２５７８番地の３５,,12,205,2940045,,,2025-05-02,清算の結了等,,,2015-10-05,1,,,,,タテヤマケンバン,0
1999,8080002011484,登記記録の閉鎖等,0,2025-05-21,2025-05-16,有限会社山口洋品店,,有限会社,静岡県,静岡市清水区,美濃輪町４番１２号,,22,103,4240945,,,2025-05-16,清算の結了等,,,2015-10-05,1,,,,,ヤマグチヨウヒンテン,0
2035,8120101040999,登記記録の閉鎖等,0,2025-05-21,2025-05-16,株式会社アサヒクリエイト,,株式会社,大阪府,泉南郡熊取町,自由が丘１丁目１２番５号,,27,361,5900423,,,2025-05-16,清算の結了等,,,2015-10-05,1,,,,,アサヒクリエイト,0
2054,8130002035866,登記記録の閉鎖等,0,2025-05-21,2025-05-12,有限会社みやざき工芸,,有限会社,京都府,京都市北区,大宮南箱ノ井町２２番地,,26,101,6038476,,,2025-05-12,清算の結了等,,,2025-01-29,1,,,,,ミヤザキコウゲイ,0
2056,8130005013547,登記記録の閉鎖等,0,2025-05-21,2025-05-19,一般社団法人復興教育支援ネットワーク,,その他の設立登記法人,京都府,京都市中京区,丸太町通御幸町西入毘沙門町５３３松屋ビル４０２,,26,104,6040981,,,2025-05-19,清算の結了等,,,2015-10-05,1,,,,,フッコウキョウイクシエンネットワーク,0
2057,8140001017831,登記記録の閉鎖等,0,2025-05-21,2025-05-15,株式会社濱上商店,,株式会社,兵庫県,神戸市中央区,脇浜町２丁目７番６号,,28,110,6510072,,,2025-05-15,清算の結了等,,,2015-10-05,1,,,,,ハマガミショウテン,0
2063,8140002036665,登記記録の閉鎖等,0,2025-05-21,2025-05-19,有限会社星野土木工業,,有限会社,兵庫県,加古川市,八幡町宗佐１９８番地の３,,28,210,6751201,,,2025-05-19,清算の結了等,,,2015-10-05,1,,,,,ホシノドボクコウギョウ,0
2076,8180001136041,登記記録の閉鎖等,0,2025-05-21,2025-05-16,株式会社セッショントランスポート,,株式会社,愛知県,愛西市,日置町壱の割４２番地,,23,232,4960906,,,2025-05-16,清算の結了等,,,2019-04-04,1,,,,,セッショントランスポート,0
2093,8220001021750,登記記録の閉鎖等,0,2025-05-21,2025-05-20,株式会社アグリ・トラスト,,株式会社,石川県,金沢市,湖南町２８１番地,,17,201,9203107,,,2025-05-20,清算の結了等,,,2017-07-13,1,,,,,アグリトラスト,0
2098,8240001056456,登記記録の閉鎖等,0,2025-05-21,2025-05-19,株式会社ミラクル,,株式会社,広島県,福山市,神辺町字川南４１３番地１,,34,207,7210000,,,2025-05-19,清算の結了等,,,2020-08-04,1,,,,,ミラクル,0
2101,8240002032935,登記記録の閉鎖等,0,2025-05-21,2025-05-16,有限会社作田溶工所,,有限会社,広島県,呉市,吉浦東本町２丁目１５番３号,,34,202,7370852,,,2025-05-16,清算の結了等,,,2015-10-05,1,,,,,サクタヨウコウショ,0
2120,8310002003680,登記記録の閉鎖等,0,2025-05-21,2025-05-19,有限会社長崎県指定自動車学校会館,,有限会社,長崎県,長崎市,万屋町２番２１号,,42,201,8500852,,,2025-05-19,清算の結了等,,,2015-10-05,1,,,,,ナガサキケンシテイジドウシャガッコウカイカン,0
2161,9010001085584,登記記録の閉鎖等,0,2025-05-21,2025-04-30,Ｃ・Ｆハイテック株式会社,,株式会社,東京都,千代田区,鍛冶町２丁目１０番７号,,13,101,1010044,,,2025-04-30,清算の結了等,,,2015-10-05,1,,,,,シーエフハイテック,0
2172,9010005028721,登記記録の閉鎖等,0,2025-05-21,2025-05-16,一般社団法人ヴィレッジスリー,,その他の設立登記法人,東京都,中央区,日本橋１丁目４番１号,,13,102,1030027,,,2025-05-16,清算の結了等,,,2018-07-02,1,,,,,ヴィレッジスリー,0
2174,9010401112013,登記記録の閉鎖等,0,2025-05-21,2025-04-16,株式会社リゾート・ワールド・ジャパン,,株式会社,東京都,港区,六本木１丁目９番１０号アークヒルズ仙石山森タワー２８階ベーカー＆マッケンジー法律事務所内,,13,103,1060032,,,2025-04-16,清算の結了等,,,2015-10-05,1,,,,,リゾートワールドジャパン,0
2206,9011105005494,登記記録の閉鎖等,0,2025-05-21,2025-05-15,一般社団法人自然エネルギー政策研究所,,その他の設立登記法人,東京都,小金井市,緑町５丁目１５番１号,,13,210,1840003,,,2025-05-15,清算の結了等,,,2015-10-05,1,,,,,,0
2212,9011302001742,登記記録の閉鎖等,0,2025-05-21,2025-05-08,有限会社エムアールワイ,,有限会社,東京都,杉並区,西荻南１丁目１３番４号,,13,115,1670053,,,2025-05-08,清算の結了等,,,2015-10-05,1,,,,,エムアールワイ,0
2234,9020001111901,登記記録の閉鎖等,0,2025-05-21,2025-05-20,株式会社ＨＳＰ,,株式会社,神奈川県,川崎市宮前区,菅生３丁目４２番２３号,,14,136,2160015,,,2025-05-20,清算の結了等,,,2015-10-05,1,,,,,エイチエスピー,0
2265,9060001006767,登記記録の閉鎖等,0,2025-05-21,2025-05-15,株式会社塩野建設工業,,株式会社,栃木県,宇都宮市,鶴田町１５５３番地１０,,09,201,3200851,,,2025-05-15,清算の結了等,,,2015-10-05,1,,,,,シオノケンセツコウギョウ,0
2275,9080101020807,登記記録の閉鎖等,0,2025-05-21,2025-05-16,株式会社エフォート,,株式会社,静岡県,裾野市,茶畑５７７番地,,22,220,4101121,,,2025-05-16,清算の結了等,,,2018-12-03,1,,,,,エフォート,0
2282,9090002013693,登記記録の閉鎖等,0,2025-05-21,2025-05-14,有限会社ジュウセツ,,有限会社,山梨県,韮崎市,中田町中條１３２２番地の４,,19,207,4070262,,,2025-05-14,清算の結了等,,,2015-10-05,1,,,,,ジュウセツ,0
2285,9100002009392,登記記録の閉鎖等,0,2025-05-21,2025-05-20,有限会社さろん更紗,,有限会社,長野県,千曲市,大字屋代２３６８番地,,20,218,3870007,,,2025-05-20,清算の結了等,,,2015-10-05,1,,,,,サロンサラサ,0
2297,9120001220997,登記記録の閉鎖等,0,2025-05-21,2025-05-12,株式会社おやこサポート・はぁとあっぷ,,株式会社,大阪府,大阪市西区,西本町３丁目１番１４号,,27,106,5500005,,,2025-05-12,清算の結了等,,,2019-05-15,1,,,,,オヤコサポートハァトアップ,0
2309,9120003023944,登記記録の閉鎖等,0,2025-05-21,2025-05-19,合同会社梅六,,合同会社,京都府,京都市中京区,小川通六角下る元本能寺町３８２Ｍ／Ｂビル２ＦＵ４Ｄ号室,,26,104,6048244,,,2025-05-19,清算の結了等,,,2023-04-26,1,,,,,ウメロク,0
2313,9120101063413,登記記録の閉鎖等,0,2025-05-21,2025-05-14,株式会社福始,,株式会社,大阪府,堺市西区,鳳中町３丁６６番地３,,27,144,5938327,,,2025-05-14,清算の結了等,,,2021-04-13,1,,,,,フクシ,0
2339,9140003011063,登記記録の閉鎖等,0,2025-05-21,2025-05-13,ブルームブロッサム合同会社,,合同会社,東京都,国立市,富士見台１丁目４８番地の２８,,13,215,1860003,,,2025-05-13,清算の結了等,,,2015-11-26,1,,,,,ブルームブロッサム,0
2342,9180001061882,登記記録の閉鎖等,0,2025-05-21,2025-05-19,株式会社敏照,,株式会社,愛知県,名古屋市南区,南野２丁目１２１番地,,23,112,4570068,,,2025-05-19,清算の結了等,,,2015-10-05,1,,,,,トシテル,0
2345,9180002059397,登記記録の閉鎖等,0,2025-05-21,2025-05-19,有限会社セリエディマッジョ,,有限会社,愛知県,名古屋市東区,泉１丁目２２番７号,,23,102,4610001,,,2025-05-19,清算の結了等,,,2015-10-05,1,,,,,セリエディマッジョ,0
2346,9180002070370,登記記録の閉鎖等,0,2025-05-21,2025-05-19,有限会社ＭＡＳＩ,,有限会社,愛知県,名古屋市守山区,大字上志段味字竹の腰３５４番地２,,23,113,4630001,,,2025-05-19,清算の結了等,,,2015-10-05,1,,,,,マシ,0
2350,9180005014671,登記記録の閉鎖等,0,2025-05-21,2025-05-13,一般社団法人ロコモペイングループ,,その他の設立登記法人,愛知県,名古屋市西区,城北町３丁目１１２番地,,23,104,4510023,,,2025-05-13,清算の結了等,,,2015-10-05,1,,,,,ロコモペイングループ,0
2354,9190001010707,登記記録の閉鎖等,0,2025-05-21,2025-05-12,和興ホーム三重株式会社,,株式会社,三重県,松阪市,大黒田町５６０番地の２,,24,204,5150063,,,2025-05-12,清算の結了等,,,2015-10-05,1,,,,,ワコウホームミエ,0
2362,9200002001736,登記記録の閉鎖等,0,2025-05-21,2025-05-20,有限会社越川内装,,有限会社,岐阜県,岐阜市,福光西３丁目１番１３号,,21,201,5020814,,,2025-05-20,清算の結了等,,,2015-10-05,1,,,,,コシカワナイソウイ,0
2385,9260005007824,登記記録の閉鎖等,0,2025-05-21,2025-05-14,加賀美多麻生産森林組合,,その他の設立登記法人,岡山県,備前市,吉永町多麻８９６番地,,33,211,7090302,,,2025-05-14,清算の結了等,,,2015-10-05,1,,,,,カガミタマ,0
2393,9290001076713,登記記録の閉鎖等,0,2025-05-21,2025-05-09,株式会社センティーレ,,株式会社,福岡県,福岡市博多区,住吉２丁目１６－３７,,40,132,8120018,,,2025-05-09,清算の結了等,,,2017-02-09,1,,,,,センティーレ,0
2396,9290001091588,登記記録の閉鎖等,0,2025-05-21,2025-05-01,株式会社Ａｒｋ３６０,,株式会社,福岡県,福岡市南区,塩原３丁目２１番３６号１Ｆ,,40,134,8150032,,,2025-05-01,合併による解散等,4290001098786,令和７年５月１日福岡市南区寺塚一丁目１９番８号株式会社オズフォード（4290001098786）に合併し解散,2021-01-13,1,,,,,アークサンロクマル,0
2403,9300002008317,登記記録の閉鎖等,0,2025-05-21,2025-05-19,株式会社有田観光開発,,株式会社,佐賀県,西松浦郡有田町,本町乙３０５９－４,,41,401,8440018,,,2025-05-19,清算の結了等,,,2015-10-05,1,,,,,アリタカンコウカイハツ,0
2407,9330001007837,登記記録の閉鎖等,0,2025-05-21,2025-05-15,株式会社ライフクリエート,,株式会社,熊本県,熊本市南区,田井島３丁目６番８号,,43,104,8620965,,,2025-05-15,清算の結了等,,,2015-10-05,1,,,,,ライフクリエート,0
2408,9330002020335,登記記録の閉鎖等,0,2025-05-21,2025-05-15,有限会社虹の通潤館,,有限会社,熊本県,上益城郡山都町,長原１９２番地１,,43,447,8613661,,,2025-05-15,清算の結了等,,,2015-10-05,1,,,,,ニジノツウジュンカン,0
2421,9370801001242,登記記録の閉鎖等,0,2025-05-21,2025-05-09,株式会社日山,,株式会社,宮城県,名取市,ゆりが丘１丁目５番地の４,,04,207,9811245,,,2025-05-09,清算の結了等,,,2015-10-05,1,,,,,ヒヤマ,0
2423,9380002004309,登記記録の閉鎖等,0,2025-05-21,2025-05-09,有限会社ベルホーム,,有限会社,福島県,福島市,春日町１７番３３号加藤ビル２０２号室,,07,201,9608116,,,2025-05-09,清算の結了等,,,2015-10-05,1,,,,,ベルホーム,0
2424,9380002031716,登記記録の閉鎖等,0,2025-05-21,2025-05-08,有限会社栗城クリーニング,,有限会社,福島県,会津若松市,千石町４番９号,,07,202,9650817,,,2025-05-08,清算の結了等,,,2015-10-05,1,,,,,クリキクリーニング,0
2431,9430001043418,登記記録の閉鎖等,0,2025-05-21,2025-05-16,株式会社石塚建築設計事務所,,株式会社,北海道,恵庭市,京町７７番地１,,01,231,0611444,,,2025-05-16,清算の結了等,,,2015-10-05,1,,,,,イシズカケンチクセッケイジムショ,0
2439,9450001012734,登記記録の閉鎖等,0,2025-05-21,2025-05-14,株式会社ＡＣホールディングス,,株式会社,北海道,士別市,大通東１丁目１６０２番地６１,,01,220,0950019,,,2025-05-14,合併による解散等,3450001007566,令和７年５月１日北海道士別市大通東一丁目株式会社ＳＡＣＯＭ（3450001007566）に合併し解散,2019-05-10,1,,,,,エーシーホールディングス,0
2445,9500001020582,登記記録の閉鎖等,0,2025-05-21,2025-05-19,株式会社ライフピース,,株式会社,愛媛県,松山市,東石井２丁目２３番１０号,,38,201,7900932,,,2025-05-19,清算の結了等,,,2017-05-02,1,,,,,ライフピース,0
2446,9500002017512,登記記録の閉鎖等,0,2025-05-21,2025-05-15,有限会社越智建工,,有限会社,愛媛県,新居浜市,大生院６４番地の２９,,38,205,7920060,,,2025-05-15,清算の結了等,,,2015-10-05,1,,,,,オチケンコウ,0
