sequenceNumber,corporateNumber,process,correct,updateDate,changeDate,name,nameImageId,kind,prefectureName,cityName,streetNumber,addressImageId,prefectureCode,cityCode,postCode,addressOutside,addressOutsideImageId,closeDate,closeCause,successorCorporateNumber,changeCause,assignmentDate,latest,enName,enPrefectureName,enCityName,enAddressOutside,furigana,hihyoji
16,1010401038380,登記記録の閉鎖等,0,2023-08-28,2023-08-02,カタリナマーケティングジャパン株式会社,,株式会社,東京都,港区,虎ノ門２丁目２番１号住友不動産虎ノ門タワー,,13,103,1050001,,,2023-08-02,合併による解散等,8010401172198,令和５年８月１日東京都港区虎ノ門二丁目２番１号住友不動産虎ノ門タワーカタリナマーケティングジャパン株式会社（8010401172198）に合併し解散,2015-10-05,1,,,,,カタリナマーケティングジャパン,0
30,1010701019659,登記記録の閉鎖等,0,2023-08-28,2023-08-22,株式会社鈴木商店,,株式会社,東京都,渋谷区,東３丁目２１番１４号グランツ恵比寿１００１,,13,113,1500011,,,2023-08-22,清算の結了等,,,2015-10-05,1,,,,,スズキショウテン,0
62,1011702016538,登記記録の閉鎖等,0,2023-08-28,2023-08-07,有限会社國兼工業所,,有限会社,千葉県,東金市,小沼田７０４番地７,,12,213,2830044,,,2023-08-07,清算の結了等,,,2015-10-05,1,,,,,クニカネコウギョウショ,0
65,1011801036676,登記記録の閉鎖等,0,2023-08-28,2023-08-04,株式会社Ｓｐｉｇｏｌａ,,株式会社,千葉県,松戸市,下矢切２９６－６,,12,207,2710096,,,2023-08-04,清算の結了等,,,2019-10-01,1,,,,,スピーゴラ,0
68,1012401039367,登記記録の閉鎖等,0,2023-08-28,2023-08-24,包昇デジタル文化株式会社,,株式会社,東京都,三鷹市,下連雀２丁目５番１３号,,13,204,1810013,,,2023-08-24,清算の結了等,,,2022-07-07,1,,,,,ホウショウデジタルブンカ,0
77,1020002003089,登記記録の閉鎖等,0,2023-08-28,2023-08-17,宝船舶有限会社,,有限会社,神奈川県,横浜市泉区,弥生台３番地の１５,,14,116,2450008,,,2023-08-17,清算の結了等,,,2015-10-05,1,,,,,,0
80,1021001030586,登記記録の閉鎖等,0,2023-08-28,2023-08-18,株式会社エバーライン,,株式会社,神奈川県,川崎市幸区,南加瀬５丁目７番２３号,,14,132,2120055,,,2023-08-18,清算の結了等,,,2015-10-05,1,,,,,エバーライン,0
110,1080402014333,登記記録の閉鎖等,0,2023-08-28,2023-08-25,有限会社横浜飯店,,有限会社,静岡県,浜松市東区,市野町９８１番地の４,,22,132,4350051,,,2023-08-25,清算の結了等,,,2015-10-05,1,,,,,ヨコハマハンテン,0
114,1120001243650,登記記録の閉鎖等,0,2023-08-28,2023-07-31,株式会社ＡＫＡＬＡ,,株式会社,大阪府,大阪市都島区,片町２丁目９番２８号,,27,102,5340025,,,2023-07-31,合併による解散等,4120001223633,令和５年７月３１日大阪市都島区片町二丁目９番２８号株式会社ＡＫＡＲＡ（4120001223633）と合併し解散,2022-02-04,1,,,,,アカラ,0
121,1120901028110,登記記録の閉鎖等,0,2023-08-28,2023-08-23,株式会社さんさ,,株式会社,大阪府,豊中市,新千里南町１丁目１番５４－２１８号,,27,203,5600084,,,2023-08-23,清算の結了等,,,2015-10-05,1,,,,,サンサ,0
124,1120905005840,登記記録の閉鎖等,0,2023-08-28,2023-08-23,ＮＰＯ法人Ｓｏｕｎｄ　Ｐａｓｓ,,その他の設立登記法人,大阪府,吹田市,南正雀５丁目７番３号,,27,205,5640012,,,2023-08-23,清算の結了等,,,2019-01-31,1,,,,,サウンドパス,0
129,1130003005940,登記記録の閉鎖等,0,2023-08-28,2023-08-10,生駒産業合同会社,,合同会社,京都府,木津川市,木津南垣外８番地１,,26,214,6190214,,,2023-08-10,清算の結了等,,,2019-04-04,1,,,,,イコマサンギョウ,0
141,1180002000855,登記記録の閉鎖等,0,2023-08-28,2023-08-24,有限会社静和技研工業,,有限会社,愛知県,名古屋市守山区,川宮町３７２番地,,23,113,4630081,,,2023-08-24,清算の結了等,,,2015-10-05,1,,,,,セイワギケンコウギョウ,0
144,1180002062532,登記記録の閉鎖等,0,2023-08-28,2023-08-22,有限会社マイルストーンシステムズ,,有限会社,愛知県,日進市,藤塚６丁目１８９番地,,23,230,4700117,,,2023-08-22,清算の結了等,,,2015-10-05,1,,,,,マイルストーンシステムズ,0
145,1180002073224,登記記録の閉鎖等,0,2023-08-28,2023-08-21,有限会社サンテクノ,,有限会社,愛知県,瀬戸市,五位塚町１１番地の４６８,,23,204,4890031,,,2023-08-21,清算の結了等,,,2015-10-05,1,,,,,サンテクノ,0
146,1180002088973,登記記録の閉鎖等,0,2023-08-28,2023-08-23,有限会社信和産業,,有限会社,愛知県,知多郡阿久比町,大字草木字栄５０番地,,23,441,4702211,,,2023-08-23,清算の結了等,,,2015-10-05,1,,,,,シンワサンギョウ,0
150,1180302026567,登記記録の閉鎖等,0,2023-08-28,2023-08-23,有限会社ビーアンドエス,,有限会社,愛知県,西尾市,中畑町清水３７番地１,,23,213,4440303,,,2023-08-23,清算の結了等,,,2015-10-05,1,,,,,ビーアンドエス,0
178,1330001024906,登記記録の閉鎖等,0,2023-08-28,2023-08-17,エスピーシーエンジニア株式会社,,株式会社,熊本県,熊本市中央区,下通１丁目３番８号,,43,101,8600807,,,2023-08-17,清算の結了等,,,2018-01-16,1,,,,,エスピーシーエンジニア,0
183,1350001010458,登記記録の閉鎖等,0,2023-08-28,2023-08-16,今井株式会社,,株式会社,宮崎県,西都市,大字茶臼原１４６１番地,,45,208,8810037,,,2023-08-16,清算の結了等,,,2015-10-05,1,,,,,イマイ,0
184,1350001012677,登記記録の閉鎖等,0,2023-08-28,2023-08-16,拓建株式会社,,株式会社,宮崎県,日向市,曽根町１丁目２０２番地,,45,206,8830011,,,2023-08-16,清算の結了等,,,2015-10-05,1,,,,,,0
185,1360003011957,登記記録の閉鎖等,0,2023-08-28,2023-08-09,合同会社Ｌｅ　ｔｅｍｐｓ　ｒｉｃｈｅ,,合同会社,沖縄県,浦添市,西原２丁目９－１７,,47,208,9012101,,,2023-08-09,清算の結了等,,,2022-04-21,1,,,,,,0
193,1400002004882,登記記録の閉鎖等,0,2023-08-28,2023-08-23,有限会社岩手県公務員弘済会,,有限会社,岩手県,盛岡市,前九年１丁目１番２６号,,03,201,0200127,,,2023-08-23,清算の結了等,,,2015-10-05,1,,,,,,0
196,1410002001796,登記記録の閉鎖等,0,2023-08-28,2023-08-21,有限会社佐藤電子工業,,有限会社,秋田県,秋田市,牛島西２丁目１１番３号,,05,201,0100063,,,2023-08-21,清算の結了等,,,2015-10-05,1,,,,,サトウデンシコウギョウ,0
210,1450001002404,登記記録の閉鎖等,0,2023-08-28,2023-08-24,日本防水総業株式会社旭川,,株式会社,北海道,旭川市,永山北一条１０丁目３番２３号,,01,204,0798451,,,2023-08-24,合併による解散等,5430001021030,令和５年８月１日札幌市中央区北三条東四丁目１番地日本防水総業株式会社（5430001021030）に合併し解散,2015-10-05,1,,,,,ニホンボウスイソウギョウアサヒカワ,0
230,2010401054708,登記記録の閉鎖等,0,2023-08-28,2023-08-18,フジフィールド株式会社,,株式会社,東京都,目黒区,碑文谷１丁目２２番２８－１０４号ルクラス碑文谷,,13,110,1520003,,,2023-08-18,清算の結了等,,,2015-10-05,1,,,,,フジフィールド,0
243,2010901003734,登記記録の閉鎖等,0,2023-08-28,2023-08-23,ケーユー産業株式会社,,株式会社,東京都,世田谷区,下馬５丁目３９番１７号,,13,112,1540002,,,2023-08-23,清算の結了等,,,2015-10-05,1,,,,,ケーユーサンギョウ,0
266,2011502002654,登記記録の閉鎖等,0,2023-08-28,2023-08-23,有限会社山洋堂,,有限会社,東京都,北区,東十条４丁目５番８号,,13,117,1140001,,,2023-08-23,清算の結了等,,,2015-10-05,1,,,,,サンヨウドウ,0
296,2030001080169,登記記録の閉鎖等,0,2023-08-28,2023-07-31,株式会社東京スターメガネ,,株式会社,埼玉県,川口市,本町２丁目７番２５号ミエルかわぐち２階,,11,203,3320012,,,2023-07-31,合併による解散等,2030001020744,令和５年７月３１日埼玉県さいたま市大宮区吉敷町四丁目２４７番地１株式会社メガネフラワー（2030001020744）に合併し解散,2015-10-05,1,,,,,トウキョウスターメガネ,0
305,2040002041516,登記記録の閉鎖等,0,2023-08-28,2023-08-04,有限会社ヒロカンパニー,,有限会社,千葉県,浦安市,東野３丁目６番２６号,,12,227,2790042,,,2023-08-04,清算の結了等,,,2015-10-05,1,,,,,ヒロカンパニー,0
309,2050001014521,登記記録の閉鎖等,0,2023-08-28,2023-08-23,吉田屋印刷株式会社,,株式会社,茨城県,坂東市,辺田１１４７番地の４５,,08,228,3060632,,,2023-08-23,清算の結了等,,,2015-10-05,1,,,,,ヨシダヤインサツ,0
310,2050001020882,登記記録の閉鎖等,0,2023-08-28,2023-08-21,株式会社伊藤鉄工所,,株式会社,茨城県,神栖市,波崎２０６番地の１２,,08,232,3140408,,,2023-08-21,清算の結了等,,,2015-10-05,1,,,,,イトウテッコウジョ,0
313,2050002032555,登記記録の閉鎖等,0,2023-08-28,2023-08-21,有限会社長瀬金物店,,有限会社,茨城県,北茨城市,中郷町足洗７２７番地,,08,215,3191552,,,2023-08-21,清算の結了等,,,2015-10-05,1,,,,,ナガセカナモノテン,0
314,2060001009768,登記記録の閉鎖等,0,2023-08-28,2023-08-21,株式会社国際環境技研,,株式会社,栃木県,真岡市,上高間木２丁目１８番地１,,09,209,3214337,,,2023-08-21,清算の結了等,,,2015-10-05,1,,,,,コクサイカンキョウギケン,0
324,2110005004090,登記記録の閉鎖等,0,2023-08-28,2023-07-21,広瀬神社,,その他の設立登記法人,新潟県,五泉市,佐取２０２６番地,,15,218,9591615,,,2023-07-21,合併による解散等,3110005004107,令和５年７月２１日新潟県五泉市佐取２６６０番地若宮八幡神社（3110005004107）に合併し解散,2015-10-05,1,,,,,ヒロセジンジャ,0
335,2120001224781,登記記録の閉鎖等,0,2023-08-28,2023-08-24,株式会社ＣＯＣＯ＆ＲＩＴＺ,,株式会社,大阪府,大阪市東住吉区,南田辺１丁目１０番３９号,,27,121,5460033,,,2023-08-24,清算の結了等,,,2019-11-06,1,,,,,ココアンドリッツ,0
341,2120002074433,登記記録の閉鎖等,0,2023-08-28,2023-08-08,有限会社綜合保険サービス,,有限会社,大阪府,枚方市,香里ケ丘４丁目１６番地Ｄ５１－４０５,,27,210,5730084,,,2023-08-08,清算の結了等,,,2015-10-05,1,,,,,ソウゴウホケンサービス,0
350,2120101054856,登記記録の閉鎖等,0,2023-08-28,2023-08-25,株式会社美創テクノ,,株式会社,大阪府,堺市西区,鳳東町６丁６０２－１－８０１,,27,144,5938324,,,2023-08-25,清算の結了等,,,2016-05-30,1,,,,,ビソウテクノ,0
353,2120901011271,登記記録の閉鎖等,0,2023-08-28,2023-08-22,株式会社高谷鉄工所,00033374,株式会社,大阪府,高槻市,真上町３丁目１２番８号,,27,207,5691121,,,2023-08-22,清算の結了等,,,2015-10-05,1,,,,,タカタニテッコウショ,0
354,2120901029132,登記記録の閉鎖等,0,2023-08-28,2023-08-22,株式会社千里物流,,株式会社,大阪府,箕面市,坊島３丁目１番６号,,27,220,5620013,,,2023-08-22,清算の結了等,,,2015-10-05,1,,,,,センリブツリュウ,0
358,2130001064558,登記記録の閉鎖等,0,2023-08-28,2023-08-24,ターミガン株式会社,,株式会社,大阪府,大阪市北区,天神橋１丁目１７番２号辻ビル,00127529,27,127,5300041,,,2023-08-24,清算の結了等,,,2019-05-30,1,,,,,ターミガン,0
366,2140001113033,登記記録の閉鎖等,0,2023-08-28,2023-08-21,ＧｒｅｅｎＨｏｕｓｅ株式会社,,株式会社,兵庫県,神戸市中央区,八幡通３丁目１番１５号,,28,110,6510085,,,2023-08-21,合併による解散等,4120001229399,令和５年８月２０日神戸市中央区八幡通三丁目１番１５号Ｋｏｂｅｂｕｌｌ株式会社（4120001229399）に合併し解散,2019-03-19,1,,,,,,0
371,2180001052384,登記記録の閉鎖等,0,2023-08-28,2023-08-24,丸大青果株式会社,,株式会社,愛知県,西春日井郡豊山町,大字豊場字八反１０７番地,,23,342,4800202,,,2023-08-24,清算の結了等,,,2015-10-05,1,,,,,マルダイセイカ,0
375,2180301012410,登記記録の閉鎖等,0,2023-08-28,2023-08-23,株式会社英虞湾真珠協会エンタープライズ,,株式会社,愛知県,豊川市,八幡町本郷５２番地,,23,207,4420857,,,2023-08-23,清算の結了等,,,2015-10-05,1,,,,,アゴワンシンジュキョウカイエンタープライズ,0
380,2200003004356,登記記録の閉鎖等,0,2023-08-28,2023-08-24,飛騨高山新宮バイオマス合同会社,,合同会社,岐阜県,高山市,新宮町４３０５番地,,21,203,5060035,,,2023-08-24,清算の結了等,,,2018-12-27,1,,,,,ヒダタカヤマシングウバイオマス,0
381,2220001008308,登記記録の閉鎖等,0,2023-08-28,2023-08-04,株式会社うちくる金沢,,株式会社,石川県,金沢市,直江西１丁目２４番地１,,17,201,9208215,,,2023-08-04,合併による解散等,3230001016837,令和５年８月１日富山市西野新４７番地株式会社うちくる富山（3230001016837）に合併し解散,2015-10-05,1,,,,,ウチクルカナザワ,0
385,2240001035630,登記記録の閉鎖等,0,2023-08-28,2023-08-25,フルソーイング株式会社,,株式会社,広島県,福山市,新市町大字宮内６７２番地５,,34,207,7293104,,,2023-08-25,清算の結了等,,,2015-10-05,1,,,,,フルソーイング,0
390,2240002030457,登記記録の閉鎖等,0,2023-08-28,2023-08-24,有限会社ヤストミ,,有限会社,広島県,三次市,十日市中２丁目４番３５号,,34,209,7280012,,,2023-08-24,清算の結了等,,,2015-10-05,1,,,,,ヤストミ,0
391,2250005006742,登記記録の閉鎖等,0,2023-08-28,2023-08-14,柳井市土地開発公社,,その他の設立登記法人,山口県,柳井市,南町１丁目１０番２号,,35,212,7420031,,,2023-08-14,清算の結了等,,,2015-10-05,1,,,,,ヤナイシ,0
396,2290001068337,登記記録の閉鎖等,0,2023-08-28,2023-08-10,赤坂不動産株式会社,,株式会社,福岡県,福岡市博多区,博多駅前２丁目１１番２２号,,40,132,8120011,,,2023-08-10,清算の結了等,,,2015-10-05,1,,,,,アカサカフドウサン,0
403,2290005009535,登記記録の閉鎖等,0,2023-08-28,2023-08-07,筑後地区自動車車体整備協同組合,,その他の設立登記法人,福岡県,久留米市,高良内町４４１５－１,,40,203,8390852,,,2023-08-07,清算の結了等,,,2015-10-05,1,,,,,チクゴチクジドウシャシャタイセイビ,0
422,2430002039454,登記記録の閉鎖等,0,2023-08-28,2023-08-18,有限会社Ｓ．Ｒ．Ｍ,,有限会社,北海道,札幌市清田区,美しが丘二条２丁目３番１号,,01,110,0040812,,,2023-08-18,清算の結了等,,,2015-10-05,1,,,,,エスアールエム,0
449,3010002005654,登記記録の閉鎖等,0,2023-08-28,2023-08-21,有限会社松尾製本所,,有限会社,東京都,文京区,千駄木２丁目４１番８号,,13,105,1130022,,,2023-08-21,清算の結了等,,,2015-10-05,1,,,,,マツオセイホンジョ,0
450,3010002008748,登記記録の閉鎖等,0,2023-08-28,2023-08-21,有限会社加瀬英明事務所,,有限会社,東京都,千代田区,麹町３丁目７番地半蔵門村山ビル西館６階,00107482,13,101,1020083,,,2023-08-21,清算の結了等,,,2015-10-05,1,,,,,カセヒデアキジムショ,0
489,3011502007636,登記記録の閉鎖等,0,2023-08-28,2023-08-22,有限会社オフィスミハシ,,有限会社,東京都,荒川区,東尾久８丁目１３番３号,,13,118,1160012,,,2023-08-22,清算の結了等,,,2015-10-05,1,,,,,オフィスミハシ,0
500,3020001084483,登記記録の閉鎖等,0,2023-08-28,2023-08-17,株式会社ＮＳ　Ｃｒｅａｔｉｏｎ,,株式会社,神奈川県,横浜市神奈川区,菅田町６６８番地５,,14,102,2210864,,,2023-08-17,清算の結了等,,,2015-10-05,1,,,,,,0
504,3020001115494,登記記録の閉鎖等,0,2023-08-28,2023-08-18,株式会社ＣＯＭＦＹ,,株式会社,神奈川県,横浜市南区,東蒔田町９番地１１,,14,105,2320045,,,2023-08-18,清算の結了等,,,2016-03-31,1,,,,,コンフィ,0
510,3020002094060,登記記録の閉鎖等,0,2023-08-28,2023-08-18,有限会社オノテック,,有限会社,神奈川県,川崎市麻生区,下麻生２丁目４２番１２号,,14,137,2150022,,,2023-08-18,清算の結了等,,,2015-10-05,1,,,,,オノテック,0
514,3021001025592,登記記録の閉鎖等,0,2023-08-28,2023-08-23,株式会社司コーポレーション,,株式会社,神奈川県,大和市,中央林間６丁目１番６号,,14,213,2420007,,,2023-08-23,清算の結了等,,,2015-10-05,1,,,,,,0
524,3030002008449,登記記録の閉鎖等,0,2023-08-28,2023-08-01,大栄興業有限会社,,有限会社,埼玉県,さいたま市大宮区,宮町５丁目２１番地,,11,103,3300802,,,2023-08-01,清算の結了等,,,2015-10-05,1,,,,,ダイエイコウギョウ,0
525,3030002038074,登記記録の閉鎖等,0,2023-08-28,2023-07-31,有限会社三栄工業,,有限会社,埼玉県,久喜市,所久喜８３５番地７,,11,232,3460034,,,2023-07-31,清算の結了等,,,2015-10-05,1,,,,,サンエイコウギョウ,0
535,3040002023983,登記記録の閉鎖等,0,2023-08-28,2023-08-04,有限会社東明ハウス,,有限会社,千葉県,船橋市,宮本１丁目２１番８号,,12,204,2730003,,,2023-08-04,清算の結了等,,,2015-10-05,1,,,,,トウメイハウス,0
536,3040002049475,登記記録の閉鎖等,0,2023-08-28,2023-08-04,有限会社夢工房,,有限会社,千葉県,松戸市,新作２番地,,12,207,2710052,,,2023-08-04,清算の結了等,,,2015-10-05,1,,,,,ユメコウボウ,0
553,3080401004589,登記記録の閉鎖等,0,2023-08-28,2023-08-24,株式会社富士工具製作所,,株式会社,静岡県,浜松市西区,馬郡町３７６２番地の３３,,22,133,4310203,,,2023-08-24,清算の結了等,,,2015-10-05,1,,,,,フジコウグセイサクショ,0
558,3110001028480,登記記録の閉鎖等,0,2023-08-28,2023-08-23,株式会社魚沼倶楽部,,株式会社,新潟県,十日町市,通り山子９５０番地１,,15,210,9498415,,,2023-08-23,清算の結了等,,,2015-10-05,1,,,,,ウオヌマクラブ,0
561,3110002005768,登記記録の閉鎖等,0,2023-08-28,2023-08-22,有限会社古川鮮魚店,,有限会社,新潟県,新潟市中央区,文京町９番２５号,,15,103,9518153,,,2023-08-22,清算の結了等,,,2015-10-05,1,,,,,フルカワセンギョテン,0
564,3120001046102,登記記録の閉鎖等,0,2023-08-28,2023-08-01,株式会社奈良技術センター,,株式会社,大阪府,大阪市西区,西本町２丁目３－１０,,27,106,5500005,,,2023-08-01,合併による解散等,5120001045804,令和５年８月１日大阪市西区西本町２－３－１０東洋特殊鋼業株式会社（5120001045804）に合併し、解散,2015-10-05,1,,,,,ナラギジュツセンター,0
584,3140001028321,登記記録の閉鎖等,0,2023-08-28,2023-08-23,サボネリーズアンドカンパニー株式会社,,株式会社,兵庫県,西宮市,苦楽園四番町１８番２２号,,28,204,6620088,,,2023-08-23,清算の結了等,,,2015-10-05,1,,,,,サボネリーズアンドカンパニー,0
596,3160002006613,登記記録の閉鎖等,0,2023-08-28,2023-08-24,有限会社スミダヤ,,有限会社,滋賀県,長浜市,南高田町３２番地の３,,25,203,5260032,,,2023-08-24,清算の結了等,,,2015-10-05,1,,,,,スミダヤ,0
599,3180002008293,登記記録の閉鎖等,0,2023-08-28,2023-08-24,大同重機有限会社,,有限会社,愛知県,名古屋市昭和区,狭間町２４番地,,23,107,4660062,,,2023-08-24,合併による解散等,2180001008650,令和５年８月２４日名古屋市昭和区北山本町一丁目３番地大同基礎工業株式会社（2180001008650）に合併し解散,2015-10-05,1,,,,,ダイドウジュウキ,0
600,3180002081084,登記記録の閉鎖等,0,2023-08-28,2023-08-22,有限会社トップストゥリーム,,有限会社,愛知県,稲沢市,下津町西国府３４番地１,,23,220,4928075,,,2023-08-22,清算の結了等,,,2015-10-05,1,,,,,トップストゥリーム,0
602,3180003022483,登記記録の閉鎖等,0,2023-08-28,2023-08-24,合同会社若葉商運,,合同会社,愛知県,名古屋市北区,尾上町１番地の２,,23,103,4620863,,,2023-08-24,清算の結了等,,,2021-05-11,1,,,,,ワカバショウウン,0
605,3180303002375,登記記録の閉鎖等,0,2023-08-28,2023-08-18,合同会社マリアージュ,,合同会社,愛知県,安城市,相生町７番１号,,23,212,4460037,,,2023-08-18,清算の結了等,,,2015-10-05,1,,,,,マリアージュ,0
607,3190001006033,登記記録の閉鎖等,0,2023-08-28,2023-08-24,株式会社みのや,,株式会社,三重県,鈴鹿市,北江島町１９番８号,,24,207,5100232,,,2023-08-24,清算の結了等,,,2015-10-05,1,,,,,ミノヤ,0
614,3240003005597,登記記録の閉鎖等,0,2023-08-28,2023-08-23,合同会社パルコ,,合同会社,広島県,東広島市,西条町吉行５４１番地１,,34,212,7390002,,,2023-08-23,清算の結了等,,,2022-04-25,1,,,,,パルコ,0
618,3260003003203,登記記録の閉鎖等,0,2023-08-28,2023-08-25,合同会社Ｔ‐ＬＩＮＥ,,合同会社,岡山県,岡山市東区,北幸田５２７番地２,,33,103,7048134,,,2023-08-25,清算の結了等,,,2020-05-28,1,,,,,ティーライン,0
619,3290001039452,登記記録の閉鎖等,0,2023-08-28,2023-08-10,株式会社一進,,株式会社,福岡県,糟屋郡宇美町,四王寺坂１丁目９番２１号,,40,341,8112103,,,2023-08-10,清算の結了等,,,2015-10-05,1,,,,,,0
635,3350002002279,登記記録の閉鎖等,0,2023-08-28,2023-08-14,有限会社情景デザイン,,有限会社,宮崎県,宮崎市,生目台西５丁目１４番地１,,45,201,8800943,,,2023-08-14,清算の結了等,,,2015-10-05,1,,,,,ジョウケイデザイン,0
640,3370002004513,登記記録の閉鎖等,0,2023-08-28,2023-08-23,有限会社石橋屋,,有限会社,宮城県,仙台市若林区,舟丁６３番地,,04,103,9840806,,,2023-08-23,清算の結了等,,,2015-10-05,1,,,,,イシバシヤ,0
653,3430002035477,登記記録の閉鎖等,0,2023-08-28,2023-08-10,有限会社ウッドベル,,有限会社,北海道,札幌市白石区,栄通１０丁目７番２２号,,01,104,0030021,,,2023-08-10,清算の結了等,,,2015-10-05,1,,,,,ウッドベル,0
683,4010601036090,登記記録の閉鎖等,0,2023-08-28,2023-08-03,ＳＰＡＣＥＴＲＡＤＥ株式会社,,株式会社,東京都,新宿区,東五軒町６番１９－２０１号,,13,104,1620813,,,2023-08-03,合併による解散等,7030001092845,令和５年７月１１日さいたま市北区日進町三丁目５５８番地４株式会社タカマ（7030001092845）に合併し解散,2015-10-05,1,,,,,スペーストレード,0
684,4010601050802,登記記録の閉鎖等,0,2023-08-28,2023-08-02,フルライフ株式会社,,株式会社,東京都,港区,新橋１丁目１２－９－１０Ｆ,,13,103,1050004,,,2023-08-02,合併による解散等,8010401150261,令和５年８月１日東京都港区新橋１－１２－９－１０ＦＰＥＡＣＥ株式会社（8010401150261）に合併し解散,2016-12-07,1,,,,,フルライフ,0
687,4010603005894,登記記録の閉鎖等,0,2023-08-28,2023-08-03,合同会社ポコアポコ,,合同会社,千葉県,浦安市,東野２丁目１０番５号,,12,227,2790042,,,2023-08-03,清算の結了等,,,2015-10-05,1,,,,,ポコアポコ,0
693,4010901027260,登記記録の閉鎖等,0,2023-08-28,2023-08-23,関八州興業株式会社,,株式会社,東京都,世田谷区,南烏山２丁目２０番１４号,,13,112,1570062,,,2023-08-23,清算の結了等,,,2015-10-05,1,,,,,カンハッシュウコウギョウ,0
704,4011002005528,登記記録の閉鎖等,0,2023-08-28,2023-08-18,有限会社重山興産,,有限会社,東京都,渋谷区,代々木３丁目４４番８－３０８号,,13,113,1510053,,,2023-08-18,清算の結了等,,,2015-10-05,1,,,,,シゲヤマコウサン,0
718,4012301007082,登記記録の閉鎖等,0,2023-08-28,2023-08-23,株式会社マイスターグループ,,株式会社,大阪府,豊中市,新千里南町３丁目３番１－１２０１号,,27,203,5600084,,,2023-08-23,清算の結了等,,,2015-10-05,1,,,,,マイスターグループ,0
732,4020002094092,登記記録の閉鎖等,0,2023-08-28,2023-08-18,有限会社大野建設,,有限会社,神奈川県,川崎市麻生区,向原２丁目２４番９号,,14,137,2150007,,,2023-08-18,清算の結了等,,,2015-10-05,1,,,,,オオノケンセツ,0
741,4021001056109,登記記録の閉鎖等,0,2023-08-28,2023-08-04,株式会社小田原・箱根ファーム,,株式会社,神奈川県,小田原市,浜町２丁目６番２６号,,14,206,2500004,,,2023-08-04,合併による解散等,2021001049196,令和５年８月１日神奈川県小田原市入生田１６５番地株式会社リバリング機工（2021001049196）に合併して解散,2015-10-05,1,,,,,オダワラハコネファーム,0
751,4030002007854,登記記録の閉鎖等,0,2023-08-28,2023-08-02,セントラルホーム有限会社,,有限会社,埼玉県,さいたま市北区,日進町１丁目２３７番地の２,,11,102,3310823,,,2023-08-02,清算の結了等,,,2015-10-05,1,,,,,セントラルホーム,0
760,4040001072196,登記記録の閉鎖等,0,2023-08-28,2023-08-21,ＢＶ清算準備株式会社,,株式会社,東京都,千代田区,丸の内２丁目２番１号岸本ビルディング２階,,13,101,1000005,,,2023-08-21,清算の結了等,,,2015-10-05,1,,,,,ビーブイセイサンジュンビ,0
763,4040001085207,登記記録の閉鎖等,0,2023-08-28,2023-08-07,ゲートウエイ株式会社,,株式会社,千葉県,木更津市,大和３丁目４番３号グランポート木更津６階,,12,206,2920805,,,2023-08-07,清算の結了等,,,2015-10-05,1,,,,,ゲートウエイ,0
766,4040003020079,登記記録の閉鎖等,0,2023-08-28,2023-08-03,合同会社Ｏｎｌｙ　Ｏｎｅ　Ｌｉｆｅ,,合同会社,千葉県,八千代市,大和田新田９１１番地１サンクタス八千代緑が丘Ｂ－１０９号,,12,221,2760046,,,2023-08-03,清算の結了等,,,2022-05-23,1,,,,,オンリーワンライフ,0
768,4050001000420,登記記録の閉鎖等,0,2023-08-28,2023-08-24,板橋印刷株式会社,,株式会社,茨城県,水戸市,浜田１丁目５番２３号,,08,201,3100812,,,2023-08-24,清算の結了等,,,2015-10-05,1,,,,,イタバシインサツ,0
774,4050003000609,登記記録の閉鎖等,0,2023-08-28,2023-08-17,合名会社米藤金物店,,合名会社,茨城県,東茨城郡大洗町,磯浜町７８１番地,,08,309,3111301,,,2023-08-17,清算の結了等,,,2015-10-05,1,,,,,コメトウカナモノテン,0
775,4050003002555,登記記録の閉鎖等,0,2023-08-28,2023-08-23,合同会社茨城浄化槽管理サービス,,合同会社,茨城県,水戸市,城東３丁目２番５３号,,08,201,3100012,,,2023-08-23,清算の結了等,,,2015-10-05,1,,,,,イバラキジョウカソウカンリサービス,0
781,4100001003970,登記記録の閉鎖等,0,2023-08-28,2023-08-22,株式会社松下ストアー,,株式会社,長野県,上水内郡小川村,大字高府８４８０番地,,20,588,3813302,,,2023-08-22,清算の結了等,,,2015-10-05,1,,,,,マツシタストアー,0
788,4120001066165,登記記録の閉鎖等,0,2023-08-28,2023-08-25,株式会社もぐら庵,,株式会社,大阪府,大阪市北区,南森町１丁目４番２８号ブールバール南森町２０２号,,27,127,5300054,,,2023-08-25,清算の結了等,,,2015-10-05,1,,,,,モグラアン,0
797,4120001248993,登記記録の閉鎖等,0,2023-08-28,2023-08-25,株式会社ＴＧＲＯ,,株式会社,大阪府,大阪市中央区,道頓堀１丁目東３番２０号エンポリウムビル４０１,,27,128,5420071,,,2023-08-25,清算の結了等,,,2022-09-22,1,,,,,トグロ,0
807,4120101053352,登記記録の閉鎖等,0,2023-08-28,2023-08-24,株式会社ＡＭＧ,,株式会社,大阪府,和泉市,鶴山台１丁目２番１９号,,27,219,5940013,,,2023-08-24,清算の結了等,,,2015-10-05,1,,,,,エイエムジー,0
810,4120901015543,登記記録の閉鎖等,0,2023-08-28,2023-08-24,株式会社エムズ,,株式会社,大阪府,茨木市,彩都あさぎ２丁目８番２１－９０９,,27,211,5670085,,,2023-08-24,清算の結了等,,,2015-10-05,1,,,,,エムズ,0
811,4120901017820,登記記録の閉鎖等,0,2023-08-28,2023-08-23,株式会社キャルパン,,株式会社,大阪府,吹田市,江坂町４丁目１３番６１４号,,27,205,5640063,,,2023-08-23,清算の結了等,,,2015-10-05,1,,,,,キャルパン,0
819,4140002068191,登記記録の閉鎖等,0,2023-08-28,2023-08-23,有限会社アフターファイブ,,有限会社,兵庫県,宝塚市,山手台西２丁目２９番９号,,28,214,6650886,,,2023-08-23,清算の結了等,,,2015-10-05,1,,,,,アフターファイブ,0
829,4180303004908,登記記録の閉鎖等,0,2023-08-28,2023-08-25,合同会社Ｃｏｌｏｒｅａｒ,,合同会社,愛知県,碧南市,栄町２丁目１４番地,,23,209,4470877,,,2023-08-25,清算の結了等,,,2021-02-26,1,,,,,コロレアール,0
838,4290001088779,登記記録の閉鎖等,0,2023-08-28,2023-08-14,株式会社吉本企画,,株式会社,福岡県,糟屋郡新宮町,湊坂１丁目４－３,,40,345,8110114,,,2023-08-14,清算の結了等,,,2020-04-30,1,,,,,ヨシモトキカク,0
841,4290003006615,登記記録の閉鎖等,0,2023-08-28,2023-08-10,合同会社永川屋,,合同会社,福岡県,福岡市東区,箱崎３丁目３６番３３－５０６号,,40,131,8120053,,,2023-08-10,清算の結了等,,,2016-08-04,1,,,,,ナガカワヤ,0
862,4350003003449,登記記録の閉鎖等,0,2023-08-28,2023-08-15,Ｆ．Ａ．Ｃ企画合同会社,,合同会社,宮崎県,宮崎市,橘通東４丁目１－４河北ビル１階,,45,201,8800805,,,2023-08-15,清算の結了等,,,2019-10-28,1,,,,,エフエーシーキカク,0
864,4360003004727,登記記録の閉鎖等,0,2023-08-28,2023-08-21,合資会社東栄建設,,合資会社,沖縄県,国頭郡東村,字有銘５６０番地,,47,303,9051206,,,2023-08-21,清算の結了等,,,2015-10-05,1,,,,,トウエイケンセツ,0
897,5010001193903,登記記録の閉鎖等,0,2023-08-28,2023-08-22,株式会社ニシナプロモーション,,株式会社,東京都,千代田区,神田小川町３丁目２６番地１１小林ビル１階,,13,101,1010052,,,2023-08-22,清算の結了等,,,2018-08-07,1,,,,,ニシナプロモーション,0
904,5010103000908,登記記録の閉鎖等,0,2023-08-28,2023-08-15,スーパースター合同会社,,合同会社,東京都,八王子市,北野町５５５－２６,,13,201,1920906,,,2023-08-15,清算の結了等,,,2015-10-28,1,,,,,,0
905,5010401039788,登記記録の閉鎖等,0,2023-08-28,2023-08-01,株式会社アドソルト,,株式会社,東京都,港区,赤坂２丁目１４番５号Ｄａｉｗａ赤坂ビル,,13,103,1070052,,,2023-08-01,合併による解散等,6010401015128,令和５年８月１日東京都港区赤坂二丁目１４番５号Ｄａｉｗａ赤坂ビル株式会社スパイス（6010401015128）に合併し解散,2015-10-05,1,,,,,アドソルト,0
947,5011003010410,登記記録の閉鎖等,0,2023-08-28,2023-08-24,Ｔｒａｉｔ合同会社,,合同会社,東京都,新宿区,原町３丁目４０番地１グローリオ新宿夏目坂５０１,,13,104,1620053,,,2023-08-24,清算の結了等,,,2019-10-07,1,,,,,トレイト,0
962,5011802023439,登記記録の閉鎖等,0,2023-08-28,2023-08-24,有限会社あとむ工房,,有限会社,東京都,葛飾区,東金町３丁目３１番４号,,13,122,1250041,,,2023-08-24,清算の結了等,,,2015-10-05,1,,,,,アトムコウボウ,0
983,5020005014303,登記記録の閉鎖等,0,2023-08-28,2023-08-17,一般社団法人エッセンシャルブレイン協会,,その他の設立登記法人,神奈川県,横浜市神奈川区,白幡町８番１２号１Ｆ,,14,102,2210076,,,2023-08-17,清算の結了等,,,2019-09-06,1,,,,,エッセンシャルブレインキョウカイ,0
988,5021003006416,登記記録の閉鎖等,0,2023-08-28,2023-08-24,合同会社上野事務所,,合同会社,神奈川県,座間市,東原５丁目１番３－１０１号さがみ野さくら,,14,216,2520004,,,2023-08-24,清算の結了等,,,2017-01-17,1,,,,,ウエノジムショ,0
997,5030002014065,登記記録の閉鎖等,0,2023-08-28,2023-08-01,有限会社山下電気,,有限会社,埼玉県,さいたま市北区,日進町１丁目６２７番地,,11,102,3310823,,,2023-08-01,清算の結了等,,,2015-10-05,1,,,,,ヤマシタデンキ,0
1006,5040002081162,登記記録の閉鎖等,0,2023-08-28,2023-07-31,有限会社信和恒産,,有限会社,千葉県,茂原市,茂原１０３番地の１０,,12,210,2970026,,,2023-07-31,清算の結了等,,,2015-10-05,1,,,,,シンワコウサン,0
1007,5040003014625,登記記録の閉鎖等,0,2023-08-28,2023-08-07,合同会社ｔｒｕｅ　ｗｉｄｅ,,合同会社,千葉県,船橋市,前原西２丁目２１番５番地三興ビル２Ｆ,,12,204,2740825,,,2023-08-07,清算の結了等,,,2020-01-08,1,,,,,トゥルーワイド,0
1025,5090001001975,登記記録の閉鎖等,0,2023-08-28,2023-08-21,株式会社保坂辰夫商店,,株式会社,山梨県,甲府市,中央４丁目５番２５号,,19,201,4000032,,,2023-08-21,清算の結了等,,,2015-10-05,1,,,,,ホサカタツオショウテン,0
1027,5100001006774,登記記録の閉鎖等,0,2023-08-28,2023-08-21,郡山サッシセンター株式会社,,株式会社,長野県,長野市,大字東和田８０６番地,,20,201,3810038,,,2023-08-21,合併による解散等,8100001003026,令和５年８月２１日長野市東和田８０６番地富国物産株式会社（8100001003026）に合併し解散,2015-10-05,1,,,,,コオリヤマサッシセンター,0
1033,5120001060654,登記記録の閉鎖等,0,2023-08-28,2023-08-24,株式会社いすず写眞製版所,00028329,株式会社,大阪府,豊中市,東豊中町６丁目８－７,,27,203,5600003,,,2023-08-24,清算の結了等,,,2015-10-05,1,,,,,イスズシャシンセイハンショ,0
1034,5120001149299,登記記録の閉鎖等,0,2023-08-28,2023-08-25,河本技建工業株式会社,,株式会社,大阪府,枚方市,中宮山戸町６番２２号,,27,210,5730011,,,2023-08-25,清算の結了等,,,2015-10-05,1,,,,,カワモトギケンコウギョウ,0
1050,5122001016272,登記記録の閉鎖等,0,2023-08-28,2023-08-10,株式会社津久見工務店,,株式会社,大阪府,四條畷市,岡山２丁目９番４号,,27,229,5750002,,,2023-08-10,清算の結了等,,,2015-10-05,1,,,,,ツクミコウムテン,0
1069,5140002038763,登記記録の閉鎖等,0,2023-08-28,2023-08-23,有限会社こんぺいとう,,有限会社,兵庫県,加古川市,尾上町口里６９３番地の５,,28,210,6750022,,,2023-08-23,清算の結了等,,,2015-10-05,1,,,,,コンペイトウ,0
1072,5150003002346,登記記録の閉鎖等,0,2023-08-28,2023-08-25,合同会社五條酪農ヘルパー,,合同会社,奈良県,大和郡山市,丹後庄町４７５－１,,29,203,6391122,,,2023-08-25,清算の結了等,,,2021-03-24,1,,,,,ゴジョウラクノウヘルパー,0
1075,5160002006322,登記記録の閉鎖等,0,2023-08-28,2023-08-24,有限会社エコーテック,,有限会社,滋賀県,長浜市,南田附町２７５番地の２２,,25,203,5260844,,,2023-08-24,清算の結了等,,,2015-10-05,1,,,,,エコーテック,0
1080,5180001118645,登記記録の閉鎖等,0,2023-08-28,2023-08-23,株式会社豊進興業,,株式会社,愛知県,東海市,高横須賀町１丁目８５番地サンシャイン横須賀２０１号,,23,222,4770037,,,2023-08-23,清算の結了等,,,2015-10-05,1,,,,,ホウシンコウギョウ,0
1089,5230002006372,登記記録の閉鎖等,0,2023-08-28,2023-08-25,有限会社いんぐ舎,,有限会社,富山県,富山市,下大久保１６６０番地の６２,,16,201,9392251,,,2023-08-25,清算の結了等,,,2015-10-05,1,,,,,イングシャ,0
1096,5250005001633,登記記録の閉鎖等,0,2023-08-28,2023-08-22,興禪院,,その他の設立登記法人,山口県,防府市,大字佐野９１３番地,,35,206,7470067,,,2023-08-22,清算の結了等,,,2015-10-05,1,,,,,コウゼンイン,0
1101,5280001004406,登記記録の閉鎖等,0,2023-08-28,2023-08-21,株式会社浜松,,株式会社,島根県,浜田市,大辻町６４番地,00117782,32,202,6970053,,,2023-08-21,清算の結了等,,,2019-10-02,1,,,,,ハママツ,0
1115,5360003006689,登記記録の閉鎖等,0,2023-08-28,2023-08-23,合同会社コネクション,,合同会社,沖縄県,宜野湾市,大山２丁目２１－５、１Ｆ,,47,205,9012223,,,2023-08-23,清算の結了等,,,2015-10-05,1,,,,,コネクション,0
1126,5430002040888,登記記録の閉鎖等,0,2023-08-28,2023-08-22,有限会社ノーステックコンサルタント,,有限会社,北海道,札幌市白石区,菊水八条３丁目９番８号,,01,104,0030808,,,2023-08-22,清算の結了等,,,2015-10-05,1,,,,,ノーステックコンサルタント,0
1134,5500001000142,登記記録の閉鎖等,0,2023-08-28,2023-08-25,北条石油株式会社,,株式会社,愛媛県,松山市,北条辻６０７番地の８,00007228,38,201,7992430,,,2023-08-25,清算の結了等,,,2015-10-05,1,,,,,ホウジョウセキユ,0
1144,6010001153708,登記記録の閉鎖等,0,2023-08-28,2023-08-21,新生クレアシオンパートナーズ株式会社,,株式会社,東京都,中央区,日本橋室町２丁目４番３号,,13,102,1030022,,,2023-08-21,清算の結了等,,,2015-10-05,1,,,,,シンセイクレアシオンパートナーズ,0
1198,6011501028151,登記記録の閉鎖等,0,2023-08-28,2023-08-23,甜甜株式会社,,株式会社,東京都,荒川区,南千住１丁目４５番８－４０３号Ａ,,13,118,1160003,,,2023-08-23,清算の結了等,,,2022-06-17,1,,,,,テンテン,0
1200,6011702006633,登記記録の閉鎖等,0,2023-08-28,2023-08-23,有限会社双立機工,,有限会社,東京都,江戸川区,瑞江２丁目３４番１８号,,13,123,1320011,,,2023-08-23,清算の結了等,,,2015-10-05,1,,,,,ソウリツキコウ,0
1201,6011801003630,登記記録の閉鎖等,0,2023-08-28,2023-08-24,アーセーレギュレイト株式会社,,株式会社,東京都,葛飾区,奥戸１丁目１２番１－３０２号,,13,122,1240022,,,2023-08-24,清算の結了等,,,2015-10-05,1,,,,,アーセーレギュレイト,0
1209,6013301034791,登記記録の閉鎖等,0,2023-08-28,2023-08-04,株式会社トーケン,,株式会社,千葉県,市川市,南大野２丁目２０－７－１０２,,12,203,2720804,,,2023-08-04,清算の結了等,,,2015-10-05,1,,,,,トーケン,0
1210,6013302012664,登記記録の閉鎖等,0,2023-08-28,2023-08-24,有限会社泰進社,,有限会社,東京都,豊島区,目白５丁目５番１５号,,13,116,1710031,,,2023-08-24,清算の結了等,,,2015-10-05,1,,,,,タイシンシャ,0
1214,6020001023661,登記記録の閉鎖等,0,2023-08-28,2023-08-17,株式会社タキザワ,,株式会社,神奈川県,横浜市神奈川区,神大寺２丁目２９番２５号,,14,102,2210801,,,2023-08-17,清算の結了等,,,2015-10-05,1,,,,,タキザワ,0
1235,6021002045389,登記記録の閉鎖等,0,2023-08-28,2023-08-24,有限会社中川設計,,有限会社,神奈川県,海老名市,国分南１丁目３番３０号,,14,215,2430405,,,2023-08-24,清算の結了等,,,2015-10-05,1,,,,,,0
1237,6030001016219,登記記録の閉鎖等,0,2023-08-28,2023-07-31,株式会社アシュテ,,株式会社,埼玉県,さいたま市緑区,東大門３丁目１９番地２３,,11,109,3360964,,,2023-07-31,清算の結了等,,,2015-10-05,1,,,,,アシュテ,0
1252,6040002073316,登記記録の閉鎖等,0,2023-08-28,2023-08-04,有限会社三愛クリーニング,,有限会社,千葉県,市原市,辰巳台東３丁目２６番地の３,,12,219,2900003,,,2023-08-04,清算の結了等,,,2015-10-05,1,,,,,,0
1253,6040003012883,登記記録の閉鎖等,0,2023-08-28,2023-08-23,ＴＩアセット合同会社,,合同会社,東京都,中央区,日本橋茅場町３丁目６番４－８０６号室,,13,102,1030025,,,2023-08-23,合併による解散等,1040003010371,令和５年８月１日千葉県木更津市請西東三丁目２番地２ＲＩアセット合同会社（1040003010371）に合併し解散,2019-02-08,1,,,,,ティーアイアセット,0
1260,6060001017817,登記記録の閉鎖等,0,2023-08-28,2023-08-18,株式会社エコベアー,,株式会社,栃木県,栃木市,岩舟町静２６０番地２,,09,203,3294307,,,2023-08-18,清算の結了等,,,2015-10-05,1,,,,,エコベアー,0
1262,6060002008311,登記記録の閉鎖等,0,2023-08-28,2023-08-18,有限会社丸善,,有限会社,栃木県,宇都宮市,鶴田町２１８６番地,,09,201,3200851,,,2023-08-18,清算の結了等,,,2015-10-05,1,,,,,マルゼン,0
1263,6060003001281,登記記録の閉鎖等,0,2023-08-28,2023-08-18,片柳合名会社,,合名会社,栃木県,佐野市,葛生西２丁目１番３０号,,09,204,3270507,,,2023-08-18,清算の結了等,,,2015-10-05,1,,,,,,0
1264,6060005000983,登記記録の閉鎖等,0,2023-08-28,2023-08-18,医療法人彌生会,,その他の設立登記法人,栃木県,宇都宮市,一の沢２丁目１番４３号,,09,201,3200047,,,2023-08-18,清算の結了等,,,2015-10-05,1,,,,,ヤヨイカイ,0
1270,6080101018416,登記記録の閉鎖等,0,2023-08-28,2023-08-24,高見商店株式会社,00067871,株式会社,静岡県,裾野市,佐野６６０番地の９,,22,220,4101118,,,2023-08-24,清算の結了等,,,2015-10-05,1,,,,,タカミショウテン,0
1278,6120001086764,登記記録の閉鎖等,0,2023-08-28,2023-08-24,日創建設株式会社,,株式会社,大阪府,大阪市中央区,内淡路町１丁目３番６号,,27,128,5400038,,,2023-08-24,清算の結了等,,,2015-10-05,1,,,,,ニッソウケンセツ,0
1293,6140001041206,登記記録の閉鎖等,0,2023-08-28,2023-08-23,東洋テクニカ株式会社,,株式会社,兵庫県,丹波市,氷上町成松１５１番地,,28,223,6693601,,,2023-08-23,清算の結了等,,,2015-10-05,1,,,,,トウヨウテクニカ,0
1304,6180001041821,登記記録の閉鎖等,0,2023-08-28,2023-08-23,株式会社ランドーナージャパン,,株式会社,愛知県,名古屋市中区,新栄２丁目１番９号,,23,106,4600007,,,2023-08-23,清算の結了等,,,2015-10-05,1,,,,,ランドーナージャパン,0
1308,6180002069515,登記記録の閉鎖等,0,2023-08-28,2023-08-22,富塚産業有限会社,00073335,有限会社,愛知県,北名古屋市,久地野河原１５４番地,,23,234,4810012,,,2023-08-22,清算の結了等,,,2015-10-05,1,,,,,トミヅカサンギョウ,0
1312,6180301035523,登記記録の閉鎖等,0,2023-08-28,2023-08-24,株式会社Ｚ＆Ｃ,,株式会社,愛知県,安城市,住吉町３丁目１－１６・２０１号室,,23,212,4460072,,,2023-08-24,清算の結了等,,,2021-10-18,1,,,,,ゼットアンドシー,0
1316,6180302027742,登記記録の閉鎖等,0,2023-08-28,2023-08-23,有限会社名倉屋金物店,,有限会社,愛知県,新城市,字屋敷１３１番地の７,,23,221,4411368,,,2023-08-23,清算の結了等,,,2015-10-05,1,,,,,ナグラヤカナモノテン,0
1317,6200002021588,登記記録の閉鎖等,0,2023-08-28,2023-08-24,有限会社松田商事,,有限会社,岐阜県,土岐市,妻木町２１８３番地の１４,,21,212,5095301,,,2023-08-24,清算の結了等,,,2015-10-05,1,,,,,,0
1319,6220002014953,登記記録の閉鎖等,0,2023-08-28,2023-08-23,有限会社市村合繊,,有限会社,石川県,羽咋郡宝達志水町,北川尻メ１番地の７１,,17,386,9291332,,,2023-08-23,清算の結了等,,,2015-10-05,1,,,,,イチムラゴウセン,0
1326,6250001014646,登記記録の閉鎖等,0,2023-08-28,2023-08-21,株式会社貴飯ファーム,,株式会社,山口県,下関市,菊川町大字貴飯８２１番地,,35,201,7500325,,,2023-08-21,清算の結了等,,,2015-10-05,1,,,,,キバファーム,0
1329,6290001076864,登記記録の閉鎖等,0,2023-08-28,2023-08-15,株式会社アール,,株式会社,福岡県,福岡市中央区,今泉１丁目２番３０号天神プレイスイースト８０１,,40,133,8100021,,,2023-08-15,清算の結了等,,,2017-02-24,1,,,,,アール,0
1336,6320001015975,登記記録の閉鎖等,0,2023-08-28,2023-08-25,株式会社リギーロ,,株式会社,大分県,大分市,千代町１丁目２番１７号,,44,201,8700033,,,2023-08-25,清算の結了等,,,2017-10-19,1,,,,,,0
1345,6340001008556,登記記録の閉鎖等,0,2023-08-28,2023-08-24,西部開発コンサルタント株式会社,,株式会社,鹿児島県,薩摩川内市,原田町１９番１６号,,46,215,8950074,,,2023-08-24,清算の結了等,,,2015-10-05,1,,,,,セイブカイハツコンサルタント,0
1346,6340001014934,登記記録の閉鎖等,0,2023-08-28,2023-08-24,株式会社大口組,,株式会社,鹿児島県,志布志市,有明町伊崎田８８９８番地４,00102674,46,221,8997401,,,2023-08-24,清算の結了等,,,2015-10-05,1,,,,,オオクチグミ,0
1357,6390002013807,登記記録の閉鎖等,0,2023-08-28,2023-08-23,有限会社まぐろや,,有限会社,山形県,米沢市,中央１丁目１３番４５号,,06,202,9920045,,,2023-08-23,清算の結了等,,,2015-10-05,1,,,,,マグロヤ,0
1364,6460002001564,登記記録の閉鎖等,0,2023-08-28,2023-08-25,有限会社総合サービスヤマヨシ興業,,有限会社,北海道,釧路市,鳥取北１０丁目１９番７号,,01,206,0840907,,,2023-08-25,清算の結了等,,,2015-10-05,1,,,,,,0
1365,6462502000426,登記記録の閉鎖等,0,2023-08-28,2023-08-24,有限会社高桑商店,,有限会社,北海道,標津郡標津町,北一条西２丁目３番２号,,01,693,0861631,,,2023-08-24,清算の結了等,,,2023-07-31,1,,,,,タカクワショウテン,0
1369,6500005002282,登記記録の閉鎖等,0,2023-08-28,2023-07-28,天理教千里口分教会,,その他の設立登記法人,愛媛県,伊予郡砥部町,川登１２４４番地,,38,402,7912143,,,2023-07-28,合併による解散等,7500005002281,令和５年７月２８日愛媛県伊予郡砥部町大南５５４番地天理教砥部分教会（7500005002281）に合併し解散,2015-10-05,1,,,,,,0
1393,7010102002341,登記記録の閉鎖等,0,2023-08-28,2023-08-21,有限会社ケイ,,有限会社,東京都,八王子市,暁町１丁目３０番６号,,13,201,1920043,,,2023-08-21,清算の結了等,,,2015-10-05,1,,,,,ケイ,0
1395,7010401056187,登記記録の閉鎖等,0,2023-08-28,2023-08-01,株式会社セサミ,,株式会社,東京都,港区,赤坂２丁目１４番５号Ｄａｉｗａ赤坂ビル,,13,103,1070052,,,2023-08-01,合併による解散等,6010401015128,令和５年８月１日東京都港区赤坂二丁目１４番５号Ｄａｉｗａ赤坂ビル株式会社スパイス（6010401015128）に合併し解散,2015-10-05,1,,,,,セサミ,0
1435,7013301042570,登記記録の閉鎖等,0,2023-08-28,2023-08-24,東雲商事株式会社,,株式会社,東京都,新宿区,北新宿１丁目２８番３－３０１号,,13,104,1690074,,,2023-08-24,清算の結了等,,,2018-07-18,1,,,,,トウウンショウジ,0
1467,7060001030736,登記記録の閉鎖等,0,2023-08-28,2023-08-18,株式会社ＯＭＳトレーディング,,株式会社,栃木県,小山市,大字雨ケ谷新田７６番地１１,,09,208,3230824,,,2023-08-18,清算の結了等,,,2018-07-17,1,,,,,オーエムエストレーディング,0
1472,7080401023560,登記記録の閉鎖等,0,2023-08-28,2023-08-28,株式会社ミガーズ,,株式会社,静岡県,浜松市北区,新都田２丁目３２番２号,,22,135,4312103,,,2023-08-28,清算の結了等,,,2019-04-03,1,,,,,ミガーズ,0
1473,7080401026489,登記記録の閉鎖等,0,2023-08-28,2023-08-18,株式会社イスコ,,株式会社,静岡県,浜松市中区,佐藤１丁目２５番２１号,,22,131,4300807,,,2023-08-18,清算の結了等,,,2023-05-24,1,,,,,イスコ,0
1476,7100001007449,登記記録の閉鎖等,0,2023-08-28,2023-08-21,株式会社長屋茶店,,株式会社,長野県,佐久市,臼田９９番地,,20,217,3840301,,,2023-08-21,清算の結了等,,,2015-10-05,1,,,,,ナガヤチャテン,0
1502,7120101047681,登記記録の閉鎖等,0,2023-08-28,2023-08-24,株式会社オイルサポート,,株式会社,大阪府,和泉市,福瀬町５１１番地１,,27,219,5941123,,,2023-08-24,清算の結了等,,,2015-10-05,1,,,,,オイルサポート,0
1506,7120903002628,登記記録の閉鎖等,0,2023-08-28,2023-08-22,合同会社ヒューマン・ライフ・リソース,,合同会社,大阪府,豊中市,本町４丁目１０番１８－１０６号,,27,203,5600021,,,2023-08-22,清算の結了等,,,2018-10-09,1,,,,,ヒューマンライフリソース,0
1510,7140001039967,登記記録の閉鎖等,0,2023-08-28,2023-08-23,株式会社ワイエイチ技研,,株式会社,兵庫県,相生市,矢野町上土井４５０番地,,28,208,6780092,,,2023-08-23,清算の結了等,,,2015-10-05,1,,,,,ワイエイチギケン,0
1511,7140001048828,登記記録の閉鎖等,0,2023-08-28,2023-08-23,サンエス石油株式会社,,株式会社,兵庫県,尼崎市,南武庫之荘１丁目２６番１３号,,28,202,6610033,,,2023-08-23,清算の結了等,,,2015-10-05,1,,,,,サンエスセキユ,0
1515,7140002013112,登記記録の閉鎖等,0,2023-08-28,2023-08-23,有限会社ＳＤ設計室,,有限会社,兵庫県,神戸市中央区,二宮町４丁目６番１５号,,28,110,6510093,,,2023-08-23,清算の結了等,,,2015-10-05,1,,,,,エスディーセッケイシツ,0
1516,7140002046459,登記記録の閉鎖等,0,2023-08-28,2023-08-24,大和漁業有限会社,,有限会社,兵庫県,美方郡香美町,香住区一日市３３９番地,,28,585,6696542,,,2023-08-24,清算の結了等,,,2015-10-05,1,,,,,ヤマトギョギョウ,0
1528,7180003017331,登記記録の閉鎖等,0,2023-08-28,2023-08-23,合同会社ＥＰＩＣ　ＬＯＡＤ,,合同会社,愛知県,名古屋市中川区,東春田３丁目５０番地,,23,110,4540983,,,2023-08-23,清算の結了等,,,2016-08-24,1,,,,,エピックロード,0
1530,7180301023089,登記記録の閉鎖等,0,2023-08-28,2023-08-22,あさひが丘スケートリンク株式会社,,株式会社,愛知県,西尾市,寺部町西浦７１番地,,23,213,4440702,,,2023-08-22,清算の結了等,,,2015-10-05,1,,,,,アサヒガオカスケートリンク,0
1531,7180305007212,登記記録の閉鎖等,0,2023-08-28,2023-08-16,通海教会,,その他の設立登記法人,愛知県,西尾市,吉良町吉田本濱４７番地,,23,213,4440516,,,2023-08-16,清算の結了等,,,2015-10-05,1,,,,,ツウカイキョウカイ,0
1536,7250002013010,登記記録の閉鎖等,0,2023-08-28,2023-08-21,有限会社扇屋友の会,,有限会社,山口県,萩市,大字東田町４１番地,,35,204,7580047,,,2023-08-21,清算の結了等,,,2015-10-05,1,,,,,オウギヤトモノカイ,0
1537,7250002018950,登記記録の閉鎖等,0,2023-08-28,2023-08-22,有限会社坂上モータース,,有限会社,山口県,岩国市,美和町佐坂２８３番地１,,35,208,7401224,,,2023-08-22,清算の結了等,,,2015-10-05,1,,,,,サカウエモータース,0
1542,7290003012701,登記記録の閉鎖等,0,2023-08-28,2023-08-14,合同会社ライトホープ,,合同会社,福岡県,糸島市,波多江駅北１丁目９－２０ベスタ伊都波多江駅前８０７号室,,40,230,8191107,,,2023-08-14,清算の結了等,,,2022-07-06,1,,,,,ライトホープ,0
1549,7320003000181,登記記録の閉鎖等,0,2023-08-28,2023-08-25,合資会社共和電気建設,,合資会社,大分県,大分市,判田台南３丁目１番６号,,44,201,8701109,,,2023-08-25,清算の結了等,,,2015-10-05,1,,,,,,0
1550,7330002003795,登記記録の閉鎖等,0,2023-08-28,2023-08-17,有限会社コーセイ設計事務所,,有限会社,熊本県,熊本市中央区,出水８丁目３番２１号,,43,101,8620941,,,2023-08-17,清算の結了等,,,2015-10-05,1,,,,,コーセイ,0
1555,7370201002776,登記記録の閉鎖等,0,2023-08-28,2023-08-23,株式会社スマイルウェルフェア,,株式会社,宮城県,大崎市,古川穂波１丁目７番１７号,,04,215,9896136,,,2023-08-23,清算の結了等,,,2015-10-05,1,,,,,スマイルウェルフェア,0
1556,7370802000096,登記記録の閉鎖等,0,2023-08-28,2023-08-24,有限会社永仙堂,,有限会社,宮城県,名取市,高舘熊野堂字岩口下５９番地,,04,207,9811241,,,2023-08-24,清算の結了等,,,2015-10-05,1,,,,,エイセンドウ,0
1559,7380003003617,登記記録の閉鎖等,0,2023-08-28,2023-08-23,合同会社エースワン,,合同会社,福島県,いわき市,平下神谷字岸前１３２番地の３,,07,204,9700101,,,2023-08-23,清算の結了等,,,2016-04-19,1,,,,,エースワン,0
1568,7430002043336,登記記録の閉鎖等,0,2023-08-28,2023-08-07,有限会社光匠建設,,有限会社,北海道,石狩市,花川南三条２丁目５７番地,,01,235,0613203,,,2023-08-07,清算の結了等,,,2015-10-05,1,,,,,コウショウケンセツ,0
1570,7480001003914,登記記録の閉鎖等,0,2023-08-28,2023-08-25,株式会社環境ライフ,,株式会社,徳島県,徳島市,かちどき橋３丁目１４番地の３,,36,201,7700939,,,2023-08-25,清算の結了等,,,2015-10-05,1,,,,,カンキョウライフ,0
1581,8010001184478,登記記録の閉鎖等,0,2023-08-28,2023-08-21,株式会社トップラン・コンサルティング,,株式会社,東京都,千代田区,富士見２丁目４番６号,,13,101,1020071,,,2023-08-21,清算の結了等,,,2017-06-28,1,,,,,トップランコンサルティング,0
1623,8011003014994,登記記録の閉鎖等,0,2023-08-28,2023-08-18,ＦｕｌｌＭｏｏｎ合同会社,,合同会社,東京都,渋谷区,渋谷２丁目１９－１５宮益坂ビルディング６０９,,13,113,1500002,,,2023-08-18,清算の結了等,,,2022-07-08,1,,,,,フルムーン,0
1650,8020003018170,登記記録の閉鎖等,0,2023-08-28,2023-08-09,ソロウェる合同会社,,合同会社,神奈川県,横浜市青葉区,新石川２丁目８番９メイプルハイム１０２,,14,117,2250003,,,2023-08-09,清算の結了等,,,2020-07-13,1,Solowell LLC,Kanagawa,"3-5-11.shinisikawa, Aoba ku Yokohama shi",,ソロウェル,0
1667,8040001048754,登記記録の閉鎖等,0,2023-08-28,2023-08-07,株式会社鈴木エンジン,,株式会社,千葉県,四街道市,池花２丁目１３番９号,,12,228,2840014,,,2023-08-07,清算の結了等,,,2015-10-05,1,,,,,スズキエンジン,0
1670,8040001123796,登記記録の閉鎖等,0,2023-08-28,2023-08-04,グローアップ株式会社,,株式会社,千葉県,松戸市,五香８丁目２８番地の２５,,12,207,2702213,,,2023-08-04,清算の結了等,,,2022-06-13,1,,,,,グローアップ,0
1674,8040002073124,登記記録の閉鎖等,0,2023-08-28,2023-08-07,京葉陸送有限会社,,有限会社,千葉県,市原市,若宮６丁目１１番地３,,12,219,2900006,,,2023-08-07,清算の結了等,,,2015-10-05,1,,,,,ケイヨウリクソウ,0
1676,8040005020057,登記記録の閉鎖等,0,2023-08-28,2023-08-03,一般社団法人空港人財サービス,,その他の設立登記法人,千葉県,成田市,不動ケ岡２１１８番地５,,12,211,2860044,,,2023-08-03,清算の結了等,,,2018-08-13,1,,,,,クウコウジンザイサービス,0
1680,8050001032113,登記記録の閉鎖等,0,2023-08-28,2023-08-24,マルサ瓦工業株式会社,,株式会社,茨城県,筑西市,関本下２３１５番地４,,08,227,3080127,,,2023-08-24,清算の結了等,,,2015-10-05,1,,,,,マルサカワラコウギョウ,0
1683,8050002024753,登記記録の閉鎖等,0,2023-08-28,2023-08-22,有限会社望運輸,,有限会社,茨城県,古河市,水海２２９９番地６,,08,204,3060215,,,2023-08-22,清算の結了等,,,2015-10-05,1,,,,,ノゾミウンユ,0
1684,8050003005208,登記記録の閉鎖等,0,2023-08-28,2023-08-23,合同会社ホウショウ総研,,合同会社,茨城県,土浦市,中村南１丁目１７－１３,,08,203,3000843,,,2023-08-23,清算の結了等,,,2020-06-03,1,,,,,ホウショウソウケン,0
1691,8070002018076,登記記録の閉鎖等,0,2023-08-28,2023-08-23,有限会社タイヨー,,有限会社,群馬県,藤岡市,立石１４８４番地,,10,209,3750002,,,2023-08-23,清算の結了等,,,2015-10-05,1,,,,,タイヨー,0
1699,8080405003624,登記記録の閉鎖等,0,2023-08-28,2023-08-02,醫王寺,,その他の設立登記法人,静岡県,浜松市北区,細江町気賀８１８１番地の１,,22,135,4311305,,,2023-08-02,合併による解散等,6080405003626,令和５年８月２日静岡県浜松市北区細江町気賀８０２７番地金地院（6080405003626）に合併し解散,2015-10-05,1,,,,,イオウジ,0
1722,8120902013930,登記記録の閉鎖等,0,2023-08-28,2023-08-24,有限会社アイサン,,有限会社,大阪府,吹田市,岸部南３丁目１２番１４－１０３号,,27,205,5640011,,,2023-08-24,清算の結了等,,,2015-10-05,1,,,,,アイサン,0
1723,8120902018459,登記記録の閉鎖等,0,2023-08-28,2023-08-14,有限会社サカノ,,有限会社,大阪府,豊中市,桜の町１丁目１番１７号,,27,203,5600054,,,2023-08-14,清算の結了等,,,2015-10-05,1,,,,,サカノ,0
1731,8140001029281,登記記録の閉鎖等,0,2023-08-28,2023-08-24,株式会社ミウ・コーポレーション,,株式会社,兵庫県,神戸市中央区,御幸通５丁目２番１５号,,28,110,6510087,,,2023-08-24,清算の結了等,,,2015-10-05,1,,,,,ミウコーポレーション,0
1751,8180002073639,登記記録の閉鎖等,0,2023-08-28,2023-08-22,有限会社アンカー,,有限会社,愛知県,尾張旭市,南本地ケ原町３丁目６番地６,,23,226,4880044,,,2023-08-22,清算の結了等,,,2015-10-05,1,,,,,アンカー,0
1756,8220005006599,登記記録の閉鎖等,0,2023-08-28,2023-08-01,珠洲市農業協同組合,,その他の設立登記法人,石川県,珠洲市,野々江町ユ部４０番地１,,17,205,9271213,,,2023-08-01,合併による解散等,5220005006032,令和５年８月１日石川県鳳珠郡穴水町字大町ほの９５番地能登農業協同組合（5220005006032）に合併し解散,2015-10-05,1,,,,,スズシ,0
1758,8230003001345,登記記録の閉鎖等,0,2023-08-28,2023-08-07,ＭｉｒａｉＰｒｏｊｅｃｔ合同会社,,合同会社,千葉県,松戸市,新作１０５５番地,,12,207,2710052,,,2023-08-07,清算の結了等,,,2019-07-29,1,,,,,ミライプロジェクト,0
1773,8290001020201,登記記録の閉鎖等,0,2023-08-28,2023-08-14,株式会社チェスコム福岡,,株式会社,福岡県,福岡市博多区,堅粕３丁目１番１９号,,40,132,8120043,,,2023-08-14,清算の結了等,,,2015-10-05,1,,,,,チェスコムフクオカ,0
1780,8290005017037,登記記録の閉鎖等,0,2023-08-28,2023-08-04,社会保険労務士法人Ｃｌｅｖｅｒ２,,その他の設立登記法人,福岡県,福岡市博多区,山王１丁目１７番３２－１０２号,,40,132,8120015,,,2023-08-04,清算の結了等,,,2018-11-08,1,,,,,クレバーツー,0
1808,8430002029920,登記記録の閉鎖等,0,2023-08-28,2023-08-07,有限会社刈谷設備,,有限会社,北海道,札幌市豊平区,西岡一条４丁目８番１号,,01,105,0620031,,,2023-08-07,清算の結了等,,,2015-10-05,1,,,,,カリヤセツビ,0
1813,8490002003110,登記記録の閉鎖等,0,2023-08-28,2023-08-22,有限会社鷹建設,,有限会社,高知県,高知市,八反町２丁目９番９号,,39,201,7800912,,,2023-08-22,清算の結了等,,,2015-10-05,1,,,,,タカケンセツ,0
1878,9012401015864,登記記録の閉鎖等,0,2023-08-28,2023-08-24,株式会社田中徹事務所,,株式会社,東京都,調布市,下石原３丁目６４番地１調布ホームプラザ２０２,,13,208,1820034,,,2023-08-24,清算の結了等,,,2015-10-05,1,,,,,,0
1887,9020001098882,登記記録の閉鎖等,0,2023-08-28,2023-08-23,リンクワールドジャパン株式会社,,株式会社,神奈川県,茅ヶ崎市,東海岸南３丁目４番７号,,14,207,2530054,,,2023-08-23,清算の結了等,,,2015-10-05,1,,,,,リンクワールドジャパン,0
1898,9030001093791,登記記録の閉鎖等,0,2023-08-28,2023-07-31,株式会社ユニークス,,株式会社,埼玉県,川口市,大字榛松１７９６,,11,203,3340062,,,2023-07-31,清算の結了等,,,2015-10-05,1,,,,,ユニークス,0
1905,9030002084567,登記記録の閉鎖等,0,2023-08-28,2023-07-27,株式会社レナスター,,株式会社,埼玉県,鴻巣市,氷川町４３番地の６,,11,217,3650045,,,2023-07-27,清算の結了等,,,2015-10-05,1,,,,,レナスター,0
1906,9030002090929,登記記録の閉鎖等,0,2023-08-28,2023-08-01,有限会社ビーアイエンタープライズ,,有限会社,埼玉県,吉川市,中野１５番地２,,11,243,3420042,,,2023-08-01,清算の結了等,,,2015-10-05,1,,,,,ビーアイエンタープライズ,0
1911,9040001039505,登記記録の閉鎖等,0,2023-08-28,2023-08-03,バインドギアフィッティングサービス株式会社,,株式会社,千葉県,松戸市,中根長津町１６９番地,,12,207,2710054,,,2023-08-03,合併による解散等,7040001036553,令和５年８月１日千葉県松戸市中根長津町１６９番地バインド・ギアコーポレーション株式会社（7040001036553）に合併し解散,2015-10-05,1,,,,,バインドギアフィッティングサービス,0
1924,9060002004290,登記記録の閉鎖等,0,2023-08-28,2023-08-18,有限会社坂俊,,有限会社,栃木県,宇都宮市,江曽島町１０３８番地１,,09,201,3210102,,,2023-08-18,清算の結了等,,,2015-10-05,1,,,,,サカトシ,0
1925,9060003003770,登記記録の閉鎖等,0,2023-08-28,2023-08-18,ライズコンサルティング合同会社,,合同会社,栃木県,大田原市,薄葉２１７９番地１９,,09,210,3240035,,,2023-08-18,清算の結了等,,,2021-08-06,1,,,,,ライズコンサルティング,0
1931,9100002008089,登記記録の閉鎖等,0,2023-08-28,2023-08-22,有限会社わいわい倶楽部,,有限会社,長野県,長野市,門沢３７４５番地１５３,,20,201,3800881,,,2023-08-22,清算の結了等,,,2015-10-05,1,,,,,ワイワイクラブ,0
1940,9120001214330,登記記録の閉鎖等,0,2023-08-28,2023-08-24,株式会社サインクラフトＫ,,株式会社,大阪府,門真市,石原町３１番２３号,,27,223,5710067,,,2023-08-24,清算の結了等,,,2018-06-29,1,,,,,サインクラフトケー,0
1963,9140002039477,登記記録の閉鎖等,0,2023-08-28,2023-08-23,有限会社タジマ,,有限会社,兵庫県,朝来市,和田山町土田５８２番地,,28,225,6695241,,,2023-08-23,清算の結了等,,,2015-10-05,1,,,,,タジマ,0
1965,9140003015659,登記記録の閉鎖等,0,2023-08-28,2023-08-23,山手合同会社,,合同会社,兵庫県,芦屋市,山手町３０番１５号,,28,206,6590096,,,2023-08-23,清算の結了等,,,2020-12-04,1,,,,,ヤマテ,0
1980,9180301033318,登記記録の閉鎖等,0,2023-08-28,2023-08-23,株式会社ＥＳ３９,,株式会社,愛知県,豊田市,駒新町金山１番地１２,,23,211,4730926,,,2023-08-23,清算の結了等,,,2020-01-10,1,,,,,イーエスサンジュウキュウ,0
1982,9180302003559,登記記録の閉鎖等,0,2023-08-28,2023-08-23,有限会社山三金型,,有限会社,愛知県,額田郡幸田町,大字深溝字堀留１１５番地,,23,501,4440124,,,2023-08-23,清算の結了等,,,2015-10-05,1,,,,,ヤマサンカナガタ,0
1986,9220002014752,登記記録の閉鎖等,0,2023-08-28,2023-08-22,有限会社いなはら,,有限会社,石川県,かほく市,横山イ２８番地,,17,209,9291105,,,2023-08-22,清算の結了等,,,2015-10-05,1,,,,,イナハラ,0
1990,9250002020830,登記記録の閉鎖等,0,2023-08-28,2023-08-08,有限会社第一工務,,有限会社,山口県,宇部市,大字上宇部１０７８番地の２,,35,202,7550091,,,2023-08-08,清算の結了等,,,2023-06-29,1,,,,,,0
1991,9290001069700,登記記録の閉鎖等,0,2023-08-28,2023-08-15,株式会社ＳＡ－ＣＬＥＡＮ,,株式会社,福岡県,福岡市早良区,野芥７丁目７番１３号,,40,137,8140171,,,2023-08-15,清算の結了等,,,2015-10-05,1,,,,,,0
2007,9330002004429,登記記録の閉鎖等,0,2023-08-28,2023-08-21,有限会社坂本開発,,有限会社,熊本県,熊本市東区,戸島１丁目１３番７号,,43,102,8618041,,,2023-08-21,清算の結了等,,,2015-10-05,1,,,,,サカモトカイハツ,0
2009,9330002018156,登記記録の閉鎖等,0,2023-08-28,2023-08-21,有限会社東豊技建,,有限会社,熊本県,菊池市,泗水町吉富３３００番地５４,,43,210,8611201,,,2023-08-21,清算の結了等,,,2015-10-05,1,,,,,トウホウギケン,0
2023,9370201003459,登記記録の閉鎖等,0,2023-08-28,2023-08-24,株式会社Ｋ・Ｂ・Ｃ,,株式会社,宮城県,大崎市,古川金五輪２丁目２番４７号,,04,215,9896131,,,2023-08-24,清算の結了等,,,2015-10-05,1,,,,,ケービーシー,0
2027,9420001007984,登記記録の閉鎖等,0,2023-08-28,2023-08-21,株式会社本町商会,,株式会社,東京都,中央区,新川２丁目３番４号,,13,102,1040033,,,2023-08-21,清算の結了等,,,2015-10-05,1,,,,,ホンチョウショウカイ,0
2030,9430001030399,登記記録の閉鎖等,0,2023-08-28,2023-08-07,ＳＥＥＫコンサルティング株式会社,,株式会社,北海道,札幌市北区,新琴似七条２丁目１番３５－５０６号,,01,102,0010907,,,2023-08-07,清算の結了等,,,2015-10-05,1,,,,,,0
