sequenceNumber,corporateNumber,process,correct,updateDate,changeDate,name,nameImageId,kind,prefectureName,cityName,streetNumber,addressImageId,prefectureCode,cityCode,postCode,addressOutside,addressOutsideImageId,closeDate,closeCause,successorCorporateNumber,changeCause,assignmentDate,latest,enName,enPrefectureName,enCityName,enAddressOutside,furigana,hihyoji
4,1010001255608,新規,0,2025-06-19,2025-06-19,株式会社Ｇｕｅｓｔｖｉｌｌａ　ｄｅｓｉｇｎ,,株式会社,東京都,千代田区,平河町１丁目９番１０号,,13,101,1020093,,,,,,,2025-06-19,1,,,,,ゲストヴィラデザイン,0
5,1010001256044,新規,0,2025-06-19,2025-06-19,トレカデイズ株式会社,,株式会社,東京都,千代田区,外神田１丁目１６番１０号ニュー秋葉原センタービル５０１号室,,13,101,1010021,,,,,,,2025-06-19,1,,,,,トレカデイズ,0
6,1010001256060,新規,0,2025-06-19,2025-06-19,株式会社Ｔａｉｌｏｒｅｄ,,株式会社,東京都,千代田区,神田佐久間町１丁目８－４アルテール秋葉原内,,13,101,1010025,,,,,,,2025-06-19,1,,,,,テーラード,0
14,1010401191188,新規,0,2025-06-19,2025-06-19,株式会社Ｊ．Ａ．Ｒ．Ｖ．Ｉ．Ｓ,,株式会社,東京都,港区,虎ノ門１丁目１７番１号虎ノ門ヒルズビジネスタワー５階,,13,103,1050001,,,,,,,2025-06-19,1,,,,,ジャーヴィス,0
15,1010403035384,新規,0,2025-06-19,2025-06-19,合同会社それから,,合同会社,東京都,港区,南青山３丁目１番３６号青山丸竹ビル６Ｆ,,13,103,1070062,,,,,,,2025-06-19,1,,,,,ソレカラ,0
19,1010501054187,新規,0,2025-06-19,2025-06-19,巨美株式会社,,株式会社,東京都,台東区,台東３丁目５番１０－１０２－Ｉ号室,,13,106,1100016,,,,,,,2025-06-19,1,,,,,キョビ,0
30,1010903009904,新規,0,2025-06-19,2025-06-19,幸藤六合同会社,,合同会社,東京都,世田谷区,池尻４丁目３４番６－２０３号,,13,112,1540001,,,,,,,2025-06-19,1,,,,,コトロ,0
46,1011401027183,新規,0,2025-06-19,2025-06-19,エムジェイ株式会社,,株式会社,東京都,板橋区,板橋４丁目２３－３高助グリーンハウス１０２,,13,119,1730004,,,,,,,2025-06-19,1,,,,,エムジェイ,0
51,1011701028443,新規,0,2025-06-19,2025-06-19,株式会社Ｃｒａｆｔ,,株式会社,東京都,江戸川区,春江町３丁目１７番７号,,13,123,1320003,,,,,,,2025-06-19,1,,,,,クラフト,0
59,1020001163470,新規,0,2025-06-19,2025-06-19,Ｉｎｓｉｇｈｔｄｉｇｉｔ　Ｔｅｃｈｎｏｌｏｇｙ株式会社,,株式会社,神奈川県,横浜市西区,みなとみらい４丁目７番１－３００８号,,14,103,2200012,,,,,,,2025-06-19,1,,,,,インサイトデジテクノロジー,0
60,1020003028746,新規,0,2025-06-19,2025-06-19,ＳＳＡｄｖｉｓｏｒｓ合同会社,,合同会社,神奈川県,横浜市保土ケ谷区,鎌谷町３０５番地の１５,,14,106,2400063,,,,,,,2025-06-19,1,,,,,エスエスアドバイザーズ,0
72,1030003026988,新規,0,2025-06-19,2025-06-19,合同会社ＧＬ,,合同会社,埼玉県,川口市,幸町３丁目２番２２－３０９号ブランズ川口幸町,,11,203,3320016,,,,,,,2025-06-19,1,,,,,ジーエル,0
77,1040003027911,新規,0,2025-06-19,2025-06-19,合同会社Ｍａｙｏｖｏ,,合同会社,千葉県,成田市,西三里塚１－１３３４,,12,211,2860115,,,,,,,2025-06-19,1,,,,,メイヨーヴォ,0
80,1050001056820,新規,0,2025-06-19,2025-06-19,株式会社グッド・フィールド,,株式会社,茨城県,守谷市,本町３２９８番地の１,,08,224,3020109,,,,,,,2025-06-19,1,,,,,グッドフィールド,0
81,1050003009363,新規,0,2025-06-19,2025-06-19,ＢＢトレーディング合同会社,,合同会社,茨城県,古河市,東山田１８１５番地１９８、１棟２階Ｅ号室,,08,204,3060112,,,,,,,2025-06-19,1,,,,,,0
86,1080003003479,新規,0,2025-06-19,2025-06-19,オフィスリアン合同会社,,合同会社,静岡県,静岡市清水区,横砂本町１２番１９号,,22,103,4240033,,,,,,,2025-06-19,1,,,,,オフィスリアン,0
96,1100003008236,新規,0,2025-06-19,2025-06-19,ＭＯＲＩＮＯＭＡ合同会社,,合同会社,長野県,北安曇郡白馬村,大字神城２２２００番地１１,,20,485,3999211,,,,,,,2025-06-19,1,,,,,モリノマ,0
98,1110001039356,新規,0,2025-06-19,2025-06-19,株式会社シュポルト,,株式会社,新潟県,新潟市江南区,曽野木１丁目１０番８号,,15,104,9501135,,,,,,,2025-06-19,1,,,,,シュポルト,0
99,1110003005793,新規,0,2025-06-19,2025-06-19,合同会社ＭＤＫ,,合同会社,新潟県,新潟市東区,大形本町３丁目１番２号,,15,102,9500813,,,,,,,2025-06-19,1,,,,,エムディーケー,0
104,1120001276980,新規,0,2025-06-19,2025-06-19,星月株式会社,,株式会社,大阪府,大阪市西成区,聖天下１丁目２番２８－８０４号,,27,122,5570012,,,,,,,2025-06-19,1,,,,,セイカ,0
105,1120001277013,新規,0,2025-06-19,2025-06-19,株式会社ＨＩＫＡＲＩ　ＮＯＴＥ　ＰＬＡＴＩＮＵＭ,,株式会社,大阪府,大阪市中央区,南船場２丁目３番６号第一住建長堀橋駅前ビル９階,,27,128,5420081,,,,,,,2025-06-19,1,,,,,ヒカリノートプラチナム,0
114,1120101071919,新規,0,2025-06-19,2025-06-19,株式会社昌平アクアマスター,,株式会社,大阪府,堺市南区,檜尾４７９番地１２,,27,145,5900142,,,,,,,2025-06-19,1,,,,,ショウヘイアクアマスター,0
126,1130003010552,新規,0,2025-06-19,2025-06-19,合同会社Ｓ,,合同会社,京都府,京都市北区,上賀茂薮田町９Ａｐｐａｒｔａｍｅｎｔｏ上賀茂３０１,,26,101,6038062,,,,,,,2025-06-19,1,,,,,エス,0
131,1140001138964,新規,0,2025-06-19,2025-06-19,株式会社サクラソウ,,株式会社,兵庫県,神戸市兵庫区,上沢通３丁目７－１３,,28,105,6520046,,,,,,,2025-06-19,1,,,,,サクラソウ,0
132,1140003022183,新規,0,2025-06-19,2025-06-19,合同会社ｍａｙｂｅ,,合同会社,兵庫県,神戸市東灘区,御影中町３丁目１番９号,,28,101,6580054,,,,,,,2025-06-19,1,,,,,メイビー,0
135,1150003003629,新規,0,2025-06-19,2025-06-19,合同会社さくらＡＩセキュリティ,,合同会社,奈良県,大和高田市,今里町４番２５号シャンポール今里１０２号室,,29,202,6350031,,,,,,,2025-06-19,1,,,,,サクラエーアイセキュリティ,0
140,1170001018676,新規,0,2025-06-19,2025-06-19,株式会社Ｋａｕ,,株式会社,和歌山県,和歌山市,本脇３６５番地３,,30,201,6400113,,,,,,,2025-06-19,1,,,,,ケーエーユー,0
148,1180001167357,新規,0,2025-06-19,2025-06-19,株式会社ＩＴＯ,,株式会社,愛知県,名古屋市南区,豊田１丁目９番４号,,23,112,4570841,,,,,,,2025-06-19,1,,,,,アイティーオー,0
149,1180001167365,新規,0,2025-06-19,2025-06-19,株式会社エクリアーキテクツ,,株式会社,愛知県,名古屋市名東区,扇町３丁目３０番地の１,,23,115,4650076,,,,,,,2025-06-19,1,,,,,エクリアーキテクツ,0
160,1180301039917,新規,0,2025-06-19,2025-06-19,株式会社ＳＵＧＩＳＥＩ,,株式会社,愛知県,安城市,井杭山町井杭山３２番地１,,23,212,4460074,,,,,,,2025-06-19,1,,,,,スギセイ,0
161,1180301039925,新規,0,2025-06-19,2025-06-19,株式会社アドヴァンス,,株式会社,愛知県,岡崎市,大門５丁目６番地６,,23,202,4442135,,,,,,,2025-06-19,1,,,,,アドヴァンス,0
166,1190003005084,新規,0,2025-06-19,2025-06-19,合同会社信縁,,合同会社,三重県,四日市市,日永１丁目４‐１０‐２,,24,202,5100885,,,,,,,2025-06-19,1,,,,,シンエン,0
191,1290001110446,新規,0,2025-06-19,2025-06-19,Ｓｏｌａｒｉｓ株式会社,,株式会社,福岡県,福岡市中央区,薬院４丁目１３番６２号,,40,133,8100022,,,,,,,2025-06-19,1,,,,,ソラリス,0
192,1290001110470,新規,0,2025-06-19,2025-06-19,株式会社まごころ整骨院,,株式会社,福岡県,福岡市博多区,諸岡１丁目１６番２６号,,40,132,8120894,,,,,,,2025-06-19,1,,,,,マゴコロセイコツイン,0
193,1290003017004,新規,0,2025-06-19,2025-06-19,合同会社ウェブの世界,,合同会社,福岡県,福岡市中央区,天神２丁目２番１２号Ｔ＆Ｊビルディング７Ｆ,,40,133,8100001,,,,,,,2025-06-19,1,,,,,,0
194,1290003017012,新規,0,2025-06-19,2025-06-19,ＨＫＣ合同会社,,合同会社,福岡県,福岡市東区,香椎４丁目１１－２１,,40,131,8130011,,,,,,,2025-06-19,1,,,,,エイチケイシー,0
209,1370003007153,新規,0,2025-06-19,2025-06-19,ＧＭＳ合同会社,,合同会社,宮城県,仙台市太白区,向山３丁目４番１１号ホワイトファミール１０１,,04,104,9820841,,,,,,,2025-06-19,1,,,,,ジーエムエス,0
210,1370005010980,新規,0,2025-06-19,2025-06-19,医療法人Ｐｏｌａｒｉｓ,,その他の設立登記法人,宮城県,仙台市太白区,あすと長町１丁目５－５ｔｅｋｕｔｅながまち２、２階,,04,104,9820007,,,,,,,2025-06-19,1,,,,,ポラリス,0
220,1700150131135,新規,0,2025-06-19,2025-06-19,大連拓思科技有限公司,,外国会社等,東京都,渋谷区,渋谷１丁目８－１第３西青山ビル５Ｆウェブスタッフ株式会社内,,13,113,1500002,中華人民共和国遼寧省大連市中山区友好路１５８号,,,,,,2025-06-19,1,,,,,ダイレンタクシカギユウゲンコウシ,0
227,2010001256051,新規,0,2025-06-19,2025-06-19,レゾナンスパートナーズ株式会社,,株式会社,東京都,中央区,新川１丁目３番３号,,13,102,1040033,,,,,,,2025-06-19,1,,,,,レゾナンスパートナーズ,0
228,2010001256084,新規,0,2025-06-19,2025-06-19,株式会社Ｓａｎｐｅｒｉｏｎ,,株式会社,東京都,中央区,京橋２丁目１３番１１号宝町三清ビル,,13,102,1040031,,,,,,,2025-06-19,1,,,,,サンペリオン,0
229,2010003047688,新規,0,2025-06-19,2025-06-19,Ｓｐｒｉｎｔ　Ｈｏｌｄｉｎｇｓ合同会社,,合同会社,東京都,千代田区,霞が関３丁目２番５号,,13,101,1000013,,,,,,,2025-06-19,1,,,,,スプリントホールディングス,0
230,2010005040220,新規,0,2025-06-19,2025-06-19,一般社団法人社会的価値共創フォーラム,,その他の設立登記法人,東京都,中央区,日本橋２丁目５番１号日本橋高島屋三井ビルディング１８階,00139614,13,102,1030027,,,,,,,2025-06-19,1,,,,,シャカイテキカチキョウソウフォーラム,0
235,2010401191187,新規,0,2025-06-19,2025-06-19,株式会社白樺キャピタル,,株式会社,東京都,港区,東新橋１丁目１０番１－３４０７号,,13,103,1050021,,,,,,,2025-06-19,1,,,,,シラカバキャピタル,0
236,2010401191195,新規,0,2025-06-19,2025-06-19,株式会社ＯｕｒＳｔｏｒｙ,,株式会社,東京都,港区,北青山１丁目３－３三橋ビル３階,,13,103,1070061,,,,,,,2025-06-19,1,,,,,アワストーリー,0
237,2010403035409,新規,0,2025-06-19,2025-06-19,ＺａｉｙａＴｅｃｈ合同会社,,合同会社,東京都,港区,六本木３丁目１６番１２号六本木ＫＳビル５Ｆ,,13,103,1060032,,,,,,,2025-06-19,1,,,,,ザイヤテック,0
243,2010501054236,新規,0,2025-06-19,2025-06-19,ＣｘＯ　Ｃａｐｉｔａｌ株式会社,,株式会社,東京都,台東区,台東４丁目３１番１号,,13,106,1100016,,,,,,,2025-06-19,1,,,,,シーエックスオーキャピタル,0
244,2010501054269,新規,0,2025-06-19,2025-06-19,株式会社スキルエール,,株式会社,東京都,台東区,浅草橋５丁目２－３鈴和ビル２Ｆ,,13,106,1110053,,,,,,,2025-06-19,1,,,,,スキルエール,0
247,2010601067484,新規,0,2025-06-19,2025-06-19,株式会社Ｈｏｍｅ　Ｒｕｎ,,株式会社,東京都,墨田区,立花５丁目１８番１６号,,13,107,1310043,,,,,,,2025-06-19,1,,,,,ホームラン,0
256,2010901057607,新規,0,2025-06-19,2025-06-19,Ｏｇａｗａ　Ｅｓｔａｔｅ株式会社,,株式会社,東京都,世田谷区,祖師谷４丁目１７番４号,,13,112,1570072,,,,,,,2025-06-19,1,,,,,オガワエステート,0
260,2011001170267,新規,0,2025-06-19,2025-06-19,株式会社ＡＭＰ,,株式会社,東京都,渋谷区,広尾４丁目１番３２－４０５号,,13,113,1500012,,,,,,,2025-06-19,1,,,,,アンプ,0
266,2011401027182,新規,0,2025-06-19,2025-06-19,株式会社ＣｏｏＴ,,株式会社,東京都,板橋区,志村１丁目１３番１４号,,13,119,1740056,,,,,,,2025-06-19,1,,,,,コート,0
268,2011501032215,新規,0,2025-06-19,2025-06-19,ＪＫＨ株式会社,,株式会社,東京都,北区,中里１丁目２１番２号中里ビル１Ｆ,,13,117,1140015,,,,,,,2025-06-19,1,,,,,ジェーケーエイチ,0
269,2011503006571,新規,0,2025-06-19,2025-06-19,ＹＵＭＯ＿沐合同会社,00139615,合同会社,東京都,荒川区,西日暮里１丁目３５－７,,13,118,1160013,,,,,,,2025-06-19,1,,,,,ユモギョクモク,0
276,2020001163453,新規,0,2025-06-19,2025-06-19,株式会社９９ＢＡＳＥ,,株式会社,神奈川県,横浜市中区,伊勢佐木町６丁目１４６－３ストーク伊勢佐木六番館,,14,104,2310045,,,,,,,2025-06-19,1,,,,,キュウキュウベース,0
277,2020001163503,新規,0,2025-06-19,2025-06-19,株式会社グッドスターズ,,株式会社,神奈川県,横浜市中区,相生町２丁目３２番地２,,14,104,2310012,,,,,,,2025-06-19,1,,,,,グッドスターズ,0
298,2030001167148,新規,0,2025-06-19,2025-06-19,株式会社御本丸,,株式会社,埼玉県,久喜市,菖蒲町上大崎３４２番地３,,11,232,3460111,,,,,,,2025-06-19,1,,,,,ゴホンマル,0
299,2030001167180,新規,0,2025-06-19,2025-06-19,株式会社グランドール・ワン,,株式会社,埼玉県,さいたま市見沼区,大字南中丸２０７番地,,11,104,3370041,,,,,,,2025-06-19,1,,,,,グランドールワン,0
307,2040001139286,新規,0,2025-06-19,2025-06-19,株式会社ミヤエモン,,株式会社,千葉県,市川市,市川３丁目８－２,,12,203,2720034,,,,,,,2025-06-19,1,,,,,ミヤエモン,0
327,2090001019335,新規,0,2025-06-19,2025-06-19,株式会社アット・スタッフ,,株式会社,山梨県,甲府市,城東２丁目７番１１号,,19,201,4000861,,,,,,,2025-06-19,1,,,,,アットスタッフ,0
329,2100003008235,新規,0,2025-06-19,2025-06-19,合同会社泉屋農園,,合同会社,長野県,上伊那郡飯島町,田切１６１番地７１,,20,384,3993701,,,,,,,2025-06-19,1,,,,,イズミヤノウエン,0
330,2110001039355,新規,0,2025-06-19,2025-06-19,株式会社ＩＮＰＥＸ上越沖開発,,株式会社,新潟県,新潟市中央区,東大通１丁目３番１号,,15,103,9500087,,,,,,,2025-06-19,1,,,,,インペックスジョウエツオキカイハツ,0
331,2110003005792,新規,0,2025-06-19,2025-06-19,合同会社ＣｈｉｌｌｕＸ,,合同会社,新潟県,新発田市,富塚町２丁目１７番２３号１,,15,206,9570062,,,,,,,2025-06-19,1,,,,,チラックス,0
337,2120001276922,新規,0,2025-06-19,2025-06-19,久駐株式会社,,株式会社,大阪府,大阪市東成区,大今里３丁目１５番６号ＩｍａｚａｔｏＴｏｗｅｒ４０６Ｄ,,27,115,5370012,,,,,,,2025-06-19,1,,,,,キュウチュウ,0
340,2120003029799,新規,0,2025-06-19,2025-06-19,合同会社Ｃｌｉｍａｒｙ,,合同会社,大阪府,大阪市西区,江戸堀２丁目１‐１江戸堀センタービルＢ１,,27,106,5500002,,,,,,,2025-06-19,1,,,,,クライマリー,0
341,2120101071918,新規,0,2025-06-19,2025-06-19,株式会社エネくる泉北,,株式会社,大阪府,和泉市,舞町８７番地,,27,219,5940001,,,,,,,2025-06-19,1,,,,,エネクルセンボク,0
342,2120103006525,新規,0,2025-06-19,2025-06-19,順祥合同会社,,合同会社,大阪府,岸和田市,天神山町２丁目９番６号２０２号室,,27,202,5960834,,,,,,,2025-06-19,1,,,,,ジュンショウ,0
345,2120901051078,新規,0,2025-06-19,2025-06-19,株式会社ＭＡＬＩＫ　ＴＲＡＤＩＮＧ,,株式会社,大阪府,豊能郡豊能町,木代１１９０番地,,27,321,5630215,,,,,,,2025-06-19,1,,,,,マリクトレーディング,0
365,2170003002231,新規,0,2025-06-19,2025-06-19,Ｅ‐ＭＡＳ合同会社,,合同会社,和歌山県,田辺市,稲成町３２５３－４ＡＬＯＦＴビル２階Ｄ区画３,,30,206,6460051,,,,,,,2025-06-19,1,,,,,イーマス,0
372,2180001167323,新規,0,2025-06-19,2025-06-19,タイムフロー株式会社,,株式会社,愛知県,名古屋市中村区,名駅５丁目３１番１０号リンクス名駅ビル６Ｆ,,23,105,4500002,,,,,,,2025-06-19,1,,,,,タイムフロー,0
373,2180001167364,新規,0,2025-06-19,2025-06-19,株式会社Ｈ　ｐｌａｓｔｅｒ,,株式会社,愛知県,あま市,中萱津南ノ川３２番地３,,23,237,4901113,,,,,,,2025-06-19,1,,,,,エイチプラスター,0
378,2180303006617,新規,0,2025-06-19,2025-06-19,合同会社ドッグサロンチャリオット,,合同会社,愛知県,豊田市,西中山町後田９２番地２,,23,211,4700431,,,,,,,2025-06-19,1,,,,,ドッグサロンチャリオット,0
385,2220001026747,新規,0,2025-06-19,2025-06-19,株式会社Ｎｅｘ,,株式会社,石川県,白山市,横江町２２２,,17,210,9240011,,,,,,,2025-06-19,1,,,,,ネックス,0
393,2240001065082,新規,0,2025-06-19,2025-06-19,Ｋ＆Ｙグローバルシナジー株式会社,,株式会社,広島県,福山市,手城町２丁目１４番２４号,,34,207,7210966,,,,,,,2025-06-19,1,,,,,ケイアンドワイグローバルシナジー,0
402,2290001110437,新規,0,2025-06-19,2025-06-19,東興株式会社,,株式会社,福岡県,福岡市中央区,大名２丁目１０番２号シャンボール大名Ｂ棟９０１号,,40,133,8100041,,,,,,,2025-06-19,1,,,,,トウコウ,0
405,2290003017011,新規,0,2025-06-19,2025-06-19,エバーシード合同会社,,合同会社,福岡県,福岡市早良区,西新４丁目１番１号,,40,137,8140002,,,,,,,2025-06-19,1,,,,,エバーシード,0
410,2340001027436,新規,0,2025-06-19,2025-06-19,白水越地熱株式会社,,株式会社,鹿児島県,霧島市,牧園町高千穂３８６４番地６８,,46,218,8996603,,,,,,,2025-06-19,1,,,,,シラミズゴエチネツ,0
415,2360001035362,新規,0,2025-06-19,2025-06-19,株式会社シンプソンズ,,株式会社,沖縄県,糸満市,西崎６丁目１７番１－１１０２号プレサンスロジェ西崎レーヴタワー,,47,210,9010305,,,,,,,2025-06-19,1,,,,,シンプソンズ,0
416,2360001035370,新規,0,2025-06-19,2025-06-19,株式会社西崎水産,,株式会社,沖縄県,糸満市,西崎町４丁目１７番地の２５,,47,210,9010306,,,,,,,2025-06-19,1,,,,,ニシザキスイサン,0
417,2360003015024,新規,0,2025-06-19,2025-06-19,合同会社Ｋ．Ｋ．Ｎ,,合同会社,沖縄県,島尻郡八重瀬町,字伊覇２５８番地３４,,47,362,9010405,,,,,,,2025-06-19,1,,,,,ケイケイエヌ,0
424,2400001017075,新規,0,2025-06-19,2025-06-19,株式会社Ｓｕｒｖｉｖａｌ　Ｒｅｓｃｕｅ　Ｊａｐａｎ,,株式会社,岩手県,大船渡市,猪川町字長洞３７番地,,03,203,0220004,,,,,,,2025-06-19,1,,,,,サバイバルレスキュージャパン,0
426,2410001014195,新規,0,2025-06-19,2025-06-19,株式会社クアトロ,,株式会社,秋田県,秋田市,山王６丁目１番５号太平住宅ビル４Ｆ,,05,201,0100951,,,,,,,2025-06-19,1,,,,,クアトロ,0
427,2430001094681,新規,0,2025-06-19,2025-06-19,レイクサイド・コミュニケーションズ株式会社,,株式会社,北海道,虻田郡洞爺湖町,財田１１９番地２,,01,584,0495813,,,,,,,2025-06-19,1,,,,,レイクサイドコミュニケーションズ,0
434,2490003002026,新規,0,2025-06-19,2025-06-19,合同会社政一,,合同会社,高知県,高知市,朝倉甲５５番地１コーポ幸３０１号,,39,201,7808061,,,,,,,2025-06-19,1,,,,,マサイチ,0
440,2700150131183,新規,0,2025-06-19,2025-06-19,Ｓｈｅｎｚｈｅｎ　ＨｏｎｇＨｅ　Ｔｅｃｈｎｏｌｏｇｙ　ＣＯ．，ＬＴＤ,,外国会社等,,,,,,,,Ｂａｏ’ａｎ　Ｄｉｓｔｒｉｃｔ　Ｘｉｘｉａｎｇ　Ｓｔｒｅｅｔ　Ｆｉｓｈｅｒｙ　Ｃｏｍｍｕｎｉｔｙ　Ｈｕａｆｅｎｇ　Ｎｅｗ　Ｅｎｅｒｇｙ　Ｔｅｃｈｎｏｌｏｇｙ　Ｉｎｄｕｓｔｒｙ　Ｂｕｉｌｄｉｎｇ　２２０　Ｓｈｅｎｚｈｅｎ　Ｃｉｔｙ　Ｇｕａｎｇｄｏｎｇ　５１８０００　ＣＮ,,,,,,2025-06-19,1,,,,,シンセンホンハーテクノロジー,0
443,3010001255746,新規,0,2025-06-19,2025-06-19,株式会社ＣＯＲＯ,,株式会社,東京都,中央区,銀座１丁目２２番１１号銀座大竹ビジデンス２Ｆ,,13,102,1040061,,,,,,,2025-06-19,1,,,,,コロ,0
444,3010001255911,新規,0,2025-06-19,2025-06-19,ネオビタファーマ株式会社,,株式会社,東京都,中央区,日本橋本町２丁目３番１１号,,13,102,1030023,,,,,,,2025-06-19,1,,,,,ネオビタファーマ,0
445,3010001256050,新規,0,2025-06-19,2025-06-19,株式会社ＺＥＢｏｐｔ,,株式会社,東京都,中央区,銀座１丁目１２番４号,,13,102,1040061,,,,,,,2025-06-19,1,,,,,ゼブオプト,0
446,3010001256083,新規,0,2025-06-19,2025-06-19,光風株式会社,,株式会社,東京都,文京区,千石４丁目１４番９－１０６号,,13,105,1120011,,,,,,,2025-06-19,1,,,,,コウフウ,0
451,3010401191120,新規,0,2025-06-19,2025-06-19,ペリオジャパン株式会社,,株式会社,東京都,港区,虎ノ門３丁目１５－５アルトヴィラ虎ノ門３０６,,13,103,1050001,,,,,,,2025-06-19,1,,,,,ペリオジャパン,0
452,3010401191145,新規,0,2025-06-19,2025-06-19,エターナル株式会社,,株式会社,東京都,港区,浜松町２丁目７番１７号イーグル浜松町１０３４,,13,103,1050013,,,,,,,2025-06-19,1,,,,,エターナル,0
453,3010401191153,新規,0,2025-06-19,2025-06-19,株式会社松毬,,株式会社,東京都,港区,元麻布３丁目１番６号,,13,103,1060046,,,,,,,2025-06-19,1,,,,,マツカサ,0
455,3010501054235,新規,0,2025-06-19,2025-06-19,株式会社ＡＳ,,株式会社,東京都,台東区,竜泉１丁目１０番６号,,13,106,1100012,,,,,,,2025-06-19,1,,,,,エーエス,0
456,3010501054268,新規,0,2025-06-19,2025-06-19,株式会社アズマホールディングス,,株式会社,東京都,台東区,台東１丁目３１番１０号東ビル,,13,106,1100016,,,,,,,2025-06-19,1,,,,,アズマホールディングス,0
457,3010501054284,新規,0,2025-06-19,2025-06-19,永匯顧問株式会社,,株式会社,東京都,台東区,台東３丁目５番１０号－１０２－Ｃ室,,13,106,1100016,,,,,,,2025-06-19,1,,,,,エイカイコモン,0
466,3010901057606,新規,0,2025-06-19,2025-06-19,株式会社ＡＩサプリ,,株式会社,東京都,世田谷区,北烏山８丁目２２番１８号,,13,112,1570061,,,,,,,2025-06-19,1,,,,,エーアイサプリ,0
480,3011001169688,新規,0,2025-06-19,2025-06-19,株式会社衝動,,株式会社,東京都,渋谷区,渋谷２丁目１９－１５宮益坂ビルディング６０９,,13,113,1500002,,,,,,,2025-06-19,1,,,,,ショウドウ,0
481,3011001170217,新規,0,2025-06-19,2025-06-19,株式会社ＢＲＩＤＧＥＲ,,株式会社,東京都,渋谷区,神宮前６丁目２３番４号桑野ビル２階,,13,113,1500001,,,,,,,2025-06-19,1,,,,,ブリッジャー,0
482,3011003021938,新規,0,2025-06-19,2025-06-19,合同会社Ｋａｂｏコンサルティング,,合同会社,東京都,渋谷区,道玄坂１丁目１６－６二葉ビル８ｂ,,13,113,1500043,,,,,,,2025-06-19,1,,,,,カボコンサルティング,0
483,3011003021954,新規,0,2025-06-19,2025-06-19,Ｍｏｂｉｌｅ　Ｓｔｕｄｉｏ合同会社,,合同会社,東京都,渋谷区,道玄坂１丁目１０番８号渋谷道玄坂東急ビル２Ｆ－Ｃ,,13,113,1500043,,,,,,,2025-06-19,1,,,,,モバイルスタジオ,0
491,3011101112119,新規,0,2025-06-19,2025-06-19,しのはら株式会社,,株式会社,東京都,新宿区,新宿７丁目２番２－２１３号,,13,104,1600022,,,,,,,2025-06-19,1,,,,,シノハラ,0
494,3011501032206,新規,0,2025-06-19,2025-06-19,株式会社ミライシフト,,株式会社,東京都,北区,田端新町１丁目２２番６－１２０２号,,13,117,1140012,,,,,,,2025-06-19,1,,,,,ミライシフト,0
497,3011803006931,新規,0,2025-06-19,2025-06-19,合同会社ＥＳＥＭ,,合同会社,東京都,足立区,島根１丁目２番５－３０８号,,13,121,1210815,,,,,,,2025-06-19,1,,,,,イーエスイーエム,0
499,3012703003300,新規,0,2025-06-19,2025-06-19,ＳｙｎｃＬｅａｐ合同会社,,合同会社,東京都,東村山市,萩山町１丁目６番地３１,,13,213,1890012,,,,,,,2025-06-19,1,,,,,シンクリープ,0
500,3012801024033,新規,0,2025-06-19,2025-06-19,株式会社ＶＡＳＴ　Ｈｏｍｅ,,株式会社,東京都,武蔵村山市,学園１丁目１００番地１,,13,223,2080011,,,,,,,2025-06-19,1,,,,,ヴァストホーム,0
503,3013105001875,新規,0,2025-06-19,2025-06-19,一般社団法人西多摩ドローン協会,,その他の設立登記法人,東京都,青梅市,二俣尾３丁目８４３番地６,,13,205,1980171,,,,,,,2025-06-19,1,,,,,ニシタマドローンキョウカイ,0
510,3020001163452,新規,0,2025-06-19,2025-06-19,株式会社ナースワン,,株式会社,神奈川県,川崎市幸区,中幸町１丁目１５番地,,14,132,2120012,,,,,,,2025-06-19,1,,,,,ナースワン,0
511,3020001163460,新規,0,2025-06-19,2025-06-19,横浜ＥＸＰＯ株式会社,,株式会社,神奈川県,横浜市磯子区,磯子７丁目１５番２－３２３号,,14,107,2350016,,,,,,,2025-06-19,1,,,,,ヨコハマエキスポ,0
512,3020001163510,新規,0,2025-06-19,2025-06-19,株式会社アント,,株式会社,神奈川県,横浜市神奈川区,大口通１９―４,,14,102,2210002,,,,,,,2025-06-19,1,,,,,アント,0
516,3020003028686,新規,0,2025-06-19,2025-06-19,合同会社ＡＩアシスタント・ソリューションズ,,合同会社,神奈川県,横浜市保土ケ谷区,西谷１丁目２２番地１－７０９,,14,106,2400054,,,,,,,2025-06-19,1,,,,,エイアイアシスタントソリューションズ,0
517,3020003028769,新規,0,2025-06-19,2025-06-19,のびすたパートナーズ合同会社,,合同会社,神奈川県,川崎市高津区,二子４丁目１０番１ー６０１号,,14,134,2130002,,,,,,,2025-06-19,1,,,,,ノビスタパートナーズ,0
535,3030003027010,新規,0,2025-06-19,2025-06-19,合同会社さくらデリバリー,,合同会社,埼玉県,川口市,大字東本郷１０３１番地の１イーストビレッジ２０３号,,11,203,3340063,,,,,,,2025-06-19,1,,,,,サクラデリバリー,0
543,3060001038320,新規,0,2025-06-19,2025-06-19,株式会社ｅｔｅｃｏｐｏ,,株式会社,栃木県,小山市,粟宮１丁目１０番２号,,09,208,3290201,,,,,,,2025-06-19,1,,,,,エテコポ,0
544,3060003005599,新規,0,2025-06-19,2025-06-19,合同会社Ｍ,,合同会社,栃木県,足利市,葉鹿町２丁目１７番地１２,,09,202,3260143,,,,,,,2025-06-19,1,,,,,エム,0
548,3080001026991,新規,0,2025-06-19,2025-06-19,株式会社Ａｋｉｒａ,,株式会社,静岡県,静岡市葵区,幸町５番地の４,,22,101,4200067,,,,,,,2025-06-19,1,,,,,アキラ,0
563,3120001276426,新規,0,2025-06-19,2025-06-19,株式会社ＲＥＮＡ,,株式会社,大阪府,大阪市東淀川区,西淡路２丁目１４番地４Ｔ‘ＳＣＵＢＥ東淀川１０１号,,27,114,5330031,,,,,,,2025-06-19,1,,,,,レナ,0
567,3120003029740,新規,0,2025-06-19,2025-06-19,ＣＨＩＢＡ　ＪＡＰＡＮ合同会社,,合同会社,大阪府,大阪市淀川区,新高１丁目１５番３４－９０３号,,27,123,5320033,,,,,,,2025-06-19,1,,,,,チバジャパン,0
568,3120005024995,新規,0,2025-06-19,2025-06-19,一般社団法人笑顔会,,その他の設立登記法人,大阪府,大阪市天王寺区,北山町３番４号,,27,109,5430035,,,,,,,2025-06-19,1,,,,,エガオカイ,0
571,3120901051077,新規,0,2025-06-19,2025-06-19,ＬＥＡＤ株式会社,,株式会社,大阪府,茨木市,上泉町２番１９号,,27,211,5670811,,,,,,,2025-06-19,1,,,,,リード,0
573,3130001079910,新規,0,2025-06-19,2025-06-19,藤美電設株式会社,,株式会社,京都府,宇治市,小倉町蓮池１２８番地の７,,26,204,6110042,,,,,,,2025-06-19,1,,,,,トウビデンセツ,0
574,3130001079919,新規,0,2025-06-19,2025-06-19,株式会社ノアイエ,,株式会社,京都府,京都市左京区,北白川瀬ノ内町１２番地３,,26,103,6068253,,,,,,,2025-06-19,1,,,,,ノアイエ,0
575,3130001079927,新規,0,2025-06-19,2025-06-19,株式会社ＴＨＥＴＡ,,株式会社,京都府,京都市中京区,伊勢屋町２４１番地２,,26,104,6048066,,,,,,,2025-06-19,1,,,,,シータ,0
579,3140001138979,新規,0,2025-06-19,2025-06-19,株式会社ＮＯＯＫ,,株式会社,兵庫県,三田市,広沢１３４番地３,,28,219,6691332,,,,,,,2025-06-19,1,,,,,ヌック,0
581,3140003022223,新規,0,2025-06-19,2025-06-19,合同会社ラッキーハウス,,合同会社,兵庫県,西宮市,深津町１番３－３０３号,,28,204,6638203,,,,,,,2025-06-19,1,,,,,ラッキーハウス,0
583,3140005027534,新規,0,2025-06-19,2025-06-19,大塚運輸産業労働組合,,その他の設立登記法人,兵庫県,加古川市,西神吉町鼎６０番地,,28,210,6750047,,,,,,,2025-06-19,1,,,,,オオツカウンユサンギョウ,0
584,3150001028205,新規,0,2025-06-19,2025-06-19,アスフル株式会社,,株式会社,奈良県,奈良市,学園北１丁目１１番４号エル・アベニュー学園前,,29,201,6310036,,,,,,,2025-06-19,1,,,,,アスフル,0
586,3170003002230,新規,0,2025-06-19,2025-06-19,合同会社エヴァーレス,,合同会社,和歌山県,岩出市,曽屋４１５番地の１３,,30,209,6496236,,,,,,,2025-06-19,1,,,,,エヴァーレス,0
593,3180001167339,新規,0,2025-06-19,2025-06-19,株式会社ｋ’ｓ　ｃｏｍｐａｎｙ,,株式会社,愛知県,知多郡美浜町,大字河和字北屋敷３６番地６２,,23,446,4702407,,,,,,,2025-06-19,1,,,,,ケーズカンパニー,0
595,3180003028646,新規,0,2025-06-19,2025-06-19,ＮＡＥ合同会社,,合同会社,愛知県,小牧市,中央５丁目１２４番地２,,23,219,4850029,,,,,,,2025-06-19,1,,,,,ナエ,0
596,3180301039915,新規,0,2025-06-19,2025-06-19,株式会社シバ,,株式会社,愛知県,岡崎市,伊賀町字５丁目１３２番地１,,23,202,4440075,,,,,,,2025-06-19,1,,,,,シバ,0
597,3180301039923,新規,0,2025-06-19,2025-06-19,ウィルアーネスト株式会社,,株式会社,愛知県,豊橋市,浪ノ上町９番地１,,23,201,4400003,,,,,,,2025-06-19,1,,,,,ウィルアーネスト,0
598,3180301039931,新規,0,2025-06-19,2025-06-19,株式会社レグリス,,株式会社,愛知県,豊田市,小坂町１０丁目１０２番地１,,23,211,4710035,,,,,,,2025-06-19,1,,,,,レグリス,0
607,3220001026746,新規,0,2025-06-19,2025-06-19,株式会社榮,,株式会社,石川県,能美市,福島町ウ５９番地１,,17,211,9290112,,,,,,,2025-06-19,1,,,,,サカエ,0
620,3290001110460,新規,0,2025-06-19,2025-06-19,株式会社ＴＤＨ　ＦＣ,,株式会社,福岡県,福岡市中央区,今泉２丁目１番３４－６０１号,,40,133,8100021,,,,,,,2025-06-19,1,,,,,ティーディーエイチエフシー,0
621,3290001110477,新規,0,2025-06-19,2025-06-19,株式会社ＴＯＲＩＣＯＮＴＩＮＵＥ,,株式会社,福岡県,福岡市早良区,小田部１丁目２９番１０－２号,,40,137,8140032,,,,,,,2025-06-19,1,,,,,トリコンティニュー,0
627,3290801031641,新規,0,2025-06-19,2025-06-19,株式会社ＡＳＳＥＴ,,株式会社,福岡県,北九州市八幡西区,本城３丁目４－１,,40,109,8070801,,,,,,,2025-06-19,1,,,,,アセット,0
635,3370001052728,新規,0,2025-06-19,2025-06-19,株式会社ＹＵＩＭＡ,,株式会社,宮城県,宮城郡利府町,花園３丁目１６番地１９,,04,406,9810132,,,,,,,2025-06-19,1,,,,,ユイマ,0
645,3430003017796,新規,0,2025-06-19,2025-06-19,合同会社そしてつづく,,合同会社,北海道,札幌市厚別区,厚別中央三条６丁目５番５‐１０５号,,01,108,0040053,,,,,,,2025-06-19,1,,,,,ソシテツヅク,0
661,4010001256082,新規,0,2025-06-19,2025-06-19,株式会社ＷｉｚＭｅ,,株式会社,東京都,中央区,銀座１丁目１２－４Ｎ＆ＥＢＬＤ．７階,,13,102,1040061,,,,,,,2025-06-19,1,,,,,ウィズミー,0
662,4010003047711,新規,0,2025-06-19,2025-06-19,合同会社エステイーファクトリー,,合同会社,東京都,千代田区,神田和泉町１番地６の１６ヤマトビル４０５,,13,101,1010024,,,,,,,2025-06-19,1,,,,,エステイーファクトリー,0
663,4010003047728,新規,0,2025-06-19,2025-06-19,合同会社Ｋ３,,合同会社,東京都,中央区,勝どき１丁目８番１－２４１５号,,13,102,1040054,,,,,,,2025-06-19,1,,,,,ケイスリー,0
665,4010005040219,新規,0,2025-06-19,2025-06-19,一般社団法人日本認定キャディ協会,,その他の設立登記法人,東京都,中央区,銀座１丁目２２番１１号銀座大竹ビジデンス２Ｆ,,13,102,1040061,,,,,,,2025-06-19,1,,,,,,0
672,4010401191136,新規,0,2025-06-19,2025-06-19,株式会社Ｙｉｎ＆Ｙａｎｇ,,株式会社,東京都,港区,南麻布１丁目７番２８号ヴァレンティア麻布１階,,13,103,1060047,,,,,,,2025-06-19,1,,,,,インアンドヤン,0
673,4010401191152,新規,0,2025-06-19,2025-06-19,Ｉｎｂｏｕｎｄ　Ｓｔｒａｔｅｇｙ株式会社,,株式会社,東京都,港区,南青山２丁目２番１５号,,13,103,1070062,,,,,,,2025-06-19,1,,,,,インバウンドストラテジー,0
675,4010403035398,新規,0,2025-06-19,2025-06-19,合同会社ｌｉｂｅｒｔｙ,,合同会社,東京都,港区,北青山１丁目３－３三橋ビル３階,,13,103,1070061,,,,,,,2025-06-19,1,,,,,リバティ,0
680,4010501054259,新規,0,2025-06-19,2025-06-19,アイビス警備株式会社,,株式会社,東京都,台東区,東上野２丁目９番１号,,13,106,1100015,,,,,,,2025-06-19,1,,,,,アイビスケイビ,0
681,4010501054275,新規,0,2025-06-19,2025-06-19,株式会社スプリングデイズ,,株式会社,東京都,台東区,上野６丁目１番６－１００５号御徒町グリーンハイツ,,13,106,1100005,,,,,,,2025-06-19,1,,,,,スプリングデイズ,0
703,4011001169902,新規,0,2025-06-19,2025-06-19,株式会社もちパスポート,,株式会社,東京都,渋谷区,道玄坂１丁目１０番８号渋谷道玄坂東急ビル２Ｆ－Ｃ,,13,113,1500043,,,,,,,2025-06-19,1,,,,,モチパスポート,0
704,4011001170298,新規,0,2025-06-19,2025-06-19,Ｒａｒｅ株式会社,,株式会社,東京都,渋谷区,神宮前４丁目２６番２８号原宿Ｖ２ビル２Ｆ,,13,113,1500001,,,,,,,2025-06-19,1,,,,,レア,0
705,4011001170307,新規,0,2025-06-19,2025-06-19,株式会社Ａｌｕｍｆｏｒｅ,,株式会社,東京都,渋谷区,代官山町２０番６号,,13,113,1500034,,,,,,,2025-06-19,1,,,,,アラムフォア,0
706,4011001170323,新規,0,2025-06-19,2025-06-19,株式会社ＫＡＫＫＯ,,株式会社,東京都,目黒区,下目黒２丁目１４番１０号,,13,110,1530064,,,,,,,2025-06-19,1,,,,,カッコー,0
715,4011101112101,新規,0,2025-06-19,2025-06-19,Ｍｅｒｋｐｈｉｌｅｉｎ　Ｍｅｒａｋｉ　Ｖａｇａ株式会社,,株式会社,東京都,新宿区,住吉町４番１５号,,13,104,1620065,,,,,,,2025-06-19,1,,,,,メルキフィレインメラキヴァガ,0
716,4011101112167,新規,0,2025-06-19,2025-06-19,株式会社エムズ,,株式会社,東京都,新宿区,西新宿６丁目５番１号新宿アイランドタワー２階,,13,104,1600023,,,,,,,2025-06-19,1,,,,,エムズ,0
721,4011305003047,新規,0,2025-06-19,2025-06-19,一般社団法人翠青会,,その他の設立登記法人,東京都,杉並区,高井戸西２丁目１０番９号ノースメインビル１０１,,13,115,1680071,,,,,,,2025-06-19,1,,,,,スイセイカイ,0
725,4011603004738,新規,0,2025-06-19,2025-06-19,合同会社だるま,,合同会社,東京都,練馬区,上石神井４丁目２０－１,,13,120,1770044,,,,,,,2025-06-19,1,,,,,ダルマ,0
729,4011801046342,新規,0,2025-06-19,2025-06-19,株式会社サムファＦ＆Ｄ,,株式会社,東京都,足立区,加賀２丁目１２番１８号,,13,121,1230861,,,,,,,2025-06-19,1,,,,,サムファエフアンドディー,0
738,4012701018919,新規,0,2025-06-19,2025-06-19,株式会社Ｂｅ　ｇｒｅｅｎｓｉｄｅ,,株式会社,東京都,西東京市,保谷町５丁目１７番６号,,13,229,2020015,,,,,,,2025-06-19,1,,,,,ビーグリーンサイド,0
739,4012703003299,新規,0,2025-06-19,2025-06-19,合同会社ツチノコネットワーク,,合同会社,東京都,東久留米市,柳窪４丁目１番２２号,,13,222,2030044,,,,,,,2025-06-19,1,,,,,ツチノコネットワーク,0
748,4030001167162,新規,0,2025-06-19,2025-06-19,株式会社武蔵ＪＯＩＮＴ,,株式会社,埼玉県,本庄市,本庄４丁目３番２２号,,11,211,3670051,,,,,,,2025-06-19,1,,,,,ムサシジョイント,0
751,4030003026969,新規,0,2025-06-19,2025-06-19,合同会社ＢＯＲＤＥＲＳ,,合同会社,埼玉県,越谷市,弥栄町１丁目１０５－１３,,11,222,3430046,,,,,,,2025-06-19,1,,,,,ボーダーズ,0
762,4050001056826,新規,0,2025-06-19,2025-06-19,株式会社ＰｅｒＳａｎａ,,株式会社,茨城県,結城市,下り松４丁目１１番４,,08,207,3070008,,,,,,,2025-06-19,1,,,,,ペルサナ,0
765,4070003005960,新規,0,2025-06-19,2025-06-19,Ｍａｒｌｏ　Ｈｏｌｄｉｎｇｓ合同会社,,合同会社,群馬県,利根郡みなかみ町,下牧１４７３－１ＭｉｎａｋａｍｉＨｏｕｓｅ,,10,449,3791304,,,,,,,2025-06-19,1,,,,,マーロホールディングス,0
774,4080401027977,新規,0,2025-06-19,2025-06-19,ＧＲＡＮＣＩＥＬ株式会社,,株式会社,静岡県,磐田市,見付３９３３番地３,,22,211,4380086,,,,,,,2025-06-19,1,,,,,グランシエル,0
780,4100001038703,新規,0,2025-06-19,2025-06-19,Ｂｉｒｄｙ　Ｓｎｏｗ株式会社,,株式会社,長野県,大町市,平２８１０番３,,20,212,3980001,,,,,,,2025-06-19,1,,,,,バーディスノー,0
788,4120001276937,新規,0,2025-06-19,2025-06-19,吉祥商事株式会社,,株式会社,大阪府,大阪市阿倍野区,丸山通１丁目５番２－２０３号,,27,119,5450042,,,,,,,2025-06-19,1,,,,,キッショウショウジ,0
789,4120001276953,新規,0,2025-06-19,2025-06-19,鮑王株式会社,,株式会社,大阪府,大阪市中央区,南久宝寺二丁目５番３－６０２号,,27,128,5390000,,,,,,,2025-06-19,1,,,,,バオワン,0
790,4120001276978,新規,0,2025-06-19,2025-06-19,株式会社チェーンリアクション,,株式会社,大阪府,大阪市福島区,海老江５丁目２番２－７０６号,,27,103,5530001,,,,,,,2025-06-19,1,,,,,チェーンリアクション,0
793,4120003029797,新規,0,2025-06-19,2025-06-19,Ｍ・Ｓｔｙｌｅ合同会社,,合同会社,大阪府,大阪市北区,梅田１丁目１番３号大阪駅前第３ビル２９階１－１－１号室,,27,127,5300001,,,,,,,2025-06-19,1,,,,,エムスタイル,0
806,4140001138920,新規,0,2025-06-19,2025-06-19,山六株式会社,,株式会社,兵庫県,伊丹市,山田３丁目１１番７号,,28,207,6640874,,,,,,,2025-06-19,1,,,,,ヤマロク,0
807,4140001139002,新規,0,2025-06-19,2025-06-19,株式会社ミッション,,株式会社,兵庫県,加西市,島町１－１８１,,28,220,6752431,,,,,,,2025-06-19,1,,,,,ミッション,0
816,4150001028204,新規,0,2025-06-19,2025-06-19,株式会社フジエイ,,株式会社,奈良県,天理市,檜垣町３６４番地１,,29,204,6320054,,,,,,,2025-06-19,1,,,,,フジエイ,0
818,4170001018673,新規,0,2025-06-19,2025-06-19,株式会社徹美堂,,株式会社,和歌山県,岩出市,荊本１３５－１,,30,209,6496232,,,,,,,2025-06-19,1,,,,,テツビドウ,0
826,4180301039914,新規,0,2025-06-19,2025-06-19,株式会社クライト,,株式会社,愛知県,蒲郡市,蒲郡町荒子７０番地１,,23,214,4430006,,,,,,,2025-06-19,1,,,,,クライト,0
827,4180301039922,新規,0,2025-06-19,2025-06-19,ＧＭＧ株式会社,,株式会社,愛知県,豊田市,上野町１丁目５６１番地ＣｏｓｍｏＡ号,,23,211,4710015,,,,,,,2025-06-19,1,,,,,ジーエムジー,0
828,4180303006615,新規,0,2025-06-19,2025-06-19,Ｓｉｉアセットマネジメント合同会社,,合同会社,愛知県,豊田市,河合町１丁目１３番地８,,23,211,4710824,,,,,,,2025-06-19,1,,,,,シーアセットマネジメント,0
852,4290003017018,新規,0,2025-06-19,2025-06-19,合同会社ＴＥＲＡＳＨＩ,,合同会社,福岡県,春日市,日の出町１丁目１番地１リーベスト春日桜ヶ丘５０９号,,40,218,8160873,,,,,,,2025-06-19,1,,,,,テラシ,0
861,4330003011065,新規,0,2025-06-19,2025-06-19,合同会社舩水,,合同会社,熊本県,阿蘇郡産山村,大字産山２８４番地１,,43,425,8692705,,,,,,,2025-06-19,1,,,,,フナミズ,0
868,4340003004877,新規,0,2025-06-19,2025-06-19,Ｂ‐Ｏｈａｎａ合同会社,,合同会社,鹿児島県,鹿児島市,上之園町２２番地２６,,46,201,8900052,,,,,,,2025-06-19,1,,,,,ビーオハナ,0
869,4350001019604,新規,0,2025-06-19,2025-06-19,株式会社ハーモニーサポート,,株式会社,宮崎県,日南市,戸高１丁目１０番地５,,45,204,8870031,,,,,,,2025-06-19,1,,,,,ハーモニーサポート,0
872,4360001035360,新規,0,2025-06-19,2025-06-19,株式会社ＥＬＹＦＩＣ,,株式会社,沖縄県,浦添市,前田１丁目４６－２７,,47,208,9012102,,,,,,,2025-06-19,1,,,,,エリフィック,0
873,4360001035369,新規,0,2025-06-19,2025-06-19,株式会社ふくふる,,株式会社,沖縄県,那覇市,長田２丁目２７番３１号７０１,,47,201,9020077,,,,,,,2025-06-19,1,,,,,フクフル,0
878,4370001052727,新規,0,2025-06-19,2025-06-19,株式会社新古川ミート,,株式会社,宮城県,大崎市,古川飯川字十文字１０５番地１,,04,215,9896203,,,,,,,2025-06-19,1,,,,,シンフルカワミート,0
883,4390001018024,新規,0,2025-06-19,2025-06-19,株式会社ラフィンハーツ,,株式会社,山形県,米沢市,中田町５６８番地の６,,06,202,9920011,,,,,,,2025-06-19,1,,,,,ラフィンハーツ,0
884,4400001017073,新規,0,2025-06-19,2025-06-19,株式会社こうやアセットマネージメント,,株式会社,岩手県,二戸市,福岡字中町１３番地,,03,213,0286101,,,,,,,2025-06-19,1,,,,,コウヤアセットマネージメント,0
886,4410001014193,新規,0,2025-06-19,2025-06-19,株式会社慈海,,株式会社,秋田県,大仙市,清水字切上１３０番地,,05,212,0140204,,,,,,,2025-06-19,1,,,,,ジカイ,0
888,4430001094713,新規,0,2025-06-19,2025-06-19,株式会社Ｐａｎｐｉｉ,,株式会社,北海道,札幌市清田区,平岡公園東１丁目１１番８号,,01,110,0040882,,,,,,,2025-06-19,1,,,,,パンピー,0
893,4460103001721,新規,0,2025-06-19,2025-06-19,合同会社エンタープライズ中村,,合同会社,北海道,帯広市,西二十条南５丁目６番１８号,,01,207,0802470,,,,,,,2025-06-19,1,,,,,エンタープライズナカムラ,0
911,5010001256081,新規,0,2025-06-19,2025-06-19,日本パチ新精工株式会社,,株式会社,東京都,文京区,千石４丁目１４番９号,,13,105,1120011,,,,,,,2025-06-19,1,,,,,ニホンパチシンセイコウ,0
914,5010003047743,新規,0,2025-06-19,2025-06-19,合同会社アンドエス,,合同会社,東京都,中央区,佃１丁目５番７号,,13,102,1040051,,,,,,,2025-06-19,1,,,,,アンドエス,0
920,5010401191151,新規,0,2025-06-19,2025-06-19,ＢＵＲＧＵＮＤＹ株式会社,,株式会社,東京都,港区,南青山３丁目１番３６号,,13,103,1070062,,,,,,,2025-06-19,1,,,,,バーガンディ,0
922,5010403035414,新規,0,2025-06-19,2025-06-19,合同会社アドクエスト,,合同会社,東京都,港区,虎ノ門１丁目１７番１号虎ノ門ヒルズビジネスタワー１５階,,13,103,1050001,,,,,,,2025-06-19,1,,,,,アドクエスト,0
926,5010501054233,新規,0,2025-06-19,2025-06-19,株式会社ａｎｙ　ａｄｖｉｓｏｒｙ,,株式会社,東京都,台東区,東上野３丁目１５番１０号東観第一ビル５階,,13,106,1100015,,,,,,,2025-06-19,1,,,,,エニーアドバイザリー,0
927,5010501054266,新規,0,2025-06-19,2025-06-19,株式会社Ｂ．Ｂ　Ｓｑｕａｒｅ,,株式会社,東京都,台東区,台東２丁目２３－１２プラチナフォルム上野秋葉原ＩＩＩ１０２,00139625,13,106,1100016,,,,,,,2025-06-19,1,,,,,ビービースクエア,0
935,5010901057612,新規,0,2025-06-19,2025-06-19,エコースペースプロダクション株式会社,,株式会社,東京都,世田谷区,玉川３丁目２０番２号マノア玉川第３ビル５０１号室,,13,112,1580094,,,,,,,2025-06-19,1,,,,,エコースペースプロダクション,0
941,5011003021457,新規,0,2025-06-19,2025-06-19,合同会社クリユウ,,合同会社,東京都,渋谷区,神泉町１１‐５メゾン・ド・ヴィレ渋谷９０４,,13,113,1500045,,,,,,,2025-06-19,1,,,,,クリユウ,0
943,5011005011076,新規,0,2025-06-19,2025-06-19,司法書士法人アルゴ,,その他の設立登記法人,東京都,渋谷区,恵比寿１丁目１８番１８号東急不動産恵比寿ビル５階,,13,113,1500013,,,,,,,2025-06-19,1,,,,,アルゴ,0
950,5011303005580,新規,0,2025-06-19,2025-06-19,合同会社エースプロ,,合同会社,東京都,杉並区,西荻北５丁目２番１３号,,13,115,1670042,,,,,,,2025-06-19,1,,,,,エースプロ,0
954,5011501032212,新規,0,2025-06-19,2025-06-19,株式会社Ｋ２ＳＴＡＲ測量,,株式会社,東京都,荒川区,西尾久８丁目４１番３－１０１号,,13,118,1160011,,,,,,,2025-06-19,1,,,,,ケーツースターソクリョウ,0
958,5011503006585,新規,0,2025-06-19,2025-06-19,ＭＯＭＩＪＩ　ＡＳＩＡＮ　ＳＴＯＲＥ合同会社,,合同会社,東京都,荒川区,西日暮里４丁目２１番４－４０２号道灌山レジデンシア,,13,118,1160013,,,,,,,2025-06-19,1,,,,,モミジアジアンストア,0
963,5011701028415,新規,0,2025-06-19,2025-06-19,和心生活産業株式会社,,株式会社,東京都,江戸川区,西小岩５丁目１３番１３小出マンション１３９号室,,13,123,1330057,,,,,,,2025-06-19,1,,,,,ワシンセイカツサンギョウ,0
971,5013101009714,新規,0,2025-06-19,2025-06-19,株式会社清水緑工,,株式会社,東京都,あきる野市,引田３５８番地２１,,13,228,1970834,,,,,,,2025-06-19,1,,,,,シミズリョッコウ,0
972,5013101009722,新規,0,2025-06-19,2025-06-19,ＮＳＹコンサルティング株式会社,,株式会社,東京都,青梅市,日向和田３丁目８４３番地の４,,13,205,1980046,,,,,,,2025-06-19,1,,,,,エヌエスワイコンサルティング,0
977,5013303007730,新規,0,2025-06-19,2025-06-19,ＳＩＧ‐Ｌ合同会社,,合同会社,東京都,豊島区,雑司が谷３丁目３番地２５号,,13,116,1710032,,,,,,,2025-06-19,1,,,,,エスアイジーエル,0
984,5021003016142,新規,0,2025-06-19,2025-06-19,Ｌｏｗ　Ｆｉｖｅ　Ｓｕｐｐｌｙ合同会社,,合同会社,神奈川県,厚木市,中町４丁目１４番１号サクセス本厚木ビル５階－６階,,14,212,2430018,,,,,,,2025-06-19,1,,,,,ローファイブサプライ,0
989,5030001167095,新規,0,2025-06-19,2025-06-19,株式会社Ａｒｃａｌｉｎｋ,,株式会社,埼玉県,所沢市,東所沢２丁目４４番８号,,11,208,3590021,,,,,,,2025-06-19,1,,,,,アルカリンク,0
990,5030001167161,新規,0,2025-06-19,2025-06-19,萬利株式会社,,株式会社,埼玉県,北葛飾郡杉戸町,大字並塚１番地２,,11,464,3450015,,,,,,,2025-06-19,1,,,,,マンリ,0
991,5030001167186,新規,0,2025-06-19,2025-06-19,株式会社ＺＡＴＯ,,株式会社,埼玉県,さいたま市中央区,下落合６丁目１２番２０号,,11,105,3380002,,,,,,,2025-06-19,1,,,,,,0
997,5030003027017,新規,0,2025-06-19,2025-06-19,合同会社ＳＴＯＣＫ,,合同会社,埼玉県,北葛飾郡杉戸町,高野台西３丁目２９番地８,,11,464,3450045,,,,,,,2025-06-19,1,,,,,ストック,0
1002,5040001139283,新規,0,2025-06-19,2025-06-19,株式会社ＥＬＬＳＡ,,株式会社,千葉県,船橋市,本町７丁目１８番２１号,,12,204,2730005,,,,,,,2025-06-19,1,,,,,エルサ,0
1008,5070001043037,新規,0,2025-06-19,2025-06-19,株式会社ｆｒｏｍＺＥＲＯ,,株式会社,群馬県,前橋市,上小出町２丁目１２番地６,,10,201,3710037,,,,,,,2025-06-19,1,,,,,フロムゼロ,0
1009,5070001043053,新規,0,2025-06-19,2025-06-19,群馬エコカーボン株式会社,,株式会社,群馬県,安中市,原市６０５寺田ビル３０２号室,,10,211,3790133,,,,,,,2025-06-19,1,,,,,グンマエコカーボン,0
1011,5070003005968,新規,0,2025-06-19,2025-06-19,合同会社ひなた商事,,合同会社,群馬県,高崎市,貝沢町１２８９番地１クオリーＧ,,10,202,3700042,,,,,,,2025-06-19,1,,,,,ヒナタショウジ,0
1020,5100001038710,新規,0,2025-06-19,2025-06-19,バードアイ株式会社,,株式会社,長野県,長野市,大字鶴賀上千歳町１１３７番地２３,,20,201,3800821,,,,,,,2025-06-19,1,,,,,バードアイ,0
1022,5110001039360,新規,0,2025-06-19,2025-06-19,株式会社ＵＵＵＵ,,株式会社,新潟県,新潟市中央区,学校町通３番町５３１４番地２Ｌ、ｃｏｌｌｅｃｔｉｏｎ乙女坂２号室,,15,103,9518126,,,,,,,2025-06-19,1,,,,,フォーユー,0
1036,5120001276952,新規,0,2025-06-19,2025-06-19,善株式会社,,株式会社,大阪府,大阪市浪速区,日本橋５丁目１２番５号ＫＳ日本橋ビル３０３,,27,111,5560005,,,,,,,2025-06-19,1,,,,,ゼン,0
1037,5120001276960,新規,0,2025-06-19,2025-06-19,株式会社飯米粒,,株式会社,大阪府,大阪市天王寺区,東上町８－３トラスティコート２０２,,27,109,5430026,,,,,,,2025-06-19,1,,,,,ハンミリ,0
1038,5120003029796,新規,0,2025-06-19,2025-06-19,玉龍商事合同会社,,合同会社,大阪府,大阪市住之江区,安立１丁目２番１３号田中ビル４０３Ｃ,,27,125,5590003,,,,,,,2025-06-19,1,,,,,ギョクリュウショウジ,0
1041,5120101071923,新規,0,2025-06-19,2025-06-19,三栄住宅株式会社,,株式会社,大阪府,堺市西区,上４４１番地１,,27,144,5938311,,,,,,,2025-06-19,1,,,,,サンエイジュウタク,0
1045,5120103006530,新規,0,2025-06-19,2025-06-19,合同会社ＪＡＹＡＴＥＣＨ,,合同会社,大阪府,堺市北区,東三国ヶ丘町２丁１番３―２０７号,,27,146,5918046,,,,,,,2025-06-19,1,,,,,ジャヤテック,0
1047,5120901051075,新規,0,2025-06-19,2025-06-19,株式会社ＴＲＹ,,株式会社,大阪府,高槻市,岡本町６９番２７号,,27,207,5691137,,,,,,,2025-06-19,1,,,,,ティーアールワイ,0
1052,5130001079917,新規,0,2025-06-19,2025-06-19,バーチャルベース株式会社,,株式会社,京都府,京都市伏見区,深草西浦町２丁目３３番地１１,,26,109,6120029,,,,,,,2025-06-19,1,,,,,バーチャルベース,0
1055,5130003010557,新規,0,2025-06-19,2025-06-19,ＡＩＢＥＲＲＹ合同会社,,合同会社,京都府,京都市伏見区,深草フチ町１４番地６５,,26,109,6128438,,,,,,,2025-06-19,1,,,,,アイベリ,0
1059,5140001138960,新規,0,2025-06-19,2025-06-19,株式会社イフカム,,株式会社,兵庫県,神戸市長田区,川西通４丁目１０２番地の９,,28,106,6530834,,,,,,,2025-06-19,1,,,,,イフカム,0
1060,5140001138969,新規,0,2025-06-19,2025-06-19,ＫＢＢコンサルティング株式会社,,株式会社,兵庫県,神戸市中央区,中町通２丁目３番２号,,28,110,6500027,,,,,,,2025-06-19,1,,,,,ケービービーコンサルティング,0
1062,5140003022205,新規,0,2025-06-19,2025-06-19,合同会社湊商会,,合同会社,兵庫県,神戸市中央区,相生町４丁目７－１３第２神戸サンクレバー４Ｃ,,28,110,6500025,,,,,,,2025-06-19,1,,,,,ミナトショウカイ,0
1063,5140003022221,新規,0,2025-06-19,2025-06-19,合同会社黒瀬,,合同会社,兵庫県,明石市,本町１丁目２番３３号,,28,203,6730892,,,,,,,2025-06-19,1,,,,,クロセ,0
1064,5140005027540,新規,0,2025-06-19,2025-06-19,北はりまＩＴ協同組合,,その他の設立登記法人,兵庫県,西脇市,西脇８８５－１８５ＬＬＣＢｒｉｌｌｉａｎｔＢＬＤＧ．２Ｆ内,,28,213,6770015,,,,,,,2025-06-19,1,,,,,キタハリマアイティー,0
1065,5150001028203,新規,0,2025-06-19,2025-06-19,株式会社Ｆ．ＣＯＮＳＴＲＵＣＴＩＯＮ,,株式会社,奈良県,香芝市,狐井６２８番地１,,29,210,6390234,,,,,,,2025-06-19,1,,,,,エフコンストラクション,0
1066,5150003003633,新規,0,2025-06-19,2025-06-19,合同会社プレシャス,,合同会社,奈良県,桜井市,大字箸中９２１番地の３,,29,206,6330072,,,,,,,2025-06-19,1,,,,,プレシャス,0
1067,5160001026833,新規,0,2025-06-19,2025-06-19,株式会社３３,,株式会社,滋賀県,大津市,下阪本５丁目６番３２号,,25,201,5200105,,,,,,,2025-06-19,1,,,,,サンサン,0
1073,5180001167329,新規,0,2025-06-19,2025-06-19,乙巳麺業株式会社,,株式会社,愛知県,知多郡阿久比町,大字白沢字天神裏２番地１１,,23,441,4702201,,,,,,,2025-06-19,1,,,,,キノトミメンギョウ,0
1074,5180001167345,新規,0,2025-06-19,2025-06-19,株式会社成瀬,,株式会社,愛知県,犬山市,大字犬山字北古券６５番地５,,23,215,4840082,,,,,,,2025-06-19,1,,,,,ナルセ,0
1079,5180003028636,新規,0,2025-06-19,2025-06-19,ヘルツ合同会社,,合同会社,愛知県,名古屋市中区,栄５丁目２６番３６号ＧＳ栄ＩＩ７Ｆ,00139624,23,106,4600008,,,,,,,2025-06-19,1,,,,,ヘルツ,0
1089,5210001020211,新規,0,2025-06-19,2025-06-19,株式会社ＬＣ,,株式会社,福井県,福井市,順化２丁目２０番１号ランドマーク３Ｆ,,18,201,9100023,,,,,,,2025-06-19,1,,,,,エルシー,0
1101,5260003005222,新規,0,2025-06-19,2025-06-19,合同会社Ｌｉｎｋ,,合同会社,岡山県,備前市,日生町日生２５８３番地,,33,211,7013204,,,,,,,2025-06-19,1,,,,,リンク,0
1105,5290001110434,新規,0,2025-06-19,2025-06-19,株式会社ヤマコネ,,株式会社,福岡県,福岡市中央区,天神４丁目６－２８いちご天神ノースビル７階,,40,133,8100001,,,,,,,2025-06-19,1,,,,,ヤマコネ,0
1106,5290001110442,新規,0,2025-06-19,2025-06-19,株式会社ＷＴコンサルティング,,株式会社,福岡県,福岡市博多区,博多駅東２丁目６番１号九勧筑紫通ビル９階,,40,132,8120013,,,,,,,2025-06-19,1,,,,,ダブルティコンサルティング,0
1108,5290003017017,新規,0,2025-06-19,2025-06-19,ＬＬバッテリー合同会社,,合同会社,福岡県,福岡市西区,北原１丁目１４番１９号,,40,135,8190379,,,,,,,2025-06-19,1,,,,,エルエルバッテリー,0
1116,5350001019603,新規,0,2025-06-19,2025-06-19,株式会社ＲＯＩＬ,,株式会社,宮崎県,日南市,岩崎２丁目４番２１号,,45,204,8870014,,,,,,,2025-06-19,1,,,,,ロイル,0
1124,5390001018023,新規,0,2025-06-19,2025-06-19,源藤工建株式会社,,株式会社,山形県,米沢市,大字舘山３２３番地の２１,,06,202,9920072,,,,,,,2025-06-19,1,,,,,,0
1130,5400001017072,新規,0,2025-06-19,2025-06-19,株式会社みずほアセットマネージメント,,株式会社,岩手県,二戸市,福岡字中町１３番地,,03,213,0286101,,,,,,,2025-06-19,1,,,,,ミズホアセットマネージメント,0
1131,5400003003483,新規,0,2025-06-19,2025-06-19,合同会社ＯＳＴｒｉｃａ,,合同会社,岩手県,滝沢市,鵜飼迫７０番地１ロフティー滝沢８０６号,,03,216,0200653,,,,,,,2025-06-19,1,,,,,オストリカ,0
1132,5410005006649,新規,0,2025-06-19,2025-06-19,農事組合法人スマイルたてごし,,その他の設立登記法人,秋田県,南秋田郡五城目町,舘越字舘回２１４番地,,05,361,0181714,,,,,,,2025-06-19,1,,,,,スマイルタテゴシ,0
1137,5450001014651,新規,0,2025-06-19,2025-06-19,エムテック株式会社,,株式会社,北海道,上川郡下川町,共栄町１２５番地２,,01,468,0981203,,,,,,,2025-06-19,1,,,,,エムテック,0
1139,5460003001060,新規,0,2025-06-19,2025-06-19,合同会社Ｒｅｈａ　Ｍａｔｅｓ,,合同会社,北海道,釧路市,材木町１８番１３号,,01,206,0850815,,,,,,,2025-06-19,1,,,,,リハメイト,0
1148,6010003047593,新規,0,2025-06-19,2025-06-19,Ｔ・Ｋコーポレーション合同会社,,合同会社,東京都,千代田区,神田和泉町１番地６－１６ヤマトビル４０５,,13,101,1010024,,,,,,,2025-06-19,1,,,,,ティーケイコーポレーション,0
1150,6010005040183,新規,0,2025-06-19,2025-06-19,一般社団法人金子ファミリートラスト,,その他の設立登記法人,東京都,文京区,大塚５丁目１６番１３号,,13,105,1120012,,,,,,,2025-06-19,1,,,,,カネコファミリートラスト,0
1151,6010005040217,新規,0,2025-06-19,2025-06-19,一般社団法人クリスタルホールディングススリー,,その他の設立登記法人,東京都,千代田区,丸の内１丁目４番１号東京共同会計事務所内,,13,101,1000005,,,,,,,2025-06-19,1,,,,,クリスタルホールディングススリー,0
1158,6010401191159,新規,0,2025-06-19,2025-06-19,ネオセルフ・セラピューティクス株式会社,,株式会社,東京都,港区,南青山３丁目１番３６号青山丸竹ビル６Ｆ,,13,103,1070062,,,,,,,2025-06-19,1,,,,,ネオセルフセラピューティクス,0
1160,6010403035405,新規,0,2025-06-19,2025-06-19,合同会社ＢＳＤ,,合同会社,東京都,港区,芝４丁目７－６芝ビルディング７０４,,13,103,1080014,,,,,,,2025-06-19,1,,,,,ビーエスディー,0
1161,6010501054174,新規,0,2025-06-19,2025-06-19,株式会社Ｖｏｌｔ,,株式会社,東京都,台東区,千束２丁目５－８ベルツリーハウス１０２,,13,106,1110031,,,,,,,2025-06-19,1,,,,,ボルト,0
1163,6010601067489,新規,0,2025-06-19,2025-06-19,株式会社Ｇ＆Ｔ,,株式会社,東京都,墨田区,立川２丁目１－１８－２０２,,13,107,1300023,,,,,,,2025-06-19,1,,,,,ジーアンドティー,0
1186,6011001170189,新規,0,2025-06-19,2025-06-19,ＭａｇｉｃＦｏｒ株式会社,,株式会社,東京都,渋谷区,本町５丁目１８番９号,,13,113,1510071,,,,,,,2025-06-19,1,,,,,マジックフォー,0
1190,6011003021919,新規,0,2025-06-19,2025-06-19,アソビファクトリー合同会社,,合同会社,東京都,渋谷区,神泉町１０番１５号アネックス神泉３０１,,13,113,1500045,,,,,,,2025-06-19,1,,,,,アソビファクトリー,0
1198,6011501032211,新規,0,2025-06-19,2025-06-19,桜鶴株式会社,,株式会社,東京都,北区,東田端２丁目９‐１７,,13,117,1140013,,,,,,,2025-06-19,1,,,,,オウカク,0
1199,6011503006584,新規,0,2025-06-19,2025-06-19,合同会社碁創テック,,合同会社,東京都,荒川区,西尾久４丁目２４番２号２０１室,,13,118,1160011,,,,,,,2025-06-19,1,,,,,ゴソウテック,0
1205,6011701028463,新規,0,2025-06-19,2025-06-19,株式会社ＮＳＹ設備設計,,株式会社,東京都,江戸川区,東葛西５丁目１－６,,13,123,1340084,,,,,,,2025-06-19,1,,,,,エヌエスワイセツビセッケイ,0
1208,6011803006929,新規,0,2025-06-19,2025-06-19,星川鹿合同会社,,合同会社,東京都,葛飾区,東新小岩８丁目４１番７号１Ｆ,,13,122,1240023,,,,,,,2025-06-19,1,,,,,ホシカワシカ,0
1213,6012401043249,新規,0,2025-06-19,2025-06-19,株式会社ドリルアンドホール,,株式会社,東京都,調布市,布田６丁目５９番地６,,13,208,1820024,,,,,,,2025-06-19,1,,,,,ドリルアンドホール,0
1214,6012401043257,新規,0,2025-06-19,2025-06-19,株式会社ＰＵＳＨ,,株式会社,東京都,調布市,深大寺元町３丁目２９番地１７,,13,208,1820017,,,,,,,2025-06-19,1,,,,,プッシュ,0
1224,6020001163276,新規,0,2025-06-19,2025-06-19,株式会社Ｍ．エイト,,株式会社,神奈川県,横浜市青葉区,美しが丘３丁目２７番地１－１０１,,14,117,2250002,,,,,,,2025-06-19,1,,,,,エムエイト,0
1225,6020001163466,新規,0,2025-06-19,2025-06-19,株式会社ＧＥＮＬＩＮＫ,,株式会社,神奈川県,川崎市多摩区,宿河原５丁目２１番地３６－３０２号,,14,135,2140021,,,,,,,2025-06-19,1,,,,,ジェンリンク,0
1228,6020003028758,新規,0,2025-06-19,2025-06-19,合同会社モフドラ,,合同会社,神奈川県,横浜市戸塚区,平戸町３７３番地９,,14,110,2440803,,,,,,,2025-06-19,1,,,,,モフドラ,0
1229,6020003028774,新規,0,2025-06-19,2025-06-19,合同会社Ｇｌｏｗ,,合同会社,神奈川県,横浜市南区,南太田１丁目１４―１―７０５,,14,105,2320006,,,,,,,2025-06-19,1,,,,,グロウ,0
1243,6030001167193,新規,0,2025-06-19,2025-06-19,株式会社クリエイト,,株式会社,埼玉県,三郷市,番匠免１丁目２０９－２,,11,237,3410056,,,,,,,2025-06-19,1,,,,,クリエイト,0
1244,6030003026967,新規,0,2025-06-19,2025-06-19,合同会社ＴＯＲＩＮＡ,,合同会社,埼玉県,深谷市,宿根６０７－５,,11,218,3660810,,,,,,,2025-06-19,1,,,,,トリナ,0
1253,6040003027898,新規,0,2025-06-19,2025-06-19,合同会社ｙａｒｄ　Ｘ１,,合同会社,千葉県,木更津市,新田２丁目３－１０,,12,206,2920832,,,,,,,2025-06-19,1,,,,,ヤードエックスワン,0
1259,6070001043052,新規,0,2025-06-19,2025-06-19,株式会社ルミナス,,株式会社,群馬県,邑楽郡明和町,中谷７１番地１,,10,522,3700713,,,,,,,2025-06-19,1,,,,,ルミナス,0
1262,6080101025569,新規,0,2025-06-19,2025-06-19,株式会社ＣＯＣＯＬＯ,,株式会社,静岡県,伊豆の国市,田京６５５番地の４,,22,225,4102315,,,,,,,2025-06-19,1,,,,,ココロ,0
1280,6120001276919,新規,0,2025-06-19,2025-06-19,誠信株式会社,,株式会社,大阪府,大阪市淀川区,十三東４丁目７－２メビウス十三レジデンス３１０,,27,123,5320023,,,,,,,2025-06-19,1,,,,,セイシン,0
1281,6120001276927,新規,0,2025-06-19,2025-06-19,ＳＨＩＰＭＡＮ株式会社,,株式会社,大阪府,大阪市中央区,難波１丁目９番１１号５Ｆ,,27,128,5420076,,,,,,,2025-06-19,1,,,,,シップマン,0
1282,6120001276943,新規,0,2025-06-19,2025-06-19,Ｋ＆Ｃ株式会社,,株式会社,大阪府,大阪市城東区,関目５丁目１９番９号関目花博公館６１０Ｂ,,27,118,5360008,,,,,,,2025-06-19,1,,,,,ケーアンドシー,0
1283,6120001276968,新規,0,2025-06-19,2025-06-19,株式会社ｋｎｏｗ　ｓｅｅ　ｔｈｒｏｕｇｈ,,株式会社,大阪府,大阪市西区,新町１丁目１６番１７号,,27,106,5500013,,,,,,,2025-06-19,1,,,,,ノーシースルー,0
1287,6120105010018,新規,0,2025-06-19,2025-06-19,一般社団法人Ｓ．ｆｉｅｌｄ,,その他の設立登記法人,大阪府,阪南市,尾崎町２丁目４番１０号,,27,232,5990201,,,,,,,2025-06-19,1,,,,,エスフィールド,0
1294,6122003003235,新規,0,2025-06-19,2025-06-19,合同会社カッセ,,合同会社,大阪府,東大阪市,御厨東２丁目７番３号,,27,227,5770033,,,,,,,2025-06-19,1,,,,,カッセ,0
1295,6130001079924,新規,0,2025-06-19,2025-06-19,順其自然株式会社,,株式会社,京都府,京都市伏見区,深草下川原町１３０番地４華信ビル４０２号室,,26,109,6128401,,,,,,,2025-06-19,1,,,,,ジュンキシゼン,0
1296,6130001079949,新規,0,2025-06-19,2025-06-19,株式会社壽希建設,,株式会社,京都府,長岡京市,緑が丘２７番１７－３号,,26,209,6170838,,,,,,,2025-06-19,1,,,,,コトキケンセツ,0
1297,6130003010564,新規,0,2025-06-19,2025-06-19,合同会社龍志道,,合同会社,京都府,京都市左京区,下鴨神殿町４番地３,,26,103,6060835,,,,,,,2025-06-19,1,,,,,リュウシドウ,0
1303,6140001138951,新規,0,2025-06-19,2025-06-19,株式会社北村商店,,株式会社,兵庫県,神戸市中央区,北長狭通７丁目１番２号ナカハラマンション１０３号,,28,110,6500012,,,,,,,2025-06-19,1,,,,,キタムラショウテン,0
1304,6140001138968,新規,0,2025-06-19,2025-06-19,Ｗｉｔｈ．株式会社,,株式会社,兵庫県,尼崎市,稲葉荘２丁目１１番１０号,,28,202,6600064,,,,,,,2025-06-19,1,,,,,ウィズ,0
1305,6140001138976,新規,0,2025-06-19,2025-06-19,株式会社在る,,株式会社,兵庫県,神戸市北区,藤原台南町２丁目８番５号,,28,109,6511303,,,,,,,2025-06-19,1,,,,,アル,0
1307,6140003022220,新規,0,2025-06-19,2025-06-19,合同会社ＡＬＥＧ,,合同会社,兵庫県,宝塚市,旭町２丁目５番１６号フレグランス宝塚ＩＩＩ－２０２号室,00139613,28,214,6650835,,,,,,,2025-06-19,1,,,,,アレグ,0
1313,6150001028202,新規,0,2025-06-19,2025-06-19,株式会社アイデン,,株式会社,奈良県,奈良市,押熊町４３０番地の３ガーデンハウスＡ－１０２号,,29,201,6310011,,,,,,,2025-06-19,1,,,,,アイデン,0
1314,6160003003516,新規,0,2025-06-19,2025-06-19,合同会社たんぽぽ,,合同会社,滋賀県,東近江市,鋳物師町１３０５,,25,213,5291522,,,,,,,2025-06-19,1,,,,,タンポポ,0
1322,6180001167352,新規,0,2025-06-19,2025-06-19,株式会社キューブティーエスシー,,株式会社,愛知県,一宮市,木曽川町玉ノ井字新屋敷四ノ切２９番地,,23,203,4930004,,,,,,,2025-06-19,1,,,,,キューブティーエスシー,0
1326,6180303006613,新規,0,2025-06-19,2025-06-19,合同会社ＳＴＨ＆Ｃｏ．,,合同会社,愛知県,豊橋市,鍵田町５５－１１,,23,201,4400856,,,,,,,2025-06-19,1,,,,,エスティーエイチアンドコー,0
1336,6220001026743,新規,0,2025-06-19,2025-06-19,株式会社大和,,株式会社,石川県,七尾市,神明町ロ部２２番地５,,17,202,9260046,,,,,,,2025-06-19,1,,,,,ヤマト,0
1338,6220003004061,新規,0,2025-06-19,2025-06-19,合同会社ハムレットデザイン,,合同会社,石川県,加賀市,大聖寺三ツ町錦城ケ丘２２番地２,,17,206,9220851,,,,,,,2025-06-19,1,,,,,ハムレットデザイン,0
1344,6240003007269,新規,0,2025-06-19,2025-06-19,合同会社ｃｏｃｏＬＵＣＫ,,合同会社,広島県,広島市佐伯区,海老園１丁目５－１２ＫｓＢ海老園２号棟４０１,,34,108,7315135,,,,,,,2025-06-19,1,,,,,ココラック,0
1351,6290001110458,新規,0,2025-06-19,2025-06-19,株式会社サンヒルズ,,株式会社,福岡県,久留米市,山川追分１丁目１２番３９号,,40,203,8390814,,,,,,,2025-06-19,1,,,,,サンヒルズ,0
1352,6290003017016,新規,0,2025-06-19,2025-06-19,合同会社ファシリティサポート,,合同会社,福岡県,久留米市,東和町６番２０号,,40,203,8300035,,,,,,,2025-06-19,1,,,,,ファシリティサポート,0
1354,6290801031639,新規,0,2025-06-19,2025-06-19,ＳＴＥＰ株式会社,,株式会社,福岡県,行橋市,中央１丁目２番３１号,,40,213,8240005,,,,,,,2025-06-19,1,,,,,ステップ,0
1358,6330003011063,新規,0,2025-06-19,2025-06-19,ＮＥＷＫ’Ｚ合同会社,,合同会社,熊本県,熊本市中央区,新市街３番２１号ＪＡＮＵＳ－１ビル,,43,101,8600803,,,,,,,2025-06-19,1,,,,,ニューケーズ,0
1362,6340001027440,新規,0,2025-06-19,2025-06-19,株式会社エンジヌスキル,,株式会社,鹿児島県,鹿児島市,武１丁目２－１０ＪＲ鹿児島中央ビル４階,,46,201,8900045,,,,,,,2025-06-19,1,,,,,エンジヌスキル,0
1366,6360003015020,新規,0,2025-06-19,2025-06-19,ちゅらハート合同会社,,合同会社,沖縄県,沖縄市,城前町２０番２４号,,47,211,9040002,,,,,,,2025-06-19,1,,,,,チュラハート,0
1367,6370001052725,新規,0,2025-06-19,2025-06-19,株式会社ＴＯＮ,,株式会社,宮城県,仙台市青葉区,二日町１４番１１号,,04,101,9800802,,,,,,,2025-06-19,1,,,,,トン,0
1369,6380001035398,新規,0,2025-06-19,2025-06-19,株式会社森工業,,株式会社,福島県,須賀川市,小倉字前仲作５８番地,,07,207,9620712,,,,,,,2025-06-19,1,,,,,モリコウギョウ,0
1371,6400001017071,新規,0,2025-06-19,2025-06-19,株式会社そうアセットマネージメント,,株式会社,岩手県,二戸市,福岡字中町１３番地,,03,213,0286101,,,,,,,2025-06-19,1,,,,,ソウアセットマネージメント,0
1373,6410001014191,新規,0,2025-06-19,2025-06-19,株式会社ＣＲＣ林業,,株式会社,秋田県,北秋田市,綴子字柳中９番地５,,05,213,0183301,,,,,,,2025-06-19,1,,,,,シーアールシーリンギョウ,0
1374,6430001094694,新規,0,2025-06-19,2025-06-19,ミストラルホールディングス株式会社,,株式会社,北海道,石狩市,緑苑台東一条２丁目５７番地,,01,235,0613221,,,,,,,2025-06-19,1,,,,,ミストラルホールディングス,0
1375,6430003017785,新規,0,2025-06-19,2025-06-19,合同会社ＨＹジャパン,,合同会社,北海道,札幌市中央区,南一条西２８丁目１番３－５０４号,,01,101,0640801,,,,,,,2025-06-19,1,,,,,エイチワイジャパン,0
1378,6500001026351,新規,0,2025-06-19,2025-06-19,株式会社ｕｎｆａｔｅ,,株式会社,愛媛県,松山市,道後今市５番１９号,,38,201,7900845,,,,,,,2025-06-19,1,,,,,アンフェイト,0
1379,6700150131139,新規,0,2025-06-19,2025-06-19,ＧＲＡＰＨＩＣ　ＺＯＮＥ　ＥＮＴＥＲＰＲＩＳＥＳ,,外国会社等,茨城県,桜川市,真壁町源法寺１００９－１２,,08,231,3004424,スリランカ民主社会主義共和国、ムレリヤワニュータウン、ケラニムラ、ベラガマロードＮｏ．４２０／６Ａ,,,,,,2025-06-19,1,,,,,グラフイツクゾーンエンタープライセス,0
1406,7010403035404,新規,0,2025-06-19,2025-06-19,ＧＯＧＣ　ＪＡＰＡＮ合同会社,,合同会社,東京都,港区,東麻布１丁目７－５－８０６,,13,103,1060044,,,,,,,2025-06-19,1,,,,,ジーオージーシージャパン,0
1408,7010501054231,新規,0,2025-06-19,2025-06-19,ＦａｎｔｒｉｅＪａｐａｎ株式会社,,株式会社,東京都,台東区,三ノ輪１丁目２８番２号創新三ノ輪レジデンス４０１,,13,106,1100011,,,,,,,2025-06-19,1,,,,,ファンツリージャパン,0
1430,7011001170304,新規,0,2025-06-19,2025-06-19,株式会社Ｒａｐｐｏｒｔ,,株式会社,東京都,渋谷区,恵比寿西２丁目４番８号ウィンド恵比寿ビル８Ｆ,,13,113,1500021,,,,,,,2025-06-19,1,,,,,ラポール,0
1431,7011001170345,新規,0,2025-06-19,2025-06-19,ツーリストシップグローバル株式会社,,株式会社,東京都,渋谷区,神南１丁目１１－４ＦＰＧリンクス神南５階,,13,113,1500041,,,,,,,2025-06-19,1,,,,,ツーリストシップグローバル,0
1432,7011001170361,新規,0,2025-06-19,2025-06-19,株式会社Ｌｉｎｋｓｙ,,株式会社,東京都,渋谷区,道玄坂１丁目１０番８号渋谷道玄坂東急ビル２Ｆ－Ｃ,,13,113,1500043,,,,,,,2025-06-19,1,,,,,リンクシィ,0
1433,7011003021810,新規,0,2025-06-19,2025-06-19,Ｆａｒｆａｌｌａ合同会社,,合同会社,東京都,渋谷区,道玄坂１丁目１０番８号,,13,113,1500043,,,,,,,2025-06-19,1,,,,,ファルファッラ,0
1434,7011005011074,新規,0,2025-06-19,2025-06-19,一般社団法人大井町トラックスエリアマネジメント,,その他の設立登記法人,東京都,渋谷区,代々木２丁目２番２号,,13,113,1510053,,,,,,,2025-06-19,1,,,,,オオイマチトラックスエリアマネジメント,0
1443,7011501032210,新規,0,2025-06-19,2025-06-19,ＨＹＤＯＲ株式会社,,株式会社,東京都,北区,浮間１丁目７－２３兆豊浮間ビル５０３号室,,13,117,1150051,,,,,,,2025-06-19,1,,,,,エイチワイディーオーアール,0
1446,7011503006583,新規,0,2025-06-19,2025-06-19,合同会社ＭＡＴＥ,,合同会社,東京都,北区,中十条４丁目８番１５号,,13,117,1140032,,,,,,,2025-06-19,1,,,,,メイト,0
1447,7011601028744,新規,0,2025-06-19,2025-06-19,ポールスター株式会社,,株式会社,東京都,練馬区,春日町６丁目１６番１１号,,13,120,1790074,,,,,,,2025-06-19,1,,,,,ポールスター,0
1449,7011803006928,新規,0,2025-06-19,2025-06-19,合同会社満天,,合同会社,東京都,足立区,六町３丁目５－２７－３０３,,13,121,1210073,,,,,,,2025-06-19,1,,,,,マンテン,0
1456,7013303007729,新規,0,2025-06-19,2025-06-19,合同会社ファミリア,,合同会社,東京都,豊島区,池袋２丁目６７番６号エリゼー池袋６０１号室,,13,116,1710014,,,,,,,2025-06-19,1,,,,,ファミリア,0
1459,7020001163449,新規,0,2025-06-19,2025-06-19,株式会社ＴＵＲＯＮ,,株式会社,神奈川県,横浜市鶴見区,矢向６丁目１２番２０－１０２号,,14,101,2300001,,,,,,,2025-06-19,1,,,,,トゥーロン,0
1461,7020003028740,新規,0,2025-06-19,2025-06-19,令和架設工業合同会社,,合同会社,神奈川県,横浜市西区,北幸２丁目１０番４８号,,14,103,2200004,,,,,,,2025-06-19,1,,,,,レイワカセツコウギョウ,0
1462,7020003028765,新規,0,2025-06-19,2025-06-19,みなとＤＤセラピー合同会社,,合同会社,神奈川県,横浜市神奈川区,金港町５ー１４クアドリフォリオ８階,,14,102,2210056,,,,,,,2025-06-19,1,,,,,ミナトディーディーセラピー,0
1463,7020005016909,新規,0,2025-06-19,2025-06-19,一般社団法人道場蓮華,,その他の設立登記法人,神奈川県,横浜市青葉区,さつきが丘２３番地４５,,14,117,2270053,,,,,,,2025-06-19,1,,,,,ドウジョウレンゲ,0
1471,7021003016181,新規,0,2025-06-19,2025-06-19,合同会社宇迦,,合同会社,神奈川県,三浦郡葉山町,堀内６３１番地の４,,14,301,2400112,,,,,,,2025-06-19,1,,,,,ウカ,0
1474,7030001166946,新規,0,2025-06-19,2025-06-19,株式会社ＯＴＯ,,株式会社,埼玉県,越谷市,越ヶ谷１丁目１１－３３第１海野ビル３０１号室,,11,222,3430813,,,,,,,2025-06-19,1,,,,,オト,0
1480,7050003009283,新規,0,2025-06-19,2025-06-19,合同会社環,,合同会社,茨城県,土浦市,上高津新町１２番４号クレイノルーチェＶ１０３,00139610,08,203,3000819,,,,,,,2025-06-19,1,,,,,タマキ,0
1501,7100001038709,新規,0,2025-06-19,2025-06-19,株式会社ツチノコラボ,,株式会社,長野県,伊那市,西箕輪与地６３０８,,20,209,3960041,,,,,,,2025-06-19,1,,,,,ツチノコラボ,0
1502,7100003008230,新規,0,2025-06-19,2025-06-19,Ｐｏｔａｔｏ　Ｈｅａｄ　Ｊａｐａｎ合同会社,,合同会社,長野県,下高井郡野沢温泉村,大字豊郷８８５８番地,,20,563,3892502,,,,,,,2025-06-19,1,,,,,ポテトヘッドジャパン,0
1507,7120001276876,新規,0,2025-06-19,2025-06-19,株式会社ＶａｌｕｅＵｐ,,株式会社,大阪府,大阪市北区,梅田１丁目１－３大阪駅前第３ビル２９階１－１－１号室,,27,127,5300001,,,,,,,2025-06-19,1,,,,,バリューアップ,0
1508,7120001276884,新規,0,2025-06-19,2025-06-19,株式会社ＮＡＳＡ,,株式会社,大阪府,大阪市此花区,伝法３丁目１番２０号,,27,104,5540002,,,,,,,2025-06-19,1,,,,,ナサ,0
1509,7120001276901,新規,0,2025-06-19,2025-06-19,繁森産業株式会社,,株式会社,大阪府,大阪市住吉区,苅田２丁目７番１３－２０１号,,27,120,5580011,,,,,,,2025-06-19,1,,,,,シゲモリサンギョウ,0
1510,7120001276934,新規,0,2025-06-19,2025-06-19,デューク株式会社,,株式会社,大阪府,大阪市中央区,南船場３丁目２－２８タイヨービル４１２号室,,27,128,5420081,,,,,,,2025-06-19,1,,,,,デューク,0
1511,7120001276975,新規,0,2025-06-19,2025-06-19,蒸栄株式会社,,株式会社,大阪府,大阪市港区,池島３丁目５番２－１００９号,,27,107,5520015,,,,,,,2025-06-19,1,,,,,ジョウエイ,0
1512,7120001276991,新規,0,2025-06-19,2025-06-19,株式会社ＳＵＮ,,株式会社,大阪府,大阪市住吉区,墨江１丁目８番５号,,27,120,5580043,,,,,,,2025-06-19,1,,,,,サン,0
1516,7120003029778,新規,0,2025-06-19,2025-06-19,合同会社Ｋセレクト,,合同会社,大阪府,枚方市,伊加賀西町５６－２５,,27,210,5730066,,,,,,,2025-06-19,1,,,,,ケイセレクト,0
1517,7120003029794,新規,0,2025-06-19,2025-06-19,合同会社悠聖,,合同会社,大阪府,大阪市中央区,東心斎橋２丁目３番１３号日宝スターライトビル１Ｆ３号室,,27,128,5420083,,,,,,,2025-06-19,1,,,,,ユウセイ,0
1518,7120003029803,新規,0,2025-06-19,2025-06-19,合同会社うさちゃん,,合同会社,大阪府,大阪市淀川区,三津屋中２丁目１０番２号,,27,123,5320036,,,,,,,2025-06-19,1,,,,,ウサチャン,0
1524,7120101071913,新規,0,2025-06-19,2025-06-19,メガファンド株式会社,,株式会社,大阪府,堺市西区,浜寺石津町東５丁４番１８－２０３号,,27,144,5928335,,,,,,,2025-06-19,1,,,,,メガファンド,0
1529,7122003003234,新規,0,2025-06-19,2025-06-19,恩澤合同会社,,合同会社,大阪府,東大阪市,小若江１丁目２２番５－１０１号,,27,227,5770818,,,,,,,2025-06-19,1,,,,,オンタク,0
1530,7130001079931,新規,0,2025-06-19,2025-06-19,オースピス株式会社,,株式会社,京都府,京都市山科区,川田菱尾田７番６,,26,110,6078337,,,,,,,2025-06-19,1,,,,,オースピス,0
1531,7130003010563,新規,0,2025-06-19,2025-06-19,合同会社いそっぷ,,合同会社,京都府,京都市南区,唐橋門脇町３２番地３,,26,107,6018461,,,,,,,2025-06-19,1,,,,,イソップ,0
1541,7140001138983,新規,0,2025-06-19,2025-06-19,株式会社オネスティ,,株式会社,兵庫県,宝塚市,野上１丁目１番８号,,28,214,6650022,,,,,,,2025-06-19,1,,,,,オネスティ,0
1543,7140005027539,新規,0,2025-06-19,2025-06-19,一般社団法人みらいらぼハリマ,,その他の設立登記法人,兵庫県,たつの市,龍野町富永７２８番地１土井第２ビル２階２０６号,,28,229,6794167,,,,,,,2025-06-19,1,,,,,ミライラボハリマ,0
1544,7150003003631,新規,0,2025-06-19,2025-06-19,合同会社ならいろプロジェクト,,合同会社,奈良県,奈良市,東木辻町３４番地,00139611,29,201,6308327,,,,,,,2025-06-19,1,,,,,ナライロプロジェクト,0
1547,7160001026781,新規,0,2025-06-19,2025-06-19,株式会社ＹＫ,,株式会社,滋賀県,草津市,草津２丁目７番３２－７０１プラウド草津,,25,206,5250034,,,,,,,2025-06-19,1,,,,,ワイケイ,0
1549,7160003003523,新規,0,2025-06-19,2025-06-19,合同会社カノン,,合同会社,滋賀県,大津市,本堅田５丁目６番４３号,,25,201,5200242,,,,,,,2025-06-19,1,,,,,カノン,0
1559,7180301039911,新規,0,2025-06-19,2025-06-19,株式会社ＥＺｉ　ＦＩＲＭ,,株式会社,愛知県,岡崎市,稲熊町字８丁目２１１番地,,23,202,4440071,,,,,,,2025-06-19,1,,,,,イージーファーム,0
1562,7180303006620,新規,0,2025-06-19,2025-06-19,ＮＶＤ合同会社,,合同会社,愛知県,西尾市,西幡豆町川原９番地１光栄ビル２０５号,,23,213,4440703,,,,,,,2025-06-19,1,,,,,エヌヴィーディー,0
1563,7180305009695,新規,0,2025-06-19,2025-06-19,一般社団法人イチナナ経営ラボ,,その他の設立登記法人,愛知県,岡崎市,矢作町字高縄手１番地２５,,23,202,4440943,,,,,,,2025-06-19,1,,,,,イチナナケイエイラボ,0
1564,7190001032323,新規,0,2025-06-19,2025-06-19,株式会社タイズ不動産,,株式会社,三重県,四日市市,芝田２丁目１番４１号,,24,202,5100822,,,,,,,2025-06-19,1,,,,,タイズフドウサン,0
1568,7220001026742,新規,0,2025-06-19,2025-06-19,ＡＩＧ’ｓ株式会社,,株式会社,石川県,河北郡内灘町,字千鳥台２丁目３１番地２,,17,365,9200277,,,,,,,2025-06-19,1,,,,,アイジス,0
1570,7230001020959,新規,0,2025-06-19,2025-06-19,株式会社Ｖｅｌｌｔｅｘ,,株式会社,富山県,富山市,南大場２１１番地１,,16,201,9301304,,,,,,,2025-06-19,1,,,,,ベルテックス,0
1573,7240003007268,新規,0,2025-06-19,2025-06-19,あい支援センター合同会社,,合同会社,広島県,福山市,引野町南１丁目１１番２号,,34,207,7210945,,,,,,,2025-06-19,1,,,,,アイシエンセンター,0
1585,7290001110432,新規,0,2025-06-19,2025-06-19,株式会社ラッシュ,,株式会社,福岡県,福岡市中央区,舞鶴３丁目８番１号まいづる中央ビル２階,,40,133,8100073,,,,,,,2025-06-19,1,,,,,ラッシュ,0
1586,7290001110465,新規,0,2025-06-19,2025-06-19,株式会社Ｊ‐Ｐｌｕｓ,,株式会社,福岡県,うきは市,吉井町６７番地１,,40,225,8391321,,,,,,,2025-06-19,1,,,,,ジェイプラス,0
1587,7290003017007,新規,0,2025-06-19,2025-06-19,白丸合同会社,,合同会社,福岡県,福岡市中央区,天神２丁目３番１０号天神パインクレスト７１９号,,40,133,8100001,,,,,,,2025-06-19,1,,,,,シロマル,0
1589,7290801031638,新規,0,2025-06-19,2025-06-19,稲益ホールディングス株式会社,,株式会社,福岡県,北九州市若松区,藤ノ木３丁目２番２号,,40,103,8080074,,,,,,,2025-06-19,1,,,,,イナマスホールディングス,0
1591,7310001019654,新規,0,2025-06-19,2025-06-19,株式会社ＭＯ設備,,株式会社,長崎県,西彼杵郡長与町,平木場郷２１４番地２,,42,307,8512123,,,,,,,2025-06-19,1,,,,,エムオーセツビ,0
1592,7320001021171,新規,0,2025-06-19,2025-06-19,株式会社ワラシベ,,株式会社,大分県,大分市,横尾東町２丁目１１番１４号,,44,201,8700130,,,,,,,2025-06-19,1,,,,,ワラシベ,0
1602,7360001035366,新規,0,2025-06-19,2025-06-19,株式会社心空,,株式会社,沖縄県,宜野湾市,野嵩４丁目１３番１６号,,47,205,9012203,,,,,,,2025-06-19,1,,,,,シンクウ,0
1603,7360005007246,新規,0,2025-06-19,2025-06-19,ロータス国際事業協同組合,,その他の設立登記法人,沖縄県,うるま市,字江洲６０４番地１５,,47,213,9042244,,,,,,,2025-06-19,1,,,,,ロータスコクサイ,0
1605,7400001017070,新規,0,2025-06-19,2025-06-19,株式会社ＴＫ‐３,,株式会社,岩手県,八幡平市,平笠第１２地割１９２番地２,,03,214,0287113,,,,,,,2025-06-19,1,,,,,ティーケースリー,0
1616,7430001094685,新規,0,2025-06-19,2025-06-19,株式会社トクラボラトリ,,株式会社,北海道,滝川市,江部乙町５０９番地１,,01,225,0790461,,,,,,,2025-06-19,1,,,,,トクラボラトリ,0
1617,7430001094693,新規,0,2025-06-19,2025-06-19,株式会社ＭＹマシナリー,,株式会社,北海道,札幌市白石区,東札幌四条５丁目１番３０－２０１号,,01,104,0030004,,,,,,,2025-06-19,1,,,,,エムワイマシナリー,0
1623,7500003003538,新規,0,2025-06-19,2025-06-19,合同会社ミモザ,,合同会社,愛媛県,新居浜市,土橋１丁目８番２４号,,38,205,7920043,,,,,,,2025-06-19,1,,,,,ミモザ,0
1626,7700150131138,新規,0,2025-06-19,2025-06-19,ＣＡＲ　ＺＯＮＥ　ＡＵＴＯ　ＬＡＮＫＡ　ＰＶＴ　ＬＴＤ,,外国会社等,千葉県,山武市,白幡２７３６番地２オフィスＣ,,12,237,2891306,スリランカ民主社会主義共和国、コフワラ、ドゥトゥゲムヌストリート、Ｎｏ．１８６,,,,,,2025-06-19,1,,,,,カーゾーンオートランカプライベートリミテツド,0
1637,8010001256087,新規,0,2025-06-19,2025-06-19,株式会社Ｎａｎｏｖａｔｉｏｎ,,株式会社,東京都,千代田区,神田須田町１丁目１４－１ヒューリック神田須田町ビル１Ｆ－４Ｆ３１１室,,13,101,1010041,,,,,,,2025-06-19,1,,,,,ナノベーション,0
1640,8010003047716,新規,0,2025-06-19,2025-06-19,ＴＭＧ合同会社,,合同会社,東京都,千代田区,神田須田町１丁目７番地８ＶＯＲＴ秋葉原ＩＶ２Ｆ,00139622,13,101,1010041,,,,,,,2025-06-19,1,,,,,ティーエムジー,0
1642,8010005040215,新規,0,2025-06-19,2025-06-19,一般社団法人Ｍａ　ｓｏｅｕｒ,,その他の設立登記法人,東京都,文京区,小日向２丁目２５番６号,,13,105,1120006,,,,,,,2025-06-19,1,,,,,マスール,0
1643,8010103002604,新規,0,2025-06-19,2025-06-19,映匠堂合同会社,,合同会社,東京都,八王子市,館町１２９８番地１バリーズ弐番館２０３号,,13,201,1930944,,,,,,,2025-06-19,1,,,,,エイショウドウ,0
1650,8010401190654,新規,0,2025-06-19,2025-06-19,株式会社ＺＥＲＯ,,株式会社,東京都,港区,北青山１丁目３番１号アールキューブ青山３階,,13,103,1070061,,,,,,,2025-06-19,1,,,,,ゼロ,0
1652,8010403035394,新規,0,2025-06-19,2025-06-19,合同会社峰,,合同会社,東京都,港区,南青山３丁目１番３６号青山丸竹ビル６Ｆ,,13,103,1070062,,,,,,,2025-06-19,1,,,,,ミネ,0
1653,8010501054180,新規,0,2025-06-19,2025-06-19,みまもり株式会社,,株式会社,東京都,台東区,根岸２丁目１５番１号,,13,106,1100003,,,,,,,2025-06-19,1,,,,,ミマモリ,0
1654,8010503007888,新規,0,2025-06-19,2025-06-19,合同会社リノヴァシステムズ,,合同会社,東京都,台東区,西浅草１丁目７－１８－８０１,,13,106,1110035,,,,,,,2025-06-19,1,,,,,リノヴァシステムズ,0
1658,8010701047901,新規,0,2025-06-19,2025-06-19,東京ビル開発株式会社,,株式会社,東京都,品川区,西五反田８丁目１－１３ＧＢＳ－Ｅ－９号,,13,109,1410031,,,,,,,2025-06-19,1,,,,,トウキョウビルカイハツ,0
1664,8010901057584,新規,0,2025-06-19,2025-06-19,株式会社アスリスタ,,株式会社,東京都,世田谷区,上馬１丁目１３番６－２０４号,,13,112,1540011,,,,,,,2025-06-19,1,,,,,アスリスタ,0
1668,8011001170393,新規,0,2025-06-19,2025-06-19,ＣＨＡＮＴＯ株式会社,,株式会社,東京都,渋谷区,渋谷２丁目１９－１５宮益坂ビルディング６０９,,13,113,1500002,,,,,,,2025-06-19,1,,,,,チャント,0
1678,8011501032218,新規,0,2025-06-19,2025-06-19,株式会社サンワ,,株式会社,東京都,荒川区,西尾久３丁目１番１号,,13,118,1160011,,,,,,,2025-06-19,1,,,,,サンワ,0
1679,8011505002695,新規,0,2025-06-19,2025-06-19,一般社団法人東京中国人ランニング団体連盟,,その他の設立登記法人,東京都,荒川区,南千住８丁目８番１－１４３０号,,13,118,1160003,,,,,,,2025-06-19,1,,,,,トウキョウチュウゴクジンランニングダンタイレンメイ,0
1682,8011701028445,新規,0,2025-06-19,2025-06-19,株式会社ＴＵＮＥ,,株式会社,東京都,江戸川区,松江６丁目１１番４号メゾンリビエール３０５,,13,123,1320025,,,,,,,2025-06-19,1,,,,,チューン,0
1687,8011803006910,新規,0,2025-06-19,2025-06-19,合同会社ＭＹＢ,,合同会社,東京都,葛飾区,四つ木１丁目１５－７－３号,,13,122,1240011,,,,,,,2025-06-19,1,,,,,エムワイビー,0
1699,8020001163480,新規,0,2025-06-19,2025-06-19,株式会社栄,,株式会社,神奈川県,横浜市南区,睦町１丁目１５番地１９,,14,105,2320041,,,,,,,2025-06-19,1,,,,,サカエ,0
1700,8020001163489,新規,0,2025-06-19,2025-06-19,株式会社アトリエリンク,,株式会社,神奈川県,横浜市中区,本郷町３丁目２６１番地ベイサイドヒル山手Ｂ－２０２,,14,104,2310843,,,,,,,2025-06-19,1,,,,,アトリエリンク,0
1710,8021003016180,新規,0,2025-06-19,2025-06-19,合同会社鈴木コンサルティングオフィス,,合同会社,神奈川県,大和市,大和南２丁目１番８号全広社ビル３０１,,14,213,2420016,,,,,,,2025-06-19,1,,,,,スズキコンサルティングオフィス,0
1716,8030001167191,新規,0,2025-06-19,2025-06-19,株式会社アドリンク,,株式会社,埼玉県,さいたま市岩槻区,大字上野６５番４号,,11,110,3390073,,,,,,,2025-06-19,1,,,,,アドリンク,0
1720,8030003027022,新規,0,2025-06-19,2025-06-19,ＳＴ＆Ｙ合同会社,,合同会社,埼玉県,川口市,芝西２丁目２５番２２号,,11,203,3330855,,,,,,,2025-06-19,1,,,,,エスティーアンドワイ,0
1721,8030003027030,新規,0,2025-06-19,2025-06-19,合同会社ソラリス,,合同会社,埼玉県,新座市,大和田１丁目１１－６－２０５,,11,230,3520004,,,,,,,2025-06-19,1,,,,,ソラリス,0
1735,8070003005965,新規,0,2025-06-19,2025-06-19,無限アップサイクル合同会社,,合同会社,群馬県,藤岡市,藤岡１３５６番地２５,,10,209,3750024,,,,,,,2025-06-19,1,,,,,ムゲンアップサイクル,0
1739,8080401027981,新規,0,2025-06-19,2025-06-19,株式会社ＧＬＯＢＡＬ　ＳＥＲＶＩＣＥ,,株式会社,静岡県,浜松市中央区,大平台３丁目２番５号ウエストヒル２０１,,22,138,4328068,,,,,,,2025-06-19,1,,,,,グローバルサービス,0
1751,8120001276859,新規,0,2025-06-19,2025-06-19,光明株式会社,,株式会社,大阪府,大阪市城東区,東中浜９丁目８番２６－１０７号室,,27,118,5360023,,,,,,,2025-06-19,1,,,,,コウミョウ,0
1752,8120001276917,新規,0,2025-06-19,2025-06-19,合冠株式会社,,株式会社,大阪府,大阪市西成区,萩之茶屋２丁目６－４ニューかめや１８２号,,27,122,5570004,,,,,,,2025-06-19,1,,,,,ゴウカン,0
1753,8120001276941,新規,0,2025-06-19,2025-06-19,君安天成株式会社,,株式会社,大阪府,大阪市旭区,清水５丁目５番１８号ロイヤルコート清水１階１０３号室,,27,117,5350021,,,,,,,2025-06-19,1,,,,,クンアンテンセイ,0
1760,8120101071912,新規,0,2025-06-19,2025-06-19,都財託株式会社,,株式会社,大阪府,堺市西区,浜寺石津町東５丁４番１８－１０３号,,27,144,5928335,,,,,,,2025-06-19,1,,,,,ミヤコザイタク,0
1761,8120101071920,新規,0,2025-06-19,2025-06-19,株式会社いのべーと,,株式会社,大阪府,岸和田市,畑町４丁目１番１９号,,27,202,5960831,,,,,,,2025-06-19,1,,,,,イノベート,0
1772,8130003010554,新規,0,2025-06-19,2025-06-19,合同会社ＬＩＸＯＲ,,合同会社,京都府,京都市右京区,西京極南衣手町７２－１天草マンション８０１,,26,108,6150872,,,,,,,2025-06-19,1,,,,,リクソール,0
1777,8140003022219,新規,0,2025-06-19,2025-06-19,合同会社晴天,,合同会社,兵庫県,川西市,丸山台１丁目４番地の３Ｄ－８０３,,28,217,6660152,,,,,,,2025-06-19,1,,,,,セイテン,0
1779,8150003003630,新規,0,2025-06-19,2025-06-19,アセット＆リテール合同会社,,合同会社,奈良県,生駒市,あすか野南２丁目８番１８号,,29,209,6300133,,,,,,,2025-06-19,1,,,,,アセットアンドリテール,0
1794,8190001032322,新規,0,2025-06-19,2025-06-19,株式会社軌道,,株式会社,三重県,鈴鹿市,算所４丁目１番１９号,,24,207,5130806,,,,,,,2025-06-19,1,,,,,キドウ,0
1811,8270003001762,新規,0,2025-06-19,2025-06-19,合同会社ＳＮＳカンパニー,,合同会社,鳥取県,鳥取市,湖山町南５丁目４０３番地４,,31,201,6800945,,,,,,,2025-06-19,1,,,,,エスエヌエスカンパニー,0
1814,8290001110415,新規,0,2025-06-19,2025-06-19,グローバルロジスティックス株式会社,,株式会社,福岡県,福岡市東区,箱崎ふ頭４丁目２番１７号,,40,131,8120051,,,,,,,2025-06-19,1,,,,,グローバルロジスティックス,0
1818,8290801031637,新規,0,2025-06-19,2025-06-19,株式会社エンリンクス,,株式会社,福岡県,北九州市八幡西区,楠木２丁目３番５号,,40,109,8070827,,,,,,,2025-06-19,1,,,,,エンリンクス,0
1825,8340001027439,新規,0,2025-06-19,2025-06-19,株式会社つぐもり,,株式会社,鹿児島県,鹿児島市,加治屋町１２番１３号福岡デンタルビル８階,,46,201,8920846,,,,,,,2025-06-19,1,,,,,ツグモリ,0
1828,8370001052731,新規,0,2025-06-19,2025-06-19,株式会社おと,,株式会社,宮城県,仙台市青葉区,大町２丁目７番１１号べレオ大町１階,,04,101,9800804,,,,,,,2025-06-19,1,,,,,オト,0
1835,8430003017783,新規,0,2025-06-19,2025-06-19,合同会社北海道建設,,合同会社,北海道,札幌市東区,北三十八条東３丁目２番１号,,01,103,0070838,,,,,,,2025-06-19,1,,,,,ホッカイドウケンセツ,0
1844,8700150131137,新規,0,2025-06-19,2025-06-19,Ｊ　Ｋ　ＭＯＴＯＲＳ,,外国会社等,千葉県,東金市,西中２３２番地４オフィスＥ,,12,213,2830045,スリランカ民主社会主義共和国、パッサラ、モナラガラロード、Ｎｏ．７９／Ｂ,,,,,,2025-06-19,1,,,,,ジエーケーモータース,0
1850,9010001255732,新規,0,2025-06-19,2025-06-19,株式会社セルアウト,,株式会社,東京都,中央区,日本橋室町１丁目１１番１２号日本橋水野ビル７階,,13,102,1030022,,,,,,,2025-06-19,1,,,,,セルアウト,0
1851,9010001256053,新規,0,2025-06-19,2025-06-19,フリーダム株式会社,,株式会社,東京都,中央区,日本橋小伝馬町１４番５号メローナ日本橋６０２,,13,102,1030001,,,,,,,2025-06-19,1,,,,,フリーダム,0
1852,9010001256144,新規,0,2025-06-19,2025-06-19,株式会社ＳＴＡＧＥ　ＭＡＮＩＡ,,株式会社,東京都,中央区,日本橋室町１丁目１１－１２日本橋水野ビル７階,,13,102,1030022,,,,,,,2025-06-19,1,,,,,ステージマニア,0
1857,9010101016737,新規,0,2025-06-19,2025-06-19,株式会社三木建設,,株式会社,東京都,八王子市,みなみ野５丁目３０番５４号,,13,201,1920916,,,,,,,2025-06-19,1,,,,,ミキケンセツ,0
1861,9010401191123,新規,0,2025-06-19,2025-06-19,株式会社ＮＥＸＵＳ,,株式会社,東京都,港区,六本木４丁目５番７号スタジオＤ３０１号室,,13,103,1060032,,,,,,,2025-06-19,1,,,,,ネクサス,0
1866,9010601067486,新規,0,2025-06-19,2025-06-19,株式会社ＳＭＫインターナショナル,,株式会社,東京都,墨田区,堤通２丁目６番７－７０５号,,13,107,1310034,,,,,,,2025-06-19,1,,,,,エスエムケーインターナショナル,0
1867,9010603011632,新規,0,2025-06-19,2025-06-19,合同会社ＰＡＬＡＣＥ,,合同会社,東京都,墨田区,江東橋４丁目８番１１－５０２号,,13,107,1300022,,,,,,,2025-06-19,1,,,,,パレス,0
1873,9010901057583,新規,0,2025-06-19,2025-06-19,株式会社ローレルリーフ,,株式会社,東京都,世田谷区,深沢１丁目１６番１５号,,13,112,1580081,,,,,,,2025-06-19,1,,,,,ローレルリーフ,0
1874,9010903010020,新規,0,2025-06-19,2025-06-19,合同会社ｉｌｕｍｉｎａｒ,,合同会社,東京都,世田谷区,弦巻４丁目９番１３－５０２号,,13,112,1540016,,,,,,,2025-06-19,1,,,,,イルミナル,0
1880,9011001170681,新規,0,2025-06-19,2025-06-19,もっとも株式会社,,株式会社,東京都,目黒区,緑が丘３丁目２番１号タツミビル３階,,13,110,1520034,,,,,,,2025-06-19,1,,,,,モットモ,0
1881,9011001170707,新規,0,2025-06-19,2025-06-19,株式会社ラビット＆パートナーズ,,株式会社,東京都,渋谷区,道玄坂１丁目１０番８号渋谷道玄坂東急ビル２Ｆ－Ｃ,,13,113,1500043,,,,,,,2025-06-19,1,,,,,ラビットアンドパートナーズ,0
1883,9011003021817,新規,0,2025-06-19,2025-06-19,合同会社Ａｌｔ,,合同会社,東京都,渋谷区,円山町５番３号ＭＩＥＵＸ渋谷ビル８階,,13,113,1500044,,,,,,,2025-06-19,1,,,,,オルト,0
1884,9011003021924,新規,0,2025-06-19,2025-06-19,ｕｎｉｖｏｘ合同会社,,合同会社,東京都,渋谷区,道玄坂１丁目１６－６二葉ビル８ｂ,,13,113,1500043,,,,,,,2025-06-19,1,,,,,ユニボックス,0
1885,9011003021949,新規,0,2025-06-19,2025-06-19,合同会社加とはし,,合同会社,東京都,目黒区,大橋２丁目１０番１３号ＨｉｌｌＴｏｐＢｅｌｌＴｒｅｅ２０３,,13,110,1530044,,,,,,,2025-06-19,1,,,,,カトハシ,0
1895,9011103016023,新規,0,2025-06-19,2025-06-19,ａｎｄ　ｍｕｓｉｃ合同会社,,合同会社,東京都,新宿区,新宿５丁目２番１７号,,13,104,1600022,,,,,,,2025-06-19,1,,,,,アンドミュージック,0
1897,9011201026444,新規,0,2025-06-19,2025-06-19,株式会社ごはん,,株式会社,東京都,中野区,中央１丁目２３番８号ザ・パークハウス７０１号,,13,114,1640011,,,,,,,2025-06-19,1,,,,,ゴハン,0
1908,9012701018922,新規,0,2025-06-19,2025-06-19,株式会社ＢｅＳＩＤＥ,,株式会社,東京都,清瀬市,元町１丁目１９番１２号,,13,221,2040021,,,,,,,2025-06-19,1,,,,,ビサイド,0
1910,9012801024044,新規,0,2025-06-19,2025-06-19,ＥＳＰｃｏｎｓｕｌｔｉｎｇ株式会社,,株式会社,東京都,立川市,曙町２丁目８番２８号,,13,202,1900012,,,,,,,2025-06-19,1,,,,,イーエスピーコンサルティング,0
1919,9020005016907,新規,0,2025-06-19,2025-06-19,ＮＰＯ法人暮らし就労支援協会,,その他の設立登記法人,神奈川県,横浜市西区,浅間町４丁目３３１番地１３カーサ横浜１０６号,,14,103,2200072,,,,,,,2025-06-19,1,,,,,クラシシュウロウシエンキョウカイ,0
1929,9030001167182,新規,0,2025-06-19,2025-06-19,レモ・ミュージック株式会社,,株式会社,埼玉県,上尾市,谷津１丁目８－２８オーヴェスト１０１,,11,219,3620042,,,,,,,2025-06-19,1,,,,,レモミュージック,0
1933,9030003027046,新規,0,2025-06-19,2025-06-19,合同会社ＹＲアカウンティング,,合同会社,埼玉県,越谷市,弥生町１７番２号２４０４,,11,222,3430816,,,,,,,2025-06-19,1,,,,,ワイアールアカウンティング,0
1942,9070003005956,新規,0,2025-06-19,2025-06-19,ＺＡＩＮ　ＢＲＯＴＨＥＲ合同会社,,合同会社,群馬県,富岡市,一ノ宮６３７番地１５,,10,210,3702452,,,,,,,2025-06-19,1,,,,,ザインブラザー,0
1943,9080101025566,新規,0,2025-06-19,2025-06-19,株式会社佐藤基礎,,株式会社,静岡県,三島市,佐野見晴台２丁目３４番地の１０,,22,206,4110041,,,,,,,2025-06-19,1,,,,,サトウキソ,0
1960,9120001276957,新規,0,2025-06-19,2025-06-19,優希美株式会社,,株式会社,大阪府,大阪市淀川区,西中島５丁目６番３号,,27,123,5320011,,,,,,,2025-06-19,1,,,,,ユウキビ,0
1963,9120103006527,新規,0,2025-06-19,2025-06-19,合同会社ポップ,,合同会社,大阪府,堺市中区,堀上町４４７―８,,27,142,5998261,,,,,,,2025-06-19,1,,,,,ポップ,0
1967,9120901051071,新規,0,2025-06-19,2025-06-19,株式会社ＧＬＡＤ　ＨＯＭＥ,,株式会社,大阪府,箕面市,桜５丁目８番５－２０２号,,27,220,5620041,,,,,,,2025-06-19,1,,,,,グラッドホーム,0
1969,9122001039328,新規,0,2025-06-19,2025-06-19,株式会社ＹＭＹ,,株式会社,大阪府,東大阪市,小阪１丁目８番３９号,,27,227,5770801,,,,,,,2025-06-19,1,,,,,ワイエムワイ,0
1976,9140001138981,新規,0,2025-06-19,2025-06-19,株式会社小野牧場,,株式会社,兵庫県,姫路市,北条口２丁目３５番地ワコーレ姫路北条口１３０１号室,,28,201,6700935,,,,,,,2025-06-19,1,,,,,オノボクジョウ,0
1984,9150001028208,新規,0,2025-06-19,2025-06-19,東栄グローバル商事株式会社,,株式会社,奈良県,天理市,柳本町２０８４－１,,29,204,6320052,,,,,,,2025-06-19,1,,,,,トウエイグローバルショウジ,0
1989,9180001167358,新規,0,2025-06-19,2025-06-19,株式会社ＴＯＭＯＳＰＹＲＥ,,株式会社,愛知県,名古屋市中区,東桜２丁目２２番１８号日興ビルヂング６Ｆ,,23,106,4600005,,,,,,,2025-06-19,1,,,,,トモスパイア,0
1996,9190001032321,新規,0,2025-06-19,2025-06-19,ＮＩＳＨＩＤＡ　ＧＲＯＵＰ株式会社,,株式会社,三重県,鈴鹿市,算所４丁目１番１９号,,24,207,5130806,,,,,,,2025-06-19,1,,,,,ニシダグループ,0
1999,9210005010213,新規,0,2025-06-19,2025-06-19,一般社団法人Ｋｕｌｉａ　Ｌａｈｕｉ,,その他の設立登記法人,福井県,越前市,平林町第１２号３５番地１,,18,209,9150044,,,,,,,2025-06-19,1,,,,,クーリアラフイ,0
2009,9240003007258,新規,0,2025-06-19,2025-06-19,合同会社ＲＩＫＵＴＯ,,合同会社,広島県,広島市安佐南区,長楽寺２丁目２６番８号,,34,105,7310143,,,,,,,2025-06-19,1,,,,,リクト,0
2013,9270001009220,新規,0,2025-06-19,2025-06-19,株式会社ＣＬＡＳＳ,,株式会社,鳥取県,米子市,加茂町１丁目３１斉木アパート２０１,,31,202,6830823,,,,,,,2025-06-19,1,,,,,クラス,0
2027,9340001027438,新規,0,2025-06-19,2025-06-19,株式会社ｗｉｎｗｉｎ,,株式会社,鹿児島県,鹿児島市,鴨池２丁目２５番１－４５号,,46,201,8900063,,,,,,,2025-06-19,1,,,,,ウインウイン,0
2047,9430003017766,新規,0,2025-06-19,2025-06-19,合同会社知識コネクト,,合同会社,北海道,札幌市南区,藤野四条７丁目８番７号,,01,106,0612284,,,,,,,2025-06-19,1,,,,,チシキコネクト,0
2052,9700150131136,新規,0,2025-06-19,2025-06-19,西鎌倉住宅地自治会,,その他,神奈川県,鎌倉市,西鎌倉４丁目１５番１６号,,14,204,2480035,,,,,,,2025-06-19,1,,,,,ニシカマクラジュウタクチジチカイ,0
