sequenceNumber,corporateNumber,process,correct,updateDate,changeDate,name,nameImageId,kind,prefectureName,cityName,streetNumber,addressImageId,prefectureCode,cityCode,postCode,addressOutside,addressOutsideImageId,closeDate,closeCause,successorCorporateNumber,changeCause,assignmentDate,latest,enName,enPrefectureName,enCityName,enAddressOutside,furigana,hihyoji
8,1010001220413,新規,0,2021-08-13,2021-08-13,株式会社Ｌｉｆｅ　Ｈｏｍｅ,,株式会社,東京都,千代田区,神田須田町１丁目２４番地６ＡＣＮ神田須田町ビル３Ｆ,,13,101,1010041,,,,,,,2021-08-13,1,,,,,ライフホーム,0
11,1010003035553,新規,0,2021-08-13,2021-08-13,合同会社ＫＣＲ１,,合同会社,東京都,中央区,日本橋１丁目４番１号,,13,102,1030027,,,,,,,2021-08-13,1,,,,,ケーシーアールワン,0
15,1010005033786,新規,0,2021-08-13,2021-08-13,一般社団法人ふるさと納税協会,,その他の設立登記法人,東京都,千代田区,平河町１丁目６番４号,,13,101,1020093,,,,,,,2021-08-13,1,,,,,フルサトノウゼイキョウカイ,0
18,1010401162008,新規,0,2021-08-13,2021-08-13,株式会社Ｒ－Ｐｒｏｊｅｃｔ,,株式会社,東京都,港区,海岸１丁目２番３号２１階,,13,103,1050022,,,,,,,2021-08-13,1,,,,,アールプロジェクト,0
19,1010401162098,新規,0,2021-08-13,2021-08-13,株式会社ＯＫマーケット,,株式会社,東京都,港区,麻布十番１丁目５番１２－５０４号,,13,103,1060045,,,,,,,2021-08-13,1,,,,,,0
24,1010403025906,新規,0,2021-08-13,2021-08-13,合同会社クローネ,,合同会社,東京都,港区,浜松町２丁目２番１５号浜松町ダイヤビル２Ｆ,,13,103,1050013,,,,,,,2021-08-13,1,,,,,クローネ,0
26,1010405020087,新規,0,2021-08-13,2021-08-13,一般社団法人日本コンソーシアムチェーン連盟,,その他の設立登記法人,東京都,港区,港南２丁目１６番２号,,13,103,1080075,,,,,,,2021-08-13,1,,,,,ニホンコンソーシアムチェーンレンメイ,0
32,1010703005888,新規,0,2021-08-13,2021-08-13,ＡＹ合同会社,,合同会社,東京都,品川区,旗の台１丁目１１番９号,,13,109,1420064,,,,,,,2021-08-13,1,,,,,エーワイ,0
38,1011001142226,新規,0,2021-08-13,2021-08-13,アヴァンセ・コンサルティング株式会社,,株式会社,東京都,渋谷区,神宮前６丁目２３番４号桑野ビル２階,,13,113,1500001,,,,,,,2021-08-13,1,,,,,アヴァンセコンサルティング,0
39,1011001142250,新規,0,2021-08-13,2021-08-13,ＲＥＤ　ＧＯＤ株式会社,,株式会社,東京都,渋谷区,松濤２丁目７番６号,,13,113,1500046,,,,,,,2021-08-13,1,,,,,レッドゴッド,0
40,1011001142291,新規,0,2021-08-13,2021-08-13,株式会社Ｙｏｕｒ　Ｔｈｏｕｓａｎｄ,,株式会社,東京都,渋谷区,円山町５番５号Ｎａｖｉ渋谷Ｖ３階,,13,113,1500044,,,,,,,2021-08-13,1,,,,,ユアサウザンド,0
41,1011003013177,新規,0,2021-08-13,2021-08-13,Ｔｉｅｒｒａ合同会社,,合同会社,東京都,渋谷区,本町３丁目３１番３号１００４号室,,13,113,1510071,,,,,,,2021-08-13,1,,,,,ティエラ,0
42,1011003013193,新規,0,2021-08-13,2021-08-13,ヨシノリスキー・アンド・チエコ合同会社,,合同会社,東京都,目黒区,目黒本町３丁目５番４－２０６号,,13,110,1520002,,,,,,,2021-08-13,1,,,,,ヨシノリスキーアンドチエコ,0
59,1011603003370,新規,0,2021-08-13,2021-08-13,合同会社ＦＩＳＨＥＲＭＡＮ,,合同会社,東京都,練馬区,上石神井２丁目１６番１５号,,13,120,1770044,,,,,,,2021-08-13,1,,,,,フィッシャーマン,0
67,1012805003043,新規,0,2021-08-13,2021-08-13,国分寺コーポ管理組合法人,,その他の設立登記法人,東京都,国分寺市,東恋ヶ窪３丁目１０番地２－３０３,,13,214,1850014,,,,,,,2021-08-13,1,,,,,コクブンジコーポ,0
71,1013301047823,新規,0,2021-08-13,2021-08-13,株式会社ＩＢＴ,,株式会社,東京都,豊島区,南大塚２丁目１５番６号,,13,116,1700005,,,,,,,2021-08-13,1,,,,,アイビーティー,0
72,1013301047848,新規,0,2021-08-13,2021-08-13,岩橋商事株式会社,,株式会社,東京都,豊島区,北大塚３丁目３４番８号,,13,116,1700004,,,,,,,2021-08-13,1,,,,,イワハシショウジ,0
79,1020001142508,新規,0,2021-08-13,2021-08-13,株式会社ザ・トレード,,株式会社,神奈川県,川崎市麻生区,金程１丁目１３番２号,,14,137,2150006,,,,,,,2021-08-13,1,,,,,ザトレード,0
92,1030003017764,新規,0,2021-08-13,2021-08-13,ＤＡＮＧ　ＰＨＯＮＧ合同会社,,合同会社,埼玉県,川越市,南台２丁目１１番６号熊谷店舗２階,,11,201,3501165,,,,,,,2021-08-13,1,,,,,ダンフン,0
101,1040001119685,新規,0,2021-08-13,2021-08-13,株式会社ＰＡＬＭＯＲＥ,,株式会社,千葉県,流山市,おおたかの森南３丁目５番地の２８,,12,220,2700139,,,,,,,2021-08-13,1,,,,,パルモア,0
104,1040003018274,新規,0,2021-08-13,2021-08-13,合同会社丸二工業,,合同会社,千葉県,長生郡白子町,関６９７８番地９,,12,424,2994218,,,,,,,2021-08-13,1,,,,,マルニコウギョウ,0
105,1040003018332,新規,0,2021-08-13,2021-08-13,合同会社ホークス,,合同会社,千葉県,浦安市,北栄２丁目１８番５１－２０３号ハイツＨＩＲＯ,,12,227,2790002,,,,,,,2021-08-13,1,,,,,ホークス,0
117,1100001034531,新規,0,2021-08-13,2021-08-13,藤牧塗装株式会社,,株式会社,長野県,須坂市,旭ケ丘４番地１４２,,20,207,3820003,,,,,,,2021-08-13,1,,,,,フジマキトソウ,0
128,1120001239698,新規,0,2021-08-13,2021-08-13,株式会社ＭｉＬＯ,,株式会社,大阪府,大阪市淀川区,十三東１丁目２０番１８号ネオハイツ新淀川６１０室,,27,123,5320023,,,,,,,2021-08-13,1,,,,,マイロ,0
129,1120001239707,新規,0,2021-08-13,2021-08-13,株式会社Ｄ－ｓｔｙｌｅ,,株式会社,大阪府,枚方市,川原町１１番１０号２０１,,27,210,5730028,,,,,,,2021-08-13,1,,,,,ディースタイル,0
130,1120001239715,新規,0,2021-08-13,2021-08-13,株式会社Ｙ．Ｎ．Ｗ．Ａ,,株式会社,大阪府,大阪市福島区,福島３丁目８－１６フローラミヤザキ４０３号,,27,103,5530003,,,,,,,2021-08-13,1,,,,,ワイエヌダブリューエー,0
131,1120001239731,新規,0,2021-08-13,2021-08-13,株式会社Ｎ’ｓ　Ａｒｋ,,株式会社,大阪府,大阪市北区,堂島１丁目２番７号,,27,127,5300003,,,,,,,2021-08-13,1,,,,,ノアズアーク,0
136,1120101064146,新規,0,2021-08-13,2021-08-13,株式会社暖和倶楽部,,株式会社,大阪府,堺市西区,浜寺南町１丁２６番地１ＤＡＩＫＥＮＮＳＱＵＡＲＥ・Ｅ１０１,,27,144,5928344,,,,,,,2021-08-13,1,,,,,ダンワクラブ,0
156,1140003016623,新規,0,2021-08-13,2021-08-13,合同会社エヌエヌ企画,,合同会社,兵庫県,神戸市北区,星和台１丁目４番地の５,,28,109,6511121,,,,,,,2021-08-13,1,,,,,エヌエヌキカク,0
161,1170001016721,新規,0,2021-08-13,2021-08-13,コーケン建設株式会社,,株式会社,和歌山県,和歌山市,園部３２７番地,,30,201,6408483,,,,,,,2021-08-13,1,,,,,コーケンケンセツ,0
173,1180001147417,新規,0,2021-08-13,2021-08-13,株式会社誠一商店,,株式会社,愛知県,津島市,唐臼町大門２２番地ヤマショウハイツ１０１号,,23,208,4960026,,,,,,,2021-08-13,1,,,,,セイイチショウテン,0
174,1180001147433,新規,0,2021-08-13,2021-08-13,株式会社積昇,,株式会社,愛知県,名古屋市西区,上橋町６２番地,,23,104,4520844,,,,,,,2021-08-13,1,,,,,セキショウ,0
191,1220001024363,新規,0,2021-08-13,2021-08-13,サイトーホーム株式会社,,株式会社,石川県,金沢市,若松町３丁目２７９番地１,,17,201,9201165,,,,,,,2021-08-13,1,,,,,サイトーホーム,0
199,1240003005244,新規,0,2021-08-13,2021-08-13,合同会社鞆鋲釘,,合同会社,広島県,福山市,鞆町鞆３６２番地,,34,207,7200201,,,,,,,2021-08-13,1,,,,,トモビョウヤ,0
202,1260001035869,新規,0,2021-08-13,2021-08-13,株式会社ＭＴＫ,,株式会社,岡山県,笠岡市,新賀１６１９－１,,33,205,7140005,,,,,,,2021-08-13,1,,,,,エムティーケー,0
212,1290001094136,新規,0,2021-08-13,2021-08-13,株式会社スペランサー元浜,,株式会社,福岡県,福岡市西区,大字元岡１０５９番地３,,40,135,8190385,,,,,,,2021-08-13,1,,,,,スペランサーモトハマ,0
213,1290001094276,新規,0,2021-08-13,2021-08-13,株式会社ヌルボン,,株式会社,福岡県,福岡市博多区,美野島２丁目５番２号,,40,132,8120017,,,,,,,2021-08-13,1,,,,,ヌルボン,0
238,1360001029225,新規,0,2021-08-13,2021-08-13,Ｅ－ＰＲＯ株式会社,,株式会社,沖縄県,那覇市,港町２丁目３番８号２階,,47,201,9000001,,,,,,,2021-08-13,1,,,,,イープロ,0
239,1370001047481,新規,0,2021-08-13,2021-08-13,Ｎｅｗａ株式会社,,株式会社,宮城県,仙台市青葉区,小田原８丁目８番２８号,,04,101,9800003,,,,,,,2021-08-13,1,,,,,ネワ,0
241,1370005010329,新規,0,2021-08-13,2021-08-13,一般社団法人ドリームプロジェクト,,その他の設立登記法人,宮城県,仙台市青葉区,一番町１丁目４番１号,,04,101,9800811,,,,,,,2021-08-13,1,,,,,ドリームプロジェクト,0
256,1430001084725,新規,0,2021-08-13,2021-08-13,勝栄工業株式会社,,株式会社,北海道,滝川市,西町５丁目８番３４号,,01,225,0730044,,,,,,,2021-08-13,1,,,,,ショウエイコウギョウ,0
257,1430001084733,新規,0,2021-08-13,2021-08-13,株式会社福座,,株式会社,北海道,恵庭市,恵南６番地１２,,01,231,0611411,,,,,,,2021-08-13,1,,,,,フクザ,0
258,1430001084741,新規,0,2021-08-13,2021-08-13,株式会社開米不動産,,株式会社,北海道,札幌市西区,発寒六条５丁目４番１１号,,01,107,0630826,,,,,,,2021-08-13,1,,,,,カイマイフドウサン,0
262,1430003013013,新規,0,2021-08-13,2021-08-13,合同会社ＡｌｌＦａｍｉｌｉａ,,合同会社,北海道,札幌市白石区,平和通２丁目南６番２３号エスパシオ白石１１０号室,,01,104,0030028,,,,,,,2021-08-13,1,,,,,アルファミリア,0
263,1430003013021,新規,0,2021-08-13,2021-08-13,合同会社ＭＣＭ　ＪＡＰＡＮ,,合同会社,北海道,札幌市東区,東苗穂十四条３丁目２３番１２号,,01,103,0070814,,,,,,,2021-08-13,1,,,,,エムシーエムジャパン,0
269,1700150018035,新規,0,2021-08-13,2015-10-09,関東信越税理士会　越谷支部,,その他,埼玉県,越谷市,赤山町３丁目２－３野﨑ビル２Ｆ,00115094,11,222,3430807,,,,,,,2015-10-09,1,,,,,カントウシンエツゼイリシカイコシガヤシブ,0
270,1700150104355,新規,0,2021-08-13,2021-08-13,財団法人　史明教育基金会,,外国会社等,,,,,,,,新北市新荘区中平路１１０巷１７号３階,,,,,,2021-08-13,1,,,,,ザイダンホウジンシメイキヨウイクキキンカイ,0
279,2010001220387,新規,0,2021-08-13,2021-08-13,株式会社エーカンパニー,,株式会社,東京都,千代田区,外神田６丁目７番７号マツダビル２階,,13,101,1010021,,,,,,,2021-08-13,1,,,,,エーカンパニー,0
283,2010003035585,新規,0,2021-08-13,2021-08-13,テラプランニングＫＡＺＯＯ合同会社,,合同会社,東京都,千代田区,富士見２丁目５番９－２０３号,,13,101,1020071,,,,,,,2021-08-13,1,,,,,テラプランニングカズ,0
284,2010005033785,新規,0,2021-08-13,2021-08-13,バックオフィス・パーソネル社会保険労務士法人,,その他の設立登記法人,東京都,中央区,八丁堀４丁目１３番５号,,13,102,1040032,,,,,,,2021-08-13,1,,,,,バックオフィスパーソネル,0
286,2010401162089,新規,0,2021-08-13,2021-08-13,ＢＯＹＯＮＤ株式会社,,株式会社,東京都,港区,赤坂１丁目１２－３２－３Ｆ,,13,103,1070052,,,,,,,2021-08-13,1,,,,,ボヨンド,0
303,2010703005904,新規,0,2021-08-13,2021-08-13,Ｒａｉｎｂｏｗ　Ｌｉｎｋ合同会社,,合同会社,東京都,品川区,東五反田５丁目２７番１０号ロイヤルハウス６Ｆ,,13,109,1410022,,,,,,,2021-08-13,1,,,,,レインボーリンク,0
306,2010903006727,新規,0,2021-08-13,2021-08-13,合同会社ｅ－ｃｅｍ,,合同会社,東京都,世田谷区,池尻３丁目２８－７リムテラス池尻三宿１０１,,13,112,1540001,,,,,,,2021-08-13,1,,,,,イーセム,0
307,2010905004183,新規,0,2021-08-13,2021-08-13,特定非営利活動法人メディキッズ,,その他の設立登記法人,東京都,世田谷区,梅丘１丁目２３番２号Ｆｕｌｌｅａ梅丘１階,,13,112,1540022,,,,,,,2021-08-13,1,,,,,メディキッズ,0
312,2011001142035,新規,0,2021-08-13,2021-08-13,株式会社ヒルサイドＮｏＮ,,株式会社,東京都,目黒区,自由が丘１丁目２４番１６号,,13,110,1520035,,,,,,,2021-08-13,1,,,,,ヒルサイドノン,0
313,2011001142225,新規,0,2021-08-13,2021-08-13,株式会社Ａｕｇｕｓｔ２,,株式会社,東京都,渋谷区,恵比寿４丁目２０番４号,,13,113,1500013,,,,,,,2021-08-13,1,,,,,オーガストセカンド,0
314,2011003013176,新規,0,2021-08-13,2021-08-13,合同会社ケープロモーション,,合同会社,東京都,目黒区,駒場１丁目１６番９号片桐ビル３０２,,13,110,1530041,,,,,,,2021-08-13,1,,,,,ケープロモーション,0
315,2011003013192,新規,0,2021-08-13,2021-08-13,合同会社魚音,,合同会社,東京都,渋谷区,初台１丁目１１番１２号,,13,113,1510061,,,,,,,2021-08-13,1,,,,,フィッシュオン,0
334,2011601025325,新規,0,2021-08-13,2021-08-13,ＨＡＬＯ５１２株式会社,,株式会社,東京都,練馬区,中村３丁目３２番１５号アーバン中村１－１０６,,13,120,1760024,,,,,,,2021-08-13,1,,,,,ハロゴーイチニ,0
339,2011703002916,新規,0,2021-08-13,2021-08-13,合同会社ＴＫ　ＣＲＡＦＴ,,合同会社,東京都,江戸川区,江戸川４丁目６番１号,,13,123,1340013,,,,,,,2021-08-13,1,,,,,,0
348,2012801021015,新規,0,2021-08-13,2021-08-13,株式会社ＥＶＯＲＩＳＥ,,株式会社,東京都,立川市,柴崎町６丁目１４番２８－１０１号,,13,202,1900023,,,,,,,2021-08-13,1,,,,,エボライズ,0
350,2012803002574,新規,0,2021-08-13,2021-08-13,合同会社ＴＡＰＰ,,合同会社,東京都,立川市,富士見町２丁目１２－８恒和ビル立川２０２,,13,202,1900013,,,,,,,2021-08-13,1,,,,,タップ,0
353,2013301047822,新規,0,2021-08-13,2021-08-13,株式会社Ｔａｋｅ　ｕｐ,,株式会社,東京都,豊島区,東池袋１丁目３１－１５トーカン池袋第二キャステール８０５,,13,116,1700013,,,,,,,2021-08-13,1,,,,,テイクアップ,0
354,2013301047855,新規,0,2021-08-13,2021-08-13,株式会社ワイエスアール,,株式会社,東京都,豊島区,西池袋１丁目２９番１４号,,13,116,1710021,,,,,,,2021-08-13,1,,,,,ワイエスアール,0
363,2020001142589,新規,0,2021-08-13,2021-08-13,株式会社明倫大塚保険設計,,株式会社,神奈川県,横浜市泉区,上飯田町２０５６番地の３,,14,116,2450018,,,,,,,2021-08-13,1,,,,,メイリンオオツカホケンセッケイ,0
375,2021003010800,新規,0,2021-08-13,2021-08-13,合同会社アポロン,,合同会社,神奈川県,平塚市,長持４２１番地の２,,14,203,2591217,,,,,,,2021-08-13,1,,,,,アポロン,0
381,2030001143801,新規,0,2021-08-13,2021-08-13,株式会社ＲＥＶＩＣＬＥ,,株式会社,埼玉県,新座市,石神２丁目９番１７号,,11,230,3520033,,,,,,,2021-08-13,1,,,,,リバイクル,0
386,2040001119635,新規,0,2021-08-13,2021-08-13,株式会社宮誠,,株式会社,千葉県,松戸市,常盤平柳町２７番地の２９,,12,207,2702263,,,,,,,2021-08-13,1,,,,,ミヤセイ,0
387,2040001119759,新規,0,2021-08-13,2021-08-13,株式会社フォーストリーツ,,株式会社,千葉県,四街道市,和良比２７６番地６１,,12,228,2840044,,,,,,,2021-08-13,1,,,,,フォーストリーツ,0
388,2040001119775,新規,0,2021-08-13,2021-08-13,株式会社ココロウェルネス,,株式会社,千葉県,市川市,大野町２丁目１８３－２,,12,203,2720805,,,,,,,2021-08-13,1,,,,,ココロウェルネス,0
391,2040005021309,新規,0,2021-08-13,2021-08-13,税理士法人桜井会計,,その他の設立登記法人,千葉県,千葉市花見川区,花園１丁目４番２号,,12,102,2620025,,,,,,,2021-08-13,1,,,,,サクライカイケイ,0
392,2050001049708,新規,0,2021-08-13,2021-08-13,株式会社大内工業,,株式会社,茨城県,ひたちなか市,大字東石川１２８６番地サーパス東石川１０８号,,08,221,3120052,,,,,,,2021-08-13,1,,,,,オオウチコウギョウ,0
421,2120001239697,新規,0,2021-08-13,2021-08-13,株式会社優屋,,株式会社,大阪府,大阪市北区,本庄東２丁目４番２－７３５号,,27,127,5310074,,,,,,,2021-08-13,1,,,,,ユウヤ,0
422,2120001239739,新規,0,2021-08-13,2021-08-13,株式会社エヌ興産,,株式会社,大阪府,大阪市東成区,東中本１丁目１番１０号２０２号室,,27,115,5370021,,,,,,,2021-08-13,1,,,,,エヌコウサン,0
423,2120001239747,新規,0,2021-08-13,2021-08-13,株式会社ニコドット,,株式会社,大阪府,大阪市北区,梅田１丁目２番２－４００号,,27,127,5300001,,,,,,,2021-08-13,1,,,,,ニコドット,0
427,2120003020023,新規,0,2021-08-13,2021-08-13,合同会社モウコリッタ,,合同会社,大阪府,大阪市北区,梅田１丁目１－３大阪駅前第３ビル２３０７,,27,127,5300001,,,,,,,2021-08-13,1,,,,,モウコリッタ,0
432,2120005022439,新規,0,2021-08-13,2021-08-13,一般社団法人中浜稔水墨画協会,,その他の設立登記法人,大阪府,大阪市中央区,日本橋１丁目１８番８号芝ビル２階,,27,128,5420073,,,,,,,2021-08-13,1,,,,,ナカハマミノルスイボクガキョウカイ,0
439,2120903003779,新規,0,2021-08-13,2021-08-13,カノアテックサービス合同会社,,合同会社,大阪府,豊能郡能勢町,下田尻２２７番１６号,,27,322,5630123,,,,,,,2021-08-13,1,,,,,カノアテックサービス,0
464,2150005009318,新規,0,2021-08-13,2021-08-13,一般社団法人針ヶ別所未来開発,,その他の設立登記法人,奈良県,奈良市,針ヶ別所町６７０番地の１,,29,201,6320112,,,,,,,2021-08-13,1,,,,,ハリガベッショミライカイハツ,0
465,2170001016720,新規,0,2021-08-13,2021-08-13,株式会社裕昇,,株式会社,和歌山県,有田市,古江見１６８番地５,,30,204,6490317,,,,,,,2021-08-13,1,,,,,ユウショウ,0
472,2180001147366,新規,0,2021-08-13,2021-08-13,株式会社ＴＳＤ,,株式会社,愛知県,知多市,にしの台１丁目２２０５番地の３,,23,224,4780055,,,,,,,2021-08-13,1,,,,,ティエスディ,0
473,2180001147424,新規,0,2021-08-13,2021-08-13,株式会社パークス,,株式会社,愛知県,名古屋市千種区,千種２丁目２３番６号ロイヤルパークス千種５１３,,23,101,4640858,,,,,,,2021-08-13,1,,,,,パークス,0
492,2230001018933,新規,0,2021-08-13,2021-08-13,株式会社ＣＯＣＯＫＡＲＡ,,株式会社,富山県,滑川市,高月町３０番地６,,16,206,9360078,,,,,,,2021-08-13,1,,,,,ココカラ,0
505,2270001008336,新規,0,2021-08-13,2021-08-13,株式会社つづお,,株式会社,鳥取県,鳥取市,吉成１００３番地,,31,201,6800864,,,,,,,2021-08-13,1,,,,,ツヅオ,0
512,2290001094143,新規,0,2021-08-13,2021-08-13,株式会社たけ屋,,株式会社,福岡県,久留米市,津福本町１３０９番地１,,40,203,8300047,,,,,,,2021-08-13,1,,,,,タケヤ,0
513,2290001094168,新規,0,2021-08-13,2021-08-13,株式会社ハピネス３１,,株式会社,福岡県,福岡市博多区,板付１丁目４番３１－７０１号,,40,132,8120888,,,,,,,2021-08-13,1,,,,,ハピネスサンジュウイチ,0
517,2290003011518,新規,0,2021-08-13,2021-08-13,合同会社Ｎ．Ｔ．Ｐ,,合同会社,福岡県,福岡市博多区,博多駅南３丁目１５番２７号マルセン博多ビル５０２号,,40,132,8120016,,,,,,,2021-08-13,1,,,,,エヌティーピー,0
519,2290801027698,新規,0,2021-08-13,2021-08-13,株式会社正覚,,株式会社,福岡県,北九州市八幡西区,千代２丁目５番１０号,,40,109,8071112,,,,,,,2021-08-13,1,,,,,ショウカク,0
521,2300005007025,新規,0,2021-08-13,2021-08-13,一般社団法人ブランアンジュ,,その他の設立登記法人,佐賀県,三養基郡基山町,大字小倉８９４番地１０,,41,341,8410201,,,,,,,2021-08-13,1,,,,,ブランアンジュ,0
532,2340001024012,新規,0,2021-08-13,2021-08-13,株式会社山電,,株式会社,鹿児島県,鹿児島市,川上町２６８２番地５６,,46,201,8920875,,,,,,,2021-08-13,1,,,,,ヤマデン,0
544,2380001032110,新規,0,2021-08-13,2021-08-13,株式会社ＫＮＩＴ　ＰＬＡＮＮＩＮＧ,,株式会社,福島県,郡山市,富田町字上亀田１１番地の１８,,07,203,9638041,,,,,,,2021-08-13,1,,,,,ニットプランニング,0
552,2430001084699,新規,0,2021-08-13,2021-08-13,株式会社テットホーム,,株式会社,北海道,苫小牧市,松風町３番１０号,,01,213,0530841,,,,,,,2021-08-13,1,,,,,テットホーム,0
553,2430001084708,新規,0,2021-08-13,2021-08-13,ソラインターナショナル株式会社,,株式会社,北海道,札幌市東区,伏古十一条２丁目４番５号,,01,103,0070871,,,,,,,2021-08-13,1,,,,,ソラインターナショナル,0
554,2430001084716,新規,0,2021-08-13,2021-08-13,ジョイン株式会社,,株式会社,北海道,北広島市,大曲緑ヶ丘２丁目１１番地２,,01,234,0611276,,,,,,,2021-08-13,1,,,,,ジョイン,0
555,2430001084724,新規,0,2021-08-13,2021-08-13,エー・デュース株式会社,,株式会社,北海道,札幌市西区,西町南８丁目３番７－１１１１号,,01,107,0630062,,,,,,,2021-08-13,1,,,,,エーデュース,0
556,2430001084740,新規,0,2021-08-13,2021-08-13,ｗｏｒｋｓ株式会社,,株式会社,北海道,千歳市,根志越２４６６番１０号,,01,224,0660008,,,,,,,2021-08-13,1,,,,,ワークス,0
557,2430003013029,新規,0,2021-08-13,2021-08-13,合同会社Ｌｉｆｈｉｌ,,合同会社,北海道,札幌市東区,北三十六条東１２丁目２番７号,,01,103,0070836,,,,,,,2021-08-13,1,,,,,リフィル,0
558,2430003013037,新規,0,2021-08-13,2021-08-13,合同会社ＬＩＮＫ,,合同会社,北海道,札幌市中央区,南六条西９丁目１０２６番地１３ガイアールＳ６－１０２号,,01,101,0640806,,,,,,,2021-08-13,1,,,,,リンク,0
566,2500001023625,新規,0,2021-08-13,2021-08-13,株式会社心美葬,,株式会社,愛媛県,宇和島市,夏目町３丁目１１番２０号,,38,203,7980083,,,,,,,2021-08-13,1,,,,,シンビソウ,0
567,2700150104346,新規,0,2021-08-13,2021-08-13,ＳＧ佐川アメロイド株式会社,,外国会社等,,,,,,,,１５　ＰＩＯＮＥＥＲ　ＷＡＬＫ　＃０２－０１　ＰＩＯＮＥＥＲ　ＨＵＢ　ＳＩＮＧＡＰＯＲＥ,,,,,,2021-08-13,1,,,,,エスジーサガワアメロイドカブシキガイシヤ,0
568,2700150104354,新規,0,2021-08-13,2021-08-13,ＡＮＮＡ　ＡＳＡＨＩ　ＬＩＭＩＴＥＤ,,外国会社等,東京都,港区,赤坂６丁目１９－１９－２０４,,13,103,1070052,Ｖｉｓｔｒａ　Ｃｏｒｐｏｒａｔｅ　Ｓｅｒｖｉｃｅｓ　Ｃｅｎｔｒｅ，Ｗｉｃｋｈａｍｓ　ＣａｙＩＩ，Ｒｏａｄ　Ｔｏｗｎ，Ｔｏｒｔｏｌａ，ＶＧ１１１０，ＢＶＩ,,,,,,2021-08-13,1,,,,,アンナアサヒリミテツド,0
575,3010001220386,新規,0,2021-08-13,2021-08-13,株式会社フォーセブンティーン,,株式会社,東京都,千代田区,平河町１丁目３番１４号,,13,101,1020093,,,,,,,2021-08-13,1,,,,,フォーセブンティーン,0
584,3010005033784,新規,0,2021-08-13,2021-08-13,社会保険労務士法人友部事務所,,その他の設立登記法人,東京都,中央区,日本橋小網町８番２号ＢＩＺＭＡＲＫＳ日本橋茅場町７０８,,13,102,1030016,,,,,,,2021-08-13,1,,,,,トモベジムショ,0
601,3010401162047,新規,0,2021-08-13,2021-08-13,株式会社ＢＥＣＫ,,株式会社,東京都,港区,南青山２丁目２番１５号,,13,103,1070062,,,,,,,2021-08-13,1,,,,,ベック,0
602,3010401162063,新規,0,2021-08-13,2021-08-13,株式会社アザブＳＴ,,株式会社,東京都,港区,麻布十番２丁目１９番１０号ＰＩＡ麻布十番Ⅱ,00123932,13,103,1060045,,,,,,,2021-08-13,1,,,,,アザブエスティー,0
603,3010401162088,新規,0,2021-08-13,2021-08-13,イリスマ株式会社,,株式会社,東京都,港区,赤坂１丁目１２－３２－３Ｆ,,13,103,1070052,,,,,,,2021-08-13,1,,,,,イリスマ,0
605,3010403025904,新規,0,2021-08-13,2021-08-13,ワイレアキャピタルマネジメント合同会社,,合同会社,東京都,港区,西新橋１丁目２番９号日比谷セントラルビル１４階,,13,103,1050003,,,,,,,2021-08-13,1,,,,,ワイレアキャピタルマネジメント,0
613,3010703005894,新規,0,2021-08-13,2021-08-13,ＥＰＯＤＩＵＭ　ＪＡＰＡＮ合同会社,,合同会社,東京都,品川区,大井１丁目２５番１－１０３号,,13,109,1400014,,,,,,,2021-08-13,1,,,,,エポディウムジャパン,0
616,3010801032238,新規,0,2021-08-13,2021-08-13,株式会社ユーミ,,株式会社,東京都,大田区,羽田２丁目３１番２号,,13,111,1440043,,,,,,,2021-08-13,1,,,,,ユーミ,0
617,3010805002864,新規,0,2021-08-13,2021-08-13,一般社団法人ジャパンアクティビティソリューションズ,,その他の設立登記法人,東京都,大田区,中央２丁目２２番１８号,,13,111,1430024,,,,,,,2021-08-13,1,,,,,ジャパンアクティビティソリューションズ,0
620,3010903006726,新規,0,2021-08-13,2021-08-13,合同会社プラヤビスタ,,合同会社,東京都,世田谷区,喜多見９丁目２番７－５０３号,,13,112,1570067,,,,,,,2021-08-13,1,,,,,プラヤビスタ,0
630,3011001142133,新規,0,2021-08-13,2021-08-13,株式会社ライクホーム,,株式会社,東京都,渋谷区,本町５丁目４２番１２号サンバレー渋谷１０３号室,,13,113,1510071,,,,,,,2021-08-13,1,,,,,ライクホーム,0
631,3011001142224,新規,0,2021-08-13,2021-08-13,株式会社ＰＯＲＴ,,株式会社,東京都,渋谷区,神宮前６丁目２３番４号桑野ビル２階,,13,113,1500001,,,,,,,2021-08-13,1,,,,,ポート,0
632,3011001142281,新規,0,2021-08-13,2021-08-13,株式会社ピースフロー,,株式会社,東京都,目黒区,碑文谷２丁目２０番２４－１０４号,,13,110,1520003,,,,,,,2021-08-13,1,,,,,ピースフロー,0
634,3011003013191,新規,0,2021-08-13,2021-08-13,合同会社Ｒｉｉ　Ｃｏｍｐａｎｙ,,合同会社,東京都,目黒区,中央町２丁目７番１４号,,13,110,1520001,,,,,,,2021-08-13,1,,,,,リィカンパニー,0
635,3011003013200,新規,0,2021-08-13,2021-08-13,アロマリーフ合同会社,,合同会社,東京都,渋谷区,松濤２丁目１１番１７－１０３号,,13,113,1500046,,,,,,,2021-08-13,1,,,,,アロマリーフ,0
639,3011101095999,新規,0,2021-08-13,2021-08-13,株式会社ＪＵＮ２１,,株式会社,東京都,新宿区,原町１丁目６２番地５,,13,104,1620053,,,,,,,2021-08-13,1,,,,,ジュンニジュウイチ,0
647,3011703002915,新規,0,2021-08-13,2021-08-13,Ｔｏｋｙｏ　ｉｎｄｉａ　ｃａｒ合同会社,,合同会社,東京都,江戸川区,大杉２丁目９－６,,13,123,1320022,,,,,,,2021-08-13,1,,,,,トウキョウインディアカー,0
651,3012803002573,新規,0,2021-08-13,2021-08-13,合同会社ＫｉＳａ,,合同会社,東京都,国立市,東２丁目３番地の４,,13,215,1860002,,,,,,,2021-08-13,1,,,,,キサ,0
659,3013301047854,新規,0,2021-08-13,2021-08-13,日本雲途株式会社,,株式会社,東京都,豊島区,南池袋１丁目１６番１５号ダイヤゲート池袋５階５２８室,,13,116,1710022,,,,,,,2021-08-13,1,,,,,ニホンイウントウ,0
666,3020001142472,新規,0,2021-08-13,2021-08-13,株式会社平成リフォーム横浜,,株式会社,神奈川県,横浜市戸塚区,下倉田町２４４番地の３－２Ｆ,,14,110,2440815,,,,,,,2021-08-13,1,,,,,ヘイセイリフォームヨコハマ,0
667,3020003020321,新規,0,2021-08-13,2021-08-13,合同会社バンブービック,,合同会社,神奈川県,横浜市都筑区,池辺町３５０８番地１,,14,118,2240053,,,,,,,2021-08-13,1,,,,,バンブービック,0
672,3021001073633,新規,0,2021-08-13,2021-08-13,株式会社永誠,,株式会社,神奈川県,秦野市,曽屋５６０番地の５,,14,211,2570031,,,,,,,2021-08-13,1,,,,,エイセイ,0
677,3021003010774,新規,0,2021-08-13,2021-08-13,合同会社Ｈｉｌｌ　Ｃａｐｅ,,合同会社,神奈川県,座間市,東原３丁目５番１０号,,14,216,2520004,,,,,,,2021-08-13,1,,,,,ヒルケイプ,0
681,3030001143809,新規,0,2021-08-13,2021-08-13,株式会社三裕,,株式会社,埼玉県,北足立郡伊奈町,大字小室２６４２番地１,,11,301,3620806,,,,,,,2021-08-13,1,,,,,サンユウ,0
693,3040001119758,新規,0,2021-08-13,2021-08-13,株式会社ｇｙ,,株式会社,千葉県,市川市,湊新田２丁目１番１号西田ビル３階,,12,203,2720132,,,,,,,2021-08-13,1,,,,,ジーワイ,0
694,3040001119782,新規,0,2021-08-13,2021-08-13,株式会社ＫＩＮＥＴＩＣＡ,,株式会社,千葉県,四街道市,四街道１丁目２０番２号モンフレール四街道Ａ棟１－２,,12,228,2840005,,,,,,,2021-08-13,1,,,,,キネティカ,0
701,3050003006029,新規,0,2021-08-13,2021-08-13,合同会社ワイズ,,合同会社,茨城県,筑西市,舟生１０１８番地５１,,08,227,3080111,,,,,,,2021-08-13,1,,,,,ワイズ,0
709,3080403004348,新規,0,2021-08-13,2021-08-13,合同会社エコハート,,合同会社,静岡県,浜松市中区,萩丘３丁目２番２３号Ｍコープ２－２号室,,22,131,4338121,,,,,,,2021-08-13,1,,,,,エコハート,0
721,3120001239639,新規,0,2021-08-13,2021-08-13,株式会社ＡＲＥＳ,,株式会社,大阪府,大阪市住吉区,東粉浜３丁目２３番４号,,27,120,5580051,,,,,,,2021-08-13,1,,,,,アレス,0
722,3120001239738,新規,0,2021-08-13,2021-08-13,ハッテン塗建株式会社,,株式会社,大阪府,大阪市東住吉区,公園南矢田２丁目５番５号,,27,121,5460024,,,,,,,2021-08-13,1,,,,,ハッテントケン,0
727,3120003020014,新規,0,2021-08-13,2021-08-13,合同会社コレクト,,合同会社,大阪府,大阪市天王寺区,石ケ辻町１４番６号,,27,109,5430031,,,,,,,2021-08-13,1,,,,,コレクト,0
728,3120003020022,新規,0,2021-08-13,2021-08-13,ＯＮＥＭＡＫＥ合同会社,,合同会社,大阪府,大阪市都島区,都島南通１丁目７番１９号,,27,102,5340023,,,,,,,2021-08-13,1,,,,,ワンメイク,0
749,3140001122537,新規,0,2021-08-13,2021-08-13,株式会社ＦＡＬＬＢＡＣＫ,,株式会社,兵庫県,西宮市,広田町１２番４８号,,28,204,6620837,,,,,,,2021-08-13,1,,,,,フォールバック,0
750,3140001122669,新規,0,2021-08-13,2021-08-13,株式会社ミント,,株式会社,兵庫県,神戸市東灘区,甲南町１丁目２番６－４０２,,28,101,6580084,,,,,,,2021-08-13,1,,,,,ミント,0
758,3150003002447,新規,0,2021-08-13,2021-08-13,合同会社ｙｏｈａｋｕ,,合同会社,奈良県,奈良市,杉ヶ町３６－１大谷ビル１Ｆ,,29,201,6308357,,,,,,,2021-08-13,1,,,,,ヨハク,0
759,3150003002455,新規,0,2021-08-13,2021-08-13,合同会社ことばｍｉｒａｉ,,合同会社,奈良県,生駒市,萩の台１丁目１番５－２０５号,,29,209,6300224,,,,,,,2021-08-13,1,,,,,コトバミライ,0
769,3180001147415,新規,0,2021-08-13,2021-08-13,株式会社ＲＨＪ,,株式会社,愛知県,名古屋市中村区,太閤通８丁目３０番地ＡＲＫ中村公園３階,,23,105,4530811,,,,,,,2021-08-13,1,,,,,アールエイチジェイ,0
788,3210001018570,新規,0,2021-08-13,2021-08-13,株式会社ｅｃｌａｔ,,株式会社,福井県,福井市,文京１丁目３７番２号,,18,201,9100017,,,,,,,2021-08-13,1,,,,,エクラ,0
815,3260005010957,新規,0,2021-08-13,2021-08-13,医療法人社団メイプルＤＣ,,その他の設立登記法人,岡山県,岡山市北区,御津宇垣１６８７番２,,33,101,7092121,,,,,,,2021-08-13,1,,,,,メイプルディーシー,0
822,3290001094167,新規,0,2021-08-13,2021-08-13,株式会社モモ・バンカーフォワード,,株式会社,福岡県,福岡市南区,清水３丁目２５番２１－１００２号,,40,134,8150031,,,,,,,2021-08-13,1,,,,,モモバンカーフォワード,0
823,3290001094183,新規,0,2021-08-13,2021-08-13,Ｇｏｏｄ　Ｓｕｎｒｉｓｅ株式会社,,株式会社,福岡県,久留米市,天神町３１番地６,,40,203,8300033,,,,,,,2021-08-13,1,,,,,グッドサンライズ,0
824,3290001094200,新規,0,2021-08-13,2021-08-13,株式会社新宮設備,,株式会社,福岡県,糟屋郡新宮町,大字下府１２８６番地１,,40,345,8110112,,,,,,,2021-08-13,1,,,,,シングウセツビ,0
882,3430001084707,新規,0,2021-08-13,2021-08-13,株式会社第一設備,,株式会社,北海道,日高郡新ひだか町,静内旭町１丁目１８番２７号,,01,610,0560003,,,,,,,2021-08-13,1,,,,,ダイイチセツビ,0
883,3430001084723,新規,0,2021-08-13,2021-08-13,株式会社ＴｏｐＲａｎｋ,,株式会社,北海道,札幌市中央区,南十三条西６丁目４番１３号,,01,101,0640913,,,,,,,2021-08-13,1,,,,,トップランク,0
884,3430001084731,新規,0,2021-08-13,2021-08-13,武ダコーポレートライン株式会社,,株式会社,北海道,札幌市白石区,中央二条１丁目６番１５号,,01,104,0030012,,,,,,,2021-08-13,1,,,,,タケダコーポレートライン,0
885,3430003013036,新規,0,2021-08-13,2021-08-13,合同会社カチ・アセット・プラン,,合同会社,北海道,札幌市中央区,宮の森二条１３丁目１２番３０号,,01,101,0640952,,,,,,,2021-08-13,1,,,,,カチアセットプラン,0
897,3500001023624,新規,0,2021-08-13,2021-08-13,株式会社Ｍｉｒｉｃｅ,,株式会社,愛媛県,松山市,吉藤５丁目１９番３９号,,38,201,7918011,,,,,,,2021-08-13,1,,,,,ミライス,0
908,4010005033775,新規,0,2021-08-13,2021-08-13,鎌倉橋税理士法人,,その他の設立登記法人,東京都,千代田区,内神田２丁目７番７号新内神田ビル３階,,13,101,1010047,,,,,,,2021-08-13,1,,,,,カマクラバシ,0
909,4010005033783,新規,0,2021-08-13,2021-08-13,神田錦町一般社団法人,,その他の設立登記法人,東京都,中央区,八丁堀４丁目２番１０号ＡＯＪ税理士法人内,,13,102,1040032,,,,,,,2021-08-13,1,,,,,カンダニシキチョウ,0
915,4010401162046,新規,0,2021-08-13,2021-08-13,株式会社ドルフィン・バリュー・アップ３号,,株式会社,東京都,港区,芝公園１丁目１番１号住友不動産御成門タワー７階,,13,103,1050011,,,,,,,2021-08-13,1,,,,,ドルフィンバリューアップサンゴウ,0
916,4010401162079,新規,0,2021-08-13,2021-08-13,Ｏａｔｓｉｄｅ株式会社,,株式会社,東京都,港区,赤坂２丁目２３番１号アークヒルズ・フロントタワーＩｎＣｏｎｔｒｏｌ内,,13,103,1070052,,,,,,,2021-08-13,1,,,,,オートサイド,0
917,4010401162087,新規,0,2021-08-13,2021-08-13,株式会社Ｌｏｃａｌ,,株式会社,東京都,港区,東麻布２丁目３１番７－８０２号,,13,103,1060044,,,,,,,2021-08-13,1,,,,,ローカル,0
918,4010401162104,新規,0,2021-08-13,2021-08-13,Ａｂｂｅｙ＆Ｃｏ．株式会社,,株式会社,東京都,港区,南麻布２丁目１３番２０－２０５号,,13,103,1060047,,,,,,,2021-08-13,1,,,,,アビーアンドカンパニー,0
919,4010401162112,新規,0,2021-08-13,2021-08-13,タップス株式会社,,株式会社,東京都,港区,浜松町２丁目２番１５号浜松町ダイヤビル２Ｆ,,13,103,1050013,,,,,,,2021-08-13,1,,,,,タップス,0
927,4010405020118,新規,0,2021-08-13,2021-08-13,一般社団法人Ｍａｎｅｎ,,その他の設立登記法人,東京都,港区,虎ノ門５丁目１番４号,,13,103,1050001,,,,,,,2021-08-13,1,,,,,マンエン,0
932,4010701041379,新規,0,2021-08-13,2021-08-13,ｍｉｌｅ株式会社,,株式会社,東京都,品川区,大井２丁目１８番８号,,13,109,1400014,,,,,,,2021-08-13,1,,,,,マイル,0
933,4010701041387,新規,0,2021-08-13,2021-08-13,株式会社Ｍｏｎｊｕｄｅ,,株式会社,東京都,品川区,西五反田１丁目２６番２号五反田サンハイツ９１１,,13,109,1410031,,,,,,,2021-08-13,1,,,,,モンジュード,0
935,4010703005893,新規,0,2021-08-13,2021-08-13,Ｃａｒｅｆｒｅｅ　Ｌｉｆｅ合同会社,,合同会社,東京都,品川区,東品川４丁目６－７シャルマン東品川８１３,,13,109,1400002,,,,,,,2021-08-13,1,,,,,ケアフリーライフ,0
937,4010803003855,新規,0,2021-08-13,2021-08-13,ｄｉｇ合同会社,,合同会社,東京都,大田区,蒲田２丁目８番３号,,13,111,1440052,,,,,,,2021-08-13,1,,,,,ディグ,0
941,4010901049255,新規,0,2021-08-13,2021-08-13,拉拉肥株式会社,,株式会社,東京都,世田谷区,世田谷１丁目４１番２号,,13,112,1540017,,,,,,,2021-08-13,1,,,,,ララフ,0
945,4010903006725,新規,0,2021-08-13,2021-08-13,合同会社エーレフト,,合同会社,東京都,世田谷区,三宿２丁目１６－１０－３１４,,13,112,1540005,,,,,,,2021-08-13,1,,,,,エーレフト,0
954,4011001142099,新規,0,2021-08-13,2021-08-13,株式会社中天,,株式会社,東京都,渋谷区,富ヶ谷１丁目１４番１４号４階,,13,113,1510063,,,,,,,2021-08-13,1,,,,,チュウテン,0
955,4011001142149,新規,0,2021-08-13,2021-08-13,ＣｒｏｓｓＢｏｒｄｅｒ株式会社,,株式会社,東京都,目黒区,碑文谷５丁目２番５号Ｔ＆Ａビル５階,,13,110,1520003,,,,,,,2021-08-13,1,,,,,クロスボーダー,0
956,4011001142231,新規,0,2021-08-13,2021-08-13,赫氏商事株式会社,,株式会社,東京都,目黒区,中目黒５丁目７－３３ハイツ伊東３０１,,13,110,1530061,,,,,,,2021-08-13,1,,,,,カクシショウジ,0
965,4011105009913,新規,0,2021-08-13,2021-08-13,一般社団法人日本福祉タッチケア協会,,その他の設立登記法人,東京都,新宿区,百人町２丁目８－２金子ビル２階,,13,104,1690073,,,,,,,2021-08-13,1,,,,,ニホンフクシタッチケアキョウカイ,0
969,4011203003611,新規,0,2021-08-13,2021-08-13,合同会社アムール,,合同会社,東京都,中野区,上高田１丁目２７－１６－２０５,,13,114,1640002,,,,,,,2021-08-13,1,,,,,アムール,0
972,4011401023592,新規,0,2021-08-13,2021-08-13,株式会社ＫＴ企画,,株式会社,東京都,板橋区,中台１丁目６番１号,,13,119,1740064,,,,,,,2021-08-13,1,,,,,ケイティキカク,0
986,4013301047861,新規,0,2021-08-13,2021-08-13,株式会社ＰＡＴＯ　ＳＴＵＤＩＯ,,株式会社,東京都,豊島区,巣鴨３丁目２５番２号Ａ．Ｙビル２０１,,13,116,1700002,,,,,,,2021-08-13,1,,,,,パトスタジオ,0
999,4020001142629,新規,0,2021-08-13,2021-08-13,株式会社立ジャパン,,株式会社,神奈川県,横浜市西区,花咲町６丁目１４３番地横浜ＭＩＤベースタワーレジデンス１２１２号,,14,103,2200022,,,,,,,2021-08-13,1,,,,,リツジャパン,0
1008,4021001073632,新規,0,2021-08-13,2021-08-13,株式会社辻堂デコレーション,,株式会社,神奈川県,藤沢市,辻堂元町４丁目７番３９号,,14,205,2510043,,,,,,,2021-08-13,1,,,,,ツジドウデコレーション,0
1016,4030001143816,新規,0,2021-08-13,2021-08-13,株式会社吉澤ペイント,,株式会社,埼玉県,新座市,野寺２丁目１２番１５号,,11,230,3520034,,,,,,,2021-08-13,1,,,,,ヨシザワペイント,0
1021,4040001119732,新規,0,2021-08-13,2021-08-13,株式会社ｆｕｒａｉｎ,,株式会社,千葉県,市川市,市川南３丁目８番１８号サニーコート市川第二２０１号,,12,203,2720033,,,,,,,2021-08-13,1,,,,,フレイン,0
1022,4040001119749,新規,0,2021-08-13,2021-08-13,ＡＭＩ株式会社,,株式会社,千葉県,柏市,十余二２４８番地３２８,,12,217,2770872,,,,,,,2021-08-13,1,,,,,アミ,0
1023,4040001119765,新規,0,2021-08-13,2021-08-13,株式会社ＫＮＧファーム,,株式会社,千葉県,茂原市,茂原６６１番地,,12,210,2970026,,,,,,,2021-08-13,1,,,,,ケイエヌジーファーム,0
1033,4070001038343,新規,0,2021-08-13,2021-08-13,エターナルプロジェクト株式会社,,株式会社,群馬県,館林市,新宿２丁目６番２号,,10,207,3740026,,,,,,,2021-08-13,1,,,,,エターナルプロジェクト,0
1036,4080003002627,新規,0,2021-08-13,2021-08-13,ジムコン合同会社,,合同会社,静岡県,静岡市清水区,八坂北１丁目１９番１５号,,22,103,4240023,,,,,,,2021-08-13,1,,,,,ジムコン,0
1039,4080401025270,新規,0,2021-08-13,2021-08-13,株式会社ＧＲＡＮＤＩＡ,,株式会社,静岡県,浜松市南区,飯田町８７１番地の３,,22,134,4350028,,,,,,,2021-08-13,1,,,,,グランディア,0
1042,4100003006204,新規,0,2021-08-13,2021-08-13,合同会社Ｉｋｏｉ,,合同会社,長野県,北佐久郡軽井沢町,大字長倉８１７－１イングルヌック２０２号室,,20,321,3890111,,,,,,,2021-08-13,1,,,,,イコイ,0
1043,4110001035971,新規,0,2021-08-13,2021-08-13,株式会社ＫＭＥアセットマネジメント,,株式会社,新潟県,新潟市中央区,天神１丁目１番地,,15,103,9500917,,,,,,,2021-08-13,1,,,,,ケーエムイーアセットマネジメント,0
1044,4110003004553,新規,0,2021-08-13,2021-08-13,Ｔａｋｕｍｉ商事合同会社,,合同会社,新潟県,小千谷市,大字川井４３４０－１,,15,208,9498722,,,,,,,2021-08-13,1,,,,,タクミショウジ,0
1057,4120001239654,新規,0,2021-08-13,2021-08-13,株式会社ＶＩＢＲＡＴＯ,,株式会社,大阪府,大阪市中央区,北久宝寺町１丁目５番６－９０２号,,27,128,5410057,,,,,,,2021-08-13,1,,,,,ビブラート,0
1058,4120001239720,新規,0,2021-08-13,2021-08-13,Ｂｌｕｅ　Ａｐｐｌｅ　Ｃｏｍｐａｎｙ株式会社,,株式会社,大阪府,大阪市中央区,島之内１丁目２１番３０号アスティオンカズ,,27,128,5420082,,,,,,,2021-08-13,1,,,,,ブルーアップルカンパニー,0
1059,4120001239729,新規,0,2021-08-13,2021-08-13,株式会社希心,,株式会社,大阪府,大阪市都島区,片町１丁目２番９号６０１,,27,102,5340025,,,,,,,2021-08-13,1,,,,,キコ,0
1060,4120001239737,新規,0,2021-08-13,2021-08-13,株式会社Ｒａｄｉｘ,,株式会社,大阪府,大阪市北区,鶴野町１－３安田ビル３０１,,27,127,5300014,,,,,,,2021-08-13,1,,,,,ラディックス,0
1061,4120001239745,新規,0,2021-08-13,2021-08-13,株式会社トークイズム,,株式会社,大阪府,大阪市中央区,本町橋６番１９号本町第２今岡ビル６０５号,,27,128,5400029,,,,,,,2021-08-13,1,,,,,トークイズム,0
1064,4120003020013,新規,0,2021-08-13,2021-08-13,合同会社ポム,,合同会社,大阪府,大阪市中央区,西心斎橋２丁目４番１４号３Ｆ,,27,128,5420086,,,,,,,2021-08-13,1,,,,,ポム,0
1065,4120003020021,新規,0,2021-08-13,2021-08-13,Ｄａｒｕｍａ　Ｇｒｏｕｐ合同会社,,合同会社,大阪府,枚方市,桜町１１番４８－１３号,,27,210,5730056,,,,,,,2021-08-13,1,,,,,ダルマグループ,0
1067,4120101064151,新規,0,2021-08-13,2021-08-13,株式会社杏駿,,株式会社,大阪府,貝塚市,堤７番地１０,,27,208,5970054,,,,,,,2021-08-13,1,,,,,キョウシュン,0
1069,4120901044765,新規,0,2021-08-13,2021-08-13,株式会社Ｒｅ　ｍａｋｅ,,株式会社,大阪府,茨木市,東太田２丁目２番１６号の１１,,27,211,5670012,,,,,,,2021-08-13,1,,,,,リメイク,0
1082,4140001122651,新規,0,2021-08-13,2021-08-13,Ｈ＆Ｙ株式会社,,株式会社,兵庫県,西宮市,川西町６番１３号,,28,204,6620951,,,,,,,2021-08-13,1,,,,,エイチアンドワイ,0
1083,4140001122684,新規,0,2021-08-13,2021-08-13,株式会社Ｃｈａｉｎ　Ｃｏｌｏｒｓ,,株式会社,兵庫県,姫路市,飾磨区恵美酒２２２番地１メゾン前田４０２号,,28,201,6728057,,,,,,,2021-08-13,1,,,,,チェインカラーズ,0
1085,4140003016629,新規,0,2021-08-13,2021-08-13,三祥ソーラー合同会社,,合同会社,兵庫県,神戸市中央区,中山手通３丁目４番８号,,28,110,6500004,,,,,,,2021-08-13,1,,,,,サンショウソーラー,0
1086,4140005025784,新規,0,2021-08-13,2021-08-13,西宮市枝川町戸建Ｂ地区団地管理組合法人,,その他の設立登記法人,兵庫県,西宮市,枝川町１６番５１号,,28,204,6638143,,,,,,,2021-08-13,1,,,,,ニシノミヤシエダガワチョウコダテビーチクダンチ,0
1088,4150003002454,新規,0,2021-08-13,2021-08-13,リコス合同会社,,合同会社,奈良県,大和郡山市,北郡山町１０９－５レストパレス１Ｆ,,29,203,6391160,,,,,,,2021-08-13,1,,,,,リコス,0
1090,4170001016719,新規,0,2021-08-13,2021-08-13,株式会社Ｄ－Ａ－Ｉトランス,,株式会社,和歌山県,紀の川市,粉河５１１番地６,,30,208,6496531,,,,,,,2021-08-13,1,,,,,ディーエーアイトランス,0
1103,4180001147414,新規,0,2021-08-13,2021-08-13,株式会社ＢＰＪＳ,,株式会社,愛知県,名古屋市中川区,中京南通２丁目８番地の１,,23,110,4540816,,,,,,,2021-08-13,1,,,,,ビーピージェイエス,0
1104,4180001147430,新規,0,2021-08-13,2021-08-13,株式会社サクラ鈑金自動車,,株式会社,愛知県,春日井市,細木町１丁目１６番地４,,23,206,4860937,,,,,,,2021-08-13,1,,,,,サクラバンキンジドウシャ,0
1109,4180003022854,新規,0,2021-08-13,2021-08-13,合同会社Ｋ＆Ｓ,,合同会社,愛知県,弥富市,鯏浦町中六１９９番地,,23,235,4980028,,,,,,,2021-08-13,1,,,,,ケーアンドエス,0
1114,4180301035269,新規,0,2021-08-13,2021-08-13,株式会社ＲＩＮＴＯ,,株式会社,愛知県,豊川市,南大通６丁目２２番地,,23,207,4420889,,,,,,,2021-08-13,1,,,,,リント,0
1117,4180305009228,新規,0,2021-08-13,2021-08-13,一般社団法人外国人受入協会,,その他の設立登記法人,愛知県,蒲郡市,三谷北通２丁目８２番地１,,23,214,4430022,,,,,,,2021-08-13,1,,,,,,0
1130,4260001035866,新規,0,2021-08-13,2021-08-13,株式会社ｍａｇｏｃｏｒｏ,,株式会社,岡山県,苫田郡鏡野町,香々美８１３番地５,,33,606,7080312,,,,,,,2021-08-13,1,,,,,マゴコロ,0
1131,4260001035874,新規,0,2021-08-13,2021-08-13,株式会社オフショア,,株式会社,岡山県,玉野市,築港３丁目１０‐３２‐６０２,,33,204,7060002,,,,,,,2021-08-13,1,,,,,オフショア,0
1139,4290001094174,新規,0,2021-08-13,2021-08-13,ＪＳ株式会社,,株式会社,福岡県,大牟田市,山上町３番地エスポワール山上弐番館９０３,,40,202,8360833,,,,,,,2021-08-13,1,,,,,ジェイエス,0
1140,4290001094208,新規,0,2021-08-13,2021-08-13,内山空調株式会社,,株式会社,福岡県,飯塚市,大分５２７番地１５,,40,205,8200712,,,,,,,2021-08-13,1,,,,,ウチヤマクウチョウ,0
1141,4290001094216,新規,0,2021-08-13,2021-08-13,新良株式会社,,株式会社,福岡県,福岡市博多区,麦野４丁目１５番３２－１０１号,,40,132,8120882,,,,,,,2021-08-13,1,,,,,シンラ,0
1144,4290801027696,新規,0,2021-08-13,2021-08-13,株式会社Ｌｏｔｕｓ,,株式会社,福岡県,北九州市戸畑区,牧山２丁目８番２号,,40,105,8040053,,,,,,,2021-08-13,1,,,,,ロータス,0
1145,4290801027705,新規,0,2021-08-13,2021-08-13,株式会社アセットハウス,,株式会社,福岡県,北九州市八幡西区,岡田町１１番２９－１３０１号,,40,109,8060033,,,,,,,2021-08-13,1,,,,,アセットハウス,0
1147,4290803003902,新規,0,2021-08-13,2021-08-13,合同会社ＴＫＲ,,合同会社,福岡県,北九州市八幡西区,黒崎１丁目９番８号キングビル２階,,40,109,8060021,,,,,,,2021-08-13,1,,,,,ティーケーアール,0
1166,4360001029230,新規,0,2021-08-13,2021-08-13,株式会社琉球管材,,株式会社,沖縄県,浦添市,仲間３丁目１９番１４号,,47,208,9012103,,,,,,,2021-08-13,1,,,,,リュウキュウカンザイ,0
1171,4370001047487,新規,0,2021-08-13,2021-08-13,才華建設株式会社,,株式会社,宮城県,亘理郡亘理町,逢隈中泉字一里原４１番地４,00123923,04,361,9892301,,,,,,,2021-08-13,1,,,,,サイカケンセツ,0
1180,4430001084697,新規,0,2021-08-13,2021-08-13,株式会社ＫＯＵＫＥＮ,,株式会社,北海道,札幌市手稲区,手稲前田５４３番地２０,,01,109,0060829,,,,,,,2021-08-13,1,,,,,コウケン,0
1181,4430001084706,新規,0,2021-08-13,2021-08-13,ライフトランスポート株式会社,,株式会社,北海道,札幌市白石区,北郷一条４丁目５番２４－２３４号,,01,104,0030831,,,,,,,2021-08-13,1,,,,,ライフトランスポート,0
1182,4430001084714,新規,0,2021-08-13,2021-08-13,株式会社北進,,株式会社,北海道,札幌市北区,北二十三条西３丁目２番２０－３０１号,,01,102,0010023,,,,,,,2021-08-13,1,,,,,ホクシン,0
1183,4430001084730,新規,0,2021-08-13,2021-08-13,株式会社ライズレッカー,,株式会社,北海道,札幌市北区,篠路町上篠路２７１番地,,01,102,0028052,,,,,,,2021-08-13,1,,,,,ライズレッカー,0
1184,4430003013002,新規,0,2021-08-13,2021-08-13,合同会社ハブレス,,合同会社,北海道,札幌市中央区,円山西町５丁目７番２号,,01,101,0640944,,,,,,,2021-08-13,1,,,,,ハブレス,0
1185,4430003013027,新規,0,2021-08-13,2021-08-13,合同会社Ｂｅｓｔ　Ｌｉｆｅ　Ｐａｒｔｎｅｒ,,合同会社,北海道,札幌市北区,新琴似八条１３丁目３番１４号,,01,102,0010908,,,,,,,2021-08-13,1,,,,,ベストライフパートナー,0
1195,4490001009962,新規,0,2021-08-13,2021-08-13,株式会社上村建築工業,,株式会社,高知県,香美市,土佐山田町宮ノ口６９７番地２,,39,212,7820003,,,,,,,2021-08-13,1,,,,,カミムラケンチクコウギョウ,0
1199,4700150104352,新規,0,2021-08-13,2021-08-13,Ａ．　Ｌｏａｃｋｅｒ　Ｓｐａ／ＡＧ,,外国会社等,東京都,世田谷区,三軒茶屋１丁目１０－５メゾン・グレースＦ棟,,13,112,1540024,ｖｉａ　Ｇａｓｔｅｒｓ　３，３９０５４　Ａｕｎａ　ｄｉ　Ｓｏｔｔｏ，Ｉｔａｌｙ,,,,,,2021-08-13,1,,,,,アーロアカーエツセピーアーアーゲー,0
1200,4700150104385,新規,0,2021-08-13,2021-08-13,ＨＳ　ＨＡＲＤＷＡＲＥ,,外国会社等,千葉県,東金市,西中８０番地７オフィスＣ号,,12,213,2830045,スリランカ民主社会主義共和国、ペリヤニーラバナイ０１、メインストリート,,,,,,2021-08-13,1,,,,,エイチエスハードウエア,0
1210,5010001220418,新規,0,2021-08-13,2021-08-13,株式会社Ｇａｔｔｏ＆Ｃａｎｅ,,株式会社,東京都,中央区,銀座１丁目２２番１１号,,13,102,1040061,,,,,,,2021-08-13,1,,,,,ガットアンドカーネ,0
1214,5010005033790,新規,0,2021-08-13,2021-08-13,一般社団法人エヌファイブ,,その他の設立登記法人,東京都,千代田区,九段北１丁目５番９号九段誠和ビル５階,,13,101,1020073,,,,,,,2021-08-13,1,,,,,エヌファイブ,0
1225,5010401162111,新規,0,2021-08-13,2021-08-13,株式会社ＭＥＤＥＶＩＣＥ,,株式会社,東京都,港区,芝大門１丁目３番５号ＶＯＲＴ芝大門ⅠⅠ－３Ｆ,00123934,13,103,1050012,,,,,,,2021-08-13,1,,,,,メディヴァイス,0
1228,5010405020091,新規,0,2021-08-13,2021-08-13,一般社団法人日本カンナビジオール普及機構,,その他の設立登記法人,東京都,港区,南麻布５丁目１５番２号スカーラ広尾ステーションプラザ２０５号,,13,103,1060047,,,,,,,2021-08-13,1,,,,,ニホンカンナビジオールフキュウキコウ,0
1234,5010701041378,新規,0,2021-08-13,2021-08-13,株式会社ＨａｌｆＷａｙ,,株式会社,東京都,品川区,南品川４丁目２番８号ホワイトコーポ第１・２０２,,13,109,1400004,,,,,,,2021-08-13,1,,,,,ハーフウェイ,0
1235,5010703005892,新規,0,2021-08-13,2021-08-13,合同会社となりアート,,合同会社,東京都,品川区,西五反田８丁目２番１２号７Ａ,,13,109,1410031,,,,,,,2021-08-13,1,,,,,トナリアート,0
1236,5010703005901,新規,0,2021-08-13,2021-08-13,ウーマンエイドサービス合同会社,,合同会社,東京都,品川区,大井３丁目１０番２号,,13,109,1400014,,,,,,,2021-08-13,1,,,,,ウーマンエイドサービス,0
1237,5010705003250,新規,0,2021-08-13,2021-08-13,多田国際社会保険労務士法人,,その他の設立登記法人,東京都,品川区,大崎１丁目６番１号,,13,109,1410032,,,,,,,2021-08-13,1,,,,,タダコクサイ,0
1240,5010801032236,新規,0,2021-08-13,2021-08-13,株式会社ミツケル,,株式会社,東京都,大田区,多摩川２丁目１３番４号ＬＵＡＮＡ２０１,,13,111,1460095,,,,,,,2021-08-13,1,,,,,,0
1255,5011001142156,新規,0,2021-08-13,2021-08-13,株式会社ＩＶＯＲＹ,,株式会社,東京都,渋谷区,千駄ヶ谷４丁目９番３－１１１号シティハウス神宮北参道,,13,113,1510051,,,,,,,2021-08-13,1,,,,,アイボリー,0
1256,5011001142197,新規,0,2021-08-13,2021-08-13,株式会社つかさ,,株式会社,東京都,目黒区,下目黒２丁目１番２２－２０５号ハイホーム目黒,,13,110,1530064,,,,,,,2021-08-13,1,,,,,ツカサ,0
1257,5011001142239,新規,0,2021-08-13,2021-08-13,株式会社ＰＨＥＮＯＭ,,株式会社,東京都,目黒区,東山１丁目５番１１号,,13,110,1530043,,,,,,,2021-08-13,1,,,,,フェノム,0
1258,5011001142288,新規,0,2021-08-13,2021-08-13,株式会社プレイス,,株式会社,東京都,渋谷区,桜丘町２３番１７号シティコート桜丘４０８,,13,113,1500031,,,,,,,2021-08-13,1,,,,,プレイス,0
1274,5012303001578,新規,0,2021-08-13,2021-08-13,合同会社Ｃ’ｓ　Ｈｏｕｓｅ,,合同会社,東京都,町田市,中町１丁目４番２号,,13,209,1940021,,,,,,,2021-08-13,1,,,,,シーズハウス,0
1281,5012701016616,新規,0,2021-08-13,2021-08-13,株式会社ＣＯＮＴＡＣＴ・ＷＯＲＫＳＨＯＰ,,株式会社,東京都,東村山市,栄町１丁目１番地１８ラポール久米川ビル２０１,,13,213,1890013,,,,,,,2021-08-13,1,,,,,コンタクトワークショップ,0
1289,5013301047860,新規,0,2021-08-13,2021-08-13,株式会社ＬＵＫＡ　ＮＯＳＥ,,株式会社,東京都,豊島区,池袋４丁目２６－９亀山ビル１０１号室,,13,116,1710014,,,,,,,2021-08-13,1,,,,,ルカノーズ,0
1300,5020001142594,新規,0,2021-08-13,2021-08-13,株式会社博雅国際,,株式会社,神奈川県,川崎市川崎区,大師駅前２丁目１番１－１３０１号シティテラス川崎鈴木町グランドシーズンズ,,14,131,2100802,,,,,,,2021-08-13,1,,,,,ボーヤコクサイ,0
1301,5020001142628,新規,0,2021-08-13,2021-08-13,都筑テック株式会社,,株式会社,神奈川県,横浜市都筑区,大熊町６７番地３２,,14,118,2240042,,,,,,,2021-08-13,1,,,,,ツヅキテック,0
1318,5030001143765,新規,0,2021-08-13,2021-08-13,株式会社Ｔｕｒｏｎ　Ｊａｐａｎ,,株式会社,埼玉県,富士見市,ふじみ野西２丁目１－１アイムふじみ野南３番館５０１,,11,235,3540035,,,,,,,2021-08-13,1,,,,,トゥーロンジャパン,0
1319,5030001143815,新規,0,2021-08-13,2021-08-13,Ｚ＆Ｊ株式会社,,株式会社,埼玉県,川口市,西川口３丁目１５－２４ルシエールⅡ３０１号室,00123933,11,203,3320021,,,,,,,2021-08-13,1,,,,,,0
1320,5030001143823,新規,0,2021-08-13,2021-08-13,株式会社アニマ,,株式会社,埼玉県,八潮市,大瀬１丁目１０番地２,,11,234,3400822,,,,,,,2021-08-13,1,,,,,アニマ,0
1329,5040001119748,新規,0,2021-08-13,2021-08-13,株式会社ＣＡＬＭＯ,,株式会社,千葉県,市原市,草刈２０９番地７０,,12,219,2900001,,,,,,,2021-08-13,1,,,,,カルモ,0
1330,5040001119764,新規,0,2021-08-13,2021-08-13,株式会社林興業,,株式会社,千葉県,銚子市,親田町２８５８番地の２９,,12,202,2880823,,,,,,,2021-08-13,1,,,,,ハヤシコウギョウ,0
1331,5040001119772,新規,0,2021-08-13,2021-08-13,千葉日光貿易サービス株式会社,,株式会社,千葉県,匝瑳市,平木３２３０番地,,12,235,2892113,,,,,,,2021-08-13,1,,,,,チバニッコウボウエキサービス,0
1332,5040001119789,新規,0,2021-08-13,2021-08-13,Ｈ２Ｓｏｌｕｔｉｏｎｓ株式会社,,株式会社,千葉県,千葉市美浜区,中瀬１丁目３番地幕張テクノガーデンＣＢ棟３階ＭＢＰ,,12,106,2610023,,,,,,,2021-08-13,1,,,,,エイチツーソリューションズ,0
1333,5040001119797,新規,0,2021-08-13,2021-08-13,宇翔株式会社,,株式会社,千葉県,船橋市,印内２丁目１２－８トモヨシフラット１階Ａ－２号室,,12,204,2730039,,,,,,,2021-08-13,1,,,,,ウショウ,0
1335,5040003018312,新規,0,2021-08-13,2021-08-13,ＯＴＵＮＮＡ合同会社,,合同会社,千葉県,佐倉市,臼井田２３０２番地８,,12,212,2850861,,,,,,,2021-08-13,1,,,,,オトゥンナ,0
1347,5080001024382,新規,0,2021-08-13,2021-08-13,ネクサス株式会社,,株式会社,静岡県,焼津市,小柳津２８０番地,,22,212,4250073,,,,,,,2021-08-13,1,,,,,ネクサス,0
1355,5080403004346,新規,0,2021-08-13,2021-08-13,合同会社煌華,,合同会社,静岡県,袋井市,久能１９５７番地の１,,22,216,4370061,,,,,,,2021-08-13,1,,,,,コウカ,0
1356,5100001034528,新規,0,2021-08-13,2021-08-13,株式会社Ｍｏｔｉｏｎ　Ｐｌａｎ,,株式会社,長野県,東御市,本海野１０１２番地,,20,219,3890518,,,,,,,2021-08-13,1,,,,,モーションプラン,0
1360,5110005016694,新規,0,2021-08-13,2021-08-13,特定非営利活動法人プエルタ・ハル,,その他の設立登記法人,新潟県,新潟市江南区,丸山ノ内善之丞組３３９番地,,15,104,9500000,,,,,,,2021-08-13,1,,,,,プエルタハル,0
1369,5120001239604,新規,0,2021-08-13,2021-08-13,株式会社Ｃｏｃｏｔｔｏ,,株式会社,大阪府,大阪市中央区,難波４丁目１番１５号近鉄難波ビル,,27,128,5420076,,,,,,,2021-08-13,1,,,,,ココット,0
1370,5120001239694,新規,0,2021-08-13,2021-08-13,株式会社Ｐｌａｌａ,,株式会社,大阪府,大阪市北区,天満橋２丁目４番１３号,,27,127,5300042,,,,,,,2021-08-13,1,,,,,プララ,0
1371,5120001239703,新規,0,2021-08-13,2021-08-13,池宗株式会社,,株式会社,大阪府,大阪市港区,市岡元町２丁目６番１１号－２０３,,27,107,5520002,,,,,,,2021-08-13,1,,,,,イケシュウ,0
1372,5120001239711,新規,0,2021-08-13,2021-08-13,株式会社伊藤商会,,株式会社,大阪府,大阪市中央区,瓦町１丁目６番１－３０３号,,27,128,5410048,,,,,,,2021-08-13,1,,,,,イトウショウカイ,0
1373,5120001239728,新規,0,2021-08-13,2021-08-13,株式会社Ｕｎｉｓｐｒｏｕｔｓ,,株式会社,大阪府,寝屋川市,若葉町１７番２７号,,27,215,5720031,,,,,,,2021-08-13,1,,,,,ユニスプラウツ,0
1374,5120001239736,新規,0,2021-08-13,2021-08-13,株式会社弘和,,株式会社,大阪府,大阪市此花区,酉島１丁目１４番１４号,,27,104,5540051,,,,,,,2021-08-13,1,,,,,コウワ,0
1375,5120001239744,新規,0,2021-08-13,2021-08-13,株式会社Ｍｏｏｎｓｈｉｎｅ,,株式会社,大阪府,大阪市北区,西天満５丁目１１－９マルビシマンション西天満３０８,,27,127,5300047,,,,,,,2021-08-13,1,,,,,ムーンシャイン,0
1399,5170001016718,新規,0,2021-08-13,2021-08-13,株式会社ＡＲシステム,,株式会社,和歌山県,紀の川市,南中３０２番地,,30,208,6496431,,,,,,,2021-08-13,1,,,,,エイアールシステム,0
1411,5180001147421,新規,0,2021-08-13,2021-08-13,流和株式会社,,株式会社,愛知県,東海市,荒尾町金山２７８番地,,23,222,4760003,,,,,,,2021-08-13,1,,,,,リュウワ,0
1412,5180001147446,新規,0,2021-08-13,2021-08-13,株式会社Ａ２,,株式会社,愛知県,名古屋市中区,栄３丁目３５番２２号ゴードン栄ビル５階,,23,106,4600008,,,,,,,2021-08-13,1,,,,,エーツー,0
1419,5180003022853,新規,0,2021-08-13,2021-08-13,合同会社いずみパートナーズ,,合同会社,愛知県,名古屋市東区,泉１丁目１０番２３号,,23,102,4610001,,,,,,,2021-08-13,1,,,,,イズミパートナーズ,0
1424,5200001039013,新規,0,2021-08-13,2021-08-13,株式会社ＲＩＮＯＣＯＣＯ,,株式会社,岐阜県,不破郡垂井町,２１００番地の２２,,21,361,5032121,,,,,,,2021-08-13,1,,,,,リノココ,0
1436,5240001058414,新規,0,2021-08-13,2021-08-13,株式会社ＫＰＢ,,株式会社,広島県,広島市中区,東白島町１９番６２－１２０１号,,34,101,7300004,,,,,,,2021-08-13,1,,,,,ケーピービー,0
1437,5240001058447,新規,0,2021-08-13,2021-08-13,ＨＥＡＬＴＨＦＵＬ　ＣＯＤＥ株式会社,,株式会社,広島県,広島市南区,猿猴橋町６番３４－１号,,34,103,7320823,,,,,,,2021-08-13,1,,,,,ヘルスフルコード,0
1446,5290001094165,新規,0,2021-08-13,2021-08-13,あしたも株式会社,,株式会社,福岡県,福岡市博多区,博多駅東２丁目１３番３４号エコービル１０階,,40,132,8120013,,,,,,,2021-08-13,1,,,,,アシタモ,0
1447,5290001094215,新規,0,2021-08-13,2021-08-13,株式会社フリーデザイン,,株式会社,福岡県,那珂川市,中原２丁目１２０博多南駅前ビル３Ｆ,,40,231,8111213,,,,,,,2021-08-13,1,,,,,フリーデザイン,0
1453,5290803003901,新規,0,2021-08-13,2021-08-13,合同会社ひまわり,,合同会社,福岡県,北九州市門司区,吉志２丁目１８番４３号,,40,101,8000114,,,,,,,2021-08-13,1,,,,,ヒマワリ,0
1492,5400001015563,新規,0,2021-08-13,2021-08-13,あーす・サポート株式会社,,株式会社,岩手県,奥州市,江刺広瀬字上西風１２３番地１,,03,215,0231133,,,,,,,2021-08-13,1,,,,,アースサポート,0
1500,5430001084713,新規,0,2021-08-13,2021-08-13,株式会社ＬＯＯＰＯＲＴ,,株式会社,北海道,札幌市南区,真駒内上町１丁目１番１６－２０９号,,01,106,0050012,,,,,,,2021-08-13,1,,,,,ルーポート,0
1501,5430001084738,新規,0,2021-08-13,2021-08-13,株式会社みんなの四つ葉,,株式会社,北海道,札幌市中央区,南七条西６丁目５番地,,01,101,0640807,,,,,,,2021-08-13,1,,,,,ミンナノヨツバ,0
1502,5430001084746,新規,0,2021-08-13,2021-08-13,株式会社ジェイコミュニティ,,株式会社,北海道,札幌市北区,北二十四条西４丁目１番２号,,01,102,0010024,,,,,,,2021-08-13,1,,,,,ジェイコミュニティ,0
1503,5430003013026,新規,0,2021-08-13,2021-08-13,合同会社Ｌ’ｓ,,合同会社,北海道,札幌市中央区,北十条西１５丁目１番地５７ブランズ札幌桑園駅前ウエスト１２０３号,,01,101,0600010,,,,,,,2021-08-13,1,,,,,エルズ,0
1504,5430003013059,新規,0,2021-08-13,2021-08-13,合同会社エピナ,,合同会社,北海道,札幌市清田区,平岡二条２丁目１番５３号,,01,110,0040872,,,,,,,2021-08-13,1,,,,,エピナ,0
1507,5462501000907,新規,0,2021-08-13,2021-08-13,株式会社鶴亀屋,,株式会社,北海道,標津郡標津町,北六条西２丁目４番１号,,01,693,0861636,,,,,,,2021-08-13,1,,,,,ツルカメヤ,0
1517,5700150104161,新規,0,2021-08-13,2021-07-26,ＮＡＲＵＴＯスポーツコミッション,,その他,徳島県,鳴門市,撫養町南浜字東浜１７０,,36,202,7720003,,,,,,,2021-07-26,1,,,,,ナルトスポーツコミツシヨン,0
1527,6010001220367,新規,0,2021-08-13,2021-08-13,株式会社アルストロメリア,,株式会社,東京都,中央区,銀座１丁目２７番１２号,,13,102,1040061,,,,,,,2021-08-13,1,,,,,アルストロメリア,0
1529,6010003035598,新規,0,2021-08-13,2021-08-13,サステナブルローンファンド２号合同会社,,合同会社,東京都,中央区,八丁堀４丁目２番１０号ＡＯＪ税理士法人内,,13,102,1040032,,,,,,,2021-08-13,1,,,,,サステナブルローンファンドニゴウ,0
1539,6010401162102,新規,0,2021-08-13,2021-08-13,株式会社ＥＭＰＯＷＥＲ　ＷＯＭＡＮ,,株式会社,東京都,港区,海岸２丁目３番５－４０４号,,13,103,1050022,,,,,,,2021-08-13,1,,,,,エンパワーウーマン,0
1542,6010501047665,新規,0,2021-08-13,2021-08-13,株式会社Ｎｏ　Ｃｏｄｅ,,株式会社,東京都,台東区,松が谷３丁目１７番５－６０３号シルクハットハイツ,,13,106,1110036,,,,,,,2021-08-13,1,,,,,ノーコード,0
1543,6010505003251,新規,0,2021-08-13,2021-08-13,ヴィラ原山管理組合法人,,その他の設立登記法人,東京都,台東区,東上野３丁目１４番３号４階,,13,106,1100015,,,,,,,2021-08-13,1,,,,,ヴィラハラヤマ,0
1545,6010701041377,新規,0,2021-08-13,2021-08-13,フレックスパワー株式会社,,株式会社,東京都,品川区,戸越５丁目７番１７号,,13,109,1420041,,,,,,,2021-08-13,1,,,,,フレックスパワー,0
1546,6010703005883,新規,0,2021-08-13,2021-08-13,合同会社ＣＲＥＡスポーツクラブ,,合同会社,東京都,品川区,二葉１丁目１０番１３号アクサス大井町１０２,,13,109,1420043,,,,,,,2021-08-13,1,,,,,クレアスポーツクラブ,0
1547,6010703005900,新規,0,2021-08-13,2021-08-13,合同会社Ｌ＆Ｍ,,合同会社,東京都,品川区,東五反田２丁目２１番１１号,,13,109,1410022,,,,,,,2021-08-13,1,,,,,エルアンドエム,0
1548,6010705003258,新規,0,2021-08-13,2021-08-13,一般社団法人日本みらい企業機構,,その他の設立登記法人,東京都,品川区,西五反田１丁目１７番１号,,13,109,1410031,,,,,,,2021-08-13,1,,,,,ニホンミライキギョウキコウ,0
1550,6010803003829,新規,0,2021-08-13,2021-08-13,合同会社サンファミリー,,合同会社,東京都,大田区,北糀谷２丁目１１番８号サンファミリー大塚３０２,,13,111,1440032,,,,,,,2021-08-13,1,,,,,サンファミリー,0
1555,6010901049253,新規,0,2021-08-13,2021-08-13,株式会社ＣＲＡＦＴマーケティング,,株式会社,東京都,世田谷区,桜３丁目９番２４号２０５,,13,112,1560053,,,,,,,2021-08-13,1,,,,,クラフトマーケティング,0
1556,6010901049261,新規,0,2021-08-13,2021-08-13,株式会社Ｓｅｑｕｅｌ,,株式会社,東京都,世田谷区,三軒茶屋２丁目４０番１７号,,13,112,1540024,,,,,,,2021-08-13,1,,,,,シークェル,0
1559,6010903006723,新規,0,2021-08-13,2021-08-13,Ｉｌｌｕｍｉｏ　Ｊａｐａｎ合同会社,,合同会社,東京都,世田谷区,松原２丁目４１番１１号明治安田生命明大前ビル４階,,13,112,1560043,,,,,,,2021-08-13,1,,,,,イルミオジャパン,0
1573,6011003013197,新規,0,2021-08-13,2021-08-13,合同会社ＶＩＮＥ,,合同会社,東京都,渋谷区,恵比寿西１丁目３３番６号,,13,113,1500021,,,,,,,2021-08-13,1,,,,,バイン,0
1574,6011003013214,新規,0,2021-08-13,2021-08-13,合同会社ＰＲＯＳＰＥＲＯＵＳ,,合同会社,東京都,渋谷区,神宮前１丁目１４番１４号,,13,113,1500001,,,,,,,2021-08-13,1,,,,,プロスペラス,0
1581,6011201023163,新規,0,2021-08-13,2021-08-13,株式会社ＴＩＭ,,株式会社,東京都,中野区,東中野１丁目３５番４号サンシャイン東中野１０２,,13,114,1640003,,,,,,,2021-08-13,1,,,,,ティーアイエム,0
1583,6011303004128,新規,0,2021-08-13,2021-08-13,空牙合同会社,,合同会社,東京都,杉並区,高井戸東３丁目２８番１８号グランピラー高井戸１１０２,,13,115,1680072,,,,,,,2021-08-13,1,,,,,クーガ,0
1585,6011501027211,新規,0,2021-08-13,2021-08-13,株式会社ＧＯＲＡＫＵ　ＷＯＲＬＤ,,株式会社,東京都,北区,昭和町２丁目１番２８号,,13,117,1140011,,,,,,,2021-08-13,1,,,,,ゴラクワールド,0
1590,6011801039575,新規,0,2021-08-13,2021-08-13,ｌｅｅｒａ株式会社,,株式会社,東京都,葛飾区,四つ木２丁目４番１６号ベルハイツ２０２,,13,122,1240011,,,,,,,2021-08-13,1,,,,,リーラ,0
1591,6011803004742,新規,0,2021-08-13,2021-08-13,合同会社ＳＵＮＮＹ,,合同会社,東京都,足立区,千住緑町１丁目１８番１４号,,13,121,1200044,,,,,,,2021-08-13,1,,,,,サニー,0
1594,6012303001577,新規,0,2021-08-13,2021-08-13,ＴＡＫＥ－Ｂｅ合同会社,,合同会社,東京都,町田市,金森東３丁目４番６号,,13,209,1940015,,,,,,,2021-08-13,1,,,,,テイクビー,0
1601,6013303005782,新規,0,2021-08-13,2021-08-13,合同会社ＳＴＡＲＳ,,合同会社,東京都,豊島区,池袋２丁目１１－２アルコイルスＫビル４Ｆ,,13,116,1710014,,,,,,,2021-08-13,1,,,,,スターズ,0
1613,6020003020319,新規,0,2021-08-13,2021-08-13,合同会社マーサ・アメニティ,,合同会社,神奈川県,横浜市旭区,川島町１９７７－２５,,14,112,2410011,,,,,,,2021-08-13,1,,,,,マーサアメニティ,0
1626,6030001143789,新規,0,2021-08-13,2021-08-13,東昇株式会社,,株式会社,埼玉県,草加市,氷川町２１１７－６,,11,221,3400034,,,,,,,2021-08-13,1,,,,,トウショウ,0
1627,6030001143806,新規,0,2021-08-13,2021-08-13,株式会社ＦＬＯＷＥＲ,,株式会社,埼玉県,川口市,戸塚東１丁目１４－２１スカイハイツ１０１号室,,11,203,3330802,,,,,,,2021-08-13,1,,,,,フラワー,0
1628,6030001143822,新規,0,2021-08-13,2021-08-13,株式会社リバーリンクス,,株式会社,埼玉県,戸田市,本町１丁目５番２－５０２号,,11,224,3350023,,,,,,,2021-08-13,1,,,,,リバーリンクス,0
1629,6030001143847,新規,0,2021-08-13,2021-08-13,株式会社ミラスト,,株式会社,埼玉県,さいたま市大宮区,東町１丁目１２０番地２,,11,103,3300841,,,,,,,2021-08-13,1,,,,,ミラスト,0
1631,6030003017768,新規,0,2021-08-13,2021-08-13,合同会社新堂工務店,,合同会社,埼玉県,川口市,前川３丁目１８番９号,,11,203,3330842,,,,,,,2021-08-13,1,,,,,シンドウコウムテン,0
1638,6040001119755,新規,0,2021-08-13,2021-08-13,株式会社めるかとファーム,,株式会社,千葉県,富里市,十倉５８７番地３０,,12,233,2860212,,,,,,,2021-08-13,1,,,,,メルカトファーム,0
1639,6040001119805,新規,0,2021-08-13,2021-08-13,銘勝貿易株式会社,,株式会社,千葉県,野田市,岩名１丁目３６番地の１９,,12,208,2780055,,,,,,,2021-08-13,1,,,,,メイショウボウエキ,0
1642,6040003018328,新規,0,2021-08-13,2021-08-13,合同会社浩美ＩＴＮ,,合同会社,千葉県,船橋市,高根台７丁目９－２３,,12,204,2740065,,,,,,,2021-08-13,1,,,,,ヒロミアイティーエヌ,0
1643,6040003018336,新規,0,2021-08-13,2021-08-13,ＳＫＴ企画合同会社,,合同会社,千葉県,柏市,末広町４番５号,,12,217,2770842,,,,,,,2021-08-13,1,,,,,エスケイティーキカク,0
1644,6040005021313,新規,0,2021-08-13,2021-08-13,特定非営利活動法人Ｃ’ｓコミュニティ,,その他の設立登記法人,千葉県,佐倉市,上志津１６６７番地１８小柳ビル１階１,,12,212,2850846,,,,,,,2021-08-13,1,,,,,シーズコミュニティ,0
1659,6080001024381,新規,0,2021-08-13,2021-08-13,株式会社ジェイエス,,株式会社,静岡県,静岡市清水区,恵比寿町３７番地,,22,103,4240054,,,,,,,2021-08-13,1,,,,,ジェイエス,0
1665,6080401025269,新規,0,2021-08-13,2021-08-13,井の国建設株式会社,,株式会社,静岡県,浜松市北区,引佐町伊平１４０４番地,,22,135,4312205,,,,,,,2021-08-13,1,,,,,イノクニケンセツ,0
1679,6120001239719,新規,0,2021-08-13,2021-08-13,株式会社夢道場,,株式会社,大阪府,大阪市東成区,大今里南６丁目３番１０号ローズマンション１階,,27,115,5370013,,,,,,,2021-08-13,1,,,,,ユメドウジョウ,0
1682,6120005022435,新規,0,2021-08-13,2021-08-13,特定非営利活動法人座談会,,その他の設立登記法人,大阪府,大阪市中央区,北久宝寺町１丁目２－１オーセンティック東船場５０３号室,,27,128,5410057,,,,,,,2021-08-13,1,,,,,ザダンカイ,0
1686,6120901044755,新規,0,2021-08-13,2021-08-13,ＫＩＮＧ　ＢＥＥＲ株式会社,,株式会社,大阪府,豊中市,勝部１丁目９番３０号,,27,203,5610894,,,,,,,2021-08-13,1,,,,,キングビア,0
1694,6130001069925,新規,0,2021-08-13,2021-08-13,羽田建設株式会社,,株式会社,京都府,木津川市,加茂町駅西１丁目４番地１０,,26,214,6191153,,,,,,,2021-08-13,1,,,,,ハダケンセツ,0
1703,6140001122666,新規,0,2021-08-13,2021-08-13,Ｓｋｙ　Ｍｏｔｉｏｎ株式会社,,株式会社,兵庫県,三田市,三田町１４番２,,28,219,6691533,,,,,,,2021-08-13,1,,,,,スカイモーション,0
1706,6140003016619,新規,0,2021-08-13,2021-08-13,東亜エンジニアリング合同会社,,合同会社,兵庫県,神戸市東灘区,御影中町３丁目２－２－５０５,,28,101,6580054,,,,,,,2021-08-13,1,,,,,トウアエンジニアリング,0
1714,6180001147395,新規,0,2021-08-13,2021-08-13,株式会社笑炎,,株式会社,愛知県,名古屋市中川区,春田３丁目９０番地１,,23,110,4540985,,,,,,,2021-08-13,1,,,,,ショウエン,0
1715,6180001147429,新規,0,2021-08-13,2021-08-13,アイディエート株式会社,,株式会社,愛知県,知多市,南粕谷本町１丁目３１０番地,,23,224,4780025,,,,,,,2021-08-13,1,,,,,アイディエート,0
1716,6180001147437,新規,0,2021-08-13,2021-08-13,株式会社栄和,,株式会社,愛知県,春日井市,若草通２丁目５３番地２,,23,206,4860914,,,,,,,2021-08-13,1,,,,,エイワ,0
1720,6180003022852,新規,0,2021-08-13,2021-08-13,合同会社ｍｏｊｉｒｉ,,合同会社,愛知県,名古屋市中区,栄５丁目２６番３９号ＧＳ栄ビル３Ｆ,,23,106,4600008,,,,,,,2021-08-13,1,,,,,モジリ,0
1730,6200001039012,新規,0,2021-08-13,2021-08-13,株式会社タカハシゴム工業,,株式会社,岐阜県,羽島郡笠松町,江川２２１番地の１,,21,303,5016032,,,,,,,2021-08-13,1,,,,,タカハシゴムコウギョウ,0
1731,6200001039020,新規,0,2021-08-13,2021-08-13,株式会社Ｓ－プロモート,,株式会社,岐阜県,岐阜市,江添３丁目１番９－７０３号（ルミエール浅野）,,21,201,5008383,,,,,,,2021-08-13,1,,,,,エスプロモート,0
1741,6240001058446,新規,0,2021-08-13,2021-08-13,株式会社アーリーワン,,株式会社,広島県,広島市中区,本川町３丁目１番５号,,34,101,7300802,,,,,,,2021-08-13,1,,,,,アーリーワン,0
1745,6260001035872,新規,0,2021-08-13,2021-08-13,株式会社ピアホーム,,株式会社,岡山県,岡山市東区,西大寺松崎２４８番地１２４,,33,103,7048183,,,,,,,2021-08-13,1,,,,,ピアホーム,0
1752,6270003001335,新規,0,2021-08-13,2021-08-13,合同会社さつき,,合同会社,鳥取県,東伯郡北栄町,大島字新橋東川端１１３－２,,31,372,6892206,,,,,,,2021-08-13,1,,,,,サツキ,0
1760,6290001094156,新規,0,2021-08-13,2021-08-13,株式会社星クレーン,,株式会社,福岡県,八女市,黒木町桑原９７３番地３,,40,210,8341216,,,,,,,2021-08-13,1,,,,,ホシクレーン,0
1761,6290003011497,新規,0,2021-08-13,2021-08-13,合同会社ｓｔｅｌｌａ,,合同会社,福岡県,福岡市中央区,大宮２丁目５番１５－２０１号,,40,133,8100013,,,,,,,2021-08-13,1,,,,,ステラ,0
1763,6290803003900,新規,0,2021-08-13,2021-08-13,合同会社ぱんどし,,合同会社,福岡県,遠賀郡水巻町,伊左座５丁目６－１７,,40,382,8070056,,,,,,,2021-08-13,1,,,,,パンドシ,0
1765,6300001012586,新規,0,2021-08-13,2021-08-13,株式会社ＭＯＲＩＮＡＧＡホールディングス,,株式会社,佐賀県,佐賀市,久保田町大字徳万４８番地１,,41,201,8490201,,,,,,,2021-08-13,1,,,,,モリナガホールディングス,0
1779,6360003011317,新規,0,2021-08-13,2021-08-13,ＴＨＥ　ＴＲＥＡＴ合同会社,,合同会社,沖縄県,宮古島市,平良字下里６０３－１０３,,47,214,9060013,,,,,,,2021-08-13,1,,,,,ザトリート,0
1795,6430001084704,新規,0,2021-08-13,2021-08-13,株式会社ＳＥＮＳＩＮ,,株式会社,北海道,札幌市中央区,南五条西４丁目１番地,,01,101,0640805,,,,,,,2021-08-13,1,,,,,センシン,0
1796,6430001084712,新規,0,2021-08-13,2021-08-13,株式会社ｄｅｓｉｇｎ　ｗｏｒｋｓ　Ｎ,,株式会社,北海道,江別市,あさひが丘３５番地１５,,01,217,0690826,,,,,,,2021-08-13,1,,,,,デザインワークスエヌ,0
1797,6430001084720,新規,0,2021-08-13,2021-08-13,株式会社ｍａｇｎａ　ｓｅｃｏｎｄ,,株式会社,北海道,千歳市,清流５丁目２番５号,,01,224,0660081,,,,,,,2021-08-13,1,,,,,マグナセカンド,0
1798,6430001084786,新規,0,2021-08-13,2021-08-13,アケボノ石油ガス株式会社,,株式会社,北海道,札幌市手稲区,曙四条２丁目３番１２号,00123931,01,109,0060834,,,,,,,2021-08-13,1,,,,,アケボノセキユガス,0
1799,6430003013058,新規,0,2021-08-13,2021-08-13,合同会社エムドットケー,,合同会社,北海道,札幌市西区,山の手五条３丁目２番２４号,,01,107,0630005,,,,,,,2021-08-13,1,,,,,エムドットケー,0
1801,6450001013446,新規,0,2021-08-13,2021-08-13,株式会社トーエーｐｒｏｊｅｃｔプラス,,株式会社,北海道,旭川市,東光九条１０丁目４番８号,,01,204,0788349,,,,,,,2021-08-13,1,,,,,トーエープロジェクトプラス,0
1807,6700150104350,新規,0,2021-08-13,2021-08-13,Ｄｕｒｒ　Ｓｙｓｔｅｍｓ　ＡＧ,,外国会社等,,,,,,,,Ｃａｒｌ－Ｂｅｎｚ－Ｓｔｒ．３４，７４３２１　Ｂｉｅｔｉｇｈｅｉｍ－Ｂｉｓｓｉｎｇｅｎ　Ｇｅｒｍａｎｙ,,,,,,2021-08-13,1,,,,,デユルシステムズアーゲー,0
1814,7010003035606,新規,0,2021-08-13,2021-08-13,合同会社ネイピアホールディングス,,合同会社,東京都,千代田区,丸の内３丁目１番１号東京共同会計事務所内,,13,101,1000005,,,,,,,2021-08-13,1,,,,,ネイピアホールディングス,0
1816,7010005033780,新規,0,2021-08-13,2021-08-13,一般社団法人漫画芸術,,その他の設立登記法人,東京都,中央区,日本橋人形町１丁目１番１１号,,13,102,1030013,,,,,,,2021-08-13,1,,,,,マンガゲイジュツ,0
1819,7010401162076,新規,0,2021-08-13,2021-08-13,株式会社Ｐｉｎｅ　Ｂ．,,株式会社,東京都,港区,麻布十番１丁目５番２１－６０１号,,13,103,1060045,,,,,,,2021-08-13,1,,,,,パインビー,0
1824,7010403025909,新規,0,2021-08-13,2021-08-13,ＧＬＰプロパティ合同会社,,合同会社,東京都,港区,東新橋１丁目５番２号汐留シティセンター,,13,103,1050021,,,,,,,2021-08-13,1,,,,,ジーエルピープロパティ,0
1832,7010701041376,新規,0,2021-08-13,2021-08-13,株式会社ＭＦＫ,,株式会社,東京都,品川区,西五反田４丁目１１番４号,,13,109,1410031,,,,,,,2021-08-13,1,,,,,エムエフケー,0
1833,7010701041384,新規,0,2021-08-13,2021-08-13,株式会社Ｃｒｅｄｉｔａｌ,,株式会社,東京都,品川区,東五反田５丁目２５番１８号ＥＮＺＯ五反田ビル７Ｆ,,13,109,1410022,,,,,,,2021-08-13,1,,,,,クレディタル,0
1836,7010901049260,新規,0,2021-08-13,2021-08-13,株式会社Ｌｉｆｅ　Ｃａｐｉｔａｌ　Ｐａｒｔｎｅｒｓ,,株式会社,東京都,世田谷区,千歳台３丁目２２番１０号パークヒル千歳台２０１,,13,112,1570071,,,,,,,2021-08-13,1,,,,,ライフキャピタルパートナーズ,0
1845,7011003013205,新規,0,2021-08-13,2021-08-13,合同会社ＳＲＫ,,合同会社,東京都,渋谷区,富ヶ谷２丁目２１番１－１０３号,,13,113,1510063,,,,,,,2021-08-13,1,,,,,エスアールケイ,0
1849,7011401023598,新規,0,2021-08-13,2021-08-13,株式会社ＡＲＩＡＭＡＲＵ,,株式会社,東京都,板橋区,中丸町５０番９号,,13,119,1730026,,,,,,,2021-08-13,1,,,,,アリアマル,0
1850,7011403003409,新規,0,2021-08-13,2021-08-13,合同会社ｎｅｗｍｏｒｅ,,合同会社,東京都,板橋区,新河岸３丁目１５－７サンライフ新高島平４０２,,13,119,1750081,,,,,,,2021-08-13,1,,,,,ニューモア,0
1851,7011603003373,新規,0,2021-08-13,2021-08-13,合同会社ＳｐｏＷｅｌｌ,,合同会社,東京都,練馬区,西大泉４丁目５番２０号,,13,120,1780065,,,,,,,2021-08-13,1,,,,,,0
1858,7012301012666,新規,0,2021-08-13,2021-08-13,株式会社ＲＥＡＬＩＺＥ　ＫＮＩＧＨＴ,,株式会社,東京都,町田市,上小山田町１７５番地１５,,13,209,1940201,,,,,,,2021-08-13,1,,,,,リアライズナイト,0
1869,7013301047859,新規,0,2021-08-13,2021-08-13,ショーラボ株式会社,,株式会社,東京都,豊島区,駒込１丁目１０番１５号駒込パークハウス８０７号,,13,116,1700003,,,,,,,2021-08-13,1,,,,,ショーラボ,0
1870,7013303005781,新規,0,2021-08-13,2021-08-13,Ｃａｓｔ　ａ　ｓｐｅｌｌ合同会社,,合同会社,東京都,豊島区,高松２丁目５２番３号,,13,116,1710042,,,,,,,2021-08-13,1,,,,,キャストアスペル,0
1873,7020001142551,新規,0,2021-08-13,2021-08-13,株式会社中村格付研究所,,株式会社,神奈川県,川崎市多摩区,三田１丁目２６番地１２アルシオン生田サンクロールヒルズ７０１,,14,135,2140034,,,,,,,2021-08-13,1,,,,,ナカムラカクヅケケンキュウショ,0
1874,7020001142576,新規,0,2021-08-13,2021-08-13,株式会社ブリッジリンクス,,株式会社,神奈川県,横浜市神奈川区,台町１１番地２９横浜エム・アイビル４０１,,14,102,2210834,,,,,,,2021-08-13,1,,,,,ブリッジリンクス,0
1875,7020001142584,新規,0,2021-08-13,2021-08-13,株式会社Ｋ－ｓｔｙｌｅ,,株式会社,神奈川県,川崎市川崎区,大島１丁目２６番１０号,,14,131,2100834,,,,,,,2021-08-13,1,,,,,ケイスタイル,0
1877,7020003020318,新規,0,2021-08-13,2021-08-13,ＦＯＯＤＰＬＵＳ合同会社,,合同会社,神奈川県,川崎市川崎区,四谷下町８番１３号,,14,131,2100827,,,,,,,2021-08-13,1,,,,,フードプラス,0
1889,7030001143813,新規,0,2021-08-13,2021-08-13,株式会社Ｇｌｏｂａｌ　Ｏｕｔｓｏｕｒｃｉｎｇ,,株式会社,埼玉県,川口市,元郷２丁目１５番１－２２０５号エルザタワー５５,,11,203,3320011,,,,,,,2021-08-13,1,,,,,グローバルアウトソーシング,0
1892,7030003017750,新規,0,2021-08-13,2021-08-13,合同会社ＳＫ,,合同会社,埼玉県,さいたま市大宮区,仲町１丁目２６番地まるさんビル１階,,11,103,3300845,,,,,,,2021-08-13,1,,,,,エスケイ,0
1893,7030003017759,新規,0,2021-08-13,2021-08-13,泰和合同会社,,合同会社,埼玉県,吉川市,美南２丁目２５番地１グランセンス吉川美南セントラルレジデンス４０９号,,11,243,3420038,,,,,,,2021-08-13,1,,,,,タイワ,0
1894,7030003017767,新規,0,2021-08-13,2021-08-13,浅子コンサルティング合同会社,,合同会社,埼玉県,さいたま市緑区,大字大間木１８８７番地,,11,109,3360923,,,,,,,2021-08-13,1,,,,,アサココンサルティング,0
1910,7040001119754,新規,0,2021-08-13,2021-08-13,株式会社ＫＪＲ,,株式会社,千葉県,船橋市,西船４丁目２０番７号ＳＡＰ西船橋駅前ビル３Ｆ,,12,204,2730031,,,,,,,2021-08-13,1,,,,,ケイジェイアール,0
1911,7040001119770,新規,0,2021-08-13,2021-08-13,株式会社Ｏｆｆｉｃｅ　ＫＴ,,株式会社,千葉県,流山市,江戸川台西２丁目２６５番地,,12,220,2700115,,,,,,,2021-08-13,1,,,,,オフィスケイティ,0
1917,7040003018236,新規,0,2021-08-13,2021-08-13,Ａｓｏｂｉｇｏｃｏｒｏ合同会社,,合同会社,千葉県,市川市,相之川２丁目４－１２,,12,203,2720143,,,,,,,2021-08-13,1,,,,,アソビゴコロ,0
1918,7040003018260,新規,0,2021-08-13,2021-08-13,東和合同会社,,合同会社,千葉県,柏市,中央１丁目３番３０号,,12,217,2770023,,,,,,,2021-08-13,1,,,,,トウワゴウドウカイシャ,0
1919,7040003018327,新規,0,2021-08-13,2021-08-13,合同会社ＩＲＥ,,合同会社,千葉県,旭市,ハの２０４番地３,,12,215,2892521,,,,,,,2021-08-13,1,,,,,アイアールイー,0
1933,7070001038349,新規,0,2021-08-13,2021-08-13,株式会社テンダーライフ,,株式会社,群馬県,富岡市,七日市１０９４番地６,,10,210,3702343,,,,,,,2021-08-13,1,,,,,テンダーライフ,0
1934,7080001024380,新規,0,2021-08-13,2021-08-13,株式会社大夢,,株式会社,静岡県,静岡市葵区,唐瀬２丁目１８番９号リバース唐瀬１０２,,22,101,4200937,,,,,,,2021-08-13,1,,,,,タイム,0
1935,7080003002624,新規,0,2021-08-13,2021-08-13,合同会社ＲＨＹ,,合同会社,静岡県,静岡市葵区,本通８丁目１番地の４,,22,101,4200064,,,,,,,2021-08-13,1,,,,,アールエイチワイ,0
1953,7120001239718,新規,0,2021-08-13,2021-08-13,株式会社ｍｏｎ　ｒｅｖｅ,,株式会社,大阪府,大阪市中央区,今橋２丁目３番１６号ＭＩＤ今橋ビル１Ｆ,,27,128,5410042,,,,,,,2021-08-13,1,,,,,モンレーヴ,0
1957,7120003020019,新規,0,2021-08-13,2021-08-13,合同会社トリプルＴ,,合同会社,大阪府,大阪市東成区,神路２丁目８番３３号クレアシティ深江橋４０４,,27,115,5370003,,,,,,,2021-08-13,1,,,,,トリプルティ,0
1982,7140001122665,新規,0,2021-08-13,2021-08-13,エニーシー株式会社,,株式会社,兵庫県,神戸市西区,井吹台西町５丁目１１番地の１１,,28,111,6512243,,,,,,,2021-08-13,1,,,,,エニーシー,0
1988,7170001016716,新規,0,2021-08-13,2021-08-13,裕祥株式会社,,株式会社,和歌山県,海南市,阪井６５２－１８,,30,202,6420024,,,,,,,2021-08-13,1,,,,,ユウショウ,0
1997,7180001147411,新規,0,2021-08-13,2021-08-13,株式会社ワイドユニファイ,,株式会社,愛知県,名古屋市天白区,表山２丁目５０６番地,,23,116,4680069,,,,,,,2021-08-13,1,,,,,ワイドユニファイ,0
2001,7180301035266,新規,0,2021-08-13,2021-08-13,なかねクリーンサービス株式会社,,株式会社,愛知県,岡崎市,暮戸町字宮岸４０番地６,,23,202,4440941,,,,,,,2021-08-13,1,,,,,ナカネクリーンサービス,0
2003,7200001039011,新規,0,2021-08-13,2021-08-13,白川工業株式会社,,株式会社,岐阜県,不破郡垂井町,表佐９１７番地の３,,21,361,5032122,,,,,,,2021-08-13,1,,,,,シラカワコウギョウ,0
2012,7240001058453,新規,0,2021-08-13,2021-08-13,株式会社ｍａｋｏｔｏｎｏ,,株式会社,広島県,安芸郡府中町,瀬戸ハイム２丁目２０番２０号,,34,302,7350011,,,,,,,2021-08-13,1,,,,,マコトノ,0
2022,7290001094196,新規,0,2021-08-13,2021-08-13,株式会社パーセントプラス,,株式会社,福岡県,小郡市,小郡２４１３番地の１,,40,216,8380141,,,,,,,2021-08-13,1,,,,,パーセントプラス,0
2023,7290001094246,新規,0,2021-08-13,2021-08-13,クオーレ株式会社,,株式会社,福岡県,福岡市早良区,祖原１４番－３０－１００１号コアマンション西新プレジオ,,40,137,8140005,,,,,,,2021-08-13,1,,,,,クオーレ,0
2024,7290001094295,新規,0,2021-08-13,2021-08-13,パラゴン都市開発株式会社,,株式会社,福岡県,福岡市博多区,博多駅前３丁目５番７号,,40,132,8120011,,,,,,,2021-08-13,1,,,,,パラゴントシカイハツ,0
2025,7290003011521,新規,0,2021-08-13,2021-08-13,合同会社ＧＡ,,合同会社,福岡県,福岡市早良区,荒江３丁目１０番７－４０２号ギャラン荒江,,40,137,8140021,,,,,,,2021-08-13,1,,,,,ジーエー,0
2037,7340001024016,新規,0,2021-08-13,2021-08-13,株式会社Ｎ．Ｓ．Ｓ．Ｋ,,株式会社,鹿児島県,鹿児島市,西陵１丁目２８－３,,46,201,8900032,,,,,,,2021-08-13,1,,,,,エヌエスエスケー,0
2046,7370001047492,新規,0,2021-08-13,2021-08-13,ｌｅｔｅ株式会社,,株式会社,宮城県,仙台市泉区,南光台東３丁目１７番１号,,04,105,9818001,,,,,,,2021-08-13,1,,,,,レテ,0
2057,7390003001859,新規,0,2021-08-13,2021-08-13,Ｋ．Ｋ．トランスポート合同会社,,合同会社,山形県,山形市,成沢西１丁目５番９号,,06,201,9902339,,,,,,,2021-08-13,1,,,,,ケイケイトランスポート,0
2063,7430001084744,新規,0,2021-08-13,2021-08-13,株式会社シーホネスト,,株式会社,北海道,江別市,ゆめみ野南町４７番地の９,,01,217,0670066,,,,,,,2021-08-13,1,,,,,シーホネスト,0
2064,7430003013032,新規,0,2021-08-13,2021-08-13,ジュエルオブサーフ合同会社,,合同会社,北海道,小樽市,張碓町５２３番地５ルシオン小樽４０３号室,,01,203,0470266,,,,,,,2021-08-13,1,,,,,ジュエルオブサーフ,0
2066,7450001013445,新規,0,2021-08-13,2021-08-13,ＭＫＴ株式会社,,株式会社,北海道,旭川市,忠和八条５丁目３番６号,,01,204,0708048,,,,,,,2021-08-13,1,,,,,エムケイティー,0
2075,7700150104242,新規,0,2021-08-13,2021-07-30,ミヒャエル・ハイドン・プロジェクト,,その他,東京都,調布市,深大寺元町１丁目２６番地９号リバーサイド元町２０１,,13,208,1820017,,,,,,,2021-07-30,1,,,,,ミヒヤエルハイドンプロジエクト,0
2076,7700150104382,新規,0,2021-08-13,2021-08-13,ＡＵＴＯ　ＭＡＸ,,外国会社等,千葉県,東金市,下武射田２７０６番地３Ｆ,,12,213,2830012,スリランカ民主社会主義共和国、ウェランボダ、ワタデニヤ、１５１－１,,,,,,2021-08-13,1,,,,,オートマツクス,0
2084,8010003035571,新規,0,2021-08-13,2021-08-13,合同会社ディオニソス,,合同会社,東京都,中央区,日本橋小網町１１番８号,,13,102,1030016,,,,,,,2021-08-13,1,,,,,ディオニソス,0
2094,8010401162109,新規,0,2021-08-13,2021-08-13,ＧＣＪＧ１５株式会社,,株式会社,東京都,港区,元赤坂１丁目１番８号株式会社赤坂国際会計内,,13,103,1070051,,,,,,,2021-08-13,1,,,,,ジーシージェイジーフィフティーン,0
2095,8010401162117,新規,0,2021-08-13,2021-08-13,ＡＭＡ　ＸｐｅｒｔＥｙｅ株式会社,,株式会社,東京都,港区,南青山１丁目１５番１６号山城ビル７Ｆネクストレベルジャパン株式会社内,,13,103,1070062,,,,,,,2021-08-13,1,,,,,アマエクスパートアイ,0
2108,8010803003851,新規,0,2021-08-13,2021-08-13,合同会社Ｌｉｌｙｌａｍｐ,,合同会社,東京都,大田区,東雪谷３丁目７番１２号,,13,111,1450065,,,,,,,2021-08-13,1,,,,,リリーアンプ,0
2110,8010903006721,新規,0,2021-08-13,2021-08-13,合同会社ＨＫビルマネジメント,,合同会社,東京都,世田谷区,北烏山７丁目５番４号,,13,112,1570061,,,,,,,2021-08-13,1,,,,,エイチケービルマネジメント,0
2116,8011001142161,新規,0,2021-08-13,2021-08-13,Ｎｏｖｅｌｓｈｉｐ　Ｊａｐａｎ株式会社,,株式会社,東京都,渋谷区,桜丘町２９番２５号渋谷パールホーム４０５,,13,113,1500031,,,,,,,2021-08-13,1,,,,,ノベルシップジャパン,0
2117,8011001142194,新規,0,2021-08-13,2021-08-13,株式会社Ｓｔａｒｒｙ　Ｎｉｇｈｔ,,株式会社,東京都,渋谷区,神南１丁目６番５号,,13,113,1500041,,,,,,,2021-08-13,1,,,,,スターリーナイト,0
2121,8011003013154,新規,0,2021-08-13,2021-08-13,丸十合同会社,,合同会社,東京都,渋谷区,渋谷２丁目１０番１５号,,13,113,1500002,,,,,,,2021-08-13,1,,,,,マルジュウ,0
2122,8011003013204,新規,0,2021-08-13,2021-08-13,合同会社ｂａｃｙ,,合同会社,東京都,渋谷区,広尾１丁目１５番３号マスダビル６０１,,13,113,1500012,,,,,,,2021-08-13,1,,,,,ベイシー,0
2132,8011403003408,新規,0,2021-08-13,2021-08-13,Ｈｉｒｏ　Ｐｌａｎｎｉｎｇ　Ｏｆｆｉｃｅ合同会社,,合同会社,東京都,板橋区,相生町９－１６,,13,119,1740044,,,,,,,2021-08-13,1,,,,,ヒロプランニングオフィス,0
2133,8011603003372,新規,0,2021-08-13,2021-08-13,Ａ－ｃｏｍｐａｎｙ合同会社,,合同会社,東京都,練馬区,栄町１８番７－１０２号,,13,120,1760006,,,,,,,2021-08-13,1,,,,,エーカンパニー,0
2140,8012301012665,新規,0,2021-08-13,2021-08-13,株式会社ＴＡＲＣＨＩ,,株式会社,東京都,町田市,高ヶ坂５丁目７番２５号ファミール１０１,,13,209,1940014,,,,,,,2021-08-13,1,,,,,ターチ,0
2149,8013303005780,新規,0,2021-08-13,2021-08-13,合同会社ＨｉｇｈＲｏａｄカンパニー,,合同会社,東京都,豊島区,要町２丁目１番１８号アイコート池袋２０５号室,,13,116,1710043,,,,,,,2021-08-13,1,,,,,ハイロードカンパニー,0
2161,8020001142591,新規,0,2021-08-13,2021-08-13,株式会社ＴＥＳＯＴＴＯ,,株式会社,神奈川県,横浜市神奈川区,六角橋１丁目１７番２２号Ｂ１,,14,102,2210802,,,,,,,2021-08-13,1,,,,,テソット,0
2179,8030001143812,新規,0,2021-08-13,2021-08-13,株式会社ＩＮＥＸ,,株式会社,埼玉県,春日部市,六軒町３０８番地,,11,214,3440012,,,,,,,2021-08-13,1,,,,,アイネックス,0
2187,8040001119753,新規,0,2021-08-13,2021-08-13,株式会社Ｒｙｕ’ｓ,,株式会社,千葉県,柏市,松ケ崎３０９番地８ゾーネンブルーメ・ノイン３０４号,,12,217,2770835,,,,,,,2021-08-13,1,,,,,リューズ,0
2188,8040001119761,新規,0,2021-08-13,2021-08-13,株式会社千葉,,株式会社,千葉県,市川市,八幡３丁目２３番１４号,,12,203,2720021,,,,,,,2021-08-13,1,,,,,チバ,0
2190,8040003018318,新規,0,2021-08-13,2021-08-13,ＹＩ合同会社,,合同会社,千葉県,山武市,横田５４１番地４,,12,237,2891226,,,,,,,2021-08-13,1,,,,,ワイアイ,0
2204,8080401025267,新規,0,2021-08-13,2021-08-13,株式会社ＪＥＷＥＬ,,株式会社,静岡県,浜松市中区,成子町６４番地の５アルファステイツ浜松駅西１３０４号,,22,131,4328035,,,,,,,2021-08-13,1,,,,,ジュエル,0
2220,8120001239741,新規,0,2021-08-13,2021-08-13,株式会社Ｓｔａｎｄａｒｄ,,株式会社,大阪府,大阪市中央区,久太郎町２丁目４番１１号,,27,128,5410056,,,,,,,2021-08-13,1,,,,,スタンダード,0
2226,8120005022441,新規,0,2021-08-13,2021-08-13,一般社団法人ジャパン・イミグレーション・サポートセンター,,その他の設立登記法人,大阪府,大阪市中央区,備後町１丁目４番１６号,,27,128,5410051,,,,,,,2021-08-13,1,,,,,ジャパンイミグレーションサポートセンター,0
2227,8120101064148,新規,0,2021-08-13,2021-08-13,株式会社リトルファミリー,,株式会社,大阪府,貝塚市,麻生中１１１番地１７,,27,208,5970081,,,,,,,2021-08-13,1,,,,,リトルファミリー,0
2245,8140003016625,新規,0,2021-08-13,2021-08-13,合同会社ＲＥＳＴＡＲＴ,,合同会社,兵庫県,伊丹市,鴻池１丁目８－１８－１０１,,28,207,6640006,,,,,,,2021-08-13,1,,,,,リスタート,0
2254,8160003002350,新規,0,2021-08-13,2021-08-13,合同会社ヘラゾウ,,合同会社,滋賀県,草津市,東矢倉２丁目１番１号６号室,,25,206,5250054,,,,,,,2021-08-13,1,,,,,ヘラゾウ,0
2255,8170001016715,新規,0,2021-08-13,2021-08-13,萬和工業株式会社,,株式会社,和歌山県,和歌山市,木ノ本２７９－１８,,30,201,6408453,,,,,,,2021-08-13,1,,,,,マンワコウギョウ,0
2261,8180001147385,新規,0,2021-08-13,2021-08-13,株式会社ＳＫＹＬＩＮＥ　ＴＲＡＤＩＮＧ,,株式会社,愛知県,江南市,島宮町城２７番地県営島宮住宅２棟１０４号,,23,217,4838264,,,,,,,2021-08-13,1,,,,,スカイライントレーディング,0
2262,8180001147410,新規,0,2021-08-13,2021-08-13,株式会社Ｍｔ．,,株式会社,愛知県,名古屋市中区,丸の内２丁目１４番４号エグゼ丸の内ビル４０８号,,23,106,4600002,,,,,,,2021-08-13,1,,,,,マウント,0
2270,8190001028601,新規,0,2021-08-13,2021-08-13,株式会社Ｗｉｓｄｏｍ,,株式会社,三重県,四日市市,安島２丁目８－２ミカーサ安島８Ｈ,,24,202,5100075,,,,,,,2021-08-13,1,,,,,ウィズダム,0
2273,8200001039010,新規,0,2021-08-13,2021-08-13,株式会社ディレクト,,株式会社,岐阜県,岐阜市,清本町１０丁目８番地（ライオンズマンション岐阜清本町５０６号室）,,21,201,5008351,,,,,,,2021-08-13,1,,,,,ディレクト,0
2275,8200003005282,新規,0,2021-08-13,2021-08-13,合同会社つくってみた,,合同会社,岐阜県,加茂郡白川町,黒川９９６番地１,,21,506,5091431,,,,,,,2021-08-13,1,,,,,ツクッテミタ,0
2277,8220001024365,新規,0,2021-08-13,2021-08-13,三豊技研株式会社,,株式会社,石川県,金沢市,平和町２丁目２８番７６号,,17,201,9218105,,,,,,,2021-08-13,1,,,,,ミツトヨギケン,0
2284,8260003003652,新規,0,2021-08-13,2021-08-13,合同会社ねこ・と,,合同会社,岡山県,岡山市南区,万倍３１番地５,,33,104,7000955,,,,,,,2021-08-13,1,,,,,ネコト,0
2289,8290001094154,新規,0,2021-08-13,2021-08-13,株式会社ＫＬＯ,,株式会社,福岡県,福岡市博多区,祇園町４番６７－６０２号,,40,132,8120038,,,,,,,2021-08-13,1,,,,,ケーエルオー,0
2290,8290001094245,新規,0,2021-08-13,2021-08-13,株式会社岡部ホールディングス,,株式会社,福岡県,福岡市南区,野間４丁目４番３２号,,40,134,8150041,,,,,,,2021-08-13,1,,,,,オカベホールディングス,0
2316,8340003003520,新規,0,2021-08-13,2021-08-13,合同会社鹿児島ライフサイエンス,,合同会社,鹿児島県,鹿児島市,唐湊４丁目１８番３８号,,46,201,8900081,,,,,,,2021-08-13,1,,,,,カゴシマライフサイエンス,0
2330,8370001047491,新規,0,2021-08-13,2021-08-13,株式会社まごころ園,,株式会社,宮城県,石巻市,住吉一丁目９－３,,04,202,9860000,,,,,,,2021-08-13,1,,,,,,0
2339,8390001016560,新規,0,2021-08-13,2021-08-13,かなな株式会社,,株式会社,山形県,東置賜郡川西町,大字上小松３９５０番地の１４,,06,382,9990121,,,,,,,2021-08-13,1,,,,,カナナ,0
2346,8430001084702,新規,0,2021-08-13,2021-08-13,ダイアインベストメント株式会社,,株式会社,北海道,札幌市東区,北二十三条東９丁目２番１１号,,01,103,0650023,,,,,,,2021-08-13,1,,,,,ダイアインベストメント,0
2347,8430001084719,新規,0,2021-08-13,2021-08-13,株式会社ナカヤマ,,株式会社,北海道,札幌市東区,東苗穂十四条３丁目２３番２号,,01,103,0070814,,,,,,,2021-08-13,1,,,,,ナカヤマ,0
2348,8430003013015,新規,0,2021-08-13,2021-08-13,合同会社アッチェル,,合同会社,北海道,札幌市東区,北四十五条東１０丁目５番１０号,,01,103,0070845,,,,,,,2021-08-13,1,,,,,アッチェル,0
2349,8430003013023,新規,0,2021-08-13,2021-08-13,ホロイムア合同会社,,合同会社,北海道,札幌市手稲区,曙五条３丁目３番３３号,,01,109,0060835,,,,,,,2021-08-13,1,,,,,ホロイムア,0
2350,8430003013031,新規,0,2021-08-13,2021-08-13,合同会社こどもメイト,,合同会社,北海道,北広島市,大曲並木３丁目１８番１４号,,01,234,0611279,,,,,,,2021-08-13,1,,,,,コドモメイト,0
2351,8430003013064,新規,0,2021-08-13,2021-08-13,Ｏｕｒｓ合同会社,,合同会社,北海道,札幌市東区,北十一条東１丁目１－４０,,01,103,0650011,,,,,,,2021-08-13,1,,,,,ウルス,0
2353,8450001013444,新規,0,2021-08-13,2021-08-13,株式会社トレンドトレード,,株式会社,北海道,旭川市,東旭川北一条４丁目１２番１８号メゾンイースト１０１,,01,204,0788251,,,,,,,2021-08-13,1,,,,,トレンドトレード,0
2358,8480003001709,新規,0,2021-08-13,2021-08-13,合同会社探査リサーチ,,合同会社,徳島県,鳴門市,撫養町立岩字四枚６５番地,,36,202,7720017,,,,,,,2021-08-13,1,,,,,タンサリサーチ,0
2362,8700150104381,新規,0,2021-08-13,2021-08-13,ＳＥＡ　ＱＵＥＥＮＳ　ＥＮＴＥＲＰＲＩＳＥＳ,,外国会社等,千葉県,山武郡九十九里町,西野１４０４番地１１０－Ｂ,,12,403,2830116,スリランカ民主社会主義共和国、キリバスクンブラ、ケヘルワラ、テンプルロード、９３－Ａ－３,,,,,,2021-08-13,1,,,,,シークイーンズエンタープライセス,0
2368,9010001220380,新規,0,2021-08-13,2021-08-13,Ａｒｔ　Ｓａｌｖａｇｅ株式会社,,株式会社,東京都,千代田区,飯田橋２丁目９番４号,,13,101,1020072,,,,,,,2021-08-13,1,,,,,アートサルベージ,0
2371,9010003035620,新規,0,2021-08-13,2021-08-13,Ｓｅｃｏｎｄ　Ｒｏｕｎｄ合同会社,,合同会社,東京都,中央区,銀座１丁目１２－４Ｎ＆Ｅ、ＢＬＤ．７Ｆ,,13,102,1040061,,,,,,,2021-08-13,1,,,,,セカンドラウンド,0
2375,9010005033762,新規,0,2021-08-13,2021-08-13,一般財団法人日本ひとのわ財団,,その他の設立登記法人,東京都,中央区,湊２丁目１１番１号シティタワー銀座東９１９号,,13,102,1040043,,,,,,,2021-08-13,1,,,,,ニホンヒトノワザイダン,0
2376,9010005033837,新規,0,2021-08-13,2021-08-13,日光Ｐｌｕｓ２０一般社団法人,,その他の設立登記法人,東京都,千代田区,丸の内３丁目１番１号東京共同会計事務所内,,13,101,1000005,,,,,,,2021-08-13,1,,,,,ニッコウプラストゥエンティ,0
2382,9010401161910,新規,0,2021-08-13,2021-08-13,株式会社はじまり,,株式会社,東京都,港区,北青山３丁目６－７青山パラシオタワー１１Ｆ,,13,103,1070061,,,,,,,2021-08-13,1,,,,,ハジマリ,0
2383,9010401162058,新規,0,2021-08-13,2021-08-13,株式会社マゼラン,,株式会社,東京都,港区,三田４丁目１７番２５号,,13,103,1080073,,,,,,,2021-08-13,1,,,,,マゼラン,0
2384,9010401162090,新規,0,2021-08-13,2021-08-13,株式会社ポロンクセマ,,株式会社,東京都,港区,南青山２丁目２２番４号秀和南青山レジデンス２０５,,13,103,1070062,,,,,,,2021-08-13,1,,,,,ポロンクセマ,0
2385,9010401162099,新規,0,2021-08-13,2021-08-13,株式会社アラウンド・ケイ,,株式会社,東京都,港区,六本木６丁目８番１５号第二五月ビル３階２号室,,13,103,1060032,,,,,,,2021-08-13,1,,,,,アラウンドケイ,0
2386,9010401162108,新規,0,2021-08-13,2021-08-13,ＧＣＪＧ１４株式会社,,株式会社,東京都,港区,元赤坂１丁目１番８号株式会社赤坂国際会計内,,13,103,1070051,,,,,,,2021-08-13,1,,,,,ジーシージェイジーフォーティーン,0
2388,9010403025907,新規,0,2021-08-13,2021-08-13,合同会社ＳＡＪＵＲ２,,合同会社,東京都,港区,虎ノ門５丁目１番４号,,13,103,1050001,,,,,,,2021-08-13,1,,,,,エスエージェイユーアールツー,0
2397,9010803003842,新規,0,2021-08-13,2021-08-13,合同会社Ｂｉｅｂｅｒ,,合同会社,東京都,大田区,上池台３丁目１６－２０,,13,111,1450064,,,,,,,2021-08-13,1,,,,,ビーバー,0
2402,9010903006720,新規,0,2021-08-13,2021-08-13,合同会社かもめ,,合同会社,東京都,世田谷区,用賀２丁目２１番１号,,13,112,1580097,,,,,,,2021-08-13,1,,,,,カモメ,0
2405,9011001142284,新規,0,2021-08-13,2021-08-13,ＧＭＯオフィスサポート株式会社,,株式会社,東京都,渋谷区,道玄坂１丁目２番３号,,13,113,1500043,,,,,,,2021-08-13,1,,,,,ジーエムオーオフィスサポート,0
2410,9011003013178,新規,0,2021-08-13,2021-08-13,ＤＯＨＡ合同会社,,合同会社,東京都,目黒区,三田１丁目１１－２４ブライズ恵比寿２０２,,13,110,1530062,,,,,,,2021-08-13,1,,,,,ドーハ,0
2411,9011003013186,新規,0,2021-08-13,2021-08-13,合同会社ＥＳＱＵＡＲＥＤ,,合同会社,東京都,渋谷区,神宮前６丁目２３番４号桑野ビル２階,,13,113,1500001,,,,,,,2021-08-13,1,,,,,エスクエアド,0
2412,9011003013211,新規,0,2021-08-13,2021-08-13,合同会社フォーアイ,,合同会社,東京都,目黒区,下目黒１丁目５番１９号,,13,110,1530064,,,,,,,2021-08-13,1,,,,,フォーアイ,0
2431,9011703002918,新規,0,2021-08-13,2021-08-13,尚品東京合同会社,,合同会社,東京都,江戸川区,東小岩５丁目２３番１７号,,13,123,1330052,,,,,,,2021-08-13,1,,,,,ショウヒントウキョウ,0
2432,9012301012664,新規,0,2021-08-13,2021-08-13,株式会社ｆｕｎ　ｏｎ　ｄｅｓｉｇｎ,,株式会社,東京都,町田市,つくし野４丁目２８番地２８,,13,209,1940001,,,,,,,2021-08-13,1,,,,,ファンオンデザイン,0
2450,9021001073669,新規,0,2021-08-13,2021-08-13,株式会社在宅福祉支援協会,,株式会社,神奈川県,横須賀市,津久井３丁目１９番２１号ドエルマーサ１０３号室,,14,201,2390843,,,,,,,2021-08-13,1,,,,,,0
2453,9021003010802,新規,0,2021-08-13,2021-08-13,合同会社つみき,,合同会社,神奈川県,小田原市,前川３２５番地,,14,206,2560813,,,,,,,2021-08-13,1,,,,,ツミキ,0
2461,9030001143695,新規,0,2021-08-13,2021-08-13,株式会社ＹＡサービス,,株式会社,埼玉県,戸田市,美女木１丁目１番地の３,,11,224,3350031,,,,,,,2021-08-13,1,,,,,ワイエーサービス,0
2462,9030001143745,新規,0,2021-08-13,2021-08-13,株式会社サクラメントリー,,株式会社,埼玉県,さいたま市大宮区,大成町３丁目５０６番地森田屋ビル１号室,,11,103,3300852,,,,,,,2021-08-13,1,,,,,サクラメントリー,0
2463,9030001143803,新規,0,2021-08-13,2021-08-13,株式会社長谷川ファーム,,株式会社,埼玉県,熊谷市,向谷５１番地,,11,202,3690107,,,,,,,2021-08-13,1,,,,,ハセガワファーム,0
2472,9040001119620,新規,0,2021-08-13,2021-08-13,株式会社Ｇｉｖｅｒｅｄｇｅ,,株式会社,千葉県,柏市,東中新宿４丁目４番１８号２０１,,12,217,2770061,,,,,,,2021-08-13,1,,,,,ギバーエッジ,0
2473,9040001119760,新規,0,2021-08-13,2021-08-13,株式会社ホームアンドライフ,,株式会社,千葉県,君津市,三田３７８番地,,12,225,2920403,,,,,,,2021-08-13,1,,,,,ホームアンドライフ,0
2491,9090001017150,新規,0,2021-08-13,2021-08-13,株式会社Ｆｌｏｇｅ,,株式会社,山梨県,甲府市,向町４３４番地１,,19,201,4000813,,,,,,,2021-08-13,1,,,,,プロジェ,0
2492,9100001034532,新規,0,2021-08-13,2021-08-13,セカンドテイク株式会社,,株式会社,長野県,北佐久郡軽井沢町,大字長倉５８２７－１あさまテラスＮ－１,,20,321,3890111,,,,,,,2021-08-13,1,,,,,セカンドテイク,0
2508,9120001239690,新規,0,2021-08-13,2021-08-13,株式会社マスダ,,株式会社,大阪府,大阪市淀川区,新北野２丁目１０番７号,,27,123,5320025,,,,,,,2021-08-13,1,,,,,マスダ,0
2509,9120001239732,新規,0,2021-08-13,2021-08-13,株式会社わんぷり,,株式会社,大阪府,大阪市西区,南堀江３丁目６番５号,,27,106,5500015,,,,,,,2021-08-13,1,,,,,ワンプリ,0
2510,9120001239740,新規,0,2021-08-13,2021-08-13,株式会社Ｓｑｕｉｄ,,株式会社,大阪府,大阪市西区,西本町１丁目５番１３号,,27,106,5500005,,,,,,,2021-08-13,1,,,,,スクウィッド,0
2511,9120001239765,新規,0,2021-08-13,2021-08-13,ＴＧＢ株式会社,,株式会社,大阪府,大阪市淀川区,東三国４丁目１４番２７号行澤ハイツ３０１号,,27,123,5320002,,,,,,,2021-08-13,1,,,,,ティージービー,0
2514,9120005022449,新規,0,2021-08-13,2021-08-13,一般社団法人クラフトビアサーキット,,その他の設立登記法人,大阪府,大阪市中央区,瓦屋町１丁目５番２２号,,27,128,5420066,,,,,,,2021-08-13,1,,,,,クラフトビアサーキット,0
2515,9120101064147,新規,0,2021-08-13,2021-08-13,近藤商事株式会社,,株式会社,大阪府,和泉市,はつが野２丁目１５番５号,,27,219,5941106,,,,,,,2021-08-13,1,,,,,コンドウショウジ,0
2518,9120901044760,新規,0,2021-08-13,2021-08-13,株式会社ダニエル・ペコ,,株式会社,大阪府,豊中市,新千里西町２丁目３番１－３０６号,,27,203,5600083,,,,,,,2021-08-13,1,,,,,ダニエルペコ,0
2529,9140001122671,新規,0,2021-08-13,2021-08-13,ＫＣ株式会社,,株式会社,兵庫県,神戸市灘区,福住通５丁目３－２,,28,102,6570824,,,,,,,2021-08-13,1,,,,,ケーシー,0
2530,9140001122688,新規,0,2021-08-13,2021-08-13,ＮＯＭ株式会社,,株式会社,兵庫県,神戸市中央区,波止場町６番３号,,28,110,6500042,,,,,,,2021-08-13,1,,,,,エヌオーエム,0
2535,9150003002458,新規,0,2021-08-13,2021-08-13,合同会社ＮＯＯＫＳ,,合同会社,奈良県,北葛城郡河合町,中山台２丁目１６番地９,,29,427,6360072,,,,,,,2021-08-13,1,,,,,ヌックス,0
2544,9180001147426,新規,0,2021-08-13,2021-08-13,株式会社ＳＫＹ－ＯＮＥ,,株式会社,愛知県,名古屋市中村区,城主町６丁目２０番地の１ハイツＬＬＨ１０３号,,23,105,4530819,,,,,,,2021-08-13,1,,,,,スカイワン,0
2545,9180001147442,新規,0,2021-08-13,2021-08-13,株式会社ＡＮＦｉＲｉＳＥ,,株式会社,愛知県,名古屋市中川区,吉津５丁目７０１番地（富田荘６０７号）,,23,110,4540981,,,,,,,2021-08-13,1,,,,,アンフィライズ,0
2555,9190001028600,新規,0,2021-08-13,2021-08-13,ＴＯＰ　ＳＰＥＥＤ株式会社,,株式会社,三重県,四日市市,堂ケ山町１７８８,,24,202,5121115,,,,,,,2021-08-13,1,,,,,トップスピード,0
2567,9220001024364,新規,0,2021-08-13,2021-08-13,山輝工業株式会社,,株式会社,石川県,能美市,小長野町イ５番地,,17,211,9231116,,,,,,,2021-08-13,1,,,,,サンキコウギョウ,0
2576,9240001058443,新規,0,2021-08-13,2021-08-13,株式会社高山菓子店,00123926,株式会社,広島県,広島市佐伯区,五日市町大字石内６５０２番５号,,34,108,7315102,,,,,,,2021-08-13,1,,,,,タカヤマカシテン,0
2577,9260003003651,新規,0,2021-08-13,2021-08-13,合同会社ねがいぼし,,合同会社,岡山県,倉敷市,中島１４８５番地１,,33,202,7100803,,,,,,,2021-08-13,1,,,,,ネガイボシ,0
2583,9290001094137,新規,0,2021-08-13,2021-08-13,株式会社クラシノ,,株式会社,福岡県,糟屋郡新宮町,下府３丁目１７番１０号,,40,345,8110112,,,,,,,2021-08-13,1,,,,,クラシノ,0
2584,9290001094153,新規,0,2021-08-13,2021-08-13,株式会社ＫＩＮＺＯ,,株式会社,福岡県,福岡市東区,原田４丁目１３番１８号,,40,131,8120063,,,,,,,2021-08-13,1,,,,,キンゾー,0
2585,9290001094194,新規,0,2021-08-13,2021-08-13,株式会社原開発工業,,株式会社,福岡県,福津市,内殿８１１－１,,40,224,8113205,,,,,,,2021-08-13,1,,,,,ハラカイハツコウギョウ,0
2604,9370003005356,新規,0,2021-08-13,2021-08-13,合同会社Ｎ－ｌａｂ,,合同会社,宮城県,石巻市,美園３丁目１４番地１１,,04,202,9860033,,,,,,,2021-08-13,1,,,,,エヌラボ,0
2612,9380003004976,新規,0,2021-08-13,2021-08-13,合同会社Ｓａｎｄａｉ,,合同会社,福島県,須賀川市,塚田１３３番地,,07,207,9620859,,,,,,,2021-08-13,1,,,,,,0
2624,9430001084692,新規,0,2021-08-13,2021-08-13,株式会社ウエストテイル,,株式会社,北海道,室蘭市,寿町２丁目１１番１７号,,01,205,0500082,,,,,,,2021-08-13,1,,,,,ウエストテイル,0
2625,9430001084701,新規,0,2021-08-13,2021-08-13,株式会社琉建,,株式会社,北海道,苫小牧市,もえぎ町２丁目１８番２号,,01,213,0591274,,,,,,,2021-08-13,1,,,,,リュウケン,0
2630,9480003001708,新規,0,2021-08-13,2021-08-13,合同会社エムズサービス,,合同会社,徳島県,吉野川市,鴨島町麻植塚３０９番地３,,36,205,7760002,,,,,,,2021-08-13,1,,,,,エムズサービス,0
2632,9490003001574,新規,0,2021-08-13,2021-08-13,ガイドロケーション合同会社,,合同会社,高知県,安芸市,下山５５６－２,,39,203,7840046,,,,,,,2021-08-13,1,,,,,ガイドロケーション,0
2638,9700150103993,新規,0,2021-08-13,2021-07-07,ＮＡＰＡ　Ｔｒａｄｉｎｇ　＆　Ｉｎｖｅｓｔｍｅｎｔ（Ｓ）Ｐｔｅ　Ｌｔｄ,,外国会社等,,,,,,,,１４　ＡＭｂｅｒ　Ｇａｒｄｅｎｓ　＃２２－０１　ＡｍｂｅｒＰａｒｋ　Ｓｉｎｇａｐｏｒｅ,,,,,,2021-07-07,1,,,,,ナパトレーデイングアンドインベストメントプライベートリミテツド,0
2639,9700150104348,新規,0,2021-08-13,2021-08-13,ＤＡＥ　８１２５　Ｉｒｅｌａｎｄ　Ｌｉｍｉｔｅｄ,,外国会社等,,,,,,,,７０　Ｓｉｒ　Ｊｏｈｎ　Ｒｏｇｅｒｓｏｎ’ｓ　Ｑｕａｙ，Ｄｕｂｌｉｎ　２，Ｉｒｅｌａｎｄ,,,,,,2021-08-13,1,,,,,デイーエーイーエイトワンツーフアイブアイルランドリミテツド,0
2640,9700150104356,新規,0,2021-08-13,2021-08-13,Ｐｌａｙｄｅｍｉｃ　Ｌｉｍｉｔｅｄ,,外国会社等,,,,,,,,Ｗａｒｎｅｒ　Ｈｏｕｓｅ，９８　Ｔｈｅｏｂａｌｄｓ　Ｒｏａｄ，Ｌｏｎｄｏｎ　ＷＣ１Ｘ　８ＷＢ,,,,,,2021-08-13,1,,,,,プレイデミツクリミテツド,0
