sequenceNumber,corporateNumber,process,correct,updateDate,changeDate,name,nameImageId,kind,prefectureName,cityName,streetNumber,addressImageId,prefectureCode,cityCode,postCode,addressOutside,addressOutsideImageId,closeDate,closeCause,successorCorporateNumber,changeCause,assignmentDate,latest,enName,enPrefectureName,enCityName,enAddressOutside,furigana,hihyoji
8,1010401025651,登記記録の閉鎖等,0,2022-12-19,2022-12-09,ファン工事株式会社,,株式会社,東京都,港区,北青山２丁目７番１１号,,13,103,1070061,,,2022-12-09,清算の結了等,,,2015-10-05,1,,,,,ファンコウジ,0
9,1010401130352,登記記録の閉鎖等,0,2022-12-19,2022-12-14,猫村不動産株式会社,,株式会社,東京都,港区,高輪３丁目２５番２２号高輪カネオビル８階,,13,103,1080074,,,2022-12-14,合併による解散等,7021001054596,令和４年１２月１日神奈川県南足柄市塚原２７９３番地４株式会社スター・フィールド（7021001054596）に合併し解散,2017-03-22,1,,,,,,0
24,1010601037991,登記記録の閉鎖等,0,2022-12-19,2022-12-13,株式会社襷ライフサービス,,株式会社,東京都,江東区,亀戸５丁目３３番７号,,13,108,1360071,,,2022-12-13,清算の結了等,,,2015-10-05,1,,,,,タスキライフサービス,0
30,1010801029277,登記記録の閉鎖等,0,2022-12-19,2022-12-12,株式会社ＹＫキャピタル,,株式会社,東京都,北区,田端６丁目４番１８号,,13,117,1140014,,,2022-12-12,清算の結了等,,,2018-10-22,1,,,,,ワイケーキャピタル,0
53,1011505002132,登記記録の閉鎖等,0,2022-12-19,2022-12-12,一般社団法人日中経済文化交流促進会,,その他の設立登記法人,東京都,北区,赤羽２丁目２４－２英ビル４０１,,13,117,1150045,,,2022-12-12,清算の結了等,,,2018-01-31,1,,,,,ニッチュウケイザイブンカコウリュウソクシンカイ,0
64,1013101001501,登記記録の閉鎖等,0,2022-12-19,2022-12-09,株式会社ビーンズ,,株式会社,東京都,西多摩郡瑞穂町,南平２丁目４番地の３,,13,303,1901224,,,2022-12-09,合併による解散等,5013101004954,令和４年１２月１日東京都西多摩郡瑞穂町南平二丁目４番地３株式会社スズキアリーナ瑞穂（5013101004954）に合併し解散,2015-10-05,1,,,,,ビーンズ,0
76,1021002035295,登記記録の閉鎖等,0,2022-12-19,2022-12-12,有限会社都市設計,,有限会社,神奈川県,伊勢原市,岡崎４８１０番地の４,,14,214,2591135,,,2022-12-12,清算の結了等,,,2015-10-05,1,,,,,トシセッケイ,0
82,1030002100505,登記記録の閉鎖等,0,2022-12-19,2022-12-12,有限会社五和,,有限会社,埼玉県,川口市,大字榛松１９０７番地の２１,,11,203,3340062,,,2022-12-12,清算の結了等,,,2015-10-05,1,,,,,ゴワ,0
85,1030003011395,登記記録の閉鎖等,0,2022-12-19,2022-12-12,合同会社洋陽,,合同会社,埼玉県,川口市,中青木３丁目９番２－５０９号青木町ハイツ,,11,203,3320032,,,2022-12-12,清算の結了等,,,2018-02-07,1,,,,,ヒロヒ,0
91,1040001079938,登記記録の閉鎖等,0,2022-12-19,2022-12-13,株式会社ＭＲＴ産業,,株式会社,千葉県,八千代市,島田台１０１５番地７,,12,221,2760004,,,2022-12-13,清算の結了等,,,2015-10-05,1,,,,,エムアールティサンギョウ,0
95,1040001116435,登記記録の閉鎖等,0,2022-12-19,2022-12-02,株式会社ヴィガーメンテナンス,,株式会社,千葉県,船橋市,高根台７丁目１４番１号,,12,204,2740065,,,2022-12-02,合併による解散等,9040001113573,令和４年１２月１日千葉県船橋市高根台七丁目１４番１号株式会社ヴィガーホールディングス（9040001113573）に合併し解散,2020-12-25,1,,,,,ヴィガーメンテナンス,0
115,1090002004106,登記記録の閉鎖等,0,2022-12-19,2022-12-12,有限会社中央製作所,,有限会社,山梨県,甲斐市,中下条１１５４番地１号,,19,210,4000124,,,2022-12-12,清算の結了等,,,2015-10-05,1,,,,,チュウオウセイサクショ,0
128,1120001214511,登記記録の閉鎖等,0,2022-12-19,2022-12-14,株式会社大地技研,,株式会社,大阪府,大阪市淀川区,東三国２丁目１１番１４－２０２号,,27,123,5320002,,,2022-12-14,清算の結了等,,,2018-07-06,1,,,,,ダイチギケン,0
138,1120005023025,登記記録の閉鎖等,0,2022-12-19,2022-12-16,Ｔ．Ｋ社会保険労務士法人,,その他の設立登記法人,大阪府,大阪市中央区,内平野町２丁目４番５号,,27,128,5400037,,,2022-12-16,清算の結了等,,,2022-07-06,1,,,,,ティーケー,0
145,1130001070607,登記記録の閉鎖等,0,2022-12-19,2022-12-14,石津設計事務所株式会社,,株式会社,京都府,京都市上京区,宮垣町９１まむあん荒神口１０２,,26,102,6020853,,,2022-12-14,清算の結了等,,,2021-12-08,1,,,,,イシヅセッケイジムショ,0
148,1130002011329,登記記録の閉鎖等,0,2022-12-19,2022-12-12,有限会社ハイネス,,有限会社,京都府,京都市南区,上鳥羽山ノ本町５２番地の２,,26,107,6018176,,,2022-12-12,清算の結了等,,,2015-10-05,1,,,,,ハイネス,0
162,1180001040621,登記記録の閉鎖等,0,2022-12-19,2022-12-14,株式会社本町会館,,株式会社,愛知県,名古屋市天白区,植田山１丁目６０７番地,,23,116,4680001,,,2022-12-14,清算の結了等,,,2015-10-05,1,,,,,ホンマチカイカン,0
170,1180002044778,登記記録の閉鎖等,0,2022-12-19,2022-12-13,有限会社イワカ商事,,有限会社,愛知県,名古屋市中村区,沖田町８０番地,,23,105,4530825,,,2022-12-13,清算の結了等,,,2015-10-05,1,,,,,イワカショウジ,0
175,1180301028894,登記記録の閉鎖等,0,2022-12-19,2022-12-13,ＨＡ工機株式会社,,株式会社,愛知県,豊橋市,杉山町字天津１７２番地の２,,23,201,4413302,,,2022-12-13,清算の結了等,,,2016-02-12,1,,,,,エッチエーコウキ,0
178,1190003001868,登記記録の閉鎖等,0,2022-12-19,2022-12-14,アスミター合同会社,,合同会社,三重県,伊賀市,平野北谷４４７番地の１,,24,216,5180826,,,2022-12-14,清算の結了等,,,2015-10-05,1,,,,,アスミター,0
188,1270001006035,登記記録の閉鎖等,0,2022-12-19,2022-12-14,株式会社ＧＡＴＥ　ＰＬＡＳＴＩＣ,,株式会社,鳥取県,米子市,和田町２１６２番地１,,31,202,6830102,,,2022-12-14,清算の結了等,,,2015-10-05,1,,,,,ゲートプラスチック,0
195,1290002045360,登記記録の閉鎖等,0,2022-12-19,2022-12-14,嘉穂食品有限会社,,有限会社,福岡県,飯塚市,菰田６５５番地の１２,,40,205,8200015,,,2022-12-14,清算の結了等,,,2015-10-05,1,,,,,カホショクヒン,0
220,1380001016551,登記記録の閉鎖等,0,2022-12-19,2022-12-13,鈴屋金物株式会社,,株式会社,福島県,双葉郡富岡町,中央１丁目１９０番地,,07,543,9791112,,,2022-12-13,清算の結了等,,,2015-10-05,1,,,,,スズヤカナモノ,0
224,1400505000676,登記記録の閉鎖等,0,2022-12-19,2022-12-12,特定非営利活動法人ファンスポルト一関,,その他の設立登記法人,岩手県,一関市,大町４番２９号,,03,209,0210881,,,2022-12-12,清算の結了等,,,2015-10-05,1,,,,,ファンスポルトイチノセキ,0
225,1410001008000,登記記録の閉鎖等,0,2022-12-19,2022-12-15,タカヤナギ商事株式会社,,株式会社,秋田県,秋田市,大町２丁目４番４４号,,05,201,0100921,,,2022-12-15,清算の結了等,,,2015-10-05,1,,,,,タカヤナギショウジ,0
247,2010001193971,登記記録の閉鎖等,0,2022-12-19,2022-12-01,オーシャン・ホールディングス株式会社,,株式会社,沖縄県,豊見城市,字豊崎１番地４１１,,47,212,9010225,,,2022-12-01,合併による解散等,7360001008504,令和４年１２月１日沖縄県豊見城市字豊崎１番地４１１オリオンビール株式会社（7360001008504）に合併し解散,2018-08-10,1,,,,,オーシャンホールディングス,0
274,2010801031331,登記記録の閉鎖等,0,2022-12-19,2022-12-08,株式会社創新サービス,,株式会社,東京都,大田区,山王２丁目１番８号,,13,111,1430023,,,2022-12-08,清算の結了等,,,2020-10-23,1,,,,,ソウシンサービス,0
276,2010901006126,登記記録の閉鎖等,0,2022-12-19,2022-12-14,株式会社ステージ・オー,,株式会社,東京都,世田谷区,岡本１丁目８番４号,,13,112,1570076,,,2022-12-14,清算の結了等,,,2015-10-05,1,,,,,ステージオー,0
284,2011101092048,登記記録の閉鎖等,0,2022-12-19,2022-12-14,株式会社Ｌｅｅ,,株式会社,東京都,新宿区,新宿１丁目３０番１６号ルネ新宿御苑タワー９０２,,13,104,1600022,,,2022-12-14,清算の結了等,,,2020-07-30,1,,,,,リー,0
289,2011403002885,登記記録の閉鎖等,0,2022-12-19,2022-12-15,合同会社ひょうたんキング,,合同会社,東京都,板橋区,大山東町５９番１号,,13,119,1730014,,,2022-12-15,清算の結了等,,,2020-01-15,1,,,,,ヒョウタンキング,0
309,2013301024821,登記記録の閉鎖等,0,2022-12-19,2022-12-12,Ａｉ株式会社,,株式会社,東京都,豊島区,千川１丁目２７番９号,,13,116,1710041,,,2022-12-12,清算の結了等,,,2015-10-05,1,,,,,エーアイ,0
318,2020001108524,登記記録の閉鎖等,0,2022-12-19,2022-12-13,株式会社Ｗｉｔｈ,,株式会社,神奈川県,横浜市栄区,野七里１丁目２番１０－１０５３号,,14,115,2470024,,,2022-12-13,清算の結了等,,,2015-10-05,1,,,,,ウィズ,0
340,2040001025494,登記記録の閉鎖等,0,2022-12-19,2022-12-12,株式会社アルファアピ,,株式会社,千葉県,市川市,柏井町１丁目１６５２番地,,12,203,2720802,,,2022-12-12,清算の結了等,,,2015-10-05,1,,,,,アルファアピ,0
342,2040001073089,登記記録の閉鎖等,0,2022-12-19,2022-12-12,株式会社ユーズワークス,,株式会社,千葉県,船橋市,二和西４丁目３１番１号ハイネス船橋１０４号,,12,204,2740806,,,2022-12-12,清算の結了等,,,2015-10-05,1,,,,,ユーズワークス,0
345,2040002094588,登記記録の閉鎖等,0,2022-12-19,2022-12-13,板橋機械有限会社,,有限会社,千葉県,柏市,常盤台１２番１１号,,12,217,2770087,,,2022-12-13,清算の結了等,,,2015-10-05,1,,,,,イタバシキカイ,0
350,2070002003876,登記記録の閉鎖等,0,2022-12-19,2022-12-14,有限会社トレンディー,,有限会社,群馬県,前橋市,広瀬町１丁目３０番地の１２,,10,201,3710812,,,2022-12-14,清算の結了等,,,2015-10-05,1,,,,,トレンディー,0
373,2120001136011,登記記録の閉鎖等,0,2022-12-19,2022-12-16,スイッチオン株式会社,,株式会社,大阪府,大阪市中央区,南本町２丁目１番１号－９０４,,27,128,5410054,,,2022-12-16,清算の結了等,,,2015-10-05,1,,,,,スイッチオン,0
376,2120001148808,登記記録の閉鎖等,0,2022-12-19,2022-12-16,株式会社ユタカ工作所,,株式会社,大阪府,寝屋川市,石津元町１０番１２号,,27,215,5720025,,,2022-12-16,清算の結了等,,,2015-10-05,1,,,,,ユタカコウサクショ,0
392,2120102010734,登記記録の閉鎖等,0,2022-12-19,2022-12-15,有限会社堺介護センター・フレンズ,,有限会社,大阪府,堺市堺区,三国ヶ丘御幸通１番地２,,27,141,5900028,,,2022-12-15,清算の結了等,,,2015-10-05,1,,,,,サカイカイゴセンターフレンズ,0
395,2120901012286,登記記録の閉鎖等,0,2022-12-19,2022-12-16,株式会社ライベックス,,株式会社,大阪府,高槻市,南芥川町２０番２－４０３号,,27,207,5691124,,,2022-12-16,清算の結了等,,,2015-10-05,1,,,,,ライベックス,0
397,2130001017557,登記記録の閉鎖等,0,2022-12-19,2022-12-09,島津産業株式会社,,株式会社,京都府,京都市中京区,錦小路通堀川東入三文字町５７１番地嶋津マンション２０３号,,26,104,6048236,,,2022-12-09,合併による解散等,9130001017559,令和４年１２月１日京都市中京区錦小路通堀川東入三文字町５７１番地嶋津マンション２０３号株式会社島津直次郎商店（9130001017559）に合併し解散,2015-10-05,1,,,,,シマヅサンギョウ,0
408,2140002048344,登記記録の閉鎖等,0,2022-12-19,2022-12-15,有限会社グローバル企画,,有限会社,兵庫県,姫路市,網干区和久５１３番地の７,,28,201,6711227,,,2022-12-15,清算の結了等,,,2015-10-05,1,,,,,グローバルキカク,0
421,2180001104086,登記記録の閉鎖等,0,2022-12-19,2022-12-14,株式会社トレードプラネット,,株式会社,愛知県,名古屋市西区,牛島町６番１号,,23,104,4510046,,,2022-12-14,清算の結了等,,,2015-10-05,1,,,,,トレードプラネット,0
424,2180001149890,登記記録の閉鎖等,0,2022-12-19,2022-12-12,株式会社中高年起業総合研究所,,株式会社,愛知県,名古屋市西区,名駅２丁目３４番１７号セントラル名古屋１１０１号,,23,104,4510045,,,2022-12-12,清算の結了等,,,2022-02-07,1,,,,,チュウコウネンキギョウソウゴウケンキュウショ,0
428,2180002078379,登記記録の閉鎖等,0,2022-12-19,2022-12-13,丸河建築有限会社,,有限会社,愛知県,一宮市,東加賀野井字東川原７５番地,,23,203,4940016,,,2022-12-13,清算の結了等,,,2015-10-05,1,,,,,マルカワケンチク,0
430,2180003015075,登記記録の閉鎖等,0,2022-12-19,2022-12-13,合同会社ＯＲＩＮ,,合同会社,愛知県,春日井市,東野町６丁目１４番地１８,,23,206,4860817,,,2022-12-13,清算の結了等,,,2015-10-05,1,,,,,オリン,0
440,2190002015884,登記記録の閉鎖等,0,2022-12-19,2022-12-14,寺岡木材有限会社,,有限会社,三重県,松阪市,飯南町深野５８５番地１３,,24,204,5151301,,,2022-12-14,清算の結了等,,,2015-10-05,1,,,,,テラオカモクザイ,0
456,2290001070243,登記記録の閉鎖等,0,2022-12-19,2022-11-30,株式会社Ｈ・ハーモニー,,株式会社,福岡県,福岡市中央区,大手門１丁目８番２０号,,40,133,8100074,,,2022-11-30,清算の結了等,,,2015-10-05,1,,,,,,0
458,2290002048602,登記記録の閉鎖等,0,2022-12-19,2022-12-14,有限会社緒方印刷,,有限会社,福岡県,久留米市,南３丁目１２番６号,,40,203,8300051,,,2022-12-14,清算の結了等,,,2015-10-05,1,,,,,オガタインサツ,0
460,2290801008368,登記記録の閉鎖等,0,2022-12-19,2022-12-16,株式会社ＳＡＧＡ,,株式会社,福岡県,北九州市小倉北区,砂津１丁目２番１３号,,40,106,8020014,,,2022-12-16,清算の結了等,,,2015-10-05,1,,,,,サガ,0
494,2450002011378,登記記録の閉鎖等,0,2022-12-19,2022-12-15,有限会社丸敏産業,,有限会社,北海道,天塩郡天塩町,字ウブシ５１２２番地の３,,01,487,0983311,,,2022-12-15,清算の結了等,,,2015-10-05,1,,,,,マルトシサンギョウ,0
546,3011001107251,登記記録の閉鎖等,0,2022-12-19,2022-12-14,株式会社丸善薬業,,株式会社,東京都,武蔵野市,中町２丁目１番１５号３０２号室クリオレミントンハウス武蔵野,,13,203,1800006,,,2022-12-14,清算の結了等,,,2015-10-05,1,,,,,マルゼンヤクギョウ,0
555,3011103010056,登記記録の閉鎖等,0,2022-12-19,2022-12-13,ＢＳＳ合同会社,,合同会社,東京都,新宿区,西早稲田２丁目１７番３４号第２三池ビル１１３,,13,104,1690051,,,2022-12-13,清算の結了等,,,2020-09-30,1,,,,,ビーエスエス,0
566,3011601022271,登記記録の閉鎖等,0,2022-12-19,2022-12-08,株式会社ＳＫＴ,,株式会社,東京都,練馬区,旭丘１丁目７１番７号,,13,120,1760005,,,2022-12-08,清算の結了等,,,2017-12-19,1,,,,,エスケーティー,0
577,3012801000579,登記記録の閉鎖等,0,2022-12-19,2022-12-07,株式会社サニー商会,,株式会社,東京都,立川市,上砂町５丁目５８番３号,,13,202,1900032,,,2022-12-07,清算の結了等,,,2015-10-05,1,,,,,,0
578,3013102002216,登記記録の閉鎖等,0,2022-12-19,2022-12-16,有限会社百兵衛,,有限会社,東京都,あきる野市,山田６０３番地１２,,13,228,1900144,,,2022-12-16,清算の結了等,,,2015-10-05,1,,,,,ヒャクベエ,0
581,3020001018697,登記記録の閉鎖等,0,2022-12-19,2022-12-13,不二エンジニアリング株式会社,,株式会社,神奈川県,横浜市西区,みなとみらい４丁目６番２号みなとみらいグランドセントラルタワー,,14,103,2200012,,,2022-12-13,清算の結了等,,,2015-10-05,1,,,,,フジエンジニアリング,0
612,3040001033298,登記記録の閉鎖等,0,2022-12-19,2022-12-12,株式会社パシフィック・コロージョン,,株式会社,千葉県,鎌ケ谷市,丸山３丁目２番７１－１０号,,12,224,2730103,,,2022-12-12,清算の結了等,,,2015-10-05,1,,,,,パシフィックコロージョン,0
635,3100005007374,登記記録の閉鎖等,0,2022-12-19,2022-12-14,大町市石油販売協同組合,,その他の設立登記法人,長野県,大町市,平５０３３番地,,20,212,3980001,,,2022-12-14,清算の結了等,,,2015-10-05,1,,,,,オオマチシセキユハンバイ,0
647,3120001217272,登記記録の閉鎖等,0,2022-12-19,2022-12-13,株式会社エスライジング,,株式会社,大阪府,大阪市北区,兎我野町１１番１９号浪速地所ビル４０３号,,27,127,5300056,,,2022-12-13,清算の結了等,,,2018-11-20,1,,,,,エスライジング,0
672,3130005009351,登記記録の閉鎖等,0,2022-12-19,2022-12-12,特定非営利活動法人京都Ｂ．Ｍ．クラブ,,その他の設立登記法人,京都府,京丹後市,網野町島津２０９４番地の１,,26,212,6293121,,,2022-12-12,清算の結了等,,,2015-10-05,1,,,,,キョウトビーエムクラブ,0
673,3140001022092,登記記録の閉鎖等,0,2022-12-19,2022-12-14,株式会社ファミリートラベル,,株式会社,兵庫県,神戸市西区,井吹台東町１丁目１番地セリオ,,28,111,6512242,,,2022-12-14,清算の結了等,,,2015-10-05,1,,,,,ファミリートラベル,0
680,3180001018905,登記記録の閉鎖等,0,2022-12-19,2022-12-15,イトープロワークス株式会社,,株式会社,愛知県,名古屋市中川区,押元町２丁目８０番地,,23,110,4540841,,,2022-12-15,清算の結了等,,,2015-10-05,1,,,,,イトープロワークス,0
708,3240001031199,登記記録の閉鎖等,0,2022-12-19,2022-12-15,太洋石油販売株式会社,,株式会社,広島県,福山市,千田町３丁目６２番１１号,,34,207,7200017,,,2022-12-15,清算の結了等,,,2015-10-05,1,,,,,タイヨウセキユハンバイ,0
710,3240002021298,登記記録の閉鎖等,0,2022-12-19,2022-12-15,有限会社サンクスハウジング,,有限会社,広島県,広島市安佐南区,上安５丁目８番１９号,,34,105,7310154,,,2022-12-15,清算の結了等,,,2015-10-05,1,,,,,サンクスハウジング,0
713,3280002005132,登記記録の閉鎖等,0,2022-12-19,2022-12-16,有限会社市松天,,有限会社,島根県,出雲市,今市町１２０番地,,32,203,6930001,,,2022-12-16,清算の結了等,,,2015-10-05,1,,,,,イチマツテン,0
717,3290001080398,登記記録の閉鎖等,0,2022-12-19,2022-12-15,株式会社Ｃｏｎｓｔａｎｔｉｎａ,,株式会社,東京都,品川区,大井１丁目６番３号アゴラ大井町３階,,13,109,1400014,,,2022-12-15,清算の結了等,,,2018-02-01,1,,,,,コンスタンティーナ,0
738,3350002010315,登記記録の閉鎖等,0,2022-12-19,2022-12-14,有限会社末永産業,,有限会社,宮崎県,児湯郡新富町,大字新田６１８１番地８,,45,402,8891406,,,2022-12-14,清算の結了等,,,2015-10-05,1,,,,,スエナガサンギョウ,0
771,4010001135716,登記記録の閉鎖等,0,2022-12-19,2022-12-12,医療・健康サポート株式会社,,株式会社,千葉県,松戸市,大金平２丁目６８番地の１－１０２,,12,207,2700006,,,2022-12-12,清算の結了等,,,2015-10-05,1,,,,,イリョウケンコウサポート,0
780,4010005027026,登記記録の閉鎖等,0,2022-12-19,2022-12-08,ＨＫＲＪ　Ｈａｌｕｗａ特定目的会社,,その他の設立登記法人,東京都,千代田区,平河町１丁目６番１５号シルスフィア会計事務所内,,13,101,1020093,,,2022-12-08,清算の結了等,,,2017-06-27,1,,,,,エイチケーアールジェイハルーワ,0
800,4010602034110,登記記録の閉鎖等,0,2022-12-19,2022-12-12,有限会社イカルス・ジャパン,,有限会社,東京都,江東区,豊洲３丁目４番２－４２０１号,,13,108,1350061,,,2022-12-12,清算の結了等,,,2015-10-05,1,,,,,イカルスジャパン,0
801,4010701024086,登記記録の閉鎖等,0,2022-12-19,2022-12-15,株式会社ミユキ,,株式会社,東京都,品川区,西五反田６丁目１５番７号,,13,109,1410031,,,2022-12-15,清算の結了等,,,2015-10-05,1,,,,,ミユキ,0
823,4011301025160,登記記録の閉鎖等,0,2022-12-19,2022-12-08,マネージメントサポート株式会社,,株式会社,東京都,杉並区,高円寺南４丁目１１番８号,,13,115,1660003,,,2022-12-08,清算の結了等,,,2019-07-05,1,,,,,マネージメントサポート,0
842,4020001015710,登記記録の閉鎖等,0,2022-12-19,2022-12-12,株式会社日章設計,,株式会社,神奈川県,横浜市南区,南太田２丁目２９番地２２ユナイトステージ２０３号,,14,105,2320006,,,2022-12-12,清算の結了等,,,2015-10-05,1,,,,,,0
847,4020002086247,登記記録の閉鎖等,0,2022-12-19,2022-12-13,ケイアイケイ川崎医療開発有限会社,,有限会社,神奈川県,川崎市宮前区,南平台２番９号,,14,136,2160024,,,2022-12-13,清算の結了等,,,2015-10-05,1,,,,,ケイアイケイカワサキイリョウカイハツ,0
854,4030001013837,登記記録の閉鎖等,0,2022-12-19,2022-12-12,株式会社アークサウンド,,株式会社,埼玉県,さいたま市南区,曲本５丁目４番９号,,11,108,3360033,,,2022-12-12,清算の結了等,,,2015-10-05,1,,,,,アークサウンド,0
893,4100002024677,登記記録の閉鎖等,0,2022-12-19,2022-12-15,有限会社大津屋,,有限会社,長野県,塩尻市,大字北小野２０５番地７,,20,215,3990651,,,2022-12-15,清算の結了等,,,2015-10-05,1,,,,,オオツヤ,0
899,4120001118577,登記記録の閉鎖等,0,2022-12-19,2022-12-14,関西システム・エンジニアリング株式会社,,株式会社,大阪府,大阪市中央区,平野町３丁目１番９号,,27,128,5410046,,,2022-12-14,清算の結了等,,,2015-10-05,1,,,,,カンサイシステムエンジニアリング,0
916,4120901031474,登記記録の閉鎖等,0,2022-12-19,2022-12-12,株式会社プラスアップ,,株式会社,京都府,京都市右京区,太秦安井北御所町５－３７,,26,108,6168064,,,2022-12-12,清算の結了等,,,2015-10-05,1,,,,,プラスアップ,0
922,4130001062840,登記記録の閉鎖等,0,2022-12-19,2022-12-13,コムホマ株式会社,,株式会社,東京都,千代田区,神田佐久間町３丁目３８第５東ビル５Ｆ,,13,101,1010025,,,2022-12-13,清算の結了等,,,2018-08-31,1,,,,,コムホマ,0
951,4190002001049,登記記録の閉鎖等,0,2022-12-19,2022-12-15,有限会社寺西製麺,00075819,有限会社,三重県,津市,栄町１丁目９２２番地,,24,201,5140004,,,2022-12-15,清算の結了等,,,2015-10-05,1,,,,,テラニシセイメン,0
952,4190002002534,登記記録の閉鎖等,0,2022-12-19,2022-12-14,有限会社アイテイオー建築,,有限会社,三重県,津市,一志町石橋２６２番地,,24,201,5152525,,,2022-12-14,清算の結了等,,,2015-10-05,1,,,,,アイテイオーケンチク,0
958,4200002022340,登記記録の閉鎖等,0,2022-12-19,2022-12-15,有限会社陶美,,有限会社,岐阜県,多治見市,笠原町３０３３番地,,21,204,5070901,,,2022-12-15,清算の結了等,,,2015-10-05,1,,,,,トウビ,0
962,4230001012364,登記記録の閉鎖等,0,2022-12-19,2022-12-15,株式会社インテリアしまや,,株式会社,富山県,射水市,本町２丁目５番１５号,,16,211,9340011,,,2022-12-15,清算の結了等,,,2015-10-05,1,,,,,インテリアシマヤ,0
963,4240001046650,登記記録の閉鎖等,0,2022-12-19,2022-12-15,株式会社村本興業,,株式会社,広島県,広島市安佐南区,八木９丁目２０番１２－１０３号,,34,105,7310101,,,2022-12-15,清算の結了等,,,2015-10-05,1,,,,,ムラモトコウギョウ,0
976,4290003007282,登記記録の閉鎖等,0,2022-12-19,2022-12-14,合同会社はたま事務所,,合同会社,福岡県,朝倉市,甘木１９３番地３ベスタ甘木３０１号,,40,228,8380068,,,2022-12-14,清算の結了等,,,2017-06-23,1,,,,,ハタマジムショ,0
981,4290803002053,登記記録の閉鎖等,0,2022-12-19,2022-12-16,ＮＥＸＴ　ＩＮＮＯＶＡＴＩＯＮ合同会社,,合同会社,福岡県,北九州市八幡西区,星ケ丘３丁目１２番１６号,,40,109,8071264,,,2022-12-16,清算の結了等,,,2015-10-05,1,,,,,,0
985,4310002011902,登記記録の閉鎖等,0,2022-12-19,2022-12-15,有限会社山新石油,,有限会社,長崎県,佐世保市,宮田町１番２３号,,42,202,8570032,,,2022-12-15,清算の結了等,,,2015-10-05,1,,,,,ヤマシンセキユ,0
986,4310002011992,登記記録の閉鎖等,0,2022-12-19,2022-12-15,有限会社ユー・テック,,有限会社,長崎県,佐世保市,小舟町１０番地第２,,42,202,8570114,,,2022-12-15,清算の結了等,,,2015-10-05,1,,,,,ユーテック,0
1004,4380002032396,登記記録の閉鎖等,0,2022-12-19,2022-12-13,田勢有限会社,,有限会社,福島県,会津若松市,神指町高瀬３２番地,,07,202,9650063,,,2022-12-13,清算の結了等,,,2015-10-05,1,,,,,,0
1016,4430005014592,登記記録の閉鎖等,0,2022-12-19,2022-12-15,社会保険労務士法人高木事務所,,その他の設立登記法人,北海道,江別市,野幌屯田町１９番地の７,,01,217,0690803,,,2022-12-15,清算の結了等,,,2022-11-07,1,,,,,タカギジムショ,0
1032,5010001156158,登記記録の閉鎖等,0,2022-12-19,2022-11-28,株式会社東京小僧寿し,,株式会社,東京都,中央区,日本橋蛎殻町１丁目５番６号,,13,102,1030014,,,2022-11-28,合併による解散等,6012801009114,令和２年１１月１日東京都中央区日本橋蛎殻町一丁目５番６号株式会社小僧寿し（6012801009114）に合併し解散,2015-10-05,1,,,,,トウキョウコゾウスシ,0
1045,5010403019458,登記記録の閉鎖等,0,2022-12-19,2022-12-13,合同会社日本レスキュードローン協会,,合同会社,埼玉県,さいたま市西区,大字指扇１７５３番地,,11,101,3310047,,,2022-12-13,清算の結了等,,,2018-10-05,1,,,,,ニホンレスキュードローンキョウカイ,0
1057,5010901038554,登記記録の閉鎖等,0,2022-12-19,2022-12-13,株式会社ゲートリバー,,株式会社,東京都,中央区,勝どき５丁目５番１４号,,13,102,1040054,,,2022-12-13,清算の結了等,,,2016-07-27,1,,,,,ゲートリバー,0
1082,5012401000606,登記記録の閉鎖等,0,2022-12-19,2022-12-16,株式会社サクライハウジング,,株式会社,東京都,調布市,菊野台２丁目４３番地９,,13,208,1820007,,,2022-12-16,清算の結了等,,,2015-10-05,1,,,,,サクライハウジング,0
1083,5012401001538,登記記録の閉鎖等,0,2022-12-19,2022-12-14,株式会社ヘルス,,株式会社,東京都,府中市,宮町２丁目１５番１３号,,13,206,1830023,,,2022-12-14,合併による解散等,9010401089706,令和４年１２月１日東京都港区港南二丁目１６番１号ＭＥＤ　Ｃｏｍｍｕｎｉｃａｔｉｏｎｓ株式会社（9010401089706）に合併し解散,2015-10-05,1,,,,,ヘルス,0
1091,5013401002105,登記記録の閉鎖等,0,2022-12-19,2022-12-14,北斗工業株式会社,,株式会社,神奈川県,川崎市多摩区,菅稲田堤２丁目２番２７号,,14,135,2140003,,,2022-12-14,清算の結了等,,,2015-10-05,1,,,,,ホクトコウギョウ,0
1113,5030002029658,登記記録の閉鎖等,0,2022-12-19,2022-12-12,有限会社志摩建装,,有限会社,埼玉県,所沢市,大字山口２００４番地の１,,11,208,3591145,,,2022-12-12,清算の結了等,,,2015-10-05,1,,,,,シマケンソウ,0
1121,5040002040234,登記記録の閉鎖等,0,2022-12-19,2022-12-13,有限会社アットイーズ,,有限会社,千葉県,浦安市,入船５丁目２９番２０２号,,12,227,2790012,,,2022-12-13,清算の結了等,,,2015-10-05,1,,,,,アットイーズ,0
1136,5080102006189,登記記録の閉鎖等,0,2022-12-19,2022-12-15,合同保険事務所有限会社,,有限会社,静岡県,沼津市,豊町１番地の３,,22,203,4100018,,,2022-12-15,清算の結了等,,,2015-10-05,1,,,,,ゴウドウホケンジムショ,0
1137,5080102008136,登記記録の閉鎖等,0,2022-12-19,2022-12-15,有限会社オーネス,,有限会社,静岡県,伊豆市,柏久保６３１番地の８,,22,222,4102407,,,2022-12-15,清算の結了等,,,2015-10-05,1,,,,,オーネス,0
1138,5080102018424,登記記録の閉鎖等,0,2022-12-19,2022-12-15,有限会社東京薬品,,有限会社,静岡県,熱海市,銀座町３番５号,,22,205,4130013,,,2022-12-15,清算の結了等,,,2015-10-05,1,,,,,トウキョウヤクヒン,0
1139,5080401003779,登記記録の閉鎖等,0,2022-12-19,2022-12-16,日本アイデア株式会社,,株式会社,静岡県,浜松市東区,貴平町１７１５番地,,22,132,4313104,,,2022-12-16,清算の結了等,,,2015-10-05,1,,,,,ニホンアイデア,0
1149,5100002005627,登記記録の閉鎖等,0,2022-12-19,2022-12-15,有限会社ワイズコーポレーション,,有限会社,長野県,長野市,川中島町原１４０１番地,,20,201,3812224,,,2022-12-15,清算の結了等,,,2015-10-05,1,,,,,ワイズコーポレーション,0
1157,5120001155660,登記記録の閉鎖等,0,2022-12-19,2022-12-16,京阪部品株式会社,,株式会社,大阪府,守口市,大枝南町１８番１０号,,27,209,5700051,,,2022-12-16,清算の結了等,,,2015-10-05,1,,,,,ケイハンブヒン,0
1185,5130001040036,登記記録の閉鎖等,0,2022-12-19,2022-12-09,株式会社ふじＰ＆Ｍ,,株式会社,京都府,京都市北区,紫竹西南町３６番地,,26,101,6038206,,,2022-12-09,清算の結了等,,,2015-10-05,1,,,,,フジピーアンドエム,0
1188,5130002004931,登記記録の閉鎖等,0,2022-12-19,2022-12-09,有限会社岡崎興産,,有限会社,京都府,京都市左京区,黒谷町１３番地,,26,103,6068331,,,2022-12-09,清算の結了等,,,2015-10-05,1,,,,,オカザキコウサン,0
1198,5160002004813,登記記録の閉鎖等,0,2022-12-19,2022-12-15,有限会社クリエイト・ＪＰ,,有限会社,滋賀県,大津市,北小松１７４８番地の１４３,,25,201,5200501,,,2022-12-15,清算の結了等,,,2022-10-14,1,,,,,,0
1202,5180001142967,登記記録の閉鎖等,0,2022-12-19,2022-12-14,株式会社ＡＭＹ,,株式会社,愛知県,名古屋市中区,大須２丁目９番３３号,,23,106,4600011,,,2022-12-14,清算の結了等,,,2020-09-29,1,,,,,アミー,0
1207,5180005014205,登記記録の閉鎖等,0,2022-12-19,2022-12-16,一般社団法人トータルライフサポート,,その他の設立登記法人,愛知県,名古屋市中村区,名駅５丁目３３番２１号,,23,105,4500002,,,2022-12-16,清算の結了等,,,2015-10-05,1,,,,,トータルライフサポート,0
1221,5240001026809,登記記録の閉鎖等,0,2022-12-19,2022-12-15,株式会社藤岡酒造店,,株式会社,広島県,呉市,音戸町畑３丁目１６番１５号,,34,202,7371211,,,2022-12-15,清算の結了等,,,2015-10-05,1,,,,,フジオカシュゾウテン,0
1235,5290802011145,登記記録の閉鎖等,0,2022-12-19,2022-12-16,有限会社エトワール,,有限会社,福岡県,北九州市門司区,東新町１丁目１番２３－１４０１号,,40,101,8000055,,,2022-12-16,清算の結了等,,,2015-10-05,1,,,,,エトワール,0
1236,5290802016994,登記記録の閉鎖等,0,2022-12-19,2022-12-15,有限会社アサヒ技研,,有限会社,福岡県,遠賀郡水巻町,古賀３丁目８番３９号,,40,382,8070012,,,2022-12-15,清算の結了等,,,2015-10-05,1,,,,,アサヒギケン,0
1242,5360001024073,登記記録の閉鎖等,0,2022-12-19,2022-12-02,株式会社ＫＮクリエイト,,株式会社,沖縄県,宜野湾市,真栄原３丁目２０番１２号２Ｆ,,47,205,9012215,,,2022-12-02,清算の結了等,,,2018-06-04,1,,,,,ケイエヌクリエイト,0
1275,6010005032651,登記記録の閉鎖等,0,2022-12-19,2022-12-15,一般社団法人新高円寺ホールディングス,,その他の設立登記法人,東京都,千代田区,内幸町２丁目１番６号,,13,101,1000011,,,2022-12-15,清算の結了等,,,2020-12-07,1,,,,,シンコウエンジホールディングス,0
1300,6011101063243,登記記録の閉鎖等,0,2022-12-19,2022-12-14,株式会社Ｋリズム,,株式会社,東京都,新宿区,歌舞伎町２丁目４番１４－２０４号,,13,104,1600021,,,2022-12-14,清算の結了等,,,2015-10-05,1,,,,,ケーリズム,0
1327,6013202002377,登記記録の閉鎖等,0,2022-12-19,2022-12-13,有限会社ケイズインターワークス,,有限会社,京都府,京都市山科区,大塚丹田２１番３号,,26,110,6078136,,,2022-12-13,清算の結了等,,,2015-10-05,1,,,,,ケイズインターワークス,0
1339,6020002027810,登記記録の閉鎖等,0,2022-12-19,2022-12-15,有限会社ハマシン,,有限会社,神奈川県,横浜市神奈川区,子安通１丁目９８番地,,14,102,2210021,,,2022-12-15,清算の結了等,,,2015-10-05,1,,,,,ハマシン,0
1355,6030001120219,登記記録の閉鎖等,0,2022-12-19,2022-12-13,株式会社ＩＮＴＥＲＩＯＲやま,,株式会社,埼玉県,川口市,柳崎１丁目２１番１号,,11,203,3330861,,,2022-12-13,清算の結了等,,,2017-05-15,1,,,,,インテリアヤマ,0
1359,6030002029863,登記記録の閉鎖等,0,2022-12-19,2022-12-14,有限会社青雲,,有限会社,埼玉県,所沢市,小手指南３丁目１６番地の８,,11,208,3591146,,,2022-12-14,清算の結了等,,,2015-10-05,1,,,,,セイウン,0
1372,6060005009307,登記記録の閉鎖等,0,2022-12-19,2022-12-12,特定非営利活動法人ルミエール,,その他の設立登記法人,栃木県,塩谷郡高根沢町,宝石台２丁目７番地４,,09,386,3291231,,,2022-12-12,清算の結了等,,,2017-03-29,1,,,,,ルミエール,0
1379,6080401003836,登記記録の閉鎖等,0,2022-12-19,2022-12-15,株式会社新野鉄工所,,株式会社,静岡県,浜松市中区,助信町６番２９号,,22,131,4300903,,,2022-12-15,清算の結了等,,,2015-10-05,1,,,,,ニイノテッコウショ,0
1384,6100002037834,登記記録の閉鎖等,0,2022-12-19,2022-12-14,有限会社映輝,,有限会社,長野県,飯田市,上郷黒田７番地１,,20,205,3950004,,,2022-12-14,清算の結了等,,,2015-10-05,1,,,,,エイキ,0
1413,6130003008096,登記記録の閉鎖等,0,2022-12-19,2022-12-13,合同会社こぶたん,,合同会社,京都府,城陽市,寺田林ノ口１１－３６５,,26,207,6100121,,,2022-12-13,清算の結了等,,,2022-08-19,1,,,,,コブタン,0
1431,6180301027669,登記記録の閉鎖等,0,2022-12-19,2022-12-14,ＢＨＰ株式会社,,株式会社,愛知県,刈谷市,桜町１丁目４６番地４,,23,210,4480028,,,2022-12-14,清算の結了等,,,2015-10-05,1,,,,,ビーエイチピー,0
1434,6180302023568,登記記録の閉鎖等,0,2022-12-19,2022-12-14,有限会社丸野工業,,有限会社,愛知県,豊田市,堤町六本松１番地１,,23,211,4730932,,,2022-12-14,清算の結了等,,,2015-10-05,1,,,,,マルノコウギョウ,0
1441,6210002013543,登記記録の閉鎖等,0,2022-12-19,2022-12-15,有限会社ヨネクラ木工,,有限会社,福井県,鯖江市,石田下町第７号３番地の４,,18,207,9160081,,,2022-12-15,清算の結了等,,,2015-10-05,1,,,,,ヨネクラモッコウ,0
1471,6370203000416,登記記録の閉鎖等,0,2022-12-19,2022-12-09,合同会社まごころ,,合同会社,宮城県,加美郡加美町,字一本杉２２４番地１,,04,445,9814262,,,2022-12-09,清算の結了等,,,2015-10-05,1,,,,,マゴコロ,0
1489,6450001010625,登記記録の閉鎖等,0,2022-12-19,2022-12-15,オホーツク紋別観光株式会社,,株式会社,北海道,紋別市,緑町４丁目１１番４号,,01,219,0940014,,,2022-12-15,清算の結了等,,,2015-10-05,1,,,,,オホーツクモンベツカンコウ,0
1493,6480001005110,登記記録の閉鎖等,0,2022-12-19,2022-12-15,仲須碎石工業株式会社,,株式会社,徳島県,鳴門市,大津町大幸字井利ノ口４番地,,36,202,7720044,,,2022-12-15,清算の結了等,,,2015-10-05,1,,,,,ナカスサイセキコウギョウ,0
1495,6480002014176,登記記録の閉鎖等,0,2022-12-19,2022-12-16,有限会社沼島水産,,有限会社,徳島県,海部郡牟岐町,大字灘字宮田２３番地,00006061,36,383,7750005,,,2022-12-16,清算の結了等,,,2015-10-05,1,,,,,ヌシマスイサン,0
1499,6500002023190,登記記録の閉鎖等,0,2022-12-19,2022-12-12,有限会社宮崎商会,,有限会社,愛媛県,宇和島市,坂下津丙１０番地５,,38,203,7980087,,,2022-12-12,清算の結了等,,,2015-10-05,1,,,,,ミヤザキショウカイ,0
1509,7010003019815,登記記録の閉鎖等,0,2022-12-19,2022-12-13,さくらプロパティマネジメント合同会社,,合同会社,東京都,中央区,佃２丁目１番１－７１４号,,13,102,1040051,,,2022-12-13,清算の結了等,,,2015-10-05,1,,,,,サクラプロパティマネジメント,0
1514,7010401133820,登記記録の閉鎖等,0,2022-12-19,2022-12-15,株式会社ＫＰマネジメント,,株式会社,群馬県,前橋市,表町２丁目３０番８号,,10,201,3710024,,,2022-12-15,合併による解散等,1011001018021,令和４年１２月１日東京都港区虎ノ門四丁目３番２０号株式会社コシダカプロダクツ（1011001018021）に合併し解散,2017-09-19,1,,,,,ケーピーマネジメント,0
1518,7010402010366,登記記録の閉鎖等,0,2022-12-19,2022-12-15,有限会社みどりミュージック,,有限会社,静岡県,御殿場市,東田中１４１７番地の２ファミールヴィラ御殿場４２７,,22,215,4120026,,,2022-12-15,清算の結了等,,,2015-10-05,1,,,,,ミドリミュージック,0
1531,7011001110334,登記記録の閉鎖等,0,2022-12-19,2022-12-13,株式会社フォトブース・ジャパン,,株式会社,東京都,目黒区,中目黒４丁目１１番７号３Ｆ,,13,110,1530061,,,2022-12-13,清算の結了等,,,2016-04-11,1,,,,,フォトブースジャパン,0
1548,7011602006889,登記記録の閉鎖等,0,2022-12-19,2022-12-13,有限会社デザインポート,,有限会社,東京都,練馬区,春日町１丁目４番３号芙蓉館２０２号,,13,120,1790074,,,2022-12-13,清算の結了等,,,2015-10-05,1,,,,,デザインポート,0
1553,7011801040615,登記記録の閉鎖等,0,2022-12-19,2022-12-06,株式会社ゲームセオリー,,株式会社,東京都,足立区,西新井栄町１丁目１８番１１－１４０９号,,13,121,1230843,,,2022-12-06,清算の結了等,,,2022-04-20,1,,,,,ゲームセオリー,0
1559,7020001060340,登記記録の閉鎖等,0,2022-12-19,2022-12-14,株式会社かいかや,,株式会社,神奈川県,横浜市中区,新港２丁目２番１号,,14,104,2310001,,,2022-12-14,清算の結了等,,,2015-10-05,1,,,,,カイカヤ,0
1565,7021001001838,登記記録の閉鎖等,0,2022-12-19,2022-12-12,廣野土木株式会社,,株式会社,神奈川県,藤沢市,湘南台１丁目３１番地の９,,14,205,2520804,,,2022-12-12,清算の結了等,,,2015-10-05,1,,,,,ヒロノドボク,0
1582,7030001108592,登記記録の閉鎖等,0,2022-12-19,2022-12-14,Ａｌｌｐａｙ　Ｊａｐａｎ株式会社,,株式会社,東京都,新宿区,西新宿６丁目５－１新宿アイランドタワー２０Ｆ,,13,104,1600023,,,2022-12-14,清算の結了等,,,2015-10-05,1,,,,,オールペイジャパン,0
1592,7040001061295,登記記録の閉鎖等,0,2022-12-19,2022-12-13,匝瑳タクシー株式会社,,株式会社,千葉県,匝瑳市,野手１３２７番地１,,12,235,2893181,,,2022-12-13,清算の結了等,,,2015-10-05,1,,,,,ソウサタクシー,0
1619,7100002017026,登記記録の閉鎖等,0,2022-12-19,2022-12-15,有限会社イシダ電機,,有限会社,長野県,飯山市,大字照里９９２番地４,,20,213,3892413,,,2022-12-15,清算の結了等,,,2015-10-05,1,,,,,イシダデンキ,0
1620,7100005008988,登記記録の閉鎖等,0,2022-12-19,2022-12-14,伊那中小企業振興協同組合,,その他の設立登記法人,長野県,駒ヶ根市,北町２２番１号,,20,210,3994111,,,2022-12-14,清算の結了等,,,2015-10-05,1,,,,,イナチュウショウキギョウシンコウ,0
1622,7110001035861,登記記録の閉鎖等,0,2022-12-19,2022-12-15,株式会社スリー・ツリー,,株式会社,新潟県,長岡市,西新町２丁目３番１４号,,15,202,9400024,,,2022-12-15,清算の結了等,,,2021-06-17,1,,,,,スリーツリー,0
1633,7120001190029,登記記録の閉鎖等,0,2022-12-19,2022-12-14,株式会社アーキエステート,,株式会社,大阪府,大阪市此花区,梅香１丁目８番１１号,,27,104,5540013,,,2022-12-14,清算の結了等,,,2015-10-05,1,,,,,アーキエステート,0
1641,7120102026486,登記記録の閉鎖等,0,2022-12-19,2022-12-15,有限会社ワイエスプラン,,有限会社,大阪府,泉大津市,条南町５番２７号,,27,206,5950016,,,2022-12-15,清算の結了等,,,2015-10-05,1,,,,,ワイエスプラン,0
1643,7122002010917,登記記録の閉鎖等,0,2022-12-19,2022-12-16,有限会社ミナミ陸運,,有限会社,大阪府,東大阪市,東鴻池町２丁目４番４０,,27,227,5780973,,,2022-12-16,清算の結了等,,,2015-10-05,1,,,,,ミナミリクウン,0
1654,7170001009364,登記記録の閉鎖等,0,2022-12-19,2022-12-15,紀南パンジー株式会社,,株式会社,和歌山県,田辺市,中辺路町川合１４３８番地,,30,206,6461417,,,2022-12-15,合併による解散等,7120001039572,令和４年１２月１日大阪市浪速区日本橋東一丁目１１番８号株式会社パンジー（7120001039572）に合併し解散,2015-10-05,1,,,,,キナンパンジー,0
1659,7180001112902,登記記録の閉鎖等,0,2022-12-19,2022-12-15,株式会社ヴェルディー,,株式会社,愛知県,岩倉市,神野町川添３７,,23,228,4820033,,,2022-12-15,清算の結了等,,,2015-10-05,1,,,,,ヴェルディー,0
1666,7180005019516,登記記録の閉鎖等,0,2022-12-19,2022-12-15,一般社団法人社会医療協会,,その他の設立登記法人,愛知県,名古屋市東区,東桜１丁目１０番２９号パークサイドビル栄６階,,23,102,4610005,,,2022-12-15,清算の結了等,,,2021-11-16,1,,,,,シャカイイリョウキョウカイ,0
1679,7220002001934,登記記録の閉鎖等,0,2022-12-19,2022-12-14,有限会社金谷金属工芸,,有限会社,石川県,金沢市,福増町南４１番１０,,17,201,9200376,,,2022-12-14,清算の結了等,,,2015-10-05,1,,,,,カナヤキンゾクコウゲイ,0
1701,7310005003605,登記記録の閉鎖等,0,2022-12-19,2022-12-15,協業組合西彼杵車検センター,,その他の設立登記法人,長崎県,西海市,西彼町平山郷２４１９番地,,42,212,8513425,,,2022-12-15,清算の結了等,,,2015-10-05,1,,,,,ニシソノギシャケンセンター,0
1702,7340002014858,登記記録の閉鎖等,0,2022-12-19,2022-12-15,有限会社田島商店,,有限会社,鹿児島県,伊佐市,菱刈荒田２３９６番地２,,46,224,8952811,,,2022-12-15,清算の結了等,,,2015-10-05,1,,,,,タジマショウテン,0
1743,8010003032668,登記記録の閉鎖等,0,2022-12-19,2022-12-14,オードリー合同会社,,合同会社,東京都,台東区,浅草１丁目３７番６号ライオンズマンション雷門３０７,,13,106,1110032,,,2022-12-14,清算の結了等,,,2020-07-27,1,,,,,オードリー,0
1745,8010102000807,登記記録の閉鎖等,0,2022-12-19,2022-11-28,有限会社井上機工,,有限会社,東京都,八王子市,犬目町１０９９番地,,13,201,1930802,,,2022-11-28,清算の結了等,,,2015-10-05,1,,,,,イノウエキコウ,0
1751,8010402008855,登記記録の閉鎖等,0,2022-12-19,2022-12-08,有限会社寺内デザイン事務所,,有限会社,東京都,杉並区,浜田山３丁目２２番９号,,13,115,1680065,,,2022-12-08,清算の結了等,,,2015-10-05,1,,,,,テラウチデザインジムショ,0
1758,8010603006047,登記記録の閉鎖等,0,2022-12-19,2022-12-14,Ｌｏｂｏ合同会社,,合同会社,茨城県,鉾田市,滝浜６２１番地２９０,,08,234,3111423,,,2022-12-14,清算の結了等,,,2015-10-05,1,,,,,ロボ,0
1783,8011102015613,登記記録の閉鎖等,0,2022-12-19,2022-12-08,有限会社ユイビーデザインスタジオ,,有限会社,東京都,杉並区,成田東２丁目３９番２７－３０１号,,13,115,1660015,,,2022-12-08,清算の結了等,,,2015-10-05,1,,,,,ユイビーデザインスタジオ,0
1788,8011601019049,登記記録の閉鎖等,0,2022-12-19,2022-12-12,株式会社コミュニケーションパワー,,株式会社,東京都,練馬区,光が丘３丁目９番３－１３０５号,,13,120,1790072,,,2022-12-12,清算の結了等,,,2015-10-05,1,,,,,コミュニケーションパワー,0
1798,8013201014272,登記記録の閉鎖等,0,2022-12-19,2022-12-14,株式会社ＨＩＴＯＭＩ　ＮＥＷ　ＹＯＲＫ,,株式会社,東京都,目黒区,目黒４丁目１４番４－３０３号,,13,110,1530063,,,2022-12-14,清算の結了等,,,2015-10-05,1,,,,,ヒトミニューヨーク,0
1805,8021001035199,登記記録の閉鎖等,0,2022-12-19,2022-12-13,株式会社カレナ,,株式会社,神奈川県,小田原市,本町１丁目１３番４３号,,14,206,2500012,,,2022-12-13,清算の結了等,,,2015-10-05,1,,,,,カレナ,0
1818,8040001026850,登記記録の閉鎖等,0,2022-12-19,2022-12-12,株式会社谷岡,,株式会社,千葉県,市川市,相之川３丁目７番７号,,12,203,2720143,,,2022-12-12,清算の結了等,,,2015-10-05,1,,,,,タニオカ,0
1830,8080402013989,登記記録の閉鎖等,0,2022-12-19,2022-12-15,有限会社佐井デザイン事務所,,有限会社,静岡県,浜松市中区,富塚町３４７５番地の１,00080129,22,131,4328002,,,2022-12-15,清算の結了等,,,2015-10-05,1,,,,,サイデザインジムショ,0
1837,8110002000418,登記記録の閉鎖等,0,2022-12-19,2022-12-15,有限会社アクティヴ・キー,,有限会社,新潟県,新潟市中央区,上所１丁目１２番４号,,15,103,9500994,,,2022-12-15,清算の結了等,,,2015-10-05,1,,,,,アクティヴキー,0
1839,8110002025720,登記記録の閉鎖等,0,2022-12-19,2022-12-16,有限会社中一組,,有限会社,新潟県,中魚沼郡津南町,大字穴藤１８６番地,,15,482,9498315,,,2022-12-16,清算の結了等,,,2015-10-05,1,,,,,ナカイチグミ,0
1862,8120901016678,登記記録の閉鎖等,0,2022-12-19,2022-12-15,いぐち薬局株式会社,,株式会社,大阪府,門真市,野里町１４番２９号,,27,223,5710079,,,2022-12-15,清算の結了等,,,2015-10-05,1,,,,,イグチヤッキョク,0
1875,8140001000597,登記記録の閉鎖等,0,2022-12-19,2022-12-13,中島企業株式会社,,株式会社,大阪府,大阪市淀川区,西中島３丁目２０番９号,,27,123,5320011,,,2022-12-13,清算の結了等,,,2015-10-05,1,,,,,ナカジマキギョウ,0
1898,8180302019325,登記記録の閉鎖等,0,2022-12-19,2022-12-14,有限会社外装屋,,有限会社,愛知県,知立市,牛田町コネハサマ３８番地６５,,23,225,4720007,,,2022-12-14,清算の結了等,,,2015-10-05,1,,,,,ガイソウヤ,0
1901,8190002002679,登記記録の閉鎖等,0,2022-12-19,2022-12-14,有限会社エーアイ・エコサポート,,有限会社,三重県,津市,高茶屋５丁目４番４７号,,24,201,5140819,,,2022-12-14,清算の結了等,,,2015-10-05,1,,,,,エーアイエコサポート,0
1910,8240001018035,登記記録の閉鎖等,0,2022-12-19,2022-12-15,株式会社アクア・エコ,,株式会社,広島県,広島市中区,東平塚町３番２８号,,34,101,7300025,,,2022-12-15,清算の結了等,,,2015-10-05,1,,,,,アクアエコ,0
1917,8260002016465,登記記録の閉鎖等,0,2022-12-19,2022-12-16,有限会社印刷の祥文堂,,有限会社,岡山県,倉敷市,中央２丁目４番６号,,33,202,7100046,,,2022-12-16,清算の結了等,,,2015-10-05,1,,,,,インサツノショウブンドウ,0
1921,8280001004469,登記記録の閉鎖等,0,2022-12-19,2022-12-16,サンリゾート株式会社,,株式会社,島根県,浜田市,旭町丸原７０番地１,,32,202,6970426,,,2022-12-16,清算の結了等,,,2015-10-05,1,,,,,サンリゾート,0
1937,8310005003604,登記記録の閉鎖等,0,2022-12-19,2022-12-15,西彼総合自動車整備協業組合,,その他の設立登記法人,長崎県,西海市,西彼町平山郷２４１９番地,,42,212,8513425,,,2022-12-15,清算の結了等,,,2015-10-05,1,,,,,セイヒソウゴウジドウシャセイビ,0
1943,8370002010424,登記記録の閉鎖等,0,2022-12-19,2022-12-13,有限会社カトー総合企業,,有限会社,宮城県,仙台市青葉区,宮町３丁目８番３８号,,04,101,9800004,,,2022-12-13,清算の結了等,,,2015-10-05,1,,,,,カトーソウゴウキギョウ,0
1951,8400502000276,登記記録の閉鎖等,0,2022-12-19,2022-12-14,有限会社好観堂,,有限会社,岩手県,一関市,山目字十二神１２３番地の２,,03,209,0210036,,,2022-12-14,清算の結了等,,,2015-10-05,1,,,,,コウカンドウ,0
1964,8490001004415,登記記録の閉鎖等,0,2022-12-19,2022-12-15,株式会社ライテック,,株式会社,高知県,高知市,土佐山弘瀬１７９２番地,,39,201,7813203,,,2022-12-15,清算の結了等,,,2015-10-05,1,,,,,ライテック,0
1976,9010002020466,登記記録の閉鎖等,0,2022-12-19,2022-12-12,株式会社尚光,,株式会社,東京都,江東区,豊洲６丁目５番１号,,13,108,1350061,,,2022-12-12,清算の結了等,,,2015-10-05,1,,,,,ナオミツ,0
1977,9010003036874,登記記録の閉鎖等,0,2022-12-19,2022-12-13,リオアセットマネジメント合同会社,,合同会社,東京都,中央区,銀座１丁目２２ー１１,,13,102,1040061,,,2022-12-13,清算の結了等,,,2022-02-17,1,,,,,リオアセットマネジメント,0
2008,9011101026486,登記記録の閉鎖等,0,2022-12-19,2022-12-13,株式会社竜馬インターナショナル,,株式会社,栃木県,那須郡那須町,大字高久乙６０３番地８,,09,407,3250303,,,2022-12-13,清算の結了等,,,2015-10-05,1,,,,,リョウマインターナショナル,0
2022,9011801003891,登記記録の閉鎖等,0,2022-12-19,2022-12-15,株式会社芳賀工業所,,株式会社,東京都,葛飾区,西水元１丁目２８番１０号,,13,122,1250031,,,2022-12-15,清算の結了等,,,2015-10-05,1,,,,,ハガコウギョウショ,0
2043,9020001066633,登記記録の閉鎖等,0,2022-12-19,2022-12-15,塚田電気工業株式会社,,株式会社,神奈川県,川崎市高津区,溝口３丁目１０番２７号,,14,134,2130001,,,2022-12-15,清算の結了等,,,2015-10-05,1,,,,,ツカダデンキコウギョウ,0
2049,9020002009657,登記記録の閉鎖等,0,2022-12-19,2022-12-13,有限会社キディ,,有限会社,神奈川県,横浜市磯子区,洋光台２丁目１番３０－１０１号,,14,107,2350045,,,2022-12-13,清算の結了等,,,2015-10-05,1,,,,,キディ,0
2073,9060001019810,登記記録の閉鎖等,0,2022-12-19,2022-12-12,株式会社フロンティア酒巻会計事務所,,株式会社,栃木県,足利市,通７丁目３１３３番地２ラ・ヴィール足利１０１,,09,202,3260814,,,2022-12-12,清算の結了等,,,2015-10-05,1,,,,,フロンティアサカマキカイケイジムショ,0
2075,9080101022266,登記記録の閉鎖等,0,2022-12-19,2022-12-15,株式会社アルファハウス東海,,株式会社,静岡県,沼津市,宮前町３番地の４,,22,203,4100062,,,2022-12-15,清算の結了等,,,2021-01-12,1,,,,,アルファハウストウカイ,0
2085,9110001015804,登記記録の閉鎖等,0,2022-12-19,2022-12-13,中越観光株式会社,,株式会社,新潟県,燕市,秋葉町１丁目１番１４号,,15,213,9591261,,,2022-12-13,清算の結了等,,,2015-10-05,1,,,,,チュウエツカンコウ,0
2115,9150001023902,登記記録の閉鎖等,0,2022-12-19,2022-12-15,株式会社キャラバン,,株式会社,奈良県,橿原市,栄和町１２番地の１５,,29,205,6340046,,,2022-12-15,清算の結了等,,,2020-07-14,1,,,,,キャラバン,0
2119,9180003018443,登記記録の閉鎖等,0,2022-12-19,2022-12-14,合同会社武咲,,合同会社,愛知県,津島市,莪原町字西屋敷１０２番地１,,23,208,4960011,,,2022-12-14,清算の結了等,,,2017-11-16,1,,,,,タケサキ,0
2123,9180302011578,登記記録の閉鎖等,0,2022-12-19,2022-12-15,有限会社惠,,有限会社,愛知県,豊橋市,忠興１丁目５番地の１６,,23,201,4400004,,,2022-12-15,清算の結了等,,,2015-10-05,1,,,,,メグミ,0
2149,9310002020485,登記記録の閉鎖等,0,2022-12-19,2022-12-16,才津鉄工所有限会社,,有限会社,長崎県,五島市,栄町７番地１０,,42,211,8530001,,,2022-12-16,清算の結了等,,,2015-10-05,1,,,,,サイツテッコウショ,0
2152,9350001007711,登記記録の閉鎖等,0,2022-12-19,2022-12-12,増元設備株式会社,,株式会社,宮崎県,宮崎市,清武町木原４６３３番地８,,45,201,8891601,,,2022-12-12,清算の結了等,,,2015-10-05,1,,,,,,0
2166,9420002018411,登記記録の閉鎖等,0,2022-12-19,2022-12-13,有限会社晃和運輸,,有限会社,青森県,上北郡東北町,旭北１丁目６７７番地２,,02,408,0392406,,,2022-12-13,清算の結了等,,,2015-10-05,1,,,,,コウワウンユ,0
2175,9430003004756,登記記録の閉鎖等,0,2022-12-19,2022-12-08,合同会社ＰＯＳＥＩＤＯＮ,,合同会社,北海道,札幌市中央区,大通西２１丁目１番１２号,,01,101,0640820,,,2022-12-08,合併による解散等,1430001062152,令和４年１２月１日札幌市中央区大通西二十一丁目１番１２号合同会社ＤＡ　ＶＩＮＣＩ（1430001062152）に合併し解散,2015-10-05,1,,,,,ポセイドン,0
2177,9430003006050,登記記録の閉鎖等,0,2022-12-19,2022-12-08,合同会社ＺＥＵＳ,,合同会社,北海道,札幌市中央区,大通西２１丁目１番１２号,,01,101,0640820,,,2022-12-08,合併による解散等,1430001062152,令和４年１２月１日札幌市中央区大通西二十一丁目１番１２号合同会社ＤＡ　ＶＩＮＣＩ（1430001062152）に合併し解散,2015-10-05,1,,,,,ゼウス,0
2181,9450003000836,登記記録の閉鎖等,0,2022-12-19,2022-12-16,合同会社フォーシーズンズケア,,合同会社,北海道,旭川市,北門町１９丁目２１５３番地の８６,,01,204,0700825,,,2022-12-16,清算の結了等,,,2015-10-05,1,,,,,フォーシーズンズケア,0
2183,9500001016036,登記記録の閉鎖等,0,2022-12-19,2022-12-13,陽電商工株式会社,,株式会社,愛媛県,宇和島市,丸之内５丁目４番１９号,,38,203,7980060,,,2022-12-13,清算の結了等,,,2015-10-05,1,,,,,ヨウデンショウコウ,0
