sequenceNumber,corporateNumber,process,correct,updateDate,changeDate,name,nameImageId,kind,prefectureName,cityName,streetNumber,addressImageId,prefectureCode,cityCode,postCode,addressOutside,addressOutsideImageId,closeDate,closeCause,successorCorporateNumber,changeCause,assignmentDate,latest,enName,enPrefectureName,enCityName,enAddressOutside,furigana,hihyoji
1,1000020159484,登記記録の閉鎖等,0,2023-09-05,2022-03-31,阿賀北広域組合,,地方公共団体,新潟県,阿賀野市,船居字権九郎新田４９６番地１,,15,223,9591976,,,2022-03-31,その他の清算の結了等,,,2015-10-05,1,Agakita Regional Affairs Association,Niigata,"496-1,Hunaiazagenkuroshinden, Agano shi",,アガキタコウイキクミアイ,0
15,1010005032350,登記記録の閉鎖等,0,2023-09-05,2023-09-01,一般社団法人エステック和泉中央,,その他の設立登記法人,東京都,中央区,京橋２丁目７番１９号,,13,102,1040031,,,2023-09-01,清算の結了等,,,2020-10-02,1,,,,,エステックイズミチュウオウ,0
30,1010702007621,登記記録の閉鎖等,0,2023-09-05,2023-08-30,マコト電気有限会社,,有限会社,東京都,品川区,荏原５丁目５番３号,,13,109,1420063,,,2023-08-30,清算の結了等,,,2015-10-05,1,,,,,マコトデンキ,0
50,1011105009305,登記記録の閉鎖等,0,2023-09-05,2023-09-01,一般社団法人ティーダホールディングス８,,その他の設立登記法人,東京都,新宿区,西新宿２丁目１番１号新宿三井ビル４３階,,13,104,1600023,,,2023-09-01,清算の結了等,,,2020-03-23,1,,,,,ティーダホールディングスハチ,0
54,1011501021490,登記記録の閉鎖等,0,2023-09-05,2023-09-01,株式会社Ｂｒｉｌｌｉａｎｃｅ,,株式会社,東京都,板橋区,小豆沢４丁目２８番１０号広田ビル２０１,,13,119,1740051,,,2023-09-01,清算の結了等,,,2016-04-07,1,,,,,,0
68,1011802028697,登記記録の閉鎖等,0,2023-09-05,2023-09-01,有限会社魚幸,,有限会社,東京都,葛飾区,東新小岩６丁目１番５号,,13,122,1240023,,,2023-09-01,清算の結了等,,,2015-10-05,1,,,,,,0
69,1012401025755,登記記録の閉鎖等,0,2023-09-05,2023-09-01,株式会社クロダン・デポ,,株式会社,東京都,多摩市,中沢２丁目３番地１,,13,224,2060036,,,2023-09-01,清算の結了等,,,2015-10-05,1,,,,,クロダンデポ,0
73,1013201016754,登記記録の閉鎖等,0,2023-09-05,2023-09-01,株式会社ＩＦＴＥＣ,,株式会社,東京都,中央区,銀座１丁目１９番１２号,,13,102,1040061,,,2023-09-01,合併による解散等,5010001129774,令和５年９月１日東京都千代田区神田佐久間河岸７８番地３柴田ビル２Ｆ株式会社サーベイジシステム（5010001129774）に合併し解散,2015-10-05,1,,,,,イフテック,0
74,1013202006754,登記記録の閉鎖等,0,2023-09-05,2023-08-31,有限会社ヨシノ商会,,有限会社,東京都,目黒区,碑文谷２丁目１１番９号,,13,110,1520003,,,2023-08-31,清算の結了等,,,2015-10-05,1,,,,,ヨシノショウカイ,0
102,1030002079475,登記記録の閉鎖等,0,2023-09-05,2023-08-09,有限会社笠幡介護サービス事業所,,有限会社,埼玉県,川越市,大字笠幡８８番地５７,,11,201,3501175,,,2023-08-09,清算の結了等,,,2015-10-05,1,,,,,カサハタカイゴサービスジギョウショ,0
103,1030003005364,登記記録の閉鎖等,0,2023-09-05,2023-08-07,合同会社創匠,,合同会社,埼玉県,蕨市,塚越３丁目１１番９号,,11,223,3350002,,,2023-08-07,清算の結了等,,,2015-10-05,1,,,,,ソウショウ,0
105,1030005019065,登記記録の閉鎖等,0,2023-09-05,2023-08-10,特定非営利活動法人花なかま,,その他の設立登記法人,埼玉県,蕨市,中央７丁目７番１２号パディントンヒルズ３０６号,,11,223,3350004,,,2023-08-10,清算の結了等,,,2018-06-26,1,,,,,ハナナカマ,0
125,1080401021438,登記記録の閉鎖等,0,2023-09-05,2023-09-01,ケイ・エム・エス株式会社,,株式会社,静岡県,浜松市中区,高林５丁目２番１９号キャレブランＴＫ高林Ｂ－２,,22,131,4300907,,,2023-09-01,清算の結了等,,,2016-04-22,1,,,,,ケイエムエス,0
138,1120001128224,登記記録の閉鎖等,0,2023-09-05,2023-08-31,株式会社シロ,,株式会社,大阪府,大阪市西区,北堀江１丁目２２番４号,,27,106,5500014,,,2023-08-31,清算の結了等,,,2015-10-05,1,,,,,シロ,0
168,1120902007550,登記記録の閉鎖等,0,2023-09-05,2023-09-04,有限会社フロイデ,,有限会社,大阪府,吹田市,長野東１５番１５－４０６号,,27,205,5650816,,,2023-09-04,清算の結了等,,,2015-10-05,1,,,,,フロイデ,0
215,1210002014109,登記記録の閉鎖等,0,2023-09-05,2023-09-04,有限会社野田屋,,有限会社,福井県,大飯郡高浜町,三明第２号３４番地３,,18,481,9192229,,,2023-09-04,清算の結了等,,,2015-10-05,1,,,,,ノダヤ,0
234,1270002009937,登記記録の閉鎖等,0,2023-09-05,2023-08-31,有限会社完山商店,,有限会社,鳥取県,倉吉市,八屋２８５番地３,,31,203,6820025,,,2023-08-31,清算の結了等,,,2015-10-05,1,,,,,カンヤマショウテン,0
260,1340005005653,登記記録の閉鎖等,0,2023-09-05,2023-09-01,農事組合法人永江養豚組合,,その他の設立登記法人,鹿児島県,枕崎市,火之神町６４番地,,46,204,8980048,,,2023-09-01,清算の結了等,,,2015-10-05,1,,,,,,0
278,1430001032956,登記記録の閉鎖等,0,2023-09-05,2023-08-28,清和左建工業株式会社,,株式会社,北海道,石狩市,花川南九条１丁目７７番地,,01,235,0613209,,,2023-08-28,清算の結了等,,,2015-10-05,1,,,,,セイワサケンコウギョウ,0
281,1430001079948,登記記録の閉鎖等,0,2023-09-05,2023-08-31,株式会社北海道アグリジョブ・イノベーション,,株式会社,北海道,札幌市中央区,南二条西６丁目１４番５大友ビル,,01,101,0600062,,,2023-08-31,清算の結了等,,,2019-10-03,1,,,,,ホッカイドウアグリジョブイノベーション,0
284,1430002042005,登記記録の閉鎖等,0,2023-09-05,2023-08-23,有限会社インター・トレード,,有限会社,北海道,札幌市北区,篠路二条１０丁目１３番２３号,,01,102,0028022,,,2023-08-23,清算の結了等,,,2015-10-05,1,,,,,インタートレード,0
290,1450005004289,登記記録の閉鎖等,0,2023-09-05,2023-09-01,一般社団法人東川町しごとコンビニ,,その他の設立登記法人,北海道,上川郡東川町,東町１丁目１５番２号,,01,458,0711423,,,2023-09-01,清算の結了等,,,2021-03-24,1,,,,,ヒガシカワチョウシゴトコンビニ,0
317,2010005027226,登記記録の閉鎖等,0,2023-09-05,2023-09-01,Ｐｒｏｓｐｅｒ　Ｏｎｅ一般社団法人,,その他の設立登記法人,東京都,千代田区,神田神保町１丁目１１番地さくら綜合事務所内,,13,101,1010051,,,2023-09-01,清算の結了等,,,2017-08-02,1,,,,,プロスパーワン,0
328,2010501014009,登記記録の閉鎖等,0,2023-09-05,2023-09-04,森工藝興業株式会社,,株式会社,東京都,台東区,浅草橋３丁目１９番１１号,,13,106,1110053,,,2023-09-04,清算の結了等,,,2015-10-05,1,,,,,,0
331,2010502021160,登記記録の閉鎖等,0,2023-09-05,2023-09-01,有限会社ディバインプロジェクト,,有限会社,東京都,台東区,寿２丁目１０番１０号赤澤ビル,,13,106,1110042,,,2023-09-01,清算の結了等,,,2015-10-05,1,,,,,ディバインプロジェクト,0
334,2010602012274,登記記録の閉鎖等,0,2023-09-05,2023-08-31,有限会社千代田工芸,,有限会社,東京都,墨田区,立花５丁目２１番５号,,13,107,1310043,,,2023-08-31,清算の結了等,,,2015-10-05,1,,,,,チヨダコウゲイ,0
363,2011301007359,登記記録の閉鎖等,0,2023-09-05,2023-08-31,ユナイテッドジャパン株式会社,,株式会社,東京都,杉並区,高円寺南２丁目３５番１５号,,13,115,1660003,,,2023-08-31,清算の結了等,,,2015-10-05,1,,,,,,0
387,2012701001645,登記記録の閉鎖等,0,2023-09-05,2023-08-31,株式会社トーヨーファスナー,,株式会社,東京都,東村山市,恩多町３丁目２６番地１５,,13,213,1890011,,,2023-08-31,清算の結了等,,,2015-10-05,1,,,,,トーヨーファスナー,0
397,2020001131757,登記記録の閉鎖等,0,2023-09-05,2023-08-29,上大岡商店株式会社,,株式会社,神奈川県,横浜市港南区,上大岡西１丁目１９番１号千草ビル３０１号室,,14,111,2330002,,,2023-08-29,清算の結了等,,,2019-06-28,1,,,,,カミオオオカショウテン,0
401,2020003024018,登記記録の閉鎖等,0,2023-09-05,2023-08-29,合同会社アトリエ佐藤,,合同会社,神奈川県,横浜市戸塚区,名瀬町５２番地１－３１０号,,14,110,2450051,,,2023-08-29,清算の結了等,,,2023-06-12,1,,,,,アトリエサトウ,0
404,2020005005288,登記記録の閉鎖等,0,2023-09-05,2023-08-28,特定非営利活動法人元気エイジ,,その他の設立登記法人,神奈川県,横浜市旭区,さちが丘９４番地,,14,112,2410822,,,2023-08-28,清算の結了等,,,2015-10-05,1,,,,,ゲンキエイジ,0
411,2030001141631,登記記録の閉鎖等,0,2023-09-05,2023-08-07,株式会社Ｓｈｏｗ,,株式会社,埼玉県,越谷市,花田４丁目７番地２２,,11,222,3430015,,,2023-08-07,清算の結了等,,,2021-04-07,1,,,,,ショウ,0
419,2030003010297,登記記録の閉鎖等,0,2023-09-05,2023-08-10,合同会社Ｗｈｉｔｅ　Ｍｏｔｉｏｎ,,合同会社,埼玉県,さいたま市北区,日進町２丁目１９１７番地,,11,102,3310823,,,2023-08-10,清算の結了等,,,2017-05-17,1,,,,,ホワイトモーション,0
447,2100001019795,登記記録の閉鎖等,0,2023-09-05,2023-08-30,株式会社山文山岡染工場,,株式会社,長野県,岡谷市,東銀座１丁目２番１７号,,20,204,3940023,,,2023-08-30,清算の結了等,,,2015-10-05,1,,,,,ヤマブンヤマオカセンコウジョウ,0
453,2120001177385,登記記録の閉鎖等,0,2023-09-05,2023-09-01,株式会社大渉重量,,株式会社,大阪府,大阪市平野区,加美鞍作３丁目９番３０号,,27,126,5470004,,,2023-09-01,清算の結了等,,,2015-10-05,1,,,,,ダイショウジュウリョウ,0
473,2120005012571,登記記録の閉鎖等,0,2023-09-05,2023-08-31,医療法人前田眼科,,その他の設立登記法人,大阪府,枚方市,岡東町１２番－１－４０８号,,27,210,5730032,,,2023-08-31,清算の結了等,,,2015-10-05,1,,,,,マエダガンカ,0
476,2120901007625,登記記録の閉鎖等,0,2023-09-05,2023-08-28,豊田塗装株式会社,,株式会社,大阪府,吹田市,東御旅町２番５９号,,27,205,5640033,,,2023-08-28,清算の結了等,,,2015-10-05,1,,,,,トヨダトソウ,0
484,2140001006690,登記記録の閉鎖等,0,2023-09-05,2023-08-31,オクダ興産株式会社,,株式会社,兵庫県,神戸市中央区,花隈町３３番１６号,,28,110,6500013,,,2023-08-31,清算の結了等,,,2015-10-05,1,,,,,オクダコウサン,0
489,2140005003932,登記記録の閉鎖等,0,2023-09-05,2023-08-31,特定非営利活動法人はあとネット兵庫,,その他の設立登記法人,兵庫県,神戸市中央区,橘通１丁目１番２号,,28,110,6500016,,,2023-08-31,清算の結了等,,,2015-10-05,1,,,,,ハアトネットヒョウゴ,0
497,2160001022653,登記記録の閉鎖等,0,2023-09-05,2023-09-01,株式会社ガーデンズ,,株式会社,滋賀県,守山市,石田町８－５,,25,207,5240014,,,2023-09-01,清算の結了等,,,2020-07-27,1,,,,,ガーデンズ,0
507,2180001132070,登記記録の閉鎖等,0,2023-09-05,2023-09-01,株式会社フキリンク,,株式会社,愛知県,名古屋市中村区,亀島２丁目１４番１０号,,23,105,4530013,,,2023-09-01,合併による解散等,6180002026953,令和５年９月１日名古屋市中村区亀島二丁目１４番１０号株式会社アイテイワイ（6180002026953）に合併し解散,2018-04-27,1,,,,,フキリンク,0
528,2200002017061,登記記録の閉鎖等,0,2023-09-05,2023-08-31,有限会社ジョイフル,,有限会社,岐阜県,多治見市,若松町１丁目２３番地の１,,21,204,5070053,,,2023-08-31,清算の結了等,,,2015-10-05,1,,,,,ジョイフル,0
580,2430001031387,登記記録の閉鎖等,0,2023-09-05,2023-08-31,株式会社札幌リフォームセンター,,株式会社,北海道,札幌市白石区,中央二条３丁目７－３０,,01,104,0030012,,,2023-08-31,清算の結了等,,,2015-10-05,1,,,,,サッポロリフォームセンター,0
583,2430001068693,登記記録の閉鎖等,0,2023-09-05,2023-09-01,株式会社ブレードパイル北海道,,株式会社,北海道,上川郡東川町,北町７丁目１１番１号,,01,458,0711426,,,2023-09-01,合併による解散等,6450001005344,令和５年８月３１日北海道上川郡東川町北町七丁目１１番１号株式会社ウッドライン（6450001005344）に合併し解散,2015-10-05,1,,,,,ブレードパイルホッカイドウ,0
600,3010001000144,登記記録の閉鎖等,0,2023-09-05,2023-08-29,アイソラ株式会社,,株式会社,東京都,荒川区,西日暮里４丁目１６番３号,,13,118,1160013,,,2023-08-29,清算の結了等,,,2015-10-05,1,,,,,アイソラ,0
646,3011001105775,登記記録の閉鎖等,0,2023-09-05,2023-08-30,株式会社フォロー,,株式会社,東京都,渋谷区,渋谷２丁目９番１３号,,13,113,1500002,,,2023-08-30,清算の結了等,,,2015-10-05,1,,,,,フォロー,0
654,3011101037679,登記記録の閉鎖等,0,2023-09-05,2023-09-01,ＴＯ株式会社,,株式会社,東京都,千代田区,内神田１丁目１１番６号,,13,101,1010047,,,2023-09-01,合併による解散等,2010001141732,令和５年８月１日東京都渋谷区円山町５－５ＴＡＣＨＩ株式会社（2010001141732）に合併し解散,2015-10-05,1,,,,,ティーオー,0
666,3011401020888,登記記録の閉鎖等,0,2023-09-05,2023-08-31,株式会社あきない家,,株式会社,東京都,板橋区,板橋１丁目２５番１号,,13,119,1730004,,,2023-08-31,清算の結了等,,,2018-03-22,1,,,,,アキナイヤ,0
673,3011701008658,登記記録の閉鎖等,0,2023-09-05,2023-09-01,株式会社ジェイエフネット,,株式会社,東京都,江戸川区,南小岩２丁目４番３９号,,13,123,1330056,,,2023-09-01,清算の結了等,,,2015-10-05,1,,,,,ジェイエフネット,0
686,3013101007455,登記記録の閉鎖等,0,2023-09-05,2023-08-30,ＴＴＭ株式会社,,株式会社,東京都,あきる野市,小川東１丁目１６番地１４,,13,228,1970822,,,2023-08-30,清算の結了等,,,2016-10-31,1,,,,,,0
687,3013102001556,登記記録の閉鎖等,0,2023-09-05,2023-08-31,有限会社ヤマウラ・システム,,有限会社,東京都,羽村市,栄町２丁目２１番地１４,,13,227,2050002,,,2023-08-31,清算の結了等,,,2015-10-05,1,,,,,,0
693,3013305001147,登記記録の閉鎖等,0,2023-09-05,2023-08-31,特定非営利活動法人ネオ教育センター,,その他の設立登記法人,東京都,豊島区,西池袋３丁目２５番１５号１Ｂ第一ビル９階,,13,116,1710021,,,2023-08-31,清算の結了等,,,2015-10-05,1,,,,,ネオキョウイクセンター,0
699,3020002054072,登記記録の閉鎖等,0,2023-09-05,2023-08-30,有限会社高興土木,,有限会社,神奈川県,高座郡寒川町,宮山３５０４番地９湘南サザン２６０－５２１号,,14,321,2530106,,,2023-08-30,清算の結了等,,,2015-10-05,1,,,,,タカコウドボク,0
708,3030002004828,登記記録の閉鎖等,0,2023-09-05,2023-08-08,有限会社幸和製作所,,有限会社,埼玉県,さいたま市南区,内谷１丁目１番１９号,,11,108,3360034,,,2023-08-08,清算の結了等,,,2015-10-05,1,,,,,コウワセイサクショ,0
710,3030002064905,登記記録の閉鎖等,0,2023-09-05,2023-08-10,有限会社オーパーツシステムズ,,有限会社,埼玉県,新座市,野火止４丁目５番２９号グリーンビレッジ野火止２０５号室,,11,230,3520011,,,2023-08-10,清算の結了等,,,2015-10-05,1,,,,,オーパーツシステムズ,0
729,3060002015871,登記記録の閉鎖等,0,2023-09-05,2023-08-28,有限会社桝屋,,有限会社,栃木県,日光市,中宮祠２４８２番地,,09,206,3211661,,,2023-08-28,清算の結了等,,,2015-10-05,1,,,,,マスヤ,0
730,3060002037123,登記記録の閉鎖等,0,2023-09-05,2023-09-01,株式会社ＧＬＯＢＡＬ　ＫＮＩＴ,,株式会社,愛知県,名古屋市中区,松原１丁目１３番９号,,23,106,4600017,,,2023-09-01,合併による解散等,3180001035165,令和５年９月１日名古屋市中区松原一丁目１３番９号株式会社デューアソシエ（3180001035165）に合併し解散,2015-10-05,1,,,,,グローバルニット,0
745,3080103000762,登記記録の閉鎖等,0,2023-09-05,2023-08-31,表富士運送合資会社,,合資会社,静岡県,富士市,中之郷８０６番地,,22,210,4213306,,,2023-08-31,清算の結了等,,,2015-10-05,1,,,,,オモテフジウンソウ,0
748,3100002023936,登記記録の閉鎖等,0,2023-09-05,2023-08-30,有限会社平林食品,,有限会社,長野県,安曇野市,穂高２４６３番地２,,20,220,3998303,,,2023-08-30,清算の結了等,,,2015-10-05,1,,,,,ヒラバヤシショクヒン,0
750,3100002032458,登記記録の閉鎖等,0,2023-09-05,2023-08-30,有限会社一財,,有限会社,長野県,伊那市,上の原６０１５番地３,,20,209,3960008,,,2023-08-30,清算の結了等,,,2015-10-05,1,,,,,イチザイ,0
753,3110002022490,登記記録の閉鎖等,0,2023-09-05,2023-08-31,有限会社風間技研,,有限会社,新潟県,上越市,昭和町１丁目１５番９号,,15,222,9430891,,,2023-08-31,清算の結了等,,,2015-10-05,1,,,,,カザマギケン,0
794,3180002089284,登記記録の閉鎖等,0,2023-09-05,2023-09-01,有限会社サン建物管理,,有限会社,愛知県,津島市,新開町５丁目１０３番地,,23,208,4960071,,,2023-09-01,清算の結了等,,,2015-10-05,1,,,,,サンタテモノカンリ,0
818,3250002016280,登記記録の閉鎖等,0,2023-09-05,2023-08-31,有限会社あいおい商会,,有限会社,山口県,周南市,相生町２丁目２１番地,,35,215,7450055,,,2023-08-31,清算の結了等,,,2015-10-05,1,,,,,アイオイショウカイ,0
840,3310001000097,登記記録の閉鎖等,0,2023-09-05,2023-09-01,アバス株式会社,,株式会社,長崎県,長崎市,銅座町２番１６号,,42,201,8500841,,,2023-09-01,合併による解散等,8310001000431,令和５年９月１日長崎市銅座町２番１６号喜久丸漁業株式会社（8310001000431）に合併し解散,2015-10-05,1,,,,,アバス,0
856,3380001026045,登記記録の閉鎖等,0,2023-09-05,2023-08-31,株式会社エヌ・ワークス,,株式会社,福島県,いわき市,錦町江栗３丁目６８番地,,07,204,9748232,,,2023-08-31,合併による解散等,9380002022632,令和５年８月３１日福島県いわき市錦町曲田１００番地株式会社エヌ・アイ・テック（9380002022632）に合併し解散,2015-10-20,1,,,,,エヌワークス,0
857,3380002024023,登記記録の閉鎖等,0,2023-09-05,2023-09-01,有限会社志賀産業,,有限会社,福島県,いわき市,小名浜玉川町南３番地の６,,07,204,9718127,,,2023-09-01,清算の結了等,,,2015-10-05,1,,,,,シガサンギョウ,0
884,4010001077818,登記記録の閉鎖等,0,2023-09-05,2023-09-01,ＣＭＣマテリアルズジャパン合同会社,,合同会社,三重県,津市,芸濃町北神山１２８７番地の１９,,24,201,5142213,,,2023-09-01,合併による解散等,2010401023308,令和５年８月７日東京都港区三田一丁目４番２８号日本インテグリス合同会社（2010401023308）に合併し解散,2015-10-05,1,,,,,シーエムシーマテリアルズジャパン,0
893,4010001229385,登記記録の閉鎖等,0,2023-09-05,2023-08-30,株式会社ｍバランス,,株式会社,東京都,中央区,銀座１丁目２２番１１号銀座大竹ビジデンス２階,,13,102,1040061,,,2023-08-30,清算の結了等,,,2022-09-09,1,,,,,エムバランス,0
901,4010401019683,登記記録の閉鎖等,0,2023-09-05,2023-08-14,株式会社土地改良新聞社,,株式会社,東京都,港区,新橋４丁目３０番７号,,13,103,1050004,,,2023-08-14,清算の結了等,,,2015-10-05,1,,,,,トチカイリョウシンブンシャ,0
912,4010502008395,登記記録の閉鎖等,0,2023-09-05,2023-08-31,有限会社中原金属,,有限会社,東京都,台東区,清川１丁目３２番４号,,13,106,1110022,,,2023-08-31,清算の結了等,,,2015-10-05,1,,,,,ナカハラキンゾク,0
917,4010702015506,登記記録の閉鎖等,0,2023-09-05,2023-08-31,有限会社マグネシウム,,有限会社,東京都,品川区,大崎４丁目４番２１号,,13,109,1410032,,,2023-08-31,清算の結了等,,,2015-10-05,1,,,,,マグネシウム,0
963,4012403001479,登記記録の閉鎖等,0,2023-09-05,2023-09-04,合同会社ＳＴＳクリエイティング,,合同会社,東京都,狛江市,岩戸北２丁目８番８号,,13,219,2010004,,,2023-09-04,清算の結了等,,,2015-10-05,1,,,,,,0
968,4013101003742,登記記録の閉鎖等,0,2023-09-05,2023-08-31,株式会社誠和住宅,,株式会社,東京都,青梅市,梅郷２丁目４２３番地の１,,13,205,1980063,,,2023-08-31,清算の結了等,,,2015-10-05,1,,,,,,0
981,4021001021054,登記記録の閉鎖等,0,2023-09-05,2023-08-30,株式会社ケイアンドピー,,株式会社,神奈川県,伊勢原市,白根５０１番地,,14,214,2591147,,,2023-08-30,合併による解散等,1021001021528,令和５年８月３０日神奈川県伊勢原市白根５０１番地株式会社ケイズピーエム（1021001021528）に合併し解散,2015-10-05,1,,,,,ケイアンドピー,0
984,4021002033197,登記記録の閉鎖等,0,2023-09-05,2023-08-30,有限会社松田産業,,有限会社,神奈川県,厚木市,まつかげ台３７番１６号,,14,212,2430207,,,2023-08-30,清算の結了等,,,2015-10-05,1,,,,,マツダサンギョウ,0
988,4030001000257,登記記録の閉鎖等,0,2023-09-05,2023-08-09,アルファテック株式会社,,株式会社,埼玉県,さいたま市南区,辻８丁目６番５号,00014386,11,108,3360026,,,2023-08-09,清算の結了等,,,2015-10-05,1,,,,,アルファテック,0
990,4030001059442,登記記録の閉鎖等,0,2023-09-05,2023-08-08,株式会社コスメディックプランズ,,株式会社,埼玉県,川越市,大字古谷上６０８３番地８（Ａ－２棟１０５号室）,,11,201,3500001,,,2023-08-08,清算の結了等,,,2015-10-05,1,,,,,コスメディックプランズ,0
992,4030001142371,登記記録の閉鎖等,0,2023-09-05,2023-08-08,ＢＡＬＫＳ株式会社,,株式会社,埼玉県,さいたま市見沼区,深作１丁目２７番地２号,,11,104,3370003,,,2023-08-08,清算の結了等,,,2021-05-25,1,,,,,バルクス,0
1006,4030005006614,登記記録の閉鎖等,0,2023-09-05,2023-08-08,協同組合彩の国パートナー,,その他の設立登記法人,埼玉県,上尾市,大字領家１２００番地１１,,11,219,3620066,,,2023-08-08,清算の結了等,,,2015-10-05,1,,,,,サイノクニパートナー,0
1016,4050002020054,登記記録の閉鎖等,0,2023-09-05,2023-08-30,有限会社南原商事,,有限会社,茨城県,坂東市,上出島１２１７番地の１７,,08,228,3060654,,,2023-08-30,清算の結了等,,,2015-10-05,1,,,,,ナンバラショウジ,0
1019,4060001031266,登記記録の閉鎖等,0,2023-09-05,2023-08-28,株式会社デントリザ,,株式会社,栃木県,宇都宮市,上横田町８８２番地１,,09,201,3210106,,,2023-08-28,清算の結了等,,,2019-01-17,1,,,,,デントリザ,0
1021,4060002031513,登記記録の閉鎖等,0,2023-09-05,2023-08-28,精密技術塗装有限会社,,有限会社,栃木県,小山市,大字萱橋１１０８－１４１,,09,208,3230804,,,2023-08-28,清算の結了等,,,2015-10-05,1,,,,,セイミツギジュツトソウ,0
1025,4080001011150,登記記録の閉鎖等,0,2023-09-05,2023-09-04,株式会社ハラップ,,株式会社,静岡県,静岡市葵区,古庄５丁目１０番２号,,22,101,4200812,,,2023-09-04,清算の結了等,,,2015-10-05,1,,,,,ハラップ,0
1026,4080001017032,登記記録の閉鎖等,0,2023-09-05,2023-09-01,株式会社平安閣,,株式会社,静岡県,藤枝市,志太４丁目１４番３号,,22,214,4260071,,,2023-09-01,合併による解散等,1080001002251,令和５年９月１日静岡市駿河区宮本町８番１０号株式会社あいネットサービス（1080001002251）に合併し解散,2015-10-05,1,,,,,ヘイアンカク,0
1031,4080102003864,登記記録の閉鎖等,0,2023-09-05,2023-08-31,有限会社渡辺工業,,有限会社,静岡県,沼津市,岡宮１４５５番地の１６,,22,203,4100011,,,2023-08-31,清算の結了等,,,2015-10-05,1,,,,,ワタナベコウギョウ,0
1033,4080402007359,登記記録の閉鎖等,0,2023-09-05,2023-09-01,有限会社ホワイト薬局,,有限会社,静岡県,浜松市南区,新橋町４９６番地の２,,22,134,4328058,,,2023-09-01,合併による解散等,7080401017744,令和５年９月１日静岡県周智郡森町森１５６０番地１株式会社エムズレイズ（7080401017744）に合併し解散,2015-10-05,1,,,,,ホワイトヤッキョク,0
1045,4120001006105,登記記録の閉鎖等,0,2023-09-05,2023-09-01,日東梱包資材株式会社,,株式会社,大阪府,大阪市浪速区,日本橋５丁目３番６号,,27,111,5560005,,,2023-09-01,清算の結了等,,,2015-10-05,1,,,,,ニットウコンポウシザイ,0
1051,4120001139400,登記記録の閉鎖等,0,2023-09-05,2023-08-31,株式会社エムエスキャピタル,,株式会社,東京都,千代田区,九段南４丁目７番１６号,,13,101,1020074,,,2023-08-31,清算の結了等,,,2015-10-05,1,,,,,エムエスキャピタル,0
1052,4120001233822,登記記録の閉鎖等,0,2023-09-05,2023-09-01,株式会社ＭＹ２,,株式会社,愛知県,名古屋市中村区,名駅南１丁目５番３２号,,23,105,4500003,,,2023-09-01,清算の結了等,,,2020-12-14,1,,,,,エムワイツー,0
1074,4130002029186,登記記録の閉鎖等,0,2023-09-05,2023-08-18,有限会社優和産業,,有限会社,京都府,亀岡市,保津町上ラ条２１番地,,26,206,6210005,,,2023-08-18,清算の結了等,,,2015-10-05,1,,,,,ユウワサンギョウ,0
1075,4130003003132,登記記録の閉鎖等,0,2023-09-05,2023-08-21,株式会社ゲストハウスイン,,株式会社,京都府,京都市下京区,大宮通花屋町下る大宮２丁目５８６番,,26,106,6008363,,,2023-08-21,清算の結了等,,,2015-10-05,1,,,,,ゲストハウスイン,0
1077,4140001006937,登記記録の閉鎖等,0,2023-09-05,2023-09-01,株式会社カネマツ,,株式会社,兵庫県,神戸市中央区,明石町３２番地,,28,110,6500037,,,2023-09-01,合併による解散等,1140001029825,令和５年９月１日神戸市中央区明石町３２番地株式会社カネマツ（1140001029825）に合併し解散,2015-10-05,1,,,,,カネマツ,0
1106,4240001056047,登記記録の閉鎖等,0,2023-09-05,2023-08-31,株式会社Ｃ．Ｌ．Ｓ,,株式会社,広島県,広島市西区,井口台３丁目８番１号,,34,104,7330844,,,2023-08-31,清算の結了等,,,2020-05-12,1,,,,,シーエルエス,0
1111,4250002009449,登記記録の閉鎖等,0,2023-09-05,2023-08-31,有限会社シモカワ,,有限会社,山口県,下関市,安岡町４丁目１１番１８号,,35,201,7596603,,,2023-08-31,清算の結了等,,,2015-10-05,1,,,,,シモカワ,0
1117,4280003001427,登記記録の閉鎖等,0,2023-09-05,2023-09-01,セルフ脱毛ラボ合同会社,,合同会社,島根県,安来市,荒島町１８１７番地１,,32,206,6920007,,,2023-09-01,合併による解散等,8280002004807,令和５年９月１日島根県安来市荒島町１８１７番地１株式会社美眼ケア（8280002004807）に合併し解散,2020-11-16,1,,,,,セルフダツモウラボ,0
1132,4290803000065,登記記録の閉鎖等,0,2023-09-05,2023-09-01,株式会社越出商会,,株式会社,福岡県,北九州市小倉北区,黒原１丁目３番１４号,,40,106,8020051,,,2023-09-01,合併による解散等,7290802002175,令和５年９月１日北九州市小倉南区大字朽網３９１４番７５株式会社越出商会（7290802002175）に合併し解散,2015-10-05,1,,,,,コシデショウカイ,0
1135,4310002007941,登記記録の閉鎖等,0,2023-09-05,2023-09-01,有限会社平和建機サービス,,有限会社,長崎県,西彼杵郡時津町,日並郷３５０６番地の１,,42,308,8512108,,,2023-09-01,清算の結了等,,,2015-10-05,1,,,,,ヘイワケンキサービス,0
1151,4360003010519,登記記録の閉鎖等,0,2023-09-05,2023-08-25,合同会社Ｎｅｖｅｒｌａｎｄ,,合同会社,沖縄県,那覇市,久茂地１丁目１－１パレットくもじ９階,,47,201,9000015,,,2023-08-25,清算の結了等,,,2020-08-26,1,,,,,ネヴァーランド,0
1158,4390001014989,登記記録の閉鎖等,0,2023-09-05,2023-08-31,スズデンＳＫエナジー株式会社,,株式会社,山形県,南陽市,椚塚３５９番地の１,,06,213,9992221,,,2023-08-31,清算の結了等,,,2017-07-20,1,,,,,スズデンエスケーエナジー,0
1161,4400005004308,登記記録の閉鎖等,0,2023-09-05,2023-08-31,特定非営利活動法人みやこＮＰＯサポートセンター,,その他の設立登記法人,岩手県,宮古市,長沢第１３地割５０番地２,,03,202,0270034,,,2023-08-31,清算の結了等,,,2015-10-05,1,,,,,ミヤコエヌピーオーサポートセンター,0
1171,4430002033067,登記記録の閉鎖等,0,2023-09-05,2023-08-23,有限会社テクノ警備保障,,有限会社,北海道,札幌市東区,北三十四条東２８丁目２番１５号,,01,103,0070834,,,2023-08-23,清算の結了等,,,2015-10-05,1,,,,,テクノケイビホショウ,0
1179,4460302004624,登記記録の閉鎖等,0,2023-09-05,2023-08-31,有限会社ギンザファッション研究所,,有限会社,北海道,網走郡大空町,女満別西二条３丁目１番１３号,,01,564,0992322,,,2023-08-31,清算の結了等,,,2015-10-05,1,,,,,ギンザファッションケンキュウショ,0
1239,5011101018108,登記記録の閉鎖等,0,2023-09-05,2023-08-31,株式会社檜綜合設計,,株式会社,東京都,新宿区,四谷４丁目２５番地,,13,104,1600004,,,2023-08-31,清算の結了等,,,2015-10-05,1,,,,,カイソウゴウセッケイ,0
1242,5011101062246,登記記録の閉鎖等,0,2023-09-05,2023-08-31,株式会社Ｔ・Ｓコーポレーション,,株式会社,東京都,千代田区,有楽町１丁目６番３号,,13,101,1000006,,,2023-08-31,清算の結了等,,,2015-10-05,1,,,,,ティーエスコーポレーション,0
1259,5011502001125,登記記録の閉鎖等,0,2023-09-05,2023-08-29,有限会社大熊機械製作所,00055754,有限会社,東京都,北区,豊島７丁目２２番３号,,13,117,1140003,,,2023-08-29,清算の結了等,,,2015-10-05,1,,,,,オオノキカイセイサクショ,0
1263,5011801009785,登記記録の閉鎖等,0,2023-09-05,2023-09-01,株式会社中央クレジットリース,,株式会社,東京都,足立区,綾瀬６丁目３１番５号,,13,121,1200005,,,2023-09-01,合併による解散等,6011801009792,令和５年９月１日東京都足立区綾瀬六丁目３１番５号株式会社中央シヤツター（6011801009792）に合併し解散,2015-10-05,1,,,,,チュウオウクレジットリース,0
1284,5013301008490,登記記録の閉鎖等,0,2023-09-05,2023-08-31,東台商事株式会社,,株式会社,東京都,豊島区,上池袋２丁目２２番５号,,13,116,1700012,,,2023-08-31,清算の結了等,,,2015-10-05,1,,,,,トウダイショウジ,0
1294,5020003016796,登記記録の閉鎖等,0,2023-09-05,2023-08-29,グローバルカーボンコンサルティング合同会社,,合同会社,神奈川県,横浜市緑区,北八朔町１５０２番地９９,,14,113,2260021,,,2023-08-29,清算の結了等,,,2019-10-17,1,,,,,グローバルカーボンコンサルティング,0
1346,5120005018087,登記記録の閉鎖等,0,2023-09-05,2023-09-04,関西電気テクノ協同組合,,その他の設立登記法人,大阪府,大阪市住之江区,西加賀屋２丁目１番４１号,,27,125,5590016,,,2023-09-04,清算の結了等,,,2015-10-05,1,,,,,カンサイデンキテクノ,0
1352,5130002014468,登記記録の閉鎖等,0,2023-09-05,2023-08-21,有限会社トランスポートゼロ,,有限会社,京都府,京都市伏見区,横大路畔ノ内８番地,,26,109,6128284,,,2023-08-21,清算の結了等,,,2015-10-05,1,,,,,トランスポートゼロ,0
1353,5130002016571,登記記録の閉鎖等,0,2023-09-05,2023-08-21,有限会社吉祥建設工業,,有限会社,京都府,京都市右京区,京北小塩町丸山２番地４,,26,108,6010311,,,2023-08-21,清算の結了等,,,2015-10-05,1,,,,,,0
1357,5140002042204,登記記録の閉鎖等,0,2023-09-05,2023-08-30,有限会社林研磨工業所,,有限会社,兵庫県,尼崎市,久々知１丁目２６番１５号,,28,202,6610977,,,2023-08-30,清算の結了等,,,2015-10-05,1,,,,,ハヤシケンマコウギョウショ,0
1381,5200002004635,登記記録の閉鎖等,0,2023-09-05,2023-08-30,三星織物有限会社,,有限会社,岐阜県,岐阜市,白菊町３丁目１番地の１,,21,201,5020909,,,2023-08-30,清算の結了等,,,2015-10-05,1,,,,,ミツボシオリモノ,0
1395,5290001078143,登記記録の閉鎖等,0,2023-09-05,2023-08-23,株式会社ニッチＡ,,株式会社,福岡県,大野城市,中３丁目１２番１４号,,40,219,8160906,,,2023-08-23,清算の結了等,,,2017-06-09,1,,,,,ニッチエース,0
1397,5290002007398,登記記録の閉鎖等,0,2023-09-05,2023-08-23,有限会社結城工務店,,有限会社,福岡県,福岡市早良区,重留４丁目４番３号,,40,137,8111101,,,2023-08-23,清算の結了等,,,2015-10-05,1,,,,,ユウキコウムテン,0
1398,5290002024823,登記記録の閉鎖等,0,2023-09-05,2023-08-22,有限会社福神,,有限会社,福岡県,福岡市城南区,神松寺１丁目６番１３号,,40,136,8140121,,,2023-08-22,清算の結了等,,,2015-10-05,1,,,,,フクシン,0
1411,5340001022491,登記記録の閉鎖等,0,2023-09-05,2023-09-01,南国プロパティマネジメント株式会社,,株式会社,鹿児島県,鹿児島市,中央町１９番地４０,,46,201,8900053,,,2023-09-01,合併による解散等,7340001006749,令和５年９月１日鹿児島市中央町１８番地１南国ビル株式会社（7340001006749）に合併し解散,2019-12-13,1,,,,,ナンゴクプロパティマネンジメント,0
1419,5380002011597,登記記録の閉鎖等,0,2023-09-05,2023-08-31,有限会社販売企画研究所,,有限会社,福島県,郡山市,島１丁目２０番１８号,,07,203,9638034,,,2023-08-31,清算の結了等,,,2015-10-05,1,,,,,ハンバイキカクケンキュウジョ,0
1431,5430002020551,登記記録の閉鎖等,0,2023-09-05,2023-08-22,有限会社山崎銘木店,,有限会社,北海道,札幌市厚別区,厚別中央三条２丁目１６番４７号,,01,108,0040053,,,2023-08-22,清算の結了等,,,2015-10-05,1,,,,,ヤマザキメイモク,0
1432,5430002021681,登記記録の閉鎖等,0,2023-09-05,2023-08-28,有限会社和貴商事,,有限会社,北海道,札幌市厚別区,青葉町１４丁目１６番５号,,01,108,0040021,,,2023-08-28,清算の結了等,,,2015-10-05,1,,,,,ワキショウジ,0
1436,5440001004843,登記記録の閉鎖等,0,2023-09-05,2023-08-31,株式会社みやした,,株式会社,北海道,北斗市,桜岱７３番地の１,,01,236,0490151,,,2023-08-31,清算の結了等,,,2015-10-05,1,,,,,ミヤシタ,0
1440,5480002015852,登記記録の閉鎖等,0,2023-09-05,2023-09-01,有限会社マエダ,,有限会社,徳島県,三好市,池田町マチ２１７８番地２３,,36,208,7780002,,,2023-09-01,清算の結了等,,,2015-10-05,1,,,,,マエダ,0
1442,5490002010480,登記記録の閉鎖等,0,2023-09-05,2023-09-01,三和婦人金融有限会社,,有限会社,高知県,須崎市,南古市町１番１５号,,39,206,7850007,,,2023-09-01,清算の結了等,,,2015-10-05,1,,,,,,0
1443,5490003000745,登記記録の閉鎖等,0,2023-09-05,2023-09-01,モア合同会社,,合同会社,高知県,高知市,福井町３１２０番地メゾンセロジネ１０１号,,39,201,7800965,,,2023-09-01,清算の結了等,,,2015-10-05,1,,,,,モア,0
1457,6010001092823,登記記録の閉鎖等,0,2023-09-05,2023-08-30,株式会社ホルミシスケア,,株式会社,東京都,中央区,銀座１丁目６番１号銀座クレセントビル５Ｆ,,13,102,1040061,,,2023-08-30,清算の結了等,,,2015-10-05,1,,,,,ホルミシスケア,0
1463,6010002018538,登記記録の閉鎖等,0,2023-09-05,2023-08-31,有限会社亀樂,,有限会社,東京都,中央区,日本橋人形町２丁目６番６号,,13,102,1030013,,,2023-08-31,清算の結了等,,,2015-10-05,1,,,,,キラク,0
1465,6010003034435,登記記録の閉鎖等,0,2023-09-05,2023-08-30,リボーン合同会社,,合同会社,東京都,中央区,月島２丁目８番９号,,13,102,1040052,,,2023-08-30,合併による解散等,5010001089135,令和５年８月３０日東京都中央区月島二丁目８番９号エイブルビジネスコンサルティング株式会社（5010001089135）に合併し解散,2021-03-19,1,,,,,リボーン,0
1474,6010401116223,登記記録の閉鎖等,0,2023-09-05,2023-08-17,株式会社ＴＬＣ　Ｂｉｏｐｈａｒｍａｃｅｕｔｉｃａｌｓ　Ｊａｐａｎ,,株式会社,東京都,港区,港南２丁目１６番１号,,13,103,1080075,,,2023-08-17,清算の結了等,,,2015-10-05,1,,,,,,0
1478,6010405014035,登記記録の閉鎖等,0,2023-09-05,2023-08-10,特定非営利活動法人アースシップ２１,,その他の設立登記法人,東京都,港区,南麻布１丁目５番１４－５０７号,,13,103,1060047,,,2023-08-10,清算の結了等,,,2015-10-05,1,,,,,アースシップニジュウイチ,0
1482,6010502022691,登記記録の閉鎖等,0,2023-09-05,2023-08-31,有限会社ウィルキューブソリューションシステムズ,,有限会社,大阪府,大阪市浪速区,日本橋５丁目１８番２４号,,27,111,5560005,,,2023-08-31,合併による解散等,2120001075465,令和５年８月３１日大阪市中央区南船場一丁目１８番１７号株式会社エスエヌシー（2120001075465）に合併し解散,2015-10-05,1,,,,,ウィルキューブソリューションシステムズ,0
1491,6010703006072,登記記録の閉鎖等,0,2023-09-05,2023-08-30,ｔｈａｎｋＳ合同会社,,合同会社,東京都,品川区,戸越５丁目４－１５,,13,109,1420041,,,2023-08-30,清算の結了等,,,2022-01-14,1,,,,,サンクス,0
1505,6011002034979,登記記録の閉鎖等,0,2023-09-05,2023-09-01,株式会社ルートナインジー,,株式会社,東京都,品川区,東五反田５丁目１０番１８号,,13,109,1410022,,,2023-09-01,合併による解散等,9040001029191,令和５年９月１日東京都品川区東五反田五丁目１０番１８号株式会社クリエイト・ダイニング（9040001029191）に合併し解散,2015-10-05,1,,,,,ルートナインジー,0
1510,6011101058078,登記記録の閉鎖等,0,2023-09-05,2023-08-31,株式会社フェスコーポレーション,,株式会社,東京都,新宿区,新宿５丁目１８番２０号,,13,104,1600022,,,2023-08-31,合併による解散等,4011101067213,令和５年８月３１日東京都新宿区新宿五丁目１８番２０号新宿オミビル９Ｆ株式会社美膳（4011101067213）に合併し解散,2015-10-05,1,,,,,フェスコーポレーション,0
1513,6011101074819,登記記録の閉鎖等,0,2023-09-05,2023-09-01,クリュート販売株式会社,,株式会社,東京都,新宿区,津久戸町３番１１号ＴＨ１ビル飯田橋３階,,13,104,1620821,,,2023-09-01,合併による解散等,7010801023547,令和５年９月１日東京都新宿区津久戸町３番１１号ＴＨ１ビル飯田橋３階株式会社クリュートメディカルシステムズ（7010801023547）に合併し解散,2015-10-14,1,,,,,クリュートハンバイ,0
1519,6011105008376,登記記録の閉鎖等,0,2023-09-05,2023-08-25,有限責任開花監査法人,,その他の設立登記法人,東京都,新宿区,住吉町２－１５,,13,104,1620065,,,2023-08-25,清算の結了等,,,2018-06-06,1,,,,,ユウゲンセキニンカイカ,0
1523,6011203001506,登記記録の閉鎖等,0,2023-09-05,2023-09-04,合同会社グリーンフューチャーズ,,合同会社,東京都,中野区,鷺宮３丁目１１番２６号,,13,114,1650032,,,2023-09-04,清算の結了等,,,2015-10-05,1,,,,,グリーンフューチャーズ,0
1541,6013301032003,登記記録の閉鎖等,0,2023-09-05,2023-08-30,豊島軽貨物サービス株式会社,,株式会社,東京都,豊島区,高田２丁目２番１号,,13,116,1710033,,,2023-08-30,清算の結了等,,,2015-10-05,1,,,,,トシマケイカモツサービス,0
1554,6021001045489,登記記録の閉鎖等,0,2023-09-05,2023-08-30,株式会社湘南商品開発,,株式会社,神奈川県,小田原市,中新田２９１番地の５,,14,206,2500876,,,2023-08-30,清算の結了等,,,2015-10-05,1,,,,,ショウナンショウヒンカイハツ,0
1557,6021003010689,登記記録の閉鎖等,0,2023-09-05,2023-08-30,合同会社Ｍｅｒｌｉｎ,,合同会社,神奈川県,三浦郡葉山町,一色７９２,,14,301,2400111,,,2023-08-30,清算の結了等,,,2021-07-12,1,,,,,マーリン,0
1569,6030002036926,登記記録の閉鎖等,0,2023-09-05,2023-08-08,有限会社幸福建設,,有限会社,埼玉県,狭山市,大字堀兼７７９番地の１,,11,215,3501312,,,2023-08-08,清算の結了等,,,2015-10-05,1,,,,,コウフクケンセツ,0
1570,6030002041109,登記記録の閉鎖等,0,2023-09-05,2023-08-07,有限会社高明調査設計事務所,,有限会社,埼玉県,加須市,花崎北１丁目２８番地１２８,,11,210,3470016,,,2023-08-07,清算の結了等,,,2015-10-05,1,,,,,タカアキチョウサセッケイジムショ,0
1572,6030002095658,登記記録の閉鎖等,0,2023-09-05,2023-08-10,有限会社小高美宣,,有限会社,埼玉県,東松山市,和泉町３番１５号,,11,212,3550026,,,2023-08-10,清算の結了等,,,2015-10-05,1,,,,,オダカビセン,0
1583,6050002034886,登記記録の閉鎖等,0,2023-09-05,2023-08-31,有限会社野中商事,,有限会社,茨城県,牛久市,ひたち野東１丁目３２番地６－１３０５号,,08,219,3001207,,,2023-08-31,清算の結了等,,,2015-10-05,1,,,,,ノナカショウジ,0
1592,6080002016114,登記記録の閉鎖等,0,2023-09-05,2023-09-01,有限会社中里薬局,,有限会社,静岡県,焼津市,中里７０番地の１,,22,212,4250014,,,2023-09-01,合併による解散等,4080002016727,令和５年９月１日静岡県焼津市大覚寺二丁目５番地の１５株式会社ＹＫ（4080002016727）に合併し解散,2015-10-05,1,,,,,ナカザトヤッキョク,0
1597,6080105003604,登記記録の閉鎖等,0,2023-09-05,2023-08-31,医療法人社団山口医院,,その他の設立登記法人,静岡県,富士宮市,黒田２１５番地の９,,22,207,4180034,,,2023-08-31,清算の結了等,,,2015-10-05,1,,,,,ヤマグチイイン,0
1598,6080401010683,登記記録の閉鎖等,0,2023-09-05,2023-09-01,株式会社シダヤデンキ,,株式会社,静岡県,湖西市,新居町新居１７０番地の３,,22,221,4310302,,,2023-09-01,清算の結了等,,,2015-10-05,1,,,,,シダヤデンキ,0
1610,6120001207700,登記記録の閉鎖等,0,2023-09-05,2023-08-31,株式会社ＴＩＬＬ　ＬＡＴＥ,,株式会社,大阪府,大阪市浪速区,立葉１丁目２番１２号ナミコービル４階,,27,111,5560020,,,2023-08-31,合併による解散等,1120001160961,令和５年８月３１日大阪市浪速区立葉一丁目２番１２号ナミコービル３階ゲミュート株式会社（1120001160961）に合併し解散,2017-08-14,1,,,,,ティルレイト,0
1620,6120002001400,登記記録の閉鎖等,0,2023-09-05,2023-08-30,有限会社浜川工務店,,有限会社,大阪府,大阪市鶴見区,横堤２丁目９番１５号,,27,124,5380052,,,2023-08-30,清算の結了等,,,2015-10-05,1,,,,,ハマカワコウムテン,0
1622,6120002024351,登記記録の閉鎖等,0,2023-09-05,2023-09-01,有限会社ミヤザキ,,有限会社,大阪府,大阪市西淀川区,御幣島３丁目８番６号,,27,113,5550012,,,2023-09-01,合併による解散等,3120001050731,令和５年８月３１日大阪市西淀川区御幣島三丁目８番６号宮崎鉄工株式会社（3120001050731）に合併し解散,2015-10-05,1,,,,,ミヤザキ,0
1629,6122001023540,登記記録の閉鎖等,0,2023-09-05,2023-08-30,ベイツボ株式会社,,株式会社,大阪府,東大阪市,長田中３丁目４番２７号,,27,227,5770013,,,2023-08-30,清算の結了等,,,2015-10-05,1,,,,,ベイツボ,0
1631,6130002030349,登記記録の閉鎖等,0,2023-09-05,2023-08-18,有限会社佐藤アンドアソシエイツ,,有限会社,京都府,八幡市,八幡小西３４番地の２１,,26,210,6148031,,,2023-08-18,清算の結了等,,,2015-10-05,1,,,,,サトウアンドアソシエイツ,0
1634,6140001009822,登記記録の閉鎖等,0,2023-09-05,2023-08-29,株式会社中山書房,,株式会社,兵庫県,神戸市中央区,多聞通４丁目１番３号,,28,110,6500015,,,2023-08-29,清算の結了等,,,2015-10-05,1,,,,,ナカヤマショボウ,0
1680,6230001018038,登記記録の閉鎖等,0,2023-09-05,2023-08-31,株式会社九転十起,,株式会社,富山県,氷見市,丸の内６番２２号,,16,205,9350017,,,2023-08-31,清算の結了等,,,2019-10-04,1,,,,,キュウテンジュッキ,0
1719,6360001014890,登記記録の閉鎖等,0,2023-09-05,2023-08-31,スウィートハンズ株式会社,,株式会社,沖縄県,中頭郡読谷村,字比謝６１番地３Ｆ,,47,324,9040311,,,2023-08-31,清算の結了等,,,2015-10-05,1,,,,,スウィートハンズ,0
1723,6360002005765,登記記録の閉鎖等,0,2023-09-05,2023-09-01,有限会社上原自動車整備センター,,有限会社,沖縄県,豊見城市,字名嘉地２５９番地の７,,47,212,9010235,,,2023-09-01,合併による解散等,6360001008414,令和５年９月１日沖縄県浦添市仲西一丁目７番１号株式会社東日産自動車（6360001008414）に合併し解散,2015-10-05,1,,,,,ウエハラジドウシャセイビセンター,0
1735,6420001006576,登記記録の閉鎖等,0,2023-09-05,2023-08-31,株式会社ホテルリバティヒル,,株式会社,青森県,八戸市,大字六日町１０番地,,02,203,0310033,,,2023-08-31,清算の結了等,,,2015-10-05,1,,,,,ホテルリバティヒル,0
1736,6420002018612,登記記録の閉鎖等,0,2023-09-05,2023-08-30,有限会社三幸,,有限会社,青森県,上北郡野辺地町,字上小中野８０番地２５６,,02,401,0393154,,,2023-08-30,清算の結了等,,,2015-10-05,1,,,,,,0
1740,6430001045615,登記記録の閉鎖等,0,2023-09-05,2023-08-28,株式会社ゴー・ホッカイドウ,,株式会社,北海道,札幌市厚別区,厚別中央五条４丁目９番２６－４０３号,,01,108,0040055,,,2023-08-28,清算の結了等,,,2015-10-05,1,,,,,ゴーホッカイドウ,0
1742,6430001065175,登記記録の閉鎖等,0,2023-09-05,2023-08-28,株式会社ＦＶライン,,株式会社,北海道,江別市,大麻ひかり町３４番地の４,,01,217,0690847,,,2023-08-28,清算の結了等,,,2015-10-05,1,,,,,エフブイライン,0
1744,6430002027604,登記記録の閉鎖等,0,2023-09-05,2023-08-30,有限会社札幌重機,,有限会社,北海道,札幌市白石区,本通２１丁目北２番２５号,,01,104,0030027,,,2023-08-30,清算の結了等,,,2015-10-05,1,,,,,サッポロジュウキ,0
1748,6470001015432,登記記録の閉鎖等,0,2023-09-05,2023-08-30,株式会社あおい居宅介護支援事業所,,株式会社,香川県,東かがわ市,三本松１８１６番地１,,37,207,7692601,,,2023-08-30,清算の結了等,,,2015-11-25,1,,,,,アオイキョタクカイゴシエンジギョウショ,0
1764,7010001233938,登記記録の閉鎖等,0,2023-09-05,2023-08-10,株式会社シンクロライフ,,株式会社,東京都,港区,東新橋１丁目９番１号,,13,103,1050021,,,2023-08-10,合併による解散等,2011101100479,令和５年８月１日東京都港区東新橋一丁目９番１号株式会社ライブドア（2011101100479）に合併し解散,2023-03-27,1,,,,,シンクロライフ,0
1772,7010401086102,登記記録の閉鎖等,0,2023-09-05,2023-08-07,株式会社グリーンアイピー,,株式会社,埼玉県,さいたま市浦和区,常盤１０丁目２５番１号,,11,107,3300061,,,2023-08-07,清算の結了等,,,2015-10-05,1,,,,,グリーンアイピー,0
1816,7020001017547,登記記録の閉鎖等,0,2023-09-05,2023-08-30,株式会社新栄精機製作所,,株式会社,神奈川県,横浜市鶴見区,駒岡１丁目２７番４９号,,14,101,2300071,,,2023-08-30,清算の結了等,,,2015-10-05,1,,,,,シンエイセイキセイサクショ,0
1820,7020002082268,登記記録の閉鎖等,0,2023-09-05,2023-08-29,有限会社丸菱管設,,有限会社,神奈川県,川崎市幸区,南加瀬４丁目２１番１８号,,14,132,2120055,,,2023-08-29,清算の結了等,,,2015-10-05,1,,,,,マルビシカンセツ,0
1828,7021001021464,登記記録の閉鎖等,0,2023-09-05,2023-08-30,株式会社エム・ファサード,,株式会社,神奈川県,愛甲郡愛川町,中津４６３４番地の４,,14,401,2430303,,,2023-08-30,清算の結了等,,,2015-10-05,1,,,,,エムファサード,0
1836,7030002013065,登記記録の閉鎖等,0,2023-09-05,2023-08-08,有限会社みどり食堂,,有限会社,埼玉県,さいたま市桜区,西堀６丁目１９番３０号,,11,106,3380832,,,2023-08-08,清算の結了等,,,2015-10-05,1,,,,,ミドリショクドウ,0
1862,7080102018042,登記記録の閉鎖等,0,2023-09-05,2023-08-31,有限会社内田カッター工業,,有限会社,静岡県,熱海市,下多賀６８１番地の５,,22,205,4130102,,,2023-08-31,清算の結了等,,,2015-10-05,1,,,,,ウチダカッターコウヴョウ,0
1864,7080401025747,登記記録の閉鎖等,0,2023-09-05,2023-09-01,加藤建材分割準備株式会社,,株式会社,静岡県,浜松市中区,曳馬３丁目１４番２２号,,22,131,4300901,,,2023-09-01,清算の結了等,,,2022-04-12,1,,,,,カトウケンザイブンカツジュンビ,0
1885,7120002039027,登記記録の閉鎖等,0,2023-09-05,2023-09-01,有限会社モリセ建築事務所,,有限会社,大阪府,大阪市西区,九条１丁目６番１４号,,27,106,5500027,,,2023-09-01,清算の結了等,,,2015-10-05,1,,,,,モリセケンチクジムショ,0
1896,7130001000450,登記記録の閉鎖等,0,2023-09-05,2023-08-21,株式会社春日,,株式会社,京都府,京都市右京区,西京極西大丸町８番地,,26,108,6150862,,,2023-08-21,清算の結了等,,,2015-10-05,1,,,,,,0
1921,7180002048550,登記記録の閉鎖等,0,2023-09-05,2023-08-31,有限会社カトー,,有限会社,岐阜県,各務原市,緑苑北３丁目４３番地,,21,213,5090112,,,2023-08-31,清算の結了等,,,2015-10-05,1,,,,,カトー,0
1928,7200001002357,登記記録の閉鎖等,0,2023-09-05,2023-09-04,サンワ写植株式会社,,株式会社,岐阜県,岐阜市,美園町２丁目４番地,,21,201,5008104,,,2023-09-04,清算の結了等,,,2015-10-05,1,,,,,サンワシャショク,0
1954,7290001070016,登記記録の閉鎖等,0,2023-09-05,2023-08-22,株式会社エムデザイン,,株式会社,福岡県,福岡市中央区,高砂１丁目２２番２４－２０３号,,40,133,8100011,,,2023-08-22,清算の結了等,,,2015-10-05,1,,,,,エムデザイン,0
1968,7320001001776,登記記録の閉鎖等,0,2023-09-05,2023-09-01,株式会社中央設備設計事務所,,株式会社,大分県,大分市,富士見が丘西１丁目１１番１１号,,44,201,8701177,,,2023-09-01,清算の結了等,,,2015-10-05,1,,,,,,0
1990,7380002009210,登記記録の閉鎖等,0,2023-09-05,2023-09-04,有限会社こくぶん,,有限会社,福島県,郡山市,西ノ内１丁目９番１８号,,07,203,9638022,,,2023-09-04,清算の結了等,,,2015-10-05,1,,,,,コクブン,0
1991,7380002034282,登記記録の閉鎖等,0,2023-09-05,2023-08-29,有限会社会津丸新,,有限会社,福島県,耶麻郡西会津町,尾野本字向谷地甲８６９番地２,,07,405,9694402,,,2023-08-29,清算の結了等,,,2015-10-05,1,,,,,アイズマルシン,0
1998,7430001017877,登記記録の閉鎖等,0,2023-09-05,2023-08-24,株式会社よし井,,株式会社,北海道,札幌市豊平区,中の島一条３丁目７番１号,,01,105,0620921,,,2023-08-24,清算の結了等,,,2015-10-05,1,,,,,ヨシイ,0
2002,7430001061306,登記記録の閉鎖等,0,2023-09-05,2023-08-29,株式会社アイ・アル,,株式会社,北海道,札幌市豊平区,月寒東四条７丁目３番２２号プリモ月寒１０２号室,,01,105,0620054,,,2023-08-29,清算の結了等,,,2015-10-05,1,,,,,アイアル,0
2007,7430001085536,登記記録の閉鎖等,0,2023-09-05,2023-08-28,株式会社エムテック,,株式会社,北海道,札幌市北区,篠路二条６丁目５－１３カネ山マンション７０５号,,01,102,0028022,,,2023-08-28,清算の結了等,,,2021-12-08,1,,,,,エムテック,0
2036,8010001096062,登記記録の閉鎖等,0,2023-09-05,2023-08-30,株式会社日中国際交流センター,,株式会社,東京都,中央区,入船２丁目４番３号マスダビル５Ｆ,,13,102,1040042,,,2023-08-30,清算の結了等,,,2015-10-05,1,,,,,ニッチュウコクサイコウリュウセンター,0
2042,8010003036082,登記記録の閉鎖等,0,2023-09-05,2023-08-31,合同会社ＫＳＬＦ１１,,合同会社,東京都,千代田区,内幸町２丁目１番６号,,13,101,1000011,,,2023-08-31,清算の結了等,,,2021-10-22,1,,,,,ケイエスエルエフイレブン,0
2048,8010403022731,登記記録の閉鎖等,0,2023-09-05,2023-08-30,合同会社Ｇｅｔａｂｌｅ,,合同会社,兵庫県,神戸市中央区,下山手通２丁目１３番３号,,28,110,6500011,,,2023-08-30,清算の結了等,,,2020-03-30,1,,,,,ゲッタブル,0
2052,8010501032475,登記記録の閉鎖等,0,2023-09-05,2023-09-04,株式会社ソックスジャパン,,株式会社,東京都,台東区,浅草橋４丁目１０番８号,,13,106,1110053,,,2023-09-04,清算の結了等,,,2015-10-05,1,,,,,ソックスジャパン,0
2064,8011003008534,登記記録の閉鎖等,0,2023-09-05,2023-09-04,合同会社リュクス,,合同会社,東京都,渋谷区,神宮前４丁目２６番２８号２階,,13,113,1500001,,,2023-09-04,清算の結了等,,,2018-02-23,1,,,,,リュクス,0
2074,8011705000549,登記記録の閉鎖等,0,2023-09-05,2023-09-04,西小松川商店街振興組合,,その他の設立登記法人,東京都,江戸川区,西小松川町３１番８号,,13,123,1320032,,,2023-09-04,清算の結了等,,,2015-10-05,1,,,,,ニシコマツガワ,0
2086,8012402020468,登記記録の閉鎖等,0,2023-09-05,2023-09-04,有限会社ドミニックエイチ・アール,,有限会社,東京都,武蔵野市,吉祥寺本町４丁目３１番６－１２１号,,13,203,1800004,,,2023-09-04,清算の結了等,,,2015-10-05,1,,,,,,0
2098,8020001098735,登記記録の閉鎖等,0,2023-09-05,2023-08-31,株式会社ヒトトノ,,株式会社,東京都,目黒区,自由が丘１丁目２番１４号,,13,110,1520035,,,2023-08-31,清算の結了等,,,2015-10-05,1,,,,,ヒトトノ,0
2105,8021001049835,登記記録の閉鎖等,0,2023-09-05,2023-08-29,株式会社Ａｎｇｅ,,株式会社,神奈川県,厚木市,上依知１３０３番地,,14,212,2430801,,,2023-08-29,清算の結了等,,,2015-10-05,1,,,,,,0
2131,8050001048191,登記記録の閉鎖等,0,2023-09-05,2023-08-31,ＣＨＡＩＮ　ＳＯＬＡＲ株式会社,,株式会社,東京都,千代田区,有楽町１丁目７番１号,,13,101,1000006,,,2023-08-31,清算の結了等,,,2020-10-14,1,,,,,チェインソーラー,0
2133,8050002004268,登記記録の閉鎖等,0,2023-09-05,2023-08-31,有限会社絹翔,,有限会社,茨城県,水戸市,双葉台２丁目１番地,,08,201,3114145,,,2023-08-31,清算の結了等,,,2015-10-05,1,,,,,キヌショウ,0
2139,8080002005957,登記記録の閉鎖等,0,2023-09-05,2023-09-01,株式会社森下木工所,,株式会社,静岡県,静岡市駿河区,中島２８１１番地,,22,102,4228046,,,2023-09-01,清算の結了等,,,2015-10-05,1,,,,,モリシタモッコウジョ,0
2140,8090001009231,登記記録の閉鎖等,0,2023-09-05,2023-08-23,株式会社シー・イー・サービス,,株式会社,山梨県,甲州市,勝沼町勝沼３１０３番地,,19,213,4091316,,,2023-08-23,清算の結了等,,,2015-10-05,1,,,,,シーイーサービス,0
2175,8140001013574,登記記録の閉鎖等,0,2023-09-05,2023-08-31,株式会社田中修商店,,株式会社,兵庫県,神戸市兵庫区,駅南通３丁目５番１６号,,28,105,6520897,,,2023-08-31,清算の結了等,,,2015-10-05,1,,,,,,0
2181,8140002018028,登記記録の閉鎖等,0,2023-09-05,2023-08-31,陽気有限会社,,有限会社,兵庫県,神戸市兵庫区,塚本通３丁目３－２３－９０２,,28,105,6520804,,,2023-08-31,合併による解散等,1140001012970,令和５年８月３１日神戸市兵庫区塚本通三丁目３－２３－９０２株式会社県鋲（1140001012970）に合併し解散,2015-10-05,1,,,,,ヨウキ,0
2183,8140005023850,登記記録の閉鎖等,0,2023-09-05,2023-09-01,一般社団法人河南ただかず事務所,,その他の設立登記法人,兵庫県,神戸市中央区,海岸通２８番地ＢＥＬＩＳＴＡ神戸旧居留地１６０３号,,28,110,6500024,,,2023-09-01,清算の結了等,,,2017-12-06,1,,,,,カワナミタダカズジムショ,0
2199,8180303002825,登記記録の閉鎖等,0,2023-09-05,2023-08-31,合資会社一色古竹屋,,合資会社,愛知県,西尾市,一色町一色下乾地１６４番地１,,23,213,4440423,,,2023-08-31,清算の結了等,,,2015-10-05,1,,,,,イッシキフルタケヤ,0
2213,8220002012253,登記記録の閉鎖等,0,2023-09-05,2023-08-31,有限会社河崎石油,,有限会社,石川県,加賀市,片山津温泉ア１１９番地の１,,17,206,9220412,,,2023-08-31,清算の結了等,,,2015-10-05,1,,,,,カワサキセキユ,0
2214,8230002011312,登記記録の閉鎖等,0,2023-09-05,2023-09-01,有限会社ジュンまりおん,,有限会社,富山県,高岡市,石瀬３０４番地２１,,16,202,9330011,,,2023-09-01,清算の結了等,,,2015-10-05,1,,,,,ジュンマリオン,0
2215,8240001010561,登記記録の閉鎖等,0,2023-09-05,2023-09-01,プラザコーポレーション株式会社,,株式会社,広島県,広島市西区,庚午北２丁目１２番２１号,,34,104,7330821,,,2023-09-01,清算の結了等,,,2015-10-05,1,,,,,プラザコーポレーション,0
2216,8240001061704,登記記録の閉鎖等,0,2023-09-05,2023-08-31,株式会社ＹＯＵ‐０,,株式会社,広島県,広島市西区,己斐本町２丁目１１番３号,,34,104,7330812,,,2023-08-31,合併による解散等,6240001017658,令和５年８月３１日広島市西区己斐本町二丁目１１番３号株式会社ＹＯＵ－２（6240001017658）に合併し解散,2023-06-22,1,,,,,ユーゼロ,0
2230,8260005007560,登記記録の閉鎖等,0,2023-09-05,2023-09-01,特定非営利活動法人こらぼあわくら,,その他の設立登記法人,岡山県,英田郡西粟倉村,大字影石１１０２番地,,33,643,7070503,,,2023-09-01,清算の結了等,,,2015-10-05,1,,,,,コラボアワクラ,0
2236,8290002042186,登記記録の閉鎖等,0,2023-09-05,2023-08-22,有限会社ばんゆう,,有限会社,福岡県,太宰府市,観世音寺５丁目１番３７号,,40,221,8180101,,,2023-08-22,清算の結了等,,,2015-10-05,1,,,,,バンユウ,0
2264,8380005010560,登記記録の閉鎖等,0,2023-09-05,2023-09-01,特定非営利活動法人プロジェクトＦＵＫＵＳＨＩＭＡ,,その他の設立登記法人,福島県,福島市,陣場町５番３０号いげた陣場マンション２０２号,,07,201,9608032,,,2023-09-01,清算の結了等,,,2015-10-05,1,,,,,プロジェクトフクシマ,0
2265,8400001007896,登記記録の閉鎖等,0,2023-09-05,2023-08-31,のぞみ観光株式会社,,株式会社,岩手県,九戸郡九戸村,大字江刺家第１５地割１５番地２,,03,506,0286505,,,2023-08-31,清算の結了等,,,2015-10-05,1,,,,,ノゾミカンコー,0
2275,8430001052584,登記記録の閉鎖等,0,2023-09-05,2023-08-24,株式会社阿部組,,株式会社,北海道,苫小牧市,新富町１丁目２番１５号,,01,213,0530805,,,2023-08-24,清算の結了等,,,2015-10-05,1,,,,,アベグミ,0
2281,8450002009012,登記記録の閉鎖等,0,2023-09-05,2023-09-01,有限会社ウィズユー,,有限会社,北海道,上川郡美瑛町,字新星第１,,01,459,0710473,,,2023-09-01,合併による解散等,2450001010587,令和５年９月１日北海道上川郡美瑛町字新星第三株式会社四季彩の丘（2450001010587）に合併し解散,2015-10-05,1,,,,,ウィズユー,0
2303,9010405019213,登記記録の閉鎖等,0,2023-09-05,2023-08-10,一般社団法人ＩＭＡＩ,,その他の設立登記法人,東京都,港区,元赤坂１丁目１番７号,,13,103,1070051,,,2023-08-10,清算の結了等,,,2020-10-23,1,,,,,イマイ,0
2309,9010602021772,登記記録の閉鎖等,0,2023-09-05,2023-08-31,有限会社サンエアシステム,,有限会社,東京都,墨田区,千歳１丁目３番６号,,13,107,1300025,,,2023-08-31,清算の結了等,,,2015-10-05,1,,,,,サンエアシステム,0
2312,9010702003786,登記記録の閉鎖等,0,2023-09-05,2023-09-01,有限会社ジェイワン,,有限会社,東京都,大田区,東雪谷１丁目７番１３号,,13,111,1450065,,,2023-09-01,清算の結了等,,,2015-10-05,1,,,,,ジェイワン,0
2314,9010801030079,登記記録の閉鎖等,0,2023-09-05,2023-09-01,株式会社Ｍｉｘ,,株式会社,東京都,大田区,西蒲田６丁目１７－２,,13,111,1440051,,,2023-09-01,清算の結了等,,,2019-08-01,1,,,,,ミックス,0
2340,9011502009032,登記記録の閉鎖等,0,2023-09-05,2023-08-31,有限会社松栄美術,,有限会社,東京都,荒川区,東尾久２丁目４４番５号,,13,118,1160012,,,2023-08-31,清算の結了等,,,2015-10-05,1,,,,,ショウエイビジュツ,0
2344,9011801042428,登記記録の閉鎖等,0,2023-09-05,2023-09-01,株式会社アールエフ,,株式会社,東京都,葛飾区,亀有４丁目２８番１３号,,13,122,1250061,,,2023-09-01,合併による解散等,1011801001184,令和５年９月１日東京都葛飾区亀有四丁目２８番１３号株式会社キヨーコロ（1011801001184）に合併し解散,2023-05-23,1,,,,,アールエフ,0
2362,9020001126783,登記記録の閉鎖等,0,2023-09-05,2023-09-01,株式会社ａｂｏｏｎ,,株式会社,東京都,大田区,南久が原２丁目１８番１２－３０４号,,13,111,1460084,,,2023-09-01,清算の結了等,,,2018-06-15,1,,,,,アブーン,0
2366,9020002016851,登記記録の閉鎖等,0,2023-09-05,2023-08-30,有限会社浅間自動車,,有限会社,神奈川県,横浜市西区,浅間町２丁目１０６番地の１,,14,103,2200072,,,2023-08-30,清算の結了等,,,2015-10-05,1,,,,,センゲンジドウシャ,0
2371,9020005005414,登記記録の閉鎖等,0,2023-09-05,2023-08-30,特定非営利活動法人ピュアブランチ,,その他の設立登記法人,神奈川県,横浜市港南区,丸山台２丁目２番６号,,14,111,2330013,,,2023-08-30,清算の結了等,,,2015-10-05,1,,,,,ピュアブランチ,0
2385,9030002005201,登記記録の閉鎖等,0,2023-09-05,2023-08-09,有限会社コンサルティングレッツ,,有限会社,埼玉県,さいたま市見沼区,大字小深作２５７番地７,,11,104,3370005,,,2023-08-09,清算の結了等,,,2015-10-05,1,,,,,コンサルティングレッツ,0
2389,9030003017567,登記記録の閉鎖等,0,2023-09-05,2023-08-14,サムイチ合同会社,,合同会社,東京都,港区,新橋４丁目９番１－９０４号,,13,103,1050004,,,2023-08-14,清算の結了等,,,2021-07-06,1,,,,,サムイチ,0
2398,9040002004128,登記記録の閉鎖等,0,2023-09-05,2023-09-01,有限会社構内無線センター,,有限会社,千葉県,千葉市中央区,問屋町５番４２号,,12,101,2600025,,,2023-09-01,合併による解散等,1040001007824,令和５年９月１日千葉市中央区中央二丁目７番１号吉田興業第２ビル株式会社ヨシダテンポラリー（1040001007824）に合併し解散,2015-10-05,1,,,,,コウナイムセンセンター,0
2409,9050003005909,登記記録の閉鎖等,0,2023-09-05,2023-08-30,合同会社ドラグーン,,合同会社,茨城県,龍ケ崎市,松葉５丁目５番地８号,,08,208,3010043,,,2023-08-30,清算の結了等,,,2021-06-11,1,,,,,ドラグーン,0
2414,9070002002384,登記記録の閉鎖等,0,2023-09-05,2023-09-01,佐藤製菓有限会社,,有限会社,群馬県,前橋市,大手町２丁目６番２２号,,10,201,3710026,,,2023-09-01,清算の結了等,,,2015-10-05,1,,,,,サトウセイカ,0
2419,9080103001086,登記記録の閉鎖等,0,2023-09-05,2023-09-01,合同会社みなみ,,合同会社,静岡県,裾野市,千福が丘２丁目２７番１,,22,220,4101115,,,2023-09-01,清算の結了等,,,2015-10-05,1,,,,,ミナミ,0
2442,9130001020579,登記記録の閉鎖等,0,2023-09-05,2023-08-21,株式会社グツドマン,,株式会社,京都府,京都市東山区,塩小路通大和大路東入３丁目本瓦町６７２番地,,26,105,6050963,,,2023-08-21,清算の結了等,,,2015-10-05,1,,,,,グッドマン,0
2443,9130001031361,登記記録の閉鎖等,0,2023-09-05,2023-08-22,株式会社スジョン・ジャパン,,株式会社,京都府,京都市左京区,大原野村町１５６番地,,26,103,6011247,,,2023-08-22,清算の結了等,,,2015-10-05,1,,,,,スジョンジャパン,0
2452,9160001015147,登記記録の閉鎖等,0,2023-09-05,2023-08-31,株式会社サニーリーフ,,株式会社,滋賀県,彦根市,犬方町７９８番地,,25,202,5220236,,,2023-08-31,清算の結了等,,,2015-10-05,1,,,,,サニーリーフ,0
2453,9160001017696,登記記録の閉鎖等,0,2023-09-05,2023-09-01,メイワ管財株式会社,,株式会社,滋賀県,大津市,打出浜１３番８号,,25,201,5200806,,,2023-09-01,清算の結了等,,,2015-10-05,1,,,,,メイワカンザイ,0
2455,9160002009420,登記記録の閉鎖等,0,2023-09-05,2023-08-31,有限会社オオツカ,,有限会社,滋賀県,東近江市,大塚町９８６番地１０,,25,213,5291512,,,2023-08-31,清算の結了等,,,2015-10-05,1,,,,,オオツカ,0
2456,9170002000188,登記記録の閉鎖等,0,2023-09-05,2023-09-04,有限会社旭プラニング,,有限会社,和歌山県,和歌山市,井辺１４４番地の４２,,30,201,6408302,,,2023-09-04,清算の結了等,,,2015-10-05,1,,,,,アサヒプラニング,0
2482,9220002007888,登記記録の閉鎖等,0,2023-09-05,2023-09-01,有限会社イエローキャブ,,有限会社,石川県,金沢市,割出町４６０番地１,,17,201,9200062,,,2023-09-01,合併による解散等,9220001010298,令和５年９月１日石川県金沢市割出町４６０番地１株式会社イエローハイサポート（9220001010298）に合併し解散,2015-10-05,1,,,,,イエローキャブ,0
2514,9340002005830,登記記録の閉鎖等,0,2023-09-05,2023-09-04,有限会社タカイ,,有限会社,鹿児島県,鹿児島市,加治屋町４番２１号,,46,201,8920846,,,2023-09-04,清算の結了等,,,2015-10-05,1,,,,,タカイ,0
2533,9400001009322,登記記録の閉鎖等,0,2023-09-05,2023-09-01,株式会社ＮＥＸＴプロパティー,,株式会社,岩手県,盛岡市,大通３丁目９番３号,,03,201,0200022,,,2023-09-01,合併による解散等,9400001003671,令和５年９月１日岩手県盛岡市大通三丁目９番３号株式会社ＮＥＸＴリビング（9400001003671）に合併し解散,2015-10-05,1,,,,,ネクストプロパティー,0
2536,9410005004401,登記記録の閉鎖等,0,2023-09-05,2023-08-28,株式会社Ａ・Ｄ・Ｍ,,株式会社,秋田県,大仙市,協和境字苅谷沢３０番地４２,,05,212,0192411,,,2023-08-28,清算の結了等,,,2015-10-05,1,,,,,エーディーエム,0
2550,9480001000918,登記記録の閉鎖等,0,2023-09-05,2023-08-31,株式会社大産工務店,,株式会社,徳島県,板野郡藍住町,東中富字龍池傍示７番地１,,36,403,7711220,,,2023-08-31,合併による解散等,6480001004525,令和５年８月３１日徳島県吉野川市山川町湯立３９０番地原井林業株式会社（6480001004525）に合併し解散,2015-10-05,1,,,,,ダイサンコウムテン,0
2554,9490002010551,登記記録の閉鎖等,0,2023-09-05,2023-08-31,有限会社田部不動産,,有限会社,高知県,須崎市,原町１丁目１１番１１号,,39,206,7850001,,,2023-08-31,清算の結了等,,,2015-10-05,1,,,,,タベフドウサン,0
