sequenceNumber,corporateNumber,process,correct,updateDate,changeDate,name,nameImageId,kind,prefectureName,cityName,streetNumber,addressImageId,prefectureCode,cityCode,postCode,addressOutside,addressOutsideImageId,closeDate,closeCause,successorCorporateNumber,changeCause,assignmentDate,latest,enName,enPrefectureName,enCityName,enAddressOutside,furigana,hihyoji
5,1010001178932,登記記録の閉鎖等,0,2022-01-17,2022-01-04,サンフロンティアコミュニティアレンジメント株式会社,,株式会社,東京都,千代田区,有楽町１丁目２番２号,,13,101,1000006,,,2022-01-04,合併による解散等,9010001063953,令和４年１月１日東京都千代田区有楽町一丁目２番２号サンフロンティア不動産株式会社（9010001063953）に合併し解散,2016-10-13,1,,,,,サンフロンティアコミュニティアレンジメント,0
21,1010102002108,登記記録の閉鎖等,0,2022-01-17,2022-01-12,有限会社キハラ工務店,,有限会社,東京都,八王子市,中野町２５９０番地,,13,201,1920015,,,2022-01-12,清算の結了等,,,2015-10-05,1,,,,,,0
22,1010401065953,登記記録の閉鎖等,0,2022-01-17,2021-12-27,株式会社ＬＡＳＯ,,株式会社,東京都,渋谷区,神宮前１丁目５番８号,,13,113,1500001,,,2021-12-27,合併による解散等,1010701029666,令和３年１２月２４日東京都渋谷区神宮前一丁目５番８号Ｆａｒｆｅｔｃｈ　Ｊａｐａｎ株式会社（1010701029666）に合併し解散,2015-10-05,1,,,,,ラソ,0
33,1010605000450,登記記録の閉鎖等,0,2022-01-17,2021-12-27,天理教錦地分教會,,その他の設立登記法人,東京都,墨田区,向島４丁目１４番１４号,,13,107,1310033,,,2021-12-27,合併による解散等,6040005005217,令和３年１２月２３日千葉県松戸市松戸８９６番地６天理教錦島分教会（6040005005217）に合併し解散,2015-10-05,1,,,,,,0
42,1011001035339,登記記録の閉鎖等,0,2022-01-17,2022-01-04,株式会社東京旅行,,株式会社,東京都,練馬区,高松５丁目１１番２６号,,13,120,1790075,,,2022-01-04,合併による解散等,8010001050044,令和４年１月１日東京都練馬区高松五丁目１１番２６号Ｔ－ＬＩＦＥホールディングス株式会社（8010001050044）に合併し解散,2015-10-05,1,,,,,トウキョウリョコウ,0
43,1011001102452,登記記録の閉鎖等,0,2022-01-17,2022-01-07,シスバイオ株式会社,,株式会社,千葉県,千葉市美浜区,中瀬１丁目３番地幕張テクノガーデンＤ棟１１階,,12,106,2610023,,,2022-01-07,清算の結了等,,,2015-10-05,1,,,,,シスバイオ,0
56,1011101017113,登記記録の閉鎖等,0,2022-01-17,2022-01-07,ハイシテイ株式会社,,株式会社,東京都,新宿区,西新宿７丁目６番５号グローリア初穂生沼ビル１０階,,13,104,1600023,,,2022-01-07,清算の結了等,,,2015-10-05,1,,,,,ハイシテイ,0
80,1012701003130,登記記録の閉鎖等,0,2022-01-17,2022-01-12,株式会社保谷ハウジング,,株式会社,東京都,西東京市,富士町４丁目１３番２２号,,13,229,2020014,,,2022-01-12,清算の結了等,,,2015-10-05,1,,,,,ホウヤハウジング,0
83,1013202011382,登記記録の閉鎖等,0,2022-01-17,2021-12-23,有限会社キット建築サービス,,有限会社,東京都,目黒区,柿の木坂２丁目２５番１０号,,13,110,1520022,,,2021-12-23,清算の結了等,,,2015-10-05,1,,,,,キットケンチクサービス,0
91,1020001126361,登記記録の閉鎖等,0,2022-01-17,2022-01-12,株式会社既章商事,,株式会社,神奈川県,横浜市中区,本牧町２丁目３０４番地加藤ビル３Ｂ－６,,14,104,2310806,,,2022-01-12,清算の結了等,,,2018-05-17,1,,,,,キショウショウジ,0
97,1020002014623,登記記録の閉鎖等,0,2022-01-17,2022-01-12,有限会社タカ企画,,有限会社,神奈川県,横浜市青葉区,すすき野２丁目８番地すすき野第二団地９棟１０４号,,14,117,2250021,,,2022-01-12,清算の結了等,,,2015-10-05,1,,,,,タカキカク,0
150,1070001022226,登記記録の閉鎖等,0,2022-01-17,2022-01-13,株式会社ココ・キャピタル・マネジメント,,株式会社,群馬県,館林市,赤生田本町１５６１番地の２４,,10,207,3740014,,,2022-01-13,清算の結了等,,,2015-10-05,1,,,,,ココキャピタルマネジメント,0
154,1070002008125,登記記録の閉鎖等,0,2022-01-17,2022-01-14,有限会社澤田機械販売,,有限会社,群馬県,前橋市,二之宮町１３０３番地９,,10,201,3792117,,,2022-01-14,清算の結了等,,,2015-10-05,1,,,,,サワダキカイハンバイ,0
157,1070002023719,登記記録の閉鎖等,0,2022-01-17,2022-01-11,上越電気工業有限会社,,有限会社,群馬県,みどり市,笠懸町西鹿田１０３５番地１,,10,212,3792314,,,2022-01-11,清算の結了等,,,2015-10-05,1,,,,,ジョウエツデンキコウギョウ,0
167,1100002017700,登記記録の閉鎖等,0,2022-01-17,2022-01-12,有限会社ふう太企画,,有限会社,長野県,下高井郡木島平村,大字往郷１０２７番地,,20,562,3892302,,,2022-01-12,清算の結了等,,,2015-10-05,1,,,,,フウタキカク,0
195,1130002009587,登記記録の閉鎖等,0,2022-01-17,2022-01-07,有限会社アイル,,有限会社,京都府,京都市東山区,塩小路通大和大路東入２丁目南瓦町７０５番地の４,,26,105,6050964,,,2022-01-07,清算の結了等,,,2015-10-05,1,,,,,アイル,0
196,1140001035427,登記記録の閉鎖等,0,2022-01-17,2022-01-07,藤尾産商株式会社,,株式会社,兵庫県,明石市,鷹匠町１３番１０号,,28,203,6730848,,,2022-01-07,清算の結了等,,,2015-10-05,1,,,,,フジオサンショウ,0
208,1150001007268,登記記録の閉鎖等,0,2022-01-17,2022-01-14,株式会社ＬＯＡＦ　ＰＲＯＪＥＣＴ,,株式会社,奈良県,奈良市,手貝町１３番地の４,,29,201,6308206,,,2022-01-14,登記官による閉鎖,,,2015-10-05,1,,,,,,0
210,1150001014264,登記記録の閉鎖等,0,2022-01-17,2022-01-14,株式会社アヤセ,,株式会社,奈良県,北葛城郡河合町,大字佐味田２５０８番地１,,29,427,6360062,,,2022-01-14,登記官による閉鎖,,,2015-10-05,1,,,,,,0
214,1160001002177,登記記録の閉鎖等,0,2022-01-17,2022-01-14,銀座都市開発株式会社,,株式会社,滋賀県,大津市,和邇中浜３５６番地の１,,25,201,5200522,,,2022-01-14,登記官による閉鎖,,,2015-10-05,1,,,,,,0
216,1160001011054,登記記録の閉鎖等,0,2022-01-17,2022-01-14,株式会社アクアメイク松瀬,,株式会社,滋賀県,蒲生郡竜王町,大字信濃２０６番地,,25,384,5202503,,,2022-01-14,登記官による閉鎖,,,2015-10-05,1,,,,,,0
219,1160002004742,登記記録の閉鎖等,0,2022-01-17,2022-01-14,有限会社Ｒ１,,有限会社,滋賀県,大津市,膳所平尾町９８２番地,,25,201,5200824,,,2022-01-14,登記官による閉鎖,,,2015-10-05,1,,,,,,0
220,1160002008603,登記記録の閉鎖等,0,2022-01-17,2022-01-14,有限会社松本シールド工業,,有限会社,滋賀県,彦根市,野瀬町１４番地の１５,,25,202,5220055,,,2022-01-14,登記官による閉鎖,,,2015-10-05,1,,,,,,0
221,1160002009469,登記記録の閉鎖等,0,2022-01-17,2022-01-14,桂田商事有限会社,,有限会社,滋賀県,東近江市,垣見町７９３番地,,25,213,5211221,,,2022-01-14,登記官による閉鎖,,,2015-10-05,1,,,,,,0
222,1160003000708,登記記録の閉鎖等,0,2022-01-17,2022-01-14,合同会社石倉,,合同会社,滋賀県,長浜市,木之本町木之本８８３番地,,25,203,5290425,,,2022-01-14,登記官による閉鎖,,,2015-10-05,1,,,,,,0
226,1170005002718,登記記録の閉鎖等,0,2022-01-17,2021-12-28,天理教有田川分教会,,その他の設立登記法人,和歌山県,有田郡有田川町,大字修理川６０番地,,30,366,6430163,,,2021-12-28,合併による解散等,7170005002571,令和３年１２月２８日和歌山県有田郡広川町大字下津木字公門原８７０番地天理教紀伊津分教会（7170005002571）に合併し解散,2015-10-05,1,,,,,テンリキョウアリダガワブンキョウカイ,0
235,1180003014763,登記記録の閉鎖等,0,2022-01-17,2021-12-27,ペパーミントレコード合同会社,,合同会社,愛知県,名古屋市千種区,内山３丁目４番７号ガイビ社ビル５Ｆ,,23,101,4640075,,,2021-12-27,清算の結了等,,,2015-10-05,1,,,,,ペパーミントレコード,0
240,1180301011685,登記記録の閉鎖等,0,2022-01-17,2022-01-12,上田建総株式会社,,株式会社,愛知県,豊川市,小田渕町４丁目２２番地の７,,23,207,4420844,,,2022-01-12,清算の結了等,,,2015-10-05,1,,,,,ウエダケンソウ,0
265,1290002051937,登記記録の閉鎖等,0,2022-01-17,2022-01-13,有限会社猪口レンタカー,,有限会社,福岡県,久留米市,北野町今山５９０番地の５,,40,203,8301122,,,2022-01-13,清算の結了等,,,2015-10-05,1,,,,,イノクチレンタカー,0
276,1330001009997,登記記録の閉鎖等,0,2022-01-17,2022-01-17,アサヒカード株式会社,,株式会社,熊本県,菊池市,泗水町永４５４６番地７,,43,210,8611204,,,2022-01-17,登記官による閉鎖,,,2015-10-05,1,,,,,,0
277,1330001010831,登記記録の閉鎖等,0,2022-01-17,2022-01-17,株式会社成和,,株式会社,熊本県,上益城郡御船町,大字滝尾６１７６番地９,,43,441,8613208,,,2022-01-17,登記官による閉鎖,,,2015-10-05,1,,,,,,0
278,1330001014675,登記記録の閉鎖等,0,2022-01-17,2022-01-17,株式会社丸幸,,株式会社,熊本県,熊本市中央区,中央街１２番１号プレジデント第一ビル２Ｆ,,43,101,8600802,,,2022-01-17,登記官による閉鎖,,,2015-10-05,1,,,,,,0
279,1330001014808,登記記録の閉鎖等,0,2022-01-17,2022-01-17,株式会社ワンピース,,株式会社,熊本県,熊本市中央区,下通１丁目８番１６号,,43,101,8600807,,,2022-01-17,登記官による閉鎖,,,2015-10-05,1,,,,,,0
280,1330001016044,登記記録の閉鎖等,0,2022-01-17,2022-01-17,谷宗繊維株式会社,,株式会社,熊本県,球磨郡相良村,大字深水９７７番地,,43,510,8680094,,,2022-01-17,登記官による閉鎖,,,2016-08-02,1,,,,,,0
281,1330001017661,登記記録の閉鎖等,0,2022-01-17,2022-01-17,株式会社東政産業,,株式会社,熊本県,上益城郡益城町,大字宮園７９４番地１,,43,443,8612241,,,2022-01-17,登記官による閉鎖,,,2015-10-05,1,,,,,,0
282,1330002001615,登記記録の閉鎖等,0,2022-01-17,2022-01-17,有限会社エルムカンコウ開発,,有限会社,熊本県,熊本市中央区,新町１丁目１０番４８号,,43,101,8600004,,,2022-01-17,登記官による閉鎖,,,2015-10-05,1,,,,,,0
284,1330002004122,登記記録の閉鎖等,0,2022-01-17,2022-01-17,有限会社小林通信,,有限会社,熊本県,熊本市西区,池田３丁目４６番２４号,,43,103,8600082,,,2022-01-17,登記官による閉鎖,,,2015-10-05,1,,,,,,0
285,1330002013049,登記記録の閉鎖等,0,2022-01-17,2022-01-17,有限会社リュヌ・カトルズ,,有限会社,熊本県,熊本市東区,御領１丁目９番６号,,43,102,8618035,,,2022-01-17,登記官による閉鎖,,,2015-10-05,1,,,,,,0
286,1330002014146,登記記録の閉鎖等,0,2022-01-17,2022-01-17,有限会社ＢＲＥＥＤ,,有限会社,熊本県,熊本市中央区,新市街３番１２号,,43,101,8600803,,,2022-01-17,登記官による閉鎖,,,2015-10-05,1,,,,,,0
287,1330002021745,登記記録の閉鎖等,0,2022-01-17,2022-01-17,有限会社グリーンジャパン,,有限会社,熊本県,荒尾市,下井手５１５番地５,,43,204,8640011,,,2022-01-17,登記官による閉鎖,,,2015-10-05,1,,,,,,0
288,1330002022917,登記記録の閉鎖等,0,2022-01-17,2022-01-17,有限会社マルコメ,,有限会社,熊本県,阿蘇市,黒川４２９番地,,43,214,8692225,,,2022-01-17,登記官による閉鎖,,,2015-10-05,1,,,,,,0
289,1330002024285,登記記録の閉鎖等,0,2022-01-17,2022-01-17,有限会社エー・エム・エフ,,有限会社,熊本県,宇土市,上網田町字梅岡３８２３－６,,43,211,8693172,,,2022-01-17,登記官による閉鎖,,,2015-10-05,1,,,,,,0
290,1330002027817,登記記録の閉鎖等,0,2022-01-17,2022-01-17,有限会社タニワキハウス,,有限会社,熊本県,水俣市,古城２丁目８番３４号,,43,205,8670012,,,2022-01-17,登記官による閉鎖,,,2015-10-05,1,,,,,,0
291,1330002029920,登記記録の閉鎖等,0,2022-01-17,2022-01-17,有限会社藍田電子,,有限会社,熊本県,人吉市,蓑野町中棚１４４番地,,43,203,8680061,,,2022-01-17,登記官による閉鎖,,,2015-10-05,1,,,,,,0
292,1330002031455,登記記録の閉鎖等,0,2022-01-17,2022-01-17,有限会社光テント商会,,有限会社,熊本県,熊本市西区,田崎３丁目１番５号,,43,103,8600053,,,2022-01-17,登記官による閉鎖,,,2015-10-05,1,,,,,,0
293,1330003000673,登記記録の閉鎖等,0,2022-01-17,2022-01-17,農業法人熊本種苗育成合資会社,,合資会社,熊本県,熊本市東区,戸島町１１７７番地１,,43,102,8618031,,,2022-01-17,登記官による閉鎖,,,2015-10-05,1,,,,,,0
294,1330003006935,登記記録の閉鎖等,0,2022-01-17,2022-01-17,合資会社平井汽船,,合資会社,熊本県,宇城市,三角町中村２６９番地１,,43,213,8693204,,,2022-01-17,登記官による閉鎖,,,2016-12-22,1,,,,,,0
295,1330005002494,登記記録の閉鎖等,0,2022-01-17,2022-01-17,ＮＰＯ法人くまもとレインボープロジェクト,,その他の設立登記法人,熊本県,熊本市中央区,新屋敷１丁目１６番１－１２０３号,,43,101,8620975,,,2022-01-17,登記官による閉鎖,,,2015-10-05,1,,,,,,0
303,1370002010026,登記記録の閉鎖等,0,2022-01-17,2022-01-13,有限会社エースコーポレーション,,有限会社,宮城県,仙台市青葉区,一番町２丁目７番７号,,04,101,9800811,,,2022-01-13,清算の結了等,,,2015-10-05,1,,,,,エースコーポレーション,0
310,1380002012310,登記記録の閉鎖等,0,2022-01-17,2022-01-04,有限会社松屋商店,,有限会社,福島県,郡山市,方八町１丁目１１番６号,,07,203,9638811,,,2022-01-04,清算の結了等,,,2015-10-05,1,,,,,マツヤショウテン,0
313,1420002003800,登記記録の閉鎖等,0,2022-01-17,2022-01-14,有限会社北日本テクノシステム,,有限会社,青森県,青森市,大字浜田字玉川１４３番地２０,,02,201,0300843,,,2022-01-14,登記官による閉鎖,,,2015-10-05,1,,,,,,0
314,1420005004804,登記記録の閉鎖等,0,2022-01-17,2022-01-14,農事組合法人いわき富士農園,,その他の設立登記法人,青森県,弘前市,大字元寺町４３番地３,,02,202,0368355,,,2022-01-14,登記官による閉鎖,,,2015-10-05,1,,,,,イワキフジノウエン,0
320,1470001002815,登記記録の閉鎖等,0,2022-01-17,2022-01-14,株式会社常五郎,,株式会社,香川県,高松市,木太町３９５４番地４,,37,201,7600080,,,2022-01-14,清算の結了等,,,2015-10-05,1,,,,,ツネゴロウ,0
322,1480002005626,登記記録の閉鎖等,0,2022-01-17,2022-01-17,有限会社徳島工業,,有限会社,徳島県,名西郡石井町,石井字城ノ内３４９番地７,,36,341,7793232,,,2022-01-17,登記官による閉鎖,,,2015-10-05,1,,,,,,0
324,1480002010262,登記記録の閉鎖等,0,2022-01-17,2022-01-17,有限会社東建工,,有限会社,徳島県,鳴門市,大津町大代６８６番地,,36,202,7720041,,,2022-01-17,登記官による閉鎖,,,2015-10-05,1,,,,,,0
325,1480002010881,登記記録の閉鎖等,0,2022-01-17,2022-01-17,有限会社マイハウス,,有限会社,徳島県,鳴門市,撫養町大桑島字辷岩浜２３番地１１３,,36,202,7720011,,,2022-01-17,登記官による閉鎖,,,2015-10-05,1,,,,,,0
326,1480002013315,登記記録の閉鎖等,0,2022-01-17,2022-01-17,有限会社椿自動車,,有限会社,徳島県,阿南市,椿町庄田８６番地の１１,,36,204,7791750,,,2022-01-17,登記官による閉鎖,,,2015-10-05,1,,,,,,0
327,1480002014577,登記記録の閉鎖等,0,2022-01-17,2022-01-17,有限会社内田風雲堂薬局,,有限会社,徳島県,美馬市,脇町大字脇町１７９番地,,36,207,7793610,,,2022-01-17,登記官による閉鎖,,,2015-10-05,1,,,,,,0
328,1480005004278,登記記録の閉鎖等,0,2022-01-17,2022-01-17,農事組合法人南徳島葉たばこ生産組合,,その他の設立登記法人,徳島県,阿南市,下大野町羽坂１４５番地１,,36,204,7740047,,,2022-01-17,登記官による閉鎖,,,2015-10-05,1,,,,,,0
331,2010001029696,登記記録の閉鎖等,0,2022-01-17,2022-01-11,株式会社マーキュリー,,株式会社,東京都,千代田区,飯田橋１丁目１２番６号,,13,101,1020072,,,2022-01-11,清算の結了等,,,2015-10-05,1,,,,,マーキュリー,0
333,2010001131808,登記記録の閉鎖等,0,2022-01-17,2021-12-28,三井物産カッパーインベストメント株式会社,,株式会社,東京都,千代田区,大手町１丁目２番１号,,13,101,1000004,,,2021-12-28,清算の結了等,,,2015-10-05,1,,,,,ミツイブッサンカッパーインベストメント,0
335,2010001188930,登記記録の閉鎖等,0,2022-01-17,2022-01-11,株式会社ＣＯＣＯ　ＣＯＭＰＡＮＹ,,株式会社,東京都,千代田区,神田鍛冶町３丁目７番地２１－４０３,,13,101,1010045,,,2022-01-11,清算の結了等,,,2018-01-16,1,,,,,,0
388,2011501002135,登記記録の閉鎖等,0,2022-01-17,2022-01-11,株式会社ジムクォーツ,,株式会社,東京都,北区,赤羽２丁目６５番７号,,13,117,1150045,,,2022-01-11,清算の結了等,,,2015-10-05,1,,,,,ジムクォーツ,0
400,2012401013354,登記記録の閉鎖等,0,2022-01-17,2022-01-11,株式会社健聴,,株式会社,東京都,武蔵野市,吉祥寺本町１丁目７番４号,,13,203,1800004,,,2022-01-11,清算の結了等,,,2015-10-05,1,,,,,ケンチョウ,0
423,2020001071540,登記記録の閉鎖等,0,2022-01-17,2022-01-04,株式会社マルサン企画,,株式会社,神奈川県,横浜市都筑区,茅ケ崎中央５８番１号,,14,118,2240032,,,2022-01-04,合併による解散等,1020001035950,令和３年１２月２８日横浜市都筑区茅ケ崎中央５８番１号株式会社マルサン商会（1020001035950）に合併し解散,2015-10-05,1,,,,,マルサンキカク,0
435,2021002028661,登記記録の閉鎖等,0,2022-01-17,2021-12-24,有限会社アクト愛真工業,,有限会社,神奈川県,相模原市南区,東林間７丁目３６番３１号,,14,153,2520311,,,2021-12-24,清算の結了等,,,2015-10-05,1,,,,,アクトアイシンコウギョウ,0
437,2021002051449,登記記録の閉鎖等,0,2022-01-17,2022-01-13,有限会社かづや,,有限会社,神奈川県,小田原市,栄町２丁目１番２０号パルシティー３階,,14,206,2500011,,,2022-01-13,清算の結了等,,,2015-10-05,1,,,,,カヅヤ,0
472,2070001016458,登記記録の閉鎖等,0,2022-01-17,2022-01-13,株式会社葉山ホンダ,,株式会社,群馬県,桐生市,境野町３丁目２１２３番地,,10,203,3760002,,,2022-01-13,清算の結了等,,,2015-10-05,1,,,,,ハヤマホンダ,0
480,2080102021307,登記記録の閉鎖等,0,2022-01-17,2022-01-11,有限会社甲子苑,,有限会社,静岡県,賀茂郡東伊豆町,奈良本１２４８番地２,,22,301,4130302,,,2022-01-11,清算の結了等,,,2015-10-05,1,,,,,コウシエン,0
499,2110002031377,登記記録の閉鎖等,0,2022-01-17,2022-01-11,有限会社ワイ・エス興業,,有限会社,新潟県,長岡市,平４丁目５番８２号,,15,202,9400137,,,2022-01-11,清算の結了等,,,2015-10-05,1,,,,,ワイエスコウギョウ,0
547,2150001001864,登記記録の閉鎖等,0,2022-01-17,2022-01-14,日商石材株式会社,,株式会社,奈良県,奈良市,富雄元町２丁目７番１２,,29,201,6310078,,,2022-01-14,登記官による閉鎖,,,2015-10-05,1,,,,,,0
548,2150001005725,登記記録の閉鎖等,0,2022-01-17,2022-01-14,小泉ガス株式会社,,株式会社,奈良県,大和郡山市,冠山町２番５３号,,29,203,6391018,,,2022-01-14,登記官による閉鎖,,,2015-10-05,1,,,,,,0
549,2150001008876,登記記録の閉鎖等,0,2022-01-17,2022-01-14,オーラン株式会社,,株式会社,奈良県,奈良市,西大寺小坊町１番５号,,29,201,6310827,,,2022-01-14,登記官による閉鎖,,,2015-10-05,1,,,,,,0
551,2150001011054,登記記録の閉鎖等,0,2022-01-17,2022-01-14,養壽堂製薬株式会社,,株式会社,奈良県,高市郡高取町,大字清水谷１０５５番地,,29,401,6350103,,,2022-01-14,登記官による閉鎖,,,2015-10-05,1,,,,,,0
552,2150001019080,登記記録の閉鎖等,0,2022-01-17,2022-01-12,株式会社宝の家,,株式会社,奈良県,吉野郡吉野町,大字吉野山９４７番地,,29,441,6393115,,,2022-01-12,清算の結了等,,,2015-10-05,1,,,,,ホウノヤ,0
555,2150002001830,登記記録の閉鎖等,0,2022-01-17,2022-01-14,有限会社森嶋エンジニアリング,,有限会社,奈良県,奈良市,石木町２９１番地,,29,201,6310054,,,2022-01-14,登記官による閉鎖,,,2015-10-05,1,,,,,,0
556,2150005007197,登記記録の閉鎖等,0,2022-01-17,2022-01-14,黒滝山林労働組合,,その他の設立登記法人,奈良県,吉野郡黒滝村,大字寺戸１９６番地,,29,444,6380251,,,2022-01-14,登記官による閉鎖,,,2015-10-05,1,,,,,,0
557,2160001003281,登記記録の閉鎖等,0,2022-01-17,2022-01-14,関西住販株式会社,,株式会社,滋賀県,大津市,八屋戸２３０６番地２７,,25,201,5200515,,,2022-01-14,登記官による閉鎖,,,2015-10-05,1,,,,,,0
560,2160002005673,登記記録の閉鎖等,0,2022-01-17,2022-01-14,有限会社谷利製陶所,,有限会社,滋賀県,甲賀市,信楽町長野８１３番地,,25,209,5291851,,,2022-01-14,登記官による閉鎖,,,2015-10-05,1,,,,,,0
565,2160005008525,登記記録の閉鎖等,0,2022-01-17,2022-01-14,特定非営利活動法人地域通貨おうみ委員会,,その他の設立登記法人,滋賀県,草津市,草津町１６６０番地,,25,206,5250036,,,2022-01-14,登記官による閉鎖,,,2015-10-05,1,,,,,,0
581,2180002062688,登記記録の閉鎖等,0,2022-01-17,2022-01-13,有限会社名東設備サービス,,有限会社,愛知県,名古屋市名東区,牧の里３丁目３０５番地,,23,115,4650068,,,2022-01-13,清算の結了等,,,2015-10-05,1,,,,,メイトウセツビサービス,0
595,2230002001640,登記記録の閉鎖等,0,2022-01-17,2022-01-07,有限会社シーモンキー,,有限会社,富山県,富山市,中央通り２丁目５番１５号,,16,201,9300044,,,2022-01-07,清算の結了等,,,2015-10-05,1,,,,,,0
617,2300001008266,登記記録の閉鎖等,0,2022-01-17,2022-01-12,株式会社リヒト,,株式会社,佐賀県,小城市,牛津町柿樋瀬８８９番地１８,00095168,41,208,8490302,,,2022-01-12,清算の結了等,,,2015-10-05,1,,,,,リヒト,0
621,2330001005368,登記記録の閉鎖等,0,2022-01-17,2022-01-17,株式会社熊本菱自トラック,,株式会社,熊本県,熊本市南区,南高江５丁目１番１号,,43,104,8614106,,,2022-01-17,登記官による閉鎖,,,2015-10-05,1,,,,,,0
622,2330001010525,登記記録の閉鎖等,0,2022-01-17,2022-01-17,株式会社食品特機,,株式会社,熊本県,山鹿市,鹿央町広３５５４番地,,43,208,8610564,,,2022-01-17,登記官による閉鎖,,,2015-10-05,1,,,,,,0
623,2330001015350,登記記録の閉鎖等,0,2022-01-17,2022-01-17,株式会社山川推進,,株式会社,熊本県,天草市,有明町大島子１５０６番地,,43,215,8617314,,,2022-01-17,登記官による閉鎖,,,2015-10-05,1,,,,,,0
625,2330002012867,登記記録の閉鎖等,0,2022-01-17,2022-01-17,有限会社天使のパン,,有限会社,熊本県,熊本市西区,谷尾崎町１２４０番地１７,,43,103,8600044,,,2022-01-17,登記官による閉鎖,,,2015-10-05,1,,,,,,0
626,2330002016356,登記記録の閉鎖等,0,2022-01-17,2022-01-17,有限会社野田建設,,有限会社,熊本県,阿蘇郡西原村,大字河原１３９２番地,,43,432,8612404,,,2022-01-17,登記官による閉鎖,,,2015-10-05,1,,,,,,0
627,2330002016513,登記記録の閉鎖等,0,2022-01-17,2022-01-17,有限会社大和,,有限会社,熊本県,菊池郡大津町,大字錦野３９０番地,,43,403,8691216,,,2022-01-17,登記官による閉鎖,,,2015-10-05,1,,,,,,0
628,2330002026280,登記記録の閉鎖等,0,2022-01-17,2022-01-17,有限会社富士建設,,有限会社,熊本県,八代市,西片町２１３２番地の３,,43,202,8660811,,,2022-01-17,登記官による閉鎖,,,2015-10-05,1,,,,,,0
629,2330002031462,登記記録の閉鎖等,0,2022-01-17,2022-01-17,有限会社魚松,,有限会社,熊本県,上天草市,松島町合津７９１４番地の４４,,43,212,8616102,,,2022-01-17,登記官による閉鎖,,,2015-10-05,1,,,,,,0
630,2330005001990,登記記録の閉鎖等,0,2022-01-17,2022-01-17,特定非営利活動法人日本巨石文化研究所,,その他の設立登記法人,熊本県,熊本市東区,月出４丁目４番１４５－１００８号,,43,102,8620920,,,2022-01-17,登記官による閉鎖,,,2015-10-05,1,,,,,,0
631,2330005004688,登記記録の閉鎖等,0,2022-01-17,2022-01-17,特定非営利活動法人トヨトミ,,その他の設立登記法人,熊本県,荒尾市,高浜１８２５番地５５,,43,204,8640025,,,2022-01-17,登記官による閉鎖,,,2015-10-05,1,,,,,,0
633,2350002012262,登記記録の閉鎖等,0,2022-01-17,2022-01-11,有限会社宝運輸,,有限会社,宮崎県,延岡市,川島町９０３番地,,45,203,8820017,,,2022-01-11,清算の結了等,,,2015-10-05,1,,,,,タカラウンユ,0
647,2400002009179,登記記録の閉鎖等,0,2022-01-17,2022-01-13,有限会社奥田電装,,有限会社,岩手県,北上市,和賀町竪川目２地割３番地８,,03,206,0240332,,,2022-01-13,清算の結了等,,,2015-10-05,1,,,,,オクダデンソウ,0
654,2420001001399,登記記録の閉鎖等,0,2022-01-17,2022-01-14,津上自販株式会社,,株式会社,青森県,青森市,松原３丁目９番２２号,,02,201,0300813,,,2022-01-14,登記官による閉鎖,,,2015-10-05,1,,,,,,0
655,2420001006745,登記記録の閉鎖等,0,2022-01-17,2022-01-14,株式会社ラ・プラザ,,株式会社,青森県,八戸市,大字尻内町字嶋田１４番地１,,02,203,0391101,,,2022-01-14,登記官による閉鎖,,,2015-10-05,1,,,,,,0
656,2420001008527,登記記録の閉鎖等,0,2022-01-17,2022-01-11,深浦臨海生コンクリート株式会社,,株式会社,青森県,西津軽郡深浦町,大字深浦字岡崎３３３番地１,,02,323,0382324,,,2022-01-11,清算の結了等,,,2015-10-05,1,,,,,フカウラリンカイナマコンクリート,0
657,2420002011199,登記記録の閉鎖等,0,2022-01-17,2022-01-14,有限会社大栄商事,,有限会社,青森県,五所川原市,字川端町３番地,,02,205,0370072,,,2022-01-14,登記官による閉鎖,,,2015-10-05,1,,,,,,0
658,2420002012692,登記記録の閉鎖等,0,2022-01-17,2022-01-14,有限会社八木橋重克商店,,有限会社,青森県,北津軽郡板柳町,大字大俵字和田２１７番地８,,02,381,0383635,,,2022-01-14,登記官による閉鎖,,,2015-10-05,1,,,,,,0
659,2420005004241,登記記録の閉鎖等,0,2022-01-17,2022-01-14,農事組合法人大恵農園,,その他の設立登記法人,青森県,北津軽郡鶴田町,大字鶴田字中泉３４,,02,384,0383503,,,2022-01-14,登記官による閉鎖,,,2015-10-05,1,,,,,,0
661,2430001046220,登記記録の閉鎖等,0,2022-01-17,2022-01-13,株式会社Ｌｌｏｙｄ,,株式会社,北海道,札幌市中央区,大通西８丁目２番地３９北大通ビル２Ｆ,,01,101,0600042,,,2022-01-13,清算の結了等,,,2015-10-05,1,,,,,,0
669,2480001004479,登記記録の閉鎖等,0,2022-01-17,2022-01-17,株式会社コンドウ,,株式会社,徳島県,吉野川市,鴨島町上浦３２７番地,,36,205,7760037,,,2022-01-17,登記官による閉鎖,,,2015-10-05,1,,,,,,0
671,2480002004503,登記記録の閉鎖等,0,2022-01-17,2022-01-17,有限会社松本農機,,有限会社,徳島県,徳島市,不動東町５丁目１６９番地１２,,36,201,7700062,,,2022-01-17,登記官による閉鎖,,,2015-10-05,1,,,,,,0
672,2480002004619,登記記録の閉鎖等,0,2022-01-17,2022-01-17,有限会社マキシム徳島,,有限会社,徳島県,徳島市,北田宮２丁目７番１１号,,36,201,7700003,,,2022-01-17,登記官による閉鎖,,,2015-10-05,1,,,,,,0
673,2480002006169,登記記録の閉鎖等,0,2022-01-17,2022-01-17,有限会社山本組,,有限会社,徳島県,名西郡石井町,石井字尼寺２６３番地,,36,341,7793235,,,2022-01-17,登記官による閉鎖,,,2015-10-05,1,,,,,,0
674,2480002010682,登記記録の閉鎖等,0,2022-01-17,2022-01-17,有限会社春木圭二商店,,有限会社,徳島県,鳴門市,里浦町里浦字坂田１００番地,,36,202,7720021,,,2022-01-17,登記官による閉鎖,,,2015-10-05,1,,,,,,0
675,2480002013875,登記記録の閉鎖等,0,2022-01-17,2022-01-17,有限会社若木組,,有限会社,徳島県,阿南市,羽ノ浦町中庄京満１番地１,,36,204,7791101,,,2022-01-17,登記官による閉鎖,,,2015-10-05,1,,,,,,0
676,2480002015112,登記記録の閉鎖等,0,2022-01-17,2022-01-17,有限会社森忠,,有限会社,徳島県,美馬市,脇町大字脇町１０５８番地,,36,207,7793610,,,2022-01-17,登記官による閉鎖,,,2015-10-05,1,,,,,,0
677,2480005005341,登記記録の閉鎖等,0,2022-01-17,2022-01-17,医療法人善樹会,,その他の設立登記法人,徳島県,美馬郡つるぎ町,貞光字町２７番地,,36,468,7794101,,,2022-01-17,登記官による閉鎖,,,2015-10-05,1,,,,,,0
686,3010001112039,登記記録の閉鎖等,0,2022-01-17,2022-01-05,株式会社ヴェリア・ラボラトリーズ,,株式会社,東京都,港区,海岸３丁目２０番２０号,,13,103,1080022,,,2022-01-05,合併による解散等,7010401085351,令和４年１月１日東京都港区海岸三丁目２０番２０号ヨコソーレインボータワーヴェオリア・ジェネッツ株式会社（7010401085351）に合併し解散,2015-10-05,1,,,,,ヴェリアラボラトリーズ,0
690,3010001152118,登記記録の閉鎖等,0,2022-01-17,2022-01-04,ビジネスアシスト株式会社,,株式会社,東京都,千代田区,神田小川町２丁目４番地５杉商ビル,,13,101,1010052,,,2022-01-04,合併による解散等,6010001100619,令和４年１月１日東京都千代田区神田小川町二丁目４番５号杉商ビル８階株式会社マイナビＢＸ（6010001100619）に合併し解散,2015-10-05,1,,,,,ビジネスアシスト,0
705,3010103001354,登記記録の閉鎖等,0,2022-01-17,2022-01-12,ＴＴＣ合同会社,,合同会社,東京都,八王子市,天神町二丁目１０番４０５号,,13,201,1920074,,,2022-01-12,清算の結了等,,,2019-01-08,1,,,,,ティティシー,0
713,3010401074052,登記記録の閉鎖等,0,2022-01-17,2022-01-04,株式会社ＳＨＩＮＫＯＨ,,株式会社,東京都,港区,西麻布２丁目１１番２号,,13,103,1060031,,,2022-01-04,合併による解散等,3010401002005,令和４年１月１日東京都港区西麻布二丁目１１番２号株式会社ＳＨＩＮＫＯＨ（3010401002005）に合併し解散,2015-10-05,1,,,,,シンコー,0
714,3010401097549,登記記録の閉鎖等,0,2022-01-17,2022-01-05,株式会社Ｓ－ＭＩＬＥ,,株式会社,東京都,港区,南青山２丁目２番１５号ウイン青山１４０３,,13,103,1070062,,,2022-01-05,清算の結了等,,,2015-10-05,1,,,,,,0
716,3010401107365,登記記録の閉鎖等,0,2022-01-17,2022-01-05,株式会社ＸｒｏｓｓＶａｔｅ,,株式会社,東京都,港区,港南１丁目６番３４号,,13,103,1080075,,,2022-01-05,合併による解散等,7010401053234,令和４年１月１日東京都港区港南一丁目６番３４号株式会社Ｏ２（7010401053234）に合併し解散,2015-10-05,1,,,,,クロスベイト,0
725,3010502000948,登記記録の閉鎖等,0,2022-01-17,2022-01-13,有限会社市峰,,有限会社,東京都,台東区,駒形２丁目３番４－６０６号第一荒井ビル,,13,106,1110043,,,2022-01-13,清算の結了等,,,2015-10-05,1,,,,,イチミネ,0
736,3011005007381,登記記録の閉鎖等,0,2022-01-17,2021-12-24,一般社団法人日本占いコンテンツ協会,,その他の設立登記法人,東京都,渋谷区,宇田川町４０番１号,,13,113,1500042,,,2021-12-24,清算の結了等,,,2017-10-06,1,,,,,ニホンウラナイコンテンツキョウカイ,0
749,3012403003542,登記記録の閉鎖等,0,2022-01-17,2022-01-04,合同会社ＦｒｏｍＣｏｆｆｅｅ,,合同会社,東京都,武蔵野市,吉祥寺南町２丁目３２－６ソレイユ吉祥寺Ｓ１,,13,203,1800003,,,2022-01-04,清算の結了等,,,2018-08-10,1,,,,,フロムコーヒー,0
752,3013301045206,登記記録の閉鎖等,0,2022-01-17,2022-01-07,株式会社アットワークス,,株式会社,東京都,豊島区,西池袋１丁目４番１０号,,13,116,1710021,,,2022-01-07,合併による解散等,5013301044932,令和４年１月１日東京都豊島区西池袋一丁目４番１０号株式会社ＦＲＥＥ　ＪＯＢ（5013301044932）に合併し解散,2020-02-12,1,,,,,アットワークス,0
756,3020001126120,登記記録の閉鎖等,0,2022-01-17,2022-01-11,株式会社ヴェリタスジャパン,,株式会社,神奈川県,横浜市中区,尾上町６丁目８７番地３産経横浜ビル３階,,14,104,2310015,,,2022-01-11,合併による解散等,8020001126396,令和４年１月１日神奈川県横浜市中区尾上町六丁目８７番地３産経横浜ビル３階株式会社ＭＥＲＥＣＯＭ（8020001126396）に合併し解散,2018-05-01,1,,,,,ヴェリタスジャパン,0
771,3021002067956,登記記録の閉鎖等,0,2022-01-17,2022-01-13,有限会社アラヰ洋装店,,有限会社,神奈川県,逗子市,逗子５丁目３番３５号,,14,208,2490006,,,2022-01-13,清算の結了等,,,2015-10-05,1,,,,,アライヨウソウテン,0
784,3030003013935,登記記録の閉鎖等,0,2022-01-17,2022-01-13,長栄合同会社,,合同会社,埼玉県,草加市,長栄２丁目４７－１８,,11,221,3400051,,,2022-01-13,清算の結了等,,,2019-08-09,1,,,,,チョウエイ,0
785,3040001061737,登記記録の閉鎖等,0,2022-01-17,2022-01-06,チバアス建材株式会社,,株式会社,千葉県,旭市,鎌数１０３５３番地,,12,215,2892505,,,2022-01-06,清算の結了等,,,2015-10-05,1,,,,,チバアスケンザイ,0
794,3050001024932,登記記録の閉鎖等,0,2022-01-17,2022-01-05,株式会社中村自工大成製作所,,株式会社,茨城県,高萩市,大字赤浜字松久保４１２番地,,08,214,3180001,,,2022-01-05,合併による解散等,6010601005408,令和４年１月１日茨城県高萩市大字赤浜字松久保４１２番地株式会社ナジコ製作所（6010601005408）に合併し解散,2015-10-05,1,,,,,ナカムラジコウタイセイセイサクショ,0
795,3050001047900,登記記録の閉鎖等,0,2022-01-17,2022-01-11,ケイアイネットリアルティ４ｔｈ株式会社,,株式会社,茨城県,水戸市,中央２丁目３番１８号,,08,201,3100805,,,2022-01-11,合併による解散等,5070001033624,令和４年１月１日群馬県高崎市上中居町１７２７番地ケイアイネットリアルティ株式会社（5070001033624）に合併し解散,2020-08-11,1,,,,,ケイアイネットリアルティフォース,0
821,3120001105345,登記記録の閉鎖等,0,2022-01-17,2022-01-12,フードスタッフ株式会社,,株式会社,大阪府,大阪市淀川区,西中島３丁目１０番１２号サムティ西中島ビル６０２号,,27,123,5320011,,,2022-01-12,合併による解散等,2500001014640,令和３年１２月３１日愛媛県四国中央市川之江町４１０５番地１７サンヨー食品株式会社（2500001014640）に合併し解散,2015-10-05,1,,,,,,0
848,3140001098182,登記記録の閉鎖等,0,2022-01-17,2022-01-04,株式会社廣岡会計事務所,00040336,株式会社,兵庫県,神戸市中央区,御幸通８丁目１番６号神戸国際会館２２階,,28,110,6510087,,,2022-01-04,合併による解散等,6140001062573,令和４年１月１日兵庫県姫路市西新在家二丁目３番４号株式会社サン・エイド（6140001062573）に合併し解散,2015-10-05,1,,,,,ヒロオカカイケイジムショ,0
856,3150001005278,登記記録の閉鎖等,0,2022-01-17,2022-01-14,株式会社ランドスケープ,,株式会社,奈良県,奈良市,押熊町２３６５番地,,29,201,6310011,,,2022-01-14,登記官による閉鎖,,,2015-10-05,1,,,,,,0
857,3150001010030,登記記録の閉鎖等,0,2022-01-17,2022-01-14,桶辰商事株式会社,,株式会社,奈良県,吉野郡東吉野村,大字小川８８８番地,,29,453,6332421,,,2022-01-14,登記官による閉鎖,,,2015-10-05,1,,,,,,0
858,3150001010105,登記記録の閉鎖等,0,2022-01-17,2022-01-14,株式会社光輝,,株式会社,奈良県,宇陀市,室生上笠間１１４７番地の９３,,29,212,6320202,,,2022-01-14,登記官による閉鎖,,,2016-12-20,1,,,,,,0
859,3150002000724,登記記録の閉鎖等,0,2022-01-17,2022-01-14,有限会社サンスペース,,有限会社,奈良県,奈良市,富雄元町２丁目６番４８－５０５号,,29,201,6310078,,,2022-01-14,登記官による閉鎖,,,2015-10-05,1,,,,,,0
860,3150002008180,登記記録の閉鎖等,0,2022-01-17,2022-01-14,有限会社リブハート八木,,有限会社,奈良県,橿原市,内膳町２丁目１番４０号,,29,205,6340804,,,2022-01-14,登記官による閉鎖,,,2015-10-05,1,,,,,,0
861,3150002010319,登記記録の閉鎖等,0,2022-01-17,2022-01-14,有限会社タキタ,,有限会社,奈良県,香芝市,磯壁３丁目７３番地の１１,,29,210,6390236,,,2022-01-14,登記官による閉鎖,,,2015-10-05,1,,,,,,0
862,3150005002131,登記記録の閉鎖等,0,2022-01-17,2022-01-14,奈良県緑化造園協同組合連合会,,その他の設立登記法人,奈良県,奈良市,東紀寺町２丁目８番８号,,29,201,6308305,,,2022-01-14,登記官による閉鎖,,,2015-10-05,1,,,,,,0
863,3160001003264,登記記録の閉鎖等,0,2022-01-17,2022-01-14,株式会社東亜洋行,,株式会社,滋賀県,大津市,錦織町５７９番地の２,,25,201,5200000,,,2022-01-14,登記官による閉鎖,,,2016-07-12,1,,,,,,0
864,3160001004320,登記記録の閉鎖等,0,2022-01-17,2022-01-14,株式会社イケベ洋品店,,株式会社,滋賀県,大津市,荒川７１８番地の２１,,25,201,5200513,,,2022-01-14,登記官による閉鎖,,,2015-10-05,1,,,,,,0
865,3160001004386,登記記録の閉鎖等,0,2022-01-17,2022-01-14,株式会社アップスタート,,株式会社,滋賀県,大津市,南志賀１丁目１－１６,,25,201,5200011,,,2022-01-14,登記官による閉鎖,,,2015-10-05,1,,,,,,0
866,3160001013189,登記記録の閉鎖等,0,2022-01-17,2022-01-14,株式会社森野設計事務所,,株式会社,滋賀県,草津市,若竹町８番１０号,,25,206,5250031,,,2022-01-14,登記官による閉鎖,,,2015-10-05,1,,,,,,0
867,3160001014105,登記記録の閉鎖等,0,2022-01-17,2022-01-14,株式会社山栄技建,,株式会社,滋賀県,栗東市,小柿５丁目２０番１６号,,25,208,5203024,,,2022-01-14,登記官による閉鎖,,,2015-10-05,1,,,,,,0
868,3160002007082,登記記録の閉鎖等,0,2022-01-17,2022-01-14,有限会社モールドアドバンス,,有限会社,滋賀県,長浜市,徳山町４０４番地,,25,203,5260212,,,2022-01-14,登記官による閉鎖,,,2015-10-05,1,,,,,,0
871,3160005002106,登記記録の閉鎖等,0,2022-01-17,2022-01-14,特定非営利活動法人ビワコ国際福祉支援センター,,その他の設立登記法人,滋賀県,大津市,苗鹿２丁目２０番２号,,25,201,5200102,,,2022-01-14,登記官による閉鎖,,,2015-10-05,1,,,,,,0
872,3160005002122,登記記録の閉鎖等,0,2022-01-17,2022-01-14,特定非営利活動法人ＩＴ近江あゆみ会,,その他の設立登記法人,滋賀県,大津市,際川３丁目１番１６号ヤマキハイツ２０２,,25,201,5200002,,,2022-01-14,登記官による閉鎖,,,2015-10-05,1,,,,,,0
881,3180001112286,登記記録の閉鎖等,0,2022-01-17,2022-01-07,株式会社サンフレッシュブルーム,,株式会社,愛知県,豊明市,西川町広原４３番地２,,23,229,4701121,,,2022-01-07,合併による解散等,4080001003255,令和４年１月１日静岡市駿河区小鹿三丁目１番５８号株式会社タカラ・エムシー（4080001003255）に合併し解散,2015-10-05,1,,,,,サンフレッシュブルーム,0
897,3180002080128,登記記録の閉鎖等,0,2022-01-17,2022-01-11,有限会社岡山興業,,有限会社,愛知県,一宮市,高田字薮田４８番地,,23,203,4910125,,,2022-01-11,清算の結了等,,,2015-10-05,1,,,,,オカヤマコウギョウ,0
902,3180301000281,登記記録の閉鎖等,0,2022-01-17,2022-01-12,株式会社インテリアコーセー,,株式会社,愛知県,岡崎市,材木町１丁目３番地１,,23,202,4440057,,,2022-01-12,清算の結了等,,,2015-10-05,1,,,,,インテリアコーセー,0
907,3190003001899,登記記録の閉鎖等,0,2022-01-17,2022-01-12,ポラン合同会社,,合同会社,三重県,伊勢市,御薗町長屋１５９９番地６,,24,203,5160804,,,2022-01-12,清算の結了等,,,2015-10-05,1,,,,,ポラン,0
951,3330002010440,登記記録の閉鎖等,0,2022-01-17,2022-01-17,有限会社未来,,有限会社,熊本県,熊本市北区,清水岩倉２丁目７－３４,,43,105,8618084,,,2022-01-17,登記官による閉鎖,,,2015-10-05,1,,,,,,0
952,3330002017287,登記記録の閉鎖等,0,2022-01-17,2022-01-17,有限会社丸陣阿蘇品,,有限会社,熊本県,合志市,御代志１５９８番地２,,43,216,8611104,,,2022-01-17,登記官による閉鎖,,,2015-10-05,1,,,,,,0
953,3330002020373,登記記録の閉鎖等,0,2022-01-17,2022-01-17,有限会社田上塗装,,有限会社,熊本県,上益城郡益城町,大字広崎９６２番地９,,43,443,8612236,,,2022-01-17,登記官による閉鎖,,,2015-10-05,1,,,,,,0
954,3330002020613,登記記録の閉鎖等,0,2022-01-17,2022-01-17,有限会社アイ・ティソーイング,,有限会社,熊本県,上益城郡甲佐町,大字下横田１５１１番地,,43,444,8614621,,,2022-01-17,登記官による閉鎖,,,2015-10-05,1,,,,,,0
955,3330002020712,登記記録の閉鎖等,0,2022-01-17,2022-01-17,有限会社飯田電気,,有限会社,熊本県,上益城郡山都町,緑川１４５２番地,,43,447,8613845,,,2022-01-17,登記官による閉鎖,,,2015-10-05,1,,,,,,0
957,3330002025240,登記記録の閉鎖等,0,2022-01-17,2022-01-17,有限会社ニューオフイスの蔭山,,有限会社,熊本県,下益城郡美里町,土喰８３番地,,43,348,8614721,,,2022-01-17,登記官による閉鎖,,,2015-10-05,1,,,,,,0
958,3330002030950,登記記録の閉鎖等,0,2022-01-17,2022-01-17,有限会社佐無田工務店,,有限会社,熊本県,球磨郡多良木町,大字奧野１１３２番地の２,,43,505,8680500,,,2022-01-17,登記官による閉鎖,,,2015-10-05,1,,,,,,0
959,3330002031230,登記記録の閉鎖等,0,2022-01-17,2022-01-17,有限会社チェリッシュ,,有限会社,熊本県,熊本市中央区,出水１丁目７番６０－１００１号,,43,101,8620941,,,2022-01-17,登記官による閉鎖,,,2015-10-05,1,,,,,,0
960,3330003001851,登記記録の閉鎖等,0,2022-01-17,2022-01-17,マザー＆ベビー＆チャイルドケアサポートくまもと合同会社,,合同会社,熊本県,熊本市南区,御幸笛田７丁目１１番２８号,,43,104,8614172,,,2022-01-17,登記官による閉鎖,,,2015-10-05,1,,,,,,0
962,3330003003773,登記記録の閉鎖等,0,2022-01-17,2022-01-17,合同会社リンクユー,,合同会社,熊本県,熊本市東区,石原２丁目５番４６号,,43,102,8618046,,,2022-01-17,登記官による閉鎖,,,2015-10-05,1,,,,,,0
963,3330005000819,登記記録の閉鎖等,0,2022-01-17,2022-01-17,興建会建設事業協同組合,,その他の設立登記法人,熊本県,熊本市東区,御領２丁目２０番６５号,,43,102,8618035,,,2022-01-17,登記官による閉鎖,,,2015-10-05,1,,,,,,0
964,3330005000835,登記記録の閉鎖等,0,2022-01-17,2022-01-17,東肥生揚醤油協同組合,,その他の設立登記法人,熊本県,熊本市南区,川尻１丁目３番７２号,,43,104,8614115,,,2022-01-17,登記官による閉鎖,,,2015-10-05,1,,,,,,0
968,3350002001545,登記記録の閉鎖等,0,2022-01-17,2022-01-11,有限会社クワハウス,,有限会社,宮崎県,宮崎市,神宮東３丁目３番２４号,,45,201,8800056,,,2022-01-11,清算の結了等,,,2015-10-05,1,,,,,クワハウス,0
972,3370301003439,登記記録の閉鎖等,0,2022-01-17,2022-01-13,株式会社ＳＥＮＳＵＩ,,株式会社,宮城県,石巻市,新栄２丁目９番地１１,,04,202,9860004,,,2022-01-13,清算の結了等,,,2015-10-05,1,,,,,,0
973,3370305000985,登記記録の閉鎖等,0,2022-01-17,2022-01-13,一般社団法人まきビズ,,その他の設立登記法人,宮城県,石巻市,中央２丁目２番１０号,,04,202,9860822,,,2022-01-13,清算の結了等,,,2015-10-05,1,,,,,マキビズ,0
990,3420001007338,登記記録の閉鎖等,0,2022-01-17,2022-01-12,株式会社北日本仮設,,株式会社,青森県,八戸市,大字鮫町字石株３番地３,,02,203,0310841,,,2022-01-12,清算の結了等,,,2015-10-05,1,,,,,キタニホンカセツ,0
991,3420001009433,登記記録の閉鎖等,0,2022-01-17,2022-01-14,弘前縫製株式会社,,株式会社,青森県,弘前市,大字富栄字笹崎８０番地１,,02,202,0368382,,,2022-01-14,登記官による閉鎖,,,2015-10-05,1,,,,,,0
992,3420001015522,登記記録の閉鎖等,0,2022-01-17,2022-01-14,日本ハウスサービス株式会社,,株式会社,青森県,八戸市,大字十一日町２１番地１,,02,203,0310085,,,2022-01-14,登記官による閉鎖,,,2016-12-22,1,,,,,,0
994,3420002002775,登記記録の閉鎖等,0,2022-01-17,2022-01-14,有限会社マガジンハウス,,有限会社,青森県,青森市,長島４丁目１１番１号,,02,201,0300861,,,2022-01-14,登記官による閉鎖,,,2015-10-05,1,,,,,,0
995,3420002003591,登記記録の閉鎖等,0,2022-01-17,2022-01-14,有限会社アージュ,,有限会社,青森県,青森市,大字大野字若宮１７０番地１６,,02,201,0300852,,,2022-01-14,登記官による閉鎖,,,2015-10-05,1,,,,,,0
996,3420002006231,登記記録の閉鎖等,0,2022-01-17,2022-01-14,有限会社梅津木材,,有限会社,青森県,八戸市,大字長苗代字内舟渡４５番地１,,02,203,0391103,,,2022-01-14,登記官による閉鎖,,,2015-10-05,1,,,,,,0
997,3420002016131,登記記録の閉鎖等,0,2022-01-17,2022-01-14,有限会社温湯西谷造花店,,有限会社,青森県,黒石市,大字温湯字上川原２番地１,,02,204,0360411,,,2022-01-14,登記官による閉鎖,,,2015-10-05,1,,,,,,0
999,3420005003250,登記記録の閉鎖等,0,2022-01-17,2022-01-14,特定非営利活動法人はやぶさ福祉会,,その他の設立登記法人,青森県,八戸市,沼館３丁目２番１５号,,02,203,0310071,,,2022-01-14,登記官による閉鎖,,,2015-10-05,1,,,,,,0
1005,3430002049238,登記記録の閉鎖等,0,2022-01-17,2022-01-12,有限会社かたひら物産,,有限会社,北海道,岩見沢市,三条西３丁目１番地１,,01,210,0680023,,,2022-01-12,清算の結了等,,,2015-10-05,1,,,,,カタヒラブッサン,0
1008,3440002002476,登記記録の閉鎖等,0,2022-01-17,2022-01-13,大吉土地建物有限会社,,有限会社,北海道,函館市,桔梗町４１８番地５３０,,01,202,0410801,,,2022-01-13,清算の結了等,,,2015-10-05,1,,,,,ダイキチトチタテモノ,0
1009,3450001008580,登記記録の閉鎖等,0,2022-01-17,2022-01-14,株式会社ホテルおかべ,,株式会社,北海道,稚内市,中央１丁目５番１６号,,01,214,0970022,,,2022-01-14,清算の結了等,,,2015-10-05,1,,,,,,0
1014,3470005002826,登記記録の閉鎖等,0,2022-01-17,2021-12-22,天理教双宮分教会,,その他の設立登記法人,香川県,善通寺市,善通寺町５丁目２番３１号,,37,204,7650003,,,2021-12-22,合併による解散等,2470005003593,令和３年１２月２２日香川県坂出市駒止町一丁目２番５号天理教双名島大教会（2470005003593）に合併し解散,2015-10-05,1,,,,,テンリキョウフタミヤブンキョウカイ,0
1016,3480001002424,登記記録の閉鎖等,0,2022-01-17,2022-01-17,株式会社丸益,,株式会社,徳島県,徳島市,国府町早淵２４３番地６,,36,201,7793125,,,2022-01-17,登記官による閉鎖,,,2015-10-05,1,,,,,,0
1017,3480002001730,登記記録の閉鎖等,0,2022-01-17,2022-01-17,有限会社コスモサイエンス,,有限会社,徳島県,徳島市,中洲町１丁目１３番地,,36,201,7700856,,,2022-01-17,登記官による閉鎖,,,2015-10-05,1,,,,,,0
1018,3480002009427,登記記録の閉鎖等,0,2022-01-17,2022-01-17,有限会社三木田商店,,有限会社,徳島県,吉野川市,鴨島町内原１１７番地,,36,205,7760003,,,2022-01-17,登記官による閉鎖,,,2015-10-05,1,,,,,,0
1019,3480002014939,登記記録の閉鎖等,0,2022-01-17,2022-01-17,有限会社半田タクシー,,有限会社,徳島県,美馬郡つるぎ町,半田字木ノ内１２８番地の２,,36,468,7794403,,,2022-01-17,登記官による閉鎖,,,2015-10-05,1,,,,,,0
1020,3480002015697,登記記録の閉鎖等,0,2022-01-17,2022-01-17,有限会社中村工業,,有限会社,徳島県,三好市,池田町白地大和川１５９番地,,36,208,7785251,,,2022-01-17,登記官による閉鎖,,,2015-10-05,1,,,,,,0
1038,4010005029781,登記記録の閉鎖等,0,2022-01-17,2022-01-12,一般社団法人Ｔ＆Ｃ,,その他の設立登記法人,東京都,中央区,日本橋１丁目４番１号日本橋一丁目ビルディング,,13,102,1030027,,,2022-01-12,清算の結了等,,,2019-02-26,1,,,,,ティーアンドシー,0
1041,4010401048195,登記記録の閉鎖等,0,2022-01-17,2022-01-05,株式会社ａ２ｍｅｄｉａ,,株式会社,東京都,中央区,銀座４丁目１２番１５号歌舞伎座タワー,,13,102,1040061,,,2022-01-05,合併による解散等,9010001122841,令和４年１月１日東京都中央区銀座四丁目１２番１５号歌舞伎座タワー株式会社リンクコーポレイトコミュニケーションズ（9010001122841）に合併し解散,2015-10-05,1,,,,,エーツーメディア,0
1042,4010401096707,登記記録の閉鎖等,0,2022-01-17,2022-01-04,株式会社ビテック,,株式会社,東京都,港区,西新橋１丁目２番９号,,13,103,1050003,,,2022-01-04,清算の結了等,,,2015-10-05,1,,,,,ビテック,0
1050,4010403013890,登記記録の閉鎖等,0,2022-01-17,2022-01-05,合同会社Ｃｏｎｔｅｎｄｅｒ,,合同会社,東京都,港区,虎ノ門５丁目１番４号,,13,103,1050001,,,2022-01-05,清算の結了等,,,2015-10-05,1,,,,,コンテンダー,0
1051,4010403017339,登記記録の閉鎖等,0,2022-01-17,2022-01-05,合同会社アールジェイ２号,,合同会社,東京都,港区,虎ノ門１丁目２番８号リニューアブル・ジャパン株式会社内,,13,103,1050001,,,2022-01-05,清算の結了等,,,2017-10-02,1,,,,,アールジェイニゴウ,0
1061,4010701003032,登記記録の閉鎖等,0,2022-01-17,2022-01-06,京南運送株式会社,,株式会社,東京都,大田区,上池台３丁目１６番１９号,,13,111,1450064,,,2022-01-06,合併による解散等,9010801002425,令和４年１月１日東京都大田区上池台三丁目１６番１９号株式会社カーレントサービス（9010801002425）に合併し解散,2015-10-05,1,,,,,ケイナンウンソウ,0
1071,4011001120006,登記記録の閉鎖等,0,2022-01-17,2022-01-04,ＢＡＳＥ　ＢＡＮＫ株式会社,,株式会社,東京都,港区,六本木３丁目２番１号,,13,103,1060032,,,2022-01-04,合併による解散等,7010401103229,令和４年１月１日東京都港区六本木三丁目２番１号ＢＡＳＥ株式会社（7010401103229）に合併し解散,2018-01-11,1,,,,,ベイスバンク,0
1077,4011201018636,登記記録の閉鎖等,0,2022-01-17,2022-01-12,株式会社全国人財教育支援協会,,株式会社,埼玉県,さいたま市大宮区,高鼻町１丁目４０番１号ＰＲＳビル６階,,11,103,3300803,,,2022-01-12,清算の結了等,,,2015-10-14,1,,,,,ゼンコクジンザイキョウイクシエンキョウカイ,0
1101,4013401000885,登記記録の閉鎖等,0,2022-01-17,2022-01-11,イービジネス株式会社,,株式会社,東京都,多摩市,鶴牧１丁目１７番地アルテヴィータＡ－６０３,,13,224,2060034,,,2022-01-11,清算の結了等,,,2015-10-05,1,,,,,イービジネス,0
1118,4030001022763,登記記録の閉鎖等,0,2022-01-17,2022-01-05,ＫＹＢエンジニアリングアンドサービス株式会社,,株式会社,東京都,港区,芝公園１丁目６番７号住友不動産ランドマークプラザ,,13,103,1050011,,,2022-01-05,合併による解散等,8010401007296,令和４年１月１日東京都港区浜松町二丁目４番１号ＫＹＢ株式会社（8010401007296）に合併し解散,2015-10-05,1,,,,,ケイワイビーエンジニアリングアンドサービス,0
1124,4030003009197,登記記録の閉鎖等,0,2022-01-17,2022-01-12,合同会社アヴニール,,合同会社,埼玉県,越谷市,赤山町１丁目２３番地１,,11,222,3430807,,,2022-01-12,清算の結了等,,,2016-08-10,1,,,,,アヴニール,0
1133,4040002005535,登記記録の閉鎖等,0,2022-01-17,2022-01-07,有限会社島崎塗装,,有限会社,千葉県,千葉市花見川区,作新台６丁目１６番２号,,12,102,2620045,,,2022-01-07,清算の結了等,,,2015-10-05,1,,,,,シマザキトソウ,0
1134,4040002070711,登記記録の閉鎖等,0,2022-01-17,2022-01-06,有限会社森設備工業,,有限会社,千葉県,君津市,正木２９７番地２,,12,225,2921174,,,2022-01-06,清算の結了等,,,2015-10-05,1,,,,,モリセツビコウギョウ,0
1178,4120003013058,登記記録の閉鎖等,0,2022-01-17,2022-01-05,シルバーウッド合同会社,,合同会社,大阪府,大阪市中央区,南船場４丁目１０番５号南船場ＳＯＨＯビル７０２,,27,128,5420081,,,2022-01-05,合併による解散等,8120003012915,令和４年１月１日大阪市中央区南船場四丁目１０番５号南船場ＳＯＨＯビル７０２サンスター合同会社（8120003012915）に合併し解散,2017-07-12,1,,,,,シルバーウッド,0
1209,4140001047816,登記記録の閉鎖等,0,2022-01-17,2022-01-07,センコーナガセ物流サポート株式会社,,株式会社,兵庫県,尼崎市,東塚口町２丁目４番４５号,,28,202,6610011,,,2022-01-07,合併による解散等,6140001050388,令和４年１月１日兵庫県尼崎市東塚口町二丁目４番４５号センコーナガセ物流株式会社（6140001050388）に合併し解散,2015-10-05,1,,,,,センコーナガセブツリュウサポート,0
1218,4140002021456,登記記録の閉鎖等,0,2022-01-17,2022-01-07,有限会社フジ・ケア,,有限会社,兵庫県,神戸市北区,東大池２丁目１９番１７号,,28,109,6511333,,,2022-01-07,清算の結了等,,,2015-10-05,1,,,,,フジケア,0
1223,4150001007133,登記記録の閉鎖等,0,2022-01-17,2022-01-14,株式会社ハマス工務店,,株式会社,奈良県,生駒郡斑鳩町,大字三井１０９番地の１,,29,344,6360101,,,2022-01-14,登記官による閉鎖,,,2015-10-05,1,,,,,,0
1224,4150001015490,登記記録の閉鎖等,0,2022-01-17,2022-01-14,株式会社松竹組,,株式会社,奈良県,五條市,今井５丁目５番１７号,,29,207,6370004,,,2022-01-14,登記官による閉鎖,,,2015-10-05,1,,,,,,0
1226,4150002010771,登記記録の閉鎖等,0,2022-01-17,2022-01-14,有限会社ダン・プロガーデン,,有限会社,奈良県,香芝市,五位堂２丁目５８２番地の１（ブランドール壱番館２０２号）,,29,210,6390226,,,2022-01-14,登記官による閉鎖,,,2015-10-05,1,,,,,,0
1227,4160001014194,登記記録の閉鎖等,0,2022-01-17,2022-01-14,株式会社愛林,,株式会社,滋賀県,草津市,片岡町７４４番地,,25,206,5250011,,,2022-01-14,登記官による閉鎖,,,2015-10-05,1,,,,,,0
1229,4160005000546,登記記録の閉鎖等,0,2022-01-17,2022-01-14,湖南有線放送農業協同組合,,その他の設立登記法人,滋賀県,大津市,三大寺１番２号,,25,201,5202131,,,2022-01-14,登記官による閉鎖,,,2015-10-05,1,,,,,,0
1230,4160005002179,登記記録の閉鎖等,0,2022-01-17,2022-01-14,特定非営利活動法人ゆうき,,その他の設立登記法人,滋賀県,大津市,中庄１丁目１４－４森マンション３０１,,25,201,5200837,,,2022-01-14,登記官による閉鎖,,,2015-10-05,1,,,,,,0
1234,4180001063181,登記記録の閉鎖等,0,2022-01-17,2022-01-12,株式会社テクノス,,株式会社,愛知県,名古屋市守山区,桔梗平２丁目２０２番地,,23,113,4630814,,,2022-01-12,清算の結了等,,,2015-10-05,1,,,,,テクノス,0
1237,4180001126748,登記記録の閉鎖等,0,2022-01-17,2022-01-11,株式会社グローリー,,株式会社,愛知県,名古屋市緑区,亀が洞２丁目５１５番地,,23,114,4580804,,,2022-01-11,清算の結了等,,,2017-03-01,1,,,,,グローリー,0
1248,4180301022762,登記記録の閉鎖等,0,2022-01-17,2022-01-12,山木チップ工業株式会社,,株式会社,愛知県,西尾市,平坂町空町２９番地１,,23,213,4440305,,,2022-01-12,清算の結了等,,,2015-10-05,1,,,,,ヤマキチップコウギョウ,0
1258,4220002003999,登記記録の閉鎖等,0,2022-01-17,2022-01-11,有限会社出島二郎事務所,,有限会社,石川県,金沢市,池田町三番丁４７番地,,17,201,9200985,,,2022-01-11,清算の結了等,,,2015-10-05,1,,,,,デジマジロウジムショ,0
1276,4260002026971,登記記録の閉鎖等,0,2022-01-17,2022-01-14,有限会社成羽石油,,有限会社,岡山県,高梁市,成羽町下原１０３６番地の１,,33,209,7160111,,,2022-01-14,清算の結了等,,,2015-10-05,1,,,,,,0
1282,4290001071735,登記記録の閉鎖等,0,2022-01-17,2022-01-11,アンカー株式会社,,株式会社,福岡県,福津市,西福間２丁目１４番６号,,40,224,8113219,,,2022-01-11,清算の結了等,,,2015-10-27,1,,,,,アンカー,0
1297,4290801005784,登記記録の閉鎖等,0,2022-01-17,2022-01-11,山口建設株式会社,,株式会社,福岡県,北九州市門司区,吉志１丁目１９番１１号,,40,101,8000114,,,2022-01-11,清算の結了等,,,2015-10-05,1,,,,,ヤマグチケンセツ,0
1309,4320003001182,登記記録の閉鎖等,0,2022-01-17,2022-01-14,合同会社テレコム明野,,合同会社,大分県,佐伯市,弥生大字門田５７５番地１,,44,205,8760122,,,2022-01-14,清算の結了等,,,2015-10-05,1,,,,,テレコムアケノ,0
1310,4330001003080,登記記録の閉鎖等,0,2022-01-17,2022-01-17,ディ、シー、アール、エンタープライズ株式会社,,株式会社,熊本県,熊本市中央区,帯山３丁目６番１３号,,43,101,8620924,,,2022-01-17,登記官による閉鎖,,,2015-10-05,1,,,,,,0
1311,4330001006777,登記記録の閉鎖等,0,2022-01-17,2022-01-17,株式会社南国三和,,株式会社,熊本県,熊本市南区,近見８丁目８番７０号,,43,104,8614101,,,2022-01-17,登記官による閉鎖,,,2015-10-05,1,,,,,,0
1312,4330001007577,登記記録の閉鎖等,0,2022-01-17,2022-01-17,株式会社ユニコム,,株式会社,熊本県,熊本市東区,保田窪本町４番５７号,,43,102,8620925,,,2022-01-17,登記官による閉鎖,,,2015-10-05,1,,,,,,0
1315,4330002003682,登記記録の閉鎖等,0,2022-01-17,2022-01-17,有限会社ケイツーシステム,,有限会社,熊本県,熊本市東区,八反田３丁目１５番１号,,43,102,8618034,,,2022-01-17,登記官による閉鎖,,,2015-10-05,1,,,,,,0
1317,4330002011487,登記記録の閉鎖等,0,2022-01-17,2022-01-17,有限会社ルーツ,,有限会社,熊本県,熊本市北区,龍田５丁目１０番３４号,,43,105,8618006,,,2022-01-17,登記官による閉鎖,,,2015-10-05,1,,,,,,0
1318,4330002015918,登記記録の閉鎖等,0,2022-01-17,2022-01-17,有限会社リアン,,有限会社,熊本県,熊本市中央区,九品寺２丁目２番地４０－１１０４,,43,101,8620976,,,2022-01-17,登記官による閉鎖,,,2015-10-05,1,,,,,,0
1319,4330002017559,登記記録の閉鎖等,0,2022-01-17,2022-01-17,有限会社アートグリーン,,有限会社,熊本県,菊池市,旭志麓字馬飼場１１９０,,43,210,8691202,,,2022-01-17,登記官による閉鎖,,,2015-10-05,1,,,,,,0
1320,4330002017658,登記記録の閉鎖等,0,2022-01-17,2022-01-17,有限会社大城製作所,,有限会社,熊本県,菊池市,赤星７９３番地,,43,210,8611311,,,2022-01-17,登記官による閉鎖,,,2015-10-05,1,,,,,,0
1321,4330003006288,登記記録の閉鎖等,0,2022-01-17,2022-01-13,合同会社ワコープラス,,合同会社,熊本県,菊池市,泗水町吉富１７３番地１,,43,210,8611201,,,2022-01-13,清算の結了等,,,2015-10-05,1,,,,,,0
1322,4330005004810,登記記録の閉鎖等,0,2022-01-17,2022-01-17,農事組合法人豊肥畜産協同組合,,その他の設立登記法人,熊本県,阿蘇市,一の宮町宮地２１９９番地,,43,214,8692612,,,2022-01-17,登記官による閉鎖,,,2015-10-05,1,,,,,,0
1327,4340002003104,登記記録の閉鎖等,0,2022-01-17,2022-01-07,有限会社近世空調設備,,有限会社,鹿児島県,鹿児島市,四元町１２２２番地１１,,46,201,8992708,,,2022-01-07,合併による解散等,9340001002787,令和４年１月１日鹿児島市西陵一丁目４３番５号中外電工株式会社（9340001002787）に合併し解散,2015-10-05,1,,,,,キンセイクウチョウセツビ,0
1328,4340002026484,登記記録の閉鎖等,0,2022-01-17,2022-01-11,有限会社マエダ,,有限会社,鹿児島県,肝属郡肝付町,南方１６７番地１先,,46,492,8931402,,,2022-01-11,清算の結了等,,,2015-10-05,1,,,,,マエダ,0
1331,4360003007944,登記記録の閉鎖等,0,2022-01-17,2022-01-11,ふれあい合同会社,,合同会社,沖縄県,うるま市,字高江洲９３８番地８,,47,213,9042242,,,2022-01-11,清算の結了等,,,2017-01-04,1,,,,,フレアイ,0
1341,4380002012605,登記記録の閉鎖等,0,2022-01-17,2022-01-07,有限会社三和化工,,有限会社,福島県,田村市,船引町門沢字直道１２０番地６,,07,211,9634203,,,2022-01-07,清算の結了等,,,2015-10-05,1,,,,,サンワカコウ,0
1348,4390002005475,登記記録の閉鎖等,0,2022-01-17,2022-01-11,有限会社さかもと,,有限会社,山形県,天童市,東芳賀２丁目２番２８号,,06,210,9940061,,,2022-01-11,清算の結了等,,,2015-10-05,1,,,,,サカモト,0
1349,4390002013024,登記記録の閉鎖等,0,2022-01-17,2022-01-07,セイワ技術有限会社,,有限会社,山形県,米沢市,窪田町藤泉１５３２番地の１,,06,202,9920005,,,2022-01-07,清算の結了等,,,2015-10-05,1,,,,,セイワギジュツ,0
1351,4420001002214,登記記録の閉鎖等,0,2022-01-17,2022-01-14,リカーディスクサイトウ株式会社,,株式会社,青森県,青森市,北金沢２丁目２２番１７号,,02,201,0300855,,,2022-01-14,登記官による閉鎖,,,2015-10-05,1,,,,,,0
1352,4420001005209,登記記録の閉鎖等,0,2022-01-17,2022-01-14,オフィスサプライ株式会社,,株式会社,青森県,青森市,栄町１丁目１番１４号秋元ビル,,02,201,0300903,,,2022-01-14,登記官による閉鎖,,,2015-10-05,1,,,,,,0
1353,4420001007337,登記記録の閉鎖等,0,2022-01-17,2022-01-14,株式会社橋爪コーポレーション,,株式会社,青森県,八戸市,大字田向字向河原４４番地２,,02,203,0310011,,,2022-01-14,登記官による閉鎖,,,2015-10-05,1,,,,,,0
1354,4420002002881,登記記録の閉鎖等,0,2022-01-17,2022-01-14,有限会社みちのく損害保険コンサルタント,,有限会社,青森県,青森市,長島３丁目５番７号,,02,201,0300861,,,2022-01-14,登記官による閉鎖,,,2015-10-05,1,,,,,,0
1355,4420002006560,登記記録の閉鎖等,0,2022-01-17,2022-01-14,有限会社川建工業,,有限会社,青森県,八戸市,大字是川字権現堂１番地５,,02,203,0310023,,,2022-01-14,登記官による閉鎖,,,2015-10-05,1,,,,,,0
1356,4420002011288,登記記録の閉鎖等,0,2022-01-17,2022-01-14,有限会社中野工業,,有限会社,青森県,五所川原市,字一ツ谷５５５番地３,,02,205,0370016,,,2022-01-14,登記官による閉鎖,,,2015-10-05,1,,,,,,0
1357,4420002011338,登記記録の閉鎖等,0,2022-01-17,2022-01-14,有限会社フジエンタープライズ現像所,,有限会社,青森県,五所川原市,字雛田１３７番地２１,,02,205,0370061,,,2022-01-14,登記官による閉鎖,,,2015-10-05,1,,,,,,0
1358,4420002013045,登記記録の閉鎖等,0,2022-01-17,2022-01-14,有限会社カサ・ノリオ,,有限会社,青森県,弘前市,大字若葉２丁目２４番地１９,,02,202,0368255,,,2022-01-14,登記官による閉鎖,,,2015-10-05,1,,,,,,0
1359,4420002015553,登記記録の閉鎖等,0,2022-01-17,2022-01-14,有限会社クロミツ,,有限会社,青森県,黒石市,柵ノ木４丁目１９番地,,02,204,0360333,,,2022-01-14,登記官による閉鎖,,,2015-10-05,1,,,,,,0
1360,4420002017062,登記記録の閉鎖等,0,2022-01-17,2022-01-14,有限会社三浦輪業十和田店,,有限会社,青森県,十和田市,西三番町１５番１号,,02,206,0340083,,,2022-01-14,登記官による閉鎖,,,2015-10-05,1,,,,,,0
1361,4420002017095,登記記録の閉鎖等,0,2022-01-17,2022-01-14,有限会社むらやす寝具,,有限会社,青森県,十和田市,東二十二番町２４番３０号,,02,206,0340015,,,2022-01-14,登記官による閉鎖,,,2015-10-05,1,,,,,,0
1362,4420002017624,登記記録の閉鎖等,0,2022-01-17,2022-01-14,有限会社蛯名工業,,有限会社,青森県,三沢市,千代田町２丁目１１９番地２,,02,207,0330043,,,2022-01-14,登記官による閉鎖,,,2015-10-05,1,,,,,,0
1364,4420005005337,登記記録の閉鎖等,0,2022-01-17,2022-01-14,平賀中央商店街協同組合,,その他の設立登記法人,青森県,平川市,本町北柳田１２番地の１,,02,210,0360103,,,2022-01-14,登記官による閉鎖,,,2015-10-05,1,,,,,,0
1376,4450002006343,登記記録の閉鎖等,0,2022-01-17,2022-01-14,有限会社中嶋電気工業,,有限会社,北海道,旭川市,春光台四条３丁目６番１４号,,01,204,0718144,,,2022-01-14,清算の結了等,,,2015-10-05,1,,,,,ナカジマデンキコウギョウ,0
1377,4460001001047,登記記録の閉鎖等,0,2022-01-17,2022-01-14,株式会社太一や,,株式会社,北海道,釧路市,阿寒町阿寒湖温泉２丁目２番３７号,,01,206,0850467,,,2022-01-14,清算の結了等,,,2015-10-05,1,,,,,タイチヤ,0
1383,4480001001532,登記記録の閉鎖等,0,2022-01-17,2022-01-17,徳泰商事株式会社,,株式会社,徳島県,徳島市,論田町和太開１３８番地６,,36,201,7708011,,,2022-01-17,登記官による閉鎖,,,2015-10-05,1,,,,,,0
1384,4480001001904,登記記録の閉鎖等,0,2022-01-17,2022-01-17,株式会社はやし,,株式会社,徳島県,徳島市,津田本町２丁目３番２９号,,36,201,7708003,,,2022-01-17,登記官による閉鎖,,,2016-12-02,1,,,,,,0
1385,4480001004741,登記記録の閉鎖等,0,2022-01-17,2022-01-17,株式会社エキスプレス御所運輸,,株式会社,徳島県,阿波市,土成町吉田字姫塚３０番地１,,36,206,7711507,,,2022-01-17,登記官による閉鎖,,,2015-10-05,1,,,,,,0
1386,4480001005772,登記記録の閉鎖等,0,2022-01-17,2022-01-17,株式会社ラジュネス,,株式会社,徳島県,鳴門市,鳴門町高島字竹島２５８番地,,36,202,7720051,,,2022-01-17,登記官による閉鎖,,,2015-10-05,1,,,,,,0
1387,4480002001663,登記記録の閉鎖等,0,2022-01-17,2022-01-17,有限会社川真田会計センター,,有限会社,徳島県,徳島市,富田橋２丁目１５番地の４,,36,201,7700937,,,2022-01-17,登記官による閉鎖,,,2015-10-05,1,,,,,,0
1388,4480002001770,登記記録の閉鎖等,0,2022-01-17,2022-01-17,有限会社近藤製材所,,有限会社,徳島県,徳島市,安宅２丁目９番８号,,36,201,7700863,,,2022-01-17,登記官による閉鎖,,,2015-10-05,1,,,,,,0
1389,4480002002620,登記記録の閉鎖等,0,2022-01-17,2022-01-17,大三空調有限会社,,有限会社,徳島県,徳島市,新浜町２丁目２番３９号,,36,201,7708006,,,2022-01-17,登記官による閉鎖,,,2015-10-05,1,,,,,,0
1390,4480002003544,登記記録の閉鎖等,0,2022-01-17,2022-01-17,有限会社野上商店,,有限会社,徳島県,徳島市,国府町東高輪８７番地,,36,201,7793105,,,2022-01-17,登記官による閉鎖,,,2015-10-05,1,,,,,,0
1391,4480002007149,登記記録の閉鎖等,0,2022-01-17,2022-01-17,有限会社福島石油,,有限会社,徳島県,徳島市,秋田町３丁目２０番地,,36,201,7700934,,,2022-01-17,登記官による閉鎖,,,2016-08-01,1,,,,,,0
1392,4480002009608,登記記録の閉鎖等,0,2022-01-17,2022-01-17,有限会社阿讃建設,,有限会社,徳島県,阿波市,土成町宮川内字楠木１番地８,,36,206,7711508,,,2022-01-17,登記官による閉鎖,,,2015-10-05,1,,,,,,0
1393,4480002011175,登記記録の閉鎖等,0,2022-01-17,2022-01-17,有限会社志内商会,,有限会社,徳島県,板野郡北島町,江尻字松堂３番地,,36,402,7710205,,,2022-01-17,登記官による閉鎖,,,2015-10-05,1,,,,,,0
1394,4480002013428,登記記録の閉鎖等,0,2022-01-17,2022-01-17,有限会社中西鉄工所,,有限会社,徳島県,阿南市,那賀川町赤池３番地の１,,36,204,7791242,,,2022-01-17,登記官による閉鎖,,,2015-10-05,1,,,,,,0
1395,4480002014054,登記記録の閉鎖等,0,2022-01-17,2022-01-17,有限会社豊田金物店,,有限会社,徳島県,海部郡海陽町,奥浦字橋ノ本１９番地の３,,36,388,7750302,,,2022-01-17,登記官による閉鎖,,,2015-10-05,1,,,,,,0
1396,4480003000243,登記記録の閉鎖等,0,2022-01-17,2022-01-17,合同会社ｗｉｔｈ　ｙｏｕ,,合同会社,徳島県,徳島市,徳島町城内六丁目３８番地,,36,201,7700851,,,2022-01-17,登記官による閉鎖,,,2015-10-05,1,,,,,,0
1397,4480003000474,登記記録の閉鎖等,0,2022-01-17,2022-01-17,合同会社Ｌｉｇｈｔｎｉｎｇ,,合同会社,徳島県,板野郡藍住町,矢上字春日３－３キャロン・エスポワール１０１,,36,403,7711252,,,2022-01-17,登記官による閉鎖,,,2015-10-05,1,,,,,,0
1398,4480005005298,登記記録の閉鎖等,0,2022-01-17,2022-01-17,企業組合山内製竹所,,その他の設立登記法人,徳島県,美馬市,穴吹町三島字小島３９５番地の１,,36,207,7770001,,,2022-01-17,登記官による閉鎖,,,2015-10-05,1,,,,,,0
1405,5010001090869,登記記録の閉鎖等,0,2022-01-17,2022-01-05,株式会社丸正ベストパートナーグループ,,株式会社,東京都,中央区,日本橋室町４丁目１番１１号,,13,102,1030022,,,2022-01-05,合併による解散等,1010001034953,令和４年１月１日東京都中央区日本橋室町四丁目１番１１号堀田丸正株式会社（1010001034953）に合併し解散,2015-10-05,1,,,,,マルショウベストパートナーグループ,0
1417,5010002028091,登記記録の閉鎖等,0,2022-01-17,2022-01-12,有限会社ユーフロンティア,,有限会社,東京都,文京区,千駄木１丁目１６番１２号,,13,105,1130022,,,2022-01-12,清算の結了等,,,2015-10-05,1,,,,,ユーフロンティア,0
1424,5010401147855,登記記録の閉鎖等,0,2022-01-17,2022-01-13,ＡＲＳＩＳ株式会社,,株式会社,埼玉県,草加市,新栄３丁目３番地１ビジネスプラザ草加Ｅ棟,,11,221,3400056,,,2022-01-13,清算の結了等,,,2019-09-05,1,,,,,アルシス,0
1433,5010501010525,登記記録の閉鎖等,0,2022-01-17,2022-01-11,株式会社日本刃物工具新聞社,,株式会社,東京都,台東区,上野５丁目１番１号第１協立ビル３階,,13,106,1100005,,,2022-01-11,清算の結了等,,,2015-10-05,1,,,,,ニホンハモノコウグシンブンシャ,0
1435,5010601056575,登記記録の閉鎖等,0,2022-01-17,2022-01-07,株式会社Ｋ,,株式会社,東京都,江東区,亀戸６丁目６１番４号興和第三ビル２階,,13,108,1360071,,,2022-01-07,清算の結了等,,,2019-12-17,1,,,,,ケイ,0
1436,5010603005877,登記記録の閉鎖等,0,2022-01-17,2022-01-06,合同会社ともすラボ,,合同会社,東京都,港区,麻布台２丁目２番１２号三貴ビル２階Ａ室,,13,103,1060041,,,2022-01-06,清算の結了等,,,2015-10-05,1,,,,,,0
1464,5011405000471,登記記録の閉鎖等,0,2022-01-17,2021-12-28,天理教足郷分教会,,その他の設立登記法人,東京都,板橋区,仲宿４番１号,,13,119,1730005,,,2021-12-28,合併による解散等,2160005002750,令和３年１２月２４日滋賀県甲賀市水口町中邸１番３６号天理教近甲分教会（2160005002750）に合併し解散,2015-10-05,1,,,,,,0
1466,5011601024720,登記記録の閉鎖等,0,2022-01-17,2022-01-12,株式会社マイルール,,株式会社,東京都,練馬区,石神井町７丁目１２番１０号冨久住荘Ｃ－２０１,,13,120,1770041,,,2022-01-12,清算の結了等,,,2020-12-09,1,,,,,マイルール,0
1470,5011802008076,登記記録の閉鎖等,0,2022-01-17,2022-01-11,有限会社山崎製麺,,有限会社,東京都,葛飾区,金町４丁目２５番５号,,13,122,1250042,,,2022-01-11,清算の結了等,,,2015-10-05,1,,,,,ヤマザキセイメン,0
1473,5012401032021,登記記録の閉鎖等,0,2022-01-17,2022-01-06,ＰＣＳ　Ｆｕｎｄａｍｅｎｔａｌｓ株式会社,,株式会社,神奈川県,相模原市中央区,相模原６丁目２４番４号ＣＲＥＳＣＯ相模原２０１,,14,152,2520231,,,2022-01-06,合併による解散等,5021001014833,令和４年１月６日神奈川県相模原市中央区相模原四丁目３番１４号ピー・シー・エス株式会社（5021001014833）に合併し解散,2016-11-04,1,,,,,ピーシーエスファンダメンタルス,0
1504,5030001115863,登記記録の閉鎖等,0,2022-01-17,2022-01-07,ＹＭＳグローバル株式会社,,株式会社,埼玉県,さいたま市大宮区,桜木町２丁目３３５番地４（８０３号）,,11,103,3300854,,,2022-01-07,合併による解散等,1120901035453,令和４年１月１日大阪府高槻市白梅町５番２０－１８０９号ユミショウプロパティ株式会社（1120901035453）に合併し解散,2016-08-05,1,,,,,,0
1507,5030003011292,登記記録の閉鎖等,0,2022-01-17,2022-01-13,双林合同会社,,合同会社,埼玉県,志木市,本町５丁目２２番４－１０３号,,11,228,3530004,,,2022-01-13,清算の結了等,,,2018-01-12,1,,,,,ソウリン,0
1510,5040001057907,登記記録の閉鎖等,0,2022-01-17,2022-01-06,株式会社ｏｎｅ’ｓ,,株式会社,千葉県,山武郡九十九里町,片貝５１１５番地５,,12,403,2830104,,,2022-01-06,清算の結了等,,,2015-10-05,1,,,,,,0
1530,5070002012437,登記記録の閉鎖等,0,2022-01-17,2022-01-11,有限会社矢野商店,,有限会社,群馬県,高崎市,柳川町７５番地,,10,202,3700815,,,2022-01-11,清算の結了等,,,2015-10-05,1,,,,,ヤノショウテン,0
1536,5080102021725,登記記録の閉鎖等,0,2022-01-17,2022-01-12,有限会社ひさ＿,00068101,有限会社,静岡県,賀茂郡松崎町,松崎４５０番地の１,,22,305,4103611,,,2022-01-12,清算の結了等,,,2015-10-05,1,,,,,ヒサゴ,0
1542,5100001002492,登記記録の閉鎖等,0,2022-01-17,2022-01-12,株式会社長野パイプ工業,,株式会社,長野県,長野市,大字上駒沢１０１６番地,,20,201,3810082,,,2022-01-12,清算の結了等,,,2015-10-05,1,,,,,ナガノパイプコウギョウ,0
1572,5130005013574,登記記録の閉鎖等,0,2022-01-17,2022-01-11,ＮＰＯ法人アジア子供輝基金,,その他の設立登記法人,京都府,長岡京市,今里西ノ口１７－１,,26,209,6170814,,,2022-01-11,清算の結了等,,,2015-10-05,1,,,,,アジアコドモカガヤキキキン,0
1578,5140001108831,登記記録の閉鎖等,0,2022-01-17,2022-01-11,株式会社西村コンサルティング,,株式会社,兵庫県,西宮市,甲子園口６丁目１１番２－８０２号,,28,204,6638113,,,2022-01-11,清算の結了等,,,2018-01-15,1,,,,,ニシムラコンサルティング,0
1582,5140002061971,登記記録の閉鎖等,0,2022-01-17,2022-01-07,有限会社東戸田鉄工所,00041404,有限会社,兵庫県,西脇市,和布町２６２番地の１２,,28,213,6770053,,,2022-01-07,清算の結了等,,,2015-10-05,1,,,,,ヒガシトダテッコウショ,0
1586,5150001005094,登記記録の閉鎖等,0,2022-01-17,2022-01-14,株式会社ニーズ,,株式会社,奈良県,奈良市,押熊町２３６５番地,,29,201,6310011,,,2022-01-14,登記官による閉鎖,,,2015-10-05,1,,,,,,0
1587,5150001006241,登記記録の閉鎖等,0,2022-01-17,2022-01-14,株式会社エイエルエス,,株式会社,奈良県,奈良市,秋篠三和町２丁目４番１号,,29,201,6310814,,,2022-01-14,登記官による閉鎖,,,2015-10-05,1,,,,,,0
1588,5150002002446,登記記録の閉鎖等,0,2022-01-17,2022-01-14,有限会社恵比寿苑,,有限会社,奈良県,奈良市,東紀寺町２丁目８番８号,,29,201,6308305,,,2022-01-14,登記官による閉鎖,,,2015-10-05,1,,,,,,0
1589,5150002004302,登記記録の閉鎖等,0,2022-01-17,2022-01-14,有限会社阪奈テクノターフ,,有限会社,奈良県,生駒市,真弓２丁目２番１８号,,29,209,6300122,,,2022-01-14,登記官による閉鎖,,,2015-10-05,1,,,,,,0
1590,5150002009417,登記記録の閉鎖等,0,2022-01-17,2022-01-14,有限会社向井製畳,,有限会社,奈良県,香芝市,鎌田４５８番地の１０,,29,210,6390227,,,2022-01-14,登記官による閉鎖,,,2015-10-05,1,,,,,,0
1591,5150002011091,登記記録の閉鎖等,0,2022-01-17,2022-01-14,有限会社ケイ・ワイ・パック,,有限会社,奈良県,五條市,住川町１３８７番地,,29,207,6370014,,,2022-01-14,登記官による閉鎖,,,2015-10-05,1,,,,,,0
1592,5150005005446,登記記録の閉鎖等,0,2022-01-17,2022-01-14,奈良県緑地園芸協同組合,,その他の設立登記法人,奈良県,橿原市,四分町２５５番地１,,29,205,6340074,,,2022-01-14,登記官による閉鎖,,,2015-10-05,1,,,,,,0
1593,5150005007194,登記記録の閉鎖等,0,2022-01-17,2022-01-14,奈良県山林労働組合,,その他の設立登記法人,奈良県,吉野郡大淀町,大字下渕１０００番地,,29,442,6380821,,,2022-01-14,登記官による閉鎖,,,2015-10-05,1,,,,,,0
1594,5150005007228,登記記録の閉鎖等,0,2022-01-17,2022-01-14,川上村山林労働組合,,その他の設立登記法人,奈良県,吉野郡川上村,大字迫１３３５番地の１７,,29,452,6393553,,,2022-01-14,登記官による閉鎖,,,2015-10-05,1,,,,,,0
1595,5160001010011,登記記録の閉鎖等,0,2022-01-17,2022-01-14,タナカヤ株式会社,,株式会社,滋賀県,東近江市,八日市金屋２丁目２番５号,,25,213,5270028,,,2022-01-14,登記官による閉鎖,,,2015-10-05,1,,,,,,0
1596,5160001010787,登記記録の閉鎖等,0,2022-01-17,2022-01-14,株式会社三寅住建,,株式会社,滋賀県,近江八幡市,中小森町６８１番地１５,,25,204,5230041,,,2022-01-14,登記官による閉鎖,,,2015-10-05,1,,,,,,0
1597,5160002004706,登記記録の閉鎖等,0,2022-01-17,2022-01-14,有限会社佐野,,有限会社,滋賀県,大津市,仰木の里１丁目１８番１０号,,25,201,5200246,,,2022-01-14,登記官による閉鎖,,,2015-10-05,1,,,,,,0
1598,5160002009738,登記記録の閉鎖等,0,2022-01-17,2022-01-14,有限会社中江工務店,,有限会社,滋賀県,東近江市,上平木町１５７５番地の２,,25,213,5270086,,,2022-01-14,登記官による閉鎖,,,2015-10-05,1,,,,,,0
1599,5160002010480,登記記録の閉鎖等,0,2022-01-17,2022-01-12,有限会社加藤農機具店,,有限会社,滋賀県,近江八幡市,縄手町末３０番地,,25,204,5230855,,,2022-01-12,清算の結了等,,,2015-10-05,1,,,,,カトウノウキグテン,0
1604,5170005002722,登記記録の閉鎖等,0,2022-01-17,2021-12-28,天理教有愛分教会,,その他の設立登記法人,和歌山県,有田郡有田川町,大字丹生７７９番地,,30,366,6430175,,,2021-12-28,合併による解散等,2170005002717,令和３年１２月２８日和歌山県有田郡有田川町大字金屋９２２番地天理教有田分教会（2170005002717）に合併し解散,2015-10-05,1,,,,,,0
1609,5180001102590,登記記録の閉鎖等,0,2022-01-17,2022-01-06,株式会社桧家住宅名古屋,,株式会社,愛知県,名古屋市西区,菊井１丁目２６番１３号,,23,104,4510044,,,2022-01-06,合併による解散等,7040001068101,令和４年１月１日東京都文京区後楽一丁目４番１４号後楽森ビル１２階株式会社桧家住宅（7040001068101）に合併し解散,2015-10-05,1,,,,,,0
1628,5180301007465,登記記録の閉鎖等,0,2022-01-17,2022-01-05,株式会社山本企画,,株式会社,愛知県,豊橋市,新栄町字汐焼２番地の８,,23,201,4418016,,,2022-01-05,清算の結了等,,,2015-10-05,1,,,,,ヤマモトキカク,0
1630,5180302019567,登記記録の閉鎖等,0,2022-01-17,2022-01-13,有限会社中島庶務,,有限会社,愛知県,知立市,来迎寺町古城２１番地,,23,225,4720002,,,2022-01-13,清算の結了等,,,2015-10-05,1,,,,,ナカシマショム,0
1641,5220001014022,登記記録の閉鎖等,0,2022-01-17,2022-01-12,株式会社山代ゴルフ倶楽部,,株式会社,石川県,加賀市,小坂町ト甲７番２号,,17,206,9220266,,,2022-01-12,合併による解散等,6040001054952,令和３年１２月２５日千葉県市原市米原１６３９番地１株式会社エイチ・ジェイ（6040001054952）に合併し解散,2015-10-05,1,,,,,ヤマシロゴルフクラブ,0
1649,5250001003468,登記記録の閉鎖等,0,2022-01-17,2022-01-13,中富商事株式会社,,株式会社,山口県,宇部市,若松町４番３号,,35,202,7550061,,,2022-01-13,清算の結了等,,,2015-10-05,1,,,,,,0
1659,5290801020725,登記記録の閉鎖等,0,2022-01-17,2022-01-07,株式会社若葉商会,,株式会社,福岡県,北九州市小倉南区,貫弥生が丘３丁目１番１号,,40,107,8000234,,,2022-01-07,清算の結了等,,,2015-10-05,1,,,,,ワカバショウカイ,0
1660,5290802005790,登記記録の閉鎖等,0,2022-01-17,2022-01-11,豊生電気有限会社,,有限会社,福岡県,北九州市小倉南区,徳吉西１丁目９番１２号,,40,107,8030278,,,2022-01-11,清算の結了等,,,2015-10-05,1,,,,,ホウセイデンキ,0
1663,5300001009939,登記記録の閉鎖等,0,2022-01-17,2022-01-12,株式会社電研,,株式会社,佐賀県,唐津市,東城内４番５５号,,41,202,8470016,,,2022-01-12,清算の結了等,,,2015-10-05,1,,,,,デンケン,0
1666,5330001007444,登記記録の閉鎖等,0,2022-01-17,2022-01-17,株式会社ワイアイプランニング,,株式会社,熊本県,熊本市中央区,神水１丁目１５番３５号－１,,43,101,8620954,,,2022-01-17,登記官による閉鎖,,,2015-10-05,1,,,,,,0
1667,5330001009184,登記記録の閉鎖等,0,2022-01-17,2022-01-17,シェルトン石油株式会社,,株式会社,熊本県,菊池郡大津町,大字杉水３３７３番地１,,43,403,8691236,,,2022-01-17,登記官による閉鎖,,,2015-10-05,1,,,,,,0
1668,5330001010935,登記記録の閉鎖等,0,2022-01-17,2022-01-17,飯干工業株式会社,,株式会社,熊本県,上益城郡山都町,上寺８６３番地,,43,447,8613543,,,2022-01-17,登記官による閉鎖,,,2015-10-05,1,,,,,,0
1669,5330001010976,登記記録の閉鎖等,0,2022-01-17,2022-01-17,株式会社堀内電工社,,株式会社,熊本県,上益城郡御船町,大字高木１９７１番地の５８,,43,441,8613203,,,2022-01-17,登記官による閉鎖,,,2015-10-05,1,,,,,,0
1670,5330001013120,登記記録の閉鎖等,0,2022-01-17,2022-01-17,株式会社ニュー・ナポリ,,株式会社,熊本県,宇城市,三角町三角浦２５０番地の４,,43,213,8693207,,,2022-01-17,登記官による閉鎖,,,2015-10-05,1,,,,,,0
1672,5330002001702,登記記録の閉鎖等,0,2022-01-17,2022-01-17,有限会社オートクラブ木村,,有限会社,熊本県,熊本市東区,小山５丁目１７番８０号,,43,102,8618045,,,2022-01-17,登記官による閉鎖,,,2015-10-05,1,,,,,,0
1673,5330002005430,登記記録の閉鎖等,0,2022-01-17,2022-01-17,有限会社城北産業,,有限会社,熊本県,熊本市中央区,坪井４丁目２２番１号,,43,101,8600863,,,2022-01-17,登記官による閉鎖,,,2015-10-05,1,,,,,,0
1674,5330002005595,登記記録の閉鎖等,0,2022-01-17,2022-01-17,有限会社ススキ,,有限会社,熊本県,熊本市中央区,本荘６丁目３番５号,,43,101,8600811,,,2022-01-17,登記官による閉鎖,,,2015-10-05,1,,,,,,0
1675,5330002010802,登記記録の閉鎖等,0,2022-01-17,2022-01-17,有限会社やない美術工房,,有限会社,熊本県,熊本市南区,出仲間１丁目９番１９号,,43,104,8620963,,,2022-01-17,登記官による閉鎖,,,2015-10-05,1,,,,,,0
1676,5330002011676,登記記録の閉鎖等,0,2022-01-17,2022-01-17,和田ダクト工業有限会社,,有限会社,熊本県,熊本市東区,南町５番４号,,43,102,8620905,,,2022-01-17,登記官による閉鎖,,,2015-10-05,1,,,,,,0
1677,5330002011684,登記記録の閉鎖等,0,2022-01-17,2022-01-17,有限会社渡辺整備工場,,有限会社,熊本県,熊本市北区,清水新地２丁目２番３号,,43,105,8618075,,,2022-01-17,登記官による閉鎖,,,2015-10-05,1,,,,,,0
1678,5330002014282,登記記録の閉鎖等,0,2022-01-17,2022-01-17,有限会社じゅん建築研究所,,有限会社,熊本県,熊本市中央区,帯山３丁目２番２０号,,43,101,8620924,,,2022-01-17,登記官による閉鎖,,,2015-10-05,1,,,,,,0
1679,5330002015405,登記記録の閉鎖等,0,2022-01-17,2022-01-17,有限会社杜の蔵,,有限会社,熊本県,熊本市中央区,上通町１１番１４号,,43,101,8600845,,,2022-01-17,登記官による閉鎖,,,2015-10-05,1,,,,,,0
1680,5330002020396,登記記録の閉鎖等,0,2022-01-17,2022-01-17,有限会社嘉島企画,,有限会社,熊本県,上益城郡嘉島町,大字上六嘉９１１番地,,43,442,8613105,,,2022-01-17,登記官による閉鎖,,,2015-10-05,1,,,,,,0
1681,5330002022467,登記記録の閉鎖等,0,2022-01-17,2022-01-17,有限会社あべ健商店,,有限会社,熊本県,玉名市,寺田１７１番地３,,43,206,8650022,,,2022-01-17,登記官による閉鎖,,,2015-10-05,1,,,,,,0
1682,5330002024455,登記記録の閉鎖等,0,2022-01-17,2022-01-17,有限会社新和建設,,有限会社,熊本県,宇土市,戸囗町８４０番地,,43,211,8690400,,,2022-01-17,登記官による閉鎖,,,2015-10-05,1,,,,,,0
1683,5330002025338,登記記録の閉鎖等,0,2022-01-17,2022-01-17,有限会社中川総務,,有限会社,熊本県,宇城市,三角町波多２８４番地の６,,43,213,8693205,,,2022-01-17,登記官による閉鎖,,,2015-10-05,1,,,,,,0
1684,5330003008639,登記記録の閉鎖等,0,2022-01-17,2022-01-12,合同会社ＭＳＯ,,合同会社,熊本県,熊本市中央区,横手３丁目２４番６６号,,43,101,8600046,,,2022-01-12,清算の結了等,,,2020-11-13,1,,,,,エムエスオー,0
1685,5330005001179,登記記録の閉鎖等,0,2022-01-17,2022-01-17,医療法人社団柑風会,,その他の設立登記法人,熊本県,熊本市西区,河内町船津２５１８番地,,43,103,8615347,,,2022-01-17,登記官による閉鎖,,,2015-10-05,1,,,,,,0
1686,5330005006590,登記記録の閉鎖等,0,2022-01-17,2022-01-17,水俣中央商店街振興組合,,その他の設立登記法人,熊本県,水俣市,大園町１丁目１１番５号,,43,205,8670042,,,2022-01-17,登記官による閉鎖,,,2015-10-05,1,,,,,,0
1688,5340002001775,登記記録の閉鎖等,0,2022-01-17,2022-01-13,有限会社エール,,有限会社,鹿児島県,鹿児島市,鴨池新町３８番４－３０１号,,46,201,8900064,,,2022-01-13,清算の結了等,,,2015-10-05,1,,,,,エール,0
1713,5380002025812,登記記録の閉鎖等,0,2022-01-17,2022-01-11,ブティック美良野有限会社,,有限会社,福島県,いわき市,平六町目５番地の９,,07,204,9708051,,,2022-01-11,清算の結了等,,,2015-10-05,1,,,,,,0
1724,5420001001834,登記記録の閉鎖等,0,2022-01-17,2022-01-14,北青小型運送株式会社,,株式会社,青森県,青森市,妙見１丁目１１番５号,,02,201,0300121,,,2022-01-14,登記官による閉鎖,,,2015-10-05,1,,,,,,0
1725,5420001004358,登記記録の閉鎖等,0,2022-01-17,2022-01-14,株式会社高木商事,00107090,株式会社,青森県,青森市,大字大野字若宮１８９番地２３,,02,201,0300852,,,2022-01-14,登記官による閉鎖,,,2016-06-28,1,,,,,,0
1726,5420002007038,登記記録の閉鎖等,0,2022-01-17,2022-01-14,有限会社三友土地開発,,有限会社,青森県,八戸市,小中野２丁目９番１号,,02,203,0310802,,,2022-01-14,登記官による閉鎖,,,2015-10-05,1,,,,,,0
1727,5420002009686,登記記録の閉鎖等,0,2022-01-17,2022-01-14,有限会社丸山商事,,有限会社,青森県,三戸郡五戸町,字横丁６番地１,,02,442,0391559,,,2022-01-14,登記官による閉鎖,,,2015-10-05,1,,,,,,0
1728,5420002017945,登記記録の閉鎖等,0,2022-01-17,2022-01-14,有限会社マックアイ,,有限会社,青森県,三沢市,新町４丁目３１番地３５０６号,,02,207,0330062,,,2022-01-14,登記官による閉鎖,,,2015-10-05,1,,,,,,0
1729,5420005006169,登記記録の閉鎖等,0,2022-01-17,2022-01-14,特定非営利活動法人ＧＲＥＥＮプラザ,,その他の設立登記法人,青森県,十和田市,稲生町６番地３４号,,02,206,0340011,,,2022-01-14,登記官による閉鎖,,,2015-10-05,1,,,,,,0
1738,5480001006563,登記記録の閉鎖等,0,2022-01-17,2022-01-17,阿南電工株式会社,,株式会社,徳島県,阿南市,宝田町平岡８９９番地の３４,,36,204,7740045,,,2022-01-17,登記官による閉鎖,,,2015-10-05,1,,,,,,0
1741,5480002001407,登記記録の閉鎖等,0,2022-01-17,2022-01-17,高徳海運有限会社,,有限会社,徳島県,徳島市,津田町２丁目５番２４号,,36,201,7708002,,,2022-01-17,登記官による閉鎖,,,2015-10-05,1,,,,,,0
1742,5480002001745,登記記録の閉鎖等,0,2022-01-17,2022-01-17,有限会社後藤田電装,,有限会社,徳島県,徳島市,城東町１丁目６番９号,,36,201,7700862,,,2022-01-17,登記官による閉鎖,,,2015-10-05,1,,,,,,0
1743,5480002008542,登記記録の閉鎖等,0,2022-01-17,2022-01-17,有限会社ジオテック,,有限会社,徳島県,徳島市,八万町上福万３番地２２,,36,201,7708073,,,2022-01-17,登記官による閉鎖,,,2015-10-05,1,,,,,,0
1744,5480002009986,登記記録の閉鎖等,0,2022-01-17,2022-01-17,有限会社よこや洋品店,,有限会社,徳島県,阿波市,市場町市場字町筋８９番地,,36,206,7711604,,,2022-01-17,登記官による閉鎖,,,2015-10-05,1,,,,,,0
1747,5480002016215,登記記録の閉鎖等,0,2022-01-17,2022-01-17,有限会社あべ,,有限会社,徳島県,鳴門市,撫養町小桑島字前浜２６３番地,,36,202,7720012,,,2022-01-17,登記官による閉鎖,,,2016-06-09,1,,,,,,0
1750,5500005005798,登記記録の閉鎖等,0,2022-01-17,2021-12-28,天理教双臺分教会,,その他の設立登記法人,愛媛県,四国中央市,中曽根町字下秋則５５１番地１,,38,213,7990413,,,2021-12-28,合併による解散等,2470005003593,令和３年１２月２１日香川県坂出市駒止町一丁目２番５号天理教双名島大教会（2470005003593）に合併し解散,2015-10-05,1,,,,,,0
1765,6010005026059,登記記録の閉鎖等,0,2022-01-17,2022-01-12,Ｐｒｅｍｉｅｒ　Ｊａｐａｎ　Ｉｎｖｅｓｔｍｅｎｔ一般社団法人,,その他の設立登記法人,東京都,中央区,銀座１丁目６番１１号土志田ビルディング３Ｆ,,13,102,1040061,,,2022-01-12,清算の結了等,,,2016-11-29,1,,,,,プレミアジャパンインヴェストメント,0
1767,6010401018097,登記記録の閉鎖等,0,2022-01-17,2022-01-11,株式会社ティーアンドティーインターナショナル,,株式会社,東京都,港区,南青山５丁目１０番５号,,13,103,1070062,,,2022-01-11,清算の結了等,,,2015-10-05,1,,,,,ティーアンドティーインターナショナル,0
1768,6010401093454,登記記録の閉鎖等,0,2022-01-17,2022-01-04,株式会社ジャック,,株式会社,東京都,港区,南青山２丁目２２番１４号フォンテ青山１２０１,,13,103,1070062,,,2022-01-04,清算の結了等,,,2015-10-05,1,,,,,ジャック,0
1787,6010601010738,登記記録の閉鎖等,0,2022-01-17,2022-01-07,株式会社サトウプレス,,株式会社,東京都,墨田区,亀沢３丁目９番３号,,13,107,1300014,,,2022-01-07,清算の結了等,,,2015-10-05,1,,,,,サトウプレス,0
1788,6010601042302,登記記録の閉鎖等,0,2022-01-17,2022-01-04,大和リビングマネジメント株式会社,,株式会社,東京都,新宿区,西新宿６丁目１１番３号,,13,104,1600023,,,2022-01-04,合併による解散等,5010601042427,令和４年１月１日東京都新宿区西新宿六丁目１１番３号大和リビング株式会社（5010601042427）に合併し解散,2015-10-05,1,,,,,ダイワリビングマネジメント,0
1795,6010801019406,登記記録の閉鎖等,0,2022-01-17,2022-01-07,株式会社アートプランニング,,株式会社,東京都,大田区,西蒲田７丁目５番３号大明ビル３Ｆ,,13,111,1440051,,,2022-01-07,清算の結了等,,,2015-10-05,1,,,,,アートプランニング,0
1798,6010805001772,登記記録の閉鎖等,0,2022-01-17,2022-01-11,一般社団法人アメリカン・ソサエテー・オブ・ジャパン,,その他の設立登記法人,東京都,大田区,西蒲田７丁目４１番５号遠藤ビル,,13,111,1440051,,,2022-01-11,清算の結了等,,,2015-10-05,1,,,,,アメリカンソサエテーオブジャパン,0
1804,6011005006133,登記記録の閉鎖等,0,2022-01-17,2021-12-24,特定非営利活動法人全国福祉未来ネットワーク,,その他の設立登記法人,東京都,渋谷区,渋谷１丁目７番５号青山セブンハイツ２０５,,13,113,1500002,,,2021-12-24,清算の結了等,,,2015-10-05,1,,,,,ゼンコクフクシミライネットワーク,0
1845,6021003005648,登記記録の閉鎖等,0,2022-01-17,2022-01-13,合同会社ＲＬＡ・ＲＬＡ,,合同会社,神奈川県,相模原市中央区,南橋本１丁目３番２５号,,14,152,2520253,,,2022-01-13,清算の結了等,,,2015-12-01,1,,,,,ララ,0
1852,6030002042107,登記記録の閉鎖等,0,2022-01-17,2022-01-12,有限会社木村竹材店,,有限会社,埼玉県,加須市,騎西１３０３番地,,11,210,3470105,,,2022-01-12,清算の結了等,,,2015-10-05,1,,,,,キムラチクザイテン,0
1853,6030002082433,登記記録の閉鎖等,0,2022-01-17,2022-01-13,有限会社エスビーエス北埼玉,,有限会社,埼玉県,鴻巣市,天神２丁目３番２２号,,11,217,3650036,,,2022-01-13,清算の結了等,,,2015-10-05,1,,,,,エスビーエスキタサイタマ,0
1881,6070001030851,登記記録の閉鎖等,0,2022-01-17,2022-01-12,株式会社星,,株式会社,群馬県,前橋市,粕川町女渕１５１３番地２ヨシダグリーンヒルズＢ１０２,,10,201,3710214,,,2022-01-12,清算の結了等,,,2015-10-05,1,,,,,ヒカリ,0
1884,6070002015975,登記記録の閉鎖等,0,2022-01-17,2022-01-11,有限会社岩井建設工業,,有限会社,群馬県,富岡市,妙義町八木連１５２番地３,,10,210,3702413,,,2022-01-11,清算の結了等,,,2015-10-05,1,,,,,イワイケンセツコウギョウ,0
1885,6070002017724,登記記録の閉鎖等,0,2022-01-17,2022-01-11,有限会社富士研磨,,有限会社,群馬県,藤岡市,中大塚５４０番地,,10,209,3750053,,,2022-01-11,清算の結了等,,,2015-10-05,1,,,,,フジケンマ,0
1890,6080401022522,登記記録の閉鎖等,0,2022-01-17,2022-01-12,株式会社神戸工務店,,株式会社,静岡県,浜松市中区,蜆塚３丁目１番１５号ハイツ鈴の木Ｃ,,22,131,4328018,,,2022-01-12,清算の結了等,,,2017-10-25,1,,,,,カンベコウムテン,0
1892,6080405004871,登記記録の閉鎖等,0,2022-01-17,2022-01-12,内田第二茶農業協同組合,,その他の設立登記法人,静岡県,菊川市,中内田２３６３番地,,22,224,4390036,,,2022-01-12,清算の結了等,,,2015-10-05,1,,,,,ウチダダイニチャ,0
1895,6110001017398,登記記録の閉鎖等,0,2022-01-17,2022-01-11,大日観光株式会社,,株式会社,新潟県,柏崎市,大字曽地１３６２番地,,15,205,9450214,,,2022-01-11,清算の結了等,,,2015-10-05,1,,,,,ダイニチカンコウ,0
1899,6120001166863,登記記録の閉鎖等,0,2022-01-17,2022-01-12,株式会社パーソナルサポート,,株式会社,大阪府,大阪市天王寺区,小橋町１２番１５－９０４号,,27,109,5430028,,,2022-01-12,清算の結了等,,,2015-10-05,1,,,,,パーソナルサポート,0
1918,6120102018328,登記記録の閉鎖等,0,2022-01-17,2022-01-11,有限会社藤事務所,,有限会社,大阪府,羽曳野市,高鷲４丁目２番２２棟２０１号,,27,222,5830882,,,2022-01-11,清算の結了等,,,2015-10-05,1,,,,,フジジムショ,0
1930,6122002005372,登記記録の閉鎖等,0,2022-01-17,2022-01-12,有限会社横田ラタン,,有限会社,大阪府,東大阪市,神田町１２番５号,,27,227,5798058,,,2022-01-12,清算の結了等,,,2015-10-05,1,,,,,,0
1940,6130002011621,登記記録の閉鎖等,0,2022-01-17,2022-01-12,有限会社安本紙器,,有限会社,京都府,京都市南区,東九条西明田町３４番地の３１,,26,107,6018045,,,2022-01-12,清算の結了等,,,2015-10-05,1,,,,,ヤスモトシキ,0
1947,6140001066913,登記記録の閉鎖等,0,2022-01-17,2022-01-11,株式会社新大新建設,,株式会社,兵庫県,三田市,下井沢３９５番地２,,28,219,6691315,,,2022-01-11,清算の結了等,,,2015-10-05,1,,,,,,0
1956,6150001006307,登記記録の閉鎖等,0,2022-01-17,2022-01-14,株式会社区画整理研究所,,株式会社,奈良県,生駒郡三郷町,勢野北４丁目５番７号,,29,343,6360815,,,2022-01-14,登記官による閉鎖,,,2015-10-05,1,,,,,,0
1957,6150001009846,登記記録の閉鎖等,0,2022-01-17,2022-01-14,井村建設株式会社,,株式会社,奈良県,宇陀郡御杖村,大字菅野２６１番地の１,,29,386,6331302,,,2022-01-14,登記官による閉鎖,,,2015-10-05,1,,,,,,0
1958,6150001011240,登記記録の閉鎖等,0,2022-01-17,2022-01-14,外山鉄工建設株式会社,,株式会社,奈良県,磯城郡田原本町,大字平野１７７番地の１,,29,363,6360305,,,2022-01-14,登記官による閉鎖,,,2015-10-05,1,,,,,,0
1959,6150001014846,登記記録の閉鎖等,0,2022-01-17,2022-01-14,葛城工業株式会社,00043043,株式会社,奈良県,葛城市,尺土４２番地６,,29,211,6392162,,,2022-01-14,登記官による閉鎖,,,2015-10-05,1,,,,,,0
1960,6150002005076,登記記録の閉鎖等,0,2022-01-17,2022-01-14,有限会社ダルマンコーポレーション,,有限会社,奈良県,大和郡山市,小泉町２１８０番地８,,29,203,6391042,,,2022-01-14,登記官による閉鎖,,,2015-10-05,1,,,,,,0
1961,6150002008244,登記記録の閉鎖等,0,2022-01-17,2022-01-14,有限会社すばる,,有限会社,奈良県,高市郡高取町,大字越智２４番地,,29,401,6350144,,,2022-01-14,登記官による閉鎖,,,2015-10-05,1,,,,,,0
1962,6160001008723,登記記録の閉鎖等,0,2022-01-17,2022-01-14,株式会社弁天,,株式会社,滋賀県,彦根市,松原町１７８２番地の１,,25,202,5220002,,,2022-01-14,登記官による閉鎖,,,2015-10-05,1,,,,,,0
2003,6230002012064,登記記録の閉鎖等,0,2022-01-17,2022-01-11,有限会社的場左官工業所,,有限会社,富山県,高岡市,和田１２７２番地,,16,202,9330832,,,2022-01-11,清算の結了等,,,2015-10-05,1,,,,,マトバサカンコウギョウショ,0
2010,6250005006615,登記記録の閉鎖等,0,2022-01-17,2022-01-11,特定非営利活動法人ゆうふれあいセンター,,その他の設立登記法人,山口県,岩国市,由宇町中央２丁目１番６号,,35,208,7401428,,,2022-01-11,清算の結了等,,,2015-10-05,1,,,,,ユウフレアイセンター,0
2021,6290801002474,登記記録の閉鎖等,0,2022-01-17,2022-01-07,株式会社テック,,株式会社,福岡県,北九州市戸畑区,牧山新町１番１号,,40,105,8040054,,,2022-01-07,清算の結了等,,,2015-10-05,1,,,,,テック,0
2033,6330001002824,登記記録の閉鎖等,0,2022-01-17,2022-01-17,株式会社ダイヤル放送,,株式会社,熊本県,熊本市中央区,上通町９－１３－８０４,,43,101,8600845,,,2022-01-17,登記官による閉鎖,,,2015-10-05,1,,,,,,0
2034,6330001006973,登記記録の閉鎖等,0,2022-01-17,2022-01-17,株式会社ＧＨ元気倶楽部,,株式会社,熊本県,熊本市東区,健軍２丁目２５番１号,,43,102,8620911,,,2022-01-17,登記官による閉鎖,,,2015-10-05,1,,,,,,0
2035,6330001014092,登記記録の閉鎖等,0,2022-01-17,2022-01-17,株式会社クマサン,,株式会社,熊本県,八代市,鏡町下有佐１９０番地,,43,202,8694212,,,2022-01-17,登記官による閉鎖,,,2016-06-15,1,,,,,,0
2036,6330001016386,登記記録の閉鎖等,0,2022-01-17,2022-01-17,株式会社ＵＳコーポレーション,,株式会社,熊本県,人吉市,願成寺町１４３４,,43,203,8680022,,,2022-01-17,登記官による閉鎖,,,2015-10-05,1,,,,,,0
2041,6330002007954,登記記録の閉鎖等,0,2022-01-17,2022-01-17,有限会社日本教育研究会,,有限会社,熊本県,熊本市中央区,黒髪４丁目８番４２号,,43,101,8600862,,,2022-01-17,登記官による閉鎖,,,2015-10-05,1,,,,,,0
2042,6330002027110,登記記録の閉鎖等,0,2022-01-17,2022-01-17,有限会社中村眞商店,,有限会社,熊本県,八代市,千丁町太牟田２２７１番地１,,43,202,8694701,,,2022-01-17,登記官による閉鎖,,,2015-10-05,1,,,,,,0
2043,6330002031459,登記記録の閉鎖等,0,2022-01-17,2022-01-17,有限会社山上建設,,有限会社,熊本県,上益城郡嘉島町,大字鯰１５４５番地１,,43,442,8613101,,,2022-01-17,登記官による閉鎖,,,2015-10-05,1,,,,,,0
2044,6330003006609,登記記録の閉鎖等,0,2022-01-17,2022-01-17,合資会社小原ブロック工業所,,合資会社,熊本県,熊本市南区,富合町榎津２３番地,,43,104,8614146,,,2022-01-17,登記官による閉鎖,,,2016-02-05,1,,,,,,0
2045,6330005003975,登記記録の閉鎖等,0,2022-01-17,2022-01-17,蘇陽町商工協同組合,,その他の設立登記法人,熊本県,上益城郡山都町,馬見原１１８番地３,,43,447,8613901,,,2022-01-17,登記官による閉鎖,,,2015-10-05,1,,,,,,0
2049,6360001025533,登記記録の閉鎖等,0,2022-01-17,2022-01-11,株式会社沖全サポート,,株式会社,沖縄県,浦添市,宮城１丁目３５－９丸金宮城ビル２０２,,47,208,9012126,,,2022-01-11,清算の結了等,,,2019-04-22,1,,,,,オキゼンサポート,0
2065,6420001005669,登記記録の閉鎖等,0,2022-01-17,2022-01-14,株式会社奥羽生コン,,株式会社,青森県,八戸市,沼館１丁目１６番２０号,,02,203,0310071,,,2022-01-14,登記官による閉鎖,,,2015-10-05,1,,,,,,0
2066,6420001008102,登記記録の閉鎖等,0,2022-01-17,2022-01-14,藤田建設株式会社,,株式会社,青森県,五所川原市,字柳町５４番地,,02,205,0370073,,,2022-01-14,登記官による閉鎖,,,2015-10-05,1,,,,,,0
2068,6420002003093,登記記録の閉鎖等,0,2022-01-17,2022-01-14,有限会社豊運輸,,有限会社,青森県,青森市,幸畑５丁目２３番１０号,,02,201,0300943,,,2022-01-14,登記官による閉鎖,,,2015-10-05,1,,,,,,0
2069,6420002008514,登記記録の閉鎖等,0,2022-01-17,2022-01-14,有限会社ヒノプランニング,,有限会社,青森県,八戸市,大字沢里字二ツ屋１番地９,,02,203,0391167,,,2022-01-14,登記官による閉鎖,,,2015-10-05,1,,,,,,0
2070,6420002013282,登記記録の閉鎖等,0,2022-01-17,2022-01-14,有限会社弘永企画,,有限会社,青森県,弘前市,大字撫牛子２丁目４番地４,,02,202,0368075,,,2022-01-14,登記官による閉鎖,,,2015-10-05,1,,,,,,0
2071,6420002019296,登記記録の閉鎖等,0,2022-01-17,2022-01-14,有限会社ヨシモト商店,,有限会社,青森県,下北郡大間町,大字大間字割石７番地２２,,02,423,0394601,,,2022-01-14,登記官による閉鎖,,,2015-10-05,1,,,,,,0
2072,6420002020312,登記記録の閉鎖等,0,2022-01-17,2022-01-13,有限会社奥入瀬ファーム,,有限会社,青森県,十和田市,大字奥瀬字冷水９５番地１,,02,206,0340301,,,2022-01-13,清算の結了等,,,2021-12-07,1,,,,,オイラセファーム,0
2073,6420005002530,登記記録の閉鎖等,0,2022-01-17,2022-01-14,農事組合法人八戸市りんご生産組合,,その他の設立登記法人,青森県,八戸市,大字櫛引字上矢倉３３番地２号,,02,203,0391107,,,2022-01-14,登記官による閉鎖,,,2015-10-05,1,,,,,,0
2087,6480001006851,登記記録の閉鎖等,0,2022-01-17,2022-01-17,三六興業株式会社,,株式会社,徳島県,阿南市,黒津地町中地２８番地１８,,36,204,7740006,,,2022-01-17,登記官による閉鎖,,,2015-10-05,1,,,,,,0
2088,6480002001372,登記記録の閉鎖等,0,2022-01-17,2022-01-17,有限会社幸雲商事,,有限会社,徳島県,徳島市,八万町下福万１３２番地,,36,201,7708074,,,2022-01-17,登記官による閉鎖,,,2015-10-05,1,,,,,,0
2089,6480002002255,登記記録の閉鎖等,0,2022-01-17,2022-01-17,有限会社ジョイリゾート,,有限会社,徳島県,徳島市,北田宮３丁目７番６号,,36,201,7700003,,,2022-01-17,登記官による閉鎖,,,2015-10-05,1,,,,,,0
2090,6480002003253,登記記録の閉鎖等,0,2022-01-17,2022-01-17,有限会社徳新エリアサービス,,有限会社,徳島県,徳島市,城南町４丁目２番４１号,,36,201,7708064,,,2022-01-17,登記官による閉鎖,,,2015-10-05,1,,,,,,0
2091,6480002003740,登記記録の閉鎖等,0,2022-01-17,2022-01-17,有限会社八福コンサル,,有限会社,徳島県,徳島市,八万町犬山６５番地,,36,201,7708070,,,2022-01-17,登記官による閉鎖,,,2015-10-05,1,,,,,,0
2092,6480002003930,登記記録の閉鎖等,0,2022-01-17,2022-01-17,有限会社ブルーム,,有限会社,徳島県,徳島市,福島２丁目４番６号,,36,201,7700868,,,2022-01-17,登記官による閉鎖,,,2015-10-05,1,,,,,,0
2093,6480002004053,登記記録の閉鎖等,0,2022-01-17,2022-01-17,原田組有限会社,,有限会社,徳島県,徳島市,国府町府中７１４番地の１,,36,201,7793122,,,2022-01-17,登記官による閉鎖,,,2015-10-05,1,,,,,,0
2094,6480002004169,登記記録の閉鎖等,0,2022-01-17,2022-01-17,有限会社ナチュラル,,有限会社,徳島県,徳島市,北田宮２丁目６番３７号,,36,201,7700003,,,2022-01-17,登記官による閉鎖,,,2015-10-05,1,,,,,,0
2095,6480002005209,登記記録の閉鎖等,0,2022-01-17,2022-01-17,有限会社盛岡木工所,,有限会社,徳島県,徳島市,佐古八番町７番１号,,36,201,7700028,,,2022-01-17,登記官による閉鎖,,,2015-10-05,1,,,,,,0
2096,6480002005423,登記記録の閉鎖等,0,2022-01-17,2022-01-17,有限会社良善,,有限会社,徳島県,徳島市,南田宮２丁目３番１００号,,36,201,7700004,,,2022-01-17,登記官による閉鎖,,,2015-10-05,1,,,,,,0
2097,6480002006025,登記記録の閉鎖等,0,2022-01-17,2022-01-17,有限会社ワーキングアント福田商会,,有限会社,徳島県,徳島市,多家良町吉田５番地の２,,36,201,7714264,,,2022-01-17,登記官による閉鎖,,,2015-10-05,1,,,,,,0
2098,6480002006487,登記記録の閉鎖等,0,2022-01-17,2022-01-17,有限会社メディアル,,有限会社,徳島県,徳島市,中洲町１丁目３２番地,,36,201,7700856,,,2022-01-17,登記官による閉鎖,,,2015-10-05,1,,,,,,0
2099,6480002007139,登記記録の閉鎖等,0,2022-01-17,2022-01-17,有限会社八宝,,有限会社,徳島県,徳島市,佐古六番町１番２０号,,36,201,7700026,,,2022-01-17,登記官による閉鎖,,,2015-10-05,1,,,,,,0
2100,6480002007626,登記記録の閉鎖等,0,2022-01-17,2022-01-17,有限会社金山工務店,,有限会社,徳島県,小松島市,和田島町字前塩田９１番地の１,,36,203,7730025,,,2022-01-17,登記官による閉鎖,,,2015-10-05,1,,,,,,0
2101,6480002007733,登記記録の閉鎖等,0,2022-01-17,2022-01-17,幸徳海運有限会社,,有限会社,徳島県,小松島市,金磯町９番６４号,,36,203,7730007,,,2022-01-17,登記官による閉鎖,,,2015-10-05,1,,,,,,0
2102,6480002014531,登記記録の閉鎖等,0,2022-01-17,2022-01-17,アキ測量有限会社,,有限会社,徳島県,美馬市,脇町字曽江名１７番地７２,,36,207,7793741,,,2022-01-17,登記官による閉鎖,,,2015-10-05,1,,,,,,0
2126,7010401021439,登記記録の閉鎖等,0,2022-01-17,2022-01-05,株式会社西田文具,,株式会社,東京都,港区,東麻布１丁目１７番３号,,13,103,1060044,,,2022-01-05,清算の結了等,,,2015-10-05,1,,,,,ニシダブング,0
2142,7010402025752,登記記録の閉鎖等,0,2022-01-17,2022-01-05,有限会社青山パティオ,,有限会社,東京都,港区,南青山３丁目１３番２３号,,13,103,1070062,,,2022-01-05,清算の結了等,,,2015-10-05,1,,,,,アオヤマパティオ,0
2143,7010403014721,登記記録の閉鎖等,0,2022-01-17,2022-01-05,大分田室合同会社,,合同会社,東京都,港区,北青山３丁目５番１２号青山クリスタルビル９階,,13,103,1070061,,,2022-01-05,清算の結了等,,,2016-04-19,1,,,,,オオイタタムロ,0
2147,7010405015437,登記記録の閉鎖等,0,2022-01-17,2022-01-05,一般社団法人Ｏｏｕｒａ,,その他の設立登記法人,東京都,港区,虎ノ門５丁目１番４号,,13,103,1050001,,,2022-01-05,清算の結了等,,,2017-01-20,1,,,,,オオウラ,0
2155,7010701026022,登記記録の閉鎖等,0,2022-01-17,2022-01-04,サンファーム株式会社,,株式会社,東京都,品川区,上大崎２丁目１３番２号,,13,109,1410021,,,2022-01-04,合併による解散等,9010701008654,令和３年１２月３１日東京都品川区上大崎二丁目１３番２号フジタ製薬株式会社（9010701008654）に合併し解散,2015-10-05,1,,,,,サンファーム,0
2156,7010701030354,登記記録の閉鎖等,0,2022-01-17,2022-01-12,株式会社エアリーテクノロジー,,株式会社,東京都,品川区,西五反田１丁目１７番１号,,13,109,1410031,,,2022-01-12,清算の結了等,,,2015-10-05,1,,,,,エアリーテクノロジー,0
2172,7011101014682,登記記録の閉鎖等,0,2022-01-17,2022-01-04,トラベルイン株式会社,,株式会社,東京都,練馬区,高松５丁目１１番２６号,,13,120,1790075,,,2022-01-04,合併による解散等,8010001050044,令和４年１月１日東京都練馬区高松五丁目１１番２６号Ｔ－ＬＩＦＥホールディングス株式会社（8010001050044）に合併し解散,2015-10-05,1,,,,,トラベルイン,0
2174,7011101069421,登記記録の閉鎖等,0,2022-01-17,2022-01-06,ＧＬＯＢＡＬ　ＭＯＤＥ株式会社,,株式会社,東京都,港区,西新橋２丁目３４－８,,13,103,1050003,,,2022-01-06,清算の結了等,,,2015-10-05,1,,,,,,0
2183,7011303003467,登記記録の閉鎖等,0,2022-01-17,2022-01-11,合同会社Ｄｅｅｐ　ｂｌｕｅ,,合同会社,東京都,杉並区,下井草１丁目２２番８号青木ハイツ２０３,,13,115,1670022,,,2022-01-11,清算の結了等,,,2019-11-07,1,,,,,ディープブルー,0
2199,7020001007382,登記記録の閉鎖等,0,2022-01-17,2022-01-12,株式会社サンゴ,,株式会社,神奈川県,横浜市戸塚区,上倉田町１０００番地,,14,110,2440816,,,2022-01-12,清算の結了等,,,2015-10-05,1,,,,,サンゴ,0
2200,7020001127866,登記記録の閉鎖等,0,2022-01-17,2022-01-12,株式会社荻ゴルフクラブ,,株式会社,静岡県,伊東市,荻４９０番地,,22,208,4140053,,,2022-01-12,清算の結了等,,,2018-09-10,1,,,,,オギゴルフクラブ,0
2214,7021001042691,登記記録の閉鎖等,0,2022-01-17,2021-12-20,株式会社Ｉ＆Ｔプロデューサーズ,,株式会社,神奈川県,逗子市,沼間６丁目１２番７号,,14,208,2490004,,,2021-12-20,清算の結了等,,,2015-10-05,1,,,,,アイアンドティプロデューサーズ,0
2222,7030001116637,登記記録の閉鎖等,0,2022-01-17,2022-01-13,株式会社エフティシャイン,,株式会社,埼玉県,さいたま市中央区,本町東２丁目１７番２号,,11,105,3380003,,,2022-01-13,清算の結了等,,,2016-10-14,1,,,,,エフティシャイン,0
2229,7030002055702,登記記録の閉鎖等,0,2022-01-17,2022-01-13,有限会社寿工業,,有限会社,埼玉県,桶川市,坂田西３丁目１３番地の１２,,11,231,3630018,,,2022-01-13,清算の結了等,,,2015-10-05,1,,,,,コトブキコウギョウ,0
2235,7040001018444,登記記録の閉鎖等,0,2022-01-17,2022-01-06,八紘不動産株式会社,,株式会社,千葉県,船橋市,本郷町４１７番地２島五コーポ２０６号,,12,204,2730033,,,2022-01-06,清算の結了等,,,2015-10-05,1,,,,,ハッコウフドウサン,0
2241,7040001066682,登記記録の閉鎖等,0,2022-01-17,2022-01-07,株式会社ワールド包装,,株式会社,千葉県,柏市,逆井４１９番地１０,,12,217,2770042,,,2022-01-07,清算の結了等,,,2015-10-05,1,,,,,ワールドホウソウ,0
2272,7070001026519,登記記録の閉鎖等,0,2022-01-17,2022-01-12,株式会社アークス,,株式会社,群馬県,高崎市,飯塚町３３４番地,,10,202,3700069,,,2022-01-12,清算の結了等,,,2015-10-05,1,,,,,アークス,0
2273,7070003002261,登記記録の閉鎖等,0,2022-01-17,2022-01-11,合同会社アシストプラス・カズ,,合同会社,群馬県,藤岡市,三本木６７２番地,,10,209,3750037,,,2022-01-11,清算の結了等,,,2015-10-05,1,,,,,アシストプラスカズ,0
2285,7120001066071,登記記録の閉鎖等,0,2022-01-17,2022-01-11,株式会社専門大店,,株式会社,大阪府,大阪市北区,小松原町２番４号大阪富国生命ビル８階,,27,127,5300018,,,2022-01-11,合併による解散等,6140001055008,令和４年１月１日兵庫県尼崎市潮江一丁目２番１２号株式会社ジェイアール西日本デイリーサービスネット（6140001055008）に合併し解散,2015-10-05,1,,,,,センモンダイテン,0
2309,7130001065304,登記記録の閉鎖等,0,2022-01-17,2022-01-11,株式会社大宙,,株式会社,京都府,京田辺市,松井山川１番地７,,26,211,6100342,,,2022-01-11,清算の結了等,,,2019-09-24,1,,,,,オオゾラ,0
2324,7140005023249,登記記録の閉鎖等,0,2022-01-17,2021-12-22,特定非営利活動法人演奏環境創造ネットワーク,,その他の設立登記法人,兵庫県,神戸市中央区,東川崎町１丁目６番１号,,28,110,6500044,,,2021-12-22,清算の結了等,,,2016-11-18,1,,,,,エンソウカンキョウソウゾウネットワーク,0
2326,7150001000829,登記記録の閉鎖等,0,2022-01-17,2022-01-14,株式会社サウンドエヌエス,,株式会社,奈良県,奈良市,餅飯殿町４４番地,00042578,29,201,6308222,,,2022-01-14,登記官による閉鎖,,,2015-10-05,1,,,,,,0
2328,7150001009911,登記記録の閉鎖等,0,2022-01-17,2022-01-14,株式会社伯鳳技研,,株式会社,奈良県,宇陀市,室生大野１４７６番地の８,,29,212,6330315,,,2022-01-14,登記官による閉鎖,,,2015-10-05,1,,,,,,0
2329,7150001010472,登記記録の閉鎖等,0,2022-01-17,2022-01-14,株式会社建設新報社,,株式会社,奈良県,橿原市,十市町４５３番地の５,,29,205,6340008,,,2022-01-14,登記官による閉鎖,,,2015-10-05,1,,,,,,0
2330,7150001011140,登記記録の閉鎖等,0,2022-01-17,2022-01-14,株式会社川本建設,,株式会社,奈良県,磯城郡田原本町,大字東井上１３６番地の１,,29,363,6360235,,,2022-01-14,登記官による閉鎖,,,2015-10-05,1,,,,,,0
2333,7150001020521,登記記録の閉鎖等,0,2022-01-17,2022-01-14,株式会社健住宅,,株式会社,奈良県,磯城郡田原本町,大字宮森７８番地の１,,29,363,6360344,,,2022-01-14,登記官による閉鎖,,,2016-02-10,1,,,,,,0
2334,7150005002391,登記記録の閉鎖等,0,2022-01-17,2022-01-14,生駒食糧品販売企業組合,,その他の設立登記法人,奈良県,生駒市,元町１丁目５番１０号,,29,209,6300257,,,2022-01-14,登記官による閉鎖,,,2015-10-05,1,,,,,,0
2335,7150005004108,登記記録の閉鎖等,0,2022-01-17,2022-01-14,東吉野村山林労働組合,,その他の設立登記法人,奈良県,吉野郡東吉野村,大字小川８３９番地,,29,453,6332421,,,2022-01-14,登記官による閉鎖,,,2015-10-05,1,,,,,,0
2336,7150005007226,登記記録の閉鎖等,0,2022-01-17,2022-01-14,天川村山林労働組合,,その他の設立登記法人,奈良県,吉野郡天川村,大字沢谷６０番地,,29,446,6380305,,,2022-01-14,登記官による閉鎖,,,2015-10-05,1,,,,,,0
2337,7160001000704,登記記録の閉鎖等,0,2022-01-17,2022-01-14,紺清商事株式会社,,株式会社,滋賀県,大津市,玉野浦５番２４号,,25,201,5202142,,,2022-01-14,登記官による閉鎖,,,2016-03-09,1,,,,,,0
2338,7160001010785,登記記録の閉鎖等,0,2022-01-17,2022-01-14,株式会社三栄,,株式会社,滋賀県,近江八幡市,出町４２２番地,,25,204,5230892,,,2022-01-14,登記官による閉鎖,,,2015-10-05,1,,,,,,0
2339,7160001011718,登記記録の閉鎖等,0,2022-01-17,2022-01-14,工藤精密産業株式会社,,株式会社,滋賀県,東近江市,尻無町１６３３番地３,,25,213,5270064,,,2022-01-14,登記官による閉鎖,,,2015-10-05,1,,,,,,0
2341,7160001015537,登記記録の閉鎖等,0,2022-01-17,2022-01-14,岩井電器産業株式会社,,株式会社,滋賀県,野洲市,小篠原１２２１番地の１,,25,210,5202331,,,2022-01-14,登記官による閉鎖,,,2015-10-05,1,,,,,,0
2342,7160002004712,登記記録の閉鎖等,0,2022-01-17,2022-01-14,有限会社グリーンハウス,,有限会社,滋賀県,大津市,坂本１丁目１８番６号,,25,201,5200113,,,2022-01-14,登記官による閉鎖,,,2015-10-05,1,,,,,,0
2343,7160002005909,登記記録の閉鎖等,0,2022-01-17,2022-01-14,有限会社平尾建販,,有限会社,滋賀県,甲賀市,信楽町江田７６０番地１,,25,209,5291811,,,2022-01-14,登記官による閉鎖,,,2015-10-05,1,,,,,,0
2344,7160002011428,登記記録の閉鎖等,0,2022-01-17,2022-01-14,有限会社中瀬,,有限会社,滋賀県,高島市,朽木市場７１５番地,,25,212,5201401,,,2022-01-14,登記官による閉鎖,,,2015-10-05,1,,,,,,0
2345,7160005002341,登記記録の閉鎖等,0,2022-01-17,2022-01-14,特定非営利活動法人滋賀県映画センター,,その他の設立登記法人,滋賀県,大津市,末広町１０番３号,,25,201,5200056,,,2022-01-14,登記官による閉鎖,,,2015-10-05,1,,,,,,0
2346,7160005009279,登記記録の閉鎖等,0,2022-01-17,2022-01-14,特定非営利活動法人全日本調査業連合会,,その他の設立登記法人,滋賀県,野洲市,小篠原８２６番地１２ビバリービル３－３０１号室,,25,210,5202331,,,2022-01-14,登記官による閉鎖,,,2015-10-05,1,,,,,,0
2364,7180002065546,登記記録の閉鎖等,0,2022-01-17,2022-01-12,有限会社春日井サンワ電化センター,,有限会社,愛知県,春日井市,瑞穂通２丁目１０２番地,,23,206,4860845,,,2022-01-12,清算の結了等,,,2015-10-05,1,,,,,カスガイサンワデンカセンター,0
2372,7180305002106,登記記録の閉鎖等,0,2022-01-17,2022-01-13,税理士法人九鬼会計事務所,,その他の設立登記法人,愛知県,岡崎市,六名東町１番地４,,23,202,4440847,,,2022-01-13,清算の結了等,,,2015-10-05,1,,,,,クキカイケイジムショ,0
2379,7210002000359,登記記録の閉鎖等,0,2022-01-17,2022-01-12,有限会社逸星,,有限会社,福井県,福井市,下東郷町第２９号４番地８,,18,201,9102173,,,2022-01-12,清算の結了等,,,2015-10-05,1,,,,,イッセイ,0
2391,7250001016039,登記記録の閉鎖等,0,2022-01-17,2022-01-14,アイワテクノ株式会社,,株式会社,山口県,山口市,天花３丁目９番１０号,,35,203,7530091,,,2022-01-14,清算の結了等,,,2016-06-29,1,,,,,アイワテクノ,0
2402,7290001052633,登記記録の閉鎖等,0,2022-01-17,2022-01-17,株式会社ｍｏｖｅ,,株式会社,熊本県,熊本市中央区,帯山９丁目３番９号,,43,101,8620924,,,2022-01-17,登記官による閉鎖,,,2015-10-05,1,,,,,,0
2417,7330001000620,登記記録の閉鎖等,0,2022-01-17,2022-01-17,株式会社大阿蘇堂,,株式会社,熊本県,熊本市東区,石原町３３２番地１,,43,102,8618014,,,2022-01-17,登記官による閉鎖,,,2015-10-05,1,,,,,,0
2418,7330001007129,登記記録の閉鎖等,0,2022-01-17,2022-01-17,株式会社エアプレインプロジェクト,,株式会社,熊本県,熊本市西区,二本木４丁目６番９号,,43,103,8600051,,,2022-01-17,登記官による閉鎖,,,2015-10-05,1,,,,,,0
2419,7330001010108,登記記録の閉鎖等,0,2022-01-17,2022-01-17,株式会社西商店,,株式会社,熊本県,菊池郡菊陽町,大字久保田２７９２番地８,,43,404,8691103,,,2022-01-17,登記官による閉鎖,,,2015-10-05,1,,,,,,0
2420,7330001010768,登記記録の閉鎖等,0,2022-01-17,2022-01-17,クロスエッジ株式会社,,株式会社,熊本県,熊本市南区,御幸木部２丁目１番１０号,,43,104,8614173,,,2022-01-17,登記官による閉鎖,,,2015-10-05,1,,,,,,0
2421,7330001012054,登記記録の閉鎖等,0,2022-01-17,2022-01-17,株式会社感謝グループ,,株式会社,熊本県,玉名郡玉東町,大字白木１２８１番地,,43,364,8690312,,,2022-01-17,登記官による閉鎖,,,2015-10-05,1,,,,,,0
2423,7330002008472,登記記録の閉鎖等,0,2022-01-17,2022-01-17,有限会社春商店,,有限会社,熊本県,熊本市中央区,西子飼町１０番１５号,,43,101,8600853,,,2022-01-17,登記官による閉鎖,,,2015-10-05,1,,,,,,0
2424,7330002024734,登記記録の閉鎖等,0,2022-01-17,2022-01-17,有限会社ミツワ企画,,有限会社,熊本県,宇土市,笹原町１１６３番地,,43,211,8690402,,,2022-01-17,登記官による閉鎖,,,2015-10-05,1,,,,,,0
2425,7330002031482,登記記録の閉鎖等,0,2022-01-17,2022-01-17,カネイ有限会社,,有限会社,熊本県,八代市,（熊本県八代郡鏡町鏡村１２５２番地）,,43,202,8660000,,,2022-01-17,登記官による閉鎖,,,2016-10-19,1,,,,,,1
2426,7330003003002,登記記録の閉鎖等,0,2022-01-17,2022-01-17,柏原合資会社,,合資会社,熊本県,宇城市,小川町小川５８番地,,43,213,8690621,,,2022-01-17,登記官による閉鎖,,,2015-10-05,1,,,,,,0
2427,7330005001268,登記記録の閉鎖等,0,2022-01-17,2022-01-17,医療法人谷口会,,その他の設立登記法人,熊本県,熊本市中央区,本荘５丁目１６番１２号,,43,101,8600811,,,2022-01-17,登記官による閉鎖,,,2015-10-05,1,,,,,,0
2428,7330005001276,登記記録の閉鎖等,0,2022-01-17,2022-01-17,医療法人社団拓友会,,その他の設立登記法人,熊本県,熊本市北区,梶尾町木実坂１６３６番地３,,43,105,8615512,,,2022-01-17,登記官による閉鎖,,,2015-10-05,1,,,,,,0
2429,7330005002200,登記記録の閉鎖等,0,2022-01-17,2022-01-17,ゆうゆうトラベル企業組合,,その他の設立登記法人,熊本県,熊本市中央区,南千反畑町１３番３５号,,43,101,8600842,,,2022-01-17,登記官による閉鎖,,,2015-10-05,1,,,,,,0
2435,7370001042782,登記記録の閉鎖等,0,2022-01-17,2022-01-11,株式会社明青,,株式会社,宮城県,仙台市泉区,七北田字古内９３番地の１,,04,105,9813131,,,2022-01-11,合併による解散等,5370002000089,令和４年１月１日仙台市泉区七北田字古内９３番地の１株式会社青正（5370002000089）に合併し解散,2018-03-19,1,,,,,メイセイ,0
2454,7420002005618,登記記録の閉鎖等,0,2022-01-17,2022-01-14,有限会社トーオーテクノ,,有限会社,青森県,青森市,浪岡大字浪岡字稲村２６２番地１,,02,201,0381311,,,2022-01-14,登記官による閉鎖,,,2015-10-05,1,,,,,,0
2455,7420002007622,登記記録の閉鎖等,0,2022-01-17,2022-01-14,有限会社第一総合建築研究所,,有限会社,青森県,八戸市,大字大久保字小久保３番地３４１,,02,203,0310833,,,2022-01-14,登記官による閉鎖,,,2015-10-05,1,,,,,,0
2456,7420002010411,登記記録の閉鎖等,0,2022-01-17,2022-01-14,有限会社春山農場,,有限会社,青森県,三戸郡三戸町,大字貝守字杉沢４４番地,,02,441,0390453,,,2022-01-14,登記官による閉鎖,,,2015-10-05,1,,,,,,0
2457,7420002011161,登記記録の閉鎖等,0,2022-01-17,2022-01-14,有限会社自然のいぶき,,有限会社,青森県,五所川原市,字上平井町７４番地,,02,205,0370054,,,2022-01-14,登記官による閉鎖,,,2015-10-05,1,,,,,シゼンノイブキ,0
2458,7420002011822,登記記録の閉鎖等,0,2022-01-17,2022-01-14,有限会社白川板金工作所,,有限会社,青森県,五所川原市,金木町喜良市千苅２１３番地１９１,,02,205,0370203,,,2022-01-14,登記官による閉鎖,,,2015-10-05,1,,,,,,0
2475,7470002009622,登記記録の閉鎖等,0,2022-01-17,2022-01-13,有限会社アドショップウラ,,有限会社,香川県,高松市,国分寺町新名１４１６番地５,,37,201,7690104,,,2022-01-13,清算の結了等,,,2015-10-05,1,,,,,アドショップウラ,0
2476,7480001005737,登記記録の閉鎖等,0,2022-01-17,2022-01-17,ウッドシステム株式会社,,株式会社,徳島県,板野郡藍住町,富吉字穂実５９番地１６,,36,403,7711232,,,2022-01-17,登記官による閉鎖,,,2015-10-05,1,,,,,,0
2477,7480001005794,登記記録の閉鎖等,0,2022-01-17,2022-01-17,株式会社立岩ニット,,株式会社,徳島県,鳴門市,撫養町立岩字五枚７３番地,,36,202,7720017,,,2022-01-17,登記官による閉鎖,,,2015-10-05,1,,,,,,0
2478,7480002000844,登記記録の閉鎖等,0,2022-01-17,2022-01-17,尚山堂実業有限会社,,有限会社,徳島県,徳島市,川内町上別宮東７８番地１,,36,201,7710126,,,2022-01-17,登記官による閉鎖,,,2015-10-05,1,,,,,,0
2479,7480002007666,登記記録の閉鎖等,0,2022-01-17,2022-01-17,有限会社清崎商店,,有限会社,徳島県,小松島市,中田町字内開３１番地２,,36,203,7730015,,,2022-01-17,登記官による閉鎖,,,2015-10-05,1,,,,,,0
2480,7480002011759,登記記録の閉鎖等,0,2022-01-17,2022-01-17,エヌティーシー産業有限会社,,有限会社,徳島県,板野郡板野町,大寺字岡山路８番地２９２,,36,404,7790105,,,2022-01-17,登記官による閉鎖,,,2015-10-05,1,,,,,,0
2481,7480002012402,登記記録の閉鎖等,0,2022-01-17,2022-01-17,有限会社大三,,有限会社,徳島県,鳴門市,撫養町斎田字浜端南１２番地１,,36,202,7720002,,,2022-01-17,登記官による閉鎖,,,2015-10-05,1,,,,,,0
2482,7480002013821,登記記録の閉鎖等,0,2022-01-17,2022-01-17,湯浅缶詰有限会社,,有限会社,徳島県,阿南市,福井町湊１４１番地３,,36,204,7791620,,,2022-01-17,登記官による閉鎖,,,2015-10-05,1,,,,,,0
2483,7480005000676,登記記録の閉鎖等,0,2022-01-17,2022-01-17,徳島県塗装工業協同組合,,その他の設立登記法人,徳島県,徳島市,南末広町２番４１号,,36,201,7700865,,,2022-01-17,登記官による閉鎖,,,2015-10-05,1,,,,,,0
2484,7480005001550,登記記録の閉鎖等,0,2022-01-17,2022-01-17,特定非営利活動法人徳島発達障害ケアマネジメント協会,,その他の設立登記法人,徳島県,徳島市,南島田町３丁目３９番地,,36,201,7700053,,,2022-01-17,登記官による閉鎖,,,2015-10-05,1,,,,,,0
2495,8010001208105,登記記録の閉鎖等,0,2022-01-17,2022-01-05,テレヘルスジャパン株式会社,,株式会社,東京都,千代田区,麹町４丁目８番地,,13,101,1020083,,,2022-01-05,清算の結了等,,,2020-03-10,1,,,,,テレヘルスジャパン,0
2497,8010001208146,登記記録の閉鎖等,0,2022-01-17,2022-01-04,株式会社ＨＲテックソリューションズ,,株式会社,東京都,千代田区,神田小川町２丁目４番５号杉商ビル,,13,101,1010052,,,2022-01-04,合併による解散等,6010001100619,令和４年１月１日東京都千代田区神田小川町二丁目４番５号杉商ビル８階株式会社マイナビＢＸ（6010001100619）に合併し解散,2020-03-10,1,,,,,エッチアールテックソリューションズ,0
2509,8010401101149,登記記録の閉鎖等,0,2022-01-17,2022-01-05,株式会社Ｄ．Ａ．Ｉ,,株式会社,東京都,港区,西麻布４丁目１５番２－９０５号,,13,103,1060031,,,2022-01-05,清算の結了等,,,2015-10-05,1,,,,,ディーエーアイ,0
2519,8010501028944,登記記録の閉鎖等,0,2022-01-17,2022-01-12,株式会社平盛電子,,株式会社,埼玉県,越谷市,大字増林字川添６７９４番地３６の２,,11,222,3430011,,,2022-01-12,清算の結了等,,,2015-10-05,1,,,,,ヘイセイデンシ,0
2530,8010802015947,登記記録の閉鎖等,0,2022-01-17,2022-01-06,有限会社渡辺梱包運輸,,有限会社,東京都,大田区,大森西５丁目１９番８号,,13,111,1430015,,,2022-01-06,合併による解散等,9010801002425,令和４年１月１日東京都大田区上池台三丁目１６番１９号株式会社カーレントサービス（9010801002425）に合併し解散,2015-10-05,1,,,,,ワタナベコンポウウンユ,0
2535,8011001059918,登記記録の閉鎖等,0,2022-01-17,2021-12-27,株式会社タトルコーポレーション,,株式会社,東京都,渋谷区,渋谷４丁目１番２３号秀和高樹町レジデンス８０１号,,13,113,1500002,,,2021-12-27,清算の結了等,,,2015-10-05,1,,,,,タトルコーポレーション,0
2544,8011105004142,登記記録の閉鎖等,0,2022-01-17,2022-01-07,一般社団法人環境施設保守管理業協会,,その他の設立登記法人,東京都,新宿区,左門町１６番１号,,13,104,1600017,,,2022-01-07,清算の結了等,,,2015-10-05,1,,,,,カンキョウシセツホシュカンリギョウキョウカイ,0
2546,8011202002370,登記記録の閉鎖等,0,2022-01-17,2022-01-11,有限会社三栄高石,,有限会社,東京都,中野区,大和町３丁目１４番３号,,13,114,1650034,,,2022-01-11,清算の結了等,,,2015-10-05,1,,,,,サンエイタカイシ,0
2555,8012701001499,登記記録の閉鎖等,0,2022-01-17,2022-01-12,株式会社創野村建築設計事務所,,株式会社,東京都,東村山市,諏訪町１丁目２３番地５,,13,213,1890021,,,2022-01-12,清算の結了等,,,2015-10-05,1,,,,,ソウノムラケンチクセッケイジムショ,0
2568,8020001088653,登記記録の閉鎖等,0,2022-01-17,2022-01-12,株式会社Ｂｅｙｏｎｄ　Ｊａｐａｎ,,株式会社,神奈川県,横浜市都筑区,東山田４丁目３９番２１号,,14,118,2240023,,,2022-01-12,合併による解散等,1120001160730,令和４年１月１日大阪市浪速区立葉一丁目２番１２号ナミコービル３階トラオム株式会社（1120001160730）に合併し解散,2015-10-05,1,,,,,,0
2578,8020002033088,登記記録の閉鎖等,0,2022-01-17,2022-01-07,かつみ興業有限会社,,有限会社,神奈川県,横浜市港北区,樽町４丁目１６番１４号,,14,109,2220001,,,2022-01-07,清算の結了等,,,2015-10-05,1,,,,,カツミコウギョウ,0
2599,8040001066681,登記記録の閉鎖等,0,2022-01-17,2022-01-07,株式会社ＩＭＮ,,株式会社,千葉県,柏市,南逆井４丁目２６番１号,,12,217,2770043,,,2022-01-07,清算の結了等,,,2015-10-05,1,,,,,アイエムエヌ,0
2605,8040002060031,登記記録の閉鎖等,0,2022-01-17,2022-01-07,有限会社小松繁工務店,,有限会社,千葉県,白井市,富塚７２６番地,,12,232,2701405,,,2022-01-07,清算の結了等,,,2015-10-05,1,,,,,,0
2671,8150001000002,登記記録の閉鎖等,0,2022-01-17,2022-01-14,株式会社イング,,株式会社,奈良県,奈良市,鳥見町２丁目２８番２６号,,29,201,6310065,,,2022-01-14,登記官による閉鎖,,,2015-10-05,1,,,,,,0
2672,8150001007914,登記記録の閉鎖等,0,2022-01-17,2022-01-14,株式会社ウィード,,株式会社,奈良県,奈良市,中町４２２９番地の６,,29,201,6310052,,,2022-01-14,登記官による閉鎖,,,2015-10-05,1,,,,,,0
2673,8150001008499,登記記録の閉鎖等,0,2022-01-17,2022-01-14,株式会社柴敬企画,,株式会社,奈良県,奈良市,西登美ヶ丘１丁目１３番４号,,29,201,6310006,,,2022-01-14,登記官による閉鎖,,,2015-10-05,1,,,,,,0
2675,8150002002492,登記記録の閉鎖等,0,2022-01-17,2022-01-14,有限会社清昭興産,,有限会社,奈良県,奈良市,帝塚山１丁目１６番１５号,,29,201,6310062,,,2022-01-14,登記官による閉鎖,,,2015-10-05,1,,,,,,0
2676,8150002005982,登記記録の閉鎖等,0,2022-01-17,2022-01-14,有限会社山本サッシ,,有限会社,奈良県,天理市,中山町５３０番地の１３,,29,204,6320051,,,2022-01-14,登記官による閉鎖,,,2015-10-05,1,,,,,,0
2677,8150002009281,登記記録の閉鎖等,0,2022-01-17,2022-01-14,有限会社ハトウ,,有限会社,奈良県,北葛城郡王寺町,本町５丁目７番３９号,,29,425,6360012,,,2022-01-14,登記官による閉鎖,,,2015-10-05,1,,,,,,0
2679,8160002006435,登記記録の閉鎖等,0,2022-01-17,2022-01-14,有限会社京伊樓,,有限会社,滋賀県,長浜市,室町２６４番地の２,,25,203,5260835,,,2022-01-14,登記官による閉鎖,,,2015-10-05,1,,,,,,0
2681,8160002008266,登記記録の閉鎖等,0,2022-01-17,2022-01-14,有限会社清善堂コーポレーション,,有限会社,滋賀県,彦根市,南川瀬町１１３５番地,,25,202,5220222,,,2022-01-14,登記官による閉鎖,,,2015-10-05,1,,,,,,0
2684,8160005009278,登記記録の閉鎖等,0,2022-01-17,2022-01-14,特定非営利活動法人日本良縁協会,,その他の設立登記法人,滋賀県,野洲市,小篠原８２６番地１２ビバリービル３－３０１号室,,25,210,5202331,,,2022-01-14,登記官による閉鎖,,,2015-10-05,1,,,,,,0
2687,8170001011229,登記記録の閉鎖等,0,2022-01-17,2022-01-12,株式会社ネクサス,,株式会社,和歌山県,橋本市,三石台３丁目２３番地の１－８０９,,30,203,6480094,,,2022-01-12,清算の結了等,,,2015-10-05,1,,,,,ネクサス,0
2705,8190002004428,登記記録の閉鎖等,0,2022-01-17,2022-01-13,有限会社ＰＲＥＳＴＩＧＥ　ＷＯＲＫＳ,,有限会社,三重県,津市,香良洲町５９４８番地３,,24,201,5140315,,,2022-01-13,清算の結了等,,,2015-10-05,1,,,,,プレスティージワークス,0
2717,8240003001757,登記記録の閉鎖等,0,2022-01-17,2022-01-12,志立合資会社,,合資会社,広島県,府中市,高木町１５１７番地の１,,34,208,7260013,,,2022-01-12,清算の結了等,,,2015-10-05,1,,,,,シリツ,0
2720,8250001008092,登記記録の閉鎖等,0,2022-01-17,2022-01-07,株式会社みなとや,,株式会社,山口県,萩市,大字東田町１４３番地,,35,204,7580047,,,2022-01-07,清算の結了等,,,2021-11-11,1,,,,,ミナトヤ,0
2726,8290001058225,登記記録の閉鎖等,0,2022-01-17,2022-01-06,株式会社きずな,,株式会社,福岡県,福岡市西区,福重４丁目９番１０号,,40,135,8190022,,,2022-01-06,清算の結了等,,,2015-10-05,1,,,,,キズナ,0
2727,8290001064850,登記記録の閉鎖等,0,2022-01-17,2022-01-13,シティケアライフ株式会社,,株式会社,福岡県,嘉麻市,岩崎５０３番地１,,40,227,8200205,,,2022-01-13,合併による解散等,6290801018504,令和４年１月１日北九州市小倉南区横代東町三丁目２８番９号ウェルフェアライフ株式会社（6290801018504）に合併し解散,2015-10-05,1,,,,,,0
2739,8330001004298,登記記録の閉鎖等,0,2022-01-17,2022-01-17,株式会社マエダエステートホーム,,株式会社,熊本県,熊本市中央区,本荘４丁目７番２４号,,43,101,8600811,,,2022-01-17,登記官による閉鎖,,,2015-10-05,1,,,,,,0
2740,8330001005759,登記記録の閉鎖等,0,2022-01-17,2022-01-17,株式会社日栄興産,,株式会社,熊本県,熊本市中央区,水前寺１丁目３１番２号,,43,101,8620950,,,2022-01-17,登記官による閉鎖,,,2016-08-17,1,,,,,,0
2741,8330001006864,登記記録の閉鎖等,0,2022-01-17,2022-01-17,Ｋ＆Ｋ企画販売株式会社,,株式会社,熊本県,熊本市中央区,九品寺５丁目４番５号,,43,101,8620976,,,2022-01-17,登記官による閉鎖,,,2015-10-05,1,,,,,,0
2742,8330001008357,登記記録の閉鎖等,0,2022-01-17,2022-01-17,ライトジャパン株式会社,,株式会社,熊本県,熊本市南区,良町３丁目１４番８号,,43,104,8620969,,,2022-01-17,登記官による閉鎖,,,2015-10-05,1,,,,,,0
2743,8330001011716,登記記録の閉鎖等,0,2022-01-17,2022-01-17,株式会社住屋建設,,株式会社,熊本県,玉名郡長洲町,大字長洲２６５１番地５,,43,368,8690123,,,2022-01-17,登記官による閉鎖,,,2015-10-05,1,,,,,,0
2744,8330002009271,登記記録の閉鎖等,0,2022-01-17,2022-01-17,有限会社古庄設備設計事務所,,有限会社,熊本県,熊本市北区,高平２丁目２１番２４号,,43,105,8600085,,,2022-01-17,登記官による閉鎖,,,2015-10-05,1,,,,,,0
2745,8330002012572,登記記録の閉鎖等,0,2022-01-17,2022-01-17,有限会社ネイチァー工房,,有限会社,熊本県,熊本市東区,弓削町６４４番地,,43,102,8618013,,,2022-01-17,登記官による閉鎖,,,2015-10-05,1,,,,,,0
2746,8330002019246,登記記録の閉鎖等,0,2022-01-17,2022-01-17,有限会社平島館,,有限会社,熊本県,熊本市北区,植木町米塚３６４番地,,43,105,8610115,,,2022-01-17,登記官による閉鎖,,,2015-10-05,1,,,,,,0
2747,8330002021680,登記記録の閉鎖等,0,2022-01-17,2022-01-17,有限会社エス・ティコーポレーション,,有限会社,熊本県,荒尾市,川登１９６０番地４１,,43,204,8640131,,,2022-01-17,登記官による閉鎖,,,2015-10-05,1,,,,,,0
2749,8330002029922,登記記録の閉鎖等,0,2022-01-17,2022-01-17,有限会社葵総合鑑定所,,有限会社,熊本県,人吉市,東間上町２７６８番地の８,,43,203,8680043,,,2022-01-17,登記官による閉鎖,,,2015-10-05,1,,,,,,0
2750,8330003000452,登記記録の閉鎖等,0,2022-01-17,2022-01-17,合資会社惣進館,,合資会社,熊本県,熊本市中央区,新町２丁目１２番２６－２０４号,,43,101,8600004,,,2022-01-17,登記官による閉鎖,,,2015-10-05,1,,,,,,0
2751,8330005001977,登記記録の閉鎖等,0,2022-01-17,2022-01-17,特定非営利活動法人エコシステム,,その他の設立登記法人,熊本県,熊本市中央区,南千反畑町１１番８号,,43,101,8600842,,,2022-01-17,登記官による閉鎖,,,2015-10-05,1,,,,,,0
2752,8330005004121,登記記録の閉鎖等,0,2022-01-17,2022-01-17,協同組合日専連玉名,,その他の設立登記法人,熊本県,玉名市,大字松木１０番地９,,43,206,8650000,,,2022-01-17,登記官による閉鎖,,,2015-10-05,1,,,,,,0
2756,8360001008981,登記記録の閉鎖等,0,2022-01-17,2022-01-11,株式会社ティック,,株式会社,沖縄県,中頭郡嘉手納町,水釜６丁目６番２０号,,47,325,9040204,,,2022-01-11,清算の結了等,,,2015-10-05,1,,,,,ティック,0
2760,8370001006175,登記記録の閉鎖等,0,2022-01-17,2022-01-13,株式会社三井観光,,株式会社,宮城県,仙台市宮城野区,幸町５丁目１２番７号,,04,102,9830836,,,2022-01-13,清算の結了等,,,2015-10-05,1,,,,,ミツイカンコウ,0
2780,8420001004545,登記記録の閉鎖等,0,2022-01-17,2022-01-14,株式会社ビルド,,株式会社,青森県,青森市,大字平新田字森越７０番地２１,,02,201,0300931,,,2022-01-14,登記官による閉鎖,,,2015-10-05,1,,,,,,0
2781,8420001004900,登記記録の閉鎖等,0,2022-01-17,2022-01-14,株式会社川田設計,,株式会社,青森県,青森市,問屋町２丁目２番２１号,,02,201,0300131,,,2022-01-14,登記官による閉鎖,,,2015-10-05,1,,,,,,0
2782,8420001005056,登記記録の閉鎖等,0,2022-01-17,2022-01-14,株式会社ペイント工業青森,,株式会社,青森県,青森市,大字羽白字富田１番地２,,02,201,0380058,,,2022-01-14,登記官による閉鎖,,,2015-10-05,1,,,,,,0
2783,8420001010329,登記記録の閉鎖等,0,2022-01-17,2022-01-14,丸一商会株式会社,,株式会社,青森県,南津軽郡藤崎町,大字藤崎字西村井５８番地１号,,02,361,0383802,,,2022-01-14,登記官による閉鎖,,,2015-10-05,1,,,,,,0
2786,8420002003026,登記記録の閉鎖等,0,2022-01-17,2022-01-14,有限会社山本洋装店,,有限会社,青森県,青森市,千刈１丁目１５番１９号,,02,201,0380015,,,2022-01-14,登記官による閉鎖,,,2015-10-05,1,,,,,,0
2787,8420002014106,登記記録の閉鎖等,0,2022-01-17,2022-01-14,有限会社弘前三菱家電サービス,,有限会社,青森県,弘前市,大字館野２丁目１番地８,,02,202,0368234,,,2022-01-14,登記官による閉鎖,,,2015-10-05,1,,,,,,0
2788,8420002015979,登記記録の閉鎖等,0,2022-01-17,2022-01-14,有限会社田舎舘生産者協会,,有限会社,青森県,南津軽郡田舎館村,大字畑中字樋口４１番地１,00087828,02,367,0381121,,,2022-01-14,登記官による閉鎖,,,2015-10-05,1,,,,,,0
2802,8470005002227,登記記録の閉鎖等,0,2022-01-17,2021-12-22,天理教綾瀧分教会,,その他の設立登記法人,香川県,綾歌郡綾川町,滝宮１３１２番地の５,,37,387,7612305,,,2021-12-22,合併による解散等,2470005003593,令和３年１２月２２日香川県坂出市駒止町一丁目２番５号天理教双名島大教会（2470005003593）に合併し解散,2015-10-05,1,,,,,テンリキョウアヤタキブンキョウカイ,0
2805,8480001000126,登記記録の閉鎖等,0,2022-01-17,2022-01-17,アイドマ株式会社,,株式会社,徳島県,徳島市,南庄町４丁目４７番地の１５,,36,201,7700045,,,2022-01-17,登記官による閉鎖,,,2015-10-05,1,,,,,,0
2806,8480001004671,登記記録の閉鎖等,0,2022-01-17,2022-01-17,株式会社藤原組,,株式会社,徳島県,阿波市,阿波町南五味知８６番地３,,36,206,7711704,,,2022-01-17,登記官による閉鎖,,,2015-10-05,1,,,,,,0
2808,8480002001544,登記記録の閉鎖等,0,2022-01-17,2022-01-17,有限会社ガレージマニア,,有限会社,徳島県,徳島市,下助任町２丁目４１番地,,36,201,7700805,,,2022-01-17,登記官による閉鎖,,,2015-10-05,1,,,,,,0
2809,8480002003672,登記記録の閉鎖等,0,2022-01-17,2022-01-17,日新商事有限会社,,有限会社,徳島県,徳島市,東新町１丁目３０番地,,36,201,7700912,,,2022-01-17,登記官による閉鎖,,,2015-10-05,1,,,,,,0
2810,8480002005009,登記記録の閉鎖等,0,2022-01-17,2022-01-17,元町タクシー有限会社,,有限会社,徳島県,徳島市,蔵本元町１丁目２１番地,,36,201,7700041,,,2022-01-17,登記官による閉鎖,,,2015-10-05,1,,,,,,0
2811,8480002007698,登記記録の閉鎖等,0,2022-01-17,2022-01-17,有限会社コトビ園,,有限会社,徳島県,小松島市,立江町字柳ノ内８番地の８,,36,203,7730017,,,2022-01-17,登記官による閉鎖,,,2015-10-05,1,,,,,,0
2812,8480002008564,登記記録の閉鎖等,0,2022-01-17,2022-01-17,有限会社桜建工,,有限会社,徳島県,徳島市,昭和町１丁目６１番地,,36,201,7700942,,,2022-01-17,登記官による閉鎖,,,2015-10-05,1,,,,,,0
2813,8480002008829,登記記録の閉鎖等,0,2022-01-17,2022-01-17,三和産業有限会社,,有限会社,徳島県,徳島市,南島田町２丁目８２番地１４,,36,201,7700053,,,2022-01-17,登記官による閉鎖,,,2016-08-03,1,,,,,,0
2814,8480002010883,登記記録の閉鎖等,0,2022-01-17,2022-01-17,有限会社松原建材,,有限会社,徳島県,鳴門市,撫養町木津４８６番地,,36,202,7720004,,,2022-01-17,登記官による閉鎖,,,2015-10-05,1,,,,,,0
2815,8480002015379,登記記録の閉鎖等,0,2022-01-17,2022-01-17,有限会社祖谷,,有限会社,徳島県,三好市,東祖谷京上１５７番地,,36,208,7780204,,,2022-01-17,登記官による閉鎖,,,2015-10-05,1,,,,,,0
2830,9010001163919,登記記録の閉鎖等,0,2022-01-17,2022-01-05,ＢＩＯＭＩＮ　ＪＡＰＡＮ株式会社,,株式会社,東京都,港区,元赤坂１丁目２番７号赤坂Ｋタワー,,13,103,1070051,,,2022-01-05,合併による解散等,7010401056864,令和４年１月１日東京都港区芝公園二丁目６番３号ＤＳＭ株式会社（7010401056864）に合併し解散,2015-10-05,1,,,,,バイオミンジャパン,0
2838,9010101007694,登記記録の閉鎖等,0,2022-01-17,2021-12-24,株式会社アイ・アール・アイ,,株式会社,東京都,八王子市,下柚木２１０４番地,,13,201,1920372,,,2021-12-24,合併による解散等,3010102000811,令和３年１２月１６日東京都八王子市台町三丁目３番５号株式会社井上商会（3010102000811）に合併し解散,2021-12-24,1,,,,,,0
2863,9011001067886,登記記録の閉鎖等,0,2022-01-17,2022-01-12,エッセンバイオサイエンス株式会社,,株式会社,東京都,品川区,北品川１丁目８番１１号,,13,109,1400001,,,2022-01-12,清算の結了等,,,2015-10-05,1,,,,,エッセンバイオサイエンス,0
2894,9020001016893,登記記録の閉鎖等,0,2022-01-17,2022-01-11,株式会社小川組,,株式会社,神奈川県,横浜市鶴見区,駒岡３丁目２１番２号,,14,101,2300071,,,2022-01-11,清算の結了等,,,2015-10-05,1,,,,,オガワグミ,0
2900,9021001016859,登記記録の閉鎖等,0,2022-01-17,2022-01-05,株式会社オカモト,,株式会社,神奈川県,相模原市南区,相模大野３丁目１８番２号,,14,153,2520303,,,2022-01-05,清算の結了等,,,2015-10-05,1,,,,,オカモト,0
2909,9030001012495,登記記録の閉鎖等,0,2022-01-17,2022-01-04,ニッケントラスト株式会社,,株式会社,埼玉県,さいたま市南区,沼影１丁目６番１５号,,11,108,3360027,,,2022-01-04,合併による解散等,9030001020572,令和４年１月１日埼玉県戸田市笹目一丁目１５番１０号株式会社ニッケンコーポレーション（9030001020572）に合併し解散,2015-10-05,1,,,,,ニッケントラスト,0
2911,9030001034944,登記記録の閉鎖等,0,2022-01-17,2022-01-11,株式会社小山不動産,,株式会社,埼玉県,草加市,旭町３丁目５番３号,,11,221,3400053,,,2022-01-11,合併による解散等,6130001048284,令和４年１月１日京都市下京区烏丸通仏光寺下ル大政所町６８０番地株式会社ピーエムドゥ（6130001048284）に合併し解散,2015-10-05,1,,,,,コヤマフドウサン,0
2935,9060001009200,登記記録の閉鎖等,0,2022-01-17,2022-01-12,北関東ハニューフーズ株式会社,,株式会社,栃木県,宇都宮市,中島町４６５番地,,09,201,3210114,,,2022-01-12,合併による解散等,3030001126961,令和４年１月１日東京都港区浜松町二丁目２番１２号関東ハニューフーズ株式会社（3030001126961）に合併し解散,2015-10-05,1,,,,,キタカントウハニューフーズ,0
2940,9070002000421,登記記録の閉鎖等,0,2022-01-17,2022-01-12,有限会社カメマスヤ,,有限会社,群馬県,前橋市,大手町２丁目４番１２号,,10,201,3710026,,,2022-01-12,清算の結了等,,,2015-10-05,1,,,,,カメマスヤ,0
2943,9080401014211,登記記録の閉鎖等,0,2022-01-17,2022-01-12,栄寿株式会社,,株式会社,静岡県,掛川市,成滝５４０番地,,22,213,4360085,,,2022-01-12,清算の結了等,,,2015-10-05,1,,,,,エイジュ,0
2986,9140002028348,登記記録の閉鎖等,0,2022-01-17,2022-01-11,板野精工機有限会社,,有限会社,兵庫県,明石市,中朝霧丘９番１０号,,28,203,6730855,,,2022-01-11,清算の結了等,,,2015-10-05,1,,,,,イタノセイコウキ,0
2990,9150001007137,登記記録の閉鎖等,0,2022-01-17,2022-01-14,株式会社バイオテツク,,株式会社,奈良県,生駒郡三郷町,立野南２丁目１番５号,,29,343,6360822,,,2022-01-14,登記官による閉鎖,,,2015-10-05,1,,,,,,0
2991,9150001021071,登記記録の閉鎖等,0,2022-01-17,2022-01-14,日本染織工業株式会社,,株式会社,奈良県,奈良市,大宮町２丁目３番７号,,29,201,6308115,,,2022-01-14,登記官による閉鎖,,,2016-11-01,1,,,,,,0
2992,9150002007557,登記記録の閉鎖等,0,2022-01-17,2022-01-14,有限会社ステーショナリークラブ,,有限会社,奈良県,橿原市,十市町４５２番地の１,,29,205,6340008,,,2022-01-14,登記官による閉鎖,,,2015-10-05,1,,,,,,0
2993,9150002009537,登記記録の閉鎖等,0,2022-01-17,2022-01-14,有限会社大和測図,,有限会社,奈良県,大和高田市,東中２丁目５番２０号,,29,202,6350065,,,2022-01-14,登記官による閉鎖,,,2015-10-05,1,,,,,,0
2994,9150002009776,登記記録の閉鎖等,0,2022-01-17,2022-01-14,新和開発有限会社,,有限会社,奈良県,大和高田市,旭南町１番３１号タカトリ蔵２７８号,,29,202,6350035,,,2022-01-14,登記官による閉鎖,,,2015-10-05,1,,,,,,0
2995,9150005006317,登記記録の閉鎖等,0,2022-01-17,2022-01-14,西柏センター協同組合,,その他の設立登記法人,奈良県,御所市,西柏通１３１４番地,,29,208,6392200,,,2022-01-14,登記官による閉鎖,,,2015-10-05,1,,,,,,0
2996,9150005007216,登記記録の閉鎖等,0,2022-01-17,2022-01-14,財団法人御園自治会,,その他の設立登記法人,奈良県,吉野郡吉野町,大字御園４０３番地,,29,441,6393444,,,2022-01-14,登記官による閉鎖,,,2015-10-05,1,,,,,,0
2997,9160001006071,登記記録の閉鎖等,0,2022-01-17,2022-01-14,ドットｂｒ株式会社,,株式会社,滋賀県,甲賀市,水口町名坂１１２９番地３,,25,209,5280035,,,2022-01-14,登記官による閉鎖,,,2015-10-05,1,,,,,,0
2998,9160001006682,登記記録の閉鎖等,0,2022-01-17,2022-01-14,上東建設株式会社,,株式会社,滋賀県,長浜市,桜町２３２番地,,25,203,5290121,,,2022-01-14,登記官による閉鎖,,,2015-10-05,1,,,,,,0
2999,9160001009355,登記記録の閉鎖等,0,2022-01-17,2022-01-14,株式会社大星総合プランニング,,株式会社,滋賀県,犬上郡多賀町,大字多賀１２２７番地２３,,25,443,5220341,,,2022-01-14,登記官による閉鎖,,,2015-10-05,1,,,,,,0
3000,9160001011063,登記記録の閉鎖等,0,2022-01-17,2022-01-13,株式会社大前建設工業,,株式会社,滋賀県,蒲生郡竜王町,大字西川１４８１番地,,25,384,5202572,,,2022-01-13,合併による解散等,5130001014056,令和４年１月１日京都市伏見区竹田西内畑町１２４番地株式会社大前建設（5130001014056）に合併し解散,2015-10-05,1,,,,,オオマエケンセツコウギョウ,0
3001,9160002000874,登記記録の閉鎖等,0,2022-01-17,2022-01-14,有限会社松湖園,,有限会社,滋賀県,大津市,坂本６丁目２９番３０号,,25,201,5200113,,,2022-01-14,登記官による閉鎖,,,2015-10-05,1,,,,,,0
3002,9160002002326,登記記録の閉鎖等,0,2022-01-17,2022-01-14,有限会社山田土木建設,,有限会社,滋賀県,大津市,黒津３丁目３番９号,,25,201,5202279,,,2022-01-14,登記官による閉鎖,,,2015-10-05,1,,,,,,0
3003,9160002010386,登記記録の閉鎖等,0,2022-01-17,2022-01-14,伊藤運送有限会社,,有限会社,滋賀県,近江八幡市,多賀町５７９番地の１,,25,204,5230821,,,2022-01-14,登記官による閉鎖,,,2015-10-05,1,,,,,,0
3021,9180002018700,登記記録の閉鎖等,0,2022-01-17,2022-01-04,有限会社天龍閣,,有限会社,愛知県,名古屋市中川区,尾頭橋３丁目１７番１６号,,23,110,4540012,,,2022-01-04,合併による解散等,9180001031489,令和４年１月１日名古屋市中村区日吉町２２番地天龍閣観光株式会社（9180001031489）に合併し解散,2015-10-05,1,,,,,テンリュウカク,0
3030,9190001012703,登記記録の閉鎖等,0,2022-01-17,2022-01-14,株式会社ランプーン,,株式会社,三重県,桑名市,新西方２丁目３６３番地,,24,205,5110863,,,2022-01-14,清算の結了等,,,2015-10-05,1,,,,,ランプーン,0
3047,9250002000510,登記記録の閉鎖等,0,2022-01-17,2022-01-13,有限会社グランツバウム,,有限会社,山口県,山口市,宮島町３番３０号,,35,203,7530043,,,2022-01-13,清算の結了等,,,2015-10-05,1,,,,,グランツバウム,0
3058,9290001021652,登記記録の閉鎖等,0,2022-01-17,2022-01-11,家族住宅株式会社,,株式会社,福岡県,那珂川市,中原３丁目１３０番地,,40,231,8111213,,,2022-01-11,合併による解散等,1290001018037,令和４年１月１日福岡県那珂川市中原三丁目１３０番地株式会社ネクステップ（1290001018037）に合併し解散,2015-10-05,1,,,,,カゾクジュウタク,0
3059,9290001029217,登記記録の閉鎖等,0,2022-01-17,2022-01-11,株式会社マスケティア,,株式会社,福岡県,福岡市中央区,舞鶴１丁目８番３９号,,40,133,8100073,,,2022-01-11,清算の結了等,,,2015-10-05,1,,,,,マスケティア,0
3074,9330001000544,登記記録の閉鎖等,0,2022-01-17,2022-01-17,株式会社江田工務店,,株式会社,熊本県,熊本市西区,花園３丁目１２番１８号,,43,103,8600072,,,2022-01-17,登記官による閉鎖,,,2015-10-05,1,,,,,,0
3075,9330001007060,登記記録の閉鎖等,0,2022-01-17,2022-01-17,株式会社Ｓｏｕｎｄ　Ｐｒｏｄｕｃｅ,,株式会社,熊本県,熊本市中央区,黒髪３丁目６番１１号,,43,101,8600862,,,2022-01-17,登記官による閉鎖,,,2015-10-05,1,,,,,,0
3076,9330001008257,登記記録の閉鎖等,0,2022-01-17,2022-01-17,株式会社ＨＥＲＯＥＳ　ＪＡＰＡＮ,,株式会社,熊本県,熊本市中央区,下通２丁目１番２０号,,43,101,8600807,,,2022-01-17,登記官による閉鎖,,,2015-10-05,1,,,,,,0
3077,9330001009536,登記記録の閉鎖等,0,2022-01-17,2022-01-17,株式会社西武総合企画,,株式会社,熊本県,合志市,須屋字枉松４０６番地５,,43,216,8611102,,,2022-01-17,登記官による閉鎖,,,2015-11-04,1,,,,,,0
3078,9330001016730,登記記録の閉鎖等,0,2022-01-17,2022-01-17,株式会社愛和,,株式会社,熊本県,宇城市,小川町北新田１１７２番地１,,43,213,8690631,,,2022-01-17,登記官による閉鎖,,,2015-10-05,1,,,,,,0
3079,9330002001087,登記記録の閉鎖等,0,2022-01-17,2022-01-17,有限会社ウエノクリーニング,,有限会社,熊本県,熊本市北区,清水本町１２番２３号,,43,105,8618074,,,2022-01-17,登記官による閉鎖,,,2015-10-05,1,,,,,,0
3080,9330002006664,登記記録の閉鎖等,0,2022-01-17,2022-01-17,有限会社田中建窓,,有限会社,熊本県,熊本市東区,江津１丁目１７番４０号,,43,102,8620942,,,2022-01-17,登記官による閉鎖,,,2015-10-05,1,,,,,,0
3084,9330002018718,登記記録の閉鎖等,0,2022-01-17,2022-01-17,有限会社フルカワ装業,,有限会社,熊本県,山鹿市,鹿北町岩野１２７番地,,43,208,8610603,,,2022-01-17,登記官による閉鎖,,,2015-10-05,1,,,,,,0
3085,9330002021218,登記記録の閉鎖等,0,2022-01-17,2022-01-17,有限会社松永電子,,有限会社,熊本県,玉名郡和水町,瀬川３２５番地１,,43,369,8650135,,,2022-01-17,登記官による閉鎖,,,2015-10-05,1,,,,,,0
3086,9330003002497,登記記録の閉鎖等,0,2022-01-17,2022-01-17,合資会社村島商店,,合資会社,熊本県,荒尾市,荒尾９０２番地４,,43,204,8640041,,,2022-01-17,登記官による閉鎖,,,2015-10-05,1,,,,,,0
3087,9330005003948,登記記録の閉鎖等,0,2022-01-17,2022-01-17,小峯村農業会,,その他の設立登記法人,熊本県,上益城郡山都町,小峰９５番地,,43,447,8613801,,,2022-01-17,登記官による閉鎖,,,2016-12-22,1,,,,,,0
3088,9330005005746,登記記録の閉鎖等,0,2022-01-17,2022-01-17,特定非営利活動法人パーソナリティープロジェクトチーム,,その他の設立登記法人,熊本県,宇城市,三角町三角浦１３８７番地の１６,,43,213,8693207,,,2022-01-17,登記官による閉鎖,,,2015-10-05,1,,,,,,0
3094,9350001012190,登記記録の閉鎖等,0,2022-01-17,2022-01-13,株式会社倉盛ブロイラー,,株式会社,宮崎県,都城市,上水流町１０４９番地１,,45,202,8851103,,,2022-01-13,清算の結了等,,,2015-10-05,1,,,,,クラモリブロイラー,0
3122,9420001006994,登記記録の閉鎖等,0,2022-01-17,2022-01-14,株式会社プラム・エコ・プロジェクト,,株式会社,青森県,八戸市,大字長苗代字内舟渡４５番地１,,02,203,0391103,,,2022-01-14,登記官による閉鎖,,,2015-10-05,1,,,,,,0
3123,9420001007951,登記記録の閉鎖等,0,2022-01-17,2022-01-14,株式会社一長,,株式会社,青森県,五所川原市,字中平井町２４番地,,02,205,0370066,,,2022-01-14,登記官による閉鎖,,,2015-10-05,1,,,,,,0
3125,9420002003561,登記記録の閉鎖等,0,2022-01-17,2022-01-14,有限会社ユーイング,,有限会社,青森県,青森市,奥野２丁目２１番１０号,,02,201,0300841,,,2022-01-14,登記官による閉鎖,,,2015-10-05,1,,,,,,0
3126,9420002006184,登記記録の閉鎖等,0,2022-01-17,2022-01-14,有限会社泉山板金工業,,有限会社,青森県,八戸市,大字十日市字黒坂前３７番地４,,02,203,0310012,,,2022-01-14,登記官による閉鎖,,,2015-10-05,1,,,,,,0
3134,9430005009976,登記記録の閉鎖等,0,2022-01-17,2021-12-27,天理教母恋分教会,,その他の設立登記法人,北海道,室蘭市,水元町６４番７号,,01,205,0500071,,,2021-12-27,合併による解散等,7430005000474,令和３年１２月２７日札幌市清田区北野七条四丁目９番１０号天理教統北分教会（7430005000474）に合併し解散,2015-10-05,1,,,,,,0
3140,9480001000752,登記記録の閉鎖等,0,2022-01-17,2022-01-17,株式会社サンカメラ,,株式会社,徳島県,徳島市,元町１丁目１４番地１,,36,201,7700834,,,2022-01-17,登記官による閉鎖,,,2015-10-05,1,,,,,,0
3141,9480001002385,登記記録の閉鎖等,0,2022-01-17,2022-01-17,山本床材株式会社,,株式会社,徳島県,徳島市,北佐古二番町２番１８号,,36,201,7700012,,,2022-01-17,登記官による閉鎖,,,2015-10-05,1,,,,,,0
3142,9480001005520,登記記録の閉鎖等,0,2022-01-17,2022-01-17,坂東建設株式会社,,株式会社,徳島県,板野郡板野町,大寺字平田８１番地の４,,36,404,7790105,,,2022-01-17,登記官による閉鎖,,,2015-10-05,1,,,,,,0
3145,9480002009421,登記記録の閉鎖等,0,2022-01-17,2022-01-17,三原産業有限会社,,有限会社,徳島県,吉野川市,川島町山田字芝生１０６番地,,36,205,7793302,,,2022-01-17,登記官による閉鎖,,,2015-10-05,1,,,,,,0
3146,9480005000641,登記記録の閉鎖等,0,2022-01-17,2022-01-17,徳島駅前一番町商店街振興組合,,その他の設立登記法人,徳島県,徳島市,寺島本町東３丁目７番地の２,,36,201,7700832,,,2022-01-17,登記官による閉鎖,,,2015-10-05,1,,,,,,0
3147,9480005002704,登記記録の閉鎖等,0,2022-01-17,2022-01-17,特定非営利活動法人徳島メンタルヘルス協会,,その他の設立登記法人,徳島県,徳島市,富田橋８丁目１番地１朝日プラザメルクマール眉山東１１０４号,,36,201,7700937,,,2022-01-17,登記官による閉鎖,,,2015-10-05,1,,,,,,0
3148,9490002000734,登記記録の閉鎖等,0,2022-01-17,2022-01-13,有限会社ＭＳ,,有限会社,高知県,高知市,大川筋２丁目３番２３号,,39,201,7800052,,,2022-01-13,清算の結了等,,,2015-10-05,1,,,,,エムエス,0
