sequenceNumber,corporateNumber,process,correct,updateDate,changeDate,name,nameImageId,kind,prefectureName,cityName,streetNumber,addressImageId,prefectureCode,cityCode,postCode,addressOutside,addressOutsideImageId,closeDate,closeCause,successorCorporateNumber,changeCause,assignmentDate,latest,enName,enPrefectureName,enCityName,enAddressOutside,furigana,hihyoji
2,1010001130224,新規,0,2024-04-12,2024-04-12,ニチモ株式会社,,株式会社,東京都,千代田区,神田小川町１丁目１番４号,,13,101,1010052,,,,,,,2024-04-12,1,,,,,ニチモ,0
8,1010001243810,新規,0,2024-04-12,2024-04-12,株式会社スタジオしまづ,,株式会社,東京都,千代田区,神田和泉町１番地６－１６ヤマトビル４０５,,13,101,1010024,,,,,,,2024-04-12,1,,,,,スタジオシマヅ,0
9,1010001243835,新規,0,2024-04-12,2024-04-12,ＪＦＩホールディングス株式会社,,株式会社,東京都,千代田区,丸の内１丁目６番５号丸の内北口ビルディング９Ｆ,,13,101,1000005,,,,,,,2024-04-12,1,,,,,ジェイエフアイホールディングス,0
10,1010001243942,新規,0,2024-04-12,2024-04-12,株式会社Ｋ＆Ｆ,,株式会社,東京都,文京区,千石３丁目１７番４－３０９号,,13,105,1120011,,,,,,,2024-04-12,1,,,,,ケーアンドエフ,0
12,1010003043440,新規,0,2024-04-12,2024-04-12,合同会社ＡＱＵＮＥＲ　ＦＩＬＭＳ,,合同会社,東京都,千代田区,神田神保町３丁目２１番７号,,13,101,1010051,,,,,,,2024-04-12,1,,,,,アクナーフィルムズ,0
13,1010003043449,新規,0,2024-04-12,2024-04-12,合同会社サブコントローラ,,合同会社,東京都,文京区,根津１丁目１６－１０イトーピア根津９０４,,13,105,1130031,,,,,,,2024-04-12,1,,,,,サブコントローラ,0
19,1010401181619,新規,0,2024-04-12,2024-04-12,株式会社ＲｅＣｕｔｅ,,株式会社,東京都,港区,南青山２丁目５－１７ＰＯＬＡ青山ビルディング５階,,13,103,1070062,,,,,,,2024-04-12,1,,,,,リキュート,0
20,1010401181718,新規,0,2024-04-12,2024-04-12,株式会社ライトアップ,,株式会社,東京都,港区,西麻布４丁目１番１－１０１１号,,13,103,1060031,,,,,,,2024-04-12,1,,,,,ライトアップ,0
22,1010403032423,新規,0,2024-04-12,2024-04-12,Ｒａｎａｍｉｃｕｓ　Ｔｅｃｈｎｏｌｏｇｙ合同会社,,合同会社,東京都,港区,芝浦４丁目２１番１ー１０１８,,13,103,1080023,,,,,,,2024-04-12,1,,,,,ラナミクステクノロジー,0
25,1010501052091,新規,0,2024-04-12,2024-04-12,ククリ株式会社,,株式会社,東京都,台東区,谷中２丁目６番２４号アイリスコート１,,13,106,1100001,,,,,,,2024-04-12,1,,,,,ククリ,0
26,1010501052100,新規,0,2024-04-12,2024-04-12,株式会社Ｃａｎでぃ,,株式会社,東京都,台東区,浅草２丁目７番１３号北２２,,13,106,1110032,,,,,,,2024-04-12,1,,,,,キャンディ,0
27,1010503007408,新規,0,2024-04-12,2024-04-12,ＮＩＰＰＯＮ　ＴＲＡＤＩＮＧ合同会社,,合同会社,東京都,台東区,雷門２丁目１９番１７号,,13,106,1110034,,,,,,,2024-04-12,1,,,,,ニッポンレーディング,0
28,1010601065002,新規,0,2024-04-12,2024-04-12,株式会社空間建,,株式会社,東京都,墨田区,緑２丁目１８番６号,,13,107,1300021,,,,,,,2024-04-12,1,,,,,クウカンケン,0
29,1010603010765,新規,0,2024-04-12,2024-04-12,合同会社ティーズコンサルティング,,合同会社,東京都,墨田区,墨田５丁目１４番９号,,13,107,1310031,,,,,,,2024-04-12,1,,,,,ティーズコンサルティング,0
32,1010703007125,新規,0,2024-04-12,2024-04-12,合同会社ｐｉｔｔｏ,,合同会社,東京都,品川区,西五反田３丁目２番６－１００６号,,13,109,1410031,,,,,,,2024-04-12,1,,,,,ピット,0
41,1010905004606,新規,0,2024-04-12,2024-04-12,一般社団法人ローカル文化推進機構,,その他の設立登記法人,東京都,世田谷区,下馬２丁目１２番６号,,13,112,1540002,,,,,,,2024-04-12,1,,,,,ローカルブンカスイシンキコウ,0
46,1011001161275,新規,0,2024-04-12,2024-04-12,株式会社ＲＹ　Ｃａｐｉｔａｌ,,株式会社,東京都,渋谷区,渋谷２丁目１９－１５宮益坂ビルディング６０９,,13,113,1500002,,,,,,,2024-04-12,1,,,,,アールワイキャピタル,0
49,1011003018770,新規,0,2024-04-12,2024-04-12,合同会社ＳＵＵＺＡ,,合同会社,東京都,渋谷区,恵比寿西２丁目８番４号ＥＸ恵比寿西ビル５階,,13,113,1500021,,,,,,,2024-04-12,1,,,,,スーザ,0
72,1011501030533,新規,0,2024-04-12,2024-04-12,従和興株式会社,,株式会社,東京都,荒川区,町屋６丁目２４－７Ｂ号室,,13,118,1160001,,,,,,,2024-04-12,1,,,,,ジュウワコウ,0
81,1011803006173,新規,0,2024-04-12,2024-04-12,合同会社ＨＢＲ,,合同会社,東京都,足立区,竹の塚２丁目２３番５－３０７号,,13,121,1210813,,,,,,,2024-04-12,1,,,,,エイチビーアール,0
86,1012401041744,新規,0,2024-04-12,2024-04-12,ＢＡＣＫＳＥＡＴ株式会社,,株式会社,東京都,武蔵野市,境５丁目１３番２号Ａ３２５,,13,203,1800022,,,,,,,2024-04-12,1,,,,,バックシート,0
89,1012701018203,新規,0,2024-04-12,2024-04-12,金麒麟株式会社,,株式会社,東京都,西東京市,東伏見５丁目４番５号クラウディスプーン１０５,,13,229,2020021,,,,,,,2024-04-12,1,,,,,キンキリン,0
92,1013301052336,新規,0,2024-04-12,2024-04-12,株式会社ＫＭＧメディカル,,株式会社,東京都,豊島区,目白４丁目１０番２号‐１０２号,,13,116,1710031,,,,,,,2024-04-12,1,,,,,ケイエムジーメディカル,0
93,1013301052344,新規,0,2024-04-12,2024-04-12,株式会社ユウセイ,,株式会社,東京都,豊島区,池袋２丁目２４番２号１４０２号,,13,116,1710014,,,,,,,2024-04-12,1,,,,,ユウセイ,0
94,1013301052352,新規,0,2024-04-12,2024-04-12,株式会社無界,,株式会社,東京都,豊島区,東池袋２丁目１番１２号,,13,116,1700013,,,,,,,2024-04-12,1,,,,,ムカイ,0
98,1020001156689,新規,0,2024-04-12,2024-04-12,株式会社拠り所,,株式会社,神奈川県,川崎市高津区,久末１７７８－１－５１０,,14,134,2130026,,,,,,,2024-04-12,1,,,,,ヨリドコロ,0
99,1020001156706,新規,0,2024-04-12,2024-04-12,ＡＩ株式会社,,株式会社,神奈川県,横浜市青葉区,あざみ野３丁目２番地あざみ野団地１棟５０５号,,14,117,2250011,,,,,,,2024-04-12,1,,,,,エーアイ,0
100,1020001156714,新規,0,2024-04-12,2024-04-12,フロンティアエージェント株式会社,,株式会社,神奈川県,横浜市旭区,二俣川１丁目４５番３９号モンルワン二俣川２Ｆ,,14,112,2410821,,,,,,,2024-04-12,1,,,,,フロンティアエージェント,0
109,1021003014364,新規,0,2024-04-12,2024-04-12,合同会社オゾンクリエイティブス,,合同会社,神奈川県,相模原市緑区,川尻５７５４番地１,,14,151,2520111,,,,,,,2024-04-12,1,,,,,オゾンクリエイティブス,0
111,1021005013067,新規,0,2024-04-12,2024-04-12,Ｐａｌｍ社会保険労務士法人,,その他の設立登記法人,神奈川県,藤沢市,辻堂神台１丁目３番３９号オザワビル６０１,,14,205,2510041,,,,,,,2024-04-12,1,,,,,パルム,0
112,1021005013083,新規,0,2024-04-12,2024-04-12,医療法人さくら会,,その他の設立登記法人,神奈川県,逗子市,桜山２丁目２番５４号グランシティビル,,14,208,2490005,,,,,,,2024-04-12,1,,,,,サクラカイ,0
119,1030001159765,新規,0,2024-04-12,2024-04-12,装設エンジ株式会社,,株式会社,埼玉県,さいたま市中央区,下落合６丁目１２番２０号,,11,105,3380002,,,,,,,2024-04-12,1,,,,,ソウセツエンジ,0
120,1030001159773,新規,0,2024-04-12,2024-04-12,株式会社Ｋ．Ｚ．Ｋ,,株式会社,埼玉県,さいたま市大宮区,三橋４丁目８９３番地１,,11,103,3300856,,,,,,,2024-04-12,1,,,,,ケーゼットケー,0
121,1030001159781,新規,0,2024-04-12,2024-04-12,株式会社カントウ設備,,株式会社,埼玉県,北本市,本宿５丁目３８番地,,11,233,3640005,,,,,,,2024-04-12,1,,,,,カントウセツビ,0
122,1030001159848,新規,0,2024-04-12,2024-04-12,株式会社ｓａｉｋｏｕ,,株式会社,埼玉県,さいたま市中央区,本町東３丁目７－７－２０２,,11,105,3380003,,,,,,,2024-04-12,1,,,,,サイコウ,0
130,1030003023936,新規,0,2024-04-12,2024-04-12,合同会社ＯｐｅｎＣＡＰＡ,,合同会社,埼玉県,南埼玉郡宮代町,川端１丁目９番１５号メゾンルアール２０１号,,11,442,3450804,,,,,,,2024-04-12,1,,,,,オープンキャパ,0
131,1030003024026,新規,0,2024-04-12,2024-04-12,ＴＭＤ　ＧＲＯＵＰ合同会社,,合同会社,埼玉県,川口市,並木３丁目１番５号,,11,203,3320034,,,,,,,2024-04-12,1,,,,,ティーエムディグループ,0
132,1030003024050,新規,0,2024-04-12,2024-04-12,合同会社ダッシュビル,,合同会社,埼玉県,さいたま市緑区,太田窪３丁目３番３号Ｌ＆Ｒ２０１号,,11,109,3360936,,,,,,,2024-04-12,1,,,,,ダッシュビル,0
133,1030003024075,新規,0,2024-04-12,2024-04-12,合同会社エントラスト,,合同会社,埼玉県,越谷市,新越谷１丁目３２－４,,11,222,3430857,,,,,,,2024-04-12,1,,,,,エントラスト,0
141,1040001133075,新規,0,2024-04-12,2024-04-12,株式会社ディスカバリー不動産,,株式会社,千葉県,千葉市花見川区,長作台２丁目１９番４７号,,12,102,2620047,,,,,,,2024-04-12,1,,,,,ディスカバリーフドウサン,0
142,1040001133091,新規,0,2024-04-12,2024-04-12,ＡＮＢＡＩ不動産株式会社,,株式会社,千葉県,茂原市,高師５２１番地１,,12,210,2970029,,,,,,,2024-04-12,1,,,,,アンバイフドウサン,0
143,1040001133100,新規,0,2024-04-12,2024-04-12,ファンリレーション株式会社,,株式会社,千葉県,松戸市,小金５３番地,,12,207,2700014,,,,,,,2024-04-12,1,,,,,ファンリレーション,0
144,1040003024710,新規,0,2024-04-12,2024-04-12,Ｃｒｅａｔｅ‐ＥＮ合同会社,,合同会社,千葉県,市川市,南八幡２丁目２４番２３号,,12,203,2720023,,,,,,,2024-04-12,1,,,,,クリエイトエン,0
153,1050001054618,新規,0,2024-04-12,2024-04-12,株式会社ＴＩＭＥＬＥＳＳ,,株式会社,茨城県,水戸市,笠原町５０７番地の１,,08,201,3100852,,,,,,,2024-04-12,1,,,,,タイムレス,0
154,1050003008274,新規,0,2024-04-12,2024-04-12,合同会社Ｔ＆Ｍ,,合同会社,茨城県,筑西市,下中山１２１６番地１プラザ２２－３０８,,08,227,3080825,,,,,,,2024-04-12,1,,,,,ティーアンドエム,0
158,1070001041630,新規,0,2024-04-12,2024-04-12,株式会社Ｆｌｏｖ,,株式会社,群馬県,高崎市,緑町２丁目１番１２号,,10,202,3700073,,,,,,,2024-04-12,1,,,,,フロブ,0
162,1080101024674,新規,0,2024-04-12,2024-04-12,株式会社ＨＡＮＡＭＩ,,株式会社,静岡県,沼津市,大岡８６７－８,,22,203,4100022,,,,,,,2024-04-12,1,,,,,ハナミ,0
163,1080401027121,新規,0,2024-04-12,2024-04-12,株式会社遠州さくら経営サポート,,株式会社,静岡県,磐田市,下本郷３８４番地２,,22,211,4380823,,,,,,,2024-04-12,1,,,,,エンシュウサクラケイエイサポート,0
164,1090003002546,新規,0,2024-04-12,2024-04-12,ヒキタエンジニアリング＆コンサルティング合同会社,,合同会社,山梨県,南アルプス市,榎原４３１番地２,,19,208,4000204,,,,,,,2024-04-12,1,,,,,ヒキタエンジニアリングアンドコンサルティング,0
179,1120001263979,新規,0,2024-04-12,2024-04-12,株式会社ながい薬局,,株式会社,大阪府,大阪市住吉区,長居東４丁目２０番３４号,,27,120,5580004,,,,,,,2024-04-12,1,,,,,ナガイヤッキョク,0
180,1120001263995,新規,0,2024-04-12,2024-04-12,大阪若然株式会社,,株式会社,大阪府,大阪市平野区,加美北１丁目１６番２－３０１号,,27,126,5470001,,,,,,,2024-04-12,1,,,,,オオサカジャクゼン,0
181,1120001264003,新規,0,2024-04-12,2024-04-12,亜東株式会社,,株式会社,大阪府,大阪市西成区,萩之茶屋２丁目８－３ハイツニューコンパ２１１号,,27,122,5570004,,,,,,,2024-04-12,1,,,,,アトウ,0
182,1120001264011,新規,0,2024-04-12,2024-04-12,株式会社ＳＧ,,株式会社,大阪府,大阪市此花区,高見３丁目１８番２１号,,27,104,5540001,,,,,,,2024-04-12,1,,,,,エスジー,0
186,1120005024254,新規,0,2024-04-12,2024-04-12,一般社団法人新王個人タクシー協会,,その他の設立登記法人,大阪府,大阪市北区,東天満２丁目２番１４号Ｔ．Ｙビル３階,,27,127,5300044,,,,,,大阪市都島区友渕町三丁目４番２２号高倉第三コーポ２０２号室一般社団法人新和個人タクシー協会（5120005021537）及び大阪市天王寺区大道二丁目１１番１０号共和ビル３階一般社団法人四天王寺個人タクシー協会（2120005024063）の合併により設立,2024-04-12,1,,,,,シンノウコジンタクシーキョウカイ,0
187,1120005024279,新規,0,2024-04-12,2024-04-12,一般社団法人日本保育歯科協会,,その他の設立登記法人,大阪府,大阪市北区,芝田２丁目８番１１号共栄ビル３階,,27,127,5300012,,,,,,,2024-04-12,1,,,,,ニホンホイクシカキョウカイ,0
195,1120901049024,新規,0,2024-04-12,2024-04-12,株式会社Ｍ＆Ｍ’ｓ,,株式会社,大阪府,池田市,荘園２丁目１番１１－１号,,27,204,5630038,,,,,,,2024-04-12,1,,,,,エムアンドエムズ,0
196,1120903005124,新規,0,2024-04-12,2024-04-12,誠和合同会社,,合同会社,大阪府,吹田市,古江台４丁目２番４３－１００６号,,27,205,5650874,,,,,,,2024-04-12,1,,,,,セイワ,0
197,1120905006599,新規,0,2024-04-12,2024-04-12,一般社団法人さくらプラス,,その他の設立登記法人,大阪府,池田市,城南３丁目１番１５－Ｉ－５０１号,00134393,27,204,5630025,,,,,,,2024-04-12,1,,,,,サクラプラス,0
206,1130003009446,新規,0,2024-04-12,2024-04-12,合同会社ＳＣ企画,,合同会社,京都府,京都市西京区,川島東代町４５－１２,,26,111,6158101,,,,,,,2024-04-12,1,,,,,エスシーキカク,0
207,1130003009454,新規,0,2024-04-12,2024-04-12,合同会社葛城,,合同会社,京都府,京都市北区,平野八丁柳町７０番地の１リージェンシーコート平野Ｂ１,,26,101,6038345,,,,,,,2024-04-12,1,,,,,カツラギ,0
212,1140001134014,新規,0,2024-04-12,2024-04-12,株式会社カラク,,株式会社,兵庫県,尼崎市,東園田町６丁目５２番地の１,,28,202,6610953,,,,,,,2024-04-12,1,,,,,カラク,0
213,1140003020402,新規,0,2024-04-12,2024-04-12,合同会社レガラ,,合同会社,兵庫県,神戸市北区,有野町唐櫃４２９８番地の６３,,28,109,6511331,,,,,,,2024-04-12,1,,,,,レガラ,0
214,1140003020419,新規,0,2024-04-12,2024-04-12,合同会社フォーシー,,合同会社,兵庫県,赤穂市,海浜町７２番地メゾン・ド・プラージュＡ２０１,,28,212,6780225,,,,,,,2024-04-12,1,,,,,フォーシー,0
221,1180001160881,新規,0,2024-04-12,2024-04-12,株式会社赤津ホールディングス,,株式会社,愛知県,名古屋市熱田区,外土居町９番４０号,,23,109,4560013,,,,,,,2024-04-12,1,,,,,アカツホールディングス,0
222,1180001160915,新規,0,2024-04-12,2024-04-12,青山コーポレーション株式会社,,株式会社,愛知県,名古屋市中村区,則武２丁目３４番１５号,,23,105,4530014,,,,,,,2024-04-12,1,,,,,アオヤマコーポレーション,0
223,1180001161046,新規,0,2024-04-12,2024-04-12,株式会社ＤＡＳ,,株式会社,愛知県,名古屋市中村区,名駅南ＢＩＡＮＣＡＳＡ水主町７０１,,23,105,4530000,,,,,,,2024-04-12,1,,,,,ディーエーエス,0
226,1180003026643,新規,0,2024-04-12,2024-04-12,合同会社ひかり,,合同会社,愛知県,長久手市,野田農１３１９番地ＲＯＣＣＯ２０１号室,,23,238,4801166,,,,,,,2024-04-12,1,,,,,ヒカリ,0
227,1180003026651,新規,0,2024-04-12,2024-04-12,合同会社アグリサイクル,,合同会社,愛知県,海部郡飛島村,元起２丁目１１６番地,,23,427,4901437,,,,,,,2024-04-12,1,,,,,アグリサイクル,0
228,1180005020594,新規,0,2024-04-12,2024-04-12,社会福祉法人貴令会,,その他の設立登記法人,愛知県,春日井市,鷹来町４９２３番地１,,23,206,4860804,,,,,,,2024-04-12,1,,,,,キレイカイ,0
239,1230003002184,新規,0,2024-04-12,2024-04-12,合同会社トミノ,,合同会社,富山県,南砺市,やかた６１番地,,16,210,9391576,,,,,,,2024-04-12,1,,,,,トミノ,0
251,1290001105413,新規,0,2024-04-12,2024-04-12,株式会社Ｐｕｒｅ‐ｍ,,株式会社,福岡県,福岡市中央区,大名１丁目２番６アメニティ大名５０４号,,40,133,8100041,,,,,,,2024-04-12,1,,,,,ピュアーム,0
254,1290003015148,新規,0,2024-04-12,2024-04-12,合同会社ハビッツ,,合同会社,福岡県,福岡市西区,愛宕３丁目１１番５－５０４号,,40,135,8190015,,,,,,,2024-04-12,1,,,,,ハビッツ,0
257,1320005010143,新規,0,2024-04-12,2024-04-12,一般社団法人大分県溶接協会,,その他の設立登記法人,大分県,大分市,高江西１丁目４３６１番地の１０,,44,201,8701117,,,,,,,2024-04-12,1,,,,,オオイタケンヨウセツキョウカイ,0
258,1330001031968,新規,0,2024-04-12,2024-04-12,くまもとエミナース株式会社,,株式会社,熊本県,上益城郡益城町,大字田原２０７１番地１,,43,443,8612202,,,,,,,2024-04-12,1,,,,,クマモトエミナース,0
269,1370003006568,新規,0,2024-04-12,2024-04-12,合同会社ＦＬＣ,,合同会社,宮城県,亘理郡山元町,八手庭字石田２８‐９,,04,362,9892207,,,,,,,2024-04-12,1,,,,,エフエルシー,0
275,1390001017581,新規,0,2024-04-12,2024-04-12,株式会社匠連建築,,株式会社,山形県,山形市,大字吉野宿１３０番地２,,06,201,9900883,,,,,,,2024-04-12,1,,,,,ショウレンケンチク,0
277,1400003003248,新規,0,2024-04-12,2024-04-12,合同会社エイティシックス,,合同会社,岩手県,盛岡市,東緑が丘２４番２０－２０１号,,03,201,0200112,,,,,,,2024-04-12,1,,,,,エイティシックス,0
282,1430001091531,新規,0,2024-04-12,2024-04-12,株式会社ＡＬＴＹＮＡ,,株式会社,北海道,札幌市中央区,北一条西３丁目３ばらと北一条ビル９Ｆ,,01,101,0600001,,,,,,,2024-04-12,1,,,,,アルティーナ,0
285,1430003016189,新規,0,2024-04-12,2024-04-12,合同会社ｃｏｒｕ,,合同会社,北海道,札幌市南区,藤野二条９丁目１０番６号,,01,106,0612282,,,,,,,2024-04-12,1,,,,,コル,0
286,1430003016197,新規,0,2024-04-12,2024-04-12,合同会社Ｋサービス,,合同会社,北海道,札幌市西区,二十四軒四条３丁目２番１１－１０１号,,01,107,0630804,,,,,,,2024-04-12,1,,,,,ケーサービス,0
298,1700150120682,新規,0,2024-04-12,2024-04-12,広州奥鐸商貿有限公司,,外国会社等,,,,,,,,Ｒｏｏｍ　１０１，Ｎｏ．９－８，ＤｏｎｇｇｕａｎｅｒｄｕｉｈｕａｎｃｕｎＳｔｒｅｅｔ，Ｘｉｎｙａ　Ｓｔｒｅｅｔ，Ｈｕａｄｕｑｕ，Ｇａｎｇｚｈｏｕ，Ｇｕａｎｇｄｏｎｇ，Ｃｈｉｎａ,,,,,,2024-04-12,1,,,,,コウシュウアウドウショウボウユウゲンコウシ,0
299,1700150124832,新規,0,2024-04-12,2024-04-12,株式会社ユニゲコリア,,外国会社等,大阪府,大阪市東淀川区,西淡路３丁目４番２号,,27,114,5330031,大韓民国ソウル特別市永登浦区国会大路３０ギル１０、２階（唐山洞３街）,,,,,,2024-04-12,1,,,,,カブシキガイシヤユニゲコリア,0
305,2010001243660,新規,0,2024-04-12,2024-04-12,ＳＩホールディングス１株式会社,,株式会社,東京都,中央区,日本橋室町１丁目２番６号,,13,102,1030022,,,,,,,2024-04-12,1,,,,,エスアイホールディングスワン,0
306,2010001243727,新規,0,2024-04-12,2024-04-12,豊盛株式会社,,株式会社,東京都,文京区,白山１丁目２７－３ペガサスマンション４０１,,13,105,1130001,,,,,,,2024-04-12,1,,,,,トヨモリ,0
307,2010001243743,新規,0,2024-04-12,2024-04-12,Ｑｕｅｕｅ株式会社,,株式会社,東京都,中央区,銀座１丁目２２番１１号銀座大竹ビジデンス２Ｆ,,13,102,1040061,,,,,,,2024-04-12,1,,,,,キュー,0
308,2010001243826,新規,0,2024-04-12,2024-04-12,株式会社Ｍｗａｙ,,株式会社,東京都,千代田区,神田猿楽町２丁目７番７号倉林ビル１Ｆ,,13,101,1010064,,,,,,,2024-04-12,1,,,,,エムウェイ,0
309,2010001243966,新規,0,2024-04-12,2024-04-12,株式会社レイディスク,,株式会社,東京都,文京区,本郷２丁目２５－１４第一ライトビル５階,,13,105,1130033,,,,,,,2024-04-12,1,,,,,レイディスク,0
310,2010003043431,新規,0,2024-04-12,2024-04-12,Ｂｅａｒｓ合同会社,,合同会社,東京都,文京区,小石川２丁目５番１－７０５号,,13,105,1120002,,,,,,,2024-04-12,1,,,,,ベアーズ,0
311,2010003043456,新規,0,2024-04-12,2024-04-12,フリーアス合同会社,,合同会社,東京都,千代田区,神田和泉町１番地６番１６号ヤマトビル第４０５号室,,13,101,1010024,,,,,,,2024-04-12,1,,,,,フリーアス,0
324,2010401181758,新規,0,2024-04-12,2024-04-12,株式会社アンナプルナ,,株式会社,東京都,港区,白金１丁目１７番１号,,13,103,1080072,,,,,,,2024-04-12,1,,,,,アンナプルナ,0
326,2010403032422,新規,0,2024-04-12,2024-04-12,日星国際コンサルティング合同会社,,合同会社,東京都,港区,南青山２丁目２番１５号,,13,103,1070062,,,,,,,2024-04-12,1,,,,,ニチセイコクサイコンサルティング,0
330,2010601065001,新規,0,2024-04-12,2024-04-12,ＥＮＥＲＧＥＴＩＣ株式会社,,株式会社,東京都,墨田区,両国４丁目３５－１タカシマ２０３号,,13,107,1300026,,,,,,,2024-04-12,1,,,,,エネルゲティック,0
331,2010701045844,新規,0,2024-04-12,2024-04-12,株式会社ＫＵＷＡＮＡ,,株式会社,東京都,品川区,戸越４丁目３―２１―１０１,,13,109,1420041,,,,,,,2024-04-12,1,,,,,クワナ,0
333,2010801034961,新規,0,2024-04-12,2024-04-12,日拓商事株式会社,,株式会社,東京都,大田区,大森北１丁目２３番１２号徳栄ビル６階Ｂ,,13,111,1430016,,,,,,,2024-04-12,1,,,,,ニッタクショウジ,0
334,2010803004913,新規,0,2024-04-12,2024-04-12,合同会社Ｔ＆Ｒ,,合同会社,東京都,大田区,大森西４丁目６番２号,,13,111,1430015,,,,,,,2024-04-12,1,,,,,ティーアンドアール,0
346,2011101106856,新規,0,2024-04-12,2024-04-12,株式会社バーテックス,,株式会社,東京都,新宿区,高田馬場４丁目１番１号アップステージ高田馬場２０２,,13,104,1690075,,,,,,,2024-04-12,1,,,,,バーテックス,0
347,2011101106922,新規,0,2024-04-12,2024-04-12,ビッグ株式会社,,株式会社,東京都,新宿区,西新宿３丁目３番１３号西新宿水間ビル６階,,13,104,1600023,,,,,,,2024-04-12,1,,,,,ビッグ,0
348,2011101106939,新規,0,2024-04-12,2024-04-12,株式会社スタッフエージェンシー,,株式会社,東京都,新宿区,百人町２丁目２７－７ＨＵＮＤＲＥＤＳＴＡＹＲＥＳＩＤＥＮＣＥ,,13,104,1690073,,,,,,,2024-04-12,1,,,,,スタッフエージェンシー,0
349,2011103014322,新規,0,2024-04-12,2024-04-12,合同会社Ｂｕｎｋｉｃｈｉ,,合同会社,東京都,新宿区,北新宿１丁目８番２２号,,13,104,1690074,,,,,,,2024-04-12,1,,,,,ブンキチ,0
354,2011401025995,新規,0,2024-04-12,2024-04-12,株式会社矢野,,株式会社,東京都,板橋区,南常盤台１丁目１３番５号ハイプレースときわ台３０１,,13,119,1740072,,,,,,,2024-04-12,1,,,,,ヤノ,0
355,2011401026003,新規,0,2024-04-12,2024-04-12,株式会社ドラゴンフライ,,株式会社,東京都,板橋区,小茂根４丁目１－４パレスコモネ２０１,,13,119,1730037,,,,,,,2024-04-12,1,,,,,ドラゴンフライ,0
359,2011501030532,新規,0,2024-04-12,2024-04-12,東京立学館株式会社,,株式会社,東京都,荒川区,南千住３丁目２７－２浅草ビル,,13,118,1160003,,,,,,,2024-04-12,1,,,,,トウキョウリツガクカン,0
365,2011601027684,新規,0,2024-04-12,2024-04-12,株式会社松幸,,株式会社,東京都,練馬区,南大泉１丁目２４番５号トレシア南大泉４０５号室,,13,120,1780064,,,,,,,2024-04-12,1,,,,,マツコウ,0
366,2011801044042,新規,0,2024-04-12,2024-04-12,瀧和株式会社,,株式会社,東京都,葛飾区,新小岩３丁目９－７－２Ｆ,,13,122,1240024,,,,,,,2024-04-12,1,,,,,タキワ,0
367,2011801044059,新規,0,2024-04-12,2024-04-12,ＨＴＴジャパン株式会社,,株式会社,東京都,葛飾区,新宿６丁目２番１－１０２５号シティタワー金町タワー棟,,13,122,1250051,,,,,,,2024-04-12,1,,,,,エッチティーティージャパン,0
374,2013101009394,新規,0,2024-04-12,2024-04-12,Ｏｋｕｔｏｍｉ　Ｐｒｅｃｉｓｉｏｎ株式会社,,株式会社,東京都,青梅市,御岳本町２４０番地の１２,,13,205,1980173,,,,,,,2024-04-12,1,,,,,,0
380,2013301052335,新規,0,2024-04-12,2024-04-12,株式会社一丸共創ダイニング,,株式会社,東京都,豊島区,池袋２丁目１８番２号オーロラビル１階,,13,116,1710014,,,,,,,2024-04-12,1,,,,,イチガンキョウソウダイニング,0
381,2013301052351,新規,0,2024-04-12,2024-04-12,株式会社ＡＢＣ,,株式会社,東京都,豊島区,池袋４丁目２９－１１トウセン池袋ビル５０６号室,,13,116,1710014,,,,,,,2024-04-12,1,,,,,エイビーシー,0
382,2013303007089,新規,0,2024-04-12,2024-04-12,合同会社ピーカプー,,合同会社,東京都,豊島区,西池袋１丁目４１番２号池袋東通ビル３階,,13,116,1710021,,,,,,,2024-04-12,1,,,,,ピーカプー,0
386,2020001156663,新規,0,2024-04-12,2024-04-12,株式会社Ｗ．ＷＯＯＤ,,株式会社,神奈川県,横浜市中区,常盤町３丁目３０番地１ＳＯＬＡＣＵＢＥ横濱関内３－０４,,14,104,2310014,,,,,,,2024-04-12,1,,,,,ダブリューウッド,0
387,2020001156696,新規,0,2024-04-12,2024-04-12,株式会社古賀建設,,株式会社,神奈川県,横浜市緑区,長津田みなみ台１丁目１番地１,,14,113,2260018,,,,,,,2024-04-12,1,,,,,コガケンセツ,0
388,2020001156705,新規,0,2024-04-12,2024-04-12,株式会社眞工務店,,株式会社,神奈川県,横浜市戸塚区,戸塚町４４０８番地５,,14,110,2440003,,,,,,,2024-04-12,1,,,,,シンコウムテン,0
389,2020003025924,新規,0,2024-04-12,2024-04-12,合同会社Ｍｏｏｎ,,合同会社,神奈川県,横浜市瀬谷区,南台２丁目４－１Ｂ－１８－３０３,,14,114,2460032,,,,,,,2024-04-12,1,,,,,ムーン,0
390,2020003025932,新規,0,2024-04-12,2024-04-12,一歩合同会社,,合同会社,神奈川県,川崎市川崎区,駅前本町１１番地２川崎フロンティアビル４階,,14,131,2100007,,,,,,,2024-04-12,1,,,,,イッポ,0
399,2021003014363,新規,0,2024-04-12,2024-04-12,ＮＩＨＯＮ　ＪＩＤＯＳＨＡ合同会社,,合同会社,神奈川県,藤沢市,打戻３５９６番地の１,,14,205,2520824,,,,,,,2024-04-12,1,,,,,ニホンジドウシャ,0
400,2030001159723,新規,0,2024-04-12,2024-04-12,株式会社ＪＯＹ,,株式会社,埼玉県,飯能市,緑町１７番地１３グリーンベル１０３号,,11,209,3570024,,,,,,,2024-04-12,1,,,,,ジョイ,0
401,2030001159764,新規,0,2024-04-12,2024-04-12,株式会社ＣＯＲＥ,,株式会社,埼玉県,さいたま市南区,別所７丁目２番１－２１０８号,,11,108,3360021,,,,,,,2024-04-12,1,,,,,コア,0
402,2030001159789,新規,0,2024-04-12,2024-04-12,Ｒ‐ｔｗｏ株式会社,,株式会社,埼玉県,さいたま市西区,大字植田谷本９０番地３,,11,101,3310053,,,,,,,2024-04-12,1,,,,,アールツー,0
403,2030001159797,新規,0,2024-04-12,2024-04-12,株式会社佐久間工業,,株式会社,埼玉県,新座市,畑中１丁目８番３０－５０２号,,11,230,3520012,,,,,,,2024-04-12,1,,,,,サクマコウギョウ,0
404,2030001159822,新規,0,2024-04-12,2024-04-12,おたすけほいく株式会社,,株式会社,埼玉県,八潮市,大字大曽根１６３１番地,,11,234,3400834,,,,,,,2024-04-12,1,,,,,オタスケホイク,0
407,2030003024017,新規,0,2024-04-12,2024-04-12,合同会社ピュアビューティ,,合同会社,埼玉県,所沢市,宮本町２丁目１１番５号,,11,208,3591143,,,,,,,2024-04-12,1,,,,,ピュアビューティ,0
408,2030003024041,新規,0,2024-04-12,2024-04-12,合同会社ｉｎｆｉｎｉｔｙ,,合同会社,埼玉県,草加市,稲荷２丁目５番１６－１０１号,,11,221,3400003,,,,,,,2024-04-12,1,,,,,インフィニティ,0
409,2030003024066,新規,0,2024-04-12,2024-04-12,合同会社長井事務所,,合同会社,埼玉県,志木市,柏町１丁目８番２４－６０２号,,11,228,3530007,,,,,,,2024-04-12,1,,,,,ナガイジムショ,0
412,2030005021623,新規,0,2024-04-12,2024-04-12,一般社団法人Ｔｈｅ　Ｙａｓｈｉｏｓｔｙｌｅ,,その他の設立登記法人,埼玉県,八潮市,大字二丁目５２番地３－ＩＩＩ・１０１,00134383,11,234,3400811,,,,,,,2024-04-12,1,,,,,ヤシオスタイル,0
413,2030005021648,新規,0,2024-04-12,2024-04-12,医療法人社団美苗会,,その他の設立登記法人,埼玉県,加須市,南小浜６３１番地１,,11,210,3470028,,,,,,,2024-04-12,1,,,,,ミナエカイ,0
417,2040001133099,新規,0,2024-04-12,2024-04-12,株式会社ＯＴＡ,,株式会社,千葉県,佐倉市,臼井田２３５９番１号,,12,212,2850861,,,,,,,2024-04-12,1,,,,,オーティーエー,0
424,2040003024759,新規,0,2024-04-12,2024-04-12,合同会社ＡＴ　Ｂｅｌｌ,,合同会社,千葉県,松戸市,本町１番地の１８,,12,207,2710091,,,,,,,2024-04-12,1,,,,,エーティーベル,0
428,2050001054600,新規,0,2024-04-12,2024-04-12,株式会社愛希ＶＥＥＮ　ＭＯＴＯＲＳ,,株式会社,茨城県,常総市,豊田２３０９番地９２,,08,211,3002705,,,,,,,2024-04-12,1,,,,,アイキビーンモータース,0
429,2050001054609,新規,0,2024-04-12,2024-04-12,三建エステート株式会社,,株式会社,茨城県,龍ケ崎市,佐貫１丁目１０－１０,,08,208,3010032,,,,,,,2024-04-12,1,,,,,サンケンエステート,0
430,2050001054617,新規,0,2024-04-12,2024-04-12,株式会社みずおち,,株式会社,茨城県,古河市,長谷町１番９号,,08,204,3060034,,,,,,,2024-04-12,1,,,,,ミズオチ,0
434,2060003005030,新規,0,2024-04-12,2024-04-12,ＨＡＴ合同会社,,合同会社,栃木県,宇都宮市,小幡２丁目３番１４号コーポつかさ１０１号室,,09,201,3200036,,,,,,,2024-04-12,1,,,,,エイチエーティー,0
436,2070003005368,新規,0,2024-04-12,2024-04-12,合同会社ＫＲ　ＧＡＲＡＧＥ,,合同会社,群馬県,前橋市,石倉町２丁目３番地１１,,10,201,3710841,,,,,,,2024-04-12,1,,,,,ケーアールガレージ,0
437,2080101024673,新規,0,2024-04-12,2024-04-12,株式会社Ｌａｌａ,,株式会社,静岡県,沼津市,大岡２６７５番地の１０,,22,203,4100022,,,,,,,2024-04-12,1,,,,,ララ,0
441,2090001018650,新規,0,2024-04-12,2024-04-12,株式会社ｓｅｔｔｌｅｍｅｎｔ,,株式会社,山梨県,甲府市,池田２丁目１１－３９－Ａ１０２,,19,201,4000062,,,,,,,2024-04-12,1,,,,,セトルメント,0
453,2110005017076,新規,0,2024-04-12,2024-04-12,三条市商工会,,その他の設立登記法人,新潟県,三条市,新堀２２９０番地,,15,204,9591153,,,,,,新潟県三条市新堀２２９０番地栄商工会（3110005005617）と新潟県三条市笹岡３６０番地１下田商工会（2110005005618）の合併により設立,2024-04-12,1,,,,,サンジョウシ,0
460,2120001263986,新規,0,2024-04-12,2024-04-12,森田株式会社,,株式会社,大阪府,大阪市生野区,小路１丁目２６番５号,,27,116,5440002,,,,,,,2024-04-12,1,,,,,モリタ,0
461,2120001263994,新規,0,2024-04-12,2024-04-12,株式会社エスポワール,,株式会社,大阪府,大阪市平野区,西脇３丁目２番１８号レスト平野１Ｆ,,27,126,5470035,,,,,,,2024-04-12,1,,,,,エスポワール,0
462,2120001264010,新規,0,2024-04-12,2024-04-12,株式会社美来家,,株式会社,大阪府,大阪市都島区,都島南通１丁目１６番８号,,27,102,5340023,,,,,,,2024-04-12,1,,,,,ミライヤ,0
463,2120001264043,新規,0,2024-04-12,2024-04-12,阪急商事株式会社,,株式会社,大阪府,大阪市阿倍野区,阿倍野筋２丁目３番１１号５０４,,27,119,5450052,,,,,,,2024-04-12,1,,,,,ハンキュウショウジ,0
467,2120003026292,新規,0,2024-04-12,2024-04-12,ｃｏｍｆｙ合同会社,,合同会社,大阪府,大阪市西成区,太子１丁目５番２号,,27,122,5570002,,,,,,,2024-04-12,1,,,,,コンフィー,0
472,2120905006598,新規,0,2024-04-12,2024-04-12,一般社団法人ＪＨＡ,,その他の設立登記法人,大阪府,豊中市,本町１丁目９番１０－１００７号,,27,203,5600021,,,,,,,2024-04-12,1,,,,,ジェーエイチエー,0
477,2130001076834,新規,0,2024-04-12,2024-04-12,株式会社彩プランツ,,株式会社,京都府,京都市上京区,新町通一条上る一条殿町４９２番地８,,26,102,6020934,,,,,,,2024-04-12,1,,,,,サイプランツ,0
481,2130003009445,新規,0,2024-04-12,2024-04-12,合同会社タイタン,,合同会社,京都府,京都市下京区,大黒町西洞院通七条通油小路東入大黒町２２７番地第２キョートビル４０２,,26,106,6008043,,,,,,,2024-04-12,1,,,,,タイタン,0
482,2130005017066,新規,0,2024-04-12,2024-04-12,一般社団法人子どもたちによる子どもたちのロボット教室京都,,その他の設立登記法人,京都府,京都市下京区,中堂寺南町１３４番地,,26,106,6008813,,,,,,,2024-04-12,1,,,,,コドモタチニヨルコドモタチノロボットキョウシツキョウト,0
486,2140001134038,新規,0,2024-04-12,2024-04-12,株式会社日本丸,,株式会社,兵庫県,豊岡市,津居山３６２番地,,28,209,6696121,,,,,,,2024-04-12,1,,,,,ニッポンマル,0
491,2150003003223,新規,0,2024-04-12,2024-04-12,ｕｎ　ｎａｍｅｓ合同会社,,合同会社,奈良県,北葛城郡王寺町,本町４丁目４１－３,,29,425,6360012,,,,,,,2024-04-12,1,,,,,アンネームズ,0
494,2160003003164,新規,0,2024-04-12,2024-04-12,さくらＢＡＳＥ合同会社,,合同会社,滋賀県,守山市,吉身４丁目５番３５号,,25,207,5240021,,,,,,,2024-04-12,1,,,,,サクラベース,0
496,2180001160889,新規,0,2024-04-12,2024-04-12,Ｍ・Ｋ　Ｔｅｃ株式会社,,株式会社,愛知県,名古屋市中村区,野上町１１番地,,23,105,4530859,,,,,,,2024-04-12,1,,,,,エムケーテック,0
497,2180001160930,新規,0,2024-04-12,2024-04-12,株式会社Ｉ　ｐｒｏｐｅｒｔｙ,,株式会社,愛知県,名古屋市東区,葵１丁目２番６号,,23,102,4610004,,,,,,,2024-04-12,1,,,,,アイプロパティ,0
498,2180001161037,新規,0,2024-04-12,2024-04-12,名西環境調査株式会社,,株式会社,愛知県,あま市,七宝町下之森河原１０８番地サエラ１４ｔｈ１００４号,,23,237,4970006,,,,,,,2024-04-12,1,,,,,メイセイカンキョウチョウサ,0
499,2180001161061,新規,0,2024-04-12,2024-04-12,株式会社至福グループ,,株式会社,愛知県,名古屋市瑞穂区,田辺通２丁目１１番地の２プレティナレジデンス瑞穂田辺通８０５号,,23,108,4670027,,,,,,,2024-04-12,1,,,,,シフクグループ,0
506,2180003026618,新規,0,2024-04-12,2024-04-12,合同会社ＲＹＵＫＯＵＤＯ,,合同会社,愛知県,名古屋市昭和区,天神町２丁目１６番地の１,,23,107,4660032,,,,,,,2024-04-12,1,,,,,リュウコウドウ,0
507,2180005020593,新規,0,2024-04-12,2024-04-12,コネクション協同組合,,その他の設立登記法人,愛知県,弥富市,佐古木５丁目４５７番地３,,23,235,4980006,,,,,,,2024-04-12,1,,,,,コネクション,0
518,2220003003728,新規,0,2024-04-12,2024-04-12,合同会社Ｌｕｎａ　Ｇｌｏｂａｌ,,合同会社,石川県,金沢市,堀川新町５番１号アリマビル３Ｆ金沢Ｒｉｓｅ,,17,201,9200849,,,,,,,2024-04-12,1,,,,,ルナグローバル,0
519,2220005008832,新規,0,2024-04-12,2024-04-12,特定非営利活動法人アクティブ能登,,その他の設立登記法人,石川県,能美市,佐野町甲１０６番地,,17,211,9231112,,,,,,,2024-04-12,1,,,,,アクティブノト,0
523,2240003006621,新規,0,2024-04-12,2024-04-12,合同会社オフィスクローバー,,合同会社,広島県,廿日市市,宮内１５２２番地２（１Ｆ）,,34,213,7380034,,,,,,,2024-04-12,1,,,,,オフィスクローバー,0
535,2290001105296,新規,0,2024-04-12,2024-04-12,ジャパンホームエナジー株式会社,,株式会社,福岡県,福岡市博多区,板付６丁目１番４２－１０６号,,40,132,8120888,,,,,,,2024-04-12,1,,,,,ジャパンホームエナジー,0
536,2290001105370,新規,0,2024-04-12,2024-04-12,株式会社ＥＮＢＩ,,株式会社,福岡県,福岡市博多区,博多駅東１丁目１６番６号,,40,132,8120013,,,,,,,2024-04-12,1,,,,,エンビ,0
537,2290003015155,新規,0,2024-04-12,2024-04-12,ＮＫアセット合同会社,,合同会社,福岡県,糸島市,高田１丁目７番１２－６０４号,,40,230,8191102,,,,,,,2024-04-12,1,,,,,エヌケイアセット,0
545,2330001031959,新規,0,2024-04-12,2024-04-12,株式会社にこ,,株式会社,熊本県,熊本市中央区,琴平本町４番１８号,,43,101,8600814,,,,,,,2024-04-12,1,,,,,ニコ,0
548,2340001026446,新規,0,2024-04-12,2024-04-12,株式会社ＮＡＭＥ,,株式会社,鹿児島県,鹿児島市,東谷山１丁目７５番６号２階,,46,201,8910113,,,,,,,2024-04-12,1,,,,,ネーム,0
554,2350003004589,新規,0,2024-04-12,2024-04-12,合同会社ＳＥＮ’ｓ　Ｂｅｒｒｙ　Ｆａｒｍ,,合同会社,宮崎県,えびの市,大字原田３８７３番地,,45,209,8894301,,,,,,,2024-04-12,1,,,,,センズベリーファーム,0
563,2360001033515,新規,0,2024-04-12,2024-04-12,名護バイオエナジー株式会社,,株式会社,沖縄県,名護市,大東２丁目１７番２３号,,47,209,9050016,,,,,,,2024-04-12,1,,,,,ナゴバイオエナジー,0
565,2370003006567,新規,0,2024-04-12,2024-04-12,合同会社卯月商事,,合同会社,宮城県,柴田郡柴田町,槻木上町１丁目１番４４号,,04,323,9891753,,,,,,,2024-04-12,1,,,,,ウヅキショウジ,0
570,2380001034453,新規,0,2024-04-12,2024-04-12,株式会社ユニ・ロット福島,,株式会社,福島県,双葉郡楢葉町,大字井出字苅集１７番地１,,07,542,9790603,,,,,,,2024-04-12,1,,,,,ユニロットフクシマ,0
572,2380003005733,新規,0,2024-04-12,2024-04-12,ＬＩＢＥＲＡ合同会社,,合同会社,福島県,福島市,泉字八幡１０番地の５,,07,201,9608253,,,,,,,2024-04-12,1,,,,,リベラ,0
577,2410001013775,新規,0,2024-04-12,2024-04-12,株式会社ビーダッシュ,,株式会社,秋田県,大仙市,橋本字上橋本３９８番地１,,05,212,0140804,,,,,,,2024-04-12,1,,,,,ビーダッシュ,0
585,2430001091555,新規,0,2024-04-12,2024-04-12,メイコウエンジニアリング株式会社,,株式会社,北海道,札幌市清田区,里塚緑ケ丘８丁目７番８号,,01,110,0040805,,,,,,,2024-04-12,1,,,,,メイコウエンジニアリング,0
588,2430005014958,新規,0,2024-04-12,2024-04-12,特定非営利活動法人福祉のしゃべりば,,その他の設立登記法人,北海道,札幌市豊平区,美園一条７丁目２番５－２０２号,,01,105,0620001,,,,,,,2024-04-12,1,,,,,フクシノシャベリバ,0
592,2470001020139,新規,0,2024-04-12,2024-04-12,四国ＡＩリンク株式会社,,株式会社,香川県,丸亀市,飯野町東分１１６６番地１,,37,202,7630085,,,,,,,2024-04-12,1,,,,,シコクエーアイリンク,0
593,2470005006563,新規,0,2024-04-12,2024-04-12,一般社団法人日本水辺安全協会,,その他の設立登記法人,香川県,高松市,屋島東町５１５番地３８１,,37,201,7610111,,,,,,,2024-04-12,1,,,,,ニホンミズベアンゼンキョウカイ,0
597,2500003003220,新規,0,2024-04-12,2024-04-12,ＯＭＯＩ合同会社,,合同会社,愛媛県,新居浜市,中萩町５番２０３２号ラフィーネ中萩Ａ棟３０２号,,38,205,7920045,,,,,,,2024-04-12,1,,,,,オモイ,0
598,2700150124831,新規,0,2024-04-12,2024-04-12,Ｇｕａｎｇｄｏｎｇ　Ｍｅｎｔｅｃｈ　Ｔｅｃｈｎｏｌｏｇｙ　Ｃｏ．，Ｌｔｄ,,外国会社等,,,,,,,,５０４，Ｂｕｉｌｄｉｎｇ　Ｄ１，ＴＣＬ　Ｓｃｉｅｎｃｅ　Ｐａｒｋ，Ｎｏ．１００１　Ｚｈｏｎｇｓｈａｎ　Ｇａｒｄｅｎ　Ｒｏａｄ，Ｓｈｕｇｕａｎｇ　Ｃｏｍｍｕｎｉｔｙ，Ｘｉｌｉ　Ｓｔｒｅｅｔ，Ｎａｎｓｈａｎ　Ｄｉｓｔｒｉｃｔ，Ｓｈｅｎｚｈｅｎ，Ｇｕａｎｇｄｏｎｇ，Ｃｈｉｎａ,,,,,,2024-04-12,1,,,,,グワンドンメイタンコージーヨウシエンゴンスー,0
605,3010001243899,新規,0,2024-04-12,2024-04-12,株式会社スタニング,,株式会社,東京都,中央区,築地４丁目３番１２号秀和築地第二レジデンス７０３号,,13,102,1040045,,,,,,,2024-04-12,1,,,,,スタニング,0
606,3010001243932,新規,0,2024-04-12,2024-04-12,株式会社骨盤ちゃん,,株式会社,東京都,中央区,日本橋室町１丁目１１番１２号日本橋水野ビル,,13,102,1030022,,,,,,,2024-04-12,1,,,,,コツバンチャン,0
609,3010003043406,新規,0,2024-04-12,2024-04-12,合同会社アソビゴコロ,,合同会社,東京都,中央区,銀座１丁目２２番１１号銀座大竹レジデンス２階,,13,102,1040061,,,,,,,2024-04-12,1,,,,,アソビゴコロ,0
610,3010003043455,新規,0,2024-04-12,2024-04-12,白馬ＭＬ合同会社３,,合同会社,東京都,千代田区,丸の内３丁目１番１号東京共同会計事務所内,,13,101,1000005,,,,,,,2024-04-12,1,,,,,ハクバエムエルスリー,0
628,3010405023138,新規,0,2024-04-12,2024-04-12,一般社団法人公共安全推進協会,,その他の設立登記法人,東京都,港区,赤坂４丁目９番２５号,,13,103,1070052,,,,,,,2024-04-12,1,,,,,コウキョウアンゼンスイシンキョウカイ,0
642,3010801034960,新規,0,2024-04-12,2024-04-12,株式会社ＲＡ,,株式会社,東京都,大田区,仲六郷３丁目５番３号,,13,111,1440055,,,,,,,2024-04-12,1,,,,,アールエー,0
655,3011001161042,新規,0,2024-04-12,2024-04-12,未来推進株式会社,,株式会社,東京都,渋谷区,道玄坂１丁目２番３号渋谷フクラス１７階,,13,113,1500043,,,,,,,2024-04-12,1,,,,,ミライスイシン,0
656,3011003018876,新規,0,2024-04-12,2024-04-12,Ｎ＆Ｆ企画合同会社,,合同会社,東京都,渋谷区,神宮前６丁目２３番４号,,13,113,1500001,,,,,,,2024-04-12,1,,,,,エヌアンドエフキカク,0
661,3011103014288,新規,0,2024-04-12,2024-04-12,合同会社ＴＯＰ　ＨＩＧＨ,,合同会社,東京都,新宿区,西新宿３丁目３番１３号西新宿水間ビル２Ｆ,,13,104,1600023,,,,,,,2024-04-12,1,,,,,トップハイ,0
662,3011103014313,新規,0,2024-04-12,2024-04-12,合同会社サンシェア,,合同会社,東京都,新宿区,西新宿３丁目２番９号,,13,104,1600023,,,,,,,2024-04-12,1,,,,,サンシェア,0
666,3011301029559,新規,0,2024-04-12,2024-04-12,株式会社Ｒ＆Ｄ,,株式会社,東京都,杉並区,荻窪２丁目１３番８－２０３号,,13,115,1670051,,,,,,,2024-04-12,1,,,,,アールアンドディー,0
667,3011301029567,新規,0,2024-04-12,2024-04-12,明徳株式会社,,株式会社,東京都,杉並区,成田西２丁目１番１１号Ｃ号棟,,13,115,1660016,,,,,,,2024-04-12,1,,,,,メイトク,0
668,3011403004328,新規,0,2024-04-12,2024-04-12,合同会社ｅｖｅｒ,,合同会社,東京都,板橋区,赤塚２丁目２－４,,13,119,1750092,,,,,,,2024-04-12,1,,,,,エバー,0
669,3011503006018,新規,0,2024-04-12,2024-04-12,合同会社ＣＩＮＣＶＩＳＩＯＮ,,合同会社,東京都,荒川区,南千住５丁目２２番７－１０３号Ｇｌａｎｚ南千住ＩＩ,00134385,13,118,1160003,,,,,,,2024-04-12,1,,,,,シンクビジョン,0
674,3011601027683,新規,0,2024-04-12,2024-04-12,Ｓｔｅｐｐｉｎｇ　Ｓｔｏｎｅｓ株式会社,,株式会社,東京都,練馬区,光が丘７丁目８番１,,13,120,1790072,,,,,,,2024-04-12,1,,,,,ステッピングストーンズ,0
679,3012301013874,新規,0,2024-04-12,2024-04-12,株式会社エムルーフ,,株式会社,東京都,町田市,金森６丁目９番１１号,,13,209,1940012,,,,,,,2024-04-12,1,,,,,エムルーフ,0
684,3012703002962,新規,0,2024-04-12,2024-04-12,合同会社ｐｕｒｅ,,合同会社,東京都,小平市,鈴木町１丁目１２１番地の１１１,,13,211,1870011,,,,,,,2024-04-12,1,,,,,ピュア,0
686,3012805003264,新規,0,2024-04-12,2024-04-12,医療法人社団翔王会,,その他の設立登記法人,東京都,立川市,柏町３丁目１０番１８号,,13,202,1900004,,,,,,,2024-04-12,1,,,,,ショウノウカイ,0
689,3013301052350,新規,0,2024-04-12,2024-04-12,株式会社ＮＧＴ,,株式会社,東京都,豊島区,目白５丁目１６番２４号,,13,116,1710031,,,,,,,2024-04-12,1,,,,,エヌジーティー,0
692,3020001156472,新規,0,2024-04-12,2024-04-12,株式会社ＳＩＳＩＬＬＷＡＲＥ,,株式会社,神奈川県,横浜市青葉区,鴨志田町５２８,,14,117,2270033,,,,,,,2024-04-12,1,,,,,シシルウェア,0
693,3020001156662,新規,0,2024-04-12,2024-04-12,ＡＳＵ株式会社,,株式会社,神奈川県,横浜市鶴見区,下末吉５丁目９番１７号,,14,101,2300012,,,,,,,2024-04-12,1,,,,,アス,0
698,3020003025907,新規,0,2024-04-12,2024-04-12,合同会社サーフメディアラボ,,合同会社,神奈川県,横浜市神奈川区,金港町５－１４クアドリフォリオ８階,,14,102,2210056,,,,,,,2024-04-12,1,,,,,サーフメディアラボ,0
699,3020005016367,新規,0,2024-04-12,2024-04-12,医療法人はる,,その他の設立登記法人,神奈川県,横浜市青葉区,藤が丘１丁目１４番地４９横浜藤が丘ＮＢＩビル２Ａ,,14,117,2270043,,,,,,,2024-04-12,1,,,,,ハル,0
705,3021001081875,新規,0,2024-04-12,2024-04-12,株式会社ｂｌｌｉｔｚ,,株式会社,神奈川県,座間市,ひばりが丘４丁目１３番１１号,,14,216,2520003,,,,,,,2024-04-12,1,,,,,ブリッツ,0
706,3021001081925,新規,0,2024-04-12,2024-04-12,スズキウェットスーツ株式会社,,株式会社,神奈川県,茅ヶ崎市,中海岸４丁目１０番２３号,,14,207,2530055,,,,,,,2024-04-12,1,,,,,スズキウェットスーツ,0
707,3021001081941,新規,0,2024-04-12,2024-04-12,つばさ株式会社,,株式会社,神奈川県,相模原市南区,上鶴間本町３丁目１２－２１ライオンズガーデン町田駅南１１０９,,14,153,2520318,,,,,,,2024-04-12,1,,,,,ツバサ,0
714,3030001159433,新規,0,2024-04-12,2024-04-12,株式会社齊佑解体,,株式会社,埼玉県,八潮市,大字二丁目１４８番地エクレール八潮５０１,,11,234,3400811,,,,,,,2024-04-12,1,,,,,サイユウカイタイ,0
715,3030001159763,新規,0,2024-04-12,2024-04-12,株式会社安長商会,,株式会社,埼玉県,さいたま市北区,大成町４丁目３５７番地４ウィンベルコーラス大宮８０１号,,11,102,3310815,,,,,,,2024-04-12,1,,,,,ヤスナガショウカイ,0
716,3030001159788,新規,0,2024-04-12,2024-04-12,Ｇ‐ｃｏｎｎｅｃｔ株式会社,,株式会社,埼玉県,川口市,芝樋ノ爪１丁目７－３５レジディス川口３０１,,11,203,3330852,,,,,,,2024-04-12,1,,,,,ジーコネクト,0
722,3030003024057,新規,0,2024-04-12,2024-04-12,合同会社Ｓｗｏｒｌｅ,,合同会社,埼玉県,所沢市,花園１丁目２４２４番地の４８,,11,208,3590047,,,,,,,2024-04-12,1,,,,,,0
723,3030003024065,新規,0,2024-04-12,2024-04-12,ＳＵＮＦＬＯＷＥＲ合同会社,,合同会社,埼玉県,蕨市,中央１丁目１２番２号２階,,11,223,3350004,,,,,,,2024-04-12,1,,,,,サンフラワー,0
724,3030005021647,新規,0,2024-04-12,2024-04-12,一般社団法人ティエム＆ハッピー,,その他の設立登記法人,埼玉県,熊谷市,籠原南２丁目１６１番地,,11,202,3600847,,,,,,,2024-04-12,1,,,,,ティエムエンドハッピー,0
731,3050001054599,新規,0,2024-04-12,2024-04-12,ＯＹＡＭＡ　ＴＲＡＤＩＮＧ株式会社,,株式会社,茨城県,結城市,大字田間１２８０番地１,,08,207,3070044,,,,,,,2024-04-12,1,,,,,オヤマトレーディング,0
738,3070005010258,新規,0,2024-04-12,2024-04-12,ＮＰＯ法人百の森,,その他の設立登記法人,群馬県,藤岡市,鬼石１０８番地２,,10,209,3701401,,,,,,,2024-04-12,1,,,,,ヒャクノモリ,0
739,3080001026240,新規,0,2024-04-12,2024-04-12,株式会社Ｅｎｊｏｙ,,株式会社,静岡県,静岡市葵区,両替町２丁目２番地の１１中日本ビル５階,,22,101,4200032,,,,,,,2024-04-12,1,,,,,エンジョイ,0
748,3100005013166,新規,0,2024-04-12,2024-04-12,一般財団法人戸隠奥社の杜財団,,その他の設立登記法人,長野県,長野市,戸隠３５０６番地,,20,201,3814101,,,,,,,2024-04-12,1,,,,,トガクシオクシャノモリザイダン,0
760,3120001264018,新規,0,2024-04-12,2024-04-12,株式会社みなもと管理,,株式会社,大阪府,大阪市中央区,道修町１丁目２番４号源実業北浜ビル６階,,27,128,5410045,,,,,,,2024-04-12,1,,,,,ミナモトカンリ,0
766,3120903005130,新規,0,2024-04-12,2024-04-12,音丸合同会社,,合同会社,大阪府,吹田市,豊津町５２－２５－６,,27,205,5640051,,,,,,,2024-04-12,1,,,,,オトマル,0
771,3130003009452,新規,0,2024-04-12,2024-04-12,ＩＴｉｓｔａ合同会社,,合同会社,京都府,京都市上京区,下立売通松屋町西入浮田町６１５番地１,,26,102,6028104,,,,,,,2024-04-12,1,,,,,アイティスタ,0
778,3140001134053,新規,0,2024-04-12,2024-04-12,株式会社悟空,,株式会社,兵庫県,尼崎市,三反田町１丁目１番１０－５０４号,,28,202,6610024,,,,,,,2024-04-12,1,,,,,ゴクウ,0
781,3140003020417,新規,0,2024-04-12,2024-04-12,合同会社ジェヤシャルマ・ジャパン,,合同会社,兵庫県,神戸市中央区,元町通４丁目６番７号４０１,,28,110,6500022,,,,,,,2024-04-12,1,,,,,ジェヤシャルマジャパン,0
785,3150003003222,新規,0,2024-04-12,2024-04-12,ＭＫ‐ｓｍｉｌｅ合同会社,,合同会社,奈良県,橿原市,中曽司町４４４番地の１１,,29,205,6340845,,,,,,,2024-04-12,1,,,,,エムケイスマイル,0
794,3180001160839,新規,0,2024-04-12,2024-04-12,株式会社ナルキュウホールディングス,,株式会社,愛知県,名古屋市緑区,鳴海町字三皿２０番地の１１,,23,114,4580801,,,,,,,2024-04-12,1,,,,,ナルキュウホールディングス,0
795,3180001160970,新規,0,2024-04-12,2024-04-12,株式会社一羽工業,,株式会社,愛知県,名古屋市港区,明正１丁目１５２番地,,23,111,4550806,,,,,,,2024-04-12,1,,,,,イチワコウギョウ,0
796,3180001161003,新規,0,2024-04-12,2024-04-12,株式会社幸延,,株式会社,愛知県,江南市,北野町旭１２,,23,217,4838176,,,,,,,2024-04-12,1,,,,,コーエン,0
797,3180001161011,新規,0,2024-04-12,2024-04-12,株式会社Ａｒｔ　ａｎｄ　Ｓｍｉｌｅｓ,,株式会社,愛知県,知多郡東浦町,大字森岡字中町５２番地の１３,,23,442,4702101,,,,,,,2024-04-12,1,,,,,アートアンドスマイルズ,0
798,3180001161036,新規,0,2024-04-12,2024-04-12,株式会社野沢運送,,株式会社,愛知県,大府市,若草町４丁目３０６番地－３０３号,,23,223,4740022,,,,,,,2024-04-12,1,,,,,ノザワウンソウ,0
803,3180005020592,新規,0,2024-04-12,2024-04-12,社会保険労務士法人南部労務管理事務所,,その他の設立登記法人,愛知県,名古屋市瑞穂区,萩山町３丁目３０番地,,23,108,4670011,,,,,,,2024-04-12,1,,,,,ナンブロウムカンリジムショ,0
820,3260003004647,新規,0,2024-04-12,2024-04-12,インフィニティ合同会社,,合同会社,岡山県,岡山市中区,円山５８番地１４－１０１,,33,102,7038271,,,,,,,2024-04-12,1,,,,,インフィニティ,0
824,3290001105287,新規,0,2024-04-12,2024-04-12,株式会社Ｃａｒ　Ｌｉｆｅ　ＯＫＩ,,株式会社,福岡県,糟屋郡宇美町,ゆりが丘６丁目８番１１号,,40,341,8112108,,,,,,,2024-04-12,1,,,,,カーライフオキ,0
825,3290001105295,新規,0,2024-04-12,2024-04-12,株式会社ユノキヤデザイン,,株式会社,福岡県,糟屋郡新宮町,美咲３丁目８番６号松風の杜Ａ３号,,40,345,8110121,,,,,,,2024-04-12,1,,,,,ユノキヤデザイン,0
826,3290001105386,新規,0,2024-04-12,2024-04-12,株式会社丸惣,,株式会社,福岡県,筑紫郡那珂川町,大字片縄７９８番地の１１４,,40,305,8111201,,,,,,,2024-04-12,1,,,,,,0
831,3290005019351,新規,0,2024-04-12,2024-04-12,大牟田市漁業協同組合,,その他の設立登記法人,福岡県,大牟田市,大字手鎌７７０番地８,,40,202,8360004,,,,,,福岡県大牟田市大字唐船字塩浜６５番地７三浦第一漁業協同組合（3290005012240）と福岡県大牟田市大字手鎌１９７８番地の７三浦海苔生産漁業協同組合（2290005012241）及び福岡県大牟田市大字手鎌７７０番地８新大牟田漁業協同組合（8290005012806）の合併により設立,2024-04-12,1,,,,,オオムタシ,0
852,3360003013893,新規,0,2024-04-12,2024-04-12,合同会社スパ,,合同会社,沖縄県,浦添市,仲西２丁目３－９,,47,208,9012125,,,,,,,2024-04-12,1,,,,,スパ,0
854,3370003006566,新規,0,2024-04-12,2024-04-12,合同会社Ａ‐ＮＥＷＳ,,合同会社,宮城県,仙台市若林区,二木字水神２番地,,04,103,9840845,,,,,,,2024-04-12,1,,,,,アニューズ,0
860,3380001034452,新規,0,2024-04-12,2024-04-12,株式会社柔,,株式会社,福島県,福島市,御山字三本松２９－２,,07,201,9608252,,,,,,,2024-04-12,1,,,,,ヤワラ,0
868,3420003002907,新規,0,2024-04-12,2024-04-12,合同会社ＨＯＳＥ,,合同会社,青森県,平川市,柏木町東田１００番地３,,02,210,0360104,,,,,,,2024-04-12,1,,,,,ホース,0
871,3430001091505,新規,0,2024-04-12,2024-04-12,株式会社ウレタン屋さん,,株式会社,北海道,夕張郡長沼町,本町北３丁目３番６号,,01,428,0691333,,,,,,,2024-04-12,1,,,,,ウレタンヤサン,0
877,3470001020146,新規,0,2024-04-12,2024-04-12,株式会社タナカ電工,,株式会社,香川県,丸亀市,川西町南甲２７番地２２,,37,202,7630092,,,,,,,2024-04-12,1,,,,,タナカデンコウ,0
881,3700150124830,新規,0,2024-04-12,2024-04-12,ｓｈｅｎｚｈｅｎｑｉｈａｏｃａｎｇｄｉａｎｚｉｋｅｊｉｙｏｕｘｉａｎｇｏｎｇｓｉ,,外国会社等,,,,,,,,Ａ３０５，Ａ／Ｂ　ｚｕｏ，Ｃｈｕａｎｇｊｉｎ１ｈａｏ，２８ｑｕ，ＤａｌａｎｇＳｈｅｑｕ，Ｘｉｎａｎｊｉｅｄａｏ，Ｂａｏａｎｑｕ，Ｓｈｅｎｚｈｅｎ，Ｇｕａｎｇｄｏｎｇ,,,,,,2024-04-12,1,,,,,シェンジェンチーハオツァンディエンズーコージーヨウシエンゴンスー,0
891,4010001243873,新規,0,2024-04-12,2024-04-12,株式会社ＹＪ　ＧＬＯＢＡＬ,,株式会社,東京都,中央区,日本橋２丁目２番３号ＲＩＳＨＥビルＵＣＦ４階,,13,102,1030027,,,,,,,2024-04-12,1,,,,,ワイジェーグローバル,0
892,4010001243881,新規,0,2024-04-12,2024-04-12,ＣＡＲＺＫＩ株式会社,,株式会社,東京都,文京区,本郷４丁目１６－６－１２０７号室,,13,105,1130033,,,,,,,2024-04-12,1,,,,,カズキ,0
895,4010003043405,新規,0,2024-04-12,2024-04-12,ＪＡＰＡＮＳＭＩＬＥ合同会社,,合同会社,東京都,中央区,日本橋室町１丁目１１番１２号日本橋水野ビル７階,,13,102,1030022,,,,,,,2024-04-12,1,,,,,ジャパンスマイル,0
896,4010003043454,新規,0,2024-04-12,2024-04-12,白馬ＭＬ合同会社２,,合同会社,東京都,千代田区,丸の内３丁目１番１号東京共同会計事務所内,,13,101,1000005,,,,,,,2024-04-12,1,,,,,ハクバエムエルツー,0
897,4010003043462,新規,0,2024-04-12,2024-04-12,ＴＥＳＳ・ＫＧＫエナジー１号合同会社,,合同会社,東京都,中央区,八重洲１丁目３番７号,,13,102,1030028,,,,,,,2024-04-12,1,,,,,テスケージーケイエナジーイチゴウ,0
898,4010003043487,新規,0,2024-04-12,2024-04-12,合同会社ＡＦＢＣ　Ｈｏｎｍａｃｈｉ,,合同会社,東京都,千代田区,丸の内３丁目１番１号東京共同会計事務所内,,13,101,1000005,,,,,,,2024-04-12,1,,,,,エーエフビーシーホンマチ,0
910,4010403032379,新規,0,2024-04-12,2024-04-12,Ｓ５合同会社,,合同会社,東京都,港区,六本木７丁目１８番１５号六本木７１８ビル１１階,,13,103,1060032,,,,,,,2024-04-12,1,,,,,エスファイブ,0
911,4010403032387,新規,0,2024-04-12,2024-04-12,Ｂｒｏａｄｗａｙ　Ｃｏｒｐｏｒａｔｉｏｎ合同会社,,合同会社,東京都,港区,白金６丁目３－１５－１００１,,13,103,1080072,,,,,,,2024-04-12,1,,,,,ブロードウェイコーポレーション,0
930,4011101106887,新規,0,2024-04-12,2024-04-12,ｔｗ株式会社,,株式会社,東京都,新宿区,西新宿６丁目１５番１‐３７０２号,,13,104,1600023,,,,,,,2024-04-12,1,,,,,ティーダブリュー,0
931,4011101106929,新規,0,2024-04-12,2024-04-12,株式会社ドットエム,,株式会社,東京都,新宿区,西新宿７丁目６－５グローリア初穂生沼ビル１００２号室,,13,104,1600023,,,,,,,2024-04-12,1,,,,,ドットエム,0
932,4011101106937,新規,0,2024-04-12,2024-04-12,Ｃ．Ｃｕｂｅｄ株式会社,,株式会社,東京都,新宿区,西新宿７丁目２０番１号,,13,104,1600023,,,,,,,2024-04-12,1,,,,,シーキューブ,0
933,4011103014270,新規,0,2024-04-12,2024-04-12,合同会社ＥＮ,,合同会社,東京都,新宿区,山吹町３４３－１２アーバンファースト５０２,,13,104,1620801,,,,,,,2024-04-12,1,,,,,エン,0
936,4011301029558,新規,0,2024-04-12,2024-04-12,ＨＩＭＡＷＡＲＩ　Ｃｏｎｓｕｌｔｉｎｇ株式会社,,株式会社,東京都,杉並区,上荻１丁目１８番１３号９０２,,13,115,1670043,,,,,,,2024-04-12,1,,,,,ヒマワリコンサルティング,0
937,4011301029566,新規,0,2024-04-12,2024-04-12,明秀株式会社,,株式会社,東京都,杉並区,成田西２丁目１番１１号Ｃ号棟,,13,115,1660016,,,,,,,2024-04-12,1,,,,,メイシュウ,0
938,4011303005128,新規,0,2024-04-12,2024-04-12,ＮＥＴＳ合同会社,,合同会社,東京都,杉並区,阿佐谷南１丁目１８番６号,,13,115,1660004,,,,,,,2024-04-12,1,,,,,ネッツ,0
943,4011501030539,新規,0,2024-04-12,2024-04-12,株式会社ＨｉＫＡＣＯＭ,,株式会社,東京都,荒川区,西日暮里５丁目１０番１３号,,13,118,1160013,,,,,,,2024-04-12,1,,,,,ヒカコム,0
945,4011601027682,新規,0,2024-04-12,2024-04-12,株式会社クラブポート,,株式会社,東京都,練馬区,北町１丁目２番３号,,13,120,1790081,,,,,,,2024-04-12,1,,,,,クラブポート,0
950,4011803006146,新規,0,2024-04-12,2024-04-12,合同会社アラタ,,合同会社,東京都,足立区,西新井栄町１丁目１９－３９－７０３,,13,121,1230843,,,,,,,2024-04-12,1,,,,,アラタ,0
951,4011803006179,新規,0,2024-04-12,2024-04-12,合同会社惠新,,合同会社,東京都,足立区,江北７丁目５－２,,13,121,1230872,,,,,,,2024-04-12,1,,,,,ケイシン,0
952,4012301013865,新規,0,2024-04-12,2024-04-12,株式会社恵希,,株式会社,東京都,町田市,忠生２丁目３番地１ビッグフォレスト５１４号室,,13,209,1940035,,,,,,,2024-04-12,1,,,,,ケイキ,0
954,4012805003263,新規,0,2024-04-12,2024-04-12,労働者協同組合くんぺる,,その他の設立登記法人,東京都,国立市,富士見台４丁目４１番地の１－２３２,,13,215,1860003,,,,,,,2024-04-12,1,,,,,クンペル,0
961,4020001156629,新規,0,2024-04-12,2024-04-12,株式会社フラワー,,株式会社,神奈川県,横浜市中区,桜木町１丁目１０１番１号クロスゲート７階,,14,104,2310062,,,,,,,2024-04-12,1,,,,,フラワー,0
962,4020001156686,新規,0,2024-04-12,2024-04-12,株式会社ｍｉｌｌｅ,,株式会社,神奈川県,横浜市神奈川区,白幡南町１９番１－４１３号,,14,102,2210073,,,,,,,2024-04-12,1,,,,,ミル,0
963,4020001156694,新規,0,2024-04-12,2024-04-12,萬福株式会社,,株式会社,神奈川県,横浜市中区,扇町１丁目２番地７プレジャー・ガーデン横浜関内３０２号室,,14,104,2310027,,,,,,,2024-04-12,1,,,,,マンフク,0
967,4020003025831,新規,0,2024-04-12,2024-04-12,ｔｒａｄｅｃａｒｒａｃｋ合同会社,,合同会社,神奈川県,横浜市都筑区,川和町１６７１番地,,14,118,2240057,,,,,,,2024-04-12,1,,,,,トレードキャラック,0
968,4020003025922,新規,0,2024-04-12,2024-04-12,合同会社ＦｉｎｄＸ,,合同会社,神奈川県,横浜市西区,北幸２丁目１０番４８号むつみビル３階,,14,103,2200004,,,,,,,2024-04-12,1,,,,,ファインドエックス,0
973,4021001081874,新規,0,2024-04-12,2024-04-12,株式会社ｃｉｅｌｌ,,株式会社,神奈川県,座間市,ひばりが丘４丁目１３番１１号,,14,216,2520003,,,,,,,2024-04-12,1,,,,,シエル,0
974,4021001081949,新規,0,2024-04-12,2024-04-12,株式会社マルデア,,株式会社,神奈川県,厚木市,上依知１４４４番地６,,14,212,2430801,,,,,,,2024-04-12,1,,,,,マルデア,0
982,4030001159804,新規,0,2024-04-12,2024-04-12,苗利合作株式会社,,株式会社,埼玉県,川口市,南前川２丁目１８番１６号２－３階,,11,203,3330846,,,,,,,2024-04-12,1,,,,,ミョウリコーペレーション,0
983,4030001159812,新規,0,2024-04-12,2024-04-12,株式会社フォレスト,,株式会社,埼玉県,越谷市,瓦曽根２丁目７－５７ハイツ越谷１１１,,11,222,3430821,,,,,,,2024-04-12,1,,,,,フォレスト,0
984,4030001159829,新規,0,2024-04-12,2024-04-12,スカイテック株式会社,,株式会社,埼玉県,上尾市,弁財１丁目１番１８－３８号,,11,219,3620076,,,,,,,2024-04-12,1,,,,,スカイテック,0
987,4030003024031,新規,0,2024-04-12,2024-04-12,合同会社谷斎,,合同会社,埼玉県,さいたま市西区,大字指扇領別所２９４番地１ブランドール指扇２０１,,11,101,3310073,,,,,,,2024-04-12,1,,,,,コクサイ,0
988,4030003024048,新規,0,2024-04-12,2024-04-12,合同会社ＪＡＭＥＳ,,合同会社,埼玉県,所沢市,松葉町２６番２号,,11,208,3590044,,,,,,,2024-04-12,1,,,,,ジェイムス,0
989,4030003024056,新規,0,2024-04-12,2024-04-12,合同会社ワラウカドニハ,,合同会社,埼玉県,所沢市,大字山口６２１番地の１,,11,208,3591145,,,,,,,2024-04-12,1,,,,,ワラウカドニハ,0
993,4040001133007,新規,0,2024-04-12,2024-04-12,スタートホーム株式会社,,株式会社,千葉県,市川市,鬼越１丁目３番１２号,,12,203,2720022,,,,,,,2024-04-12,1,,,,,スタートホーム,0
994,4040001133056,新規,0,2024-04-12,2024-04-12,株式会社ＴＹ開発,,株式会社,千葉県,我孫子市,布佐９６５番地,,12,222,2701101,,,,,,,2024-04-12,1,,,,,ティーワイカイハツ,0
1003,4050001054615,新規,0,2024-04-12,2024-04-12,株式会社谷口電設,,株式会社,茨城県,北相馬郡利根町,大字布川３４４５番地１,,08,564,3001622,,,,,,,2024-04-12,1,,,,,タニグチデンセツ,0
1011,4070003005366,新規,0,2024-04-12,2024-04-12,合同会社オヤコウコウ,,合同会社,群馬県,伊勢崎市,鹿島町４８４番地３,,10,204,3720015,,,,,,,2024-04-12,1,,,,,オヤコウコウ,0
1014,4080401027119,新規,0,2024-04-12,2024-04-12,株式会社ＨＡＲＡＳＯＫＥＮ,,株式会社,静岡県,浜松市中央区,河輪町５１９番地の２,,22,138,4300823,,,,,,,2024-04-12,1,,,,,ハラソウケン,0
1017,4090001018649,新規,0,2024-04-12,2024-04-12,株式会社ＩＳ　ＴＯＯＬ,,株式会社,山梨県,北杜市,小淵沢町上笹尾１８７番地１５２,,19,209,4080041,,,,,,,2024-04-12,1,,,,,アイエスツール,0
1021,4100005013157,新規,0,2024-04-12,2024-04-12,ＮＰＯ法人あぐり奈川,,その他の設立登記法人,長野県,松本市,奈川２４９０番地,,20,202,3901611,,,,,,,2024-04-12,1,,,,,アグリナガワ,0
1023,4110005017074,新規,0,2024-04-12,2024-04-12,胎内市商工会,,その他の設立登記法人,新潟県,胎内市,新和町２番５号,,15,227,9592642,,,,,,新潟県胎内市新和町２番５号中条町商工会（8110005004639）と新潟県胎内市黒川１１０６番地１３黒川商工会（4110005004634）の合併により設立,2024-04-12,1,,,,,タイナイシ,0
1032,4120001263976,新規,0,2024-04-12,2024-04-12,株式会社クリニカルアートメイク,,株式会社,大阪府,大阪市西区,新町１丁目２８番３号四ツ橋グランスクエア,,27,106,5500013,,,,,,,2024-04-12,1,,,,,クリニカルアートメイク,0
1033,4120001263992,新規,0,2024-04-12,2024-04-12,株式会社大輪,,株式会社,大阪府,大阪市西成区,天下茶屋北２丁目５－４,,27,122,5570003,,,,,,,2024-04-12,1,,,,,ダイワ,0
1034,4120001264009,新規,0,2024-04-12,2024-04-12,株式会社ＨＡＮＡ,,株式会社,大阪府,大阪市中央区,船場中央３丁目２船場センタービル８号館２Ｆ北通り２１３西,,27,128,5410055,,,,,,,2024-04-12,1,,,,,ハナ,0
1035,4120001264017,新規,0,2024-04-12,2024-04-12,株式会社ｒｏｏｔｓ,,株式会社,大阪府,大阪市北区,豊崎３丁目１８番３－３４０８号,,27,127,5310072,,,,,,,2024-04-12,1,,,,,ルーツ,0
1036,4120001264025,新規,0,2024-04-12,2024-04-12,株式会社優薫,,株式会社,大阪府,大阪市淀川区,新北野２丁目２番１７号,,27,123,5320025,,,,,,,2024-04-12,1,,,,,ユウカ,0
1037,4120003026357,新規,0,2024-04-12,2024-04-12,ｈｅｍｉｚ．合同会社,,合同会社,大阪府,大阪市中央区,安土町２丁目３－１３大阪国際ビルディング３１階,,27,128,5410052,,,,,,,2024-04-12,1,,,,,ヘミズ,0
1052,4140003020416,新規,0,2024-04-12,2024-04-12,合同会社コトカデザイン,,合同会社,兵庫県,西宮市,池田町９－７－１３０６,,28,204,6620911,,,,,,,2024-04-12,1,,,,,コトカデザイン,0
1056,4150001027222,新規,0,2024-04-12,2024-04-12,株式会社ｐｉｖｏｔ,,株式会社,奈良県,天理市,柳本町１３２０番地７,,29,204,6320052,,,,,,,2024-04-12,1,,,,,ピボット,0
1058,4150003003221,新規,0,2024-04-12,2024-04-12,ＳＨＡＨ　ＴＲＡＤＩＮＧ合同会社,,合同会社,奈良県,大和高田市,大字市場７９４－１０中町マンションＢ棟１０３号,,29,202,6350074,,,,,,,2024-04-12,1,,,,,シャートレーディング,0
1071,4180001160937,新規,0,2024-04-12,2024-04-12,株式会社ＡｌｌＤｅｐｌｏ,,株式会社,愛知県,名古屋市中村区,畑江通９丁目３３番地の１,,23,105,4530851,,,,,,,2024-04-12,1,,,,,オールデプロ,0
1077,4180003026624,新規,0,2024-04-12,2024-04-12,合同会社ＳＫ,,合同会社,愛知県,名古屋市緑区,大清水５丁目６０９番地,,23,114,4580805,,,,,,,2024-04-12,1,,,,,エスケイ,0
1078,4180003026649,新規,0,2024-04-12,2024-04-12,ワイアセット合同会社,,合同会社,愛知県,瀬戸市,ひまわり台２丁目４７番地の１,,23,204,4890981,,,,,,,2024-04-12,1,,,,,ワイアセット,0
1080,4180005020591,新規,0,2024-04-12,2024-04-12,社会保険労務士法人名北事務所,,その他の設立登記法人,愛知県,名古屋市中区,伊勢山２丁目５番１０号,,23,106,4600026,,,,,,,2024-04-12,1,,,,,メイホクジムショ,0
1084,4180305009566,新規,0,2024-04-12,2024-04-12,医療法人三河皮膚科,,その他の設立登記法人,愛知県,高浜市,小池町５丁目７番地５,,23,227,4441303,,,,,,,2024-04-12,1,,,,,ミカワヒフカ,0
1088,4220003003726,新規,0,2024-04-12,2024-04-12,合同会社Ｐｉｇｇｙｂａｎｋ,,合同会社,石川県,金沢市,金石下寺町１番１５号,,17,201,9200315,,,,,,,2024-04-12,1,,,,,ピギィバンク,0
1090,4240003006603,新規,0,2024-04-12,2024-04-12,合同会社ＭＩＺＵＧＡＳＡＫＯ,,合同会社,広島県,福山市,神村町２４２０－１,,34,207,7290112,,,,,,,2024-04-12,1,,,,,ミズガサコ,0
1096,4290001105344,新規,0,2024-04-12,2024-04-12,株式会社Ｉｗａｓｈｏ,,株式会社,福岡県,糟屋郡篠栗町,津波黒３丁目６－２０,,40,342,8112415,,,,,,,2024-04-12,1,,,,,イワショウ,0
1097,4290001105360,新規,0,2024-04-12,2024-04-12,板橋電設株式会社,,株式会社,福岡県,福津市,若木台６丁目１５番１５号,,40,224,8113221,,,,,,,2024-04-12,1,,,,,,0
1098,4290001105377,新規,0,2024-04-12,2024-04-12,株式会社ＡＲＫＳ,,株式会社,福岡県,福岡市東区,高美台２丁目５０番５－１０４号,,40,131,8110215,,,,,,,2024-04-12,1,,,,,アークス,0
1099,4290001105385,新規,0,2024-04-12,2024-04-12,株式会社スケールゲート,,株式会社,福岡県,福岡市中央区,薬院３丁目１６－２６西鉄薬院ビル５Ｆ,,40,133,8100022,,,,,,,2024-04-12,1,,,,,スケールゲート,0
1100,4290003015161,新規,0,2024-04-12,2024-04-12,合同会社４４６,,合同会社,福岡県,福岡市南区,大楠３丁目１２番１３号,,40,134,8150082,,,,,,,2024-04-12,1,,,,,ヨンヨンロク,0
1102,4290005019342,新規,0,2024-04-12,2024-04-12,一般社団法人地域経営デザイン協会,,その他の設立登記法人,福岡県,糟屋郡粕屋町,花ヶ浦３丁目７番６－１０２号,,40,349,8112310,,,,,,,2024-04-12,1,,,,,チイキケイエイデザインキョウカイ,0
1107,4330001031965,新規,0,2024-04-12,2024-04-12,株式会社アグリテクノル研究所,,株式会社,熊本県,熊本市西区,田崎１丁目３番６０－５０８号,,43,103,8600053,,,,,,,2024-04-12,1,,,,,アグリテクノルケンキュウショ,0
1108,4330003010307,新規,0,2024-04-12,2024-04-12,Ｈａｙａｔ　Ｔｒａｄｉｎｇ　Ｃｏｍｐａｎｙ合同会社,,合同会社,熊本県,宇城市,松橋町浦川内１２番地１１土田貸家３号,,43,213,8690521,,,,,,,2024-04-12,1,,,,,ハイヤットトレーディング,0
1115,4360001033505,新規,0,2024-04-12,2024-04-12,まじむじ食品株式会社,,株式会社,沖縄県,うるま市,勝連浜２５８番地６,,47,213,9042315,,,,,,,2024-04-12,1,,,,,マジムジショクヒン,0
1119,4370001051142,新規,0,2024-04-12,2024-04-12,株式会社八洲ホールディングス,,株式会社,宮城県,仙台市青葉区,花京院２丁目１番６１号オークツリー仙台３階,,04,101,9800013,,,,,,,2024-04-12,1,,,,,ヤシマホールディングス,0
1122,4380001034451,新規,0,2024-04-12,2024-04-12,株式会社ＭＩＮＯＤＥＮ,,株式会社,福島県,福島市,中町７－１８,,07,201,9608043,,,,,,,2024-04-12,1,,,,,ミノデン,0
1129,4420005007894,新規,0,2024-04-12,2024-04-12,一般社団法人大平山元遺跡もりあげ隊,,その他の設立登記法人,青森県,東津軽郡外ヶ浜町,字蟹田大平沢辺４６番地４,,02,307,0301307,,,,,,,2024-04-12,1,,,,,オオダイヤマモトイセキモリアゲタイ,0
1133,4430001091454,新規,0,2024-04-12,2024-04-12,株式会社ｐｉａｎｏ,,株式会社,北海道,札幌市清田区,里塚三条２丁目１番６号,,01,110,0040803,,,,,,,2024-04-12,1,,,,,ピアーノ,0
1134,4430001091470,新規,0,2024-04-12,2024-04-12,株式会社ホリオプラスアーキコード,,株式会社,北海道,札幌市中央区,南十条西１５丁目３番６号,,01,101,0640810,,,,,,,2024-04-12,1,,,,,ホリオプラスアーキコード,0
1138,4460303000820,新規,0,2024-04-12,2024-04-12,合同会社Ｎｏｒｔｈ・Ｄｒｅａｍ,,合同会社,北海道,網走市,南三条東１丁目９番地１,,01,211,0930003,,,,,,,2024-04-12,1,,,,,ノースドリーム,0
1140,4480001012439,新規,0,2024-04-12,2024-04-12,株式会社グロスター,,株式会社,徳島県,海部郡海陽町,大里字松ノ本６４番地,,36,388,7750203,,,,,,,2024-04-12,1,,,,,グロスター,0
1148,4500003003219,新規,0,2024-04-12,2024-04-12,ＳＴＹ産業合同会社,,合同会社,愛媛県,松山市,中村４丁目７番１５号,,38,201,7900964,,,,,,,2024-04-12,1,,,,,,0
1158,5010001243823,新規,0,2024-04-12,2024-04-12,株式会社ベルディレクション,,株式会社,東京都,中央区,銀座６丁目６－１銀座風月堂ビル５Ｆ,,13,102,1040061,,,,,,,2024-04-12,1,,,,,ベルディレクション,0
1159,5010001243897,新規,0,2024-04-12,2024-04-12,春花貿易株式会社,,株式会社,東京都,千代田区,岩本町２丁目１７－４,,13,101,1010032,,,,,,,2024-04-12,1,,,,,ハルカボウエキ,0
1160,5010001243922,新規,0,2024-04-12,2024-04-12,株式会社Ｄ．Ｓ．Ｒ,,株式会社,東京都,千代田区,九段南１丁目５番６号りそな九段ビル５階ＫＳフロア３３２０,,13,101,1020074,,,,,,,2024-04-12,1,,,,,ディーエスアーエル,0
1164,5010005038146,新規,0,2024-04-12,2024-04-12,一般社団法人東京呼吸器外科・肺移植振興会,,その他の設立登記法人,東京都,千代田区,神田須田町２丁目２５番,,13,101,1010041,,,,,,,2024-04-12,1,,,,,トウキョウコキュウキゲカハイイショクシンコウカイ,0
1165,5010005038154,新規,0,2024-04-12,2024-04-12,一般社団法人ＮｉＣＨＩ,,その他の設立登記法人,東京都,千代田区,富士見１丁目３番１１号富士見デュープレックスＢ′ｓ４Ｆ,,13,101,1020071,,,,,,,2024-04-12,1,,,,,ニチ,0
1175,5010401181739,新規,0,2024-04-12,2024-04-12,株式会社アークエナジー,,株式会社,東京都,港区,虎ノ門１丁目１７番１号虎ノ門ヒルズビジネスタワー１５階,,13,103,1050001,,,,,,,2024-04-12,1,,,,,アークエナジー,0
1176,5010401181747,新規,0,2024-04-12,2024-04-12,株式会社４８,,株式会社,東京都,港区,赤坂９丁目１番２８号,,13,103,1070052,,,,,,,2024-04-12,1,,,,,ヨンジュウハチ,0
1178,5010405023136,新規,0,2024-04-12,2024-04-12,一般社団法人日本関係人口協会,,その他の設立登記法人,東京都,港区,赤坂２丁目９番３号,,13,103,1070052,,,,,,,2024-04-12,1,,,,,ニホンカンケイジンコウキョウカイ,0
1180,5010501052113,新規,0,2024-04-12,2024-04-12,株式会社ターンオーバー,,株式会社,東京都,台東区,鳥越１丁目１１番３号渡辺ビル２０１,,13,106,1110054,,,,,,,2024-04-12,1,,,,,ターンオーバー,0
1182,5010601064999,新規,0,2024-04-12,2024-04-12,株式会社Ｃｈａｎｇｅ．Ｂ,,株式会社,東京都,江東区,木場３丁目１８－２－１２０７,,13,108,1350042,,,,,,,2024-04-12,1,,,,,チェンジビー,0
1183,5010603010761,新規,0,2024-04-12,2024-04-12,合同会社セブンバー,,合同会社,東京都,江東区,佐賀１丁目１６－８－２０６,,13,108,1350031,,,,,,,2024-04-12,1,,,,,セブンバー,0
1192,5011001161263,新規,0,2024-04-12,2024-04-12,株式会社ＴＡＫＵＲＯＣＫ,,株式会社,東京都,渋谷区,円山町５番５号Ｎａｖｉ渋谷Ｖ３階,,13,113,1500044,,,,,,,2024-04-12,1,,,,,タクロック,0
1193,5011001161271,新規,0,2024-04-12,2024-04-12,Ｂｌｕｅ　Ｃａｍｅｌｌｉａ株式会社,,株式会社,東京都,目黒区,下目黒２丁目２３番２１－７０２号ザマジェスティコート目黒,,13,110,1530064,,,,,,,2024-04-12,1,,,,,ブルーカメリア,0
1195,5011003018908,新規,0,2024-04-12,2024-04-12,ＯＮＩＯＮ　ＡＬＬ　ＳＴＡＲＳ合同会社,,合同会社,東京都,目黒区,自由が丘２丁目１６－１２ＲＪ３,,13,110,1520035,,,,,,,2024-04-12,1,,,,,オニオンオールスターズ,0
1205,5011101106928,新規,0,2024-04-12,2024-04-12,株式会社人材トータルサポート,,株式会社,東京都,新宿区,新宿４丁目３番１５号レイフラット新宿Ｂ棟３Ｆ,,13,104,1600022,,,,,,,2024-04-12,1,,,,,ジンザイトータルサポート,0
1206,5011101106944,新規,0,2024-04-12,2024-04-12,ＸＴＥＫ株式会社,,株式会社,東京都,新宿区,西新宿３丁目３番１３号西新宿水間ビル２Ｆ,,13,104,1600023,,,,,,,2024-04-12,1,,,,,エクステック,0
1207,5011101106960,新規,0,2024-04-12,2024-04-12,株式会社レッセフェール,,株式会社,東京都,新宿区,西新宿３丁目３番１３号西新宿水間ビル６階,,13,104,1600023,,,,,,,2024-04-12,1,,,,,レッセフェール,0
1208,5011103014311,新規,0,2024-04-12,2024-04-12,うぃんくる合同会社,,合同会社,東京都,新宿区,西新宿３丁目３番１３号西新宿水間ビル６階,,13,104,1600023,,,,,,,2024-04-12,1,,,,,ウィンクル,0
1211,5011301029565,新規,0,2024-04-12,2024-04-12,翰徳株式会社,,株式会社,東京都,杉並区,成田西２丁目１番１１号Ｃ号棟,,13,115,1660016,,,,,,,2024-04-12,1,,,,,カントク,0
1212,5011303005127,新規,0,2024-04-12,2024-04-12,Ｒｈｏｍｂｕｓ　Ｊａｐａｎ合同会社,,合同会社,東京都,杉並区,永福２丁目２２番１０号２０２,,13,115,1680064,,,,,,,2024-04-12,1,,,,,ロンバスジャパン,0
1215,5011401026017,新規,0,2024-04-12,2024-04-12,ＹＪＹ株式会社,,株式会社,東京都,板橋区,赤塚新町２丁目１５番２２号,,13,119,1750093,,,,,,,2024-04-12,1,,,,,ワイジェイワイ,0
1216,5011403004326,新規,0,2024-04-12,2024-04-12,合同会社Ｌｉｂｅｒｔｙ,,合同会社,東京都,板橋区,南常盤台１丁目１１－６レフア南常盤台１０１号室,,13,119,1740072,,,,,,,2024-04-12,1,,,,,リバティ,0
1217,5011403004334,新規,0,2024-04-12,2024-04-12,ＭＩＮＨ　ＴＨＩＮＨ合同会社,,合同会社,東京都,板橋区,板橋２丁目９番９号セントラルハイツ５Ｆ－１５,,13,119,1730004,,,,,,,2024-04-12,1,,,,,ミンティン,0
1218,5011501030513,新規,0,2024-04-12,2024-04-12,株式会社ライフメイトベッツ,,株式会社,東京都,北区,西が丘１丁目４５番３号,,13,117,1150056,,,,,,,2024-04-12,1,,,,,ライフメイトベッツ,0
1220,5011803006178,新規,0,2024-04-12,2024-04-12,キープアップ合同会社,,合同会社,東京都,葛飾区,西水元６丁目１５番地６,,13,122,1250031,,,,,,,2024-04-12,1,,,,,キープアップ,0
1222,5012403006485,新規,0,2024-04-12,2024-04-12,合同会社ｄｅｄｎｉｓａ,,合同会社,東京都,調布市,下石原３丁目２－７平田ビル２ＦＮ６,,13,208,1820034,,,,,,,2024-04-12,1,,,,,デドニサ,0
1232,5013301052340,新規,0,2024-04-12,2024-04-12,ＮＧＷＥ　ＺＩＮ　ＹＡＷ株式会社,,株式会社,東京都,豊島区,西池袋３丁目３０－１１泰共フラットビル４１１,,13,116,1710021,,,,,,,2024-04-12,1,,,,,グエージンヨー,0
1233,5013301052349,新規,0,2024-04-12,2024-04-12,福立株式会社,,株式会社,東京都,豊島区,南大塚３丁目３８番１４－２０２号室,,13,116,1700005,,,,,,,2024-04-12,1,,,,,フクリツ,0
1236,5020001156628,新規,0,2024-04-12,2024-04-12,株式会社Ａｍａｎｅｋｕ,,株式会社,神奈川県,横浜市中区,桜木町１丁目１０１－１クロスゲート７階,,14,104,2310062,,,,,,,2024-04-12,1,,,,,アマネク,0
1237,5020001156644,新規,0,2024-04-12,2024-04-12,株式会社かわさきくらぶ,,株式会社,神奈川県,川崎市川崎区,東田町２番地２地下１階,,14,131,2100005,,,,,,,2024-04-12,1,,,,,カワサキクラブ,0
1238,5020001156685,新規,0,2024-04-12,2024-04-12,株式会社パイオニアデザイン,,株式会社,神奈川県,横浜市神奈川区,白幡仲町１８番２６号,,14,102,2210071,,,,,,,2024-04-12,1,,,,,パイオニアデザイン,0
1239,5020001156702,新規,0,2024-04-12,2024-04-12,アプラスト建築設計株式会社,,株式会社,神奈川県,横浜市西区,北幸２丁目１０番４８号むつみビル３階,,14,103,2200004,,,,,,,2024-04-12,1,,,,,アプラストケンチクセッケイ,0
1240,5020001156719,新規,0,2024-04-12,2024-04-12,株式会社純愛,,株式会社,神奈川県,川崎市麻生区,万福寺１丁目１５番１－５０６号,,14,137,2150004,,,,,,,2024-04-12,1,,,,,ジュンアイ,0
1245,5020003025839,新規,0,2024-04-12,2024-04-12,合同会社Ｙ＆Ｆサービス,,合同会社,神奈川県,川崎市多摩区,枡形３丁目６番５号,,14,135,2140032,,,,,,,2024-04-12,1,,,,,ワイアンドエフサービス,0
1251,5021001081865,新規,0,2024-04-12,2024-04-12,株式会社プロメディック看護,,株式会社,神奈川県,相模原市南区,相模台２丁目２番２号ガーデンビルＩＩ３階フェルゴ内,00134388,14,153,2520321,,,,,,,2024-04-12,1,,,,,プロメディックカンゴ,0
1252,5021001081964,新規,0,2024-04-12,2024-04-12,株式会社カーレッジ,,株式会社,神奈川県,小田原市,西大友３１９番地,,14,206,2500212,,,,,,,2024-04-12,1,,,,,カーレッジ,0
1263,5030001159778,新規,0,2024-04-12,2024-04-12,株式会社のぞみ,,株式会社,埼玉県,鴻巣市,屈巣２７４４－２,,11,217,3650014,,,,,,,2024-04-12,1,,,,,,0
1264,5030001159786,新規,0,2024-04-12,2024-04-12,株式会社ファンムーブ,,株式会社,埼玉県,桶川市,鴨川１丁目１番３５号シャトーふじ２０１号,,11,231,3630024,,,,,,,2024-04-12,1,,,,,ファンムーブ,0
1265,5030001159803,新規,0,2024-04-12,2024-04-12,株式会社Ｒｅマイスター,,株式会社,埼玉県,富士見市,ふじみ野東３丁目１番地１０,,11,235,3540036,,,,,,,2024-04-12,1,,,,,リマイスター,0
1267,5030003024006,新規,0,2024-04-12,2024-04-12,Ｙ＆Ｔ合同会社,,合同会社,埼玉県,北本市,東間４丁目４８番地,,11,233,3640007,,,,,,,2024-04-12,1,,,,,ワイアンドティー,0
1268,5030003024039,新規,0,2024-04-12,2024-04-12,Ｊｏｎｃｏｎａｎ　Ｔｅｃｈ合同会社,,合同会社,埼玉県,川越市,郭町２丁目１４番地５５,,11,201,3500053,,,,,,,2024-04-12,1,,,,,ジョンコナンテック,0
1269,5030003024047,新規,0,2024-04-12,2024-04-12,ＶＳＫ合同会社,,合同会社,埼玉県,川口市,西川口１丁目３０番２０－４０９号室,,11,203,3320021,,,,,,,2024-04-12,1,,,,,ブイエスケー,0
1270,5030003024055,新規,0,2024-04-12,2024-04-12,合同会社ＳＤＫ,,合同会社,埼玉県,春日部市,本田町２丁目９５－１－１０１,,11,214,3440016,,,,,,,2024-04-12,1,,,,,エスディーケー,0
1271,5030003024063,新規,0,2024-04-12,2024-04-12,合同会社サム,,合同会社,埼玉県,さいたま市南区,文蔵３丁目２８－１１杉谷ビル３Ｆ,,11,108,3360025,,,,,,,2024-04-12,1,,,,,サム,0
1274,5040001133006,新規,0,2024-04-12,2024-04-12,株式会社Ａｄｓｃｅｅｄ,,株式会社,千葉県,柏市,若柴１６４番地４中央１５３街区８メゾンドフィーユ１０１号,,12,217,2770871,,,,,,,2024-04-12,1,,,,,アドシード,0
1275,5040001133096,新規,0,2024-04-12,2024-04-12,株式会社サングッド,,株式会社,千葉県,四街道市,もねの里６丁目１１－３５,,12,228,2840016,,,,,,,2024-04-12,1,,,,,サングッド,0
1276,5040003024748,新規,0,2024-04-12,2024-04-12,ＡＬＩＮＡ合同会社,,合同会社,千葉県,船橋市,二子町４８８番地２サダヒロマンション２号館２０３号,,12,204,2730034,,,,,,,2024-04-12,1,,,,,アリナ,0
1277,5040003024756,新規,0,2024-04-12,2024-04-12,ＴＳリフォーム合同会社,,合同会社,千葉県,市川市,柏井町４丁目５１３－８６,,12,203,2720802,,,,,,,2024-04-12,1,,,,,ティーエスリフォーム,0
1284,5050001054622,新規,0,2024-04-12,2024-04-12,ヤガイキカク株式会社,,株式会社,茨城県,龍ケ崎市,佐貫３丁目２番地２,,08,208,3010032,,,,,,,2024-04-12,1,,,,,,0
1287,5050003008279,新規,0,2024-04-12,2024-04-12,宮和田物流サービス合同会社,,合同会社,茨城県,取手市,宮和田２８６１番地エターナル２０１,,08,217,3001514,,,,,,,2024-04-12,1,,,,,ミヤワダブツリュウサービス,0
1288,5050003008287,新規,0,2024-04-12,2024-04-12,合同会社ＵｌｔｒａＭａｒｉｎｅ,,合同会社,茨城県,水戸市,元吉田町字一本松２３４―８,,08,201,3100836,,,,,,,2024-04-12,1,,,,,ウルトラマリン,0
1291,5070001041569,新規,0,2024-04-12,2024-04-12,堀合総建株式会社,,株式会社,群馬県,高崎市,十文字町４３８番地９,,10,202,3703331,,,,,,,2024-04-12,1,,,,,ホリアイソウケン,0
1292,5070001041627,新規,0,2024-04-12,2024-04-12,株式会社矢弓組,,株式会社,群馬県,太田市,下浜田町６６番地４ルーチェカーサ２０２,,10,205,3730821,,,,,,,2024-04-12,1,,,,,ヤユミグミ,0
1294,5070003005365,新規,0,2024-04-12,2024-04-12,合同会社ＨＴ電子,,合同会社,群馬県,太田市,飯田町７５６,,10,205,3730851,,,,,,,2024-04-12,1,,,,,エイチティデンシ,0
1296,5080103003037,新規,0,2024-04-12,2024-04-12,合同会社Ｏｒｉｇｉｎａｌ　Ｓｔａｔｉｏｎ,,合同会社,静岡県,富士市,今泉３６９８番地の２０,,22,210,4170001,,,,,,,2024-04-12,1,,,,,オリジナルステーション,0
1297,5080401027118,新規,0,2024-04-12,2024-04-12,ケイエス株式会社,,株式会社,静岡県,浜松市中央区,原島町１６１番地,,22,138,4350047,,,,,,,2024-04-12,1,,,,,ケイエス,0
1301,5090003002542,新規,0,2024-04-12,2024-04-12,合同会社リレイ,,合同会社,山梨県,甲斐市,篠原１６６８番地深沢住宅４,,19,210,4000115,,,,,,,2024-04-12,1,,,,,リレイ,0
1302,5090003002550,新規,0,2024-04-12,2024-04-12,合同会社Ｗｉｎｓ,,合同会社,山梨県,甲府市,上石田２丁目１－５、１－１０８,,19,201,4000041,,,,,,,2024-04-12,1,,,,,ウィンズ,0
1319,5120001263975,新規,0,2024-04-12,2024-04-12,九門商事株式会社,,株式会社,大阪府,大阪市淀川区,西中島５丁目７番１７号ビジネスヴィップ第２新大阪４０６号室,,27,123,5320011,,,,,,,2024-04-12,1,,,,,キュウモンショウジ,0
1320,5120001263983,新規,0,2024-04-12,2024-04-12,鴻楽株式会社,,株式会社,大阪府,大阪市中央区,北久宝寺町１丁目５－６堺筋本町アーバンライフ７０７号,,27,128,5410057,,,,,,,2024-04-12,1,,,,,コウラク,0
1321,5120001263991,新規,0,2024-04-12,2024-04-12,株式会社璞ＡＲＡＴＡＭＡ,,株式会社,大阪府,寝屋川市,田井町２番１号,,27,215,5720021,,,,,,,2024-04-12,1,,,,,アラタマアラタマ,0
1322,5120001264008,新規,0,2024-04-12,2024-04-12,晟恒閣株式会社,00134384,株式会社,大阪府,大阪市生野区,中川３丁目４番１７号３０４室,,27,116,5440005,,,,,,,2024-04-12,1,,,,,セイコウカク,0
1326,5120101069406,新規,0,2024-04-12,2024-04-12,株式会社エスワークス,,株式会社,大阪府,富田林市,藤沢台６丁目２０番１０号,,27,214,5840071,,,,,,,2024-04-12,1,,,,,エスワークス,0
1329,5120901049029,新規,0,2024-04-12,2024-04-12,株式会社ルイ,,株式会社,大阪府,豊中市,庄内東町２丁目７－１７メゾンサプリーム２１４,,27,203,5610831,,,,,,,2024-04-12,1,,,,,ルイ,0
1333,5122003002857,新規,0,2024-04-12,2024-04-12,合同会社ＧＥＮ,,合同会社,大阪府,東大阪市,御厨東２丁目１０番４２号,,27,227,5770033,,,,,,,2024-04-12,1,,,,,ゲン,0
1335,5130001076798,新規,0,2024-04-12,2024-04-12,株式会社ＭＩＮＥ,,株式会社,京都府,宇治市,槇島町薗場３５－１１,,26,204,6110041,,,,,,,2024-04-12,1,,,,,ミネ,0
1342,5140001134027,新規,0,2024-04-12,2024-04-12,縁起でもない株式会社,,株式会社,兵庫県,神戸市垂水区,名谷町字寺池１５０８番地－５０１号,,28,108,6550852,,,,,,,2024-04-12,1,,,,,エンギデモナイ,0
1343,5140003020415,新規,0,2024-04-12,2024-04-12,ＴＭＩ合同会社,,合同会社,兵庫県,神戸市北区,藤原台北町２丁目２番７号,,28,109,6511301,,,,,,,2024-04-12,1,,,,,ティーエムアイ,0
1348,5140005027037,新規,0,2024-04-12,2024-04-12,一般社団法人哲学を遊ぶ協会,,その他の設立登記法人,兵庫県,宝塚市,中山台１丁目２２番１号,,28,214,6650876,,,,,,,2024-04-12,1,,,,,テツガクヲアソブキョウカイ,0
1355,5170003002022,新規,0,2024-04-12,2024-04-12,合同会社ＶＩＲＴＵＥ,,合同会社,和歌山県,田辺市,新庄町２６１１番地の１４０,,30,206,6460011,,,,,,,2024-04-12,1,,,,,ヴァーチュー,0
1360,5180001161026,新規,0,2024-04-12,2024-04-12,株式会社めいほく労務センター,,株式会社,愛知県,名古屋市中村区,太閤３丁目１番１８号,,23,105,4530801,,,,,,,2024-04-12,1,,,,,メイホクロウムセンター,0
1361,5180001161042,新規,0,2024-04-12,2024-04-12,株式会社Ｉｎｔｅｒａｃｔｉｏｎ,,株式会社,愛知県,名古屋市西区,名駅２丁目３４番１７号セントラル名古屋１１０１号,,23,104,4510045,,,,,,,2024-04-12,1,,,,,インタラクション,0
1363,5180003026623,新規,0,2024-04-12,2024-04-12,合同会社かなた,,合同会社,愛知県,名古屋市守山区,大字上志段味字上島７５４番地の６,,23,113,4630001,,,,,,,2024-04-12,1,,,,,カナタ,0
1364,5180003026648,新規,0,2024-04-12,2024-04-12,合同会社Ｒｅ‐ｎｏｉｅ,,合同会社,愛知県,津島市,兼平町２丁目５５番地,,23,208,4960812,,,,,,,2024-04-12,1,,,,,リノイエ,0
1365,5180005020590,新規,0,2024-04-12,2024-04-12,ＩＳＯ土地家屋調査士法人磯崎事務所,,その他の設立登記法人,愛知県,瀬戸市,共栄通１丁目６番地,,23,204,4890809,,,,,,,2024-04-12,1,,,,,アイエスオーイソザキジムショ,0
1367,5180301038510,新規,0,2024-04-12,2024-04-12,株式会社ｍｄｃ,,株式会社,愛知県,豊川市,馬場町宮脇１７５番地,,23,207,4420811,,,,,,,2024-04-12,1,,,,,エムディーシー,0
1368,5180303006077,新規,0,2024-04-12,2024-04-12,ＰＲＯＭＡＲＴ　Ａｕｔｏｍｏｂｉｌｅ合同会社,,合同会社,愛知県,豊田市,加納町南荒子４６番地１,,23,211,4700364,,,,,,,2024-04-12,1,,,,,プロマートオートモバイル,0
1370,5190003004644,新規,0,2024-04-12,2024-04-12,合同会社ＲＥＶＡＬＵＥ,,合同会社,三重県,四日市市,西坂部町８８７番地,,24,202,5120913,,,,,,,2024-04-12,1,,,,,レヴァリュー,0
1376,5200005013600,新規,0,2024-04-12,2024-04-12,医療法人蒼玉会,,その他の設立登記法人,岐阜県,岐阜市,大福町６丁目１８番地１,,21,201,5020934,,,,,,,2024-04-12,1,,,,,セイギョクカイ,0
1380,5240001063083,新規,0,2024-04-12,2024-04-12,ＫＯＫＡＧＥ　Ａｌｌｉａｎｃｅ株式会社,,株式会社,広島県,広島市西区,古江西町１３番２６－１号,,34,104,7330874,,,,,,,2024-04-12,1,,,,,コカゲアライアンス,0
1386,5250001020604,新規,0,2024-04-12,2024-04-12,株式会社メディモニー,,株式会社,山口県,宇部市,浜町２丁目６番２号,,35,202,7550065,,,,,,,2024-04-12,1,,,,,メディモニー,0
1393,5290001105302,新規,0,2024-04-12,2024-04-12,株式会社ＳＡＮＫＹＯ,,株式会社,福岡県,久留米市,津福今町４７７番地９６－７－３０２号,,40,203,8300061,,,,,,,2024-04-12,1,,,,,サンキョー,0
1394,5290001105343,新規,0,2024-04-12,2024-04-12,株式会社フェニックス,,株式会社,福岡県,久留米市,城島町江上２３９番地１,,40,203,8300213,,,,,,,2024-04-12,1,,,,,フェニックス,0
1395,5290001105368,新規,0,2024-04-12,2024-04-12,株式会社ｍｏｍｅｎｔｓ,,株式会社,福岡県,久留米市,中央町１番地１久留米ヒルズモール,,40,203,8300023,,,,,,,2024-04-12,1,,,,,モーメンツ,0
1404,5330001031956,新規,0,2024-04-12,2024-04-12,株式会社氣のなる木,,株式会社,熊本県,合志市,幾久富１９０９番地７５０,,43,216,8611112,,,,,,,2024-04-12,1,,,,,キノナルキ,0
1408,5340003004430,新規,0,2024-04-12,2024-04-12,合同会社Ｍｉｌｋｙ　Ｗａｙ,,合同会社,鹿児島県,姶良市,宮島町２０番地１５,,46,225,8995432,,,,,,,2024-04-12,1,,,,,ミルキーウェイ,0
1414,5360001033495,新規,0,2024-04-12,2024-04-12,株式会社あらぐさホールディングス,,株式会社,沖縄県,島尻郡八重瀬町,字宜次２１８番地１,,47,362,9010416,,,,,,,2024-04-12,1,,,,,アラグサホールディングス,0
1416,5360003013891,新規,0,2024-04-12,2024-04-12,合同会社テラグラッシーイ,,合同会社,沖縄県,那覇市,字天久８９３－１セントパレスリドー５０２,,47,201,9000005,,,,,,,2024-04-12,1,,,,,テラグラッシーイ,0
1435,5430001091569,新規,0,2024-04-12,2024-04-12,株式会社ノースフリーク,,株式会社,北海道,札幌市西区,八軒二条東４丁目１番３０号パーティハウスＢ１階,,01,107,0630862,,,,,,,2024-04-12,1,,,,,ノースフリーク,0
1437,5430003016136,新規,0,2024-04-12,2024-04-12,合同会社ＭＩＳＯＹ,,合同会社,北海道,札幌市白石区,菊水四条１丁目８‐１ブルメンブルグ２００号,,01,104,0030804,,,,,,,2024-04-12,1,,,,,ミソイ,0
1438,5430005014955,新規,0,2024-04-12,2024-04-12,医療法人社団よつば会,,その他の設立登記法人,北海道,札幌市北区,北七条西５丁目８番地１北７条ヨシヤビル２Ｆ,,01,102,0600807,,,,,,,2024-04-12,1,,,,,ヨツバカイ,0
1444,5480003002115,新規,0,2024-04-12,2024-04-12,合同会社ハニーファーム,,合同会社,徳島県,阿南市,羽ノ浦町古毛前須賀２６番地,,36,204,7791109,,,,,,,2024-04-12,1,,,,,ハニーファーム,0
1445,5490005006939,新規,0,2024-04-12,2024-04-12,一般財団法人ＨＡＴＡ,,その他の設立登記法人,高知県,宿毛市,中央３丁目１番３号,,39,208,7880001,,,,,,,2024-04-12,1,,,,,,0
1450,5700150124829,新規,0,2024-04-12,2024-04-12,Ｈａｎｇｚｈｏｕ　Ｓｕｔｏｎｇ　ＥＣｏｍｍｅｒｃｅ　Ｃｏ．，Ｌｔｄ,,外国会社等,,,,,,,,Ｗｕｃｈａｎｇ　Ｓｔｒｅｅｔ，Ｙｕｈａｎｇ　Ｄｉｓｔｒｉｃｔ　Ｒｏｏｍ　４０３－３　Ｂｕｉｌｄｉｎｇ　９，Ｆｅｎｇｚｈｉｚｈｕ，Ｙｕｎｋｏｎｇ　ｃｈｅｎｇ　Ｈａｎｇｚｈｏｕ　Ｚｈｅｊｉａｎｇ　３１００２３　ＣＮ,,,,,,2024-04-12,1,,,,,ハンジョウスートンディエンズーシャンウーヨウシエンゴンスー,0
1462,6010001243649,新規,0,2024-04-12,2024-04-12,株式会社ＨｏｌｏＳｔｏｒａｇｅ,,株式会社,東京都,千代田区,富士見１丁目３－１１富士見デュープレックスＢ’ｓ４Ｆ,,13,101,1020071,,,,,,,2024-04-12,1,,,,,ホロストレージ,0
1463,6010001243822,新規,0,2024-04-12,2024-04-12,株式会社ＷｅａｌｔｈＦｏｒｃｅ,,株式会社,東京都,千代田区,九段南１丁目５番６号りそな九段ビル５階ＫＳフロア,,13,101,1020074,,,,,,,2024-04-12,1,,,,,ウェルスフォース,0
1464,6010001243830,新規,0,2024-04-12,2024-04-12,株式会社ｋｉｏｋｕ,,株式会社,東京都,中央区,日本橋蛎殻町２丁目２番２号関口ビル４階,,13,102,1030014,,,,,,,2024-04-12,1,,,,,キオク,0
1465,6010001243871,新規,0,2024-04-12,2024-04-12,株式会社Ｙ．Ｂ．Ｅ．,,株式会社,東京都,中央区,新川２丁目６番１２－７０２号,,13,102,1040033,,,,,,,2024-04-12,1,,,,,ワイビーイー,0
1469,6010005038153,新規,0,2024-04-12,2024-04-12,弁護士法人銀座ロータス法律事務所,,その他の設立登記法人,東京都,中央区,銀座４丁目５－１聖書館ビル８階,,13,102,1040061,,,,,,,2024-04-12,1,,,,,ギンザロータスホウリツジムショ,0
1480,6010403032402,新規,0,2024-04-12,2024-04-12,合同会社アイシスコンサルティング,,合同会社,東京都,港区,港南３丁目６番２１－２７１０号,,13,103,1080075,,,,,,,2024-04-12,1,,,,,アイシスコンサルティング,0
1481,6010405023135,新規,0,2024-04-12,2024-04-12,一般社団法人全国小規模多機能型居宅介護事業者連絡会,,その他の設立登記法人,東京都,港区,浜松町１丁目１９番９号井口ビル３階,,13,103,1050013,,,,,,,2024-04-12,1,,,,,ゼンコクショウキボタキノウガタキョタクカイゴジギョウシャレンラクカイ,0
1489,6010601064998,新規,0,2024-04-12,2024-04-12,株式会社Ｃｏｍｆｙ‐Ｃｏｎｎｅｃｔ,,株式会社,東京都,江東区,扇橋１丁目７番４号ＬａＳａｉｓｏｎＣｌａｉｒｅ扇橋３０２,,13,108,1350011,,,,,,,2024-04-12,1,,,,,コンフィーコネクト,0
1497,6010901055045,新規,0,2024-04-12,2024-04-12,株式会社インディゴ,,株式会社,東京都,世田谷区,松原２丁目２６番１３号,,13,112,1560043,,,,,,,2024-04-12,1,,,,,インディゴ,0
1501,6011001161147,新規,0,2024-04-12,2024-04-12,ＩＳＥＩＮＫＯ株式会社,,株式会社,東京都,渋谷区,富ヶ谷１丁目１４－１４スタンフォードアネックスビル３階,,13,113,1510063,,,,,,,2024-04-12,1,,,,,イセインコ,0
1502,6011001161213,新規,0,2024-04-12,2024-04-12,株式会社Ｔｉｅ　Ｗｏｒｋｓ,,株式会社,東京都,渋谷区,恵比寿西２丁目８番４号ＥＸ恵比寿西ビル５階,,13,113,1500021,,,,,,,2024-04-12,1,,,,,タイワークス,0
1503,6011003018782,新規,0,2024-04-12,2024-04-12,合同会社土とデジタル,,合同会社,東京都,渋谷区,道玄坂１丁目１０番８号渋谷道玄坂東急ビル２Ｆ－Ｃ,,13,113,1500043,,,,,,,2024-04-12,1,,,,,ツチトデジタル,0
1504,6011003018907,新規,0,2024-04-12,2024-04-12,ヘ・イケパーパルア合同会社,,合同会社,東京都,渋谷区,神宮前６丁目２３番４号桑野ビル２階,,13,113,1500001,,,,,,,2024-04-12,1,,,,,ヘイケパーパルア,0
1506,6011101106893,新規,0,2024-04-12,2024-04-12,株式会社ｈｕｂｃｒａｙｏｎ,,株式会社,東京都,新宿区,西新宿３丁目３番１３号西新宿水間ビル２Ｆ,,13,104,1600023,,,,,,,2024-04-12,1,,,,,ハブクレヨン,0
1507,6011101106927,新規,0,2024-04-12,2024-04-12,株式会社Ｉｎｎｏｃｏｒｅ,,株式会社,東京都,新宿区,大久保１丁目１７番７号メゾン豊５Ｂ,,13,104,1690072,,,,,,,2024-04-12,1,,,,,イノコア,0
1508,6011101106951,新規,0,2024-04-12,2024-04-12,株式会社ＧＲＩＴ,,株式会社,東京都,新宿区,西早稲田１丁目２２番３号,,13,104,1690051,,,,,,,2024-04-12,1,,,,,グリット,0
1512,6011403004325,新規,0,2024-04-12,2024-04-12,マツナイ合同会社,,合同会社,東京都,板橋区,徳丸４丁目１４番２０号愛華寮３０７,,13,119,1750083,,,,,,,2024-04-12,1,,,,,マツナイ,0
1513,6011403004341,新規,0,2024-04-12,2024-04-12,合同会社バイクバイク,,合同会社,東京都,板橋区,南町１１番３－４０５号,,13,119,1730027,,,,,,,2024-04-12,1,,,,,バイクバイク,0
1514,6011501030529,新規,0,2024-04-12,2024-04-12,東光ハウジング株式会社,,株式会社,東京都,荒川区,東日暮里５丁目２５番４号,,13,118,1160014,,,,,,,2024-04-12,1,,,,,トウコウハウジング,0
1519,6011601027680,新規,0,2024-04-12,2024-04-12,順康株式会社,,株式会社,東京都,練馬区,北町８丁目１２－１６ボヌール・マ・メゾンＢ１－Ａ号室,,13,120,1790081,,,,,,,2024-04-12,1,,,,,ジュンコウ,0
1525,6012301013871,新規,0,2024-04-12,2024-04-12,株式会社Ｋｏｎｏｔ・Ｏｎｅ,,株式会社,東京都,町田市,中町１丁目２－５ＳＨＥＬＬＭＩＹＡＫＯＶ３Ｆ,,13,209,1940021,,,,,,,2024-04-12,1,,,,,コノットワン,0
1528,6012405004965,新規,0,2024-04-12,2024-04-12,一般社団法人武蔵野市スポーツ協会,,その他の設立登記法人,東京都,武蔵野市,吉祥寺北町５丁目１１番２０号,,13,203,1800001,,,,,,,2024-04-12,1,,,,,ムサシノシスポーツキョウカイ,0
1529,6012701018198,新規,0,2024-04-12,2024-04-12,株式会社スタジオバックルーム,,株式会社,東京都,東村山市,富士見町３丁目３－５,,13,213,1890024,,,,,,,2024-04-12,1,,,,,スタジオバックルーム,0
1532,6013301052348,新規,0,2024-04-12,2024-04-12,天啓鴻源日本株式会社,,株式会社,東京都,豊島区,東池袋２丁目６３－１,,13,116,1700013,,,,,,,2024-04-12,1,,,,,テンケイコウゲンニホン,0
1533,6013303007093,新規,0,2024-04-12,2024-04-12,合同会社Ｈｅｙ,,合同会社,東京都,豊島区,東池袋１丁目３４番５号いちご東池袋ビル６階,,13,116,1700013,,,,,,,2024-04-12,1,,,,,ヘイ,0
1537,6020001156692,新規,0,2024-04-12,2024-04-12,株式会社Ｎｏｖａｔｉｏｎ,,株式会社,神奈川県,川崎市中原区,小杉町３丁目６００,,14,133,2110063,,,,,,,2024-04-12,1,,,,,ノベーション,0
1539,6020003025895,新規,0,2024-04-12,2024-04-12,合同会社エクスプローラー,,合同会社,神奈川県,横浜市南区,榎町１丁目１８－２清水ビル３階,,14,105,2320044,,,,,,,2024-04-12,1,,,,,エクスプローラー,0
1540,6020003025904,新規,0,2024-04-12,2024-04-12,ラビー合同会社,,合同会社,神奈川県,横浜市神奈川区,金港町５－１４クアドリフォリオ８階,,14,102,2210056,,,,,,,2024-04-12,1,,,,,ラビー,0
1542,6020005016372,新規,0,2024-04-12,2024-04-12,一般社団法人全日本ＲＣドリフト競技委員会,,その他の設立登記法人,神奈川県,横浜市都筑区,早渕１丁目３１番２号,,14,118,2240025,,,,,,,2024-04-12,1,,,,,ゼンニホンアールシードリフトキョウギイインカイ,0
1547,6021001081939,新規,0,2024-04-12,2024-04-12,株式会社ＲｅＬｉＦＥ,,株式会社,神奈川県,海老名市,国分北１丁目４－４３－１０２,,14,215,2430406,,,,,,,2024-04-12,1,,,,,リライフ,0
1550,6021003014384,新規,0,2024-04-12,2024-04-12,合同会社スター,,合同会社,神奈川県,藤沢市,本鵠沼１丁目５番２１～１１０５号,,14,205,2510028,,,,,,,2024-04-12,1,,,,,スター,0
1554,6030001159785,新規,0,2024-04-12,2024-04-12,オーエフネットプラス株式会社,,株式会社,埼玉県,鴻巣市,登戸１０４番地６,,11,217,3650052,,,,,,,2024-04-12,1,,,,,オーエフネットプラス,0
1558,6030003024046,新規,0,2024-04-12,2024-04-12,合同会社ＷＯＮＭＯ　ＭＡＲＩＮＥ埼玉,,合同会社,埼玉県,鴻巣市,小松２丁目１０－１２,,11,217,3650041,,,,,,,2024-04-12,1,,,,,ウォンモマリンサイタマ,0
1559,6030003024054,新規,0,2024-04-12,2024-04-12,合同会社ビーユアセルフ,,合同会社,埼玉県,越谷市,大字大道４９１番地２,,11,222,3430035,,,,,,,2024-04-12,1,,,,,ビーユアセルフ,0
1560,6030003024062,新規,0,2024-04-12,2024-04-12,合同会社ＩＮＦＩＮＩＴＹ,,合同会社,埼玉県,さいたま市北区,日進町２丁目１０９０番地８ヨウコーソクウェア日進２０３号,,11,102,3310823,,,,,,,2024-04-12,1,,,,,インフィニティ,0
1561,6030003024070,新規,0,2024-04-12,2024-04-12,合同会社ＫＩＶ　Ｓｕｐｐｏｒｔ　Ｓｅｒｖｉｃｅ,,合同会社,埼玉県,飯能市,柳町７番１０号,,11,209,3570035,,,,,,,2024-04-12,1,,,,,ケーアイブイサポートサービス,0
1562,6030005021628,新規,0,2024-04-12,2024-04-12,一般社団法人埼玉県解体工事業協会,,その他の設立登記法人,埼玉県,久喜市,下早見１５９１番地,,11,232,3460022,,,,,,,2024-04-12,1,,,,,サイタマケンカイタイコウジギョウキョウカイ,0
1564,6040001133062,新規,0,2024-04-12,2024-04-12,幸健株式会社,,株式会社,千葉県,船橋市,松が丘４丁目４２番２４号,,12,204,2740064,,,,,,,2024-04-12,1,,,,,,0
1565,6040001133087,新規,0,2024-04-12,2024-04-12,株式会社ＫＯＰＯＮ,,株式会社,千葉県,船橋市,東船橋３丁目３８番１号アリソ東船橋４０２号,,12,204,2730002,,,,,,,2024-04-12,1,,,,,コポン,0
1566,6040001133095,新規,0,2024-04-12,2024-04-12,株式会社ＮＥＸＴＡＲＴ,,株式会社,千葉県,松戸市,串崎南町２６番地サンモールモリヤ６０２号,,12,207,2702215,,,,,,,2024-04-12,1,,,,,ネクスタート,0
1579,6050001054613,新規,0,2024-04-12,2024-04-12,株式会社Ｓｉａｍ　Ｎａｒｉｔａ　Ｆｏｏｄ,,株式会社,茨城県,筑西市,小川１１４３－３,,08,227,3080857,,,,,,,2024-04-12,1,,,,,サイアムナリタフード,0
1590,6080101024678,新規,0,2024-04-12,2024-04-12,株式会社イマテカ,,株式会社,静岡県,三島市,徳倉１丁目４－３９,,22,206,4110044,,,,,,,2024-04-12,1,,,,,イマテカ,0
1612,6120001263818,新規,0,2024-04-12,2024-04-12,株式会社ユートピア,,株式会社,大阪府,大阪市阿倍野区,美章園１丁目２番２４号,,27,119,5450003,,,,,,,2024-04-12,1,,,,,ユートピア,0
1613,6120001264007,新規,0,2024-04-12,2024-04-12,財富房地産投資株式会社,,株式会社,大阪府,大阪市都島区,中野町２丁目４番１９－２０５号,,27,102,5340027,,,,,,,2024-04-12,1,,,,,ザイフボウチサントウシ,0
1614,6120001264031,新規,0,2024-04-12,2024-04-12,株式会社高水,,株式会社,大阪府,大阪市中央区,南船場３丁目２－２２おおきに南船場ビル２０５,,27,128,5420081,,,,,,,2024-04-12,1,,,,,タカミズ,0
1619,6120003026347,新規,0,2024-04-12,2024-04-12,タオ合同会社,,合同会社,大阪府,大阪市都島区,毛馬町２丁目１１番４２－１０４号,,27,102,5340001,,,,,,,2024-04-12,1,,,,,タオ,0
1620,6120003026355,新規,0,2024-04-12,2024-04-12,Ｉ’ｌｌ　ｂｅ　Ｄｅｓｉｇｎ合同会社,,合同会社,大阪府,大阪市北区,梅田１丁目２番２号大阪駅前第２ビル１２－１２,,27,127,5300001,,,,,,,2024-04-12,1,,,,,アイルビーデザイン,0
1621,6120003026405,新規,0,2024-04-12,2024-04-12,合同会社グリーンパワー,,合同会社,大阪府,大阪市住之江区,浜口東３丁目１３‐１６リベール住之江１１０３,,27,125,5590002,,,,,,,2024-04-12,1,,,,,グリーンパワー,0
1629,6130001076797,新規,0,2024-04-12,2024-04-12,株式会社０３６Ｃｏ．,,株式会社,京都府,京都市下京区,中堂寺南町１３４京都リサーチパークＡＳＴＥＭビル８Ｆ,,26,106,6008813,,,,,,,2024-04-12,1,,,,,ゼロサムコーポレーション,0
1630,6130001076806,新規,0,2024-04-12,2024-04-12,株式会社ＲＤＣ＆Ｂ　ＷＯＲＫＳ．,,株式会社,京都府,京都市下京区,松原通烏丸西入玉津島町２９４番地,,26,106,6008427,,,,,,,2024-04-12,1,,,,,アールディシーアンドビーワークス,0
1636,6140001134026,新規,0,2024-04-12,2024-04-12,株式会社Ｌａｐｌａｃｅ,,株式会社,兵庫県,伊丹市,稲野町７丁目５９番地３,,28,207,6640861,,,,,,,2024-04-12,1,,,,,ラプレイス,0
1638,6140003020406,新規,0,2024-04-12,2024-04-12,ブライトアップソフトウェア合同会社,,合同会社,兵庫県,神戸市中央区,磯辺通１丁目１番１８号カサベラ国際プラザビル７０７号室,,28,110,6510084,,,,,,,2024-04-12,1,,,,,ブライトアップソフトウェア,0
1642,6150001027212,新規,0,2024-04-12,2024-04-12,株式会社ＭＣＤＩＲＥＣＴ,,株式会社,奈良県,生駒郡平群町,上庄３丁目１番１２号,,29,342,6360905,,,,,,,2024-04-12,1,,,,,エムシーダイレクト,0
1644,6160001025792,新規,0,2024-04-12,2024-04-12,株式会社ＳＡＳＡＹＵＲＩ,,株式会社,滋賀県,甲賀市,甲南町新治２０５２番地（３階）,,25,209,5203313,,,,,,,2024-04-12,1,,,,,ササユリ,0
1648,6170003002021,新規,0,2024-04-12,2024-04-12,合同会社ＫｉｃｈｉＧｒｏｕｐ,,合同会社,和歌山県,田辺市,中万呂２２番地の４,,30,206,6460003,,,,,,,2024-04-12,1,,,,,キチグループ,0
1656,6180001160902,新規,0,2024-04-12,2024-04-12,エコグール株式会社,,株式会社,愛知県,名古屋市中村区,名駅４丁目８番２６号エニシオ名駅１６階,,23,105,4500002,,,,,,,2024-04-12,1,,,,,エコグール,0
1657,6180001160951,新規,0,2024-04-12,2024-04-12,株式会社エイトゲート,,株式会社,愛知県,名古屋市東区,矢田１丁目１０番地３１号エツカ大曽根２０１号,,23,102,4610040,,,,,,,2024-04-12,1,,,,,エイトゲート,0
1658,6180001160976,新規,0,2024-04-12,2024-04-12,若王子精機株式会社,,株式会社,愛知県,愛知郡東郷町,大字春木字千子５４５番地３８,,23,302,4700162,,,,,,,2024-04-12,1,,,,,ワカオウジセイキ,0
1659,6180001161009,新規,0,2024-04-12,2024-04-12,株式会社Ｆｏｒｅｓｔ,,株式会社,愛知県,名古屋市昭和区,長池町５丁目５７番地,,23,107,4660847,,,,,,,2024-04-12,1,,,,,フォレスト,0
1661,6180003026630,新規,0,2024-04-12,2024-04-12,ＡｗｅｓｏｍｅＳｐｒｉｎｇｓ合同会社,,合同会社,愛知県,名古屋市中川区,服部２丁目１４１１－２,,23,110,4540976,,,,,,,2024-04-12,1,,,,,オーサンスプリングス,0
1662,6180003026647,新規,0,2024-04-12,2024-04-12,合同会社雅笑天,,合同会社,愛知県,名古屋市港区,惟信町５丁目５０番地ライオンズガーデン惟信町３０３号,,23,111,4550823,,,,,,,2024-04-12,1,,,,,ミヤビショウテン,0
1666,6180005020581,新規,0,2024-04-12,2024-04-12,ＮＰＯ法人ヤトミーティング,,その他の設立登記法人,愛知県,弥富市,前ケ須町南本田３４７番地,,23,235,4980017,,,,,,,2024-04-12,1,,,,,ヤトミーティング,0
1684,6250001020603,新規,0,2024-04-12,2024-04-12,株式会社アクシアホーム,,株式会社,山口県,山口市,平井１４６７－３岡ハイツＡ１,,35,203,7530831,,,,,,,2024-04-12,1,,,,,アクシアホーム,0
1695,6290001105301,新規,0,2024-04-12,2024-04-12,株式会社ひかりの匠,,株式会社,福岡県,大牟田市,大字歴木９７６番地７,,40,202,8370924,,,,,,,2024-04-12,1,,,,,ヒカリノタクミ,0
1696,6290001105318,新規,0,2024-04-12,2024-04-12,Ｂｌｉｓｓｗａｙ株式会社,,株式会社,福岡県,飯塚市,楽市６５５－２,,40,205,8200074,,,,,,,2024-04-12,1,,,,,ブリスウェイ,0
1697,6290001105326,新規,0,2024-04-12,2024-04-12,株式会社矢部板金,,株式会社,福岡県,筑後市,大字下北島７１５番地１,,40,211,8330034,,,,,,,2024-04-12,1,,,,,ヤベバンキン,0
1698,6290001105350,新規,0,2024-04-12,2024-04-12,株式会社サンヨー,,株式会社,福岡県,福岡市城南区,堤２丁目４番３１－１０３号,,40,136,8140151,,,,,,,2024-04-12,1,,,,,,0
1699,6290001105367,新規,0,2024-04-12,2024-04-12,株式会社アーティクル１５,,株式会社,福岡県,福岡市南区,若久１丁目３６番１－２０６号,,40,134,8150042,,,,,,,2024-04-12,1,,,,,アーティクルジュウゴ,0
1700,6290001105375,新規,0,2024-04-12,2024-04-12,株式会社ＬｏｇｉｃＧａｔｅ,,株式会社,福岡県,飯塚市,中４７５番地３,,40,205,8200065,,,,,,,2024-04-12,1,,,,,ロジックゲート,0
1701,6290001105383,新規,0,2024-04-12,2024-04-12,株式会社Ｈｏｐｅ,,株式会社,福岡県,福岡市博多区,中洲１丁目３番１５号オンリーワンビル２Ｆ,,40,132,8100801,,,,,,,2024-04-12,1,,,,,ホープ,0
1711,6320001020414,新規,0,2024-04-12,2024-04-12,株式会社安部機動工業,,株式会社,大分県,中津市,大字伊藤田４９６番地１,,44,203,8790111,,,,,,,2024-04-12,1,,,,,アベキドウコウギョウ,0
1716,6330003010313,新規,0,2024-04-12,2024-04-12,合同会社洸成開発,,合同会社,熊本県,熊本市北区,麻生田３丁目３番６０号２Ｆ,,43,105,8618081,,,,,,,2024-04-12,1,,,,,コウセイカイハツ,0
1721,6360005007024,新規,0,2024-04-12,2024-04-12,一般社団法人文化をつなげる研究所,,その他の設立登記法人,沖縄県,那覇市,鏡原町２３番１７号,,47,201,9010151,,,,,,,2024-04-12,1,,,,,ブンカヲツナゲルケンキュウジョ,0
1725,6370001051173,新規,0,2024-04-12,2024-04-12,株式会社ＭＦコーポレーション,,株式会社,宮城県,仙台市若林区,六丁の目中町２７番１号,,04,103,9840012,,,,,,,2024-04-12,1,,,,,エムエフコーポレーション,0
1731,6410003003911,新規,0,2024-04-12,2024-04-12,合同会社シモマ,,合同会社,秋田県,男鹿市,脇本脇本字頭名地６４－１４,,05,206,0100342,,,,,,,2024-04-12,1,,,,,シモマ,0
1740,6430005014962,新規,0,2024-04-12,2024-04-12,一般社団法人日本焼き鳥協会,,その他の設立登記法人,北海道,札幌市東区,北三十九条東７丁目３番１４号,,01,103,0070839,,,,,,,2024-04-12,1,,,,,ニホンヤキトリキョウカイ,0
1741,6460105002286,新規,0,2024-04-12,2024-04-12,特定非営利活動法人集いの杜,,その他の設立登記法人,北海道,広尾郡広尾町,字野塚９線４０番地,,01,642,0892561,,,,,,,2024-04-12,1,,,,,ツドイノモリ,0
1745,6700150120686,新規,0,2024-04-12,2024-04-12,中山市童木科技有限公司,,外国会社等,,,,,,,,２５（１１，１２　ｋａ）Ｊｉｅｙｕａｎｌｉ，Ｓｈｉｑｉ　Ｄｉｓｔｒｉｃｔ，Ｚｈｏｎｇｓｈａｎ　Ｃｉｔｙ，Ｇｕａｎｇｄｏｎｇ　Ｐｒｏｖｉｎｃｅ，Ｃｈｉｎａ,,,,,,2024-04-12,1,,,,,チュウサンシトンムカギユウゲンコウシ,0
1747,7000020089478,新規,0,2024-04-12,2024-04-12,茨城県央環境衛生組合,,地方公共団体,茨城県,東茨城郡茨城町,大字小堤１０８０番地,,08,302,3113131,,,,,,,2024-04-12,1,,,,,イバラキケンオウカンキョウエイセイクミアイ,0
1757,7010001243706,新規,0,2024-04-12,2024-04-12,株式会社シンバ,,株式会社,東京都,中央区,銀座１丁目１２番４号Ｎ＆ＥＢＬＤ．６Ｆ,,13,102,1040061,,,,,,,2024-04-12,1,,,,,シンバ,0
1758,7010001243870,新規,0,2024-04-12,2024-04-12,株式会社ＧＮＯ　Ｄｉｎｉｎｇ,,株式会社,東京都,中央区,銀座１丁目１２番４号Ｎ＆ＥＢＬＤ．６Ｆ,,13,102,1040061,,,,,,,2024-04-12,1,,,,,ジーエヌオーダイニング,0
1759,7010003043402,新規,0,2024-04-12,2024-04-12,合同会社セイントビューティーインターナショナル,,合同会社,東京都,中央区,銀座１丁目１２番４号Ｎ＆ＥＢＬＤ．６Ｆ,,13,102,1040061,,,,,,,2024-04-12,1,,,,,セイントビューティーインターナショナル,0
1760,7010005038152,新規,0,2024-04-12,2024-04-12,一般社団法人ＴＰＳＰ,,その他の設立登記法人,東京都,千代田区,四番町４番地９新東京国際リーガル内,,13,101,1020081,,,,,,,2024-04-12,1,,,,,ティーピーエスピー,0
1772,7010401181605,新規,0,2024-04-12,2024-04-12,株式会社コダテック,,株式会社,東京都,港区,西麻布３丁目１２番１２－７０３号,,13,103,1060031,,,,,,,2024-04-12,1,,,,,コダテック,0
1773,7010401181687,新規,0,2024-04-12,2024-04-12,アレックス・フィナンシャル・アドバイザーズ株式会社,,株式会社,東京都,港区,北青山３丁目６－７,,13,103,1070061,,,,,,,2024-04-12,1,,,,,アレックスフィナンシャルアドバイザーズ,0
1774,7010401181695,新規,0,2024-04-12,2024-04-12,株式会社フードディレクション,,株式会社,東京都,港区,三田５丁目１３番８号,,13,103,1080073,,,,,,,2024-04-12,1,,,,,フードディレクション,0
1775,7010401181712,新規,0,2024-04-12,2024-04-12,株式会社エンプラント,,株式会社,東京都,港区,浜松町２丁目２番１５号浜松町ダイヤビル２Ｆ,,13,103,1050013,,,,,,,2024-04-12,1,,,,,エンプラント,0
1776,7010401181729,新規,0,2024-04-12,2024-04-12,株式会社ＤＥＨ,,株式会社,東京都,港区,港南４丁目６番５－３４０７号,,13,103,1080075,,,,,,,2024-04-12,1,,,,,ディーイーエイチ,0
1782,7010501052111,新規,0,2024-04-12,2024-04-12,株式会社シルバーフォックス,,株式会社,東京都,台東区,台東３丁目５番１０号１０２－２Ｅ,,13,106,1100016,,,,,,,2024-04-12,1,,,,,シルバーフォックス,0
1788,7010601064997,新規,0,2024-04-12,2024-04-12,東京遠航株式会社,,株式会社,東京都,江東区,南砂６丁目４－６キャピタルコータス５０４,,13,108,1360076,,,,,,,2024-04-12,1,,,,,トウキョウエンコウ,0
1798,7011001161344,新規,0,2024-04-12,2024-04-12,株式会社スパークル,,株式会社,東京都,渋谷区,神泉町１０番１５号アネックス神泉３０１,,13,113,1500045,,,,,,,2024-04-12,1,,,,,スパークル,0
1804,7011101106769,新規,0,2024-04-12,2024-04-12,株式会社オムニサイエンス,,株式会社,東京都,新宿区,西新宿６丁目５番１号新宿アイランドタワー４１階,,13,104,1600023,,,,,,,2024-04-12,1,,,,,オムニサイエンス,0
1805,7011101106926,新規,0,2024-04-12,2024-04-12,田中島建設人材株式会社,,株式会社,東京都,新宿区,西早稲田１丁目６番３号フェリオ西早稲田２Ｆ,,13,104,1690051,,,,,,,2024-04-12,1,,,,,タナカジマケンセツジンザイ,0
1807,7011403004332,新規,0,2024-04-12,2024-04-12,ヒマラヤンビジネスグループ合同会社,,合同会社,東京都,板橋区,中台１丁目３４番４号グランツ上板橋２Ｂ号室,,13,119,1740064,,,,,,,2024-04-12,1,,,,,ヒマラヤンビジネスグループ,0
1808,7011403004340,新規,0,2024-04-12,2024-04-12,合同会社ファティマエンタープライズ,,合同会社,東京都,板橋区,仲町１３番１４号アルト大山１０２,,13,119,1730022,,,,,,,2024-04-12,1,,,,,ファティマエンタープライズ,0
1812,7011703003802,新規,0,2024-04-12,2024-04-12,合同会社ＢＩＺＥＭＰＡ,,合同会社,東京都,江戸川区,清新町１丁目２番１－３０１号,,13,123,1340087,,,,,,,2024-04-12,1,,,,,ビゼンパ,0
1814,7011801044062,新規,0,2024-04-12,2024-04-12,株式会社成匠,,株式会社,東京都,足立区,綾瀬１丁目３５番５－４０３号,,13,121,1200005,,,,,,,2024-04-12,1,,,,,ナルショウ,0
1816,7012303001972,新規,0,2024-04-12,2024-04-12,合同会社ＫＴＯ,,合同会社,東京都,町田市,小山町６３３番地,,13,209,1940212,,,,,,,2024-04-12,1,,,,,ケーティーオー,0
1819,7012403006500,新規,0,2024-04-12,2024-04-12,合同会社Ｂｕｄｄｙ,,合同会社,東京都,狛江市,和泉本町３丁目１番１２－２０２号,,13,219,2010003,,,,,,,2024-04-12,1,,,,,バディ,0
1823,7012405004972,新規,0,2024-04-12,2024-04-12,一般社団法人森と泉,,その他の設立登記法人,東京都,稲城市,平尾３丁目７番地の５平尾住宅５４棟２０５号,,13,225,2060823,,,,,,,2024-04-12,1,,,,,モリトイズミ,0
1824,7012701018206,新規,0,2024-04-12,2024-04-12,しゅくらん株式会社,,株式会社,東京都,西東京市,新町５丁目４番１４号,,13,229,2020023,,,,,,,2024-04-12,1,,,,,シュクラン,0
1831,7013301052339,新規,0,2024-04-12,2024-04-12,株式会社Ｐｒｏｔｅｃｔｏｒ,,株式会社,東京都,豊島区,東池袋５丁目７番３号アゼリア東池袋４０１,,13,116,1700013,,,,,,,2024-04-12,1,,,,,プロテクター,0
1832,7013305003593,新規,0,2024-04-12,2024-04-12,一般社団法人恵生会,,その他の設立登記法人,東京都,豊島区,東池袋１丁目３４番５号いちご東池袋ビル６階,,13,116,1700013,,,,,,,2024-04-12,1,,,,,ケイセイカイ,0
1838,7020001156709,新規,0,2024-04-12,2024-04-12,株式会社タフネス,,株式会社,神奈川県,横浜市港北区,新横浜３丁目１７－１２アルファスペース新横浜ビステーション新横浜内株式会社タフネス,,14,109,2220033,,,,,,,2024-04-12,1,,,,,タフネス,0
1847,7021001081954,新規,0,2024-04-12,2024-04-12,株式会社末廣建設,,株式会社,神奈川県,相模原市南区,東林間６丁目２０番１４号２０１,,14,153,2520311,,,,,,,2024-04-12,1,,,,,スエヒロケンセツ,0
1850,7021003014350,新規,0,2024-04-12,2024-04-12,合同会社田村企画,,合同会社,神奈川県,相模原市南区,新磯野２丁目２６－１３ヴィラ相武台１０６,,14,153,2520325,,,,,,,2024-04-12,1,,,,,タムラキカク,0
1851,7021003014359,新規,0,2024-04-12,2024-04-12,合同会社エコパオファーム,,合同会社,神奈川県,鎌倉市,十二所３１１番地１,,14,204,2480001,,,,,,,2024-04-12,1,,,,,エコパオファーム,0
1852,7021003014375,新規,0,2024-04-12,2024-04-12,合同会社ツーリスト,,合同会社,神奈川県,小田原市,寿町２丁目１番１９号マトレ小田原シンフォニア３０２号,,14,206,2500002,,,,,,,2024-04-12,1,,,,,ツーリスト,0
1860,7030001159784,新規,0,2024-04-12,2024-04-12,株式会社ＧＭＲ,,株式会社,埼玉県,狭山市,大字青柳字旭台１７０２－１,,11,215,3501301,,,,,,,2024-04-12,1,,,,,ジーエムアール,0
1861,7030001159801,新規,0,2024-04-12,2024-04-12,株式会社日春建装,,株式会社,埼玉県,春日部市,六軒町５７番地５,,11,214,3440012,,,,,,,2024-04-12,1,,,,,ヒノハルケンソウ,0
1870,7040001133094,新規,0,2024-04-12,2024-04-12,株式会社ラテラル,,株式会社,千葉県,松戸市,秋山２丁目２番地の９,,12,207,2702223,,,,,,,2024-04-12,1,,,,,ラテラル,0
1871,7040001133103,新規,0,2024-04-12,2024-04-12,株式会社Ｋｉｄｓ　Ｐｏｃｋｅｔｓ,,株式会社,千葉県,市川市,大野町３丁目１７８６－２３,,12,203,2720805,,,,,,,2024-04-12,1,,,,,キッズポケッツ,0
1874,7040003024655,新規,0,2024-04-12,2024-04-12,合同会社Ｐｉｌｉｎａ,,合同会社,千葉県,野田市,花井２４９－４２サンハイツ花井ＩＩ－１０１,00134389,12,208,2780026,,,,,,,2024-04-12,1,,,,,ピリナ,0
1875,7040003024754,新規,0,2024-04-12,2024-04-12,Ｍ．Ｕ．ＭＯＴＯＲＳ合同会社,,合同会社,千葉県,山武市,横田５１８番地１０６,,12,237,2891226,,,,,,,2024-04-12,1,,,,,エムユーモータース,0
1882,7050001054595,新規,0,2024-04-12,2024-04-12,Ｋ＆Ｋ　ＩＮＴＥＲＮＡＴＩＯＮＡＬ株式会社,,株式会社,茨城県,坂東市,小山１２２５番地１,,08,228,3060626,,,,,,,2024-04-12,1,,,,,ケーアンドケーインターナショナル,0
1883,7050001054604,新規,0,2024-04-12,2024-04-12,株式会社ＣＯＥＲＵ,,株式会社,茨城県,つくば市,研究学園５丁目１１－２－２０９,,08,220,3050817,,,,,,,2024-04-12,1,,,,,コエル,0
1885,7060003005026,新規,0,2024-04-12,2024-04-12,シャンアロー合同会社,,合同会社,栃木県,小山市,美しが丘１丁目１５番地７,,09,208,3290207,,,,,,,2024-04-12,1,,,,,シャンアロー,0
1889,7070001041625,新規,0,2024-04-12,2024-04-12,株式会社高山空調設備,,株式会社,群馬県,伊勢崎市,安堀町１２２９番地７,,10,204,3720007,,,,,,,2024-04-12,1,,,,,タカヤマクウチョウセツビ,0
1894,7080103003035,新規,0,2024-04-12,2024-04-12,合同会社アステラス商事,,合同会社,静岡県,三島市,平田１０７－３,,22,206,4110821,,,,,,,2024-04-12,1,,,,,アステラスショウジ,0
1896,7080401027116,新規,0,2024-04-12,2024-04-12,司徳Ｂａｓｅ．株式会社,,株式会社,静岡県,菊川市,下平川２４３３番地,,22,224,4371514,,,,,,,2024-04-12,1,,,,,シトクベイス,0
1897,7090001018654,新規,0,2024-04-12,2024-04-12,関東防犯サポート株式会社,,株式会社,山梨県,甲府市,山宮町２０９２番地１５,,19,201,4000075,,,,,,,2024-04-12,1,,,,,カントウボウハンサポート,0
1902,7100005013154,新規,0,2024-04-12,2024-04-12,一般社団法人Ｅ‐ＮＡＧＡＮＯスポーツクラブ,,その他の設立登記法人,長野県,長野市,真島町真島１５１５番地４,,20,201,3812204,,,,,,,2024-04-12,1,,,,,イーナガノスポーツクラブ,0
1917,7120001263841,新規,0,2024-04-12,2024-04-12,嘉宜株式会社,,株式会社,大阪府,大阪市中央区,島之内１丁目１５－９アイテックスビル５階５０６,,27,128,5420082,,,,,,,2024-04-12,1,,,,,カヨシ,0
1920,7120005024281,新規,0,2024-04-12,2024-04-12,一般社団法人新古資源再生組合,,その他の設立登記法人,大阪府,大阪市淀川区,三津屋中３丁目８番２０号,,27,123,5320036,,,,,,,2024-04-12,1,,,,,シンコシゲンサイセイクミアイ,0
1925,7120903005127,新規,0,2024-04-12,2024-04-12,合同会社ＮＩＫＯＲＩコンサルティング,,合同会社,大阪府,高槻市,白梅町４番８－３８０７号,,27,207,5691116,,,,,,,2024-04-12,1,,,,,ニコリコンサルティング,0
1929,7130001076805,新規,0,2024-04-12,2024-04-12,株式会社長安,,株式会社,京都府,京都市伏見区,深草大亀谷安信町５３番地４,,26,109,6120836,,,,,,,2024-04-12,1,,,,,チョウアン,0
1930,7130003009449,新規,0,2024-04-12,2024-04-12,合同会社Ｔｅａｍ　Ｋｓｍｔ,,合同会社,京都府,京都市伏見区,深草フケノ内町９－２５,,26,109,6120018,,,,,,,2024-04-12,1,,,,,チームケイエスエムティ,0
1931,7130003009457,新規,0,2024-04-12,2024-04-12,合同会社向仲工務店,,合同会社,京都府,与謝郡与謝野町,字三河内７番地３,,26,465,6292313,,,,,,,2024-04-12,1,,,,,ムカイナカコウムテン,0
1942,7140001134025,新規,0,2024-04-12,2024-04-12,株式会社ＪＡＰＡＮ　Ｔｒａｄｉｎｇ　Ｃｅｎｔｅｒ,,株式会社,兵庫県,西宮市,甲子園口３丁目２９番２７号,,28,204,6638113,,,,,,,2024-04-12,1,,,,,ジャパントレーディングセンター,0
1943,7140001134033,新規,0,2024-04-12,2024-04-12,株式会社ベストラ・マネジメント,,株式会社,兵庫県,神戸市西区,平野町印路６８１－１,,28,111,6512266,,,,,,,2024-04-12,1,,,,,ベストラマネジメント,0
1944,7140001134041,新規,0,2024-04-12,2024-04-12,株式会社ＭＩペイント,,株式会社,兵庫県,明石市,藤江８９１－１２０,,28,203,6730044,,,,,,,2024-04-12,1,,,,,エムアイペイント,0
1950,7160001025841,新規,0,2024-04-12,2024-04-12,株式会社海涛建設,,株式会社,滋賀県,大津市,木戸１５６番地の４,,25,201,5200514,,,,,,,2024-04-12,1,,,,,カイトウケンセツ,0
1957,7180001160950,新規,0,2024-04-12,2024-04-12,Ｋ６株式会社,,株式会社,愛知県,名古屋市北区,上飯田東町２丁目４５番地の１,,23,103,4620803,,,,,,,2024-04-12,1,,,,,ケイロク,0
1960,7180003026646,新規,0,2024-04-12,2024-04-12,合同会社ＳＥＣＯＮＤＣＲＥＷ,,合同会社,愛知県,名古屋市西区,城西１丁目１０－１８－１Ｆ,,23,104,4510031,,,,,,,2024-04-12,1,,,,,セカンドクルー,0
1961,7180003026654,新規,0,2024-04-12,2024-04-12,合同会社ふらっと＆しゃーぷ,,合同会社,愛知県,名古屋市昭和区,鶴舞２丁目１７番１７号,,23,107,4660064,,,,,,,2024-04-12,1,,,,,フラットンシャープ,0
1971,7240001063081,新規,0,2024-04-12,2024-04-12,プラスワーク株式会社,,株式会社,広島県,広島市西区,南観音１丁目１２－３０（２階）,,34,104,7330035,,,,,,,2024-04-12,1,,,,,プラスワーク,0
1972,7250001020602,新規,0,2024-04-12,2024-04-12,ワックパートナーズ株式会社,,株式会社,山口県,下関市,豊前田町２丁目１番１５号ＳＭＡビル３階ＡＲＣＨ豊前田Ｃ号室,,35,201,7500018,,,,,,,2024-04-12,1,,,,,ワックパートナーズ,0
1978,7290001105300,新規,0,2024-04-12,2024-04-12,株式会社あおぞら,,株式会社,福岡県,福岡市中央区,天神２丁目２番１２号Ｔ＆Ｊビルディング７Ｆ,,40,133,8100001,,,,,,,2024-04-12,1,,,,,アオゾラ,0
1979,7290001105374,新規,0,2024-04-12,2024-04-12,株式会社モンターニュ,,株式会社,福岡県,福岡市早良区,大字石釜２１１番地１,,40,137,8111132,,,,,,,2024-04-12,1,,,,,モンターニュ,0
1983,7290801030490,新規,0,2024-04-12,2024-04-12,ルートホーム株式会社,,株式会社,福岡県,中間市,中尾２丁目１８番１１号,,40,215,8090032,,,,,,,2024-04-12,1,,,,,ルートホーム,0
1985,7330001031954,新規,0,2024-04-12,2024-04-12,株式会社淳和,,株式会社,熊本県,球磨郡あさぎり町,免田西５００番地５,,43,514,8680415,,,,,,,2024-04-12,1,,,,,ジュンワ,0
1986,7330001031962,新規,0,2024-04-12,2024-04-12,株式会社玖鼎,,株式会社,熊本県,熊本市北区,植木町滴水７２番１,,43,105,8610133,,,,,,,2024-04-12,1,,,,,クティ,0
1988,7330003010312,新規,0,2024-04-12,2024-04-12,合同会社なちゅらら,,合同会社,熊本県,球磨郡五木村,乙１５６１番地２４,,43,511,8680202,,,,,,,2024-04-12,1,,,,,ナチュララ,0
1997,7370005010769,新規,0,2024-04-12,2024-04-12,一般社団法人ＩＣＴてらこや,,その他の設立登記法人,宮城県,仙台市太白区,柳生５丁目２番地の１１グレイスハイツ柳生２０５,,04,104,9811106,,,,,,,2024-04-12,1,,,,,,0
2005,7380001034432,新規,0,2024-04-12,2024-04-12,株式会社ＡＣＥ　ＪＡＰＡＮ,,株式会社,福島県,白河市,新白河３丁目５３番地１プラザエースＢ,,07,205,9610856,,,,,,,2024-04-12,1,,,,,エースジャパン,0
2008,7380005012814,新規,0,2024-04-12,2024-04-12,ＮＰＯ法人Ｌａｄｙ　Ｍａｌａｌａ,,その他の設立登記法人,福島県,郡山市,大町１丁目９番１３号ＨＤ郡山大町ビル６Ｆ,,07,203,9638001,,,,,,,2024-04-12,1,,,,,レディマララ,0
2015,7430001091583,新規,0,2024-04-12,2024-04-12,株式会社ひろがり,,株式会社,北海道,石狩市,花川南二条３丁目９１番地２,,01,235,0613202,,,,,,,2024-04-12,1,,,,,ヒロガリ,0
2018,7470001020142,新規,0,2024-04-12,2024-04-12,株式会社Ａｌｂｉｅ　Ｐｌａｎｎｉｎｇ,,株式会社,香川県,東かがわ市,大谷７１８番地２,,37,207,7692513,,,,,,,2024-04-12,1,,,,,アルビープランニング,0
2019,7470005006559,新規,0,2024-04-12,2024-04-12,一般社団法人にんぎょい会,,その他の設立登記法人,香川県,三豊市,詫間町詫間１３５５番地１,,37,208,7691101,,,,,,,2024-04-12,1,,,,,ニンギョイカイ,0
2025,7700150124835,新規,0,2024-04-12,2024-04-12,オガワ・コーポレーション,,外国会社等,神奈川県,横浜市神奈川区,西寺尾３丁目２２番４号サウスヒルサイドテラス６１４,,14,102,2210001,アメリカ合衆国デラウェア州ニューキャッスル郡ウィルミントン市レナードーロ７０１番,,,,,,2024-04-12,1,,,,,オガワコーポレーシヨン,0
2034,8010001243969,新規,0,2024-04-12,2024-04-12,株式会社Ｂｅａｒ,,株式会社,東京都,千代田区,内神田１丁目１８番１１号,,13,101,1010047,,,,,,,2024-04-12,1,,,,,ベアー,0
2036,8010003043401,新規,0,2024-04-12,2024-04-12,ペーサーズ・ラボ合同会社,,合同会社,東京都,千代田区,麹町２丁目１０番地３,,13,101,1020083,,,,,,,2024-04-12,1,,,,,ペーサーズラボ,0
2037,8010003043467,新規,0,2024-04-12,2024-04-12,みなとみらい事業１号特別目的合同会社,,合同会社,東京都,中央区,銀座１丁目１２番４号Ｎ＆Ｅ－ＢＬＤ．６Ｆ,,13,102,1040061,,,,,,,2024-04-12,1,,,,,ミナトミライジギョウイチゴウトクベツモクテキ,0
2053,8010401181827,新規,0,2024-04-12,2024-04-12,株式会社アンスリウム,,株式会社,東京都,港区,南麻布１丁目１７番５号イクシクス麻布十番３０１,,13,103,1060047,,,,,,,2024-04-12,1,,,,,アンスリウム,0
2055,8010403032383,新規,0,2024-04-12,2024-04-12,Ｙｏｐａｚ　Ｊａｐａｎ合同会社,,合同会社,東京都,港区,赤坂２丁目２３番１号アークヒルズ・フロントタワーＩｎＣｏｎｔｒｏｌ内,,13,103,1070052,,,,,,,2024-04-12,1,,,,,ヨパーズジャパン,0
2057,8010405023125,新規,0,2024-04-12,2024-04-12,一般社団法人介護ＤＸ共同機構,,その他の設立登記法人,東京都,港区,赤坂１丁目７番１号,,13,103,1070052,,,,,,,2024-04-12,1,,,,,カイゴディーエックスキョウドウキコウ,0
2058,8010501052102,新規,0,2024-04-12,2024-04-12,ベストリープ株式会社,,株式会社,東京都,台東区,浅草橋４丁目１０－８ＴＦＡビル７階,,13,106,1110053,,,,,,,2024-04-12,1,,,,,ベストリープ,0
2062,8010601065004,新規,0,2024-04-12,2024-04-12,寰宇株式会社,,株式会社,東京都,墨田区,太平３丁目８番８,,13,107,1300012,,,,,,,2024-04-12,1,,,,,カンウ,0
2063,8010603010767,新規,0,2024-04-12,2024-04-12,合同会社ＡＫＳＹＵ,,合同会社,東京都,江東区,東雲１丁目９‐２２‐７１９,,13,108,1350062,,,,,,,2024-04-12,1,,,,,アクシュ,0
2066,8010701045839,新規,0,2024-04-12,2024-04-12,株式会社ＦＣＴＥＣ,,株式会社,東京都,品川区,北品川１丁目２３番２１号,,13,109,1400001,,,,,,,2024-04-12,1,,,,,エフシーテック,0
2076,8011001161244,新規,0,2024-04-12,2024-04-12,株式会社ミナスター・トラベルジャパン,,株式会社,東京都,渋谷区,神南１丁目１５番１号マリー・ビル６Ｆ,,13,113,1500041,,,,,,,2024-04-12,1,,,,,ミナスタートラベルジャパン,0
2077,8011001161277,新規,0,2024-04-12,2024-04-12,ＯｐｅｎＷｏｒｌｄ株式会社,,株式会社,東京都,渋谷区,神宮前６丁目２３番４号桑野ビル２階,,13,113,1500001,,,,,,,2024-04-12,1,,,,,オープンワールド,0
2080,8011003018905,新規,0,2024-04-12,2024-04-12,合同会社いまよう,,合同会社,東京都,渋谷区,幡ヶ谷３丁目３９番１２号渋谷ウェストビル１階,,13,113,1510072,,,,,,,2024-04-12,1,,,,,イマヨウ,0
2081,8011003018921,新規,0,2024-04-12,2024-04-12,Ｎ．Ｋ．Ｔｒａｄｉｎｇ合同会社,,合同会社,東京都,渋谷区,代々木５丁目２１番１２－５０２号,,13,113,1510053,,,,,,,2024-04-12,1,,,,,エヌケートレーディング,0
2084,8011101106925,新規,0,2024-04-12,2024-04-12,株式会社ＣＬｔ,,株式会社,東京都,新宿区,西新宿３丁目３－１３西新宿水間ビル６階,,13,104,1600023,,,,,,,2024-04-12,1,,,,,シーエルティ,0
2091,8011501030535,新規,0,2024-04-12,2024-04-12,大福株式会社,,株式会社,東京都,荒川区,町屋６丁目２４－７Ｄ号室,,13,118,1160001,,,,,,,2024-04-12,1,,,,,ダイフク,0
2093,8011701027199,新規,0,2024-04-12,2024-04-12,泓飛商事株式会社,,株式会社,東京都,江戸川区,南小岩７丁目２６－１６－４Ｆ,,13,123,1330056,,,,,,,2024-04-12,1,,,,,ヒロトビショウジ,0
2103,8012701018196,新規,0,2024-04-12,2024-04-12,株式会社睿澤,,株式会社,東京都,西東京市,富士町４丁目１９番７－２０２号,,13,229,2020014,,,,,,,2024-04-12,1,,,,,ルイサワ,0
2105,8013301052338,新規,0,2024-04-12,2024-04-12,順達株式会社,,株式会社,東京都,豊島区,長崎３丁目９－１０コーポ太田１階,,13,116,1710051,,,,,,,2024-04-12,1,,,,,ジュンタツ,0
2106,8013303007091,新規,0,2024-04-12,2024-04-12,合同会社やくどう,,合同会社,東京都,豊島区,東池袋１丁目１８－１ＨａｒｅｚａＴｏｗｅｒ２０Ｆ,,13,116,1700013,,,,,,,2024-04-12,1,,,,,ヤクドウ,0
2113,8020001156641,新規,0,2024-04-12,2024-04-12,株式会社フェイス,,株式会社,神奈川県,横浜市瀬谷区,阿久和西４丁目２１番地１ビレッジハウス阿久和１－３０３,,14,114,2460025,,,,,,,2024-04-12,1,,,,,フェイス,0
2114,8020001156674,新規,0,2024-04-12,2024-04-12,株式会社トキワテック,,株式会社,神奈川県,横浜市緑区,青砥町３１１番地１６,,14,113,2260022,,,,,,,2024-04-12,1,,,,,トキワテック,0
2117,8020005016370,新規,0,2024-04-12,2024-04-12,一般社団法人横浜ユーフォニアム合奏団,,その他の設立登記法人,神奈川県,横浜市旭区,鶴ケ峰１丁目２２番地２,,14,112,2410022,,,,,,,2024-04-12,1,,,,,ヨコハマユーフォニアムガッソウダン,0
2123,8021001081937,新規,0,2024-04-12,2024-04-12,翼空設株式会社,,株式会社,神奈川県,海老名市,杉久保南３丁目４－２９,,14,215,2430427,,,,,,,2024-04-12,1,,,,,ツバサクウセツ,0
2124,8021001081945,新規,0,2024-04-12,2024-04-12,株式会社ＭＫｅ　ｐｌａｎ,,株式会社,神奈川県,厚木市,飯山１０８３番地４,,14,212,2430213,,,,,,,2024-04-12,1,,,,,エムケーイープラン,0
2130,8021003014374,新規,0,2024-04-12,2024-04-12,合同会社ｙｏｕｍｏｎｙ,,合同会社,神奈川県,厚木市,寿町３丁目１０番３号,,14,212,2430003,,,,,,,2024-04-12,1,,,,,ユーモニー,0
2134,8030001159742,新規,0,2024-04-12,2024-04-12,株式会社Ｃｈｏｃｏｔｔｏ,,株式会社,埼玉県,さいたま市大宮区,桜木町１丁目１９５番地１大宮ソラミチＫＯＺ４階,,11,103,3300854,,,,,,,2024-04-12,1,,,,,チョコット,0
2135,8030001159775,新規,0,2024-04-12,2024-04-12,株式会社トラストリフォーム,,株式会社,埼玉県,所沢市,和ケ原１丁目２２３番地の７９,,11,208,3591162,,,,,,,2024-04-12,1,,,,,トラストリフォーム,0
2136,8030001159783,新規,0,2024-04-12,2024-04-12,日本飛雲商事株式会社,,株式会社,埼玉県,和光市,中央１丁目３－３レーヴＴＡＫＥＤＡ和光２０１号室,,11,229,3510113,,,,,,,2024-04-12,1,,,,,ニホンヒウンショウジ,0
2137,8030001159800,新規,0,2024-04-12,2024-04-12,Ｓｕｎｆｌｏｗｅｒ株式会社,,株式会社,埼玉県,蕨市,中央２丁目２－７メゾンド中央４０２号室,,11,223,3350004,,,,,,,2024-04-12,1,,,,,サンフラワー,0
2145,8030003024052,新規,0,2024-04-12,2024-04-12,合同会社光羽工務店,,合同会社,埼玉県,川越市,大字山田１６２１－１モンドビル２Ｆ,,11,201,3500822,,,,,,,2024-04-12,1,,,,,ミツワコウムテン,0
2152,8040001133119,新規,0,2024-04-12,2024-04-12,ＩＲＦＡＮＩ株式会社,,株式会社,千葉県,佐倉市,生谷１５６６－２６４,,12,212,2850836,,,,,,,2024-04-12,1,,,,,イルファニ,0
2172,8050003008276,新規,0,2024-04-12,2024-04-12,ＳＵＬＴＡＮ　ＪＰ　ＴＲＡＤＩＮＧ合同会社,,合同会社,茨城県,結城市,大字北南茂呂２０２７番地１,,08,207,3070036,,,,,,,2024-04-12,1,,,,,スルタンジェーピートレーディング,0
2174,8050005013431,新規,0,2024-04-12,2024-04-12,一般社団法人もあふる,,その他の設立登記法人,茨城県,つくば市,小野崎５９３番地１,,08,220,3050034,,,,,,,2024-04-12,1,,,,,,0
2177,8060003005033,新規,0,2024-04-12,2024-04-12,ＫＩＰプランニング合同会社,,合同会社,栃木県,宇都宮市,中央３丁目１―４栃木県産業会館３階,,09,201,3200806,,,,,,,2024-04-12,1,,,,,ケイアイピープランニング,0
2181,8070001041632,新規,0,2024-04-12,2024-04-12,株式会社ＢＬＵＥ　ＬＩＦＥ,,株式会社,群馬県,みどり市,笠懸町阿左美３５８６番地１,,10,212,3792311,,,,,,,2024-04-12,1,,,,,ブルーライフ,0
2185,8080401027115,新規,0,2024-04-12,2024-04-12,株式会社ＯＫＩＴＡ,,株式会社,静岡県,浜松市中央区,御給町２７７番地,,22,138,4300831,,,,,,,2024-04-12,1,,,,,オキタ,0
2186,8080403004987,新規,0,2024-04-12,2024-04-12,合同会社予祝ばーすティラノ,,合同会社,静岡県,磐田市,向笠西５７６番地８,,22,211,4380014,,,,,,,2024-04-12,1,,,,,ヨシュクバースティラノ,0
2191,8120001006043,新規,0,2024-04-12,2024-04-12,中山外株式会社,,株式会社,大阪府,大阪市阿倍野区,昭和町４丁目９番２６号,,27,119,5450011,,,,,,,2024-04-12,1,,,,,,0
2200,8120001263948,新規,0,2024-04-12,2024-04-12,こころみ不動産株式会社,,株式会社,大阪府,枚方市,北中振３丁目１７－３６－０８,,27,210,5730064,,,,,,,2024-04-12,1,,,,,ココロミフドウサン,0
2201,8120001263956,新規,0,2024-04-12,2024-04-12,株式会社グロース・プロモーター,,株式会社,大阪府,大阪市北区,中津３丁目１１番２－２０４号,,27,127,5310071,,,,,,,2024-04-12,1,,,,,グロースプロモーター,0
2202,8120001263964,新規,0,2024-04-12,2024-04-12,株式会社Ｎｅｗ　Ｄｅｃｋ,,株式会社,大阪府,大阪市天王寺区,上本町１丁目１番１５号,,27,109,5430001,,,,,,,2024-04-12,1,,,,,ニューデック,0
2203,8120001264005,新規,0,2024-04-12,2024-04-12,吉新株式会社,,株式会社,大阪府,大阪市港区,三先２丁目７番７号,,27,107,5520016,,,,,,,2024-04-12,1,,,,,ヨシシン,0
2210,8120901049026,新規,0,2024-04-12,2024-04-12,株式会社ＣＬＡＳＳＩＣＡＬ,,株式会社,大阪府,吹田市,江の木町１６－３４－５０１,,27,205,5640053,,,,,,,2024-04-12,1,,,,,クラシカル,0
2211,8120903005126,新規,0,2024-04-12,2024-04-12,合同会社コード,,合同会社,大阪府,茨木市,山手台２丁目５番６－１０３号,,27,211,5670009,,,,,,,2024-04-12,1,,,,,コード,0
2212,8122001037984,新規,0,2024-04-12,2024-04-12,異連日本株式会社,,株式会社,大阪府,東大阪市,上石切町２丁目１２番１４号,,27,227,5798012,,,,,,,2024-04-12,1,,,,,イレンニホン,0
2216,8130001076795,新規,0,2024-04-12,2024-04-12,株式会社セオリー,,株式会社,京都府,京都市右京区,西院清水町１２番地１プリオーレ京都西院８０１号,,26,108,6150052,,,,,,,2024-04-12,1,,,,,セオリー,0
2225,8140003020404,新規,0,2024-04-12,2024-04-12,合同会社ワンダープラネット,,合同会社,兵庫県,川西市,久代６丁目２番４－８１９号,,28,217,6660024,,,,,,,2024-04-12,1,,,,,ワンダープラネット,0
2229,8150001027219,新規,0,2024-04-12,2024-04-12,株式会社ＮＥＷ　ＦＲＯＮＴＩＥＲ,,株式会社,奈良県,大和高田市,大字神楽２５４番地３,,29,202,6350026,,,,,,,2024-04-12,1,,,,,ニューフロンティア,0
2234,8160001025840,新規,0,2024-04-12,2024-04-12,ｅｌｌｎａｂｏ株式会社,,株式会社,滋賀県,野洲市,冨波甲６２番地７２,,25,210,5202351,,,,,,,2024-04-12,1,,,,,エルナボ,0
2245,8180001161015,新規,0,2024-04-12,2024-04-12,株式会社大寶トラベルツアー,,株式会社,愛知県,名古屋市熱田区,大宝４丁目３番１５号,,23,109,4560062,,,,,,,2024-04-12,1,,,,,タイホウトラベルツアー,0
2248,8180003026629,新規,0,2024-04-12,2024-04-12,合同会社扶桑コンタクトレンズ,,合同会社,愛知県,丹羽郡扶桑町,大字高木字福１４５３番地,,23,362,4800107,,,,,,,2024-04-12,1,,,,,フソウコンタクトレンズ,0
2254,8190001031282,新規,0,2024-04-12,2024-04-12,株式会社Ｍａｘｉｍａｘ,,株式会社,三重県,伊勢市,野村町５６１０番地２,,24,203,5150511,,,,,,,2024-04-12,1,,,,,マキシマクス,0
2263,8220001025933,新規,0,2024-04-12,2024-04-12,株式会社スマイル,,株式会社,石川県,金沢市,彦三町１丁目２‐１アソルティ金沢彦三１Ｆ・３Ｆ,,17,201,9200901,,,,,,,2024-04-12,1,,,,,スマイル,0
2268,8250001020601,新規,0,2024-04-12,2024-04-12,株式会社虹ラボ,,株式会社,山口県,光市,虹ケ浜３丁目１９番６０号,,35,210,7430022,,,,,,,2024-04-12,1,,,,,ニジラボ,0
2270,8260001038964,新規,0,2024-04-12,2024-04-12,株式会社Ｗｉｌｌ　Ｂｒｉｄｇｅ,,株式会社,岡山県,岡山市北区,下中野７０８番地１０５ブルージュ下中野３０３号室,,33,101,7000973,,,,,,,2024-04-12,1,,,,,ウィルブリッジ,0
2274,8270003001614,新規,0,2024-04-12,2024-04-12,ｔｏｒｉｍａ合同会社,,合同会社,鳥取県,米子市,河崎３３１５番地１４１,,31,202,6830852,,,,,,,2024-04-12,1,,,,,トリマ,0
2278,8290001105290,新規,0,2024-04-12,2024-04-12,株式会社ＨｉＢｉＫｉ,,株式会社,福岡県,福岡市城南区,長尾３丁目５番１１号,,40,136,8140123,,,,,,,2024-04-12,1,,,,,ヒビキ,0
2279,8290001105365,新規,0,2024-04-12,2024-04-12,株式会社Ａｍｂｅｒ,,株式会社,福岡県,福岡市中央区,今泉１丁目１３番１１－７０５号,,40,133,8100021,,,,,,,2024-04-12,1,,,,,アンバー,0
2294,8360001033492,新規,0,2024-04-12,2024-04-12,株式会社ｋｉｗａｍｉ,,株式会社,沖縄県,石垣市,字石垣２６０番地１,,47,207,9070023,,,,,,,2024-04-12,1,,,,,キワミ,0
2295,8360003013889,新規,0,2024-04-12,2024-04-12,合同会社ＩＴＡＤＡＫＩ　ＬＡＢ,,合同会社,沖縄県,国頭郡今帰仁村,字古宇利１２００番地,,47,306,9050406,,,,,,,2024-04-12,1,,,,,イタダキラボ,0
2296,8360003013897,新規,0,2024-04-12,2024-04-12,オモイカネ合同会社,,合同会社,沖縄県,那覇市,松川２丁目５番１９－３号,,47,201,9020062,,,,,,,2024-04-12,1,,,,,オモイカネ,0
2299,8370005010768,新規,0,2024-04-12,2024-04-12,一般社団法人Ｇｏｌａｚｏ,,その他の設立登記法人,宮城県,多賀城市,中央２丁目２５番３号,,04,209,9850873,,,,,,,2024-04-12,1,,,,,ゴラッソ,0
2307,8380005012813,新規,0,2024-04-12,2024-04-12,一般社団法人福島県法面保護協会,,その他の設立登記法人,福島県,福島市,飯坂町平野字代２番地の５,,07,201,9600231,,,,,,,2024-04-12,1,,,,,フクシマケンノリメンホゴキョウカイ,0
2321,8430003016208,新規,0,2024-04-12,2024-04-12,アーバンランド合同会社,,合同会社,北海道,伊達市,末永町１１２番地２,,01,233,0520021,,,,,,,2024-04-12,1,,,,,アーバンランド,0
2324,8430005014960,新規,0,2024-04-12,2024-04-12,一般社団法人まちづくり篠路,,その他の設立登記法人,北海道,札幌市北区,篠路五条７丁目２番２９号,,01,102,0028025,,,,,,,2024-04-12,1,,,,,マチヅクリシノロ,0
2328,8500001025558,新規,0,2024-04-12,2024-04-12,株式会社革誠,,株式会社,愛媛県,松山市,小栗６丁目９番４号,,38,201,7900036,,,,,,,2024-04-12,1,,,,,カクセイ,0
2331,8700150124834,新規,0,2024-04-12,2024-04-12,Ｇ・Ｓｔａｒ　Ｅｖｅｎｔ　Ｍａｎａｇｅｍｅｎｔ　Ｐｖｔ．Ｌｔｄ．,,外国会社等,東京都,中野区,中央５丁目４２番１１号ひかりハイツ２１３,,13,114,1640011,ネパール、カトマンズ地区、カトマンズ都市、第７区、ハウス番号５８,,,,,,2024-04-12,1,,,,,ジスターイベントマネジメントプライベートリミテツド,0
2339,9010001243828,新規,0,2024-04-12,2024-04-12,株式会社ストーンズ,,株式会社,東京都,千代田区,神田三崎町３丁目５番９号天翔水道橋ビル６０１号室,,13,101,1010061,,,,,,,2024-04-12,1,,,,,ストーンズ,0
2340,9010001243877,新規,0,2024-04-12,2024-04-12,株式会社友豊商事,,株式会社,東京都,文京区,湯島３丁目２４－１１湯島北東ビル８階Ａ室,,13,105,1130034,,,,,,,2024-04-12,1,,,,,ユウホウショウジ,0
2341,9010001243968,新規,0,2024-04-12,2024-04-12,株式会社Ｐｌｏｔ,,株式会社,東京都,中央区,月島３丁目２５番３－６０９号,,13,102,1040052,,,,,,,2024-04-12,1,,,,,プロット,0
2342,9010003043425,新規,0,2024-04-12,2024-04-12,ＬＭ合同会社,,合同会社,東京都,中央区,銀座６丁目１３番１６号銀座ＷａｌｌビルＵＣＦ５階,,13,102,1040061,,,,,,,2024-04-12,1,,,,,エルエム,0
2343,9010003043458,新規,0,2024-04-12,2024-04-12,エスジャパン合同会社,,合同会社,東京都,千代田区,麹町１丁目３番地５ミクニビル５階,,13,101,1020083,,,,,,,2024-04-12,1,,,,,エスジャパン,0
2344,9010003043466,新規,0,2024-04-12,2024-04-12,合同会社ＳＵＳＴＡＩＲ,,合同会社,東京都,中央区,銀座１丁目３番３号Ｇ１ビル７階,,13,102,1040061,,,,,,,2024-04-12,1,,,,,サステア,0
2346,9010005038183,新規,0,2024-04-12,2024-04-12,一般社団法人ＡＦＢＣ　Ｈｏｎｍａｃｈｉ,,その他の設立登記法人,東京都,千代田区,丸の内３丁目１番１号東京共同会計事務所内,,13,101,1000005,,,,,,,2024-04-12,1,,,,,エーエフビーシーホンマチ,0
2358,9010501052084,新規,0,2024-04-12,2024-04-12,Ｅｌｉｔｅ　Ｓｅｌｅｃｔｉｏｎ株式会社,,株式会社,東京都,台東区,浅草橋１丁目６番２号,,13,106,1110053,,,,,,,2024-04-12,1,,,,,エリートセレクション,0
2363,9010701045838,新規,0,2024-04-12,2024-04-12,株式会社リリィ,,株式会社,東京都,品川区,東大井１丁目２番２号２０７号室,,13,109,1400011,,,,,,,2024-04-12,1,,,,,リリィ,0
2366,9010801034939,新規,0,2024-04-12,2024-04-12,Ｗｅｌｌ‐ｂａｓｅ株式会社,,株式会社,東京都,大田区,西蒲田８丁目３番８－８０１号,,13,111,1440051,,,,,,,2024-04-12,1,,,,,ウェルベース,0
2367,9010801034955,新規,0,2024-04-12,2024-04-12,株式会社ＵＢＯ,,株式会社,東京都,大田区,西馬込２丁目１９番１５号,,13,111,1430026,,,,,,,2024-04-12,1,,,,,ユービーオー,0
2382,9011101106965,新規,0,2024-04-12,2024-04-12,株式会社ＢｒｉｎｇＦｌｏｗｅｒ,,株式会社,東京都,新宿区,西新宿３丁目３番１３号西新宿水間ビル６階,,13,104,1600023,,,,,,,2024-04-12,1,,,,,ブリングフラワー,0
2388,9011403004339,新規,0,2024-04-12,2024-04-12,合同会社赤間商事,,合同会社,東京都,板橋区,高島平９丁目１番８－１１１６号,,13,119,1750082,,,,,,,2024-04-12,1,,,,,アカマショウジ,0
2391,9011501030518,新規,0,2024-04-12,2024-04-12,佐世株式会社,,株式会社,東京都,北区,東田端２丁目９番１７号２０１号室,,13,117,1140013,,,,,,,2024-04-12,1,,,,,サヨ,0
2392,9011501030534,新規,0,2024-04-12,2024-04-12,三木テクノロジー株式会社,,株式会社,東京都,荒川区,南千住３丁目２７－２浅草ビル５０８,,13,118,1160003,,,,,,,2024-04-12,1,,,,,ミキテクノロジー,0
2393,9011503006020,新規,0,2024-04-12,2024-04-12,合同会社明勝健康堂,,合同会社,東京都,荒川区,西日暮里１丁目５６番７号,,13,118,1160013,,,,,,,2024-04-12,1,,,,,メイショウケンコウドウ,0
2394,9011505002620,新規,0,2024-04-12,2024-04-12,一般社団法人結婚アカデミー,,その他の設立登記法人,東京都,北区,東田端２丁目８番１５－２０７号,,13,117,1140013,,,,,,,2024-04-12,1,,,,,ケッコンアカデミー,0
2400,9012403006507,新規,0,2024-04-12,2024-04-12,合同会社パワーリンクソリューション,,合同会社,東京都,稲城市,平尾４丁目３６－７,,13,225,2060823,,,,,,,2024-04-12,1,,,,,パワーリンクソリューション,0
2408,9013301052337,新規,0,2024-04-12,2024-04-12,株式会社ワトナル,,株式会社,東京都,豊島区,南池袋１丁目１６－１５ダイヤゲート池袋５階,,13,116,1710022,,,,,,,2024-04-12,1,,,,,ワトナル,0
2410,9013303007090,新規,0,2024-04-12,2024-04-12,合同会社ｐｅｎｐｅｎ,,合同会社,東京都,豊島区,上池袋１丁目６番４号メゾンアネックス２０１号,,13,116,1700012,,,,,,,2024-04-12,1,,,,,ペンペン,0
2421,9021001081944,新規,0,2024-04-12,2024-04-12,株式会社Ｍｉｄｄｌｅ　Ｔｉｄｅ,,株式会社,神奈川県,藤沢市,辻堂太平台１丁目９－４７,,14,205,2510044,,,,,,,2024-04-12,1,,,,,ミドルタイド,0
2422,9021003014357,新規,0,2024-04-12,2024-04-12,恒盛商事合同会社,,合同会社,神奈川県,横須賀市,久里浜４丁目１０番１１号杉山ビル３０１,,14,201,2390831,,,,,,,2024-04-12,1,,,,,コウセイショウジ,0
2423,9021003014365,新規,0,2024-04-12,2024-04-12,合同会社ＷＥＳＴ　ＣＵＬＴＵＲＥ,,合同会社,神奈川県,藤沢市,辻堂２丁目３－９牧田賃店舗２０３,,14,205,2510047,,,,,,,2024-04-12,1,,,,,ウェストカルチャー,0
2424,9021003014373,新規,0,2024-04-12,2024-04-12,光合同会社,,合同会社,神奈川県,藤沢市,鵠沼石上２丁目５番１号湘南鵠沼ＢＬＤ３階Ｃ号室,00134387,14,205,2510025,,,,,,,2024-04-12,1,,,,,ヒカリ,0
2434,9030001159774,新規,0,2024-04-12,2024-04-12,株式会社岩,,株式会社,埼玉県,川口市,南町２丁目５番１４－５０５号,,11,203,3320026,,,,,,,2024-04-12,1,,,,,イワ,0
2435,9030001159782,新規,0,2024-04-12,2024-04-12,Ｔｒｅａｓｕｒｅ　Ｆｏｏｄｌａｎｄ‐ＴＷ株式会社,,株式会社,埼玉県,新座市,大和田１丁目１８－３トーシンハイツ新座２０３号室,,11,230,3520004,,,,,,,2024-04-12,1,,,,,トレジャーフードランドティーダブル,0
2436,9030001159808,新規,0,2024-04-12,2024-04-12,株式会社佐藤商店,,株式会社,埼玉県,熊谷市,楊井１３７５番地１,,11,202,3600164,,,,,,,2024-04-12,1,,,,,サトウショウテン,0
2445,9030003024043,新規,0,2024-04-12,2024-04-12,合同会社Ｔ．Ｎ,,合同会社,埼玉県,北足立郡伊奈町,本町２丁目２９番地リバティーハイツ１０１,,11,301,3620804,,,,,,,2024-04-12,1,,,,,ティーエヌ,0
2448,9030005021625,新規,0,2024-04-12,2024-04-12,一般社団法人埼玉県空手道連盟,,その他の設立登記法人,埼玉県,さいたま市緑区,芝原３丁目３７番地６,,11,109,3360917,,,,,,,2024-04-12,1,,,,,サイタマケンカラテドウレンメイ,0
2452,9040001133092,新規,0,2024-04-12,2024-04-12,株式会社リゲイン,,株式会社,千葉県,船橋市,湊町１丁目２０番３号ジーアイハウス湊Ａ２０１,,12,204,2730011,,,,,,,2024-04-12,1,,,,,リゲイン,0
2462,9050001054627,新規,0,2024-04-12,2024-04-12,株式会社ボウタイシステム,,株式会社,茨城県,水戸市,河和田２丁目２１０６番地の１,,08,201,3114152,,,,,,,2024-04-12,1,,,,,ボウタイシステム,0
2465,9060005010195,新規,0,2024-04-12,2024-04-12,医療法人５つのわ,,その他の設立登記法人,栃木県,足利市,借宿町５５８番地,,09,202,3260826,,,,,,,2024-04-12,1,,,,,イツツノワ,0
2467,9070001041623,新規,0,2024-04-12,2024-04-12,赤城農芸化学株式会社,,株式会社,群馬県,渋川市,赤城町長井小川田２２９１番地,,10,208,3791102,,,,,,,2024-04-12,1,,,,,アカギノウゲイカガク,0
2473,9090001018644,新規,0,2024-04-12,2024-04-12,グリズリーカンパニー株式会社,,株式会社,山梨県,山梨市,一町田中３０５,,19,205,4050025,,,,,,,2024-04-12,1,,,,,グリズリーカンパニー,0
2492,9120001263864,新規,0,2024-04-12,2024-04-12,融高株式会社,,株式会社,大阪府,大阪市城東区,鴫野東１丁目６番９号オノライトマンションＢ２０２号室,,27,118,5360013,,,,,,,2024-04-12,1,,,,,ユウタカ,0
2493,9120001263988,新規,0,2024-04-12,2024-04-12,遨遊株式会社,,株式会社,大阪府,守口市,佐太中町３丁目１番２５号,,27,209,5700002,,,,,,,2024-04-12,1,,,,,ゴウユウ,0
2494,9120001263996,新規,0,2024-04-12,2024-04-12,株式会社みんラボ,,株式会社,大阪府,大阪市中央区,久太郎町４丁目１番３号大阪センタービル６Ｆ－２９３,,27,128,5410056,,,,,,,2024-04-12,1,,,,,ミンラボ,0
2495,9120001264037,新規,0,2024-04-12,2024-04-12,合一株式会社,,株式会社,大阪府,大阪市北区,天満４丁目１０－１０本田ビル３０５号室,,27,127,5300043,,,,,,,2024-04-12,1,,,,,ゴウイツ,0
2497,9120901049025,新規,0,2024-04-12,2024-04-12,株式会社大和,,株式会社,大阪府,高槻市,大蔵司３丁目２０番３７号,,27,207,5691034,,,,,,,2024-04-12,1,,,,,ヤマト,0
2501,9130001076737,新規,0,2024-04-12,2024-04-12,株式会社上ル,,株式会社,京都府,京都市中京区,壬生坊城町５６番地１７,,26,104,6048804,,,,,,,2024-04-12,1,,,,,アガル,0
2502,9130001076803,新規,0,2024-04-12,2024-04-12,ＭＫ　ＪＡＰＡＮ株式会社,,株式会社,京都府,京都市右京区,西院西溝崎町８番地フクダビル田中電気株式会社西工場内,,26,108,6150046,,,,,,,2024-04-12,1,,,,,エムケイジャパン,0
2503,9130001076836,新規,0,2024-04-12,2024-04-12,株式会社京都事務代行サービス,,株式会社,京都府,京都市左京区,北白川西町７６－１,,26,103,6068267,,,,,,,2024-04-12,1,,,,,キョウトジムダイコウサービス,0
2516,9140001134015,新規,0,2024-04-12,2024-04-12,株式会社Ｐｒｅｓｉａ,,株式会社,兵庫県,西宮市,甲子園口３丁目４番１４号アスク甲子園１Ｆ,,28,204,6638113,,,,,,,2024-04-12,1,,,,,プレシア,0
2527,9170003002019,新規,0,2024-04-12,2024-04-12,合同会社インターラボテクノロジズ,,合同会社,和歌山県,和歌山市,築港１丁目１７番地７,,30,201,6408287,,,,,,,2024-04-12,1,,,,,インターラボテクノロジズ,0
2530,9180001160825,新規,0,2024-04-12,2024-04-12,株式会社ａｕｒｉｎｃｏ,,株式会社,愛知県,知多市,寺本新町２丁目６５番地の３,,23,224,4780063,,,,,,,2024-04-12,1,,,,,アウリンコ,0
2531,9180001160957,新規,0,2024-04-12,2024-04-12,株式会社梶原製作所,,株式会社,愛知県,北名古屋市,九之坪鴨田１５８番地,,23,234,4810041,,,,,,,2024-04-12,1,,,,,カジハラセイサクショ,0
2532,9180001161047,新規,0,2024-04-12,2024-04-12,株式会社オーバートレイル,,株式会社,愛知県,一宮市,大和町苅安賀字火口上１３番地３,,23,203,4910934,,,,,,,2024-04-12,1,,,,,オーバートレイル,0
2535,9180005020587,新規,0,2024-04-12,2024-04-12,特定非営利活動法人むすびば,,その他の設立登記法人,愛知県,名古屋市天白区,植田１丁目１３０６番地メゾンＵＥＤＡ２０１号,,23,116,4680051,,,,,,,2024-04-12,1,,,,,ムスビバ,0
2543,9200001042384,新規,0,2024-04-12,2024-04-12,株式会社ｇｉ,,株式会社,岐阜県,岐阜市,金町６丁目２１岐阜ステーションビル３０４,,21,201,5008842,,,,,,,2024-04-12,1,,,,,ジーアイ,0
2545,9220001025932,新規,0,2024-04-12,2024-04-12,株式会社Ｎｅｗ　ｔｒｙ　Ｐｒｏｊｅｃｔ,,株式会社,石川県,金沢市,彦三町１丁目２‐１アソルティ金沢彦三１Ｆ，３Ｆ,,17,201,9200901,,,,,,,2024-04-12,1,,,,,ニュートライプロジェクト,0
2554,9290001105315,新規,0,2024-04-12,2024-04-12,株式会社国武興業,,株式会社,福岡県,筑後市,大字久富１７３２番地１,,40,211,8330056,,,,,,,2024-04-12,1,,,,,クニタケコウギョウ,0
2557,9290003015157,新規,0,2024-04-12,2024-04-12,ＡＲＭＥＲＩＡ合同会社,,合同会社,福岡県,福岡市中央区,天神４丁目６－２８天神ファーストビル７階,,40,133,8100001,,,,,,,2024-04-12,1,,,,,アルメリア,0
2558,9290003015165,新規,0,2024-04-12,2024-04-12,合同会社ＰＯＰＯＭＩＮ,,合同会社,福岡県,福岡市博多区,博多駅前１丁目２３番２号ＰａｒｋＦｒｏｎｔ博多駅前１丁目５Ｆ－Ｂ,,40,132,8120011,,,,,,,2024-04-12,1,,,,,ポポミン,0
2562,9330001031936,新規,0,2024-04-12,2024-04-12,株式会社オーエスエンジニア,,株式会社,熊本県,熊本市北区,龍田１丁目２０番９８号,,43,105,8618006,,,,,,,2024-04-12,1,,,,,オーエスエンジニア,0
2563,9330001031952,新規,0,2024-04-12,2024-04-12,尼西電子株式会社,,株式会社,熊本県,熊本市西区,二本木４丁目９番４５号,,43,103,8600051,,,,,,,2024-04-12,1,,,,,ニシデンシ,0
2573,9360001033467,新規,0,2024-04-12,2024-04-12,株式会社ＲＩＮＧ,,株式会社,沖縄県,名護市,字宮里４４７番地２０丸平第二アパート１０１,,47,209,9050011,,,,,,,2024-04-12,1,,,,,リング,0
2574,9360003013896,新規,0,2024-04-12,2024-04-12,合同会社サウス,,合同会社,沖縄県,糸満市,字兼城３８１番地の３エヌズヴィラレグルス１０５,,47,210,9010303,,,,,,,2024-04-12,1,,,,,サウス,0
2575,9360005007021,新規,0,2024-04-12,2024-04-12,一般社団法人ウェルネスインストラクター支援協会,,その他の設立登記法人,沖縄県,名護市,字為又９０４番地１０プレサンスロジェ名護為又フォルサ８０６号室,,47,209,9050005,,,,,,,2024-04-12,1,,,,,ウェルネスインストラクターシエンキョウカイ,0
2580,9370003006569,新規,0,2024-04-12,2024-04-12,合同会社ＴＫＹネットワーク,,合同会社,宮城県,角田市,梶賀字西一番２３１番地,,04,208,9811523,,,,,,,2024-04-12,1,,,,,ティケーワイネットワーク,0
2591,9400001016616,新規,0,2024-04-12,2024-04-12,株式会社センチュリー,,株式会社,岩手県,盛岡市,中央通２丁目１番５号ＳＮＩ、ＥＡＳＴビル４階,,03,201,0200021,,,,,,,2024-04-12,1,,,,,センチュリー,0
2593,9420001018684,新規,0,2024-04-12,2024-04-12,株式会社おつぐカンパニー,,株式会社,青森県,八戸市,根城４丁目２番１５号,,02,203,0391166,,,,,,,2024-04-12,1,,,,,オツグカンパニー,0
2599,9430001091524,新規,0,2024-04-12,2024-04-12,株式会社ｈｉ‐ｄｅ　ＡＳＫ,,株式会社,北海道,札幌市東区,北十条東１丁目２－３６アビネス北１０条４０１,,01,103,0650010,,,,,,,2024-04-12,1,,,,,ハイディアスク,0
2600,9430001091557,新規,0,2024-04-12,2024-04-12,株式会社らっく,,株式会社,北海道,札幌市北区,北二十一条西５丁目２番２０号４０１,,01,102,0010021,,,,,,,2024-04-12,1,,,,,ラック,0
2601,9430001091565,新規,0,2024-04-12,2024-04-12,株式会社ＰＯＤ,,株式会社,北海道,札幌市手稲区,新発寒五条５丁目１１番６号,,01,109,0060805,,,,,,,2024-04-12,1,,,,,ポッド,0
2602,9430001091581,新規,0,2024-04-12,2024-04-12,Ｒプラン株式会社,,株式会社,北海道,札幌市清田区,清田九条３丁目５番１０号,,01,110,0040849,,,,,,,2024-04-12,1,,,,,アールプラン,0
2617,9700150120683,新規,0,2024-04-12,2024-04-12,ｚｈｏｎｇ　ｓｈａｎ　ｓｈｉ　ｊｉａ　ｋｕａｉ　ｋｅ　ｊｉ　ｙｏｕ　ｘｉａｎ　ｇｏｎｇ　ｓｉ,,外国会社等,,,,,,,,２５（１０ｋａ）Ｊｉｅｙｕａｎｌｉ，Ｓｈｉｑｉ　Ｄｉｓｔｒｉｃｔ，Ｚｈｏｎｇｓｈａｎ　Ｃｉｔｙ，ＧｕａｎｇＤｏｎｇ　ｐｒｏｖｉｎｃｅ，Ｃｈｉｎａ　５２８４００　Ｐ．Ｒ．Ｃ,,,,,,2024-04-12,1,,,,,チュウサンシカカイカギユウゲンコウシ,0
2618,9700150124833,新規,0,2024-04-12,2024-04-12,ＡＫＩＲＡ　ＥＮＴＥＲＰＲＩＳＥＳ,,外国会社等,千葉県,白井市,十余一１４番地１,,12,232,2701411,スリランカ民主社会主義共和国コヒレゲダラ．サーアガマ．２７３／２／２,,,,,,2024-04-12,1,,,,,アキラエンタプライゼス,0
