sequenceNumber,corporateNumber,process,correct,updateDate,changeDate,name,nameImageId,kind,prefectureName,cityName,streetNumber,addressImageId,prefectureCode,cityCode,postCode,addressOutside,addressOutsideImageId,closeDate,closeCause,successorCorporateNumber,changeCause,assignmentDate,latest,enName,enPrefectureName,enCityName,enAddressOutside,furigana,hihyoji
6,1010001233596,新規,0,2023-03-10,2023-03-10,株式会社ＫＡＭＯＫＯ,,株式会社,東京都,中央区,築地６丁目２３番５号,,13,102,1040045,,,,,,,2023-03-10,1,,,,,カモコー,0
7,1010001233638,新規,0,2023-03-10,2023-03-10,ＳＫホールディングス株式会社,,株式会社,東京都,中央区,日本橋箱崎町３２番９号３Ｆ,,13,102,1030015,,,,,,,2023-03-10,1,,,,,エスケイホールディングス,0
10,1010003040017,新規,0,2023-03-10,2023-03-10,石鍋ビル合同会社,,合同会社,東京都,千代田区,神田佐久間町１丁目２７番地石鍋ビル５階,,13,101,1010025,,,,,,,2023-03-10,1,,,,,イシナベビル,0
18,1010401172881,新規,0,2023-03-10,2023-03-10,アイジーエスエス株式会社,,株式会社,東京都,港区,三田３丁目１３番１６号三田ＭＴビル１４Ｆ,,13,103,1080073,,,,,,,2023-03-10,1,,,,,アイジーエスエス,0
19,1010401172956,新規,0,2023-03-10,2023-03-10,８８ホームメディカルケア株式会社,,株式会社,東京都,港区,六本木３丁目１６番３５号イースト六本木７０４,,13,103,1060032,,,,,,,2023-03-10,1,,,,,ハチハチホームメディカルケア,0
20,1010401172972,新規,0,2023-03-10,2023-03-10,株式会社ＩＮＸＩ,,株式会社,東京都,港区,赤坂１丁目１２番１２号榎坂ビル３階,,13,103,1070052,,,,,,,2023-03-10,1,,,,,インクシー,0
21,1010401173005,新規,0,2023-03-10,2023-03-10,株式会社亀楽,,株式会社,東京都,港区,南青山２丁目２０番３号,,13,103,1070062,,,,,,,2023-03-10,1,,,,,キラク,0
22,1010403029675,新規,0,2023-03-10,2023-03-10,合同会社ソーラーパーク１８号,,合同会社,東京都,港区,六本木３丁目２番１号,,13,103,1060032,,,,,,,2023-03-10,1,,,,,ソーラーパークジュウハチゴウ,0
28,1010601062726,新規,0,2023-03-10,2023-03-10,株式会社プロフィット,,株式会社,東京都,江東区,潮見２丁目８番１４－１１２号,,13,108,1350052,,,,,,,2023-03-10,1,,,,,プロフィット,0
29,1010601062742,新規,0,2023-03-10,2023-03-10,株式会社ｍｙ　ｌｉｆｅ,,株式会社,東京都,江東区,古石場２丁目１２番５－３０９号,,13,108,1350045,,,,,,,2023-03-10,1,,,,,マイライフ,0
31,1010701043948,新規,0,2023-03-10,2023-03-10,株式会社ＤＩＡＮＡ,,株式会社,東京都,品川区,西五反田５丁目８番１４号,,13,109,1410031,,,,,,,2023-03-10,1,,,,,ディアナ,0
32,1010801033766,新規,0,2023-03-10,2023-03-10,ＣＲｅｅｅｅＴ株式会社,,株式会社,東京都,大田区,中央４丁目２５番１３号,,13,111,1430024,,,,,,,2023-03-10,1,,,,,クリート,0
36,1010905004449,新規,0,2023-03-10,2023-03-10,医療法人社団恒恵会,,その他の設立登記法人,東京都,世田谷区,新町２丁目３５番１６号サラ・グラティオ１階,,13,112,1540014,,,,,,,2023-03-10,1,,,,,コウケイカイ,0
39,1011001153009,新規,0,2023-03-10,2023-03-10,株式会社ＵＴプレイガイド,,株式会社,東京都,渋谷区,神宮前５丁目９番２３号,,13,113,1500001,,,,,,,2023-03-10,1,,,,,,0
40,1011001153058,新規,0,2023-03-10,2023-03-10,株式会社キッチン黒船,,株式会社,東京都,渋谷区,千駄ヶ谷３丁目４番２号エテルノ原宿,,13,113,1510051,,,,,,,2023-03-10,1,,,,,キッチンクロフネ,0
43,1011101102088,新規,0,2023-03-10,2023-03-10,株式会社サーチナビ,,株式会社,東京都,新宿区,西新宿７丁目２番６号,,13,104,1600023,,,,,,,2023-03-10,1,,,,,サーチナビ,0
44,1011101102105,新規,0,2023-03-10,2023-03-10,株式会社３ＰｉＴ,,株式会社,東京都,新宿区,西新宿３丁目３番１３号西新宿水間ビル６階,,13,104,1600023,,,,,,,2023-03-10,1,,,,,スリーピット,0
46,1011103012789,新規,0,2023-03-10,2023-03-10,Ｂａｍｉ合同会社,,合同会社,東京都,新宿区,下落合３丁目９番１２号,,13,104,1610033,,,,,,,2023-03-10,1,,,,,バミ,0
48,1011201024488,新規,0,2023-03-10,2023-03-10,株式会社ポスコネクト,,株式会社,東京都,中野区,沼袋１丁目２０－２宮田ハイツ１０１,,13,114,1650025,,,,,,,2023-03-10,1,,,,,ポスコネクト,0
54,1011503005509,新規,0,2023-03-10,2023-03-10,合同会社オフィスクリハラ,,合同会社,東京都,北区,赤羽西１丁目１番１３号コンフォルトナルミセカンド８０１号室,,13,117,1150055,,,,,,,2023-03-10,1,,,,,オフィスクリハラ,0
59,1011801042047,新規,0,2023-03-10,2023-03-10,株式会社Ｎｅｘｔ　Ｓｋｈｒ,,株式会社,東京都,葛飾区,新小岩３丁目５番７号,,13,122,1240024,,,,,,,2023-03-10,1,,,,,ネクストスカー,0
60,1011801042055,新規,0,2023-03-10,2023-03-10,スイッチ株式会社,,株式会社,東京都,葛飾区,東立石２丁目２番４号,,13,122,1240013,,,,,,,2023-03-10,1,,,,,スイッチ,0
61,1011803005555,新規,0,2023-03-10,2023-03-10,合同会社金町おこし,,合同会社,東京都,葛飾区,金町５丁目１４－９,,13,122,1250042,,,,,,,2023-03-10,1,,,,,カナマチオコシ,0
64,1012401040267,新規,0,2023-03-10,2023-03-10,株式会社スターター・ホーム,,株式会社,東京都,三鷹市,井口３丁目２番１５号１０２,,13,204,1810011,,,,,,,2023-03-10,1,,,,,スターターホーム,0
65,1012403005870,新規,0,2023-03-10,2023-03-10,Ｌｉｓｂｌａｎｃ　Ｙ．Ｍ合同会社,,合同会社,東京都,三鷹市,下連雀８丁目７－５モンレーヴ吉祥寺６０７,,13,204,1810013,,,,,,,2023-03-10,1,,,,,リブランワイエム,0
79,1020001150601,新規,0,2023-03-10,2023-03-10,ユイホーム株式会社,,株式会社,神奈川県,横浜市旭区,二俣川１丁目４５番地４８,,14,112,2410821,,,,,,,2023-03-10,1,,,,,ユイホーム,0
80,1020001150626,新規,0,2023-03-10,2023-03-10,ＮＫホールディングス株式会社,,株式会社,神奈川県,横浜市港北区,新吉田東８丁目２１番１７号,,14,109,2230058,,,,,,,2023-03-10,1,,,,,エヌケーホールディングス,0
85,1020003023474,新規,0,2023-03-10,2023-03-10,合同会社Ｑｕａｌｉｔｙ　Ｐｒｉｄｅ,,合同会社,神奈川県,横浜市中区,打越４２番地３３,,14,104,2310867,,,,,,,2023-03-10,1,,,,,クオリティープライド,0
86,1020003023490,新規,0,2023-03-10,2023-03-10,Ｄ‐ＡＲＫＳ合同会社,,合同会社,神奈川県,横浜市都筑区,見花山１４番７号２０１号室,,14,118,2240066,,,,,,,2023-03-10,1,,,,,ディーアークス,0
87,1020003023499,新規,0,2023-03-10,2023-03-10,合同会社ぴーすふるファーム,,合同会社,神奈川県,横浜市港北区,新羽町４１９０番地,,14,109,2230057,,,,,,,2023-03-10,1,,,,,ピースフルファーム,0
88,1021001078403,新規,0,2023-03-10,2023-03-10,株式会社ＥＸｔｅｒｎｏ,,株式会社,神奈川県,厚木市,水引２丁目４番７号ブランニュー本厚木３０６,,14,212,2430004,,,,,,,2023-03-10,1,,,,,エクステルノ,0
89,1021001078411,新規,0,2023-03-10,2023-03-10,株式会社ＴＲＵＳＴＹ,,株式会社,神奈川県,藤沢市,大庭５４１７番地の１フィリアコート３０２号室,,14,205,2510861,,,,,,,2023-03-10,1,,,,,トラスティー,0
91,1021003012863,新規,0,2023-03-10,2023-03-10,合同会社ＡＵ　ＳＴＡＲ　ＩＮＴＥＲＮＡＴＩＯＮＡＬ,,合同会社,神奈川県,相模原市緑区,若葉台７丁目１番地２,,14,151,2520112,,,,,,,2023-03-10,1,,,,,エーユースターインターナショナル,0
97,1030001152786,新規,0,2023-03-10,2023-03-10,株式会社ストック建築事務所,,株式会社,埼玉県,戸田市,美女木東１丁目２番地の３,,11,224,3350032,,,,,,,2023-03-10,1,,,,,ストックケンチクジムショ,0
98,1030001152811,新規,0,2023-03-10,2023-03-10,清川塗装株式会社,,株式会社,埼玉県,久喜市,鷲宮中央１丁目１６番１５号,,11,232,3400216,,,,,,,2023-03-10,1,,,,,キヨカワトソウ,0
104,1040001127325,新規,0,2023-03-10,2023-03-10,株式会社トレビ,,株式会社,千葉県,鎌ケ谷市,南初富４丁目１９番４３号,,12,224,2730123,,,,,,,2023-03-10,1,,,,,トレビ,0
105,1040001127424,新規,0,2023-03-10,2023-03-10,株式会社ボディラボ,,株式会社,千葉県,千葉市若葉区,高品町４２７番地６,,12,104,2640024,,,,,,,2023-03-10,1,,,,,ボディラボ,0
106,1040001127432,新規,0,2023-03-10,2023-03-10,ＷＩＴＨ　ＴＲＵＮＫ株式会社,,株式会社,千葉県,柏市,若柴２２６番地４２アビタシオン柏の葉３０１,,12,217,2770871,,,,,,,2023-03-10,1,,,,,ウィズトランク,0
107,1040001127440,新規,0,2023-03-10,2023-03-10,ジェイブラス株式会社,,株式会社,千葉県,八千代市,米本２３３２番地２６,,12,221,2760015,,,,,,,2023-03-10,1,,,,,ジェイブラス,0
108,1040001127457,新規,0,2023-03-10,2023-03-10,株式会社ネクストホライズン,,株式会社,千葉県,千葉市美浜区,磯辺５丁目１４番６号サンクレイドル検見川浜２０７号,,12,106,2610012,,,,,,,2023-03-10,1,,,,,ネクストホライズン,0
109,1040001127473,新規,0,2023-03-10,2023-03-10,株式会社クリップ,,株式会社,千葉県,木更津市,東太田４丁目３番１３号,,12,206,2920043,,,,,,,2023-03-10,1,,,,,クリップ,0
114,1040003022128,新規,0,2023-03-10,2023-03-10,創宇合同会社,,合同会社,千葉県,野田市,桜の里３丁目１２番地１９,,12,208,2780048,,,,,,,2023-03-10,1,,,,,ソウウ,0
115,1040003022144,新規,0,2023-03-10,2023-03-10,第十三日本ソーラー電力合同会社,,合同会社,千葉県,千葉市中央区,富士見１丁目１４番１３号千葉大栄ビル８階,,12,101,2600015,,,,,,,2023-03-10,1,,,,,ダイジュウサンニホンソーラーデンリョク,0
116,1040003022152,新規,0,2023-03-10,2023-03-10,合同会社Ｓｗａｇ　Ｗａｖｅ,,合同会社,千葉県,船橋市,湊町２丁目８番４０－２５０７号,,12,204,2730011,,,,,,,2023-03-10,1,,,,,スワッグウェーブ,0
117,1040003022169,新規,0,2023-03-10,2023-03-10,合同会社Ｂａｂｙ　Ｂｌｕｅ　Ｕｎｉｃｏｒｎ,,合同会社,千葉県,鴨川市,和泉５９７番地１,,12,223,2960045,,,,,,,2023-03-10,1,,,,,ベイビーブルーユニコーン,0
120,1060003004462,新規,0,2023-03-10,2023-03-10,ＡＬＩ　ＴＲＡＤＩＮＧ合同会社,,合同会社,栃木県,栃木市,岩舟町新里１３０４－５,,09,203,3294316,,,,,,,2023-03-10,1,,,,,アリトレーディング,0
127,1080001025509,新規,0,2023-03-10,2023-03-10,株式会社ハビバ,,株式会社,静岡県,静岡市駿河区,八幡２丁目８番１９号末續ビル３Ｆ,,22,102,4228076,,,,,,,2023-03-10,1,,,,,ハビバ,0
134,1090001018008,新規,0,2023-03-10,2023-03-10,株式会社ＬＡＭＭＤＹ,,株式会社,山梨県,甲府市,中央１丁目１５番５号ヒロセビル２Ｆ－３,,19,201,4000032,,,,,,,2023-03-10,1,,,,,ランディー,0
135,1090003002273,新規,0,2023-03-10,2023-03-10,合同会社Ｒ２Ｋ,,合同会社,山梨県,山梨市,小原西５４５番地１,,19,205,4050006,,,,,,,2023-03-10,1,,,,,アールツーケー,0
136,1100001036214,新規,0,2023-03-10,2023-03-10,梅の屋リゾート株式会社,,株式会社,長野県,上高井郡高山村,山田温泉３５０７番地１,,20,543,3820800,,,,,,,2023-03-10,1,,,,,ウメノヤリゾート,0
137,1100005012979,新規,0,2023-03-10,2023-03-10,一般社団法人国際油脂栄養協会,,その他の設立登記法人,長野県,岡谷市,中央町２丁目９番１０号,,20,204,3940027,,,,,,,2023-03-10,1,,,,,コクサイユシエイヨウキョウカイ,0
141,1110001037351,新規,0,2023-03-10,2023-03-10,城之古農産株式会社,,株式会社,新潟県,十日町市,城之古８００番地,,15,210,9480047,,,,,,,2023-03-10,1,,,,,タテノコシノウサン,0
155,1120001252973,新規,0,2023-03-10,2023-03-10,アイトラスト不動産株式会社,,株式会社,大阪府,大阪市北区,天神橋２丁目北１番７号,,27,127,5300041,,,,,,,2023-03-10,1,,,,,アイトラストフドウサン,0
156,1120001253063,新規,0,2023-03-10,2023-03-10,杰斯丹株式会社,,株式会社,大阪府,大阪市西成区,天下茶屋１丁目１番１６号,,27,122,5570014,,,,,,,2023-03-10,1,,,,,ケツシタン,0
157,1120001253088,新規,0,2023-03-10,2023-03-10,万安泰昌株式会社,,株式会社,大阪府,寝屋川市,高柳２丁目２８番２号,,27,215,5720051,,,,,,,2023-03-10,1,,,,,マンアンタイショウ,0
160,1120101067124,新規,0,2023-03-10,2023-03-10,株式会社ＱＵＥＥＮ,,株式会社,大阪府,堺市北区,百舌鳥梅町１丁１６－４－１ラレックス城ノ山１号,,27,146,5918032,,,,,,,2023-03-10,1,,,,,クイーン,0
161,1120101067132,新規,0,2023-03-10,2023-03-10,藤田商事株式会社,,株式会社,大阪府,松原市,天美東２丁目１４０番地の１（３０１号）,,27,217,5800032,,,,,,,2023-03-10,1,,,,,フジタショウジ,0
162,1120103005115,新規,0,2023-03-10,2023-03-10,合同会社誠義,,合同会社,大阪府,松原市,天美東２丁目２１２－３０２,,27,217,5800032,,,,,,,2023-03-10,1,,,,,セイギ,0
163,1120901047250,新規,0,2023-03-10,2023-03-10,大阪国際医療教育株式会社,,株式会社,大阪府,吹田市,円山町２９番３９号,,27,205,5640061,,,,,,,2023-03-10,1,,,,,オオサカコクサイイリョウキョウイク,0
169,1130005016713,新規,0,2023-03-10,2023-03-10,一般社団法人ＷＥＬＬＥＸ,,その他の設立登記法人,京都府,京都市下京区,花屋町通櫛笥西入薬園町１７０番地２,,26,106,6008823,,,,,,,2023-03-10,1,,,,,ウェレックス,0
179,1140001129402,新規,0,2023-03-10,2023-03-10,株式会社イモケン,,株式会社,兵庫県,丹波市,氷上町氷上７２８番地３,,28,223,6693651,,,,,,,2023-03-10,1,,,,,イモケン,0
180,1140001129427,新規,0,2023-03-10,2023-03-10,株式会社雅興建,,株式会社,兵庫県,神戸市北区,山田町小部字南山２番地の５９８,,28,109,6511101,,,,,,,2023-03-10,1,,,,,ミヤビコウケン,0
185,1170003001845,新規,0,2023-03-10,2023-03-10,合同会社ぽれぽれ,,合同会社,和歌山県,和歌山市,栄谷５８番地７,,30,201,6408441,,,,,,,2023-03-10,1,,,,,ポレポレ,0
191,1180001155279,新規,0,2023-03-10,2023-03-10,サン・ライフ株式会社,,株式会社,愛知県,名古屋市名東区,扇町２丁目１番地の２（ヴィアーレ星ヶ丘の森４１１号）,,23,115,4650076,,,,,,,2023-03-10,1,,,,,サンライフ,0
192,1180001155320,新規,0,2023-03-10,2023-03-10,株式会社ＩＲＩＳ,,株式会社,愛知県,半田市,大池町２丁目１４３番地,,23,205,4750087,,,,,,,2023-03-10,1,,,,,イリス,0
193,1180001155329,新規,0,2023-03-10,2023-03-10,株式会社フルーヴ,,株式会社,愛知県,名古屋市瑞穂区,石田町１丁目４９番地,,23,108,4670067,,,,,,,2023-03-10,1,,,,,フルーヴ,0
195,1180003024952,新規,0,2023-03-10,2023-03-10,合同会社エスポワール,,合同会社,愛知県,長久手市,野田農８０６番地,,23,238,4801166,,,,,,,2023-03-10,1,,,,,エスポワール,0
197,1190005011799,新規,0,2023-03-10,2023-03-10,医療法人百寿会,,その他の設立登記法人,三重県,鈴鹿市,長太旭町４丁目２３番２３号,,24,207,5130042,,,,,,,2023-03-10,1,,,,,ヒャクジュカイ,0
200,1200001041063,新規,0,2023-03-10,2023-03-10,株式会社ワイズプロ,,株式会社,岐阜県,岐阜市,五反田町１０番地オフィスＫＯ－ＫＥＮ２１０,,21,201,5008328,,,,,,,2023-03-10,1,,,,,ワイズプロ,0
201,1210003001618,新規,0,2023-03-10,2023-03-10,エクネスホールディングス合同会社,,合同会社,福井県,越前市,豊町９番１５号,,18,209,9150065,,,,,,,2023-03-10,1,,,,,エクネスホールディングス,0
202,1220001025304,新規,0,2023-03-10,2023-03-10,株式会社エルフレーベン,,株式会社,石川県,金沢市,大浦町ロ１番地３,,17,201,9200205,,,,,,,2023-03-10,1,,,,,エルフレーベン,0
203,1230001019742,新規,0,2023-03-10,2023-03-10,ｍｕｔｔｙ’ｓ株式会社,,株式会社,富山県,黒部市,宮沢１１４７番地,,16,207,9380831,,,,,,,2023-03-10,1,,,,,ムッティーズ,0
210,1260001037725,新規,0,2023-03-10,2023-03-10,株式会社福田テック,,株式会社,岡山県,倉敷市,玉島爪崎１１５５番地１１,,33,202,7100252,,,,,,,2023-03-10,1,,,,,フクダテック,0
212,1270005005545,新規,0,2023-03-10,2023-03-10,一般社団法人ｉコネクト,,その他の設立登記法人,鳥取県,米子市,東福原６丁目２番３９号,,31,202,6830802,,,,,,,2023-03-10,1,,,,,アイコネクト,0
214,1290001100827,新規,0,2023-03-10,2023-03-10,株式会社プラセムホールディングス,,株式会社,福岡県,福岡市博多区,博多駅前３丁目１３－４リアンプレミアム博多駅前ビル３Ｆ,,40,132,8120011,,,,,,,2023-03-10,1,,,,,プラセムホールディングス,0
221,1320001019626,新規,0,2023-03-10,2023-03-10,株式会社Ｓ‐ｐｒｏ,,株式会社,大分県,大分市,大字三佐１０５０番地の２,,44,201,8700108,,,,,,,2023-03-10,1,,,,,エスプロ,0
223,1340001025424,新規,0,2023-03-10,2023-03-10,株式会社ＫＥＩＳＥＩ,,株式会社,鹿児島県,鹿児島市,郡山町４３０９番地１,,46,201,8911105,,,,,,,2023-03-10,1,,,,,ケイセイ,0
224,1340003004070,新規,0,2023-03-10,2023-03-10,合同会社ＦＬＥＸＰＲＥＳＳ,,合同会社,鹿児島県,鹿児島市,新照院町１０－１４,,46,201,8900016,,,,,,,2023-03-10,1,,,,,フレックスプレス,0
226,1360003012781,新規,0,2023-03-10,2023-03-10,合同会社Ｒ‐ＡＣＥ,,合同会社,沖縄県,那覇市,西２丁目６番１１神里マンションＡ３０１,,47,201,9000036,,,,,,,2023-03-10,1,,,,,アールエース,0
229,1380001033539,新規,0,2023-03-10,2023-03-10,株式会社Ｄ＆Ａｉ,,株式会社,福島県,会津若松市,北滝沢２丁目２番３５号,,07,202,9650015,,,,,,,2023-03-10,1,,,,,ディアンドアイ,0
234,1410003003767,新規,0,2023-03-10,2023-03-10,合同会社サカノト,,合同会社,秋田県,大仙市,大曲若葉町２番３４号,,05,212,0140045,,,,,,,2023-03-10,1,,,,,サカノト,0
237,1430003014804,新規,0,2023-03-10,2023-03-10,合同会社高間商店,00129725,合同会社,北海道,古平郡古平町,大字新地町２８２番地１０,,01,406,0460112,,,,,,,2023-03-10,1,,,,,タカマショウテン,0
240,1450001013921,新規,0,2023-03-10,2023-03-10,株式会社ノースカンパニー,,株式会社,北海道,旭川市,緑が丘二条１丁目２番地の６,,01,204,0788302,,,,,,,2023-03-10,1,,,,,ノースカンパニー,0
241,1450005004363,新規,0,2023-03-10,2023-03-10,一般社団法人みらくる,,その他の設立登記法人,北海道,旭川市,新富二条１丁目９番９号,,01,204,0700002,,,,,,,2023-03-10,1,,,,,ミラクル,0
242,1460103001518,新規,0,2023-03-10,2023-03-10,合同会社共新,,合同会社,北海道,帯広市,西十八条南２丁目６番地８７,,01,207,0800028,,,,,,,2023-03-10,1,,,,,キョウシン,0
244,1500001024789,新規,0,2023-03-10,2023-03-10,大成印刷株式会社,,株式会社,愛媛県,四国中央市,村松町１０９番地,,38,213,7990401,,,,,,,2023-03-10,1,,,,,,0
245,1700150114742,新規,0,2023-03-10,2023-03-10,ＣＡＰＥ　ＭＡＹ　ＩＮＶＥＳＴＭＥＮＴＳ　ＬＩＭＩＴＥＤ,,外国会社等,北海道,虻田郡倶知安町,字山田２０４－２７Ｔｈｅ　Ｍａｐｌｅｓ　１０２号,,01,400,0440081,Ｖｉｓｔｒａ　Ｃｏｒｐｏｒａｔｅ　Ｓｅｒｖｉｃｅｓ　Ｃｅｎｔｒｅ，Ｗｉｃｋｈａｍｓ　Ｃａｙ　ＩＩ，Ｒｏａｄ　Ｔｏｗｎ，Ｔｏｒｔｏｌａ，ＶＧ１１１０，Ｂｒｉｔｉｓｈ　Ｖｉｒｇｉｎ　Ｉｓｌａｎｄｓ,00129712,,,,,2023-03-10,1,,,,,ケープメイインベストメンツリミテツド,0
246,1700150114759,新規,0,2023-03-10,2023-03-10,Ｓｈｅｎｚｈｅｎ　Ｙｉ　Ｋｅ　Ｓａｉ　Ｔｉｎｇ　Ｔｅｃｈｎｏｌｏｇｙ　Ｃｏ．，Ｌｔｄ．,,外国会社等,,,,,,,,ｌｏｎｇ　ｇａｎｇ　ｑｕ　ｂａｎ　ｔｉａｎ　ｊｉｅ　ｄａｏ　ｗａｎ　ｋｅ　ｃｈｅｎｇ　ｊｕ　ｌｉ　ｆｕ　ｒｅｎ　ｄａ　ｄａｏ　ｓｈｅｎ　ｚｈｏｕ　ｄｉａｎ　ｎａｏ　ｓｈｅｎ　ｚｈｅｎ　ｓｈｉ　ｇｕａｎｇ　ｚｈｏｕ　ｓｈｅｎｇ　５１８１００　ＣＮ,,,,,,2023-03-10,1,,,,,シェンジェンシーイーコーサイティンコージーヨウシエンゴンスー,0
247,1700150114767,新規,0,2023-03-10,2023-03-10,Ｘｉａｍｅｎ　Ｙｉｘｕａｎ　Ｘｉｎｘｉｋｅｊｉ　Ｙｏｕｘｉａｎｇｏｎｇｓｉ,,外国会社等,,,,,,,,Ｘｉｎｇｌｉｎｇｗａｎｌｕ　４７８ｈａｏ　１６０２　ｄａｎｙｕａｎｚｈｉｙｉ　Ｘｉａｍｅｎ　Ｆｕｊｉａｎ　３６１０００　ＣＮ,,,,,,2023-03-10,1,,,,,シャーメンイーシュエンシンシーコージーヨウシエンゴンスー,0
252,2010001233257,新規,0,2023-03-10,2023-03-10,法本日本株式会社,,株式会社,東京都,千代田区,神田須田町２丁目２３－１天翔秋葉原万世橋ビル１２階１２０３号室,,13,101,1010041,,,,,,,2023-03-10,1,,,,,ホウホンニホン,0
253,2010001233604,新規,0,2023-03-10,2023-03-10,株式会社リリイーグル,,株式会社,東京都,中央区,新富２丁目１４番５号ＡＮＣ銀座イーストビル９階,,13,102,1040041,,,,,,,2023-03-10,1,,,,,リリイーグル,0
255,2010101015555,新規,0,2023-03-10,2023-03-10,田中商事株式会社,,株式会社,東京都,八王子市,上壱分方町１８９番地１１,,13,201,1930811,,,,,,,2023-03-10,1,,,,,タナカショウジ,0
268,2010501050136,新規,0,2023-03-10,2023-03-10,株式会社住建興業,,株式会社,東京都,台東区,東上野３丁目２８番４－７０５号,,13,106,1100015,,,,,,,2023-03-10,1,,,,,ジュウケンコウギョウ,0
269,2010601062700,新規,0,2023-03-10,2023-03-10,Ａｋｉｋａｎｇマーケティング株式会社,,株式会社,東京都,江東区,豊洲４丁目９番１３－３４３号,,13,108,1350061,,,,,,,2023-03-10,1,,,,,アキカンマーケティング,0
270,2010601062733,新規,0,2023-03-10,2023-03-10,株式会社ジーエスディージャパン,,株式会社,東京都,墨田区,文花２丁目１９番２－３０５号,,13,107,1310044,,,,,,,2023-03-10,1,,,,,ジーエスディージャパン,0
273,2010603010038,新規,0,2023-03-10,2023-03-10,合同会社Ｒｙｏｋｕｉ,,合同会社,東京都,江東区,有明３丁目７－２６有明フロンティアビルＢ棟９Ｆ,,13,108,1350063,,,,,,,2023-03-10,1,,,,,リョクイ,0
275,2010703006621,新規,0,2023-03-10,2023-03-10,合同会社澄重,,合同会社,東京都,品川区,東中延２丁目９番２号,,13,109,1420052,,,,,,,2023-03-10,1,,,,,スミエ,0
277,2010801033765,新規,0,2023-03-10,2023-03-10,株式会社あおば,,株式会社,東京都,大田区,東雪谷１丁目３２番２２号,,13,111,1450065,,,,,,,2023-03-10,1,,,,,アオバ,0
278,2010901052665,新規,0,2023-03-10,2023-03-10,株式会社ＭＫＳ,,株式会社,東京都,世田谷区,経堂４丁目１０番１５号ル・リオン経堂プレザント２０２,,13,112,1560052,,,,,,,2023-03-10,1,,,,,エムケーエス,0
284,2011001153016,新規,0,2023-03-10,2023-03-10,０ｘ２０．ａｉ株式会社,,株式会社,東京都,渋谷区,神泉町１０番１５号,,13,113,1500045,,,,,,,2023-03-10,1,,,,,スペースエーアイ,0
285,2011001153115,新規,0,2023-03-10,2023-03-10,ＡＴＩＲＯ株式会社,,株式会社,東京都,渋谷区,道玄坂１丁目１０番８号渋谷道玄坂東急ビル２Ｆ－Ｃ,,13,113,1500043,,,,,,,2023-03-10,1,,,,,アティロ,0
286,2011003016410,新規,0,2023-03-10,2023-03-10,合同会社ＴＭインターナショナル,,合同会社,東京都,渋谷区,代々木５丁目２９番７－１０１号,,13,113,1510053,,,,,,,2023-03-10,1,,,,,ティエムインターナショナル,0
293,2011101102095,新規,0,2023-03-10,2023-03-10,渋谷不動産管理株式会社,,株式会社,東京都,新宿区,西新宿３丁目２番７号ＫＤＸ新宿ビル７階,,13,104,1600023,,,,,,,2023-03-10,1,,,,,シブヤフドウサンカンリ,0
294,2011101102104,新規,0,2023-03-10,2023-03-10,株式会社アクセル,,株式会社,東京都,新宿区,新宿４丁目３番１７号,,13,104,1600022,,,,,,,2023-03-10,1,,,,,アクセル,0
300,2011701026066,新規,0,2023-03-10,2023-03-10,リラシク株式会社,,株式会社,東京都,江戸川区,南小岩６丁目３１番１０号,,13,123,1330056,,,,,,,2023-03-10,1,,,,,リラシク,0
303,2011801042046,新規,0,2023-03-10,2023-03-10,ウッドワークシステム株式会社,,株式会社,東京都,足立区,扇２丁目１４番２９号,,13,121,1230873,,,,,,,2023-03-10,1,,,,,ウッドワークシステム,0
304,2011801042054,新規,0,2023-03-10,2023-03-10,マネジメントオフィス株式会社,,株式会社,東京都,葛飾区,青戸６丁目３１番３号トップ青砥４・２０５号室,,13,122,1250062,,,,,,,2023-03-10,1,,,,,マネジメントオフィス,0
305,2011803005554,新規,0,2023-03-10,2023-03-10,合同会社ゼロツー建装,,合同会社,東京都,足立区,興野２丁目７番２４－３０５号,,13,121,1230844,,,,,,,2023-03-10,1,,,,,ゼロツーケンソウ,0
311,2012401040258,新規,0,2023-03-10,2023-03-10,株式会社ファーストメイクス,,株式会社,東京都,府中市,矢崎町４丁目１番地,,13,206,1830025,,,,,,,2023-03-10,1,,,,,ファーストメイクス,0
312,2012701017526,新規,0,2023-03-10,2023-03-10,株式会社ＦＲＵＯＲ,,株式会社,東京都,清瀬市,野塩４丁目３６番地１グランシャリオ清瀬５０６号,,13,221,2040004,,,,,,,2023-03-10,1,,,,,フルオール,0
315,2013301050405,新規,0,2023-03-10,2023-03-10,スリー企画株式会社,,株式会社,東京都,豊島区,池袋２丁目４２番３号,,13,116,1710014,,,,,,,2023-03-10,1,,,,,スリーキカク,0
321,2020001150617,新規,0,2023-03-10,2023-03-10,株式会社Ｙ＆Ｋメディカルサポート,,株式会社,神奈川県,横浜市金沢区,泥亀２丁目３番１－３２０号,,14,108,2360021,,,,,,,2023-03-10,1,,,,,ワイアンドケイメディカルサポート,0
322,2020001150625,新規,0,2023-03-10,2023-03-10,株式会社ＳＱＵＡＳＨ,,株式会社,神奈川県,川崎市高津区,下作延６丁目２９－４８,,14,134,2130033,,,,,,,2023-03-10,1,,,,,スカッシュ,0
323,2020001150633,新規,0,2023-03-10,2023-03-10,株式会社アンタレス,,株式会社,神奈川県,川崎市高津区,末長１丁目２３番８－２０２号ロイヤルシーズン梶が谷,,14,134,2130013,,,,,,,2023-03-10,1,,,,,アンタレス,0
331,2021001078393,新規,0,2023-03-10,2023-03-10,株式会社十色園,,株式会社,神奈川県,相模原市中央区,田名５７６６番地６,,14,152,2520244,,,,,,,2023-03-10,1,,,,,トイロエン,0
332,2021001078402,新規,0,2023-03-10,2023-03-10,ＭＧＳ株式会社,,株式会社,神奈川県,小田原市,国府津４丁目４番２３号,,14,206,2560812,,,,,,,2023-03-10,1,,,,,エムジーエス,0
333,2021003012862,新規,0,2023-03-10,2023-03-10,ＫＳ　Ｗｏｒｋ’ｓ合同会社,,合同会社,神奈川県,大和市,下和田９７８番地５中ノ原ハイツ３０２号,,14,213,2420015,,,,,,,2023-03-10,1,,,,,ケーズワークス,0
335,2030001152802,新規,0,2023-03-10,2023-03-10,株式会社ササシ,,株式会社,埼玉県,戸田市,笹目北町８番地の１９,,11,224,3350033,,,,,,,2023-03-10,1,,,,,ササシ,0
336,2030001152810,新規,0,2023-03-10,2023-03-10,株式会社宏偉商事,,株式会社,埼玉県,戸田市,中町１丁目１番地の６（アンビシャス西川口４０８号室）,,11,224,3350012,,,,,,,2023-03-10,1,,,,,ヒロイショウジ,0
341,2030003021352,新規,0,2023-03-10,2023-03-10,どみ．ｃｏｍ合同会社,,合同会社,埼玉県,蕨市,塚越７丁目３３番５号ファミール藤和５０２号,,11,223,3350002,,,,,,,2023-03-10,1,,,,,ドミドットコム,0
345,2040001127290,新規,0,2023-03-10,2023-03-10,株式会社美祐,,株式会社,千葉県,船橋市,東船橋３丁目４１番４号,,12,204,2730002,,,,,,,2023-03-10,1,,,,,ミスケ,0
346,2040001127324,新規,0,2023-03-10,2023-03-10,株式会社アイビー,,株式会社,千葉県,白井市,大山口２丁目１１番１３棟５０３号,,12,232,2701434,,,,,,,2023-03-10,1,,,,,アイビー,0
347,2040001127431,新規,0,2023-03-10,2023-03-10,株式会社アサノ,,株式会社,千葉県,八千代市,大和田新田１０３８番地２ダイアパレス八千代緑が丘１０２号,,12,221,2760046,,,,,,,2023-03-10,1,,,,,アサノ,0
348,2040001127456,新規,0,2023-03-10,2023-03-10,株式会社ＦＩＲＳＴ,,株式会社,千葉県,市原市,古市場６４０番地２０,,12,219,2900008,,,,,,,2023-03-10,1,,,,,ファースト,0
349,2040001127472,新規,0,2023-03-10,2023-03-10,法すう株式会社,,株式会社,千葉県,流山市,東初石４丁目２４５番地の４９,,12,220,2700114,,,,,,,2023-03-10,1,,,,,ホウスウ,0
353,2050001052505,新規,0,2023-03-10,2023-03-10,株式会社ＭＫテクノロジーズ,,株式会社,茨城県,土浦市,板谷４丁目６６８－２７,,08,203,3000007,,,,,,,2023-03-10,1,,,,,エムケーテクノロジーズ,0
354,2050001052521,新規,0,2023-03-10,2023-03-10,株式会社オールウェイタッグ,,株式会社,茨城県,日立市,小木津町３丁目２番１５号,,08,202,3191413,,,,,,,2023-03-10,1,,,,,オールウェイタッグ,0
355,2060001035772,新規,0,2023-03-10,2023-03-10,株式会社翔樹,,株式会社,栃木県,那須塩原市,三区町５４９番地４３パークハウスイーエイチＩＩ－１０２号,00129713,09,213,3292745,,,,,,,2023-03-10,1,,,,,トキ,0
361,2070003004857,新規,0,2023-03-10,2023-03-10,合同会社Ｒｅｇｉｏｎ,,合同会社,群馬県,前橋市,文京町１丁目２１番１４号,,10,201,3710801,,,,,,,2023-03-10,1,,,,,リージョン,0
362,2080003002942,新規,0,2023-03-10,2023-03-10,合同会社Ｋファーム,,合同会社,静岡県,静岡市葵区,本通３丁目１２番４０２号室,,22,101,4200064,,,,,,,2023-03-10,1,,,,,ケイファーム,0
366,2090003002272,新規,0,2023-03-10,2023-03-10,ＬｉＦｏｏｔｂａｌｌ合同会社,,合同会社,山梨県,甲府市,朝日４丁目４番１０号,,19,201,4000025,,,,,,,2023-03-10,1,,,,,ライフットボール,0
368,2100001036221,新規,0,2023-03-10,2023-03-10,株式会社ウィンクルム,,株式会社,長野県,松本市,小屋北２丁目１４番１－１号,,20,202,3990039,,,,,,,2023-03-10,1,,,,,ウィンクルム,0
371,2100003006908,新規,0,2023-03-10,2023-03-10,ＫＡＫＥＨＡＳＨＩ合同会社,,合同会社,長野県,伊那市,西箕輪２１４８番地６２６,,20,209,3994501,,,,,,,2023-03-10,1,,,,,カケハシ,0
386,2120001252857,新規,0,2023-03-10,2023-03-10,株式会社アンドライフ,,株式会社,大阪府,寝屋川市,黒原旭町２７番２号,,27,215,5720057,,,,,,,2023-03-10,1,,,,,アンドライフ,0
387,2120001253079,新規,0,2023-03-10,2023-03-10,株式会社ＡＮＴＯＫＩ,,株式会社,大阪府,大阪市淀川区,塚本２丁目１５番３号,,27,123,5320026,,,,,,,2023-03-10,1,,,,,アントキ,0
388,2120001253087,新規,0,2023-03-10,2023-03-10,株式会社ａｍｓ,,株式会社,大阪府,大阪市中央区,瓦屋町２丁目７番１１－４０３号,,27,128,5420066,,,,,,,2023-03-10,1,,,,,アムス,0
389,2120001253095,新規,0,2023-03-10,2023-03-10,株式会社ｘｉ,,株式会社,大阪府,守口市,浜町１丁目６番２号華那ビル１Ｆ,,27,209,5700093,,,,,,,2023-03-10,1,,,,,クロスアイ,0
390,2120001253137,新規,0,2023-03-10,2023-03-10,株式会社Ｓｔａｒ　Ｏｒｉｇｉｎ,,株式会社,大阪府,大阪市北区,梅田１丁目２番２号大阪駅前第２ビル１２－１２,,27,127,5300001,,,,,,,2023-03-10,1,,,,,スターオリジン,0
391,2120001253153,新規,0,2023-03-10,2023-03-10,大阪アルミ建材株式会社,,株式会社,大阪府,守口市,大日東町３４番８－１３０６号,,27,209,5700016,,,,,,,2023-03-10,1,,,,,オオサカアルミケンザイ,0
396,2120003023570,新規,0,2023-03-10,2023-03-10,合同会社駿翔,,合同会社,大阪府,大阪市東成区,大今里南３丁目１３番１８号ライラックヴィラ大今里１０１号,,27,115,5370013,,,,,,,2023-03-10,1,,,,,シュンショウ,0
398,2120005023511,新規,0,2023-03-10,2023-03-10,ＮＰＯ法人ユニーク,,その他の設立登記法人,大阪府,大阪市西区,江戸堀２丁目１番１号江戸堀センタービルＢ１Ｆ,,27,106,5500002,,,,,,,2023-03-10,1,,,,,ユニーク,0
411,2130001073749,新規,0,2023-03-10,2023-03-10,株式会社Ｋａｍｐｈｅｒ,,株式会社,京都府,京都市左京区,浄土寺下馬場町４４パークウォーク浄土寺２０４号室,,26,103,6068413,,,,,,,2023-03-10,1,,,,,カンファー,0
418,2140001129376,新規,0,2023-03-10,2023-03-10,ＩＤＧ金融貿易株式会社,,株式会社,兵庫県,神戸市中央区,元町通７丁目１－２－７１０号,,28,110,6500022,,,,,,,2023-03-10,1,,,,,アイディージーキンユウボウエキ,0
419,2140001129392,新規,0,2023-03-10,2023-03-10,株式会社Ｇｒｉｍｍ　Ｊａｐａｎ,,株式会社,兵庫県,尼崎市,武庫之荘東１丁目８番６－７０２号,,28,202,6610032,,,,,,,2023-03-10,1,,,,,グリムジャパン,0
420,2140001129401,新規,0,2023-03-10,2023-03-10,株式会社折口塗装,,株式会社,兵庫県,姫路市,東今宿２丁目５番８号,,28,201,6700056,,,,,,,2023-03-10,1,,,,,オリグチトソウ,0
423,2140005026504,新規,0,2023-03-10,2023-03-10,医療法人かわもと耳鼻咽喉科クリニック,,その他の設立登記法人,兵庫県,尼崎市,上坂部１丁目４番１号ミリオンタウン塚口２Ｆ,,28,202,6610979,,,,,,,2023-03-10,1,,,,,カワモトジビインコウカクリニック,0
424,2150003002902,新規,0,2023-03-10,2023-03-10,１９９５ＰＬＵＳ合同会社,,合同会社,奈良県,大和高田市,大中南町３番５４号,,29,202,6350092,,,,,,,2023-03-10,1,,,,,イチキュウキュウゴプラス,0
435,2180003024951,新規,0,2023-03-10,2023-03-10,合同会社Ｖｅｒｙ　ｂｅｒｒｙ,,合同会社,愛知県,名古屋市名東区,上社３丁目９０５番地,,23,115,4650025,,,,,,,2023-03-10,1,,,,,ベリーベリー,0
437,2190001030224,新規,0,2023-03-10,2023-03-10,株式会社やまかみ登記測量,,株式会社,三重県,桑名市,大字森忠６７２番地,,24,205,5110943,,,,,,,2023-03-10,1,,,,,ヤマカミトウキソクリョウ,0
439,2190005011798,新規,0,2023-03-10,2023-03-10,医療法人聡修会,,その他の設立登記法人,三重県,四日市市,西富田町１６８番地１,,24,202,5108024,,,,,,,2023-03-10,1,,,,,ソウシュウカイ,0
442,2200001041054,新規,0,2023-03-10,2023-03-10,株式会社健豊,,株式会社,岐阜県,各務原市,鵜沼東町８丁目１５番地,,21,213,5090126,,,,,,,2023-03-10,1,,,,,ケンホウ,0
449,2240001061189,新規,0,2023-03-10,2023-03-10,株式会社イシモト,,株式会社,広島県,広島市西区,西観音町１番６号,,34,104,7330037,,,,,,,2023-03-10,1,,,,,イシモト,0
450,2240003006043,新規,0,2023-03-10,2023-03-10,合同会社ジムラク,,合同会社,広島県,広島市中区,大手町１丁目１番２０号相生橋ビル７階Ａ号室,,34,101,7300051,,,,,,,2023-03-10,1,,,,,ジムラク,0
452,2250001020004,新規,0,2023-03-10,2023-03-10,株式会社ＨｅｒｅＮｏｗ,,株式会社,山口県,山口市,小郡令和１丁目１－１産業交流スペースＭｅｇｒｉｂａ内,,35,203,7540041,,,,,,,2023-03-10,1,,,,,ヒアナウ,0
457,2270003001504,新規,0,2023-03-10,2023-03-10,合同会社オータムナル,,合同会社,鳥取県,米子市,米原８丁目１０番４０号１０２号,,31,202,6830804,,,,,,,2023-03-10,1,,,,,オータムナル,0
459,2290001100818,新規,0,2023-03-10,2023-03-10,株式会社小西企画,,株式会社,福岡県,福岡市博多区,麦野５丁目１９番１９号,,40,132,8120882,,,,,,,2023-03-10,1,,,,,コニシキカク,0
460,2290001100850,新規,0,2023-03-10,2023-03-10,株式会社ＧＭＡＫｅ,,株式会社,福岡県,福岡市博多区,冷泉町１０－２３博多冷泉町ビル２階,,40,132,8120039,,,,,,,2023-03-10,1,,,,,ジーメイク,0
461,2290001100859,新規,0,2023-03-10,2023-03-10,株式会社ＲＵＧＡＬ,,株式会社,福岡県,福岡市博多区,中洲５丁目５－１６ｗｉｌｌＤｏ中洲４０２,,40,132,8100801,,,,,,,2023-03-10,1,,,,,ルーガル,0
462,2290001100867,新規,0,2023-03-10,2023-03-10,太陽光メンテナンスサポート株式会社,,株式会社,福岡県,福岡市西区,内浜１丁目６番５－７０３号,,40,135,8190005,,,,,,,2023-03-10,1,,,,,タイヨウコウメンテナンスサポート,0
465,2290003013646,新規,0,2023-03-10,2023-03-10,合同会社Ｗ‐Ｄｅｓｉｇｎ,,合同会社,福岡県,福岡市南区,玉川町１６－１４吉海ビル３０１,,40,134,8150037,,,,,,,2023-03-10,1,,,,,ダブルデザイン,0
467,2290801029364,新規,0,2023-03-10,2023-03-10,株式会社Ｔ’ｓ　Ｏｆｆｉｃｅ,,株式会社,福岡県,北九州市八幡西区,黒崎４丁目５番８－８０１号,,40,109,8060021,,,,,,,2023-03-10,1,,,,,ティーズオフィス,0
471,2340001025423,新規,0,2023-03-10,2023-03-10,株式会社ＭＨｎｅｘｔホールディングス,,株式会社,鹿児島県,鹿児島市,吉野３丁目２番６号,,46,201,8920877,,,,,,,2023-03-10,1,,,,,エムエイチネクストホールディングス,0
474,2360001031683,新規,0,2023-03-10,2023-03-10,三ツ星不動産株式会社,,株式会社,沖縄県,中頭郡読谷村,字比謝４８５番ピオニエーレ１０１号,,47,324,9040311,,,,,,,2023-03-10,1,,,,,ミツボシフドウサン,0
478,2370001049683,新規,0,2023-03-10,2023-03-10,株式会社モモのまき,,株式会社,宮城県,仙台市若林区,卸町２丁目６番地の４,,04,103,9840015,,,,,,,2023-03-10,1,,,,,モモノマキ,0
479,2370001049691,新規,0,2023-03-10,2023-03-10,株式会社アクシア,,株式会社,宮城県,栗原市,若柳字川北二股２５番地１,,04,213,9895501,,,,,,,2023-03-10,1,,,,,アクシア,0
489,2390001017184,新規,0,2023-03-10,2023-03-10,株式会社デリッシャモ,,株式会社,山形県,山形市,東原町３丁目２番３８号,,06,201,9900034,,,,,,,2023-03-10,1,,,,,デリッシャモ,0
495,2420001018179,新規,0,2023-03-10,2023-03-10,株式会社ＮＩＫＥ,,株式会社,青森県,青森市,大字油川字大浜１５９番地３,,02,201,0380059,,,,,,,2023-03-10,1,,,,,ニケ,0
497,2430001088592,新規,0,2023-03-10,2023-03-10,株式会社エフエムくりやま,,株式会社,北海道,夕張郡栗山町,中央３丁目１６番地,,01,429,0691511,,,,,,,2023-03-10,1,,,,,エフエムクリヤマ,0
498,2430001088601,新規,0,2023-03-10,2023-03-10,株式会社ＩＫＫＥＩ,,株式会社,北海道,恵庭市,恵み野東４丁目１５番３,,01,231,0611371,,,,,,,2023-03-10,1,,,,,イッケイ,0
499,2430003014811,新規,0,2023-03-10,2023-03-10,Ｎｅｘｔ　Ｂｅｒｒｙ合同会社,,合同会社,北海道,浦河郡浦河町,潮見町１７－１１５潮見ハイツＩＩＩ１０１号室,00129715,01,607,0570021,,,,,,,2023-03-10,1,,,,,ネクストベリー,0
500,2460101007350,新規,0,2023-03-10,2023-03-10,帯日株式会社,,株式会社,北海道,帯広市,西十七条北１丁目３０番２３号,,01,207,0800047,,,,,,,2023-03-10,1,,,,,オビニチ,0
503,2700150114741,新規,0,2023-03-10,2023-03-10,広州艾希美化粧品有限公司　日本駐在員事務所,,外国会社等,東京都,台東区,千束３丁目２１番１２号キートスビル５０５号,,13,106,1110031,中国広州市白雲区均禾街清湖村新工業路一横路１８－２号１楼,,,,,,2023-03-10,1,,,,,コウシユウアイキビケシヨウヒンユウゲンコウシニホンチユウザイインジムシヨ,0
504,2700150114758,新規,0,2023-03-10,2023-03-10,Ｓｈｅｎｚｈｅｎ　Ｄｅｓａｉ　Ｔｅｃｈｎｏｌｏｇｙ　Ｃｏ．，Ｌｔｄ－ｚｅｎｇｚｈｉ,,外国会社等,,,,,,,,ＣＮ，５１８０００，Ｃｈｉｎａ，Ｓｈｅｎｚｈｅｎｓｈｉ，Ｌｏｎｇｈｕａｑｕ，Ｌｏｎｇｆｅｎｇｙｉｌｕ　５５４　Ｚｈｏｎｇｓｈｕｎｓｈａｎｇｗｕｄａｓｈａ　Ｂ　ｄｏｎｇ　２０２，Ｓｈｅｎｚｈｅｎ　Ｇｕａｎｇｄｏｎｇ　５１８０００,,,,,,2023-03-10,1,,,,,シェンジェンシーダーサイコージーヨウシエンゴンスー,0
505,2700150114766,新規,0,2023-03-10,2023-03-10,ＬｏｎｇＹａｎＳｈｉＮｉＱｕＭａｏＹｉＹｏｕＸｉａｎＧｏｎｇＳｉ,,外国会社等,,,,,,,,Ｘｉｎｌｕｏ　Ｄｉｓ．，Ｘｉｐｉ　Ｓｔｒｅｅｔ，Ｘｉａｏｙａｎｇ　Ｖｉｌｌａｇｅ　Ｘｉｎｍｉｎ　Ｒｏａｄ，Ｎｏ．１４３，Ｒｏｏｍ　２０１　Ｌｏｎｇｙａｎ　Ｆｕｊｉａｎ,,,,,,2023-03-10,1,,,,,ロンイエンシーニーチーマオイーヨウシエンゴンスー,0
515,3010001233594,新規,0,2023-03-10,2023-03-10,フェーバー株式会社,,株式会社,東京都,千代田区,神田和泉町１番地２－６フォンティーヌビル２０１,,13,101,1010024,,,,,,,2023-03-10,1,,,,,フェーバー,0
516,3010001233611,新規,0,2023-03-10,2023-03-10,株式会社武文美,,株式会社,東京都,中央区,銀座７丁目６番６号メトロビル３階,,13,102,1040061,,,,,,,2023-03-10,1,,,,,タケフミ,0
517,3010001233644,新規,0,2023-03-10,2023-03-10,株式会社Ｋｎｏｗｌｅｄｇｅ　Ｔｅｃｈｎｏｌｏｇｉｅｓ,,株式会社,東京都,中央区,八丁堀４丁目８番１号,,13,102,1040032,,,,,,,2023-03-10,1,,,,,ナレッジテクノロジーズ,0
518,3010001233652,新規,0,2023-03-10,2023-03-10,日鉄産業株式会社,,株式会社,東京都,千代田区,神田平河町１番地第３東ビル５Ｆ,,13,101,1010027,,,,,,,2023-03-10,1,,,,,ニッテツサンギョウ,0
524,3010003039882,新規,0,2023-03-10,2023-03-10,合同会社ＢａｒＳＮ００ＰＹ,,合同会社,東京都,中央区,勝どき４丁目１－５－２Ｆ,,13,102,1040054,,,,,,,2023-03-10,1,,,,,バーエスエヌゼロゼロピーワイ,0
529,3010401172970,新規,0,2023-03-10,2023-03-10,株式会社後楽総研,,株式会社,東京都,港区,浜松町２丁目２番１５号浜松町ダイヤビル２Ｆ,,13,103,1050013,,,,,,,2023-03-10,1,,,,,コウラクソウケン,0
530,3010401172995,新規,0,2023-03-10,2023-03-10,株式会社リリー・アップ,,株式会社,東京都,港区,北青山２丁目７番２０号猪瀬ビル２階,,13,103,1070061,,,,,,,2023-03-10,1,,,,,リリーアップ,0
541,3010703006620,新規,0,2023-03-10,2023-03-10,ＪＲＥ合同会社,,合同会社,東京都,品川区,西品川２丁目２２番１４号,,13,109,1410033,,,,,,,2023-03-10,1,,,,,ジェイアールイー,0
542,3010801033764,新規,0,2023-03-10,2023-03-10,株式会社Ａｓｈ,,株式会社,東京都,大田区,大森西４丁目３番２１号,,13,111,1430015,,,,,,,2023-03-10,1,,,,,アッシュ,0
543,3010803004466,新規,0,2023-03-10,2023-03-10,ＵＵＴｅｃｈ合同会社,,合同会社,東京都,大田区,大森北１丁目１３－１６,,13,111,1430016,,,,,,,2023-03-10,1,,,,,ユーユーテック,0
547,3010901052689,新規,0,2023-03-10,2023-03-10,株式会社ＰｌｕｓＯＮＥ,,株式会社,東京都,世田谷区,瀬田２丁目１番２０－３０６号,,13,112,1580095,,,,,,,2023-03-10,1,,,,,,0
554,3011001153023,新規,0,2023-03-10,2023-03-10,株式会社トレードジャーニー,,株式会社,東京都,渋谷区,道玄坂１丁目１０番８号渋谷道玄坂東急ビル２Ｆ－Ｃ,,13,113,1500043,,,,,,,2023-03-10,1,,,,,トレードジャーニー,0
555,3011005009972,新規,0,2023-03-10,2023-03-10,医療法人社団史真会,,その他の設立登記法人,東京都,渋谷区,恵比寿１丁目１０番７号Ｔ．Ｉ．Ｂ恵比寿２階,,13,113,1500013,,,,,,,2023-03-10,1,,,,,シシンカイ,0
557,3011101102094,新規,0,2023-03-10,2023-03-10,株式会社かぶらや,,株式会社,東京都,新宿区,新宿１丁目３６番２号新宿第七葉山ビル３階,,13,104,1600022,,,,,,,2023-03-10,1,,,,,カブラヤ,0
559,3011203004024,新規,0,2023-03-10,2023-03-10,ＬＩＣ合同会社,,合同会社,東京都,中野区,上鷺宮３丁目８－２２ザパークハウス上鷺宮Ｃ１１８,,13,114,1650031,,,,,,,2023-03-10,1,,,,,エルアイシー,0
560,3011401024963,新規,0,2023-03-10,2023-03-10,株式会社ＪＯＭＯＮラボ,,株式会社,東京都,板橋区,仲町９番１５号,,13,119,1730022,,,,,,,2023-03-10,1,,,,,ジョウモンラボ,0
567,3011501029029,新規,0,2023-03-10,2023-03-10,松澤株式会社,,株式会社,東京都,北区,浮間１丁目１番１４－２０７号,,13,117,1150051,,,,,,,2023-03-10,1,,,,,,0
569,3011503005507,新規,0,2023-03-10,2023-03-10,Ｌｕｃｋｙ　Ｒｏａｄ合同会社,,合同会社,東京都,荒川区,東日暮里３丁目３２番３号,,13,118,1160014,,,,,,,2023-03-10,1,,,,,ラッキーロード,0
570,3011601026652,新規,0,2023-03-10,2023-03-10,株式会社ＳＯＲＡ,,株式会社,東京都,練馬区,谷原１丁目９番５号東和谷原ビル２Ｆ,,13,120,1770032,,,,,,,2023-03-10,1,,,,,ソラ,0
571,3011603003848,新規,0,2023-03-10,2023-03-10,合同会社Ｌｉｎｏ,,合同会社,東京都,練馬区,貫井１丁目２５番２２－４０２号,,13,120,1760021,,,,,,,2023-03-10,1,,,,,リノ,0
572,3011701026065,新規,0,2023-03-10,2023-03-10,株式会社レアリナ,,株式会社,東京都,江戸川区,小松川１丁目７番１－４０６号室,,13,123,1320034,,,,,,,2023-03-10,1,,,,,レアリナ,0
575,3011801042045,新規,0,2023-03-10,2023-03-10,株式会社ＧＣオールメンテ,,株式会社,東京都,足立区,綾瀬４丁目１０番１８号,,13,121,1200005,,,,,,,2023-03-10,1,,,,,ジーシーオールメンテ,0
576,3011801042061,新規,0,2023-03-10,2023-03-10,株式会社ＳＨＡＤＯＷ,,株式会社,東京都,葛飾区,細田５丁目９番９号,,13,122,1240021,,,,,,,2023-03-10,1,,,,,シャドウ,0
590,3020001150599,新規,0,2023-03-10,2023-03-10,ダイトウ電設株式会社,,株式会社,神奈川県,横浜市青葉区,市ケ尾町４３６番地１,,14,117,2250024,,,,,,,2023-03-10,1,,,,,ダイトウデンセツ,0
591,3020001150616,新規,0,2023-03-10,2023-03-10,株式会社Ｆｏｔａｓ,,株式会社,神奈川県,川崎市中原区,下小田中６丁目３１番２７号,,14,133,2110041,,,,,,,2023-03-10,1,,,,,フォータス,0
592,3020003023489,新規,0,2023-03-10,2023-03-10,ラグナライフクロス合同会社,,合同会社,神奈川県,横浜市旭区,中白根１丁目１番８－４０４号,,14,112,2410004,,,,,,,2023-03-10,1,,,,,ラグナライフクロス,0
593,3020003023497,新規,0,2023-03-10,2023-03-10,Ｔ＆Ｃ合同会社,,合同会社,神奈川県,川崎市川崎区,大島３丁目３０番７号,,14,131,2100834,,,,,,,2023-03-10,1,,,,,ティーアンドシー,0
604,3021001078401,新規,0,2023-03-10,2023-03-10,株式会社近藤商事,,株式会社,神奈川県,大和市,大和東２丁目２番３号ライオンズビル大和１階１０１号室,,14,213,2420017,,,,,,,2023-03-10,1,,,,,コンドウショウジ,0
610,3030001152792,新規,0,2023-03-10,2023-03-10,ミクシス株式会社,,株式会社,埼玉県,越谷市,赤山町４丁目７番６号,,11,222,3430807,,,,,,,2023-03-10,1,,,,,ミクシス,0
611,3030001152801,新規,0,2023-03-10,2023-03-10,株式会社Ｅｉｓｏｎａ,,株式会社,埼玉県,さいたま市浦和区,北浦和１丁目２３番９－２０５号,,11,107,3300074,,,,,,,2023-03-10,1,,,,,エイソナ,0
614,3030003021269,新規,0,2023-03-10,2023-03-10,ＴＥＳＳＹ　ＴＲＡＤＩＮＧ合同会社,,合同会社,埼玉県,春日部市,本田町１丁目１５０番地１白石アパート２０１,,11,214,3440016,,,,,,,2023-03-10,1,,,,,テッシートレーディング,0
616,3040001127430,新規,0,2023-03-10,2023-03-10,株式会社ＢＢリノベーション,,株式会社,千葉県,市川市,幸１丁目１０番２０－６０７号（ゴールドファイブ幸）,,12,203,2720123,,,,,,,2023-03-10,1,,,,,ビービーリノベーション,0
617,3040001127439,新規,0,2023-03-10,2023-03-10,株式会社雄久建設,,株式会社,千葉県,船橋市,松が丘４丁目１５番２号,,12,204,2740064,,,,,,,2023-03-10,1,,,,,ユウキュウケンセツ,0
618,3040001127463,新規,0,2023-03-10,2023-03-10,日峰株式会社,,株式会社,千葉県,船橋市,夏見５丁目１４番２９号,,12,204,2730865,,,,,,,2023-03-10,1,,,,,ヒフオ,0
619,3040001127471,新規,0,2023-03-10,2023-03-10,株式会社ＧＣＫＩ,,株式会社,千葉県,柏市,松葉町６丁目３７番地１１,,12,217,2770827,,,,,,,2023-03-10,1,,,,,ジーシーケイアイ,0
623,3040003022150,新規,0,2023-03-10,2023-03-10,合同会社至誠兄弟,,合同会社,千葉県,千葉市稲毛区,稲毛町５丁目３１９番地８,,12,103,2630035,,,,,,,2023-03-10,1,,,,,シセイキョウダイ,0
624,3040003022167,新規,0,2023-03-10,2023-03-10,ＹＭＩ　ＭＯＴＯＲＳ合同会社,,合同会社,千葉県,八街市,榎戸４１６番地１－２１－Ｃ,,12,230,2891106,,,,,,,2023-03-10,1,,,,,ユーエムアイモータース,0
627,3050003007299,新規,0,2023-03-10,2023-03-10,Ｗｉｎ　Ｗｉｎ合同会社,,合同会社,茨城県,稲敷郡美浦村,大字土屋字大清水１９７２番地７３１号,,08,442,3000426,,,,,,,2023-03-10,1,,,,,ウィンウィン,0
631,3060003004469,新規,0,2023-03-10,2023-03-10,ＦＡＩＺＡＮ　ＴＲＡＤＥＲＳ合同会社,,合同会社,栃木県,小山市,城北２丁目１１番地４アーバンハイツ城北３階３０６号室,,09,208,3230029,,,,,,,2023-03-10,1,,,,,フェイザントレーダーズ,0
635,3070003004856,新規,0,2023-03-10,2023-03-10,合同会社ＧＨファクトリー,,合同会社,群馬県,邑楽郡大泉町,大字寄木戸８８番地の５,,10,524,3700535,,,,,,,2023-03-10,1,,,,,ジーエイチファクトリー,0
639,3080101023848,新規,0,2023-03-10,2023-03-10,村松工業株式会社,,株式会社,静岡県,御殿場市,沼田１９５番地の４,,22,215,4120031,,,,,,,2023-03-10,1,,,,,ムラマツコウギョウ,0
641,3100005012977,新規,0,2023-03-10,2023-03-10,一般社団法人小海町農産物加工直売所の会,,その他の設立登記法人,長野県,南佐久郡小海町,大字豊里１０７番地１小海町農産物加工直売施設,,20,303,3841103,,,,,,,2023-03-10,1,,,,,コウミマチノウサンブツカコウチョクバイジョノカイ,0
643,3110001037358,新規,0,2023-03-10,2023-03-10,株式会社ＴＡＩＫＥサポートライフ,,株式会社,新潟県,新潟市中央区,礎町通４ノ町２１０６番地１,,15,103,9518055,,,,,,,2023-03-10,1,,,,,タイケサポートライフ,0
646,3120001253004,新規,0,2023-03-10,2023-03-10,株式会社ＭＴマネジメント,,株式会社,大阪府,大阪市中央区,博労町１丁目７番１－２０３号,,27,128,5410059,,,,,,,2023-03-10,1,,,,,エムティマネジメント,0
647,3120001253061,新規,0,2023-03-10,2023-03-10,おぐらきんなべ株式会社,,株式会社,大阪府,大阪市中央区,東心斎橋１丁目６番２９号,,27,128,5420083,,,,,,,2023-03-10,1,,,,,オグラキンナベ,0
648,3120001253078,新規,0,2023-03-10,2023-03-10,圓禄株式会社,,株式会社,大阪府,大阪市城東区,鴫野西１丁目１３番７－３０２号,,27,118,5360014,,,,,,,2023-03-10,1,,,,,エンロク,0
649,3120001253111,新規,0,2023-03-10,2023-03-10,株式会社Ｎｅａｒｂｙ,,株式会社,大阪府,大阪市北区,梅田２丁目２番２号ヒルトンプラザウエストオフィスタワー,,27,127,5300001,,,,,,,2023-03-10,1,,,,,ニアバイ,0
652,3120005023510,新規,0,2023-03-10,2023-03-10,一般社団法人大海まちづくり委員会,,その他の設立登記法人,大阪府,大阪市港区,築港３丁目７番１５号港振興ビル２１２,,27,107,5520021,,,,,,,2023-03-10,1,,,,,オオワダツミマチヅクリイインカイ,0
655,3120101067130,新規,0,2023-03-10,2023-03-10,株式会社Ｖｅｎｔｕｒｅ　Ｏｃｅａｎ,,株式会社,大阪府,堺市西区,浜寺南町１丁６６番地１０,,27,144,5928344,,,,,,,2023-03-10,1,,,,,ベンチャーオーシャン,0
656,3120103005113,新規,0,2023-03-10,2023-03-10,合同会社Ｒｅａｒ　Ｍａｖｉｅ,,合同会社,大阪府,堺市中区,東八田３８６番地１,,27,142,5998275,,,,,,,2023-03-10,1,,,,,リアーメヴィー,0
662,3140003018816,新規,0,2023-03-10,2023-03-10,合同会社ＤＡＩＫＩ,,合同会社,兵庫県,明石市,魚住町西岡１３１５－１,,28,203,6740084,,,,,,,2023-03-10,1,,,,,ダイキ,0
684,3240003006042,新規,0,2023-03-10,2023-03-10,合同会社ＡＴＳ,,合同会社,広島県,広島市佐伯区,隅の浜１丁目２番３１号,,34,108,7315145,,,,,,,2023-03-10,1,,,,,エーティーエス,0
685,3260001037731,新規,0,2023-03-10,2023-03-10,ＡＫＧ株式会社,,株式会社,岡山県,岡山市北区,西辛川５３０番地４,,33,101,7011213,,,,,,,2023-03-10,1,,,,,エーケージー,0
688,3270003001503,新規,0,2023-03-10,2023-03-10,ＨＩＭＡＷＡＲＩ企画合同会社,,合同会社,鳥取県,鳥取市,津ノ井２３４－１,,31,201,6891102,,,,,,,2023-03-10,1,,,,,ヒマワリキカク,0
695,3290803004364,新規,0,2023-03-10,2023-03-10,合同会社ＮＡＴＵＫＥＮ,,合同会社,福岡県,田川市,大字弓削田３６０番地５,,40,206,8260041,,,,,,,2023-03-10,1,,,,,ナツケン,0
696,3310001018305,新規,0,2023-03-10,2023-03-10,株式会社アグリ・フィットネス,,株式会社,長崎県,南島原市,西有家町須川１５８３番地１,,42,214,8592212,,,,,,,2023-03-10,1,,,,,アグリフィットネス,0
699,3320001019624,新規,0,2023-03-10,2023-03-10,株式会社ＨＯＵＳＥ　ＯＮＥ,,株式会社,大分県,大分市,大字駄原２１１１番地,,44,201,8700100,,,,,,,2023-03-10,1,,,,,ハウスワン,0
704,3350003004308,新規,0,2023-03-10,2023-03-10,合同会社たかしっこ,,合同会社,宮崎県,宮崎市,佐土原町下田島６４２８－３,,45,201,8800211,,,,,,,2023-03-10,1,,,,,タカシッコ,0
706,3370001049690,新規,0,2023-03-10,2023-03-10,株式会社ハウスクリーニングいぶき,,株式会社,宮城県,石巻市,清水町２丁目１番３号,,04,202,9860871,,,,,,,2023-03-10,1,,,,,ハウスクリーニングイブキ,0
708,3380001033529,新規,0,2023-03-10,2023-03-10,小野アグリ株式会社,,株式会社,福島県,河沼郡会津坂下町,大字坂本字村中乙５８番地,,07,421,9696586,,,,,,,2023-03-10,1,,,,,オノアグリ,0
715,3390001017183,新規,0,2023-03-10,2023-03-10,株式会社永和,,株式会社,山形県,東根市,大字蟹沢１６３９番地の７,,06,211,9993716,,,,,,,2023-03-10,1,,,,,エイワ,0
717,3400001016175,新規,0,2023-03-10,2023-03-10,株式会社アセットさくら,,株式会社,岩手県,奥州市,水沢姉体町字寺ノ西３７番地１,,03,215,0230831,,,,,,,2023-03-10,1,,,,,アセットサクラ,0
720,3420001018178,新規,0,2023-03-10,2023-03-10,株式会社Ｒｉｚｕ,,株式会社,青森県,青森市,大字油川字大浜１８０番地１００,,02,201,0380059,,,,,,,2023-03-10,1,,,,,リズ,0
726,3430001088591,新規,0,2023-03-10,2023-03-10,株式会社向山工業,,株式会社,北海道,札幌市厚別区,厚別中央三条２丁目１２番２０号コートしなのＡ－１０４号,,01,108,0040053,,,,,,,2023-03-10,1,,,,,サキヤマコウギョウ,0
727,3430001088609,新規,0,2023-03-10,2023-03-10,トラスＢＰ株式会社,,株式会社,北海道,札幌市西区,宮の沢二条４丁目６番８－２０３号,,01,107,0630052,,,,,,,2023-03-10,1,,,,,トラスビーピー,0
731,3430003014810,新規,0,2023-03-10,2023-03-10,合同会社Ｆｏｕｎｄ　ｉｔ,,合同会社,北海道,札幌市豊平区,旭町６丁目１番３４号,,01,105,0620911,,,,,,,2023-03-10,1,,,,,ファウンドイット,0
740,3700150114740,新規,0,2023-03-10,2023-03-10,ＳＨＡＮＤＯＮＧ　ＸＩＺＨＩＷＥｌ　ＸＩＮＸＩ　ＫＥＪＩ　ＹＯＵＸＩＡＮ　ＧＯＮＧＳＩ,,外国会社等,,,,,,,,Ｎｏ．５９５７　Ｆｕｓｈｏｕｄｏｎｇ　Ｓｔ，Ｗｅｉｆａｎｇ，ＣＨＩＮＡ,,,,,,2023-03-10,1,,,,,サントウセイジミシンシカギユウゲンコウシ,0
741,3700150114757,新規,0,2023-03-10,2023-03-10,Ｓｈａｎｇｈａｉ　Ｙｉ　Ｓｈｅｎｇ　Ｉｎｔｅｒｎａｔｉｏｎａｌ　Ｔｒａｄｅ　Ｃｏ．，Ｌｔｄ．,,外国会社等,,,,,,,,Ｒｏｏｍ　４０９Ｑ，ｂｕｉｌｄｉｎｇ　２，Ｎｏ．６４１，Ｔｉａｎ　Ｓｈａｎ　Ｒｏａｄ，Ｃｈａｎｇｎｉｎｇ　Ｄｉｓｔｒｉｃｔ，Ｓｈａｎｇｈａｉ，Ｃｈｉｎａ,,,,,,2023-03-10,1,,,,,シャンハイイーショングオジーマオイーヨウシエンゴンスー,0
742,3700150114765,新規,0,2023-03-10,2023-03-10,ｓｈｅｎｚｈｅｎｄａｑｉａｎｇｋｅｊｉｙｏｕｘｉａｎｇｏｎｇｓｉ,,外国会社等,,,,,,,,ｂａｏａｎｑｕｘｉｎａｎｊｉｅｄａｏｓｈａｎｇｈｅｓｈｅｑｕ３３ｑｕ　ｙｕａｎｅｒｌｕ１３１ｈａｏｘｉｎｇｈｕｉｇｏｎｇｙｅｑｕ２ｄｏｎｇ２１６　ｓｈｅｎｚｈｅｎ　ｇｕａｎｇｄｏｎｇ,,,,,,2023-03-10,1,,,,,シェンジェンダーチャンコージーヨウシエンゴンスー,0
749,4010001233610,新規,0,2023-03-10,2023-03-10,株式会社ココリッチ,,株式会社,東京都,中央区,勝どき５丁目３番１－２９２９号,,13,102,1040054,,,,,,,2023-03-10,1,,,,,ココリッチ,0
751,4010003040022,新規,0,2023-03-10,2023-03-10,Ｋ７合同会社,,合同会社,東京都,中央区,勝どき１丁目３番１－４１１号,,13,102,1040054,,,,,,,2023-03-10,1,,,,,ケーセブン,0
757,4010401172994,新規,0,2023-03-10,2023-03-10,株式会社ｃａｒｕｎａ,,株式会社,東京都,港区,東麻布１丁目６番８－４０１号,,13,103,1060044,,,,,,,2023-03-10,1,,,,,カルナ,0
759,4010403029706,新規,0,2023-03-10,2023-03-10,サンフラワー電力合同会社,,合同会社,東京都,港区,西新橋２丁目２０番１号４階,,13,103,1050003,,,,,,,2023-03-10,1,,,,,サンフラワーデンリョク,0
760,4010501050126,新規,0,2023-03-10,2023-03-10,株式会社アイデアビズ,,株式会社,東京都,台東区,東上野２丁目２２番１０号,,13,106,1100015,,,,,,,2023-03-10,1,,,,,アイデアビズ,0
761,4010601062731,新規,0,2023-03-10,2023-03-10,株式会社ＬＡ　ＣＩＥＬＯ,,株式会社,東京都,江東区,佐賀１丁目１１番４号７０３号,,13,108,1350031,,,,,,,2023-03-10,1,,,,,ラシエロ,0
762,4010603010052,新規,0,2023-03-10,2023-03-10,合同会社スノーフレーク,,合同会社,東京都,江東区,塩浜２丁目１１番４号,,13,108,1350043,,,,,,,2023-03-10,1,,,,,スノーフレーク,0
769,4010803004465,新規,0,2023-03-10,2023-03-10,合同会社おもち,,合同会社,東京都,大田区,西馬込１丁目２２－７－４０１,,13,111,1430026,,,,,,,2023-03-10,1,,,,,オモチ,0
775,4011001153022,新規,0,2023-03-10,2023-03-10,ＪｉｍａｋｕＡＩ株式会社,,株式会社,東京都,目黒区,原町１丁目１－１１,,13,110,1520011,,,,,,,2023-03-10,1,,,,,ジマクエーアイ,0
776,4011001153030,新規,0,2023-03-10,2023-03-10,アストラサナ・ジャパン株式会社,,株式会社,東京都,渋谷区,富ヶ谷１丁目１４－１４スタンフォードアネックスビル３階,,13,113,1510063,,,,,,,2023-03-10,1,,,,,アストラサナジャパン,0
779,4011005009971,新規,0,2023-03-10,2023-03-10,一般社団法人恋愛工作Ｌａｂ,,その他の設立登記法人,東京都,渋谷区,広尾５丁目２５番２号広尾ＡＫビル６階,,13,113,1500012,,,,,,,2023-03-10,1,,,,,レンアイコウサクラボ,0
781,4011101102085,新規,0,2023-03-10,2023-03-10,株式会社ｋｙ　ｇｉｎ　ｕｐ,,株式会社,東京都,新宿区,舟町３番地６,,13,104,1600006,,,,,,,2023-03-10,1,,,,,ケーワイジンアップ,0
791,4011801042044,新規,0,2023-03-10,2023-03-10,ホウシントラスト株式会社,,株式会社,東京都,葛飾区,小菅３丁目９番２４号メゾン中山３０２号,,13,122,1240001,,,,,,,2023-03-10,1,,,,,ホウシントラスト,0
792,4012401040264,新規,0,2023-03-10,2023-03-10,株式会社ＮＮＮグループ,,株式会社,東京都,狛江市,猪方１丁目１０番６号,,13,219,2010015,,,,,,,2023-03-10,1,,,,,エヌエヌエヌグループ,0
797,4013101009129,新規,0,2023-03-10,2023-03-10,株式会社永興,,株式会社,東京都,羽村市,川崎１丁目１番５号ＭＡＣ羽村コートＩＩ３０４,00129714,13,227,2050021,,,,,,,2023-03-10,1,,,,,エイコウ,0
801,4013301050444,新規,0,2023-03-10,2023-03-10,互生日本株式会社,,株式会社,東京都,豊島区,長崎６丁目１０番１２－２０７号,,13,116,1710051,,,,,,,2023-03-10,1,,,,,ゴセイニホン,0
803,4020001150598,新規,0,2023-03-10,2023-03-10,株式会社５２３ｃｏｍｍｕｎｉｃａｔｉｏｎｓ,,株式会社,神奈川県,横浜市港北区,綱島東２丁目１３番２２号,,14,109,2230052,,,,,,,2023-03-10,1,,,,,ゴーニーサンコミュニケーションズ,0
804,4020001150607,新規,0,2023-03-10,2023-03-10,株式会社ナガイ,,株式会社,神奈川県,横浜市鶴見区,江ケ崎町１５番１８号,,14,101,2300002,,,,,,,2023-03-10,1,,,,,ナガイ,0
805,4020001150615,新規,0,2023-03-10,2023-03-10,ＳＭＡＲＴ株式会社,,株式会社,神奈川県,川崎市川崎区,貝塚１丁目４番１１号ドミール見村７０３,,14,131,2100014,,,,,,,2023-03-10,1,,,,,スマート,0
806,4020001150631,新規,0,2023-03-10,2023-03-10,株式会社Ｂｒｉｄｇｅ　Ｊａｐａｎ,,株式会社,神奈川県,横浜市青葉区,美しが丘４丁目１４－４,,14,117,2250002,,,,,,,2023-03-10,1,,,,,ブリッジジャパン,0
809,4020003023488,新規,0,2023-03-10,2023-03-10,合同会社カルティベイト,,合同会社,神奈川県,横浜市中区,元町４丁目１６８番地ＢＩＺｃｏｍｆｏｒｔ元町ビル,,14,104,2310861,,,,,,,2023-03-10,1,,,,,カルティベイト,0
812,4021001078409,新規,0,2023-03-10,2023-03-10,株式会社Ｍｅｌｌｏｗ,,株式会社,神奈川県,相模原市中央区,下九沢９９５番地８,,14,152,2520254,,,,,,,2023-03-10,1,,,,,メロウ,0
821,4030001152800,新規,0,2023-03-10,2023-03-10,株式会社石澤建築,,株式会社,埼玉県,三郷市,早稲田４丁目２５番地１４,,11,237,3410018,,,,,,,2023-03-10,1,,,,,イシザワケンチク,0
822,4030001152817,新規,0,2023-03-10,2023-03-10,株式会社ＰＯＡＬＥ,,株式会社,埼玉県,熊谷市,銀座４丁目２番１９－１０４号,,11,202,3600032,,,,,,,2023-03-10,1,,,,,ポアレ,0
834,4040001127446,新規,0,2023-03-10,2023-03-10,株式会社ＭＳＯフーズ,,株式会社,千葉県,柏市,中央２丁目２番１８号ＭＡＫＥＢＬＤＧ３０１,,12,217,2770023,,,,,,,2023-03-10,1,,,,,エムエスオーフーズ,0
836,4040003022166,新規,0,2023-03-10,2023-03-10,合同会社ＪＯＫＯ,,合同会社,千葉県,松戸市,馬橋２００３番地の２カーサ・アルバ２０１号室,,12,207,2710051,,,,,,,2023-03-10,1,,,,,ジョコ,0
840,4050001052445,新規,0,2023-03-10,2023-03-10,株式会社エムケアーワークス,,株式会社,茨城県,常総市,水海道山田町４５５５・２階,,08,211,3030031,,,,,,,2023-03-10,1,,,,,エムケアーワークス,0
841,4050001052511,新規,0,2023-03-10,2023-03-10,株式会社ディー・エム・エス,,株式会社,茨城県,鹿嶋市,大字鉢形１２９３番地,,08,222,3140034,,,,,,,2023-03-10,1,,,,,ディーエムエス,0
843,4050003007298,新規,0,2023-03-10,2023-03-10,合同会社Ｒ＆Ｓ　ＥＮＴＥＲＰＲＩＳＥＳ,,合同会社,茨城県,取手市,配松４７８番地１－１０８号室,,08,217,3001541,,,,,,,2023-03-10,1,,,,,アールアンドエスエンタープライゼス,0
848,4060001035779,新規,0,2023-03-10,2023-03-10,株式会社遠藤工業,,株式会社,栃木県,宇都宮市,下ケ橋町１０６５番地９,,09,201,3291101,,,,,,,2023-03-10,1,,,,,エンドウコウギョウ,0
849,4060003004468,新規,0,2023-03-10,2023-03-10,合同会社ＪＯＩＮＴＲＵＳＴ,,合同会社,栃木県,宇都宮市,弥生２丁目１番１号アルフォート・ＩＳ１０３,,09,201,3200837,,,,,,,2023-03-10,1,,,,,ジョイントラスト,0
854,4070001040217,新規,0,2023-03-10,2023-03-10,株式会社Ｏ．Ｍ,,株式会社,群馬県,館林市,広内町１２番３号,,10,207,3740062,,,,,,,2023-03-10,1,,,,,オーエム,0
859,4070003004855,新規,0,2023-03-10,2023-03-10,ＯＨＡＮＳＡ　ＳＰＩＣＹ合同会社,,合同会社,群馬県,前橋市,三河町１丁目１２番６号村島ビル３階Ａ号室,,10,201,3710015,,,,,,,2023-03-10,1,,,,,オハンサスパイシー,0
860,4070005010091,新規,0,2023-03-10,2023-03-10,ビジネスダイバーシティ協同組合,,その他の設立登記法人,群馬県,高崎市,足門町９８０番地１,,10,202,3703531,,,,,,,2023-03-10,1,,,,,ビジネスダイバーシティ,0
862,4080103002758,新規,0,2023-03-10,2023-03-10,合同会社ヘルスサポート,,合同会社,静岡県,伊東市,十足６０７番地の１８５,,22,208,4140052,,,,,,,2023-03-10,1,,,,,ヘルスサポート,0
866,4090001018013,新規,0,2023-03-10,2023-03-10,株式会社Ｒ　Ｐｌａｙｓ　Ｃｏｍｐａｎｙ,,株式会社,山梨県,山梨市,上神内川２０番地７－９０６,,19,205,4050018,,,,,,,2023-03-10,1,,,,,アールプレイズカンパニー,0
876,4120001253044,新規,0,2023-03-10,2023-03-10,株式会社まさる建設,,株式会社,大阪府,大阪市鶴見区,放出東３丁目３１－３９－２階,,27,124,5380044,,,,,,,2023-03-10,1,,,,,マサルケンセツ,0
877,4120001253060,新規,0,2023-03-10,2023-03-10,景行国際文化株式会社,,株式会社,大阪府,大阪市西区,本田３丁目１番１９号,,27,106,5500022,,,,,,,2023-03-10,1,,,,,ケイギョウコクサイブンカ,0
878,4120001253085,新規,0,2023-03-10,2023-03-10,株式会社ＣＸＣ,,株式会社,大阪府,大阪市此花区,高見１丁目３番３７号７０７,,27,104,5540001,,,,,,,2023-03-10,1,,,,,シーエックスシー,0
879,4120001253110,新規,0,2023-03-10,2023-03-10,株式会社チェルモリオ,,株式会社,大阪府,大阪市西区,京町堀２丁目６番２９号,,27,106,5500003,,,,,,,2023-03-10,1,,,,,チェルモリオ,0
880,4120001253119,新規,0,2023-03-10,2023-03-10,株式会社ｓｏｅｌ,,株式会社,大阪府,大阪市北区,梅田１丁目２番２号大阪駅前第２ビル１２－１２,,27,127,5300001,,,,,,,2023-03-10,1,,,,,ソエル,0
886,4120003023569,新規,0,2023-03-10,2023-03-10,合同会社Ａｆｔｅｒｎｏｏｎ　Ｐｉｒａｔｅｓ,,合同会社,大阪府,枚方市,大峰元町２丁目２４番３５号,,27,210,5730146,,,,,,,2023-03-10,1,,,,,アフタヌーンパイレーツ,0
888,4120901047248,新規,0,2023-03-10,2023-03-10,株式会社フルフィル,,株式会社,大阪府,茨木市,総持寺駅前町６番６号,,27,211,5670802,,,,,,,2023-03-10,1,,,,,フルフィル,0
891,4122001036775,新規,0,2023-03-10,2023-03-10,株式会社ＭＹマネジメント,,株式会社,大阪府,八尾市,南本町４丁目４－１５,,27,212,5810081,,,,,,,2023-03-10,1,,,,,エムワイマネジメント,0
899,4130003008577,新規,0,2023-03-10,2023-03-10,合同会社コネクト,,合同会社,京都府,京都市山科区,西野山中臣町２６番地の１１８,,26,110,6078305,,,,,,,2023-03-10,1,,,,,コネクト,0
901,4140001129424,新規,0,2023-03-10,2023-03-10,アムソレイユ株式会社,,株式会社,兵庫県,明石市,朝霧南町２丁目５－２７,,28,203,6730870,,,,,,,2023-03-10,1,,,,,アムソレイユ,0
903,4140003018815,新規,0,2023-03-10,2023-03-10,合同会社ＣｏＫｏＰＬＡＣＥ,,合同会社,兵庫県,神戸市中央区,三宮町１丁目９番１号センタープラザ１Ｆ,,28,110,6500021,,,,,,,2023-03-10,1,,,,,ココプレイス,0
904,4140003018823,新規,0,2023-03-10,2023-03-10,Ｗａｋｅ　Ｃｏｎｓｕｌｔｉｎｇ合同会社,,合同会社,兵庫県,神戸市東灘区,住吉山手４丁目６番４３－５０２号,,28,101,6580063,,,,,,,2023-03-10,1,,,,,ウェイクコンサルティング,0
907,4160001024887,新規,0,2023-03-10,2023-03-10,株式会社ＭＳＣオーガニゼーション,,株式会社,滋賀県,守山市,吉身２丁目４番１３号,,25,207,5240021,,,,,,,2023-03-10,1,,,,,エムエスシーオーガニゼーション,0
909,4180001155276,新規,0,2023-03-10,2023-03-10,株式会社シバヤマホールディングス,,株式会社,愛知県,名古屋市西区,又穂町３丁目７０番地,,23,104,4510014,,,,,,,2023-03-10,1,,,,,シバヤマホールディングス,0
910,4180001155318,新規,0,2023-03-10,2023-03-10,株式会社Ｎ３,,株式会社,愛知県,名古屋市千種区,東山元町６丁目１７番地３０５号,,23,101,4640804,,,,,,,2023-03-10,1,,,,,ヌメロトゥレ,0
911,4180003024941,新規,0,2023-03-10,2023-03-10,キャリアエス合同会社,,合同会社,愛知県,名古屋市中村区,名駅３丁目４－１０アルティメイト名駅１ｓｔ２階,,23,105,4500002,,,,,,,2023-03-10,1,,,,,キャリアエス,0
918,4200003005897,新規,0,2023-03-10,2023-03-10,コネクト合同会社,,合同会社,岐阜県,恵那市,大井町１４２１番地１,,21,210,5097201,,,,,,,2023-03-10,1,,,,,コネクト,0
923,4240003006041,新規,0,2023-03-10,2023-03-10,合同会社孝隆会,,合同会社,広島県,呉市,中通４丁目１番１９号,,34,202,7370046,,,,,,,2023-03-10,1,,,,,コウリュウカイ,0
926,4250003003236,新規,0,2023-03-10,2023-03-10,合同会社オフィスアソシエイト,,合同会社,山口県,大島郡周防大島町,大字久賀４６９４番地３,,35,305,7422301,,,,,,,2023-03-10,1,,,,,オフィスアソシエイト,0
930,4260001037730,新規,0,2023-03-10,2023-03-10,株式会社Ｎ‐ＤＥＮ,,株式会社,岡山県,総社市,地頭片山９６番地７,,33,208,7191163,,,,,,,2023-03-10,1,,,,,エヌデン,0
935,4280001008894,新規,0,2023-03-10,2023-03-10,株式会社ＣＯＮＮＥＣＴ,,株式会社,島根県,雲南市,木次町里方７６８－２,,32,209,6991311,,,,,,,2023-03-10,1,,,,,コネクト,0
939,4290001100857,新規,0,2023-03-10,2023-03-10,株式会社Ｒｏｕｔｅ　ｄｕ　Ｍｉｍｏｓａ,,株式会社,福岡県,福岡市城南区,長尾４丁目１６番２８号,,40,136,8140123,,,,,,,2023-03-10,1,,,,,ルートデュミモザ,0
941,4290003013644,新規,0,2023-03-10,2023-03-10,ＦＵＪＩＭＩ合同会社,,合同会社,福岡県,福岡市東区,松島２丁目３－３１ハイツ松島２０２号,,40,131,8120062,,,,,,,2023-03-10,1,,,,,フジミ,0
943,4310001018304,新規,0,2023-03-10,2023-03-10,喜々津青果ホールディングス株式会社,,株式会社,長崎県,諫早市,多良見町化屋１７９９番地,,42,204,8590401,,,,,,,2023-03-10,1,,,,,キキツセイカホールディングス,0
946,4320002022865,新規,0,2023-03-10,2023-03-10,有限会社後藤鶏肉店,,有限会社,大分県,豊後大野市,三重町赤嶺２６８４番地１,,44,212,8797111,,,,,,,2023-03-10,1,,,,,,0
952,4360001031673,新規,0,2023-03-10,2023-03-10,株式会社とっくりやしフーズ,,株式会社,沖縄県,石垣市,字真栄里５９９番地１０,,47,207,9070002,,,,,,,2023-03-10,1,,,,,トックリヤシフーズ,0
955,4370001049698,新規,0,2023-03-10,2023-03-10,株式会社ＨＲＫ,,株式会社,宮城県,仙台市青葉区,国分町２丁目８番１５号デュプレックス仙台,,04,101,9800803,,,,,,,2023-03-10,1,,,,,エイチアールケー,0
961,4390005008995,新規,0,2023-03-10,2023-03-10,一般社団法人あおい会,,その他の設立登記法人,山形県,天童市,芳賀タウン南４丁目４番１５号,,06,210,9940083,,,,,,,2023-03-10,1,,,,,アオイカイ,0
968,4420001018185,新規,0,2023-03-10,2023-03-10,種市重機整備株式会社,,株式会社,青森県,青森市,大字新城字平岡２５８－３５８アシスト第５青森マンション２０３号,,02,201,0380042,,,,,,,2023-03-10,1,,,,,タネイチジュウキセイビ,0
971,4430001088599,新規,0,2023-03-10,2023-03-10,株式会社Ｎ,,株式会社,北海道,札幌市厚別区,厚別東二条３丁目７番１号,,01,108,0040002,,,,,,,2023-03-10,1,,,,,エヌ,0
972,4430001088616,新規,0,2023-03-10,2023-03-10,リタサービス株式会社,,株式会社,北海道,札幌市中央区,南五条東１丁目５番１号９０７号室,,01,101,0600055,,,,,,,2023-03-10,1,,,,,リタサービス,0
973,4430001088624,新規,0,2023-03-10,2023-03-10,ピースフルタイム株式会社,,株式会社,北海道,苫小牧市,桜木町１丁目９番２１号,,01,213,0530832,,,,,,,2023-03-10,1,,,,,ピースフルタイム,0
977,4440003001518,新規,0,2023-03-10,2023-03-10,堀江合同会社,,合同会社,北海道,函館市,宝来町１番３号,,01,202,0400043,,,,,,,2023-03-10,1,,,,,ホリエ,0
982,4700150114756,新規,0,2023-03-10,2023-03-10,ｇｕａｎｇｚｈｏｕｙｕａｎｍｕｄｉａｎｚｉｓｈａｎｇｗｕｙｏｕｘｉａｎｇｏｎｇｓｉ,,外国会社等,,,,,,,,ｂａｉｙｕｎｑｕｈｕａｎｇｓｈｉｊｉｅｙｕａｎｘｉａｄｉｌｕｚｉｂｉａｎ１５ｄｏｎｇ１０８ｓｈｉ，ｇｕａｎｇｚｈｏｕ　ｇｕａｎｇｄｏｎｇ,,,,,,2023-03-10,1,,,,,グワンジョウユエンムーディエンズーシャンウーヨウシエンゴンスー,0
983,4700150114764,新規,0,2023-03-10,2023-03-10,ＬｏｎｇＹａｎＳｈｉＱｕＢａｉＤｉａｎＺｉＳｈａｎｇＷｕＹｏｕＸｉａｎＧｏｎｇＳｉ,,外国会社等,,,,,,,,Ｘｉｎｌｕｏ　Ｄｉｓ．，Ｘｉｐｉ　Ｓｔｒｅｅｔ，Ｘｉａｏｙａｎｇ　Ｖｉｌｌａｇｅ　Ｘｉｎｍｉｎ　Ｒｏａｄ，Ｎｏ．１４３，Ｒｏｏｍ　２０３　Ｌｏｎｇｙａｎ　Ｆｕｊｉａｎ,,,,,,2023-03-10,1,,,,,ロンイエンシーチーバイディエンズーシャンウーヨウシエンゴンスー,0
984,4700150114772,新規,0,2023-03-10,2023-03-10,Ｎｉｎｇｂｏｓｈｉｚｈｅｎｈａｉｍｅｉｈｏｎｇｒｉｙｏｎｇｐｉｎｙｏｕｘｉａｎｇｏｎｇｓｉ,,外国会社等,,,,,,,,ｚｈｅｎｈａｉｑｕｘｉｅｐｕｚｈｅｎ　ｍｉａｏｈｏｕｌｕ２０ｈａｏ　ｎｉｎｇｂｏ　Ｚｈｅｊｉａｎｇ　３１５０００,,,,,,2023-03-10,1,,,,,ニンボーシージェンハイメイホンリーヨンピンヨウシエンゴンスー,0
996,5010001233642,新規,0,2023-03-10,2023-03-10,Ｃｏｍｂｉｎａｔｒｉｘ株式会社,,株式会社,東京都,中央区,日本橋本町１丁目８－１３日本橋滄浪閣ビル２階Ｒフロア,,13,102,1030023,,,,,,,2023-03-10,1,,,,,コンビナトリックス,0
997,5010001233650,新規,0,2023-03-10,2023-03-10,新海株式会社,,株式会社,東京都,文京区,西片２丁目２１番３－３０２,,13,105,1130024,,,,,,,2023-03-10,1,,,,,シンカイ,0
998,5010005036356,新規,0,2023-03-10,2023-03-10,一般社団法人日本カウンターインテリジェンス協会,,その他の設立登記法人,東京都,千代田区,九段南１丁目５番６号りそな九段ビル５Ｆ,,13,101,1020074,,,,,,,2023-03-10,1,,,,,ニホンカウンターインテリジェンスキョウカイ,0
1006,5010401172952,新規,0,2023-03-10,2023-03-10,株式会社ＥＸＳＩＡ,,株式会社,東京都,港区,浜松町２丁目２番１５号２階,,13,103,1050013,,,,,,,2023-03-10,1,,,,,エクシア,0
1007,5010401173018,新規,0,2023-03-10,2023-03-10,ＨＥＲＯＺＺ株式会社,,株式会社,東京都,港区,芝浦２丁目３番３４号ニューハイム田町２０２,,13,103,1080023,,,,,,,2023-03-10,1,,,,,ヒーローズ,0
1008,5010403029688,新規,0,2023-03-10,2023-03-10,合同会社Ｔ３リサーチ＆コンサルティング,,合同会社,東京都,港区,芝浦２丁目９番－１－１５１１号,,13,103,1080023,,,,,,,2023-03-10,1,,,,,ティースリーリサーチアンドコンサルティング,0
1010,5010601062714,新規,0,2023-03-10,2023-03-10,株式会社トイロ,,株式会社,東京都,江東区,北砂１丁目３番４３－７０１号,,13,108,1360073,,,,,,,2023-03-10,1,,,,,トイロ,0
1011,5010601062722,新規,0,2023-03-10,2023-03-10,Ｈａｒｍｏｎｉｃ　Ｓｏｃｉｅｔｙ株式会社,,株式会社,東京都,江東区,清澄３丁目８番２号山崎ビル５０１,,13,108,1350024,,,,,,,2023-03-10,1,,,,,ハーモニックソサエティ,0
1012,5010601062739,新規,0,2023-03-10,2023-03-10,Ｔａｓｓｅ　Ｃｏｆｆｅｅ株式会社,,株式会社,東京都,墨田区,江東橋５丁目１６番２－７０２号,,13,107,1300022,,,,,,,2023-03-10,1,,,,,タスコーヒー,0
1014,5010801033762,新規,0,2023-03-10,2023-03-10,株式会社ＳＴＳＳ,,株式会社,東京都,大田区,仲池上１丁目３２－２０,,13,111,1460081,,,,,,,2023-03-10,1,,,,,エスティエスエス,0
1018,5010805003010,新規,0,2023-03-10,2023-03-10,一般社団法人バリ取り・表面仕上げ・洗浄協会,,その他の設立登記法人,東京都,大田区,東六郷２丁目１９番８－４０７号,,13,111,1440046,,,,,,,2023-03-10,1,,,,,バリトリヒョウメンシアゲセンジョウキョウカイ,0
1020,5010901052679,新規,0,2023-03-10,2023-03-10,株式会社Ｏｎｓｌａｕｇｈｔ,,株式会社,東京都,世田谷区,玉川４丁目２２番９号グリュック玉川２０３,,13,112,1580094,,,,,,,2023-03-10,1,,,,,,0
1028,5011001153021,新規,0,2023-03-10,2023-03-10,Ｔｒｉｎｉｔｙ　Ｅｓｔａｔｅ株式会社,,株式会社,東京都,渋谷区,千駄ヶ谷４丁目５番１５号ストークメイジュ３１０号室,,13,113,1510051,,,,,,,2023-03-10,1,,,,,トリニティエステート,0
1030,5011003016399,新規,0,2023-03-10,2023-03-10,合同会社Ａｐｐｎｉｃｓ,,合同会社,東京都,渋谷区,道玄坂１丁目１０番８号渋谷道玄坂東急ビル２Ｆ－Ｃ,,13,113,1500043,,,,,,,2023-03-10,1,,,,,アップニクス,0
1031,5011003016424,新規,0,2023-03-10,2023-03-10,輝皇合同会社,,合同会社,東京都,渋谷区,笹塚２丁目２９－４ＰＡＳＥＯＳａｓａｚｕｋａＩＩ１０１,00129718,13,113,1510073,,,,,,,2023-03-10,1,,,,,キアラ,0
1039,5011203004022,新規,0,2023-03-10,2023-03-10,合同会社ブーシドゥー,,合同会社,東京都,中野区,若宮３丁目２２－６グランドソレイユ３０３,,13,114,1650033,,,,,,,2023-03-10,1,,,,,ブーシドゥー,0
1040,5011205002536,新規,0,2023-03-10,2023-03-10,社会保険労務士法人安達事務所,,その他の設立登記法人,東京都,中野区,大和町４丁目４２番６号,,13,114,1650034,,,,,,,2023-03-10,1,,,,,アダチジムショ,0
1041,5011301028526,新規,0,2023-03-10,2023-03-10,株式会社レスタディ,,株式会社,東京都,杉並区,井草１丁目３７番３号,,13,115,1670021,,,,,,,2023-03-10,1,,,,,レスタディ,0
1043,5011601026634,新規,0,2023-03-10,2023-03-10,株式会社イレーネ,,株式会社,東京都,練馬区,石神井台５丁目２－４－１０２,,13,120,1770045,,,,,,,2023-03-10,1,,,,,イレーネ,0
1048,5011801042043,新規,0,2023-03-10,2023-03-10,株式会社共健建設,,株式会社,東京都,葛飾区,東堀切２丁目１番１４号,,13,122,1240004,,,,,,,2023-03-10,1,,,,,キョウケンケンセツ,0
1049,5011801042051,新規,0,2023-03-10,2023-03-10,株式会社ＭａＶｉｅＶａｎｔ,,株式会社,東京都,足立区,千住１丁目４番１号東京芸術センター１０階,,13,121,1200034,,,,,,,2023-03-10,1,,,,,マヴィーヴァン,0
1050,5011801042068,新規,0,2023-03-10,2023-03-10,Ｓｍｉｌｅ株式会社,,株式会社,東京都,葛飾区,高砂１丁目２１番地３メゾンハリュウ２０２号室,,13,122,1250054,,,,,,,2023-03-10,1,,,,,スマイル,0
1052,5012303001792,新規,0,2023-03-10,2023-03-10,合同会社エムプラス,,合同会社,東京都,町田市,三輪緑山２丁目１２番地６,,13,209,1950055,,,,,,,2023-03-10,1,,,,,エムプラス,0
1055,5012403005875,新規,0,2023-03-10,2023-03-10,合同会社Ｃａｍｅｌ　Ｗｏｒｋｓ,,合同会社,東京都,狛江市,中和泉１丁目４番１８号,,13,219,2010012,,,,,,,2023-03-10,1,,,,,キャメルワークス,0
1056,5012405004842,新規,0,2023-03-10,2023-03-10,医療法人社団けやき,,その他の設立登記法人,東京都,府中市,若松町１丁目５番地の２０,,13,206,1830005,,,,,,,2023-03-10,1,,,,,ケヤキ,0
1058,5012701017531,新規,0,2023-03-10,2023-03-10,株式会社コントリエ,,株式会社,東京都,東村山市,富士見町２丁目９番地３５,,13,213,1890024,,,,,,,2023-03-10,1,,,,,コントリエ,0
1062,5013301050427,新規,0,2023-03-10,2023-03-10,株式会社セカンド,,株式会社,東京都,豊島区,巣鴨３丁目２３番７号メゾンソラ４０１号,,13,116,1700002,,,,,,,2023-03-10,1,,,,,セカンド,0
1063,5013301050443,新規,0,2023-03-10,2023-03-10,株式会社Ｂｌｕｅ　Ｆｏｒｅｓｔ,,株式会社,東京都,豊島区,東池袋１丁目３４番５号,,13,116,1700013,,,,,,,2023-03-10,1,,,,,ブルーフォレスト,0
1071,5020003023479,新規,0,2023-03-10,2023-03-10,サンエバー合同会社,,合同会社,神奈川県,川崎市中原区,上小田中２丁目３６番１号ｖｉｌｌａＭＵＳＥ３０３,,14,133,2110053,,,,,,,2023-03-10,1,,,,,サンエバー,0
1072,5020003023487,新規,0,2023-03-10,2023-03-10,ＴｅｃｈＤｒｉｖｅｎ　Ｃｏｎｓｕｌｔｉｎｇ合同会社,,合同会社,神奈川県,横浜市磯子区,栗木３丁目６－９,,14,107,2350041,,,,,,,2023-03-10,1,,,,,テックドリブンコンサルティング,0
1073,5020003023495,新規,0,2023-03-10,2023-03-10,山手キャピタル合同会社,,合同会社,神奈川県,横浜市磯子区,杉田２丁目７番１３－４号,,14,107,2350033,,,,,,,2023-03-10,1,,,,,ヤマテキャピタル,0
1081,5030001152816,新規,0,2023-03-10,2023-03-10,株式会社ＬｏｃｏＸ,,株式会社,埼玉県,北本市,本宿６丁目９５番地２,,11,233,3640005,,,,,,,2023-03-10,1,,,,,ロコエックス,0
1085,5030003021341,新規,0,2023-03-10,2023-03-10,一樹左官合同会社,,合同会社,埼玉県,さいたま市西区,大字清河寺１１５８番地１１,,11,101,3310048,,,,,,,2023-03-10,1,,,,,イチキサカン,0
1089,5040001127437,新規,0,2023-03-10,2023-03-10,株式会社シルバーネクスト,,株式会社,千葉県,浦安市,高洲６丁目２番２－１１６号ザ・パークハウス新浦安マリンヴィラ,,12,227,2790023,,,,,,,2023-03-10,1,,,,,シルバーネクスト,0
1090,5040001127453,新規,0,2023-03-10,2023-03-10,Ｊコンサルティング株式会社,,株式会社,千葉県,柏市,東台本町３番８号,,12,217,2770013,,,,,,,2023-03-10,1,,,,,ジェイコンサルティング,0
1091,5040003022108,新規,0,2023-03-10,2023-03-10,合同会社ＪＺＭ,,合同会社,千葉県,船橋市,上山町３丁目５３１番地９,,12,204,2730046,,,,,,,2023-03-10,1,,,,,ジェイゼットエム,0
1092,5040003022157,新規,0,2023-03-10,2023-03-10,ＹＳｖｉｃｔｏｒｙ合同会社,,合同会社,千葉県,千葉市中央区,新宿１丁目２８番８号,,12,101,2600021,,,,,,,2023-03-10,1,,,,,ワイエスビクトリー,0
1093,5050001052519,新規,0,2023-03-10,2023-03-10,ｃｏｎ　ａｆｆｅｔｔｏ株式会社,,株式会社,茨城県,つくば市,流星台３２－３ヴィアラッテア１０５,,08,220,3050008,,,,,,,2023-03-10,1,,,,,コンアフェット,0
1094,5070003004846,新規,0,2023-03-10,2023-03-10,ＢＮ合同会社,,合同会社,群馬県,渋川市,行幸田３２６番３号飯塚貸店舗２階３４号室,,10,208,3770006,,,,,,,2023-03-10,1,,,,,ビーエヌ,0
1095,5070003004854,新規,0,2023-03-10,2023-03-10,合同会社ケーズファミリー,,合同会社,群馬県,太田市,新田市野井町４１４番地１,,10,205,3700314,,,,,,,2023-03-10,1,,,,,ケーズファミリー,0
1096,5070005010090,新規,0,2023-03-10,2023-03-10,特定非営利活動法人やんば１万本桜桜守の会,,その他の設立登記法人,群馬県,吾妻郡長野原町,大字長野原１３４０番地１,,10,424,3771304,,,,,,,2023-03-10,1,,,,,,0
1101,5090001018012,新規,0,2023-03-10,2023-03-10,ストレッチラボ株式会社,,株式会社,山梨県,中巨摩郡昭和町,清水新居４５３－１サーパス清水新居６０３,,19,384,4093867,,,,,,,2023-03-10,1,,,,,ストレッチラボ,0
1103,5110001037356,新規,0,2023-03-10,2023-03-10,中越グラベル株式会社,,株式会社,新潟県,長岡市,喜多町１０７８番地１,,15,202,9402121,,,,,,,2023-03-10,1,,,,,チュウエツグラベル,0
1118,5120001253084,新規,0,2023-03-10,2023-03-10,株式会社掌,,株式会社,大阪府,大阪市北区,堂山町１５番２３－１００５号,,27,127,5300027,,,,,,,2023-03-10,1,,,,,ツカサ,0
1119,5120001253092,新規,0,2023-03-10,2023-03-10,株式会社Ｆｌａｔ,,株式会社,大阪府,大阪市浪速区,恵美須西３丁目５番１２号,,27,111,5560003,,,,,,,2023-03-10,1,,,,,フラット,0
1120,5120001253101,新規,0,2023-03-10,2023-03-10,菩提株式会社,,株式会社,大阪府,大阪市平野区,平野市町１丁目１番９号２０２号室,,27,126,5470042,,,,,,,2023-03-10,1,,,,,ボダイ,0
1126,5120003023584,新規,0,2023-03-10,2023-03-10,ｈｒｙ合同会社,,合同会社,大阪府,大阪市北区,梅田１丁目２番２号大阪駅前第２ビル１２－１２,,27,127,5300001,,,,,,,2023-03-10,1,,,,,エイチアールワイ,0
1127,5120003023601,新規,0,2023-03-10,2023-03-10,合同会社潤,,合同会社,大阪府,大阪市中央区,安土町２丁目３番１３号大阪国際ビルディング７Ｆ（トライアングル株式会社内）,,27,128,5410052,,,,,,,2023-03-10,1,,,,,ジュン,0
1130,5120005023509,新規,0,2023-03-10,2023-03-10,ＮＰＯ法人えがお子ども未来,,その他の設立登記法人,大阪府,大阪市中央区,本町２丁目２番５号本町第二ビル７Ｆ,,27,128,5410053,,,,,,,2023-03-10,1,,,,,エガオコドモミライ,0
1133,5120103005111,新規,0,2023-03-10,2023-03-10,合同会社小門産業,,合同会社,大阪府,泉大津市,旭町１４番１４－８０３号,,27,206,5950025,,,,,,,2023-03-10,1,,,,,コカドサンギョウ,0
1139,5122003002535,新規,0,2023-03-10,2023-03-10,合同会社クローバー,,合同会社,大阪府,東大阪市,角田３丁目８番１５号,,27,227,5780912,,,,,,,2023-03-10,1,,,,,クローバー,0
1147,5140001129415,新規,0,2023-03-10,2023-03-10,株式会社ゴドテックス,,株式会社,兵庫県,宝塚市,山手台東２丁目９番８号,,28,214,6650887,,,,,,,2023-03-10,1,,,,,ゴドテックス,0
1148,5140001129423,新規,0,2023-03-10,2023-03-10,株式会社ロングラン,,株式会社,兵庫県,姫路市,勝原区熊見１２番地３,,28,201,6711211,,,,,,,2023-03-10,1,,,,,ロングラン,0
1149,5140001129431,新規,0,2023-03-10,2023-03-10,ＨＹＰＥＲ　ＳＴＵＤＩＯ株式会社,,株式会社,兵庫県,神戸市中央区,磯上通８丁目１番２９号カサベラビルＣ＆Ｍ４０３号,,28,110,6510086,,,,,,,2023-03-10,1,,,,,ハイパースタジオ,0
1152,5160001024894,新規,0,2023-03-10,2023-03-10,株式会社リノライフ,,株式会社,滋賀県,彦根市,八坂町３０７３番地１,,25,202,5220057,,,,,,,2023-03-10,1,,,,,リノライフ,0
1165,5200001041035,新規,0,2023-03-10,2023-03-10,株式会社ＤＡＩＫＯ　ＲＯＡＤ,,株式会社,岐阜県,安八郡輪之内町,中郷新田２６２１番地の１,,21,382,5030212,,,,,,,2023-03-10,1,,,,,ダイコーロード,0
1166,5200003005896,新規,0,2023-03-10,2023-03-10,合同会社キィパック,,合同会社,岐阜県,大垣市,見取町１丁目２３番地１パルテール見取Ａ１０１,,21,202,5030025,,,,,,,2023-03-10,1,,,,,キィパック,0
1169,5230001019739,新規,0,2023-03-10,2023-03-10,藤原興業株式会社,,株式会社,富山県,下新川郡入善町,藤原９０７,,16,342,9390612,,,,,,,2023-03-10,1,,,,,フジワラコウギョウ,0
1173,5240001061186,新規,0,2023-03-10,2023-03-10,株式会社ＳＨＩＮＤＥＮ,,株式会社,広島県,広島市安芸区,矢野新町２丁目３番４号,,34,107,7360084,,,,,,,2023-03-10,1,,,,,シンデン,0
1175,5240003006040,新規,0,2023-03-10,2023-03-10,幸盈商運合同会社,,合同会社,広島県,福山市,神村町７７５番地６,,34,207,7290112,,,,,,,2023-03-10,1,,,,,コウエイショウン,0
1179,5260003004232,新規,0,2023-03-10,2023-03-10,合同会社ブルーベリーファームみつ,,合同会社,岡山県,岡山市北区,御津紙工１１２４,,33,101,7092136,,,,,,,2023-03-10,1,,,,,ブルーベリーファームミツ,0
1186,5290001100848,新規,0,2023-03-10,2023-03-10,株式会社プレシャスワン,,株式会社,福岡県,太宰府市,大佐野５丁目１３番１号,,40,221,8180134,,,,,,,2023-03-10,1,,,,,プレシャスワン,0
1187,5290001100864,新規,0,2023-03-10,2023-03-10,株式会社エコシステム,,株式会社,福岡県,福岡市博多区,住吉４丁目１７番３－９０７号,,40,132,8120018,,,,,,,2023-03-10,1,,,,,エコシステム,0
1190,5290003013635,新規,0,2023-03-10,2023-03-10,合同会社Ｒｕｎｗａｙ,,合同会社,福岡県,福岡市東区,松島３丁目２番１９－５０３号,,40,131,8130062,,,,,,,2023-03-10,1,,,,,ランウェイ,0
1191,5290003013643,新規,0,2023-03-10,2023-03-10,ｎｋｓ合同会社,,合同会社,福岡県,福岡市博多区,中洲２丁目４番２０号第２１ポールスタービル２階,,40,132,8100801,,,,,,,2023-03-10,1,,,,,エヌケイエス,0
1200,5330001030660,新規,0,2023-03-10,2023-03-10,株式会社ＭＹ　ＩＮＦＩＮＩＴＹ．,,株式会社,熊本県,熊本市西区,上代１丁目７－５０,,43,103,8600068,,,,,,,2023-03-10,1,,,,,マイインフィニティドット,0
1201,5330005010634,新規,0,2023-03-10,2023-03-10,一般社団法人子育てネットワーク縁側ｍｏｙａｉ,,その他の設立登記法人,熊本県,熊本市東区,尾ノ上４丁目２０番２７号,,43,102,8620913,,,,,,,2023-03-10,1,,,,,コソダテネットワークエンガワモヤイ,0
1203,5360001031664,新規,0,2023-03-10,2023-03-10,株式会社Ｍｅｍｅ　ｓｍａｒｔ　Ａｇｒｉ,,株式会社,沖縄県,石垣市,字大川４５１番地３,,47,207,9070022,,,,,,,2023-03-10,1,,,,,ミームスマートアグリ,0
1204,5370001049689,新規,0,2023-03-10,2023-03-10,株式会社プライム,,株式会社,宮城県,石巻市,鹿又字中埣１１１番地１８,,04,202,9861111,,,,,,,2023-03-10,1,,,,,プライム,0
1217,5420001018176,新規,0,2023-03-10,2023-03-10,株式会社ＡＡＡ,,株式会社,青森県,青森市,大字油川字大浜６８番地１６２,,02,201,0380059,,,,,,,2023-03-10,1,,,,,トリプルエー,0
1219,5430001088581,新規,0,2023-03-10,2023-03-10,株式会社Ｆｏｏｄｉｅｓ,,株式会社,北海道,札幌市豊平区,美園一条８丁目１番１号ＳＥＭＡＢｌｄｇ２Ｆ２０５,,01,105,0620001,,,,,,,2023-03-10,1,,,,,フーディーズ,0
1228,5700150114739,新規,0,2023-03-10,2023-03-10,ｓｈｅｎ　ｚｈｅｎ　ｓｈｉ　ｆｅｉ　ｈｅ　ｋｅ　ｊｉ　ｙｏｕ　ｘｉａｎ　ｇｏｎｇ　ｓｉ,,外国会社等,,,,,,,,ｂａｏ　ａｎ　ｑｕ　ｓｈａ　ｊｉｎｇ　ｊｉｅ　ｄａｏ　ｓｈａ　ｓｉ　ｇａｏ　ｘｉｎ　ｋｅ　ｊｉ　ｙｕａｎ　４　ｄｏｎｇ，ｓｈｅｎ　ｚｈｅｎ　ｇｕａｎｇ　ｄｏｎｇ，ｓｈｅｎｚｈｅｎ，ｇｕａｎｇｄｏｎｇ，５１８１０４，ＣＮ,,,,,,2023-03-10,1,,,,,シェンジェンシーフェイホーコージーヨウシエンゴンスー,0
1229,5700150114763,新規,0,2023-03-10,2023-03-10,Ｓｈｅｎｚｈｅｎｓｈｉ　Ｙｉｈｅｘｉｎ　Ｋｅｊｉ　Ｙｏｕｘｉａｎ　Ｇｏｎｇｓｉ,,外国会社等,,,,,,,,Ｇｕａｎｇｄｏｎｇ　Ｐｒｏｖｉｎｃｅ，Ｌｏｎｇｇａｎｇ　Ｄｉｓｔｒｉｃｔ，Ｓｈｅｎｚｈｅｎ，４Ｆ，２Ｂ　Ｂｕｉｌｄｉｎｇ，Ｎｏ．９１　Ｌｉｘｉｎ　Ｒｏａｄ　Ｄａｎｚｈｕｔｏｕ　Ｃｏｍｍｕｎｉｔｙ　Ｎａｎｗａｎ，Ｄａｎｚｈｕｔｏｕ　Ｃｏｍｍｕｎｉｔｙ　Ｎａｎｗａｎ　Ｓｔｒｅｅｔ，Ｃｈｉｎａ,,,,,,2023-03-10,1,,,,,シェンジェンシーイーホーシンコージーヨウシエンゴンスー,0
1230,5700150114771,新規,0,2023-03-10,2023-03-10,ｓｈａｎｇｈａｉ　ｙａｎｇｃｈｕ　ｎｅｔｗｏｅｋ　ｔｅｃｈｎｏｌｏｇｙ　ｃｏ．，ｌｔｄ,,外国会社等,,,,,,,,ｓｈａｎｇｈａｉ　ｊｉｎｓｈａｎ　ｄｉｓｔｒｉｃｔ　ｔｉｎｇｌｉｎ　ｔｏｗｎ　ｓｉｐｉｎｇ　ｓｏｕｔｈ　ｒｏａｄ　ｏｎ　ｔｈｅ　１９ｔｈ　ｆｌｏｏｒ，ｒｏｏｍ　８０６　ｓｈａｎｇｈａｉ　ｓｈａｎｇｈａｉ，Ｃｈｉｎａ,,,,,,2023-03-10,1,,,,,シャンハイヤンチューワンルオコージーヨウシエンゴンスー,0
1239,6010001233600,新規,0,2023-03-10,2023-03-10,株式会社Ｅ‐ｖｉｏｌｅｔ,,株式会社,東京都,中央区,新川２丁目１９‐８ステージグランデ新川６０５号,,13,102,1040033,,,,,,,2023-03-10,1,,,,,イーバイオレット,0
1240,6010001233609,新規,0,2023-03-10,2023-03-10,株式会社ＴＯＬＡＩ,,株式会社,東京都,中央区,銀座１丁目２２番１１号銀座大竹ビジデンス２階,,13,102,1040061,,,,,,,2023-03-10,1,,,,,トウライ,0
1241,6010001233617,新規,0,2023-03-10,2023-03-10,株式会社Ｍａｒｉｎ,,株式会社,東京都,中央区,築地２丁目１１番２５号,,13,102,1040045,,,,,,,2023-03-10,1,,,,,マリン,0
1245,6010003040004,新規,0,2023-03-10,2023-03-10,合同会社浅井太郎事務所,,合同会社,東京都,中央区,銀座１丁目２２番１１号,,13,102,1040061,,,,,,,2023-03-10,1,,,,,アサイタロウジムショ,0
1260,6010401172968,新規,0,2023-03-10,2023-03-10,株式会社ＪＡＭ,,株式会社,東京都,港区,虎ノ門３丁目１８番６号朝日虎ノ門マンション６１４号室,,13,103,1050001,,,,,,,2023-03-10,1,,,,,ジャム,0
1261,6010403029670,新規,0,2023-03-10,2023-03-10,合同会社ＭＯＲＩＭＯ,,合同会社,東京都,港区,西麻布２丁目１３番８－１３０２号,,13,103,1060031,,,,,,,2023-03-10,1,,,,,モリモ,0
1262,6010403029687,新規,0,2023-03-10,2023-03-10,胡桃合同会社,,合同会社,東京都,港区,西新橋１丁目１番１号ＥＰコンサルティングサービス内,,13,103,1050003,,,,,,,2023-03-10,1,,,,,クルミ,0
1263,6010601062738,新規,0,2023-03-10,2023-03-10,和豊国際株式会社,,株式会社,東京都,江東区,辰巳１丁目６番２－５０２号,,13,108,1350053,,,,,,,2023-03-10,1,,,,,ワホウコクサイ,0
1264,6010603010050,新規,0,2023-03-10,2023-03-10,合同会社ＭＭマーケティング,,合同会社,東京都,江東区,亀戸９丁目３４番１号亀戸レジデンス７１６,,13,108,1360071,,,,,,,2023-03-10,1,,,,,エムエムマーケティング,0
1267,6010801033761,新規,0,2023-03-10,2023-03-10,株式会社ＫＥＮ　ＦＩＥＬＤ,,株式会社,東京都,大田区,山王２丁目５番６号,,13,111,1430023,,,,,,,2023-03-10,1,,,,,ケンフィールド,0
1272,6011001153029,新規,0,2023-03-10,2023-03-10,ＭＡ‐ＴＩ株式会社,,株式会社,東京都,渋谷区,桜丘町２６番１号セルリアンタワー１５階,,13,113,1500031,,,,,,,2023-03-10,1,,,,,マーティ,0
1273,6011003016324,新規,0,2023-03-10,2023-03-10,合同会社Ｔｏｉ,,合同会社,東京都,渋谷区,恵比寿西２丁目３番１３号武田第一ビル４０３,,13,113,1500021,,,,,,,2023-03-10,1,,,,,トイ,0
1274,6011003016407,新規,0,2023-03-10,2023-03-10,合同会社Ｍａｌｋ,,合同会社,東京都,渋谷区,道玄坂１丁目１０番８号渋谷道玄坂東急ビル２Ｆ－Ｃ,,13,113,1500043,,,,,,,2023-03-10,1,,,,,マルク,0
1280,6011101102042,新規,0,2023-03-10,2023-03-10,株式会社ウェルビト,,株式会社,東京都,新宿区,四谷３丁目１３番地４,,13,104,1600004,,,,,,,2023-03-10,1,,,,,ウェルビト,0
1284,6011201024475,新規,0,2023-03-10,2023-03-10,Ｓｌａｒｔｉｂａｒｔｆａｓｔ株式会社,,株式会社,東京都,中野区,江古田４丁目２５番３号,,13,114,1650022,,,,,,,2023-03-10,1,,,,,スラーティバートファスト,0
1295,6011801042042,新規,0,2023-03-10,2023-03-10,株式会社光の島,,株式会社,東京都,足立区,西伊興３丁目１８－１４－２０２号,,13,121,1210824,,,,,,,2023-03-10,1,,,,,ヒカリノシマ,0
1298,6012301013343,新規,0,2023-03-10,2023-03-10,株式会社ムラファカ,,株式会社,東京都,町田市,木曽西５丁目２７番２２号,,13,209,1940037,,,,,,,2023-03-10,1,,,,,ムラファカ,0
1299,6013103001214,新規,0,2023-03-10,2023-03-10,合同会社高尚,,合同会社,東京都,青梅市,本町１９９,,13,205,1980083,,,,,,,2023-03-10,1,,,,,コウショウ,0
1307,6020001150596,新規,0,2023-03-10,2023-03-10,株式会社ｍｅｒａｙ,,株式会社,神奈川県,横浜市保土ケ谷区,峰沢町６７番地１０クレール三ツ沢１０２号,,14,106,2400061,,,,,,,2023-03-10,1,,,,,,0
1308,6020001150605,新規,0,2023-03-10,2023-03-10,株式会社白石コンサル,,株式会社,神奈川県,横浜市都筑区,荏田東３丁目１番２－４０６号,,14,118,2240006,,,,,,,2023-03-10,1,,,,,シライシコンサル,0
1309,6020001150638,新規,0,2023-03-10,2023-03-10,アージュ株式会社,,株式会社,神奈川県,横浜市旭区,上川井町２１７６番地ガーデンヒート上井川ビル３０２,,14,112,2410802,,,,,,,2023-03-10,1,,,,,アージュ,0
1317,6021001078407,新規,0,2023-03-10,2023-03-10,株式会社ＴＯＭ　ａｕｔｏｍｏｂｉｌｅ,,株式会社,神奈川県,足柄上郡大井町,金子１５８９番地３,,14,362,2580019,,,,,,,2023-03-10,1,,,,,トムオートモビル,0
1321,6021003012867,新規,0,2023-03-10,2023-03-10,Ｌｉｆｅ＆Ｆｉｋａ合同会社,,合同会社,神奈川県,大和市,南林間４丁目４番３－１号,,14,213,2420006,,,,,,,2023-03-10,1,,,,,ライフアンドフィーカ,0
1326,6030001152781,新規,0,2023-03-10,2023-03-10,株式会社ＶＩＣＴＯＲＹ　ＣＯＬＯＲ,,株式会社,埼玉県,さいたま市北区,奈良町１３番地１アルトゥーラ３０２,,11,102,3310822,,,,,,,2023-03-10,1,,,,,ヴィクトリーカラー,0
1336,6040001127428,新規,0,2023-03-10,2023-03-10,株式会社興梠,,株式会社,千葉県,白井市,桜台３丁目２番２１号,,12,232,2701412,,,,,,,2023-03-10,1,,,,,コウロギ,0
1337,6040001127444,新規,0,2023-03-10,2023-03-10,株式会社ＫＳＭ,,株式会社,千葉県,成田市,公津の杜５丁目５番地１０,,12,211,2860048,,,,,,,2023-03-10,1,,,,,ケーエスエム,0
1338,6040001127452,新規,0,2023-03-10,2023-03-10,株式会社ＡＳクリエイト,,株式会社,千葉県,野田市,中根１９６番地の８９,,12,208,2780031,,,,,,,2023-03-10,1,,,,,エーエスクリエイト,0
1339,6040003022172,新規,0,2023-03-10,2023-03-10,合同会社ＤＩＡＭＯＮＤＳ,,合同会社,千葉県,習志野市,藤崎２丁目７番１５号藤喜マンション２０４号室,,12,216,2750017,,,,,,,2023-03-10,1,,,,,ダイアモンド,0
1341,6050001052518,新規,0,2023-03-10,2023-03-10,株式会社根本企画,,株式会社,茨城県,つくば市,学園の森２丁目１３番地１５２,,08,220,3050816,,,,,,,2023-03-10,1,,,,,ネモトキカク,0
1344,6070003004845,新規,0,2023-03-10,2023-03-10,合同会社アキモト,,合同会社,群馬県,桐生市,宮本町２丁目５－９グリーンハイツ吾妻７号室,,10,203,3760056,,,,,,,2023-03-10,1,,,,,アキモト,0
1350,6100001036218,新規,0,2023-03-10,2023-03-10,株式会社ユニタス,,株式会社,長野県,佐久市,内山１６番地２７８,,20,217,3850031,,,,,,,2023-03-10,1,,,,,ユニタス,0
1352,6100003006920,新規,0,2023-03-10,2023-03-10,合同会社ＷａＬｉｆｅ,,合同会社,長野県,安曇野市,三郷明盛３５９９－８,,20,220,3998101,,,,,,,2023-03-10,1,,,,,ワライフ,0
1354,6110001037363,新規,0,2023-03-10,2023-03-10,株式会社ノリリア,,株式会社,新潟県,新潟市中央区,女池上山４丁目６番３号,,15,103,9500945,,,,,,,2023-03-10,1,,,,,ノリリア,0
1361,6120001253075,新規,0,2023-03-10,2023-03-10,株式会社ＳＵＮＮＹ,,株式会社,大阪府,大阪市天王寺区,生玉町１－２６,,27,109,5430071,,,,,,,2023-03-10,1,,,,,サニー,0
1362,6120001253091,新規,0,2023-03-10,2023-03-10,北辰商社株式会社,,株式会社,大阪府,大阪市淀川区,西宮原３丁目３－３－３３１,,27,123,5320004,,,,,,,2023-03-10,1,,,,,ホクジンショウシャ,0
1363,6120001253100,新規,0,2023-03-10,2023-03-10,株式会社ロイパプロパティ,,株式会社,大阪府,枚方市,禁野本町１丁目１８番６－３０１号,,27,210,5731197,,,,,,,2023-03-10,1,,,,,ロイパプロパティ,0
1364,6120001253117,新規,0,2023-03-10,2023-03-10,株式会社ＳＥＨホールディングス,,株式会社,大阪府,大阪市生野区,鶴橋３丁目５番４０号,,27,116,5440031,,,,,,,2023-03-10,1,,,,,エスイーエイチホールディングス,0
1365,6120001253125,新規,0,2023-03-10,2023-03-10,株式会社なかむらや,,株式会社,大阪府,大阪市城東区,古市３丁目７番１８号,,27,118,5360001,,,,,,,2023-03-10,1,,,,,ナカムラヤ,0
1366,6120001253133,新規,0,2023-03-10,2023-03-10,マルショウ株式会社,,株式会社,大阪府,大阪市西淀川区,百島２丁目１番５号,,27,113,5550044,,,,,,,2023-03-10,1,,,,,マルショウ,0
1371,6120103005110,新規,0,2023-03-10,2023-03-10,合同会社ナカセ,,合同会社,大阪府,堺市美原区,菅生１７３０番地３,,27,147,5870041,,,,,,,2023-03-10,1,,,,,ナカセ,0
1375,6122001036773,新規,0,2023-03-10,2023-03-10,株式会社羽城,,株式会社,大阪府,東大阪市,足代北１丁目８番１１－７０８号,,27,227,5770058,,,,,,,2023-03-10,1,,,,,ハシロ,0
1379,6130001073844,新規,0,2023-03-10,2023-03-10,株式会社ＶＩＮＡＩＮＯ　ｋｙｏｔｏ,,株式会社,京都府,京都市下京区,富小路通綾小路下る塗師屋町９２番地５,,26,106,6008053,,,,,,,2023-03-10,1,,,,,ヴィナイーノキョウト,0
1387,6140001129406,新規,0,2023-03-10,2023-03-10,株式会社坂井ポンプ,,株式会社,兵庫県,姫路市,網干区浜田１００４番地３０,,28,201,6711242,,,,,,,2023-03-10,1,,,,,サカイポンプ,0
1392,6140005026500,新規,0,2023-03-10,2023-03-10,一般社団法人マイスター育成協会,,その他の設立登記法人,兵庫県,神戸市中央区,北長狭通５丁目２番１９－５０３号,,28,110,6500012,,,,,,,2023-03-10,1,,,,,マイスターイクセイキョウカイ,0
1395,6160001024893,新規,0,2023-03-10,2023-03-10,株式会社ＡＲｕｒｕ,,株式会社,滋賀県,甲賀市,水口町虫生野中央３７,,25,209,5280042,,,,,,,2023-03-10,1,,,,,アルル,0
1401,6180001155332,新規,0,2023-03-10,2023-03-10,株式会社Ｒ・Ａ,,株式会社,愛知県,名古屋市緑区,亀が洞３丁目９１０番地４,,23,114,4580804,,,,,,,2023-03-10,1,,,,,アールエー,0
1404,6200001041050,新規,0,2023-03-10,2023-03-10,株式会社ディテーリングＬＡＢＯ,,株式会社,岐阜県,大垣市,八島町２３６２番地１,,21,202,5030016,,,,,,,2023-03-10,1,,,,,ディテーリングラボ,0
1405,6200001041067,新規,0,2023-03-10,2023-03-10,オートサイト株式会社,,株式会社,岐阜県,羽島郡岐南町,平成６丁目２２番地,,21,302,5016013,,,,,,,2023-03-10,1,,,,,オートサイト,0
1406,6200003005895,新規,0,2023-03-10,2023-03-10,合同会社アトリエセカイエンタープライズ,,合同会社,岐阜県,岐阜市,六条南２丁目６番３号,,21,201,5008358,,,,,,,2023-03-10,1,,,,,アトリエセカイエンタープライズ,0
1408,6220003003468,新規,0,2023-03-10,2023-03-10,合同会社ｌｉｅｎ,,合同会社,石川県,金沢市,片町２丁目７番１７号,,17,201,9200981,,,,,,,2023-03-10,1,,,,,リアン,0
1415,6240001061185,新規,0,2023-03-10,2023-03-10,株式会社ＤＫＳＧ,,株式会社,広島県,府中市,元町４４５番地１,,34,208,7260003,,,,,,,2023-03-10,1,,,,,ディーケーエスジー,0
1416,6240001061193,新規,0,2023-03-10,2023-03-10,株式会社Ｙｏｕ＆Ｉ,,株式会社,広島県,広島市安佐北区,落合２丁目２４番２４号,,34,106,7391731,,,,,,,2023-03-10,1,,,,,ユーアンドアイ,0
1417,6240001061202,新規,0,2023-03-10,2023-03-10,株式会社アスレチック,,株式会社,広島県,広島市南区,東本浦町２２番２７号,,34,103,7340025,,,,,,,2023-03-10,1,,,,,アスレチック,0
1419,6260001037729,新規,0,2023-03-10,2023-03-10,服部保険事務所株式会社,,株式会社,岡山県,瀬戸内市,牛窓町牛窓３８５１番地,,33,212,7014302,,,,,,,2023-03-10,1,,,,,ハットリホケンジムショ,0
1421,6260003004231,新規,0,2023-03-10,2023-03-10,Ｍｉｒｉｓｅ合同会社,,合同会社,岡山県,倉敷市,上富井２３０番地６,,33,202,7100846,,,,,,,2023-03-10,1,,,,,ミライズ,0
1427,6290001100871,新規,0,2023-03-10,2023-03-10,グラウンドワーク株式会社,,株式会社,福岡県,福岡市博多区,西月隈３丁目８番１２号ロワールマンションアール板付弐番館３２２号,,40,132,8120857,,,,,,,2023-03-10,1,,,,,グラウンドワーク,0
1430,6300001013238,新規,0,2023-03-10,2023-03-10,よしふく水産株式会社,,株式会社,佐賀県,唐津市,浜玉町横田下８６２番地８,,41,202,8495122,,,,,,,2023-03-10,1,,,,,ヨシフクスイサン,0
1435,6340005009567,新規,0,2023-03-10,2023-03-10,一般社団法人アソビシロ,,その他の設立登記法人,鹿児島県,南九州市,頴娃町別府５２０２番地,,46,223,8910704,,,,,,,2023-03-10,1,,,,,アソビシロ,0
1439,6370001049688,新規,0,2023-03-10,2023-03-10,株式会社しおがま松島屋,,株式会社,宮城県,塩竈市,北浜１丁目１番３号,,04,203,9850003,,,,,,,2023-03-10,1,,,,,シオガママツシマヤ,0
1450,6390003002057,新規,0,2023-03-10,2023-03-10,合同会社ＣＲＡＦＴ　Ｎｏａｈ,,合同会社,山形県,東田川郡三川町,大字猪子字旭谷地２５４番地,,06,426,9971316,,,,,,,2023-03-10,1,,,,,クラフトノア,0
1452,6420001018175,新規,0,2023-03-10,2023-03-10,株式会社ＦＳＲ,,株式会社,青森県,青森市,大字油川字大浜６８番地２６５,,02,201,0380059,,,,,,,2023-03-10,1,,,,,エフエスアール,0
1453,6420001018183,新規,0,2023-03-10,2023-03-10,株式会社Ｋｏｎｓｔａｎｔ,,株式会社,青森県,青森市,緑２丁目３番地１５,,02,201,0300845,,,,,,,2023-03-10,1,,,,,コンスタント,0
1458,6430001088580,新規,0,2023-03-10,2023-03-10,浩陽株式会社,,株式会社,北海道,札幌市東区,北三十条東２丁目３番１号エクセルぴあＮ３０－３０１号室,,01,103,0650030,,,,,,,2023-03-10,1,,,,,コウヨウ,0
1459,6430001088614,新規,0,2023-03-10,2023-03-10,株式会社ＰｉｎＷｈｅｅｌ,,株式会社,北海道,札幌市中央区,南四条東３丁目９－１,,01,101,0600054,,,,,,,2023-03-10,1,,,,,ピンウィール,0
1466,6700150114762,新規,0,2023-03-10,2023-03-10,ｗｅｉｌａｉｙｉｓｈａｎｇｔｉａｎｊｉｎｉｍｐｏｒｔａｎｄｅｘｐｏｒｔｔｒａｄｉｎｇｃｏ．，ｌｔｄ,,外国会社等,,,,,,,,Ｒｏｏｍ　Ｂ３１８，Ｂｕｉｌｄｉｎｇ　８，Ｅａｓｔ　Ｄｉｓｔｒｉｃｔ，Ａｉｒｐｏｒｔ　Ｂｕｓｉｎｅｓｓ　Ｐａｒｋ　８０　Ｈｕａｎｈｅ　Ｎｏｒｔｈ　Ｒｏａｄ　Ｔｉａｎｊｉｎ　Ｆｒｅｅ　Ｔｒａｄｅ　Ｔｅｓｔ　Ａｒｅａ　Ｔｉａｎｊｉｎ　Ｃｈｉｎａ,,,,,,2023-03-10,1,,,,,イーライイーシャンティエンジンジンチューコウマオイーヨウシエンゴンスー,0
1467,6700150114770,新規,0,2023-03-10,2023-03-10,Ｓｈａｎｇｈａｉ　Ｘｉａｎｇｓｈｉ　Ｔｒａｄｉｎｇ　Ｃｏ．，Ｌｔｄ,,外国会社等,,,,,,,,Ｒｏｏｍ　２０１．Ｂｕｉｌｄｉｎｇ　１４，Ｎｏ．６５５　Ｆｅｎｇ　Ｚｈｏｕ　Ｒｏａｄ，Ｊｉａｄｉｎｇ　Ｄｉｓｔｒｉｃｔ，Ｓｈａｎｇｈａｉ　Ｊ５４５２，Ｃｈｉｎａ,,,,,,2023-03-10,1,,,,,シャンハイシャンシーシャンマオヨウシエンゴンスー,0
1473,7010001233566,新規,0,2023-03-10,2023-03-10,株式会社Ｈｏｎｅｓｔ,,株式会社,東京都,文京区,本郷４丁目３４番１５号,,13,105,1130033,,,,,,,2023-03-10,1,,,,,ホーネスト,0
1474,7010001233582,新規,0,2023-03-10,2023-03-10,株式会社プロップストレッチ,,株式会社,東京都,中央区,日本橋３丁目４番１号,,13,102,1030027,,,,,,,2023-03-10,1,,,,,プロップストレッチ,0
1475,7010001233590,新規,0,2023-03-10,2023-03-10,金太貿易株式会社,,株式会社,東京都,文京区,小石川１丁目９番１４‐１５０３号,,13,105,1120002,,,,,,,2023-03-10,1,,,,,キンタボウエキ,0
1476,7010001233599,新規,0,2023-03-10,2023-03-10,株式会社ＥＲＡＢ,,株式会社,東京都,中央区,日本橋２丁目１番３号,,13,102,1030027,,,,,,,2023-03-10,1,,,,,エラブ,0
1477,7010001233608,新規,0,2023-03-10,2023-03-10,株式会社ＰＫＧパートナー,,株式会社,東京都,千代田区,東神田１丁目１２番１０号誠心ＩＩビル２Ｆ,00129716,13,101,1010031,,,,,,,2023-03-10,1,,,,,ピーケージーパートナー,0
1478,7010001233665,新規,0,2023-03-10,2023-03-10,株式会社Ｔｈｅ　Ｅｌｅｍｅｎｔｓ,,株式会社,東京都,千代田区,神田和泉町１番地６－１６ヤマトビル４０５,,13,101,1010024,,,,,,,2023-03-10,1,,,,,ジエレメンツ,0
1485,7010101015550,新規,0,2023-03-10,2023-03-10,ＧＲＡＴＥＦＵＬ　ＣＯＭＰＡＮＹ株式会社,,株式会社,東京都,八王子市,美山町９０１番地２,,13,201,1920152,,,,,,,2023-03-10,1,,,,,グレイトフルカンパニー,0
1488,7010103002101,新規,0,2023-03-10,2023-03-10,瑪嘉＿合同会社,00129717,合同会社,東京都,八王子市,三崎町８番１－３０３号,,13,201,1920084,,,,,,,2023-03-10,1,,,,,マジャニー,0
1490,7010401172967,新規,0,2023-03-10,2023-03-10,株式会社Ｂｒｅｖａｌ,,株式会社,東京都,港区,北青山２丁目７－２０猪瀬ビル２Ｆ,,13,103,1070061,,,,,,,2023-03-10,1,,,,,ブレヴァル,0
1491,7010401173032,新規,0,2023-03-10,2023-03-10,株式会社ウララインターナショナル,,株式会社,東京都,港区,虎ノ門１丁目１７番１号虎ノ門ヒルズビジネスタワー１５階,,13,103,1050001,,,,,,,2023-03-10,1,,,,,ウララインターナショナル,0
1493,7010403029637,新規,0,2023-03-10,2023-03-10,ＲＩＮＩＭＡＬ合同会社,,合同会社,東京都,港区,浜松町２丁目２－１５浜松町ダイヤビル２Ｆ,,13,103,1050013,,,,,,,2023-03-10,1,,,,,リニマル,0
1496,7010601062729,新規,0,2023-03-10,2023-03-10,株式会社アンプラグド,,株式会社,東京都,江東区,森下２丁目１２－５－４０１,,13,108,1350004,,,,,,,2023-03-10,1,,,,,アンプラグド,0
1497,7010601062737,新規,0,2023-03-10,2023-03-10,世美株式会社,,株式会社,東京都,江東区,北砂３丁目２８－１不動コーポ２０１号室,,13,108,1360073,,,,,,,2023-03-10,1,,,,,セイビ,0
1502,7010701043950,新規,0,2023-03-10,2023-03-10,株式会社ＴＨＲＥＥ　ＦＯＲ　ＯＮＥ,,株式会社,東京都,品川区,上大崎２丁目１５番１９号ＭＧ目黒駅前,,13,109,1410021,,,,,,,2023-03-10,1,,,,,スリーフォーワン,0
1503,7010901052669,新規,0,2023-03-10,2023-03-10,ブルースカイ株式会社,,株式会社,東京都,世田谷区,喜多見３丁目２３番８号,,13,112,1570067,,,,,,,2023-03-10,1,,,,,ブルースカイ,0
1504,7010901052677,新規,0,2023-03-10,2023-03-10,株式会社ｕｎ．ｆｉｌ,,株式会社,東京都,世田谷区,北沢１丁目３８－１４しょうわビル２階,,13,112,1550031,,,,,,,2023-03-10,1,,,,,アンフィル,0
1506,7010905004451,新規,0,2023-03-10,2023-03-10,医療法人社団ＲＩＣ,,その他の設立登記法人,東京都,世田谷区,三軒茶屋２丁目１１番２３号サンタワーズＢ棟５階,,13,112,1540024,,,,,,,2023-03-10,1,,,,,リック,0
1512,7011001153011,新規,0,2023-03-10,2023-03-10,株式会社Ｐｒｏｓｓｉｓｔ,,株式会社,東京都,渋谷区,道玄坂１丁目１０番８号渋谷道玄坂東急ビル２Ｆ－Ｃ,,13,113,1500043,,,,,,,2023-03-10,1,,,,,プロシスト,0
1515,7011003016414,新規,0,2023-03-10,2023-03-10,合同会社Ａ＆Ｉテクノロジー,,合同会社,東京都,渋谷区,神宮前１丁目５番８号,,13,113,1500001,,,,,,,2023-03-10,1,,,,,エイアンドアイテクノロジー,0
1516,7011003016422,新規,0,2023-03-10,2023-03-10,Ｓｏｇａ　Ｈｉｌｌｔｏｐ合同会社,,合同会社,東京都,渋谷区,恵比寿西１丁目１９番６号ＵＮパークビル５階日本プロパティーズツゥー株式会社内,,13,113,1500021,,,,,,,2023-03-10,1,,,,,ソガヒルトップ,0
1519,7011101102090,新規,0,2023-03-10,2023-03-10,株式会社ＦＩＦＴＹ　ＦＩＶＥ,,株式会社,東京都,新宿区,新宿７丁目３番１２号,,13,104,1600022,,,,,,,2023-03-10,1,,,,,フィフティファイブ,0
1520,7011101102108,新規,0,2023-03-10,2023-03-10,株式会社ｉＣｙａｎ,,株式会社,東京都,新宿区,新宿２丁目１３番１０号武蔵野ビル５階,,13,104,1600022,,,,,,,2023-03-10,1,,,,,アイシアン,0
1523,7011303004696,新規,0,2023-03-10,2023-03-10,合同会社ＮＡＯ,,合同会社,東京都,杉並区,高井戸東４丁目１１番２号,,13,115,1680072,,,,,,,2023-03-10,1,,,,,エヌエーオー,0
1527,7011801042041,新規,0,2023-03-10,2023-03-10,川日国際物流株式会社,,株式会社,東京都,足立区,千住橋戸町１番地４オーベルグランディオ千住大橋２１５号室,,13,121,1200038,,,,,,,2023-03-10,1,,,,,カワニチコクサイブツリュウ,0
1530,7012301013334,新規,0,2023-03-10,2023-03-10,株式会社ＲＩＶＩＮＴＥ,,株式会社,東京都,町田市,原町田３丁目６番５号ルーベンスカンダ５番館２０１,,13,209,1940013,,,,,,,2023-03-10,1,,,,,リヴァイント,0
1534,7012401040261,新規,0,2023-03-10,2023-03-10,株式会社Ｂｅ　Ｎｏｗ,,株式会社,東京都,三鷹市,牟礼４丁目４番９号,,13,204,1810002,,,,,,,2023-03-10,1,,,,,ビーナウ,0
1538,7012805003178,新規,0,2023-03-10,2023-03-10,医療法人社団豊倉会,,その他の設立登記法人,東京都,日野市,程久保６５０番地７６,,13,212,1910042,,,,,,,2023-03-10,1,,,,,トヨクラカイ,0
1539,7013103001213,新規,0,2023-03-10,2023-03-10,合同会社Ｊ＆Ｃ,,合同会社,東京都,青梅市,東青梅２丁目１１番地の１８ホワイトプラザＢ１０１,,13,205,1980042,,,,,,,2023-03-10,1,,,,,ジェイアンドシー,0
1553,7020001150447,新規,0,2023-03-10,2023-03-10,株式会社瑞盛商事,,株式会社,神奈川県,横浜市旭区,左近山１５７番地５左近山団地４街区７棟２０２号,,14,112,2410831,,,,,,,2023-03-10,1,,,,,ズイセイショウジ,0
1554,7020001150546,新規,0,2023-03-10,2023-03-10,いづみ屋フード株式会社,,株式会社,神奈川県,横浜市神奈川区,鶴屋町２丁目１６番地２,,14,102,2210835,,,,,,,2023-03-10,1,,,,,イヅミヤフード,0
1555,7020001150604,新規,0,2023-03-10,2023-03-10,Ｈｂｓ株式会社,,株式会社,神奈川県,横浜市中区,南仲通３丁目３２番地１,,14,104,2310006,,,,,,,2023-03-10,1,,,,,エイチビーエス,0
1559,7020003023428,新規,0,2023-03-10,2023-03-10,合同会社ａｎｉｍａｄｏ,,合同会社,神奈川県,川崎市川崎区,京町３丁目２０番１グリーンシア川崎京町８１５,,14,131,2100848,,,,,,,2023-03-10,1,,,,,アニマード,0
1560,7020003023452,新規,0,2023-03-10,2023-03-10,ｇｏｅｎ合同会社,,合同会社,神奈川県,川崎市川崎区,港町五丁目２－１７１６,,14,131,2100807,,,,,,,2023-03-10,1,,,,,ゴエン,0
1561,7020003023493,新規,0,2023-03-10,2023-03-10,合同会社ＵＴ２,,合同会社,神奈川県,横浜市旭区,中白根４丁目１番２－３０１号,,14,112,2410004,,,,,,,2023-03-10,1,,,,,ユーティーツー,0
1568,7021003012866,新規,0,2023-03-10,2023-03-10,ミライジング合同会社,,合同会社,神奈川県,茅ヶ崎市,東海岸南１丁目１５番３６号１０３,,14,207,2530054,,,,,,,2023-03-10,1,,,,,ミライジング,0
1583,7040001127278,新規,0,2023-03-10,2023-03-10,株式会社Ａｏ,,株式会社,千葉県,八千代市,緑が丘西３丁目１６番地８２,,12,221,2760040,,,,,,,2023-03-10,1,,,,,アオ,0
1584,7040001127385,新規,0,2023-03-10,2023-03-10,株式会社Ｓｕｇａｒｓ,,株式会社,千葉県,習志野市,奏の杜２丁目２番２－２２２８号,,12,216,2750028,,,,,,,2023-03-10,1,,,,,シュガーズ,0
1585,7040001127402,新規,0,2023-03-10,2023-03-10,ＬＳ商事株式会社,,株式会社,千葉県,千葉市稲毛区,宮野木町１９６４番地１８,,12,103,2630054,,,,,,,2023-03-10,1,,,,,エルエスショウジ,0
1589,7040003022155,新規,0,2023-03-10,2023-03-10,エスジーイー合同会社,,合同会社,千葉県,市原市,ちはら台東１丁目２５番地６９,,12,219,2900141,,,,,,,2023-03-10,1,,,,,エスジーイー,0
1590,7040003022163,新規,0,2023-03-10,2023-03-10,ＭＰＪ合同会社,,合同会社,千葉県,千葉市中央区,松波１丁目８番１１号ベルテ松波３０３,,12,101,2600044,,,,,,,2023-03-10,1,,,,,エムピージェイ,0
1592,7050001052509,新規,0,2023-03-10,2023-03-10,出山工業株式会社,,株式会社,茨城県,結城市,大字新宿新田３７番地,,08,207,3070034,,,,,,,2023-03-10,1,,,,,デヤマコウギョウ,0
1594,7050003007295,新規,0,2023-03-10,2023-03-10,Ｓ．Ｒ．Ｌ　ｆｉｅｌｄ合同会社,,合同会社,茨城県,取手市,市之代４７８番地,,08,217,3020037,,,,,,,2023-03-10,1,,,,,エスアールエルフィールド,0
1596,7060001035776,新規,0,2023-03-10,2023-03-10,上阿甲株式会社,,株式会社,栃木県,宇都宮市,峰３丁目２４－９町田コーポ１階Ｄ号室,,09,201,3210942,,,,,,,2023-03-10,1,,,,,ジョウアコウ,0
1606,7100001036217,新規,0,2023-03-10,2023-03-10,株式会社ささくら,,株式会社,長野県,北佐久郡軽井沢町,大字追分６５５番地３,,20,321,3890115,,,,,,,2023-03-10,1,,,,,ササクラ,0
1610,7110001037362,新規,0,2023-03-10,2023-03-10,黒猫組株式会社,,株式会社,新潟県,新潟市東区,松園１丁目９番地１９号８,,15,102,9500023,,,,,,,2023-03-10,1,,,,,クロネコグミ,0
1616,7120001253099,新規,0,2023-03-10,2023-03-10,アシタノホラー株式会社,,株式会社,大阪府,大阪市中央区,北浜東１－１２千歳ビル２０２,,27,128,5400031,,,,,,,2023-03-10,1,,,,,アシタノホラー,0
1617,7120001253116,新規,0,2023-03-10,2023-03-10,セレア株式会社,,株式会社,大阪府,大阪市北区,梅田１丁目１１番４号大阪駅前第４ビル９階９２３－１６６３号,,27,127,5300001,,,,,,,2023-03-10,1,,,,,セレア,0
1622,7120101067127,新規,0,2023-03-10,2023-03-10,株式会社ヒサテックエンジニアリング,,株式会社,大阪府,堺市北区,新金岡町５丁３番２２３号,,27,146,5918021,,,,,,,2023-03-10,1,,,,,ヒサテックエンジニアリング,0
1624,7120903004533,新規,0,2023-03-10,2023-03-10,合同会社Ｓｅｔｔｓｕ　Ｃｏｌｌｅｃｔｉｏｎ,,合同会社,大阪府,摂津市,鳥飼中１丁目２－５－８２４号,,27,224,5660064,,,,,,,2023-03-10,1,,,,,セッツコレクション,0
1627,7122001036772,新規,0,2023-03-10,2023-03-10,株式会社Ｈｉｔｏ,,株式会社,大阪府,東大阪市,小若江３丁目１２０番地６０,,27,227,5770818,,,,,,,2023-03-10,1,,,,,ヒト,0
1632,7130005016716,新規,0,2023-03-10,2023-03-10,一般社団法人いろどりあつめ,,その他の設立登記法人,京都府,京都市下京区,富小路通仏光寺下る筋屋町１４１番地フューチャーステージ５０４号室,,26,106,6008061,,,,,,,2023-03-10,1,,,,,イロドリアツメ,0
1639,7140001129388,新規,0,2023-03-10,2023-03-10,株式会社ｍｉｓｍｏ,,株式会社,兵庫県,丹波篠山市,西荘１８９－１,,28,221,6692447,,,,,,,2023-03-10,1,,,,,ミスモ,0
1640,7140001129405,新規,0,2023-03-10,2023-03-10,株式会社ＫＴＵ,,株式会社,兵庫県,姫路市,千代田町８３８番地８エミネンス千代田３号棟,,28,201,6700993,,,,,,,2023-03-10,1,,,,,ケイティーユー,0
1641,7140005026508,新規,0,2023-03-10,2023-03-10,ＮＰＯ法人ほまれ・やぶ,,その他の設立登記法人,兵庫県,養父市,建屋４６３－１,,28,222,6670142,,,,,,,2023-03-10,1,,,,,ホマレヤブ,0
1646,7180001155232,新規,0,2023-03-10,2023-03-10,Ｊａｓｍｉｎｅ　Ｃａｍｂｏｄｉａ株式会社,,株式会社,愛知県,名古屋市瑞穂区,大喜町４丁目１５１番地,,23,108,4670822,,,,,,,2023-03-10,1,,,,,ジャスミンカンボジア,0
1647,7180001155331,新規,0,2023-03-10,2023-03-10,株式会社Ａｓｈ　Ｐｒｉｄｅ,,株式会社,愛知県,名古屋市中区,丸の内３丁目１７番２９号丸の内ｉａビル５Ｆ,,23,106,4600002,,,,,,,2023-03-10,1,,,,,アッシュプライド,0
1648,7180001155348,新規,0,2023-03-10,2023-03-10,株式会社ＭＡＥＵＬ,,株式会社,愛知県,名古屋市中区,錦２丁目１２番３２号（さくらＨｉｌｌｓ　ＮＩＳＨＩＫＩ１１０５号）,,23,106,4600003,,,,,,,2023-03-10,1,,,,,マウル,0
1652,7180303005647,新規,0,2023-03-10,2023-03-10,合同会社ＹＲ,,合同会社,愛知県,豊田市,渡刈町申町２０番地２,,23,211,4701202,,,,,,,2023-03-10,1,,,,,ワイアール,0
1655,7200003005894,新規,0,2023-03-10,2023-03-10,ＳＨコンサルタント合同会社,,合同会社,岐阜県,岐阜市,三田洞東３丁目６番５,,21,201,5020003,,,,,,,2023-03-10,1,,,,,エスエイチコンサルタント,0
1656,7220003003467,新規,0,2023-03-10,2023-03-10,合同会社なのはな,,合同会社,石川県,加賀市,大聖寺岡町ホ１６番地１,,17,206,9220005,,,,,,,2023-03-10,1,,,,,ナノハナ,0
1658,7230001019745,新規,0,2023-03-10,2023-03-10,株式会社サポートシステム,,株式会社,富山県,富山市,米田すずかけ台２丁目９番１号,,16,201,9318306,,,,,,,2023-03-10,1,,,,,サポートシステム,0
1662,7240005015533,新規,0,2023-03-10,2023-03-10,廣智院,,その他の設立登記法人,広島県,呉市,音戸町大字音戸字西管原９２３－１,,34,202,7370000,,,,,,,2023-03-10,1,,,,,コウチイン,0
1667,7260001037728,新規,0,2023-03-10,2023-03-10,株式会社セブンマーケット,,株式会社,岡山県,倉敷市,玉島阿賀崎３丁目５番７号,,33,202,7138121,,,,,,,2023-03-10,1,,,,,セブンマーケット,0
1668,7260003004230,新規,0,2023-03-10,2023-03-10,ＮＡＹＵＧ合同会社,,合同会社,岡山県,岡山市南区,山田１２４９番地１,,33,104,7010202,,,,,,,2023-03-10,1,,,,,ナユグ,0
1673,7270001008736,新規,0,2023-03-10,2023-03-10,Ｆａｖｏｕｒｉｔｅ’ｓ株式会社,,株式会社,鳥取県,米子市,安倍１７８番地１（１００３号）,,31,202,6830846,,,,,,,2023-03-10,1,,,,,フェイバリッツ,0
1676,7290001100854,新規,0,2023-03-10,2023-03-10,株式会社ＡＬｏｎＴＣ,,株式会社,福岡県,糟屋郡須惠町,大字上須惠７８１アムールやまと１０１号,,40,344,8112114,,,,,,,2023-03-10,1,,,,,アルオンティーシー,0
1680,7300001013237,新規,0,2023-03-10,2023-03-10,株式会社エール,,株式会社,佐賀県,鳥栖市,曽根崎町１１５４番地３,,41,203,8410025,,,,,,,2023-03-10,1,,,,,エール,0
1683,7340001025419,新規,0,2023-03-10,2023-03-10,株式会社Ｐｕｒｅ　Ｐａｒｔｎｅｒｓ,,株式会社,鹿児島県,霧島市,国分中央３丁目３番３号,,46,218,8994332,,,,,,,2023-03-10,1,,,,,ピュアパートナーズ,0
1684,7340001025427,新規,0,2023-03-10,2023-03-10,株式会社ＨＲ　Ｎｅｗｔｏｎ,,株式会社,鹿児島県,鹿児島市,広木２丁目３８番１５号,,46,201,8900037,,,,,,,2023-03-10,1,,,,,エイチアールニュートン,0
1688,7350003004320,新規,0,2023-03-10,2023-03-10,８８ＬＡＢＥＬ合同会社,,合同会社,宮崎県,都城市,山之口町花木２２０３番地３,,45,202,8891802,,,,,,,2023-03-10,1,,,,,ハチハチレーベル,0
1691,7360001031679,新規,0,2023-03-10,2023-03-10,株式会社オキタグ,,株式会社,沖縄県,那覇市,字鏡水４０３番地,,47,201,9010142,,,,,,,2023-03-10,1,,,,,オキタグ,0
1700,7390001017188,新規,0,2023-03-10,2023-03-10,株式会社Ｓ４,,株式会社,山形県,酒田市,錦町１丁目１番地の６,,06,204,9980103,,,,,,,2023-03-10,1,,,,,エスフォー,0
1704,7420001018182,新規,0,2023-03-10,2023-03-10,株式会社みちしるべ企画,,株式会社,青森県,八戸市,根城５丁目１４番２４号,,02,203,0391166,,,,,,,2023-03-10,1,,,,,ミチシルベキカク,0
1716,7500001024809,新規,0,2023-03-10,2023-03-10,株式会社ｋａｎｏｎ,,株式会社,愛媛県,松山市,三津２丁目１４番１４号,,38,201,7918061,,,,,,,2023-03-10,1,,,,,カノン,0
1721,7700150114761,新規,0,2023-03-10,2023-03-10,ｑｉｎｇｄａｏｄｏｎｇｓｈｅｎｇｆｕｂａｎｇｄｉａｎｚｉｓｈａｎｇｗｕｙｏｕｘｉａｎｇｏｎｇｓｉ,,外国会社等,,,,,,,,ｃｈｅｎｇｙａｎｇｑｕｚｈｅｎｇｙａｎｇｌｕ　ｇｕｏｊｉｓｈａｎｇｗｕｇａｎｇｂａｎｇｏｎｇ９２０　ｑｉｎｇｄａｏｓｈｉ　ｓｈａｎｄｏｎｇｓｈｅｎｇ　Ｃｈｉｎａ　２６６０００,,,,,,2023-03-10,1,,,,,チンダオドンションフーバンディエンズーシャンウーヨウシエンゴンスー,0
1732,8010001233648,新規,0,2023-03-10,2023-03-10,ＩＴＦホールディングス株式会社,,株式会社,東京都,千代田区,永田町１丁目１１番３０号サウスヒル永田町５階,,13,101,1000014,,,,,,,2023-03-10,1,,,,,アイティエフホールディングス,0
1735,8010105002206,新規,0,2023-03-10,2023-03-10,医療法人社団スリーベア,,その他の設立登記法人,東京都,八王子市,大和田町５丁目７番１８号フォレストモール八王子大和田店,,13,201,1920045,,,,,,,2023-03-10,1,,,,,スリーベア,0
1743,8010401172974,新規,0,2023-03-10,2023-03-10,株式会社アルゴ,,株式会社,東京都,港区,港南２丁目１５番１号,,13,103,1080075,,,,,,,2023-03-10,1,,,,,アルゴ,0
1744,8010401173007,新規,0,2023-03-10,2023-03-10,Ｄｉａｍｏｎｄ　Ｃｏｌｌｅｃｔｉｏｎ株式会社,,株式会社,東京都,港区,芝浦４丁目２０番２号,,13,103,1080023,,,,,,,2023-03-10,1,,,,,ダイヤモンドコレクション,0
1752,8010601062736,新規,0,2023-03-10,2023-03-10,大東商事株式会社,,株式会社,東京都,墨田区,押上１丁目１５番２－３０３号,,13,107,1310045,,,,,,,2023-03-10,1,,,,,ダイトウショウジ,0
1754,8010901052676,新規,0,2023-03-10,2023-03-10,株式会社ひつじファクトリー,,株式会社,東京都,世田谷区,玉堤１丁目２６番地２３リムテラス尾山台１０５,,13,112,1580087,,,,,,,2023-03-10,1,,,,,ヒツジファクトリー,0
1768,8011101101851,新規,0,2023-03-10,2023-03-10,ｄｉｖＩＤ株式会社,,株式会社,東京都,新宿区,西新宿７丁目２２番１８号,,13,104,1600023,,,,,,,2023-03-10,1,,,,,ディブアイディー,0
1769,8011103012766,新規,0,2023-03-10,2023-03-10,合同会社遊び心,,合同会社,東京都,新宿区,西新宿３丁目３番１３号西新宿水間ビル２Ｆ,,13,104,1600023,,,,,,,2023-03-10,1,,,,,アソビゴコロ,0
1778,8011501029032,新規,0,2023-03-10,2023-03-10,日進建設工業株式会社,,株式会社,東京都,北区,浮間４丁目１９番３０号,,13,117,1150051,,,,,,,2023-03-10,1,,,,,ニッシンケンセツコウギョウ,0
1782,8011801042040,新規,0,2023-03-10,2023-03-10,株式会社シムコン,,株式会社,東京都,葛飾区,堀切２丁目４０番１２号,,13,122,1240006,,,,,,,2023-03-10,1,,,,,シムコン,0
1783,8011801042049,新規,0,2023-03-10,2023-03-10,株式会社パークマッスル,,株式会社,東京都,足立区,新田２丁目７番１０号,,13,121,1230865,,,,,,,2023-03-10,1,,,,,パークマッスル,0
1787,8012401040269,新規,0,2023-03-10,2023-03-10,株式会社Ｎｏｔｒｅ　Ｄｅｆｉ,,株式会社,東京都,府中市,天神町１丁目２－３銀杏ビル１階,,13,206,1830053,,,,,,,2023-03-10,1,,,,,ノートルデフィ,0
1788,8012701017529,新規,0,2023-03-10,2023-03-10,株式会社Ｌ．ｅ,,株式会社,東京都,小平市,花小金井３丁目１９番２０号,,13,211,1870002,,,,,,,2023-03-10,1,,,,,エルイー,0
1803,8020001150561,新規,0,2023-03-10,2023-03-10,内田技研株式会社,,株式会社,神奈川県,横浜市鶴見区,東寺尾１丁目３０番４０－４１０号,,14,101,2300077,,,,,,,2023-03-10,1,,,,,ウチダギケン,0
1804,8020001150603,新規,0,2023-03-10,2023-03-10,株式会社オリエントマリタイムホールディングス,,株式会社,神奈川県,横浜市保土ケ谷区,川辺町２番地４アリュール横濱星川３０７号,,14,106,2400001,,,,,,,2023-03-10,1,,,,,オリエントマリタイムホールディングス,0
1805,8020001150644,新規,0,2023-03-10,2023-03-10,株式会社Ｈａｐｐｙ９,,株式会社,神奈川県,横浜市港北区,箕輪町２丁目４－３－２０５号,,14,109,2230051,,,,,,,2023-03-10,1,,,,,ハッピーナイン,0
1808,8020003023484,新規,0,2023-03-10,2023-03-10,オーアール合同会社,,合同会社,神奈川県,横浜市青葉区,あざみ野南２丁目８－３５,,14,117,2250012,,,,,,,2023-03-10,1,,,,,オーアール,0
1809,8020003023492,新規,0,2023-03-10,2023-03-10,八鋼ホールディングス合同会社,,合同会社,神奈川県,横浜市鶴見区,鶴見中央４丁目２番３－３０３号,,14,101,2300051,,,,,,,2023-03-10,1,,,,,ハチコウホールディングス,0
1814,8021001078405,新規,0,2023-03-10,2023-03-10,株式会社ＲＥ湘南,,株式会社,神奈川県,足柄上郡大井町,山田字土橋１６３６番１３,,14,362,2580015,,,,,,,2023-03-10,1,,,,,アールイーショウナン,0
1828,8040001127450,新規,0,2023-03-10,2023-03-10,株式会社うちの不動産,,株式会社,千葉県,富里市,七栄６５１番地１０７京ハイツ１０５,,12,233,2860221,,,,,,,2023-03-10,1,,,,,ウチノフドウサン,0
1829,8040001127459,新規,0,2023-03-10,2023-03-10,株式会社スキップ,,株式会社,千葉県,浦安市,明海４丁目２番地１１号望海の街２２０４号室,,12,227,2790014,,,,,,,2023-03-10,1,,,,,スキップ,0
1831,8040003022071,新規,0,2023-03-10,2023-03-10,合同会社スペード,,合同会社,千葉県,千葉市花見川区,作新台５丁目１５番２２号,,12,102,2620045,,,,,,,2023-03-10,1,,,,,スペード,0
1832,8040003022154,新規,0,2023-03-10,2023-03-10,合同会社ワールドマーケティング,,合同会社,千葉県,船橋市,大穴南２丁目３２番６号,,12,204,2740067,,,,,,,2023-03-10,1,,,,,ワールドマーケティング,0
1833,8050001052524,新規,0,2023-03-10,2023-03-10,株式会社石田製作所,,株式会社,茨城県,ひたちなか市,高場４丁目６番地９,,08,221,3120062,,,,,,,2023-03-10,1,,,,,イシダセイサクショ,0
1835,8050005013217,新規,0,2023-03-10,2023-03-10,農事組合法人鈴米,,その他の設立登記法人,茨城県,那珂市,瓜連３３３５番地,,08,226,3192102,,,,,,,2023-03-10,1,,,,,スズマイ,0
1836,8060001035775,新規,0,2023-03-10,2023-03-10,リープグロウス株式会社,,株式会社,栃木県,小山市,東城南１丁目１８番地５城南ハイツＥ棟１０３号,,09,208,3230829,,,,,,,2023-03-10,1,,,,,リープグロウス,0
1838,8070001040205,新規,0,2023-03-10,2023-03-10,株式会社豊受堂,,株式会社,群馬県,伊勢崎市,連取町２３３４番地１０丸善マンション１０３,,10,204,3720812,,,,,,,2023-03-10,1,,,,,トヨウケドウ,0
1839,8070001040221,新規,0,2023-03-10,2023-03-10,株式会社ＭＹＰＬＵＳカンパニー,,株式会社,群馬県,高崎市,貝沢町５９５番地,,10,202,3700042,,,,,,,2023-03-10,1,,,,,マイプラスカンパニー,0
1844,8080401026364,新規,0,2023-03-10,2023-03-10,株式会社ａｒ．,,株式会社,静岡県,浜松市東区,市野町１５７１－３キャレブラン市野Ａ,,22,132,4350051,,,,,,,2023-03-10,1,,,,,アール,0
1845,8090001018018,新規,0,2023-03-10,2023-03-10,Ｎｅｘｔヘルスケア医療コンサルタント株式会社,,株式会社,山梨県,甲斐市,篠原３１１番地９,,19,210,4000115,,,,,,,2023-03-10,1,,,,,ネクストヘルスケアイリョウコンサルタント,0
1847,8100001036216,新規,0,2023-03-10,2023-03-10,株式会社ＭＩＴＳＵＲＵ,,株式会社,長野県,長野市,篠ノ井小松原１７１５番地,,20,201,3812235,,,,,,,2023-03-10,1,,,,,ミツル,0
1848,8100003006919,新規,0,2023-03-10,2023-03-10,Ｍｏｊ＆Ｃｏ合同会社,,合同会社,長野県,北安曇郡白馬村,大字北城４９７９番地２０,,20,485,3999301,,,,,,,2023-03-10,1,,,,,モジアンドコー,0
1849,8110001037361,新規,0,2023-03-10,2023-03-10,株式会社Ｅｖｏｌｖｅ,,株式会社,新潟県,新潟市西区,五十嵐３の町東２０番１号,,15,107,9502173,,,,,,,2023-03-10,1,,,,,,0
1856,8120001253073,新規,0,2023-03-10,2023-03-10,株式会社ビジネス・ワーク,,株式会社,大阪府,大阪市生野区,巽北１丁目２１番２９号７Ｆ,,27,116,5440004,,,,,,,2023-03-10,1,,,,,ビジネスワーク,0
1857,8120001253107,新規,0,2023-03-10,2023-03-10,株式会社ＭＭ,,株式会社,大阪府,大阪市北区,曾根崎２丁目１５番３１号,,27,127,5300057,,,,,,,2023-03-10,1,,,,,エムエム,0
1858,8120001253131,新規,0,2023-03-10,2023-03-10,株式会社プライムハンド,,株式会社,大阪府,大阪市浪速区,日本橋４丁目１５－２０－２０４,,27,111,5560005,,,,,,,2023-03-10,1,,,,,プライムハンド,0
1867,8120101067118,新規,0,2023-03-10,2023-03-10,株式会社ありがとう３５８,,株式会社,大阪府,大阪狭山市,西山台１丁目１２番６号,,27,231,5890022,,,,,,,2023-03-10,1,,,,,アリガトウサンゴーハチ,0
1876,8130005016715,新規,0,2023-03-10,2023-03-10,一般財団法人令和文化蔵,,その他の設立登記法人,京都府,京都市左京区,南禅寺北ノ坊町１０番地２,,26,103,6068446,,,,,,,2023-03-10,1,,,,,レイワブンカグラ,0
1887,8140001129362,新規,0,2023-03-10,2023-03-10,株式会社ＴＳプランニング,,株式会社,兵庫県,三田市,屋敷町１１番１０号,,28,219,6691532,,,,,,,2023-03-10,1,,,,,ティーエスプランニング,0
1888,8140001129404,新規,0,2023-03-10,2023-03-10,株式会社ＭＡＴ,,株式会社,兵庫県,神戸市兵庫区,本町２丁目１番２５号－１０４,,28,105,6520834,,,,,,,2023-03-10,1,,,,,エムエーティー,0
1889,8140001129412,新規,0,2023-03-10,2023-03-10,株式会社心葉建総,,株式会社,兵庫県,宝塚市,鹿塩１丁目１番１０－６号,,28,214,6650054,,,,,,,2023-03-10,1,,,,,シンヨウケンソウ,0
1890,8140001129429,新規,0,2023-03-10,2023-03-10,株式会社グランディングノース,,株式会社,兵庫県,尼崎市,大庄北１丁目１４番６０－１０９号,,28,202,6600063,,,,,,,2023-03-10,1,,,,,グランディングノース,0
1898,8180001155330,新規,0,2023-03-10,2023-03-10,株式会社ｃｏｕｔｕｒｉｅｒｅ,,株式会社,愛知県,名古屋市瑞穂区,駒場町７丁目２番地８Ｌａｖｅｒｉｔｅ３０１,,23,108,4670807,,,,,,,2023-03-10,1,,,,,クチュリエール,0
1899,8180001155347,新規,0,2023-03-10,2023-03-10,株式会社縁,,株式会社,愛知県,稲沢市,祖父江町二俣川端１８２５番の４,,23,220,4950013,,,,,,,2023-03-10,1,,,,,エニシ,0
1902,8190001030210,新規,0,2023-03-10,2023-03-10,株式会社みらいストーリー,,株式会社,三重県,鈴鹿市,神戸地子町２７６番２号,,24,207,5130801,,,,,,,2023-03-10,1,,,,,ミライストーリー,0
1907,8220003003466,新規,0,2023-03-10,2023-03-10,金沢トラストキャピタル合同会社,,合同会社,石川県,金沢市,鞍月５丁目１８１番地,,17,201,9208203,,,,,,,2023-03-10,1,,,,,カナザワトラストキャピタル,0
1912,8260001037727,新規,0,2023-03-10,2023-03-10,株式会社あい・ＬＡＢＯ,,株式会社,岡山県,岡山市北区,中央町２番１０号,,33,101,7000836,,,,,,,2023-03-10,1,,,,,アイラボ,0
1918,8290001100861,新規,0,2023-03-10,2023-03-10,株式会社ＳＵＫＥＴＴＯ３,,株式会社,福岡県,久留米市,通外町７９－１３,,40,203,8300005,,,,,,,2023-03-10,1,,,,,スケットサン,0
1919,8290001100878,新規,0,2023-03-10,2023-03-10,株式会社コウセイ地所,,株式会社,福岡県,福岡市中央区,赤坂２丁目２番９号ＡＲＫ赤坂４０３号室,,40,133,8100042,,,,,,,2023-03-10,1,,,,,コウセイジショ,0
1922,8330001030633,新規,0,2023-03-10,2023-03-10,株式会社Ａｒｋａｄｉａ,,株式会社,熊本県,熊本市中央区,下通１丁目１２－２７ＣＯＲＥ２１下通ビル５Ｆ,,43,101,8600807,,,,,,,2023-03-10,1,,,,,アルカディア,0
1925,8340001025418,新規,0,2023-03-10,2023-03-10,株式会社丸解,,株式会社,鹿児島県,鹿児島市,五ヶ別府町３３３４番地,,46,201,8910101,,,,,,,2023-03-10,1,,,,,マルカイ,0
1926,8340001025426,新規,0,2023-03-10,2023-03-10,Ｍｕｚｅ　Ｐｌａｎｔｓ株式会社,,株式会社,鹿児島県,鹿屋市,今坂町１００９８番地３,,46,203,8930057,,,,,,,2023-03-10,1,,,,,ムゼプランツ,0
1929,8350001018230,新規,0,2023-03-10,2023-03-10,串間ナチュラルホースパワー株式会社,,株式会社,宮崎県,串間市,大字串間１２５０番地１,,45,207,8880004,,,,,,,2023-03-10,1,,,,,クシマナチュラルホースパワー,0
1931,8360001031653,新規,0,2023-03-10,2023-03-10,株式会社トラストワーク,,株式会社,沖縄県,那覇市,長田２丁目１３番８号,,47,201,9020077,,,,,,,2023-03-10,1,,,,,トラストワーク,0
1932,8360001031686,新規,0,2023-03-10,2023-03-10,株式会社ＫＭＧ,,株式会社,沖縄県,那覇市,字安里３６７－５我謝ビル２階,,47,201,9020067,,,,,,,2023-03-10,1,,,,,ケーエムジー,0
1940,8390001017187,新規,0,2023-03-10,2023-03-10,株式会社ダブリュー,,株式会社,山形県,西置賜郡飯豊町,大字中７６３番地１２９,,06,403,9990601,,,,,,,2023-03-10,1,,,,,ダブリュー,0
1951,8430003014806,新規,0,2023-03-10,2023-03-10,合同会社エステイ,,合同会社,北海道,札幌市北区,あいの里四条５丁目２９番１号,,01,102,0028074,,,,,,,2023-03-10,1,,,,,エステイ,0
1952,8430003014822,新規,0,2023-03-10,2023-03-10,Ｍｅｄｅｒｕ合同会社,,合同会社,北海道,千歳市,花園７丁目３番１号,,01,224,0660028,,,,,,,2023-03-10,1,,,,,メデル,0
1957,8480001012030,新規,0,2023-03-10,2023-03-10,トリマウス株式会社,,株式会社,徳島県,徳島市,南田宮２丁目１－１５３－１,,36,201,7700004,,,,,,,2023-03-10,1,,,,,トリマウス,0
1958,8500001024808,新規,0,2023-03-10,2023-03-10,ＳＫＫ株式会社,,株式会社,愛媛県,伊予郡砥部町,上原町２８,,38,402,7912117,,,,,,,2023-03-10,1,,,,,エスケーケー,0
1959,8700150114760,新規,0,2023-03-10,2023-03-10,Ｓｈｅｎｚｈｅｎ　Ｙｕｎｔｏｎｇｄａ　Ｉｎｆｏｒｍａｔｉｏｎ　Ｔｅｃｈｎｏｌｏｇｙ　Ｓｅｒｖｉｃｅ　Ｃｏ．，Ｌｔｄ．,,外国会社等,,,,,,,,ＳｈｅｎＺｈｅｎＳｈｉＱｉａｎＨａｉＳｈｅｎＧａｎｇＨｅＺｕｏＱｕ　ＱｉａｎＷａｎＹｉＬｕＹｉＨａｏＡＤｏｎｇ２０１Ｓｈｉ　ＳｈｅｎＺｈｅｎＳｈｉ　ＧｕａｎｇＤｏｎｇＳｈｅｎｇ　Ｃｈｉｎａ　５１８０００,,,,,,2023-03-10,1,,,,,シェンジェンイントンダーシンシージーシューフーウーヨウシエンゴンスー,0
1960,8700150114769,新規,0,2023-03-10,2023-03-10,ＬｏｎｇＹａｎＳｈｉＭｉｎｇＸｉｎＤｉａｎＺｉＳｈａｎｇＷｕＹｏｕＸｉａｎＧｏｎｇＳｉ,,外国会社等,,,,,,,,Ｘｉｎｌｕｏ　Ｄｉｓ．，Ｘｉｐｉ　Ｓｔｒｅｅｔ，Ｘｉａｏｙａｎｇ　Ｖｉｌｌａｇｅ　Ｘｉｎｍｉｎ　Ｒｏａｄ，Ｎｏ．１４３，Ｒｏｏｍ　２０２　Ｌｏｎｇｙａｎ　Ｆｕｊｉａｎ　ＣＮ　３６４０００,,,,,,2023-03-10,1,,,,,ロンイエンシーミンシンディエンズーシャンウーヨウシエンゴンスー,0
1966,9010001233424,新規,0,2023-03-10,2023-03-10,ケアワークリエゾン株式会社,,株式会社,東京都,中央区,日本橋蛎殻町１丁目３６番９－１００５号,,13,102,1030014,,,,,,,2023-03-10,1,,,,,ケアワークリエゾン,0
1967,9010001233580,新規,0,2023-03-10,2023-03-10,Ｎｅｗ　Ｅｎｅｒｇｙ　Ｊａｐａｎ株式会社,,株式会社,東京都,千代田区,丸の内３丁目２－２,,13,101,1000005,,,,,,,2023-03-10,1,,,,,ニューエナジージャパン,0
1968,9010001233597,新規,0,2023-03-10,2023-03-10,石榴株式会社,,株式会社,東京都,中央区,日本橋小舟町１２番９号,,13,102,1030024,,,,,,,2023-03-10,1,,,,,セキリュウ,0
1972,9010003040026,新規,0,2023-03-10,2023-03-10,ティラミスシステム合同会社,,合同会社,東京都,中央区,銀座１丁目１２－４Ｎ＆ＥＢＬＤ．７階,,13,102,1040061,,,,,,,2023-03-10,1,,,,,ティラミスシステム,0
1977,9010103002099,新規,0,2023-03-10,2023-03-10,スペインチュロスの伝道師‐チュロ伝合同会社,,合同会社,東京都,八王子市,城山手１丁目５－６,,13,201,1930825,,,,,,,2023-03-10,1,,,,,スペインチュロスノデンドウシチュロデン,0
1978,9010105002205,新規,0,2023-03-10,2023-03-10,一般社団法人ＣＨＥＥＲＦＵＬ,,その他の設立登記法人,東京都,八王子市,元横山町３丁目１２番２７号,,13,201,1920063,,,,,,,2023-03-10,1,,,,,チアフル,0
1985,9010401172949,新規,0,2023-03-10,2023-03-10,株式会社Ｊｅｍｍａ,,株式会社,東京都,港区,六本木４丁目５－１１,,13,103,1060032,,,,,,,2023-03-10,1,,,,,ジェマ,0
1986,9010401172957,新規,0,2023-03-10,2023-03-10,株式会社グローバルアミューズ,,株式会社,東京都,港区,六本木３丁目１６番３５号イースト六本木７０４,,13,103,1060032,,,,,,,2023-03-10,1,,,,,グローバルアミューズ,0
1987,9010401172973,新規,0,2023-03-10,2023-03-10,Ｓｉｄｅ　Ｗｉｔｈ株式会社,,株式会社,東京都,港区,芝５丁目３６番４号札の辻スクエア９階,,13,103,1080014,,,,,,,2023-03-10,1,,,,,サイドウィズ,0
1988,9010401172998,新規,0,2023-03-10,2023-03-10,ＲｅａｌｔｙＢａｎｋ株式会社,,株式会社,東京都,港区,南青山３丁目１番３６号青山丸竹ビル６Ｆ,,13,103,1070062,,,,,,,2023-03-10,1,,,,,リアルティバンク,0
1990,9010405021895,新規,0,2023-03-10,2023-03-10,医療法人社団桜麗会,,その他の設立登記法人,東京都,港区,赤坂５丁目４番６号赤坂三辻ビル５階,,13,103,1070052,,,,,,,2023-03-10,1,,,,,オウレイカイ,0
1992,9010601062727,新規,0,2023-03-10,2023-03-10,株式会社Ｖｅｇｅａｔ,,株式会社,東京都,墨田区,東向島２丁目３１－１５田澤第二ビル１Ｆ,,13,107,1310032,,,,,,,2023-03-10,1,,,,,ベジート,0
1996,9010703006623,新規,0,2023-03-10,2023-03-10,合同会社ＣＨＡＴＡＮＩ,,合同会社,東京都,品川区,西五反田３丁目１６―１ベルファース目黒１４０３,,13,109,1410031,,,,,,,2023-03-10,1,,,,,チャタニ,0
1997,9010801033767,新規,0,2023-03-10,2023-03-10,アーバー商事株式会社,,株式会社,東京都,大田区,田園調布１丁目４４番１４号,,13,111,1450071,,,,,,,2023-03-10,1,,,,,アーバーショウジ,0
2004,9011001153026,新規,0,2023-03-10,2023-03-10,モノリスコンサルティンググループ株式会社,,株式会社,東京都,目黒区,下目黒１丁目８番１号アルコタワー７階,,13,110,1530064,,,,,,,2023-03-10,1,,,,,モノリスコンサルティンググループ,0
2006,9011101102097,新規,0,2023-03-10,2023-03-10,株式会社ＳＵＮＮＹ,,株式会社,東京都,新宿区,西新宿３丁目３番１３号西新宿水間ビル６階,,13,104,1600023,,,,,,,2023-03-10,1,,,,,サニー,0
2008,9011201024489,新規,0,2023-03-10,2023-03-10,株式会社ＴＭコンサルティング,,株式会社,東京都,中野区,東中野４丁目１６番１９号,,13,114,1640003,,,,,,,2023-03-10,1,,,,,ティーエムコンサルティング,0
2011,9011401024966,新規,0,2023-03-10,2023-03-10,株式会社ガラクシス,,株式会社,東京都,板橋区,仲宿１４番１号,,13,119,1730005,,,,,,,2023-03-10,1,,,,,ガラクシス,0
2017,9011801042056,新規,0,2023-03-10,2023-03-10,株式会社ＹＴＳ,,株式会社,東京都,足立区,佐野２丁目５番５号,,13,121,1210053,,,,,,,2023-03-10,1,,,,,ワイティーエス,0
2018,9012301013340,新規,0,2023-03-10,2023-03-10,Ｓｕｎ　Ａｓｔｅｒｉｓｋ株式会社,,株式会社,東京都,町田市,本町田３３１７番地２ハーベスト参番館１０１,,13,209,1940032,,,,,,,2023-03-10,1,,,,,サンアスタリスク,0
2035,9020001150560,新規,0,2023-03-10,2023-03-10,Ａｎｄａ株式会社,,株式会社,神奈川県,横浜市鶴見区,東寺尾１丁目３０番４０－４１０号,,14,101,2300077,,,,,,,2023-03-10,1,,,,,アンダ,0
2036,9020001150585,新規,0,2023-03-10,2023-03-10,株式会社Ｋコーポレーション,,株式会社,神奈川県,横浜市緑区,台村町１０８番地－２０５号室,,14,113,2260014,,,,,,,2023-03-10,1,,,,,ケーコーポレーション,0
2037,9020001150593,新規,0,2023-03-10,2023-03-10,三和通達株式会社,,株式会社,神奈川県,川崎市川崎区,貝塚１丁目３番１７号シャンボール第２川崎３０１号室,,14,131,2100014,,,,,,,2023-03-10,1,,,,,サンワツウタツ,0
2038,9020001150602,新規,0,2023-03-10,2023-03-10,株式会社シンセリティーエレベーターサポート,,株式会社,神奈川県,横浜市港南区,港南台５丁目２２番８－２号,,14,111,2340054,,,,,,,2023-03-10,1,,,,,シンセリティーエレベーターサポート,0
2039,9020001150610,新規,0,2023-03-10,2023-03-10,株式会社ＫＭリフォーム,,株式会社,神奈川県,横浜市青葉区,さつきが丘１７番４７号,,14,117,2270053,,,,,,,2023-03-10,1,,,,,ケイエムリフォーム,0
2040,9020001150619,新規,0,2023-03-10,2023-03-10,株式会社スキマデザインラボ,,株式会社,神奈川県,横浜市中区,元町１丁目５５番地,,14,104,2310861,,,,,,,2023-03-10,1,,,,,スキマデザインラボ,0
2041,9020001150635,新規,0,2023-03-10,2023-03-10,旺海国際株式会社,,株式会社,神奈川県,川崎市川崎区,砂子１丁目５－８第一諏訪ビル２０２号室,,14,131,2100006,,,,,,,2023-03-10,1,,,,,ワンハイコクサイ,0
2043,9020003023483,新規,0,2023-03-10,2023-03-10,合同会社裕工業,,合同会社,神奈川県,川崎市川崎区,中島２丁目１０番３号,,14,131,2100806,,,,,,,2023-03-10,1,,,,,ユウコウギョウ,0
2046,9021001078395,新規,0,2023-03-10,2023-03-10,株式会社Ｂｅｅ,,株式会社,神奈川県,平塚市,花水台１２番４－３号,,14,203,2540824,,,,,,,2023-03-10,1,,,,,ビー,0
2054,9030001152812,新規,0,2023-03-10,2023-03-10,株式会社ＬＤ９,,株式会社,埼玉県,さいたま市大宮区,仲町２丁目２５番地,,11,103,3300845,,,,,,,2023-03-10,1,,,,,エルディーナイン,0
2061,9030005021162,新規,0,2023-03-10,2023-03-10,特定非営利活動法人テニスプロデュース,,その他の設立登記法人,埼玉県,久喜市,桜田３丁目３番６－３０４,,11,232,3400203,,,,,,,2023-03-10,1,,,,,テニスプロデュース,0
2063,9040001127425,新規,0,2023-03-10,2023-03-10,株式会社２０２３,,株式会社,千葉県,東金市,東新宿８番地１７グリーンビル１Ｆ,,12,213,2830006,,,,,,,2023-03-10,1,,,,,ニマルニサン,0
2064,9040001127441,新規,0,2023-03-10,2023-03-10,株式会社スリーブ,,株式会社,千葉県,袖ケ浦市,下宮田１５８番地,,12,229,2990223,,,,,,,2023-03-10,1,,,,,スリーブ,0
2068,9040003022120,新規,0,2023-03-10,2023-03-10,ＩＮＳＡＦ　ＮＩＰＰＯＮ合同会社,,合同会社,千葉県,松戸市,小金清志町２丁目４０番地の４プロフィーＶ２０５号,,12,207,2700016,,,,,,,2023-03-10,1,,,,,インサフニッポン,0
2073,9050001052507,新規,0,2023-03-10,2023-03-10,中久木興業株式会社,,株式会社,茨城県,つくば市,沼田９３５番地６,,08,220,3004353,,,,,,,2023-03-10,1,,,,,ナカクキコウギョウ,0
2074,9050001052515,新規,0,2023-03-10,2023-03-10,株式会社Ｃ‐Ｆｉｒｓｔ,,株式会社,茨城県,龍ケ崎市,佐貫１丁目１０番地１１成城ビル３－Ｂ,,08,208,3010032,,,,,,,2023-03-10,1,,,,,シーファースト,0
2075,9050001052523,新規,0,2023-03-10,2023-03-10,Ｓｈｉｎｏｓｏｕ株式会社,,株式会社,茨城県,水戸市,元吉田町３２０４番地の４,,08,201,3100836,,,,,,,2023-03-10,1,,,,,シノソウ,0
2088,9090001018017,新規,0,2023-03-10,2023-03-10,ＭＯＲＰＨＯ　ＢＬＵＥ　ＤＩＡＭＯＮＤＥ株式会社,,株式会社,山梨県,甲府市,下小河原町３１６番地１ドエリング２０７号室,,19,201,4000853,,,,,,,2023-03-10,1,,,,,モルフォブルーダイヤモンド,0
2091,9100003006918,新規,0,2023-03-10,2023-03-10,ニチゲツ農園合同会社,,合同会社,長野県,松本市,蟻ケ崎１丁目１番２５号,,20,202,3900861,,,,,,,2023-03-10,1,,,,,ニチゲツノウエン,0
2093,9110001037360,新規,0,2023-03-10,2023-03-10,株式会社小林金型製作所,,株式会社,新潟県,三条市,一ツ屋敷新田２７８番地１,,15,204,9591152,,,,,,,2023-03-10,1,,,,,コバヤシカナガタセイサクジョ,0
2095,9110003005002,新規,0,2023-03-10,2023-03-10,合同会社藤,,合同会社,新潟県,北蒲原郡聖籠町,大字次第浜３５５７番地１,,15,307,9570105,,,,,,,2023-03-10,1,,,,,フジ,0
2106,9120001253064,新規,0,2023-03-10,2023-03-10,ヒロシン株式会社,,株式会社,大阪府,大阪市城東区,成育３丁目５番７号,,27,118,5360007,,,,,,,2023-03-10,1,,,,,ヒロシン,0
2107,9120001253072,新規,0,2023-03-10,2023-03-10,卓越株式会社,,株式会社,大阪府,大阪市港区,市岡元町２丁目６番１１号,,27,107,5520002,,,,,,,2023-03-10,1,,,,,タクエツ,0
2108,9120001253089,新規,0,2023-03-10,2023-03-10,株式会社土要羅,,株式会社,大阪府,大阪市淀川区,塚本２丁目２９番１号,,27,123,5320026,,,,,,,2023-03-10,1,,,,,トヨラ,0
2109,9120001253106,新規,0,2023-03-10,2023-03-10,株式会社ハイエストライフ,,株式会社,大阪府,大阪市大正区,三軒家東４丁目３番５号,,27,108,5510002,,,,,,,2023-03-10,1,,,,,ハイエストライフ,0
2110,9120001253122,新規,0,2023-03-10,2023-03-10,株式会社ワンフォース,,株式会社,大阪府,大阪市中央区,南船場２丁目１１番９－４１７号,,27,128,5420081,,,,,,,2023-03-10,1,,,,,ワンフォース,0
2113,9120003023580,新規,0,2023-03-10,2023-03-10,合同会社ｏｇａｗａａ　ｄｅｓｉｇｎ　ｓｔｕｄｉｏ,,合同会社,大阪府,大阪市西区,京町堀２丁目１３番１号ギャラリー京町堀ビルディング３１１号室,,27,106,5500003,,,,,,,2023-03-10,1,,,,,オガワデザインスタジオ,0
2116,9120101067117,新規,0,2023-03-10,2023-03-10,株式会社よつば,,株式会社,大阪府,松原市,河合２丁目５番１１号,,27,217,5800022,,,,,,,2023-03-10,1,,,,,ヨツバ,0
2117,9120101067125,新規,0,2023-03-10,2023-03-10,株式会社Ｒｅｖｙ　Ｃｒｅａｔｉｏｎ,,株式会社,大阪府,堺市堺区,三国ヶ丘御幸通１０－１三幸ビル５階,,27,141,5900028,,,,,,,2023-03-10,1,,,,,レヴィクリエイション,0
2121,9120905006443,新規,0,2023-03-10,2023-03-10,一般社団法人いしばしコモンズ,,その他の設立登記法人,大阪府,箕面市,瀬川２丁目５－１４－４０１,,27,220,5620045,,,,,,,2023-03-10,1,,,,,イシバシコモンズ,0
2126,9130003008572,新規,0,2023-03-10,2023-03-10,合同会社長田商店,,合同会社,京都府,京都市中京区,烏丸通三条東入ル梅忠町２４番地三条ＣＯＨＪＵビル４階,,26,104,6040000,,,,,,,2023-03-10,1,,,,,オサダショウテン,0
2127,9130005016714,新規,0,2023-03-10,2023-03-10,グラン・フェルティくずはサンクコート管理組合法人,,その他の設立登記法人,京都府,八幡市,八幡月夜田７番地の１,,26,210,6148047,,,,,,,2023-03-10,1,,,,,グランフェルティクズハサンクコート,0
2131,9140001129403,新規,0,2023-03-10,2023-03-10,株式会社上陽テック,,株式会社,兵庫県,加古郡稲美町,国安２丁目５１番地,,28,381,6751114,,,,,,,2023-03-10,1,,,,,ジョウヨウテック,0
2132,9140001129411,新規,0,2023-03-10,2023-03-10,加古川食肉販売株式会社,,株式会社,兵庫県,加古川市,志方町志方町５３３番地加古川食肉センター内,,28,210,6750321,,,,,,,2023-03-10,1,,,,,カコガワショクニクハンバイ,0
2133,9140003018819,新規,0,2023-03-10,2023-03-10,合同会社ＨＲ,,合同会社,兵庫県,加古川市,野口町長砂２２７番地の５,,28,210,6750016,,,,,,,2023-03-10,1,,,,,エイチアール,0
2135,9160001024890,新規,0,2023-03-10,2023-03-10,株式会社ケイプロジェクト,,株式会社,滋賀県,大津市,一里山５丁目７番９号タイムライトシティＡ棟１０３号室,,25,201,5202153,,,,,,,2023-03-10,1,,,,,ケイプロジェクト,0
2142,9180001155338,新規,0,2023-03-10,2023-03-10,株式会社エムアールビアッジオ,,株式会社,愛知県,名古屋市中村区,名駅４丁目２４番５号第２森ビル４０１,,23,105,4500002,,,,,,,2023-03-10,1,,,,,エムアールビアッジオ,0
2145,9180003024945,新規,0,2023-03-10,2023-03-10,合同会社ＪＯＹＣＬＥ,,合同会社,愛知県,名古屋市中村区,平池町４丁目６０番地の１２,,23,105,4530872,,,,,,,2023-03-10,1,,,,,ジョイクル,0
2146,9180003024961,新規,0,2023-03-10,2023-03-10,合同会社Ｓｅｅｋｅｒ,,合同会社,愛知県,名古屋市中川区,外新町１丁目２１番地,,23,110,4540053,,,,,,,2023-03-10,1,,,,,シーカー,0
2148,9190005011800,新規,0,2023-03-10,2023-03-10,医療法人レナクス,,その他の設立登記法人,三重県,鈴鹿市,高岡台２丁目１番８号,,24,207,5130019,,,,,,,2023-03-10,1,,,,,レナクス,0
2153,9220001025305,新規,0,2023-03-10,2023-03-10,株式会社コムサイト,,株式会社,石川県,七尾市,赤浦町１１部３番地３,,17,202,9260843,,,,,,,2023-03-10,1,,,,,コムサイト,0
2155,9220003003465,新規,0,2023-03-10,2023-03-10,合同会社ＫＯＧＥＬＥＭＯＮ,,合同会社,石川県,金沢市,粟崎町１丁目８６番地１５,,17,201,9200226,,,,,,,2023-03-10,1,,,,,コゲレモン,0
2156,9230001019743,新規,0,2023-03-10,2023-03-10,ＣＢＤ　Ｐｈａｒｍａ　Ｊａｐａｎ株式会社,,株式会社,富山県,富山市,桜橋通り３番１号富山電気ビルディング本館２階,,16,201,9300004,,,,,,,2023-03-10,1,,,,,シービーディーファーマジャパン,0
2158,9240001061199,新規,0,2023-03-10,2023-03-10,株式会社エバティー,,株式会社,広島県,広島市中区,江波本町６番６－２０２号,,34,101,7300833,,,,,,,2023-03-10,1,,,,,エバティー,0
2160,9260003004229,新規,0,2023-03-10,2023-03-10,合同会社ＩＮＦＩＮＩＴＹ,,合同会社,岡山県,倉敷市,玉島柏島５６０９番地,,33,202,7138123,,,,,,,2023-03-10,1,,,,,インフィニティ,0
2165,9290001100844,新規,0,2023-03-10,2023-03-10,株式会社Ｌ’ＥＣＬＡＩＲ,,株式会社,福岡県,久留米市,国分町１５１９番地,,40,203,8390863,,,,,,,2023-03-10,1,,,,,レクレール,0
2175,9330003009757,新規,0,2023-03-10,2023-03-10,合同会社ネクストエッジ,,合同会社,熊本県,熊本市東区,江津３丁目３番５１号リベルテＩＩＩＡ号室,00129724,43,102,8620942,,,,,,,2023-03-10,1,,,,,ネクストエッジ,0
2185,9380003005405,新規,0,2023-03-10,2023-03-10,合同会社Ｇ‐ＬＡＮＤ,,合同会社,福島県,須賀川市,前川５５番地１ヴィラぶどうの木Ｂ－１０１号,,07,207,9620853,,,,,,,2023-03-10,1,,,,,ジーランド,0
2188,9390001017178,新規,0,2023-03-10,2023-03-10,ＪＣホールディングス株式会社,,株式会社,山形県,尾花沢市,大字芦沢７７５番地１,,06,212,9994554,,,,,,,2023-03-10,1,,,,,ジェイシーホールディングス,0
2189,9390003002062,新規,0,2023-03-10,2023-03-10,合同会社ＦＩＴ,,合同会社,山形県,南陽市,椚塚１９４１番地,,06,213,9992221,,,,,,,2023-03-10,1,,,,,エフアイティー,0
2192,9410001013422,新規,0,2023-03-10,2023-03-10,ＳＯＭＡＡ株式会社,,株式会社,秋田県,秋田市,手形田中９番１６号,,05,201,0100862,,,,,,,2023-03-10,1,,,,,ソマー,0
2198,9430001088594,新規,0,2023-03-10,2023-03-10,株式会社ＮＵＭＢＥＲ　ＴＨＲＥＥ,,株式会社,北海道,札幌市中央区,南四条西６丁目８番地晴ばれビル９階,,01,101,0640804,,,,,,,2023-03-10,1,,,,,ナンバースリー,0
2201,9460103001519,新規,0,2023-03-10,2023-03-10,ＥＧｌｉｆｅ合同会社,,合同会社,北海道,河西郡芽室町,新生１０線１２番地１３,,01,637,0820071,,,,,,,2023-03-10,1,,,,,イージーライフ,0
2203,9500001024807,新規,0,2023-03-10,2023-03-10,ＮＥＯ　ＳＹＳＴＥＭ株式会社,,株式会社,愛媛県,松山市,山越２丁目２番３２号,,38,201,7918013,,,,,,,2023-03-10,1,,,,,ネオシステム,0
2206,9700150114743,新規,0,2023-03-10,2023-03-10,山手プロパティ株式会社,,外国会社等,神奈川県,横浜市中区,山手町１５２番７,,14,104,2310862,Ｃｒａｉｇｍｕｉｒ　Ｃｈａｍｂｅｒｓ，Ｒｏａｄ　Ｔｏｗｎ，Ｔｏｒｔｏｌａ，ＶＧ１１１０，Ｂｒｉｔｉｓｈ　Ｖｉｒｇｉｎ　Ｉｓｌａｎｄｓ,,,,,,2023-03-10,1,,,,,ヤマテプロパテイカブシキガイシヤ,0
2207,9700150114768,新規,0,2023-03-10,2023-03-10,ｇｕａｎｇｚｈｏｕｓｈｉｚｈｅｎｄａｄｉａｎｚｉｓｈａｎｇｗｕｙｏｕｘｉａｎｇｏｎｇｓｉ,,外国会社等,,,,,,,,Ｒｏｏｍ　Ｄ１１５７，Ｒｏｏｍ　１００２，Ｎｏ．８０，Ｙｏｎｇｔａｉ　Ｍｏｄａｏ　Ｓｏｕｔｈ　Ｓｔｒｅｅｔ．Ｙｏｎｇｐｉｎｇ　Ｓｔｒｅｅｔ，Ｂａｉｙｕｎ　Ｄｉｓｔｒｉｃｔ，Ｇｕａｎｇｚｈｏｕ,,,,,,2023-03-10,1,,,,,グワンジョウシージェンダーディエンズーシャンウーヨウシエンゴンスー,0
