sequenceNumber,corporateNumber,process,correct,updateDate,changeDate,name,nameImageId,kind,prefectureName,cityName,streetNumber,addressImageId,prefectureCode,cityCode,postCode,addressOutside,addressOutsideImageId,closeDate,closeCause,successorCorporateNumber,changeCause,assignmentDate,latest,enName,enPrefectureName,enCityName,enAddressOutside,furigana,hihyoji
10,1010003024639,登記記録の閉鎖等,0,2024-05-29,2024-05-17,合同会社ラケル名北レジデンス,,合同会社,東京都,千代田区,霞が関３丁目２番５号,,13,101,1000013,,,2024-05-17,清算の結了等,,,2017-01-11,1,,,,,ラケルメイホクレジデンス,0
11,1010003032708,登記記録の閉鎖等,0,2024-05-29,2024-05-16,合同会社Ｔ＆Ｙ,,合同会社,東京都,千代田区,内神田３丁目１９番７号神田北口駅前ビル５階東側,,13,101,1010047,,,2024-05-16,清算の結了等,,,2020-07-31,1,,,,,ティーアンドワイ,0
24,1010401098945,登記記録の閉鎖等,0,2024-05-29,2024-05-13,株式会社イプシロン・スクエアード,,株式会社,東京都,港区,新橋６丁目５番４－２１９号,,13,103,1050004,,,2024-05-13,清算の結了等,,,2015-10-05,1,,,,,イプシロンスクエアード,0
26,1010401152306,登記記録の閉鎖等,0,2024-05-29,2024-05-14,ブロードソリューション株式会社,,株式会社,東京都,港区,赤坂１丁目５番２号,,13,103,1070052,,,2024-05-14,清算の結了等,,,2020-04-14,1,,,,,ブロードソリューション,0
33,1010601057965,登記記録の閉鎖等,0,2024-05-29,2024-05-24,和鼎商事株式会社,,株式会社,東京都,墨田区,江東橋２丁目６－６,,13,107,1300022,,,2024-05-24,合併による解散等,4010401175270,令和６年５月１日東京都港区赤坂２－５－８ヒューリックＪＰ赤坂ビル３ＦＬＩＧＨＴＴＥＣＨ　ＪＡＰＡＮ株式会社（4010401175270）に合併し解散,2020-09-29,1,,,,,ワテイショウジ,0
46,1011001152811,登記記録の閉鎖等,0,2024-05-29,2024-04-01,株式会社ＣＡリスキリングパートナーズ,,株式会社,東京都,渋谷区,渋谷２丁目２４番１２号,,13,113,1500002,,,2024-04-01,合併による解散等,1011001129776,令和６年４月１日東京都渋谷区渋谷二丁目２４番１２号株式会社ＡＩ　Ｓｈｉｆｔ（1011001129776）に合併し解散,2023-02-28,1,,,,,シーエーリスキリングパートナーズ,0
63,1011302008811,登記記録の閉鎖等,0,2024-05-29,2024-05-22,有限会社丸善タイル工業所,,有限会社,東京都,杉並区,堀ノ内１丁目１５番３２号,,13,115,1660013,,,2024-05-22,清算の結了等,,,2015-10-05,1,,,,,マルゼンタイルコウギョウショ,0
98,1030001108375,登記記録の閉鎖等,0,2024-05-29,2024-05-23,株式会社都市開発コンサルタンツ,,株式会社,埼玉県,桶川市,大字川田谷２２１番地の８,,11,231,3630027,,,2024-05-23,清算の結了等,,,2015-10-05,1,,,,,トシカイハツコンサルタンツ,0
102,1030002062357,登記記録の閉鎖等,0,2024-05-29,2024-05-24,有限会社毎日土地住宅社,,有限会社,埼玉県,新座市,栄３丁目３番１８号,,11,230,3520014,,,2024-05-24,清算の結了等,,,2015-10-05,1,,,,,マイチニトチジュウタクシャ,0
104,1040001032707,登記記録の閉鎖等,0,2024-05-29,2024-05-27,株式会社新米屋,,株式会社,東京都,墨田区,東向島６丁目５１番１７号,,13,107,1310032,,,2024-05-27,清算の結了等,,,2015-10-05,1,,,,,シンゴメヤ,0
110,1040002048347,登記記録の閉鎖等,0,2024-05-29,2024-05-20,有限会社藤平架設,,有限会社,千葉県,松戸市,紙敷４７４番,,12,207,2702221,,,2024-05-20,清算の結了等,,,2015-10-05,1,,,,,フジヒラカセツ,0
123,1060003003340,登記記録の閉鎖等,0,2024-05-29,2024-05-24,合同会社真輝興業,,合同会社,栃木県,鹿沼市,花岡町１７２番地１ラフィーネＩ・ＩＩＩＩ号室,00121532,09,205,3220049,,,2024-05-24,清算の結了等,,,2020-04-14,1,,,,,シンキコウギョウ,0
128,1080402004094,登記記録の閉鎖等,0,2024-05-29,2024-05-27,有限会社鈴実,,有限会社,静岡県,浜松市中央区,上石田町３０２番地,,22,138,4350001,,,2024-05-27,清算の結了等,,,2015-10-05,1,,,,,スズミ,0
137,1100003004879,登記記録の閉鎖等,0,2024-05-29,2024-05-07,合同会社イツミフード,,合同会社,長野県,茅野市,宮川３８４６番地１５,,20,214,3910013,,,2024-05-07,清算の結了等,,,2018-02-02,1,,,,,イツミフード,0
147,1120001073560,登記記録の閉鎖等,0,2024-05-29,2024-05-21,朝日プラスチック株式会社,,株式会社,大阪府,大阪市中央区,平野町４丁目６番１６号,,27,128,5410046,,,2024-05-21,清算の結了等,,,2015-10-05,1,,,,,アサヒプラスチック,0
149,1120001205312,登記記録の閉鎖等,0,2024-05-29,2024-05-27,ｅｃｏ株式会社,,株式会社,大阪府,大阪市北区,長柄西２丁目９番１９号,,27,127,5310061,,,2024-05-27,清算の結了等,,,2017-05-02,1,,,,,エコ,0
162,1120105007489,登記記録の閉鎖等,0,2024-05-29,2024-05-24,特定非営利活動法人ドゥー,,その他の設立登記法人,大阪府,岸和田市,松風町２３番１４号,,27,202,5960021,,,2024-05-24,清算の結了等,,,2015-10-05,1,,,,,ドゥー,0
177,1140003011921,登記記録の閉鎖等,0,2024-05-29,2024-04-15,合同会社丸善,,合同会社,滋賀県,愛知郡愛荘町,長野２１１３番地１ハイブリッジハイツ１２０３号,,25,425,5291303,,,2024-04-15,清算の結了等,,,2017-02-10,1,,,,,マルゼン,0
185,1170003001226,登記記録の閉鎖等,0,2024-05-29,2024-05-28,合同会社ダン,,合同会社,和歌山県,新宮市,田鶴原町１丁目２番９号,,30,207,6470031,,,2024-05-28,清算の結了等,,,2018-04-26,1,,,,,ダン,0
193,1180002004889,登記記録の閉鎖等,0,2024-05-29,2024-05-21,有限会社豊田商店,,有限会社,愛知県,名古屋市天白区,原３丁目１９１１番地,,23,116,4680015,,,2024-05-21,清算の結了等,,,2015-10-05,1,,,,,トヨタショウテン,0
206,1240005008427,登記記録の閉鎖等,0,2024-05-29,2024-03-28,天理教久福分教会,,その他の設立登記法人,広島県,福山市,明治町２番２８号,,34,207,7200807,,,2024-03-28,合併による解散等,2240005008426,令和６年３月２８日広島県福山市古野上町２番４号天理教久松分教会（2240005008426）に合併し解散,2015-10-05,1,,,,,,0
227,1320005002504,登記記録の閉鎖等,0,2024-05-29,2024-05-23,農事組合法人庄内・ひらいし米倶楽部,,その他の設立登記法人,大分県,由布市,庄内町平石７７６番地,,44,213,8795437,,,2024-05-23,清算の結了等,,,2015-10-05,1,,,,,ショウナイヒライシマイラブ,0
256,1460302000221,登記記録の閉鎖等,0,2024-05-29,2024-05-28,有限会社遠藤紙器店,,有限会社,北海道,北見市,北一条東５丁目１２番地の１,,01,208,0900021,,,2024-05-28,清算の結了等,,,2015-10-05,1,,,,,エンドシキテン,0
277,2010401017417,登記記録の閉鎖等,0,2024-05-29,2024-05-23,株式会社珠や,,株式会社,神奈川県,鎌倉市,扇ガ谷２丁目１２番７号,,14,204,2480011,,,2024-05-23,清算の結了等,,,2015-10-05,1,,,,,タマヤ,0
285,2010402006113,登記記録の閉鎖等,0,2024-05-29,2024-05-13,有限会社シーシーシー,,有限会社,東京都,港区,赤坂７丁目６番６９号,,13,103,1070052,,,2024-05-13,清算の結了等,,,2015-10-05,1,,,,,シーシーシー,0
314,2011502014963,登記記録の閉鎖等,0,2024-05-29,2024-05-28,有限会社横尾工務店,,有限会社,東京都,荒川区,町屋４丁目３４番３号,,13,118,1160001,,,2024-05-28,清算の結了等,,,2015-10-05,1,,,,,ヨコオコウムテン,0
322,2012402021240,登記記録の閉鎖等,0,2024-05-29,2024-05-23,有限会社フィットシステム,,有限会社,東京都,武蔵野市,吉祥寺本町４丁目２３番３号,,13,203,1800004,,,2024-05-23,清算の結了等,,,2015-10-05,1,,,,,,0
334,2020001027815,登記記録の閉鎖等,0,2024-05-29,2024-05-22,株式会社利根川屋,,株式会社,神奈川県,横浜市金沢区,富岡東６丁目３０番Ｂ棟１０４,,14,108,2360051,,,2024-05-22,清算の結了等,,,2015-10-05,1,,,,,トネガワヤ,0
344,2021001045807,登記記録の閉鎖等,0,2024-05-29,2024-05-14,ＭｕｊｉｎＣｏ株式会社,,株式会社,東京都,渋谷区,神宮前６丁目２３番４号桑野ビル２階,,13,113,1500001,,,2024-05-14,清算の結了等,,,2015-10-05,1,,,,,ムジンコ,0
354,2040001057414,登記記録の閉鎖等,0,2024-05-29,2024-05-17,株式会社グルッポピエタ,,株式会社,千葉県,山武郡九十九里町,真亀字竜宮前１８０３番,,12,403,2830114,,,2024-05-17,清算の結了等,,,2015-10-05,1,,,,,グルッポピエタ,0
356,2040001067165,登記記録の閉鎖等,0,2024-05-29,2024-05-27,株式会社沼南企画,,株式会社,千葉県,柏市,若白毛５０７番地１０,,12,217,2701444,,,2024-05-27,合併による解散等,9020001006696,令和６年５月１日横浜市旭区鶴ヶ峰本町一丁目２６番１号株式会社ファミリー・ホール（9020001006696）に合併し解散,2015-10-05,1,,,,,ショウナンキカク,0
375,2080002002902,登記記録の閉鎖等,0,2024-05-29,2024-05-23,有限会社杉山プレス工業所,00067421,有限会社,静岡県,静岡市駿河区,向敷地８４５番地,,22,102,4210101,,,2024-05-23,清算の結了等,,,2015-10-05,1,,,,,スギヤマプレスコウギョウジョ,0
376,2080103002090,登記記録の閉鎖等,0,2024-05-29,2024-05-24,合同会社ガウデアムス,,合同会社,静岡県,賀茂郡東伊豆町,大川３１番地の４,,22,301,4130301,,,2024-05-24,清算の結了等,,,2020-01-15,1,,,,,ガウデアムス,0
377,2080103002611,登記記録の閉鎖等,0,2024-05-29,2024-05-24,Ｒ＆Ｐジャパン合同会社,,合同会社,静岡県,三島市,西本町４－１３,,22,206,4110847,,,2024-05-24,清算の結了等,,,2022-06-21,1,,,,,アールアンドピージャパン,0
391,2120001131103,登記記録の閉鎖等,0,2024-05-29,2024-05-21,株式会社エイムアット,,株式会社,大阪府,大阪市大正区,三軒家西１丁目２５番１１号,,27,108,5510001,,,2024-05-21,清算の結了等,,,2015-10-05,1,,,,,エイムアット,0
440,2210002014314,登記記録の閉鎖等,0,2024-05-29,2024-05-24,有限会社車工房フカヤ,,有限会社,福井県,小浜市,南川町１１番１５号,,18,204,9170075,,,2024-05-24,清算の結了等,,,2015-10-05,1,,,,,クルマコウボウフカヤ,0
443,2240002031686,登記記録の閉鎖等,0,2024-05-29,2024-05-27,有限会社活魚まつうら,,有限会社,広島県,庄原市,東城町東城１５７番地,,34,210,7295124,,,2024-05-27,清算の結了等,,,2015-10-05,1,,,,,,0
450,2250001014138,登記記録の閉鎖等,0,2024-05-29,2024-05-27,西日本自助具株式会社,,株式会社,山口県,周南市,城ケ丘５丁目５番２２号,,35,215,7450807,,,2024-05-27,清算の結了等,,,2015-10-05,1,,,,,,0
465,2290003013019,登記記録の閉鎖等,0,2024-05-29,2024-04-26,コアリーチアドバイザリー合同会社,,合同会社,福岡県,福岡市中央区,高砂１丁目１番２５号ニューガイアオフィス天神,,40,133,8100011,,,2024-04-26,清算の結了等,,,2022-10-04,1,,,,,,0
477,2380001004877,登記記録の閉鎖等,0,2024-05-29,2024-05-21,株式会社亀田マイカーセンター,,株式会社,福島県,郡山市,字下亀田２４番地,,07,203,9638032,,,2024-05-21,清算の結了等,,,2015-10-05,1,,,,,カメダマイカーセンター,0
494,2490005005662,登記記録の閉鎖等,0,2024-05-29,2024-05-23,室戸漁業協同組合,,その他の設立登記法人,高知県,室戸市,室津３３６８番地２,,39,202,7817102,,,2024-05-23,清算の結了等,,,2024-03-12,1,,,,,,0
511,3010003030346,登記記録の閉鎖等,0,2024-05-29,2024-05-17,ＨＬＣホールディング合同会社,,合同会社,東京都,千代田区,丸の内３丁目１番１号東京共同会計事務所内,,13,101,1000005,,,2024-05-17,清算の結了等,,,2019-08-02,1,,,,,エイチエルシーホールディング,0
543,3011002033372,登記記録の閉鎖等,0,2024-05-29,2024-05-24,有限会社トレンドエッグ,,有限会社,東京都,渋谷区,千駄ヶ谷４丁目２０番３号東栄神宮外苑ビル,,13,113,1510051,,,2024-05-24,合併による解散等,1011301001684,令和６年４月１１日東京都杉並区成田東三丁目７番２６号株式会社我望（1011301001684）に合併し解散,2015-10-05,1,,,,,トレンドエッグ,0
554,3011403002983,登記記録の閉鎖等,0,2024-05-29,2024-05-23,合同会社ＭＯＫＫ,,合同会社,東京都,豊島区,池袋２丁目５３－１２中條ビル７０１,,13,116,1710014,,,2024-05-23,清算の結了等,,,2020-04-21,1,,,,,モック,0
565,3013302013780,登記記録の閉鎖等,0,2024-05-29,2024-05-21,有限会社ベビーズブレス,,有限会社,東京都,豊島区,駒込２丁目１３番７号第２小川ビル,,13,116,1700003,,,2024-05-21,清算の結了等,,,2015-10-05,1,,,,,ベビーズブレス,0
590,3030002032028,登記記録の閉鎖等,0,2024-05-29,2024-05-24,有限会社マコト設備工業,,有限会社,埼玉県,所沢市,西所沢１丁目１７番８号,,11,208,3591144,,,2024-05-24,清算の結了等,,,2015-10-05,1,,,,,マコトセツビコウギョウ,0
607,3050002032926,登記記録の閉鎖等,0,2024-05-29,2024-05-27,有限会社秋山建築設計事務所,,有限会社,茨城県,龍ケ崎市,野原町１０１番地,,08,208,3010831,,,2024-05-27,清算の結了等,,,2015-10-05,1,,,,,アキヤマケンチクセッケイジムショ,0
610,3060002015566,登記記録の閉鎖等,0,2024-05-29,2024-05-22,有限会社魚要,00024450,有限会社,栃木県,日光市,御幸町５９３番地１,,09,206,3211404,,,2024-05-22,清算の結了等,,,2015-10-05,1,,,,,ウオヨウ,0
611,3070001010682,登記記録の閉鎖等,0,2024-05-29,2024-05-23,株式会社デオ・プラス,,株式会社,群馬県,高崎市,浜尻町５８６番地３,,10,202,3700005,,,2024-05-23,清算の結了等,,,2015-10-05,1,,,,,デオプラス,0
623,3110001019752,登記記録の閉鎖等,0,2024-05-29,2024-05-27,日本海水化工株式会社,,株式会社,新潟県,上越市,大字下荒浜９８２番地１,,15,222,9420022,,,2024-05-27,清算の結了等,,,2015-10-05,1,,,,,ニホンカイスイカコウ,0
628,3120001202704,登記記録の閉鎖等,0,2024-05-29,2024-05-27,株式会社３－ｆｉｅｌｄ,,株式会社,大阪府,大阪市西淀川区,御幣島４丁目５番１１号,,27,113,5550012,,,2024-05-27,清算の結了等,,,2016-12-27,1,,,,,サンフィールド,0
639,3122001007991,登記記録の閉鎖等,0,2024-05-29,2024-05-28,株式会社日本弗素商会,,株式会社,大阪府,東大阪市,長堂３丁目１９番３号,,27,227,5770056,,,2024-05-28,清算の結了等,,,2015-10-05,1,,,,,ニホンフッソショウカイ,0
647,3140001033206,登記記録の閉鎖等,0,2024-05-29,2024-05-27,株式会社ＬＩＥＮ,,株式会社,兵庫県,神戸市中央区,相生町４丁目８番１５号第２谷口ビル,,28,110,6500025,,,2024-05-27,合併による解散等,1140001108538,令和６年５月２４日神戸市中央区相生町四丁目８番１５号株式会社リアン（1140001108538）に合併し解散,2015-10-05,1,,,,,リアン,0
674,3210005009731,登記記録の閉鎖等,0,2024-05-29,2024-05-27,特定非営利活動法人幸々会,,その他の設立登記法人,福井県,福井市,上北野２丁目４番３０号１Ｆ,,18,201,9188203,,,2024-05-27,清算の結了等,,,2018-04-10,1,,,,,コウコウカイ,0
682,3260002000317,登記記録の閉鎖等,0,2024-05-29,2024-05-24,有限会社安西石材,,有限会社,岡山県,岡山市北区,万成西町１８番２０号,,33,101,7000073,,,2024-05-24,清算の結了等,,,2015-10-05,1,,,,,アンザイセキザイ,0
684,3260002020703,登記記録の閉鎖等,0,2024-05-29,2024-05-24,有限会社平井商店,,有限会社,岡山県,倉敷市,児島田の口２丁目９番４１号,,33,202,7110903,,,2024-05-24,清算の結了等,,,2015-10-05,1,,,,,ヒライショウテン,0
685,3260003003566,登記記録の閉鎖等,0,2024-05-29,2024-05-23,合同会社ｃｏｕｒａｇｅ　ｗｅｂ,,合同会社,岡山県,岡山市北区,庭瀬２６３番地１（３０６）,,33,101,7010153,,,2024-05-23,清算の結了等,,,2021-05-27,1,,,,,クラージュウェブ,0
710,3330001028104,登記記録の閉鎖等,0,2024-05-29,2024-05-27,株式会社達磨工業,00121604,株式会社,熊本県,熊本市中央区,八王寺町２５番３号グリーンプラント１０２,,43,101,8600831,,,2024-05-27,清算の結了等,,,2020-12-11,1,,,,,ダルマコウギョウ,0
725,3380001031508,登記記録の閉鎖等,0,2024-05-29,2024-05-27,株式会社Ｇａｎａｒ福島,,株式会社,福島県,福島市,飯坂町平野字堂天前１１,,07,201,9600231,,,2024-05-27,清算の結了等,,,2021-01-15,1,,,,,,0
747,4010001128067,登記記録の閉鎖等,0,2024-05-29,2024-05-14,Ａｄｖｅｒ　Ｅａｓｔ株式会社,,株式会社,東京都,渋谷区,円山町２０番１号,,13,113,1500044,,,2024-05-14,清算の結了等,,,2015-10-05,1,,,,,アドバーイースト,0
753,4010002049122,登記記録の閉鎖等,0,2024-05-29,2024-05-17,有限会社ソート,,有限会社,東京都,千代田区,三番町５番地,,13,101,1020075,,,2024-05-17,清算の結了等,,,2015-10-05,1,,,,,ソート,0
755,4010005026812,登記記録の閉鎖等,0,2024-05-29,2024-05-24,社会保険労務士法人Ｍ．Ｉ．ＯＦＦＩＣＥ,,その他の設立登記法人,東京都,中央区,新富１丁目１３番２１号,,13,102,1040041,,,2024-05-24,清算の結了等,,,2017-05-09,1,,,,,エムアイオフィス,0
781,4010901028184,登記記録の閉鎖等,0,2024-05-29,2024-05-22,株式会社ア・ミュー,,株式会社,東京都,渋谷区,渋谷１丁目１番３号,,13,113,1500002,,,2024-05-22,清算の結了等,,,2015-10-05,1,,,,,アミュー,0
791,4011001125104,登記記録の閉鎖等,0,2024-05-29,2024-05-01,ＲｏｔｏＷｏｒｋｓ株式会社,,株式会社,東京都,港区,虎ノ門２丁目２－１住友不動産虎ノ門タワー５Ｆグロース虎ノ門Ｒｏｏｍ５,,13,103,1050001,,,2024-05-01,合併による解散等,5012401037391,令和６年５月１日東京都港区虎ノ門二丁目２－１住友不動産虎ノ門タワー５Ｆグロース虎ノ門Ｒｏｏｍ５株式会社Ｗｏｎｄｅｒ　Ｃａｍｅｌ（5012401037391）に合併し解散,2018-11-08,1,,,,,ロトワークス,0
793,4011001146265,登記記録の閉鎖等,0,2024-05-29,2024-05-22,株式会社ＴａｇＴａｇ,,株式会社,東京都,渋谷区,円山町５番５号Ｎａｖｉ渋谷Ｖ３階,,13,113,1500044,,,2024-05-22,清算の結了等,,,2022-03-14,1,,,,,タグタグ,0
801,4011102018859,登記記録の閉鎖等,0,2024-05-29,2024-05-23,有限会社新新商会,,有限会社,東京都,新宿区,北新宿２丁目８番６号,,13,104,1690074,,,2024-05-23,清算の結了等,,,2015-10-05,1,,,,,シンシンショウカイ,0
810,4011702009539,登記記録の閉鎖等,0,2024-05-29,2024-05-24,有限会社久嘉,,有限会社,東京都,江戸川区,宇喜田町１４８４番地,,13,123,1340082,,,2024-05-24,清算の結了等,,,2015-10-05,1,,,,,ヒサヨシ,0
812,4011802017334,登記記録の閉鎖等,0,2024-05-29,2024-05-27,有限会社ハンドバック村上,,有限会社,東京都,足立区,本木１丁目２６番４号,,13,121,1230853,,,2024-05-27,清算の結了等,,,2015-10-05,1,,,,,,0
816,4012701016749,登記記録の閉鎖等,0,2024-05-29,2024-05-27,株式会社山岸技研,,株式会社,東京都,西東京市,下保谷３丁目１番３号,,13,229,2020004,,,2024-05-27,清算の結了等,,,2021-11-04,1,,,,,ヤマギシギケン,0
826,4020002030171,登記記録の閉鎖等,0,2024-05-29,2024-05-22,有限会社篠田牛乳店,,有限会社,神奈川県,横浜市南区,弘明寺町１５５番地,,14,105,2320067,,,2024-05-22,清算の結了等,,,2015-10-05,1,,,,,シノダギュウニュウテン,0
851,4070002005714,登記記録の閉鎖等,0,2024-05-29,2024-05-24,有限会社吉田電工,,有限会社,群馬県,前橋市,鳥取町８５０番地の２１,,10,201,3710131,,,2024-05-24,清算の結了等,,,2015-10-05,1,,,,,ヨシダデンコウ,0
852,4080101008609,登記記録の閉鎖等,0,2024-05-29,2024-05-24,佐野運輸株式会社,,株式会社,静岡県,富士市,今泉字三条３１８番地の２,,22,210,4170001,,,2024-05-24,清算の結了等,,,2015-10-05,1,,,,,サノウンユ,0
858,4100001020652,登記記録の閉鎖等,0,2024-05-29,2024-05-16,株式会社オザワ建装,,株式会社,長野県,伊那市,上牧６９１６番地,,20,209,3960006,,,2024-05-16,清算の結了等,,,2015-10-05,1,,,,,オザワケンソウ,0
859,4100001025800,登記記録の閉鎖等,0,2024-05-29,2024-05-21,株式会社松本画廊,,株式会社,長野県,松本市,元町２丁目４番２８号,,20,202,3900803,,,2024-05-21,清算の結了等,,,2015-10-05,1,,,,,マツモトガロウ,0
865,4110002008828,登記記録の閉鎖等,0,2024-05-29,2024-05-27,有限会社遊ワークス,,有限会社,新潟県,新潟市東区,柳ケ丘１８番１１号,,15,102,9500809,,,2024-05-27,清算の結了等,,,2015-10-05,1,,,,,,0
877,4120002014874,登記記録の閉鎖等,0,2024-05-29,2024-05-27,有限会社大阪フードワークス,,有限会社,大阪府,大阪市大正区,平尾１丁目４番２９号,,27,108,5510012,,,2024-05-27,清算の結了等,,,2015-10-05,1,,,,,オオサカフードワークス,0
923,4190001005249,登記記録の閉鎖等,0,2024-05-29,2024-05-28,東海エック株式会社,,株式会社,三重県,鈴鹿市,池田町１１０４番地１,,24,207,5130032,,,2024-05-28,清算の結了等,,,2015-10-05,1,,,,,トウカイエック,0
956,4320002019184,登記記録の閉鎖等,0,2024-05-29,2024-05-27,有限会社タナベ縫製,,有限会社,大分県,日田市,隈２丁目５番２９号,,44,204,8770044,,,2024-05-27,清算の結了等,,,2015-10-05,1,,,,,タナベホウセイ,0
1004,5010003029832,登記記録の閉鎖等,0,2024-05-29,2024-05-17,札幌シニアリビング合同会社,,合同会社,東京都,千代田区,神田錦町１丁目２１番１号,,13,101,1010054,,,2024-05-17,清算の結了等,,,2019-05-14,1,,,,,サッポロシニアリビング,0
1031,5011001067213,登記記録の閉鎖等,0,2024-05-29,2024-05-13,株式会社デイビットアンドパートナーズ,,株式会社,東京都,港区,高輪２丁目１５番１５号,,13,103,1080074,,,2024-05-13,清算の結了等,,,2015-10-05,1,,,,,デイビットアンドパートナーズ,0
1046,5011105006001,登記記録の閉鎖等,0,2024-05-29,2024-05-24,特定非営利活動法人日本ルエダ協会,,その他の設立登記法人,東京都,新宿区,中落合４丁目２６番１０号,,13,104,1610032,,,2024-05-24,清算の結了等,,,2015-10-05,1,,,,,ニホンルエダキョウカイ,0
1052,5012303001149,登記記録の閉鎖等,0,2024-05-29,2024-05-22,ちくりん堂貿易合同会社,,合同会社,東京都,町田市,本町田３０２２番地２８,,13,209,1940032,,,2024-05-22,清算の結了等,,,2018-05-10,1,,,,,チクリンドウボウエキ,0
1057,5013202001594,登記記録の閉鎖等,0,2024-05-29,2024-05-15,有限会社オフィスエンドウ,,有限会社,東京都,目黒区,上目黒３丁目４４番２９－３０２号,,13,110,1530051,,,2024-05-15,清算の結了等,,,2015-10-05,1,,,,,オフィスエンドウ,0
1058,5020001001544,登記記録の閉鎖等,0,2024-05-29,2024-05-24,株式会社稲香堂,,株式会社,神奈川県,横浜市瀬谷区,相沢１丁目４番地の６,,14,114,2460013,,,2024-05-24,清算の結了等,,,2015-10-05,1,,,,,トウコウドウ,0
1064,5020003024064,登記記録の閉鎖等,0,2024-05-29,2024-05-22,クリエイション合同会社,,合同会社,神奈川県,横浜市磯子区,磯子２丁目４番２０号,,14,107,2350016,,,2024-05-22,清算の結了等,,,2023-06-14,1,,,,,クリエイション,0
1071,5030001118395,登記記録の閉鎖等,0,2024-05-29,2024-05-27,株式会社クールトランスポート,,株式会社,埼玉県,春日部市,八丁目４８４番地１,,11,214,3440006,,,2024-05-27,清算の結了等,,,2017-01-30,1,,,,,クールトランスポート,0
1074,5030001155067,登記記録の閉鎖等,0,2024-05-29,2024-05-23,株式会社浅葱農園,,株式会社,埼玉県,さいたま市緑区,美園２丁目１１番地１３,,11,109,3360967,,,2024-05-23,清算の結了等,,,2023-08-07,1,,,,,アサギノウエン,0
1083,5040002028502,登記記録の閉鎖等,0,2024-05-29,2024-05-17,有限会社飯田商事,,有限会社,千葉県,八千代市,大和田新田６０番地の４,,12,221,2760046,,,2024-05-17,合併による解散等,3040001020841,令和６年５月１日千葉県八千代市大和田新田６０番地の４株式会社信興（3040001020841）に合併し解散,2015-10-05,1,,,,,イイダショウジ,0
1084,5040002034368,登記記録の閉鎖等,0,2024-05-29,2024-05-20,有限会社ジェイホテル,,有限会社,千葉県,市川市,八幡３丁目１９番３号,,12,203,2720021,,,2024-05-20,清算の結了等,,,2015-10-05,1,,,,,ジェイホテル,0
1132,5180001056721,登記記録の閉鎖等,0,2024-05-29,2024-05-22,株式会社赤玉,,株式会社,愛知県,名古屋市名東区,本郷２丁目１７３番地４名古屋インタービル７階,,23,115,4650024,,,2024-05-22,清算の結了等,,,2015-10-05,1,,,,,アカダマ,0
1140,5220002003214,登記記録の閉鎖等,0,2024-05-29,2024-05-24,有限会社植松造園,,有限会社,石川県,金沢市,東山１丁目２９番１号,,17,201,9200831,,,2024-05-24,清算の結了等,,,2015-10-05,1,,,,,ウエマツゾウエン,0
1182,5400002002602,登記記録の閉鎖等,0,2024-05-29,2024-05-18,有限会社はま美容院,,有限会社,岩手県,盛岡市,神明町１番１１号,,03,201,0200884,,,2024-05-18,清算の結了等,,,2015-10-05,1,,,,,ハマビヨウイン,0
1188,5460102002728,登記記録の閉鎖等,0,2024-05-29,2024-05-27,有限会社馬場工務店,,有限会社,北海道,河東郡音更町,緑陽台南区２８番地１６,,01,631,0800318,,,2024-05-27,清算の結了等,,,2015-10-05,1,,,,,ババコウムテン,0
1190,5460302000886,登記記録の閉鎖等,0,2024-05-29,2024-05-28,有限会社創研設備企画,,有限会社,北海道,北見市,桂町４丁目２１６番地１０号,,01,208,0900053,,,2024-05-28,清算の結了等,,,2015-10-05,1,,,,,,0
1194,5480002010903,登記記録の閉鎖等,0,2024-05-29,2024-05-27,有限会社三田商店,,有限会社,徳島県,鳴門市,撫養町北浜字宮の西１２１番地１,,36,202,7720015,,,2024-05-27,清算の結了等,,,2015-10-05,1,,,,,ミタショウテン,0
1211,6010001220144,登記記録の閉鎖等,0,2024-05-29,2024-05-23,株式会社ＴＫＤ,,株式会社,東京都,千代田区,麹町２丁目３番地３号ＦＤＣ麹町ビル４階,,13,101,1020083,,,2024-05-23,合併による解散等,8010401179301,令和６年４月３０日東京都港区虎ノ門一丁目３番１号ケアネットホールディングス株式会社（8010401179301）に合併し解散,2021-08-03,1,,,,,ティーケーディー,0
1232,6010403019754,登記記録の閉鎖等,0,2024-05-29,2024-05-14,Ａｘｉａ　Ｗｏｒｋｓ合同会社,,合同会社,東京都,港区,南青山２丁目２番１５号ウィン青山９４２,,13,103,1070062,,,2024-05-14,清算の結了等,,,2018-11-29,1,,,,,アクシアワークス,0
1242,6011001105310,登記記録の閉鎖等,0,2024-05-29,2024-05-14,株式会社ＦＩＰ,,株式会社,東京都,港区,白金３丁目３番１９号,,13,103,1080072,,,2024-05-14,清算の結了等,,,2015-10-05,1,,,,,エフアイピー,0
1253,6011101073597,登記記録の閉鎖等,0,2024-05-29,2024-05-14,株式会社ビューズ,,株式会社,東京都,港区,北青山２丁目７－１３プラセオ青山ビル３Ｆ,,13,103,1070061,,,2024-05-14,清算の結了等,,,2015-10-05,1,,,,,ビューズ,0
1271,6013301043586,登記記録の閉鎖等,0,2024-05-29,2024-05-22,ワン・ブレス株式会社,,株式会社,東京都,渋谷区,神宮前３丁目３番１４号,,13,113,1500001,,,2024-05-22,清算の結了等,,,2019-03-15,1,,,,,ワンブレス,0
1273,6020001087418,登記記録の閉鎖等,0,2024-05-29,2024-05-27,マザーライクホールディングス株式会社,,株式会社,神奈川県,伊勢原市,上粕屋１９３１番地１,,14,214,2591141,,,2024-05-27,清算の結了等,,,2015-10-05,1,,,,,マザーライクホールディングス,0
1287,6030003023634,登記記録の閉鎖等,0,2024-05-29,2024-05-27,Ｂａｌｌｅ　Ｂｌａｎｃｈｅ合同会社,,合同会社,埼玉県,さいたま市見沼区,大和田町２丁目５０７番地２,,11,104,3370053,,,2024-05-27,清算の結了等,,,2024-02-16,1,,,,,バルブランシュ,0
1288,6040001027413,登記記録の閉鎖等,0,2024-05-29,2024-05-20,株式会社フェニックスインターナショナル,,株式会社,千葉県,市川市,新田３丁目１７番８号,,12,203,2720035,,,2024-05-20,清算の結了等,,,2015-10-05,1,,,,,フェニックスインターナショナル,0
1292,6040002028336,登記記録の閉鎖等,0,2024-05-29,2024-05-20,有限会社アニマルレスキュー,,有限会社,千葉県,八千代市,村上３０７２番地１３号,,12,221,2760028,,,2024-05-20,清算の結了等,,,2015-10-05,1,,,,,アニマルレスキュー,0
1310,6070001007791,登記記録の閉鎖等,0,2024-05-29,2024-05-24,株式会社東京美装,,株式会社,群馬県,高崎市,矢島町７３９番地,,10,202,3700016,,,2024-05-24,清算の結了等,,,2015-10-05,1,,,,,トウキョウビソウ,0
1312,6070001032690,登記記録の閉鎖等,0,2024-05-29,2024-05-20,株式会社フォレストノーツ,,株式会社,千葉県,夷隅郡大多喜町,上原３４６番地１,,12,441,2980223,,,2024-05-20,清算の結了等,,,2016-09-23,1,,,,,フォレストノーツ,0
1317,6100002011376,登記記録の閉鎖等,0,2024-05-29,2024-05-17,有限会社ヒロキ,,有限会社,長野県,佐久市,中込３５５０番地１,,20,217,3850051,,,2024-05-17,清算の結了等,,,2015-10-05,1,,,,,ヒロキ,0
1330,6120001229744,登記記録の閉鎖等,0,2024-05-29,2024-05-27,株式会社ネクサスドア,,株式会社,大阪府,大阪市港区,弁天１丁目６番３５号,,27,107,5520007,,,2024-05-27,清算の結了等,,,2020-06-15,1,,,,,ネクサスドア,0
1345,6130001061709,登記記録の閉鎖等,0,2024-05-29,2024-05-27,株式会社紫運,,株式会社,京都府,亀岡市,大井町小金岐北浦８番地１２,,26,206,6210018,,,2024-05-27,清算の結了等,,,2018-03-16,1,,,,,シウン,0
1370,6190001021277,登記記録の閉鎖等,0,2024-05-29,2024-05-28,株式会社ＫＲＭ,,株式会社,三重県,鈴鹿市,寺家２丁目１７番５号,,24,207,5100254,,,2024-05-28,清算の結了等,,,2015-10-05,1,,,,,,0
1427,6410002007905,登記記録の閉鎖等,0,2024-05-29,2024-05-22,有限会社高秀仏壇店,,有限会社,秋田県,湯沢市,川連町字高掵下３９番地２,,05,207,0120105,,,2024-05-22,清算の結了等,,,2015-10-05,1,,,,,タカシュウブツダンテン,0
1438,6470001003437,登記記録の閉鎖等,0,2024-05-29,2024-05-27,ピアノサービス運送株式会社,,株式会社,香川県,高松市,前田東町１０９３番地１,,37,201,7610322,,,2024-05-27,清算の結了等,,,2015-10-05,1,,,,,ピアノサービスウンソウ,0
1458,7010401005879,登記記録の閉鎖等,0,2024-05-29,2024-05-13,株式会社大津興業,,株式会社,東京都,港区,三田５丁目８番１１号大津荘２０８号室,,13,103,1080073,,,2024-05-13,清算の結了等,,,2015-10-05,1,,,,,オオツコウギョウ,0
1461,7010401095672,登記記録の閉鎖等,0,2024-05-29,2024-05-15,株式会社ｃｏｌｏｒｓ,,株式会社,東京都,港区,南青山２丁目２番１５号,,13,103,1070062,,,2024-05-15,清算の結了等,,,2015-10-05,1,,,,,カラーズ,0
1465,7010401172950,登記記録の閉鎖等,0,2024-05-29,2024-05-14,株式会社カフカ,,株式会社,東京都,港区,虎ノ門１丁目１６番６号虎ノ門Ｒａｐｐｏｒｔビル,,13,103,1050001,,,2024-05-14,清算の結了等,,,2023-03-08,1,,,,,カフカ,0
1477,7010902002689,登記記録の閉鎖等,0,2024-05-29,2024-05-27,エヌ・シー・エル・エー有限会社,,有限会社,東京都,世田谷区,等々力５丁目４番２号,,13,112,1580082,,,2024-05-27,清算の結了等,,,2015-10-05,1,,,,,エヌシーエルエー,0
1485,7011105001867,登記記録の閉鎖等,0,2024-05-29,2024-05-23,特定非営利活動法人日本ヌエバエシハ・ファウンデーション,,その他の設立登記法人,東京都,新宿区,西早稲田１丁目２２番２－１１０２号,,13,104,1690051,,,2024-05-23,清算の結了等,,,2015-10-05,1,,,,,ニッポンヌエバエシハファウンデーション,0
1509,7020001154943,登記記録の閉鎖等,0,2024-05-29,2024-05-24,株式会社スマート学習研究所,,株式会社,神奈川県,川崎市中原区,田尻町４２番地,,14,133,2110014,,,2024-05-24,清算の結了等,,,2023-12-19,1,,,,,スマートガクシュウケンキュウショ,0
1513,7020002085782,登記記録の閉鎖等,0,2024-05-29,2024-05-24,有限会社ウチダ電機,,有限会社,神奈川県,川崎市宮前区,東有馬５丁目２３番１４－３０１号,,14,136,2160002,,,2024-05-24,清算の結了等,,,2015-10-05,1,,,,,ウチダデンキ,0
1514,7020003005104,登記記録の閉鎖等,0,2024-05-29,2024-05-15,ヒューズ合同会社,,合同会社,東京都,目黒区,目黒１丁目１番１６Ｃ－３０１号,,13,110,1530063,,,2024-05-15,清算の結了等,,,2015-10-05,1,,,,,ヒューズ,0
1526,7030001061362,登記記録の閉鎖等,0,2024-05-29,2024-05-28,大昭設備機器株式会社,,株式会社,埼玉県,児玉郡上里町,大字忍保１２０３番地１,,11,385,3690303,,,2024-05-28,清算の結了等,,,2015-10-05,1,,,,,ダイショウセツビキキ,0
1532,7030002047807,登記記録の閉鎖等,0,2024-05-29,2024-05-27,有限会社北栄産業,,有限会社,埼玉県,八潮市,大字浮塚９２７番地,,11,234,3400835,,,2024-05-27,清算の結了等,,,2015-10-05,1,,,,,ホクエイサンギョウ,0
1542,7050002025975,登記記録の閉鎖等,0,2024-05-29,2024-05-23,有限会社山田建設工業,,有限会社,茨城県,古河市,尾崎１４２番地の１２,,08,204,3060101,,,2024-05-23,清算の結了等,,,2015-10-05,1,,,,,ヤマダケンセツコウギョウ,0
1568,7120005010819,登記記録の閉鎖等,0,2024-05-29,2024-05-27,税理士法人ヤマト会計,,その他の設立登記法人,大阪府,大阪市天王寺区,真田山町２番２号東興ビル８階２号,,27,109,5430015,,,2024-05-27,清算の結了等,,,2015-10-05,1,,,,,ヤマトカイケイ,0
1638,7290002001036,登記記録の閉鎖等,0,2024-05-29,2024-05-02,有限会社ますだ,,有限会社,福岡県,福岡市西区,姪の浜３丁目４番２号,,40,135,8190002,,,2024-05-02,清算の結了等,,,2015-10-05,1,,,,,マスダ,0
1664,7410001004753,登記記録の閉鎖等,0,2024-05-29,2024-05-20,かねこ株式会社,,株式会社,秋田県,にかほ市,両前寺字山田下１４番地,,05,214,0180401,,,2024-05-20,清算の結了等,,,2024-03-08,1,,,,,カネコ,0
1693,8010003024640,登記記録の閉鎖等,0,2024-05-29,2024-05-17,合同会社レア名北レジデンス,,合同会社,東京都,千代田区,霞が関３丁目２番５号,,13,101,1000013,,,2024-05-17,清算の結了等,,,2017-01-11,1,,,,,レアメイホクレジデンス,0
1697,8010005007445,登記記録の閉鎖等,0,2024-05-29,2024-05-23,特定非営利活動法人ＰＣ建築技術支援センター,,その他の設立登記法人,神奈川県,川崎市宮前区,けやき平１番４１－３０４号,,14,136,2160023,,,2024-05-23,清算の結了等,,,2015-10-05,1,,,,,ピーシーケンチクギジュツシエンセンター,0
1725,8011001139182,登記記録の閉鎖等,0,2024-05-29,2024-05-14,株式会社ＭＩＮＴ　ＳＴＵＤＩＯ,,株式会社,東京都,渋谷区,神宮前６丁目２３番４号桑野ビル２階,,13,113,1500001,,,2024-05-14,清算の結了等,,,2021-03-17,1,,,,,ミントスタジオ,0
1726,8011001141246,登記記録の閉鎖等,0,2024-05-29,2024-05-13,株式会社緑,,株式会社,東京都,渋谷区,宇田川町１９番５号,,13,113,1500042,,,2024-05-13,清算の結了等,,,2021-06-28,1,,,,,ミドリ,0
1735,8011101045594,登記記録の閉鎖等,0,2024-05-29,2024-05-15,株式会社ＧＴＯ,,株式会社,東京都,千代田区,神田鍛冶町３丁目４番地,,13,101,1010045,,,2024-05-15,清算の結了等,,,2015-10-05,1,,,,,ジーティーオー,0
1758,8013303001961,登記記録の閉鎖等,0,2024-05-29,2024-05-22,合同会社ＩＥクリエイト,,合同会社,東京都,豊島区,池袋３丁目４４番３号,,13,116,1710014,,,2024-05-22,清算の結了等,,,2015-10-05,1,,,,,アイイークリエイト,0
1781,8030001124309,登記記録の閉鎖等,0,2024-05-29,2024-05-27,Ｍｉｃｈｉ株式会社,,株式会社,埼玉県,川越市,大字寺尾６２２番地２０,,11,201,3501141,,,2024-05-27,清算の結了等,,,2018-02-16,1,,,,,ミチ,0
1790,8040001068406,登記記録の閉鎖等,0,2024-05-29,2024-05-20,株式会社ＫＳインターナショナル,,株式会社,千葉県,我孫子市,船戸２丁目２１番６号,,12,222,2701158,,,2024-05-20,清算の結了等,,,2015-10-05,1,,,,,,0
1791,8040001074676,登記記録の閉鎖等,0,2024-05-29,2024-05-20,株式会社ＨＩＬＯ　Ｈａｗａｉｉａｎ　Ａｃａｄｅｍｙ,,株式会社,千葉県,鴨川市,太尾７１３番地１９,,12,223,2960014,,,2024-05-20,清算の結了等,,,2015-10-05,1,,,,,ヒロハワイアンアカデミー,0
1823,8120002050313,登記記録の閉鎖等,0,2024-05-29,2024-05-27,ジョイハウス株式会社,,株式会社,大阪府,大阪市西区,立売堀１丁目７番１２－３０１号グレース大阪本町ビル,,27,106,5500012,,,2024-05-27,清算の結了等,,,2015-10-05,1,,,,,ジョイハウス,0
1842,8140005002111,登記記録の閉鎖等,0,2024-05-29,2024-05-28,医療法人社団村田医院,,その他の設立登記法人,兵庫県,神戸市東灘区,岡本３丁目１２番１２号,,28,101,6580072,,,2024-05-28,清算の結了等,,,2015-10-05,1,,,,,ムラタイイン,0
1853,8180001028874,登記記録の閉鎖等,0,2024-05-29,2024-05-27,松屋ドライ株式会社,,株式会社,愛知県,名古屋市緑区,鳴海町字中汐田１８０番地,,23,114,4580801,,,2024-05-27,清算の結了等,,,2015-10-05,1,,,,,マツヤドライ,0
1857,8180001156485,登記記録の閉鎖等,0,2024-05-29,2024-05-22,株式会社ＳＲ,,株式会社,愛知県,名古屋市中区,錦３丁目１４番４号,,23,106,4600003,,,2024-05-22,清算の結了等,,,2023-05-26,1,,,,,エスアール,0
1886,8290001098023,登記記録の閉鎖等,0,2024-05-29,2024-04-24,８１コンサルティング株式会社,,株式会社,福岡県,福岡市中央区,天神２丁目３番１０号,,40,133,8100001,,,2024-04-24,清算の結了等,,,2022-06-23,1,,,,,エイティワンコンサルティング,0
1894,8290005010917,登記記録の閉鎖等,0,2024-05-29,2024-05-13,久留米駐車協同組合,,その他の設立登記法人,福岡県,久留米市,六ツ門町２１番地１０,,40,203,8300031,,,2024-05-13,清算の結了等,,,2015-10-05,1,,,,,クルメチュウシャ,0
1896,8320002016013,登記記録の閉鎖等,0,2024-05-29,2024-05-22,有限会社健康農園,,有限会社,大分県,杵築市,大字奈多１４５９番地,,44,210,8730032,,,2024-05-22,清算の結了等,,,2015-10-05,1,,,,,,0
1908,8380001001150,登記記録の閉鎖等,0,2024-05-29,2024-05-24,株式会社ニッテク,,株式会社,福島県,福島市,南沢又字中琵琶渕６８番地,,07,201,9608254,,,2024-05-24,清算の結了等,,,2015-10-05,1,,,,,ニッテク,0
1941,9010001208649,登記記録の閉鎖等,0,2024-05-29,2024-05-20,ＶＴＯＬ株式会社,,株式会社,東京都,中央区,銀座６丁目６番１号銀座風月堂ビル５Ｆ,,13,102,1040061,,,2024-05-20,清算の結了等,,,2020-03-31,1,,,,,ブイトール,0
1998,9011603002935,登記記録の閉鎖等,0,2024-05-29,2024-05-27,合同会社Ｓｅｌｆｓｕｐｐｏｒｔ,,合同会社,東京都,練馬区,中村北４丁目７番１号Ｌ－ＶＩＮＡ中村橋２０５号室,,13,120,1760023,,,2024-05-27,清算の結了等,,,2020-05-08,1,,,,,セルフサポート,0
2002,9011801015771,登記記録の閉鎖等,0,2024-05-29,2024-05-23,株式会社ハート在宅マッサージ,,株式会社,東京都,大田区,西蒲田５丁目４番２１号,,13,111,1440051,,,2024-05-23,清算の結了等,,,2015-10-05,1,,,,,ハートザイタクマッサージ,0
2004,9012301009917,登記記録の閉鎖等,0,2024-05-29,2024-05-23,ハナジュツＤＲ株式会社,,株式会社,東京都,新宿区,西新宿３丁目２番９号新宿ワシントンホテル２Ｆ,,13,104,1600023,,,2024-05-23,清算の結了等,,,2015-10-05,1,,,,,ハナジュツディーアール,0
2016,9020002055073,登記記録の閉鎖等,0,2024-05-29,2024-05-22,有限会社エスアール,,有限会社,神奈川県,横浜市神奈川区,六角橋３丁目１５番１１号,,14,102,2210802,,,2024-05-22,清算の結了等,,,2015-10-05,1,,,,,エスアール,0
2020,9021001052879,登記記録の閉鎖等,0,2024-05-29,2024-05-22,株式会社ワイケー電気,,株式会社,神奈川県,横浜市中区,吉田町２番地７－６０３,,14,104,2310041,,,2024-05-22,清算の結了等,,,2015-10-05,1,,,,,ワイケーデンキ,0
2023,9030001019391,登記記録の閉鎖等,0,2024-05-29,2024-05-27,株式会社ＩＰＡ,,株式会社,埼玉県,さいたま市岩槻区,大字大口３２６番地,,11,110,3390013,,,2024-05-27,清算の結了等,,,2015-10-05,1,,,,,アイピーエイ,0
2024,9030001128358,登記記録の閉鎖等,0,2024-05-29,2024-05-24,株式会社ヤングシップ,,株式会社,埼玉県,春日部市,下蛭田３１７番地７,,11,214,3440043,,,2024-05-24,清算の結了等,,,2018-11-21,1,,,,,ヤングシップ,0
2034,9030002065740,登記記録の閉鎖等,0,2024-05-29,2024-05-27,有限会社クリエイト,,有限会社,埼玉県,志木市,中宗岡４丁目８番９号,,11,228,3530002,,,2024-05-27,清算の結了等,,,2015-10-05,1,,,,,クリエイト,0
2048,9040002055773,登記記録の閉鎖等,0,2024-05-29,2024-05-15,有限会社マネジメントコンサルティング,,有限会社,千葉県,成田市,吾妻１丁目２１番地の１１,,12,211,2860018,,,2024-05-15,清算の結了等,,,2015-10-05,1,,,,,マネジメントコンサルティング,0
2053,9060002018670,登記記録の閉鎖等,0,2024-05-29,2024-05-24,有限会社芳賀住建,,有限会社,栃木県,芳賀郡芳賀町,大字芳志戸１６９３番地１,,09,345,3213305,,,2024-05-24,清算の結了等,,,2015-10-05,1,,,,,ハガジュウケン,0
2065,9100002026925,登記記録の閉鎖等,0,2024-05-29,2024-05-21,有限会社メルシィ,,有限会社,長野県,北安曇郡池田町,大字中鵜７８２番地４６,,20,481,3998603,,,2024-05-21,清算の結了等,,,2015-10-05,1,,,,,メルシィ,0
2105,9180001085139,登記記録の閉鎖等,0,2024-05-29,2024-05-20,株式会社エービック,,株式会社,愛知県,一宮市,開明字墓所北１７番地,,23,203,4940001,,,2024-05-20,清算の結了等,,,2015-10-05,1,,,,,エービック,0
2120,9200002016321,登記記録の閉鎖等,0,2024-05-29,2024-05-27,若山工業有限会社,,有限会社,岐阜県,美濃加茂市,本郷町９丁目７番７号,,21,211,5050027,,,2024-05-27,清算の結了等,,,2015-10-05,1,,,,,ワカヤマコウギョウ,0
2136,9290001093444,登記記録の閉鎖等,0,2024-05-29,2024-05-01,株式会社タイハク,,株式会社,福岡県,柳川市,大和町鷹ノ尾１２７５番地１,,40,207,8390253,,,2024-05-01,清算の結了等,,,2021-06-08,1,,,,,タイハク,0
2147,9300002010363,登記記録の閉鎖等,0,2024-05-29,2024-05-24,有限会社西皇,,有限会社,佐賀県,唐津市,町田４丁目８番１５号,,41,202,8470821,,,2024-05-24,清算の結了等,,,2015-10-05,1,,,,,サイオウ,0
2160,9370001017997,登記記録の閉鎖等,0,2024-05-29,2024-05-27,株式会社１４６,,株式会社,宮城県,仙台市太白区,西の平２丁目２９番４号,,04,104,9820825,,,2024-05-27,清算の結了等,,,2015-10-05,1,,,,,イチヨンロク,0
