sequenceNumber,corporateNumber,process,correct,updateDate,changeDate,name,nameImageId,kind,prefectureName,cityName,streetNumber,addressImageId,prefectureCode,cityCode,postCode,addressOutside,addressOutsideImageId,closeDate,closeCause,successorCorporateNumber,changeCause,assignmentDate,latest,enName,enPrefectureName,enCityName,enAddressOutside,furigana,hihyoji
3,1010001026307,登記記録の閉鎖等,0,2022-09-12,2022-09-05,浜田建設株式会社,,株式会社,東京都,千代田区,神田猿楽町２丁目７番１１号,,13,101,1010064,,,2022-09-05,清算の結了等,,,2015-10-05,1,,,,,ハマダケンセツ,0
5,1010001145932,登記記録の閉鎖等,0,2022-09-12,2022-08-26,株式会社ナイスター,,株式会社,東京都,港区,虎ノ門３丁目６番２号,,13,103,1050001,,,2022-08-26,清算の結了等,,,2015-10-05,1,,,,,ナイスター,0
10,1010002012636,登記記録の閉鎖等,0,2022-09-12,2022-09-02,東信運送有限会社,,有限会社,東京都,千代田区,飯田橋２丁目１１番９号,,13,101,1020072,,,2022-09-02,清算の結了等,,,2015-10-05,1,,,,,トウシンウンソウ,0
18,1010401086999,登記記録の閉鎖等,0,2022-09-12,2022-09-06,ＦＦａｓｔＦｉｌｌ　Ｊａｐａｎ株式会社,,株式会社,東京都,港区,虎ノ門３丁目２２番１０－２０１号,,13,103,1050001,,,2022-09-06,合併による解散等,6010001073815,令和４年９月１日東京都千代田区丸の内二丁目１番１号株式会社アイオン・グループ・ジャパン（6010001073815）に合併し解散,2015-10-05,1,,,,,,0
31,1010403021731,登記記録の閉鎖等,0,2022-09-12,2022-08-29,ブルーエナジーブリッジファンドイプシロン合同会社,,合同会社,東京都,港区,元赤坂１丁目１番７号,,13,103,1070051,,,2022-08-29,清算の結了等,,,2019-11-08,1,,,,,ブルーエナジーブリッジファンドイプシロン,0
40,1010802016423,登記記録の閉鎖等,0,2022-09-12,2022-09-05,有限会社フローテクノロジー,,有限会社,東京都,大田区,山王３丁目３７番６－１１１号,,13,111,1430023,,,2022-09-05,清算の結了等,,,2015-10-05,1,,,,,,0
56,1011103009653,登記記録の閉鎖等,0,2022-09-12,2022-09-07,アシュビージャパン合同会社,,合同会社,東京都,新宿区,原町３丁目５９,,13,104,1620053,,,2022-09-07,清算の結了等,,,2020-04-27,1,,,,,アシュビージャパン,0
58,1011203002434,登記記録の閉鎖等,0,2022-09-12,2022-09-01,合同会社Ｐ＆Ｅ,,合同会社,東京都,中野区,中野５丁目６８番２号,,13,114,1640001,,,2022-09-01,清算の結了等,,,2016-10-19,1,,,,,ピーアンドイー,0
59,1011301004002,登記記録の閉鎖等,0,2022-09-12,2022-09-06,大正興業株式会社,,株式会社,東京都,杉並区,西荻北２丁目３４番９号,,13,115,1670042,,,2022-09-06,清算の結了等,,,2015-10-05,1,,,,,タイショウコウギョウ,0
71,1011801017932,登記記録の閉鎖等,0,2022-09-12,2022-09-07,株式会社ＫＡＺＺＳＡ,,株式会社,東京都,足立区,西新井１丁目２５番３号ディアヒルズ５０５号,,13,121,1230841,,,2022-09-07,清算の結了等,,,2015-10-05,1,,,,,カズサ,0
78,1012801016742,登記記録の閉鎖等,0,2022-09-12,2022-09-02,株式会社Ｃｈａｒｍａｎｔ,,株式会社,東京都,立川市,錦町２丁目１番３１号衛門ビル４階,,13,202,1900022,,,2022-09-02,清算の結了等,,,2015-10-05,1,,,,,シャルマン,0
108,1050002020957,登記記録の閉鎖等,0,2022-09-12,2022-09-05,大塚商事有限会社,,有限会社,茨城県,つくば市,小野川１０番地２３,,08,220,3050053,,,2022-09-05,清算の結了等,,,2015-10-05,1,,,,,オオツカショウジ,0
112,1060005006201,登記記録の閉鎖等,0,2022-09-12,2022-09-05,協同組合足利商栄店会,,その他の設立登記法人,栃木県,足利市,有楽町８３５番地,,09,202,3260801,,,2022-09-05,清算の結了等,,,2015-10-05,1,,,,,アシカガショウエイテンカイ,0
114,1070002007473,登記記録の閉鎖等,0,2022-09-12,2022-09-06,有限会社アオキコーポレーション,,有限会社,群馬県,前橋市,富士見町時沢１８０９番地６,,10,201,3710104,,,2022-09-06,清算の結了等,,,2015-10-05,1,,,,,アオキコーポレーション,0
120,1080401001530,登記記録の閉鎖等,0,2022-09-12,2022-09-07,株式会社グリーンテック,,株式会社,静岡県,浜松市西区,深萩町３０４番地の１３３,,22,133,4311201,,,2022-09-07,清算の結了等,,,2015-10-05,1,,,,,グリーンテック,0
174,1180002011316,登記記録の閉鎖等,0,2022-09-12,2022-09-06,有限会社晃大産業,,有限会社,愛知県,名古屋市北区,志賀町１丁目６０番地の２,,23,103,4620037,,,2022-09-06,清算の結了等,,,2015-10-05,1,,,,,コウダイサンギョウ,0
175,1180002011919,登記記録の閉鎖等,0,2022-09-12,2022-09-07,有限会社楯工務店,,有限会社,愛知県,名古屋市北区,志賀町３丁目５５番地の３,,23,103,4620037,,,2022-09-07,清算の結了等,,,2015-10-05,1,,,,,タテコウムテン,0
180,1180002072911,登記記録の閉鎖等,0,2022-09-12,2022-09-05,有限会社東栄冷機,,有限会社,愛知県,尾張旭市,東栄町１丁目１２番地の２２,,23,226,4880011,,,2022-09-05,清算の結了等,,,2015-10-05,1,,,,,トウエイレイキ,0
185,1180305005254,登記記録の閉鎖等,0,2022-09-12,2022-09-02,特定非営利活動法人安城市体育協会,,その他の設立登記法人,愛知県,安城市,新田町新定山４１番地８,,23,212,4460061,,,2022-09-02,清算の結了等,,,2015-10-05,1,,,,,アンジョウシタイイクキョウカイ,0
194,1240002000485,登記記録の閉鎖等,0,2022-09-12,2022-09-08,有限会社あかね,,有限会社,広島県,広島市中区,胡町３番９号,,34,101,7300021,,,2022-09-08,清算の結了等,,,2015-10-05,1,,,,,アカネ,0
209,1290002007501,登記記録の閉鎖等,0,2022-09-12,2022-09-05,アームズ有限会社,,有限会社,福岡県,福岡市早良区,百道１丁目１６番９号,,40,137,8140006,,,2022-09-05,清算の結了等,,,2015-10-05,1,,,,,アームズ,0
213,1290003006394,登記記録の閉鎖等,0,2022-09-12,2022-09-02,合同会社和ＮＡＧＯＭＩ,,合同会社,福岡県,朝倉市,菩提寺５７６－４,,40,228,8380061,,,2022-09-02,清算の結了等,,,2016-04-06,1,,,,,ワナゴミ,0
219,1290802004359,登記記録の閉鎖等,0,2022-09-12,2022-09-09,有限会社洞海通信,,有限会社,福岡県,北九州市戸畑区,東大谷２丁目１番３号,,40,105,8040031,,,2022-09-09,清算の結了等,,,2015-10-05,1,,,,,ドウカイツウシン,0
235,1400002002242,登記記録の閉鎖等,0,2022-09-12,2022-09-06,有限会社斗ケ沢ホンダ農発,,有限会社,岩手県,盛岡市,大通３丁目６番２３号,,03,201,0200022,,,2022-09-06,清算の結了等,,,2015-10-05,1,,,,,トガサワホンダノウハツ,0
240,1400602000117,登記記録の閉鎖等,0,2022-09-12,2022-09-08,有限会社エムアンドケー・エム,,有限会社,岩手県,奥州市,水沢東大通り２丁目３番３６号,,03,215,0230828,,,2022-09-08,清算の結了等,,,2015-10-05,1,,,,,エムアンドケーエム,0
241,1410002009039,登記記録の閉鎖等,0,2022-09-12,2022-09-06,有限会社松沢住建,,有限会社,秋田県,大館市,比内町八木橋字寺崎３４番地１,,05,204,0185744,,,2022-09-06,清算の結了等,,,2015-10-05,1,,,,,マツザワジュウケン,0
242,1420001007018,登記記録の閉鎖等,0,2022-09-12,2022-09-06,株式会社コスモジャパン,,株式会社,青森県,八戸市,白銀３丁目６番地１２,,02,203,0310821,,,2022-09-06,合併による解散等,9011101072159,令和４年９月１日東京都新宿区新宿六丁目２９番８号ジャパンエレベーターサービス城西株式会社（9011101072159）に合併し解散,2015-10-05,1,,,,,コスモジャパン,0
249,1470002004166,登記記録の閉鎖等,0,2022-09-12,2022-09-07,高松不動産有限会社,00005289,有限会社,香川県,高松市,岡本町１５５７番地９０,,37,201,7618047,,,2022-09-07,清算の結了等,,,2015-10-05,1,,,,,タカマツフドウサン,0
263,2010001154189,登記記録の閉鎖等,0,2022-09-12,2022-08-25,株式会社ボヌール,,株式会社,東京都,港区,赤坂５丁目２番１０号グリーンパーク赤坂２５１４,,13,103,1070052,,,2022-08-25,合併による解散等,9010401107426,令和４年８月２５日東京都港区赤坂五丁目２番１０号グリーンパーク赤坂２５１４株式会社外食虎塾（9010401107426）に合併し解散,2015-10-05,1,,,,,ボヌール,0
283,2010403012077,登記記録の閉鎖等,0,2022-09-12,2022-08-31,合同会社プラム,,合同会社,東京都,港区,赤坂１丁目１番１号,,13,103,1070052,,,2022-08-31,清算の結了等,,,2015-10-05,1,,,,,プラム,0
284,2010403022448,登記記録の閉鎖等,0,2022-09-12,2022-08-29,ソシオレジデンシャル合同会社,,合同会社,東京都,港区,元赤坂１丁目１番７号,,13,103,1070051,,,2022-08-29,清算の結了等,,,2020-03-09,1,,,,,ソシオレジデンシャル,0
285,2010405017727,登記記録の閉鎖等,0,2022-09-12,2022-08-31,一般社団法人ＨＤＧ６,,その他の設立登記法人,東京都,港区,虎ノ門３丁目２２番１０－２０１号,,13,103,1050001,,,2022-08-31,清算の結了等,,,2019-05-30,1,,,,,エイチディージーシックス,0
291,2010601017489,登記記録の閉鎖等,0,2022-09-12,2022-08-31,株式会社ワタリクリエイティブ,,株式会社,東京都,渋谷区,幡ヶ谷２丁目２１番４号ユニゾ幡ヶ谷二丁目ビル７階,,13,113,1510072,,,2022-08-31,清算の結了等,,,2015-10-05,1,,,,,ワタリクリエイティブ,0
292,2010601028214,登記記録の閉鎖等,0,2022-09-12,2022-09-08,株式会社ジータック・ジャパン,,株式会社,東京都,江東区,森下４丁目２２番１２号,,13,108,1350004,,,2022-09-08,合併による解散等,6050001016357,令和４年９月１日茨城県つくば市天久保二丁目２１番地１２エキスパートインターナショナル株式会社（6050001016357）に合併し解散,2015-10-05,1,,,,,,0
300,2010701029087,登記記録の閉鎖等,0,2022-09-12,2022-09-09,株式会社コネクト,,株式会社,東京都,品川区,東大井５丁目６番１３号,,13,109,1400011,,,2022-09-09,清算の結了等,,,2015-10-05,1,,,,,コネクト,0
305,2011001068874,登記記録の閉鎖等,0,2022-09-12,2022-08-29,株式会社メディアプラス,,株式会社,東京都,渋谷区,桜丘町１７－１２渋谷ジョンソン４０１,,13,113,1500031,,,2022-08-29,清算の結了等,,,2015-10-05,1,,,,,メディアプラス,0
307,2011001121939,登記記録の閉鎖等,0,2022-09-12,2022-08-31,ベビーズアイランド株式会社,,株式会社,東京都,渋谷区,千駄ヶ谷３丁目５番１２号,,13,113,1510051,,,2022-08-31,清算の結了等,,,2018-05-02,1,,,,,ベビーズアイランド,0
336,2011501025722,登記記録の閉鎖等,0,2022-09-12,2022-09-06,株式会社Ｒｉｅｎ,,株式会社,東京都,品川区,大井１丁目２８番１号,,13,109,1400014,,,2022-09-06,清算の結了等,,,2020-04-07,1,,,,,リアン,0
339,2011605000241,登記記録の閉鎖等,0,2022-09-12,2022-09-08,練馬個人タクシー事業協同組合,,その他の設立登記法人,東京都,練馬区,錦２丁目１３番１号,,13,120,1790082,,,2022-09-08,清算の結了等,,,2015-10-05,1,,,,,ネリマコジンタクシー,0
346,2012305001884,登記記録の閉鎖等,0,2022-09-12,2022-09-06,一般社団法人ＰｒｏＦａｍｉｌｉａ終活協会,,その他の設立登記法人,東京都,町田市,大蔵町２５８番地３,,13,209,1950062,,,2022-09-06,清算の結了等,,,2019-07-19,1,,,,,プロファミリアシュウカツキョウカイ,0
348,2012701008062,登記記録の閉鎖等,0,2022-09-12,2022-09-07,株式会社ＳＫＹ,,株式会社,東京都,小平市,大沼町３丁目２５番１１号,,13,211,1870001,,,2022-09-07,清算の結了等,,,2015-10-05,1,,,,,スカイ,0
388,2040001040403,登記記録の閉鎖等,0,2022-09-12,2022-09-02,株式会社アンカー,,株式会社,千葉県,松戸市,松戸新田４２９番地の３３,,12,207,2702241,,,2022-09-02,清算の結了等,,,2015-10-05,1,,,,,アンカー,0
404,2050002032984,登記記録の閉鎖等,0,2022-09-12,2022-09-05,有限会社石川塗装工業,,有限会社,茨城県,龍ケ崎市,４４９６番地４,,08,208,3010000,,,2022-09-05,清算の結了等,,,2015-10-05,1,,,,,イシカワトソウコウギョウ,0
411,2080001018346,登記記録の閉鎖等,0,2022-09-12,2022-09-08,株式会社弘建,,株式会社,静岡県,静岡市駿河区,寺田７６番地の５,,22,102,4210137,,,2022-09-08,清算の結了等,,,2015-10-05,1,,,,,,0
412,2080102011200,登記記録の閉鎖等,0,2022-09-12,2022-09-06,ナルミ工業有限会社,,有限会社,静岡県,三島市,三恵台１番地７,,22,206,4110017,,,2022-09-06,清算の結了等,,,2015-10-05,1,,,,,ナルミコウギョウ,0
417,2100005007111,登記記録の閉鎖等,0,2022-09-12,2022-09-05,特定非営利活動法人ワークス＆コミュニケーションズ,,その他の設立登記法人,長野県,松本市,渚２丁目１番７号,,20,202,3900841,,,2022-09-05,清算の結了等,,,2015-10-05,1,,,,,ワークスアンドコミュニケーションズ,0
422,2110001033028,登記記録の閉鎖等,0,2022-09-12,2022-09-05,株式会社花むら,,株式会社,新潟県,長岡市,古正寺２丁目６８番地,,15,202,9402106,,,2022-09-05,清算の結了等,,,2018-02-26,1,,,,,ハナムラ,0
444,2130001043454,登記記録の閉鎖等,0,2022-09-12,2022-09-02,株式会社スタジオボイス,,株式会社,京都府,舞鶴市,字倉谷１５１５番地の１,,26,202,6240906,,,2022-09-02,清算の結了等,,,2015-10-05,1,,,,,スタジオボイス,0
449,2140001023042,登記記録の閉鎖等,0,2022-09-12,2022-09-01,株式会社山陽エージェンシー,,株式会社,兵庫県,神戸市長田区,御屋敷通３丁目１番１号,,28,106,6530843,,,2022-09-01,合併による解散等,4140001016151,令和４年９月１日神戸市長田区御屋敷通三丁目１番１号株式会社山陽フレンズ（4140001016151）に合併し解散,2015-10-05,1,,,,,サンヨウエージェンシー,0
456,2180001021166,登記記録の閉鎖等,0,2022-09-12,2022-09-06,八束穂酒造株式会社,,株式会社,愛知県,名古屋市中川区,牛立町５丁目９番地,,23,110,4540043,,,2022-09-06,清算の結了等,,,2015-10-05,1,,,,,ヤツカホシュゾウ,0
458,2180001067449,登記記録の閉鎖等,0,2022-09-12,2022-09-01,株式会社ハクサン,,株式会社,愛知県,日進市,岩藤町三番割３２１番地１,,23,230,4700104,,,2022-09-01,合併による解散等,9180001115820,令和４年９月１日愛知県日進市岩藤町三番割３２１番地１ハクサンホールディングス株式会社（9180001115820）に合併し解散,2015-10-05,1,,,,,ハクサン,0
466,2180002049000,登記記録の閉鎖等,0,2022-09-12,2022-09-05,有限会社フロントライン,,有限会社,愛知県,名古屋市千種区,今池１丁目３０番１０号,,23,101,4640850,,,2022-09-05,清算の結了等,,,2015-10-05,1,,,,,フロントライン,0
468,2180003018862,登記記録の閉鎖等,0,2022-09-12,2022-09-01,合同会社Ｔ’ｓ,,合同会社,愛知県,名古屋市北区,桐畑町１８５番地ＦＬＥＸ北７番館１階,,23,103,4620003,,,2022-09-01,合併による解散等,7180001148418,令和４年９月１日名古屋市中村区椿町１６番８号株式会社日本教育総合学校（7180001148418）に合併し解散,2018-04-18,1,,,,,ティーズ,0
471,2180301006668,登記記録の閉鎖等,0,2022-09-12,2022-09-07,中島丸寛株式会社,,株式会社,愛知県,豊橋市,東細谷町字一里山８４番地,,23,201,4413112,,,2022-09-07,清算の結了等,,,2015-10-05,1,,,,,ナカジママルカン,0
477,2200002012863,登記記録の閉鎖等,0,2022-09-12,2022-09-09,有限会社田中鉄工所,,有限会社,岐阜県,大垣市,築捨町３丁目８９番地の２,,21,202,5030854,,,2022-09-09,清算の結了等,,,2015-10-05,1,,,,,タナカテッコウジョ,0
480,2220001003481,登記記録の閉鎖等,0,2022-09-12,2022-09-06,株式会社ジャックコーポレーション,,株式会社,大阪府,大阪市中央区,備後町３丁目１番８号小泉本社ビル４階,,27,128,5410051,,,2022-09-06,合併による解散等,2010001125248,令和４年９月１日東京都中央区日本橋堀留町一丁目９番１１号株式会社コスギ（2010001125248）に合併し解散,2015-10-05,1,,,,,,0
482,2240001017075,登記記録の閉鎖等,0,2022-09-12,2022-09-01,株式会社ウィズリンク,,株式会社,広島県,広島市安佐南区,伴南１丁目５番３０－２号,,34,105,7313168,,,2022-09-01,合併による解散等,8240001001338,令和４年９月１日広島市安佐南区伴南一丁目５番３０－２号株式会社ウィズリンク（8240001001338）に合併し解散,2015-10-05,1,,,,,ウィズリンク,0
487,2250002015523,登記記録の閉鎖等,0,2022-09-12,2022-09-06,有限会社ワイイーエス山口外国語センター,,有限会社,山口県,周南市,今住町３番３号,,35,215,7450063,,,2022-09-06,清算の結了等,,,2015-10-05,1,,,,,ワイイーエスヤマグチガイコクゴセンター,0
490,2280003000637,登記記録の閉鎖等,0,2022-09-12,2022-09-09,合同会社恵美スマイル,,合同会社,島根県,松江市,浜乃木１丁目１１番８４号,,32,201,6900044,,,2022-09-09,清算の結了等,,,2015-10-05,1,,,,,エミスマイル,0
502,2290002054699,登記記録の閉鎖等,0,2022-09-12,2022-08-31,有限会社くすのき工房,,有限会社,福岡県,みやま市,瀬高町長田１１６２番地,,40,229,8350007,,,2022-08-31,清算の結了等,,,2015-10-05,1,,,,,クスノキコウボウ,0
509,2340002000350,登記記録の閉鎖等,0,2022-09-12,2022-09-09,有限会社サンリョー,,有限会社,鹿児島県,鹿児島市,石谷町１２１１番地１７,,46,201,8992701,,,2022-09-09,清算の結了等,,,2015-10-05,1,,,,,サンリョー,0
537,2490001006284,登記記録の閉鎖等,0,2022-09-12,2022-09-01,株式会社ノムラファーム,,株式会社,高知県,南国市,左右山１５２番地,,39,204,7830052,,,2022-09-01,合併による解散等,3490001006151,令和４年９月１日高知県南国市左右山１５２番地株式会社遠藤青汁高知センター（3490001006151）に合併し解散,2015-10-05,1,,,,,ノムラファーム,0
541,2500001016083,登記記録の閉鎖等,0,2022-09-12,2022-09-07,株式会社宇和島フードクリエイト,,株式会社,愛媛県,宇和島市,御幸町２丁目７番１０号エスポワール２０２号,,38,203,7980013,,,2022-09-07,清算の結了等,,,2015-10-05,1,,,,,ウワジマフードクリエイト,0
569,3010405019375,登記記録の閉鎖等,0,2022-09-12,2022-08-26,一般社団法人ＳＨ０４１,,その他の設立登記法人,東京都,港区,虎ノ門３丁目２２番１０－２０１号,,13,103,1050001,,,2022-08-26,清算の結了等,,,2021-01-04,1,,,,,エスエイチゼロフォーワン,0
570,3010601041521,登記記録の閉鎖等,0,2022-09-12,2022-09-01,株式会社オアシス,,株式会社,東京都,墨田区,亀沢１丁目２２番１０号,,13,107,1300014,,,2022-09-01,清算の結了等,,,2015-10-05,1,,,,,オアシス,0
571,3010602022355,登記記録の閉鎖等,0,2022-09-12,2022-09-02,有限会社東陽美術印刷工業,,有限会社,東京都,江東区,東陽２丁目３番３号,,13,108,1350016,,,2022-09-02,清算の結了等,,,2015-10-05,1,,,,,トウヨウビジュツインサツコウギョウ,0
577,3010805001684,登記記録の閉鎖等,0,2022-09-12,2022-09-05,税理士法人三佑会計事務所,,その他の設立登記法人,東京都,大田区,大森北５丁目５番１０号,,13,111,1430016,,,2022-09-05,清算の結了等,,,2015-10-05,1,,,,,,0
580,3011001070714,登記記録の閉鎖等,0,2022-09-12,2022-08-29,株式会社渋江プランニング,,株式会社,東京都,港区,赤坂７丁目６番１５－３０６号,,13,103,1070052,,,2022-08-29,清算の結了等,,,2015-10-05,1,,,,,シブエプランニング,0
587,3011002014422,登記記録の閉鎖等,0,2022-09-12,2022-08-30,有限会社新宿信誠社,,有限会社,東京都,渋谷区,代々木２丁目１６番４号,,13,113,1510053,,,2022-08-30,清算の結了等,,,2015-10-05,1,,,,,シンジュクシンセイシャ,0
591,3011101088383,登記記録の閉鎖等,0,2022-09-12,2022-09-05,株式会社Ｄファクトリー,,株式会社,栃木県,小山市,中久喜４丁目１６番８号,,09,208,3230806,,,2022-09-05,清算の結了等,,,2019-07-24,1,,,,,ディーファクトリー,0
594,3011102011914,登記記録の閉鎖等,0,2022-09-12,2022-09-07,有限会社マクール,,有限会社,東京都,品川区,豊町２丁目１６番１０号,,13,109,1420042,,,2022-09-07,清算の結了等,,,2015-10-05,1,,,,,マクール,0
599,3011502001795,登記記録の閉鎖等,0,2022-09-12,2022-09-08,有限会社桐原電気,,有限会社,東京都,北区,田端１丁目９番５－４１０号,,13,117,1140014,,,2022-09-08,清算の結了等,,,2015-10-05,1,,,,,キリハラデンキ,0
609,3020001011818,登記記録の閉鎖等,0,2022-09-12,2022-09-07,株式会社中養母電気産業,,株式会社,神奈川県,横浜市青葉区,鴨志田町５０番地,,14,117,2270033,,,2022-09-07,清算の結了等,,,2015-10-05,1,,,,,ナカヨウボデンキサンギョウ,0
613,3020001049420,登記記録の閉鎖等,0,2022-09-12,2022-09-01,株式会社１０１ビギン,,株式会社,神奈川県,横浜市鶴見区,東寺尾６丁目２４番８－３号,,14,101,2300077,,,2022-09-01,清算の結了等,,,2015-10-05,1,,,,,イチマルイチビギン,0
619,3020002024620,登記記録の閉鎖等,0,2022-09-12,2022-09-06,有限会社ヒグチ,,有限会社,神奈川県,横浜市保土ケ谷区,狩場町３０３番地３８２,,14,106,2400025,,,2022-09-06,清算の結了等,,,2015-10-05,1,,,,,ヒグチ,0
623,3021001005181,登記記録の閉鎖等,0,2022-09-12,2022-08-29,ティー・アール株式会社,,株式会社,東京都,港区,南青山２丁目２２番１５号,,13,103,1070062,,,2022-08-29,清算の結了等,,,2015-10-05,1,,,,,ティーアール,0
662,3040003015352,登記記録の閉鎖等,0,2022-09-12,2022-09-05,合同会社Ｂｕｄｄｙ,,合同会社,千葉県,市原市,五井中央西２丁目７番地１５ウルマ駅前ビル２階,,12,219,2900081,,,2022-09-05,清算の結了等,,,2020-05-11,1,,,,,バディー,0
678,3070002015029,登記記録の閉鎖等,0,2022-09-12,2022-09-05,有限会社パオス技研,,有限会社,群馬県,安中市,板鼻１４７２番地,,10,211,3790111,,,2022-09-05,清算の結了等,,,2015-10-05,1,,,,,パオスギケン,0
685,3080102002099,登記記録の閉鎖等,0,2022-09-12,2022-09-06,有限会社第一クリニック,,有限会社,静岡県,沼津市,柳町３番５３号,,22,203,4100043,,,2022-09-06,清算の結了等,,,2015-10-05,1,,,,,ダイイチクリニック,0
686,3080402002815,登記記録の閉鎖等,0,2022-09-12,2022-09-07,光成社有限会社,,有限会社,静岡県,浜松市中区,和合北４丁目８番２３号,,22,131,4338127,,,2022-09-07,清算の結了等,,,2015-10-05,1,,,,,コウセイシャ,0
694,3110002020395,登記記録の閉鎖等,0,2022-09-12,2022-09-06,有限会社角田不動産,,有限会社,新潟県,柏崎市,松美１丁目１１番５１号,,15,205,9450041,,,2022-09-06,清算の結了等,,,2015-10-05,1,,,,,カクダフドウサン,0
739,3180001093080,登記記録の閉鎖等,0,2022-09-12,2022-09-06,株式会社森下調査設計,,株式会社,愛知県,知多郡美浜町,大字野間字東畠ケ３５番地,,23,446,4703235,,,2022-09-06,清算の結了等,,,2015-10-05,1,,,,,モリシタチョウサセッケイ,0
741,3180001128877,登記記録の閉鎖等,0,2022-09-12,2022-09-06,株式会社なる松,,株式会社,愛知県,名古屋市南区,北頭町４丁目１０番地,,23,112,4570827,,,2022-09-06,清算の結了等,,,2017-08-07,1,,,,,ナルショウ,0
748,3180002007378,登記記録の閉鎖等,0,2022-09-12,2022-09-05,ヤマモト電気工事有限会社,,有限会社,愛知県,名古屋市港区,七反野１丁目１３１３番地,,23,111,4550884,,,2022-09-05,清算の結了等,,,2015-10-05,1,,,,,ヤマモトデンキコウジ,0
749,3180002024043,登記記録の閉鎖等,0,2022-09-12,2022-09-05,有限会社東邦工業所,,有限会社,愛知県,名古屋市西区,枇杷島５丁目１番９号,,23,104,4510053,,,2022-09-05,清算の結了等,,,2015-10-05,1,,,,,トウホウコウギョウショ,0
754,3180302001221,登記記録の閉鎖等,0,2022-09-12,2022-09-02,有限会社近藤部品精工,,有限会社,愛知県,岡崎市,欠町字野添５番地,,23,202,4440011,,,2022-09-02,清算の結了等,,,2015-10-05,1,,,,,コンドウブヒンセイコウ,0
758,3190002014126,登記記録の閉鎖等,0,2022-09-12,2022-09-07,有限会社ティ・アィ通信機,,有限会社,三重県,松阪市,殿村町７９９番地の２,,24,204,5150843,,,2022-09-07,清算の結了等,,,2015-10-05,1,,,,,ティアィツウシンキ,0
759,3190002022987,登記記録の閉鎖等,0,2022-09-12,2022-09-07,有限会社アイトー,,有限会社,三重県,四日市市,川島町５６３４番地１０,,24,202,5120934,,,2022-09-07,清算の結了等,,,2015-10-05,1,,,,,アイトー,0
765,3240002004831,登記記録の閉鎖等,0,2022-09-12,2022-09-06,巨海建設有限会社,,有限会社,広島県,広島市安佐北区,亀山６丁目４２番２０号,,34,106,7310231,,,2022-09-06,清算の結了等,,,2015-10-05,1,,,,,コミケンセツ,0
792,3310005001711,登記記録の閉鎖等,0,2022-09-12,2022-09-08,医療法人木谷内科循環器クリニック,,その他の設立登記法人,長崎県,長崎市,坂本１丁目８番３０号ハイバレー１,,42,201,8528102,,,2022-09-08,清算の結了等,,,2015-10-05,1,,,,,キヤナイカジュンカンキクリニック,0
795,3320002014038,登記記録の閉鎖等,0,2022-09-12,2022-09-07,有限会社永野写真スタジオ,,有限会社,大分県,宇佐市,大字江須賀４１１２番地の１,,44,211,8720032,,,2022-09-07,清算の結了等,,,2015-10-05,1,,,,,ナガノシャシンスタジオ,0
798,3330001019904,登記記録の閉鎖等,0,2022-09-12,2022-09-05,株式会社不動産のおおくら,,株式会社,熊本県,熊本市中央区,水前寺６丁目３６番４号,,43,101,8620950,,,2022-09-05,清算の結了等,,,2015-10-05,1,,,,,フドウサンノオオクラ,0
805,3360005005055,登記記録の閉鎖等,0,2022-09-12,2022-09-06,一般社団法人沖縄越境コンソーシアム協会,,その他の設立登記法人,沖縄県,那覇市,牧志３丁目２番１０号てんぶす那覇１階Ｅ－１,,47,201,9000013,,,2022-09-06,清算の結了等,,,2015-10-05,1,,,,,オキナワエッキョウコンソーシアムキョウカイ,0
835,4010003025139,登記記録の閉鎖等,0,2022-09-12,2022-08-29,プログレスエナジー合同会社,,合同会社,東京都,港区,西新橋１丁目２０番地３号虎ノ門法曹ビル１２階,,13,103,1050003,,,2022-08-29,清算の結了等,,,2017-04-11,1,,,,,プログレスエナジー,0
837,4010401093092,登記記録の閉鎖等,0,2022-09-12,2022-09-05,ＴＥＣＯ　Ｔｅｃｈｎｏｌｏｇｙ＆Ｍａｒｋｅｔｉｎｇ　Ｃｅｎｔｅｒ株式会社,,株式会社,東京都,港区,芝浦１丁目１番１号浜松町ビルディング２９階,,13,103,1050023,,,2022-09-05,合併による解散等,8011101007636,令和４年９月１日東京都新宿区新宿二丁目８番１号新宿セブンビル三協株式会社（8011101007636）に合併し解散,2015-10-05,1,,,,,テコテクノロジーアンドマーケティングセンター,0
842,4010401128427,登記記録の閉鎖等,0,2022-09-12,2022-08-31,Ｓａｒｍｅｎｔ株式会社,,株式会社,東京都,港区,西新橋３丁目２４番８号山内ビル３Ｆ,,13,103,1050003,,,2022-08-31,清算の結了等,,,2016-11-30,1,,,,,サーメント,0
850,4010403020078,登記記録の閉鎖等,0,2022-09-12,2022-08-30,合同会社のぞみインベストメント,,合同会社,東京都,港区,北青山１丁目２番３号,,13,103,1070061,,,2022-08-30,清算の結了等,,,2019-01-28,1,,,,,ノゾミインベストメント,0
851,4010403024707,登記記録の閉鎖等,0,2022-09-12,2022-08-31,Ｂｉｔｇｌａｓｓ　ＪＰ合同会社,,合同会社,東京都,港区,赤坂２丁目１１番７号ＡＴＴ新館１１階Ｍａｚａｒｓ・Ｊａｐａｎ株式会社内,,13,103,1070052,,,2022-08-31,清算の結了等,,,2021-02-19,1,,,,,ビットグラスジェイピー,0
880,4011101043486,登記記録の閉鎖等,0,2022-09-12,2022-09-07,株式会社ビーダッシュ,,株式会社,東京都,新宿区,内藤町１番９号,,13,104,1600014,,,2022-09-07,清算の結了等,,,2015-10-05,1,,,,,,0
887,4011301015137,登記記録の閉鎖等,0,2022-09-12,2022-09-08,株式会社ＡＩＳ企画,,株式会社,東京都,渋谷区,恵比寿２丁目６番３２号ｉｄ８０１,,13,113,1500013,,,2022-09-08,清算の結了等,,,2015-10-05,1,,,,,,0
906,4013301048414,登記記録の閉鎖等,0,2022-09-12,2022-09-07,株式会社ｍｏｎｏｑｒｏ,,株式会社,東京都,豊島区,南池袋２丁目８番１号角田ビル３Ｆ,,13,116,1710022,,,2022-09-07,清算の結了等,,,2021-12-15,1,,,,,モノクロ,0
910,4020001058916,登記記録の閉鎖等,0,2022-09-12,2022-08-30,サニーサイド・ジャパン株式会社,,株式会社,東京都,渋谷区,笹塚１丁目５７番１０－１２１１号,00106702,13,113,1510073,,,2022-08-30,清算の結了等,,,2015-10-05,1,,,,,サニーサイドジャパン,0
951,4080002015786,登記記録の閉鎖等,0,2022-09-12,2022-09-09,有限会社コーワ,,有限会社,静岡県,焼津市,小土２３７番地の５,,22,212,4250086,,,2022-09-09,清算の結了等,,,2015-10-05,1,,,,,コーワ,0
953,4080101018533,登記記録の閉鎖等,0,2022-09-12,2022-09-07,株式会社Ｌ＆Ｓ,,株式会社,静岡県,熱海市,東海岸町３番２５号,,22,205,4130012,,,2022-09-07,清算の結了等,,,2015-10-05,1,,,,,エルアンドエス,0
989,4140001016143,登記記録の閉鎖等,0,2022-09-12,2022-09-01,株式会社山陽アド,,株式会社,兵庫県,神戸市長田区,御屋敷通３丁目１番１号,,28,106,6530843,,,2022-09-01,合併による解散等,4140001016151,令和４年９月１日神戸市長田区御屋敷通三丁目１番１号株式会社山陽フレンズ（4140001016151）に合併し解散,2015-10-05,1,,,,,サンヨウアド,0
992,4140002004279,登記記録の閉鎖等,0,2022-09-12,2022-09-09,有限会社岡田工作所,,有限会社,兵庫県,神戸市西区,玉津町西河原１３１番地,,28,111,6512127,,,2022-09-09,清算の結了等,,,2015-10-05,1,,,,,オカダコウサクショ,0
993,4140003014995,登記記録の閉鎖等,0,2022-09-12,2022-09-06,合同会社ＡＬＬ　ＳＥＬＬ,,合同会社,兵庫県,尼崎市,今福１丁目１番１０－３２４号,,28,202,6600812,,,2022-09-06,清算の結了等,,,2020-05-26,1,,,,,オールセル,0
994,4150005002304,登記記録の閉鎖等,0,2022-09-12,2022-09-07,特定非営利活動法人いこまみらい,,その他の設立登記法人,奈良県,生駒市,東松ケ丘１３番５号,,29,209,6300244,,,2022-09-07,清算の結了等,,,2015-10-05,1,,,,,イコマミライ,0
1009,4180001048760,登記記録の閉鎖等,0,2022-09-12,2022-08-31,株式会社トライネックス,,株式会社,愛知県,名古屋市中川区,下之一色町字権野８６番地,,23,110,4540945,,,2022-08-31,清算の結了等,,,2015-10-05,1,,,,,トライネックス,0
1018,4180002026476,登記記録の閉鎖等,0,2022-09-12,2022-08-30,有限会社ブルーオート,,有限会社,愛知県,名古屋市緑区,有松３０３１番地,,23,114,4580924,,,2022-08-30,清算の結了等,,,2015-10-05,1,,,,,ブルーオート,0
1022,4180002065441,登記記録の閉鎖等,0,2022-09-12,2022-09-05,有限会社奥岡トータリティーサービス,,有限会社,愛知県,春日井市,大手町４丁目６番地の３,,23,206,4860807,,,2022-09-05,合併による解散等,5180002065440,令和４年７月３１日愛知県春日井市大手町四丁目６番地の３株式会社奥岡商店（5180002065440）に合併し解散,2015-10-05,1,,,,,オクオカトータリティーサービス,0
1026,4180301006501,登記記録の閉鎖等,0,2022-09-12,2022-09-01,東海鉄工株式会社,,株式会社,愛知県,豊橋市,大山町字松荒２８番地,,23,201,4418071,,,2022-09-01,清算の結了等,,,2015-10-05,1,,,,,トウカイテッコウ,0
1033,4200001035723,登記記録の閉鎖等,0,2022-09-12,2022-09-08,ＡＱＵＡ株式会社,,株式会社,岐阜県,瑞浪市,寺河戸町１０９０番地の３ブランシュラピーヌ４０５号,,21,208,5096121,,,2022-09-08,清算の結了等,,,2018-11-20,1,,,,,アクア,0
1034,4200002010700,登記記録の閉鎖等,0,2022-09-12,2022-09-09,有限会社山和,,有限会社,岐阜県,羽島市,正木町森１４丁目５２番地の１,,21,209,5016221,,,2022-09-09,清算の結了等,,,2015-10-05,1,,,,,サンワ,0
1052,4290002053063,登記記録の閉鎖等,0,2022-09-12,2022-09-01,有限会社遠藤建具店,,有限会社,福岡県,大川市,大字榎津３８２番地,,40,212,8310004,,,2022-09-01,清算の結了等,,,2022-05-23,1,,,,,エンドウタテグテン,0
1110,5010403020317,登記記録の閉鎖等,0,2022-09-12,2022-08-29,ブルーエナジーブリッジファンドデルタ合同会社,,合同会社,東京都,港区,元赤坂１丁目１番７号,,13,103,1070051,,,2022-08-29,清算の結了等,,,2019-03-11,1,,,,,ブルーエナジーブリッジファンドデルタ,0
1121,5010701027170,登記記録の閉鎖等,0,2022-09-12,2022-09-06,株式会社ユーザーニーズ,,株式会社,東京都,品川区,旗の台４丁目１番５号,,13,109,1420064,,,2022-09-06,清算の結了等,,,2015-10-05,1,,,,,ユーザーニーズ,0
1131,5011001113735,登記記録の閉鎖等,0,2022-09-12,2022-08-31,株式会社ＳＵＮＧＷＯＬ　ＪＡＰＡＮ,,株式会社,東京都,渋谷区,恵比寿西１丁目８番１３号５階,,13,113,1500021,,,2022-08-31,清算の結了等,,,2016-11-18,1,,,,,ソンウォルジャパン,0
1132,5011001122637,登記記録の閉鎖等,0,2022-09-12,2022-08-31,株式会社さとひら,,株式会社,東京都,渋谷区,幡ヶ谷２丁目３７番１６号セレッソ幡ヶ谷４１１,,13,113,1510072,,,2022-08-31,清算の結了等,,,2018-06-08,1,,,,,サトヒラ,0
1141,5011101040219,登記記録の閉鎖等,0,2022-09-12,2022-09-08,ベルトレード株式会社,,株式会社,東京都,新宿区,若宮町３０番地８,,13,104,1620827,,,2022-09-08,清算の結了等,,,2015-10-05,1,,,,,ベルトレード,0
1157,5011701020116,登記記録の閉鎖等,0,2022-09-12,2022-09-06,ＭＩＲ　ＪＡＰＡＮ株式会社,,株式会社,東京都,江戸川区,西葛西５丁目６番２号,,13,123,1340088,,,2022-09-06,清算の結了等,,,2016-08-16,1,,,,,ミールジャパン,0
1161,5012801017365,登記記録の閉鎖等,0,2022-09-12,2022-09-02,株式会社ＴＷＳ総合研究所,,株式会社,東京都,立川市,緑町３番地の１－Ｅ１,,13,202,1900014,,,2022-09-02,清算の結了等,,,2016-07-08,1,,,,,ティーダブリューエスソウゴウケンキュウジョ,0
1165,5013301032656,登記記録の閉鎖等,0,2022-09-12,2022-08-31,クリスタライン株式会社,,株式会社,埼玉県,川口市,新井町３番地１０岩田ビル１０１号室,,11,203,3320005,,,2022-08-31,清算の結了等,,,2015-10-05,1,,,,,クリスタライン,0
1179,5030001002161,登記記録の閉鎖等,0,2022-09-12,2022-08-08,北上産業株式会社,,株式会社,千葉県,東金市,東金２２番地１２,,12,213,2830802,,,2022-08-08,清算の結了等,,,2015-10-05,1,,,,,キタガミサンギョウ,0
1193,5040003013651,登記記録の閉鎖等,0,2022-09-12,2022-09-05,合同会社ＦＴＦ,,合同会社,千葉県,市原市,姉崎東１丁目１番地８姉崎月光ビル３階,,12,219,2990110,,,2022-09-05,清算の結了等,,,2019-07-04,1,,,,,エフティエフ,0
1201,5050002039738,登記記録の閉鎖等,0,2022-09-12,2022-09-06,有限会社サンライズランド,,有限会社,茨城県,常総市,大生郷町３７１９番地,,08,211,3002521,,,2022-09-06,清算の結了等,,,2015-10-05,1,,,,,サンライズランド,0
1211,5070002028961,登記記録の閉鎖等,0,2022-09-12,2022-09-06,群馬コスモホーム有限会社,,有限会社,群馬県,太田市,西新町３８番地の５,,10,205,3730847,,,2022-09-06,清算の結了等,,,2015-10-05,1,,,,,グンマコスモホーム,0
1224,5120001026275,登記記録の閉鎖等,0,2022-09-12,2022-09-07,株式会社クサヤ,,株式会社,大阪府,茨木市,丑寅１丁目１番８８号,,27,211,5670877,,,2022-09-07,合併による解散等,2120001016527,令和４年９月１日大阪市北区天満橋一丁目８番３０号ＯＡＰタワー１４階国分西日本株式会社（2120001016527）に合併し解散,2015-10-05,1,,,,,クサヤ,0
1247,5130002014154,登記記録の閉鎖等,0,2022-09-12,2022-09-05,有限会社ソービック,,有限会社,京都府,京都市伏見区,榎町７８６番地,,26,109,6128304,,,2022-09-05,清算の結了等,,,2015-10-05,1,,,,,ソービック,0
1250,5130002021068,登記記録の閉鎖等,0,2022-09-12,2022-09-05,有限会社メディアエンタープライズ,,有限会社,京都府,京都市西京区,大枝北沓掛町７丁目９番地４,,26,111,6101101,,,2022-09-05,清算の結了等,,,2015-10-05,1,,,,,メディアエンタープライズ,0
1259,5150001002819,登記記録の閉鎖等,0,2022-09-12,2022-09-05,株式会社あすなろ,,株式会社,奈良県,奈良市,学園北１丁目１３番８号メインビル１Ｆ,,29,201,6310036,,,2022-09-05,合併による解散等,2150001002887,令和４年９月１日奈良市学園北一丁目１３番８号メインビル２Ｆ株式会社クカメディカル（2150001002887）に合併し解散,2015-10-05,1,,,,,アスナロ,0
1263,5180001012369,登記記録の閉鎖等,0,2022-09-12,2022-09-01,下野電気工事株式会社,,株式会社,愛知県,名古屋市北区,大我麻町１９２番地,,23,103,4620064,,,2022-09-01,合併による解散等,7180001075950,令和４年９月１日愛知県小牧市常普請三丁目１５７番地下野電気株式会社（7180001075950）に合併し解散,2015-10-05,1,,,,,シモノデンキコウジ,0
1274,5180002063353,登記記録の閉鎖等,0,2022-09-12,2022-09-01,株式会社ジェー・アンド・エッチ・ジャパン,,株式会社,愛知県,長久手市,砂子６０７番地,,23,238,4801112,,,2022-09-01,合併による解散等,9180001115820,令和４年９月１日愛知県日進市岩藤町三番割３２１番地１ハクサンホールディングス株式会社（9180001115820）に合併し解散,2015-10-05,1,,,,,ジェーアンドエッチジャパン,0
1278,5180003005809,登記記録の閉鎖等,0,2022-09-12,2022-09-06,株式会社保恵ビル,,株式会社,愛知県,名古屋市中区,新栄１丁目３１番５号,,23,106,4600007,,,2022-09-06,清算の結了等,,,2015-10-05,1,,,,,ヤスエビル,0
1289,5210002008759,登記記録の閉鎖等,0,2022-09-12,2022-09-08,有限会社王将,,有限会社,福井県,福井市,順化１丁目１２番９号,,18,201,9100023,,,2022-09-08,清算の結了等,,,2015-10-05,1,,,,,オオショウ,0
1296,5240001019457,登記記録の閉鎖等,0,2022-09-12,2022-09-06,株式会社あじさい,,株式会社,広島県,広島市東区,戸坂大上４丁目１５番２６号,,34,102,7320014,,,2022-09-06,清算の結了等,,,2015-10-05,1,,,,,アジサイ,0
1312,5290001037215,登記記録の閉鎖等,0,2022-09-12,2022-09-02,株式会社ＲＩＮＤＥＮコーポレーション,,株式会社,福岡県,宗像市,葉山２丁目１４番地３,,40,220,8114171,,,2022-09-02,清算の結了等,,,2015-10-05,1,,,,,リンデンコーポレーション,0
1349,5420002006510,登記記録の閉鎖等,0,2022-09-12,2022-09-06,有限会社カーメディカルフルダテ,,有限会社,青森県,八戸市,大字大久保字作兵衛穴５番２１号,,02,203,0310833,,,2022-09-06,清算の結了等,,,2015-10-05,1,,,,,カーメディカルフルダテ,0
1354,5470005000910,登記記録の閉鎖等,0,2022-09-12,2022-09-08,高松印刷センター協同組合,,その他の設立登記法人,香川県,高松市,郷東町７９２番地９,,37,201,7618031,,,2022-09-08,清算の結了等,,,2015-10-05,1,,,,,タカマツインサツセンター,0
1371,6010101004579,登記記録の閉鎖等,0,2022-09-12,2022-09-06,株式会社ボニー,,株式会社,東京都,八王子市,打越町３４７番地１,,13,201,1920911,,,2022-09-06,合併による解散等,4012401015885,令和４年９月１日東京都調布市下石原三丁目４０番地８株式会社メディックス（4012401015885）に合併し解散,2015-10-05,1,,,,,ボニー,0
1376,6010401084065,登記記録の閉鎖等,0,2022-09-12,2022-08-31,ＲＩＣアドバイザーズ株式会社,,株式会社,東京都,港区,西新橋３丁目２番１号,,13,103,1050003,,,2022-08-31,清算の結了等,,,2015-10-05,1,,,,,リックアドバイザーズ,0
1377,6010401100656,登記記録の閉鎖等,0,2022-09-12,2022-08-31,スティックジェラート株式会社,,株式会社,東京都,港区,虎ノ門３丁目３番３号,,13,103,1050001,,,2022-08-31,清算の結了等,,,2015-10-05,1,,,,,スティックジェラート,0
1378,6010401129092,登記記録の閉鎖等,0,2022-09-12,2022-08-26,西麻布リビング株式会社,,株式会社,東京都,港区,西麻布３丁目１番２３号霞一ビル３０１,,13,103,1060031,,,2022-08-26,清算の結了等,,,2017-01-13,1,,,,,ニシアザブリビング,0
1379,6010401131346,登記記録の閉鎖等,0,2022-09-12,2022-08-26,フェーズｂ・エンタテインメント株式会社,,株式会社,東京都,港区,三田１丁目４番１号,,13,103,1080073,,,2022-08-26,清算の結了等,,,2017-05-15,1,,,,,フェーズビーエンタテインメント,0
1380,6010401136650,登記記録の閉鎖等,0,2022-09-12,2022-08-26,株式会社イッカツホールディングス,,株式会社,東京都,港区,赤坂２丁目２１番５号ＡＢＣ／Ｄ－２６号,,13,103,1070052,,,2022-08-26,清算の結了等,,,2018-02-16,1,,,,,イッカツホールディングス,0
1388,6010501020201,登記記録の閉鎖等,0,2022-09-12,2022-09-07,株式会社ソニアワールド,,株式会社,東京都,北区,十条仲原２丁目１２番２０号,,13,117,1140031,,,2022-09-07,清算の結了等,,,2015-10-05,1,,,,,ソニアワールド,0
1391,6010601032195,登記記録の閉鎖等,0,2022-09-12,2022-08-31,みつわ印刷株式会社,,株式会社,東京都,渋谷区,幡ヶ谷２丁目２１番４号ユニゾ幡ヶ谷二丁目ビル７階,,13,113,1510072,,,2022-08-31,清算の結了等,,,2015-10-05,1,,,,,ミツワインサツ,0
1405,6010905001706,登記記録の閉鎖等,0,2022-09-12,2022-09-06,特定非営利活動法人あしたば会日本障害者福祉センター,,その他の設立登記法人,東京都,世田谷区,中町２丁目２１番１２号なかまちＮＰＯセンター３１７号,,13,112,1580091,,,2022-09-06,清算の結了等,,,2015-10-05,1,,,,,アシタバカイニホンショウガイシャフクシセンター,0
1409,6011001043171,登記記録の閉鎖等,0,2022-09-12,2022-08-31,株式会社エムティシー,,株式会社,東京都,渋谷区,渋谷１丁目３番１８号,,13,113,1500002,,,2022-08-31,清算の結了等,,,2015-10-05,1,,,,,エムティシー,0
1410,6011001122231,登記記録の閉鎖等,0,2022-09-12,2022-09-05,株式会社オフィス・キタノ,,株式会社,千葉県,松戸市,東松戸１丁目３番地の６ジェントルヒル１０３号,,12,207,2702225,,,2022-09-05,清算の結了等,,,2018-05-17,1,,,,,オフィスキタノ,0
1425,6011301007470,登記記録の閉鎖等,0,2022-09-12,2022-09-06,株式会社ワークボックス,,株式会社,東京都,杉並区,下高井戸３丁目３５番２２号,,13,115,1680073,,,2022-09-06,清算の結了等,,,2015-10-05,1,,,,,ワークボックス,0
1429,6011402009663,登記記録の閉鎖等,0,2022-09-12,2022-09-07,有限会社渡喜製作所,,有限会社,東京都,板橋区,富士見町１１番３号,,13,119,1740062,,,2022-09-07,清算の結了等,,,2015-10-05,1,,,,,ワタキセイサクショ,0
1434,6011703002466,登記記録の閉鎖等,0,2022-09-12,2022-09-07,合同会社アイディア,,合同会社,東京都,江戸川区,南小岩８丁目１４番５号アズマソシアルビル４階,,13,123,1330056,,,2022-09-07,清算の結了等,,,2020-01-31,1,,,,,アイディア,0
1443,6013201016808,登記記録の閉鎖等,0,2022-09-12,2022-08-30,株式会社アッション,,株式会社,東京都,港区,麻布台２丁目４番５号メソニック３９ＭＴビル,,13,103,1060041,,,2022-08-30,清算の結了等,,,2015-10-05,1,,,,,アッション,0
1447,6020001036366,登記記録の閉鎖等,0,2022-09-12,2022-09-06,青木電設株式会社,,株式会社,神奈川県,横浜市戸塚区,品濃町５１５番地１南の街２号館１００６,,14,110,2440801,,,2022-09-06,清算の結了等,,,2015-10-05,1,,,,,アオキデンセツ,0
1448,6020001100700,登記記録の閉鎖等,0,2022-09-12,2022-09-05,ダブルハピネス株式会社,,株式会社,千葉県,市原市,五井中央東１丁目１２番地１第３かいなだハイツ３０５号,,12,219,2900054,,,2022-09-05,清算の結了等,,,2015-10-05,1,,,,,ダブルハピネス,0
1475,6050002029721,登記記録の閉鎖等,0,2022-09-12,2022-09-05,有限会社サンテック,,有限会社,茨城県,鉾田市,飯島４６５番地の８,,08,234,3112112,,,2022-09-05,清算の結了等,,,2015-10-05,1,,,,,サンテック,0
1483,6080402017067,登記記録の閉鎖等,0,2022-09-12,2022-09-05,有限会社テラ,,有限会社,静岡県,浜松市東区,大瀬町２７番地の１５,,22,132,4313113,,,2022-09-05,清算の結了等,,,2015-10-05,1,,,,,テラ,0
1484,6100002030203,登記記録の閉鎖等,0,2022-09-12,2022-09-06,有限会社ツインズ,,有限会社,長野県,茅野市,ちの６８８番地,,20,214,3910001,,,2022-09-06,清算の結了等,,,2015-10-05,1,,,,,ツインズ,0
1488,6110002029319,登記記録の閉鎖等,0,2022-09-12,2022-08-31,有限会社宮本吉田板金,,有限会社,新潟県,長岡市,宮本堀之内町下前田３５６番地１,,15,202,9402044,,,2022-08-31,清算の結了等,,,2015-10-05,1,,,,,ミヤモトヨシダバンキン,0
1502,6120901032388,登記記録の閉鎖等,0,2022-09-12,2022-09-08,雅グリーンサービス株式会社,,株式会社,大阪府,池田市,鉢塚２丁目５番２６号ロフトテン２０７号,,27,204,5630024,,,2022-09-08,清算の結了等,,,2015-10-05,1,,,,,ミヤビグリーンサービス,0
1505,6122001023598,登記記録の閉鎖等,0,2022-09-12,2022-09-06,株式会社クラック,,株式会社,大阪府,東大阪市,菱江２丁目５番５０号,,27,227,5780984,,,2022-09-06,清算の結了等,,,2015-10-05,1,,,,,クラック,0
1529,6180001090315,登記記録の閉鎖等,0,2022-09-12,2022-09-06,株式会社タマテック,,株式会社,愛知県,日進市,赤池南２丁目１２０２番地カルティア赤池３０２,,23,230,4700127,,,2022-09-06,清算の結了等,,,2015-10-05,1,,,,,タマテック,0
1538,6180002014520,登記記録の閉鎖等,0,2022-09-12,2022-09-06,有限会社萩原製作所,,有限会社,愛知県,名古屋市南区,星崎１丁目２６１番地の２,,23,112,4570064,,,2022-09-06,清算の結了等,,,2015-10-05,1,,,,,ハギノセイサクショ,0
1544,6180003002508,登記記録の閉鎖等,0,2022-09-12,2022-09-05,合資会社川増チキン,,合資会社,愛知県,名古屋市中川区,愛知町３４番４号,,23,110,4540807,,,2022-09-05,清算の結了等,,,2015-10-05,1,,,,,カワマスチキン,0
1560,6210005006684,登記記録の閉鎖等,0,2022-09-12,2022-09-07,農事組合法人三宅営農組合,,その他の設立登記法人,福井県,三方上中郡若狭町,三宅第６８号７番地,,18,501,9191536,,,2022-09-07,清算の結了等,,,2015-10-05,1,,,,,ミヤケエイノウクミアイ,0
1588,6320002012682,登記記録の閉鎖等,0,2022-09-12,2022-09-08,有限会社山一工業,,有限会社,大分県,別府市,大字鶴見２５７２番地の８,,44,202,8740840,,,2022-09-08,清算の結了等,,,2015-10-05,1,,,,,,0
1590,6330003002038,登記記録の閉鎖等,0,2022-09-12,2022-09-05,合資会社富田板金工作所,,合資会社,熊本県,菊池市,隈府９８１番地,,43,210,8611331,,,2022-09-05,清算の結了等,,,2015-10-05,1,,,,,トミタバンキンコウサクショ,0
1597,6360001005989,登記記録の閉鎖等,0,2022-09-12,2022-09-02,エルエルラボ株式会社,,株式会社,沖縄県,那覇市,田原３丁目７番地２,,47,201,9010156,,,2022-09-02,清算の結了等,,,2015-10-05,1,,,,,,0
1611,6480002013120,登記記録の閉鎖等,0,2022-09-12,2022-09-08,有限会社周二,,有限会社,徳島県,阿南市,宝田町荒井６１番地２,,36,204,7740045,,,2022-09-08,清算の結了等,,,2015-10-05,1,,,,,シュウジ,0
1617,7010001113438,登記記録の閉鎖等,0,2022-09-12,2022-08-31,株式会社ジュリスティックス,,株式会社,東京都,港区,赤坂１丁目３番５号赤坂アビタシオン,,13,103,1070052,,,2022-08-31,清算の結了等,,,2015-10-05,1,,,,,ジュリスティックス,0
1622,7010005027056,登記記録の閉鎖等,0,2022-09-12,2022-08-29,ウィンチェスター一般社団法人,,その他の設立登記法人,東京都,港区,赤坂２丁目１５番１６号赤坂ふく源ビル４階,,13,103,1070052,,,2022-08-29,清算の結了等,,,2017-07-05,1,,,,,ウィンチェスター,0
1704,7021002002827,登記記録の閉鎖等,0,2022-09-12,2022-09-07,有限会社鈴木倉庫,,有限会社,神奈川県,藤沢市,羽鳥４丁目１３番３３号,,14,205,2510056,,,2022-09-07,清算の結了等,,,2015-10-05,1,,,,,スズキソウコ,0
1710,7040001092282,登記記録の閉鎖等,0,2022-09-12,2022-09-05,株式会社Ａｕｘｉ,,株式会社,千葉県,千葉市若葉区,高品町８９９番地２,,12,104,2640024,,,2022-09-05,合併による解散等,6260001002220,令和４年８月３１日岡山市中区＿東町二丁目２番５号株式会社グロップ（6260001002220）に合併し解散,2015-10-14,1,,,,,アークス,0
1724,7050002025141,登記記録の閉鎖等,0,2022-09-12,2022-09-05,有限会社ウツギ保険事務所,,有限会社,茨城県,古河市,前林１３０９番地１,,08,204,3060216,,,2022-09-05,清算の結了等,,,2015-10-05,1,,,,,ウツギホケンジムショ,0
1739,7110001031571,登記記録の閉鎖等,0,2022-09-12,2022-08-19,株式会社ワークショップ・経理,,株式会社,新潟県,新潟市江南区,江口４００５番地,,15,104,9500101,,,2022-08-19,清算の結了等,,,2016-06-10,1,,,,,ワークショップケイリ,0
1742,7110003001663,登記記録の閉鎖等,0,2022-09-12,2022-09-06,合同会社うらだ,,合同会社,新潟県,十日町市,浦田９７６番地４,,15,210,9421342,,,2022-09-06,清算の結了等,,,2015-10-05,1,,,,,ウラダ,0
1750,7120003019135,登記記録の閉鎖等,0,2022-09-12,2022-09-05,ＴＷＥＮＴＹ　ＦＯＵＲ　ＳＯＵＬＳ合同会社,,合同会社,大阪府,大阪市北区,長柄西１丁目３番５４－２０２号,,27,127,5310061,,,2022-09-05,清算の結了等,,,2021-04-01,1,,,,,トゥウェンティーフォーソウルズ,0
1755,7122001016130,登記記録の閉鎖等,0,2022-09-12,2022-09-06,株式会社枝組,,株式会社,大阪府,四條畷市,岡山東２丁目２番３４号,,27,229,5750003,,,2022-09-06,清算の結了等,,,2015-10-05,1,,,,,エダグミ,0
1761,7130001041305,登記記録の閉鎖等,0,2022-09-12,2022-09-01,株式会社福知山大気堂,,株式会社,京都府,福知山市,昭和町４５番地の２,,26,201,6200052,,,2022-09-01,合併による解散等,8130001041064,令和４年９月１日京都府福知山市字堀２７１２番地株式会社雀部丸鐵（8130001041064）に合併し解散,2015-10-05,1,,,,,フクチヤマタイキドウ,0
1766,7130002013889,登記記録の閉鎖等,0,2022-09-12,2022-09-05,有限会社サロン・ド・ボーテニシ,,有限会社,京都府,京都市伏見区,京町北７丁目１６番地５,,26,109,6128086,,,2022-09-05,清算の結了等,,,2015-10-05,1,,,,,サロンドボーテニシ,0
1771,7140001123886,登記記録の閉鎖等,0,2022-09-12,2022-09-05,株式会社ＮＥＭ　ＣＯＭＰＡＮＹ,,株式会社,兵庫県,神戸市中央区,琴ノ緒町２丁目２－７上田ビル４階,,28,110,6510094,,,2022-09-05,清算の結了等,,,2021-11-18,1,,,,,ネムカンパニー,0
1774,7150002005240,登記記録の閉鎖等,0,2022-09-12,2022-09-06,有限会社北和企画,,有限会社,奈良県,大和郡山市,下三橋町９４７番地,,29,203,6391101,,,2022-09-06,清算の結了等,,,2015-10-05,1,,,,,ホクワキカク,0
1775,7150002009555,登記記録の閉鎖等,0,2022-09-12,2022-09-06,有限会社イヒラ印刷所,,有限会社,奈良県,御所市,５７８番地,,29,208,6392200,,,2022-09-06,清算の結了等,,,2015-10-05,1,,,,,イヒラインサツショ,0
1786,7180001125854,登記記録の閉鎖等,0,2022-09-12,2022-09-06,株式会社ゴールデンプロモーションズ,,株式会社,愛知県,名古屋市北区,成願寺１丁目６,,23,103,4620021,,,2022-09-06,清算の結了等,,,2016-12-12,1,,,,,ゴールデンプロモーションズ,0
1813,7190005011331,登記記録の閉鎖等,0,2022-09-12,2022-09-08,一般社団法人外国人支援協会,,その他の設立登記法人,三重県,津市,高茶屋小森上野町５番地,,24,201,5140816,,,2022-09-08,清算の結了等,,,2019-06-12,1,,,,,ガイコクジンシエンキョウカイ,0
1814,7200001011985,登記記録の閉鎖等,0,2022-09-12,2022-09-09,株式会社川面商販,,株式会社,岐阜県,羽島市,正木町須賀小松２９８番地,,21,209,5016217,,,2022-09-09,清算の結了等,,,2015-10-05,1,,,,,,0
1816,7200002009434,登記記録の閉鎖等,0,2022-09-12,2022-09-09,有限会社グリンファーム,,有限会社,岐阜県,瑞穂市,十九条８２４番地,,21,216,5010235,,,2022-09-09,清算の結了等,,,2015-10-05,1,,,,,グリンファーム,0
1819,7240001034446,登記記録の閉鎖等,0,2022-09-12,2022-09-08,株式会社ミール,,株式会社,広島県,府中市,高木町１３６７番地,,34,208,7260013,,,2022-09-08,清算の結了等,,,2015-10-05,1,,,,,ミール,0
1841,7350002002300,登記記録の閉鎖等,0,2022-09-12,2022-09-09,有限会社城南住宅,,有限会社,宮崎県,宮崎市,恒久南２丁目１番地１,,45,201,8800915,,,2022-09-09,清算の結了等,,,2015-10-05,1,,,,,ジョウナンジュウタク,0
1848,7360002017438,登記記録の閉鎖等,0,2022-09-12,2022-09-02,有限会社盛徳組,,有限会社,沖縄県,中頭郡読谷村,字上地４０８番地の１,,47,324,9040321,,,2022-09-02,清算の結了等,,,2015-10-05,1,,,,,セイトクグミ,0
1854,7400503000029,登記記録の閉鎖等,0,2022-09-12,2022-09-08,合資会社千葉秀商店,,合資会社,岩手県,一関市,字鳴神４６番地１,,03,209,0210836,,,2022-09-08,清算の結了等,,,2015-10-05,1,,,,,,0
1855,7400602001761,登記記録の閉鎖等,0,2022-09-12,2022-09-07,有限会社金ヶ崎栄進,,有限会社,岩手県,胆沢郡金ケ崎町,西根町裏６７番地１,,03,381,0294503,,,2022-09-07,清算の結了等,,,2015-10-05,1,,,,,カネガサキエイシン,0
1857,7410001009447,登記記録の閉鎖等,0,2022-09-12,2022-09-08,株式会社南北交通,,株式会社,秋田県,仙北市,田沢湖生保内字駒ヶ岳２番地の３２,,05,215,0141201,,,2022-09-08,清算の結了等,,,2015-10-05,1,,,,,ナンボクコウツウ,0
1863,7430002019996,登記記録の閉鎖等,0,2022-09-12,2022-09-07,有限会社メタルファクトリー,,有限会社,北海道,札幌市手稲区,前田八条９丁目７番２３号,,01,109,0060818,,,2022-09-07,清算の結了等,,,2015-10-05,1,,,,,メタルファクトリー,0
1866,7450005000282,登記記録の閉鎖等,0,2022-09-12,2022-09-09,学校法人旭川大谷学園,,その他の設立登記法人,北海道,旭川市,五条通２５丁目４１２番地の２,,01,204,0788215,,,2022-09-09,清算の結了等,,,2015-10-05,1,,,,,アサヒカワオオタニガクエン,0
1871,7480002000489,登記記録の閉鎖等,0,2022-09-12,2022-09-09,有限会社浦川工業,,有限会社,徳島県,徳島市,論田町小論田１１番地４,,36,201,7708011,,,2022-09-09,清算の結了等,,,2015-10-05,1,,,,,,0
1874,7500001011848,登記記録の閉鎖等,0,2022-09-12,2022-09-09,株式会社大藤建設,,株式会社,愛媛県,今治市,喜田村５丁目１７番３９号,,38,202,7991502,,,2022-09-09,清算の結了等,,,2015-10-05,1,,,,,ダイトウケンセツ,0
1880,8010001099940,登記記録の閉鎖等,0,2022-09-12,2022-09-01,エヌ・エス・システム株式会社,,株式会社,東京都,中央区,日本橋蛎殻町１丁目６番１号,,13,102,1030014,,,2022-09-01,合併による解散等,3010001224445,令和４年９月１日東京都中央区日本橋蛎殻町一丁目６番１号エヌ・エス・システム株式会社（3010001224445）に合併し解散,2015-10-05,1,,,,,エヌエスシステム,0
1885,8010001211190,登記記録の閉鎖等,0,2022-09-12,2022-09-02,株式会社デルタメックス,,株式会社,東京都,千代田区,九段南１丁目５番６号りそな九段ビル５Ｆ,,13,101,1020074,,,2022-09-02,清算の結了等,,,2020-07-27,1,,,,,デルタメックス,0
1889,8010401010779,登記記録の閉鎖等,0,2022-09-12,2022-08-29,サイエンスツアー株式会社,,株式会社,東京都,港区,西新橋１丁目１９番３号,,13,103,1050003,,,2022-08-29,清算の結了等,,,2015-10-05,1,,,,,サイエンスツアー,0
1890,8010401031305,登記記録の閉鎖等,0,2022-09-12,2022-08-29,ラミ企画株式会社,,株式会社,東京都,港区,赤坂２丁目１６番２１号,,13,103,1070052,,,2022-08-29,清算の結了等,,,2015-10-05,1,,,,,ラミキカク,0
1900,8010401160293,登記記録の閉鎖等,0,2022-09-12,2022-08-31,株式会社ジョイファ,,株式会社,東京都,港区,北青山２丁目７－２０猪瀬ビル２Ｆ,,13,103,1070061,,,2022-08-31,清算の結了等,,,2021-05-20,1,,,,,ジョイファ,0
1907,8010402006322,登記記録の閉鎖等,0,2022-09-12,2022-08-29,株式会社新森書房,,株式会社,東京都,港区,南青山２丁目２番１５号,,13,103,1070062,,,2022-08-29,清算の結了等,,,2015-10-05,1,,,,,ニイモリショボウ,0
1913,8010403025692,登記記録の閉鎖等,0,2022-09-12,2022-07-28,合同会社ＴＥＡＭ　Ｊ－ＷＡＶＥ,,合同会社,東京都,港区,六本木６丁目１０番１号六本木ヒルズ森タワー３３階,,13,103,1060032,,,2022-07-28,清算の結了等,,,2021-07-08,1,,,,,チームジェイウェイヴ,0
1915,8010405018240,登記記録の閉鎖等,0,2022-09-12,2022-08-26,一般社団法人日本人事・組織開発協会,,その他の設立登記法人,東京都,港区,浜松町２丁目２番１５号浜松町ダイヤビル２Ｆ,,13,103,1050013,,,2022-08-26,清算の結了等,,,2019-11-13,1,,,,,ニホンジンジソシキカイハツキョウカイ,0
1921,8010605002977,登記記録の閉鎖等,0,2022-09-12,2022-09-05,一般社団法人住宅地盤リスク情報普及協会,,その他の設立登記法人,東京都,墨田区,両国２丁目１０番１４号両国シティコァ１７階,,13,107,1300026,,,2022-09-05,清算の結了等,,,2015-10-05,1,,,,,ジュウタクジバンリスクジョウホウフキュウキョウカイ,0
1958,8020002017751,登記記録の閉鎖等,0,2022-09-12,2022-09-07,有限会社吉田工業,,有限会社,神奈川県,横浜市西区,浅間町４丁目３４４番地の１５,,14,103,2200072,,,2022-09-07,清算の結了等,,,2015-10-05,1,,,,,ヨシダコウギョウ,0
1961,8020003009814,登記記録の閉鎖等,0,2022-09-12,2022-09-06,Ｍ＆Ａ合同会社,,合同会社,神奈川県,横浜市神奈川区,神奈川２丁目１７番１号,,14,102,2210045,,,2022-09-06,清算の結了等,,,2015-10-05,1,,,,,エムアンドエー,0
1993,8050002001810,登記記録の閉鎖等,0,2022-09-12,2022-09-06,鈴木自動車有限会社,,有限会社,茨城県,水戸市,千波町１９７７番地の１,,08,201,3100851,,,2022-09-06,清算の結了等,,,2015-10-05,1,,,,,スズキジドウシャ,0
2000,8080001004539,登記記録の閉鎖等,0,2022-09-12,2022-09-08,株式会社フカザワ食品,,株式会社,静岡県,静岡市駿河区,西脇９１４番地,,22,102,4228044,,,2022-09-08,清算の結了等,,,2015-10-05,1,,,,,,0
2016,8110003003304,登記記録の閉鎖等,0,2022-09-12,2022-09-06,Ｇａｔｔ合同会社,,合同会社,新潟県,新潟市西区,五十嵐１の町６３６８番地６８４,,15,107,9502101,,,2022-09-06,清算の結了等,,,2016-05-17,1,,,,,ガット,0
2030,8120002019300,登記記録の閉鎖等,0,2022-09-12,2022-09-08,有限会社水野クリーニング商会,,有限会社,大阪府,大阪市福島区,野田５丁目９番２８号,,27,103,5530005,,,2022-09-08,清算の結了等,,,2015-10-05,1,,,,,ミズノクリーニングショウカイ,0
2034,8120101034506,登記記録の閉鎖等,0,2022-09-12,2022-09-07,株式会社リキト,,株式会社,大阪府,羽曳野市,尺度３９１番地の２,,27,222,5830862,,,2022-09-07,清算の結了等,,,2015-10-05,1,,,,,リキト,0
2037,8120901009517,登記記録の閉鎖等,0,2022-09-12,2022-09-09,株式会社新生機械製作所,,株式会社,大阪府,摂津市,鳥飼本町２丁目７番９号,,27,224,5660052,,,2022-09-09,清算の結了等,,,2015-10-05,1,,,,,シンセイキカイセイサクショ,0
2045,8140001069658,登記記録の閉鎖等,0,2022-09-12,2022-09-06,株式会社ナカハラエンタープライズ,,株式会社,兵庫県,西宮市,鳴尾町５丁目７番１３号,,28,204,6638184,,,2022-09-06,清算の結了等,,,2015-10-05,1,,,,,ナカハラエンタープライズ,0
2058,8150002005702,登記記録の閉鎖等,0,2022-09-12,2022-09-06,駒気有限会社,,有限会社,奈良県,天理市,柳本町１４０５番地２９,,29,204,6320052,,,2022-09-06,清算の結了等,,,2015-10-05,1,,,,,コマキ,0
2072,8180002055538,登記記録の閉鎖等,0,2022-09-12,2022-09-06,有限会社旭陽工房,,有限会社,愛知県,名古屋市北区,水切町６丁目９１番地,,23,103,4620833,,,2022-09-06,清算の結了等,,,2015-10-05,1,,,,,アサヒコウボウ,0
2073,8180003001557,登記記録の閉鎖等,0,2022-09-12,2022-09-05,合資会社吉美屋,,合資会社,愛知県,名古屋市瑞穂区,下坂町１丁目２７番地,,23,108,4670827,,,2022-09-05,清算の結了等,,,2015-10-05,1,,,,,ヨシミヤ,0
2074,8180003016836,登記記録の閉鎖等,0,2022-09-12,2022-09-01,合同会社Ｍ’ｓ,,合同会社,愛知県,名古屋市北区,桐畑町１８５番地ＦＬＥＸ北７番館１階,,23,103,4620003,,,2022-09-01,合併による解散等,7180001148418,令和４年９月１日名古屋市中村区椿町１６番８号株式会社日本教育総合学校（7180001148418）に合併し解散,2016-01-20,1,,,,,エムズ,0
2090,8260001016920,登記記録の閉鎖等,0,2022-09-12,2022-09-09,株式会社ＯＧＩＮＯ,,株式会社,岡山県,倉敷市,児島上の町３丁目１３番１２－６号,,33,202,7110907,,,2022-09-09,清算の結了等,,,2015-10-05,1,,,,,オギノ,0
2094,8290001037369,登記記録の閉鎖等,0,2022-09-12,2022-09-01,株式会社プラスネット,,株式会社,福岡県,古賀市,花見南１丁目２番１５号,,40,223,8113111,,,2022-09-01,合併による解散等,9290002033886,令和４年９月１日福岡県古賀市花見南一丁目２番１５号株式会社プラス（9290002033886）に合併し解散,2015-10-05,1,,,,,プラスネット,0
2121,8360003000235,登記記録の閉鎖等,0,2022-09-12,2022-09-05,沖繩保安警備合資会社,00101751,合資会社,沖縄県,島尻郡南風原町,字兼城３７６番地Ｂ－１０２,,47,350,9011111,,,2022-09-05,清算の結了等,,,2015-10-05,1,,,,,オキナワホアンケイビ,0
2132,8470003001635,登記記録の閉鎖等,0,2022-09-12,2022-09-08,合同会社５０１ＵＤＯＮ,,合同会社,香川県,三豊市,山本町神田２６０番地７,,37,208,7680104,,,2022-09-08,清算の結了等,,,2019-08-09,1,,,,,ゴーマルイチウドン,0
2161,9010401153230,登記記録の閉鎖等,0,2022-09-12,2022-08-29,Ｓｉｆ　Ｊａｐａｎ株式会社,,株式会社,東京都,港区,海岸３丁目３３番１７号,,13,103,1080022,,,2022-08-29,清算の結了等,,,2020-06-08,1,,,,,シフジャパン,0
2169,9010403024685,登記記録の閉鎖等,0,2022-09-12,2022-08-26,グリーン発電１号合同会社,,合同会社,東京都,港区,虎ノ門３丁目２２番１０－２０１号,,13,103,1050001,,,2022-08-26,清算の結了等,,,2021-02-12,1,,,,,グリーンハツデンイチゴウ,0
2175,9010405005031,登記記録の閉鎖等,0,2022-09-12,2022-08-31,一般社団法人ルテニウムキャピタル,,その他の設立登記法人,東京都,港区,赤坂１丁目１番１号,,13,103,1070052,,,2022-08-31,清算の結了等,,,2015-10-05,1,,,,,ルテニウムキャピタル,0
2180,9010602031227,登記記録の閉鎖等,0,2022-09-12,2022-09-05,有限会社松井工務店,,有限会社,東京都,墨田区,立花５丁目２４番９号,,13,107,1310043,,,2022-09-05,清算の結了等,,,2015-10-05,1,,,,,マツイコウムテン,0
2183,9010701041829,登記記録の閉鎖等,0,2022-09-12,2022-09-06,株式会社シンワバネス・ホールディングス,,株式会社,東京都,品川区,西五反田７丁目２５番５号,,13,109,1410031,,,2022-09-06,合併による解散等,3013301020885,令和４年９月１日東京都品川区西五反田七丁目２５番５号株式会社シンワバネス（3013301020885）に合併し解散,2021-11-29,1,,,,,シンワバネスホールディングス,0
2189,9010802004008,登記記録の閉鎖等,0,2022-09-12,2022-09-05,有限会社共和建物,,有限会社,東京都,大田区,北千束３丁目２９番１１号,,13,111,1450062,,,2022-09-05,清算の結了等,,,2015-10-05,1,,,,,キョウワタテモノ,0
2204,9011102016593,登記記録の閉鎖等,0,2022-09-12,2022-08-31,有限会社アポロファンド,,有限会社,東京都,渋谷区,千駄ヶ谷５丁目３２番５－５０１号,,13,113,1510051,,,2022-08-31,清算の結了等,,,2015-10-05,1,,,,,アポロファンド,0
2208,9011302001296,登記記録の閉鎖等,0,2022-09-12,2022-09-05,有限会社テツ・カンパニー,,有限会社,東京都,杉並区,堀ノ内３丁目２０番２６号杉並新高円寺ロジュマン４０６,,13,115,1660013,,,2022-09-05,清算の結了等,,,2015-10-05,1,,,,,テツカンパニー,0
2212,9011401014059,登記記録の閉鎖等,0,2022-09-12,2022-09-07,ＥＮＥＯＳリテーリング株式会社,,株式会社,東京都,板橋区,舟渡１丁目１番５号,,13,119,1740041,,,2022-09-07,清算の結了等,,,2015-10-05,1,,,,,エネオスリテーリング,0
2214,9011405000303,登記記録の閉鎖等,0,2022-09-12,2022-09-05,赤塚一番通り商店街振興組合,,その他の設立登記法人,東京都,板橋区,赤塚２丁目１０番１４号,,13,119,1750092,,,2022-09-05,清算の結了等,,,2015-10-05,1,,,,,アカツカイチバンドオリショウテンガイ,0
2225,9012705001742,登記記録の閉鎖等,0,2022-09-12,2022-09-08,一般社団法人インドネシア日本ガルーダ友好協会,,その他の設立登記法人,東京都,東村山市,秋津町４丁目２３番地２２,,13,213,1890001,,,2022-09-08,清算の結了等,,,2015-10-05,1,,,,,インドネシアニホンガルーダユウコウキョウカイ,0
2235,9013302001664,登記記録の閉鎖等,0,2022-09-12,2022-09-07,有限会社エイトウイン,,有限会社,東京都,豊島区,巣鴨２丁目４番２号,,13,116,1700002,,,2022-09-07,清算の結了等,,,2015-10-05,1,,,,,エイトウイン,0
2240,9020002076103,登記記録の閉鎖等,0,2022-09-12,2022-09-06,有限会社エスアンドティコーポレーション,,有限会社,神奈川県,横浜市港南区,大久保２丁目５番２８号,,14,111,2330007,,,2022-09-06,清算の結了等,,,2015-10-05,1,,,,,エスアンドティコーポレーション,0
2255,9040003006858,登記記録の閉鎖等,0,2022-09-12,2022-09-05,合同会社下川保険サービス,,合同会社,千葉県,市原市,島野１７３３番地６,,12,219,2900034,,,2022-09-05,清算の結了等,,,2015-10-05,1,,,,,シモカワホケンサービス,0
2256,9040003013680,登記記録の閉鎖等,0,2022-09-12,2022-09-05,合同会社ＧＮ,,合同会社,千葉県,市原市,五井中央西２丁目７番地１５ウルマ駅前ビル１階,,12,219,2900081,,,2022-09-05,清算の結了等,,,2019-07-09,1,,,,,ゴン,0
2270,9080102021622,登記記録の閉鎖等,0,2022-09-12,2022-09-07,有限会社トゥインクルリゾート,,有限会社,静岡県,賀茂郡河津町,見高９３番地の４,,22,302,4130503,,,2022-09-07,清算の結了等,,,2015-10-05,1,,,,,トゥインクルリゾート,0
2276,9100003000986,登記記録の閉鎖等,0,2022-09-12,2022-09-05,合名会社塩川五右衛門,,合名会社,長野県,小諸市,本町２丁目３番１２号,,20,208,3840026,,,2022-09-05,清算の結了等,,,2015-10-05,1,,,,,シオガワゴウエモン,0
2282,9120001194267,登記記録の閉鎖等,0,2022-09-12,2022-09-08,株式会社ＭＵ,,株式会社,大阪府,大阪市北区,中崎西４丁目３番３２－６０２号,,27,127,5300015,,,2022-09-08,清算の結了等,,,2015-11-06,1,,,,,エムユー,0
2315,9140005002110,登記記録の閉鎖等,0,2022-09-12,2022-09-07,医療法人社団村中クリニック,,その他の設立登記法人,兵庫県,神戸市垂水区,星が丘１丁目１番９８号,,28,108,6550032,,,2022-09-07,清算の結了等,,,2015-10-05,1,,,,,ムラナカクリニック,0
2316,9150001006824,登記記録の閉鎖等,0,2022-09-12,2022-09-07,株式会社大和軒,,株式会社,奈良県,天理市,川原城町２８７番地,,29,204,6320016,,,2022-09-07,清算の結了等,,,2015-10-05,1,,,,,ヤマトケン,0
2321,9180001085502,登記記録の閉鎖等,0,2022-09-12,2022-09-06,株式会社エステクノ,,株式会社,愛知県,一宮市,北小渕字南切４６番地,,23,203,4910013,,,2022-09-06,清算の結了等,,,2015-10-05,1,,,,,エステクノ,0
2331,9180002033732,登記記録の閉鎖等,0,2022-09-12,2022-09-05,名古屋法務コンサルタント有限会社,,有限会社,愛知県,名古屋市昭和区,田面町２丁目３８番地,,23,107,4660801,,,2022-09-05,清算の結了等,,,2015-10-05,1,,,,,ナゴヤホウムコンサルタント,0
2337,9180301024762,登記記録の閉鎖等,0,2022-09-12,2022-09-02,丸修建材株式会社,,株式会社,愛知県,豊川市,小坂井町野地２３番地,,23,207,4410103,,,2022-09-02,清算の結了等,,,2015-10-05,1,,,,,マルシュウケンザイ,0
2340,9190001023452,登記記録の閉鎖等,0,2022-09-12,2022-09-07,株式会社ＲＹＵＫＩ,,株式会社,三重県,津市,白山町南出４０９番地,,24,201,5152611,,,2022-09-07,清算の結了等,,,2016-02-23,1,,,,,リュウキ,0
2343,9200002007584,登記記録の閉鎖等,0,2022-09-12,2022-09-08,有限会社スイング,,有限会社,岐阜県,各務原市,鵜沼各務原町４丁目２９６番地の１０,,21,213,5090141,,,2022-09-08,清算の結了等,,,2015-10-05,1,,,,,スイング,0
2345,9200005008786,登記記録の閉鎖等,0,2022-09-12,2022-09-09,特定非営利活動法人ウエルフェアサポート,,その他の設立登記法人,岐阜県,土岐市,泉町久尻４２番地の１８,,21,212,5095142,,,2022-09-09,清算の結了等,,,2015-10-05,1,,,,,ウエルフェアサポート,0
2379,9330001025228,登記記録の閉鎖等,0,2022-09-12,2022-09-05,株式会社西岡農園,,株式会社,熊本県,上益城郡嘉島町,大字下六嘉３４４１番地,,43,442,8613102,,,2022-09-05,清算の結了等,,,2018-04-16,1,,,,,ニシオカノウエン,0
2383,9350002015382,登記記録の閉鎖等,0,2022-09-12,2022-09-01,有限会社堀内工務店,,有限会社,宮崎県,北諸県郡三股町,大字宮村８３９番地１,,45,341,8891912,,,2022-09-01,清算の結了等,,,2015-10-05,1,,,,,ホリウチコウムテン,0
2397,9410002007695,登記記録の閉鎖等,0,2022-09-12,2022-09-07,有限会社斎藤設計事務所,,有限会社,秋田県,湯沢市,若葉町６番２５号,,05,207,0120869,,,2022-09-07,清算の結了等,,,2015-10-05,1,,,,,サイトウセッケイジムショ,0
2400,9430002024136,登記記録の閉鎖等,0,2022-09-12,2022-09-02,有限会社藤塚商店,,有限会社,北海道,札幌市北区,篠路一条８丁目６番３２号,,01,102,0028021,,,2022-09-02,清算の結了等,,,2015-10-05,1,,,,,フジツカショウテン,0
