sequenceNumber,corporateNumber,process,correct,updateDate,changeDate,name,nameImageId,kind,prefectureName,cityName,streetNumber,addressImageId,prefectureCode,cityCode,postCode,addressOutside,addressOutsideImageId,closeDate,closeCause,successorCorporateNumber,changeCause,assignmentDate,latest,enName,enPrefectureName,enCityName,enAddressOutside,furigana,hihyoji
16,1010401029909,登記記録の閉鎖等,0,2023-06-23,2023-06-05,株式会社山田栄一商店,,株式会社,東京都,港区,海岸３丁目１８番２６号,,13,103,1080022,,,2023-06-05,清算の結了等,,,2022-09-29,1,,,,,,0
31,1010901031620,登記記録の閉鎖等,0,2023-06-23,2023-06-20,株式会社山口設備,,株式会社,東京都,世田谷区,上祖師谷２丁目２１番１６号,,13,112,1570065,,,2023-06-20,清算の結了等,,,2015-10-05,1,,,,,ヤマグチセツビ,0
65,1011801026041,登記記録の閉鎖等,0,2023-06-23,2023-06-21,株式会社ラズペース,,株式会社,東京都,台東区,東上野３丁目１５番１４号,,13,106,1100015,,,2023-06-21,清算の結了等,,,2015-10-05,1,,,,,ラズペース,0
71,1020001111421,登記記録の閉鎖等,0,2023-06-23,2023-06-16,株式会社ＭＡＴＡＧＩ,,株式会社,神奈川県,横浜市港南区,下永谷５丁目７１番１２号,,14,111,2330016,,,2023-06-16,清算の結了等,,,2015-10-05,1,,,,,マタギ,0
76,1020002007701,登記記録の閉鎖等,0,2023-06-23,2023-06-16,有限会社小畑牛乳店,,有限会社,神奈川県,横浜市金沢区,町屋町５番６号,,14,108,2360022,,,2023-06-16,清算の結了等,,,2015-10-05,1,,,,,オバタギュウニュウテン,0
79,1020003014465,登記記録の閉鎖等,0,2023-06-23,2023-06-16,合同会社ＧＡ－ＴＲＵＳＴ,,合同会社,神奈川県,横浜市緑区,長津田みなみ台１丁目１５番地３－２０２,,14,113,2260018,,,2023-06-16,清算の結了等,,,2018-06-15,1,,,,,ジーエートラスト,0
91,1030001146549,登記記録の閉鎖等,0,2023-06-23,2023-06-06,星野商事株式会社,,株式会社,埼玉県,ふじみ野市,清見２丁目１番地４１,,11,245,3560002,,,2023-06-06,清算の結了等,,,2022-01-27,1,,,,,ホシノショウジ,0
93,1030002032062,登記記録の閉鎖等,0,2023-06-23,2023-06-13,有限会社大和土木興業,,有限会社,埼玉県,所沢市,宮本町１丁目８番１４号,,11,208,3591143,,,2023-06-13,清算の結了等,,,2015-10-05,1,,,,,ヤマトドボクコウギョウ,0
94,1030002069856,登記記録の閉鎖等,0,2023-06-23,2023-06-09,有限会社山一,,有限会社,埼玉県,南埼玉郡宮代町,字西原５４０番地２,,11,442,3450817,,,2023-06-09,清算の結了等,,,2015-10-05,1,,,,,ヤマイチ,0
108,1040003010322,登記記録の閉鎖等,0,2023-06-23,2023-05-24,合同会社セラーピュタージャパン,,合同会社,千葉県,香取市,丁子８２９番地５,,12,236,2870018,,,2023-05-24,清算の結了等,,,2017-07-07,1,,,,,セラーピュタージャパン,0
118,1060002004307,登記記録の閉鎖等,0,2023-06-23,2023-06-13,有限会社サカヤ園芸,,有限会社,栃木県,宇都宮市,雀の宮１丁目３番１号,,09,201,3210132,,,2023-06-13,清算の結了等,,,2015-10-05,1,,,,,サカヤエンゲイ,0
121,1060002026359,登記記録の閉鎖等,0,2023-06-23,2023-06-13,有限会社コバヤシ,,有限会社,栃木県,大田原市,黒羽向町３１８番地,,09,210,3240241,,,2023-06-13,清算の結了等,,,2015-10-05,1,,,,,コバヤシ,0
123,1060003003976,登記記録の閉鎖等,0,2023-06-23,2023-06-13,ＫＥＮＧＯＯ合同会社,,合同会社,栃木県,さくら市,卯の里４丁目５６番地１アザレヤサンハイムＡ２０４,,09,214,3291323,,,2023-06-13,清算の結了等,,,2022-03-11,1,,,,,ケングー,0
143,1120001216508,登記記録の閉鎖等,0,2023-06-23,2023-06-19,株式会社メディケーション,,株式会社,大阪府,大阪市東住吉区,南田辺１丁目１０－２３,,27,121,5460033,,,2023-06-19,清算の結了等,,,2018-10-12,1,,,,,メディケーション,0
155,1122001019213,登記記録の閉鎖等,0,2023-06-23,2023-06-20,株式会社高千穂精機,,株式会社,大阪府,八尾市,太田新町７丁目１７番地,,27,212,5810039,,,2023-06-20,清算の結了等,,,2015-10-05,1,,,,,タカチホセイキ,0
163,1140002048650,登記記録の閉鎖等,0,2023-06-23,2023-06-20,有限会社三幸,,有限会社,兵庫県,姫路市,延末２９５番地,,28,201,6700966,,,2023-06-20,清算の結了等,,,2015-10-05,1,,,,,サンコウ,0
172,1180001101893,登記記録の閉鎖等,0,2023-06-23,2023-06-21,株式会社ＥＲＣデザイン,,株式会社,愛知県,名古屋市千種区,今池５丁目１番５号,,23,101,4640850,,,2023-06-21,清算の結了等,,,2015-10-05,1,,,,,イーアールシーデザイン,0
174,1180001134571,登記記録の閉鎖等,0,2023-06-23,2023-06-19,株式会社タツショウ,,株式会社,岐阜県,羽島市,福寿町間島４丁目１１番地,,21,209,5016251,,,2023-06-19,清算の結了等,,,2018-11-27,1,,,,,タツショウ,0
179,1180002019193,登記記録の閉鎖等,0,2023-06-23,2023-06-21,福島重機有限会社,,有限会社,愛知県,名古屋市中川区,清船町４丁目１番地,,23,110,4540832,,,2023-06-21,清算の結了等,,,2015-10-05,1,,,,,フクシマジュウキ,0
180,1180002057326,登記記録の閉鎖等,0,2023-06-23,2023-06-21,ソフティーショット有限会社,,有限会社,愛知県,名古屋市名東区,朝日が丘８番地,,23,115,4650041,,,2023-06-21,清算の結了等,,,2015-10-05,1,,,,,ソフティーショット,0
182,1180303004613,登記記録の閉鎖等,0,2023-06-23,2023-06-16,合同会社サンクリッジ,,合同会社,愛知県,豊川市,四ツ谷町３丁目８４番地１,,23,207,4420839,,,2023-06-16,清算の結了等,,,2020-04-17,1,,,,,サンクリッジ,0
187,1190003003006,登記記録の閉鎖等,0,2023-06-23,2023-06-13,合同会社金元宝,,合同会社,三重県,三重郡菰野町,大字菰野９７４番地１,,24,341,5101233,,,2023-06-13,清算の結了等,,,2018-11-08,1,,,,,キンゲンポウ,0
188,1200001011074,登記記録の閉鎖等,0,2023-06-23,2023-06-20,株式会社三友製作所,,株式会社,岐阜県,羽島市,正木町南及５丁目５８番地,,21,209,5016211,,,2023-06-20,清算の結了等,,,2015-10-05,1,,,,,サンユウセイサクショ,0
193,1200002025585,登記記録の閉鎖等,0,2023-06-23,2023-06-20,有限会社テレホン高山通信サービス,,有限会社,岐阜県,高山市,江名子町１７２２番地の２,,21,203,5060818,,,2023-06-20,清算の結了等,,,2015-10-05,1,,,,,テレホンタカヤマツウシンサービス,0
199,1240002046875,登記記録の閉鎖等,0,2023-06-23,2023-06-22,有限会社ワイエム企画,,有限会社,広島県,府中市,高木町３７１番地の１,,34,208,7260013,,,2023-06-22,清算の結了等,,,2015-10-05,1,,,,,ワイエムキカク,0
204,1270002002108,登記記録の閉鎖等,0,2023-06-23,2023-06-14,有限会社鳥取体器,,有限会社,鳥取県,鳥取市,湖山町南５丁目３６４番地,,31,201,6800945,,,2023-06-14,清算の結了等,,,2015-10-05,1,,,,,トットリタイキ,0
207,1270003000993,登記記録の閉鎖等,0,2023-06-23,2023-06-12,合同会社ＴＯＮＳＵＬ,,合同会社,鳥取県,八頭郡若桜町,大字小船８３３番地１,,31,325,6800734,,,2023-06-12,清算の結了等,,,2017-07-26,1,,,,,,0
210,1290002039684,登記記録の閉鎖等,0,2023-06-23,2023-06-19,有限会社テクニカルトップ,,有限会社,福岡県,大野城市,筒井２丁目１８番１号,,40,219,8160931,,,2023-06-19,清算の結了等,,,2015-10-05,1,,,,,テクニカルトップ,0
213,1300001009694,登記記録の閉鎖等,0,2023-06-23,2023-06-21,株式会社ＫＡＮＷＡ　ＪＡＰＡＮ,,株式会社,佐賀県,佐賀市,本庄町大字鹿子１６番地１,,41,201,8400025,,,2023-06-21,清算の結了等,,,2015-10-05,1,,,,,カンワジャパン,0
232,1360003007757,登記記録の閉鎖等,0,2023-06-23,2023-06-19,パイオニアリゾートバス合同会社,,合同会社,沖縄県,豊見城市,字与根４９０番地１４号,,47,212,9010224,,,2023-06-19,清算の結了等,,,2016-09-08,1,,,,,パイオニアリゾートバス,0
236,1390002012714,登記記録の閉鎖等,0,2023-06-23,2023-06-19,有限会社カメラの秀映社,,有限会社,山形県,米沢市,金池１丁目４番２２号,,06,202,9920012,,,2023-06-19,清算の結了等,,,2015-10-05,1,,,,,カメラノシュウエイシャ,0
239,1420002001597,登記記録の閉鎖等,0,2023-06-23,2023-06-20,有限会社海彦つり具店,,有限会社,青森県,青森市,中央１丁目１番１６号,,02,201,0300822,,,2023-06-20,清算の結了等,,,2015-10-05,1,,,,,ウミヒコツリグテン,0
248,1460102007318,登記記録の閉鎖等,0,2023-06-23,2023-06-19,有限会社焼肉王国,,有限会社,北海道,河西郡芽室町,東六条９丁目１番地１１,,01,637,0820016,,,2023-06-19,清算の結了等,,,2015-10-05,1,,,,,ヤキニクオウコク,0
250,1460305001225,登記記録の閉鎖等,0,2023-06-23,2023-06-21,北見林業協同組合,,その他の設立登記法人,北海道,北見市,相内町２１４番地,,01,208,0990871,,,2023-06-21,清算の結了等,,,2015-10-05,1,,,,,,0
253,1490001006038,登記記録の閉鎖等,0,2023-06-23,2023-06-21,株式会社ブレイブ,,株式会社,高知県,土佐市,高岡町甲２００５番地２,,39,205,7811101,,,2023-06-21,清算の結了等,,,2015-10-05,1,,,,,ブレイブ,0
262,2010001090459,登記記録の閉鎖等,0,2023-06-23,2023-06-14,日本トータルファイナンス株式会社,,株式会社,東京都,千代田区,九段北１丁目１２番３号,,13,101,1020073,,,2023-06-14,清算の結了等,,,2022-06-02,1,,,,,ニホントータルファイナンス,0
269,2010101009037,登記記録の閉鎖等,0,2023-06-23,2023-06-20,株式会社ケーピーエム,,株式会社,東京都,八王子市,石川町１６７２番地２３,,13,201,1920032,,,2023-06-20,清算の結了等,,,2015-10-05,1,,,,,ケーピーエム,0
302,2011102002864,登記記録の閉鎖等,0,2023-06-23,2023-06-20,有限会社母屋,,有限会社,東京都,新宿区,歌舞伎町１丁目１５番８号,,13,104,1600021,,,2023-06-20,清算の結了等,,,2015-10-05,1,,,,,オモヤ,0
309,2011401003737,登記記録の閉鎖等,0,2023-06-23,2023-06-21,株式会社大成社紙業,,株式会社,東京都,板橋区,坂下３丁目４番５号,,13,119,1740043,,,2023-06-21,清算の結了等,,,2015-10-05,1,,,,,タイセイシャシギョウ,0
311,2011502015359,登記記録の閉鎖等,0,2023-06-23,2023-06-20,ＹＫコーチング有限会社,,有限会社,東京都,北区,赤羽北１丁目１５番５－７１１号ソルフェスタ赤羽,,13,117,1150052,,,2023-06-20,清算の結了等,,,2015-10-05,1,,,,,ワイケイコーチング,0
313,2011601002051,登記記録の閉鎖等,0,2023-06-23,2023-06-21,株式会社富士技研,,株式会社,東京都,練馬区,大泉学園町７丁目２６番５号,,13,120,1780061,,,2023-06-21,合併による解散等,3010001072027,令和５年６月１５日東京都中野区野方一丁目３９番８号上野ビル４０３株式会社一二三興商（3010001072027）に合併し解散,2015-10-05,1,,,,,フジギケン,0
317,2011602005243,登記記録の閉鎖等,0,2023-06-23,2023-06-21,白石工業有限会社,,有限会社,東京都,練馬区,北町６丁目２８番３号,,13,120,1790081,,,2023-06-21,清算の結了等,,,2015-10-05,1,,,,,,0
318,2011701016372,登記記録の閉鎖等,0,2023-06-23,2023-06-21,株式会社アシスト,,株式会社,東京都,江戸川区,北小岩３丁目１３番１０号,,13,123,1330051,,,2023-06-21,清算の結了等,,,2015-10-05,1,,,,,アシスト,0
324,2011802010142,登記記録の閉鎖等,0,2023-06-23,2023-06-20,有限会社梅木興業,,有限会社,東京都,足立区,大谷田５丁目２９番６－５０１号,,13,121,1200001,,,2023-06-20,清算の結了等,,,2015-10-05,1,,,,,ウメキコウギョウ,0
345,2021001070994,登記記録の閉鎖等,0,2023-06-23,2023-06-19,株式会社ミモザ,,株式会社,神奈川県,座間市,栗原中央４丁目１９番１３号,,14,216,2520014,,,2023-06-19,清算の結了等,,,2020-10-08,1,,,,,ミモザ,0
354,2030001111543,登記記録の閉鎖等,0,2023-06-23,2023-06-07,トリノスリフォーム株式会社,,株式会社,埼玉県,富士見市,諏訪１丁目７番７号,,11,235,3540023,,,2023-06-07,清算の結了等,,,2015-11-27,1,,,,,トリノスリフォーム,0
360,2030002090885,登記記録の閉鎖等,0,2023-06-23,2023-06-07,有限会社ワールド・セン,,有限会社,埼玉県,越谷市,蒲生愛宕町８番４号セジュールアタゴＢ１０６,,11,222,3430834,,,2023-06-07,清算の結了等,,,2015-10-05,1,,,,,ワールドセン,0
383,2080002012918,登記記録の閉鎖等,0,2023-06-23,2023-06-19,有限会社アンブレイト,,有限会社,静岡県,静岡市清水区,村松１丁目２番４０号,,22,103,4240926,,,2023-06-19,清算の結了等,,,2015-10-05,1,,,,,アンブレイト,0
384,2080102004369,登記記録の閉鎖等,0,2023-06-23,2023-06-21,有限会社大興機器,,有限会社,静岡県,裾野市,平松５５７番地の１,,22,220,4101127,,,2023-06-21,清算の結了等,,,2015-10-05,1,,,,,タイコウキキ,0
387,2100001001043,登記記録の閉鎖等,0,2023-06-23,2023-06-19,株式会社佐藤測量設計社,,株式会社,長野県,長野市,大字小柴見５８番地２７,,20,201,3800942,,,2023-06-19,清算の結了等,,,2015-10-05,1,,,,,サトウソクリョウセッケイシャ,0
388,2100002002973,登記記録の閉鎖等,0,2023-06-23,2023-06-15,有限会社マツハシ企画,,有限会社,長野県,長野市,若里３丁目１９番３号,,20,201,3800928,,,2023-06-15,清算の結了等,,,2015-10-05,1,,,,,マツハシキカク,0
414,2140001051084,登記記録の閉鎖等,0,2023-06-23,2023-06-20,扶桑興業株式会社,,株式会社,兵庫県,尼崎市,南塚口町２丁目１７番１－４１１号,,28,202,6610012,,,2023-06-20,清算の結了等,,,2015-10-05,1,,,,,,0
423,2180001030159,登記記録の閉鎖等,0,2023-06-23,2023-06-21,株式会社カムズ,,株式会社,愛知県,名古屋市中村区,名駅１丁目１番１号,,23,105,4500002,,,2023-06-21,清算の結了等,,,2015-10-05,1,,,,,カムズ,0
436,2220002008769,登記記録の閉鎖等,0,2023-06-23,2023-06-19,有限会社Ｈａｉｒ　ｆｅｅｌｓ　ＬＵＩＳ,,有限会社,石川県,金沢市,神宮寺２丁目２番１１号,,17,201,9200806,,,2023-06-19,清算の結了等,,,2015-10-05,1,,,,,,0
446,2260002022790,登記記録の閉鎖等,0,2023-06-23,2023-06-20,有限会社野村鳶工業,,有限会社,岡山県,倉敷市,神田４丁目３番１号,,33,202,7128061,,,2023-06-20,清算の結了等,,,2015-10-05,1,,,,,ノムラトビコウギョウ,0
449,2290001047299,登記記録の閉鎖等,0,2023-06-23,2023-06-19,聖光測量設計株式会社,,株式会社,福岡県,八女市,本町２２８番地１,,40,210,8340031,,,2023-06-19,清算の結了等,,,2015-10-05,1,,,,,,0
460,2300001012581,登記記録の閉鎖等,0,2023-06-23,2023-06-15,株式会社ドライバーズエンジン,,株式会社,佐賀県,伊万里市,山代町久原２９７６番地２２,,41,205,8494256,,,2023-06-15,清算の結了等,,,2021-08-11,1,,,,,ドライバーズエンジン,0
484,2370001024513,登記記録の閉鎖等,0,2023-06-23,2023-06-22,日本アゼル株式会社,,株式会社,宮城県,仙台市若林区,大和町３丁目２番５号,,04,103,9840042,,,2023-06-22,清算の結了等,,,2015-10-05,1,,,,,ニホンアゼル,0
504,2430001070138,登記記録の閉鎖等,0,2023-06-23,2023-06-02,株式会社Ｙサポート,,株式会社,北海道,白老郡白老町,字石山１１８番地１,,01,578,0590921,,,2023-06-02,清算の結了等,,,2015-10-26,1,,,,,ワイサポート,0
519,2500005000587,登記記録の閉鎖等,0,2023-06-23,2023-06-21,医療法人岡田皮膚科医院,,その他の設立登記法人,愛媛県,松山市,内宮町６番地１サントノーレ内宮１００３号,,38,201,7992654,,,2023-06-21,清算の結了等,,,2015-10-05,1,,,,,オカダヒフカイイン,0
524,3010001052986,登記記録の閉鎖等,0,2023-06-23,2023-06-16,ナカジマパツケージ株式会社,,株式会社,東京都,中央区,日本橋人形町１丁目１９番５号,,13,102,1030013,,,2023-06-16,清算の結了等,,,2015-10-05,1,,,,,ナカジマパツケージ,0
532,3010001201295,登記記録の閉鎖等,0,2023-06-23,2023-06-15,株式会社セレソンジャパン,,株式会社,東京都,千代田区,神田佐久間町１丁目８番４号アルテール秋葉原７０８,,13,101,1010025,,,2023-06-15,清算の結了等,,,2019-06-04,1,,,,,セレソンジャパン,0
535,3010002005539,登記記録の閉鎖等,0,2023-06-23,2023-06-16,有限会社本田運送店,,有限会社,東京都,文京区,後楽２丁目２２番５号,,13,105,1120004,,,2023-06-16,清算の結了等,,,2015-10-05,1,,,,,ホンダウンソウテン,0
554,3010801026784,登記記録の閉鎖等,0,2023-06-23,2023-06-19,ＴＳＫ株式会社,,株式会社,東京都,大田区,西蒲田７丁目７０番１号,,13,111,1440051,,,2023-06-19,清算の結了等,,,2016-06-09,1,,,,,ティーエスケー,0
585,3012402013690,登記記録の閉鎖等,0,2023-06-23,2023-06-22,有限会社ポニー,,有限会社,東京都,調布市,調布ケ丘１丁目１８番地１,,13,208,1820021,,,2023-06-22,清算の結了等,,,2015-10-05,1,,,,,ポニー,0
587,3012701011412,登記記録の閉鎖等,0,2023-06-23,2023-05-23,株式会社ステイブル,,株式会社,東京都,小平市,小川町１丁目９４３番地６,,13,211,1870032,,,2023-05-23,清算の結了等,,,2015-10-05,1,,,,,ステイブル,0
589,3012802004455,登記記録の閉鎖等,0,2023-06-23,2023-06-19,有限会社佐々木工業,,有限会社,東京都,武蔵村山市,残堀２丁目１４番地の２０,,13,223,2080034,,,2023-06-19,清算の結了等,,,2015-10-05,1,,,,,ササキコウギョウ,0
607,3020001049692,登記記録の閉鎖等,0,2023-06-23,2023-06-16,株式会社ＫＥＮ一級建築士事務所,,株式会社,神奈川県,横浜市港北区,新横浜２丁目２番地８新横浜ナラビル１階,,14,109,2220033,,,2023-06-16,清算の結了等,,,2015-10-05,1,,,,,ケンイッキュウケンチクシジムショ,0
616,3021001009397,登記記録の閉鎖等,0,2023-06-23,2023-06-19,株式会社花重,,株式会社,神奈川県,鎌倉市,御成町１２－１２片岡ビル１階,,14,204,2480012,,,2023-06-19,清算の結了等,,,2015-10-05,1,,,,,,0
626,3030001028233,登記記録の閉鎖等,0,2023-06-23,2023-05-25,株式会社ピア２１インターナショナル,,株式会社,埼玉県,飯能市,茜台２丁目３番４,,11,209,3570069,,,2023-05-25,合併による解散等,7030001027462,令和５年４月１０日埼玉県飯能市茜台二丁目３番４株式会社ピアニジュウイチ（7030001027462）に合併し解散,2015-10-05,1,,,,,ピアニジュウイチインターナショナル,0
629,3030001134262,登記記録の閉鎖等,0,2023-06-23,2023-06-22,株式会社トップシステム,,株式会社,東京都,新宿区,高田馬場４丁目４番１１号,,13,104,1690075,,,2023-06-22,清算の結了等,,,2019-12-12,1,,,,,トップシステム,0
634,3030003014727,登記記録の閉鎖等,0,2023-06-23,2023-06-07,合同会社ベトナムハート,,合同会社,埼玉県,久喜市,除堀１２１４番地,,11,232,3460027,,,2023-06-07,清算の結了等,,,2020-01-28,1,,,,,ベトナムハート,0
636,3040001055391,登記記録の閉鎖等,0,2023-06-23,2023-06-07,株式会社ブル倶楽部,,株式会社,千葉県,市原市,鶴舞４８２番地,,12,219,2900512,,,2023-06-07,清算の結了等,,,2015-10-05,1,,,,,ブルクラブ,0
650,3050001018562,登記記録の閉鎖等,0,2023-06-23,2023-06-19,株式会社森川不動産,,株式会社,茨城県,古河市,本町２丁目１６番１２号,,08,204,3060023,,,2023-06-19,清算の結了等,,,2015-10-05,1,,,,,モリカワフドウサン,0
656,3050002031028,登記記録の閉鎖等,0,2023-06-23,2023-06-15,有限会社東亜印刷,,有限会社,茨城県,日立市,東金沢町２丁目２３番１４号,,08,202,3160014,,,2023-06-15,清算の結了等,,,2015-10-05,1,,,,,トウアインサツ,0
672,3120001021195,登記記録の閉鎖等,0,2023-06-23,2023-06-22,ニシキ電業株式会社,,株式会社,大阪府,大阪市平野区,背戸口２丁目１５番２号,,27,126,5470034,,,2023-06-22,清算の結了等,,,2015-10-05,1,,,,,ニシキデンギョウ,0
679,3120002021459,登記記録の閉鎖等,0,2023-06-23,2023-06-20,鳳建物有限会社,,有限会社,兵庫県,西宮市,山口町上山口３丁目１６番１０号,,28,204,6511421,,,2023-06-20,清算の結了等,,,2015-10-05,1,,,,,オオトリタテモノ,0
694,3130001021921,登記記録の閉鎖等,0,2023-06-23,2023-06-20,株式会社中西賢商店,,株式会社,京都府,京都市中京区,押小路通西大路西入西ノ京東中合町４番地,,26,104,6040000,,,2023-06-20,清算の結了等,,,2015-10-05,1,,,,,ナカニシケンショウテン,0
698,3130002019601,登記記録の閉鎖等,0,2023-06-23,2023-06-20,有限会社ワイ・ティー・ティー,,有限会社,京都府,京都市西京区,御陵峰ケ堂町２丁目１番地３,,26,111,6101103,,,2023-06-20,清算の結了等,,,2015-10-05,1,,,,,ワイティーティー,0
701,3140001049763,登記記録の閉鎖等,0,2023-06-23,2023-06-19,ダイヤ自動車工業株式会社,,株式会社,兵庫県,尼崎市,大高洲町３番地,,28,202,6600842,,,2023-06-19,清算の結了等,,,2015-10-05,1,,,,,ダイヤジドウシャコウギョウ,0
711,3180003023589,登記記録の閉鎖等,0,2023-06-23,2023-06-21,合同会社青山大岳,,合同会社,愛知県,名古屋市西区,那古野２丁目１４－１なごのキャンパス,,23,104,4510042,,,2023-06-21,清算の結了等,,,2022-03-08,1,,,,,アオヤマダイガク,0
713,3190001001562,登記記録の閉鎖等,0,2023-06-23,2023-06-19,株式会社イシカワキカイ,,株式会社,三重県,津市,安濃町草生３５２９番地,,24,201,5142328,,,2023-06-19,清算の結了等,,,2015-10-05,1,,,,,イシカワキカイ,0
729,3260002006041,登記記録の閉鎖等,0,2023-06-23,2023-06-21,有限会社武寿園,,有限会社,岡山県,岡山市中区,桜橋２丁目１９番１１号,,33,102,7038285,,,2023-06-21,清算の結了等,,,2015-10-05,1,,,,,タケジュエン,0
732,3270002000282,登記記録の閉鎖等,0,2023-06-23,2023-06-14,栄和有限会社,,有限会社,鳥取県,鳥取市,西品治８３６番地２,,31,201,6800811,,,2023-06-14,清算の結了等,,,2015-10-05,1,,,,,エイワ,0
733,3290001025089,登記記録の閉鎖等,0,2023-06-23,2023-06-20,株式会社大手門スタジオ,,株式会社,福岡県,福岡市博多区,上川端町１０番２５５号４０２号室,,40,132,8120026,,,2023-06-20,清算の結了等,,,2015-10-05,1,,,,,オオテモンスタジオ,0
747,3330001009847,登記記録の閉鎖等,0,2023-06-23,2023-06-19,株式会社ペティーナ,,株式会社,熊本県,菊池郡大津町,大字杉水３５４２番地の６２,,43,403,8691236,,,2023-06-19,清算の結了等,,,2015-10-05,1,,,,,ペティーナ,0
750,3340001000078,登記記録の閉鎖等,0,2023-06-23,2023-06-22,シナジー通商株式会社,,株式会社,鹿児島県,鹿児島市,唐湊１丁目４番２－１２０８号,,46,201,8900081,,,2023-06-22,清算の結了等,,,2015-10-05,1,,,,,,0
760,3370001016047,登記記録の閉鎖等,0,2023-06-23,2023-06-22,株式会社おだや,,株式会社,宮城県,仙台市宮城野区,二の森１６番３２号,,04,102,9830838,,,2023-06-22,清算の結了等,,,2015-10-05,1,,,,,,0
761,3370001021575,登記記録の閉鎖等,0,2023-06-23,2023-06-22,イッコークリエート株式会社,,株式会社,宮城県,仙台市青葉区,国分町２丁目５番３号,,04,101,9800803,,,2023-06-22,清算の結了等,,,2015-10-05,1,,,,,イッコークリエート,0
770,3370005001152,登記記録の閉鎖等,0,2023-06-23,2023-06-21,医療法人社団泉崎内科クリニック,,その他の設立登記法人,宮城県,仙台市太白区,泉崎１丁目２０番２８号,,04,104,9820031,,,2023-06-21,清算の結了等,,,2015-10-05,1,,,,,イズミザキナイカクリニック,0
776,3390002010212,登記記録の閉鎖等,0,2023-06-23,2023-06-20,藤レンター有限会社,,有限会社,山形県,鶴岡市,新屋敷字前田元９７番地,,06,203,9997682,,,2023-06-20,清算の結了等,,,2015-10-05,1,,,,,フジレンター,0
809,4010003004290,登記記録の閉鎖等,0,2023-06-23,2023-06-15,合資会社コーエン,,合資会社,東京都,千代田区,九段南４丁目２番９号,,13,101,1020074,,,2023-06-15,清算の結了等,,,2015-10-05,1,,,,,コーエン,0
812,4010005028214,登記記録の閉鎖等,0,2023-06-23,2023-06-21,Ｒｅｓｉ　Ｍｉｍｏｓａ一般社団法人,,その他の設立登記法人,東京都,千代田区,丸の内３丁目１番１号東京共同会計事務所内,,13,101,1000005,,,2023-06-21,清算の結了等,,,2018-03-07,1,,,,,レジミモザ,0
815,4010401107414,登記記録の閉鎖等,0,2023-06-23,2023-06-19,株式会社プログレスト,,株式会社,大阪府,大阪市北区,西天満２丁目８番５号西天満大治ビル２階,,27,127,5300047,,,2023-06-19,清算の結了等,,,2015-10-05,1,,,,,,0
830,4010601061015,登記記録の閉鎖等,0,2023-06-23,2023-05-26,株式会社Ｌａｓｈｕｌ,,株式会社,東京都,江東区,有明３丁目７番２６号,,13,108,1350063,,,2023-05-26,清算の結了等,,,2022-04-19,1,,,,,ラシュル,0
838,4010803002898,登記記録の閉鎖等,0,2023-06-23,2023-06-20,合同会社矢口管理,,合同会社,東京都,大田区,東矢口３丁目６番２１号ＶＩＬＬＡＧＥ２０２,,13,111,1460094,,,2023-06-20,清算の結了等,,,2019-01-17,1,,,,,ヤグチカンリ,0
839,4010805000652,登記記録の閉鎖等,0,2023-06-23,2023-06-20,医療法人社団慈栄会,,その他の設立登記法人,東京都,大田区,中馬込１丁目１番２０号,,13,111,1430027,,,2023-06-20,清算の結了等,,,2015-10-05,1,,,,,ジエイカイ,0
851,4011001126523,登記記録の閉鎖等,0,2023-06-23,2023-06-20,株式会社エンビジョン,,株式会社,東京都,渋谷区,神宮前６丁目２７番８号,,13,113,1500001,,,2023-06-20,合併による解散等,6030001012597,令和５年６月１日埼玉県さいたま市大宮区下町二丁目１６番地１株式会社ボーダーリンク（6030001012597）に合併し解散,2019-02-12,1,,,,,エンビジョン,0
855,4011101018422,登記記録の閉鎖等,0,2023-06-23,2023-05-12,株式会社フオトアーク,,株式会社,東京都,新宿区,喜久井町６５番地－１－４０３,,13,104,1620044,,,2023-05-12,清算の結了等,,,2015-10-05,1,,,,,,0
870,4011702006065,登記記録の閉鎖等,0,2023-06-23,2023-06-21,有限会社鈴木ファーム,,有限会社,東京都,江戸川区,平井６丁目４０番１号,,13,123,1320035,,,2023-06-21,清算の結了等,,,2015-10-05,1,,,,,スズキファーム,0
873,4011802030106,登記記録の閉鎖等,0,2023-06-23,2023-06-12,有限会社サラ・プランニング,,有限会社,東京都,豊島区,池袋４丁目１番１１号－２階,,13,116,1710014,,,2023-06-12,清算の結了等,,,2015-10-05,1,,,,,サラプランニング,0
874,4012301009384,登記記録の閉鎖等,0,2023-06-23,2023-06-21,株式会社１００ｚｏｎｅ,,株式会社,神奈川県,相模原市中央区,鹿沼台２丁目９番２０－７０７号,,14,152,2520233,,,2023-06-21,合併による解散等,5080102006478,令和５年６月２日東京都町田市森野四丁目１－８株式会社デルフィナ（5080102006478）に合併し解散,2015-10-05,1,,,,,,0
875,4012401034588,登記記録の閉鎖等,0,2023-06-23,2023-06-22,株式会社ＣｏｃｏＬｉｎｋｓ,,株式会社,東京都,多摩市,中沢１丁目１５番地の１４,,13,224,2060036,,,2023-06-22,清算の結了等,,,2018-10-26,1,,,,,ココリンクス,0
882,4020001116541,登記記録の閉鎖等,0,2023-06-23,2023-06-16,マルイチ興業株式会社,,株式会社,神奈川県,横浜市中区,弥生町５丁目４８番地７パルナス阪東橋４０２号室,,14,104,2310058,,,2023-06-16,清算の結了等,,,2016-06-08,1,,,,,マルイチコウギョウ,0
905,4030001118132,登記記録の閉鎖等,0,2023-06-23,2023-05-29,株式会社高尾材木店,,株式会社,埼玉県,八潮市,大字八條５５２番地２,,11,234,3400801,,,2023-05-29,清算の結了等,,,2017-01-17,1,,,,,タカオザイモクテン,0
910,4030002094414,登記記録の閉鎖等,0,2023-06-23,2023-06-09,有限会社根岸工務店,,有限会社,埼玉県,比企郡鳩山町,大字熊井８７２番地,,11,348,3500303,,,2023-06-09,清算の結了等,,,2015-10-05,1,,,,,ネギシコウムテン,0
911,4030002111838,登記記録の閉鎖等,0,2023-06-23,2023-06-08,有限会社グローブ,,有限会社,埼玉県,川口市,江戸１丁目４番９号,,11,203,3340074,,,2023-06-08,清算の結了等,,,2015-10-05,1,,,,,グローブ,0
912,4030003019345,登記記録の閉鎖等,0,2023-06-23,2023-06-05,信義合同会社,,合同会社,埼玉県,川口市,西川口１丁目１８番３号クリオ西川口壱番館９０２,,11,203,3320021,,,2023-06-05,清算の結了等,,,2022-05-06,1,,,,,シンギ,0
915,4040001091304,登記記録の閉鎖等,0,2023-06-23,2023-06-07,株式会社ＭＭＪ,,株式会社,千葉県,流山市,松ケ丘２丁目３３６番地の１０,,12,220,2700141,,,2023-06-07,清算の結了等,,,2015-10-05,1,,,,,エムエムジェイ,0
926,4050001048121,登記記録の閉鎖等,0,2023-06-23,2023-06-16,株式会社ＳＬＣエネルギー,,株式会社,茨城県,笠間市,五平６１番地１０,,08,216,3091702,,,2023-06-16,合併による解散等,9050001034356,令和５年６月１５日茨城県笠間市五平６１番地１０株式会社サンライフコーポレーション（9050001034356）に合併し解散,2020-10-08,1,,,,,エスエルシーエネルギー,0
931,4080001021439,登記記録の閉鎖等,0,2023-06-23,2023-06-21,三ユウ水産株式会社,,株式会社,静岡県,焼津市,上小杉１０７７番地の１,,22,212,4210201,,,2023-06-21,清算の結了等,,,2017-03-06,1,,,,,サンユウスイサン,0
934,4080102014077,登記記録の閉鎖等,0,2023-06-23,2023-06-22,新光石油有限会社,,有限会社,静岡県,富士市,中央町２丁目４番２２号,,22,210,4170052,,,2023-06-22,清算の結了等,,,2015-10-05,1,,,,,シンコウセキユ,0
939,4110001020115,登記記録の閉鎖等,0,2023-06-23,2023-06-16,株式会社ジャック,,株式会社,新潟県,上越市,大字上島４６４番地１,,15,222,9430165,,,2023-06-16,清算の結了等,,,2015-10-05,1,,,,,ジャック,0
943,4120001247954,登記記録の閉鎖等,0,2023-06-23,2023-06-21,ＭＪＣホールディングス株式会社,,株式会社,大阪府,大阪市北区,梅田１丁目１番３号大阪駅前第３ビル２９階１－１－１号室,,27,127,5300001,,,2023-06-21,清算の結了等,,,2022-08-05,1,,,,,エムジェイシーホールディングス,0
958,4130001014610,登記記録の閉鎖等,0,2023-06-23,2023-06-20,株式会社シーホース,,株式会社,京都府,京都市伏見区,竹田松林町５２番地,,26,109,6128371,,,2023-06-20,清算の結了等,,,2015-10-05,1,,,,,シーホース,0
961,4140001050068,登記記録の閉鎖等,0,2023-06-23,2023-06-19,株式会社鶴谷製作所,,株式会社,兵庫県,尼崎市,西川１丁目１番２０号,,28,202,6610966,,,2023-06-19,清算の結了等,,,2015-10-05,1,,,,,ツルタニセイサクショ,0
972,4180001074328,登記記録の閉鎖等,0,2023-06-23,2023-06-20,フォトンガッツン株式会社,,株式会社,愛知県,春日井市,大手町１丁目１０６番地,,23,206,4860807,,,2023-06-20,清算の結了等,,,2015-10-05,1,,,,,フォトンガッツン,0
975,4180001113812,登記記録の閉鎖等,0,2023-06-23,2023-06-20,株式会社Ｃ．Ｔ．Ｓ,,株式会社,愛知県,名古屋市名東区,引山４丁目６２３番地２,,23,115,4650002,,,2023-06-20,清算の結了等,,,2015-10-05,1,,,,,シーティーエス,0
978,4180002008292,登記記録の閉鎖等,0,2023-06-23,2023-06-12,有限会社大正産業,,有限会社,愛知県,名古屋市昭和区,広路町字北石坂１０２番地の４４,,23,107,4660834,,,2023-06-12,清算の結了等,,,2015-10-05,1,,,,,タイショウサンギョウ,0
984,4180303004528,登記記録の閉鎖等,0,2023-06-23,2023-06-16,合同会社モンステラ,,合同会社,愛知県,新城市,一鍬田字仮塚２１番地,,23,221,4411338,,,2023-06-16,清算の結了等,,,2020-01-24,1,,,,,モンステラ,0
988,4190002007252,登記記録の閉鎖等,0,2023-06-23,2023-06-20,有限会社山下鉄工所,,有限会社,三重県,鈴鹿市,南玉垣町６８６２番地,,24,207,5130816,,,2023-06-20,清算の結了等,,,2015-10-05,1,,,,,ヤマシタテッコウショ,0
989,4190002017714,登記記録の閉鎖等,0,2023-06-23,2023-06-19,有限会社黒川建築設計室,,有限会社,三重県,員弁郡東員町,笹尾西３丁目３番の６,,24,324,5110231,,,2023-06-19,清算の結了等,,,2015-10-05,1,,,,,クロカワケンチクセッケイシツ,0
1011,4280002007664,登記記録の閉鎖等,0,2023-06-23,2023-06-15,有限会社石東酒販,,有限会社,島根県,大田市,仁摩町仁万８１０番地２,,32,205,6992301,,,2023-06-15,清算の結了等,,,2015-10-05,1,,,,,セキトウシュハン,0
1028,4330001018830,登記記録の閉鎖等,0,2023-06-23,2023-06-15,株式会社モア,,株式会社,熊本県,熊本市北区,植木町植木１０４番地１,,43,105,8610132,,,2023-06-15,合併による解散等,1330001010542,令和５年６月１日熊本県熊本市北区植木町植木１０４番地の１株式会社さくら企画（1330001010542）に合併し解散,2015-10-05,1,,,,,モア,0
1030,4330002019126,登記記録の閉鎖等,0,2023-06-23,2023-06-15,有限会社ユートピア・グリーン,,有限会社,熊本県,熊本市北区,植木町舞尾５９３番地２,,43,105,8610134,,,2023-06-15,合併による解散等,1330001010542,令和５年６月１日熊本県熊本市北区植木町植木１０４番地の１株式会社さくら企画（1330001010542）に合併し解散,2015-10-05,1,,,,,ユートピアグリーン,0
1034,4370001024552,登記記録の閉鎖等,0,2023-06-23,2023-06-22,株式会社山弘,,株式会社,宮城県,仙台市若林区,連坊１丁目１２番２３号,,04,103,9840052,,,2023-06-22,清算の結了等,,,2015-10-05,1,,,,,,0
1067,5010001133958,登記記録の閉鎖等,0,2023-06-23,2023-06-20,エル設計株式会社,,株式会社,東京都,新宿区,揚場町１番３号グロリアビル７階,,13,104,1620824,,,2023-06-20,清算の結了等,,,2015-10-05,1,,,,,エルセッケイ,0
1070,5010001168871,登記記録の閉鎖等,0,2023-06-23,2023-06-16,株式会社パルサス,,株式会社,東京都,文京区,本郷３丁目４３番１３号,,13,105,1130033,,,2023-06-16,清算の結了等,,,2015-10-05,1,,,,,パルサス,0
1073,5010001194059,登記記録の閉鎖等,0,2023-06-23,2023-06-15,日本ＴＣＲマネジメント株式会社,,株式会社,東京都,千代田区,九段南２丁目３番２５号平安堂ビル３階,,13,101,1020074,,,2023-06-15,合併による解散等,8010001102209,令和５年６月１５日東京都千代田区九段南二丁目３番２５号平安堂ビル３階株式会社日本レースプロモーション（8010001102209）に合併し解散,2018-08-10,1,,,,,ニホンティーシーアールマネジメント,0
1107,5011101096112,登記記録の閉鎖等,0,2023-06-23,2023-06-20,株式会社ピーチプロモーション,,株式会社,東京都,新宿区,河田町３番５１－２７１２号,,13,104,1620054,,,2023-06-20,清算の結了等,,,2021-08-27,1,,,,,ピーチプロモーション,0
1109,5011102023825,登記記録の閉鎖等,0,2023-06-23,2023-06-12,有限会社ビィデザインスタジオ,,有限会社,栃木県,那須郡那須町,大字高久甲５８５０－５,,09,407,3250001,,,2023-06-12,清算の結了等,,,2015-10-05,1,,,,,ビィデザインスタジオ,0
1118,5011702017755,登記記録の閉鎖等,0,2023-06-23,2023-06-21,有限会社ＭＥ,,有限会社,東京都,江戸川区,中央２丁目１番２０号,,13,123,1320021,,,2023-06-21,清算の結了等,,,2015-10-05,1,,,,,,0
1119,5012703000717,登記記録の閉鎖等,0,2023-06-23,2023-06-20,合同会社ティアラ,,合同会社,東京都,東村山市,富士見町５丁目８番地１８,,13,213,1890024,,,2023-06-20,清算の結了等,,,2015-10-05,1,,,,,ティアラ,0
1127,5020001109296,登記記録の閉鎖等,0,2023-06-23,2023-06-16,株式会社サム・フードカンパニー,,株式会社,神奈川県,川崎市高津区,千年９５０番地１２,,14,134,2130022,,,2023-06-16,清算の結了等,,,2015-10-05,1,,,,,サムフードカンパニー,0
1137,5021001073714,登記記録の閉鎖等,0,2023-06-23,2023-06-19,株式会社ＲＡＭＳ,,株式会社,神奈川県,秦野市,三屋１０９番地の１１,,14,211,2591303,,,2023-06-19,清算の結了等,,,2021-08-19,1,,,,,ラムズ,0
1145,5030001088779,登記記録の閉鎖等,0,2023-06-23,2023-06-08,株式会社カネサキ,,株式会社,埼玉県,行田市,大字前谷１６８４番地,,11,206,3610038,,,2023-06-08,清算の結了等,,,2015-10-05,1,,,,,カネサキ,0
1149,5030002046629,登記記録の閉鎖等,0,2023-06-23,2023-06-08,有限会社エムテクノ,,有限会社,埼玉県,八潮市,大字新町１７７番地,,11,234,3400807,,,2023-06-08,清算の結了等,,,2015-10-05,1,,,,,エムテクノ,0
1150,5030003013933,登記記録の閉鎖等,0,2023-06-23,2023-06-07,彩コンサルティング合同会社,,合同会社,埼玉県,川越市,脇田本町３１番地１（コスモシティ川越８０６号室）,,11,201,3501123,,,2023-06-07,清算の結了等,,,2019-08-09,1,,,,,アヤコンサルティング,0
1157,5040002063722,登記記録の閉鎖等,0,2023-06-23,2023-06-06,有限会社丸正商会,,有限会社,千葉県,八街市,八街に１３８番地,,12,230,2891103,,,2023-06-06,清算の結了等,,,2015-10-05,1,,,,,マルショウショウカイ,0
1158,5040002092408,登記記録の閉鎖等,0,2023-06-23,2023-06-05,有限会社海老角,,有限会社,千葉県,我孫子市,湖北台３丁目３番１号,,12,222,2701132,,,2023-06-05,清算の結了等,,,2015-10-05,1,,,,,エビカク,0
1167,5060001024665,登記記録の閉鎖等,0,2023-06-23,2023-06-15,Ｗａｓｔｅ　Ｔｒａｄｅ株式会社,,株式会社,栃木県,足利市,大沼田町７３６番地１,,09,202,3260011,,,2023-06-15,清算の結了等,,,2015-10-05,1,,,,,ウエイストトレード,0
1189,5100005007744,登記記録の閉鎖等,0,2023-06-23,2023-06-14,木曽桧・木曽の匠協同組合,,その他の設立登記法人,長野県,木曽郡木曽町,日義４７４３番地,,20,432,3996101,,,2023-06-14,清算の結了等,,,2015-10-05,1,,,,,キソヒノキキソノタクミ,0
1191,5110001021616,登記記録の閉鎖等,0,2023-06-23,2023-06-15,関澤木材株式会社,,株式会社,新潟県,糸魚川市,大字上覚１８番地２,,15,216,9410023,,,2023-06-15,清算の結了等,,,2015-10-05,1,,,,,セキザワモクザイ,0
1193,5110002031507,登記記録の閉鎖等,0,2023-06-23,2023-06-15,有限会社内山運送,,有限会社,新潟県,見附市,嶺崎１丁目６番１３号,,15,211,9540055,,,2023-06-15,清算の結了等,,,2015-10-05,1,,,,,ウチヤマウンソウ,0
1200,5120001221636,登記記録の閉鎖等,0,2023-06-23,2023-06-19,株式会社ビズライブ,,株式会社,大阪府,大阪市北区,西天満２丁目８番５号西天満大治ビル５階,,27,127,5300047,,,2023-06-19,清算の結了等,,,2019-06-12,1,,,,,,0
1207,5120002042057,登記記録の閉鎖等,0,2023-06-23,2023-06-21,有限会社オーティーカンパニー,,有限会社,大阪府,大阪市城東区,今福西５丁目２番２８号,,27,118,5360004,,,2023-06-21,清算の結了等,,,2015-10-05,1,,,,,オーティーカンパニー,0
1244,5180001054691,登記記録の閉鎖等,0,2023-06-23,2023-06-21,株式会社バビーズ,,株式会社,愛知県,名古屋市中村区,亀島１丁目６番１４号,,23,105,4530013,,,2023-06-21,清算の結了等,,,2015-10-05,1,,,,,,0
1245,5180001081942,登記記録の閉鎖等,0,2023-06-23,2023-06-20,愛陸運輸株式会社,,株式会社,愛知県,一宮市,浅野字長池５１番地,,23,203,4910871,,,2023-06-20,清算の結了等,,,2015-10-05,1,,,,,アイリクウンユ,0
1266,5230005000711,登記記録の閉鎖等,0,2023-06-23,2023-06-21,富山県イベントディスプレイ業協同組合,,その他の設立登記法人,富山県,富山市,境野新６２番地５,,16,201,9300153,,,2023-06-21,清算の結了等,,,2015-10-05,1,,,,,トヤマケンイベントディスプレイギョウ,0
1287,5330002002634,登記記録の閉鎖等,0,2023-06-23,2023-06-19,有限会社きもの所たき,,有限会社,熊本県,熊本市東区,小山６丁目６番１１号,,43,102,8618045,,,2023-06-19,清算の結了等,,,2015-10-05,1,,,,,キモノドコロタキ,0
1303,5380005000317,登記記録の閉鎖等,0,2023-06-23,2023-06-19,飯坂石材事業協同組合,,その他の設立登記法人,福島県,福島市,飯坂町字湯町３２－１,,07,201,9600201,,,2023-06-19,清算の結了等,,,2015-10-05,1,,,,,イイザカセキザイ,0
1307,5390002013394,登記記録の閉鎖等,0,2023-06-23,2023-06-16,有限会社マルイチ運送,,有限会社,山形県,米沢市,花沢町９４８番地,,06,202,9920022,,,2023-06-16,清算の結了等,,,2015-10-05,1,,,,,マルイチウンソウ,0
1315,5450002004783,登記記録の閉鎖等,0,2023-06-23,2023-06-19,有限会社フロンティア・システム,,有限会社,北海道,旭川市,豊岡十二条４丁目７番３号,,01,204,0788242,,,2023-06-19,清算の結了等,,,2015-10-05,1,,,,,フロンティアシステム,0
1349,6010602001455,登記記録の閉鎖等,0,2023-06-23,2023-06-19,有限会社加瀬工務店,00051600,有限会社,東京都,江東区,住吉１丁目１９番１７号,,13,108,1350002,,,2023-06-19,清算の結了等,,,2015-10-05,1,,,,,カセコウムテン,0
1354,6010801021477,登記記録の閉鎖等,0,2023-06-23,2023-06-19,株式会社エイチアンドワイ,,株式会社,東京都,大田区,久が原４丁目１７番１３号,,13,111,1460085,,,2023-06-19,清算の結了等,,,2015-10-05,1,,,,,,0
1365,6011101043880,登記記録の閉鎖等,0,2023-06-23,2023-06-21,株式会社ワイティープラン,,株式会社,東京都,新宿区,百人町１丁目２０番１７号,,13,104,1690073,,,2023-06-21,清算の結了等,,,2015-10-05,1,,,,,ワイティープラン,0
1375,6011602009380,登記記録の閉鎖等,0,2023-06-23,2023-06-20,有限会社三河屋,,有限会社,東京都,練馬区,豊玉北５丁目１７番９号,,13,120,1760012,,,2023-06-20,清算の結了等,,,2015-10-05,1,,,,,ミカワヤ,0
1377,6011802017142,登記記録の閉鎖等,0,2023-06-23,2023-06-21,有限会社野島,,有限会社,東京都,足立区,西伊興３丁目３番２２号,,13,121,1210824,,,2023-06-21,清算の結了等,,,2015-10-05,1,,,,,ノジマ,0
1383,6013405000847,登記記録の閉鎖等,0,2023-06-23,2023-06-16,特定非営利活動法人日野コアラ,,その他の設立登記法人,東京都,日野市,多摩平３丁目１７番地の２８,,13,212,1910062,,,2023-06-16,清算の結了等,,,2015-10-05,1,,,,,ヒノコアラ,0
1388,6020002032876,登記記録の閉鎖等,0,2023-06-23,2023-06-19,有限会社大野製作所,,有限会社,神奈川県,横浜市港北区,新羽町２０７６番地,,14,109,2230057,,,2023-06-19,清算の結了等,,,2015-10-05,1,,,,,オオノセイサクショ,0
1391,6020002088530,登記記録の閉鎖等,0,2023-06-23,2023-06-16,京原電設有限会社,,有限会社,神奈川県,川崎市高津区,千年９５０番地１２,,14,134,2130022,,,2023-06-16,清算の結了等,,,2015-10-05,1,,,,,ケイハラデンセツ,0
1395,6021001072863,登記記録の閉鎖等,0,2023-06-23,2023-06-19,株式会社ピーチナッツ,,株式会社,神奈川県,藤沢市,石川１丁目２５番地の２サニーヒル石川ＩＩ６０１号室,00122996,14,205,2520815,,,2023-06-19,清算の結了等,,,2021-05-11,1,,,,,ピーチナッツ,0
1403,6030001102316,登記記録の閉鎖等,0,2023-06-23,2023-06-08,株式会社ＡＫ建設,,株式会社,埼玉県,狭山市,狭山台４丁目４３－３,,11,215,3501304,,,2023-06-08,清算の結了等,,,2015-10-05,1,,,,,,0
1406,6030002092143,登記記録の閉鎖等,0,2023-06-23,2023-06-09,有限会社ウェルフェアー,,有限会社,埼玉県,入間郡越生町,大字上野１０３８番地２３,,11,327,3500415,,,2023-06-09,清算の結了等,,,2015-10-05,1,,,,,ウェルフェアー,0
1413,6040001065009,登記記録の閉鎖等,0,2023-06-23,2023-06-21,株式会社ピット,,株式会社,東京都,台東区,上野１丁目２－６長谷川ビル３Ｆ,,13,106,1100005,,,2023-06-21,清算の結了等,,,2015-10-05,1,,,,,ピット,0
1430,6070005004018,登記記録の閉鎖等,0,2023-06-23,2023-06-21,藤岡小売酒販組合,,その他の設立登記法人,群馬県,藤岡市,下栗須２１２番地２,,10,209,3750014,,,2023-06-21,清算の結了等,,,2015-10-05,1,,,,,フジオカコウリ,0
1445,6120101040480,登記記録の閉鎖等,0,2023-06-23,2023-06-22,日南建設株式会社,,株式会社,大阪府,泉南郡熊取町,大久保中５丁目８５６番地の３,,27,361,5900403,,,2023-06-22,清算の結了等,,,2015-10-05,1,,,,,,0
1458,6130001008429,登記記録の閉鎖等,0,2023-06-23,2023-06-20,株式会社田中ガス住宅設備センター,,株式会社,京都府,京都市西京区,上桂三ノ宮町５５番地の１,,26,111,6158224,,,2023-06-20,清算の結了等,,,2015-10-05,1,,,,,タナカガスジュウタクセツビセンター,0
1481,6180001114817,登記記録の閉鎖等,0,2023-06-23,2023-06-15,株式会社フリーテンポ,,株式会社,愛知県,名古屋市中区,錦３丁目５番２１号錦ＨＯＴＥＩビル７Ｆ,,23,106,4600003,,,2023-06-15,合併による解散等,5030001100758,令和５年６月１日埼玉県さいたま市大宮区高鼻町一丁目４９明和マンション１Ｆ株式会社ＺＥＲＯ（5030001100758）に合併し解散,2015-10-05,1,,,,,フリーテンポ,0
1486,6180003019741,登記記録の閉鎖等,0,2023-06-23,2023-06-19,合同会社猪突,,合同会社,愛知県,一宮市,千秋町加納馬場字高須４２番地２メゾン川口Ｉ２０１号,00115911,23,203,4910811,,,2023-06-19,清算の結了等,,,2019-03-05,1,,,,,チョトツ,0
1487,6180003020443,登記記録の閉鎖等,0,2023-06-23,2023-06-21,合同会社ＪＥＴ,,合同会社,愛知県,犬山市,字藪畔２４番地８,,23,215,4840865,,,2023-06-21,清算の結了等,,,2019-10-15,1,,,,,ジェット,0
1492,6180302027643,登記記録の閉鎖等,0,2023-06-23,2023-06-14,有限会社斉藤瓦,,有限会社,愛知県,新城市,川田字山田平２番地の６,,23,221,4411346,,,2023-06-14,清算の結了等,,,2015-10-05,1,,,,,サイトウカワラ,0
1493,6190002001773,登記記録の閉鎖等,0,2023-06-23,2023-06-21,有限会社飯田牧場,,有限会社,三重県,津市,久居相川町２０６０番地,,24,201,5141103,,,2023-06-21,清算の結了等,,,2015-10-05,1,,,,,イイダボクジョウ,0
1494,6190002012003,登記記録の閉鎖等,0,2023-06-23,2023-06-20,有限会社花の木,,有限会社,三重県,伊賀市,大内１９８８番地の５,,24,216,5180034,,,2023-06-20,清算の結了等,,,2015-10-05,1,,,,,ハナノキ,0
1524,6330001027400,登記記録の閉鎖等,0,2023-06-23,2023-06-16,株式会社ａｍｉ,,株式会社,熊本県,熊本市北区,龍田２丁目３３番５号,,43,105,8618006,,,2023-06-16,清算の結了等,,,2020-04-16,1,,,,,アミ,0
1532,6370001006136,登記記録の閉鎖等,0,2023-06-23,2023-06-16,丸善不動産株式会社,,株式会社,宮城県,仙台市宮城野区,平成１丁目１番２０号,,04,102,9830037,,,2023-06-16,清算の結了等,,,2015-10-05,1,,,,,マルゼンフドウサン,0
1543,6380002019210,登記記録の閉鎖等,0,2023-06-23,2023-06-15,有限会社藤沢クリーニング店,,有限会社,福島県,東白川郡塙町,大字塙字栄町４１番地１,,07,483,9635405,,,2023-06-15,清算の結了等,,,2015-10-05,1,,,,,フジサワクリーニングテン,0
1556,6430001008662,登記記録の閉鎖等,0,2023-06-23,2023-06-19,株式会社清洗舎,,株式会社,北海道,札幌市中央区,北七条西２６丁目５番地,,01,101,0600007,,,2023-06-19,清算の結了等,,,2015-10-05,1,,,,,セイセンシャ,0
1557,6430001065407,登記記録の閉鎖等,0,2023-06-23,2023-06-09,ユニットＤＮＦ株式会社,,株式会社,北海道,札幌市東区,北二十六条東８丁目２番１－６０６号,,01,103,0650026,,,2023-06-09,清算の結了等,,,2015-10-05,1,,,,,ユニットディエヌエフ,0
1594,7010401105778,登記記録の閉鎖等,0,2023-06-23,2023-06-09,株式会社ＰＣｈｏｍｅ,,株式会社,東京都,港区,南麻布３丁目２０番１号Ｄａｉｗａ麻布テラス５階,,13,103,1060047,,,2023-06-09,清算の結了等,,,2015-10-05,1,,,,,ピーシーホーム,0
1623,7011201018848,登記記録の閉鎖等,0,2023-06-23,2023-06-22,株式会社プロクラ,,株式会社,東京都,中野区,大和町３丁目６番４号,,13,114,1650034,,,2023-06-22,清算の結了等,,,2016-01-26,1,,,,,,0
1629,7011402002205,登記記録の閉鎖等,0,2023-06-23,2023-06-20,有限会社春日石油,,有限会社,東京都,板橋区,赤塚２丁目５番１１号,00065956,13,119,1750092,,,2023-06-20,清算の結了等,,,2015-10-05,1,,,,,カスガセキユ,0
1631,7011502002484,登記記録の閉鎖等,0,2023-06-23,2023-06-20,有限会社さくら工芸,,有限会社,東京都,北区,岩淵町３９番７号,,13,117,1150041,,,2023-06-20,清算の結了等,,,2015-10-05,1,,,,,サクラコウゲイ,0
1660,7030001026910,登記記録の閉鎖等,0,2023-06-23,2023-06-08,株式会社光設,,株式会社,埼玉県,入間市,大字中神８１０番地１,,11,225,3580035,,,2023-06-08,清算の結了等,,,2015-10-05,1,,,,,コウセツ,0
1668,7030002002596,登記記録の閉鎖等,0,2023-06-23,2023-06-06,有限会社王将,,有限会社,埼玉県,さいたま市桜区,西堀７丁目７番９号,,11,106,3380832,,,2023-06-06,清算の結了等,,,2015-10-05,1,,,,,オウショウ,0
1671,7030002071781,登記記録の閉鎖等,0,2023-06-23,2023-06-08,有限会社野村機工,,有限会社,埼玉県,北葛飾郡杉戸町,大字鷲巣３７４番地６,,11,464,3450002,,,2023-06-08,清算の結了等,,,2015-10-05,1,,,,,ノムラキコウ,0
1697,7080102004430,登記記録の閉鎖等,0,2023-06-23,2023-06-21,有限会社南麓建設,,有限会社,静岡県,裾野市,須山２２９２番地,,22,220,4101231,,,2023-06-21,清算の結了等,,,2015-10-05,1,,,,,ナンロクケンセツ,0
1702,7100005006827,登記記録の閉鎖等,0,2023-06-23,2023-06-15,特定非営利活動法人水と緑の市民ネット,,その他の設立登記法人,長野県,塩尻市,大字広丘野村１７８８番地４８２,,20,215,3990702,,,2023-06-15,清算の結了等,,,2015-10-05,1,,,,,ミズトミドリノシミンネット,0
1706,7120001123946,登記記録の閉鎖等,0,2023-06-23,2023-06-19,株式会社トラスト,,株式会社,大阪府,大阪市城東区,放出西３丁目１１番４０号,,27,118,5360011,,,2023-06-19,清算の結了等,,,2015-10-05,1,,,,,トラスト,0
1721,7140001021124,登記記録の閉鎖等,0,2023-06-23,2023-06-16,株式会社インテック,,株式会社,兵庫県,神戸市長田区,西丸山町２丁目１２番４号,,28,106,6530874,,,2023-06-16,清算の結了等,,,2015-10-05,1,,,,,インテック,0
1732,7160005003455,登記記録の閉鎖等,0,2023-06-23,2023-06-19,鷲見生産森林組合,,その他の設立登記法人,滋賀県,長浜市,余呉町東野５５１番地の３,,25,203,5290527,,,2023-06-19,清算の結了等,,,2015-10-05,1,,,,,ワシミ,0
1734,7180001032654,登記記録の閉鎖等,0,2023-06-23,2023-06-21,株式会社ポップアップ,,株式会社,愛知県,名古屋市中村区,名駅１丁目１番１号,,23,105,4500002,,,2023-06-21,清算の結了等,,,2015-10-05,1,,,,,ポップアップ,0
1744,7230002005125,登記記録の閉鎖等,0,2023-06-23,2023-06-22,有限会社しんわ,,有限会社,富山県,富山市,合田１８５番地,,16,201,9392201,,,2023-06-22,清算の結了等,,,2015-10-05,1,,,,,シンワ,0
1756,7290005014480,登記記録の閉鎖等,0,2023-06-23,2023-06-14,一般社団法人Ｅまちｌａｂ,,その他の設立登記法人,福岡県,福岡市中央区,大名２丁目１０番８－４０９号,,40,133,8100041,,,2023-06-14,清算の結了等,,,2015-10-05,1,,,,,イイマチラボ,0
1757,7290801017026,登記記録の閉鎖等,0,2023-06-23,2023-06-21,株式会社あらき,,株式会社,福岡県,田川市,大字伊加利２０３４番地の８７,,40,206,8250001,,,2023-06-21,清算の結了等,,,2015-10-05,1,,,,,アラキ,0
1777,7380002026197,登記記録の閉鎖等,0,2023-06-23,2023-06-16,有限会社丸文佐藤材木店,,有限会社,福島県,いわき市,平塩字中島８番地の６,,07,204,9708022,,,2023-06-16,清算の結了等,,,2015-10-05,1,,,,,マルブンサトウザイモクテン,0
1782,7410005003792,登記記録の閉鎖等,0,2023-06-23,2023-06-13,職業訓練法人能代職業訓練協会,,その他の設立登記法人,秋田県,能代市,扇田字柑子畑１番地２０,,05,202,0160122,,,2023-06-13,清算の結了等,,,2015-10-05,1,,,,,ノシロショクギョウクンレンキョウカイ,0
1802,8010001123972,登記記録の閉鎖等,0,2023-06-23,2023-06-07,株式会社ウィズライフ,,株式会社,千葉県,千葉市美浜区,磯辺６丁目３番１号,,12,106,2610012,,,2023-06-07,清算の結了等,,,2015-10-05,1,,,,,ウィズライフ,0
1807,8010002015467,登記記録の閉鎖等,0,2023-06-23,2023-06-16,有限会社吉甚,,有限会社,東京都,千代田区,神田駿河台３丁目５番地,,13,101,1010062,,,2023-06-16,清算の結了等,,,2015-10-05,1,,,,,ヨシジン,0
1810,8010102003875,登記記録の閉鎖等,0,2023-06-23,2023-06-21,有限会社双伸測量設計,,有限会社,東京都,八王子市,四谷町５３２番地,,13,201,1930813,,,2023-06-21,清算の結了等,,,2015-10-05,1,,,,,ソウシンソクリョウセッケイ,0
1817,8010403021163,登記記録の閉鎖等,0,2023-06-23,2023-06-12,ｄ－ｓｅｌｅｃｔ合同会社,,合同会社,東京都,港区,浜松町２丁目２番１５号,,13,103,1050013,,,2023-06-12,清算の結了等,,,2019-07-30,1,,,,,ディーセレクト,0
1818,8010403025544,登記記録の閉鎖等,0,2023-06-23,2023-06-12,ウェルビーイングマネジメント合同会社,,合同会社,東京都,港区,南青山２丁目２番１５号,,13,103,1070062,,,2023-06-12,清算の結了等,,,2021-06-21,1,,,,,ウェルビーイングマネジメント,0
1820,8010405019429,登記記録の閉鎖等,0,2023-06-23,2023-06-12,一般社団法人こども防災,,その他の設立登記法人,東京都,港区,芝大門１丁目６番６号,,13,103,1050012,,,2023-06-12,清算の結了等,,,2021-01-27,1,,,,,コドモボウサイ,0
1835,8010801028850,登記記録の閉鎖等,0,2023-06-23,2023-06-19,株式会社リ・フレイン,,株式会社,東京都,大田区,田園調布本町３９番８号カールハイム１０３,,13,111,1450072,,,2023-06-19,清算の結了等,,,2018-05-25,1,,,,,リフレイン,0
1863,8012401004868,登記記録の閉鎖等,0,2023-06-23,2023-06-21,株式会社浅田機械貿易,,株式会社,東京都,狛江市,岩戸南１丁目２番６号,,13,219,2010005,,,2023-06-21,清算の結了等,,,2015-10-05,1,,,,,アサダキカイボウエキ,0
1872,8013301046422,登記記録の閉鎖等,0,2023-06-23,2023-06-16,株式会社ＢＥＡＲ,,株式会社,東京都,豊島区,南長崎５丁目１３番１２号,,13,116,1710052,,,2023-06-16,清算の結了等,,,2020-10-28,1,,,,,ベア,0
1897,8040001041073,登記記録の閉鎖等,0,2023-06-23,2023-06-07,藤田物産株式会社,,株式会社,千葉県,松戸市,新松戸３丁目２２２番地５０１号,,12,207,2700034,,,2023-06-07,清算の結了等,,,2015-10-05,1,,,,,フジタブッサン,0
1912,8050002016420,登記記録の閉鎖等,0,2023-06-23,2023-06-19,有限会社三輪電機商会,,有限会社,茨城県,石岡市,下林１３７２番地,,08,205,3150131,,,2023-06-19,清算の結了等,,,2015-10-05,1,,,,,ミワデンキショウカイ,0
1932,8100001019682,登記記録の閉鎖等,0,2023-06-23,2023-06-19,株式会社長井精工,,株式会社,長野県,岡谷市,長地出早２丁目９番２５号,,20,204,3940089,,,2023-06-19,清算の結了等,,,2015-10-05,1,,,,,ナガイセイコウ,0
1936,8120001170120,登記記録の閉鎖等,0,2023-06-23,2023-06-20,クリプトリーム株式会社,,株式会社,大阪府,大阪市北区,曾根崎新地２丁目３番１３号若杉大阪駅前ビル３階,,27,127,5300002,,,2023-06-20,清算の結了等,,,2015-10-05,1,,,,,クリプトリーム,0
1965,8130002030231,登記記録の閉鎖等,0,2023-06-23,2023-06-15,有限会社マルヤマ自動車,,有限会社,京都府,城陽市,奈島川原口２１番地,,26,207,6100116,,,2023-06-15,清算の結了等,,,2015-10-05,1,,,,,マルヤマジドウシャ,0
1974,8160005010129,登記記録の閉鎖等,0,2023-06-23,2023-06-20,農事組合法人香慈ファームひかり,,その他の設立登記法人,滋賀県,近江八幡市,安土町香庄６４７番地,,25,204,5211346,,,2023-06-20,清算の結了等,,,2015-10-05,1,,,,,,0
1980,8180002023296,登記記録の閉鎖等,0,2023-06-23,2023-06-13,有限会社コンドー工業,,有限会社,愛知県,名古屋市西区,枇杷島４丁目１７番８号,,23,104,4510053,,,2023-06-13,清算の結了等,,,2015-10-05,1,,,,,コンドーコウギョウ,0
1986,8180301016075,登記記録の閉鎖等,0,2023-06-23,2023-06-20,株式会社エス・アール・アイ,,株式会社,愛知県,安城市,今池町２丁目１番１号,,23,212,4460071,,,2023-06-20,清算の結了等,,,2015-10-05,1,,,,,エスアールアイ,0
1988,8190002016456,登記記録の閉鎖等,0,2023-06-23,2023-06-19,有限会社清寿司総本店,,有限会社,三重県,桑名市,大字桑名４７６番地の８２,,24,205,5110009,,,2023-06-19,清算の結了等,,,2015-10-05,1,,,,,,0
1997,8230001017665,登記記録の閉鎖等,0,2023-06-23,2023-06-20,ＬＩＦＥ　ｃｏｍｐａｎｙ株式会社,,株式会社,富山県,富山市,八日町五番地,,16,201,9398221,,,2023-06-20,清算の結了等,,,2018-11-16,1,,,,,ライフカンパニー,0
1998,8240002018661,登記記録の閉鎖等,0,2023-06-23,2023-06-21,有限会社ライフクリエイト企画,,有限会社,広島県,広島市西区,井口鈴が台２丁目１４番１３－１号,,34,104,7330843,,,2023-06-21,清算の結了等,,,2015-10-05,1,,,,,ライフクリエイトキカク,0
2006,8290801012835,登記記録の閉鎖等,0,2023-06-23,2023-06-21,株式会社伸高,,株式会社,福岡県,北九州市八幡東区,松尾町１９番９号,,40,108,8050032,,,2023-06-21,清算の結了等,,,2015-10-05,1,,,,,シンコウ,0
2009,8310001004011,登記記録の閉鎖等,0,2023-06-23,2023-06-19,株式会社匠コーポレーション,,株式会社,長崎県,長崎市,香焼町１５１２番地６,,42,201,8510310,,,2023-06-19,清算の結了等,,,2015-10-05,1,,,,,タクミコーポレーション,0
2013,8320002020188,登記記録の閉鎖等,0,2023-06-23,2023-06-21,有限会社本町アパート,,有限会社,大分県,玖珠郡玖珠町,大字塚脇３２０番地の１,,44,462,8794413,,,2023-06-21,清算の結了等,,,2015-10-05,1,,,,,ホンマチアパート,0
2030,8370201000275,登記記録の閉鎖等,0,2023-06-23,2023-06-20,株式会社高塩,,株式会社,宮城県,遠田郡美里町,北浦字高橋１６番地１,,04,505,9870005,,,2023-06-20,合併による解散等,9030001003544,令和５年６月１日埼玉県さいたま市大宮区桜木町一丁目１１番地５株式会社サイサン（9030001003544）に合併し解散,2015-10-05,1,,,,,タカシオ,0
2057,9010001058004,登記記録の閉鎖等,0,2023-06-23,2023-06-15,三浦商事株式会社,,株式会社,東京都,中央区,日本橋本町２丁目３番１５号,,13,102,1030023,,,2023-06-15,清算の結了等,,,2015-10-05,1,,,,,,0
2070,9010005008054,登記記録の閉鎖等,0,2023-06-23,2023-06-20,特定非営利活動法人環境デザイン・アソシエイツ,,その他の設立登記法人,東京都,千代田区,神田小川町１丁目６番１号宝ビル６階Ｎｏａｈ建築設計企業組合内,,13,101,1010052,,,2023-06-20,清算の結了等,,,2015-10-05,1,,,,,カンキョウデザインアソシエイツ,0
2072,9010005024514,登記記録の閉鎖等,0,2023-06-23,2023-06-21,一般社団法人ＳＭ　Ｎａｒａ,,その他の設立登記法人,東京都,千代田区,丸の内３丁目１番１号東京共同会計事務所内,,13,101,1000005,,,2023-06-21,清算の結了等,,,2015-10-20,1,,,,,エスエムナラ,0
2075,9010401097320,登記記録の閉鎖等,0,2023-06-23,2023-06-16,ＣＰＪマークス株式会社,,株式会社,東京都,渋谷区,神宮前２丁目２番３９－５２０号,,13,113,1500001,,,2023-06-16,清算の結了等,,,2015-10-05,1,,,,,シーピージェイマークス,0
2124,9011301024892,登記記録の閉鎖等,0,2023-06-23,2023-06-16,株式会社ＧＡＯＮ,,株式会社,東京都,杉並区,阿佐谷北２丁目１４番４号,,13,115,1660001,,,2023-06-16,清算の結了等,,,2019-03-15,1,,,,,ガオン,0
2125,9011301026047,登記記録の閉鎖等,0,2023-06-23,2023-06-20,株式会社メリーランドジャパン,,株式会社,東京都,杉並区,善福寺４丁目１４番１６号,,13,115,1670041,,,2023-06-20,清算の結了等,,,2020-07-08,1,,,,,メリーランドジャパン,0
2126,9011301026971,登記記録の閉鎖等,0,2023-06-23,2023-06-19,万航国際株式会社,,株式会社,東京都,杉並区,下井草１丁目２５番２２号,,13,115,1670022,,,2023-06-19,清算の結了等,,,2021-06-15,1,,,,,バンコウコクサイ,0
2145,9012702006364,登記記録の閉鎖等,0,2023-06-23,2023-06-21,有限会社小川工業所,,有限会社,東京都,東久留米市,八幡町２丁目１番８号,,13,222,2030042,,,2023-06-21,清算の結了等,,,2015-10-05,1,,,,,オガワコウギョウショ,0
2157,9020002035380,登記記録の閉鎖等,0,2023-06-23,2023-06-16,有限会社ハラダ製作所,,有限会社,神奈川県,横浜市都筑区,中川３丁目２２番２２号,,14,118,2240001,,,2023-06-16,清算の結了等,,,2015-10-05,1,,,,,ハラダセイサクショ,0
2161,9020005002675,登記記録の閉鎖等,0,2023-06-23,2023-06-16,特定非営利活動法人グループおおきな木,,その他の設立登記法人,神奈川県,横浜市港北区,綱島西２丁目１３－７－２０８,,14,109,2230053,,,2023-06-16,清算の結了等,,,2015-10-05,1,,,,,グループオオキナキ,0
2163,9021001044067,登記記録の閉鎖等,0,2023-06-23,2023-06-20,ダウンアンダーセイリングジャパン株式会社,,株式会社,神奈川県,三浦郡葉山町,堀内９２３番地の３,,14,301,2400112,,,2023-06-20,清算の結了等,,,2015-10-05,1,,,,,ダウンアンダーセイリングジャパン,0
2166,9021002029331,登記記録の閉鎖等,0,2023-06-23,2023-06-19,相模湖交通有限会社,,有限会社,神奈川県,相模原市緑区,与瀬９４７番地－５,,14,151,2520171,,,2023-06-19,清算の結了等,,,2015-10-05,1,,,,,,0
2189,9040002033548,登記記録の閉鎖等,0,2023-06-23,2023-06-06,有限会社キューオーエル,,有限会社,千葉県,市川市,国府台１丁目１２番２０号,,12,203,2720827,,,2023-06-06,清算の結了等,,,2015-10-05,1,,,,,キューオーエル,0
2190,9040002044974,登記記録の閉鎖等,0,2023-06-23,2023-06-05,有限会社開成,,有限会社,千葉県,松戸市,栄町６丁目４４６番地,,12,207,2710062,,,2023-06-05,清算の結了等,,,2015-10-05,1,,,,,カイセイ,0
2207,9080402000029,登記記録の閉鎖等,0,2023-06-23,2023-06-22,有限会社戸塚工業,,有限会社,静岡県,浜松市中区,高丘東４丁目６番２５号,,22,131,4338117,,,2023-06-22,清算の結了等,,,2015-10-05,1,,,,,トツカコウギョウ,0
2214,9120001145996,登記記録の閉鎖等,0,2023-06-23,2023-06-21,株式会社ネクストライズ,,株式会社,大阪府,東大阪市,小阪本町２丁目８番２６号,,27,227,5770802,,,2023-06-21,清算の結了等,,,2015-10-05,1,,,,,ネクストライズ,0
2241,9130001008450,登記記録の閉鎖等,0,2023-06-23,2023-06-20,千扇株式会社,,株式会社,京都府,京都市西京区,大枝北沓掛町４丁目９番地の７,,26,111,6101101,,,2023-06-20,清算の結了等,,,2015-10-05,1,,,,,チセン,0
2243,9130001049858,登記記録の閉鎖等,0,2023-06-23,2023-06-20,靴のヤマダ株式会社,,株式会社,京都府,京都市南区,東九条烏丸町５２番地１,,26,107,6018016,,,2023-06-20,清算の結了等,,,2015-10-05,1,,,,,クツノヤマダ,0
2246,9140001075498,登記記録の閉鎖等,0,2023-06-23,2023-06-16,斉藤染工株式会社,,株式会社,兵庫県,多可郡多可町,八千代区仕出原６９７番地の１５,,28,365,6770114,,,2023-06-16,清算の結了等,,,2015-10-05,1,,,,,,0
2260,9180002043054,登記記録の閉鎖等,0,2023-06-23,2023-06-20,有限会社エスワーク,,有限会社,愛知県,名古屋市北区,平安２丁目１３番５号,,23,103,4620819,,,2023-06-20,清算の結了等,,,2015-10-05,1,,,,,エスワーク,0
2267,9180302011685,登記記録の閉鎖等,0,2023-06-23,2023-06-15,有限会社あいあい,,有限会社,愛知県,豊橋市,雲谷町字外ノ谷２４３番地の２,,23,201,4413104,,,2023-06-15,清算の結了等,,,2015-10-05,1,,,,,アイアイ,0
2268,9180305009330,登記記録の閉鎖等,0,2023-06-23,2023-06-15,一般社団法人うえすとぽーち,,その他の設立登記法人,愛知県,岡崎市,福岡町字岩ケ崎８番地１,,23,202,4440825,,,2023-06-15,清算の結了等,,,2022-04-15,1,,,,,ウエストポーチ,0
2275,9200001037855,登記記録の閉鎖等,0,2023-06-23,2023-06-20,フェアレディー株式会社,,株式会社,岐阜県,岐阜市,茜部菱野４丁目６０番地,,21,201,5008268,,,2023-06-20,清算の結了等,,,2020-09-18,1,,,,,フェアレディ,0
2286,9260002008734,登記記録の閉鎖等,0,2023-06-23,2023-06-20,有限会社藤田塗装,,有限会社,岡山県,岡山市東区,目黒町４７番地の１０,,33,103,7048171,,,2023-06-20,清算の結了等,,,2015-10-05,1,,,,,,0
2301,9300001009423,登記記録の閉鎖等,0,2023-06-23,2023-06-20,株式会社しばた,,株式会社,佐賀県,伊万里市,松島町３８３番地１０,,41,205,8480045,,,2023-06-20,清算の結了等,,,2015-10-05,1,,,,,シバタ,0
2309,9350001014385,登記記録の閉鎖等,0,2023-06-23,2023-06-19,ＡＳＯＢＥＬ株式会社,,株式会社,宮崎県,宮崎市,橘通東５丁目７番２７号,,45,201,8800805,,,2023-06-19,清算の結了等,,,2016-12-06,1,,,,,アソベル,0
2311,9360002002438,登記記録の閉鎖等,0,2023-06-23,2023-06-21,有限会社創華堂,,有限会社,沖縄県,那覇市,松川３丁目１８番２０－８０２号ライオンズマンション松川第３,,47,201,9020062,,,2023-06-21,清算の結了等,,,2015-10-05,1,,,,,ソウカドウ,0
2320,9400602001545,登記記録の閉鎖等,0,2023-06-23,2023-06-12,有限会社菅原保険事務所,,有限会社,岩手県,奥州市,江刺岩谷堂字小名丸１１９番地２,,03,215,0231101,,,2023-06-12,清算の結了等,,,2015-10-05,1,,,,,スガワラホケンジムショ,0
2321,9410002012167,登記記録の閉鎖等,0,2023-06-23,2023-06-15,有限会社バンブー,,有限会社,秋田県,大仙市,大曲金谷町１２番１９号,,05,212,0140054,,,2023-06-15,清算の結了等,,,2015-10-05,1,,,,,,0
2323,9430001063382,登記記録の閉鎖等,0,2023-06-23,2023-06-08,株式会社アンサー,,株式会社,北海道,札幌市中央区,南十九条西１６丁目５－１０－８０１,,01,101,0640919,,,2023-06-08,清算の結了等,,,2015-10-05,1,,,,,アンサー,0
2327,9430005012121,登記記録の閉鎖等,0,2023-06-23,2023-06-12,一般社団法人四季のなげいれ花協会,,その他の設立登記法人,北海道,札幌市中央区,南一条西８丁目９番２号,,01,101,0600061,,,2023-06-12,清算の結了等,,,2015-10-05,1,,,,,,0
2328,9450005002104,登記記録の閉鎖等,0,2023-06-23,2023-06-16,協同組合富良野サンマートチェーン,,その他の設立登記法人,北海道,富良野市,住吉町４番１号,,01,229,0760057,,,2023-06-16,清算の結了等,,,2015-10-05,1,,,,,フラノサンマートチェーン,0
2330,9470001009539,登記記録の閉鎖等,0,2023-06-23,2023-06-19,株式会社清和,,株式会社,香川県,綾歌郡宇多津町,浜六番丁９１番地４（フロンティアビル２０５）,,37,386,7690206,,,2023-06-19,清算の結了等,,,2015-10-05,1,,,,,,0
