sequenceNumber,corporateNumber,process,correct,updateDate,changeDate,name,nameImageId,kind,prefectureName,cityName,streetNumber,addressImageId,prefectureCode,cityCode,postCode,addressOutside,addressOutsideImageId,closeDate,closeCause,successorCorporateNumber,changeCause,assignmentDate,latest,enName,enPrefectureName,enCityName,enAddressOutside,furigana,hihyoji
6,1010001223358,新規,0,2021-12-22,2021-12-22,株式会社農研,,株式会社,東京都,千代田区,神田佐久間河岸８４号地サンユウビル２０１,,13,101,1010026,,,,,,,2021-12-22,1,,,,,ノウケン,0
7,1010001223374,新規,0,2021-12-22,2021-12-22,株式会社Ｄａｔａ＆Ｉｎｔｅｌｌｉｇｅｎｃｅ,,株式会社,東京都,千代田区,九段南１丁目５番６号りそな九段ビル５ＦＫＳフロア,,13,101,1020074,,,,,,,2021-12-22,1,,,,,データアンドインテリジェンス,0
8,1010001223390,新規,0,2021-12-22,2021-12-22,株式会社ビックバルーンデザイン,,株式会社,東京都,中央区,日本橋浜町２丁目３７番９号,,13,102,1030007,,,,,,,2021-12-22,1,,,,,ビックバルーンデザイン,0
9,1010001223416,新規,0,2021-12-22,2021-12-22,株式会社ビキタン,,株式会社,東京都,中央区,日本橋蛎殻町１丁目１２番７号ワクロス人形町ビル８Ｆ,,13,102,1030014,,,,,,,2021-12-22,1,,,,,ビキタン,0
11,1010003036584,新規,0,2021-12-22,2021-12-22,合同会社カーチスファンドサード,,合同会社,東京都,千代田区,紀尾井町４番１号新紀尾井町ビル２Ｆ,,13,101,1020094,,,,,,,2021-12-22,1,,,,,カーチスファンドサード,0
12,1010003036601,新規,0,2021-12-22,2021-12-22,合同会社ＴＥＡＭ,,合同会社,東京都,千代田区,神田神保町１丁目１０３番地東京パークタワー１８０２号,,13,101,1010051,,,,,,,2021-12-22,1,,,,,チーム,0
13,1010005034363,新規,0,2021-12-22,2021-12-22,一般社団法人樹楓会,,その他の設立登記法人,東京都,千代田区,飯田橋１丁目１０番地５ニュー飯田橋ビル,,13,101,1020072,,,,,,,2021-12-22,1,,,,,ジュフウカイ,0
22,1010401164490,新規,0,2021-12-22,2021-12-22,エルモオラ株式会社,,株式会社,東京都,港区,浜松町２丁目２－１５,,13,103,1050013,,,,,,,2021-12-22,1,,,,,エルモオラ,0
23,1010401164532,新規,0,2021-12-22,2021-12-22,株式会社Ｗｅａｌｔｈｙ’ｓ,,株式会社,東京都,港区,赤坂２丁目１２番２０－１０２号,,13,103,1070052,,,,,,,2021-12-22,1,,,,,ウェルシィズ,0
32,1010503006459,新規,0,2021-12-22,2021-12-22,ニーズ・プラス合同会社,,合同会社,東京都,台東区,松が谷４丁目６番５号,,13,106,1110036,,,,,,,2021-12-22,1,,,,,ニーズプラス,0
38,1010801032594,新規,0,2021-12-22,2021-12-22,株式会社ＮＥＷ　ＬＩＦＥ,,株式会社,東京都,大田区,蒲田１丁目２番１９号,,13,111,1440052,,,,,,,2021-12-22,1,,,,,ニューライフ,0
41,1010901050042,新規,0,2021-12-22,2021-12-22,株式会社ＲＯＮＤＡ,,株式会社,東京都,世田谷区,太子堂１丁目１２番２９号－２０３,,13,112,1540004,,,,,,,2021-12-22,1,,,,,ロンダ,0
42,1010901050050,新規,0,2021-12-22,2021-12-22,株式会社ひらめきキッズクリエイトＬａｂ,,株式会社,東京都,世田谷区,太子堂１丁目１２番２７号コンフォートテラス１００５号,,13,112,1540004,,,,,,,2021-12-22,1,,,,,ヒラメキキッズクリエイトラボ,0
43,1010903007032,新規,0,2021-12-22,2021-12-22,合同会社ＤａｉｃｏＨＯＭＥ,,合同会社,東京都,世田谷区,赤堤１丁目４２番９号プラウド経堂ガーデンテラス１０３,,13,112,1560044,,,,,,,2021-12-22,1,,,,,ダイコホーム,0
47,1011001144750,新規,0,2021-12-22,2021-12-22,パラダイスポスト株式会社,,株式会社,東京都,渋谷区,松濤１丁目２８番２号,,13,113,1500046,,,,,,,2021-12-22,1,,,,,パラダイスポスト,0
58,1011503005013,新規,0,2021-12-22,2021-12-22,合同会社ハワース,,合同会社,東京都,荒川区,西日暮里６丁目１０番１４号プエルト西日暮里１０２,,13,118,1160013,,,,,,,2021-12-22,1,,,,,ハワース,0
60,1011601025623,新規,0,2021-12-22,2021-12-22,エイチエム株式会社,,株式会社,東京都,練馬区,大泉学園町４丁目１０番２１号,,13,120,1780061,,,,,,,2021-12-22,1,,,,,エイチエム,0
68,1012805003076,新規,0,2021-12-22,2021-12-22,特定非営利活動法人ＥＡＲＴＨｅ,,その他の設立登記法人,東京都,東大和市,湖畔１丁目１００４番地の７０,,13,220,2070002,,,,,,,2021-12-22,1,,,,,アスエ,0
71,1013301048441,新規,0,2021-12-22,2021-12-22,株式会社ＰＡＮＤＯＲＡ,,株式会社,東京都,豊島区,南長崎５丁目６番５号サンシティカネコ１階,,13,116,1710052,,,,,,,2021-12-22,1,,,,,パンドラ,0
72,1013301048458,新規,0,2021-12-22,2021-12-22,株式会社プラスメイト,,株式会社,東京都,豊島区,上池袋２丁目３０番１－１０１号,,13,116,1700012,,,,,,,2021-12-22,1,,,,,プラスメイト,0
74,1013303005944,新規,0,2021-12-22,2021-12-22,合同会社ＳＩＯＮ,,合同会社,東京都,豊島区,南大塚２丁目１１－１０ミモザビル３階,,13,116,1700005,,,,,,,2021-12-22,1,,,,,シオン,0
98,1030001145963,新規,0,2021-12-22,2021-12-22,赤瞳文化伝播株式会社,,株式会社,埼玉県,新座市,新堀３丁目２番２号レヂオンス清瀬２０５号,,11,230,3520032,,,,,,,2021-12-22,1,,,,,アカヒトミブンカデンパ,0
106,1040001121427,新規,0,2021-12-22,2021-12-22,株式会社サンワールド,,株式会社,千葉県,野田市,船形字猪穴２８５７番地１,,12,208,2700233,,,,,,,2021-12-22,1,,,,,サンワールド,0
107,1040001121435,新規,0,2021-12-22,2021-12-22,株式会社宇井工業,,株式会社,千葉県,旭市,三川７６３７番地,,12,215,2892714,,,,,,,2021-12-22,1,,,,,ウイコウギョウ,0
108,1040001121451,新規,0,2021-12-22,2021-12-22,株式会社熊本電設,,株式会社,千葉県,千葉市花見川区,千種町３４０番地７７,,12,102,2620012,,,,,,,2021-12-22,1,,,,,クマモトデンセツ,0
112,1040003019165,新規,0,2021-12-22,2021-12-22,合同会社ケイヨウ,,合同会社,千葉県,千葉市緑区,おゆみ野南５丁目２６番地６８,,12,105,2660033,,,,,,,2021-12-22,1,,,,,ケイヨウ,0
115,1040005021466,新規,0,2021-12-22,2021-12-22,一般社団法人インフォカート未来基金,,その他の設立登記法人,千葉県,千葉市中央区,中央３丁目９番１６号大樹生命千葉中央ビル３Ｆ,,12,101,2600013,,,,,,,2021-12-22,1,,,,,インフォカートミライキキン,0
118,1050001050311,新規,0,2021-12-22,2021-12-22,株式会社ソフィエイト,,株式会社,茨城県,つくば市,吾妻２丁目５番１号,,08,220,3050031,,,,,,,2021-12-22,1,,,,,ソフィエイト,0
119,1050001050328,新規,0,2021-12-22,2021-12-22,株式会社ナリタ,,株式会社,茨城県,古河市,上辺見３８４番地４,,08,204,3060234,,,,,,,2021-12-22,1,,,,,ナリタ,0
124,1060001034404,新規,0,2021-12-22,2021-12-22,株式会社ＨＡＰＰＹ　ＶＩＬＬＡＧＥ,,株式会社,栃木県,日光市,中宮祠２４８４番地１,,09,206,3211661,,,,,,,2021-12-22,1,,,,,ハッピービレッジ,0
127,1070001038759,新規,0,2021-12-22,2021-12-22,株式会社フォレストワークス,,株式会社,群馬県,吾妻郡長野原町,大字北軽井沢１９９０番地４９５,,10,424,3771412,,,,,,,2021-12-22,1,,,,,フォレストワークス,0
128,1080001024650,新規,0,2021-12-22,2021-12-22,株式会社ｅわーく,,株式会社,静岡県,静岡市駿河区,東新田１丁目１３番２３号,,22,102,4210112,,,,,,,2021-12-22,1,,,,,イーワーク,0
130,1080003002704,新規,0,2021-12-22,2021-12-22,合同会社ＰｌｕｓＯｎｅ,,合同会社,静岡県,静岡市葵区,水落町１５番１６－１号,,22,101,4200831,,,,,,,2021-12-22,1,,,,,プラスワン,0
131,1080101022991,新規,0,2021-12-22,2021-12-22,株式会社石井創建,,株式会社,静岡県,駿東郡清水町,徳倉１５９９番地の７カネヨ徳倉ビル２Ｆ,,22,341,4110917,,,,,,,2021-12-22,1,,,,,イシイソウケン,0
154,1120001242685,新規,0,2021-12-22,2021-12-22,株式会社ｌｉｖｉｎｇ　ｋａｎｓａｉ,,株式会社,大阪府,大阪市淀川区,十三本町２丁目９番３－６０４号,,27,123,5320024,,,,,,,2021-12-22,1,,,,,リビングカンサイ,0
156,1120003020809,新規,0,2021-12-22,2021-12-22,合同会社功真,,合同会社,大阪府,寝屋川市,美井元町２０番１－３０３号,,27,215,5720006,,,,,,,2021-12-22,1,,,,,コウシン,0
164,1130001070747,新規,0,2021-12-22,2021-12-22,株式会社３ｔｅｎ,,株式会社,京都府,京都市北区,鷹峯旧土居町１番地６４,,26,101,6038448,,,,,,,2021-12-22,1,,,,,サンテン,0
171,1140001124279,新規,0,2021-12-22,2021-12-22,テクノクラートキャリア株式会社,,株式会社,兵庫県,三田市,高次１丁目１０番２２号,,28,219,6691512,,,,,,,2021-12-22,1,,,,,テクノクラートキャリア,0
189,1180001084445,新規,0,2021-12-22,2021-12-22,株式会社もち忠土地,,株式会社,愛知県,一宮市,小信中島字東鵯平７０番地１,,23,203,4940007,,,,,,,2021-12-22,1,,,,,モチチュウトチ,0
194,1180005019570,新規,0,2021-12-22,2021-12-22,医療法人成心会,,その他の設立登記法人,愛知県,一宮市,森本２丁目３番７号,,23,203,4910831,,,,,,,2021-12-22,1,,,,,セイシンカイ,0
222,1290001095712,新規,0,2021-12-22,2021-12-22,株式会社九州ハイテク,,株式会社,福岡県,飯塚市,菰田東２丁目１番３２号,,40,205,8200016,,,,,,,2021-12-22,1,,,,,キュウシュウハイテク,0
223,1290001095778,新規,0,2021-12-22,2021-12-22,株式会社ＡｎｉｍａｌＮｅｔｗｏｒｋＪａｐａｎ,,株式会社,福岡県,福岡市中央区,天神５丁目９番２－７１０号ファミール天神,,40,133,8100001,,,,,,,2021-12-22,1,,,,,アニマルネットワークジャパン,0
231,1320003003677,新規,0,2021-12-22,2021-12-22,合同会社ＢＡＧＤＯＯＭ,,合同会社,大分県,別府市,京町１１番８号２階,,44,202,8740926,,,,,,,2021-12-22,1,,,,,バグドム,0
263,1450005004322,新規,0,2021-12-22,2021-12-22,旭川大学生活協同組合,,その他の設立登記法人,北海道,旭川市,永山三条２３丁目１番９号,,01,204,0798413,,,,,,,2021-12-22,1,,,,,アサヒカワダイガク,0
277,1490005006810,新規,0,2021-12-22,2021-12-22,高知ブライダル写真協同組合,,その他の設立登記法人,高知県,高知市,城見町４番３２号,,39,201,7800824,,,,,,,2021-12-22,1,,,,,コウチブライダルシャシン,0
279,1700150106384,新規,0,2021-12-22,2021-12-22,ＮＥＷ　ＣＯＬＯＭＢＯ　ＴＩＭＢＥＲ　ＤＥＡＬＥＲＳ,,外国会社等,神奈川県,厚木市,七沢大畑４９３－１５－Ｃ,,14,212,2430121,スリランカ民主社会主義共和国、ギランドラコッテロード、マヒヤンガネ、Ｎｏ．３,,,,,,2021-12-22,1,,,,,ニユコランボテインベルデイーレス,0
290,2010001223423,新規,0,2021-12-22,2021-12-22,株式会社ＡＬＹ,,株式会社,東京都,中央区,日本橋本町３丁目７番２号,,13,102,1030023,,,,,,,2021-12-22,1,,,,,アリー,0
291,2010001223448,新規,0,2021-12-22,2021-12-22,松本デザイン株式会社,,株式会社,東京都,中央区,日本橋堀留町１丁目１番９号久保井ビル４階,,13,102,1030012,,,,,,,2021-12-22,1,,,,,マツモトデザイン,0
296,2010003036600,新規,0,2021-12-22,2021-12-22,合同会社Ｍ．ＣＯＭＰＡＮＹ,,合同会社,東京都,中央区,銀座８丁目４番２５号,,13,102,1040061,,,,,,,2021-12-22,1,,,,,エムカンパニー,0
297,2010005034354,新規,0,2021-12-22,2021-12-22,一般社団法人ＮＳＷ　Ｇｏｖｅｒｎｍｅｎｔ,,その他の設立登記法人,東京都,中央区,京橋２丁目１番３号京橋トラストタワー,,13,102,1040031,,,,,,,2021-12-22,1,,,,,ニューサウスウェールズガバメント,0
303,2010401164449,新規,0,2021-12-22,2021-12-22,ＳＩＧＮＯＮＥ株式会社,,株式会社,東京都,港区,海岸１丁目２－２０汐留ビルディング３Ｆ,,13,103,1050022,,,,,,,2021-12-22,1,,,,,,0
306,2010403026762,新規,0,2021-12-22,2021-12-22,ＵＮＩＴＥＤ・ＦＲＥＥＤＯＭ合同会社,,合同会社,東京都,港区,南青山２丁目２番１５号ＷｉｎＡｏｙａｍａビルＵＦＣ６３５,,13,103,1070062,,,,,,,2021-12-22,1,,,,,ユナイテッドフリーダム,0
315,2010701041967,新規,0,2021-12-22,2021-12-22,株式会社山路哲生建築設計事務所,,株式会社,東京都,品川区,西五反田６丁目３番６号１階,,13,109,1410031,,,,,,,2021-12-22,1,,,,,ヤマジテツオケンチクセッケイジムショ,0
316,2010901050041,新規,0,2021-12-22,2021-12-22,東京塗装株式会社,,株式会社,東京都,世田谷区,喜多見６丁目２４番１４号,,13,112,1570067,,,,,,,2021-12-22,1,,,,,トウキョウトソウ,0
318,2010903007031,新規,0,2021-12-22,2021-12-22,合同会社秋本事務所,,合同会社,東京都,世田谷区,成城５丁目１９番１４号,,13,112,1570066,,,,,,,2021-12-22,1,,,,,アキモトジムショ,0
342,2012401038681,新規,0,2021-12-22,2021-12-22,株式会社ＴＨＲｅ,,株式会社,東京都,調布市,緑ケ丘１丁目９番地３１,,13,208,1820001,,,,,,,2021-12-22,1,,,,,スリー,0
350,2013301048457,新規,0,2021-12-22,2021-12-22,株式会社エムエムエス,,株式会社,東京都,豊島区,西池袋２丁目３６番１０号,,13,116,1710021,,,,,,,2021-12-22,1,,,,,エムエムエス,0
362,2020005015320,新規,0,2021-12-22,2021-12-22,本牧タウンハイツ管理組合法人,,その他の設立登記法人,神奈川県,横浜市中区,本牧町１丁目５１番地本牧タウンハイツマンション管理事務室,,14,104,2310806,,,,,,,2021-12-22,1,,,,,ホンモクタウンハイツ,0
375,2030001145855,新規,0,2021-12-22,2021-12-22,ＹＫホールディングス株式会社,,株式会社,埼玉県,所沢市,緑町１丁目４番１－１２１２号デュオヒルズ新所沢駅前,,11,208,3591111,,,,,,,2021-12-22,1,,,,,ワイケーホールディングス,0
376,2030001145962,新規,0,2021-12-22,2021-12-22,株式会社アカウンティング,,株式会社,埼玉県,春日部市,浜川戸２丁目５番地６ワイズタウン,,11,214,3440054,,,,,,,2021-12-22,1,,,,,アカウンティング,0
394,2050001050327,新規,0,2021-12-22,2021-12-22,株式会社ＳＡＣＨＩ,,株式会社,茨城県,那珂市,菅谷５４５５番地１サンハイム那珂２０３号室,,08,226,3110105,,,,,,,2021-12-22,1,,,,,サチ,0
397,2060001034403,新規,0,2021-12-22,2021-12-22,株式会社スペースファクト,,株式会社,栃木県,宇都宮市,鶴田町１２１５番地４,,09,201,3200851,,,,,,,2021-12-22,1,,,,,スペースファクト,0
401,2080101022990,新規,0,2021-12-22,2021-12-22,株式会社リファインラバー,,株式会社,静岡県,富士市,比奈７９８番地,,22,210,4170847,,,,,,,2021-12-22,1,,,,,リファインラバー,0
407,2110001036286,新規,0,2021-12-22,2021-12-22,ザツダン株式会社,,株式会社,新潟県,新潟市中央区,天神１丁目１番地プラーカ３、２Ｆ、ＨＵＢ　ＳＴＡＴＩＯＮ　ＫＥＮＴＯ内,,15,103,9500917,,,,,,,2021-12-22,1,,,,,ザツダン,0
423,2120003020808,新規,0,2021-12-22,2021-12-22,ＬａＴｏｗａ合同会社,,合同会社,大阪府,大阪市中央区,西心斎橋１丁目８番２２号第五エースビル５階Ａ号室,,27,128,5420086,,,,,,,2021-12-22,1,,,,,ラトワ,0
425,2120101064830,新規,0,2021-12-22,2021-12-22,株式会社木野下サッシ鋼業,,株式会社,大阪府,堺市南区,竹城台２丁１番６－１０９号,,27,145,5900105,,,,,,,2021-12-22,1,,,,,キノシタサッシコウギョウ,0
427,2120105009492,新規,0,2021-12-22,2021-12-22,特定非営利活動法人クラブ登美丘南,,その他の設立登記法人,大阪府,堺市東区,西野４０１番地２ＳＯＬＯやぶ内２Ｆ２０５号室,,27,143,5998125,,,,,,,2021-12-22,1,,,,,クラブトミオカミナミ,0
429,2120901045377,新規,0,2021-12-22,2021-12-22,株式会社北摂クラブ,,株式会社,大阪府,吹田市,高野台１丁目４番２号,,27,205,5650861,,,,,,,2021-12-22,1,,,,,ホクセツクラブ,0
436,2130001070762,新規,0,2021-12-22,2021-12-22,株式会社Ｂｅ－ｖｉｏ,,株式会社,京都府,京都市伏見区,深草西浦町８丁目４６番地（４０４）,,26,109,6120029,,,,,,,2021-12-22,1,,,,,ビヴァイオ,0
441,2140001124286,新規,0,2021-12-22,2021-12-22,フィデリティキャピタル株式会社株式会社,,株式会社,兵庫県,尼崎市,御園町２４番地尼崎第一ビル４０２号,,28,202,6600861,,,,,,,2021-12-22,1,,,,,フィデリティキャピタル,0
443,2140003017117,新規,0,2021-12-22,2021-12-22,合同会社ライフプランニング,,合同会社,兵庫県,宝塚市,伊孑志４丁目７－１１,,28,214,6650033,,,,,,,2021-12-22,1,,,,,ライフプランニング,0
450,2180001149214,新規,0,2021-12-22,2021-12-22,株式会社ラビイ,,株式会社,愛知県,清須市,朝日城屋敷７１番地船橋設備ビル２階,,23,233,4520932,,,,,,,2021-12-22,1,,,,,ラビイ,0
457,2190005011658,新規,0,2021-12-22,2021-12-22,一般社団法人ＡＬ　ＦＡＷＺＵＬ　ＨＡＭＥＥＤイスラムセンター,,その他の設立登記法人,三重県,鈴鹿市,石薬師町２４５７番地の１８６,,24,207,5130012,,,,,,,2021-12-22,1,,,,,アルファウズルハミードイスラムセンター,0
459,2200001039552,新規,0,2021-12-22,2021-12-22,ＵＺＡＩＲ　ＣＯＲＰＯＲＡＴＩＯＮ株式会社,,株式会社,岐阜県,各務原市,鵜沼山崎町５丁目８０番地１小川ハイツ３０５,,21,213,5090124,,,,,,,2021-12-22,1,,,,,ウゼールコーポレーション,0
460,2200003005404,新規,0,2021-12-22,2021-12-22,合同会社ネクストイノベーション,,合同会社,岐阜県,可児市,瀬田１２０３番地２,,21,214,5090213,,,,,,,2021-12-22,1,,,,,ネクストイノベーション,0
463,2230001019147,新規,0,2021-12-22,2021-12-22,株式会社高田商会,,株式会社,富山県,小矢部市,西福町３番３号,,16,209,9320042,,,,,,,2021-12-22,1,,,,,タカタショウカイ,0
464,2230005009185,新規,0,2021-12-22,2021-12-22,一般財団法人山森記念財団,,その他の設立登記法人,富山県,氷見市,小窪１３８３番地,,16,205,9350257,,,,,,,2021-12-22,1,,,,,ヤマモリキネンザイダン,0
469,2250005008714,新規,0,2021-12-22,2021-12-22,特定非営利活動法人おーるうぇいず,,その他の設立登記法人,山口県,宇部市,松山町３丁目３番２６号,,35,202,7550026,,,,,,,2021-12-22,1,,,,,オールウェイズ,0
475,2290001095769,新規,0,2021-12-22,2021-12-22,ＳＳＲ株式会社,,株式会社,福岡県,福岡市中央区,大名１丁目３番６号３Ｆ,,40,133,8100041,,,,,,,2021-12-22,1,,,,,エスエスアール,0
476,2290001095802,新規,0,2021-12-22,2021-12-22,Ｇｒｏｗｔｈ　Ｏｎｅ株式会社,,株式会社,福岡県,福岡市東区,西戸崎４丁目７番２０号,,40,131,8110321,,,,,,,2021-12-22,1,,,,,グロースワン,0
478,2290003011955,新規,0,2021-12-22,2021-12-22,リーブル合同会社,,合同会社,福岡県,福岡市博多区,諸岡３丁目６番１１号アプローズ諸岡１１０３,,40,132,8120894,,,,,,,2021-12-22,1,,,,,リーブル,0
479,2290005018486,新規,0,2021-12-22,2021-12-22,一般社団法人ちいきらぼ,,その他の設立登記法人,福岡県,福岡市南区,向野１丁目３番１４号,,40,134,8150035,,,,,,,2021-12-22,1,,,,,チイキラボ,0
483,2310001017638,新規,0,2021-12-22,2021-12-22,株式会社松本表具店,,株式会社,長崎県,北松浦郡佐々町,小浦免６７番地１,,42,391,8570361,,,,,,,2021-12-22,1,,,,,マツモトヒョウグテン,0
484,2340005009380,新規,0,2021-12-22,2021-12-22,無限責任黒葛野負債整理組合,00125160,その他の設立登記法人,鹿児島県,姶良市,,,46,225,8995400,,,,,,,2021-12-22,1,,,,,ムゲンセキニンツヅラノフサイセイリクミアイ,0
486,2350001017477,新規,0,2021-12-22,2021-12-22,株式会社ＫＵＧＵＮ,,株式会社,宮崎県,宮崎市,大字新名爪１１４番地５コスモコーポ１０２,,45,201,8800124,,,,,,,2021-12-22,1,,,,,クーガン,0
487,2350001017485,新規,0,2021-12-22,2021-12-22,株式会社ユウキノチカラ,,株式会社,宮崎県,日南市,大字伊比井１９５６番地,,45,204,8870111,,,,,,,2021-12-22,1,,,,,ユウキノチカラ,0
488,2350003003995,新規,0,2021-12-22,2021-12-22,合同会社桜木ファーム,,合同会社,宮崎県,都城市,高城町桜木２２２２番地３,,45,202,8851204,,,,,,,2021-12-22,1,,,,,サクラギファーム,0
501,2430001085607,新規,0,2021-12-22,2021-12-22,株式会社ナカ工業,,株式会社,北海道,札幌市北区,屯田四条６丁目４番１７号,,01,102,0020854,,,,,,,2021-12-22,1,,,,,ナカコウギョウ,0
506,2700150106383,新規,0,2021-12-22,2021-12-22,ＳＴＥＥＬＳＥＲＩＥＳ　ＡＰＳ,,外国会社等,,,,,,,,ＨＡＶＮＥＨＯＬＭＥＮ　８，１，Ｃｏｐｅｎｈａｇｅｎ　ＳＶ　ＤＫ－２４５０，Ｄｅｎｍａｒｋ,,,,,,2021-12-22,1,,,,,ステイールシリーズエーピーエス,0
520,3010001223380,新規,0,2021-12-22,2021-12-22,株式会社Ｙｅｓ・Ｂｏｓｓ,,株式会社,東京都,中央区,銀座６丁目４番８号ニューギンザビル３号館７階,,13,102,1040061,,,,,,,2021-12-22,1,,,,,イェスボス,0
523,3010003036599,新規,0,2021-12-22,2021-12-22,ｍａｕｇｒａｍ合同会社,,合同会社,東京都,千代田区,九段南１丁目５番６号りそな九段ビル５階ＫＳフロア,,13,101,1020074,,,,,,,2021-12-22,1,,,,,マウグラム,0
524,3010003036608,新規,0,2021-12-22,2021-12-22,合同会社Ｋｕｅｒｅ,,合同会社,東京都,中央区,銀座１丁目１２－４Ｎ＆ＥＢＬＤ．７階,,13,102,1040061,,,,,,,2021-12-22,1,,,,,クエレ,0
535,3010403026753,新規,0,2021-12-22,2021-12-22,Ｓｅｒｅｎｄｉｐｉｔｙ　Ｐｉｌｏｔ合同会社,,合同会社,東京都,港区,高輪１丁目１４番１５号２０６,,13,103,1080074,,,,,,,2021-12-22,1,,,,,セレンディピティパイロット,0
545,3010903007030,新規,0,2021-12-22,2021-12-22,合同会社ＳＹＮＥＲＧＹ,,合同会社,東京都,世田谷区,粕谷２丁目１１番２１号,,13,112,1570063,,,,,,,2021-12-22,1,,,,,シナジー,0
557,3011001144674,新規,0,2021-12-22,2021-12-22,株式会社ＬＥＥＤ,,株式会社,東京都,渋谷区,代々木１丁目４３－１１,,13,113,1510053,,,,,,,2021-12-22,1,,,,,リード,0
558,3011001144690,新規,0,2021-12-22,2021-12-22,株式会社ジャーニーマン,,株式会社,東京都,目黒区,中央町２丁目２２番３号１０１号室,,13,110,1520001,,,,,,,2021-12-22,1,,,,,ジャーニーマン,0
559,3011001144699,新規,0,2021-12-22,2021-12-22,株式会社フリースク,,株式会社,東京都,渋谷区,千駄ヶ谷３丁目１３番１４号千駄ヶ谷清和ビル４０２号室,,13,113,1510051,,,,,,,2021-12-22,1,,,,,フリースク,0
566,3011105010079,新規,0,2021-12-22,2021-12-22,一般社団法人新・森林資源－改質リグニン－普及産業会,,その他の設立登記法人,東京都,新宿区,四谷３丁目２番地２,,13,104,1600004,,,,,,,2021-12-22,1,,,,,シンシンリンシゲンカイシツリグニンフキュウサンギョウカイ,0
570,3011503005011,新規,0,2021-12-22,2021-12-22,合同会社食彩計画,,合同会社,東京都,北区,赤羽南２丁目１６番１,,13,117,1150044,,,,,,,2021-12-22,1,,,,,ショクサイケイカク,0
574,3011601025621,新規,0,2021-12-22,2021-12-22,株式会社Ｒｅ．ｃｏｒｄ,,株式会社,東京都,練馬区,南大泉３丁目２７番９号,,13,120,1780064,,,,,,,2021-12-22,1,,,,,,0
575,3011603003476,新規,0,2021-12-22,2021-12-22,オクト合同会社,,合同会社,東京都,練馬区,中村２丁目９番３号,,13,120,1760024,,,,,,,2021-12-22,1,,,,,オクト,0
600,3021001074796,新規,0,2021-12-22,2021-12-22,株式会社ＳＰＥＣＩＡＬＥ,,株式会社,神奈川県,伊勢原市,高森８８番地１,,14,214,2591114,,,,,,,2021-12-22,1,,,,,スペチアーレ,0
601,3021005012397,新規,0,2021-12-22,2021-12-22,医療法人社団博裕会,,その他の設立登記法人,神奈川県,相模原市南区,南台５丁目１１番１９号ペアナードオダサガ３０２号室,,14,153,2520314,,,,,,,2021-12-22,1,,,,,ハクユウカイ,0
616,3030001145838,新規,0,2021-12-22,2021-12-22,ＶＩＲＫ　ＴＲＡＤＩＮＧ株式会社,,株式会社,埼玉県,久喜市,菖蒲町菖蒲１０８番地１ビレッジ菖蒲Ｃ２０２,,11,232,3460106,,,,,,,2021-12-22,1,,,,,バークトレーディング,0
617,3030001145912,新規,0,2021-12-22,2021-12-22,株式会社大成内工,,株式会社,埼玉県,深谷市,高島４２６番地１,,11,218,3660010,,,,,,,2021-12-22,1,,,,,タイセイナイコウ,0
618,3030001145978,新規,0,2021-12-22,2021-12-22,株式会社Ｚ出版,,株式会社,埼玉県,狭山市,入間川３１４３番地の１３,,11,215,3501305,,,,,,,2021-12-22,1,,,,,ゼットシュッパン,0
624,3030003018538,新規,0,2021-12-22,2021-12-22,Ｎ＆Ａ合同会社,,合同会社,埼玉県,久喜市,栗橋中央２丁目４番４３号パルトゥネール栗橋２０３,,11,232,3491102,,,,,,,2021-12-22,1,,,,,エヌアンドエー,0
630,3040001121433,新規,0,2021-12-22,2021-12-22,株式会社長沼商会,,株式会社,千葉県,千葉市花見川区,三角町５３４番地,,12,102,2620011,,,,,,,2021-12-22,1,,,,,ナガヌマショウカイ,0
631,3040001121466,新規,0,2021-12-22,2021-12-22,株式会社ＪＫ　Ｅｘｐｒｅｓｓ,,株式会社,千葉県,松戸市,串崎新田２１６番地３,,12,207,2702216,,,,,,,2021-12-22,1,,,,,ジェーケーエクスプレス,0
634,3040003019163,新規,0,2021-12-22,2021-12-22,合同会社和,,合同会社,千葉県,木更津市,請西南２丁目２７番地１,,12,206,2920807,,,,,,,2021-12-22,1,,,,,ワ,0
635,3040003019171,新規,0,2021-12-22,2021-12-22,合同会社貫愛,,合同会社,千葉県,流山市,東初石２丁目１５８番地,,12,220,2700114,,,,,,,2021-12-22,1,,,,,カンナ,0
636,3060001034410,新規,0,2021-12-22,2021-12-22,株式会社薄井の住まい不動産,,株式会社,栃木県,宇都宮市,下砥上町１１９０番地３,,09,201,3200852,,,,,,,2021-12-22,1,,,,,ウスイノスマイフドウサン,0
646,3070001009782,新規,0,2021-12-22,2021-12-22,森澤機械産業株式会社,,株式会社,群馬県,安中市,簗瀬６０８番地,,10,211,3790134,,,,,,,2021-12-22,1,,,,,モリサワキカイサンギョウ,0
654,3080103002486,新規,0,2021-12-22,2021-12-22,合同会社渡辺,,合同会社,静岡県,沼津市,小林台１２番地の７,,22,203,4100021,,,,,,,2021-12-22,1,,,,,ワタナベ,0
657,3110001036285,新規,0,2021-12-22,2021-12-22,株式会社Ｎｅｘｔ　ｉｎｎｏｖａｔｉｏｎ,,株式会社,新潟県,長岡市,新組町２１３２番地２９,,15,202,9400897,,,,,,,2021-12-22,1,,,,,ネクストイノベーション,0
664,3120001085265,新規,0,2021-12-22,2021-12-22,東カイ興産株式会社,,株式会社,大阪府,大阪市中央区,（大阪市南区東平二丁目５番７号）,,27,128,5390000,,,,,,,2021-12-22,1,,,,,トウカイコウサン,0
676,3120003020773,新規,0,2021-12-22,2021-12-22,合同会社自由人,,合同会社,大阪府,大阪市生野区,中川西１丁目１７番１３号,,27,116,5440032,,,,,,,2021-12-22,1,,,,,ジユウビト,0
677,3120003020807,新規,0,2021-12-22,2021-12-22,エム・コンサルティング合同会社,,合同会社,大阪府,大阪市天王寺区,清水谷町１０番２号大阪酒販会館ビル３０３号,,27,109,5430011,,,,,,,2021-12-22,1,,,,,エムコンサルティング,0
678,3120003020815,新規,0,2021-12-22,2021-12-22,合同会社ＳＰ２,,合同会社,大阪府,大阪市中央区,北浜２丁目１－２１,,27,128,5410041,,,,,,,2021-12-22,1,,,,,エスピーツー,0
684,3120105009491,新規,0,2021-12-22,2021-12-22,特定非営利活動法人アラキの海,,その他の設立登記法人,大阪府,泉大津市,池浦町１丁目５番８号,,27,206,5950024,,,,,,,2021-12-22,1,,,,,アラキノウミ,0
700,3140001124211,新規,0,2021-12-22,2021-12-22,株式会社アグリマスターズ,,株式会社,兵庫県,神戸市中央区,三宮町１丁目４番９号,,28,110,6500021,,,,,,,2021-12-22,1,,,,,アグリマスターズ,0
701,3140001124260,新規,0,2021-12-22,2021-12-22,株式会社神戸セキュリティ,,株式会社,兵庫県,神戸市長田区,久保町１丁目２番１４号,,28,106,6530041,,,,,,,2021-12-22,1,,,,,コウベセキュリティ,0
702,3140001124285,新規,0,2021-12-22,2021-12-22,フィデリティパートナーズ株式会社,,株式会社,兵庫県,尼崎市,御園町２４番地尼崎第一ビル４０２号,,28,202,6600861,,,,,,,2021-12-22,1,,,,,フィデリティパートナーズ,0
703,3140001124293,新規,0,2021-12-22,2021-12-22,株式会社サンコーテック,,株式会社,兵庫県,西脇市,野村町３１番地の５,,28,213,6770054,,,,,,,2021-12-22,1,,,,,サンコーテック,0
719,3180301035749,新規,0,2021-12-22,2021-12-22,株式会社ＯＴＴＯ,,株式会社,愛知県,田原市,赤羽根町余造８番地２,,23,231,4413502,,,,,,,2021-12-22,1,,,,,オット,0
726,3190001028960,新規,0,2021-12-22,2021-12-22,東口運送株式会社,,株式会社,三重県,伊勢市,上野町１５６８番地２,,24,203,5161104,,,,,,,2021-12-22,1,,,,,ヒガシグチウンソウ,0
729,3200001039551,新規,0,2021-12-22,2021-12-22,株式会社ハイドランジア,,株式会社,岐阜県,岐阜市,清本町９丁目２７番地,,21,201,5008351,,,,,,,2021-12-22,1,,,,,ハイドランジア,0
738,3230001019146,新規,0,2021-12-22,2021-12-22,株式会社グラスファーマシー,,株式会社,富山県,富山市,婦中町上轡田８０番地１６１,,16,201,9392713,,,,,,,2021-12-22,1,,,,,グラスファーマシー,0
750,3240003005399,新規,0,2021-12-22,2021-12-22,合同会社ＧＭＣ,,合同会社,広島県,福山市,春日町浦上１４０７－１３,,34,207,7210902,,,,,,,2021-12-22,1,,,,,ジーエムシー,0
757,3250005008713,新規,0,2021-12-22,2021-12-22,宗教法人法寂寺,,その他の設立登記法人,山口県,下関市,大字延行２６８番,,35,201,7510867,,,,,,,2021-12-22,1,,,,,ホウジャクジ,0
758,3260001036329,新規,0,2021-12-22,2021-12-22,株式会社ＮＡＮＪＯ　Ｖｉｄｅｏ　Ｐｒｏ．,00125199,株式会社,岡山県,岡山市北区,石関町一丁目１６番,,33,101,7000813,,,,,,,2021-12-22,1,,,,,ナンジョウビデオプロ,0
762,3290001095792,新規,0,2021-12-22,2021-12-22,株式会社ＲＡＤ,,株式会社,福岡県,福岡市博多区,博多駅南１丁目１０番１８号シャンブル博多第二４０２号室,,40,132,8120016,,,,,,,2021-12-22,1,,,,,アールエーディー,0
763,3290003011954,新規,0,2021-12-22,2021-12-22,合同会社ｎｅｘｔ　ｈｏｒｓｅ,,合同会社,福岡県,福岡市東区,下原２丁目１５番２６－２号,,40,131,8130002,,,,,,,2021-12-22,1,,,,,ネクストホース,0
771,3290801028101,新規,0,2021-12-22,2021-12-22,未来架設株式会社,,株式会社,福岡県,直方市,大字山部８１３番地１６,,40,204,8220034,,,,,,,2021-12-22,1,,,,,ミライカセツ,0
773,3300001012746,新規,0,2021-12-22,2021-12-22,株式会社測地創社,,株式会社,佐賀県,嬉野市,嬉野町大字下野丙１３７７－４,,41,209,8430302,,,,,,,2021-12-22,1,,,,,ソクチソウシャ,0
780,3340003003649,新規,0,2021-12-22,2021-12-22,横山商事合名会社,,合名会社,鹿児島県,曽於市,財部町北俣１４６１番地,,46,217,8994102,,,,,,,2021-12-22,1,,,,,ヨコヤマショウジ,0
786,3350001017476,新規,0,2021-12-22,2021-12-22,株式会社プレイスエッジ,,株式会社,宮崎県,宮崎市,鶴島２丁目１５番１１号,,45,201,8800014,,,,,,,2021-12-22,1,,,,,プレイスエッジ,0
789,3360003011666,新規,0,2021-12-22,2021-12-22,合同会社ＴＩＥＳグループ,,合同会社,沖縄県,島尻郡八重瀬町,字東風平８３５番地９,,47,362,9010401,,,,,,,2021-12-22,1,,,,,タイズグループ,0
791,3370005010418,新規,0,2021-12-22,2021-12-22,農事組合法人ふくおか,,その他の設立登記法人,宮城県,栗原市,若柳字福岡原畑１８番地,,04,213,9895505,,,,,,,2021-12-22,1,,,,,フクオカ,0
817,3430003013473,新規,0,2021-12-22,2021-12-22,合同会社ユーリード,,合同会社,北海道,札幌市中央区,南一条西５丁目１６プレジデント松井ビル１００－１００１,,01,101,0600061,,,,,,,2021-12-22,1,,,,,ユーリード,0
825,3470003002092,新規,0,2021-12-22,2021-12-22,長谷池水上太陽光合同会社,,合同会社,香川県,高松市,丸の内２番５号,,37,201,7600033,,,,,,,2021-12-22,1,,,,,ナガタニイケスイジョウタイヨウコウ,0
829,3490001010062,新規,0,2021-12-22,2021-12-22,株式会社天衣無縫,,株式会社,高知県,高知市,種崎８２３番地２,,39,201,7810113,,,,,,,2021-12-22,1,,,,,テンイムホウ,0
834,3700150106382,新規,0,2021-12-22,2021-12-22,ＹＡＮＧ　ＭＩＮＧ　ＭＡＲＩＮＥ　ＴＲＡＮＳＰＯＲＴ　ＣＯＲＰＯＲＡＴＩＯＮ,,外国会社等,,,,,,,,Ｎｏ．２７１，Ｍｉｎｇ　Ｄｅ　１ｓｔ　Ｒｏａｄ，Ｃｉｄｕ　Ｄｉｓｔｒｉｃｔ，Ｋｅｅｌｕｎｇ２０６４６，Ｔａｉｗａｎ（Ｒ．Ｏ．Ｃ．）,,,,,,2021-12-22,1,,,,,ヤンミンマリントランスポートコーポレーシヨン,0
843,4010001223388,新規,0,2021-12-22,2021-12-22,ＢＩＮＧＯ株式会社,,株式会社,東京都,千代田区,外神田４丁目５番４号,,13,101,1010021,,,,,,,2021-12-22,1,,,,,ビンゴ,0
844,4010001223413,新規,0,2021-12-22,2021-12-22,チャレンジャーベース株式会社,,株式会社,東京都,中央区,日本橋２丁目１６番３号,,13,102,1030027,,,,,,,2021-12-22,1,,,,,チャレンジャーベース,0
856,4010401164562,新規,0,2021-12-22,2021-12-22,株式会社ＤＡＯ　Ｉｎｔｅｒｎａｔｉｏｎａｌ,,株式会社,東京都,港区,新橋３丁目４番８号昌栄ビル１階,,13,103,1050004,,,,,,,2021-12-22,1,,,,,ダオインターナショナル,0
857,4010401164595,新規,0,2021-12-22,2021-12-22,スエズ日本株式会社,,株式会社,東京都,港区,南麻布３丁目１９番２３号オーク南麻布ビル２階,,13,103,1060047,,,,,,,2021-12-22,1,,,,,スエズニッポン,0
862,4010403026752,新規,0,2021-12-22,2021-12-22,合同会社ＨＣＳ,,合同会社,東京都,港区,南麻布３丁目１９番１９－５０４号,,13,103,1060047,,,,,,,2021-12-22,1,,,,,エイチシーエス,0
865,4010405020530,新規,0,2021-12-22,2021-12-22,特定非営利活動法人ＥＴＦ,,その他の設立登記法人,東京都,港区,六本木５丁目１６番２３－１０５号,,13,103,1060032,,,,,,,2021-12-22,1,,,,,イーティエフ,0
869,4010701041940,新規,0,2021-12-22,2021-12-22,グローバル株式会社,,株式会社,東京都,品川区,西五反田１丁目２６番２号五反田サンハイツ９１１,,13,109,1410031,,,,,,,2021-12-22,1,,,,,グローバル,0
881,4011001144673,新規,0,2021-12-22,2021-12-22,株式会社カイゼン,,株式会社,東京都,渋谷区,渋谷３丁目５番１６号,,13,113,1500002,,,,,,,2021-12-22,1,,,,,カイゼン,0
887,4011101097301,新規,0,2021-12-22,2021-12-22,株式会社ｍａｒｂｒｅ　ｖｅｇａｎ　ＳＥ　ＤＩＦＦＵＳＥＲ　ＬＥ　ＭＯＮＤＥ,,株式会社,東京都,新宿区,新宿２丁目１番５号,,13,104,1600022,,,,,,,2021-12-22,1,,,,,マルブルヴィーガンスディフューザールモンド,0
890,4011203003710,新規,0,2021-12-22,2021-12-22,合同会社舟橋商事,,合同会社,東京都,中野区,弥生町２丁目３７－９弥生町Ｌｅｔ’ｓ２０９,,13,114,1640013,,,,,,,2021-12-22,1,,,,,フナハシショウジ,0
892,4011501027584,新規,0,2021-12-22,2021-12-22,株式会社ｄｒｅａｍ　ｐａｔｈ,,株式会社,東京都,荒川区,南千住２丁目１６番１０号,,13,118,1160003,,,,,,,2021-12-22,1,,,,,ドリームパス,0
905,4012303001629,新規,0,2021-12-22,2021-12-22,合同会社Ｉｎｎｏｔｅｃｔ,,合同会社,東京都,町田市,原町田６丁目９－８ＡＥＴＡ町田４Ｆ,,13,209,1940013,,,,,,,2021-12-22,1,,,,,イノテクト,0
906,4012801021293,新規,0,2021-12-22,2021-12-22,株式会社ＥＮＧＡＷＡ,,株式会社,東京都,立川市,柏町４丁目６０－４３,,13,202,1900004,,,,,,,2021-12-22,1,,,,,エンガワ,0
913,4013301048463,新規,0,2021-12-22,2021-12-22,株式会社クリート,,株式会社,東京都,豊島区,東池袋２丁目３９番２号,,13,116,1700013,,,,,,,2021-12-22,1,,,,,クリート,0
926,4020005015310,新規,0,2021-12-22,2021-12-22,医療法人社団世幸会,,その他の設立登記法人,神奈川県,横浜市保土ケ谷区,瀬戸ケ谷町４０番地２,,14,106,2400024,,,,,,,2021-12-22,1,,,,,セイコウカイ,0
935,4030001145960,新規,0,2021-12-22,2021-12-22,株式会社ベストＱＯＬ,,株式会社,埼玉県,朝霞市,膝折町２丁目２番１９号,,11,227,3510014,,,,,,,2021-12-22,1,,,,,ベストキューオーエル,0
951,4040001121432,新規,0,2021-12-22,2021-12-22,株式会社サンロード,,株式会社,千葉県,市川市,行徳駅前２丁目１２番１２号,,12,203,2720133,,,,,,,2021-12-22,1,,,,,サンロード,0
952,4040001121440,新規,0,2021-12-22,2021-12-22,株式会社ＥＮＩＳＨＩ,,株式会社,千葉県,市川市,南行徳４丁目１番２２号１０１,,12,203,2720138,,,,,,,2021-12-22,1,,,,,エニシ,0
953,4040001121449,新規,0,2021-12-22,2021-12-22,株式会社７３ＳＴＹＬＥ,,株式会社,千葉県,南房総市,千倉町北朝夷２８３７番地４,,12,234,2950011,,,,,,,2021-12-22,1,,,,,ナナサンスタイル,0
954,4040001121465,新規,0,2021-12-22,2021-12-22,株式会社ポセイドン,,株式会社,千葉県,船橋市,夏見３丁目２６番１７号ＳＥＶＥＮＧＡＴＥ７０１号,,12,204,2730865,,,,,,,2021-12-22,1,,,,,ポセイドン,0
961,4040003019170,新規,0,2021-12-22,2021-12-22,合同会社ＳＥＮＮＡ,,合同会社,千葉県,習志野市,津田沼３丁目１０番８号,,12,216,2750016,,,,,,,2021-12-22,1,,,,,セナ,0
963,4050001050341,新規,0,2021-12-22,2021-12-22,株式会社ＬＩＦＩＸ,,株式会社,茨城県,結城市,大字武井６６８番地２,,08,207,3070043,,,,,,,2021-12-22,1,,,,,リフィックス,0
969,4060003003908,新規,0,2021-12-22,2021-12-22,合同会社ｏｒｉｇｉｎ,,合同会社,栃木県,塩谷郡高根沢町,大字宝積寺２２４３番地１０２,,09,386,3291233,,,,,,,2021-12-22,1,,,,,オリジン,0
986,4080103002485,新規,0,2021-12-22,2021-12-22,沼津シーフードダイニング合同会社,,合同会社,静岡県,伊豆市,土肥３１８‐３三浦アパート２号室,,22,222,4103302,,,,,,,2021-12-22,1,,,,,ヌマヅシーフードダイニング,0
1002,4120001242666,新規,0,2021-12-22,2021-12-22,株式会社ｌｉｆｅ　Ｂｅ,,株式会社,大阪府,大阪市北区,梅田２丁目２番２号ヒルトンプラザウエスト１９階,,27,127,5300001,,,,,,,2021-12-22,1,,,,,ライフビー,0
1003,4120001242690,新規,0,2021-12-22,2021-12-22,株式会社Ｌｉｔｚｅ　ｄｅｓｉｇｎ　ｗｏｒｋ,,株式会社,大阪府,大阪市阿倍野区,阪南町５丁目２０番８号２Ｆ,,27,119,5450021,,,,,,,2021-12-22,1,,,,,ライツデザインワーク,0
1008,4120003020797,新規,0,2021-12-22,2021-12-22,合同会社Ｏ・Ｋ・Ａ,,合同会社,大阪府,大阪市生野区,桃谷３丁目２２番２２号,,27,116,5440034,,,,,,,2021-12-22,1,,,,,オーケーエー,0
1013,4120101064829,新規,0,2021-12-22,2021-12-22,株式会社妙相,,株式会社,大阪府,堺市堺区,熊野町三丁２番２７号,,27,141,5900000,,,,,,,2021-12-22,1,,,,,ミョウショウ,0
1025,4130001070752,新規,0,2021-12-22,2021-12-22,株式会社三栄,,株式会社,京都府,船井郡京丹波町,東又前田２番地,,26,407,6220443,,,,,,,2021-12-22,1,,,,,サンエイ,0
1026,4130001070760,新規,0,2021-12-22,2021-12-22,株式会社くらら,,株式会社,京都府,京都市東山区,祇園町北側２９４番地,,26,105,6050073,,,,,,,2021-12-22,1,,,,,クララ,0
1035,4140001124210,新規,0,2021-12-22,2021-12-22,昭和工業株式会社,,株式会社,兵庫県,加古川市,加古川町友沢４４８番地の２０,,28,210,6750035,,,,,,,2021-12-22,1,,,,,ショウワコウギョウ,0
1036,4140001124284,新規,0,2021-12-22,2021-12-22,フィデリティセンター株式会社,,株式会社,兵庫県,尼崎市,御園町２４番地尼崎第一ビル４０２号,,28,202,6600861,,,,,,,2021-12-22,1,,,,,フィデリティセンター,0
1057,4180001149237,新規,0,2021-12-22,2021-12-22,株式会社ＯＧＩ　ＣＯＲＰＯＲＡＴＩＯＮ,,株式会社,愛知県,名古屋市南区,立脇町１丁目６番地,,23,112,4570077,,,,,,,2021-12-22,1,,,,,オギコーポレーション,0
1068,4200003005402,新規,0,2021-12-22,2021-12-22,合同会社ＵＭＣ,,合同会社,岐阜県,岐阜市,夕陽丘１２－３,,21,201,5008014,,,,,,,2021-12-22,1,,,,,ユーエムシー,0
1071,4230001019145,新規,0,2021-12-22,2021-12-22,ケアネスト株式会社,,株式会社,富山県,黒部市,生地神区１８３番地３,,16,207,9380061,,,,,,,2021-12-22,1,,,,,ケアネスト,0
1074,4240003005423,新規,0,2021-12-22,2021-12-22,合同会社恵栄工業,,合同会社,広島県,福山市,加茂町字粟根３７０番地,,34,207,7202416,,,,,,,2021-12-22,1,,,,,ケイエイコウギョウ,0
1075,4270003001378,新規,0,2021-12-22,2021-12-22,合同会社真心家,,合同会社,鳥取県,鳥取市,桂見６２０－４５,,31,201,6801417,,,,,,,2021-12-22,1,,,,,マゴコロヤ,0
1078,4290001095775,新規,0,2021-12-22,2021-12-22,大牟田介護サービス株式会社,,株式会社,福岡県,大牟田市,橋口町４番地６,,40,202,8360043,,,,,,,2021-12-22,1,,,,,オオムタカイゴサービス,0
1079,4290001095783,新規,0,2021-12-22,2021-12-22,株式会社ＦＬＯＷＥＲ　ＯＦ　ＬＩＦＥ,,株式会社,福岡県,福岡市中央区,警固２丁目１７番１４－３０１号,,40,133,8100023,,,,,,,2021-12-22,1,,,,,フラワーオブライフ,0
1080,4290001095791,新規,0,2021-12-22,2021-12-22,株式会社匠・技建,,株式会社,福岡県,糸島市,二丈武５８６番地４,,40,230,8191616,,,,,,,2021-12-22,1,,,,,タクミギケン,0
1081,4290005018484,新規,0,2021-12-22,2021-12-22,ＮＰＯ法人ｎｏｉｅ,,その他の設立登記法人,福岡県,福岡市中央区,大手門１丁目５番１７号,,40,133,8100074,,,,,,,2021-12-22,1,,,,,ノイエ,0
1094,4350001017483,新規,0,2021-12-22,2021-12-22,株式会社ミヤトヨアイディー,,株式会社,宮崎県,宮崎市,大字芳士字谷口６９２番１７号,,45,201,8800123,,,,,,,2021-12-22,1,,,,,ミヤトヨアイディー,0
1098,4370001047966,新規,0,2021-12-22,2021-12-22,株式会社絆善,,株式会社,宮城県,仙台市宮城野区,福室２丁目８番１７号福室マンション３１４号,,04,102,9830005,,,,,,,2021-12-22,1,,,,,バンゼン,0
1099,4370001047974,新規,0,2021-12-22,2021-12-22,株式会社たかはし電設,,株式会社,宮城県,大崎市,古川鶴ケ埣字新江北１９０番地２,,04,215,9896111,,,,,,,2021-12-22,1,,,,,タカハシデンセツ,0
1102,4380001032414,新規,0,2021-12-22,2021-12-22,株式会社光洋,,株式会社,福島県,いわき市,泉町滝尻字花見岡１番地の１,,07,204,9718182,,,,,,,2021-12-22,1,,,,,コウヨウ,0
1107,4390001016713,新規,0,2021-12-22,2021-12-22,ＨＹＣ総合株式会社,,株式会社,山形県,米沢市,丸の内２丁目１番３号,,06,202,9920052,,,,,,,2021-12-22,1,,,,,エイチワイシーソウゴウ,0
1108,4390001016721,新規,0,2021-12-22,2021-12-22,株式会社ＳＥＡＧＵＬＬ,,株式会社,山形県,寒河江市,大字西根字石川西２９３,,06,206,9910003,,,,,,,2021-12-22,1,,,,,シーガル,0
1109,4410005006443,新規,0,2021-12-22,2021-12-22,米代川流域森林・林業活性化協同組合,,その他の設立登記法人,秋田県,能代市,二ツ井町小繋字家後１０４番地１,,05,202,0183102,,,,,,,2021-12-22,1,,,,,,0
1112,4450001013563,新規,0,2021-12-22,2021-12-22,泊品株式会社,,株式会社,北海道,中川郡美深町,字東一条北５丁目４番地,,01,469,0982221,,,,,,,2021-12-22,1,,,,,ハクヒン,0
1115,4700150006879,新規,0,2021-12-22,2015-10-09,東急ドエル・アルス本郷南管理組合,,その他,東京都,文京区,本郷２丁目１５－１６,,13,105,1130033,,,,,,,2015-10-09,1,,,,,トウキユウドエルアルスホンゴウミナミカンリクミアイ,0
1117,4700150106381,新規,0,2021-12-22,2021-12-22,ＥＶＥＲＢＬＯＯＭ　ＧＬＯＢＡＬ　ＬＩＭＩＴＥＤ,,外国会社等,東京都,港区,新橋６丁目６４番４,,13,103,1050004,Ｖｉｓｔｒａ　Ｃｏｒｐｏｒａｔｅ　Ｓｅｒｖｉｃｅｓ　Ｃｅｎｔｒｅ，Ｇｒｏｕｎｄ　Ｆｌｏｏｒ　ＮＰＥ　Ｂｕｉｌｄｉｎｇ，Ｂｅａｃｈ　Ｒｏａｄ，Ａｐｉａ，Ｓａｍｏａ．,,,,,,2021-12-22,1,,,,,エバーブルームグローバルリミテツド,0
1134,5010001223362,新規,0,2021-12-22,2021-12-22,ホームリサーチ株式会社,,株式会社,東京都,中央区,銀座６丁目１３番９号,,13,102,1040061,,,,,,,2021-12-22,1,,,,,ホームリサーチ,0
1135,5010001223412,新規,0,2021-12-22,2021-12-22,ＫＤＫＮ株式会社,,株式会社,東京都,中央区,日本橋本石町４丁目５－８京央会館３階ル．ヲ号室,,13,102,1030021,,,,,,,2021-12-22,1,,,,,ケーディーケーエヌ,0
1138,5010003036606,新規,0,2021-12-22,2021-12-22,合同会社Ｓｔａｒｓｈｉｐ,,合同会社,東京都,文京区,湯島３丁目３７番１０号太田ビル２階４号,,13,105,1130034,,,,,,,2021-12-22,1,,,,,スターシップ,0
1144,5010401164553,新規,0,2021-12-22,2021-12-22,株式会社風光る,,株式会社,東京都,港区,南青山５丁目１－２５－１００２・ＯｆｆｉｃｅＯｍｏｔｅｓａｎｄｏＳｔｏｒｉｅｓ,,13,103,1070062,,,,,,,2021-12-22,1,,,,,カゼヒカル,0
1145,5010401164586,新規,0,2021-12-22,2021-12-22,バリューエステート株式会社,,株式会社,東京都,港区,六本木３丁目１１番２号,,13,103,1060032,,,,,,,2021-12-22,1,,,,,バリューエステート,0
1146,5010401164603,新規,0,2021-12-22,2021-12-22,株式会社ＪＩＮ　ＬＵＣＫアセットマネジメント,,株式会社,東京都,港区,南麻布１丁目１番１２号,,13,103,1060047,,,,,,,2021-12-22,1,,,,,ジンラックアセットマネジメント,0
1148,5010403026710,新規,0,2021-12-22,2021-12-22,ウズバラカ合同会社,,合同会社,東京都,港区,六本木４丁目１番１６－８０５－２,,13,103,1060032,,,,,,,2021-12-22,1,,,,,ウズバラカ,0
1161,5010703006040,新規,0,2021-12-22,2021-12-22,アクシス合同会社,,合同会社,東京都,品川区,西五反田１丁目２６番２号五反田サンハイツ９１１,,13,109,1410031,,,,,,,2021-12-22,1,,,,,アクシス,0
1162,5010705003300,新規,0,2021-12-22,2021-12-22,一般社団法人Ｎファーマシー,,その他の設立登記法人,東京都,品川区,上大崎３丁目１番１号目黒セントラルスクエア１５階,,13,109,1410021,,,,,,,2021-12-22,1,,,,,エヌファーマシー,0
1165,5010901050006,新規,0,2021-12-22,2021-12-22,株式会社いしづかしほ美容研究所,,株式会社,東京都,世田谷区,桜新町２丁目２番６号,,13,112,1540015,,,,,,,2021-12-22,1,,,,,イシヅカシホビヨウケンキュウジョ,0
1170,5011001144689,新規,0,2021-12-22,2021-12-22,株式会社１５ｃｍ,,株式会社,東京都,渋谷区,渋谷２丁目１９－１５宮益坂ビルディング６０９,,13,113,1500002,,,,,,,2021-12-22,1,,,,,ジュウゴセンチ,0
1171,5011001144730,新規,0,2021-12-22,2021-12-22,株式会社ラセングル,,株式会社,東京都,目黒区,青葉台３丁目６番２８号,,13,110,1530042,,,,,,,2021-12-22,1,,,,,ラセングル,0
1173,5011301002687,新規,0,2021-12-22,2021-12-22,株式会社ササキ工業,,株式会社,東京都,杉並区,永福１丁目３２番１４号,,13,115,1680064,,,,,,,2021-12-22,1,,,,,,0
1197,5013301048462,新規,0,2021-12-22,2021-12-22,笹屋ビル株式会社,,株式会社,東京都,豊島区,東池袋１丁目３６番５号笹屋ビル８０１号,,13,116,1700013,,,,,,,2021-12-22,1,,,,,ササヤビル,0
1204,5020001144426,新規,0,2021-12-22,2021-12-22,株式会社ワタナベ商事,,株式会社,神奈川県,川崎市川崎区,浜町１丁目２２番７－６号,,14,131,2100851,,,,,,,2021-12-22,1,,,,,ワタナベショウジ,0
1210,5020003021004,新規,0,2021-12-22,2021-12-22,ＬＩＣＣＡ　ＪＡＰＡＮ合同会社,,合同会社,神奈川県,横浜市西区,北幸１丁目１１番地１号水信ビル７Ｆ,,14,103,2200004,,,,,,,2021-12-22,1,,,,,リッカジャパン,0
1211,5020005015318,新規,0,2021-12-22,2021-12-22,特定非営利活動法人ＤＳＦ,,その他の設立登記法人,神奈川県,横浜市青葉区,あざみ野９番地２２あざみ野ゆうビル３０５,,14,117,2270000,,,,,,,2021-12-22,1,,,,,ディーエスエフ,0
1215,5021001074794,新規,0,2021-12-22,2021-12-22,株式会社のんびりや,,株式会社,神奈川県,平塚市,撫子原１２番３０号,,14,203,2540825,,,,,,,2021-12-22,1,,,,,ノンビリヤ,0
1217,5021005012362,新規,0,2021-12-22,2021-12-22,一般社団法人ＢＩＭ推進機構,,その他の設立登記法人,神奈川県,藤沢市,湘南台２丁目９番地の２ヴェルセ湘南６０２号室,,14,205,2520804,,,,,,,2021-12-22,1,,,,,ビーアイエムスイシンキコウ,0
1233,5040001121431,新規,0,2021-12-22,2021-12-22,フィルターシステム株式会社,,株式会社,千葉県,松戸市,金ケ作３３番地の４,,12,207,2702251,,,,,,,2021-12-22,1,,,,,フィルターシステム,0
1234,5040001121464,新規,0,2021-12-22,2021-12-22,株式会社トレード・オン,,株式会社,千葉県,印西市,中央北２丁目１番地３－１３２５号,,12,231,2701350,,,,,,,2021-12-22,1,,,,,トレードオン,0
1240,5040005021470,新規,0,2021-12-22,2021-12-22,一般社団法人日本プロテクション協会,,その他の設立登記法人,千葉県,柏市,若柴１７８番地４柏の葉キャンパス１４８街区２ショップ＆オフィス棟６Ｆ,,12,217,2770871,,,,,,,2021-12-22,1,,,,,ニホンプロテクションキョウカイ,0
1246,5050001050332,新規,0,2021-12-22,2021-12-22,株式会社ナーシングホームさくら,,株式会社,茨城県,つくば市,学園の森２丁目２５番地２１,,08,220,3050816,,,,,,,2021-12-22,1,,,,,ナーシングホームサクラ,0
1249,5060001034400,新規,0,2021-12-22,2021-12-22,ＮＹＴ株式会社,,株式会社,栃木県,那須塩原市,三区町５３５番地８,,09,213,3292745,,,,,,,2021-12-22,1,,,,,エヌワイティ,0
1250,5060001034409,新規,0,2021-12-22,2021-12-22,株式会社ｇａｉａ,,株式会社,栃木県,小山市,美しが丘３丁目３５番地１３,,09,208,3290207,,,,,,,2021-12-22,1,,,,,ガイア,0
1251,5060003003907,新規,0,2021-12-22,2021-12-22,ＨＡＮＳＡＩ　ＴＲＡＤＩＮＧ合同会社,,合同会社,栃木県,足利市,五十部町１２７２番地９,,09,202,3260843,,,,,,,2021-12-22,1,,,,,ハンサイトレーディング,0
1280,5100003006327,新規,0,2021-12-22,2021-12-22,合同会社コミューター,,合同会社,長野県,北佐久郡軽井沢町,大字長倉２１４１番地４５３,,20,321,3890111,,,,,,,2021-12-22,1,,,,,コミューター,0
1302,5120001242632,新規,0,2021-12-22,2021-12-22,株式会社Ｗｅｌｌｎｅｓｓ　Ｒｅｓｅａｒｃｈ,,株式会社,大阪府,大阪市福島区,福島７丁目５番７号ＦＵＫＵＳＨＩＭＡＳｔｏＲＫＢｌｄｇ．４Ｆ,,27,103,5530003,,,,,,,2021-12-22,1,,,,,ウェルネスリサーチ,0
1303,5120001242665,新規,0,2021-12-22,2021-12-22,ＴＣＲ株式会社,,株式会社,大阪府,枚方市,長尾谷町１丁目３０３番地の１２－１Ｆ,,27,210,5730164,,,,,,,2021-12-22,1,,,,,ティーシーアール,0
1304,5120001242681,新規,0,2021-12-22,2021-12-22,株式会社アルフェス,,株式会社,大阪府,門真市,深田町１２番５号,,27,223,5710042,,,,,,,2021-12-22,1,,,,,アルフェス,0
1315,5120003020813,新規,0,2021-12-22,2021-12-22,合同会社プラチナムカフェ,,合同会社,大阪府,大阪市生野区,田島２丁目１０－１５,,27,116,5440011,,,,,,,2021-12-22,1,,,,,プラチナムカフェ,0
1325,5130001070768,新規,0,2021-12-22,2021-12-22,株式会社黒鰐,,株式会社,京都府,京田辺市,興戸南落延３６番地４,,26,211,6100332,,,,,,,2021-12-22,1,,,,,クロワニ,0
1326,5130003007644,新規,0,2021-12-22,2021-12-22,合同会社泉商,,合同会社,京都府,八幡市,岩田西玉造２７番地の６,,26,210,6148253,,,,,,,2021-12-22,1,,,,,センショウ,0
1327,5130003007652,新規,0,2021-12-22,2021-12-22,合同会社おおきに,,合同会社,京都府,京都市中京区,蛸薬師通河原町西入裏寺町５９５番地グランレ・ジェイド京都河原町９０４号,,26,104,6048041,,,,,,,2021-12-22,1,,,,,オオキニ,0
1330,5140001124242,新規,0,2021-12-22,2021-12-22,さくら機械産業株式会社,,株式会社,兵庫県,神戸市中央区,北長狭通３丁目１２番３号リーストラクチャートアウエスト３階,,28,110,6500012,,,,,,,2021-12-22,1,,,,,サクラキカイサンギョウ,0
1331,5140001124283,新規,0,2021-12-22,2021-12-22,フィデリティアセット株式会社,,株式会社,兵庫県,尼崎市,御園町２４番地尼崎第一ビル４０２号,,28,202,6600861,,,,,,,2021-12-22,1,,,,,フィデリティアセット,0
1352,5180003023315,新規,0,2021-12-22,2021-12-22,落合プランニング合同会社,,合同会社,愛知県,名古屋市東区,代官町４０番１８号,,23,102,4610002,,,,,,,2021-12-22,1,,,,,オチアイプランニング,0
1354,5180301035747,新規,0,2021-12-22,2021-12-22,株式会社ＡＩＺホールディングス,,株式会社,愛知県,岡崎市,西蔵前町字岩鼻１１番地１４,,23,202,4442147,,,,,,,2021-12-22,1,,,,,エーアイゼットホールディングス,0
1368,5210003001432,新規,0,2021-12-22,2021-12-22,合同会社ＧＲＥＥＮ　ＣＲＥＡＴＥ,,合同会社,福井県,勝山市,滝波町３丁目８１５,,18,206,9110034,,,,,,,2021-12-22,1,,,,,グリーンクリエイト,0
1371,5240001059081,新規,0,2021-12-22,2021-12-22,株式会社天羽,,株式会社,広島県,広島市西区,庚午北２丁目５番２１－３０２号,,34,104,7330821,,,,,,,2021-12-22,1,,,,,アモウ,0
1374,5240003005422,新規,0,2021-12-22,2021-12-22,合同会社プランナーズハイ,,合同会社,広島県,広島市南区,宇品御幸１丁目１２番６－３号,,34,103,7340015,,,,,,,2021-12-22,1,,,,,プランナーズハイ,0
1384,5290001095774,新規,0,2021-12-22,2021-12-22,嘉瑞株式会社,,株式会社,福岡県,福岡市東区,青葉３丁目１７番３号,,40,131,8130025,,,,,,,2021-12-22,1,,,,,カズイ,0
1385,5290001095790,新規,0,2021-12-22,2021-12-22,株式会社Ｑ‐ｉｎｎｏｖａｔｉｏｎｓ,,株式会社,福岡県,筑紫野市,石崎３丁目８番２７号,,40,217,8180068,,,,,,,2021-12-22,1,,,,,キューイノベーションズ,0
1386,5290001095799,新規,0,2021-12-22,2021-12-22,株式会社繋ぐプランニング,,株式会社,福岡県,福岡市東区,香椎駅前２丁目１番２５号藤本ビル２階,,40,131,8130013,,,,,,,2021-12-22,1,,,,,ツナグプランニング,0
1387,5290003011944,新規,0,2021-12-22,2021-12-22,ＳＫ観光開発合同会社,,合同会社,福岡県,福岡市中央区,天神３丁目４番１－６０３号,,40,133,8100001,,,,,,,2021-12-22,1,,,,,エスケイカンコウカイハツ,0
1388,5290003011952,新規,0,2021-12-22,2021-12-22,合同会社ＭＦＧ,,合同会社,福岡県,福岡市東区,香椎照葉７丁目７番２８号,,40,131,8130017,,,,,,,2021-12-22,1,,,,,エムエフジー,0
1403,5360001029799,新規,0,2021-12-22,2021-12-22,アルプロス株式会社,,株式会社,沖縄県,宜野湾市,宜野湾２丁目１４番３号センチュリーハウスＢ－４０２号,,47,205,9012211,,,,,,,2021-12-22,1,,,,,アルプロス,0
1409,5360003011672,新規,0,2021-12-22,2021-12-22,グライダーエイトオキナワ合同会社,,合同会社,沖縄県,豊見城市,字豊崎１番地４３６,,47,212,9010225,,,,,,,2021-12-22,1,,,,,グライダーエイトオキナワ,0
1425,5400005008200,新規,0,2021-12-22,2021-12-22,特定非営利活動法人いわて断酒会,,その他の設立登記法人,岩手県,花巻市,野田３６７番地２,,03,205,0250052,,,,,,,2021-12-22,1,,,,,イワテダンシュカイ,0
1432,5430003013471,新規,0,2021-12-22,2021-12-22,合同会社Ｄ．Ａ．Ｃ,,合同会社,北海道,北広島市,大曲南ヶ丘２丁目４番１号,,01,234,0611275,,,,,,,2021-12-22,1,,,,,ディーエイシー,0
1435,5460101007109,新規,0,2021-12-22,2021-12-22,株式会社モーモーＣｏｗ,,株式会社,北海道,河東郡上士幌町,字居辺東１８線２７１番地,,01,633,0801406,,,,,,,2021-12-22,1,,,,,モーモーカウ,0
1437,5470001018881,新規,0,2021-12-22,2021-12-22,株式会社平尾塗建,,株式会社,香川県,綾歌郡綾川町,山田上甲２２５５番地１,,37,387,7612203,,,,,,,2021-12-22,1,,,,,ヒラオトケン,0
1442,5700150106380,新規,0,2021-12-22,2021-12-22,Ｆｕｇｒｏ　Ｍｉｄｄｌｅ　Ｅａｓｔ,,外国会社等,,,,,,,,２４Ｂ　Ｓｔｒｅｅｔ，Ｄｕｂａｉ　｜　Ｐ．Ｏ．　Ｂｏｘ　２８６３，Ｄｕｂａｉ，Ｕｎｉｔｅｄ　Ａｒａｂ　Ｅｍｉｒａｔｅ,,,,,,2021-12-22,1,,,,,フグロミドルイースト,0
1455,6010001223386,新規,0,2021-12-22,2021-12-22,株式会社月島グラフィック,,株式会社,東京都,中央区,佃２丁目１２番１０号,,13,102,1040051,,,,,,,2021-12-22,1,,,,,ツキシマグラフィック,0
1456,6010001223403,新規,0,2021-12-22,2021-12-22,株式会社Ｔ．ＳＵＮ　ＲＩＳＥＳ,,株式会社,東京都,中央区,晴海３丁目１３番１号ドゥ・トゥールイースト５２０８,,13,102,1040053,,,,,,,2021-12-22,1,,,,,ティーサンライジズ,0
1457,6010001223444,新規,0,2021-12-22,2021-12-22,くにうみＡＩアドバイザーズ株式会社,,株式会社,東京都,千代田区,丸の内２丁目２番３号,,13,101,1000005,,,,,,,2021-12-22,1,,,,,クニウミエーアイアドバイザーズ,0
1464,6010401164560,新規,0,2021-12-22,2021-12-22,株式会社ＫＳＫ,,株式会社,東京都,港区,赤坂１丁目１１番４０－２８０２号,,13,103,1070052,,,,,,,2021-12-22,1,,,,,ケーエスケー,0
1465,6010401164577,新規,0,2021-12-22,2021-12-22,株式会社モーター,,株式会社,東京都,港区,南青山２丁目２番１５号,,13,103,1070062,,,,,,,2021-12-22,1,,,,,モーター,0
1466,6010401164610,新規,0,2021-12-22,2021-12-22,株式会社ＭＯＡＬ,,株式会社,東京都,港区,赤坂２丁目１７番５０号,,13,103,1070052,,,,,,,2021-12-22,1,,,,,モアル,0
1470,6010403026742,新規,0,2021-12-22,2021-12-22,みなとアドバイザリーグループ合同会社,,合同会社,東京都,港区,新橋４丁目３０番６号京急中はらビル５階,,13,103,1050004,,,,,,,2021-12-22,1,,,,,ミナトアドバイザリーグループ,0
1471,6010403026767,新規,0,2021-12-22,2021-12-22,合同会社ＬＥＡＰ,,合同会社,東京都,港区,芝浦４丁目１９番１－４０２５号,,13,103,1080023,,,,,,,2021-12-22,1,,,,,リープ,0
1475,6010501048242,新規,0,2021-12-22,2021-12-22,株式会社河村青雲堂,,株式会社,東京都,台東区,下谷１丁目１１番５－９０３号,,13,106,1100004,,,,,,,2021-12-22,1,,,,,カワムラセイウンドウ,0
1478,6010701041963,新規,0,2021-12-22,2021-12-22,株式会社ｍｕｇｅｎ,,株式会社,東京都,品川区,戸越３丁目１０番１５号Ｋ＆ＭハイツＩＶ３０４,00125198,13,109,1420041,,,,,,,2021-12-22,1,,,,,ムゲン,0
1481,6010801032598,新規,0,2021-12-22,2021-12-22,アンビエンテ株式会社,,株式会社,東京都,大田区,田園調布南５番２０号,,13,111,1450076,,,,,,,2021-12-22,1,,,,,アンビエンテ,0
1492,6011005009367,新規,0,2021-12-22,2021-12-22,一般社団法人ヤングケアラー協会,,その他の設立登記法人,東京都,渋谷区,神宮前６丁目２３番４号桑野ビル２階,,13,113,1500001,,,,,,,2021-12-22,1,,,,,ヤングケアラーキョウカイ,0
1495,6011203003717,新規,0,2021-12-22,2021-12-22,ファルコン合同会社,,合同会社,東京都,中野区,鷺宮１丁目１０番５－３０９号,,13,114,1650032,,,,,,,2021-12-22,1,,,,,ファルコン,0
1497,6011303004251,新規,0,2021-12-22,2021-12-22,合同会社ＡＬＤＥＵＳ,,合同会社,東京都,杉並区,方南１丁目８－４－３０１,,13,115,1680062,,,,,,,2021-12-22,1,,,,,アルデウス,0
1502,6011801040095,新規,0,2021-12-22,2021-12-22,株式会社ＮＯＲＯＳＨＩ,,株式会社,東京都,足立区,千住橋戸町１番地２０ＡＱＵＡＶＩＳＴＡ１３０４号室,,13,121,1200038,,,,,,,2021-12-22,1,,,,,ノロシ,0
1507,6013101008806,新規,0,2021-12-22,2021-12-22,株式会社ＰＣＳ,,株式会社,東京都,青梅市,河辺町４丁目１５番地の７サンアベニュー河辺２階２０２号室,,13,205,1980036,,,,,,,2021-12-22,1,,,,,ピーシーエス,0
1511,6013301048445,新規,0,2021-12-22,2021-12-22,田中デザイン株式会社,,株式会社,東京都,豊島区,北大塚２丁目１１番１号,,13,116,1700004,,,,,,,2021-12-22,1,,,,,タナカデザイン,0
1512,6013301048461,新規,0,2021-12-22,2021-12-22,株式会社サンライフクリエイトＡ,,株式会社,東京都,豊島区,北大塚１丁目２０番９号,,13,116,1700004,,,,,,,2021-12-22,1,,,,,サンライフクリエイトエー,0
1519,6020001144409,新規,0,2021-12-22,2021-12-22,株式会社ＰＵＲＡＮＡ,,株式会社,神奈川県,横浜市南区,井土ケ谷中町１６１好々亭ビル１Ｆ,,14,105,2320052,,,,,,,2021-12-22,1,,,,,プラーナ,0
1520,6020001144433,新規,0,2021-12-22,2021-12-22,株式会社Ａｎｏｔｈｅｒ　Ｅａｒｔｈ,,株式会社,神奈川県,横浜市中区,相生町４丁目６７,,14,104,2310012,,,,,,,2021-12-22,1,,,,,アナザーアース,0
1521,6020001144441,新規,0,2021-12-22,2021-12-22,秦電設株式会社,,株式会社,神奈川県,川崎市多摩区,生田５丁目２３番６－１号,,14,135,2140038,,,,,,,2021-12-22,1,,,,,ハタデンセツ,0
1524,6021001074802,新規,0,2021-12-22,2021-12-22,Ｋ．Ｊ．Ｓ株式会社,,株式会社,神奈川県,相模原市南区,下溝２５６９番地１０,,14,153,2520335,,,,,,,2021-12-22,1,,,,,ケイジェイエス,0
1525,6021003011209,新規,0,2021-12-22,2021-12-22,合同会社ＲＩＣＨＥ,,合同会社,神奈川県,相模原市緑区,下九沢２８９９番地プレミアスＢ３０１,,14,151,2520134,,,,,,,2021-12-22,1,,,,,リッシュ,0
1530,6030001145876,新規,0,2021-12-22,2021-12-22,株式会社シャヒン興業,,株式会社,埼玉県,川口市,鳩ヶ谷本町２丁目１１番３号ヒルサイド・ヴィラ２０２号,,11,203,3340002,,,,,,,2021-12-22,1,,,,,シャヒンコウギョウ,0
1538,6030003018543,新規,0,2021-12-22,2021-12-22,合同会社すいえん,,合同会社,埼玉県,川越市,岸町２丁目４０番地２５,,11,201,3501131,,,,,,,2021-12-22,1,,,,,スイエン,0
1540,6030005020670,新規,0,2021-12-22,2021-12-22,一般社団法人野球はみんなのスポーツ,,その他の設立登記法人,埼玉県,川越市,豊田町２丁目５番地２アートパレス豊田１０６号室,,11,201,3501110,,,,,,,2021-12-22,1,,,,,ヤキュウハミンナノスポーツ,0
1542,6040001121414,新規,0,2021-12-22,2021-12-22,株式会社ホワイトライン,,株式会社,千葉県,千葉市中央区,千葉寺町１２５２番地１,,12,101,2600844,,,,,,,2021-12-22,1,,,,,ホワイトライン,0
1545,6040003019128,新規,0,2021-12-22,2021-12-22,合同会社恵比助,,合同会社,千葉県,長生郡長生村,金田２７３２番地１,,12,423,2994332,,,,,,,2021-12-22,1,,,,,エビスケ,0
1546,6040003019169,新規,0,2021-12-22,2021-12-22,Ｉｃｅｂｅｒｇ　Ｓｔｒａｔｅｇｙ合同会社,,合同会社,千葉県,船橋市,夏見４丁目３６番６９号,,12,204,2730865,,,,,,,2021-12-22,1,,,,,アイスバーグストラテジー,0
1548,6060001034399,新規,0,2021-12-22,2021-12-22,株式会社ＳＵＮＤＨＵ　ＴＲＡＤＩＮＧ,,株式会社,栃木県,日光市,小代５１０番地１８３,,09,206,3211107,,,,,,,2021-12-22,1,,,,,サンドゥトレーディング,0
1556,6070003004341,新規,0,2021-12-22,2021-12-22,ＴＰ合同会社,,合同会社,群馬県,館林市,大谷町８９６番地の５,,10,207,3740054,,,,,,,2021-12-22,1,,,,,ティーピー,0
1557,6080003002708,新規,0,2021-12-22,2021-12-22,たったひとりの最終決戦合同会社,,合同会社,静岡県,静岡市葵区,宮ケ崎町９２,,22,101,4200868,,,,,,,2021-12-22,1,,,,,タッタヒトリノサイシュウケッセン,0
1558,6090003002013,新規,0,2021-12-22,2021-12-22,フジサービス合同会社,,合同会社,山梨県,富士吉田市,新町１丁目７－２－２０１号,,19,202,4030019,,,,,,,2021-12-22,1,,,,,フジサービス,0
1572,6120001242631,新規,0,2021-12-22,2021-12-22,シンビューティー株式会社,,株式会社,大阪府,大阪市住吉区,墨江２丁目１－４Ｋビル４Ｆ,,27,120,5580043,,,,,,,2021-12-22,1,,,,,シンビューティー,0
1573,6120001242672,新規,0,2021-12-22,2021-12-22,株式会社Ｈａｐｐｙ　ｍａｎ,,株式会社,大阪府,大阪市住吉区,長居東４丁目１番１２号,,27,120,5580004,,,,,,,2021-12-22,1,,,,,ハッピーマン,0
1574,6120001242689,新規,0,2021-12-22,2021-12-22,銀河物流株式会社,,株式会社,大阪府,大阪市東住吉区,西今川４丁目１２番７号,,27,121,5460042,,,,,,,2021-12-22,1,,,,,ギンガブツリュウ,0
1579,6120003020820,新規,0,2021-12-22,2021-12-22,合同会社タップ,,合同会社,大阪府,大阪市福島区,海老江３丁目１０番１３号,,27,103,5530001,,,,,,,2021-12-22,1,,,,,タップ,0
1593,6130003007651,新規,0,2021-12-22,2021-12-22,リーガルポート合同会社,,合同会社,京都府,京都市中京区,三条通油小路東入塩屋町５４番地,,26,104,6048247,,,,,,,2021-12-22,1,,,,,リーガルポート,0
1599,6140001124258,新規,0,2021-12-22,2021-12-22,株式会社ＸＥＥＤ,,株式会社,兵庫県,加西市,北条町西南４０２番地の１,,28,220,6752323,,,,,,,2021-12-22,1,,,,,シード,0
1600,6140001124282,新規,0,2021-12-22,2021-12-22,フィデリティインベスト株式会社,,株式会社,兵庫県,尼崎市,御園町２４番地尼崎第一ビル４０２号,,28,202,6600861,,,,,,,2021-12-22,1,,,,,フィデリティインベスト,0
1601,6140001124290,新規,0,2021-12-22,2021-12-22,イブキトケイト株式会社,,株式会社,兵庫県,姫路市,福中町２６番地神村ビル１０５,,28,201,6700017,,,,,,,2021-12-22,1,,,,,イブキトケイト,0
1602,6140001124299,新規,0,2021-12-22,2021-12-22,阪神インテリジェンストータルサービス株式会社,,株式会社,兵庫県,尼崎市,開明町１丁目６８－１１－３０２号,,28,202,6600862,,,,,,,2021-12-22,1,,,,,ハンシンインテリジェンストータルサービス,0
1625,6180001149227,新規,0,2021-12-22,2021-12-22,株式会社ａｎ　ｒｉｊｕ,,株式会社,愛知県,名古屋市瑞穂区,弥富通五丁目１０番地ソレットベルメゾン４Ｃ,,23,108,4670000,,,,,,,2021-12-22,1,,,,,アンリジュ,0
1634,6180003023306,新規,0,2021-12-22,2021-12-22,ＫＨＡＮＨ　ＴＨＵＡＮ合同会社,,合同会社,愛知県,名古屋市千種区,今池１丁目２９番１号今池常磐ビル３Ｆ,,23,101,4640850,,,,,,,2021-12-22,1,,,,,カントゥアン,0
1640,6200003005400,新規,0,2021-12-22,2021-12-22,合同会社ＮＡＫＡＳＨＩＭＡ,,合同会社,岐阜県,土岐市,駄知町２１７９番地３,,21,212,5095401,,,,,,,2021-12-22,1,,,,,ナカシマ,0
1642,6200005013293,新規,0,2021-12-22,2021-12-22,医療法人秋田歯科医院,,その他の設立登記法人,岐阜県,羽島郡岐南町,三宅２丁目１１９番地,,21,302,5016002,,,,,,,2021-12-22,1,,,,,アキタシカイイン,0
1646,6230003001776,新規,0,2021-12-22,2021-12-22,ＡｂｒｉｒＫ合同会社,,合同会社,富山県,富山市,婦中町夢ケ丘１９５番地,,16,201,9392709,,,,,,,2021-12-22,1,,,,,アブリールケー,0
1653,6240003005421,新規,0,2021-12-22,2021-12-22,合同会社大川商会,,合同会社,広島県,福山市,佐波町１６４番地１－１０１号,,34,207,7200835,,,,,,,2021-12-22,1,,,,,オオカワショウカイ,0
1657,6260005011003,新規,0,2021-12-22,2021-12-22,特定非営利活動法人ふるさとの家,,その他の設立登記法人,岡山県,笠岡市,笠岡５６１１－３９,,33,205,7140081,,,,,,,2021-12-22,1,,,,,フルサトノイエ,0
1660,6290001095732,新規,0,2021-12-22,2021-12-22,レプシス株式会社,,株式会社,福岡県,福岡市早良区,高取１丁目１番１７号アートリーチェ３Ｆ,,40,137,8140011,,,,,,,2021-12-22,1,,,,,レプシス,0
1666,6290801028098,新規,0,2021-12-22,2021-12-22,株式会社サスティナブルファーム,,株式会社,福岡県,京都郡苅田町,神田町１丁目１９番３－１０１号,,40,621,8000361,,,,,,,2021-12-22,1,,,,,サスティナブルファーム,0
1676,6350003003991,新規,0,2021-12-22,2021-12-22,合同会社Ｋ,,合同会社,宮崎県,都城市,鷹尾４丁目１０街区２号,,45,202,8850081,,,,,,,2021-12-22,1,,,,,ケー,0
1681,6360003011671,新規,0,2021-12-22,2021-12-22,合同会社Ｌｅａｐ　Ｇａｔｅ,,合同会社,沖縄県,豊見城市,字翁長４６４番地３,,47,212,9010223,,,,,,,2021-12-22,1,,,,,,0
1685,6370001047972,新規,0,2021-12-22,2021-12-22,株式会社スリーエス,,株式会社,宮城県,大崎市,古川前田町１０番３６号,,04,215,9896172,,,,,,,2021-12-22,1,,,,,,0
1692,6380001032420,新規,0,2021-12-22,2021-12-22,株式会社Ｇｉｆｔｅｄ,,株式会社,福島県,福島市,方木田字稲荷塚３６番地の４第二清らかビル１階,,07,201,9608163,,,,,,,2021-12-22,1,,,,,ギフテッド,0
1693,6390001004600,新規,0,2021-12-22,2021-12-22,丸吉興業株式会社,,株式会社,山形県,天童市,大字蔵増乙１４２０番地,,06,210,9940075,,,,,,,2021-12-22,1,,,,,マルヨシコウギョウ,0
1696,6410001013045,新規,0,2021-12-22,2021-12-22,株式会社もぐもぐワークス,,株式会社,秋田県,鹿角郡小坂町,小坂字坂ノ影４５番地２,,05,303,0170201,,,,,,,2021-12-22,1,,,,,モグモグワークス,0
1700,6430001085628,新規,0,2021-12-22,2021-12-22,株式会社エーアイ運輸,,株式会社,北海道,札幌市清田区,里塚一条３丁目１番１号,,01,110,0040801,,,,,,,2021-12-22,1,,,,,エーアイウンユ,0
1701,6430001085644,新規,0,2021-12-22,2021-12-22,Ｃｒｏｓｓ　Ｇｒｏｕｐ株式会社,,株式会社,北海道,恵庭市,栄恵町２０番地第１３ビジュアルビル６Ｆ,,01,231,0611443,,,,,,,2021-12-22,1,,,,,クロスグループ,0
1709,6500001023877,新規,0,2021-12-22,2021-12-22,株式会社丸石工建,,株式会社,愛媛県,宇和島市,伊吹町甲１４８９番地１,,38,203,7980022,,,,,,,2021-12-22,1,,,,,マルイシコウケン,0
1724,7010003036587,新規,0,2021-12-22,2021-12-22,ライト合同会社,,合同会社,東京都,文京区,小石川１丁目５－１－２５１６,,13,105,1120002,,,,,,,2021-12-22,1,,,,,ライト,0
1732,7010401164477,新規,0,2021-12-22,2021-12-22,株式会社ＰＩＮＫ　ＤＯＯＲ,,株式会社,東京都,港区,芝浦４丁目２０番２－４８０３号,,13,103,1080023,,,,,,,2021-12-22,1,,,,,ピンクドア,0
1733,7010401164551,新規,0,2021-12-22,2021-12-22,株式会社ズーヤン,,株式会社,東京都,港区,赤坂２丁目８番１８号妙和ビル２階,,13,103,1070052,,,,,,,2021-12-22,1,,,,,ズーヤン,0
1734,7010401164576,新規,0,2021-12-22,2021-12-22,６８ｋ株式会社,,株式会社,東京都,港区,虎ノ門１丁目２３番２号,,13,103,1050001,,,,,,,2021-12-22,1,,,,,ロクハチケイ,0
1735,7010401164592,新規,0,2021-12-22,2021-12-22,株式会社リファレンス青山,,株式会社,東京都,港区,南青山２丁目２番８号,,13,103,1070062,,,,,,,2021-12-22,1,,,,,リファレンスアオヤマ,0
1750,7010701041970,新規,0,2021-12-22,2021-12-22,Ｒｏａｄ株式会社,,株式会社,東京都,品川区,東大井５丁目１５－１０ゆいマール大井町１Ｆ,,13,109,1400011,,,,,,,2021-12-22,1,,,,,ロード,0
1753,7010801032597,新規,0,2021-12-22,2021-12-22,株式会社ＢｒａｉｎＳｔｒｅａｍ,,株式会社,東京都,大田区,蒲田５丁目３３－７セジョリ蒲田２－１１０１,,13,111,1440052,,,,,,,2021-12-22,1,,,,,ブレインストリーム,0
1755,7010901050037,新規,0,2021-12-22,2021-12-22,株式会社ａｎｄ　ｔｏ建築設計事務所,,株式会社,東京都,世田谷区,野沢２丁目２６番５号,,13,112,1540003,,,,,,,2021-12-22,1,,,,,アンドトゥーケンチクセッケイジムショ,0
1757,7010903007019,新規,0,2021-12-22,2021-12-22,合同会社オルガナ,,合同会社,東京都,世田谷区,三軒茶屋２丁目１３番２０－４０５号,,13,112,1540024,,,,,,,2021-12-22,1,,,,,オルガナ,0
1766,7011001144654,新規,0,2021-12-22,2021-12-22,株式会社オープンソース,,株式会社,東京都,渋谷区,渋谷２丁目１９－１５宮益坂ビルディング６０９,,13,113,1500002,,,,,,,2021-12-22,1,,,,,オープンソース,0
1768,7011101097265,新規,0,2021-12-22,2021-12-22,ダイホウ株式会社,,株式会社,東京都,新宿区,西新宿５丁目１５番１０号ソレーユシャトーＮＳＫ３０２号室,,13,104,1600023,,,,,,,2021-12-22,1,,,,,ダイホウ,0
1774,7011301027443,新規,0,2021-12-22,2021-12-22,株式会社ライスコーポレーション,,株式会社,東京都,杉並区,高円寺南２丁目２１番１０号シャッツクヴェレＡ,,13,115,1660003,,,,,,,2021-12-22,1,,,,,ライスコーポレーション,0
1779,7011801040094,新規,0,2021-12-22,2021-12-22,株式会社Ｃｏｔｔｏｎ　Ｐｉｒａｔｅｓ,,株式会社,東京都,足立区,舎人３丁目１４番１５－４０６号,,13,121,1210831,,,,,,,2021-12-22,1,,,,,コットンパイレーツ,0
1783,7012701016829,新規,0,2021-12-22,2021-12-22,株式会社アステマックス,,株式会社,東京都,東久留米市,南沢５丁目１９番８－１１１号,,13,222,2030023,,,,,,,2021-12-22,1,,,,,アステマックス,0
1787,7013101008805,新規,0,2021-12-22,2021-12-22,株式会社咲禾,,株式会社,東京都,あきる野市,秋川２丁目１０番地８松井ビル１Ｆ,,13,228,1970804,,,,,,,2021-12-22,1,,,,,ショウカ,0
1804,7020001144416,新規,0,2021-12-22,2021-12-22,株式会社ケアトップ,,株式会社,神奈川県,横浜市都筑区,北山田２丁目２番１１号ＫＳビル１Ｆ,,14,118,2240021,,,,,,,2021-12-22,1,,,,,ケアトップ,0
1805,7020001144440,新規,0,2021-12-22,2021-12-22,株式会社オフィスサトウ,,株式会社,神奈川県,横浜市青葉区,美しが丘１丁目１３番地１０吉村ビル１０７号,,14,117,2250002,,,,,,,2021-12-22,1,,,,,オフィスサトウ,0
1815,7021003011216,新規,0,2021-12-22,2021-12-22,合同会社ＫＵＲＯＭＩＮＥＴ,,合同会社,神奈川県,伊勢原市,東大竹１丁目１７－５,,14,214,2591133,,,,,,,2021-12-22,1,,,,,クロミネット,0
1828,7030001145958,新規,0,2021-12-22,2021-12-22,株式会社ジョイン,,株式会社,埼玉県,草加市,氷川町５２０番地５,,11,221,3400034,,,,,,,2021-12-22,1,,,,,ジョイン,0
1829,7030001145982,新規,0,2021-12-22,2021-12-22,株式会社スピンフィニティ,,株式会社,埼玉県,さいたま市大宮区,櫛引町１丁目２８８番地,,11,103,3300851,,,,,,,2021-12-22,1,,,,,スピンフィニティ,0
1833,7030003018542,新規,0,2021-12-22,2021-12-22,合同会社グリーンファイア,,合同会社,埼玉県,狭山市,大字北入曽１５０８－１５２,,11,215,3501315,,,,,,,2021-12-22,1,,,,,グリーンファイア,0
1838,7040001121479,新規,0,2021-12-22,2021-12-22,株式会社西峰,,株式会社,千葉県,鎌ケ谷市,新鎌ケ谷３丁目２番９号,,12,224,2730107,,,,,,,2021-12-22,1,,,,,ニシミネ,0
1842,7040003019176,新規,0,2021-12-22,2021-12-22,ＮＩＺＭＯ　ＭＯＴＯＲＳ合同会社,,合同会社,千葉県,山武市,埴谷５９１番地３,,12,237,2891223,,,,,,,2021-12-22,1,,,,,ニズモモータース,0
1853,7070001038761,新規,0,2021-12-22,2021-12-22,株式会社ｔｏｏ　ｃｏｏｌ,,株式会社,群馬県,前橋市,城東町２丁目１３グリーンプラザ１０１,,10,201,3710016,,,,,,,2021-12-22,1,,,,,トゥークール,0
1864,7100001034906,新規,0,2021-12-22,2021-12-22,株式会社Ｃｉｄｅｒ＆Ｃｏｍｐａｎｙ,,株式会社,長野県,長野市,大字鶴賀西鶴賀町１５５１－１－Ｃ３,,20,201,3800814,,,,,,,2021-12-22,1,,,,,シードルアンドカンパニー,0
1880,7120001242655,新規,0,2021-12-22,2021-12-22,株式会社ＵＰＯＯ,,株式会社,大阪府,大阪市東淀川区,東中島２丁目１７番１１－７１２号,,27,114,5330033,,,,,,,2021-12-22,1,,,,,ウポ,0
1881,7120001242671,新規,0,2021-12-22,2021-12-22,株式会社ｓｕｔｔｏ,,株式会社,大阪府,大阪市北区,梅田１丁目１１番４－１９００号,,27,127,5300001,,,,,,,2021-12-22,1,,,,,スット,0
1882,7120001242696,新規,0,2021-12-22,2021-12-22,株式会社Ｂｌａｎｃｈｅ－Ｎｅｉｇｅ,,株式会社,大阪府,大阪市中央区,西心斎橋１丁目３番３号日航ビル地下１階大丸ホワイトアベニュー,,27,128,5420086,,,,,,,2021-12-22,1,,,,,ブランシュネージュ,0
1884,7120003020811,新規,0,2021-12-22,2021-12-22,合同会社ハラハチブ,,合同会社,大阪府,大阪市福島区,大開２丁目１１番１６号,,27,103,5530007,,,,,,,2021-12-22,1,,,,,ハラハチブ,0
1886,7120101064826,新規,0,2021-12-22,2021-12-22,ボーサイシステム株式会社,,株式会社,大阪府,堺市南区,宮山台４丁１番６３号,,27,145,5900101,,,,,,,2021-12-22,1,,,,,ボーサイシステム,0
1890,7120901045380,新規,0,2021-12-22,2021-12-22,株式会社ＤＧＡ,,株式会社,大阪府,吹田市,江坂町３丁目２２番１９－３号,,27,205,5640063,,,,,,,2021-12-22,1,,,,,ディージーエー,0
1905,7140003017137,新規,0,2021-12-22,2021-12-22,合同会社ＮＯＭＩＥＬ,,合同会社,兵庫県,神戸市垂水区,潮見が丘１丁目２１番２５号,,28,108,6550005,,,,,,,2021-12-22,1,,,,,ノミエル,0
1912,7160003002450,新規,0,2021-12-22,2021-12-22,合同会社山拓ＳＵＣＣＥＳＳコーポレーション,,合同会社,滋賀県,大津市,下阪本６丁目２７番２７号,,25,201,5200105,,,,,,,2021-12-22,1,,,,,ヤマタクサクセスコーポレーション,0
1923,7180001149226,新規,0,2021-12-22,2021-12-22,株式会社Ｂ－ＦＲＯＭ,,株式会社,愛知県,名古屋市千種区,千種３丁目３番９号,,23,101,4640858,,,,,,,2021-12-22,1,,,,,ビーフロム,0
1926,7180005019573,新規,0,2021-12-22,2021-12-22,医療法人社団フロンティアの医療,,その他の設立登記法人,愛知県,北名古屋市,西之保青野東５３番地１ユーライフメゾンみなみの風１階,,23,234,4810033,,,,,,,2021-12-22,1,,,,,フロンティアノイリョウ,0
1934,7190001028965,新規,0,2021-12-22,2021-12-22,株式会社スペーステック,,株式会社,三重県,津市,久居本町１４５８番地,,24,201,5141135,,,,,,,2021-12-22,1,,,,,スペーステック,0
1939,7200005013292,新規,0,2021-12-22,2021-12-22,医療法人社団蒼仁会,,その他の設立登記法人,岐阜県,羽島郡岐南町,三宅８丁目１３７番地,,21,302,5016002,,,,,,,2021-12-22,1,,,,,ソウジンカイ,0
1943,7230003001775,新規,0,2021-12-22,2021-12-22,合同会社北鈴電設,,合同会社,富山県,富山市,藤木２７８５第二藤木ハイツＣ,,16,201,9300936,,,,,,,2021-12-22,1,,,,,,0
1948,7240003005412,新規,0,2021-12-22,2021-12-22,チバ商業合同会社,,合同会社,広島県,福山市,曙町１丁目２番１６号,00125197,34,207,7210952,,,,,,,2021-12-22,1,,,,,チバショウギョウ,0
1951,7260001036333,新規,0,2021-12-22,2021-12-22,株式会社真砂鈑金塗装,,株式会社,岡山県,倉敷市,児島下の町５丁目１番１７号,,33,202,7110906,,,,,,,2021-12-22,1,,,,,マサゴバンキントソウ,0
1952,7260005011010,新規,0,2021-12-22,2021-12-22,医療法人社団きびじ整形外科・内科・リハビリクリニック,,その他の設立登記法人,岡山県,総社市,岡谷３３７番地１,,33,208,7191162,,,,,,,2021-12-22,1,,,,,キビジセイケイゲカナイカリハビリクリニック,0
1957,7290001095772,新規,0,2021-12-22,2021-12-22,株式会社へへへ企画,,株式会社,福岡県,糟屋郡篠栗町,大字乙犬９３３番地３０,,40,342,8112412,,,,,,,2021-12-22,1,,,,,ヘヘヘキカク,0
1958,7290001095780,新規,0,2021-12-22,2021-12-22,Ｍ‐ＷＯＲＫＳ株式会社,,株式会社,福岡県,福岡市西区,今宿３丁目３６番１２号,,40,135,8190167,,,,,,,2021-12-22,1,,,,,エムワークス,0
1959,7290001095789,新規,0,2021-12-22,2021-12-22,株式会社ＫＩＬＩＧ,,株式会社,福岡県,福岡市中央区,今泉２丁目１番３２号,,40,133,8100021,,,,,,,2021-12-22,1,,,,,キリグ,0
1968,7310001017641,新規,0,2021-12-22,2021-12-22,株式会社永福,,株式会社,長崎県,諫早市,野中町６６０番地１,,42,204,8540047,,,,,,,2021-12-22,1,,,,,エイフク,0
1978,7350001017480,新規,0,2021-12-22,2021-12-22,株式会社折田建築,,株式会社,宮崎県,串間市,大字奈留５１５９番地５,,45,207,8893531,,,,,,,2021-12-22,1,,,,,オリタケンチク,0
1998,7410001013044,新規,0,2021-12-22,2021-12-22,株式会社みなと園,,株式会社,秋田県,秋田市,将軍野堰越１番３０号,,05,201,0110933,,,,,,,2021-12-22,1,,,,,ミナトエン,0
1999,7410003003596,新規,0,2021-12-22,2021-12-22,合同会社マスタークリーニング,,合同会社,秋田県,秋田市,河辺諸井字福神２８番地２,,05,201,0192621,,,,,,,2021-12-22,1,,,,,マスタークリーニング,0
2006,7480001011586,新規,0,2021-12-22,2021-12-22,プラスハロー株式会社,,株式会社,徳島県,徳島市,丈六町西高木６４番地の１,,36,201,7714261,,,,,,,2021-12-22,1,,,,,プラスハロー,0
2007,7490001010059,新規,0,2021-12-22,2021-12-22,株式会社彩友,,株式会社,高知県,高知市,春野町西諸木６１９番地,,39,201,7810316,,,,,,,2021-12-22,1,,,,,アヤトモ,0
2011,7700150106379,新規,0,2021-12-22,2021-12-22,Ｆｕｇｒｏ　Ｎｏｒｗａｙ　ＡＳ,,外国会社等,,,,,,,,Ｋａｒｅｎｓｌｙｓｔ　ａｌｌｅ　２，０２７８　ＯＳＬＯ，０３０１　ＯＳＬＯ，Ｎｏｒｗａｙ,,,,,,2021-12-22,1,,,,,フグロノルウエーエーエス,0
2017,8010005034349,新規,0,2021-12-22,2021-12-22,一般社団法人ＪＩＺＯ,,その他の設立登記法人,東京都,千代田区,九段南１丁目５番６号りそな九段ビル５階ＫＳフロア,,13,101,1020074,,,,,,,2021-12-22,1,,,,,ジゾウ,0
2021,8010401164550,新規,0,2021-12-22,2021-12-22,株式会社電脳ホールディングス,,株式会社,東京都,港区,虎ノ門３丁目１０番１１号虎ノ門ＰＦビル,,13,103,1050001,,,,,,,2021-12-22,1,,,,,デンノウホールディングス,0
2022,8010401164559,新規,0,2021-12-22,2021-12-22,株式会社ワールドふれんど商事,,株式会社,東京都,港区,新橋２丁目１６番１号ニュー新橋ビル７０４Ｂ,,13,103,1050004,,,,,,,2021-12-22,1,,,,,ワールドフレンドショウジ,0
2023,8010401164583,新規,0,2021-12-22,2021-12-22,株式会社ＣＲＡＦＴＥＤ,,株式会社,東京都,港区,麻布十番２丁目８番１０号,,13,103,1060045,,,,,,,2021-12-22,1,,,,,クラフティッド,0
2024,8010401164591,新規,0,2021-12-22,2021-12-22,株式会社ソルビッシュ,,株式会社,東京都,港区,南青山２丁目２番１５号,,13,103,1070062,,,,,,,2021-12-22,1,,,,,ソルビッシュ,0
2025,8010403026749,新規,0,2021-12-22,2021-12-22,合同会社Ｆｒｉｅｎｄｓ,,合同会社,東京都,港区,浜松町２丁目２番１５号浜松町ダイヤビル２Ｆ,,13,103,1050013,,,,,,,2021-12-22,1,,,,,フレンズ,0
2026,8010403026765,新規,0,2021-12-22,2021-12-22,エムアイ合同会社,,合同会社,東京都,港区,浜松町２丁目２番１５号浜松町ダイヤビル２Ｆ,,13,103,1050013,,,,,,,2021-12-22,1,,,,,エムアイ,0
2029,8010405020535,新規,0,2021-12-22,2021-12-22,神戸西特定目的会社,,その他の設立登記法人,東京都,港区,元赤坂１丁目１番８号株式会社赤坂国際会計内,,13,103,1070051,,,,,,,2021-12-22,1,,,,,コウベニシ,0
2034,8010503006460,新規,0,2021-12-22,2021-12-22,合同会社ＫＹＡホールディングス,,合同会社,東京都,台東区,西浅草３丁目２２番３号３００４号,,13,106,1110035,,,,,,,2021-12-22,1,,,,,ケーワイエーホールディングス,0
2037,8010703006046,新規,0,2021-12-22,2021-12-22,エナジェテック合同会社,,合同会社,東京都,品川区,南大井３丁目１７番２号ＲＪＲプレシア大森１１０２,,13,109,1400013,,,,,,,2021-12-22,1,,,,,エナジェテック,0
2038,8010705003297,新規,0,2021-12-22,2021-12-22,一般財団法人Ｔ＆Ｙ　Ｐｒｏｊｅｃｔｓ,,その他の設立登記法人,東京都,品川区,東品川１丁目３２番８号４Ｆ,,13,109,1400002,,,,,,,2021-12-22,1,,,,,ティーアンドワイプロジェクツ,0
2051,8011001144686,新規,0,2021-12-22,2021-12-22,株式会社ＲＳＫ,,株式会社,東京都,渋谷区,宇田川町２３番１１号,,13,113,1500042,,,,,,,2021-12-22,1,,,,,アールエスケイ,0
2052,8011001144703,新規,0,2021-12-22,2021-12-22,株式会社ｃｌｉｍ,,株式会社,東京都,渋谷区,道玄坂２丁目９番１０号,,13,113,1500043,,,,,,,2021-12-22,1,,,,,クリム,0
2057,8011101097215,新規,0,2021-12-22,2021-12-22,株式会社Ｕ－ＬＡＢＯ,,株式会社,東京都,新宿区,西新宿３丁目３番１３号西新宿水間ビル６Ｆ,,13,104,1600023,,,,,,,2021-12-22,1,,,,,ユーラボ,0
2058,8011101097264,新規,0,2021-12-22,2021-12-22,株式会社Ｅｎｆａｓｔ－Ｔｅｃｈ,,株式会社,東京都,新宿区,大久保２丁目９－１ヴィルフォーレ新宿５０８,,13,104,1690072,,,,,,,2021-12-22,1,,,,,エンファストテック,0
2060,8011201023500,新規,0,2021-12-22,2021-12-22,株式会社グリーンカルテット拓,,株式会社,東京都,中野区,中央２丁目１番６号コーポ武蔵屋２０４,,13,114,1640011,,,,,,,2021-12-22,1,,,,,グリーンカルテットタク,0
2067,8011501027589,新規,0,2021-12-22,2021-12-22,ゼッタリンクス・ソリューション株式会社,,株式会社,東京都,荒川区,西日暮里５丁目１４番４号,,13,118,1160013,,,,,,,2021-12-22,1,,,,,ゼッタリンクスソリューション,0
2068,8011501027597,新規,0,2021-12-22,2021-12-22,株式会社ａｉｍｏｏｖ,,株式会社,東京都,北区,志茂２丁目３６番５－３１０号,,13,117,1150042,,,,,,,2021-12-22,1,,,,,アイムーブ,0
2081,8013301048435,新規,0,2021-12-22,2021-12-22,株式会社ＴＫＧ,,株式会社,東京都,豊島区,東池袋３丁目１番３号サンシャイン６０－４５階,,13,116,1700013,,,,,,,2021-12-22,1,,,,,テイケイジー,0
2096,8021001074791,新規,0,2021-12-22,2021-12-22,株式会社Ａ－ＤＲＩＶＥ,,株式会社,神奈川県,大和市,中央林間３丁目２３番１５号,,14,213,2420007,,,,,,,2021-12-22,1,,,,,エードライブ,0
2097,8021001074800,新規,0,2021-12-22,2021-12-22,リスタートジャパン株式会社,,株式会社,神奈川県,藤沢市,鵠沼石上２丁目１番３～９０１号,,14,205,2510025,,,,,,,2021-12-22,1,,,,,リスタートジャパン,0
2109,8030001145932,新規,0,2021-12-22,2021-12-22,株式会社ＩＦ,,株式会社,埼玉県,坂戸市,にっさい花みず木５丁目３２番地６,,11,239,3500269,,,,,,,2021-12-22,1,,,,,アイエフ,0
2123,8030003018541,新規,0,2021-12-22,2021-12-22,合同会社ＫＯＮＯＨＡ,,合同会社,埼玉県,川越市,南通町１７番地１５アトリエクレア１０１号室,,11,201,3500045,,,,,,,2021-12-22,1,,,,,コノハ,0
2131,8040001121445,新規,0,2021-12-22,2021-12-22,株式会社Ｎ．Ｓ．Ｃ,,株式会社,千葉県,山武市,松尾町五反田２９７０番地１１,,12,237,2891523,,,,,,,2021-12-22,1,,,,,エヌエスシー,0
2132,8040001121453,新規,0,2021-12-22,2021-12-22,株式会社吉野不動産,,株式会社,千葉県,千葉市花見川区,浪花町１１番地１６,,12,102,2620024,,,,,,,2021-12-22,1,,,,,ヨシノフドウサン,0
2133,8040001121461,新規,0,2021-12-22,2021-12-22,ラフレッシュ株式会社,,株式会社,千葉県,市川市,市川南１丁目１０番１－２２０４号,,12,203,2720033,,,,,,,2021-12-22,1,,,,,ラフレッシュ,0
2134,8040003019175,新規,0,2021-12-22,2021-12-22,朝陽ケアプラン合同会社,,合同会社,千葉県,船橋市,海神２丁目８番１５号,,12,204,2730021,,,,,,,2021-12-22,1,,,,,アサヒケアプラン,0
2141,8060001034406,新規,0,2021-12-22,2021-12-22,株式会社ＲｅＥＭ,,株式会社,栃木県,小山市,大字福良１０３０番地,,09,208,3230155,,,,,,,2021-12-22,1,,,,,リーム,0
2146,8070001038760,新規,0,2021-12-22,2021-12-22,帆の風株式会社,,株式会社,群馬県,太田市,東長岡町１３８－３,,10,205,3730812,,,,,,,2021-12-22,1,,,,,ホノカ,0
2175,8120003020819,新規,0,2021-12-22,2021-12-22,ＢＲＩＤＧＥ合同会社,,合同会社,大阪府,大阪市西区,九条２丁目１６番５号,,27,106,5500027,,,,,,,2021-12-22,1,,,,,ブリッジ,0
2177,8120005022664,新規,0,2021-12-22,2021-12-22,一般社団法人ＪＩＡＤＳ歯科研修所,,その他の設立登記法人,大阪府,大阪市淀川区,宮原４丁目１番４６号,,27,123,5320003,,,,,,,2021-12-22,1,,,,,ジアズシカケンシュウショ,0
2189,8130001070765,新規,0,2021-12-22,2021-12-22,株式会社サクラヤ,,株式会社,京都府,京都市中京区,河原町通四条上る米屋町３８２番地,,26,104,6048026,,,,,,,2021-12-22,1,,,,,,0
2195,8140001124256,新規,0,2021-12-22,2021-12-22,株式会社アトリエムース,,株式会社,兵庫県,豊岡市,高屋９１番地の３,,28,209,6680064,,,,,,,2021-12-22,1,,,,,アトリエムース,0
2196,8140001124264,新規,0,2021-12-22,2021-12-22,株式会社ＢＥＥＣＯＭＥ,,株式会社,兵庫県,神戸市灘区,徳井町１丁目２－３０,,28,102,6570033,,,,,,,2021-12-22,1,,,,,ビーカム,0
2197,8140001124280,新規,0,2021-12-22,2021-12-22,Ａｒｔｉｆｉｃｉａｌ　Ｃｒｙｓｔａｌ株式会社,,株式会社,兵庫県,神戸市垂水区,つつじが丘３丁目８番地４号,,28,108,6550853,,,,,,,2021-12-22,1,,,,,アーティフィシャルクリスタル,0
2212,8180005019572,新規,0,2021-12-22,2021-12-22,一般社団法人日本社会福祉サービス協会,,その他の設立登記法人,愛知県,一宮市,真清田１丁目３番３号,,23,203,4910043,,,,,,,2021-12-22,1,,,,,ニホンシャカイフクシサービスキョウカイ,0
2221,8220001024596,新規,0,2021-12-22,2021-12-22,株式会社Ｌｏｇｉｃａｌ　Ｓｅｎｓｅ,,株式会社,石川県,金沢市,高尾台１丁目３２１番地１,,17,201,9218155,,,,,,,2021-12-22,1,,,,,ロジカルセンス,0
2233,8290001095771,新規,0,2021-12-22,2021-12-22,株式会社ＲＳＣ,,株式会社,福岡県,福岡市南区,玉川町３番１５号,,40,134,8150037,,,,,,,2021-12-22,1,,,,,アールエスシー,0
2234,8290001095796,新規,0,2021-12-22,2021-12-22,株式会社Ｃｏｆｙ,,株式会社,福岡県,福岡市早良区,東入部８丁目１５番６号,,40,137,8111102,,,,,,,2021-12-22,1,,,,,コフィー,0
2240,8310001017640,新規,0,2021-12-22,2021-12-22,株式会社ＨＩＢＩＫＩ　ＷＥＬＤ,,株式会社,長崎県,五島市,岐宿町岐宿３３７３番地１,,42,211,8530701,,,,,,,2021-12-22,1,,,,,ヒビキウエルド,0
2258,8410001013043,新規,0,2021-12-22,2021-12-22,ワイズコラボレーション株式会社,,株式会社,秋田県,秋田市,新藤田字治郎沢２８番地４７,,05,201,0100826,,,,,,,2021-12-22,1,,,,,ワイズコラボレーション,0
2266,8440001008998,新規,0,2021-12-22,2021-12-22,株式会社寿林業,,株式会社,北海道,檜山郡厚沢部町,本町９４番地５,,01,363,0431114,,,,,,,2021-12-22,1,,,,,コトブキリンギョウ,0
2271,8470003002096,新規,0,2021-12-22,2021-12-22,合同会社福祉医療融資コンサルティング,,合同会社,香川県,丸亀市,原田町２２７８番地１サンジョウビル３０１,,37,202,7630074,,,,,,,2021-12-22,1,,,,,フクシイリョウユウシコンサルティング,0
2279,8500003002737,新規,0,2021-12-22,2021-12-22,Ｓ．Ａ．Ｒ．合同会社,,合同会社,愛媛県,松山市,古川南２丁目３番１号,,38,201,7900943,,,,,,,2021-12-22,1,,,,,エスエーアール,0
2280,8700150106378,新規,0,2021-12-22,2021-12-22,Ｊｏｈｎｓｏｎ　Ｃｏｎｔｒｏｌｓ　Ｉｔｎ　Ｋｏｒｅａ，Ｉｎｃ,,外国会社等,,,,,,,,３４　Ｍａｒｅｕｎｎａｅ－ｒｏ，Ｊｕｎｇ－ｇｕ，Ｓｅｏｕｌ，Ｋｏｒｅａ,,,,,,2021-12-22,1,,,,,ジヨンソンコントロールズインターナシヨナルコリアインク,0
2292,9010001223391,新規,0,2021-12-22,2021-12-22,株式会社ｋａｋｅｒｕ,,株式会社,東京都,千代田区,神田神保町２丁目１０番地８ファーストエノモトビル,,13,101,1010051,,,,,,,2021-12-22,1,,,,,カケル,0
2293,9010001223400,新規,0,2021-12-22,2021-12-22,日本生物医学研究院株式会社,,株式会社,東京都,中央区,東日本橋２丁目２８番５号５０８,,13,102,1030004,,,,,,,2021-12-22,1,,,,,ニホンセイブツイガクケンキュウイン,0
2307,9010401163667,新規,0,2021-12-22,2021-12-22,株式会社Ｚｙｏｐｐａｒｉ,,株式会社,東京都,港区,南青山２丁目２－１５,,13,103,1070062,,,,,,,2021-12-22,1,,,,,ジョッパリ,0
2309,9010401164582,新規,0,2021-12-22,2021-12-22,株式会社インテグラル・パブリッシャーズ,,株式会社,東京都,港区,西麻布３丁目２４番２２号プラザ西麻布６０１,,13,103,1060031,,,,,,,2021-12-22,1,,,,,インテグラルパブリッシャーズ,0
2310,9010401164590,新規,0,2021-12-22,2021-12-22,ＡＲＫリフォーム株式会社,,株式会社,東京都,港区,六本木７丁目１５番１３号,,13,103,1060032,,,,,,,2021-12-22,1,,,,,アークリフォーム,0
2314,9010403026764,新規,0,2021-12-22,2021-12-22,Ｃｈａｒｍ　Ｓｅｅｒ合同会社,,合同会社,東京都,港区,麻布台１丁目９－１４麻布台ＣＯＲＰ２Ｆ,,13,103,1060041,,,,,,,2021-12-22,1,,,,,チャームシア,0
2318,9010605004023,新規,0,2021-12-22,2021-12-22,一般社団法人スポーツ教育研究協会,,その他の設立登記法人,東京都,江東区,東雲１丁目９番１８－８０６号,,13,108,1350062,,,,,,,2021-12-22,1,,,,,スポーツキョウイクケンキュウキョウカイ,0
2320,9010701041969,新規,0,2021-12-22,2021-12-22,株式会社セントトア,,株式会社,東京都,品川区,西大井２丁目２番３号Ｋハイツ２Ｆ,,13,109,1400015,,,,,,,2021-12-22,1,,,,,セントトア,0
2325,9010901049993,新規,0,2021-12-22,2021-12-22,ｎｕ．株式会社,,株式会社,東京都,世田谷区,等々力２丁目３８番２７号岩田ビル１階,,13,112,1580082,,,,,,,2021-12-22,1,,,,,ニュー,0
2326,9010901050051,新規,0,2021-12-22,2021-12-22,株式会社ハガツサ,,株式会社,東京都,世田谷区,鎌田３丁目２番１８－５０３号,,13,112,1570077,,,,,,,2021-12-22,1,,,,,ハガツサ,0
2327,9010903007033,新規,0,2021-12-22,2021-12-22,合同会社ＳｕｇａＲ,,合同会社,東京都,世田谷区,下馬２丁目９番７号,,13,112,1540002,,,,,,,2021-12-22,1,,,,,シュガー,0
2335,9011001144727,新規,0,2021-12-22,2021-12-22,株式会社ＦＬＵＷ,,株式会社,東京都,渋谷区,東１丁目２６番３２号,,13,113,1500011,,,,,,,2021-12-22,1,,,,,フルー,0
2336,9011001144743,新規,0,2021-12-22,2021-12-22,ペッツファーストホールディングス株式会社,,株式会社,東京都,目黒区,目黒１丁目２４番１２号,,13,110,1530063,,,,,,,2021-12-22,1,,,,,ペッツファーストホールディングス,0
2339,9011303004249,新規,0,2021-12-22,2021-12-22,Ｓｔｕｄｉｏ　Ｓｅｌｆｉｓｈ合同会社,,合同会社,東京都,杉並区,荻窪５丁目１４－５,,13,115,1670051,,,,,,,2021-12-22,1,,,,,スタジオセルフィッシュ,0
2344,9011501027588,新規,0,2021-12-22,2021-12-22,森商事不動産株式会社,,株式会社,東京都,北区,東十条５丁目４番１０号,,13,117,1140001,,,,,,,2021-12-22,1,,,,,モリショウジフドウサン,0
2360,9020001144439,新規,0,2021-12-22,2021-12-22,Ｋｐｌａｎｎｉｎｇ株式会社,,株式会社,神奈川県,川崎市多摩区,堰３丁目１７番３－３０２号,,14,135,2140022,,,,,,,2021-12-22,1,,,,,ケープランニング,0
2361,9020002004872,新規,0,2021-12-22,2021-12-22,有限会社ホンゼン,,有限会社,神奈川県,横浜市緑区,東本郷６丁目６番１１号,,14,113,2260002,,,,,,,2021-12-22,1,,,,,ホンゼン,0
2364,9020005015322,新規,0,2021-12-22,2021-12-22,医療法人社団ＧＶＣ,,その他の設立登記法人,神奈川県,横浜市中区,相生町５丁目７８番地清栄ビル馬車道４階,,14,104,2310012,,,,,,,2021-12-22,1,,,,,ジーブイシー,0
2379,9030001145964,新規,0,2021-12-22,2021-12-22,株式会社タケノウチ,,株式会社,埼玉県,春日部市,中央６丁目６番地６,,11,214,3440067,,,,,,,2021-12-22,1,,,,,タケノウチ,0
2387,9030005020668,新規,0,2021-12-22,2021-12-22,一般社団法人ビジネスアシスト協会,,その他の設立登記法人,埼玉県,さいたま市大宮区,桜木町２丁目３番地大宮マルイ７階,,11,103,3300854,,,,,,,2021-12-22,1,,,,,ビジネスアシストキョウカイ,0
2391,9040001121428,新規,0,2021-12-22,2021-12-22,株式会社ティーオーエス,,株式会社,千葉県,香取市,佐原イ３０３９番地１コーポサンスイ１０８号,,12,236,2870003,,,,,,,2021-12-22,1,,,,,ティーオーエス,0
2392,9040001121477,新規,0,2021-12-22,2021-12-22,株式会社アーテン,,株式会社,千葉県,木更津市,高砂１丁目７番３９号,,12,206,2920016,,,,,,,2021-12-22,1,,,,,アーテン,0
2396,9040002056045,新規,0,2021-12-22,2021-12-22,有限会社小野田商店,,有限会社,千葉県,富里市,十倉５５５番地,,12,233,2860212,,,,,,,2021-12-22,1,,,,,オノダショウテン,0
2400,9040003019174,新規,0,2021-12-22,2021-12-22,ＩＫ企画合同会社,,合同会社,千葉県,千葉市中央区,生実町９７３番地５,,12,101,2600813,,,,,,,2021-12-22,1,,,,,アイケイキカク,0
2404,9060001034396,新規,0,2021-12-22,2021-12-22,株式会社小代そば組合,,株式会社,栃木県,日光市,小代３７１番地,,09,206,3211107,,,,,,,2021-12-22,1,,,,,コシロソバクミアイ,0
2405,9060001034405,新規,0,2021-12-22,2021-12-22,株式会社室井土建,,株式会社,栃木県,那須塩原市,沓掛１丁目６番地５,,09,213,3293133,,,,,,,2021-12-22,1,,,,,ムロイドケン,0
2406,9060001034413,新規,0,2021-12-22,2021-12-22,雀建装株式会社,,株式会社,栃木県,宇都宮市,雀の宮５丁目２番３１号,,09,201,3210132,,,,,,,2021-12-22,1,,,,,スズメケンソウ,0
2413,9070005009930,新規,0,2021-12-22,2021-12-22,医療法人うい内科クリニック,,その他の設立登記法人,群馬県,前橋市,駒形町５８４番地３,,10,201,3792122,,,,,,,2021-12-22,1,,,,,ウイナイカクリニック,0
2416,9080001024651,新規,0,2021-12-22,2021-12-22,株式会社ＯＮＥ　ＳＨＩＰ,,株式会社,静岡県,静岡市駿河区,見瀬１０９第二長田ハイツ１０２,,22,102,4228057,,,,,,,2021-12-22,1,,,,,ワンシップ,0
2420,9080403004433,新規,0,2021-12-22,2021-12-22,合同会社すまいるかんぱにー,,合同会社,静岡県,浜松市西区,伊左地町２４６０－２,,22,133,4311111,,,,,,,2021-12-22,1,,,,,スマイルカンパニー,0
2424,9100001034904,新規,0,2021-12-22,2021-12-22,株式会社ひとのためカンパニー,,株式会社,長野県,佐久市,臼田５７２番地１１,,20,217,3840301,,,,,,,2021-12-22,1,,,,,ヒトノタメカンパニー,0
2437,9120001242661,新規,0,2021-12-22,2021-12-22,株式会社Ｃｏｃｏ　ｆｅｅｌ,,株式会社,大阪府,大阪市淀川区,十三東２丁目６番２６号,,27,123,5320023,,,,,,,2021-12-22,1,,,,,ココフィール,0
2439,9120005022663,新規,0,2021-12-22,2021-12-22,一般社団法人性格コーチング協会,,その他の設立登記法人,大阪府,大阪市東成区,東中本１丁目１２番３号,,27,115,5370021,,,,,,,2021-12-22,1,,,,,セイカクコーチングキョウカイ,0
2444,9120101064832,新規,0,2021-12-22,2021-12-22,株式会社ＨＯＰＥ,,株式会社,大阪府,堺市南区,晴美台１丁２９番９－５０７号,,27,145,5900113,,,,,,,2021-12-22,1,,,,,ホープ,0
2460,9140001124255,新規,0,2021-12-22,2021-12-22,株式会社ＩＳＩ３,,株式会社,兵庫県,神戸市灘区,五毛通１丁目２番１０号ＳｈｅｗａｓＧａｒｄｅｎ,,28,102,6570814,,,,,,,2021-12-22,1,,,,,アイエスアイスリー,0
2469,9150001025188,新規,0,2021-12-22,2021-12-22,株式会社山口水産,,株式会社,奈良県,奈良市,中山町西４丁目５３５番地の５４４,,29,201,6310013,,,,,,,2021-12-22,1,,,,,ヤマグチスイサン,0
2470,9160003002449,新規,0,2021-12-22,2021-12-22,ロイヤルキャピタル合同会社,,合同会社,滋賀県,東近江市,小脇町５３１番地,,25,213,5270091,,,,,,,2021-12-22,1,,,,,ロイヤルキャピタル,0
2487,9180003023311,新規,0,2021-12-22,2021-12-22,合同会社マウンテンズ,,合同会社,愛知県,長久手市,城屋敷２３１５番地,,23,238,4801122,,,,,,,2021-12-22,1,,,,,マウンテンズ,0
2506,9240001059078,新規,0,2021-12-22,2021-12-22,株式会社カートホームステイト,,株式会社,広島県,東広島市,西条町助実１８５８番地１０Ｉ－２０１号室,,34,212,7390021,,,,,,,2021-12-22,1,,,,,カートホームステイト,0
2508,9240003005410,新規,0,2021-12-22,2021-12-22,Ｃｈｉｌｌ　Ｂｅａｕｔｙ合同会社,,合同会社,広島県,広島市中区,富士見町８番５－７０２号レガシービル,,34,101,7300043,,,,,,,2021-12-22,1,,,,,チルビューティー,0
2515,9290001095779,新規,0,2021-12-22,2021-12-22,株式会社カメレオン,,株式会社,福岡県,福岡市中央区,西中洲４番９号レフトバンクビル３０２,,40,133,8100002,,,,,,,2021-12-22,1,,,,,カメレオン,0
2516,9290001095795,新規,0,2021-12-22,2021-12-22,株式会社電装社,,株式会社,福岡県,福岡市南区,柏原４丁目４５番９号,,40,134,8111353,,,,,,,2021-12-22,1,,,,,デンソウシャ,0
2517,9290001095804,新規,0,2021-12-22,2021-12-22,株式会社ファイヴテン,,株式会社,福岡県,福岡市博多区,半道橋１丁目４番１２－７０３号,,40,132,8120897,,,,,,,2021-12-22,1,,,,,ファイヴテン,0
2518,9290003011957,新規,0,2021-12-22,2021-12-22,合同会社ＳＴＲ,,合同会社,福岡県,福岡市中央区,西公園１１番９－２０１号,,40,133,8100061,,,,,,,2021-12-22,1,,,,,エスティーアール,0
2522,9290801028104,新規,0,2021-12-22,2021-12-22,初一メタル貿易株式会社,,株式会社,福岡県,北九州市小倉南区,大字母原３１番地２,,40,107,8030187,,,,,,,2021-12-22,1,,,,,ハツイチメタルボウエキ,0
2535,9350001017479,新規,0,2021-12-22,2021-12-22,株式会社Ｒｉｖｅｒ　Ｆｉｅｌｄ,,株式会社,宮崎県,延岡市,瀬之口町２丁目４番地１,,45,203,8820045,,,,,,,2021-12-22,1,,,,,リバーフィールド,0
2541,9370001047978,新規,0,2021-12-22,2021-12-22,ＡＷＡＮ　ＴＲＡＤＩＮＧ株式会社,,株式会社,宮城県,刈田郡蔵王町,宮字欠６番地１０ピアパークＩＩ１０３号室,00125203,04,301,9890701,,,,,,,2021-12-22,1,,,,,アワントレーディング,0
2542,9370003005521,新規,0,2021-12-22,2021-12-22,合同会社中小企業ＩＴ化支援機構,,合同会社,宮城県,仙台市若林区,三本塚字北中谷地１３８番地,,04,103,9840841,,,,,,,2021-12-22,1,,,,,チュウショウキギョウアイティーカシエンキコウ,0
2554,9380003005074,新規,0,2021-12-22,2021-12-22,合同会社ＮＳ,,合同会社,福島県,郡山市,朝日２丁目１２番３号あさひ３番街Ａ棟,,07,203,9638024,,,,,,,2021-12-22,1,,,,,エヌエス,0
2559,9410001013042,新規,0,2021-12-22,2021-12-22,株式会社Ａｒｔ　Ｃｏｍｐａｎｙ,,株式会社,秋田県,大仙市,土川字小杉山３５番地,,05,212,0192111,,,,,,,2021-12-22,1,,,,,アートカンパニー,0
2563,9430001085633,新規,0,2021-12-22,2021-12-22,株式会社スマイクル,,株式会社,北海道,札幌市豊平区,豊平六条８丁目２－２１,,01,105,0620906,,,,,,,2021-12-22,1,,,,,スマイクル,0
2569,9470001018878,新規,0,2021-12-22,2021-12-22,アンシャイン株式会社,,株式会社,香川県,高松市,香川町川東下７５５番地５,,37,201,7611705,,,,,,,2021-12-22,1,,,,,アンシャイン,0
2575,9700150106385,新規,0,2021-12-22,2021-12-22,八重洲二丁目中地区市街地再開発組合,,その他,東京都,中央区,八重洲２丁目７番２号,,13,102,1040028,,,,,,,2021-12-22,1,,,,,ヤエスニチヨウメナカチクシガイチサイカイハツクミアイ,0
