sequenceNumber,corporateNumber,process,correct,updateDate,changeDate,name,nameImageId,kind,prefectureName,cityName,streetNumber,addressImageId,prefectureCode,cityCode,postCode,addressOutside,addressOutsideImageId,closeDate,closeCause,successorCorporateNumber,changeCause,assignmentDate,latest,enName,enPrefectureName,enCityName,enAddressOutside,furigana,hihyoji
8,1010005040972,新規,0,2025-11-20,2025-11-20,一般社団法人銀河第１２号,,その他の設立登記法人,東京都,中央区,日本橋１丁目４番１号日本橋一丁目ビルディング,,13,102,1030027,,,,,,,2025-11-20,1,,,,,ギンガダイジュウニゴウ,0
9,1010103002701,新規,0,2025-11-20,2025-11-20,楽土庭園合同会社,,合同会社,東京都,八王子市,泉町１９１１‐１３８,,13,201,1930814,,,,,,,2025-11-20,1,,,,,ラクドテイエン,0
10,1010401194637,新規,0,2025-11-20,2025-11-20,株式会社プリュス,,株式会社,東京都,港区,六本木３丁目７番１号,,13,103,1060032,,,,,,,2025-11-20,1,,,,,プリュス,0
16,1010503008091,新規,0,2025-11-20,2025-11-20,合同会社ＳＥＴＴＬＵＣＫ,,合同会社,東京都,台東区,橋場１丁目２５番３号エフプレスト橋場５０２,,13,106,1110023,,,,,,,2025-11-20,1,,,,,セトラック,0
23,1010701048633,新規,0,2025-11-20,2025-11-20,株式会社クリーンワイテック,,株式会社,東京都,品川区,東品川３丁目４番１９－４０１号,,13,109,1400002,,,,,,,2025-11-20,1,,,,,クリーンワイテック,0
36,1011201026781,新規,0,2025-11-20,2025-11-20,株式会社クロスフューチャー,,株式会社,東京都,中野区,中央２丁目２番２２－６０１号,,13,114,1640011,,,,,,,2025-11-20,1,,,,,クロスフューチャー,0
37,1011203004884,新規,0,2025-11-20,2025-11-20,アヤデジタル合同会社,,合同会社,東京都,中野区,東中野４丁目２８番１２号イッツ東中野１０５号室,,13,114,1640003,,,,,,,2025-11-20,1,,,,,アヤデジタル,0
46,1012701019192,新規,0,2025-11-20,2025-11-20,株式会社あんしんシルバーライフ相談室,,株式会社,東京都,小平市,美園町１丁目３３番１号小平駅前ショッピングセンター２階,,13,211,1870041,,,,,,,2025-11-20,1,,,,,アンシンシルバーライフソウダンシツ,0
51,1013303007965,新規,0,2025-11-20,2025-11-20,合同会社ホープビジョン,,合同会社,東京都,豊島区,東池袋１丁目１７番１１号パークハイツ池袋,,13,116,1700013,,,,,,,2025-11-20,1,,,,,ホープビジョン,0
55,1020001165946,新規,0,2025-11-20,2025-11-20,株式会社ライフフリー研究所,,株式会社,神奈川県,川崎市高津区,久本２丁目４番１５ＭａｙｆａｉｒＰａｒｋｓ溝ノ口Ｅ棟・１２０２号,,14,134,2130011,,,,,,,2025-11-20,1,,,,,ライフフリーケンキュウジョ,0
67,1021003016807,新規,0,2025-11-20,2025-11-20,ユアスタイル合同会社,,合同会社,神奈川県,相模原市南区,新戸２１１６―６―１０１,,14,153,2520326,,,,,,,2025-11-20,1,,,,,ユアスタイル,0
74,1030001169748,新規,0,2025-11-20,2025-11-20,ヒロセ修繕株式会社,,株式会社,埼玉県,さいたま市見沼区,大字南中丸５４８番地６,,11,104,3370041,,,,,,,2025-11-20,1,,,,,ヒロセシュウゼン,0
78,1030003028118,新規,0,2025-11-20,2025-11-20,コーペレイト合同会社,,合同会社,埼玉県,三郷市,早稲田３丁目２－３７,,11,237,3410018,,,,,,,2025-11-20,1,,,,,コーペレイト,0
80,1040001141400,新規,0,2025-11-20,2025-11-20,株式会社エクラリリース,,株式会社,千葉県,印西市,大森３５４６番地１８,,12,231,2701327,,,,,,,2025-11-20,1,,,,,エクラリリース,0
81,1040001141474,新規,0,2025-11-20,2025-11-20,株式会社ＭｅｄＡｓｓｅｔ　Ｍａｎａｇｅｍｅｎｔ,,株式会社,千葉県,千葉市中央区,南町１丁目４番３２号５３５号室,,12,101,2600842,,,,,,,2025-11-20,1,,,,,メドアセットマネジメント,0
82,1040001141499,新規,0,2025-11-20,2025-11-20,ＩＲ＆ＣＯＭＰＡＮＹ株式会社,,株式会社,千葉県,船橋市,前原西４丁目３１番２－２１５号,,12,204,2740825,,,,,,,2025-11-20,1,,,,,アイアールアンドカンパニー,0
91,1060003005857,新規,0,2025-11-20,2025-11-20,ＺＯＨＡＮ　ＴＲＡＤＩＮＧ合同会社,,合同会社,栃木県,下野市,柴７６９番地２２コーポ一番館１０５号室,,09,216,3290412,,,,,,,2025-11-20,1,,,,,ゾハントレーディング,0
92,1070001043577,新規,0,2025-11-20,2025-11-20,株式会社ＥＡＧＬＥ．ＮＥＴ,,株式会社,群馬県,太田市,西新町３５番地２０,,10,205,3730847,,,,,,,2025-11-20,1,,,,,,0
97,1080101025912,新規,0,2025-11-20,2025-11-20,株式会社総合診療産業医事務所,,株式会社,静岡県,沼津市,柳町３―７５,,22,203,4100043,,,,,,,2025-11-20,1,,,,,ソウゴウシンリョウサンギョウイジムショ,0
99,1080401028268,新規,0,2025-11-20,2025-11-20,登宇株式会社,,株式会社,静岡県,浜松市中央区,萩丘１丁目１７番９号,,22,138,4338121,,,,,,,2025-11-20,1,,,,,トウ,0
100,1080403005397,新規,0,2025-11-20,2025-11-20,ａｉＲ‐ｉ合同会社,,合同会社,静岡県,浜松市中央区,中島１丁目３９番８号,,22,138,4300856,,,,,,,2025-11-20,1,,,,,エアーアイ,0
107,1110001039736,新規,0,2025-11-20,2025-11-20,西川運輸興業ホールディングス株式会社,,株式会社,新潟県,新潟市東区,木工新町４３１番地２,,15,102,9500807,,,,,,,2025-11-20,1,,,,,ニシカワウンユコウギョウホールディングス,0
108,1110005017291,新規,0,2025-11-20,2025-11-20,医療法人社団小舟会,,その他の設立登記法人,新潟県,新発田市,小舟町２丁目１番２１号,,15,206,9570007,,,,,,,2025-11-20,1,,,,,コフネカイ,0
120,1120001282079,新規,0,2025-11-20,2025-11-20,株式会社大福キャピタル,,株式会社,大阪府,大阪市中央区,瓦町３丁目４番９号ステーツ本町８階,,27,128,5410048,,,,,,,2025-11-20,1,,,,,ダイフクキャピタル,0
121,1120001282145,新規,0,2025-11-20,2025-11-20,株式会社閃貴電工,,株式会社,大阪府,大阪市中央区,平野町１丁目４－１ハイネス北浜７０１号室,,27,128,5410046,,,,,,,2025-11-20,1,,,,,ヒラメキデンコウ,0
122,1120001282161,新規,0,2025-11-20,2025-11-20,スターリンクス株式会社,,株式会社,大阪府,大阪市西淀川区,大和田５丁目５番７号,,27,113,5550032,,,,,,,2025-11-20,1,,,,,スターリンクス,0
125,1120003030923,新規,0,2025-11-20,2025-11-20,合同会社一樹,,合同会社,大阪府,大阪市平野区,平野西３丁目９－２３サンシティ平野４０４,,27,126,5470033,,,,,,,2025-11-20,1,,,,,イツキ,0
126,1120005025260,新規,0,2025-11-20,2025-11-20,一般社団法人Ｉｎｄｅｐｅｎｄｅｎｔ　Ｇｒａｃｅ　Ｗｏｍｅｎ’ｓ　Ａｓｓｏｃｉａｔｉｏｎ,,その他の設立登記法人,大阪府,大阪市北区,天神橋２丁目５番１４号,,27,127,5300041,,,,,,,2025-11-20,1,,,,,インディペンデントグレースウーメンズアソシエーション,0
133,1120901051806,新規,0,2025-11-20,2025-11-20,株式会社Ｇｉｖｅｎｅｓｓ　ｊａｐａｎ,,株式会社,大阪府,摂津市,鳥飼銘木町１番３号,,27,224,5660063,,,,,,,2025-11-20,1,,,,,ギブネスジャパン,0
134,1120901051822,新規,0,2025-11-20,2025-11-20,株式会社星輝貿易,,株式会社,大阪府,豊中市,豊南町南５丁目９－１３－１０２,,27,203,5610815,,,,,,,2025-11-20,1,,,,,セイキボウエキ,0
135,1120901051839,新規,0,2025-11-20,2025-11-20,株式会社はる建築設計,,株式会社,大阪府,茨木市,西駅前町４番１００２号,,27,211,5670032,,,,,,,2025-11-20,1,,,,,ハルケンチクセッケイ,0
139,1140001140805,新規,0,2025-11-20,2025-11-20,株式会社Ａ‐ＭＯ＆リタ,,株式会社,兵庫県,尼崎市,上坂部１丁目８番２－１５０９号,,28,202,6610979,,,,,,,2025-11-20,1,,,,,アーモアンドリタ,0
143,1140003022869,新規,0,2025-11-20,2025-11-20,合同会社ラッキー,,合同会社,兵庫県,西宮市,甲子園口４丁目１２番７－１号,,28,204,6638113,,,,,,,2025-11-20,1,,,,,ラッキー,0
144,1150003003752,新規,0,2025-11-20,2025-11-20,合同会社Ｔ’ｓコネクト,,合同会社,奈良県,天理市,櫟本町２９４７番地の１,,29,204,6320004,,,,,,,2025-11-20,1,,,,,ティーズコネクト,0
146,1160001027232,新規,0,2025-11-20,2025-11-20,ＳＡＫＵＲＡＣＯＭＰＡＮＹ株式会社,,株式会社,滋賀県,甲賀市,甲南町新治２０８８番地和楽５号室,,25,209,5203313,,,,,,,2025-11-20,1,,,,,サクラカンパニー,0
152,1180001169568,新規,0,2025-11-20,2025-11-20,株式会社ＭＩＹＯＳＨＩ,,株式会社,愛知県,名古屋市中区,千代田４丁目１０番６号,,23,106,4600012,,,,,,,2025-11-20,1,,,,,ミヨシ,0
153,1180001169601,新規,0,2025-11-20,2025-11-20,ＡＮＹＤＯ株式会社,,株式会社,愛知県,一宮市,柚木颪字上ケ田５２４番地１,,23,203,4910011,,,,,,,2025-11-20,1,,,,,エニドゥ,0
162,1210001020396,新規,0,2025-11-20,2025-11-20,株式会社ビズリンクパートナーズ,,株式会社,福井県,越前市,新町８号１番地,,18,209,9150883,,,,,,,2025-11-20,1,,,,,ビズリンクパートナーズ,0
167,1230001021186,新規,0,2025-11-20,2025-11-20,株式会社ＢＡＲＯＮホールディングス,,株式会社,富山県,富山市,北代５２９８番地,,16,201,9300103,,,,,,,2025-11-20,1,,,,,バロンホールディングス,0
174,1240003007488,新規,0,2025-11-20,2025-11-20,合同会社節百太郎プロ,,合同会社,広島県,広島市安芸区,船越南２丁目１９－２６－１１２,,34,107,7360082,,,,,,,2025-11-20,1,,,,,セツヒャクタロウプロ,0
184,1320003004832,新規,0,2025-11-20,2025-11-20,ｋａｇｅｃｏ合同会社,,合同会社,大分県,別府市,亀川四の湯町１３番２８号,,44,202,8740025,,,,,,,2025-11-20,1,,,,,カゲコ,0
187,1340001027791,新規,0,2025-11-20,2025-11-20,株式会社丈昇,,株式会社,鹿児島県,薩摩川内市,矢倉町４３５９番地１ＬＩＢＥＲＴＥ矢倉町２０５,,46,215,8950036,,,,,,,2025-11-20,1,,,,,ジョウショウ,0
189,1360001036056,新規,0,2025-11-20,2025-11-20,株式会社Ｔｈｒｅｅ　Ｌｉｔｔｌｅ　Ｂｉｒｄｓ,,株式会社,沖縄県,沖縄市,泡瀬２丁目４３－８,,47,211,9042172,,,,,,,2025-11-20,1,,,,,スリーリトルバーズ,0
194,1420003003205,新規,0,2025-11-20,2025-11-20,合同会社能登商店,,合同会社,青森県,下北郡風間浦村,大字蛇浦字蛇浦３８番地,,02,425,0394503,,,,,,,2025-11-20,1,,,,,ノトショウテン,0
199,1430001095664,新規,0,2025-11-20,2025-11-20,株式会社Ｓｈｉｐ　Ａｇｅｎｃｉｅｓ　Ｊａｐａｎ,,株式会社,北海道,札幌市中央区,南十九条西１２丁目２番３３－１６０２号,,01,101,0640919,,,,,,,2025-11-20,1,,,,,シップエージェンシージャパン,0
201,1430003018334,新規,0,2025-11-20,2025-11-20,合同会社花,,合同会社,北海道,札幌市西区,西町南１７丁目２番１７号,,01,107,0630062,,,,,,,2025-11-20,1,,,,,ハナ,0
202,1460301005320,新規,0,2025-11-20,2025-11-20,株式会社ＢＩＧＳＫＹ,,株式会社,北海道,網走郡大空町,女満別中央２０１番３,,01,564,0992371,,,,,,,2025-11-20,1,,,,,ビッグスカイ,0
210,2010003049453,新規,0,2025-11-20,2025-11-20,合同会社ｍａｇｕｋｏｈａ,,合同会社,東京都,中央区,日本橋人形町２丁目２番１２号,,13,102,1030013,,,,,,,2025-11-20,1,,,,,マグコハ,0
211,2010003049461,新規,0,2025-11-20,2025-11-20,サンライズ４合同会社,,合同会社,東京都,中央区,日本橋１丁目４番１号,,13,102,1030027,,,,,,,2025-11-20,1,,,,,サンライズフォー,0
213,2010103002700,新規,0,2025-11-20,2025-11-20,時の宿合同会社,,合同会社,東京都,八王子市,片倉町１３５７－４６,,13,201,1920914,,,,,,,2025-11-20,1,,,,,トキノヤド,0
218,2010603011928,新規,0,2025-11-20,2025-11-20,ＹＵＬホールディングス合同会社,,合同会社,東京都,江東区,辰巳２丁目１番５６－１１０１号,,13,108,1350053,,,,,,,2025-11-20,1,,,,,ワイユーエルホールディングス,0
226,2010901058464,新規,0,2025-11-20,2025-11-20,株式会社Ｈｕｉｔ,,株式会社,東京都,世田谷区,池尻３丁目１９－５マイキャッスル池尻大橋６０４,,13,112,1540001,,,,,,,2025-11-20,1,,,,,ユイット,0
234,2011003022929,新規,0,2025-11-20,2025-11-20,合同会社ウェストヴィレッジ,,合同会社,東京都,渋谷区,恵比寿３丁目３６番１３－６０２号,,13,113,1500013,,,,,,,2025-11-20,1,,,,,ウェストヴィレッジ,0
246,2011203004883,新規,0,2025-11-20,2025-11-20,合同会社小布施グリーンアライアンス,,合同会社,東京都,中野区,中野５丁目５２番１５号,,13,114,1640001,,,,,,,2025-11-20,1,,,,,オブセグリーンアライアンス,0
252,2011601029185,新規,0,2025-11-20,2025-11-20,ＧＲＡＴＵＳ株式会社,,株式会社,東京都,練馬区,大泉学園町７丁目６番１８号,,13,120,1780061,,,,,,,2025-11-20,1,,,,,グラトゥス,0
253,2011701028946,新規,0,2025-11-20,2025-11-20,株式会社弓長建設,,株式会社,東京都,江戸川区,西葛西４丁目２番５－１２０５号コンドミニアム葛西,,13,123,1340088,,,,,,,2025-11-20,1,,,,,ユミナガケンセツ,0
256,2011801047078,新規,0,2025-11-20,2025-11-20,株式会社Ｕ‐ＷＡ,,株式会社,東京都,葛飾区,東新小岩６丁目１７番１８号ドルフィン１０６,,13,122,1240023,,,,,,,2025-11-20,1,,,,,ウーワ,0
260,2011803007195,新規,0,2025-11-20,2025-11-20,Ｖｉａ　Ｎｅｘｕｓ合同会社,,合同会社,東京都,葛飾区,西亀有２丁目１番３号,,13,122,1240002,,,,,,,2025-11-20,1,,,,,ヴィアネクサス,0
262,2012401043839,新規,0,2025-11-20,2025-11-20,Ａ‐ＰＩＮＥ株式会社,,株式会社,東京都,三鷹市,牟礼６丁目２３－８－６１１,,13,204,1810002,,,,,,,2025-11-20,1,,,,,エーパイン,0
269,2013303007964,新規,0,2025-11-20,2025-11-20,合同会社Ｏｚｅｏｎ,,合同会社,東京都,豊島区,東池袋２丁目６２番８号ＢＩＧオフィスプラザ池袋１２０６,,13,116,1700013,,,,,,,2025-11-20,1,,,,,オゼオン,0
292,2030001169747,新規,0,2025-11-20,2025-11-20,ＳＫＴ株式会社,,株式会社,埼玉県,所沢市,狭山ケ丘１丁目２９８０番地の１１,,11,208,3591161,,,,,,,2025-11-20,1,,,,,エスケーティー,0
293,2030001169755,新規,0,2025-11-20,2025-11-20,株式会社Ｄｉａ　Ｔｏｋｙｏ,,株式会社,埼玉県,川口市,仲町１０番３１号サイトウビル３Ｆ,,11,203,3320022,,,,,,,2025-11-20,1,,,,,ディアトウキョウ,0
294,2030001169763,新規,0,2025-11-20,2025-11-20,Ｗｅｌｉｎａ株式会社,,株式会社,埼玉県,草加市,西町１１７９番地４,,11,221,3400035,,,,,,,2025-11-20,1,,,,,ウェリナ,0
295,2030003028125,新規,0,2025-11-20,2025-11-20,Ｋｉ合同会社,,合同会社,埼玉県,上尾市,大字瓦葺２６７０－３４,,11,219,3620022,,,,,,,2025-11-20,1,,,,,ケーアイ,0
298,2040003029007,新規,0,2025-11-20,2025-11-20,パートナーコネクト合同会社,,合同会社,千葉県,八街市,八街ほ９７０番地１９,,12,230,2891115,,,,,,,2025-11-20,1,,,,,パートナーコネクト,0
299,2040003029023,新規,0,2025-11-20,2025-11-20,合同会社すどう綜合企画,,合同会社,千葉県,鴨川市,佐野３３２番地,,12,223,2960236,,,,,,,2025-11-20,1,,,,,スドウソウゴウキカク,0
301,2060003005856,新規,0,2025-11-20,2025-11-20,合同会社Ｙｕｎｌｉｘ,,合同会社,栃木県,鹿沼市,みなみ町８－２４１,,09,205,3220524,,,,,,,2025-11-20,1,,,,,ユンリックス,0
302,2070001043568,新規,0,2025-11-20,2025-11-20,マイショップ株式会社,,株式会社,群馬県,伊勢崎市,下触町２２７番地１,,10,204,3792214,,,,,,,2025-11-20,1,,,,,マイショップ,0
305,2080101025903,新規,0,2025-11-20,2025-11-20,株式会社ＰＩＮＥＷＡＶＥ　Ｉｎｃ．,,株式会社,静岡県,下田市,白浜２２９３番地の５,,22,219,4150012,,,,,,,2025-11-20,1,,,,,パインウェーブインク,0
309,2080403005396,新規,0,2025-11-20,2025-11-20,合同会社ＨＡＬＥＬＥＩ,,合同会社,静岡県,浜松市中央区,本郷町１３１３番地の７,,22,138,4300812,,,,,,,2025-11-20,1,,,,,ハレレイ,0
310,2090005007749,新規,0,2025-11-20,2025-11-20,一般社団法人こうふＨＲＢＰラボ,,その他の設立登記法人,山梨県,甲府市,塩部４丁目１０番２８号,,19,201,4000026,,,,,,,2025-11-20,1,,,,,コウフエイチアールビーピーラボ,0
314,2110003005974,新規,0,2025-11-20,2025-11-20,合同会社Ｋ＆Ｋ,,合同会社,新潟県,新潟市中央区,南笹口２丁目１番１０号コーポハセガワ４０２号,,15,103,9500912,,,,,,,2025-11-20,1,,,,,ケーアンドケー,0
325,2120001281682,新規,0,2025-11-20,2025-11-20,株式会社ＥＩＧＨＴ,,株式会社,大阪府,大阪市東成区,深江南１丁目１２番３号,,27,115,5370002,,,,,,,2025-11-20,1,,,,,エイト,0
326,2120001282103,新規,0,2025-11-20,2025-11-20,株式会社フォーザネイバーズ,,株式会社,大阪府,大阪市中央区,内本町１丁目４番１２号ＮＰＯビル,,27,128,5400026,,,,,,,2025-11-20,1,,,,,フォーザネイバーズ,0
327,2120001282160,新規,0,2025-11-20,2025-11-20,株式会社ＧＯＴＯＫＵ,,株式会社,大阪府,大阪市福島区,吉野４丁目２１番２６号,,27,103,5530006,,,,,,,2025-11-20,1,,,,,ゴトク,0
335,2120901051838,新規,0,2025-11-20,2025-11-20,株式会社Ａｓｍｏｌｉｎｋｅｒ,,株式会社,大阪府,茨木市,南安威２丁目２番５号５０５,,27,211,5670007,,,,,,,2025-11-20,1,,,,,アスモリンカー,0
337,2130001081066,新規,0,2025-11-20,2025-11-20,株式会社京遊栄,,株式会社,京都府,京都市右京区,梅津尻溝町３０番地２０,,26,108,6150924,,,,,,,2025-11-20,1,,,,,キョウユウエイ,0
356,2180001169567,新規,0,2025-11-20,2025-11-20,株式会社ｗａｌｔ,,株式会社,愛知県,名古屋市中村区,名駅３丁目９番１５号名古屋東アーバンビル５Ｆ,,23,105,4500002,,,,,,,2025-11-20,1,,,,,ウォルト,0
357,2180001169583,新規,0,2025-11-20,2025-11-20,株式会社七０商店,,株式会社,愛知県,瀬戸市,塩草町１１番地の３６,,23,204,4890895,,,,,,,2025-11-20,1,,,,,ナナマルショウテン,0
359,2180003029406,新規,0,2025-11-20,2025-11-20,合同会社ナバリベース,,合同会社,愛知県,名古屋市昭和区,広路町字南山６８番地５号館１号,,23,107,4660834,,,,,,,2025-11-20,1,,,,,ナバリベース,0
362,2190003005265,新規,0,2025-11-20,2025-11-20,Ｔｈｅｒａｐｙ　ｗｉｔｈ　Ａｒｔしずく合同会社,,合同会社,三重県,名張市,丸之内６５番４,,24,208,5180718,,,,,,,2025-11-20,1,,,,,セラピーウィズアートシズク,0
363,2200001044453,新規,0,2025-11-20,2025-11-20,ｔａｉｙｏｕｎｏｉｒｏ株式会社,,株式会社,岐阜県,各務原市,大野町１丁目１１４番地,,21,213,5040934,,,,,,,2025-11-20,1,,,,,タイヨウノイロ,0
365,2210001020395,新規,0,2025-11-20,2025-11-20,株式会社価創開発,,株式会社,福井県,福井市,花月５丁目６番９号,,18,201,9100022,,,,,,,2025-11-20,1,,,,,カソウカイハツ,0
366,2210005010236,新規,0,2025-11-20,2025-11-20,弁護士法人福井ひかり総合法律事務所,,その他の設立登記法人,福井県,福井市,大手３丁目１４番１０号ＴＭＹ大名町ビル４階,,18,201,9100005,,,,,,,2025-11-20,1,,,,,フクイヒカリソウゴウホウリツジムショ,0
378,2260001040752,新規,0,2025-11-20,2025-11-20,株式会社福吉,,株式会社,岡山県,岡山市北区,花尻ききょう町１３番地１０３ＮＥＷアイフルＡ棟１０２号室,,33,101,7010132,,,,,,,2025-11-20,1,,,,,フクヨシ,0
384,2290001112210,新規,0,2025-11-20,2025-11-20,株式会社ＡＳＴＡ,,株式会社,福岡県,福岡市博多区,奈良屋町８番１０号,,40,132,8120023,,,,,,,2025-11-20,1,,,,,アスタ,0
390,2290003017721,新規,0,2025-11-20,2025-11-20,合同会社ミスター１,,合同会社,福岡県,福岡市南区,市崎２丁目１３番１６号,,40,134,8150084,,,,,,,2025-11-20,1,,,,,ミスターワン,0
407,2370003007375,新規,0,2025-11-20,2025-11-20,合同会社マナーズアライ,,合同会社,宮城県,宮城郡利府町,神谷沢字南沢１番地１９９,,04,406,9810121,,,,,,,2025-11-20,1,,,,,マナーズアライ,0
422,2490003002067,新規,0,2025-11-20,2025-11-20,合同会社ケミスト薬局,,合同会社,高知県,高知市,一ツ橋町２丁目１８番地２,,39,201,7800981,,,,,,,2025-11-20,1,,,,,ケミストヤッキョク,0
433,3010001260267,新規,0,2025-11-20,2025-11-20,梅花商事株式会社,,株式会社,東京都,中央区,入船１丁目２番８号サンパーク東京銀座９０４,,13,102,1040042,,,,,,,2025-11-20,1,,,,,メイカショウジ,0
434,3010001260465,新規,0,2025-11-20,2025-11-20,株式会社ＳＡＲＵＴＡＨＩＫＯ,,株式会社,東京都,中央区,銀座４丁目８番１４号陽光銀座ビル６Ｆ,,13,102,1040061,,,,,,,2025-11-20,1,,,,,サルタヒコ,0
435,3010001260580,新規,0,2025-11-20,2025-11-20,Ｋ‐Ｌｉｎｅ　Ｌａｂ株式会社,,株式会社,東京都,文京区,目白台３丁目１７－１７,,13,105,1120015,,,,,,,2025-11-20,1,,,,,ケーラインラボ,0
438,3010003049452,新規,0,2025-11-20,2025-11-20,合同会社スマトラ・ワン,,合同会社,東京都,千代田区,内幸町２丁目１番６号,,13,101,1000011,,,,,,,2025-11-20,1,,,,,スマトラワン,0
439,3010003049485,新規,0,2025-11-20,2025-11-20,三次蓄電所合同会社,,合同会社,東京都,中央区,京橋２丁目１２番６号ＡＯＪ税理士法人内,,13,102,1040031,,,,,,,2025-11-20,1,,,,,ミヨシチクデンショ,0
455,3010601068309,新規,0,2025-11-20,2025-11-20,株式会社ＳＯＩＬ,,株式会社,東京都,江東区,東陽２丁目２番１４－８０１号,,13,108,1350016,,,,,,,2025-11-20,1,,,,,ソイル,0
466,3010905004868,新規,0,2025-11-20,2025-11-20,一般社団法人和文化国際交流会,,その他の設立登記法人,東京都,世田谷区,成城８丁目１６番５号２,,13,112,1570066,,,,,,,2025-11-20,1,,,,,ワブンカコクサイコウリュウカイ,0
478,3011305003080,新規,0,2025-11-20,2025-11-20,特定非営利活動法人杉並倶楽部,,その他の設立登記法人,東京都,杉並区,宮前２丁目４番２２号,,13,115,1680081,,,,,,,2025-11-20,1,,,,,スギナミクラブ,0
479,3011401027586,新規,0,2025-11-20,2025-11-20,ＥＶＥＲＷＩＬＤ株式会社,,株式会社,東京都,板橋区,板橋２丁目６４番１０号板橋新生ビル４０３号室,,13,119,1730004,,,,,,,2025-11-20,1,,,,,エバーワイルド,0
480,3011401027594,新規,0,2025-11-20,2025-11-20,株式会社ＲＣＣ,,株式会社,東京都,板橋区,板橋４丁目２８－１０,,13,119,1730004,,,,,,,2025-11-20,1,,,,,アールシーシー,0
485,3011601029176,新規,0,2025-11-20,2025-11-20,株式会社花枝設備,,株式会社,東京都,練馬区,南大泉５丁目８番２１号,,13,120,1780064,,,,,,,2025-11-20,1,,,,,ハナエダセツビ,0
489,3011801047093,新規,0,2025-11-20,2025-11-20,株式会社ＱＲｅｓｔ,,株式会社,東京都,葛飾区,堀切２丁目４１番１１号,,13,122,1240006,,,,,,,2025-11-20,1,,,,,キューレスト,0
503,3020001165928,新規,0,2025-11-20,2025-11-20,株式会社ＥＤＡ,,株式会社,神奈川県,横浜市港南区,上大岡西１丁目１５－１－３００１,,14,111,2330002,,,,,,,2025-11-20,1,,,,,イーディーエー,0
506,3020002092064,新規,0,2025-11-20,2025-11-20,有限会社後藤製作所,,有限会社,神奈川県,川崎市多摩区,中野島６丁目９番１号,,14,135,2140012,,,,,,,2025-11-20,1,,,,,,0
512,3030001169754,新規,0,2025-11-20,2025-11-20,株式会社テッパン,,株式会社,埼玉県,和光市,白子１丁目１８番３号本丸マンション１０３号室,,11,229,3510101,,,,,,,2025-11-20,1,,,,,テッパン,0
515,3030003028099,新規,0,2025-11-20,2025-11-20,Ｉｖｏｒｙ　Ｊａｐａｎ合同会社,,合同会社,埼玉県,鶴ヶ島市,大字藤金７１７番地２,,11,241,3502206,,,,,,,2025-11-20,1,,,,,アイボリジャパン,0
516,3030003028116,新規,0,2025-11-20,2025-11-20,合同会社サクラ建設,,合同会社,埼玉県,戸田市,笹目南町３１番１１号,,11,224,3350035,,,,,,,2025-11-20,1,,,,,サクラケンセツ,0
524,3040001141472,新規,0,2025-11-20,2025-11-20,Ｄｅｌｔａ　Ｔｒａｄｉｎｇ　Ｊａｐａｎ株式会社,,株式会社,千葉県,印旛郡酒々井町,中央台４丁目９番７,,12,322,2850922,,,,,,,2025-11-20,1,,,,,デルタトレーディングジャパン,0
525,3040001141497,新規,0,2025-11-20,2025-11-20,森塗装株式会社,,株式会社,千葉県,鎌ケ谷市,初富８０２番地１５２,,12,224,2730121,,,,,,,2025-11-20,1,,,,,モリトソウ,0
530,3040003028998,新規,0,2025-11-20,2025-11-20,Ｋｕｅｒｎｅｒ　Ｇｒｏｕｐ合同会社,,合同会社,千葉県,佐倉市,王子台６丁目３５番地７,,12,212,2850837,,,,,,,2025-11-20,1,,,,,カーナーグループ,0
541,3120001282143,新規,0,2025-11-20,2025-11-20,株式会社パスウェイケア,,株式会社,大阪府,大阪市北区,西天満３丁目１４番１５号,,27,127,5300047,,,,,,,2025-11-20,1,,,,,パスウェイケア,0
545,3120105010086,新規,0,2025-11-20,2025-11-20,ジャパントラストサポート協同組合,,その他の設立登記法人,大阪府,泉南市,信達市場１３４１－１,,27,228,5900504,,,,,,,2025-11-20,1,,,,,ジャパントラストサポート,0
549,3120901051812,新規,0,2025-11-20,2025-11-20,株式会社Ｇ’ｓ　ＦＩＶＥ,,株式会社,大阪府,吹田市,朝日が丘町２６番３号,,27,205,5640083,,,,,,,2025-11-20,1,,,,,ジーズファイブ,0
550,3120901051829,新規,0,2025-11-20,2025-11-20,株式会社ＫＢＸ,,株式会社,大阪府,茨木市,舟木町７－１０－１００４,,27,211,5670828,,,,,,,2025-11-20,1,,,,,ケービーエックス,0
551,3120901051837,新規,0,2025-11-20,2025-11-20,株式会社ｂａｒｉｂｏ,,株式会社,大阪府,吹田市,吹東町２１番８号,,27,205,5640014,,,,,,,2025-11-20,1,,,,,バリボ,0
552,3120901051853,新規,0,2025-11-20,2025-11-20,株式会社まんまる,,株式会社,大阪府,高槻市,清水台１丁目１２番２２号,,27,207,5691039,,,,,,,2025-11-20,1,,,,,マンマル,0
554,3120903005964,新規,0,2025-11-20,2025-11-20,合同会社ぎざいかん,,合同会社,大阪府,池田市,荘園１丁目１０番２１号,,27,204,5630038,,,,,,,2025-11-20,1,,,,,ギザイカン,0
560,3130001081065,新規,0,2025-11-20,2025-11-20,株式会社ＢＯＯＴＬＩＧＨＴ,,株式会社,京都府,向日市,鶏冠井町山畑３９番地２レマイソン１‐Ａ,,26,208,6170004,,,,,,,2025-11-20,1,,,,,ブートライト,0
562,3130003010939,新規,0,2025-11-20,2025-11-20,銀蔵合同会社,,合同会社,京都府,京都市山科区,竹鼻竹ノ街道町３９番地１リベロ上田３０３,,26,110,6078080,,,,,,,2025-11-20,1,,,,,ギンゾウ,0
566,3140001140712,新規,0,2025-11-20,2025-11-20,株式会社二三,,株式会社,兵庫県,尼崎市,上坂部１丁目８番２－１５０９号,,28,202,6610979,,,,,,,2025-11-20,1,,,,,ツムギ,0
567,3140001140852,新規,0,2025-11-20,2025-11-20,株式会社ミライブ,,株式会社,兵庫県,明石市,本町１丁目２－３３興生ビル４階,,28,203,6730892,,,,,,,2025-11-20,1,,,,,ミライブ,0
586,3180003029396,新規,0,2025-11-20,2025-11-20,合同会社ＵＮＩＴＥ,,合同会社,愛知県,東海市,加木屋町石塚８９番地レジェンド石塚（Ｄ棟）,00141608,23,222,4770032,,,,,,,2025-11-20,1,,,,,ユナイト,0
594,3230001021184,新規,0,2025-11-20,2025-11-20,ＭＣＣ株式会社,,株式会社,富山県,射水市,三ケ白銀町７９７白銀ビル２階Ｆ号室,,16,211,9390341,,,,,,,2025-11-20,1,,,,,エムシーシー,0
599,3260001040751,新規,0,2025-11-20,2025-11-20,和温株式会社,,株式会社,岡山県,岡山市北区,平田１４５番地１０５,,33,101,7000952,,,,,,,2025-11-20,1,,,,,ワオン,0
605,3290001112192,新規,0,2025-11-20,2025-11-20,株式会社はちまる,,株式会社,福岡県,古賀市,筵内１４６７番地,,40,223,8113121,,,,,,,2025-11-20,1,,,,,ハチマル,0
606,3290001112218,新規,0,2025-11-20,2025-11-20,株式会社ミーリスタ,,株式会社,福岡県,太宰府市,観世音寺１丁目１３番１－１０５号,,40,221,8180101,,,,,,,2025-11-20,1,,,,,ミーリスタ,0
611,3290801032045,新規,0,2025-11-20,2025-11-20,株式会社リネアデザイン,,株式会社,福岡県,北九州市門司区,不老町１丁目５番１－１２０３,,40,101,8000032,,,,,,,2025-11-20,1,,,,,リネアデザイン,0
616,3320003004830,新規,0,2025-11-20,2025-11-20,合同会社Ｃ‐３,,合同会社,大分県,大分市,生石港町２丁目８番１４号,,44,201,8700001,,,,,,,2025-11-20,1,,,,,シースリー,0
618,3330001033764,新規,0,2025-11-20,2025-11-20,エントランス株式会社,,株式会社,熊本県,熊本市中央区,花畑町１番１４号Ａ＆Ｍ・ＨＡＮＡＢＡＴＡ３０１号,,43,101,8600806,,,,,,,2025-11-20,1,,,,,エントランス,0
620,3340001002768,新規,0,2025-11-20,2025-11-20,中央管理株式会社,,株式会社,鹿児島県,鹿児島市,上荒田町１６番２５号,,46,201,8900055,,,,,,,2025-11-20,1,,,,,,0
621,3340003005018,新規,0,2025-11-20,2025-11-20,合同会社井尻,,合同会社,鹿児島県,熊毛郡屋久島町,原９６番地７,,46,505,8914403,,,,,,,2025-11-20,1,,,,,イジリ,0
623,3380001035707,新規,0,2025-11-20,2025-11-20,株式会社吉田電工,,株式会社,福島県,白河市,借宿白旗８番地,,07,205,9610014,,,,,,,2025-11-20,1,,,,,ヨシダデンコウ,0
629,3430001095695,新規,0,2025-11-20,2025-11-20,株式会社ＳｕｎｎｙＦｒｏｓｔＧａｒｄｅｎ,,株式会社,北海道,余市郡余市町,栄町３３１番地２,,01,408,0460001,,,,,,,2025-11-20,1,,,,,サニーフロストガーデン,0
636,3490003002066,新規,0,2025-11-20,2025-11-20,合同会社ｍｕｒｏｔｏ,,合同会社,高知県,室戸市,室戸岬町１８１０番地２,,39,202,7817101,,,,,,,2025-11-20,1,,,,,ムロト,0
641,3700150132866,新規,0,2025-11-20,2025-11-20,Ｂｅａｒ　Ｉｎｖｅｓｔｍｅｎｔ　Ｌｉｍｉｔｅｄ,,外国会社等,,,,,,,,中華人民共和国、香港特別行政区、カオルーン、ヤウマティ、ネイサンロード３３１、コウシュンハウス、８階,,,,,,2025-11-20,1,,,,,ベアインベストメントリミテツド,0
642,3700150133006,新規,0,2025-11-20,2025-11-20,９３デイジー・ジャパン・エルエルシー,,外国会社等,東京都,千代田区,丸の内２丁目１番１号明治安田生命ビル２１階ＧＴ東京法律事務所内,,13,101,1000005,アメリカ合衆国デラウエア州ウィルミントン、オレンジ・ストリート１２０９、ナショナル・レジスタード・エージェント・インク内,,,,,,2025-11-20,1,,,,,ナインテイスリーデイジージヤパンエルエルシー,0
650,4010001260480,新規,0,2025-11-20,2025-11-20,明潤メディカルサポート株式会社,,株式会社,東京都,千代田区,丸の内１丁目６－６日本生命丸の内ビル２１階２１０８７号室,,13,101,1000005,,,,,,,2025-11-20,1,,,,,メイジュンメディカルサポート,0
651,4010001260497,新規,0,2025-11-20,2025-11-20,アセンディアビジネスサポート株式会社,,株式会社,東京都,中央区,日本橋２丁目１番３号,,13,102,1030027,,,,,,,2025-11-20,1,,,,,アセンディアビジネスサポート,0
652,4010001260506,新規,0,2025-11-20,2025-11-20,ＤＭ＆Ｃｏ．株式会社,,株式会社,東京都,中央区,銀座１丁目２２番１１号銀座大竹ビジデンス２Ｆ,,13,102,1040061,,,,,,,2025-11-20,1,,,,,ディーエムアンドカンパニー,0
654,4010003049451,新規,0,2025-11-20,2025-11-20,合同会社ＫＲＦ１１７,,合同会社,東京都,千代田区,内幸町２丁目１番６号,,13,101,1000011,,,,,,,2025-11-20,1,,,,,ケイアールエフヒャクジュウナナ,0
663,4010601068308,新規,0,2025-11-20,2025-11-20,メディカルウェルビーイング株式会社,,株式会社,東京都,江東区,豊洲６丁目２－３１－２３１０,,13,108,1350061,,,,,,,2025-11-20,1,,,,,メディカルウェルビーイング,0
665,4010605004523,新規,0,2025-11-20,2025-11-20,一般社団法人こども移植待機のおうち東京,,その他の設立登記法人,東京都,墨田区,錦糸２丁目９番１０号,,13,107,1300013,,,,,,,2025-11-20,1,,,,,コドモイショクタイキノオウチトウキョウ,0
681,4011001173607,新規,0,2025-11-20,2025-11-20,株式会社リプルト,,株式会社,東京都,目黒区,自由が丘２丁目１６番１２号ＲＪ３,,13,110,1520035,,,,,,,2025-11-20,1,,,,,リプルト,0
684,4011003023000,新規,0,2025-11-20,2025-11-20,申東振業合同会社,,合同会社,東京都,渋谷区,本町２丁目３３番１３－１０１号,,13,113,1510071,,,,,,,2025-11-20,1,,,,,,0
690,4011101113999,新規,0,2025-11-20,2025-11-20,株式会社うらもち,,株式会社,東京都,新宿区,西新宿３丁目３番１３号西新宿水間ビル２Ｆ,,13,104,1600023,,,,,,,2025-11-20,1,,,,,ウラモチ,0
693,4011303005771,新規,0,2025-11-20,2025-11-20,健育舎合同会社,,合同会社,東京都,杉並区,方南１丁目３９番１５号ＴＯＫＹＯβ方南町９（２０１）,,13,115,1680062,,,,,,,2025-11-20,1,,,,,ケンイクシャ,0
703,4013301055344,新規,0,2025-11-20,2025-11-20,株式会社ＺＩＮＲＡＫＵ,,株式会社,東京都,豊島区,東池袋１丁目１７番１１号パークハイツ池袋１１０５号,,13,116,1700013,,,,,,,2025-11-20,1,,,,,ジンラク,0
721,4021003016812,新規,0,2025-11-20,2025-11-20,合同会社ＥＶＡＬＵＥＴＩＯＮ,,合同会社,神奈川県,小田原市,上新田７番地の１６,,14,206,2500877,,,,,,,2025-11-20,1,,,,,エバリューション,0
726,4030001169778,新規,0,2025-11-20,2025-11-20,アウケート株式会社,,株式会社,埼玉県,児玉郡上里町,大字七本木３７０３番地４８,,11,385,3690306,,,,,,,2025-11-20,1,,,,,アウケート,0
733,4040001141496,新規,0,2025-11-20,2025-11-20,株式会社ＰＡＬＩＳＭ,,株式会社,千葉県,流山市,南流山３丁目１－１４旭ビル１０２,,12,220,2700163,,,,,,,2025-11-20,1,,,,,パリズム,0
734,4040003028980,新規,0,2025-11-20,2025-11-20,合同会社セカンド,,合同会社,千葉県,習志野市,奏の杜２丁目２－２－１９２５,,12,216,2750028,,,,,,,2025-11-20,1,,,,,セカンド,0
736,4060001038781,新規,0,2025-11-20,2025-11-20,株式会社Ａｍａｌｆｉ不動産,,株式会社,栃木県,下都賀郡壬生町,若草町１番３７号,,09,361,3210205,,,,,,,2025-11-20,1,,,,,アマルフィフドウサン,0
737,4070001043500,新規,0,2025-11-20,2025-11-20,株式会社清水工業,,株式会社,群馬県,邑楽郡板倉町,大字海老瀬７００８番地の１,,10,521,3740111,,,,,,,2025-11-20,1,,,,,シミズコウギョウ,0
738,4070001043574,新規,0,2025-11-20,2025-11-20,株式会社アクシス運送,,株式会社,群馬県,前橋市,六供町１丁目１８－５,,10,201,3710804,,,,,,,2025-11-20,1,,,,,,0
741,4080401028273,新規,0,2025-11-20,2025-11-20,株式会社キャッシュＳマネジメント,,株式会社,静岡県,浜松市中央区,伊左地町６９０２番地の２,,22,138,4311111,,,,,,,2025-11-20,1,,,,,,0
743,4100001039115,新規,0,2025-11-20,2025-11-20,株式会社輝志,,株式会社,長野県,松本市,巾上１３番２０号１０１,,20,202,3900817,,,,,,,2025-11-20,1,,,,,キシ,0
747,4110001039725,新規,0,2025-11-20,2025-11-20,株式会社トゥモローズ,,株式会社,新潟県,新潟市中央区,天神１丁目１番地プラーカ３、２Ｆ、ＨＵＢ　ＳＴＡＴＩＯＮ　ＫＥＮＴＯ内,,15,103,9500917,,,,,,,2025-11-20,1,,,,,トゥモローズ,0
760,4120001282118,新規,0,2025-11-20,2025-11-20,Ｖｉｃｋｙ株式会社,,株式会社,大阪府,大阪市住之江区,中加賀屋２丁目２番２５号プレアール中加賀屋４Ｆ,,27,125,5590017,,,,,,,2025-11-20,1,,,,,ヴィキー,0
761,4120001282134,新規,0,2025-11-20,2025-11-20,株式会社大仙,,株式会社,大阪府,大阪市西成区,南津守４丁目１番６２号,,27,122,5570063,,,,,,,2025-11-20,1,,,,,ダイセン,0
762,4120001282142,新規,0,2025-11-20,2025-11-20,株式会社ＮＨホールディングス,,株式会社,大阪府,大阪市港区,波除２丁目７番４号,,27,107,5520001,,,,,,,2025-11-20,1,,,,,エヌエイチホールディングス,0
763,4120001282150,新規,0,2025-11-20,2025-11-20,株式会社テラシード,,株式会社,大阪府,大阪市北区,堂島浜１丁目４番１６号,,27,127,5300004,,,,,,,2025-11-20,1,,,,,テラシード,0
764,4120001282175,新規,0,2025-11-20,2025-11-20,繁庭商事株式会社,,株式会社,大阪府,大阪市天王寺区,悲田院町１－３８－１２１９,,27,109,5430055,,,,,,,2025-11-20,1,,,,,ハンテイショウジ,0
772,4120901051803,新規,0,2025-11-20,2025-11-20,定榮フレンズ株式会社,,株式会社,大阪府,箕面市,百楽荘１丁目４番２４号,,27,220,5620042,,,,,,,2025-11-20,1,,,,,サダエイフレンズ,0
773,4120901051828,新規,0,2025-11-20,2025-11-20,株式会社ＨＳＰ,,株式会社,大阪府,吹田市,原町２丁目４３番６号,,27,205,5640004,,,,,,,2025-11-20,1,,,,,エイチエスピー,0
774,4120903005955,新規,0,2025-11-20,2025-11-20,合同会社ａｋｓｓｈ,,合同会社,大阪府,吹田市,青山台１丁目１番１－２０１号,,27,205,5650875,,,,,,,2025-11-20,1,,,,,アクシュ,0
775,4120905006811,新規,0,2025-11-20,2025-11-20,一般社団法人Ｌｉｏｒａ,,その他の設立登記法人,大阪府,高槻市,南総持寺町５－３３－１０５,,27,207,5690851,,,,,,,2025-11-20,1,,,,,リオラ,0
776,4140001008611,新規,0,2025-11-20,2025-11-20,株式会社城山建築事務所,,株式会社,兵庫県,神戸市中央区,楠町６丁目１０番３号,,28,110,6500017,,,,,,,2025-11-20,1,,,,,シロヤマケンチクジムショ,0
782,4140001140835,新規,0,2025-11-20,2025-11-20,株式会社ＦｅｌｉｚＳｔｙｌｅ,,株式会社,兵庫県,尼崎市,水堂町３丁目１８番１７－２０３号,,28,202,6610026,,,,,,,2025-11-20,1,,,,,フェリススタイル,0
785,4140003022874,新規,0,2025-11-20,2025-11-20,Ｓｉｌｅｎｔ　Ｌｉｎｋ合同会社,,合同会社,兵庫県,神戸市中央区,磯辺通１丁目１番１８号カサベラ国際プラザビル７０７号室,,28,110,6510084,,,,,,,2025-11-20,1,,,,,サイレントリンク,0
786,4140003022882,新規,0,2025-11-20,2025-11-20,ラストワンマイルロジスティクスジャパン合同会社,,合同会社,兵庫県,尼崎市,道意町６丁目７番１号,,28,202,6600083,,,,,,,2025-11-20,1,,,,,ラストワンマイルロジスティクスジャパン,0
788,4140005027707,新規,0,2025-11-20,2025-11-20,一般社団法人とことこ,,その他の設立登記法人,兵庫県,西宮市,山口町名来１丁目２２－７,,28,204,6511411,,,,,,,2025-11-20,1,,,,,トコトコ,0
791,4150001028559,新規,0,2025-11-20,2025-11-20,株式会社ＣＯＵＣＨ　ＰＯＴＡＴＯ,,株式会社,奈良県,奈良市,北登美ヶ丘２丁目２５番２号,,29,201,6310001,,,,,,,2025-11-20,1,,,,,カウチポテト,0
799,4180001169581,新規,0,2025-11-20,2025-11-20,株式会社ＸＯＸＯ,,株式会社,愛知県,名古屋市中村区,亀島２丁目３１番２１号,,23,105,4530013,,,,,,,2025-11-20,1,,,,,エックスオーエックスオー,0
804,4180003029379,新規,0,2025-11-20,2025-11-20,合同会社ＯＮＥＴＡＭＥ,,合同会社,愛知県,名古屋市瑞穂区,弥富通一丁目３８番地の２シティマンション新瑞東６０１号,,23,108,4670000,,,,,,,2025-11-20,1,,,,,ワンタメ,0
815,4200001044451,新規,0,2025-11-20,2025-11-20,ＣＲＥＥＰ株式会社,,株式会社,岐阜県,岐阜市,加納城南通２丁目１０番地４,,21,201,5008486,,,,,,,2025-11-20,1,,,,,クリープ,0
817,4220003004162,新規,0,2025-11-20,2025-11-20,２６３ａ　ＣＲＥＡＴＯＲＳ合同会社,,合同会社,石川県,金沢市,泉野町２丁目１番３３号,,17,201,9218034,,,,,,,2025-11-20,1,,,,,ニイロクサンエークリエイターズ,0
821,4240001065808,新規,0,2025-11-20,2025-11-20,株式会社縁,,株式会社,広島県,広島市中区,吉島東１丁目２６番１５－１号,,34,101,7300822,,,,,,,2025-11-20,1,,,,,エン,0
824,4260001040750,新規,0,2025-11-20,2025-11-20,株式会社モデリア,,株式会社,岡山県,岡山市北区,津島南２丁目３番１５－４号,,33,101,7000085,,,,,,,2025-11-20,1,,,,,モデリア,0
827,4260003005421,新規,0,2025-11-20,2025-11-20,空建クリエイト合同会社,,合同会社,岡山県,岡山市東区,藤井９３４番地１階,,33,103,7038213,,,,,,,2025-11-20,1,,,,,クウケンクリエイト,0
834,4320001021447,新規,0,2025-11-20,2025-11-20,株式会社Ｈａｒｕ　ｃｏｌｏｒ,,株式会社,大分県,大分市,大字神崎１７１番地の２,,44,201,8700100,,,,,,,2025-11-20,1,,,,,ハルカラー,0
840,4350003005073,新規,0,2025-11-20,2025-11-20,ドットエイト合同会社,,合同会社,宮崎県,宮崎市,吉村町南田甲１０８６－１,,45,201,8800841,,,,,,,2025-11-20,1,,,,,ドットエイト,0
841,4350005006342,新規,0,2025-11-20,2025-11-20,一般財団法人ひなた未来創造ファンド,,その他の設立登記法人,宮崎県,宮崎市,鶴島２丁目９番６号,,45,201,8800014,,,,,,,2025-11-20,1,,,,,ヒナタミライソウゾウファンド,0
843,4360003015410,新規,0,2025-11-20,2025-11-20,合同会社リセットプロ,,合同会社,沖縄県,浦添市,伊祖４丁目５－７,,47,208,9012132,,,,,,,2025-11-20,1,,,,,リセットプロ,0
845,4380001035706,新規,0,2025-11-20,2025-11-20,株式会社Ｒｅ．Ｒｉｓｅ,,株式会社,福島県,南相馬市,原町区仲町２丁目１４９番地,,07,212,9750016,,,,,,,2025-11-20,1,,,,,リライズ,0
854,4430001095686,新規,0,2025-11-20,2025-11-20,株式会社ＯＫＢ,,株式会社,北海道,札幌市中央区,南二条西５丁目３１番地１ＲＭＢｌｄ．７０１,,01,101,0600062,,,,,,,2025-11-20,1,,,,,オーケービー,0
859,4450001014792,新規,0,2025-11-20,2025-11-20,株式会社煌里,,株式会社,北海道,雨竜郡北竜町,字美葉牛６１番地１,,01,437,0782501,,,,,,,2025-11-20,1,,,,,キラリ,0
862,4470003003016,新規,0,2025-11-20,2025-11-20,Ｋｏｔｏｈｉｒａ　Ｓｐｉｒａｌ　ＤＡＯ合同会社,,合同会社,香川県,仲多度郡琴平町,７２０－１５,,37,403,7660001,,,,,,,2025-11-20,1,,,,,,0
865,4490001011217,新規,0,2025-11-20,2025-11-20,株式会社ＯＭＬｉｎｅｓ,,株式会社,高知県,高知市,はりまや町３丁目１３番２１号,,39,201,7800822,,,,,,,2025-11-20,1,,,,,,0
868,4490003002065,新規,0,2025-11-20,2025-11-20,合同会社ＭＡＫＵＲｅ,,合同会社,高知県,土佐市,用石１８５番地の３,,39,205,7811152,,,,,,,2025-11-20,1,,,,,マクリ,0
871,4700150133005,新規,0,2025-11-20,2025-11-20,ｓｈｅｎｚｈｅｎｓｈｉｙｉｔｅｍａｉｋｅｊｉｙｏｕｘｉａｎｇｏｎｇｓｉ,,外国会社等,,,,,,,,ｂａｏａｎｑｕ　ｘｉｘｉａｎｇｊｉｅｄａｏ　ｚｈｏｕｓｈｉｌｕ　ｈｏｎｇｚｈｕｙｏｎｇｑｉｋｅｊｉｙｕａｎＢｄｏｎｇ　ｓｈｅｎｚｈｅｎｓｈｉ,,,,,,2025-11-20,1,,,,,シンセンシイテェマイカギユウゲンコウシ,0
878,5010001260158,新規,0,2025-11-20,2025-11-20,ノヴァラ株式会社,,株式会社,東京都,千代田区,九段北１丁目９－５朝日九段マンション６１５,,13,101,1020073,,,,,,,2025-11-20,1,,,,,ノヴァラ,0
879,5010001260496,新規,0,2025-11-20,2025-11-20,アセンディアコンサルティング株式会社,,株式会社,東京都,中央区,日本橋２丁目１番３号,,13,102,1030027,,,,,,,2025-11-20,1,,,,,アセンディアコンサルティング,0
882,5010003049426,新規,0,2025-11-20,2025-11-20,合同会社ファイングループ,,合同会社,東京都,千代田区,神田神保町２丁目１０－３１ＩＷビル１Ｆ,,13,101,1010051,,,,,,,2025-11-20,1,,,,,ファイングループ,0
883,5010003049483,新規,0,2025-11-20,2025-11-20,ｉプロパティ２７合同会社,,合同会社,東京都,千代田区,永田町２丁目１４番２号－３階スリーアイズキャピタル株式会社内,,13,101,1000014,,,,,,,2025-11-20,1,,,,,アイプロパティトゥエンティセブン,0
884,5010003049491,新規,0,2025-11-20,2025-11-20,合同会社ＹＵ３,,合同会社,東京都,千代田区,丸の内１丁目４番１号東京共同会計事務所内,,13,101,1000005,,,,,,,2025-11-20,1,,,,,ワイユーサン,0
891,5010403036602,新規,0,2025-11-20,2025-11-20,合同会社アンプラグド,,合同会社,東京都,港区,六本木７丁目１７番１２号六本木ビジネスアパートメンツ３０８号室,,13,103,1060032,,,,,,,2025-11-20,1,,,,,アンプラグド,0
892,5010405024984,新規,0,2025-11-20,2025-11-20,弁護士法人ルシェル法律事務所,,その他の設立登記法人,東京都,港区,赤坂２丁目１０番１２号生駒硝子ビル５階,,13,103,1070052,,,,,,,2025-11-20,1,,,,,ルシェルホウリツジムショ,0
898,5010605004522,新規,0,2025-11-20,2025-11-20,一般社団法人Ｇｏｓｐｅｌ　Ｍｉｓｓｉｏｎ　Ｓｔｅｗａｒｄｓ　Ｃｈｕｒｃｈ,,その他の設立登記法人,東京都,江東区,有明３丁目７番２６号有明フロンティアビルＢ棟９階,,13,108,1350063,,,,,,,2025-11-20,1,,,,,ゴスペルミッションステュワーズチャーチ,0
899,5010701048621,新規,0,2025-11-20,2025-11-20,株式会社ＨＹＰＥ,,株式会社,東京都,品川区,東品川２丁目２番４号天翔オフィス天王洲ファーストタワー７２７,,13,109,1400002,,,,,,,2025-11-20,1,,,,,ハイプ,0
920,5011103016588,新規,0,2025-11-20,2025-11-20,ＡＫＹフュージョン合同会社,,合同会社,東京都,新宿区,西新宿３丁目３番１３号西新宿水間ビル６Ｆ,,13,104,1600023,,,,,,,2025-11-20,1,,,,,エーケイワイフュージョン,0
921,5011401027592,新規,0,2025-11-20,2025-11-20,株式会社西義興業,,株式会社,東京都,板橋区,泉町５番３号,,13,119,1740055,,,,,,,2025-11-20,1,,,,,ニシノリコウギョウ,0
934,5020001165760,新規,0,2025-11-20,2025-11-20,大建株式会社,,株式会社,神奈川県,横浜市瀬谷区,南台２丁目１５番地４,,14,114,2460032,,,,,,,2025-11-20,1,,,,,ダイケン,0
961,5040001141421,新規,0,2025-11-20,2025-11-20,ＭＲホールディングス株式会社,,株式会社,千葉県,船橋市,夏見町２丁目５００番地１,,12,204,2730867,,,,,,,2025-11-20,1,,,,,エムアールホールディングス,0
965,5040005022948,新規,0,2025-11-20,2025-11-20,一般社団法人キャットプロトリマー協会,,その他の設立登記法人,千葉県,千葉市花見川区,瑞穂３丁目２番地８,,12,102,2620026,,,,,,,2025-11-20,1,,,,,キャットプロトリマーキョウカイ,0
966,5050001057625,新規,0,2025-11-20,2025-11-20,株式会社５Ａ,,株式会社,茨城県,つくば市,吾妻３丁目１６―１ＴＭＴつくば２０４,,08,220,3050031,,,,,,,2025-11-20,1,,,,,ファイブエー,0
968,5050003009772,新規,0,2025-11-20,2025-11-20,合同会社Ｂｏｎｉｔａ　Ｈｅｒｉｔａｇｅ,,合同会社,茨城県,土浦市,永国東町５３番１１号,,08,203,3000816,,,,,,,2025-11-20,1,,,,,ボニータヘリテイジ,0
980,5090001019613,新規,0,2025-11-20,2025-11-20,誠和ＪＡＰＡＮ株式会社,,株式会社,山梨県,富士吉田市,下吉田１丁目４番１６号,,19,202,4030004,,,,,,,2025-11-20,1,,,,,セイワジャパン,0
992,5120001282125,新規,0,2025-11-20,2025-11-20,株式会社Ｐ,,株式会社,大阪府,大阪市東淀川区,東淡路１丁目５番３－２３６号,,27,114,5330023,,,,,,,2025-11-20,1,,,,,ピー,0
993,5120001282141,新規,0,2025-11-20,2025-11-20,カタヤマ国際貿易投資株式会社,,株式会社,大阪府,大阪市中央区,農人橋２丁目１番３１第６松屋ビル１００１室,,27,128,5400011,,,,,,,2025-11-20,1,,,,,カタヤマコクサイボウエキトウシ,0
994,5120001282182,新規,0,2025-11-20,2025-11-20,株式会社インフィニティパワー,,株式会社,大阪府,大阪市城東区,蒲生４丁目２１番１２号４階,,27,118,5360016,,,,,,,2025-11-20,1,,,,,インフィニティパワー,0
997,5120005025249,新規,0,2025-11-20,2025-11-20,一般社団法人リーン医療リテラシー協会,,その他の設立登記法人,大阪府,大阪市中央区,安堂寺町１丁目５番１２号,,27,128,5420061,,,,,,,2025-11-20,1,,,,,リーンイリョウリテラシーキョウカイ,0
1003,5120901051843,新規,0,2025-11-20,2025-11-20,株式会社ｉｓ,,株式会社,大阪府,高槻市,別所本町３２番７号,,27,207,5691112,,,,,,,2025-11-20,1,,,,,イズ,0
1004,5120901051851,新規,0,2025-11-20,2025-11-20,株式会社ハッピーバレー,,株式会社,大阪府,吹田市,佐竹台１丁目５番１０－６２９号,,27,205,5650855,,,,,,,2025-11-20,1,,,,,ハッピーバレー,0
1005,5120903005954,新規,0,2025-11-20,2025-11-20,ＷＯＲＬＤ　ＷＩＮＧＳエンターテイメント合同会社,,合同会社,大阪府,茨木市,学園南町１２番１２号,,27,211,5670834,,,,,,,2025-11-20,1,,,,,ワールドウイングスエンターテイメント,0
1007,5130001081030,新規,0,2025-11-20,2025-11-20,株式会社Ｐｈｏｔｏｎｉｃ　Ｄｅｓｉｇｎ,,株式会社,京都府,京都市中京区,二条通柳馬場西入観音町９４番地ジオ御所南二条柳馬場３０１号,,26,104,6040821,,,,,,,2025-11-20,1,,,,,フォトニックデザイン,0
1013,5140001140834,新規,0,2025-11-20,2025-11-20,株式会社Ｆｅｌｉｃｉｄａｄ,,株式会社,兵庫県,西宮市,名次町４－２２－１０５,,28,204,6620024,,,,,,,2025-11-20,1,,,,,フェリシダ,0
1014,5140001140842,新規,0,2025-11-20,2025-11-20,株式会社ＶａｌｌｅｙＳｔｏｎｅ,,株式会社,兵庫県,神戸市中央区,下山手通１丁目３－１２横丁ビル５階,,28,110,6500011,,,,,,,2025-11-20,1,,,,,バレーストーン,0
1025,5180001169589,新規,0,2025-11-20,2025-11-20,株式会社ＡＬランドワークス,,株式会社,愛知県,大府市,森岡町２丁目３８０番地,,23,223,4740038,,,,,,,2025-11-20,1,,,,,エーエルランドワークス,0
1026,5180001169597,新規,0,2025-11-20,2025-11-20,鴻元株式会社,,株式会社,愛知県,一宮市,松降２丁目５番１４－３０５号,,23,203,4910042,,,,,,,2025-11-20,1,,,,,ヒロモト,0
1030,5180003029378,新規,0,2025-11-20,2025-11-20,ｌｅｏｒｉａ合同会社,,合同会社,愛知県,名古屋市中村区,名駅３丁目４番１０号アルティメイト名駅１ｓｔ２階,,23,105,4500002,,,,,,,2025-11-20,1,,,,,レオリア,0
1033,5180302011177,新規,0,2025-11-20,2025-11-20,小林メンテナンス工業有限会社,,有限会社,愛知県,豊橋市,東赤沢町字観音堂２９番地の１７,,23,201,4413212,,,,,,,2025-11-20,1,,,,,コバヤシメンテナンスコウギョウ,0
1062,5290001112208,新規,0,2025-11-20,2025-11-20,株式会社日進産業,,株式会社,福岡県,那珂川市,道善２丁目９０番地１ドリームライフ博多南２０２号,,40,231,8111254,,,,,,,2025-11-20,1,,,,,ニッシンサンギョウ,0
1071,5320001021446,新規,0,2025-11-20,2025-11-20,株式会社極馳草,,株式会社,大分県,大分市,大字国分１５２９番地,,44,201,8700864,,,,,,,2025-11-20,1,,,,,ゴチソウ,0
1078,5340001027796,新規,0,2025-11-20,2025-11-20,株式会社樫根,,株式会社,鹿児島県,鹿児島市,吉野町９１６２番地６,,46,201,8920871,,,,,,,2025-11-20,1,,,,,カシネ,0
1081,5340003005008,新規,0,2025-11-20,2025-11-20,合同会社ハーモニー,,合同会社,鹿児島県,霧島市,国分重久３５８－４－３０５,,46,218,8994301,,,,,,,2025-11-20,1,,,,,ハーモニー,0
1085,5370005011026,新規,0,2025-11-20,2025-11-20,一般社団法人大学病院栄養連携推進機構,,その他の設立登記法人,宮城県,仙台市青葉区,星陵町１番１号,,04,101,9800872,,,,,,,2025-11-20,1,,,,,ダイガクビョウインエイヨウレンケイスイシンキコウ,0
1093,5430003018339,新規,0,2025-11-20,2025-11-20,合同会社Ｄ＆Ｉ　Ｃａｒｇｏ,,合同会社,北海道,江別市,野幌松並町７番地の５パッシブホームテラスマツナミ２号室,,01,217,0690814,,,,,,,2025-11-20,1,,,,,ディーアンドアイカーゴ,0
1097,5450001014791,新規,0,2025-11-20,2025-11-20,株式会社旅をする牛,,株式会社,北海道,天塩郡豊富町,字メナシベツ二十六線南１番地,,01,516,0984100,,,,,,,2025-11-20,1,,,,,タビヲスルウシ,0
1100,5460103001761,新規,0,2025-11-20,2025-11-20,合同会社アンセム,,合同会社,北海道,帯広市,西一条南５丁目２０番地２第二恒陽マンション３０４号室,,01,207,0800011,,,,,,,2025-11-20,1,,,,,アンセム,0
1104,5700150133004,新規,0,2025-11-20,2025-11-20,Ｂａｂｙ　Ｈｏｎｅｙ　Ｇｒｏｕｐ　Ｃｏ．，Ｌｉｍｉｔｅｄ,,外国会社等,,,,,,,,ＵＮＩＴ　ＤＯ１，３／Ｆ　ＷＯＮＧ　ＫＩＮＧ　ＩＮＤ　ＢＬＤＧ　ＮＯ　２　ＴＡＩ　ＹＡＵ　ＳＴ　ＫＬ　ＨＫ,,,,,,2025-11-20,1,,,,,ベイビーハニーグループカンパニーリミテッド,0
1111,6010001260495,新規,0,2025-11-20,2025-11-20,株式会社Ｍ．Ｉ．Ｙ．Ａ．,,株式会社,東京都,千代田区,岩本町２丁目７－１０,,13,101,1010032,,,,,,,2025-11-20,1,,,,,エムアイワイエー,0
1114,6010003049441,新規,0,2025-11-20,2025-11-20,合同会社ＳＭＹ　ＥＮＴＥＲＴＡＩＮＭＥＮＴ,,合同会社,東京都,中央区,日本橋兜町１７－２兜町第６葉山ビル４Ｆ,,13,102,1030026,,,,,,,2025-11-20,1,,,,,エスエムワイエンターテインメント,0
1115,6010003049490,新規,0,2025-11-20,2025-11-20,合同会社ＹＵ２,,合同会社,東京都,千代田区,丸の内１丁目４番１号東京共同会計事務所内,,13,101,1000005,,,,,,,2025-11-20,1,,,,,ワイユーニ,0
1126,6010503008087,新規,0,2025-11-20,2025-11-20,合同会社ＴＡＭ,,合同会社,東京都,台東区,入谷２丁目３０番２号,,13,106,1100013,,,,,,,2025-11-20,1,,,,,ティーエーエム,0
1128,6010601068306,新規,0,2025-11-20,2025-11-20,株式会社あんずともも,,株式会社,東京都,墨田区,緑２丁目１６番１０－６０２号,,13,107,1300021,,,,,,,2025-11-20,1,,,,,アンズトモモ,0
1129,6010601068314,新規,0,2025-11-20,2025-11-20,株式会社ＥＣＬＡＴ,,株式会社,東京都,墨田区,京島１丁目２３番６－３０１号瀬川ビル,,13,107,1310046,,,,,,,2025-11-20,1,,,,,エクラ,0
1131,6010605004521,新規,0,2025-11-20,2025-11-20,ＮＰＯ法人ＨＭＥＳ,,その他の設立登記法人,東京都,江東区,森下３丁目７番９号,,13,108,1350004,,,,,,,2025-11-20,1,,,,,エイチエムイーエス,0
1132,6010703008003,新規,0,2025-11-20,2025-11-20,合同会社ＰＲＮ,,合同会社,東京都,品川区,小山３丁目１４番２－１４０７号,,13,109,1420062,,,,,,,2025-11-20,1,,,,,ピーアールエヌ,0
1146,6011003022941,新規,0,2025-11-20,2025-11-20,合同会社Ｌｉｒ,,合同会社,東京都,渋谷区,本町３丁目４９番１７ザパークワンズ渋谷本町１３０７,,13,113,1510071,,,,,,,2025-11-20,1,,,,,リル,0
1153,6011503006774,新規,0,2025-11-20,2025-11-20,合同会社楕円舎,,合同会社,東京都,北区,滝野川５丁目１２番１０号,,13,117,1140023,,,,,,,2025-11-20,1,,,,,ダエンシャ,0
1155,6011701028959,新規,0,2025-11-20,2025-11-20,株式会社Ｗｅｓｔ,,株式会社,東京都,江戸川区,西瑞江３丁目７番地３２,,13,123,1320015,,,,,,,2025-11-20,1,,,,,ウエスト,0
1159,6011803007200,新規,0,2025-11-20,2025-11-20,合同会社ｓｔｕｄｉｏ齋,,合同会社,東京都,葛飾区,亀有１丁目１０番地４－５０４号,,13,122,1250061,,,,,,,2025-11-20,1,,,,,スタジオサイ,0
1178,6021001086839,新規,0,2025-11-20,2025-11-20,ドローンエクス株式会社,,株式会社,神奈川県,相模原市緑区,橋本２丁目１８番１４号ＤＲＡＧＯＮ橋本六番館３０５号,,14,151,2520143,,,,,,,2025-11-20,1,,,,,ドローンエクス,0
1179,6021001086863,新規,0,2025-11-20,2025-11-20,株式会社ＡＣＥ,,株式会社,神奈川県,小田原市,浜町２丁目１番５１号,,14,206,2500004,,,,,,,2025-11-20,1,,,,,エース,0
1201,6040001141486,新規,0,2025-11-20,2025-11-20,株式会社アルティロジ,,株式会社,千葉県,千葉市美浜区,中瀬２丁目６番１号,,12,106,2610023,,,,,,,2025-11-20,1,,,,,アルティロジ,0
1204,6040003029003,新規,0,2025-11-20,2025-11-20,ミューチュアルトレーディング合同会社,,合同会社,千葉県,千葉市花見川区,長作台１丁目２４番８号,,12,102,2620047,,,,,,,2025-11-20,1,,,,,ミューチュアルトレーディング,0
1206,6050001057624,新規,0,2025-11-20,2025-11-20,株式会社Ｌｕｍｉｒｉｓｅ　Ｐｒｏｄｕｃｔｉｏｎ,,株式会社,茨城県,つくば市,桜１丁目１１－９パルティール１０３号,,08,220,3050003,,,,,,,2025-11-20,1,,,,,ルミライズプロダクション,0
1207,6050003009771,新規,0,2025-11-20,2025-11-20,タカーラス合同会社,,合同会社,茨城県,稲敷郡美浦村,大字美駒２５００－２美浦トレーニングセンター内開業診療所１－４号,,08,442,3000415,,,,,,,2025-11-20,1,,,,,タカーラス,0
1216,6100003008487,新規,0,2025-11-20,2025-11-20,合同会社ひまわりの種,,合同会社,長野県,北安曇郡松川村,７０４２番地２,,20,482,3998501,,,,,,,2025-11-20,1,,,,,ヒマワリノタネ,0
1240,6120901051842,新規,0,2025-11-20,2025-11-20,株式会社悠久,,株式会社,大阪府,吹田市,広芝町２３－２１－６０１,,27,205,5640052,,,,,,,2025-11-20,1,,,,,ユウキュウ,0
1251,6140001140841,新規,0,2025-11-20,2025-11-20,株式会社大和電機,,株式会社,兵庫県,尼崎市,杭瀬南新町２丁目１３－７,,28,202,6600822,,,,,,,2025-11-20,1,,,,,ヤマトデンキ,0
1259,6160003003648,新規,0,2025-11-20,2025-11-20,合同会社ロカジオーネ,,合同会社,滋賀県,草津市,大路３丁目４番５２号,,25,206,5250032,,,,,,,2025-11-20,1,,,,,ロカジオーネ,0
1262,6180001169571,新規,0,2025-11-20,2025-11-20,株式会社Ａｓｃｅｎｄｉａ,,株式会社,愛知県,丹羽郡扶桑町,大字高雄字北海道８９番地,,23,362,4800102,,,,,,,2025-11-20,1,,,,,アセンディア,0
1271,6220005009018,新規,0,2025-11-20,2025-11-20,農事組合法人藤井営農組合,,その他の設立登記法人,石川県,鹿島郡中能登町,藤井ニ部１９番地,,17,407,9291633,,,,,,,2025-11-20,1,,,,,フジイエイノウクミアイ,0
1274,6240001065806,新規,0,2025-11-20,2025-11-20,株式会社ホワイトオウル,,株式会社,広島県,広島市南区,翠４丁目８番６－２０９号グランドメゾン翠町,,34,103,7340005,,,,,,,2025-11-20,1,,,,,ホワイトオウル,0
1286,6290001112198,新規,0,2025-11-20,2025-11-20,Ｍ．Ａ．Ｏ株式会社,,株式会社,福岡県,福岡市早良区,飯倉２丁目９番１６－１号,,40,137,8140161,,,,,,,2025-11-20,1,,,,,エムエーオー,0
1287,6290001112297,新規,0,2025-11-20,2025-11-20,株式会社ＭＴＯ,,株式会社,福岡県,福岡市城南区,鳥飼６丁目２２番７号,,40,136,8140103,,,,,,,2025-11-20,1,,,,,エムティーオー,0
1291,6320003004828,新規,0,2025-11-20,2025-11-20,合同会社ＨＥＰ,,合同会社,大分県,別府市,大字亀川１７５３番地の７,,44,202,8740000,,,,,,,2025-11-20,1,,,,,エイチイーピー,0
1294,6330003011328,新規,0,2025-11-20,2025-11-20,合同会社Ｓｔａｎｄ　Ｂｌｕｅ,,合同会社,熊本県,熊本市南区,八分字町５４５番地５,,43,104,8615253,,,,,,,2025-11-20,1,,,,,スタンドブルー,0
1306,6390001018162,新規,0,2025-11-20,2025-11-20,株式会社Ｒｉｓ．,,株式会社,山形県,酒田市,砂越字蛇尾６番地の１２,,06,204,9996701,,,,,,,2025-11-20,1,,,,,リズ,0
1310,6430001095701,新規,0,2025-11-20,2025-11-20,フードコンサルタント北海道株式会社,,株式会社,北海道,札幌市中央区,北二条西２丁目３４フージャース札幌ビル２階,,01,101,0600002,,,,,,,2025-11-20,1,,,,,フードコンサルタントホッカイドウ,0
1313,6430003018338,新規,0,2025-11-20,2025-11-20,合同会社ＢＧｗｏｒｋｓ,,合同会社,北海道,札幌市白石区,本通２丁目北２番２０－７０２号,,01,104,0030027,,,,,,,2025-11-20,1,,,,,ビージーワークス,0
1314,6470001020985,新規,0,2025-11-20,2025-11-20,株式会社Ｌｉｎｋ,,株式会社,香川県,坂出市,室町３丁目３番１７号２０５号室,,37,203,7620007,,,,,,,2025-11-20,1,,,,,リンク,0
1317,6700150133003,新規,0,2025-11-20,2025-11-20,ＩＮＴＥＲＮＡＴＩＯＮＡＬ　ＵＮＩＴＥＤ（ＨＫ）ＣＯＭＰＡＮＹ　ＬＩＭＩＴＥＤ,,外国会社等,,,,,,,,ＦＬＡＴ　Ｂ　１３／Ｆ　ＴＨＯＭＳＯＮ　ＣＯＭＭ　ＢＬＤＧ　４－１０　ＴＨＯＭＳＯＮ　ＲＤ　ＷＡＮ　ＣＨＡＩ　ＨＯＮＧ　ＫＯＮＧ,,,,,,2025-11-20,1,,,,,インターナショナルユナイテッドホンコンカンパニーリミテッド,0
1326,7010001260461,新規,0,2025-11-20,2025-11-20,大導株式会社,,株式会社,東京都,中央区,銀座１丁目２２番１１号,,13,102,1040061,,,,,,,2025-11-20,1,,,,,ダイドウ,0
1327,7010001260503,新規,0,2025-11-20,2025-11-20,ＴＫＳ株式会社,,株式会社,東京都,中央区,入船３丁目１番４号,,13,102,1040042,,,,,,,2025-11-20,1,,,,,ティーケイエス,0
1329,7010003049465,新規,0,2025-11-20,2025-11-20,オレガノ合同会社,,合同会社,東京都,千代田区,丸の内２丁目７番３号東京ビルディング,,13,101,1000005,,,,,,,2025-11-20,1,,,,,オレガノ,0
1331,7010005040975,新規,0,2025-11-20,2025-11-20,一般社団法人Ｙｕｇｅｎ,,その他の設立登記法人,東京都,中央区,銀座２丁目１０番８号マニエラ銀座ビル４階,,13,102,1040061,,,,,,,2025-11-20,1,,,,,,0
1340,7010405024941,新規,0,2025-11-20,2025-11-20,福岡インベストメンツ特定目的会社,,その他の設立登記法人,東京都,港区,六本木１丁目６番１号泉ガーデンタワー,,13,103,1060032,,,,,,,2025-11-20,1,,,,,フクオカインベストメンツ,0
1343,7010503008086,新規,0,2025-11-20,2025-11-20,合同会社ＡＴＭ,,合同会社,東京都,台東区,竜泉３丁目３３番１０号,,13,106,1100012,,,,,,,2025-11-20,1,,,,,エーティーエム,0
1348,7010701048611,新規,0,2025-11-20,2025-11-20,株式会社ＣＵＵ,,株式会社,東京都,品川区,西五反田７丁目２２番１７号,,13,109,1410031,,,,,,,2025-11-20,1,,,,,クウ,0
1351,7010905004872,新規,0,2025-11-20,2025-11-20,一般社団法人ＣＲＥＡＴＯＲＺ　ＷＯＲＬＤ推進機構,,その他の設立登記法人,東京都,世田谷区,桜上水５丁目９番８号,,13,112,1560045,,,,,,,2025-11-20,1,,,,,クリエイターズワールドスイシンキコウ,0
1360,7011001173728,新規,0,2025-11-20,2025-11-20,株式会社スコッチフォーサム,,株式会社,東京都,目黒区,中町２丁目４番１２号,,13,110,1530065,,,,,,,2025-11-20,1,,,,,スコッチフォーサム,0
1361,7011005011256,新規,0,2025-11-20,2025-11-20,一般社団法人人間関係構築研究所,,その他の設立登記法人,東京都,渋谷区,恵比寿西２丁目４番８号ウィンド恵比寿ビル８Ｆ,,13,113,1500021,,,,,,,2025-11-20,1,,,,,ニンゲンカンケイコウチクケンキュウジョ,0
1365,7011101114012,新規,0,2025-11-20,2025-11-20,株式会社ＰＬＥＩＺＥ,,株式会社,東京都,新宿区,片町４番６号ＡＮＹビル６階,,13,104,1600001,,,,,,,2025-11-20,1,,,,,プレイズ,0
1366,7011103016677,新規,0,2025-11-20,2025-11-20,合同会社テックスフィア,,合同会社,東京都,新宿区,西新宿３丁目３番１３号西新宿水間ビル６階,,13,104,1600023,,,,,,,2025-11-20,1,,,,,テックスフィア,0
1367,7011201026784,新規,0,2025-11-20,2025-11-20,株式会社ＺＡＮＺＯ,,株式会社,東京都,中野区,中央１丁目３５－１毛利ビル２０２,,13,114,1640011,,,,,,,2025-11-20,1,,,,,ザンゾウ,0
1368,7011203004887,新規,0,2025-11-20,2025-11-20,合同会社２０３Ｖｅｎｔｕｒｅｓ,,合同会社,東京都,中野区,南台５丁目４番１６号ワコーレ中野南台２０２,,13,114,1640014,,,,,,,2025-11-20,1,,,,,ツーオースリーベンチャーズ,0
1373,7011801047073,新規,0,2025-11-20,2025-11-20,株式会社Ｍａｇｉｃ　Ｄｉｎｉｎｇ,,株式会社,東京都,葛飾区,金町６丁目１０番１４号ハラタテハイツ１Ｆ,,13,122,1250042,,,,,,,2025-11-20,1,,,,,マジックダイニング,0
1386,7020003029771,新規,0,2025-11-20,2025-11-20,合同会社パレット,,合同会社,神奈川県,川崎市宮前区,野川台１丁目２７－５ベルググランデ鷺沼４０８,,14,136,2160043,,,,,,,2025-11-20,1,,,,,パレット,0
1387,7020003029813,新規,0,2025-11-20,2025-11-20,Ｔ＆Ｃ　Ｄｉｒｅｃｔｉｏｎ合同会社,,合同会社,神奈川県,横浜市泉区,和泉中央南５丁目１１番１３号,,14,116,2450023,,,,,,,2025-11-20,1,,,,,ティーアンドシーディレクション,0
1390,7021005013458,新規,0,2025-11-20,2025-11-20,特定非営利活動法人湘南とアジアの架け橋,,その他の設立登記法人,神奈川県,藤沢市,西俣野１３９番地六会マンション４０１号,,14,205,2520812,,,,,,,2025-11-20,1,,,,,ショウナントアジアノカケハシ,0
1396,7030001169734,新規,0,2025-11-20,2025-11-20,株式会社東成,,株式会社,埼玉県,川口市,上青木５丁目３－２７,,11,203,3330844,,,,,,,2025-11-20,1,,,,,トウセイ,0
1397,7030001169767,新規,0,2025-11-20,2025-11-20,株式会社ＶＥＧＡＳ,,株式会社,埼玉県,上尾市,大字地頭方４８４番地２メゾンリアンＩ１０２,00141603,11,219,3620051,,,,,,,2025-11-20,1,,,,,ベガス,0
1408,7040001141493,新規,0,2025-11-20,2025-11-20,株式会社カメレオン,,株式会社,千葉県,千葉市中央区,道場北１丁目４番３１－６号ＧＲＡＮＤＴＩＣＥＶＥＲＧＲＥＥＮ２０２号,,12,101,2600006,,,,,,,2025-11-20,1,,,,,カメレオン,0
1413,7070003006196,新規,0,2025-11-20,2025-11-20,Ｙｇｒｏｕｐ合同会社,,合同会社,群馬県,伊勢崎市,今泉町２丁目８０８番地１７,,10,204,3720031,,,,,,,2025-11-20,1,,,,,,0
1414,7080001027284,新規,0,2025-11-20,2025-11-20,株式会社ａｒｔｅｓ,,株式会社,静岡県,静岡市駿河区,中田本町５番１６号,,22,102,4228043,,,,,,,2025-11-20,1,,,,,アルテス,0
1420,7100001039129,新規,0,2025-11-20,2025-11-20,エア・ウォーター・ミライ株式会社,,株式会社,長野県,松本市,梓川倭３８７８番地１,,20,202,3901701,,,,,,,2025-11-20,1,,,,,エアウォーターミライ,0
1434,7120001281959,新規,0,2025-11-20,2025-11-20,株式会社ＮＳＡ,,株式会社,大阪府,大阪市阿倍野区,阿倍野筋１丁目１番４３号あべのハルカス３１階,,27,119,5450052,,,,,,,2025-11-20,1,,,,,エヌエスエー,0
1435,7120001282123,新規,0,2025-11-20,2025-11-20,株式会社Ｌｕｍｉｅｒｅ,,株式会社,大阪府,大阪市東淀川区,東中島１丁目１７番１８－５０２号,,27,114,5330033,,,,,,,2025-11-20,1,,,,,ルミエール,0
1436,7120001282164,新規,0,2025-11-20,2025-11-20,株式会社ＲＩＫＵＮＯ,,株式会社,大阪府,大阪市城東区,今福西４丁目４番６－７０７,,27,118,5360004,,,,,,,2025-11-20,1,,,,,リクノ,0
1437,7120001282180,新規,0,2025-11-20,2025-11-20,株式会社Ｖｅｃｔｒｕｍ,,株式会社,大阪府,大阪市北区,梅田１丁目１－３大阪駅前第３ビル２９階１－１－１号室,,27,127,5300001,,,,,,,2025-11-20,1,,,,,ベクトラム,0
1440,7120005025255,新規,0,2025-11-20,2025-11-20,一般社団法人光昭グループ光優会,,その他の設立登記法人,大阪府,大阪市中央区,久太郎町２丁目４番１１号クラボウアネックスビル１３階,,27,128,5410056,,,,,,,2025-11-20,1,,,,,コウショウグループコウユウカイ,0
1443,7120101072829,新規,0,2025-11-20,2025-11-20,株式会社パウレレ,,株式会社,大阪府,泉大津市,東助松町３丁目１１番５号,,27,206,5950006,,,,,,,2025-11-20,1,,,,,パウレレ,0
1444,7120901051809,新規,0,2025-11-20,2025-11-20,Ｐｒｉｍｅ　Ｏａｋ株式会社,,株式会社,大阪府,豊中市,東豊中町２丁目４番４７号,,27,203,5600003,,,,,,,2025-11-20,1,,,,,プライムオーク,0
1445,7120901051817,新規,0,2025-11-20,2025-11-20,株式会社ＢＥ‐ＦＩＲＳＴ,,株式会社,大阪府,摂津市,正雀本町１丁目２７－１６,,27,224,5660024,,,,,,,2025-11-20,1,,,,,ビーファースト,0
1446,7120901051825,新規,0,2025-11-20,2025-11-20,株式会社ＬＥＮＰＩＣＥ,,株式会社,大阪府,豊中市,蛍池北町３－１７－１５東棟２０１,,27,203,5600000,,,,,,,2025-11-20,1,,,,,ランパイス,0
1447,7120903005952,新規,0,2025-11-20,2025-11-20,ＫＬＡＭ合同会社,,合同会社,大阪府,摂津市,正雀本町２丁目１１番２６号,,27,224,5660024,,,,,,,2025-11-20,1,,,,,ケーラム,0
1448,7120905006809,新規,0,2025-11-20,2025-11-20,一般社団法人ＲａｉｌＷｏｒｋｅｒ　Ｊａｐａｎ,,その他の設立登記法人,大阪府,吹田市,清水１３番１－４０３,,27,205,5650805,,,,,,,2025-11-20,1,,,,,レールワーカージャパン,0
1449,7122003003390,新規,0,2025-11-20,2025-11-20,合同会社ＮＫＵホーム,,合同会社,大阪府,東大阪市,大蓮南４丁目３－１６,00141607,27,227,5770825,,,,,,,2025-11-20,1,,,,,,0
1457,7140001140832,新規,0,2025-11-20,2025-11-20,株式会社ＣＲＥＳＴ,,株式会社,兵庫県,宝塚市,すみれガ丘３丁目５－１－１１０９,,28,214,6650847,,,,,,,2025-11-20,1,,,,,クレスト,0
1458,7140001140840,新規,0,2025-11-20,2025-11-20,株式会社ＴＲＥＮＣＨ　ＧＡＴＥ,,株式会社,兵庫県,西宮市,甲子園口１丁目１２番１－１０３号,,28,204,6638113,,,,,,,2025-11-20,1,,,,,トレンチゲート,0
1465,7170001018877,新規,0,2025-11-20,2025-11-20,株式会社ＤＩＳＣＯＶＥＲＹ　ＯＣＥＡＮ,,株式会社,和歌山県,和歌山市,古屋１２５番地２,,30,201,6408435,,,,,,,2025-11-20,1,,,,,ディスカバリーオーシャン,0
1473,7180001169587,新規,0,2025-11-20,2025-11-20,株式会社ＳＵＣＳＵＣ,,株式会社,愛知県,名古屋市西区,名駅２丁目２７番８号名古屋プライムセントラルタワー３階,,23,104,4510045,,,,,,,2025-11-20,1,,,,,サクサク,0
1479,7180005021315,新規,0,2025-11-20,2025-11-20,特定非営利活動法人希少動物種保全科学研究センター,,その他の設立登記法人,愛知県,西春日井郡豊山町,大字豊場字野田８４番地１,,23,342,4800202,,,,,,,2025-11-20,1,,,,,キショウドウブツシュホゼンカガクケンキュウセンター,0
1481,7220003004168,新規,0,2025-11-20,2025-11-20,ＡｔｏＺ　Ｊａｐａｎ合同会社,,合同会社,石川県,金沢市,矢木１丁目１１２番地２,,17,201,9218066,,,,,,,2025-11-20,1,,,,,エートゥーゼットジャパン,0
1482,7240001065805,新規,0,2025-11-20,2025-11-20,ＥＮＧＩＮＥ株式会社,,株式会社,広島県,広島市西区,観音本町１丁目２２番２５号ＣＤＫ観音ビル３Ｆ,,34,104,7330033,,,,,,,2025-11-20,1,,,,,エンジン,0
1489,7260003005419,新規,0,2025-11-20,2025-11-20,合同会社シルク２,,合同会社,岡山県,倉敷市,三田３５１番地８シャルマンみつだＡ棟２０６,,33,202,7100001,,,,,,,2025-11-20,1,,,,,シルクツー,0
1493,7290001112197,新規,0,2025-11-20,2025-11-20,株式会社がく,,株式会社,福岡県,大牟田市,笹林町１丁目１番地１４,,40,202,8360851,,,,,,,2025-11-20,1,,,,,ガク,0
1507,7340001027794,新規,0,2025-11-20,2025-11-20,Ａｕｓｐｉｃｉｏｕｓ　Ｂｌｏｗ株式会社,,株式会社,鹿児島県,霧島市,国分湊４９４番地４,,46,218,8994315,,,,,,,2025-11-20,1,,,,,アスピシャスブロー,0
1509,7340003005022,新規,0,2025-11-20,2025-11-20,合同会社イリス,,合同会社,鹿児島県,大島郡大和村,大字名音２７８番地１,,46,523,8943212,,,,,,,2025-11-20,1,,,,,イリス,0
1511,7360003015408,新規,0,2025-11-20,2025-11-20,Ｋ’ｓ　Ｌｉｎｅ合同会社,,合同会社,沖縄県,那覇市,字安謝６１番地２階,,47,201,9000003,,,,,,,2025-11-20,1,,,,,ケイズライン,0
1520,7420001019346,新規,0,2025-11-20,2025-11-20,株式会社西勝,,株式会社,青森県,八戸市,大字鮫町字忍町１２番地１,,02,203,0310841,,,,,,,2025-11-20,1,,,,,ニシカツ,0
1523,7430001095659,新規,0,2025-11-20,2025-11-20,株式会社Ｍｅｎｔｅ　Ｒｙｚｅ,,株式会社,北海道,苫小牧市,拓勇西町６丁目２６番１０号,,01,213,0591302,,,,,,,2025-11-20,1,,,,,メンテライズ,0
1524,7430001095700,新規,0,2025-11-20,2025-11-20,株式会社ＬＳパートナーコンサル事務所,,株式会社,北海道,札幌市中央区,北一条西１５丁目１－３大通ハイム４０７号室,,01,101,0600001,,,,,,,2025-11-20,1,,,,,エルエスパートナーコンサルジムショ,0
1527,7430003018345,新規,0,2025-11-20,2025-11-20,合同会社ミラクルクオリティ,,合同会社,北海道,札幌市中央区,南二条西５丁目３１‐１ＲＭＢｌｄ．７０１,,01,101,0600062,,,,,,,2025-11-20,1,,,,,ミラクルクオリティ,0
1532,8010001260477,新規,0,2025-11-20,2025-11-20,ティケイジージャパンホールディングス株式会社,,株式会社,東京都,中央区,銀座７丁目２番６号銀座アステルビル４階,,13,102,1040061,,,,,,,2025-11-20,1,,,,,ティケイジージャパンホールディングス,0
1533,8010001260510,新規,0,2025-11-20,2025-11-20,株式会社三幸,,株式会社,東京都,中央区,日本橋３丁目５番１４号,,13,102,1030027,,,,,,,2025-11-20,1,,,,,ミツユキ,0
1538,8010401194713,新規,0,2025-11-20,2025-11-20,ＡＴＦ株式会社,,株式会社,東京都,港区,芝浦３丁目１番１号ｍｓｂＴａｍａｃｈｉ田町ステーションタワーＮ２３階,,13,103,1080023,,,,,,,2025-11-20,1,,,,,エーティーエフ,0
1541,8010601068254,新規,0,2025-11-20,2025-11-20,株式会社Ｈｄｙｓ,,株式会社,東京都,江東区,亀戸１丁目３６番４号宇梶ビル２１１,,13,108,1360071,,,,,,,2025-11-20,1,,,,,エイチディワイエス,0
1549,8010903010418,新規,0,2025-11-20,2025-11-20,合同会社三宿Ｌａｂｏ,,合同会社,東京都,世田谷区,三宿２丁目２４－１３,,13,112,1540005,,,,,,,2025-11-20,1,,,,,ミシュクラボ,0
1561,8011201026791,新規,0,2025-11-20,2025-11-20,株式会社プログレスアカウンティング,,株式会社,東京都,中野区,江古田１丁目３９番４号,,13,114,1650022,,,,,,,2025-11-20,1,,,,,プログレスアカウンティング,0
1567,8011701028940,新規,0,2025-11-20,2025-11-20,株式会社ｕｎｗｏｒｋｓｈｏｐ,,株式会社,東京都,江戸川区,東葛西６丁目１４番－３－４０２号ルグラン東葛西,,13,123,1340084,,,,,,,2025-11-20,1,,,,,アンワークショップ,0
1568,8011701028949,新規,0,2025-11-20,2025-11-20,株式会社オガワリゾート,,株式会社,東京都,江戸川区,北小岩８丁目３０番３号,,13,123,1330051,,,,,,,2025-11-20,1,,,,,オガワリゾート,0
1577,8020001165881,新規,0,2025-11-20,2025-11-20,Ｏ‐ｓｔｙｌｅ株式会社,,株式会社,神奈川県,川崎市中原区,小杉御殿町１丁目１００６－１クレヴィア小杉御殿町２１５,,14,133,2110068,,,,,,,2025-11-20,1,,,,,オースタイル,0
1591,8030001169799,新規,0,2025-11-20,2025-11-20,ＰＹＦ株式会社,,株式会社,埼玉県,越谷市,レイクタウン６丁目３５－４９,,11,222,3430828,,,,,,,2025-11-20,1,,,,,ピーワイエフ,0
1602,8040005022945,新規,0,2025-11-20,2025-11-20,医療法人社団ＭＲＳ,,その他の設立登記法人,千葉県,習志野市,津田沼５丁目８番２５号,,12,216,2750016,,,,,,,2025-11-20,1,,,,,エムアールエス,0
1603,8050001057597,新規,0,2025-11-20,2025-11-20,株式会社トラスト設備,,株式会社,茨城県,下妻市,本宿町１丁目６０番地,,08,210,3040065,,,,,,,2025-11-20,1,,,,,トラストセツビ,0
1604,8050001057622,新規,0,2025-11-20,2025-11-20,株式会社福祉総合ブリッジ,,株式会社,茨城県,筑西市,市野辺５６４番地３,,08,227,3080827,,,,,,,2025-11-20,1,,,,,フクシソウゴウブリッジ,0
1607,8070003006195,新規,0,2025-11-20,2025-11-20,合同会社ＣＴＧ,,合同会社,群馬県,前橋市,本町３丁目１１番１２号,,10,201,3710023,,,,,,,2025-11-20,1,,,,,シーティージー,0
1616,8100003008485,新規,0,2025-11-20,2025-11-20,合同会社いいやま暮らし工房,,合同会社,長野県,飯山市,大字富倉３０３８番地１－２,,20,213,3892258,,,,,,,2025-11-20,1,,,,,イイヤマクラシコウボウ,0
1618,8100005013418,新規,0,2025-11-20,2025-11-20,一般社団法人人材未来,,その他の設立登記法人,長野県,下伊那郡高森町,吉田２３１５番地２０号,,20,403,3993102,,,,,,,2025-11-20,1,,,,,ジンザイミライ,0
1624,8110005017293,新規,0,2025-11-20,2025-11-20,医療法人社団しまだ歯科こども歯科クリニック,,その他の設立登記法人,新潟県,新潟市中央区,大島２０４番地１,,15,103,9500953,,,,,,,2025-11-20,1,,,,,シマダシカコドモシカクリニック,0
1637,8120001281850,新規,0,2025-11-20,2025-11-20,東山株式会社,,株式会社,大阪府,大阪市中央区,谷町３丁目６－４大拓ビル２０－８Ｆ,,27,128,5400012,,,,,,,2025-11-20,1,,,,,ヒガシヤマ,0
1640,8120003031031,新規,0,2025-11-20,2025-11-20,合同会社Ｑ’ｓ,,合同会社,大阪府,大阪市東成区,大今里西３丁目１７番１８号,,27,115,5370014,,,,,,,2025-11-20,1,,,,,キューズ,0
1641,8120003031279,新規,0,2025-11-20,2025-11-20,合同会社ＭＡＮＡＴＯＭ,,合同会社,大阪府,大阪市西区,江戸堀２丁目１－１江戸堀センタービルＢ１,,27,106,5500002,,,,,,,2025-11-20,1,,,,,マナトム,0
1642,8120005025262,新規,0,2025-11-20,2025-11-20,一般社団法人関西山東商会,,その他の設立登記法人,大阪府,大阪市福島区,海老江５丁目６番１７号４０３号室,,27,103,5530001,,,,,,,2025-11-20,1,,,,,カンサイサントンショウカイ,0
1649,8120901051816,新規,0,2025-11-20,2025-11-20,株式会社池田商事,,株式会社,大阪府,吹田市,新芦屋下４－２６,00141601,27,205,5650803,,,,,,,2025-11-20,1,,,,,イケダショウジ,0
1650,8120901051840,新規,0,2025-11-20,2025-11-20,株式会社Ｆｙｉｎｎ,,株式会社,大阪府,茨木市,宇野辺２丁目５番２５号,,27,211,5670042,,,,,,,2025-11-20,1,,,,,フィン,0
1651,8120901051849,新規,0,2025-11-20,2025-11-20,株式会社ＫＦＢＯＮＤ,,株式会社,大阪府,茨木市,豊川２丁目９番２号,,27,211,5670057,,,,,,,2025-11-20,1,,,,,ケーエフボンド,0
1652,8120903005951,新規,0,2025-11-20,2025-11-20,合同会社ととパン,,合同会社,大阪府,高槻市,永楽町１番１１号,,27,207,5690083,,,,,,,2025-11-20,1,,,,,トトパン,0
1654,8130001016578,新規,0,2025-11-20,2025-11-20,株式会社インターラクト,,株式会社,京都府,京都市下京区,室町通五条上る坂東屋町２８３番地,,26,106,6008439,,,,,,,2025-11-20,1,,,,,インターラクト,0
1662,8140001140773,新規,0,2025-11-20,2025-11-20,株式会社ヤマス,,株式会社,兵庫県,淡路市,志筑１７１５番地３,,28,226,6562131,,,,,,,2025-11-20,1,,,,,ヤマス,0
1663,8140001140798,新規,0,2025-11-20,2025-11-20,株式会社Ｍｙ　Ｔｕｔｏｒ,,株式会社,兵庫県,芦屋市,船戸町５番２６号,,28,206,6590093,,,,,,,2025-11-20,1,,,,,マイチューター,0
1664,8140001140831,新規,0,2025-11-20,2025-11-20,株式会社ルメトラスト,,株式会社,兵庫県,西宮市,北口町１９－３－２０３,,28,204,6638035,,,,,,,2025-11-20,1,,,,,ルメトラスト,0
1692,8200005013820,新規,0,2025-11-20,2025-11-20,特定非営利活動法人全国看護学生はぐくみネット,,その他の設立登記法人,岐阜県,瑞穂市,十八条２９番地５,,21,216,5010314,,,,,,,2025-11-20,1,,,,,ゼンコクカンゴガクセイハグクミネット,0
1698,8230005009502,新規,0,2025-11-20,2025-11-20,社会保険労務士法人ＳＲＳ蓮,,その他の設立登記法人,富山県,富山市,五福１４１４番地１,,16,201,9300887,,,,,,,2025-11-20,1,,,,,エスアールエスレン,0
1700,8240001065804,新規,0,2025-11-20,2025-11-20,株式会社ＨＡＭＡＤＡ,,株式会社,広島県,呉市,警固屋２丁目７番１８号,,34,202,7370012,,,,,,,2025-11-20,1,,,,,ハマダ,0
1706,8290001112205,新規,0,2025-11-20,2025-11-20,株式会社プリモパッソ,,株式会社,福岡県,福岡市中央区,天神４丁目６番２８号いちご天神ノースビル７階,,40,133,8100001,,,,,,,2025-11-20,1,,,,,プリモパッソ,0
1714,8340001027785,新規,0,2025-11-20,2025-11-20,株式会社らるご,,株式会社,鹿児島県,奄美市,名瀬西仲勝１９７番地１,,46,222,8940000,,,,,,,2025-11-20,1,,,,,ラルゴ,0
1723,8380001035710,新規,0,2025-11-20,2025-11-20,ジオグリーンフォレスト株式会社,,株式会社,福島県,大沼郡会津美里町,字高田甲４４０６番地１,,07,447,9696264,,,,,,,2025-11-20,1,,,,,ジオグリーンフォレスト,0
1744,8460101007782,新規,0,2025-11-20,2025-11-20,株式会社ＵＥＮＯ　ＤＡＩＲＹ　ＦＡＲＭ,,株式会社,北海道,上川郡清水町,字熊牛１１番地４４５,,01,636,0890241,,,,,,,2025-11-20,1,,,,,ウエノデイリーファーム,0
1747,8470003003020,新規,0,2025-11-20,2025-11-20,ＫＭＭメディカル合同会社,,合同会社,香川県,高松市,伏石町２１７９番地２５,,37,201,7618071,,,,,,,2025-11-20,1,,,,,,0
1756,9010001260096,新規,0,2025-11-20,2025-11-20,ＰＲＯＪＥＣＴ　ＧＲＯＵＰ株式会社,,株式会社,東京都,千代田区,外神田４丁目７番５号,,13,101,1010021,,,,,,,2025-11-20,1,,,,,プロジェクトグループ,0
1758,9010003049414,新規,0,2025-11-20,2025-11-20,Ｏｎｗａｒｄ　ＢＴ合同会社,,合同会社,東京都,中央区,月島３丁目１０番１０－７０３号,,13,102,1040052,,,,,,,2025-11-20,1,,,,,オンワードビーティー,0
1759,9010005040973,新規,0,2025-11-20,2025-11-20,一般財団法人谷スポーツ振興財団,,その他の設立登記法人,東京都,中央区,日本橋大伝馬町１２番１号,,13,102,1030011,,,,,,,2025-11-20,1,,,,,タニスポーツシンコウザイダン,0
1760,9010101016968,新規,0,2025-11-20,2025-11-20,株式会社常田酒店,,株式会社,東京都,八王子市,上壱分方町２４４番地２,,13,201,1930811,,,,,,,2025-11-20,1,,,,,ツネダサケテン,0
1767,9010503008092,新規,0,2025-11-20,2025-11-20,Ｐｒｏｌｉｎｋ　Ｃｏｎｓｕｌｔｉｎｇ合同会社,,合同会社,東京都,台東区,下谷１丁目５番６－１１０４号クレストフォルム上野の杜,,13,106,1100004,,,,,,,2025-11-20,1,,,,,プロリンクコンサルティング,0
1775,9010901058508,新規,0,2025-11-20,2025-11-20,株式会社ｇｒｅｅｎｈｏｒｎ,,株式会社,東京都,世田谷区,成城４丁目１２番１０号,,13,112,1570066,,,,,,,2025-11-20,1,,,,,グリーンホーン,0
1776,9010903010425,新規,0,2025-11-20,2025-11-20,合同会社ＭＩＲＯＵ,,合同会社,東京都,世田谷区,若林４丁目３３番１４号ＨＦ若林公園レジデンス６０８,,13,112,1540023,,,,,,,2025-11-20,1,,,,,ミロウ,0
1777,9010903010441,新規,0,2025-11-20,2025-11-20,合同会社ＴＯＭＡＮＩ,,合同会社,東京都,世田谷区,駒沢４丁目２１番９号,,13,112,1540012,,,,,,,2025-11-20,1,,,,,トマニ,0
1784,9011001173809,新規,0,2025-11-20,2025-11-20,株式会社ストーリーズ,,株式会社,東京都,渋谷区,道玄坂１丁目１０番８号渋谷道玄坂東急ビル２Ｆ－Ｃ,,13,113,1500043,,,,,,,2025-11-20,1,,,,,ストーリーズ,0
1785,9011001173825,新規,0,2025-11-20,2025-11-20,株式会社ＯＢＣ,,株式会社,東京都,渋谷区,代官山町３番１３号代官山エーデルハイム地下００１号室,,13,113,1500034,,,,,,,2025-11-20,1,,,,,オービーシー,0
1786,9011001173866,新規,0,2025-11-20,2025-11-20,アセントパートナーズ株式会社,,株式会社,東京都,渋谷区,恵比寿４丁目２０－３恵比寿ガーデンプレイス１８階,,13,113,1500013,,,,,,,2025-11-20,1,,,,,アセントパートナーズ,0
1801,9011401027580,新規,0,2025-11-20,2025-11-20,Ｇｒａｎｄ　Ｓｎｏｗ株式会社,,株式会社,東京都,板橋区,東坂下１丁目１４番１８－６０３号,,13,119,1740042,,,,,,,2025-11-20,1,,,,,グランドスノー,0
1810,9011801047071,新規,0,2025-11-20,2025-11-20,聚辰株式会社,,株式会社,東京都,足立区,西新井２丁目４－６Ａｎｄｐｌｕｓ西新井ビル２０７室,,13,121,1230841,,,,,,,2025-11-20,1,,,,,シュウシン,0
1813,9012701019193,新規,0,2025-11-20,2025-11-20,株式会社Ｌｉｂｅｒｔｙ　Ｂｒｉｄｇｅ,,株式会社,東京都,小平市,美園町１丁目３３番１号小平駅前ショッピングセンター２階,,13,211,1870041,,,,,,,2025-11-20,1,,,,,リバティブリッジ,0
1823,9020001165914,新規,0,2025-11-20,2025-11-20,株式会社エンドワン,,株式会社,神奈川県,横浜市栄区,中野町７番地９,,14,115,2470015,,,,,,,2025-11-20,1,,,,,エンドワン,0
1828,9021001086860,新規,0,2025-11-20,2025-11-20,株式会社Ｓａｉ＆Ｃｏ．,,株式会社,神奈川県,大和市,南林間１丁目８番１２号,,14,213,2420006,,,,,,,2025-11-20,1,,,,,サイアンドコー,0
1835,9030001169773,新規,0,2025-11-20,2025-11-20,株式会社ＵＰ　ＲＯＡＤ,,株式会社,埼玉県,川口市,北原台２丁目１４番１２号,,11,203,3330815,,,,,,,2025-11-20,1,,,,,アップロード,0
1837,9030003028110,新規,0,2025-11-20,2025-11-20,合同会社淳風エステート,,合同会社,埼玉県,所沢市,星の宮１丁目１５番１２号,,11,208,3591127,,,,,,,2025-11-20,1,,,,,ジュンプウエステート,0
1840,9040001141475,新規,0,2025-11-20,2025-11-20,株式会社晴々,,株式会社,千葉県,船橋市,西船４丁目２５番８号３Ｆ,,12,204,2730031,,,,,,,2025-11-20,1,,,,,ハレバレ,0
1854,9090005007750,新規,0,2025-11-20,2025-11-20,特定非営利活動法人山梨英和グリンバンク会,,その他の設立登記法人,山梨県,甲府市,宮前町４番１５号,,19,201,4000021,,,,,,,2025-11-20,1,,,,,ヤマナシエイワグリンバンクカイ,0
1859,9110005017292,新規,0,2025-11-20,2025-11-20,医療法人みずほ,,その他の設立登記法人,新潟県,長岡市,中之島１９０９番地１５,,15,202,9540124,,,,,,,2025-11-20,1,,,,,ミズホ,0
1865,9120001282121,新規,0,2025-11-20,2025-11-20,株式会社ｉ‐Ｂｅｅ,,株式会社,大阪府,大阪市北区,天神西町５番１７号アクティ南森町１０階,,27,127,5300045,,,,,,,2025-11-20,1,,,,,アイビー,0
1869,9120003031286,新規,0,2025-11-20,2025-11-20,合同会社心愛,,合同会社,大阪府,大阪市東住吉区,湯里４丁目１７番２３号,,27,121,5460013,,,,,,,2025-11-20,1,,,,,ココア,0
1874,9120901051807,新規,0,2025-11-20,2025-11-20,株式会社心加,,株式会社,大阪府,吹田市,豊津町９番１号,,27,205,5640051,,,,,,,2025-11-20,1,,,,,シンカ,0
1875,9120901051856,新規,0,2025-11-20,2025-11-20,株式会社ネオマチ,,株式会社,大阪府,茨木市,耳原３丁目９番１１号の２１,,27,211,5670006,,,,,,,2025-11-20,1,,,,,ネオマチ,0
1876,9120903005959,新規,0,2025-11-20,2025-11-20,合同会社＆ＨＡＵＳ,,合同会社,大阪府,豊中市,清風荘２丁目５番２２号,,27,203,5600041,,,,,,,2025-11-20,1,,,,,アンドハウス,0
1879,9130001081068,新規,0,2025-11-20,2025-11-20,櫻井将棋塾株式会社,,株式会社,京都府,京都市西京区,松室山添町２６番地３３,,26,111,6158296,,,,,,,2025-11-20,1,,,,,サクライショウギジュク,0
1887,9150003003753,新規,0,2025-11-20,2025-11-20,合同会社メイクホーム,,合同会社,奈良県,生駒市,東松ケ丘１５番３５号,,29,209,6300244,,,,,,,2025-11-20,1,,,,,メイクホーム,0
1889,9180001169577,新規,0,2025-11-20,2025-11-20,キャッスルヒルズ株式会社,,株式会社,愛知県,長久手市,城屋敷１０１３番地,,23,238,4801122,,,,,,,2025-11-20,1,,,,,キャッスルヒルズ,0
1896,9180301040438,新規,0,2025-11-20,2025-11-20,株式会社２ｎｄステージ,,株式会社,愛知県,岡崎市,真伝吉祥２丁目３７番地１,,23,202,4443176,,,,,,,2025-11-20,1,,,,,セカンドステージ,0
1902,9190003005275,新規,0,2025-11-20,2025-11-20,合同会社坂本工務店,,合同会社,三重県,伊勢市,桜木町２０３番地３８,,24,203,5160027,,,,,,,2025-11-20,1,,,,,サカモトコウムテン,0
1903,9220001026996,新規,0,2025-11-20,2025-11-20,株式会社花形,,株式会社,石川県,金沢市,片町２丁目２１－２７オーロラビル３Ｆ,,17,201,9200981,,,,,,,2025-11-20,1,,,,,ハナガタ,0
1914,9290003017723,新規,0,2025-11-20,2025-11-20,合同会社成田２,,合同会社,福岡県,福岡市博多区,吉塚１丁目３番１２号,,40,132,8120041,,,,,,,2025-11-20,1,,,,,ナリタツー,0
1918,9320003004825,新規,0,2025-11-20,2025-11-20,ＨＡＰＰＹ　ＭＯＵＮＴＡＩＮ　ＨＯＵＲ合同会社,,合同会社,大分県,竹田市,直入町大字長湯８０１０番地,,44,208,8780402,,,,,,,2025-11-20,1,,,,,ハッピーマウンテンアワー,0
1919,9320003004833,新規,0,2025-11-20,2025-11-20,合同会社のの,,合同会社,大分県,大分市,下郡山の手４番４１号,,44,201,8700961,,,,,,,2025-11-20,1,,,,,ノノ,0
1931,9360001036057,新規,0,2025-11-20,2025-11-20,株式会社沖縄アビル,,株式会社,沖縄県,沖縄市,美里５丁目２４番１８号２０１号,,47,211,9042153,,,,,,,2025-11-20,1,,,,,オキナワアビル,0
1942,9420001019344,新規,0,2025-11-20,2025-11-20,株式会社ＥＣＯクリーンファーム,,株式会社,青森県,つがる市,稲垣町繁田母衣掛２２番地５,,02,209,0370102,,,,,,,2025-11-20,1,,,,,エコクリーンファーム,0
1947,9430003018327,新規,0,2025-11-20,2025-11-20,合同会社Ｋａｍｅｌｉａ,,合同会社,北海道,小樽市,入船２丁目２２番９号,,01,203,0470021,,,,,,,2025-11-20,1,,,,,カメリア,0
