sequenceNumber,corporateNumber,process,correct,updateDate,changeDate,name,nameImageId,kind,prefectureName,cityName,streetNumber,addressImageId,prefectureCode,cityCode,postCode,addressOutside,addressOutsideImageId,closeDate,closeCause,successorCorporateNumber,changeCause,assignmentDate,latest,enName,enPrefectureName,enCityName,enAddressOutside,furigana,hihyoji
8,1010001256713,新規,0,2025-07-16,2025-07-16,株式会社照明,,株式会社,東京都,千代田区,富士見２丁目１０番３－３１０５号,,13,101,1020071,,,,,,,2025-07-16,1,,,,,テルメイ,0
9,1010001256861,新規,0,2025-07-16,2025-07-16,ＪＰＧ第１０号株式会社,,株式会社,東京都,千代田区,霞が関３丁目２番１号,,13,101,1000013,,,,,,,2025-07-16,1,,,,,ジェイピージーダイジュウゴウ,0
10,1010001256936,新規,0,2025-07-16,2025-07-16,株式会社モトヒロ,,株式会社,東京都,中央区,日本橋茅場町２丁目８－１ＢＲＩＣＫＧＡＴＥ茅場町３階,,13,102,1030025,,,,,,,2025-07-16,1,,,,,モトヒロ,0
11,1010001256944,新規,0,2025-07-16,2025-07-16,原価の道場株式会社,,株式会社,東京都,中央区,築地３丁目２番３－７０４号,,13,102,1040045,,,,,,,2025-07-16,1,,,,,ゲンカノドウジョウ,0
12,1010003048035,新規,0,2025-07-16,2025-07-16,ＢｉｏＬａｂｓ　Ｓｈｉｎｋｉｂａ合同会社,,合同会社,東京都,中央区,日本橋室町３丁目２番１号,,13,102,1030022,,,,,,,2025-07-16,1,,,,,バイオラボスシンキバ,0
13,1010003048051,新規,0,2025-07-16,2025-07-16,コールドストレージ市川合同会社,,合同会社,東京都,中央区,日本橋１丁目４番１号,,13,102,1030027,,,,,,,2025-07-16,1,,,,,コールドストレージイチカワ,0
25,1010401191386,新規,0,2025-07-16,2025-07-16,株式会社ストーンビッグ,,株式会社,東京都,港区,赤坂３丁目２１－１７ＡＳＫ赤坂ビル７Ｆ,,13,103,1070052,,,,,,,2025-07-16,1,,,,,ストーンビッグ,0
26,1010401191733,新規,0,2025-07-16,2025-07-16,株式会社ライフスタイルホールディングス,,株式会社,東京都,港区,虎ノ門４丁目３－１,,13,103,1050001,,,,,,,2025-07-16,1,,,,,ライフスタイルホールディングス,0
27,1010403035558,新規,0,2025-07-16,2025-07-16,合同会社ＷＨＣ,,合同会社,東京都,港区,浜松町２丁目２番１５号浜松町ダイヤビル２Ｆ,,13,103,1050013,,,,,,,2025-07-16,1,,,,,ダブルエイチシー,0
28,1010501054393,新規,0,2025-07-16,2025-07-16,株式会社Ｅｖｅｒｂｌｏｏｍ,,株式会社,東京都,台東区,下谷２丁目１９番６－５０２号,,13,106,1100004,,,,,,,2025-07-16,1,,,,,エバーブルーム,0
29,1010501054410,新規,0,2025-07-16,2025-07-16,株式会社若谷,,株式会社,東京都,台東区,今戸１丁目５番１６号真家ビル１０３室,,13,106,1110024,,,,,,,2025-07-16,1,,,,,ワカヤ,0
37,1011001170978,新規,0,2025-07-16,2025-07-16,株式会社Ｃｅｒｏ,,株式会社,東京都,渋谷区,円山町５番３号ＭＩＥＵＸ渋谷ビル８階,,13,113,1500044,,,,,,,2025-07-16,1,,,,,セロ,0
40,1011005011096,新規,0,2025-07-16,2025-07-16,一般社団法人ナイル,,その他の設立登記法人,東京都,渋谷区,神宮前１丁目５番８号,,13,113,1500001,,,,,,,2025-07-16,1,,,,,ナイル,0
42,1011101112392,新規,0,2025-07-16,2025-07-16,株式会社ＤＮＳ,,株式会社,東京都,新宿区,百人町１丁目１７番５号メゾンオグラ３０１,,13,104,1690073,,,,,,,2025-07-16,1,,,,,ディーエヌエス,0
44,1011103016162,新規,0,2025-07-16,2025-07-16,合同会社アキトシ,,合同会社,東京都,新宿区,西新宿３丁目３番１３号西新宿水間ビル６階,,13,104,1600023,,,,,,,2025-07-16,1,,,,,アキトシ,0
49,1011601028808,新規,0,2025-07-16,2025-07-16,ＷＥＴＥＸ　ＪＡＰＡＮ株式会社,,株式会社,東京都,練馬区,桜台１丁目７番７号創業館・桜台北口オフィス４階６号室,,13,120,1760002,,,,,,,2025-07-16,1,,,,,ウイテックスジャパン,0
52,1012401043328,新規,0,2025-07-16,2025-07-16,株式会社ＨｙｐｅｒＸ,,株式会社,東京都,武蔵野市,吉祥寺南町３丁目３４番１号,,13,203,1800003,,,,,,,2025-07-16,1,,,,,ハイパーエックス,0
53,1012401043352,新規,0,2025-07-16,2025-07-16,株式会社イフユーウォント,,株式会社,東京都,稲城市,矢野口１９１５番地の７１,,13,225,2060812,,,,,,,2025-07-16,1,,,,,イフユーウォント,0
55,1013301054596,新規,0,2025-07-16,2025-07-16,プロジェクトインダストリージャパン株式会社,,株式会社,東京都,豊島区,東池袋４丁目２１番１－２８０４号,,13,116,1700013,,,,,,,2025-07-16,1,,,,,プロジェクトインダストリージャパン,0
61,1020001163842,新規,0,2025-07-16,2025-07-16,ととの株式会社,,株式会社,神奈川県,横浜市港北区,綱島東３丁目８番１６号クレッセント綱島ＩＩ３０３,00139951,14,109,2230052,,,,,,,2025-07-16,1,,,,,トトノ,0
62,1020001163917,新規,0,2025-07-16,2025-07-16,ＭＯＮ株式会社,,株式会社,神奈川県,横浜市港北区,大曽根１丁目９番１１号,,14,109,2220003,,,,,,,2025-07-16,1,,,,,モン,0
68,1021001085762,新規,0,2025-07-16,2025-07-16,株式会社Ｗａｎｄｅｒｅｄ　Ｇｌｏｗ,,株式会社,神奈川県,相模原市緑区,大島１７０２番地２７,,14,151,2520135,,,,,,,2025-07-16,1,,,,,ワンダードグロウ,0
69,1021001085795,新規,0,2025-07-16,2025-07-16,Ｏｆｆｉｃｅ　ｒｅ　ＲＫ株式会社,,株式会社,神奈川県,茅ヶ崎市,萩園２３３９－３８,,14,207,2530071,,,,,,,2025-07-16,1,,,,,オフィスリアールケイ,0
79,1030001167660,新規,0,2025-07-16,2025-07-16,株式会社ルミナスビルテクノ,,株式会社,埼玉県,さいたま市西区,三橋６丁目５８１番地,,11,101,3310052,,,,,,,2025-07-16,1,,,,,ルミナスビルテクノ,0
80,1030001167677,新規,0,2025-07-16,2025-07-16,株式会社ＨＥＷＡＬ,,株式会社,埼玉県,川口市,大字木曽呂３７２番地,,11,203,3330831,,,,,,,2025-07-16,1,,,,,ヘワル,0
84,1030003027193,新規,0,2025-07-16,2025-07-16,合同会社ＦＥＲＮＡＮＤＯ　ＴＲＡＤＩＮＧ　ＬＡＮＫＡ,,合同会社,埼玉県,さいたま市西区,大字土屋３１番地７,,11,101,3310062,,,,,,,2025-07-16,1,,,,,フェルナンドトレーディングランカ,0
86,1040001139675,新規,0,2025-07-16,2025-07-16,株式会社バリュークリエーション,,株式会社,千葉県,船橋市,習志野台５丁目３７番１０号グリーンプラテア弐番館５０３号,,12,204,2740063,,,,,,,2025-07-16,1,,,,,バリュークリエーション,0
87,1040001139700,新規,0,2025-07-16,2025-07-16,株式会社高橋左官工業,00139960,株式会社,千葉県,船橋市,丸山３丁目４０番２０号,,12,204,2730048,,,,,,,2025-07-16,1,,,,,タカハシサカンコウギョウ,0
88,1040001139709,新規,0,2025-07-16,2025-07-16,株式会社凡公教園,,株式会社,千葉県,松戸市,中和倉１８２番地の９,,12,207,2700025,,,,,,,2025-07-16,1,,,,,ツネタカキョウエン,0
91,1040003028034,新規,0,2025-07-16,2025-07-16,合同会社加藤興業,,合同会社,千葉県,千葉市中央区,生実町２１７３番地１,,12,101,2600813,,,,,,,2025-07-16,1,,,,,カトウコウギョウ,0
92,1040003028059,新規,0,2025-07-16,2025-07-16,くりあす合同会社,,合同会社,千葉県,千葉市美浜区,若葉３丁目１番地１９幕張ベイパーククロスタワー９１０号,,12,106,2610014,,,,,,,2025-07-16,1,,,,,クリアス,0
103,1080101025656,新規,0,2025-07-16,2025-07-16,株式会社月,,株式会社,静岡県,御殿場市,新橋１８５９番地の１,,22,215,4120043,,,,,,,2025-07-16,1,,,,,ツキ,0
108,1090001019393,新規,0,2025-07-16,2025-07-16,株式会社清水工務店,,株式会社,山梨県,北杜市,長坂町小荒間２７番地３９５,,19,209,4080031,,,,,,,2025-07-16,1,,,,,シミズコウムテン,0
113,1110003005827,新規,0,2025-07-16,2025-07-16,ｒｅｓｔｏｒｙ合同会社,,合同会社,新潟県,新潟市西区,大野町３７４８番地,,15,107,9501111,,,,,,,2025-07-16,1,,,,,リストーリー,0
118,1120001277707,新規,0,2025-07-16,2025-07-16,ＡｌｐｈａＮｉｎｅ株式会社,,株式会社,大阪府,大阪市中央区,大手前１丁目７－３１ＯＭＭ１階ＳｅｒｖｉｃｅＯｆｆｉｃｅＷ天満橋,,27,128,5400008,,,,,,,2025-07-16,1,,,,,アルファナイン,0
119,1120001277756,新規,0,2025-07-16,2025-07-16,ネクスフィールド株式会社,,株式会社,大阪府,大阪市西区,江之子島２丁目１番３７－４００４号,,27,106,5500006,,,,,,,2025-07-16,1,,,,,ネクスフィールド,0
120,1120001277896,新規,0,2025-07-16,2025-07-16,ＢＥＳＴエナジー株式会社,,株式会社,大阪府,大阪市西成区,花園北１丁目７番１４号８０５－Ａ号室,,27,122,5570016,,,,,,,2025-07-16,1,,,,,ベストエナジー,0
127,1120901051178,新規,0,2025-07-16,2025-07-16,暮らしの医学舎株式会社,,株式会社,大阪府,豊中市,北桜塚４丁目３番２号,,27,203,5600022,,,,,,,2025-07-16,1,,,,,クラシノイガクシャ,0
134,1130001080102,新規,0,2025-07-16,2025-07-16,株式会社ＴＭＦアクアテック,,株式会社,京都府,京田辺市,草内山ノ下１９番地５,,26,211,6100311,,,,,,,2025-07-16,1,,,,,ティーエムエフアクアテック,0
136,1140001139277,新規,0,2025-07-16,2025-07-16,株式会社チェックアップ,,株式会社,兵庫県,神崎郡福崎町,西治３７番地６,,28,443,6792215,,,,,,,2025-07-16,1,,,,,チェックアップ,0
137,1140001139285,新規,0,2025-07-16,2025-07-16,株式会社Ｏｆｆｉｃｅ　Ｍａｒｙ＆Ｆｌｏｗｅｒ,,株式会社,兵庫県,宝塚市,栄町２丁目１番１－Ｗ－５０３号,,28,214,6650845,,,,,,,2025-07-16,1,,,,,オフィスマリーアンドフラワー,0
140,1140003022324,新規,0,2025-07-16,2025-07-16,合同会社光商会,,合同会社,兵庫県,神戸市兵庫区,駅南通５丁目２番１１－４０９号,,28,105,6520897,,,,,,,2025-07-16,1,,,,,ヒカリショウカイ,0
141,1140005027569,新規,0,2025-07-16,2025-07-16,一般社団法人パソナスポーツ文化支援機構,,その他の設立登記法人,兵庫県,淡路市,野島常盤１０４２,,28,226,6561726,,,,,,,2025-07-16,1,,,,,パソナスポーツブンカシエンキコウ,0
142,1160001026911,新規,0,2025-07-16,2025-07-16,ＨＩＢＩＮＯＴＲＡＮＳＰＯＲＴ株式会社,,株式会社,滋賀県,長浜市,南小足町５３８番地２１,,25,203,5260843,,,,,,,2025-07-16,1,,,,,ヒビノトランスポート,0
143,1160003003545,新規,0,2025-07-16,2025-07-16,ＣＬＳＳＹＳ合同会社,,合同会社,滋賀県,草津市,岡本町１０７０番地１３,,25,206,5250044,,,,,,,2025-07-16,1,,,,,クルシーズ,0
146,1170001018718,新規,0,2025-07-16,2025-07-16,株式会社吉岡ホールディングス,,株式会社,和歌山県,岩出市,岡田５７５番地の１,,30,209,6496222,,,,,,,2025-07-16,1,,,,,ヨシオカホールディングス,0
150,1180001167563,新規,0,2025-07-16,2025-07-16,株式会社アビリブグループ,,株式会社,愛知県,名古屋市中区,栄５丁目２８番１２号名古屋若宮ビル,,23,106,4600008,,,,,,,2025-07-16,1,,,,,アビリブグループ,0
151,1180001167605,新規,0,2025-07-16,2025-07-16,株式会社悠想,,株式会社,愛知県,名古屋市西区,則武新町２丁目１－８,,23,104,4510051,,,,,,,2025-07-16,1,,,,,ユウソウ,0
152,1180001167729,新規,0,2025-07-16,2025-07-16,株式会社零明建装,,株式会社,愛知県,名古屋市南区,寺崎町５番２９号,,23,112,4570013,,,,,,,2025-07-16,1,,,,,レイメイケンソウ,0
153,1180001167794,新規,0,2025-07-16,2025-07-16,株式会社Ａｌｏｗ,,株式会社,愛知県,名古屋市中区,錦３丁目１９番２６号Ａｔｓ錦７階０７０５,,23,106,4600003,,,,,,,2025-07-16,1,,,,,アロウ,0
155,1180003028722,新規,0,2025-07-16,2025-07-16,コトノハクリエーション合同会社,,合同会社,愛知県,名古屋市中区,金山２丁目１０番２号（セジュール金山３０２号）,,23,106,4600022,,,,,,,2025-07-16,1,,,,,コトノハクリエーション,0
156,1180005021163,新規,0,2025-07-16,2025-07-16,一般社団法人さくらさく,,その他の設立登記法人,愛知県,名古屋市西区,名駅２丁目３４番１７号,,23,104,4510045,,,,,,,2025-07-16,1,,,,,サクラサク,0
160,1190001032394,新規,0,2025-07-16,2025-07-16,株式会社Ｖ．Ｎ．Ｔ　ＪＡＰＡＮ,,株式会社,三重県,津市,芸濃町楠原字庭代２５８２番地１,,24,201,5142201,,,,,,,2025-07-16,1,,,,,ブィエヌティジャパン,0
161,1190002013113,新規,0,2025-07-16,2025-07-16,有限会社ハノチ米穀店,,有限会社,三重県,名張市,上長瀬２９２０番地,,24,208,5180502,,,,,,,2025-07-16,1,,,,,,0
162,1200001044025,新規,0,2025-07-16,2025-07-16,株式会社ＭＳ,,株式会社,岐阜県,岐阜市,日野北５丁目５番１３号,,21,201,5008207,,,,,,,2025-07-16,1,,,,,エムエス,0
163,1200001044033,新規,0,2025-07-16,2025-07-16,株式会社ハウスサポート,,株式会社,岐阜県,各務原市,鵜沼各務原町２丁目１９９番地１ナビシティ鵜沼ＩＩ６０３号室,00139959,21,213,5090141,,,,,,,2025-07-16,1,,,,,ハウスサポート,0
164,1200001044041,新規,0,2025-07-16,2025-07-16,ピノキオホールディングス株式会社,,株式会社,岐阜県,岐阜市,向加野２丁目１６番５号,,21,201,5013109,,,,,,,2025-07-16,1,,,,,ピノキオホールディングス,0
170,1240001065232,新規,0,2025-07-16,2025-07-16,Ｆｏｒｅｓｔ　Ｍａｔｅｒｉａｌ株式会社,,株式会社,広島県,安芸郡府中町,八幡２丁目８番２６号,,34,302,7350012,,,,,,,2025-07-16,1,,,,,フォレストマテリアル,0
175,1260003005267,新規,0,2025-07-16,2025-07-16,インカムプラス合同会社,,合同会社,岡山県,岡山市中区,雄町４６２番地１１,,33,102,7038204,,,,,,,2025-07-16,1,,,,,インカムプラス,0
179,1290001110735,新規,0,2025-07-16,2025-07-16,株式会社オオトーインテリア,,株式会社,福岡県,福岡市早良区,西新２丁目４番２２号,,40,137,8140002,,,,,,,2025-07-16,1,,,,,オオトーインテリア,0
181,1290003017111,新規,0,2025-07-16,2025-07-16,合同会社Ｅｎｅサポ,,合同会社,福岡県,那珂川市,後野１丁目７－７ローズィット那珂川１０２,,40,231,8111241,,,,,,,2025-07-16,1,,,,,エネサポ,0
183,1290801031718,新規,0,2025-07-16,2025-07-16,ｓｗｉｔｃｈ株式会社,,株式会社,福岡県,北九州市八幡西区,友田１丁目１２番３１号,,40,109,8070828,,,,,,,2025-07-16,1,,,,,スウィッチ,0
185,1300005007257,新規,0,2025-07-16,2025-07-16,特定非営利活動法人ｎｅｃｏｔｔｏ,,その他の設立登記法人,佐賀県,佐賀市,本庄町本庄７番地２,,41,201,8490000,,,,,,,2025-07-16,1,,,,,ネコット,0
191,1330001033403,新規,0,2025-07-16,2025-07-16,イノベーションアグリ株式会社,,株式会社,熊本県,熊本市東区,秋津町秋田３４４５番地９,,43,102,8612105,,,,,,,2025-07-16,1,,,,,イノベーションアグリ,0
205,1400003003504,新規,0,2025-07-16,2025-07-16,合同会社大程,,合同会社,岩手県,宮古市,宮町２丁目５番６号,,03,202,0270052,,,,,,,2025-07-16,1,,,,,オオホド,0
210,1430001094856,新規,0,2025-07-16,2025-07-16,メアリーベアジャパン株式会社,,株式会社,北海道,札幌市中央区,大通東２丁目８番地５プレジデント札幌ビル１００３号,,01,101,0600041,,,,,,,2025-07-16,1,,,,,メアリーベアジャパン,0
211,1430001094897,新規,0,2025-07-16,2025-07-16,タイニーハウスカンパニー株式会社,,株式会社,北海道,札幌市東区,北四十条東８丁目２番１号,,01,103,0070840,,,,,,,2025-07-16,1,,,,,タイニーハウスカンパニー,0
214,1470003002929,新規,0,2025-07-16,2025-07-16,讃ライズＬｉｆｅ合同会社,,合同会社,香川県,高松市,木太町２４１９番地５２,,37,201,7600080,,,,,,,2025-07-16,1,,,,,,0
218,1700150131416,新規,0,2025-07-16,2025-07-16,ＨＡＳＩＮＩ　ＭＯＴＯＲＳ,,外国会社等,千葉県,山武市,木原７３８－４０,,12,237,2891212,スリランカ民主社会主義共和国、ムトゥル－０４、ノクスロード,,,,,,2025-07-16,1,,,,,ハシニモータース,0
224,2010001256860,新規,0,2025-07-16,2025-07-16,ＪＰＧ第９号株式会社,,株式会社,東京都,千代田区,霞が関３丁目２番１号,,13,101,1000013,,,,,,,2025-07-16,1,,,,,ジェイピージーダイキュウゴウ,0
225,2010001256943,新規,0,2025-07-16,2025-07-16,星橋卓越株式会社,,株式会社,東京都,千代田区,神田和泉町１番地６－１６ヤマトビル４０５,,13,101,1010024,,,,,,,2025-07-16,1,,,,,ホシバシタクエツ,0
227,2010003048050,新規,0,2025-07-16,2025-07-16,ＴＬＬ　ＩＮＶＥＳＴＭＥＮＴ合同会社,,合同会社,東京都,中央区,京橋１丁目１番５号,,13,102,1040031,,,,,,,2025-07-16,1,,,,,ティーエルエルインベストメント,0
233,2010401191798,新規,0,2025-07-16,2025-07-16,株式会社ヒューマンゲート,,株式会社,東京都,港区,赤坂２丁目２１－４,,13,103,1070052,,,,,,,2025-07-16,1,,,,,ヒューマンゲート,0
238,2010601067625,新規,0,2025-07-16,2025-07-16,株式会社零一,,株式会社,東京都,墨田区,錦糸１丁目２番１号アルカセントラル１４階,,13,107,1300013,,,,,,,2025-07-16,1,,,,,ゼロイチ,0
246,2010801036371,新規,0,2025-07-16,2025-07-16,株式会社メッタ,,株式会社,東京都,大田区,大森北１丁目１２番９号第６下川ビル６Ｆ,,13,111,1430016,,,,,,,2025-07-16,1,,,,,メッタ,0
248,2010901057755,新規,0,2025-07-16,2025-07-16,株式会社ＩＭＰＡＣＴ　ＡＳＩＡ,,株式会社,東京都,世田谷区,太子堂４丁目１８－５マガザン三軒茶屋２－３階３,,13,112,1540004,,,,,,,2025-07-16,1,,,,,インパクトアジア,0
259,2011003022128,新規,0,2025-07-16,2025-07-16,合同会社Ｄｊｉｍａ,,合同会社,東京都,渋谷区,道玄坂１丁目１０番８号渋谷道玄坂東急ビル２Ｆ－Ｃ,,13,113,1500043,,,,,,,2025-07-16,1,,,,,デジマ,0
261,2011101112284,新規,0,2025-07-16,2025-07-16,株式会社ａｌｄｏｌ,,株式会社,東京都,新宿区,西新宿３丁目３番１３号西新宿水間ビル６階,,13,104,1600023,,,,,,,2025-07-16,1,,,,,アルドル,0
262,2011101112359,新規,0,2025-07-16,2025-07-16,ＨＪＴ株式会社,,株式会社,東京都,新宿区,北新宿３丁目２－１レグノセレーノ９０２,,13,104,1690074,,,,,,,2025-07-16,1,,,,,エッチジェーティー,0
265,2011105011499,新規,0,2025-07-16,2025-07-16,一般社団法人プロパンガス需要家協会,,その他の設立登記法人,東京都,新宿区,西新宿３丁目３番１３号西新宿水間ビル６階,,13,104,1600023,,,,,,,2025-07-16,1,,,,,プロパンガスジュヨウカキョウカイ,0
270,2011501032322,新規,0,2025-07-16,2025-07-16,エイターズ株式会社,,株式会社,東京都,荒川区,東日暮里５丁目６番２号シティープライム東日暮里１１０２,,13,118,1160014,,,,,,,2025-07-16,1,,,,,エイターズ,0
271,2011605002659,新規,0,2025-07-16,2025-07-16,一般社団法人練馬ファンド,,その他の設立登記法人,東京都,練馬区,高野台１丁目１０番６号,,13,120,1770033,,,,,,,2025-07-16,1,,,,,ネリマファンド,0
272,2011701028525,新規,0,2025-07-16,2025-07-16,株式会社タケイシヨシオ,,株式会社,東京都,江戸川区,本一色３丁目４１－７,,13,123,1330044,,,,,,,2025-07-16,1,,,,,タケイシヨシオ,0
276,2012401043335,新規,0,2025-07-16,2025-07-16,株式会社長由園,,株式会社,東京都,稲城市,東長沼４２０番地,,13,225,2060802,,,,,,,2025-07-16,1,,,,,ナガヨシエン,0
286,2020001163882,新規,0,2025-07-16,2025-07-16,ＧＬｉｎｋ株式会社,,株式会社,神奈川県,横浜市中区,長者町５丁目７５番地１号スクエア長者町１００１号,,14,104,2310033,,,,,,,2025-07-16,1,,,,,グリンク,0
287,2020001163924,新規,0,2025-07-16,2025-07-16,ＴＨＩＲＤ　ＰＬＡＣＥ株式会社,,株式会社,神奈川県,横浜市金沢区,六浦５丁目２３番１８号,,14,108,2360031,,,,,,,2025-07-16,1,,,,,サードプレイス,0
292,2021001085778,新規,0,2025-07-16,2025-07-16,株式会社ＣＡＮＢＸ,,株式会社,神奈川県,大和市,福田１７０７番地６,,14,213,2420024,,,,,,,2025-07-16,1,,,,,キャンビクス,0
293,2021003016285,新規,0,2025-07-16,2025-07-16,合同会社ＫＯＹＵ,,合同会社,神奈川県,藤沢市,川名１丁目２番１２号ストンフィールド川名２０１,,14,205,2510015,,,,,,,2025-07-16,1,,,,,コーユー,0
299,2030001167676,新規,0,2025-07-16,2025-07-16,明輝建工株式会社,,株式会社,埼玉県,富士見市,関沢３丁目２３－７－１０１号,,11,235,3540025,,,,,,,2025-07-16,1,,,,,メイキケンコウ,0
306,2040001139658,新規,0,2025-07-16,2025-07-16,株式会社ルーフ,,株式会社,千葉県,四街道市,下志津新田２５２１番地５９,,12,228,2840006,,,,,,,2025-07-16,1,,,,,ルーフ,0
307,2040001139699,新規,0,2025-07-16,2025-07-16,Ｓａｓａｙａｎ　Ｔｅｃｈ株式会社,,株式会社,千葉県,流山市,東初石３丁目１１１番地の２８オーチャードハウス１０７,,12,220,2700114,,,,,,,2025-07-16,1,,,,,ササヤンテック,0
308,2040001139708,新規,0,2025-07-16,2025-07-16,株式会社アート・ストーリーズ,,株式会社,千葉県,柏市,泉町６番５６号小野寺荘１０１号,,12,217,2770022,,,,,,,2025-07-16,1,,,,,アートストーリーズ,0
309,2040003028041,新規,0,2025-07-16,2025-07-16,トーエイグループ合同会社,,合同会社,千葉県,松戸市,大金平５丁目４１２番地１,,12,207,2700006,,,,,,,2025-07-16,1,,,,,トーエイグループ,0
330,2110003005826,新規,0,2025-07-16,2025-07-16,合同会社ｗｉｎｇ,,合同会社,新潟県,新潟市中央区,米山５丁目１４番３号カーネ米山３０１号,,15,103,9500916,,,,,,,2025-07-16,1,,,,,ウイング,0
334,2120001277895,新規,0,2025-07-16,2025-07-16,＿康馨株式会社,00139965,株式会社,大阪府,大阪市東成区,大今里３丁目１５番６号ＩｍａｚａｔｏＴｏｗｅｒ５０５Ｃ,,27,115,5370012,,,,,,,2025-07-16,1,,,,,キンコウケイ,0
335,2120001277912,新規,0,2025-07-16,2025-07-16,株式会社ＳＡＩＮＴ,,株式会社,大阪府,大阪市浪速区,難波中２丁目１０番７０号なんばパークスタワー１９階,,27,111,5560011,,,,,,,2025-07-16,1,,,,,セイント,0
336,2120001278010,新規,0,2025-07-16,2025-07-16,ＮＲアカウンティング株式会社,,株式会社,大阪府,大阪市北区,梅田１丁目１番３号大阪駅前第３ビル２５階,,27,127,5300001,,,,,,,2025-07-16,1,,,,,エヌアールアカウンティング,0
341,2120101072115,新規,0,2025-07-16,2025-07-16,ＡＮＮ商事株式会社,,株式会社,大阪府,堺市北区,百舌鳥赤畑町４丁２９２－２０１号,,27,146,5918037,,,,,,,2025-07-16,1,,,,,アンショウジ,0
347,2122003003239,新規,0,2025-07-16,2025-07-16,合同会社いなほ,,合同会社,大阪府,八尾市,春日町３丁目３－１９,,27,212,5810061,,,,,,,2025-07-16,1,,,,,イナホ,0
349,2130001080126,新規,0,2025-07-16,2025-07-16,株式会社なないろりんく,,株式会社,京都府,京都市山科区,東野百拍子町９番地の１２,,26,110,6078153,,,,,,,2025-07-16,1,,,,,ナナイロリンク,0
350,2130003010601,新規,0,2025-07-16,2025-07-16,ＷＩＮＥ　ＳＨＯＰ　ＫＹＯＴＯ合同会社,,合同会社,京都府,京都市右京区,嵯峨広沢西裏町２８番１９,,26,108,6168306,,,,,,,2025-07-16,1,,,,,ワインショップキョウト,0
356,2140001139251,新規,0,2025-07-16,2025-07-16,株式会社ＨＡＰＯＲＡ,,株式会社,兵庫県,伊丹市,昆陽南３丁目５－３７,,28,207,6640888,,,,,,,2025-07-16,1,,,,,ハポラ,0
357,2140001139383,新規,0,2025-07-16,2025-07-16,株式会社マクシード,,株式会社,兵庫県,西宮市,五月ケ丘１２番１号,,28,204,6620875,,,,,,,2025-07-16,1,,,,,マクシード,0
358,2140003022323,新規,0,2025-07-16,2025-07-16,合同会社グランドオーシャン,,合同会社,兵庫県,神戸市東灘区,住吉本町２丁目２４－１１,,28,101,6580051,,,,,,,2025-07-16,1,,,,,グランドオーシャン,0
359,2140005027568,新規,0,2025-07-16,2025-07-16,一般社団法人見守り後見センター,,その他の設立登記法人,兵庫県,伊丹市,伊丹２丁目５番６号アリオＩＩ１階,00139945,28,207,6640846,,,,,,,2025-07-16,1,,,,,ミマモリコウケンセンター,0
361,2170001018717,新規,0,2025-07-16,2025-07-16,株式会社ＧＲＯＣＡＬ和歌山,,株式会社,和歌山県,和歌山市,西庄２３３番地１０,,30,201,6400112,,,,,,,2025-07-16,1,,,,,グローカルワカヤマ,0
366,2180001167538,新規,0,2025-07-16,2025-07-16,株式会社ＡＮＲＩＤＥ,,株式会社,愛知県,名古屋市西区,長先町５０番地,,23,104,4520838,,,,,,,2025-07-16,1,,,,,アンライド,0
367,2180001167604,新規,0,2025-07-16,2025-07-16,株式会社成和,,株式会社,愛知県,春日井市,高座町１９４３番地２３,,23,206,4870012,,,,,,,2025-07-16,1,,,,,セイワ,0
368,2180001167629,新規,0,2025-07-16,2025-07-16,株式会社ＳＥＮＳ,,株式会社,愛知県,名古屋市中村区,名駅３丁目４－１０アルティメイト名駅２階,,23,105,4500002,,,,,,,2025-07-16,1,,,,,センズ,0
369,2180001167653,新規,0,2025-07-16,2025-07-16,株式会社ＲＭＹ,,株式会社,愛知県,名古屋市北区,山田北町２丁目７７番地の１５,,23,103,4620811,,,,,,,2025-07-16,1,,,,,アールエムワイ,0
371,2180003028762,新規,0,2025-07-16,2025-07-16,合同会社ＷｉｌｄＢｌｏｏｍｅ,,合同会社,愛知県,名古屋市中村区,中村本町５丁目２２番４号,,23,105,4530828,,,,,,,2025-07-16,1,,,,,ワイルドブルーム,0
372,2180301040023,新規,0,2025-07-16,2025-07-16,ＯＳＰＩＲＥ　ＷＯＲＫＳ株式会社,,株式会社,愛知県,安城市,三河安城本町２丁目３番地１キングスコート・ＳＯＰＨＩＡ三河安城１３０３,,23,212,4460059,,,,,,,2025-07-16,1,,,,,オスパイヤワークス,0
373,2180303006658,新規,0,2025-07-16,2025-07-16,合同会社ＭＡＥＮＯ,,合同会社,愛知県,岡崎市,福岡町字楠２７番地,,23,202,4440825,,,,,,,2025-07-16,1,,,,,マエノ,0
377,2190001032377,新規,0,2025-07-16,2025-07-16,株式会社なごみ,,株式会社,三重県,四日市市,朝日町３番２号プラザ１９８６・６Ｃ,,24,202,5100061,,,,,,,2025-07-16,1,,,,,,0
379,2200001044032,新規,0,2025-07-16,2025-07-16,株式会社プラネットＨＤ,,株式会社,岐阜県,多治見市,太平町６丁目６３番地１,,21,204,5070041,,,,,,,2025-07-16,1,,,,,プラネットエイチディー,0
398,2290001110759,新規,0,2025-07-16,2025-07-16,株式会社リンクフィット,,株式会社,福岡県,筑後市,大字羽犬塚５３１番地ワールド店舗２階西号室,,40,211,8330003,,,,,,,2025-07-16,1,,,,,リンクフィット,0
399,2290001110809,新規,0,2025-07-16,2025-07-16,株式会社Ｒｉｎａｇａｒｕ,,株式会社,福岡県,福岡市博多区,住吉３丁目５番８－７０６号,,40,132,8120018,,,,,,,2025-07-16,1,,,,,リナガル,0
401,2290003017127,新規,0,2025-07-16,2025-07-16,合同会社フェニックスグループ,,合同会社,福岡県,福岡市東区,和白東３丁目３－１２－３０３,,40,131,8110214,,,,,,,2025-07-16,1,,,,,フェニックスグループ,0
403,2290801031717,新規,0,2025-07-16,2025-07-16,株式会社あゆむ組,,株式会社,福岡県,北九州市八幡西区,元城町１０番２１号,,40,109,8060015,,,,,,,2025-07-16,1,,,,,アユムグミ,0
405,2300001014280,新規,0,2025-07-16,2025-07-16,株式会社ＲＵＬＥ,,株式会社,佐賀県,佐賀市,鍋島３丁目３番２０号,,41,201,8490937,,,,,,,2025-07-16,1,,,,,ルール,0
407,2310001006558,新規,0,2025-07-16,2025-07-16,株式会社サンアート企画,,株式会社,長崎県,佐世保市,日宇町２５６６番地,,42,202,8571151,,,,,,,2025-07-16,1,,,,,サンアートキカク,0
423,2410001014229,新規,0,2025-07-16,2025-07-16,株式会社ラフテル,,株式会社,秋田県,秋田市,大町３丁目２番３２号すずらんビルＡ,,05,201,0100921,,,,,,,2025-07-16,1,,,,,ラフテル,0
426,2430001094855,新規,0,2025-07-16,2025-07-16,株式会社神楽,,株式会社,北海道,札幌市中央区,南五条西４丁目１番地札幌アルトビル９階,,01,101,0640805,,,,,,,2025-07-16,1,,,,,カグラ,0
427,2430001094896,新規,0,2025-07-16,2025-07-16,ライズ・アップ・ソリューション株式会社,,株式会社,北海道,札幌市中央区,南一条西１３丁目４番地５５,,01,101,0600061,,,,,,,2025-07-16,1,,,,,ライズアップソリューション,0
431,2500001026421,新規,0,2025-07-16,2025-07-16,株式会社ｋｕｓｕｒｉｔｏ,,株式会社,愛媛県,南宇和郡愛南町,城辺甲２４６３番地２,,38,506,7984131,,,,,,,2025-07-16,1,,,,,クスリト,0
434,2700150062503,新規,0,2025-07-16,2015-10-09,熊本県公立高等学校ＰＴＡ連合会,,その他,熊本県,熊本市中央区,水道町１４番２１号熊本県婦人会館３Ｆ,,43,101,8600844,,,,,,,2015-10-09,1,,,,,クマモトケンコウリツコウトウガツコウピーテイーエーレンゴウカイ,0
439,3010001256868,新規,0,2025-07-16,2025-07-16,ｋａｕｌａ株式会社,,株式会社,東京都,中央区,日本橋室町１丁目１１番１２号日本橋水野ビル７階,,13,102,1030022,,,,,,,2025-07-16,1,,,,,カウラ,0
440,3010001256876,新規,0,2025-07-16,2025-07-16,株式会社ＳＩＪインベストメントパートナーズ,,株式会社,東京都,千代田区,丸の内２丁目２番１号岸本ビル７階,,13,101,1000005,,,,,,,2025-07-16,1,,,,,エスアイジェーインベストメントパートナーズ,0
446,3010401191764,新規,0,2025-07-16,2025-07-16,株式会社トラスティア,,株式会社,東京都,港区,北青山１丁目３番３号三橋ビル３階,,13,103,1070061,,,,,,,2025-07-16,1,,,,,トラスティア,0
447,3010401191797,新規,0,2025-07-16,2025-07-16,株式会社ＳＥＷＡ　ＳＯＬＵＴＩＯＮ,,株式会社,東京都,港区,港南２丁目４番１４号スぺラボ品川駅港南口３０２号室,,13,103,1080075,,,,,,,2025-07-16,1,,,,,セワソリューション,0
448,3010403035531,新規,0,2025-07-16,2025-07-16,合同会社ＫＯＧＵＭＡ,,合同会社,東京都,港区,麻布十番１丁目２番７号ラフィネ麻布十番７０１号室,,13,103,1060045,,,,,,,2025-07-16,1,,,,,コグマ,0
458,3010601067632,新規,0,2025-07-16,2025-07-16,株式会社ワンバーグ,,株式会社,東京都,江東区,南砂４丁目１６－４,,13,108,1360076,,,,,,,2025-07-16,1,,,,,ワンバーグ,0
460,3010703007800,新規,0,2025-07-16,2025-07-16,合同会社ゴーストレート,,合同会社,東京都,品川区,西五反田１丁目２６番２号五反田サンハイツ９１１,,13,109,1410031,,,,,,,2025-07-16,1,,,,,ゴーストレート,0
462,3010801036387,新規,0,2025-07-16,2025-07-16,株式会社Ｒ＆Ｙ,,株式会社,東京都,大田区,池上７丁目１２番１９号,,13,111,1460082,,,,,,,2025-07-16,1,,,,,アールアンドワイ,0
465,3011001170927,新規,0,2025-07-16,2025-07-16,未来共創株式会社,,株式会社,東京都,目黒区,大岡山１丁目３５番２２号ニッカンビル２階,,13,110,1520033,,,,,,,2025-07-16,1,,,,,ミライキョウソウ,0
466,3011001171000,新規,0,2025-07-16,2025-07-16,株式会社ＰＲｅｆｕｌｌｙ,,株式会社,東京都,渋谷区,恵比寿西１丁目３３番６号,,13,113,1500021,,,,,,,2025-07-16,1,,,,,プレフリー,0
469,3011003021888,新規,0,2025-07-16,2025-07-16,合同会社ｌｏｗｋｅｙ,,合同会社,東京都,目黒区,目黒１丁目２４番９－３０４号,,13,110,1530063,,,,,,,2025-07-16,1,,,,,ロウキー,0
470,3011003022052,新規,0,2025-07-16,2025-07-16,ナイル合同会社,,合同会社,東京都,渋谷区,神宮前１丁目５番８号,,13,113,1500001,,,,,,,2025-07-16,1,,,,,ナイル,0
471,3011005011078,新規,0,2025-07-16,2025-07-16,一般社団法人官民連携推進機構,,その他の設立登記法人,東京都,渋谷区,神南１丁目１１－４ＦＰＧリンクス神南５階,,13,113,1500041,,,,,,,2025-07-16,1,,,,,カンミンレンケイスイシンキコウ,0
475,3011101112399,新規,0,2025-07-16,2025-07-16,株式会社ダイブ分割準備会社２号,,株式会社,東京都,新宿区,新宿２丁目８番１号,,13,104,1600022,,,,,,,2025-07-16,1,,,,,ダイブブンカツジュンビガイシャニゴウ,0
478,3011103016086,新規,0,2025-07-16,2025-07-16,Ｃｅｎｔｐａｓｓ合同会社,,合同会社,東京都,新宿区,西新宿３丁目３－１３西新宿水間ビル２Ｆ,,13,104,1600023,,,,,,,2025-07-16,1,,,,,セントパス,0
488,3011503006612,新規,0,2025-07-16,2025-07-16,合同会社フォワードＩＴプランニング,,合同会社,東京都,北区,西ケ原１丁目３７番１３－５０５号デュオ駒込古河庭園,,13,117,1140024,,,,,,,2025-07-16,1,,,,,フォワードアイティプランニング,0
490,3011601028806,新規,0,2025-07-16,2025-07-16,株式会社ＣＲＥＤＡＬＵＸ,,株式会社,東京都,練馬区,上石神井２丁目２５番４－３０３号室,,13,120,1770044,,,,,,,2025-07-16,1,,,,,クレダラックス,0
491,3011703004309,新規,0,2025-07-16,2025-07-16,ブラウンホワイト合同会社,,合同会社,東京都,江戸川区,松本１丁目５番７号,,13,123,1330043,,,,,,,2025-07-16,1,,,,,ブラウンホワイト,0
492,3011703004317,新規,0,2025-07-16,2025-07-16,合同会社Ｎｏｗａｙ,,合同会社,東京都,江戸川区,南篠崎町４丁目８－２グランスイート瑞江６０２,,13,123,1330065,,,,,,,2025-07-16,1,,,,,ノーウェイ,0
495,3011801046459,新規,0,2025-07-16,2025-07-16,株式会社アシスト,,株式会社,東京都,足立区,堀之内１丁目１４番３号,,13,121,1230874,,,,,,,2025-07-16,1,,,,,アシスト,0
497,3012301014468,新規,0,2025-07-16,2025-07-16,株式会社ＵＭＩ,,株式会社,東京都,町田市,原町田６丁目１５番１１号１Ｆ,,13,209,1940013,,,,,,,2025-07-16,1,,,,,ユミ,0
500,3012401043350,新規,0,2025-07-16,2025-07-16,株式会社ＴＡＫＥ　ａ　ＳＥＡＴ　ｐｒｏｄｕｃｔｉｏｎ,,株式会社,東京都,調布市,多摩川５丁目２０番地１,,13,208,1820025,,,,,,,2025-07-16,1,,,,,テイクアシートプロダクション,0
509,3020001163799,新規,0,2025-07-16,2025-07-16,株式会社フェイスウイズ,,株式会社,神奈川県,横浜市港北区,新横浜２丁目５番２２号エクセレントプラザ新横浜４階,,14,109,2220033,,,,,,,2025-07-16,1,,,,,フェイスウイズ,0
512,3020003028967,新規,0,2025-07-16,2025-07-16,ＱＹＴ合同会社,,合同会社,神奈川県,横浜市西区,北幸２丁目１０番４８号むつみビル３階,,14,103,2200004,,,,,,,2025-07-16,1,,,,,キューワイティー,0
513,3020005016929,新規,0,2025-07-16,2025-07-16,一般社団法人トビタテ生同窓会とまりぎ,,その他の設立登記法人,神奈川県,横浜市神奈川区,金港町５番地１４クアドリフォリオ８階,,14,102,2210056,,,,,,,2025-07-16,1,,,,,トビタテセイドウソウカイトマリギ,0
514,3020005016937,新規,0,2025-07-16,2025-07-16,一般社団法人日本紹興酒協会,,その他の設立登記法人,神奈川県,横浜市鶴見区,下末吉５丁目２１番１８－２号,,14,101,2300012,,,,,,,2025-07-16,1,,,,,ニホンショウコウシュキョウカイ,0
515,3021001085777,新規,0,2025-07-16,2025-07-16,株式会社しおかぜ,,株式会社,神奈川県,横須賀市,林５丁目１１番８号,,14,201,2380315,,,,,,,2025-07-16,1,,,,,シオカゼ,0
516,3021001085785,新規,0,2025-07-16,2025-07-16,湘南鎌倉不動産株式会社,,株式会社,神奈川県,鎌倉市,稲村ガ崎１丁目４番４号,,14,204,2480024,,,,,,,2025-07-16,1,,,,,ショウナンカマクラフドウサン,0
524,3030001167667,新規,0,2025-07-16,2025-07-16,ディスティニーランド株式会社,,株式会社,埼玉県,鴻巣市,下忍３５６８番地１,,11,217,3690113,,,,,,,2025-07-16,1,,,,,ディスティニーランド,0
525,3030001167725,新規,0,2025-07-16,2025-07-16,株式会社安保設備,,株式会社,埼玉県,川越市,大字下広谷１１９９番地１３０,,11,201,3500804,,,,,,,2025-07-16,1,,,,,アンポセツビ,0
531,3030005022216,新規,0,2025-07-16,2025-07-16,一般社団法人ふるさと大好き全国作文協議会,,その他の設立登記法人,埼玉県,比企郡ときがわ町,大字番匠４４５番地１,,11,349,3550354,,,,,,,2025-07-16,1,,,,,フルサトダイスキゼンコクサクブンキョウギカイ,0
533,3040001139665,新規,0,2025-07-16,2025-07-16,グッドディール株式会社,,株式会社,千葉県,柏市,十余二３８０番地２１丸福ビル１階,,12,217,2770872,,,,,,,2025-07-16,1,,,,,グッドディール,0
534,3040001139673,新規,0,2025-07-16,2025-07-16,株式会社なのはな,,株式会社,千葉県,千葉市稲毛区,稲毛東５丁目１２番２２号,,12,103,2630031,,,,,,,2025-07-16,1,,,,,ナノハナ,0
535,3040001139698,新規,0,2025-07-16,2025-07-16,加盈株式会社,,株式会社,千葉県,千葉市中央区,松ケ丘町４３２番地２ギャレット４１・２０２号,,12,101,2600807,,,,,,,2025-07-16,1,,,,,カエイ,0
536,3040001139707,新規,0,2025-07-16,2025-07-16,ＩＣＯＮ‐ＮＥＧＩ　ＰＨ　ＩＮＣ株式会社,,株式会社,千葉県,八街市,文違３０１番地４８０４,,12,230,2891104,,,,,,,2025-07-16,1,,,,,アイコンネギピーエイチアイエヌシー,0
540,3040003028032,新規,0,2025-07-16,2025-07-16,合同会社６２ミート,,合同会社,千葉県,習志野市,袖ケ浦６丁目３番８号,,12,216,2750021,,,,,,,2025-07-16,1,,,,,ロクジュウニミート,0
557,3070003005994,新規,0,2025-07-16,2025-07-16,ネクストサービス合同会社,,合同会社,群馬県,前橋市,三俣町１丁目４０番地３９,,10,201,3710018,,,,,,,2025-07-16,1,,,,,ネクストサービス,0
561,3110001039437,新規,0,2025-07-16,2025-07-16,株式会社Ｇｒａｎｔ　Ｗｉｓｈｅｓ,,株式会社,新潟県,新潟市中央区,南笹口１丁目１－３８コープオリンピア８０８,,15,103,9500912,,,,,,,2025-07-16,1,,,,,グラントウィッシズ,0
562,3110003005817,新規,0,2025-07-16,2025-07-16,合同会社Ｏｆｆｉｃｅ　Ｐｏｎｏ,,合同会社,新潟県,新潟市西蒲区,曽根２４４番地１,,15,108,9590422,,,,,,,2025-07-16,1,,,,,オフィスポノ,0
566,3120001277688,新規,0,2025-07-16,2025-07-16,方衆株式会社,,株式会社,大阪府,大阪市淀川区,十三本町１丁目１８－７－１００１,,27,123,5320024,,,,,,,2025-07-16,1,,,,,ホウシュウ,0
567,3120001277853,新規,0,2025-07-16,2025-07-16,１９９８株式会社,,株式会社,大阪府,大阪市西成区,長橋２丁目６番４１号清和ハイツ１０１号,,27,122,5570025,,,,,,,2025-07-16,1,,,,,イチキュウキュウハチ,0
568,3120001277894,新規,0,2025-07-16,2025-07-16,千徳株式会社,,株式会社,大阪府,大阪市東成区,大今里３丁目１５番６号ＩｍａｚａｔｏＴｏｗｅｒ５１０Ｂ,,27,115,5370012,,,,,,,2025-07-16,1,,,,,セントク,0
570,3120003030005,新規,0,2025-07-16,2025-07-16,合同会社Ｍａｒｇｕｔｔａ５１,,合同会社,大阪府,大阪市大正区,南恩加島６丁目１２番２号,,27,108,5510021,,,,,,,2025-07-16,1,,,,,マルグッタゴジュウイチ,0
571,3120103006573,新規,0,2025-07-16,2025-07-16,合同会社カネマン,,合同会社,大阪府,羽曳野市,駒ケ谷１０７６番地,,27,222,5830841,,,,,,,2025-07-16,1,,,,,カネマン,0
572,3120105010029,新規,0,2025-07-16,2025-07-16,医療法人ほりうち歯科,,その他の設立登記法人,大阪府,和泉市,太町３３番地の５,,27,219,5940003,,,,,,,2025-07-16,1,,,,,ホリウチシカ,0
573,3120105010037,新規,0,2025-07-16,2025-07-16,医療法人マウスピース矯正大阪,,その他の設立登記法人,大阪府,松原市,高見の里３丁目２番５号,,27,217,5800021,,,,,,,2025-07-16,1,,,,,マウスピースキョウセイオオサカ,0
577,3120905006754,新規,0,2025-07-16,2025-07-16,医療法人西前耳鼻咽喉科,,その他の設立登記法人,大阪府,豊能郡豊能町,東ときわ台７丁目１番地の１２,,27,321,5630103,,,,,,,2025-07-16,1,,,,,ニシマエジビインコウカ,0
580,3122005003839,新規,0,2025-07-16,2025-07-16,医療法人ジオ,,その他の設立登記法人,大阪府,東大阪市,森河内西２丁目２５番１号,,27,227,5770061,,,,,,,2025-07-16,1,,,,,ジオ,0
584,3140001139250,新規,0,2025-07-16,2025-07-16,ＺＡＹＫ株式会社,,株式会社,兵庫県,尼崎市,元浜町４丁目８８番地,,28,202,6600085,,,,,,,2025-07-16,1,,,,,ザイク,0
585,3140003022306,新規,0,2025-07-16,2025-07-16,Ｃａｒ　Ｌａｎｄ合同会社,,合同会社,兵庫県,神戸市西区,神出町古神字丸ヶ岡山１５７番１５１,,28,111,6512302,,,,,,,2025-07-16,1,,,,,カーランド,0
586,3140003022322,新規,0,2025-07-16,2025-07-16,合同会社ＧＯＯＤＭＡＮＳ,,合同会社,兵庫県,神戸市中央区,山本通２丁目２番１３号２０１号室,,28,110,6500003,,,,,,,2025-07-16,1,,,,,グッドマンズ,0
587,3140005027559,新規,0,2025-07-16,2025-07-16,一般社団法人匠の森,,その他の設立登記法人,兵庫県,宝塚市,山本東３丁目１０番１号リーガルコート山本駅前１０２,,28,214,6650881,,,,,,,2025-07-16,1,,,,,タクミノモリ,0
588,3140005027567,新規,0,2025-07-16,2025-07-16,一般社団法人ＥＡＲＴＨ,,その他の設立登記法人,兵庫県,姫路市,飾東町庄７１１－１,,28,201,6710218,,,,,,,2025-07-16,1,,,,,アース,0
590,3150001028262,新規,0,2025-07-16,2025-07-16,株式会社ＮＡＯ,,株式会社,奈良県,橿原市,豊田町２９８番地の４,,29,205,6340842,,,,,,,2025-07-16,1,,,,,ナオ,0
594,3170001018716,新規,0,2025-07-16,2025-07-16,アイム株式会社,,株式会社,和歌山県,和歌山市,井辺１４４－５７,,30,201,6408302,,,,,,,2025-07-16,1,,,,,アイム,0
597,3180001167529,新規,0,2025-07-16,2025-07-16,株式会社Ａｕｒａｌｉｓ,,株式会社,愛知県,名古屋市中区,栄１丁目２２番２号ライオンズ名古屋ビル４０３号室,,23,106,4600008,,,,,,,2025-07-16,1,,,,,オーラリス,0
598,3180001167702,新規,0,2025-07-16,2025-07-16,株式会社山下経営事務所,,株式会社,愛知県,清須市,西枇杷島町宮前２丁目４４番地,,23,233,4520031,,,,,,,2025-07-16,1,,,,,ヤマシタケイエイジムショ,0
599,3180001167727,新規,0,2025-07-16,2025-07-16,株式会社大和,,株式会社,愛知県,一宮市,馬見塚字郷前２９番地１,,23,203,4910874,,,,,,,2025-07-16,1,,,,,ヤマト,0
604,3180003028737,新規,0,2025-07-16,2025-07-16,合同会社クリーンシア,,合同会社,愛知県,知多郡武豊町,字中狭１８番地,,23,447,4702315,,,,,,,2025-07-16,1,,,,,クリーンシア,0
605,3180003028761,新規,0,2025-07-16,2025-07-16,合同会社丈山,,合同会社,愛知県,名古屋市中村区,名駅４丁目２４番５号第２森ビル４０１,,23,105,4500002,,,,,,,2025-07-16,1,,,,,ジョウザン,0
608,3180303006657,新規,0,2025-07-16,2025-07-16,合同会社ＧＡＩＰ,,合同会社,愛知県,西尾市,住吉町３丁目３１－１第１６オーシャンプラザ１号,,23,213,4450851,,,,,,,2025-07-16,1,,,,,ガイプ,0
610,3190003005116,新規,0,2025-07-16,2025-07-16,ロイヤルサハラ合同会社,,合同会社,三重県,鈴鹿市,住吉１丁目２６番１９号,,24,207,5130826,,,,,,,2025-07-16,1,,,,,ロイヤルサハラ,0
612,3200001044023,新規,0,2025-07-16,2025-07-16,株式会社ｍｉｍｏｓａ,,株式会社,岐阜県,羽島郡岐南町,平島９丁目７２番地,,21,302,5016003,,,,,,,2025-07-16,1,,,,,ミモザ,0
613,3200005013783,新規,0,2025-07-16,2025-07-16,一般社団法人川辺スポーツクラブ,,その他の設立登記法人,岐阜県,加茂郡川辺町,比久見７２５番地５,,21,503,5090315,,,,,,,2025-07-16,1,,,,,カワベスポーツクラブ,0
617,3230001021003,新規,0,2025-07-16,2025-07-16,株式会社スマートインター,,株式会社,富山県,富山市,大町１区西部１７７‐１,,16,201,9398073,,,,,,,2025-07-16,1,,,,,スマートインター,0
618,3230003002463,新規,0,2025-07-16,2025-07-16,合同会社ＨＡＲＵ　ＩＮＴＥＲＮＡＴＩＯＮＡＬ,,合同会社,富山県,富山市,東岩瀬村９０番地１,,16,201,9318359,,,,,,,2025-07-16,1,,,,,ハルインターナショナル,0
622,3240005015966,新規,0,2025-07-16,2025-07-16,一般社団法人ベースリテラシーラボ,,その他の設立登記法人,広島県,広島市中区,上八丁堀７－２０庁舎前ビル４０２号,,34,101,7300012,,,,,,,2025-07-16,1,,,,,ベースリテラシーラボ,0
628,3260003005257,新規,0,2025-07-16,2025-07-16,合同会社サスラボ,,合同会社,岡山県,岡山市北区,磨屋町３番１０号,,33,101,7000826,,,,,,,2025-07-16,1,,,,,サスラボ,0
638,3290001110782,新規,0,2025-07-16,2025-07-16,株式会社ｎｅｖａｇｉｖａ,,株式会社,福岡県,福岡市中央区,荒戸２丁目３番３０－１４０３号,,40,133,8100062,,,,,,,2025-07-16,1,,,,,ネバギバ,0
640,3290003017126,新規,0,2025-07-16,2025-07-16,合同会社ＨＡＲＵＫＯ,,合同会社,福岡県,福岡市中央区,春吉２丁目１０－６,,40,133,8100003,,,,,,,2025-07-16,1,,,,,ハルコ,0
656,3350001019646,新規,0,2025-07-16,2025-07-16,株式会社霧菓３１０,,株式会社,宮崎県,都城市,都北町３６２８番地１,,45,202,8850004,,,,,,,2025-07-16,1,,,,,キリカサンイチマル,0
659,3360001035493,新規,0,2025-07-16,2025-07-16,株式会社ＳＥＡＢＵＳＳ,,株式会社,沖縄県,中頭郡嘉手納町,字嘉手納５４８番地４Ｍ’ｓビル２Ｆ,,47,325,9040203,,,,,,,2025-07-16,1,,,,,シーバス,0
668,3430001094904,新規,0,2025-07-16,2025-07-16,大地のたね株式会社,,株式会社,北海道,札幌市中央区,北四条西１５丁目１番地２１パークホームズ北四条知事公館前９０４号,,01,101,0600004,,,,,,,2025-07-16,1,,,,,ダイチノタネ,0
686,4010001256859,新規,0,2025-07-16,2025-07-16,ＪＰＧ第８号株式会社,,株式会社,東京都,千代田区,霞が関３丁目２番１号,,13,101,1000013,,,,,,,2025-07-16,1,,,,,ジェイピージーダイハチゴウ,0
687,4010001256966,新規,0,2025-07-16,2025-07-16,株式会社ラベニール,,株式会社,東京都,中央区,日本橋蛎殻町１丁目２７番８－２０３号,,13,102,1030014,,,,,,,2025-07-16,1,,,,,ラベニール,0
692,4010003048065,新規,0,2025-07-16,2025-07-16,ＡＬＣＡ合同会社,,合同会社,東京都,千代田区,神田須田町１丁目７番８号ＶＯＲＴ秋葉原ＩＶ２Ｆ,00139961,13,101,1010041,,,,,,,2025-07-16,1,,,,,オルカ,0
694,4010101016766,新規,0,2025-07-16,2025-07-16,ＭＡＮＴＲＡ株式会社,,株式会社,東京都,八王子市,緑町２９コミネアパート２０３,,13,201,1930932,,,,,,,2025-07-16,1,,,,,マントラ,0
698,4010401191499,新規,0,2025-07-16,2025-07-16,ｌｅｇａｔｏ株式会社,,株式会社,東京都,港区,北青山１丁目３－３三橋ビル３階,,13,103,1070061,,,,,,,2025-07-16,1,,,,,レガート,0
699,4010401191581,新規,0,2025-07-16,2025-07-16,株式会社Ａｇｕａｃａｔｅ,,株式会社,東京都,港区,南麻布４丁目５番４７号,,13,103,1060047,,,,,,,2025-07-16,1,,,,,アグアカテ,0
700,4010401191755,新規,0,2025-07-16,2025-07-16,九州支援機構株式会社,,株式会社,東京都,港区,赤坂２丁目３番５号赤坂スターゲートプラザ１３階,,13,103,1070052,,,,,,,2025-07-16,1,,,,,キュウシュウシエンキコウ,0
702,4010403035596,新規,0,2025-07-16,2025-07-16,ディアトーキョー合同会社,,合同会社,東京都,港区,海岸３丁目２０番２０号,,13,103,1080022,,,,,,,2025-07-16,1,,,,,ディアトーキョー,0
704,4010501054424,新規,0,2025-07-16,2025-07-16,ミンナコンサル株式会社,,株式会社,東京都,台東区,松が谷２丁目１５番８号浅草Ｋ２ビル２０８号室,,13,106,1110036,,,,,,,2025-07-16,1,,,,,ミンナコンサル,0
709,4010601067623,新規,0,2025-07-16,2025-07-16,秀株式会社,,株式会社,東京都,江東区,豊洲５丁目１番１３－１８１８号,,13,108,1350061,,,,,,,2025-07-16,1,,,,,シュウ,0
718,4011001171115,新規,0,2025-07-16,2025-07-16,極東企画株式会社山根健史事務所,,株式会社,東京都,渋谷区,本町２丁目３番１－８５号,,13,113,1510071,,,,,,,2025-07-16,1,,,,,キョクトウキカクヤマネタケシジムショ,0
719,4011003022043,新規,0,2025-07-16,2025-07-16,岸田合同会社,,合同会社,東京都,目黒区,青葉台３丁目５番３２号Ｍ３－ＩＩ,00139950,13,110,1530042,,,,,,,2025-07-16,1,,,,,キシダ,0
724,4011101112357,新規,0,2025-07-16,2025-07-16,株式会社ａｙａｎｏｈａ,,株式会社,東京都,新宿区,新宿３丁目１２番４号新宿Ｎタウンプラザ３０９号,,13,104,1600022,,,,,,,2025-07-16,1,,,,,アヤノハ,0
725,4011101112365,新規,0,2025-07-16,2025-07-16,東京エコテック株式会社,,株式会社,東京都,新宿区,富久町３２－３東新富久町ビル３０４,,13,104,1620067,,,,,,,2025-07-16,1,,,,,トウキョウエコテック,0
726,4011101112398,新規,0,2025-07-16,2025-07-16,株式会社ダイブ分割準備会社１号,,株式会社,東京都,新宿区,新宿２丁目８番１号,,13,104,1600022,,,,,,,2025-07-16,1,,,,,ダイブブンカツジュンビガイシャイチゴウ,0
727,4011101112480,新規,0,2025-07-16,2025-07-16,株式会社ＩＥＳマネジメント,,株式会社,東京都,新宿区,矢来町８５番地,,13,104,1620805,,,,,,,2025-07-16,1,,,,,アイイーエスマネジメント,0
731,4011105011497,新規,0,2025-07-16,2025-07-16,一般社団法人カラトクロス,,その他の設立登記法人,東京都,新宿区,西新宿３丁目３番１３号西新宿水間ビル２Ｆ,,13,104,1600023,,,,,,,2025-07-16,1,,,,,カラトクロス,0
732,4011401027255,新規,0,2025-07-16,2025-07-16,株式会社稻田商事,,株式会社,東京都,板橋区,東山町３７－１５,,13,119,1740073,,,,,,,2025-07-16,1,,,,,イナタショウジ,0
733,4011501032329,新規,0,2025-07-16,2025-07-16,合志株式会社,,株式会社,東京都,北区,赤羽３丁目３－３ドミール赤羽ビル４０８,,13,117,1150045,,,,,,,2025-07-16,1,,,,,ゴウシ,0
734,4011503006611,新規,0,2025-07-16,2025-07-16,エントリー合同会社,,合同会社,東京都,荒川区,西尾久７丁目５３番１０号,,13,118,1160011,,,,,,,2025-07-16,1,,,,,エントリー,0
737,4011701028523,新規,0,2025-07-16,2025-07-16,株式会社アレグリア,,株式会社,東京都,江戸川区,北篠崎２丁目１５番１３号－２０３,,13,123,1330053,,,,,,,2025-07-16,1,,,,,アレグリア,0
738,4011703004316,新規,0,2025-07-16,2025-07-16,ＫＫ　Ｒｅｓｉｄｅｎｃｙ合同会社,,合同会社,東京都,江戸川区,北葛西２丁目１１番３７号,,13,123,1340081,,,,,,,2025-07-16,1,,,,,ケーケーレジデンシー,0
740,4012301014467,新規,0,2025-07-16,2025-07-16,越勝株式会社,,株式会社,東京都,町田市,小川１丁目２８９番地２－２０１,,13,209,1940003,,,,,,,2025-07-16,1,,,,,コシガチ,0
745,4012403007237,新規,0,2025-07-16,2025-07-16,合同会社ＣｙｂｅｒＴａｔｅ,,合同会社,東京都,狛江市,猪方３丁目２－１５,,13,219,2010015,,,,,,,2025-07-16,1,,,,,,0
751,4013101009748,新規,0,2025-07-16,2025-07-16,株式会社ポーラスター,,株式会社,東京都,西多摩郡日の出町,大字平井２１３番地１６,,13,305,1900182,,,,,,,2025-07-16,1,,,,,ポーラスター,0
759,4020003028909,新規,0,2025-07-16,2025-07-16,合同会社ＸＹＺ,,合同会社,神奈川県,横浜市神奈川区,菅田町１５７１番地１５号,,14,102,2210864,,,,,,,2025-07-16,1,,,,,エックスワイジー,0
760,4020003028933,新規,0,2025-07-16,2025-07-16,ＰＥＲＳＯＮＡ　ｌａｂｏ合同会社,,合同会社,神奈川県,横浜市神奈川区,西寺尾４丁目２８－２８,,14,102,2210001,,,,,,,2025-07-16,1,,,,,ペルソナラボ,0
761,4020003028966,新規,0,2025-07-16,2025-07-16,ＭｏｋｕＳｅｔｕ　Ｇｒｏｕｐ合同会社,,合同会社,神奈川県,横浜市緑区,霧が丘５丁目１６－１５,,14,113,2260016,,,,,,,2025-07-16,1,,,,,モクセツグループ,0
764,4021001085743,新規,0,2025-07-16,2025-07-16,株式会社ＰＲＩＹＡ　ＣＯＲＰＯＲＡＴＩＯＮ,,株式会社,神奈川県,横須賀市,若松町３丁目４,,14,201,2380007,,,,,,,2025-07-16,1,,,,,ピーリヤコーポレーション,0
765,4021001085751,新規,0,2025-07-16,2025-07-16,株式会社エコポジ,,株式会社,神奈川県,茅ヶ崎市,新栄町７－５ＣｈｉｇａｓａｋｉＢｉｚ－ｎａｚ３Ｆ,,14,207,2530044,,,,,,,2025-07-16,1,,,,,エコポジ,0
766,4021001085776,新規,0,2025-07-16,2025-07-16,松庭園株式会社,,株式会社,神奈川県,横須賀市,東逸見町３丁目２４番地９,,14,201,2380045,,,,,,,2025-07-16,1,,,,,マツバエン,0
767,4021001085784,新規,0,2025-07-16,2025-07-16,株式会社横浜食品商事,,株式会社,神奈川県,相模原市南区,下溝３２４番地１０,,14,153,2520335,,,,,,,2025-07-16,1,,,,,ヨコハマショクヒンショウジ,0
768,4021001085801,新規,0,2025-07-16,2025-07-16,穂高株式会社,,株式会社,神奈川県,大和市,草柳１丁目１９番地９田園リビングマート１５号室,,14,213,2420026,,,,,,,2025-07-16,1,,,,,ホタカ,0
769,4021001085826,新規,0,2025-07-16,2025-07-16,株式会社真寿,,株式会社,神奈川県,鎌倉市,台１９８０番地２０,,14,204,2470061,,,,,,,2025-07-16,1,,,,,マス,0
770,4021001085834,新規,0,2025-07-16,2025-07-16,鎌倉山千葉農園株式会社,,株式会社,神奈川県,鎌倉市,稲村ガ崎３丁目５番６号海竹庵,,14,204,2480024,,,,,,,2025-07-16,1,,,,,カマクラヤマチバノウエン,0
778,4030001167699,新規,0,2025-07-16,2025-07-16,茂義株式会社,,株式会社,埼玉県,川口市,西川口１丁目３０番２０－４０６室,,11,203,3320021,,,,,,,2025-07-16,1,,,,,シゲヨシ,0
783,4030003027208,新規,0,2025-07-16,2025-07-16,合同会社ネイマール,,合同会社,埼玉県,さいたま市大宮区,仲町３丁目５０－１コンフォートマンション仲町２階１０２６号室,,11,103,3300845,,,,,,,2025-07-16,1,,,,,ネイマール,0
784,4030005022215,新規,0,2025-07-16,2025-07-16,行政書士法人ロータス,,その他の設立登記法人,埼玉県,さいたま市北区,櫛引町２丁目１６２番地,,11,102,3310825,,,,,,,2025-07-16,1,,,,,ロータス,0
786,4040001139656,新規,0,2025-07-16,2025-07-16,株式会社ロータス,,株式会社,千葉県,市川市,平田３丁目４番３－３０２号,,12,203,2720031,,,,,,,2025-07-16,1,,,,,ロータス,0
787,4040001139689,新規,0,2025-07-16,2025-07-16,アスノート株式会社,,株式会社,千葉県,千葉市緑区,おゆみ野中央９丁目１－７０,,12,105,2660032,,,,,,,2025-07-16,1,,,,,アスノート,0
789,4040003028106,新規,0,2025-07-16,2025-07-16,合同会社Ａｕｒｙ,,合同会社,千葉県,木更津市,ほたる野１丁目４番地４,,12,206,2920038,,,,,,,2025-07-16,1,,,,,オーリー,0
797,4070001043153,新規,0,2025-07-16,2025-07-16,ｓｔｅｅｒｐｌｕｓ株式会社,,株式会社,群馬県,高崎市,東貝沢三丁目２－１３ｒｉｄｇｅ．Ｗｅｓｔ２０３,,10,202,3700000,,,,,,,2025-07-16,1,,,,,ステアプラス,0
803,4080005007707,新規,0,2025-07-16,2025-07-16,一般社団法人デジタル活用促進協会,,その他の設立登記法人,静岡県,静岡市葵区,安東３丁目３番２４号,,22,101,4200882,,,,,,,2025-07-16,1,,,,,デジタルカツヨウソクシンキョウカイ,0
807,4100003008290,新規,0,2025-07-16,2025-07-16,合同会社Ａｉｌｅ,,合同会社,長野県,飯田市,上郷黒田５６７－１,,20,205,3950004,,,,,,,2025-07-16,1,,,,,エール,0
809,4110001039436,新規,0,2025-07-16,2025-07-16,新潟エアセレスト株式会社,,株式会社,新潟県,上越市,本町４丁目１番７号ｂｉｂｉｔビル,,15,222,9430832,,,,,,,2025-07-16,1,,,,,ニイガタエアセレスト,0
818,4120001277687,新規,0,2025-07-16,2025-07-16,聚牛株式会社,,株式会社,大阪府,大阪市淀川区,十三本町１丁目１８－７－９０２,,27,123,5320024,,,,,,,2025-07-16,1,,,,,シュギュウ,0
819,4120001277893,新規,0,2025-07-16,2025-07-16,ＯＬＹＭＭＯＮＳ株式会社,,株式会社,大阪府,大阪市中央区,松屋町９番２０号ローレルステート松屋町４０７Ｂ,,27,128,5420067,,,,,,,2025-07-16,1,,,,,オリモンズ,0
820,4120001277943,新規,0,2025-07-16,2025-07-16,Ｉｌｌｕｍｉｎａｒｅ株式会社,,株式会社,大阪府,大阪市東住吉区,東田辺３丁目１番１号４Ｆ－Ａ,,27,121,5460032,,,,,,,2025-07-16,1,,,,,イルミナーレ,0
824,4120003030020,新規,0,2025-07-16,2025-07-16,合同会社エーバイユー,,合同会社,大阪府,大阪市北区,梅田２丁目５番１３号桜橋第一ビル３０４号,,27,127,5300001,,,,,,,2025-07-16,1,,,,,エーバイユー,0
825,4120003030037,新規,0,2025-07-16,2025-07-16,詩航千里ラボ合同会社,,合同会社,大阪府,大阪市北区,菅栄町１０番１１－５０２号,,27,127,5300031,,,,,,,2025-07-16,1,,,,,シコウセンリラボ,0
827,4120101072071,新規,0,2025-07-16,2025-07-16,株式会社ミネルヴァの樹,,株式会社,大阪府,堺市堺区,七条通３番１５号,,27,141,5900042,,,,,,,2025-07-16,1,,,,,ミネルヴァノキ,0
828,4120101072105,新規,0,2025-07-16,2025-07-16,株式会社ＮＩＮＥ‐Ｃ,,株式会社,大阪府,大阪狭山市,半田１丁目６２０番地の４、Ｋ’Ｓ・ＢＬＤ金剛,,27,231,5890011,,,,,,,2025-07-16,1,,,,,ナインシー,0
834,4130001080090,新規,0,2025-07-16,2025-07-16,鴻拓株式会社,,株式会社,京都府,京都市南区,吉祥院中島町３０番地５７,,26,107,6018313,,,,,,,2025-07-16,1,,,,,コウタク,0
835,4130003010616,新規,0,2025-07-16,2025-07-16,合同会社メゾン・レプロン,,合同会社,京都府,京都市左京区,岩倉木野町２５１番地２８,,26,103,6060016,,,,,,,2025-07-16,1,,,,,メゾンレプロン,0
839,4140001139258,新規,0,2025-07-16,2025-07-16,株式会社えんがわ,,株式会社,兵庫県,川西市,鼓が滝１丁目１８番１０号,,28,217,6660123,,,,,,,2025-07-16,1,,,,,エンガワ,0
840,4140001139365,新規,0,2025-07-16,2025-07-16,グローストラスト株式会社,,株式会社,兵庫県,尼崎市,東園田町７丁目６番地の１レピア東園田ＥＡＳＴ３０９号,,28,202,6610953,,,,,,,2025-07-16,1,,,,,グローストラスト,0
841,4140003022321,新規,0,2025-07-16,2025-07-16,合同会社くろーばー,,合同会社,兵庫県,神戸市北区,西大池２丁目２１番５９号,,28,109,6511201,,,,,,,2025-07-16,1,,,,,クローバー,0
848,4170001018715,新規,0,2025-07-16,2025-07-16,株式会社オウバース,,株式会社,和歌山県,橋本市,市脇１丁目３番１８号,,30,203,6480073,,,,,,,2025-07-16,1,,,,,オウバース,0
850,4180001167602,新規,0,2025-07-16,2025-07-16,株式会社わらいびと,,株式会社,愛知県,名古屋市北区,御成通２丁目９番地の２,,23,103,4620807,,,,,,,2025-07-16,1,,,,,ワライビト,0
851,4180001167734,新規,0,2025-07-16,2025-07-16,株式会社ＡＭプランニング,,株式会社,愛知県,愛西市,渕高町明六２４番地３,,23,232,4968018,,,,,,,2025-07-16,1,,,,,エーエムプランニング,0
852,4180001167809,新規,0,2025-07-16,2025-07-16,Ｈｏｐｅｌｅｔ株式会社,,株式会社,愛知県,春日井市,森山田町６８番地１,,23,206,4860935,,,,,,,2025-07-16,1,,,,,ホープレット,0
857,4180003028736,新規,0,2025-07-16,2025-07-16,合同会社栄志,,合同会社,愛知県,津島市,東柳原町１丁目３７番地１,,23,208,4960045,,,,,,,2025-07-16,1,,,,,エイシ,0
862,4190001032326,新規,0,2025-07-16,2025-07-16,株式会社中尾組絆,,株式会社,三重県,伊賀市,生琉里３１５０番地の２フィオーレＡ２０１,,24,216,5180821,,,,,,,2025-07-16,1,,,,,ナカオグミキズナ,0
863,4190001032375,新規,0,2025-07-16,2025-07-16,株式会社さかのした農園,,株式会社,三重県,津市,新家町１５５３番地,,24,201,5141116,,,,,,,2025-07-16,1,,,,,サカノシタノウエン,0
866,4200003006920,新規,0,2025-07-16,2025-07-16,合同会社インフィニティリンク,,合同会社,岐阜県,岐阜市,東島１丁目１１番１０号,,21,201,5020913,,,,,,,2025-07-16,1,,,,,インフィニティリンク,0
875,4240003007304,新規,0,2025-07-16,2025-07-16,合同会社キーヨッツ,,合同会社,広島県,廿日市市,地御前２１８番地３０,,34,213,7380042,,,,,,,2025-07-16,1,,,,,キーヨッツ,0
883,4290001110765,新規,0,2025-07-16,2025-07-16,日の丸産業株式会社,,株式会社,福岡県,福岡市東区,奈多１丁目１番７号,,40,131,8110204,,,,,,,2025-07-16,1,,,,,ヒノマルサンギョウ,0
899,4330005010932,新規,0,2025-07-16,2025-07-16,一般社団法人フォレスト・ファム,,その他の設立登記法人,熊本県,熊本市東区,若葉６丁目３番６号,,43,102,8612103,,,,,,,2025-07-16,1,,,,,フォレストファム,0
905,4360003015071,新規,0,2025-07-16,2025-07-16,合同会社ＭＳプロモーション,,合同会社,沖縄県,宜野湾市,宇地泊２丁目１０番３５－６０３号,,47,205,9012227,,,,,,,2025-07-16,1,,,,,エムエスプロモーション,0
915,4410001014227,新規,0,2025-07-16,2025-07-16,株式会社秋田人形,,株式会社,秋田県,秋田市,東通７丁目７番７号,,05,201,0100003,,,,,,,2025-07-16,1,,,,,アキタニンギョウ,0
916,4410003004127,新規,0,2025-07-16,2025-07-16,合同会社ＨＯＮＴＯＮＯＤＥＡＩ,,合同会社,秋田県,秋田市,楢山川口境９番４号,,05,201,0100029,,,,,,,2025-07-16,1,,,,,ホントノデアイ,0
921,4430001094812,新規,0,2025-07-16,2025-07-16,株式会社ＬＵＮＡＢＯＷ,,株式会社,北海道,札幌市南区,石山一条２丁目４番５０－８１２号,,01,106,0050841,,,,,,,2025-07-16,1,,,,,ルナボウ,0
929,5010001256395,新規,0,2025-07-16,2025-07-16,株式会社キャピタル・ストラテジー・コンサルティング,,株式会社,東京都,千代田区,紀尾井町１番３号東京ガーデンテラス紀尾井町紀尾井タワー１３Ｆ,,13,101,1020094,,,,,,,2025-07-16,1,,,,,キャピタルストラテジーコンサルティング,0
930,5010001256858,新規,0,2025-07-16,2025-07-16,ＪＰＧ第７号株式会社,,株式会社,東京都,千代田区,霞が関３丁目２番１号,,13,101,1000013,,,,,,,2025-07-16,1,,,,,ジェイピージーダイナナゴウ,0
931,5010001256890,新規,0,2025-07-16,2025-07-16,ＮａＲａＮ株式会社,,株式会社,東京都,千代田区,神田平河町１番地,,13,101,1010027,,,,,,,2025-07-16,1,,,,,ナラン,0
932,5010003048048,新規,0,2025-07-16,2025-07-16,合同会社ＫＡＤＡ,,合同会社,東京都,中央区,銀座７丁目１３番６号サガミビル２階,,13,102,1040061,,,,,,,2025-07-16,1,,,,,カダ,0
933,5010005040374,新規,0,2025-07-16,2025-07-16,アストロ２一般社団法人,,その他の設立登記法人,東京都,中央区,銀座１丁目６番１１号アースタックス税理士法人内,,13,102,1040061,,,,,,,2025-07-16,1,,,,,アストロツー,0
940,5010401191655,新規,0,2025-07-16,2025-07-16,株式会社ドリームファクトリージャパンエージェント,,株式会社,東京都,港区,北青山１丁目３番１号アールキューブ青山３階,,13,103,1070061,,,,,,,2025-07-16,1,,,,,ドリームファクトリージャパンエージェント,0
941,5010401191754,新規,0,2025-07-16,2025-07-16,株式会社ＤリーグＡＣＡＤＥＭＹ,,株式会社,東京都,港区,西麻布３丁目２０番１６号西麻布アネックスビル,,13,103,1060031,,,,,,,2025-07-16,1,,,,,ディーリーグアカデミー,0
942,5010401191812,新規,0,2025-07-16,2025-07-16,ＣＶＸ　Ｐａｒｔｎｅｒ株式会社,,株式会社,東京都,港区,北青山１丁目３－３三橋ビル３階,,13,103,1070061,,,,,,,2025-07-16,1,,,,,シーブイエックスパートナー,0
946,5010803005470,新規,0,2025-07-16,2025-07-16,合同会社Ｙｕｓｈｉｎ,,合同会社,東京都,大田区,大森北１丁目３４－９－１１０３,,13,111,1430016,,,,,,,2025-07-16,1,,,,,ユーシン,0
949,5011001171254,新規,0,2025-07-16,2025-07-16,株式会社Ｒｏｕｔｅｓ,,株式会社,東京都,渋谷区,円山町５－３ＭＩＥＵＸ渋谷ビル８Ｆ,,13,113,1500044,,,,,,,2025-07-16,1,,,,,ルーツ,0
950,5011101112356,新規,0,2025-07-16,2025-07-16,株式会社コネクト・アソシエイツ,,株式会社,東京都,新宿区,西新宿３丁目３番１３号西新宿水間ビル６階,,13,104,1600023,,,,,,,2025-07-16,1,,,,,コネクトアソシエイツ,0
952,5011103016159,新規,0,2025-07-16,2025-07-16,ｅｄｕａｉｄ　Ｊａｐａｎ合同会社,,合同会社,東京都,新宿区,西新宿７丁目１７番１４号,,13,104,1600023,,,,,,,2025-07-16,1,,,,,エデュエイドジャパン,0
956,5011701028480,新規,0,2025-07-16,2025-07-16,ＫＳＴホールディングス株式会社,,株式会社,東京都,江戸川区,東小岩６丁目３３－１８ＺＫＹビル１０９号室,,13,123,1330052,,,,,,,2025-07-16,1,,,,,ケイエスティーホールディングス,0
957,5011701028530,新規,0,2025-07-16,2025-07-16,Ｓｇｒリアルティ株式会社,,株式会社,東京都,江戸川区,西葛西５丁目６番１２号グッド・フィールド５０２号,,13,123,1340088,,,,,,,2025-07-16,1,,,,,エスジーアールリアルティ,0
958,5011703004315,新規,0,2025-07-16,2025-07-16,合同会社Ｐｉｐｐｉ,,合同会社,東京都,江戸川区,東葛西４丁目４０番７号,,13,123,1340084,,,,,,,2025-07-16,1,,,,,ピッピ,0
959,5011703004323,新規,0,2025-07-16,2025-07-16,スターウェイブスコーポレーション合同会社,,合同会社,東京都,江戸川区,清新町２丁目４番６号,,13,123,1340087,,,,,,,2025-07-16,1,,,,,スターウェイブスコーポレーション,0
960,5011801046465,新規,0,2025-07-16,2025-07-16,農業法人デリカファーム株式会社,,株式会社,東京都,足立区,六町４丁目１２番１２号,,13,121,1210073,,,,,,,2025-07-16,1,,,,,ノウギョウホウジンデリカファーム,0
971,5013303007763,新規,0,2025-07-16,2025-07-16,ＢＶＩＩＭ合同会社,,合同会社,東京都,豊島区,池袋２丁目１６番１４号ＫＤビル,,13,116,1710014,,,,,,,2025-07-16,1,,,,,ビーム,0
978,5020001163896,新規,0,2025-07-16,2025-07-16,ＢＨＳ　Ｔｒａｄｉｎｇ　Ｊａｐａｎ株式会社,,株式会社,神奈川県,横浜市港南区,野庭町６１８－３－３２３,,14,111,2340056,,,,,,,2025-07-16,1,,,,,ビーエイチエストレーディングジャパン,0
979,5020001163905,新規,0,2025-07-16,2025-07-16,株式会社Ｐｉｘ,,株式会社,神奈川県,横浜市磯子区,氷取沢町１５０番地４号５棟１１０号,,14,107,2350043,,,,,,,2025-07-16,1,,,,,ピックス,0
985,5020005016927,新規,0,2025-07-16,2025-07-16,一般社団法人ネパール日本協力会,,その他の設立登記法人,神奈川県,横浜市神奈川区,菅田町６０５番地１,,14,102,2210864,,,,,,,2025-07-16,1,,,,,ネパールニホンキョウリョクカイ,0
992,5021001085742,新規,0,2025-07-16,2025-07-16,株式会社カタリベ,,株式会社,神奈川県,相模原市緑区,原宿４丁目７番４７号,,14,151,2520102,,,,,,,2025-07-16,1,,,,,カタリベ,0
994,5021003016274,新規,0,2025-07-16,2025-07-16,合同会社Ｒｉｐｐｌｅ,,合同会社,神奈川県,茅ヶ崎市,浜竹３丁目４番５７号,,14,207,2530021,,,,,,,2025-07-16,1,,,,,リプル,0
995,5021003016282,新規,0,2025-07-16,2025-07-16,ＭＨ　ＴＲＡＤＩＮＧ合同会社,,合同会社,神奈川県,座間市,相模が丘２丁目３１番２７号,,14,216,2520001,,,,,,,2025-07-16,1,,,,,エムエッチトレーディング,0
997,5030001167649,新規,0,2025-07-16,2025-07-16,株式会社ｅｘ‐ｗｏｒｋｓ,,株式会社,埼玉県,北足立郡伊奈町,栄２丁目１２６番地３,,11,301,3620805,,,,,,,2025-07-16,1,,,,,エクスワークス,0
998,5030001167657,新規,0,2025-07-16,2025-07-16,株式会社桜成,,株式会社,埼玉県,朝霞市,膝折町４丁目９番３号,,11,227,3510014,,,,,,,2025-07-16,1,,,,,オウセイ,0
999,5030001167681,新規,0,2025-07-16,2025-07-16,株式会社ＥＸパートナー,,株式会社,埼玉県,白岡市,千駄野７２６番地１ユーミーシャイン２０３,,11,246,3490215,,,,,,,2025-07-16,1,,,,,エクスパートナー,0
1005,5040001139647,新規,0,2025-07-16,2025-07-16,株式会社Ｒｅ,,株式会社,千葉県,市原市,能満１９２７番地４４,,12,219,2900011,,,,,,,2025-07-16,1,,,,,アールイー,0
1006,5040001139705,新規,0,2025-07-16,2025-07-16,株式会社オフィスアスカ,,株式会社,千葉県,流山市,松ケ丘２丁目３２０番地４６,,12,220,2700141,,,,,,,2025-07-16,1,,,,,オフィスアスカ,0
1011,5040003028039,新規,0,2025-07-16,2025-07-16,よすがプロダクション合同会社,,合同会社,千葉県,市川市,富浜２丁目１３番１７号,,12,203,2720115,,,,,,,2025-07-16,1,,,,,ヨスガプロダクション,0
1019,5060003005647,新規,0,2025-07-16,2025-07-16,ＰＤ　ＣＯＲＰＯＲＡＴＩＯＮ合同会社,,合同会社,栃木県,栃木市,大平町富田３９２番地９マルベリー大平４０２,,09,203,3294404,,,,,,,2025-07-16,1,,,,,ピデコーポレーション,0
1025,5070001043152,新規,0,2025-07-16,2025-07-16,ＪＡＰＡＮ　ＴＲＡＤＥ　ＩＮＴＥＲＮＡＴＩＯＮＡＬ株式会社,,株式会社,群馬県,伊勢崎市,赤堀今井町２丁目１２３６－２１ピノヴィラッジオＡ２０１,,10,204,3792215,,,,,,,2025-07-16,1,,,,,ジャパントレードインターナショナル,0
1027,5080003003509,新規,0,2025-07-16,2025-07-16,合同会社ＮＯＴＡｄｅｓｉｇｎ,,合同会社,静岡県,静岡市駿河区,寺田１５７番地の１,,22,102,4210137,,,,,,,2025-07-16,1,,,,,ノータデザイン,0
1037,5110001039435,新規,0,2025-07-16,2025-07-16,リアルフィールド株式会社,,株式会社,新潟県,村上市,堀片６－５,,15,212,9580833,,,,,,,2025-07-16,1,,,,,リアルフィールド,0
1039,5120001277579,新規,0,2025-07-16,2025-07-16,ＬＳＴ株式会社,,株式会社,大阪府,大阪市西区,立売堀１丁目２番１４号,,27,106,5500012,,,,,,,2025-07-16,1,,,,,エルエスティー,0
1040,5120001277686,新規,0,2025-07-16,2025-07-16,泛海株式会社,,株式会社,大阪府,大阪市淀川区,十三本町１丁目１８－７－１００２,,27,123,5320024,,,,,,,2025-07-16,1,,,,,ハンカイ,0
1041,5120001277769,新規,0,2025-07-16,2025-07-16,株式会社ヴェルシア,,株式会社,大阪府,大阪市鶴見区,放出東３丁目２１番４０号ローレルコート放出２０５号,,27,124,5380044,,,,,,,2025-07-16,1,,,,,ヴェルシア,0
1042,5120001277868,新規,0,2025-07-16,2025-07-16,株式会社ｈｏｏｄ,,株式会社,大阪府,大阪市鶴見区,放出東３丁目２１－４０ローレルコート放出２０５,,27,124,5380044,,,,,,,2025-07-16,1,,,,,フッド,0
1043,5120001277884,新規,0,2025-07-16,2025-07-16,株式会社Ｍａｒｏｖｅｎｔｕｒｅ,,株式会社,大阪府,大阪市中央区,南船場１丁目１１番９号長堀八千代ビル４階Ｊ号室,,27,128,5420081,,,,,,,2025-07-16,1,,,,,マロベンチャー,0
1044,5120001277918,新規,0,2025-07-16,2025-07-16,ＡＱＵＡ　Ｔｅｃｈｎｏｌｏｇｉｅｓ株式会社,,株式会社,大阪府,枚方市,茄子作北町４５－３０－１１０９,,27,210,5730083,,,,,,,2025-07-16,1,,,,,アクアテクノロジーズ,0
1045,5120001277967,新規,0,2025-07-16,2025-07-16,株式会社柏の森不動産,,株式会社,大阪府,大阪市北区,西天満３丁目１３番２０号ＡＳビル６階,,27,127,5300047,,,,,,,2025-07-16,1,,,,,カヤノモリフドウサン,0
1047,5120003030011,新規,0,2025-07-16,2025-07-16,合同会社ＡＲＴ　ＷＯＲＫＳ,,合同会社,大阪府,大阪市福島区,海老江７丁目３番１７号,,27,103,5530001,,,,,,,2025-07-16,1,,,,,アートワークス,0
1048,5120101072062,新規,0,2025-07-16,2025-07-16,株式会社ＬＩＭ　Ｃｏｎｓｕｌｔｉｎｇ,,株式会社,大阪府,堺市堺区,西永山園１番８号Ａ２０１号,,27,141,5900032,,,,,,,2025-07-16,1,,,,,リムコンサルティング,0
1049,5120101072112,新規,0,2025-07-16,2025-07-16,株式会社Ｄ２ＤＥＣＯＲ,,株式会社,大阪府,松原市,東新町２丁目１３９番地の６,,27,217,5800024,,,,,,,2025-07-16,1,,,,,ディーツーデコール,0
1051,5120103006571,新規,0,2025-07-16,2025-07-16,合同会社ルミリウム,,合同会社,大阪府,富田林市,梅の里１丁目１３番１７号,,27,214,5840001,,,,,,,2025-07-16,1,,,,,ルミリウム,0
1058,5130001080107,新規,0,2025-07-16,2025-07-16,ＳＴＡＲＲｉ株式会社,,株式会社,京都府,京都市北区,衣笠赤阪町１番地５－２０１号室,,26,101,6038486,,,,,,,2025-07-16,1,,,,,スターリ,0
1059,5130001080180,新規,0,2025-07-16,2025-07-16,株式会社Ｔｅｎｔｅｎ　Ｔｒａｄｉｎｇ,,株式会社,京都府,京都市中京区,壬生松原町３１番地６,,26,104,6048823,,,,,,,2025-07-16,1,,,,,テンテントレーディング,0
1065,5140001139232,新規,0,2025-07-16,2025-07-16,Ｗｉｎｗａｙ株式会社,,株式会社,兵庫県,神戸市中央区,旭通１丁目２－１７－３Ｃ,,28,110,6510095,,,,,,,2025-07-16,1,,,,,ウィンウェイ,0
1066,5140001139265,新規,0,2025-07-16,2025-07-16,Ｊ＆Ｈ株式会社,,株式会社,兵庫県,神戸市灘区,記田町５丁目１番５－２号,,28,102,6570034,,,,,,,2025-07-16,1,,,,,ジェイアンドエイチ,0
1067,5140001139315,新規,0,2025-07-16,2025-07-16,株式会社ＪＭＮ,,株式会社,兵庫県,伊丹市,桜ケ丘２丁目２番２７号,,28,207,6640897,,,,,,,2025-07-16,1,,,,,ジェイエムエヌ,0
1068,5140001139323,新規,0,2025-07-16,2025-07-16,株式会社ＣＬＡＶＥＬ,,株式会社,兵庫県,神戸市中央区,元町通１丁目１４－１３ＢＥＡＲＥ元町通６Ａ,,28,110,6500022,,,,,,,2025-07-16,1,,,,,クラベル,0
1071,5160001026890,新規,0,2025-07-16,2025-07-16,株式会社ＳＰＭ,,株式会社,滋賀県,甲賀市,水口町東林口５番６号,,25,209,5280026,,,,,,,2025-07-16,1,,,,,エスピーエム,0
1072,5170003002245,新規,0,2025-07-16,2025-07-16,Ｌ．Ｑ．Ｊ合同会社,,合同会社,和歌山県,岩出市,荊本５３番地の１０,,30,209,6496232,,,,,,,2025-07-16,1,,,,,エルキュウジェイ,0
1077,5180001167790,新規,0,2025-07-16,2025-07-16,中村建設株式会社,,株式会社,愛知県,名古屋市守山区,大森八龍１丁目２００２番地の２,,23,113,4630028,,,,,,,2025-07-16,1,,,,,ナカムラケンセツ,0
1082,5180003028727,新規,0,2025-07-16,2025-07-16,合同会社ＢｅＴｈｅＨＥＲＯ,,合同会社,愛知県,名古屋市中区,丸の内２丁目１－３６ＮＵＰフジサワ丸の内ビル８３０,,23,106,4600002,,,,,,,2025-07-16,1,,,,,ビーザヒーロー,0
1083,5190001032374,新規,0,2025-07-16,2025-07-16,株式会社寺田注連縄,,株式会社,三重県,松阪市,伊勢寺町８０６番地,,24,204,5150845,,,,,,,2025-07-16,1,,,,,テラダシメナワ,0
1084,5200001044038,新規,0,2025-07-16,2025-07-16,株式会社オブリージュ,,株式会社,岐阜県,多治見市,田代町２丁目２１番地の３モアグレース多治見ＩＩ－１００３,00139958,21,204,5070036,,,,,,,2025-07-16,1,,,,,オブリージュ,0
1085,5210002002134,新規,0,2025-07-16,2025-07-16,高田木材有限会社,,有限会社,福井県,福井市,高田町３０号３０番地,,18,201,9102226,,,,,,,2025-07-16,1,,,,,タカダモクザイ,0
1095,5240001065237,新規,0,2025-07-16,2025-07-16,株式会社侍,,株式会社,広島県,廿日市市,沖塩屋３丁目９番６号,,34,213,7390443,,,,,,,2025-07-16,1,,,,,サムライ,0
1098,5250001021247,新規,0,2025-07-16,2025-07-16,タイコウ建機株式会社,,株式会社,山口県,山口市,吉田２６７６番地３,,35,203,7530841,,,,,,,2025-07-16,1,,,,,タイコウケンキ,0
1103,5280001009462,新規,0,2025-07-16,2025-07-16,株式会社ピース,,株式会社,島根県,出雲市,松寄下町７９２,,32,203,6930052,,,,,,,2025-07-16,1,,,,,ピース,0
1110,5290003017108,新規,0,2025-07-16,2025-07-16,ＣＲＥＡＴＥ　ＬＡＢ合同会社,,合同会社,福岡県,福岡市中央区,六本松４丁目９－７ジャパン・パル８０３,,40,133,8100044,,,,,,,2025-07-16,1,,,,,クリエイトラボ,0
1111,5290801031722,新規,0,2025-07-16,2025-07-16,株式会社ニュースキルブリッジ,,株式会社,福岡県,北九州市小倉南区,富士見１丁目３番２号,,40,107,8020801,,,,,,,2025-07-16,1,,,,,ニュースキルブリッジ,0
1126,5340001027516,新規,0,2025-07-16,2025-07-16,ＥＳＰＲＯ　ＰＬＵＳ株式会社,,株式会社,鹿児島県,霧島市,国分新町１丁目２１番６０－５号,,46,218,8994351,,,,,,,2025-07-16,1,,,,,エスプロプラス,0
1139,5410003004126,新規,0,2025-07-16,2025-07-16,ティエムツー合同会社,,合同会社,秋田県,横手市,山内土渕字道地１００番地１２,,05,203,0191108,,,,,,,2025-07-16,1,,,,,ティエムツー,0
1153,5500001026369,新規,0,2025-07-16,2025-07-16,９９ｒｉ株式会社,,株式会社,愛媛県,今治市,宮窪町友浦９６６番地,,38,202,7942204,,,,,,,2025-07-16,1,,,,,ククリ,0
1162,6010001256700,新規,0,2025-07-16,2025-07-16,株式会社Ｂｌｕｅ　Ｑｕａｙ,,株式会社,東京都,千代田区,神田佐久間町２丁目１８番地１秋葉原ＳＴＮフロント１０階,,13,101,1010025,,,,,,,2025-07-16,1,,,,,ブルーキー,0
1163,6010001256832,新規,0,2025-07-16,2025-07-16,株式会社Ｎｅｗｌａｃｋ,,株式会社,東京都,千代田区,神田駿河台４丁目４番地１ＰＭＯ御茶ノ水５Ｆ,,13,101,1010062,,,,,,,2025-07-16,1,,,,,ニューラック,0
1164,6010001256857,新規,0,2025-07-16,2025-07-16,ＪＰＧ第６号株式会社,,株式会社,東京都,千代田区,霞が関３丁目２番１号,,13,101,1000013,,,,,,,2025-07-16,1,,,,,ジェイピージーダイロクゴウ,0
1165,6010001256907,新規,0,2025-07-16,2025-07-16,株式会社ＡＩテラス,,株式会社,東京都,中央区,晴海３丁目１３番１号,,13,102,1040053,,,,,,,2025-07-16,1,,,,,エーアイテラス,0
1166,6010001256931,新規,0,2025-07-16,2025-07-16,株式会社スイッチバック,,株式会社,東京都,千代田区,外神田３丁目６番５号外神田永谷タウンプラザ９０６,,13,101,1010021,,,,,,,2025-07-16,1,,,,,スイッチバック,0
1173,6010401191761,新規,0,2025-07-16,2025-07-16,株式会社ＴＯＫＹＯ　ＥＹＥ,,株式会社,東京都,港区,港南２丁目１０番２３－１００１号,,13,103,1080075,,,,,,,2025-07-16,1,,,,,トウキョウアイ,0
1179,6010603011692,新規,0,2025-07-16,2025-07-16,ヨキジ合同会社,,合同会社,東京都,江東区,木場３丁目１２番１号ＣａｓａＭｉｌｌｅ４０３,,13,108,1350042,,,,,,,2025-07-16,1,,,,,ヨキジ,0
1193,6011001170949,新規,0,2025-07-16,2025-07-16,株式会社Ｓｅｃｏｎｄ　Ｎｏｔｅ,,株式会社,東京都,目黒区,大橋２丁目２２番２号エメロード大坂Ｂ１Ｆ,,13,110,1530044,,,,,,,2025-07-16,1,,,,,セカンドノート,0
1197,6011101112396,新規,0,2025-07-16,2025-07-16,スクープテクノロジー株式会社,,株式会社,東京都,新宿区,赤城下町４２番地パレス牛込３０２号,,13,104,1620803,,,,,,,2025-07-16,1,,,,,スクープテクノロジー,0
1198,6011103016109,新規,0,2025-07-16,2025-07-16,ＧＰ一達合同会社,,合同会社,東京都,新宿区,百人町１丁目２３－１４－３０２号,,13,104,1690073,,,,,,,2025-07-16,1,,,,,ジーピーヒサト,0
1199,6011203004764,新規,0,2025-07-16,2025-07-16,合同会社計算センター,,合同会社,東京都,中野区,東中野３丁目１６番１４号,,13,114,1640003,,,,,,,2025-07-16,1,,,,,ケイサンセンター,0
1209,6011701028521,新規,0,2025-07-16,2025-07-16,Ｒａｎｒｏｃ総合株式会社,,株式会社,東京都,江戸川区,西小岩３丁目３５－４,,13,123,1330057,,,,,,,2025-07-16,1,,,,,ランロックソウゴウ,0
1217,6012403007227,新規,0,2025-07-16,2025-07-16,合同会社レザートレーダーズ,,合同会社,東京都,武蔵野市,御殿山１丁目４番１４－７０１号,,13,203,1800005,,,,,,,2025-07-16,1,,,,,レザートレーダーズ,0
1218,6012403007235,新規,0,2025-07-16,2025-07-16,合同会社ＭＥＴＯＭＩＭＩ,,合同会社,東京都,多摩市,和田２１１０番地の３,,13,224,2060001,,,,,,,2025-07-16,1,,,,,メトミミ,0
1220,6013301054591,新規,0,2025-07-16,2025-07-16,株式会社シンセリア,,株式会社,東京都,豊島区,東池袋２丁目６２番８号ＢＩＧオフィスプラザ池袋１２０６,,13,116,1700013,,,,,,,2025-07-16,1,,,,,シンセリア,0
1221,6013301054617,新規,0,2025-07-16,2025-07-16,株式会社ＳＳ　Ｃｏｍｐａｎｙ,,株式会社,東京都,豊島区,上池袋１丁目３９番１０号ＡＣＴＹ１１０４号,,13,116,1700012,,,,,,,2025-07-16,1,,,,,エスエスカンパニー,0
1222,6013303007762,新規,0,2025-07-16,2025-07-16,合同会社トークルーム,,合同会社,東京都,豊島区,南大塚１丁目５８番９号ゼスティー大塚４０３号,,13,116,1700005,,,,,,,2025-07-16,1,,,,,トークルーム,0
1229,6020001163879,新規,0,2025-07-16,2025-07-16,ＳＵ　ＢａｃｋＦｏｒｃｅ株式会社,,株式会社,神奈川県,横浜市神奈川区,金港町１番地４横浜イーストスクエア７階７Ｃ,,14,102,2210056,,,,,,,2025-07-16,1,,,,,エスユーバックフォース,0
1230,6020001163904,新規,0,2025-07-16,2025-07-16,株式会社ささっと,,株式会社,神奈川県,横浜市港北区,錦が丘１－１８,,14,109,2220013,,,,,,,2025-07-16,1,,,,,ササット,0
1235,6021001085766,新規,0,2025-07-16,2025-07-16,株式会社橘不動産,,株式会社,神奈川県,綾瀬市,寺尾本町３丁目１２番９号シャルマンＩ１階,00139946,14,218,2521133,,,,,,,2025-07-16,1,,,,,タチバナフドウサン,0
1236,6021001085782,新規,0,2025-07-16,2025-07-16,ｓ‐ｓｔｙｌｅ　ｐｌｕｓ株式会社,,株式会社,神奈川県,平塚市,広川２番地の１メルヴェーユヌー弐番館１０２号,,14,203,2591219,,,,,,,2025-07-16,1,,,,,エススタイルプラス,0
1237,6021001085790,新規,0,2025-07-16,2025-07-16,株式会社弥栄,,株式会社,神奈川県,厚木市,棚沢３９番地２,,14,212,2430205,,,,,,,2025-07-16,1,,,,,ヤサカ,0
1238,6021003016273,新規,0,2025-07-16,2025-07-16,合同会社ワイズメディカルサービス,,合同会社,神奈川県,小田原市,荻窪３１６番地１,,14,206,2500042,,,,,,,2025-07-16,1,,,,,ワイズメディカルサービス,0
1242,6030001167664,新規,0,2025-07-16,2025-07-16,株式会社Ｐｒｏｖａ,,株式会社,埼玉県,朝霞市,東弁財３丁目１８番１７号,,11,227,3510022,,,,,,,2025-07-16,1,,,,,プローヴァ,0
1243,6030001167672,新規,0,2025-07-16,2025-07-16,株式会社鍋嶋管工,,株式会社,埼玉県,川口市,本町１丁目７番４－２０５号ステーラルーチェ,,11,203,3320012,,,,,,,2025-07-16,1,,,,,ナベシマカンコウ,0
1244,6030001167680,新規,0,2025-07-16,2025-07-16,株式会社ヨシフジカンパニー,,株式会社,埼玉県,入間市,東町５丁目７番１０号,,11,225,3580002,,,,,,,2025-07-16,1,,,,,ヨシフジカンパニー,0
1245,6030001167689,新規,0,2025-07-16,2025-07-16,株式会社ケイ・エス・エックス,,株式会社,埼玉県,深谷市,東大沼２８８番地３,,11,218,3660828,,,,,,,2025-07-16,1,,,,,ケイエスエックス,0
1249,6040001139654,新規,0,2025-07-16,2025-07-16,株式会社西宮工業,,株式会社,千葉県,木更津市,高砂１丁目４番４０号,,12,206,2920016,,,,,,,2025-07-16,1,,,,,ニシミヤコウギョウ,0
1251,6040003028054,新規,0,2025-07-16,2025-07-16,合同会社征政,,合同会社,千葉県,千葉市中央区,大森町３５９番地１,,12,101,2600811,,,,,,,2025-07-16,1,,,,,セイマサ,0
1258,6060003005646,新規,0,2025-07-16,2025-07-16,合同会社みゆき,,合同会社,栃木県,宇都宮市,越戸２丁目１４番８号,,09,201,3210951,,,,,,,2025-07-16,1,,,,,ミユキ,0
1267,6080401028032,新規,0,2025-07-16,2025-07-16,株式会社ＪＢＩ,,株式会社,静岡県,浜松市中央区,元城町２１５番地の６（区画３）,,22,138,4300946,,,,,,,2025-07-16,1,,,,,ジェイビーアイ,0
1268,6090003002855,新規,0,2025-07-16,2025-07-16,合同会社菜涼,,合同会社,山梨県,南都留郡富士河口湖町,船津３１１２番地３,,19,430,4010301,,,,,,,2025-07-16,1,,,,,,0
1269,6100001038783,新規,0,2025-07-16,2025-07-16,株式会社シャンス,,株式会社,長野県,諏訪市,大字中洲２５０７番地４,,20,206,3920015,,,,,,,2025-07-16,1,,,,,シャンス,0
1271,6110001039434,新規,0,2025-07-16,2025-07-16,株式会社ＳＴＵＤＩＯ　ＴＨＹＭＥ,,株式会社,新潟県,新潟市中央区,花園１丁目６番１３号マルヒロビル３Ｆ３０３,,15,103,9500086,,,,,,,2025-07-16,1,,,,,スタジオタイム,0
1272,6110001039442,新規,0,2025-07-16,2025-07-16,株式会社ＧＲＡＶＩＴＹ．,,株式会社,新潟県,新潟市東区,津島屋２丁目３番地シャルムメゾンＩＩ－Ｌ,00139962,15,102,9500801,,,,,,,2025-07-16,1,,,,,グラヴィティ,0
1273,6110003005814,新規,0,2025-07-16,2025-07-16,合同会社ＮＰＭ,,合同会社,新潟県,見附市,今町３丁目２番２２－１号,,15,211,9540111,,,,,,,2025-07-16,1,,,,,エヌピーエム,0
1274,6110003005822,新規,0,2025-07-16,2025-07-16,合同会社はなふく,,合同会社,新潟県,五泉市,船越ヴィラシルクロード１０５号,,15,218,9591805,,,,,,,2025-07-16,1,,,,,ハナフク,0
1279,6120001277685,新規,0,2025-07-16,2025-07-16,遠宸株式会社,,株式会社,大阪府,大阪市住吉区,杉本１丁目９－１６グランビルドアビコＩ－１０６号室,00139947,27,120,5580022,,,,,,,2025-07-16,1,,,,,エンシン,0
1280,6120001277917,新規,0,2025-07-16,2025-07-16,Ｓ＆Ｔ株式会社,,株式会社,大阪府,大阪市天王寺区,上本町６丁目２－３メトライズタワー大阪上本町１５０７,,27,109,5430001,,,,,,,2025-07-16,1,,,,,エスアンドティー,0
1281,6120001277941,新規,0,2025-07-16,2025-07-16,凱辰株式会社,,株式会社,大阪府,大阪市平野区,瓜破東３丁目６番４５号１０１室,,27,126,5470022,,,,,,,2025-07-16,1,,,,,ガイシン,0
1282,6120001277999,新規,0,2025-07-16,2025-07-16,山大観光株式会社,,株式会社,大阪府,大阪市北区,天神橋２丁目２番１７－５０４,,27,127,5300041,,,,,,,2025-07-16,1,,,,,ヤマダイカンコウ,0
1284,6120003030019,新規,0,2025-07-16,2025-07-16,合同会社利他,,合同会社,大阪府,大阪市福島区,海老江１丁目５番３０号,,27,103,5530001,,,,,,,2025-07-16,1,,,,,リタ,0
1285,6120003030043,新規,0,2025-07-16,2025-07-16,光蔭里合同会社,,合同会社,大阪府,大阪市平野区,平野市町１丁目１番９号２０３号室,,27,126,5470042,,,,,,,2025-07-16,1,,,,,コウインリ,0
1291,6122005003836,新規,0,2025-07-16,2025-07-16,医療法人さきがけ会,,その他の設立登記法人,大阪府,東大阪市,足代新町７－４ハイラインＩＩＩ１階店舗Ａ,00139949,27,227,5770057,,,,,,,2025-07-16,1,,,,,サキガケカイ,0
1296,6130001080089,新規,0,2025-07-16,2025-07-16,株式会社逸将,,株式会社,京都府,京都市中京区,薬屋町６０３－２階,,26,104,6040066,,,,,,,2025-07-16,1,,,,,イッショウ,0
1297,6130005017401,新規,0,2025-07-16,2025-07-16,医療法人田里医院,,その他の設立登記法人,京都府,京都市伏見区,桃山町和泉４０番地１,,26,109,6128015,,,,,,,2025-07-16,1,,,,,タサトイイン,0
1303,6140001139256,新規,0,2025-07-16,2025-07-16,株式会社Ｍａｉｓｏｎ　ＩＮＥ,,株式会社,兵庫県,神戸市中央区,下山手通４丁目７番１１号,,28,110,6500011,,,,,,,2025-07-16,1,,,,,メゾンアイエヌイー,0
1304,6140001139264,新規,0,2025-07-16,2025-07-16,株式会社森吉電工,,株式会社,兵庫県,姫路市,飾磨区英賀宮町２丁目６４番地３,,28,201,6728080,,,,,,,2025-07-16,1,,,,,モリヨシデンコウ,0
1305,6140001139306,新規,0,2025-07-16,2025-07-16,ＥＨＦ株式会社,,株式会社,兵庫県,神戸市灘区,福住通６丁目１番８号,,28,102,6570824,,,,,,,2025-07-16,1,,,,,イーエイチエフ,0
1306,6140001139314,新規,0,2025-07-16,2025-07-16,株式会社Ａｖｅｃ,,株式会社,兵庫県,神戸市北区,筑紫が丘２丁目１６番地の１１,,28,109,6511212,,,,,,,2025-07-16,1,,,,,アベック,0
1308,6160003003540,新規,0,2025-07-16,2025-07-16,ＶＪ　ＧＯＥＮ合同会社,,合同会社,滋賀県,草津市,南笠東３丁目４番８号,,25,206,5250071,,,,,,,2025-07-16,1,,,,,ブイジェイゴエン,0
1311,6180001167617,新規,0,2025-07-16,2025-07-16,ひなたｗｏｒｋｓ株式会社,,株式会社,愛知県,半田市,柊町３丁目８－２０,,23,205,4750916,,,,,,,2025-07-16,1,,,,,ヒナタワークス,0
1312,6180001167781,新規,0,2025-07-16,2025-07-16,株式会社果縁堂,,株式会社,愛知県,名古屋市東区,葵１丁目１３番６号（コンデ葵一丁目１００３号）,,23,102,4610004,,,,,,,2025-07-16,1,,,,,カエンドウ,0
1314,6180003028767,新規,0,2025-07-16,2025-07-16,合同会社ＭＩＮＥ,,合同会社,愛知県,名古屋市中村区,太閤５丁目７番２号ＨＡＲＶＥＹ・ＲＥＳＩＤＥＮＣＥ・ＴＡＩＫＯ２０１,,23,105,4530801,,,,,,,2025-07-16,1,,,,,マイン,0
1323,6190003005113,新規,0,2025-07-16,2025-07-16,合同会社野中屋,,合同会社,三重県,津市,一色町２７５番地１,,24,201,5140057,,,,,,,2025-07-16,1,,,,,ノナカヤ,0
1324,6200003006919,新規,0,2025-07-16,2025-07-16,合同会社ｔｉｋｔａｋ,,合同会社,岐阜県,可児市,下切３３８６－１,,21,214,5090245,,,,,,,2025-07-16,1,,,,,チクタク,0
1330,6220003004078,新規,0,2025-07-16,2025-07-16,ＮＳＣ合同会社,,合同会社,石川県,白山市,鶴来朝日町１００,,17,210,9202111,,,,,,,2025-07-16,1,,,,,エヌエスシー,0
1335,6240003007310,新規,0,2025-07-16,2025-07-16,合同会社Ｃｏｍｐａｔｈ,,合同会社,広島県,広島市安佐北区,三入２丁目２０番４６号,,34,106,7310211,,,,,,,2025-07-16,1,,,,,コンパス,0
1336,6250003003762,新規,0,2025-07-16,2025-07-16,合同会社優輝,,合同会社,山口県,防府市,大字向島８０６番地１０,,35,206,7470831,,,,,,,2025-07-16,1,,,,,ユウキ,0
1349,6290801031721,新規,0,2025-07-16,2025-07-16,株式会社ＢＲＯＵ,,株式会社,福岡県,北九州市八幡西区,東王子町６番２－６０６号,,40,109,8060037,,,,,,,2025-07-16,1,,,,,ブロウ,0
1369,6390005009125,新規,0,2025-07-16,2025-07-16,特定非営利活動法人新庄Ｇｌａｎｚ　Ｓｐｏｒｔｓ　Ｃｌｕｂ,,その他の設立登記法人,山形県,新庄市,十日町２６００番地の３０,,06,205,9960091,,,,,,,2025-07-16,1,,,,,シンジョウグランツスポーツクラブ,0
1370,6400003003499,新規,0,2025-07-16,2025-07-16,合同会社北限のゆずファーム,,合同会社,岩手県,陸前高田市,米崎町字佐野２００番地９,,03,210,0292206,,,,,,,2025-07-16,1,,,,,,0
1377,6430001094843,新規,0,2025-07-16,2025-07-16,株式会社神夢建設工業,,株式会社,北海道,札幌市豊平区,平岸七条１５丁目１番５２号,,01,105,0620937,,,,,,,2025-07-16,1,,,,,ジンムケンセツコウギョウ,0
1378,6430003017843,新規,0,2025-07-16,2025-07-16,合同会社ｗａｍｈ,,合同会社,北海道,札幌市中央区,南六条西３丁目６番２４号第２桂和ビル２Ｆ,,01,101,0640806,,,,,,,2025-07-16,1,,,,,ダブリューエーエムエイチ,0
1382,6470003002932,新規,0,2025-07-16,2025-07-16,合同会社コウキ,,合同会社,香川県,高松市,多肥上町１０３８番地８,,37,201,7618076,,,,,,,2025-07-16,1,,,,,,0
1390,7010001256245,新規,0,2025-07-16,2025-07-16,株式会社アースサステナブルコンサルティング,,株式会社,東京都,千代田区,外神田２丁目１７番６－１２０６号,,13,101,1010021,,,,,,,2025-07-16,1,,,,,アースサステナブルコンサルティング,0
1391,7010001256699,新規,0,2025-07-16,2025-07-16,株式会社セットユイット,,株式会社,東京都,中央区,京橋１丁目８番１０号,,13,102,1040031,,,,,,,2025-07-16,1,,,,,セットユイット,0
1392,7010001256880,新規,0,2025-07-16,2025-07-16,株式会社ｆｏｘ,,株式会社,東京都,千代田区,神田小川町３丁目２番地１ＣＩＲＣＬＥＳ神田小川町７階,,13,101,1010052,,,,,,,2025-07-16,1,,,,,フォックス,0
1393,7010001256906,新規,0,2025-07-16,2025-07-16,株式会社ジョイボヤー,,株式会社,東京都,中央区,日本橋馬喰町１丁目１２番７号シティハイツ日本橋,,13,102,1030002,,,,,,,2025-07-16,1,,,,,ジョイボヤー,0
1394,7010001256914,新規,0,2025-07-16,2025-07-16,驥安株式会社,,株式会社,東京都,文京区,千石３丁目３番３号千石明穂ハイツ１０４－Ｈ,,13,105,1120011,,,,,,,2025-07-16,1,,,,,キアン,0
1395,7010001256930,新規,0,2025-07-16,2025-07-16,クエストワイ株式会社,,株式会社,東京都,千代田区,神田多町２丁目１－２３神田東山ビル７Ｆ・８Ｆ,,13,101,1010046,,,,,,,2025-07-16,1,,,,,クエストワイ,0
1396,7010003048046,新規,0,2025-07-16,2025-07-16,合同会社とぼそ,,合同会社,東京都,中央区,日本橋室町１丁目１１番１２号日本橋水野ビル７階,,13,102,1030022,,,,,,,2025-07-16,1,,,,,トボソ,0
1400,7010401191810,新規,0,2025-07-16,2025-07-16,株式会社Ｓｐｒｉｎｇ　ｏｆ　Ｌｉｆｅ,,株式会社,東京都,港区,北青山１丁目３―３三橋ビル３階,,13,103,1070061,,,,,,,2025-07-16,1,,,,,スプリングオブライフ,0
1407,7010801036383,新規,0,2025-07-16,2025-07-16,ＤＡＮＴＥ株式会社,,株式会社,東京都,大田区,大森北３丁目４－４ＫＴ大森北ビル４－Ｋ,,13,111,1430016,,,,,,,2025-07-16,1,,,,,ダンテ,0
1410,7010903010096,新規,0,2025-07-16,2025-07-16,Ａｕｒａｖｉｔａ合同会社,,合同会社,東京都,世田谷区,用賀１丁目１３番２３－２１２号,,13,112,1580097,,,,,,,2025-07-16,1,,,,,オーラヴィータ,0
1418,7011001170948,新規,0,2025-07-16,2025-07-16,株式会社ＧＷ,,株式会社,東京都,渋谷区,渋谷２丁目１９番１５号宮益坂ビルディング６０９,,13,113,1500002,,,,,,,2025-07-16,1,,,,,ジーダブリュー,0
1419,7011001170972,新規,0,2025-07-16,2025-07-16,株式会社ＦＬＡＧ‐ＶＥＮＴＵＲＥＳ,,株式会社,東京都,渋谷区,桜丘町１番４号渋谷サクラステージＳＨＩＢＵＹＡサイド渋谷タワー７階,,13,113,1500031,,,,,,,2025-07-16,1,,,,,フラグベンチャーズ,0
1428,7011101112305,新規,0,2025-07-16,2025-07-16,株式会社アトム,,株式会社,東京都,新宿区,四谷４丁目３０番２３号ビルド吉田３０３,,13,104,1600004,,,,,,,2025-07-16,1,,,,,アトム,0
1429,7011101112346,新規,0,2025-07-16,2025-07-16,株式会社ＮＡＧＡＨＡＭＡ屋,,株式会社,東京都,新宿区,西新宿７丁目１８－５ＶＯＲＴ西新宿５０２,,13,104,1600023,,,,,,,2025-07-16,1,,,,,ナガハマヤ,0
1430,7011103016108,新規,0,2025-07-16,2025-07-16,ＧＰ管理合同会社,,合同会社,東京都,新宿区,百人町１丁目２３－１４－３０１号,,13,104,1690073,,,,,,,2025-07-16,1,,,,,ジーピーカンリ,0
1432,7011201026512,新規,0,2025-07-16,2025-07-16,ジョージ＆ナツコ・アセットマネジメント株式会社,,株式会社,東京都,中野区,野方１丁目１７番８号,,13,114,1650027,,,,,,,2025-07-16,1,,,,,ジョージアンドナツコアセットマネジメント,0
1435,7011403004753,新規,0,2025-07-16,2025-07-16,合同会社ＭＫライフ,,合同会社,東京都,板橋区,大谷口２丁目３４番２－５０４号千川シティハウス,,13,119,1730035,,,,,,,2025-07-16,1,,,,,エムケーライフ,0
1438,7011503006609,新規,0,2025-07-16,2025-07-16,Ｇｉｎｚａ　Ｐｏｗｅｒ‐１合同会社,,合同会社,東京都,北区,浮間１丁目１番２８－６０４号,,13,117,1150051,,,,,,,2025-07-16,1,,,,,ギンザパワーワン,0
1440,7011603004768,新規,0,2025-07-16,2025-07-16,合同会社Ｆｌａｉｒ,,合同会社,東京都,練馬区,関町南４丁目１８－２－４０５,,13,120,1770053,,,,,,,2025-07-16,1,,,,,フレア,0
1441,7011701028529,新規,0,2025-07-16,2025-07-16,株式会社グロウヘアーワークス,,株式会社,東京都,江戸川区,中葛西３丁目３５番１５号レスポワール葛西Ｂ１,,13,123,1340083,,,,,,,2025-07-16,1,,,,,グロウヘアーワークス,0
1446,7012401043347,新規,0,2025-07-16,2025-07-16,ＫＯＭＥｔｏｍｅ株式会社,,株式会社,東京都,武蔵野市,御殿山１丁目３番９号,,13,203,1800005,,,,,,,2025-07-16,1,,,,,コメトゥーミー,0
1455,7020001163804,新規,0,2025-07-16,2025-07-16,株式会社リリコール,,株式会社,神奈川県,横浜市鶴見区,鶴見中央４丁目３４番２６号ＮＩＣハイム鶴見千代田ビル４階,,14,101,2300051,,,,,,,2025-07-16,1,,,,,リリコール,0
1456,7020001163878,新規,0,2025-07-16,2025-07-16,株式会社シャモニークリエイティブチーム,,株式会社,神奈川県,横浜市中区,桜木町１丁目１０１番地１クロスゲート７階,,14,104,2310062,,,,,,,2025-07-16,1,,,,,シャモニークリエイティブチーム,0
1457,7020001163911,新規,0,2025-07-16,2025-07-16,ニュー・プロダクツ株式会社,,株式会社,神奈川県,川崎市川崎区,小田栄２丁目１番５－１３０３号アイランドブリーズ,,14,131,2100843,,,,,,,2025-07-16,1,,,,,ニュープロダクツ,0
1459,7020003028939,新規,0,2025-07-16,2025-07-16,Ｈｅａｔｈｃｒｏｆｔ合同会社,,合同会社,神奈川県,川崎市中原区,木月伊勢町２番３－２１９号,,14,133,2110032,,,,,,,2025-07-16,1,,,,,ヒースクロフト,0
1460,7020003028963,新規,0,2025-07-16,2025-07-16,ＺＥＮＥＲＡＴＩＯＮ合同会社,,合同会社,神奈川県,横浜市西区,浅間町１丁目４番３号ウィザードビル４０２,,14,103,2200072,,,,,,,2025-07-16,1,,,,,ゼネレーション,0
1461,7021001085641,新規,0,2025-07-16,2025-07-16,株式会社ラドミ,,株式会社,神奈川県,相模原市緑区,千木良１２２７－８,,14,151,2520174,,,,,,,2025-07-16,1,,,,,ラドミ,0
1462,7021001085690,新規,0,2025-07-16,2025-07-16,株式会社ＢＩＮＤＡ,,株式会社,神奈川県,横須賀市,富士見町２丁目１８番地９,,14,201,2380021,,,,,,,2025-07-16,1,,,,,ビンダ,0
1463,7021001085765,新規,0,2025-07-16,2025-07-16,弘和株式会社,,株式会社,神奈川県,相模原市南区,上鶴間本町７丁目２８－３０ライオンズヴィアーレ相模大野２０９号,,14,153,2520318,,,,,,,2025-07-16,1,,,,,コウワ,0
1464,7021001085798,新規,0,2025-07-16,2025-07-16,株式会社ＬＵＭ,,株式会社,神奈川県,藤沢市,藤沢４８４番地２５第２吉田ビル３Ｆ,,14,205,2510052,,,,,,,2025-07-16,1,,,,,ルム,0
1466,7021005013400,新規,0,2025-07-16,2025-07-16,一般社団法人グリーンダブルピース,,その他の設立登記法人,神奈川県,横須賀市,若宮台３３番１８号,,14,201,2390829,,,,,,,2025-07-16,1,,,,,グリーンダブルピース,0
1473,7030001167671,新規,0,2025-07-16,2025-07-16,株式会社パッスス,,株式会社,埼玉県,川越市,大字砂新田６７番地６,,11,201,3501137,,,,,,,2025-07-16,1,,,,,パッスス,0
1483,7030003027188,新規,0,2025-07-16,2025-07-16,合同会社佐伯映像,,合同会社,埼玉県,幸手市,北１丁目１３番２８号フレグランスコーマＥ１０１,,11,240,3400111,,,,,,,2025-07-16,1,,,,,サイキエイゾウ,0
1484,7030003027205,新規,0,2025-07-16,2025-07-16,ＭＫＧ合同会社,,合同会社,埼玉県,越谷市,千間台西１丁目２２番地４シティハイムフォース１０１,,11,222,3430041,,,,,,,2025-07-16,1,,,,,エムケージー,0
1485,7030003027213,新規,0,2025-07-16,2025-07-16,合同会社アストラ,,合同会社,埼玉県,さいたま市見沼区,東大宮４丁目２３番１号エクセル東大宮２０２,,11,104,3370051,,,,,,,2025-07-16,1,,,,,アストラ,0
1486,7030005022212,新規,0,2025-07-16,2025-07-16,一般社団法人つばさプロジェクト,,その他の設立登記法人,埼玉県,川越市,大字的場１２７番地,,11,201,3501101,,,,,,,2025-07-16,1,,,,,ツバサプロジェクト,0
1488,7040001139694,新規,0,2025-07-16,2025-07-16,恵住株式会社,,株式会社,千葉県,市川市,中国分２丁目２０番８号,,12,203,2720835,,,,,,,2025-07-16,1,,,,,ケイジュウ,0
1489,7040001139703,新規,0,2025-07-16,2025-07-16,鴻瑞整備株式会社,,株式会社,千葉県,市原市,山田７８７－３,,12,219,2900205,,,,,,,2025-07-16,1,,,,,コウズイセイビ,0
1490,7040001139711,新規,0,2025-07-16,2025-07-16,旺財居株式会社,,株式会社,千葉県,柏市,八幡町２番５－１号,,12,217,2770016,,,,,,,2025-07-16,1,,,,,オウザイキョ,0
1493,7040003028053,新規,0,2025-07-16,2025-07-16,合同会社ＣｈｅｒｒｙＢ,,合同会社,千葉県,千葉市稲毛区,小仲台７丁目１６－５サンライフビル１０２号室,,12,103,2630043,,,,,,,2025-07-16,1,,,,,チェリービー,0
1502,7070003005999,新規,0,2025-07-16,2025-07-16,茂木塗装合同会社,,合同会社,群馬県,邑楽郡邑楽町,大字中野７３３－１５,,10,525,3700603,,,,,,,2025-07-16,1,,,,,モテギトソウ,0
1505,7100003008271,新規,0,2025-07-16,2025-07-16,ｅルート合同会社,,合同会社,長野県,伊那市,西箕輪６７１０－１,,20,209,3960041,,,,,,,2025-07-16,1,,,,,イールート,0
1506,7110001039425,新規,0,2025-07-16,2025-07-16,株式会社Ｒｉユース,,株式会社,新潟県,村上市,瀬波温泉２丁目８－３シャルム瀬波１００１,,15,212,9580037,,,,,,,2025-07-16,1,,,,,リユース,0
1508,7110003005813,新規,0,2025-07-16,2025-07-16,ｋｏｍｕｇｉｗｏｒｋｓ合同会社,,合同会社,新潟県,上越市,国府４丁目３番２７－１号,,15,222,9420082,,,,,,,2025-07-16,1,,,,,コムギワークス,0
1513,7120001277593,新規,0,2025-07-16,2025-07-16,株式会社ＴＹＫ,,株式会社,大阪府,大阪市北区,梅田１丁目２番２号大阪駅前第２ビル１２－１２,,27,127,5300001,,,,,,,2025-07-16,1,,,,,ティーワイケー,0
1514,7120001277767,新規,0,2025-07-16,2025-07-16,株式会社遥奈,,株式会社,大阪府,大阪市中央区,東心斎橋１丁目８番１１－３１０５号,,27,128,5420083,,,,,,,2025-07-16,1,,,,,ハルナ,0
1515,7120001277858,新規,0,2025-07-16,2025-07-16,株式会社ＩＮＳＰＩＲＥ,,株式会社,大阪府,大阪市西区,北堀江１丁目１番４号,,27,106,5500014,,,,,,,2025-07-16,1,,,,,インスパイア,0
1516,7120001277908,新規,0,2025-07-16,2025-07-16,美咲インテリア株式会社,,株式会社,大阪府,大阪市城東区,今福南２丁目２番１７号,,27,118,5360003,,,,,,,2025-07-16,1,,,,,ミサキインテリア,0
1517,7120001277916,新規,0,2025-07-16,2025-07-16,株式会社結,,株式会社,大阪府,大阪市東淀川区,菅原２丁目１０－１５ルーセント菅原２０１号室,,27,114,5330022,,,,,,,2025-07-16,1,,,,,ユイ,0
1518,7120001277924,新規,0,2025-07-16,2025-07-16,株式会社ＹＧＪ,,株式会社,大阪府,大阪市淀川区,西三国２丁目２番５号エレガンス西三国３０３号,,27,123,5320006,,,,,,,2025-07-16,1,,,,,ワイジージェイ,0
1523,7120003030018,新規,0,2025-07-16,2025-07-16,合同会社ＫＯＹＡＭＡ　ＢＵＳＩＮＥＳＳ　ＣＯＮＳＵＬＴＩＮＧ,,合同会社,大阪府,大阪市北区,西天満３丁目１０番３号造園会館,,27,127,5300047,,,,,,,2025-07-16,1,,,,,コヤマビジネスコンサルティング,0
1524,7120101072110,新規,0,2025-07-16,2025-07-16,Ｃｏｒｅ　Ｎｅｓｔ株式会社,,株式会社,大阪府,堺市東区,白鷺町３丁２９番６号,,27,143,5998107,,,,,,,2025-07-16,1,,,,,コアネクスト,0
1525,7120101072119,新規,0,2025-07-16,2025-07-16,株式会社ＹＵＹＵＫＡ　ｈｅｒｅ,,株式会社,大阪府,堺市北区,北花田町３丁４１－１フラーハウスＣ号,,27,146,5918002,,,,,,,2025-07-16,1,,,,,ユユカヒアー,0
1527,7120901051230,新規,0,2025-07-16,2025-07-16,株式会社オフィスマイカ,,株式会社,大阪府,豊中市,東豊中町６丁目１－３１,,27,203,5600003,,,,,,,2025-07-16,1,,,,,オフィスマイカ,0
1528,7120905006759,新規,0,2025-07-16,2025-07-16,一般社団法人ＢＥＳＴホールディングス,,その他の設立登記法人,大阪府,箕面市,今宮３丁目２０番５６号,,27,220,5620033,,,,,,,2025-07-16,1,,,,,ベストホールディングス,0
1530,7122005003835,新規,0,2025-07-16,2025-07-16,医療法人ヒラヌマ歯科医院,,その他の設立登記法人,大阪府,東大阪市,西堤本通西１丁目１番２７号,,27,227,5770046,,,,,,,2025-07-16,1,,,,,ヒラヌマシカイイン,0
1533,7130001080071,新規,0,2025-07-16,2025-07-16,株式会社Ｓ・ＰＥＣ,,株式会社,京都府,京都市下京区,西七条南月読町１７番地,,26,106,6008885,,,,,,,2025-07-16,1,,,,,エスペック,0
1534,7130001080162,新規,0,2025-07-16,2025-07-16,株式会社まる吉,00139952,株式会社,京都府,綴喜郡宇治田原町,大字南小字東所２０番地,,26,344,6100241,,,,,,,2025-07-16,1,,,,,マルキチ,0
1535,7130003010588,新規,0,2025-07-16,2025-07-16,合同会社ＴＡＮＣＨＯＲ,,合同会社,京都府,京都市中京区,壬生仙念町２６番地３７ウエストプラザ三越Ｂ１Ｆ－Ｔ２,,26,104,6048854,,,,,,,2025-07-16,1,,,,,タンカー,0
1536,7130005017400,新規,0,2025-07-16,2025-07-16,税理士法人アヴェイル,,その他の設立登記法人,京都府,京都市中京区,烏丸通錦小路上る手洗水町６５９烏丸中央ビル９Ｆ,,26,104,6048152,,,,,,,2025-07-16,1,,,,,アヴェイル,0
1540,7140001139296,新規,0,2025-07-16,2025-07-16,株式会社ＥｎＳｈｉｎ,,株式会社,兵庫県,洲本市,五色町都志大日２４２番地１,,28,205,6561331,,,,,,,2025-07-16,1,,,,,エンシン,0
1541,7140001139313,新規,0,2025-07-16,2025-07-16,アセットライズ株式会社,,株式会社,兵庫県,神戸市垂水区,塩屋町１丁目４番１４号,,28,108,6550872,,,,,,,2025-07-16,1,,,,,アセットライズ,0
1546,7140003022319,新規,0,2025-07-16,2025-07-16,合同会社ＩＭＦ,,合同会社,兵庫県,加古川市,平岡町高畑６４４番地の８,,28,210,6750103,,,,,,,2025-07-16,1,,,,,アイエムエフ,0
1547,7150002011032,新規,0,2025-07-16,2025-07-16,ロイヤル照明有限会社,,有限会社,奈良県,五條市,島野町４２５番地,,29,207,6370027,,,,,,,2025-07-16,1,,,,,ロイヤルショウメイ,0
1549,7160001026906,新規,0,2025-07-16,2025-07-16,株式会社Ｋａｅｄｅ　ｐｌｕｓ,,株式会社,滋賀県,野洲市,市三宅２３７９番地１,,25,210,5202362,,,,,,,2025-07-16,1,,,,,カエデプラス,0
1550,7170003002243,新規,0,2025-07-16,2025-07-16,合名会社ピュアライトＲ,,合名会社,和歌山県,和歌山市,西浜１２８３番地,,30,201,6410036,,,,,,,2025-07-16,1,,,,,ピュアライトアール,0
1552,7180001167632,新規,0,2025-07-16,2025-07-16,株式会社ｂｒｉｇｈｔ,,株式会社,愛知県,名古屋市港区,当知１丁目１２０７番地,,23,111,4550804,,,,,,,2025-07-16,1,,,,,ブライト,0
1553,7180001167640,新規,0,2025-07-16,2025-07-16,８Ｅｄｇｅ株式会社,,株式会社,愛知県,愛知郡東郷町,大字和合字牛廻間１４４番地４,,23,302,4700153,,,,,,,2025-07-16,1,,,,,エイトエッジ,0
1554,7180001167665,新規,0,2025-07-16,2025-07-16,株式会社サンライズ,,株式会社,愛知県,名古屋市中区,大須３丁目１番７６号大須本町ビル５階,,23,106,4600011,,,,,,,2025-07-16,1,,,,,サンライズ,0
1555,7180001167723,新規,0,2025-07-16,2025-07-16,パルサーワークス株式会社,,株式会社,愛知県,名古屋市西区,那古野２丁目１４－１,,23,104,4510042,,,,,,,2025-07-16,1,,,,,パルサーワークス,0
1556,7180001167822,新規,0,2025-07-16,2025-07-16,中島マテリアル株式会社,,株式会社,愛知県,尾張旭市,旭ケ丘町旭ケ丘５６９３番地３,,23,226,4880083,,,,,,,2025-07-16,1,,,,,ナカシママテリアル,0
1562,7180003028733,新規,0,2025-07-16,2025-07-16,Ｓ＆Ｕ合同会社,,合同会社,愛知県,岩倉市,石仏町長北屋敷１６３９番地３,,23,228,4820034,,,,,,,2025-07-16,1,,,,,エスアンドユー,0
1563,7180005021158,新規,0,2025-07-16,2025-07-16,医療法人小早川医院,,その他の設立登記法人,愛知県,名古屋市昭和区,前山町１丁目１９番地つばめ前山町ビルＡ棟１階,,23,107,4660821,,,,,,,2025-07-16,1,,,,,コバヤカワイイン,0
1570,7190003005120,新規,0,2025-07-16,2025-07-16,ゼローン合同会社,,合同会社,三重県,伊賀市,上野丸之内３８番地の２３,,24,216,5180873,,,,,,,2025-07-16,1,,,,,ゼローン,0
1571,7200001044028,新規,0,2025-07-16,2025-07-16,株式会社アールズワークス,,株式会社,岐阜県,安八郡輪之内町,四郷３０４番地の１,,21,382,5030204,,,,,,,2025-07-16,1,,,,,アールズワークス,0
1572,7200001044036,新規,0,2025-07-16,2025-07-16,株式会社ｔｙｐｅｓｔａｒ,,株式会社,岐阜県,羽島市,福寿町本郷２丁目１４６番地,,21,209,5016254,,,,,,,2025-07-16,1,,,,,タイプスター,0
1573,7200003006918,新規,0,2025-07-16,2025-07-16,Ｚｉａ　Ｔｒａｄｉｎｇ合同会社,,合同会社,岐阜県,美濃加茂市,西町７丁目３１３番地西町テナント２－Ａ,,21,211,5050046,,,,,,,2025-07-16,1,,,,,ジアトレーディング,0
1581,7250001021229,新規,0,2025-07-16,2025-07-16,萩石見カントリー倶楽部株式会社,,株式会社,山口県,萩市,大字下田万１０８９７番地,,35,204,7593112,,,,,,,2025-07-16,1,,,,,ハギイワミカントリークラブ,0
1582,7250001021253,新規,0,2025-07-16,2025-07-16,富貴商事株式会社,,株式会社,山口県,防府市,大字植松１８７番地の７,,35,206,7470836,,,,,,,2025-07-16,1,,,,,フウキショウジ,0
1589,7290001110820,新規,0,2025-07-16,2025-07-16,株式会社ＬＩＡＮＤ．,,株式会社,福岡県,福岡市博多区,博多駅中央街５－１２博多東ビル４０３号室,,40,132,8120012,,,,,,,2025-07-16,1,,,,,リアンド,0
1591,7290003017089,新規,0,2025-07-16,2025-07-16,ＭＫＳアセットマネジメント合同会社,,合同会社,福岡県,福岡市東区,千早５丁目９番８－１４２３号－ＭＪＲ千早ミッドスクエア,,40,131,8130044,,,,,,,2025-07-16,1,,,,,エムケーエスアセットマネジメント,0
1592,7290003017147,新規,0,2025-07-16,2025-07-16,ＣＯＤＥＫＩＳＳＡ合同会社,,合同会社,福岡県,福岡市東区,香椎照葉５丁目１番１４ラクレイス香椎照葉１１１１号,,40,131,8130017,,,,,,,2025-07-16,1,,,,,コードキッサ,0
1599,7340001027514,新規,0,2025-07-16,2025-07-16,株式会社陽紡舎,,株式会社,鹿児島県,奄美市,名瀬末広町１１番８号,,46,222,8940027,,,,,,,2025-07-16,1,,,,,ヨウボウシャ,0
1601,7340003004890,新規,0,2025-07-16,2025-07-16,合同会社出水はやし,,合同会社,鹿児島県,出水市,麓町１１０２番地,,46,208,8990204,,,,,,,2025-07-16,1,,,,,イズミハヤシ,0
1604,7360003015060,新規,0,2025-07-16,2025-07-16,ＴＩ　ＶＯＧＬＩＯ　ＢＥＮＥ　ＧＲＯＵＰ合同会社,,合同会社,沖縄県,名護市,大東１丁目６番９号１Ｆ,,47,209,9050016,,,,,,,2025-07-16,1,,,,,ティボーリオベーネグループ,0
1614,7410003004124,新規,0,2025-07-16,2025-07-16,合同会社Ｍｉｃｋｅｙ,,合同会社,秋田県,秋田市,旭川新藤田西町１番１号,,05,201,0100832,,,,,,,2025-07-16,1,,,,,ミッキー,0
1619,7430001094818,新規,0,2025-07-16,2025-07-16,住まいる設備工業株式会社,,株式会社,北海道,室蘭市,港北町４丁目１２－３,,01,205,0500063,,,,,,,2025-07-16,1,,,,,スマイルセツビコウギョウ,0
1620,7430001094850,新規,0,2025-07-16,2025-07-16,株式会社高寺工業,00139943,株式会社,北海道,滝川市,東町１丁目３３番地７７,,01,225,0730024,,,,,,,2025-07-16,1,,,,,タカテラコウギョウ,0
1642,8010001256913,新規,0,2025-07-16,2025-07-16,クレインホープ株式会社,,株式会社,東京都,中央区,月島２丁目１４番１１－１００１号,,13,102,1040052,,,,,,,2025-07-16,1,,,,,クレインホープ,0
1643,8010001256938,新規,0,2025-07-16,2025-07-16,株式会社ＷｅｂＳｐａｒｋ,,株式会社,東京都,中央区,銀座１丁目２２番１１号銀座大竹ビジデンス２Ｆ,,13,102,1040061,,,,,,,2025-07-16,1,,,,,ウェブスパーク,0
1645,8010003048053,新規,0,2025-07-16,2025-07-16,合同会社ウィーブル,,合同会社,東京都,中央区,日本橋室町１丁目１１番１２号日本橋水野ビル７階,,13,102,1030022,,,,,,,2025-07-16,1,,,,,ウィーブル,0
1646,8010003048061,新規,0,2025-07-16,2025-07-16,Ｓｈｉｏｙａ‐２ＢＥＳＳ合同会社,,合同会社,東京都,千代田区,霞が関３丁目２番６号東京倶楽部ビルディング１１階,,13,101,1000013,,,,,,,2025-07-16,1,,,,,シオヤツーベス,0
1652,8010401191660,新規,0,2025-07-16,2025-07-16,株式会社ＡＬＭＯＮＤ,,株式会社,東京都,港区,南青山３丁目１番３６号青山丸竹ビル６Ｆ,,13,103,1070062,,,,,,,2025-07-16,1,,,,,アーモンド,0
1667,8010501054395,新規,0,2025-07-16,2025-07-16,ＧｌｉｔＳｅｅｄ株式会社,,株式会社,東京都,台東区,根岸１丁目６番地１２号トーカンマンション９０１,,13,106,1100003,,,,,,,2025-07-16,1,,,,,グリットシード,0
1668,8010501054412,新規,0,2025-07-16,2025-07-16,啓明株式会社,,株式会社,東京都,台東区,東上野２丁目１３番４号さかえビル２０５号室,,13,106,1100015,,,,,,,2025-07-16,1,,,,,ケイメイ,0
1669,8010503007921,新規,0,2025-07-16,2025-07-16,名杉合同会社,,合同会社,東京都,台東区,柳橋１丁目３番３号東宏ビル５０２,,13,106,1110052,,,,,,,2025-07-16,1,,,,,メイサン,0
1674,8010703007804,新規,0,2025-07-16,2025-07-16,合同会社Ｉ．Ｈ．Ｓ　ＦＡＣＴＯＲＹ,,合同会社,東京都,品川区,西品川３丁目２０番３号ＭＹＲＩＡＲＥＳＩＤＥＮＣＥＯｓａｋｉ６０１,,13,109,1410033,,,,,,,2025-07-16,1,,,,,アイエイチエスファクトリー,0
1678,8010903010079,新規,0,2025-07-16,2025-07-16,合同会社野村楽器店,,合同会社,東京都,世田谷区,瀬田１丁目１３番１号,,13,112,1580095,,,,,,,2025-07-16,1,,,,,ノムラガッキテン,0
1684,8011001170765,新規,0,2025-07-16,2025-07-16,ラブレイ株式会社,,株式会社,東京都,渋谷区,桜丘町１－４渋谷サクラステージＳＨＩＢＵＹＡサイドＳＨＩＢＵＹＡタワー７階,,13,113,1500031,,,,,,,2025-07-16,1,,,,,ラブレイ,0
1685,8011001170815,新規,0,2025-07-16,2025-07-16,株式会社いぶき地所,,株式会社,東京都,渋谷区,恵比寿１丁目１９番１９号恵比寿ビジネスタワー１０Ｆ,,13,113,1500013,,,,,,,2025-07-16,1,,,,,イブキジショ,0
1686,8011001171177,新規,0,2025-07-16,2025-07-16,株式会社わんこラボ,,株式会社,東京都,渋谷区,神南１丁目１１番４号ＦＰＧリンクス神南５階,,13,113,1500041,,,,,,,2025-07-16,1,,,,,ワンコラボ,0
1693,8011103016131,新規,0,2025-07-16,2025-07-16,アルファパースペクティヴ合同会社,,合同会社,東京都,新宿区,下落合２丁目２５番１号,,13,104,1610033,,,,,,,2025-07-16,1,,,,,アルファパースペクティヴ,0
1696,8011303005636,新規,0,2025-07-16,2025-07-16,合同会社ロムピコ,,合同会社,東京都,杉並区,和田２丁目３３番１０号,,13,115,1660012,,,,,,,2025-07-16,1,,,,,ロムピコ,0
1699,8011401027193,新規,0,2025-07-16,2025-07-16,和夢連結株式会社,,株式会社,東京都,板橋区,熊野町４４－６アルファヴィル大山２０５,,13,119,1730025,,,,,,,2025-07-16,1,,,,,ワムレンケツ,0
1702,8011603004767,新規,0,2025-07-16,2025-07-16,グローバルゲートウェイジャパン合同会社,,合同会社,東京都,練馬区,大泉学園町２丁目６番１２号,,13,120,1780061,,,,,,,2025-07-16,1,,,,,グローバルゲートウェイジャパン,0
1703,8011701028528,新規,0,2025-07-16,2025-07-16,株式会社Ｒｂ,,株式会社,東京都,江戸川区,臨海町４丁目３番１号,,13,123,1340086,,,,,,,2025-07-16,1,,,,,アールビー,0
1704,8011701028552,新規,0,2025-07-16,2025-07-16,株式会社ＭＧ５,,株式会社,東京都,江戸川区,船堀２丁目２２－１８,,13,123,1340091,,,,,,,2025-07-16,1,,,,,エムジーファイブ,0
1707,8012303002193,新規,0,2025-07-16,2025-07-16,合同会社ＯＫＲ,,合同会社,東京都,町田市,薬師台２丁目１２番地２,,13,209,1950073,,,,,,,2025-07-16,1,,,,,オーケーアール,0
1714,8012801024078,新規,0,2025-07-16,2025-07-16,株式会社ＫＫＦ,,株式会社,東京都,国分寺市,東元町１丁目１１番２３号,,13,214,1850022,,,,,,,2025-07-16,1,,,,,ケーケーエフ,0
1715,8012801024111,新規,0,2025-07-16,2025-07-16,おらふ株式会社,,株式会社,東京都,武蔵村山市,神明２丁目１１１番地の１センチュリー武蔵村山５０５号,,13,223,2080002,,,,,,,2025-07-16,1,,,,,オラフ,0
1716,8013101009744,新規,0,2025-07-16,2025-07-16,株式会社イスマエル・インターナショナル,,株式会社,東京都,西多摩郡瑞穂町,むさし野２丁目５番地４,,13,303,1901214,,,,,,,2025-07-16,1,,,,,イスマエルインターナショナル,0
1717,8013301054598,新規,0,2025-07-16,2025-07-16,株式会社ＲｅＡＰＥＬ,,株式会社,東京都,豊島区,東池袋２丁目６２番８号ＢＩＧオフィスプラザ池袋１２０６,,13,116,1700013,,,,,,,2025-07-16,1,,,,,リアペル,0
1718,8013301054607,新規,0,2025-07-16,2025-07-16,Ｈ＆Ｗ株式会社,,株式会社,東京都,豊島区,池袋４丁目２９番１１号,,13,116,1710014,,,,,,,2025-07-16,1,,,,,エイチアンドダブリュー,0
1719,8013301054615,新規,0,2025-07-16,2025-07-16,株式会社ＮＩＮＥＧＡＴＥＳ,,株式会社,東京都,豊島区,西池袋１丁目２番８号,,13,116,1710021,,,,,,,2025-07-16,1,,,,,ナインゲイツ,0
1720,8013305003733,新規,0,2025-07-16,2025-07-16,一般社団法人ＡＩビューティーサロン推進協会,,その他の設立登記法人,東京都,豊島区,東池袋１丁目３２番２号小泉ビル４Ｆ,,13,116,1700013,,,,,,,2025-07-16,1,,,,,エーアイビューティーサロンスイシンキョウカイ,0
1726,8020001163836,新規,0,2025-07-16,2025-07-16,株式会社マイげんき,,株式会社,神奈川県,横浜市西区,北幸１丁目１１番１号７Ｆ,,14,103,2200004,,,,,,,2025-07-16,1,,,,,マイゲンキ,0
1727,8020001163844,新規,0,2025-07-16,2025-07-16,株式会社ＩＲＩＳＴＡＲ,,株式会社,神奈川県,川崎市中原区,中丸子８０番地４中原ビル１０１,,14,133,2110012,,,,,,,2025-07-16,1,,,,,アイリスター,0
1728,8020001163885,新規,0,2025-07-16,2025-07-16,株式会社ＳＧＯ,,株式会社,神奈川県,川崎市中原区,上新城２丁目３番２０号ブライト新城１０２,,14,133,2110045,,,,,,,2025-07-16,1,,,,,エスジーオー,0
1729,8020001163935,新規,0,2025-07-16,2025-07-16,オペネル株式会社,,株式会社,神奈川県,横浜市神奈川区,金港町５―１４　クアドリフォリオ８階,,14,102,2210056,,,,,,,2025-07-16,1,,,,,オペネル,0
1731,8020003028921,新規,0,2025-07-16,2025-07-16,Ｌｉｂｅｒｔａ合同会社,,合同会社,神奈川県,横浜市西区,北幸２丁目１０番４８号むつみビル３階,,14,103,2200004,,,,,,,2025-07-16,1,,,,,リベルタ,0
1732,8021001085764,新規,0,2025-07-16,2025-07-16,ＳＥＫＨＯＮ株式会社,,株式会社,神奈川県,相模原市中央区,千代田７丁目２番４号,,14,152,2520237,,,,,,,2025-07-16,1,,,,,セコン,0
1733,8021001085780,新規,0,2025-07-16,2025-07-16,株式会社ダブル,,株式会社,神奈川県,藤沢市,善行１丁目１６番地の４,,14,205,2510871,,,,,,,2025-07-16,1,,,,,ダブル,0
1734,8021003016271,新規,0,2025-07-16,2025-07-16,加藤牛レーシング合同会社,,合同会社,神奈川県,愛甲郡愛川町,角田７４７番地の１６,,14,401,2430301,,,,,,,2025-07-16,1,,,,,カトウギュウレーシング,0
1735,8021003016288,新規,0,2025-07-16,2025-07-16,ＳＰＯＲＴＳ　ＭＯＤＥＬ　ＪＡＰＡＮ合同会社,,合同会社,神奈川県,秦野市,渋沢１丁目３２番１号,,14,211,2591322,,,,,,,2025-07-16,1,,,,,スポーツモデルジャパン,0
1736,8021003016296,新規,0,2025-07-16,2025-07-16,合同会社ストレンジビジョン,,合同会社,神奈川県,中郡大磯町,高麗２丁目５番１７号,,14,341,2550001,,,,,,,2025-07-16,1,,,,,ストレンジビジョン,0
1741,8030001167679,新規,0,2025-07-16,2025-07-16,株式会社Ｈ＆Ｔカンパニー,,株式会社,埼玉県,久喜市,菖蒲町菖蒲４９９番地８,,11,232,3460106,,,,,,,2025-07-16,1,,,,,エイッチアンドティカンパニー,0
1748,8030003027212,新規,0,2025-07-16,2025-07-16,合同会社グリーンジョブくまがや,,合同会社,埼玉県,熊谷市,万吉２７１０番地,,11,202,3600161,,,,,,,2025-07-16,1,,,,,グリーンジョブクマガヤ,0
1752,8040001139669,新規,0,2025-07-16,2025-07-16,株式会社Ｃｒａｉｎ,,株式会社,千葉県,成田市,江弁須３０２番地１,,12,211,2860047,,,,,,,2025-07-16,1,,,,,クレイン,0
1753,8040001139677,新規,0,2025-07-16,2025-07-16,株式会社ももぐみ,,株式会社,千葉県,浦安市,日の出５丁目３番Ｆ－１００３号,,12,227,2790013,,,,,,,2025-07-16,1,,,,,モモグミ,0
1754,8040001139702,新規,0,2025-07-16,2025-07-16,海の良品株式会社,,株式会社,千葉県,君津市,大中３３４番地,,12,225,2920522,,,,,,,2025-07-16,1,,,,,ウミノリョウヒン,0
1758,8040003028036,新規,0,2025-07-16,2025-07-16,Ｕｌｕ合同会社,,合同会社,千葉県,鎌ケ谷市,南初富３丁目１５番２２－４号,,12,224,2730123,,,,,,,2025-07-16,1,,,,,ウル,0
1759,8040003028052,新規,0,2025-07-16,2025-07-16,合同会社ふくくる,,合同会社,千葉県,習志野市,谷津５丁目１０番１１号,,12,216,2750026,,,,,,,2025-07-16,1,,,,,フククル,0
1760,8040003028069,新規,0,2025-07-16,2025-07-16,ハツウグイス合同会社,,合同会社,千葉県,市川市,八幡５丁目６番１５号,,12,203,2720021,,,,,,,2025-07-16,1,,,,,ハツウグイス,0
1766,8070001043117,新規,0,2025-07-16,2025-07-16,Ｂ　Ｓｍａｒｔ　Ｊａｐａｎ株式会社,,株式会社,群馬県,高崎市,藤塚町２６０番地４,,10,202,3700875,,,,,,,2025-07-16,1,,,,,ビースマートジャパン,0
1770,8080103003372,新規,0,2025-07-16,2025-07-16,合同会社ＯＪＩＴＡＮ,,合同会社,静岡県,御殿場市,新橋７９７番地の９,,22,215,4120043,,,,,,,2025-07-16,1,,,,,オジタン,0
1777,8110003005804,新規,0,2025-07-16,2025-07-16,合同会社ルミナス,,合同会社,新潟県,南魚沼市,舞子２０５６番地１０フォレストヒルズ石打５１４号,,15,226,9496423,,,,,,,2025-07-16,1,,,,,ルミナス,0
1785,8120001277733,新規,0,2025-07-16,2025-07-16,株式会社ジャミング,,株式会社,大阪府,大阪市東成区,東小橋１丁目１５番２号オフィスティーアンドエム６０１号,,27,115,5370024,,,,,,,2025-07-16,1,,,,,ジャミング,0
1786,8120001277758,新規,0,2025-07-16,2025-07-16,株式会社ＷＩＬＤ　ＢＬＡＤＥ,,株式会社,大阪府,大阪市中央区,谷町９丁目２番１０号９０１号,,27,128,5420012,,,,,,,2025-07-16,1,,,,,ワイルドブレード,0
1787,8120001277931,新規,0,2025-07-16,2025-07-16,パットイノベーション株式会社,,株式会社,大阪府,大阪市北区,天神橋３丁目３－２０ＭＥＳＳＡＧＥＴＥＮＳＡＮ５０３,,27,127,5300041,,,,,,,2025-07-16,1,,,,,パットイノベーション,0
1788,8120001277964,新規,0,2025-07-16,2025-07-16,ＷＡＮＳ株式会社,,株式会社,大阪府,大阪市東成区,大今里４丁目１３－１６,,27,115,5370012,,,,,,,2025-07-16,1,,,,,ワンス,0
1792,8120003029991,新規,0,2025-07-16,2025-07-16,レグロス・コンサルタント合同会社,,合同会社,大阪府,大阪市北区,梅田１丁目２番２号大阪駅前第２ビル１２－１２,,27,127,5300001,,,,,,,2025-07-16,1,,,,,レグロスコンサルタント,0
1793,8120003030000,新規,0,2025-07-16,2025-07-16,合同会社Ｏｆｆｉｃｅ　Ｓ,,合同会社,大阪府,大阪市城東区,中央２丁目１４番Ｄ－２９０５号,,27,118,5360005,,,,,,,2025-07-16,1,,,,,オフィスエス,0
1795,8120005025031,新規,0,2025-07-16,2025-07-16,税理士法人アイムパートナーズ,,その他の設立登記法人,大阪府,枚方市,禁野本町１丁目１６番５－２０２号,,27,210,5731197,,,,,,,2025-07-16,1,,,,,アイムパートナーズ,0
1797,8120101072118,新規,0,2025-07-16,2025-07-16,Ｚｅｏ　Ｎｅｘｔ株式会社,,株式会社,大阪府,堺市西区,鶴田町２７番２７号,,27,144,5938323,,,,,,,2025-07-16,1,,,,,ゼオネクスト,0
1806,8130001080046,新規,0,2025-07-16,2025-07-16,京阪ハウジング株式会社,,株式会社,京都府,八幡市,八幡武蔵芝７番地１２,,26,210,6148052,,,,,,,2025-07-16,1,,,,,ケイハンハウジング,0
1807,8130001080054,新規,0,2025-07-16,2025-07-16,株式会社Ｋａｋｉｕｃｈｉ,,株式会社,京都府,京都市中京区,堺町通姉小路下る大阪材木町６９１番地メロディハイム堺町３０７,,26,104,6048182,,,,,,,2025-07-16,1,,,,,カキウチ,0
1812,8140001139171,新規,0,2025-07-16,2025-07-16,ユニオンリンクス株式会社,,株式会社,兵庫県,神戸市中央区,波止場町６－５国産２号上屋ＳＯ－ＫＯ,,28,110,6500042,,,,,,,2025-07-16,1,,,,,ユニオンリンクス,0
1813,8140001139254,新規,0,2025-07-16,2025-07-16,株式会社都ホールディングス,,株式会社,兵庫県,洲本市,五色町都志大宮１６０番地２,,28,205,6561303,,,,,,,2025-07-16,1,,,,,ミヤコホールディングス,0
1814,8140001139262,新規,0,2025-07-16,2025-07-16,株式会社神戸栄光商事,,株式会社,兵庫県,神戸市中央区,元町通４丁目１番１２号,,28,110,6500022,,,,,,,2025-07-16,1,,,,,コウベエイコウショウジ,0
1825,8180001167573,新規,0,2025-07-16,2025-07-16,ＯＭ９Ｐ株式会社,,株式会社,愛知県,名古屋市天白区,久方３丁目１１３番地,,23,116,4680034,,,,,,,2025-07-16,1,,,,,オーエムナインピー,0
1826,8180001167631,新規,0,2025-07-16,2025-07-16,株式会社タムテック,,株式会社,愛知県,尾張旭市,平子町長池上６２５７番地８,,23,226,4880872,,,,,,,2025-07-16,1,,,,,タムテック,0
1827,8180001167739,新規,0,2025-07-16,2025-07-16,株式会社フリーク,,株式会社,愛知県,名古屋市熱田区,南一番町２１番２１号,,23,109,4560055,,,,,,,2025-07-16,1,,,,,フリーク,0
1828,8180001167821,新規,0,2025-07-16,2025-07-16,丸正株式会社,,株式会社,愛知県,名古屋市東区,泉１丁目１５番１４号アルピニストビル５Ｃ,,23,102,4610001,,,,,,,2025-07-16,1,,,,,セイイ,0
1830,8180005021157,新規,0,2025-07-16,2025-07-16,一般社団法人いっぽいっぽ,,その他の設立登記法人,愛知県,津島市,寺野町字五反田４３番地,,23,208,4960003,,,,,,,2025-07-16,1,,,,,イッポイッポ,0
1831,8180005021165,新規,0,2025-07-16,2025-07-16,医療法人蓬莱会,,その他の設立登記法人,愛知県,名古屋市千種区,内山３丁目１０番２２号ＹＡＭＡＴＯビル４階,,23,101,4640075,,,,,,,2025-07-16,1,,,,,ホウライカイ,0
1832,8180301039976,新規,0,2025-07-16,2025-07-16,株式会社武正,,株式会社,愛知県,豊田市,浄水町南平１５０番地１,,23,211,4700343,,,,,,,2025-07-16,1,,,,,ブショウ,0
1834,8190001032396,新規,0,2025-07-16,2025-07-16,株式会社Ａ＆Ｋ,,株式会社,三重県,松阪市,川井町９９６番地２コーポトピア２１Ｂ号室,,24,204,5150818,,,,,,,2025-07-16,1,,,,,エーアンドケイ,0
1835,8200001044043,新規,0,2025-07-16,2025-07-16,株式会社Ｌｉｆｅ８,,株式会社,岐阜県,可児市,星見台１丁目７６番地,,21,214,5090230,,,,,,,2025-07-16,1,,,,,ライフエイト,0
1836,8200003006917,新規,0,2025-07-16,2025-07-16,ブリジストン合同会社,,合同会社,岐阜県,高山市,上岡本町７丁目１００番マンション飛騨３２,,21,203,5060055,,,,,,,2025-07-16,1,,,,,ブリジストン,0
1838,8220001026808,新規,0,2025-07-16,2025-07-16,株式会社金沢サムライズ,,株式会社,石川県,金沢市,松島１丁目３２番地２,,17,201,9200364,,,,,,,2025-07-16,1,,,,,カナザワサムライズ,0
1845,8260005011496,新規,0,2025-07-16,2025-07-16,三村社会保険労務士法人,,その他の設立登記法人,岡山県,岡山市南区,西高崎３７番地,,33,104,7091204,,,,,,,2025-07-16,1,,,,,ミムラ,0
1851,8290001110761,新規,0,2025-07-16,2025-07-16,株式会社Ｅｌｓｏｌａｌｕｎａ,,株式会社,福岡県,福岡市中央区,天神２丁目２番１２号Ｔ＆Ｊビルディング７Ｆ,,40,133,8100001,,,,,,,2025-07-16,1,,,,,エルソラルナ,0
1864,8370001052839,新規,0,2025-07-16,2025-07-16,株式会社Ｔｈｅ　Ａｄｖａｎｃｅ,,株式会社,宮城県,塩竈市,石堂２番１１－３号,,04,203,9850031,,,,,,,2025-07-16,1,,,,,ジアドバンス,0
1869,8410005006654,新規,0,2025-07-16,2025-07-16,一般社団法人バロック音楽ひろめ隊,,その他の設立登記法人,秋田県,横手市,鍛冶町４番２号ＹＭオフィス,,05,203,0130031,,,,,,,2025-07-16,1,,,,,バロックオンガクヒロメタイ,0
1875,8430001094809,新規,0,2025-07-16,2025-07-16,株式会社Ｃｒｅｅｋ,,株式会社,北海道,札幌市中央区,南二条西５丁目３１－１ＲＭＢｌｄ．７０１,,01,101,0600062,,,,,,,2025-07-16,1,,,,,クリーク,0
1877,8430003017890,新規,0,2025-07-16,2025-07-16,７７７だからとりあえず設立してみた合同会社,,合同会社,北海道,札幌市中央区,南三条西５丁目２１番地クリオ札幌大通１００４号,,01,101,0600063,,,,,,,2025-07-16,1,,,,,ナナナナナナダカラトリアエズセツリツシテミタ,0
1878,8430003017916,新規,0,2025-07-16,2025-07-16,久栄建機合同会社,,合同会社,北海道,滝川市,東滝川町１丁目３番７６号,,01,225,0730027,,,,,,,2025-07-16,1,,,,,キュウエイケンキ,0
1879,8450001014673,新規,0,2025-07-16,2025-07-16,藤共アセットマネジメント株式会社,,株式会社,北海道,紋別郡興部町,字興部１９３番地の１,,01,561,0981600,,,,,,,2025-07-16,1,,,,,フジキョウアセットマネジメント,0
1894,9010001256904,新規,0,2025-07-16,2025-07-16,株式会社ＡＳＵＶＩＡ,,株式会社,東京都,千代田区,岩本町２丁目７番１２号ビルックス３、２Ｆ,,13,101,1010032,,,,,,,2025-07-16,1,,,,,アスビア,0
1895,9010001256912,新規,0,2025-07-16,2025-07-16,株式会社ＭＣＭＸＣｌｌ,,株式会社,東京都,千代田区,神田鍛冶町３丁目３－２１,,13,101,1010045,,,,,,,2025-07-16,1,,,,,イチキューキューニ,0
1896,9010001256929,新規,0,2025-07-16,2025-07-16,株式会社エステートプラス,,株式会社,東京都,中央区,晴海３丁目１３－２ＤＥＵＸＴＯＵＲＥＷＥＳＴ５２０４,,13,102,1040053,,,,,,,2025-07-16,1,,,,,エステートプラス,0
1897,9010001256937,新規,0,2025-07-16,2025-07-16,ハジミ株式会社,,株式会社,東京都,中央区,銀座１丁目１２番４号Ｎ＆ＥＢＬＤ．６Ｆ,,13,102,1040061,,,,,,,2025-07-16,1,,,,,ハジミ,0
1899,9010003047962,新規,0,2025-07-16,2025-07-16,合同会社ＤＹＫソリューションズ,,合同会社,東京都,中央区,京橋１丁目８番１０号,,13,102,1040031,,,,,,,2025-07-16,1,,,,,ディーワイケーソリューションズ,0
1900,9010003048003,新規,0,2025-07-16,2025-07-16,合同会社ＨＭＺＥＨ７,,合同会社,東京都,中央区,銀座４丁目６番１号三幸アセットマネジメント株式会社内,,13,102,1040061,,,,,,,2025-07-16,1,,,,,エイチエムゼッチセブン,0
1901,9010003048060,新規,0,2025-07-16,2025-07-16,ＡＶＩＴＡ　Ｍｅｄｉｃａｌ　Ｊａｐａｎ合同会社,,合同会社,東京都,中央区,日本橋室町４丁目３番９号,,13,102,1030022,,,,,,,2025-07-16,1,,,,,アヴィタメディカルジャパン,0
1903,9010005040379,新規,0,2025-07-16,2025-07-16,ＨＫプロパティーズ一般社団法人,,その他の設立登記法人,東京都,千代田区,平河町１丁目６番１５号シルスフィア会計事務所内,,13,101,1020093,,,,,,,2025-07-16,1,,,,,エイチケイプロパティーズ,0
1909,9010401191569,新規,0,2025-07-16,2025-07-16,ＯＭキャピタル株式会社,,株式会社,東京都,港区,海岸２丁目５番１－１７１０号,,13,103,1050022,,,,,,,2025-07-16,1,,,,,オーエムキャピタル,0
1910,9010401191833,新規,0,2025-07-16,2025-07-16,ＫＨＣ・ホテル・オペレーションズ・ツー株式会社,,株式会社,東京都,港区,愛宕２丁目５番１号,,13,103,1050002,,,,,,,2025-07-16,1,,,,,ケーエッチシーホテルオペレーションズツー,0
1912,9010403035534,新規,0,2025-07-16,2025-07-16,合同会社ＣＡＮＯＰＵ　ＳＴＵＤＩＯ,,合同会社,東京都,港区,北青山１丁目３番１号アールキューブ青山３階,,13,103,1070061,,,,,,,2025-07-16,1,,,,,カノープスタジオ,0
1913,9010403035591,新規,0,2025-07-16,2025-07-16,Ｍａｒｉ　ＪＰＮ　ＴｏｐＳｐｉｎ　Ｈｏｌｄｉｎｇｓ合同会社,,合同会社,東京都,港区,白金台３丁目１０番１０号,,13,103,1080071,,,,,,,2025-07-16,1,,,,,マリジャパントップスピンホールディングス,0
1920,9010801001096,新規,0,2025-07-16,2025-07-16,株式会社イナバ,,株式会社,東京都,大田区,池上１丁目７番４号,,13,111,1460082,,,,,,,2025-07-16,1,,,,,イナバ,0
1925,9010903010086,新規,0,2025-07-16,2025-07-16,合同会社横見商事,,合同会社,東京都,世田谷区,北沢５丁目２３番２４号,,13,112,1550031,,,,,,,2025-07-16,1,,,,,ヨコミショウジ,0
1929,9011001170979,新規,0,2025-07-16,2025-07-16,スタンレーモビリティエレクトリック株式会社,,株式会社,東京都,目黒区,中目黒２丁目９番１３号,,13,110,1530061,,,,,,,2025-07-16,1,,,,,スタンレーモビリティエレクトリック,0
1930,9011001170995,新規,0,2025-07-16,2025-07-16,株式会社アイピーエス,,株式会社,東京都,渋谷区,恵比寿西２丁目４番８号ウィンド恵比寿ビル８Ｆ,,13,113,1500021,,,,,,,2025-07-16,1,,,,,アイピーエス,0
1931,9011001171259,新規,0,2025-07-16,2025-07-16,株式会社ＥＮＢＡＳＨＩ,,株式会社,東京都,渋谷区,神泉町２０番２１号,,13,113,1500045,,,,,,,2025-07-16,1,,,,,エンバシ,0
1933,9011003022096,新規,0,2025-07-16,2025-07-16,スースー・パートナーズ合同会社,,合同会社,東京都,目黒区,駒場３丁目５番１８号,,13,110,1530041,,,,,,,2025-07-16,1,,,,,スースーパートナーズ,0
1936,9011103016089,新規,0,2025-07-16,2025-07-16,サリー合同会社,,合同会社,東京都,新宿区,新宿２丁目１２番１３号新宿アントレサロンビル２階,,13,104,1600022,,,,,,,2025-07-16,1,,,,,サリー,0
1937,9011103016122,新規,0,2025-07-16,2025-07-16,合同会社ＫＳ　Ｄｉａｂｅｔｅｓ　Ｓｕｐｐｏｒｔ,,合同会社,東京都,新宿区,西新宿３丁目３番１３号西新宿水間ビル２Ｆ,,13,104,1600023,,,,,,,2025-07-16,1,,,,,ケーエスダイアベティスサポート,0
1938,9011103016163,新規,0,2025-07-16,2025-07-16,合同会社イサコ,,合同会社,東京都,新宿区,西新宿３丁目３番１３号西新宿水間ビル６階,,13,104,1600023,,,,,,,2025-07-16,1,,,,,イサコ,0
1947,9011501032324,新規,0,2025-07-16,2025-07-16,ストラクティブ株式会社,,株式会社,東京都,荒川区,東日暮里５丁目５０番５号,,13,118,1160014,,,,,,,2025-07-16,1,,,,,ストラクティブ,0
1951,9012401043353,新規,0,2025-07-16,2025-07-16,朱馬株式会社,,株式会社,東京都,三鷹市,下連雀２丁目６番２７－２０１号,,13,204,1810013,,,,,,,2025-07-16,1,,,,,シュマ,0
1953,9012403007232,新規,0,2025-07-16,2025-07-16,合同会社ムリーヤ２０３５,,合同会社,東京都,稲城市,東長沼１９８８－１－２０６,,13,225,2060802,,,,,,,2025-07-16,1,,,,,,0
1955,9012703003311,新規,0,2025-07-16,2025-07-16,コアフィット合同会社,,合同会社,東京都,西東京市,芝久保町５丁目４番５８－１０３号,,13,229,1880014,,,,,,,2025-07-16,1,,,,,コアフィット,0
1958,9012801024119,新規,0,2025-07-16,2025-07-16,株式会社ビルクルー,,株式会社,東京都,立川市,上砂町２丁目３３番地の７ストーク１０２号,,13,202,1900032,,,,,,,2025-07-16,1,,,,,ビルクルー,0
1972,9020001163926,新規,0,2025-07-16,2025-07-16,株式会社ＪＰＡＩ,,株式会社,神奈川県,横浜市泉区,岡津町８６番地７,,14,116,2450003,,,,,,,2025-07-16,1,,,,,ジェーピーエイアイ,0
1977,9021001085788,新規,0,2025-07-16,2025-07-16,株式会社玉電,,株式会社,神奈川県,厚木市,長谷１２４９番地１０,,14,212,2430036,,,,,,,2025-07-16,1,,,,,タマデン,0
1978,9021001085796,新規,0,2025-07-16,2025-07-16,株式会社開電気,,株式会社,神奈川県,大和市,上草柳６丁目２番２４号,,14,213,2420029,,,,,,,2025-07-16,1,,,,,ヒラキデンキ,0
1982,9021003016262,新規,0,2025-07-16,2025-07-16,合同会社ピースコレクション,,合同会社,神奈川県,藤沢市,石川６８８番地の５,,14,205,2520815,,,,,,,2025-07-16,1,,,,,ピースコレクション,0
1983,9021003016270,新規,0,2025-07-16,2025-07-16,リトルブルー合同会社,,合同会社,神奈川県,三浦郡葉山町,下山口１８２０－１７,,14,301,2400116,,,,,,,2025-07-16,1,,,,,リトルブルー,0
1984,9021003016304,新規,0,2025-07-16,2025-07-16,合同会社マークリッジ・ラボ,,合同会社,神奈川県,鎌倉市,大船５丁目２番４６－４０６号,,14,204,2470056,,,,,,,2025-07-16,1,,,,,マークリッジラボ,0
1985,9021005013398,新規,0,2025-07-16,2025-07-16,一般社団法人ハノン,,その他の設立登記法人,神奈川県,茅ヶ崎市,中海岸４丁目１５－４０茅ヶ崎シーサイドパレス４１３,,14,207,2530055,,,,,,,2025-07-16,1,,,,,ハノン,0
1988,9030001167653,新規,0,2025-07-16,2025-07-16,株式会社ｕｆｕｕ,,株式会社,埼玉県,川越市,幸町４－１りそなコエドテラス３ＦＲｅｓｏｎａＫａｗａｇｏｅＢａｓｅ＋,,11,201,3500063,,,,,,,2025-07-16,1,,,,,ウフウ,0
1989,9030001167678,新規,0,2025-07-16,2025-07-16,Ｈｙｂｒｉｄ　Ｋ株式会社,,株式会社,埼玉県,川口市,鳩ヶ谷本町４丁目１－１５－３０９,,11,203,3340002,,,,,,,2025-07-16,1,,,,,ハイブリッドケー,0
1990,9030001167694,新規,0,2025-07-16,2025-07-16,株式会社凛,,株式会社,埼玉県,さいたま市桜区,大字五関５９３番地３,,11,106,3380815,,,,,,,2025-07-16,1,,,,,リン,0
1998,9040001139643,新規,0,2025-07-16,2025-07-16,株式会社エーラックス,,株式会社,千葉県,松戸市,上矢切１０９１－３,,12,207,2710094,,,,,,,2025-07-16,1,,,,,エーラックス,0
1999,9040001139676,新規,0,2025-07-16,2025-07-16,ガースー株式会社,,株式会社,千葉県,市川市,曽谷１丁目２６番９号,,12,203,2720832,,,,,,,2025-07-16,1,,,,,ガースー,0
2000,9040001139692,新規,0,2025-07-16,2025-07-16,株式会社ＫＯＵＭＥＩ,,株式会社,千葉県,野田市,上花輪６３７番地３－２０１号,,12,208,2780033,,,,,,,2025-07-16,1,,,,,コウメイ,0
2016,9080101025657,新規,0,2025-07-16,2025-07-16,株式会社ライフ,,株式会社,静岡県,伊豆の国市,長岡１７１番地の４,,22,225,4102211,,,,,,,2025-07-16,1,,,,,ライフ,0
2017,9090001019378,新規,0,2025-07-16,2025-07-16,株式会社オーチョ・ブライト・ホールディングス,,株式会社,山梨県,甲府市,中央２丁目４番２号,,19,201,4000032,,,,,,,2025-07-16,1,,,,,オーチョブライトホールディングス,0
2028,9120001277451,新規,0,2025-07-16,2025-07-16,株式会社Ｎａｎａｎａ,,株式会社,大阪府,大阪市生野区,小路２丁目１５－２７リアライズ小路駅前１０８号,,27,116,5440002,,,,,,,2025-07-16,1,,,,,ナナナ,0
2029,9120001277617,新規,0,2025-07-16,2025-07-16,株式会社未来人材,,株式会社,大阪府,大阪市北区,梅田１丁目１－３大阪駅前第３ビル２９階１－１－１号室,,27,127,5300001,,,,,,,2025-07-16,1,,,,,ミライジンザイ,0
2030,9120001277807,新規,0,2025-07-16,2025-07-16,株式会社ＬＩＧＡＲＣＨ,,株式会社,大阪府,大阪市北区,中之島４丁目２番４０号１３０５号室,,27,127,5300005,,,,,,,2025-07-16,1,,,,,リガーチ,0
2031,9120001277831,新規,0,2025-07-16,2025-07-16,株式会社１,,株式会社,大阪府,大阪市北区,梅田１丁目１－３大阪駅前第３ビル２３０７,,27,127,5300001,,,,,,,2025-07-16,1,,,,,イチ,0
2032,9120001277864,新規,0,2025-07-16,2025-07-16,株式会社Ｂｌａｉｒ,,株式会社,大阪府,大阪市東淀川区,豊里６丁目２９番８号３階,,27,114,5330013,,,,,,,2025-07-16,1,,,,,ブレア,0
2033,9120001277955,新規,0,2025-07-16,2025-07-16,ＨＩ　ＢＡＧＳ株式会社,,株式会社,大阪府,大阪市浪速区,下寺２丁目６－１９ヴィラ松井マンション５Ｅ室,,27,111,5560001,,,,,,,2025-07-16,1,,,,,ハイバッグス,0
2034,9120001278029,新規,0,2025-07-16,2025-07-16,株式会社たすく,,株式会社,大阪府,大阪市生野区,生野東１丁目６番２５－１０１号,,27,116,5440025,,,,,,,2025-07-16,1,,,,,タスク,0
2036,9120101072067,新規,0,2025-07-16,2025-07-16,株式会社探求者,,株式会社,大阪府,堺市北区,八下北３番地７,,27,146,5918014,,,,,,,2025-07-16,1,,,,,タンキュウシャ,0
2037,9120101072100,新規,0,2025-07-16,2025-07-16,小林デザイン株式会社,,株式会社,大阪府,藤井寺市,林２丁目６番４１号,,27,226,5830007,,,,,,,2025-07-16,1,,,,,コバヤシデザイン,0
2038,9120101072109,新規,0,2025-07-16,2025-07-16,株式会社ＪＪ　Ｌｉｖｉｎｇ　Ｐｌａｎｔｓ＆Ｃｏ．,,株式会社,大阪府,岸和田市,沼町１１番７号２０２,,27,202,5960053,,,,,,,2025-07-16,1,,,,,ジェイジェイリビングプランツアンドカンパニー,0
2039,9120101072117,新規,0,2025-07-16,2025-07-16,株式会社幸,,株式会社,大阪府,富田林市,美山台７番２－９２３号,,27,214,5840039,,,,,,,2025-07-16,1,,,,,サチ,0
2040,9120103006568,新規,0,2025-07-16,2025-07-16,ＲＩＳＥ　ＬＡＢ合同会社,,合同会社,大阪府,羽曳野市,島泉８丁目１３－１,,27,222,5830881,,,,,,,2025-07-16,1,,,,,ライズラボ,0
2043,9120903005744,新規,0,2025-07-16,2025-07-16,合同会社ＧＲＡＮＴ,,合同会社,大阪府,豊中市,大黒町２丁目１０番９号,,27,203,5610827,,,,,,,2025-07-16,1,,,,,グラント,0
2046,9130001080111,新規,0,2025-07-16,2025-07-16,森禾株式会社,,株式会社,京都府,京都市伏見区,深草池ノ内町１２－１メゾン青風３０９,,26,109,6120031,,,,,,,2025-07-16,1,,,,,モリカ,0
2047,9130001080193,新規,0,2025-07-16,2025-07-16,しんしん株式会社,,株式会社,京都府,京都市上京区,五辻町８２番地ＯＴＡ．ｌａｂ２０３,00139948,26,102,6028446,,,,,,,2025-07-16,1,,,,,シンシン,0
2052,9140001139253,新規,0,2025-07-16,2025-07-16,株式会社スガケン,,株式会社,兵庫県,姫路市,夢前町菅生澗８７８番地４２,,28,201,6712134,,,,,,,2025-07-16,1,,,,,スガケン,0
2053,9140001139328,新規,0,2025-07-16,2025-07-16,株式会社Ｔｅｓｏｒｉａ,,株式会社,兵庫県,宝塚市,中山寺１丁目１４－１４,,28,214,6650861,,,,,,,2025-07-16,1,,,,,テソリア,0
2054,9140001139385,新規,0,2025-07-16,2025-07-16,株式会社シーエイト,,株式会社,兵庫県,明石市,小久保３丁目１番地の１,,28,203,6730005,,,,,,,2025-07-16,1,,,,,シーエイト,0
2055,9150001028273,新規,0,2025-07-16,2025-07-16,株式会社奨Ｌｉｆｅ,,株式会社,奈良県,奈良市,南京終町５丁目３７７番地の４０,,29,201,6308141,,,,,,,2025-07-16,1,,,,,ショウライフ,0
2056,9160001026879,新規,0,2025-07-16,2025-07-16,株式会社ＳＩＳＳ,,株式会社,滋賀県,彦根市,旭町９‐３４上野第４ビル１Ｆ,,25,202,5220073,,,,,,,2025-07-16,1,,,,,シス,0
2057,9160001026912,新規,0,2025-07-16,2025-07-16,株式会社ふじもと建築,,株式会社,滋賀県,米原市,宇賀野１０５９番地１,,25,214,5210062,,,,,,,2025-07-16,1,,,,,フジモトケンチク,0
2060,9170001018719,新規,0,2025-07-16,2025-07-16,株式会社南海,,株式会社,和歌山県,御坊市,湯川町財部７１７番地１,,30,205,6440011,,,,,,,2025-07-16,1,,,,,ナンカイ,0
2064,9180001167622,新規,0,2025-07-16,2025-07-16,株式会社デザインオフィスミュー,,株式会社,愛知県,名古屋市中村区,太閤４丁目１１番６号,,23,105,4530801,,,,,,,2025-07-16,1,,,,,デザインオフィスミュー,0
2065,9180001167630,新規,0,2025-07-16,2025-07-16,株式会社タカプランニングＣ‐ＺＯＮＥ,,株式会社,愛知県,一宮市,住吉１丁目６番２４－２０５号,,23,203,4910919,,,,,,,2025-07-16,1,,,,,タカプランニングシーゾーン,0
2066,9180001167647,新規,0,2025-07-16,2025-07-16,株式会社パンサラッサ,,株式会社,愛知県,名古屋市瑞穂区,御劔町２丁目１０番地の３,,23,108,4670875,,,,,,,2025-07-16,1,,,,,パンサラッサ,0
2067,9180001167655,新規,0,2025-07-16,2025-07-16,ルミナス株式会社,,株式会社,愛知県,名古屋市瑞穂区,松栄町２丁目６４番地の１ＨｅｅｐｏｐＶｉｌｌａ３０２号,,23,108,4670025,,,,,,,2025-07-16,1,,,,,ルミナス,0
2068,9180003028723,新規,0,2025-07-16,2025-07-16,合同会社ＳＥＥＬＤ,,合同会社,愛知県,名古屋市南区,豊田３丁目１０番７号（バンベール・ラフィネ道徳２０５号）,,23,112,4570841,,,,,,,2025-07-16,1,,,,,シールド,0
2076,9220001026807,新規,0,2025-07-16,2025-07-16,株式会社ＲＩＳＩＮＧＣＲＡＦＴ,,株式会社,石川県,加賀市,河原町ヘ２６番地１,,17,206,9220314,,,,,,,2025-07-16,1,,,,,ライズィングクラフト,0
2079,9240001065217,新規,0,2025-07-16,2025-07-16,株式会社湊工業,,株式会社,広島県,福山市,東陽台２丁目２７番１２号,,34,207,7210912,,,,,,,2025-07-16,1,,,,,ミナトコウギョウ,0
2080,9240001065225,新規,0,2025-07-16,2025-07-16,システムアイ株式会社,,株式会社,広島県,広島市東区,温品３丁目１５番１５号,,34,102,7320033,,,,,,,2025-07-16,1,,,,,システムアイ,0
2081,9260001040358,新規,0,2025-07-16,2025-07-16,株式会社ＬＩＶＤ,,株式会社,岡山県,岡山市南区,泉田４４１番地８,,33,104,7000944,,,,,,,2025-07-16,1,,,,,リヴド,0
2086,9290001110760,新規,0,2025-07-16,2025-07-16,株式会社ＰＥＡＣＥ,,株式会社,福岡県,福岡市博多区,中洲２丁目７番３号４階Ｃ号室,,40,132,8100801,,,,,,,2025-07-16,1,,,,,ピース,0
2091,9290003017095,新規,0,2025-07-16,2025-07-16,新和合同会社,,合同会社,福岡県,福岡市東区,香椎１丁目１９－１５パインヒルズ香椎２０３,,40,131,8130011,,,,,,,2025-07-16,1,,,,,シンワ,0
2092,9290003017145,新規,0,2025-07-16,2025-07-16,合同会社Ｍｏｏｉ,,合同会社,福岡県,福岡市西区,姪浜駅南３丁目１１番１５号,,40,135,8190006,,,,,,,2025-07-16,1,,,,,モーイ,0
2095,9300005007258,新規,0,2025-07-16,2025-07-16,一般社団法人へうげる,,その他の設立登記法人,佐賀県,西松浦郡有田町,中樽３丁目１０番１号,00139964,41,401,8440002,,,,,,,2025-07-16,1,,,,,ヒョウゲル,0
2103,9390001018044,新規,0,2025-07-16,2025-07-16,アジアンダイニングブッダ株式会社,,株式会社,山形県,山形市,南二番町６番３号,,06,201,9902442,,,,,,,2025-07-16,1,,,,,アジアンダイニングブッダ,0
2106,9400003003505,新規,0,2025-07-16,2025-07-16,合同会社ヒラメキ,,合同会社,岩手県,盛岡市,向中野字幅７番地４,,03,201,0200851,,,,,,,2025-07-16,1,,,,,ヒラメキ,0
2113,9430001094790,新規,0,2025-07-16,2025-07-16,北海道ＴＡＪＩＭＡ　ＴＲＡＤＩＮＧ株式会社,,株式会社,北海道,札幌市西区,平和二条１１丁目１番２６号,,01,107,0630022,,,,,,,2025-07-16,1,,,,,ホッカイドウタジマトレイディング,0
2114,9430001094849,新規,0,2025-07-16,2025-07-16,株式会社翔建興業,,株式会社,北海道,砂川市,西一条北１６丁目１番１号,,01,226,0730161,,,,,,,2025-07-16,1,,,,,ショウケンコウギョウ,0
2119,9460105002317,新規,0,2025-07-16,2025-07-16,フロンティアパートナー社会保険労務士法人,,その他の設立登記法人,北海道,帯広市,西七条南６丁目１番地４,,01,207,0800017,,,,,,,2025-07-16,1,,,,,フロンティアパートナー,0
2127,9700150131251,新規,0,2025-07-16,2025-06-25,松山西ロータリークラブ,,その他,愛媛県,松山市,道後樋又９－１９　第二森ビル１階,,38,201,7900825,,,,,,,2025-06-25,1,,,,,マツヤマニシロータリークラブ,0
