sequenceNumber,corporateNumber,process,correct,updateDate,changeDate,name,nameImageId,kind,prefectureName,cityName,streetNumber,addressImageId,prefectureCode,cityCode,postCode,addressOutside,addressOutsideImageId,closeDate,closeCause,successorCorporateNumber,changeCause,assignmentDate,latest,enName,enPrefectureName,enCityName,enAddressOutside,furigana,hihyoji
8,1010001255211,新規,0,2025-05-22,2025-05-22,暢旺株式会社,,株式会社,東京都,文京区,本郷４丁目１６番６号文京区本郷四丁目ビル天翔オフィス後楽園７階７０６－Ｈ号室,,13,105,1130033,,,,,,,2025-05-22,1,,,,,ハルアキ,0
9,1010001255228,新規,0,2025-05-22,2025-05-22,株式会社ＨＬＣソリューションズ,,株式会社,東京都,千代田区,神田三崎町１丁目１番１号ＨＬＣビル,,13,101,1010061,,,,,,,2025-05-22,1,,,,,エイチエルシーソリューションズ,0
10,1010001255260,新規,0,2025-05-22,2025-05-22,近代文化遺産株式会社,,株式会社,東京都,文京区,千駄木２丁目３６番１号エムフラッツ２０２号室,,13,105,1130022,,,,,,,2025-05-22,1,,,,,キンダイブンカイサン,0
12,1010003047375,新規,0,2025-05-22,2025-05-22,ＹＡＤＯＲＩＧＩ合同会社,,合同会社,東京都,千代田区,丸の内２丁目３－２郵船ビルディング,,13,101,1000005,,,,,,,2025-05-22,1,,,,,ヤドギリ,0
13,1010003047391,新規,0,2025-05-22,2025-05-22,合同会社クー＆ゴンエステート,,合同会社,東京都,中央区,晴海３丁目１６－１ベイサイドタワー晴海１２０５号室,,13,102,1040053,,,,,,,2025-05-22,1,,,,,クーアンドゴンエステート,0
14,1010003047433,新規,0,2025-05-22,2025-05-22,ステイコージー合同会社,,合同会社,東京都,中央区,日本橋１丁目４番１号,,13,102,1030027,,,,,,,2025-05-22,1,,,,,ステイコージー,0
21,1010401190306,新規,0,2025-05-22,2025-05-22,ハンザ・アドバイザーズ株式会社,,株式会社,東京都,港区,六本木６丁目１０番１号六本木ヒルズ森タワー１６階,,13,103,1060032,,,,,,,2025-05-22,1,,,,,ハンザアドバイザーズ,0
22,1010401190462,新規,0,2025-05-22,2025-05-22,株式会社Ｍａｇｎｏｌｉａ　Ｗｈｉｔｅ,,株式会社,東京都,港区,西新橋３丁目７番１号,,13,103,1050003,,,,,,,2025-05-22,1,,,,,マグノリアホワイト,0
25,1010403035054,新規,0,2025-05-22,2025-05-22,Ｉ‐Ｍｏｄ　Ｊａｐａｎ合同会社,,合同会社,東京都,港区,南青山２丁目２番１５号ウィン青山１２１４号,,13,103,1070062,,,,,,,2025-05-22,1,,,,,アイモッドジャパン,0
28,1010601067345,新規,0,2025-05-22,2025-05-22,株式会社Ｙｏｕｐｉｋ,,株式会社,東京都,江東区,東陽３丁目２３番２４号ＶＯＲＴ東陽町ビル３Ｆ,,13,108,1350016,,,,,,,2025-05-22,1,,,,,ユーピック,0
33,1010703007728,新規,0,2025-05-22,2025-05-22,合同会社福鷹,,合同会社,東京都,品川区,大崎３丁目２－２,,13,109,1410032,,,,,,,2025-05-22,1,,,,,フクタカ,0
45,1011003021576,新規,0,2025-05-22,2025-05-22,合同会社ｆｅｅｌ　ｇｏｏｄ　ｉｎｃ．,,合同会社,東京都,渋谷区,代々木５丁目３０番１－２１９号,,13,113,1510053,,,,,,,2025-05-22,1,,,,,フィールグッドインク,0
46,1011003021592,新規,0,2025-05-22,2025-05-22,ＳＮＡＦ　Ｃｏｎｓｕｌｔｉｎｇ合同会社,,合同会社,東京都,渋谷区,桜丘町１０番４号７階,,13,113,1500031,,,,,,,2025-05-22,1,,,,,スナフコンサルティング,0
49,1011101111709,新規,0,2025-05-22,2025-05-22,ＣＡＲＡＶＡＮ株式会社,,株式会社,東京都,新宿区,新宿４丁目３－１５レイフラット新宿Ｂ棟３Ｆ（３３）,,13,104,1600022,,,,,,,2025-05-22,1,,,,,キャラバン,0
50,1011101111799,新規,0,2025-05-22,2025-05-22,株式会社ろくＡＩ,,株式会社,東京都,新宿区,西新宿４丁目３２番１１号セントビラ永谷３０３,,13,104,1600023,,,,,,,2025-05-22,1,,,,,ロクエイアイ,0
55,1011201026369,新規,0,2025-05-22,2025-05-22,株式会社ＦＡＥＭ,,株式会社,東京都,中野区,中野５丁目５２番１５－３１４号,,13,114,1640001,,,,,,,2025-05-22,1,,,,,ファエム,0
68,1011701028360,新規,0,2025-05-22,2025-05-22,株式会社プレシャス,,株式会社,東京都,江戸川区,江戸川５丁目１２番６８号,,13,123,1340013,,,,,,,2025-05-22,1,,,,,プレシャス,0
82,1020001162968,新規,0,2025-05-22,2025-05-22,株式会社ＵＭＫマネジメント,,株式会社,神奈川県,横浜市西区,北幸２丁目１０－４８むつみビル３Ｆ,,14,103,2200004,,,,,,,2025-05-22,1,,,,,ユーエムケーマネジメント,0
83,1020001163000,新規,0,2025-05-22,2025-05-22,株式会社エクステリアデザイン,,株式会社,神奈川県,横浜市中区,海岸通４丁目２３番地,,14,104,2310002,,,,,,,2025-05-22,1,,,,,エクステリアデザイン,0
93,1021001085291,新規,0,2025-05-22,2025-05-22,株式会社ドライブアップ,,株式会社,神奈川県,伊勢原市,下落合一丁目１番地,,14,214,2591121,,,,,,,2025-05-22,1,,,,,ドライブアップ,0
105,1030001166638,新規,0,2025-05-22,2025-05-22,株式会社Ｔｅａｓｅｒ,,株式会社,埼玉県,所沢市,緑町４丁目４番１９－３０３号,,11,208,3591111,,,,,,,2025-05-22,1,,,,,ティザー,0
106,1030001166646,新規,0,2025-05-22,2025-05-22,ＮＡ商事株式会社,,株式会社,埼玉県,川越市,熊野町２０番地７（パレ・ドール上福岡２０３号室）,,11,201,3501146,,,,,,,2025-05-22,1,,,,,エヌエーショウジ,0
107,1030001166662,新規,0,2025-05-22,2025-05-22,株式会社ケアリッタ,,株式会社,埼玉県,川口市,並木１丁目１０番１８－４０３号ソレアード並木,,11,203,3320034,,,,,,,2025-05-22,1,,,,,ケアリッタ,0
108,1030001166670,新規,0,2025-05-22,2025-05-22,新井興業株式会社,,株式会社,埼玉県,川口市,東領家１丁目２１－１４第７池田マンション４０１号,,11,203,3320003,,,,,,,2025-05-22,1,,,,,アライコウギョウ,0
111,1030003026815,新規,0,2025-05-22,2025-05-22,合同会社ＮＡＴＳＵＪＩＮ,,合同会社,埼玉県,さいたま市中央区,上落合１丁目９番３－８２９号,,11,105,3380001,,,,,,,2025-05-22,1,,,,,ナツジン,0
117,1040001138883,新規,0,2025-05-22,2025-05-22,株式会社山崎園,00139254,株式会社,千葉県,鎌ケ谷市,道野辺中央４丁目１３番３号,,12,224,2730113,,,,,,,2025-05-22,1,,,,,ヤマザキエン,0
118,1040003027630,新規,0,2025-05-22,2025-05-22,合同会社Ｃｏｃｏ,,合同会社,千葉県,千葉市美浜区,磯辺１丁目９－１９,,12,106,2610012,,,,,,,2025-05-22,1,,,,,ココ,0
119,1040005022778,新規,0,2025-05-22,2025-05-22,医療法人社団恒花会,,その他の設立登記法人,千葉県,千葉市緑区,あすみが丘２丁目１６番地７,,12,105,2670066,,,,,,,2025-05-22,1,,,,,コウカカイ,0
133,1070003005930,新規,0,2025-05-22,2025-05-22,合同会社是好日,,合同会社,群馬県,渋川市,金井９１７番地１６,,10,208,3770027,,,,,,,2025-05-22,1,,,,,,0
161,1120001275917,新規,0,2025-05-22,2025-05-22,株式会社Ｓｔｅｐ　Ｌｉｎｋ,,株式会社,大阪府,大阪市北区,梅田１丁目１－３大阪駅前第３ビル２９階１－１－１号室,,27,127,5300001,,,,,,,2025-05-22,1,,,,,ステップリンク,0
162,1120001276015,新規,0,2025-05-22,2025-05-22,株式会社ＴＯＭ’ｓ,,株式会社,大阪府,寝屋川市,萱島東２丁目１２番３５－１１号,,27,215,5720824,,,,,,,2025-05-22,1,,,,,トムス,0
163,1120001276023,新規,0,2025-05-22,2025-05-22,車豊株式会社,,株式会社,大阪府,大阪市浪速区,幸町２丁目２番４７号メゾン難波６０６号室,,27,111,5560021,,,,,,,2025-05-22,1,,,,,シャホウ,0
166,1120003029486,新規,0,2025-05-22,2025-05-22,合同会社アドバン,,合同会社,大阪府,大阪市浪速区,幸町３丁目２番２４－８０１号,,27,111,5560021,,,,,,,2025-05-22,1,,,,,アドバン,0
167,1120003029494,新規,0,2025-05-22,2025-05-22,Ｔ・Ｃ貿易合同会社,,合同会社,大阪府,大阪市住吉区,遠里小野４丁目５－２、１０３,,27,120,5580032,,,,,,,2025-05-22,1,,,,,ティーシーボウエキ,0
168,1120003029511,新規,0,2025-05-22,2025-05-22,日尭合同会社,,合同会社,大阪府,大阪市生野区,新今里３丁目８－１６啓源ビル３０４,,27,116,5440001,,,,,,,2025-05-22,1,,,,,ニチギョウ,0
170,1120005024948,新規,0,2025-05-22,2025-05-22,ＮＰＯ法人Ｋｉｚｕｎａ,,その他の設立登記法人,大阪府,大阪市中央区,平野町２丁目２番１２号,,27,128,5410046,,,,,,,2025-05-22,1,,,,,キズナ,0
172,1120903005669,新規,0,2025-05-22,2025-05-22,ウィステリア・グレイス合同会社,,合同会社,大阪府,箕面市,牧落１丁目３番１０号（ＩＩＩ－１０３号）,00139251,27,220,5620004,,,,,,,2025-05-22,1,,,,,ウィステリアグレイス,0
175,1130001079714,新規,0,2025-05-22,2025-05-22,魁亜株式会社,,株式会社,京都府,京都市山科区,安朱馬場ノ東町１７番地１７,,26,110,6078006,,,,,,,2025-05-22,1,,,,,ガイア,0
176,1130001079722,新規,0,2025-05-22,2025-05-22,株式会社ＡＧ,,株式会社,京都府,京都市東山区,八坂新地末吉町８８－１－３Ｆ,,26,105,6050085,,,,,,,2025-05-22,1,,,,,エージー,0
184,1140001138634,新規,0,2025-05-22,2025-05-22,株式会社エターナル,,株式会社,兵庫県,姫路市,北条口２丁目３９－１－６０１,,28,201,6700935,,,,,,,2025-05-22,1,,,,,エターナル,0
191,1160001026770,新規,0,2025-05-22,2025-05-22,株式会社ｙｏｕｍｅ,,株式会社,滋賀県,彦根市,西沼波町２１３番地６,,25,202,5220038,,,,,,,2025-05-22,1,,,,,ユーミー,0
200,1180001166904,新規,0,2025-05-22,2025-05-22,株式会社ベントロジー,,株式会社,愛知県,知多郡南知多町,大字内海字小桝１５０番地の１,,23,445,4703321,,,,,,,2025-05-22,1,,,,,ベントロジー,0
201,1180003028508,新規,0,2025-05-22,2025-05-22,合同会社イチノヒカリ,,合同会社,愛知県,一宮市,大江１丁目１２番７号パールプラザ２－１Ｆ,,23,203,4910851,,,,,,,2025-05-22,1,,,,,イチノヒカリ,0
202,1180003028516,新規,0,2025-05-22,2025-05-22,合同会社ハヤテク,,合同会社,愛知県,名古屋市港区,当知３丁目８０４番地,,23,111,4550804,,,,,,,2025-05-22,1,,,,,ハヤテク,0
211,1200003006824,新規,0,2025-05-22,2025-05-22,合同会社ＣＨＲＯＮＯＳ,,合同会社,岐阜県,安八郡安八町,東結１５６１ＭＵＳＵＢＵ　ＴＥＲＡＳＵ,,21,383,5030112,,,,,,,2025-05-22,1,,,,,クロノス,0
228,1290001110041,新規,0,2025-05-22,2025-05-22,株式会社ＩＬＵ,,株式会社,福岡県,福岡市早良区,四箇６丁目２５番７号モウェルニーＥ,,40,137,8111103,,,,,,,2025-05-22,1,,,,,アイエルユー,0
229,1290001110082,新規,0,2025-05-22,2025-05-22,株式会社Ｒ＆Ｍ,,株式会社,福岡県,福岡市中央区,薬院３丁目１番２０号,,40,133,8100022,,,,,,,2025-05-22,1,,,,,アールアンドエム,0
237,1340001027346,新規,0,2025-05-22,2025-05-22,株式会社アフターエフェクト,,株式会社,鹿児島県,鹿屋市,西原１丁目２番１０号,,46,203,8930064,,,,,,,2025-05-22,1,,,,,アフターエフェクト,0
243,1390003002391,新規,0,2025-05-22,2025-05-22,出羽ＡＡＡ合同会社,,合同会社,山形県,鶴岡市,宝町７番３６－２号,,06,203,9970021,,,,,,,2025-05-22,1,,,,,,0
245,1400003003462,新規,0,2025-05-22,2025-05-22,合同会社マウンテニアズ・ヘイブン,,合同会社,岩手県,八幡平市,安比高原１１７番地１７,,03,214,0287306,,,,,,,2025-05-22,1,,,,,マウンテニアズヘイブン,0
250,1430001094393,新規,0,2025-05-22,2025-05-22,ガイドリー株式会社,,株式会社,北海道,札幌市中央区,南一条西２丁目１‐２木ＮＩＮＡＲＵ　ＢＬＤＧ．,,01,101,0600061,,,,,,,2025-05-22,1,,,,,ガイドリー,0
251,1430001094435,新規,0,2025-05-22,2025-05-22,Ａｓｓｅｔｓ８株式会社,,株式会社,北海道,札幌市中央区,南二条西２７丁目２番１７号,,01,101,0640802,,,,,,,2025-05-22,1,,,,,アセッツエイト,0
252,1430001094451,新規,0,2025-05-22,2025-05-22,株式会社ａｔｙｐｉｃａｌ,,株式会社,北海道,札幌市北区,北八条西１丁目３番地ＯＮＥ札幌ステーションタワー,,01,102,0600808,,,,,,,2025-05-22,1,,,,,エティピカル,0
254,1460103001716,新規,0,2025-05-22,2025-05-22,ＨＡＴＩＲＯＵ０８合同会社,,合同会社,北海道,帯広市,西十三条南１２丁目１番地１プリオールステラ１－Ａ,,01,207,0800023,,,,,,,2025-05-22,1,,,,,ハチロウゼロハチ,0
261,2010001255128,新規,0,2025-05-22,2025-05-22,株式会社ドクターズホワイトニング,,株式会社,東京都,中央区,銀座６丁目１３番１６号銀座ＷａｌｌビルＵＣＦ５階,,13,102,1040061,,,,,,,2025-05-22,1,,,,,ドクターズホワイトニング,0
262,2010001255169,新規,0,2025-05-22,2025-05-22,株式会社ヒトスケ,,株式会社,東京都,中央区,日本橋本石町３丁目１番２号ＦＯＲＥＣＡＳＴ新常盤橋１１Ｆ,,13,102,1030021,,,,,,,2025-05-22,1,,,,,ヒトスケ,0
263,2010001255202,新規,0,2025-05-22,2025-05-22,量子創薬株式会社,,株式会社,東京都,中央区,日本橋兜町９－５兜町平和ダイヤビル８２２号,,13,102,1030026,,,,,,,2025-05-22,1,,,,,リョウシソウヤク,0
265,2010003047366,新規,0,2025-05-22,2025-05-22,合同会社Ｓｐａｒｋｌｅ　Ｔｒｉｇｇｅｒ,,合同会社,東京都,中央区,日本橋室町１丁目１１番１２号日本橋水野ビル７階,,13,102,1030022,,,,,,,2025-05-22,1,,,,,スパークルトリガー,0
266,2010003047399,新規,0,2025-05-22,2025-05-22,うしろ合同会社,,合同会社,東京都,中央区,銀座３丁目１４番２号白鳥ビル４階,,13,102,1040061,,,,,,,2025-05-22,1,,,,,ウシロ,0
267,2010101016685,新規,0,2025-05-22,2025-05-22,株式会社リアージュ,,株式会社,東京都,八王子市,東町９番１０号ＥＣＳ第３５ビル５階,,13,201,1920082,,,,,,,2025-05-22,1,,,,,リアージュ,0
268,2010103002576,新規,0,2025-05-22,2025-05-22,合同会社Ｒｉｓｉｃａｒｅ,,合同会社,東京都,八王子市,大谷町４２番地５,,13,201,1920034,,,,,,,2025-05-22,1,,,,,リジカーレ,0
281,2010403035103,新規,0,2025-05-22,2025-05-22,合同会社剛健ラボ,,合同会社,東京都,港区,海岸１丁目１―１アクティ汐留２００５,,13,103,1050022,,,,,,,2025-05-22,1,,,,,ゴウケンラボ,0
292,2010801036173,新規,0,2025-05-22,2025-05-22,株式会社ＯＮＥ　ＴＯＯ　ＭＡＮＹ,,株式会社,東京都,大田区,新蒲田３丁目１１番１３号,,13,111,1440054,,,,,,,2025-05-22,1,,,,,ワントゥメニイ,0
300,2011001169516,新規,0,2025-05-22,2025-05-22,株式会社グロース,,株式会社,東京都,目黒区,下目黒１丁目１番１４号コノトラビル７階,,13,110,1530064,,,,,,,2025-05-22,1,,,,,グロース,0
301,2011001169549,新規,0,2025-05-22,2025-05-22,株式会社ＮＥＸＩＶＥ,,株式会社,東京都,渋谷区,道玄坂１丁目１０番８号渋谷道玄坂東急ビル２Ｆ－ｃ,,13,113,1500043,,,,,,,2025-05-22,1,,,,,ネクシブ,0
302,2011001169557,新規,0,2025-05-22,2025-05-22,株式会社ＷＯＮＤＥＲ　ＴＯＫＹＯ,,株式会社,東京都,目黒区,青葉台１丁目７－１４－２０２,,13,110,1530042,,,,,,,2025-05-22,1,,,,,ワンダートーキョー,0
303,2011001169994,新規,0,2025-05-22,2025-05-22,株式会社Ｄ３,,株式会社,東京都,渋谷区,円山町５番３号ＭＩＥＵＸ渋谷ビル８階,,13,113,1500044,,,,,,,2025-05-22,1,,,,,ディースリー,0
308,2011101111872,新規,0,2025-05-22,2025-05-22,Ｈａｇｙｙｙｙ株式会社,,株式会社,東京都,新宿区,西新宿３丁目３番１３号西新宿水間ビル６階,,13,104,1600023,,,,,,,2025-05-22,1,,,,,ハギー,0
314,2011103015923,新規,0,2025-05-22,2025-05-22,サステナブルエナジー３号合同会社,,合同会社,東京都,新宿区,西新宿６丁目２０－１２山口ビル５階,,13,104,1600023,,,,,,,2025-05-22,1,,,,,サステナブルエナジーサンゴウ,0
319,2011303005567,新規,0,2025-05-22,2025-05-22,コウジツアセット合同会社,,合同会社,東京都,杉並区,浜田山２丁目２番１９号,,13,115,1680065,,,,,,,2025-05-22,1,,,,,,0
323,2011601028666,新規,0,2025-05-22,2025-05-22,星際株式会社,,株式会社,東京都,練馬区,関町北２丁目２８－１８－５０４号,,13,120,1770051,,,,,,,2025-05-22,1,,,,,セイサイ,0
324,2011601028674,新規,0,2025-05-22,2025-05-22,株式会社ＨＩＫＡＲＩＴＨ,,株式会社,東京都,練馬区,関町南３丁目１２番３１－２１３号,,13,120,1770053,,,,,,,2025-05-22,1,,,,,ヒカリス,0
328,2011805003457,新規,0,2025-05-22,2025-05-22,一般社団法人ファニエスト,,その他の設立登記法人,東京都,足立区,興野２丁目５番１２号,,13,121,1230844,,,,,,,2025-05-22,1,,,,,ファニエスト,0
330,2012401043129,新規,0,2025-05-22,2025-05-22,株式会社Ｎｅｗ　Ｗｏｒｌｄ,,株式会社,東京都,三鷹市,上連雀１丁目８番１８号クローバーハイツ１０１,,13,204,1810012,,,,,,,2025-05-22,1,,,,,ニューワールド,0
338,2013301054298,新規,0,2025-05-22,2025-05-22,株式会社アリシオン,,株式会社,東京都,豊島区,千早１丁目１１番３号,,13,116,1710044,,,,,,,2025-05-22,1,,,,,アリシオン,0
342,2020001162950,新規,0,2025-05-22,2025-05-22,株式会社ＳＨＯＫＵＮＩＮ,,株式会社,神奈川県,横浜市中区,本町４丁目４１番地５０３,,14,104,2310005,,,,,,,2025-05-22,1,,,,,ショクニン,0
343,2020001162959,新規,0,2025-05-22,2025-05-22,株式会社小川内装,,株式会社,神奈川県,横浜市磯子区,丸山１丁目２０番９号ザ・シュワーハウス３Ｂ号,,14,107,2350011,,,,,,,2025-05-22,1,,,,,オガワナイソウ,0
344,2020001162967,新規,0,2025-05-22,2025-05-22,ペアバリュース株式会社,,株式会社,神奈川県,横浜市西区,浅間町１丁目４番３号ウィザードビル４０２,,14,103,2200072,,,,,,,2025-05-22,1,,,,,ペアバリュース,0
345,2020001162975,新規,0,2025-05-22,2025-05-22,株式会社リライズシステム,,株式会社,神奈川県,横浜市西区,浅間町１丁目４番３号ウィザードビル４０２,,14,103,2200072,,,,,,,2025-05-22,1,,,,,リライズシステム,0
354,2021003016005,新規,0,2025-05-22,2025-05-22,ＡＮＡ　ＴＲＡＤＩＮＧ合同会社,,合同会社,神奈川県,座間市,南栗原３丁目３番１号,,14,216,2520015,,,,,,,2025-05-22,1,,,,,エーエヌエートレーディング,0
368,2040001138874,新規,0,2025-05-22,2025-05-22,株式会社ＧＷＥ,,株式会社,千葉県,柏市,豊四季７２番地６２コーポサンフラワー１０２号室,,12,217,2770863,,,,,,,2025-05-22,1,,,,,ジーダブリューイー,0
372,2040003027654,新規,0,2025-05-22,2025-05-22,ＲＳ合同会社,,合同会社,千葉県,松戸市,松戸新田５７９－９－２０３号室,,12,207,2702241,,,,,,,2025-05-22,1,,,,,アールエス,0
374,2040005022777,新規,0,2025-05-22,2025-05-22,医療法人社団星月会,,その他の設立登記法人,千葉県,市川市,八幡２丁目６番１２号スズキビル４階,,12,203,2720021,,,,,,,2025-05-22,1,,,,,ホシヅキカイ,0
377,2060001038214,新規,0,2025-05-22,2025-05-22,三和通商株式会社,,株式会社,栃木県,宇都宮市,屋板町６９８－１,,09,201,3210112,,,,,,,2025-05-22,1,,,,,,0
379,2070001042900,新規,0,2025-05-22,2025-05-22,川島商事株式会社,,株式会社,群馬県,邑楽郡千代田町,大字新福寺７８１－２,,10,523,3700505,,,,,,,2025-05-22,1,,,,,カワシマショウジ,0
384,2100003008169,新規,0,2025-05-22,2025-05-22,合同会社菜の花設備,,合同会社,長野県,下高井郡野沢温泉村,大字豊郷６７３１番地１,,20,563,3892502,,,,,,,2025-05-22,1,,,,,ナノハナセツビ,0
392,2120001275981,新規,0,2025-05-22,2025-05-22,株式会社龍右衛門,,株式会社,大阪府,大阪市住之江区,御崎１丁目７－１５,,27,125,5590013,,,,,,,2025-05-22,1,,,,,タツエモン,0
395,2120003029485,新規,0,2025-05-22,2025-05-22,合同会社旅するネコ,,合同会社,大阪府,大阪市北区,梅田１丁目２番２号大阪駅前第２ビル１２－１２,,27,127,5300001,,,,,,,2025-05-22,1,,,,,タビスルネコ,0
396,2120003029493,新規,0,2025-05-22,2025-05-22,合同会社ＪＡＰＡＮ　ＧＲＯＵＰ,,合同会社,大阪府,大阪市住吉区,杉本２丁目２６－３２－３０７号,,27,120,5580022,,,,,,,2025-05-22,1,,,,,ジャパングループ,0
397,2120005024947,新規,0,2025-05-22,2025-05-22,一般社団法人Ｖｅｒｉｔａｓ会,,その他の設立登記法人,大阪府,大阪市天王寺区,堀越町１１番１１号天王寺ガーデンスクエア４階,,27,109,5430056,,,,,,,2025-05-22,1,,,,,ヴェリタスカイ,0
399,2120101071728,新規,0,2025-05-22,2025-05-22,サンイーター株式会社,,株式会社,大阪府,泉南郡熊取町,東和苑１２－１,,27,361,5900416,,,,,,,2025-05-22,1,,,,,サンイーター,0
404,2120903005668,新規,0,2025-05-22,2025-05-22,合同会社ＥＹＯＬ,,合同会社,大阪府,高槻市,上田辺町１３番２８号,,27,207,5690805,,,,,,,2025-05-22,1,,,,,エヨル,0
405,2120903005676,新規,0,2025-05-22,2025-05-22,コレトル合同会社,,合同会社,大阪府,茨木市,春日３丁目２番２２号,,27,211,5670031,,,,,,,2025-05-22,1,,,,,コレトル,0
406,2122001039193,新規,0,2025-05-22,2025-05-22,株式会社瓢箪山不動産,,株式会社,大阪府,東大阪市,瓢箪山町２番１１号井上ビル２０６号,,27,227,5798051,,,,,,,2025-05-22,1,,,,,ヒョウタンヤマフドウサン,0
409,2130001079713,新規,0,2025-05-22,2025-05-22,株式会社大京プランニング,,株式会社,京都府,京都市伏見区,深草西伊達町８７番地６５－４０６,,26,109,6120876,,,,,,,2025-05-22,1,,,,,ダイキョウプランニング,0
410,2130003010477,新規,0,2025-05-22,2025-05-22,ＳＨＯＫＵＹＯＫＵ合同会社,,合同会社,京都府,京都市中京区,井筒屋町３９８－１、２階,,26,104,6048113,,,,,,,2025-05-22,1,,,,,ショクヨク,0
422,2180001166894,新規,0,2025-05-22,2025-05-22,株式会社スマイル＆ハピネス,,株式会社,愛知県,丹羽郡扶桑町,大字南山名字小山西３３番地２,,23,362,4800105,,,,,,,2025-05-22,1,,,,,スマイルアンドハピネス,0
427,2190003005042,新規,0,2025-05-22,2025-05-22,合同会社ＧｌｏｂａｌＣｏｒｐｏｒａｔｉｏｎ,,合同会社,三重県,津市,大里川北町４３２‐１,,24,201,5140124,,,,,,,2025-05-22,1,,,,,グローバルコーポレーション,0
433,2230001020914,新規,0,2025-05-22,2025-05-22,小林金属株式会社,,株式会社,富山県,高岡市,福岡町福岡新１８３番地１,,16,202,9390117,,,,,,,2025-05-22,1,,,,,コバヤシキンゾク,0
435,2230003002431,新規,0,2025-05-22,2025-05-22,合同会社ＭＯＦ　ＬＩＺＡＲＤ,,合同会社,富山県,小矢部市,東福町１２番８号,,16,209,9320041,,,,,,,2025-05-22,1,,,,,モフリザード,0
446,2290001110098,新規,0,2025-05-22,2025-05-22,株式会社キューネック,,株式会社,福岡県,糟屋郡久山町,大字山田６７２番地１,,40,348,8112502,,,,,,,2025-05-22,1,,,,,キューネック,0
450,2290003016871,新規,0,2025-05-22,2025-05-22,ネオクリエイト合同会社,,合同会社,福岡県,福岡市博多区,東比恵１丁目４－２０,,40,132,8120007,,,,,,,2025-05-22,1,,,,,ネオクリエイト,0
457,2360003014926,新規,0,2025-05-22,2025-05-22,合同会社ＴＡＫＥ,,合同会社,沖縄県,那覇市,字大道１７２－３ＦＡＰ３Ｆ,,47,201,9020066,,,,,,,2025-05-22,1,,,,,ターケー,0
463,2400001017042,新規,0,2025-05-22,2025-05-22,株式会社雅艶ＰＲＯＪＥＣＴ,,株式会社,岩手県,北上市,黒沢尻２丁目１番２２号,,03,206,0240022,,,,,,,2025-05-22,1,,,,,ガエンプロジェクト,0
464,2400003003461,新規,0,2025-05-22,2025-05-22,合同会社サンセット・ヴィスタ・プロパティーズ,,合同会社,岩手県,八幡平市,安比高原１１７番地１７,,03,214,0287306,,,,,,,2025-05-22,1,,,,,サンセットヴィスタプロパティーズ,0
470,2430001094459,新規,0,2025-05-22,2025-05-22,株式会社サカイ商会,,株式会社,北海道,札幌市厚別区,厚別中央三条１丁目３番２８号,,01,108,0040053,,,,,,,2025-05-22,1,,,,,サカイショウカイ,0
472,2430003017681,新規,0,2025-05-22,2025-05-22,合同会社急送コッコちゃん,,合同会社,北海道,札幌市東区,東苗穂十三条３丁目２３－５エストパトリア３０５,,01,103,0070813,,,,,,,2025-05-22,1,,,,,キュウソウコッコチャン,0
482,2700150130680,新規,0,2025-05-22,2025-05-22,ＮＩＮＧＢＯ　ＪＩＮＹＩＳＨＥＮＧ　ＴＲＡＤＩＮＧ　ＣＯ．，ＬＴＤ,,外国会社等,,,,,,,,Ｎｉｎｇｂｏ，Ｙｉｎ’ｚｈｏｕ，Ｚｈｅｊｉａｎｇ　Ｎｏ．３０　Ａｎｂｏ　Ｒｄ，８Ｊｉａｎｎｉｎｇ　Ｒｄ　１９－５　Ｎｉｎｇｂｏ　Ｚｈｅｊｉａｎｇ　３１５０００　ＣＮ,,,,,,2025-05-22,1,,,,,ニンボジンイーシェントレーディングシーオーエルティディ,0
500,3010001254319,新規,0,2025-05-22,2025-05-22,株式会社ＡＴＳ,,株式会社,東京都,中央区,勝どき５丁目３－１－４７２８,,13,102,1040054,,,,,,,2025-05-22,1,,,,,エーティーエス,0
501,3010001255102,新規,0,2025-05-22,2025-05-22,株式会社ｅｌｉｅｓ,,株式会社,東京都,千代田区,神田淡路町２丁目２１淡路町広瀬ビル５階,,13,101,1010063,,,,,,,2025-05-22,1,,,,,エリーズ,0
505,3010003047299,新規,0,2025-05-22,2025-05-22,ＧＭＧジャパン合同会社,,合同会社,東京都,中央区,銀座３丁目１０番９号,,13,102,1040061,,,,,,,2025-05-22,1,,,,,ゴールデンメディアグループジャパン,0
506,3010003047332,新規,0,2025-05-22,2025-05-22,ＤＧＩ合同会社,,合同会社,東京都,中央区,日本橋室町１丁目１１－１２,,13,102,1030022,,,,,,,2025-05-22,1,,,,,ディージーアイ,0
507,3010003047407,新規,0,2025-05-22,2025-05-22,合同会社ＭＰＯＭＴ,,合同会社,東京都,千代田区,内幸町２丁目１番６号,,13,101,1000011,,,,,,,2025-05-22,1,,,,,エムピーオーエムティー,0
508,3010003047423,新規,0,2025-05-22,2025-05-22,サステナブルローンファンド３４号合同会社,,合同会社,東京都,中央区,京橋２丁目１２番６号ＡＯＪ税理士法人内,,13,102,1040031,,,,,,,2025-05-22,1,,,,,サステナブルローンファンドサンジュウヨンゴウ,0
519,3010403034913,新規,0,2025-05-22,2025-05-22,合同会社ＳＷ３,,合同会社,東京都,港区,西麻布４丁目１９番５号西麻布レジデンス２０１,,13,103,1060031,,,,,,,2025-05-22,1,,,,,エスダブリュースリー,0
520,3010403035135,新規,0,2025-05-22,2025-05-22,Ｍａｋｉｎｇ　Ｍｅｍｏｒｉｅｓ　Ｊａｐａｎ合同会社,,合同会社,東京都,港区,南青山４丁目１８－１１フォレストヒルズイーストウィング２Ｆ,,13,103,1070062,,,,,,,2025-05-22,1,,,,,メイキングメモリーズジャパン,0
536,3011001169523,新規,0,2025-05-22,2025-05-22,株式会社ＡＫＩ,,株式会社,東京都,渋谷区,神泉町１番地６号,,13,113,1500045,,,,,,,2025-05-22,1,,,,,アキ,0
537,3011001169589,新規,0,2025-05-22,2025-05-22,株式会社ことはじめ,,株式会社,東京都,渋谷区,代々木１丁目２５番５－３０４号,,13,113,1510053,,,,,,,2025-05-22,1,,,,,コトハジメ,0
538,3011001169754,新規,0,2025-05-22,2025-05-22,株式会社ｓｕｍａｏ,,株式会社,東京都,目黒区,八雲１丁目７番６号,,13,110,1520023,,,,,,,2025-05-22,1,,,,,スマオ,0
540,3011003021574,新規,0,2025-05-22,2025-05-22,ＭＩＣＨＩＮＯ　ＪＡＰＡＮ合同会社,,合同会社,東京都,渋谷区,神宮前６丁目２３番４号桑野ビル２階,,13,113,1500001,,,,,,,2025-05-22,1,,,,,ミチノジャパン,0
541,3011003021608,新規,0,2025-05-22,2025-05-22,合同会社ＵＴＳＵＷＡ,,合同会社,東京都,渋谷区,神南１丁目１１番４号ＦＰＧリンクス神南５階,,13,113,1500041,,,,,,,2025-05-22,1,,,,,ウツワ,0
545,3011101111756,新規,0,2025-05-22,2025-05-22,株式会社ＦＹＬＯ,,株式会社,東京都,新宿区,新宿１丁目３６－２,,13,104,1600022,,,,,,,2025-05-22,1,,,,,ファイロ,0
554,3011503006463,新規,0,2025-05-22,2025-05-22,合同会社Ａ＆Ａ,,合同会社,東京都,北区,赤羽南１丁目５番７号５０１．５０８,,13,117,1150044,,,,,,,2025-05-22,1,,,,,エーアンドエー,0
556,3011601028673,新規,0,2025-05-22,2025-05-22,将建設株式会社,,株式会社,東京都,練馬区,西大泉３丁目２２番１６号,,13,120,1780065,,,,,,,2025-05-22,1,,,,,ショウケンセツ,0
560,3012401043128,新規,0,2025-05-22,2025-05-22,株式会社西坂造園,,株式会社,東京都,府中市,浅間町３丁目１１番地の６,,13,206,1830001,,,,,,,2025-05-22,1,,,,,ニシザカゾウエン,0
561,3012803003745,新規,0,2025-05-22,2025-05-22,合同会社ＧＩＦＴ,,合同会社,東京都,日野市,百草２０１２番地の２グランメール２０３,,13,212,1910033,,,,,,,2025-05-22,1,,,,,ギフト,0
569,3020001162974,新規,0,2025-05-22,2025-05-22,株式会社フォーライフプラス,,株式会社,神奈川県,横浜市磯子区,岡村７丁目２６－３,,14,107,2350021,,,,,,,2025-05-22,1,,,,,フォーライフプラス,0
578,3030001166644,新規,0,2025-05-22,2025-05-22,株式会社Ｃｈｅｅｒｆｕｌ　Ｌｉｖｅｓ,,株式会社,埼玉県,深谷市,上柴町東３丁目１番地４パークアヴェニュー１０２,,11,218,3660051,,,,,,,2025-05-22,1,,,,,チアフルライブズ,0
579,3030001166652,新規,0,2025-05-22,2025-05-22,株式会社ＲＯＵＴＥ６９,,株式会社,埼玉県,蕨市,中央１丁目３番３号ワラビストアー協同組合ビルＢ１,,11,223,3350004,,,,,,,2025-05-22,1,,,,,ルートシックスティナイン,0
587,3040001138832,新規,0,2025-05-22,2025-05-22,株式会社相互管財,,株式会社,千葉県,香取郡多古町,多古３５２５番地３,,12,347,2892241,,,,,,,2025-05-22,1,,,,,ソウゴカンザイ,0
588,3040001138873,新規,0,2025-05-22,2025-05-22,株式会社ＢＢＢ,,株式会社,千葉県,船橋市,西船４丁目２０番１０号西船ハイツ３０１号,,12,204,2730031,,,,,,,2025-05-22,1,,,,,ビービービー,0
590,3040005022768,新規,0,2025-05-22,2025-05-22,一般社団法人フィトンチッドの森,,その他の設立登記法人,千葉県,長生郡白子町,剃金７０８番地２,,12,424,2994203,,,,,,,2025-05-22,1,,,,,フィトンチッドノモリ,0
591,3040005022776,新規,0,2025-05-22,2025-05-22,ワールドワークス協同組合,,その他の設立登記法人,千葉県,千葉市美浜区,中瀬２丁目６番地１ワールドビジネスガーデンマリブウエスト２０階,,12,106,2610023,,,,,,,2025-05-22,1,,,,,,0
594,3050003009287,新規,0,2025-05-22,2025-05-22,Ｎｇｏｃ　Ｔａｍ　Ｇｒｏｕｐ合同会社,,合同会社,茨城県,土浦市,中村南２丁目１２番２７号,,08,203,3000843,,,,,,,2025-05-22,1,,,,,ンゴックタムグループ,0
601,3060003005566,新規,0,2025-05-22,2025-05-22,合同会社ＴＤＹ,,合同会社,栃木県,宇都宮市,西１丁目１番３３号西ハイツ４０５,,09,201,3200861,,,,,,,2025-05-22,1,,,,,ティーディーワイ,0
604,3070001042957,新規,0,2025-05-22,2025-05-22,株式会社ＣａｆｅｄｅＭａｒｉカフェドマリ,,株式会社,群馬県,太田市,飯田町１１３５丸水ビル１０３、２０５,,10,205,3730851,,,,,,,2025-05-22,1,,,,,カフェドマリ,0
610,3080401027920,新規,0,2025-05-22,2025-05-22,株式会社静岡管財,,株式会社,静岡県,浜松市天竜区,船明２８７番地の１,,22,140,4313306,,,,,,,2025-05-22,1,,,,,シズオカカンザイ,0
620,3120001275948,新規,0,2025-05-22,2025-05-22,株式会社ＨＯＭＥＴＯＷＮ,,株式会社,大阪府,大阪市天王寺区,生玉町１１番１４－８０５号,,27,109,5430071,,,,,,,2025-05-22,1,,,,,ホームタウン,0
621,3120001275980,新規,0,2025-05-22,2025-05-22,佳和株式会社,,株式会社,大阪府,大阪市生野区,新今里６丁目３番１０－５０３号,,27,116,5440001,,,,,,,2025-05-22,1,,,,,ケイワ,0
622,3120003029501,新規,0,2025-05-22,2025-05-22,晴子貿易合同会社,,合同会社,大阪府,大阪市東住吉区,杭全１丁目１３番１３号２０１号室,,27,121,5460002,,,,,,,2025-05-22,1,,,,,ハルコボウエキ,0
625,3120101071727,新規,0,2025-05-22,2025-05-22,株式会社ちきりマネジメント,,株式会社,大阪府,岸和田市,上野町西１３－３,,27,202,5960048,,,,,,,2025-05-22,1,,,,,チキリマネジメント,0
637,3130002021359,新規,0,2025-05-22,2025-05-22,有限会社ミノア,,有限会社,京都府,京都市右京区,西院上今田町８番地ＤＣビル３Ｆ－Ａ,,26,108,6150001,,,,,,,2025-05-22,1,,,,,ミノア,0
638,3130003010476,新規,0,2025-05-22,2025-05-22,合同会社ＲＨＳ,,合同会社,京都府,京都市中京区,西ノ京車坂町１５番地１６シャーメゾン京都旧二条３０３,,26,104,6048405,,,,,,,2025-05-22,1,,,,,アールエイチエス,0
649,3160001026769,新規,0,2025-05-22,2025-05-22,株式会社Ｓｕｕｒｙａ,,株式会社,滋賀県,彦根市,高宮町２７３３番地１,,25,202,5220201,,,,,,,2025-05-22,1,,,,,スーリア,0
658,3180001166893,新規,0,2025-05-22,2025-05-22,株式会社くるみ,,株式会社,愛知県,稲沢市,祖父江町中牧江東３０３番地,,23,220,4950032,,,,,,,2025-05-22,1,,,,,クルミ,0
662,3180003028506,新規,0,2025-05-22,2025-05-22,合同会社Ｂａｓｅ　Ｐｌａｃｅ,,合同会社,愛知県,名古屋市中区,新栄１丁目４１－３０ホームタウンビルディング,,23,106,4600007,,,,,,,2025-05-22,1,,,,,ベースプレイス,0
663,3180003028514,新規,0,2025-05-22,2025-05-22,ライフサポートひえい合同会社,,合同会社,愛知県,一宮市,千秋町浅野羽根字北斉宮寺２４８９番地１９,,23,203,4910816,,,,,,,2025-05-22,1,,,,,ライフサポートヒエイ,0
672,3240001064942,新規,0,2025-05-22,2025-05-22,株式会社鳴泉,,株式会社,広島県,福山市,伊勢丘６丁目１０－１２,,34,207,7210915,,,,,,,2025-05-22,1,,,,,メイセン,0
673,3240001064967,新規,0,2025-05-22,2025-05-22,株式会社シモデン,,株式会社,広島県,広島市安佐南区,山本新町３丁目６番１８号,,34,105,7310139,,,,,,,2025-05-22,1,,,,,シモデン,0
684,3290001110048,新規,0,2025-05-22,2025-05-22,リバティングアドバイザリーサービス株式会社,,株式会社,福岡県,福岡市博多区,古門戸町７－８－２Ｆ,,40,132,8120029,,,,,,,2025-05-22,1,,,,,リバティングアドバイザリーサービス,0
685,3290001110080,新規,0,2025-05-22,2025-05-22,株式会社Ｋ．Ｋ,,株式会社,福岡県,福岡市東区,原田３丁目５番４１号,,40,131,8120063,,,,,,,2025-05-22,1,,,,,ケーケー,0
691,3290003016879,新規,0,2025-05-22,2025-05-22,ＷＡＲＭＩＴＯ合同会社,,合同会社,福岡県,福岡市博多区,博多駅前１丁目２３番２号ＰａｒｋＦｒｏｎｔ博多駅前１丁目５Ｆ－Ｂ,,40,132,8120011,,,,,,,2025-05-22,1,,,,,ウォームイート,0
692,3290003016887,新規,0,2025-05-22,2025-05-22,合同会社ｅｎｃｏｕｎｔｅｒ,,合同会社,福岡県,福岡市博多区,住吉５丁目３番９－２０５号,,40,132,8120018,,,,,,,2025-05-22,1,,,,,エンカウンター,0
695,3290801031559,新規,0,2025-05-22,2025-05-22,株式会社亮吾,,株式会社,福岡県,北九州市八幡東区,枝光本町５番２－３０３号,,40,108,8050008,,,,,,,2025-05-22,1,,,,,リョウゴ,0
702,3350001019539,新規,0,2025-05-22,2025-05-22,ワイズ消防株式会社,,株式会社,宮崎県,宮崎市,阿波岐原町前浜４２７６番地７３９,,45,201,8800835,,,,,,,2025-05-22,1,,,,,ワイズショウボウ,0
708,3400003003460,新規,0,2025-05-22,2025-05-22,合同会社エコトレイル・タウン,,合同会社,岩手県,八幡平市,安比高原１１７番地１７,,03,214,0287306,,,,,,,2025-05-22,1,,,,,エコトレイルタウン,0
713,3430001094466,新規,0,2025-05-22,2025-05-22,ＴＤＲ株式会社,,株式会社,北海道,札幌市白石区,北郷二条４丁目２番１７号,,01,104,0030832,,,,,,,2025-05-22,1,,,,,ティーディーアール,0
717,3430003017680,新規,0,2025-05-22,2025-05-22,合同会社リペアー,,合同会社,北海道,札幌市中央区,南六条西１２丁目１３０１番地１クレステージＳ６Ｗ１２タワー２０２号,,01,101,0640806,,,,,,,2025-05-22,1,,,,,リペアー,0
719,3430005015237,新規,0,2025-05-22,2025-05-22,道央信用組合,,その他の設立登記法人,北海道,滝川市,栄町２丁目３番２１号,,01,225,0730031,,,,,,,2025-05-22,1,,,,,ドウオウ,0
724,3500001026296,新規,0,2025-05-22,2025-05-22,株式会社心灯,,株式会社,愛媛県,松山市,堀江町甲４５８番地７,,38,201,7992651,,,,,,,2025-05-22,1,,,,,ココロビ,0
725,3500003003517,新規,0,2025-05-22,2025-05-22,合同会社ＫＡＮＡＲＵ,,合同会社,愛媛県,松山市,道後今市１番２７号,,38,201,7900845,,,,,,,2025-05-22,1,,,,,カナル,0
739,4010001255175,新規,0,2025-05-22,2025-05-22,Ｊａｐａｎ　Ｍｅｄｉｃａｌ　Ｓｕｐｐｏｒｔ株式会社,,株式会社,東京都,中央区,銀座７丁目２－６銀座アステルビル,,13,102,1040061,,,,,,,2025-05-22,1,,,,,ジャパンメディカルサポート,0
741,4010003047356,新規,0,2025-05-22,2025-05-22,合同会社Ｃｏｕｒａｇｅ　Ｐｌｕｓ,,合同会社,東京都,中央区,銀座１丁目１２－４Ｎ＆Ｅ＿ＢＬＤ．６Ｆ,,13,102,1040061,,,,,,,2025-05-22,1,,,,,クラージュプラス,0
742,4010003047430,新規,0,2025-05-22,2025-05-22,ＳＩＭＯＮＯＮ　ＳＴＵＤＩＯＳ合同会社,,合同会社,東京都,千代田区,神田三崎町３丁目５番９号,,13,101,1010061,,,,,,,2025-05-22,1,,,,,シモノンスタジオ,0
746,4010401190360,新規,0,2025-05-22,2025-05-22,株式会社ＭＡＳＴＥＲ’Ｓ,,株式会社,東京都,港区,白金台５丁目１８－２プラチナワイズビル２Ｆ,,13,103,1080071,,,,,,,2025-05-22,1,,,,,マスターズ,0
754,4010801036171,新規,0,2025-05-22,2025-05-22,株式会社ＡＩＦｒｏｎｔｉｅｒ,,株式会社,東京都,大田区,石川町１丁目６番１１号,,13,111,1450061,,,,,,,2025-05-22,1,,,,,エーアイフロンティア,0
755,4010901057398,新規,0,2025-05-22,2025-05-22,株式会社ｙｕｉｓｅｌ,,株式会社,東京都,世田谷区,等々力８丁目１１番７号,,13,112,1580082,,,,,,,2025-05-22,1,,,,,ユイセル,0
764,4011001169274,新規,0,2025-05-22,2025-05-22,株式会社千本プレミアム経営塾,,株式会社,東京都,渋谷区,渋谷２丁目２１番１号渋谷ヒカリエ３２Ｆ,,13,113,1500002,,,,,,,2025-05-22,1,,,,,センモトプレミアムケイエイジュク,0
765,4011001169539,新規,0,2025-05-22,2025-05-22,株式会社ＪＳＨ,,株式会社,東京都,渋谷区,神宮前３丁目３１－１４，８８．ｊｉｎｇｕｍａｅ３０１,,13,113,1500001,,,,,,,2025-05-22,1,,,,,ジェーエスエイチ,0
766,4011001169563,新規,0,2025-05-22,2025-05-22,株式会社福瑞,,株式会社,東京都,渋谷区,千駄ヶ谷３丁目１２番１号,,13,113,1510051,,,,,,,2025-05-22,1,,,,,フウズイ,0
767,4011001169605,新規,0,2025-05-22,2025-05-22,株式会社ＡｔｈｌｅｔｉｃＦｉｔｎｅｓｓ,,株式会社,東京都,目黒区,平町１丁目２２番１５号,,13,110,1520032,,,,,,,2025-05-22,1,,,,,アスレチックフィットネス,0
775,4011201026366,新規,0,2025-05-22,2025-05-22,株式会社Ｌキャピタル,,株式会社,東京都,中野区,中野５丁目６０番２号,,13,114,1640001,,,,,,,2025-05-22,1,,,,,エルキャピタル,0
776,4011203004700,新規,0,2025-05-22,2025-05-22,合同会社かのん,,合同会社,東京都,中野区,弥生町１丁目２７番５号エルガーハウス１０３,,13,114,1640013,,,,,,,2025-05-22,1,,,,,カノン,0
777,4011301030598,新規,0,2025-05-22,2025-05-22,株式会社Ｍ企画,,株式会社,東京都,杉並区,高円寺南５丁目２１番７高円寺マンション３０１,,13,115,1660003,,,,,,,2025-05-22,1,,,,,エムキカク,0
780,4011401027107,新規,0,2025-05-22,2025-05-22,リバティエステート株式会社,,株式会社,東京都,板橋区,大和町５番９号－２０５,,13,119,1730012,,,,,,,2025-05-22,1,,,,,リバティエステート,0
783,4011503006537,新規,0,2025-05-22,2025-05-22,合同会社ＷＩＬＤ　ＨＥＡＲＴＳ,,合同会社,東京都,北区,田端新町３丁目３３番１,,13,117,1140012,,,,,,,2025-05-22,1,,,,,ワイルドハーツ,0
789,4012403007146,新規,0,2025-05-22,2025-05-22,ＴＡＫＥＤＡビジネスパートナーズ合同会社,,合同会社,東京都,調布市,仙川町１丁目２５－４シティハウス仙川２１６,,13,208,1820002,,,,,,,2025-05-22,1,,,,,タケダビジネスパートナーズ,0
793,4013301054288,新規,0,2025-05-22,2025-05-22,株式会社ｌｕｎａｌｅｓｓ,,株式会社,東京都,豊島区,東池袋２丁目６２番８号ＢＩＧオフィスプラザ池袋１２０６,,13,116,1700013,,,,,,,2025-05-22,1,,,,,ルナレス,0
794,4013303007681,新規,0,2025-05-22,2025-05-22,合同会社ＷＥＴ,,合同会社,東京都,豊島区,巣鴨１丁目３７番３号福沢ビル２０２号室,,13,116,1700002,,,,,,,2025-05-22,1,,,,,ウェット,0
802,4020001162908,新規,0,2025-05-22,2025-05-22,株式会社０２１１ＰＬＡＮＮＩＮＧ　ＪＡＰＡＮ,,株式会社,神奈川県,川崎市川崎区,東田町８番地パレール川崎レッド館３階１０号,,14,131,2100005,,,,,,,2025-05-22,1,,,,,ゼロニイチイチプラニングジャパン,0
807,4020003028537,新規,0,2025-05-22,2025-05-22,ミリアッド合同会社,,合同会社,神奈川県,川崎市多摩区,登戸新町４４４番地４,,14,135,2140013,,,,,,,2025-05-22,1,,,,,ミリアッド,0
811,4021001085017,新規,0,2025-05-22,2025-05-22,株式会社ＮＩＣＯ,,株式会社,神奈川県,平塚市,高浜台４番２１－２号,,14,203,2540805,,,,,,,2025-05-22,1,,,,,ニコ,0
822,4030003026820,新規,0,2025-05-22,2025-05-22,ＢＭ合同会社,,合同会社,埼玉県,蕨市,南町３丁目２８－１０南町ハイツ２０１,,11,223,3350003,,,,,,,2025-05-22,1,,,,,ビーエム,0
824,4030005022173,新規,0,2025-05-22,2025-05-22,一般社団法人レインボースマイル,,その他の設立登記法人,埼玉県,深谷市,折之口２９１番２号,,11,218,3660812,,,,,,,2025-05-22,1,,,,,レインボースマイル,0
826,4040001138889,新規,0,2025-05-22,2025-05-22,株式会社Ｗｅｅｄｓ　ＲＮＨ,,株式会社,千葉県,市川市,欠真間２丁目１１番１６号,,12,203,2720142,,,,,,,2025-05-22,1,,,,,ウィーズアールエヌエイチ,0
829,4040003027644,新規,0,2025-05-22,2025-05-22,合同会社Ｈ２‐ｐｒｏｄｕｃｔｓ,,合同会社,千葉県,市原市,西広３丁目１番地７,,12,219,2900022,,,,,,,2025-05-22,1,,,,,エイチツープロダクツ,0
830,4040003027660,新規,0,2025-05-22,2025-05-22,合同会社ＣＯＤＥ,,合同会社,千葉県,松戸市,松戸１７７９番地相模第一マンション５０５号,,12,207,2710092,,,,,,,2025-05-22,1,,,,,コード,0
834,4050005013633,新規,0,2025-05-22,2025-05-22,特定非営利活動法人きなりのかぞく,,その他の設立登記法人,茨城県,筑西市,八丁台４７７番地,,08,227,3080008,,,,,,,2025-05-22,1,,,,,キナリノカゾク,0
842,4070001042948,新規,0,2025-05-22,2025-05-22,Ｍａｖｅｎ　Ｔｅｃｈ．　Ｓｏｌｕｔｉｏｎｓ株式会社,,株式会社,群馬県,太田市,八幡町３４番２１号,,10,205,3730056,,,,,,,2025-05-22,1,,,,,,0
848,4100003008167,新規,0,2025-05-22,2025-05-22,てん合同会社,,合同会社,長野県,千曲市,大字土口３６１番地,,20,218,3870002,,,,,,,2025-05-22,1,,,,,テン,0
863,4120001276037,新規,0,2025-05-22,2025-05-22,ＪＨＣ株式会社,,株式会社,大阪府,大阪市西成区,千本南１丁目１６番２８－３０３号,,27,122,5570055,,,,,,,2025-05-22,1,,,,,ジェーエイチシー,0
864,4120001276045,新規,0,2025-05-22,2025-05-22,元祖西貝株式会社,,株式会社,大阪府,大阪市淀川区,西中島５丁目８番２９－４０６室,,27,123,5320011,,,,,,,2025-05-22,1,,,,,ガンソニシカイ,0
876,4130001079703,新規,0,2025-05-22,2025-05-22,株式会社ヘルスケアイノベーションテクノロジー,,株式会社,京都府,京都市左京区,吉田牛ノ宮町２７－１２ハイツ牛ノ宮１０２,,26,103,6068302,,,,,,,2025-05-22,1,,,,,ヘルスケアイノベーションテクノロジー,0
877,4130001079728,新規,0,2025-05-22,2025-05-22,蓬莱の森株式会社,00139262,株式会社,京都府,京都市左京区,鹿ケ谷桜谷町７番地３,,26,103,6068423,,,,,,,2025-05-22,1,,,,,ホウライノモリ,0
884,4140003022073,新規,0,2025-05-22,2025-05-22,伯淮合同会社,,合同会社,兵庫県,神戸市兵庫区,西多聞通２丁目２番８号３階,,28,105,6520035,,,,,,,2025-05-22,1,,,,,ハクワイ,0
891,4180001166868,新規,0,2025-05-22,2025-05-22,株式会社ＦＩＸ,,株式会社,愛知県,津島市,百島町字献上１番地２,,23,208,4960019,,,,,,,2025-05-22,1,,,,,フィックス,0
897,4200001043791,新規,0,2025-05-22,2025-05-22,ＢＥＡＲ’Ｓ株式会社,,株式会社,岐阜県,大垣市,新田町５丁目３６番地,,21,202,5030856,,,,,,,2025-05-22,1,,,,,ベアーズ,0
898,4210001020170,新規,0,2025-05-22,2025-05-22,株式会社ＯＲＡＮＧＥｏｎＰＡＲＡＤＥ,,株式会社,福井県,福井市,田原１丁目２番２０号,,18,201,9100018,,,,,,,2025-05-22,1,,,,,オレンジオンパレード,0
906,4290003016878,新規,0,2025-05-22,2025-05-22,合同会社はるか,,合同会社,福岡県,春日市,星見ヶ丘３丁目１３２番地,,40,218,8160849,,,,,,,2025-05-22,1,,,,,ハルカ,0
907,4290003016886,新規,0,2025-05-22,2025-05-22,合同会社友達ずきん,,合同会社,福岡県,福岡市城南区,神松寺２丁目１１番１２－２０９号,,40,136,8140121,,,,,,,2025-05-22,1,,,,,トモダチズキン,0
921,4370001052594,新規,0,2025-05-22,2025-05-22,株式会社Ａｃｅ,,株式会社,宮城県,亘理郡亘理町,逢隈鹿島字町東南９番地１,00139252,04,361,9892371,,,,,,,2025-05-22,1,,,,,エース,0
923,4370003007101,新規,0,2025-05-22,2025-05-22,合同会社キャン,,合同会社,宮城県,柴田郡大河原町,字住吉町４－２３シーナンハンデン２０３号,,04,321,9891213,,,,,,,2025-05-22,1,,,,,キャン,0
925,4380003006052,新規,0,2025-05-22,2025-05-22,合同会社エム・エスリース,,合同会社,福島県,いわき市,後田町柳町７３―１,,07,204,9748203,,,,,,,2025-05-22,1,,,,,エムエスリース,0
929,4430001094440,新規,0,2025-05-22,2025-05-22,株式会社となりで,,株式会社,北海道,札幌市中央区,南一条西６丁目２０－１ジョブキタビル８Ｆ,,01,101,0600061,,,,,,,2025-05-22,1,,,,,トナリデ,0
930,4430001094457,新規,0,2025-05-22,2025-05-22,株式会社サラブレッドマーケット,,株式会社,北海道,勇払郡厚真町,字上厚真１８番地１,,01,581,0591741,,,,,,,2025-05-22,1,,,,,サラブレッドマーケット,0
938,4500003003516,新規,0,2025-05-22,2025-05-22,合同会社Ｗｉｎｄ,,合同会社,愛媛県,松山市,辻町１４番３１号,,38,201,7900063,,,,,,,2025-05-22,1,,,,,ウインド,0
940,4700150130679,新規,0,2025-05-22,2025-05-22,Ｐａｓｓｉｏｎａｔｅ　Ｃｏ．，Ｌｔｄ．,,外国会社等,,,,,,,,６Ｆ，７　Ｂａｎｇｂａｅ－ｒｏ　１５－ｇｉｌ，Ｓｅｏｃｈｏ－ｇｕ，Ｓｅｏｕｌ　０６６８３，Ｒｅｐｕｂｌｉｃ　ｏｆ　Ｋｏｒｅａ,,,,,,2025-05-22,1,,,,,パッショネイトコーリミテッド,0
945,5010001255182,新規,0,2025-05-22,2025-05-22,株式会社ｃｏｃｏｌｏ,,株式会社,東京都,中央区,日本橋茅場町１丁目９番２号,,13,102,1030025,,,,,,,2025-05-22,1,,,,,ココロ,0
946,5010001255216,新規,0,2025-05-22,2025-05-22,株式会社ＳＨＯＺＯ,,株式会社,東京都,千代田区,永田町２丁目９番８号パレロワイヤル永田町４０６号,,13,101,1000014,,,,,,,2025-05-22,1,,,,,ショウゾウ,0
947,5010001255240,新規,0,2025-05-22,2025-05-22,株式会社ＮＹｃｏｌｌａｂｏ,,株式会社,東京都,中央区,銀座７丁目１５番８－３０４号,,13,102,1040061,,,,,,,2025-05-22,1,,,,,エヌワイコラボ,0
960,5010401190343,新規,0,2025-05-22,2025-05-22,株式会社Ｘ,,株式会社,東京都,港区,東麻布１丁目７番５－１００９号,,13,103,1060044,,,,,,,2025-05-22,1,,,,,エックス,0
961,5010401190434,新規,0,2025-05-22,2025-05-22,株式会社アクアネクスト,,株式会社,東京都,港区,東麻布３丁目２番４－３０２号,,13,103,1060044,,,,,,,2025-05-22,1,,,,,アクアネクスト,0
982,5010903009933,新規,0,2025-05-22,2025-05-22,合同会社Ｋ＆Ｋ,,合同会社,東京都,世田谷区,鎌田２丁目１５－２１－２０５,,13,112,1570077,,,,,,,2025-05-22,1,,,,,ケーアンドケー,0
990,5011001169521,新規,0,2025-05-22,2025-05-22,原宿土地建物株式会社,,株式会社,東京都,渋谷区,神宮前６丁目３５番３号,,13,113,1500001,,,,,,,2025-05-22,1,,,,,ハラジュクトチタテモノ,0
991,5011001169538,新規,0,2025-05-22,2025-05-22,株式会社ＰＬＵＲ,,株式会社,東京都,渋谷区,神宮前３丁目３１－１４，８８．ｊｉｎｇｕｍａｅ３０１,,13,113,1500001,,,,,,,2025-05-22,1,,,,,プリュール,0
992,5011001169546,新規,0,2025-05-22,2025-05-22,ＩＭＳＦ株式会社,,株式会社,東京都,渋谷区,道玄坂１丁目１５番１２号ＡＣＮ渋谷道玄坂ビル７Ｆ,,13,113,1500043,,,,,,,2025-05-22,1,,,,,アイエムエスエフ,0
993,5011001169554,新規,0,2025-05-22,2025-05-22,株式会社Ｇｏｅｍｏｎ,,株式会社,東京都,渋谷区,上原３丁目５番２号,,13,113,1510064,,,,,,,2025-05-22,1,,,,,ゴエモン,0
994,5011001169570,新規,0,2025-05-22,2025-05-22,株式会社ＵＴコーポレーション,,株式会社,東京都,目黒区,上目黒３丁目２８番４－１０４号,,13,110,1530051,,,,,,,2025-05-22,1,,,,,ユーティーコーポレーション,0
1002,5011101111754,新規,0,2025-05-22,2025-05-22,株式会社ｆｉｌｍ１２１５,,株式会社,東京都,新宿区,西新宿４丁目３２番１１－１１０３号,,13,104,1600023,,,,,,,2025-05-22,1,,,,,フィルムイチニーイチゴー,0
1003,5011101111812,新規,0,2025-05-22,2025-05-22,Ｇｕｒｕ　Ｇａｍｅ株式会社,,株式会社,東京都,新宿区,西新宿６丁目１２番７号ストーク新宿１階,,13,104,1600023,,,,,,,2025-05-22,1,,,,,グルゲーム,0
1009,5011201026365,新規,0,2025-05-22,2025-05-22,株式会社ヘルシカワン,,株式会社,東京都,中野区,中野３丁目２３番２６－４０２号,,13,114,1640001,,,,,,,2025-05-22,1,,,,,ヘルシカワン,0
1010,5011203004699,新規,0,2025-05-22,2025-05-22,ＩＭＣＰ合同会社,,合同会社,東京都,中野区,弥生町２丁目７番１１号,,13,114,1640013,,,,,,,2025-05-22,1,,,,,アイエムシーピー,0
1012,5011301030597,新規,0,2025-05-22,2025-05-22,株式会社Ｔａｌｖｅｒａ,,株式会社,東京都,杉並区,和田３丁目９番１２号,,13,115,1660012,,,,,,,2025-05-22,1,,,,,タルヴェラ,0
1018,5011501032096,新規,0,2025-05-22,2025-05-22,株式会社Ｓｙｍｐｈｏｎｙ,,株式会社,東京都,荒川区,町屋３丁目２１番９号,,13,118,1160001,,,,,,,2025-05-22,1,,,,,シンフォニー,0
1027,5012401043126,新規,0,2025-05-22,2025-05-22,株式会社Ｃｒａｙｏｎｎ,,株式会社,東京都,三鷹市,井の頭５丁目２２番１２号井の頭パラッツォ・１：２０１,,13,204,1810001,,,,,,,2025-05-22,1,,,,,クレヨン,0
1029,5012403007145,新規,0,2025-05-22,2025-05-22,合同会社マテ茶サロンＴＥＲＥＲＥ,,合同会社,東京都,狛江市,東和泉１丁目１－１,,13,219,2010014,,,,,,,2025-05-22,1,,,,,マテチャサロンテレレ,0
1030,5012803003743,新規,0,2025-05-22,2025-05-22,合同会社ＦＤ７,,合同会社,東京都,日野市,多摩平１丁目４番地の１６クイーンシティ豊田９０１,,13,212,1910062,,,,,,,2025-05-22,1,,,,,エフディセブン,0
1036,5020001162964,新規,0,2025-05-22,2025-05-22,株式会社蓮善,,株式会社,神奈川県,横浜市港北区,師岡町３２９番地１パロス大倉山,,14,109,2220002,,,,,,,2025-05-22,1,,,,,レンゼン,0
1038,5020003028313,新規,0,2025-05-22,2025-05-22,ＰＡＨ　ＩＮＶＥＳＴ合同会社,,合同会社,神奈川県,川崎市川崎区,大島５丁目１２番４号,,14,131,2100834,,,,,,,2025-05-22,1,,,,,ピーエーエッチインベスト,0
1039,5020003028528,新規,0,2025-05-22,2025-05-22,ＫＹＣＵ合同会社,,合同会社,神奈川県,川崎市麻生区,王禅寺東５丁目２番６号,,14,137,2150018,,,,,,,2025-05-22,1,,,,,ケーワイシーユー,0
1040,5020003028536,新規,0,2025-05-22,2025-05-22,合同会社ＳＥＴＡＮＡ,,合同会社,神奈川県,横浜市金沢区,富岡西３丁目８－５,,14,108,2360052,,,,,,,2025-05-22,1,,,,,セタナ,0
1044,5021001085305,新規,0,2025-05-22,2025-05-22,ＳＡＳＡＫＩ株式会社,,株式会社,神奈川県,三浦郡葉山町,一色５３０番地の２３,,14,301,2400111,,,,,,,2025-05-22,1,,,,,ササキ,0
1054,5030001166626,新規,0,2025-05-22,2025-05-22,Ｓｐｉｃｅ　ｆｏｒ　Ｓｏｌｕｔｉｏｎｓ株式会社,,株式会社,埼玉県,草加市,谷塚仲町２９１番地２６,,11,221,3400025,,,,,,,2025-05-22,1,,,,,スパイスフォーソリューションズ,0
1055,5030001166634,新規,0,2025-05-22,2025-05-22,株式会社健静会,,株式会社,埼玉県,さいたま市緑区,美園４丁目１番地２センターフィールド浦和美園参番街８１２,,11,109,3360967,,,,,,,2025-05-22,1,,,,,ケンセイカイ,0
1056,5030001166642,新規,0,2025-05-22,2025-05-22,株式会社アロビッグ,,株式会社,埼玉県,さいたま市大宮区,桜木町２丁目３７０興陽ビル１階,,11,103,3300854,,,,,,,2025-05-22,1,,,,,アロビッグ,0
1060,5030003026778,新規,0,2025-05-22,2025-05-22,合同会社レヘマンコーポレーション,,合同会社,埼玉県,北葛飾郡松伏町,田中１丁目２７番地４マンションハピネスＩ－３０１号室,00139249,11,465,3430117,,,,,,,2025-05-22,1,,,,,レヘマンコーポレーション,0
1061,5030003026811,新規,0,2025-05-22,2025-05-22,ファインゴ合同会社,,合同会社,埼玉県,さいたま市南区,文蔵３丁目２８－６－１０２－２０５室,,11,108,3360025,,,,,,,2025-05-22,1,,,,,ファインゴ,0
1067,5040001138797,新規,0,2025-05-22,2025-05-22,ＡＡダイヤモンドテクノロジー株式会社,,株式会社,千葉県,市原市,田尾７８７番地,,12,219,2900515,,,,,,,2025-05-22,1,,,,,エーエーダイヤモンドテクノロジー,0
1076,5040003027651,新規,0,2025-05-22,2025-05-22,ネットワークワークス合同会社,,合同会社,千葉県,印西市,平賀学園台３丁目１‐１１時計館１０１号室,,12,231,2701606,,,,,,,2025-05-22,1,,,,,ネットワークワークス,0
1079,5050003009269,新規,0,2025-05-22,2025-05-22,合同会社ＣＯＮＮＥＣＴＣＯＭＰＡＳＳ福祉相談室,,合同会社,茨城県,土浦市,並木５丁目７３５番地５１,,08,203,3000061,,,,,,,2025-05-22,1,,,,,コネクトコンパスフクシソウダンシツ,0
1080,5050003009285,新規,0,2025-05-22,2025-05-22,合同会社Ｙｏｉ,,合同会社,茨城県,水戸市,百合が丘町９番地の５７,,08,201,3111134,,,,,,,2025-05-22,1,,,,,ヨイ,0
1086,5060003005556,新規,0,2025-05-22,2025-05-22,ＡＮ　ＰＨＡＴ合同会社,,合同会社,栃木県,足利市,堀込町２７３６番地２７,,09,202,3260831,,,,,,,2025-05-22,1,,,,,アンファト,0
1089,5070001042955,新規,0,2025-05-22,2025-05-22,株式会社ＡＬＳアルファ,,株式会社,群馬県,伊勢崎市,下蓮町５５０番地１,,10,204,3720852,,,,,,,2025-05-22,1,,,,,,0
1091,5080003003459,新規,0,2025-05-22,2025-05-22,合同会社ＦＭロジ,,合同会社,静岡県,牧之原市,静波２２６２－９,,22,226,4210422,,,,,,,2025-05-22,1,,,,,エフエムロジ,0
1100,5100005013354,新規,0,2025-05-22,2025-05-22,ビー・ベスト協同組合,,その他の設立登記法人,長野県,松本市,大字笹賀３０６４番地２１,,20,202,3990033,,,,,,,2025-05-22,1,,,,,ビーベスト,0
1110,5120001275616,新規,0,2025-05-22,2025-05-22,株式会社亀田,,株式会社,大阪府,大阪市西区,北堀江１丁目８番１４号,,27,106,5500014,,,,,,,2025-05-22,1,,,,,カメダ,0
1111,5120001275789,新規,0,2025-05-22,2025-05-22,ＫＯＭＯＲＥＢＩ株式会社,,株式会社,大阪府,大阪市住之江区,御崎１丁目１１番１９－４０１号,,27,125,5590013,,,,,,,2025-05-22,1,,,,,コモレビ,0
1112,5120001275921,新規,0,2025-05-22,2025-05-22,カブウェイ株式会社,,株式会社,大阪府,大阪市中央区,南船場３丁目２番２２号おおきに南船場ビル２０５,,27,128,5420081,,,,,,,2025-05-22,1,,,,,カブウェイ,0
1113,5120001275938,新規,0,2025-05-22,2025-05-22,株式会社大昌工業,,株式会社,大阪府,大阪市港区,築港２丁目７番２６号,,27,107,5520021,,,,,,,2025-05-22,1,,,,,ダイショウコウギョウ,0
1114,5120001275946,新規,0,2025-05-22,2025-05-22,日新産業株式会社,,株式会社,大阪府,大阪市大正区,鶴町１丁目９番１１号,,27,108,5510023,,,,,,,2025-05-22,1,,,,,ニッシンサンギョウ,0
1115,5120001275962,新規,0,2025-05-22,2025-05-22,株式会社ＫＯＩＦＵＫＵ,,株式会社,大阪府,大阪市北区,中津１丁目２番２１号中津明大ビル,,27,127,5310071,,,,,,,2025-05-22,1,,,,,コイフク,0
1116,5120001276028,新規,0,2025-05-22,2025-05-22,獅山株式会社,,株式会社,大阪府,大阪市平野区,平野西４丁目８－５リアライズ平野西１０１,,27,126,5470033,,,,,,,2025-05-22,1,,,,,シシヤマ,0
1117,5120001276052,新規,0,2025-05-22,2025-05-22,ＡＳＡＹＡＫＥキャリアパートナーズ株式会社,,株式会社,大阪府,大阪市北区,豊崎５丁目７‐１５,,27,127,5310072,,,,,,,2025-05-22,1,,,,,アサヤケキャリアパートナーズ,0
1124,5120003029490,新規,0,2025-05-22,2025-05-22,合同会社アズ,,合同会社,大阪府,寝屋川市,八坂町１３番２号,,27,215,5720838,,,,,,,2025-05-22,1,,,,,アズ,0
1125,5120003029508,新規,0,2025-05-22,2025-05-22,合同会社ｙａｍａａｓｈｉ,,合同会社,大阪府,大阪市中央区,淡路町１丁目１番２号,,27,128,5410047,,,,,,,2025-05-22,1,,,,,ヤマアシ,0
1136,5130001079710,新規,0,2025-05-22,2025-05-22,株式会社Ｈａｋｕｒｉｎ　Ｃａｐｉｔａｌ,,株式会社,京都府,京都市下京区,中堂寺南町１３４番地京都リサーチパークＡＳＴＥＭ棟８階８Ａ０５,,26,106,6008813,,,,,,,2025-05-22,1,,,,,ハクリンキャピタル,0
1137,5130001079719,新規,0,2025-05-22,2025-05-22,株式会社ｇｅｍ,,株式会社,京都府,京都市西京区,川島野田町５２番地の２,,26,111,6158121,,,,,,,2025-05-22,1,,,,,ジェム,0
1138,5130003010417,新規,0,2025-05-22,2025-05-22,合同会社Ｆｕｒａｈａ,,合同会社,京都府,綾部市,高津町前地９,,26,203,6230045,,,,,,,2025-05-22,1,,,,,フラハ,0
1139,5130003010474,新規,0,2025-05-22,2025-05-22,オレンジトレイズ合同会社,,合同会社,京都府,京都市山科区,四ノ宮小金塚５番地６０,,26,110,6078022,,,,,,,2025-05-22,1,,,,,オレンジトレイズ,0
1144,5140001138589,新規,0,2025-05-22,2025-05-22,株式会社ＭＡＥＤＡ,,株式会社,兵庫県,伊丹市,梅ノ木４丁目３番４５－２号,,28,207,6640856,,,,,,,2025-05-22,1,,,,,マエダ,0
1145,5140001138647,新規,0,2025-05-22,2025-05-22,ＶＩＥＷＳ株式会社,,株式会社,兵庫県,西宮市,泉町５－２７－３１０,,28,204,6620932,,,,,,,2025-05-22,1,,,,,ビューズ,0
1153,5180001166883,新規,0,2025-05-22,2025-05-22,株式会社豊通マシナリーサイトマネジメント,,株式会社,愛知県,名古屋市中村区,名駅４丁目１１番２７号,,23,105,4500002,,,,,,,2025-05-22,1,,,,,トヨツウマシナリーサイトマネジメント,0
1154,5180001166900,新規,0,2025-05-22,2025-05-22,アハマドトレーディング株式会社,,株式会社,愛知県,小牧市,中央６丁目３８番地,,23,219,4850029,,,,,,,2025-05-22,1,,,,,アハマドトレーディング,0
1155,5180001166909,新規,0,2025-05-22,2025-05-22,株式会社ｗｊｋ,,株式会社,愛知県,名古屋市中区,大井町１番２４号－２４０７,,23,106,4600015,,,,,,,2025-05-22,1,,,,,ダブルジェイケイ,0
1156,5180001166917,新規,0,2025-05-22,2025-05-22,株式会社ＪＡＤＥ,,株式会社,愛知県,名古屋市緑区,万場山１丁目８１６番地の８,,23,114,4580043,,,,,,,2025-05-22,1,,,,,ジェイド,0
1162,5190001032234,新規,0,2025-05-22,2025-05-22,株式会社一合,,株式会社,三重県,四日市市,海山道町１丁目１６２番地,,24,202,5100845,,,,,,,2025-05-22,1,,,,,,0
1165,5200001043799,新規,0,2025-05-22,2025-05-22,ＣＲ　Ｎｅｘｕｓ株式会社,,株式会社,岐阜県,瑞穂市,穂積１５８５番地２クレヴェール瑞穂１０６号,,21,216,5010223,,,,,,,2025-05-22,1,,,,,シーアールネクサス,0
1169,5220001026694,新規,0,2025-05-22,2025-05-22,株式会社ＬＩＢＬＡ,,株式会社,石川県,金沢市,三口新町４丁目４番２５号,,17,201,9200944,,,,,,,2025-05-22,1,,,,,リブラ,0
1175,5240001064957,新規,0,2025-05-22,2025-05-22,株式会社ＳＨＥＮＥＲＹ,,株式会社,広島県,広島市中区,幟町５－１５幟町パークマンション１０２－Ｂ,,34,101,7300016,,,,,,,2025-05-22,1,,,,,シーナリー,0
1176,5240001064965,新規,0,2025-05-22,2025-05-22,株式会社Ｋ‐ｓｙｓｔｅｍ,,株式会社,広島県,広島市安佐北区,落合南４丁目２４番６号,,34,106,7391732,,,,,,,2025-05-22,1,,,,,ケイシステム,0
1177,5250001008005,新規,0,2025-05-22,2025-05-22,落合不動産株式会社,,株式会社,山口県,萩市,大字河添３１５番地の３,,35,204,7580073,,,,,,,2025-05-22,1,,,,,オチアイフドウサン,0
1178,5250003003730,新規,0,2025-05-22,2025-05-22,合同会社共立ビル,,合同会社,山口県,周南市,清水２丁目１１番１号,,35,215,7460015,,,,,,,2025-05-22,1,,,,,キョウリツビル,0
1187,5290003016877,新規,0,2025-05-22,2025-05-22,合同会社Ａｉｒｕｎ,,合同会社,福岡県,福岡市東区,香椎駅東４丁目４５番２５号,,40,131,8130012,,,,,,,2025-05-22,1,,,,,アイルン,0
1188,5290003016885,新規,0,2025-05-22,2025-05-22,合同会社リブラ１０,,合同会社,福岡県,福岡市博多区,大博町７番２３－１０１号,,40,132,8120033,,,,,,,2025-05-22,1,,,,,リブラテン,0
1212,5430003017687,新規,0,2025-05-22,2025-05-22,サリエ合同会社,,合同会社,北海道,伊達市,弄月町５９番地１９,,01,233,0520013,,,,,,,2025-05-22,1,,,,,サリエ,0
1235,6010001255149,新規,0,2025-05-22,2025-05-22,株式会社なぷしゃる,,株式会社,東京都,千代田区,神田小川町３丁目１番５号,,13,101,1010052,,,,,,,2025-05-22,1,,,,,ナプシャル,0
1236,6010001255198,新規,0,2025-05-22,2025-05-22,株式会社Ｌｕｍｉｎｏｕｓ　Ｇｒｏｗ,,株式会社,東京都,中央区,銀座７丁目１３番２０号銀座ＴＨビル９階,,13,102,1040061,,,,,,,2025-05-22,1,,,,,ルミナスグロウ,0
1237,6010001255256,新規,0,2025-05-22,2025-05-22,株式会社おばこ,,株式会社,東京都,千代田区,麹町１丁目８番地,,13,101,1020083,,,,,,,2025-05-22,1,,,,,オバコ,0
1244,6010401189921,新規,0,2025-05-22,2025-05-22,ＭＩＫＯＴＯ　Ｈｏｌｄｉｎｇｓ株式会社,,株式会社,東京都,港区,六本木３丁目３番２２－３０３号,,13,103,1060032,,,,,,,2025-05-22,1,,,,,ミコトホールディングス,0
1248,6010501054067,新規,0,2025-05-22,2025-05-22,株式会社ジェリービーンズ,,株式会社,東京都,台東区,上野１丁目１６番５号,,13,106,1100005,,,,,,,2025-05-22,1,,,,,ジェリービーンズ,0
1261,6011001169578,新規,0,2025-05-22,2025-05-22,山と本と株式会社,,株式会社,東京都,渋谷区,恵比寿西２丁目４番８号ウィンド恵比寿ビル８Ｆ,,13,113,1500021,,,,,,,2025-05-22,1,,,,,ヤマトホント,0
1262,6011001169603,新規,0,2025-05-22,2025-05-22,株式会社ＦＴＴ　Ｄｅｓｉｇｎ,,株式会社,東京都,渋谷区,神宮前３丁目３４番６号Ｈ．Ｉ．Ｐビル２Ｆ,,13,113,1500001,,,,,,,2025-05-22,1,,,,,エフティーティーデザイン,0
1263,6011001169669,新規,0,2025-05-22,2025-05-22,株式会社ＦＥＭＸ,,株式会社,東京都,渋谷区,本町２丁目３２－４はっちょうビル４階,,13,113,1510071,,,,,,,2025-05-22,1,,,,,フェムクロス,0
1264,6011001169966,新規,0,2025-05-22,2025-05-22,株式会社Ｍｅｔａｍａｒｓ,,株式会社,東京都,渋谷区,神泉町１５番２号,,13,113,1500045,,,,,,,2025-05-22,1,,,,,メタマース,0
1272,6011101111761,新規,0,2025-05-22,2025-05-22,株式会社ＨＥＬＩＡ,,株式会社,東京都,新宿区,岩戸町２０番地１サンクタス神楽坂５０３,,13,104,1620832,,,,,,,2025-05-22,1,,,,,ヘリア,0
1276,6011303005547,新規,0,2025-05-22,2025-05-22,ＭＯＭＯ　Ｗｏｒｋｓ合同会社,,合同会社,東京都,杉並区,上井草２丁目３番１０―１０４号ビクトリアガーデン杉並・井荻,,13,115,1670023,,,,,,,2025-05-22,1,,,,,モモワークス,0
1277,6011303005563,新規,0,2025-05-22,2025-05-22,合同会社肉魂,,合同会社,東京都,杉並区,高円寺南４丁目４９番１号,,13,115,1660003,,,,,,,2025-05-22,1,,,,,ニクタマシイ,0
1278,6011401027105,新規,0,2025-05-22,2025-05-22,株式会社ＩＬＡ,,株式会社,東京都,板橋区,東山町５１番２号,,13,119,1740073,,,,,,,2025-05-22,1,,,,,アイラ,0
1292,6012701018875,新規,0,2025-05-22,2025-05-22,株式会社ＴＴトレイル,,株式会社,東京都,東久留米市,南沢５丁目１９番２４－２２１号,,13,222,2030023,,,,,,,2025-05-22,1,,,,,ティーティートレイル,0
1293,6012801023981,新規,0,2025-05-22,2025-05-22,ＵＫＡＩ　Ｉｎｔｅｒｎａｔｉｏｎａｌ　Ｅｍｐｌｏｙｍｅｎｔ株式会社,,株式会社,東京都,国立市,東１丁目１番地の３,,13,215,1860002,,,,,,,2025-05-22,1,,,,,ウカイインターナショナルエンプロイメント,0
1294,6013101009696,新規,0,2025-05-22,2025-05-22,株式会社ヘルシーライフＩＮＣ．,,株式会社,東京都,福生市,大字福生９６１番地２３,,13,218,1970011,,,,,,,2025-05-22,1,,,,,ヘルシーライフアイエヌシー,0
1306,6020001162988,新規,0,2025-05-22,2025-05-22,株式会社レルシード,,株式会社,神奈川県,横浜市西区,北幸１丁目１１番１号水信ビル７階,,14,103,2200004,,,,,,,2025-05-22,1,,,,,レルシード,0
1310,6020003028535,新規,0,2025-05-22,2025-05-22,東輝商事合同会社,,合同会社,神奈川県,横浜市磯子区,東町１８番１０ニックハイム横浜根岸５０１,,14,107,2350005,,,,,,,2025-05-22,1,,,,,トウキショウジ,0
1311,6020003028543,新規,0,2025-05-22,2025-05-22,合同会社三強,,合同会社,神奈川県,川崎市川崎区,港町５番３－３３５号,,14,131,2100807,,,,,,,2025-05-22,1,,,,,サンキョウ,0
1314,6021001085139,新規,0,2025-05-22,2025-05-22,シャイニーリンク株式会社,,株式会社,神奈川県,相模原市中央区,東淵野辺３丁目２３番１７－１号,,14,152,2520203,,,,,,,2025-05-22,1,,,,,シャイニーリンク,0
1320,6030001166625,新規,0,2025-05-22,2025-05-22,株式会社雙吉,,株式会社,埼玉県,川口市,西川口６丁目４－６第二荻島ビル２０３,,11,203,3320021,,,,,,,2025-05-22,1,,,,,フタヨシ,0
1321,6030001166633,新規,0,2025-05-22,2025-05-22,モーニン株式会社,,株式会社,埼玉県,越谷市,赤山町５丁目８番８－１号,,11,222,3430807,,,,,,,2025-05-22,1,,,,,モーニン,0
1324,6030005022171,新規,0,2025-05-22,2025-05-22,ＮＰＯ法人難病サポートこころわ,,その他の設立登記法人,埼玉県,ふじみ野市,新駒林３丁目３番２５号,,11,245,3560030,,,,,,,2025-05-22,1,,,,,ナンビョウサポートココロワ,0
1328,6040001138838,新規,0,2025-05-22,2025-05-22,ハッピーワン株式会社,,株式会社,千葉県,船橋市,本町７丁目１１番１号,,12,204,2730005,,,,,,,2025-05-22,1,,,,,ハッピーワン,0
1330,6040003027659,新規,0,2025-05-22,2025-05-22,ＲＡＴＨＮＡＹＡＫＡ　ＡＵＴＯ　ＩＮＴＥＲＮＡＴＩＯＮＡＬ合同会社,,合同会社,千葉県,山武市,麻生新田８５番地９,,12,237,2891203,,,,,,,2025-05-22,1,,,,,ラスナヤカオートインターナショナル,0
1344,6070003005934,新規,0,2025-05-22,2025-05-22,合同会社サイトリンク,,合同会社,群馬県,多野郡神流町,大字相原３,,10,367,3701511,,,,,,,2025-05-22,1,,,,,,0
1349,6080101025494,新規,0,2025-05-22,2025-05-22,株式会社三恵,,株式会社,静岡県,熱海市,中央町１９番２９号,,22,205,4130015,,,,,,,2025-05-22,1,,,,,サンケイ,0
1352,6080401027918,新規,0,2025-05-22,2025-05-22,株式会社Ｂｅｔａ,,株式会社,静岡県,浜松市中央区,鍛冶町１５番,,22,138,4300933,,,,,,,2025-05-22,1,,,,,ベータ,0
1356,6110003005772,新規,0,2025-05-22,2025-05-22,雪趣合同会社,,合同会社,新潟県,妙高市,大字田切字西原２１８番地３９６,,15,217,9492102,,,,,,,2025-05-22,1,,,,,ユキシュ,0
1364,6120001275994,新規,0,2025-05-22,2025-05-22,株式会社マルホ補助金助成金総合研究所,,株式会社,大阪府,大阪市北区,西天満６丁目７番４号,,27,127,5300047,,,,,,,2025-05-22,1,,,,,マルホホジョキンジョセイキンソウゴウケンキュウジョ,0
1365,6120001276019,新規,0,2025-05-22,2025-05-22,株式会社スカイクリーン,,株式会社,大阪府,大阪市住之江区,中加賀屋２丁目６番１５号,,27,125,5590017,,,,,,,2025-05-22,1,,,,,,0
1369,6120903005672,新規,0,2025-05-22,2025-05-22,合同会社Ｆｏｌｃａ,,合同会社,大阪府,茨木市,新堂３丁目１５番１４号,,27,211,5670835,,,,,,,2025-05-22,1,,,,,フォルカ,0
1373,6122003003202,新規,0,2025-05-22,2025-05-22,阪源合同会社,,合同会社,大阪府,東大阪市,水走１丁目３－４５－３０４室,,27,227,5780921,,,,,,,2025-05-22,1,,,,,ハンゲン,0
1375,6130001079718,新規,0,2025-05-22,2025-05-22,株式会社トモシゴト,,株式会社,京都府,京都市中京区,錦小路通室町西入天神山町２８０石勘ビル４Ｆ,,26,104,6048221,,,,,,,2025-05-22,1,,,,,トモシゴト,0
1376,6130003010473,新規,0,2025-05-22,2025-05-22,合同会社Ｒ８Ｌａｂ,,合同会社,京都府,京都市西京区,桂畑ケ田町１２５番地,,26,111,6158004,,,,,,,2025-05-22,1,,,,,アールエイトラボ,0
1381,6140001138621,新規,0,2025-05-22,2025-05-22,株式会社ＮＣＤホールディングス,,株式会社,兵庫県,神戸市中央区,伊藤町１１９番地,,28,110,6500032,,,,,,,2025-05-22,1,,,,,エヌシーディーホールディングス,0
1387,6160003003482,新規,0,2025-05-22,2025-05-22,合同会社ケアファミリー,,合同会社,滋賀県,近江八幡市,出町４２５番地１１,,25,204,5230892,,,,,,,2025-05-22,1,,,,,ケアファミリー,0
1392,6180001166750,新規,0,2025-05-22,2025-05-22,株式会社ｂｅａｕｔｙ　ｌｉｒｉｐ,,株式会社,愛知県,名古屋市中区,丸の内３丁目２０番２０号チサンマンション丸の内第三８０３号室,,23,106,4600002,,,,,,,2025-05-22,1,,,,,ビューティーライリップ,0
1393,6180001166899,新規,0,2025-05-22,2025-05-22,株式会社エルク,,株式会社,愛知県,春日井市,高山町１丁目２－２１Ｇａｒａｇｅ春日井Ａ,,23,206,4860912,,,,,,,2025-05-22,1,,,,,エルク,0
1399,6180003028503,新規,0,2025-05-22,2025-05-22,合同会社風姿花伝茶学院,,合同会社,愛知県,名古屋市北区,平安２丁目１５番３７号,,23,103,4620819,,,,,,,2025-05-22,1,,,,,フウシカデンチャガクイン,0
1405,6190003005047,新規,0,2025-05-22,2025-05-22,ＡＸＩＳ合同会社,,合同会社,三重県,松阪市,垣鼻町５７５番地サンハイム垣鼻３０５号室,,24,204,5150033,,,,,,,2025-05-22,1,,,,,アクシス,0
1414,6240001064790,新規,0,2025-05-22,2025-05-22,株式会社ＮＡＫ,,株式会社,広島県,広島市中区,大手町１丁目１番２０号相生橋ビル７階Ａ号室,,34,101,7300051,,,,,,,2025-05-22,1,,,,,ナック,0
1415,6240001064956,新規,0,2025-05-22,2025-05-22,株式会社ＳＫＮメディカルソリューションズ,,株式会社,広島県,安芸郡海田町,稲葉１０番４３号,,34,304,7360012,,,,,,,2025-05-22,1,,,,,エスケーエヌメディカルソリューションズ,0
1429,6290001110053,新規,0,2025-05-22,2025-05-22,株式会社イーストカントリー,,株式会社,福岡県,福岡市中央区,赤坂１丁目１３－２－１９０３,,40,133,8100042,,,,,,,2025-05-22,1,,,,,イーストカントリー,0
1430,6290001110103,新規,0,2025-05-22,2025-05-22,株式会社ストームフロント,,株式会社,福岡県,福岡市中央区,天神４丁目６番２８号,,40,133,8100001,,,,,,,2025-05-22,1,,,,,ストームフロント,0
1432,6290003016876,新規,0,2025-05-22,2025-05-22,合同会社ＢＬＯＷ,,合同会社,福岡県,久留米市,小頭町１２番地８,,40,203,8300045,,,,,,,2025-05-22,1,,,,,ブロー,0
1436,6290801031523,新規,0,2025-05-22,2025-05-22,株式会社プラントＪ．Ｍ工業,,株式会社,福岡県,京都郡苅田町,大字稲光１２１７番地５,,40,621,8000337,,,,,,,2025-05-22,1,,,,,プラントジェイエムコウギョウ,0
1440,6310001019614,新規,0,2025-05-22,2025-05-22,株式会社フジフロンティア,,株式会社,長崎県,諫早市,川内町２５５３番地,,42,204,8540037,,,,,,,2025-05-22,1,,,,,フジフロンティア,0
1444,6330001033217,新規,0,2025-05-22,2025-05-22,シン・リゾート株式会社,,株式会社,熊本県,熊本市中央区,上通町２番１７号びぷれす熊日会館７階,,43,101,8600845,,,,,,,2025-05-22,1,,,,,シンリゾート,0
1447,6360001035243,新規,0,2025-05-22,2025-05-22,株式会社セキュリティホース,,株式会社,沖縄県,那覇市,久茂地２丁目２－２タイムスビル２階,,47,201,9000015,,,,,,,2025-05-22,1,,,,,セキュリティホース,0
1449,6370001052584,新規,0,2025-05-22,2025-05-22,株式会社Ｍｏｍｆｏｒ,,株式会社,宮城県,仙台市青葉区,支倉町４番４号べレオ支倉２０１,,04,101,9800824,,,,,,,2025-05-22,1,,,,,マムフォー,0
1459,6400003003466,新規,0,2025-05-22,2025-05-22,ＭＵＬＩＰＨＥＮ合同会社,,合同会社,岩手県,北上市,柳原町１丁目６番１９号プチハウス柳原Ａ－１０５号,,03,206,0240083,,,,,,,2025-05-22,1,,,,,ムリフェン,0
1464,6430001094430,新規,0,2025-05-22,2025-05-22,株式会社ナイストラップ,,株式会社,北海道,札幌市手稲区,手稲前田５７４番地４,,01,109,0060829,,,,,,,2025-05-22,1,,,,,ナイストラップ,0
1465,6430001094471,新規,0,2025-05-22,2025-05-22,株式会社Ａｃｔｖｅｌａ,,株式会社,北海道,札幌市北区,新琴似六条１６丁目７‐３,,01,102,0010906,,,,,,,2025-05-22,1,,,,,アクトヴェラ,0
1467,6430003017678,新規,0,2025-05-22,2025-05-22,合同会社福,,合同会社,北海道,札幌市白石区,川北二条３丁目８番５号二階,,01,104,0030852,,,,,,,2025-05-22,1,,,,,フク,0
1468,6430003017686,新規,0,2025-05-22,2025-05-22,合同会社ａｎｄ　ｇｒｕ,,合同会社,北海道,空知郡南幌町,東町２丁目２番６号,,01,423,0690233,,,,,,,2025-05-22,1,,,,,アンドグル,0
1472,6450003002661,新規,0,2025-05-22,2025-05-22,合同会社Ｔｒｅ　ｐａｓｔｏｒｉ,,合同会社,北海道,雨竜郡沼田町,本通４丁目４－１０,,01,438,0782203,,,,,,,2025-05-22,1,,,,,トレパストーリ,0
1474,6460101007710,新規,0,2025-05-22,2025-05-22,株式会社ｏｆｆｉｃｅトリモト,,株式会社,北海道,帯広市,清流東４丁目８番地６,,01,207,0800871,,,,,,,2025-05-22,1,,,,,オフィストリモト,0
1489,7010001254851,新規,0,2025-05-22,2025-05-22,Ｙ　Ｇｌｏｂａｌ株式会社,,株式会社,東京都,中央区,銀座１丁目１２－４Ｎ＆Ｅ－ＢＬＤ．６Ｆ,,13,102,1040061,,,,,,,2025-05-22,1,,,,,ワイグローバル,0
1490,7010001255214,新規,0,2025-05-22,2025-05-22,株式会社Ｌｉｖｅ,,株式会社,東京都,千代田区,永田町２丁目１１番１号山王パークタワー５階トラスティーズ・コンサルティングＬＬＰ内,,13,101,1000014,,,,,,,2025-05-22,1,,,,,ライブ,0
1491,7010001255247,新規,0,2025-05-22,2025-05-22,日本クドラ株式会社,,株式会社,東京都,千代田区,丸の内１丁目１１－１,,13,101,1000005,,,,,,,2025-05-22,1,,,,,ニホンクドラ,0
1495,7010003047386,新規,0,2025-05-22,2025-05-22,合同会社ＫＯＭＡＣＨＩ,,合同会社,東京都,中央区,東日本橋１丁目６番１２－３０３号,,13,102,1030004,,,,,,,2025-05-22,1,,,,,コマチ,0
1496,7010003047394,新規,0,2025-05-22,2025-05-22,合同会社Ｏｖｅｒｃｏｍｅ,,合同会社,東京都,中央区,日本橋室町１丁目１１－１２日本橋水野ビル７階,,13,102,1030022,,,,,,,2025-05-22,1,,,,,オーバーカム,0
1497,7010003047403,新規,0,2025-05-22,2025-05-22,ＢｉｚＤｅｖ合同会社,,合同会社,東京都,文京区,大塚２丁目１２番１号テラス護国寺３０１,,13,105,1120012,,,,,,,2025-05-22,1,,,,,ビズデブ,0
1507,7010401190341,新規,0,2025-05-22,2025-05-22,株式会社日本ドライバーズ,,株式会社,東京都,港区,北青山１丁目３番１号アールキューブ青山３階,,13,103,1070061,,,,,,,2025-05-22,1,,,,,ニホンドライバーズ,0
1511,7010405024388,新規,0,2025-05-22,2025-05-22,一般社団法人桃郷会,,その他の設立登記法人,東京都,港区,高輪３丁目１９番４６号,,13,103,1080074,,,,,,,2025-05-22,1,,,,,トウゴウカイ,0
1520,7010701047745,新規,0,2025-05-22,2025-05-22,株式会社ＴＯＫＹＯＴＯ　ＣＡＰＩＴＡＬ,,株式会社,東京都,品川区,大崎２丁目９番１,,13,109,1410032,,,,,,,2025-05-22,1,,,,,トウキョウトキャピタル,0
1522,7010703007706,新規,0,2025-05-22,2025-05-22,合同会社Ｄｉｓｃｏｖｅｒｙ,,合同会社,東京都,品川区,上大崎２丁目１０番１１号アビティ目黒３１６,,13,109,1410021,,,,,,,2025-05-22,1,,,,,ディスカヴァリイ,0
1523,7010801036169,新規,0,2025-05-22,2025-05-22,瑞芝株式会社,,株式会社,東京都,大田区,大森西１丁目８番３０号２階,,13,111,1430015,,,,,,,2025-05-22,1,,,,,ミズシ,0
1525,7010901057404,新規,0,2025-05-22,2025-05-22,株式会社ＣＲＺ,,株式会社,東京都,世田谷区,太子堂２丁目１７－１２,,13,112,1540004,,,,,,,2025-05-22,1,,,,,シーアールゼット,0
1534,7011001169503,新規,0,2025-05-22,2025-05-22,株式会社ｋｉ,,株式会社,東京都,渋谷区,初台１丁目７番９－３０２号,,13,113,1510061,,,,,,,2025-05-22,1,,,,,ケーアイ,0
1535,7011001169528,新規,0,2025-05-22,2025-05-22,株式会社Ｓａｉｎｔ　Ｊａｍｅｓ　Ｊａｐｏｎ,,株式会社,東京都,渋谷区,渋谷１丁目２３番２１号,,13,113,1500002,,,,,,,2025-05-22,1,,,,,セントジェームスジャポン,0
1536,7011001169544,新規,0,2025-05-22,2025-05-22,株式会社ハウスオブタディ,,株式会社,東京都,渋谷区,恵比寿西２丁目４番８号ウィンド恵比寿ビル８Ｆ,,13,113,1500021,,,,,,,2025-05-22,1,,,,,ハウスオブタディ,0
1537,7011001169643,新規,0,2025-05-22,2025-05-22,ＣａＲＢＯＮ　ＧＲＡＳＳ株式会社,,株式会社,東京都,渋谷区,恵比寿西１丁目２８番６号テラス代官山３Ｆ,,13,113,1500021,,,,,,,2025-05-22,1,,,,,カーボングラス,0
1538,7011003021579,新規,0,2025-05-22,2025-05-22,合同会社Ｒｅｖｉｖｅ,,合同会社,東京都,渋谷区,千駄ヶ谷５丁目２１－５ミサワビル９０２,,13,113,1510051,,,,,,,2025-05-22,1,,,,,リバイブ,0
1539,7011003021595,新規,0,2025-05-22,2025-05-22,合同会社若木管財,,合同会社,東京都,渋谷区,東４丁目７番１４号,,13,113,1500011,,,,,,,2025-05-22,1,,,,,ワカギカンザイ,0
1540,7011005010992,新規,0,2025-05-22,2025-05-22,一般財団法人いのち動的平衡財団,,その他の設立登記法人,東京都,目黒区,緑が丘１丁目１５番１６号,,13,110,1520034,,,,,,,2025-05-22,1,,,,,イノチドウテキヘイコウザイダン,0
1551,7011105011437,新規,0,2025-05-22,2025-05-22,一般社団法人みんな道の途中,,その他の設立登記法人,東京都,新宿区,神楽坂５丁目３７番地,,13,104,1620825,,,,,,,2025-05-22,1,,,,,ミンナミチノトチュウ,0
1552,7011201026355,新規,0,2025-05-22,2025-05-22,株式会社東京中野銀行,,株式会社,東京都,中野区,本町通三丁目１４番地,,13,114,1640000,,,,,,,2025-05-22,1,,,,,トウキョウナカノギンコウ,0
1554,7011303005554,新規,0,2025-05-22,2025-05-22,合同会社Ｒ＆Ｓ,,合同会社,東京都,杉並区,高円寺南２丁目４４番６号プレミスト高円寺２０８,,13,115,1660003,,,,,,,2025-05-22,1,,,,,アールアンドエス,0
1555,7011403004695,新規,0,2025-05-22,2025-05-22,合同会社Ａｌｍａ　Ｅｎｔｅｒｔａｉｎｍｅｎｔ,,合同会社,東京都,板橋区,双葉町１６－１３梯コーポ１０１号室,,13,119,1730011,,,,,,,2025-05-22,1,,,,,アルマエンターテイメント,0
1556,7011501032094,新規,0,2025-05-22,2025-05-22,株式会社ＳａｌｍｏｎＮｏｏｄｌｅ３．０ＨａｌａｌＬａｂｅｌ,,株式会社,東京都,北区,滝野川７丁目１７番１３号ドゥーエ板橋１００１号,,13,117,1140023,,,,,,,2025-05-22,1,,,,,サーモンヌードルスリーポイントゼロハラルレーベル,0
1568,7013305003718,新規,0,2025-05-22,2025-05-22,一般社団法人ＫＴトラスト,,その他の設立登記法人,東京都,豊島区,池袋本町２丁目２６番１１号,,13,116,1700011,,,,,,,2025-05-22,1,,,,,ケーティートラスト,0
1574,7020001162979,新規,0,2025-05-22,2025-05-22,株式会社中嶋圧送,,株式会社,神奈川県,横浜市泉区,白百合２丁目４番６号,,14,116,2450005,,,,,,,2025-05-22,1,,,,,ナカジマアッソウ,0
1575,7020001162987,新規,0,2025-05-22,2025-05-22,静香商事株式会社,,株式会社,神奈川県,横浜市中区,松影町２丁目５番９アークＫビル６０３室,,14,104,2310025,,,,,,,2025-05-22,1,,,,,シズカショウジ,0
1576,7020001163003,新規,0,2025-05-22,2025-05-22,株式会社海企画,,株式会社,神奈川県,横浜市中区,山元町１丁目７番地,,14,104,2310851,,,,,,,2025-05-22,1,,,,,ウミキカク,0
1577,7020001163011,新規,0,2025-05-22,2025-05-22,株式会社加山建設,,株式会社,神奈川県,横浜市鶴見区,下末吉２丁目１６番１０号,,14,101,2300012,,,,,,,2025-05-22,1,,,,,カヤマケンセツ,0
1582,7021001085286,新規,0,2025-05-22,2025-05-22,シルバ電設株式会社,,株式会社,神奈川県,藤沢市,大庭５１３５番地の１,,14,205,2510861,,,,,,,2025-05-22,1,,,,,シルバデンセツ,0
1584,7021005013375,新規,0,2025-05-22,2025-05-22,一般社団法人ＭＹ　ＳＴＹＬＥ,,その他の設立登記法人,神奈川県,綾瀬市,早川城山５丁目１３－６,,14,218,2521127,,,,,,,2025-05-22,1,,,,,マイスタイル,0
1590,7030001166640,新規,0,2025-05-22,2025-05-22,株式会社べラス,,株式会社,埼玉県,川口市,大字安行原２７５３番地の７,,11,203,3340057,,,,,,,2025-05-22,1,,,,,ベラス,0
1596,7030003026818,新規,0,2025-05-22,2025-05-22,Ｑｕｌｕ合同会社,,合同会社,埼玉県,狭山市,入間川１丁目１３番９号,,11,215,3501305,,,,,,,2025-05-22,1,,,,,クル,0
1603,7040001138878,新規,0,2025-05-22,2025-05-22,株式会社るきさくファーム,,株式会社,千葉県,八街市,朝日６１８番地３,,12,230,2891101,,,,,,,2025-05-22,1,,,,,ルキサクファーム,0
1606,7040003027534,新規,0,2025-05-22,2025-05-22,合同会社Ｎ．Ｃ．Ｎ‐ＷｉＮ,,合同会社,千葉県,船橋市,本中山２丁目２３番１６号,,12,204,2730035,,,,,,,2025-05-22,1,,,,,エヌシーエヌウィン,0
1619,7080401027917,新規,0,2025-05-22,2025-05-22,株式会社アリガ,,株式会社,静岡県,浜松市中央区,東三方町４８９番地の３,,22,138,4338104,,,,,,,2025-05-22,1,,,,,アリガ,0
1622,7110001039284,新規,0,2025-05-22,2025-05-22,株式会社Ｏｒｉ,,株式会社,新潟県,三条市,北四日町１６番１４号ａｒｃｈ,,15,204,9550853,,,,,,,2025-05-22,1,,,,,オリ,0
1628,7120001275903,新規,0,2025-05-22,2025-05-22,株式会社Ａｖｅｌｄ,,株式会社,大阪府,大阪市北区,天満４丁目１４番１９号天満パークビル５０１,,27,127,5300043,,,,,,,2025-05-22,1,,,,,アヴェルド,0
1629,7120001275936,新規,0,2025-05-22,2025-05-22,至宝株式会社,,株式会社,大阪府,大阪市大正区,小林東３丁目１番１５号,,27,108,5510011,,,,,,,2025-05-22,1,,,,,シホウ,0
1630,7120001275960,新規,0,2025-05-22,2025-05-22,株式会社Ａｎａｔｏｍｉｃａｌ,,株式会社,大阪府,大阪市東住吉区,桑津１丁目３１番３３－１１０２号,,27,121,5460041,,,,,,,2025-05-22,1,,,,,アナトミカル,0
1631,7120001275993,新規,0,2025-05-22,2025-05-22,株式会社ＺＩＮ,,株式会社,大阪府,大阪市浪速区,恵美須西１丁目４番１０号７０２号室,,27,111,5560003,,,,,,,2025-05-22,1,,,,,ジン,0
1632,7120003029489,新規,0,2025-05-22,2025-05-22,合同会社金丸通商,,合同会社,大阪府,大阪市中央区,西心斎橋２丁目１０番１４号Ｃ－１号室,,27,128,5420086,,,,,,,2025-05-22,1,,,,,キンマルツウショウ,0
1633,7120003029506,新規,0,2025-05-22,2025-05-22,合同会社空翔夢,,合同会社,大阪府,枚方市,長尾家具町４丁目５番２４号,,27,210,5730102,,,,,,,2025-05-22,1,,,,,アトム,0
1639,7130001079700,新規,0,2025-05-22,2025-05-22,株式会社ユラク,,株式会社,京都府,京都市下京区,七条通烏丸東入桜木町９９番地ブーケガルニビルＢ１,,26,106,6000000,,,,,,,2025-05-22,1,,,,,ユラク,0
1640,7130001079725,新規,0,2025-05-22,2025-05-22,香竹彦株式会社,,株式会社,京都府,京都市伏見区,深草西浦町７丁目１９Ｂ棟１０７－Ａ,,26,109,6120029,,,,,,,2025-05-22,1,,,,,コウチクゲン,0
1648,7140003021989,新規,0,2025-05-22,2025-05-22,合同会社ＦＯＲＳＩＡ,,合同会社,兵庫県,川辺郡猪名川町,つつじが丘４丁目１８番地１２,,28,301,6660245,,,,,,,2025-05-22,1,,,,,フォルシア,0
1661,7180303006579,新規,0,2025-05-22,2025-05-22,合同会社陶山通信,,合同会社,愛知県,豊橋市,小島町字東峠５番地の３,,23,201,4413122,,,,,,,2025-05-22,1,,,,,スヤマツウシン,0
1673,7240001064963,新規,0,2025-05-22,2025-05-22,株式会社ＴＫコーポレーション,,株式会社,広島県,広島市中区,宝町４番２４－１１０６号,,34,101,7300044,,,,,,,2025-05-22,1,,,,,ティーケーコーポレーション,0
1676,7250003003729,新規,0,2025-05-22,2025-05-22,スターサービス合同会社,,合同会社,山口県,周南市,新町１丁目１１番地リバティ新町３０１号,,35,215,7450017,,,,,,,2025-05-22,1,,,,,スターサービス,0
1681,7290001110093,新規,0,2025-05-22,2025-05-22,株式会社ＲＥＩ,,株式会社,福岡県,春日市,須玖南４丁目３７番地,,40,218,8160863,,,,,,,2025-05-22,1,,,,,レイ,0
1682,7290003016883,新規,0,2025-05-22,2025-05-22,合同会社Ｖｅｎｕｓ,,合同会社,福岡県,福岡市南区,横手南町１８番２０－３０１号,,40,134,8111312,,,,,,,2025-05-22,1,,,,,ヴィーナス,0
1684,7290805009829,新規,0,2025-05-22,2025-05-22,一般社団法人ＴＳＵＮＡＧＵ,,その他の設立登記法人,福岡県,北九州市小倉北区,浅野３丁目８番１号ＡＩＭビル６階,,40,106,8020001,,,,,,,2025-05-22,1,,,,,ツナグ,0
1690,7320001021106,新規,0,2025-05-22,2025-05-22,Ｐａｒｅｎｔｓ　Ｂｌｅｓｓｉｎｇ株式会社,,株式会社,大分県,別府市,石垣西３丁目１番１号ＣＲＥＡ・ＣＯＵＲＴ石垣１０５号室,,44,202,8740910,,,,,,,2025-05-22,1,,,,,ペアレンツブレッシング,0
1695,7340001027349,新規,0,2025-05-22,2025-05-22,株式会社りゅうけん,,株式会社,鹿児島県,鹿児島市,犬迫町３３０６番地,,46,201,8911205,,,,,,,2025-05-22,1,,,,,リュウケン,0
1697,7370001052591,新規,0,2025-05-22,2025-05-22,株式会社たねけん,,株式会社,宮城県,塩竈市,新富町４番１０号塩釜リトル・ヒルズ１０５号,,04,203,9850022,,,,,,,2025-05-22,1,,,,,タネケン,0
1705,7400003003465,新規,0,2025-05-22,2025-05-22,合同会社藤真,,合同会社,岩手県,盛岡市,大沢川原２丁目２－１４,,03,201,0200025,,,,,,,2025-05-22,1,,,,,トウシン,0
1710,7430003017685,新規,0,2025-05-22,2025-05-22,合同会社Ｗ＆Ｂ,,合同会社,北海道,札幌市北区,北三十条西９丁目５番１１号第１白山ハイツ１０１号,,01,102,0010030,,,,,,,2025-05-22,1,,,,,ダブリューアンドビー,0
1725,8010001255213,新規,0,2025-05-22,2025-05-22,株式会社Ｂｌｏｏｍ,,株式会社,東京都,千代田区,永田町２丁目１１番１号山王パークタワー５階トラスティーズ・コンサルティングＬＬＰ内,,13,101,1000014,,,,,,,2025-05-22,1,,,,,ブルーム,0
1728,8010003047393,新規,0,2025-05-22,2025-05-22,合同会社Ｃｒａｖｅｒ　Ｈｏｌｄｉｎｇｓ,,合同会社,東京都,千代田区,神田東松下町４１－１Ｈ１Ｏ神田,,13,101,1010042,,,,,,,2025-05-22,1,,,,,クレイバーホールディングス,0
1734,8010401190431,新規,0,2025-05-22,2025-05-22,ＤＳジャパンコンサルティング株式会社,,株式会社,東京都,港区,赤坂４丁目１３番５号,,13,103,1070052,,,,,,,2025-05-22,1,,,,,ディーエスジャパンコンサルティング,0
1735,8010401190506,新規,0,2025-05-22,2025-05-22,ＫＨＣ・ホテル・オペレーションズ株式会社,,株式会社,東京都,港区,愛宕２丁目５番１号,,13,103,1050002,,,,,,,2025-05-22,1,,,,,ケーエッチシーホテルオペレーションズ,0
1749,8010501054057,新規,0,2025-05-22,2025-05-22,Ｄｏｕｂｌｅ　Ｑ株式会社,,株式会社,東京都,台東区,今戸２丁目１４番５号Ｋ２－ＣＯＵＲＴＡＳＡＫＵＳＡ４０２号室,,13,106,1110024,,,,,,,2025-05-22,1,,,,,ダブルキュー,0
1752,8010601067306,新規,0,2025-05-22,2025-05-22,棣棠書社文化伝播株式会社,,株式会社,東京都,江東区,深川１丁目１番２号協和ビル２階,,13,108,1350033,,,,,,,2025-05-22,1,,,,,テイトウショシャブンカデンパ,0
1754,8010603011575,新規,0,2025-05-22,2025-05-22,Ｋｏｍａｄｏ合同会社,,合同会社,東京都,江東区,南砂４丁目１０番１５号,,13,108,1360076,,,,,,,2025-05-22,1,,,,,コマド,0
1756,8010803005393,新規,0,2025-05-22,2025-05-22,合同会社ダカーポ,,合同会社,東京都,大田区,久が原４丁目４３番６号レオパレスドミール久が原１０４,,13,111,1460085,,,,,,,2025-05-22,1,,,,,ダカーポ,0
1762,8010901057394,新規,0,2025-05-22,2025-05-22,株式会社エモーショナルスカイ,,株式会社,東京都,世田谷区,用賀４丁目９番１２号,,13,112,1580097,,,,,,,2025-05-22,1,,,,,エモーショナルスカイ,0
1768,8011001169493,新規,0,2025-05-22,2025-05-22,株式会社ルポワン,,株式会社,東京都,渋谷区,桜丘町１０番６－４０１,,13,113,1500031,,,,,,,2025-05-22,1,,,,,ルポワン,0
1769,8011001169535,新規,0,2025-05-22,2025-05-22,株式会社Ｐｈｉｌｌｅｓ,,株式会社,東京都,渋谷区,道玄坂１丁目１０番８号渋谷道玄坂東急ビル２Ｆ－Ｃ,,13,113,1500043,,,,,,,2025-05-22,1,,,,,フィレス,0
1770,8011001169642,新規,0,2025-05-22,2025-05-22,株式会社キャンバスインダストリー,,株式会社,東京都,渋谷区,代官山町８番７号Ｄａｉｗａスクエア代官山ビル,,13,113,1500034,,,,,,,2025-05-22,1,,,,,キャンバスインダストリー,0
1771,8011001169717,新規,0,2025-05-22,2025-05-22,株式会社Ｔｕｍｕｇｉ　Ｗｏｒｋｓ,,株式会社,東京都,渋谷区,円山町５番３号ＭＩＥＵＸ渋谷ビル８階,,13,113,1500044,,,,,,,2025-05-22,1,,,,,ツムギワークス,0
1772,8011001169849,新規,0,2025-05-22,2025-05-22,Ｐｌｕｍ　Ｐａｒｋｓ株式会社,,株式会社,東京都,渋谷区,神宮前６丁目３４番２０号１階,,13,113,1500001,,,,,,,2025-05-22,1,,,,,プラムパークス,0
1774,8011003021578,新規,0,2025-05-22,2025-05-22,プロパティ・コンシェルジュ・ジャパン合同会社,,合同会社,東京都,渋谷区,渋谷２丁目１９番１９号ワコー宮益坂ビル５階,,13,113,1500002,,,,,,,2025-05-22,1,,,,,プロパティコンシェルジュジャパン,0
1775,8011003021586,新規,0,2025-05-22,2025-05-22,曜映合同会社,,合同会社,東京都,渋谷区,本町２丁目３３番２号,,13,113,1510071,,,,,,,2025-05-22,1,,,,,ヨウエイ,0
1776,8011003021603,新規,0,2025-05-22,2025-05-22,アルチエン合同会社,,合同会社,東京都,渋谷区,神宮前６丁目３５－３ＪＵＮＣＴＩＯＮ・ｈａｒａｊｕｋｕ１Ｆ００９,,13,113,1500001,,,,,,,2025-05-22,1,,,,,アルチエン,0
1782,8011101111867,新規,0,2025-05-22,2025-05-22,株式会社ノヴァリンク,,株式会社,東京都,新宿区,高田馬場２丁目１６番１１号高田馬場２１６ビル７階,,13,104,1690075,,,,,,,2025-05-22,1,,,,,ノヴァリンク,0
1792,8011601028677,新規,0,2025-05-22,2025-05-22,株式会社トゥーレーインターナショナル,,株式会社,東京都,練馬区,練馬４丁目１５番３号豊島園パールハイツ５Ａ,,13,120,1760001,,,,,,,2025-05-22,1,,,,,トゥーレーインターナショナル,0
1793,8011701028362,新規,0,2025-05-22,2025-05-22,ＫＥＳＯ商事株式会社,,株式会社,東京都,江戸川区,江戸川６丁目４０番１４－１１３号,,13,123,1340013,,,,,,,2025-05-22,1,,,,,ケソショウジ,0
1794,8011703004246,新規,0,2025-05-22,2025-05-22,木多多合同会社,,合同会社,東京都,江戸川区,西小岩５丁目１３番１３－１５１号,,13,123,1330057,,,,,,,2025-05-22,1,,,,,キタタ,0
1798,8013103001451,新規,0,2025-05-22,2025-05-22,ＡＹＡＮＳＨＩ合同会社,,合同会社,東京都,福生市,大字熊川１６２０番地１６リヴィエール１０７号室,,13,218,1970003,,,,,,,2025-05-22,1,,,,,アヤンシ,0
1803,8020001162986,新規,0,2025-05-22,2025-05-22,株式会社リンプロパティ,,株式会社,神奈川県,川崎市幸区,中幸町２丁目３６－４サンパレス中幸１０６号室,,14,132,2120012,,,,,,,2025-05-22,1,,,,,,0
1804,8020001163002,新規,0,2025-05-22,2025-05-22,ＬＴＣ京恩株式会社,,株式会社,神奈川県,横浜市中区,寿町２丁目８番地１武夷ビル１Ｆ,,14,104,2310026,,,,,,,2025-05-22,1,,,,,エルティシーケイオン,0
1809,8020003028541,新規,0,2025-05-22,2025-05-22,合同会社ＣＬＥＳＴ,,合同会社,神奈川県,川崎市多摩区,菅仙谷１丁目９番３９号,,14,135,2140006,,,,,,,2025-05-22,1,,,,,クレスト,0
1815,8021001085285,新規,0,2025-05-22,2025-05-22,トミージン株式会社,,株式会社,神奈川県,厚木市,中町２丁目４番１４号,,14,212,2430018,,,,,,,2025-05-22,1,,,,,トミージン,0
1816,8021003016040,新規,0,2025-05-22,2025-05-22,合同会社フットボールクラブ相模原,,合同会社,神奈川県,相模原市中央区,田名５２３１番地２,,14,152,2520244,,,,,,,2025-05-22,1,,,,,フットボールクラブサガミハラ,0
1821,8030001166581,新規,0,2025-05-22,2025-05-22,台越インターナショナル株式会社,,株式会社,埼玉県,入間市,豊岡１丁目３番２５号半田ビル２階ＫＩＶオフィス入間Ｃ号室,,11,225,3580003,,,,,,,2025-05-22,1,,,,,タイエツインターナショナル,0
1829,8030003026817,新規,0,2025-05-22,2025-05-22,合同会社ＳＫＫ,,合同会社,埼玉県,春日部市,中央１丁目１６番地２パークサイド春日部５０２,,11,214,3440067,,,,,,,2025-05-22,1,,,,,エスケーケー,0
1834,8040001138893,新規,0,2025-05-22,2025-05-22,ＦＡＲＨＡＮ　ＩＮＴＥＲＮＡＴＩＯＮＡＬ株式会社,,株式会社,千葉県,木更津市,清川２丁目３番１７号ラフォーレ１０６,,12,206,2920051,,,,,,,2025-05-22,1,,,,,ファルハンインターナショナル,0
1841,8050001056707,新規,0,2025-05-22,2025-05-22,株式会社ＢＣ　ＴＲＡＤＩＮＧ,,株式会社,茨城県,古河市,上和田３４０番地１,,08,204,3060122,,,,,,,2025-05-22,1,,,,,ビーシートレーディング,0
1842,8050001056715,新規,0,2025-05-22,2025-05-22,株式会社ＭＪはる企画,,株式会社,茨城県,守谷市,松並青葉１丁目１番地５レーベン守谷ＴＨＥ・ＢＲＩＤＧＥ４１３,,08,224,3020132,,,,,,,2025-05-22,1,,,,,エムジェイハルキカク,0
1851,8100003008171,新規,0,2025-05-22,2025-05-22,これから合同会社,,合同会社,長野県,東御市,常田７９８番地１３,,20,219,3890515,,,,,,,2025-05-22,1,,,,,コレカラ,0
1861,8120001276000,新規,0,2025-05-22,2025-05-22,龍図株式会社,,株式会社,大阪府,大阪市阿倍野区,播磨町１丁目２３－２２－１０３号室,,27,119,5450022,,,,,,,2025-05-22,1,,,,,リュウト,0
1862,8120001276090,新規,0,2025-05-22,2025-05-22,ＦＰデザイン株式会社,,株式会社,大阪府,大阪市中央区,淡路町２丁目６番６号,,27,128,5410047,,,,,,,2025-05-22,1,,,,,エフピーデザイン,0
1865,8120003029496,新規,0,2025-05-22,2025-05-22,ｙｕｈｏｐｅ合同会社,,合同会社,大阪府,大阪市西成区,萩之茶屋１丁目１２番７号万葉ビル２１号室,,27,122,5570004,,,,,,,2025-05-22,1,,,,,ユーホープ,0
1869,8120101071714,新規,0,2025-05-22,2025-05-22,オーガイホールディングス株式会社,,株式会社,大阪府,堺市堺区,大町西３丁３番１５号,,27,141,5900959,,,,,,,2025-05-22,1,,,,,オーガイホールディングス,0
1870,8120101071722,新規,0,2025-05-22,2025-05-22,株式会社ブラッシュアップ,,株式会社,大阪府,泉南郡田尻町,吉見３７５番地４,,27,362,5980092,,,,,,,2025-05-22,1,,,,,ブラッシュアップ,0
1881,8160001026764,新規,0,2025-05-22,2025-05-22,しんら株式会社,,株式会社,滋賀県,長浜市,湖北町海老江４０９,,25,203,5290367,,,,,,,2025-05-22,1,,,,,シンラ,0
1882,8160003003480,新規,0,2025-05-22,2025-05-22,合同会社夢チカラ,,合同会社,滋賀県,湖南市,石部口２丁目９５８－１－２,,25,211,5203114,,,,,,,2025-05-22,1,,,,,ユメチカラ,0
1888,8180001166889,新規,0,2025-05-22,2025-05-22,株式会社Ｐａｉｎｔ　ｕｐ,,株式会社,愛知県,名古屋市中川区,打中２丁目１５３番地の４,,23,110,4540927,,,,,,,2025-05-22,1,,,,,ペイントアップ,0
1889,8180001166906,新規,0,2025-05-22,2025-05-22,株式会社安藤企画,,株式会社,愛知県,名古屋市東区,白壁５丁目１５番地プラウド白壁町３１０,,23,102,4610011,,,,,,,2025-05-22,1,,,,,アンドウキカク,0
1895,8200001043805,新規,0,2025-05-22,2025-05-22,株式会社ＨＡＰＩｃａｒｅｅｒｓ,,株式会社,岐阜県,岐阜市,徹明通２丁目１８番地１９０４号,,21,201,5008879,,,,,,,2025-05-22,1,,,,,ハピキャリアーズ,0
1899,8230001004985,新規,0,2025-05-22,2025-05-22,北日本酒販株式会社,,株式会社,富山県,富山市,婦中町速星５９３番地,,16,201,9392706,,,,,,,2025-05-22,1,,,,,キタニホンシュハン,0
1905,8240001064954,新規,0,2025-05-22,2025-05-22,株式会社幸真建設,,株式会社,広島県,福山市,千田町大字千田３２４７番地１,,34,207,7200013,,,,,,,2025-05-22,1,,,,,コウシンケンセツ,0
1906,8240003007218,新規,0,2025-05-22,2025-05-22,嘉沐合同会社,,合同会社,広島県,江田島市,沖美町畑字下野川３５８番地１,,34,215,7372312,,,,,,,2025-05-22,1,,,,,カモク,0
1908,8260001040202,新規,0,2025-05-22,2025-05-22,株式会社宮水,,株式会社,岡山県,岡山市南区,西紅陽台１丁目５８番地６５９,,33,104,7091203,,,,,,,2025-05-22,1,,,,,ミヤスイ,0
1913,8270005005646,新規,0,2025-05-22,2025-05-22,特定非営利活動法人智頭コミュニティ劇場,,その他の設立登記法人,鳥取県,八頭郡智頭町,大字南方２４６,,31,328,6891403,,,,,,,2025-05-22,1,,,,,チズコミュニティゲキジョウ,0
1920,8290001110092,新規,0,2025-05-22,2025-05-22,株式会社ふじまる商事,,株式会社,福岡県,福岡市西区,大字飯氏８７９番地１,,40,135,8190371,,,,,,,2025-05-22,1,,,,,フジマルショウジ,0
1921,8290001110101,新規,0,2025-05-22,2025-05-22,株式会社レルンテック,,株式会社,福岡県,福岡市中央区,地行浜２丁目２番４－６０８号ザ・パークハウス福岡タワーズＷＥＳＴ,,40,133,8100065,,,,,,,2025-05-22,1,,,,,,0
1925,8290003016858,新規,0,2025-05-22,2025-05-22,合同会社てぃーだ結,,合同会社,福岡県,福岡市博多区,古門戸町２番５－３０１号,,40,132,8120029,,,,,,,2025-05-22,1,,,,,ティーダユイ,0
1926,8290003016866,新規,0,2025-05-22,2025-05-22,ＴｅｓｓＰａｇｅ合同会社,,合同会社,福岡県,福岡市博多区,住吉４丁目１５番２３－１２０１号,,40,132,8120018,,,,,,,2025-05-22,1,,,,,テスページ,0
1927,8290003016882,新規,0,2025-05-22,2025-05-22,合同会社Ｅｍｐａｔｈｙ,,合同会社,福岡県,福岡市中央区,平尾１丁目１３番４－８０３号,,40,133,8100014,,,,,,,2025-05-22,1,,,,,エンパシー,0
1929,8300001014192,新規,0,2025-05-22,2025-05-22,株式会社アベニール総合警備,,株式会社,佐賀県,鳥栖市,養父町３５番地１コーポヒロ１０２号室,,41,203,8410055,,,,,,,2025-05-22,1,,,,,アベニールソウゴウケイビ,0
1945,8380001035339,新規,0,2025-05-22,2025-05-22,コンフォートライフ株式会社,,株式会社,福島県,郡山市,安積町南長久保１丁目５２番地の２,,07,203,9630104,,,,,,,2025-05-22,1,,,,,コンフォートライフ,0
1947,8400003003464,新規,0,2025-05-22,2025-05-22,合同会社ＴｈｒｅｅｅＬｉＮｅｓ,,合同会社,岩手県,盛岡市,仙北１丁目８番４号２０５号,,03,201,0200861,,,,,,,2025-05-22,1,,,,,スリーラインズ,0
1952,8430001094437,新規,0,2025-05-22,2025-05-22,インペリウム株式会社,,株式会社,北海道,札幌市中央区,南八条西２３丁目２番５－５０４号,,01,101,0640808,,,,,,,2025-05-22,1,,,,,インペリウム,0
1953,8430001094445,新規,0,2025-05-22,2025-05-22,株式会社ＯＮＥ　ａｎｄ　ＨＯＵＳＩＮＧ,,株式会社,北海道,札幌市中央区,南二条東１丁目１－１２フラーテ札幌５０９号,,01,101,0600052,,,,,,,2025-05-22,1,,,,,ワンアンドハウジング,0
1954,8430001094453,新規,0,2025-05-22,2025-05-22,株式会社ＡｍｕＰｌｕｓ,,株式会社,北海道,札幌市中央区,南二条西５丁目３１番地１ＲＭＢｌｄ．７０１,,01,101,0600062,,,,,,,2025-05-22,1,,,,,アムプラス,0
1955,8430001094461,新規,0,2025-05-22,2025-05-22,株式会社ＧＲＥＥＮＳ,,株式会社,北海道,札幌市中央区,北八条西２３丁目１番３－２号,,01,101,0600008,,,,,,,2025-05-22,1,,,,,グリーンズ,0
1956,8430003017676,新規,0,2025-05-22,2025-05-22,合同会社ＸＹＺ,,合同会社,北海道,北広島市,広葉町１丁目１－４－２広葉町テラスＢ,,01,234,0611134,,,,,,,2025-05-22,1,,,,,エックスワイゼット,0
1957,8430003017684,新規,0,2025-05-22,2025-05-22,イエローベアーファクトリー合同会社,,合同会社,北海道,札幌市白石区,東札幌一条５丁目１番１－１５０５号,,01,104,0030001,,,,,,,2025-05-22,1,,,,,イエローベアーファクトリー,0
1967,8500001026300,新規,0,2025-05-22,2025-05-22,コンサマトリー株式会社,,株式会社,愛媛県,今治市,大三島町宮浦５７０９番地,,38,202,7941304,,,,,,,2025-05-22,1,,,,,コンサマトリー,0
1974,9010001255195,新規,0,2025-05-22,2025-05-22,ネクストワードジャパン株式会社,,株式会社,東京都,中央区,銀座１丁目１２－４Ｎ＆Ｅ・ＢＬＤ．７Ｆ,,13,102,1040061,,,,,,,2025-05-22,1,,,,,ネクストワードジャパン,0
1975,9010001255212,新規,0,2025-05-22,2025-05-22,株式会社Ｄ１,,株式会社,東京都,千代田区,永田町２丁目１１番１号山王パークタワー５階トラスティーズ・コンサルティングＬＬＰ内,,13,101,1000014,,,,,,,2025-05-22,1,,,,,ディーワン,0
1976,9010001255237,新規,0,2025-05-22,2025-05-22,ＴＳコーポレーション株式会社,,株式会社,東京都,中央区,新富１丁目６番５－３０２号,,13,102,1040041,,,,,,,2025-05-22,1,,,,,ティーエスコーポレーション,0
1977,9010001255253,新規,0,2025-05-22,2025-05-22,千羽和株式会社,,株式会社,東京都,中央区,銀座１丁目３番３号Ｇ１ビル７階,,13,102,1040061,,,,,,,2025-05-22,1,,,,,センバワ,0
1979,9010003047418,新規,0,2025-05-22,2025-05-22,清野合同会社,,合同会社,東京都,千代田区,四番町４番地９（新東京国際リーガル内）,,13,101,1020081,,,,,,,2025-05-22,1,,,,,キヨノ,0
1980,9010101016687,新規,0,2025-05-22,2025-05-22,株式会社ＡｃｔｉｖｅＥＬ,,株式会社,東京都,八王子市,三崎町９‐８オザワビル,,13,201,1920084,,,,,,,2025-05-22,1,,,,,アクティブイーエル,0
1981,9010103002578,新規,0,2025-05-22,2025-05-22,合同会社ワンリーフ,,合同会社,東京都,八王子市,長沼町１５１番地１９－２,,13,201,1920907,,,,,,,2025-05-22,1,,,,,ワンリーフ,0
1987,9010401190397,新規,0,2025-05-22,2025-05-22,株式会社ライナーガンマ,,株式会社,東京都,港区,芝浦４丁目２０－２－３８１０,,13,103,1080023,,,,,,,2025-05-22,1,,,,,ライナーガンマ,0
1988,9010401190463,新規,0,2025-05-22,2025-05-22,株式会社Ｍａｇｎｏｌｉａ　Ｂｌｕｅ,,株式会社,東京都,港区,西新橋３丁目７番１号,,13,103,1050003,,,,,,,2025-05-22,1,,,,,マグノリアブルー,0
1998,9010601067346,新規,0,2025-05-22,2025-05-22,株式会社仲よし,,株式会社,東京都,江東区,亀戸５丁目５番８号國井ビル２Ｆ,,13,108,1360071,,,,,,,2025-05-22,1,,,,,ナカヨシ,0
2001,9010603011574,新規,0,2025-05-22,2025-05-22,ＨＣ合同会社,,合同会社,東京都,墨田区,菊川１丁目８番９－４０４号,,13,107,1300024,,,,,,,2025-05-22,1,,,,,エイチシー,0
2002,9010701047735,新規,0,2025-05-22,2025-05-22,スミカ株式会社,,株式会社,東京都,品川区,戸越６丁目２０番１６－２０６号,,13,109,1420041,,,,,,,2025-05-22,1,,,,,スミカ,0
2003,9010701047751,新規,0,2025-05-22,2025-05-22,ドライバーパートナーズ株式会社,,株式会社,東京都,品川区,東中延１丁目９番１３号ザ・パークハビオ荏原中延駅前１１０７,,13,109,1420052,,,,,,,2025-05-22,1,,,,,ドライバーパートナーズ,0
2014,9011001169542,新規,0,2025-05-22,2025-05-22,株式会社ｉｎ　ｐｅｃｈｅ,,株式会社,東京都,渋谷区,道玄坂１丁目１０番８号渋谷道玄坂東急ビル２Ｆ－Ｃ,,13,113,1500043,,,,,,,2025-05-22,1,,,,,インペシェ,0
2015,9011001169567,新規,0,2025-05-22,2025-05-22,株式会社Ｓ＆Ｐコンサルティング,,株式会社,東京都,渋谷区,道玄坂１丁目１０番８号渋谷道玄坂東急ビル２Ｆ－Ｃ,,13,113,1500043,,,,,,,2025-05-22,1,,,,,エスアンドピーコンサルティング,0
2016,9011001169641,新規,0,2025-05-22,2025-05-22,アスールネクスト株式会社,,株式会社,東京都,渋谷区,千駄ヶ谷５丁目１番３号,,13,113,1510051,,,,,,,2025-05-22,1,,,,,アスールネクスト,0
2018,9011003021585,新規,0,2025-05-22,2025-05-22,Ａｌｖｏｌｕｔｉｏｎａｌｘ合同会社,,合同会社,東京都,渋谷区,桜丘町２３番１７号シティコート桜丘４０８,,13,113,1500031,,,,,,,2025-05-22,1,,,,,エボリューショナルエックス,0
2019,9011005010990,新規,0,2025-05-22,2025-05-22,一般社団法人在日ケニア人協会,,その他の設立登記法人,東京都,渋谷区,神南１丁目１１番４号ＦＰＧリンクス神南５階,,13,113,1500041,,,,,,,2025-05-22,1,,,,,ザイニチケニアジンキョウカイ,0
2026,9011101111858,新規,0,2025-05-22,2025-05-22,株式会社ｓａｍｕｒＡＩ　Ａｇｅｎｔｓ,,株式会社,東京都,新宿区,西新宿３丁目３番１３号西新宿水間ビル２Ｆ,,13,104,1600023,,,,,,,2025-05-22,1,,,,,サムライエージェンツ,0
2030,9011701028361,新規,0,2025-05-22,2025-05-22,富実貿易株式会社,,株式会社,東京都,江戸川区,江戸川６丁目４０番１４－１０９号,,13,123,1340013,,,,,,,2025-05-22,1,,,,,ホーミーボウエキ,0
2031,9011703004253,新規,0,2025-05-22,2025-05-22,Ｈｉｋａｒｉ　Ｃａｐｉｔａｌ合同会社,,合同会社,東京都,江戸川区,西小岩５丁目１３番１３号小出マンション１３７号室,,13,123,1330057,,,,,,,2025-05-22,1,,,,,ヒカリキャピタル,0
2036,9012401043130,新規,0,2025-05-22,2025-05-22,株式会社フルーク,,株式会社,東京都,武蔵野市,吉祥寺本町４丁目３番４号クアトロ吉祥寺２０１,,13,203,1800004,,,,,,,2025-05-22,1,,,,,フルーク,0
2037,9012401043139,新規,0,2025-05-22,2025-05-22,株式会社Ｓｍｏｏｔｈ,,株式会社,東京都,狛江市,東野川４丁目６番８号,,13,219,2010002,,,,,,,2025-05-22,1,,,,,スムーズ,0
2045,9013301054267,新規,0,2025-05-22,2025-05-22,株式会社ＫＨＣ,,株式会社,東京都,豊島区,南大塚３丁目４番３号ＣｅｎｔｒａｌＶｉｌｌａｇｅ２０１,,13,116,1700005,,,,,,,2025-05-22,1,,,,,ケーエイチシー,0
2046,9013301054283,新規,0,2025-05-22,2025-05-22,株式会社ＪＥＳＨＩＫＡ　ＩＮＴＥＲＮＡＴＩＯＮＡＬ,,株式会社,東京都,豊島区,要町１丁目８番１７号安倍ビル４０１号,,13,116,1710043,,,,,,,2025-05-22,1,,,,,ジェシカインターナショナル,0
2047,9013302022578,新規,0,2025-05-22,2025-05-22,有限会社ワティー・ケイ,,有限会社,東京都,豊島区,西池袋５丁目２４番１２号,,13,116,1710021,,,,,,,2025-05-22,1,,,,,ワティーケイ,0
2048,9013305003716,新規,0,2025-05-22,2025-05-22,行政書士法人ＨＯＮＥＳＴＹ,,その他の設立登記法人,東京都,豊島区,池袋１丁目８－７サン池袋Ｉ２０８号室,,13,116,1700014,,,,,,,2025-05-22,1,,,,,オネスティ,0
2054,9020001162812,新規,0,2025-05-22,2025-05-22,株式会社ワンオンス,,株式会社,神奈川県,横浜市青葉区,みたけ台３４－７５,,14,117,2270047,,,,,,,2025-05-22,1,,,,,ワンオンス,0
2055,9020001162928,新規,0,2025-05-22,2025-05-22,サブミッション株式会社,,株式会社,神奈川県,川崎市宮前区,宮前平３丁目１３番１号グランノア宮前平１１３号,,14,136,2160006,,,,,,,2025-05-22,1,,,,,サブミッション,0
2056,9020001162977,新規,0,2025-05-22,2025-05-22,株式会社ワイシード,,株式会社,神奈川県,川崎市高津区,千年２１７番地２,,14,134,2130022,,,,,,,2025-05-22,1,,,,,ワイシード,0
2057,9020001162985,新規,0,2025-05-22,2025-05-22,株式会社コンフォート,,株式会社,神奈川県,横浜市港南区,日野２丁目６３番９号,,14,111,2340051,,,,,,,2025-05-22,1,,,,,コンフォート,0
2069,9030001166630,新規,0,2025-05-22,2025-05-22,株式会社ＣＵＡＨ,,株式会社,埼玉県,さいたま市大宮区,桜木町２丁目３２８番地１フォルトゥーナ桜木３０３,,11,103,3300854,,,,,,,2025-05-22,1,,,,,キュア,0
2078,9030003026816,新規,0,2025-05-22,2025-05-22,合同会社イーナ,,合同会社,埼玉県,朝霞市,大字岡７８番地の３,,11,227,3510007,,,,,,,2025-05-22,1,,,,,イーナ,0
2083,9040001138884,新規,0,2025-05-22,2025-05-22,Ｓ＆Ｔ企画株式会社,,株式会社,千葉県,浦安市,入船４丁目３８番６号,,12,227,2790012,,,,,,,2025-05-22,1,,,,,エスアンドティーキカク,0
2084,9040001138901,新規,0,2025-05-22,2025-05-22,株式会社ＤＯＲＡ,,株式会社,千葉県,千葉市美浜区,打瀬２丁目２３番地パティオス１９番街１－３０１号,,12,106,2610013,,,,,,,2025-05-22,1,,,,,ドーラ,0
2087,9040005022779,新規,0,2025-05-22,2025-05-22,一般社団法人家族承継アシスト,,その他の設立登記法人,千葉県,松戸市,根本４４７番地の１長谷川ビル３階,,12,207,2710077,,,,,,,2025-05-22,1,,,,,カゾクショウケイアシスト,0
2089,9050001056706,新規,0,2025-05-22,2025-05-22,ニカン商事株式会社,,株式会社,茨城県,鉾田市,上冨田１１３６番地,,08,234,3111532,,,,,,,2025-05-22,1,,,,,ニカンショウジ,0
2090,9050001056714,新規,0,2025-05-22,2025-05-22,株式会社シルバーフォーク,,株式会社,茨城県,久慈郡大子町,大字頃藤４６５番地１,,08,364,3193361,,,,,,,2025-05-22,1,,,,,シルバーフォーク,0
2103,9060005010344,新規,0,2025-05-22,2025-05-22,一般社団法人＿游會,00139250,その他の設立登記法人,栃木県,栃木市,旭町１０番３４号,,09,203,3280035,,,,,,,2025-05-22,1,,,,,シュウユウカイ,0
2116,9110001039282,新規,0,2025-05-22,2025-05-22,株式会社ＳＵＮＩＱ,,株式会社,新潟県,妙高市,大字藤塚新田１７３－１,,15,217,9440071,,,,,,,2025-05-22,1,,,,,サニーク,0
2125,9120001275934,新規,0,2025-05-22,2025-05-22,錦昌株式会社,,株式会社,大阪府,大阪市東成区,大今里２丁目６番１８号昇徳ビル１階Ａ室,,27,115,5370012,,,,,,,2025-05-22,1,,,,,キンショウ,0
2126,9120001275983,新規,0,2025-05-22,2025-05-22,株式会社匯真行芸術,,株式会社,大阪府,大阪市西成区,萩之茶屋１丁目１２番７号４階５７号室,,27,122,5570004,,,,,,,2025-05-22,1,,,,,カイシンコウゲイジュツ,0
2127,9120001276008,新規,0,2025-05-22,2025-05-22,祥云株式会社,,株式会社,大阪府,大阪市東成区,大今里２丁目６番１８号昇徳ビル１階Ｂ室,,27,115,5370012,,,,,,,2025-05-22,1,,,,,ショウウン,0
2128,9120001276024,新規,0,2025-05-22,2025-05-22,大道株式会社,,株式会社,大阪府,大阪市此花区,梅香１丁目１９番１２号、３０５号室,,27,104,5540013,,,,,,,2025-05-22,1,,,,,オオドウ,0
2129,9120003029504,新規,0,2025-05-22,2025-05-22,Ｔａｋｅｍｉ合同会社,,合同会社,大阪府,大阪市生野区,桃谷５丁目９－４－８０２号室,,27,116,5440034,,,,,,,2025-05-22,1,,,,,タケミ,0
2132,9120101071705,新規,0,2025-05-22,2025-05-22,日昇株式会社,,株式会社,大阪府,泉佐野市,羽倉崎１丁目２－１４れんげガーデン１０１号,,27,213,5980046,,,,,,,2025-05-22,1,,,,,ニッショウ,0
2133,9120101071713,新規,0,2025-05-22,2025-05-22,オオダテシヴィルエンジニアリング株式会社,,株式会社,大阪府,堺市中区,深阪１丁６番３９－１０５号,,27,142,5998253,,,,,,,2025-05-22,1,,,,,オオダテシヴィルエンジニアリング,0
2138,9120901050882,新規,0,2025-05-22,2025-05-22,株式会社Ｓｅａ．,,株式会社,大阪府,豊中市,豊南町南２丁目６番４の７号,,27,203,5610815,,,,,,,2025-05-22,1,,,,,シードット,0
2139,9122001039245,新規,0,2025-05-22,2025-05-22,株式会社Ｂ＆Ｗ,,株式会社,大阪府,東大阪市,東石切町４丁目１番３０号,,27,227,5798011,,,,,,,2025-05-22,1,,,,,ビーアンドダブリュー,0
2140,9122001039253,新規,0,2025-05-22,2025-05-22,和の旅株式会社,,株式会社,大阪府,東大阪市,吉田７丁目８番４３号シャトー西村４０２号,,27,227,5780924,,,,,,,2025-05-22,1,,,,,ワノタビ,0
2146,9130001079715,新規,0,2025-05-22,2025-05-22,京玄株式会社,,株式会社,京都府,京都市下京区,七条通油小路東入大黒町２２７番地第２キョートビル４０２,,26,106,6008223,,,,,,,2025-05-22,1,,,,,キョウゲン,0
2147,9130001079731,新規,0,2025-05-22,2025-05-22,敬栄機工株式会社,,株式会社,京都府,亀岡市,＿田野町芦ノ山アゲキ１－９,00139260,26,206,6210000,,,,,,,2025-05-22,1,,,,,ケイエイキコウ,0
2148,9130003010438,新規,0,2025-05-22,2025-05-22,合同会社ＪＪ’ｓ,,合同会社,京都府,京都市伏見区,風呂屋町２６５番地,,26,109,6128058,,,,,,,2025-05-22,1,,,,,ジェイジェイズ,0
2155,9150001028133,新規,0,2025-05-22,2025-05-22,株式会社カードック山辺,,株式会社,奈良県,山辺郡山添村,大字遅瀬２９４番地,,29,322,6302341,,,,,,,2025-05-22,1,,,,,カードックヤマベ,0
2162,9180001166871,新規,0,2025-05-22,2025-05-22,株式会社クラフトワークス,,株式会社,愛知県,大府市,横根町名高１３２番地の１５,,23,223,4740011,,,,,,,2025-05-22,1,,,,,クラフトワークス,0
2164,9180003028517,新規,0,2025-05-22,2025-05-22,ＲＵＮ合同会社,,合同会社,愛知県,稲沢市,幸町１０１－３,,23,220,4928221,,,,,,,2025-05-22,1,,,,,ラン,0
2167,9180301039819,新規,0,2025-05-22,2025-05-22,株式会社おとむすび,,株式会社,愛知県,安城市,城ケ入町本郷５０番地１,,23,212,4441206,,,,,,,2025-05-22,1,,,,,オトムスビ,0
2173,9190005012055,新規,0,2025-05-22,2025-05-22,一般社団法人まごころ会,,その他の設立登記法人,三重県,四日市市,日永西５丁目６番１号,,24,202,5100891,,,,,,,2025-05-22,1,,,,,マゴコロカイ,0
2176,9230005009476,新規,0,2025-05-22,2025-05-22,特定非営利活動法人インクルーシブ,,その他の設立登記法人,富山県,富山市,石金３丁目５番１５号,,16,201,9300966,,,,,,,2025-05-22,1,,,,,インクルーシブ,0
2179,9250003003727,新規,0,2025-05-22,2025-05-22,合同会社若菜学院,,合同会社,山口県,防府市,大字向島２０７番地１,,35,206,7470831,,,,,,,2025-05-22,1,,,,,ワカナガクイン,0
2186,9290001110083,新規,0,2025-05-22,2025-05-22,株式会社ワンズクリエーション,,株式会社,福岡県,福岡市博多区,上川端町３－６－８０２号,,40,132,8120026,,,,,,,2025-05-22,1,,,,,ワンズクリエーション,0
2188,9290003016873,新規,0,2025-05-22,2025-05-22,合同会社玉,,合同会社,福岡県,福岡市中央区,鳥飼３丁目８番１１号,,40,133,8100053,,,,,,,2025-05-22,1,,,,,ギョク,0
2189,9290003016881,新規,0,2025-05-22,2025-05-22,合同会社Ｃｈａｒｌｏｔｔｅ,,合同会社,福岡県,福岡市中央区,鳥飼３丁目１４番１０－１０３号,,40,133,8100053,,,,,,,2025-05-22,1,,,,,シャーロット,0
2190,9290801031561,新規,0,2025-05-22,2025-05-22,株式会社サクラ色,,株式会社,福岡県,北九州市小倉北区,浅野３丁目８番１号ＡＩＭビル６階,,40,106,8020001,,,,,,,2025-05-22,1,,,,,サクライロ,0
2201,9400003003463,新規,0,2025-05-22,2025-05-22,Ｍａｐｌｅ＆Ｗａｔｔｌｅ合同会社,,合同会社,岩手県,盛岡市,中央通１丁目７番３５号,,03,201,0200021,,,,,,,2025-05-22,1,,,,,メープルアンドワットル,0
2205,9430001094337,新規,0,2025-05-22,2025-05-22,株式会社光る海,,株式会社,北海道,白老郡白老町,字竹浦１１６番地１１,,01,578,0590642,,,,,,,2025-05-22,1,,,,,ヒカルウミ,0
2206,9430001094452,新規,0,2025-05-22,2025-05-22,株式会社ｉＳｔｅｐ,,株式会社,北海道,札幌市中央区,南五条西２丁目９－２ＬＣ拾七番館２Ｆ,,01,101,0640805,,,,,,,2025-05-22,1,,,,,アイステップ,0
