sequenceNumber,corporateNumber,process,correct,updateDate,changeDate,name,nameImageId,kind,prefectureName,cityName,streetNumber,addressImageId,prefectureCode,cityCode,postCode,addressOutside,addressOutsideImageId,closeDate,closeCause,successorCorporateNumber,changeCause,assignmentDate,latest,enName,enPrefectureName,enCityName,enAddressOutside,furigana,hihyoji
15,1010403022977,登記記録の閉鎖等,0,2024-03-29,2024-03-26,合同会社ＭＡＨＡＮＡ７,,合同会社,東京都,世田谷区,玉川３丁目２０番２号マノア玉川第３ビル５０１号室,,13,112,1580094,,,2024-03-26,合併による解散等,9010403026211,令和６年３月１日東京都港区南青山二丁目２番６号７０２号室Ｂｒｉｄｇｅ　Ｃａｐｉｔａｌ合同会社（9010403026211）に合併し解散,2020-05-19,1,,,,,マハナセブン,0
21,1010601039303,登記記録の閉鎖等,0,2024-03-29,2024-03-26,シトリンコミュニケーションズ株式会社,,株式会社,東京都,江東区,越中島３丁目１番３号,,13,108,1350044,,,2024-03-26,清算の結了等,,,2015-10-05,1,,,,,シトリンコミュニケーションズ,0
30,1010902012173,登記記録の閉鎖等,0,2024-03-29,2024-03-27,有限会社林商事経堂斡旋所,,有限会社,東京都,世田谷区,経堂１丁目５番１０号,,13,112,1560052,,,2024-03-27,清算の結了等,,,2015-10-05,1,,,,,ハヤシショウジキョウドウアッセンジョ,0
48,1011301015916,登記記録の閉鎖等,0,2024-03-29,2024-03-25,株式会社中芝電器,,株式会社,東京都,杉並区,井草１丁目４番１６－３０２号パルメゾン杉並,,13,115,1670021,,,2024-03-25,清算の結了等,,,2015-10-05,1,,,,,ナカシバデンキ,0
52,1011403002762,登記記録の閉鎖等,0,2024-03-29,2024-03-27,合同会社ＬＡＣ,,合同会社,東京都,板橋区,志村３丁目３１番２５号,,13,119,1740056,,,2024-03-27,清算の結了等,,,2019-08-06,1,,,,,ラック,0
70,1012702003534,登記記録の閉鎖等,0,2024-03-29,2024-03-26,有限会社マツダ建設,,有限会社,東京都,東村山市,栄町１丁目１０番地５,,13,213,1890013,,,2024-03-26,清算の結了等,,,2015-10-05,1,,,,,マツダケンセツ,0
78,1020001084931,登記記録の閉鎖等,0,2024-03-29,2024-03-27,株式会社アマム,,株式会社,神奈川県,横浜市戸塚区,鳥が丘９０番地４,,14,110,2440001,,,2024-03-27,清算の結了等,,,2015-10-05,1,,,,,アマム,0
79,1020001085509,登記記録の閉鎖等,0,2024-03-29,2024-03-26,株式会社アップルハウス,,株式会社,神奈川県,横浜市港北区,綱島西３丁目２１番２５号,,14,109,2230053,,,2024-03-26,合併による解散等,7010001206654,令和６年３月２０日東京都千代田区六番町１１番地７－２階プライムパートナー株式会社（7010001206654）に合併し解散,2015-10-05,1,,,,,アップルハウス,0
84,1021001049008,登記記録の閉鎖等,0,2024-03-29,2024-03-27,株式会社末虎興業,,株式会社,神奈川県,平塚市,四之宮５丁目２１番２５号,,14,203,2540014,,,2024-03-27,清算の結了等,,,2015-10-05,1,,,,,マコトコウギョウ,0
85,1021005006252,登記記録の閉鎖等,0,2024-03-29,2024-03-15,医療法人陽風会,,その他の設立登記法人,神奈川県,足柄上郡開成町,金井島１９８３番地,,14,366,2580028,,,2024-03-15,合併による解散等,7180005002380,令和６年３月１日名古屋市中区新栄一丁目３２番２２号医療法人勝又（7180005002380）に合併し解散,2015-10-05,1,,,,,ヨウフウカイ,0
111,1060001035419,登記記録の閉鎖等,0,2024-03-29,2024-03-08,株式会社Ｒｈａｍｅ,,株式会社,栃木県,宇都宮市,宝木本町１１５０番地６６,,09,201,3200075,,,2024-03-08,合併による解散等,3060001004173,令和６年２月２１日栃木県宇都宮市上戸祭町５４番地１株式会社松本商会（3060001004173）に合併し、解散,2022-11-09,1,,,,,レイム,0
119,1080401014540,登記記録の閉鎖等,0,2024-03-29,2024-03-26,株式会社ワイテック,,株式会社,静岡県,掛川市,七日町２４７番地,,22,213,4360058,,,2024-03-26,清算の結了等,,,2015-10-05,1,,,,,ワイテック,0
121,1080401022064,登記記録の閉鎖等,0,2024-03-29,2024-03-19,イノベーションアンドディベロップメント株式会社,,株式会社,静岡県,浜松市中央区,板屋町１１１番地の２浜松アクトタワー１４階,,22,138,4300928,,,2024-03-19,合併による解散等,2080001024063,令和６年３月６日静岡県静岡市駿河区曲金二丁目５番３８号株式会社エーエフシー不動産（2080001024063）に合併し解散,2017-03-22,1,,,,,イノベーションアンドディベロップメント,0
122,1080401023657,登記記録の閉鎖等,0,2024-03-29,2024-03-19,クレアライズ株式会社,,株式会社,静岡県,浜松市中央区,板屋町１１１番地の２浜松アクトタワー１４階,,22,138,4300928,,,2024-03-19,合併による解散等,2080001024063,令和６年３月６日静岡県静岡市駿河区曲金二丁目５番３８号株式会社エーエフシー不動産（2080001024063）に合併し解散,2019-06-04,1,,,,,クレアライズ,0
127,1100005004043,登記記録の閉鎖等,0,2024-03-29,2024-02-15,天理教水篶分教会,,その他の設立登記法人,長野県,上田市,常入１丁目１５番６４号,,20,203,3860015,,,2024-02-15,合併による解散等,1100005009876,令和６年２月１５日長野県飯田市上郷黒田２３４番地天理教伊那大教会（1100005009876）に合併し解散,2015-10-05,1,,,,,テンリキョウミスズブンキョウカイ,0
131,1110002025677,登記記録の閉鎖等,0,2024-03-29,2024-03-25,有限会社デック,,有限会社,新潟県,十日町市,寅甲６番地１４,,15,210,9480000,,,2024-03-25,清算の結了等,,,2015-10-05,1,,,,,デック,0
139,1120001233494,登記記録の閉鎖等,0,2024-03-29,2024-03-25,株式会社人生五十年,,株式会社,大阪府,大阪市都島区,都島中通３丁目５番１７号Ｅｚｅ京橋１０２号,,27,102,5340022,,,2024-03-25,清算の結了等,,,2020-12-02,1,,,,,ジンセイゴジュウネン,0
144,1120002053347,登記記録の閉鎖等,0,2024-03-29,2024-03-27,有限会社城戸商事,,有限会社,大阪府,大阪市北区,天神橋２丁目北２番２３号,,27,127,5300041,,,2024-03-27,清算の結了等,,,2015-10-05,1,,,,,キドショウジ,0
148,1122001001096,登記記録の閉鎖等,0,2024-03-29,2024-03-28,エリオ皓産株式会社,,株式会社,大阪府,東大阪市,池島町６丁目７番３３号,,27,227,5798064,,,2024-03-28,清算の結了等,,,2015-10-05,1,,,,,エリオコウサン,0
158,1140002005206,登記記録の閉鎖等,0,2024-03-29,2024-03-27,有限会社ホットライン,,有限会社,兵庫県,神戸市西区,美賀多台８丁目１１番地の１１,,28,111,6512277,,,2024-03-27,清算の結了等,,,2015-10-05,1,,,,,ホットライン,0
159,1140002064202,登記記録の閉鎖等,0,2024-03-29,2024-03-27,有限会社龍政建設,,有限会社,兵庫県,伊丹市,荻野８丁目４７番地の１,,28,207,6640002,,,2024-03-27,清算の結了等,,,2015-10-05,1,,,,,タツマサケンセツ,0
171,1180001119234,登記記録の閉鎖等,0,2024-03-29,2024-03-25,株式会社リョーマ,,株式会社,愛知県,名古屋市港区,木場町２番地の３１,,23,111,4550021,,,2024-03-25,清算の結了等,,,2015-10-05,1,,,,,リョーマ,0
180,1190001017949,登記記録の閉鎖等,0,2024-03-29,2024-03-27,五圓セラピー株式会社,,株式会社,三重県,四日市市,蒔田３丁目５番１６号,,24,202,5108022,,,2024-03-27,清算の結了等,,,2015-10-05,1,,,,,ゴエンセラピー,0
186,1200002012187,登記記録の閉鎖等,0,2024-03-29,2024-03-27,有限会社サンロア,,有限会社,岐阜県,岐阜市,薮田南１丁目１１番９号第２岐阜県ビル７０１,,21,201,5008384,,,2024-03-27,清算の結了等,,,2015-10-05,1,,,,,サンロア,0
212,1310002005551,登記記録の閉鎖等,0,2024-03-29,2024-03-27,有限会社宮地工業,,有限会社,長崎県,長崎市,平山台１丁目７番１４号,,42,201,8500996,,,2024-03-27,清算の結了等,,,2015-10-05,1,,,,,,0
217,1340003002330,登記記録の閉鎖等,0,2024-03-29,2024-03-27,ＭＴＭ合同会社,,合同会社,鹿児島県,阿久根市,脇本６４３６番地２,,46,206,8991131,,,2024-03-27,清算の結了等,,,2017-05-12,1,,,,,エムティーエム,0
219,1350005004191,登記記録の閉鎖等,0,2024-03-29,2024-03-08,金光教油津教会,,その他の設立登記法人,宮崎県,日南市,岩崎３丁目１６番５号１,,45,204,8870014,,,2024-03-08,合併による解散等,2350005002616,令和６年３月８日宮崎県東臼杵郡美郷町西郷田代５１６番地１金光教西郷教会（2350005002616）に合併し解散,2015-10-05,1,,,,,,0
220,1360001001464,登記記録の閉鎖等,0,2024-03-29,2024-03-28,かいぎんカード株式会社,,株式会社,沖縄県,那覇市,久茂地２丁目９番１２号,,47,201,9000015,,,2024-03-28,清算の結了等,,,2015-10-05,1,,,,,カイギンカード,0
229,1390002006360,登記記録の閉鎖等,0,2024-03-29,2024-03-28,有限会社マルマンアイタ,,有限会社,山形県,上山市,十日町７番５号,,06,207,9993153,,,2024-03-28,清算の結了等,,,2015-10-05,1,,,,,マルマンアイタ,0
234,1430001076813,登記記録の閉鎖等,0,2024-03-29,2024-03-25,株式会社前田技研,,株式会社,北海道,石狩郡当別町,樺戸町１０６番地４５,,01,303,0610218,,,2024-03-25,清算の結了等,,,2018-06-18,1,,,,,マエダギケン,0
238,1430002064998,登記記録の閉鎖等,0,2024-03-29,2024-03-22,有限会社室蘭精機,,有限会社,北海道,室蘭市,日の出町２丁目３２番２１号,,01,205,0500081,,,2024-03-22,清算の結了等,,,2015-10-05,1,,,,,ムロランセイキ,0
240,1450003001890,登記記録の閉鎖等,0,2024-03-29,2024-03-28,合同会社ＡＣＥ１,,合同会社,北海道,旭川市,神楽岡九条３丁目１番１８号,,01,204,0788319,,,2024-03-28,清算の結了等,,,2019-11-12,1,,,,,エースワン,0
262,2010401029503,登記記録の閉鎖等,0,2024-03-29,2024-03-25,株式会社モータープロモーション,,株式会社,東京都,港区,麻布台２丁目３番２２号,,13,103,1060041,,,2024-03-25,清算の結了等,,,2015-10-05,1,,,,,モータープロモーション,0
268,2010403022976,登記記録の閉鎖等,0,2024-03-29,2024-03-26,合同会社ＭＡＨＡＮＡ６,,合同会社,東京都,渋谷区,桜丘町２３番１７号シティコート桜丘４０８,,13,113,1500031,,,2024-03-26,合併による解散等,9010403026211,令和６年３月１日東京都港区南青山二丁目２番６号７０２号室Ｂｒｉｄｇｅ　Ｃａｐｉｔａｌ合同会社（9010403026211）に合併し解散,2020-05-19,1,,,,,,0
287,2011001103012,登記記録の閉鎖等,0,2024-03-29,2024-03-21,株式会社Ｂｌｉｎｄ　Ｖｉｓｉｏｎ,,株式会社,東京都,渋谷区,広尾１丁目１１番５－５２１号,,13,113,1500012,,,2024-03-21,合併による解散等,6011001071370,令和６年３月２１日東京都渋谷区広尾一丁目１１番５号Ｋ・アセットマネジメント株式会社（6011001071370）に合併し解散,2015-10-05,1,,,,,ブラインドビジョン,0
289,2011001141210,登記記録の閉鎖等,0,2024-03-29,2024-03-28,Ｌａ　Ｍａｒｅ　Ａｒｘ株式会社,,株式会社,東京都,渋谷区,神宮前４丁目１８番９号,,13,113,1500001,,,2024-03-28,清算の結了等,,,2021-06-22,1,,,,,ラマレアルクス,0
294,2011002033027,登記記録の閉鎖等,0,2024-03-29,2024-03-25,有限会社アイ・タックスコンサルティング,,有限会社,東京都,渋谷区,渋谷２丁目１番１１号,,13,113,1500002,,,2024-03-25,清算の結了等,,,2015-10-05,1,,,,,,0
300,2011101053743,登記記録の閉鎖等,0,2024-03-29,2024-03-22,株式会社ゆのけん,,株式会社,東京都,新宿区,筑土八幡町６番１２号,,13,104,1620815,,,2024-03-22,清算の結了等,,,2015-10-05,1,,,,,ユノケン,0
301,2011101078328,登記記録の閉鎖等,0,2024-03-29,2024-03-26,株式会社ＩＴＭＩＣ,,株式会社,東京都,新宿区,西新宿８丁目２－２０,,13,104,1600023,,,2024-03-26,清算の結了等,,,2016-09-29,1,,,,,アイティーミック,0
302,2011101098549,登記記録の閉鎖等,0,2024-03-29,2024-03-26,ＸＥＢＯＫ株式会社,,株式会社,東京都,新宿区,西新宿６丁目１０番１号新宿オークシティ日土地西新宿ビル８階,,13,104,1600023,,,2024-03-26,清算の結了等,,,2022-04-15,1,,,,,ゼボック,0
326,2030001074303,登記記録の閉鎖等,0,2024-03-29,2024-03-25,株式会社川口メタルワーク,,株式会社,埼玉県,川口市,戸塚１丁目５番２２号,,11,203,3330811,,,2024-03-25,清算の結了等,,,2015-10-05,1,,,,,カワグチメタルワーク,0
350,2040002011551,登記記録の閉鎖等,0,2024-03-29,2024-03-22,有限会社室岡建築設備設計事務所,,有限会社,千葉県,千葉市中央区,道場南１丁目７番地２３号,,12,101,2600005,,,2024-03-22,清算の結了等,,,2015-10-05,1,,,,,ムロオカケンチクセツビセッケイジムショ,0
357,2060001033009,登記記録の閉鎖等,0,2024-03-29,2024-03-01,さがみ典礼県南株式会社,,株式会社,栃木県,佐野市,富岡町１５１９番地１,,09,204,3270844,,,2024-03-01,合併による解散等,3060001033008,令和６年３月１日栃木県宇都宮市滝の原二丁目４番２５号さがみ典礼県央株式会社（3060001033008）に合併し解散,2020-10-02,1,,,,,サガミテンレイケンナン,0
362,2060003003736,登記記録の閉鎖等,0,2024-03-29,2024-03-27,合同会社オカノスポーツ,,合同会社,栃木県,矢板市,大槻２３１９－３７コリーナ矢板Ｃ－８４０,,09,211,3291575,,,2024-03-27,清算の結了等,,,2021-06-15,1,,,,,オカノスポーツ,0
374,2100005010131,登記記録の閉鎖等,0,2024-03-29,2024-02-15,天理教飯田町分教会,,その他の設立登記法人,長野県,下伊那郡高森町,牛牧１４１１番地６,,20,403,3993105,,,2024-02-15,合併による解散等,1100005009876,令和６年２月１５日長野県飯田市上郷黒田２３４番地天理教伊那大教会（1100005009876）に合併し解散,2015-10-05,1,,,,,テンリキョウイイダマチブンキョウカイ,0
375,2110001025859,登記記録の閉鎖等,0,2024-03-29,2024-03-26,株式会社ミルズエステート,,株式会社,新潟県,長岡市,大島本町２丁目甲５５２番地５,,15,202,9402112,,,2024-03-26,清算の結了等,,,2015-10-05,1,,,,,ミルズエステート,0
378,2120001039016,登記記録の閉鎖等,0,2024-03-29,2024-03-18,株式会社中央社,,株式会社,大阪府,大阪市大正区,三軒家東３丁目１１番３４号,,27,108,5510002,,,2024-03-18,清算の結了等,,,2015-10-05,1,,,,,,0
383,2120001197458,登記記録の閉鎖等,0,2024-03-29,2024-03-25,ジャパンダイニング株式会社,,株式会社,大阪府,大阪市中央区,島之内１丁目２２番２３号,,27,128,5420082,,,2024-03-25,清算の結了等,,,2016-04-11,1,,,,,ジャパンダイニング,0
405,2180001141765,登記記録の閉鎖等,0,2024-03-29,2024-03-25,株式会社りんごっど制作,,株式会社,愛知県,名古屋市名東区,梅森坂西２丁目７２４番地,,23,115,4650066,,,2024-03-25,清算の結了等,,,2020-07-01,1,,,,,リンゴッドセイサク,0
406,2180001147432,登記記録の閉鎖等,0,2024-03-29,2024-03-18,株式会社ｆｙｓｉｋａ,,株式会社,愛知県,名古屋市中村区,黄金通２丁目６０の２,,23,105,4530804,,,2024-03-18,清算の結了等,,,2021-08-16,1,,,,,フィシカ,0
413,2180005014257,登記記録の閉鎖等,0,2024-03-29,2024-03-21,特定非営利活動法人日本純米酒普及協会,,その他の設立登記法人,埼玉県,蓮田市,馬込３丁目７４番地,,11,238,3490114,,,2024-03-21,清算の結了等,,,2015-10-05,1,,,,,ニホンジュンマイシュフキュウキョウカイ,0
420,2210003000593,登記記録の閉鎖等,0,2024-03-29,2024-03-27,合名会社三協寝装,,合名会社,福井県,越前市,有明町３３番地の１,,18,209,9150000,,,2024-03-27,清算の結了等,,,2015-10-05,1,,,,,サンキョウシンソウ,0
422,2220001022548,登記記録の閉鎖等,0,2024-03-29,2024-03-26,株式会社ゼルコバ,,株式会社,石川県,金沢市,横川７丁目８４番地,,17,201,9218163,,,2024-03-26,清算の結了等,,,2018-10-26,1,,,,,ゼルコバ,0
454,2380002000289,登記記録の閉鎖等,0,2024-03-29,2024-03-27,有限会社アベドライ舎,,有限会社,福島県,福島市,宮下町１７番１４号,,07,201,9608011,,,2024-03-27,清算の結了等,,,2015-10-05,1,,,,,アベドライシャ,0
456,2390005008295,登記記録の閉鎖等,0,2024-03-29,2024-03-27,農事組合法人大日本伝承野菜・月乃山小石丸研究所,,その他の設立登記法人,山形県,鶴岡市,羽黒町市野山字山王林１２５番１,,06,203,9970123,,,2024-03-27,清算の結了等,,,2015-10-05,1,,,,,ダイニッポンデンショウヤサイツキノヤマコイシマルケンキュウジョ,0
470,2470001007061,登記記録の閉鎖等,0,2024-03-29,2024-03-28,株式会社ＡＰＩＣ,,株式会社,香川県,高松市,木太町２８３８番地６,,37,201,7600080,,,2024-03-28,清算の結了等,,,2015-10-05,1,,,,,アピック,0
478,3010001121923,登記記録の閉鎖等,0,2024-03-29,2024-03-25,ブルネイエナジーサービス株式会社,,株式会社,東京都,千代田区,丸の内１丁目８番２号,,13,101,1000005,,,2024-03-25,清算の結了等,,,2015-10-05,1,,,,,ブルネイエナジーサービス,0
496,3010601056197,登記記録の閉鎖等,0,2024-03-29,2024-03-25,株式会社青橙,,株式会社,東京都,大田区,西馬込２丁目３０番４号,,13,111,1430026,,,2024-03-25,清算の結了等,,,2019-10-04,1,,,,,セイトウ,0
507,3010901040578,登記記録の閉鎖等,0,2024-03-29,2024-03-27,株式会社Ｋ．Ｒ．Ｓ,,株式会社,東京都,世田谷区,代沢５丁目２１番１４号,,13,112,1550032,,,2024-03-27,清算の結了等,,,2017-07-28,1,,,,,ケーアールエス,0
509,3011001057876,登記記録の閉鎖等,0,2024-03-29,2024-03-26,株式会社Ｔｏｋｙｏ　ＲＰＧ　Ｆａｃｔｏｒｙ,,株式会社,東京都,新宿区,新宿６丁目２７番３０号,,13,104,1600022,,,2024-03-26,合併による解散等,5011001058146,令和６年３月１５日東京都新宿区新宿六丁目２７番３０号株式会社スクウェア・エニックス（5011001058146）に合併し解散,2015-10-05,1,,,,,トウキョウアールピージーファクトリー,0
532,3011401002341,登記記録の閉鎖等,0,2024-03-29,2024-03-26,三栄工業株式会社,,株式会社,東京都,板橋区,常盤台１丁目５３番３号,,13,119,1740071,,,2024-03-26,清算の結了等,,,2015-10-05,1,,,,,サンエイコウギョウ,0
534,3011502007306,登記記録の閉鎖等,0,2024-03-29,2024-03-18,有限会社エクセルプランニング,,有限会社,東京都,荒川区,荒川７丁目３８番５－２０５号,,13,118,1160002,,,2024-03-18,清算の結了等,,,2015-10-05,1,,,,,エクセルプランニング,0
540,3012301007414,登記記録の閉鎖等,0,2024-03-29,2024-03-27,株式会社アイズ・フィールド,,株式会社,東京都,町田市,鶴間８丁目６番８号,,13,209,1940004,,,2024-03-27,清算の結了等,,,2015-10-05,1,,,,,アイズフィールド,0
554,3020001025347,登記記録の閉鎖等,0,2024-03-29,2024-03-27,株式会社一水会,,株式会社,神奈川県,横浜市中区,山下町２７９番地横浜港運会館２階,,14,104,2310023,,,2024-03-27,清算の結了等,,,2015-10-05,1,,,,,イッスイカイ,0
578,3030003020799,登記記録の閉鎖等,0,2024-03-29,2024-03-25,Ｓｅｌｆ　ｃｕｒｅ合同会社,,合同会社,埼玉県,川越市,稲荷町１７－４,,11,201,3501144,,,2024-03-25,清算の結了等,,,2022-12-23,1,,,,,セルフキュア,0
582,3030005001640,登記記録の閉鎖等,0,2024-03-29,2024-03-26,特定非営利活動法人ハーモニカ,,その他の設立登記法人,埼玉県,さいたま市中央区,上落合７丁目６番３８号,,11,105,3380001,,,2024-03-26,清算の結了等,,,2015-10-05,1,,,,,ハーモニカ,0
596,3050002035524,登記記録の閉鎖等,0,2024-03-29,2024-03-18,有限会社大宮空調,,有限会社,茨城県,常陸大宮市,下村田１７０８番地,,08,225,3192131,,,2024-03-18,清算の結了等,,,2015-10-05,1,,,,,オオミヤクウチョウ,0
601,3070001035878,登記記録の閉鎖等,0,2024-03-29,2024-03-25,株式会社ｗｏｏｗ,,株式会社,群馬県,高崎市,新保町１０６－１,,10,202,3700018,,,2024-03-25,清算の結了等,,,2019-07-01,1,,,,,,0
605,3080102019184,登記記録の閉鎖等,0,2024-03-29,2024-03-26,有限会社芹沢自動車整備工場,,有限会社,静岡県,伊東市,玖須美元和田７３０番地の７,,22,208,4140045,,,2024-03-26,清算の結了等,,,2015-10-05,1,,,,,セリザワジドウシャセイビコウジョウ,0
610,3100005008364,登記記録の閉鎖等,0,2024-03-29,2024-02-15,天理教大諏訪分教会,,その他の設立登記法人,長野県,岡谷市,郷田１丁目１番２５号,,20,204,3940021,,,2024-02-15,合併による解散等,1100005009876,令和６年２月１５日長野県飯田市上郷黒田２３４番地天理教伊那大教会（1100005009876）に合併し解散,2015-10-05,1,,,,,テンリキョウオオスワブンキョウカイ,0
614,3110005008875,登記記録の閉鎖等,0,2024-03-29,2024-03-01,毘沙門院,,その他の設立登記法人,新潟県,上越市,清里区上田島３１０番地,,15,222,9430504,,,2024-03-01,合併による解散等,4110005009617,令和６年３月１日新潟県上越市板倉区宮島１６６番地乙大廣寺（4110005009617）に合併し解散,2015-10-05,1,,,,,ビシャモンイン,0
617,3120001169860,登記記録の閉鎖等,0,2024-03-29,2024-03-27,ミスターケリーズ株式会社,,株式会社,大阪府,大阪市北区,曾根崎新地２丁目４番１号,,27,127,5300002,,,2024-03-27,清算の結了等,,,2015-10-05,1,,,,,ミスターケリーズ,0
619,3120001202943,登記記録の閉鎖等,0,2024-03-29,2024-03-27,株式会社ＱＵＥＳＴ,,株式会社,大阪府,大阪市天王寺区,南河堀町９番４８－８０６号,,27,109,5430054,,,2024-03-27,清算の結了等,,,2017-01-12,1,,,,,クエスト,0
640,3140001057907,登記記録の閉鎖等,0,2024-03-29,2024-03-08,マックスバリュ西日本株式会社,,株式会社,広島県,広島市南区,段原南１丁目３番５２号,,34,103,7320814,,,2024-03-08,合併による解散等,9500001003505,令和６年３月１日愛媛県松山市宮西一丁目２番１号株式会社フジ（9500001003505）に合併し解散,2015-10-05,1,,,,,マックスバリュニシニホン,0
647,3140002044540,登記記録の閉鎖等,0,2024-03-29,2024-03-28,有限会社カトウ,,有限会社,兵庫県,尼崎市,大庄中通３丁目４１番地,,28,202,6600075,,,2024-03-28,清算の結了等,,,2015-10-05,1,,,,,カトウ,0
655,3180001117954,登記記録の閉鎖等,0,2024-03-29,2024-03-25,株式会社ＬＩＦＥ　ＩＳ,,株式会社,愛知県,清須市,阿原八幡２番地３,,23,233,4520901,,,2024-03-25,清算の結了等,,,2015-10-05,1,,,,,ライフイズ,0
659,3180002066779,登記記録の閉鎖等,0,2024-03-29,2024-03-26,有限会社ドムストゥエンティーワン,,有限会社,愛知県,春日井市,知多町３丁目７５番地,,23,206,4860947,,,2024-03-26,清算の結了等,,,2015-10-05,1,,,,,ドムストゥエンティーワン,0
679,3230005002833,登記記録の閉鎖等,0,2024-03-29,2024-03-15,八幡社,,その他の設立登記法人,富山県,富山市,八尾町足谷４４９番地,,16,201,9392475,,,2024-03-15,合併による解散等,7230005002788,令和６年３月１５日富山市八尾町黒田３９２８番地杉原神社（7230005002788）に合併し解散,2015-10-05,1,,,,,ハチマンシャ,0
693,3290801005323,登記記録の閉鎖等,0,2024-03-29,2024-03-26,株式会社ケンコー堂,,株式会社,福岡県,北九州市門司区,社ノ木１丁目１７番１０号,,40,101,8000054,,,2024-03-26,清算の結了等,,,2015-10-05,1,,,,,ケンコードウ,0
695,3290801019793,登記記録の閉鎖等,0,2024-03-29,2024-03-26,日豊海運株式会社,,株式会社,福岡県,北九州市小倉南区,朽網東４丁目１３番１７号,,40,107,8000232,,,2024-03-26,清算の結了等,,,2015-10-05,1,,,,,ニッポウカイウン,0
697,3290805009114,登記記録の閉鎖等,0,2024-03-29,2024-03-26,槻田住宅団地管理組合法人,,その他の設立登記法人,福岡県,北九州市小倉北区,上到津４丁目２４番１－３０９号,,40,106,8030845,,,2024-03-26,清算の結了等,,,2018-06-13,1,,,,,ツキタジュウタク,0
699,3310001005559,登記記録の閉鎖等,0,2024-03-29,2024-03-27,シルバータクシー株式会社,,株式会社,長崎県,佐世保市,島地町１１番１４号,,42,202,8570879,,,2024-03-27,清算の結了等,,,2015-10-05,1,,,,,,0
701,3330001007124,登記記録の閉鎖等,0,2024-03-29,2024-03-27,株式会社アワーズ,,株式会社,熊本県,熊本市東区,戸島１丁目１番７２号,,43,102,8618041,,,2024-03-27,清算の結了等,,,2015-10-05,1,,,,,アワーズ,0
715,3370003005361,登記記録の閉鎖等,0,2024-03-29,2024-03-25,合同会社ＫＥＺＡＲＩＮ,,合同会社,宮城県,仙台市泉区,向陽台３丁目３６番２５号－２Ｆ,,04,105,9813102,,,2024-03-25,清算の結了等,,,2021-08-18,1,,,,,ケザリン,0
724,3450001001973,登記記録の閉鎖等,0,2024-03-29,2024-03-28,株式会社デンパンストアー,,株式会社,北海道,旭川市,神楽五条６丁目１番１号,,01,204,0708005,,,2024-03-28,清算の結了等,,,2015-10-05,1,,,,,デンパンストアー,0
737,4010001227133,登記記録の閉鎖等,0,2024-03-29,2024-03-22,いかだ株式会社,,株式会社,東京都,中央区,日本橋蛎殻町１丁目３番５号共同ビル２階２３号,,13,102,1030014,,,2024-03-22,清算の結了等,,,2022-06-06,1,,,,,イカダ,0
767,4011001033728,登記記録の閉鎖等,0,2024-03-29,2024-03-21,株式会社ＦＵＧＡ,,株式会社,東京都,渋谷区,神宮前３丁目７番５号,,13,113,1500001,,,2024-03-21,清算の結了等,,,2015-10-05,1,,,,,フウガ,0
799,4020001140797,登記記録の閉鎖等,0,2024-03-29,2024-03-15,株式会社ゼロイチゼロ,,株式会社,福岡県,福岡市中央区,天神２丁目３番１０号天神パインクレスト７１９号,,40,133,8100001,,,2024-03-15,清算の結了等,,,2021-04-09,1,,,,,ゼロイチゼロ,0
801,4020002044972,登記記録の閉鎖等,0,2024-03-29,2024-03-26,平和食品有限会社,,有限会社,神奈川県,横浜市中区,本牧和田３５番２０号,,14,104,2310827,,,2024-03-26,清算の結了等,,,2015-10-05,1,,,,,ヘイワショクヒン,0
814,4030001111112,登記記録の閉鎖等,0,2024-03-29,2024-03-27,株式会社アドビュート,,株式会社,埼玉県,北本市,宮内４丁目１８０番地,,11,233,3640002,,,2024-03-27,清算の結了等,,,2015-10-29,1,,,,,アドビュート,0
832,4040002081964,登記記録の閉鎖等,0,2024-03-29,2024-03-25,有限会社クリーン産業,,有限会社,千葉県,茂原市,小林１６２０番地３,,12,210,2970074,,,2024-03-25,清算の結了等,,,2015-10-05,1,,,,,クリーンサンギョウ,0
849,4060001033007,登記記録の閉鎖等,0,2024-03-29,2024-03-01,さがみ典礼県北株式会社,,株式会社,栃木県,大田原市,紫塚１丁目２番１１号,,09,210,3240058,,,2024-03-01,合併による解散等,3060001033008,令和６年３月１日栃木県宇都宮市滝の原二丁目４番２５号さがみ典礼県央株式会社（3060001033008）に合併し解散,2020-10-02,1,,,,,サガミテンレイケンホク,0
853,4060002035588,登記記録の閉鎖等,0,2024-03-29,2024-03-27,有限会社エヌティー工業,,有限会社,栃木県,足利市,中川町３７０４番地の７,,09,202,3260825,,,2024-03-27,清算の結了等,,,2015-10-05,1,,,,,エヌティーコウギョウ,0
886,4120901014297,登記記録の閉鎖等,0,2024-03-29,2024-03-27,株式会社ＫＴＫ,,株式会社,大阪府,高槻市,東五百住町１丁目２番２号の３,,27,207,5690811,,,2024-03-27,清算の結了等,,,2015-10-05,1,,,,,ケーティーケー,0
888,4120901041127,登記記録の閉鎖等,0,2024-03-29,2024-03-27,三志繊維株式会社,,株式会社,大阪府,吹田市,江坂町５丁目１３番３号,,27,205,5640063,,,2024-03-27,合併による解散等,4480001009757,令和６年３月１日徳島県板野郡藍住町富吉字豊吉２１番地株式会社五郎八（4480001009757）に合併し解散,2019-04-09,1,,,,,サンシセンイ,0
891,4122005000265,登記記録の閉鎖等,0,2024-03-29,2024-03-01,医療法人枚岡病院,,その他の設立登記法人,大阪府,東大阪市,出雲井本町３番２５号,,27,227,5798034,,,2024-03-01,合併による解散等,9122005000252,令和６年３月１日大阪府東大阪市布市町三丁目６番２１号医療法人藤井会（9122005000252）に合併し解散,2015-10-05,1,,,,,ヒラオカビョウイン,0
899,4140001032693,登記記録の閉鎖等,0,2024-03-29,2024-03-19,株式会社クラッシー・ファミリーコンシェルジェ関西,,株式会社,兵庫県,芦屋市,松ノ内町３番１号,,28,206,6590094,,,2024-03-19,合併による解散等,4480001003578,令和６年３月１６日徳島市北佐古一番町４番４５－６号株式会社クラッシー（4480001003578）に合併し解散,2015-10-05,1,,,,,クラッシーファミリーコンシェルジェカンサイ,0
910,4180001131491,登記記録の閉鎖等,0,2024-03-29,2024-03-25,株式会社サカシタ,,株式会社,愛知県,名古屋市緑区,鹿山３丁目６３番地,,23,114,4580045,,,2024-03-25,清算の結了等,,,2018-03-27,1,,,,,サカシタ,0
913,4180002055525,登記記録の閉鎖等,0,2024-03-29,2024-03-26,有限会社プランニングルームターム,,有限会社,愛知県,名古屋市昭和区,阿由知通５丁目２４番地の４,,23,107,4660027,,,2024-03-26,清算の結了等,,,2015-10-05,1,,,,,プランニングルームターム,0
918,4200001021509,登記記録の閉鎖等,0,2024-03-29,2024-03-27,ヒシエム工業株式会社,,株式会社,岐阜県,土岐市,肥田町肥田２８３２番地の２,,21,212,5095115,,,2024-03-27,清算の結了等,,,2015-10-05,1,,,,,ヒシエムコウギョウ,0
932,4240002017857,登記記録の閉鎖等,0,2024-03-29,2024-03-27,有限会社萬開発,,有限会社,広島県,広島市南区,旭３丁目１１番７号,,34,103,7340036,,,2024-03-27,清算の結了等,,,2015-10-05,1,,,,,マンカイハツ,0
957,4330002014259,登記記録の閉鎖等,0,2024-03-29,2024-03-27,有限会社フォーシーズン,,有限会社,熊本県,菊池郡菊陽町,光の森１丁目１２番９号,,43,404,8691108,,,2024-03-27,清算の結了等,,,2015-10-05,1,,,,,,0
965,4370101001501,登記記録の閉鎖等,0,2024-03-29,2024-03-21,株式会社インプレス,,株式会社,宮城県,柴田郡大河原町,金ケ瀬字川根２４９番地,,04,321,9891224,,,2024-03-21,清算の結了等,,,2015-10-05,1,,,,,インプレス,0
973,4430001009588,登記記録の閉鎖等,0,2024-03-29,2024-03-25,第百産業株式会社,,株式会社,北海道,札幌市東区,北二十条東７丁目２番１－４０３号,,01,103,0650020,,,2024-03-25,清算の結了等,,,2015-10-05,1,,,,,ダイヒャクサンギョウ,0
977,4430002051969,登記記録の閉鎖等,0,2024-03-29,2024-03-25,有限会社香西建設,,有限会社,北海道,滝川市,幸町３丁目３番２１号,,01,225,0730043,,,2024-03-25,清算の結了等,,,2015-10-05,1,,,,,コウザイケンセツ,0
983,4460302004839,登記記録の閉鎖等,0,2024-03-29,2024-03-25,有限会社さかい,,有限会社,北海道,札幌市西区,八軒五条東３丁目７番３４－１２１１号,,01,107,0630865,,,2024-03-25,清算の結了等,,,2015-10-05,1,,,,,サカイ,0
986,4470001006177,登記記録の閉鎖等,0,2024-03-29,2024-03-26,内研株式会社,,株式会社,香川県,高松市,元山町３５８番地１,,37,201,7610311,,,2024-03-26,清算の結了等,,,2015-10-05,1,,,,,ウチケン,0
1016,5010401163126,登記記録の閉鎖等,0,2024-03-29,2024-03-13,株式会社ホソヤコーポレーション,,株式会社,千葉県,佐倉市,太田２０５６番地,,12,212,2850808,,,2024-03-13,合併による解散等,5010401178339,令和６年３月１日東京都港区虎ノ門一丁目３番１号株式会社ＪＧ２１（5010401178339）に合併し解散,2021-10-07,1,,,,,ホソヤコーポレーション,0
1024,5010403014244,登記記録の閉鎖等,0,2024-03-29,2024-03-25,合同会社フジワラネプチューン,,合同会社,千葉県,鎌ケ谷市,南鎌ケ谷１丁目１０番１４号,,12,224,2730106,,,2024-03-25,清算の結了等,,,2016-01-06,1,,,,,フジワラネプチューン,0
1029,5010603009283,登記記録の閉鎖等,0,2024-03-29,2024-03-26,合同会社ＳＵＺＩ,,合同会社,東京都,墨田区,江東橋３丁目３－４江東橋スクエアビル３Ｆ,,13,107,1300022,,,2024-03-26,清算の結了等,,,2021-12-02,1,,,,,スジ,0
1081,5020001102409,登記記録の閉鎖等,0,2024-03-29,2024-03-27,ＡＳＰ株式会社,,株式会社,東京都,東大和市,仲原４丁目１１－１１エクセレンス仲原２階,,13,220,2070016,,,2024-03-27,清算の結了等,,,2015-10-05,1,,,,,エーエスピー,0
1095,5021002067244,登記記録の閉鎖等,0,2024-03-29,2024-03-27,宗像工業有限会社,,有限会社,神奈川県,横須賀市,小矢部１丁目２６番１号,,14,201,2380026,,,2024-03-27,清算の結了等,,,2015-10-05,1,,,,,ムナカタコウギョウ,0
1105,5040001025814,登記記録の閉鎖等,0,2024-03-29,2024-03-19,株式会社オーエン企画,,株式会社,千葉県,市川市,宮久保６丁目９番１９号,,12,203,2720822,,,2024-03-19,清算の結了等,,,2015-10-05,1,,,,,オーエンキカク,0
1119,5070001024747,登記記録の閉鎖等,0,2024-03-29,2024-03-21,アイブランドＨＤ株式会社,,株式会社,群馬県,高崎市,下小鳥町２４番地２,,10,202,3700074,,,2024-03-21,清算の結了等,,,2015-10-05,1,,,,,アイブランドエイチディ,0
1122,5080402000809,登記記録の閉鎖等,0,2024-03-29,2024-03-28,有限会社伊東産業,,有限会社,静岡県,浜松市中央区,住吉１丁目１４番１号,,22,138,4300906,,,2024-03-28,清算の結了等,,,2015-10-05,1,,,,,イトウサンギョウ,0
1129,5100005008701,登記記録の閉鎖等,0,2024-03-29,2024-02-15,天理教伊那加久万分教会,,その他の設立登記法人,長野県,伊那市,西春近２９９５番地イ号,,20,209,3994431,,,2024-02-15,合併による解散等,1100005009876,令和６年２月１５日長野県飯田市上郷黒田２３４番地天理教伊那大教会（1100005009876）に合併し解散,2015-10-05,1,,,,,テンリキョウイナカクマンブンキョウカイ,0
1131,5120001104766,登記記録の閉鎖等,0,2024-03-29,2024-03-25,株式会社サニー・テル,,株式会社,大阪府,大阪市福島区,福島８丁目２１番１０号,,27,103,5530003,,,2024-03-25,清算の結了等,,,2015-10-05,1,,,,,サニーテル,0
1137,5120001199261,登記記録の閉鎖等,0,2024-03-29,2024-03-25,株式会社ムゲン,,株式会社,大阪府,大阪市西区,立売堀６丁目６番１５号,,27,106,5500012,,,2024-03-25,清算の結了等,,,2016-07-05,1,,,,,,0
1151,5120902002300,登記記録の閉鎖等,0,2024-03-29,2024-03-27,有限会社みしま丘,,有限会社,大阪府,茨木市,三島丘２丁目３０番２－１００７号,,27,211,5670021,,,2024-03-27,清算の結了等,,,2015-10-05,1,,,,,ミシマオカ,0
1152,5122001022659,登記記録の閉鎖等,0,2024-03-29,2024-03-28,株式会社宮里工務店,,株式会社,大阪府,藤井寺市,小山新町６番９号,,27,226,5830031,,,2024-03-28,清算の結了等,,,2015-10-05,1,,,,,,0
1160,5140001084131,登記記録の閉鎖等,0,2024-03-29,2024-03-27,株式会社サカエ工業所,,株式会社,兵庫県,伊丹市,車塚２丁目６６番地３,,28,207,6640872,,,2024-03-27,清算の結了等,,,2015-10-05,1,,,,,サカエコウギョウショ,0
1177,5180301000016,登記記録の閉鎖等,0,2024-03-29,2024-03-22,葵砕石株式会社,,株式会社,愛知県,岡崎市,桑谷町字唐園１８番地,,23,202,4443515,,,2024-03-22,清算の結了等,,,2015-10-05,1,,,,,アオイサイセキ,0
1183,5230001009797,登記記録の閉鎖等,0,2024-03-29,2024-03-26,株式会社岡田商店,,株式会社,富山県,高岡市,坂下町１２０２番地,,16,202,9330038,,,2024-03-26,清算の結了等,,,2015-10-05,1,,,,,オカダショウテン,0
1188,5230002012115,登記記録の閉鎖等,0,2024-03-29,2024-03-26,株式会社クワンズ,,株式会社,富山県,射水市,串田５１８２番地,,16,211,9390413,,,2024-03-26,清算の結了等,,,2015-10-05,1,,,,,クワンズ,0
1191,5240001022766,登記記録の閉鎖等,0,2024-03-29,2024-03-26,株式会社プレックコンポーネント,,株式会社,広島県,東広島市,豊栄町清武１４１８番地,,34,212,7392313,,,2024-03-26,清算の結了等,,,2015-10-05,1,,,,,プレックコンポーネント,0
1193,5240001050973,登記記録の閉鎖等,0,2024-03-29,2024-03-26,株式会社タナカ,,株式会社,広島県,東広島市,西条岡町８番２３号,,34,212,7390016,,,2024-03-26,清算の結了等,,,2017-04-21,1,,,,,タナカ,0
1217,5340002014950,登記記録の閉鎖等,0,2024-03-29,2024-03-27,有限会社南九州交通観光,,有限会社,鹿児島県,姶良郡湧水町,米永７７５番地１,,46,452,8996207,,,2024-03-27,清算の結了等,,,2015-10-05,1,,,,,ミナミキュウシュウカンコウコウツウ,0
1219,5340005003488,登記記録の閉鎖等,0,2024-03-29,2024-03-14,蛭子神社,,その他の設立登記法人,鹿児島県,薩摩川内市,樋脇町塔之原４９０４番地,00100147,46,215,8951202,,,2024-03-14,合併による解散等,1340005003483,令和６年３月１４日鹿児島県薩摩川内市樋脇町塔之原５１２１番地一の宮神社（1340005003483）に合併し解散,2015-10-05,1,,,,,,0
1222,5360001004950,登記記録の閉鎖等,0,2024-03-29,2024-03-01,株式会社コスモ総業,,株式会社,沖縄県,那覇市,松尾２丁目１２番７号,,47,201,9000014,,,2024-03-01,合併による解散等,9360002004871,令和６年３月１日沖縄県那覇市字安里１５番地２株式会社ワールドアカデミー沖縄（9360002004871）に合併し解散,2015-10-05,1,,,,,コスモソウギョウ,0
1231,5390001007538,登記記録の閉鎖等,0,2024-03-29,2024-03-11,キャド・キャム株式会社,,株式会社,山形県,鶴岡市,大宝寺字日本国３７８番地１２,,06,203,9970017,,,2024-03-11,合併による解散等,7370001050199,令和６年３月１日仙台市青葉区中央三丁目３番２０号株式会社７７ＰＥ２（7370001050199）に合併し解散,2015-10-05,1,,,,,キャドキャム,0
1233,5400001014689,登記記録の閉鎖等,0,2024-03-29,2024-03-26,株式会社吹張家守舎,,株式会社,岩手県,花巻市,十二丁目６４３番地,,03,205,0250022,,,2024-03-26,清算の結了等,,,2019-07-17,1,,,,,フッパリヤモリシャ,0
1234,5400002010489,登記記録の閉鎖等,0,2024-03-29,2024-03-25,有限会社幾重商事,,有限会社,岩手県,宮古市,高浜１丁目３番１７号,,03,202,0270032,,,2024-03-25,清算の結了等,,,2015-10-05,1,,,,,イクエショウジ,0
1238,5430001044048,登記記録の閉鎖等,0,2024-03-29,2024-03-25,株式会社ＰＰＮ,,株式会社,北海道,千歳市,幌美内７番地,,01,224,0660287,,,2024-03-25,清算の結了等,,,2015-10-05,1,,,,,ピーピーエヌ,0
1245,5430002066462,登記記録の閉鎖等,0,2024-03-29,2024-03-25,有限会社小沢エンジニア,,有限会社,北海道,虻田郡洞爺湖町,泉６５番地７,,01,584,0495602,,,2024-03-25,清算の結了等,,,2015-10-05,1,,,,,オザワエンジニア,0
1261,6010001042209,登記記録の閉鎖等,0,2024-03-29,2024-03-27,株式会社クレストコーポレーション,,株式会社,福島県,いわき市,常磐藤原町蕨平５０番地,,07,204,9728326,,,2024-03-27,清算の結了等,,,2015-10-05,1,,,,,クレストコーポレーション,0
1271,6010101012755,登記記録の閉鎖等,0,2024-03-29,2024-03-26,株式会社ｆｏｒｔｕｎａ,,株式会社,大阪府,大阪市都島区,都島本通３丁目２４番６号,,27,102,5340021,,,2024-03-26,清算の結了等,,,2017-03-23,1,,,,,フォルトゥナ,0
1308,6011101079058,登記記録の閉鎖等,0,2024-03-29,2024-03-27,株式会社花園コンサルティング,,株式会社,東京都,新宿区,新宿１丁目１４番５号新宿ＫＭビル６０２号,,13,104,1600022,,,2024-03-27,清算の結了等,,,2016-12-19,1,,,,,ハナゾノコンサルティング,0
1309,6011101082499,登記記録の閉鎖等,0,2024-03-29,2024-03-26,株式会社ＴＲＥＮＤ　ＥＹＥ,,株式会社,東京都,新宿区,西新宿３丁目７番１号新宿パークタワーＮ３０Ｆ,,13,104,1600023,,,2024-03-26,清算の結了等,,,2017-12-07,1,,,,,トレンドアイ,0
1315,6011501003939,登記記録の閉鎖等,0,2024-03-29,2024-03-18,ヒマワリフード株式会社,,株式会社,東京都,北区,田端１丁目２１番１８号,,13,117,1140014,,,2024-03-18,清算の結了等,,,2015-10-05,1,,,,,ヒマワリフード,0
1337,6021005004929,登記記録の閉鎖等,0,2024-03-29,2024-03-27,海老名市土地開発公社,,その他の設立登記法人,神奈川県,海老名市,勝瀬１７５番地の１,,14,215,2430404,,,2024-03-27,清算の結了等,,,2015-10-05,1,,,,,,0
1338,6021005012551,登記記録の閉鎖等,0,2024-03-29,2024-03-27,一般社団法人かながわ県央ピンクリボン,,その他の設立登記法人,神奈川県,伊勢原市,三ノ宮１２７３番地,,14,214,2591103,,,2024-03-27,清算の結了等,,,2022-06-22,1,,,,,カナガワケンオウピンクリボン,0
1377,6060002014103,登記記録の閉鎖等,0,2024-03-29,2024-03-28,那須中央測量有限会社,,有限会社,栃木県,那須郡那珂川町,小口１５６０番地１６,,09,411,3240618,,,2024-03-28,清算の結了等,,,2015-10-05,1,,,,,ナスチュウオウソクリョウ,0
1382,6070005003713,登記記録の閉鎖等,0,2024-03-29,2024-03-15,天理教西牧分教会,00026059,その他の設立登記法人,群馬県,甘楽郡下仁田町,大字西野牧５７０４番地,,10,382,3702627,,,2024-03-15,合併による解散等,6030005012296,令和６年３月１３日埼玉県川口市三ツ和一丁目１７番地の７天理教蕨町分教會（6030005012296）に合併し解散,2015-10-05,1,,,,,,0
1389,6090002003846,登記記録の閉鎖等,0,2024-03-29,2024-03-28,有限会社ノゾミ興業,,有限会社,山梨県,甲斐市,竜王１２０６番地２,,19,210,4000118,,,2024-03-28,清算の結了等,,,2015-10-05,1,,,,,,0
1394,6100005010128,登記記録の閉鎖等,0,2024-03-29,2024-02-15,天理教生登分教会,,その他の設立登記法人,長野県,下伊那郡松川町,生田５５８５番地,,20,402,3993302,,,2024-02-15,合併による解散等,9100005010125,令和６年２月１５日長野県下伊那郡松川町元大島８８９番地３天理教八束穂分教会（9100005010125）に合併し解散,2015-10-05,1,,,,,テンリキョウイクトウブンキョウカイ,0
1398,6120001163902,登記記録の閉鎖等,0,2024-03-29,2024-03-25,株式会社ジェイスタッフ,,株式会社,大阪府,大阪市西区,阿波座１丁目３番１９号,,27,106,5500011,,,2024-03-25,清算の結了等,,,2015-10-05,1,,,,,ジェイスタッフ,0
1408,6120002080510,登記記録の閉鎖等,0,2024-03-29,2024-03-22,有限会社アイプリント,,有限会社,大阪府,守口市,金田町１丁目６２番２５号,,27,209,5700011,,,2024-03-22,清算の結了等,,,2015-10-05,1,,,,,アイプリント,0
1419,6122001022583,登記記録の閉鎖等,0,2024-03-29,2024-03-28,株式会社健康堂,,株式会社,大阪府,八尾市,天王寺屋３丁目８４番地の２,,27,212,5810025,,,2024-03-28,清算の結了等,,,2015-10-05,1,,,,,,0
1432,6140002069353,登記記録の閉鎖等,0,2024-03-29,2024-03-25,有限会社ルイスキャロル,,有限会社,兵庫県,淡路市,志筑新島１０番地の３,,28,226,6562132,,,2024-03-25,清算の結了等,,,2015-10-05,1,,,,,ルイスキャロル,0
1441,6180002005833,登記記録の閉鎖等,0,2024-03-29,2024-03-26,有限会社エスティエム,,有限会社,愛知県,名古屋市港区,千鳥２丁目５番７号,,23,111,4550031,,,2024-03-26,清算の結了等,,,2015-10-05,1,,,,,エスティエム,0
1442,6180002041507,登記記録の閉鎖等,0,2024-03-29,2024-03-25,有限会社旅館かう楽,,有限会社,愛知県,名古屋市瑞穂区,苗代町２３番１６号,,23,108,4670841,,,2024-03-25,清算の結了等,,,2015-10-05,1,,,,,リョカンカウラク,0
1449,6190005009260,登記記録の閉鎖等,0,2024-03-29,2024-03-14,天理教新本郷分教会,,その他の設立登記法人,三重県,四日市市,楠町南五味塚６００番地の８９,,24,202,5100104,,,2024-03-14,合併による解散等,2060005005037,令和６年３月６日栃木県小山市大字間々田７９２番地１０天理教都賀大教会（2060005005037）に合併し解散,2015-10-05,1,,,,,,0
1451,6200001027462,登記記録の閉鎖等,0,2024-03-29,2024-03-28,曽我建設株式会社,,株式会社,岐阜県,中津川市,付知町８９１番地８,,21,206,5080351,,,2024-03-28,清算の結了等,,,2015-10-05,1,,,,,,0
1487,6290005000408,登記記録の閉鎖等,0,2024-03-29,2024-03-12,天理教天我分教会,,その他の設立登記法人,福岡県,福岡市中央区,谷２丁目１５番１３号,,40,133,8100031,,,2024-03-12,合併による解散等,6290805000202,令和６年３月５日北九州市小倉北区都二丁目９番１９号天理教小倉山分教会（6290805000202）に合併し解散,2015-10-05,1,,,,,テンリキョウテンガブンキョウカイ,0
1495,6320005006079,登記記録の閉鎖等,0,2024-03-29,2024-03-25,秀円寺,,その他の設立登記法人,大分県,竹田市,久住町大字栢木６０４５番地４,,44,208,8780204,,,2024-03-25,清算の結了等,,,2015-10-05,1,,,,,シュウエンジ,0
1501,6370001001087,登記記録の閉鎖等,0,2024-03-29,2024-03-25,株式会社ビルダー,,株式会社,宮城県,仙台市泉区,南光台４丁目２９番３２号,,04,105,9818003,,,2024-03-25,清算の結了等,,,2015-10-05,1,,,,,ビルダー,0
1504,6370305000215,登記記録の閉鎖等,0,2024-03-29,2024-03-05,天理教桃生分教会,,その他の設立登記法人,宮城県,石巻市,鹿又字町浦１１６番地の１,,04,202,9861111,,,2024-03-05,合併による解散等,8370305000221,令和６年３月５日宮城県石巻市泉町二丁目７番４２号天理教石巻分教会（8370305000221）に合併し解散,2015-10-05,1,,,,,テンリキョウモノウブンキョウカイ,0
1508,6410005005872,登記記録の閉鎖等,0,2024-03-29,2024-03-22,農事組合法人お山の大将,,その他の設立登記法人,秋田県,大館市,軽井沢字浦山５番地,,05,204,0185604,,,2024-03-22,清算の結了等,,,2015-10-05,1,,,,,オヤマノタイショウ,0
1511,6430001069358,登記記録の閉鎖等,0,2024-03-29,2024-03-25,株式会社Ｓｉｎ建築工房,,株式会社,北海道,札幌市豊平区,平岸四条１８丁目１番５３－３０７号,,01,105,0620934,,,2024-03-25,清算の結了等,,,2015-10-05,1,,,,,エスアイエヌケンチクコウボウ,0
1512,6430001078350,登記記録の閉鎖等,0,2024-03-29,2024-03-22,株式会社ｙｓ’トランス,,株式会社,北海道,恵庭市,島松寿町２丁目２９番地３,,01,231,0611355,,,2024-03-22,清算の結了等,,,2019-02-19,1,,,,,ワイズトランス,0
1514,6430003002787,登記記録の閉鎖等,0,2024-03-29,2024-03-01,高橋産業合同会社,,合同会社,北海道,小樽市,稲穂２丁目７番１８号,,01,203,0470032,,,2024-03-01,合併による解散等,5430001050129,令和６年２月２９日北海道小樽市稲穂二丁目７番１８号高橋燃料商事株式会社（5430001050129）に合併し解散,2015-10-05,1,,,,,タカハシサンギョウ,0
1528,7010101006574,登記記録の閉鎖等,0,2024-03-29,2024-03-26,Ｆ・ＰＯＩＮＴ株式会社,,株式会社,東京都,八王子市,南大沢５丁目１１番地２－１０２,,13,201,1920364,,,2024-03-26,清算の結了等,,,2015-10-05,1,,,,,エフポイント,0
1534,7010401135148,登記記録の閉鎖等,0,2024-03-29,2024-03-27,アルゴ・グローバル・インベストメント株式会社,,株式会社,東京都,港区,虎ノ門２丁目２番１号,,13,103,1050001,,,2024-03-27,合併による解散等,6010401139950,令和６年３月２５日東京都港区虎ノ門二丁目２番１号アルゴ・ホールディングス株式会社（6010401139950）に合併し解散,2017-11-22,1,,,,,アルゴグローバルインベストメント,0
1547,7010602019901,登記記録の閉鎖等,0,2024-03-29,2024-03-26,有限会社一建工務店,,有限会社,東京都,墨田区,向島３丁目４５番２号,,13,107,1310033,,,2024-03-26,清算の結了等,,,2015-10-05,1,,,,,イチケンコウムテン,0
1571,7011402001405,登記記録の閉鎖等,0,2024-03-29,2024-03-27,有限会社エイワ商事,,有限会社,東京都,板橋区,高島平２丁目２８番１－１０３号,,13,119,1750082,,,2024-03-27,清算の結了等,,,2015-10-05,1,,,,,,0
1582,7012302001189,登記記録の閉鎖等,0,2024-03-29,2024-03-26,有限会社小野路増田屋,,有限会社,東京都,町田市,小野路町１８６５番地１,,13,209,1950064,,,2024-03-26,清算の結了等,,,2015-10-05,1,,,,,オノジマスダヤ,0
1584,7012405000253,登記記録の閉鎖等,0,2024-03-29,2024-03-07,医療法人社団清新会,,その他の設立登記法人,東京都,府中市,片町２丁目１６番地１,,13,206,1830021,,,2024-03-07,合併による解散等,1010005004837,令和６年３月１日千葉県柏市小青田一丁目３番地１２医療法人社団葵会（1010005004837）に合併し解散,2015-10-05,1,,,,,セイシンカイ,0
1586,7013201014034,登記記録の閉鎖等,0,2024-03-29,2024-03-28,株式会社ＭＩＹＡ・美,,株式会社,東京都,目黒区,自由が丘２丁目１５番２２号エイクガーデン２Ｆ,,13,110,1520035,,,2024-03-28,清算の結了等,,,2015-10-05,1,,,,,ミヤビ,0
1600,7020003021167,登記記録の閉鎖等,0,2024-03-29,2024-03-26,合同会社Ｂ’ｄｏｇｓ　Ｕ＆Ａ,,合同会社,神奈川県,川崎市多摩区,長尾７丁目９番２６号,,14,135,2140023,,,2024-03-26,清算の結了等,,,2022-01-20,1,,,,,ビードッグスユーアンドエー,0
1639,7080102016698,登記記録の閉鎖等,0,2024-03-29,2024-03-27,有限会社小室電設,,有限会社,静岡県,富士宮市,神田川町２０番地の１９,,22,207,4180031,,,2024-03-27,清算の結了等,,,2015-10-05,1,,,,,コムロデンセツ,0
1645,7110002001235,登記記録の閉鎖等,0,2024-03-29,2024-03-22,有限会社江部工務店,,有限会社,新潟県,新潟市江南区,嘉瀬３５２６番地,,15,104,9500323,,,2024-03-22,清算の結了等,,,2015-10-05,1,,,,,エベコウムテン,0
1646,7110002010203,登記記録の閉鎖等,0,2024-03-29,2024-03-28,有限会社タカヒロメンテナンス,,有限会社,新潟県,新潟市南区,田尾５３１番地４,,15,106,9501436,,,2024-03-28,清算の結了等,,,2015-10-05,1,,,,,タカヒロメンテナンス,0
1649,7120001186118,登記記録の閉鎖等,0,2024-03-29,2024-03-25,株式会社ジェイスタッフイースト,,株式会社,大阪府,大阪市西区,阿波座１丁目３番１９号,,27,106,5500011,,,2024-03-25,清算の結了等,,,2015-10-05,1,,,,,ジェイスタッフイースト,0
1659,7120101049166,登記記録の閉鎖等,0,2024-03-29,2024-03-28,株式会社エム・コーポレーション,,株式会社,大阪府,大阪市西成区,南津守５丁目１番６８号,,27,122,5570063,,,2024-03-28,清算の結了等,,,2015-10-05,1,,,,,エムコーポレーション,0
1664,7130001012388,登記記録の閉鎖等,0,2024-03-29,2024-03-26,株式会社魚善,,株式会社,京都府,京都市山科区,勧修寺平田町１１６番地,,26,110,6078214,,,2024-03-26,清算の結了等,,,2015-10-05,1,,,,,ウオゼン,0
1676,7180001038503,登記記録の閉鎖等,0,2024-03-29,2024-03-25,株式会社東海,,株式会社,愛知県,名古屋市中区,松原２丁目５番６号,,23,106,4600017,,,2024-03-25,清算の結了等,,,2015-10-05,1,,,,,トウカイ,0
1677,7180001124947,登記記録の閉鎖等,0,2024-03-29,2024-03-25,株式会社アドベンチャーハウス,,株式会社,愛知県,北名古屋市,西之保光明田１４３,,23,234,4810033,,,2024-03-25,清算の結了等,,,2016-09-27,1,,,,,アドベンチャーハウス,0
1679,7180002018859,登記記録の閉鎖等,0,2024-03-29,2024-03-26,有限会社ナカシマ電器,,有限会社,愛知県,名古屋市中川区,東中島町５丁目３４番地３,,23,110,4540866,,,2024-03-26,清算の結了等,,,2015-10-05,1,,,,,ナカシマデンキ,0
1687,7210002009689,登記記録の閉鎖等,0,2024-03-29,2024-03-27,有限会社山本瓦工業,,有限会社,福井県,大野市,糸魚町８番２０号,,18,205,9120054,,,2024-03-27,清算の結了等,,,2015-10-05,1,,,,,ヤマモトカワラコウギョウ,0
1693,7240001017145,登記記録の閉鎖等,0,2024-03-29,2024-03-28,株式会社大雄,,株式会社,広島県,広島市南区,似島町字家下６７３番地,,34,103,7340017,,,2024-03-28,清算の結了等,,,2015-10-05,1,,,,,ダイユウ,0
1696,7240003002822,登記記録の閉鎖等,0,2024-03-29,2024-03-28,合同会社フリーチルドレン,,合同会社,広島県,安芸郡海田町,中店１３番１４号,,34,304,7360066,,,2024-03-28,清算の結了等,,,2015-10-05,1,,,,,フリーチルドレン,0
1701,7260002009924,登記記録の閉鎖等,0,2024-03-29,2024-03-28,有限会社むらか美,,有限会社,岡山県,岡山市北区,京橋町７番１５号,,33,101,7000831,,,2024-03-28,清算の結了等,,,2015-10-05,1,,,,,ムラカミ,0
1710,7290801003827,登記記録の閉鎖等,0,2024-03-29,2024-03-26,株式会社祐神建設,,株式会社,福岡県,北九州市小倉北区,馬借３丁目３番３７号,,40,106,8020077,,,2024-03-26,清算の結了等,,,2022-01-17,1,,,,,ユウシンケンセツ,0
1718,7310005003092,登記記録の閉鎖等,0,2024-03-29,2024-03-13,特定非営利活動法人やまびこネット協会,,その他の設立登記法人,長崎県,東彼杵郡波佐見町,井石郷２１４５番地,,42,323,8593711,,,2024-03-13,清算の結了等,,,2015-10-05,1,,,,,,0
1727,7360003011943,登記記録の閉鎖等,0,2024-03-29,2024-03-28,合同会社アスター,,合同会社,沖縄県,那覇市,首里山川町３丁目５番地,,47,201,9030825,,,2024-03-28,清算の結了等,,,2022-04-21,1,,,,,アスター,0
1732,7370202001199,登記記録の閉鎖等,0,2024-03-29,2024-03-25,有限会社吉岡運動具店,,有限会社,宮城県,大崎市,古川前田町４番３号,,04,215,9896172,,,2024-03-25,清算の結了等,,,2015-10-05,1,,,,,ヨシオカウンドウグテン,0
1754,7500005005383,登記記録の閉鎖等,0,2024-03-29,2024-03-12,天理教鏡分教会,,その他の設立登記法人,愛媛県,今治市,大三島町大見甲１０４８番地の２,,38,202,7941302,,,2024-03-12,合併による解散等,8500005004533,令和６年３月１２日愛媛県新居浜市阿島三丁目１番２２号天理教阿島分教会（8500005004533）に合併し解散,2015-10-05,1,,,,,テンリキョウカガミブンキョウカイ,0
1767,8010005008708,登記記録の閉鎖等,0,2024-03-29,2024-03-28,特定非営利活動法人ニンジン,,その他の設立登記法人,東京都,武蔵野市,吉祥寺本町１丁目２１番２号グローリオ吉祥寺本町２０１号,,13,203,1800004,,,2024-03-28,清算の結了等,,,2015-10-05,1,,,,,ニンジン,0
1769,8010401007354,登記記録の閉鎖等,0,2024-03-29,2024-03-25,株式会社エポックスポーツクラブ,,株式会社,東京都,港区,浜松町２丁目４番１号世界貿易センタービルヂング,,13,103,1050013,,,2024-03-25,清算の結了等,,,2015-10-05,1,,,,,エポックスポーツクラブ,0
1778,8010405017671,登記記録の閉鎖等,0,2024-03-29,2024-03-25,一般社団法人日本アーティストエイド協会,,その他の設立登記法人,東京都,港区,六本木４丁目３番１１号,,13,103,1060032,,,2024-03-25,清算の結了等,,,2019-05-13,1,,,,,ニホンアーティストエイドキョウカイ,0
1788,8010901039434,登記記録の閉鎖等,0,2024-03-29,2024-03-28,株式会社ＳＯＬ,,株式会社,広島県,広島市南区,段原４丁目１２番６号,,34,103,7320811,,,2024-03-28,清算の結了等,,,2017-01-25,1,,,,,ソール,0
1796,8011003012635,登記記録の閉鎖等,0,2024-03-29,2024-03-22,Ｐａｔｔｙ　Ｈｅｗｅｓ合同会社,,合同会社,東京都,渋谷区,道玄坂１丁目１５番６号チヨダ道玄坂ビル３階,,13,113,1500043,,,2024-03-22,清算の結了等,,,2021-04-21,1,,,,,パティヒューズ,0
1816,8011802025663,登記記録の閉鎖等,0,2024-03-29,2024-03-27,パテオ建設有限会社,,有限会社,東京都,足立区,西綾瀬３丁目２９番３－１０４号,,13,121,1200014,,,2024-03-27,清算の結了等,,,2015-10-05,1,,,,,パテオケンセツ,0
1835,8030001031109,登記記録の閉鎖等,0,2024-03-29,2024-03-26,株式会社コスモ,,株式会社,埼玉県,久喜市,菖蒲町菖蒲２３０９番地,,11,232,3460106,,,2024-03-26,清算の結了等,,,2015-10-05,1,,,,,コスモ,0
1839,8030001068729,登記記録の閉鎖等,0,2024-03-29,2024-03-11,株式会社カシマ,,株式会社,埼玉県,坂戸市,大字北大塚６７０番地１,,11,239,3500253,,,2024-03-11,清算の結了等,,,2015-10-05,1,,,,,カシマ,0
1886,8070001028126,登記記録の閉鎖等,0,2024-03-29,2024-03-25,ダイヤモンドライト株式会社,,株式会社,群馬県,前橋市,亀里町３６１番地１５,,10,201,3792147,,,2024-03-25,清算の結了等,,,2015-10-05,1,,,,,ダイヤモンドライト,0
1893,8100002027197,登記記録の閉鎖等,0,2024-03-29,2024-03-26,有限会社ステーション,,有限会社,長野県,北安曇郡池田町,大字池田３０９７番地１,,20,481,3998601,,,2024-03-26,清算の結了等,,,2015-10-05,1,,,,,ステーション,0
1894,8110002024490,登記記録の閉鎖等,0,2024-03-29,2024-03-28,有限会社上越ビジネスチャレンジセンター,,有限会社,新潟県,上越市,南城町４丁目３番３０号,,15,222,9430837,,,2024-03-28,清算の結了等,,,2015-10-05,1,,,,,ジョウエツビジネスチャレンジセンター,0
1914,8120101052318,登記記録の閉鎖等,0,2024-03-29,2024-03-27,株式会社ＶＮＰＲＯ,,株式会社,和歌山県,和歌山市,西浜１６６０番地の１８０,,30,201,6410036,,,2024-03-27,清算の結了等,,,2015-10-05,1,,,,,ブイエヌプロ,0
1935,8140002011858,登記記録の閉鎖等,0,2024-03-29,2024-03-21,長沢ビル有限会社,,有限会社,兵庫県,神戸市兵庫区,羽坂通３丁目１番１０号,,28,105,6520805,,,2024-03-21,合併による解散等,8140001013756,令和６年３月２１日神戸市兵庫区羽坂通三丁目１番１０号長澤文具株式会社（8140001013756）に合併し解散,2015-10-05,1,,,,,ナガサワビル,0
1937,8150005000816,登記記録の閉鎖等,0,2024-03-29,2024-03-27,奈良県家具商工業協同組合,,その他の設立登記法人,奈良県,奈良市,四条大路１丁目３番４８号株式会社中江家具製作所内,,29,201,6308014,,,2024-03-27,清算の結了等,,,2015-10-05,1,,,,,ナラケンカグショウコウギョウ,0
1941,8180001102919,登記記録の閉鎖等,0,2024-03-29,2024-03-08,日進ホールディングス株式会社,,株式会社,愛知県,名古屋市守山区,花咲台２丁目４０１番地,,23,113,4630808,,,2024-03-08,合併による解散等,5010001239276,令和６年３月１日名古屋市守山区花咲台二丁目４０１番地ＮＳホールディングス株式会社（5010001239276）に合併し解散,2015-10-05,1,,,,,ニッシンホールディングス,0
1942,8180001149175,登記記録の閉鎖等,0,2024-03-29,2024-03-26,株式会社デザインバース,,株式会社,愛知県,名古屋市緑区,鳴海町字下汐田３１－１サンハウス大高駅ＩＩ１０１,00125182,23,114,4580801,,,2024-03-26,清算の結了等,,,2021-12-20,1,,,,,デザインバース,0
1947,8180302027872,登記記録の閉鎖等,0,2024-03-29,2024-03-22,カネタタクシー有限会社,,有限会社,愛知県,新城市,大野字上野５８番地の２,,23,221,4411615,,,2024-03-22,清算の結了等,,,2015-10-05,1,,,,,カネタタクシー,0
1948,8190001012183,登記記録の閉鎖等,0,2024-03-29,2024-03-25,株式会社桑名山安,,株式会社,三重県,桑名市,筒尾７丁目１１番地１７,,24,205,5110901,,,2024-03-25,清算の結了等,,,2015-10-05,1,,,,,クワナヤマヤス,0
1949,8190002010533,登記記録の閉鎖等,0,2024-03-29,2024-03-21,有限会社千石珍味,,有限会社,三重県,鳥羽市,大明東町１４番１３号,,24,211,5170022,,,2024-03-21,清算の結了等,,,2015-10-05,1,,,,,センゴクチンミ,0
1950,8190005000333,登記記録の閉鎖等,0,2024-03-29,2024-03-27,ダイヤ通商協同組合,,その他の設立登記法人,三重県,津市,高茶屋７丁目５番５２号,,24,201,5140819,,,2024-03-27,清算の結了等,,,2015-10-05,1,,,,,ダイヤツウショウ,0
1971,8290001062516,登記記録の閉鎖等,0,2024-03-29,2024-03-25,株式会社Ｎ．Ｗ．Ｃ．Ｔ,,株式会社,埼玉県,所沢市,北中１丁目１９３－４,,11,208,3591101,,,2024-03-25,清算の結了等,,,2015-10-05,1,,,,,エヌダブルシーティー,0
1981,8290805000670,登記記録の閉鎖等,0,2024-03-29,2024-03-15,医療法人社団啓美会,,その他の設立登記法人,福岡県,北九州市小倉南区,中曽根５丁目１番１号,,40,107,8000222,,,2024-03-15,清算の結了等,,,2015-10-05,1,,,,,ケイビカイ,0
1984,8310001015776,登記記録の閉鎖等,0,2024-03-29,2024-03-18,株式会社リンクコーポレーション,,株式会社,長崎県,佐世保市,卸本町２３番地４,,42,202,8571162,,,2024-03-18,合併による解散等,9050001031213,令和６年３月１５日長崎県佐世保市卸本町２３番地４株式会社エバーアドバンス（9050001031213）に合併し解散,2018-10-04,1,,,,,,0
1992,8320001005909,登記記録の閉鎖等,0,2024-03-29,2024-03-26,株式会社竹田石材,,株式会社,大分県,大分市,大字葛木７９番地３,,44,201,8700133,,,2024-03-26,清算の結了等,,,2015-10-05,1,,,,,タケダセキザイ,0
1993,8320003002433,登記記録の閉鎖等,0,2024-03-29,2024-03-27,合同会社山真,,合同会社,大分県,竹田市,大字下志土知２５２番地１,,44,208,8780152,,,2024-03-27,清算の結了等,,,2016-06-15,1,,,,,,0
1999,8340001010196,登記記録の閉鎖等,0,2024-03-29,2024-03-28,株式会社環境エンジニアリング,,株式会社,鹿児島県,大島郡伊仙町,大字阿三１２２０番地,,46,532,8918321,,,2024-03-28,清算の結了等,,,2015-10-05,1,,,,,カンキョウエンジニアリング,0
2000,8340002022570,登記記録の閉鎖等,0,2024-03-29,2024-03-25,有限会社タンソー音楽社,,有限会社,鹿児島県,阿久根市,本町１７６番地,,46,206,8991621,,,2024-03-25,清算の結了等,,,2015-10-05,1,,,,,タンソーオンガクシャ,0
2001,8340003001697,登記記録の閉鎖等,0,2024-03-29,2024-03-28,ＧＡＲＤＥＮプラス合同会社,,合同会社,鹿児島県,鹿児島市,下田町６３９番地９,,46,201,8920873,,,2024-03-28,清算の結了等,,,2015-10-05,1,,,,,ガーデンプラス,0
2008,8420002019195,登記記録の閉鎖等,0,2024-03-29,2024-03-26,有限会社三沢中央経理事務所,,有限会社,青森県,三沢市,松園町３丁目６番３１号,,02,207,0330037,,,2024-03-26,清算の結了等,,,2015-10-05,1,,,,,ミサワチュウオウケイリジムショ,0
2024,8470005003051,登記記録の閉鎖等,0,2024-03-29,2024-03-25,徳現寺,,その他の設立登記法人,香川県,仲多度郡まんのう町,吉野３１２５番地の１,,37,406,7660023,,,2024-03-25,清算の結了等,,,2015-10-05,1,,,,,トクゲンジ,0
2030,8500002003414,登記記録の閉鎖等,0,2024-03-29,2024-03-28,有限会社秀栄,,有限会社,愛媛県,松山市,北久米町３８９番地,,38,201,7900923,,,2024-03-28,清算の結了等,,,2015-10-05,1,,,,,シュウエイ,0
2031,8500003002084,登記記録の閉鎖等,0,2024-03-29,2024-03-27,鮨いしかわ合同会社,,合同会社,愛媛県,松山市,針田町２５９番地１,,38,201,7900055,,,2024-03-27,清算の結了等,,,2018-04-23,1,,,,,スシイシカワ,0
2039,9010001138268,登記記録の閉鎖等,0,2024-03-29,2024-03-07,保険サービスシステム株式会社,,株式会社,大阪府,大阪市北区,梅田１丁目１１番４号,,27,127,5300001,,,2024-03-07,合併による解散等,5010001094671,令和６年３月１日東京都千代田区有楽町一丁目２番２号保険サービスシステムエージェンシー株式会社（5010001094671）に合併し解散,2015-10-05,1,,,,,ホケンサービスシステム,0
2059,9010403024561,登記記録の閉鎖等,0,2024-03-29,2024-03-26,合同会社ＭＡＨＡＮＡ９,,合同会社,神奈川県,横浜市西区,高島２丁目１１番２号スカイメナー横浜５１９,,14,103,2200011,,,2024-03-26,合併による解散等,9010403026211,令和６年３月１日東京都港区南青山二丁目２番６号７０２号室Ｂｒｉｄｇｅ　Ｃａｐｉｔａｌ合同会社（9010403026211）に合併し解散,2021-01-26,1,,,,,マハナナイン,0
2074,9011001120100,登記記録の閉鎖等,0,2024-03-29,2024-03-25,株式会社クリーンパートナー,,株式会社,東京都,新宿区,市谷加賀町２丁目１番１４号宮本ビル３階,,13,104,1620062,,,2024-03-25,清算の結了等,,,2018-01-18,1,,,,,クリーンパートナー,0
2088,9011503005633,登記記録の閉鎖等,0,2024-03-29,2024-03-19,ＪＭＣ合同会社,,合同会社,東京都,北区,西ケ原１丁目５２番１４－７０３号エスティア駒込,,13,117,1140024,,,2024-03-19,清算の結了等,,,2023-06-06,1,,,,,ジェイエムシー,0
2106,9021001073925,登記記録の閉鎖等,0,2024-03-29,2024-03-26,ＫｅｅＬ株式会社,,株式会社,神奈川県,横須賀市,長沢６丁目４３番２８号,,14,201,2390842,,,2024-03-26,清算の結了等,,,2021-09-13,1,,,,,キール,0
2116,9030005020429,登記記録の閉鎖等,0,2024-03-29,2024-03-26,一般社団法人食文化アドバイザリー振興協会,,その他の設立登記法人,埼玉県,入間市,高倉１丁目６番３８－７０７号,,11,225,3580021,,,2024-03-26,清算の結了等,,,2021-06-30,1,,,,,ショクブンカアドバイザリーシンコウキョウカイ,0
2142,9120001194184,登記記録の閉鎖等,0,2024-03-29,2024-03-25,株式会社大手前建築事務所,,株式会社,大阪府,大阪市中央区,大手前１丁目５番６号,,27,128,5400008,,,2024-03-25,清算の結了等,,,2015-11-05,1,,,,,オオテマエケンチクジムショ,0
2143,9120001197542,登記記録の閉鎖等,0,2024-03-29,2024-03-25,株式会社石川運送,,株式会社,大阪府,大阪市北区,本庄西２丁目１７番１１号４階,,27,127,5310073,,,2024-03-25,清算の結了等,,,2016-04-12,1,,,,,イシカワウンソウ,0
2166,9130001040635,登記記録の閉鎖等,0,2024-03-29,2024-03-27,京都名電株式会社,,株式会社,京都府,与謝郡与謝野町,字三河内１３３番地の８,,26,465,6292313,,,2024-03-27,清算の結了等,,,2015-10-05,1,,,,,キョウトメイデン,0
2169,9140001037168,登記記録の閉鎖等,0,2024-03-29,2024-03-27,株式会社行医研,,株式会社,兵庫県,明石市,田町２丁目５番７号,,28,203,6730025,,,2024-03-27,清算の結了等,,,2015-10-05,1,,,,,コウイケン,0
2174,9140002036887,登記記録の閉鎖等,0,2024-03-29,2024-03-25,有限会社吉田建築板金,,有限会社,兵庫県,加古川市,平岡町新在家８４４番地の１,,28,210,6750101,,,2024-03-25,清算の結了等,,,2015-10-05,1,,,,,ヨシダケンチクバンキン,0
2175,9140002041103,登記記録の閉鎖等,0,2024-03-29,2024-03-27,有限会社シード,,有限会社,兵庫県,尼崎市,食満３丁目１番３２号,,28,202,6610982,,,2024-03-27,清算の結了等,,,2015-10-05,1,,,,,,0
2177,9140005018387,登記記録の閉鎖等,0,2024-03-29,2024-03-13,天理教三ツ谷分教会,,その他の設立登記法人,兵庫県,川辺郡猪名川町,広根字北野尻１９番地,,28,301,6660252,,,2024-03-13,合併による解散等,7140005018389,令和６年３月１３日兵庫県川辺郡猪名川町笹尾字奥谷丙２番地の２天理教兵攝分教会（7140005018389）に合併し解散,2015-10-05,1,,,,,,0
2184,9180001120325,登記記録の閉鎖等,0,2024-03-29,2024-03-25,株式会社スライスオブライフ,,株式会社,愛知県,名古屋市瑞穂区,平郷町５丁目１番地の５,,23,108,4670879,,,2024-03-25,清算の結了等,,,2015-10-05,1,,,,,スライスオブライフ,0
2186,9180001128079,登記記録の閉鎖等,0,2024-03-29,2024-03-25,株式会社ＢＬＡＮＣ,,株式会社,愛知県,名古屋市中区,丸の内３丁目１８番１号,,23,106,4600002,,,2024-03-25,清算の結了等,,,2017-06-06,1,,,,,ブラン,0
2189,9180003019796,登記記録の閉鎖等,0,2024-03-29,2024-03-18,株式会社Ｎｉｌａｒｔ,,株式会社,愛知県,名古屋市中村区,二ツ橋町１丁目６番地の１４,,23,105,4530813,,,2024-03-18,清算の結了等,,,2019-03-20,1,,,,,ニラート,0
2199,9200003003855,登記記録の閉鎖等,0,2024-03-29,2024-03-28,ＫのＦＴ合同会社,,合同会社,岐阜県,海津市,海津町沼新田２５番地,,21,221,5030634,,,2024-03-28,清算の結了等,,,2016-10-07,1,,,,,,0
2201,9240001031631,登記記録の閉鎖等,0,2024-03-29,2024-03-25,株式会社ニッケン,,株式会社,広島県,福山市,高西町南３６番地,,34,207,7290103,,,2024-03-25,清算の結了等,,,2015-10-05,1,,,,,ニッケン,0
2206,9240002014453,登記記録の閉鎖等,0,2024-03-29,2024-03-28,有限会社藤川組,,有限会社,広島県,広島市南区,上東雲町２２番３０号,,34,103,7340021,,,2024-03-28,清算の結了等,,,2015-10-05,1,,,,,フジカワグミ,0
2211,9260001023569,登記記録の閉鎖等,0,2024-03-29,2024-03-27,株式会社ＳＡＮＯホールディングス,,株式会社,岡山県,倉敷市,児島唐琴１丁目４番１９号,,33,202,7110904,,,2024-03-27,清算の結了等,,,2015-10-05,1,,,,,サノホールディングス,0
2224,9330001025987,登記記録の閉鎖等,0,2024-03-29,2024-03-25,リヴォート株式会社,,株式会社,熊本県,熊本市中央区,辛島町６９番,,43,101,8600804,,,2024-03-25,合併による解散等,6330001004647,令和６年３月２５日熊本市中央区辛島町４番３５号株式会社明和不動産（6330001004647）に合併し解散,2019-01-08,1,,,,,リヴォート,0
2229,9340002004898,登記記録の閉鎖等,0,2024-03-29,2024-03-28,下前原電機工業有限会社,,有限会社,鹿児島県,鹿児島市,桜ヶ丘８丁目１番１１号,,46,201,8900075,,,2024-03-28,清算の結了等,,,2015-10-05,1,,,,,シモマエハラデンキコウギョウ,0
2243,9370001048919,登記記録の閉鎖等,0,2024-03-29,2024-03-22,株式会社ＵＮＩＶＥＲＳＥ,,株式会社,宮城県,仙台市若林区,沖野２丁目１４番２２号シェ・ブランシュ３０６,,04,103,9840831,,,2024-03-22,清算の結了等,,,2022-08-09,1,,,,,ユニバース,0
2250,9430003013831,登記記録の閉鎖等,0,2024-03-29,2024-03-27,合同会社Ｄ４Ｃ,,合同会社,北海道,札幌市中央区,北四条西１１丁目４２番１号ソーレルハイツ植物園２０２号室,,01,101,0600004,,,2024-03-27,清算の結了等,,,2022-04-25,1,,,,,ディーフォーシー,0
