sequenceNumber,corporateNumber,process,correct,updateDate,changeDate,name,nameImageId,kind,prefectureName,cityName,streetNumber,addressImageId,prefectureCode,cityCode,postCode,addressOutside,addressOutsideImageId,closeDate,closeCause,successorCorporateNumber,changeCause,assignmentDate,latest,enName,enPrefectureName,enCityName,enAddressOutside,furigana,hihyoji
5,1010001145569,登記記録の閉鎖等,0,2024-10-28,2024-10-24,株式会社地研,,株式会社,東京都,荒川区,西日暮里５丁目２４番８号,,13,118,1160013,,,2024-10-24,清算の結了等,,,2015-10-05,1,,,,,,0
54,1011102008937,登記記録の閉鎖等,0,2024-10-28,2024-10-11,有限会社東洋モーター,,有限会社,東京都,新宿区,富久町１番３号,,13,104,1620067,,,2024-10-11,清算の結了等,,,2015-10-05,1,,,,,トウヨウモーター,0
58,1011201018390,登記記録の閉鎖等,0,2024-10-28,2024-10-24,Ｊコミックインベストメント株式会社,,株式会社,東京都,中野区,新井２丁目３０番１１号,,13,114,1650026,,,2024-10-24,合併による解散等,1010001148786,令和６年１０月１日東京都千代田区大手町一丁目７番２号東京サンケイビル２７Ｆ株式会社海進社（1010001148786）に合併し解散,2015-10-05,1,,,,,ジェイコミックインベストメント,0
77,1013201017281,登記記録の閉鎖等,0,2024-10-28,2024-10-21,株式会社碧屋,,株式会社,東京都,世田谷区,代田１丁目４番１号建都ビル１階,,13,112,1550033,,,2024-10-21,清算の結了等,,,2015-10-05,1,,,,,ミドリヤ,0
84,1020001000104,登記記録の閉鎖等,0,2024-10-28,2024-10-11,関東検査工業株式会社,,株式会社,神奈川県,横浜市栄区,小山台１丁目１０番８号,,14,115,2470002,,,2024-10-11,清算の結了等,,,2015-10-05,1,,,,,カントウケンサコウギョウ,0
86,1020001033888,登記記録の閉鎖等,0,2024-10-28,2024-10-10,株式会社三輝,,株式会社,神奈川県,横浜市旭区,鶴ケ峰本町１丁目４８番２６号,,14,112,2410021,,,2024-10-10,清算の結了等,,,2015-10-05,1,,,,,サンキ,0
87,1020001042071,登記記録の閉鎖等,0,2024-10-28,2024-10-11,株式会社ジョネット,,株式会社,神奈川県,横浜市神奈川区,台町１１番地２６,,14,102,2210834,,,2024-10-11,清算の結了等,,,2015-10-05,1,,,,,ジョネット,0
94,1020002006884,登記記録の閉鎖等,0,2024-10-28,2024-10-11,豊和工業有限会社,,有限会社,神奈川県,横浜市都筑区,二の丸４番６号,,14,118,2240052,,,2024-10-11,清算の結了等,,,2015-10-05,1,,,,,ホウワコウギョウ,0
100,1021001061152,登記記録の閉鎖等,0,2024-10-28,2024-10-25,株式会社やなぎ,,株式会社,神奈川県,厚木市,旭町１丁目２４番３号,,14,212,2430014,,,2024-10-25,清算の結了等,,,2017-01-17,1,,,,,,0
108,1030001097362,登記記録の閉鎖等,0,2024-10-28,2024-10-18,株式会社プログレスコーポレーション,,株式会社,埼玉県,久喜市,所久喜７０７番地４,,11,232,3460034,,,2024-10-18,清算の結了等,,,2015-10-05,1,,,,,プログレスコーポレーション,0
121,1030002090993,登記記録の閉鎖等,0,2024-10-28,2024-10-21,有限会社義工務店,,有限会社,埼玉県,越谷市,大成町１丁目４８番地８,,11,222,3430825,,,2024-10-21,清算の結了等,,,2015-10-05,1,,,,,ヨシコウムテン,0
136,1040003016856,登記記録の閉鎖等,0,2024-10-28,2024-10-22,琴音合同会社,,合同会社,千葉県,習志野市,鷺沼１丁目１７番２４号,,12,216,2750014,,,2024-10-22,清算の結了等,,,2021-01-27,1,,,,,コトネ,0
150,1080402010919,登記記録の閉鎖等,0,2024-10-28,2024-10-23,有限会社モディストヴィータ,,有限会社,静岡県,浜松市中央区,西浅田２丁目１番１１号ＧＲＡＮＤＩＲ西浅田６０１,,22,138,4328045,,,2024-10-23,清算の結了等,,,2015-10-05,1,,,,,モディストヴィータ,0
159,1120001148940,登記記録の閉鎖等,0,2024-10-28,2024-10-25,株式会社朝山,,株式会社,大阪府,枚方市,楠葉野田３丁目３０番１号,,27,210,5731103,,,2024-10-25,清算の結了等,,,2015-10-05,1,,,,,アサヤマ,0
193,1170002011291,登記記録の閉鎖等,0,2024-10-28,2024-10-23,有限会社野村商店,,有限会社,和歌山県,新宮市,新宮４６４３番地の５９,,30,207,6470081,,,2024-10-23,清算の結了等,,,2015-10-05,1,,,,,ノムラショウテン,0
202,1180302005942,登記記録の閉鎖等,0,2024-10-28,2024-10-17,有限会社東海錦,,有限会社,愛知県,安城市,城南町１丁目６番地４,,23,212,4460043,,,2024-10-17,清算の結了等,,,2015-10-05,1,,,,,トウカイニシキ,0
219,1290001079277,登記記録の閉鎖等,0,2024-10-28,2024-09-30,株式会社ＪＰＷＯＯＤ,,株式会社,福岡県,糟屋郡粕屋町,大字江辻７５９番地１,00111542,40,349,8112313,,,2024-09-30,清算の結了等,,,2017-10-11,1,,,,,ジェーピーウッド,0
224,1290003002063,登記記録の閉鎖等,0,2024-10-28,2024-10-04,合資会社大右衛門,,合資会社,福岡県,朝倉市,入地２８４８番地の５,,40,228,8381315,,,2024-10-04,清算の結了等,,,2015-10-05,1,,,,,ダイウエモン,0
227,1300005004510,登記記録の閉鎖等,0,2024-10-28,2024-10-24,九州三菱農業機械販売協同組合,,その他の設立登記法人,佐賀県,鳥栖市,藤木町字若桜７番地１,,41,203,8410048,,,2024-10-24,清算の結了等,,,2015-10-05,1,,,,,キュウシュウミツビシノウギョウキカイハンバイ,0
238,1370002014357,登記記録の閉鎖等,0,2024-10-28,2024-10-10,有限会社東北電化,,有限会社,宮城県,仙台市青葉区,中央３丁目１０番１０号,,04,101,9800021,,,2024-10-10,清算の結了等,,,2015-10-05,1,,,,,トウホクデンカ,0
240,1380002013201,登記記録の閉鎖等,0,2024-10-28,2024-10-11,有限会社わたべ文具店,,有限会社,福島県,郡山市,鶴見坦２丁目１０番１２号,,07,203,9638861,,,2024-10-11,清算の結了等,,,2015-10-05,1,,,,,ワタベブングテン,0
257,1450002012311,登記記録の閉鎖等,0,2024-10-28,2024-10-23,有限会社マルキ小阪商店,,有限会社,北海道,苫前郡苫前町,字苫前２１２番地,,01,483,0783701,,,2024-10-23,清算の結了等,,,2015-10-05,1,,,,,マルキコサカショウテン,0
271,2010001236342,登記記録の閉鎖等,0,2024-10-28,2024-10-11,株式会社クレア,,株式会社,東京都,千代田区,紀尾井町３番１２号紀尾井町ビル６階,,13,101,1020094,,,2024-10-11,清算の結了等,,,2023-06-22,1,,,,,クレア,0
273,2010003023383,登記記録の閉鎖等,0,2024-10-28,2024-10-15,合同会社ビートル２,,合同会社,東京都,中央区,日本橋兜町３番１１号三田証券株式会社内,,13,102,1030026,,,2024-10-15,清算の結了等,,,2016-04-12,1,,,,,ビートルツー,0
274,2010003026254,登記記録の閉鎖等,0,2024-10-28,2024-10-15,Ｂｒｏｓ＆Ａｓｓｏｃｉａｔｅｓ株式会社,,株式会社,東京都,千代田区,岩本町２丁目１６番地１０号中屋第一ビル１階,,13,101,1010032,,,2024-10-15,清算の結了等,,,2017-10-19,1,,,,,ブロスアンドアソシエイツ,0
282,2010401098548,登記記録の閉鎖等,0,2024-10-28,2024-10-09,株式会社ダウゼッド,,株式会社,東京都,港区,南青山６丁目７番７号ファーロ南青山４０１,,13,103,1070062,,,2024-10-09,清算の結了等,,,2015-10-05,1,,,,,,0
288,2010403022142,登記記録の閉鎖等,0,2024-10-28,2024-10-07,エピオンスジャパン合同会社,,合同会社,東京都,港区,芝１丁目７番５号,,13,103,1050014,,,2024-10-07,清算の結了等,,,2020-01-16,1,,,,,エピオンスジャパン,0
320,2011201020172,登記記録の閉鎖等,0,2024-10-28,2024-10-24,株式会社稲光保険事務所,,株式会社,東京都,中野区,東中野３丁目１４番２６号１階,,13,114,1640003,,,2024-10-24,清算の結了等,,,2017-09-21,1,,,,,トウコウホケンジムショ,0
333,2013303005852,登記記録の閉鎖等,0,2024-10-28,2024-10-16,株式会社ＴＡＢＩ,,株式会社,東京都,豊島区,南大塚３丁目２６番６号Ｌｅ－ｐａｒｃ大塚１Ｆ,,13,116,1700005,,,2024-10-16,清算の結了等,,,2021-10-15,1,,,,,タビ,0
338,2020002088328,登記記録の閉鎖等,0,2024-10-28,2024-10-10,有限会社アイエス機工,,有限会社,神奈川県,川崎市高津区,北見方１丁目１１番１号,,14,134,2130005,,,2024-10-10,清算の結了等,,,2015-10-05,1,,,,,アイエスキコウ,0
341,2020005005627,登記記録の閉鎖等,0,2024-10-28,2024-09-13,特定非営利活動法人かながわコミュニティワーク協会,,その他の設立登記法人,神奈川県,横浜市中区,南仲通４丁目３９番地,,14,104,2310006,,,2024-09-13,清算の結了等,,,2015-10-05,1,,,,,カナガワコミュニティワークキョウカイ,0
349,2030001035040,登記記録の閉鎖等,0,2024-10-28,2024-10-21,株式会社シオンズ,,株式会社,埼玉県,草加市,谷塚町１１９０番地５,,11,221,3400023,,,2024-10-21,清算の結了等,,,2015-10-05,1,,,,,シオンズ,0
352,2030001068230,登記記録の閉鎖等,0,2024-10-28,2024-10-18,株式会社ジスプロ,,株式会社,埼玉県,越谷市,千間台西２丁目２２番地２８－１０２,,11,222,3430041,,,2024-10-18,清算の結了等,,,2015-10-05,1,,,,,ジスプロ,0
367,2040002059310,登記記録の閉鎖等,0,2024-10-28,2024-10-22,有限会社スフィーダ,,有限会社,千葉県,成田市,赤坂２丁目１番地４２ステラ赤坂１０２,,12,211,2860017,,,2024-10-22,清算の結了等,,,2015-10-05,1,,,,,スフィーダ,0
374,2070001000445,登記記録の閉鎖等,0,2024-10-28,2024-10-09,富士機械テクノ株式会社,,株式会社,群馬県,前橋市,岩神町２丁目２４番３号,,10,201,3710035,,,2024-10-09,合併による解散等,8070001002774,令和６年１０月１日群馬県前橋市岩神町二丁目２４番３号富士機械株式会社（8070001002774）に合併し解散,2015-10-05,1,,,,,フジキカイテクノ,0
375,2070001021937,登記記録の閉鎖等,0,2024-10-28,2024-10-22,日本結晶光学株式会社,,株式会社,群馬県,館林市,野辺町８１０番地の５,,10,207,3740047,,,2024-10-22,合併による解散等,4010001223289,令和６年１０月１日東京都千代田区丸の内三丁目１番１号日本結晶光学株式会社（4010001223289）に合併し解散,2015-10-05,1,,,,,ニホンケッショウコウガク,0
383,2090002013312,登記記録の閉鎖等,0,2024-10-28,2024-10-17,有限会社山正,,有限会社,山梨県,南都留郡西桂町,倉見１２８番地,,19,423,4030023,,,2024-10-17,清算の結了等,,,2015-10-05,1,,,,,ヤマショウ,0
388,2110003001577,登記記録の閉鎖等,0,2024-10-28,2024-10-21,合同会社リテック,,合同会社,新潟県,上越市,清里区平成２６１番地１５,,15,222,9430508,,,2024-10-21,清算の結了等,,,2015-10-05,1,,,,,リテック,0
393,2120001240028,登記記録の閉鎖等,0,2024-10-28,2024-10-17,株式会社Ｒｕｓｈ,,株式会社,大阪府,大阪市淀川区,西中島３丁目１７番５号,,27,123,5320011,,,2024-10-17,清算の結了等,,,2021-09-01,1,,,,,ラッシュ,0
400,2120005001764,登記記録の閉鎖等,0,2024-10-28,2024-10-25,龍泉寺,,その他の設立登記法人,大阪府,大阪市住之江区,浜口東２丁目３番１２号,,27,125,5590002,,,2024-10-25,清算の結了等,,,2015-10-05,1,,,,,リュウセンジ,0
405,2122001022117,登記記録の閉鎖等,0,2024-10-28,2024-10-25,パリゼンヌ株式会社,,株式会社,大阪府,八尾市,東老原２丁目２５番地,,27,212,5810093,,,2024-10-25,清算の結了等,,,2015-10-05,1,,,,,パリゼンヌ,0
407,2130002016244,登記記録の閉鎖等,0,2024-10-28,2024-10-23,有限会社ケララ,,有限会社,京都府,京都市伏見区,深草堀田町１０番地の１ローズマンション藤の森Ａ棟３１４号,,26,109,6120026,,,2024-10-23,清算の結了等,,,2015-10-05,1,,,,,ケララ,0
422,2180001094311,登記記録の閉鎖等,0,2024-10-28,2024-10-11,株式会社佐藤工務店,,株式会社,愛知県,東海市,加木屋町鎌吉良根７０番の１,,23,222,4770032,,,2024-10-11,清算の結了等,,,2015-10-05,1,,,,,サトウコウムテン,0
424,2180001119200,登記記録の閉鎖等,0,2024-10-28,2024-10-15,株式会社アンドロディック,,株式会社,愛知県,名古屋市中区,千代田５丁目１１番３３号ＳＴ　ＰＬＡＺＡ　ＴＳＵＲＵＭＡＩ本館５階,,23,106,4600012,,,2024-10-15,清算の結了等,,,2015-10-05,1,,,,,アンドロディック,0
428,2180002018509,登記記録の閉鎖等,0,2024-10-28,2024-10-08,有限会社高野製作所,,有限会社,愛知県,名古屋市中川区,万町１９１１番地,,23,110,4540872,,,2024-10-08,清算の結了等,,,2015-10-05,1,,,,,タカノセイサクショ,0
433,2190001003873,登記記録の閉鎖等,0,2024-10-28,2024-10-25,株式会社あかつか,,株式会社,三重県,津市,豊が丘２丁目４１番１８号,,24,201,5142222,,,2024-10-25,清算の結了等,,,2015-10-05,1,,,,,アカツカ,0
437,2200005013231,登記記録の閉鎖等,0,2024-10-28,2024-10-24,一般社団法人エーツージャパン,,その他の設立登記法人,岐阜県,岐阜市,柳津町上佐波西５丁目１６,,21,201,5016121,,,2024-10-24,清算の結了等,,,2021-08-02,1,,,,,エーツージャパン,0
438,2210001013853,登記記録の閉鎖等,0,2024-10-28,2024-10-22,株式会社ＩＭＰＡＣＴ－ＪＡＰＡＮ,,株式会社,福井県,福井市,問屋町１丁目１０番地ユニックスビル３階,,18,201,9188231,,,2024-10-22,清算の結了等,,,2015-10-05,1,,,,,インパクトジャパン,0
439,2220002017002,登記記録の閉鎖等,0,2024-10-28,2024-10-24,有限会社玉ひし森,,有限会社,石川県,かほく市,宇野気リ１３２番地,,17,209,9291125,,,2024-10-24,清算の結了等,,,2015-10-05,1,,,,,タマヒシモリ,0
442,2240001045266,登記記録の閉鎖等,0,2024-10-28,2024-10-21,株式会社Ａｐｅｒｒａ,,株式会社,広島県,広島市南区,荒神町１番２号,,34,103,7320807,,,2024-10-21,清算の結了等,,,2015-10-05,1,,,,,アペーラ,0
445,2250002017098,登記記録の閉鎖等,0,2024-10-28,2024-10-24,有限会社光白蓮社,00002789,有限会社,山口県,光市,島田１丁目１２番８号,,35,210,7430063,,,2024-10-24,清算の結了等,,,2015-10-05,1,,,,,ヒカリビャクレンシャ,0
454,2290001023671,登記記録の閉鎖等,0,2024-10-28,2024-09-27,株式会社フジタエンジニア,,株式会社,福岡県,福岡市博多区,博多駅前４丁目１１番１０号,,40,132,8120011,,,2024-09-27,清算の結了等,,,2015-10-05,1,,,,,フジタエンジニア,0
471,2330001016316,登記記録の閉鎖等,0,2024-10-28,2024-10-21,プリンシプル株式会社,,株式会社,熊本県,球磨郡あさぎり町,免田西２５７３番地３７,,43,514,8680415,,,2024-10-21,清算の結了等,,,2015-10-05,1,,,,,プリンシプル,0
477,2350005001031,登記記録の閉鎖等,0,2024-10-28,2024-10-22,特定非営利活動法人ＮＰＯみやざき,,その他の設立登記法人,宮崎県,宮崎市,鶴島２丁目９番６号みやざきＮＰＯハウス内,,45,201,8800014,,,2024-10-22,清算の結了等,,,2015-10-05,1,,,,,エヌピーオーミヤザキ,0
484,2360003010124,登記記録の閉鎖等,0,2024-10-28,2024-10-24,合同会社ＦＬＡＭＥ９,,合同会社,沖縄県,那覇市,銘苅１丁目３番２５号ソリッド銘苅４０１,,47,201,9000004,,,2024-10-24,清算の結了等,,,2020-03-04,1,,,,,フレームナイン,0
494,2420003002271,登記記録の閉鎖等,0,2024-10-28,2024-10-23,合同会社礼春,,合同会社,青森県,十和田市,大字相坂字相坂１７５番１,,02,206,0340041,,,2024-10-23,清算の結了等,,,2021-04-07,1,,,,,レイシュン,0
498,2430002058181,登記記録の閉鎖等,0,2024-10-28,2024-10-22,有限会社大沢電機商会,,有限会社,北海道,苫小牧市,澄川町７丁目１番１２号,,01,213,0591271,,,2024-10-22,清算の結了等,,,2015-10-05,1,,,,,オオサワデンキショウカイ,0
507,2500002017139,登記記録の閉鎖等,0,2024-10-28,2024-10-23,有限会社フクシン,,有限会社,愛媛県,新居浜市,上原２丁目６番５４号,,38,205,7920046,,,2024-10-23,清算の結了等,,,2015-10-05,1,,,,,フクシン,0
523,3010003034173,登記記録の閉鎖等,0,2024-10-28,2024-10-15,合同会社ＡＬＥＲＯ５６,,合同会社,東京都,千代田区,神田錦町１丁目２１番１号,,13,101,1010054,,,2024-10-15,清算の結了等,,,2021-02-12,1,,,,,アレーロフィフティーシックス,0
528,3010401120418,登記記録の閉鎖等,0,2024-10-28,2024-10-18,ユナイテッドロジスティクス株式会社,,株式会社,埼玉県,八潮市,大字二丁目上４４１番地１,,11,234,3400811,,,2024-10-18,清算の結了等,,,2015-10-05,1,,,,,ユナイテッドロジスティクス,0
533,3010401156313,登記記録の閉鎖等,0,2024-10-28,2024-10-09,キュウシュウ株式会社,,株式会社,東京都,港区,赤坂２丁目８番１４－５０４号,,13,103,1070052,,,2024-10-09,清算の結了等,,,2020-11-06,1,,,,,キュウシュウ,0
539,3010402034550,登記記録の閉鎖等,0,2024-10-28,2024-10-23,有限会社さくらコンサルティング,,有限会社,神奈川県,中郡大磯町,高麗１丁目１０番１号,,14,341,2550001,,,2024-10-23,清算の結了等,,,2015-10-05,1,,,,,サクラコンサルティング,0
558,3010701042378,登記記録の閉鎖等,0,2024-10-28,2024-10-18,株式会社ワイエス,,株式会社,東京都,品川区,西五反田８丁目９番１１号,,13,109,1410031,,,2024-10-18,清算の結了等,,,2022-03-16,1,,,,,ワイエス,0
579,3011402010913,登記記録の閉鎖等,0,2024-10-28,2024-10-23,有限会社アオキメディカルサプライ,,有限会社,東京都,練馬区,早宮２丁目１７番４７－５０２号,,13,120,1790085,,,2024-10-23,清算の結了等,,,2015-10-05,1,,,,,アオキメディカルサプライ,0
596,3012803000577,登記記録の閉鎖等,0,2024-10-28,2024-10-01,合同会社レッドエコー,,合同会社,東京都,昭島市,つつじが丘２丁目７番２３号,,13,207,1960012,,,2024-10-01,合併による解散等,1012802007212,令和６年１０月１日東京都東大和市仲原一丁目６番地の２株式会社イコール（1012802007212）に合併し解散,2015-10-05,1,,,,,,0
598,3013103001010,登記記録の閉鎖等,0,2024-10-28,2024-10-09,Ｍｏｎｅｙ　Ｋｉｔｃｈｅｎ合同会社,,合同会社,東京都,港区,北青山１丁目３番１号アールキューブ青山３階,,13,103,1070061,,,2024-10-09,清算の結了等,,,2020-12-02,1,,,,,マネーキッチン,0
601,3020001153098,登記記録の閉鎖等,0,2024-10-28,2024-10-10,株式会社日本国際医療推進機構,,株式会社,神奈川県,川崎市多摩区,菅仙谷４丁目１番５号,,14,135,2140006,,,2024-10-10,清算の結了等,,,2023-08-18,1,,,,,ニッポンコクサイイリョウスイシンキコウ,0
608,3020002041715,登記記録の閉鎖等,0,2024-10-28,2024-10-11,有限会社エルメック,,有限会社,神奈川県,横浜市中区,海岸通３丁目１２番地１,,14,104,2310002,,,2024-10-11,清算の結了等,,,2015-10-05,1,,,,,エルメック,0
614,3020002106204,登記記録の閉鎖等,0,2024-10-28,2024-10-15,有限会社財産研究所,,有限会社,東京都,千代田区,神田須田町１丁目５番地東洋ビル３階,,13,101,1010041,,,2024-10-15,清算の結了等,,,2015-10-05,1,,,,,ザイサンケンキュウショ,0
617,3021001049591,登記記録の閉鎖等,0,2024-10-28,2024-10-24,Ｅ３ソリューション株式会社,,株式会社,神奈川県,綾瀬市,深谷上８丁目６番２４号,,14,218,2521108,,,2024-10-24,清算の結了等,,,2015-10-05,1,,,,,イースリーソリューション,0
622,3021002060283,登記記録の閉鎖等,0,2024-10-28,2024-10-24,有限会社渡部精機,,有限会社,神奈川県,平塚市,岡崎３８８２番地５,,14,203,2591212,,,2024-10-24,清算の結了等,,,2015-10-05,1,,,,,ワタベセイキ,0
629,3030001047365,登記記録の閉鎖等,0,2024-10-28,2024-10-24,株式会社ＷＩＮ　ａｔ　ＱＵＡＬＩＴＹ,,株式会社,埼玉県,新座市,野火止２丁目６番２５号,,11,230,3520011,,,2024-10-24,清算の結了等,,,2015-10-05,1,,,,,ウィンアットクオリティ,0
630,3030001067925,登記記録の閉鎖等,0,2024-10-28,2024-10-22,勝原電気株式会社,,株式会社,埼玉県,越谷市,大字大泊９８９番地５,,11,222,3430044,,,2024-10-22,清算の結了等,,,2015-10-05,1,,,,,カツハラデンキ,0
631,3030001096882,登記記録の閉鎖等,0,2024-10-28,2024-10-21,株式会社ｍｏｏｎ・ｕｐ,,株式会社,東京都,豊島区,東池袋３丁目２０番９号宏和ビル７階,,13,116,1700013,,,2024-10-21,清算の結了等,,,2015-10-05,1,,,,,ムーンアップ,0
634,3030001143957,登記記録の閉鎖等,0,2024-10-28,2024-10-18,株式会社ＫＥＩＳＥＩ,,株式会社,埼玉県,川口市,本町４丁目３番１４号小峰第一ビル５Ｆ－Ｍ７,,11,203,3320012,,,2024-10-18,清算の結了等,,,2021-08-26,1,,,,,ケイセイ,0
647,3050002028791,登記記録の閉鎖等,0,2024-10-28,2024-10-18,有限会社高柳物産,,有限会社,茨城県,行方市,小牧９５４番地,,08,233,3113816,,,2024-10-18,清算の結了等,,,2015-10-05,1,,,,,タカヤナギブッサン,0
648,3060002040341,登記記録の閉鎖等,0,2024-10-28,2024-10-23,有限会社ＴＰＭ,,有限会社,栃木県,佐野市,植下町３４５５番地,,09,204,3270835,,,2024-10-23,清算の結了等,,,2015-10-05,1,,,,,ティーピーエム,0
649,3070001013157,登記記録の閉鎖等,0,2024-10-28,2024-10-24,株式会社オーケーパック,,株式会社,群馬県,伊勢崎市,下蓮町５５０番地１,,10,204,3720852,,,2024-10-24,清算の結了等,,,2015-10-05,1,,,,,オーケーパック,0
653,3080002018195,登記記録の閉鎖等,0,2024-10-28,2024-10-23,有限会社竹下冷市商店,,有限会社,静岡県,藤枝市,岡部町内谷６３３番地の４,,22,214,4211131,,,2024-10-23,清算の結了等,,,2015-10-05,1,,,,,タケシタレイイチショウテン,0
657,3080401011866,登記記録の閉鎖等,0,2024-10-28,2024-10-24,株式会社美匠,,株式会社,静岡県,浜松市中央区,湖東町５７６７番地,,22,138,4311103,,,2024-10-24,清算の結了等,,,2015-10-05,1,,,,,ビショウ,0
666,3110002026285,登記記録の閉鎖等,0,2024-10-28,2024-10-22,有限会社テクノス,,有限会社,新潟県,糸魚川市,大字大野７０番地３,,15,216,9410071,,,2024-10-22,清算の結了等,,,2015-10-05,1,,,,,テクノス,0
679,3120002059326,登記記録の閉鎖等,0,2024-10-28,2024-10-18,有限会社Ｎ・Ｔコーポレーション,,有限会社,大阪府,大阪市淀川区,十三本町１丁目７番１７号ナポレオンプラザビル１階,,27,123,5320024,,,2024-10-18,清算の結了等,,,2015-10-05,1,,,,,エヌティーコーポレーション,0
691,3140001062758,登記記録の閉鎖等,0,2024-10-28,2024-10-23,株式会社開興園,,株式会社,兵庫県,姫路市,網干区浜田１２２３番地の２２,,28,201,6711242,,,2024-10-23,清算の結了等,,,2015-10-05,1,,,,,カイコウエン,0
702,3160005003137,登記記録の閉鎖等,0,2024-10-28,2024-10-24,特定非営利活動法人滋賀マスターズ陸連,,その他の設立登記法人,滋賀県,東近江市,沖野１丁目６番２３号,,25,213,5270034,,,2024-10-24,清算の結了等,,,2015-10-05,1,,,,,シガマスターズリクレン,0
709,3180001151458,登記記録の閉鎖等,0,2024-10-28,2024-10-10,株式会社救球社,,株式会社,愛知県,名古屋市緑区,乗鞍２丁目１４０１番地,,23,114,4580004,,,2024-10-10,清算の結了等,,,2022-05-30,1,,,,,キュウキュウシャ,0
714,3180002009300,登記記録の閉鎖等,0,2024-10-28,2024-10-09,有限会社近江電気商会,,有限会社,愛知県,名古屋市瑞穂区,御莨町３丁目８番地の１,,23,108,4670006,,,2024-10-09,清算の結了等,,,2015-10-05,1,,,,,オウミデンキショウカイ,0
716,3180002037152,登記記録の閉鎖等,0,2024-10-28,2024-10-10,新平湯住宅有限会社,,有限会社,愛知県,名古屋市南区,鳴尾町字丹後江３０３１番地の１５,,23,112,4570813,,,2024-10-10,清算の結了等,,,2015-10-05,1,,,,,シンヒラユジュウタク,0
717,3180002050155,登記記録の閉鎖等,0,2024-10-28,2024-10-15,有限会社泉水コーポレーション,,有限会社,愛知県,名古屋市西区,玉池町１９１番地,,23,104,4520812,,,2024-10-15,清算の結了等,,,2015-10-05,1,,,,,イズミコーポレーション,0
718,3180002062976,登記記録の閉鎖等,0,2024-10-28,2024-10-11,有限会社教育シューズ東海,,有限会社,愛知県,日進市,梅森町新田１３４番地１２３,,23,230,4700132,,,2024-10-11,清算の結了等,,,2015-10-05,1,,,,,キョウイクシューズトウカイ,0
724,3190002007427,登記記録の閉鎖等,0,2024-10-28,2024-10-25,有限会社イコマテクノ,,有限会社,三重県,鈴鹿市,東庄内町４１４５番地の２,,24,207,5190272,,,2024-10-25,清算の結了等,,,2015-10-05,1,,,,,,0
729,3220002000782,登記記録の閉鎖等,0,2024-10-28,2024-10-24,有限会社アイサポートグループ,,有限会社,石川県,金沢市,出雲町イ３７６番地,,17,201,9200056,,,2024-10-24,清算の結了等,,,2015-10-05,1,,,,,アイサポートグループ,0
732,3240001008486,登記記録の閉鎖等,0,2024-10-28,2024-10-23,株式会社日産オートオークション広島,,株式会社,広島県,広島市西区,三篠町３丁目１４番１７号,,34,104,7330003,,,2024-10-23,清算の結了等,,,2015-10-05,1,,,,,ニッサンオートオークションヒロシマ,0
738,3250002000103,登記記録の閉鎖等,0,2024-10-28,2024-10-24,有限会社秋穂タクシー,,有限会社,山口県,山口市,秋穂東６４８５番地,,35,203,7541101,,,2024-10-24,清算の結了等,,,2015-10-05,1,,,,,アイオタクシー,0
743,3280002007260,登記記録の閉鎖等,0,2024-10-28,2024-10-25,有限会社松江チヤイルド社,,有限会社,島根県,出雲市,美談町１１９５番地,,32,203,6910013,,,2024-10-25,清算の結了等,,,2015-10-05,1,,,,,マツエチヤイルドシャ,0
769,3370001008267,登記記録の閉鎖等,0,2024-10-28,2024-10-10,株式会社サトウプランニングオフイス,,株式会社,宮城県,仙台市青葉区,片平１丁目１番６号ネオハイツ片平３０１号,,04,101,9800812,,,2024-10-10,清算の結了等,,,2015-10-05,1,,,,,サトウプランニングオフィス,0
772,3380002000131,登記記録の閉鎖等,0,2024-10-28,2024-10-11,有限会社あかつき,,有限会社,福島県,福島市,吉倉字吉田８３番地,,07,201,9608165,,,2024-10-11,清算の結了等,,,2015-10-05,1,,,,,アカツキ,0
815,4010502019665,登記記録の閉鎖等,0,2024-10-28,2024-10-16,有限会社エーアンドシー,,有限会社,東京都,台東区,清川１丁目７番３号,,13,106,1110022,,,2024-10-16,清算の結了等,,,2015-10-05,1,,,,,エーアンドシー,0
822,4011001056423,登記記録の閉鎖等,0,2024-10-28,2024-10-07,株式会社シャルデザイン,,株式会社,東京都,港区,西麻布２丁目２０番６号,,13,103,1060031,,,2024-10-07,清算の結了等,,,2015-10-05,1,,,,,シャルデザイン,0
823,4011001106839,登記記録の閉鎖等,0,2024-10-28,2024-10-18,株式会社リプレ,,株式会社,大阪府,大阪市中央区,南久宝寺町１丁目９番１０号,,27,128,5410058,,,2024-10-18,清算の結了等,,,2015-10-05,1,,,,,リプレ,0
840,4011401005244,登記記録の閉鎖等,0,2024-10-28,2024-10-21,株式会社ハト井電設,,株式会社,東京都,板橋区,赤塚新町３丁目１２番１５号,00065591,13,119,1750093,,,2024-10-21,清算の結了等,,,2015-10-05,1,,,,,ハトイデンセツ,0
844,4011501012719,登記記録の閉鎖等,0,2024-10-28,2024-10-23,株式会社和真ＦＣサポート,,株式会社,東京都,北区,赤羽南１丁目１番１７号,,13,117,1150044,,,2024-10-23,合併による解散等,3010001060857,令和６年１０月１日東京都中央区銀座八丁目９番１３号株式会社和真（3010001060857）に合併し解散,2015-10-05,1,,,,,ワシンエフシーサポート,0
845,4011701008252,登記記録の閉鎖等,0,2024-10-28,2024-10-23,株式会社ヨシモト興業,,株式会社,東京都,江戸川区,西一之江３丁目３番５号,,13,123,1320023,,,2024-10-23,清算の結了等,,,2015-10-05,1,,,,,ヨシモトコウギョウ,0
847,4011801041525,登記記録の閉鎖等,0,2024-10-28,2024-10-11,株式会社三縁想,,株式会社,愛知県,名古屋市千種区,神田町三丁目３番ワンコレクト２Ａ,,23,101,4640077,,,2024-10-11,清算の結了等,,,2022-11-10,1,,,,,サンエンソウ,0
851,4012401003485,登記記録の閉鎖等,0,2024-10-28,2024-10-01,株式会社渡部商店,,株式会社,東京都,千代田区,神田駿河台３丁目３番地,,13,101,1010062,,,2024-10-01,合併による解散等,2010001010854,令和６年１０月１日東京都千代田区神田駿河台三丁目３番地イー・ヴイ・イーコミュニケーションズグループ株式会社（2010001010854）に合併し解散,2015-10-05,1,,,,,ワタナベショウテン,0
852,4012402003336,登記記録の閉鎖等,0,2024-10-28,2024-10-15,有限会社小俣左官工業,,有限会社,東京都,国分寺市,東戸倉１丁目１２番地２０,,13,214,1850002,,,2024-10-15,清算の結了等,,,2015-10-05,1,,,,,オマタサカンコウギョウ,0
853,4012702007763,登記記録の閉鎖等,0,2024-10-28,2024-10-10,有限会社清瀬鈑金,,有限会社,東京都,清瀬市,松山１丁目４６番２８号,,13,221,2040022,,,2024-10-10,清算の結了等,,,2015-10-05,1,,,,,キヨセバンキン,0
857,4013301026122,登記記録の閉鎖等,0,2024-10-28,2024-10-22,株式会社９ｔｈ,,株式会社,東京都,豊島区,南池袋１丁目１６番１５号ダイヤゲート池袋５階,,13,116,1710022,,,2024-10-22,清算の結了等,,,2015-10-05,1,,,,,ナインス,0
858,4013301040932,登記記録の閉鎖等,0,2024-10-28,2024-10-16,株式会社ＬＩＧＨＴ　ＦＯＲＥＳＴ,,株式会社,東京都,豊島区,東池袋１丁目３４番５号いちご東池袋ビル６階,,13,116,1700013,,,2024-10-16,清算の結了等,,,2017-08-08,1,,,,,ライトフォレスト,0
884,4030001028414,登記記録の閉鎖等,0,2024-10-28,2024-10-22,株式会社キャタリスト,,株式会社,埼玉県,さいたま市中央区,上落合２丁目４番２－３２１１号,,11,105,3380001,,,2024-10-22,清算の結了等,,,2015-10-05,1,,,,,キャタリスト,0
893,4030002064193,登記記録の閉鎖等,0,2024-10-28,2024-10-21,有限会社三祥リライズ,,有限会社,埼玉県,和光市,下新倉２丁目５０番２７号,,11,229,3510111,,,2024-10-21,清算の結了等,,,2015-10-05,1,,,,,サンショウリライズ,0
902,4040003007381,登記記録の閉鎖等,0,2024-10-28,2024-10-21,合同会社リラクノア,,合同会社,千葉県,松戸市,古ケ崎２２２番地の５,,12,207,2710068,,,2024-10-21,清算の結了等,,,2015-10-05,1,,,,,リラクノア,0
904,4050001046117,登記記録の閉鎖等,0,2024-10-28,2024-10-21,株式会社三十工業,,株式会社,茨城県,鹿嶋市,大字宮中５１６１,,08,222,3140031,,,2024-10-21,清算の結了等,,,2019-06-11,1,,,,,サントコウギョウ,0
915,4080402001072,登記記録の閉鎖等,0,2024-10-28,2024-10-24,有限会社植松屋,,有限会社,静岡県,浜松市中央区,龍禅寺町２３１番地,,22,138,4300924,,,2024-10-24,清算の結了等,,,2015-10-05,1,,,,,ウエマツヤ,0
956,4140001120102,登記記録の閉鎖等,0,2024-10-28,2024-10-23,株式会社ＫＯＢＥ　ＬＩＺ,,株式会社,兵庫県,高砂市,神爪１丁目５番２４号,,28,216,6760808,,,2024-10-23,清算の結了等,,,2021-01-13,1,,,,,コウベリズ,0
958,4140002021613,登記記録の閉鎖等,0,2024-10-28,2024-10-22,有限会社ネスト,,有限会社,兵庫県,神戸市中央区,二宮町４丁目２１番９号,,28,110,6510093,,,2024-10-22,清算の結了等,,,2015-10-05,1,,,,,ネスト,0
962,4180001063198,登記記録の閉鎖等,0,2024-10-28,2024-10-10,株式会社フリースタッフ,,株式会社,愛知県,名古屋市昭和区,天神町３丁目６番地,,23,107,4660032,,,2024-10-10,清算の結了等,,,2015-10-05,1,,,,,フリースタッフ,0
963,4180001070194,登記記録の閉鎖等,0,2024-10-28,2024-10-09,株式会社ＭＥＩＹＡ,,株式会社,愛知県,名古屋市千種区,下方町１丁目２５番地,,23,101,4640096,,,2024-10-09,清算の結了等,,,2015-10-05,1,,,,,メイヤ,0
973,4190002008770,登記記録の閉鎖等,0,2024-10-28,2024-10-24,有限会社小岸製作所,,有限会社,三重県,度会郡度会町,下久具７８番地,,24,470,5162111,,,2024-10-24,清算の結了等,,,2015-10-05,1,,,,,コギシセイサクショ,0
974,4200001012276,登記記録の閉鎖等,0,2024-10-28,2024-10-15,株式会社サンフラワー,,株式会社,岐阜県,羽島市,足近町南之川１４９番地,,21,209,5016205,,,2024-10-15,清算の結了等,,,2015-10-05,1,,,,,サンフラワー,0
978,4220001008512,登記記録の閉鎖等,0,2024-10-28,2024-10-24,株式会社明希リース,,株式会社,石川県,金沢市,無量寺町ハ１番地,,17,201,9200332,,,2024-10-24,清算の結了等,,,2015-10-05,1,,,,,メイキリース,0
986,4240003005976,登記記録の閉鎖等,0,2024-10-28,2024-10-21,合同会社中国地産,,合同会社,広島県,東広島市,西条昭和町１７番２１号,,34,212,7390014,,,2024-10-21,清算の結了等,,,2023-01-18,1,,,,,チュウゴクチサン,0
990,4280002000405,登記記録の閉鎖等,0,2024-10-28,2024-10-25,有限会社エムズ,,有限会社,島根県,松江市,上乃木７丁目５番９号,,32,201,6900015,,,2024-10-25,清算の結了等,,,2015-10-05,1,,,,,エムズ,0
992,4290001017597,登記記録の閉鎖等,0,2024-10-28,2024-09-27,信和設備株式会社,,株式会社,福岡県,福岡市博多区,住吉５丁目１１番８号,,40,132,8120018,,,2024-09-27,清算の結了等,,,2015-10-05,1,,,,,シンワセツビ,0
1006,4290803004735,登記記録の閉鎖等,0,2024-10-28,2024-10-15,合同会社埴山姫,,合同会社,福岡県,北九州市八幡東区,山路１丁目１６－２０,,40,108,8050035,,,2024-10-15,清算の結了等,,,2024-05-23,1,,,,,ハニヤマヒメ,0
1009,4310003002529,登記記録の閉鎖等,0,2024-10-28,2024-10-21,合同会社時起,,合同会社,長崎県,長崎市,向町７９１番地,,42,201,8511136,,,2024-10-21,清算の結了等,,,2015-10-05,1,,,,,トキ,0
1013,4330005009900,登記記録の閉鎖等,0,2024-10-28,2024-10-21,一般社団法人渡鹿共同墓地管理組合,,その他の設立登記法人,熊本県,熊本市中央区,渡鹿４丁目１３番２８号,,43,101,8620970,,,2024-10-21,清算の結了等,,,2018-08-15,1,,,,,トロクキヨウドウボチカンリクミアイ,0
1014,4340001024027,登記記録の閉鎖等,0,2024-10-28,2024-10-23,さくらプランニング株式会社,,株式会社,鹿児島県,姶良市,池島町２８番地１８,,46,225,8995653,,,2024-10-23,清算の結了等,,,2021-08-16,1,,,,,サクラプランニング,0
1026,4360005006580,登記記録の閉鎖等,0,2024-10-28,2024-10-25,一般社団法人学びデザイン,,その他の設立登記法人,沖縄県,那覇市,牧志２丁目１６－４６タカラマンションマキシー１－２階２０３号室,,47,201,9000013,,,2024-10-25,清算の結了等,,,2022-01-19,1,,,,,マナビデザイン,0
1033,4390001006276,登記記録の閉鎖等,0,2024-10-28,2024-10-17,株式会社サカタマツダ自動車,,株式会社,山形県,酒田市,新橋１丁目３番地の１０,,06,204,9980864,,,2024-10-17,清算の結了等,,,2015-10-05,1,,,,,サカタマツダジドウシャ,0
1041,4430003012152,登記記録の閉鎖等,0,2024-10-28,2024-10-24,合同会社ソフィアガーデン,,合同会社,北海道,札幌市中央区,大通西２２丁目３番８号セザール第２円山公園１階,,01,101,0640820,,,2024-10-24,清算の結了等,,,2020-11-16,1,,,,,ソフィアガーデン,0
1042,4450001001650,登記記録の閉鎖等,0,2024-10-28,2024-10-23,総合衛生株式会社,,株式会社,北海道,旭川市,川端町六条１０丁目２番４３号,,01,204,0700816,,,2024-10-23,清算の結了等,,,2015-10-05,1,,,,,ソウゴウエイセイ,0
1044,4470001006301,登記記録の閉鎖等,0,2024-10-28,2024-10-22,サンズ株式会社,,株式会社,香川県,高松市,松縄町１１３４番地５,,37,201,7600079,,,2024-10-22,清算の結了等,,,2015-10-05,1,,,,,サンズ,0
1065,5010401108667,登記記録の閉鎖等,0,2024-10-28,2024-10-01,株式会社トランジットダイニングオペレーション,,株式会社,東京都,渋谷区,恵比寿４丁目２０番４号,,13,113,1500013,,,2024-10-01,合併による解散等,8011001162606,令和６年１０月１日東京都渋谷区恵比寿四丁目２０番４号株式会社トランジットオペレーションサービス（8011001162606）に合併し解散,2015-10-05,1,,,,,トランジットダイニングオペレーション,0
1086,5010405014696,登記記録の閉鎖等,0,2024-10-28,2024-10-10,一般社団法人さきがけホールディングス・ツー,,その他の設立登記法人,東京都,港区,虎ノ門３丁目２２番１０－２０１号,,13,103,1050001,,,2024-10-10,清算の結了等,,,2016-04-04,1,,,,,サキガケホールディングスツー,0
1093,5010901024083,登記記録の閉鎖等,0,2024-10-28,2024-10-21,株式会社ビズコム・ジャパン,,株式会社,東京都,世田谷区,三軒茶屋２丁目４８－８,,13,112,1540024,,,2024-10-21,清算の結了等,,,2015-10-05,1,,,,,,0
1111,5012401001298,登記記録の閉鎖等,0,2024-10-28,2024-10-24,株式会社二世ファーム,,株式会社,東京都,府中市,押立町２丁目２７番地の１０,,13,206,1830012,,,2024-10-24,清算の結了等,,,2015-10-05,1,,,,,ニセイファーム,0
1112,5012401021874,登記記録の閉鎖等,0,2024-10-28,2024-10-25,株式会社シュウコウ,,株式会社,東京都,調布市,深大寺東町３丁目２４番地２,,13,208,1820012,,,2024-10-25,清算の結了等,,,2015-10-05,1,,,,,シュウコウ,0
1122,5020001012888,登記記録の閉鎖等,0,2024-10-28,2024-10-10,港南商事株式会社,,株式会社,神奈川県,横浜市南区,睦町２丁目１７９番地の１８,,14,105,2320041,,,2024-10-10,清算の結了等,,,2015-10-05,1,,,,,コウナンショウジ,0
1132,5020001129427,登記記録の閉鎖等,0,2024-10-28,2024-10-11,ＭｅｄｉａＭｅｒｃｕｒｙ株式会社,,株式会社,神奈川県,川崎市宮前区,宮崎１７１番地３ボン・ファミリエ宮崎台４０５,,14,136,2160033,,,2024-10-11,清算の結了等,,,2019-01-09,1,,,,,メディアマーキュリー,0
1142,5020003022415,登記記録の閉鎖等,0,2024-10-28,2024-10-21,合同会社未来夢芽育,,合同会社,埼玉県,さいたま市桜区,大字神田２８８番地３,,11,106,3380812,,,2024-10-21,清算の結了等,,,2022-09-20,1,,,,,ミライユメイク,0
1148,5021003011226,登記記録の閉鎖等,0,2024-10-28,2024-10-22,合同会社カメラモールＫＡＩＳＥＩ,,合同会社,神奈川県,足柄上郡開成町,牛島１６５番地２,,14,366,2580022,,,2024-10-22,清算の結了等,,,2021-12-27,1,,,,,カメラモールカイセイ,0
1166,5030002009569,登記記録の閉鎖等,0,2024-10-28,2024-10-16,有限会社トモサン電機,,有限会社,埼玉県,さいたま市浦和区,常盤２丁目３番３号,,11,107,3300061,,,2024-10-16,清算の結了等,,,2015-10-05,1,,,,,トモサンデンキ,0
1168,5030002056090,登記記録の閉鎖等,0,2024-10-28,2024-10-18,有限会社堀口商会,,有限会社,埼玉県,桶川市,大字川田谷６９４８番地の２,,11,231,3630027,,,2024-10-18,清算の結了等,,,2015-10-05,1,,,,,ホリグチショウカイ,0
1169,5030002117537,登記記録の閉鎖等,0,2024-10-28,2024-10-17,有限会社エムティー,,有限会社,埼玉県,行田市,大字埼玉５０８５番地,,11,206,3610025,,,2024-10-17,清算の結了等,,,2015-10-05,1,,,,,エムティー,0
1170,5030003016382,登記記録の閉鎖等,0,2024-10-28,2024-10-21,合同会社Ｔ．Ｔ．Ｒ,,合同会社,埼玉県,富士見市,山室１丁目１１５５番地１,,11,235,3540022,,,2024-10-21,清算の結了等,,,2020-12-21,1,,,,,ティーティーアール,0
1175,5040005015522,登記記録の閉鎖等,0,2024-10-28,2024-10-22,鴻真大教総局,,その他の設立登記法人,千葉県,南房総市,千倉町忽戸５３４番地１,,12,234,2950022,,,2024-10-22,清算の結了等,,,2015-10-05,1,,,,,コウシンダイキョウソウキョク,0
1177,5050001039219,登記記録の閉鎖等,0,2024-10-28,2024-10-18,健康福祉サービス株式会社,,株式会社,埼玉県,北葛飾郡松伏町,大字築比地７９５番地１,,11,465,3430102,,,2024-10-18,合併による解散等,6030001066965,令和６年１０月１日埼玉県北葛飾郡松伏町築比地７９５番地１株式会社ウィーズ（6030001066965）に合併し解散,2015-10-05,1,,,,,ケンコウフクシサービス,0
1178,5050002031273,登記記録の閉鎖等,0,2024-10-28,2024-10-21,有限会社日立兎平ゴルフセンター,00023091,有限会社,茨城県,日立市,多賀町１丁目１９番２４号,,08,202,3160003,,,2024-10-21,清算の結了等,,,2015-10-05,1,,,,,ヒタチウサギダイラゴルフセンター,0
1195,5120001134722,登記記録の閉鎖等,0,2024-10-28,2024-10-22,関西フードマネジメント株式会社,,株式会社,大阪府,大阪市北区,梅田１丁目１１番４号,,27,127,5300001,,,2024-10-22,合併による解散等,4120001137890,令和６年１０月２２日大阪市北区梅田一丁目１１番４号本町建物運営株式会社（4120001137890）に合併し解散,2015-10-05,1,,,,,カンサイフードマネジメント,0
1198,5120001189659,登記記録の閉鎖等,0,2024-10-28,2024-10-18,株式会社Ｒｅｐａｉｎｔ．Ｌａｂ,,株式会社,大阪府,大阪市東成区,東中本１丁目７番１４号,,27,115,5370021,,,2024-10-18,清算の結了等,,,2015-10-05,1,,,,,,0
1208,5120002059332,登記記録の閉鎖等,0,2024-10-28,2024-10-18,有限会社ウィング・エンタープライズ,,有限会社,大阪府,大阪市淀川区,十三本町１丁目７番１７号ナポレオンプラザビル４階,,27,123,5320024,,,2024-10-18,清算の結了等,,,2015-10-05,1,,,,,ウィングエンタープライズ,0
1213,5120101056742,登記記録の閉鎖等,0,2024-10-28,2024-10-24,ソーシャル・メディア・クリエーションズ株式会社,,株式会社,大阪府,泉佐野市,りんくう往来北１りんくうゲートタワービル１４Ｆ,,27,213,5980048,,,2024-10-24,清算の結了等,,,2017-06-27,1,,,,,ソーシャルメディアクリエーションズ,0
1220,5130001055414,登記記録の閉鎖等,0,2024-10-28,2024-10-23,野村テクノサイエンス株式会社,,株式会社,京都府,京都市北区,小山元町２９番地,,26,101,6038112,,,2024-10-23,清算の結了等,,,2015-10-05,1,,,,,ノムラテクノサイエンス,0
1229,5140002047252,登記記録の閉鎖等,0,2024-10-28,2024-10-23,有限会社味九,,有限会社,兵庫県,姫路市,砥堀７８５番地５,,28,201,6700802,,,2024-10-23,清算の結了等,,,2015-10-05,1,,,,,,0
1247,5180002051424,登記記録の閉鎖等,0,2024-10-28,2024-10-11,有限会社光田商店,,有限会社,愛知県,名古屋市西区,城西４丁目５番６号,,23,104,4510031,,,2024-10-11,清算の結了等,,,2015-10-05,1,,,,,ミツダショウテン,0
1249,5180003021392,登記記録の閉鎖等,0,2024-10-28,2024-10-16,合同会社ＡＩＤ,,合同会社,愛知県,名古屋市中区,栄５丁目２６番地３９号ＧＳ栄ビル３Ｆ,,23,106,4600008,,,2024-10-16,清算の結了等,,,2020-07-14,1,,,,,エイド,0
1265,5240001053761,登記記録の閉鎖等,0,2024-10-28,2024-10-21,株式会社中野,,株式会社,広島県,広島市中区,銀山町１２番２２号,,34,101,7300022,,,2024-10-21,清算の結了等,,,2019-01-07,1,,,,,ナカノ,0
1279,5290002005212,登記記録の閉鎖等,0,2024-10-28,2024-10-08,有限会社大輪自動車工業,,有限会社,福岡県,福岡市東区,多の津５丁目２７番９号,,40,131,8130034,,,2024-10-08,清算の結了等,,,2015-10-05,1,,,,,ダイリンジドウシャコウギョウ,0
1281,5290005004120,登記記録の閉鎖等,0,2024-10-28,2024-09-24,特定非営利活動法人自閉症くらし応援舎ＴＯＵＣＨ,,その他の設立登記法人,福岡県,福岡市東区,箱崎１丁目１９番９号優箱崎ビル１階２号,,40,131,8120053,,,2024-09-24,清算の結了等,,,2015-10-05,1,,,,,ジヘイショウクラシオウエンシャタッチ,0
1289,5310002017411,登記記録の閉鎖等,0,2024-10-28,2024-10-15,有限会社ヒカリ,,有限会社,長崎県,大村市,今富町１０３１番地１,,42,205,8560018,,,2024-10-15,清算の結了等,,,2015-10-05,1,,,,,ヒカリ,0
1295,5350003001781,登記記録の閉鎖等,0,2024-10-28,2024-10-15,合資会社元日田家具店,,合資会社,宮崎県,小林市,細野１６０１番地,,45,205,8860004,,,2024-10-15,清算の結了等,,,2015-10-05,1,,,,,ガンジツダカグテン,0
1302,5380001003843,登記記録の閉鎖等,0,2024-10-28,2024-10-11,株式会社ＡＬＶＥＡＲＥ,,株式会社,福島県,福島市,舘ノ内１９番地の８,,07,201,9608225,,,2024-10-11,清算の結了等,,,2015-10-05,1,,,,,,0
1305,5380005000267,登記記録の閉鎖等,0,2024-10-28,2024-10-11,医療法人社団鈴木医院,,その他の設立登記法人,福島県,福島市,八木田字神明１４９番地の１,,07,201,9608164,,,2024-10-11,清算の結了等,,,2015-10-05,1,,,,,スズキイイン,0
1307,5400001001225,登記記録の閉鎖等,0,2024-10-28,2024-10-17,株式会社日建ホーム不動産,,株式会社,岩手県,盛岡市,上田２丁目２１番３号,,03,201,0200066,,,2024-10-17,清算の結了等,,,2015-10-05,1,,,,,ニッケンホームフドウサン,0
1333,6010003034641,登記記録の閉鎖等,0,2024-10-28,2024-10-11,ＦＡＬ　Ｊａｐａｎ　ＧＫ合同会社,,合同会社,東京都,千代田区,丸の内２丁目３番２号郵船ビルアルタードムス・ジャパン株式会社内,,13,101,1000005,,,2024-10-11,清算の結了等,,,2021-04-19,1,,,,,エフエーエルジャパンジーケー,0
1334,6010103001723,登記記録の閉鎖等,0,2024-10-28,2024-10-23,合同会社ＳＮＹＨＰ．,,合同会社,東京都,八王子市,兵衛１丁目１６－５,,13,201,1920918,,,2024-10-23,清算の結了等,,,2021-07-01,1,,,,,スナイプ,0
1347,6010403014656,登記記録の閉鎖等,0,2024-10-28,2024-10-10,合同会社さきがけスクエア・ツー,,合同会社,東京都,港区,虎ノ門３丁目２２番１０－２０１号,,13,103,1050001,,,2024-10-10,清算の結了等,,,2016-04-04,1,,,,,サキガケスクエアツー,0
1358,6010701025454,登記記録の閉鎖等,0,2024-10-28,2024-10-11,イーアレンジ株式会社,,株式会社,東京都,中央区,銀座７丁目１３番６号,,13,102,1040061,,,2024-10-11,清算の結了等,,,2015-10-05,1,,,,,イーアレンジ,0
1372,6011301007628,登記記録の閉鎖等,0,2024-10-28,2024-10-23,株式会社リンクス,,株式会社,東京都,杉並区,浜田山２丁目１５番１－２２２号,,13,115,1680065,,,2024-10-23,合併による解散等,4010003032432,令和６年７月３１日東京都中央区銀座一丁目１６番７号５Ｆ合同会社ＩＴブレイン（4010003032432）に合併し解散,2015-10-05,1,,,,,リンクス,0
1392,6020001069515,登記記録の閉鎖等,0,2024-10-28,2024-10-11,株式会社スリーエム,,株式会社,神奈川県,川崎市中原区,宮内２丁目６番１１号,,14,133,2110051,,,2024-10-11,合併による解散等,5020001070309,令和６年１０月１日川崎市中原区宮内二丁目６番９号株式会社モルテック（5020001070309）に合併し解散,2015-10-05,1,,,,,スリーエム,0
1395,6020001134946,登記記録の閉鎖等,0,2024-10-28,2024-10-10,株式会社島のみらい研究所,,株式会社,神奈川県,横浜市港南区,笹下５丁目２番３７号ニューライフ港南Ａ－３０７号,,14,111,2340052,,,2024-10-10,清算の結了等,,,2020-02-14,1,,,,,シマノミライケンキュウジョ,0
1401,6020002064218,登記記録の閉鎖等,0,2024-10-28,2024-10-09,有限会社コスモハーモニー研究所,,有限会社,神奈川県,横浜市栄区,小山台２丁目１３番２１号,,14,115,2470002,,,2024-10-09,清算の結了等,,,2015-10-05,1,,,,,コスモハーモニーケンキュウショ,0
1419,6030001130127,登記記録の閉鎖等,0,2024-10-28,2024-10-18,ｓｔｅｌｌａｒ株式会社,,株式会社,東京都,品川区,西五反田７丁目２４番８号リベルテ西五反田４０２号室,,13,109,1410031,,,2024-10-18,清算の結了等,,,2019-04-02,1,,,,,,0
1431,6040001043807,登記記録の閉鎖等,0,2024-10-28,2024-10-17,株式会社関東ワンダー社,,株式会社,茨城県,取手市,駒場２丁目５番５号,,08,217,3020027,,,2024-10-17,清算の結了等,,,2015-10-05,1,,,,,カントウワンダーシャ,0
1437,6040002102801,登記記録の閉鎖等,0,2024-10-28,2024-10-22,有限会社三橋輪業,,有限会社,千葉県,いすみ市,苅谷３３９番地,,12,238,2980123,,,2024-10-22,清算の結了等,,,2015-10-05,1,,,,,ミツハシリンギョウ,0
1439,6050001050918,登記記録の閉鎖等,0,2024-10-28,2024-10-21,風林火山株式会社,,株式会社,茨城県,守谷市,松ケ丘３丁目１７番４号,,08,224,3020127,,,2024-10-21,清算の結了等,,,2022-04-08,1,,,,,フウリンカザン,0
1453,6080403003693,登記記録の閉鎖等,0,2024-10-28,2024-10-24,６３ＣＡＮＶＡＳ合同会社,,合同会社,静岡県,湖西市,駅南３丁目７番３８号,,22,221,4310427,,,2024-10-24,清算の結了等,,,2018-08-02,1,,,,,ロクサンキャンバス,0
1460,6110001034105,登記記録の閉鎖等,0,2024-10-28,2024-10-22,総和株式会社,,株式会社,新潟県,三条市,荒町２丁目７番２１号,,15,204,9550083,,,2024-10-22,清算の結了等,,,2019-06-24,1,,,,,ソウワ,0
1462,6110002032636,登記記録の閉鎖等,0,2024-10-28,2024-10-22,有限会社石勝,,有限会社,新潟県,南魚沼市,浦佐５６５５番地１,,15,226,9497302,,,2024-10-22,清算の結了等,,,2015-10-05,1,,,,,イシカツ,0
1464,6120001057220,登記記録の閉鎖等,0,2024-10-28,2024-10-18,冨岡商事株式会社,,株式会社,大阪府,大阪市淀川区,十三本町１丁目７番１７号,,27,123,5320024,,,2024-10-18,清算の結了等,,,2015-10-05,1,,,,,トミオカショウジ,0
1481,6120905002767,登記記録の閉鎖等,0,2024-10-28,2024-10-22,特定非営利活動法人摂津市水泳連盟,,その他の設立登記法人,大阪府,摂津市,香露園８番１号,,27,224,5660034,,,2024-10-22,清算の結了等,,,2015-10-05,1,,,,,セッツシスイエイレンメイ,0
1490,6140001065122,登記記録の閉鎖等,0,2024-10-28,2024-10-24,ＭＫＳ株式会社,,株式会社,兵庫県,姫路市,仁豊野９４３番地２８０,,28,201,6700801,,,2024-10-24,清算の結了等,,,2015-10-05,1,,,,,エムケーエス,0
1502,6150001024201,登記記録の閉鎖等,0,2024-10-28,2024-10-18,成光株式会社,,株式会社,大阪府,大阪市平野区,長吉川辺３丁目１０番１５号,,27,126,5470014,,,2024-10-18,清算の結了等,,,2020-11-17,1,,,,,セイコウ,0
1526,6180302010500,登記記録の閉鎖等,0,2024-10-28,2024-10-18,株式会社蘭華,,株式会社,愛知県,新城市,玖老勢字清水１２番地１,,23,221,4411945,,,2024-10-18,清算の結了等,,,2015-10-05,1,,,,,ランカ,0
1528,6180305009515,登記記録の閉鎖等,0,2024-10-28,2024-10-21,ツイテル労働者協同組合,,その他の設立登記法人,愛知県,刈谷市,広小路２丁目１０番地,,23,210,4480844,,,2024-10-21,清算の結了等,,,2023-09-25,1,,,,,ツイテル,0
1548,6290001053681,登記記録の閉鎖等,0,2024-10-28,2024-09-27,アサヒプロダクト株式会社,,株式会社,福岡県,大牟田市,新港町６番地,,40,202,8360061,,,2024-09-27,清算の結了等,,,2015-10-05,1,,,,,アサヒプロダクト,0
1556,6290002006977,登記記録の閉鎖等,0,2024-10-28,2024-09-27,有限会社タシロ薬局,,有限会社,福岡県,福岡市早良区,高取１丁目２０番１０－５０３号,,40,137,8140011,,,2024-09-27,清算の結了等,,,2015-10-05,1,,,,,タシロヤッキョク,0
1559,6300001012041,登記記録の閉鎖等,0,2024-10-28,2024-10-23,株式会社大久保電設,,株式会社,佐賀県,武雄市,橘町大字永島６４０２番地１,,41,206,8430014,,,2024-10-23,清算の結了等,,,2020-04-21,1,,,,,オオクボデンセツ,0
1562,6310005003085,登記記録の閉鎖等,0,2024-10-28,2024-10-10,特定非営利活動法人青空会オンブズマン九州,,その他の設立登記法人,長崎県,佐世保市,横尾町１９３３番地,,42,202,8570018,,,2024-10-10,清算の結了等,,,2015-10-05,1,,,,,アオゾラカイオンブズマンキュウシュウ,0
1575,6360002015491,登記記録の閉鎖等,0,2024-10-28,2024-10-23,有限会社上工業,,有限会社,沖縄県,沖縄市,泡瀬４丁目２０番２２号,,47,211,9042172,,,2024-10-23,清算の結了等,,,2015-10-05,1,,,,,カミコウギョウ,0
1583,6430001045904,登記記録の閉鎖等,0,2024-10-28,2024-10-25,株式会社アースライフ,,株式会社,北海道,札幌市中央区,南二条西４丁目１番地,,01,101,0600062,,,2024-10-25,清算の結了等,,,2015-10-05,1,,,,,アースライフ,0
1610,7010401041643,登記記録の閉鎖等,0,2024-10-28,2024-10-04,株式会社フラミンゴ,,株式会社,東京都,港区,六本木４丁目３番１１号,,13,103,1060032,,,2024-10-04,清算の結了等,,,2015-10-05,1,,,,,フラミンゴ,0
1612,7010401149164,登記記録の閉鎖等,0,2024-10-28,2024-10-07,株式会社グリーンエンジニアリングサービス,,株式会社,東京都,港区,赤坂２丁目１６番６号,,13,103,1070052,,,2024-10-07,清算の結了等,,,2019-11-14,1,,,,,グリーンエンジニアリングサービス,0
1613,7010401169609,登記記録の閉鎖等,0,2024-10-28,2024-10-11,株式会社ルーンマスター,,株式会社,東京都,港区,北青山１丁目３番６号ＳＩビル青山,,13,103,1070061,,,2024-10-11,清算の結了等,,,2022-09-12,1,,,,,ルーンマスター,0
1633,7010701028646,登記記録の閉鎖等,0,2024-10-28,2024-10-15,株式会社ペットシア,,株式会社,東京都,文京区,本郷１丁目３３番４号ヘミニスＩ４階,00111630,13,105,1130033,,,2024-10-15,清算の結了等,,,2015-10-05,1,,,,,ペットシア,0
1634,7010701042275,登記記録の閉鎖等,0,2024-10-28,2024-10-15,株式会社Ｏ－ＤＥＮ,,株式会社,東京都,品川区,西品川１丁目１番１号住友不動産大崎ガーデンタワー,,13,109,1410033,,,2024-10-15,合併による解散等,8013301013364,令和６年１０月１５日東京都品川区西品川一丁目１番１号住友不動産大崎ガーデンタワーサミー株式会社（8013301013364）に合併し解散,2022-02-25,1,,,,,オデン,0
1658,7011801008991,登記記録の閉鎖等,0,2024-10-28,2024-10-07,株式会社成建,,株式会社,東京都,足立区,中川１丁目９番２号,,13,121,1200002,,,2024-10-07,清算の結了等,,,2015-10-05,1,,,,,セイケン,0
1668,7013301004397,登記記録の閉鎖等,0,2024-10-28,2024-10-23,株式会社サンケイ開発,,株式会社,東京都,豊島区,東池袋１丁目１５番１０号,,13,116,1700013,,,2024-10-23,清算の結了等,,,2015-10-05,1,,,,,サンケイカイハツ,0
1670,7013301045318,登記記録の閉鎖等,0,2024-10-28,2024-09-18,株式会社ＧｉｖｅＴｈａｎｋｓ,,株式会社,東京都,豊島区,池袋３丁目３９－５マーキュリー池袋１－１０,,13,116,1710014,,,2024-09-18,清算の結了等,,,2020-03-09,1,,,,,ギブサンクス,0
1672,7013302017984,登記記録の閉鎖等,0,2024-10-28,2024-10-16,有限会社東京メディカルサポートダイビング倶楽部,,有限会社,東京都,豊島区,南池袋２丁目２６番７号,,13,116,1710022,,,2024-10-16,清算の結了等,,,2015-10-05,1,,,,,トウキョウメディカルサポートダイビングクラブ,0
1705,7030001134936,登記記録の閉鎖等,0,2024-10-28,2024-10-21,株式会社和なり,,株式会社,埼玉県,所沢市,東狭山ケ丘１丁目１０番１号,,11,208,3591106,,,2024-10-21,清算の結了等,,,2020-01-28,1,,,,,ワナリ,0
1712,7030003012306,登記記録の閉鎖等,0,2024-10-28,2024-10-22,合同会社夢実,,合同会社,埼玉県,蕨市,塚越２丁目１５番３号サンライズビル,,11,223,3350002,,,2024-10-22,清算の結了等,,,2018-08-14,1,,,,,ユミ,0
1725,7040002053234,登記記録の閉鎖等,0,2024-10-28,2024-10-22,有限会社エヌケイ工業,,有限会社,千葉県,松戸市,五香７丁目７番地の６,,12,207,2702213,,,2024-10-22,清算の結了等,,,2015-10-05,1,,,,,エヌケイコウギョウ,0
1738,7080001005471,登記記録の閉鎖等,0,2024-10-28,2024-10-23,山本商事株式会社,,株式会社,静岡県,静岡市葵区,二番町８番地の６,,22,101,4200072,,,2024-10-23,清算の結了等,,,2015-10-05,1,,,,,ヤマモトショウジ,0
1758,7120001234108,登記記録の閉鎖等,0,2024-10-28,2024-10-18,株式会社ＯＣＴＯ,,株式会社,大阪府,大阪市港区,弁天２丁目１番８号弁天コーポ１階,,27,107,5520007,,,2024-10-18,清算の結了等,,,2020-12-25,1,,,,,オクト,0
1759,7120001235717,登記記録の閉鎖等,0,2024-10-28,2024-10-23,株式会社ＥＣＯＰ,,株式会社,大阪府,大阪市東成区,玉津１丁目９－２０,,27,115,5370023,,,2024-10-23,清算の結了等,,,2021-03-04,1,,,,,エコップ,0
1771,7120101004815,登記記録の閉鎖等,0,2024-10-28,2024-10-24,株式会社テクノヒラノ,,株式会社,大阪府,堺市中区,陶器北１１６８番地の４,,27,142,5998242,,,2024-10-24,清算の結了等,,,2015-10-05,1,,,,,テクノヒラノ,0
1792,7180001118115,登記記録の閉鎖等,0,2024-10-28,2024-10-15,株式会社三宅商事,,株式会社,愛知県,名古屋市中区,大井町２番１号,,23,106,4600015,,,2024-10-15,清算の結了等,,,2015-10-05,1,,,,,ミヤケショウジ,0
1820,7280002004485,登記記録の閉鎖等,0,2024-10-28,2024-10-25,有限会社アダチ,,有限会社,島根県,安来市,新十神町１８５番地,,32,206,6920021,,,2024-10-25,清算の結了等,,,2015-10-05,1,,,,,アダチ,0
1829,7290001099773,登記記録の閉鎖等,0,2024-10-28,2024-09-27,クローバー警備株式会社,,株式会社,福岡県,三潴郡大木町,大字蛭池１０９３番地サンマリノ大木Ｂ棟１５号,,40,522,8300411,,,2024-09-27,清算の結了等,,,2022-12-06,1,,,,,クローバーケイビ,0
1839,7310001011173,登記記録の閉鎖等,0,2024-10-28,2024-10-17,雲仙エコロ塩株式会社,,株式会社,長崎県,雲仙市,小浜町飛子３１０８－８,,42,213,8540503,,,2024-10-17,清算の結了等,,,2015-10-05,1,,,,,ウンゼンエコロジオ,0
1841,7330002023422,登記記録の閉鎖等,0,2024-10-28,2024-10-21,有限会社大阿蘇木材センター,,有限会社,熊本県,阿蘇郡産山村,大字山鹿４９３番地の２,,43,425,8692703,,,2024-10-21,清算の結了等,,,2015-10-05,1,,,,,オオアソモクザイセンター,0
1854,7400005002894,登記記録の閉鎖等,0,2024-10-28,2024-10-16,特定非営利活動法人ワークはちまんたい,,その他の設立登記法人,岩手県,八幡平市,田頭第３３地割１１１番地４６,,03,214,0287112,,,2024-10-16,清算の結了等,,,2015-10-05,1,,,,,ワークハチマンタイ,0
1876,8010001055704,登記記録の閉鎖等,0,2024-10-28,2024-10-15,扶桑實業株式会社,,株式会社,東京都,中央区,銀座１丁目７番１６号,,13,102,1040061,,,2024-10-15,清算の結了等,,,2015-10-05,1,,,,,フソウジツギョウ,0
1887,8010002005427,登記記録の閉鎖等,0,2024-10-28,2024-10-11,有限会社平和文化,,有限会社,東京都,文京区,本郷２丁目２３番３号,,13,105,1130033,,,2024-10-11,清算の結了等,,,2015-10-05,1,,,,,ヘイワブンカ,0
1888,8010002019484,登記記録の閉鎖等,0,2024-10-28,2024-10-01,有限会社経営法学倶楽部,,有限会社,東京都,千代田区,丸の内１丁目９番２号グラントウキョウサウスタワー１３階,,13,101,1000005,,,2024-10-01,合併による解散等,1010001038590,令和６年１０月１日東京都千代田区丸の内一丁目９番２号グラントウキョウサウスタワー１３階株式会社エム・エル・デイ（1010001038590）に合併し解散,2015-10-05,1,,,,,ケイエイホウガククラブ,0
1889,8010003019855,登記記録の閉鎖等,0,2024-10-28,2024-10-09,Ｐａｔｔｅｒｎ　Ｄｅｖｅｌｏｐｍｅｎｔ　Ｊａｐａｎ合同会社,,合同会社,東京都,港区,赤坂１丁目１１番４４号赤坂インターシティ,,13,103,1070052,,,2024-10-09,清算の結了等,,,2015-10-05,1,,,,,パターンデベロップメントジャパン,0
1895,8010401017287,登記記録の閉鎖等,0,2024-10-28,2024-10-10,株式会社田中謙次建築研究所,,株式会社,神奈川県,横浜市旭区,鶴ケ峰本町１丁目４８番２６号,,14,112,2410021,,,2024-10-10,清算の結了等,,,2015-10-05,1,,,,,タナカケンジケンチクケンキュウショ,0
1921,8010701031748,登記記録の閉鎖等,0,2024-10-28,2024-10-11,ＨＳエナジーテック株式会社,,株式会社,東京都,品川区,東品川２丁目５番５号ハーバーワンビル,,13,109,1400002,,,2024-10-11,合併による解散等,9010701029733,令和６年１０月１日東京都品川区東品川二丁目５番５号ハーバーワンビルヘッドスプリング株式会社（9010701029733）に合併し解散,2015-12-18,1,,,,,エイチエスエナジーテック,0
1951,8013402006440,登記記録の閉鎖等,0,2024-10-28,2024-10-24,有限会社ウィザシステム,,有限会社,東京都,多摩市,連光寺５丁目１２番地の７,,13,224,2060021,,,2024-10-24,清算の結了等,,,2015-10-05,1,,,,,ウィザシステム,0
1963,8020005013483,登記記録の閉鎖等,0,2024-10-28,2024-10-11,一般社団法人立命館大学ラグビー部を応援する会,,その他の設立登記法人,神奈川県,横浜市港北区,篠原町２８６５番地新横浜ビルディング６階,,14,109,2220026,,,2024-10-11,清算の結了等,,,2018-01-30,1,,,,,リツメイカンダイガクラグビーブヲオウエンスルカイ,0
1974,8030001079214,登記記録の閉鎖等,0,2024-10-28,2024-10-16,株式会社小倉屋酒店,,株式会社,埼玉県,川口市,並木３丁目２番１６号,,11,203,3320034,,,2024-10-16,清算の結了等,,,2015-10-05,1,,,,,オグラヤサケテン,0
1984,8030005011255,登記記録の閉鎖等,0,2024-10-28,2024-10-21,坂戸鶴ヶ島管工事協同組合,,その他の設立登記法人,埼玉県,坂戸市,関間４丁目１番８号,,11,239,3500215,,,2024-10-21,清算の結了等,,,2015-10-05,1,,,,,サカドツルガシマカンコウジ,0
1994,8040002027939,登記記録の閉鎖等,0,2024-10-28,2024-10-22,有限会社かわそう,,有限会社,千葉県,船橋市,丸山３丁目５４番１２号,,12,204,2730048,,,2024-10-22,清算の結了等,,,2015-10-05,1,,,,,カワソウ,0
2014,8120001050990,登記記録の閉鎖等,0,2024-10-28,2024-10-08,大阪琺瑯株式会社,,株式会社,東京都,千代田区,丸の内３丁目４番２号,,13,101,1000005,,,2024-10-08,合併による解散等,5010001083682,令和６年１０月１日東京都千代田区丸の内三丁目４番２号株式会社ＪＰＭＣ（5010001083682）に合併し解散,2015-10-05,1,,,,,オオサカホウロウ,0
2020,8120001152705,登記記録の閉鎖等,0,2024-10-28,2024-10-22,株式会社たいよう,,株式会社,大阪府,寝屋川市,池田新町１番２２号,,27,215,5720038,,,2024-10-22,清算の結了等,,,2015-10-05,1,,,,,タイヨウ,0
2048,8180001138995,登記記録の閉鎖等,0,2024-10-28,2024-10-15,株式会社ＷＯＮＤＥＲ　ＳＯＵＲＣＥ,,株式会社,愛知県,名古屋市中区,千代田３丁目２８番４７号,,23,106,4600012,,,2024-10-15,清算の結了等,,,2019-11-28,1,,,,,ワンダーソース,0
2053,8180002006672,登記記録の閉鎖等,0,2024-10-28,2024-10-09,有限会社辻建築設計事務所,00072792,有限会社,愛知県,名古屋市熱田区,大宝１丁目１４番３－１３０５号,,23,109,4560062,,,2024-10-09,清算の結了等,,,2015-10-05,1,,,,,ツジケンチクセッケイジムショ,0
2066,8210001013740,登記記録の閉鎖等,0,2024-10-28,2024-10-18,株式会社西野会計,,株式会社,福井県,越前市,平出２丁目２番５号,,18,209,9150803,,,2024-10-18,清算の結了等,,,2015-10-05,1,,,,,ニシノカイケイ,0
2105,8320003000899,登記記録の閉鎖等,0,2024-10-28,2024-10-24,合資会社瓦屋呉服店,,合資会社,大分県,豊後高田市,中央通７０９番地１,,44,209,8790618,,,2024-10-24,清算の結了等,,,2015-10-05,1,,,,,カワラヤゴフクテン,0
2107,8330003003018,登記記録の閉鎖等,0,2024-10-28,2024-10-18,合資会社岩本商店,,合資会社,熊本県,下益城郡美里町,土喰１４０番地,,43,348,8614721,,,2024-10-18,清算の結了等,,,2015-10-05,1,,,,,イワモトショウテン,0
2108,8340001015922,登記記録の閉鎖等,0,2024-10-28,2024-10-21,農業法人株式会社めぐみ,,株式会社,東京都,板橋区,蓮根１丁目１６番１２号エビージュ蓮根１０２号,,13,119,1740046,,,2024-10-21,清算の結了等,,,2015-10-05,1,,,,,ノウギョウホウジンメグミ,0
2111,8360001001152,登記記録の閉鎖等,0,2024-10-28,2024-10-24,株式会社新城卓事務所,,株式会社,沖縄県,那覇市,高良３丁目３番１９号,,47,201,9010145,,,2024-10-24,清算の結了等,,,2015-10-05,1,,,,,,0
2120,8380005000594,登記記録の閉鎖等,0,2024-10-28,2024-10-08,農事組合法人吾妻小富士牛乳生産組合,,その他の設立登記法人,福島県,福島市,成川字石田７１番地,,07,201,9601108,,,2024-10-08,清算の結了等,,,2015-10-05,1,,,,,アズマコフジギュウニュウセイサンクミアイ,0
2143,9010005001513,登記記録の閉鎖等,0,2024-10-28,2024-10-21,東邦工業協同組合,,その他の設立登記法人,東京都,中央区,日本橋３丁目１２番２号,,13,102,1030027,,,2024-10-21,清算の結了等,,,2015-10-05,1,,,,,トウホウコウギョウ,0
2144,9010005022658,登記記録の閉鎖等,0,2024-10-28,2024-10-22,ＢＡＥＶ梅田エクセルハイツ特定目的会社,,その他の設立登記法人,東京都,千代田区,丸の内１丁目１１番１号,,13,101,1000005,,,2024-10-22,清算の結了等,,,2015-10-05,1,,,,,ビーエーイーヴィーウメダエクセルハイツ,0
2147,9010102000541,登記記録の閉鎖等,0,2024-10-28,2024-10-23,有限会社イースタンプランニング,,有限会社,東京都,八王子市,南大沢４丁目１２番地３－２０１,,13,201,1920364,,,2024-10-23,清算の結了等,,,2015-10-05,1,,,,,イースタンプランニング,0
2148,9010401134627,登記記録の閉鎖等,0,2024-10-28,2024-10-08,株式会社クロスエー,,株式会社,東京都,港区,麻布十番２丁目１６番１１号,,13,103,1060045,,,2024-10-08,清算の結了等,,,2017-10-26,1,,,,,クロスエー,0
2167,9010901018552,登記記録の閉鎖等,0,2024-10-28,2024-10-17,株式会社凛コーポレーション,,株式会社,東京都,世田谷区,喜多見８丁目１９番３号,,13,112,1570067,,,2024-10-17,清算の結了等,,,2015-10-05,1,,,,,リンコーポレーション,0
2180,9011101044711,登記記録の閉鎖等,0,2024-10-28,2024-10-09,株式会社Ｔ．Ｆ．Ｇ．－ＪＡＰＡＮ,,株式会社,東京都,港区,北青山２丁目７番１３号,,13,103,1070061,,,2024-10-09,清算の結了等,,,2015-10-05,1,,,,,ティーエフジージャパン,0
2208,9020001004592,登記記録の閉鎖等,0,2024-10-28,2024-10-24,株式会社平安商会,,株式会社,東京都,江東区,東雲１丁目９番４１－４３０２号,,13,108,1350062,,,2024-10-24,清算の結了等,,,2015-10-05,1,,,,,ヘイアンショウカイ,0
2216,9020002105571,登記記録の閉鎖等,0,2024-10-28,2024-10-10,有限会社ティアンドケイ,,有限会社,神奈川県,川崎市麻生区,金程３丁目９番８号,,14,137,2150006,,,2024-10-10,清算の結了等,,,2015-10-05,1,,,,,ティアンドケイ,0
2236,9030002044414,登記記録の閉鎖等,0,2024-10-28,2024-10-21,有限会社新日東ゴム製作所,,有限会社,埼玉県,草加市,松江６丁目１０番１７号,,11,221,3400013,,,2024-10-21,清算の結了等,,,2015-10-05,1,,,,,シンニットウゴムセイサクショ,0
2239,9030002114159,登記記録の閉鎖等,0,2024-10-28,2024-10-17,有限会社北武産業,,有限会社,埼玉県,深谷市,普済寺１０４１番地４,,11,218,3690203,,,2024-10-17,清算の結了等,,,2015-10-05,1,,,,,ホクブサンギョウ,0
2241,9030003015422,登記記録の閉鎖等,0,2024-10-28,2024-10-17,合同会社ｍｅｇｕｍｉ　ｓｕｎ　ｃｏｎｎｅｃｔｉｏｎ,,合同会社,埼玉県,鶴ヶ島市,大字下新田６２１番地３８０,,11,241,3502222,,,2024-10-17,清算の結了等,,,2020-06-22,1,,,,,メグミサンコネクション,0
2257,9080001002467,登記記録の閉鎖等,0,2024-10-28,2024-10-22,静清バッティングスタジアム株式会社,,株式会社,静岡県,静岡市葵区,沓谷６丁目９番地の４,,22,101,4200816,,,2024-10-22,清算の結了等,,,2015-10-05,1,,,,,セイシンバッティングスタジアム,0
2259,9080101005122,登記記録の閉鎖等,0,2024-10-28,2024-10-24,株式会社正平荘,,株式会社,静岡県,伊豆の国市,古奈２５６番地の１,,22,225,4102201,,,2024-10-24,清算の結了等,,,2015-10-05,1,,,,,ショウヘイソウ,0
2268,9120001000796,登記記録の閉鎖等,0,2024-10-28,2024-10-18,株式会社Ｅｃｏ　Ｓｅｒｖｅ,,株式会社,大阪府,大阪市旭区,新森２丁目１１番２２号,,27,117,5350022,,,2024-10-18,清算の結了等,,,2015-10-05,1,,,,,エコサーブ,0
2285,9122001033578,登記記録の閉鎖等,0,2024-10-28,2024-10-21,株式会社マイユニ,,株式会社,大阪府,東大阪市,若江東町５丁目３番２号,,27,227,5780935,,,2024-10-21,清算の結了等,,,2020-04-06,1,,,,,マイユニ,0
2305,9180001099469,登記記録の閉鎖等,0,2024-10-28,2024-10-10,株式会社サンテックスディベロップメント,,株式会社,愛知県,あま市,本郷柿ノ木１３６番地の１,,23,237,4901116,,,2024-10-10,清算の結了等,,,2015-10-05,1,,,,,サンテックスディベロップメント,0
2310,9180001153564,登記記録の閉鎖等,0,2024-10-28,2024-10-09,株式会社ＰａｎＵｐ,,株式会社,愛知県,名古屋市中区,新栄町２丁目４番地,,23,106,4600004,,,2024-10-09,清算の結了等,,,2022-10-31,1,,,,,パンナップ,0
2316,9180002083463,登記記録の閉鎖等,0,2024-10-28,2024-10-08,有限会社斉藤建築,,有限会社,愛知県,半田市,鴉根町２丁目５８番地,,23,205,4750932,,,2024-10-08,清算の結了等,,,2015-10-05,1,,,,,サイトウケンチク,0
2324,9220002010941,登記記録の閉鎖等,0,2024-10-28,2024-10-22,有限会社任田商会,,有限会社,石川県,小松市,浮柳町ル３７番地１,,17,203,9230993,,,2024-10-22,清算の結了等,,,2015-10-05,1,,,,,トウダショウカイ,0
2331,9260002016555,登記記録の閉鎖等,0,2024-10-28,2024-10-22,有限会社インテリア松田,,有限会社,岡山県,倉敷市,吉岡３８２番地の２,,33,202,7100842,,,2024-10-22,清算の結了等,,,2015-10-05,1,,,,,インテリアマツダ,0
2334,9270002009847,登記記録の閉鎖等,0,2024-10-28,2024-10-24,有限会社石の安井,,有限会社,鳥取県,倉吉市,越殿町１６５１番地,,31,203,6820867,,,2024-10-24,清算の結了等,,,2015-10-05,1,,,,,イシノヤスイ,0
2356,9350005004440,登記記録の閉鎖等,0,2024-10-28,2024-10-18,高千穂通商店街協同組合,,その他の設立登記法人,宮崎県,小林市,細野１４０番地の１,,45,205,8860004,,,2024-10-18,清算の結了等,,,2015-10-05,1,,,,,タカチホドオリショウテンガイ,0
2361,9360005003994,登記記録の閉鎖等,0,2024-10-28,2024-10-25,特定非営利活動法人あゆみの会,,その他の設立登記法人,沖縄県,宮古島市,伊良部字池間添２６５番地,,47,214,9060502,,,2024-10-25,清算の結了等,,,2015-10-05,1,,,,,アユミノカイ,0
2366,9390001017062,登記記録の閉鎖等,0,2024-10-28,2024-10-22,株式会社蔵王温泉ガス,,株式会社,山形県,山形市,蔵王温泉６８１番地１,,06,201,9902301,,,2024-10-22,合併による解散等,5370001051372,令和６年１０月１日宮城県仙台市宮城野区中野字神明１３０番地株式会社ガスワン東北（5370001051372）に合併し解散,2022-11-02,1,,,,,ザオウオンセンガス,0
2368,9400005004765,登記記録の閉鎖等,0,2024-10-28,2024-10-15,農事組合法人九戸地方ふるさと環境保全組合,,その他の設立登記法人,岩手県,九戸郡軽米町,大字上舘第２３地割字軽米渡１９番地２６,,03,501,0286301,,,2024-10-15,清算の結了等,,,2015-10-05,1,,,,,クノヘチホウフルサトカンキョウホゼンクミアイ,0
2374,9430001076137,登記記録の閉鎖等,0,2024-10-28,2024-10-25,株式会社Ｌｉｆｅ　ｉｎｎｏｖａｔｉｏｎ,,株式会社,北海道,札幌市中央区,南四条西１丁目１３番地２,,01,101,0640804,,,2024-10-25,清算の結了等,,,2018-03-22,1,,,,,ライフイノベーション,0
