sequenceNumber,corporateNumber,process,correct,updateDate,changeDate,name,nameImageId,kind,prefectureName,cityName,streetNumber,addressImageId,prefectureCode,cityCode,postCode,addressOutside,addressOutsideImageId,closeDate,closeCause,successorCorporateNumber,changeCause,assignmentDate,latest,enName,enPrefectureName,enCityName,enAddressOutside,furigana,hihyoji
31,1010801012563,登記記録の閉鎖等,0,2025-09-03,2025-08-19,株式会社リエゾン,,株式会社,東京都,大田区,羽田１丁目４番５号,,13,111,1440043,,,2025-08-19,清算の結了等,,,2015-10-05,1,,,,,リエゾン,0
35,1010903002859,登記記録の閉鎖等,0,2025-09-03,2025-08-25,２５８合同会社,,合同会社,東京都,世田谷区,羽根木２丁目２５番２０号,,13,112,1560042,,,2025-08-25,清算の結了等,,,2015-10-05,1,,,,,ニゴハチ,0
39,1011001117574,登記記録の閉鎖等,0,2025-09-03,2025-08-04,株式会社デジタルインサイトテクノロジー,,株式会社,東京都,渋谷区,神宮前６丁目２３番４号桑野ビル２階,,13,113,1500001,,,2025-08-04,清算の結了等,,,2017-07-25,1,,,,,デジタルインサイトテクノロジー,0
45,1011002009688,登記記録の閉鎖等,0,2025-09-03,2025-08-01,有限会社ハナブサ商会,,有限会社,東京都,渋谷区,恵比寿西１丁目９番１号,,13,113,1500021,,,2025-08-01,合併による解散等,1011001169500,令和７年８月１日東京都渋谷区恵比寿西一丁目９番１号株式会社鈴木ビル（1011001169500）に合併し解散,2015-10-05,1,,,,,ハナブサショウカイ,0
76,1020001129430,登記記録の閉鎖等,0,2025-09-03,2025-08-13,株式会社福井,,株式会社,神奈川県,横浜市都筑区,加賀原１丁目２４番１１号,,14,118,2240055,,,2025-08-13,清算の結了等,,,2019-01-08,1,,,,,フクイ,0
78,1020003022105,登記記録の閉鎖等,0,2025-09-03,2025-08-19,合同会社ＫＩＤ,,合同会社,神奈川県,横浜市鶴見区,向井町４丁目８４番地１号,,14,101,2300037,,,2025-08-19,清算の結了等,,,2022-07-12,1,,,,,キッド,0
116,1080402021230,登記記録の閉鎖等,0,2025-09-03,2025-08-28,有限会社左口電気,,有限会社,静岡県,磐田市,大久保７６２番地８,,22,211,4380002,,,2025-08-28,清算の結了等,,,2015-10-05,1,,,,,サグチデンキ,0
119,1110001037962,登記記録の閉鎖等,0,2025-09-03,2025-08-06,株式会社レアーレ,,株式会社,新潟県,長岡市,巻島１丁目２９番地,,15,202,9402005,,,2025-08-06,清算の結了等,,,2023-11-09,1,,,,,レアーレ,0
125,1120001246629,登記記録の閉鎖等,0,2025-09-03,2025-08-21,Ａｒｅａ３３株式会社,,株式会社,大阪府,大阪市西区,西本町１丁目８番２号三晃ビル９Ｆ,,27,106,5500005,,,2025-08-21,清算の結了等,,,2022-06-22,1,,,,,エリアサーティースリー,0
137,1120101003616,登記記録の閉鎖等,0,2025-09-03,2025-08-27,株式会社鈴木商店,,株式会社,大阪府,堺市中区,毛穴町１４０番地の１,,27,142,5998266,,,2025-08-27,清算の結了等,,,2015-10-05,1,,,,,スズキショウテン,0
152,1150005009483,登記記録の閉鎖等,0,2025-09-03,2025-08-26,ＮＰＯ法人ねこのわＮａｒａ,,その他の設立登記法人,奈良県,生駒市,俵口町９５番地８セントポリアＨ－２１０,,29,209,6300243,,,2025-08-26,清算の結了等,,,2023-05-17,1,,,,,ネコノワナラ,0
153,1180001101919,登記記録の閉鎖等,0,2025-09-03,2025-08-13,ＥＩＴＥＣ株式会社,,株式会社,愛知県,名古屋市中区,千代田３丁目１５番１２号,,23,106,4600012,,,2025-08-13,清算の結了等,,,2015-10-05,1,,,,,イーアイテック,0
157,1180002023856,登記記録の閉鎖等,0,2025-09-03,2025-08-20,有限会社タツト・デザインオフイス,,有限会社,愛知県,名古屋市西区,天塚町１丁目１０８番地の１,00080587,23,104,4510021,,,2025-08-20,清算の結了等,,,2015-10-05,1,,,,,タツトデザインオフイス,0
158,1180002071830,登記記録の閉鎖等,0,2025-09-03,2025-08-20,有限会社春海情報センター,,有限会社,愛知県,瀬戸市,陶原町４丁目２７番地,,23,204,4890805,,,2025-08-20,清算の結了等,,,2015-10-05,1,,,,,シュンカイジョウホウセンター,0
169,1220001012483,登記記録の閉鎖等,0,2025-09-03,2025-09-01,株式会社みや本,,株式会社,石川県,小松市,宝町１３番地,,17,203,9230803,,,2025-09-01,清算の結了等,,,2015-10-05,1,,,,,ミヤモト,0
180,1250001003496,登記記録の閉鎖等,0,2025-09-03,2025-09-01,株式会社日電商会,,株式会社,山口県,宇部市,南浜町２丁目２番７号,,35,202,7550063,,,2025-09-01,合併による解散等,2250001002919,令和７年９月１日山口県宇部市南浜町二丁目２番７号安全重機株式会社（2250001002919）に合併し解散,2015-10-05,1,,,,,ニチデンショウカイ,0
192,1290001000481,登記記録の閉鎖等,0,2025-09-03,2025-08-25,ハタエ石油株式会社,,株式会社,福岡県,福岡市西区,元浜１丁目８番２２号,,40,135,8190386,,,2025-08-25,合併による解散等,9020001020367,令和７年８月１日横浜市港北区篠原町１２００番地三和エナジー株式会社（9020001020367）に合併し解散,2015-10-05,1,,,,,ハタエセキユ,0
196,1290001097262,登記記録の閉鎖等,0,2025-09-03,2025-08-07,株式会社ＫＧ．ＢＬＤ,,株式会社,福岡県,福岡市東区,多の津５丁目３２番３２－３０２号,,40,131,8130034,,,2025-08-07,清算の結了等,,,2022-04-20,1,,,,,ケージービルド,0
198,1290002000852,登記記録の閉鎖等,0,2025-09-03,2025-08-25,株式会社ハナエキスプレス,,株式会社,福岡県,福岡市西区,元浜１丁目８番２２号,,40,135,8190386,,,2025-08-25,合併による解散等,9020001020367,令和７年８月１日横浜市港北区篠原町１２００番地三和エナジー株式会社（9020001020367）に合併し解散,2015-10-05,1,,,,,ハナエキスプレス,0
203,1310001002005,登記記録の閉鎖等,0,2025-09-03,2025-09-02,株式会社松下工務店,,株式会社,長崎県,長崎市,西坂町５番２１号,,42,201,8500051,,,2025-09-02,清算の結了等,,,2015-10-05,1,,,,,マツシタコウムテン,0
220,1380002034429,登記記録の閉鎖等,0,2025-09-03,2025-08-25,会津西部林業有限会社,,有限会社,福島県,大沼郡会津美里町,吉田字村中甲１７３番地,,07,447,9696241,,,2025-08-25,清算の結了等,,,2015-10-05,1,,,,,,0
228,1430001013312,登記記録の閉鎖等,0,2025-09-03,2025-08-15,芳賀商事株式会社,,株式会社,北海道,札幌市中央区,北五条西３丁目,,01,101,0600005,,,2025-08-15,清算の結了等,,,2015-10-05,1,,,,,ハガショウジ,0
240,1470001008481,登記記録の閉鎖等,0,2025-09-03,2025-09-01,タナカエンタープライゼズ株式会社,,株式会社,香川県,善通寺市,上吉田町２丁目１番２号,,37,204,7650011,,,2025-09-01,清算の結了等,,,2015-10-05,1,,,,,タナカエンタープライゼズ,0
247,1500002013460,登記記録の閉鎖等,0,2025-09-03,2025-08-29,有限会社野本設備,,有限会社,愛媛県,八幡浜市,大平１番耕地６６７番地,,38,204,7960003,,,2025-08-29,清算の結了等,,,2015-10-05,1,,,,,ノモトセツビ,0
250,2010001066558,登記記録の閉鎖等,0,2025-09-03,2025-08-13,株式会社メディカルフォーラム,,株式会社,東京都,千代田区,二番町１１番地１,,13,101,1020084,,,2025-08-13,清算の結了等,,,2015-10-05,1,,,,,メディカルフォーラム,0
258,2010003038984,登記記録の閉鎖等,0,2025-09-03,2025-08-14,ＲＢソーラーハバナ合同会社,,合同会社,東京都,千代田区,紀尾井町４番１号ニューオータニガーデンコート１９階フィンポート税理士法人内,,13,101,1020094,,,2025-08-14,清算の結了等,,,2022-11-04,1,,,,,アールビーソーラーハバナ,0
267,2010402016392,登記記録の閉鎖等,0,2025-09-03,2025-08-06,新電通興業有限会社,,有限会社,千葉県,船橋市,本中山４丁目８番６号,,12,204,2730035,,,2025-08-06,清算の結了等,,,2015-10-05,1,,,,,シンデンツウコウギョウ,0
272,2010802012504,登記記録の閉鎖等,0,2025-09-03,2025-09-01,有限会社福福屋,,有限会社,東京都,板橋区,大山東町２２番１号,,13,119,1730014,,,2025-09-01,合併による解散等,8011402007715,令和７年９月１日東京都板橋区大山東町２２番１号株式会社福屋（8011402007715）に合併し解散,2015-10-05,1,,,,,フクフクヤ,0
275,2011001071746,登記記録の閉鎖等,0,2025-09-03,2025-09-01,株式会社バイオミミック,,株式会社,東京都,世田谷区,中町２丁目２３番４号,,13,112,1580091,,,2025-09-01,清算の結了等,,,2015-10-05,1,,,,,バイオミミック,0
297,2012301000873,登記記録の閉鎖等,0,2025-09-03,2025-08-20,株式会社構研設計,,株式会社,東京都,町田市,旭町１丁目２２番２１号,,13,209,1940023,,,2025-08-20,清算の結了等,,,2015-10-05,1,,,,,コウケンセッケイ,0
310,2020001025760,登記記録の閉鎖等,0,2025-09-03,2025-08-20,株式会社大津ビル,,株式会社,神奈川県,横浜市中区,元町３丁目１２０番地,,14,104,2310861,,,2025-08-20,清算の結了等,,,2015-10-05,1,,,,,オオツビル,0
318,2020002053570,登記記録の閉鎖等,0,2025-09-03,2025-08-20,セニートレーディング有限会社,,有限会社,神奈川県,横浜市中区,山下町１２－２－１００６,,14,104,2310023,,,2025-08-20,清算の結了等,,,2015-10-05,1,,,,,セニートレーディング,0
319,2020003014547,登記記録の閉鎖等,0,2025-09-03,2025-08-20,藤土地建物合同会社,,合同会社,神奈川県,川崎市幸区,南加瀬１丁目１１番２３号,,14,132,2120055,,,2025-08-20,清算の結了等,,,2018-07-02,1,,,,,フジトチタテモノ,0
332,2030005015922,登記記録の閉鎖等,0,2025-09-03,2025-08-28,ＮＰＯ法人オール・アシスト,,その他の設立登記法人,埼玉県,狭山市,柏原２５２０番地の１９２狭山ニュータウン６６－３,,11,215,3501335,,,2025-08-28,清算の結了等,,,2015-10-05,1,,,,,オールアシス,0
333,2030005021350,登記記録の閉鎖等,0,2025-09-03,2025-09-01,一般社団法人ハート＆サインコミュニケーション,,その他の設立登記法人,埼玉県,春日部市,大沼４丁目４７番地１,,11,214,3440038,,,2025-09-01,清算の結了等,,,2023-08-22,1,,,,,ハートアンドサインコミュニケーション,0
343,2040002034767,登記記録の閉鎖等,0,2025-09-03,2025-08-07,有限会社スマイルシティーホーム,,有限会社,千葉県,市川市,南行徳１丁目１番１号,,12,203,2720138,,,2025-08-07,清算の結了等,,,2015-10-05,1,,,,,スマイルシティーホーム,0
358,2080002000550,登記記録の閉鎖等,0,2025-09-03,2025-08-29,有限会社イトウフロア,,有限会社,静岡県,静岡市葵区,北安東４丁目１４番１８号,,22,101,4200881,,,2025-08-29,清算の結了等,,,2015-10-05,1,,,,,イトウフロア,0
374,2120001252667,登記記録の閉鎖等,0,2025-09-03,2025-08-21,株式会社３ｒｄｓｔａｇｅ,,株式会社,大阪府,大阪市中央区,日本橋１丁目１７番１７号ピカソ日本一ビル６０４号室,,27,128,5420073,,,2025-08-21,清算の結了等,,,2023-02-22,1,,,,,サードステージ,0
384,2120003010635,登記記録の閉鎖等,0,2025-09-03,2025-08-21,合同会社アミカアオートサービス,,合同会社,大阪府,大阪市住吉区,遠里小野３丁目２番３号,,27,120,5580032,,,2025-08-21,清算の結了等,,,2015-10-05,1,,,,,アミカアオートサービス,0
414,2150002003488,登記記録の閉鎖等,0,2025-09-03,2025-09-01,有限会社ダー企画,,有限会社,奈良県,奈良市,丸山２丁目４４９８番地の１２９,,29,201,6310056,,,2025-09-01,清算の結了等,,,2015-10-05,1,,,,,ダーキカク,0
415,2150002007456,登記記録の閉鎖等,0,2025-09-03,2025-09-01,有限会社橿原保険事務所,,有限会社,奈良県,橿原市,白橿町２丁目１９番８号,,29,205,6340051,,,2025-09-01,清算の結了等,,,2015-10-05,1,,,,,カシハラホケンジムショ,0
422,2180001006869,登記記録の閉鎖等,0,2025-09-03,2025-08-19,株式会社筒井電気商会,,株式会社,愛知県,名古屋市港区,小碓１丁目９０番地,,23,111,4550801,,,2025-08-19,清算の結了等,,,2015-10-05,1,,,,,ツツイデンキショウカイ,0
424,2180001080261,登記記録の閉鎖等,0,2025-09-03,2025-08-20,株式会社マルウメ,,株式会社,愛知県,瀬戸市,苗場町１１０番地,,23,204,4890983,,,2025-08-20,清算の結了等,,,2015-10-05,1,,,,,マルウメ,0
452,2220001014652,登記記録の閉鎖等,0,2025-09-03,2025-08-29,株式会社ｌａ．ｍｅｒ,,株式会社,石川県,加賀市,山代温泉神明町１３番地,,17,206,9220244,,,2025-08-29,清算の結了等,,,2015-10-05,1,,,,,ラメール,0
463,2240001054201,登記記録の閉鎖等,0,2025-09-03,2025-08-29,株式会社さくらファーム庄原,,株式会社,広島県,庄原市,永末町１４０番地５,,34,210,7270008,,,2025-08-29,清算の結了等,,,2019-04-10,1,,,,,サクラファームショウバラ,0
469,2250002000921,登記記録の閉鎖等,0,2025-09-03,2025-09-01,高木建設有限会社,,有限会社,山口県,山口市,大内矢田南４丁目１４番１０号,,35,203,7530222,,,2025-09-01,清算の結了等,,,2015-10-05,1,,,,,タカギケンセツ,0
488,2310001018355,登記記録の閉鎖等,0,2025-09-03,2025-09-01,ＲＥＤＥＥＭ株式会社,,株式会社,長崎県,長崎市,八千代町２番２－２０１号,,42,201,8500043,,,2025-09-01,清算の結了等,,,2023-04-11,1,,,,,リディーム,0
489,2310002017538,登記記録の閉鎖等,0,2025-09-03,2025-09-01,有限会社はるる,,有限会社,長崎県,大村市,陰平町２２４５番地１,,42,205,8560841,,,2025-09-01,清算の結了等,,,2015-10-05,1,,,,,ハルル,0
504,2350002002874,登記記録の閉鎖等,0,2025-09-03,2025-09-01,有限会社橘電業社,,有限会社,宮崎県,宮崎市,青葉町１５１番地２,,45,201,8800842,,,2025-09-01,清算の結了等,,,2015-10-05,1,,,,,タチバナデンギョウシャ,0
515,2390005008089,登記記録の閉鎖等,0,2025-09-03,2025-08-27,医療法人宗寿会,,その他の設立登記法人,山形県,鶴岡市,湯温海甲１２２番地１,,06,203,9997204,,,2025-08-27,清算の結了等,,,2015-10-05,1,,,,,ソウジュカイ,0
525,2430002042367,登記記録の閉鎖等,0,2025-09-03,2025-08-14,有限会社４ｔｏ３,,有限会社,北海道,札幌市清田区,北野三条１丁目２番１４号,,01,110,0040863,,,2025-08-14,清算の結了等,,,2015-10-05,1,,,,,フォートゥースリー,0
526,2450001006008,登記記録の閉鎖等,0,2025-09-03,2025-09-01,株式会社アスコ,,株式会社,北海道,旭川市,工業団地一条１丁目３番２０号,,01,204,0788271,,,2025-09-01,清算の結了等,,,2015-10-05,1,,,,,アスコ,0
527,2450002010413,登記記録の閉鎖等,0,2025-09-03,2025-08-27,有限会社まちの資材屋,,有限会社,北海道,士別市,武徳町四十線東三号,,01,220,0950062,,,2025-08-27,清算の結了等,,,2015-10-05,1,,,,,マチノシザイヤ,0
532,2500003002164,登記記録の閉鎖等,0,2025-09-03,2025-09-01,合同会社ほけんの野口,,合同会社,愛媛県,松山市,三番町１丁目８番地５,,38,201,7900003,,,2025-09-01,清算の結了等,,,2018-10-05,1,,,,,ホケンノノグチ,0
565,3010902012527,登記記録の閉鎖等,0,2025-09-03,2025-09-02,有限会社ヒトスギ,,有限会社,東京都,世田谷区,千歳台２丁目３２番７号,,13,112,1570071,,,2025-09-02,清算の結了等,,,2015-10-05,1,,,,,ヒトスギ,0
568,3011003016590,登記記録の閉鎖等,0,2025-09-03,2025-08-04,合同会社真,,合同会社,東京都,渋谷区,道玄坂２丁目２８番２号ＭＭビル２階,,13,113,1500043,,,2025-08-04,清算の結了等,,,2023-04-07,1,,,,,マコト,0
579,3011701005606,登記記録の閉鎖等,0,2025-09-03,2025-08-12,株式会社東昌自動車,,株式会社,東京都,江戸川区,西一之江２丁目３０番１７号,,13,123,1320023,,,2025-08-12,清算の結了等,,,2015-10-05,1,,,,,,0
605,3021002014124,登記記録の閉鎖等,0,2025-09-03,2025-08-27,有限会社エヌ・ワイ・ファクトリー,,有限会社,神奈川県,鎌倉市,台１丁目１５番８号,,14,204,2470061,,,2025-08-27,清算の結了等,,,2015-10-05,1,,,,,エヌワイファクトリー,0
628,3050003005740,登記記録の閉鎖等,0,2025-09-03,2025-08-04,合同会社一心工業,,合同会社,茨城県,神栖市,太田７０３番地１２５,,08,232,3140254,,,2025-08-04,清算の結了等,,,2021-04-06,1,,,,,イッシンコウギョウ,0
633,3060002035993,登記記録の閉鎖等,0,2025-09-03,2025-09-01,有限会社黒川呉服店,,有限会社,栃木県,足利市,葉鹿町３０４番地１,,09,202,3260143,,,2025-09-01,清算の結了等,,,2015-10-05,1,,,,,クロカワゴフクテン,0
635,3070001000766,登記記録の閉鎖等,0,2025-09-03,2025-09-01,株式会社カワノ,,株式会社,群馬県,前橋市,千代田町３丁目３番１９号,,10,201,3710022,,,2025-09-01,合併による解散等,2070001000767,令和７年９月１日群馬県前橋市千代田町三丁目３番１９号河野商事株式会社（2070001000767）に合併し解散,2015-10-05,1,,,,,カワノ,0
639,3070001015574,登記記録の閉鎖等,0,2025-09-03,2025-09-01,株式会社アラツク,,株式会社,群馬県,桐生市,三吉町２丁目６番１７号,,10,203,3760005,,,2025-09-01,清算の結了等,,,2015-10-05,1,,,,,アラック,0
641,3070002035803,登記記録の閉鎖等,0,2025-09-03,2025-08-29,利根養兎有限会社,00025918,有限会社,群馬県,沼田市,白沢町生枝１４６１番地の１,,10,206,3780122,,,2025-08-29,清算の結了等,,,2015-10-05,1,,,,,トネヨウト,0
645,3080401027061,登記記録の閉鎖等,0,2025-09-03,2025-08-26,株式会社Ｌｏｖｅ＆Ｐｅａｃｅ,,株式会社,静岡県,袋井市,方丈６丁目１０番２７,,22,216,4370022,,,2025-08-26,清算の結了等,,,2024-03-21,1,,,,,ラブアンドピース,0
651,3100003005652,登記記録の閉鎖等,0,2025-09-03,2025-08-29,合同会社ｓｉｇｍｏｖ,,合同会社,長野県,長野市,三輪８丁目４９番７号,,20,201,3800803,,,2025-08-29,清算の結了等,,,2020-04-20,1,sigmov LLC,Nagano,"8-49-7, Miwa, Nagano shi",,シグモ,0
657,3120001092014,登記記録の閉鎖等,0,2025-09-03,2025-08-21,ラピエール株式会社,,株式会社,大阪府,大阪市中央区,北久宝寺町３丁目１番６－１００５号,,27,128,5410057,,,2025-08-21,清算の結了等,,,2015-10-05,1,,,,,ラピエール,0
662,3120001205772,登記記録の閉鎖等,0,2025-09-03,2025-08-21,株式会社都録,,株式会社,大阪府,大阪市北区,中崎西１丁目７－１１,,27,127,5300015,,,2025-08-21,清算の結了等,,,2017-05-12,1,,,,,ミロク,0
663,3120001230671,登記記録の閉鎖等,0,2025-09-03,2025-08-21,友野工業株式会社,,株式会社,大阪府,寝屋川市,葛原２丁目１４－３４,,27,215,5720075,,,2025-08-21,清算の結了等,,,2020-07-28,1,,,,,トモノコウギョウ,0
667,3120001270131,登記記録の閉鎖等,0,2025-09-03,2025-08-22,迪諾株式会社,,株式会社,大阪府,大阪市城東区,鴫野西５丁目１５番７－３０８号,,27,118,5360014,,,2025-08-22,清算の結了等,,,2024-11-14,1,,,,,テキダク,0
672,3120003013637,登記記録の閉鎖等,0,2025-09-03,2025-09-01,合同会社銀河,,合同会社,大阪府,大阪市中央区,内平野町１丁目２－９グランドビル大手前３階３０４号,,27,128,5400037,,,2025-09-01,合併による解散等,1080403003533,令和７年８月２５日大阪府堺市北区奥本町二丁４番１号谷コンパクトオフィスＤ号室合同会社コスモス（1080403003533）に合併し解散,2017-12-05,1,,,,,,0
673,3120003021210,登記記録の閉鎖等,0,2025-09-03,2025-08-21,合同会社ｋｏｒｕｎｅ,,合同会社,大阪府,大阪市福島区,鷺洲５丁目１２－１－９０５,,27,103,5530002,,,2025-08-21,清算の結了等,,,2022-03-02,1,,,,,コルネ,0
675,3120101021822,登記記録の閉鎖等,0,2025-09-03,2025-08-21,株式会社安田鉄構,,株式会社,大阪府,堺市美原区,今井６５番地３,,27,147,5870061,,,2025-08-21,清算の結了等,,,2015-10-05,1,,,,,ヤスダテッコウ,0
684,3140001067253,登記記録の閉鎖等,0,2025-09-03,2025-08-29,株式会社新栄建設,,株式会社,兵庫県,三田市,池尻３２０番地１,,28,219,6691548,,,2025-08-29,清算の結了等,,,2015-10-05,1,,,,,,0
691,3140002027990,登記記録の閉鎖等,0,2025-09-03,2025-08-27,有限会社虎ノ門プロパティーズ,,有限会社,兵庫県,神戸市中央区,北野町１丁目１番,,28,110,6500002,,,2025-08-27,清算の結了等,,,2015-10-05,1,,,,,トラノモンプロパティーズ,0
698,3150002002423,登記記録の閉鎖等,0,2025-09-03,2025-09-01,有限会社ポータルサポート,,有限会社,奈良県,奈良市,南京終町１丁目１７９番５号,,29,201,6308141,,,2025-09-01,合併による解散等,8150001017806,令和７年９月１日奈良市南京終町一丁目１７９番５号株式会社ロジック（8150001017806）に合併し解散,2015-10-05,1,,,,,ポータルサポート,0
706,3180001075145,登記記録の閉鎖等,0,2025-09-03,2025-08-14,株式会社楽園,,株式会社,愛知県,春日井市,東野町西１丁目１５番地の１８,,23,206,4860818,,,2025-08-14,清算の結了等,,,2015-10-05,1,,,,,ラクエン,0
709,3180001151383,登記記録の閉鎖等,0,2025-09-03,2025-08-08,ＤＡＤＩＲＲＩ株式会社,,株式会社,愛知県,名古屋市中村区,名駅３丁目４－１０アルティメイト名駅１ｓｔ２階,,23,105,4500002,,,2025-08-08,清算の結了等,,,2022-05-23,1,,,,,ダディリ,0
723,3220002003901,登記記録の閉鎖等,0,2025-09-03,2025-08-29,有限会社つねしろ,,有限会社,石川県,金沢市,広岡３丁目２番４１号,,17,201,9200031,,,2025-08-29,清算の結了等,,,2015-10-05,1,,,,,ツネシロ,0
747,3300005004450,登記記録の閉鎖等,0,2025-09-03,2025-09-02,特定非営利活動法人国際協力の会ＭＩＳ,,その他の設立登記法人,佐賀県,伊万里市,東山代町東大久保１７６１番地１,,41,205,8494283,,,2025-09-02,清算の結了等,,,2015-10-05,1,,,,,コクサイキョウリョクノカイミズ,0
753,3310005008236,登記記録の閉鎖等,0,2025-09-03,2025-08-28,一般社団法人イケベンフォトミュージアム,,その他の設立登記法人,長崎県,西彼杵郡長与町,吉無田郷１３番地,,42,307,8512126,,,2025-08-28,清算の結了等,,,2018-07-20,1,,,,,イケベンフォトミュージアム,0
754,3330001002892,登記記録の閉鎖等,0,2025-09-03,2025-08-19,株式会社多自然テクノワークス,,株式会社,熊本県,熊本市東区,石原３丁目９番３６号,,43,102,8618046,,,2025-08-19,清算の結了等,,,2015-10-05,1,,,,,タシゼンテクノワークス,0
755,3330002013187,登記記録の閉鎖等,0,2025-09-03,2025-08-22,有限会社野津水産,,有限会社,熊本県,熊本市西区,八島町７２６番地９,,43,103,8600057,,,2025-08-22,清算の結了等,,,2015-10-05,1,,,,,ノズスイサン,0
756,3340003001784,登記記録の閉鎖等,0,2025-09-03,2025-08-20,スターク合同会社,,合同会社,鹿児島県,肝属郡東串良町,川東３５０４番地１,,46,482,8931615,,,2025-08-20,清算の結了等,,,2015-10-05,1,,,,,スターク,0
762,3380001018307,登記記録の閉鎖等,0,2025-09-03,2025-08-25,株式会社ニヘイフーズ,,株式会社,福島県,会津若松市,神指町大字中四合字若宮丙１５０番地,,07,202,9650065,,,2025-08-25,清算の結了等,,,2015-10-05,1,,,,,ニヘイフーズ,0
764,3380002002945,登記記録の閉鎖等,0,2025-09-03,2025-08-25,有限会社フォトアートエス企画,,有限会社,福島県,福島市,飯坂町湯野字寛勢６番地の１,,07,201,9600211,,,2025-08-25,清算の結了等,,,2015-10-05,1,,,,,フォトアートエスキカク,0
771,3400001008321,登記記録の閉鎖等,0,2025-09-03,2025-08-19,株式会社ワンダーネット,,株式会社,岩手県,盛岡市,大通３丁目１番３０号,,03,201,0200022,,,2025-08-19,清算の結了等,,,2015-10-05,1,,,,,ワンダーネット,0
772,3400001016332,登記記録の閉鎖等,0,2025-09-03,2025-08-18,Ｒｉｃｈ　Ｒｉｃｈ東北株式会社,,株式会社,岩手県,奥州市,水沢字東町４０番地１Ｆ,,03,215,0230818,,,2025-08-18,清算の結了等,,,2023-08-04,1,,,,,リッチリッチトウホク,0
773,3400002007743,登記記録の閉鎖等,0,2025-09-03,2025-08-20,有限会社信興,,有限会社,岩手県,八幡平市,松尾寄木第２７地割１２９番地１１,,03,214,0287302,,,2025-08-20,清算の結了等,,,2015-10-05,1,,,,,シンコウ,0
774,3400002009070,登記記録の閉鎖等,0,2025-09-03,2025-08-18,有限会社アドバン,,有限会社,岩手県,北上市,北鬼柳１９地割６８番地,,03,206,0240072,,,2025-08-18,清算の結了等,,,2015-10-05,1,,,,,アドバン,0
797,4010003015726,登記記録の閉鎖等,0,2025-09-03,2025-08-14,合同会社Ｇ２,,合同会社,東京都,中央区,日本橋１丁目４番１号,,13,102,1030027,,,2025-08-14,清算の結了等,,,2015-10-05,1,,,,,ジーツー,0
840,4012402018846,登記記録の閉鎖等,0,2025-09-03,2025-09-01,有限会社左官佐藤工業,,有限会社,東京都,三鷹市,大沢６丁目１０番１４号,,13,204,1810015,,,2025-09-01,清算の結了等,,,2015-10-05,1,,,,,サカンサトウコウギョウ,0
841,4012405000586,登記記録の閉鎖等,0,2025-09-03,2025-08-19,特定非営利活動法人ハンディサポートこがねい,,その他の設立登記法人,東京都,小金井市,梶野町４丁目１３番５号さくらコーポ２０１号,,13,210,1840002,,,2025-08-19,清算の結了等,,,2015-10-05,1,,,,,ハンディサポートコガネイ,0
848,4013305002318,登記記録の閉鎖等,0,2025-09-03,2025-08-19,一般社団法人日本ヘルスケア教育協会,,その他の設立登記法人,東京都,豊島区,南池袋２丁目２９番１２号,,13,116,1710022,,,2025-08-19,清算の結了等,,,2015-10-05,1,,,,,ニホンヘルスケアキョウイクキョウカイ,0
851,4020001092337,登記記録の閉鎖等,0,2025-09-03,2025-08-14,株式会社クロス・ボーダー・テクノロジーズ,,株式会社,東京都,千代田区,麹町１丁目３番ニッセイ半蔵門ビル８Ｆ,,13,101,1020083,,,2025-08-14,清算の結了等,,,2015-10-05,1,,,,,クロスボーダーテクノロジーズ,0
861,4021002071899,登記記録の閉鎖等,0,2025-09-03,2025-09-01,有限会社ヤマキボシ,,有限会社,神奈川県,三浦市,三崎５丁目２４５番地７,,14,210,2380243,,,2025-09-01,清算の結了等,,,2015-10-05,1,,,,,ヤマキボシ,0
864,4030001113835,登記記録の閉鎖等,0,2025-09-03,2025-08-28,株式会社千葉小野寺商事,,株式会社,埼玉県,加須市,栄１２９０番地３,,11,210,3491213,,,2025-08-28,清算の結了等,,,2016-04-15,1,,,,,チバオノデラショウジ,0
875,4040001117760,登記記録の閉鎖等,0,2025-09-03,2025-08-07,株式会社アドレス,,株式会社,千葉県,市川市,南行徳１丁目１－１,,12,203,2720138,,,2025-08-07,清算の結了等,,,2021-04-07,1,,,,,アドレス,0
879,4040002061025,登記記録の閉鎖等,0,2025-09-03,2025-08-07,有限会社外川建設,,有限会社,千葉県,佐倉市,萩山新田１１１番地,,12,212,2850002,,,2025-08-07,清算の結了等,,,2015-10-05,1,,,,,トガワケンセツ,0
885,4060002034482,登記記録の閉鎖等,0,2025-09-03,2025-08-29,有限会社東京建築総合産業,,有限会社,栃木県,下都賀郡壬生町,緑町１丁目１番１２号,,09,361,3210204,,,2025-08-29,清算の結了等,,,2015-10-05,1,,,,,トウキョウケンチクソウゴウサンギョウ,0
926,4120101047296,登記記録の閉鎖等,0,2025-09-03,2025-08-26,りんくう出島株式会社,,株式会社,大阪府,泉佐野市,りんくう往来南３番地の４１,,27,213,5980047,,,2025-08-26,清算の結了等,,,2015-10-05,1,,,,,リンクウデジマ,0
947,4140005020645,登記記録の閉鎖等,0,2025-09-03,2025-08-22,特定非営利活動法人相生すぽーつＮｅｔ,,その他の設立登記法人,兵庫県,相生市,那波大浜町９番８号,,28,208,6780051,,,2025-08-22,清算の結了等,,,2015-10-05,1,,,,,アイオイスポーツネット,0
952,4170001003576,登記記録の閉鎖等,0,2025-09-03,2025-08-29,山県株式会社,,株式会社,和歌山県,和歌山市,中島１６１番地４,,30,201,6410006,,,2025-08-29,清算の結了等,,,2015-10-05,1,,,,,ヤマガタ,0
953,4170001011174,登記記録の閉鎖等,0,2025-09-03,2025-09-01,株式会社やま物産,,株式会社,和歌山県,伊都郡九度山町,大字九度山１６０７番地の３,,30,343,6480101,,,2025-09-01,清算の結了等,,,2015-10-05,1,,,,,ヤマブッサン,0
957,4180001087957,登記記録の閉鎖等,0,2025-09-03,2025-08-19,株式会社千歳商事,,株式会社,愛知県,岩倉市,栄町２丁目３番地アメニティ岩倉８０２,,23,228,4820022,,,2025-08-19,清算の結了等,,,2015-10-05,1,,,,,チトセショウジ,0
959,4180001135724,登記記録の閉鎖等,0,2025-09-03,2025-08-14,株式会社ＥＨＬ　ＪＡＰＡＮ,,株式会社,愛知県,名古屋市緑区,相原郷１丁目５１８番地の１９,,23,114,4580033,,,2025-08-14,清算の結了等,,,2019-03-08,1,,,,,イーエイチエルジャパン,0
972,4220001001558,登記記録の閉鎖等,0,2025-09-03,2025-09-01,オーテック株式会社,,株式会社,石川県,金沢市,上荒屋５丁目３６０番地,,17,201,9218065,,,2025-09-01,清算の結了等,,,2015-10-05,1,,,,,,0
982,4240002016891,登記記録の閉鎖等,0,2025-09-03,2025-09-01,有限会社森ビル,,有限会社,広島県,広島市安佐南区,東原３丁目３５番４号,,34,105,7310112,,,2025-09-01,清算の結了等,,,2015-10-05,1,,,,,,0
983,4240002040900,登記記録の閉鎖等,0,2025-09-03,2025-08-29,有限会社三大工業,,有限会社,広島県,福山市,箕島町６６１５番地の２,,34,207,7210957,,,2025-08-29,清算の結了等,,,2015-10-05,1,,,,,サンダイコウギョウ,0
1013,4320002020951,登記記録の閉鎖等,0,2025-09-03,2025-09-01,有限会社仲会計事務所,,有限会社,大分県,中津市,中央町１丁目１０番５０号,,44,203,8710024,,,2025-09-01,清算の結了等,,,2015-10-05,1,,,,,ナカカイケイジムショ,0
1025,4400502000107,登記記録の閉鎖等,0,2025-09-03,2025-08-19,有限会社ウジエ看板工芸,,有限会社,岩手県,一関市,竹山町３番１２号,,03,209,0210027,,,2025-08-19,清算の結了等,,,2015-10-05,1,,,,,ウジエカンバンゴウゲイ,0
1027,4430001037993,登記記録の閉鎖等,0,2025-09-03,2025-08-13,株式会社電応工房．匠,,株式会社,北海道,札幌市東区,北二十条東１０丁目２番３号,,01,103,0650020,,,2025-08-13,清算の結了等,,,2015-10-05,1,,,,,デンノウコウボウタクミ,0
1031,4450001013068,登記記録の閉鎖等,0,2025-09-03,2025-09-01,株式会社Ｔｅｎｍｅｉ,,株式会社,北海道,旭川市,緑が丘四条１丁目１番地の１７,,01,204,0788304,,,2025-09-01,清算の結了等,,,2020-07-28,1,,,,,テンメイ,0
1033,4460101007191,登記記録の閉鎖等,0,2025-09-03,2025-08-27,株式会社ＣＨＩＥＮＯＴＥＣＨ,,株式会社,北海道,帯広市,西十九条南１丁目７番地３０,,01,207,0802469,,,2025-08-27,清算の結了等,,,2022-05-13,1,,,,,チエノテック,0
1058,5010003035715,登記記録の閉鎖等,0,2025-09-03,2025-06-16,ｂｉｏｆｉｑｕｅ合同会社,,合同会社,東京都,中央区,銀座１丁目２２番１１号－２Ｆ,,13,102,1040061,,,2025-06-16,清算の結了等,,,2021-09-01,1,,,,,ビオフィーク,0
1065,5010401087060,登記記録の閉鎖等,0,2025-09-03,2025-08-05,ＳＥＯＷＥＢ４株式会社,,株式会社,東京都,港区,六本木２丁目３番７号,,13,103,1060032,,,2025-08-05,清算の結了等,,,2015-10-05,1,,,,,エスイーオーウェブフォー,0
1075,5010705002319,登記記録の閉鎖等,0,2025-09-03,2025-08-27,特定非営利活動法人国際病院認証支援機構,,その他の設立登記法人,東京都,品川区,東五反田４丁目１番１７号東京医療保健大学学事顧問室,,13,109,1410022,,,2025-08-27,清算の結了等,,,2015-10-05,1,,,,,コクサイビョウインニンショウシエンキコウ,0
1078,5010901048173,登記記録の閉鎖等,0,2025-09-03,2025-08-01,フォーキッズ株式会社,,株式会社,東京都,渋谷区,大山町２８番７号,,13,113,1510065,,,2025-08-01,合併による解散等,4010901036303,令和７年８月１日東京都渋谷区大山町２８番７号ＤＸ　Ｖｅｎｔｕｒｅｓ株式会社（4010901036303）に合併し解散,2021-03-05,1,,,,,フォーキッズ,0
1081,5010902007756,登記記録の閉鎖等,0,2025-09-03,2025-09-01,有限会社ジュエル・ピアレ,,有限会社,東京都,世田谷区,豪徳寺２丁目３番１７号,,13,112,1540021,,,2025-09-01,清算の結了等,,,2015-10-05,1,,,,,ジュエルピアレ,0
1087,5011101110517,登記記録の閉鎖等,0,2025-09-03,2025-08-01,ＭＣｏ　Ａｄｖｉｓｏｒｓ株式会社,,株式会社,東京都,新宿区,西新宿１丁目２６番２号新宿野村ビル３２階,,13,104,1600023,,,2025-08-01,清算の結了等,,,2025-02-10,1,,,,,エムコーアドバイザーズ,0
1089,5011201025103,登記記録の閉鎖等,0,2025-09-03,2025-08-27,ＭＲＦコンサルティング株式会社,,株式会社,東京都,中野区,中央４丁目４８‐４,,13,114,1640011,,,2025-08-27,清算の結了等,,,2023-12-14,1,,,,,エムアールエフコンサルティング,0
1099,5011701011354,登記記録の閉鎖等,0,2025-09-03,2025-08-28,日通隅田川運輸株式会社,,株式会社,東京都,江戸川区,平井５丁目１番１号,,13,123,1320035,,,2025-08-28,清算の結了等,,,2015-10-05,1,,,,,ニッツウスミダガワウンユ,0
1101,5011702017854,登記記録の閉鎖等,0,2025-09-03,2025-08-28,有限会社エンタープライズ・チバ,,有限会社,東京都,江戸川区,南篠崎町４丁目３１番５号,,13,123,1330065,,,2025-08-28,清算の結了等,,,2015-10-05,1,,,,,エンタープライズチバ,0
1103,5011802018546,登記記録の閉鎖等,0,2025-09-03,2025-08-29,有限会社マウンテン倶楽部,00057512,有限会社,東京都,足立区,関原２丁目４８番１５号,,13,121,1230852,,,2025-08-29,清算の結了等,,,2015-10-05,1,,,,,マウンテンクラブ,0
1104,5011802018645,登記記録の閉鎖等,0,2025-09-03,2025-08-29,有限会社松岡自動車販売,,有限会社,東京都,足立区,南花畑２丁目３９番５号,,13,121,1210062,,,2025-08-29,清算の結了等,,,2015-10-05,1,,,,,マツオカジドウシャハンバイ,0
1105,5011803000924,登記記録の閉鎖等,0,2025-09-03,2025-08-29,合資会社岡本商事,,合資会社,東京都,葛飾区,白鳥４丁目５番２０－４０１号,,13,122,1250063,,,2025-08-29,清算の結了等,,,2015-10-05,1,,,,,オカモトショウジ,0
1112,5013201000622,登記記録の閉鎖等,0,2025-09-03,2025-08-01,市場印刷株式会社,,株式会社,東京都,目黒区,大橋２丁目６番１４号,,13,110,1530044,,,2025-08-01,清算の結了等,,,2015-10-05,1,,,,,イチバインサツ,0
1121,5020005013783,登記記録の閉鎖等,0,2025-09-03,2025-08-18,一般社団法人日本ティーチングゴルファー育成協会,,その他の設立登記法人,神奈川県,横浜市中区,尾上町３丁目４３番地横浜パークサイド関内２Ｆ,,14,104,2310015,,,2025-08-18,清算の結了等,,,2018-07-26,1,,,,,ニホンティーチングゴルファーイクセイキョウカイ,0
1125,5021002043690,登記記録の閉鎖等,0,2025-09-03,2025-08-27,有限会社シントー工業,,有限会社,神奈川県,座間市,相模が丘５丁目１９番１６号,,14,216,2520001,,,2025-08-27,清算の結了等,,,2015-10-05,1,,,,,シントーコウギョウ,0
1126,5030001010767,登記記録の閉鎖等,0,2025-09-03,2025-08-28,日通埼玉運輸株式会社,,株式会社,埼玉県,川口市,上青木西１丁目１６番２８号,,11,203,3330845,,,2025-08-28,清算の結了等,,,2015-10-05,1,,,,,ニッツウサイタマウンユ,0
1127,5030001089059,登記記録の閉鎖等,0,2025-09-03,2025-08-28,株式会社アラカワ・フーズ,,株式会社,埼玉県,大里郡寄居町,大字富田１４５３番地１,,11,408,3691216,,,2025-08-28,清算の結了等,,,2015-10-05,1,,,,,アラカワフーズ,0
1157,5090001003427,登記記録の閉鎖等,0,2025-09-03,2025-08-28,株式会社エール,,株式会社,山梨県,甲府市,大里町４２１３番地１,,19,201,4000053,,,2025-08-28,清算の結了等,,,2015-10-05,1,,,,,,0
1166,5110001023760,登記記録の閉鎖等,0,2025-09-03,2025-08-26,株式会社関商店,,株式会社,新潟県,長岡市,浦９６６３番地,,15,202,9495406,,,2025-08-26,清算の結了等,,,2015-10-05,1,,,,,セキショウテン,0
1208,5160003001603,登記記録の閉鎖等,0,2025-09-03,2025-09-01,合同会社光輝,,合同会社,滋賀県,甲賀市,信楽町勅旨２１９１番地６,,25,209,5291804,,,2025-09-01,清算の結了等,,,2018-01-11,1,,,,,コウキ,0
1212,5170002011115,登記記録の閉鎖等,0,2025-09-03,2025-09-01,有限会社岸本金物店,,有限会社,和歌山県,新宮市,上本町２丁目４番地の１,,30,207,6470003,,,2025-09-01,清算の結了等,,,2015-10-05,1,,,,,キシモトカナモノテン,0
1213,5170005001749,登記記録の閉鎖等,0,2025-09-03,2025-08-29,特定非営利活動法人わかやま暮らしふぁいど,,その他の設立登記法人,和歌山県,和歌山市,土佐町１丁目５３番地の３,,30,201,6408256,,,2025-08-29,清算の結了等,,,2015-10-05,1,,,,,ワカヤマクラシファイド,0
1214,5180001004184,登記記録の閉鎖等,0,2025-09-03,2025-08-29,株式会社伸幸ライト工業所,,株式会社,東京都,品川区,上大崎３丁目１番１号目黒セントラルスクエア１５階,,13,109,1410021,,,2025-08-29,合併による解散等,8010703007671,令和７年８月２９日東京都品川区上大崎三丁目１番１号目黒セントラルスクエア１５階ちくさ合同会社（8010703007671）に合併し解散,2015-10-05,1,,,,,シンコウライトコウギョウショ,0
1215,5180001087469,登記記録の閉鎖等,0,2025-09-03,2025-08-18,株式会社ジェトロ,,株式会社,愛知県,江南市,松竹町西松竹２５４番地,,23,217,4838356,,,2025-08-18,清算の結了等,,,2015-10-05,1,,,,,ジェトロ,0
1223,5180002060152,登記記録の閉鎖等,0,2025-09-03,2025-08-20,有限会社ａｃｔｉｖｅｌｉｆｅきよす,,有限会社,愛知県,清須市,西田中蓮池３５番地,,23,233,4520933,,,2025-08-20,清算の結了等,,,2015-10-05,1,,,,,アクティヴライフキヨス,0
1224,5180002086338,登記記録の閉鎖等,0,2025-09-03,2025-08-14,有限会社パブリック,,有限会社,愛知県,常滑市,大谷字坦＿６８番地の４,00073571,23,216,4790806,,,2025-08-14,清算の結了等,,,2015-10-05,1,,,,,パブリック,0
1239,5240005010552,登記記録の閉鎖等,0,2025-09-03,2025-08-29,農事組合法人サンファームおなし,,その他の設立登記法人,広島県,竹原市,小梨町１０３７９番地の１,,34,203,7250011,,,2025-08-29,清算の結了等,,,2015-10-05,1,,,,,サンファームオナシ,0
1278,5360003007480,登記記録の閉鎖等,0,2025-09-03,2025-08-28,ＣＳｗｏｒｋｓ合同会社,,合同会社,沖縄県,那覇市,三原１丁目２５番２２号,,47,201,9020063,,,2025-08-28,清算の結了等,,,2016-02-18,1,,,,,,0
1281,5370001001245,登記記録の閉鎖等,0,2025-09-03,2025-08-19,株式会社杜都工業,,株式会社,宮城県,仙台市泉区,明通４丁目７番地東北ロジスティックセンター２階Ｂ号室,,04,105,9813206,,,2025-08-19,清算の結了等,,,2015-10-05,1,,,,,モリトコウギョウ,0
1283,5370002015574,登記記録の閉鎖等,0,2025-09-03,2025-08-18,有限会社西嶋労務経営事務所,,有限会社,宮城県,仙台市若林区,椌木通６７番地の２０,00082028,04,103,9840044,,,2025-08-18,清算の結了等,,,2015-10-05,1,,,,,ニシジマロウムケイエイジムショ,0
1288,5430001070151,登記記録の閉鎖等,0,2025-09-03,2025-08-15,株式会社Ｈ２Ｒ,,株式会社,北海道,小樽市,緑２丁目２番７号,,01,203,0470034,,,2025-08-15,清算の結了等,,,2015-10-27,1,,,,,エイチツーアール,0
1319,6010405019810,登記記録の閉鎖等,0,2025-09-03,2025-09-01,ＧＬＰ尼崎特定目的会社,,その他の設立登記法人,東京都,中央区,八重洲２丁目２番１号,,13,102,1040028,,,2025-09-01,清算の結了等,,,2021-05-26,1,,,,,ジーエルピーアマガサキ,0
1329,6010901049864,登記記録の閉鎖等,0,2025-09-03,2025-09-01,株式会社Ｓｔｏｎｅｓ,,株式会社,東京都,世田谷区,弦巻４丁目２１番１－２０１号,,13,112,1540016,,,2025-09-01,清算の結了等,,,2021-11-25,1,,,,,ストーンズ,0
1332,6010902008101,登記記録の閉鎖等,0,2025-09-03,2025-09-01,有限会社鈴木園芸,,有限会社,東京都,世田谷区,弦巻４丁目１７番２号,,13,112,1540016,,,2025-09-01,清算の結了等,,,2015-10-05,1,,,,,スズキエンゲイ,0
1335,6011001128798,登記記録の閉鎖等,0,2025-09-03,2025-08-19,株式会社ＪＶＳ,,株式会社,愛知県,名古屋市中区,栄１丁目２４番１１号タワー・ザ・ファースト名古屋栄１２０１,,23,106,4600008,,,2025-08-19,清算の結了等,,,2019-07-01,1,,,,,ジェイブイエス,0
1349,6011303003113,登記記録の閉鎖等,0,2025-09-03,2025-08-21,合同会社ブルー・ジャスミン,,合同会社,東京都,新宿区,西新宿３丁目７番２６－４１０号,,13,104,1600023,,,2025-08-21,清算の結了等,,,2018-09-07,1,,,,,ブルージャスミン,0
1352,6011702006113,登記記録の閉鎖等,0,2025-09-03,2025-08-29,有限会社杉浦酒店,,有限会社,東京都,江戸川区,瑞江４丁目５３番２号,,13,123,1320011,,,2025-08-29,清算の結了等,,,2015-10-05,1,,,,,スギウラサケテン,0
1353,6011801009090,登記記録の閉鎖等,0,2025-09-03,2025-08-29,株式会社千壽園,,株式会社,東京都,足立区,千住中居町１番２０号,,13,121,1200035,,,2025-08-29,清算の結了等,,,2015-10-05,1,,,,,センジュエン,0
1363,6012802007298,登記記録の閉鎖等,0,2025-09-03,2025-08-21,有限会社ケー・システム,,有限会社,東京都,東大和市,向原６丁目１１５５番地１１,,13,220,2070013,,,2025-08-21,清算の結了等,,,2015-10-05,1,,,,,ケーシステム,0
1368,6013302010610,登記記録の閉鎖等,0,2025-09-03,2025-08-18,有限会社ヨケムラ冷熱,,有限会社,東京都,豊島区,雑司が谷３丁目１９番６号,,13,116,1710032,,,2025-08-18,清算の結了等,,,2015-10-05,1,,,,,ヨケムラレイネツ,0
1372,6020002014866,登記記録の閉鎖等,0,2025-09-03,2025-08-20,有限会社ティズ・デザインカンパニー,,有限会社,神奈川県,横浜市都筑区,荏田南５丁目２２番２号,,14,118,2240007,,,2025-08-20,清算の結了等,,,2015-10-05,1,,,,,ティズデザインカンパニー,0
1375,6021005007064,登記記録の閉鎖等,0,2025-09-03,2025-08-26,丸山教大磯支教会,,その他の設立登記法人,神奈川県,中郡大磯町,大磯１６９５番地,,14,341,2550003,,,2025-08-26,清算の結了等,,,2015-10-05,1,,,,,マルヤマキョウオオイソシキョウカイ,0
1405,6080001005308,登記記録の閉鎖等,0,2025-09-03,2025-08-29,株式会社森田タイル,,株式会社,静岡県,静岡市駿河区,有東２丁目１番３０号,,22,102,4228032,,,2025-08-29,清算の結了等,,,2015-10-05,1,,,,,モリタタイル,0
1422,6120001009361,登記記録の閉鎖等,0,2025-09-03,2025-08-21,株式会社オクゼン,,株式会社,大阪府,大阪市東住吉区,北田辺３丁目８番１６号,,27,121,5460044,,,2025-08-21,清算の結了等,,,2015-10-05,1,,,,,オクゼン,0
1449,6120101026455,登記記録の閉鎖等,0,2025-09-03,2025-08-22,朝日興産株式会社,,株式会社,大阪府,泉南市,りんくう南浜３番２０１,,27,228,5900535,,,2025-08-22,清算の結了等,,,2015-10-05,1,,,,,アサヒコウサン,0
1477,6180001025519,登記記録の閉鎖等,0,2025-09-03,2025-08-08,株式会社三巧,,株式会社,愛知県,名古屋市西区,新道１丁目９番地３０リンツネビル２０５号,,23,104,4510043,,,2025-08-08,清算の結了等,,,2015-10-05,1,,,,,サンコウ,0
1478,6180001067998,登記記録の閉鎖等,0,2025-09-03,2025-08-12,株式会社長久手温泉,,株式会社,愛知県,長久手市,前熊下田１７０番地,,23,238,4801102,,,2025-08-12,清算の結了等,,,2015-10-05,1,,,,,ナガクテオンセン,0
1479,6180001117349,登記記録の閉鎖等,0,2025-09-03,2025-08-15,株式会社表面・界面工房,,株式会社,愛知県,名古屋市緑区,鳴海町字有松裏１１４番地の８２,,23,114,4580824,,,2025-08-15,清算の結了等,,,2015-10-05,1,,,,,ヒョウメンカイメンコウボウ,0
1488,6180002050565,登記記録の閉鎖等,0,2025-09-03,2025-08-19,有限会社イワコー,,有限会社,愛知県,名古屋市昭和区,白金３丁目２０番２５号,,23,107,4660058,,,2025-08-19,清算の結了等,,,2015-10-05,1,,,,,イワコー,0
1491,6180003022142,登記記録の閉鎖等,0,2025-09-03,2025-08-18,月紬合同会社,,合同会社,愛知県,江南市,宮後町中町１３４番地,,23,217,4838044,,,2025-08-18,清算の結了等,,,2021-02-16,1,,,,,ツムギ,0
1503,6220001023749,登記記録の閉鎖等,0,2025-09-03,2025-09-01,株式会社アルプ再生医療研究所,,株式会社,石川県,金沢市,近岡町３０９番地,,17,201,9208217,,,2025-09-01,清算の結了等,,,2020-09-24,1,,,,,アルプサイセイイリョウケンキュウショ,0
1515,6250001014737,登記記録の閉鎖等,0,2025-09-03,2025-09-01,株式会社メディアアートみやび,,株式会社,山口県,下関市,勝谷新町１丁目８番６号,,35,201,7510802,,,2025-09-01,清算の結了等,,,2015-10-05,1,,,,,,0
1521,6260002026549,登記記録の閉鎖等,0,2025-09-03,2025-08-26,有限会社笠原建設,,有限会社,岡山県,浅口市,金光町占見１９４番地１７,,33,216,7190105,,,2025-08-26,清算の結了等,,,2015-10-05,1,,,,,カサハラケンセツ,0
1537,6300005004423,登記記録の閉鎖等,0,2025-09-03,2025-09-01,医療法人山本こどもクリニック,,その他の設立登記法人,佐賀県,伊万里市,立花町２３８８番地２,,41,205,8480027,,,2025-09-01,清算の結了等,,,2015-10-05,1,,,,,ヤマモトコドモクリニック,0
1554,6360002001252,登記記録の閉鎖等,0,2025-09-03,2025-08-28,有限会社環水エンジニア,,有限会社,沖縄県,豊見城市,字与根５６１番地２,,47,212,9010224,,,2025-08-28,清算の結了等,,,2015-10-05,1,,,,,カンスイエンジニア,0
1559,6370001014048,登記記録の閉鎖等,0,2025-09-03,2025-08-18,株式会社ＰＦＣホールディング,,株式会社,宮城県,仙台市青葉区,本町２丁目９番５号,,04,101,9800014,,,2025-08-18,清算の結了等,,,2015-10-05,1,,,,,ピーエフシーホールディング,0
1560,6370201003619,登記記録の閉鎖等,0,2025-09-03,2025-08-15,笠宏商事株式会社,,株式会社,宮城県,大崎市,三本木新町１丁目１７番地の６３,,04,215,9896306,,,2025-08-15,清算の結了等,,,2015-10-05,1,,,,,カサヒロショウジ,0
1571,6430001077922,登記記録の閉鎖等,0,2025-09-03,2025-08-13,トーホウファーム株式会社,,株式会社,北海道,沙流郡日高町,字庫富１３６番地,,01,601,0592124,,,2025-08-13,清算の結了等,,,2018-12-18,1,,,,,トーホウファーム,0
1576,6430003017083,登記記録の閉鎖等,0,2025-09-03,2025-08-18,Ｉｎｆｉｎｉｔｙ　Ｂｒｉｄｇｅ合同会社,,合同会社,北海道,岩内郡岩内町,字高台３５１－７,,01,402,0450013,,,2025-08-18,清算の結了等,,,2024-12-17,1,,,,,インフィニティブリッジ,0
1580,6460002004872,登記記録の閉鎖等,0,2025-09-03,2025-09-01,有限会社ダルマヤ,,有限会社,北海道,川上郡弟子屈町,中央１丁目６番２２号,,01,665,0883211,,,2025-09-01,清算の結了等,,,2015-10-05,1,,,,,ダルマヤ,0
1610,7010601025883,登記記録の閉鎖等,0,2025-09-03,2025-08-28,株式会社ウッド・シー,,株式会社,東京都,墨田区,亀沢４丁目１９番３号２０２,,13,107,1300014,,,2025-08-28,清算の結了等,,,2015-10-05,1,,,,,ウッドシー,0
1616,7010801026013,登記記録の閉鎖等,0,2025-09-03,2025-09-01,株式会社のぞみ,,株式会社,東京都,世田谷区,東玉川２丁目６番１６号長尾ハイツ１０１,,13,112,1580084,,,2025-09-01,清算の結了等,,,2015-10-05,1,,,,,ノゾミ,0
1619,7010902024881,登記記録の閉鎖等,0,2025-09-03,2025-09-01,有限会社キュルチュール・フランセーズ,,有限会社,東京都,世田谷区,野毛３丁目１０番１６号,,13,112,1580092,,,2025-09-01,清算の結了等,,,2015-10-05,1,,,,,キュルチュールフランセーズ,0
1627,7011302007626,登記記録の閉鎖等,0,2025-09-03,2025-08-28,有限会社ビデオワークステーション,,有限会社,東京都,杉並区,高円寺南５丁目１７番９号,,13,115,1660003,,,2025-08-28,清算の結了等,,,2015-10-05,1,,,,,ビデオワークステーション,0
1637,7011802020087,登記記録の閉鎖等,0,2025-09-03,2025-08-29,有限会社ゆり,,有限会社,東京都,足立区,舎人１丁目３番地の１８,,13,121,1210831,,,2025-08-29,清算の結了等,,,2015-10-05,1,,,,,ユリ,0
1643,7013101001140,登記記録の閉鎖等,0,2025-09-03,2025-09-01,光工業株式会社,,株式会社,東京都,あきる野市,平沢東１丁目３番地４,,13,228,1970813,,,2025-09-01,清算の結了等,,,2015-10-05,1,,,,,ヒカリコウギョウ,0
1648,7013201016682,登記記録の閉鎖等,0,2025-09-03,2025-07-01,健康ラボ株式会社,,株式会社,東京都,渋谷区,松濤１丁目２６番１９号メゾン松濤２Ａ,,13,113,1500046,,,2025-07-01,合併による解散等,2011001094045,令和７年７月１日東京都渋谷区松濤一丁目２６番１９号エム・ピー・エス株式会社（2011001094045）に合併し解散,2015-10-05,1,,,,,ケンコウラボ,0
1650,7013402001475,登記記録の閉鎖等,0,2025-09-03,2025-08-20,有限会社味好屋石崎商店,,有限会社,東京都,日野市,大字日野５７４番地の２、１－１０５,,13,212,1910012,,,2025-08-20,清算の結了等,,,2015-10-05,1,,,,,,0
1658,7020002092523,登記記録の閉鎖等,0,2025-09-03,2025-08-19,株式会社ダック,,株式会社,神奈川県,川崎市麻生区,万福寺４丁目１番３号ＤＡＣメディカルビル１０３,,14,137,2150004,,,2025-08-19,清算の結了等,,,2015-10-05,1,,,,,ダック,0
1665,7021002044654,登記記録の閉鎖等,0,2025-09-03,2025-08-27,有限会社エイトミ,,有限会社,神奈川県,海老名市,国分南３丁目８番１４号,,14,215,2430405,,,2025-08-27,清算の結了等,,,2015-10-05,1,,,,,エイトミ,0
1683,7040002058407,登記記録の閉鎖等,0,2025-09-03,2025-08-06,有限会社栄サッシ,,有限会社,千葉県,印旛郡栄町,布太１１１番地,,12,329,2701535,,,2025-08-06,清算の結了等,,,2015-10-05,1,,,,,サカエサッシ,0
1686,7050001006588,登記記録の閉鎖等,0,2025-09-03,2025-08-25,株式会社いしや,,株式会社,茨城県,ひたちなか市,湊本町２６番３号,,08,221,3111221,,,2025-08-25,清算の結了等,,,2015-10-05,1,,,,,イシヤ,0
1698,7090002013704,登記記録の閉鎖等,0,2025-09-03,2025-08-28,有限会社鈴屋リネンサプライ,,有限会社,山梨県,韮崎市,若宮１丁目３番１４号,,19,207,4070015,,,2025-08-28,清算の結了等,,,2015-10-05,1,,,,,,0
1717,7120101027601,登記記録の閉鎖等,0,2025-09-03,2025-08-27,株式会社大伸,,株式会社,大阪府,松原市,天美南３丁目１３番１４号,,27,217,5800033,,,2025-08-27,清算の結了等,,,2015-10-05,1,,,,,ダイシン,0
1730,7130003007568,登記記録の閉鎖等,0,2025-09-03,2025-08-14,合同会社ミリテック,,合同会社,京都府,京都市山科区,竹鼻竹ノ街道町１１番地スタービル５０１,,26,110,6078080,,,2025-08-14,清算の結了等,,,2021-11-04,1,,,,,ミリテック,0
1731,7130005010743,登記記録の閉鎖等,0,2025-09-03,2025-08-08,特定非営利活動法人西八田ふれあいサロン,,その他の設立登記法人,京都府,綾部市,岡安町大道１６番地,,26,203,6230114,,,2025-08-08,清算の結了等,,,2015-10-05,1,,,,,ニシヤタフレアイサロン,0
1753,7180001101822,登記記録の閉鎖等,0,2025-09-03,2025-08-08,鈴木建設工業株式会社,,株式会社,愛知県,名古屋市緑区,曽根２丁目２５３番地,,23,114,4580035,,,2025-08-08,清算の結了等,,,2015-10-05,1,,,,,スズキケンセツコウギョウ,0
1754,7180001118899,登記記録の閉鎖等,0,2025-09-03,2025-08-08,憲樹商店株式会社,,株式会社,愛知県,名古屋市中区,大須３丁目２０番１４号,,23,106,4600011,,,2025-08-08,清算の結了等,,,2015-10-05,1,,,,,ケンジュショウテン,0
1766,7180301025606,登記記録の閉鎖等,0,2025-09-03,2025-08-27,株式会社Ａｓｅｎエコロジー,,株式会社,愛知県,豊橋市,牟呂町字古田９番地,,23,201,4418087,,,2025-08-27,清算の結了等,,,2015-10-05,1,,,,,エーセンエコロジー,0
1773,7230002006676,登記記録の閉鎖等,0,2025-09-03,2025-08-26,有限会社合掌,,有限会社,富山県,富山市,八尾町城生３９番地５,,16,201,9392314,,,2025-08-26,清算の結了等,,,2015-10-05,1,,,,,ガッショウ,0
1777,7250001002195,登記記録の閉鎖等,0,2025-09-03,2025-09-02,福喜窯業株式会社,,株式会社,山口県,防府市,大字江泊１９２番地の３,,35,206,7470014,,,2025-09-02,清算の結了等,,,2015-10-05,1,,,,,フッキヨウギョウ,0
1779,7250002012284,登記記録の閉鎖等,0,2025-09-03,2025-09-01,豊田タクシー有限会社,,有限会社,山口県,下関市,豊田町大字矢田２６９番地の１,,35,201,7500424,,,2025-09-01,清算の結了等,,,2015-10-05,1,,,,,,0
1790,7290801010096,登記記録の閉鎖等,0,2025-09-03,2025-08-28,株式会社ショーサンコーポレーション,,株式会社,福岡県,北九州市八幡西区,小嶺１丁目１番２３号,,40,109,8070081,,,2025-08-28,清算の結了等,,,2015-10-05,1,,,,,ショーサンコーポレーション,0
1799,7330001003986,登記記録の閉鎖等,0,2025-09-03,2025-08-20,株式会社平野商会,,株式会社,熊本県,熊本市南区,江越１丁目２６番２４号,,43,104,8600834,,,2025-08-20,清算の結了等,,,2015-10-05,1,,,,,ヒラノショウカイ,0
1811,7370002011737,登記記録の閉鎖等,0,2025-09-03,2025-08-18,有限会社スズヤ商事,,有限会社,宮城県,仙台市青葉区,上杉１丁目７番３４号,,04,101,9800011,,,2025-08-18,清算の結了等,,,2015-10-05,1,,,,,スズヤショウジ,0
1822,7430003004477,登記記録の閉鎖等,0,2025-09-03,2025-09-01,アート・コンプレックス合同会社,,合同会社,北海道,札幌市北区,新川二条４丁目９番１０号,,01,102,0010922,,,2025-09-01,清算の結了等,,,2015-10-05,1,,,,,アートコンプレックス,0
1857,8010502004671,登記記録の閉鎖等,0,2025-09-03,2025-08-06,有限会社坂根商店,,有限会社,東京都,台東区,浅草橋３丁目８番４号,,13,106,1110053,,,2025-08-06,清算の結了等,,,2015-10-05,1,,,,,サカネショウテン,0
1865,8010802002706,登記記録の閉鎖等,0,2025-09-03,2025-08-26,有限会社大熊製作所,,有限会社,東京都,大田区,羽田２丁目５番１２号,,13,111,1440043,,,2025-08-26,清算の結了等,,,2015-10-05,1,,,,,オオクマセイサクショ,0
1878,8011201004657,登記記録の閉鎖等,0,2025-09-03,2025-08-05,株式会社ハシコーポレーション,,株式会社,東京都,新宿区,西落合３丁目２９番４号,,13,104,1610031,,,2025-08-05,清算の結了等,,,2015-10-05,1,,,,,ハシコーポレーション,0
1883,8011402017144,登記記録の閉鎖等,0,2025-09-03,2025-08-28,有限会社ミキ・ホールセール,,有限会社,東京都,板橋区,小豆沢１丁目１９番１号,,13,119,1740051,,,2025-08-28,清算の結了等,,,2015-10-05,1,,,,,ミキホールセール,0
1885,8011701016326,登記記録の閉鎖等,0,2025-09-03,2025-09-01,アイアールアイ株式会社,,株式会社,東京都,江東区,木場３丁目１４番１－８０３号,,13,108,1350042,,,2025-09-01,清算の結了等,,,2015-10-05,1,,,,,アイアールアイ,0
1904,8020002001846,登記記録の閉鎖等,0,2025-09-03,2025-08-20,有限会社初音電機工業所,,有限会社,神奈川県,横浜市瀬谷区,宮沢２丁目６９番地９,,14,114,2460038,,,2025-08-20,清算の結了等,,,2015-10-05,1,,,,,ハツネデンキコウギョウショ,0
1913,8021001045594,登記記録の閉鎖等,0,2025-09-03,2025-08-27,株式会社オフィス浅川,,株式会社,神奈川県,小田原市,板橋７８７番地城山サニーハイツ１ー３２２号,,14,206,2500034,,,2025-08-27,清算の結了等,,,2015-10-05,1,,,,,オフィスアサカワ,0
1914,8021002005936,登記記録の閉鎖等,0,2025-09-03,2025-08-27,ワエイ工業有限会社,,有限会社,神奈川県,藤沢市,善行坂２丁目７番６号,,14,205,2510876,,,2025-08-27,清算の結了等,,,2015-10-05,1,,,,,ワエイコウギョウ,0
1929,8030003020539,登記記録の閉鎖等,0,2025-09-03,2025-08-21,合同会社ＩＬＹｓ,,合同会社,東京都,立川市,錦町１丁目５－２８谷野ビル４０２号,,13,202,1900022,,,2025-08-21,清算の結了等,,,2022-11-09,1,,,,,イリユス,0
1931,8040001099005,登記記録の閉鎖等,0,2025-09-03,2025-08-07,Ｇｒａｌｌ．ＪＡＰＡＮ株式会社,,株式会社,千葉県,市川市,南行徳１丁目１－１－２０８,,12,203,2720138,,,2025-08-07,清算の結了等,,,2017-03-01,1,,,,,,0
1936,8040005019438,登記記録の閉鎖等,0,2025-09-03,2025-08-07,利根会計税理士法人,,その他の設立登記法人,千葉県,千葉市花見川区,幕張本郷２丁目１９番１０号,,12,102,2620033,,,2025-08-07,清算の結了等,,,2017-03-03,1,,,,,トネカイケイ,0
1943,8070001012195,登記記録の閉鎖等,0,2025-09-03,2025-09-01,株式会社東陽化成興業,,株式会社,群馬県,甘楽郡甘楽町,大字福島１１０３番地２,,10,384,3702212,,,2025-09-01,清算の結了等,,,2015-10-05,1,,,,,トウヨウカセイコウギョウ,0
1944,8080001003425,登記記録の閉鎖等,0,2025-09-03,2025-08-29,株式会社塚本保険社,,株式会社,静岡県,静岡市葵区,古庄６丁目３番１０号,,22,101,4200812,,,2025-08-29,清算の結了等,,,2015-10-05,1,,,,,ツカモトホケンシャ,0
1952,8120001033905,登記記録の閉鎖等,0,2025-09-03,2025-08-20,安本商事株式会社,,株式会社,大阪府,大阪市住吉区,上住吉１丁目１番６号,,27,120,5580046,,,2025-08-20,清算の結了等,,,2015-10-05,1,,,,,ヤスモトショウジ,0
1955,8120001099797,登記記録の閉鎖等,0,2025-09-03,2025-08-01,ＧＭＯヘルスケア株式会社,,株式会社,東京都,渋谷区,道玄坂１丁目２番３号,,13,113,1500043,,,2025-08-01,合併による解散等,5011001159373,令和７年８月１日東京都渋谷区道玄坂一丁目２番３号ＧＭＯヘルステック株式会社（5011001159373）に合併し解散,2015-10-05,1,,,,,ジーエムオーヘルスケア,0
1957,8120001144719,登記記録の閉鎖等,0,2025-09-03,2025-08-27,アクシス情報サービス株式会社,,株式会社,大阪府,大阪市北区,西天満４丁目９－２西天満ビル４０７号,,27,127,5300047,,,2025-08-27,清算の結了等,,,2015-10-05,1,,,,,,0
1975,8120002035339,登記記録の閉鎖等,0,2025-09-03,2025-08-29,グローバルエクスポーターズ有限会社,,有限会社,兵庫県,神戸市中央区,野崎通７丁目３番１７号,,28,110,6510054,,,2025-08-29,清算の結了等,,,2015-10-05,1,,,,,グローバルエクスポーターズ,0
1980,8120005016518,登記記録の閉鎖等,0,2025-09-03,2025-09-01,特定非営利活動法人ヒトのモード,,その他の設立登記法人,大阪府,大阪市淀川区,十三東１丁目１０番２２－８０７号,,27,123,5320023,,,2025-09-01,清算の結了等,,,2015-10-05,1,,,,,ヒトノモード,0
1997,8160002001213,登記記録の閉鎖等,0,2025-09-03,2025-08-29,つる家有限会社,,有限会社,滋賀県,大津市,本丸町２番８号,,25,201,5200814,,,2025-08-29,清算の結了等,,,2015-10-05,1,,,,,ツルヤ,0
1998,8160002005065,登記記録の閉鎖等,0,2025-09-03,2025-09-01,ＩＫＩテック有限会社,,有限会社,滋賀県,湖南市,下田字桐山１８４８番地１０,,25,211,5203201,,,2025-09-01,清算の結了等,,,2015-10-05,1,,,,,アイケイアイテック,0
2001,8160005004907,登記記録の閉鎖等,0,2025-09-03,2025-09-01,多賀町商業協同組合,,その他の設立登記法人,滋賀県,犬上郡多賀町,大字多賀２３０番地の１,,25,443,5220341,,,2025-09-01,清算の結了等,,,2015-10-05,1,,,,,タガチョウショウギョウ,0
2003,8180001049912,登記記録の閉鎖等,0,2025-09-03,2025-08-19,株式会社グリーンフーズ,,株式会社,愛知県,名古屋市熱田区,大宝３丁目６番２８号,,23,109,4560062,,,2025-08-19,清算の結了等,,,2015-10-05,1,,,,,グリーンフーズ,0
2006,8180001099809,登記記録の閉鎖等,0,2025-09-03,2025-08-18,株式会社ＳＫＫＺＥＲＯ,,株式会社,愛知県,津島市,杁前町４丁目１８番地１,,23,208,4960033,,,2025-08-18,清算の結了等,,,2015-10-05,1,,,,,エスケイケイゼロ,0
2030,8230002001916,登記記録の閉鎖等,0,2025-09-03,2025-09-01,三井アイ・ネットサービス富山有限会社,,有限会社,富山県,富山市,雄山町３番２３号三井ＩＮＳビル,,16,201,9398092,,,2025-09-01,清算の結了等,,,2015-10-05,1,,,,,ミツイアイネットサービストヤマ,0
2041,8290801024624,登記記録の閉鎖等,0,2025-09-03,2025-09-01,株式会社北九エンジニアリング,,株式会社,福岡県,北九州市八幡西区,浅川台３丁目２１番１４号,,40,109,8070875,,,2025-09-01,清算の結了等,,,2018-05-18,1,,,,,キタキュウエンジニアリング,0
2055,8340002010393,登記記録の閉鎖等,0,2025-09-03,2025-09-01,りそー衛材有限会社,,有限会社,鹿児島県,鹿児島市,唐湊４丁目１６番１号,,46,201,8900081,,,2025-09-01,合併による解散等,5340001001108,令和７年９月１日鹿児島市唐湊四丁目１６番１号カクイ株式会社（5340001001108）に合併し解散,2015-10-05,1,,,,,リソーエイザイ,0
2058,8350001011243,登記記録の閉鎖等,0,2025-09-03,2025-09-01,株式会社秋月組,,株式会社,宮崎県,西都市,大字右松２３０６番地,,45,208,8810003,,,2025-09-01,清算の結了等,,,2015-10-05,1,,,,,アキヅキグミ,0
2061,8360003005738,登記記録の閉鎖等,0,2025-09-03,2025-08-27,合同会社Ｐｅａｃｈ,,合同会社,沖縄県,那覇市,字上間１９７番地２．２０３号室,,47,201,9020073,,,2025-08-27,清算の結了等,,,2015-10-05,1,,,,,ピーチ,0
2062,8360003011380,登記記録の閉鎖等,0,2025-09-03,2025-08-28,合同会社アカツキ,,合同会社,沖縄県,那覇市,首里山川町３丁目７番地３スカイコート那覇１０３,,47,201,9030825,,,2025-08-28,清算の結了等,,,2021-08-23,1,,,,,アカツキ,0
2067,8370001011407,登記記録の閉鎖等,0,2025-09-03,2025-08-20,東北検査株式会社,,株式会社,宮城県,仙台市青葉区,片平１丁目１－３片平ホワイトレジデンス２０２,,04,101,9800812,,,2025-08-20,清算の結了等,,,2015-10-05,1,,,,,トウホクケンサ,0
2071,8370002005102,登記記録の閉鎖等,0,2025-09-03,2025-08-19,有限会社サクマセイホン,,有限会社,宮城県,仙台市若林区,鶴代町５番６８－１号,,04,103,9840001,,,2025-08-19,清算の結了等,,,2015-10-05,1,,,,,サクマセイホン,0
2095,8430003015003,登記記録の閉鎖等,0,2025-09-03,2025-08-19,合同会社Ｖｉｌｌａｇｅ,,合同会社,北海道,札幌市中央区,南五条西１２丁目１２９７番地２２グランドサクセス５１２－４０５号,,01,101,0640805,,,2025-08-19,清算の結了等,,,2023-05-11,1,,,,,ヴィレッジ,0
2099,8500001009008,登記記録の閉鎖等,0,2025-09-03,2025-09-01,株式会社四國陸整,,株式会社,愛媛県,西条市,大町小川１７２番地の１,,38,206,7930030,,,2025-09-01,合併による解散等,6500001001420,令和７年９月１日愛媛県松山市大手町一丁目８番地８共立自動車株式会社（6500001001420）に合併し解散,2015-10-05,1,,,,,シコクリクセイ,0
2100,9010001007200,登記記録の閉鎖等,0,2025-09-03,2025-08-19,株式会社ほほえみ,,株式会社,東京都,文京区,湯島３丁目３９番１号,,13,105,1130034,,,2025-08-19,清算の結了等,,,2015-10-05,1,,,,,ホホエミ,0
2119,9010405015096,登記記録の閉鎖等,0,2025-09-03,2025-08-05,函館特定目的会社,,その他の設立登記法人,東京都,港区,西新橋１丁目１番１号ＥＰコンサルティングサービス内,,13,103,1050003,,,2025-08-05,清算の結了等,,,2016-09-05,1,,,,,ハコダテ,0
2140,9011102028820,登記記録の閉鎖等,0,2025-09-03,2025-08-05,有限会社カーヘルパー・サービス,,有限会社,東京都,新宿区,西落合４丁目１番７号,,13,104,1610031,,,2025-08-05,清算の結了等,,,2015-10-05,1,,,,,カーヘルパーサービス,0
2150,9012401025005,登記記録の閉鎖等,0,2025-09-03,2025-09-01,株式会社エム企画,,株式会社,東京都,三鷹市,上連雀８丁目２７番１０号,,13,204,1810012,,,2025-09-01,清算の結了等,,,2015-10-05,1,,,,,,0
2153,9012402001789,登記記録の閉鎖等,0,2025-09-03,2025-09-01,有限会社ティーエーシー,,有限会社,東京都,府中市,八幡町２丁目２１番地の４,,13,206,1830016,,,2025-09-01,清算の結了等,,,2015-10-05,1,,,,,ティーエーシー,0
2164,9020002065163,登記記録の閉鎖等,0,2025-09-03,2025-08-19,有限会社レイズ,,有限会社,神奈川県,横浜市港北区,岸根町４８７－９,,14,109,2220034,,,2025-08-19,清算の結了等,,,2015-10-05,1,,,,,レイズ,0
2173,9021005000487,登記記録の閉鎖等,0,2025-09-03,2025-08-27,一般社団法人ライフデザイン・ラボ,,その他の設立登記法人,神奈川県,横須賀市,芦名２丁目２２番９号,,14,201,2400104,,,2025-08-27,清算の結了等,,,2015-10-05,1,,,,,ライフデザインラボ,0
2174,9030001042179,登記記録の閉鎖等,0,2025-09-03,2025-08-28,株式会社永島商店,,株式会社,埼玉県,桶川市,大字川田谷４６３８番地の６,,11,231,3630027,,,2025-08-28,清算の結了等,,,2015-10-05,1,,,,,ナガシマショウテン,0
2180,9030002079732,登記記録の閉鎖等,0,2025-09-03,2025-08-28,有限会社福祉会ライフサポート,,有限会社,埼玉県,川越市,大字牛子５４４番地１８,,11,201,3500017,,,2025-08-28,清算の結了等,,,2015-10-05,1,,,,,フクシカイライフサポート,0
2183,9040001040660,登記記録の閉鎖等,0,2025-09-03,2025-08-28,クラウンズ株式会社,,株式会社,千葉県,松戸市,八ケ崎４丁目５２番地の１,,12,207,2700023,,,2025-08-28,合併による解散等,7010501032071,令和７年８月１日東京都台東区雷門二丁目１番３号ＩＧＡ－ＹＡ株式会社（7010501032071）に合併し解散,2015-10-05,1,,,,,クラウンズ,0
2195,9070002015634,登記記録の閉鎖等,0,2025-09-03,2025-09-01,有限会社フクヤ料食,,有限会社,群馬県,高崎市,新町２１４３番地２,,10,202,3701301,,,2025-09-01,清算の結了等,,,2015-10-05,1,,,,,フクヤリョウショク,0
2197,9080003001384,登記記録の閉鎖等,0,2025-09-03,2025-08-29,合同会社ＯＢＳ,,合同会社,静岡県,島田市,本通１丁目４６９１番地の１１,,22,209,4270022,,,2025-08-29,清算の結了等,,,2015-10-05,1,,,,,オービーエス,0
2203,9100002019136,登記記録の閉鎖等,0,2025-09-03,2025-09-01,有限会社有賀電機,,有限会社,長野県,松本市,大字岡田松岡１４３番地５,,20,202,3900312,,,2025-09-01,清算の結了等,,,2015-10-05,1,,,,,アルガデンキ,0
2204,9100005005612,登記記録の閉鎖等,0,2025-09-03,2025-08-28,社会福祉法人信州福祉会,,その他の設立登記法人,長野県,松本市,小屋南１丁目８番１０号,,20,202,3990038,,,2025-08-28,清算の結了等,,,2015-10-05,1,,,,,シンシュウフクシカイ,0
2220,9120002072199,登記記録の閉鎖等,0,2025-09-03,2025-08-27,イ．エム．スタディ有限会社,,有限会社,大阪府,寝屋川市,木田町１４番３２号,,27,215,5720836,,,2025-08-27,清算の結了等,,,2015-10-05,1,,,,,イエムスタディ,0
2231,9122001026788,登記記録の閉鎖等,0,2025-09-03,2025-08-21,Ｋ．Ｙ．Ｒ株式会社,,株式会社,大阪府,大阪市東成区,東小橋３丁目１番１５号,,27,115,5370024,,,2025-08-21,清算の結了等,,,2015-10-05,1,,,,,ケイワイアール,0
2242,9140002069516,登記記録の閉鎖等,0,2025-09-03,2025-08-29,有限会社芝山海産,,有限会社,兵庫県,淡路市,岩屋１７６７番地の１,,28,226,6562401,,,2025-08-29,清算の結了等,,,2015-10-05,1,,,,,シバヤマカイサン,0
2250,9180001048211,登記記録の閉鎖等,0,2025-09-03,2025-08-18,株式会社シンリツ,,株式会社,愛知県,名古屋市南区,寺部通１丁目８番地の１,,23,112,4570072,,,2025-08-18,清算の結了等,,,2015-10-05,1,,,,,シンリツ,0
2251,9180001115036,登記記録の閉鎖等,0,2025-09-03,2025-08-08,株式会社ハンマーワークス,,株式会社,愛知県,名古屋市守山区,小六町１番２０号ダイアパレス千代田橋４０４号,,23,113,4630054,,,2025-08-08,清算の結了等,,,2015-10-05,1,,,,,ハンマーワークス,0
2263,9180002073786,登記記録の閉鎖等,0,2025-09-03,2025-08-18,有限会社ネイチャーリサーチしらとり,,有限会社,愛知県,瀬戸市,北山町１５６番地の１４,,23,204,4890984,,,2025-08-18,清算の結了等,,,2015-10-05,1,,,,,ネイチャーリサーチシラトリ,0
2278,9240001011798,登記記録の閉鎖等,0,2025-09-03,2025-08-29,株式会社Ｍ＆Ｋ,,株式会社,広島県,広島市東区,牛田旭１丁目８番１６号,,34,102,7320067,,,2025-08-29,清算の結了等,,,2015-10-05,1,,,,,エムアンドケイ,0
2285,9240002051422,登記記録の閉鎖等,0,2025-09-03,2025-08-29,朋建工業有限会社,,有限会社,広島県,尾道市,瀬戸田町名荷２３９０番地５,,34,205,7222417,,,2025-08-29,清算の結了等,,,2015-10-05,1,,,,,ホウケンコウギョウ,0
2288,9250001009362,登記記録の閉鎖等,0,2025-09-03,2025-09-01,株式会社八洲設計,,株式会社,山口県,周南市,平原町３番８号,,35,215,7450808,,,2025-09-01,清算の結了等,,,2015-10-05,1,,,,,ヤシマセッケイ,0
2289,9250001009924,登記記録の閉鎖等,0,2025-09-03,2025-09-01,佐伯建設株式会社,,株式会社,山口県,周南市,中畷町１番１３号,,35,215,7460052,,,2025-09-01,清算の結了等,,,2015-10-05,1,,,,,サエキケンセツ,0
2306,9290801018022,登記記録の閉鎖等,0,2025-09-03,2025-08-27,アルナス株式会社,,株式会社,福岡県,北九州市小倉南区,八重洲町１２番１号,,40,107,8020831,,,2025-08-27,清算の結了等,,,2015-10-05,1,,,,,アルナス,0
2312,9290802011331,登記記録の閉鎖等,0,2025-09-03,2025-08-27,有限会社新鋭工業,,有限会社,福岡県,北九州市戸畑区,牧山海岸４番８号,,40,105,8040077,,,2025-08-27,清算の結了等,,,2015-10-05,1,,,,,シンエイコウギョウ,0
2317,9340001014064,登記記録の閉鎖等,0,2025-09-03,2025-08-29,株式会社根占殖産,,株式会社,鹿児島県,肝属郡南大隅町,根占川南７２０番地４,,46,491,8932502,,,2025-08-29,清算の結了等,,,2015-10-05,1,,,,,ネジメショクサン,0
2320,9360001020234,登記記録の閉鎖等,0,2025-09-03,2025-08-26,沖縄保安警備株式会社,,株式会社,沖縄県,島尻郡南風原町,字兼城３７６番地Ｂ－１０２,,47,350,9011111,,,2025-08-26,清算の結了等,,,2015-12-17,1,,,,,オキナワホアンケイビ,0
2321,9360001034457,登記記録の閉鎖等,0,2025-09-03,2025-08-28,達＆達株式会社,,株式会社,沖縄県,那覇市,松川３丁目１８番３５－４０２室,,47,201,9020062,,,2025-08-28,清算の結了等,,,2024-11-27,1,,,,,タツアンドタツ,0
2330,9430001072870,登記記録の閉鎖等,0,2025-09-03,2025-08-15,株式会社オンバス,,株式会社,北海道,小樽市,望洋台３丁目８番１４号,,01,203,0470155,,,2025-08-15,清算の結了等,,,2016-12-08,1,,,,,オンバス,0
2334,9450001000706,登記記録の閉鎖等,0,2025-09-03,2025-09-01,小山内建設株式会社,,株式会社,北海道,旭川市,神居八条１３丁目１番７号,,01,204,0708018,,,2025-09-01,清算の結了等,,,2015-10-05,1,,,,,オサナイケンセツ,0
2343,9480002000561,登記記録の閉鎖等,0,2025-09-03,2025-09-01,有限会社エスケイ,,有限会社,徳島県,徳島市,八万町内浜１１８番地４,,36,201,7708076,,,2025-09-01,清算の結了等,,,2015-10-05,1,,,,,,0
