sequenceNumber,corporateNumber,process,correct,updateDate,changeDate,name,nameImageId,kind,prefectureName,cityName,streetNumber,addressImageId,prefectureCode,cityCode,postCode,addressOutside,addressOutsideImageId,closeDate,closeCause,successorCorporateNumber,changeCause,assignmentDate,latest,enName,enPrefectureName,enCityName,enAddressOutside,furigana,hihyoji
20,1010103001538,登記記録の閉鎖等,0,2022-04-06,2022-03-30,合同会社ＰｏｃｏＳｔｅｐ,,合同会社,東京都,中央区,銀座７丁目１３番６号サガミビル２階,,13,102,1040061,,,2022-03-30,清算の結了等,,,2020-05-12,1,,,,,ポコステップ,0
47,1010902019128,登記記録の閉鎖等,0,2022-04-06,2022-03-31,有限会社テイ・エス保険サービス,,有限会社,東京都,世田谷区,上馬４丁目４番２号,,13,112,1540011,,,2022-03-31,清算の結了等,,,2015-10-05,1,,,,,テイエスホケンサービス,0
62,1011101001793,登記記録の閉鎖等,0,2022-04-06,2022-03-31,石田精機株式会社,,株式会社,東京都,新宿区,左門町１９番地１,,13,104,1600017,,,2022-03-31,清算の結了等,,,2015-10-05,1,,,,,イシダセイキ,0
64,1011101081902,登記記録の閉鎖等,0,2022-04-06,2022-03-31,益友パートナーズ株式会社,,株式会社,東京都,新宿区,津久戸町１番８号,,13,104,1620821,,,2022-03-31,清算の結了等,,,2017-10-06,1,,,,,エキユウパートナーズ,0
69,1011105004982,登記記録の閉鎖等,0,2022-04-06,2022-03-31,一般社団法人慰謝料・損害賠償額査定センター,,その他の設立登記法人,東京都,新宿区,西新宿２丁目６番１号新宿住友ビル１４階,,13,104,1600023,,,2022-03-31,清算の結了等,,,2015-10-05,1,,,,,イシャリョウソンガイバイショウガクサテイセンター,0
70,1011401022077,登記記録の閉鎖等,0,2022-04-06,2022-04-01,株式会社ガム,,株式会社,東京都,板橋区,東坂下１丁目４番３号,,13,119,1740042,,,2022-04-01,清算の結了等,,,2019-09-10,1,,,,,ガム,0
145,1080002011631,登記記録の閉鎖等,0,2022-04-06,2022-04-01,有限会社リトルホーク,,有限会社,静岡県,静岡市清水区,上力町６番２２号,,22,103,4240856,,,2022-04-01,清算の結了等,,,2015-10-05,1,,,,,リトルホーク,0
159,1110003000571,登記記録の閉鎖等,0,2022-04-06,2022-04-01,合同会社金子コンサルティング事務所,,合同会社,新潟県,新潟市中央区,網川原１丁目４番１号,,15,103,9500964,,,2022-04-01,清算の結了等,,,2015-10-05,1,,,,,カネココンサルティングジムショ,0
194,1130001011478,登記記録の閉鎖等,0,2022-04-06,2022-04-01,株式会社ハトヤフーズ,,株式会社,京都府,京都市南区,西九条藤ノ木町２３番地,,26,107,6018421,,,2022-04-01,合併による解散等,1130001011494,令和４年４月１日京都市南区西九条藤ノ木町２３番地株式会社ハトヤ観光（1130001011494）に合併し解散,2015-10-05,1,,,,,ハトヤフーズ,0
210,1180002067936,登記記録の閉鎖等,0,2022-04-06,2022-03-31,有限会社エムアンドティー,,有限会社,愛知県,春日井市,角崎町８番地の４,,23,206,4860943,,,2022-03-31,清算の結了等,,,2015-10-05,1,,,,,エムアンドティー,0
234,1260001020103,登記記録の閉鎖等,0,2022-04-06,2022-03-31,西村酒造株式会社,,株式会社,岡山県,苫田郡鏡野町,河本５３０番地,,33,606,7080343,,,2022-03-31,清算の結了等,,,2015-10-05,1,,,,,ニシムラシュゾウ,0
240,1260005000687,登記記録の閉鎖等,0,2022-04-06,2022-03-18,天理教楽一分教会,,その他の設立登記法人,岡山県,岡山市北区,東島田町２丁目５番２号,,33,101,7000983,,,2022-03-18,合併による解散等,8260005000607,令和４年３月１８日岡山市中区藤原３２番地天理教岡山大教会（8260005000607）に合併し解散,2015-10-05,1,,,,,テンリキョウラクイチブンキョウカイ,0
256,1290801014152,登記記録の閉鎖等,0,2022-04-06,2022-03-31,正栄電業株式会社,,株式会社,福岡県,宮若市,稲光２７１番地１３,,40,226,8220144,,,2022-03-31,清算の結了等,,,2015-10-05,1,,,,,ショウエイデンギョウ,0
262,1300003001088,登記記録の閉鎖等,0,2022-04-06,2022-03-31,合同会社笑福,,合同会社,佐賀県,唐津市,千々賀１１８５番地,,41,202,8470831,,,2022-03-31,清算の結了等,,,2015-10-05,1,,,,,ショウフク,0
265,1310001001493,登記記録の閉鎖等,0,2022-04-06,2022-04-01,長崎保証サービス株式会社,,株式会社,長崎県,長崎市,出島町１０番１０号,,42,201,8500862,,,2022-04-01,合併による解散等,2290001017640,令和４年４月１日福岡市西区姪浜駅南一丁目７番１号ふくぎん保証株式会社（2290001017640）に合併し解散,2015-10-05,1,,,,,ナガサキホショウサービス,0
271,1320202000418,登記記録の閉鎖等,0,2022-04-06,2022-04-01,ＦＴＳ株式会社,,株式会社,大分県,臼杵市,大字家野１９７４番地,,44,206,8750065,,,2022-04-01,清算の結了等,,,2015-10-05,1,,,,,エフティエス,0
290,1380001003772,登記記録の閉鎖等,0,2022-04-06,2022-04-01,株式会社伊達物産やまとフーズ,,株式会社,福島県,伊達市,霊山町山野川字柳沢入３１番地１１,,07,213,9600802,,,2022-04-01,合併による解散等,7380001003271,令和４年４月１日福島県伊達市梁川町字南町谷川１３番地伊達物産株式会社（7380001003271）に合併し解散,2015-10-05,1,,,,,,0
295,1390001014629,登記記録の閉鎖等,0,2022-04-06,2022-04-01,アプリカティブ株式会社,,株式会社,山形県,酒田市,上安町１丁目１番地の２４,,06,204,9980011,,,2022-04-01,清算の結了等,,,2016-09-09,1,,,,,アプリカティブ,0
305,1430001084312,登記記録の閉鎖等,0,2022-04-06,2022-03-30,株式会社金井測量設計事務所,,株式会社,北海道,虻田郡ニセコ町,字本通１０３番地,,01,395,0481502,,,2022-03-30,清算の結了等,,,2021-06-22,1,,,,,カナイソクリョウセッケイジムショ,0
307,1430002064214,登記記録の閉鎖等,0,2022-04-06,2022-03-31,有限会社プロ・アート２０００,,有限会社,北海道,室蘭市,本輪西町５丁目２番２号,,01,205,0500065,,,2022-03-31,清算の結了等,,,2015-10-05,1,,,,,,0
346,2010401079630,登記記録の閉鎖等,0,2022-04-06,2022-03-28,株式会社クライマックス,,株式会社,東京都,目黒区,目黒本町２丁目２２番６号,,13,110,1520002,,,2022-03-28,清算の結了等,,,2015-10-05,1,,,,,,0
354,2010405017322,登記記録の閉鎖等,0,2022-04-06,2022-03-28,一般社団法人日本産業新技術振興協議会,,その他の設立登記法人,東京都,港区,三田３丁目４番３号,,13,103,1080073,,,2022-03-28,清算の結了等,,,2019-01-04,1,,,,,ニホンサンギョウシンギジュツシンコウキョウギカイ,0
380,2011003001635,登記記録の閉鎖等,0,2022-04-06,2022-03-29,合同会社冥王星,,合同会社,東京都,渋谷区,大山町４０番１７－２０３号,,13,113,1510065,,,2022-03-29,清算の結了等,,,2015-10-05,1,,,,,メイオウセイ,0
394,2011702007214,登記記録の閉鎖等,0,2022-04-06,2022-03-28,有限会社武本,,有限会社,東京都,江戸川区,南小岩２丁目９番２６号,,13,123,1330056,,,2022-03-28,清算の結了等,,,2016-06-21,1,,,,,タケモト,0
408,2012702004481,登記記録の閉鎖等,0,2022-04-06,2022-04-05,有限会社滝島自動車工業,,有限会社,東京都,西東京市,保谷町１丁目１８番８号,,13,229,2020015,,,2022-04-05,清算の結了等,,,2015-10-05,1,,,,,タキシマジドウシャコウギョウ,0
416,2013305002393,登記記録の閉鎖等,0,2022-04-06,2022-03-31,特定非営利活動法人犯罪被害者緊急支援機構,,その他の設立登記法人,東京都,豊島区,南池袋２丁目４１番１２号池袋セントラル２０５,,13,116,1710022,,,2022-03-31,清算の結了等,,,2015-10-05,1,,,,,ハンザイヒガイシャキンキュウシエンキコウ,0
435,2021003008860,登記記録の閉鎖等,0,2022-04-06,2022-02-28,合同会社Ｍｉｘｓｋｉｎ,,合同会社,神奈川県,相模原市緑区,城山１丁目２１番１８号,,14,151,2520116,,,2022-02-28,清算の結了等,,,2019-12-16,1,,,,,ミックスキン,0
457,2070001003398,登記記録の閉鎖等,0,2022-04-06,2022-03-31,株式会社エムワイエフサービス,,株式会社,群馬県,前橋市,高花台１丁目１０番地２４,,10,201,3710123,,,2022-03-31,清算の結了等,,,2015-10-05,1,,,,,エムワイエフサービス,0
508,2120901019199,登記記録の閉鎖等,0,2022-04-06,2022-04-01,株式会社コウシン,,株式会社,大阪府,摂津市,鳥飼上２丁目１番２１号,,27,224,5660062,,,2022-04-01,清算の結了等,,,2015-10-05,1,,,,,コウシン,0
541,2200001009258,登記記録の閉鎖等,0,2022-04-06,2022-04-01,株式会社リアライズロジスティクス,,株式会社,岐阜県,岐阜市,柳津町下佐波４丁目１番地,,21,201,5016121,,,2022-04-01,清算の結了等,,,2015-10-05,1,,,,,リアライズロジスティクス,0
571,2260002006728,登記記録の閉鎖等,0,2022-04-06,2022-04-01,有限会社デンタルアート,,有限会社,岡山県,岡山市北区,東古松５０４番３,,33,101,7000921,,,2022-04-01,合併による解散等,4260001011082,令和４年４月１日岡山市北区東古松５０４番地３株式会社アスペック（4260001011082）に合併し解散,2015-10-05,1,,,,,デンタルアート,0
586,2290005017083,登記記録の閉鎖等,0,2022-04-06,2022-04-04,一般社団法人音育デザイン,,その他の設立登記法人,福岡県,筑紫野市,湯町３丁目１２番８号,,40,217,8180058,,,2022-04-04,清算の結了等,,,2018-12-07,1,,,,,オトイクデザイン,0
598,2340005002856,登記記録の閉鎖等,0,2022-04-06,2022-03-24,農事組合法人加治屋地区山仁田肉用牛生産組合,,その他の設立登記法人,鹿児島県,姶良郡湧水町,般若寺５３１番地１,,46,452,8996105,,,2022-03-24,清算の結了等,,,2015-10-05,1,,,,,カジヤチクヤマニタニクヨウギュウセイサンクミアイ,0
607,2380001011584,登記記録の閉鎖等,0,2022-04-06,2022-03-30,株式会社城野組,,株式会社,福島県,石川郡石川町,字高田２６４番地,,07,501,9637845,,,2022-03-30,清算の結了等,,,2021-09-01,1,,,,,ジョウノグミ,0
636,2480002001913,登記記録の閉鎖等,0,2022-04-06,2022-04-01,有限会社三大興業,,有限会社,徳島県,徳島市,川内町平石古田２４３番地４,,36,201,7710136,,,2022-04-01,清算の結了等,,,2015-10-05,1,,,,,サンダイコギョウ,0
699,3011002005529,登記記録の閉鎖等,0,2022-04-06,2022-03-25,有限会社重本,,有限会社,東京都,渋谷区,恵比寿南３丁目４番１７号,,13,113,1500022,,,2022-03-25,清算の結了等,,,2015-10-05,1,,,,,シゲモト,0
706,3011101072131,登記記録の閉鎖等,0,2022-04-06,2022-04-01,株式会社ネクスト,,株式会社,東京都,新宿区,北新宿１丁目１番１５号ＬＥＥ５ビル７Ｆ,,13,104,1690074,,,2022-04-01,清算の結了等,,,2015-10-05,1,,,,,ネクスト,0
747,3021001074739,登記記録の閉鎖等,0,2022-04-06,2022-03-31,ＳＳＳ株式会社,,株式会社,神奈川県,相模原市南区,相模大野７丁目６番８号,,14,153,2520303,,,2022-03-31,合併による解散等,3021001067395,令和４年３月３１日神奈川県相模原市南区相模大野七丁目６番８号ＳＫＹ株式会社（3021001067395）に合併し解散,2021-12-15,1,,,,,エスエスエス,0
751,3021002073896,登記記録の閉鎖等,0,2022-04-06,2022-03-30,有限会社藤本商事,,有限会社,神奈川県,小田原市,扇町１丁目２５番１０号,,14,206,2500001,,,2022-03-30,清算の結了等,,,2021-10-19,1,,,,,フジモトショウジ,0
752,3030001079227,登記記録の閉鎖等,0,2022-04-06,2022-03-29,株式会社川金テクノソリューション,,株式会社,埼玉県,川口市,宮町１８番１９号,,11,203,3320028,,,2022-03-29,合併による解散等,2030001081828,令和４年３月２８日埼玉県川口市川口二丁目２番７号株式会社川金コアテック（2030001081828）に合併し解散,2015-10-05,1,,,,,カワキンテクノソリューション,0
790,3050002037330,登記記録の閉鎖等,0,2022-04-06,2022-03-30,有限会社サン・ライフ,,有限会社,茨城県,取手市,小浮気７９０番地２,,08,217,3001531,,,2022-03-30,清算の結了等,,,2015-10-05,1,,,,,サンライフ,0
807,3090001000698,登記記録の閉鎖等,0,2022-04-06,2022-04-01,公営事業サービス株式会社,,株式会社,山梨県,甲府市,小曲町３７番地９,,19,201,4000841,,,2022-04-01,合併による解散等,5090001001042,令和４年４月１日山梨県甲府市小曲町３７番地９シティーメンテナンス株式会社（5090001001042）に合併し解散,2015-10-05,1,,,,,コウエイジギョウサービス,0
825,3120001067370,登記記録の閉鎖等,0,2022-04-06,2022-03-31,株式会社テクシード,,株式会社,大阪府,大阪市城東区,鴫野西５丁目２０番１７号,,27,118,5360014,,,2022-03-31,清算の結了等,,,2015-10-05,1,,,,,テクシード,0
827,3120001085265,登記記録の閉鎖等,0,2022-04-06,2022-03-24,東カイ興産株式会社,,株式会社,大阪府,大阪市中央区,（大阪市南区東平二丁目５番７号）,,27,128,5390000,,,2022-03-24,清算の結了等,,,2021-12-22,1,,,,,,0
834,3120001182871,登記記録の閉鎖等,0,2022-04-06,2022-03-23,株式会社アート・ビュー,,株式会社,大阪府,大阪市中央区,高麗橋１丁目７番７号－４０１１,,27,128,5410043,,,2022-03-23,合併による解散等,9130002023102,令和４年３月２１日大阪市中央区高麗橋１－７－７－４０１１株式会社アート・ビュー（9130002023102）に合併し解散,2015-10-05,1,,,,,アートビュー,0
855,3120101039476,登記記録の閉鎖等,0,2022-04-06,2022-03-31,株式会社オーアイシー,,株式会社,大阪府,泉佐野市,鶴原３丁目１２番４１号,,27,213,5980071,,,2022-03-31,清算の結了等,,,2015-10-05,1,,,,,オーアイシー,0
862,3120901030898,登記記録の閉鎖等,0,2022-04-06,2022-03-31,株式会社Ｓｏｕｔｈ　Ｆｉｅｌｄ,,株式会社,大阪府,阪南市,箱の浦３８９番地の４,,27,232,5990235,,,2022-03-31,清算の結了等,,,2015-10-05,1,,,,,サウスフィールド,0
867,3122001014121,登記記録の閉鎖等,0,2022-04-06,2022-03-28,バンラインエンジニアリング株式会社,,株式会社,大阪府,東大阪市,足代北１丁目８番２号,,27,227,5770058,,,2022-03-28,清算の結了等,,,2015-10-05,1,,,,,バンラインエンジニアリング,0
890,3180001071425,登記記録の閉鎖等,0,2022-04-06,2022-03-30,株式会社ＧＬＩ,,株式会社,愛知県,あま市,七宝町下之森内河原３３番,,23,237,4970006,,,2022-03-30,合併による解散等,1180001053961,令和４年３月３０日名古屋市東区泉一丁目１番３５号ハイエスト久屋ビル５階Ｄｉｖｅｒ　ｄｙｎｅ株式会社（1180001053961）に合併し解散,2015-10-05,1,,,,,ジーエルアイ,0
894,3180001096785,登記記録の閉鎖等,0,2022-04-06,2022-03-29,伸興通産株式会社,,株式会社,愛知県,海部郡蟹江町,須成西３丁目６８番地,,23,425,4970036,,,2022-03-29,清算の結了等,,,2015-10-05,1,,,,,シンコウツウサン,0
900,3180002065946,登記記録の閉鎖等,0,2022-04-06,2022-03-31,有限会社コバヤシ,,有限会社,愛知県,春日井市,白山町８丁目１番地の１,,23,206,4870034,,,2022-03-31,清算の結了等,,,2015-10-05,1,,,,,コバヤシ,0
917,3220002011615,登記記録の閉鎖等,0,2022-04-06,2022-04-01,有限会社スパーク工業,,有限会社,石川県,能美市,中町ソ８６番地４,,17,211,9290123,,,2022-04-01,合併による解散等,3220001022480,令和４年４月１日石川県金沢市湊三丁目２４番地株式会社コグレ（3220001022480）に合併し解散,2015-10-05,1,,,,,スパークコウギョウ,0
929,3260001003337,登記記録の閉鎖等,0,2022-04-06,2022-04-01,シモデンスタッフサービス株式会社,,株式会社,岡山県,岡山市北区,厚生町１丁目２番８号,,33,101,7000985,,,2022-04-01,合併による解散等,7260001003341,令和４年４月１日岡山市北区厚生町一丁目２番８号株式会社シモデンツーリスト（7260001003341）に合併し解散,2015-10-05,1,,,,,シモデンスタッフサービス,0
943,3290802002419,登記記録の閉鎖等,0,2022-04-06,2022-03-31,有限会社小倉東洋軒,,有限会社,福岡県,北九州市小倉北区,黄金１丁目４番３０号,,40,106,8020071,,,2022-03-31,清算の結了等,,,2015-10-05,1,,,,,コクラトウヨウケン,0
981,3400002011547,登記記録の閉鎖等,0,2022-04-06,2022-04-01,有限会社木村工務店,,有限会社,岩手県,釜石市,唐丹町字小白浜２９５番地,,03,211,0260121,,,2022-04-01,清算の結了等,,,2015-10-05,1,,,,,キムラコウムテン,0
1031,4010405012429,登記記録の閉鎖等,0,2022-04-06,2022-03-28,一般社団法人オーストラリア留学協会,,その他の設立登記法人,東京都,港区,南青山２丁目２番１５号,,13,103,1070062,,,2022-03-28,清算の結了等,,,2015-10-05,1,,,,,オーストラリアリュウガクキョウカイ,0
1044,4010801017782,登記記録の閉鎖等,0,2022-04-06,2022-03-31,株式会社スターコーポレーション,,株式会社,東京都,大田区,久が原５丁目３０番５号,,13,111,1460085,,,2022-03-31,清算の結了等,,,2015-10-05,1,,,,,スターコーポレーション,0
1067,4011401004683,登記記録の閉鎖等,0,2022-04-06,2022-03-30,戸崎工機株式会社,,株式会社,東京都,板橋区,志村２丁目１４番８号,,13,119,1740056,,,2022-03-30,清算の結了等,,,2015-10-05,1,,,,,トザキコウキ,0
1085,4013303003409,登記記録の閉鎖等,0,2022-04-06,2022-03-30,日春合同会社,,合同会社,千葉県,成田市,東和田５６９番地,,12,211,2860134,,,2022-03-30,清算の結了等,,,2016-09-26,1,,,,,ニチハル,0
1109,4030001023902,登記記録の閉鎖等,0,2022-04-06,2022-03-31,菊屋商事株式会社,,株式会社,埼玉県,所沢市,旭町１４番８号,,11,208,3590036,,,2022-03-31,清算の結了等,,,2015-10-05,1,,,,,キクヤショウジ,0
1133,4040005012685,登記記録の閉鎖等,0,2022-04-06,2022-03-30,医療法人社団小高医院,00021625,その他の設立登記法人,千葉県,山武郡横芝光町,横芝２２７２番地,,12,410,2891732,,,2022-03-30,清算の結了等,,,2015-10-05,1,,,,,オダカイイン,0
1148,4080102008764,登記記録の閉鎖等,0,2022-04-06,2022-03-28,有限会社旅館おおや,,有限会社,静岡県,伊豆市,土肥７４６番地,,22,222,4103302,,,2022-03-28,清算の結了等,,,2015-10-05,1,,,,,リョカンオオヤ,0
1157,4100002012772,登記記録の閉鎖等,0,2022-04-06,2022-04-01,有限会社三田工業,,有限会社,長野県,小諸市,御幸町２丁目１番１号,,20,208,3840005,,,2022-04-01,清算の結了等,,,2015-10-05,1,,,,,ミタコウギョウ,0
1174,4120001215993,登記記録の閉鎖等,0,2022-04-06,2022-03-31,ヤチヨフーディングシステム株式会社,,株式会社,大阪府,大阪市北区,堂島浜２丁目２番２８号堂島アクシスビル３階株式会社ジーピーオンライン内,,27,127,5300004,,,2022-03-31,清算の結了等,,,2018-09-20,1,,,,,ヤチヨフーディングシステム,0
1194,4120101001468,登記記録の閉鎖等,0,2022-04-06,2022-03-31,関西理水工業株式会社,00032082,株式会社,大阪府,堺市西区,浜寺昭和町２丁２５１番地,,27,144,5928345,,,2022-03-31,清算の結了等,,,2015-10-05,1,,,,,カンサイリスイコウギョウ,0
1250,4240001009013,登記記録の閉鎖等,0,2022-04-06,2022-04-01,株式会社マイティネットプラス,,株式会社,広島県,広島市中区,八丁堀１６番３号,,34,101,7300013,,,2022-04-01,合併による解散等,4240001057689,令和４年４月１日広島市中区紙屋町一丁目３番８号ひろぎんヒューマンリソース株式会社（4240001057689）に合併し解散,2015-10-05,1,,,,,マイティネットプラス,0
1276,4310001016712,登記記録の閉鎖等,0,2022-04-06,2022-04-01,株式会社リージョナルスタッフィング長崎,,株式会社,長崎県,長崎市,万才町３番５号,,42,201,8500033,,,2022-04-01,合併による解散等,1310001014009,令和４年４月１日長崎市万才町３番５号株式会社リージョナルクリエーション長崎（1310001014009）に合併し解散,2020-06-04,1,,,,,リージョナルスタッフィングナガサキ,0
1280,4330001001902,登記記録の閉鎖等,0,2022-04-06,2022-03-31,株式会社三栄保温,,株式会社,熊本県,熊本市東区,保田窪４丁目１０番７２号,,43,102,8620926,,,2022-03-31,清算の結了等,,,2015-10-05,1,,,,,サンエイホオン,0
1313,4410002012411,登記記録の閉鎖等,0,2022-04-06,2022-04-01,有限会社エフ・エー・エムメデカルサービス,,有限会社,秋田県,仙北郡美郷町,六郷字新町３３番地２,,05,434,0191404,,,2022-04-01,清算の結了等,,,2015-10-05,1,,,,,エフエーエムメデカルサービス,0
1341,5010005008677,登記記録の閉鎖等,0,2022-04-06,2022-03-28,コスモ税理士法人,,その他の設立登記法人,東京都,中央区,入船２丁目５番８号松戸ビル３Ｆ,,13,102,1040042,,,2022-03-28,清算の結了等,,,2015-10-05,1,,,,,コスモ,0
1357,5010501030283,登記記録の閉鎖等,0,2022-04-06,2022-04-04,株式会社カミノ,,株式会社,東京都,台東区,東上野２丁目１０番１２号,,13,106,1100015,,,2022-04-04,清算の結了等,,,2015-10-05,1,,,,,,0
1386,5011501025554,登記記録の閉鎖等,0,2022-04-06,2022-03-31,アイリス株式会社,,株式会社,東京都,荒川区,西日暮里５丁目６番１０号ｇｒａｎ＋ＮＩＳＨＩＮＩＰＰＯＲＩ４階,,13,118,1160013,,,2022-03-31,合併による解散等,2030001094648,令和４年３月３１日東京都荒川区西日暮里五丁目６番１０号ｇｒａｎ＋ＮＩＳＨＩＮＩＰＰＯＲＩ４階ティースリー株式会社（2030001094648）に合併し解散,2020-02-10,1,,,,,アイリス,0
1402,5013401001057,登記記録の閉鎖等,0,2022-04-06,2022-03-29,株式会社栗栖,,株式会社,東京都,多摩市,落合１丁目２０番地１０,,13,224,2060033,,,2022-03-29,清算の結了等,,,2015-10-05,1,,,,,,0
1404,5020001071273,登記記録の閉鎖等,0,2022-04-06,2022-04-01,東芝ソシオシステムズ株式会社,,株式会社,神奈川県,川崎市幸区,小向東芝町１番地,,14,132,2120001,,,2022-04-01,合併による解散等,4020001076934,令和４年４月１日川崎市川崎区駅前本町１２番地１東芝自動機器システムサービス株式会社（4020001076934）に合併し解散,2015-10-05,1,,,,,トウシバソシオシステムズ,0
1441,5050001022199,登記記録の閉鎖等,0,2022-04-06,2022-03-30,平成建設株式会社,,株式会社,茨城県,神栖市,平泉９０３番地１０４,,08,232,3140146,,,2022-03-30,清算の結了等,,,2015-10-05,1,,,,,ヘイセイケンセツ,0
1447,5060002015036,登記記録の閉鎖等,0,2022-04-06,2022-03-31,諸室建設有限会社,,有限会社,栃木県,日光市,木和田島１３７５番地１７,,09,206,3212345,,,2022-03-31,清算の結了等,,,2015-10-05,1,,,,,ショムロケンセツ,0
1452,5080001019176,登記記録の閉鎖等,0,2022-04-06,2022-04-01,株式会社フジドリームアビエーションエンジニアリング,,株式会社,静岡県,牧之原市,坂口３５２０番地の１１,,22,226,4210411,,,2022-04-01,合併による解散等,2080001009460,令和４年４月１日静岡市清水区入船町１１番１号鈴與株式会社（2080001009460）に合併し解散,2015-10-05,1,,,,,フジドリームアビエーションエンジニアリング,0
1471,5110002031309,登記記録の閉鎖等,0,2022-04-06,2022-03-30,有限会社ファッションジョイ,,有限会社,新潟県,長岡市,栄町２丁目８番３３号,,15,202,9400205,,,2022-03-30,清算の結了等,,,2015-10-05,1,,,,,ファッションジョイ,0
1480,5120001085767,登記記録の閉鎖等,0,2022-04-06,2022-04-01,大阪トヨタ商事株式会社,,株式会社,大阪府,大阪市福島区,福島５丁目１７番２号,,27,103,5530003,,,2022-04-01,合併による解散等,3120001037019,令和４年４月１日大阪市福島区福島五丁目１７番２号大阪トヨタ自動車株式会社（3120001037019）に合併し解散,2015-10-05,1,,,,,オオサカトヨタショウジ,0
1515,5130001048236,登記記録の閉鎖等,0,2022-04-06,2022-04-01,黒ウコンジャパン株式会社,,株式会社,京都府,亀岡市,馬路町堂ノ西３番地１,,26,206,6210008,,,2022-04-01,清算の結了等,,,2015-10-05,1,,,,,クロウコンジャパン,0
1541,5180001006437,登記記録の閉鎖等,0,2022-04-06,2022-04-01,三栄大丸株式会社,,株式会社,愛知県,名古屋市港区,砂美町５０番地,,23,111,4550056,,,2022-04-01,合併による解散等,2180001094848,令和４年４月１日愛知県知多市新刀池二丁目６番地日鉄物産名古屋コイルセンター株式会社（2180001094848）に合併し解散,2015-10-05,1,,,,,サンエイダイマル,0
1549,5180002081909,登記記録の閉鎖等,0,2022-04-06,2022-03-31,有限会社三興製作所,,有限会社,愛知県,江南市,大字宮田町四ッ谷２３３番地,,23,217,4830000,,,2022-03-31,清算の結了等,,,2015-10-05,1,,,,,サンコウセイサクショ,0
1556,5190001011642,登記記録の閉鎖等,0,2022-04-06,2022-03-31,株式会社　西川砂利,,株式会社,三重県,多気郡大台町,新田７４番地４,,24,443,5192423,,,2022-03-31,清算の結了等,,,2017-08-09,1,,,,,ニシカワジャリ,0
1559,5200001004132,登記記録の閉鎖等,0,2022-04-06,2022-04-01,野々村食品工業株式会社,,株式会社,岐阜県,岐阜市,北島８丁目２番５号,,21,201,5020911,,,2022-04-01,合併による解散等,2200001016147,令和４年４月１日岐阜県揖斐郡大野町五之里５１６番地の１株式会社トーカイフーズ（2200001016147）に合併し解散,2015-10-05,1,,,,,ノノムラショクヒンコウギョウ,0
1576,5230001011654,登記記録の閉鎖等,0,2022-04-06,2022-03-23,株式会社氷見メツキ工業所,,株式会社,富山県,氷見市,柳田３３５６番地の８,,16,205,9350031,,,2022-03-23,清算の結了等,,,2015-10-05,1,,,,,,0
1591,5260001001181,登記記録の閉鎖等,0,2022-04-06,2022-04-04,株式会社岡山大丸,,株式会社,岡山県,岡山市北区,表町３丁目１４番２１号,,33,101,7000822,,,2022-04-04,清算の結了等,,,2015-10-05,1,,,,,オカヤマダイマル,0
1605,5290002008074,登記記録の閉鎖等,0,2022-04-06,2022-04-01,株式会社サンエイ企画,,株式会社,福岡県,福岡市早良区,西新４丁目９番１５号,,40,137,8140002,,,2022-04-01,合併による解散等,4290002024543,令和４年４月１日福岡市早良区西新四丁目９番１５号株式会社三友商事（4290002024543）に合併し解散,2015-10-05,1,,,,,サンエイキカク,0
1617,5290805000236,登記記録の閉鎖等,0,2022-04-06,2022-03-11,天理教本好倉分教会,,その他の設立登記法人,福岡県,北九州市小倉南区,中曽根東２丁目３番１０号,,40,107,8000213,,,2022-03-11,合併による解散等,1290805000223,令和４年３月１１日北九州市小倉北区中島一丁目１５番１６号天理教本新郷分教会（1290805000223）に合併し解散,2015-10-05,1,,,,,,0
1630,5340002006881,登記記録の閉鎖等,0,2022-04-06,2022-04-01,中田上有限会社,,有限会社,鹿児島県,鹿児島市,真砂町８４番１９号,,46,201,8900066,,,2022-04-01,合併による解散等,4340001003666,令和４年４月１日鹿児島市真砂町８４番１９号ファルマコム株式会社（4340001003666）に合併し解散,2015-10-05,1,,,,,ナカタガミ,0
1681,6010001202679,登記記録の閉鎖等,0,2022-04-06,2022-03-30,株式会社Ｃ－Ｂｒｉｄｇｅ,,株式会社,東京都,中央区,日本橋人形町１丁目１０番３号,,13,102,1030013,,,2022-03-30,清算の結了等,,,2019-07-25,1,,,,,シーブリッジ,0
1698,6010401111752,登記記録の閉鎖等,0,2022-04-06,2022-03-28,ウィントン・キャピタル・ジャパン株式会社,,株式会社,東京都,港区,南麻布３丁目１９番２３号オーク南麻布ビル２階,,13,103,1060047,,,2022-03-28,清算の結了等,,,2015-10-05,1,,,,,ウィントンキャピタルジャパン,0
1708,6010502008889,登記記録の閉鎖等,0,2022-04-06,2022-03-31,有限会社萩原商店,,有限会社,東京都,台東区,柳橋１丁目１０番２号,,13,106,1110052,,,2022-03-31,清算の結了等,,,2015-10-05,1,,,,,ハギワラショウテン,0
1746,6012702007794,登記記録の閉鎖等,0,2022-04-06,2022-04-04,有限会社ケーエム,,有限会社,東京都,清瀬市,旭が丘１丁目６２０番地の２８,,13,221,2040002,,,2022-04-04,清算の結了等,,,2015-10-05,1,,,,,ケーエム,0
1750,6013303004033,登記記録の閉鎖等,0,2022-04-06,2022-03-31,合同会社Ｌａｍｂｄａ　Ｏｎｅ,,合同会社,東京都,豊島区,南大塚２丁目１１番１０号ミモザビル３階,,13,116,1700005,,,2022-03-31,清算の結了等,,,2018-01-25,1,,,,,ラムダワン,0
1765,6021001023949,登記記録の閉鎖等,0,2022-04-06,2022-04-01,株式会社Ｎ＆Ｈ　Ｃｏｍｍｕｎｉｃａｔｉｏｎｓ,,株式会社,神奈川県,平塚市,広川８１９番地５,,14,203,2591219,,,2022-04-01,清算の結了等,,,2015-10-05,1,,,,,エヌアンドエイチコミュニケーションズ,0
1773,6030001061768,登記記録の閉鎖等,0,2022-04-06,2022-04-01,スマイルハウス株式会社,,株式会社,埼玉県,鴻巣市,本町４丁目１番１０号,,11,217,3650038,,,2022-04-01,合併による解散等,9030001062094,令和４年４月１日埼玉県鴻巣市本町四丁目１番１０号スマイルハウス株式会社（9030001062094）に合併し解散,2015-10-05,1,,,,,スマイルハウス,0
1793,6050001001350,登記記録の閉鎖等,0,2022-04-06,2022-03-30,株式会社しらうめ,,株式会社,茨城県,水戸市,白梅２丁目４番７号,,08,201,3100804,,,2022-03-30,清算の結了等,,,2015-10-05,1,,,,,シラウメ,0
1797,6060002024746,登記記録の閉鎖等,0,2022-04-06,2022-03-31,有限会社ボンレーヴ,,有限会社,栃木県,那須郡那須町,大字湯本７２７番地１３,,09,407,3250301,,,2022-03-31,清算の結了等,,,2015-10-05,1,,,,,ボンレーヴ,0
1806,6080001023169,登記記録の閉鎖等,0,2022-04-06,2022-04-04,株式会社すごだまにんにく,,株式会社,静岡県,静岡市葵区,東瀬名町４番６号,,22,101,4200912,,,2022-04-04,清算の結了等,,,2019-10-23,1,,,,,スゴダマニンニク,0
1867,6140001059520,登記記録の閉鎖等,0,2022-04-06,2022-04-01,株式会社スイム,,株式会社,兵庫県,姫路市,東延末３丁目５０姫路駅南マークビル１Ｆ,,28,201,6700965,,,2022-04-01,合併による解散等,6140001059272,令和４年４月１日兵庫県姫路市北条５０７番地神姫Ｂｉｚプロデュース株式会社（6140001059272）に合併し解散,2015-10-05,1,,,,,スイム,0
1881,6180001043801,登記記録の閉鎖等,0,2022-04-06,2022-04-01,株式会社栄建,,株式会社,愛知県,名古屋市昭和区,御器所３丁目１０番１３号,,23,107,4660051,,,2022-04-01,清算の結了等,,,2015-10-05,1,,,,,エイケン,0
1883,6180001093664,登記記録の閉鎖等,0,2022-04-06,2022-04-01,中部国際空港給油施設株式会社,,株式会社,愛知県,常滑市,セントレア５丁目４番地,,23,216,4790881,,,2022-04-01,合併による解散等,5180001093657,令和４年４月１日愛知県常滑市セントレア一丁目１番地中部国際空港施設サービス株式会社（5180001093657）に合併し解散,2015-10-05,1,,,,,チュウブコクサイクウコウキュウユシセツ,0
1888,6180002089372,登記記録の閉鎖等,0,2022-04-06,2022-04-01,津島毛織物工業有限会社,,有限会社,愛知県,津島市,立込町３丁目２６番地２,,23,208,4960044,,,2022-04-01,合併による解散等,9180001099015,令和４年４月１日愛知県津島市立込町三丁目１２番地の２津島毛工共同炊事株式会社（9180001099015）に合併し解散,2015-10-05,1,,,,,ツシマケオリモノコウギョウ,0
1914,6250005001665,登記記録の閉鎖等,0,2022-04-06,2022-03-28,天理教加泉分教会,,その他の設立登記法人,山口県,防府市,東仁井令町９番２０号,,35,206,7470843,,,2022-03-28,合併による解散等,8250005001688,令和４年３月２８日山口県防府市桑山一丁目２番３１号天理教防府大教会（8250005001688）に合併し解散,2015-10-05,1,,,,,,0
1917,6260002024998,登記記録の閉鎖等,0,2022-04-06,2022-04-01,有限会社興和コンクリート,,有限会社,岡山県,笠岡市,篠坂字熊口２３１５番地１,,33,205,7140077,,,2022-04-01,合併による解散等,7260001013761,令和４年４月１日岡山県倉敷市南畝六丁目８番８号興和瀬戸内コンクリート株式会社（7260001013761）に合併し解散,2015-10-05,1,,,,,コウワコンクリート,0
1961,6390001011423,登記記録の閉鎖等,0,2022-04-06,2022-03-30,株式会社白川金型製作所,,株式会社,山形県,長井市,時庭１１７９番地３,,06,209,9930035,,,2022-03-30,清算の結了等,,,2015-10-05,1,,,,,,0
1973,6400601000278,登記記録の閉鎖等,0,2022-04-06,2022-04-01,平和興産株式会社,,株式会社,岩手県,奥州市,水沢中町１５０番地,,03,215,0230813,,,2022-04-01,合併による解散等,9400601000291,令和４年４月１日岩手県奥州市水沢佐倉河字道下２６番地１株式会社マツヤ（9400601000291）に合併し解散,2015-10-05,1,,,,,ヘイワコウサン,0
2057,7011103004186,登記記録の閉鎖等,0,2022-04-06,2022-03-28,合同会社タケダテクノコンサルティング,,合同会社,東京都,新宿区,白銀町５番１０－５０１号,,13,104,1620816,,,2022-03-28,清算の結了等,,,2015-10-05,1,,,,,タケダテクノコンサルティング,0
2059,7011301015159,登記記録の閉鎖等,0,2022-04-06,2022-04-01,株式会社Ｍ＆Ｎ,,株式会社,東京都,杉並区,西荻南４丁目１０番１９号,,13,115,1670053,,,2022-04-01,清算の結了等,,,2015-10-05,1,,,,,エムアンドエヌ,0
2071,7012401014918,登記記録の閉鎖等,0,2022-04-06,2022-03-30,株式会社地質研,,株式会社,東京都,武蔵野市,中町２丁目１９番５号,,13,203,1800006,,,2022-03-30,清算の結了等,,,2015-10-05,1,,,,,チシツケン,0
2085,7020001107216,登記記録の閉鎖等,0,2022-04-06,2022-04-01,マイケーフーズ株式会社,,株式会社,神奈川県,横浜市磯子区,杉田５丁目３２番地,,14,107,2350033,,,2022-04-01,合併による解散等,7020001036869,令和４年３月３１日横浜市金沢区鳥浜町１番地の１横浜市場センター株式会社（7020001036869）に合併し解散,2015-10-05,1,,,,,マイケーフーズ,0
2103,7030001124433,登記記録の閉鎖等,0,2022-04-06,2022-04-01,株式会社Ｋｕｒａｏ,,株式会社,埼玉県,鶴ヶ島市,大字上広谷３６２番地２１,,11,241,3502203,,,2022-04-01,清算の結了等,,,2018-02-26,1,,,,,クラオ,0
2144,7080101014629,登記記録の閉鎖等,0,2022-04-06,2022-03-30,株式会社片野商店,,株式会社,静岡県,賀茂郡東伊豆町,稲取６６５番地,,22,301,4130411,,,2022-03-30,清算の結了等,,,2015-10-05,1,,,,,カタノショウテン,0
2154,7110001004024,登記記録の閉鎖等,0,2022-04-06,2022-04-01,株式会社新潟日報サービスセンター,,株式会社,新潟県,新潟市中央区,万代３丁目１番１号,,15,103,9500088,,,2022-04-01,合併による解散等,6110001010097,令和４年４月１日新潟市中央区万代三丁目１番１号株式会社メディアシップ・ブランド（6110001010097）に合併し解散,2015-10-05,1,,,,,ニイガタニッポウサービスセンター,0
2158,7110002007182,登記記録の閉鎖等,0,2022-04-06,2022-04-01,有限会社和田表具店,,有限会社,新潟県,新潟市中央区,沼垂東１丁目６番１２号,,15,103,9500075,,,2022-04-01,清算の結了等,,,2015-10-05,1,,,,,ワダヒョウグテン,0
2191,7120902012009,登記記録の閉鎖等,0,2022-04-06,2022-04-01,有限会社つるまる,,有限会社,大阪府,茨木市,西福井３丁目１０番１１号,,27,211,5670067,,,2022-04-01,合併による解散等,4200001020808,令和４年４月１日岐阜県多治見市高根町四丁目２９番地中部薬品株式会社（4200001020808）に合併し解散,2015-10-05,1,,,,,ツルマル,0
2207,7140005005718,登記記録の閉鎖等,0,2022-04-06,2022-03-14,天理教林の浜分教会,,その他の設立登記法人,兵庫県,明石市,林３丁目５番２２号,,28,203,6730034,,,2022-03-14,合併による解散等,4140005005704,令和４年３月１４日兵庫県明石市樽屋町１番１５号天理教江井分教会（4140005005704）に合併し解散,2015-10-05,1,,,,,テンリキョウハヤシノハマブンキョウカイ,0
2215,7180001105154,登記記録の閉鎖等,0,2022-04-06,2022-03-25,エミュミュージック株式会社,,株式会社,愛知県,名古屋市中区,千代田３丁目１５番１９号,,23,106,4600012,,,2022-03-25,清算の結了等,,,2015-10-05,1,,,,,エミュミュージック,0
2230,7210002010366,登記記録の閉鎖等,0,2022-04-06,2022-03-31,有限会社新星堂書店,,有限会社,福井県,敦賀市,松島１３２号１０番地,,18,202,9140000,,,2022-03-31,清算の結了等,,,2015-10-05,1,,,,,シンセイドウショテン,0
2234,7220001018161,登記記録の閉鎖等,0,2022-04-06,2022-03-31,株式会社白山健康企画,,株式会社,石川県,白山市,橋爪町３３９番地,,17,210,9240812,,,2022-03-31,合併による解散等,8220001011487,令和４年３月３１日石川県金沢市南新保町ヌ２０４番地株式会社金沢健康企画（8220001011487）に合併し解散,2015-10-05,1,,,,,ハクサンケンコウキカク,0
2244,7240001024587,登記記録の閉鎖等,0,2022-04-06,2022-04-01,株式会社吉舎鉄工所,,株式会社,広島県,三次市,吉舎町三玉５４１番地,,34,209,7294204,,,2022-04-01,合併による解散等,4240001034184,令和４年４月１日広島県府中市元町７７番地の１株式会社北川鉄工所（4240001034184）に合併し解散,2015-10-05,1,,,,,キシャテッコウショ,0
2267,7290001027024,登記記録の閉鎖等,0,2022-04-06,2022-04-01,福岡プレコン販売株式会社,,株式会社,福岡県,福岡市早良区,東入部５丁目１５番７号,,40,137,8111102,,,2022-04-01,合併による解散等,6290001092671,令和４年４月１日福岡市早良区東入部五丁目１５番７号株式会社ヤマウ（6290001092671）に合併し解散,2015-10-05,1,,,,,フクオカプレコンハンバイ,0
2270,7290001054241,登記記録の閉鎖等,0,2022-04-06,2022-04-01,大牟田ガスエネルギー株式会社,,株式会社,福岡県,大牟田市,浜田町２４番地３,,40,202,8360026,,,2022-04-01,合併による解散等,7290001053730,令和４年４月１日福岡県大牟田市泉町４番地の５大牟田瓦斯株式会社（7290001053730）に合併し解散,2015-10-05,1,,,,,オオムタガスエネルギー,0
2272,7290001072689,登記記録の閉鎖等,0,2022-04-06,2022-04-01,コスモプラン株式会社,,株式会社,福岡県,福岡市西区,愛宕２丁目５番４５号,,40,135,8190015,,,2022-04-01,合併による解散等,2290001000555,令和４年４月１日福岡市西区愛宕二丁目５番４５号株式会社報恩（2290001000555）に合併し解散,2016-01-28,1,,,,,コスモプラン,0
2347,8010001034435,登記記録の閉鎖等,0,2022-04-06,2022-03-31,株式会社東京丸の内出版,,株式会社,東京都,千代田区,神田駿河台２丁目９番地,,13,101,1010062,,,2022-03-31,合併による解散等,3010001025868,令和４年３月３１日東京都千代田区神田駿河台二丁目９番地株式会社ニチイ学館（3010001025868）に合併し解散,2015-10-05,1,,,,,トウキョウマルノウチシュッパン,0
2348,8010001130275,登記記録の閉鎖等,0,2022-04-06,2022-03-28,株式会社ゴールドシュミット・テルミット・ジャパン,,株式会社,東京都,港区,芝公園３丁目４番３０号,,13,103,1050011,,,2022-03-28,清算の結了等,,,2015-10-05,1,,,,,ゴールドシュミットテルミットジャパン,0
2374,8010502022285,登記記録の閉鎖等,0,2022-04-06,2022-04-01,有限会社デザインタクト,,有限会社,東京都,台東区,浅草橋５丁目４番５号,,13,106,1110053,,,2022-04-01,清算の結了等,,,2015-10-05,1,,,,,デザインタクト,0
2414,8012402013653,登記記録の閉鎖等,0,2022-04-06,2022-03-31,有限会社パナフ・コーポレーション,,有限会社,東京都,狛江市,岩戸南３丁目２２番９号,,13,219,2010005,,,2022-03-31,清算の結了等,,,2015-10-05,1,,,,,パナフコーポレーション,0
2417,8012701011374,登記記録の閉鎖等,0,2022-04-06,2022-03-30,株式会社カズ・コーポレーション,,株式会社,香川県,木田郡三木町,大字平木６１３番地２,,37,341,7610702,,,2022-03-30,清算の結了等,,,2015-10-05,1,,,,,カズコーポレーション,0
2437,8021001002422,登記記録の閉鎖等,0,2022-04-06,2022-03-31,株式会社リゼ,,株式会社,神奈川県,藤沢市,藤沢４丁目５番１２号,,14,205,2510052,,,2022-03-31,清算の結了等,,,2015-10-05,1,,,,,リゼ,0
2446,8030001023873,登記記録の閉鎖等,0,2022-04-06,2022-03-31,金子倉庫株式会社,,株式会社,埼玉県,狭山市,大字上赤坂１３６番地の４,,11,215,3501313,,,2022-03-31,清算の結了等,,,2015-10-05,1,,,,,カネコソウコ,0
2463,8040002075624,登記記録の閉鎖等,0,2022-04-06,2022-03-31,有限会社吉田設備,,有限会社,千葉県,市原市,牛久１１４４番地,,12,219,2900225,,,2022-03-31,清算の結了等,,,2015-10-05,1,,,,,ヨシダセツビ,0
2499,8110001035968,登記記録の閉鎖等,0,2022-04-06,2022-03-31,ＴＫホールディングス株式会社,,株式会社,新潟県,新潟市中央区,女池２丁目２番２５号,,15,103,9500941,,,2022-03-31,合併による解散等,1110001036337,令和４年３月３１日新潟市中央区女池二丁目２番２５号クリエスホールディングス株式会社（1110001036337）に合併し解散,2021-08-11,1,,,,,ティーケーホールディングス,0
2527,8120101031172,登記記録の閉鎖等,0,2022-04-06,2022-03-31,株式会社福田商店,,株式会社,大阪府,富田林市,川向町３番１１号,,27,214,5840049,,,2022-03-31,清算の結了等,,,2015-10-05,1,,,,,フクダショウテン,0
2564,8180001101128,登記記録の閉鎖等,0,2022-04-06,2022-04-01,株式会社マリオン,,株式会社,愛知県,弥富市,楠１丁目４２番地,,23,235,4980066,,,2022-04-01,合併による解散等,4180001059452,令和４年４月１日名古屋市中区大須四丁目１４番２６号中央木材市売株式会社（4180001059452）に合併し解散,2015-10-05,1,,,,,マリオン,0
2569,8180301001325,登記記録の閉鎖等,0,2022-04-06,2022-04-01,株式会社デンソーセイビ,,株式会社,愛知県,岡崎市,下青野町字川原崎１２番地,,23,202,4440244,,,2022-04-01,合併による解散等,6180301014254,令和４年４月１日愛知県刈谷市昭和町一丁目１番地株式会社デンソーユニティサービス（6180301014254）に合併し解散,2015-10-05,1,,,,,デンソーセイビ,0
2574,8200002017766,登記記録の閉鎖等,0,2022-04-06,2022-04-04,有限会社麗＿,00077006,有限会社,岐阜県,可児市,川合６０４番地,,21,214,5090201,,,2022-04-04,清算の結了等,,,2015-10-05,1,,,,,レイシュ,0
2578,8210002001174,登記記録の閉鎖等,0,2022-04-06,2022-03-31,有限会社清川建具店,,有限会社,福井県,坂井市,春江町正善第９号１２番地,,18,210,9190487,,,2022-03-31,清算の結了等,,,2015-10-05,1,,,,,キヨカワタテグテン,0
2604,8290001088445,登記記録の閉鎖等,0,2022-04-06,2022-04-01,株式会社０１ｐｒｏｄｕｃｅ,,株式会社,福岡県,福岡市博多区,博多駅東３丁目１１番１２号２Ｆ,,40,132,8120013,,,2022-04-01,清算の結了等,,,2020-03-25,1,,,,,ゼロワンプロデュース,0
2614,8290802018096,登記記録の閉鎖等,0,2022-04-06,2022-03-28,有限会社サカイ,,有限会社,福岡県,北九州市八幡東区,白川町１０番１６号,,40,108,8050007,,,2022-03-28,清算の結了等,,,2015-10-05,1,,,,,サカイ,0
2632,8360001021092,登記記録の閉鎖等,0,2022-04-06,2022-03-29,株式会社ユイマールソリューション,,株式会社,沖縄県,那覇市,松島１丁目１０番１１号２０１号室,,47,201,9020069,,,2022-03-29,清算の結了等,,,2016-07-21,1,,,,,ユイマールソリューション,0
2633,8360001026819,登記記録の閉鎖等,0,2022-04-06,2022-03-25,錦株式会社,,株式会社,沖縄県,那覇市,前島３丁目２５番２号泊ポートビル３階３０１号室,,47,201,9000016,,,2022-03-25,清算の結了等,,,2020-02-18,1,,,,,ニシキ,0
2640,8370005010438,登記記録の閉鎖等,0,2022-04-06,2022-03-28,藤里村農業會,00125715,その他の設立登記法人,宮城県,栗原市,藤澤字下藤澤１５８番地,,04,213,9872200,,,2022-03-28,清算の結了等,,,2022-02-18,1,,,,,フジサトムラノウギョウカイ,0
2641,8370602000840,登記記録の閉鎖等,0,2022-04-06,2022-03-31,有限会社シーイー,,有限会社,宮城県,多賀城市,浮島１丁目１８番１号,,04,209,9850861,,,2022-03-31,清算の結了等,,,2015-10-05,1,,,,,シーイー,0
2654,8430001024006,登記記録の閉鎖等,0,2022-04-06,2022-04-01,株式会社黒田商店,,株式会社,北海道,札幌市中央区,北一条東３丁目１番地,,01,101,0600031,,,2022-04-01,清算の結了等,,,2015-10-05,1,,,,,クロダショウテン,0
2679,9010001220595,登記記録の閉鎖等,0,2022-04-06,2022-03-15,ＢＥＡＵＴＩＱＯ株式会社,,株式会社,東京都,千代田区,神田錦町３丁目２１番－１１６２号,,13,101,1010054,,,2022-03-15,清算の結了等,,,2021-08-25,1,,,,,ビューティコ,0
2709,9010801029105,登記記録の閉鎖等,0,2022-04-06,2022-04-01,株式会社あんしん祭典城南,,株式会社,東京都,大田区,南千束３丁目３２番１号,,13,111,1450063,,,2022-04-01,清算の結了等,,,2018-08-22,1,,,,,アンシンサイテンジョウナン,0
2725,9011101085598,登記記録の閉鎖等,0,2022-04-06,2022-03-31,株式会社広岡鉄舎,,株式会社,東京都,新宿区,西新宿３丁目２０番２号,,13,104,1600023,,,2022-03-31,清算の結了等,,,2018-10-18,1,,,,,ヒロオカテッシャ,0
2740,9012402001459,登記記録の閉鎖等,0,2022-04-06,2022-03-30,有限会社スタジオ・ライス,,有限会社,東京都,府中市,美好町３丁目３０番地３５号,,13,206,1830045,,,2022-03-30,清算の結了等,,,2015-10-05,1,,,,,,0
2754,9013303004063,登記記録の閉鎖等,0,2022-04-06,2022-04-01,合同会社Ｓｐｉｓｅｅｄｓ,,合同会社,静岡県,駿東郡清水町,徳倉１１００番２４号,,22,341,4110917,,,2022-04-01,清算の結了等,,,2018-02-22,1,,,,,スパイシーズ,0
2777,9030001062549,登記記録の閉鎖等,0,2022-04-06,2022-04-01,グッド株式会社,,株式会社,埼玉県,鴻巣市,本町４丁目１番１０号,,11,217,3650038,,,2022-04-01,合併による解散等,9030001062094,令和４年４月１日埼玉県鴻巣市本町四丁目１番１０号スマイルハウス株式会社（9030001062094）に合併し解散,2015-10-05,1,,,,,グッド,0
2787,9040001050107,登記記録の閉鎖等,0,2022-04-06,2022-03-30,株式会社ＭＬプロ,,株式会社,千葉県,千葉市緑区,誉田町２丁目２１番１０２７号,,12,105,2660005,,,2022-03-30,清算の結了等,,,2015-10-05,1,,,,,エムエルプロ,0
2820,9110001004022,登記記録の閉鎖等,0,2022-04-06,2022-04-01,株式会社新潟日報事業社,,株式会社,新潟県,新潟市中央区,万代３丁目１番１号,,15,103,9500088,,,2022-04-01,合併による解散等,5110001004026,令和４年４月１日新潟市西区善久７７２番地２新潟日報社黒埼本社内株式会社新潟日報メディアネット（5110001004026）に合併し解散,2015-10-05,1,,,,,ニイガタニッポウジギョウシャ,0
2825,9120001065286,登記記録の閉鎖等,0,2022-04-06,2022-04-01,昭和合成株式会社,,株式会社,大阪府,大阪市中央区,安土町３丁目５番６号,,27,128,5410052,,,2022-04-01,合併による解散等,8120001077431,令和４年４月１日大阪市中央区安土町三丁目５番６号株式会社島田商会（8120001077431）に合併し解散,2015-10-05,1,,,,,ショウワゴウセイ,0
2828,9120001086118,登記記録の閉鎖等,0,2022-04-06,2022-04-01,中山福サービス株式会社,,株式会社,大阪府,大阪市中央区,島之内１丁目２２番９号,,27,128,5420082,,,2022-04-01,合併による解散等,9120001077505,令和４年４月１日大阪市中央区島之内一丁目２２番９号中山福株式会社（9120001077505）に合併し解散,2015-10-05,1,,,,,ナカヤマフクサービス,0
2876,9140003016137,登記記録の閉鎖等,0,2022-04-06,2022-04-01,合同会社クワトロ,,合同会社,兵庫県,神戸市西区,押部谷町西盛５８４番地の１,,28,111,6512202,,,2022-04-01,清算の結了等,,,2021-04-06,1,,,,,クワトロ,0
2906,9210002010100,登記記録の閉鎖等,0,2022-04-06,2022-03-31,有限会社魚辻,00077883,有限会社,福井県,敦賀市,白銀町４番８号,,18,202,9140054,,,2022-03-31,清算の結了等,,,2015-10-05,1,,,,,ウオツジ,0
2907,9210002010364,登記記録の閉鎖等,0,2022-04-06,2022-03-31,有限会社新栄商事,,有限会社,福井県,敦賀市,新和町１丁目３番９号,,18,202,9140122,,,2022-03-31,清算の結了等,,,2015-10-05,1,,,,,シンエイショウジ,0
2923,9280001005631,登記記録の閉鎖等,0,2022-04-06,2022-03-30,株式会社仁多産業,,株式会社,島根県,仁多郡奥出雲町,亀嵩１３７２番地,,32,343,6991701,,,2022-03-30,清算の結了等,,,2021-11-01,1,,,,,ニタサンギョウ,0
2926,9290001047375,登記記録の閉鎖等,0,2022-04-06,2022-04-01,トップ卵株式会社,,株式会社,福岡県,八女市,本町４７４番地の１,,40,210,8340031,,,2022-04-01,合併による解散等,6290001094676,令和４年４月１日福岡県八女市本町４７４番地の１トップ卵株式会社（6290001094676）に合併し解散,2015-10-05,1,,,,,トップラン,0
2948,9320001001601,登記記録の閉鎖等,0,2022-04-06,2022-04-01,大銀ビジネスサービス株式会社,,株式会社,大分県,大分市,花園２丁目１番１号,,44,201,8700846,,,2022-04-01,合併による解散等,7320001000084,令和４年４月１日大分市府内町三丁目４番１号株式会社大分銀行（7320001000084）に合併し解散,2015-10-05,1,,,,,ダイギンビジネスサービス,0
2998,9490001000149,登記記録の閉鎖等,0,2022-04-06,2022-04-01,今井造船株式会社,,株式会社,愛媛県,今治市,小浦町１丁目４番５２号,,38,202,7992111,,,2022-04-01,清算の結了等,,,2015-10-05,1,,,,,イマイゾウセン,0
