sequenceNumber,corporateNumber,process,correct,updateDate,changeDate,name,nameImageId,kind,prefectureName,cityName,streetNumber,addressImageId,prefectureCode,cityCode,postCode,addressOutside,addressOutsideImageId,closeDate,closeCause,successorCorporateNumber,changeCause,assignmentDate,latest,enName,enPrefectureName,enCityName,enAddressOutside,furigana,hihyoji
5,1010001125612,登記記録の閉鎖等,0,2025-01-15,2025-01-08,天然人株式会社,,株式会社,東京都,荒川区,西尾久７丁目１２番２号,,13,118,1160011,,,2025-01-08,清算の結了等,,,2015-10-05,1,,,,,テンネンジン,0
11,1010005032235,登記記録の閉鎖等,0,2025-01-15,2025-01-10,南港ロジスティクス特定目的会社,,その他の設立登記法人,東京都,中央区,日本橋１丁目４番１号,,13,102,1030027,,,2025-01-10,清算の結了等,,,2020-09-07,1,,,,,ナンコウロジスティクス,0
13,1010401029495,登記記録の閉鎖等,0,2025-01-15,2024-12-27,株式会社モーションプロ,,株式会社,東京都,新宿区,上落合３丁目２３番１０号,,13,104,1610034,,,2024-12-27,清算の結了等,,,2015-10-05,1,,,,,モーションプロ,0
18,1010402032481,登記記録の閉鎖等,0,2025-01-15,2024-12-20,有限会社スターコーポレーション,,有限会社,東京都,港区,西新橋１丁目２０番３号,,13,103,1050003,,,2024-12-20,清算の結了等,,,2015-10-05,1,,,,,スターコーポレーション,0
20,1010405022554,登記記録の閉鎖等,0,2025-01-15,2024-12-20,一般社団法人ＪＦＲブリッジ,,その他の設立登記法人,東京都,港区,元赤坂１丁目１番８号赤坂コミュニティビル４階,,13,103,1070051,,,2024-12-20,清算の結了等,,,2023-10-02,1,,,,,ジェイエフアールブリッジ,0
26,1010701009197,登記記録の閉鎖等,0,2025-01-15,2025-01-10,株式会社マックスシステム,,株式会社,東京都,大田区,蒲田３丁目２３番８号,,13,111,1440052,,,2025-01-10,合併による解散等,8260001007077,令和７年１月１日岡山市南区豊成二丁目７番１６号株式会社両備システムズ（8260001007077）に合併し解散,2015-10-05,1,,,,,マクッスシステム,0
52,1011301002328,登記記録の閉鎖等,0,2025-01-15,2025-01-09,株式会社佼成ライフプラン,,株式会社,東京都,杉並区,方南２丁目３０番１５号,,13,115,1680062,,,2025-01-09,清算の結了等,,,2015-10-05,1,,,,,コウセイライフプラン,0
57,1011801011613,登記記録の閉鎖等,0,2025-01-15,2025-01-06,株式会社福田製作所,,株式会社,東京都,足立区,扇１丁目９番１号,,13,121,1230873,,,2025-01-06,清算の結了等,,,2015-10-05,1,,,,,フクダセイサクショ,0
65,1013302019648,登記記録の閉鎖等,0,2025-01-15,2025-01-06,有限会社トースト,,有限会社,東京都,豊島区,巣鴨１丁目１９番１０号,,13,116,1700002,,,2025-01-06,清算の結了等,,,2015-10-05,1,,,,,トースト,0
69,1020001089360,登記記録の閉鎖等,0,2025-01-15,2025-01-15,株式会社クローバー,,株式会社,福岡県,福岡市東区,千早２丁目２７－１,,40,131,8130044,,,2025-01-15,登記官による閉鎖,,,2015-10-05,1,,,,,,0
74,1020002080715,登記記録の閉鎖等,0,2025-01-15,2024-12-24,有限会社金沢土地建物,,有限会社,神奈川県,川崎市幸区,中幸町４丁目５０番地,,14,132,2120012,,,2024-12-24,清算の結了等,,,2015-10-05,1,,,,,カナザワトチタテモノ,0
75,1020002098583,登記記録の閉鎖等,0,2025-01-15,2024-12-24,有限会社バルーン,,有限会社,神奈川県,川崎市幸区,小向西町１丁目２０番地１１号,,14,132,2120004,,,2024-12-24,清算の結了等,,,2015-10-05,1,,,,,バルーン,0
78,1020003025017,登記記録の閉鎖等,0,2025-01-15,2025-01-07,合同会社三政,,合同会社,神奈川県,横浜市西区,北幸２丁目１０番地４８むつみビル３Ｆ,,14,103,2200004,,,2025-01-07,清算の結了等,,,2023-11-15,1,,,,,サンセイ,0
84,1021001075499,登記記録の閉鎖等,0,2025-01-15,2024-12-23,株式会社まっしゅ,,株式会社,神奈川県,横浜市保土ケ谷区,西久保町１番地４西久保町公園ハイツ１号棟１２６号室,,14,106,2400022,,,2024-12-23,清算の結了等,,,2022-03-24,1,,,,,マッシュ,0
86,1021002000984,登記記録の閉鎖等,0,2025-01-15,2025-01-10,有限会社大川自動車工場,,有限会社,神奈川県,藤沢市,南藤沢９番１号,,14,205,2510055,,,2025-01-10,清算の結了等,,,2015-10-05,1,,,,,オオカワジドウシャコウジョウ,0
89,1030001020547,登記記録の閉鎖等,0,2025-01-15,2025-01-07,東和自動車工業株式会社,,株式会社,埼玉県,戸田市,喜沢南２丁目４番１１号,,11,224,3350014,,,2025-01-07,清算の結了等,,,2015-10-05,1,,,,,トウワジドウシャコウギョウ,0
95,1030002058124,登記記録の閉鎖等,0,2025-01-15,2024-12-27,有限会社明山工務店,,有限会社,埼玉県,朝霞市,大字上内間木２６０番地の８,,11,227,3510001,,,2024-12-27,清算の結了等,,,2015-10-05,1,,,,,アキヤマコウムテン,0
96,1030002113184,登記記録の閉鎖等,0,2025-01-15,2025-01-08,株式会社熊東読売サービス,,株式会社,埼玉県,熊谷市,筑波１丁目３８番地,,11,202,3600037,,,2025-01-08,清算の結了等,,,2015-10-05,1,,,,,クマトウヨミウリサービス,0
110,1040002032648,登記記録の閉鎖等,0,2025-01-15,2024-12-27,有限会社イワコー,,有限会社,千葉県,市川市,塩焼３丁目４番２２号,,12,203,2720114,,,2024-12-27,清算の結了等,,,2015-10-05,1,,,,,イワコー,0
122,1050002015890,登記記録の閉鎖等,0,2025-01-15,2025-01-08,有限会社藤田屋,,有限会社,茨城県,小美玉市,小川１５１５番地,,08,236,3113423,,,2025-01-08,清算の結了等,,,2015-10-05,1,,,,,フジタヤ,0
124,1060001031839,登記記録の閉鎖等,0,2025-01-15,2025-01-07,株式会社令和不動産,,株式会社,栃木県,小山市,神鳥谷２丁目１０番２５号,,09,208,3230034,,,2025-01-07,清算の結了等,,,2019-08-14,1,,,,,レイワフドウサン,0
125,1060002040649,登記記録の閉鎖等,0,2025-01-15,2025-01-08,有限会社キョーシン工業,,有限会社,栃木県,足利市,堀込町１９２０番地１,,09,202,3260831,,,2025-01-08,清算の結了等,,,2015-10-05,1,,,,,キョーシンコウギョウ,0
146,1120001252585,登記記録の閉鎖等,0,2025-01-15,2025-01-10,創世銀＿株式会社,00129484,株式会社,大阪府,大阪市大正区,三軒家西３丁目４番１６号中山ビル１０１Ｃ,,27,108,5510001,,,2025-01-10,清算の結了等,,,2023-02-17,1,,,,,ソウセイギンコン,0
158,1120002015941,登記記録の閉鎖等,0,2025-01-15,2025-01-08,有限会社水原工業所,,有限会社,大阪府,大阪市港区,市岡２丁目１２番２０号,,27,107,5520012,,,2025-01-08,清算の結了等,,,2015-10-05,1,,,,,ミズハラコウギョウショ,0
168,1120901016115,登記記録の閉鎖等,0,2025-01-15,2025-01-06,株式会社マザーケア,,株式会社,大阪府,茨木市,五十鈴町１９番３０号,,27,211,5670842,,,2025-01-06,清算の結了等,,,2015-10-05,1,,,,,マザーケア,0
175,1130001057389,登記記録の閉鎖等,0,2025-01-15,2025-01-09,株式会社トゥルー・セルフ,,株式会社,京都府,京田辺市,高船前田１２番地,,26,211,6100325,,,2025-01-09,清算の結了等,,,2016-05-10,1,,,,,トゥルーセルフ,0
176,1140001014918,登記記録の閉鎖等,0,2025-01-15,2025-01-06,株式会社岸本企画,,株式会社,兵庫県,神戸市須磨区,友が丘９丁目２６０３番地の３７,,28,107,6540142,,,2025-01-06,清算の結了等,,,2015-10-05,1,,,,,キシモトキカク,0
195,1160002009320,登記記録の閉鎖等,0,2025-01-15,2025-01-14,有限会社文,,有限会社,滋賀県,湖南市,夏見１６３番地１,,25,211,5203223,,,2025-01-14,清算の結了等,,,2015-10-05,1,,,,,ブン,0
200,1180001128895,登記記録の閉鎖等,0,2025-01-15,2024-12-25,ＣＨＡＩＷＡＴ　ＴＲＡＤＩＮＧ株式会社,,株式会社,愛知県,弥富市,平島町喜右味名７７番地１,,23,235,4980025,,,2024-12-25,清算の結了等,,,2017-08-07,1,,,,,チャイワットトレーディング,0
225,1290001000606,登記記録の閉鎖等,0,2025-01-15,2025-01-15,株式会社木綿家,,株式会社,福岡県,福岡市西区,能古４３０番地の１,,40,135,8190012,,,2025-01-15,登記官による閉鎖,,,2015-10-05,1,,,,,,0
226,1290001019555,登記記録の閉鎖等,0,2025-01-15,2025-01-15,株式会社アイ・ティー・エム,,株式会社,福岡県,福岡市南区,野間１丁目６番２８号,,40,134,8150041,,,2025-01-15,登記官による閉鎖,,,2015-10-05,1,,,,,,0
227,1290001026304,登記記録の閉鎖等,0,2025-01-15,2025-01-15,株式会社トラスト・アイシー,,株式会社,福岡県,福岡市中央区,舞鶴１丁目８番２６号,,40,133,8100073,,,2025-01-15,登記官による閉鎖,,,2015-10-05,1,,,,,,0
228,1290001026873,登記記録の閉鎖等,0,2025-01-15,2025-01-15,小嶋住宅株式会社,,株式会社,福岡県,福岡市西区,大字下山門１０９９番地の２６,,40,135,8190052,,,2025-01-15,登記官による閉鎖,,,2015-10-05,1,,,,,,0
229,1290001032434,登記記録の閉鎖等,0,2025-01-15,2025-01-15,株式会社一本木不動産,,株式会社,福岡県,福岡市中央区,平尾１丁目１０番１５号,,40,133,8100014,,,2025-01-15,登記官による閉鎖,,,2015-10-05,1,,,,,,0
230,1290001033713,登記記録の閉鎖等,0,2025-01-15,2025-01-15,株式会社セルヴィス,,株式会社,福岡県,那珂川市,片縄４丁目１２７番地,,40,231,8111201,,,2025-01-15,登記官による閉鎖,,,2015-10-05,1,,,,,,0
231,1290001034141,登記記録の閉鎖等,0,2025-01-15,2025-01-15,株式会社Ａ・Ｐ・Ｉ,,株式会社,福岡県,福岡市南区,向新町１丁目８番３６－１０１号,,40,134,8111345,,,2025-01-15,登記官による閉鎖,,,2015-10-05,1,,,,,,0
232,1290001038448,登記記録の閉鎖等,0,2025-01-15,2025-01-15,株式会社永松建設,,株式会社,福岡県,糟屋郡宇美町,宇美中央３丁目１番２３号,,40,341,8112128,,,2025-01-15,登記官による閉鎖,,,2015-10-05,1,,,,,,0
233,1290001040404,登記記録の閉鎖等,0,2025-01-15,2025-01-15,株式会社ガイア,,株式会社,福岡県,糟屋郡新宮町,大字上府１１６３－１ピュアロイヤルＩＩＩ－１０３,00092452,40,345,8110117,,,2025-01-15,登記官による閉鎖,,,2015-10-05,1,,,,,,0
234,1290001040718,登記記録の閉鎖等,0,2025-01-15,2025-01-15,真和ハウス工業株式会社,,株式会社,福岡県,春日市,下白水南７丁目７９番地２,,40,218,8160846,,,2025-01-15,登記官による閉鎖,,,2015-10-05,1,,,,,,0
235,1290001044074,登記記録の閉鎖等,0,2025-01-15,2025-01-15,自然開発工業株式会社,,株式会社,福岡県,朝倉市,菩提寺２６２番地,,40,228,8380061,,,2025-01-15,登記官による閉鎖,,,2015-10-05,1,,,,,,0
236,1290001044834,登記記録の閉鎖等,0,2025-01-15,2025-01-15,アクア・ファイブ株式会社,,株式会社,福岡県,福岡市博多区,堅粕５丁目８番１５－７０４号,,40,132,8120043,,,2025-01-15,登記官による閉鎖,,,2015-10-05,1,,,,,,0
237,1290001049429,登記記録の閉鎖等,0,2025-01-15,2024-12-17,株式会社鳩屋,,株式会社,福岡県,久留米市,梅満町１１２０番地,,40,203,8300048,,,2024-12-17,清算の結了等,,,2015-10-05,1,,,,,ハトヤ,0
239,1290001060492,登記記録の閉鎖等,0,2025-01-15,2025-01-15,カインズミール株式会社,,株式会社,福岡県,糸島市,篠原西２丁目１番５－５０６号,,40,230,8191129,,,2025-01-15,登記官による閉鎖,,,2015-10-05,1,,,,,,0
240,1290001065401,登記記録の閉鎖等,0,2025-01-15,2025-01-15,大牟田商工株式会社,,株式会社,福岡県,大牟田市,一本町４７番地,,40,202,8360834,,,2025-01-15,登記官による閉鎖,,,2015-10-05,1,,,,,,0
246,1290002044841,登記記録の閉鎖等,0,2025-01-15,2025-01-15,有限会社美栄商事,,有限会社,福岡県,嘉麻市,下山田２２０番地の５,,40,227,8210011,,,2025-01-15,登記官による閉鎖,,,2015-10-05,1,,,,,,0
247,1290002049972,登記記録の閉鎖等,0,2025-01-15,2025-01-15,有限会社福岡エステート,,有限会社,福岡県,久留米市,小森野町９６８番地の２,,40,203,8390000,,,2025-01-15,登記官による閉鎖,,,2015-10-05,1,,,,,,0
248,1290002054584,登記記録の閉鎖等,0,2025-01-15,2025-01-15,有限会社江頭建具木工所,,有限会社,福岡県,大川市,大字小保５０８番地,,40,212,8310041,,,2025-01-15,登記官による閉鎖,,,2019-11-11,1,,,,,エガシラタテグモッコウショ,0
249,1290002057091,登記記録の閉鎖等,0,2025-01-15,2025-01-15,有限会社ダイヤミシン製作所,,有限会社,福岡県,大牟田市,東新町１丁目１９番地,,40,202,8360806,,,2025-01-15,登記官による閉鎖,,,2015-10-05,1,,,,,,0
250,1290002057100,登記記録の閉鎖等,0,2025-01-15,2025-01-15,有限会社富士屋レコード店,,有限会社,福岡県,久留米市,東町５７０番地,,40,203,8300032,,,2025-01-15,登記官による閉鎖,,,2015-10-05,1,,,,,,0
251,1290002057109,登記記録の閉鎖等,0,2025-01-15,2025-01-15,有限会社末安製作所,,有限会社,福岡県,久留米市,白山町１９８番地,,40,203,8300041,,,2025-01-15,登記官による閉鎖,,,2015-10-05,1,,,,,,0
252,1290002057125,登記記録の閉鎖等,0,2025-01-15,2025-01-15,福島中央自動車有限会社,,有限会社,福岡県,八女市,（福岡県八女郡上妻村馬場３４３番地）,,40,210,8340000,,,2025-01-15,登記官による閉鎖,,,2015-10-05,1,,,,,,1
253,1290003003680,登記記録の閉鎖等,0,2025-01-15,2025-01-15,合同会社ＥＮＥＲＧＹ,,合同会社,福岡県,福岡市博多区,那珂１丁目１６番１６－１０１号,,40,132,8120893,,,2025-01-15,登記官による閉鎖,,,2015-10-05,1,,,,,,0
257,1290005005196,登記記録の閉鎖等,0,2025-01-15,2025-01-15,特定非営利活動法人後期高齢者元気で働こうの会,,その他の設立登記法人,福岡県,福岡市早良区,原団地５２番４０７号,,40,137,8140023,,,2025-01-15,登記官による閉鎖,,,2015-10-05,1,,,,,,0
264,1290801003213,登記記録の閉鎖等,0,2025-01-15,2025-01-15,株式会社仏蘭西軒,,株式会社,福岡県,北九州市小倉北区,鍛冶町１丁目４番１２号,,40,106,8020004,,,2025-01-15,登記官による閉鎖,,,2015-10-05,1,,,,,,0
265,1290801011364,登記記録の閉鎖等,0,2025-01-15,2025-01-15,桑原産業株式会社,,株式会社,福岡県,北九州市八幡西区,高江４丁目２０番２１号,,40,109,8071152,,,2025-01-15,登記官による閉鎖,,,2015-10-05,1,,,,,,0
267,1290802002809,登記記録の閉鎖等,0,2025-01-15,2025-01-15,有限会社さわだ,,有限会社,福岡県,北九州市小倉南区,北方１丁目１１番１０号,,40,107,8020841,,,2025-01-15,登記官による閉鎖,,,2015-10-05,1,,,,,,0
268,1290802014036,登記記録の閉鎖等,0,2025-01-15,2025-01-15,有限会社上津役タクシー,,有限会社,福岡県,北九州市八幡西区,町上津役西１丁目２番４号,,40,109,8070074,,,2025-01-15,登記官による閉鎖,,,2015-10-05,1,,,,,,0
269,1290802014746,登記記録の閉鎖等,0,2025-01-15,2025-01-15,有限会社デンタル・アイ,,有限会社,福岡県,北九州市八幡西区,穴生２丁目１３番７号,,40,109,8060049,,,2025-01-15,登記官による閉鎖,,,2015-10-05,1,,,,,,0
270,1290802014928,登記記録の閉鎖等,0,2025-01-15,2025-01-15,有限会社西影組,,有限会社,福岡県,北九州市八幡西区,南八千代町８番１８号,,40,109,8060024,,,2025-01-15,登記官による閉鎖,,,2015-10-05,1,,,,,,0
271,1290802020364,登記記録の閉鎖等,0,2025-01-15,2025-01-15,有限会社設計工房ワイアンドアイ,,有限会社,福岡県,直方市,大字山部９１５番地１,,40,204,8220034,,,2025-01-15,登記官による閉鎖,,,2015-10-05,1,,,,,,0
272,1290803002072,登記記録の閉鎖等,0,2025-01-15,2025-01-15,寛美装合同会社,,合同会社,福岡県,北九州市八幡西区,御開３丁目３番３２－６０１号シャトレ本城Ｃ棟,,40,109,8070806,,,2025-01-15,登記官による閉鎖,,,2015-10-05,1,,,,,,0
278,1320201000278,登記記録の閉鎖等,0,2025-01-15,2025-01-10,株式会社藤澤起重機製作所,,株式会社,大分県,臼杵市,大字臼杵２の１０７番地の３６,,44,206,8750041,,,2025-01-10,清算の結了等,,,2015-10-05,1,,,,,,0
282,1360003012352,登記記録の閉鎖等,0,2025-01-15,2025-01-08,合同会社ＳｈｉｎｉｎｇＲｏａｄ,,合同会社,沖縄県,浦添市,西原５丁目１－２－８０２号アーバンパレット浦西,,47,208,9012101,,,2025-01-08,清算の結了等,,,2022-10-06,1,,,,,シャイニングロード,0
288,1370005001121,登記記録の閉鎖等,0,2025-01-15,2025-01-06,宮城県リ・ソイル事業協同組合,,その他の設立登記法人,宮城県,仙台市宮城野区,扇町４丁目１番２９号,,04,102,9830034,,,2025-01-06,清算の結了等,,,2015-10-05,1,,,,,ミヤギケンリソイル,0
292,1420001014385,登記記録の閉鎖等,0,2025-01-15,2025-01-09,ほくおう株式会社,,株式会社,青森県,つがる市,森田町下相野住吉５１番地１,,02,209,0382812,,,2025-01-09,清算の結了等,,,2015-10-05,1,,,,,ホクオウ,0
294,1430001043409,登記記録の閉鎖等,0,2025-01-15,2025-01-10,株式会社シーティーエス,,株式会社,北海道,千歳市,北信濃７７６番地の１０,,01,224,0660075,,,2025-01-10,清算の結了等,,,2015-10-05,1,,,,,シーティーエス,0
306,1500005004127,登記記録の閉鎖等,0,2025-01-15,2024-12-20,天理教道前分教会,,その他の設立登記法人,愛媛県,西条市,旦之上甲２４３番地,,38,206,7991313,,,2024-12-20,合併による解散等,5500005005138,令和６年１２月２０日愛媛県今治市山路８３１番地の１天理教愛豫大教会（5500005005138）に合併し解散,2015-10-05,1,,,,,テンリキョウドウマエブンキョウカイ,0
308,1700150052083,登記記録の閉鎖等,0,2025-01-15,2024-08-31,たかみや湯の森運営協会,,その他,広島県,安芸高田市,高宮町原田１７８７－１,,34,214,7391805,,,2024-08-31,その他の清算の結了等,,,2015-10-09,1,,,,,タカミヤユノモリウンエイキヨウカイ,0
310,2010001203607,登記記録の閉鎖等,0,2025-01-15,2024-12-25,ＦｒｅｅＦｌｏｗ株式会社,,株式会社,東京都,中央区,築地７丁目１８番２８号９３４号室,,13,102,1040045,,,2024-12-25,清算の結了等,,,2019-09-03,1,,,,,フリーフロー,0
312,2010001221872,登記記録の閉鎖等,0,2025-01-15,2024-12-18,エクソム株式会社,,株式会社,東京都,千代田区,外神田４丁目１４番１号,,13,101,1010021,,,2024-12-18,清算の結了等,,,2021-10-18,1,,,,,エクソム,0
325,2010501022630,登記記録の閉鎖等,0,2025-01-15,2024-12-27,関東ビル株式会社,,株式会社,東京都,台東区,上野３丁目４番６号,,13,106,1100005,,,2024-12-27,清算の結了等,,,2015-10-05,1,,,,,カントウビル,0
339,2011001039454,登記記録の閉鎖等,0,2025-01-15,2024-12-11,株式会社アサヒ・クリエイティブ・ラボ,,株式会社,東京都,渋谷区,幡ヶ谷３丁目３３番１－４０８号,,13,113,1510072,,,2024-12-11,清算の結了等,,,2015-10-05,1,,,,,アサヒクリエイティブラボ,0
348,2011101004192,登記記録の閉鎖等,0,2025-01-15,2024-12-27,株式会社オペラ,,株式会社,東京都,新宿区,大久保２丁目１９番２号,,13,104,1690072,,,2024-12-27,清算の結了等,,,2015-10-05,1,,,,,オペラ,0
374,2012403003766,登記記録の閉鎖等,0,2025-01-15,2025-01-10,合同会社康盛,,合同会社,東京都,武蔵野市,中町３丁目５番２４－２１４号,,13,203,1800006,,,2025-01-10,清算の結了等,,,2019-02-07,1,,,,,コウセイ,0
380,2020001048596,登記記録の閉鎖等,0,2025-01-15,2025-01-07,株式会社マツザキ,,株式会社,神奈川県,横浜市港南区,東芹が谷２７番１３号,,14,111,2330005,,,2025-01-07,清算の結了等,,,2015-10-05,1,,,,,マツザキ,0
381,2020001065708,登記記録の閉鎖等,0,2025-01-15,2024-12-24,株式会社リベラルロジック,,株式会社,神奈川県,川崎市麻生区,多摩美１丁目３２番１０号,,14,137,2150002,,,2024-12-24,清算の結了等,,,2015-10-05,1,,,,,リベラルロジック,0
382,2020001106206,登記記録の閉鎖等,0,2025-01-15,2025-01-06,株式会社湘美会,,株式会社,神奈川県,横浜市戸塚区,上倉田町９０８番地,,14,110,2440816,,,2025-01-06,合併による解散等,7020001041737,令和７年１月１日横浜市戸塚区上倉田町９０８番地ランジェコスメティーク株式会社（7020001041737）に合併し解散,2015-10-05,1,,,,,ショウビカイ,0
383,2020001123317,登記記録の閉鎖等,0,2025-01-15,2025-01-06,ＳＢＣメディカルグループ株式会社,,株式会社,神奈川県,横浜市戸塚区,上倉田町９０８番地,,14,110,2440816,,,2025-01-06,合併による解散等,7020001041737,令和７年１月１日横浜市戸塚区上倉田町９０８番地ランジェコスメティーク株式会社（7020001041737）に合併し解散,2017-10-11,1,,,,,エスビーシーメディカルグループ,0
384,2020001128118,登記記録の閉鎖等,0,2025-01-15,2025-01-06,株式会社イーエスアイティー,,株式会社,千葉県,柏市,若柴１７８番地４柏の葉キャンパス１４８街区２ショップ＆オフィス棟６Ｆ,,12,217,2770871,,,2025-01-06,清算の結了等,,,2018-10-02,1,,,,,イーエスアイティー,0
386,2020002041996,登記記録の閉鎖等,0,2025-01-15,2024-12-23,有限会社光和商事,,有限会社,神奈川県,横浜市西区,岡野１丁目１７番８号,,14,103,2200073,,,2024-12-23,清算の結了等,,,2015-10-05,1,,,,,,0
387,2021001019876,登記記録の閉鎖等,0,2025-01-15,2025-01-09,株式会社新清,,株式会社,神奈川県,厚木市,下川入１７番地１,,14,212,2430206,,,2025-01-09,清算の結了等,,,2015-10-05,1,,,,,,0
405,2040001013004,登記記録の閉鎖等,0,2025-01-15,2025-01-06,株式会社ライフコンタクト,,株式会社,千葉県,千葉市中央区,祐光４丁目１８番３号,,12,101,2600007,,,2025-01-06,合併による解散等,1040001013005,令和７年１月１日千葉市中央区祐光四丁目１８番３号株式会社ライフエステート（1040001013005）に合併し解散,2015-10-05,1,,,,,ライフコンタクト,0
406,2040001035618,登記記録の閉鎖等,0,2025-01-15,2025-01-06,沢畑運輸株式会社,,株式会社,千葉県,松戸市,小金原８丁目１５番地の７,,12,207,2700021,,,2025-01-06,清算の結了等,,,2015-10-05,1,,,,,サワハタウンユ,0
414,2050001024529,登記記録の閉鎖等,0,2025-01-15,2025-01-06,株式会社三栄,,株式会社,茨城県,日立市,千石町１丁目１４番９号,,08,202,3160013,,,2025-01-06,清算の結了等,,,2015-10-05,1,,,,,サンエイ,0
415,2050001024875,登記記録の閉鎖等,0,2025-01-15,2025-01-07,株式会社ラプター,,株式会社,茨城県,日立市,城南町３丁目１番３１号,,08,202,3170077,,,2025-01-07,清算の結了等,,,2015-10-05,1,,,,,ラプター,0
419,2050002015394,登記記録の閉鎖等,0,2025-01-15,2025-01-06,水交産業有限会社,,有限会社,茨城県,石岡市,総社２丁目６番７号,,08,205,3150016,,,2025-01-06,清算の結了等,,,2015-10-05,1,,,,,スイコウサンギョウ,0
441,2100005012193,登記記録の閉鎖等,0,2025-01-15,2025-01-08,一般社団法人真砂の湯組合,,その他の設立登記法人,長野県,松本市,浅間温泉３丁目５番２９号,,20,202,3900303,,,2025-01-08,清算の結了等,,,2018-03-05,1,,,,,マサゴノユクミアイ,0
446,2120001014588,登記記録の閉鎖等,0,2025-01-15,2024-12-24,河本化成工業株式会社,,株式会社,大阪府,大阪市城東区,鴫野東１丁目５番１３号,,27,118,5360013,,,2024-12-24,合併による解散等,9010401179556,令和６年１１月２６日東京都港区北青山一丁目２番３号青山ビル１２階ｆｉｒｅｆｌｙ株式会社（9010401179556）に合併し解散,2015-10-05,1,,,,,カワモトカセイコウギョウ,0
472,2120101040518,登記記録の閉鎖等,0,2025-01-15,2025-01-09,株式会社マグネットアート,,株式会社,大阪府,泉南郡熊取町,大宮２丁目６番１１号,,27,361,5900450,,,2025-01-09,清算の結了等,,,2015-10-05,1,,,,,マグネットアート,0
490,2140002002078,登記記録の閉鎖等,0,2025-01-15,2025-01-08,有限会社日東地所,,有限会社,兵庫県,神戸市東灘区,本山北町３丁目４番３０号,,28,101,6580003,,,2025-01-08,清算の結了等,,,2015-10-05,1,,,,,ニットウチショ,0
530,2280001007394,登記記録の閉鎖等,0,2025-01-15,2025-01-14,株式会社協悠架設,,株式会社,島根県,大田市,温泉津町上村３３番地１,,32,205,6992513,,,2025-01-14,清算の結了等,,,2017-02-06,1,,,,,キョウユウカセツ,0
531,2290001003863,登記記録の閉鎖等,0,2025-01-15,2025-01-15,株式会社ビビアン,,株式会社,福岡県,福岡市東区,美和台３丁目３番１号,,40,131,8110212,,,2025-01-15,登記官による閉鎖,,,2015-10-05,1,,,,,,0
532,2290001006899,登記記録の閉鎖等,0,2025-01-15,2025-01-15,株式会社カーディオネットワーク,,株式会社,福岡県,福岡市西区,横浜３丁目２番１０号,,40,135,8190366,,,2025-01-15,登記官による閉鎖,,,2015-10-05,1,,,,,,0
535,2290001050294,登記記録の閉鎖等,0,2025-01-15,2025-01-15,ナガサト産業株式会社,,株式会社,福岡県,久留米市,東櫛原町３０６番地の１,,40,203,8300003,,,2025-01-15,登記官による閉鎖,,,2019-08-07,1,,,,,,0
536,2290001061275,登記記録の閉鎖等,0,2025-01-15,2025-01-15,株式会社ＳＳシステム,,株式会社,福岡県,福岡市東区,香椎駅東３丁目２３番１１号,,40,131,8130012,,,2025-01-15,登記官による閉鎖,,,2015-10-05,1,,,,,,0
537,2290001063494,登記記録の閉鎖等,0,2025-01-15,2025-01-15,株式会社ＡＩＱ,,株式会社,福岡県,福岡市中央区,春吉２丁目１３番８号,,40,133,8100003,,,2025-01-15,登記官による閉鎖,,,2015-10-05,1,,,,,,0
538,2290001065400,登記記録の閉鎖等,0,2025-01-15,2025-01-15,有明水産株式会社,,株式会社,福岡県,大牟田市,小浜町１０８番地,,40,202,8360034,,,2025-01-15,登記官による閉鎖,,,2015-10-05,1,,,,,,0
539,2290001065409,登記記録の閉鎖等,0,2025-01-15,2025-01-15,三池鑵詰株式会社,,株式会社,福岡県,大牟田市,有明町３１番地,,40,202,8360000,,,2025-01-15,登記官による閉鎖,,,2015-10-05,1,,,,,,0
546,2290002015965,登記記録の閉鎖等,0,2025-01-15,2025-01-15,有限会社船寿商会,,有限会社,福岡県,福岡市中央区,舞鶴１丁目１番１０号天神シルバービル７階,,40,133,8100073,,,2025-01-15,登記官による閉鎖,,,2015-10-05,1,,,,,,0
547,2290002020750,登記記録の閉鎖等,0,2025-01-15,2025-01-15,椛島企画有限会社,,有限会社,福岡県,福岡市博多区,博多駅南２丁目１１番２３－１１０５号,,40,132,8120016,,,2025-01-15,登記官による閉鎖,,,2015-10-05,1,,,,,,0
548,2290002033216,登記記録の閉鎖等,0,2025-01-15,2025-01-15,東栄インシュアランス有限会社,,有限会社,福岡県,糸島市,篠原西３丁目８番２２号,,40,230,8191129,,,2025-01-15,登記官による閉鎖,,,2015-10-05,1,,,,,,0
549,2290002038727,登記記録の閉鎖等,0,2025-01-15,2025-01-15,有限会社エイシン南,,有限会社,福岡県,筑紫野市,大字武藏五丁目５番２号,,40,217,8180052,,,2025-01-15,登記官による閉鎖,,,2015-10-05,1,,,,,,0
550,2290002046366,登記記録の閉鎖等,0,2025-01-15,2025-01-15,有限会社陽だまりホームヘルプサービス,,有限会社,福岡県,飯塚市,椋本１６７番地,,40,205,8200077,,,2025-01-15,登記官による閉鎖,,,2015-10-05,1,,,,,,0
551,2290002057090,登記記録の閉鎖等,0,2025-01-15,2025-01-15,昭和興業有限会社,,有限会社,福岡県,大牟田市,住吉町１２番地,,40,202,8360024,,,2025-01-15,登記官による閉鎖,,,2015-10-05,1,,,,,,0
552,2290002057099,登記記録の閉鎖等,0,2025-01-15,2025-01-15,有限会社日之出製材所,,有限会社,福岡県,久留米市,日ノ出町７２番地,,40,203,8300012,,,2025-01-15,登記官による閉鎖,,,2015-10-05,1,,,,,,0
553,2290002057108,登記記録の閉鎖等,0,2025-01-15,2025-01-15,太陽織物有限会社,,有限会社,福岡県,久留米市,國分町字細永１６５４番地,,40,203,8390000,,,2025-01-15,登記官による閉鎖,,,2015-10-05,1,,,,,,0
554,2290002057124,登記記録の閉鎖等,0,2025-01-15,2025-01-15,有限会社船小屋油脂工業所,,有限会社,福岡県,八女市,（福岡県八女郡岡山村室岡１７２番地）,,40,210,8340000,,,2025-01-15,登記官による閉鎖,,,2015-10-05,1,,,,,,1
555,2290003004083,登記記録の閉鎖等,0,2025-01-15,2025-01-15,合同会社ＮＴＳ,,合同会社,福岡県,筑紫野市,二日市北６丁目３番２６号,,40,217,8180056,,,2025-01-15,登記官による閉鎖,,,2015-10-05,1,,,,,,0
556,2290005006053,登記記録の閉鎖等,0,2025-01-15,2025-01-15,特定非営利活動法人建物研究会,,その他の設立登記法人,福岡県,福岡市東区,松田３丁目１７番７－１４０１号,,40,131,8120064,,,2025-01-15,登記官による閉鎖,,,2015-10-05,1,,,,,,0
557,2290801002461,登記記録の閉鎖等,0,2025-01-15,2025-01-15,株式会社テゾール,,株式会社,福岡県,遠賀郡遠賀町,遠賀川２丁目１番７号,,40,384,8114307,,,2025-01-15,登記官による閉鎖,,,2015-10-05,1,,,,,,0
558,2290801016461,登記記録の閉鎖等,0,2025-01-15,2025-01-15,株式会社藤井電器,,株式会社,福岡県,田川市,本町７番２５号,,40,206,8260022,,,2025-01-15,登記官による閉鎖,,,2015-10-05,1,,,,,,0
559,2290801018185,登記記録の閉鎖等,0,2025-01-15,2025-01-15,株式会社にこにこ,,株式会社,福岡県,北九州市小倉南区,朽網西１丁目１３番２２号,,40,107,8000233,,,2025-01-15,登記官による閉鎖,,,2015-10-05,1,,,,,,0
560,2290801019803,登記記録の閉鎖等,0,2025-01-15,2025-01-15,オフィスＴＯＫＩ株式会社,,株式会社,福岡県,北九州市小倉北区,片野４丁目１８番２６号,,40,106,8020064,,,2025-01-15,登記官による閉鎖,,,2015-10-05,1,,,,,,0
561,2290801020109,登記記録の閉鎖等,0,2025-01-15,2025-01-15,株式会社レトロＰＯＰ,,株式会社,福岡県,北九州市小倉南区,大字曽根３９９７番地１,,40,107,8000212,,,2025-01-15,登記官による閉鎖,,,2015-10-05,1,,,,,,0
562,2290802001215,登記記録の閉鎖等,0,2025-01-15,2025-01-15,有限会社岡崎鯨肉店,,有限会社,福岡県,北九州市小倉北区,魚町４丁目１番１７号,,40,106,8020006,,,2025-01-15,登記官による閉鎖,,,2015-10-05,1,,,,,,0
563,2290802025107,登記記録の閉鎖等,0,2025-01-15,2025-01-15,有限会社坂本商店,,有限会社,福岡県,田川郡添田町,大字添田１２７１番地,,40,602,8240602,,,2025-01-15,登記官による閉鎖,,,2015-10-05,1,,,,,,0
564,2290802026212,登記記録の閉鎖等,0,2025-01-15,2025-01-15,有限会社みすゞや,,有限会社,福岡県,北九州市小倉北区,京町２丁目５７番地,,40,106,8020002,,,2025-01-15,登記官による閉鎖,,,2019-10-24,1,,,,,,0
566,2310001017968,登記記録の閉鎖等,0,2025-01-15,2025-01-08,株式会社Ｂｒａｖｅ,,株式会社,長崎県,長崎市,樺島町８番１８－４０１号,,42,201,8500034,,,2025-01-08,清算の結了等,,,2022-07-29,1,,,,,ブレイブ,0
574,2360001032541,登記記録の閉鎖等,0,2025-01-15,2024-12-18,ＫＵＵ　Ｍａｎａｇｅｍｅｎｔ株式会社,,株式会社,沖縄県,中頭郡北谷町,伊平１丁目２番３１号,,47,326,9040102,,,2024-12-18,清算の結了等,,,2023-09-13,1,,,,,クーマネジメント,0
588,2400002010153,登記記録の閉鎖等,0,2025-01-15,2025-01-08,有限会社レガーロ,,有限会社,岩手県,北上市,村崎野１７地割９０番地３,,03,206,0240004,,,2025-01-08,合併による解散等,2390001001915,令和７年１月１日山形市流通センター三丁目９番地の３株式会社山形部品（2390001001915）に合併し解散,2015-10-05,1,,,,,レガーロ,0
600,2490002009749,登記記録の閉鎖等,0,2025-01-15,2025-01-09,有限会社白木農機,,有限会社,高知県,土佐市,蓮池４３５番地１,00006681,39,205,7811105,,,2025-01-09,清算の結了等,,,2015-10-05,1,,,,,シラキノウキ,0
606,3010001081309,登記記録の閉鎖等,0,2025-01-15,2025-01-06,堀口裕之コンサルティング株式会社,,株式会社,東京都,大田区,南馬込３丁目３９番９－５０１号,,13,111,1430025,,,2025-01-06,清算の結了等,,,2015-10-05,1,,,,,ホリグチヒロシコンサルティング,0
610,3010001147976,登記記録の閉鎖等,0,2025-01-15,2025-01-06,株式会社産經システム開発,,株式会社,東京都,千代田区,大手町１丁目７番２号,,13,101,1000004,,,2025-01-06,合併による解散等,9010001017513,令和７年１月１日東京都千代田区大手町一丁目７番２号株式会社産経新聞制作（9010001017513）に合併し解散,2015-10-05,1,,,,,サンケイシステムカイハツ,0
612,3010001206633,登記記録の閉鎖等,0,2025-01-15,2024-12-25,株式会社Ｒｏｃｋ　Ｍｕｓｉｃ　Ｊａｐａｎ,,株式会社,東京都,文京区,湯島１丁目１２番５号小安ビル２Ｆ,,13,105,1130034,,,2024-12-25,清算の結了等,,,2020-01-15,1,,,,,ロックミュージックジャパン,0
619,3010003043876,登記記録の閉鎖等,0,2025-01-15,2024-12-17,アシスト合同会社,,合同会社,東京都,文京区,小石川３丁目２６番２,,13,105,1120002,,,2024-12-17,清算の結了等,,,2024-06-10,1,,,,,アシスト,0
631,3010401154201,登記記録の閉鎖等,0,2025-01-15,2024-12-25,合同会社三津原興産,,合同会社,東京都,港区,西麻布４丁目１９番６号,,13,103,1060031,,,2024-12-25,合併による解散等,9013202005971,令和６年１２月２５日東京都港区西麻布四丁目１９番６号合同会社マックスプランニング（9013202005971）に合併し解散,2020-07-28,1,,,,,ミツハラコウサン,0
645,3010705003541,登記記録の閉鎖等,0,2025-01-15,2024-12-25,一般社団法人日本自然エネルギー研究所,,その他の設立登記法人,東京都,品川区,上大崎３丁目１番１号目黒セントラルスクエア１５階,,13,109,1410021,,,2024-12-25,清算の結了等,,,2023-09-28,1,,,,,ニホンシゼンエネルギーケンキュウショ,0
648,3010802013402,登記記録の閉鎖等,0,2025-01-15,2024-12-26,有限会社松井研磨工業所,,有限会社,東京都,大田区,矢口３丁目３３番８号,,13,111,1460093,,,2024-12-26,清算の結了等,,,2015-10-05,1,,,,,,0
653,3010902008293,登記記録の閉鎖等,0,2025-01-15,2024-12-27,有限会社スタッフ,,有限会社,東京都,世田谷区,下馬４丁目１７番１８号,,13,112,1540002,,,2024-12-27,清算の結了等,,,2015-10-05,1,,,,,スタッフ,0
654,3010905003845,登記記録の閉鎖等,0,2025-01-15,2024-12-25,一般社団法人ＤＡＥＮ,,その他の設立登記法人,東京都,世田谷区,上馬１丁目２９番１２号,,13,112,1540011,,,2024-12-25,清算の結了等,,,2019-11-01,1,,,,,ダエン,0
655,3011001135161,登記記録の閉鎖等,0,2025-01-15,2024-12-11,株式会社Ｃａｐｒｉ,,株式会社,東京都,渋谷区,東１丁目３－１常磐松ロイアルハイツ４０４号室,,13,113,1500011,,,2024-12-11,清算の結了等,,,2020-08-06,1,,,,,カプリ,0
660,3011101047298,登記記録の閉鎖等,0,2025-01-15,2025-01-15,株式会社関東グリーン,,株式会社,福岡県,福岡市中央区,天神３丁目４番１号,,40,133,8100001,,,2025-01-15,登記官による閉鎖,,,2015-10-05,1,,,,,,0
663,3011101058898,登記記録の閉鎖等,0,2025-01-15,2025-01-15,株式会社スマートフォンプロジェクト,,株式会社,福岡県,福岡市博多区,祇園町４番２号,,40,132,8120038,,,2025-01-15,登記官による閉鎖,,,2015-10-05,1,,,,,,0
678,3011502011951,登記記録の閉鎖等,0,2025-01-15,2025-01-07,有限会社ワン・ツー,,有限会社,東京都,荒川区,町屋６丁目３８番２号日神パレステージ町屋１００６号,,13,118,1160001,,,2025-01-07,清算の結了等,,,2015-10-05,1,,,,,ワンツー,0
688,3012302005169,登記記録の閉鎖等,0,2025-01-15,2025-01-07,有限会社リード,,有限会社,東京都,町田市,森野１丁目３９番１６号,,13,209,1940022,,,2025-01-07,清算の結了等,,,2015-10-05,1,,,,,リード,0
706,3021005010491,登記記録の閉鎖等,0,2025-01-15,2025-01-14,一般社団法人さがみ,,その他の設立登記法人,神奈川県,相模原市南区,新磯野２丁目３３番４号,,14,153,2520325,,,2025-01-14,清算の結了等,,,2016-01-12,1,,,,,サガミ,0
714,3030001146398,登記記録の閉鎖等,0,2025-01-15,2025-01-07,彩の森動物病院狭山ヶ丘株式会社,,株式会社,埼玉県,所沢市,東狭山ケ丘３丁目７１９番地の１,,11,208,3591106,,,2025-01-07,合併による解散等,5030001105988,令和７年１月１日埼玉県狭山市入間川三丁目５番１８号彩の森動物病院株式会社（5030001105988）に合併し解散,2022-01-19,1,,,,,サイノモリドウブツビョウインサヤマガオカ,0
723,3040001013003,登記記録の閉鎖等,0,2025-01-15,2025-01-06,株式会社ライフプロパティー,,株式会社,千葉県,千葉市中央区,祐光４丁目１８番３号,,12,101,2600007,,,2025-01-06,合併による解散等,1040001013005,令和７年１月１日千葉市中央区祐光四丁目１８番３号株式会社ライフエステート（1040001013005）に合併し解散,2015-10-05,1,,,,,ライフプロパティー,0
726,3040001100180,登記記録の閉鎖等,0,2025-01-15,2025-01-06,株式会社ネクスト,,株式会社,千葉県,市川市,相之川２丁目１４番１号,,12,203,2720143,,,2025-01-06,清算の結了等,,,2017-05-17,1,,,,,ネクスト,0
729,3040002008976,登記記録の閉鎖等,0,2025-01-15,2025-01-06,有限会社日本軽貨物,,有限会社,千葉県,千葉市花見川区,犢橋町１６３１番地１,,12,102,2620013,,,2025-01-06,清算の結了等,,,2015-10-05,1,,,,,,0
739,3060002020277,登記記録の閉鎖等,0,2025-01-15,2025-01-07,有限会社昇龍企画,,有限会社,栃木県,鹿沼市,幸町１丁目８番１３号,,09,205,3220023,,,2025-01-07,清算の結了等,,,2015-10-05,1,,,,,ショウリュウキカク,0
748,3080401023944,登記記録の閉鎖等,0,2025-01-15,2025-01-07,株式会社ピグラス,,株式会社,静岡県,磐田市,向笠竹之内１３２３番地１０,,22,211,4380013,,,2025-01-07,清算の結了等,,,2019-10-29,1,,,,,ピグラス,0
755,3110001001297,登記記録の閉鎖等,0,2025-01-15,2025-01-07,株式会社一越工業,,株式会社,新潟県,新潟市江南区,鐘木５５７番地１,,15,104,9501141,,,2025-01-07,清算の結了等,,,2015-10-05,1,,,,,イチコシコウギョウ,0
796,3120105001085,登記記録の閉鎖等,0,2025-01-15,2024-12-25,天理教堺正分教会,,その他の設立登記法人,大阪府,堺市堺区,御陵通３番４号,,27,141,5900057,,,2024-12-25,合併による解散等,8120005000182,令和６年１２月２３日大阪市東住吉区南田辺五丁目２９番２０号天理教堺萩分教会（8120005000182）に合併し解散,2015-10-05,1,,,,,テンリキョウカイショウブンキョウカイ,0
797,3120901036350,登記記録の閉鎖等,0,2025-01-15,2025-01-07,原口伊蔵電気設備株式会社,,株式会社,大阪府,豊中市,豊南町東３丁目５番１５号,,27,203,5610814,,,2025-01-07,合併による解散等,2140001102127,令和６年１２月２６日兵庫県尼崎市昭和通１－９－４株式会社原口電設（2140001102127）に合併し解散,2016-01-08,1,,,,,ハラグチイゾウデンキセツビ,0
804,3130001042463,登記記録の閉鎖等,0,2025-01-15,2025-01-07,株式会社ユニシス,,株式会社,京都府,京都市南区,久世高田町２５７番地１０,,26,107,6018211,,,2025-01-07,清算の結了等,,,2015-10-05,1,,,,,ユニシス,0
808,3140001095444,登記記録の閉鎖等,0,2025-01-15,2025-01-08,株式会社創風舎,,株式会社,兵庫県,姫路市,鍵町１２番地ベルハイツ白鷺６０２号,,28,201,6700009,,,2025-01-08,清算の結了等,,,2015-10-05,1,,,,,,0
814,3140005001175,登記記録の閉鎖等,0,2025-01-15,2024-12-25,天理教堺神分教会,,その他の設立登記法人,兵庫県,神戸市北区,淡河町野瀬５８番地,,28,109,6511623,,,2024-12-25,合併による解散等,8120005000182,令和６年１２月２３日大阪市東住吉区南田辺五丁目２９番２０号天理教堺萩分教会（8120005000182）に合併し解散,2015-10-05,1,,,,,テンリキョウサカイシンブンキョウカイ,0
817,3150001008512,登記記録の閉鎖等,0,2025-01-15,2025-01-14,株式会社ケー・ケー・エムズ商事,,株式会社,奈良県,奈良市,学園朝日町１１番１号,,29,201,6310016,,,2025-01-14,清算の結了等,,,2015-10-05,1,,,,,ケーケーエムズショウジ,0
831,3220002003521,登記記録の閉鎖等,0,2025-01-15,2025-01-06,大地宝産有限会社,,有限会社,石川県,金沢市,若宮町リ２９番地,,17,201,9200053,,,2025-01-06,清算の結了等,,,2025-01-06,1,,,,,ダイチホウサン,0
836,3240001026422,登記記録の閉鎖等,0,2025-01-15,2025-01-10,広島ダイヤモンド工業株式会社,,株式会社,広島県,呉市,仁方西神町２２番１６号,,34,202,7370145,,,2025-01-10,清算の結了等,,,2015-10-05,1,,,,,ヒロシマダイヤモンドコウギョウ,0
838,3240005010694,登記記録の閉鎖等,0,2025-01-15,2025-01-10,医療法人社団高原内科循環器科,,その他の設立登記法人,広島県,尾道市,向島町５６１７番地の５１,,34,205,7220073,,,2025-01-10,清算の結了等,,,2015-10-05,1,,,,,タカハラナイカジュンカンキカ,0
849,3290001001544,登記記録の閉鎖等,0,2025-01-15,2024-12-20,株式会社セラミック建設,,株式会社,福岡県,福岡市南区,大池１丁目２７番２号,,40,134,8150073,,,2024-12-20,清算の結了等,,,2015-10-05,1,,,,,,0
850,3290001002187,登記記録の閉鎖等,0,2025-01-15,2025-01-15,藤澤建設株式会社,,株式会社,福岡県,福岡市南区,井尻４丁目３６番１９号,,40,134,8111302,,,2025-01-15,登記官による閉鎖,,,2015-10-05,1,,,,,,0
852,3290001021047,登記記録の閉鎖等,0,2025-01-15,2024-12-05,株式会社メディカルアンドケア,,株式会社,福岡県,福岡市早良区,飯倉５丁目２０番１４号,,40,137,8140161,,,2024-12-05,清算の結了等,,,2015-10-05,1,,,,,メディカルアンドケア,0
853,3290001021872,登記記録の閉鎖等,0,2025-01-15,2025-01-15,日本山人蔘本舗株式会社,,株式会社,福岡県,福岡市中央区,清川３丁目１５番６号,,40,133,8100005,,,2025-01-15,登記官による閉鎖,,,2015-10-05,1,,,,,,0
854,3290001037258,登記記録の閉鎖等,0,2025-01-15,2025-01-15,ＭＫファクトリー株式会社,,株式会社,福岡県,宗像市,田熊４丁目７番１‐４０１号,,40,220,8113431,,,2025-01-15,登記官による閉鎖,,,2015-10-05,1,,,,,,0
855,3290001041615,登記記録の閉鎖等,0,2025-01-15,2025-01-15,森本電工株式会社,,株式会社,福岡県,春日市,天神山７丁目２４５番地,,40,218,8160855,,,2025-01-15,登記官による閉鎖,,,2015-10-05,1,,,,,,0
856,3290001043446,登記記録の閉鎖等,0,2025-01-15,2025-01-15,株式会社ケイシステム,,株式会社,福岡県,太宰府市,吉松１丁目２４番２３号,,40,221,8180138,,,2025-01-15,登記官による閉鎖,,,2015-10-05,1,,,,,,0
857,3290001046184,登記記録の閉鎖等,0,2025-01-15,2025-01-15,株式会社ネクストステージ,,株式会社,福岡県,飯塚市,蓮台寺１０２１番地の３,00092553,40,205,8200048,,,2025-01-15,登記官による閉鎖,,,2015-10-05,1,,,,,,0
858,3290001056398,登記記録の閉鎖等,0,2025-01-15,2025-01-15,株式会社ベルハウジング,,株式会社,福岡県,福岡市城南区,樋井川２丁目２５番３６号,00092724,40,136,8140153,,,2025-01-15,登記官による閉鎖,,,2015-10-05,1,,,,,,0
859,3290001063527,登記記録の閉鎖等,0,2025-01-15,2025-01-15,株式会社ＧＲＯＷＥＳＴ,,株式会社,福岡県,福岡市中央区,天神１丁目１０番１７号,,40,133,8100001,,,2025-01-15,登記官による閉鎖,,,2015-10-05,1,,,,,,0
860,3290001065399,登記記録の閉鎖等,0,2025-01-15,2025-01-15,アサヒ商事株式会社,,株式会社,福岡県,大牟田市,不知火町１丁目５２番地,,40,202,8360843,,,2025-01-15,登記官による閉鎖,,,2015-10-05,1,,,,,,0
864,3290002006468,登記記録の閉鎖等,0,2025-01-15,2025-01-15,有限会社井上工業,,有限会社,福岡県,福岡市南区,長丘５丁目１４番２２号,,40,134,8150075,,,2025-01-15,登記官による閉鎖,,,2015-10-05,1,,,,,,0
865,3290002012598,登記記録の閉鎖等,0,2025-01-15,2025-01-15,有限会社ビジネス・プリント,,有限会社,福岡県,福岡市中央区,渡辺通１丁目１番１号,,40,133,8100004,,,2025-01-15,登記官による閉鎖,,,2015-10-05,1,,,,,,0
866,3290002035624,登記記録の閉鎖等,0,2025-01-15,2025-01-15,有限会社ジャパンカメリアコーポレーション,,有限会社,福岡県,古賀市,久保５４７番地７,,40,223,8113115,,,2025-01-15,登記官による閉鎖,,,2015-10-05,1,,,,,,0
868,3290002057098,登記記録の閉鎖等,0,2025-01-15,2025-01-15,有限会社松西商店,,有限会社,福岡県,久留米市,米屋町９番地,,40,203,8390000,,,2025-01-15,登記官による閉鎖,,,2015-10-05,1,,,,,,0
869,3290002057107,登記記録の閉鎖等,0,2025-01-15,2025-01-15,寶商事有限会社,,有限会社,福岡県,久留米市,東町５００番地,,40,203,8300032,,,2025-01-15,登記官による閉鎖,,,2015-10-05,1,,,,,,0
870,3290002057123,登記記録の閉鎖等,0,2025-01-15,2025-01-15,有限会社福島燃料工業所,,有限会社,福岡県,八女市,（福岡県八女郡福島町本町１番地の２４８）,,40,210,8340000,,,2025-01-15,登記官による閉鎖,,,2015-10-05,1,,,,,,1
871,3290003004000,登記記録の閉鎖等,0,2025-01-15,2025-01-15,合同会社ＧＯＪＹＯ,,合同会社,福岡県,太宰府市,五条１丁目２番３０号,,40,221,8180125,,,2025-01-15,登記官による閉鎖,,,2015-10-05,1,,,,,,0
874,3290003008109,登記記録の閉鎖等,0,2025-01-15,2024-12-20,合同会社ＢＯＯＮ,,合同会社,福岡県,宗像市,日の里１丁目２５番地１,,40,220,8113425,,,2024-12-20,清算の結了等,,,2018-06-05,1,,,,,,0
878,3290005004345,登記記録の閉鎖等,0,2025-01-15,2025-01-15,特定非営利活動法人キャリア教育サポート,,その他の設立登記法人,福岡県,福岡市西区,今宿青木５２２番地の３,,40,135,8190162,,,2025-01-15,登記官による閉鎖,,,2015-10-05,1,,,,,,0
879,3290005004618,登記記録の閉鎖等,0,2025-01-15,2025-01-15,特定非営利活動法人福岡県健康管理士会,,その他の設立登記法人,福岡県,福岡市南区,長住２丁目１番３６号,,40,134,8111362,,,2025-01-15,登記官による閉鎖,,,2015-10-05,1,,,,,,0
880,3290005007744,登記記録の閉鎖等,0,2025-01-15,2025-01-15,特定非営利活動法人ロイヤルズベースボールクラブ,,その他の設立登記法人,福岡県,福岡市博多区,麦野４丁目３２番１９号,,40,132,8120882,,,2025-01-15,登記官による閉鎖,,,2015-10-05,1,,,,,,0
881,3290005011639,登記記録の閉鎖等,0,2025-01-15,2024-12-09,金光教柳川西教会,,その他の設立登記法人,福岡県,柳川市,保加町１２番地の１,,40,207,8320011,,,2024-12-09,合併による解散等,6290005012139,令和６年１２月９日福岡県みやま市高田町下楠田１６０４番地の１金光教渡瀬教会（6290005012139）に合併し解散,2015-10-05,1,,,,,,0
882,3290005014526,登記記録の閉鎖等,0,2025-01-15,2025-01-15,あいんす行政書士法人,,その他の設立登記法人,福岡県,久留米市,宮ノ陣４丁目２９番１１号久留米ビジネスプラザビル,,40,203,8390801,,,2025-01-15,登記官による閉鎖,,,2015-10-05,1,,,,,,0
883,3290801013012,登記記録の閉鎖等,0,2025-01-15,2025-01-15,林工業株式会社,,株式会社,福岡県,北九州市若松区,赤島町１７番５号,,40,103,8080073,,,2025-01-15,登記官による閉鎖,,,2015-10-05,1,,,,,,0
885,3290801014794,登記記録の閉鎖等,0,2025-01-15,2025-01-15,笠松炭鉱株式会社,,株式会社,福岡県,宮若市,四郎丸６０１番地,,40,226,8230016,,,2025-01-15,登記官による閉鎖,,,2015-10-05,1,,,,,,0
886,3290801016163,登記記録の閉鎖等,0,2025-01-15,2025-01-15,嶋津工業株式会社,,株式会社,福岡県,直方市,日吉町４番１４号,,40,204,8220025,,,2025-01-15,登記官による閉鎖,,,2015-10-05,1,,,,,,0
887,3290801018911,登記記録の閉鎖等,0,2025-01-15,2025-01-15,エムワイ産業株式会社,,株式会社,福岡県,直方市,大字頓野３８３６番地３サンビーム直方４０６号,,40,204,8220002,,,2025-01-15,登記官による閉鎖,,,2015-10-05,1,,,,,,0
889,3290802005289,登記記録の閉鎖等,0,2025-01-15,2025-01-15,響住建有限会社,,有限会社,福岡県,北九州市小倉北区,紺屋町６番１号,,40,106,8020081,,,2025-01-15,登記官による閉鎖,,,2015-10-05,1,,,,,,0
890,3290802006163,登記記録の閉鎖等,0,2025-01-15,2025-01-15,有限会社松元製作所,,有限会社,福岡県,北九州市小倉南区,蜷田若園１丁目８番３号,,40,107,8020814,,,2025-01-15,登記官による閉鎖,,,2015-10-05,1,,,,,,0
891,3290802020734,登記記録の閉鎖等,0,2025-01-15,2025-01-15,有限会社石井商事,,有限会社,福岡県,鞍手郡鞍手町,大字古門４１１４番地,,40,402,8071306,,,2025-01-15,登記官による閉鎖,,,2015-10-05,1,,,,,,0
892,3290802025634,登記記録の閉鎖等,0,2025-01-15,2025-01-15,有限会社田中屋酒店,,有限会社,福岡県,田川市,大字奈良１７７８番地の２３,,40,206,8260043,,,2025-01-15,登記官による閉鎖,,,2015-10-05,1,,,,,,0
901,3370001013358,登記記録の閉鎖等,0,2025-01-15,2024-12-26,株式会社菊田工業,,株式会社,宮城県,仙台市太白区,中田町字法地北１番地,,04,104,9811103,,,2024-12-26,清算の結了等,,,2015-10-05,1,,,,,キクタコウギョウ,0
917,3430002062686,登記記録の閉鎖等,0,2025-01-15,2025-01-10,有限会社オフィスＬｅｅ,,有限会社,北海道,沙流郡日高町,字福満８８番地の１３,,01,601,0550003,,,2025-01-10,清算の結了等,,,2015-10-05,1,,,,,,0
928,3700150059993,登記記録の閉鎖等,0,2025-01-15,2024-09-30,佐与土地改良区,,その他,福岡県,飯塚市,鹿毛馬２３３３番地４飯塚市頴田支所内,,40,205,8201112,,,2024-09-30,その他の清算の結了等,,,2015-10-09,1,,,,,サヨトチカイリヨウク,0
931,4010001115651,登記記録の閉鎖等,0,2025-01-15,2025-01-06,株式会社ギンザギャラリーハウス,,株式会社,東京都,世田谷区,野沢３丁目１６番１５－１１６号,,13,112,1540003,,,2025-01-06,清算の結了等,,,2015-10-05,1,,,,,ギンザギャラリーハウス,0
932,4010001115817,登記記録の閉鎖等,0,2025-01-15,2025-01-07,株式会社和多倉,,株式会社,栃木県,足利市,八幡町６２番地,,09,202,3260824,,,2025-01-07,清算の結了等,,,2015-10-05,1,,,,,ワタクラ,0
935,4010001195066,登記記録の閉鎖等,0,2025-01-15,2024-12-19,エービークローンバイオテクノロジー株式会社,,株式会社,東京都,文京区,本郷１丁目２５番２８号本郷アローハイツ２０１,,13,105,1130033,,,2024-12-19,清算の結了等,,,2018-10-02,1,,,,,エービークローンバイオテクノロジー,0
937,4010001221656,登記記録の閉鎖等,0,2025-01-15,2024-12-25,Ｊｅｌｌｙｓｍａｃｋ　Ｊａｐａｎ株式会社,,株式会社,東京都,中央区,新富１丁目１５番３号新富ミハマビル４階ジパング,,13,102,1040041,,,2024-12-25,清算の結了等,,,2021-10-08,1,,,,,ジェリースマックジャパン,0
960,4011001033521,登記記録の閉鎖等,0,2025-01-15,2024-12-10,新生映画株式会社,,株式会社,東京都,渋谷区,宇田川町６番２０－４０３号,,13,113,1500042,,,2024-12-10,清算の結了等,,,2015-10-05,1,,,,,シンセイエイガ,0
975,4011301001822,登記記録の閉鎖等,0,2025-01-15,2025-01-07,株式会社吉兆,,株式会社,東京都,杉並区,和泉３丁目８番４７号,,13,115,1680063,,,2025-01-07,清算の結了等,,,2015-10-05,1,,,,,キッチョウ,0
986,4011701022922,登記記録の閉鎖等,0,2025-01-15,2025-01-10,双葉工芸印刷株式会社,,株式会社,東京都,江戸川区,松江７丁目８番１０号,,13,123,1320025,,,2025-01-10,合併による解散等,2120001039189,令和７年１月１日大阪市浪速区芦原一丁目３番１８号東洋紙業株式会社（2120001039189）に合併し解散,2019-09-05,1,,,,,フタバコウゲイインサツ,0
991,4011802019867,登記記録の閉鎖等,0,2025-01-15,2024-12-27,有限会社山田硝子建材,,有限会社,東京都,足立区,興野１丁目４番４号,,13,121,1230844,,,2024-12-27,清算の結了等,,,2015-10-05,1,,,,,ヤマダガラスケンザイ,0
993,4012301002901,登記記録の閉鎖等,0,2025-01-15,2025-01-07,サザンテック株式会社,,株式会社,東京都,町田市,玉川学園１丁目２０番１５号,,13,209,1940041,,,2025-01-07,清算の結了等,,,2015-10-05,1,,,,,サザンテック,0
994,4012302004054,登記記録の閉鎖等,0,2025-01-15,2025-01-07,有限会社ブルーリッヂ,,有限会社,東京都,町田市,玉川学園３丁目１０番１８号,,13,209,1940041,,,2025-01-07,清算の結了等,,,2015-10-05,1,,,,,ブルーリッジ,0
999,4013302018812,登記記録の閉鎖等,0,2025-01-15,2025-01-07,有限会社オフィスアルカディア,,有限会社,埼玉県,ふじみ野市,西鶴ケ岡２丁目１１Ｃ－２０４号室,,11,245,3560044,,,2025-01-07,清算の結了等,,,2015-10-05,1,,,,,オフィスアルカディア,0
1009,4021002056446,登記記録の閉鎖等,0,2025-01-15,2025-01-14,有限会社武英,,有限会社,神奈川県,小田原市,久野２８９－１,,14,206,2500055,,,2025-01-14,清算の結了等,,,2015-10-05,1,,,,,ムエイ,0
1017,4030001145473,登記記録の閉鎖等,0,2025-01-15,2025-01-06,ナンキ工業株式会社,,株式会社,埼玉県,さいたま市岩槻区,大字横根１３１３番地,,11,110,3390036,,,2025-01-06,清算の結了等,,,2021-11-22,1,,,,,ナンキコウギョウ,0
1033,4040003011929,登記記録の閉鎖等,0,2025-01-15,2025-01-06,スズシマ合同会社,,合同会社,千葉県,千葉市花見川区,幕張町５丁目４１７番地３２４幕張ガーデンフォート１１０７号,,12,102,2620032,,,2025-01-06,清算の結了等,,,2018-07-17,1,,,,,スズシマ,0
1044,4060002040530,登記記録の閉鎖等,0,2025-01-15,2025-01-07,有限会社八下田自動車,,有限会社,栃木県,佐野市,栃本町１５９０番地,,09,204,3270312,,,2025-01-07,清算の結了等,,,2015-10-05,1,,,,,ヤゲタジドウシャ,0
1046,4080001015358,登記記録の閉鎖等,0,2025-01-15,2025-01-06,株式会社ヤハタ,,株式会社,静岡県,焼津市,塩津１４６番地の７,,22,212,4250085,,,2025-01-06,清算の結了等,,,2015-10-05,1,,,,,ヤハタ,0
1048,4080002014012,登記記録の閉鎖等,0,2025-01-15,2025-01-06,有限会社ワイテック,,有限会社,静岡県,島田市,中河８９４番地の１,,22,209,4270103,,,2025-01-06,清算の結了等,,,2015-10-05,1,,,,,ワイテック,0
1093,4130003009006,登記記録の閉鎖等,0,2025-01-15,2025-01-07,ＫＡＳＨＩＭＡ合同会社,,合同会社,京都府,京都市右京区,西院月双町１０５番地グリシーヌ京都西京極２０５,,26,108,6150054,,,2025-01-07,清算の結了等,,,2023-09-27,1,,,,,カシマ,0
1108,4140003012941,登記記録の閉鎖等,0,2025-01-15,2025-01-07,Ｋ＆Ｓ合同会社,,合同会社,兵庫県,西宮市,高松町３番３－５０３号,,28,204,6638204,,,2025-01-07,清算の結了等,,,2018-04-20,1,,,,,ケーアンドエス,0
1126,4180302022266,登記記録の閉鎖等,0,2025-01-15,2025-01-06,有限会社伸正工業,,有限会社,愛知県,豊田市,寺部町１丁目５６番地２,,23,211,4710017,,,2025-01-06,清算の結了等,,,2015-10-05,1,,,,,シンセイコウギョウ,0
1127,4180303006136,登記記録の閉鎖等,0,2025-01-15,2025-01-06,合同会社幸え,,合同会社,愛知県,豊橋市,森岡町６番地の４,,23,201,4411114,,,2025-01-06,合併による解散等,4180301035087,令和７年１月１日愛知県田原市豊島町道南２２番地３株式会社すみれシア（4180301035087）に合併し解散,2024-06-04,1,,,,,サキワエ,0
1136,4200002008694,登記記録の閉鎖等,0,2025-01-15,2025-01-14,有限会社ポッシュ,,有限会社,岐阜県,各務原市,鵜沼小伊木町２丁目５３番地,,21,213,5090143,,,2025-01-14,清算の結了等,,,2015-10-05,1,,,,,ポッシュ,0
1140,4220002001524,登記記録の閉鎖等,0,2025-01-15,2025-01-08,有限会社エム・シー・ケー,,有限会社,石川県,金沢市,南新保町チ２６番地,,17,201,9200064,,,2025-01-08,清算の結了等,,,2015-10-05,1,,,,,エムシーケー,0
1142,4220002002084,登記記録の閉鎖等,0,2025-01-15,2025-01-07,有限会社トレント,,有限会社,石川県,金沢市,上堤町１番３５号,,17,201,9200869,,,2025-01-07,清算の結了等,,,2015-10-05,1,,,,,トレント,0
1144,4220002017405,登記記録の閉鎖等,0,2025-01-15,2025-01-07,有限会社ひらき染房,,有限会社,石川県,白山市,馬場１丁目８６番,,17,210,9240864,,,2025-01-07,清算の結了等,,,2023-10-23,1,,,,,ヒラキセンボウ,0
1152,4260001031163,登記記録の閉鎖等,0,2025-01-15,2025-01-08,株式会社カワデン,,株式会社,岡山県,赤磐市,桜が丘西２丁目１２番７号,,33,213,7090802,,,2025-01-08,清算の結了等,,,2017-08-21,1,,,,,カワデン,0
1154,4260003004464,登記記録の閉鎖等,0,2025-01-15,2025-01-06,合同会社ＧＲＥ備北２,,合同会社,岡山県,新見市,足見１６６４番地,,33,210,7192642,,,2025-01-06,清算の結了等,,,2023-10-12,1,,,,,ジーアールイービホクツー,0
1157,4270003000982,登記記録の閉鎖等,0,2025-01-15,2025-01-14,合同会社ＬＩＮＯ,,合同会社,島根県,出雲市,湖陵町二部１２８４－４,,32,203,6990812,,,2025-01-14,清算の結了等,,,2017-05-12,1,,,,,リノ,0
1159,4290001001411,登記記録の閉鎖等,0,2025-01-15,2025-01-15,新日本電気工事株式会社,,株式会社,福岡県,福岡市南区,和田１丁目１９番１２号,,40,134,8111343,,,2025-01-15,登記官による閉鎖,,,2015-10-05,1,,,,,シンニホンデンキコウジ,0
1160,4290001005536,登記記録の閉鎖等,0,2025-01-15,2025-01-15,株式会社博多食工房,,株式会社,福岡県,福岡市早良区,高取２丁目７番１３号,,40,137,8140011,,,2025-01-15,登記官による閉鎖,,,2015-10-05,1,,,,,,0
1161,4290001015064,登記記録の閉鎖等,0,2025-01-15,2025-01-15,内外株式会社,,株式会社,福岡県,福岡市博多区,店屋町１番２０号,,40,132,8120025,,,2025-01-15,登記官による閉鎖,,,2015-10-05,1,,,,,,0
1162,4290001030484,登記記録の閉鎖等,0,2025-01-15,2025-01-15,株式会社瑞稀,,株式会社,福岡県,福岡市博多区,千代１丁目１６番９号,,40,132,8120044,,,2025-01-15,登記官による閉鎖,,,2015-10-05,1,,,,,,0
1163,4290001030575,登記記録の閉鎖等,0,2025-01-15,2025-01-15,株式会社鵜林,,株式会社,福岡県,福岡市西区,姪の浜２丁目７番１－１０１８号,,40,135,8190002,,,2025-01-15,登記官による閉鎖,,,2015-10-05,1,,,,,,0
1164,4290001032803,登記記録の閉鎖等,0,2025-01-15,2025-01-15,株式会社ＸＳＥＧ,,株式会社,福岡県,福岡市早良区,百道浜１丁目３番１４号ネクサスシーサイド百道４－１０１号室,,40,137,8140001,,,2025-01-15,登記官による閉鎖,,,2015-10-05,1,,,,,,0
1165,4290001034270,登記記録の閉鎖等,0,2025-01-15,2025-01-15,株式会社西日本新聞エリアセンター樋井川,,株式会社,福岡県,福岡市城南区,樋井川７丁目１番１号,,40,136,8140153,,,2025-01-15,登記官による閉鎖,,,2015-10-05,1,,,,,,0
1166,4290001037934,登記記録の閉鎖等,0,2025-01-15,2025-01-15,株式会社イースト,,株式会社,福岡県,福岡市東区,青葉７丁目６１番１８号,,40,131,8130025,,,2025-01-15,登記官による閉鎖,,,2015-10-05,1,,,,,,0
1167,4290001038107,登記記録の閉鎖等,0,2025-01-15,2025-01-15,株式会社池辺石油,,株式会社,福岡県,糟屋郡志免町,志免東２丁目８番１０号,,40,343,8112243,,,2025-01-15,登記官による閉鎖,,,2015-10-05,1,,,,,,0
1168,4290001061901,登記記録の閉鎖等,0,2025-01-15,2025-01-15,株式会社スイスユニオン,,株式会社,福岡県,福岡市中央区,今川２丁目６番３４号,,40,133,8100054,,,2025-01-15,登記官による閉鎖,,,2015-10-05,1,,,,,,0
1174,4290002007795,登記記録の閉鎖等,0,2025-01-15,2025-01-15,有限会社大部設計事務所,,有限会社,福岡県,福岡市早良区,西新７丁目９番１７号,,40,137,8140002,,,2025-01-15,登記官による閉鎖,,,2015-10-05,1,,,,,,0
1175,4290002008240,登記記録の閉鎖等,0,2025-01-15,2025-01-15,有限会社商工業振興協会,,有限会社,福岡県,福岡市城南区,荒江１丁目２番１号,,40,136,8140101,,,2025-01-15,登記官による閉鎖,,,2015-10-05,1,,,,,,0
1176,4290002026366,登記記録の閉鎖等,0,2025-01-15,2025-01-15,有限会社真栄住宅,,有限会社,福岡県,福岡市早良区,小田部３丁目２番２４号,,40,137,8140032,,,2025-01-15,登記官による閉鎖,,,2015-10-05,1,,,,,,0
1178,4290002030822,登記記録の閉鎖等,0,2025-01-15,2025-01-15,有限会社筑紫建設,,有限会社,福岡県,福岡市南区,大橋２丁目２２番２０号,,40,134,8150033,,,2025-01-15,登記官による閉鎖,,,2015-10-05,1,,,,,,0
1179,4290002031705,登記記録の閉鎖等,0,2025-01-15,2025-01-15,有限会社ユニバーサルコーポレーション,,有限会社,福岡県,福岡市早良区,重留４丁目３番４５号,,40,137,8111101,,,2025-01-15,登記官による閉鎖,,,2015-10-05,1,,,,,,0
1180,4290002046067,登記記録の閉鎖等,0,2025-01-15,2025-01-15,有限会社ヤマカ工業,,有限会社,福岡県,飯塚市,相田４４５番地の１,,40,205,8200052,,,2025-01-15,登記官による閉鎖,,,2015-10-05,1,,,,,,0
1181,4290002053303,登記記録の閉鎖等,0,2025-01-15,2025-01-15,有限会社古賀ハウジング,,有限会社,福岡県,柳川市,古賀２番地２,,40,207,8320082,,,2025-01-15,登記官による閉鎖,,,2015-10-05,1,,,,,,0
1182,4290002054846,登記記録の閉鎖等,0,2025-01-15,2025-01-15,有限会社アミ商事,,有限会社,福岡県,大牟田市,浜町７番地の２１,,40,202,8360021,,,2025-01-15,登記官による閉鎖,,,2015-10-05,1,,,,,,0
1183,4290002057097,登記記録の閉鎖等,0,2025-01-15,2025-01-15,丸喜有限会社,00102134,有限会社,福岡県,久留米市,築島新町４番地,,40,203,8390000,,,2025-01-15,登記官による閉鎖,,,2015-10-05,1,,,,,,0
1184,4290002057106,登記記録の閉鎖等,0,2025-01-15,2025-01-15,有限会社筑後御井青果市場,,有限会社,福岡県,久留米市,（福岡県三井郡合川村合川１１０番地の３）,,40,203,8390000,,,2025-01-15,登記官による閉鎖,,,2015-10-05,1,,,,,,1
1185,4290002057114,登記記録の閉鎖等,0,2025-01-15,2025-01-15,有限会社井本燃料,,有限会社,福岡県,久留米市,東町４８７番地,,40,203,8300032,,,2025-01-15,登記官による閉鎖,,,2015-10-05,1,,,,,,0
1186,4290002057122,登記記録の閉鎖等,0,2025-01-15,2025-01-15,有限会社許斐商店,,有限会社,福岡県,八女市,本村４２５番地の９７,,40,210,8340063,,,2025-01-15,登記官による閉鎖,,,2015-10-05,1,,,,,,0
1187,4290003015244,登記記録の閉鎖等,0,2025-01-15,2024-12-23,合同会社うえの,,合同会社,福岡県,福岡市中央区,警固１丁目１番１７号,,40,133,8100023,,,2024-12-23,清算の結了等,,,2024-05-13,1,,,,,ウエノ,0
1188,4290005011076,登記記録の閉鎖等,0,2025-01-15,2025-01-15,ＮＰＯ法人無農薬たたみ普及促進協会,,その他の設立登記法人,福岡県,糟屋郡粕屋町,大字柚須６６番地１シティライフ箱崎１５－４０７,,40,349,8112305,,,2025-01-15,登記官による閉鎖,,,2015-10-05,1,,,,,,0
1189,4290801010578,登記記録の閉鎖等,0,2025-01-15,2025-01-15,株式会社バイソンジャパン,,株式会社,福岡県,北九州市八幡西区,馬場山８番１５号,,40,109,8071136,,,2025-01-15,登記官による閉鎖,,,2015-10-05,1,,,,,,0
1190,4290801025279,登記記録の閉鎖等,0,2025-01-15,2025-01-15,鞍手軌道株式会社,,株式会社,福岡県,直方市,大字山部１９７番地,,40,204,8220034,,,2025-01-15,登記官による閉鎖,,,2019-02-25,1,,,,,,0
1193,4290802000660,登記記録の閉鎖等,0,2025-01-15,2025-01-15,有限会社イビクリーニング店,,有限会社,福岡県,北九州市小倉南区,湯川３丁目５番１２号,,40,107,8000257,,,2025-01-15,登記官による閉鎖,,,2015-10-05,1,,,,,,0
1194,4290802021079,登記記録の閉鎖等,0,2025-01-15,2025-01-15,有限会社文山土建,,有限会社,福岡県,宮若市,本城２５２番地,,40,226,8230003,,,2025-01-15,登記官による閉鎖,,,2015-10-05,1,,,,,,0
1195,4290802021252,登記記録の閉鎖等,0,2025-01-15,2025-01-15,有限会社エムズ,,有限会社,福岡県,直方市,殿町１６番１９号,,40,204,8220017,,,2025-01-15,登記官による閉鎖,,,2015-10-05,1,,,,,,0
1196,4290802022309,登記記録の閉鎖等,0,2025-01-15,2025-01-15,清水工業有限会社,,有限会社,福岡県,行橋市,北泉２丁目２０番１１号,,40,213,8240033,,,2025-01-15,登記官による閉鎖,,,2015-10-05,1,,,,,,0
1197,4290805000559,登記記録の閉鎖等,0,2025-01-15,2025-01-15,医療法人めぐみ会ふじおか歯科医院,,その他の設立登記法人,福岡県,北九州市小倉北区,熊谷４丁目４番１３号,,40,106,8030864,,,2025-01-15,登記官による閉鎖,,,2015-10-05,1,,,,,,0
1208,4370001007895,登記記録の閉鎖等,0,2025-01-15,2025-01-06,ケイ・エイチ・ビー開発株式会社,,株式会社,宮城県,仙台市太白区,あすと長町１丁目３番１５号,,04,104,9820007,,,2025-01-06,合併による解散等,1370001011371,令和７年１月１日仙台市太白区あすと長町一丁目３番１５号株式会社東北朝日プロダクション（1370001011371）に合併し解散,2015-10-05,1,,,,,ケイエイチビーカイハツ,0
1223,4400003000639,登記記録の閉鎖等,0,2025-01-15,2024-12-26,合資会社昆産業,,合資会社,岩手県,北上市,堤ケ丘２丁目１番６４号,,03,206,0240011,,,2024-12-26,清算の結了等,,,2015-10-05,1,,,,,コンサンギョウ,0
1229,4430001038612,登記記録の閉鎖等,0,2025-01-15,2025-01-06,株式会社サプライズ,,株式会社,北海道,札幌市東区,北二十五条東１４丁目３番８号,,01,103,0650025,,,2025-01-06,合併による解散等,3430001003311,令和７年１月１日札幌市東区北二十五条東十四丁目３番８号株式会社音の岩泉（3430001003311）に合併し解散,2015-10-05,1,,,,,サプライズ,0
1239,4440003000783,登記記録の閉鎖等,0,2025-01-15,2025-01-09,合同会社富田写真工房,,合同会社,北海道,函館市,榎本町２１番１７号,,01,202,0420931,,,2025-01-09,清算の結了等,,,2015-10-05,1,,,,,トミタシャシンコウボウ,0
1243,4500001016932,登記記録の閉鎖等,0,2025-01-15,2025-01-10,株式会社サット,,株式会社,愛媛県,八幡浜市,浜之町１９１番地,,38,204,7960068,,,2025-01-10,清算の結了等,,,2015-10-05,1,,,,,サット,0
1256,5010001218643,登記記録の閉鎖等,0,2025-01-15,2025-01-08,コーウェイ・ジャパン株式会社,,株式会社,埼玉県,さいたま市大宮区,桜木町４丁目４６３番地,,11,103,3300854,,,2025-01-08,清算の結了等,,,2021-06-08,1,,,,,コーウェイジャパン,0
1259,5010002002690,登記記録の閉鎖等,0,2025-01-15,2025-01-08,有限会社サトウ商事,,有限会社,埼玉県,さいたま市岩槻区,古ケ場２丁目１番１４号,,11,110,3390072,,,2025-01-08,清算の結了等,,,2015-10-05,1,,,,,サトウショウジ,0
1272,5010401116570,登記記録の閉鎖等,0,2025-01-15,2024-12-25,株式会社タイナビ電力,,株式会社,東京都,品川区,西五反田７丁目１３番５号ＤＫ五反田ビル８階,,13,109,1410031,,,2024-12-25,合併による解散等,7010701025783,令和６年１２月２５日東京都品川区西五反田七丁目１３番５号ＤＫ五反田ビル８階株式会社グッドフェローズ（7010701025783）に合併し解散,2015-10-05,1,,,,,タイナビデンリョク,0
1273,5010401173389,登記記録の閉鎖等,0,2025-01-15,2024-12-20,株式会社ＡＭＵＳＥＰＡＲＣ,,株式会社,東京都,港区,赤坂２丁目１７番７号赤坂溜池タワー９階,,13,103,1070052,,,2024-12-20,清算の結了等,,,2023-03-31,1,,,,,アミューズパーク,0
1280,5010602033441,登記記録の閉鎖等,0,2025-01-15,2025-01-08,有限会社アーク保険ネット,,有限会社,東京都,墨田区,両国２丁目２１番５号,,13,107,1300026,,,2025-01-08,清算の結了等,,,2015-10-05,1,,,,,,0
1284,5010903004521,登記記録の閉鎖等,0,2025-01-15,2024-12-27,合同会社コアブレインパワーズオフィス,,合同会社,東京都,世田谷区,等々力１丁目１６番１３号,,13,112,1580082,,,2024-12-27,清算の結了等,,,2018-09-05,1,,,,,コアブレインパワーズオフィス,0
1325,5020001070993,登記記録の閉鎖等,0,2025-01-15,2025-01-06,昭和運輸株式会社,,株式会社,神奈川県,川崎市川崎区,田町３丁目９番１号,,14,131,2100822,,,2025-01-06,合併による解散等,6020001079720,令和７年１月１日川崎市川崎区田町三丁目９番１号株式会社ハンディーズ（6020001079720）に合併し解散,2015-10-05,1,,,,,ショウワウンユ,0
1349,5040003024657,登記記録の閉鎖等,0,2025-01-15,2025-01-06,合同会社高田,,合同会社,千葉県,柏市,塚崎８０６－４,,12,217,2770923,,,2025-01-06,清算の結了等,,,2024-03-29,1,,,,,タカタ,0
1353,5060002039869,登記記録の閉鎖等,0,2025-01-15,2025-01-07,有限会社武井産業,,有限会社,栃木県,佐野市,吉水町１１８０番地５,,09,204,3270313,,,2025-01-07,清算の結了等,,,2015-10-05,1,,,,,タケイサンギョウ,0
1361,5080105001443,登記記録の閉鎖等,0,2025-01-15,2025-01-06,御殿場ハウス管理組合法人,,その他の設立登記法人,静岡県,御殿場市,東田中字石原坂３３６２番地の１御殿場ハウス管理事務室内,,22,215,4120026,,,2025-01-06,清算の結了等,,,2015-10-05,1,,,,,ゴテンバハウス,0
1365,5100005004304,登記記録の閉鎖等,0,2025-01-15,2025-01-10,医療法人堀こどもクリニック,,その他の設立登記法人,長野県,上田市,中之条８００番地５,,20,203,3860034,,,2025-01-10,清算の結了等,,,2015-10-05,1,,,,,ホリコドモクリニック,0
1366,5110001020361,登記記録の閉鎖等,0,2025-01-15,2025-01-08,スノーランド観光株式会社,,株式会社,新潟県,妙高市,朝日町１丁目１０番３号,,15,217,9440043,,,2025-01-08,清算の結了等,,,2015-10-05,1,,,,,スノーランドカンコウ,0
1367,5110002018834,登記記録の閉鎖等,0,2025-01-15,2025-01-08,有限会社アイバコンビニエンス,,有限会社,新潟県,燕市,東太田２８５０番地２,,15,213,9591289,,,2025-01-08,清算の結了等,,,2015-10-05,1,,,,,アイバコンビニエンス,0
1368,5110003004214,登記記録の閉鎖等,0,2025-01-15,2025-01-07,合同会社タークス,,合同会社,新潟県,南魚沼市,滝谷１２９８番地,,15,226,9496555,,,2025-01-07,清算の結了等,,,2020-07-10,1,,,,,タークス,0
1399,5120901040912,登記記録の閉鎖等,0,2025-01-15,2025-01-06,株式会社スリール,,株式会社,大阪府,豊中市,蛍池東町四丁目７番１３号５Ｆ,,27,203,5600000,,,2025-01-06,清算の結了等,,,2019-02-06,1,,,,,スリール,0
1407,5130001053566,登記記録の閉鎖等,0,2025-01-15,2025-01-14,株式会社エイチセキュリティサービス,,株式会社,京都府,京都市南区,西九条蔵王町６２番地,,26,107,6018414,,,2025-01-14,清算の結了等,,,2015-10-05,1,,,,,エイチセキュリティサービス,0
1422,5140002064058,登記記録の閉鎖等,0,2025-01-15,2025-01-08,有限会社三浦電気工事,,有限会社,兵庫県,伊丹市,堀池５丁目２番１号,,28,207,6640871,,,2025-01-08,清算の結了等,,,2015-10-05,1,,,,,ミウラデンキコウジ,0
1423,5140003014730,登記記録の閉鎖等,0,2025-01-15,2025-01-07,合同会社モバド,,合同会社,兵庫県,西宮市,高松町３－３－５０３,,28,204,6638204,,,2025-01-07,清算の結了等,,,2020-02-20,1,,,,,モバド,0
1437,5180001147990,登記記録の閉鎖等,0,2025-01-15,2024-12-25,株式会社ＫＯＭＡキッズ鈴鹿,,株式会社,三重県,鈴鹿市,北江島町３２番２０号,,24,207,5100232,,,2024-12-25,合併による解散等,7190001024279,令和６年１２月２５日三重県津市栗真中山町１０１番地１株式会社ＴＵＲＮＩＮＧ　ＰＯＩＮＴ（7190001024279）に合併し解散,2021-10-01,1,,,,,コマキッズ,0
1444,5200001011723,登記記録の閉鎖等,0,2025-01-15,2025-01-09,株式会社三ツ羽商店,,株式会社,岐阜県,羽島郡笠松町,春日町２９番地,,21,303,5016082,,,2025-01-09,清算の結了等,,,2015-10-05,1,,,,,ミツバショウテン,0
1445,5200001016177,登記記録の閉鎖等,0,2025-01-15,2025-01-08,池田物産株式会社,,株式会社,岐阜県,揖斐郡池田町,池野２６８番地の５,,21,404,5032424,,,2025-01-08,清算の結了等,,,2015-10-05,1,,,,,イケダブッサン,0
1446,5200001017084,登記記録の閉鎖等,0,2025-01-15,2025-01-14,小川機工株式会社,,株式会社,岐阜県,美濃加茂市,蜂屋町下蜂屋７５９番地の４,,21,211,5050007,,,2025-01-14,清算の結了等,,,2015-10-05,1,,,,,オガワキコウ,0
1447,5200002019088,登記記録の閉鎖等,0,2025-01-15,2025-01-09,有限会社富士鍍金工業所,,有限会社,岐阜県,関市,寿町１丁目２番１５号,,21,205,5013908,,,2025-01-09,清算の結了等,,,2015-10-05,1,,,,,フジメッキコウギョウショ,0
1451,5250002009893,登記記録の閉鎖等,0,2025-01-15,2025-01-06,有限会社Ｃｅｌｅｓｔｉａｌｅ,,有限会社,山口県,下関市,長府扇町９番５０号,,35,201,7520927,,,2025-01-06,合併による解散等,6250001005612,令和７年１月１日山口県下関市長府扇町９番５０号株式会社瞬報社（6250001005612）に合併し解散,2015-10-05,1,,,,,チェレスティアーレ,0
1454,5260001019975,登記記録の閉鎖等,0,2025-01-15,2025-01-06,株式会社津山給食センター,,株式会社,岡山県,津山市,津山口２９１番地の２,,33,203,7080884,,,2025-01-06,清算の結了等,,,2015-10-05,1,,,,,ツヤマキュウショクセンター,0
1460,5290001006120,登記記録の閉鎖等,0,2025-01-15,2025-01-15,株式会社アントレー,,株式会社,福岡県,福岡市中央区,天神３丁目３番１号,,40,133,8100001,,,2025-01-15,登記官による閉鎖,,,2015-10-05,1,,,,,,0
1461,5290001008414,登記記録の閉鎖等,0,2025-01-15,2024-12-18,株式会社ソロン,,株式会社,福岡県,福岡市博多区,博多駅前３丁目３０番２９号,,40,132,8120011,,,2024-12-18,清算の結了等,,,2015-10-05,1,,,,,,0
1462,5290001012861,登記記録の閉鎖等,0,2025-01-15,2025-01-15,株式会社グレイス,,株式会社,福岡県,福岡市中央区,天神１丁目９番１７号,,40,133,8100001,,,2025-01-15,登記官による閉鎖,,,2015-10-05,1,,,,,,0
1463,5290001029625,登記記録の閉鎖等,0,2025-01-15,2025-01-15,株式会社クリエイティブ・アス,,株式会社,福岡県,福岡市中央区,大名２丁目９番３５号,,40,133,8100041,,,2025-01-15,登記官による閉鎖,,,2015-10-05,1,,,,,,0
1464,5290001035301,登記記録の閉鎖等,0,2025-01-15,2025-01-15,株式会社リードコンサルティング,,株式会社,福岡県,福岡市中央区,白金１丁目１番１６－３０３号,,40,133,8100012,,,2025-01-15,登記官による閉鎖,,,2015-10-05,1,,,,,,0
1465,5290001045374,登記記録の閉鎖等,0,2025-01-15,2025-01-15,ウイングジャパン株式会社,,株式会社,福岡県,飯塚市,柳橋字大塚台７４６番地の２,,40,205,8200063,,,2025-01-15,登記官による閉鎖,,,2015-10-05,1,,,,,,0
1466,5290001046281,登記記録の閉鎖等,0,2025-01-15,2025-01-15,福岡経算センター株式会社,,株式会社,福岡県,嘉麻市,山野２１７４番地１５,,40,227,8200202,,,2025-01-15,登記官による閉鎖,,,2015-10-05,1,,,,,,0
1468,5290001055407,登記記録の閉鎖等,0,2025-01-15,2025-01-15,株式会社パートナー来夢,,株式会社,福岡県,糟屋郡宇美町,大字宇美桐ヶ坂２７４９番地の１３２,,40,341,8112101,,,2025-01-15,登記官による閉鎖,,,2015-10-05,1,,,,,,0
1469,5290001055522,登記記録の閉鎖等,0,2025-01-15,2025-01-15,ゴールデンリーフ株式会社,,株式会社,福岡県,久留米市,御井町４５３番地４,,40,203,8390851,,,2025-01-15,登記官による閉鎖,,,2015-10-05,1,,,,,,0
1470,5290001056933,登記記録の閉鎖等,0,2025-01-15,2025-01-15,株式会社ジップ,,株式会社,福岡県,福岡市中央区,舞鶴１丁目９番３号朝日プラザ４０９号,,40,133,8100073,,,2025-01-15,登記官による閉鎖,,,2015-10-05,1,,,,,,0
1471,5290001058806,登記記録の閉鎖等,0,2025-01-15,2025-01-15,株式会社ホープニティ,,株式会社,福岡県,福岡市中央区,大名１丁目１２－６６ＢＭナカムラビル４Ｆ,,40,133,8100041,,,2025-01-15,登記官による閉鎖,,,2015-10-05,1,,,,,,0
1472,5290001064382,登記記録の閉鎖等,0,2025-01-15,2025-01-15,株式会社Ｔ＆Ｍ,,株式会社,福岡県,福岡市博多区,博多駅南３丁目１５番３０号,,40,132,8120016,,,2025-01-15,登記官による閉鎖,,,2015-10-05,1,,,,,,0
1473,5290001065406,登記記録の閉鎖等,0,2025-01-15,2025-01-15,大黒商事相互株式会社,,株式会社,福岡県,大牟田市,本町３丁目１７番地の１,,40,202,8360046,,,2025-01-15,登記官による閉鎖,,,2015-10-05,1,,,,,,0
1483,5290001097003,登記記録の閉鎖等,0,2025-01-15,2024-12-23,株式会社Ｐｒｏｂｉｔｙ,,株式会社,福岡県,福岡市早良区,重留５丁目７番５－２号,,40,137,8111101,,,2024-12-23,清算の結了等,,,2022-04-19,1,,,,,プロビティ,0
1485,5290002000254,登記記録の閉鎖等,0,2025-01-15,2025-01-15,エル・ティ企画有限会社,,有限会社,福岡県,福岡市西区,福重団地６番１５０１号,,40,135,8190023,,,2025-01-15,登記官による閉鎖,,,2015-10-05,1,,,,,,0
1486,5290002001491,登記記録の閉鎖等,0,2025-01-15,2025-01-15,有限会社ウラナカ電器,,有限会社,福岡県,福岡市早良区,野芥７丁目６番２号,,40,137,8140171,,,2025-01-15,登記官による閉鎖,,,2015-10-05,1,,,,,,0
1487,5290002003372,登記記録の閉鎖等,0,2025-01-15,2025-01-15,有限会社福岡プレタ,,有限会社,福岡県,福岡市南区,寺塚１丁目１０番８号,,40,134,8150074,,,2025-01-15,登記官による閉鎖,,,2015-10-05,1,,,,,,0
1488,5290002019690,登記記録の閉鎖等,0,2025-01-15,2025-01-15,有限会社松尾商会,,有限会社,福岡県,福岡市西区,野方５丁目２９番３号,,40,135,8190043,,,2025-01-15,登記官による閉鎖,,,2015-10-05,1,,,,,,0
1489,5290002030169,登記記録の閉鎖等,0,2025-01-15,2025-01-15,有限会社インフォアピオ,,有限会社,福岡県,福岡市南区,高宮４丁目１７－２７グランドメゾン高宮四丁目２０１号,,40,134,8150083,,,2025-01-15,登記官による閉鎖,,,2015-10-05,1,,,,,,0
1490,5290002033931,登記記録の閉鎖等,0,2025-01-15,2025-01-15,松谷電気有限会社,,有限会社,福岡県,古賀市,新久保２丁目１３番１号,,40,223,8113118,,,2025-01-15,登記官による閉鎖,,,2015-10-05,1,,,,,,0
1491,5290002034269,登記記録の閉鎖等,0,2025-01-15,2025-01-15,有限会社オートピアナカノ,,有限会社,福岡県,糟屋郡新宮町,大字三代６６０番地,,40,345,8110111,,,2025-01-15,登記官による閉鎖,,,2015-10-05,1,,,,,,0
1492,5290002036389,登記記録の閉鎖等,0,2025-01-15,2025-01-15,有限会社サンワ代行,,有限会社,福岡県,糟屋郡志免町,田富４丁目１７番１１号,,40,343,8112204,,,2025-01-15,登記官による閉鎖,,,2015-10-05,1,,,,,,0
1493,5290002048186,登記記録の閉鎖等,0,2025-01-15,2025-01-15,有限会社河島自動車,,有限会社,福岡県,筑後市,大字蔵数６４６番地７,,40,211,8330054,,,2025-01-15,登記官による閉鎖,,,2015-10-05,1,,,,,,0
1494,5290002050415,登記記録の閉鎖等,0,2025-01-15,2025-01-15,中園化工有限会社,,有限会社,福岡県,久留米市,三潴町玉満３８６３番地の３,,40,203,8300112,,,2025-01-15,登記官による閉鎖,,,2015-10-05,1,,,,,,0
1495,5290002055488,登記記録の閉鎖等,0,2025-01-15,2025-01-15,有限会社月田釣餌商会,00093622,有限会社,福岡県,大牟田市,三川町５丁目５３番地,,40,202,8360065,,,2025-01-15,登記官による閉鎖,,,2015-10-05,1,,,,,ツキタツリエサショウカイ,0
1496,5290002057088,登記記録の閉鎖等,0,2025-01-15,2025-01-15,大牟田被服工業有限会社,,有限会社,福岡県,大牟田市,一浦町８４番地の４,,40,202,8360863,,,2025-01-15,登記官による閉鎖,,,2015-10-05,1,,,,,,0
1497,5290002057096,登記記録の閉鎖等,0,2025-01-15,2025-01-15,有限会社丸万商店,,有限会社,福岡県,久留米市,西町１１９５番地,,40,203,8300038,,,2025-01-15,登記官による閉鎖,,,2015-10-05,1,,,,,,0
1498,5290002057105,登記記録の閉鎖等,0,2025-01-15,2025-01-15,津島工機有限会社,,有限会社,福岡県,久留米市,野中町１３０２番地の１,,40,203,8390862,,,2025-01-15,登記官による閉鎖,,,2015-10-05,1,,,,,,0
1499,5290002057113,登記記録の閉鎖等,0,2025-01-15,2025-01-15,有限会社九州金属工業所,,有限会社,福岡県,久留米市,通町９０番地,,40,203,8300018,,,2025-01-15,登記官による閉鎖,,,2015-10-05,1,,,,,,0
1500,5290002057121,登記記録の閉鎖等,0,2025-01-15,2025-01-15,河南自動車有限会社,,有限会社,福岡県,八女市,（福岡県八女郡光友村兼松２６９番地）,,40,210,8340000,,,2025-01-15,登記官による閉鎖,,,2015-10-05,1,,,,,,1
1501,5290003004386,登記記録の閉鎖等,0,2025-01-15,2025-01-15,合同会社白水,,合同会社,福岡県,福岡市南区,井尻４丁目３１番２１－５０６号,,40,134,8111302,,,2025-01-15,登記官による閉鎖,,,2015-10-05,1,,,,,,0
1503,5290005003997,登記記録の閉鎖等,0,2025-01-15,2025-01-15,特定非営利活動法人国際教育協力推進機構,,その他の設立登記法人,福岡県,福岡市東区,馬出４丁目５番１４－Ｃ２０１号,,40,131,8120054,,,2025-01-15,登記官による閉鎖,,,2015-10-05,1,,,,,,0
1504,5290005007759,登記記録の閉鎖等,0,2025-01-15,2025-01-15,一般社団法人ブラックアンツ,,その他の設立登記法人,福岡県,福岡市西区,野方６丁目２７番１－２０４号,,40,135,8190043,,,2025-01-15,登記官による閉鎖,,,2015-10-05,1,,,,,,0
1505,5290801001717,登記記録の閉鎖等,0,2025-01-15,2025-01-15,伸栄システムサービス株式会社,,株式会社,福岡県,北九州市小倉南区,徳力４丁目４番１２号,,40,107,8020974,,,2025-01-15,登記官による閉鎖,,,2015-10-05,1,,,,,,0
1506,5290801001898,登記記録の閉鎖等,0,2025-01-15,2025-01-15,シティ開発株式会社,,株式会社,福岡県,北九州市小倉南区,蜷田若園１丁目９番３４号,,40,107,8020814,,,2025-01-15,登記官による閉鎖,,,2015-10-05,1,,,,,シティカイハツ,0
1507,5290801019676,登記記録の閉鎖等,0,2025-01-15,2025-01-15,ＳＫクール株式会社,,株式会社,福岡県,遠賀郡水巻町,梅ノ木団地５９番１号,,40,382,8070006,,,2025-01-15,登記官による閉鎖,,,2015-10-05,1,,,,,,0
1509,5290802005171,登記記録の閉鎖等,0,2025-01-15,2025-01-15,有限会社バンカム,,有限会社,福岡県,北九州市小倉北区,馬借３丁目１番７－１０４号,,40,106,8020077,,,2025-01-15,登記官による閉鎖,,,2015-10-05,1,,,,,,0
1510,5290802012382,登記記録の閉鎖等,0,2025-01-15,2025-01-10,有限会社梅津設計工業,,有限会社,福岡県,北九州市八幡東区,中央２丁目２番１５号第一田中ビル２階,,40,108,8050019,,,2025-01-10,清算の結了等,,,2015-10-05,1,,,,,ウメツセッケイコウギョウ,0
1511,5290802021193,登記記録の閉鎖等,0,2025-01-15,2025-01-15,有限会社チキンショップ城戸,,有限会社,福岡県,宮若市,下１１３６番地,,40,226,8220122,,,2025-01-15,登記官による閉鎖,,,2015-10-05,1,,,,,,0
1512,5290802021219,登記記録の閉鎖等,0,2025-01-15,2025-01-15,有限会社若宮電設工業,,有限会社,福岡県,宮若市,金丸５４０番地の１,,40,226,8220111,,,2025-01-15,登記官による閉鎖,,,2015-10-05,1,,,,,,0
1513,5300001009170,登記記録の閉鎖等,0,2025-01-15,2025-01-07,株式会社ヒノデ,,株式会社,佐賀県,佐賀市,日の出１丁目５番２３号,,41,201,8490923,,,2025-01-07,合併による解散等,2300001000181,令和６年１２月３１日佐賀市鍋島町大字森田８３３番地１佐賀金属株式会社（2300001000181）に合併し解散,2015-10-05,1,,,,,ヒノデ,0
1535,5390001014674,登記記録の閉鎖等,0,2025-01-15,2025-01-07,株式会社福住,,株式会社,山形県,鶴岡市,湯野浜１丁目９番３１号,,06,203,9971201,,,2025-01-07,清算の結了等,,,2016-10-26,1,,,,,フクズミ,0
1546,5430003004116,登記記録の閉鎖等,0,2025-01-15,2025-01-08,合同会社和田,,合同会社,北海道,苫小牧市,桜木町２丁目３１番４２号,,01,213,0530832,,,2025-01-08,清算の結了等,,,2015-10-05,1,,,,,ワダ,0
1552,5460301004203,登記記録の閉鎖等,0,2025-01-15,2025-01-14,株式会社光信,,株式会社,北海道,網走市,鱒浦４丁目１番７号,,01,211,0993119,,,2025-01-14,清算の結了等,,,2015-10-05,1,,,,,,0
1559,5700150059942,登記記録の閉鎖等,0,2025-01-15,2024-09-30,鹿毛馬土地改良区,,その他,福岡県,飯塚市,鹿毛馬２３３３番地４飯塚市　頴田支所内,,40,205,8201112,,,2024-09-30,その他の清算の結了等,,,2015-10-09,1,,,,,カケノウマトチカイリヨウク,0
1560,5700150062013,登記記録の閉鎖等,0,2025-01-15,2024-09-30,皿山直売所利用組合,,その他,長崎県,北松浦郡佐々町,鴨川免１８９－１,,42,391,8570313,,,2024-09-30,その他の清算の結了等,,,2015-10-09,1,,,,,サラヤマチヨクバイシヨリヨウクミアイ,0
1561,5700150065544,登記記録の閉鎖等,0,2025-01-15,2023-03-31,出之山土地改良区,,その他,宮崎県,小林市,堤１０８－１,,45,205,8860003,,,2023-03-31,その他の清算の結了等,,,2015-10-09,1,,,,,イデノヤマトチカイリヨウク,0
1567,6010001173350,登記記録の閉鎖等,0,2025-01-15,2025-01-08,Ｌ．Ａ．Ｊｕｉｃｅ　Ｊａｐａｎ株式会社,,株式会社,新潟県,上越市,東本町４丁目３番３号,,15,222,9430825,,,2025-01-08,清算の結了等,,,2016-02-03,1,,,,,エルエージュースジャパン,0
1582,6010802002996,登記記録の閉鎖等,0,2025-01-15,2025-01-06,有限会社小笠精機製作所,,有限会社,東京都,大田区,西糀谷３丁目３番２号,,13,111,1440034,,,2025-01-06,清算の結了等,,,2015-10-05,1,,,,,オガサセイキセイサクショ,0
1585,6010901018695,登記記録の閉鎖等,0,2025-01-15,2025-01-10,プリンキピア株式会社,,株式会社,東京都,世田谷区,代沢３丁目１２番２４号,,13,112,1550032,,,2025-01-10,合併による解散等,5011301005806,令和６年９月２９日東京都杉並区高井戸東四丁目３番８号株式会社早美（5011301005806）に合併し解散,2015-10-05,1,,,,,プリンキピア,0
1609,6011501025719,登記記録の閉鎖等,0,2025-01-15,2025-01-07,株式会社ｆｒｏｎｔｉｅｒ,,株式会社,東京都,北区,中里３丁目１１番２号,,13,117,1140015,,,2025-01-07,清算の結了等,,,2020-04-07,1,,,,,フロンティア,0
1610,6011501030553,登記記録の閉鎖等,0,2025-01-15,2025-01-08,晨亜株式会社,,株式会社,東京都,北区,中里１丁目２１番２号中里ビル１Ｆ,,13,117,1140015,,,2025-01-08,清算の結了等,,,2024-04-19,1,,,,,シンア,0
1625,6020001111086,登記記録の閉鎖等,0,2025-01-15,2025-01-06,株式会社ブルーム,,株式会社,神奈川県,横浜市都筑区,中川中央１丁目８番１１号,,14,118,2240003,,,2025-01-06,合併による解散等,6011701011155,令和７年１月１日横浜市港北区新横浜三丁目６番地４千歳観光ビル３階株式会社ケアサポート安心堂（6011701011155）に合併し解散,2015-10-05,1,,,,,ブルーム,0
1634,6021002039580,登記記録の閉鎖等,0,2025-01-15,2025-01-14,有限会社ヒッズ,,有限会社,神奈川県,厚木市,温水西１丁目８番６号,,14,212,2430039,,,2025-01-14,清算の結了等,,,2015-10-05,1,,,,,ヒッズ,0
1648,6050001037873,登記記録の閉鎖等,0,2025-01-15,2025-01-06,株式会社Ｋダイニング,,株式会社,茨城県,筑西市,下岡崎２丁目１３番地３,,08,227,3080826,,,2025-01-06,清算の結了等,,,2015-10-05,1,,,,,ケーダイニング,0
1652,6060001023468,登記記録の閉鎖等,0,2025-01-15,2025-01-15,株式会社益子,,株式会社,福岡県,福岡市中央区,天神３丁目４番１号,,40,133,8100001,,,2025-01-15,登記官による閉鎖,,,2015-10-05,1,,,,,,0
1659,6070005010189,登記記録の閉鎖等,0,2025-01-15,2025-01-10,特定非営利活動法人ｆｌｅｕｒｉｒ,,その他の設立登記法人,群馬県,前橋市,元総社町６２番地３,,10,201,3710846,,,2025-01-10,清算の結了等,,,2023-11-08,1,,,,,フルリール,0
1660,6080001001876,登記記録の閉鎖等,0,2025-01-15,2025-01-07,ビジネス・ソリューション株式会社,,株式会社,静岡県,静岡市駿河区,南町２番２６－５０１号,,22,102,4228067,,,2025-01-07,清算の結了等,,,2015-10-05,1,,,,,ビジネスソリューション,0
1668,6120001138648,登記記録の閉鎖等,0,2025-01-15,2025-01-09,ｃｐ－ｓｐａｚｉｏ建築設計株式会社,,株式会社,大阪府,大阪市北区,大深町３番４０－３５１０号,,27,127,5300011,,,2025-01-09,清算の結了等,,,2015-10-05,1,,,,,シーピースパジオケンチクセッケイ,0
1689,6120901031506,登記記録の閉鎖等,0,2025-01-15,2025-01-06,株式会社ＡＣＲＯＳＳ,,株式会社,大阪府,茨木市,真砂１丁目１番３１号,,27,211,5670851,,,2025-01-06,清算の結了等,,,2015-10-05,1,,,,,アクロス,0
1693,6122003000637,登記記録の閉鎖等,0,2025-01-15,2024-12-12,合同会社めばえ,,合同会社,大阪府,八尾市,竹渕西３丁目１５９番地,,27,212,5810051,,,2024-12-12,清算の結了等,,,2015-10-05,1,,,,,メバエ,0
1722,6200002021745,登記記録の閉鎖等,0,2025-01-15,2025-01-09,有限会社山幸加藤製陶所,,有限会社,岐阜県,土岐市,土岐津町高山４４０番地の１,,21,212,5095121,,,2025-01-09,清算の結了等,,,2015-10-05,1,,,,,サンコウカトウセイトウショ,0
1734,6290001011805,登記記録の閉鎖等,0,2025-01-15,2025-01-15,株式会社英和工務店,,株式会社,福岡県,福岡市博多区,博多駅南５丁目２９番１５号,,40,132,8120016,,,2025-01-15,登記官による閉鎖,,,2015-10-05,1,,,,,,0
1736,6290001017736,登記記録の閉鎖等,0,2025-01-15,2025-01-15,株式会社都市圏即売,,株式会社,福岡県,糟屋郡志免町,桜丘１丁目１９番９号,,40,343,8112201,,,2025-01-15,登記官による閉鎖,,,2015-10-05,1,,,,,,0
1737,6290001021309,登記記録の閉鎖等,0,2025-01-15,2025-01-15,壱岐殖産株式会社,,株式会社,福岡県,福岡市西区,下山門４丁目１４番５３号,,40,135,8190052,,,2025-01-15,登記官による閉鎖,,,2015-10-05,1,,,,,イキショクサン,0
1738,6290001038286,登記記録の閉鎖等,0,2025-01-15,2025-01-15,株式会社サンアルファー,,株式会社,福岡県,糟屋郡粕屋町,大字内橋４６７番地１,,40,349,8112308,,,2025-01-15,登記官による閉鎖,,,2015-10-05,1,,,,,,0
1739,6290001040234,登記記録の閉鎖等,0,2025-01-15,2025-01-15,ティスハウス企画株式会社,,株式会社,福岡県,福岡市南区,柏原６丁目５８番３５号,,40,134,8111353,,,2025-01-15,登記官による閉鎖,,,2015-10-05,1,,,,,,0
1740,6290001045282,登記記録の閉鎖等,0,2025-01-15,2025-01-15,株式会社ヨコヤマ,,株式会社,福岡県,嘉穂郡桂川町,大字土師２８番地の４０２,,40,421,8200607,,,2025-01-15,登記官による閉鎖,,,2015-10-05,1,,,,,,0
1741,6290001059621,登記記録の閉鎖等,0,2025-01-15,2025-01-15,株式会社真和,,株式会社,福岡県,筑紫野市,大字原７１３番地５３,,40,217,8180005,,,2025-01-15,登記官による閉鎖,,,2015-10-05,1,,,,,,0
1742,6290001064778,登記記録の閉鎖等,0,2025-01-15,2025-01-15,株式会社アイソトープ,,株式会社,福岡県,福岡市中央区,春吉３丁目２５番１号,,40,133,8100003,,,2025-01-15,登記官による閉鎖,,,2015-10-05,1,,,,,,0
1743,6290001065405,登記記録の閉鎖等,0,2025-01-15,2025-01-15,株式会社嶋田組,,株式会社,福岡県,大牟田市,八本町６９番地,,40,202,8360816,,,2025-01-15,登記官による閉鎖,,,2015-10-05,1,,,,,,0
1744,6290001065504,登記記録の閉鎖等,0,2025-01-15,2025-01-15,筑南工業株式会社,,株式会社,福岡県,筑後市,（福岡県八女郡羽犬塚町大字山ノ井１３６番地の１）,,40,211,8330000,,,2025-01-15,登記官による閉鎖,,,2015-10-05,1,,,,,,1
1746,6290001087770,登記記録の閉鎖等,0,2025-01-15,2025-01-15,坂口酒造株式会社,,株式会社,福岡県,みやま市,高田町下楠田１２１３番地１,,40,229,8390221,,,2025-01-15,登記官による閉鎖,,,2020-01-23,1,,,,,サカグチシュゾウ,0
1749,6290002001887,登記記録の閉鎖等,0,2025-01-15,2025-01-15,有限会社共栄化成,,有限会社,福岡県,福岡市南区,長住２丁目６番２７号,,40,134,8111362,,,2025-01-15,登記官による閉鎖,,,2015-10-05,1,,,,,,0
1750,6290002015739,登記記録の閉鎖等,0,2025-01-15,2025-01-15,有限会社城島,,有限会社,福岡県,福岡市博多区,中洲２丁目１番５号,,40,132,8100801,,,2025-01-15,登記官による閉鎖,,,2015-10-05,1,,,,,,0
1751,6290002025572,登記記録の閉鎖等,0,2025-01-15,2025-01-15,有限会社成文社,,有限会社,福岡県,福岡市中央区,天神２丁目３番１０－４１８号,,40,133,8100001,,,2025-01-15,登記官による閉鎖,,,2015-10-05,1,,,,,,0
1752,6290002029961,登記記録の閉鎖等,0,2025-01-15,2025-01-15,有限会社奈多利庵,,有限会社,福岡県,福岡市東区,雁の巣２丁目２２番３０号,,40,131,8110206,,,2025-01-15,登記官による閉鎖,,,2015-10-05,1,,,,,,0
1753,6290002030952,登記記録の閉鎖等,0,2025-01-15,2025-01-15,有限会社ヤマウチ,,有限会社,福岡県,福岡市西区,小戸４丁目２８番３８号,,40,135,8190001,,,2025-01-15,登記官による閉鎖,,,2015-10-05,1,,,,,,0
1754,6290002033468,登記記録の閉鎖等,0,2025-01-15,2025-01-15,有限会社幸秀商事,,有限会社,福岡県,福岡市早良区,室見５丁目３番９号,,40,137,8140015,,,2025-01-15,登記官による閉鎖,,,2015-10-05,1,,,,,,0
1755,6290002036000,登記記録の閉鎖等,0,2025-01-15,2025-01-15,有限会社池田製作所,,有限会社,福岡県,糟屋郡須惠町,大字佐谷１７２番地の４,,40,344,8112115,,,2025-01-15,登記官による閉鎖,,,2015-10-05,1,,,,,,0
1756,6290002057087,登記記録の閉鎖等,0,2025-01-15,2025-01-15,大牟田漬物佃煮有限会社,,有限会社,福岡県,大牟田市,北濱田町７番地,,40,202,8360000,,,2025-01-15,登記官による閉鎖,,,2015-10-05,1,,,,,,0
1757,6290002057095,登記記録の閉鎖等,0,2025-01-15,2025-01-15,山弘商事有限会社,,有限会社,福岡県,久留米市,日吉町１４０番地,,40,203,8300017,,,2025-01-15,登記官による閉鎖,,,2015-10-05,1,,,,,,0
1758,6290002057104,登記記録の閉鎖等,0,2025-01-15,2025-01-15,有限会社寺岡ハカリの店,,有限会社,福岡県,久留米市,日吉町２２番地,,40,203,8300017,,,2025-01-15,登記官による閉鎖,,,2015-10-05,1,,,,,,0
1759,6290002057112,登記記録の閉鎖等,0,2025-01-15,2025-01-15,有限会社川島タイヤ工業所,,有限会社,福岡県,久留米市,東町１４９番地,,40,203,8300032,,,2025-01-15,登記官による閉鎖,,,2015-10-05,1,,,,,,0
1760,6290002057120,登記記録の閉鎖等,0,2025-01-15,2025-01-15,有限会社朝日産業,,有限会社,福岡県,八女市,（福岡県八女郡福島町本町２番地の７）,,40,210,8340000,,,2025-01-15,登記官による閉鎖,,,2015-10-05,1,,,,,,1
1761,6290005003641,登記記録の閉鎖等,0,2025-01-15,2025-01-15,特定非営利活動法人ピア福岡,,その他の設立登記法人,福岡県,福岡市南区,花畑２丁目２１番３３－５０６号,,40,134,8111356,,,2025-01-15,登記官による閉鎖,,,2015-10-05,1,,,,,,0
1762,6290005004326,登記記録の閉鎖等,0,2025-01-15,2025-01-15,特定非営利活動法人絆,,その他の設立登記法人,福岡県,福岡市中央区,天神３丁目９番１０号,,40,133,8100001,,,2025-01-15,登記官による閉鎖,,,2015-10-05,1,,,,,,0
1763,6290005007733,登記記録の閉鎖等,0,2025-01-15,2025-01-15,特定非営利活動法人コスモスじろ長どんたく隊,,その他の設立登記法人,福岡県,福岡市東区,原田４丁目１６番１号,,40,131,8120063,,,2025-01-15,登記官による閉鎖,,,2015-10-05,1,,,,,,0
1766,6290801005667,登記記録の閉鎖等,0,2025-01-15,2025-01-15,株式会社北州鐡工,,株式会社,福岡県,北九州市門司区,松原２丁目４番９号,,40,101,8000064,,,2025-01-15,登記官による閉鎖,,,2015-10-05,1,,,,,,0
1767,6290802006805,登記記録の閉鎖等,0,2025-01-15,2025-01-15,有限会社吉福産業,,有限会社,福岡県,北九州市小倉北区,真鶴１丁目８番１８号,,40,106,8030844,,,2025-01-15,登記官による閉鎖,,,2015-10-05,1,,,,,,0
1768,6290805003766,登記記録の閉鎖等,0,2025-01-15,2025-01-15,特定非営利活動法人藍島コミュニティ,,その他の設立登記法人,福岡県,北九州市小倉北区,大字藍島１７０番地６,,40,106,8020091,,,2025-01-15,登記官による閉鎖,,,2015-10-05,1,,,,,,0
1769,6290805008451,登記記録の閉鎖等,0,2025-01-15,2025-01-15,一般社団法人夢の樹園,,その他の設立登記法人,福岡県,北九州市小倉南区,上吉田３丁目１２番２５号,,40,107,8000201,,,2025-01-15,登記官による閉鎖,,,2015-10-05,1,,,,,,0
1777,6340001025386,登記記録の閉鎖等,0,2025-01-15,2025-01-09,株式会社アグリーンなんぐう,,株式会社,鹿児島県,肝属郡南大隅町,根占川北１７２９番地,,46,491,8932501,,,2025-01-09,清算の結了等,,,2023-02-21,1,,,,,アグリーンナングウ,0
1793,6410002004043,登記記録の閉鎖等,0,2025-01-15,2025-01-06,有限会社うかい電設,,有限会社,秋田県,秋田市,外旭川字三千刈３４番地１０,,05,201,0100802,,,2025-01-06,清算の結了等,,,2015-10-05,1,,,,,ウカイデンセツ,0
1799,6430002055555,登記記録の閉鎖等,0,2025-01-15,2025-01-07,有限会社山照,,有限会社,北海道,小樽市,錦町２１番９号,,01,203,0470039,,,2025-01-07,清算の結了等,,,2015-10-05,1,,,,,,0
1806,6700150009467,登記記録の閉鎖等,0,2025-01-15,2024-03-31,ニデックプレシジョン健康保険組合,,その他,東京都,板橋区,志村２丁目１８－１０,,13,119,1740056,,,2024-03-31,その他の清算の結了等,,,2015-10-09,1,,,,,ニデツクプレシジヨンケンコウホケンクミアイ,0
1810,7010001159662,登記記録の閉鎖等,0,2025-01-15,2024-12-27,株式会社善ｉｎｋ,,株式会社,東京都,台東区,東上野１丁目１４番１２号中央ビル,,13,106,1100015,,,2024-12-27,清算の結了等,,,2015-10-05,1,,,,,ゼンインク,0
1829,7010501024977,登記記録の閉鎖等,0,2025-01-15,2024-12-26,株式会社シンクテック,,株式会社,東京都,台東区,台東１丁目３８番９号,,13,106,1100016,,,2024-12-26,清算の結了等,,,2015-10-05,1,,,,,シンクテック,0
1832,7010502011033,登記記録の閉鎖等,0,2025-01-15,2025-01-06,三喜屋ビル管理有限会社,,有限会社,東京都,台東区,東上野１丁目２８番７号,,13,106,1100015,,,2025-01-06,清算の結了等,,,2015-10-05,1,,,,,ミキヤビルカンリ,0
1836,7010602023036,登記記録の閉鎖等,0,2025-01-15,2025-01-07,ユーインターナショナル有限会社,,有限会社,東京都,江東区,南砂２丁目３４番７号東陽町ガーデニアＤ１１０４,,13,108,1360076,,,2025-01-07,清算の結了等,,,2015-10-05,1,,,,,ユーインターナショナル,0
1840,7010703006600,登記記録の閉鎖等,0,2025-01-15,2025-01-07,国土建設ホールディングス合同会社,,合同会社,東京都,江東区,豊洲５丁目６番２９－１２３０号,,13,108,1350061,,,2025-01-07,清算の結了等,,,2023-02-24,1,,,,,コクドケンセツホールディングス,0
1854,7011101020326,登記記録の閉鎖等,0,2025-01-15,2024-12-27,株式会社マルテービルド,,株式会社,東京都,新宿区,四谷４丁目１番地大塚ビル,,13,104,1600004,,,2024-12-27,清算の結了等,,,2015-10-05,1,,,,,マルテービルド,0
1864,7011803004337,登記記録の閉鎖等,0,2025-01-15,2024-12-27,合同会社Ａｌｉｆ　Ｉｎｔｅｒｎａｔｉｏｎａｌ,,合同会社,東京都,葛飾区,宝町２丁目１２番９－１０１号,,13,122,1240005,,,2024-12-27,清算の結了等,,,2020-10-21,1,,,,,アリフインターナショナル,0
1868,7020001114303,登記記録の閉鎖等,0,2025-01-15,2025-01-06,株式会社杉孝メトログリーン,,株式会社,神奈川県,横浜市神奈川区,金港町１番地７,,14,102,2210056,,,2025-01-06,合併による解散等,4020001057348,令和７年１月１日横浜市神奈川区金港町１番地７株式会社杉孝（4020001057348）に合併し解散,2016-01-08,1,,,,,スギコウメトログリーン,0
1870,7020002050778,登記記録の閉鎖等,0,2025-01-15,2025-01-07,有限会社グツドウイルペインテイング,,有限会社,神奈川県,横浜市神奈川区,七島町１６２番地,,14,102,2210061,,,2025-01-07,清算の結了等,,,2015-10-05,1,,,,,グツドウイルペインテイング,0
1873,7020005013988,登記記録の閉鎖等,0,2025-01-15,2024-12-20,一般財団法人岩崎幸雄ＩＴ教育・研究振興奨学財団,,その他の設立登記法人,神奈川県,横浜市西区,北幸１丁目２番７号,,14,103,2200004,,,2024-12-20,合併による解散等,6020005012462,令和６年１２月２０日横浜市西区北幸一丁目２番７号一般財団法人岩崎ともみ奨学財団（6020005012462）に合併し解散,2018-12-25,1,,,,,イワサキユキオアイティーキョウイクケンキュウシンコウショウガクザイダン,0
1886,7030003020333,登記記録の閉鎖等,0,2025-01-15,2025-01-08,合同会社ＬＶＣ,,合同会社,埼玉県,鴻巣市,天神５丁目７番２３号,,11,217,3650036,,,2025-01-08,清算の結了等,,,2022-10-06,1,,,,,エルブイシー,0
1892,7040001119143,登記記録の閉鎖等,0,2025-01-15,2025-01-06,株式会社ｃｉｅｌ　ｗｉｔｈ,,株式会社,千葉県,市原市,国分寺台中央６丁目３番地２４,,12,219,2900073,,,2025-01-06,清算の結了等,,,2021-06-30,1,,,,,シエルウイズ,0
1935,7130001059504,登記記録の閉鎖等,0,2025-01-15,2025-01-10,株式会社家蔵,,株式会社,京都府,京都市中京区,柳馬場通三条下る槌屋町９１番地１,,26,104,6048112,,,2025-01-10,清算の結了等,,,2017-04-04,1,,,,,ヤルゾウ,0
1940,7140001034877,登記記録の閉鎖等,0,2025-01-15,2025-01-08,株式会社サンウインド,,株式会社,兵庫県,明石市,明南町２丁目５番２１号,,28,203,6730001,,,2025-01-08,清算の結了等,,,2015-10-05,1,,,,,サンウインド,0
1944,7140001084567,登記記録の閉鎖等,0,2025-01-15,2025-01-06,淡路タクシー株式会社,,株式会社,兵庫県,洲本市,宇山１丁目１番１５号,,28,205,6560012,,,2025-01-06,合併による解散等,2140001084547,令和７年１月１日兵庫県洲本市宇山一丁目４番３９号淡路交通株式会社（2140001084547）に合併し解散,2015-10-05,1,,,,,アワジタクシー,0
1945,7140001098583,登記記録の閉鎖等,0,2025-01-15,2025-01-08,ｅｍｋａ　ＴＥＣＨＮＯＬＯＧＩＥＳ株式会社,,株式会社,大阪府,大阪市淀川区,西中島３丁目１０番１２号サムティ西中島ビル４０１号室,,27,123,5320011,,,2025-01-08,清算の結了等,,,2015-10-05,1,,,,,エムカテクノロジーズ,0
1952,7140002055006,登記記録の閉鎖等,0,2025-01-15,2025-01-07,有限会社イー・エム・ディー,,有限会社,兵庫県,三田市,富士が丘６丁目５番地の１,,28,219,6691547,,,2025-01-07,清算の結了等,,,2015-10-05,1,,,,,イーエムディー,0
1969,7180005006241,登記記録の閉鎖等,0,2025-01-15,2025-01-08,税理士法人マネイジ,,その他の設立登記法人,愛知県,名古屋市西区,浅間２丁目５番１号,,23,104,4510035,,,2025-01-08,清算の結了等,,,2015-10-05,1,,,,,マネイジ,0
1977,7200005000225,登記記録の閉鎖等,0,2025-01-15,2024-12-24,愛宕神社,,その他の設立登記法人,岐阜県,岐阜市,加納天神町２丁目２８番地,,21,201,5008473,,,2024-12-24,合併による解散等,2200005000865,令和６年１２月２４日岐阜市加納天神町四丁目１番地加納天満宮（2200005000865）に合併し解散,2015-10-05,1,,,,,アタゴジンジャ,0
1987,7250002010197,登記記録の閉鎖等,0,2025-01-15,2025-01-10,有限会社中川工務店,,有限会社,山口県,下関市,彦島江の浦町９丁目５番２０号,,35,201,7500075,,,2025-01-10,清算の結了等,,,2015-10-05,1,,,,,ナカガワコウムテン,0
1990,7260001014231,登記記録の閉鎖等,0,2025-01-15,2025-01-06,中塚興業株式会社,,株式会社,岡山県,倉敷市,児島小川６丁目２番２６号,,33,202,7110911,,,2025-01-06,合併による解散等,4260001014234,令和７年１月１日岡山県倉敷市児島小川六丁目２番２６号中塚紡織株式会社（4260001014234）に合併し解散,2015-10-05,1,,,,,ナカツカコウギョウ,0
1992,7260001035839,登記記録の閉鎖等,0,2025-01-15,2025-01-06,株式会社Ｗａｋｕ２Ｋｉｔｃｈｅｎ,,株式会社,岡山県,新見市,哲多町宮河内１１１３番地１,,33,210,7180301,,,2025-01-06,合併による解散等,5260002027498,令和６年１２月３１日岡山県新見市哲多町宮河内１１１３番地１株式会社楓（5260002027498）に合併し解散,2021-08-04,1,,,,,ワクワクキッチン,0
1995,7290001000476,登記記録の閉鎖等,0,2025-01-15,2025-01-15,株式会社橋設計,,株式会社,福岡県,福岡市西区,姪の浜４丁目２２番１６号,,40,135,8190002,,,2025-01-15,登記官による閉鎖,,,2015-10-05,1,,,,,,0
1996,7290001003644,登記記録の閉鎖等,0,2025-01-15,2025-01-15,南條建設株式会社,,株式会社,福岡県,福岡市東区,多の津５丁目２０番１号,,40,131,8130034,,,2025-01-15,登記官による閉鎖,,,2015-10-05,1,,,,,,0
1997,7290001029383,登記記録の閉鎖等,0,2025-01-15,2025-01-15,エターナルプランニング株式会社,,株式会社,福岡県,福岡市博多区,那珂４丁目２６番２０－１０１号,,40,132,8120893,,,2025-01-15,登記官による閉鎖,,,2015-10-05,1,,,,,,0
1998,7290001037774,登記記録の閉鎖等,0,2025-01-15,2024-12-19,株式会社開発機構,,株式会社,福岡県,糟屋郡新宮町,下府７丁目１番１号,,40,345,8110112,,,2024-12-19,清算の結了等,,,2015-10-05,1,,,,,カイハツキコウ,0
2000,7290001053136,登記記録の閉鎖等,0,2025-01-15,2025-01-15,株式会社間家具店,,株式会社,福岡県,大川市,大字榎津６８３番地,,40,212,8310004,,,2025-01-15,登記官による閉鎖,,,2015-10-05,1,,,,,,0
2002,7290001062095,登記記録の閉鎖等,0,2025-01-15,2025-01-15,株式会社アイリス,,株式会社,福岡県,久留米市,原古賀町２７番地９,,40,203,8300046,,,2025-01-15,登記官による閉鎖,,,2015-10-05,1,,,,,,0
2003,7290001062855,登記記録の閉鎖等,0,2025-01-15,2025-01-15,株式会社ＮＡＲＣＩＳＳＥ,,株式会社,福岡県,福岡市中央区,舞鶴１丁目８番３９号,,40,133,8100073,,,2025-01-15,登記官による閉鎖,,,2015-10-05,1,,,,,,0
2004,7290001065461,登記記録の閉鎖等,0,2025-01-15,2025-01-15,株式会社本多運送,,株式会社,福岡県,大野城市,乙金東４丁目１４番１１号,,40,219,8160901,,,2025-01-15,登記官による閉鎖,,,2015-10-05,1,,,,,,0
2005,7290001065503,登記記録の閉鎖等,0,2025-01-15,2025-01-15,大和興業株式会社,,株式会社,福岡県,筑後市,（福岡県八女郡羽犬塚町山ノ井９５１番地の２）,,40,211,8330000,,,2025-01-15,登記官による閉鎖,,,2015-10-05,1,,,,,,1
2009,7290001100598,登記記録の閉鎖等,0,2025-01-15,2025-01-06,株式会社ＭＩＧＲＡ,,株式会社,熊本県,熊本市東区,御領５丁目２番１４号,,43,102,8618035,,,2025-01-06,清算の結了等,,,2023-02-17,1,,,,,マイグラ,0
2015,7290002002728,登記記録の閉鎖等,0,2025-01-15,2025-01-15,有限会社立石建築設計事務所,,有限会社,福岡県,福岡市南区,野多目１丁目８番１－２１８号,,40,134,8111347,,,2025-01-15,登記官による閉鎖,,,2015-10-05,1,,,,,,0
2016,7290002010086,登記記録の閉鎖等,0,2025-01-15,2025-01-15,有限会社岡村建設,,有限会社,福岡県,福岡市中央区,港１丁目４番１６号,,40,133,8100075,,,2025-01-15,登記官による閉鎖,,,2015-10-05,1,,,,,,0
2017,7290002014178,登記記録の閉鎖等,0,2025-01-15,2025-01-15,有限会社井上時計店,,有限会社,福岡県,福岡市博多区,中洲５丁目５番１０号,,40,132,8100801,,,2025-01-15,登記官による閉鎖,,,2015-10-05,1,,,,,,0
2018,7290002016810,登記記録の閉鎖等,0,2025-01-15,2025-01-15,有限会社野田商店,,有限会社,福岡県,福岡市博多区,半道橋１丁目１７番２８号,,40,132,8120897,,,2025-01-15,登記官による閉鎖,,,2015-10-05,1,,,,,,0
2019,7290002027618,登記記録の閉鎖等,0,2025-01-15,2025-01-15,有限会社エフ・ケイ企画,,有限会社,福岡県,福岡市博多区,堅粕３丁目５番地,,40,132,8120043,,,2025-01-15,登記官による閉鎖,,,2019-12-06,1,,,,,エフケイキカク,0
2021,7290002036305,登記記録の閉鎖等,0,2025-01-15,2025-01-15,有限会社久保吹付,,有限会社,福岡県,糟屋郡粕屋町,大字仲原１５６３番地の１,,40,349,8112304,,,2025-01-15,登記官による閉鎖,,,2015-10-05,1,,,,,,0
2022,7290002046106,登記記録の閉鎖等,0,2025-01-15,2025-01-15,有限会社吉田鮮魚店,,有限会社,福岡県,飯塚市,本町１６番３２号,,40,205,8200042,,,2025-01-15,登記官による閉鎖,,,2015-10-05,1,,,,,,0
2023,7290002057111,登記記録の閉鎖等,0,2025-01-15,2025-01-15,三五物産有限会社,,有限会社,福岡県,久留米市,通町２２３番地,,40,203,8300018,,,2025-01-15,登記官による閉鎖,,,2015-10-05,1,,,,,,0
2024,7290002057128,登記記録の閉鎖等,0,2025-01-15,2025-01-15,有限会社ラヂュム湯,,有限会社,福岡県,八女市,（福岡県八女郡福島町大字本町１番地の３４０）,,40,210,8340000,,,2025-01-15,登記官による閉鎖,,,2015-10-05,1,,,,,,1
2025,7290005005018,登記記録の閉鎖等,0,2025-01-15,2025-01-15,農事組合法人前原市畜産経営環境保全組合,,その他の設立登記法人,福岡県,糸島市,前原西１丁目１番１号,,40,230,8191117,,,2025-01-15,登記官による閉鎖,,,2015-10-05,1,,,,,マエバルシチクサンケイエイカンキョウホゼンクミアイ,0
2026,7290005013813,登記記録の閉鎖等,0,2025-01-15,2025-01-15,特定非営利活動法人福岡県生涯スポーツ協会,,その他の設立登記法人,福岡県,大野城市,乙金１丁目１０番地２５号Ｓｕｍｉｃａ乙金Ｍ２号室,,40,219,8160902,,,2025-01-15,登記官による閉鎖,,,2015-10-05,1,,,,,,0
2027,7290801002985,登記記録の閉鎖等,0,2025-01-15,2025-01-15,株式会社西日本ファミリー健康センター,,株式会社,福岡県,北九州市小倉北区,黄金２丁目９番３号山内興産第三ビル,,40,106,8020071,,,2025-01-15,登記官による閉鎖,,,2015-10-05,1,,,,,,0
2028,7290801014873,登記記録の閉鎖等,0,2025-01-15,2025-01-15,株式会社新興,,株式会社,福岡県,直方市,大字上新入１６７７番地２１,,40,204,8220033,,,2025-01-15,登記官による閉鎖,,,2015-10-05,1,,,,,,0
2029,7290801020392,登記記録の閉鎖等,0,2025-01-15,2025-01-15,株式会社和や家組,,株式会社,福岡県,京都郡みやこ町,田中４８７番地１,,40,625,8240107,,,2025-01-15,登記官による閉鎖,,,2015-10-05,1,,,,,,0
2031,7290802004262,登記記録の閉鎖等,0,2025-01-15,2025-01-15,有限会社天祐,,有限会社,福岡県,北九州市小倉北区,香春口２丁目１番２１号,,40,106,8020084,,,2025-01-15,登記官による閉鎖,,,2015-10-05,1,,,,,,0
2032,7290802005194,登記記録の閉鎖等,0,2025-01-15,2025-01-15,有限会社バーデンハウス,,有限会社,福岡県,北九州市小倉北区,霧ケ丘３丁目１８番３号,,40,106,8020052,,,2025-01-15,登記官による閉鎖,,,2015-10-05,1,,,,,,0
2033,7290802022198,登記記録の閉鎖等,0,2025-01-15,2025-01-15,北九州機工有限会社,,有限会社,福岡県,行橋市,大字下津熊１１２０番地,,40,213,8240062,,,2025-01-15,登記官による閉鎖,,,2015-10-05,1,,,,,,0
2041,7330001027564,登記記録の閉鎖等,0,2025-01-15,2025-01-06,株式会社ＯＨ．ＨＡＫＯ,,株式会社,熊本県,熊本市中央区,南熊本４丁目４番２号,,43,101,8600812,,,2025-01-06,清算の結了等,,,2020-06-18,1,,,,,オハコ,0
2051,7380001022346,登記記録の閉鎖等,0,2025-01-15,2024-12-26,株式会社シタラ塗装,,株式会社,福島県,いわき市,小名浜字元分１番地の２４,,07,204,9718101,,,2024-12-26,清算の結了等,,,2015-10-05,1,,,,,シタラトソウ,0
2055,7380002026107,登記記録の閉鎖等,0,2025-01-15,2024-12-27,丸大星水産食品工業有限会社,,有限会社,福島県,いわき市,平沼ノ内字浜街７８番地,,07,204,9700222,,,2024-12-27,清算の結了等,,,2015-10-05,1,,,,,マルダイボシスイサンショクヒンコウギョウ,0
2060,7430001055258,登記記録の閉鎖等,0,2025-01-15,2025-01-06,株式会社静内薬局,,株式会社,北海道,日高郡新ひだか町,静内吉野町１丁目１番８号,,01,610,0560018,,,2025-01-06,合併による解散等,6030001066965,令和６年１２月１日埼玉県北葛飾郡松伏町築比地７９５番地１株式会社ウィーズ（6030001066965）に合併し解散,2015-10-05,1,,,,,シズナイヤッキョク,0
2064,7460101004491,登記記録の閉鎖等,0,2025-01-15,2025-01-09,株式会社北海道コラボ,,株式会社,北海道,帯広市,西十八条北１丁目１４番地５,,01,207,0800048,,,2025-01-09,清算の結了等,,,2015-10-05,1,,,,,ホッカイドウコラボ,0
2073,8010001153697,登記記録の閉鎖等,0,2025-01-15,2025-01-10,株式会社ヴィジョン＆タレント,,株式会社,神奈川県,鎌倉市,笛田５丁目１５番８号,,14,204,2480027,,,2025-01-10,清算の結了等,,,2015-10-05,1,,,,,ヴィジョンアンドアンドタレント,0
2087,8010501040701,登記記録の閉鎖等,0,2025-01-15,2024-12-10,Ｅｎｗｉｓｅ　Ｉｎｔｅｒｎａｔｉｏｎａｌ株式会社,,株式会社,東京都,渋谷区,恵比寿南３丁目１１－２５－６０３,,13,113,1500022,,,2024-12-10,清算の結了等,,,2017-03-01,1,,,,,エンワイスインターナショナル,0
2127,8013301018446,登記記録の閉鎖等,0,2025-01-15,2024-12-27,ナノパワーソリューション株式会社,,株式会社,東京都,豊島区,北大塚２丁目２７番３号,,13,116,1700004,,,2024-12-27,清算の結了等,,,2015-10-05,1,,,,,ナノパワーソリューション,0
2129,8020001089437,登記記録の閉鎖等,0,2025-01-15,2024-12-23,株式会社ソーシャルアシストジャパン,,株式会社,神奈川県,横浜市中区,弁天通２丁目２５番,,14,104,2310007,,,2024-12-23,清算の結了等,,,2015-10-05,1,,,,,ソーシャルアシストジャパン,0
2156,8040001048696,登記記録の閉鎖等,0,2025-01-15,2025-01-06,保安警備保障株式会社,,株式会社,千葉県,印旛郡酒々井町,中央台１丁目６番３,,12,322,2850922,,,2025-01-06,清算の結了等,,,2015-10-05,1,,,,,ホアンケイビホショウ,0
2158,8040001085764,登記記録の閉鎖等,0,2025-01-15,2025-01-06,株式会社ゼロ,,株式会社,千葉県,安房郡鋸南町,吉浜５０９番地９,,12,463,2991908,,,2025-01-06,清算の結了等,,,2015-10-05,1,,,,,ゼロ,0
2171,8070003004819,登記記録の閉鎖等,0,2025-01-15,2025-01-08,ＭＳＲＡＩＤＥＮ合同会社,,合同会社,群馬県,伊勢崎市,三室町５２６７番地７,,10,204,3792235,,,2025-01-08,清算の結了等,,,2023-02-07,1,,,,,エムエスライデン,0
2177,8100002015846,登記記録の閉鎖等,0,2025-01-15,2025-01-07,有限会社三峰工業,,有限会社,長野県,東御市,新張２１１０番地１,,20,219,3890501,,,2025-01-07,清算の結了等,,,2015-10-05,1,,,,,サンポウコウギョウ,0
2178,8120001134703,登記記録の閉鎖等,0,2025-01-15,2025-01-08,エムエフ販売株式会社,,株式会社,大阪府,大阪市淀川区,宮原３丁目５番２４号,,27,123,5320003,,,2025-01-08,合併による解散等,9010601038017,令和７年１月１日東京都江東区新木場一丁目４番４号株式会社ＫＭネクスト（9010601038017）に合併し解散,2015-10-05,1,,,,,エムエフハンバイ,0
2189,8120001268336,登記記録の閉鎖等,0,2025-01-15,2024-12-26,株式会社ＧｏｌｄＳｈｉｐ,,株式会社,大阪府,大阪市中央区,南船場３丁目２番２２号おおきに南船場ビル２０５,,27,128,5420081,,,2024-12-26,清算の結了等,,,2024-09-11,1,,,,,ゴールドシップ,0
2208,8120005013416,登記記録の閉鎖等,0,2025-01-15,2025-01-14,ＮＰＯ法人りりあん,,その他の設立登記法人,大阪府,枚方市,長尾元町６丁目３９番１５号,,27,210,5730163,,,2025-01-14,清算の結了等,,,2015-10-05,1,,,,,リリアン,0
2214,8120101064643,登記記録の閉鎖等,0,2025-01-15,2025-01-08,博海商事株式会社,,株式会社,大阪府,泉南市,信達大苗代６２－７０－７０４,,27,228,5900505,,,2025-01-08,清算の結了等,,,2021-11-12,1,,,,,ヒロミショウジ,0
2246,8180001105723,登記記録の閉鎖等,0,2025-01-15,2024-12-27,株式会社Ｔ・Ｎ・Ｙ,,株式会社,愛知県,名古屋市中村区,中村町４丁目１番地の２,,23,105,4530053,,,2024-12-27,清算の結了等,,,2015-10-05,1,,,,,ティエヌワイ,0
2247,8180001150190,登記記録の閉鎖等,0,2025-01-15,2024-12-27,株式会社キムラ防災コンサルタント,,株式会社,愛知県,清須市,萩野１０３番地,,23,233,4520919,,,2024-12-27,清算の結了等,,,2022-03-03,1,,,,,キムラボウサイコンサルタント,0
2251,8180003023766,登記記録の閉鎖等,0,2025-01-15,2024-12-27,合同会社ＡＺＩＭＡ,,合同会社,愛知県,名古屋市中村区,那古野１丁目４１番地２号ベルビラ那古野７０２号,,23,105,4500001,,,2024-12-27,清算の結了等,,,2022-05-17,1,,,,,アジマ,0
2257,8200003004672,登記記録の閉鎖等,0,2025-01-15,2025-01-14,合同会社住まいるエブリ,,合同会社,岐阜県,本巣市,石神２８８番地６,,21,218,5010410,,,2025-01-14,清算の結了等,,,2019-12-26,1,,,,,スマイルエブリ,0
2258,8200005013358,登記記録の閉鎖等,0,2025-01-15,2025-01-10,一般社団法人家族同様の会,,その他の設立登記法人,岐阜県,岐阜市,高尾町１丁目１１番地５,,21,201,5008162,,,2025-01-10,清算の結了等,,,2022-06-21,1,,,,,カゾクドウヨウノカイ,0
2265,8230005002820,登記記録の閉鎖等,0,2025-01-15,2024-12-20,八幡社,,その他の設立登記法人,富山県,富山市,八尾町小井波１７０９番地,,16,201,9392333,,,2024-12-20,合併による解散等,7230005002788,令和６年１２月２０日富山市八尾町黒田３９２８番地杉原神社（7230005002788）に合併し解散,2015-10-05,1,,,,,ハチマンシャ,0
2274,8260002025623,登記記録の閉鎖等,0,2025-01-15,2025-01-08,有限会社大塚商店,,有限会社,岡山県,井原市,上出部町１４２番地の１,,33,207,7150021,,,2025-01-08,清算の結了等,,,2015-10-05,1,,,,,オオツカショウテン,0
2277,8290001000839,登記記録の閉鎖等,0,2025-01-15,2025-01-15,株式会社ウエハラ産業,,株式会社,福岡県,福岡市南区,弥永５丁目６番６号,,40,134,8111323,,,2025-01-15,登記官による閉鎖,,,2015-10-05,1,,,,,,0
2279,8290001014938,登記記録の閉鎖等,0,2025-01-15,2025-01-15,株式会社藤,00092234,株式会社,福岡県,福岡市博多区,住吉４丁目２３番１号,,40,132,8120018,,,2025-01-15,登記官による閉鎖,,,2015-10-05,1,,,,,,0
2280,8290001028244,登記記録の閉鎖等,0,2025-01-15,2025-01-15,株式会社ワイ・コンセプト,,株式会社,福岡県,福岡市中央区,谷２丁目１４番８号,,40,133,8100031,,,2025-01-15,登記官による閉鎖,,,2015-10-05,1,,,,,,0
2281,8290001058695,登記記録の閉鎖等,0,2025-01-15,2025-01-15,株式会社インパクト,,株式会社,福岡県,福岡市東区,香椎駅前１丁目３番１７号,,40,131,8130013,,,2025-01-15,登記官による閉鎖,,,2015-10-05,1,,,,,,0
2283,8290001064784,登記記録の閉鎖等,0,2025-01-15,2025-01-15,株式会社ナノ製薬所,,株式会社,福岡県,福岡市博多区,博多駅中央街４番８号,,40,132,8120012,,,2025-01-15,登記官による閉鎖,,,2015-10-05,1,,,,,,0
2284,8290001065403,登記記録の閉鎖等,0,2025-01-15,2025-01-15,國民保全株式会社,,株式会社,福岡県,大牟田市,本町６丁目１００番地,,40,202,8360046,,,2025-01-15,登記官による閉鎖,,,2015-10-05,1,,,,,,0
2287,8290002042905,登記記録の閉鎖等,0,2025-01-15,2025-01-15,有限会社フクオカ美材,,有限会社,福岡県,大野城市,下大利１丁目１７番１１号,,40,219,8160952,,,2025-01-15,登記官による閉鎖,,,2015-10-05,1,,,,,,0
2288,8290002043052,登記記録の閉鎖等,0,2025-01-15,2025-01-15,かんぎ有限会社,,有限会社,福岡県,筑紫野市,針摺中央１丁目３番１０号スカイコーポ針摺１０１号室,00093425,40,217,8180083,,,2025-01-15,登記官による閉鎖,,,2015-10-05,1,,,,,,0
2289,8290002044942,登記記録の閉鎖等,0,2025-01-15,2025-01-15,有限会社福岡観光旅行サービス,,有限会社,福岡県,嘉穂郡桂川町,大字九郎丸６１０番地の１,,40,421,8200602,,,2025-01-15,登記官による閉鎖,,,2015-10-05,1,,,,,,0
2290,8290002047020,登記記録の閉鎖等,0,2025-01-15,2025-01-15,有限会社栄和産業,,有限会社,福岡県,八女市,吉田１５番地,,40,210,8340006,,,2025-01-15,登記官による閉鎖,,,2015-10-05,1,,,,,,0
2291,8290002051360,登記記録の閉鎖等,0,2025-01-15,2025-01-15,大栄開発有限会社,,有限会社,福岡県,久留米市,長門石２丁目３番１９号,,40,203,8300027,,,2025-01-15,登記官による閉鎖,,,2019-08-20,1,,,,,ダイエイカイハツ,0
2292,8290002056129,登記記録の閉鎖等,0,2025-01-15,2025-01-15,有限会社サンホワイトインターナショナル,,有限会社,福岡県,大牟田市,大字櫟野３２６０番地３３,,40,202,8360893,,,2025-01-15,登記官による閉鎖,,,2015-10-05,1,,,,,,0
2293,8290002057102,登記記録の閉鎖等,0,2025-01-15,2025-01-15,有限会社野口塗裝工業所,,有限会社,福岡県,久留米市,小頭町２０６番地,,40,203,8300045,,,2025-01-15,登記官による閉鎖,,,2015-10-05,1,,,,,,0
2294,8290002057110,登記記録の閉鎖等,0,2025-01-15,2025-01-15,有限会社興亜ベルト工業所,,有限会社,福岡県,久留米市,白山町２５６番地,,40,203,8300041,,,2025-01-15,登記官による閉鎖,,,2015-10-05,1,,,,,,0
2295,8290002057127,登記記録の閉鎖等,0,2025-01-15,2025-01-15,有限会社山内林業所,,有限会社,福岡県,八女市,（福岡県八女郡川崎村山内４７５番地の１）,,40,210,8340000,,,2025-01-15,登記官による閉鎖,,,2015-10-05,1,,,,,,1
2296,8290003000382,登記記録の閉鎖等,0,2025-01-15,2025-01-15,合資会社小田部石材,,合資会社,福岡県,福岡市東区,松田３丁目２６番２０－６０６号,,40,131,8120064,,,2025-01-15,登記官による閉鎖,,,2015-10-05,1,,,,,,0
2297,8290003004053,登記記録の閉鎖等,0,2025-01-15,2025-01-15,合同会社ＧＭＢ　ＳＵＰＰＬＹ,,合同会社,福岡県,福岡市博多区,博多駅南２丁目１８－１５妙善院ビル２０２,,40,132,8120016,,,2025-01-15,登記官による閉鎖,,,2015-10-05,1,,,,,,0
2299,8290003010695,登記記録の閉鎖等,0,2025-01-15,2024-12-20,合同会社ウチノヒ,,合同会社,福岡県,福岡市博多区,上川端町１２番１９０号,,40,132,8120026,,,2024-12-20,清算の結了等,,,2020-12-10,1,,,,,,0
2300,8290005003565,登記記録の閉鎖等,0,2025-01-15,2025-01-15,特定非営利活動法人南畑ダム貯水する会,,その他の設立登記法人,福岡県,福岡市城南区,樋井川５丁目３４番２号,00093840,40,136,8140153,,,2025-01-15,登記官による閉鎖,,,2015-10-05,1,,,,,,0
2301,8290801008180,登記記録の閉鎖等,0,2025-01-15,2025-01-15,株式会社ネオパートナー,,株式会社,福岡県,福岡市博多区,東光２丁目１８番３７号セイントビル１階,,40,132,8120008,,,2025-01-15,登記官による閉鎖,,,2015-10-05,1,,,,,,0
2302,8290801018080,登記記録の閉鎖等,0,2025-01-15,2025-01-15,株式会社エンデバー,,株式会社,福岡県,北九州市小倉北区,紺屋町７－２－４０２号,,40,106,8020081,,,2025-01-15,登記官による閉鎖,,,2015-10-05,1,,,,,,0
2303,8290802005474,登記記録の閉鎖等,0,2025-01-15,2025-01-15,有限会社Ｌｉｆｅ基礎,,有限会社,福岡県,北九州市小倉南区,大字貫２３１８番地の１０,,40,107,8000245,,,2025-01-15,登記官による閉鎖,,,2015-10-05,1,,,,,,0
2304,8290802014896,登記記録の閉鎖等,0,2025-01-15,2025-01-15,有限会社ナルトミ商事,,有限会社,福岡県,北九州市八幡西区,光貞台１丁目１番３０号,,40,109,8070805,,,2025-01-15,登記官による閉鎖,,,2015-10-05,1,,,,,ナルトミショウジ,0
2305,8290802016802,登記記録の閉鎖等,0,2025-01-15,2025-01-15,有限会社大平建設,,有限会社,福岡県,遠賀郡遠賀町,大字鬼津字堂ノ浦１８６２番地３,,40,384,8114341,,,2025-01-15,登記官による閉鎖,,,2015-10-05,1,,,,,,0
2306,8290802020705,登記記録の閉鎖等,0,2025-01-15,2025-01-15,有限会社ライオン屋靴店,,有限会社,福岡県,直方市,日吉町１２番３２号,,40,204,8220025,,,2025-01-15,登記官による閉鎖,,,2015-10-05,1,,,,,,0
2307,8290802022271,登記記録の閉鎖等,0,2025-01-15,2025-01-15,有限会社五徳屋井田酒店,,有限会社,福岡県,行橋市,中央２丁目８番１４号,,40,213,8240005,,,2025-01-15,登記官による閉鎖,,,2015-10-05,1,,,,,,0
2308,8290802024499,登記記録の閉鎖等,0,2025-01-15,2025-01-15,御祓建設有限会社,,有限会社,福岡県,田川市,大字夏吉１３５４番地,,40,206,8250004,,,2025-01-15,登記官による閉鎖,,,2015-10-05,1,,,,,,0
2310,8300002006065,登記記録の閉鎖等,0,2025-01-15,2025-01-08,有限会社原口商建,,有限会社,佐賀県,武雄市,武雄町大字富岡１０９８７番地１,,41,206,8430024,,,2025-01-08,清算の結了等,,,2015-10-05,1,,,,,ハラグチショウケン,0
2314,8330001022408,登記記録の閉鎖等,0,2025-01-15,2024-12-27,株式会社ぎんなん,,株式会社,熊本県,熊本市中央区,花畑町１２番１５号雅装堂ビル２階Ｂ号室,,43,101,8600806,,,2024-12-27,清算の結了等,,,2016-01-07,1,,,,,ギンナン,0
2329,8380001006307,登記記録の閉鎖等,0,2025-01-15,2024-12-26,株式会社ピノキオ,,株式会社,福島県,郡山市,緑ケ丘西３丁目１７番地の１２,,07,203,9630701,,,2024-12-26,清算の結了等,,,2015-10-05,1,,,,,,0
2356,9010003035785,登記記録の閉鎖等,0,2025-01-15,2024-12-25,鴨川財産合同会社,,合同会社,東京都,千代田区,永田町２丁目９番８号パレロワイヤル永田町,,13,101,1000014,,,2024-12-25,清算の結了等,,,2021-09-08,1,,,,,カモガワザイサン,0
2377,9010501021709,登記記録の閉鎖等,0,2025-01-15,2024-12-27,株式会社タクト,,株式会社,東京都,台東区,上野２丁目１２番６号,,13,106,1100005,,,2024-12-27,清算の結了等,,,2015-10-05,1,,,,,,0
2383,9010503005420,登記記録の閉鎖等,0,2025-01-15,2024-12-27,合同会社セッジ・フィールド,,合同会社,東京都,台東区,上野３丁目４番６号,,13,106,1100005,,,2024-12-27,清算の結了等,,,2018-10-15,1,,,,,セッジフィールド,0
2385,9010601046696,登記記録の閉鎖等,0,2025-01-15,2025-01-08,クラ企画株式会社,,株式会社,東京都,江東区,北砂３丁目３６番１１号,,13,108,1360073,,,2025-01-08,清算の結了等,,,2015-10-05,1,,,,,クラキカク,0
2390,9010703006887,登記記録の閉鎖等,0,2025-01-15,2024-12-25,日本自然エネルギー研究所ホールディングス合同会社,,合同会社,東京都,品川区,上大崎３丁目１番１号目黒セントラルスクエア１５階,,13,109,1410021,,,2024-12-25,清算の結了等,,,2023-09-28,1,,,,,ニホンシゼンエネルギーケンキュウショホールディング,0
2406,9011101096315,登記記録の閉鎖等,0,2025-01-15,2025-01-09,株式会社ＤＤＤ,,株式会社,埼玉県,さいたま市大宮区,仲町１丁目６６番地１,,11,103,3300845,,,2025-01-09,合併による解散等,6011101097704,令和６年１２月２５日宮城県仙台市青葉区国分町二丁目１番１２号株式会社ＧＴ（6011101097704）に合併し解散,2021-09-17,1,,,,,ディーディーディー,0
2418,9011302017508,登記記録の閉鎖等,0,2025-01-15,2025-01-09,有限会社樺沢工務店,,有限会社,東京都,杉並区,堀ノ内２丁目３７番２号,,13,115,1660013,,,2025-01-09,清算の結了等,,,2024-08-26,1,,,,,カバサワコウムテン,0
2419,9011401012723,登記記録の閉鎖等,0,2025-01-15,2025-01-07,株式会社アデッソ,,株式会社,兵庫県,宝塚市,栄町３丁目４番１－１２０３号,,28,214,6650845,,,2025-01-07,清算の結了等,,,2015-10-05,1,,,,,アデッソ,0
2430,9012401021400,登記記録の閉鎖等,0,2025-01-15,2024-12-24,株式会社ＰＡＰＩＬＬＯＮ,,株式会社,神奈川県,横浜市中区,本牧荒井１３２番地７４,,14,104,2310826,,,2024-12-24,清算の結了等,,,2015-10-05,1,,,,,パピヨン,0
2433,9013302013305,登記記録の閉鎖等,0,2025-01-15,2024-12-25,有限会社神保不動産,,有限会社,神奈川県,川崎市高津区,坂戸１丁目１２番１６－７０２号,,14,134,2130012,,,2024-12-25,清算の結了等,,,2015-10-05,1,,,,,ジンボフドウサン,0
2443,9030001018154,登記記録の閉鎖等,0,2025-01-15,2025-01-10,株式会社ビックスリー,,株式会社,埼玉県,さいたま市岩槻区,西町４丁目２番１号,,11,110,3390067,,,2025-01-10,合併による解散等,4120001086023,令和７年１月１日大阪市中央区北浜東１番２０号ナカバヤシ株式会社（4120001086023）に合併し解散,2015-10-05,1,,,,,ビックスリー,0
2470,9040001014185,登記記録の閉鎖等,0,2025-01-15,2025-01-06,株式会社ライフアドバンス,,株式会社,千葉県,千葉市中央区,祐光４丁目１８番３号,,12,101,2600007,,,2025-01-06,合併による解散等,1040001013005,令和７年１月１日千葉市中央区祐光四丁目１８番３号株式会社ライフエステート（1040001013005）に合併し解散,2015-10-05,1,,,,,ライフアドバンス,0
2474,9040001135758,登記記録の閉鎖等,0,2025-01-15,2025-01-10,平井商事株式会社,,株式会社,神奈川県,茅ヶ崎市,浜竹４丁目３番３２号,,14,207,2530021,,,2025-01-10,清算の結了等,,,2024-10-22,1,,,,,ヒライショウジ,0
2476,9040002078519,登記記録の閉鎖等,0,2025-01-15,2025-01-06,有限会社平賀建設,,有限会社,千葉県,大網白里市,金谷郷２２３９番地,,12,239,2993242,,,2025-01-06,清算の結了等,,,2015-10-05,1,,,,,ヒラガケンセツ,0
2479,9070001002591,登記記録の閉鎖等,0,2025-01-15,2025-01-10,橋詰開発株式会社,,株式会社,群馬県,前橋市,千代田町１丁目１４番１号,,10,201,3710022,,,2025-01-10,清算の結了等,,,2015-10-05,1,,,,,ハシヅメカイハツ,0
2487,9080101023917,登記記録の閉鎖等,0,2025-01-15,2024-12-25,株式会社エルヴィッタ,,株式会社,静岡県,富士市,水戸島３３６番１４号,,22,210,4160921,,,2024-12-25,清算の結了等,,,2023-05-01,1,,,,,エルヴィッタ,0
2511,9120003009646,登記記録の閉鎖等,0,2025-01-15,2025-01-06,合同会社ネクストステージ,,合同会社,大阪府,大阪市北区,梅田１丁目３番１－４００号,,27,127,5300001,,,2025-01-06,合併による解散等,9120003010050,令和７年１月１日大阪市北区梅田一丁目３番１－４００号合同会社前田キャピタルパートナーズ（9120003010050）に合併し解散,2015-10-05,1,,,,,ネクストステージ,0
2532,9140005006689,登記記録の閉鎖等,0,2025-01-15,2024-12-19,天理教播龍分教会,,その他の設立登記法人,兵庫県,たつの市,龍野町富永３８５番地の３,,28,229,6794167,,,2024-12-19,合併による解散等,6140005001180,令和６年１２月１９日神戸市垂水区塩屋町八丁目１番１０号天理教菊水分教会（6140005001180）に合併し解散,2015-10-05,1,,,,,テンリキョウバンリュウブンキョウカイ,0
2540,9180002030119,登記記録の閉鎖等,0,2025-01-15,2025-01-07,有限会社エム・アイ・シー,,有限会社,愛知県,西尾市,熊味町西平角９０番地３,,23,213,4450071,,,2025-01-07,清算の結了等,,,2015-10-05,1,,,,,エムアイシー,0
2553,9250002014840,登記記録の閉鎖等,0,2025-01-15,2025-01-06,有限会社スエカネ紙工,,有限会社,山口県,周南市,松保町１０番４号,,35,215,7450847,,,2025-01-06,合併による解散等,1250001010088,令和７年１月１日山口県周南市清水二丁目３番７号株式会社ブンシジャパン（1250001010088）に合併し解散,2015-10-05,1,,,,,スエカネシコウ,0
2554,9260001019352,登記記録の閉鎖等,0,2025-01-15,2025-01-09,株式会社アクリエイブ,,株式会社,岡山県,新見市,新見１７８番地１,,33,210,7180011,,,2025-01-09,清算の結了等,,,2015-10-05,1,,,,,アクリエイブ,0
2561,9290001000730,登記記録の閉鎖等,0,2025-01-15,2025-01-15,株式会社あじ蔵,,株式会社,福岡県,福岡市西区,愛宕４丁目２４番２４号,,40,135,8190015,,,2025-01-15,登記官による閉鎖,,,2020-01-23,1,,,,,アジクラ,0
2563,9290001012676,登記記録の閉鎖等,0,2025-01-15,2025-01-15,株式会社北村商會,,株式会社,福岡県,福岡市博多区,中洲１丁目３番１３号,,40,132,8100801,,,2025-01-15,登記官による閉鎖,,,2019-11-28,1,,,,,,0
2564,9290001014466,登記記録の閉鎖等,0,2025-01-15,2025-01-15,株式会社泰和産業,,株式会社,福岡県,福岡市博多区,博多駅前３丁目３０番１５号ライオンズマンション博多９１１号,,40,132,8120011,,,2025-01-15,登記官による閉鎖,,,2015-10-05,1,,,,,,0
2565,9290001017130,登記記録の閉鎖等,0,2025-01-15,2025-01-15,株式会社ヤングビーナス福岡,,株式会社,福岡県,福岡市博多区,東月隈３丁目１０番２号,,40,132,8120854,,,2025-01-15,登記官による閉鎖,,,2015-10-05,1,,,,,,0
2566,9290001020704,登記記録の閉鎖等,0,2025-01-15,2025-01-15,株式会社創苑,,株式会社,福岡県,福岡市中央区,大手門２丁目１番３２号,,40,133,8100074,,,2025-01-15,登記官による閉鎖,,,2019-08-01,1,,,,,ソウエン,0
2567,9290001038886,登記記録の閉鎖等,0,2025-01-15,2025-01-15,株式会社ジャパンホームリー,,株式会社,福岡県,糟屋郡須惠町,大字佐谷１４０６番地１,,40,344,8112115,,,2025-01-15,登記官による閉鎖,,,2015-10-05,1,,,,,,0
2568,9290001041353,登記記録の閉鎖等,0,2025-01-15,2025-01-15,ウエスト・チエスター販売株式会社,,株式会社,福岡県,太宰府市,大佐野６丁目５番８号,,40,221,8180134,,,2025-01-15,登記官による閉鎖,,,2015-10-05,1,,,,,,0
2569,9290001042087,登記記録の閉鎖等,0,2025-01-15,2025-01-15,光ワーク株式会社,,株式会社,福岡県,大野城市,大池２丁目８番９号,,40,219,8160904,,,2025-01-15,登記官による閉鎖,,,2015-10-05,1,,,,,,0
2570,9290001045767,登記記録の閉鎖等,0,2025-01-15,2025-01-15,株式会社モア,,株式会社,福岡県,飯塚市,本町８番３０号,,40,205,8200042,,,2025-01-15,登記官による閉鎖,,,2015-10-05,1,,,,,,0
2571,9290001048225,登記記録の閉鎖等,0,2025-01-15,2025-01-15,株式会社めんめん,,株式会社,福岡県,春日市,若葉台西６丁目３２番地１,,40,218,8160823,,,2025-01-15,登記官による閉鎖,,,2015-10-05,1,,,,,,0
2572,9290001057382,登記記録の閉鎖等,0,2025-01-15,2025-01-15,株式会社リンクス,,株式会社,福岡県,福岡市博多区,御供所町１３番１２号,,40,132,8120037,,,2025-01-15,登記官による閉鎖,,,2015-10-05,1,,,,,,0
2573,9290001058892,登記記録の閉鎖等,0,2025-01-15,2025-01-15,株式会社エムケイツー,,株式会社,福岡県,福岡市南区,多賀２丁目４番１０－５０６号,,40,134,8150072,,,2025-01-15,登記官による閉鎖,,,2015-10-05,1,,,,,,0
2574,9290001060221,登記記録の閉鎖等,0,2025-01-15,2025-01-15,ｍｙｕ　ｓｗｅｅｔｓ株式会社,,株式会社,福岡県,福岡市中央区,荒戸１丁目６番地１１号,,40,133,8100062,,,2025-01-15,登記官による閉鎖,,,2015-10-05,1,,,,,,0
2575,9290001065402,登記記録の閉鎖等,0,2025-01-15,2025-01-15,九州飲料製造株式会社,,株式会社,福岡県,大牟田市,笹林町８５番地,,40,202,8360000,,,2025-01-15,登記官による閉鎖,,,2015-10-05,1,,,,,,0
2576,9290001065410,登記記録の閉鎖等,0,2025-01-15,2025-01-15,三池食糧品株式会社,,株式会社,福岡県,大牟田市,大字三里１１７３番地,,40,202,8360000,,,2025-01-15,登記官による閉鎖,,,2015-10-05,1,,,,,,0
2577,9290001083313,登記記録の閉鎖等,0,2025-01-15,2024-12-20,株式会社コミタケ,,株式会社,福岡県,福岡市西区,愛宕南２丁目１番１０号,,40,135,8190007,,,2024-12-20,清算の結了等,,,2018-11-08,1,,,,,コミタケ,0
2584,9290002000572,登記記録の閉鎖等,0,2025-01-15,2025-01-15,有限会社西部商会,,有限会社,福岡県,福岡市早良区,野芥７丁目２９－１,,40,137,8140171,,,2025-01-15,登記官による閉鎖,,,2015-10-05,1,,,,,,0
2585,9290002007048,登記記録の閉鎖等,0,2025-01-15,2025-01-15,有限会社虎勝,,有限会社,福岡県,福岡市城南区,堤２丁目２２番１号,,40,136,8140151,,,2025-01-15,登記官による閉鎖,,,2015-10-05,1,,,,,,0
2586,9290002013715,登記記録の閉鎖等,0,2025-01-15,2025-01-15,有限会社和平商事,,有限会社,福岡県,福岡市中央区,福浜２丁目２番６－１０５号,,40,133,8100066,,,2025-01-15,登記官による閉鎖,,,2015-10-05,1,,,,,,0
2588,9290002036088,登記記録の閉鎖等,0,2025-01-15,2025-01-15,有限会社エム・ピー・カークラブ,,有限会社,福岡県,糟屋郡篠栗町,大字高田２１５番地２,,40,342,8112401,,,2025-01-15,登記官による閉鎖,,,2015-10-05,1,,,,,,0
2589,9290002039917,登記記録の閉鎖等,0,2025-01-15,2025-01-15,有限会社浜商店,,有限会社,福岡県,大野城市,仲畑３丁目１１番地の１７,,40,219,8160921,,,2025-01-15,登記官による閉鎖,,,2015-10-05,1,,,,,,0
2590,9290002045576,登記記録の閉鎖等,0,2025-01-15,2025-01-15,有限会社柴田石油,,有限会社,福岡県,飯塚市,柏の森４７７番地の１,,40,205,8200011,,,2025-01-15,登記官による閉鎖,,,2015-10-05,1,,,,,,0
2591,9290002055658,登記記録の閉鎖等,0,2025-01-15,2025-01-15,ヒサコ商事有限会社,,有限会社,福岡県,大牟田市,三里町３丁目１番地の６,,40,202,8360076,,,2025-01-15,登記官による閉鎖,,,2016-01-14,1,,,,,,0
2592,9290002057092,登記記録の閉鎖等,0,2025-01-15,2025-01-15,南筑資源蒐荷有限会社,,有限会社,福岡県,大牟田市,旭町１丁目２９番地,,40,202,8360807,,,2025-01-15,登記官による閉鎖,,,2015-10-05,1,,,,,,0
2593,9290002057101,登記記録の閉鎖等,0,2025-01-15,2025-01-15,有限会社日本興産,,有限会社,福岡県,久留米市,小頭町１６０８番地,,40,203,8300045,,,2025-01-15,登記官による閉鎖,,,2015-10-05,1,,,,,,0
2594,9290002057126,登記記録の閉鎖等,0,2025-01-15,2025-01-15,八女運輸有限会社,,有限会社,福岡県,八女市,（福岡県八女郡中広川村新代１８８６番地の２）,,40,210,8340000,,,2025-01-15,登記官による閉鎖,,,2015-10-05,1,,,,,,1
2597,9290801010813,登記記録の閉鎖等,0,2025-01-15,2025-01-15,株式会社レストコージャク,,株式会社,福岡県,宗像市,武丸２２７８,,40,220,8114152,,,2025-01-15,登記官による閉鎖,,,2015-10-05,1,,,,,,0
2598,9290801013808,登記記録の閉鎖等,0,2025-01-15,2025-01-15,株式会社モノキューブ,,株式会社,福岡県,北九州市八幡東区,東田１丁目５番７号,,40,108,8050071,,,2025-01-15,登記官による閉鎖,,,2015-10-05,1,,,,,,0
2599,9290801015192,登記記録の閉鎖等,0,2025-01-15,2025-01-15,川本建材株式会社,,株式会社,福岡県,行橋市,大字道場寺１６０４番地の５,,40,213,8240026,,,2025-01-15,登記官による閉鎖,,,2015-10-05,1,,,,,,0
2601,9290802002660,登記記録の閉鎖等,0,2025-01-15,2025-01-15,西海ビル有限会社,,有限会社,福岡県,北九州市戸畑区,旭町五丁目９番１０号,,40,105,8040083,,,2025-01-15,登記官による閉鎖,,,2015-10-05,1,,,,,,0
2603,9290802013765,登記記録の閉鎖等,0,2025-01-15,2025-01-15,有限会社九州産資,,有限会社,福岡県,遠賀郡遠賀町,大字鬼津字北の浦３０６９番１,,40,384,8114341,,,2025-01-15,登記官による閉鎖,,,2015-10-05,1,,,,,,0
2604,9290803001595,登記記録の閉鎖等,0,2025-01-15,2025-01-15,白馬興産合資会社,,合資会社,福岡県,築上郡築上町,大字築城１９７０－３,,40,647,8290102,,,2025-01-15,登記官による閉鎖,,,2015-10-05,1,,,,,,0
2605,9290805004539,登記記録の閉鎖等,0,2025-01-15,2025-01-15,特定非営利活動法人生前契約ネットシステム,,その他の設立登記法人,福岡県,北九州市八幡西区,夕原町４番地３８,,40,109,8070813,,,2025-01-15,登記官による閉鎖,,,2015-10-05,1,,,,,,0
2606,9290805008110,登記記録の閉鎖等,0,2025-01-15,2025-01-15,特定非営利活動法人さくら会,,その他の設立登記法人,福岡県,田川郡川崎町,大字川崎３６６番地１１,,40,605,8270003,,,2025-01-15,登記官による閉鎖,,,2015-10-05,1,,,,,,0
2615,9350002007017,登記記録の閉鎖等,0,2025-01-15,2025-01-08,有限会社井上建築,,有限会社,宮崎県,東諸県郡国富町,大字宮王丸４５６番地７,,45,382,8801102,,,2025-01-08,清算の結了等,,,2015-10-05,1,,,,,イノウエケンチク,0
2621,9380001001257,登記記録の閉鎖等,0,2025-01-15,2025-01-06,ヒロヨコ山株式会社,,株式会社,福島県,福島市,五老内町１番１３号,,07,201,9608111,,,2025-01-06,清算の結了等,,,2015-10-05,1,,,,,ヒロヨコヤマ,0
2624,9410002012860,登記記録の閉鎖等,0,2025-01-15,2025-01-06,有限会社白岩の郷,,有限会社,秋田県,仙北市,角館町白岩下西野１番地,,05,215,0140302,,,2025-01-06,合併による解散等,2410001013189,令和７年１月１日秋田県仙北市角館町白岩新西野２０２番地２株式会社ｃｏｃｏｋｉｒａ（2410001013189）に合併し解散,2015-10-05,1,,,,,シライワノサト,0
2645,9700150062216,登記記録の閉鎖等,0,2025-01-15,2021-03-31,熊本市母子寡婦福祉連合会,,その他,熊本県,熊本市東区,錦ケ丘３４－２３,,43,102,8620912,,,2021-03-31,その他の清算の結了等,,,2015-10-09,1,,,,,クマモトシボシカフフクシレンゴウカイ,0
