sequenceNumber,corporateNumber,process,correct,updateDate,changeDate,name,nameImageId,kind,prefectureName,cityName,streetNumber,addressImageId,prefectureCode,cityCode,postCode,addressOutside,addressOutsideImageId,closeDate,closeCause,successorCorporateNumber,changeCause,assignmentDate,latest,enName,enPrefectureName,enCityName,enAddressOutside,furigana,hihyoji
4,1010001222871,登記記録の閉鎖等,0,2023-03-29,2023-03-23,株式会社インセンス,,株式会社,東京都,千代田区,岩本町２丁目１４番９号第二花輪ビル３０１,,13,101,1010032,,,2023-03-23,清算の結了等,,,2021-11-29,1,,,,,インセンス,0
9,1010005027920,登記記録の閉鎖等,0,2023-03-29,2023-03-24,ＹＥ特定目的会社,,その他の設立登記法人,東京都,千代田区,丸の内１丁目８番２号鉄鋼ビルディング４階,,13,101,1000005,,,2023-03-24,清算の結了等,,,2017-12-27,1,,,,,ワイイー,0
13,1010401098730,登記記録の閉鎖等,0,2023-03-29,2023-03-27,トリプル・エー・パートナーズ・ジャパン株式会社,,株式会社,東京都,千代田区,二番町１－２番町ハイム５３３,,13,101,1020084,,,2023-03-27,清算の結了等,,,2015-10-05,1,,,,,トリプルエーパートナーズジャパン,0
15,1010401119528,登記記録の閉鎖等,0,2023-03-29,2023-03-23,モノデュース株式会社,,株式会社,東京都,練馬区,光が丘６丁目１番４－５０４号,,13,120,1790072,,,2023-03-23,清算の結了等,,,2015-10-05,1,,,,,モノデュース,0
18,1010401148618,登記記録の閉鎖等,0,2023-03-29,2023-03-17,株式会社渡部現代美術,,株式会社,東京都,港区,六本木４丁目２番３５号,,13,103,1060032,,,2023-03-17,清算の結了等,,,2019-10-16,1,,,,,ワタナベゲンダイビジュツ,0
31,1011001061310,登記記録の閉鎖等,0,2023-03-29,2023-03-24,株式会社コムモール,,株式会社,東京都,渋谷区,千駄ヶ谷１丁目３番２号,,13,113,1510051,,,2023-03-24,清算の結了等,,,2015-10-05,1,,,,,コムモール,0
41,1011102029561,登記記録の閉鎖等,0,2023-03-29,2023-03-24,有限会社エスアンドジー,,有限会社,東京都,新宿区,西新宿７丁目２３－１４,,13,104,1600023,,,2023-03-24,清算の結了等,,,2015-10-05,1,,,,,エスアンドジー,0
43,1011402007993,登記記録の閉鎖等,0,2023-03-29,2023-03-28,有限会社豊友商事,,有限会社,東京都,板橋区,板橋３丁目２７番５号,,13,119,1730004,,,2023-03-28,清算の結了等,,,2015-10-05,1,,,,,ホウユウショウジ,0
50,1011803002676,登記記録の閉鎖等,0,2023-03-29,2023-03-27,合同会社ＫＩＲＡＭＥＫＩ,,合同会社,東京都,足立区,椿１丁目１－１２,,13,121,1230871,,,2023-03-27,清算の結了等,,,2016-11-21,1,,,,,キラメキ,0
53,1012401023684,登記記録の閉鎖等,0,2023-03-29,2023-03-24,三恕商事株式会社,,株式会社,東京都,狛江市,猪方１丁目１０番２１号,,13,219,2010015,,,2023-03-24,清算の結了等,,,2015-10-05,1,,,,,,0
58,1013202000443,登記記録の閉鎖等,0,2023-03-29,2023-03-22,有限会社アトリエ西川,,有限会社,東京都,目黒区,鷹番１丁目９番１６号,,13,110,1520004,,,2023-03-22,清算の結了等,,,2015-10-05,1,,,,,アトリエニシカワ,0
96,1030002120858,登記記録の閉鎖等,0,2023-03-29,2023-03-27,有限会社三田設計事務所,,有限会社,埼玉県,飯能市,征矢町１５番地２,,11,209,3570049,,,2023-03-27,清算の結了等,,,2015-10-05,1,,,,,ミタセッケイジムショ,0
98,1030003018630,登記記録の閉鎖等,0,2023-03-29,2023-03-27,合同会社ＡｌｌＴｒａｄｅｓ,,合同会社,埼玉県,新座市,東２丁目４番４号,,11,230,3520002,,,2023-03-27,清算の結了等,,,2022-01-14,1,,,,,オールトレード,0
103,1040001091257,登記記録の閉鎖等,0,2023-03-29,2023-03-22,株式会社ＢＥ　ＨＯＮＥＳＴ,,株式会社,千葉県,習志野市,本大久保４丁目１２番３号５０８号室,,12,216,2750012,,,2023-03-22,清算の結了等,,,2015-10-05,1,,,,,ビーオネスト,0
116,1080401018558,登記記録の閉鎖等,0,2023-03-29,2023-03-28,株式会社シティーリゾート,,株式会社,静岡県,浜松市中区,鍛冶町１番地の２,,22,131,4300933,,,2023-03-28,清算の結了等,,,2015-10-05,1,,,,,シティーリゾート,0
118,1100001034234,登記記録の閉鎖等,0,2023-03-29,2023-03-27,株式会社グリーンワークス,,株式会社,長野県,小諸市,大字柏木１５２－１,,20,208,3840055,,,2023-03-27,清算の結了等,,,2021-05-14,1,,,,,グリーンワークス,0
121,1100002035792,登記記録の閉鎖等,0,2023-03-29,2023-03-27,有限会社飯田アニマルメディカルセンター,,有限会社,長野県,飯田市,羽場坂町２３２２番地１,,20,205,3950073,,,2023-03-27,清算の結了等,,,2015-10-05,1,,,,,イイダアニマルメディカルセンター,0
141,1122002015566,登記記録の閉鎖等,0,2023-03-29,2023-03-27,有限会社ミヤザキビージー,,有限会社,大阪府,柏原市,太平寺２丁目８番１１号,,27,221,5820017,,,2023-03-27,清算の結了等,,,2015-10-05,1,,,,,ミヤザキビージー,0
143,1140001027515,登記記録の閉鎖等,0,2023-03-29,2023-03-27,株式会社稲美ファーム,,株式会社,兵庫県,加古郡稲美町,加古４７５０－１,,28,381,6751105,,,2023-03-27,清算の結了等,,,2015-10-05,1,,,,,イナミファーム,0
157,1180001056477,登記記録の閉鎖等,0,2023-03-29,2023-03-27,バサール株式会社,,株式会社,岐阜県,土岐市,泉北山町４丁目８番地,,21,212,5095171,,,2023-03-27,清算の結了等,,,2015-10-05,1,,,,,バサール,0
174,1240002017843,登記記録の閉鎖等,0,2023-03-29,2023-03-27,有限会社米澤不動産,,有限会社,広島県,広島市安佐北区,口田南１丁目８番３８号,,34,106,7391733,,,2023-03-27,清算の結了等,,,2023-02-01,1,,,,,ヨネザワフドウサン,0
202,1370002009778,登記記録の閉鎖等,0,2023-03-29,2023-03-27,有限会社一文字屋不動産,,有限会社,宮城県,仙台市青葉区,小田原６丁目２番３２号,,04,101,9800003,,,2023-03-27,清算の結了等,,,2015-10-05,1,,,,,イチモンジヤフドウサン,0
212,1450002001280,登記記録の閉鎖等,0,2023-03-29,2023-03-28,有限会社小原農機商会,,有限会社,北海道,旭川市,末広東三条５丁目５番１１号,,01,204,0718123,,,2023-03-28,清算の結了等,,,2015-10-05,1,,,,,オバラノウキショウカイ,0
216,1500002007157,登記記録の閉鎖等,0,2023-03-29,2023-03-28,有限会社友伸機工,,有限会社,愛媛県,松山市,別府町８４７番地,,38,201,7918056,,,2023-03-28,清算の結了等,,,2015-10-05,1,,,,,ユウシンキコウ,0
226,2010001223910,登記記録の閉鎖等,0,2023-03-29,2023-03-23,株式会社クリーティー,,株式会社,東京都,千代田区,岩本町２丁目１４番９号第２花輪ビル３階,,13,101,1010032,,,2023-03-23,清算の結了等,,,2022-01-19,1,,,,,クリーティー,0
230,2010003030875,登記記録の閉鎖等,0,2023-03-29,2023-03-22,ビザメイジング合同会社,,合同会社,東京都,中央区,日本橋３丁目２番１４号新槇町ビル別館第一１階,,13,102,1030027,,,2023-03-22,清算の結了等,,,2019-10-17,1,,,,,ビザメイジング,0
233,2010005025056,登記記録の閉鎖等,0,2023-03-29,2023-03-24,一般社団法人ＴＸホールディングス,,その他の設立登記法人,東京都,千代田区,神田神保町１丁目１１番地さくら綜合事務所内,,13,101,1010051,,,2023-03-24,清算の結了等,,,2016-03-04,1,,,,,ティーエックスホールディングス,0
237,2010401141282,登記記録の閉鎖等,0,2023-03-29,2023-03-17,株式会社クラフターエンジン,,株式会社,東京都,港区,赤坂５丁目２番２０号,,13,103,1070052,,,2023-03-17,清算の結了等,,,2018-10-09,1,,,,,クラフターエンジン,0
239,2010403024361,登記記録の閉鎖等,0,2023-03-29,2023-03-17,合同会社ＳＡ　ＰＲＯＰＥＲＴＹ　ＮＡＲＩＭＡＳＵ,,合同会社,東京都,港区,虎ノ門５丁目１番４号,,13,103,1050001,,,2023-03-17,清算の結了等,,,2020-12-22,1,,,,,エスエープロパティナリマス,0
252,2011001034653,登記記録の閉鎖等,0,2023-03-29,2023-03-27,ビットフラッグ株式会社,,株式会社,神奈川県,川崎市麻生区,千代ケ丘３丁目３番１０号,,14,137,2150005,,,2023-03-27,清算の結了等,,,2015-10-05,1,,,,,ビットフラッグ,0
265,2011103008209,登記記録の閉鎖等,0,2023-03-29,2023-03-29,合同会社しろはえ,,合同会社,東京都,新宿区,百人町４丁目５番２－５０８号,,13,104,1690073,,,2023-03-29,清算の結了等,,,2018-09-03,1,,,,,シロハエ,0
276,2011502007612,登記記録の閉鎖等,0,2023-03-29,2023-03-24,有限会社小野自動車工業,,有限会社,東京都,荒川区,東尾久２丁目４９番１号,,13,118,1160012,,,2023-03-24,清算の結了等,,,2015-10-05,1,,,,,オノジドウシャコウギョウ,0
288,2013103000780,登記記録の閉鎖等,0,2023-03-29,2023-03-28,光福合同会社,,合同会社,東京都,福生市,大字熊川１３９１番地４,,13,218,1970003,,,2023-03-28,清算の結了等,,,2017-08-10,1,,,,,コウフク,0
294,2020001068818,登記記録の閉鎖等,0,2023-03-29,2023-03-24,株式会社イリソコンポーネント,,株式会社,神奈川県,川崎市高津区,北見方２丁目３５番８号,,14,134,2130005,,,2023-03-24,清算の結了等,,,2015-10-05,1,,,,,イリソコンポーネント,0
297,2020001125148,登記記録の閉鎖等,0,2023-03-29,2023-03-24,金港トレーディング株式会社,,株式会社,神奈川県,横浜市神奈川区,橋本町１丁目１番地,,14,102,2210053,,,2023-03-24,清算の結了等,,,2018-02-19,1,,,,,キンコウトレーディング,0
303,2020002029216,登記記録の閉鎖等,0,2023-03-29,2023-03-24,有限会社エクセレンス,,有限会社,神奈川県,横浜市南区,永田南２丁目１１番２１号,,14,105,2320073,,,2023-03-24,清算の結了等,,,2015-10-05,1,,,,,エクセレンス,0
334,2080401003617,登記記録の閉鎖等,0,2023-03-29,2023-03-27,浜松商事株式会社,,株式会社,静岡県,浜松市東区,西塚町３０３番地の７,00079543,22,132,4350044,,,2023-03-27,清算の結了等,,,2015-10-05,1,,,,,ハママツショウジ,0
351,2120001240069,登記記録の閉鎖等,0,2023-03-29,2023-03-27,株式会社ジュノ,,株式会社,大阪府,大阪市福島区,福島１丁目１番１２号リバーレジデンス堂島５０２,,27,103,5530003,,,2023-03-27,清算の結了等,,,2021-09-02,1,,,,,ジュノ,0
355,2120002030345,登記記録の閉鎖等,0,2023-03-29,2023-03-27,有限会社ケイジェイエム,,有限会社,大阪府,大阪市北区,天神橋５丁目８番６号,,27,127,5300041,,,2023-03-27,清算の結了等,,,2015-10-05,1,,,,,ケイジェイエム,0
373,2180001120926,登記記録の閉鎖等,0,2023-03-29,2023-03-22,株式会社サクラクラフト,,株式会社,愛知県,名古屋市瑞穂区,弥富通四丁目２９番地,,23,108,4670000,,,2023-03-22,清算の結了等,,,2015-11-11,1,,,,,サクラクラフト,0
377,2220001007532,登記記録の閉鎖等,0,2023-03-29,2023-03-27,株式会社ルミエール,,株式会社,石川県,金沢市,弥生２丁目１２番３２号,,17,201,9218036,,,2023-03-27,清算の結了等,,,2015-10-05,1,,,,,ルミエール,0
378,2220001008002,登記記録の閉鎖等,0,2023-03-29,2023-03-27,北國土地建物株式会社,,株式会社,石川県,金沢市,香林坊１丁目２番２４号,,17,201,9200961,,,2023-03-27,清算の結了等,,,2015-10-05,1,,,,,ホッコクトチタテモノ,0
394,2290001062934,登記記録の閉鎖等,0,2023-03-29,2023-03-28,株式会社Ｈｏｂｂｙ　Ｗｏｒｌｄ　ＭＡＲＩＮＥ九州,,株式会社,福岡県,福岡市博多区,博多駅前３丁目９番５号,,40,132,8120011,,,2023-03-28,清算の結了等,,,2015-10-05,1,,,,,,0
395,2290001074962,登記記録の閉鎖等,0,2023-03-29,2023-03-28,ケイアンドイー株式会社,,株式会社,福岡県,福岡市西区,今宿駅前１丁目２番１７号,,40,135,8190168,,,2023-03-28,清算の結了等,,,2016-08-24,1,,,,,ケイアンドイー,0
407,2330003004120,登記記録の閉鎖等,0,2023-03-29,2023-03-27,合同会社玉木屋,,合同会社,熊本県,天草市,中央新町１７番３号,,43,215,8630023,,,2023-03-27,清算の結了等,,,2015-10-05,1,,,,,タマキヤ,0
434,2500002002784,登記記録の閉鎖等,0,2023-03-29,2023-03-28,有限会社寿岡田,,有限会社,愛媛県,松山市,小坂３丁目４番３３号,,38,201,7900963,,,2023-03-28,清算の結了等,,,2015-10-05,1,,,,,コトブキオカダ,0
478,3010805000364,登記記録の閉鎖等,0,2023-03-29,2023-03-23,天理教本芝郷分教会,00052578,その他の設立登記法人,東京都,大田区,池上４丁目１２番１０号,,13,111,1460082,,,2023-03-23,合併による解散等,3010705000308,令和５年３月１７日東京都品川区大井二丁目５番１７号天理教本荏大協会（3010705000308）に合併し解散,2015-10-05,1,,,,,テンリキョウホンシバサトブンキョウカイ,0
483,3011001106170,登記記録の閉鎖等,0,2023-03-29,2023-03-17,株式会社ＪＡＰＡＮ　ＭＵＳＩＣ　ＭＵＳＥＵＭ,,株式会社,東京都,港区,南青山２丁目２番１５号,,13,103,1070062,,,2023-03-17,清算の結了等,,,2015-10-05,1,,,,,ジャパンミュージックミュージアム,0
499,3011402001177,登記記録の閉鎖等,0,2023-03-29,2023-03-23,有限会社魚清,,有限会社,東京都,板橋区,若木２丁目１９番１号,,13,119,1740065,,,2023-03-23,清算の結了等,,,2015-10-05,1,,,,,ウオセイ,0
500,3011501001490,登記記録の閉鎖等,0,2023-03-29,2023-03-10,株式会社光洋ブロック,,株式会社,東京都,北区,中里１丁目６番４号,,13,117,1140015,,,2023-03-10,清算の結了等,,,2015-10-05,1,,,,,,0
515,3020001012634,登記記録の閉鎖等,0,2023-03-29,2023-03-27,株式会社おおがき,,株式会社,神奈川県,横浜市南区,真金町１丁目３番地,,14,105,2320021,,,2023-03-27,清算の結了等,,,2015-10-05,1,,,,,オオガキ,0
519,3020002020850,登記記録の閉鎖等,0,2023-03-29,2023-03-27,有限会社尾倉土木,,有限会社,神奈川県,横浜市旭区,笹野台１丁目３３番６号,,14,112,2410816,,,2023-03-27,清算の結了等,,,2015-10-05,1,,,,,オグラドボク,0
522,3021001012806,登記記録の閉鎖等,0,2023-03-29,2023-03-27,総合開発株式会社,,株式会社,神奈川県,相模原市緑区,橋本３丁目５番５号Ｋコート１０３,,14,151,2520143,,,2023-03-27,清算の結了等,,,2015-10-05,1,,,,,ソウゴウカイハツ,0
524,3021001032647,登記記録の閉鎖等,0,2023-03-29,2023-03-27,株式会社マックホームズ,,株式会社,神奈川県,小田原市,栄町１丁目１４番１０号ＳＧ小田原ビル４階,,14,206,2500011,,,2023-03-27,清算の結了等,,,2015-10-05,1,,,,,マックホームズ,0
532,3030002076636,登記記録の閉鎖等,0,2023-03-29,2023-03-24,有限会社藤製作所,,有限会社,埼玉県,ふじみ野市,亀久保１２２１番地の１１１,,11,245,3560051,,,2023-03-24,清算の結了等,,,2015-10-05,1,,,,,フジセイサクショ,0
546,3080101018518,登記記録の閉鎖等,0,2023-03-29,2023-03-27,株式会社ＢＩＲＴＨ,,株式会社,静岡県,沼津市,今沢６８９番地の１１,,22,203,4100875,,,2023-03-27,合併による解散等,8080101000132,令和５年３月２７日静岡県沼津市松長７８７番地株式会社イカイ（8080101000132）に合併し解散,2015-10-05,1,,,,,バース,0
563,3120001199511,登記記録の閉鎖等,0,2023-03-29,2023-03-27,株式会社ＬＩＮＫＳ,,株式会社,大阪府,守口市,南寺方東通１丁目１０番６号,,27,209,5700043,,,2023-03-27,清算の結了等,,,2016-07-14,1,,,,,リンクス,0
572,3120002009875,登記記録の閉鎖等,0,2023-03-29,2023-03-27,有限会社千代田興産,,有限会社,大阪府,大阪市西淀川区,柏里２丁目５番２号,,27,113,5550022,,,2023-03-27,合併による解散等,1120001010431,令和５年３月２７日大阪市西淀川区柏里二丁目５番２号株式会社千代田紙工所（1120001010431）に合併し解散,2015-10-05,1,,,,,チヨダコウサン,0
600,3140002006945,登記記録の閉鎖等,0,2023-03-29,2023-03-28,有限会社アベニュー・ケイ,,有限会社,兵庫県,神戸市須磨区,飛松町２丁目５番１７号,,28,107,6540012,,,2023-03-28,清算の結了等,,,2015-10-05,1,,,,,,0
605,3150002006151,登記記録の閉鎖等,0,2023-03-29,2023-03-22,有限会社ヴァニタ,,有限会社,奈良県,生駒郡平群町,北信貴ケ丘２丁目１番２１号,,29,342,6360913,,,2023-03-22,清算の結了等,,,2015-10-05,1,,,,,ヴァニタ,0
608,3170005005743,登記記録の閉鎖等,0,2023-03-29,2023-03-27,串本水産仲買協同組合,,その他の設立登記法人,和歌山県,東牟婁郡串本町,串本１８７７番地の３,,30,428,6493503,,,2023-03-27,清算の結了等,,,2015-10-05,1,,,,,クシモトスイサンナカガイ,0
617,3190001004689,登記記録の閉鎖等,0,2023-03-29,2023-03-27,株式会社Ｉ．ｅｓｔ,,株式会社,三重県,津市,安濃町今徳８０７番地２,,24,201,5142313,,,2023-03-27,清算の結了等,,,2015-10-05,1,,,,,アイエスト,0
618,3190002019637,登記記録の閉鎖等,0,2023-03-29,2023-03-27,有限会社オフィスミサト,,有限会社,三重県,四日市市,尾平町３７６８番地の２３１,,24,202,5120921,,,2023-03-27,清算の結了等,,,2015-10-05,1,,,,,オフィスミサト,0
625,3240001022545,登記記録の閉鎖等,0,2023-03-29,2023-03-22,佐竹電機株式会社,,株式会社,広島県,東広島市,西条西本町２番３０号,,34,212,7390043,,,2023-03-22,合併による解散等,3010001017304,令和５年３月１日東京都千代田区外神田四丁目７番２号株式会社サタケ（3010001017304）に合併し解散,2015-10-05,1,,,,,サタケデンキ,0
630,3240002013205,登記記録の閉鎖等,0,2023-03-29,2023-03-28,有限会社美研工芸,,有限会社,広島県,広島市安佐南区,長束５丁目８番８号,,34,105,7310135,,,2023-03-28,清算の結了等,,,2015-10-05,1,,,,,ビケンコウゲイ,0
633,3260001024721,登記記録の閉鎖等,0,2023-03-29,2023-03-28,株式会社岡山サービス企画,,株式会社,岡山県,倉敷市,矢部１４２６番地１,,33,202,7010105,,,2023-03-28,清算の結了等,,,2015-10-05,1,,,,,オカヤマサービスキカク,0
647,3310001012209,登記記録の閉鎖等,0,2023-03-29,2023-03-28,株式会社ケアエース,,株式会社,長崎県,長崎市,国分町８番２９号,,42,201,8500951,,,2023-03-28,清算の結了等,,,2015-10-05,1,,,,,ケアエース,0
648,3310001015104,登記記録の閉鎖等,0,2023-03-29,2023-03-28,株式会社スカイウイング,,株式会社,長崎県,五島市,三尾野町９９２番地２,,42,211,8530014,,,2023-03-28,清算の結了等,,,2017-08-24,1,,,,,スカイウイング,0
685,3480002012694,登記記録の閉鎖等,0,2023-03-29,2023-03-27,有限会社今城商店,,有限会社,徳島県,阿南市,富岡町西新町１２番地,,36,204,7740030,,,2023-03-27,清算の結了等,,,2015-10-05,1,,,,,イマキショウテン,0
691,4010001107343,登記記録の閉鎖等,0,2023-03-29,2023-03-23,ハイライト株式会社,,株式会社,東京都,文京区,西片２丁目４番２号,,13,105,1130024,,,2023-03-23,清算の結了等,,,2015-10-05,1,,,,,ハイライト,0
695,4010005031952,登記記録の閉鎖等,0,2023-03-29,2023-03-24,一般社団法人Ｓｕｓｔａｉｎａｂｌｅ　Ｍｏｂｉｌｉｔｙ,,その他の設立登記法人,神奈川県,川崎市川崎区,港町５番２－２１１６号リヴァリエＢ棟,,14,131,2100807,,,2023-03-24,清算の結了等,,,2020-06-26,1,,,,,サステイナブルモビリティ,0
699,4010401015872,登記記録の閉鎖等,0,2023-03-29,2023-03-17,株式会社セントラル・プリンテイング,,株式会社,千葉県,千葉市美浜区,真砂３丁目１８番２棟８０５号,,12,106,2610011,,,2023-03-17,清算の結了等,,,2015-10-05,1,,,,,セントラルプリンティング,0
710,4010505000713,登記記録の閉鎖等,0,2023-03-29,2023-03-27,関東百貨店協同組合,,その他の設立登記法人,東京都,台東区,台東４丁目２９番１５号上野永谷タウンプラザ５０４号,,13,106,1100016,,,2023-03-27,清算の結了等,,,2015-10-05,1,,,,,カントウヒャッカテン,0
766,4021001024981,登記記録の閉鎖等,0,2023-03-29,2023-03-27,株式会社越前屋金物,,株式会社,神奈川県,大和市,福田５５３２番地,,14,213,2420024,,,2023-03-27,清算の結了等,,,2015-10-05,1,,,,,エチゼンヤカナモノ,0
774,4030001070985,登記記録の閉鎖等,0,2023-03-29,2023-03-24,ハヤシ工業株式会社,,株式会社,埼玉県,東松山市,六軒町１２番地５,,11,212,3550024,,,2023-03-24,清算の結了等,,,2015-10-05,1,,,,,ハヤシコウギョウ,0
787,4040002065884,登記記録の閉鎖等,0,2023-03-29,2023-03-22,有限会社アクア薬局,,有限会社,千葉県,木更津市,万石１４３番地１,,12,206,2920003,,,2023-03-22,清算の結了等,,,2015-10-05,1,,,,,アクアヤッキョク,0
790,4040002075074,登記記録の閉鎖等,0,2023-03-29,2023-03-23,有限会社ホースサービス・市原,,有限会社,千葉県,市原市,千種４丁目９番地２,,12,219,2990109,,,2023-03-23,清算の結了等,,,2015-10-05,1,,,,,ホースサービスイチハラ,0
795,4080101001729,登記記録の閉鎖等,0,2023-03-29,2023-03-27,平和観光株式会社,,株式会社,静岡県,沼津市,大手町５丁目２番２２号,,22,203,4100801,,,2023-03-27,合併による解散等,8080101000132,令和５年３月２７日静岡県沼津市松長７８７番地株式会社イカイ（8080101000132）に合併し解散,2015-10-05,1,,,,,ヘイワカンコウ,0
796,4090001014722,登記記録の閉鎖等,0,2023-03-29,2023-03-27,株式会社ノーディクション,,株式会社,山梨県,富士吉田市,下吉田東１丁目１番１２号,,19,202,4030008,,,2023-03-27,清算の結了等,,,2016-07-25,1,,,,,ノーディクション,0
800,4100002031896,登記記録の閉鎖等,0,2023-03-29,2023-03-24,有限会社ミュージシャン諏訪本社,,有限会社,長野県,岡谷市,本町２丁目２番１９号,,20,204,3940028,,,2023-03-24,清算の結了等,,,2015-10-05,1,,,,,ミュージシャンスワホンシャ,0
836,4140002020714,登記記録の閉鎖等,0,2023-03-29,2023-03-27,有限会社サテスタドットコム,,有限会社,兵庫県,神戸市中央区,御幸通３丁目２番１４号,,28,110,6510087,,,2023-03-27,清算の結了等,,,2015-10-05,1,,,,,サテスタドットコム,0
844,4170002005844,登記記録の閉鎖等,0,2023-03-29,2023-03-22,有限会社ジェイ商会,,有限会社,和歌山県,和歌山市,向４４番地の６,,30,201,6408431,,,2023-03-22,清算の結了等,,,2015-10-05,1,,,,,ジェイショウカイ,0
847,4180001009424,登記記録の閉鎖等,0,2023-03-29,2023-03-22,丸の内プランナー株式会社,,株式会社,愛知県,名古屋市瑞穂区,十六町２丁目６８番地,,23,108,4670015,,,2023-03-22,清算の結了等,,,2015-10-05,1,,,,,マルノウチプランナー,0
851,4180001137852,登記記録の閉鎖等,0,2023-03-29,2023-03-27,株式会社ＴＤメディカル,,株式会社,三重県,四日市市,あかつき台２丁目１番地２０,,24,202,5128046,,,2023-03-27,清算の結了等,,,2019-08-26,1,,,,,ティーディメディカル,0
902,4390001004305,登記記録の閉鎖等,0,2023-03-29,2023-03-24,株式会社エムエスデー,,株式会社,山形県,天童市,清池東１丁目１番６号,,06,210,9940069,,,2023-03-24,清算の結了等,,,2015-10-05,1,,,,,エムエスデー,0
904,4400002010110,登記記録の閉鎖等,0,2023-03-29,2023-03-23,有限会社ＤＡＩＳＡＮ,,有限会社,岩手県,北上市,相去町山根梨の木１０番地,,03,206,0240051,,,2023-03-23,清算の結了等,,,2015-10-05,1,,,,,ダイサン,0
905,4400003002049,登記記録の閉鎖等,0,2023-03-29,2023-03-23,合同会社ホットジャパンズ,,合同会社,岩手県,盛岡市,浅岸２丁目２２番４５号,,03,201,0200801,,,2023-03-23,清算の結了等,,,2016-04-27,1,,,,,ホットジャパンズ,0
926,5010001043422,登記記録の閉鎖等,0,2023-03-29,2023-03-27,五興実業株式会社,,株式会社,東京都,中央区,京橋２丁目６番６号,,13,102,1040031,,,2023-03-27,清算の結了等,,,2015-10-05,1,,,,,ゴコウジツギョウ,0
936,5010401081690,登記記録の閉鎖等,0,2023-03-29,2023-03-15,株式会社ＰＳ,,株式会社,東京都,港区,芝２丁目９番１１号,,13,103,1050014,,,2023-03-15,清算の結了等,,,2015-10-05,1,,,,,ピーエス,0
949,5010405014705,登記記録の閉鎖等,0,2023-03-29,2023-03-13,一般社団法人ヤマトグループ総合研究所,,その他の設立登記法人,東京都,港区,港南２丁目１３番２６号,,13,103,1080075,,,2023-03-13,清算の結了等,,,2016-04-20,1,,,,,ヤマトグループソウゴウケンキュウジョ,0
966,5010903006402,登記記録の閉鎖等,0,2023-03-29,2023-03-27,ＴＲＡＮＳＦＥＲ　ＭＵＳＩＣ合同会社,,合同会社,東京都,世田谷区,玉川３丁目２０番２号マノア玉川第３ビル５０１号室,,13,112,1580094,,,2023-03-27,清算の結了等,,,2021-03-25,1,,,,,トランスファミュージック,0
978,5011105002891,登記記録の閉鎖等,0,2023-03-29,2023-03-20,特定非営利活動法人情報オリンピック日本委員会,,その他の設立登記法人,東京都,渋谷区,渋谷１丁目１０番７－３０１号,,13,113,1500002,,,2023-03-20,清算の結了等,,,2015-10-05,1,,,,,ジョウホウオリンピックニホンイインカイ,0
997,5020001034866,登記記録の閉鎖等,0,2023-03-29,2023-03-27,株式会社アイザック・ティ,,株式会社,神奈川県,横浜市栄区,小菅ケ谷２丁目３８番１３号,,14,115,2470007,,,2023-03-27,清算の結了等,,,2015-10-05,1,,,,,アイザックティ,0
1016,5030001070902,登記記録の閉鎖等,0,2023-03-29,2023-03-23,株式会社大映社,,株式会社,埼玉県,東松山市,神明町１丁目１６番３号,,11,212,3550021,,,2023-03-23,清算の結了等,,,2015-10-05,1,,,,,ダイエイシャ,0
1019,5030001110550,登記記録の閉鎖等,0,2023-03-29,2023-03-27,光勇建設株式会社,,株式会社,埼玉県,越谷市,東越谷１０丁目１７番地６セイバリースクエア２０３,,11,222,3430023,,,2023-03-27,清算の結了等,,,2015-10-05,1,,,,,コウユウケンセツ,0
1044,5080101023152,登記記録の閉鎖等,0,2023-03-29,2023-03-27,エム株式会社,,株式会社,静岡県,沼津市,神田町６番３‐２号ベラカーサ神田Ｉ‐２０１,00125968,22,203,4100042,,,2023-03-27,清算の結了等,,,2022-03-15,1,,,,,エム,0
1064,5120001021490,登記記録の閉鎖等,0,2023-03-29,2023-03-27,福永金属工業株式会社,,株式会社,大阪府,大阪市平野区,加美東４丁目３番４７号,,27,126,5470002,,,2023-03-27,清算の結了等,,,2015-10-05,1,,,,,フクナガキンゾクコウギョウ,0
1066,5120001134771,登記記録の閉鎖等,0,2023-03-29,2023-03-27,フードット株式会社,,株式会社,兵庫県,伊丹市,中央４丁目４番８号エステートハヤシ３階,,28,207,6640851,,,2023-03-27,清算の結了等,,,2015-10-05,1,,,,,フードット,0
1078,5120002021060,登記記録の閉鎖等,0,2023-03-29,2023-03-27,有限会社淡路スクリユード,,有限会社,大阪府,大阪市西区,九条３丁目２番１８号,,27,106,5500027,,,2023-03-27,清算の結了等,,,2015-10-05,1,,,,,アワジスクリユード,0
1079,5120002021449,登記記録の閉鎖等,0,2023-03-29,2023-03-27,有限会社オネステック,,有限会社,大阪府,大阪市西区,京町堀２丁目１番１７号,,27,106,5500003,,,2023-03-27,清算の結了等,,,2015-10-05,1,,,,,オネステック,0
1102,5140001087646,登記記録の閉鎖等,0,2023-03-29,2023-03-27,株式会社Ｆ－ＭＩＸ．ＤＥＳＩＧＮ,,株式会社,兵庫県,神戸市北区,藤原台北町１丁目１番６号２階,,28,109,6511301,,,2023-03-27,清算の結了等,,,2015-10-05,1,,,,,エフミックスデザイン,0
1105,5140002036791,登記記録の閉鎖等,0,2023-03-29,2023-03-23,有限会社和光無線,,有限会社,兵庫県,加古川市,平岡町新在家３丁目２８５番地の１１,,28,210,6750101,,,2023-03-23,清算の結了等,,,2015-10-05,1,,,,,ワコウムセン,0
1111,5170001011421,登記記録の閉鎖等,0,2023-03-29,2023-03-27,紀南重機株式会社,,株式会社,和歌山県,新宮市,上本町１丁目１番地の９,,30,207,6470003,,,2023-03-27,清算の結了等,,,2015-10-05,1,,,,,キナンジュウキ,0
1126,5200002012217,登記記録の閉鎖等,0,2023-03-29,2023-03-27,有限会社アクアティック,,有限会社,岐阜県,大垣市,小野２丁目３０番地の２,,21,202,5030803,,,2023-03-27,清算の結了等,,,2015-10-05,1,,,,,アクアティック,0
1137,5250001008517,登記記録の閉鎖等,0,2023-03-29,2023-03-24,株式会社グラベス,,株式会社,山口県,周南市,土井１丁目１０番１１号,,35,215,7460011,,,2023-03-24,清算の結了等,,,2015-10-05,1,,,,,グラベス,0
1144,5290003006960,登記記録の閉鎖等,0,2023-03-29,2023-03-24,合同会社ソフィア,,合同会社,福岡県,福岡市東区,和白東４丁目６番１１号,,40,131,8110214,,,2023-03-24,清算の結了等,,,2017-01-16,1,,,,,ソフィア,0
1152,5330001022567,登記記録の閉鎖等,0,2023-03-29,2023-03-28,株式会社橙明,,株式会社,熊本県,宇城市,松橋町砂川１６１３番地６,,43,213,8690545,,,2023-03-28,清算の結了等,,,2016-03-03,1,,,,,トウア,0
1158,5350002000248,登記記録の閉鎖等,0,2023-03-29,2023-03-28,有限会社アートマップ宮崎,,有限会社,宮崎県,宮崎市,松橋１丁目１６番７号,,45,201,8800013,,,2023-03-28,清算の結了等,,,2015-10-05,1,,,,,アートマップミヤザキ,0
1185,5500001002337,登記記録の閉鎖等,0,2023-03-29,2023-03-28,株式会社清和興産,,株式会社,愛媛県,松山市,桑原３丁目１１番１１号,,38,201,7900911,,,2023-03-28,清算の結了等,,,2015-10-05,1,,,,,セイワコウサン,0
1198,6010001208008,登記記録の閉鎖等,0,2023-03-29,2023-03-23,株式会社ＫＷＯＲＫＳ,,株式会社,東京都,千代田区,神田佐久間町１丁目１６番１号大橋ビル６０１,,13,101,1010025,,,2023-03-23,清算の結了等,,,2020-03-06,1,,,,,ケーワークス,0
1212,6010403023046,登記記録の閉鎖等,0,2023-03-29,2023-03-17,ｃｒｅｅｆ合同会社,,合同会社,東京都,港区,北青山２丁目７－２０猪瀬ビル２Ｆ,,13,103,1070061,,,2023-03-17,清算の結了等,,,2020-06-01,1,,,,,クリーフ,0
1213,6010403029266,登記記録の閉鎖等,0,2023-03-29,2023-03-24,合同会社ＧＫ０６３,,合同会社,東京都,港区,虎ノ門３丁目２２番１０－２０１号,,13,103,1050001,,,2023-03-24,合併による解散等,1040003015429,令和５年３月１３日千葉市中央区富士見一丁目１４番１３号千葉大栄ビル８階第七日本ソーラー電力合同会社（1040003015429）に合併し解散,2023-01-13,1,,,,,ジーケイゼロシックススリー,0
1227,6010901022986,登記記録の閉鎖等,0,2023-03-29,2023-03-27,トレファルキエンジニアリング株式会社,,株式会社,東京都,世田谷区,池尻２丁目３７番１１号,,13,112,1540001,,,2023-03-27,清算の結了等,,,2015-10-05,1,,,,,トレファルキエンジニアリング,0
1250,6011802001699,登記記録の閉鎖等,0,2023-03-29,2023-03-27,有限会社オリエント,,有限会社,東京都,葛飾区,柴又５丁目１４番２１号１０４,,13,122,1250052,,,2023-03-27,清算の結了等,,,2015-10-05,1,,,,,オリエント,0
1262,6020001030245,登記記録の閉鎖等,0,2023-03-29,2023-03-23,株式会社グレース商事,,株式会社,神奈川県,横浜市保土ケ谷区,瀬戸ケ谷町１６６番地８,,14,106,2400024,,,2023-03-23,清算の結了等,,,2015-10-05,1,,,,,グレースショウジ,0
1263,6020001101203,登記記録の閉鎖等,0,2023-03-29,2023-03-27,株式会社ＴＹＡ,,株式会社,神奈川県,綾瀬市,深谷中４丁目６番２５号ピュアふじみ２０５,,14,218,2521107,,,2023-03-27,清算の結了等,,,2015-10-05,1,,,,,,0
1283,6040001069455,登記記録の閉鎖等,0,2023-03-29,2023-03-24,株式会社中山鉄工,,株式会社,千葉県,柏市,西柏台１丁目１９番１号,,12,217,2770886,,,2023-03-24,清算の結了等,,,2015-10-05,1,,,,,,0
1287,6040002015838,登記記録の閉鎖等,0,2023-03-29,2023-03-24,有限会社メディテック,,有限会社,千葉県,千葉市若葉区,みつわ台２丁目１番２０号,,12,104,2640032,,,2023-03-24,清算の結了等,,,2015-10-05,1,,,,,メディテック,0
1288,6040002020012,登記記録の閉鎖等,0,2023-03-29,2023-03-23,アイアンドジェイ・フィスナー有限会社,,有限会社,千葉県,船橋市,前貝塚町３７５番地１２,,12,204,2730042,,,2023-03-23,清算の結了等,,,2015-10-05,1,,,,,アイアンドジェイフィスナー,0
1299,6100002035045,登記記録の閉鎖等,0,2023-03-29,2023-03-27,有限会社ヤマコウスチール,,有限会社,長野県,上伊那郡箕輪町,大字中箕輪１７２９番地１,,20,383,3994601,,,2023-03-27,清算の結了等,,,2015-10-05,1,,,,,ヤマコウスチール,0
1301,6100005008460,登記記録の閉鎖等,0,2023-03-29,2023-03-27,特定非営利活動法人きのこの家,,その他の設立登記法人,長野県,岡谷市,御倉町２番２１号,,20,204,3940043,,,2023-03-27,清算の結了等,,,2015-10-05,1,,,,,キノコノイエ,0
1327,6140001053952,登記記録の閉鎖等,0,2023-03-29,2023-03-22,株式会社ＳＹ－ＦＯＲＥＳＴ,,株式会社,兵庫県,尼崎市,東園田町３丁目１２番地の４,,28,202,6610953,,,2023-03-22,合併による解散等,1140001048627,令和５年３月２１日兵庫県尼崎市椎堂一丁目３１番８号株式会社園田印刷（1140001048627）に合併し解散,2015-10-05,1,,,,,エスワイフォレスト,0
1329,6140001082885,登記記録の閉鎖等,0,2023-03-29,2023-03-27,乾建設株式会社,,株式会社,兵庫県,川辺郡猪名川町,林田字乾廻２０番地,,28,301,6660226,,,2023-03-27,清算の結了等,,,2015-10-05,1,,,,,イヌイケンセツ,0
1334,6140003014011,登記記録の閉鎖等,0,2023-03-29,2023-03-27,合同会社みらいＢＡＳＥ,,合同会社,兵庫県,西宮市,南越木岩町６－７－３０２,,28,204,6620075,,,2023-03-27,清算の結了等,,,2019-06-10,1,,,,,ミライベース,0
1344,6180002074481,登記記録の閉鎖等,0,2023-03-29,2023-03-23,株式会社冨士鍍金工業所,,株式会社,愛知県,犬山市,大字犬山字西馬場先１２番地の１,,23,215,4840081,,,2023-03-23,合併による解散等,5010401167911,令和５年３月１日東京都港区元赤坂一丁目１番８号株式会社赤坂国際会計内株式会社冨士鍍金工業所（5010401167911）に合併し解散,2015-10-05,1,,,,,フジメッキコウギョウショ,0
1346,6180005003719,登記記録の閉鎖等,0,2023-03-29,2023-03-17,名古屋七宝協同組合,,その他の設立登記法人,愛知県,名古屋市中区,栄３丁目２７番１７号,,23,106,4600008,,,2023-03-17,合併による解散等,6180005013759,令和５年３月１５日愛知県あま市七宝町遠島八幡島６９４番地尾張七宝協同組合（6180005013759）に合併し解散,2015-10-05,1,,,,,ナゴヤシッポウ,0
1360,6260002021062,登記記録の閉鎖等,0,2023-03-29,2023-03-27,有限会社宝樹堂,,有限会社,岡山県,倉敷市,有城６１６番地の１,,33,202,7100031,,,2023-03-27,清算の結了等,,,2015-10-05,1,,,,,ホウジュドウ,0
1379,6310003003855,登記記録の閉鎖等,0,2023-03-29,2023-03-28,貿通ジャパン合同会社,,合同会社,長崎県,佐世保市,島瀬町１０番５号,,42,202,8570806,,,2023-03-28,清算の結了等,,,2020-05-14,1,,,,,ボウツウジャパン,0
1399,6380001016596,登記記録の閉鎖等,0,2023-03-29,2023-03-27,富岡青果株式会社,,株式会社,福島県,双葉郡富岡町,中央２丁目１５番地,,07,543,9791112,,,2023-03-27,清算の結了等,,,2015-10-05,1,,,,,トミオカセイカ,0
1411,6440001006789,登記記録の閉鎖等,0,2023-03-29,2023-03-24,株式会社メイケン,,株式会社,北海道,函館市,桔梗５丁目３１番１７号,,01,202,0410808,,,2023-03-24,清算の結了等,,,2015-10-05,1,,,,,メイケン,0
1419,7010001026111,登記記録の閉鎖等,0,2023-03-29,2023-03-27,株式会社ネクサス,,株式会社,東京都,千代田区,九段南４丁目７番地２２,,13,101,1020074,,,2023-03-27,清算の結了等,,,2015-10-05,1,,,,,ネクサス,0
1426,7010001223848,登記記録の閉鎖等,0,2023-03-29,2023-03-23,株式会社キャット,,株式会社,東京都,中央区,銀座１丁目２２番１１号銀座大竹ビジデンス２階,,13,102,1040061,,,2023-03-23,清算の結了等,,,2022-01-20,1,,,,,キャット,0
1441,7010401159790,登記記録の閉鎖等,0,2023-03-29,2023-03-17,株式会社持続農業ラボラトリー,,株式会社,東京都,港区,港南１丁目６番４１号,,13,103,1080075,,,2023-03-17,清算の結了等,,,2021-04-23,1,,,,,ジゾクノウギョウラボラトリー,0
1448,7010701009134,登記記録の閉鎖等,0,2023-03-29,2023-03-27,増田商事株式会社,,株式会社,東京都,品川区,東五反田２丁目３番１０号,,13,109,1410022,,,2023-03-27,清算の結了等,,,2015-10-05,1,,,,,マスダショウジ,0
1456,7011001100005,登記記録の閉鎖等,0,2023-03-29,2023-03-27,株式会社ダブリュービージェー,,株式会社,東京都,港区,六本木６丁目１０番１号六本木ヒルズ森タワー３３階,,13,103,1060032,,,2023-03-27,清算の結了等,,,2015-10-05,1,,,,,ダブリュービージェー,0
1463,7011101050158,登記記録の閉鎖等,0,2023-03-29,2023-03-24,アドアメディカル株式会社,,株式会社,東京都,新宿区,西落合３丁目９番１９号,,13,104,1610031,,,2023-03-24,清算の結了等,,,2015-10-05,1,,,,,アドアメディカル,0
1472,7011501004523,登記記録の閉鎖等,0,2023-03-29,2023-03-22,三星製薬株式会社,,株式会社,東京都,北区,浮間２丁目９番２５号,,13,117,1150051,,,2023-03-22,清算の結了等,,,2022-09-21,1,,,,,サンセイセイヤク,0
1482,7012301008722,登記記録の閉鎖等,0,2023-03-29,2023-03-17,株式会社ＬＴＨ,,株式会社,東京都,港区,南青山２丁目２番１５号,,13,103,1070062,,,2023-03-17,清算の結了等,,,2015-10-05,1,,,,,エルティーエイチ,0
1489,7020001113453,登記記録の閉鎖等,0,2023-03-29,2023-03-24,株式会社Ｈ．Ｕ．Ｂ,,株式会社,神奈川県,横浜市瀬谷区,阿久和南４丁目８番地１阿久和アパート８－１０１,,14,114,2460026,,,2023-03-24,清算の結了等,,,2015-11-10,1,,,,,エイチユービー,0
1513,7030002011911,登記記録の閉鎖等,0,2023-03-29,2023-03-27,有限会社不動商事谷島,,有限会社,埼玉県,さいたま市西区,宮前町６２６番地,,11,101,3310046,,,2023-03-27,清算の結了等,,,2015-10-05,1,,,,,フドウショウジタニシマ,0
1516,7030003016125,登記記録の閉鎖等,0,2023-03-29,2023-03-24,和音クリエイティブ合同会社,,合同会社,埼玉県,加須市,伊賀袋１番地１,,11,210,3491215,,,2023-03-24,清算の結了等,,,2020-11-10,1,,,,,ワオンクリエイティブ,0
1525,7040002048408,登記記録の閉鎖等,0,2023-03-29,2023-03-23,有限会社フレイム,,有限会社,千葉県,松戸市,新松戸北１丁目１１番地の３,,12,207,2700032,,,2023-03-23,清算の結了等,,,2015-10-05,1,,,,,フレイム,0
1526,7040002052797,登記記録の閉鎖等,0,2023-03-29,2023-03-22,有限会社アセニール,,有限会社,千葉県,松戸市,常盤平陣屋前２番地の１７,,12,207,2702265,,,2023-03-22,清算の結了等,,,2015-10-05,1,,,,,アセニール,0
1534,7080005006879,登記記録の閉鎖等,0,2023-03-29,2023-03-27,一般社団法人すまいる・らいふ静岡,,その他の設立登記法人,静岡県,静岡市清水区,高橋１丁目４番８－３号,,22,103,4240041,,,2023-03-27,清算の結了等,,,2016-04-14,1,,,,,スマイルライフシズオカ,0
1537,7080403003313,登記記録の閉鎖等,0,2023-03-29,2023-03-28,株式会社ＡＭＡＴＳ,,株式会社,石川県,金沢市,利屋町６１番地,,17,201,9200101,,,2023-03-28,清算の結了等,,,2016-08-08,1,,,,,エーマット,0
1540,7110005012485,登記記録の閉鎖等,0,2023-03-29,2023-03-27,特定非営利活動法人夢ハウスけやきの家,,その他の設立登記法人,新潟県,長岡市,高町４丁目８５８番地３８６,,15,202,9400824,,,2023-03-27,清算の結了等,,,2015-10-05,1,,,,,ユメハウスケヤキノイエ,0
1569,7180001083499,登記記録の閉鎖等,0,2023-03-29,2023-03-22,ハイ・デザイン株式会社,,株式会社,愛知県,一宮市,天王２丁目３番２９号,,23,203,4910046,,,2023-03-22,清算の結了等,,,2015-10-05,1,,,,,ハイデザイン,0
1573,7180002088324,登記記録の閉鎖等,0,2023-03-29,2023-03-23,有限会社知多スチール,,有限会社,愛知県,知多市,にしの台１丁目１４１２番地,,23,224,4780055,,,2023-03-23,清算の結了等,,,2015-10-05,1,,,,,チタスチール,0
1597,7290001050975,登記記録の閉鎖等,0,2023-03-29,2023-03-27,株式会社サン．ノアール,,株式会社,福岡県,久留米市,中央町３１番１５号,,40,203,8300023,,,2023-03-27,清算の結了等,,,2015-10-05,1,,,,,サンノアール,0
1620,7360001025342,登記記録の閉鎖等,0,2023-03-29,2023-03-13,株式会社大翔,,株式会社,沖縄県,那覇市,泊２丁目１３番地の４,,47,201,9000012,,,2023-03-13,合併による解散等,7360002005574,令和５年３月１３日沖縄県那覇市泊二丁目１３番地の４株式会社大建不動産商事（7360002005574）に合併し解散,2019-03-05,1,,,,,ダイショウ,0
1631,7420005006084,登記記録の閉鎖等,0,2023-03-29,2023-03-24,一般社団法人青森県上北地方教育会,,その他の設立登記法人,青森県,上北郡七戸町,字舘野３２番地５８,,02,402,0392516,,,2023-03-24,清算の結了等,,,2015-10-05,1,,,,,アオモリケンカミキタチホウキョウイクカイ,0
1647,8010001172383,登記記録の閉鎖等,0,2023-03-29,2023-03-27,ＭｉｄｄｌｅＦｉｅｌｄ株式会社,,株式会社,東京都,品川区,西五反田３丁目１１番６号サンウエスト山手ビル４階,,13,109,1410031,,,2023-03-27,清算の結了等,,,2015-12-28,1,,,,,,0
1660,8010401143827,登記記録の閉鎖等,0,2023-03-29,2023-03-17,株式会社ミライトレーディング,,株式会社,東京都,港区,新橋５丁目１２番１１号天翔新橋５丁目ビル３階３０９号室,,13,103,1050004,,,2023-03-17,清算の結了等,,,2019-02-19,1,,,,,ミライトレーディング,0
1661,8010401159988,登記記録の閉鎖等,0,2023-03-29,2023-03-17,株式会社ＬＡＢＤＯＫＵ　ＪＡＰＡＮ,,株式会社,東京都,港区,芝大門１丁目１０番１１号芝大門センタービル１０Ｆ,,13,103,1050012,,,2023-03-17,清算の結了等,,,2021-05-14,1,,,,,レップドクジャパン,0
1664,8010501026031,登記記録の閉鎖等,0,2023-03-29,2023-03-28,寿プロダクション株式会社,,株式会社,東京都,台東区,根岸５丁目９番２２－２０７号,,13,106,1100003,,,2023-03-28,清算の結了等,,,2015-10-05,1,,,,,コトブキプロダクション,0
1665,8010501029595,登記記録の閉鎖等,0,2023-03-29,2023-03-27,株式会社Ｉ．Ｐ．Ｒ,,株式会社,東京都,台東区,上野７丁目１３番１０号,,13,106,1100005,,,2023-03-27,合併による解散等,3010501025970,令和５年３月２１日東京都台東区上野二丁目１２番１８号株式会社ＩＶアゴラ（3010501025970）に合併し解散,2015-10-05,1,,,,,アイピーアール,0
1681,8010905000417,登記記録の閉鎖等,0,2023-03-29,2023-03-23,天理教本竹晴分教会,,その他の設立登記法人,東京都,世田谷区,宇奈根２丁目２５番６号,,13,112,1570068,,,2023-03-23,合併による解散等,3010705000308,令和５年３月１７日東京都品川区大井二丁目５番１７号天理教本荏大教会（3010705000308）に合併し解散,2015-10-05,1,,,,,テンリキョウホンタケハルブンキョウカイ,0
1710,8013305000276,登記記録の閉鎖等,0,2023-03-29,2023-03-23,天理教本臺分教會,00060148,その他の設立登記法人,東京都,豊島区,西池袋４丁目４番２０号,,13,116,1710021,,,2023-03-23,合併による解散等,3010705000308,令和５年３月１７日東京都品川区大井二丁目５番１７号天理教本荏大教会（3010705000308）に合併し解散,2015-10-05,1,,,,,,0
1713,8020001082004,登記記録の閉鎖等,0,2023-03-29,2023-03-23,ネルフ株式会社,,株式会社,神奈川県,横浜市都筑区,大棚町６０４番地,,14,118,2240027,,,2023-03-23,清算の結了等,,,2015-10-05,1,,,,,ネルフ,0
1717,8020001135174,登記記録の閉鎖等,0,2023-03-29,2023-03-24,シリコーンゴム工業株式会社,,株式会社,神奈川県,横浜市鶴見区,寺谷１丁目９番８号,,14,101,2300015,,,2023-03-24,清算の結了等,,,2020-03-04,1,,,,,シリコーンゴムコウギョウ,0
1739,8030001102966,登記記録の閉鎖等,0,2023-03-29,2023-03-22,高坂商事株式会社,00015764,株式会社,埼玉県,入間郡毛呂山町,大字長瀬７１４番地３,,11,326,3500443,,,2023-03-22,清算の結了等,,,2015-10-05,1,,,,,コウサカショウジ,0
1754,8050003005307,登記記録の閉鎖等,0,2023-03-29,2023-03-23,合同会社ほにほへへ,,合同会社,茨城県,常陸太田市,馬場町５８２番地１,,08,212,3130004,,,2023-03-23,清算の結了等,,,2020-08-03,1,,,,,ホニホヘヘ,0
1756,8070001034322,登記記録の閉鎖等,0,2023-03-29,2023-03-27,ＳＣＡＡＡＩ株式会社,,株式会社,群馬県,前橋市,粕川町込皆戸４１３番地２,,10,201,3710216,,,2023-03-27,清算の結了等,,,2018-01-17,1,,,,,,0
1770,8100002001714,登記記録の閉鎖等,0,2023-03-29,2023-03-27,有限会社光陽,,有限会社,長野県,長野市,篠ノ井布施五明６８番地,,20,201,3888011,,,2023-03-27,清算の結了等,,,2015-10-05,1,,,,,コウヨウ,0
1772,8100003003197,登記記録の閉鎖等,0,2023-03-29,2023-03-22,合同会社もやい,,合同会社,長野県,塩尻市,大字贄川２３４７番地４,,20,215,3996301,,,2023-03-22,清算の結了等,,,2015-10-05,1,,,,,モヤイ,0
1794,8120901009186,登記記録の閉鎖等,0,2023-03-29,2023-03-27,株式会社かずや,,株式会社,大阪府,摂津市,正雀本町１丁目２８番２号,,27,224,5660024,,,2023-03-27,清算の結了等,,,2015-10-05,1,,,,,カズヤ,0
1818,8190001011409,登記記録の閉鎖等,0,2023-03-29,2023-03-27,オフシ産業株式会社,,株式会社,三重県,松阪市,上川町２７３９番地７５,,24,204,5150041,,,2023-03-27,清算の結了等,,,2015-10-05,1,,,,,オフシサンギョウ,0
1821,8190003001795,登記記録の閉鎖等,0,2023-03-29,2023-03-20,ａｉサポート経営合同会社,,合同会社,三重県,四日市市,城西町１３番２８号第２大誠ビル,,24,202,5100829,,,2023-03-20,清算の結了等,,,2015-10-05,1,,,,,アイサポートケイエイ,0
1840,8330001023843,登記記録の閉鎖等,0,2023-03-29,2023-03-23,ドローンユナイテッド株式会社,,株式会社,東京都,千代田区,神田富山町１－３,,13,101,1010043,,,2023-03-23,清算の結了等,,,2017-03-16,1,,,,,ドローンユナイテッド,0
1841,8330003005187,登記記録の閉鎖等,0,2023-03-29,2023-03-28,合同会社Ｓ＆Ｔ　ＰＲＯＤＵＣＴＩＯＮ,,合同会社,熊本県,荒尾市,東屋形１丁目５番地５,,43,204,8640042,,,2023-03-28,清算の結了等,,,2015-10-05,1,,,,,,0
1869,9010001172952,登記記録の閉鎖等,0,2023-03-29,2023-03-24,株式会社ソリティアソリューションズ,,株式会社,東京都,中央区,銀座１丁目３番３号Ｇ１ビル７階,,13,102,1040061,,,2023-03-24,清算の結了等,,,2016-01-25,1,,,,,ソリティアソリューションズ,0
1873,9010005032616,登記記録の閉鎖等,0,2023-03-29,2023-03-27,一般社団法人鈴鹿ホールディングス,,その他の設立登記法人,東京都,中央区,日本橋１丁目４番１号日本橋一丁目ビルディング,,13,102,1030027,,,2023-03-27,清算の結了等,,,2020-11-27,1,,,,,スズカホールディングス,0
1878,9010401096933,登記記録の閉鎖等,0,2023-03-29,2023-02-28,株式会社ファド,,株式会社,東京都,港区,虎ノ門１丁目２３番１－４３０７号,,13,103,1050001,,,2023-02-28,合併による解散等,1010401094878,令和５年２月２８日東京都港区虎ノ門一丁目２３番２－４３０７号株式会社ベルビス（1010401094878）に合併し解散,2015-10-05,1,,,,,ファド,0
1898,9010802004288,登記記録の閉鎖等,0,2023-03-29,2023-03-20,有限会社九健堂,,有限会社,東京都,大田区,東矢口２丁目１４番１８号,,13,111,1460094,,,2023-03-20,清算の結了等,,,2015-10-05,1,,,,,キュウケンドウ,0
1901,9010901025672,登記記録の閉鎖等,0,2023-03-29,2023-03-27,株式会社たまか,,株式会社,東京都,新宿区,新宿５丁目１８番２１号,,13,104,1600022,,,2023-03-27,清算の結了等,,,2015-10-05,1,,,,,タマカ,0
1928,9013301037560,登記記録の閉鎖等,0,2023-03-29,2023-03-27,株式会社私教育総研,,株式会社,東京都,新宿区,西新宿２丁目３番１号新宿モノリス１８Ｆ,,13,104,1600023,,,2023-03-27,清算の結了等,,,2015-10-05,1,,,,,シキョウイクソウケン,0
1943,9020005014943,登記記録の閉鎖等,0,2023-03-29,2023-03-27,一般社団法人居住支援アドバイザー協会,,その他の設立登記法人,神奈川県,横浜市保土ケ谷区,宮田町１丁目８番地１川元ビル１階,,14,106,2400002,,,2023-03-27,清算の結了等,,,2021-01-20,1,,,,,キョジュウシエンアドバイザーキョウカイ,0
1952,9021002030438,登記記録の閉鎖等,0,2023-03-29,2023-03-24,有限会社青木技術経営事務所,,有限会社,神奈川県,厚木市,長谷１３９３番地の１５,,14,212,2430036,,,2023-03-24,清算の結了等,,,2015-10-05,1,,,,,アオキギジュツケイエイジムショ,0
1972,9050005008901,登記記録の閉鎖等,0,2023-03-29,2023-03-23,天理教本相馬分教会,,その他の設立登記法人,茨城県,取手市,谷中相橋５９９番地の１,,08,217,3001532,,,2023-03-23,合併による解散等,3010705000308,令和５年３月１７日東京都品川区大井二丁目５番１７号天理教本荏大教会（3010705000308）に合併し解散,2015-10-05,1,,,,,テンリキョウホンソウマブンキョウカイ,0
1988,9120001246712,登記記録の閉鎖等,0,2023-03-29,2023-03-27,錦＿株式会社,00126945,株式会社,大阪府,大阪市生野区,巽北１丁目１番１号３Ｆ－Ａ,,27,116,5440004,,,2023-03-27,清算の結了等,,,2022-06-21,1,,,,,キンシン,0
2003,9140001028729,登記記録の閉鎖等,0,2023-03-29,2023-03-27,ＭＣ管理株式会社,,株式会社,兵庫県,神戸市中央区,北野町３丁目１番６号,,28,110,6500002,,,2023-03-27,清算の結了等,,,2015-10-05,1,,,,,エムシーカンリ,0
2015,9180302019183,登記記録の閉鎖等,0,2023-03-29,2023-03-22,有限会社愛知屋総本店,,有限会社,愛知県,知立市,弘栄１丁目２０番地,,23,225,4720034,,,2023-03-22,清算の結了等,,,2015-10-05,1,,,,,アイチヤソウホンテン,0
2037,9290005015691,登記記録の閉鎖等,0,2023-03-29,2023-03-24,一般社団法人Ａｌｌ　ｏｎｅ　Ｆｕｔｕｒｅ,,その他の設立登記法人,福岡県,福岡市東区,八田２丁目１６番２８－１０２号,,40,131,8130031,,,2023-03-24,清算の結了等,,,2015-11-20,1,,,,,オールワンフューチャー,0
2051,9370003005249,登記記録の閉鎖等,0,2023-03-29,2023-03-29,合同会社サイズフィールド,,合同会社,宮城県,仙台市太白区,東大野田５番２２号,,04,104,9820004,,,2023-03-29,清算の結了等,,,2021-05-18,1,,,,,サイズフィールド,0
2058,9390005000667,登記記録の閉鎖等,0,2023-03-29,2023-03-24,山形県家具工業組合,,その他の設立登記法人,山形県,天童市,乱川１丁目３番１０号,,06,210,9940002,,,2023-03-24,清算の結了等,,,2015-10-05,1,,,,,ヤマガタケンカグ,0
2061,9402701000551,登記記録の閉鎖等,0,2023-03-29,2023-03-24,なつかしい未来創造株式会社,,株式会社,岩手県,陸前高田市,竹駒町字相川７４番地１,,03,210,0292203,,,2023-03-24,清算の結了等,,,2015-10-05,1,,,,,ナツカシイミライソウゾウ,0
2069,9430002061633,登記記録の閉鎖等,0,2023-03-29,2023-03-24,有限会社出羽牧場,,有限会社,北海道,日高郡新ひだか町,東静内２４４番地,,01,610,0592561,,,2023-03-24,清算の結了等,,,2015-10-05,1,,,,,デワボクジョウ,0
