sequenceNumber,corporateNumber,process,correct,updateDate,changeDate,name,nameImageId,kind,prefectureName,cityName,streetNumber,addressImageId,prefectureCode,cityCode,postCode,addressOutside,addressOutsideImageId,closeDate,closeCause,successorCorporateNumber,changeCause,assignmentDate,latest,enName,enPrefectureName,enCityName,enAddressOutside,furigana,hihyoji
9,1010001231278,新規,0,2022-12-12,2022-12-12,株式会社イチトニ,,株式会社,東京都,中央区,銀座１丁目２２番１号,,13,102,1040061,,,,,,,2022-12-12,1,,,,,イチトニ,0
11,1010003039298,新規,0,2022-12-12,2022-12-12,サンフェニックス清算合同会社,,合同会社,東京都,千代田区,大手町１丁目８番１号ＫＤＤＩ大手町ビル１９階,,13,101,1000004,,,,,,,2022-12-12,1,,,,,サンフェニックスセイサン,0
12,1010103002040,新規,0,2022-12-12,2022-12-12,ＬＢＡ　ＧＲＯＵＰ合同会社,,合同会社,東京都,八王子市,台町４丁目４６－７綜和ビル,,13,201,1930931,,,,,,,2022-12-12,1,,,,,エルビーエーグループ,0
21,1010403029114,新規,0,2022-12-12,2022-12-12,Ｌｅｔｏ合同会社,,合同会社,東京都,港区,浜松町２丁目２番１５号浜松町ダイヤビル２Ｆ,,13,103,1050013,,,,,,,2022-12-12,1,,,,,レト,0
26,1010603009898,新規,0,2022-12-12,2022-12-12,ＳＹＲＵＳ合同会社,,合同会社,東京都,江東区,猿江２丁目１６番２３－７１４号,,13,108,1350003,,,,,,,2022-12-12,1,,,,,サイラス,0
35,1011001151425,新規,0,2022-12-12,2022-12-12,株式会社日本美容,,株式会社,東京都,渋谷区,恵比寿西１丁目３６番２号,,13,113,1500021,,,,,,,2022-12-12,1,,,,,ニホンビヨウ,0
39,1011003015883,新規,0,2022-12-12,2022-12-12,ＨＲＩ合同会社,,合同会社,東京都,渋谷区,初台１丁目４９番２ー１３０３号,,13,113,1510061,,,,,,,2022-12-12,1,,,,,エイチアールアイ,0
43,1011101101107,新規,0,2022-12-12,2022-12-12,株式会社ＭＡＹＡビジネスソリューションズ,,株式会社,東京都,新宿区,西新宿２丁目６番１号,,13,104,1600023,,,,,,,2022-12-12,1,,,,,マヤビジネスソリューションズ,0
44,1011101101131,新規,0,2022-12-12,2022-12-12,ＧｉＪ株式会社,,株式会社,東京都,新宿区,百人町２丁目７－１－１００３,,13,104,1690073,,,,,,,2022-12-12,1,,,,,ジーアイジェー,0
49,1011601026431,新規,0,2022-12-12,2022-12-12,株式会社ソルナウ,,株式会社,東京都,練馬区,上石神井３丁目２５番９号ライフピアカーネル１０５,,13,120,1770044,,,,,,,2022-12-12,1,,,,,ソルナウ,0
68,1013301050050,新規,0,2022-12-12,2022-12-12,ＩｎＨｏｕｓｅ商事株式会社,,株式会社,東京都,豊島区,東池袋１丁目３１番１０号ドミール池袋９０７,,13,116,1700013,,,,,,,2022-12-12,1,,,,,インハウスショウジ,0
71,1013303006406,新規,0,2022-12-12,2022-12-12,亜東合同会社,,合同会社,東京都,豊島区,北大塚１丁目１９－１２,,13,116,1700004,,,,,,,2022-12-12,1,,,,,アトウ,0
75,1020001149346,新規,0,2022-12-12,2022-12-12,株式会社グレイスヴィジョン,,株式会社,神奈川県,川崎市高津区,二子３丁目６－１イトーピア二子多摩川レジデンス７０２,,14,134,2130002,,,,,,,2022-12-12,1,,,,,グレイスヴィジョン,0
76,1020001149379,新規,0,2022-12-12,2022-12-12,株式会社アプロディーテ,,株式会社,神奈川県,横浜市中区,不老町１丁目６－１０苗場ビル４１０号室,,14,104,2310032,,,,,,,2022-12-12,1,,,,,アプロディーテ,0
80,1020003022872,新規,0,2022-12-12,2022-12-12,永楽貿易合同会社,,合同会社,神奈川県,川崎市中原区,小杉御殿町１丁目９０４,,14,133,2110068,,,,,,,2022-12-12,1,,,,,,0
95,1030001151391,新規,0,2022-12-12,2022-12-12,株式会社瑞祺商事,,株式会社,埼玉県,行田市,緑町７－３９,,11,206,3610031,,,,,,,2022-12-12,1,,,,,ミズキショウジ,0
98,1030003020719,新規,0,2022-12-12,2022-12-12,ＭＩＡＮ合同会社,,合同会社,埼玉県,朝霞市,西弁財１丁目１０番１６号,,11,227,3510021,,,,,,,2022-12-12,1,,,,,ミイアン,0
99,1030003020727,新規,0,2022-12-12,2022-12-12,合同会社スネッケ,,合同会社,埼玉県,朝霞市,幸町１丁目５－７リエート１０５,,11,227,3510015,,,,,,,2022-12-12,1,,,,,スネッケ,0
119,1050001052084,新規,0,2022-12-12,2022-12-12,株式会社ＫＯＨＡＫＵ,,株式会社,茨城県,水戸市,南町３丁目６－２７千代美ビル１階,,08,201,3100021,,,,,,,2022-12-12,1,,,,,コハク,0
123,1060001035518,新規,0,2022-12-12,2022-12-12,ライフテック株式会社,,株式会社,栃木県,下都賀郡壬生町,本丸２丁目８番１０号,,09,361,3210225,,,,,,,2022-12-12,1,,,,,ライフテック,0
124,1060003004330,新規,0,2022-12-12,2022-12-12,合同会社Ｄｅｓｔｉｎａｔｉｏｎ　Ｊａｐａｎ,,合同会社,栃木県,小山市,大字小山２６７９－１,,09,208,3230825,,,,,,,2022-12-12,1,,,,,デスティネーションジャパン,0
125,1060003004339,新規,0,2022-12-12,2022-12-12,合同会社ｍｉｎｏｒｕ,,合同会社,栃木県,那須塩原市,大原間西１丁目１３番地１３ラヴィータ１０４号,,09,213,3293157,,,,,,,2022-12-12,1,,,,,ミノル,0
128,1070001039897,新規,0,2022-12-12,2022-12-12,株式会社ＦＰエージェンシー,,株式会社,群馬県,前橋市,昭和町１丁目３番５号,,10,201,3710034,,,,,,,2022-12-12,1,,,,,エフピーエージェンシー,0
146,1120001250977,新規,0,2022-12-12,2022-12-12,株式会社リレーションシップファーム,,株式会社,大阪府,大阪市北区,樋之口町１番２０－４３１２号,,27,127,5300032,,,,,,,2022-12-12,1,,,,,リレーションシップファーム,0
157,1120005023339,新規,0,2022-12-12,2022-12-12,一般社団法人ＳＳＢ,,その他の設立登記法人,大阪府,大阪市中央区,南本町２丁目１番１１号,,27,128,5410054,,,,,,,2022-12-12,1,,,,,エスエスビー,0
159,1120101066646,新規,0,2022-12-12,2022-12-12,ＹＯＧＩＴＡ株式会社,,株式会社,大阪府,富田林市,喜志町１丁目８番３３号福田文化１７,,27,214,5840005,,,,,,,2022-12-12,1,,,,,ヨギタ,0
165,1120903004407,新規,0,2022-12-12,2022-12-12,合同会社ＩＳＭ,,合同会社,大阪府,摂津市,東別府３丁目１番１１号,,27,224,5660042,,,,,,,2022-12-12,1,,,,,イズム,0
170,1130001073270,新規,0,2022-12-12,2022-12-12,株式会社ＬＥＡＭ,,株式会社,京都府,京都市下京区,玉津島町２９４－５Ｆ,,26,106,6008427,,,,,,,2022-12-12,1,,,,,リーム,0
173,1130005016647,新規,0,2022-12-12,2022-12-12,医療法人甘夏会,,その他の設立登記法人,京都府,京都市下京区,四条通堀川西入唐津屋町５１７番地２ヴァン四条大宮１Ｆ,,26,106,6008499,,,,,,,2022-12-12,1,,,,,アマナツカイ,0
175,1140001128148,新規,0,2022-12-12,2022-12-12,株式会社彩り,,株式会社,兵庫県,西宮市,山口町下山口５丁目１６番１２号３階,,28,204,6511412,,,,,,,2022-12-12,1,,,,,イロドリ,0
176,1140001128346,新規,0,2022-12-12,2022-12-12,株式会社ひふさ,,株式会社,兵庫県,神戸市東灘区,魚崎南町７丁目１２番１－１号,,28,101,6580025,,,,,,,2022-12-12,1,,,,,ヒフサ,0
196,1180001153984,新規,0,2022-12-12,2022-12-12,株式会社ＣＬＯＶＥＲ　ＬＩＦＥ,,株式会社,愛知県,清須市,助七２丁目４８番地１５,,23,233,4520903,,,,,,,2022-12-12,1,,,,,クローバーライフ,0
197,1180001154090,新規,0,2022-12-12,2022-12-12,株式会社笑笑音,,株式会社,愛知県,名古屋市中区,栄４丁目６番１９号,,23,106,4600008,,,,,,,2022-12-12,1,,,,,エエネ,0
198,1180001154157,新規,0,2022-12-12,2022-12-12,株式会社一澄,,株式会社,愛知県,あま市,篠田西鳥５番地１５,,23,237,4901211,,,,,,,2022-12-12,1,,,,,イチスミ,0
199,1180001154165,新規,0,2022-12-12,2022-12-12,明誠リフォーム株式会社,,株式会社,愛知県,長久手市,五合池７１１番地ハンズコート１０２号,,23,238,4801156,,,,,,,2022-12-12,1,,,,,メイセイリフォーム,0
204,1180003024589,新規,0,2022-12-12,2022-12-12,合同会社Ｒｏｏｔｓ,,合同会社,愛知県,名古屋市中区,栄３丁目１５－３３栄ガスビル１３Ｆ,,23,106,4600008,,,,,,,2022-12-12,1,,,,,ルーツ,0
208,1190001030010,新規,0,2022-12-12,2022-12-12,株式会社ｃｓａ,,株式会社,三重県,名張市,桔梗が丘１番町六街区２１番地,,24,208,5180621,,,,,,,2022-12-12,1,,,,,シーエスエー,0
215,1220001025171,新規,0,2022-12-12,2022-12-12,株式会社ｂｅｎｃｏｔｔａ,,株式会社,石川県,鳳珠郡能登町,字大箱子部１０１番地,,17,463,9280335,,,,,,,2022-12-12,1,,,,,ベンコッタ,0
216,1220003003407,新規,0,2022-12-12,2022-12-12,ｄｉａｍｏｎｄ　ｃｏｎｃｅｐｔ合同会社,,合同会社,石川県,河北郡津幡町,字横浜ヘ５１番地,,17,361,9290341,,,,,,,2022-12-12,1,,,,,ダイヤモンドコンセプト,0
221,1250005008789,新規,0,2022-12-12,2022-12-12,一般社団法人やまぐち共創大学コンソーシアム,,その他の設立登記法人,山口県,山口市,吉田１６７７番地１,,35,203,7530841,,,,,,,2022-12-12,1,,,,,ヤマグチキョウソウダイガクコンソーシアム,0
230,1290003013275,新規,0,2022-12-12,2022-12-12,あかつき自動車合同会社,,合同会社,福岡県,古賀市,美明１丁目２４－２３,,40,223,8113107,,,,,,,2022-12-12,1,,,,,アカツキジドウシャ,0
231,1290003013300,新規,0,2022-12-12,2022-12-12,ｋｋｓ合同会社,,合同会社,福岡県,福岡市博多区,中洲２丁目４番２０号第２１ポールスタービル２階,,40,132,8100801,,,,,,,2022-12-12,1,,,,,ケイケイエス,0
239,1330001030375,新規,0,2022-12-12,2022-12-12,株式会社ＳＨＡＬＯＭ,,株式会社,熊本県,熊本市西区,上熊本２丁目７番３７号,,43,103,8600079,,,,,,,2022-12-12,1,,,,,シャローム,0
241,1360001031305,新規,0,2022-12-12,2022-12-12,株式会社宮古島キャンパス学生寮,,株式会社,沖縄県,宮古島市,城辺字福里３７７番地１,,47,214,9060103,,,,,,,2022-12-12,1,,,,,ミヤコジマキャンパスガクセイリョウ,0
242,1370001049362,新規,0,2022-12-12,2022-12-12,株式会社ＪＰステート,,株式会社,宮城県,栗原市,築館字上高森４９番地４,00128749,04,213,9872246,,,,,,,2022-12-12,1,,,,,ジェイピーステート,0
246,1380001033324,新規,0,2022-12-12,2022-12-12,株式会社Ａｌｔ,,株式会社,福島県,いわき市,小名浜大原字曲淵５０－２５,,07,204,9718111,,,,,,,2022-12-12,1,,,,,オルト,0
248,1390001017094,新規,0,2022-12-12,2022-12-12,リブ株式会社,,株式会社,山形県,酒田市,上安町３丁目３番地の１６,,06,204,9980011,,,,,,,2022-12-12,1,,,,,リブ,0
266,1430001088032,新規,0,2022-12-12,2022-12-12,株式会社ざとう鯨,,株式会社,北海道,札幌市厚別区,厚別西四条２丁目５番１８号,,01,108,0040064,,,,,,,2022-12-12,1,,,,,ザトウクジラ,0
269,1440001009202,新規,0,2022-12-12,2022-12-12,株式会社いのうえ,,株式会社,北海道,函館市,榎本町１７番３４号,,01,202,0420931,,,,,,,2022-12-12,1,,,,,イノウエ,0
273,1450001013855,新規,0,2022-12-12,2022-12-12,株式会社ＭＯＲＩＹＡ,,株式会社,北海道,旭川市,東旭川町日ノ出２８４番地,,01,204,0788203,,,,,,,2022-12-12,1,,,,,モリヤ,0
285,2010001231434,新規,0,2022-12-12,2022-12-12,株式会社Ｖｅｒｓｉａ　Ｐａｒｔｎｅｒｓ,,株式会社,東京都,中央区,日本橋２丁目２番３号ＲＩＳＨＥビルＵＣＦ４階,,13,102,1030027,,,,,,,2022-12-12,1,,,,,ヴェルシアパートナーズ,0
286,2010001231509,新規,0,2022-12-12,2022-12-12,株式会社Ｒｅ．Ｙｏｕ,,株式会社,東京都,中央区,銀座４丁目１０－１４ＡＣＮ銀座４ビルディング１０－１１Ｆ,,13,102,1040061,,,,,,,2022-12-12,1,,,,,リユウ,0
296,2010401171288,新規,0,2022-12-12,2022-12-12,アーバンアカウンティング株式会社,,株式会社,東京都,港区,六本木５丁目１３番１２号,,13,103,1060032,,,,,,,2022-12-12,1,,,,,アーバンアカウンティング,0
298,2010601062279,新規,0,2022-12-12,2022-12-12,株式会社Ｄｅｆｉ,,株式会社,東京都,墨田区,太平４丁目１番１－２６０１号Ｂｒｉｌｌｉａタワー東京,,13,107,1300012,,,,,,,2022-12-12,1,,,,,デェフィ,0
305,2011001151168,新規,0,2022-12-12,2022-12-12,株式会社アクシスピークス,,株式会社,東京都,渋谷区,渋谷３丁目１３－５,,13,113,1500002,,,,,,,2022-12-12,1,,,,,アクシスピークス,0
306,2011001151374,新規,0,2022-12-12,2022-12-12,株式会社義興記,,株式会社,東京都,目黒区,上目黒４丁目３０番２号ユースフル祐天寺第２－１１２号室,,13,110,1530051,,,,,,,2022-12-12,1,,,,,ギコウキ,0
307,2011001151382,新規,0,2022-12-12,2022-12-12,株式会社ドットビート,,株式会社,東京都,渋谷区,東２丁目１７番６号イーストリーヴス２０２,,13,113,1500011,,,,,,,2022-12-12,1,,,,,ドットビート,0
308,2011001151424,新規,0,2022-12-12,2022-12-12,株式会社ＭＥＩＭＯＮ,,株式会社,東京都,渋谷区,道玄坂１丁目１０番８号渋谷道玄坂東急ビル２Ｆ－Ｃ,,13,113,1500043,,,,,,,2022-12-12,1,,,,,メイモン,0
310,2011003015899,新規,0,2022-12-12,2022-12-12,ＢＯＮＤ　ＡＸＩＳ合同会社,,合同会社,東京都,目黒区,上目黒３丁目１番１０号ヴェルデナポリ２０３,,13,110,1530051,,,,,,,2022-12-12,1,,,,,ボンドアクシス,0
313,2011101101114,新規,0,2022-12-12,2022-12-12,株式会社ＧＬＯＢＡＬ　ＳＷＥＳＴ,,株式会社,東京都,新宿区,大久保１丁目５番６号ラ・スヴニール２０３,,13,104,1690072,,,,,,,2022-12-12,1,,,,,グローバルスウェスト,0
323,2011601026430,新規,0,2022-12-12,2022-12-12,株式会社日本防犯研究所,,株式会社,東京都,練馬区,土支田２丁目３番１号,,13,120,1790076,,,,,,,2022-12-12,1,,,,,ニホンボウハンケンキュウショ,0
326,2011801041667,新規,0,2022-12-12,2022-12-12,株式会社釜京,,株式会社,東京都,葛飾区,立石１丁目１５番１１号１階,,13,122,1240012,,,,,,,2022-12-12,1,,,,,カマミヤコ,0
337,2020001149345,新規,0,2022-12-12,2022-12-12,株式会社エンジェル,,株式会社,神奈川県,川崎市多摩区,登戸３１４１－４ドリームハウス登戸５－３０３号室,,14,135,2140014,,,,,,,2022-12-12,1,,,,,エンジェル,0
343,2020003022871,新規,0,2022-12-12,2022-12-12,サクラモンド合同会社,,合同会社,神奈川県,川崎市中原区,小杉御殿町１丁目９０４,,14,133,2110068,,,,,,,2022-12-12,1,,,,,サクラモンド,0
353,2021005012687,新規,0,2022-12-12,2022-12-12,医療法人社団開陽,,その他の設立登記法人,神奈川県,藤沢市,藤沢６１０番地の１サミットストア藤沢駅北口店２階３Ｄ区画,,14,205,2510052,,,,,,,2022-12-12,1,,,,,カイヨウ,0
359,2030001151390,新規,0,2022-12-12,2022-12-12,ＢＡＵＮＡ株式会社,,株式会社,埼玉県,川口市,飯塚１丁目２番１６号,,11,203,3320023,,,,,,,2022-12-12,1,,,,,バウナ,0
360,2030001151408,新規,0,2022-12-12,2022-12-12,株式会社さくら音楽教室,,株式会社,埼玉県,戸田市,下前２丁目７番１０号,,11,224,3350016,,,,,,,2022-12-12,1,,,,,サクラオンガクキョウシツ,0
369,2030003020701,新規,0,2022-12-12,2022-12-12,ＳＭ　ＩＮＴＥＲＮＡＴＩＯＮＡＬ　ＴＲＡＤＩＮＧ合同会社,,合同会社,埼玉県,蕨市,錦町２丁目２１番９号県営蕨錦町団地４０２号,,11,223,3350005,,,,,,,2022-12-12,1,,,,,エスエムインターナショナルトレーディング,0
370,2030003020726,新規,0,2022-12-12,2022-12-12,ルーディーズ合同会社,,合同会社,埼玉県,春日部市,中央１丁目１１番地２－２Ｆ,,11,214,3440067,,,,,,,2022-12-12,1,,,,,ルーディーズ,0
374,2040001126185,新規,0,2022-12-12,2022-12-12,ロケット不動産株式会社,,株式会社,千葉県,船橋市,習志野台１丁目３０－６,,12,204,2740063,,,,,,,2022-12-12,1,,,,,,0
377,2050001052075,新規,0,2022-12-12,2022-12-12,株式会社サンエイト企画,,株式会社,茨城県,つくばみらい市,絹の台１丁目４番地,,08,235,3002436,,,,,,,2022-12-12,1,,,,,サンエイトキカク,0
378,2050001052083,新規,0,2022-12-12,2022-12-12,株式会社ＢＲＩＧＨＴ,,株式会社,茨城県,土浦市,荒川沖西１丁目２番３号,,08,203,3000874,,,,,,,2022-12-12,1,,,,,ブライト,0
388,2080401026196,新規,0,2022-12-12,2022-12-12,株式会社オービス,,株式会社,静岡県,浜松市中区,曳馬４丁目１３番６６号,,22,131,4300901,,,,,,,2022-12-12,1,,,,,オービス,0
389,2090001017883,新規,0,2022-12-12,2022-12-12,株式会社プライマリケア,,株式会社,山梨県,甲斐市,長塚５７６番地１小野第一ヴィラＡ号棟,,19,210,4000125,,,,,,,2022-12-12,1,,,,,プライマリケア,0
404,2120001250968,新規,0,2022-12-12,2022-12-12,ＭＴ‐Ｐ株式会社,,株式会社,大阪府,大阪市平野区,長吉出戸３丁目３番３６号,,27,126,5470011,,,,,,,2022-12-12,1,,,,,エムティーピー,0
406,2120003022936,新規,0,2022-12-12,2022-12-12,合同会社ＷＩＮ‐ＪＡＰＡＮ,,合同会社,大阪府,大阪市西区,江之子島１丁目５－１２ユニハイム阿波座４０４,,27,106,5500006,,,,,,,2022-12-12,1,,,,,ウィンジャパン,0
407,2120003023059,新規,0,2022-12-12,2022-12-12,ＴＩＫＡ　ＧＬＯＢＡＬ合同会社,,合同会社,大阪府,大阪市淀川区,塚本２丁目１５番３－３０１号,,27,123,5320026,,,,,,,2022-12-12,1,,,,,ティカグローバル,0
411,2120901046838,新規,0,2022-12-12,2022-12-12,株式会社Ｅｌｆ　Ｃｏｒｐｏｒａｔｉｏｎ,,株式会社,大阪府,池田市,城南１丁目１番２９号,,27,204,5630025,,,,,,,2022-12-12,1,,,,,エルフコーポレーション,0
417,2130001073245,新規,0,2022-12-12,2022-12-12,景運貿易株式会社,,株式会社,京都府,京都市中京区,大宮通六角下る六角大宮町２０５番地デトム・ワン四条大宮３１２号室,,26,104,6048344,,,,,,,2022-12-12,1,,,,,ケイウンボウエキ,0
419,2130003008372,新規,0,2022-12-12,2022-12-12,Ｆｒａｇｒａｎｃｅ　Ｍａｒｉａｇｅ合同会社,,合同会社,京都府,京都市上京区,裏門通中立売下る高台院竪町２１０番地アーバンボート２１０－３１１,,26,102,6028267,,,,,,,2022-12-12,1,,,,,フラグランスマリアージュ,0
427,2140003018404,新規,0,2022-12-12,2022-12-12,合同会社Ｓａｎｅ,,合同会社,兵庫県,西宮市,甲子園口５丁目１０番２１号,,28,204,6638113,,,,,,,2022-12-12,1,,,,,サネ,0
428,2150001026011,新規,0,2022-12-12,2022-12-12,株式会社イズオカ,,株式会社,奈良県,北葛城郡王寺町,久度２丁目２１番１１－２０１号,,29,425,6360003,,,,,,,2022-12-12,1,,,,,イズオカ,0
437,2180001154148,新規,0,2022-12-12,2022-12-12,株式会社クロススクエア,,株式会社,愛知県,名古屋市中村区,野上町８９番地の１,,23,105,4530859,,,,,,,2022-12-12,1,,,,,クロススクエア,0
448,2220001025170,新規,0,2022-12-12,2022-12-12,株式会社ＬＡＺＯ,,株式会社,石川県,小松市,八幡ロ３７番地７,,17,203,9230833,,,,,,,2022-12-12,1,,,,,ラソ,0
452,2240001060769,新規,0,2022-12-12,2022-12-12,株式会社あおばメモリアル駅北会館,,株式会社,広島県,広島市西区,上天満町１０番２７号,,34,104,7330021,,,,,,,2022-12-12,1,,,,,アオバメモリアルエキキタカイカン,0
453,2240001060777,新規,0,2022-12-12,2022-12-12,株式会社Ｋｏｋｏ　Ｈａｌｅｌｅａ,,株式会社,広島県,呉市,東中央１丁目６番２４－２０２号,,34,202,7370052,,,,,,,2022-12-12,1,,,,,ココハレレア,0
464,2290001099844,新規,0,2022-12-12,2022-12-12,株式会社Ｒｅ‐Ｃｒｅａｔｅ,,株式会社,福岡県,福岡市中央区,舞鶴３丁目６番２３－１１０２号,,40,133,8100073,,,,,,,2022-12-12,1,,,,,リクリエイト,0
465,2290003013299,新規,0,2022-12-12,2022-12-12,合同会社Ｌｉｖｅ,,合同会社,福岡県,福岡市中央区,清川１丁目９番２０－１２０３号,,40,133,8100005,,,,,,,2022-12-12,1,,,,,ライブ,0
472,2330003009615,新規,0,2022-12-12,2022-12-12,合同会社カヨウカンパニー,,合同会社,熊本県,熊本市北区,植木町岩野９７２番地６,,43,105,8610136,,,,,,,2022-12-12,1,,,,,カヨウカンパニー,0
479,2360003012541,新規,0,2022-12-12,2022-12-12,合同会社スカイリーフ,,合同会社,沖縄県,那覇市,前島３丁目２５番２号泊ポートビル１Ｆ,,47,201,9000016,,,,,,,2022-12-12,1,,,,,スカイリーフ,0
481,2370005010575,新規,0,2022-12-12,2022-12-12,医療法人こばやし整形外科クリニック,,その他の設立登記法人,宮城県,名取市,田高字原５９７名取メディカルモール１０２,,04,207,9811221,,,,,,,2022-12-12,1,,,,,コバヤシセイケイゲカクリニック,0
485,2380001033323,新規,0,2022-12-12,2022-12-12,株式会社矢吹農林,,株式会社,福島県,石川郡浅川町,大字大草字上塙３８番地,,07,504,9636214,,,,,,,2022-12-12,1,,,,,ヤブキノウリン,0
496,2430001088023,新規,0,2022-12-12,2022-12-12,株式会社ヒューマン・サクセス・カンパニー,,株式会社,北海道,苫小牧市,白金町２丁目１４番１０－４０１号,,01,213,0530801,,,,,,,2022-12-12,1,,,,,ヒューマンサクセスカンパニー,0
497,2440001009201,新規,0,2022-12-12,2022-12-12,株式会社高田屋商店,,株式会社,北海道,函館市,若松町９番２号,,01,202,0400063,,,,,,,2022-12-12,1,,,,,タカダヤショウテン,0
499,2480001011938,新規,0,2022-12-12,2022-12-12,株式会社西武ハウジングホールディングス,,株式会社,徳島県,板野郡藍住町,笠木字西野３９番地２８,,36,403,7711262,,,,,,,2022-12-12,1,,,,,セイブハウジングホールディングス,0
502,2700150007714,新規,0,2022-12-12,2015-10-09,日本溶接協会東京都第二支部,,その他,東京都,大田区,蒲田５丁目３２－６サワダビル２０２,,13,111,1440052,,,,,,,2015-10-09,1,,,,,ニホンヨウセツキヨウカイトウキヨウトダイニシブ,0
503,2700150112893,新規,0,2022-12-12,2022-11-15,ＳｍｏｋｅｙＬａｍｐＳｔｕｄｉｏｓ,,その他,東京都,渋谷区,渋谷１丁目１０－７Ｂ１（株式会社ＧＵＳＨ　ＯＵＴ内）,,13,113,1500002,,,,,,,2022-11-15,1,,,,,スモーキーランプスタジオ,0
504,2700150113339,新規,0,2022-12-12,2022-12-12,ｚｈｅｎｇ　ｚｈｏｕ　ｗｏ　ｘｉｎｇ　ｋｅ　ｊｉ　ｙｏｕ　ｘｉａｎ　ｇｏｎｇ　ｓｉ,,外国会社等,,,,,,,,Ｇｕａｎｃｈｅｎｇｑｕｄｏｎｇｄａｊｉｅ　１８５ｈａｏ　１ｈａｏｌｏｕ２ｄａｎｙｕａｎ４０２ｈａｏ，Ｚｈｅｎｇｚｈｏｕ　Ｈｅｎａｎ,,,,,,2022-12-12,1,,,,,テイシュウワギョウケイジユウシィアンゴンスー,0
505,2700150113347,新規,0,2022-12-12,2022-12-12,Ｓｈｅｎｚｈｅｎ　Ｚｈｏｎｇｙｉ　Ｈｕａｃｈｅｎｇ　Ｔｅｃｈｎｏｌｏｇｙ　Ｄｅｖｅｌｏｐｍｅｎｔ　Ｃｏ．，Ｌｔｄ,,外国会社等,,,,,,,,１５，０５３Ａ１５０５，Ｂｌｏｃｋ　Ａ，Ｂｕｉｌｄｉｎｇ　３，Ｍｉｎｇｃｕｉｙｕａｎ　Ｐｈａｓｅ　Ｉ，Ｌｉａｎｇ’ａｎｔｉａｎ　Ｃｏｍｍｕｎｉｔｙ，Ｐｉｎｇｈｕ　Ｓｔｒｅｅｔ，Ｌｏｎｇｇａｎｇ　Ｄｉｓｔｒｉｃｔ，Ｓｈｅｎｚｈｅｎ,00128759,,,,,2022-12-12,1,,,,,シエンチエンゾンイフアチエンテクノロジーデイヴエロツプメントカンパニーリミテツド,0
510,3010001231458,新規,0,2022-12-12,2022-12-12,蘭越風力開発株式会社,,株式会社,東京都,千代田区,霞が関３丁目２番５号,,13,101,1000013,,,,,,,2022-12-12,1,,,,,ランコシフウリョクカイハツ,0
511,3010001231466,新規,0,2022-12-12,2022-12-12,株式会社Ｍ　ＳＴＡＧＥ,,株式会社,東京都,中央区,日本橋箱崎町３－１２サンワードビル５階,,13,102,1030015,,,,,,,2022-12-12,1,,,,,エムステージ,0
516,3010401171238,新規,0,2022-12-12,2022-12-12,株式会社くらまつ,,株式会社,東京都,港区,赤坂２丁目１３番６号２階,,13,103,1070052,,,,,,,2022-12-12,1,,,,,クラマツ,0
524,3010601062278,新規,0,2022-12-12,2022-12-12,株式会社ＳＰＬ,,株式会社,東京都,江東区,有明３丁目７番２６号,,13,108,1350063,,,,,,,2022-12-12,1,,,,,エスピーエル,0
526,3010603009896,新規,0,2022-12-12,2022-12-12,合同会社Ｔｏｍｅｒｒｉｎｅ,,合同会社,東京都,江東区,大島８丁目２１番１３－３１８号,,13,108,1360072,,,,,,,2022-12-12,1,,,,,トメリーヌ,0
531,3011001151167,新規,0,2022-12-12,2022-12-12,株式会社システムスプレンデンス,,株式会社,東京都,渋谷区,渋谷３丁目１３－５,,13,113,1500002,,,,,,,2022-12-12,1,,,,,システムスプレンデンス,0
532,3011003015873,新規,0,2022-12-12,2022-12-12,東京グルマン合同会社,,合同会社,東京都,渋谷区,神宮前６丁目２３番４号,,13,113,1500001,,,,,,,2022-12-12,1,,,,,トウキョウグルマン,0
533,3011003015881,新規,0,2022-12-12,2022-12-12,ロボット商事合同会社,,合同会社,東京都,渋谷区,道玄坂１丁目１０番８号渋谷道玄坂東急ビル２Ｆ－Ｃ,,13,113,1500043,,,,,,,2022-12-12,1,,,,,,0
538,3011103012481,新規,0,2022-12-12,2022-12-12,Ｌｅｇａｃｙ合同会社,,合同会社,東京都,新宿区,西新宿３丁目３番１３号西新宿水間ビル６階,,13,104,1600023,,,,,,,2022-12-12,1,,,,,レガシー,0
539,3011203003959,新規,0,2022-12-12,2022-12-12,合同会社Ｓ．Ｋ．ｕｐ,,合同会社,東京都,中野区,中野２丁目１２番１５－７１０号,,13,114,1640001,,,,,,,2022-12-12,1,,,,,エスケーアップ,0
540,3011303004601,新規,0,2022-12-12,2022-12-12,Ｔオフィス合同会社,,合同会社,東京都,杉並区,高円寺北３丁目４５番１３号田中ビル２０１,,13,115,1660002,,,,,,,2022-12-12,1,,,,,ティーオフィス,0
547,3011801041658,新規,0,2022-12-12,2022-12-12,ＮＥＸＴ　ＲＥＮＯＶＡＴＩＯＮ株式会社,,株式会社,東京都,葛飾区,西亀有４丁目２－８,,13,122,1250002,,,,,,,2022-12-12,1,,,,,ネクストリノベーション,0
548,3011801041666,新規,0,2022-12-12,2022-12-12,株式会社ヒルコ,,株式会社,東京都,足立区,竹の塚２丁目８番２７号エヌティビル３０２,00128745,13,121,1210813,,,,,,,2022-12-12,1,,,,,ヒルコ,0
553,3012403005729,新規,0,2022-12-12,2022-12-12,Ｓｔｅｌｌａｒ　Ａｇｅｎｔ合同会社,,合同会社,東京都,稲城市,坂浜８１６番地の１２,,13,225,2060822,,,,,,,2022-12-12,1,,,,,ステラエージェント,0
565,3020001149344,新規,0,2022-12-12,2022-12-12,株式会社マーメイド,,株式会社,神奈川県,川崎市多摩区,登戸３１４１－４ドリームハウス登戸５－３０３号室,,14,135,2140014,,,,,,,2022-12-12,1,,,,,マーメイド,0
566,3020001149352,新規,0,2022-12-12,2022-12-12,株式会社ＫＡＥＲＯ,,株式会社,神奈川県,川崎市川崎区,日進町１９番６アルカーデン・テラ４０３号,,14,131,2100024,,,,,,,2022-12-12,1,,,,,カエロ,0
567,3020001149369,新規,0,2022-12-12,2022-12-12,株式会社松本商会,,株式会社,神奈川県,横浜市金沢区,釜利谷東４丁目５番４号,,14,108,2360042,,,,,,,2022-12-12,1,,,,,マツモトショウカイ,0
575,3020003022862,新規,0,2022-12-12,2022-12-12,サニーキャリア合同会社,,合同会社,神奈川県,川崎市中原区,中丸子４７１番地１６,,14,133,2110012,,,,,,,2022-12-12,1,,,,,サニーキャリア,0
577,3020005015765,新規,0,2022-12-12,2022-12-12,医療法人正道会,,その他の設立登記法人,神奈川県,横浜市中区,本牧町１丁目９番地安田屋ビル２階Ｃ号室,,14,104,2310806,,,,,,,2022-12-12,1,,,,,ショウドウカイ,0
586,3021001077675,新規,0,2022-12-12,2022-12-12,株式会社Ｈ・Ａ建設,,株式会社,神奈川県,相模原市中央区,青葉１丁目８番２１号青葉ハイツ３０１,,14,152,2520224,,,,,,,2022-12-12,1,,,,,エイチエーケンセツ,0
590,3021005012686,新規,0,2022-12-12,2022-12-12,医療法人からだとおなか,,その他の設立登記法人,神奈川県,平塚市,横内４０６０クリエイトＳＤ新平塚横内店２階,,14,203,2540002,,,,,,,2022-12-12,1,,,,,カラダトオナカ,0
597,3030001151398,新規,0,2022-12-12,2022-12-12,株式会社トップティア,,株式会社,埼玉県,富士見市,東みずほ台２丁目１０番地１９フォルテビル２Ｆ,,11,235,3540015,,,,,,,2022-12-12,1,,,,,トップティア,0
598,3030001151407,新規,0,2022-12-12,2022-12-12,Ｂ＆Ｔ株式会社,,株式会社,埼玉県,川口市,幸町２丁目７番２１号メルビ・ケイ３０２号,,11,203,3320016,,,,,,,2022-12-12,1,,,,,ビーアンドティー,0
615,3050001052082,新規,0,2022-12-12,2022-12-12,株式会社ＥＶＩＤＥＮＣＥ,,株式会社,茨城県,猿島郡境町,大字内門６９２番地４,,08,546,3060414,,,,,,,2022-12-12,1,,,,,エビデンス,0
619,3060003004337,新規,0,2022-12-12,2022-12-12,オオヤマ合同会社,,合同会社,栃木県,鹿沼市,蓬莱町１０１０番地１,,09,205,3220042,,,,,,,2022-12-12,1,,,,,オオヤマ,0
628,3110003004926,新規,0,2022-12-12,2022-12-12,ｅｓｔｈｅｔｉｃ　ｓａｌｏｎ　ＬｅＢｒｏｎ合同会社,,合同会社,新潟県,長岡市,中沢３丁目３５２－６家老ビル３階,,15,202,9400853,,,,,,,2022-12-12,1,,,,,エステティックサロンレブロン,0
638,3120001250843,新規,0,2022-12-12,2022-12-12,株式会社ｓｐａｃｅ,,株式会社,大阪府,大阪市西淀川区,野里３丁目２番地１９号,,27,113,5550024,,,,,,,2022-12-12,1,,,,,,0
639,3120001250967,新規,0,2022-12-12,2022-12-12,株式会社Ｍ＆Ａクオリティ,,株式会社,大阪府,大阪市北区,角田町８番４７号阪急グランドビル,,27,127,5300017,,,,,,,2022-12-12,1,,,,,エムアンドエークオリティ,0
640,3120001250975,新規,0,2022-12-12,2022-12-12,株式会社フォースタープラス,,株式会社,大阪府,大阪市淀川区,東三国２丁目３４番４号コーケンビル７０１,,27,123,5320002,,,,,,,2022-12-12,1,,,,,フォースタープラス,0
644,3120003023033,新規,0,2022-12-12,2022-12-12,柴又古美術合同会社,,合同会社,大阪府,大阪市西成区,天下茶屋１丁目８－１６シティプラザ花園５０４号室,,27,122,5570014,,,,,,,2022-12-12,1,,,,,シバマタコビジュツ,0
645,3120003023041,新規,0,2022-12-12,2022-12-12,合同会社ＨＡＹＡＲＩ,,合同会社,大阪府,大阪市西淀川区,花川１丁目１４－２８,,27,113,5550023,,,,,,,2022-12-12,1,,,,,ハヤリ,0
646,3120005023320,新規,0,2022-12-12,2022-12-12,特定非営利活動法人ＢＩＧ　ＳＯＣＩＡＬ,,その他の設立登記法人,大阪府,大阪市西区,江戸堀１丁目２２番１７号西船場辰巳ビル６Ｆ,,27,106,5500002,,,,,,,2022-12-12,1,,,,,ビッグソーシャル,0
651,3120901046853,新規,0,2022-12-12,2022-12-12,株式会社ｉｓ　ｍｏｒｅ,,株式会社,大阪府,吹田市,片山町２丁目１２番６２号,,27,205,5640082,,,,,,,2022-12-12,1,,,,,イズモア,0
656,3130001073252,新規,0,2022-12-12,2022-12-12,株式会社ｓｏｕｅｉ,,株式会社,京都府,京都市山科区,西野小柳町３５－１サンクレオ西野１０２,,26,110,6078354,,,,,,,2022-12-12,1,,,,,ソウエイ,0
657,3130005016645,新規,0,2022-12-12,2022-12-12,一般社団法人１９,,その他の設立登記法人,京都府,京都市東山区,松原通東大路西入新シ町１３７番地,,26,105,6050856,,,,,,,2022-12-12,1,,,,,ジュウク,0
660,3140003018444,新規,0,2022-12-12,2022-12-12,しらさぎ商店合同会社,,合同会社,兵庫県,姫路市,北原３４２番地,,28,201,6728002,,,,,,,2022-12-12,1,,,,,シラサギショウテン,0
662,3150001026010,新規,0,2022-12-12,2022-12-12,株式会社ＹＵＧＯ,,株式会社,奈良県,葛城市,當麻１４０４番地１,,29,211,6390276,,,,,,,2022-12-12,1,,,,,ユウゴ,0
677,3180001154130,新規,0,2022-12-12,2022-12-12,株式会社Ｇｒｉｐ,,株式会社,愛知県,西春日井郡豊山町,大字豊場字下戸１４８番地１シャトー豊山ＩＩ５０３,00128746,23,342,4800202,,,,,,,2022-12-12,1,,,,,グリップ,0
678,3180001154171,新規,0,2022-12-12,2022-12-12,住装あいち株式会社,,株式会社,愛知県,名古屋市名東区,神月町２０３番地,,23,115,4650006,,,,,,,2022-12-12,1,,,,,ジュウソウアイチ,0
685,3180303005535,新規,0,2022-12-12,2022-12-12,合同会社Ｋ’ｓ　Ｎａｖｉ,,合同会社,愛知県,豊橋市,花園町２０,,23,201,4400895,,,,,,,2022-12-12,1,,,,,ケーズナビ,0
691,3200001040757,新規,0,2022-12-12,2022-12-12,株式会社マグネットスポット,,株式会社,岐阜県,岐阜市,六条北４丁目１０番１９号,,21,201,5008359,,,,,,,2022-12-12,1,,,,,マグネットスポット,0
703,3250003003195,新規,0,2022-12-12,2022-12-12,合同会社Ｌｏｃａｌ　Ｆｏｏｄ　Ｊａｐａｎ,,合同会社,山口県,美祢市,伊佐町伊佐３９４２番地９,,35,213,7592222,,,,,,,2022-12-12,1,,,,,ローカルフードジャパン,0
711,3290003013298,新規,0,2022-12-12,2022-12-12,合同会社松酒屋,,合同会社,福岡県,久留米市,新合川１丁目５番３８号,,40,203,8390865,,,,,,,2022-12-12,1,,,,,マツザカヤ,0
714,3300003001912,新規,0,2022-12-12,2022-12-12,合同会社義寛商店,,合同会社,佐賀県,佐賀市,駅前中央１丁目３番８号,,41,201,8400801,,,,,,,2022-12-12,1,,,,,ヨシヒロショウテン,0
721,3340001025232,新規,0,2022-12-12,2022-12-12,新盛自動車株式会社,,株式会社,鹿児島県,薩摩川内市,都町７３８７番地１,,46,215,8950043,,,,,,,2022-12-12,1,,,,,シンモリジドウシャ,0
722,3340003003995,新規,0,2022-12-12,2022-12-12,合同会社街の食堂,,合同会社,鹿児島県,鹿児島市,中央町２２番地１６アエールプラザ３１８号室,,46,201,8900053,,,,,,,2022-12-12,1,,,,,マチノショクドウ,0
730,3360003012532,新規,0,2022-12-12,2022-12-12,合同会社ｔｉｔｕｔｉ　ＯＫＩＮＡＷＡＮ　ＣＲＡＦＴ,,合同会社,沖縄県,那覇市,牧志３丁目６番３７号１０２,,47,201,9000013,,,,,,,2022-12-12,1,,,,,ティトゥティオキナワンクラフト,0
751,3700150113346,新規,0,2022-12-12,2022-12-12,深＿麦格米特電気股斌有限公司,00128757,外国会社等,東京都,豊島区,西池袋３丁目２６－１近見ビル３Ｆ,,13,116,1710021,中国広東省深＿市南山区学府路６３号栄超高新区聯合総部大厦３４楼,00128758,,,,,2022-12-12,1,,,,,シンセンバイカクマイトクデンキバイフンユウゲンコウシ,0
759,4010001231507,新規,0,2022-12-12,2022-12-12,株式会社エノク,,株式会社,東京都,千代田区,神田須田町１丁目１４番１号,,13,101,1010041,,,,,,,2022-12-12,1,,,,,エノク,0
760,4010003039304,新規,0,2022-12-12,2022-12-12,ＭＢＫＰ　ＢＣ合同会社,,合同会社,東京都,千代田区,永田町２丁目１０番３号,,13,101,1000014,,,,,,,2022-12-12,1,,,,,エムビーケーピービーシー,0
764,4010401171253,新規,0,2022-12-12,2022-12-12,ＳｙｒｅｎＳｏｎｇ株式会社,,株式会社,東京都,港区,白金台４丁目７番４号－９Ｆ,,13,103,1080071,,,,,,,2022-12-12,1,,,,,サイレンソング,0
765,4010401171286,新規,0,2022-12-12,2022-12-12,ＬＳ‐ＳＨＩＰ第３２号株式会社,,株式会社,東京都,港区,六本木１丁目６番１号,,13,103,1060032,,,,,,,2022-12-12,1,,,,,エルエスシップダイサンジュウニゴウ,0
766,4010403029128,新規,0,2022-12-12,2022-12-12,Ｄｒａｗｉｎｇ合同会社,,合同会社,東京都,港区,西麻布２丁目２４－３７ヴェルデ西麻布１０１,,13,103,1060031,,,,,,,2022-12-12,1,,,,,ドローイング,0
773,4010601062277,新規,0,2022-12-12,2022-12-12,ＧＩＦＴ株式会社,,株式会社,東京都,江東区,有明１丁目４番１１－１０３５号,,13,108,1350063,,,,,,,2022-12-12,1,,,,,ギフト,0
776,4010603009895,新規,0,2022-12-12,2022-12-12,ＬＹ合同会社,,合同会社,東京都,江東区,有明１丁目４番１１－３１０６号,,13,108,1350063,,,,,,,2022-12-12,1,,,,,エルワイ,0
788,4011001151422,新規,0,2022-12-12,2022-12-12,株式会社ワイイーエス,,株式会社,東京都,渋谷区,笹塚１丁目５６番１０－Ｎ５１０号,,13,113,1510073,,,,,,,2022-12-12,1,,,,,ワイイーエス,0
791,4011003015831,新規,0,2022-12-12,2022-12-12,合同会社低糖質スイーツラボ,,合同会社,東京都,渋谷区,神宮前６丁目２３番４号桑野ビル２Ｆ,,13,113,1500001,,,,,,,2022-12-12,1,,,,,テイトウシツスイーツラボ,0
800,4011103012489,新規,0,2022-12-12,2022-12-12,合同会社ゆきかぜ,,合同会社,東京都,新宿区,弁天町１７７番地Ｄ－ｒｏｏｍ早稲田７０５,,13,104,1620851,,,,,,,2022-12-12,1,,,,,ユキカゼ,0
802,4011501028748,新規,0,2022-12-12,2022-12-12,栄恒株式会社,,株式会社,東京都,荒川区,東尾久２丁目２番９号三祥ビル２３３,,13,118,1160012,,,,,,,2022-12-12,1,,,,,エイコウ,0
804,4011601026429,新規,0,2022-12-12,2022-12-12,株式会社Ｗｉｄｅ,,株式会社,東京都,練馬区,高野台２丁目６番２０－３１１号,,13,120,1770033,,,,,,,2022-12-12,1,,,,,ワイド,0
806,4011801041665,新規,0,2022-12-12,2022-12-12,アルマーズジャパン株式会社,,株式会社,東京都,足立区,梅島３丁目３３番６号,,13,121,1210816,,,,,,,2022-12-12,1,,,,,アルマーズジャパン,0
810,4012703002598,新規,0,2022-12-12,2022-12-12,オージージャパン合同会社,,合同会社,東京都,東久留米市,野火止２丁目２１番２号,,13,222,2030041,,,,,,,2022-12-12,1,,,,,オージージャパン,0
823,4020001149335,新規,0,2022-12-12,2022-12-12,長島帆布株式会社,,株式会社,神奈川県,横浜市西区,戸部本町４番９号,,14,103,2200041,,,,,,,2022-12-12,1,,,,,ナガシマハンプ,0
824,4020001149376,新規,0,2022-12-12,2022-12-12,株式会社福林商事,,株式会社,神奈川県,横浜市中区,末吉町２丁目２５番地１－４０２号,,14,104,2310055,,,,,,,2022-12-12,1,,,,,フクリンショウジ,0
830,4021003012423,新規,0,2022-12-12,2022-12-12,合同会社高梨プロフェッショナルエンジニア事務所,00128744,合同会社,神奈川県,相模原市中央区,陽光台４丁目１１番１２号,,14,152,2520226,,,,,,,2022-12-12,1,,,,,タカナシプロフェッショナルエンジニアジムショ,0
836,4030001151406,新規,0,2022-12-12,2022-12-12,株式会社トライジャパン,,株式会社,埼玉県,川口市,東本郷２丁目１６番２２号,,11,203,3340063,,,,,,,2022-12-12,1,,,,,トライジャパン,0
840,4030003020708,新規,0,2022-12-12,2022-12-12,シュレスタ合同会社,,合同会社,埼玉県,さいたま市北区,宮原町３丁目４７２－１,,11,102,3310812,,,,,,,2022-12-12,1,,,,,シュレスタ,0
841,4030003020724,新規,0,2022-12-12,2022-12-12,合同会社はれや好坊,,合同会社,埼玉県,さいたま市緑区,東浦和１丁目１４番地８フォレナ東浦和１０４,,11,109,3360926,,,,,,,2022-12-12,1,,,,,ハレヤコウボウ,0
842,4030005021092,新規,0,2022-12-12,2022-12-12,一般社団法人吉川福利厚生会,,その他の設立登記法人,埼玉県,吉川市,中島２丁目２５１番地１５,,11,243,3420031,,,,,,,2022-12-12,1,,,,,ヨシカワフクリコウセイカイ,0
849,4040001126191,新規,0,2022-12-12,2022-12-12,株式会社輝商事,,株式会社,千葉県,船橋市,南本町３３番１０－１号,,12,204,2730004,,,,,,,2022-12-12,1,,,,,テルショウジ,0
854,4040003021465,新規,0,2022-12-12,2022-12-12,合同会社運吉,,合同会社,千葉県,我孫子市,東我孫子２丁目１７番３６号,,12,222,2701144,,,,,,,2022-12-12,1,,,,,ウンキチ,0
856,4050001052040,新規,0,2022-12-12,2022-12-12,株式会社ほっとＬＩＮＥ,,株式会社,茨城県,日立市,東成沢町２丁目１１番２０号,,08,202,3160034,,,,,,,2022-12-12,1,,,,,ホットライン,0
860,4060001035515,新規,0,2022-12-12,2022-12-12,ＢＩＬＬＡ　ＴＲＡＤＩＮＧ株式会社,,株式会社,栃木県,小山市,城北３丁目３番地１３アンビションＡ２階１０号室,,09,208,3230029,,,,,,,2022-12-12,1,,,,,ビラトレーディング,0
866,4070005010059,新規,0,2022-12-12,2022-12-12,医療法人まえばしＭＩ歯科,,その他の設立登記法人,群馬県,高崎市,台町３８番地３,,10,202,3700805,,,,,,,2022-12-12,1,,,,,マエバシエムアイシカ,0
867,4080001025340,新規,0,2022-12-12,2022-12-12,株式会社ＳＭＡＲＴ,,株式会社,静岡県,静岡市葵区,古庄２丁目１番３９号,,22,101,4200812,,,,,,,2022-12-12,1,,,,,スマート,0
872,4100001035948,新規,0,2022-12-12,2022-12-12,マルコメホールディングス株式会社,,株式会社,長野県,長野市,大字安茂里８８３番地,,20,201,3800941,,,,,,,2022-12-12,1,,,,,マルコメホールディングス,0
882,4120001250974,新規,0,2022-12-12,2022-12-12,株式会社ミライエプラス,,株式会社,大阪府,大阪市中央区,東心斎橋１丁目４番１号オリエンタル東心斎橋ビル６０２,,27,128,5420083,,,,,,,2022-12-12,1,,,,,ミライエプラス,0
889,4120103004956,新規,0,2022-12-12,2022-12-12,合同会社陽だまり,,合同会社,大阪府,大阪狭山市,山本北１２９７番地の２（Ｄ－２０４号）,,27,231,5890035,,,,,,,2022-12-12,1,,,,,,0
892,4122005003656,新規,0,2022-12-12,2022-12-12,一般社団法人日本少年野球八尾フレンド,,その他の設立登記法人,大阪府,八尾市,陽光園２丁目５番２８号,,27,212,5810086,,,,,,,2022-12-12,1,,,,,ニホンショウネンヤキュウヤオフレンド,0
904,4160003002750,新規,0,2022-12-12,2022-12-12,ＭＴインベストメント合同会社,,合同会社,滋賀県,大津市,月輪５丁目２２－２２,,25,201,5202152,,,,,,,2022-12-12,1,,,,,エムティーインベストメント,0
912,4180001154146,新規,0,2022-12-12,2022-12-12,株式会社５８７,,株式会社,愛知県,稲沢市,陸田宮前１丁目１３番地６,,23,220,4928044,,,,,,,2022-12-12,1,,,,,ゴーハチナナ,0
922,4190001030008,新規,0,2022-12-12,2022-12-12,株式会社アーチ,,株式会社,三重県,四日市市,三栄町３番１４－７０１号,,24,202,5100068,,,,,,,2022-12-12,1,,,,,アーチ,0
928,4230003001943,新規,0,2022-12-12,2022-12-12,合同会社古川,,合同会社,富山県,富山市,四ツ葉町１９番３１号,,16,201,9300841,,,,,,,2022-12-12,1,,,,,フルカワ,0
930,4240001060775,新規,0,2022-12-12,2022-12-12,株式会社Ｃａｌｉｎｅｒ,,株式会社,広島県,安芸郡府中町,宮の町１丁目４番１１－１号,,34,302,7350005,,,,,,,2022-12-12,1,,,,,カリネ,0
941,4290001099768,新規,0,2022-12-12,2022-12-12,株式会社コトブキ不動産,,株式会社,福岡県,福岡市博多区,吉塚５丁目２番１０号１Ｂ,,40,132,8120041,,,,,,,2022-12-12,1,,,,,コトブキフドウサン,0
942,4290001099818,新規,0,2022-12-12,2022-12-12,株式会社ｌａｕｇｈ　ａｎｄ,,株式会社,福岡県,福岡市中央区,天神４丁目６番２８号天神ファーストビル７階,,40,133,8100001,,,,,,,2022-12-12,1,,,,,ラフアンド,0
943,4290001099859,新規,0,2022-12-12,2022-12-12,株式会社ｌｏｕｄ　ａｎｄ　ｐｒｏｕｄ,,株式会社,福岡県,福岡市中央区,荒戸２丁目１番１－２０１号,,40,133,8100062,,,,,,,2022-12-12,1,,,,,ラウドアンドプラウド,0
944,4290001099867,新規,0,2022-12-12,2022-12-12,株式会社ＭＯＴＯ,,株式会社,福岡県,古賀市,川原９６６番地１,,40,223,8113132,,,,,,,2022-12-12,1,,,,,モト,0
945,4290003013306,新規,0,2022-12-12,2022-12-12,合同会社ＪＮＶ,,合同会社,福岡県,福岡市東区,馬出１丁目２番２３号第１岡部ビル６０６号,,40,131,8120054,,,,,,,2022-12-12,1,,,,,ジェイエヌブイ,0
949,4300001013157,新規,0,2022-12-12,2022-12-12,株式会社佐賀ＵＳＩ,,株式会社,佐賀県,佐賀市,兵庫南４丁目１３番７号,,41,201,8490918,,,,,,,2022-12-12,1,,,,,サガユーエスアイ,0
955,4310003004491,新規,0,2022-12-12,2022-12-12,合同会社ｗｅｌｌ‐ｂｅｉｎｇ,,合同会社,長崎県,西海市,西海町中浦北郷１７５８番地７,,42,212,8572222,,,,,,,2022-12-12,1,,,,,ウェルビーイング,0
958,4340001025231,新規,0,2022-12-12,2022-12-12,株式会社ＯＦＦＪＩ,,株式会社,鹿児島県,鹿児島市,唐湊１丁目２５番１５号,,46,201,8900081,,,,,,,2022-12-12,1,,,,,オフジ,0
961,4340003003994,新規,0,2022-12-12,2022-12-12,合同会社Ｌｉｎｄｏ,,合同会社,鹿児島県,鹿児島市,中央町２２番地１６アエールプラザ３１８号室,,46,201,8900053,,,,,,,2022-12-12,1,,,,,リンド,0
962,4360003012507,新規,0,2022-12-12,2022-12-12,ボーダーヘイズ・ジャパン合同会社,,合同会社,沖縄県,那覇市,辻１丁目１６―９サングリーンビル１階,,47,201,9000037,,,,,,,2022-12-12,1,,,,,ボーダーヘイズジャパン,0
966,4370005010573,新規,0,2022-12-12,2022-12-12,医療法人栄真会,,その他の設立登記法人,宮城県,柴田郡村田町,大字小泉字西浦９７番地１,,04,322,9891302,,,,,,,2022-12-12,1,,,,,エイシンカイ,0
969,4380001033321,新規,0,2022-12-12,2022-12-12,株式会社夢咲,,株式会社,福島県,郡山市,富久山町久保田字乙高６６番地の４ハイツエポックＡ棟１０１号,,07,203,9638071,,,,,,,2022-12-12,1,,,,,ユメサキ,0
988,4700150112306,新規,0,2022-12-12,2022-10-27,ツベラコベラレコーズ　オノマトペル,,その他,東京都,練馬区,羽沢３丁目３３－１１－３０１,,13,120,1760003,,,,,,,2022-10-27,1,,,,,ツベラコベラレコーズオノマトペル,0
996,5010001231472,新規,0,2022-12-12,2022-12-12,株式会社キャッティス,,株式会社,東京都,中央区,銀座１丁目２２番１１号銀座大竹ビジデンス２階,,13,102,1040061,,,,,,,2022-12-12,1,,,,,キャッティス,0
997,5010001231480,新規,0,2022-12-12,2022-12-12,ＥＳＷ　Ｊａｐａｎ株式会社,,株式会社,東京都,千代田区,丸の内１丁目１１番１号パシフィックセンチュリープレイス,,13,101,1000005,,,,,,,2022-12-12,1,,,,,イーエスダブリュジャパン,0
1000,5010003039294,新規,0,2022-12-12,2022-12-12,合同会社ジャムチ,,合同会社,東京都,中央区,銀座６丁目３‐１６,,13,102,1040061,,,,,,,2022-12-12,1,,,,,ジャムチ,0
1008,5010401171260,新規,0,2022-12-12,2022-12-12,Ｅ‐Ｒａｋｕｌｉｆｅ株式会社,,株式会社,東京都,港区,南青山４丁目１７番１３号２０１室,,13,103,1070062,,,,,,,2022-12-12,1,,,,,イーラクライフ,0
1009,5010401171285,新規,0,2022-12-12,2022-12-12,ＬＳ‐ＳＨＩＰ第３３号株式会社,,株式会社,東京都,港区,六本木１丁目６番１号,,13,103,1060032,,,,,,,2022-12-12,1,,,,,エルエスシップダイサンジュウサンゴウ,0
1010,5010401171293,新規,0,2022-12-12,2022-12-12,株式会社スマートライフ,,株式会社,東京都,港区,南青山２丁目２番８号ＤＦビル７階,,13,103,1070062,,,,,,,2022-12-12,1,,,,,スマートライフ,0
1011,5010403028888,新規,0,2022-12-12,2022-12-12,合同会社ＳＴＥＣＫ,,合同会社,東京都,港区,南青山２丁目２番１５号,,13,103,1070062,,,,,,,2022-12-12,1,,,,,ステック,0
1017,5010601062276,新規,0,2022-12-12,2022-12-12,株式会社Ｃ‐ＳＰＡＣＥ,,株式会社,東京都,墨田区,東向島１丁目３１番３号,,13,107,1310032,,,,,,,2022-12-12,1,,,,,シースペース,0
1019,5010603009894,新規,0,2022-12-12,2022-12-12,ＡＳ合同会社,,合同会社,東京都,江東区,南砂１丁目９番２１号セットアップビル３Ｆ,,13,108,1360076,,,,,,,2022-12-12,1,,,,,アヅ,0
1027,5011001151355,新規,0,2022-12-12,2022-12-12,ＴＮＣ株式会社,,株式会社,東京都,目黒区,下目黒４丁目３－８,,13,110,1530064,,,,,,,2022-12-12,1,,,,,ティーエヌシー,0
1030,5011003015888,新規,0,2022-12-12,2022-12-12,合同会社ｔｉｅｒ,,合同会社,東京都,渋谷区,神宮前６丁目２３番４号桑野ビル２階,,13,113,1500001,,,,,,,2022-12-12,1,,,,,ティア,0
1032,5011101101111,新規,0,2022-12-12,2022-12-12,株式会社ＫＳクリーン,,株式会社,東京都,新宿区,西新宿３丁目３－１３西新宿水間ビル６階,,13,104,1600023,,,,,,,2022-12-12,1,,,,,ケーエスクリーン,0
1036,5011301028303,新規,0,2022-12-12,2022-12-12,Ｋ’ｓ　Ｃｏｍｐａｎｙ株式会社,,株式会社,東京都,杉並区,堀ノ内２丁目１７番１８号,,13,115,1660013,,,,,,,2022-12-12,1,,,,,ケーズカンパニー,0
1037,5011301028311,新規,0,2022-12-12,2022-12-12,株式会社Ｋ．ｓｔｙｌｅ,,株式会社,東京都,杉並区,久我山４丁目３０番１３号,,13,115,1680082,,,,,,,2022-12-12,1,,,,,ケィスタイル,0
1043,5011601026428,新規,0,2022-12-12,2022-12-12,株式会社キュアタウン,,株式会社,東京都,練馬区,谷原４丁目１６番１０号クレスト横山１０３号室,,13,120,1770032,,,,,,,2022-12-12,1,,,,,キュアタウン,0
1044,5011603003771,新規,0,2022-12-12,2022-12-12,合同会社ムラヤマ,,合同会社,東京都,練馬区,北町２丁目２５番２－２０１号,,13,120,1790081,,,,,,,2022-12-12,1,,,,,ムラヤマ,0
1049,5012803002943,新規,0,2022-12-12,2022-12-12,ＤＨ合同会社,,合同会社,東京都,国立市,青柳１丁目５番地の２ハイツ国立１０３,,13,215,1860013,,,,,,,2022-12-12,1,,,,,ディーエイチ,0
1056,5020001149367,新規,0,2022-12-12,2022-12-12,サンライズ株式会社,,株式会社,神奈川県,川崎市川崎区,渡田東町１８－１７ヒルズ渡田東町２０１,,14,131,2100842,,,,,,,2022-12-12,1,,,,,サンライズ,0
1057,5020001149383,新規,0,2022-12-12,2022-12-12,株式会社ＡＴＨＬＹＤＯ,,株式会社,神奈川県,川崎市宮前区,土橋４丁目９番地２プレシス鷺沼ヒルズ２０４,,14,136,2160005,,,,,,,2022-12-12,1,,,,,アスリード,0
1062,5020003022869,新規,0,2022-12-12,2022-12-12,合同会社アネシス,,合同会社,神奈川県,横浜市南区,大岡１丁目３４番１号,,14,105,2320061,,,,,,,2022-12-12,1,,,,,アネシス,0
1071,5021001077673,新規,0,2022-12-12,2022-12-12,株式会社ＢＥＥ’Ｓ　ＫＮＥＥＳ,,株式会社,神奈川県,座間市,相武台３丁目２０番５号ベルハイム相模Ｅ号室,,14,216,2520011,,,,,,,2022-12-12,1,,,,,ビーズニーズ,0
1082,5030001151355,新規,0,2022-12-12,2022-12-12,株式会社匠ハウジング,,株式会社,埼玉県,本庄市,朝日町２丁目２１番２０号スクエアガーデンＥ１０２号,,11,211,3670026,,,,,,,2022-12-12,1,,,,,タクミハウジング,0
1083,5030001151405,新規,0,2022-12-12,2022-12-12,株式会社ＳＮＪ,,株式会社,埼玉県,入間郡三芳町,大字上富１５５１番地１,,11,324,3540045,,,,,,,2022-12-12,1,,,,,エスエヌジェー,0
1084,5030001151413,新規,0,2022-12-12,2022-12-12,株式会社キムチ,,株式会社,埼玉県,東松山市,大字高坂字四番町１２０１番地１,,11,212,3550047,,,,,,,2022-12-12,1,,,,,キムチ,0
1087,5030003020723,新規,0,2022-12-12,2022-12-12,合同会社八木保険事務所,,合同会社,埼玉県,川越市,大手町１５番地１２,,11,201,3500057,,,,,,,2022-12-12,1,,,,,ヤギホケンジムショ,0
1088,5030003020731,新規,0,2022-12-12,2022-12-12,Ａｒｋ　Ｌａｐｉｓ合同会社,,合同会社,埼玉県,川口市,大字安行慈林７５７番地の１８,,11,203,3340071,,,,,,,2022-12-12,1,,,,,アークラピス,0
1089,5030005021091,新規,0,2022-12-12,2022-12-12,一般社団法人野球まなびラボ,,その他の設立登記法人,埼玉県,さいたま市北区,宮原町３丁目４３６番地１ハイツ大宮宮原１０５号,,11,102,3310812,,,,,,,2022-12-12,1,,,,,ヤキュウマナビラボ,0
1096,5040001126182,新規,0,2022-12-12,2022-12-12,湯本電設株式会社,,株式会社,千葉県,木更津市,太田２丁目８番１号,,12,206,2920044,,,,,,,2022-12-12,1,,,,,ユモトデンセツ,0
1108,5050001052080,新規,0,2022-12-12,2022-12-12,株式会社シンワ,,株式会社,茨城県,坂東市,岩井５１７０番地７５,,08,228,3060631,,,,,,,2022-12-12,1,,,,,シンワ,0
1113,5060003004343,新規,0,2022-12-12,2022-12-12,合同会社ＥＳＳインベストメント,,合同会社,栃木県,宇都宮市,西川田本町２丁目６番１８号,,09,201,3210158,,,,,,,2022-12-12,1,,,,,イーエスエスインベストメント,0
1115,5070001039902,新規,0,2022-12-12,2022-12-12,株式会社雲龍建設,,株式会社,群馬県,高崎市,下小鳥町７７番地２０,,10,202,3700074,,,,,,,2022-12-12,1,,,,,ウンリュウケンセツ,0
1120,5080401026193,新規,0,2022-12-12,2022-12-12,株式会社トライオン,,株式会社,静岡県,浜松市中区,広沢２丁目４８番１６号,,22,131,4328013,,,,,,,2022-12-12,1,,,,,トライオン,0
1124,5100001035955,新規,0,2022-12-12,2022-12-12,株式会社モミーズ,,株式会社,長野県,長野市,南千歳町８６０番地２４,,20,201,3810000,,,,,,,2022-12-12,1,,,,,モミーズ,0
1142,5120001250957,新規,0,2022-12-12,2022-12-12,株式会社メタルエース,,株式会社,大阪府,大阪市東住吉区,杭全２丁目５－２０－２０２,,27,121,5460002,,,,,,,2022-12-12,1,,,,,メタルエース,0
1143,5120001250965,新規,0,2022-12-12,2022-12-12,維亜株式会社,,株式会社,大阪府,大阪市中央区,久太郎町１丁目７－１１プレサンスレジェンド堺筋本町タワー２７０５号室,,27,128,5410056,,,,,,,2022-12-12,1,,,,,ウェーア,0
1146,5120003023056,新規,0,2022-12-12,2022-12-12,合同会社さっとさんがＬａｂ,,合同会社,大阪府,大阪市住吉区,墨江４丁目１５番１５号,,27,120,5580043,,,,,,,2022-12-12,1,,,,,サットサンガラボ,0
1147,5120003023064,新規,0,2022-12-12,2022-12-12,ミヨシ合同会社,,合同会社,大阪府,大阪市北区,豊崎３丁目１６番１６号－１３０１,,27,127,5310072,,,,,,,2022-12-12,1,,,,,ミヨシ,0
1157,5120905006397,新規,0,2022-12-12,2022-12-12,特定非営利活動法人みらい咲かそ,,その他の設立登記法人,大阪府,高槻市,登町２４番１号,,27,207,5690046,,,,,,,2022-12-12,1,,,,,ミライサカソ,0
1158,5122001036485,新規,0,2022-12-12,2022-12-12,株式会社ＭＩＴＳＵＹＡ,,株式会社,大阪府,八尾市,東山本新町４丁目９番４号,,27,212,5810866,,,,,,,2022-12-12,1,,,,,ミツヤ,0
1163,5130001073259,新規,0,2022-12-12,2022-12-12,デメクス株式会社,,株式会社,京都府,京都市下京区,平居町６９番地１河原町フラット２号,,26,106,6008118,,,,,,,2022-12-12,1,,,,,デメクス,0
1167,5130005016643,新規,0,2022-12-12,2022-12-12,一般社団法人Ｉｎｎｏｃｅｎｃｅ　Ｇａｒｄｅｎ,,その他の設立登記法人,京都府,京都市南区,西九条菅田町２４パデシオン京都洛南５０５,,26,107,6018445,,,,,,,2022-12-12,1,,,,,イノセンスガーデン,0
1172,5140001128251,新規,0,2022-12-12,2022-12-12,株式会社琥珀,,株式会社,兵庫県,西宮市,樋之池町８番９号パセオ苦楽園２階,,28,204,6620084,,,,,,,2022-12-12,1,,,,,コハク,0
1180,5150001026009,新規,0,2022-12-12,2022-12-12,カギタ住設株式会社,,株式会社,奈良県,橿原市,中曽司町５１８－３,,29,205,6340845,,,,,,,2022-12-12,1,,,,,カギタジュウセツ,0
1189,5180001154137,新規,0,2022-12-12,2022-12-12,株式会社ハンター,,株式会社,愛知県,半田市,石塚町２丁目３番地の１,,23,205,4750001,,,,,,,2022-12-12,1,,,,,ハンター,0
1190,5180001154145,新規,0,2022-12-12,2022-12-12,株式会社ＴＡＫＥＳＩＭＡ,,株式会社,愛知県,名古屋市天白区,天白町大字野並字境根２００６番地２７（カトルセゾン相生Ａ棟２０６号）,,23,116,4680037,,,,,,,2022-12-12,1,,,,,タケシマ,0
1191,5180001154153,新規,0,2022-12-12,2022-12-12,株式会社信和ホールディングス,,株式会社,愛知県,名古屋市守山区,天子田１丁目８０５番地,,23,113,4630037,,,,,,,2022-12-12,1,,,,,シンワホールディングス,0
1196,5180003024585,新規,0,2022-12-12,2022-12-12,ＫＩサービス合同会社,,合同会社,愛知県,名古屋市守山区,桜坂１丁目１０１番地（エコビレッジ志段味Ａ棟３０６号）,,23,113,4630018,,,,,,,2022-12-12,1,,,,,ケーアイサービス,0
1203,5190003004165,新規,0,2022-12-12,2022-12-12,合同会社ザフィーロアズーロ,,合同会社,三重県,桑名郡木曽岬町,大字見入３３４番地,,24,303,4980802,,,,,,,2022-12-12,1,,,,,ザフィーロアズーロ,0
1209,5200005013419,新規,0,2022-12-12,2022-12-12,医療法人秀嶺会,,その他の設立登記法人,岐阜県,瑞浪市,松ヶ瀬町１丁目１４番地１,,21,208,5096134,,,,,,,2022-12-12,1,,,,,シュウレイカイ,0
1220,5270003001468,新規,0,2022-12-12,2022-12-12,Ｙｕｍｉｉ’ｓ合同会社,,合同会社,鳥取県,倉吉市,幸町５２９番地ユーミーレジデンス５０３,,31,203,6820807,,,,,,,2022-12-12,1,,,,,ユミーズ,0
1229,5290001099858,新規,0,2022-12-12,2022-12-12,株式会社ＳＯＳレッカー・レンタカー,,株式会社,福岡県,古賀市,天神１丁目１番２９－１０６号,,40,223,8113101,,,,,,,2022-12-12,1,,,,,エスオーエスレッカーレンタカー,0
1232,5290003013305,新規,0,2022-12-12,2022-12-12,合同会社ＣＯＮＡ　ＭＥＤＩＣＡＬ,,合同会社,福岡県,福岡市中央区,桜坂３丁目１０番３７－５０５号,,40,133,8100024,,,,,,,2022-12-12,1,,,,,コナメディカル,0
1237,5330003009620,新規,0,2022-12-12,2022-12-12,合同会社マノアエステート,,合同会社,熊本県,熊本市北区,龍田陳内２丁目２６番１０号,,43,105,8618005,,,,,,,2022-12-12,1,,,,,マノアエステート,0
1240,5340003003993,新規,0,2022-12-12,2022-12-12,合同会社伊勢,,合同会社,鹿児島県,鹿児島市,中央町２２番地１６アエールプラザ３１８号室,,46,201,8900053,,,,,,,2022-12-12,1,,,,,イセ,0
1244,5370003005913,新規,0,2022-12-12,2022-12-12,ＢＩＳＭＩＬＬＡＨＪＰ合同会社,,合同会社,宮城県,仙台市太白区,八木山松波町２番２１－１０５号,,04,104,9820836,,,,,,,2022-12-12,1,,,,,ビスミラジェイピー,0
1245,5380001033320,新規,0,2022-12-12,2022-12-12,株式会社ＫＫ,,株式会社,福島県,郡山市,久留米５丁目７０番地の２,,07,203,9638846,,,,,,,2022-12-12,1,,,,,ケイケイ,0
1258,5460305001989,新規,0,2022-12-12,2022-12-12,特定非営利活動法人網走フィルムコミッション,,その他の設立登記法人,北海道,網走市,南二条東２丁目１２番地ビジネスホテルファミリー,,01,211,0930002,,,,,,,2022-12-12,1,,,,,アバシリフイルムコミッション,0
1261,5490005006880,新規,0,2022-12-12,2022-12-12,医療法人高松会,,その他の設立登記法人,高知県,高知市,葛島４丁目６番２９号,,39,201,7818121,,,,,,,2022-12-12,1,,,,,タカマツカイ,0
1272,6010001231216,新規,0,2022-12-12,2022-12-12,株式会社ＣＬＵＢ　Ｇ,,株式会社,東京都,中央区,銀座１丁目２２－１１銀座大竹ビジデンス２階,,13,102,1040061,,,,,,,2022-12-12,1,,,,,クラブジー,0
1273,6010001231471,新規,0,2022-12-12,2022-12-12,株式会社総合教育社,,株式会社,東京都,中央区,日本橋２丁目２番３号ＲＩＳＨＥビルＵＣＦ４階,,13,102,1030027,,,,,,,2022-12-12,1,,,,,ソウゴウキョウイクシャ,0
1274,6010001231488,新規,0,2022-12-12,2022-12-12,游宇株式会社,,株式会社,東京都,千代田区,岩本町２丁目１７番４号,,13,101,1010032,,,,,,,2022-12-12,1,,,,,ユウウ,0
1279,6010401171202,新規,0,2022-12-12,2022-12-12,株式会社ＳＡＵＣＹ,,株式会社,東京都,港区,東新橋２丁目１８番４号グラディート汐留ロッソ７０６号室,,13,103,1050021,,,,,,,2022-12-12,1,,,,,ソーシー,0
1280,6010401171292,新規,0,2022-12-12,2022-12-12,金泉興株式会社,,株式会社,東京都,港区,赤坂２丁目２１番４号２０３号室,,13,103,1070052,,,,,,,2022-12-12,1,,,,,キンセンコウ,0
1293,6011001151305,新規,0,2022-12-12,2022-12-12,株式会社Ｌｅ　Ｐｌａｎ,,株式会社,東京都,渋谷区,恵比寿南３丁目４番１４号,,13,113,1500022,,,,,,,2022-12-12,1,,,,,ルプラン,0
1294,6011001151379,新規,0,2022-12-12,2022-12-12,株式会社ＸＹＺ,,株式会社,東京都,渋谷区,道玄坂１丁目１０－８渋谷道玄坂東急ビル２Ｆ－Ｃ,,13,113,1500043,,,,,,,2022-12-12,1,,,,,エックスワイジー,0
1295,6011003015846,新規,0,2022-12-12,2022-12-12,Ｊｏｏｍ　Ｌｏｇｉｓｔｉｃｓ　Ｊａｐａｎ合同会社,,合同会社,東京都,渋谷区,恵比寿４丁目３番５号７０４号室アークアウトソーシング株式会社内,,13,113,1500013,,,,,,,2022-12-12,1,,,,,ジュームロジスティクスジャパン,0
1296,6011003015887,新規,0,2022-12-12,2022-12-12,Ｓ．Ｏ合同会社,,合同会社,東京都,目黒区,柿の木坂１丁目３１－１５ｃｏｕｒｔ柿の木坂２０１,,13,110,1520022,,,,,,,2022-12-12,1,,,,,エスオー,0
1297,6011003015895,新規,0,2022-12-12,2022-12-12,合同会社一心,,合同会社,東京都,目黒区,青葉台３丁目４番１号タワーテラス目黒青葉台１１０３,,13,110,1530042,,,,,,,2022-12-12,1,,,,,イッシン,0
1302,6011101101110,新規,0,2022-12-12,2022-12-12,モダンワークス株式会社,,株式会社,東京都,新宿区,新宿７丁目１２番１号新宿平和ビル１階,,13,104,1600022,,,,,,,2022-12-12,1,,,,,モダンワークス,0
1303,6011103012479,新規,0,2022-12-12,2022-12-12,ＣＡＣ合同会社,,合同会社,東京都,新宿区,西新宿３丁目３番１３号西新宿水間ビル２Ｆ,,13,104,1600023,,,,,,,2022-12-12,1,,,,,シーエーシー,0
1304,6011103012487,新規,0,2022-12-12,2022-12-12,合同会社ＦＲＸＢＬ,,合同会社,東京都,新宿区,西新宿３丁目３番１３号西新宿水間ビル２Ｆ,,13,104,1600023,,,,,,,2022-12-12,1,,,,,フリーキシブル,0
1305,6011301028302,新規,0,2022-12-12,2022-12-12,ＧＬＯＢＡＬ　ＧＯＯＤ　ＶＩＬＬＡＧＥ株式会社,,株式会社,東京都,杉並区,堀ノ内３丁目９番１２号,,13,115,1660013,,,,,,,2022-12-12,1,,,,,グローバルグッドビレッジ,0
1309,6011501028738,新規,0,2022-12-12,2022-12-12,正中天株式会社,,株式会社,東京都,荒川区,西尾久４丁目１－１６－４０２,,13,118,1160011,,,,,,,2022-12-12,1,,,,,セイチュウテン,0
1310,6011501028746,新規,0,2022-12-12,2022-12-12,株式会社Ｔｒｕｓｔ,,株式会社,東京都,荒川区,東日暮里５丁目４５番１０号能美ビル３０３,,13,118,1160014,,,,,,,2022-12-12,1,,,,,トラスト,0
1314,6011703003324,新規,0,2022-12-12,2022-12-12,ＡＲＡｋａｓａｋａ合同会社,,合同会社,東京都,江戸川区,平井７丁目１１－６ビィラコート平井２０２,,13,123,1320035,,,,,,,2022-12-12,1,,,,,エーアールアカサカ,0
1315,6012301013244,新規,0,2022-12-12,2022-12-12,株式会社ＳＨＯ,,株式会社,東京都,町田市,金森５丁目５番１１号,,13,209,1940012,,,,,,,2022-12-12,1,,,,,エスエイチオー,0
1319,6012803002942,新規,0,2022-12-12,2022-12-12,合同会社ＭＯＤ,,合同会社,東京都,立川市,錦町１丁目４番４号サニービル２Ｆ、ＣＳ－１６０,,13,202,1900022,,,,,,,2022-12-12,1,,,,,,0
1325,6020001149333,新規,0,2022-12-12,2022-12-12,すまいソリューション株式会社,,株式会社,神奈川県,横浜市栄区,庄戸５丁目１９番１８号,,14,115,2470022,,,,,,,2022-12-12,1,,,,,スマイソリューション,0
1326,6020001149341,新規,0,2022-12-12,2022-12-12,株式会社会計ラボ,,株式会社,神奈川県,横浜市南区,井土ケ谷中町２７番地２クリオ弘明寺桜通り壱番館１０４号室,,14,105,2320052,,,,,,,2022-12-12,1,,,,,カイケイラボ,0
1327,6020001149358,新規,0,2022-12-12,2022-12-12,株式会社ｓｕｇａｒ‐Ｔ,,株式会社,神奈川県,横浜市戸塚区,汲沢１丁目２８番１号,,14,110,2450061,,,,,,,2022-12-12,1,,,,,シュガーティー,0
1328,6020001149374,新規,0,2022-12-12,2022-12-12,だいすき不動産株式会社,,株式会社,神奈川県,横浜市旭区,東希望が丘２１０番地２０,,14,112,2410826,,,,,,,2022-12-12,1,,,,,ダイスキフドウサン,0
1329,6020003022851,新規,0,2022-12-12,2022-12-12,合同会社ＹＫＴＣｏｎｓｕｌｔｉｎｇ,,合同会社,神奈川県,川崎市幸区,鹿島田２丁目６－１２,,14,132,2120058,,,,,,,2022-12-12,1,,,,,ワイケイティコンサルティング,0
1330,6020003022876,新規,0,2022-12-12,2022-12-12,合同会社フレスコファルマ,,合同会社,神奈川県,川崎市中原区,上平間５９５番地３８,,14,133,2110013,,,,,,,2022-12-12,1,,,,,フレスコファルマ,0
1342,6030001151412,新規,0,2022-12-12,2022-12-12,株式会社てん,,株式会社,埼玉県,行田市,谷郷２丁目９番９号,,11,206,3610062,,,,,,,2022-12-12,1,,,,,テン,0
1347,6030003020722,新規,0,2022-12-12,2022-12-12,ＪＡＹＡＳＯＯＲＩＹＡ　ＭＯＴＯＲＳ　ＪＡＰＡＮ合同会社,,合同会社,埼玉県,坂戸市,花影町７番２５号ＫＩＶオフィス花影Ａ号室,,11,239,3500236,,,,,,,2022-12-12,1,,,,,ジャヤスーリヤモーターズジャパン,0
1365,6040003021422,新規,0,2022-12-12,2022-12-12,合同会社ＨＴ,,合同会社,千葉県,船橋市,前原西５丁目８番３号セントラルコート津田沼３０２,,12,204,2740825,,,,,,,2022-12-12,1,,,,,エイチティ,0
1366,6040003021455,新規,0,2022-12-12,2022-12-12,合同会社すてっぷあっぷ,,合同会社,千葉県,千葉市中央区,大森町５５－１８,,12,101,2600811,,,,,,,2022-12-12,1,,,,,ステップアップ,0
1367,6040003021463,新規,0,2022-12-12,2022-12-12,合同会社サラジュ,,合同会社,千葉県,佐倉市,中志津２丁目５番２３号,,12,212,2850843,,,,,,,2022-12-12,1,,,,,サラジュ,0
1376,6050003007081,新規,0,2022-12-12,2022-12-12,合同会社Ａｚｐｉｏｎｅ,,合同会社,茨城県,日立市,南高野町１丁目６番３－２０１号,,08,202,3191224,,,,,,,2022-12-12,1,,,,,アズピオーネ,0
1379,6070001039901,新規,0,2022-12-12,2022-12-12,株式会社Ｈａ　Ｍａｈａｌｏ,,株式会社,群馬県,吾妻郡草津町,大字草津６０８番地１２,,10,426,3771711,,,,,,,2022-12-12,1,,,,,ハマハロ,0
1383,6080001025339,新規,0,2022-12-12,2022-12-12,株式会社ＰＳＴ　ＣＲＥＡＴＩＶＥ,,株式会社,静岡県,焼津市,小川新町４丁目５番３７号,,22,212,4250031,,,,,,,2022-12-12,1,,,,,ピーエスティークリエイティブ,0
1409,6120001250972,新規,0,2022-12-12,2022-12-12,日本小衛集団株式会社,,株式会社,大阪府,大阪市中央区,内本町１丁目２番１号大晋第三ビル４０１号,,27,128,5400026,,,,,,,2022-12-12,1,,,,,ニホンコエイシュウダン,0
1416,6120101066641,新規,0,2022-12-12,2022-12-12,長広株式会社,,株式会社,大阪府,堺市北区,東雲東町１丁４－１６,,27,146,5918041,,,,,,,2022-12-12,1,,,,,ナガヒロ,0
1417,6120103004962,新規,0,2022-12-12,2022-12-12,合同会社めるきゅーる,,合同会社,大阪府,堺市中区,八田北町３２８番地インテックス８番館１０１号,,27,142,5998262,,,,,,,2022-12-12,1,,,,,メルキュール,0
1418,6120901046834,新規,0,2022-12-12,2022-12-12,株式会社いちはな,,株式会社,大阪府,豊中市,三国２丁目２番５９－９０１号,,27,203,5610822,,,,,,,2022-12-12,1,,,,,イチハナ,0
1431,6150003002832,新規,0,2022-12-12,2022-12-12,合同会社ＣｏＶｏ,,合同会社,奈良県,香芝市,旭ケ丘１丁目７番地９,,29,210,6390266,,,,,,,2022-12-12,1,,,,,コヴォ,0
1432,6150005009446,新規,0,2022-12-12,2022-12-12,医療法人友和会,,その他の設立登記法人,奈良県,奈良市,三碓３丁目１１番１号,,29,201,6310061,,,,,,,2022-12-12,1,,,,,ユウワカイ,0
1445,6180001154128,新規,0,2022-12-12,2022-12-12,オーラルケアマネジメント株式会社,,株式会社,愛知県,名古屋市千種区,法王町２丁目５番地Ｇ１０Ｅ,,23,101,4640057,,,,,,,2022-12-12,1,,,,,オーラルケアマネジメント,0
1446,6180001154136,新規,0,2022-12-12,2022-12-12,株式会社中野屋,,株式会社,愛知県,名古屋市中区,大須３丁目３０番２５号合点承知ビル２Ｆ,,23,106,4600011,,,,,,,2022-12-12,1,,,,,ナカノヤ,0
1447,6180001154144,新規,0,2022-12-12,2022-12-12,コンサルバリュー株式会社,,株式会社,愛知県,名古屋市昭和区,南山町１５番１５号,,23,107,4660835,,,,,,,2022-12-12,1,,,,,コンサルバリュー,0
1448,6180001154160,新規,0,2022-12-12,2022-12-12,ＭＩＹＡＢＩ株式会社,,株式会社,愛知県,名古屋市緑区,大高町字砂畑３１番地,,23,114,4598001,,,,,,,2022-12-12,1,,,,,ミヤビ,0
1449,6180001154169,新規,0,2022-12-12,2022-12-12,株式会社ＨＡＲＵ,,株式会社,愛知県,北名古屋市,宇福寺中杁３５番地１,,23,234,4810035,,,,,,,2022-12-12,1,,,,,ハル,0
1471,6250003003192,新規,0,2022-12-12,2022-12-12,合同会社ＮＵ,,合同会社,山口県,萩市,大字古萩町９１番地２,,35,204,7580026,,,,,,,2022-12-12,1,,,,,エヌユー,0
1494,6320001019464,新規,0,2022-12-12,2022-12-12,株式会社ＹＵＭＥＧＹＯ　ＩＮＴＥＲＮＡＴＩＯＮＡＬ,,株式会社,大分県,別府市,田の湯町３番７号４階,,44,202,8740909,,,,,,,2022-12-12,1,,,,,ユメギョウインターナショナル,0
1498,6350001018075,新規,0,2022-12-12,2022-12-12,株式会社米良コンサルタント,,株式会社,宮崎県,宮崎市,別府町４番３３号,,45,201,8800802,,,,,,,2022-12-12,1,,,,,メラコンサルタント,0
1513,6430001088028,新規,0,2022-12-12,2022-12-12,株式会社レゾナンスフーズ,,株式会社,北海道,札幌市中央区,大通東４丁目２番２号,,01,101,0600041,,,,,,,2022-12-12,1,,,,,レゾナンスフーズ,0
1522,6700150113343,新規,0,2022-12-12,2022-12-12,Ｚｈｅｎｇｚｈｏｕ　Ｍｕｊｉｕ　Ｍａｏｙｉｙｏｕｘｉａｎｇｏｎｇｓｉ,,外国会社等,,,,,,,,Ｈｅｎａｎ，Ｚｈｅｎｇｚｈｏｕ，Ｇｕａｎｃｈｅｎｇｑｕ，Ｇｕａｎｃｈｅｎｇｑｕ　Ｓｈａｎｇｃｈｅｎｇｌｕ　２８１ｈａｏ　４０５ｈａｏ,,,,,,2022-12-12,1,,,,,テイシュウボキュウボウエキユウシィアンゴンスー,0
1529,7010001231421,新規,0,2022-12-12,2022-12-12,株式会社まこプロ,,株式会社,東京都,千代田区,神田平河町１番地第３東ビル６階,,13,101,1010027,,,,,,,2022-12-12,1,,,,,マコプロ,0
1530,7010001231438,新規,0,2022-12-12,2022-12-12,株式会社ＮＡＳ,,株式会社,東京都,千代田区,神田佐久間町１丁目８番４号アルテール秋葉原７０８,,13,101,1010025,,,,,,,2022-12-12,1,,,,,エヌエーエス,0
1531,7010001231446,新規,0,2022-12-12,2022-12-12,株式会社しろあめ,,株式会社,東京都,中央区,築地３丁目２番１３号,,13,102,1040045,,,,,,,2022-12-12,1,,,,,シロアメ,0
1546,7010401171283,新規,0,2022-12-12,2022-12-12,株式会社ＧｌｏｂｅＸ,,株式会社,東京都,港区,六本木４丁目３番１１号六本木ユニハウス２２３,,13,103,1060032,,,,,,,2022-12-12,1,,,,,グローベックス,0
1550,7010703006501,新規,0,2022-12-12,2022-12-12,ＴＯＳＥＩ合同会社,,合同会社,東京都,品川区,東品川４丁目１１番３６号プライムパークス品川シーサイドザ・タワー７０９号,,13,109,1400002,,,,,,,2022-12-12,1,,,,,トーセイ,0
1552,7010801033505,新規,0,2022-12-12,2022-12-12,株式会社ＮＡＣＨＵＰＡＣ,,株式会社,東京都,大田区,萩中２丁目１番３号,,13,111,1440047,,,,,,,2022-12-12,1,,,,,ナチュパク,0
1563,7011001151386,新規,0,2022-12-12,2022-12-12,株式会社シロロク,,株式会社,東京都,渋谷区,渋谷１丁目１７番４号,,13,113,1500002,,,,,,,2022-12-12,1,,,,,シロロク,0
1572,7011301028301,新規,0,2022-12-12,2022-12-12,ＨＩＪＩ’Ｓ株式会社,,株式会社,東京都,杉並区,上荻２丁目１９番１０号,,13,115,1670043,,,,,,,2022-12-12,1,,,,,ヒジーズ,0
1573,7011403003846,新規,0,2022-12-12,2022-12-12,合同会社ｐｅａｒ　ｈａｗｋ,,合同会社,東京都,板橋区,中丸町３番１－５０６号,,13,119,1730026,,,,,,,2022-12-12,1,,,,,ペアーホーク,0
1580,7011501028745,新規,0,2022-12-12,2022-12-12,株式会社ＫＡＤ,,株式会社,東京都,荒川区,荒川１丁目１５番１号,,13,118,1160002,,,,,,,2022-12-12,1,,,,,ケイエイディー,0
1583,7011601026426,新規,0,2022-12-12,2022-12-12,株式会社小泉設備,,株式会社,東京都,練馬区,高野台１丁目１５番２号,,13,120,1770033,,,,,,,2022-12-12,1,,,,,コイズミセツビ,0
1603,7020001149324,新規,0,2022-12-12,2022-12-12,株式会社ＳＯＬＵＴＥ,,株式会社,神奈川県,横浜市中区,万代町２丁目４番地５,,14,104,2310031,,,,,,,2022-12-12,1,,,,,,0
1604,7020001149340,新規,0,2022-12-12,2022-12-12,株式会社Ｈｉｒｅ　ｗｏｒｋｓ,,株式会社,神奈川県,川崎市川崎区,駅前本町１１番地２川崎フロンティアビル４階,,14,131,2100007,,,,,,,2022-12-12,1,,,,,ハイアーワークス,0
1605,7020001149373,新規,0,2022-12-12,2022-12-12,株式会社Ｍ‐ＨＯＵＳＥホールディングス,,株式会社,神奈川県,横浜市泉区,中田東１丁目６番６号,,14,116,2450013,,,,,,,2022-12-12,1,,,,,エムハウスホールディングス,0
1610,7020003022859,新規,0,2022-12-12,2022-12-12,ＵＰＴＯＹＯＵ合同会社,,合同会社,神奈川県,横浜市西区,浅間町１丁目４番３号,,14,103,2200072,,,,,,,2022-12-12,1,,,,,アップトゥーユー,0
1611,7020003022867,新規,0,2022-12-12,2022-12-12,合同会社寿楽,,合同会社,神奈川県,横浜市旭区,今宿東町６１５番地２０,,14,112,2410032,,,,,,,2022-12-12,1,,,,,ジュラク,0
1612,7020003022875,新規,0,2022-12-12,2022-12-12,合同会社ＫＧエンジニア,,合同会社,神奈川県,横浜市保土ケ谷区,境木本町５５番２５号,,14,106,2400033,,,,,,,2022-12-12,1,,,,,ケージーエンジニア,0
1613,7020003022883,新規,0,2022-12-12,2022-12-12,合同会社Ｋ,,合同会社,神奈川県,横浜市港北区,箕輪町２丁目２番１２－２０６号,,14,109,2230051,,,,,,,2022-12-12,1,,,,,ケイ,0
1618,7021003012494,新規,0,2022-12-12,2022-12-12,合同会社ｍｉｎａ　ａｎ　ｉｋｏｒ,,合同会社,神奈川県,秦野市,東田原１７９番地の９,,14,211,2570028,,,,,,,2022-12-12,1,,,,,ミナアンイコル,0
1626,7030001151411,新規,0,2022-12-12,2022-12-12,ＲＡＮＫ　ＭＡＳＴＥＲ株式会社,,株式会社,埼玉県,本庄市,寿１丁目１－１８,,11,211,3670023,,,,,,,2022-12-12,1,,,,,ランクマスター,0
1631,7030005021081,新規,0,2022-12-12,2022-12-12,一般社団法人日華企業総商会,,その他の設立登記法人,埼玉県,川口市,上青木６丁目３４番１１号２０１号,,11,203,3330844,,,,,,,2022-12-12,1,,,,,,0
1638,7040003021289,新規,0,2022-12-12,2022-12-12,合同会社Ｐａｄｄｙ　Ｉｎｄｕｓｔｒｉｅｓ,,合同会社,千葉県,市川市,柏井町２丁目１３０２番地４,,12,203,2720802,,,,,,,2022-12-12,1,,,,,パディインダストリーズ,0
1639,7040003021462,新規,0,2022-12-12,2022-12-12,ＣＨＩＢＡ　ＡＵＴＯ　ＭＯＴＯＲＳ合同会社,,合同会社,千葉県,山武市,森１４５６番地１６－１０１号室,,12,237,2891214,,,,,,,2022-12-12,1,,,,,チバオートモータース,0
1644,7050003007080,新規,0,2022-12-12,2022-12-12,合同会社Ｎｅｘｔ　Ｃｒｅａｔｉｏｎ,,合同会社,茨城県,つくば市,筑穂２丁目７－１,,08,220,3003257,,,,,,,2022-12-12,1,,,,,ネクストクリエーション,0
1672,7120003023062,新規,0,2022-12-12,2022-12-12,ＷＡＫＵ．合同会社,,合同会社,大阪府,大阪市北区,大淀南２丁目１番１－１８０２号,,27,127,5310075,,,,,,,2022-12-12,1,,,,,ワクドット,0
1673,7120005023333,新規,0,2022-12-12,2022-12-12,一般社団法人ＭＯＫスクール,,その他の設立登記法人,大阪府,大阪市福島区,福島２丁目９番１５号,,27,103,5530003,,,,,,,2022-12-12,1,,,,,モクスクール,0
1675,7120101066640,新規,0,2022-12-12,2022-12-12,なごみ株式会社,,株式会社,大阪府,堺市堺区,甲斐町西３丁１－１６,,27,141,5900950,,,,,,,2022-12-12,1,,,,,ナゴミ,0
1676,7120101066649,新規,0,2022-12-12,2022-12-12,ＴＥＦ製作所株式会社,,株式会社,大阪府,堺市西区,原田１１０番地１,,27,144,5938317,,,,,,,2022-12-12,1,,,,,テフセイサクショ,0
1677,7120103004961,新規,0,2022-12-12,2022-12-12,合同会社ゆうのう,,合同会社,大阪府,堺市西区,上６７０番地１ファミールハイツ鳳ＩＩＩ番館５０６号,00128750,27,144,5938311,,,,,,,2022-12-12,1,,,,,ユウノウ,0
1684,7122003002467,新規,0,2022-12-12,2022-12-12,ＤＵＳＣＯ　ＪＡＰＡＮ合同会社,,合同会社,大阪府,東大阪市,横小路町４丁目６番９－２０２号,,27,227,5798063,,,,,,,2022-12-12,1,,,,,ダスコジャパン,0
1687,7130001073249,新規,0,2022-12-12,2022-12-12,朴居茶事美学株式会社,,株式会社,京都府,京都市左京区,吉田中大路町２２番地ジュアール吉田２１０号,,26,103,6068313,,,,,,,2022-12-12,1,,,,,ボクイサジビガク,0
1693,7140003018449,新規,0,2022-12-12,2022-12-12,ＡＩライフデザイン合同会社,,合同会社,兵庫県,神戸市中央区,北野町４丁目１７番１０号,,28,110,6500002,,,,,,,2022-12-12,1,,,,,エイアイライフデザイン,0
1694,7150003002823,新規,0,2022-12-12,2022-12-12,合同会社ｄｅｃｉｄｅ　ｆｉｒｓｔ,,合同会社,奈良県,橿原市,常盤町１７６－８常盤マンション５号館１０１号室,,29,205,6340003,,,,,,,2022-12-12,1,,,,,ディサイドファースト,0
1696,7160001024678,新規,0,2022-12-12,2022-12-12,株式会社ｌｉｃｈｔ　ｈａｉｒ,,株式会社,滋賀県,守山市,二町町７番地１０,,25,207,5240043,,,,,,,2022-12-12,1,,,,,リヒトヘアー,0
1706,7180001154143,新規,0,2022-12-12,2022-12-12,尾張北部エコクリエイション株式会社,,株式会社,愛知県,犬山市,大字犬山字上時迫間１番地の１１,,23,215,4840081,,,,,,,2022-12-12,1,,,,,オワリホクブエコクリエイション,0
1711,7180003024583,新規,0,2022-12-12,2022-12-12,合同会社Ｓ‐Ｈｅａｒｔ,,合同会社,愛知県,半田市,宮本町３丁目２０１番地の１３,,23,205,4750925,,,,,,,2022-12-12,1,,,,,エスハート,0
1720,7210001019177,新規,0,2022-12-12,2022-12-12,宇野ホールディングス株式会社,,株式会社,福井県,福井市,みのり１丁目７番２号,,18,201,9188005,,,,,,,2022-12-12,1,,,,,ウノホールディングス,0
1727,7230005009271,新規,0,2022-12-12,2022-12-12,南砺ひととみらい協同組合,,その他の設立登記法人,富山県,南砺市,山見１７３９番地の２,,16,210,9320231,,,,,,,2022-12-12,1,,,,,ナントヒトトミライ,0
1729,7240001060756,新規,0,2022-12-12,2022-12-12,シングルエステート株式会社,,株式会社,広島県,広島市南区,段原南２丁目２番２号丸山ビル１階,,34,103,7320814,,,,,,,2022-12-12,1,,,,,シングルエステート,0
1730,7240001060780,新規,0,2022-12-12,2022-12-12,株式会社ＳＦＣ,,株式会社,広島県,福山市,緑陽町１丁目１６番１０号,,34,207,7200021,,,,,,,2022-12-12,1,,,,,エスエフシー,0
1733,7260001037488,新規,0,2022-12-12,2022-12-12,株式会社Ｉ　Ｓｐｒｅａｄ,,株式会社,岡山県,岡山市北区,御津金川４５４番地,,33,101,7092133,,,,,,,2022-12-12,1,,,,,アイスプレッド,0
1743,7290003013303,新規,0,2022-12-12,2022-12-12,ＷＩＮＤ　ＧＲＯＵＰ合同会社,,合同会社,福岡県,福岡市博多区,吉塚本町７－１６プラッツ吉塚１０１号,,40,132,8120046,,,,,,,2022-12-12,1,,,,,ウインドグループ,0
1753,7340001025229,新規,0,2022-12-12,2022-12-12,株式会社８,,株式会社,鹿児島県,曽於市,末吉町南之郷１１６番地３,,46,217,8998608,,,,,,,2022-12-12,1,,,,,エイト,0
1768,7410001013341,新規,0,2022-12-12,2022-12-12,Ａｌｂａ　Ｌｅａｄ株式会社,,株式会社,秋田県,秋田市,川尻総社町１１番１８号,,05,201,0100946,,,,,,,2022-12-12,1,,,,,アルバリード,0
1783,7470003002304,新規,0,2022-12-12,2022-12-12,合同会社ＦＩＣ,,合同会社,香川県,高松市,小村町１９８番地２０クレストールＫ４－１０３号,,37,201,7610431,,,,,,,2022-12-12,1,,,,,エフアイシー,0
1784,7700150113086,新規,0,2022-12-12,2022-11-30,音物語,,その他,愛知県,犬山市,字横町２３４番地１,,23,215,4840853,,,,,,,2022-11-30,1,,,,,オトモノガタリ,0
1785,7700150113342,新規,0,2022-12-12,2022-12-12,Ｗｕｈａｎ　Ｈｕａｎ　Ｑｉｕ　Ｙｕｎ　Ｌｉａｎ　Ｎｅｔｗｏｒｋ　Ｔｅｃｈｎｏｌｏｇｙ　Ｃｏ．，Ｌｔ,,外国会社等,,,,,,,,ｄｏｎｇｈｕｘｉｎｊｉｓｈｕｋａｉｆａｑｕ，ｆｏｚｕｌｉｎｊｉｅｄａｏ，ｈｕａｎｇｌｏｎｇｓｈａｎｎａｎｌｕ，ｇｕａｎｇｇｕ，ｗｕｈａｎ，Ｃｈｉｎａ,,,,,,2022-12-12,1,,,,,ブカンカンキュウウレンモウラケイジユウシィアンゴンスー,0
1794,8010001231420,新規,0,2022-12-12,2022-12-12,株式会社グロースアイ,,株式会社,東京都,文京区,白山５丁目１７番３２－３０１号,,13,105,1120001,,,,,,,2022-12-12,1,,,,,グロースアイ,0
1795,8010001231429,新規,0,2022-12-12,2022-12-12,株式会社ＧＯＬＤ‐Ｇａｔｅ,,株式会社,東京都,八丈島八丈町,大賀郷２３３３,,13,401,1001401,,,,,,,2022-12-12,1,,,,,ゴールドゲート,0
1796,8010001231461,新規,0,2022-12-12,2022-12-12,ｔｓｕｍｕｇｕ　ｂｙ　ｃｋｉ．株式会社,,株式会社,東京都,中央区,入船１丁目７番８号,,13,102,1040042,,,,,,,2022-12-12,1,,,,,ツムグバイシキ,0
1797,8010001231486,新規,0,2022-12-12,2022-12-12,株式会社小林産業,,株式会社,東京都,中央区,日本橋蛎殻町２丁目１３番４号,,13,102,1030014,,,,,,,2022-12-12,1,,,,,,0
1811,8010401171290,新規,0,2022-12-12,2022-12-12,ＹＯＴＥＮ株式会社,,株式会社,東京都,港区,南青山１丁目２０番２号,,13,103,1070062,,,,,,,2022-12-12,1,,,,,ヨテン,0
1812,8010401171308,新規,0,2022-12-12,2022-12-12,ＸＲｗａｖｅ　Ｊａｐａｎ株式会社,,株式会社,東京都,港区,麻布十番３丁目１０番１２号シティ麻布２階,,13,103,1060045,,,,,,,2022-12-12,1,,,,,エックスアールウェイブジャパン,0
1814,8010403029140,新規,0,2022-12-12,2022-12-12,ＳＨＫインベストメント合同会社,,合同会社,東京都,港区,元赤坂１丁目１番７号,,13,103,1070051,,,,,,,2022-12-12,1,,,,,エスエイチケイインベストメント,0
1829,8011001151352,新規,0,2022-12-12,2022-12-12,株式会社トライエント,,株式会社,東京都,渋谷区,渋谷３丁目１３－５,,13,113,1500002,,,,,,,2022-12-12,1,,,,,トライエント,0
1830,8011001151385,新規,0,2022-12-12,2022-12-12,Ｆａｎｄｏｍｏｎ株式会社,,株式会社,東京都,渋谷区,神宮前６丁目２３－４桑野ビル２Ｆ,,13,113,1500001,,,,,,,2022-12-12,1,,,,,ファンダモン,0
1831,8011001151427,新規,0,2022-12-12,2022-12-12,ＤＩＴ株式会社,,株式会社,東京都,渋谷区,神宮前５丁目１８番７号,,13,113,1500001,,,,,,,2022-12-12,1,,,,,ディーアイティー,0
1832,8011003015902,新規,0,2022-12-12,2022-12-12,合同会社Ｔ‐ａｒｔｉｃｌｅ,,合同会社,東京都,渋谷区,道玄坂１丁目１０番８号渋谷道玄坂東急ビル２Ｆ－Ｃ,,13,113,1500043,,,,,,,2022-12-12,1,,,,,ティーアーティクル,0
1844,8011101101125,新規,0,2022-12-12,2022-12-12,株式会社ＳＥＣＳ,,株式会社,東京都,新宿区,西新宿３丁目３番１３号,,13,104,1600023,,,,,,,2022-12-12,1,,,,,エスイーシーエス,0
1845,8011101101141,新規,0,2022-12-12,2022-12-12,株式会社Ｓｅｎｔｉｏ,,株式会社,東京都,新宿区,西五軒町４番１１号,,13,104,1620812,,,,,,,2022-12-12,1,,,,,センティオ,0
1855,8011403003845,新規,0,2022-12-12,2022-12-12,ＳＡ　ｓｅｒｖｉｃｅ合同会社,,合同会社,東京都,板橋区,大山東町５９－１０－３Ｆ,,13,119,1730014,,,,,,,2022-12-12,1,,,,,エスエーサービス,0
1856,8011505002522,新規,0,2022-12-12,2022-12-12,一般社団法人新東京民間救急協会,,その他の設立登記法人,東京都,北区,東十条４丁目６番１１号,,13,117,1140001,,,,,,,2022-12-12,1,,,,,シントウキョウミンカンキュウキュウキョウカイ,0
1858,8011803005425,新規,0,2022-12-12,2022-12-12,前田造園合同会社,,合同会社,東京都,足立区,六木１丁目１８番２０号,,13,121,1210052,,,,,,,2022-12-12,1,,,,,マエダゾウエン,0
1859,8012401039955,新規,0,2022-12-12,2022-12-12,株式会社ＬＯＮｂｅａｎｏ,,株式会社,東京都,武蔵野市,御殿山１丁目５番５号,,13,203,1800005,,,,,,,2022-12-12,1,,,,,ロンビーノ,0
1861,8012703002594,新規,0,2022-12-12,2022-12-12,メディカジ合同会社,,合同会社,東京都,小平市,花小金井６丁目１５ー１ー１,,13,211,1870002,,,,,,,2022-12-12,1,,,,,メディカジ,0
1871,8020001149323,新規,0,2022-12-12,2022-12-12,株式会社エスエフテック,,株式会社,神奈川県,横浜市港南区,野庭町５９０番地１京急プライムテラス上永谷２０３号,,14,111,2340056,,,,,,,2022-12-12,1,,,,,エスエフテック,0
1872,8020001149372,新規,0,2022-12-12,2022-12-12,株式会社ＳＳＲ,,株式会社,神奈川県,川崎市川崎区,小田５丁目８番２号ティワイマンション１Ｆ,,14,131,2100846,,,,,,,2022-12-12,1,,,,,エスエスアール,0
1876,8020003022874,新規,0,2022-12-12,2022-12-12,合同会社Ｌアセット,,合同会社,神奈川県,川崎市中原区,小杉御殿町１丁目９０４,,14,133,2110068,,,,,,,2022-12-12,1,,,,,,0
1877,8020003022882,新規,0,2022-12-12,2022-12-12,合同会社ＷＯＲＫＦＬＯＷＳ,,合同会社,神奈川県,川崎市中原区,新丸子東３丁目１１００番地１５Ｓ１８１３,,14,133,2110004,,,,,,,2022-12-12,1,,,,,ワークフローズ,0
1878,8020003022890,新規,0,2022-12-12,2022-12-12,合同会社アルティエ,,合同会社,神奈川県,横浜市西区,浅間町１丁目４番３号ウィザードビル４０２,,14,103,2200072,,,,,,,2022-12-12,1,,,,,アルティエ,0
1883,8021003012493,新規,0,2022-12-12,2022-12-12,合同会社Ｇｏｏｄｆｅｌｌｏｗｓ,,合同会社,神奈川県,茅ヶ崎市,幸町２２－２３大和第三ビル２０２号室,,14,207,2530052,,,,,,,2022-12-12,1,,,,,グッドフェローズ,0
1887,8030001151352,新規,0,2022-12-12,2022-12-12,株式会社ラプラス,,株式会社,埼玉県,川越市,並木新町１１番地３（カーサ・ブランカ並木１０２号室）,,11,201,3500024,,,,,,,2022-12-12,1,,,,,ラプラス,0
1888,8030001151369,新規,0,2022-12-12,2022-12-12,株式会社般若,,株式会社,埼玉県,南埼玉郡宮代町,中央２丁目３－７アルカディア１０３号,,11,442,3450821,,,,,,,2022-12-12,1,,,,,ハンニャ,0
1889,8030001151402,新規,0,2022-12-12,2022-12-12,株式会社東越商事,,株式会社,埼玉県,川口市,芝中田２丁目８番２８号志陽ハイツ芝中田３０１号室,,11,203,3330847,,,,,,,2022-12-12,1,,,,,トウエツショウジ,0
1890,8030001151419,新規,0,2022-12-12,2022-12-12,ティナ株式会社,,株式会社,埼玉県,狭山市,大字水野３５７番地の１０１,,11,215,3501317,,,,,,,2022-12-12,1,,,,,ティナ,0
1894,8030003020704,新規,0,2022-12-12,2022-12-12,合同会社Ｋ．Ｒ．ＳＵＮＲＩＳＥ　ＩＮＴＥＲＮＡＴＩＯＮＡＬ,,合同会社,埼玉県,川口市,西青木２丁目４番３２号モール青木２０６,,11,203,3320035,,,,,,,2022-12-12,1,,,,,ケーアールサンライズインターナショナル,0
1905,8050001052078,新規,0,2022-12-12,2022-12-12,株式会社東条建設,,株式会社,茨城県,筑西市,伊佐山１１９番地８,,08,227,3080856,,,,,,,2022-12-12,1,,,,,トウジョウケンセツ,0
1921,8080103002705,新規,0,2022-12-12,2022-12-12,合同会社エムケーフーズ,,合同会社,静岡県,富士市,今泉３１６４番地の７,,22,210,4170001,,,,,,,2022-12-12,1,,,,,エムケーフーズ,0
1923,8080401026199,新規,0,2022-12-12,2022-12-12,株式会社やまびこドローン,,株式会社,静岡県,浜松市天竜区,横川２６４５,,22,137,4313301,,,,,,,2022-12-12,1,,,,,ヤマビコドローン,0
1946,8120001250698,新規,0,2022-12-12,2022-12-12,株式会社ＧＬＯＷ,,株式会社,大阪府,大阪市北区,鶴野町３番２１号ダイナシティ梅田８０２,,27,127,5300014,,,,,,,2022-12-12,1,,,,,グロー,0
1947,8120001250954,新規,0,2022-12-12,2022-12-12,株式会社Ｔｒｅｓ,,株式会社,大阪府,大阪市西成区,旭１丁目１１番２６号,,27,122,5570032,,,,,,,2022-12-12,1,,,,,トレス,0
1948,8120001250962,新規,0,2022-12-12,2022-12-12,株式会社中野商事,,株式会社,大阪府,大阪市東住吉区,南田辺５丁目１９番２号,,27,121,5460033,,,,,,,2022-12-12,1,,,,,ナカノショウジ,0
1951,8120003023053,新規,0,2022-12-12,2022-12-12,合同会社スマイルライフ,,合同会社,大阪府,大阪市港区,市岡元町１丁目５番２０号新原ビル１階,,27,107,5520002,,,,,,,2022-12-12,1,,,,,スマイルライフ,0
1954,8120103004960,新規,0,2022-12-12,2022-12-12,ＪａＶｉｎａ合同会社,,合同会社,大阪府,岸和田市,藤井町２丁目１６番２６号ハイツ大善１０２号,,27,202,5960046,,,,,,,2022-12-12,1,,,,,ジャヴィーナ,0
1956,8120901046849,新規,0,2022-12-12,2022-12-12,株式会社ＹＴ,,株式会社,大阪府,茨木市,星見町２２番１１号,,27,211,5670843,,,,,,,2022-12-12,1,,,,,ワイティ,0
1967,8130001073248,新規,0,2022-12-12,2022-12-12,日本福澤株式会社,,株式会社,京都府,京都市左京区,吉田中大路町２２番地２０２,,26,103,6068313,,,,,,,2022-12-12,1,,,,,ニホンフクザワ,0
1969,8130003008375,新規,0,2022-12-12,2022-12-12,合同会社ＭＲＰＧ,,合同会社,京都府,京都市山科区,椥辻草海道町２５番地９４,00128747,26,110,6078162,,,,,,,2022-12-12,1,,,,,エムアールピージー,0
1975,8140003018448,新規,0,2022-12-12,2022-12-12,ＳＴＵＤＩＯ１０６合同会社,,合同会社,兵庫県,神戸市中央区,北野町４丁目１７番１０号,,28,110,6500002,,,,,,,2022-12-12,1,,,,,スタジオイチゼロロク,0
1976,8150001025998,新規,0,2022-12-12,2022-12-12,株式会社トリプルエー,,株式会社,奈良県,奈良市,あやめ池北３丁目１７番１３号,,29,201,6310032,,,,,,,2022-12-12,1,,,,,トリプルエー,0
1988,8180001154126,新規,0,2022-12-12,2022-12-12,ＳＵＮ．株式会社,,株式会社,愛知県,名古屋市中区,丸の内２丁目１１番４号（プレサンスロジェ丸の内ＣＥＮＴＲＡＬＣＡＳＡ７０１号）,,23,106,4600002,,,,,,,2022-12-12,1,,,,,サン,0
1989,8180001154167,新規,0,2022-12-12,2022-12-12,コネクトレイ株式会社,,株式会社,愛知県,名古屋市瑞穂区,妙音通４丁目２９－７０２,,23,108,4670842,,,,,,,2022-12-12,1,,,,,コネクトレイ,0
1991,8180005020019,新規,0,2022-12-12,2022-12-12,ＮＰＯ法人まぁるい,,その他の設立登記法人,愛知県,半田市,旭町２丁目３６番地の１,,23,205,4750838,,,,,,,2022-12-12,1,,,,,マァルイ,0
1999,8200001040752,新規,0,2022-12-12,2022-12-12,楽園・ボーの森株式会社,,株式会社,岐阜県,恵那市,武並町藤２４０２番地５２,,21,210,5097121,,,,,,,2022-12-12,1,,,,,ラクエンボーノモリ,0
2000,8200003005761,新規,0,2022-12-12,2022-12-12,ＪＨＢＬ合同会社,,合同会社,岐阜県,大垣市,青柳町１丁目３２番地,,21,202,5030961,,,,,,,2022-12-12,1,,,,,ジェイエイチビーエル,0
2009,8240001060763,新規,0,2022-12-12,2022-12-12,株式会社Ｓ．Ｓ．ｉ,,株式会社,広島県,竹原市,忠海床浦１丁目１４番１３号,,34,203,7292314,,,,,,,2022-12-12,1,,,,,エスエスアイ,0
2010,8240003005923,新規,0,2022-12-12,2022-12-12,合同会社シルクズ,,合同会社,広島県,尾道市,山波町２０１０６番地６,,34,205,7220052,,,,,,,2022-12-12,1,,,,,シルクズ,0
2014,8270001008685,新規,0,2022-12-12,2022-12-12,株式会社ケイファーム,,株式会社,鳥取県,米子市,旗ヶ崎７丁目１６番１８号,,31,202,6830845,,,,,,,2022-12-12,1,,,,,ケイファーム,0
2020,8290001099797,新規,0,2022-12-12,2022-12-12,株式会社３６５,,株式会社,福岡県,福岡市南区,清水３丁目２０－１５添田ビル２０１号,,40,134,8150031,,,,,,,2022-12-12,1,,,,,サンロクゴー,0
2021,8290001099830,新規,0,2022-12-12,2022-12-12,株式会社ビズブレイン,,株式会社,福岡県,福岡市早良区,大字西油山１８６番地,,40,137,8140173,,,,,,,2022-12-12,1,,,,,ビズブレイン,0
2022,8290001099863,新規,0,2022-12-12,2022-12-12,株式会社果熊倶楽部,00128760,株式会社,福岡県,福岡市博多区,博多駅前４丁目３３－７ロマネスク博多駅前４０７,,40,132,8120011,,,,,,,2022-12-12,1,,,,,クダクマクラブ,0
2028,8300005007119,新規,0,2022-12-12,2022-12-12,弁護士法人安永法律事務所,,その他の設立登記法人,佐賀県,佐賀市,松原１丁目４番２８号,,41,201,8400831,,,,,,,2022-12-12,1,,,,,ヤスナガホウリツジムショ,0
2034,8360001031298,新規,0,2022-12-12,2022-12-12,株式会社新屋養鶏場,,株式会社,沖縄県,島尻郡八重瀬町,字富盛１５１９番地,,47,362,9010402,,,,,,,2022-12-12,1,,,,,シンヤヨウケイジョウ,0
2036,8360003012544,新規,0,2022-12-12,2022-12-12,合同会社川平企画,,合同会社,沖縄県,石垣市,字川平１０３３番５４,,47,207,9070453,,,,,,,2022-12-12,1,,,,,カビラキカク,0
2037,8360003012552,新規,0,2022-12-12,2022-12-12,合同会社Ｕｌｔｒａ　Ｌｅａｒｎｉｎｇ,,合同会社,沖縄県,那覇市,天久１丁目２７－１７コーポドリーム２０５号,,47,201,9000005,,,,,,,2022-12-12,1,,,,,ウルトララーニング,0
2039,8370001049356,新規,0,2022-12-12,2022-12-12,セブンサービス株式会社,,株式会社,宮城県,宮城郡七ヶ浜町,遠山２丁目３番６１号,,04,404,9850823,,,,,,,2022-12-12,1,,,,,セブンサービス,0
2070,8480003001898,新規,0,2022-12-12,2022-12-12,合同会社心彩,,合同会社,徳島県,鳴門市,大麻町桧字ダンノ上２４番地,,36,202,7790225,,,,,,,2022-12-12,1,,,,,ココイロ,0
2073,8700150113341,新規,0,2022-12-12,2022-12-12,Ｗｕｈａｎ　Ｙｏｕｙｉｂｅｉ　Ｍａｏｙｉ　Ｙｏｕｘｉａｎ　Ｇｏｎｇｓｉ－Ｇｅ　Ｘｕ,,外国会社等,,,,,,,,ｊｉａｎｇｘｉａｑｕ，ｃａｎｇｌｏｎｇｄａｏ，ｃｈａｎｇｊｕｃｕｎ，ｌｉｍｉｎｇｇｏｎｇｙｅｙｕａｎ２ｈａｏｃｈａｎｇｆａｎｇｊｉｆｕｓｈｕｚｏｎｇｈｅｌｏｕ２ｄａｎｙｕａｎ，６ｃｅｎｇ０８ｈａｏ，Ｗｕｈａｎ，Ｈｕｂｅｉ，Ｃｈｉｎａ,,,,,,2022-12-12,1,,,,,ブカンユーイーベボウエキユウシィアンゴンスー,0
2081,9010001231477,新規,0,2022-12-12,2022-12-12,株式会社サブネットラボ,,株式会社,東京都,千代田区,大手町１丁目５番１号大手町ファーストスクエアイーストタワー４Ｆ,,13,101,1000004,,,,,,,2022-12-12,1,,,,,サブネットラボ,0
2084,9010003039299,新規,0,2022-12-12,2022-12-12,ＨａｗｋＳｐｅｃｔ合同会社,,合同会社,東京都,中央区,銀座１丁目１２番４号Ｎ＆ＥＢＬＤ．６Ｆ,,13,102,1040061,,,,,,,2022-12-12,1,,,,,ホークスペクト,0
2100,9010401171315,新規,0,2022-12-12,2022-12-12,株式会社ＫＡＭ　ＣＡＭ,,株式会社,東京都,港区,赤坂８丁目６番２７号,,13,103,1070052,,,,,,,2022-12-12,1,,,,,カムカム,0
2106,9010601062272,新規,0,2022-12-12,2022-12-12,株式会社ＮＴＤ,,株式会社,東京都,墨田区,緑１丁目２１番４号,,13,107,1300021,,,,,,,2022-12-12,1,,,,,エヌティディ,0
2107,9010601062280,新規,0,2022-12-12,2022-12-12,株式会社ｎｏｄｕｓ,,株式会社,東京都,江東区,大島８丁目４０番１－３０４号,,13,108,1360072,,,,,,,2022-12-12,1,,,,,ノーダス,0
2108,9010601062289,新規,0,2022-12-12,2022-12-12,株式会社全日本都市開発,,株式会社,東京都,江東区,豊洲５丁目６番２９－３２６号,,13,108,1350061,,,,,,,2022-12-12,1,,,,,ゼンニホントシカイハツ,0
2111,9010603009899,新規,0,2022-12-12,2022-12-12,合同会社シンクウェイ錦糸町,,合同会社,東京都,墨田区,錦糸３丁目１１番１号ＫＯＷＡＩＩビル３Ｆ,00128748,13,107,1300013,,,,,,,2022-12-12,1,,,,,シンクウェイキンシチョウ,0
2121,9011001151351,新規,0,2022-12-12,2022-12-12,株式会社ギークス,,株式会社,東京都,渋谷区,渋谷３丁目１３－５,,13,113,1500002,,,,,,,2022-12-12,1,,,,,ギークス,0
2122,9011001151426,新規,0,2022-12-12,2022-12-12,株式会社ＧＥＮＳＥＮ,,株式会社,東京都,渋谷区,道玄坂１丁目１０番８号渋谷道玄坂東急ビル２Ｆ－Ｃ,,13,113,1500043,,,,,,,2022-12-12,1,,,,,ゲンセン,0
2126,9011003015884,新規,0,2022-12-12,2022-12-12,メディワークス合同会社,,合同会社,東京都,目黒区,東が丘１丁目１６番３号,,13,110,1520021,,,,,,,2022-12-12,1,,,,,メディワークス,0
2127,9011005009868,新規,0,2022-12-12,2022-12-12,一般社団法人京都‐歴史と文化発信事業推進実行委員会,,その他の設立登記法人,東京都,渋谷区,道玄坂１丁目１５番３号プリメーラ道玄坂６１８,,13,113,1500043,,,,,,,2022-12-12,1,,,,,キョウトレキシトブンカハッシンジギョウスイシンジッコウイインカイ,0
2133,9011101101099,新規,0,2022-12-12,2022-12-12,株式会社たねなの,,株式会社,東京都,新宿区,早稲田町７０番地１,,13,104,1620042,,,,,,,2022-12-12,1,,,,,タネナノ,0
2134,9011103012484,新規,0,2022-12-12,2022-12-12,合同会社ＥＷＨ,,合同会社,東京都,新宿区,西新宿３丁目３番１３号西新宿水間ビル６階,,13,104,1600023,,,,,,,2022-12-12,1,,,,,イーダブリューエイチ,0
2140,9011701025846,新規,0,2022-12-12,2022-12-12,田中情報システム株式会社,,株式会社,東京都,江戸川区,小松川１丁目４番２－１０１３号,,13,123,1320034,,,,,,,2022-12-12,1,,,,,タナカジョウホウシステム,0
2142,9011801041644,新規,0,2022-12-12,2022-12-12,美和株式会社,,株式会社,東京都,葛飾区,柴又６丁目２１番１０号,,13,122,1250052,,,,,,,2022-12-12,1,,,,,ミワ,0
2143,9012303001756,新規,0,2022-12-12,2022-12-12,合同会社ユニドラ,,合同会社,東京都,町田市,真光寺２丁目１６番地２,,13,209,1950057,,,,,,,2022-12-12,1,,,,,ユニドラ,0
2157,9020001149314,新規,0,2022-12-12,2022-12-12,ｔａｘ　ｍａｓｔｅｒ株式会社,,株式会社,神奈川県,川崎市川崎区,殿町１丁目１０番９号サン・フェルミン２０１号,,14,131,2100821,,,,,,,2022-12-12,1,,,,,タックスマスター,0
2158,9020001149330,新規,0,2022-12-12,2022-12-12,ネクタコレクト株式会社,,株式会社,神奈川県,横浜市南区,大岡２丁目７－１８第３浅岡ビル１００号室,,14,105,2320061,,,,,,,2022-12-12,1,,,,,ネクタコレクト,0
2160,9020003022873,新規,0,2022-12-12,2022-12-12,合同会社ケーアイ貿易,,合同会社,神奈川県,川崎市中原区,小杉御殿町１丁目９０４,,14,133,2110068,,,,,,,2022-12-12,1,,,,,,0
2161,9020003022881,新規,0,2022-12-12,2022-12-12,ＶＩＳＩＮＥ合同会社,,合同会社,神奈川県,川崎市高津区,千年１０４５番地ラフィーネＢ１０７,,14,134,2130022,,,,,,,2022-12-12,1,,,,,ビシネ,0
2163,9020005015768,新規,0,2022-12-12,2022-12-12,特定非営利活動法人日本大道芸協会,,その他の設立登記法人,神奈川県,横浜市中区,小港町１丁目１番２号ビューコート小港４－４０３,,14,104,2310802,,,,,,,2022-12-12,1,,,,,ニホンダイドウゲイキョウカイ,0
2175,9030001151401,新規,0,2022-12-12,2022-12-12,株式会社ＯＴＬ,,株式会社,埼玉県,所沢市,東町１２番２号米田ビル,,11,208,3591116,,,,,,,2022-12-12,1,,,,,オーティーエル,0
2176,9030001151418,新規,0,2022-12-12,2022-12-12,株式会社エースライン,,株式会社,埼玉県,戸田市,美女木７丁目１７番地の６,,11,224,3350031,,,,,,,2022-12-12,1,,,,,エースライン,0
2190,9040003021460,新規,0,2022-12-12,2022-12-12,合同会社ＲＥＶ,,合同会社,千葉県,市川市,新井１丁目１５－７,,12,203,2720144,,,,,,,2022-12-12,1,,,,,アールイーブイ,0
2193,9050001052077,新規,0,2022-12-12,2022-12-12,株式会社ＡＭＧ,,株式会社,茨城県,笠間市,箱田２６０８番地１,,08,216,3091631,,,,,,,2022-12-12,1,,,,,エーエムジー,0
2201,9070001039898,新規,0,2022-12-12,2022-12-12,株式会社奥軽井沢ファーム,,株式会社,群馬県,吾妻郡嬬恋村,大字大笹２６２３番地,,10,425,3771613,,,,,,,2022-12-12,1,,,,,オクカルイザワファーム,0
2208,9080103002704,新規,0,2022-12-12,2022-12-12,合同会社ＥＣＨ,,合同会社,静岡県,熱海市,桜町２番１０号,,22,205,4130028,,,,,,,2022-12-12,1,,,,,イーシーエイチ,0
2215,9100005012947,新規,0,2022-12-12,2022-12-12,特定非営利活動法人コスモス,,その他の設立登記法人,長野県,木曽郡上松町,栄町２丁目６６７,,20,422,3995605,,,,,,,2022-12-12,1,,,,,コスモス,0
2227,9120001250895,新規,0,2022-12-12,2022-12-12,株式会社ヒトクル,,株式会社,大阪府,大阪市中央区,難波２丁目３－１１（１１階－Ｃ）,,27,128,5420076,,,,,,,2022-12-12,1,,,,,ヒトクル,0
2228,9120001250953,新規,0,2022-12-12,2022-12-12,久豊株式会社,,株式会社,大阪府,大阪市浪速区,桜川４丁目１７番２７号,,27,111,5560022,,,,,,,2022-12-12,1,,,,,ヒサトヨ,0
2234,9120901046856,新規,0,2022-12-12,2022-12-12,イースマイネ株式会社,,株式会社,大阪府,豊中市,庄内西町２丁目４番３号,,27,203,5610832,,,,,,,2022-12-12,1,,,,,イースマイネ,0
2245,9140001128339,新規,0,2022-12-12,2022-12-12,株式会社東光社,,株式会社,兵庫県,宝塚市,ゆずり葉台２丁目１０番２９号,,28,214,6650025,,,,,,,2022-12-12,1,,,,,トウコウシャ,0
2249,9150001026013,新規,0,2022-12-12,2022-12-12,エアラボ株式会社,,株式会社,奈良県,奈良市,南京終町４丁目３７６番地の１,,29,201,6308141,,,,,,,2022-12-12,1,,,,,エアラボ,0
2267,9190001030011,新規,0,2022-12-12,2022-12-12,代官山小町株式会社,,株式会社,三重県,三重郡菰野町,大字吉澤８０番地,,24,341,5101226,,,,,,,2022-12-12,1,,,,,ダイカンヤマコマチ,0
2272,9240001060779,新規,0,2022-12-12,2022-12-12,株式会社ＬＩＦＩＸ,,株式会社,広島県,福山市,沖野上町４丁目５番１８－３０３号,,34,207,7200825,,,,,,,2022-12-12,1,,,,,リフィックス,0
2277,9260001037486,新規,0,2022-12-12,2022-12-12,株式会社ＭＡＡＤ,,株式会社,岡山県,岡山市北区,表町１丁目４番１２８,,33,101,7000822,,,,,,,2022-12-12,1,,,,,マード,0
2279,9260005011173,新規,0,2022-12-12,2022-12-12,一般社団法人相続と空き家の相談窓口,,その他の設立登記法人,岡山県,倉敷市,西中新田１１１番地１,,33,202,7100833,,,,,,,2022-12-12,1,,,,,ソウゾクトアキヤノソウダンマドグチ,0
2280,9290001099854,新規,0,2022-12-12,2022-12-12,株式会社ＨＭ２,,株式会社,福岡県,福岡市博多区,板付６丁目１３番１５号,,40,132,8120888,,,,,,,2022-12-12,1,,,,,エイチエムツー,0
2286,9300005007118,新規,0,2022-12-12,2022-12-12,社会福祉法人肥前茗荷会,,その他の設立登記法人,佐賀県,小城市,小城町畑田１３７４番地１,,41,208,8450002,,,,,,,2022-12-12,1,,,,,ヒゼンミョウガカイ,0
2293,9370001049363,新規,0,2022-12-12,2022-12-12,株式会社ＴＩＫサービス,,株式会社,宮城県,東松島市,野蒜ケ丘２丁目３４番地２,,04,214,9810416,,,,,,,2022-12-12,1,,,,,ティーアイケイサービス,0
2298,9380003005322,新規,0,2022-12-12,2022-12-12,ＵＮＬＯＡＤ合同会社,,合同会社,福島県,相馬市,中村字塚田６８番地９,,07,209,9760042,,,,,,,2022-12-12,1,,,,,アンロード,0
2304,9430001088025,新規,0,2022-12-12,2022-12-12,株式会社カブスル,,株式会社,北海道,札幌市厚別区,厚別北六条５丁目１１番７号,,01,108,0040076,,,,,,,2022-12-12,1,,,,,カブスル,0
2305,9430001088033,新規,0,2022-12-12,2022-12-12,株式会社岩見沢ワイナリー,,株式会社,北海道,岩見沢市,上幌向南一条５丁目６９０番地１,,01,210,0690362,,,,,,,2022-12-12,1,,,,,イワミザワワイナリー,0
2307,9440003001496,新規,0,2022-12-12,2022-12-12,合同会社敬愛サポート,,合同会社,北海道,島牧郡島牧村,字元町１３２番地,,01,391,0480632,,,,,,,2022-12-12,1,,,,,ケイアイサポート,0
2315,9700150112441,新規,0,2022-12-12,2022-11-01,バフちゃい,,その他,東京都,葛飾区,新小岩４丁目３６－８ハイマート１０１,,13,122,1240024,,,,,,,2022-11-01,1,,,,,バフチヤイ,0
2316,9700150113340,新規,0,2022-12-12,2022-12-12,ｓｈｅｎｚｈｅｎｓｈｉ　ｌｉｊｉａ　ｇｕａｎｇｄｉａｎ　ｋｅｊｉ　ｙｏｕｘｉａｎ　ｇｏｎｇｓｉ,,外国会社等,,,,,,,,４０３，Ｂｌｄ　Ａ，Ｈｏｎｇｊｉｎｇ　Ｇａｒｄｅｎ，Ｎｏ．２１６，Ｓｈｉｈｕａｎ　Ｒｏａｄ，Ｓｈｉｙａｎ，Ｂａｏａｎ　Ｄｉｓｔｒｉｃｔ，Ｓｈｅｎｚｈｅｎ，Ｇｕａｎｇｄｏｎｇ，Ｃｈｉｎａ,,,,,,2022-12-12,1,,,,,シンセンシリキカコウデンケイジユウシィアンゴンスー,0
