sequenceNumber,corporateNumber,process,correct,updateDate,changeDate,name,nameImageId,kind,prefectureName,cityName,streetNumber,addressImageId,prefectureCode,cityCode,postCode,addressOutside,addressOutsideImageId,closeDate,closeCause,successorCorporateNumber,changeCause,assignmentDate,latest,enName,enPrefectureName,enCityName,enAddressOutside,furigana,hihyoji
3,1010001250955,新規,0,2025-01-06,2025-01-06,ＬａｎｄＡｒｃ株式会社,,株式会社,東京都,千代田区,九段北４丁目３番２６号６階,,13,101,1020073,,,,,,,2025-01-06,1,,,,,ランドアーク,0
5,1010003045924,新規,0,2025-01-06,2025-01-06,ヒルギ合同会社,,合同会社,東京都,千代田区,丸の内１丁目４番１号東京共同会計事務所内,,13,101,1000005,,,,,,,2025-01-06,1,,,,,ヒルギ,0
12,1010401187302,新規,0,2025-01-06,2025-01-06,Ｃｏｓｍｉｃ　Ｖｉｓｉｏｎ　Ｐｒｏｐｅｒｔｉｅｓ　Ｊａｐａｎ株式会社,,株式会社,東京都,港区,高輪２丁目１２－４７,,13,103,1080074,,,,,,,2025-01-06,1,,,,,コスミックビジョンプロパティジャパン,0
13,1010401187319,新規,0,2025-01-06,2025-01-06,はなさか商事株式会社,,株式会社,東京都,港区,虎ノ門４丁目３番１号城山トラストタワー２７階,,13,103,1050001,,,,,,,2025-01-06,1,,,,,ハナサカショウジ,0
14,1010403034072,新規,0,2025-01-06,2025-01-06,ＰＭコーポレーション合同会社,,合同会社,東京都,港区,赤坂９丁目１番７－４６８号,,13,103,1070052,,,,,,,2025-01-06,1,,,,,ピーエムコーポレーション,0
23,1010701047057,新規,0,2025-01-06,2025-01-06,株式会社ムード,,株式会社,東京都,品川区,豊町１丁目５番３－１０１号,,13,109,1420042,,,,,,,2025-01-06,1,,,,,ムード,0
24,1010803005227,新規,0,2025-01-06,2025-01-06,合同会社ｐｒｏｔ,,合同会社,東京都,大田区,西蒲田７丁目４－４小山第２ビル６Ｆ,,13,111,1440051,,,,,,,2025-01-06,1,,,,,プロット,0
26,1010901056568,新規,0,2025-01-06,2025-01-06,株式会社Ｅｕｒｅｋａ　ＳＴＯＮＥ,,株式会社,東京都,世田谷区,南烏山３丁目９番９号,,13,112,1570062,,,,,,,2025-01-06,1,,,,,エウレカストーン,0
27,1010901056592,新規,0,2025-01-06,2025-01-06,株式会社晴レル,,株式会社,東京都,世田谷区,船橋１丁目３７番１５－２１２号,,13,112,1560055,,,,,,,2025-01-06,1,,,,,ハレル,0
28,1010905004713,新規,0,2025-01-06,2025-01-06,一般財団法人ＳＨＩＺＵＫＡ＆ＬＥＯ　ＫＯＭＵＲＯ記念財団,,その他の設立登記法人,東京都,世田谷区,成城７丁目２１番２号,,13,112,1570066,,,,,,,2025-01-06,1,,,,,シヅカアンドレオコムロキネンザイダン,0
31,1011001166729,新規,0,2025-01-06,2025-01-06,ｎｏｉｓｉｉｉ株式会社,,株式会社,東京都,渋谷区,代官山町１番６号,,13,113,1500034,,,,,,,2025-01-06,1,,,,,ノイジー,0
33,1011101110099,新規,0,2025-01-06,2025-01-06,株式会社ナナフル,,株式会社,東京都,新宿区,西新宿６丁目２０番７号コンシェリア西新宿タワーズウエスト７０９,,13,104,1600023,,,,,,,2025-01-06,1,,,,,ナナフル,0
34,1011101110108,新規,0,2025-01-06,2025-01-06,株式会社ホワイト,,株式会社,東京都,新宿区,新宿７丁目２７番１４号ジェノヴィア新宿グリーンヴェール７０４,,13,104,1600022,,,,,,,2025-01-06,1,,,,,ホワイト,0
36,1011105011277,新規,0,2025-01-06,2025-01-06,エムアールビーワン一般社団法人,,その他の設立登記法人,東京都,新宿区,四谷２丁目９番地１５東京ユナイテッド綜合事務所内,,13,104,1600004,,,,,,,2025-01-06,1,,,,,エムアールビーワン,0
38,1011201026006,新規,0,2025-01-06,2025-01-06,株式会社ｒｉｔａ,,株式会社,東京都,中野区,中野５丁目３２番７号・駿河ビル２階,,13,114,1640001,,,,,,,2025-01-06,1,,,,,リタ,0
42,1011401026697,新規,0,2025-01-06,2025-01-06,和一株式会社,,株式会社,東京都,板橋区,東新町１丁目１８番１３号三田常盤台第４コーポ４０５号,,13,119,1740074,,,,,,,2025-01-06,1,,,,,ワイチ,0
43,1011505002669,新規,0,2025-01-06,2025-01-06,特定非営利活動法人せたがや相談支援ネットワーク,,その他の設立登記法人,東京都,北区,滝野川２丁目２番１１号,,13,117,1140023,,,,,,,2025-01-06,1,,,,,セタガヤソウダンシエンネットワーク,0
44,1011601028329,新規,0,2025-01-06,2025-01-06,株式会社百中実業,,株式会社,東京都,練馬区,旭町１丁目８－１サンフラワー徳力４１３号室,,13,120,1790071,,,,,,,2025-01-06,1,,,,,ヒャクチュウジギョウ,0
48,1012301014206,新規,0,2025-01-06,2025-01-06,株式会社塩澤商事,,株式会社,東京都,町田市,相原町１７５０番地,,13,209,1940211,,,,,,,2025-01-06,1,,,,,シオザワショウジ,0
49,1012301014214,新規,0,2025-01-06,2025-01-06,株式会社ＲＥＩＳＩＮサービス,,株式会社,東京都,町田市,本町田１０４９番地３日向台コーポＩＩ１０２,00137502,13,209,1940032,,,,,,,2025-01-06,1,,,,,レイシンサービス,0
51,1012701018624,新規,0,2025-01-06,2025-01-06,株式会社ＳＰＥＣＩＡＬ　ＦＬＯＷＥＲ　ＣＯＭＰＡＮＹ,,株式会社,東京都,西東京市,北町５丁目１－１１,,13,229,2020003,,,,,,,2025-01-06,1,,,,,スペシャルフラワーカンパニー,0
52,1012801023664,新規,0,2025-01-06,2025-01-06,株式会社マツマル興産,,株式会社,東京都,昭島市,宮沢町２丁目３７番２号,,13,207,1960024,,,,,,,2025-01-06,1,,,,,マツマルコウサン,0
53,1012803003581,新規,0,2025-01-06,2025-01-06,Ｕｚｕｍｅ　Ｍｕｓｉｃ合同会社,,合同会社,東京都,武蔵村山市,中原３丁目２２の２８,,13,223,2080035,,,,,,,2025-01-06,1,,,,,ウズメミュージック,0
58,1013301053607,新規,0,2025-01-06,2025-01-06,株式会社Ａ‐ＷＯＲＫＳ,,株式会社,東京都,豊島区,東池袋１丁目２０番１号,,13,116,1700013,,,,,,,2025-01-06,1,,,,,エーワークス,0
67,1020002090004,新規,0,2025-01-06,2025-01-06,有限会社パークシティ興産,,有限会社,神奈川県,川崎市高津区,末長３丁目９番７号,,14,134,2130013,,,,,,,2025-01-06,1,,,,,パークシティコウサン,0
69,1021001006818,新規,0,2025-01-06,2025-01-06,株式会社小林組,,株式会社,神奈川県,茅ヶ崎市,行谷１０３０番地,,14,207,2530007,,,,,,,2025-01-06,1,,,,,,0
77,1021001084137,新規,0,2025-01-06,2025-01-06,芦ノ湖ベース株式会社,,株式会社,神奈川県,足柄下郡箱根町,元箱根１０３番地の２９１,,14,382,2500522,,,,,,,2025-01-06,1,,,,,アシノコベース,0
78,1021001084145,新規,0,2025-01-06,2025-01-06,株式会社モバイルジャパン,,株式会社,神奈川県,座間市,相模が丘５丁目１２－２６,,14,216,2520001,,,,,,,2025-01-06,1,,,,,モバイルジャパン,0
81,1021003015404,新規,0,2025-01-06,2025-01-06,合同会社Ｊａｐａｎ　Ｐａｙｍｅｎｔ　Ｓｅｒｖｉｃｅ,,合同会社,神奈川県,愛甲郡愛川町,中津７２８７番地,,14,401,2430303,,,,,,,2025-01-06,1,,,,,ジャパンペイメントサービス,0
88,1030001164162,新規,0,2025-01-06,2025-01-06,株式会社リボスタ,,株式会社,埼玉県,さいたま市桜区,田島１丁目２１番１５－５０１号,,11,106,3380837,,,,,,,2025-01-06,1,,,,,リボスタ,0
89,1030001164170,新規,0,2025-01-06,2025-01-06,株式会社Ｖｉｔａ　ｅｌｅｇａｎｔｅ,,株式会社,埼玉県,春日部市,八丁目９７４番地１,,11,214,3440006,,,,,,,2025-01-06,1,,,,,ビータエレガンテ,0
90,1030001164179,新規,0,2025-01-06,2025-01-06,株式会社ハグスリー,,株式会社,埼玉県,朝霞市,根岸台１丁目１１番４７－３０１号,,11,227,3510005,,,,,,,2025-01-06,1,,,,,ハグスリー,0
91,1030001164187,新規,0,2025-01-06,2025-01-06,株式会社ＶＡＮＤＡ,,株式会社,埼玉県,川越市,脇田本町１４番２９号杉田ビル１階,,11,201,3501123,,,,,,,2025-01-06,1,,,,,ヴァンダ,0
92,1030001164237,新規,0,2025-01-06,2025-01-06,株式会社ブルーアース,,株式会社,埼玉県,川口市,戸塚南２丁目２５番４号,,11,203,3330817,,,,,,,2025-01-06,1,,,,,ブルーアース,0
96,1030003025783,新規,0,2025-01-06,2025-01-06,合同会社ＧＺ,,合同会社,埼玉県,上尾市,大字大谷本郷１０９番地２,,11,219,3620044,,,,,,,2025-01-06,1,,,,,ジーゼット,0
97,1030003025817,新規,0,2025-01-06,2025-01-06,ＡＫＥＭＢＯＭ　ＳＥＲＶＩＣＥＳ　ＡＮＤ　ＳＯＬＵＴＩＯＮＳ合同会社,,合同会社,埼玉県,草加市,栄町２丁目１－３５ハイツリバーサイドＢ２０１号室,,11,221,3400011,,,,,,,2025-01-06,1,,,,,アケンボンサービスアンドソリューションズ,0
103,1040001136755,新規,0,2025-01-06,2025-01-06,ＺＥＮ株式会社,,株式会社,千葉県,柏市,柏１丁目７番１－２２１１号,,12,217,2770005,,,,,,,2025-01-06,1,,,,,ゼン,0
104,1040001136796,新規,0,2025-01-06,2025-01-06,株式会社ＭＫ,,株式会社,千葉県,松戸市,河原塚４２３－１１,,12,207,2702254,,,,,,,2025-01-06,1,,,,,エムケー,0
105,1040001136821,新規,0,2025-01-06,2025-01-06,株式会社齋藤塗装ホーム,,株式会社,千葉県,四街道市,鷹の台２丁目３１番８号,,12,228,2840033,,,,,,,2025-01-06,1,,,,,サイトウトソウホーム,0
106,1040001136854,新規,0,2025-01-06,2025-01-06,株式会社ディーリンクス,,株式会社,千葉県,千葉市美浜区,高洲２丁目７番７棟３０９号,,12,106,2610004,,,,,,,2025-01-06,1,,,,,ディーリンクス,0
108,1040003026491,新規,0,2025-01-06,2025-01-06,合同会社ＩＳＧＹ,,合同会社,千葉県,市川市,菅野３丁目２番６号,,12,203,2720824,,,,,,,2025-01-06,1,,,,,アイエスジーワイ,0
109,1040003026500,新規,0,2025-01-06,2025-01-06,合同会社ＴＭＧ,,合同会社,千葉県,松戸市,常盤平３丁目２８番地の１モードヴィスタ常盤平１０４号,,12,207,2702261,,,,,,,2025-01-06,1,,,,,ティーエムジー,0
110,1050001055913,新規,0,2025-01-06,2025-01-06,南海浜運輸株式会社,,株式会社,茨城県,神栖市,横瀬９４０番地５,,08,232,3140113,,,,,,,2025-01-06,1,,,,,ミナミカイヒンウンユ,0
117,1070003005724,新規,0,2025-01-06,2025-01-06,ｔａｋ合同会社,,合同会社,群馬県,高崎市,上中居町２８５番地６,,10,202,3700851,,,,,,,2025-01-06,1,,,,,タク,0
118,1080001026696,新規,0,2025-01-06,2025-01-06,株式会社ＫＡＷＡＩ　Ｃ＆Ｍ,,株式会社,静岡県,静岡市葵区,東１丁目２３番９号,,22,101,4200962,,,,,,,2025-01-06,1,,,,,カワイシーアンドエム,0
120,1080401027658,新規,0,2025-01-06,2025-01-06,株式会社ＫＯＳ,,株式会社,静岡県,浜松市中央区,高塚町１７８８番地の４１,,22,138,4328065,,,,,,,2025-01-06,1,,,,,コス,0
122,1100001038160,新規,0,2025-01-06,2025-01-06,株式会社シンビ堂ホールディングス,,株式会社,長野県,北佐久郡軽井沢町,大字長倉１２７９番地４６,,20,321,3890111,,,,,,,2025-01-06,1,,,,,シンビドウホールディングス,0
127,1110001038960,新規,0,2025-01-06,2025-01-06,株式会社ケアの森,,株式会社,新潟県,胎内市,表町５番２５号,,15,227,9592631,,,,,,,2025-01-06,1,,,,,ケアノモリ,0
135,1120001271585,新規,0,2025-01-06,2025-01-06,株式会社サンエイサービス,,株式会社,大阪府,大阪市北区,梅田１丁目１番３大阪駅前第３ビル２９階１－１－１号室,,27,127,5300001,,,,,,,2025-01-06,1,,,,,サンエイサービス,0
136,1120001271593,新規,0,2025-01-06,2025-01-06,株式会社Ｌａｐｌａｃｅ,,株式会社,大阪府,大阪市北区,梅田１丁目２番２号大阪駅前第２ビル１２‐１２,,27,127,5300001,,,,,,,2025-01-06,1,,,,,ラプラス,0
138,1120003028281,新規,0,2025-01-06,2025-01-06,合同会社ＦＤｌｅａｒｎｉｎｇ,,合同会社,大阪府,大阪市都島区,中野町５丁目１３番３－２２０５号,,27,102,5340027,,,,,,,2025-01-06,1,,,,,エフディラーニング,0
139,1120005024683,新規,0,2025-01-06,2025-01-06,一般社団法人日本生産共同機構,,その他の設立登記法人,大阪府,大阪市東成区,中本５丁目２２番１３号,,27,115,5370022,,,,,,,2025-01-06,1,,,,,ニホンセイサンキョウドウキコウ,0
140,1120005024691,新規,0,2025-01-06,2025-01-06,特定非営利活動法人大桐フットボールクラブ,,その他の設立登記法人,大阪府,大阪市鶴見区,横堤２丁目５－１０４－７１４,,27,124,5380052,,,,,,,2025-01-06,1,,,,,ダイドウフットボールクラブ,0
142,1120101070838,新規,0,2025-01-06,2025-01-06,株式会社波乗り商社,,株式会社,大阪府,堺市南区,若松台３丁１０番５号,,27,145,5900116,,,,,,,2025-01-06,1,,,,,ナミノリショウシャ,0
144,1120103006212,新規,0,2025-01-06,2025-01-06,合同会社大和,,合同会社,大阪府,羽曳野市,はびきの５丁目７番１号,,27,222,5830872,,,,,,,2025-01-06,1,,,,,ヤマト,0
151,1130001078690,新規,0,2025-01-06,2025-01-06,株式会社ＴＡＴＥＹＯＫＯ,,株式会社,京都府,乙訓郡大山崎町,字大山崎小字鏡田３番地４２,,26,303,6180071,,,,,,,2025-01-06,1,,,,,タテヨコ,0
152,1130001078699,新規,0,2025-01-06,2025-01-06,ラ・タコ株式会社,,株式会社,京都府,京都市左京区,下鴨膳部町８８－２１メゾンかしわべ１０５,,26,103,6060815,,,,,,,2025-01-06,1,,,,,ラタコ,0
153,1130003010107,新規,0,2025-01-06,2025-01-06,合同会社びよんど,,合同会社,京都府,長岡京市,神足１丁目１９－４,,26,209,6170833,,,,,,,2025-01-06,1,,,,,ビヨンド,0
154,1130003010115,新規,0,2025-01-06,2025-01-06,合同会社レガシア,,合同会社,京都府,舞鶴市,字常３６３番地－１棟４０７号,,26,202,6250072,,,,,,,2025-01-06,1,,,,,レガシア,0
158,1140001136869,新規,0,2025-01-06,2025-01-06,ケーエムズ株式会社,,株式会社,兵庫県,姫路市,高尾町１２番地舞ビル３Ｆ,,28,201,6700915,,,,,,,2025-01-06,1,,,,,ケーエムズ,0
159,1140001136893,新規,0,2025-01-06,2025-01-06,株式会社ＳＨＵＨＡＲＩ,,株式会社,兵庫県,神戸市垂水区,塩屋町８７２番地２,,28,108,6550872,,,,,,,2025-01-06,1,,,,,シュハリ,0
160,1140001136927,新規,0,2025-01-06,2025-01-06,株式会社Ｃａｒｅ拓,,株式会社,兵庫県,高砂市,米田町米田３５８番２,,28,216,6760805,,,,,,,2025-01-06,1,,,,,ケアヒラク,0
163,1140003021466,新規,0,2025-01-06,2025-01-06,合同会社ＷＩ　Ｉｎｔｅｒｎａｔｉｏｎａｌ　Ｊａｐａｎ,,合同会社,兵庫県,芦屋市,東芦屋町１６番５５－３０２号,00137491,28,206,6590095,,,,,,,2025-01-06,1,,,,,ダブリューアイインターナショナルジャパン,0
164,1140003021490,新規,0,2025-01-06,2025-01-06,サンクトリ合同会社,,合同会社,兵庫県,明石市,本町１丁目２番３３号興生ビル４階,,28,203,6730892,,,,,,,2025-01-06,1,,,,,サンクトリ,0
169,1150003003463,新規,0,2025-01-06,2025-01-06,合同会社遊彩ＴＡＮＡＫＡ,,合同会社,奈良県,磯城郡田原本町,大字三笠１３－１,,29,363,6360342,,,,,,,2025-01-06,1,,,,,ユウサイタナカ,0
170,1160001026424,新規,0,2025-01-06,2025-01-06,建国貿易株式会社,,株式会社,滋賀県,高島市,今津町今津１６１２－６－１０１,,25,212,5201621,,,,,,,2025-01-06,1,,,,,ケンコクボウエキ,0
171,1160001026440,新規,0,2025-01-06,2025-01-06,株式会社ウキタ・マムズガーデン,,株式会社,滋賀県,大津市,本堅田６丁目３５番２７号,,25,201,5200242,,,,,,,2025-01-06,1,,,,,ウキタマムズガーデン,0
172,1160005011364,新規,0,2025-01-06,2025-01-06,農事組合法人上岸本転作受託組合,,その他の設立登記法人,滋賀県,東近江市,上岸本町１１３５番地,,25,213,5270173,,,,,,,2025-01-06,1,,,,,カミキシモトテンサクジュタククミアイ,0
173,1170001018437,新規,0,2025-01-06,2025-01-06,株式会社ｅｔＣｒｅａ,,株式会社,和歌山県,新宮市,蜂伏１１番４８号,,30,207,6470072,,,,,,,2025-01-06,1,,,,,エトクレア,0
179,1180001021299,新規,0,2025-01-06,2025-01-06,株式会社吉田不動産,,株式会社,愛知県,名古屋市中川区,法華西町２４番地の２,,23,110,4540937,,,,,,,2025-01-06,1,,,,,ヨシダフドウサン,0
181,1180001164718,新規,0,2025-01-06,2025-01-06,ミライロジスティクス株式会社,,株式会社,愛知県,名古屋市港区,小賀須３丁目１７０１番地の２,,23,111,4550882,,,,,,,2025-01-06,1,,,,,ミライロジスティクス,0
182,1180001164734,新規,0,2025-01-06,2025-01-06,ｓｈｅｌｌｙ　ｃｏｍｐａｎｙ株式会社,,株式会社,愛知県,名古屋市名東区,藤見が丘９５番地の１,,23,115,4650048,,,,,,,2025-01-06,1,,,,,シェリーカンパニー,0
183,1180003027807,新規,0,2025-01-06,2025-01-06,合同会社ｏｆｆｉｃｅ．ｇｏ,,合同会社,愛知県,春日井市,高座台１丁目５番地３２,,23,206,4870017,,,,,,,2025-01-06,1,,,,,オフィスジー,0
184,1180003027815,新規,0,2025-01-06,2025-01-06,エイトワンジャパン合同会社,,合同会社,愛知県,春日井市,中切町１丁目１２番地１０,,23,206,4860925,,,,,,,2025-01-06,1,,,,,エイトワンジャパン,0
193,1210001020009,新規,0,2025-01-06,2025-01-06,株式会社Ａｔｒｉｔ,,株式会社,福井県,越前市,大虫町第１０号１３番地の１,,18,209,9150885,,,,,,,2025-01-06,1,,,,,アトレ,0
194,1220001026401,新規,0,2025-01-06,2025-01-06,株式会社永信電機,,株式会社,石川県,七尾市,藤橋町ソ部２番地３,,17,202,9260816,,,,,,,2025-01-06,1,,,,,エイシンデンキ,0
195,1230001020683,新規,0,2025-01-06,2025-01-06,株式会社ハートライト,,株式会社,富山県,富山市,赤田６２７番地１０,,16,201,9398064,,,,,,,2025-01-06,1,,,,,ハートライト,0
198,1230005009426,新規,0,2025-01-06,2025-01-06,特定非営利活動法人ＴｏＹＡＭＡ,,その他の設立登記法人,富山県,高岡市,大野２６７‐２,,16,202,9330016,,,,,,,2025-01-06,1,,,,,トヤマ,0
199,1240001064291,新規,0,2025-01-06,2025-01-06,株式会社ＫＩＺＵＮＡ,,株式会社,広島県,広島市中区,舟入本町１０－１２－１,,34,101,7300843,,,,,,,2025-01-06,1,,,,,キズナ,0
200,1240001064300,新規,0,2025-01-06,2025-01-06,ＳＨ株式会社,,株式会社,広島県,尾道市,向島町９０８番地４,,34,205,7220073,,,,,,,2025-01-06,1,,,,,エスエイチ,0
201,1240001064333,新規,0,2025-01-06,2025-01-06,株式会社Ｖ＆Ｐ,,株式会社,広島県,広島市安佐南区,相田３丁目５２番１６号,,34,105,7310141,,,,,,,2025-01-06,1,,,,,ヴィーアンドピー,0
202,1250001020954,新規,0,2025-01-06,2025-01-06,アリス・ベルポート株式会社,,株式会社,山口県,熊毛郡平生町,大字平生町５６８番地の５４,,35,344,7421101,,,,,,,2025-01-06,1,,,,,アリスベルポート,0
207,1260005011437,新規,0,2025-01-06,2025-01-06,特定非営利活動法人岡山市手をつなぐ育成会,,その他の設立登記法人,岡山県,岡山市東区,西大寺中２丁目１６番３３号西大寺ふれあいセンター内,,33,103,7048116,,,,,,,2025-01-06,1,,,,,オカヤマシテヲツナグイクセイカイ,0
208,1270001009112,新規,0,2025-01-06,2025-01-06,株式会社アイパス,,株式会社,鳥取県,倉吉市,北野４６８番地８,,31,203,6820857,,,,,,,2025-01-06,1,,,,,アイパス,0
209,1280001009326,新規,0,2025-01-06,2025-01-06,株式会社山開,,株式会社,島根県,出雲市,野郷町１５３６番地,,32,203,6910072,,,,,,,2025-01-06,1,,,,,サンカイ,0
214,1290001108440,新規,0,2025-01-06,2025-01-06,株式会社ＴＨＲＥＥ,,株式会社,福岡県,福岡市東区,千早１丁目３０番１３号,,40,131,8130044,,,,,,,2025-01-06,1,,,,,スリー,0
218,1290801031148,新規,0,2025-01-06,2025-01-06,株式会社怜樹建設,,株式会社,福岡県,中間市,大字垣生１１３５番地７,,40,215,8090001,,,,,,,2025-01-06,1,,,,,レイキケンセツ,0
219,1290803004928,新規,0,2025-01-06,2025-01-06,合同会社ＮＯＡ　Ｆｏｏｄｓ,,合同会社,福岡県,北九州市小倉北区,紺屋町３番３－５０５号ウィステリアビル,,40,106,8020081,,,,,,,2025-01-06,1,,,,,ノアフーズ,0
220,1290803004936,新規,0,2025-01-06,2025-01-06,合同会社暖音ホーム,,合同会社,福岡県,北九州市八幡西区,本城東６丁目４番２８号,,40,109,8070815,,,,,,,2025-01-06,1,,,,,アットホーム,0
222,1290805009792,新規,0,2025-01-06,2025-01-06,特定非営利活動法人小倉リトルシニア,,その他の設立登記法人,福岡県,北九州市小倉南区,葛原２丁目２３番１２号,,40,107,8000251,,,,,,,2025-01-06,1,,,,,コクラリトルシニア,0
223,1300001014034,新規,0,2025-01-06,2025-01-06,株式会社シニアサポート佐賀,,株式会社,佐賀県,佐賀市,本庄町大字本庄５３７番地１１,,41,201,8400027,,,,,,,2025-01-06,1,,,,,シニアサポートサガ,0
225,1330003010697,新規,0,2025-01-06,2025-01-06,隈部ファミリー合同会社,,合同会社,熊本県,菊池市,泗水町吉富２８６０番地３３,,43,210,8611201,,,,,,,2025-01-06,1,,,,,クマベファミリー,0
226,1340001027032,新規,0,2025-01-06,2025-01-06,株式会社ＴＣＲクリーンサービス,,株式会社,鹿児島県,鹿児島市,上福元町５６２５番地８,,46,201,8910116,,,,,,,2025-01-06,1,,,,,ティーシーアールクリーンサービス,0
229,1360001034596,新規,0,2025-01-06,2025-01-06,ＩＫＴ株式会社,,株式会社,沖縄県,中頭郡中城村,字津覇３８９番地,,47,328,9012413,,,,,,,2025-01-06,1,,,,,アイケイティ,0
230,1360001034605,新規,0,2025-01-06,2025-01-06,株式会社酔竜,,株式会社,沖縄県,那覇市,松山１丁目６番１２号,,47,201,9000032,,,,,,,2025-01-06,1,,,,,スイリュウ,0
232,1360005007144,新規,0,2025-01-06,2025-01-06,一般社団法人ミラクルドット,,その他の設立登記法人,沖縄県,宜野湾市,字喜友名１０３９Ｇタウンビル２Ｆ,,47,205,9012222,,,,,,,2025-01-06,1,,,,,ミラクルドット,0
233,1370001052069,新規,0,2025-01-06,2025-01-06,メタルテック治具株式会社,,株式会社,宮城県,仙台市若林区,卸町１丁目２番１０号,,04,103,9840015,,,,,,,2025-01-06,1,,,,,メタルテックジグ,0
234,1370001052085,新規,0,2025-01-06,2025-01-06,株式会社Ｌａｐｉｎ,,株式会社,宮城県,仙台市泉区,泉中央１丁目２８番地の１３,,04,105,9813133,,,,,,,2025-01-06,1,,,,,ラパン,0
247,1430001093379,新規,0,2025-01-06,2025-01-06,アズナブル株式会社,,株式会社,北海道,苫小牧市,汐見町２丁目１３番２０号,,01,213,0530012,,,,,,,2025-01-06,1,,,,,アズナブル,0
248,1430003017113,新規,0,2025-01-06,2025-01-06,合同会社ルミナグロウ,,合同会社,北海道,札幌市中央区,南十一条西１２丁目２番２８－９０２号,,01,101,0640811,,,,,,,2025-01-06,1,,,,,ルミナグロウ,0
254,1450003002575,新規,0,2025-01-06,2025-01-06,合同会社Ｐｅｉｎｔｒｅ,,合同会社,北海道,旭川市,末広四条２丁目１番２１号,,01,204,0718134,,,,,,,2025-01-06,1,,,,,パントール,0
255,1460101007649,新規,0,2025-01-06,2025-01-06,Ｓｅｐｉｎｏｓ株式会社,,株式会社,北海道,帯広市,西十六条南４丁目６番４号ＯＷＬＩＩ３０３,00137490,01,207,0800026,,,,,,,2025-01-06,1,,,,,セピノス,0
262,1700150128461,新規,0,2025-01-06,2025-01-06,Ｓ．Ｒ．Ｍ．Ｍ．ＴＲＡＤＩＮＧ　ＰＶＴ　ＬＴＤ,,外国会社等,千葉県,山武郡横芝光町,木戸６５４７番地３７Ｃ,,12,410,2891726,スリランカ民主社会主義共和国、キャンディ、アクラナ、マタレロード、ハプガハムラガマ、Ｎｏ．３５１,,,,,,2025-01-06,1,,,,,エスアールエムエムトレーデイングプライベートリミテツド,0
272,2010003045898,新規,0,2025-01-06,2025-01-06,あまみさんの合同会社,,合同会社,東京都,中央区,銀座１丁目１３番４号Ｎ＆ＥＢＬＤ．６Ｆ,,13,102,1040061,,,,,,,2025-01-06,1,,,,,アマミサンノ,0
273,2010003045923,新規,0,2025-01-06,2025-01-06,合同会社ニャーテック,,合同会社,東京都,千代田区,九段南１丁目６番１７号千代田会館２階,,13,101,1020074,,,,,,,2025-01-06,1,,,,,ニャーテック,0
275,2010005039320,新規,0,2025-01-06,2025-01-06,一般社団法人ＡＳＣ,,その他の設立登記法人,東京都,文京区,小石川４丁目１９番６号ヴェラハイツ小石川６０２号室,,13,105,1120002,,,,,,,2025-01-06,1,,,,,エイエスシー,0
283,2010505003577,新規,0,2025-01-06,2025-01-06,一般社団法人全日本特殊浴場協会連合会,,その他の設立登記法人,東京都,台東区,千束３丁目３番２号,,13,106,1110031,,,,,,,2025-01-06,1,,,,,ゼンニホントクシュヨクジョウキョウカイレンゴウカイ,0
285,2010601066528,新規,0,2025-01-06,2025-01-06,株式会社ユートレーディング,,株式会社,東京都,江東区,平野１丁目３番１６－８０３号,,13,108,1350023,,,,,,,2025-01-06,1,,,,,ユートレーディング,0
288,2010701047048,新規,0,2025-01-06,2025-01-06,株式会社オフィスハル,,株式会社,東京都,品川区,上大崎２丁目２１番１０号ハウス目黒５０１,,13,109,1410021,,,,,,,2025-01-06,1,,,,,オフィスハル,0
289,2010703007495,新規,0,2025-01-06,2025-01-06,合同会社ミルミー,,合同会社,東京都,品川区,大井５丁目１２－１－７０６,,13,109,1400014,,,,,,,2025-01-06,1,,,,,ミルミー,0
290,2010703007520,新規,0,2025-01-06,2025-01-06,合同会社Ｈｕｉｔ　Ｄｉｒｅｃｔｉｏｎｓ,,合同会社,東京都,品川区,西五反田６丁目１４番７－１０８号,,13,109,1410031,,,,,,,2025-01-06,1,,,,,ユイットディレクションズ,0
293,2010801035704,新規,0,2025-01-06,2025-01-06,株式会社スリーエス,,株式会社,東京都,大田区,蒲田５丁目２０番１０号,,13,111,1440052,,,,,,,2025-01-06,1,,,,,スリーエス,0
297,2010901056567,新規,0,2025-01-06,2025-01-06,株式会社ＷＥｉＮ,,株式会社,東京都,世田谷区,代田４丁目１０番９号,,13,112,1550033,,,,,,,2025-01-06,1,,,,,ワイン,0
298,2010901056600,新規,0,2025-01-06,2025-01-06,株式会社ウェル・ビーイングパートナーズ,,株式会社,東京都,世田谷区,駒沢２丁目１８番２６号,,13,112,1540012,,,,,,,2025-01-06,1,,,,,ウェルビーイングパートナーズ,0
301,2010903009597,新規,0,2025-01-06,2025-01-06,ミリディア合同会社,,合同会社,東京都,世田谷区,奥沢６丁目２２番１号,,13,112,1580083,,,,,,,2025-01-06,1,,,,,ミリディア,0
302,2010903009614,新規,0,2025-01-06,2025-01-06,合同会社ｌｅａｆ,,合同会社,東京都,世田谷区,奥沢６丁目２８番５号エスハウス１０１,,13,112,1580083,,,,,,,2025-01-06,1,,,,,リーフ,0
306,2011101110107,新規,0,2025-01-06,2025-01-06,株式会社クリネクト,,株式会社,東京都,新宿区,西落合２丁目１０番９号,,13,104,1610031,,,,,,,2025-01-06,1,,,,,クリネクト,0
311,2011301030261,新規,0,2025-01-06,2025-01-06,株式会社喜鐸,,株式会社,東京都,杉並区,和田３丁目４９番８号,,13,115,1660012,,,,,,,2025-01-06,1,,,,,キタク,0
312,2011303005377,新規,0,2025-01-06,2025-01-06,合同会社ラムー,,合同会社,東京都,杉並区,宮前５丁目２４番２４号クレッセント２０１,,13,115,1680081,,,,,,,2025-01-06,1,,,,,ラムー,0
316,2011601028336,新規,0,2025-01-06,2025-01-06,エーケー株式会社,,株式会社,東京都,練馬区,中村北２丁目１８番１４号,,13,120,1760023,,,,,,,2025-01-06,1,,,,,エーケー,0
319,2011801045387,新規,0,2025-01-06,2025-01-06,ＳＯＬＩＮＥＸ株式会社,,株式会社,東京都,葛飾区,細田３丁目９番３０号,,13,122,1240021,,,,,,,2025-01-06,1,,,,,ソリネクス,0
320,2012301014213,新規,0,2025-01-06,2025-01-06,株式会社あにすむＢＬＵＥ,,株式会社,東京都,町田市,成瀬が丘２丁目２３番地９大成ビル２階,,13,209,1940011,,,,,,,2025-01-06,1,,,,,アニスムブルー,0
326,2012401042618,新規,0,2025-01-06,2025-01-06,株式会社ｇｒａｓｓｒｏｏｔｓ,,株式会社,東京都,三鷹市,下連雀３丁目４番２４－４０３号,,13,204,1810013,,,,,,,2025-01-06,1,,,,,グラスルーツ,0
327,2012403006892,新規,0,2025-01-06,2025-01-06,合同会社ｏｒｅｎｊｈｉ,,合同会社,東京都,武蔵野市,吉祥寺本町２丁目１６番１２号,,13,203,1800004,,,,,,,2025-01-06,1,,,,,オレンジ,0
328,2012701018623,新規,0,2025-01-06,2025-01-06,株式会社ＬＩＢ,,株式会社,東京都,東村山市,富士見町１丁目２番地４６,,13,213,1890024,,,,,,,2025-01-06,1,,,,,リブ,0
329,2012803003580,新規,0,2025-01-06,2025-01-06,合同会社Ｂｌｉｓｓｗａｖｅ,,合同会社,東京都,国分寺市,泉町１丁目１番２０号,,13,214,1850024,,,,,,,2025-01-06,1,,,,,ブリスウェーブ,0
332,2020001160789,新規,0,2025-01-06,2025-01-06,株式会社Ｍｓｔｙｌｅ,,株式会社,神奈川県,横浜市神奈川区,神大寺３丁目１１番１５号,,14,102,2210801,,,,,,,2025-01-06,1,,,,,エムスタイル,0
339,2021001084094,新規,0,2025-01-06,2025-01-06,株式会社律匠,,株式会社,神奈川県,南足柄市,飯沢４３４番地１,,14,217,2500122,,,,,,,2025-01-06,1,,,,,リッショウ,0
340,2021001084111,新規,0,2025-01-06,2025-01-06,株式会社優技,,株式会社,神奈川県,綾瀬市,深谷上６丁目４番３３号,,14,218,2521108,,,,,,,2025-01-06,1,,,,,ユウギ,0
341,2021001084128,新規,0,2025-01-06,2025-01-06,秋間メディカル株式会社,,株式会社,神奈川県,逗子市,逗子６丁目４番９－１０１号,,14,208,2490006,,,,,,,2025-01-06,1,,,,,アキマメディカル,0
344,2021003015403,新規,0,2025-01-06,2025-01-06,合同会社高木地所,00137496,合同会社,神奈川県,逗子市,久木８丁目１６番３号,,14,208,2490001,,,,,,,2025-01-06,1,,,,,タカギチショ,0
349,2030001164153,新規,0,2025-01-06,2025-01-06,株式会社高倉魚々工房,,株式会社,埼玉県,入間市,高倉４丁目２１番１３号,,11,225,3580021,,,,,,,2025-01-06,1,,,,,タカクラトトコウボウ,0
350,2030001164161,新規,0,2025-01-06,2025-01-06,株式会社ＫＹＯＡＩ,,株式会社,埼玉県,南埼玉郡宮代町,大字須賀１８８７番地１７,,11,442,3450831,,,,,,,2025-01-06,1,,,,,キョウアイ,0
351,2030001164178,新規,0,2025-01-06,2025-01-06,株式会社ケレンＭＥ,,株式会社,埼玉県,さいたま市見沼区,東大宮１丁目２１番地１０,,11,104,3370051,,,,,,,2025-01-06,1,,,,,ケレンミー,0
352,2030001164186,新規,0,2025-01-06,2025-01-06,株式会社エヌシステム,,株式会社,埼玉県,越谷市,大間野町１丁目１５５番地,,11,222,3430844,,,,,,,2025-01-06,1,,,,,エヌシステム,0
353,2030001164203,新規,0,2025-01-06,2025-01-06,ぼくん家株式会社,,株式会社,埼玉県,深谷市,櫛引１３７番地１,,11,218,3660815,,,,,,,2025-01-06,1,,,,,ボクンチ,0
354,2030001164236,新規,0,2025-01-06,2025-01-06,株式会社Ａｌｔｈａｅａ．,,株式会社,埼玉県,北本市,中丸５丁目５４,,11,233,3640013,,,,,,,2025-01-06,1,,,,,アルテア,0
355,2030003025774,新規,0,2025-01-06,2025-01-06,合同会社ＭＣＡＲＧＯ,,合同会社,埼玉県,春日部市,南３丁目１１番２４号県営南団地１－４０３,,11,214,3440064,,,,,,,2025-01-06,1,,,,,エムカーゴ,0
356,2030003025799,新規,0,2025-01-06,2025-01-06,ｃｉｄｅｒ合同会社,,合同会社,埼玉県,鴻巣市,緑町５番１５号,,11,217,3650053,,,,,,,2025-01-06,1,,,,,サイダー,0
358,2040001136713,新規,0,2025-01-06,2025-01-06,株式会社コスモ,,株式会社,千葉県,柏市,小青田５丁目１番地７パークホームズ柏たなか１１１０号,,12,217,2770803,,,,,,,2025-01-06,1,,,,,コスモ,0
359,2040001136754,新規,0,2025-01-06,2025-01-06,株式会社ＭＵＳＹＡ　ＳＵＧＡＲ,,株式会社,千葉県,千葉市稲毛区,長沼原町９４２－２９８,,12,103,2630001,,,,,,,2025-01-06,1,,,,,ムシャシュガー,0
360,2040001136762,新規,0,2025-01-06,2025-01-06,シリウストレーディング株式会社,,株式会社,千葉県,市川市,行徳駅前２丁目２３番７－５０３号（サンクレイドル行徳）,,12,203,2720133,,,,,,,2025-01-06,1,,,,,シリウストレーディング,0
362,2040003026482,新規,0,2025-01-06,2025-01-06,合同会社ＬＩＮＨ　ＴＨＵＹ,,合同会社,千葉県,八千代市,八千代台北７丁目１－４,,12,221,2760031,,,,,,,2025-01-06,1,,,,,リントゥイ,0
363,2040003026490,新規,0,2025-01-06,2025-01-06,合同会社井上工業,,合同会社,千葉県,船橋市,高野台４丁目１１番２１号,,12,204,2740801,,,,,,,2025-01-06,1,,,,,イノウエコウギョウ,0
364,2040003026499,新規,0,2025-01-06,2025-01-06,ギルークコンサルティング合同会社,,合同会社,千葉県,印西市,鹿黒南３丁目５番地２０,,12,231,2701369,,,,,,,2025-01-06,1,,,,,ギルークコンサルティング,0
365,2040003026508,新規,0,2025-01-06,2025-01-06,合同会社さざなみ,,合同会社,千葉県,千葉市中央区,富士見２丁目７番９号富士見ビル６０９号,,12,101,2600015,,,,,,,2025-01-06,1,,,,,サザナミ,0
369,2050001055912,新規,0,2025-01-06,2025-01-06,株式会社南浜商事,,株式会社,茨城県,神栖市,横瀬９４０番地５,,08,232,3140113,,,,,,,2025-01-06,1,,,,,ミナミハマショウジ,0
375,2070001042487,新規,0,2025-01-06,2025-01-06,株式会社西毛テクノサポート,,株式会社,群馬県,藤岡市,白石８５８番地,,10,209,3750055,,,,,,,2025-01-06,1,,,,,セイモウテクノサポート,0
376,2070001042512,新規,0,2025-01-06,2025-01-06,株式会社森村工業,,株式会社,群馬県,伊勢崎市,波志江町２１２５番地６,,10,204,3720001,,,,,,,2025-01-06,1,,,,,モリムラコウギョウ,0
383,2100003007922,新規,0,2025-01-06,2025-01-06,合同会社中小企業共創経営研究所,,合同会社,長野県,長野市,川中島町今井１６２７番地１５,,20,201,3812226,,,,,,,2025-01-06,1,,,,,チュウショウキギョウキョウソウケイエイケンキュウショ,0
387,2110001038968,新規,0,2025-01-06,2025-01-06,株式会社Ｙ‐Ｐｒｏｊｅｃｔ,,株式会社,新潟県,妙高市,大字田口１４３８番地１０,,15,217,9492106,,,,,,,2025-01-06,1,,,,,ワイプロジェクト,0
393,2120001271535,新規,0,2025-01-06,2025-01-06,まり不動産株式会社,,株式会社,大阪府,大阪市住吉区,万代２丁目５番２１号,,27,120,5580055,,,,,,,2025-01-06,1,,,,,マリフドウサン,0
394,2120001271543,新規,0,2025-01-06,2025-01-06,社長ＡＩ株式会社,,株式会社,大阪府,大阪市北区,梅田１丁目１－３大阪駅前第３ビル２９階１－１－１号室,,27,127,5300001,,,,,,,2025-01-06,1,,,,,シャチョウエーアイ,0
395,2120001271551,新規,0,2025-01-06,2025-01-06,江和ホールディングス株式会社,,株式会社,大阪府,大阪市中央区,平野町１丁目６番８号,,27,128,5410046,,,,,,,2025-01-06,1,,,,,コウワホールディングス,0
396,2120001271568,新規,0,2025-01-06,2025-01-06,星空飛龍株式会社,,株式会社,大阪府,大阪市西淀川区,佃３丁目１８番２５号境ハイツ１１２号,,27,113,5550001,,,,,,,2025-01-06,1,,,,,セイクウヒリュウ,0
397,2120001271576,新規,0,2025-01-06,2025-01-06,株式会社ＳＵＮＧＯ,,株式会社,大阪府,大阪市中央区,谷町３丁目６番４号大拓ビル２０－３０２号,,27,128,5400012,,,,,,,2025-01-06,1,,,,,サンゴ,0
398,2120005024674,新規,0,2025-01-06,2025-01-06,ＮＰＯ法人犯罪被害者支援の会こころことば,,その他の設立登記法人,大阪府,大阪市住吉区,南住吉２丁目５番１９号,,27,120,5580041,,,,,,,2025-01-06,1,,,,,ハンザイヒガイシャシエンノカイココロコトバ,0
399,2120005024682,新規,0,2025-01-06,2025-01-06,一般社団法人ＮＥＷシルクロード国際文化交流センター,,その他の設立登記法人,大阪府,大阪市北区,梅田１丁目１１番４号大阪駅前第４ビル２０階,,27,127,5300001,,,,,,,2025-01-06,1,,,,,ニューシルクロードコクサイブンカコウリュウセンター,0
401,2120101070812,新規,0,2025-01-06,2025-01-06,ＪＣＳ株式会社,,株式会社,大阪府,高石市,取石３丁目８番２６号,,27,225,5920013,,,,,,,2025-01-06,1,,,,,ジェイシーエス,0
402,2120101070820,新規,0,2025-01-06,2025-01-06,株式会社ＭＳＷ,,株式会社,大阪府,堺市中区,毛穴町３２４番地３７,,27,142,5998266,,,,,,,2025-01-06,1,,,,,エムエスダブリュウ,0
403,2120103006211,新規,0,2025-01-06,2025-01-06,合同会社ＯＮＥ　ＵＰ　ＮＥＸＴ,,合同会社,大阪府,岸和田市,東ケ丘町８０８番地の７８９,,27,202,5960807,,,,,,,2025-01-06,1,,,,,ワンアップネクスト,0
405,2122003003081,新規,0,2025-01-06,2025-01-06,合同会社ＴＫコンサルティング,,合同会社,大阪府,東大阪市,瓢箪山町２１番１６号ＳｈａｍａｉｓｏｎＦｕｓｏ２０５号,,27,227,5798051,,,,,,,2025-01-06,1,,,,,ティーケーコンサルティング,0
406,2130001078681,新規,0,2025-01-06,2025-01-06,Ｈａｐｐｉｎｅｓｓ　Ｓｑｕａｒｅ株式会社,,株式会社,京都府,京都市伏見区,深草大亀谷大山町５３番地２５,,26,109,6120847,,,,,,,2025-01-06,1,,,,,ハピネススクエア,0
407,2130001078698,新規,0,2025-01-06,2025-01-06,株式会社アトリエタヌキ,,株式会社,京都府,京都市中京区,河原町通二条上る清水町３４１番地４藤和河原町二条ホームズ１１０１,,26,104,6040911,,,,,,,2025-01-06,1,,,,,アトリエタヌキ,0
408,2130003010089,新規,0,2025-01-06,2025-01-06,合同会社夢幻,,合同会社,京都府,京都市山科区,北花山西ノ野町３－８－１,,26,110,6078484,,,,,,,2025-01-06,1,,,,,ムゲン,0
409,2130003010114,新規,0,2025-01-06,2025-01-06,合同会社あんそん,,合同会社,京都府,宇治市,羽拍子町１３番地の１７,,26,204,6110027,,,,,,,2025-01-06,1,,,,,アンソン,0
414,2140001136868,新規,0,2025-01-06,2025-01-06,株式会社まほろば開発,,株式会社,兵庫県,淡路市,野島蟇浦１４１番地２,,28,226,6561721,,,,,,,2025-01-06,1,,,,,マホロバカイハツ,0
415,2140001136876,新規,0,2025-01-06,2025-01-06,株式会社ＥＹＥ　Ｄｅａｒ,,株式会社,兵庫県,神戸市東灘区,御影山手４丁目１４番１６号,,28,101,6580065,,,,,,,2025-01-06,1,,,,,アイディア,0
419,2150003003462,新規,0,2025-01-06,2025-01-06,合同会社ｊｇ,,合同会社,奈良県,磯城郡三宅町,大字伴堂６２８番地の１,,29,362,6360213,,,,,,,2025-01-06,1,,,,,ジェイジー,0
420,2150005009656,新規,0,2025-01-06,2025-01-06,特定非営利活動法人中和文化社,,その他の設立登記法人,奈良県,桜井市,大字下居９番地,,29,206,6330031,,,,,,,2025-01-06,1,,,,,チュウワブンカシャ,0
422,2170001018436,新規,0,2025-01-06,2025-01-06,株式会社杉雅,,株式会社,和歌山県,和歌山市,出水１３０番地７,,30,201,6408321,,,,,,,2025-01-06,1,,,,,スギマサ,0
423,2180001020969,新規,0,2025-01-06,2025-01-06,株式会社丸屋,,株式会社,愛知県,名古屋市中川区,尾頭橋３丁目１５番９号,,23,110,4540012,,,,,,,2025-01-06,1,,,,,マルヤ,0
428,2180003027797,新規,0,2025-01-06,2025-01-06,ハピネスユウ合同会社,,合同会社,愛知県,名古屋市天白区,原２丁目１３０６番地の３,,23,116,4680015,,,,,,,2025-01-06,1,,,,,ハピネスユウ,0
430,2180005020882,新規,0,2025-01-06,2025-01-06,医療法人銘祐会,,その他の設立登記法人,愛知県,名古屋市守山区,小幡２丁目４番７号,,23,113,4630011,,,,,,,2025-01-06,1,,,,,メイユウカイ,0
431,2180005020890,新規,0,2025-01-06,2025-01-06,医療法人愛医会,,その他の設立登記法人,愛知県,長久手市,勝入塚４０２番地,,23,238,4801128,,,,,,,2025-01-06,1,,,,,アイイカイ,0
432,2180301039379,新規,0,2025-01-06,2025-01-06,株式会社エムティケイ豊橋,,株式会社,愛知県,豊橋市,駅前大通２丁目８２番地,,23,201,4400888,,,,,,,2025-01-06,1,,,,,エムティケイトヨハシ,0
433,2180301039395,新規,0,2025-01-06,2025-01-06,アルゴラッソ株式会社,,株式会社,愛知県,安城市,住吉町５丁目１９番地１１,,23,212,4460072,,,,,,,2025-01-06,1,,,,,アルゴラッソ,0
434,2180303006385,新規,0,2025-01-06,2025-01-06,合同会社勇気,,合同会社,愛知県,碧南市,港本町４番地２１,,23,209,4470844,,,,,,,2025-01-06,1,,,,,ユウキ,0
438,2190001031916,新規,0,2025-01-06,2025-01-06,株式会社ｍｉｃｏ．,,株式会社,三重県,津市,大門１番２７号川井ビル１Ａ,,24,201,5140027,,,,,,,2025-01-06,1,,,,,ミコ,0
439,2200001043273,新規,0,2025-01-06,2025-01-06,昭洋ホールディングス株式会社,,株式会社,岐阜県,多治見市,栄町２丁目７０番地,,21,204,5070035,,,,,,,2025-01-06,1,,,,,ショウヨウホールディングス,0
441,2200002028595,新規,0,2025-01-06,2025-01-06,有限会社アロエ薬品,,有限会社,岐阜県,下呂市,萩原町尾崎２４０番地の５,,21,220,5092508,,,,,,,2025-01-06,1,,,,,アロエヤクヒン,0
444,2220003003918,新規,0,2025-01-06,2025-01-06,Ｂｒａｎｄｃｈｉｅ合同会社,,合同会社,石川県,白山市,博労１丁目１７番地,,17,210,9240863,,,,,,,2025-01-06,1,,,,,ブランドチエ,0
445,2230001020690,新規,0,2025-01-06,2025-01-06,株式会社ｍｅｚｏｎ,,株式会社,富山県,富山市,大泉中町７番１号,,16,201,9398095,,,,,,,2025-01-06,1,,,,,メゾン,0
446,2230003002357,新規,0,2025-01-06,2025-01-06,北陸０１合同会社,,合同会社,富山県,魚津市,青島１６１番地８シャノワールＩＩ２０２号室,00137503,16,204,9370063,,,,,,,2025-01-06,1,,,,,ホクリクゼロイチ,0
448,2240001064299,新規,0,2025-01-06,2025-01-06,株式会社稲留電気,,株式会社,広島県,福山市,御幸町大字森脇１０３１番地８,,34,207,7200003,,,,,,,2025-01-06,1,,,,,イナドメデンキ,0
452,2250003003618,新規,0,2025-01-06,2025-01-06,合同会社ＡＬＴＡ,,合同会社,山口県,下関市,長府安養寺１丁目１２番１５号,,35,201,7520962,,,,,,,2025-01-06,1,,,,,アルタ,0
454,2260005011436,新規,0,2025-01-06,2025-01-06,一般社団法人岡山シニアライフサポート協会,,その他の設立登記法人,岡山県,岡山市中区,原尾島３丁目８番２７号,,33,102,7038235,,,,,,,2025-01-06,1,,,,,オカヤマシニアライフサポートキョウカイ,0
456,2280001009325,新規,0,2025-01-06,2025-01-06,株式会社ＴＫ不動産,,株式会社,島根県,益田市,下本郷町４５４番地１,,32,204,6980002,,,,,,,2025-01-06,1,,,,,ティーケーフドウサン,0
462,2290001108415,新規,0,2025-01-06,2025-01-06,ＴＳマテリアル株式会社,,株式会社,福岡県,福岡市南区,大楠２丁目３番２１号,,40,134,8150082,,,,,,,2025-01-06,1,,,,,ティーエスマテリアル,0
463,2290001108431,新規,0,2025-01-06,2025-01-06,株式会社ＡＩＲＥ,,株式会社,福岡県,糟屋郡須惠町,大字須惠１０７０番地つえだビル１０５号,,40,344,8112113,,,,,,,2025-01-06,1,,,,,アイレ,0
464,2290001108448,新規,0,2025-01-06,2025-01-06,株式会社ｖａｃａｎｃｅｓ,,株式会社,福岡県,古賀市,新久保１丁目１５番４４号,,40,223,8113118,,,,,,,2025-01-06,1,,,,,バカンス,0
465,2290001108480,新規,0,2025-01-06,2025-01-06,株式会社ワングワン,,株式会社,福岡県,福岡市中央区,笹丘１丁目６番１８号,,40,133,8100034,,,,,,,2025-01-06,1,,,,,ワングワン,0
466,2290005019591,新規,0,2025-01-06,2025-01-06,医療法人福岡西つつみ眼科,,その他の設立登記法人,福岡県,福岡市西区,上山門１丁目４８６番２,,40,135,8190054,,,,,,,2025-01-06,1,,,,,フクオカニシツツミガンカ,0
475,2340001027023,新規,0,2025-01-06,2025-01-06,株式会社アスカコーポレーション,,株式会社,鹿児島県,大島郡和泊町,大字永嶺９３６番地４,,46,533,8919135,,,,,,,2025-01-06,1,,,,,アスカコーポレーション,0
476,2340002028706,新規,0,2025-01-06,2025-01-06,有限会社吉野農場,,有限会社,鹿児島県,鹿児島市,宮之浦町４０３０番地,,46,201,8911305,,,,,,,2025-01-06,1,,,,,ヨシノノウジョウ,0
482,2370001052092,新規,0,2025-01-06,2025-01-06,株式会社ＧＥＴ　ＢＡＣＫ,,株式会社,宮城県,仙台市青葉区,北目町４番７号,,04,101,9800023,,,,,,,2025-01-06,1,,,,,ゲットバック,0
486,2380003005923,新規,0,2025-01-06,2025-01-06,合同会社こまラボ,,合同会社,福島県,伊達市,保原町字十丁目７番地,,07,213,9600607,,,,,,,2025-01-06,1,,,,,コマラボ,0
490,2400003003370,新規,0,2025-01-06,2025-01-06,合同会社いわてデリカ,,合同会社,岩手県,盛岡市,中央通１丁目７－３５コアフィールドモリオカ１階－３階,,03,201,0200021,,,,,,,2025-01-06,1,,,,,イワテデリカ,0
491,2410005006619,新規,0,2025-01-06,2025-01-06,一般社団法人北鹿ヘルスケアネット,,その他の設立登記法人,秋田県,大館市,豊町３番１号,,05,204,0170885,,,,,,,2025-01-06,1,,,,,ホクロクヘルスケアネット,0
493,2440001009548,新規,0,2025-01-06,2025-01-06,株式会社ケアサポートみすず,,株式会社,北海道,函館市,宮前町３番２０号,,01,202,0400073,,,,,,,2025-01-06,1,,,,,ケアサポートミスズ,0
496,2470003002779,新規,0,2025-01-06,2025-01-06,合同会社ＯＳ,,合同会社,香川県,善通寺市,金蔵寺町１２２９番地１４,,37,204,7650031,,,,,,,2025-01-06,1,,,,,,0
497,2480003002217,新規,0,2025-01-06,2025-01-06,合同会社阿讃工房,,合同会社,徳島県,板野郡板野町,那東字谷口４－２,,36,404,7790111,,,,,,,2025-01-06,1,,,,,アサンコウボウ,0
499,2700150128460,新規,0,2025-01-06,2025-01-06,ＡＪＩＴＨ　ＥＮＴＥＲＰＲＩＳＥＳ,,外国会社等,埼玉県,新座市,栗原６丁目１４番２号１Ｄ,,11,230,3520035,スリランカ民主社会主義共和国、モナラガラ、アンティマレウェワ、ジャンクション７０,,,,,,2025-01-06,1,,,,,アジスエンタープライズ,0
511,3010001250929,新規,0,2025-01-06,2025-01-06,株式会社かがやき,,株式会社,東京都,中央区,銀座１丁目１２番４号Ｎ＆ＥＢＬＤ．７階,,13,102,1040061,,,,,,,2025-01-06,1,,,,,カガヤキ,0
516,3010003045939,新規,0,2025-01-06,2025-01-06,合同会社うるはし,,合同会社,東京都,千代田区,神田須田町１丁目７番８号ＶＯＲＴ秋葉原ＩＶ２Ｆ,00137510,13,101,1010041,,,,,,,2025-01-06,1,,,,,ウルワシ,0
517,3010005039336,新規,0,2025-01-06,2025-01-06,一般社団法人Ｓｆｉｄａ,,その他の設立登記法人,東京都,千代田区,紀尾井町３番１２号,,13,101,1020094,,,,,,,2025-01-06,1,,,,,エスフィーダ,0
522,3010401187300,新規,0,2025-01-06,2025-01-06,株式会社ＤＯＪｓ,,株式会社,東京都,港区,芝３丁目４３番９号８０３,,13,103,1050014,,,,,,,2025-01-06,1,,,,,ディーオージェイズ,0
523,3010401187416,新規,0,2025-01-06,2025-01-06,株式会社Ａ‐ＳＰＡＲＫ,,株式会社,東京都,港区,浜松町２丁目２番１５号浜松町ダイヤビル２Ｆ,,13,103,1050013,,,,,,,2025-01-06,1,,,,,エースパーク,0
524,3010501053419,新規,0,2025-01-06,2025-01-06,Ｂｒｅｎｏｖｗ株式会社,,株式会社,東京都,台東区,浅草１丁目１３番５号井門浅草すしや通りビル,,13,106,1110032,,,,,,,2025-01-06,1,,,,,ヴィリーノ,0
525,3010601066510,新規,0,2025-01-06,2025-01-06,株式会社Ｍｏｓｔ,,株式会社,東京都,江東区,塩浜２丁目５番２３－１４０４号,,13,108,1350043,,,,,,,2025-01-06,1,,,,,モスト,0
527,3010801035711,新規,0,2025-01-06,2025-01-06,株式会社ニッシンホールディングス,,株式会社,東京都,大田区,西蒲田６丁目１７番３－３０６号,,13,111,1440051,,,,,,,2025-01-06,1,,,,,ニッシンホールディングス,0
528,3010803005225,新規,0,2025-01-06,2025-01-06,合同会社ＦＥＬＩＣＥ,,合同会社,東京都,大田区,池上６丁目５番２号,,13,111,1460082,,,,,,,2025-01-06,1,,,,,フェリーチ,0
533,3011001166504,新規,0,2025-01-06,2025-01-06,株式会社ＡＩ　Ｓｗｏｒｄ,,株式会社,東京都,渋谷区,代々木５丁目５７－２パークハビオＳＯＨＯ代々木公園４１６,,13,113,1510053,,,,,,,2025-01-06,1,,,,,エイアイソード,0
534,3011003020725,新規,0,2025-01-06,2025-01-06,合同会社Ｂｅｖｅｌ,,合同会社,東京都,渋谷区,道玄坂１丁目１０番８号渋谷道玄坂東急ビル２Ｆ―Ｃ,,13,113,1500043,,,,,,,2025-01-06,1,,,,,ベベル,0
542,3011101110097,新規,0,2025-01-06,2025-01-06,株式会社ｔａｓｔｅ　ｏｆ　ｈａｐｐｉｎｅｓｓ,,株式会社,東京都,新宿区,新宿１丁目２８番３号,,13,104,1600022,,,,,,,2025-01-06,1,,,,,テイストオブハピネス,0
543,3011103015352,新規,0,2025-01-06,2025-01-06,ＦｏｒｇｅＢｙｔｅ合同会社,,合同会社,東京都,新宿区,新宿１丁目３６番２号新宿第七葉山ビル３階,,13,104,1600022,,,,,,,2025-01-06,1,,,,,フォージバイト,0
548,3011301030252,新規,0,2025-01-06,2025-01-06,株式会社ｎｕｕｍａ,,株式会社,東京都,杉並区,天沼３丁目２９番２８号コーポベラミ１００,,13,115,1670032,,,,,,,2025-01-06,1,,,,,ヌーマ,0
549,3011303005376,新規,0,2025-01-06,2025-01-06,ＡＮＦＯＬＤ合同会社,,合同会社,東京都,杉並区,善福寺１丁目２１番３号,,13,115,1670041,,,,,,,2025-01-06,1,,,,,アンフォルド,0
576,3020001160788,新規,0,2025-01-06,2025-01-06,株式会社利春,,株式会社,神奈川県,横浜市港北区,師岡町１２６番地,,14,109,2220002,,,,,,,2025-01-06,1,,,,,トシハル,0
580,3020003027531,新規,0,2025-01-06,2025-01-06,合同会社Ｖ．ペイントＳ,,合同会社,神奈川県,川崎市高津区,新作５丁目８番１－４０５号,,14,134,2130014,,,,,,,2025-01-06,1,,,,,ブイペイントエス,0
582,3020005016664,新規,0,2025-01-06,2025-01-06,医療法人幸龍家,,その他の設立登記法人,神奈川県,横浜市都筑区,牛久保１丁目２番９号メディコーポ都筑２０２号室,,14,118,2240012,,,,,,,2025-01-06,1,,,,,コウリュウケ,0
585,3021001084127,新規,0,2025-01-06,2025-01-06,株式会社笑福,,株式会社,神奈川県,相模原市中央区,陽光台６丁目１２番３号,,14,152,2520226,,,,,,,2025-01-06,1,,,,,エフ,0
586,3021001084135,新規,0,2025-01-06,2025-01-06,株式会社Ｄａｉｙａ,,株式会社,神奈川県,平塚市,西真土３丁目１１番６８号,,14,203,2540019,,,,,,,2025-01-06,1,,,,,ダイヤ,0
587,3021001084143,新規,0,2025-01-06,2025-01-06,株式会社スリーメン,,株式会社,神奈川県,相模原市南区,西大沼１丁目１番１２号,,14,153,2520332,,,,,,,2025-01-06,1,,,,,スリーメン,0
589,3021003015385,新規,0,2025-01-06,2025-01-06,合同会社スターアニス,,合同会社,神奈川県,鎌倉市,七里ガ浜東４丁目１０―１０,,14,204,2480025,,,,,,,2025-01-06,1,,,,,スターアニス,0
590,3021003015402,新規,0,2025-01-06,2025-01-06,合同会社山村オート,,合同会社,神奈川県,藤沢市,葛原１４０番地の２６,,14,205,2520822,,,,,,,2025-01-06,1,,,,,ヤマムラオート,0
596,3030001164144,新規,0,2025-01-06,2025-01-06,裏門株式会社,,株式会社,埼玉県,さいたま市浦和区,仲町２丁目１６番１６号,,11,107,3300062,,,,,,,2025-01-06,1,,,,,ウラモン,0
597,3030001164152,新規,0,2025-01-06,2025-01-06,株式会社ＭＯ　Ａｉｒ,,株式会社,埼玉県,志木市,上宗岡４丁目６番２７－７２１号,,11,228,3530001,,,,,,,2025-01-06,1,,,,,エムオーエアー,0
598,3030001164160,新規,0,2025-01-06,2025-01-06,株式会社松山苑,,株式会社,埼玉県,川口市,大字安行原２４２３番地,,11,203,3340057,,,,,,,2025-01-06,1,,,,,マツヤマエン,0
599,3030001164169,新規,0,2025-01-06,2025-01-06,株式会社ＫＡＮＯＡ,,株式会社,埼玉県,越谷市,宮本町２丁目２７７番地,,11,222,3430806,,,,,,,2025-01-06,1,,,,,カノア,0
600,3030001164177,新規,0,2025-01-06,2025-01-06,ＳＧサイクル株式会社,,株式会社,埼玉県,川口市,芝２丁目１７番２６号,,11,203,3330866,,,,,,,2025-01-06,1,,,,,エスジーサイクル,0
601,3030001164185,新規,0,2025-01-06,2025-01-06,株式会社秋山製作所,,株式会社,埼玉県,入間市,狭山台２丁目１１番地１２,,11,225,3580033,,,,,,,2025-01-06,1,,,,,アキヤマセイサクショ,0
602,3030001164235,新規,0,2025-01-06,2025-01-06,株式会社ＴＡＫＡＲＡ,,株式会社,埼玉県,新座市,野火止５丁目１２番５号,,11,230,3520011,,,,,,,2025-01-06,1,,,,,タカラ,0
608,3030003025798,新規,0,2025-01-06,2025-01-06,合同会社ＷｅＲ,,合同会社,埼玉県,上尾市,谷津２丁目１番３８号,,11,219,3620042,,,,,,,2025-01-06,1,,,,,ウィーアール,0
609,3030003025815,新規,0,2025-01-06,2025-01-06,たかはし合同会社,,合同会社,埼玉県,所沢市,西所沢１丁目２０番９号,,11,208,3591144,,,,,,,2025-01-06,1,,,,,タカハシ,0
616,3040001136753,新規,0,2025-01-06,2025-01-06,株式会社ｗｅａｔｓ,,株式会社,千葉県,市川市,原木１丁目５番１２号,,12,203,2720004,,,,,,,2025-01-06,1,,,,,ウィーツ,0
617,3040001136761,新規,0,2025-01-06,2025-01-06,株式会社Ｋ‐ＴＥＣＨ,,株式会社,千葉県,千葉市若葉区,加曽利町１８００番地１８０ハイツ塙１０２号,,12,104,2640017,,,,,,,2025-01-06,1,,,,,ケーテック,0
618,3040001136794,新規,0,2025-01-06,2025-01-06,株式会社すみれ,,株式会社,千葉県,千葉市中央区,末広５丁目９番２号,,12,101,2600843,,,,,,,2025-01-06,1,,,,,スミレ,0
622,3040003026498,新規,0,2025-01-06,2025-01-06,合同会社銀桜サーモン養魚場,,合同会社,千葉県,柏市,新逆井１丁目４１番３７号,,12,217,2770044,,,,,,,2025-01-06,1,,,,,ギンオウサーモンヨウギョジョウ,0
623,3050001055936,新規,0,2025-01-06,2025-01-06,株式会社ヒカリノアトリエ,,株式会社,茨城県,つくばみらい市,紫峰ヶ丘３丁目１番地３‐Ａ１０２,,08,235,3002359,,,,,,,2025-01-06,1,,,,,ヒカリノアトリエ,0
625,3060001037792,新規,0,2025-01-06,2025-01-06,株式会社オーラボソリューションズ,,株式会社,栃木県,河内郡上三川町,大字西汗１７０５番地８,,09,301,3290607,,,,,,,2025-01-06,1,,,,,オーラボソリューションズ,0
627,3070001042494,新規,0,2025-01-06,2025-01-06,株式会社七彩十彩,,株式会社,群馬県,邑楽郡邑楽町,大字赤堀３８５９番地,,10,525,3700614,,,,,,,2025-01-06,1,,,,,ナナイロトイロ,0
628,3070001042511,新規,0,2025-01-06,2025-01-06,株式会社エルエスラボ,,株式会社,群馬県,高崎市,八幡原町５０８番地１,,10,202,3700024,,,,,,,2025-01-06,1,,,,,エルエスラボ,0
630,3070003005730,新規,0,2025-01-06,2025-01-06,合同会社ビーバービレッジ,,合同会社,群馬県,桐生市,梅田町４丁目３２４番地１,,10,203,3760601,,,,,,,2025-01-06,1,,,,,ビーバービレッジ,0
633,3080001026686,新規,0,2025-01-06,2025-01-06,ＯＫＭ株式会社,,株式会社,静岡県,島田市,金谷東２丁目１４２９番地の１１,,22,209,4280013,,,,,,,2025-01-06,1,,,,,オーケーエム,0
637,3080401027648,新規,0,2025-01-06,2025-01-06,株式会社Ｇｒｅｅｎ　ＥｄＴｅｃｈ,,株式会社,静岡県,菊川市,河東４６３９番地の１,,22,224,4371506,,,,,,,2025-01-06,1,,,,,グリーンエドテック,0
638,3080401027656,新規,0,2025-01-06,2025-01-06,株式会社ＷＲ　ｐａｉｎｔｉｎｇ,,株式会社,静岡県,掛川市,家代１８７２番地,,22,213,4360225,,,,,,,2025-01-06,1,,,,,ダブルアールペインティング,0
642,3090001004419,新規,0,2025-01-06,2025-01-06,協栄地所株式会社,,株式会社,山梨県,甲府市,丸の内３丁目２０番１号,,19,201,4000031,,,,,,,2025-01-06,1,,,,,キョウエイジショ,0
644,3100001038167,新規,0,2025-01-06,2025-01-06,株式会社ＢｌｕｅＳｋｙ,,株式会社,長野県,上田市,諏訪形１０９９番地１７,,20,203,3860032,,,,,,,2025-01-06,1,,,,,ブルースカイ,0
645,3100005013273,新規,0,2025-01-06,2025-01-06,一般社団法人Ｍａｓｊｉｄ　Ｉｎｄｏｎｅｓｉａ　Ｕｅｄａ,,その他の設立登記法人,長野県,上田市,岩下１００番地,,20,203,3860153,,,,,,,2025-01-06,1,,,,,マスジドインドネシアウエダ,0
651,3120001083962,新規,0,2025-01-06,2025-01-06,タケモト産業株式会社,,株式会社,大阪府,大阪市中央区,瓦町３丁目６番１３号,,27,128,5410048,,,,,,,2025-01-06,1,,,,,,0
656,3120001271492,新規,0,2025-01-06,2025-01-06,ピーアールワイ株式会社,,株式会社,大阪府,寝屋川市,八坂町１２番１３号旭八坂ビル３Ｆ,,27,215,5720838,,,,,,,2025-01-06,1,,,,,ピーアールワイ,0
657,3120001271542,新規,0,2025-01-06,2025-01-06,株式会社ＣＬＣ,,株式会社,大阪府,大阪市中央区,瓦町４丁目６番１５号,,27,128,5410048,,,,,,,2025-01-06,1,,,,,シーエルシー,0
658,3120001271567,新規,0,2025-01-06,2025-01-06,楽陶株式会社,,株式会社,大阪府,大阪市中央区,瓦屋町２丁目５番２０号３０２室,,27,128,5420066,,,,,,,2025-01-06,1,,,,,ラクトウ,0
659,3120001271591,新規,0,2025-01-06,2025-01-06,株式会社ＨＯＵＷＡ,,株式会社,大阪府,大阪市東住吉区,住道矢田４丁目１番１９号０３,,27,121,5460022,,,,,,,2025-01-06,1,,,,,ホウワ,0
660,3120001271666,新規,0,2025-01-06,2025-01-06,株式会社アール・エコシステム,,株式会社,大阪府,守口市,本町２丁目５番１８号,,27,209,5700028,,,,,,,2025-01-06,1,,,,,アールエコシステム,0
661,3120003028189,新規,0,2025-01-06,2025-01-06,合同会社Ｌｕｌｌ,,合同会社,大阪府,大阪市北区,中津１丁目１２－１１メロディーハイム中津２番館８０２号,,27,127,5310071,,,,,,,2025-01-06,1,,,,,ラル,0
665,3120101070811,新規,0,2025-01-06,2025-01-06,株式会社海翔,,株式会社,大阪府,堺市西区,鳳西町３丁５番地２２,,27,144,5938326,,,,,,,2025-01-06,1,,,,,カイショウ,0
666,3120101070852,新規,0,2025-01-06,2025-01-06,株式会社ノイレバ,,株式会社,大阪府,堺市堺区,熊野町東３丁１番９号シティコート大小路ＩＩ５０４,00137504,27,141,5900946,,,,,,,2025-01-06,1,,,,,ノイレバ,0
667,3120103006210,新規,0,2025-01-06,2025-01-06,合同会社セカンドティアラ,,合同会社,大阪府,和泉市,のぞみ野１丁目７番４号,,27,219,5941105,,,,,,,2025-01-06,1,,,,,セカンドティアラ,0
668,3120901050228,新規,0,2025-01-06,2025-01-06,株式会社アローズワン,,株式会社,大阪府,池田市,荘園２丁目５番１９－４１１号,,27,204,5630038,,,,,,,2025-01-06,1,,,,,アローズワン,0
674,3130001078680,新規,0,2025-01-06,2025-01-06,株式会社ＳＦＴ　Ｊａｐａｎ,,株式会社,京都府,京都市東山区,清閑寺山ノ内町４６番地５,,26,105,6050922,,,,,,,2025-01-06,1,,,,,エスエフティージャパン,0
675,3130001078706,新規,0,2025-01-06,2025-01-06,株式会社サブマリン,,株式会社,京都府,京都市山科区,竹鼻竹ノ街道町７９番地２アルブルＩＩ１０１,00137494,26,110,6078080,,,,,,,2025-01-06,1,,,,,サブマリン,0
678,3130003010113,新規,0,2025-01-06,2025-01-06,ｒｅ１０合同会社,,合同会社,京都府,京都市伏見区,深草キトロ町１２－６０９,,26,109,6120025,,,,,,,2025-01-06,1,,,,,レテン,0
681,3140001136900,新規,0,2025-01-06,2025-01-06,株式会社ＨＥＮＣＡ,,株式会社,兵庫県,神戸市中央区,琴ノ緒町５丁目４番２１号三共三宮ビル４０１,,28,110,6510094,,,,,,,2025-01-06,1,,,,,ヘンカ,0
685,3140003021472,新規,0,2025-01-06,2025-01-06,合同会社ＵＫＦ,,合同会社,兵庫県,西宮市,高塚町７番１４５号,,28,204,6620066,,,,,,,2025-01-06,1,,,,,ユーケーエフ,0
686,3140003021489,新規,0,2025-01-06,2025-01-06,合同会社トミリシェス,,合同会社,兵庫県,西宮市,日野町１８番２３号,,28,204,6638022,,,,,,,2025-01-06,1,,,,,トミリシェス,0
690,3160001026455,新規,0,2025-01-06,2025-01-06,株式会社川崎商事,,株式会社,滋賀県,大津市,青山４丁目５番１０号,,25,201,5202101,,,,,,,2025-01-06,1,,,,,カワサキショウジ,0
692,3180003027805,新規,0,2025-01-06,2025-01-06,合同会社ＬＩＦＥ　ＡＳＳＲＳＴ,,合同会社,愛知県,稲沢市,千代町中郷２１番地２,,23,220,4928402,,,,,,,2025-01-06,1,,,,,ライフアシスト,0
693,3180301039378,新規,0,2025-01-06,2025-01-06,東海アクト株式会社,,株式会社,愛知県,岡崎市,市場町字東町４３番地,,23,202,4443521,,,,,,,2025-01-06,1,,,,,トウカイアクト,0
694,3180301039386,新規,0,2025-01-06,2025-01-06,株式会社ＰＲＩＭＥ　ＷＡＶ,,株式会社,愛知県,岡崎市,上地２丁目２９番地３,,23,202,4440823,,,,,,,2025-01-06,1,,,,,プライムワブ,0
698,3190003004902,新規,0,2025-01-06,2025-01-06,合同会社ＦＵＴＵＲＥ,,合同会社,三重県,松阪市,大黒田町４０５番地４,,24,204,5150063,,,,,,,2025-01-06,1,,,,,フューチャー,0
704,3220001026399,新規,0,2025-01-06,2025-01-06,株式会社石橋商会,,株式会社,石川県,輪島市,宅田町２４の３１番地,,17,204,9280022,,,,,,,2025-01-06,1,,,,,イシバシショウカイ,0
705,3220002003521,新規,0,2025-01-06,2025-01-06,大地宝産有限会社,,有限会社,石川県,金沢市,若宮町リ２９番地,,17,201,9200053,,,,,,,2025-01-06,1,,,,,ダイチホウサン,0
707,3230003002356,新規,0,2025-01-06,2025-01-06,合同会社Ａｃｒｉｌ　Ｇａｒｄｅｎ,,合同会社,富山県,富山市,婦中町地角３３６番地,,16,201,9392744,,,,,,,2025-01-06,1,,,,,アクリルガーデン,0
710,3240001064315,新規,0,2025-01-06,2025-01-06,ＭＪフォーク株式会社,,株式会社,広島県,東広島市,黒瀬町菅田２２０番地２,,34,212,7392624,,,,,,,2025-01-06,1,,,,,エムジェイフォーク,0
712,3260001039760,新規,0,2025-01-06,2025-01-06,株式会社Ａｚｕｒｅ．Ｄ．Ｕｎｉｖｅｒｓｅ,,株式会社,岡山県,倉敷市,白楽町２３番地１０,,33,202,7100824,,,,,,,2025-01-06,1,,,,,アズールディーユニバース,0
713,3260003005018,新規,0,2025-01-06,2025-01-06,合同会社ＨＦＴ,,合同会社,岡山県,倉敷市,連島町鶴新田１９１０番地８,,33,202,7128006,,,,,,,2025-01-06,1,,,,,エイチエフティ,0
720,3290003016235,新規,0,2025-01-06,2025-01-06,合同会社ＧＲＡＳＰ,,合同会社,福岡県,福岡市中央区,平尾３丁目５番１０－５０６号,,40,133,8100014,,,,,,,2025-01-06,1,,,,,グラスプ,0
721,3290003016243,新規,0,2025-01-06,2025-01-06,合同会社ヨシ,,合同会社,福岡県,福岡市博多区,博多駅前１丁目２３番２号ＰａｒｋＦｒｏｎｔ博多駅前１丁目５Ｆ－Ｂ,,40,132,8120011,,,,,,,2025-01-06,1,,,,,,0
722,3290801031146,新規,0,2025-01-06,2025-01-06,株式会社ＳｔｕｄｉｏＴｏｍｍｙ１００７,,株式会社,福岡県,京都郡みやこ町,呰見１７６０番地７,,40,625,8240102,,,,,,,2025-01-06,1,,,,,スタジオトミーセンナナ,0
723,3290801031154,新規,0,2025-01-06,2025-01-06,株式会社ｌｉｆｅ,,株式会社,福岡県,北九州市八幡西区,永犬丸南町５丁目８番６号,,40,109,8070845,,,,,,,2025-01-06,1,,,,,ライフ,0
724,3290803004926,新規,0,2025-01-06,2025-01-06,未来テクノ合同会社,,合同会社,福岡県,北九州市八幡西区,本城東１丁目８－２１－１１０２,,40,109,8070815,,,,,,,2025-01-06,1,,,,,ミライテクノ,0
725,3300001014032,新規,0,2025-01-06,2025-01-06,株式会社ＯＦＦＩＣＥ　ＹＯＳＨＩＤＡ,,株式会社,佐賀県,小城市,小城町２５２番地２,,41,208,8450001,,,,,,,2025-01-06,1,,,,,オフィスヨシダ,0
729,3340003004705,新規,0,2025-01-06,2025-01-06,ｖｉｖｅｎｔａ合同会社,,合同会社,鹿児島県,鹿児島市,西千石町１１番２１号鹿児島ＭＳビル５階,,46,201,8920847,,,,,,,2025-01-06,1,,,,,ヴィヴェンタ,0
730,3340005009801,新規,0,2025-01-06,2025-01-06,特定非営利活動法人こそだて支援ｃｏｍｏｎｏ,,その他の設立登記法人,鹿児島県,熊毛郡屋久島町,栗生１０６０番地,,46,505,8914409,,,,,,,2025-01-06,1,,,,,コソダテシエンコモノ,0
733,3350001019332,新規,0,2025-01-06,2025-01-06,株式会社モンキーデザイン,,株式会社,宮崎県,西臼杵郡高千穂町,大字三田井１０７３番地３,,45,441,8821101,,,,,,,2025-01-06,1,,,,,モンキーデザイン,0
734,3350003004811,新規,0,2025-01-06,2025-01-06,合同会社くますけ,,合同会社,宮崎県,宮崎市,花ケ島町観音免９４５番地１３,,45,201,8800036,,,,,,,2025-01-06,1,,,,,クマスケ,0
735,3360001034603,新規,0,2025-01-06,2025-01-06,株式会社ＳＧ・ＰＬＡＮＮＩＮＧ,,株式会社,沖縄県,宮古島市,平良字西里６００番地湧川綜合ポスト２－Ａ,,47,214,9060012,,,,,,,2025-01-06,1,,,,,エスジープランニング,0
737,3360003014561,新規,0,2025-01-06,2025-01-06,合同会社Ｊａｒ　Ｇｗａ,,合同会社,沖縄県,中頭郡読谷村,字波平２４４９番地１,,47,324,9040322,,,,,,,2025-01-06,1,,,,,ジャーグヮー,0
738,3370001052091,新規,0,2025-01-06,2025-01-06,ＮＥＷＬＩＦＥ株式会社,,株式会社,宮城県,仙台市若林区,三百人町４７番地の１ＦＯＲＴＲＥＳＳＴｈｅ連坊１０１,,04,103,9840057,,,,,,,2025-01-06,1,,,,,ニューライフ,0
749,3430001093344,新規,0,2025-01-06,2025-01-06,ＡＡ株式会社,,株式会社,北海道,勇払郡安平町,追分本町２丁目１５番地１,,01,585,0591911,,,,,,,2025-01-06,1,,,,,エース,0
750,3430001093377,新規,0,2025-01-06,2025-01-06,株式会社ｍｅ．ＭＯＲＩ,,株式会社,北海道,札幌市中央区,宮の森一条１１丁目１番２０号,,01,101,0640951,,,,,,,2025-01-06,1,,,,,メモリ,0
751,3430001093393,新規,0,2025-01-06,2025-01-06,瀚勳株式会社,00137500,株式会社,北海道,札幌市中央区,大通西１８丁目１番地１４藪商事ＢＬＤＧ４階,,01,101,0600042,,,,,,,2025-01-06,1,,,,,カンクン,0
752,3430003017111,新規,0,2025-01-06,2025-01-06,合同会社ＰＯＡ,,合同会社,北海道,札幌市東区,北二十二条東８丁目４番１５号,,01,103,0650022,,,,,,,2025-01-06,1,,,,,ポア,0
753,3440001009547,新規,0,2025-01-06,2025-01-06,株式会社ＭＩＺＯ,,株式会社,北海道,函館市,的場町３－９　１０３,,01,202,0400021,,,,,,,2025-01-06,1,,,,,ミゾ,0
758,3470001020526,新規,0,2025-01-06,2025-01-06,ｓｈｉｎ・ｔｅｃｈ・ｈｏｍｅ株式会社,,株式会社,香川県,高松市,国分寺町新居８９３番地２３,,37,201,7690101,,,,,,,2025-01-06,1,,,,,シンテックホーム,0
759,3480003002216,新規,0,2025-01-06,2025-01-06,合同会社ＥＭＣ・ｒａｐｐｏｒｔ,,合同会社,徳島県,徳島市,八万町法花１８０番地１,,36,201,7708083,,,,,,,2025-01-06,1,,,,,イーエムシーラポール,0
765,4010001251059,新規,0,2025-01-06,2025-01-06,株式会社千疋屋総本店ホールディングス,,株式会社,東京都,中央区,日本橋室町２丁目４番１号,,13,102,1030022,,,,,,,2025-01-06,1,,,,,センビキヤソウホンテンホールディングス,0
766,4010001251117,新規,0,2025-01-06,2025-01-06,株式会社ＥＭ,,株式会社,東京都,中央区,日本橋２丁目２番３号ＲＩＳＨＥビルＵＣＦ４階,,13,102,1030027,,,,,,,2025-01-06,1,,,,,イーエム,0
767,4010001251125,新規,0,2025-01-06,2025-01-06,株式会社おばけ小僧,,株式会社,東京都,中央区,銀座７丁目１３番６号サガミビル２階,,13,102,1040061,,,,,,,2025-01-06,1,,,,,オバケコゾウ,0
768,4010003045871,新規,0,2025-01-06,2025-01-06,マテリアル合同会社,,合同会社,東京都,中央区,銀座１丁目１２番４号Ｎ＆ＥＢＬＤ．６Ｆ,,13,102,1040061,,,,,,,2025-01-06,1,,,,,マテリアル,0
771,4010005039335,新規,0,2025-01-06,2025-01-06,一般社団法人日本美容ライフ協会,,その他の設立登記法人,東京都,中央区,月島２丁目１３番１０－５０２号,,13,102,1040052,,,,,,,2025-01-06,1,,,,,ニホンビヨウライフキョウカイ,0
776,4010401187299,新規,0,2025-01-06,2025-01-06,株式会社ＪＧ２７,,株式会社,東京都,港区,虎ノ門１丁目３番１号,,13,103,1050001,,,,,,,2025-01-06,1,,,,,ジェージーニジュウナナ,0
782,4010403034086,新規,0,2025-01-06,2025-01-06,ＹＫ合同会社,,合同会社,東京都,港区,三田３丁目３番６－５０４号,,13,103,1080073,,,,,,,2025-01-06,1,,,,,ワイケー,0
783,4010405023905,新規,0,2025-01-06,2025-01-06,一般社団法人Ｓｕｐｅｒ　Ｇｉｖｅｒｓ,,その他の設立登記法人,東京都,港区,北青山１丁目３番１号アールキューブ青山３階,,13,103,1070061,,,,,,,2025-01-06,1,,,,,スーパーギバーズ,0
788,4010601066550,新規,0,2025-01-06,2025-01-06,株式会社ＰＥＡＲＬＳ,,株式会社,東京都,江東区,南砂３丁目１４―２３・２階,,13,108,1360076,,,,,,,2025-01-06,1,,,,,パールズ,0
790,4010603011298,新規,0,2025-01-06,2025-01-06,合同会社トーキョースナバーランド,,合同会社,東京都,江東区,富岡１丁目２－８ストライプハウス４０１,,13,108,1350047,,,,,,,2025-01-06,1,,,,,トーキョースナバーランド,0
791,4010701047046,新規,0,2025-01-06,2025-01-06,仁済ホールディングス株式会社,,株式会社,東京都,品川区,大井１丁目４９番１２号,,13,109,1400014,,,,,,,2025-01-06,1,,,,,ジンサイホールディングス,0
793,4010703007519,新規,0,2025-01-06,2025-01-06,こはこ合同会社,,合同会社,東京都,品川区,西五反田２丁目９－７ドルミ五反田アンメゾン４０７号,,13,109,1410031,,,,,,,2025-01-06,1,,,,,コハコ,0
794,4010801035719,新規,0,2025-01-06,2025-01-06,ジェディック株式会社,,株式会社,東京都,大田区,久が原５丁目２２番２０号,,13,111,1460085,,,,,,,2025-01-06,1,,,,,ジェディック,0
797,4010901056565,新規,0,2025-01-06,2025-01-06,株式会社スマイルママ,,株式会社,東京都,世田谷区,中町１丁目２番４号,,13,112,1580091,,,,,,,2025-01-06,1,,,,,スマイルママ,0
798,4010901056573,新規,0,2025-01-06,2025-01-06,株式会社Ｓｔｉｌｌ　Ｂｌｕｅ,,株式会社,東京都,世田谷区,桜新町２丁目１８番７号ビジョンブルーム００１,,13,112,1540015,,,,,,,2025-01-06,1,,,,,スティルブルー,0
799,4010903009604,新規,0,2025-01-06,2025-01-06,合同会社リバティ,,合同会社,東京都,世田谷区,南烏山６丁目２７－３ウィンド烏山Ｂ１０２,,13,112,1570062,,,,,,,2025-01-06,1,,,,,リバティ,0
800,4010903009612,新規,0,2025-01-06,2025-01-06,合同会社Ｙｏｓｓｙ　Ｅｎｔｅｒｔａｉｎｍｅｎｔ　Ｓｔａｇｅ,,合同会社,東京都,世田谷区,野沢４丁目７番１６号アルザスＩＶ３０２,00137507,13,112,1540003,,,,,,,2025-01-06,1,,,,,ヨッシーエンターテインメントステージ,0
804,4011001166817,新規,0,2025-01-06,2025-01-06,株式会社アニメツーリズム,,株式会社,東京都,渋谷区,道玄坂１丁目１０番８号渋谷道玄坂東急ビル２Ｆ―Ｃ,,13,113,1500043,,,,,,,2025-01-06,1,,,,,アニメツーリズム,0
810,4011101110096,新規,0,2025-01-06,2025-01-06,株式会社ミライデンタル大阪,,株式会社,東京都,新宿区,新宿５丁目１５－６－７０３,,13,104,1600022,,,,,,,2025-01-06,1,,,,,ミライデンタルオオサカ,0
811,4011101110105,新規,0,2025-01-06,2025-01-06,株式会社ＡＴＨＥＬ　ＴＲＥＥ　ＣＯＦＦＥＥ,,株式会社,東京都,新宿区,歌舞伎町２丁目４２番１７号新宿ビル１階,,13,104,1600021,,,,,,,2025-01-06,1,,,,,エゼルツリーコーヒー,0
814,4011201026036,新規,0,2025-01-06,2025-01-06,株式会社大家のぽんちゃん,,株式会社,東京都,中野区,東中野５丁目２番１３－４０３号,,13,114,1640003,,,,,,,2025-01-06,1,,,,,オオヤノポンチャン,0
815,4011203004568,新規,0,2025-01-06,2025-01-06,Ｂｌｏｏｍ　Ｂｙｔｅ合同会社,,合同会社,東京都,中野区,本町４丁目１２番８号,,13,114,1640012,,,,,,,2025-01-06,1,,,,,ブルームバイト,0
816,4011301030251,新規,0,2025-01-06,2025-01-06,ガイ・パートナーズ株式会社,,株式会社,東京都,杉並区,下井草１丁目２９番７号,,13,115,1670022,,,,,,,2025-01-06,1,,,,,ガイパートナーズ,0
819,4011403004582,新規,0,2025-01-06,2025-01-06,合同会社晟輝工業,,合同会社,東京都,板橋区,坂下２丁目１４番５－２０４号,,13,119,1740043,,,,,,,2025-01-06,1,,,,,セイキコウギョウ,0
822,4011501031545,新規,0,2025-01-06,2025-01-06,株式会社ＧＲＡＮＣＩＡ,,株式会社,東京都,荒川区,西日暮里５丁目１４番１０号サンライズビル２０２,,13,118,1160013,,,,,,,2025-01-06,1,,,,,グランシア,0
823,4011601028334,新規,0,2025-01-06,2025-01-06,ＳＰＡＮＤ株式会社,,株式会社,東京都,練馬区,高松１丁目３４番１０号ブランシカ高松１０１,,13,120,1790075,,,,,,,2025-01-06,1,,,,,スパンド,0
825,4011801045377,新規,0,2025-01-06,2025-01-06,ジャパントレーディング株式会社,,株式会社,東京都,足立区,大谷田２丁目２３番６号第２大信マンション１０３号,,13,121,1200001,,,,,,,2025-01-06,1,,,,,ジャパントレーディング,0
827,4012401042632,新規,0,2025-01-06,2025-01-06,株式会社カルーナ,,株式会社,東京都,府中市,宮町１丁目３４番地２号サンスクエアビルＢ１－７号,,13,206,1830023,,,,,,,2025-01-06,1,,,,,カルーナ,0
837,4013301053595,新規,0,2025-01-06,2025-01-06,株式会社リプロジャパン,,株式会社,東京都,豊島区,南池袋１丁目１１番１９号,,13,116,1710022,,,,,,,2025-01-06,1,,,,,リプロジャパン,0
839,4013303007459,新規,0,2025-01-06,2025-01-06,合同会社Ｃａｒｄ　Ｍｉｒａｃｌｅ,,合同会社,東京都,豊島区,東池袋３丁目２１番２１－１３１０号,,13,116,1700013,,,,,,,2025-01-06,1,,,,,カードミラクル,0
840,4013305003679,新規,0,2025-01-06,2025-01-06,税理士法人クロスステージ,,その他の設立登記法人,東京都,豊島区,西池袋３丁目２２番１４号国土西池ビル３階,,13,116,1710021,,,,,,,2025-01-06,1,,,,,クロスステージ,0
846,4020001160829,新規,0,2025-01-06,2025-01-06,株式会社Ｇｉｒａｓｏｌ,,株式会社,神奈川県,川崎市中原区,小杉御殿町２丁目４７番地７小杉御殿団地５－１０３,,14,133,2110068,,,,,,,2025-01-06,1,,,,,ヒラソル,0
849,4020003027522,新規,0,2025-01-06,2025-01-06,合同会社Ｅｓｓ‐Ｃｏｎｓｕｌｔｉｎｇ,,合同会社,神奈川県,横浜市保土ケ谷区,瀬戸ケ谷町９８－２６,,14,106,2400024,,,,,,,2025-01-06,1,,,,,イーエスエスコンサルティング,0
852,4021001084126,新規,0,2025-01-06,2025-01-06,株式会社ユニオン,,株式会社,神奈川県,伊勢原市,東成瀬１３番地の１５,,14,214,2591117,,,,,,,2025-01-06,1,,,,,ユニオン,0
853,4021001084134,新規,0,2025-01-06,2025-01-06,株式会社ｙｏｕ‐１プラス,,株式会社,神奈川県,茅ヶ崎市,今宿４４番地１,,14,207,2530072,,,,,,,2025-01-06,1,,,,,ユーワンプラス,0
854,4021001084142,新規,0,2025-01-06,2025-01-06,カルダンフューチャー株式会社,,株式会社,神奈川県,綾瀬市,小園１５０９番地２カーサ小園２０１,,14,218,2521121,,,,,,,2025-01-06,1,,,,,カルダンフューチャー,0
859,4030001164036,新規,0,2025-01-06,2025-01-06,株式会社ミドル,,株式会社,埼玉県,三郷市,中央５丁目１３－１－２Ｆ,,11,237,3410038,,,,,,,2025-01-06,1,,,,,ミドル,0
860,4030001164135,新規,0,2025-01-06,2025-01-06,株式会社エルユー,,株式会社,埼玉県,東松山市,大字正代７４９番地,,11,212,3550044,,,,,,,2025-01-06,1,,,,,エルユー,0
861,4030001164143,新規,0,2025-01-06,2025-01-06,株式会社藤波,,株式会社,埼玉県,草加市,松江６丁目６番２６号,,11,221,3400013,,,,,,,2025-01-06,1,,,,,フジナミ,0
862,4030001164151,新規,0,2025-01-06,2025-01-06,株式会社ＥＤＥＮ,,株式会社,埼玉県,坂戸市,大字栄３３６番地８,,11,239,3500213,,,,,,,2025-01-06,1,,,,,エデン,0
863,4030001164168,新規,0,2025-01-06,2025-01-06,株式会社ＮＫ企画,,株式会社,埼玉県,越谷市,東越谷３丁目９番地１,,11,222,3430023,,,,,,,2025-01-06,1,,,,,エヌケーキカク,0
864,4030001164184,新規,0,2025-01-06,2025-01-06,孚川株式会社,,株式会社,埼玉県,川口市,並木２丁目１５番１５－３０２号,,11,203,3320034,,,,,,,2025-01-06,1,,,,,フカワ,0
865,4030001164234,新規,0,2025-01-06,2025-01-06,株式会社ＬＥＡＰＳ,,株式会社,埼玉県,川口市,西川口１丁目１７番７号イエロービル１Ｆ,,11,203,3320021,,,,,,,2025-01-06,1,,,,,リープス,0
867,4030003025780,新規,0,2025-01-06,2025-01-06,合同会社リフォームのシンミ,,合同会社,埼玉県,春日部市,西金野井５４６番地４,,11,214,3440112,,,,,,,2025-01-06,1,,,,,リフォームノシンミ,0
868,4030003025797,新規,0,2025-01-06,2025-01-06,合同会社ラテコンサル,,合同会社,埼玉県,戸田市,上戸田２丁目１７番１１号,,11,224,3350022,,,,,,,2025-01-06,1,,,,,ラテコンサル,0
872,4040001136752,新規,0,2025-01-06,2025-01-06,株式会社ビヨンドセルプロダクション,,株式会社,千葉県,流山市,加６丁目１６１１番地ヴェルデ流山１Ｆ,,12,220,2700176,,,,,,,2025-01-06,1,,,,,ビヨンドセルプロダクション,0
873,4040001136760,新規,0,2025-01-06,2025-01-06,株式会社つが動物病院,,株式会社,千葉県,千葉市若葉区,貝塚２丁目１番７号,,12,104,2640020,,,,,,,2025-01-06,1,,,,,ツガドウブツビョウイン,0
874,4040001136769,新規,0,2025-01-06,2025-01-06,株式会社アサフーズ,,株式会社,千葉県,船橋市,飯山満町３丁目１７２２番地６,,12,204,2740822,,,,,,,2025-01-06,1,,,,,アサフーズ,0
875,4040001136777,新規,0,2025-01-06,2025-01-06,株式会社ガッツ,,株式会社,千葉県,船橋市,本町２丁目１１番２９号,,12,204,2730005,,,,,,,2025-01-06,1,,,,,ガッツ,0
876,4040001136819,新規,0,2025-01-06,2025-01-06,株式会社百樹コネクト,,株式会社,千葉県,千葉市稲毛区,園生町３９６番地６,,12,103,2630051,,,,,,,2025-01-06,1,,,,,モモキコネクト,0
882,4040003026497,新規,0,2025-01-06,2025-01-06,ＪＡＰＡＮ　ＰＲＯＭＯＴＩＯＮＳ合同会社,,合同会社,千葉県,長生郡一宮町,東浪見７４１７番２ビーチヴィラＡ棟,,12,421,2994303,,,,,,,2025-01-06,1,,,,,ジャパンプロモーションズ,0
891,4060001037783,新規,0,2025-01-06,2025-01-06,株式会社Ｃｈｅｅｒ　ｕｐ,,株式会社,栃木県,宇都宮市,古賀志町５４０番地１５,,09,201,3210341,,,,,,,2025-01-06,1,,,,,チアアップ,0
895,4070001042502,新規,0,2025-01-06,2025-01-06,株式会社ｏｆｆｉｃｅ　ｂｏｎｈｅｕｒ,,株式会社,群馬県,高崎市,和田多中町４９６番地６,,10,202,3700844,,,,,,,2025-01-06,1,,,,,オフィスボヌール,0
898,4080103003228,新規,0,2025-01-06,2025-01-06,合同会社セレナ,,合同会社,静岡県,三島市,千枚原８番地の６,,22,206,4110027,,,,,,,2025-01-06,1,,,,,セレナ,0
899,4080105006476,新規,0,2025-01-06,2025-01-06,一般財団法人山口記念財団,,その他の設立登記法人,静岡県,沼津市,足高２９２番地の６９,,22,203,4100001,,,,,,,2025-01-06,1,,,,,ヤマグチキネンザイダン,0
901,4080401027655,新規,0,2025-01-06,2025-01-06,株式会社シアン,,株式会社,静岡県,浜松市中央区,助信町３１番４０号,,22,138,4300903,,,,,,,2025-01-06,1,,,,,シアン,0
902,4080403005171,新規,0,2025-01-06,2025-01-06,合同会社あかみとり,,合同会社,静岡県,浜松市中央区,入野町６２３４ロイヤルシングル１０号室,,22,138,4328061,,,,,,,2025-01-06,1,,,,,アカミトリ,0
908,4110001038966,新規,0,2025-01-06,2025-01-06,ＷＡＮ＆ＷＡＮ株式会社,,株式会社,新潟県,新潟市南区,吉江３７５番地２,,15,106,9501258,,,,,,,2025-01-06,1,,,,,ワンアンドワン,0
917,4120001271541,新規,0,2025-01-06,2025-01-06,株式会社ユニスト不動産販売,,株式会社,大阪府,大阪市西区,立売堀１丁目４番１２号,,27,106,5500012,,,,,,,2025-01-06,1,,,,,ユニストフドウサンハンバイ,0
918,4120001271566,新規,0,2025-01-06,2025-01-06,株式会社光和商貿,,株式会社,大阪府,大阪市中央区,瓦屋町２丁目５番２０号３０３室,,27,128,5420066,,,,,,,2025-01-06,1,,,,,コウワショウボウ,0
919,4120001271608,新規,0,2025-01-06,2025-01-06,株式会社ｎｉｃｏｔｏｉ,,株式会社,大阪府,大阪市北区,大淀南２丁目６番１８号２Ｆ,,27,127,5310075,,,,,,,2025-01-06,1,,,,,ニコトイ,0
920,4120003028279,新規,0,2025-01-06,2025-01-06,合同会社花月,,合同会社,大阪府,大阪市生野区,林寺３丁目４番１号３Ｆ,,27,116,5440023,,,,,,,2025-01-06,1,,,,,カゲツ,0
921,4120003028287,新規,0,2025-01-06,2025-01-06,合同会社Ｂｌｉｓｓ　ｗｉｔｈ,,合同会社,大阪府,大阪市北区,梅田１丁目２番２号大阪駅前第２ビル１２－１２,,27,127,5300001,,,,,,,2025-01-06,1,,,,,ブリスウィズ,0
924,4120101070819,新規,0,2025-01-06,2025-01-06,株式会社エーアールリンクス,,株式会社,大阪府,堺市堺区,石津町４丁３番４号,,27,141,5900814,,,,,,,2025-01-06,1,,,,,エーアールリンクス,0
925,4120101070835,新規,0,2025-01-06,2025-01-06,株式会社ＯＮＥホーム,,株式会社,大阪府,岸和田市,土生町２丁目３０番２０号Ｈ・Ｄビル２０３,,27,202,5960825,,,,,,,2025-01-06,1,,,,,ワンホーム,0
928,4120901050235,新規,0,2025-01-06,2025-01-06,株式会社米金組,,株式会社,大阪府,摂津市,千里丘５丁目９番１１号,,27,224,5660001,,,,,,,2025-01-06,1,,,,,ヨネカネグミ,0
933,4120903005492,新規,0,2025-01-06,2025-01-06,合同会社ＲＯＣＫＣＡＰＥ,,合同会社,大阪府,高槻市,高槻町１２番１８号,,27,207,5690803,,,,,,,2025-01-06,1,,,,,ロックケープ,0
934,4122001038771,新規,0,2025-01-06,2025-01-06,株式会社ヤマシタ,,株式会社,大阪府,大東市,太子田３丁目１番１１号,,27,218,5740045,,,,,,,2025-01-06,1,,,,,ヤマシタ,0
937,4130003010112,新規,0,2025-01-06,2025-01-06,合同会社ＫＯＨＡＫＵ,,合同会社,京都府,京都市左京区,下鴨高木町４６－１,,26,103,6060864,,,,,,,2025-01-06,1,,,,,コハク,0
942,4140001136874,新規,0,2025-01-06,2025-01-06,株式会社ＴＯＰ　Ｑ,,株式会社,兵庫県,明石市,立石２丁目１番４４号,,28,203,6730032,,,,,,,2025-01-06,1,,,,,トップキュー,0
943,4140001136882,新規,0,2025-01-06,2025-01-06,株式会社真英住建,,株式会社,兵庫県,加古郡播磨町,西野添３丁目１８番７号,,28,382,6750160,,,,,,,2025-01-06,1,,,,,シンエイジュウケン,0
944,4140001136924,新規,0,2025-01-06,2025-01-06,株式会社風興行,,株式会社,兵庫県,姫路市,田寺５丁目３番６７号カンフォートやすむろ２０２,,28,201,6700086,,,,,,,2025-01-06,1,,,,,カゼコウギョウ,0
947,4140003021463,新規,0,2025-01-06,2025-01-06,ＤＲＣ合同会社,,合同会社,兵庫県,尼崎市,武庫之荘３丁目１８番２０－１０４号,,28,202,6610035,,,,,,,2025-01-06,1,,,,,ディーアールシー,0
948,4140003021488,新規,0,2025-01-06,2025-01-06,Ａｔｉｋ．Ｃｏｎｎｅｃｔｉｏｎ合同会社,,合同会社,兵庫県,神戸市中央区,琴ノ緒町４丁目５番７号商工印刷ビル２階２１１,,28,110,6510094,,,,,,,2025-01-06,1,,,,,アティックコネクション,0
952,4180001164723,新規,0,2025-01-06,2025-01-06,株式会社インフィニティ,,株式会社,愛知県,名古屋市中川区,千音寺３丁目３０３２番地,,23,110,4540977,,,,,,,2025-01-06,1,,,,,インフィニティ,0
953,4180001164731,新規,0,2025-01-06,2025-01-06,株式会社松田事務所,,株式会社,愛知県,名古屋市北区,成願寺１丁目１番１０号,,23,103,4620021,,,,,,,2025-01-06,1,,,,,マツダジムショ,0
954,4180001164748,新規,0,2025-01-06,2025-01-06,株式会社ＺＥＲＯＰＬＵＳＯＮＥ,,株式会社,愛知県,名古屋市西区,那古野１丁目７番３号,,23,104,4510042,,,,,,,2025-01-06,1,,,,,ゼロプラスワン,0
955,4180001164764,新規,0,2025-01-06,2025-01-06,株式会社和一字,,株式会社,愛知県,名古屋市中区,栄２丁目２番１号広小路伏見中駒ビル２Ｆ－９,,23,106,4600008,,,,,,,2025-01-06,1,,,,,ワイチジ,0
957,4180301039377,新規,0,2025-01-06,2025-01-06,株式会社ＳＰＴ,,株式会社,愛知県,豊田市,水源町４丁目１番地４４,,23,211,4710822,,,,,,,2025-01-06,1,,,,,エスピーティー,0
961,4190001031914,新規,0,2025-01-06,2025-01-06,株式会社ａｉｌｅファミリー,,株式会社,三重県,松阪市,大黒田町１５２１番地１７,,24,204,5150063,,,,,,,2025-01-06,1,,,,,エールファミリー,0
964,4200001043288,新規,0,2025-01-06,2025-01-06,株式会社ファーストアセント,,株式会社,岐阜県,高山市,下岡本町２６０８番地１,,21,203,5060052,,,,,,,2025-01-06,1,,,,,ファーストアセント,0
965,4200001043296,新規,0,2025-01-06,2025-01-06,株式会社ＯＮＥ,,株式会社,岐阜県,大垣市,室本町３丁目６番地１エスペランサ遠藤２Ｆ,,21,202,5030911,,,,,,,2025-01-06,1,,,,,ワン,0
966,4210001019997,新規,0,2025-01-06,2025-01-06,師田窯業株式会社,,株式会社,福井県,鯖江市,北野町４９号１番地,,18,207,9160029,,,,,,,2025-01-06,1,,,,,モロタヨウギョウ,0
967,4210001020022,新規,0,2025-01-06,2025-01-06,株式会社チママ・ハウス,,株式会社,福井県,大野市,新庄第１３号１６番地４,,18,205,9120085,,,,,,,2025-01-06,1,,,,,チママハウス,0
969,4220005008913,新規,0,2025-01-06,2025-01-06,ＮＰＯ法人外国人雇用適正化委員会,,その他の設立登記法人,石川県,小松市,安宅町カ６,,17,203,9230003,,,,,,,2025-01-06,1,,,,,ガイコクジンコヨウテキセイカイインカイ,0
970,4230003002355,新規,0,2025-01-06,2025-01-06,合同会社イロドリ,,合同会社,富山県,射水市,中新湊１５‐１,,16,211,9340027,,,,,,,2025-01-06,1,,,,,イロドリ,0
973,4240001064314,新規,0,2025-01-06,2025-01-06,株式会社Ｊフィナンシャル,,株式会社,広島県,広島市中区,八丁堀１１番２８号,,34,101,7300013,,,,,,,2025-01-06,1,,,,,ジェイフィナンシャル,0
974,4240003006999,新規,0,2025-01-06,2025-01-06,合同会社アンブロシア支援,,合同会社,広島県,広島市西区,田方３丁目９０９番地１ダイアパレスウエストシティ９２１号,,34,104,7330851,,,,,,,2025-01-06,1,,,,,アンブロシアシエン,0
976,4240005015874,新規,0,2025-01-06,2025-01-06,一般社団法人ツーリズムＫＵＲＥ,,その他の設立登記法人,広島県,呉市,中央４丁目１番６号,,34,202,7370051,,,,,,,2025-01-06,1,,,,,ツーリズムクレ,0
983,4260001039751,新規,0,2025-01-06,2025-01-06,株式会社ＴＫ,,株式会社,岡山県,岡山市南区,藤田７７６番地２,,33,104,7010221,,,,,,,2025-01-06,1,,,,,ティーケイ,0
984,4260001039768,新規,0,2025-01-06,2025-01-06,ｒａｔｈｉｃａｒａｎｕ株式会社,,株式会社,岡山県,岡山市北区,津島南１丁目５－４５－４,,33,101,7000085,,,,,,,2025-01-06,1,,,,,ラシカラヌ,0
985,4260003005017,新規,0,2025-01-06,2025-01-06,ゴーフォワード合同会社,,合同会社,岡山県,岡山市南区,藤田４１３番地１０,,33,104,7010221,,,,,,,2025-01-06,1,,,,,ゴーフォワード,0
986,4280003001906,新規,0,2025-01-06,2025-01-06,合同会社ｕｂｕｔｅｙａ,,合同会社,島根県,益田市,久城町１１００番地３,,32,204,6980001,,,,,,,2025-01-06,1,,,,,ウブテヤ,0
992,4290001108462,新規,0,2025-01-06,2025-01-06,株式会社加山企画,,株式会社,福岡県,福岡市中央区,舞鶴１丁目８番３８号ＷＡＶＥ　ＢＬＤＧ．４Ｆ,,40,133,8100073,,,,,,,2025-01-06,1,,,,,カヤマキカク,0
994,4290003016242,新規,0,2025-01-06,2025-01-06,ＫＡＮＢＩＡ合同会社,,合同会社,福岡県,福岡市博多区,吉塚５丁目１５－２６コーポセザンヌ１０１号,,40,132,8120041,,,,,,,2025-01-06,1,,,,,カンビア,0
998,4290801031145,新規,0,2025-01-06,2025-01-06,株式会社点ｔｏ点,,株式会社,福岡県,遠賀郡岡垣町,中央台２丁目１番６号三洋タウン岡垣Ｄ棟１０１号,,40,383,8114218,,,,,,,2025-01-06,1,,,,,テントゥテン,0
999,4290801031153,新規,0,2025-01-06,2025-01-06,株式会社栄音,,株式会社,福岡県,北九州市小倉南区,城野４丁目４番８号,,40,107,8020802,,,,,,,2025-01-06,1,,,,,エイト,0
1000,4290803004933,新規,0,2025-01-06,2025-01-06,合同会社ＹＳＵ,,合同会社,福岡県,北九州市小倉北区,馬借１丁目６番１５－１５０２号,,40,106,8020077,,,,,,,2025-01-06,1,,,,,ワイエスユー,0
1002,4300001014031,新規,0,2025-01-06,2025-01-06,株式会社もこ,,株式会社,佐賀県,鳥栖市,大正町７８７番地１,,41,203,8410032,,,,,,,2025-01-06,1,,,,,モコ,0
1004,4300003002216,新規,0,2025-01-06,2025-01-06,合同会社エヌ・エス・ジェイ,,合同会社,佐賀県,佐賀市,兵庫北１丁目２１番３１－４０３号,,41,201,8490919,,,,,,,2025-01-06,1,,,,,エヌエスジェイ,0
1005,4300005007221,新規,0,2025-01-06,2025-01-06,一般社団法人佐賀県歯科衛生士会,,その他の設立登記法人,佐賀県,佐賀市,西田代２丁目５番２４号,,41,201,8400045,,,,,,,2025-01-06,1,,,,,サガケンシカエイセイシカイ,0
1008,4350001019331,新規,0,2025-01-06,2025-01-06,株式会社Ｇプロジェクト,,株式会社,宮崎県,都城市,中町１３街区２２号,,45,202,8850071,,,,,,,2025-01-06,1,,,,,ジープロジェクト,0
1013,4360001034610,新規,0,2025-01-06,2025-01-06,小蓋株式会社,,株式会社,沖縄県,中頭郡読谷村,字大木３７５番地Ａ－２３,,47,324,9040316,,,,,,,2025-01-06,1,,,,,コフタ,0
1017,4390003002331,新規,0,2025-01-06,2025-01-06,合同会社出羽屋,,合同会社,山形県,酒田市,新堀字聖の宮１０７番地－Ｄ号,,06,204,9997776,,,,,,,2025-01-06,1,,,,,デワヤ,0
1018,4400003003369,新規,0,2025-01-06,2025-01-06,合同会社東海林会計総合事務所,,合同会社,岩手県,花巻市,松園町３６５番地１６,,03,205,0250066,,,,,,,2025-01-06,1,,,,,ショウジカイケイソウゴウジムショ,0
1019,4410001014020,新規,0,2025-01-06,2025-01-06,株式会社北日本総合研究所,,株式会社,秋田県,秋田市,旭南３丁目７番１２号,,05,201,0100925,,,,,,,2025-01-06,1,,,,,キタニホンソウゴウケンキュウショ,0
1020,4410005006617,新規,0,2025-01-06,2025-01-06,特定非営利活動法人保護猫まもり隊,,その他の設立登記法人,秋田県,雄勝郡羽後町,田代字旦金森１３８番地,,05,463,0121241,,,,,,,2025-01-06,1,,,,,,0
1023,4430001093392,新規,0,2025-01-06,2025-01-06,株式会社ハウスプラス,,株式会社,北海道,札幌市清田区,真栄二条１丁目５番３７号,,01,110,0040832,,,,,,,2025-01-06,1,,,,,ハウスプラス,0
1028,4430003017110,新規,0,2025-01-06,2025-01-06,合同会社Ｓｏｍｗａｎｇ,,合同会社,北海道,札幌市東区,本町一条５丁目６－２５,,01,103,0650041,,,,,,,2025-01-06,1,,,,,ソムワン,0
1029,4450005004435,新規,0,2025-01-06,2025-01-06,一般社団法人ｓｉｇｎ　ｐｏｓｔ,,その他の設立登記法人,北海道,旭川市,春光台五条２丁目１８番１号,,01,204,0718145,,,,,,,2025-01-06,1,,,,,サインポスト,0
1030,4470001020517,新規,0,2025-01-06,2025-01-06,Ａｃｅ　Ｂｕｄｄｙ株式会社,,株式会社,香川県,善通寺市,金蔵寺町７４４番地１,,37,204,7650031,,,,,,,2025-01-06,1,,,,,エースバディー,0
1031,4470001020525,新規,0,2025-01-06,2025-01-06,株式会社ｆｕｎｆｕｎ,,株式会社,香川県,高松市,香西南町５７７ー４,,37,201,7618014,,,,,,,2025-01-06,1,,,,,,0
1033,4480001012694,新規,0,2025-01-06,2025-01-06,株式会社直,,株式会社,徳島県,徳島市,大谷町大開１番地の１０,,36,201,7708031,,,,,,,2025-01-06,1,,,,,タダシ,0
1034,4500001026048,新規,0,2025-01-06,2025-01-06,株式会社ゴーゴーキャンパニー,,株式会社,愛媛県,松山市,土居田町４２８番地,,38,201,7900056,,,,,,,2025-01-06,1,,,,,ゴーゴーキャンパニー,0
1036,4700150128459,新規,0,2025-01-06,2025-01-06,Ｇｕａｎｇｚｈｏｕ　Ｗｏｄａｘｉ　Ｔｒａｄｉｎｇ　Ｃｏｍｐａｎｙ　Ｌｔｄ．,,外国会社等,,,,,,,,Ｎｏ．５０，Ｊｕ　Ｙｕａｎ　Ｓｔｒｅｅｔ，Ｓｈｉ　Ｊｉｎｇ，２４４，Ｆｌｏｏｒ　３Ａ，Ｂｌｏｃｋ　４　Ｇｕａｎｇｚｈｏｕ　Ｃｉｔｙ，Ｂａｉ　Ｙｕｎ　Ｄｉｓｔｒｉｃｔ，Ｇｕａｎｇｄｏｎｇ　Ｐｒｏｖｉｎｃｅ,,,,,,2025-01-06,1,,,,,クワンチョウヨクタツキボウエキユウゲンコウシ,0
1048,5010101016468,新規,0,2025-01-06,2025-01-06,株式会社一心,,株式会社,東京都,八王子市,長房町９４５番地１２,,13,201,1930824,,,,,,,2025-01-06,1,,,,,イッシン,0
1049,5010401187125,新規,0,2025-01-06,2025-01-06,株式会社Ａｎｇｅ,,株式会社,東京都,港区,南青山３丁目１番３６号青山丸竹ビル６Ｆ,,13,103,1070062,,,,,,,2025-01-06,1,,,,,アンジュ,0
1052,5010501053409,新規,0,2025-01-06,2025-01-06,株式会社ブルーヒルズ・リアルエステート,,株式会社,東京都,台東区,東上野３丁目１３－５－４０１,,13,106,1100015,,,,,,,2025-01-06,1,,,,,ブルーヒルズリアルエステート,0
1053,5010501053425,新規,0,2025-01-06,2025-01-06,株式会社東京ソフト,,株式会社,東京都,台東区,竜泉２丁目１９番１７号アーバンパーク三ノ輪ＩＩ１３０２,00137495,13,106,1100012,,,,,,,2025-01-06,1,,,,,トウキョウソフト,0
1054,5010503007684,新規,0,2025-01-06,2025-01-06,合同会社ＦＩＲＳＴ,,合同会社,東京都,台東区,竜泉１丁目２５番４－４０１号Ｋ－ＦＬＡＴ,,13,106,1100012,,,,,,,2025-01-06,1,,,,,ファースト,0
1061,5010701047045,新規,0,2025-01-06,2025-01-06,Ｎｉｎｅｗｉｎ　Ｊａｐａｎ　Ｔｒａｄｉｎｇ株式会社,,株式会社,東京都,品川区,東品川１丁目３９番１８号ジオ品川天王洲６０３,,13,109,1400002,,,,,,,2025-01-06,1,,,,,ナインウィンジャパントレーディング,0
1062,5010701047053,新規,0,2025-01-06,2025-01-06,株式会社Ｂａｍｏｓグループ,,株式会社,東京都,品川区,上大崎３丁目５番８号,,13,109,1410021,,,,,,,2025-01-06,1,,,,,バモスグループ,0
1066,5010901056564,新規,0,2025-01-06,2025-01-06,株式会社ハビオット,,株式会社,東京都,世田谷区,太子堂４丁目１８番１５号マガザン三軒茶屋２・３Ｆ－３,,13,112,1540004,,,,,,,2025-01-06,1,,,,,ハビオット,0
1067,5010903009603,新規,0,2025-01-06,2025-01-06,合同会社山脈,,合同会社,東京都,世田谷区,太子堂４丁目１８番１５号マガザン三軒茶屋２－３Ｆ－３,,13,112,1540004,,,,,,,2025-01-06,1,,,,,サンミャク,0
1068,5010903009611,新規,0,2025-01-06,2025-01-06,ユニコーン５０５０合同会社,,合同会社,東京都,世田谷区,給田５丁目８－５－Ｄ８０９,,13,112,1570064,,,,,,,2025-01-06,1,,,,,ユニコーンゴーマルゴーマル,0
1072,5011003020707,新規,0,2025-01-06,2025-01-06,ＭＮ　Ｃｏｎｓｕｌｔｉｎｇ合同会社,,合同会社,東京都,渋谷区,千駄ヶ谷２丁目５番５号ウィルコート１０１,,13,113,1510051,,,,,,,2025-01-06,1,,,,,エムエヌコンサルティング,0
1074,5011101110120,新規,0,2025-01-06,2025-01-06,京銀国際株式会社,,株式会社,東京都,新宿区,四谷４丁目２４番１６号３階,,13,104,1600004,,,,,,,2025-01-06,1,,,,,キョウギンコクサイ,0
1084,5011801045376,新規,0,2025-01-06,2025-01-06,あだちの家電屋おのちゃん株式会社,,株式会社,東京都,足立区,東保木間２丁目１８－２,,13,121,1210063,,,,,,,2025-01-06,1,,,,,アダチノカデンヤオノチャン,0
1085,5011801045384,新規,0,2025-01-06,2025-01-06,株式会社サカマキ,,株式会社,東京都,葛飾区,お花茶屋１丁目７番４－３０１号,,13,122,1240003,,,,,,,2025-01-06,1,,,,,サカマキ,0
1086,5011803006616,新規,0,2025-01-06,2025-01-06,ＩＫＯ商事合同会社,,合同会社,東京都,足立区,足立４丁目３３番１号ＺＫＹビル３０１号室,,13,121,1200015,,,,,,,2025-01-06,1,,,,,イコウショウジ,0
1087,5011803006624,新規,0,2025-01-06,2025-01-06,マスモトハートメディカル合同会社,,合同会社,東京都,足立区,江北７丁目１７番５－１０３号,,13,121,1230872,,,,,,,2025-01-06,1,,,,,マスモトハートメディカル,0
1089,5012401042615,新規,0,2025-01-06,2025-01-06,株式会社健翠庵,,株式会社,東京都,武蔵野市,中町１丁目２２番４－８０３号,,13,203,1800006,,,,,,,2025-01-06,1,,,,,ケンスイアン,0
1091,5012803003586,新規,0,2025-01-06,2025-01-06,三洋商事合同会社,,合同会社,東京都,国分寺市,東元町４丁目１番２０号,,13,214,1850022,,,,,,,2025-01-06,1,,,,,サンヨウショウジ,0
1094,5013303007458,新規,0,2025-01-06,2025-01-06,Ａｙａｋｏ　Ａｕｔｏ　Ｉｎｔｅｒｎａｔｉｏｎａｌ合同会社,,合同会社,東京都,豊島区,池袋２丁目６０番６－３０４号,,13,116,1710014,,,,,,,2025-01-06,1,,,,,アヤコオートインターナショナル,0
1103,5020001160745,新規,0,2025-01-06,2025-01-06,株式会社ＡＳＩＡ,,株式会社,神奈川県,横浜市中区,桜木町１丁目１０１番地１クロスゲート７階,,14,104,2310062,,,,,,,2025-01-06,1,,,,,エイシア,0
1104,5020001160786,新規,0,2025-01-06,2025-01-06,株式会社ヤマ杢,,株式会社,神奈川県,川崎市多摩区,南生田３丁目１１番３号,,14,135,2140036,,,,,,,2025-01-06,1,,,,,ヤマモク,0
1105,5020001160844,新規,0,2025-01-06,2025-01-06,イノベイジメント株式会社,,株式会社,神奈川県,横浜市神奈川区,金港町５―１４クアドリフォリオ８Ｆ,,14,102,2210056,,,,,,,2025-01-06,1,,,,,イノベイジメント,0
1107,5020003027538,新規,0,2025-01-06,2025-01-06,宏成合同会社,,合同会社,神奈川県,川崎市川崎区,池田２丁目１番６－１１０３号,,14,131,2100022,,,,,,,2025-01-06,1,,,,,コウセイ,0
1108,5020005016662,新規,0,2025-01-06,2025-01-06,一般社団法人Ｍａｙ,,その他の設立登記法人,神奈川県,横浜市港北区,箕輪町１丁目２４番９号,,14,109,2230051,,,,,,,2025-01-06,1,,,,,メイ,0
1114,5021001084109,新規,0,2025-01-06,2025-01-06,株式会社エクシード,,株式会社,神奈川県,平塚市,中里３２番２号ヴィルデ・ローゼ２０１,,14,203,2540054,,,,,,,2025-01-06,1,,,,,エクシード,0
1115,5021001084117,新規,0,2025-01-06,2025-01-06,株式会社ＯＮＥ　ＣＯＲＥ,,株式会社,神奈川県,鎌倉市,大船２丁目２１番３号,,14,204,2470056,,,,,,,2025-01-06,1,,,,,ワンコア,0
1116,5021001084125,新規,0,2025-01-06,2025-01-06,株式会社アンサング・ヒーロー,,株式会社,神奈川県,藤沢市,鵠沼石上１丁目７番８号,,14,205,2510025,,,,,,,2025-01-06,1,,,,,アンサングヒーロー,0
1117,5021001084133,新規,0,2025-01-06,2025-01-06,ＢＦパートナーズ株式会社,,株式会社,神奈川県,平塚市,めぐみが丘２丁目１５番１７号,,14,203,2591220,,,,,,,2025-01-06,1,,,,,ビーエフパートナーズ,0
1118,5021003015400,新規,0,2025-01-06,2025-01-06,合同会社ＤＯＺＯ,,合同会社,神奈川県,相模原市中央区,下九沢１２１１－１－４号棟－１０４,,14,152,2520254,,,,,,,2025-01-06,1,,,,,ドウゾ,0
1119,5021005013253,新規,0,2025-01-06,2025-01-06,医療法人ＥＧＡ,,その他の設立登記法人,神奈川県,藤沢市,藤沢５３０番地１０Ｆ．Ｓ．Ｃビル３０２区画,,14,205,2510052,,,,,,,2025-01-06,1,,,,,イージーエー,0
1124,5030001164035,新規,0,2025-01-06,2025-01-06,株式会社ズミタロー,,株式会社,埼玉県,三郷市,インター南２丁目４－１３－２Ｆ,,11,237,3410059,,,,,,,2025-01-06,1,,,,,ズミタロー,0
1125,5030001164134,新規,0,2025-01-06,2025-01-06,株式会社ＮＳＵ,,株式会社,埼玉県,さいたま市南区,曲本５丁目９番１２－１０８号,,11,108,3360033,,,,,,,2025-01-06,1,,,,,エヌエスユー,0
1126,5030001164142,新規,0,2025-01-06,2025-01-06,株式会社ＹＡＲＵ,,株式会社,埼玉県,上尾市,大字上１３６７－１プランドール上尾第二３０３,,11,219,3620001,,,,,,,2025-01-06,1,,,,,ヤル,0
1127,5030001164167,新規,0,2025-01-06,2025-01-06,株式会社シマザワアーキテクツ,,株式会社,埼玉県,さいたま市南区,白幡４丁目１４番２３号,,11,108,3360022,,,,,,,2025-01-06,1,,,,,シマザワアーキテクツ,0
1128,5030001164233,新規,0,2025-01-06,2025-01-06,株式会社ＮＳ　ＨＯＭＥ,,株式会社,埼玉県,坂戸市,大字塚越１４７番地４,,11,239,3500209,,,,,,,2025-01-06,1,,,,,エヌエスホーム,0
1130,5030003025788,新規,0,2025-01-06,2025-01-06,深作製作所合同会社,,合同会社,埼玉県,さいたま市見沼区,深作３丁目３３番地１１,,11,104,3370003,,,,,,,2025-01-06,1,,,,,フカサクセイサクショ,0
1131,5030003025813,新規,0,2025-01-06,2025-01-06,合同会社みかん,,合同会社,埼玉県,加須市,柳生２６６６番地１,,11,210,3491201,,,,,,,2025-01-06,1,,,,,ミカン,0
1138,5040001136776,新規,0,2025-01-06,2025-01-06,朝日株式会社,,株式会社,千葉県,市川市,相之川４丁目４番２０－３０４号（コート・ブラウニー）,,12,203,2720143,,,,,,,2025-01-06,1,,,,,アサヒ,0
1139,5040001136784,新規,0,2025-01-06,2025-01-06,株式会社内田,,株式会社,千葉県,佐倉市,山王１丁目３番地７,,12,212,2850807,,,,,,,2025-01-06,1,,,,,ウチダ,0
1140,5040001136818,新規,0,2025-01-06,2025-01-06,株式会社建商グループ,,株式会社,千葉県,柏市,藤心９６３番地４,,12,217,2770034,,,,,,,2025-01-06,1,,,,,ケンショウグループ,0
1143,5040003026488,新規,0,2025-01-06,2025-01-06,合同会社野田,,合同会社,千葉県,船橋市,習志野台２丁目７３番２１号,,12,204,2740063,,,,,,,2025-01-06,1,,,,,ノダ,0
1144,5040003026496,新規,0,2025-01-06,2025-01-06,ＥＸＺ合同会社,,合同会社,千葉県,長生郡一宮町,東浪見７４１７番地２ビーチヴィラＡ棟,,12,421,2994303,,,,,,,2025-01-06,1,,,,,エグゼ,0
1145,5040003026505,新規,0,2025-01-06,2025-01-06,ＥＨＩＫＡ合同会社,,合同会社,千葉県,船橋市,本郷町５０７番地１ルネ西船橋２棟１１４号,,12,204,2730033,,,,,,,2025-01-06,1,,,,,エヒカ,0
1147,5050003008907,新規,0,2025-01-06,2025-01-06,ＨＡＰＰＹ　ＳＴＯＲＥ合同会社,,合同会社,茨城県,常総市,水海道淵頭町３０８１番地１２サンテラスＥ２０１,,08,211,3030022,,,,,,,2025-01-06,1,,,,,ハッピーストア,0
1150,5070001042501,新規,0,2025-01-06,2025-01-06,ＡＩＲ．ＴＥＣ株式会社,,株式会社,群馬県,前橋市,上新田町１１１４番地３レジデンツＫＡ－２号,,10,201,3710821,,,,,,,2025-01-06,1,,,,,エアテック,0
1153,5070003005720,新規,0,2025-01-06,2025-01-06,ケーブルリンク合同会社,,合同会社,群馬県,伊勢崎市,田中島町１４３９番地９,,10,204,3720802,,,,,,,2025-01-06,1,,,,,ケーブルリンク,0
1156,5080101025215,新規,0,2025-01-06,2025-01-06,株式会社ＰＲＩＭＥ　ＮＵＭＢＥＲ,,株式会社,静岡県,駿東郡長泉町,下長窪５４２－５太郎の弐・か号室,,22,342,4110934,,,,,,,2025-01-06,1,,,,,プライムナンバー,0
1157,5080101025223,新規,0,2025-01-06,2025-01-06,株式会社ａｎｅｒａ,,株式会社,静岡県,熱海市,中央町１１番２号,,22,205,4130015,,,,,,,2025-01-06,1,,,,,アネラ,0
1160,5090001019068,新規,0,2025-01-06,2025-01-06,株式会社三角屋,,株式会社,山梨県,甲府市,城東４丁目１３－３１,,19,201,4000861,,,,,,,2025-01-06,1,,,,,サンカクヤ,0
1161,5100001038157,新規,0,2025-01-06,2025-01-06,株式会社ＴＲＵＮＫ,,株式会社,長野県,松本市,大字島内２０６７番地４５グランデ島内３０３,,20,202,3900851,,,,,,,2025-01-06,1,,,,,トランク,0
1163,5110003005617,新規,0,2025-01-06,2025-01-06,合同会社アップロード,,合同会社,新潟県,新潟市西蒲区,道上７４５番地１,,15,108,9501341,,,,,,,2025-01-06,1,,,,,アップロード,0
1176,5120001271508,新規,0,2025-01-06,2025-01-06,株式会社Ｎ．グローサス,,株式会社,大阪府,大阪市平野区,喜連４丁目８番２－１０２号,,27,126,5470027,,,,,,,2025-01-06,1,,,,,エヌグローサス,0
1177,5120001271532,新規,0,2025-01-06,2025-01-06,ＭＯＳ株式会社,,株式会社,大阪府,大阪市港区,海岸通１丁目５番２９号,,27,107,5520022,,,,,,,2025-01-06,1,,,,,エムオーエス,0
1178,5120001271540,新規,0,2025-01-06,2025-01-06,株式会社Ｃｌａｉｒ　Ａｎｇｅ,,株式会社,大阪府,大阪市中央区,西心斎橋１丁目１０番７号,,27,128,5420086,,,,,,,2025-01-06,1,,,,,クレールアンジュ,0
1179,5120001271549,新規,0,2025-01-06,2025-01-06,ｎｅｘｔｅｃｈ株式会社,,株式会社,大阪府,大阪市淀川区,西中島５丁目１－４モジュール新大阪８０１,,27,123,5320011,,,,,,,2025-01-06,1,,,,,ネクステック,0
1180,5120001271557,新規,0,2025-01-06,2025-01-06,株式会社ＰＪ,,株式会社,大阪府,大阪市平野区,長吉川辺３丁目１６番１２－５０２号,,27,126,5470014,,,,,,,2025-01-06,1,,,,,ピージェイ,0
1185,5120003028154,新規,0,2025-01-06,2025-01-06,合同会社Ｂｒａｎｄｉｎｇ,,合同会社,大阪府,大阪市浪速区,敷津東２丁目１番２４－３００５号,,27,111,5560012,,,,,,,2025-01-06,1,,,,,ブランディング,0
1186,5120005024688,新規,0,2025-01-06,2025-01-06,社会保険労務士法人Ａ＆Ｐついき事務所,,その他の設立登記法人,大阪府,大阪市福島区,福島７丁目１４番１９号梅田ウエストビル４階,,27,103,5530003,,,,,,,2025-01-06,1,,,,,エーアンドピーツイキジムショ,0
1187,5120101070818,新規,0,2025-01-06,2025-01-06,大楠建設株式会社,,株式会社,大阪府,堺市北区,百舌鳥本町２丁１９５番地１,,27,146,5918036,,,,,,,2025-01-06,1,,,,,ダイクスケンセツ,0
1188,5120901050226,新規,0,2025-01-06,2025-01-06,株式会社共伸鋼材,,株式会社,大阪府,豊中市,勝部１丁目２８番地の２,,27,203,5610894,,,,,,,2025-01-06,1,,,,,キョウシンコウザイ,0
1189,5120901050250,新規,0,2025-01-06,2025-01-06,株式会社ソーリグ,,株式会社,大阪府,茨木市,駅前３丁目３番１３号,,27,211,5670888,,,,,,,2025-01-06,1,,,,,ソーリグ,0
1190,5120903005483,新規,0,2025-01-06,2025-01-06,合同会社メイバックス,,合同会社,大阪府,吹田市,広芝町１０番８号董友ビル,,27,205,5640052,,,,,,,2025-01-06,1,,,,,メイバックス,0
1192,5130001078654,新規,0,2025-01-06,2025-01-06,株式会社ＭｉｋａｍｉＨＤ,,株式会社,京都府,京都市伏見区,深草開土町８０番地６,,26,109,6120806,,,,,,,2025-01-06,1,,,,,ミカミホールディングス,0
1193,5130001078662,新規,0,2025-01-06,2025-01-06,株式会社可楽,,株式会社,京都府,京丹後市,峰山町杉谷８５５番地の４,,26,212,6270012,,,,,,,2025-01-06,1,,,,,カラク,0
1194,5130001078704,新規,0,2025-01-06,2025-01-06,株式会社ａｍａｎｅｑ,,株式会社,京都府,城陽市,富野荒見田５３番地１京明ビル３階,,26,207,6100111,,,,,,,2025-01-06,1,,,,,アマネク,0
1199,5140001136857,新規,0,2025-01-06,2025-01-06,株式会社Ｏｍｏｉｅ,,株式会社,兵庫県,神戸市垂水区,舞多聞西７丁目４番２４号,,28,108,6550051,,,,,,,2025-01-06,1,,,,,オモイエ,0
1200,5140001136873,新規,0,2025-01-06,2025-01-06,株式会社トゥテラ,,株式会社,兵庫県,神戸市中央区,御幸通５丁目２番７号,,28,110,6510087,,,,,,,2025-01-06,1,,,,,トゥテラ,0
1201,5140003021479,新規,0,2025-01-06,2025-01-06,好登合同会社,,合同会社,兵庫県,西宮市,神楽町４－１４－２０１,,28,204,6620977,,,,,,,2025-01-06,1,,,,,コト,0
1202,5140003021495,新規,0,2025-01-06,2025-01-06,合同会社ファーストトレイル,,合同会社,兵庫県,川西市,寺畑２丁目５番２－５１０号,,28,217,6660034,,,,,,,2025-01-06,1,,,,,ファーストトレイル,0
1205,5160001026445,新規,0,2025-01-06,2025-01-06,株式会社ジャンティ,,株式会社,滋賀県,草津市,穴村町３１１番地,,25,206,5250012,,,,,,,2025-01-06,1,,,,,ジャンティ,0
1208,5170003002146,新規,0,2025-01-06,2025-01-06,ノーブル合同会社,,合同会社,和歌山県,東牟婁郡串本町,西向５００番地４,,30,428,6494122,,,,,,,2025-01-06,1,,,,,ノーブル,0
1209,5180001016188,新規,0,2025-01-06,2025-01-06,株式会社エィ・ティー,,株式会社,愛知県,名古屋市東区,筒井３丁目２７番１７号,,23,102,4610003,,,,,,,2025-01-06,1,,,,,エィティー,0
1210,5180001091652,新規,0,2025-01-06,2025-01-06,協和織布株式会社,,株式会社,愛知県,半田市,乙川新町１丁目２０番地,,23,205,4750057,,,,,,,2025-01-06,1,,,,,キョウワショクフ,0
1212,5180001164706,新規,0,2025-01-06,2025-01-06,株式会社光,,株式会社,愛知県,名古屋市港区,木場町９番地の１１シャルマンコーポ木場町１号棟６０１号,,23,111,4550021,,,,,,,2025-01-06,1,,,,,ヒカリ,0
1213,5180001164763,新規,0,2025-01-06,2025-01-06,株式会社金城技匠,,株式会社,愛知県,稲沢市,梅須賀町６丁目７２番地,,23,220,4928401,,,,,,,2025-01-06,1,,,,,キンジョウギショウ,0
1216,5180005020888,新規,0,2025-01-06,2025-01-06,一般社団法人東海スノーボード協会,,その他の設立登記法人,愛知県,名古屋市中区,錦２丁目６番１５号,,23,106,4600003,,,,,,,2025-01-06,1,,,,,トウカイスノーボードキョウカイ,0
1219,5180301039368,新規,0,2025-01-06,2025-01-06,株式会社ＫＣＩ,,株式会社,愛知県,碧南市,前浜町４丁目６５番地１,,23,209,4470827,,,,,,,2025-01-06,1,,,,,ケイシイアイ,0
1220,5180301039376,新規,0,2025-01-06,2025-01-06,株式会社グリット,,株式会社,愛知県,安城市,高棚町大道４６番地２,,23,212,4460053,,,,,,,2025-01-06,1,,,,,グリット,0
1221,5180301039384,新規,0,2025-01-06,2025-01-06,株式会社ＴＯＢＩＳＡＷＡ工業,,株式会社,愛知県,豊橋市,高洲町字向島４１番地,,23,201,4418006,,,,,,,2025-01-06,1,,,,,トビサワコウギョウ,0
1230,5230001020688,新規,0,2025-01-06,2025-01-06,株式会社Ｑ,,株式会社,富山県,富山市,高内３６５番地,,16,201,9392254,,,,,,,2025-01-06,1,,,,,キュウ,0
1231,5230003002354,新規,0,2025-01-06,2025-01-06,合同会社弥栄,,合同会社,富山県,中新川郡立山町,高原八ツ屋１６１番地,,16,323,9300268,,,,,,,2025-01-06,1,,,,,イヤサカ,0
1232,5230005009430,新規,0,2025-01-06,2025-01-06,一般社団法人オッケー,,その他の設立登記法人,富山県,富山市,水橋中町２４０９,,16,201,9393511,,,,,,,2025-01-06,1,,,,,オッケー,0
1233,5240001064296,新規,0,2025-01-06,2025-01-06,株式会社グロー,,株式会社,広島県,広島市安佐北区,可部南３丁目６番２４号ＣＬＡＳＳＹ可部南１０２号室,,34,106,7310223,,,,,,,2025-01-06,1,,,,,グロー,0
1234,5240001064305,新規,0,2025-01-06,2025-01-06,株式会社Ｈａｌｍｏｎｉａ,,株式会社,広島県,広島市中区,大手町１丁目１番２０号相生橋ビル７階Ａ号室,,34,101,7300051,,,,,,,2025-01-06,1,,,,,ハルモニア,0
1235,5240001064313,新規,0,2025-01-06,2025-01-06,株式会社竜昇,,株式会社,広島県,東広島市,高屋町杵原２３０５番地１８,,34,212,7392102,,,,,,,2025-01-06,1,,,,,リュウショウ,0
1236,5240001064321,新規,0,2025-01-06,2025-01-06,株式会社ＢＡＳＥ,,株式会社,広島県,広島市佐伯区,五日市駅前１丁目１０番１－４０２号,,34,108,7315125,,,,,,,2025-01-06,1,,,,,ベース,0
1242,5240003006998,新規,0,2025-01-06,2025-01-06,合同会社松よし,,合同会社,広島県,広島市南区,松原町３番２－４５０８号,,34,103,7320822,,,,,,,2025-01-06,1,,,,,マツヨシ,0
1244,5260001039734,新規,0,2025-01-06,2025-01-06,岡山障害者就労支援株式会社,,株式会社,岡山県,岡山市中区,浜３丁目６－３３（１００１）,,33,102,7038256,,,,,,,2025-01-06,1,,,,,オカヤマショウガイシャシュウロウシエン,0
1246,5260003005016,新規,0,2025-01-06,2025-01-06,合同会社リバスク,,合同会社,岡山県,倉敷市,中畝４丁目１７番２４号Ｂ１０２,,33,202,7128051,,,,,,,2025-01-06,1,,,,,リバスク,0
1247,5270001009109,新規,0,2025-01-06,2025-01-06,株式会社レックプロパティマネジメント,,株式会社,鳥取県,米子市,新開６丁目３番９号,,31,202,6830801,,,,,,,2025-01-06,1,,,,,レックプロパティマネジメント,0
1248,5270003001699,新規,0,2025-01-06,2025-01-06,合同会社ＣＬＡＳ‐ＬＡＢ,,合同会社,鳥取県,米子市,和田町３６１８番地８,,31,202,6830102,,,,,,,2025-01-06,1,,,,,クラシラボ,0
1249,5270005005624,新規,0,2025-01-06,2025-01-06,建設業パートナーズ協同組合,,その他の設立登記法人,鳥取県,鳥取市,千代水１丁目１４９番地,,31,201,6800911,,,,,,,2025-01-06,1,,,,,ケンセツギョウパートナーズ,0
1253,5290001037009,新規,0,2025-01-06,2025-01-06,高山商事株式会社,00137359,株式会社,福岡県,宗像市,吉留３６３９番地１,,40,220,8114153,,,,,,,2025-01-06,1,,,,,,0
1263,5290001108429,新規,0,2025-01-06,2025-01-06,株式会社正光,,株式会社,福岡県,糟屋郡志免町,別府２丁目１番１３－６０２号,,40,343,8112205,,,,,,,2025-01-06,1,,,,,マサミツ,0
1264,5290001108478,新規,0,2025-01-06,2025-01-06,株式会社うなじ美人,,株式会社,福岡県,福岡市博多区,博多駅前１丁目２３－２ＰａｒｋＦｒｏｎｔ博多駅前５Ｆ－Ｂ,,40,132,8120011,,,,,,,2025-01-06,1,,,,,ウナジビジン,0
1265,5290003016241,新規,0,2025-01-06,2025-01-06,合同会社Ｆｉｎａｌ,,合同会社,福岡県,福津市,内殿１１５１番地,,40,224,8113205,,,,,,,2025-01-06,1,,,,,ファイナル,0
1268,5290801031152,新規,0,2025-01-06,2025-01-06,株式会社ＮｅｗＬｉｆｅ,,株式会社,福岡県,北九州市八幡東区,川淵町１５番１７号綿勝ビル２０２号,,40,108,8050012,,,,,,,2025-01-06,1,,,,,ニューライフ,0
1269,5290801031160,新規,0,2025-01-06,2025-01-06,株式会社ＮＥＸＲＥＡＭ,,株式会社,福岡県,北九州市小倉北区,船頭町３番３号,,40,106,8020008,,,,,,,2025-01-06,1,,,,,ネクリーム,0
1270,5290803004932,新規,0,2025-01-06,2025-01-06,合同会社ＭＡＩパートナーズ,,合同会社,福岡県,北九州市小倉北区,中井３丁目１７番１号１Ｆ,,40,106,8030836,,,,,,,2025-01-06,1,,,,,エムエイアイパートナーズ,0
1273,5310002013757,新規,0,2025-01-06,2025-01-06,有限会社山北建設,,有限会社,長崎県,佐世保市,白木町６０番地,,42,202,8570821,,,,,,,2025-01-06,1,,,,,ヤマキタケンセツ,0
1277,5330001032756,新規,0,2025-01-06,2025-01-06,株式会社モニーアセット,,株式会社,熊本県,熊本市中央区,九品寺１丁目１９番５号セントヒルズ熊本９０５号,,43,101,8620976,,,,,,,2025-01-06,1,,,,,モニーアセット,0
1280,5360001034576,新規,0,2025-01-06,2025-01-06,株式会社Ｌａｎｇ　ｓｅｅｄ,,株式会社,沖縄県,宜野湾市,宇地泊１丁目１４番２８－１０２号ＭＯＭＯ,,47,205,9012227,,,,,,,2025-01-06,1,,,,,ラングシード,0
1281,5370001052065,新規,0,2025-01-06,2025-01-06,株式会社ＳＤＹ,,株式会社,宮城県,仙台市泉区,紫山１丁目７８番地１,,04,105,9813205,,,,,,,2025-01-06,1,,,,,エスディーワイ,0
1282,5370001052081,新規,0,2025-01-06,2025-01-06,株式会社Ｈｕｉｔ＆Ｃｏ．,,株式会社,宮城県,仙台市太白区,長町南１丁目８番２１－１号,,04,104,9820012,,,,,,,2025-01-06,1,,,,,ユイットアンドシーオー,0
1288,5380001035011,新規,0,2025-01-06,2025-01-06,Ｒａｂｂｉｔ＆Ｔｕｒｔｌｅ株式会社,,株式会社,福島県,双葉郡富岡町,大字仏浜字釜田３３２番地,,07,543,9791121,,,,,,,2025-01-06,1,,,,,ラビットアンドタートル,0
1289,5390001017834,新規,0,2025-01-06,2025-01-06,株式会社まほろば,,株式会社,山形県,南陽市,宮内３４７６番地の１,,06,213,9920472,,,,,,,2025-01-06,1,,,,,マホロバ,0
1290,5400001016900,新規,0,2025-01-06,2025-01-06,真工務店株式会社,,株式会社,岩手県,紫波郡矢巾町,大字南矢幅第１４地割１５番地１２,,03,322,0283615,,,,,,,2025-01-06,1,,,,,マコトコウムテン,0
1291,5410005006616,新規,0,2025-01-06,2025-01-06,農事組合法人北浦ドリーム,,その他の設立登記法人,秋田県,仙北市,田沢湖岡崎字大屋敷４８,,05,215,0141111,,,,,,,2025-01-06,1,,,,,,0
1295,5430001093359,新規,0,2025-01-06,2025-01-06,Ａ＆Ｇカンパニー株式会社,,株式会社,北海道,札幌市中央区,南一条西１６丁目１番地３２３春野ビル３Ｆ,,01,101,0600061,,,,,,,2025-01-06,1,,,,,エーアンドジーカンパニー,0
1296,5430001093375,新規,0,2025-01-06,2025-01-06,ＣＯＷＸＬＥ株式会社,,株式会社,北海道,札幌市中央区,南三条東４丁目３番地１９,,01,101,0600053,,,,,,,2025-01-06,1,,,,,カウクル,0
1297,5430001093383,新規,0,2025-01-06,2025-01-06,株式会社サインテックラボ,,株式会社,北海道,札幌市東区,北三十七条東１２丁目２番２６号,,01,103,0070837,,,,,,,2025-01-06,1,,,,,サインテックラボ,0
1301,5430003017134,新規,0,2025-01-06,2025-01-06,Ｐｏｗ＆Ｐｏｕｒ合同会社,,合同会社,北海道,虻田郡倶知安町,北三条東３丁目２－５,,01,400,0440003,,,,,,,2025-01-06,1,,,,,パウアンドポー,0
1302,5440001009545,新規,0,2025-01-06,2025-01-06,株式会社ボヌール,,株式会社,北海道,函館市,新川町１８番３号,,01,202,0400032,,,,,,,2025-01-06,1,,,,,ボヌール,0
1303,5450001014486,新規,0,2025-01-06,2025-01-06,株式会社日下部,,株式会社,北海道,上川郡当麻町,開明４区,,01,454,0781341,,,,,,,2025-01-06,1,,,,,クサカベ,0
1305,5700150128466,新規,0,2025-01-06,2025-01-06,ＳＫ　ｍｉｃｒｏｗｏｒｋｓ株式会社,,外国会社等,東京都,千代田区,大手町２丁目１番１号　大手町野村ビル８Ｆ,,13,101,1000004,大韓民国忠清北道鎭川郡梨月面ゴドン１通り２７,,,,,,2025-01-06,1,,,,,エスケーマイクロワークスカブシキカイシヤ,0
1311,6010001250959,新規,0,2025-01-06,2025-01-06,株式会社Ｈｕｂｏｔ,,株式会社,東京都,千代田区,神田須田町１丁目７番８号ＶＯＲＴ秋葉原ＩＶ２Ｆ,00137509,13,101,1010041,,,,,,,2025-01-06,1,,,,,ハボット,0
1313,6010003045705,新規,0,2025-01-06,2025-01-06,合同会社Ｉｃｈｉ,,合同会社,東京都,中央区,銀座１丁目１２番４号Ｎ＆ＥＢＬＤ．６Ｆ,,13,102,1040061,,,,,,,2025-01-06,1,,,,,イチ,0
1324,6010403034076,新規,0,2025-01-06,2025-01-06,合同会社ＹＵ,,合同会社,東京都,港区,麻布十番２丁目１０番３号,,13,103,1060045,,,,,,,2025-01-06,1,,,,,ユー,0
1325,6010403034101,新規,0,2025-01-06,2025-01-06,合同会社Ｖｅｌａｄｏｌｅ,,合同会社,東京都,港区,南青山３丁目１番３６号青山丸竹ビル６Ｆ,,13,103,1070062,,,,,,,2025-01-06,1,,,,,ベラドール,0
1328,6010501053408,新規,0,2025-01-06,2025-01-06,大可商貿株式会社,,株式会社,東京都,台東区,上野３丁目１７－７東亜御徒町ビル六階,,13,106,1100005,,,,,,,2025-01-06,1,,,,,ダイカショウボウ,0
1330,6010801035675,新規,0,2025-01-06,2025-01-06,ＴＭ興産株式会社,,株式会社,東京都,大田区,中央８丁目１８番６号,,13,111,1430024,,,,,,,2025-01-06,1,,,,,ティーエムコウサン,0
1336,6010901056563,新規,0,2025-01-06,2025-01-06,株式会社オーバーシーズ,,株式会社,東京都,世田谷区,上馬４丁目２８番３号,,13,112,1540011,,,,,,,2025-01-06,1,,,,,オーバーシーズ,0
1337,6010901056588,新規,0,2025-01-06,2025-01-06,株式会社ＥＲＡＷ,,株式会社,東京都,世田谷区,奥沢２丁目２１番３号アパートメントアン２号室,,13,112,1580083,,,,,,,2025-01-06,1,,,,,イーロウ,0
1344,6011101110094,新規,0,2025-01-06,2025-01-06,株式会社ＰｅａｋＨｕｂ,,株式会社,東京都,新宿区,西新宿５丁目８番２号惠徳ビル,,13,104,1600023,,,,,,,2025-01-06,1,,,,,ピークハブ,0
1345,6011103015358,新規,0,2025-01-06,2025-01-06,ＩＮＮＯＳＥＮＳＥ合同会社,,合同会社,東京都,新宿区,西新宿３丁目３番１３号西新宿水間ビル６階,,13,104,1600023,,,,,,,2025-01-06,1,,,,,イノセンス,0
1348,6011203004566,新規,0,2025-01-06,2025-01-06,ｃｒｅａｔｉｖｅエンジニア合同会社,,合同会社,東京都,中野区,野方５丁目３２‐１‐２Ｆ,,13,114,1650027,,,,,,,2025-01-06,1,,,,,クリエイティブエンジニア,0
1351,6011801045350,新規,0,2025-01-06,2025-01-06,株式会社ＣＬＥＯＮ,,株式会社,東京都,葛飾区,新宿６丁目２番１８－６２５号,,13,122,1250051,,,,,,,2025-01-06,1,,,,,クレオン,0
1352,6011803006623,新規,0,2025-01-06,2025-01-06,ＷＡＫＡＢＡ　ＢＡＳＥ合同会社,,合同会社,東京都,足立区,扇２丁目１３－１扇サンハイツ９１７号,,13,121,1230873,,,,,,,2025-01-06,1,,,,,ワカバベース,0
1356,6012403006889,新規,0,2025-01-06,2025-01-06,合同会社ＨＭＫ,,合同会社,東京都,小金井市,緑町５丁目１９番２号,,13,210,1840003,,,,,,,2025-01-06,1,,,,,エイチエムケー,0
1362,6020003027495,新規,0,2025-01-06,2025-01-06,合同会社アレテ,,合同会社,神奈川県,川崎市川崎区,港町５番３－１９３２号,,14,131,2100807,,,,,,,2025-01-06,1,,,,,アレテ,0
1368,6021001084108,新規,0,2025-01-06,2025-01-06,株式会社ＦＩＴＳＴＡＲ,,株式会社,神奈川県,秦野市,春日町５番２９号,,14,211,2591312,,,,,,,2025-01-06,1,,,,,フィットスター,0
1369,6021003015408,新規,0,2025-01-06,2025-01-06,合同会社Ｓｈｉｎｙ,,合同会社,神奈川県,相模原市南区,西大沼５丁目２番２９号,,14,153,2520332,,,,,,,2025-01-06,1,,,,,シャイニー,0
1370,6021005013252,新規,0,2025-01-06,2025-01-06,一般社団法人Ｄｒｅａｍｉｎｇ,,その他の設立登記法人,神奈川県,高座郡寒川町,一之宮８丁目６番１３号,,14,321,2530111,,,,,,,2025-01-06,1,,,,,ドリーミング,0
1373,6030001164034,新規,0,2025-01-06,2025-01-06,株式会社アクト,,株式会社,埼玉県,三郷市,中央５丁目１３－１－３Ｆ,,11,237,3410038,,,,,,,2025-01-06,1,,,,,アクト,0
1374,6030001164125,新規,0,2025-01-06,2025-01-06,株式会社Ａｒｋａ,,株式会社,埼玉県,上尾市,富士見１丁目８番３０号第２フォーブル富士見２０２,,11,219,3620041,,,,,,,2025-01-06,1,,,,,アルカ,0
1375,6030001164141,新規,0,2025-01-06,2025-01-06,株式会社ｅｎｔｏ９９,,株式会社,埼玉県,上尾市,宮本町９番２７号ＶｉｅＮｏｕｖｅｌｌｅ宮本町１Ｆ,,11,219,3620036,,,,,,,2025-01-06,1,,,,,エントキュウジュウキュウ,0
1376,6030001164158,新規,0,2025-01-06,2025-01-06,株式会社ウェル,,株式会社,埼玉県,さいたま市大宮区,三橋２丁目９５０番地,,11,103,3300856,,,,,,,2025-01-06,1,,,,,ウェル,0
1377,6030001164166,新規,0,2025-01-06,2025-01-06,ＫＧ　ＷＯＲＫＳ株式会社,,株式会社,埼玉県,越谷市,大字平方１７７１番地３８,,11,222,3430002,,,,,,,2025-01-06,1,,,,,ケージーワークス,0
1378,6030001164199,新規,0,2025-01-06,2025-01-06,株式会社ジョキアーモ,,株式会社,埼玉県,朝霞市,幸町２丁目１４番４号,,11,227,3510015,,,,,,,2025-01-06,1,,,,,ジョキアーモ,0
1379,6030001164224,新規,0,2025-01-06,2025-01-06,Ｌ．Ｃ住建株式会社,,株式会社,埼玉県,草加市,新栄３丁目１８番地７クレメント２０３号,,11,221,3400056,,,,,,,2025-01-06,1,,,,,エルシージュウケン,0
1382,6030003025779,新規,0,2025-01-06,2025-01-06,篝合同会社,,合同会社,埼玉県,さいたま市浦和区,瀬ヶ崎３丁目１４番３－３０２号,,11,107,3300044,,,,,,,2025-01-06,1,,,,,カガリ,0
1383,6030003025804,新規,0,2025-01-06,2025-01-06,合同会社セルフライト,,合同会社,埼玉県,さいたま市北区,土呂町１丁目１０番地１３,,11,102,3310804,,,,,,,2025-01-06,1,,,,,セルフライト,0
1386,6040001136759,新規,0,2025-01-06,2025-01-06,株式会社ＢＡＰ,,株式会社,千葉県,館山市,佐野７１０番地７,,12,205,2940225,,,,,,,2025-01-06,1,,,,,ビーエーピー,0
1387,6040001136775,新規,0,2025-01-06,2025-01-06,株式会社埴谷造園,,株式会社,千葉県,山武市,松ヶ谷ロ３３１２番地１,,12,237,2891303,,,,,,,2025-01-06,1,,,,,ハニヤゾウエン,0
1388,6040001136783,新規,0,2025-01-06,2025-01-06,株式会社ジョイ,,株式会社,千葉県,印西市,瀬戸２０９１番地,,12,231,2701614,,,,,,,2025-01-06,1,,,,,ジョイ,0
1389,6040001136800,新規,0,2025-01-06,2025-01-06,丸八鋼管株式会社,,株式会社,千葉県,浦安市,港５番地,,12,227,2790024,,,,,,,2025-01-06,1,,,,,マルハチコウカン,0
1390,6040003026495,新規,0,2025-01-06,2025-01-06,合同会社ホワイトベリー,,合同会社,千葉県,市原市,千種４丁目７番地４,,12,219,2990109,,,,,,,2025-01-06,1,,,,,ホワイトベリー,0
1391,6040003026512,新規,0,2025-01-06,2025-01-06,合同会社一ノ谷,,合同会社,千葉県,松戸市,松戸２１０８番地の１アーバニティタカツキ３０６号,,12,207,2710092,,,,,,,2025-01-06,1,,,,,イチノタニ,0
1394,6060003005373,新規,0,2025-01-06,2025-01-06,合同会社ＳＨＯＫＥＩ,,合同会社,栃木県,塩谷郡塩谷町,大字芦場新田２４６－１,,09,384,3292226,,,,,,,2025-01-06,1,,,,,ショウケイ,0
1397,6070001042509,新規,0,2025-01-06,2025-01-06,株式会社ゼネラルアクト,,株式会社,群馬県,高崎市,芝塚町１８７４番地１２グランドバレー５０４号,,10,202,3700064,,,,,,,2025-01-06,1,,,,,ゼネラルアクト,0
1399,6070003005728,新規,0,2025-01-06,2025-01-06,合同会社ＡＢＦＡＳｍｉｌｅ,,合同会社,群馬県,北群馬郡榛東村,大字新井１２１９番地,,10,344,3703503,,,,,,,2025-01-06,1,,,,,アブファスマイル,0
1400,6080003003367,新規,0,2025-01-06,2025-01-06,インフィニティ合同会社,,合同会社,静岡県,静岡市駿河区,見瀬１６１－１コーポルサント１０６,,22,102,4228057,,,,,,,2025-01-06,1,,,,,インフィニティ,0
1401,6080401027653,新規,0,2025-01-06,2025-01-06,ネルネ株式会社,,株式会社,静岡県,浜松市中央区,高町３００番地の２７プレミスト高町７０３号室,,22,138,4328015,,,,,,,2025-01-06,1,,,,,ネルネ,0
1402,6090001019067,新規,0,2025-01-06,2025-01-06,株式会社４Ｆ,,株式会社,山梨県,中央市,中楯１２６２番地１,,19,214,4093801,,,,,,,2025-01-06,1,,,,,フォーエフ,0
1412,6120001271531,新規,0,2025-01-06,2025-01-06,株式会社ネイエール,,株式会社,大阪府,大阪市東成区,玉津２丁目４番１２号,,27,115,5370023,,,,,,,2025-01-06,1,,,,,ネイエール,0
1414,6120101070817,新規,0,2025-01-06,2025-01-06,株式会社高田商店,,株式会社,大阪府,堺市堺区,中之町西３丁１－８－３０１号,,27,141,5900957,,,,,,,2025-01-06,1,,,,,タカダショウテン,0
1415,6120101070825,新規,0,2025-01-06,2025-01-06,承元文化株式会社,,株式会社,大阪府,堺市堺区,中之町東３丁１番５号,,27,141,5900956,,,,,,,2025-01-06,1,,,,,ショウゲンブンカ,0
1417,6120103006216,新規,0,2025-01-06,2025-01-06,エムツーライフデザイン合同会社,,合同会社,大阪府,藤井寺市,北條町２－３７,,27,226,5830002,,,,,,,2025-01-06,1,,,,,エムツーライフデザイン,0
1424,6120901050225,新規,0,2025-01-06,2025-01-06,株式会社リアルエステート早川,,株式会社,大阪府,茨木市,蔵垣内３丁目１２番１２号,,27,211,5670878,,,,,,,2025-01-06,1,,,,,リアルエステートハヤカワ,0
1425,6120901050233,新規,0,2025-01-06,2025-01-06,株式会社ガレージアストレア,,株式会社,大阪府,茨木市,畑田町１０－１７,,27,211,5670028,,,,,,,2025-01-06,1,,,,,ガレージアストレア,0
1426,6120903005482,新規,0,2025-01-06,2025-01-06,合同会社オフィス若村,,合同会社,大阪府,吹田市,江坂町２丁目３番１０リーガル江坂１００１号,,27,205,5640063,,,,,,,2025-01-06,1,,,,,オフィスワカムラ,0
1427,6130001078653,新規,0,2025-01-06,2025-01-06,株式会社Ｍｉｋａｍｉ,,株式会社,京都府,京都市伏見区,深草開土町８０番地６,,26,109,6120806,,,,,,,2025-01-06,1,,,,,ミカミ,0
1428,6130001078661,新規,0,2025-01-06,2025-01-06,株式会社ルミエル,,株式会社,京都府,京都市西京区,大原野上里北ノ町５６３番地６２,,26,111,6101121,,,,,,,2025-01-06,1,,,,,ルミエル,0
1429,6130001078694,新規,0,2025-01-06,2025-01-06,エステート・エージェント株式会社,,株式会社,京都府,京都市左京区,高野東開町１番地７東大路高野第２住宅１２棟２０６号,,26,103,6068107,,,,,,,2025-01-06,1,,,,,エステートエージェント,0
1430,6130003010102,新規,0,2025-01-06,2025-01-06,さくらホールディングス合同会社,,合同会社,京都府,京都市下京区,松原通烏丸西入ル玉津島町２９４,,26,106,6000000,,,,,,,2025-01-06,1,,,,,サクラホールディングス,0
1431,6130003010110,新規,0,2025-01-06,2025-01-06,保守合同会社,,合同会社,京都府,京都市下京区,小稲荷町８５－２Ｇｒａｎｄ－Ｋ京都駅前ビル２０１,,26,106,6008208,,,,,,,2025-01-06,1,,,,,ホシュ,0
1438,6140001136889,新規,0,2025-01-06,2025-01-06,株式会社元気幾何,,株式会社,兵庫県,神戸市長田区,高取山町２丁目９番４号,,28,106,6530856,,,,,,,2025-01-06,1,,,,,ゲンキキカ,0
1439,6140001136897,新規,0,2025-01-06,2025-01-06,株式会社ＨＡＲＥ　Ｄｅｓｉｇｎ,,株式会社,兵庫県,加古川市,加古川町粟津５１番地の１,,28,210,6750039,,,,,,,2025-01-06,1,,,,,ハレデザイン,0
1440,6140001136930,新規,0,2025-01-06,2025-01-06,株式会社Ｏｆｆｉｃｅ　ＲＯＢＥＲＴ,,株式会社,兵庫県,西宮市,松生町６番２０－２０１号,,28,204,6620076,,,,,,,2025-01-06,1,,,,,オフィスロバート,0
1442,6140003021478,新規,0,2025-01-06,2025-01-06,合同会社ＫＴＩ,,合同会社,兵庫県,神戸市中央区,琴ノ緒町２丁目３－１５プチメゾン１Ｆ,,28,110,6510094,,,,,,,2025-01-06,1,,,,,ケーティーアイ,0
1444,6150001027781,新規,0,2025-01-06,2025-01-06,株式会社エム・アナベル,,株式会社,奈良県,橿原市,白橿町１丁目１８番１７号,,29,205,6340051,,,,,,,2025-01-06,1,,,,,エムアナベル,0
1447,6160001026452,新規,0,2025-01-06,2025-01-06,株式会社ウィズナレッジ,,株式会社,滋賀県,大津市,茶戸町１１番地１２号,,25,201,5200066,,,,,,,2025-01-06,1,,,,,ウィズナレッジ,0
1448,6160003003367,新規,0,2025-01-06,2025-01-06,合同会社ロイズ,,合同会社,滋賀県,近江八幡市,安土町常楽寺９４１番地９,,25,204,5211351,,,,,,,2025-01-06,1,,,,,ロイズ,0
1449,6170001018432,新規,0,2025-01-06,2025-01-06,株式会社ｚｅｒｏ,,株式会社,和歌山県,和歌山市,次郎丸１０８番地１１,,30,201,6408444,,,,,,,2025-01-06,1,,,,,ゼロ,0
1451,6180001164738,新規,0,2025-01-06,2025-01-06,株式会社Ｍｅｅｒ,,株式会社,愛知県,名古屋市千種区,今池南２９番２４号川島第一ビル３階３Ａ号室,,23,101,4640851,,,,,,,2025-01-06,1,,,,,メーア,0
1452,6180001164795,新規,0,2025-01-06,2025-01-06,株式会社ほーぷ,,株式会社,愛知県,名古屋市中川区,舟戸町２番２８号,,23,110,4540805,,,,,,,2025-01-06,1,,,,,ホープ,0
1454,6180301039375,新規,0,2025-01-06,2025-01-06,Ｋ‐ＰＬａｎｅｔ株式会社,,株式会社,愛知県,豊田市,元城町２丁目１２番地ＩＨＳビル３階Ａ号室,,23,211,4710024,,,,,,,2025-01-06,1,,,,,ケープラネット,0
1455,6180301039383,新規,0,2025-01-06,2025-01-06,株式会社ハナコピラ,,株式会社,愛知県,岡崎市,羽根町字大池１６番地１,,23,202,4440816,,,,,,,2025-01-06,1,,,,,ハナコピラ,0
1456,6180305009639,新規,0,2025-01-06,2025-01-06,医療法人良優会,,その他の設立登記法人,愛知県,みよし市,福田町碁盤田２番１,,23,236,4700225,,,,,,,2025-01-06,1,,,,,リョウユウカイ,0
1459,6200001043294,新規,0,2025-01-06,2025-01-06,株式会社ツクヨミ,,株式会社,岐阜県,可児郡御嵩町,中７９５番地１,,21,521,5050121,,,,,,,2025-01-06,1,,,,,ツクヨミ,0
1460,6210001020020,新規,0,2025-01-06,2025-01-06,株式会社ヘッドスプリングＸＢ,,株式会社,福井県,坂井市,春江町境第１７号６番地,,18,210,9190434,,,,,,,2025-01-06,1,,,,,ヘッドスプリングクロスビー,0
1461,6210003001869,新規,0,2025-01-06,2025-01-06,合同会社Ｋｉｐｐｏ,,合同会社,福井県,福井市,灯明寺３丁目４４０２番地,,18,201,9100063,,,,,,,2025-01-06,1,,,,,キッポ,0
1464,6220003003914,新規,0,2025-01-06,2025-01-06,合同会社ラーンダッシュジャパン,,合同会社,石川県,金沢市,堀川新町５番１号,,17,201,9200849,,,,,,,2025-01-06,1,,,,,ラーンダッシュジャパン,0
1465,6230001020687,新規,0,2025-01-06,2025-01-06,株式会社ＬＩＦＥＲＥＮＯ,,株式会社,富山県,富山市,向新庄１３２７番地２,,16,201,9300916,,,,,,,2025-01-06,1,,,,,ライフリノ,0
1466,6240001064312,新規,0,2025-01-06,2025-01-06,ゆるっとライフ株式会社,,株式会社,広島県,福山市,神辺町大字新湯野５６番地１１ペアーライフ新湯野２０２,,34,207,7202122,,,,,,,2025-01-06,1,,,,,ユルットライフ,0
1473,6290001108460,新規,0,2025-01-06,2025-01-06,株式会社ＢＬＯＯＭＩＮ’ＫＩＤＳ,,株式会社,福岡県,糟屋郡新宮町,大字三代７３８－１,,40,345,8110111,,,,,,,2025-01-06,1,,,,,ブルーミング,0
1474,6290001108469,新規,0,2025-01-06,2025-01-06,株式会社ウチの経理部長,,株式会社,福岡県,福岡市西区,姪浜駅南４丁目４番３７－３０１号,,40,135,8190006,,,,,,,2025-01-06,1,,,,,ウチノケイリブチョウ,0
1476,6290003016199,新規,0,2025-01-06,2025-01-06,合同会社ＭＣＬ,,合同会社,福岡県,福岡市博多区,博多駅前４丁目７－６,,40,132,8120011,,,,,,,2025-01-06,1,,,,,エムシーエル,0
1477,6290003016240,新規,0,2025-01-06,2025-01-06,合同会社ＥＸＩＴ,,合同会社,福岡県,福津市,内殿１１５１番地,,40,224,8113205,,,,,,,2025-01-06,1,,,,,イグジット,0
1479,6290801031151,新規,0,2025-01-06,2025-01-06,株式会社ショーイン,,株式会社,福岡県,行橋市,大字流末字後川原９７２番６,,40,213,8240043,,,,,,,2025-01-06,1,,,,,ショーイン,0
1483,6320001020876,新規,0,2025-01-06,2025-01-06,株式会社クレアス,,株式会社,大分県,臼杵市,大字臼杵７５番地の７５,,44,206,8750041,,,,,,,2025-01-06,1,,,,,クレアス,0
1484,6330003010701,新規,0,2025-01-06,2025-01-06,合同会社ジャストシナジー,,合同会社,熊本県,熊本市南区,白藤２丁目３番８０－７０５号,,43,104,8614112,,,,,,,2025-01-06,1,,,,,ジャストシナジー,0
1499,6410003004026,新規,0,2025-01-06,2025-01-06,合同会社ＡＱＵＡ　ＣＩＴＹ,,合同会社,秋田県,北秋田市,脇神字赤川岱１４２番地１Ｆ,,05,213,0183454,,,,,,,2025-01-06,1,,,,,アクアシティ,0
1502,6430001093390,新規,0,2025-01-06,2025-01-06,株式会社ｒｅｐａｃｅｒ,,株式会社,北海道,札幌市清田区,清田六条１丁目２１番３０号,,01,110,0040846,,,,,,,2025-01-06,1,,,,,リペーサー,0
1503,6430001093399,新規,0,2025-01-06,2025-01-06,株式会社Ｍｏｒｎｉｎｇ　Ｇｌｏｗ,,株式会社,北海道,札幌市東区,東雁来十二条２丁目７番６号,,01,103,0070032,,,,,,,2025-01-06,1,,,,,モーニンググロー,0
1510,6440001009544,新規,0,2025-01-06,2025-01-06,株式会社けあるーぷ,,株式会社,北海道,函館市,松川町４３番６号,,01,202,0400074,,,,,,,2025-01-06,1,,,,,ケアループ,0
1512,6450001014485,新規,0,2025-01-06,2025-01-06,株式会社東神ボーリング,,株式会社,北海道,旭川市,永山八条１９丁目１番１４号,,01,204,0798418,,,,,,,2025-01-06,1,,,,,トウシンボーリング,0
1514,6470001020515,新規,0,2025-01-06,2025-01-06,株式会社Ｓ‐ＰＲＯＴＥＣＴ,,株式会社,香川県,三豊市,財田町財田中１５４１番地１,,37,208,7690402,,,,,,,2025-01-06,1,,,,,エスプロテクト,0
1515,6470001020523,新規,0,2025-01-06,2025-01-06,株式会社ＴＥＡＭ　ＭＹＧＯ,,株式会社,香川県,高松市,上林町５１０番地３９エニシア高松ｏｆｆｉｃｅ―１,,37,201,7610302,,,,,,,2025-01-06,1,,,,,チームマイゴー,0
1518,6500001026054,新規,0,2025-01-06,2025-01-06,株式会社Ｎｅｘｔ　Ｒｅ．Ｌｉｖｅ,,株式会社,愛媛県,喜多郡内子町,平岡甲７８６番地１,,38,422,7950303,,,,,,,2025-01-06,1,,,,,ネクストリライブ,0
1519,6700150128465,新規,0,2025-01-06,2025-01-06,ＣＥＹＬＯＮ　ＴＲＡＤＩＮＧ,,外国会社等,神奈川県,藤沢市,遠藤２５０９－５,,14,205,2520816,スリランカ民主社会主義共和国、クルネガラ、ピレッサ、キャンディロード、２３７番,,,,,,2025-01-06,1,,,,,セイロントレーデイング,0
1522,7010001251015,新規,0,2025-01-06,2025-01-06,株式会社ファストビュー,,株式会社,東京都,千代田区,麹町２丁目５番地１ＷｅＷｏｒｋ半蔵門ＰＲＥＸＳｏｕｔｈ８階８－１０４号室,,13,101,1020083,,,,,,,2025-01-06,1,,,,,ファストビュー,0
1523,7010001251147,新規,0,2025-01-06,2025-01-06,株式会社シーテン,,株式会社,東京都,千代田区,岩本町３丁目８－８中和秋葉原ビル,,13,101,1010032,,,,,,,2025-01-06,1,,,,,シーテン,0
1524,7010001251163,新規,0,2025-01-06,2025-01-06,株式会社フレーア,,株式会社,東京都,千代田区,神田和泉町１番地６－１６ヤマトビル４０５,,13,101,1010024,,,,,,,2025-01-06,1,,,,,フレーア,0
1526,7010003045902,新規,0,2025-01-06,2025-01-06,合同会社ＳＰＣ８,,合同会社,東京都,千代田区,平河町１丁目６番１５号シルスフィア会計事務所内,,13,101,1020093,,,,,,,2025-01-06,1,,,,,エスピーシーエイト,0
1529,7010401187362,新規,0,2025-01-06,2025-01-06,株式会社ＨＩ‐ＮＥＸＵ,,株式会社,東京都,港区,虎ノ門５丁目９番１号,,13,103,1050001,,,,,,,2025-01-06,1,,,,,ハイネクス,0
1530,7010501053415,新規,0,2025-01-06,2025-01-06,株式会社ＨｏｐｅＢｉｚ,,株式会社,東京都,台東区,橋場２丁目２１番１３号ホーネットＩＩ３０２,00137505,13,106,1110023,,,,,,,2025-01-06,1,,,,,ホープビズ,0
1531,7010501053423,新規,0,2025-01-06,2025-01-06,株式会社ＩＬＡ,,株式会社,東京都,台東区,雷門２丁目１番１１号,,13,106,1110034,,,,,,,2025-01-06,1,,,,,アイエルエー,0
1536,7010603011295,新規,0,2025-01-06,2025-01-06,未来絆合同会社,,合同会社,東京都,江東区,大島６丁目１番５－１０１２号,,13,108,1360072,,,,,,,2025-01-06,1,,,,,ミライキズナ,0
1539,7010701047051,新規,0,2025-01-06,2025-01-06,株式会社Ｌｅｖｉａ,,株式会社,東京都,品川区,東大井５丁目９番１３－３０１号,,13,109,1400011,,,,,,,2025-01-06,1,,,,,レヴィア,0
1540,7010703007516,新規,0,2025-01-06,2025-01-06,合同会社ブラックパレス,,合同会社,東京都,品川区,小山４丁目３番１３号,,13,109,1420062,,,,,,,2025-01-06,1,,,,,ブラックパレス,0
1546,7010801035716,新規,0,2025-01-06,2025-01-06,株式会社ｅｔｔｅ,,株式会社,東京都,大田区,蒲田５丁目４５番１号ＹＭビル３０２号室,,13,111,1440052,,,,,,,2025-01-06,1,,,,,エテ,0
1550,7010901056562,新規,0,2025-01-06,2025-01-06,Ａｌｏｈａゴスペルセンター株式会社,,株式会社,東京都,世田谷区,等々力７丁目１８番５号,,13,112,1580082,,,,,,,2025-01-06,1,,,,,アロハゴスペルセンター,0
1556,7011101110119,新規,0,2025-01-06,2025-01-06,佳美株式会社,,株式会社,東京都,新宿区,大久保１丁目１０－６アムス新大久保３０１Ｃ号室,,13,104,1690072,,,,,,,2025-01-06,1,,,,,カビ,0
1557,7011201026033,新規,0,2025-01-06,2025-01-06,株式会社Ｒｅ‐ＮＥＸＴ,,株式会社,東京都,中野区,鷺宮３丁目９番１６号パレス鷺宮１Ｆ,,13,114,1650032,,,,,,,2025-01-06,1,,,,,リネクスト,0
1559,7011301030257,新規,0,2025-01-06,2025-01-06,株式会社ＴＨＩＳ　ＭＯＭＥＮＴ,,株式会社,東京都,杉並区,高円寺北２丁目２１番７号新松田ビル２Ｆ,,13,115,1660002,,,,,,,2025-01-06,1,,,,,ディスモーメント,0
1562,7011501031534,新規,0,2025-01-06,2025-01-06,大和漢養株式会社,,株式会社,東京都,荒川区,南千住４丁目９番１－７０３号,,13,118,1160003,,,,,,,2025-01-06,1,,,,,ダイワカンヨウ,0
1579,7020001160751,新規,0,2025-01-06,2025-01-06,株式会社アンダーフラット,,株式会社,神奈川県,川崎市宮前区,馬絹５丁目５番５－２０１号,,14,136,2160035,,,,,,,2025-01-06,1,,,,,アンダーフラット,0
1580,7020001160891,新規,0,2025-01-06,2025-01-06,ミツワコンサルティング株式会社,,株式会社,神奈川県,横浜市西区,西平沼町１番２２－７１２号,,14,103,2200024,,,,,,,2025-01-06,1,,,,,ミツワコンサルティング,0
1585,7020003027494,新規,0,2025-01-06,2025-01-06,合同会社ＢＩＴＷＩＮ,,合同会社,神奈川県,横浜市港北区,菊名６丁目３０－８－２０６,,14,109,2220011,,,,,,,2025-01-06,1,,,,,ビトウィン,0
1586,7020003027569,新規,0,2025-01-06,2025-01-06,合同会社ＬＩＢＥＲＡ,,合同会社,神奈川県,横浜市西区,浅間町１丁目４番３号ウィザードビル４０２,,14,103,2200072,,,,,,,2025-01-06,1,,,,,リベラ,0
1589,7021001084098,新規,0,2025-01-06,2025-01-06,株式会社エムエーワイ,,株式会社,神奈川県,藤沢市,片瀬２丁目３番２９号,,14,205,2510032,,,,,,,2025-01-06,1,,,,,エムエーワイ,0
1592,7021003015407,新規,0,2025-01-06,2025-01-06,ＳＳＫスマイルフード合同会社,,合同会社,神奈川県,藤沢市,高倉８０８番地の３９,,14,205,2520802,,,,,,,2025-01-06,1,,,,,エスエスケースマイルフード,0
1594,7021005013251,新規,0,2025-01-06,2025-01-06,一般社団法人日本心不全薬学共創機構,,その他の設立登記法人,神奈川県,小田原市,南鴨宮３丁目４９番５号,,14,206,2500875,,,,,,,2025-01-06,1,,,,,ニホンシンフゼンヤクガクキョウソウキコウ,0
1595,7030001164140,新規,0,2025-01-06,2025-01-06,ＫｎｉｇｈｔＸ株式会社,,株式会社,埼玉県,川越市,大塚２丁目９番地５,,11,201,3501129,,,,,,,2025-01-06,1,,,,,ナイトエックス,0
1596,7030001164173,新規,0,2025-01-06,2025-01-06,株式会社ＥＹＫ,,株式会社,埼玉県,越谷市,瓦曽根２丁目１番８号,,11,222,3430821,,,,,,,2025-01-06,1,,,,,イーワイケー,0
1597,7030001164181,新規,0,2025-01-06,2025-01-06,株式会社Ｔｏｋｋｉ‐Ｔｅｃｈ,,株式会社,埼玉県,飯能市,大字笠縫８９番地１５,,11,209,3570045,,,,,,,2025-01-06,1,,,,,トッキテック,0
1598,7030001164215,新規,0,2025-01-06,2025-01-06,株式会社リベロランド,,株式会社,埼玉県,さいたま市南区,根岸４丁目１７番１７号,,11,108,3360024,,,,,,,2025-01-06,1,,,,,リベロランド,0
1601,7030003025695,新規,0,2025-01-06,2025-01-06,善祥モーターズ合同会社,,合同会社,埼玉県,加須市,旗井３丁目９番地８,,11,210,3491132,,,,,,,2025-01-06,1,,,,,ゼンショウモーターズ,0
1605,7040001136774,新規,0,2025-01-06,2025-01-06,株式会社リミットレス,,株式会社,千葉県,市川市,南八幡４丁目１４番４－３０７号,,12,203,2720023,,,,,,,2025-01-06,1,,,,,リミットレス,0
1606,7040001136790,新規,0,2025-01-06,2025-01-06,株式会社ＮＭＫ,,株式会社,千葉県,銚子市,中央町１７－２２カーサ大久保１Ｆ,,12,202,2880041,,,,,,,2025-01-06,1,,,,,エヌエムケイ,0
1607,7040001136799,新規,0,2025-01-06,2025-01-06,株式会社クリスタルリンク,,株式会社,千葉県,千葉市若葉区,みつわ台２丁目２０番１８号,,12,104,2640032,,,,,,,2025-01-06,1,,,,,クリスタルリンク,0
1610,7040003026486,新規,0,2025-01-06,2025-01-06,Ｂｒｅａｄ　Ｌａｂｏｒａｔｏｒｙ合同会社,,合同会社,千葉県,千葉市緑区,おゆみ野１丁目４４番地２６,,12,105,2660031,,,,,,,2025-01-06,1,,,,,ブレッドラボラトリー,0
1611,7040003026503,新規,0,2025-01-06,2025-01-06,合同会社ＳＲＳ,,合同会社,千葉県,柏市,あけぼの４丁目４－３ＢｏａＳｏｒｔｅ柏１０３,,12,217,2770841,,,,,,,2025-01-06,1,,,,,エスアールエス,0
1614,7050001055924,新規,0,2025-01-06,2025-01-06,エフケー・スマイル株式会社,,株式会社,茨城県,小美玉市,小川２８７番地３,,08,236,3113423,,,,,,,2025-01-06,1,,,,,エフケースマイル,0
1615,7060003005380,新規,0,2025-01-06,2025-01-06,ＡＲ合同会社,,合同会社,栃木県,足利市,田中町９４０－６－１０３,,09,202,3260822,,,,,,,2025-01-06,1,,,,,エーアール,0
1619,7070005010337,新規,0,2025-01-06,2025-01-06,一般財団法人Ｈｏｐｅフューチャー,,その他の設立登記法人,群馬県,太田市,別所町２１４番地１,,10,205,3730041,,,,,,,2025-01-06,1,,,,,ホープフューチャー,0
1620,7080001026690,新規,0,2025-01-06,2025-01-06,富嶽カントリークラブ株式会社,,株式会社,静岡県,静岡市清水区,宍原１７８３番地の１,,22,103,4240301,,,,,,,2025-01-06,1,,,,,フガクカントリークラブ,0
1622,7080003003366,新規,0,2025-01-06,2025-01-06,アユターレ合同会社,,合同会社,静岡県,静岡市駿河区,丸子６００１番地の１,,22,102,4210103,,,,,,,2025-01-06,1,,,,,アユターレ,0
1624,7080103003225,新規,0,2025-01-06,2025-01-06,合同会社ＴＥＳＬＡ　Ｍａｎａｇｅｍｅｎｔ,,合同会社,静岡県,伊豆の国市,長岡７３,,22,225,4102211,,,,,,,2025-01-06,1,,,,,テスラマネージメント,0
1630,7100001038155,新規,0,2025-01-06,2025-01-06,株式会社ＬＸＶ,,株式会社,長野県,岡谷市,中央町２丁目３番３号,,20,204,3940027,,,,,,,2025-01-06,1,,,,,エルエックスブイ,0
1644,7120001271497,新規,0,2025-01-06,2025-01-06,株式会社信長商事,,株式会社,大阪府,大阪市城東区,成育４丁目２４番３号－２０２室,,27,118,5360007,,,,,,,2025-01-06,1,,,,,ノブナガショウジ,0
1645,7120001271514,新規,0,2025-01-06,2025-01-06,株式会社ブルシット,,株式会社,大阪府,大阪市城東区,成育１丁目７番３号,,27,118,5360007,,,,,,,2025-01-06,1,,,,,ブルシット,0
1646,7120001271547,新規,0,2025-01-06,2025-01-06,株式会社Ｓｈｉｄｏ,,株式会社,大阪府,大阪市天王寺区,夕陽丘町４－２ＭｅｔｒｏＰｏｒｔｅ四天王寺前夕陽ケ丘ＩＩＩ８号室,00137489,27,109,5430075,,,,,,,2025-01-06,1,,,,,シドウ,0
1648,7120003028243,新規,0,2025-01-06,2025-01-06,統義合同会社,,合同会社,大阪府,大阪市港区,弁天２丁目１４－２５中野ビルＣ－２室,,27,107,5520007,,,,,,,2025-01-06,1,,,,,トウギ,0
1649,7120003028284,新規,0,2025-01-06,2025-01-06,合同会社ＡＺＭ,,合同会社,大阪府,大阪市住吉区,遠里小野７丁目１番２号レオパレスネイバーズＳ２０６号,,27,120,5580032,,,,,,,2025-01-06,1,,,,,エーゼットエム,0
1653,7120101070808,新規,0,2025-01-06,2025-01-06,日本辰星株式会社,,株式会社,大阪府,岸和田市,小松里町２２６７番地,,27,202,5960821,,,,,,,2025-01-06,1,,,,,ニホンシンセイ,0
1654,7120101070824,新規,0,2025-01-06,2025-01-06,株式会社ＡｒｃＲａｉｎ,,株式会社,大阪府,堺市南区,土佐屋台１５９３番地４,,27,145,5900104,,,,,,,2025-01-06,1,,,,,アークレイン,0
1656,7120903005481,新規,0,2025-01-06,2025-01-06,プレミアムベリー猪名川合同会社,,合同会社,大阪府,池田市,古江町１－５６,,27,204,5630015,,,,,,,2025-01-06,1,,,,,プレミアムベリーイナガワ,0
1657,7122001038777,新規,0,2025-01-06,2025-01-06,株式会社まちづくり,,株式会社,大阪府,大東市,諸福３丁目１０番３号,,27,218,5740044,,,,,,,2025-01-06,1,,,,,マチヅクリ,0
1658,7122001038785,新規,0,2025-01-06,2025-01-06,ミヤ株式会社,,株式会社,大阪府,大東市,大野１丁目５－２７－１Ｆ,,27,218,5740042,,,,,,,2025-01-06,1,,,,,ミヤ,0
1660,7130001078669,新規,0,2025-01-06,2025-01-06,株式会社京大寺子屋,,株式会社,京都府,京都市北区,平野鳥居前町５５番地京都アーバンライフ３０２,,26,101,6038321,,,,,,,2025-01-06,1,,,,,キョウダイテラコヤ,0
1661,7130001078685,新規,0,2025-01-06,2025-01-06,株式会社ストイック,,株式会社,京都府,京都市北区,紫野下門前町５９番地２,,26,101,6038215,,,,,,,2025-01-06,1,,,,,ストイック,0
1662,7130001078693,新規,0,2025-01-06,2025-01-06,Ｆｏｏｄ　Ｐａｒｋ株式会社,,株式会社,京都府,宇治市,小倉町堀池３９番地の４１,,26,204,6110042,,,,,,,2025-01-06,1,,,,,フードパーク,0
1663,7130001078710,新規,0,2025-01-06,2025-01-06,四条商事株式会社,,株式会社,京都府,京都市南区,東九条北烏丸町２４番地８,,26,107,6018017,,,,,,,2025-01-06,1,,,,,シジョウショウジ,0
1667,7140001136863,新規,0,2025-01-06,2025-01-06,ティーホームズ株式会社,,株式会社,兵庫県,神戸市西区,竜が岡３丁目１５番地の３,,28,111,6512412,,,,,,,2025-01-06,1,,,,,ティーホームズ,0
1668,7140001136896,新規,0,2025-01-06,2025-01-06,株式会社ミライエステイト,,株式会社,兵庫県,神戸市兵庫区,湊町４丁目２番２２－５０２号,,28,105,6520812,,,,,,,2025-01-06,1,,,,,ミライエステイト,0
1671,7140003021477,新規,0,2025-01-06,2025-01-06,ＨＩＲＯ企画合同会社,,合同会社,兵庫県,芦屋市,山芦屋町２０番５号,00137492,28,206,6590082,,,,,,,2025-01-06,1,,,,,ヒロキカク,0
1673,7160001026451,新規,0,2025-01-06,2025-01-06,株式会社とくさん,,株式会社,滋賀県,近江八幡市,安土町下豊浦１２８５番地１８,,25,204,5211311,,,,,,,2025-01-06,1,,,,,トクサン,0
1675,7170003002144,新規,0,2025-01-06,2025-01-06,合同会社ＳＲ,,合同会社,和歌山県,伊都郡かつらぎ町,大字佐野１０１８－１,,30,341,6497174,,,,,,,2025-01-06,1,,,,,エスアール,0
1677,7180001164794,新規,0,2025-01-06,2025-01-06,株式会社Ｖｉｓｔａ,,株式会社,愛知県,北名古屋市,九之坪西城屋敷４シャンドゥフルール３０１,,23,234,4810041,,,,,,,2025-01-06,1,,,,,ビスタ,0
1680,7180005020894,新規,0,2025-01-06,2025-01-06,一般社団法人ＨＡＰＰＹ　ＴＡＬＥ,,その他の設立登記法人,愛知県,名古屋市中区,正木４丁目６番１０号,,23,106,4600024,,,,,,,2025-01-06,1,,,,,ハッピーテイル,0
1681,7180301039374,新規,0,2025-01-06,2025-01-06,株式会社ＴＥＮＥＲ,,株式会社,愛知県,豊田市,広田町稲荷山６番地３,,23,211,4730912,,,,,,,2025-01-06,1,,,,,テナー,0
1682,7180301039382,新規,0,2025-01-06,2025-01-06,株式会社みはや,,株式会社,愛知県,豊橋市,富士見台２丁目１２番地４,,23,201,4418135,,,,,,,2025-01-06,1,,,,,ミハヤ,0
1685,7200001043285,新規,0,2025-01-06,2025-01-06,株式会社ＫＭＦ,,株式会社,岐阜県,可児郡御嵩町,比衣５６０番地１７１,,21,521,5050124,,,,,,,2025-01-06,1,,,,,ケイエムエフ,0
1688,7200003006637,新規,0,2025-01-06,2025-01-06,Ｏｐｔｉｍｉｚｅ　Ｃｏｎｓｕｌｔｉｎｇ合同会社,,合同会社,岐阜県,岐阜市,平和通２丁目３５番地モアグレース長良平和通レジデンス３０３,,21,201,5020827,,,,,,,2025-01-06,1,,,,,オプティマイズコンサルティング,0
1689,7220001026395,新規,0,2025-01-06,2025-01-06,東和株式会社,,株式会社,石川県,金沢市,駅西本町５丁目１０番２２号,,17,201,9200025,,,,,,,2025-01-06,1,,,,,トウワ,0
1692,7240001064328,新規,0,2025-01-06,2025-01-06,株式会社はなぶさソリューションズ,,株式会社,広島県,広島市西区,横川新町９番１－１３０１号,,34,104,7330013,,,,,,,2025-01-06,1,,,,,ハナブサソリューションズ,0
1697,7260001039757,新規,0,2025-01-06,2025-01-06,株式会社プログレスバディーズ,,株式会社,岡山県,倉敷市,児島赤崎３丁目１番１０号,,33,202,7110931,,,,,,,2025-01-06,1,,,,,プログレスバディーズ,0
1698,7260001039773,新規,0,2025-01-06,2025-01-06,株式会社ＣＲＡＦＴ２７,,株式会社,岡山県,岡山市南区,浦安南町１５１番地７,,33,104,7028024,,,,,,,2025-01-06,1,,,,,クラフトニジュウナナ,0
1699,7260003005022,新規,0,2025-01-06,2025-01-06,合同会社輝島水産,,合同会社,岡山県,倉敷市,藤戸町藤戸１４０４－５,,33,202,7100133,,,,,,,2025-01-06,1,,,,,テルシマスイサン,0
1704,7290001108443,新規,0,2025-01-06,2025-01-06,さくらキッチン株式会社,,株式会社,福岡県,福岡市中央区,警固１丁目１３番１５－２０１号,,40,133,8100023,,,,,,,2025-01-06,1,,,,,,0
1707,7290801031159,新規,0,2025-01-06,2025-01-06,株式会社ＴＥＴＯＭＥ,,株式会社,福岡県,北九州市小倉北区,江南町２番１号オールセインツ１１０７,,40,106,8020083,,,,,,,2025-01-06,1,,,,,テトメ,0
1708,7300001014029,新規,0,2025-01-06,2025-01-06,創和建設株式会社,,株式会社,佐賀県,鳥栖市,姫方町２７５番地１,,41,203,8410023,,,,,,,2025-01-06,1,,,,,ソウワケンセツ,0
1709,7300001014037,新規,0,2025-01-06,2025-01-06,株式会社Ｎ’ｓ　ｐｌａｎ,,株式会社,佐賀県,佐賀市,大財北町４番１号棟１０４,,41,201,8400802,,,,,,,2025-01-06,1,,,,,エヌズプラン,0
1710,7320001020875,新規,0,2025-01-06,2025-01-06,株式会社Ｅｍｉｃｉｏｕｓ,,株式会社,大分県,大分市,大字旦野原４００番地の９０,,44,201,8701124,,,,,,,2025-01-06,1,,,,,エミシャス,0
1711,7320003004546,新規,0,2025-01-06,2025-01-06,合同会社ＩＫＲＡＭ　ＴＲＡＤＩＮＧ,,合同会社,大分県,中津市,大字犬丸２１８８番地２,,44,203,8790105,,,,,,,2025-01-06,1,,,,,イクラムトレーディング,0
1712,7330001032770,新規,0,2025-01-06,2025-01-06,株式会社Ｋｎｏｔ,,株式会社,熊本県,上益城郡御船町,大字御船１０５４番地５,,43,441,8613207,,,,,,,2025-01-06,1,,,,,ノット,0
1714,7340003004701,新規,0,2025-01-06,2025-01-06,合同会社才有る者の楽園,,合同会社,鹿児島県,霧島市,国分松木東３－１５－３０２,,46,218,8994324,,,,,,,2025-01-06,1,,,,,サイアルモノノラクエン,0
1716,7370001052096,新規,0,2025-01-06,2025-01-06,株式会社しぶや,,株式会社,宮城県,仙台市青葉区,広瀬町２番５号,,04,101,9800873,,,,,,,2025-01-06,1,,,,,シブヤ,0
1717,7370005010884,新規,0,2025-01-06,2025-01-06,医療法人修済会,,その他の設立登記法人,宮城県,仙台市若林区,沖野５丁目７番６号,,04,103,9840831,,,,,,,2025-01-06,1,,,,,シュウサイカイカイ,0
1721,7400001016898,新規,0,2025-01-06,2025-01-06,株式会社細谷地商店,,株式会社,岩手県,九戸郡軽米町,大字上舘第４０地割４番地１,,03,501,0286301,,,,,,,2025-01-06,1,,,,,ホソヤチショウテン,0
1725,7430003017132,新規,0,2025-01-06,2025-01-06,Ａｇｕｌｅｏ合同会社,,合同会社,北海道,苫小牧市,字樽前３５５－１,,01,213,0591265,,,,,,,2025-01-06,1,,,,,アグレオ,0
1734,7470001020514,新規,0,2025-01-06,2025-01-06,株式会社ＷＡＯ,,株式会社,香川県,丸亀市,川西町南甲２４４番地１,,37,202,7630092,,,,,,,2025-01-06,1,,,,,ワオ,0
1736,7490001010934,新規,0,2025-01-06,2025-01-06,株式会社さとる,,株式会社,高知県,安芸市,矢ノ丸３丁目３番１号,,39,203,7840001,,,,,,,2025-01-06,1,,,,,サトル,0
1737,7700150051914,新規,0,2025-01-06,2015-10-09,広島県立呉商業高等学校ＰＴＡ,,その他,広島県,呉市,広古新開４丁目１－１,,34,202,7370112,,,,,,,2015-10-09,1,,,,,ヒロシマケンリツクレシヨウギヨウコウトウガツコウピーテイーエー,0
1738,7700150128464,新規,0,2025-01-06,2025-01-06,ＭＭ　ＴＲＡＤＩＮＧ,,外国会社等,神奈川県,高座郡寒川町,大蔵３４７５－１,,14,321,2530104,スリランカ民主社会主義共和国、ウェランムピティヤ、アウィサウェレロード、１０１番,,,,,,2025-01-06,1,,,,,エムエムトレーデイング,0
1741,8010001251030,新規,0,2025-01-06,2025-01-06,株式会社ＵｎｉｔｙＳｔｅｐ　ＡＩ,,株式会社,東京都,文京区,本郷６丁目２５番１４号,,13,105,1130033,,,,,,,2025-01-06,1,,,,,ユニティステップエーアイ,0
1742,8010001251096,新規,0,2025-01-06,2025-01-06,株式会社ＢＳＣホールディングス,,株式会社,東京都,中央区,八丁堀３丁目９番２号,,13,102,1040032,,,,,,,2025-01-06,1,,,,,ビーエスシーホールディングス,0
1745,8010003045678,新規,0,2025-01-06,2025-01-06,サンニー合同会社,,合同会社,東京都,中央区,勝どき５丁目１２番地４号－２００５室,,13,102,1040054,,,,,,,2025-01-06,1,,,,,サンニー,0
1746,8010003045950,新規,0,2025-01-06,2025-01-06,合同会社ＦＴＫ,,合同会社,東京都,文京区,大塚３丁目９番５－７０２号,,13,105,1120012,,,,,,,2025-01-06,1,,,,,エフティーケー,0
1747,8010005039348,新規,0,2025-01-06,2025-01-06,一般社団法人ＣｈｅｆＭｕｓｅ,,その他の設立登記法人,東京都,中央区,築地３丁目１３番５号,,13,102,1040045,,,,,,,2025-01-06,1,,,,,シェミューズ,0
1751,8010401187320,新規,0,2025-01-06,2025-01-06,株式会社カイドウ,,株式会社,東京都,港区,港南１丁目９番３６号エキスパートオフィス,,13,103,1080075,,,,,,,2025-01-06,1,,,,,カイドウ,0
1753,8010501053414,新規,0,2025-01-06,2025-01-06,株式会社今村ガラス,,株式会社,東京都,台東区,竜泉３丁目９番７号,,13,106,1100012,,,,,,,2025-01-06,1,,,,,イマムラガラス,0
1764,8010701046985,新規,0,2025-01-06,2025-01-06,雲乗株式会社,,株式会社,東京都,品川区,東五反田５丁目２２番５－２１０Ａ号,,13,109,1410022,,,,,,,2025-01-06,1,,,,,ウンジョウ,0
1765,8010701047050,新規,0,2025-01-06,2025-01-06,株式会社エトワール,,株式会社,東京都,品川区,北品川４丁目３番５号,,13,109,1400001,,,,,,,2025-01-06,1,,,,,エトワール,0
1766,8010701047059,新規,0,2025-01-06,2025-01-06,株式会社ＴＷ　ｃｏｎｓｕｌｔｉｎｇ,,株式会社,東京都,品川区,上大崎１丁目１７－１２,,13,109,1410021,,,,,,,2025-01-06,1,,,,,ティーダブリュウコンサルティング,0
1768,8010801035715,新規,0,2025-01-06,2025-01-06,池上建設ホールディングス株式会社,,株式会社,東京都,大田区,池上４丁目１５番５号,,13,111,1460082,,,,,,,2025-01-06,1,,,,,イケガミケンセツホールディングス,0
1770,8010901056504,新規,0,2025-01-06,2025-01-06,美佳株式会社,,株式会社,東京都,世田谷区,経堂１丁目３６番４号,,13,112,1560052,,,,,,,2025-01-06,1,,,,,ミカ,0
1771,8010901056594,新規,0,2025-01-06,2025-01-06,株式会社ＢＵＩＬＤＳ,,株式会社,東京都,世田谷区,深沢２丁目１番１３－１３０３号,,13,112,1580081,,,,,,,2025-01-06,1,,,,,ビルズ,0
1773,8010903009600,新規,0,2025-01-06,2025-01-06,合同会社ダイユー,,合同会社,東京都,世田谷区,成城６丁目９番７号,,13,112,1570066,,,,,,,2025-01-06,1,,,,,ダイユー,0
1774,8010903009617,新規,0,2025-01-06,2025-01-06,合同会社ヴェルデ,,合同会社,東京都,世田谷区,大原１丁目４１番４号,,13,112,1560041,,,,,,,2025-01-06,1,,,,,ヴェルデ,0
1782,8011101110092,新規,0,2025-01-06,2025-01-06,株式会社協同アウトドアパワープロダクツ,,株式会社,東京都,新宿区,市谷本村町２番１号クイーポビル７０１号室,,13,104,1620845,,,,,,,2025-01-06,1,,,,,キョウドウアウトドアパワープロダクツ,0
1783,8011101110101,新規,0,2025-01-06,2025-01-06,メイカサブランカ株式会社,,株式会社,東京都,新宿区,北新宿１丁目２９番１２－８０３号,,13,104,1690074,,,,,,,2025-01-06,1,,,,,メイカサブランカ,0
1784,8011101110118,新規,0,2025-01-06,2025-01-06,日本端末クリアサービス株式会社,,株式会社,東京都,新宿区,若松町１５番地７号１２階１２０２番,,13,104,1620056,,,,,,,2025-01-06,1,,,,,ニホンタンマツクリアサービス,0
1788,8011201026032,新規,0,2025-01-06,2025-01-06,株式会社ＥＮ‐ＪＩＮ,,株式会社,東京都,中野区,上鷺宮５丁目１６番５号２０１,,13,114,1650031,,,,,,,2025-01-06,1,,,,,エンジン,0
1789,8011401026699,新規,0,2025-01-06,2025-01-06,株式会社宮内管工,,株式会社,東京都,板橋区,中板橋３１番２号,,13,119,1730016,,,,,,,2025-01-06,1,,,,,ミヤウチカンコウ,0
1791,8011601028322,新規,0,2025-01-06,2025-01-06,Ｏｐｔｉｍｕｓ　Ｃａｐｉｔａｌ株式会社,,株式会社,東京都,練馬区,平和台１丁目１９番１３号,,13,120,1790083,,,,,,,2025-01-06,1,,,,,オプティマスキャピタル,0
1792,8012301014208,新規,0,2025-01-06,2025-01-06,ネクストイノベーション株式会社,,株式会社,東京都,町田市,野津田町１８１７番地２０,,13,209,1950063,,,,,,,2025-01-06,1,,,,,ネクストイノベーション,0
1794,8012403006879,新規,0,2025-01-06,2025-01-06,合同会社ＶＡＬＯＲ　ＪＡＰＡＮ,,合同会社,東京都,武蔵野市,吉祥寺南町１丁目３２番２３号,,13,203,1800003,,,,,,,2025-01-06,1,,,,,バロアジャパン,0
1795,8012801023666,新規,0,2025-01-06,2025-01-06,株式会社Ｓｉｂｌｉｓ,,株式会社,東京都,国立市,東１丁目４番１５号,,13,215,1860002,,,,,,,2025-01-06,1,,,,,シブリス,0
1804,8020001160767,新規,0,2025-01-06,2025-01-06,エースコンサルティング株式会社,,株式会社,神奈川県,横浜市金沢区,釜利谷東１丁目２７番３号,,14,108,2360042,,,,,,,2025-01-06,1,,,,,エースコンサルティング,0
1805,8020001160783,新規,0,2025-01-06,2025-01-06,キャリーワン株式会社,,株式会社,神奈川県,横浜市神奈川区,西寺尾３丁目５番７号,,14,102,2210001,,,,,,,2025-01-06,1,,,,,キャリーワン,0
1812,8020005016668,新規,0,2025-01-06,2025-01-06,医療法人社団桜文会,,その他の設立登記法人,神奈川県,川崎市中原区,木月住吉町１２番３号,,14,133,2110021,,,,,,,2025-01-06,1,,,,,オウブンカイ,0
1813,8021001084089,新規,0,2025-01-06,2025-01-06,Ｐｒｏｖｉａ株式会社,,株式会社,神奈川県,藤沢市,羽鳥１丁目１番１～１３４号,,14,205,2510056,,,,,,,2025-01-06,1,,,,,プロヴィア,0
1814,8021001084130,新規,0,2025-01-06,2025-01-06,株式会社マインスカイ,,株式会社,神奈川県,小田原市,久野７１番地の４,,14,206,2500055,,,,,,,2025-01-06,1,,,,,マインスカイ,0
1815,8021001084139,新規,0,2025-01-06,2025-01-06,株式会社ビルドアップ,,株式会社,神奈川県,横須賀市,大滝町１丁目２７番地日吉ビル４階,,14,201,2380008,,,,,,,2025-01-06,1,,,,,ビルドアップ,0
1818,8021003015397,新規,0,2025-01-06,2025-01-06,合同会社Ｓａｍｐｏ,,合同会社,神奈川県,足柄下郡湯河原町,門川６３―１,,14,384,2590302,,,,,,,2025-01-06,1,,,,,サンポ,0
1819,8021003015406,新規,0,2025-01-06,2025-01-06,合同会社凱,,合同会社,神奈川県,大和市,下鶴間２５４１番地１０,,14,213,2420001,,,,,,,2025-01-06,1,,,,,カチドキ,0
1820,8030001164098,新規,0,2025-01-06,2025-01-06,株式会社ｖａｌｕａｂｌｅ,,株式会社,埼玉県,さいたま市大宮区,桜木町２丁目１６１番地２大宮ＹＫビルＢ１階,,11,103,3300854,,,,,,,2025-01-06,1,,,,,ヴァリュアブル,0
1821,8030001164156,新規,0,2025-01-06,2025-01-06,株式会社西島,,株式会社,埼玉県,さいたま市見沼区,大字片柳２６８番地２７,,11,104,3370024,,,,,,,2025-01-06,1,,,,,ニシジマ,0
1822,8030001164172,新規,0,2025-01-06,2025-01-06,株式会社ＶＩＴ,,株式会社,埼玉県,熊谷市,上之３７８２番地１６,,11,202,3600012,,,,,,,2025-01-06,1,,,,,ビット,0
1823,8030001164230,新規,0,2025-01-06,2025-01-06,株式会社ｃｌａｓｓ,,株式会社,埼玉県,川越市,大字木野目３７２番地５,,11,201,3500016,,,,,,,2025-01-06,1,,,,,クラス,0
1827,8030003025777,新規,0,2025-01-06,2025-01-06,合同会社メティス,,合同会社,埼玉県,東松山市,大字下青鳥１３７８番地８,,11,212,3550075,,,,,,,2025-01-06,1,,,,,メティス,0
1829,8040001136682,新規,0,2025-01-06,2025-01-06,株式会社Ｍ‐ｍｅｄｉａ,,株式会社,千葉県,習志野市,鷺沼２丁目７番９号,,12,216,2750014,,,,,,,2025-01-06,1,,,,,エムメディア,0
1830,8040001136757,新規,0,2025-01-06,2025-01-06,株式会社幾星霜,,株式会社,千葉県,大網白里市,小中１１２７,,12,239,2993246,,,,,,,2025-01-06,1,,,,,イクセイソウ,0
1831,8040001136773,新規,0,2025-01-06,2025-01-06,株式会社イサミ装蹄所,,株式会社,千葉県,千葉市若葉区,貝塚町１３１２番地１０７,,12,104,2640023,,,,,,,2025-01-06,1,,,,,イサミソウテイジョ,0
1832,8040001136781,新規,0,2025-01-06,2025-01-06,株式会社ＫＲＹ,,株式会社,千葉県,船橋市,山手１丁目１番３－３１０号,,12,204,2730045,,,,,,,2025-01-06,1,,,,,ケーアールワイ,0
1833,8040001136798,新規,0,2025-01-06,2025-01-06,株式会社ＫＡＫＥＨＩ,,株式会社,千葉県,八千代市,大和田新田４８１番地５１,,12,221,2760046,,,,,,,2025-01-06,1,,,,,カケヒ,0
1836,8040003026502,新規,0,2025-01-06,2025-01-06,合同会社久保圭紀,,合同会社,千葉県,松戸市,西馬橋幸町６６－６ＬＥＡＦＭＯＯＮ１Ｂ,,12,207,2710047,,,,,,,2025-01-06,1,,,,,クボヨシノリ,0
1837,8040003026535,新規,0,2025-01-06,2025-01-06,合同会社ひとてま,,合同会社,千葉県,流山市,市野谷４３５ヴェールデオトー２０３,,12,220,2700137,,,,,,,2025-01-06,1,,,,,ヒトテマ,0
1844,8060003005371,新規,0,2025-01-06,2025-01-06,ＴＮＣＴ合同会社,,合同会社,栃木県,宇都宮市,東宿郷５丁目３番７号チサンマンション１０３,,09,201,3210953,,,,,,,2025-01-06,1,,,,,ティーエヌシーティー,0
1847,8070003005726,新規,0,2025-01-06,2025-01-06,合同会社リハクエスト,,合同会社,群馬県,前橋市,上泉町３４６４－１,,10,201,3710007,,,,,,,2025-01-06,1,,,,,リハクエスト,0
1848,8070003005734,新規,0,2025-01-06,2025-01-06,合同会社コネクト,,合同会社,群馬県,高崎市,栄町１８番８号,,10,202,3700841,,,,,,,2025-01-06,1,,,,,コネクト,0
1853,8100005013269,新規,0,2025-01-06,2025-01-06,一般社団法人ハッピーフィッシュプロジェクト,,その他の設立登記法人,長野県,岡谷市,銀座２丁目２番２２号,,20,204,3940022,,,,,,,2025-01-06,1,,,,,ハッピーフィッシュプロジェクト,0
1862,8120001271323,新規,0,2025-01-06,2025-01-06,久長国際株式会社,,株式会社,大阪府,大阪市西成区,北津守２丁目５番５－１６号,,27,122,5570061,,,,,,,2025-01-06,1,,,,,キュウチョウコクサイ,0
1863,8120001271488,新規,0,2025-01-06,2025-01-06,ＹＯＨＯ株式会社,,株式会社,大阪府,大阪市東淀川区,小松１丁目１１番１１－４０３号室,,27,114,5330004,,,,,,,2025-01-06,1,,,,,ヨーホー,0
1864,8120001271505,新規,0,2025-01-06,2025-01-06,株式会社インサイティア,,株式会社,大阪府,大阪市北区,梅田１丁目１－３大阪駅前第３ビル２９階１－１－１号室,,27,127,5300001,,,,,,,2025-01-06,1,,,,,インサイティア,0
1865,8120001271521,新規,0,2025-01-06,2025-01-06,Ｆａｉｔｈ株式会社,,株式会社,大阪府,大阪市北区,東天満１丁目２番１－２１０４号,,27,127,5300044,,,,,,,2025-01-06,1,,,,,フェイス,0
1866,8120001271562,新規,0,2025-01-06,2025-01-06,株式会社Ｐ＆ＵＡ技術研究所,,株式会社,大阪府,大阪市中央区,高麗橋１丁目７番７－１６１３号,,27,128,5410043,,,,,,,2025-01-06,1,,,,,ピーアンドユーエーギジュツケンキュウショ,0
1867,8120001271570,新規,0,2025-01-06,2025-01-06,株式会社グローバルアセットマネージメント,,株式会社,大阪府,大阪市平野区,平野本町３丁目１１番２２号スペリオ平野本町３０４,,27,126,5470044,,,,,,,2025-01-06,1,,,,,グローバルアセットマネージメント,0
1868,8120001271587,新規,0,2025-01-06,2025-01-06,Ｎｏｒｔｈ　Ｒｏｃｋ株式会社,,株式会社,大阪府,枚方市,楠葉野田３丁目５０番２号,,27,210,5731103,,,,,,,2025-01-06,1,,,,,ノースロック,0
1873,8120005024685,新規,0,2025-01-06,2025-01-06,一般社団法人ＰＮＳ,,その他の設立登記法人,大阪府,大阪市淀川区,加島３丁目中２番１０－２０１号,,27,123,5320031,,,,,,,2025-01-06,1,,,,,ピイエヌエス,0
1874,8120101070815,新規,0,2025-01-06,2025-01-06,株式会社ＴＲＹ‐Ａ,,株式会社,大阪府,和泉市,伏屋町３丁目２３番３３号,,27,219,5940031,,,,,,,2025-01-06,1,,,,,トライエース,0
1875,8120103006214,新規,0,2025-01-06,2025-01-06,合同会社ＪＯＹＰＨＡＲＥ,,合同会社,大阪府,河内長野市,南ケ丘３５－１９,,27,216,5860065,,,,,,,2025-01-06,1,,,,,ジョイファーレ,0
1877,8120903005480,新規,0,2025-01-06,2025-01-06,ＢＳＡ　ＴＲＡＤＩＮＧ合同会社,,合同会社,大阪府,茨木市,西駅前町８－４、Ａ－１号室,,27,211,5670032,,,,,,,2025-01-06,1,,,,,ビーエスエートレーディング,0
1879,8122001038784,新規,0,2025-01-06,2025-01-06,株式会社ＲＯＵＴＥ,,株式会社,大阪府,東大阪市,日下町１丁目１０－１８,,27,227,5798003,,,,,,,2025-01-06,1,,,,,ルート,0
1880,8122003003084,新規,0,2025-01-06,2025-01-06,合同会社Ｊ‐ｓｕｐｐｏｒｔ,,合同会社,大阪府,東大阪市,荒本１丁目７番２８－４０５号,,27,227,5770023,,,,,,,2025-01-06,1,,,,,ジェイサポート,0
1882,8130001078692,新規,0,2025-01-06,2025-01-06,ミヤムラグループ株式会社,,株式会社,京都府,京都市右京区,西院月双町１０５,,26,108,6150054,,,,,,,2025-01-06,1,,,,,ミヤムラグループ,0
1883,8130003010109,新規,0,2025-01-06,2025-01-06,合同会社サクシード,,合同会社,京都府,京都市伏見区,醍醐上山口町３１番地１３,,26,109,6011342,,,,,,,2025-01-06,1,,,,,サクシード,0
1885,8140001136887,新規,0,2025-01-06,2025-01-06,株式会社原直人設計事務所,,株式会社,兵庫県,尼崎市,武庫之荘本町２丁目９番２０－５０５号,,28,202,6610031,,,,,,,2025-01-06,1,,,,,ハラナオトセッケイジムショ,0
1890,8160001026442,新規,0,2025-01-06,2025-01-06,株式会社ｉｃｈｉｇｏ　ｉｃｈｉｅ,,株式会社,滋賀県,大津市,北小松８３－１,,25,201,5200501,,,,,,,2025-01-06,1,,,,,イチゴイチエ,0
1891,8160003003357,新規,0,2025-01-06,2025-01-06,ビワホームズ合同会社,,合同会社,滋賀県,愛知郡愛荘町,目加田８９４,,25,425,5291235,,,,,,,2025-01-06,1,,,,,ビワホームズ,0
1892,8170001018439,新規,0,2025-01-06,2025-01-06,株式会社クジゴジマネッジ,,株式会社,和歌山県,和歌山市,秋葉町４番３４号,,30,201,6410056,,,,,,,2025-01-06,1,,,,,クジゴジマネッジ,0
1900,8180001164678,新規,0,2025-01-06,2025-01-06,株式会社明豊,,株式会社,愛知県,名古屋市南区,北頭町４丁目１４番地（シャルマンコーポ北頭６０５号）,,23,112,4570827,,,,,,,2025-01-06,1,,,,,メイト,0
1901,8180001164760,新規,0,2025-01-06,2025-01-06,栄盛株式会社,,株式会社,愛知県,名古屋市中川区,野田１丁目２３７番地,,23,110,4540912,,,,,,,2025-01-06,1,,,,,エイセイ,0
1902,8180003027791,新規,0,2025-01-06,2025-01-06,合同会社ＰＬＡＹ　ＡＲＯＵＮＤ,,合同会社,愛知県,名古屋市熱田区,明野町４番１号４Ａ,,23,109,4560071,,,,,,,2025-01-06,1,,,,,プレイアラウンド,0
1903,8180005020893,新規,0,2025-01-06,2025-01-06,行政書士法人ＳｏｌａＲｉｓ,,その他の設立登記法人,愛知県,春日井市,下市場町３丁目３番地１３,,23,206,4860852,,,,,,,2025-01-06,1,,,,,ソラリス,0
1904,8180301039398,新規,0,2025-01-06,2025-01-06,株式会社リペ屋,,株式会社,愛知県,西尾市,吾妻町９３番地,,23,213,4450861,,,,,,,2025-01-06,1,,,,,リペヤ,0
1911,8220003003920,新規,0,2025-01-06,2025-01-06,合同会社ふじ丸商事,,合同会社,石川県,金沢市,三馬２丁目９０番地,,17,201,9218162,,,,,,,2025-01-06,1,,,,,フジマルショウジ,0
1912,8230001020685,新規,0,2025-01-06,2025-01-06,株式会社Ｇ‐Ｖｉｎｔａｇｅ松本建築,,株式会社,富山県,富山市,婦中町速星４８９番地６,,16,201,9392706,,,,,,,2025-01-06,1,,,,,ジービンテージマツモトケンチク,0
1915,8240001064302,新規,0,2025-01-06,2025-01-06,株式会社Ｒｏｓｅ　Ｆａｍｉｌｙ,,株式会社,広島県,広島市東区,牛田本町１丁目９番１６号,,34,102,7320066,,,,,,,2025-01-06,1,,,,,ローズファミリー,0
1916,8240001064310,新規,0,2025-01-06,2025-01-06,ＴＲＩＰＯＤ株式会社,,株式会社,広島県,福山市,神辺町字湯野１２９７番地２８,,34,207,7202121,,,,,,,2025-01-06,1,,,,,トライポッド,0
1919,8260001039772,新規,0,2025-01-06,2025-01-06,株式会社ＨａｉｒＭａｉｓｏｎＫｉｒａｒｉ,,株式会社,岡山県,岡山市北区,横井上２０９番地１,,33,101,7011145,,,,,,,2025-01-06,1,,,,,ヘアメゾンキラリ,0
1935,8290803004938,新規,0,2025-01-06,2025-01-06,合同会社Ａｍｉｗｓ,,合同会社,福岡県,田川郡川崎町,大字川崎１０６１－２ＴＩビル２０２,,40,605,8270003,,,,,,,2025-01-06,1,,,,,アミューズ,0
1941,8320003004545,新規,0,2025-01-06,2025-01-06,合同会社ｈｉｂｉｎｏプラス,,合同会社,大分県,大分市,六坊南町２番４０－２号,,44,201,8700842,,,,,,,2025-01-06,1,,,,,ヒビノプラス,0
1947,8370001052070,新規,0,2025-01-06,2025-01-06,株式会社ＫＮＵＣＫＬＥ　ＤＯＷＮ,,株式会社,宮城県,宮城郡利府町,春日字芦ノ口１８番地,00137506,04,406,9810102,,,,,,,2025-01-06,1,,,,,ナックルダウン,0
1948,8370001052095,新規,0,2025-01-06,2025-01-06,株式会社ブリッジワーク,,株式会社,宮城県,仙台市若林区,五橋３丁目１－３－１０１１,,04,103,9840022,,,,,,,2025-01-06,1,,,,,ブリッジワーク,0
1950,8370003006875,新規,0,2025-01-06,2025-01-06,合同会社ＹＳ,,合同会社,宮城県,亘理郡山元町,八手庭字北向７８番地１,,04,362,9892207,,,,,,,2025-01-06,1,,,,,ワイエス,0
1951,8370005010883,新規,0,2025-01-06,2025-01-06,医療法人うりぼうキッズクリニック,,その他の設立登記法人,宮城県,仙台市宮城野区,岩切分台３丁目１番５号,,04,102,9830828,,,,,,,2025-01-06,1,,,,,ウリボウキッズクリニック,0
1953,8410003004024,新規,0,2025-01-06,2025-01-06,合同会社Ａｌｌ‐Ｌｉｎｅ,,合同会社,秋田県,由利本荘市,川口字大覚１８２,,05,210,0150051,,,,,,,2025-01-06,1,,,,,オールライン,0
1956,8420003003041,新規,0,2025-01-06,2025-01-06,合同会社ＨＤカンパニー,,合同会社,青森県,青森市,大字羽白字富田３３５番地１３,,02,201,0380058,,,,,,,2025-01-06,1,,,,,エッチディーカンパニー,0
1959,8430001093356,新規,0,2025-01-06,2025-01-06,株式会社ＥｍｂｅｒＴａｂｌｅ,,株式会社,北海道,札幌市中央区,南五条西４丁目９番地３ライラックビル３階,,01,101,0640805,,,,,,,2025-01-06,1,,,,,エンバーテーブル,0
1960,8430001093389,新規,0,2025-01-06,2025-01-06,北友株式会社,,株式会社,北海道,北広島市,輪厚中央４丁目１番地２,,01,234,0611268,,,,,,,2025-01-06,1,,,,,ホクユウ,0
1964,8430003017123,新規,0,2025-01-06,2025-01-06,合同会社ｉｎｇ,,合同会社,北海道,伊達市,上長和町３９９番地７,,01,233,0520036,,,,,,,2025-01-06,1,,,,,イング,0
1966,8440001009542,新規,0,2025-01-06,2025-01-06,株式会社Ｈ＆Ｒ,,株式会社,北海道,二海郡八雲町,東雲町７２－１,,01,346,0493105,,,,,,,2025-01-06,1,,,,,エイチアンドアール,0
1968,8450003002577,新規,0,2025-01-06,2025-01-06,合同会社ＥＮＩＳＨＩ,,合同会社,北海道,利尻郡利尻町,沓形字本町５４番地３,,01,518,0970401,,,,,,,2025-01-06,1,,,,,エニシ,0
1969,8470001020513,新規,0,2025-01-06,2025-01-06,株式会社もりやま,,株式会社,香川県,善通寺市,稲木町４４３番地７,,37,204,7650022,,,,,,,2025-01-06,1,,,,,モリヤマ,0
1972,8500001026044,新規,0,2025-01-06,2025-01-06,株式会社Ｃｒｅｅｄ,,株式会社,愛媛県,今治市,黄金町３丁目１番地６エンツォ今治３０２号,,38,202,7940037,,,,,,,2025-01-06,1,,,,,クリード,0
1976,8700150128463,新規,0,2025-01-06,2025-01-06,ＩＭＳ　Ｎａｎｏｆａｂｒｉｃａｔｉｏｎ　ＧｍｂＨ,,外国会社等,東京都,港区,元麻布３丁目１番６号,,13,103,1060046,オーストリア共和国、ブルン・アム・ゲビルゲ２３４５、ヴォルフホルツガッセ２０－２４,,,,,,2025-01-06,1,,,,,アイエムエスナノフアブリケーシヨンゲーエムベーハー,0
1984,9010001251021,新規,0,2025-01-06,2025-01-06,株式会社Ｈａｐｐｙ　Ｗｉｎｇｓ,,株式会社,東京都,中央区,勝どき１丁目３番１－４００９号,,13,102,1040054,,,,,,,2025-01-06,1,,,,,ハッピーウィングス,0
1985,9010001251112,新規,0,2025-01-06,2025-01-06,株式会社ｍｉｉｔａｓｏ,,株式会社,東京都,中央区,銀座１丁目１２番４号Ｎ＆ＥＢＬＤ．６Ｆ,,13,102,1040061,,,,,,,2025-01-06,1,,,,,ミータソ,0
1987,9010003045909,新規,0,2025-01-06,2025-01-06,オルタナレジ１合同会社,,合同会社,東京都,千代田区,丸の内１丁目４番１号東京共同会計事務所内,,13,101,1000005,,,,,,,2025-01-06,1,,,,,オルタナレジワン,0
1988,9010003045925,新規,0,2025-01-06,2025-01-06,シックスオフィスマネジメント合同会社,,合同会社,東京都,千代田区,丸の内１丁目４番１号東京共同会計事務所内,,13,101,1000005,,,,,,,2025-01-06,1,,,,,シックスオフィスマネジメント,0
1996,9010701047058,新規,0,2025-01-06,2025-01-06,ＡＩ　ｃｏａｃｈ株式会社,,株式会社,東京都,品川区,西五反田１丁目３２－１１ー５階,,13,109,1410031,,,,,,,2025-01-06,1,,,,,エーアイコーチ,0
1998,9010703007431,新規,0,2025-01-06,2025-01-06,合同会社ダビヨン,,合同会社,東京都,品川区,上大崎３丁目３番９－５２２号,,13,109,1410021,,,,,,,2025-01-06,1,,,,,ダビヨン,0
2000,9010803005228,新規,0,2025-01-06,2025-01-06,合同会社秀峰企画,,合同会社,東京都,大田区,池上７丁目１１－６－３０４,,13,111,1460082,,,,,,,2025-01-06,1,,,,,シュウホウキカク,0
2001,9010901056569,新規,0,2025-01-06,2025-01-06,株式会社ＯＶＬＥ,,株式会社,東京都,世田谷区,下馬５丁目１０番１号プリメーラ西岡２０３,,13,112,1540002,,,,,,,2025-01-06,1,,,,,オヴレ,0
2002,9010905004714,新規,0,2025-01-06,2025-01-06,一般社団法人ｍｉｃｈｉｔａｋｅ,,その他の設立登記法人,東京都,世田谷区,桜上水３丁目６番５号,,13,112,1560045,,,,,,,2025-01-06,1,,,,,ミチタケ,0
2008,9011001166812,新規,0,2025-01-06,2025-01-06,ＹＹサポート株式会社,,株式会社,東京都,渋谷区,道玄坂１丁目１０番８号渋谷道玄坂東急ビル２Ｆ―Ｃ,,13,113,1500043,,,,,,,2025-01-06,1,,,,,ワイワイサポート,0
2014,9011101110091,新規,0,2025-01-06,2025-01-06,株式会社＿匠,00137499,株式会社,東京都,新宿区,新宿６丁目２７－４６－７０４,,13,104,1600022,,,,,,,2025-01-06,1,,,,,トキショウ,0
2015,9011101110109,新規,0,2025-01-06,2025-01-06,株式会社ＫＡＩＭＡＫＵ,,株式会社,東京都,新宿区,西新宿６丁目５番１号新宿アイランドタワー２Ｆ,,13,104,1600023,,,,,,,2025-01-06,1,,,,,カイマク,0
2017,9011103015330,新規,0,2025-01-06,2025-01-06,ＭＲＢ１合同会社,,合同会社,東京都,新宿区,四谷２丁目９番地１５東京ユナイテッド綜合事務所内,,13,104,1600004,,,,,,,2025-01-06,1,,,,,エムアールビーワン,0
2020,9011201026023,新規,0,2025-01-06,2025-01-06,Ｇステージ株式会社,,株式会社,東京都,中野区,大和町２丁目４９番１１号合田ビル３階,,13,114,1650034,,,,,,,2025-01-06,1,,,,,ジーステージ,0
2023,9011601028338,新規,0,2025-01-06,2025-01-06,株式会社ケイユウ,,株式会社,東京都,練馬区,豊玉北３丁目２８番９－３０８号,,13,120,1760012,,,,,,,2025-01-06,1,,,,,ケイユウ,0
2025,9011801045364,新規,0,2025-01-06,2025-01-06,宏蒙株式会社,,株式会社,東京都,葛飾区,水元２丁目１０番７号エリービル１２０７,,13,122,1250032,,,,,,,2025-01-06,1,,,,,コウモウ,0
2026,9011801045372,新規,0,2025-01-06,2025-01-06,株式会社三水,,株式会社,東京都,足立区,花畑６丁目２９番２７号１Ｆ,,13,121,1210061,,,,,,,2025-01-06,1,,,,,サンズイ,0
2028,9012801023665,新規,0,2025-01-06,2025-01-06,株式会社オフィスポワロ,,株式会社,東京都,東大和市,奈良橋２丁目６１２番地,,13,220,2070031,,,,,,,2025-01-06,1,,,,,オフィスポワロ,0
2040,9020001160758,新規,0,2025-01-06,2025-01-06,ＢＡＳＥ株式会社,,株式会社,神奈川県,横浜市瀬谷区,阿久和東４丁目２７番２号,,14,114,2460023,,,,,,,2025-01-06,1,,,,,ベース,0
2041,9020001160790,新規,0,2025-01-06,2025-01-06,株式会社オイラ制作所,,株式会社,神奈川県,川崎市中原区,中丸子１２６１番地１,,14,133,2110012,,,,,,,2025-01-06,1,,,,,オイラセイサクジョ,0
2044,9020003027518,新規,0,2025-01-06,2025-01-06,合同会社富ヶ谷,,合同会社,神奈川県,横浜市都筑区,川和町２２８９番地３,,14,118,2240057,,,,,,,2025-01-06,1,,,,,トミガヤ,0
2046,9021001084105,新規,0,2025-01-06,2025-01-06,株式会社志永,,株式会社,神奈川県,藤沢市,大庭５１２３番地の４,,14,205,2510861,,,,,,,2025-01-06,1,,,,,シナガ,0
2047,9021001084138,新規,0,2025-01-06,2025-01-06,ＢＵＩＬＴ　ＦＯＲ　ＳＰＥＥＤ株式会社,,株式会社,神奈川県,藤沢市,白旗２８２８－１,,14,205,2510000,,,,,,,2025-01-06,1,,,,,ビルトフォースピード,0
2048,9021003015388,新規,0,2025-01-06,2025-01-06,モダンカイゼン合同会社,,合同会社,神奈川県,大和市,柳橋１丁目１０番地３レクセルマンション大和２０４号山口方,,14,213,2420022,,,,,,,2025-01-06,1,,,,,モダンカイゼン,0
2049,9021003015396,新規,0,2025-01-06,2025-01-06,ＦＹＳｂｌｏｏｍ合同会社,,合同会社,神奈川県,藤沢市,葛原２１６４番地の３,,14,205,2520822,,,,,,,2025-01-06,1,,,,,エフワイエスブルーム,0
2054,9030001164139,新規,0,2025-01-06,2025-01-06,さんふぃーるど株式会社,,株式会社,埼玉県,さいたま市南区,辻１丁目８番６号,00137493,11,108,3360026,,,,,,,2025-01-06,1,,,,,サンフィールド,0
2055,9030001164147,新規,0,2025-01-06,2025-01-06,株式会社江口工業,,株式会社,埼玉県,さいたま市浦和区,東仲町１５番１８号ソレイユ浦和３－４０１,,11,107,3300056,,,,,,,2025-01-06,1,,,,,エグチコウギョウ,0
2056,9030001164196,新規,0,2025-01-06,2025-01-06,株式会社にくきゅう,,株式会社,埼玉県,鶴ヶ島市,大字上広谷３９１－６５,,11,241,3502203,,,,,,,2025-01-06,1,,,,,ニクキュウ,0
2058,9030003025768,新規,0,2025-01-06,2025-01-06,ＯＭＴ合同会社,,合同会社,埼玉県,幸手市,南３丁目１０番地６号カームハイツ１０１,,11,240,3400156,,,,,,,2025-01-06,1,,,,,オーエムティ,0
2061,9040001136748,新規,0,2025-01-06,2025-01-06,株式会社Ｈ’ＦＡＣＴＯＲＹ,,株式会社,千葉県,松戸市,紙敷１丁目１６番地の１,,12,207,2702221,,,,,,,2025-01-06,1,,,,,エイチファクトリー,0
2062,9040001136806,新規,0,2025-01-06,2025-01-06,志誠工業株式会社,,株式会社,千葉県,千葉市中央区,星久喜町９６１番地１１,,12,101,2600808,,,,,,,2025-01-06,1,,,,,シセイコウギョウ,0
2063,9040001136855,新規,0,2025-01-06,2025-01-06,ヒューマンリング株式会社,,株式会社,千葉県,成田市,飯仲３３６番地３１,,12,211,2860046,,,,,,,2025-01-06,1,,,,,ヒューマンリング,0
2064,9040003026492,新規,0,2025-01-06,2025-01-06,合同会社ＢｌｕｅＡｇｅ,,合同会社,千葉県,船橋市,本町６丁目１８－１９第３山中ビル４０１号室,,12,204,2730005,,,,,,,2025-01-06,1,,,,,ブルーエイジ,0
2065,9040003026518,新規,0,2025-01-06,2025-01-06,合同会社ｏｎｅ　ｂｙ　ｏｎｅ,,合同会社,千葉県,柏市,豊住５丁目１４番２２号宮原ビル１階,,12,217,2770071,,,,,,,2025-01-06,1,,,,,ワンバイワン,0
2072,9070001042489,新規,0,2025-01-06,2025-01-06,株式会社尋要,,株式会社,群馬県,太田市,世良田町１５１１番地２,,10,205,3700426,,,,,,,2025-01-06,1,,,,,ジンヨウ,0
2076,9080401027659,新規,0,2025-01-06,2025-01-06,株式会社マルスギ,,株式会社,静岡県,浜松市中央区,三方原町７５３番地の２,,22,138,4338105,,,,,,,2025-01-06,1,,,,,マルスギ,0
2078,9090005007668,新規,0,2025-01-06,2025-01-06,一般社団法人ＳＤＧｓ環境保全推進協会,,その他の設立登記法人,山梨県,甲斐市,西八幡２３０２－５,,19,210,4000117,,,,,,,2025-01-06,1,,,,,エスディジーズカンキョウホゼンスイシンキョウカイ,0
2079,9100001038153,新規,0,2025-01-06,2025-01-06,株式会社後町園芸ＳＫＹＷＯＲＫＳ,,株式会社,長野県,諏訪市,大字中洲３９１８番地２,,20,206,3920015,,,,,,,2025-01-06,1,,,,,ゴチョウエンゲイスカイワークス,0
2094,9120001271339,新規,0,2025-01-06,2025-01-06,宮住興産株式会社,,株式会社,大阪府,大阪市北区,梅田１丁目１番３－７００号大阪駅前第３ビル７１７号室,,27,127,5300001,,,,,,,2025-01-06,1,,,,,ミヤズミコウサン,0
2095,9120001271413,新規,0,2025-01-06,2025-01-06,株式会社フジマサ,,株式会社,大阪府,大阪市西成区,千本北２丁目２５番６号,,27,122,5570053,,,,,,,2025-01-06,1,,,,,フジマサ,0
2096,9120001271470,新規,0,2025-01-06,2025-01-06,株式会社レガシートラスト大阪,,株式会社,大阪府,大阪市中央区,瓦屋町３丁目２番１４－１２０５,,27,128,5420066,,,,,,,2025-01-06,1,,,,,レガシートラストオオサカ,0
2097,9120001271553,新規,0,2025-01-06,2025-01-06,株式会社ＮＫＯ,,株式会社,大阪府,寝屋川市,小路南町１７番９号,,27,215,5720866,,,,,,,2025-01-06,1,,,,,エヌケイオー,0
2098,9120001271561,新規,0,2025-01-06,2025-01-06,株式会社嵐,,株式会社,大阪府,大阪市城東区,蒲生４丁目２０番７号,,27,118,5360016,,,,,,,2025-01-06,1,,,,,ラン,0
2099,9120001271628,新規,0,2025-01-06,2025-01-06,株式会社竜南Ｇｒｏｕｐ,,株式会社,大阪府,大阪市浪速区,塩草３丁目７番５－５０５号,,27,111,5560024,,,,,,,2025-01-06,1,,,,,リュウナングループ,0
2103,9120003028282,新規,0,2025-01-06,2025-01-06,合同会社浅能,,合同会社,大阪府,大阪市住吉区,遠里小野４丁目７番１６号,,27,120,5580032,,,,,,,2025-01-06,1,,,,,アサノ,0
2107,9120101070814,新規,0,2025-01-06,2025-01-06,ＨＵＧＥ　ＪＡＰＡＮ株式会社,,株式会社,大阪府,泉南郡熊取町,紺屋１丁目２５番１１号,,27,361,5900412,,,,,,,2025-01-06,1,,,,,ヒュージジャパン,0
2108,9120101070822,新規,0,2025-01-06,2025-01-06,アサイードリーム株式会社,,株式会社,大阪府,岸和田市,土生町４丁目３番１号,,27,202,5960825,,,,,,,2025-01-06,1,,,,,アサイードリーム,0
2109,9120101070839,新規,0,2025-01-06,2025-01-06,株式会社ディアルーツ,,株式会社,大阪府,富田林市,五軒家１丁目２０－１７,,27,214,5840079,,,,,,,2025-01-06,1,,,,,ディアルーツ,0
2110,9120101070847,新規,0,2025-01-06,2025-01-06,株式会社ＢＯＮＮＩＥ　ＣＬＹＤＥ,,株式会社,大阪府,堺市中区,深井沢町３２８２ＫＭＫ・アドバンスビル５０３号室,,27,142,5998236,,,,,,,2025-01-06,1,,,,,ボニークライド,0
2111,9120103006213,新規,0,2025-01-06,2025-01-06,合同会社ＮＴＫ,,合同会社,大阪府,堺市西区,鳳中町８丁３番地９,,27,144,5938327,,,,,,,2025-01-06,1,,,,,エヌティーケー,0
2113,9120901050222,新規,0,2025-01-06,2025-01-06,株式会社誠電通,,株式会社,大阪府,高槻市,宮田町２丁目３０番２号宮田コーポ１Ｆ３号,,27,207,5691142,,,,,,,2025-01-06,1,,,,,マコトデンツウ,0
2114,9130001078691,新規,0,2025-01-06,2025-01-06,株式会社ＬＥ　ＳＩＬＬＡＧＥ,,株式会社,京都府,京都市下京区,綾小路通高倉西入神明町２３３－２,,26,106,6008092,,,,,,,2025-01-06,1,,,,,ルシヤージュ,0
2115,9130001078709,新規,0,2025-01-06,2025-01-06,京安＿株式会社,00137508,株式会社,京都府,京都市南区,東九条北烏丸町２４番地８,,26,107,6018017,,,,,,,2025-01-06,1,,,,,キョウアンキン,0
2118,9130005017258,新規,0,2025-01-06,2025-01-06,一般社団法人ゆいまある舎,,その他の設立登記法人,京都府,向日市,寺戸町二ノ坪２０番地の６２,,26,208,6170002,,,,,,,2025-01-06,1,,,,,ユイマアルシャ,0
2122,9140001136886,新規,0,2025-01-06,2025-01-06,株式会社シンツー,,株式会社,兵庫県,神戸市東灘区,住吉東町２丁目４番３４－３０５号,,28,101,6580052,,,,,,,2025-01-06,1,,,,,シンツー,0
2125,9140003021467,新規,0,2025-01-06,2025-01-06,合同会社ＦＫハウス,,合同会社,兵庫県,西宮市,二見町１４－１８－２４５,,28,204,6638111,,,,,,,2025-01-06,1,,,,,エフケイハウス,0
2126,9140005027330,新規,0,2025-01-06,2025-01-06,一般社団法人Ｓｕｎｎｙｓｉｄｅ,,その他の設立登記法人,兵庫県,伊丹市,安堂寺町３丁目３番地５,,28,207,6640864,,,,,,,2025-01-06,1,,,,,サニーサイド,0
2129,9160001026458,新規,0,2025-01-06,2025-01-06,株式会社ＹＡＭＡＭＯＴＯ,,株式会社,滋賀県,大津市,大江５丁目３３番１８号,,25,201,5202141,,,,,,,2025-01-06,1,,,,,ヤマモト,0
2130,9160005011365,新規,0,2025-01-06,2025-01-06,労働者協同組合法人たすき星,,その他の設立登記法人,滋賀県,守山市,水保町１５４１番地,,25,207,5240102,,,,,,,2025-01-06,1,,,,,タスキボシ,0
2131,9170001018438,新規,0,2025-01-06,2025-01-06,株式会社ＡＤ　ＫＡＮＡＴＡＮＩ,,株式会社,和歌山県,和歌山市,有本３０９番地９,,30,201,6408390,,,,,,,2025-01-06,1,,,,,アドカナタニ,0
2132,9180001164842,新規,0,2025-01-06,2025-01-06,株式会社Ｓｅｅｄ　ｆｏｒ,,株式会社,愛知県,名古屋市緑区,東神の倉２丁目１９２５番地の１１,,23,114,4580808,,,,,,,2025-01-06,1,,,,,シードフォー,0
2134,9180003027808,新規,0,2025-01-06,2025-01-06,合同会社ＬＭコンサルティング,,合同会社,愛知県,名古屋市中川区,長良町４丁目８５番地,,23,110,4540815,,,,,,,2025-01-06,1,,,,,エルエムコンサルティング,0
2137,9180301039372,新規,0,2025-01-06,2025-01-06,興和ホールディングス株式会社,,株式会社,愛知県,豊田市,大林町８丁目２０番地,,23,211,4730902,,,,,,,2025-01-06,1,,,,,コウワホールディングス,0
2138,9180301039380,新規,0,2025-01-06,2025-01-06,株式会社大界,,株式会社,愛知県,西尾市,下町大道４８番地４,,23,213,4450891,,,,,,,2025-01-06,1,,,,,ダイカイ,0
2139,9180301039389,新規,0,2025-01-06,2025-01-06,株式会社グランドビジョン,,株式会社,愛知県,岡崎市,吹矢町６７番地,,23,202,4440862,,,,,,,2025-01-06,1,,,,,グランドビジョン,0
2145,9200003006635,新規,0,2025-01-06,2025-01-06,Ａｍａｕｔａ　Ｃｏｒｐｏｒａｔｉｏｎ合同会社,,合同会社,岐阜県,各務原市,那加土山町２丁目２３１番地１,,21,213,5040041,,,,,,,2025-01-06,1,,,,,アマウタコーポレーション,0
2146,9200005013704,新規,0,2025-01-06,2025-01-06,永野税理士法人,,その他の設立登記法人,岐阜県,岐阜市,城東通２丁目４８番地３,,21,201,5008441,,,,,,,2025-01-06,1,,,,,ナガノ,0
2157,9240001029403,新規,0,2025-01-06,2025-01-06,株式会社リゾートホテルベラビスタ境ガ浜,,株式会社,広島県,福山市,沼隈町大字常石１０８３番地,,34,207,7200313,,,,,,,2025-01-06,1,,,,,リゾートホテルベラビスタサカイガハマ,0
2158,9240001064318,新規,0,2025-01-06,2025-01-06,ｋｅｎｉｙ　ｃｏｒｐｏｒａｔｉｏｎ株式会社,,株式会社,広島県,三次市,下川立町４３７番地,,34,209,7296333,,,,,,,2025-01-06,1,,,,,ケニーコーポレーション,0
2159,9240001064326,新規,0,2025-01-06,2025-01-06,株式会社瀬戸内アセット,,株式会社,広島県,広島市中区,東千田町１丁目１番１０４－３－１９０６号,,34,101,7300053,,,,,,,2025-01-06,1,,,,,セトウチアセット,0
2160,9240003007002,新規,0,2025-01-06,2025-01-06,合同会社ＬＵＡＮＡ,,合同会社,広島県,福山市,明王台５丁目１４番１２号,,34,207,7200834,,,,,,,2025-01-06,1,,,,,ルアナ,0
2165,9260001039747,新規,0,2025-01-06,2025-01-06,株式会社Ｈ＆Ｓ,,株式会社,岡山県,倉敷市,吉岡２０４番地１吉岡ビル１階東棟,,33,202,7100842,,,,,,,2025-01-06,1,,,,,エイチアンドエス,0
2166,9260001039755,新規,0,2025-01-06,2025-01-06,イノウエ株式会社,,株式会社,岡山県,岡山市北区,津高台４丁目２０５２番地１６,,33,101,7011151,,,,,,,2025-01-06,1,,,,,イノウエ,0
2167,9260001039763,新規,0,2025-01-06,2025-01-06,シニアと家族のミカタ株式会社,,株式会社,岡山県,岡山市中区,原尾島３丁目８番２７号,,33,102,7038235,,,,,,,2025-01-06,1,,,,,シニアトカゾクノミカタ,0
2168,9260003005020,新規,0,2025-01-06,2025-01-06,合同会社リュミエール,,合同会社,岡山県,岡山市北区,表町３丁目８－１表町コーポ２０２,,33,101,7000822,,,,,,,2025-01-06,1,,,,,リュミエール,0
2170,9270001009113,新規,0,2025-01-06,2025-01-06,株式会社Ｂａｕｍ　Ｂａｕｍ,,株式会社,鳥取県,東伯郡琴浦町,大字釛５６７番地１,,31,371,6892355,,,,,,,2025-01-06,1,,,,,バウムバウム,0
2171,9280001009327,新規,0,2025-01-06,2025-01-06,株式会社ココラ,,株式会社,島根県,松江市,奥谷町３２５番地ＭＡビル２階Ｄ,,32,201,6900872,,,,,,,2025-01-06,1,,,,,ココラ,0
2174,9290001108409,新規,0,2025-01-06,2025-01-06,株式会社ＮＯＣＴＵＡ,,株式会社,福岡県,福岡市中央区,舞鶴３丁目１番２２号舞鶴Ｓビル４０５,,40,133,8100073,,,,,,,2025-01-06,1,,,,,ノクチュア,0
2176,9290003016238,新規,0,2025-01-06,2025-01-06,Ｃ＆Ｓ合同会社,,合同会社,福岡県,糟屋郡宇美町,宇美中央２丁目３２７２－１,,40,341,8112128,,,,,,,2025-01-06,1,,,,,シーアンドエス,0
2178,9290801031157,新規,0,2025-01-06,2025-01-06,株式会社幸屋,,株式会社,福岡県,築上郡築上町,大字櫟原４２９番地,,40,647,8290124,,,,,,,2025-01-06,1,,,,,サチヤ,0
2185,9330001032760,新規,0,2025-01-06,2025-01-06,株式会社ＫＡＩＧＯ,,株式会社,熊本県,玉名市,岩崎１１番地１,,43,206,8650016,,,,,,,2025-01-06,1,,,,,カイゴ,0
2186,9330003010698,新規,0,2025-01-06,2025-01-06,中野ファミリー合同会社,,合同会社,熊本県,菊池市,雪野１６３５番地,,43,210,8611681,,,,,,,2025-01-06,1,,,,,ナカノファミリー,0
2187,9340001027033,新規,0,2025-01-06,2025-01-06,株式会社サスティナブルエアー,,株式会社,鹿児島県,鹿児島市,真砂町３５番６号,,46,201,8900066,,,,,,,2025-01-06,1,,,,,サスティナブルエアー,0
2189,9350001019335,新規,0,2025-01-06,2025-01-06,株式会社ＳＡＩＳＥＩ,,株式会社,宮崎県,宮崎市,大字本郷北方３４０６番地６２,,45,201,8800925,,,,,,,2025-01-06,1,,,,,サイセイ,0
2190,9350001019343,新規,0,2025-01-06,2025-01-06,株式会社ＦＬＯＷＩＮＤ,,株式会社,宮崎県,宮崎市,橘通西１丁目５－３６,,45,201,8800001,,,,,,,2025-01-06,1,,,,,フロウィンド,0
2193,9360001034572,新規,0,2025-01-06,2025-01-06,株式会社Ｓａｔｏ,,株式会社,沖縄県,那覇市,銘苅１丁目４番１８－３０１,,47,201,9000004,,,,,,,2025-01-06,1,,,,,サトウ,0
2195,9360003014572,新規,0,2025-01-06,2025-01-06,合同会社アトリエゆう,,合同会社,沖縄県,浦添市,西原１丁目３番２号棚原ビル２０２,,47,208,9012101,,,,,,,2025-01-06,1,,,,,アトリエユウ,0
2197,9370001052078,新規,0,2025-01-06,2025-01-06,株式会社グラフィ,,株式会社,宮城県,仙台市若林区,若林５丁目９－１３,,04,103,9840826,,,,,,,2025-01-06,1,,,,,グラフィ,0
2208,9430001093388,新規,0,2025-01-06,2025-01-06,株式会社７億ドル,,株式会社,北海道,札幌市中央区,南十五条西８丁目２－３３,,01,101,0640915,,,,,,,2025-01-06,1,,,,,ナナオクドル,0
2210,9440003001653,新規,0,2025-01-06,2025-01-06,合同会社信光,,合同会社,北海道,二海郡八雲町,東野２７６番地１,,01,346,0492673,,,,,,,2025-01-06,1,,,,,シンコウ,0
2211,9450001014482,新規,0,2025-01-06,2025-01-06,島田電気株式会社,,株式会社,北海道,紋別郡西興部村,字上興部５０番地,,01,562,0981421,,,,,,,2025-01-06,1,,,,,シマダデンキ,0
2214,9700150128462,新規,0,2025-01-06,2025-01-06,Ａ＆Ｉ　Ｔｒａｄｅｒｓ,,外国会社等,千葉県,長生郡白子町,南日当２３８５番地２２オフィスＢ号,,12,424,2994205,スリランカ民主社会主義共和国、キャンディ、ダルマセナマワタ５ｔｈレーンＡＡ、Ｎｏ．１３／９９,,,,,,2025-01-06,1,,,,,エーアンドアイトレーダーズ,0
