sequenceNumber,corporateNumber,process,correct,updateDate,changeDate,name,nameImageId,kind,prefectureName,cityName,streetNumber,addressImageId,prefectureCode,cityCode,postCode,addressOutside,addressOutsideImageId,closeDate,closeCause,successorCorporateNumber,changeCause,assignmentDate,latest,enName,enPrefectureName,enCityName,enAddressOutside,furigana,hihyoji
6,1010001247423,新規,0,2024-08-23,2024-08-23,ＫＭ株式会社,,株式会社,東京都,中央区,京橋１丁目８番１０号三洋ビル４階,,13,102,1040031,,,,,,,2024-08-23,1,,,,,ケイエム,0
7,1010001247679,新規,0,2024-08-23,2024-08-23,株式会社Ｃａｄｄｉｅ,,株式会社,東京都,中央区,勝どき４丁目６番２号パークタワー勝どきミッド,,13,102,1040054,,,,,,,2024-08-23,1,,,,,キャディ,0
8,1010001247737,新規,0,2024-08-23,2024-08-23,株式会社ＡＲＫｒｉｍ,,株式会社,東京都,中央区,銀座１丁目２２番１１号銀座大竹ビジデンス２Ｆ,,13,102,1040061,,,,,,,2024-08-23,1,,,,,アークリム,0
10,1010003044595,新規,0,2024-08-23,2024-08-23,ＣＩＥＬＯ合同会社,,合同会社,東京都,中央区,銀座１丁目１２－４Ｎ＆ＥＢＬＤ．６Ｆ,,13,102,1040061,,,,,,,2024-08-23,1,,,,,チェーロ,0
21,1010401184687,新規,0,2024-08-23,2024-08-23,株式会社Ｌｉｇ,,株式会社,東京都,港区,赤坂４丁目５番２１－１０６号,,13,103,1070052,,,,,,,2024-08-23,1,,,,,リグ,0
25,1010403032836,新規,0,2024-08-23,2024-08-23,合同会社利子・利息・利益配分研究所,,合同会社,東京都,港区,麻布台１丁目５－３,,13,103,1060041,,,,,,,2024-08-23,1,,,,,リシリソクリエキハイブンケンキュウジョ,0
26,1010403033289,新規,0,2024-08-23,2024-08-23,ｂｌｉｔｚ合同会社,,合同会社,東京都,港区,芝浦２丁目３番３４－５０４号,,13,103,1080023,,,,,,,2024-08-23,1,,,,,ブリッツ,0
29,1010501052802,新規,0,2024-08-23,2024-08-23,株式会社ロジックテクノロジーズ,,株式会社,東京都,台東区,蔵前２丁目１０番３号,,13,106,1110051,,,,,,,2024-08-23,1,,,,,ロジックテクノロジーズ,0
32,1010601065794,新規,0,2024-08-23,2024-08-23,株式会社ｋｏｋｏｒｏｍａｃｈｉ,,株式会社,東京都,墨田区,京島１丁目１番１－１２０６号イーストコア曳舟一番館,,13,107,1310046,,,,,,,2024-08-23,1,,,,,ココロマチ,0
45,1010901055850,新規,0,2024-08-23,2024-08-23,株式会社地創ラボ,,株式会社,東京都,世田谷区,等々力５丁目２１番４号,,13,112,1580082,,,,,,,2024-08-23,1,,,,,チソウラボ,0
51,1011003019843,新規,0,2024-08-23,2024-08-23,トラベラーゲート合同会社,,合同会社,東京都,渋谷区,東３丁目１３番１１号Ａ－ＰＬＡＣＥ恵比寿東９階,,13,113,1500011,,,,,,,2024-08-23,1,,,,,トラベラーゲート,0
52,1011005010627,新規,0,2024-08-23,2024-08-23,特定非営利活動法人ブライト・フューチャー,,その他の設立登記法人,東京都,渋谷区,猿楽町１０番８号イースタンホームズ猿楽３０３号室,,13,113,1500033,,,,,,,2024-08-23,1,,,,,ブライトフューチャー,0
58,1011101108548,新規,0,2024-08-23,2024-08-23,株式会社ＡＲＩＥＲＡ,,株式会社,東京都,新宿区,四谷坂町１２番１１号ＢＩＴＥＮ４Ａ,,13,104,1600002,,,,,,,2024-08-23,1,,,,,アリエラ,0
59,1011101108572,新規,0,2024-08-23,2024-08-23,株式会社ＥＸＯＭＥＲＥ　ＪＡＰＡＮ,,株式会社,東京都,新宿区,西早稲田２丁目２０番１５号,,13,104,1690051,,,,,,,2024-08-23,1,,,,,,0
63,1011203004463,新規,0,2024-08-23,2024-08-23,ブライトライト合同会社,,合同会社,東京都,中野区,東中野１丁目５１‐１３東中野テラス９０１,,13,114,1640003,,,,,,,2024-08-23,1,,,,,ブライトライト,0
65,1011405002307,新規,0,2024-08-23,2024-08-23,一般社団法人日本電力安全協会,,その他の設立登記法人,東京都,板橋区,高島平１丁目３４番１９－２１０号,,13,119,1750082,,,,,,,2024-08-23,1,,,,,ニホンデンリョクアンゼンキョウカイ,0
66,1011501031069,新規,0,2024-08-23,2024-08-23,株式会社ハーテッドアーム,,株式会社,東京都,荒川区,東日暮里５丁目５０番１８号第二松本ビル８階,,13,118,1160014,,,,,,,2024-08-23,1,,,,,ハーテッドアーム,0
67,1011601028007,新規,0,2024-08-23,2024-08-23,嘉創国際株式会社,,株式会社,東京都,練馬区,大泉町２丁目８－７,,13,120,1780062,,,,,,,2024-08-23,1,,,,,カソウコクサイ,0
70,1011803006421,新規,0,2024-08-23,2024-08-23,合同会社ＳＩＬＫＹ,,合同会社,東京都,足立区,梅田４丁目１４番７号,,13,121,1230851,,,,,,,2024-08-23,1,,,,,シルキー,0
73,1012401042214,新規,0,2024-08-23,2024-08-23,ＳａｉｌＡｎｄＬｉｎｋ株式会社,,株式会社,東京都,多摩市,中沢２丁目３－１ライオンズマンション多摩センター３０２号,,13,224,2060036,,,,,,,2024-08-23,1,,,,,セイルアンドリンク,0
75,1012403006720,新規,0,2024-08-23,2024-08-23,徳三材木合同会社,00136054,合同会社,東京都,調布市,飛田給２丁目１８番地６,,13,208,1820036,,,,,,,2024-08-23,1,,,,,トクサンザイモク,0
83,1020001158537,新規,0,2024-08-23,2024-08-23,株式会社ブエナワイカ,,株式会社,神奈川県,川崎市多摩区,登戸１９１９エムアンドアールビル３階,,14,135,2140014,,,,,,,2024-08-23,1,,,,,ブエナワイカ,0
84,1020001158611,新規,0,2024-08-23,2024-08-23,ゼロカラ・ランド株式会社,,株式会社,神奈川県,川崎市高津区,溝口２丁目１１番８号リバーストーン第３ビル６階,,14,134,2130001,,,,,,,2024-08-23,1,,,,,ゼロカラランド,0
85,1020001158628,新規,0,2024-08-23,2024-08-23,株式会社ＴＡＫＴＡＫ,,株式会社,神奈川県,横浜市金沢区,柳町９番地１２,,14,108,2360026,,,,,,,2024-08-23,1,,,,,タクタク,0
86,1020001158743,新規,0,2024-08-23,2024-08-23,株式会社ＹＡＳＵＫＥＮ,,株式会社,神奈川県,横浜市都筑区,池辺町３６３２番地池辺町スカイハイツ６０７,,14,118,2240053,,,,,,,2024-08-23,1,,,,,ヤスケン,0
93,1020003026741,新規,0,2024-08-23,2024-08-23,合同会社エムプラン,,合同会社,神奈川県,横浜市神奈川区,泉町１３番地２ヴェルビュ横浜反町５０３号,,14,102,2210842,,,,,,,2024-08-23,1,,,,,エムプラン,0
105,1030001162091,新規,0,2024-08-23,2024-08-23,株式会社ＮＧＫ,,株式会社,埼玉県,さいたま市南区,別所５丁目１５番２号,,11,108,3360021,,,,,,,2024-08-23,1,,,,,エヌジーケー,0
106,1030001162100,新規,0,2024-08-23,2024-08-23,株式会社ＦＣＲ,,株式会社,埼玉県,八潮市,大字大瀬３９６番地９,,11,234,3400822,,,,,,,2024-08-23,1,,,,,エフシーアール,0
108,1030003024983,新規,0,2024-08-23,2024-08-23,ＨＫＳ　ＦＡＣＴＯＲＹ合同会社,,合同会社,埼玉県,川口市,南鳩ヶ谷６丁目１６番２０号,,11,203,3340013,,,,,,,2024-08-23,1,,,,,エイチケーエスファクトリー,0
111,1040001135063,新規,0,2024-08-23,2024-08-23,株式会社ＯＮＥ　ＦＩＥＬＤ,,株式会社,千葉県,習志野市,奏の杜２丁目５番１号,,12,216,2750028,,,,,,,2024-08-23,1,,,,,ワンフィールド,0
112,1040001135071,新規,0,2024-08-23,2024-08-23,株式会社なにか楽しそう,,株式会社,千葉県,大網白里市,駒込４３８番地９,,12,239,2993235,,,,,,,2024-08-23,1,,,,,ナニカタノシソウソ,0
116,1050003008621,新規,0,2024-08-23,2024-08-23,ＨＡＫＵ　Ｍｅｄｉｃａｌ合同会社,,合同会社,茨城県,ひたちなか市,新光町３８番地,,08,221,3120005,,,,,,,2024-08-23,1,,,,,ハクメディカル,0
118,1060001037431,新規,0,2024-08-23,2024-08-23,株式会社まるひがＧｒｅｅｎ,,株式会社,栃木県,小山市,大字東黒田１９８番地１３,,09,208,3290204,,,,,,,2024-08-23,1,,,,,マルヒガグリーン,0
137,1120001267963,新規,0,2024-08-23,2024-08-23,ＦＴホールディングス株式会社,,株式会社,大阪府,交野市,星田北５丁目５１番５号,,27,230,5760017,,,,,,,2024-08-23,1,,,,,エフティホールディングス,0
138,1120001267971,新規,0,2024-08-23,2024-08-23,日泰株式会社,,株式会社,大阪府,大阪市港区,弁天４丁目１０番２１号オーシャンハイツ弁天２０１,,27,107,5520007,,,,,,,2024-08-23,1,,,,,ニッタイ,0
139,1120001267988,新規,0,2024-08-23,2024-08-23,株式会社ＥＬシステム,,株式会社,大阪府,大阪市北区,西天満５丁目１５－９,,27,127,5300047,,,,,,,2024-08-23,1,,,,,エルシステム,0
142,1120003027358,新規,0,2024-08-23,2024-08-23,ポラリス合同会社,,合同会社,大阪府,大阪市西区,京町堀１丁目１１番７号,,27,106,5500003,,,,,,,2024-08-23,1,,,,,ポラリス,0
145,1120901049668,新規,0,2024-08-23,2024-08-23,株式会社ＡＵＬＡ,,株式会社,大阪府,池田市,伏尾町７２－９３,,27,204,5630011,,,,,,,2024-08-23,1,,,,,アウラ,0
155,1130003009776,新規,0,2024-08-23,2024-08-23,合同会社ｏｆｆｉｃｅｍｓｅ,,合同会社,京都府,木津川市,木津川台６丁目２－８－２１１,,26,214,6190225,,,,,,,2024-08-23,1,,,,,オフィスエムエスイー,0
158,1140001135598,新規,0,2024-08-23,2024-08-23,株式会社ＡＸＩＳ,,株式会社,兵庫県,宝塚市,南ひばりガ丘１丁目１２番１－２０２号,,28,214,6650811,,,,,,,2024-08-23,1,,,,,アクシス,0
159,1140001135607,新規,0,2024-08-23,2024-08-23,株式会社プレステージ,,株式会社,兵庫県,西宮市,小松西町１丁目３番２－１０１号,,28,204,6638125,,,,,,,2024-08-23,1,,,,,プレステージ,0
160,1140003020939,新規,0,2024-08-23,2024-08-23,セイジニシカワ舞台監督デスク合同会社,,合同会社,兵庫県,尼崎市,杭瀬本町１丁目１８－１２ＥＮＧＥＩＢＬＤＧ２Ｆ,,28,202,6600814,,,,,,,2024-08-23,1,,,,,セイジニシカワブタイカントクデスク,0
171,1180001162993,新規,0,2024-08-23,2024-08-23,株式会社ＨＱ,,株式会社,愛知県,大府市,東新町１丁目１７２番地,,23,223,4740073,,,,,,,2024-08-23,1,,,,,エイチキュー,0
173,1180301038992,新規,0,2024-08-23,2024-08-23,まちリノベ株式会社,,株式会社,愛知県,豊橋市,舟原町１２３番地,,23,201,4400813,,,,,,,2024-08-23,1,,,,,マチリノベ,0
175,1180303006238,新規,0,2024-08-23,2024-08-23,合同会社ＲＩＣＥ,,合同会社,愛知県,刈谷市,桜町１丁目１０番地２セントラルビル２Ｆ,,23,210,4480028,,,,,,,2024-08-23,1,,,,,ライス,0
179,1200003006452,新規,0,2024-08-23,2024-08-23,合同会社ＹＫファクトリー,,合同会社,岐阜県,大垣市,青柳町１丁目２３５,,21,202,5030961,,,,,,,2024-08-23,1,,,,,ワイケイファクトリー,0
180,1200003006477,新規,0,2024-08-23,2024-08-23,Ｚプロパティ中部合同会社,,合同会社,岐阜県,岐阜市,高砂町１丁目１７番地岐阜イーストライジング２４、２階,,21,201,5008407,,,,,,,2024-08-23,1,,,,,ジープロパティチュウブ,0
184,1220001026178,新規,0,2024-08-23,2024-08-23,北國技建株式会社,,株式会社,石川県,輪島市,山岸町ろ部４５番地１,,17,204,9280024,,,,,,,2024-08-23,1,,,,,ホッコクギケン,0
197,1290001106873,新規,0,2024-08-23,2024-08-23,ユーゼン株式会社,,株式会社,福岡県,福岡市東区,香椎照葉３丁目２番３－７０５号インフィニガーデンイースト棟,,40,131,8130017,,,,,,,2024-08-23,1,,,,,ユーゼン,0
198,1290001106898,新規,0,2024-08-23,2024-08-23,８８ＬｉｆｅＰｌａｎ株式会社,,株式会社,福岡県,糸島市,南風台８丁目２番１１号,,40,230,8191137,,,,,,,2024-08-23,1,,,,,ハチハチライフプラン,0
199,1290001106907,新規,0,2024-08-23,2024-08-23,株式会社ｆｏｒ　Ｐｅａｃｅ,,株式会社,福岡県,福岡市南区,鶴田２丁目１９番１０－２号,,40,134,8111352,,,,,,,2024-08-23,1,,,,,フォーピース,0
202,1290003015692,新規,0,2024-08-23,2024-08-23,合同会社Ｙｕｋｉ,,合同会社,福岡県,福岡市東区,香椎照葉７丁目１２番１０号,,40,131,8130017,,,,,,,2024-08-23,1,,,,,ユキ,0
203,1290801030819,新規,0,2024-08-23,2024-08-23,株式会社Ｂｅ‐ｃｔｉｏｎ,,株式会社,福岡県,北九州市小倉北区,中井５丁目７番２号（ソレイユテラス２０３）,,40,106,8030836,,,,,,,2024-08-23,1,,,,,ベクション,0
216,1350003004730,新規,0,2024-08-23,2024-08-23,農業生産法人合同会社ファーム宮崎Ｇ,,合同会社,宮崎県,日南市,大字隈谷乙字玉年１８２０番３,,45,204,8870023,,,,,,,2024-08-23,1,,,,,ファームミヤザキジー,0
217,1350005006254,新規,0,2024-08-23,2024-08-23,清水サンプレイス管理組合法人,,その他の設立登記法人,宮崎県,宮崎市,清水３丁目９番１０号,,45,201,8800021,,,,,,,2024-08-23,1,,,,,,0
219,1360001034092,新規,0,2024-08-23,2024-08-23,株式会社ＨＡＬＯ,,株式会社,沖縄県,那覇市,天久１丁目２５番１０号,,47,201,9000005,,,,,,,2024-08-23,1,,,,,ハロ,0
234,1490003001929,新規,0,2024-08-23,2024-08-23,Ｈｅａｒｔｆｏｒｋｉｄｓ合同会社,,合同会社,高知県,高知市,福井東町３－２２,,39,201,7800967,,,,,,,2024-08-23,1,,,,,,0
235,1500001025837,新規,0,2024-08-23,2024-08-23,ＣａｎＣａｎ株式会社,,株式会社,愛媛県,伊予郡砥部町,高市２９６０,,38,402,7912204,,,,,,,2024-08-23,1,,,,,キャンキャン,0
237,1700150126845,新規,0,2024-08-23,2024-08-23,Ｂｕｙ　Ｎｏｗ　ｉｎｔｅｒｎａｔｉｏｎａｌ　Ｌｔｄ．,,外国会社等,,,,,,,,２Ｆ．，Ｎｏ．２９８，Ｓｅｃ．１，Ｄｅｆａｎｇ　Ｒｄ．，Ｇｕｏｇｕａｎｇ　Ｖｉｌ．，Ｄａｌｉ　Ｄｉｓｔ．，Ｔａｉｃｈｕｎｇ　Ｃｉｔｙ　４１２０１６，Ｔａｉｗａｎ（Ｒ．Ｏ．Ｃ．）,,,,,,2024-08-23,1,,,,,バイナオインタナショナルリミテッド,0
238,2010001006266,新規,0,2024-08-23,2024-08-23,株式会社ノア設計,,株式会社,東京都,文京区,湯島１丁目１２番６号,,13,105,1130034,,,,,,,2024-08-23,1,,,,,ノアセッケイ,0
244,2010001247380,新規,0,2024-08-23,2024-08-23,株式会社ＨＡＲＵＫＡ,,株式会社,東京都,中央区,銀座１丁目１２－４Ｎ＆ＥＢＬＤ．７階,,13,102,1040061,,,,,,,2024-08-23,1,,,,,ハルカ,0
245,2010001247645,新規,0,2024-08-23,2024-08-23,エコサイクルホールディングス株式会社,,株式会社,東京都,中央区,日本橋小網町１７番１０号,,13,102,1030016,,,,,,,2024-08-23,1,,,,,エコサイクルホールディングス,0
246,2010001247653,新規,0,2024-08-23,2024-08-23,株式会社ニューパスウェイズ・キロ,,株式会社,東京都,千代田区,神田鍛冶町３丁目４ｏａｋ神田徒町７Ｆ,,13,101,1010045,,,,,,,2024-08-23,1,,,,,ニューパスウェイズキロ,0
247,2010001247703,新規,0,2024-08-23,2024-08-23,株式会社源長流,,株式会社,東京都,千代田区,麹町４丁目４番５号麹町シャインビル３０４,,13,101,1020083,,,,,,,2024-08-23,1,,,,,ゲンチョーリュー,0
248,2010001247744,新規,0,2024-08-23,2024-08-23,山佐産業ＬＨ１リース株式会社,,株式会社,東京都,千代田区,丸の内１丁目４番１号東京共同会計事務所内,,13,101,1000005,,,,,,,2024-08-23,1,,,,,ヤマササンギョウエルエイチワンリース,0
252,2010003044628,新規,0,2024-08-23,2024-08-23,合同会社ＬｉｆｅＬｉｔ,,合同会社,東京都,中央区,銀座１丁目１２番４号Ｎ＆ＥＢＬＤ．６Ｆ,,13,102,1040061,,,,,,,2024-08-23,1,,,,,ライフリット,0
253,2010003044669,新規,0,2024-08-23,2024-08-23,合同会社ＫＤＫ,,合同会社,東京都,中央区,日本橋室町１丁目１１番１２号日本橋水野ビル７階,,13,102,1030022,,,,,,,2024-08-23,1,,,,,ケーディケー,0
257,2010005038693,新規,0,2024-08-23,2024-08-23,一般社団法人日中経済交流センター,,その他の設立登記法人,東京都,千代田区,神田岩本町１番地５山上ビル３階,,13,101,1010033,,,,,,,2024-08-23,1,,,,,ニッチュウケイザイコウリュウ,0
258,2010005038727,新規,0,2024-08-23,2024-08-23,一般社団法人日本海事技術センター,,その他の設立登記法人,東京都,千代田区,平河町１丁目６番１５号シルスフィア会計事務所内,,13,101,1020093,,,,,,,2024-08-23,1,,,,,ニホンカイジギジュツセンター,0
265,2010401184678,新規,0,2024-08-23,2024-08-23,株式会社ミノワ,,株式会社,東京都,港区,赤坂９丁目４番１号２６０１,,13,103,1070052,,,,,,,2024-08-23,1,,,,,ミノワ,0
266,2010501052801,新規,0,2024-08-23,2024-08-23,株式会社ＳＫＷ,,株式会社,東京都,台東区,今戸２丁目１６番１１号今二マンション４０２,,13,106,1110024,,,,,,,2024-08-23,1,,,,,エスケーダブリュー,0
270,2010603011036,新規,0,2024-08-23,2024-08-23,合同会社アルアビイ,,合同会社,東京都,江東区,南砂３丁目８番８－４０２号,,13,108,1360076,,,,,,,2024-08-23,1,,,,,アルアビイ,0
271,2010605004368,新規,0,2024-08-23,2024-08-23,弁護士法人ＺｅＬｏ,,その他の設立登記法人,東京都,江東区,豊洲３丁目２番２４号豊洲フォレシア１０階,,13,108,1350061,,,,,,,2024-08-23,1,,,,,ゼロ,0
277,2010903009300,新規,0,2024-08-23,2024-08-23,ＮＥＷ　ＥＡＲＴＨ合同会社,,合同会社,東京都,世田谷区,大蔵５丁目４番４号,,13,112,1570074,,,,,,,2024-08-23,1,,,,,ニューアース,0
281,2011001164062,新規,0,2024-08-23,2024-08-23,株式会社キャスパー,,株式会社,東京都,渋谷区,神宮前４丁目４－１５東京セントラル表参道５０２号室,,13,113,1500001,,,,,,,2024-08-23,1,,,,,キャスパー,0
282,2011001164104,新規,0,2024-08-23,2024-08-23,株式会社さくらコンサルティング,,株式会社,東京都,目黒区,洗足１丁目２番１４号ＲＹＵＭＡＨＯＵＳＥ１Ｆ－Ｂ,,13,110,1520012,,,,,,,2024-08-23,1,,,,,サクラコンサルティング,0
287,2011101108530,新規,0,2024-08-23,2024-08-23,ＮＦＦ２株式会社,,株式会社,東京都,新宿区,西新宿３丁目３番１３号西新宿水間ビル２Ｆ,,13,104,1600023,,,,,,,2024-08-23,1,,,,,エヌエフエフツー,0
288,2011101108555,新規,0,2024-08-23,2024-08-23,ＳＣ　ＬＡＢＯ株式会社,,株式会社,東京都,新宿区,下落合１丁目２番５号鈴木総合ビル３階Ｃ室,,13,104,1610033,,,,,,,2024-08-23,1,,,,,エスシーラボ,0
291,2011301029923,新規,0,2024-08-23,2024-08-23,ＵＮＯリフォーム株式会社,,株式会社,東京都,杉並区,西荻北２丁目２番１７号エイフラッツビル１階,,13,115,1670042,,,,,,,2024-08-23,1,,,,,ウノリフォーム,0
295,2011701027551,新規,0,2024-08-23,2024-08-23,株式会社土のうた,,株式会社,東京都,江戸川区,南小岩８丁目２６番５号,,13,123,1330056,,,,,,,2024-08-23,1,,,,,,0
296,2011703003947,新規,0,2024-08-23,2024-08-23,合同会社ＥＮＩＦ,,合同会社,東京都,江戸川区,春江町３丁目１４番５号ＴＭＴ弐番館１０４,,13,123,1320003,,,,,,,2024-08-23,1,,,,,エニフ,0
298,2011801044752,新規,0,2024-08-23,2024-08-23,株式会社Ｒｕｂａｔｏ,,株式会社,東京都,葛飾区,奥戸３丁目２２―１４,,13,122,1240022,,,,,,,2024-08-23,1,,,,,ルバート,0
304,2013303007270,新規,0,2024-08-23,2024-08-23,ダイレクトグロース合同会社,,合同会社,東京都,豊島区,南大塚２丁目１６－１２,,13,116,1700005,,,,,,,2024-08-23,1,,,,,ダイレクトグロース,0
313,2020001158635,新規,0,2024-08-23,2024-08-23,株式会社ＰＧＮ,,株式会社,神奈川県,横浜市中区,曙町５丁目６３番４－３Ｆ,,14,104,2310057,,,,,,,2024-08-23,1,,,,,プロフェッショナルグローバルネットワーク,0
314,2020001158718,新規,0,2024-08-23,2024-08-23,株式会社タケダ防災,,株式会社,神奈川県,川崎市川崎区,殿町１丁目９番１０－１号,,14,131,2100821,,,,,,,2024-08-23,1,,,,,タケダボウサイ,0
315,2020001158750,新規,0,2024-08-23,2024-08-23,ＳＡＫＥ　ＪＡＰＡＮ株式会社,,株式会社,神奈川県,横浜市港北区,篠原台町３５番１９号,,14,109,2220024,,,,,,,2024-08-23,1,,,,,サケジャパン,0
318,2020003026682,新規,0,2024-08-23,2024-08-23,合同会社豊橋こどもランド,,合同会社,神奈川県,川崎市麻生区,千代ケ丘７丁目１５番地１１,,14,137,2150005,,,,,,,2024-08-23,1,,,,,トヨハシコドモランド,0
329,2021001083047,新規,0,2024-08-23,2024-08-23,株式会社ｃａｌｍ　ｃａｍｐ,,株式会社,神奈川県,相模原市南区,下溝１１８２番地５ブルーム１０２,,14,153,2520335,,,,,,,2024-08-23,1,,,,,コームキャンプ,0
330,2021003014941,新規,0,2024-08-23,2024-08-23,合同会社ｓｔａｙｏｒ,,合同会社,神奈川県,藤沢市,藤が岡１丁目１３－１～８１２号,,14,205,2510004,,,,,,,2024-08-23,1,,,,,ステイオール,0
335,2030001161976,新規,0,2024-08-23,2024-08-23,株式会社サンブラザーズ,,株式会社,埼玉県,草加市,栄町２丁目２番２８号,,11,221,3400011,,,,,,,2024-08-23,1,,,,,サンブラザーズ,0
336,2030001162090,新規,0,2024-08-23,2024-08-23,株式会社ＫＹＲ,,株式会社,埼玉県,所沢市,青葉台１２８０番地の１０,,11,208,3591105,,,,,,,2024-08-23,1,,,,,ケイワイアール,0
337,2030001162099,新規,0,2024-08-23,2024-08-23,株式会社関東テクニカル,,株式会社,埼玉県,上尾市,大字原市３５７８番地３,,11,219,3620021,,,,,,,2024-08-23,1,,,,,,0
338,2030001162116,新規,0,2024-08-23,2024-08-23,株式会社Ｌａ　Ｌａ　Ｃｕｒｅ,,株式会社,埼玉県,三郷市,泉１丁目２０番地２,,11,237,3410054,,,,,,,2024-08-23,1,,,,,ララキュア,0
346,2040001135038,新規,0,2024-08-23,2024-08-23,株式会社ステラ,,株式会社,千葉県,袖ケ浦市,高谷１３９３番地１,,12,229,2990203,,,,,,,2024-08-23,1,,,,,ステラ,0
347,2040001135062,新規,0,2024-08-23,2024-08-23,ＮｅｗＣｉｔｙ企画株式会社,,株式会社,千葉県,松戸市,高塚新田１５７番地の４５,,12,207,2702222,,,,,,,2024-08-23,1,,,,,ニューシティキカク,0
366,2060001037422,新規,0,2024-08-23,2024-08-23,株式会社野州麻製薬,,株式会社,栃木県,鹿沼市,下永野６００番地１,,09,205,3280212,,,,,,,2024-08-23,1,,,,,ヤシュウアサセイヤク,0
367,2060001037430,新規,0,2024-08-23,2024-08-23,タビエル株式会社,,株式会社,栃木県,宇都宮市,石井町１２７４番地２,,09,201,3210912,,,,,,,2024-08-23,1,,,,,タビエル,0
376,2090001018873,新規,0,2024-08-23,2024-08-23,株式会社Ｋｉ‐Ｌｉｋｏ,,株式会社,山梨県,都留市,井倉２１９９番地,,19,204,4020011,,,,,,,2024-08-23,1,,,,,キリコ,0
384,2120001267830,新規,0,2024-08-23,2024-08-23,サンレブソーラー株式会社,,株式会社,大阪府,大阪市東住吉区,杭全２丁目７－１４－４Ｆ,,27,121,5460002,,,,,,,2024-08-23,1,,,,,サンレブソーラー,0
385,2120001267938,新規,0,2024-08-23,2024-08-23,株式会社ＳＥＶＥＮ　ＢＬＵＥ,,株式会社,大阪府,大阪市中央区,南船場１丁目４番２１－１４０１号,,27,128,5420081,,,,,,,2024-08-23,1,,,,,セブンブルー,0
386,2120001267954,新規,0,2024-08-23,2024-08-23,株式会社Ｙ’ｓ　Ｑｒｅｅｔ　Ｃｏｍｐａｎｙ,,株式会社,大阪府,大阪市北区,中津３丁目２４番３－６１４号,,27,127,5310071,,,,,,,2024-08-23,1,,,,,ワイズクリートカンパニー,0
387,2120001267979,新規,0,2024-08-23,2024-08-23,淀川協同工業株式会社,,株式会社,大阪府,大阪市東成区,東小橋２丁目１１番２８号スペースワン３Ｆ,,27,115,5370024,,,,,,,2024-08-23,1,,,,,ヨドガワキョウドウコウギョウ,0
388,2120001267995,新規,0,2024-08-23,2024-08-23,株式会社小飛燕,,株式会社,大阪府,大阪市東住吉区,北田辺５丁目９番３６号ルンルン桃ケ池２０１室,,27,121,5460044,,,,,,,2024-08-23,1,,,,,ショウヒエン,0
392,2130002032448,新規,0,2024-08-23,2024-08-23,有限会社アイエスイー,,有限会社,京都府,福知山市,字篠尾１０６７番地,,26,201,6200000,,,,,,,2024-08-23,1,,,,,アイエスイー,0
394,2130005017165,新規,0,2024-08-23,2024-08-23,一般社団法人Ｊａｐａｎ　Ａｓ,,その他の設立登記法人,京都府,京都市下京区,烏丸通四条下る水銀屋町６２０番地ＣＯＣＯＮ烏丸４Ｆシティラボ,,26,106,6008411,,,,,,,2024-08-23,1,,,,,ジャパンアズ,0
400,2140001135606,新規,0,2024-08-23,2024-08-23,劍城産業株式会社,,株式会社,兵庫県,加古郡稲美町,岡２５７９－６,,28,381,6751113,,,,,,,2024-08-23,1,,,,,ツルギサンギョウ,0
403,2160003003271,新規,0,2024-08-23,2024-08-23,合同会社ＳＥＡ,,合同会社,滋賀県,大津市,長等３丁目３番１６号,,25,201,5200046,,,,,,,2024-08-23,1,,,,,シー,0
409,2180001162968,新規,0,2024-08-23,2024-08-23,株式会社ＲｏａｄＲｅｅｌ,,株式会社,愛知県,春日井市,鳥居松町３丁目２０８番地春日井ＣＩＴＹ鳥居松ハイツ１０２,,23,206,4860844,,,,,,,2024-08-23,1,,,,,ロードリール,0
410,2180001162976,新規,0,2024-08-23,2024-08-23,株式会社成想,,株式会社,愛知県,名古屋市中村区,名駅４丁目２４番５号第２森ビル４０１,,23,105,4500002,,,,,,,2024-08-23,1,,,,,ジョウソウ,0
413,2190003004770,新規,0,2024-08-23,2024-08-23,神宮合同会社,,合同会社,三重県,度会郡大紀町,野原２６５１番地２,,24,471,5192731,,,,,,,2024-08-23,1,,,,,ジングウ,0
416,2220003003827,新規,0,2024-08-23,2024-08-23,Ｓ・Ｒｆａｒｍ合同会社,,合同会社,石川県,羽咋市,千代町ろ３番地２,,17,207,9250615,,,,,,,2024-08-23,1,,,,,エスアールファーム,0
421,2240001063730,新規,0,2024-08-23,2024-08-23,Ｃｏｒｋ株式会社,,株式会社,広島県,福山市,新涯町６丁目２３番２－４号,,34,207,7210955,,,,,,,2024-08-23,1,,,,,コルク,0
430,2260003004870,新規,0,2024-08-23,2024-08-23,合同会社ＭｅＳｏＮａ,,合同会社,岡山県,岡山市南区,東畦２９６番地３７,,33,104,7010211,,,,,,,2024-08-23,1,,,,,メソナ,0
434,2270005005610,新規,0,2024-08-23,2024-08-23,ＮＰＯ法人じもと交通,,その他の設立登記法人,鳥取県,東伯郡湯梨浜町,大字旭４番地,,31,370,6890713,,,,,,,2024-08-23,1,,,,,ジモトコウツウ,0
442,2290001106880,新規,0,2024-08-23,2024-08-23,株式会社ゼロワン運輸,,株式会社,福岡県,筑紫野市,大字俗明院１５８－１５１７,,40,217,8180067,,,,,,,2024-08-23,1,,,,,ゼロワンウンユ,0
443,2290001106889,新規,0,2024-08-23,2024-08-23,金華商事株式会社,,株式会社,福岡県,福岡市東区,社領１丁目１２番１０－４０５号筥松小南エクセル３５,,40,131,8120068,,,,,,,2024-08-23,1,,,,,カネショウジ,0
444,2290001106914,新規,0,2024-08-23,2024-08-23,株式会社ゴールデンＮ,,株式会社,福岡県,福岡市西区,石丸３丁目２０番２５号,,40,135,8190025,,,,,,,2024-08-23,1,,,,,ゴールデンエヌ,0
445,2290001106930,新規,0,2024-08-23,2024-08-23,株式会社フォレスティーナ,,株式会社,福岡県,福岡市博多区,博多駅南５丁目１番１６－７０２号,,40,132,8120016,,,,,,,2024-08-23,1,,,,,フォレスティーナ,0
446,2290001106947,新規,0,2024-08-23,2024-08-23,Ｎ３株式会社,,株式会社,福岡県,福岡市早良区,西入部２丁目１２６番９,,40,137,8111121,,,,,,,2024-08-23,1,,,,,エヌスリー,0
447,2290001106955,新規,0,2024-08-23,2024-08-23,株式会社純青,,株式会社,福岡県,大牟田市,大黒町２丁目１９－４明治ビル１０１号,,40,202,8360006,,,,,,,2024-08-23,1,,,,,ジュンセイ,0
448,2290003015700,新規,0,2024-08-23,2024-08-23,合同会社平和音彩,,合同会社,福岡県,福岡市城南区,七隈５丁目１２番５号,,40,136,8140133,,,,,,,2024-08-23,1,,,,,ヘイワオンサイ,0
453,2290805009767,新規,0,2024-08-23,2024-08-23,一般社団法人こどもの居場所サポートふくおか,,その他の設立登記法人,福岡県,北九州市小倉南区,蜷田若園１丁目５番２１号,,40,107,8020814,,,,,,,2024-08-23,1,,,,,コドモノイバショサポートフクオカ,0
456,2340001026751,新規,0,2024-08-23,2024-08-23,株式会社トラストバースホールディングス,,株式会社,鹿児島県,姶良市,加治木町小山田４０３７番地１,,46,225,8995203,,,,,,,2024-08-23,1,,,,,トラストバースホールディングス,0
471,2380001034750,新規,0,2024-08-23,2024-08-23,株式会社藤興業,,株式会社,福島県,須賀川市,稲荷町６２番地８,,07,207,9620024,,,,,,,2024-08-23,1,,,,,フジコウギョウ,0
482,2430001092537,新規,0,2024-08-23,2024-08-23,株式会社インデリジェント,,株式会社,北海道,石狩市,樽川九条１丁目５６番地,,01,235,0613259,,,,,,,2024-08-23,1,,,,,インデリジェント,0
485,2480005007032,新規,0,2024-08-23,2024-08-23,一般社団法人はぐっと,,その他の設立登記法人,徳島県,名西郡石井町,高川原字加茂野２７６－５,,36,341,7793224,,,,,,,2024-08-23,1,,,,,ハグット,0
487,2700150126844,新規,0,2024-08-23,2024-08-23,ＡＧＩ　ＴＥＣＨＮＯＬＯＧＹ　ＣＯ．，ＬＴＤ．,,外国会社等,,,,,,,,８Ｆ．，Ｎｏ．３３，Ｓｅｃ．１，Ｔｉｄｉｎｇ　Ｂｌｖｄ．，Ｎｅｉｈｕ　Ｄｉｓｔ．，Ｔａｉｐｅｉ　Ｃｉｔｙ　１１４０６６，Ｔａｉｗａｎ（Ｒ．Ｏ．Ｃ）,,,,,,2024-08-23,1,,,,,アギテクノロジーカンパニーリミテッド,0
495,3010001247669,新規,0,2024-08-23,2024-08-23,株式会社自在堂,,株式会社,東京都,中央区,日本橋横山町８－１４ＯＭビル５階,,13,102,1030003,,,,,,,2024-08-23,1,,,,,ジザイドウ,0
496,3010001247677,新規,0,2024-08-23,2024-08-23,ＮＹＣＩ１０株式会社,,株式会社,東京都,中央区,新川１丁目６番１１号,,13,102,1040033,,,,,,,2024-08-23,1,,,,,エヌワイシーアイテン,0
497,3010001247743,新規,0,2024-08-23,2024-08-23,山佐産業ＬＨ２リース株式会社,,株式会社,東京都,千代田区,丸の内１丁目４番１号東京共同会計事務所内,,13,101,1000005,,,,,,,2024-08-23,1,,,,,ヤマササンギョウエルエイチツーリース,0
509,3010405023468,新規,0,2024-08-23,2024-08-23,一般社団法人ＫＯＥＮ,,その他の設立登記法人,東京都,港区,芝浦４丁目１５番１－２４０２号,,13,103,1080023,,,,,,,2024-08-23,1,,,,,コエン,0
526,3010903009316,新規,0,2024-08-23,2024-08-23,合同会社ＬＩＦＩＸ,,合同会社,東京都,世田谷区,下馬２丁目１８番１３－４０３号,,13,112,1540002,,,,,,,2024-08-23,1,,,,,リフィックス,0
537,3011001164111,新規,0,2024-08-23,2024-08-23,株式会社ａｃｅｓ,,株式会社,東京都,渋谷区,恵比寿西２丁目４番８号ウィンド恵比寿ビル８Ｆ,,13,113,1500021,,,,,,,2024-08-23,1,,,,,エーシーズ,0
538,3011003019874,新規,0,2024-08-23,2024-08-23,インリデラス合同会社,,合同会社,東京都,渋谷区,渋谷２丁目１９－１５宮益坂ビルディング６０９,,13,113,1500002,,,,,,,2024-08-23,1,,,,,インリデラス,0
542,3011101108298,新規,0,2024-08-23,2024-08-23,ＬＡＫＵＡＣＡ株式会社,,株式会社,東京都,新宿区,西新宿３丁目３番１３号,,13,104,1600023,,,,,,,2024-08-23,1,,,,,ラクアカ,0
543,3011101108455,新規,0,2024-08-23,2024-08-23,９Ｍ一期管理株式会社,,株式会社,東京都,新宿区,西早稲田２丁目１８番２３号スカイエスタ９０１,,13,104,1690051,,,,,,,2024-08-23,1,,,,,キュウエムイッキカンリ,0
544,3011101108546,新規,0,2024-08-23,2024-08-23,株式会社ＭＮＪ　Ｃａｐｉｔａｌ,,株式会社,東京都,新宿区,山吹町３６５番地プレミスト新宿山吹１１０１,,13,104,1620801,,,,,,,2024-08-23,1,,,,,エムエヌジェーキャピタル,0
545,3011103014833,新規,0,2024-08-23,2024-08-23,合同会社アルファ,,合同会社,東京都,新宿区,西新宿６丁目５番１号新宿アイランドタワー２階,,13,104,1600023,,,,,,,2024-08-23,1,,,,,アルファ,0
548,3011401026373,新規,0,2024-08-23,2024-08-23,株式会社ＣａｒｉＳｈｏｗ,,株式会社,東京都,板橋区,大和町６番８号,,13,119,1730012,,,,,,,2024-08-23,1,,,,,キャリーショウ,0
549,3011403004476,新規,0,2024-08-23,2024-08-23,合同会社ＳＦＩｎｖｅｓｔｍｅｎｔ,,合同会社,東京都,板橋区,大谷口上町４９－６サンアヴェール２０３,,13,119,1730032,,,,,,,2024-08-23,1,,,,,エスエフインベストメント,0
550,3011603004433,新規,0,2024-08-23,2024-08-23,合同会社ＴＦニュー,,合同会社,東京都,練馬区,氷川台４丁目４７番１８号,,13,120,1790084,,,,,,,2024-08-23,1,,,,,ティーエフニュー,0
551,3011701027559,新規,0,2024-08-23,2024-08-23,株式会社ＰＲＩＳＡ,,株式会社,東京都,江戸川区,松島３丁目３番１－４０３号,,13,123,1320031,,,,,,,2024-08-23,1,,,,,プリサ,0
561,3020001158411,新規,0,2024-08-23,2024-08-23,ｃｏｃｏｌｏｃｏ株式会社,,株式会社,神奈川県,川崎市高津区,上作延５丁目３４－８－２１０フロール梶が谷,,14,134,2130034,,,,,,,2024-08-23,1,,,,,ココロコ,0
562,3020001158618,新規,0,2024-08-23,2024-08-23,株式会社希望ヶ丘セミナー,,株式会社,神奈川県,横浜市旭区,南希望が丘７６－１,,14,112,2410824,,,,,,,2024-08-23,1,,,,,キボウガオカセミナー,0
563,3020001158626,新規,0,2024-08-23,2024-08-23,ソバーキュリアス株式会社,,株式会社,神奈川県,川崎市宮前区,犬蔵２丁目３３番８－３１０号,,14,136,2160011,,,,,,,2024-08-23,1,,,,,ソバーキュリアス,0
564,3020001158733,新規,0,2024-08-23,2024-08-23,株式会社Ｌｉｆｅ　Ｃｈｉｌ,,株式会社,神奈川県,横浜市南区,白妙町３丁目３９－１Ｆ,,14,105,2320023,,,,,,,2024-08-23,1,,,,,ラフチル,0
575,3021001083054,新規,0,2024-08-23,2024-08-23,株式会社ＭＵＲＡＯ,,株式会社,神奈川県,茅ヶ崎市,みずき１丁目１１番１７号,,14,207,2530088,,,,,,,2024-08-23,1,,,,,ムラオ,0
576,3021001083079,新規,0,2024-08-23,2024-08-23,株式会社ゆずり葉の杜,,株式会社,神奈川県,藤沢市,辻堂元町６丁目９番１３号,,14,205,2510043,,,,,,,2024-08-23,1,,,,,ユズリハノモリ,0
584,3030001162057,新規,0,2024-08-23,2024-08-23,株式会社服部電機,,株式会社,埼玉県,狭山市,祇園１８番２８号リヴェール２０２,,11,215,3501307,,,,,,,2024-08-23,1,,,,,ハットリデンキ,0
585,3030001162098,新規,0,2024-08-23,2024-08-23,ＳＩＤＥ＆ＳＩＤＥ株式会社,,株式会社,埼玉県,比企郡川島町,大字吹塚２１１番地,,11,346,3500164,,,,,,,2024-08-23,1,,,,,サイドアンドサイド,0
586,3030001162107,新規,0,2024-08-23,2024-08-23,株式会社Ａｒｔｉａｎ,,株式会社,埼玉県,さいたま市南区,大字大谷口５４４５番地４,,11,108,3360042,,,,,,,2024-08-23,1,,,,,アーティアン,0
587,3030001162123,新規,0,2024-08-23,2024-08-23,株式会社Ａｒｅｓ,,株式会社,埼玉県,川口市,芝１丁目８番１９号Ｅｓｐａｃｉｏ芝Ｂ１０３号,,11,203,3330866,,,,,,,2024-08-23,1,,,,,アレス,0
590,3030003024924,新規,0,2024-08-23,2024-08-23,ＳＵＳＭＡ合同会社,,合同会社,埼玉県,さいたま市桜区,大字上大久保５８５番地１１ファイトコートＩＩ２０２,00136056,11,106,3380824,,,,,,,2024-08-23,1,,,,,ススマ,0
602,3050001055283,新規,0,2024-08-23,2024-08-23,株式会社ＨＡＴＣＨ,,株式会社,茨城県,鹿嶋市,大字長栖２１５６番１４,,08,222,3140022,,,,,,,2024-08-23,1,,,,,ハッチ,0
603,3050001055291,新規,0,2024-08-23,2024-08-23,株式会社ＧＯＩＴ,,株式会社,茨城県,古河市,大山５６４番地５,,08,204,3060052,,,,,,,2024-08-23,1,,,,,ゴーイット,0
631,3120001267945,新規,0,2024-08-23,2024-08-23,ＰＭ　Ｃｏｎｓｕｌｔｉｎｇ株式会社,,株式会社,大阪府,大阪市西区,九条南２丁目２１番８号九条三伸ビル２Ｂ,,27,106,5500025,,,,,,,2024-08-23,1,,,,,ピーエムコンサルティング,0
632,3120001267994,新規,0,2024-08-23,2024-08-23,株式会社４Ｗ,,株式会社,大阪府,大阪市東成区,大今里西２丁目１７番１０－７０６号,,27,115,5370014,,,,,,,2024-08-23,1,,,,,フォーダブリュー,0
633,3120001268027,新規,0,2024-08-23,2024-08-23,株式会社グラッチェ,,株式会社,大阪府,大阪市旭区,赤川３丁目１２番２号,,27,117,5350005,,,,,,,2024-08-23,1,,,,,グラッチェ,0
635,3120003027356,新規,0,2024-08-23,2024-08-23,フォーラムＪ合同会社,,合同会社,大阪府,大阪市北区,鶴野町４番１１号朝日プラザ梅田２Ｆ－７８,,27,127,5300014,,,,,,,2024-08-23,1,,,,,フォーラムジェイ,0
639,3120103006029,新規,0,2024-08-23,2024-08-23,合同会社すどう,,合同会社,大阪府,和泉市,鶴山台１丁目１６番３号,,27,219,5940013,,,,,,,2024-08-23,1,,,,,スドウ,0
642,3120901049658,新規,0,2024-08-23,2024-08-23,ＭＭＳＴ株式会社,,株式会社,大阪府,吹田市,千里山西４丁目２番２５号,,27,205,5650851,,,,,,,2024-08-23,1,,,,,エムエムエスティ,0
643,3122003002966,新規,0,2024-08-23,2024-08-23,合同会社ＪＡＰＡＮＧＯ,,合同会社,大阪府,東大阪市,高井田元町１丁目１０－１、１０５号,,27,227,5770054,,,,,,,2024-08-23,1,,,,,ジャパンゴ,0
644,3122003002974,新規,0,2024-08-23,2024-08-23,合同会社ファノス,,合同会社,大阪府,大東市,北条１丁目１５番６６号,,27,218,5740011,,,,,,,2024-08-23,1,,,,,ファノス,0
647,3130003009799,新規,0,2024-08-23,2024-08-23,合同会社ウィズアス,,合同会社,京都府,京都市左京区,田中上柳町９１番地Ｓ－ＣＯＵＲＴ１１２号室,,26,103,6068205,,,,,,,2024-08-23,1,,,,,,0
648,3130003009808,新規,0,2024-08-23,2024-08-23,ＭＫエンジニアリング合同会社,,合同会社,京都府,京都市南区,東九条西山町１２番地１,,26,107,6018046,,,,,,,2024-08-23,1,,,,,エムケーエンジニアリング,0
655,3140003021002,新規,0,2024-08-23,2024-08-23,ＭｏｎｔｅＲｉｔｅ合同会社,,合同会社,兵庫県,西宮市,仁川百合野町８番１０号,,28,204,6620815,,,,,,,2024-08-23,1,,,,,モンテリテ,0
656,3150001027520,新規,0,2024-08-23,2024-08-23,株式会社五方,,株式会社,奈良県,奈良市,四条大路５丁目７番１０号,,29,201,6308014,,,,,,,2024-08-23,1,,,,,ゴホウ,0
659,3150003003346,新規,0,2024-08-23,2024-08-23,合同会社ＳＡ‐ｔａｋｅ,,合同会社,奈良県,葛城市,北花内４８８－１０,,29,211,6392113,,,,,,,2024-08-23,1,,,,,エスエーテイク,0
661,3160001026182,新規,0,2024-08-23,2024-08-23,ＡＳＡＮＯホールディングス株式会社,,株式会社,滋賀県,栗東市,高野５８８番地,,25,208,5203045,,,,,,,2024-08-23,1,,,,,アサノホールディングス,0
667,3180001162975,新規,0,2024-08-23,2024-08-23,株式会社石黒創建,,株式会社,愛知県,知多郡南知多町,大字内海字新田２４番地の１,,23,445,4703321,,,,,,,2024-08-23,1,,,,,イシグロソウケン,0
668,3180001162991,新規,0,2024-08-23,2024-08-23,株式会社整,,株式会社,愛知県,名古屋市中区,錦３丁目１７－１５ＥＸＩＴ　ＮＩＳＨＩＫＩ　ＭＩＤ５Ｆ,,23,106,4600003,,,,,,,2024-08-23,1,,,,,トトノイ,0
669,3180001163008,新規,0,2024-08-23,2024-08-23,ＴＯＰコーポレーション株式会社,,株式会社,愛知県,尾張旭市,長坂町南山２８７４番地２８８,,23,226,4880821,,,,,,,2024-08-23,1,,,,,トップコーポレーション,0
672,3180303006244,新規,0,2024-08-23,2024-08-23,合同会社リメイク,,合同会社,愛知県,豊田市,梅坪町３丁目９番地３マンション善六６０２号,,23,211,4710064,,,,,,,2024-08-23,1,,,,,リメイク,0
677,3200001042852,新規,0,2024-08-23,2024-08-23,株式会社楽匠,,株式会社,岐阜県,岐阜市,折立４７９番地１５,,21,201,5011132,,,,,,,2024-08-23,1,,,,,ラクショウ,0
678,3200001042860,新規,0,2024-08-23,2024-08-23,株式会社ＳＡＸＳＩＡ,,株式会社,岐阜県,可児市,矢戸１０３２‐２３,,21,214,5090252,,,,,,,2024-08-23,1,,,,,サクシア,0
679,3200003006475,新規,0,2024-08-23,2024-08-23,合同会社ＴＡＳＵＴＯ,,合同会社,岐阜県,岐阜市,小西郷１丁目７５番地,,21,201,5011176,,,,,,,2024-08-23,1,,,,,タスト,0
682,3220003003826,新規,0,2024-08-23,2024-08-23,合同会社ＨＵＺＵＭＡ,,合同会社,石川県,金沢市,玉鉾３丁目２７７番地,,17,201,9218002,,,,,,,2024-08-23,1,,,,,フジマ,0
697,3290001106698,新規,0,2024-08-23,2024-08-23,株式会社ＧＲＡＸＩＡ,,株式会社,福岡県,宗像市,青葉台１丁目２６－８,,40,220,8114162,,,,,,,2024-08-23,1,,,,,グラシア,0
698,3290001106970,新規,0,2024-08-23,2024-08-23,株式会社ＢＲＡＩＮ　ＧＲＯＵＰ,,株式会社,福岡県,福岡市南区,弥永３丁目１４番１号,,40,134,8111323,,,,,,,2024-08-23,1,,,,,ブレーングループ,0
699,3290001107036,新規,0,2024-08-23,2024-08-23,株式会社くるまとミライ,,株式会社,福岡県,糟屋郡宇美町,桜原２丁目５番２５号,,40,341,8112109,,,,,,,2024-08-23,1,,,,,クルマトミライ,0
702,3290003015658,新規,0,2024-08-23,2024-08-23,合同会社ＣＯＳＭＯ,,合同会社,福岡県,福岡市南区,野間１丁目６番９－８０２号,,40,134,8150041,,,,,,,2024-08-23,1,,,,,コスモ,0
703,3290003015699,新規,0,2024-08-23,2024-08-23,合同会社甲戌,,合同会社,福岡県,福岡市南区,柏原６丁目６２番１３号,,40,134,8111353,,,,,,,2024-08-23,1,,,,,カップシュル,0
704,3290003015708,新規,0,2024-08-23,2024-08-23,合同会社ホームミールソシアルクラブ,,合同会社,福岡県,福岡市中央区,舞鶴１丁目８番２６－１５２２号グランパーク天神Ｂ棟,,40,133,8100073,,,,,,,2024-08-23,1,,,,,ホームミールソシアルクラブ,0
707,3290803004827,新規,0,2024-08-23,2024-08-23,Ｅファミリー合同会社,,合同会社,福岡県,中間市,土手ノ内１丁目３１番２６号,,40,215,8090033,,,,,,,2024-08-23,1,,,,,イーファミリー,0
713,3330002023946,新規,0,2024-08-23,2024-08-23,有限会社松橋鉄筋工業,,有限会社,熊本県,宇城市,松橋町南豊崎６７８番地の１,,43,213,8690543,,,,,,,2024-08-23,1,,,,,マツバセテッキンコウギョウ,0
732,4010001247701,新規,0,2024-08-23,2024-08-23,株式会社ＰＬＡＹＧＯＯＦＩＮＧ,,株式会社,東京都,千代田区,神田神保町３丁目９番１５号幸保ビル２階Ｂ号室,,13,101,1010051,,,,,,,2024-08-23,1,,,,,プレイグーフィング,0
733,4010001247734,新規,0,2024-08-23,2024-08-23,株式会社ＮｅｏＷｏｒｋ,,株式会社,東京都,中央区,築地２丁目１－１４－６階,,13,102,1040045,,,,,,,2024-08-23,1,,,,,ネオワーク,0
734,4010001247742,新規,0,2024-08-23,2024-08-23,株式会社ＮＢＩホールディングス,,株式会社,東京都,中央区,銀座６丁目１０番１号,,13,102,1040061,,,,,,,2024-08-23,1,,,,,エヌビーアイホールディングス,0
735,4010001247750,新規,0,2024-08-23,2024-08-23,株式会社ファンク,,株式会社,東京都,千代田区,神田須田町１丁目７番８号ＶＯＲＴ秋葉原ＩＶ２Ｆ,00136060,13,101,1010041,,,,,,,2024-08-23,1,,,,,ファンク,0
742,4010005038675,新規,0,2024-08-23,2024-08-23,一般社団法人ＮＵＰ,,その他の設立登記法人,東京都,中央区,八重洲１丁目８番１７号新槇町ビル６Ｆ,,13,102,1030028,,,,,,,2024-08-23,1,,,,,ナップ,0
743,4010005038700,新規,0,2024-08-23,2024-08-23,一般社団法人ＴＦＪ９,,その他の設立登記法人,東京都,中央区,新川１丁目１７番１８号,,13,102,1040033,,,,,,,2024-08-23,1,,,,,ティーエフジェイナイン,0
753,4010401184271,新規,0,2024-08-23,2024-08-23,株式会社Ａｒｃｈｂｒｉｇｈｔ,,株式会社,東京都,港区,南青山３丁目１番３６号青山丸竹ビル６Ｆ,,13,103,1070062,,,,,,,2024-08-23,1,,,,,アーチブライト,0
754,4010401184635,新規,0,2024-08-23,2024-08-23,株式会社戦略財務総研,,株式会社,東京都,港区,北青山１丁目３番１号アールキューブ青山３階,,13,103,1070061,,,,,,,2024-08-23,1,,,,,センリャクザイムソウケン,0
755,4010401184651,新規,0,2024-08-23,2024-08-23,Ｎｅｗ　Ｕ　Ｌｉｆｅ　Ｊａｐａｎ株式会社,,株式会社,東京都,港区,西新橋１丁目２番９号日比谷セントラルビル１４階,,13,103,1050003,,,,,,,2024-08-23,1,,,,,ニューユーライフジャパン,0
759,4010403033286,新規,0,2024-08-23,2024-08-23,合同会社アールジェイ・デベロップメント,,合同会社,東京都,港区,虎ノ門１丁目２番８号リニューアブル・ジャパン株式会社内,,13,103,1050001,,,,,,,2024-08-23,1,,,,,アールジェイデベロップメント,0
761,4010501052808,新規,0,2024-08-23,2024-08-23,ＧＨＢ株式会社,,株式会社,東京都,台東区,台東１丁目２２番４号アストロン台東ビル,,13,106,1100016,,,,,,,2024-08-23,1,,,,,ジーエッチビー,0
765,4010901055856,新規,0,2024-08-23,2024-08-23,株式会社Ｓｅｒｅｎｄｉｐｉｔｙ,,株式会社,東京都,世田谷区,代沢４丁目４０－１０－Ｅ,,13,112,1550032,,,,,,,2024-08-23,1,,,,,セレンディピティ,0
766,4010901055864,新規,0,2024-08-23,2024-08-23,株式会社ＩＮＫＹＯＵＵＰ,,株式会社,東京都,世田谷区,野沢４丁目４－１０－１０８,,13,112,1540003,,,,,,,2024-08-23,1,,,,,インクユーアップ,0
768,4010903009298,新規,0,2024-08-23,2024-08-23,合同会社ＹＯＳＨＩＯ,,合同会社,東京都,世田谷区,船橋２丁目８番９号エイトビル４０５,,13,112,1560055,,,,,,,2024-08-23,1,,,,,ヨシオ,0
772,4011001164060,新規,0,2024-08-23,2024-08-23,株式会社クリスタル,,株式会社,東京都,渋谷区,神宮前５丁目４３－１,,13,113,1500001,,,,,,,2024-08-23,1,,,,,クリスタル,0
773,4011001164234,新規,0,2024-08-23,2024-08-23,株式会社Ｂｌｏｏｍ　Ｂｉｒｄ,,株式会社,東京都,渋谷区,広尾３丁目６番５号,,13,113,1500012,,,,,,,2024-08-23,1,,,,,ブルームバード,0
774,4011003019832,新規,0,2024-08-23,2024-08-23,合同会社Ｇａｉｔ,,合同会社,東京都,渋谷区,神宮前６丁目２３番４号桑野ビル２階,,13,113,1500001,,,,,,,2024-08-23,1,,,,,ゲート,0
776,4011101108537,新規,0,2024-08-23,2024-08-23,株式会社Ｓｔａｒ　Ｌｉｆｅ　Ｌｏｖｅ,,株式会社,東京都,新宿区,西新宿６丁目１２－７ストーク新宿ハローオフィス西新宿Ｃ－１２,,13,104,1600023,,,,,,,2024-08-23,1,,,,,,0
777,4011101108545,新規,0,2024-08-23,2024-08-23,株式会社Ｇ防衛隊,,株式会社,東京都,新宿区,西新宿３丁目７番３０号フロンティアグラン西新宿１０１,,13,104,1600023,,,,,,,2024-08-23,1,,,,,ジーボウエイタイ,0
778,4011101108553,新規,0,2024-08-23,2024-08-23,株式会社Ｒｕｂｙ,,株式会社,東京都,新宿区,歌舞伎町１丁目２番３号レオ新宿８０２,,13,104,1600021,,,,,,,2024-08-23,1,,,,,ルビー,0
779,4011101108561,新規,0,2024-08-23,2024-08-23,株式会社ＴＳＫマネジメント,,株式会社,東京都,新宿区,市谷台町９番９号,,13,104,1620066,,,,,,,2024-08-23,1,,,,,ティーエスケーマネジメント,0
780,4011103014824,新規,0,2024-08-23,2024-08-23,Ｐｅｐｐｅｒｍｉｎｔ　Ｃｏｍｐａｎｙ　Ｊａｐａｎ合同会社,,合同会社,東京都,新宿区,新宿５丁目１５番１４号,,13,104,1600022,,,,,,,2024-08-23,1,,,,,ペパーミントカンパニージャパン,0
781,4011103014832,新規,0,2024-08-23,2024-08-23,合同会社ワイズ,,合同会社,東京都,新宿区,北新宿２丁目２０番１－３１２号,,13,104,1690074,,,,,,,2024-08-23,1,,,,,ワイズ,0
783,4011301029946,新規,0,2024-08-23,2024-08-23,株式会社ＳＯＴ,,株式会社,東京都,杉並区,高円寺南４丁目７－４－５Ｆ,,13,115,1660003,,,,,,,2024-08-23,1,,,,,,0
788,4011603004432,新規,0,2024-08-23,2024-08-23,合同会社ＴＦミュー,,合同会社,東京都,練馬区,氷川台４丁目４７番１８号,,13,120,1790084,,,,,,,2024-08-23,1,,,,,ティーエフミュー,0
794,4011803006419,新規,0,2024-08-23,2024-08-23,合同会社Ｋ,,合同会社,東京都,葛飾区,新小岩１丁目２６番１５号フットヒルズ４０５,,13,122,1240024,,,,,,,2024-08-23,1,,,,,ケイ,0
805,4020001158633,新規,0,2024-08-23,2024-08-23,株式会社ＨＹＤＲＡ　ＩＮＮＯＶＡＴＩＯＮ,,株式会社,神奈川県,横浜市都筑区,南山田１丁目２－８,,14,118,2240029,,,,,,,2024-08-23,1,,,,,ハイドライノベーション,0
806,4020001158682,新規,0,2024-08-23,2024-08-23,Ｓｈａｋ　Ｔａｃｋｌｅ株式会社,,株式会社,神奈川県,横浜市鶴見区,本町通３丁目１６４番地１２,,14,101,2300048,,,,,,,2024-08-23,1,,,,,シャックタックル,0
807,4020001158716,新規,0,2024-08-23,2024-08-23,株式会社エンジアーク,,株式会社,神奈川県,横浜市旭区,上白根２丁目４８番１４－３０５号,,14,112,2410002,,,,,,,2024-08-23,1,,,,,エンジアーク,0
808,4020001158724,新規,0,2024-08-23,2024-08-23,株式会社テラフォーレ,,株式会社,神奈川県,川崎市高津区,明津３０番地,,14,134,2130024,,,,,,,2024-08-23,1,,,,,テラフォーレ,0
809,4020001158848,新規,0,2024-08-23,2024-08-23,株式会社ＴＲＹ　ＷＯＲＫＳ,,株式会社,神奈川県,横浜市中区,曙町１丁目３番藤和伊勢佐木町ハイタウン７１３号,,14,104,2310057,,,,,,,2024-08-23,1,,,,,トライワークス,0
810,4020001158864,新規,0,2024-08-23,2024-08-23,株式会社カナケン,,株式会社,神奈川県,横浜市保土ケ谷区,狩場町３０３番地４９６,,14,106,2400025,,,,,,,2024-08-23,1,,,,,カナケン,0
815,4021001083053,新規,0,2024-08-23,2024-08-23,株式会社ＢＬＡＣＫ,,株式会社,神奈川県,鎌倉市,山ノ内１１５番地３,,14,204,2470062,,,,,,,2024-08-23,1,,,,,ブラック,0
816,4021001083086,新規,0,2024-08-23,2024-08-23,ＥｘｏＢｒｉｄｇｅ株式会社,,株式会社,神奈川県,相模原市緑区,寸沢嵐７９３番地,,14,151,2520176,,,,,,,2024-08-23,1,,,,,エクソブリッジ,0
818,4021003014931,新規,0,2024-08-23,2024-08-23,アライメント合同会社,,合同会社,神奈川県,鎌倉市,山崎９８０番地５サウスアリーナ鎌倉大船７０６号,,14,204,2470066,,,,,,,2024-08-23,1,,,,,アライメント,0
826,4030001162089,新規,0,2024-08-23,2024-08-23,株式会社ＣｏｓｍｏＮｅｏ,,株式会社,埼玉県,越谷市,大字大泊４７４番地９,,11,222,3430044,,,,,,,2024-08-23,1,,,,,コスモネオ,0
827,4030001162097,新規,0,2024-08-23,2024-08-23,株式会社テラステラ,,株式会社,埼玉県,越谷市,大沢３丁目２５番１２号,,11,222,3430025,,,,,,,2024-08-23,1,,,,,テラステラ,0
828,4030001162106,新規,0,2024-08-23,2024-08-23,株式会社ナカダ,,株式会社,埼玉県,春日部市,南１丁目１１番１１号,,11,214,3440064,,,,,,,2024-08-23,1,,,,,ナカダ,0
839,4040001135077,新規,0,2024-08-23,2024-08-23,株式会社ＫＩＳＨＩＫＥＮ,,株式会社,千葉県,船橋市,習志野１丁目１２番１８号,,12,204,2740071,,,,,,,2024-08-23,1,,,,,キシケン,0
844,4040003025549,新規,0,2024-08-23,2024-08-23,合同会社ＰＬＤ,,合同会社,千葉県,鎌ケ谷市,東道野辺４丁目４－３７－３９,,12,224,2730115,,,,,,,2024-08-23,1,,,,,ピーエルディー,0
846,4050001055308,新規,0,2024-08-23,2024-08-23,株式会社サードプレイス,,株式会社,茨城県,猿島郡境町,大字長井戸１７４番地２,,08,546,3060404,,,,,,,2024-08-23,1,,,,,サードプレイス,0
848,4060001037429,新規,0,2024-08-23,2024-08-23,株式会社ＳＥＮＮＡ,,株式会社,栃木県,那須郡那須町,大字豊原丙６０３番地１,,09,407,3293225,,,,,,,2024-08-23,1,,,,,セナ,0
860,4100003007706,新規,0,2024-08-23,2024-08-23,合同会社ＩＮＡＺＵＭＡ,,合同会社,長野県,上田市,中丸子７３４番地,,20,203,3860405,,,,,,,2024-08-23,1,,,,,イナズマ,0
861,4100005013215,新規,0,2024-08-23,2024-08-23,一般社団法人風穴の里,,その他の設立登記法人,長野県,松本市,安曇３５２８番地１,,20,202,3901520,,,,,,,2024-08-23,1,,,,,フウケツノサト,0
864,4110001038660,新規,0,2024-08-23,2024-08-23,株式会社アストラ上越,,株式会社,新潟県,上越市,大字福橋１１４７番地３,,15,222,9420033,,,,,,,2024-08-23,1,,,,,アストラジョウエツ,0
867,4120001267977,新規,0,2024-08-23,2024-08-23,玖逸株式会社,,株式会社,大阪府,大阪市東成区,大今里西２丁目５番２１－９０２号,,27,115,5370014,,,,,,,2024-08-23,1,,,,,キュウイツ,0
870,4120003027371,新規,0,2024-08-23,2024-08-23,合同会社ＴｏｔａｌＡｇｅｎｃｅ,,合同会社,大阪府,大阪市城東区,今福西２丁目１７番１３号,,27,118,5360004,,,,,,,2024-08-23,1,,,,,トータルエイジェンシ,0
874,4120101070190,新規,0,2024-08-23,2024-08-23,正和株式会社,,株式会社,大阪府,堺市美原区,さつき野東３丁目８番地６,,27,147,5870032,,,,,,,2024-08-23,1,,,,,セイワ,0
877,4120103006028,新規,0,2024-08-23,2024-08-23,合同会社ｓｉ‐ｓｏ,,合同会社,大阪府,河内長野市,栄町１９番１８号,,27,216,5860032,,,,,,,2024-08-23,1,,,,,シーソー,0
884,4130001077780,新規,0,2024-08-23,2024-08-23,株式会社オレンジムーン,,株式会社,京都府,京都市南区,吉祥院這登西町２８番地,,26,107,6018351,,,,,,,2024-08-23,1,,,,,オレンジムーン,0
890,4140001135579,新規,0,2024-08-23,2024-08-23,株式会社ｃｏｍｐａｓｓ,,株式会社,兵庫県,姫路市,白鳥台２丁目２０番１５号,,28,201,6712245,,,,,,,2024-08-23,1,,,,,コンパス,0
891,4140001135587,新規,0,2024-08-23,2024-08-23,株式会社Ｅｍｐａｓｓｉａ,,株式会社,兵庫県,高砂市,荒井町扇町１５番１１号３０１,,28,216,6760016,,,,,,,2024-08-23,1,,,,,エンパシア,0
893,4140003021001,新規,0,2024-08-23,2024-08-23,合同会社ライア,,合同会社,兵庫県,神戸市中央区,北野町４丁目１７番４－３０４号,,28,110,6500002,,,,,,,2024-08-23,1,,,,,ライア,0
895,4180001162990,新規,0,2024-08-23,2024-08-23,株式会社ヘルスケアプロモート,,株式会社,愛知県,一宮市,長島町４丁目２５番地６,,23,203,4910071,,,,,,,2024-08-23,1,,,,,ヘルスケアプロモート,0
896,4180001162999,新規,0,2024-08-23,2024-08-23,親広未来株式会社,,株式会社,愛知県,名古屋市守山区,翠松園２丁目６１３番地,,23,113,4630010,,,,,,,2024-08-23,1,,,,,シンコウミライ,0
897,4180001163007,新規,0,2024-08-23,2024-08-23,株式会社とんまる,,株式会社,愛知県,小牧市,小松寺１丁目１０１番地,,23,219,4850828,,,,,,,2024-08-23,1,,,,,トンマル,0
899,4180003027259,新規,0,2024-08-23,2024-08-23,合同会社いぬわん,,合同会社,愛知県,名古屋市千種区,内山３丁目２６番１７号千種駅カスタムビル３階,,23,101,4640075,,,,,,,2024-08-23,1,,,,,イヌワン,0
900,4180003027267,新規,0,2024-08-23,2024-08-23,Ｓａｃｒｅｄ　Ｃｏｒｅ合同会社,,合同会社,愛知県,愛知郡東郷町,大字和合字知々釜１６７番地１ベルコリーヌ６０１,,23,302,4700153,,,,,,,2024-08-23,1,,,,,セイクレッドコア,0
904,4190003004777,新規,0,2024-08-23,2024-08-23,合同会社ＮＴトラスト,,合同会社,三重県,四日市市,楠町本郷１７２４番地,,24,202,5100106,,,,,,,2024-08-23,1,,,,,エヌティートラスト,0
906,4200001042843,新規,0,2024-08-23,2024-08-23,株式会社ＥＩＧＨＴＰＬＡＮ,,株式会社,岐阜県,岐阜市,東改田字再勝５８番地１０,,21,201,5011144,,,,,,,2024-08-23,1,,,,,エイトプラン,0
908,4210001019881,新規,0,2024-08-23,2024-08-23,株式会社Ｔｓ’Ｐｌａｎ,,株式会社,福井県,敦賀市,堂１２号１８番地の３,,18,202,9140036,,,,,,,2024-08-23,1,,,,,ティーズプラン,0
915,4260001039396,新規,0,2024-08-23,2024-08-23,株式会社高山工業,,株式会社,岡山県,岡山市北区,建部町大田４３９４番地,,33,101,7093121,,,,,,,2024-08-23,1,,,,,タカヤマコウギョウ,0
917,4280001009240,新規,0,2024-08-23,2024-08-23,株式会社ａｎｄ　Ｍ,,株式会社,島根県,出雲市,上塩冶町２５２１番地５,,32,203,6930022,,,,,,,2024-08-23,1,,,,,アンドエム,0
918,4280003001880,新規,0,2024-08-23,2024-08-23,創クラフト合同会社,,合同会社,島根県,松江市,外中原町３３２番地レジデンス外中原３０１,,32,201,6900875,,,,,,,2024-08-23,1,,,,,ソウクラフト,0
924,4290001106788,新規,0,2024-08-23,2024-08-23,株式会社Ｂｏｄｙ　Ｒｅｐａｉｒ　Ｅｉｇｈｔ,,株式会社,福岡県,福岡市早良区,早良５丁目１２番１号,,40,137,8111122,,,,,,,2024-08-23,1,,,,,ボディリペアエイト,0
925,4290001106870,新規,0,2024-08-23,2024-08-23,華益商事株式会社,,株式会社,福岡県,福岡市東区,箱崎１丁目２８番１４－３０２号ロマネスク箱崎,,40,131,8120053,,,,,,,2024-08-23,1,,,,,カエキショウジ,0
926,4290001106887,新規,0,2024-08-23,2024-08-23,バイオエッセンシア株式会社,,株式会社,福岡県,福岡市中央区,御所ヶ谷２番３０－１０４号,,40,133,8100027,,,,,,,2024-08-23,1,,,,,バイオエッセンシア,0
927,4290001106895,新規,0,2024-08-23,2024-08-23,株式会社ＱＪモータージャパン,,株式会社,福岡県,福岡市東区,香椎駅前２丁目８番２２号,,40,131,8130013,,,,,,,2024-08-23,1,,,,,キュージェイモータージャパン,0
928,4290001106912,新規,0,2024-08-23,2024-08-23,株式会社ＨＲＧ,,株式会社,福岡県,福岡市早良区,城西２丁目１３番５２号－６０８号,,40,137,8140003,,,,,,,2024-08-23,1,,,,,エイチアールジー,0
929,4290001106920,新規,0,2024-08-23,2024-08-23,株式会社ディフェンド,,株式会社,福岡県,福岡市城南区,別府３丁目１番１１号,,40,136,8140104,,,,,,,2024-08-23,1,,,,,ディフェンド,0
930,4290001106953,新規,0,2024-08-23,2024-08-23,株式会社ＴＨＲＥＥ‐Ｃ　ＣＯＲＰＯＲＡＴＩＯＮ,,株式会社,福岡県,福岡市南区,南大橋１丁目１８番１－３０１号フラット上野,,40,134,8150034,,,,,,,2024-08-23,1,,,,,スリーシーコーポレーション,0
940,4330001032352,新規,0,2024-08-23,2024-08-23,株式会社Ｙ’ｓ　ＣＯＯＬ,,株式会社,熊本県,熊本市南区,富合町小岩瀬２４４番地１,,43,104,8614161,,,,,,,2024-08-23,1,,,,,ワイズクール,0
945,4360001034107,新規,0,2024-08-23,2024-08-23,株式会社パールオアシス,,株式会社,沖縄県,糸満市,字潮平６３２番地３－１０６号,,47,210,9010302,,,,,,,2024-08-23,1,,,,,パールオアシス,0
946,4360001034115,新規,0,2024-08-23,2024-08-23,株式会社Ｔ‐ＤＡ,,株式会社,沖縄県,石垣市,字新川４１８番地１,,47,207,9070024,,,,,,,2024-08-23,1,,,,,ティーダ,0
958,4430001092535,新規,0,2024-08-23,2024-08-23,株式会社ライスネットキャピタル,,株式会社,北海道,札幌市厚別区,厚別南１丁目８番２８号２階,,01,108,0040022,,,,,,,2024-08-23,1,,,,,ライスネットキャピタル,0
963,4430003016715,新規,0,2024-08-23,2024-08-23,合同会社ＫＡＺ,,合同会社,北海道,札幌市北区,新川四条１０丁目６番１４号トラパーＩ２０１号,00136065,01,102,0010924,,,,,,,2024-08-23,1,,,,,ケーエーゼット,0
977,5010001247436,新規,0,2024-08-23,2024-08-23,シンプレクス・ヘリテージ株式会社,,株式会社,東京都,千代田区,丸の内１丁目５番１号,,13,101,1000005,,,,,,,2024-08-23,1,,,,,シンプレクスヘリテージ,0
978,5010001247452,新規,0,2024-08-23,2024-08-23,株式会社ＧａｎｄＳ,,株式会社,東京都,千代田区,丸の内１丁目８番１号丸の内トラストタワーＮ棟１９階,,13,101,1000005,,,,,,,2024-08-23,1,,,,,ジーアンドエス,0
979,5010001247709,新規,0,2024-08-23,2024-08-23,株式会社ＦＵＴＵＲＥＭＩＮＤ,,株式会社,東京都,千代田区,外神田３丁目２－８大矢ビルＩＩ３階,00136061,13,101,1010021,,,,,,,2024-08-23,1,,,,,フューチャーマインド,0
980,5010001247717,新規,0,2024-08-23,2024-08-23,株式会社Ｓ‐ＳＴＹＬＥ,,株式会社,東京都,中央区,日本橋本町１丁目４番３号,,13,102,1030023,,,,,,,2024-08-23,1,,,,,エススタイル,0
983,5010003044674,新規,0,2024-08-23,2024-08-23,Ａｎｏｎ　Ａｇｅｎｃｙ合同会社,,合同会社,東京都,千代田区,神田三崎町３丁目５番９号天翔水道橋ビル８０５号室,,13,101,1010061,,,,,,,2024-08-23,1,,,,,アノンエージェンシー,0
986,5010005038682,新規,0,2024-08-23,2024-08-23,Ｔｏｋｙｏ２４特定目的会社,,その他の設立登記法人,東京都,千代田区,丸の内１丁目８番２号鉄鋼ビルディング４階,,13,101,1000005,,,,,,,2024-08-23,1,,,,,トウキョウトゥエンティフォー,0
994,5010401184279,新規,0,2024-08-23,2024-08-23,株式会社ｓｔａｎｄ．ｆｍ,,株式会社,東京都,港区,南青山５丁目１７－２－４０２,,13,103,1070062,,,,,,,2024-08-23,1,,,,,スタンドエフエム,0
995,5010401184634,新規,0,2024-08-23,2024-08-23,富士ウォーターパック株式会社,,株式会社,東京都,港区,北青山２丁目１０番２１号,,13,103,1070061,,,,,,,2024-08-23,1,,,,,フジウォーターパック,0
998,5010501052807,新規,0,2024-08-23,2024-08-23,上上謙株式会社,,株式会社,東京都,台東区,台東４丁目１８－２－３０１,,13,106,1100016,,,,,,,2024-08-23,1,,,,,ジョウジョウケン,0
1002,5010601065790,新規,0,2024-08-23,2024-08-23,株式会社ｋｅｉ,,株式会社,東京都,墨田区,横川４丁目１２番１３－１０２号,,13,107,1300003,,,,,,,2024-08-23,1,,,,,ケイ,0
1008,5010901055847,新規,0,2024-08-23,2024-08-23,８３４１株式会社,,株式会社,東京都,世田谷区,瀬田２丁目２２番３号,,13,112,1580095,,,,,,,2024-08-23,1,,,,,ヤサシイ,0
1017,5011001164051,新規,0,2024-08-23,2024-08-23,株式会社メガジン,,株式会社,東京都,渋谷区,南平台町８－１１,,13,113,1500036,,,,,,,2024-08-23,1,,,,,メガジン,0
1018,5011001164191,新規,0,2024-08-23,2024-08-23,ＦＥＡＳＴ株式会社,,株式会社,東京都,渋谷区,本町３丁目５１‐１７‐７０５プラウド渋谷本町,,13,113,1510071,,,,,,,2024-08-23,1,,,,,フィースト,0
1020,5011101108404,新規,0,2024-08-23,2024-08-23,株式会社インズオブコート,,株式会社,東京都,新宿区,西新宿３丁目３番１３号西新宿水間ビル６階,,13,104,1600023,,,,,,,2024-08-23,1,,,,,インズオブコート,0
1021,5011101108528,新規,0,2024-08-23,2024-08-23,大和寛坐株式会社,,株式会社,東京都,新宿区,東五軒町１番９号ＳＢＳ・Ｂ－２,,13,104,1620813,,,,,,,2024-08-23,1,,,,,ダイワカンザ,0
1022,5011101108544,新規,0,2024-08-23,2024-08-23,株式会社Ｂｉｚドクター,,株式会社,東京都,新宿区,西新宿３丁目３番１３号西新宿水間ビル６階,,13,104,1600023,,,,,,,2024-08-23,1,,,,,ビズドクター,0
1023,5011101108552,新規,0,2024-08-23,2024-08-23,Ｒｈｉｚｏｍｅ株式会社,,株式会社,東京都,新宿区,北新宿２丁目９番３号,,13,104,1690074,,,,,,,2024-08-23,1,,,,,リゾーム,0
1024,5011101108560,新規,0,2024-08-23,2024-08-23,Ｔｉｅｄ株式会社,,株式会社,東京都,新宿区,西新宿３丁目３番１３号西新宿水間ビル６階,,13,104,1600023,,,,,,,2024-08-23,1,,,,,タイド,0
1025,5011103014831,新規,0,2024-08-23,2024-08-23,合同会社ｔｈｒｉｖｅｋ,,合同会社,東京都,新宿区,住吉町４番４号,,13,104,1620065,,,,,,,2024-08-23,1,,,,,スライブケー,0
1026,5011401026371,新規,0,2024-08-23,2024-08-23,株式会社ワイズ,,株式会社,東京都,板橋区,四葉１丁目８番１０－３０３号,,13,119,1750084,,,,,,,2024-08-23,1,,,,,ワイズ,0
1030,5011601028011,新規,0,2024-08-23,2024-08-23,株式会社橋本商事,,株式会社,東京都,練馬区,田柄４丁目１８番２１号,,13,120,1790073,,,,,,,2024-08-23,1,,,,,ハシモトショウジ,0
1031,5011603004431,新規,0,2024-08-23,2024-08-23,合同会社ＴＦイプシロン,,合同会社,東京都,練馬区,氷川台４丁目４７番１８号,,13,120,1790084,,,,,,,2024-08-23,1,,,,,ティーエフイプシロン,0
1034,5011801044741,新規,0,2024-08-23,2024-08-23,晟安株式会社,,株式会社,東京都,足立区,江北２丁目１０－４,,13,121,1230872,,,,,,,2024-08-23,1,,,,,セイアン,0
1036,5012701018414,新規,0,2024-08-23,2024-08-23,株式会社ＧＯＬＤＥＮ　ＤＡＷＮｉｎｇ,,株式会社,東京都,東久留米市,本町１丁目４番２８号,,13,222,2030053,,,,,,,2024-08-23,1,,,,,ゴールデンドーニング,0
1038,5012801023413,新規,0,2024-08-23,2024-08-23,めぐみ福祉サービス株式会社,,株式会社,東京都,昭島市,代官山１丁目６番５号,,13,207,1960005,,,,,,,2024-08-23,1,,,,,メグミフクシサービス,0
1046,5020001158599,新規,0,2024-08-23,2024-08-23,株式会社トウヤ,,株式会社,神奈川県,横浜市戸塚区,戸塚町３４４１番地５４,,14,110,2440003,,,,,,,2024-08-23,1,,,,,トウヤ,0
1047,5020001158698,新規,0,2024-08-23,2024-08-23,株式会社ｃｒｅｓｃｅｎｔ,,株式会社,神奈川県,横浜市都筑区,仲町台１丁目３２番２１号アルス仲町台せせらぎ公園壱番館１０１,,14,118,2240041,,,,,,,2024-08-23,1,,,,,クレセント,0
1048,5020001158748,新規,0,2024-08-23,2024-08-23,ししど商事株式会社,,株式会社,神奈川県,横浜市港北区,大豆戸町２０４番地１－３０３号,,14,109,2220032,,,,,,,2024-08-23,1,,,,,シシドショウジ,0
1049,5020001158764,新規,0,2024-08-23,2024-08-23,株式会社五和,,株式会社,神奈川県,川崎市多摩区,菅城下２２番１０号,,14,135,2140007,,,,,,,2024-08-23,1,,,,,イツワ,0
1052,5020003026713,新規,0,2024-08-23,2024-08-23,合同会社ＳＡＴＯＫＯ,,合同会社,神奈川県,横浜市都筑区,茅ケ崎東４丁目４番１０号ガーデンスクエア１０５,,14,118,2240033,,,,,,,2024-08-23,1,,,,,サトコ,0
1054,5021001013389,新規,0,2024-08-23,2024-08-23,株式会社トラベルライン,,株式会社,神奈川県,相模原市中央区,淵野辺４丁目１番１１号,,14,152,2520206,,,,,,,2024-08-23,1,,,,,トラベルライン,0
1057,5021001082946,新規,0,2024-08-23,2024-08-23,株式会社検索順位の海賊,,株式会社,神奈川県,小田原市,栄町２丁目１２－１０，ＳｑｕａｒｅＯ２，１階,,14,206,2500011,,,,,,,2024-08-23,1,,,,,ケンサクジュンイノカイゾク,0
1059,5021003014906,新規,0,2024-08-23,2024-08-23,合同会社Ａ‐ｌｉｎｅ,,合同会社,神奈川県,大和市,福田１６０６番地１,,14,213,2420024,,,,,,,2024-08-23,1,,,,,エーライン,0
1060,5030001162039,新規,0,2024-08-23,2024-08-23,株式会社Ａｓｓｉｓｔ　Ｏｎｅ,,株式会社,埼玉県,川口市,芝富士２丁目５番２４－１００６号マイキャッスル南浦和,,11,203,3330854,,,,,,,2024-08-23,1,,,,,アシストワン,0
1061,5030001162071,新規,0,2024-08-23,2024-08-23,タパ株式会社,,株式会社,埼玉県,和光市,新倉１丁目７番７７号コーポナカハラ１０５,,11,229,3510115,,,,,,,2024-08-23,1,,,,,タパ,0
1062,5030001162088,新規,0,2024-08-23,2024-08-23,株式会社翔建設,,株式会社,埼玉県,狭山市,広瀬３丁目１２番５号,,11,215,3501319,,,,,,,2024-08-23,1,,,,,カケルケンセツ,0
1063,5030001162096,新規,0,2024-08-23,2024-08-23,株式会社ＲｅＬｉｆｅ,,株式会社,埼玉県,春日部市,緑町４丁目１２番２２号,,11,214,3440063,,,,,,,2024-08-23,1,,,,,リライフ,0
1064,5030001162105,新規,0,2024-08-23,2024-08-23,株式会社クレーンシステムジャパン,,株式会社,埼玉県,さいたま市大宮区,下町２丁目６０番地１,,11,103,3300844,,,,,,,2024-08-23,1,,,,,クレーンシステムジャパン,0
1067,5030005021827,新規,0,2024-08-23,2024-08-23,一般社団法人こもれびの杜,,その他の設立登記法人,埼玉県,越谷市,南越谷１丁目１９番地８,,11,222,3430845,,,,,,,2024-08-23,1,,,,,コモレビノモリ,0
1069,5040001135068,新規,0,2024-08-23,2024-08-23,株式会社ｆｏｕｎｄ　ａ　ｃｏｍｐａｎｙ　ＺＫＳ,,株式会社,千葉県,千葉市花見川区,南花園１丁目３６番３号,,12,102,2620022,,,,,,,2024-08-23,1,,,,,ファウンドアカンパニーゼケス,0
1072,5040003025647,新規,0,2024-08-23,2024-08-23,平賀の里合同会社,,合同会社,千葉県,印西市,平賀２１７３番地,,12,231,2701605,,,,,,,2024-08-23,1,,,,,ヒラカノサト,0
1074,5040005022477,新規,0,2024-08-23,2024-08-23,一般社団法人ＬＭＡＫＥ．スポーツクラブ,,その他の設立登記法人,千葉県,市原市,馬立１７２８番地１,,12,219,2900221,,,,,,,2024-08-23,1,,,,,エルメイクスポーツクラブ,0
1076,5050001055315,新規,0,2024-08-23,2024-08-23,ＳＫＳ商会株式会社,,株式会社,茨城県,常陸太田市,天神林町２４３６番地の１,,08,212,3130049,,,,,,,2024-08-23,1,,,,,エスケーエスショウカイ,0
1093,5120001267836,新規,0,2024-08-23,2024-08-23,Ｄａｌｖｅｙ株式会社,,株式会社,大阪府,大阪市中央区,南船場１丁目３－１０サンライズ長堀１１０６室,,27,128,5420081,,,,,,,2024-08-23,1,,,,,デルウィ,0
1094,5120001268009,新規,0,2024-08-23,2024-08-23,株式会社翔,,株式会社,大阪府,大阪市北区,豊崎７丁目６番４－１１０７号,,27,127,5310072,,,,,,,2024-08-23,1,,,,,カケル,0
1106,5120901049648,新規,0,2024-08-23,2024-08-23,朝明株式会社,,株式会社,大阪府,豊中市,豊南町西３丁目１９番９号,,27,203,5610816,,,,,,,2024-08-23,1,,,,,アサアケ,0
1107,5120901049656,新規,0,2024-08-23,2024-08-23,株式会社ライブレター,,株式会社,大阪府,吹田市,千里山西５丁目３９番１１号,,27,205,5650851,,,,,,,2024-08-23,1,,,,,ライブレター,0
1113,5130001077788,新規,0,2024-08-23,2024-08-23,プリマホーム株式会社,,株式会社,京都府,京都市中京区,壬生朱雀町８－１３,,26,104,6048871,,,,,,,2024-08-23,1,,,,,プリマホーム,0
1114,5130001077796,新規,0,2024-08-23,2024-08-23,ファーストワン株式会社,,株式会社,京都府,京都市下京区,七条御所ノ内中町６４番地１,,26,106,6008862,,,,,,,2024-08-23,1,,,,,ファーストワン,0
1115,5130003009789,新規,0,2024-08-23,2024-08-23,合同会社Ｌｉｂｅｒｔｙ　ｓｐａｃｅ,,合同会社,京都府,京都市上京区,元誓願寺通大宮西入元妙蓮寺町５５２番地５,00136059,26,102,6028443,,,,,,,2024-08-23,1,,,,,リバティースペース,0
1119,5150001027519,新規,0,2024-08-23,2024-08-23,ＢＯＮＵＳ　ＨＯＬＤＩＮＧＳ株式会社,,株式会社,奈良県,奈良市,小西町８番地１ラフィーヌ東洋奈良ビル３－Ｂ,,29,201,6308226,,,,,,,2024-08-23,1,,,,,ボヌースホールディングス,0
1120,5150005009620,新規,0,2024-08-23,2024-08-23,一般社団法人Ｌｉｐｐｏｒｔ,,その他の設立登記法人,奈良県,大和郡山市,小泉町７４９－３リバーサイド大和小泉３０５,,29,203,6391042,,,,,,,2024-08-23,1,,,,,リポート,0
1126,5180001162957,新規,0,2024-08-23,2024-08-23,株式会社ＡＲＩＫＡ,,株式会社,愛知県,名古屋市千種区,神田町５番１６号－２,,23,101,4640077,,,,,,,2024-08-23,1,,,,,アリカ,0
1127,5180001162981,新規,0,2024-08-23,2024-08-23,株式会社キョウセイ,,株式会社,愛知県,豊明市,栄町新左山１番地６３７,,23,229,4701161,,,,,,,2024-08-23,1,,,,,キョウセイ,0
1131,5180301038989,新規,0,2024-08-23,2024-08-23,株式会社ＳＨＩＮＫＡ,,株式会社,愛知県,豊橋市,豊清町字茶屋ノ下１５４－２,,23,201,4413115,,,,,,,2024-08-23,1,,,,,シンカ,0
1132,5180303006242,新規,0,2024-08-23,2024-08-23,３ＨＯＵＳＥ合同会社,,合同会社,愛知県,高浜市,論地町４丁目３番地２８レジデンス千田３－Ｃ,,23,227,4441314,,,,,,,2024-08-23,1,,,,,スリーハウス,0
1133,5190001031582,新規,0,2024-08-23,2024-08-23,ＴＭＳ株式会社,,株式会社,三重県,四日市市,羽津中１丁目２番３１号,,24,202,5100002,,,,,,,2024-08-23,1,,,,,ティーエムエス,0
1134,5200001042859,新規,0,2024-08-23,2024-08-23,株式会社ミラージュ,,株式会社,岐阜県,土岐市,泉明治町１丁目２２－２今井アパート２－３,,21,212,5095146,,,,,,,2024-08-23,1,,,,,ミラージュ,0
1135,5200003006465,新規,0,2024-08-23,2024-08-23,合同会社ＡＲＣ,,合同会社,岐阜県,各務原市,上戸町２丁目３３番地,,21,213,5040927,,,,,,,2024-08-23,1,,,,,エーアールシー,0
1138,5210001019889,新規,0,2024-08-23,2024-08-23,株式会社大善地所,,株式会社,福井県,福井市,和田中２丁目２３０９番地２,,18,201,9188236,,,,,,,2024-08-23,1,,,,,ダイゼンジショ,0
1141,5240001063736,新規,0,2024-08-23,2024-08-23,株式会社Ｆｏｒｅｔ,,株式会社,広島県,広島市南区,南蟹屋１丁目１番９－４０１号,,34,103,7320803,,,,,,,2024-08-23,1,,,,,フォレ,0
1142,5240003006825,新規,0,2024-08-23,2024-08-23,合同会社ひまわり美装,,合同会社,広島県,福山市,蔵王町３２２３番地２４,,34,207,7210971,,,,,,,2024-08-23,1,,,,,ヒマワリビソウ,0
1152,5290001106936,新規,0,2024-08-23,2024-08-23,株式会社コレト,,株式会社,福岡県,福岡市中央区,大名２丁目２番４２－４０１号,,40,133,8100041,,,,,,,2024-08-23,1,,,,,コレト,0
1154,5290003015672,新規,0,2024-08-23,2024-08-23,合同会社メディックエア,,合同会社,福岡県,福岡市博多区,那珂５丁目６番２２－３０５号,,40,132,8120893,,,,,,,2024-08-23,1,,,,,メディックエア,0
1155,5290003015697,新規,0,2024-08-23,2024-08-23,合同会社ＡＣＳ,,合同会社,福岡県,みやま市,高田町濃施３２０番地１,,40,229,8390215,,,,,,,2024-08-23,1,,,,,エーシーエス,0
1156,5290003015706,新規,0,2024-08-23,2024-08-23,合同会社ｓｗａｇ,,合同会社,福岡県,福岡市東区,香椎駅前１丁目３番１５－８１２号香椎エクセル１３,,40,131,8130013,,,,,,,2024-08-23,1,,,,,スワッグ,0
1157,5290003015714,新規,0,2024-08-23,2024-08-23,合同会社Ｔｈｅ　Ｂｅａｃｈｓｉｄｅ,,合同会社,福岡県,福岡市西区,今宿駅前１丁目１５－１８マリブ今宿シーサイドテラス３Ｆ,,40,135,8190168,,,,,,,2024-08-23,1,,,,,ビーチサイド,0
1164,5360001034114,新規,0,2024-08-23,2024-08-23,株式会社いなか,,株式会社,沖縄県,島尻郡八重瀬町,字富盛２７１番地,,47,362,9010402,,,,,,,2024-08-23,1,,,,,イナカ,0
1172,5380001034731,新規,0,2024-08-23,2024-08-23,株式会社Ｂ．ｂｒｉｄｇｅ,,株式会社,福島県,須賀川市,保土原字西原１６番地,,07,207,9620045,,,,,,,2024-08-23,1,,,,,ビーブリッジ,0
1184,5430001092534,新規,0,2024-08-23,2024-08-23,株式会社ワンテイク,,株式会社,北海道,札幌市北区,新琴似五条１６丁目４－２２,,01,102,0010905,,,,,,,2024-08-23,1,,,,,ワンテイク,0
1190,6010001247641,新規,0,2024-08-23,2024-08-23,株式会社ＳＯＲＡ,,株式会社,東京都,中央区,銀座８丁目８－５,,13,102,1040061,,,,,,,2024-08-23,1,,,,,ソラ,0
1191,6010001247699,新規,0,2024-08-23,2024-08-23,蒼株式会社,,株式会社,東京都,千代田区,有楽町１丁目１番２号日比谷三井タワー１２階,,13,101,1000006,,,,,,,2024-08-23,1,,,,,アオイ,0
1192,6010001247708,新規,0,2024-08-23,2024-08-23,トリプレット株式会社,,株式会社,東京都,千代田区,飯田橋２丁目９番７号東西館ビル３０４,,13,101,1020072,,,,,,,2024-08-23,1,,,,,トリプレット,0
1195,6010003044624,新規,0,2024-08-23,2024-08-23,ギャラクシースター２合同会社,,合同会社,東京都,千代田区,霞が関３丁目２番５号,,13,101,1000013,,,,,,,2024-08-23,1,,,,,ギャラクシースターツー,0
1198,6010103002408,新規,0,2024-08-23,2024-08-23,合同会社全和国際,,合同会社,東京都,八王子市,万町１－３Ｎ－ｓｔａｇｅＨａｃｈｉｏｊｉＩＩ３０４,00136051,13,201,1920903,,,,,,,2024-08-23,1,,,,,ゼンワコクサイ,0
1221,6011001164075,新規,0,2024-08-23,2024-08-23,株式会社ＳＩＮＹＯＵ,,株式会社,東京都,渋谷区,道玄坂１丁目１６－６二葉ビル８ｂ,,13,113,1500043,,,,,,,2024-08-23,1,,,,,シンヨウ,0
1226,6011101108535,新規,0,2024-08-23,2024-08-23,株式会社ＧＭＫ　ＪＡＰＡＮ,,株式会社,東京都,新宿区,大久保１丁目２番１号天翔東新宿ビル５階５０９号室,,13,104,1690072,,,,,,,2024-08-23,1,,,,,ジーエムケージャパン,0
1227,6011101108551,新規,0,2024-08-23,2024-08-23,株式会社ＬａＴ,,株式会社,東京都,新宿区,新宿２丁目１２番１３号新宿アントレサロンビル２階,,13,104,1600022,,,,,,,2024-08-23,1,,,,,ラット,0
1228,6011101108568,新規,0,2024-08-23,2024-08-23,東亞建株式会社,,株式会社,東京都,新宿区,西新宿３丁目１０番４号ゼノン西新宿２０１号室,,13,104,1600023,,,,,,,2024-08-23,1,,,,,トウアケン,0
1233,6011401026370,新規,0,2024-08-23,2024-08-23,銀星国際株式会社,,株式会社,東京都,板橋区,高島平８丁目１５番１０号パレット高島平６３３,,13,119,1750082,,,,,,,2024-08-23,1,,,,,ギンセイコクサイ,0
1236,6011601028010,新規,0,2024-08-23,2024-08-23,株式会社イタダキ,,株式会社,東京都,練馬区,北町８丁目５－１１メゾンエトワール２０３,,13,120,1790081,,,,,,,2024-08-23,1,,,,,イタダキ,0
1240,6012301014052,新規,0,2024-08-23,2024-08-23,株式会社カナデ,,株式会社,東京都,町田市,図師町９５１番地１,,13,209,1940203,,,,,,,2024-08-23,1,,,,,カナデ,0
1243,6012801023412,新規,0,2024-08-23,2024-08-23,株式会社ＩＭＰ,,株式会社,東京都,立川市,錦町１丁目４番４号サニービル２Ｆ,,13,202,1900022,,,,,,,2024-08-23,1,,,,,アイエムピー,0
1255,6020001158598,新規,0,2024-08-23,2024-08-23,株式会社ｅ‐ＢＩＫＥ　ＴＯＵＲＳ　ＪＡＰＡＮ,,株式会社,神奈川県,川崎市麻生区,高石１丁目１９番２号,,14,137,2150003,,,,,,,2024-08-23,1,,,,,イーバイクツアーズジャパン,0
1256,6020001158631,新規,0,2024-08-23,2024-08-23,株式会社三和建工,,株式会社,神奈川県,横浜市中区,山田町５番地１フロール山田町第２－１１,,14,104,2310036,,,,,,,2024-08-23,1,,,,,サンワケンコウ,0
1257,6020001158689,新規,0,2024-08-23,2024-08-23,株式会社ＫＭＭＭ　Ａｓｓｅｔ　Ｍａｎａｇｅｍｅｎｔ,,株式会社,神奈川県,川崎市多摩区,生田６丁目２番３１－４０１号,,14,135,2140038,,,,,,,2024-08-23,1,,,,,ケイエムエムエムアセットマネジメント,0
1258,6020001158813,新規,0,2024-08-23,2024-08-23,株式会社上村,,株式会社,神奈川県,横浜市中区,新山下２丁目４番３号,,14,104,2310801,,,,,,,2024-08-23,1,,,,,ウエムラ,0
1262,6020003026695,新規,0,2024-08-23,2024-08-23,合同会社ＩＮＦＩＮＩＳ,,合同会社,神奈川県,横浜市港北区,綱島西５丁目１５番８号,,14,109,2230053,,,,,,,2024-08-23,1,,,,,インフィンス,0
1267,6021001083076,新規,0,2024-08-23,2024-08-23,株式会社ＴＧＥＭ,,株式会社,神奈川県,厚木市,温水西１丁目２９番７号,,14,212,2430039,,,,,,,2024-08-23,1,,,,,ティージェム,0
1268,6021001083084,新規,0,2024-08-23,2024-08-23,株式会社ＰＯＥ,,株式会社,神奈川県,小田原市,中里４６８,,14,206,2500872,,,,,,,2024-08-23,1,,,,,ピーオーイー,0
1278,6030001162095,新規,0,2024-08-23,2024-08-23,株式会社タイラ,,株式会社,埼玉県,日高市,大字台２２番地５,,11,242,3501253,,,,,,,2024-08-23,1,,,,,タイラ,0
1279,6030001162104,新規,0,2024-08-23,2024-08-23,株式会社ＳＰＥＣＴＲＥ,,株式会社,埼玉県,八潮市,大瀬４丁目３番４号,,11,234,3400822,,,,,,,2024-08-23,1,,,,,スペクター,0
1283,6040001135075,新規,0,2024-08-23,2024-08-23,株式会社デザインラボ・温故知新,,株式会社,千葉県,船橋市,宮本７丁目１２番１３号,,12,204,2730003,,,,,,,2024-08-23,1,,,,,デザインラボオンコチシン,0
1286,6050001055306,新規,0,2024-08-23,2024-08-23,ＭＩＡＮ　ＴＲＡＤＩＮＧ株式会社,,株式会社,茨城県,筑西市,藤ケ谷２０９１番地ロマ０６号,,08,227,3080112,,,,,,,2024-08-23,1,,,,,ミヤトレーディング,0
1287,6050001055314,新規,0,2024-08-23,2024-08-23,株式会社勝貴,,株式会社,茨城県,ひたちなか市,大字東石川３１０４番地３０,,08,221,3120052,,,,,,,2024-08-23,1,,,,,カツキ,0
1298,6090001018878,新規,0,2024-08-23,2024-08-23,株式会社セコプロ,,株式会社,山梨県,都留市,法能６８６番地２ＭＡＩＳＯＮ・ＤＥ・Ｓ１０５,,19,204,4020025,,,,,,,2024-08-23,1,,,,,セコプロ,0
1305,6120001267942,新規,0,2024-08-23,2024-08-23,株式会社Ｈ＆Ｈ　ＥＭＰＩＲＥ,,株式会社,大阪府,大阪市城東区,古市３丁目１５番８号（２０２号室）,,27,118,5360001,,,,,,,2024-08-23,1,,,,,エイチアンドエイチエンパイアー,0
1306,6120001267983,新規,0,2024-08-23,2024-08-23,明亮株式会社,,株式会社,大阪府,大阪市住之江区,北島３丁目１２番１２号,,27,125,5590014,,,,,,,2024-08-23,1,,,,,メイリョウ,0
1307,6120001267991,新規,0,2024-08-23,2024-08-23,ｅＲＯＤ　Ｏｓａｋａ株式会社,,株式会社,大阪府,大阪市北区,梅田１丁目２番２号大阪駅前第２ビル１２－１２,,27,127,5300001,,,,,,,2024-08-23,1,,,,,イーロッドオオサカ,0
1314,6120003027345,新規,0,2024-08-23,2024-08-23,グレーシア合同会社,,合同会社,大阪府,大阪市淀川区,西中島３丁目１１番２６号,,27,123,5320011,,,,,,,2024-08-23,1,,,,,グレーシア,0
1317,6120901049614,新規,0,2024-08-23,2024-08-23,ランドスケープ建築アート株式会社,,株式会社,大阪府,豊中市,豊南町西１丁目１番２７号,,27,203,5610816,,,,,,,2024-08-23,1,,,,,ランドスケープケンチクアート,0
1326,6140001135577,新規,0,2024-08-23,2024-08-23,ＫＥＩＴＨ　ＪＡＰＡＮ株式会社,,株式会社,兵庫県,三木市,別所町小林７３４番地の６７７,,28,215,6730434,,,,,,,2024-08-23,1,,,,,ケースジャパン,0
1327,6140003020991,新規,0,2024-08-23,2024-08-23,合同会社貴峰,,合同会社,兵庫県,西宮市,寿町２－１２,,28,204,6620047,,,,,,,2024-08-23,1,,,,,タカネ,0
1343,6180001163005,新規,0,2024-08-23,2024-08-23,株式会社みかさや,,株式会社,愛知県,名古屋市西区,枇杷島３丁目２９番１８号（シャトー白菊１０５号）,,23,104,4510053,,,,,,,2024-08-23,1,,,,,ミカサヤ,0
1353,6200001042858,新規,0,2024-08-23,2024-08-23,株式会社ピンクッション,,株式会社,岐阜県,各務原市,那加西市場町１丁目１７番地,,21,213,5040018,,,,,,,2024-08-23,1,,,,,ピンクッション,0
1355,6240001063735,新規,0,2024-08-23,2024-08-23,株式会社びんごスポーツパークマネジメント,,株式会社,広島県,広島市中区,袋町４番３１号,,34,101,7300036,,,,,,,2024-08-23,1,,,,,ビンゴスポーツパークマネジメント,0
1356,6250001020784,新規,0,2024-08-23,2024-08-23,株式会社マリオ,,株式会社,山口県,下関市,上新地町２丁目１１－８,,35,201,7500061,,,,,,,2024-08-23,1,,,,,マリオ,0
1367,6290001106885,新規,0,2024-08-23,2024-08-23,株式会社Ｆ,,株式会社,福岡県,福岡市中央区,舞鶴１丁目８番２６－８１３号,,40,133,8100073,,,,,,,2024-08-23,1,,,,,エフ,0
1368,6290001106893,新規,0,2024-08-23,2024-08-23,４ｒｅ株式会社,,株式会社,福岡県,宗像市,神湊７９３番地１,,40,220,8113501,,,,,,,2024-08-23,1,,,,,フォーリー,0
1369,6290003015696,新規,0,2024-08-23,2024-08-23,米来合同会社,,合同会社,福岡県,福岡市早良区,飯倉３丁目４５－１７ファミールハピネス原１０２,,40,137,8140161,,,,,,,2024-08-23,1,,,,,ヨネキ,0
1392,6360003014237,新規,0,2024-08-23,2024-08-23,合同会社Ｃ‐ＳＴＹＬＥ,,合同会社,沖縄県,中頭郡読谷村,字古堅８６８－２,,47,324,9040314,,,,,,,2024-08-23,1,,,,,シースタイル,0
1393,6360003014253,新規,0,2024-08-23,2024-08-23,合同会社呉屋組,,合同会社,沖縄県,那覇市,前島３丁目２５番２号泊ポートビル１Ｆ,,47,201,9000016,,,,,,,2024-08-23,1,,,,,ゴヤグミ,0
1397,6380001034747,新規,0,2024-08-23,2024-08-23,ＴＥＧ株式会社,,株式会社,福島県,郡山市,田村町桜ケ丘２丁目２０３番地,,07,203,9630723,,,,,,,2024-08-23,1,,,,,ティーイージー,0
1401,6410001013920,新規,0,2024-08-23,2024-08-23,株式会社平田源太郎,,株式会社,秋田県,横手市,大町６番２９号,,05,203,0130021,,,,,,,2024-08-23,1,,,,,ヒラタゲンタロウ,0
1416,6700150126849,新規,0,2024-08-23,2024-08-23,立石駅南口東地区市街地再開発組合,,その他,東京都,葛飾区,立石８丁目６番１８号染谷ビル２階,,13,122,1240012,,,,,,,2024-08-23,1,,,,,タテイシエキミナミグチヒガシチクシガイチサイカイハツクミアイ,0
1419,7010001247442,新規,0,2024-08-23,2024-08-23,株式会社Ｙｓｔｅｃ,,株式会社,東京都,千代田区,富士見２丁目７番２号ステージビルディング,,13,101,1020071,,,,,,,2024-08-23,1,,,,,ワイズテック,0
1420,7010001247608,新規,0,2024-08-23,2024-08-23,Ｓｔａｖｉａｎ　Ｊａｐａｎ株式会社,,株式会社,東京都,千代田区,神田駿河台３丁目４龍名館本店ビル３階,,13,101,1010062,,,,,,,2024-08-23,1,,,,,スタビアンジャパン,0
1421,7010001247707,新規,0,2024-08-23,2024-08-23,株式会社禧曜,,株式会社,東京都,千代田区,神田淡路町１丁目９－５天翔御茶ノ水ビル６階６０４号室,,13,101,1010063,,,,,,,2024-08-23,1,,,,,キヨウ,0
1424,7010003044664,新規,0,2024-08-23,2024-08-23,合同会社ブリザデザイン,,合同会社,東京都,千代田区,神田須田町１丁目７番８号ＶＯＲＴ秋葉原ＩＶ２Ｆ,00136055,13,101,1010041,,,,,,,2024-08-23,1,,,,,ブリザデザイン,0
1425,7010003044689,新規,0,2024-08-23,2024-08-23,日本橋商事合同会社,,合同会社,東京都,中央区,日本橋茅場町２丁目１７－３－３０５,,13,102,1030025,,,,,,,2024-08-23,1,,,,,,0
1428,7010005038672,新規,0,2024-08-23,2024-08-23,一般社団法人水道情報活用システム標準仕様研究会,,その他の設立登記法人,東京都,千代田区,丸の内３丁目４番１号,,13,101,1000005,,,,,,,2024-08-23,1,,,,,スイドウジョウホウカツヨウシステムヒョウジュンシヨウケンキュウカイ,0
1434,7010401184649,新規,0,2024-08-23,2024-08-23,ＴＲＹＳＥＥ　ＣＲＥＡＴＥ株式会社,,株式会社,東京都,港区,南青山２丁目２番１５号,,13,103,1070062,,,,,,,2024-08-23,1,,,,,トライシィクリエイト,0
1439,7010501052805,新規,0,2024-08-23,2024-08-23,株式会社ＩＮＴＥＧＲＡ,,株式会社,東京都,台東区,柳橋２丁目１５番５号,,13,106,1110052,,,,,,,2024-08-23,1,,,,,インテグラ,0
1443,7010601065797,新規,0,2024-08-23,2024-08-23,株式会社櫻華,,株式会社,東京都,江東区,南砂３丁目１１番１２－３１２号,,13,108,1360076,,,,,,,2024-08-23,1,,,,,オウカ,0
1456,7011001163984,新規,0,2024-08-23,2024-08-23,ＥＳＴＨＥＲ　ＦＯＲＭＵＬＡ　ＪＡＰＡＮ株式会社,,株式会社,東京都,渋谷区,道玄坂１丁目１２番１号渋谷マークシティｗ２２階,,13,113,1500043,,,,,,,2024-08-23,1,,,,,エスターフォーミュラジャパン,0
1457,7011001164108,新規,0,2024-08-23,2024-08-23,Ｂｒｉｇｈｔｅｎｌｙ株式会社,,株式会社,東京都,渋谷区,円山町５番５号Ｎａｖｉ渋谷Ｖ３階,,13,113,1500044,,,,,,,2024-08-23,1,,,,,ブライトンリー,0
1458,7011001164124,新規,0,2024-08-23,2024-08-23,Ｒｅｔｅｎｔｉｏｎ　Ｃｏｎｓｕｌｔｉｎｇ株式会社,,株式会社,東京都,渋谷区,神宮前６丁目２３番４号桑野ビル２階,,13,113,1500001,,,,,,,2024-08-23,1,,,,,リテンションコンサルティング,0
1463,7011101108427,新規,0,2024-08-23,2024-08-23,株式会社ヤスヒロビル,,株式会社,東京都,新宿区,大久保３丁目８番１－１７０８号,,13,104,1690072,,,,,,,2024-08-23,1,,,,,ヤスヒロビル,0
1464,7011101108542,新規,0,2024-08-23,2024-08-23,Ａｒ　Ｙｏｎｅ　Ｏｏ株式会社,,株式会社,東京都,新宿区,西新宿３丁目１６番８号こゆきコーポ２０４号室,,13,104,1600023,,,,,,,2024-08-23,1,,,,,アーヨウンウー,0
1465,7011103014763,新規,0,2024-08-23,2024-08-23,さくらｗｅｂサービス合同会社,,合同会社,東京都,新宿区,西新宿３丁目３番１３号西新宿水間ビル２Ｆ,,13,104,1600023,,,,,,,2024-08-23,1,,,,,サクラウェブサービス,0
1466,7011105011123,新規,0,2024-08-23,2024-08-23,一般財団法人國際金融財団,,その他の設立登記法人,東京都,新宿区,四谷４丁目１３番１号四谷金子ビル３階,,13,104,1600004,,,,,,,2024-08-23,1,,,,,コクサイキンユウザイダン,0
1472,7011601028001,新規,0,2024-08-23,2024-08-23,株式会社ＺＯＷＡＣ,,株式会社,東京都,練馬区,練馬１丁目２０番８号日建練馬ビル２Ｆ,,13,120,1760001,,,,,,,2024-08-23,1,,,,,ゾワック,0
1483,7013301053007,新規,0,2024-08-23,2024-08-23,株式会社Ｌ＆Ｋ　Ｊａｐａｎ,,株式会社,東京都,豊島区,高松２丁目５２番９号アンジュール高松１０２,,13,116,1710042,,,,,,,2024-08-23,1,,,,,エルアンドケイジャパン,0
1489,7020001158597,新規,0,2024-08-23,2024-08-23,株式会社レジェンドペンギン,,株式会社,神奈川県,横浜市瀬谷区,瀬谷４丁目７番１０号森川ビル２Ｆ,,14,114,2460031,,,,,,,2024-08-23,1,,,,,レジェンドペンギン,0
1490,7020001158622,新規,0,2024-08-23,2024-08-23,株式会社Ｂｅａｕｔｉｆｕｌｃａｏｓ,,株式会社,神奈川県,川崎市高津区,下作延２丁目３５番１１号,,14,134,2130033,,,,,,,2024-08-23,1,,,,,ビューティフルカオス,0
1491,7020001158630,新規,0,2024-08-23,2024-08-23,株式会社メディケア・キャリアサポート,,株式会社,神奈川県,横浜市中区,常盤町１丁目２番地１サンネット関内ビル,,14,104,2310014,,,,,,,2024-08-23,1,,,,,メディケアキャリアサポート,0
1492,7020001158705,新規,0,2024-08-23,2024-08-23,株式会社ＢＲＵＴＵＳ　ＦＩＴＮＥＳＳ,,株式会社,神奈川県,横浜市緑区,いぶき野３３番地４,,14,113,2260028,,,,,,,2024-08-23,1,,,,,ブルータスフィットネス,0
1493,7020001158746,新規,0,2024-08-23,2024-08-23,日東ホールディングス株式会社,,株式会社,神奈川県,川崎市川崎区,水江町４番３号,,14,131,2100866,,,,,,,2024-08-23,1,,,,,ニットウホールディングス,0
1494,7020001158878,新規,0,2024-08-23,2024-08-23,株式会社ｃｏｎｔｒａｉｌｚ,,株式会社,神奈川県,横浜市保土ケ谷区,釜台町４１番７号,,14,106,2400066,,,,,,,2024-08-23,1,,,,,コントレイルズ,0
1501,7020003026678,新規,0,2024-08-23,2024-08-23,合同会社マナツノツキ,,合同会社,神奈川県,川崎市中原区,市ノ坪７５番地,,14,133,2110016,,,,,,,2024-08-23,1,,,,,マナツノツキ,0
1502,7020003026686,新規,0,2024-08-23,2024-08-23,合同会社ＨＳアセット,,合同会社,神奈川県,川崎市高津区,末長１丁目９－１－７０６,,14,134,2130013,,,,,,,2024-08-23,1,,,,,エイチエスアセット,0
1503,7020003026694,新規,0,2024-08-23,2024-08-23,合同会社ＡＮＩＭＡＴＯ,,合同会社,神奈川県,横浜市西区,浅間町２丁目９５番地３ハイツ・ラ・ビスタ３０７号,,14,103,2200072,,,,,,,2024-08-23,1,,,,,アニマート,0
1506,7021005013169,新規,0,2024-08-23,2024-08-23,一般財団法人ＳＹＧ教育財団,,その他の設立登記法人,神奈川県,茅ヶ崎市,汐見台３番１５号,,14,207,2530033,,,,,,,2024-08-23,1,,,,,エスワイジーキョウイクザイダン,0
1510,7030001162086,新規,0,2024-08-23,2024-08-23,株式会社ロードライン,,株式会社,埼玉県,熊谷市,西城６９６番地４,,11,202,3600214,,,,,,,2024-08-23,1,,,,,ロードライン,0
1511,7030001162094,新規,0,2024-08-23,2024-08-23,株式会社アセットリノベート,,株式会社,埼玉県,上尾市,柏座２丁目２番地２０号藤栄ビル２Ｆ（Ｄ室）,,11,219,3620075,,,,,,,2024-08-23,1,,,,,アセットリノベート,0
1512,7030001162111,新規,0,2024-08-23,2024-08-23,株式会社岩秀,,株式会社,埼玉県,八潮市,大字木曽根６１１番地１,,11,234,3400813,,,,,,,2024-08-23,1,,,,,イワヒデ,0
1524,7040001135066,新規,0,2024-08-23,2024-08-23,株式会社Ｇ．Ｉ．,,株式会社,千葉県,野田市,木間ケ瀬６１７７番地の２,,12,208,2700222,,,,,,,2024-08-23,1,,,,,ジーアイ,0
1530,7050001055305,新規,0,2024-08-23,2024-08-23,株式会社チョップ,,株式会社,茨城県,那珂郡東海村,大字村松２１２５番地６３,,08,341,3191112,,,,,,,2024-08-23,1,,,,,チョップ,0
1535,7060001037401,新規,0,2024-08-23,2024-08-23,株式会社都建匠,,株式会社,栃木県,足利市,堀込町１５６７番地３,,09,202,3260831,,,,,,,2024-08-23,1,,,,,ミヤコケンショウ,0
1555,7120001267784,新規,0,2024-08-23,2024-08-23,株式会社ＯｎｅＣｌｉｃｋ,,株式会社,大阪府,大阪市北区,芝田２丁目８－１１,,27,127,5300012,,,,,,,2024-08-23,1,,,,,ワンクリック,0
1556,7120001267925,新規,0,2024-08-23,2024-08-23,株式会社ＡＮＤＯ,,株式会社,大阪府,大阪市中央区,日本橋１丁目１８番１号日本一会舘４０１号室,,27,128,5420073,,,,,,,2024-08-23,1,,,,,アンド,0
1557,7120001267941,新規,0,2024-08-23,2024-08-23,株式会社ＪＵＮメディカルサービス,,株式会社,大阪府,大阪市天王寺区,筆ケ崎町５番５３－１４１５号,,27,109,5430027,,,,,,,2024-08-23,1,,,,,ジュンメディカルサービス,0
1558,7120001267982,新規,0,2024-08-23,2024-08-23,株式会社松川工作所,,株式会社,大阪府,大阪市鶴見区,諸口５丁目浜１１番１５号,,27,124,5380051,,,,,,,2024-08-23,1,,,,,マツカワコウサクショ,0
1559,7120001267999,新規,0,2024-08-23,2024-08-23,株式会社ニューウェーブ,,株式会社,大阪府,大阪市天王寺区,味原町１５番５号イルリッシュ上本町１０２号,,27,109,5430023,,,,,,,2024-08-23,1,,,,,ニューウェーブ,0
1561,7120003027360,新規,0,2024-08-23,2024-08-23,ｒｕｎｗａｙ　ｃｒｅａｔｉｏｎ合同会社,,合同会社,大阪府,大阪市北区,梅田１丁目２番２号大阪駅前第２ビル１２－１２,,27,127,5300001,,,,,,,2024-08-23,1,,,,,ランウェイクリエーション,0
1564,7120101070188,新規,0,2024-08-23,2024-08-23,株式会社Ｌｉｆｅ　ｗｉｔｈ　Ｄｅｌｉｇｈｔ,,株式会社,大阪府,岸和田市,野田町３丁目３番３１号ＭＩＮＡＭＩビル２－Ｄ,,27,202,5960076,,,,,,,2024-08-23,1,,,,,ライフウィズディライト,0
1572,7130001077786,新規,0,2024-08-23,2024-08-23,株式会社霞合,,株式会社,京都府,亀岡市,保津町山ノ坊６９,,26,206,6210005,,,,,,,2024-08-23,1,,,,,カスミアワセ,0
1580,7150001027517,新規,0,2024-08-23,2024-08-23,株式会社河合,,株式会社,奈良県,大和郡山市,馬司町３３１番地４５,,29,203,6391124,,,,,,,2024-08-23,1,,,,,カワイ,0
1581,7160005011334,新規,0,2024-08-23,2024-08-23,一般社団法人全国優良探偵士会,,その他の設立登記法人,滋賀県,彦根市,馬場２丁目６番３３－７０４号,,25,202,5220069,,,,,,,2024-08-23,1,,,,,ゼンコクユウリョウタンテイシカイ,0
1583,7170003002094,新規,0,2024-08-23,2024-08-23,合同会社にこ,,合同会社,和歌山県,新宮市,徐福１丁目１番地の１０、２Ｆ,,30,207,6470020,,,,,,,2024-08-23,1,,,,,ニコ,0
1596,7180003027256,新規,0,2024-08-23,2024-08-23,合同会社アウル,,合同会社,愛知県,尾張旭市,北原山町六田池２１３７番地１,,23,226,4880061,,,,,,,2024-08-23,1,,,,,アウル,0
1599,7200001042832,新規,0,2024-08-23,2024-08-23,ｉホーム株式会社,,株式会社,岐阜県,岐阜市,上土居３丁目６番６号,,21,201,5020803,,,,,,,2024-08-23,1,,,,,アイホーム,0
1600,7200001042840,新規,0,2024-08-23,2024-08-23,株式会社ＪＣＴ　ＩＮＴＥＲＮＡＴＩＯＮＡＬ,,株式会社,岐阜県,海津市,南濃町津屋字中屋敷２３４１番地９,,21,221,5030401,,,,,,,2024-08-23,1,,,,,ジェーシーティーインターナショナル,0
1604,7250001020783,新規,0,2024-08-23,2024-08-23,株式会社オリビア,,株式会社,山口県,萩市,大井１９９０番地３２,,35,204,7593611,,,,,,,2024-08-23,1,,,,,オリビア,0
1608,7290001106769,新規,0,2024-08-23,2024-08-23,株式会社原興業,,株式会社,福岡県,八女市,吉田２８１番地２７,,40,210,8340006,,,,,,,2024-08-23,1,,,,,ハラコウギョウ,0
1609,7290001106901,新規,0,2024-08-23,2024-08-23,株式会社治正,,株式会社,福岡県,古賀市,駅東５丁目７番２５号,,40,223,8113102,,,,,,,2024-08-23,1,,,,,ハルマサ,0
1610,7290001106934,新規,0,2024-08-23,2024-08-23,株式会社金次屋ｓ．ｒ．ｌ,,株式会社,福岡県,福岡市中央区,警固３丁目３番２５号,,40,133,8100023,,,,,,,2024-08-23,1,,,,,キンジヤエスアールエル,0
1611,7290001106942,新規,0,2024-08-23,2024-08-23,あじやビレッジ株式会社,,株式会社,福岡県,福岡市西区,福重１丁目１番３９号,,40,135,8190022,,,,,,,2024-08-23,1,,,,,アジヤビレッジ,0
1612,7290001106950,新規,0,2024-08-23,2024-08-23,株式会社ロズブル,,株式会社,福岡県,福岡市博多区,冷泉町十番十号第二西山ビル,,40,132,8120039,,,,,,,2024-08-23,1,,,,,ロズブル,0
1613,7290001106967,新規,0,2024-08-23,2024-08-23,株式会社ｈｏｏｐｅ,,株式会社,福岡県,福岡市西区,西都１丁目１７番２７－２０７号,,40,135,8190367,,,,,,,2024-08-23,1,,,,,ホープ,0
1616,7290003015712,新規,0,2024-08-23,2024-08-23,合同会社Ａｓｉａ　Ｅｄｕ　Ｂｒｉｄｇｅ　Ｊａｐａｎ,,合同会社,福岡県,糟屋郡新宮町,緑ケ浜１丁目３４番１０号,,40,345,8110119,,,,,,,2024-08-23,1,,,,,アジアエデュブリッジジャパン,0
1617,7290801030821,新規,0,2024-08-23,2024-08-23,株式会社ＫＭ企画,,株式会社,福岡県,北九州市小倉北区,紺屋町６－６トクシンビル４Ｆ－Ａ,,40,106,8020081,,,,,,,2024-08-23,1,,,,,ケイエムキカク,0
1625,7330003010535,新規,0,2024-08-23,2024-08-23,合同会社正尚会,,合同会社,熊本県,宇土市,松山町３７６８－１,,43,211,8690416,,,,,,,2024-08-23,1,,,,,セイショウカイ,0
1628,7340003004577,新規,0,2024-08-23,2024-08-23,合同会社ＭＤＣ,,合同会社,鹿児島県,鹿児島市,山之口町８番２６号細山田ＢＬＤ．５Ｂ１Ｆ,,46,201,8920844,,,,,,,2024-08-23,1,,,,,エムディーシー,0
1642,7380001034746,新規,0,2024-08-23,2024-08-23,株式会社ＡＳＫ,,株式会社,福島県,いわき市,湘南台１丁目１番地２,,07,204,9718152,,,,,,,2024-08-23,1,,,,,エーエスケー,0
1654,7490005006953,新規,0,2024-08-23,2024-08-23,一般社団法人高知アンビシャスの会,,その他の設立登記法人,高知県,高知市,丸ノ内２丁目８番２０号,,39,201,7800850,,,,,,,2024-08-23,1,,,,,コウチアンビシャスノカイ,0
1675,8010001247648,新規,0,2024-08-23,2024-08-23,山水株式会社,,株式会社,東京都,千代田区,富士見２丁目７番２号飯田橋プラーノステージビルディングＪ５０２,,13,101,1020071,,,,,,,2024-08-23,1,,,,,サンスイ,0
1676,8010001247680,新規,0,2024-08-23,2024-08-23,株式会社ステラ,,株式会社,東京都,中央区,銀座８丁目４－２ワタナベファーストビル６階,,13,102,1040061,,,,,,,2024-08-23,1,,,,,ステラ,0
1682,8010003044671,新規,0,2024-08-23,2024-08-23,合同会社ふらいでぃっしゅ,,合同会社,東京都,千代田区,神田佐久間町１丁目１４番地第２東ビル３０３,,13,101,1010025,,,,,,,2024-08-23,1,,,,,フライディッシュ,0
1685,8010005038671,新規,0,2024-08-23,2024-08-23,一般社団法人ＢｉｚＯｐｓ協会,,その他の設立登記法人,東京都,中央区,日本橋浜町１丁目４番１４－３０１号,,13,102,1030007,,,,,,,2024-08-23,1,,,,,ビズオプスキョウカイ,0
1686,8010005038713,新規,0,2024-08-23,2024-08-23,一般社団法人ＨＭ名駅,,その他の設立登記法人,東京都,中央区,日本橋１丁目４番１号日本橋一丁目ビルディング,,13,102,1030027,,,,,,,2024-08-23,1,,,,,エイチエムメイエキ,0
1699,8010501052804,新規,0,2024-08-23,2024-08-23,Ｌｉｎｇｚｏｎｅ株式会社,,株式会社,東京都,台東区,上野３丁目１６－２天翔上野末広町ビル６１１号室,,13,106,1100005,,,,,,,2024-08-23,1,,,,,リンゾウ,0
1719,8011001164107,新規,0,2024-08-23,2024-08-23,株式会社ＯＰＵＳＭＥＮＴ,,株式会社,東京都,渋谷区,道玄坂１丁目１０番８号渋谷道玄坂東急ビル２Ｆ－Ｃ,,13,113,1500043,,,,,,,2024-08-23,1,,,,,オーパスメント,0
1720,8011001164271,新規,0,2024-08-23,2024-08-23,燈・アンド・カンパニー株式会社,,株式会社,東京都,渋谷区,代々木４丁目２５番１,,13,113,1510053,,,,,,,2024-08-23,1,,,,,アカリアンドカンパニー,0
1724,8011101108426,新規,0,2024-08-23,2024-08-23,株式会社タケッツ,,株式会社,東京都,新宿区,大久保３丁目８番１－１７０８号,,13,104,1690072,,,,,,,2024-08-23,1,,,,,タケッツ,0
1725,8011101108434,新規,0,2024-08-23,2024-08-23,日和産業株式会社,,株式会社,東京都,新宿区,西新宿７丁目７番２３号トミービル４階ＳＳ－ＯＦＦＩＣＥ新宿３号室,,13,104,1600023,,,,,,,2024-08-23,1,,,,,ニチワサンギョウ,0
1729,8011103014829,新規,0,2024-08-23,2024-08-23,合同会社伊勢商事,,合同会社,東京都,新宿区,西新宿４丁目５番４号エスタシオン西新宿８０１,,13,104,1600023,,,,,,,2024-08-23,1,,,,,イセショウジ,0
1732,8011601028009,新規,0,2024-08-23,2024-08-23,株式会社Ｔｏｏｌｃｈａｉｎ,,株式会社,東京都,練馬区,練馬１丁目２０－８日建練馬ビル２Ｆ,,13,120,1760001,,,,,,,2024-08-23,1,,,,,ツールチェイン,0
1734,8011701027554,新規,0,2024-08-23,2024-08-23,株式会社ＫＥＩ,,株式会社,東京都,江戸川区,東小松川１丁目１１番２２号,,13,123,1320033,,,,,,,2024-08-23,1,,,,,ケーイーアイ,0
1737,8012703003080,新規,0,2024-08-23,2024-08-23,合同会社ａａｌｔｏ,,合同会社,東京都,西東京市,ひばりが丘１丁目１２番２７号,,13,229,2020001,,,,,,,2024-08-23,1,,,,,アアルト,0
1748,8020001158670,新規,0,2024-08-23,2024-08-23,株式会社エス・テープランニング,,株式会社,神奈川県,横浜市中区,野毛町３丁目１３３－６高文堂１階,,14,104,2310064,,,,,,,2024-08-23,1,,,,,エステープランニング,0
1749,8020001158704,新規,0,2024-08-23,2024-08-23,株式会社ケイ企画,,株式会社,神奈川県,横浜市港南区,上永谷５丁目７番３４号,,14,111,2330012,,,,,,,2024-08-23,1,,,,,ケイキカク,0
1750,8020001158745,新規,0,2024-08-23,2024-08-23,株式会社ライフミート,,株式会社,神奈川県,横浜市保土ケ谷区,上菅田町５８９番地１７,,14,106,2400051,,,,,,,2024-08-23,1,,,,,ライフミート,0
1754,8020003026693,新規,0,2024-08-23,2024-08-23,合同会社ＡＨＬ,,合同会社,神奈川県,横浜市緑区,長津田みなみ台６丁目１３番地２アクリベルテＩ－１０２号,00136057,14,113,2260018,,,,,,,2024-08-23,1,,,,,エイエイチエル,0
1755,8020003026719,新規,0,2024-08-23,2024-08-23,ＳＴＡＤ合同会社,,合同会社,神奈川県,川崎市高津区,宇奈根７２２番地１９川本ビル３階Ｂ,,14,134,2130031,,,,,,,2024-08-23,1,,,,,エスティーエーディー,0
1756,8020003026735,新規,0,2024-08-23,2024-08-23,ＡＫＪコンサルティング合同会社,,合同会社,神奈川県,横浜市中区,住吉町６丁目７８番地１－６０６号室,,14,104,2310013,,,,,,,2024-08-23,1,,,,,エイケイジェイコンサルティング,0
1757,8020003026801,新規,0,2024-08-23,2024-08-23,合同会社ヨココム,,合同会社,神奈川県,横浜市保土ケ谷区,保土ケ谷町１丁目２５番地コスモ横浜保土ヶ谷２１７号,,14,106,2400021,,,,,,,2024-08-23,1,,,,,ヨココム,0
1759,8020005016503,新規,0,2024-08-23,2024-08-23,一般社団法人ｓｅｔｔｅｎ,,その他の設立登記法人,神奈川県,横浜市西区,北幸２丁目１０番４８号むつみビル３階,,14,103,2200004,,,,,,,2024-08-23,1,,,,,セッテン,0
1763,8021003014928,新規,0,2024-08-23,2024-08-23,合同会社和煌,,合同会社,神奈川県,厚木市,下川入２２７番地１プレジール倖和ＩＩ１０３,00136064,14,212,2430206,,,,,,,2024-08-23,1,,,,,ワコウ,0
1764,8021003014936,新規,0,2024-08-23,2024-08-23,合同会社一日,,合同会社,神奈川県,相模原市緑区,橋本２丁目８番１６号和光ビル２階２０１号室,,14,151,2520143,,,,,,,2024-08-23,1,,,,,イチニチ,0
1768,8030001162102,新規,0,2024-08-23,2024-08-23,日海株式会社,,株式会社,埼玉県,上尾市,小泉３丁目２３番地１２号,,11,219,3620063,,,,,,,2024-08-23,1,,,,,ニッカイ,0
1769,8030001162110,新規,0,2024-08-23,2024-08-23,株式会社ＳＹＭＭＥＲＳ,,株式会社,埼玉県,北本市,石戸４丁目２２７,,11,233,3640024,,,,,,,2024-08-23,1,,,,,シマース,0
1773,8030003024985,新規,0,2024-08-23,2024-08-23,合同会社シュガー,,合同会社,埼玉県,さいたま市大宮区,浅間町１丁目７７番地アークボヌール３０１号室,,11,103,3300842,,,,,,,2024-08-23,1,,,,,シュガー,0
1774,8030005021824,新規,0,2024-08-23,2024-08-23,一般社団法人愛をもって日本からアジアへの純粋な挑戦,,その他の設立登記法人,埼玉県,所沢市,松が丘２丁目１３番地の１２,,11,208,3591132,,,,,,,2024-08-23,1,,,,,アイヲモッテニホンカラノジュンスイナチョウセン,0
1783,8040001135065,新規,0,2024-08-23,2024-08-23,Ｚｏｋｏ商貿株式会社,,株式会社,千葉県,松戸市,高塚新田１４１－１２,,12,207,2702222,,,,,,,2024-08-23,1,,,,,ゼットオーケーオーショウボウ,0
1784,8040001135073,新規,0,2024-08-23,2024-08-23,株式会社池田興業,,株式会社,千葉県,我孫子市,柴崎台１丁目１０番３号磯源第三ビル４０６号室,,12,222,2701176,,,,,,,2024-08-23,1,,,,,イケダコウギョウ,0
1785,8040001135115,新規,0,2024-08-23,2024-08-23,スマートプラン株式会社,,株式会社,千葉県,野田市,大殿井１５０－４８,,12,208,2780017,,,,,,,2024-08-23,1,,,,,スマートプラン,0
1788,8040003025652,新規,0,2024-08-23,2024-08-23,合同会社あきま,,合同会社,千葉県,印西市,戸神台１丁目１８番地１－８１８号,,12,231,2701349,,,,,,,2024-08-23,1,,,,,アキマ,0
1795,8050003008631,新規,0,2024-08-23,2024-08-23,合同会社野の花,,合同会社,茨城県,龍ケ崎市,４４７４番地,,08,208,3010000,,,,,,,2024-08-23,1,,,,,ノノハナ,0
1800,8080005007637,新規,0,2024-08-23,2024-08-23,一般社団法人絆奏舎,,その他の設立登記法人,静岡県,焼津市,焼津３丁目６番３号,,22,212,4250026,,,,,,,2024-08-23,1,,,,,バンソウシャ,0
1802,8080401027395,新規,0,2024-08-23,2024-08-23,株式会社Ｏｆｆｉｃｅハカマタ,,株式会社,静岡県,浜松市中央区,大瀬町２６５６番地,,22,138,4313113,,,,,,,2024-08-23,1,,,,,オフィスハカマタ,0
1813,8120001267981,新規,0,2024-08-23,2024-08-23,蝸牛株式会社,,株式会社,大阪府,大阪市中央区,本町３丁目３－９－９Ｆ,,27,128,5410053,,,,,,,2024-08-23,1,,,,,カギュウ,0
1815,8120003027319,新規,0,2024-08-23,2024-08-23,ＧＹＶ合同会社,,合同会社,大阪府,大阪市中央区,南船場３丁目２２‐２,,27,128,5420081,,,,,,,2024-08-23,1,,,,,ジーワイブイ,0
1819,8120901049661,新規,0,2024-08-23,2024-08-23,株式会社Ｇｌｅａｍ＆Ｇｌｏｗ,,株式会社,大阪府,吹田市,古江台３丁目１３番２－８０１号,,27,205,5650874,,,,,,,2024-08-23,1,,,,,グリームアンドグロー,0
1828,8130003009803,新規,0,2024-08-23,2024-08-23,合同会社ｉｎｎｏｖａｔｅｗｏｒｋｓ,,合同会社,京都府,京都市左京区,古川町通仁王門下る東門前町５１９番地２,,26,103,6068345,,,,,,,2024-08-23,1,,,,,イノベートワークス,0
1834,8140001135583,新規,0,2024-08-23,2024-08-23,株式会社ファースト,,株式会社,兵庫県,伊丹市,荒牧３丁目３番６号,,28,207,6640001,,,,,,,2024-08-23,1,,,,,ファースト,0
1835,8140001135591,新規,0,2024-08-23,2024-08-23,株式会社つむぎ,,株式会社,兵庫県,川西市,加茂１丁目６番９－３号,,28,217,6660025,,,,,,,2024-08-23,1,,,,,ツムギ,0
1839,8160001026178,新規,0,2024-08-23,2024-08-23,関西窒素製造株式会社,,株式会社,滋賀県,大津市,山中町５２０番地１,,25,201,5200017,,,,,,,2024-08-23,1,,,,,カンサイチッソセイゾウ,0
1854,8180001162962,新規,0,2024-08-23,2024-08-23,株式会社ＴＳＵＮＡＧＵ,,株式会社,愛知県,瀬戸市,品野町４丁目１１７８番地,,23,204,4801207,,,,,,,2024-08-23,1,,,,,ツナグ,0
1855,8180001162995,新規,0,2024-08-23,2024-08-23,株式会社アールカンパニー,,株式会社,愛知県,一宮市,木曽川町里小牧字渡瀬８４番地,,23,203,4930005,,,,,,,2024-08-23,1,,,,,アールカンパニー,0
1857,8180301038986,新規,0,2024-08-23,2024-08-23,株式会社トーヨー・ワークス,,株式会社,愛知県,安城市,今池町１丁目１番５号新安城ビル２０８,,23,212,4460071,,,,,,,2024-08-23,1,,,,,トーヨーワークス,0
1873,8240003006822,新規,0,2024-08-23,2024-08-23,合同会社ＨＡＬ会計,,合同会社,広島県,広島市東区,牛田本町３丁目７番６－２０２号,,34,102,7320066,,,,,,,2024-08-23,1,,,,,ハルカイケイ,0
1879,8260001039392,新規,0,2024-08-23,2024-08-23,株式会社ｇｏｏｄ４イノベーション,,株式会社,岡山県,倉敷市,四十瀬３番地３５,,33,202,7100835,,,,,,,2024-08-23,1,,,,,グッドフォーイノベーション,0
1880,8260005011397,新規,0,2024-08-23,2024-08-23,医療法人社団ロッソ矯正歯科,,その他の設立登記法人,岡山県,倉敷市,新田３２０６番地３,,33,202,7100038,,,,,,,2024-08-23,1,,,,,ロッソキョウセイシカ,0
1883,8280005007625,新規,0,2024-08-23,2024-08-23,一般社団法人輪島屋,,その他の設立登記法人,島根県,出雲市,大社町鷺浦１６,,32,203,6990761,,,,,,,2024-08-23,1,,,,,ワジマヤ,0
1886,8290001106883,新規,0,2024-08-23,2024-08-23,株式会社Ｍ＆Ｎ,,株式会社,福岡県,福岡市中央区,白金１丁目１７番３４－４０１号ＣＬＵＢＴＨＥ．薬院ステーションタワー,,40,133,8100012,,,,,,,2024-08-23,1,,,,,エムアンドエヌ,0
1887,8290001106900,新規,0,2024-08-23,2024-08-23,株式会社ｉｄｅａｌ,,株式会社,福岡県,福岡市博多区,半道橋１丁目１８番３９号,,40,132,8120897,,,,,,,2024-08-23,1,,,,,アイディール,0
1888,8290001106925,新規,0,2024-08-23,2024-08-23,株式会社スフィアコーポレーション,,株式会社,福岡県,那珂川市,片縄３丁目２番地,,40,231,8111201,,,,,,,2024-08-23,1,,,,,スフィアコーポレーション,0
1889,8290001106933,新規,0,2024-08-23,2024-08-23,株式会社ＲｅＮＧ,,株式会社,福岡県,糟屋郡新宮町,美咲３丁目４番１－１０５号,,40,345,8110121,,,,,,,2024-08-23,1,,,,,リング,0
1890,8290003015694,新規,0,2024-08-23,2024-08-23,ＳｎＯ再生合同会社,,合同会社,福岡県,福岡市城南区,田島１丁目１２番４６－２０２号,,40,136,8140113,,,,,,,2024-08-23,1,,,,,スノーサイセイ,0
1911,8380001034745,新規,0,2024-08-23,2024-08-23,株式会社ビー・クリエーションズ,,株式会社,福島県,福島市,栄町１２番１０号ひかりビル,,07,201,9608031,,,,,,,2024-08-23,1,,,,,ビークリエーションズ,0
1914,8400001016765,新規,0,2024-08-23,2024-08-23,株式会社伊藤アルミ工業,,株式会社,岩手県,盛岡市,永井２０地割２番地１,,03,201,0200834,,,,,,,2024-08-23,1,,,,,イトウアルミコウギョウ,0
1917,8420001018842,新規,0,2024-08-23,2024-08-23,株式会社Ｇｒａｔｉａｓｃ,,株式会社,青森県,青森市,浜館２丁目２－１５,,02,201,0300947,,,,,,,2024-08-23,1,,,,,,0
1933,8470001020356,新規,0,2024-08-23,2024-08-23,株式会社ｌｅ　ｓｏｌｅｉｌ,,株式会社,香川県,高松市,川島東町９４２番地１０,,37,201,7610443,,,,,,,2024-08-23,1,,,,,ルソレイユ,0
1937,8490005006952,新規,0,2024-08-23,2024-08-23,医療法人光,,その他の設立登記法人,高知県,幡多郡黒潮町,入野２５８１番地１,,39,428,7891931,,,,,,,2024-08-23,1,,,,,ヒカリ,0
1940,8700150126847,新規,0,2024-08-23,2024-08-23,ＣＨＡＮＧＸＩＮＧ　ＹＩＧＵＡＮ　ＸＩＮＲＯＮＧ　ＴＲＡＤＩＮＧ　ＣＯ．，ＬＴＤ,,外国会社等,,,,,,,,Ｒｏｏｍ　６０７－７２，６ｔｈ　Ｆｌｏｏｒ，Ｂｌｏｃｋ　Ａ，Ｃｈａｎｇｘｉｎｇ　Ｗｏｒｌｄ　Ｔｒａｄｅ　Ｂｕｉｌｄｉｎｇ，Ｎｏ．１２７８　Ｍｉｎｇｚｈｕ　Ｒｏａｄ，Ｃｈａｎｇｘｉｎｇ　Ｃｏｕｎｔｙ　Ｄｅｖｅｌｏｐｍｅｎｔ　Ｚｏｎｅ，Ｈｕｚｈｏｕ，Ｚｈｅｊｉａｎｇ　Ｐｒｏｖｉｎｃｅ　Ｃｈｉｎａ,,,,,,2024-08-23,1,,,,,ジャンシンイーグァンシンロントレーディングカンパニーリミテッド,0
1946,9010001247507,新規,0,2024-08-23,2024-08-23,株式会社ＨＴＳ,,株式会社,東京都,千代田区,飯田橋２丁目１番４号,,13,101,1020072,,,,,,,2024-08-23,1,,,,,エイチティエス,0
1953,9010003044555,新規,0,2024-08-23,2024-08-23,合同会社知財共創コンサルティング,,合同会社,東京都,中央区,銀座６丁目１３番１６号銀座ＷａｌｌビルＵＣＦ５階,,13,102,1040061,,,,,,,2024-08-23,1,,,,,チザイキョウソウコンサルティング,0
1954,9010003044638,新規,0,2024-08-23,2024-08-23,Ｍｏｇａｍｉｉ合同会社,,合同会社,東京都,中央区,銀座１丁目２２番１１号銀座大竹ビルディング２Ｆ,,13,102,1040061,,,,,,,2024-08-23,1,,,,,モガミ,0
1955,9010003044687,新規,0,2024-08-23,2024-08-23,合同会社はじめ工房,,合同会社,東京都,中央区,日本橋馬喰町２丁目４番３号,,13,102,1030002,,,,,,,2024-08-23,1,,,,,ハジメコウボウ,0
1957,9010005038670,新規,0,2024-08-23,2024-08-23,一般社団法人日本アジア人材育成支援協会,,その他の設立登記法人,東京都,千代田区,神田司町２丁目１３神田第４アメレックスビル３１８号,,13,101,1010048,,,,,,,2024-08-23,1,,,,,ニホンアジアジンザイイクセイシエンキョウカイ,0
1958,9010005038687,新規,0,2024-08-23,2024-08-23,一般社団法人美禅会,,その他の設立登記法人,東京都,千代田区,六番町１３番地６ＡＳビル２階,,13,101,1020085,,,,,,,2024-08-23,1,,,,,ビゼンカイ,0
1959,9010101016290,新規,0,2024-08-23,2024-08-23,ＭＳＫアカデミー株式会社,,株式会社,東京都,八王子市,宇津木町７４８番地２,,13,201,1920024,,,,,,,2024-08-23,1,,,,,エムエスケーアカデミー,0
1970,9010405023470,新規,0,2024-08-23,2024-08-23,一般社団法人ＫＩＮＤ,,その他の設立登記法人,東京都,港区,麻布十番１丁目４－７麻布マスターズ２Ｆ,,13,103,1060045,,,,,,,2024-08-23,1,,,,,カインド,0
1972,9010501052803,新規,0,2024-08-23,2024-08-23,株式会社アール,,株式会社,東京都,台東区,三筋２丁目１０番８号,,13,106,1110055,,,,,,,2024-08-23,1,,,,,アール,0
1973,9010503007557,新規,0,2024-08-23,2024-08-23,合同会社山月中国家庭料理,,合同会社,東京都,台東区,根岸３丁目１番１１－５０３号アルス鶯谷,,13,106,1100003,,,,,,,2024-08-23,1,,,,,サンゲツチュウゴクカテイリョウリ,0
1992,9011101108549,新規,0,2024-08-23,2024-08-23,株式会社ＤＳ‐ＡＮＡｌｙｓｉｓ株式会社,,株式会社,東京都,新宿区,若松町３１番８－１０５号,,13,104,1620056,,,,,,,2024-08-23,1,,,,,ディーエスアナリーシス,0
1993,9011203004472,新規,0,2024-08-23,2024-08-23,合同会社ＦＩＶＥ　ＳＴＡＲＳ,,合同会社,東京都,中野区,東中野１丁目３３番１５－１０７号,,13,114,1640003,,,,,,,2024-08-23,1,,,,,ファイブスターズ,0
2002,9011803006422,新規,0,2024-08-23,2024-08-23,合同会社モデルワン,,合同会社,東京都,葛飾区,西亀有４丁目２４－１０Ｈａｒｍｏｎｙ西亀有３０２,,13,122,1250002,,,,,,,2024-08-23,1,,,,,モデルワン,0
2014,9020001158612,新規,0,2024-08-23,2024-08-23,株式会社ＭＯＣＡＴＯ,,株式会社,神奈川県,横浜市青葉区,荏子田２丁目８番地３４,,14,117,2250005,,,,,,,2024-08-23,1,,,,,モカト,0
2015,9020001158629,新規,0,2024-08-23,2024-08-23,株式会社ＲＧトレーディング,,株式会社,神奈川県,横浜市旭区,今宿西町３３４番地,,14,112,2410031,,,,,,,2024-08-23,1,,,,,アールジートレーディング,0
2016,9020001158703,新規,0,2024-08-23,2024-08-23,株式会社マロニエ,,株式会社,神奈川県,横浜市中区,山元町５丁目２２４番地２ルピナス山手３０３号室,,14,104,2310851,,,,,,,2024-08-23,1,,,,,マロニエ,0
2021,9020003026684,新規,0,2024-08-23,2024-08-23,サードアセットマネジメント合同会社,,合同会社,神奈川県,横浜市青葉区,新石川３丁目２２番地１５パークホームズたまプラーザブロッサムギャラリー４０５,,14,117,2250003,,,,,,,2024-08-23,1,,,,,サードアセットマネジメント,0
2022,9020003026692,新規,0,2024-08-23,2024-08-23,合同会社ＭＥＪＯＲ,,合同会社,神奈川県,横浜市鶴見区,下野谷町３丁目１１２番地３サンコーポ３Ｆ,,14,101,2300047,,,,,,,2024-08-23,1,,,,,メホール,0
2023,9020003026783,新規,0,2024-08-23,2024-08-23,合同会社ＤＲ,,合同会社,神奈川県,横浜市港北区,日吉本町６丁目１番５号中田邸内,,14,109,2230062,,,,,,,2024-08-23,1,,,,,ディーアール,0
2032,9030001162084,新規,0,2024-08-23,2024-08-23,株式会社７ｔｈプロモーション,,株式会社,埼玉県,三郷市,戸ケ崎２丁目１４４番地５,,11,237,3410044,,,,,,,2024-08-23,1,,,,,セブンスプロモーション,0
2033,9030001162092,新規,0,2024-08-23,2024-08-23,株式会社いき,,株式会社,埼玉県,熊谷市,石原２丁目１０９番地,,11,202,3600816,,,,,,,2024-08-23,1,,,,,イキ,0
2036,9030003024984,新規,0,2024-08-23,2024-08-23,シーアイ合同会社,,合同会社,埼玉県,越谷市,大字大泊２５３番地１０,,11,222,3430044,,,,,,,2024-08-23,1,,,,,シーアイ,0
2040,9040001135064,新規,0,2024-08-23,2024-08-23,ＢＭＢ不動産株式会社,,株式会社,千葉県,市川市,市川南１丁目７番１３－４０４号,,12,203,2720033,,,,,,,2024-08-23,1,,,,,ビーエムビーフドウサン,0
2041,9040001135072,新規,0,2024-08-23,2024-08-23,株式会社ＳＡＪＫ,,株式会社,千葉県,鎌ケ谷市,南初富６丁目１番１７号大正堂ビル１Ｆ,,12,224,2730123,,,,,,,2024-08-23,1,,,,,エスエージェイケー,0
2042,9040001135080,新規,0,2024-08-23,2024-08-23,株式会社Ｃｈｉｌｌｓ　Ｔｏｋｙｏ,,株式会社,千葉県,船橋市,宮本８丁目２９番１３号,,12,204,2730003,,,,,,,2024-08-23,1,,,,,チルズトウキョウ,0
2055,9040003025643,新規,0,2024-08-23,2024-08-23,合同会社バンビ,,合同会社,千葉県,千葉市花見川区,花園２丁目８－１８,,12,102,2620025,,,,,,,2024-08-23,1,,,,,バンビ,0
2057,9050001055311,新規,0,2024-08-23,2024-08-23,Ｌｉｎｋ　Ｉｎｎｏｖａｔｅ株式会社,,株式会社,茨城県,古河市,古河６５１－３サザンクロス２０１,,08,204,3060016,,,,,,,2024-08-23,1,,,,,リンクイノベート,0
2059,9060001037432,新規,0,2024-08-23,2024-08-23,株式会社ジオナ,,株式会社,栃木県,宇都宮市,大塚町１２番２４号,,09,201,3210161,,,,,,,2024-08-23,1,,,,,,0
2082,9120003027367,新規,0,2024-08-23,2024-08-23,合同会社ＫＫＧ,,合同会社,大阪府,大阪市北区,茶屋町８番２１号ジオグランデ梅田１１１０号室,,27,127,5300013,,,,,,,2024-08-23,1,,,,,ケーケージー,0
2083,9120003027375,新規,0,2024-08-23,2024-08-23,湧水自然電源合同会社,,合同会社,大阪府,大阪市中央区,高津１丁目９番１０－４０１号,,27,128,5420072,,,,,,,2024-08-23,1,,,,,ユウスイシゼンデンゲン,0
2084,9120101070186,新規,0,2024-08-23,2024-08-23,株式会社エムテック,,株式会社,大阪府,堺市西区,鳳北町８丁４４０番地１エクセル鳳５０１号,,27,144,5938328,,,,,,,2024-08-23,1,,,,,エムテック,0
2090,9140001135599,新規,0,2024-08-23,2024-08-23,株式会社松本組,,株式会社,兵庫県,神戸市長田区,三番町４丁目２６－６,,28,106,6530011,,,,,,,2024-08-23,1,,,,,マツモトグミ,0
2095,9150003003349,新規,0,2024-08-23,2024-08-23,合同会社ビルド不動産開発,,合同会社,奈良県,磯城郡田原本町,大字西竹田１２２－６,,29,363,6360306,,,,,,,2024-08-23,1,,,,,ビルドフドウサンカイハツ,0
2096,9160001026177,新規,0,2024-08-23,2024-08-23,株式会社ナイン,,株式会社,滋賀県,甲賀市,水口町北泉１丁目１３１番地,,25,209,5280058,,,,,,,2024-08-23,1,,,,,ナイン,0
2098,9170001018280,新規,0,2024-08-23,2024-08-23,株式会社オメガナレッジ,,株式会社,和歌山県,和歌山市,友田町４丁目１６番地,,30,201,6408342,,,,,,,2024-08-23,1,,,,,オメガナレッジ,0
2104,9180001162978,新規,0,2024-08-23,2024-08-23,株式会社Ｇコーポレーション,,株式会社,愛知県,名古屋市昭和区,阿由知通４丁目５番地,,23,107,4660027,,,,,,,2024-08-23,1,,,,,ジーコーポレーション,0
2105,9180001162986,新規,0,2024-08-23,2024-08-23,ＴＨＲＩＶＥＸ株式会社,,株式会社,愛知県,名古屋市港区,入船２丁目１番２６号,,23,111,4550032,,,,,,,2024-08-23,1,,,,,スライヴィクス,0
2112,9200001042855,新規,0,2024-08-23,2024-08-23,株式会社ＡＪ　ＩＮＴＥＲＮＡＴＩＯＮＡＬ,,株式会社,岐阜県,美濃加茂市,太田本町５丁目２－１３ライフステーション１０３号室,,21,211,5050042,,,,,,,2024-08-23,1,,,,,エイジェイインターナショナル,0
2114,9220001026179,新規,0,2024-08-23,2024-08-23,株式会社ＮＥＸＴ,,株式会社,石川県,輪島市,中段町堂ノ下３０番地１,,17,204,9280041,,,,,,,2024-08-23,1,,,,,ネクスト,0
2119,9250001020781,新規,0,2024-08-23,2024-08-23,株式会社やすらぎホールディングス,,株式会社,山口県,下松市,西市２丁目１１番１号,,35,207,7440078,,,,,,,2024-08-23,1,,,,,ヤスラギホールディングス,0
2129,9290001106924,新規,0,2024-08-23,2024-08-23,株式会社ＪＢＹＴＥ　ＪＡＰＡＮ,,株式会社,福岡県,福岡市中央区,警固２丁目１８番５号,,40,133,8100023,,,,,,,2024-08-23,1,,,,,ジェイビーワイティイージャパン,0
2130,9290001106940,新規,0,2024-08-23,2024-08-23,株式会社ＳＯＣＲＡＦＴ,,株式会社,福岡県,久留米市,大橋町合楽８９１番地１,,40,203,8390832,,,,,,,2024-08-23,1,,,,,ソークラフト,0
2131,9290001106957,新規,0,2024-08-23,2024-08-23,株式会社迫田製作所,,株式会社,福岡県,福岡市博多区,東比恵３丁目１１番１号,,40,132,8120007,,,,,,,2024-08-23,1,,,,,サコタセイサクショ,0
2132,9310001019181,新規,0,2024-08-23,2024-08-23,株式会社ライズアップ,,株式会社,長崎県,長崎市,さくらの里１丁目６番２３号,,42,201,8512207,,,,,,,2024-08-23,1,,,,,ライズアップ,0
2140,9340001026753,新規,0,2024-08-23,2024-08-23,株式会社アプラス企画,,株式会社,鹿児島県,日置市,伊集院町妙円寺３丁目６４番地６,,46,216,8992503,,,,,,,2024-08-23,1,,,,,アプラスキカク,0
2148,9370003006726,新規,0,2024-08-23,2024-08-23,合同会社ルポゼ,,合同会社,宮城県,仙台市宮城野区,小田原山本丁１０１番地の１７ライオンズマンション金剛院７０３,,04,102,9830817,,,,,,,2024-08-23,1,,,,,ルポゼ,0
2150,9380001034744,新規,0,2024-08-23,2024-08-23,さくら土地開発株式会社,,株式会社,福島県,喜多方市,字桜ガ丘１丁目１２３番地,,07,208,9660802,,,,,,,2024-08-23,1,,,,,サクラトチカイハツ,0
2154,9400001016764,新規,0,2024-08-23,2024-08-23,株式会社Ｓｏｔｔ,,株式会社,岩手県,盛岡市,西下台町５－６,,03,201,0200065,,,,,,,2024-08-23,1,,,,,ソット,0
2155,9400003003315,新規,0,2024-08-23,2024-08-23,合同会社ＥＸＮＡＴＩＯＮ,,合同会社,岩手県,北上市,下江釣子１１地割１６４番地１,,03,206,0240073,,,,,,,2024-08-23,1,,,,,エクスネーション,0
2160,9460105002300,新規,0,2024-08-23,2024-08-23,農事組合法人ＩＫＥＤＡ　Ｈｅｒｂａｌ　Ｍｅｄｉｃｉｎｅ,,その他の設立登記法人,北海道,中川郡池田町,字清見２３１番地６,,01,644,0830002,,,,,,,2024-08-23,1,,,,,イケダハーバルメディスン,0
2165,9490001010858,新規,0,2024-08-23,2024-08-23,ＩＨＡＴ株式会社,,株式会社,高知県,高知市,鏡的渕５９番地１,,39,201,7813111,,,,,,,2024-08-23,1,,,,,アイハット,0
2166,9500001025838,新規,0,2024-08-23,2024-08-23,インテリアみつもり株式会社,,株式会社,愛媛県,松山市,北斎院町４７８番地３,,38,201,7918031,,,,,,,2024-08-23,1,,,,,インテリアミツモリ,0
2167,9700150126846,新規,0,2024-08-23,2024-08-23,Ｓｈｅｎｚｈｅｎ　Ｑｉａｎｔｕｍｅｉ　Ｅ－Ｃｏｍｍｅｒｃｅ　Ｃｏ．，Ｌｔｄ,,外国会社等,,,,,,,,Ｒｏｏｍ　２０８　Ｈｕａｆｅｎｇ　Ｎｅｗ　Ｅｎｅｒｇｙ　Ｔｅｃｈｎｏｌｏｇｙ　Ｂｕｉｌｄｉｎｇ　Ｙｕｙｅ　Ｃｏｍｍｕｎｉｔｙ　Ｘｉｘｉａｎｇ　Ｂａｏａｎ　Ｓｈｅｎｚｈｅｎ　Ｇｕａｎｇｄｏｎｇ　５１８０００　ＣＮ,,,,,,2024-08-23,1,,,,,シェンジェンシチェントゥーメイイーコマースカンパニーリミテッド,0
