sequenceNumber,corporateNumber,process,correct,updateDate,changeDate,name,nameImageId,kind,prefectureName,cityName,streetNumber,addressImageId,prefectureCode,cityCode,postCode,addressOutside,addressOutsideImageId,closeDate,closeCause,successorCorporateNumber,changeCause,assignmentDate,latest,enName,enPrefectureName,enCityName,enAddressOutside,furigana,hihyoji
1,1010001040043,登記記録の閉鎖等,0,2023-11-02,2023-11-01,株式会社金山商会,,株式会社,東京都,中野区,上高田５丁目２２番３号,,13,114,1640002,,,2023-11-01,清算の結了等,,,2015-10-05,1,,,,,カナヤマショウカイ,0
18,1010401118802,登記記録の閉鎖等,0,2023-11-02,2023-10-30,株式会社エクサスジャパン,,株式会社,東京都,大田区,平和島３丁目５番１号,,13,111,1430006,,,2023-10-30,清算の結了等,,,2015-10-05,1,,,,,エクサスジャパン,0
20,1010401148584,登記記録の閉鎖等,0,2023-11-02,2023-10-24,５Ｄｏｔｓ株式会社,,株式会社,神奈川県,横浜市戸塚区,原宿１丁目２番１号,,14,110,2450063,,,2023-10-24,清算の結了等,,,2019-10-11,1,,,,,ファイブドッツ,0
21,1010403029493,登記記録の閉鎖等,0,2023-11-02,2023-10-27,立川大黒屋合同会社,,合同会社,東京都,港区,芝浦４丁目５番４号,,13,103,1080023,,,2023-10-27,清算の結了等,,,2023-02-17,1,,,,,タチカワダイコクヤ,0
26,1010601057718,登記記録の閉鎖等,0,2023-11-02,2023-10-27,株式会社ＯＭＡ,,株式会社,東京都,墨田区,京島１丁目１－１－１１４,,13,107,1310046,,,2023-10-27,清算の結了等,,,2020-07-27,1,,,,,オマ,0
32,1010901036058,登記記録の閉鎖等,0,2023-11-02,2023-10-27,株式会社ナギノモリサービス,,株式会社,東京都,世田谷区,駒沢１丁目１３番１２号,,13,112,1540012,,,2023-10-27,清算の結了等,,,2015-10-05,1,,,,,ナギノモリサービス,0
62,1012301010907,登記記録の閉鎖等,0,2023-11-02,2023-10-31,ＨｕＬＡ　ｉｍｍｕｎｅ株式会社,,株式会社,東京都,町田市,本町田３５９９番地２７,,13,209,1940032,,,2023-10-31,清算の結了等,,,2017-04-05,1,,,,,フライミューン,0
70,1013301027387,登記記録の閉鎖等,0,2023-11-02,2023-10-27,Ｋｏｊｉｍａ株式会社,,株式会社,東京都,港区,南麻布４丁目１４番２号,,13,103,1060047,,,2023-10-27,清算の結了等,,,2015-10-05,1,,,,,コジマ,0
78,1020002081564,登記記録の閉鎖等,0,2023-11-02,2023-10-30,有限会社ティーエス企画,,有限会社,東京都,町田市,つくし野１丁目２３番地３１,,13,209,1940001,,,2023-10-30,清算の結了等,,,2015-10-05,1,,,,,ティーエスキカク,0
79,1020002084773,登記記録の閉鎖等,0,2023-11-02,2023-10-23,有限会社平丸精工所,,有限会社,神奈川県,川崎市中原区,市ノ坪６７３番地,,14,133,2110016,,,2023-10-23,清算の結了等,,,2015-10-05,1,,,,,ヒラマルセイコウショ,0
83,1021001009234,登記記録の閉鎖等,0,2023-11-02,2023-10-30,スリーウイングス株式会社,,株式会社,神奈川県,鎌倉市,手広３丁目６番３０号,,14,204,2480036,,,2023-10-30,清算の結了等,,,2015-10-05,1,,,,,スリーウイングス,0
111,1030005017977,登記記録の閉鎖等,0,2023-11-02,2023-10-04,社会福祉法人狭山公樹会,,その他の設立登記法人,埼玉県,狭山市,大字上広瀬字霞ヶ丘９３９番１,,11,215,3501321,,,2023-10-04,合併による解散等,8110005010158,令和５年１０月２日新潟県十日町市川治４５２５番地社会福祉法人苗場福祉会（8110005010158）に合併し解散,2016-05-20,1,,,,,サヤマコウジュカイ,0
114,1040001123308,登記記録の閉鎖等,0,2023-11-02,2023-10-24,株式会社上中組,,株式会社,千葉県,千葉市中央区,新千葉１丁目７番２号,,12,101,2600031,,,2023-10-24,清算の結了等,,,2022-05-09,1,,,,,カミナカグミ,0
118,1040003008639,登記記録の閉鎖等,0,2023-11-02,2023-10-24,リバテック合同会社,,合同会社,千葉県,柏市,手賀の杜４丁目２２番地１,,12,217,2701447,,,2023-10-24,清算の結了等,,,2016-05-25,1,,,,,リバテック,0
119,1040003015701,登記記録の閉鎖等,0,2023-11-02,2023-10-10,ＴＲコンサルティング合同会社,,合同会社,千葉県,船橋市,浜町１丁目３４番３号,,12,204,2730012,,,2023-10-10,清算の結了等,,,2020-07-10,1,,,,,ティーアールコンサルティング,0
138,1070002019485,登記記録の閉鎖等,0,2023-11-02,2023-10-30,有限会社日進食堂,,有限会社,群馬県,伊勢崎市,緑町１２番１４号,,10,204,3720043,,,2023-10-30,清算の結了等,,,2015-10-05,1,,,,,ニッシンショクドウ,0
144,1090001010377,登記記録の閉鎖等,0,2023-11-02,2023-10-30,株式会社エス・イー・エス,,株式会社,山梨県,富士吉田市,下吉田東１丁目１６番８号,,19,202,4030008,,,2023-10-30,清算の結了等,,,2015-10-05,1,,,,,エスイーエス,0
146,1100001008270,登記記録の閉鎖等,0,2023-11-02,2023-10-18,株式会社マツダ産業,,株式会社,長野県,南佐久郡佐久穂町,大字高野町５８５番地,,20,309,3840613,,,2023-10-18,清算の結了等,,,2015-10-05,1,,,,,マツダサンギョウ,0
153,1110005000462,登記記録の閉鎖等,0,2023-11-02,2023-10-31,新潟県農協県連労働組合,,その他の設立登記法人,新潟県,新潟市中央区,東中通１番町８６番地５５グレイスハイツ東中通タワー５０４号室,,15,103,9518116,,,2023-10-31,清算の結了等,,,2015-10-05,1,,,,,ニイガタケンノウギョウケンレン,0
168,1120005010502,登記記録の閉鎖等,0,2023-11-02,2023-10-31,医療法人慈真会,,その他の設立登記法人,大阪府,大阪市東淀川区,淡路３丁目２０番２３号メゾンドール清水１０２号室,,27,114,5330032,,,2023-10-31,清算の結了等,,,2015-10-05,1,,,,,ジシンカイ,0
170,1120101037787,登記記録の閉鎖等,0,2023-11-02,2023-10-30,バンセイ株式会社,,株式会社,大阪府,岸和田市,野田町３丁目３番３１号,,27,202,5960076,,,2023-10-30,清算の結了等,,,2015-10-05,1,,,,,バンセイ,0
171,1120101039940,登記記録の閉鎖等,0,2023-11-02,2023-11-01,株式会社ティエムコンサルタント,,株式会社,大阪府,泉佐野市,南中安松１６２８番地,,27,213,5980033,,,2023-11-01,清算の結了等,,,2015-10-05,1,,,,,ティエムコンサルタント,0
175,1120905003076,登記記録の閉鎖等,0,2023-11-02,2023-10-25,特定非営利活動法人わかば共同保育所,,その他の設立登記法人,大阪府,摂津市,庄屋２丁目４番２８号,,27,224,5660012,,,2023-10-25,清算の結了等,,,2015-10-05,1,,,,,ワカバキョウドウホイクショ,0
176,1122001024337,登記記録の閉鎖等,0,2023-11-02,2023-11-01,株式会社和軌久,,株式会社,大阪府,大東市,灰塚１丁目８番３７号,,27,218,5740043,,,2023-11-01,清算の結了等,,,2015-10-05,1,,,,,ワキヒサ,0
179,1130002016286,登記記録の閉鎖等,0,2023-11-02,2023-10-17,有限会社高豊商事,,有限会社,京都府,京都市中京区,東堀川通二条上る九町目５４７番地の１,,26,104,6040065,,,2023-10-17,清算の結了等,,,2015-10-05,1,,,,,コウホウショウジ,0
189,1140002044393,登記記録の閉鎖等,0,2023-11-02,2023-10-30,有限会社せせらぎ,,有限会社,兵庫県,尼崎市,武庫町１丁目５０－６レジデンス甲武１０１号,,28,202,6610044,,,2023-10-30,清算の結了等,,,2015-10-05,1,,,,,セセラギ,0
206,1180001078323,登記記録の閉鎖等,0,2023-11-02,2023-10-31,株式会社フーズ・ワン,,株式会社,愛知県,春日井市,高蔵寺町２丁目５５番地１,,23,206,4870013,,,2023-10-31,合併による解散等,8180002065339,令和５年１０月３１日愛知県春日井市高蔵寺町二丁目５５番地の１株式会社エム・エー・ディー（8180002065339）に合併し解散,2015-10-05,1,,,,,フーズワン,0
219,1220001007293,登記記録の閉鎖等,0,2023-11-02,2023-10-30,株式会社山本建築設計事務所,,株式会社,石川県,金沢市,弥生２丁目９番５３号,,17,201,9218036,,,2023-10-30,清算の結了等,,,2015-10-05,1,,,,,ヤマモトケンチクセッケイジムショ,0
222,1230001019916,登記記録の閉鎖等,0,2023-11-02,2023-10-26,岡崎美容株式会社,,株式会社,富山県,高岡市,能町南２丁目６３番地,,16,202,9330005,,,2023-10-26,清算の結了等,,,2023-07-25,1,,,,,オカザキビヨウ,0
230,1240002031712,登記記録の閉鎖等,0,2023-11-02,2023-10-26,有限会社田原クレーン,,有限会社,広島県,庄原市,東城町竹森２０８番地,,34,210,7295126,,,2023-10-26,清算の結了等,,,2015-10-05,1,,,,,タバラクレーン,0
243,1290001089111,登記記録の閉鎖等,0,2023-11-02,2023-10-27,株式会社Ｒｅｔａｉｌ　ＡＩ　Ｅｎｇｉｎｅｅｒｉｎｇ,,株式会社,福岡県,福岡市東区,多の津１丁目１２番２号,,40,131,8130034,,,2023-10-27,合併による解散等,2010401141877,令和５年１０月１日東京都港区浜松町一丁目３０番５号浜松町スクエア株式会社Ｒｅｔａｉｌ　ＡＩ（2010401141877）に合併し解散,2020-06-17,1,,,,,,0
251,1300002011096,登記記録の閉鎖等,0,2023-11-02,2023-10-30,有限会社山口ストアー,,有限会社,佐賀県,唐津市,呼子町呼子３７６４番地７０,,41,202,8470303,,,2023-10-30,清算の結了等,,,2015-10-05,1,,,,,ヤマグチストアー,0
261,1330001025747,登記記録の閉鎖等,0,2023-11-02,2023-10-26,株式会社一,,株式会社,熊本県,熊本市東区,渡鹿９丁目２番３０号,,43,102,8620970,,,2023-10-26,清算の結了等,,,2018-10-04,1,,,,,イチ,0
267,1350001009905,登記記録の閉鎖等,0,2023-11-02,2023-10-30,株式会社宮崎サンソ小林,,株式会社,宮崎県,小林市,堤２９７８番地４,,45,205,8860003,,,2023-10-30,清算の結了等,,,2015-10-05,1,,,,,ミヤザキサンソコバヤシ,0
269,1360001015489,登記記録の閉鎖等,0,2023-11-02,2023-10-27,農業生産法人株式会社オーガ・サイエンス,,株式会社,沖縄県,那覇市,安里２丁目５番３号ファミールマンションひらた６０２号,,47,201,9020067,,,2023-10-27,清算の結了等,,,2015-10-05,1,,,,,,0
342,2011101096222,登記記録の閉鎖等,0,2023-11-02,2023-11-01,株式会社ＡＲＣＡＤＩＡ,,株式会社,東京都,新宿区,市谷薬王寺町１４番地４カスタリア市ヶ谷２０２,,13,104,1620063,,,2023-11-01,清算の結了等,,,2021-09-08,1,,,,,アルカディア,0
351,2011502002828,登記記録の閉鎖等,0,2023-11-02,2023-10-30,有限会社繁竹土建,,有限会社,東京都,北区,志茂１丁目８番１号,,13,117,1150042,,,2023-10-30,清算の結了等,,,2015-10-05,1,,,,,シゲタケドケン,0
353,2011505001793,登記記録の閉鎖等,0,2023-11-02,2023-10-02,一般社団法人アジア太平洋開発交流機構,,その他の設立登記法人,東京都,荒川区,東日暮里６丁目３１番地５号,,13,118,1160014,,,2023-10-02,清算の結了等,,,2015-10-05,1,,,,,,0
357,2011701005425,登記記録の閉鎖等,0,2023-11-02,2023-10-27,東京メルテック株式会社,,株式会社,東京都,中央区,日本橋室町４丁目１番５号,,13,102,1030022,,,2023-10-27,合併による解散等,6011101062468,令和５年１０月１日東京都新宿区西新宿二丁目４番１号東日本ビルテクノサービス株式会社（6011101062468）に合併し解散,2015-10-05,1,,,,,トウキョウメルテック,0
358,2011802011231,登記記録の閉鎖等,0,2023-11-02,2023-10-27,有限会社角武企画,,有限会社,東京都,足立区,青井２丁目３番１３号,,13,121,1200012,,,2023-10-27,清算の結了等,,,2015-10-05,1,,,,,カクタケキカク,0
372,2021001028299,登記記録の閉鎖等,0,2023-11-02,2023-10-03,株式会社グリーンメディカル,,株式会社,神奈川県,大和市,西鶴間１丁目９番１８号,,14,213,2420005,,,2023-10-03,合併による解散等,8021001026041,令和５年１０月１日神奈川県大和市西鶴間一丁目９番１８号薬樹株式会社（8021001026041）に合併して解散,2015-10-05,1,,,,,グリーンメディカル,0
379,2021005011185,登記記録の閉鎖等,0,2023-11-02,2023-10-30,一般社団法人なるほ,,その他の設立登記法人,神奈川県,厚木市,三田４５８番地４,,14,212,2430211,,,2023-10-30,清算の結了等,,,2018-01-04,1,,,,,ナルホ,0
386,2030002066010,登記記録の閉鎖等,0,2023-11-02,2023-10-26,有限会社テクノプランツ,,有限会社,東京都,練馬区,高野台１丁目６番１４－３０２号,,13,120,1770033,,,2023-10-26,清算の結了等,,,2015-10-05,1,,,,,テクノプランツ,0
397,2040002048107,登記記録の閉鎖等,0,2023-11-02,2023-10-24,有限会社樋口建商,00020223,有限会社,千葉県,松戸市,五香南１丁目２４番９号,,12,207,2702212,,,2023-10-24,清算の結了等,,,2015-10-05,1,,,,,ヒグチケンショウ,0
422,2070001012911,登記記録の閉鎖等,0,2023-11-02,2023-10-31,株式会社湯井保険,,株式会社,群馬県,藤岡市,藤岡１９４１番地,,10,209,3750024,,,2023-10-31,清算の結了等,,,2015-10-05,1,,,,,ユイホケン,0
423,2070001027083,登記記録の閉鎖等,0,2023-11-02,2023-10-30,株式会社荒傘,,株式会社,群馬県,高崎市,下小鳥町８８番地１０,,10,202,3700074,,,2023-10-30,清算の結了等,,,2015-10-05,1,,,,,,0
433,2100002019365,登記記録の閉鎖等,0,2023-11-02,2023-10-24,有限会社延山商事,,有限会社,長野県,松本市,大字新村１８６７番地１５,,20,202,3901241,,,2023-10-24,清算の結了等,,,2015-10-05,1,,,,,エンザンショウジ,0
435,2110001011561,登記記録の閉鎖等,0,2023-11-02,2023-10-30,池泉織物株式会社,,株式会社,新潟県,五泉市,太田１丁目１２番６１号,,15,218,9591825,,,2023-10-30,清算の結了等,,,2015-10-05,1,,,,,イケイズミオリモノ,0
467,2122001015120,登記記録の閉鎖等,0,2023-11-02,2023-10-31,株式会社オトイハイツ,,株式会社,大阪府,大東市,赤井３丁目１番１号,,27,218,5740046,,,2023-10-31,清算の結了等,,,2015-10-05,1,,,,,オトイハイツ,0
472,2130001059491,登記記録の閉鎖等,0,2023-11-02,2023-10-23,株式会社ＤＩＲ　ｅｎｔｅｒｔａｉｎｍｅｎｔ,,株式会社,京都府,京都市下京区,四条通新町東入月鉾町３９番地１,,26,106,6008492,,,2023-10-23,清算の結了等,,,2017-03-28,1,,,,,ディアイアールエンターテイメント,0
475,2130002018686,登記記録の閉鎖等,0,2023-11-02,2023-10-19,有限会社エヌ・シー・ジェム,,有限会社,京都府,京都市中京区,壬生東高田町２７番地の２,,26,104,6048845,,,2023-10-19,清算の結了等,,,2015-10-05,1,,,,,エヌシージェム,0
493,2180002025760,登記記録の閉鎖等,0,2023-11-02,2023-10-23,有限会社サンテック,,有限会社,愛知県,名古屋市緑区,八つ松１丁目９１６番地,,23,114,4580810,,,2023-10-23,清算の結了等,,,2015-10-05,1,,,,,サンテック,0
502,2180302022433,登記記録の閉鎖等,0,2023-11-02,2023-10-24,有限会社鈴木食品センター,,有限会社,愛知県,豊田市,聖心町２丁目５番地,,23,211,4710844,,,2023-10-24,清算の結了等,,,2015-10-05,1,,,,,スズキショクヒンセンター,0
504,2200001002460,登記記録の閉鎖等,0,2023-11-02,2023-11-01,虫賀株式会社,,株式会社,岐阜県,岐阜市,茜部中島１丁目３８番１,,21,201,5008269,,,2023-11-01,清算の結了等,,,2015-10-05,1,,,,,ムシカ,0
506,2200001034264,登記記録の閉鎖等,0,2023-11-02,2023-11-01,ヒューマネージ株式会社,,株式会社,岐阜県,恵那市,大井町２７１０番地６７,,21,210,5097201,,,2023-11-01,清算の結了等,,,2017-07-26,1,,,,,ヒューマネージ,0
511,2220003002614,登記記録の閉鎖等,0,2023-11-02,2023-10-31,合同会社ｅｖａｎｇｅｎ,,合同会社,石川県,金沢市,彦三町１丁目２番１号アソルティ金沢彦三ビル１階,,17,201,9200901,,,2023-10-31,清算の結了等,,,2019-06-03,1,,,,,エバンジェン,0
518,2260002004021,登記記録の閉鎖等,0,2023-11-02,2023-10-31,有限会社山陽アルミ商会,,有限会社,岡山県,岡山市北区,富田２６６番地の９,,33,101,7000936,,,2023-10-31,清算の結了等,,,2015-10-05,1,,,,,サンヨウアルミショウカイ,0
548,2360005000759,登記記録の閉鎖等,0,2023-11-02,2023-10-27,医療法人なごみ会,,その他の設立登記法人,沖縄県,那覇市,三原１丁目２８番１２号,,47,201,9020063,,,2023-10-27,清算の結了等,,,2015-10-05,1,,,,,ナゴミカイ,0
553,2380002003820,登記記録の閉鎖等,0,2023-11-02,2023-10-31,有限会社山十建創,,有限会社,福島県,福島市,上名倉字辻２７番地,00083478,07,201,9602155,,,2023-10-31,清算の結了等,,,2015-10-05,1,,,,,ヤマトケンソウ,0
572,2430003004184,登記記録の閉鎖等,0,2023-11-02,2023-10-30,合同会社トライ・ベスト・パッケージ,,合同会社,北海道,小樽市,朝里４丁目１６０番地,,01,203,0470151,,,2023-10-30,清算の結了等,,,2015-10-05,1,,,,,トライベストパッケージ,0
574,2460002002384,登記記録の閉鎖等,0,2023-11-02,2023-11-01,有限会社ヒシサン三和,,有限会社,北海道,釧路市,星が浦北２丁目３番１６号,,01,206,0840911,,,2023-11-01,清算の結了等,,,2015-10-05,1,,,,,ヒシサンサンワ,0
593,3010401007714,登記記録の閉鎖等,0,2023-11-02,2023-10-27,株式会社北川商店,,株式会社,東京都,港区,新橋１丁目９番１号,,13,103,1050004,,,2023-10-27,清算の結了等,,,2015-10-05,1,,,,,キタガワショウテン,0
612,3011001054535,登記記録の閉鎖等,0,2023-11-02,2023-10-27,株式会社メイプルハウス,,株式会社,東京都,世田谷区,深沢５丁目１番８号,,13,112,1580081,,,2023-10-27,清算の結了等,,,2015-10-05,1,,,,,メイプルハウス,0
654,3020001108548,登記記録の閉鎖等,0,2023-11-02,2023-10-23,株式会社小川工業,,株式会社,神奈川県,川崎市多摩区,登戸１６８８番地,,14,135,2140014,,,2023-10-23,清算の結了等,,,2015-10-05,1,,,,,オガワコウギョウ,0
655,3020001113498,登記記録の閉鎖等,0,2023-11-02,2023-10-23,株式会社エムエスコンサルタント,,株式会社,神奈川県,川崎市中原区,上小田中７丁目９番５号,,14,133,2110053,,,2023-10-23,清算の結了等,,,2015-11-06,1,,,,,エムエスコンサルタント,0
656,3020002038372,登記記録の閉鎖等,0,2023-11-02,2023-10-23,有限会社サニー工業,,有限会社,神奈川県,横浜市鶴見区,朝日町２丁目８９番パークハイツ鶴見４３６号,,14,101,2300033,,,2023-10-23,清算の結了等,,,2015-10-05,1,,,,,サニーコウギョウ,0
660,3021002015287,登記記録の閉鎖等,0,2023-11-02,2023-10-30,有限会社ナチュレテン,,有限会社,神奈川県,鎌倉市,城廻１４０番地４４,,14,204,2470074,,,2023-10-30,清算の結了等,,,2015-10-05,1,,,,,ナチュレテン,0
669,3030002107928,登記記録の閉鎖等,0,2023-11-02,2023-10-18,アイオート山口有限会社,,有限会社,埼玉県,川口市,並木１丁目１２番６号,,11,203,3320034,,,2023-10-18,清算の結了等,,,2015-10-05,1,,,,,,0
677,3040001102978,登記記録の閉鎖等,0,2023-11-02,2023-10-23,株式会社紅龍閣,,株式会社,千葉県,我孫子市,布佐２６０２番１号,,12,222,2701101,,,2023-10-23,清算の結了等,,,2017-12-27,1,,,,,コウリュウカク,0
683,3040002092748,登記記録の閉鎖等,0,2023-11-02,2023-10-24,有限会社すずや,,有限会社,千葉県,我孫子市,寿１丁目１３番地５号,,12,222,2701152,,,2023-10-24,清算の結了等,,,2015-10-05,1,,,,,スズヤ,0
685,3040003008629,登記記録の閉鎖等,0,2023-11-02,2023-10-23,合同会社メンタリスト,,合同会社,千葉県,市川市,福栄３丁目７番１９号,,12,203,2720137,,,2023-10-23,清算の結了等,,,2016-05-24,1,,,,,メンタリスト,0
693,3060001006269,登記記録の閉鎖等,0,2023-11-02,2023-10-19,株式会社公正社,,株式会社,栃木県,宇都宮市,本町１３番１０号,,09,201,3200033,,,2023-10-19,清算の結了等,,,2015-10-05,1,,,,,コウセイシャ,0
708,3080401004184,登記記録の閉鎖等,0,2023-11-02,2023-11-01,ＨＶ清算準備株式会社,,株式会社,静岡県,浜松市南区,金折町１９０９番地,,22,134,4350026,,,2023-11-01,清算の結了等,,,2015-10-05,1,,,,,エイチブイセイサンジュンビ,0
727,3120101045061,登記記録の閉鎖等,0,2023-11-02,2023-10-31,株式会社アラン,,株式会社,大阪府,和泉市,富秋町２丁目１０番６号,,27,219,5940082,,,2023-10-31,清算の結了等,,,2015-10-05,1,,,,,アラン,0
745,3130003007175,登記記録の閉鎖等,0,2023-11-02,2023-10-20,合同会社ＫＥＤＡＭＡ,,合同会社,京都府,京都市下京区,岩下通仏光寺下る徳屋町４３７番地ノ・レーヴ堀川高辻１０２号,00122835,26,106,6000000,,,2023-10-20,清算の結了等,,,2021-04-21,1,,,,,ケダマ,0
756,3150002011515,登記記録の閉鎖等,0,2023-11-02,2023-10-31,有限会社カワシン,,有限会社,奈良県,大和高田市,大字有井３４２番地２,,29,202,6350072,,,2023-10-31,清算の結了等,,,2015-10-05,1,,,,,カワシン,0
762,3180001053514,登記記録の閉鎖等,0,2023-11-02,2023-10-31,株式会社弘法屋本店,,株式会社,愛知県,名古屋市千種区,末盛通１丁目１番地,,23,101,4640821,,,2023-10-31,合併による解散等,1180001065395,令和５年１０月３１日名古屋市千種区末盛通一丁目１番地株式会社カタオカ（1180001065395）に合併し解散,2015-10-05,1,,,,,コウボウヤホンテン,0
766,3180001142218,登記記録の閉鎖等,0,2023-11-02,2023-10-31,株式会社エコの窓口,,株式会社,愛知県,西春日井郡豊山町,大字豊場字伊勢山２９６番地,,23,342,4800202,,,2023-10-31,清算の結了等,,,2020-07-31,1,,,,,エコノマドグチ,0
803,3330005002187,登記記録の閉鎖等,0,2023-11-02,2023-10-26,ＮＰＯ法人ｃｏ．Ｃａｒｅ,,その他の設立登記法人,熊本県,山鹿市,鹿本町来民１１８８,,43,208,8610331,,,2023-10-26,清算の結了等,,,2015-10-05,1,,,,,コーケア,0
809,3360001010488,登記記録の閉鎖等,0,2023-11-02,2023-10-27,株式会社普天間モータース,,株式会社,沖縄県,宜野湾市,伊佐３丁目９番１号,,47,205,9012221,,,2023-10-27,清算の結了等,,,2015-10-05,1,,,,,フテンマモータース,0
821,3390002013818,登記記録の閉鎖等,0,2023-11-02,2023-10-31,有限会社安房縫製,,有限会社,山形県,東置賜郡高畠町,大字山崎４２６番地,,06,381,9992173,,,2023-10-31,清算の結了等,,,2015-10-05,1,,,,,アワホウセイ,0
825,3400003002215,登記記録の閉鎖等,0,2023-11-02,2023-10-24,合同会社鼎,,合同会社,岩手県,奥州市,水沢字北丑沢９７番地２４,,03,215,0230031,,,2023-10-24,清算の結了等,,,2017-06-16,1,,,,,カナエ,0
829,3430001006388,登記記録の閉鎖等,0,2023-11-02,2023-11-01,株式会社小宮山屋,,株式会社,北海道,札幌市中央区,南九条西１５丁目３番５号,,01,101,0640809,,,2023-11-01,清算の結了等,,,2015-10-05,1,,,,,,0
836,3430005014239,登記記録の閉鎖等,0,2023-11-02,2023-10-24,一般社団法人インベストメント・アドバイザーズ,,その他の設立登記法人,北海道,札幌市中央区,北二条西１０丁目２番７号２０５号ＦＰＬ証券株式会社内,,01,101,0600002,,,2023-10-24,清算の結了等,,,2021-07-28,1,,,,,インベストメントアドバイザーズ,0
856,4010001051756,登記記録の閉鎖等,0,2023-11-02,2023-10-24,株式会社東進印刷,,株式会社,千葉県,船橋市,三山１丁目２７番１号,,12,204,2740072,,,2023-10-24,清算の結了等,,,2015-10-05,1,,,,,トウシンインサツ,0
867,4010002035411,登記記録の閉鎖等,0,2023-11-02,2023-10-26,有限会社フェイバリット,,有限会社,東京都,中央区,築地４丁目４番１４号,,13,102,1040045,,,2023-10-26,清算の結了等,,,2015-10-05,1,,,,,フェイバリット,0
872,4010401099775,登記記録の閉鎖等,0,2023-11-02,2023-10-27,Ｎｅｘｔ　Ａｎｉｍａｔｉｏｎ　Ｓｔｕｄｉｏ　Ｊａｐａｎ株式会社,,株式会社,東京都,渋谷区,神宮前６丁目２８番９号東武ビル６Ｆ,,13,113,1500001,,,2023-10-27,清算の結了等,,,2015-10-05,1,,,,,ネクストアニメーションスタジオジャパン,0
882,4010405018319,登記記録の閉鎖等,0,2023-11-02,2023-10-06,Ａｅｒｉａｌ税理士法人,,その他の設立登記法人,東京都,港区,六本木５丁目２番１号ほうらいやビル４Ｆ,,13,103,1060032,,,2023-10-06,合併による解散等,5180005016481,令和５年１０月２日名古屋市中区千代田二丁目１３番９号税理士法人堀口会計（5180005016481）に合併し解散,2019-12-13,1,,,,,エアリアル,0
884,4010601013222,登記記録の閉鎖等,0,2023-11-02,2023-10-30,株式会社関根製作所,,株式会社,東京都,墨田区,八広５丁目２５番１０号,,13,107,1310041,,,2023-10-30,清算の結了等,,,2015-10-05,1,,,,,,0
885,4010601052922,登記記録の閉鎖等,0,2023-11-02,2023-10-24,ＮｏＭｉｎｄ株式会社,,株式会社,神奈川県,横浜市神奈川区,六角橋５丁目１３番３７－２０１号,,14,102,2210802,,,2023-10-24,清算の結了等,,,2018-02-23,1,,,,,ノーマインド,0
899,4011002003234,登記記録の閉鎖等,0,2023-11-02,2023-10-30,有限会社乾元貿易,,有限会社,東京都,渋谷区,代々木５丁目５５番１２号,,13,113,1510053,,,2023-10-30,清算の結了等,,,2015-10-05,1,,,,,カンゲンボウエキ,0
921,4012402022501,登記記録の閉鎖等,0,2023-11-02,2023-10-31,有限会社小関工業,,有限会社,東京都,調布市,東つつじケ丘２丁目３８番地３８,,13,208,1820005,,,2023-10-31,清算の結了等,,,2015-10-05,1,,,,,コセキコウギョウ,0
939,4021002006137,登記記録の閉鎖等,0,2023-11-02,2023-10-30,有限会社シーウインド,,有限会社,神奈川県,茅ヶ崎市,富士見町９番１６号３０４号室,,14,207,2530031,,,2023-10-30,清算の結了等,,,2015-10-05,1,,,,,,0
941,4021002029303,登記記録の閉鎖等,0,2023-11-02,2023-10-30,有限会社クラフトハウス齋藤製材,,有限会社,神奈川県,相模原市緑区,原宿南２丁目６番地９,,14,151,2520103,,,2023-10-30,清算の結了等,,,2015-10-05,1,,,,,クラフトハウスサイトウセイザイ,0
945,4021002035697,登記記録の閉鎖等,0,2023-11-02,2023-10-30,有限会社和公商事,,有限会社,神奈川県,伊勢原市,桜台１丁目２番３０号,,14,214,2591132,,,2023-10-30,清算の結了等,,,2015-10-05,1,,,,,ワコウショウジ,0
965,4030002121960,登記記録の閉鎖等,0,2023-11-02,2023-10-23,有限会社島田商会,,有限会社,埼玉県,秩父郡小鹿野町,小鹿野９６５番地,,11,365,3680105,,,2023-10-23,清算の結了等,,,2015-10-05,1,,,,,シマダショウカイ,0
984,4060001028072,登記記録の閉鎖等,0,2023-11-02,2023-11-01,レイヤーノート株式会社,,株式会社,栃木県,宇都宮市,城東２丁目２番１６号,,09,201,3210935,,,2023-11-01,合併による解散等,9011401016113,令和５年１１月１日栃木県宇都宮市城東二丁目２番１６号株式会社リーガル・ファーム（9011401016113）に合併し解散,2016-03-11,1,,,,,レイヤーノート,0
1000,4100002028158,登記記録の閉鎖等,0,2023-11-02,2023-10-24,有限会社湖南通信,,有限会社,長野県,諏訪市,大字中洲２５７０番地２,,20,206,3920015,,,2023-10-24,清算の結了等,,,2015-10-05,1,,,,,コナミツウシン,0
1007,4120002021474,登記記録の閉鎖等,0,2023-11-02,2023-10-30,大浪金属有限会社,,有限会社,大阪府,大阪市西区,九条南２丁目３０番１６号,,27,106,5500025,,,2023-10-30,清算の結了等,,,2015-10-05,1,,,,,オオナミキンゾク,0
1024,4120901028751,登記記録の閉鎖等,0,2023-11-02,2023-10-31,株式会社イーグルマニファクチャー,,株式会社,大阪府,池田市,豊島南１丁目１３番３０号,,27,204,5630035,,,2023-10-31,清算の結了等,,,2015-10-05,1,,,,,イーグルマニファクチャー,0
1025,4120905004971,登記記録の閉鎖等,0,2023-11-02,2023-10-26,特定非営利活動法人未来つながりプログラム,,その他の設立登記法人,大阪府,高槻市,南平台３丁目１６番１１号,,27,207,5691042,,,2023-10-26,清算の結了等,,,2015-10-05,1,,,,,ミライツナガリプログラム,0
1044,4160005011007,登記記録の閉鎖等,0,2023-11-02,2023-10-25,一般社団法人滋賀県任意売却支援協会,,その他の設立登記法人,神奈川県,横浜市中区,長者町３丁目８番１３号ＴＫ関内プラザ６階,,14,104,2310033,,,2023-10-25,清算の結了等,,,2021-11-04,1,,,,,シガケンニンイバイキャクシエンキョウカイ,0
1049,4180001094763,登記記録の閉鎖等,0,2023-11-02,2023-10-31,知多特殊自動車株式会社,,株式会社,愛知県,知多市,岡田字薬師前２１番地の１,,23,224,4780021,,,2023-10-31,清算の結了等,,,2015-10-05,1,,,,,チタトクシュジドウシャ,0
1052,4180002032838,登記記録の閉鎖等,0,2023-11-02,2023-10-31,有限会社麻雀みそのクラブ,,有限会社,愛知県,名古屋市中区,栄１丁目１４番１４号,,23,106,4600008,,,2023-10-31,清算の結了等,,,2015-10-05,1,,,,,マージャンミソノクラブ,0
1058,4220001017199,登記記録の閉鎖等,0,2023-11-02,2023-10-31,株式会社アズテック,,株式会社,石川県,金沢市,八日市１丁目６１２,,17,201,9218064,,,2023-10-31,清算の結了等,,,2015-10-05,1,,,,,アズテック,0
1063,4230001008065,登記記録の閉鎖等,0,2023-11-02,2023-11-01,株式会社ＨＢＣ,,株式会社,富山県,滑川市,小林２５０番地１,,16,206,9360854,,,2023-11-01,清算の結了等,,,2015-10-05,1,,,,,エイチビーシー,0
1067,4240002007016,登記記録の閉鎖等,0,2023-11-02,2023-11-01,有限会社さつき薬局,,有限会社,広島県,広島市南区,翠１丁目１０番３４号,00000776,34,103,7340005,,,2023-11-01,清算の結了等,,,2015-10-05,1,,,,,サツキヤッキョク,0
1094,4310001002035,登記記録の閉鎖等,0,2023-11-02,2023-10-27,ＭＵ企画株式会社,,株式会社,長崎県,長崎市,滑石２丁目１番３８号,,42,201,8528061,,,2023-10-27,清算の結了等,,,2015-10-05,1,,,,,,0
1095,4310002006084,登記記録の閉鎖等,0,2023-11-02,2023-10-31,有限会社リバース,,有限会社,長崎県,長崎市,松が枝町３番１６号,,42,201,8500921,,,2023-10-31,清算の結了等,,,2015-10-05,1,,,,,リバース,0
1100,4330001008922,登記記録の閉鎖等,0,2023-11-02,2023-10-27,株式会社熊本合同庁舎ＰＦＩ,,株式会社,熊本県,熊本市中央区,本荘６丁目１７番２１号,,43,101,8600811,,,2023-10-27,清算の結了等,,,2015-10-05,1,,,,,クマモトゴウドウチョウシャピーエフアイ,0
1109,4350001006189,登記記録の閉鎖等,0,2023-11-02,2023-10-31,日向開発株式会社,,株式会社,宮崎県,東臼杵郡門川町,上町３丁目４０番地,,45,421,8890614,,,2023-10-31,清算の結了等,,,2015-10-05,1,,,,,,0
1110,4350002011089,登記記録の閉鎖等,0,2023-11-02,2023-10-30,有限会社イーエスバイテック,,有限会社,宮崎県,東臼杵郡門川町,庵川西１丁目７８番地,,45,421,8890605,,,2023-10-30,清算の結了等,,,2015-10-05,1,,,,,イーエスバイテック,0
1114,4370002006129,登記記録の閉鎖等,0,2023-11-02,2023-11-01,有限会社宮崎建築設計室,,有限会社,宮城県,仙台市若林区,新寺５丁目６番２３－２０１号,,04,103,9840051,,,2023-11-01,清算の結了等,,,2015-10-05,1,,,,,ミヤザキケンチクセッケイシツ,0
1123,4400005007772,登記記録の閉鎖等,0,2023-11-02,2023-10-23,特定非営利活動法人ウッドラック,,その他の設立登記法人,岩手県,陸前高田市,竹駒町字仲の沢１７番地１,,03,210,0292203,,,2023-10-23,清算の結了等,,,2017-04-04,1,,,,,ウッドラック,0
1124,4420001013302,登記記録の閉鎖等,0,2023-11-02,2023-10-02,株式会社黒石福祉サービス,,株式会社,青森県,黒石市,追子野木３丁目２１５番地１,,02,204,0360357,,,2023-10-02,合併による解散等,1420003001472,令和５年１０月１日青森県黒石市追木野木三丁目２１５番地１ＡＫＹ合同会社（1420003001472）に合併し解散,2015-10-05,1,,,,,クロイシフクシサービス,0
1125,4420002013524,登記記録の閉鎖等,0,2023-11-02,2023-10-30,有限会社スーパーおさない,,有限会社,青森県,弘前市,大字石渡１丁目３番地８,,02,202,0368316,,,2023-10-30,清算の結了等,,,2015-10-05,1,,,,,スーパーオサナイ,0
1135,4450002010634,登記記録の閉鎖等,0,2023-11-02,2023-10-31,有限会社カネジュウ辻村商店,00090773,有限会社,北海道,枝幸郡枝幸町,新港町８４０番地１,,01,514,0985808,,,2023-10-31,清算の結了等,,,2015-10-05,1,,,,,カネジュウツジムラ,0
1138,4490002003774,登記記録の閉鎖等,0,2023-11-02,2023-10-31,有限会社中島パーキング,,有限会社,高知県,高知市,高須１丁目３番３号,,39,201,7818104,,,2023-10-31,清算の結了等,,,2015-10-05,1,,,,,ナカジマパーキング,0
1140,4500001015892,登記記録の閉鎖等,0,2023-11-02,2023-11-01,株式会社ののした,,株式会社,愛媛県,南宇和郡愛南町,敦盛８番地,,38,506,7984345,,,2023-11-01,清算の結了等,,,2015-10-05,1,,,,,ノノシタ,0
1156,5010001233758,登記記録の閉鎖等,0,2023-11-02,2023-10-24,株式会社建設ＨＵＢ,,株式会社,東京都,千代田区,九段南１丁目５番６号りそな九段ビル５階ＫＳフロア,,13,101,1020074,,,2023-10-24,清算の結了等,,,2023-03-16,1,,,,,ケンセツハブ,0
1218,5013303003556,登記記録の閉鎖等,0,2023-11-02,2023-10-25,合同会社ＧＢＳ,,合同会社,東京都,豊島区,池袋２丁目４５番１号,,13,116,1710014,,,2023-10-25,清算の結了等,,,2017-01-23,1,,,,,ジィビィエス,0
1230,5021001039863,登記記録の閉鎖等,0,2023-11-02,2023-10-06,感動キューブ株式会社,,株式会社,東京都,新宿区,西新宿１丁目２４番１号,,13,104,1600023,,,2023-10-06,合併による解散等,5120001116778,令和５年１０月１日大阪市中央区久太郎町三丁目３番９号スマイルキューブ株式会社（5120001116778）に合併し解散,2015-10-05,1,,,,,カンドウキューブ,0
1258,5040001062790,登記記録の閉鎖等,0,2023-11-02,2023-10-24,株式会社平野商会,,株式会社,千葉県,香取郡多古町,飯笹７８２番地２,,12,347,2892231,,,2023-10-24,清算の結了等,,,2015-10-05,1,,,,,ヒラノショウカイ,0
1281,5070002005556,登記記録の閉鎖等,0,2023-11-02,2023-10-30,有限会社山下鉄工所,,有限会社,群馬県,前橋市,総社町総社２８７３番地１１,,10,201,3710852,,,2023-10-30,清算の結了等,,,2015-10-05,1,,,,,ヤマシタテッコウジョ,0
1286,5080102018688,登記記録の閉鎖等,0,2023-11-02,2023-11-01,有限会社山本生花店,,有限会社,静岡県,熱海市,渚町１３番１号,,22,205,4130014,,,2023-11-01,清算の結了等,,,2015-10-05,1,,,,,ヤマモトセイカテン,0
1287,5080401000875,登記記録の閉鎖等,0,2023-11-02,2023-11-01,株式会社エフエフ浜松,,株式会社,静岡県,浜松市南区,金折町１９０９番地,,22,134,4350026,,,2023-11-01,清算の結了等,,,2015-10-05,1,,,,,エフエフハママツ,0
1288,5080401004397,登記記録の閉鎖等,0,2023-11-02,2023-11-01,ＨＣ清算準備株式会社,,株式会社,静岡県,浜松市南区,金折町１９０９番地,,22,134,4350026,,,2023-11-01,清算の結了等,,,2015-10-05,1,,,,,エイチシーセイサンジュンビ,0
1298,5110001009842,登記記録の閉鎖等,0,2023-11-02,2023-10-30,株式会社プレジャー,,株式会社,新潟県,新発田市,中央町３丁目４番８号,,15,206,9570053,,,2023-10-30,清算の結了等,,,2015-10-05,1,,,,,プレジャー,0
1307,5120002010889,登記記録の閉鎖等,0,2023-11-02,2023-10-31,有限会社カナ美容室,,有限会社,大阪府,大阪市平野区,喜連東５丁目１５番１２号,,27,126,5470021,,,2023-10-31,清算の結了等,,,2015-10-05,1,,,,,カナビヨウシツ,0
1312,5120005018847,登記記録の閉鎖等,0,2023-11-02,2023-11-01,一般社団法人ケアステーション結,,その他の設立登記法人,大阪府,大阪市東住吉区,山坂２丁目１１番１０号,,27,121,5460035,,,2023-11-01,清算の結了等,,,2016-07-29,1,,,,,ケアステーションユイ,0
1323,5122001024184,登記記録の閉鎖等,0,2023-11-02,2023-11-01,日上物産株式会社,,株式会社,大阪府,八尾市,福万寺町南２丁目４３番地の６２,,27,212,5810843,,,2023-11-01,清算の結了等,,,2015-10-05,1,,,,,ニチジョウブッサン,0
1326,5122002015257,登記記録の閉鎖等,0,2023-11-02,2023-10-31,有限会社井村電気商会,,有限会社,大阪府,柏原市,清州１丁目３番１８号,,27,221,5820006,,,2023-10-31,清算の結了等,,,2015-10-05,1,,,,,イムラデンキショウカイ,0
1331,5130002017330,登記記録の閉鎖等,0,2023-11-02,2023-10-19,有限会社紅屋電機商会,,有限会社,京都府,京都市中京区,壬生松原町３８番地の５,,26,104,6048823,,,2023-10-19,清算の結了等,,,2015-10-05,1,,,,,ベニヤデンキショウカイ,0
1338,5150001020952,登記記録の閉鎖等,0,2023-11-02,2023-10-31,株式会社ｋｅｄｐ,,株式会社,奈良県,御所市,大字櫛羅１２９９番地の１,,29,208,6392312,,,2023-10-31,清算の結了等,,,2016-08-31,1,,,,,ケーイーディーピー,0
1341,5160003001917,登記記録の閉鎖等,0,2023-11-02,2023-10-31,Ｔｈｅ合同会社,,合同会社,滋賀県,大津市,里６丁目４番１５号,,25,201,5202276,,,2023-10-31,清算の結了等,,,2019-10-07,1,,,,,ザ,0
1342,5180001026328,登記記録の閉鎖等,0,2023-11-02,2023-10-30,株式会社東海理化工業所,,株式会社,愛知県,名古屋市西区,歌里町１５８番地,,23,104,4520807,,,2023-10-30,清算の結了等,,,2015-10-05,1,,,,,トウカイリカコウギョウショ,0
1344,5180001044825,登記記録の閉鎖等,0,2023-11-02,2023-10-31,株式会社共栄テック,,株式会社,愛知県,名古屋市西区,市場木町４３９番地,,23,104,4520805,,,2023-10-31,清算の結了等,,,2015-10-05,1,,,,,キョウエイテック,0
1355,5180002064632,登記記録の閉鎖等,0,2023-11-02,2023-10-30,有限会社テイク,,有限会社,愛知県,豊明市,栄町三ツ池下３３番地の３,,23,229,4701161,,,2023-10-30,清算の結了等,,,2015-10-05,1,,,,,テイク,0
1358,5180005006326,登記記録の閉鎖等,0,2023-11-02,2023-11-01,特定非営利活動法人ピア,,その他の設立登記法人,愛知県,名古屋市中区,丸の内３丁目２０番５号,,23,106,4600002,,,2023-11-01,清算の結了等,,,2015-10-05,1,,,,,ピア,0
1359,5180301023990,登記記録の閉鎖等,0,2023-11-02,2023-10-25,株式会社近藤薬局,,株式会社,愛知県,新城市,字西新町６６番地,,23,221,4411373,,,2023-10-25,清算の結了等,,,2015-10-05,1,,,,,コンドウヤッキョク,0
1365,5200001035755,登記記録の閉鎖等,0,2023-11-02,2023-10-31,株式会社ナツメフォーム印刷,,株式会社,岐阜県,関市,小瀬南２丁目１２番６号,,21,205,5013266,,,2023-10-31,清算の結了等,,,2018-11-30,1,,,,,ナツメフォームインサツ,0
1366,5200005007437,登記記録の閉鎖等,0,2023-11-02,2023-11-01,医療法人社団時修会,,その他の設立登記法人,岐阜県,関市,東山２７番地の７,,21,205,5013814,,,2023-11-01,清算の結了等,,,2015-10-05,1,,,,,ジシュウカイ,0
1386,5290005018269,登記記録の閉鎖等,0,2023-11-02,2023-10-23,アクロス大濠特定目的会社,,その他の設立登記法人,福岡県,福岡市中央区,天神１丁目１３番２号,,40,133,8100001,,,2023-10-23,清算の結了等,,,2021-06-28,1,,,,,アクロスオオホリ,0
1395,5310002009193,登記記録の閉鎖等,0,2023-11-02,2023-10-31,有限会社インテリアよどや,,有限会社,長崎県,佐世保市,俵町４番２１号,,42,202,8570016,,,2023-10-31,清算の結了等,,,2015-10-05,1,,,,,インテリアヨドヤ,0
1400,5320001001695,登記記録の閉鎖等,0,2023-11-02,2023-10-12,株式会社フェリーさんふらわあ,,株式会社,大分県,大分市,生石５丁目３番１号,,44,201,8700003,,,2023-10-12,合併による解散等,4010701022437,令和５年１０月１日東京都千代田区外神田一丁目１８番１３号商船三井フェリー株式会社（4010701022437）に合併し解散,2015-10-05,1,,,,,フェリーサンフラワア,0
1408,5350001012079,登記記録の閉鎖等,0,2023-11-02,2023-10-26,株式会社轟園産,,株式会社,宮崎県,宮崎市,大字芳士１６７５番地１,,45,201,8800123,,,2023-10-26,清算の結了等,,,2015-10-05,1,,,,,トドロキエンサン,0
1409,5350002016830,登記記録の閉鎖等,0,2023-11-02,2023-10-30,有限会社日南溶材商会,,有限会社,宮崎県,日南市,大字平野１４８３番地７,,45,204,8870015,,,2023-10-30,清算の結了等,,,2015-10-05,1,,,,,ニチナンヨウザイショウカイ,0
1415,5370001022662,登記記録の閉鎖等,0,2023-11-02,2023-11-01,株式会社きわみケア,,株式会社,宮城県,仙台市青葉区,西勝山２７番３号,,04,101,9810953,,,2023-11-01,清算の結了等,,,2015-10-05,1,,,,,キワミケア,0
1442,5470002016744,登記記録の閉鎖等,0,2023-11-02,2023-10-31,有限会社三木屋商事,,有限会社,香川県,観音寺市,豊浜町姫浜５６７番地５,,37,205,7691601,,,2023-10-31,清算の結了等,,,2015-10-05,1,,,,,,0
1445,5480005006799,登記記録の閉鎖等,0,2023-11-02,2023-10-30,一般財団法人神山まるごと高専設立準備財団,,その他の設立登記法人,徳島県,名西郡神山町,下分字地野４９番地１,,36,342,7713421,,,2023-10-30,清算の結了等,,,2020-11-13,1,,,,,カミヤママルゴトコウセンセツリツジュンビザイダン,0
1465,6010401030515,登記記録の閉鎖等,0,2023-11-02,2023-10-23,陽和設備株式会社,,株式会社,東京都,杉並区,松ノ木１丁目１３番１４号,,13,115,1660014,,,2023-10-23,清算の結了等,,,2015-10-05,1,,,,,ヨウワセツビ,0
1479,6010502001753,登記記録の閉鎖等,0,2023-11-02,2023-10-30,有限会社エム・エー・シー,,有限会社,東京都,台東区,駒形１丁目１２番１０号,,13,106,1110043,,,2023-10-30,清算の結了等,,,2015-10-05,1,,,,,エムエーシー,0
1483,6010605000289,登記記録の閉鎖等,0,2023-11-02,2023-10-04,天理教中湊分教会,,その他の設立登記法人,東京都,江東区,高橋７番１１号,,13,108,1350005,,,2023-10-04,合併による解散等,9011105000685,令和５年９月２８日東京都新宿区西新宿七丁目２１番１８号天理教中央大教会（9011105000685）に合併し解散,2015-10-05,1,,,,,,0
1489,6010801018432,登記記録の閉鎖等,0,2023-11-02,2023-10-31,双峰トレーディング株式会社,,株式会社,東京都,大田区,東雪谷５丁目３８番２号,,13,111,1450065,,,2023-10-31,清算の結了等,,,2015-10-05,1,,,,,ソウホウトレーディング,0
1491,6011001066494,登記記録の閉鎖等,0,2023-11-02,2023-10-30,株式会社たいよう,,株式会社,千葉県,長生郡一宮町,東野１７番地２,,12,421,2994306,,,2023-10-30,合併による解散等,2010101003304,令和５年１０月２０日東京都八王子市八幡町３番２３号クレール八王子１１０９号株式会社ビームテック（2010101003304）に合併し解散,2015-10-05,1,,,,,タイヨウ,0
1508,6011203003295,登記記録の閉鎖等,0,2023-11-02,2023-10-31,キミプロ合同会社,,合同会社,東京都,中野区,沼袋３丁目２番１２号,,13,114,1650025,,,2023-10-31,清算の結了等,,,2020-05-19,1,,,,,キミプロ,0
1529,6021002017504,登記記録の閉鎖等,0,2023-11-02,2023-10-30,有限会社芦沢技研,00013127,有限会社,神奈川県,相模原市中央区,田名塩田３丁目３番４－５０７号,,14,152,2520245,,,2023-10-30,清算の結了等,,,2015-10-05,1,,,,,アシザワギケン,0
1530,6021005012213,登記記録の閉鎖等,0,2023-11-02,2023-10-30,神奈川プロパンガス容器検査協同組合,,その他の設立登記法人,神奈川県,海老名市,杉久保南４丁目３８番１号,,14,215,2430427,,,2023-10-30,清算の結了等,,,2021-05-24,1,,,,,カナガワプロパンガスヨウキケンサ,0
1532,6030001033486,登記記録の閉鎖等,0,2023-11-02,2023-10-18,株式会社会森工業,,株式会社,埼玉県,加須市,騎西４番地１３,,11,210,3470105,,,2023-10-18,清算の結了等,,,2015-10-05,1,,,,,,0
1538,6030002004569,登記記録の閉鎖等,0,2023-11-02,2023-10-24,有限会社玄都市設計,,有限会社,埼玉県,さいたま市緑区,原山２丁目３７番８号,,11,109,3360931,,,2023-10-24,清算の結了等,,,2015-10-05,1,,,,,ゲントシセッケイ,0
1541,6030002059282,登記記録の閉鎖等,0,2023-11-02,2023-10-24,武蔵野総業有限会社,,有限会社,埼玉県,朝霞市,東弁財３丁目４番５号,,11,227,3510022,,,2023-10-24,清算の結了等,,,2015-10-05,1,,,,,ムサシノソウギョウ,0
1549,6040001124730,登記記録の閉鎖等,0,2023-11-02,2023-10-23,株式会社日本東光貿易,,株式会社,千葉県,八千代市,米本２４３６－５３－Ｂ棟,,12,221,2760015,,,2023-10-23,清算の結了等,,,2022-08-18,1,,,,,ニホントウコウボウエキ,0
1563,6050005013251,登記記録の閉鎖等,0,2023-11-02,2023-10-25,無限責任山田村高野負債整理組合,,その他の設立登記法人,茨城県,常陸太田市,棚谷町１８番屋敷,,08,212,3130225,,,2023-10-25,清算の結了等,,,2023-04-19,1,,,,,ムゲンセキニンヤマダムラタカノフサイセイリクミアイ,0
1568,6070002006470,登記記録の閉鎖等,0,2023-11-02,2023-10-30,有限会社ムラカミ,,有限会社,群馬県,前橋市,下沖町２８９番地,,10,201,3710011,,,2023-10-30,清算の結了等,,,2015-10-05,1,,,,,ムラカミ,0
1586,6120001175245,登記記録の閉鎖等,0,2023-11-02,2023-10-12,株式会社ＭＨＭアシスト,,株式会社,大阪府,大阪市阿倍野区,阪南町５丁目１５番９号,,27,119,5450021,,,2023-10-12,清算の結了等,,,2015-10-05,1,,,,,エムエイチエムアシスト,0
1607,6140001011571,登記記録の閉鎖等,0,2023-11-02,2023-10-30,ユニテック株式会社,,株式会社,兵庫県,神戸市中央区,筒井町３丁目１０番１７－５０２号,,28,110,6510071,,,2023-10-30,清算の結了等,,,2015-10-05,1,,,,,ユニテック,0
1608,6140001014491,登記記録の閉鎖等,0,2023-11-02,2023-10-30,株式会社吉川商会,,株式会社,兵庫県,芦屋市,呉川町１３番３－１１１号,,28,206,6590051,,,2023-10-30,清算の結了等,,,2015-10-05,1,,,,,ヨシカワショウカイ,0
1609,6140001017453,登記記録の閉鎖等,0,2023-11-02,2023-10-30,クラワ建設株式会社,,株式会社,兵庫県,神戸市須磨区,車字道谷山３番１０,,28,107,6540111,,,2023-10-30,清算の結了等,,,2015-10-05,1,,,,,,0
1616,6180001054237,登記記録の閉鎖等,0,2023-11-02,2023-10-30,株式会社ＦＰ石原,,株式会社,愛知県,名古屋市中区,大須３丁目１４番５５号,,23,106,4600011,,,2023-10-30,清算の結了等,,,2015-10-05,1,,,,,エフピーイシハラ,0
1618,6180001118677,登記記録の閉鎖等,0,2023-11-02,2023-10-25,株式会社ｏｎｅ　ｏｒ　ｅｉｇｈｔ,,株式会社,愛知県,額田郡幸田町,大字芦谷字大西２９番地３メゾン児玉３０６号室,00106464,23,501,4440116,,,2023-10-25,清算の結了等,,,2015-10-05,1,,,,,ワンオアエイト,0
1634,6220002015514,登記記録の閉鎖等,0,2023-11-02,2023-10-31,有限会社坂善,,有限会社,石川県,輪島市,河井町２０部１番地４０,,17,204,9280001,,,2023-10-31,清算の結了等,,,2015-10-05,1,,,,,サカゼン,0
1639,6240002054543,登記記録の閉鎖等,0,2023-11-02,2023-10-30,有限会社三原技工,,有限会社,広島県,三原市,中之町３丁目５番８号,,34,204,7230003,,,2023-10-30,清算の結了等,,,2015-10-05,1,,,,,ミハラギコウ,0
1640,6250002004472,登記記録の閉鎖等,0,2023-11-02,2023-10-31,有限会社兼城工業所,,有限会社,山口県,山陽小野田市,大字小野田４１７番地の６,,35,216,7560817,,,2023-10-31,清算の結了等,,,2015-10-05,1,,,,,カネシロコウギョウショ,0
1646,6260002031730,登記記録の閉鎖等,0,2023-11-02,2023-10-31,コーワン機器有限会社,,有限会社,岡山県,備前市,東片上２１３番地１,,33,211,7050022,,,2023-10-31,清算の結了等,,,2015-10-05,1,,,,,コーワンキキ,0
1659,6290001070925,登記記録の閉鎖等,0,2023-11-02,2023-10-27,株式会社Ｒｅｔａｉｌ　ＡＩ　Ｘ,,株式会社,福岡県,福岡市東区,多の津１丁目１２番２号,,40,131,8130034,,,2023-10-27,合併による解散等,2010401141877,令和５年１０月１日東京都港区浜松町一丁目３０番５号浜松町スクエア株式会社Ｒｅｔａｉｌ　ＡＩ（2010401141877）に合併し解散,2015-10-05,1,,,,,,0
1689,6350005005714,登記記録の閉鎖等,0,2023-11-02,2023-10-26,一般社団法人今幸,,その他の設立登記法人,宮崎県,都城市,高崎町縄瀬２８２９番地１,,45,202,8894503,,,2023-10-26,清算の結了等,,,2017-09-13,1,,,,,イマコウ,0
1691,6360001017951,登記記録の閉鎖等,0,2023-11-02,2023-10-30,株式会社あいライク,,株式会社,沖縄県,那覇市,首里末吉町４丁目２番地１９コーポ２３、２０２号室,,47,201,9030801,,,2023-10-30,清算の結了等,,,2015-10-05,1,,,,,アイライク,0
1693,6360001030211,登記記録の閉鎖等,0,2023-11-02,2023-10-27,株式会社ＲＶＳＳ,,株式会社,沖縄県,那覇市,壺屋２丁目２６番１１号２Ａ,,47,201,9020065,,,2023-10-27,清算の結了等,,,2022-04-08,1,,,,,アールヴィエスエス,0
1702,6380002011191,登記記録の閉鎖等,0,2023-11-02,2023-10-31,有限会社中台,,有限会社,福島県,郡山市,富久山町久保田字中台１１０番地,,07,203,9638071,,,2023-10-31,清算の結了等,,,2015-10-05,1,,,,,ナカダイ,0
1710,6430002043394,登記記録の閉鎖等,0,2023-11-02,2023-10-25,有限会社進勢社,,有限会社,北海道,石狩市,花川南五条４丁目７８番地,,01,235,0613205,,,2023-10-25,清算の結了等,,,2015-10-05,1,,,,,シンセイシャ,0
1712,6440001001815,登記記録の閉鎖等,0,2023-11-02,2023-11-01,株式会社間建設,,株式会社,北海道,函館市,東山３丁目１４番２５号,,01,202,0410835,,,2023-11-01,合併による解散等,8440001000427,令和５年１１月１日北海道函館市田家町１５番１２号カネト産商株式会社（8440001000427）に合併し解散,2015-10-05,1,,,,,ハザマケンセツ,0
1718,6500001014562,登記記録の閉鎖等,0,2023-11-02,2023-10-18,宇和島パール株式会社,,株式会社,愛媛県,四国中央市,川之江町１８０９番地７,,38,213,7990101,,,2023-10-18,清算の結了等,,,2015-10-05,1,,,,,,0
1731,7010001125185,登記記録の閉鎖等,0,2023-11-02,2023-10-24,株式会社ロジックアート,,株式会社,千葉県,流山市,おおたかの森南２丁目２３番地の１１－２０１,,12,220,2700139,,,2023-10-24,清算の結了等,,,2015-10-05,1,,,,,ロジックアート,0
1732,7010001173894,登記記録の閉鎖等,0,2023-11-02,2023-10-18,株式会社山手商事,,株式会社,京都府,京都市左京区,岡崎南御所町７番地ザ・京都レジデンス岡崎神宮３０３,,26,103,6068334,,,2023-10-18,清算の結了等,,,2016-03-01,1,,,,,ヤマテショウジ,0
1739,7010002000362,登記記録の閉鎖等,0,2023-11-02,2023-10-24,有限会社アポロ,,有限会社,東京都,文京区,関口１丁目１１番３号,,13,105,1120014,,,2023-10-24,清算の結了等,,,2015-10-05,1,,,,,アポロ,0
1767,7011001133797,登記記録の閉鎖等,0,2023-11-02,2023-10-30,株式会社Ｐａｃｉｆｉｃ　Ｓｉｔｅ　Ｓｕｐｐｏｒｔ　Ａｓｓｏｃｉａｔｅｓ,,株式会社,東京都,渋谷区,道玄坂１丁目２１番１号,,13,113,1500043,,,2023-10-30,清算の結了等,,,2020-05-22,1,,,,,パシフィックサイトサポートアソシエイツ,0
1775,7011105004721,登記記録の閉鎖等,0,2023-11-02,2023-10-05,税理士法人ティグレパートナーズ,,その他の設立登記法人,東京都,新宿区,下宮比町２番２６号ＫＤＸ飯田橋ビル７階,,13,104,1620822,,,2023-10-05,合併による解散等,6120005009606,令和５年１０月２日大阪市中央区谷町二丁目６番４号税理士法人ティグレパートナーズ（6120005009606）に合併し解散,2015-10-05,1,,,,,ティグレパートナーズ,0
1793,7020001088621,登記記録の閉鎖等,0,2023-11-02,2023-10-30,株式会社ウィングファイブ,,株式会社,神奈川県,相模原市南区,当麻８９７番地６,,14,153,2520336,,,2023-10-30,清算の結了等,,,2015-10-05,1,,,,,ウィングファイブ,0
1807,7021001064216,登記記録の閉鎖等,0,2023-11-02,2023-10-31,アイシェア株式会社,,株式会社,神奈川県,藤沢市,大鋸３丁目７番２４号,,14,205,2510002,,,2023-10-31,清算の結了等,,,2018-02-23,1,,,,,アイシェア,0
1809,7021002028203,登記記録の閉鎖等,0,2023-11-02,2023-10-30,有限会社キタムラプロパティ,,有限会社,神奈川県,相模原市中央区,相生３丁目７番８号,,14,152,2520235,,,2023-10-30,清算の結了等,,,2015-10-05,1,,,,,キタムラプロパティ,0
1821,7040001011201,登記記録の閉鎖等,0,2023-11-02,2023-10-24,株式会社ＤＡＩ,,株式会社,千葉県,千葉市若葉区,若松町９７７番地１０－２１２号,,12,104,2640021,,,2023-10-24,清算の結了等,,,2015-10-05,1,,,,,ダイ,0
1824,7040001033690,登記記録の閉鎖等,0,2023-11-02,2023-10-25,株式会社越川雅史経営研究所,,株式会社,千葉県,市川市,新田４丁目１３番２－１０３号アンシア市川ザ・レジデンス,,12,203,2720035,,,2023-10-25,清算の結了等,,,2015-10-05,1,,,,,コシカワマサフミケイエイケンキュウジョ,0
1831,7040002086143,登記記録の閉鎖等,0,2023-11-02,2023-10-20,有限会社ＬａＬａ　Ｇｒｏｕｐ,,有限会社,千葉県,匝瑳市,八日市場イ４５２番地６,,12,235,2892144,,,2023-10-20,清算の結了等,,,2015-10-05,1,,,,,,0
1832,7040002093180,登記記録の閉鎖等,0,2023-11-02,2023-10-24,有限会社山新豆腐店,,有限会社,千葉県,我孫子市,布佐１丁目７番地の１４,,12,222,2701101,,,2023-10-24,清算の結了等,,,2015-10-05,1,,,,,ヤマシントウフテン,0
1841,7070001028548,登記記録の閉鎖等,0,2023-11-02,2023-10-30,オーティアス株式会社,,株式会社,群馬県,太田市,台之郷町１４１５番地８０,,10,205,3730801,,,2023-10-30,清算の結了等,,,2015-10-05,1,,,,,,0
1849,7090001003367,登記記録の閉鎖等,0,2023-11-02,2023-10-31,株式会社ヤマキンチェーン,,株式会社,山梨県,甲府市,徳行３丁目１５番１号,,19,201,4000047,,,2023-10-31,清算の結了等,,,2015-10-05,1,,,,,ヤマキンチェーン,0
1850,7100001002623,登記記録の閉鎖等,0,2023-11-02,2023-10-24,成田物産株式会社,,株式会社,長野県,長野市,大字赤沼２０２１番地,,20,201,3810001,,,2023-10-24,清算の結了等,,,2015-10-05,1,,,,,ナリタブッサン,0
1855,7110001035291,登記記録の閉鎖等,0,2023-11-02,2023-10-30,株式会社ロータステクノ,,株式会社,新潟県,三条市,今井８８８番地,,15,204,9591141,,,2023-10-30,清算の結了等,,,2020-11-17,1,,,,,ロータステクノ,0
1857,7120001040134,登記記録の閉鎖等,0,2023-11-02,2023-10-31,ミラノ商事株式会社,,株式会社,大阪府,大阪市東住吉区,西今川２丁目１２番２１号,,27,121,5460042,,,2023-10-31,清算の結了等,,,2015-10-05,1,,,,,ミラノショウジ,0
1875,7120101007388,登記記録の閉鎖等,0,2023-11-02,2023-10-31,株式会社山本自動車整備工場,,株式会社,大阪府,堺市北区,東雲東町３丁４番２３号,,27,146,5918041,,,2023-10-31,清算の結了等,,,2015-10-05,1,,,,,ヤマモトジドウシャセイビコウジョウ,0
1895,7140001079567,登記記録の閉鎖等,0,2023-11-02,2023-10-30,能勢工業株式会社,,株式会社,兵庫県,川西市,向陽台１丁目５番地の７８,,28,217,6660115,,,2023-10-30,清算の結了等,,,2015-10-05,1,,,,,ノセコウギョウ,0
1911,7180002077269,登記記録の閉鎖等,0,2023-11-02,2023-10-31,長谷毛織有限会社,,有限会社,愛知県,一宮市,奥町字南目草１０番地,,23,203,4910201,,,2023-10-31,清算の結了等,,,2023-08-03,1,,,,,ナガタニケオリ,0
1917,7190002006879,登記記録の閉鎖等,0,2023-11-02,2023-10-31,有限会社野田倉庫,,有限会社,三重県,鈴鹿市,住吉５丁目８番３２号,,24,207,5130826,,,2023-10-31,清算の結了等,,,2015-10-05,1,,,,,ノダソウコ,0
1919,7190005006579,登記記録の閉鎖等,0,2023-11-02,2023-10-31,医療法人（社団）前田会,,その他の設立登記法人,三重県,松阪市,中央町５０５番地の１,,24,204,5150019,,,2023-10-31,清算の結了等,,,2015-10-05,1,,,,,マエダカイ,0
1923,7200003002553,登記記録の閉鎖等,0,2023-11-02,2023-10-24,合資会社はな,,合資会社,岐阜県,高山市,本町１丁目３９番地,,21,203,5060011,,,2023-10-24,清算の結了等,,,2015-10-05,1,,,,,ハナ,0
1933,7240001007872,登記記録の閉鎖等,0,2023-11-02,2023-10-31,株式会社ナカトミ,,株式会社,広島県,広島市安佐南区,安東１丁目１０番２９号,,34,105,7310153,,,2023-10-31,清算の結了等,,,2015-10-05,1,,,,,ナカトミ,0
1937,7250002017597,登記記録の閉鎖等,0,2023-11-02,2023-10-31,有限会社ノズエパソコン,,有限会社,山口県,岩国市,昭和町２丁目８番１号,,35,208,7400004,,,2023-10-31,清算の結了等,,,2015-10-05,1,,,,,ノズエパソコン,0
1942,7260002026911,登記記録の閉鎖等,0,2023-11-02,2023-11-01,有限会社横山工業所,,有限会社,岡山県,高梁市,落合町福地１２４１番地,,33,209,7160064,,,2023-11-01,清算の結了等,,,2015-10-05,1,,,,,ヨコヤマコウギョウショ,0
1947,7280001002655,登記記録の閉鎖等,0,2023-11-02,2023-11-01,株式会社アルツー,,株式会社,島根県,松江市,北陵町５２番地２ソフトビジネスパーク島根ゆめっくす北陵５号,,32,201,6900816,,,2023-11-01,清算の結了等,,,2015-10-05,1,,,,,アルツー,0
1954,7290801009691,登記記録の閉鎖等,0,2023-11-02,2023-11-01,太田機工株式会社,,株式会社,福岡県,北九州市八幡西区,穴生１丁目１２番１４号,,40,109,8060049,,,2023-11-01,清算の結了等,,,2015-10-05,1,,,,,オオタキコウ,0
1958,7290802016448,登記記録の閉鎖等,0,2023-11-02,2023-10-31,有限会社北九州サービス,,有限会社,福岡県,遠賀郡芦屋町,大字山鹿５４４番地３１,,40,381,8070141,,,2023-10-31,清算の結了等,,,2015-10-05,1,,,,,キタキュウシュウサービス,0
1986,7390002005480,登記記録の閉鎖等,0,2023-11-02,2023-10-31,有限会社サロン水星,,有限会社,山形県,天童市,大字矢野目５０４番地の１,,06,210,9940071,,,2023-10-31,清算の結了等,,,2015-10-05,1,,,,,サロンスイセイ,0
1996,7430003013767,登記記録の閉鎖等,0,2023-11-02,2023-10-24,大井土地開発合同会社,,合同会社,北海道,恵庭市,黄金中央２丁目８番地２（ベルブランＩＩ２０２号）,00130583,01,231,0611449,,,2023-10-24,清算の結了等,,,2022-04-05,1,,,,,オオイトチカイハツ,0
1999,7460002000937,登記記録の閉鎖等,0,2023-11-02,2023-11-01,有限会社釧路マッサージ・はり灸治療院,,有限会社,北海道,釧路市,松浦町３番６号,,01,206,0850005,,,2023-11-01,清算の結了等,,,2015-10-05,1,,,,,クシロマッサージハリキュウチリョウイン,0
2000,7460002003659,登記記録の閉鎖等,0,2023-11-02,2023-11-01,小泉自動車販売有限会社,,有限会社,北海道,釧路市,美原２丁目７番１３号,,01,206,0850065,,,2023-11-01,清算の結了等,,,2015-10-05,1,,,,,コイズミジドウシャハンバイ,0
2002,7460105001634,登記記録の閉鎖等,0,2023-11-02,2023-10-02,更別森林組合,,その他の設立登記法人,北海道,河西郡更別村,字更別南二線９１番地４,,01,639,0891542,,,2023-10-02,合併による解散等,7460105001568,令和５年１０月２日北海道広尾郡大樹町字下大樹２２５番地南十勝森林組合（7460105001568）に合併し解散,2015-10-05,1,,,,,サラベツ,0
2019,8010003033757,登記記録の閉鎖等,0,2023-11-02,2023-10-19,Ａｍｐ　Ｅａｒｔｈ　Ｆｕｎｄ１合同会社,,合同会社,東京都,中央区,銀座１丁目６番１１号土志田ビルディング３Ｆ,,13,102,1040061,,,2023-10-19,清算の結了等,,,2020-12-16,1,,,,,エーエムピーアースファンドワン,0
2040,8010802013918,登記記録の閉鎖等,0,2023-11-02,2023-10-31,有限会社三浦歯科技工研究所,,有限会社,東京都,大田区,南馬込４丁目１４番１３号,,13,111,1430025,,,2023-10-31,清算の結了等,,,2015-10-05,1,,,,,ミウラシカギコウケンキュウジョ,0
2041,8010803002390,登記記録の閉鎖等,0,2023-11-02,2023-10-30,スマイル合同会社,,合同会社,東京都,大田区,西糀谷３丁目２２番８号,,13,111,1440034,,,2023-10-30,清算の結了等,,,2017-05-23,1,,,,,スマイル,0
2046,8010902000898,登記記録の閉鎖等,0,2023-11-02,2023-10-26,有限会社あほうせん,,有限会社,東京都,世田谷区,松原６丁目２３番１２号,,13,112,1560043,,,2023-10-26,清算の結了等,,,2015-10-05,1,,,,,,0
2051,8011003011182,登記記録の閉鎖等,0,2023-11-02,2023-10-27,合同会社メディカルプラス,,合同会社,東京都,目黒区,緑が丘２丁目２４－１６－２０１,,13,110,1520034,,,2023-10-27,清算の結了等,,,2020-05-22,1,,,,,メディカルプラス,0
2055,8011101038929,登記記録の閉鎖等,0,2023-11-02,2023-10-30,株式会社オードリー・ザ・デザイン,,株式会社,東京都,新宿区,上落合１丁目２２番２０号,,13,104,1610034,,,2023-10-30,清算の結了等,,,2015-10-05,1,,,,,オードリーザデザイン,0
2056,8011101056170,登記記録の閉鎖等,0,2023-11-02,2023-10-31,株式会社アートウェイ,,株式会社,東京都,新宿区,西新宿６丁目２０番７号,,13,104,1600023,,,2023-10-31,清算の結了等,,,2015-10-05,1,,,,,アートウェイ,0
2064,8011201019317,登記記録の閉鎖等,0,2023-11-02,2023-10-13,株式会社ＢＡＳＱＵＩＡＴ,,株式会社,東京都,文京区,水道２丁目１２－１３戸根木ビル４０１号,,13,105,1120005,,,2023-10-13,清算の結了等,,,2016-08-19,1,,,,,バスキア,0
2080,8020001067640,登記記録の閉鎖等,0,2023-11-02,2023-10-24,川崎江洋電気株式会社,,株式会社,神奈川県,川崎市宮前区,平５丁目３番１８号,,14,136,2160022,,,2023-10-24,清算の結了等,,,2015-10-05,1,,,,,カワサキコウヨウデンキ,0
2085,8020002062558,登記記録の閉鎖等,0,2023-11-02,2023-10-23,有限会社進幸,,有限会社,神奈川県,横浜市中区,若葉町３丁目４３番地の１セザール第１伊勢佐木町７１３号室,,14,104,2310056,,,2023-10-23,清算の結了等,,,2015-10-05,1,,,,,シンコウ,0
2108,8030001136741,登記記録の閉鎖等,0,2023-11-02,2023-10-16,株式会社Ｍ．Ｄ．Ｇ,,株式会社,埼玉県,さいたま市中央区,上峰３丁目６番１３号,,11,105,3380014,,,2023-10-16,清算の結了等,,,2020-06-04,1,,,,,エムディージー,0
2116,8040001039976,登記記録の閉鎖等,0,2023-11-02,2023-10-25,株式会社バリュー・エステート,,株式会社,神奈川県,横浜市西区,高島２丁目１１番２号スカイメナー横浜７Ｆ,,14,103,2200011,,,2023-10-25,清算の結了等,,,2015-10-05,1,,,,,バリューエステート,0
2125,8040003004193,登記記録の閉鎖等,0,2023-11-02,2023-10-24,株式会社ＴＡＫＡＮＩＳＨＩ,,株式会社,千葉県,柏市,大井７６８番地４,,12,217,2770902,,,2023-10-24,清算の結了等,,,2015-10-05,1,,,,,タカニシ,0
2139,8070001015157,登記記録の閉鎖等,0,2023-11-02,2023-10-30,北関東運送株式会社,,株式会社,群馬県,伊勢崎市,馬見塚町２３３１番地１３,,10,204,3720842,,,2023-10-30,清算の結了等,,,2015-10-05,1,,,,,キタカントウウンソウ,0
2180,8140002053223,登記記録の閉鎖等,0,2023-11-02,2023-10-30,有限会社ふじ製作所,,有限会社,兵庫県,神崎郡福崎町,八千種６２６番地３,,28,443,6792202,,,2023-10-30,清算の結了等,,,2015-10-05,1,,,,,フジセイサクショ,0
2185,8160001006485,登記記録の閉鎖等,0,2023-11-02,2023-10-31,株式会社オンダ洋服店,,株式会社,滋賀県,長浜市,元浜町５番１６号,,25,203,5260059,,,2023-10-31,清算の結了等,,,2015-10-05,1,,,,,オンダヨウフクテン,0
2204,8180003022058,登記記録の閉鎖等,0,2023-11-02,2023-10-31,合同会社ラクティア,,合同会社,愛知県,長久手市,早稲田８５０番地,,23,238,4801328,,,2023-10-31,清算の結了等,,,2021-01-27,1,,,,,ラクティア,0
2207,8180301019516,登記記録の閉鎖等,0,2023-11-02,2023-10-25,株式会社山本工務店,,株式会社,愛知県,刈谷市,井ケ谷町庄司５０番地９,,23,210,4480001,,,2023-10-25,清算の結了等,,,2015-10-05,1,,,,,ヤマモトコウムテン,0
2215,8190002001895,登記記録の閉鎖等,0,2023-11-02,2023-10-31,有限会社スズカ化成,,有限会社,三重県,津市,森町２２１３番地２,,24,201,5141254,,,2023-10-31,清算の結了等,,,2015-10-05,1,,,,,スズカカセイ,0
2222,8230001004622,登記記録の閉鎖等,0,2023-11-02,2023-11-01,株式会社ＮＹグローカル,,株式会社,富山県,富山市,東中野町１丁目１番１号,,16,201,9398086,,,2023-11-01,清算の結了等,,,2015-10-05,1,,,,,エヌワイグローカル,0
2223,8230001008152,登記記録の閉鎖等,0,2023-11-02,2023-11-01,株式会社ライフメディック,,株式会社,富山県,滑川市,小林２５０番地１,,16,206,9360854,,,2023-11-01,清算の結了等,,,2015-10-05,1,,,,,ライフメディック,0
2229,8250002011161,登記記録の閉鎖等,0,2023-11-02,2023-10-31,有限会社三宅電装,,有限会社,山口県,下関市,一の宮住吉２丁目５番２９号,,35,201,7510805,,,2023-10-31,清算の結了等,,,2015-10-05,1,,,,,ミヤケデンソウ,0
2245,8340001012671,登記記録の閉鎖等,0,2023-11-02,2023-11-01,株式会社丸山建設産業,,株式会社,鹿児島県,南さつま市,金峰町宮崎８８２番地２,,46,220,8993511,,,2023-11-01,清算の結了等,,,2015-10-05,1,,,,,マルヤマケンセツサンギョウ,0
2251,8360001024459,登記記録の閉鎖等,0,2023-11-02,2023-10-31,大輝株式会社,,株式会社,沖縄県,豊見城市,字根差部７０３番地１Ｔｏｏｎ・Ｔｏｗｎ３－Ｅ,,47,212,9010205,,,2023-10-31,清算の結了等,,,2018-08-16,1,,,,,ダイキ,0
2259,8370802000566,登記記録の閉鎖等,0,2023-11-02,2023-10-30,有限会社藤島電気,,有限会社,宮城県,名取市,下増田字土手西１４番地,,04,207,9811201,,,2023-10-30,清算の結了等,,,2015-10-05,1,,,,,フジシマデンキ,0
2262,8380002010316,登記記録の閉鎖等,0,2023-11-02,2023-10-30,有限会社関口不動産,,有限会社,福島県,郡山市,安積町長久保３丁目１０番地９,,07,203,9630105,,,2023-10-30,清算の結了等,,,2015-10-05,1,,,,,セキグチフドウサン,0
2266,8430001076542,登記記録の閉鎖等,0,2023-11-02,2023-10-11,株式会社エーゼロ厚真,,株式会社,北海道,勇払郡厚真町,京町１番地１,,01,581,0591601,,,2023-10-11,合併による解散等,5260001028852,令和５年１０月１日岡山県英田郡西粟倉村大字長尾４６１番地１株式会社エーゼログループ（5260001028852）に合併し解散,2018-05-10,1,,,,,エーゼロアツマ,0
2272,8430005011025,登記記録の閉鎖等,0,2023-11-02,2023-10-25,税理士法人ＴＲＹ会計,,その他の設立登記法人,北海道,岩内郡共和町,梨野舞納１７番地１３,,01,401,0450031,,,2023-10-25,清算の結了等,,,2015-10-05,1,,,,,トライカイケイ,0
2275,8450002005688,登記記録の閉鎖等,0,2023-11-02,2023-10-31,有限会社ヤマダ薬房,,有限会社,北海道,旭川市,六条通１７丁目８１番地の３,,01,204,0700036,,,2023-10-31,清算の結了等,,,2015-10-05,1,,,,,ヤマダヤクボウ,0
2277,8470002015636,登記記録の閉鎖等,0,2023-11-02,2023-10-31,足から頭有限会社,,有限会社,香川県,丸亀市,塩屋町５丁目４番３号ダイアパレス丸亀４０９号,,37,202,7630065,,,2023-10-31,清算の結了等,,,2015-10-05,1,,,,,アシカラズ,0
2280,8480002015478,登記記録の閉鎖等,0,2023-11-02,2023-10-31,有限会社木下興業,,有限会社,徳島県,三好郡東みよし町,東山字内野２４９番地６,,36,489,7712503,,,2023-10-31,清算の結了等,,,2015-10-05,1,,,,,キノシタコウギョウ,0
2326,9011102019729,登記記録の閉鎖等,0,2023-11-02,2023-10-31,有限会社新幸ライフサービス,,有限会社,東京都,新宿区,新宿７丁目２２番１１号,,13,104,1600022,,,2023-10-31,清算の結了等,,,2015-10-05,1,,,,,シンコウライフサービス,0
2338,9011802003189,登記記録の閉鎖等,0,2023-11-02,2023-10-30,有限会社サンキ製作所,,有限会社,東京都,葛飾区,高砂１丁目１５番１５号,,13,122,1250054,,,2023-10-30,清算の結了等,,,2015-10-05,1,,,,,サンキセイサクショ,0
2340,9012401039112,登記記録の閉鎖等,0,2023-11-02,2023-10-31,株式会社ＡＭＲ,,株式会社,東京都,新宿区,西新宿３丁目３番１３号西新宿水間ビル６階,,13,104,1600023,,,2023-10-31,清算の結了等,,,2022-04-20,1,,,,,エーエムアール,0
2354,9021001065278,登記記録の閉鎖等,0,2023-11-02,2023-10-03,株式会社薬樹ＢＳ,,株式会社,神奈川県,大和市,西鶴間１丁目９番１８号,,14,213,2420005,,,2023-10-03,合併による解散等,8021001026041,令和５年１０月１日神奈川県大和市西鶴間一丁目９番１８号薬樹株式会社（8021001026041）に合併して解散,2018-07-26,1,,,,,ヤクジュビジネスアンドシステムズ,0
2371,9040001080962,登記記録の閉鎖等,0,2023-11-02,2023-10-24,株式会社エムズコーポレーション,,株式会社,千葉県,野田市,山崎梅の台１２番地の１,,12,208,2780024,,,2023-10-24,清算の結了等,,,2015-10-05,1,,,,,エムズコーポレーション,0
2428,9120002055385,登記記録の閉鎖等,0,2023-11-02,2023-10-31,有限会社菜の花,,有限会社,大阪府,大阪市生野区,勝山北２丁目１１番２２号,,27,116,5440033,,,2023-10-31,清算の結了等,,,2015-10-05,1,,,,,ナノハナ,0
2436,9120102015529,登記記録の閉鎖等,0,2023-11-02,2023-10-31,有限会社松本誠メディカル,,有限会社,大阪府,松原市,天美南４丁目１番１５号,,27,217,5800033,,,2023-10-31,清算の結了等,,,2015-10-05,1,,,,,マツモトマコトメディカル,0
2445,9130002026591,登記記録の閉鎖等,0,2023-11-02,2023-10-18,有限会社大容工務店,,有限会社,京都府,京都市右京区,西院松井町２番５,,26,108,6150013,,,2023-10-18,清算の結了等,,,2015-10-05,1,,,,,ダイヨウコウムテン,0
2446,9140001059138,登記記録の閉鎖等,0,2023-11-02,2023-10-23,株式会社サンホーム,,株式会社,兵庫県,姫路市,船丘町２９８番地日新ビル,,28,201,6700034,,,2023-10-23,清算の結了等,,,2015-10-05,1,,,,,サンホーム,0
2454,9150003002862,登記記録の閉鎖等,0,2023-11-02,2023-11-01,合同会社ミタス,,合同会社,奈良県,橿原市,小綱町１７番３８－３号,,29,205,6340811,,,2023-11-01,清算の結了等,,,2023-01-17,1,,,,,ミタス,0
2455,9160005008675,登記記録の閉鎖等,0,2023-11-02,2023-10-25,特定非営利活動法人ケアステーション一歩,,その他の設立登記法人,滋賀県,草津市,矢橋町１５５番地４,,25,206,5250066,,,2023-10-25,清算の結了等,,,2015-10-05,1,,,,,ケアステーションイッポ,0
2459,9170005003584,登記記録の閉鎖等,0,2023-11-02,2023-10-31,ブイショップチェーン協同組合,,その他の設立登記法人,和歌山県,田辺市,稲成町３１３番地の１,,30,206,6460051,,,2023-10-31,清算の結了等,,,2015-10-05,1,,,,,ブイショップチェーン,0
2466,9180002031125,登記記録の閉鎖等,0,2023-11-02,2023-10-31,有限会社システムファーム,,有限会社,愛知県,名古屋市中区,大須４丁目１３番４６号,,23,106,4600011,,,2023-10-31,清算の結了等,,,2015-10-05,1,,,,,システムファーム,0
2475,9180302018821,登記記録の閉鎖等,0,2023-11-02,2023-10-24,有限会社ひだ路,,有限会社,愛知県,刈谷市,小垣江町塩浜６番地５,,23,210,4480813,,,2023-10-24,清算の結了等,,,2015-10-05,1,,,,,ヒダジ,0
2476,9200001016999,登記記録の閉鎖等,0,2023-11-02,2023-10-31,株式会社Ｆ・三石,,株式会社,岐阜県,大垣市,福田町８０番地,,21,202,5030033,,,2023-10-31,清算の結了等,,,2015-10-05,1,,,,,エフミツイシ,0
2478,9200001031016,登記記録の閉鎖等,0,2023-11-02,2023-11-01,株式会社Ｂｏｉ　ｎｅｔｗｏｒｋ　ｃｏｒｐｏｒａｔｉｏｎ,,株式会社,岐阜県,羽島郡岐南町,薬師寺２丁目２０番地の３,,21,302,5016014,,,2023-11-01,清算の結了等,,,2015-10-05,1,,,,,ボイネットワークコーポレーション,0
2496,9250002011615,登記記録の閉鎖等,0,2023-11-02,2023-10-31,有限会社有村呉服店,,有限会社,山口県,下関市,豊浦町大字宇賀８４６７番地,,35,201,7596303,,,2023-10-31,清算の結了等,,,2015-10-05,1,,,,,アリムラゴフクテン,0
2504,9290002007122,登記記録の閉鎖等,0,2023-11-02,2023-10-23,有限会社万祥,,有限会社,福岡県,福岡市城南区,別府１丁目６番１３号,,40,136,8140104,,,2023-10-23,清算の結了等,,,2015-10-05,1,,,,,バンショウ,0
2507,9290002020273,登記記録の閉鎖等,0,2023-11-02,2023-10-17,有限会社ビッグ・スウ,,有限会社,福岡県,福岡市東区,西戸崎５丁目１７番３５号,,40,131,8110321,,,2023-10-17,清算の結了等,,,2015-10-05,1,,,,,,0
2522,9310002006162,登記記録の閉鎖等,0,2023-11-02,2023-10-31,有限会社ロブショップ,,有限会社,長崎県,長崎市,栄町６番１６号,,42,201,8500875,,,2023-10-31,清算の結了等,,,2015-10-05,1,,,,,,0
2550,9410005000887,登記記録の閉鎖等,0,2023-11-02,2023-09-28,天理教利秋分教会,,その他の設立登記法人,秋田県,秋田市,浜田字滝ノ下４７番１,,05,201,0101654,,,2023-09-28,合併による解散等,5410005001914,令和５年９月２８日秋田県由利本荘市小人町１５９番地天理教由利分教会（5410005001914）に合併し解散,2015-10-05,1,,,,,,0
2553,9430001069850,登記記録の閉鎖等,0,2023-11-02,2023-10-12,株式会社アパマンショップリーシング北海道,,株式会社,北海道,札幌市北区,北七条西５丁目５番地３札幌千代田ビル,,01,102,0600807,,,2023-10-12,合併による解散等,7010001095222,令和５年９月３０日東京都千代田区丸の内一丁目８番１号丸の内トラストタワーＮ館Ａｐａｍａｎ　Ｐｒｏｐｅｒｔｙ株式会社（7010001095222）に合併し解散,2015-10-05,1,,,,,アパマンショップリーシングホッカイドウ,0
2555,9430002065329,登記記録の閉鎖等,0,2023-11-02,2023-10-31,有限会社栄軒林製パン,,有限会社,北海道,登別市,中央町１丁目１１番地１６,,01,230,0590012,,,2023-10-31,清算の結了等,,,2015-10-05,1,,,,,サカエケンハヤシセイパン,0
2563,9470002016261,登記記録の閉鎖等,0,2023-11-02,2023-10-02,有限会社ヤマニ薬局,,有限会社,香川県,観音寺市,昭和町１丁目６番４１号,,37,205,7680066,,,2023-10-02,合併による解散等,5470002017404,令和５年１０月１日香川県観音寺市豊浜町姫浜８７０番地１株式会社アイショウ（5470002017404）に合併し解散,2015-10-05,1,,,,,ヤマニヤッキョク,0
2565,9480005002357,登記記録の閉鎖等,0,2023-11-02,2023-10-02,医療法人成悠会,,その他の設立登記法人,徳島県,小松島市,中田町字狭間４７番地,,36,203,7730015,,,2023-10-02,合併による解散等,3480005000135,令和５年１０月２日徳島市名東町一丁目９１番地医療法人栄寿会（3480005000135）に合併し解散,2015-10-05,1,,,,,セイユウカイ,0
