sequenceNumber,corporateNumber,process,correct,updateDate,changeDate,name,nameImageId,kind,prefectureName,cityName,streetNumber,addressImageId,prefectureCode,cityCode,postCode,addressOutside,addressOutsideImageId,closeDate,closeCause,successorCorporateNumber,changeCause,assignmentDate,latest,enName,enPrefectureName,enCityName,enAddressOutside,furigana,hihyoji
28,1010701042710,登記記録の閉鎖等,0,2025-08-27,2025-08-18,株式会社Ｔｏｍｏａｓｕ,,株式会社,東京都,品川区,西五反田４丁目３１番１８号,,13,109,1410031,,,2025-08-18,清算の結了等,,,2022-05-27,1,,,,,トモアス,0
48,1011002009911,登記記録の閉鎖等,0,2025-08-27,2025-07-25,有限会社セマン,,有限会社,東京都,渋谷区,代々木４丁目２２番２号,,13,113,1510053,,,2025-07-25,清算の結了等,,,2015-10-05,1,,,,,,0
50,1011101047275,登記記録の閉鎖等,0,2025-08-27,2025-07-07,株式会社アカウンティング・アカデミー,,株式会社,東京都,文京区,関口１丁目２４番８号,,13,105,1120014,,,2025-07-07,合併による解散等,6011101037585,令和７年７月１日東京都文京区関口一丁目２４番８号株式会社会計工房（6011101037585）に合併し解散,2015-10-05,1,,,,,アカウンティングアカデミー,0
60,1011202004258,登記記録の閉鎖等,0,2025-08-27,2025-08-07,有限会社俊美商亊,,有限会社,神奈川県,横浜市栄区,本郷台２丁目１３番６号,,14,115,2470008,,,2025-08-07,清算の結了等,,,2015-10-05,1,,,,,トシミショウジ,0
73,1011601006136,登記記録の閉鎖等,0,2025-08-27,2025-07-22,株式会社ＫＴＧ　ｃｒｅａｔｉｏｎ,,株式会社,東京都,新宿区,西早稲田１丁目２２－２東ウイング３０７,,13,104,1690051,,,2025-07-22,清算の結了等,,,2015-10-05,1,,,,,ケイティージークリエイション,0
94,1030001060865,登記記録の閉鎖等,0,2025-08-27,2025-08-22,株式会社平成ＰＣ,00115559,株式会社,埼玉県,本庄市,いまい台２丁目４７番地,,11,211,3670038,,,2025-08-22,清算の結了等,,,2015-10-05,1,,,,,ヘイセイピーシー,0
98,1030001153545,登記記録の閉鎖等,0,2025-08-27,2025-08-21,株式会社美雅,,株式会社,埼玉県,八潮市,大字西袋１２３８,,11,234,3400833,,,2025-08-21,清算の結了等,,,2023-04-21,1,,,,,ミヤビ,0
117,1070001015650,登記記録の閉鎖等,0,2025-08-27,2025-08-25,株式会社エクセル・ロジスティクス,,株式会社,群馬県,桐生市,新里町板橋字下田３２８番地８,,10,203,3760136,,,2025-08-25,合併による解散等,4040001034948,令和７年８月１日東京都中央区京橋二丁目１０番２号エクセル株式会社（4040001034948）に合併し解散,2015-10-05,1,,,,,エクセルロジスティクス,0
121,1070003001161,登記記録の閉鎖等,0,2025-08-27,2025-08-21,塚本染色合名会社,00025974,合名会社,群馬県,桐生市,堤町１丁目７番９号,,10,203,3760042,,,2025-08-21,清算の結了等,,,2015-10-05,1,,,,,ツカモトセンショク,0
127,1100001029639,登記記録の閉鎖等,0,2025-08-27,2025-08-14,株式会社ｔｅｒａｓｈｉｍａ,,株式会社,沖縄県,南城市,玉城字親慶原４７１番地２,,47,215,9010608,,,2025-08-14,清算の結了等,,,2016-09-26,1,,,,,テラシマ,0
129,1110001036881,登記記録の閉鎖等,0,2025-08-27,2025-08-08,森林資源開発株式会社,,株式会社,新潟県,十日町市,干溝ニ４１９番地１,,15,210,9498408,,,2025-08-08,清算の結了等,,,2022-08-10,1,,,,,シンリンシゲンカイハツ,0
155,1120901029851,登記記録の閉鎖等,0,2025-08-27,2025-08-04,株式会社ヴェルテックス,,株式会社,大阪府,豊中市,庄内西町２丁目１番２７号,,27,203,5610832,,,2025-08-04,清算の結了等,,,2015-10-05,1,,,,,ヴェルテックス,0
160,1120901051161,登記記録の閉鎖等,0,2025-08-27,2025-08-04,株式会社アイ・シー・エー,,株式会社,大阪府,吹田市,南金田１丁目１番４５号,,27,205,5640044,,,2025-08-04,清算の結了等,,,2025-07-09,1,,,,,,0
173,1140001079770,登記記録の閉鎖等,0,2025-08-27,2025-08-25,伊原産業株式会社,,株式会社,兵庫県,川辺郡猪名川町,広根字野尻２４番地の３,,28,301,6660252,,,2025-08-25,清算の結了等,,,2015-10-05,1,,,,,イハラサンギョウ,0
174,1140001094183,登記記録の閉鎖等,0,2025-08-27,2025-08-25,株式会社関西ルクス,,株式会社,兵庫県,姫路市,辻井７丁目９番６号,00040279,28,201,6700083,,,2025-08-25,清算の結了等,,,2015-10-05,1,,,,,カンサイルクス,0
182,1160001020328,登記記録の閉鎖等,0,2025-08-27,2025-08-22,大佳株式会社,,株式会社,滋賀県,東近江市,五個荘北町屋町１２４番地６,,25,213,5291443,,,2025-08-22,清算の結了等,,,2017-07-11,1,,,,,,0
185,1180001057871,登記記録の閉鎖等,0,2025-08-27,2025-07-31,株式会社宮前,,株式会社,愛知県,名古屋市守山区,小幡中１丁目１３番２号,,23,113,4630013,,,2025-07-31,清算の結了等,,,2015-10-05,1,,,,,ミヤマエ,0
186,1180001073209,登記記録の閉鎖等,0,2025-08-27,2025-08-01,株式会社アミカ,,株式会社,愛知県,名古屋市南区,西田町１丁目２２番地,,23,112,4570073,,,2025-08-01,清算の結了等,,,2015-10-05,1,,,,,アミカ,0
192,1180002018641,登記記録の閉鎖等,0,2025-08-27,2025-08-01,有限会社中部油機,,有限会社,愛知県,名古屋市港区,宝神２丁目５１０番地,,23,111,4550832,,,2025-08-01,清算の結了等,,,2015-10-05,1,,,,,チュウブユキ,0
195,1180003027393,登記記録の閉鎖等,0,2025-08-27,2025-07-28,Ｃｏ‐Ｄｏｎｅ合同会社,,合同会社,愛知県,名古屋市北区,楠４丁目４２０番地の４,,23,103,4620012,,,2025-07-28,清算の結了等,,,2024-10-03,1,,,,,コドン,0
204,1230001014561,登記記録の閉鎖等,0,2025-08-27,2025-08-21,九頭龍フーズ株式会社,,株式会社,富山県,富山市,緑町２丁目３番５号,,16,201,9300038,,,2025-08-21,合併による解散等,1230001017589,令和７年８月２１日富山市緑町二丁目３番５号コンパル株式会社（1230001017589）に合併し解散,2015-10-05,1,,,,,,0
212,1240002044920,登記記録の閉鎖等,0,2025-08-27,2025-08-25,有限会社八家,,有限会社,広島県,福山市,本町４番５号２階,,34,207,7200056,,,2025-08-25,清算の結了等,,,2015-10-05,1,,,,,ハチヤ,0
229,1310002012746,登記記録の閉鎖等,0,2025-08-27,2025-08-21,有限会社エフピーイーハウス,,有限会社,長崎県,佐世保市,八幡町２番１４号,,42,202,8570028,,,2025-08-21,清算の結了等,,,2015-10-05,1,,,,,エフピーイーハウス,0
234,1330003004443,登記記録の閉鎖等,0,2025-08-27,2025-08-12,合資会社ツルヤ,,合資会社,熊本県,人吉市,駒井田町１０５６番地,,43,203,8680006,,,2025-08-12,清算の結了等,,,2015-10-05,1,,,,,ツルヤ,0
272,2010403032851,登記記録の閉鎖等,0,2025-08-27,2025-07-29,ＡＰＦ合同会社,,合同会社,東京都,港区,虎ノ門２丁目９番１号虎ノ門ヒルズ江戸見坂テラス１１階,,13,103,1050001,,,2025-07-29,清算の結了等,,,2024-06-19,1,,,,,エーピーエフ,0
274,2010701010179,登記記録の閉鎖等,0,2025-08-27,2025-08-18,株式会社吉田商事,,株式会社,東京都,品川区,西大井３丁目１４－１８,,13,109,1400015,,,2025-08-18,清算の結了等,,,2015-10-05,1,,,,,ヨシダショウジ,0
275,2010701038798,登記記録の閉鎖等,0,2025-08-27,2025-08-19,株式会社Ｂｌｏｃｋ　Ａｉｄ,,株式会社,東京都,品川区,西五反田２丁目９－７ドルミ五反田４０７号,,13,109,1410031,,,2025-08-19,清算の結了等,,,2020-01-31,1,,,,,ブロックエイド,0
280,2011001152975,登記記録の閉鎖等,0,2025-08-27,2025-07-25,株式会社キャンバス,,株式会社,東京都,渋谷区,千駄ヶ谷５丁目２０番１０号Ｃ棟２階,,13,113,1510051,,,2025-07-25,清算の結了等,,,2023-03-07,1,,,,,キャンバス,0
285,2011101055194,登記記録の閉鎖等,0,2025-08-27,2025-08-25,グッド・ハウス株式会社,,株式会社,東京都,福生市,牛浜１５１番地,,13,218,1970024,,,2025-08-25,清算の結了等,,,2015-10-05,1,,,,,グッドハウス,0
295,2011401015369,登記記録の閉鎖等,0,2025-08-27,2025-08-21,株式会社スイートライフ,,株式会社,埼玉県,川口市,大字東内野５３１番地の１フラワーハイムＩＩＩ２０８号,00121860,11,203,3330821,,,2025-08-21,清算の結了等,,,2015-10-05,1,,,,,スイートライフ,0
302,2012701008649,登記記録の閉鎖等,0,2025-08-27,2025-08-19,株式会社デジフレーム,,株式会社,東京都,西東京市,田無町４丁目９番３号ブライト田無１０３,,13,229,1880011,,,2025-08-19,清算の結了等,,,2015-10-05,1,,,,,デジフレーム,0
304,2013201014261,登記記録の閉鎖等,0,2025-08-27,2025-08-04,株式会社スープレックス,,株式会社,京都府,京都市北区,等持院西町５３番地１０,,26,101,6038354,,,2025-08-04,清算の結了等,,,2015-10-05,1,,,,,スープレックス,0
306,2013402003204,登記記録の閉鎖等,0,2025-08-27,2025-08-26,有限会社アルス綜合工房,,有限会社,東京都,府中市,矢崎町４丁目７番地の１－１０３,,13,206,1830025,,,2025-08-26,清算の結了等,,,2015-10-05,1,,,,,アルスソウゴウコウボウ,0
307,2020001044595,登記記録の閉鎖等,0,2025-08-27,2025-08-07,株式会社サンテイ,,株式会社,神奈川県,横浜市保土ケ谷区,権太坂３丁目２０番４３－４０３号,,14,106,2400026,,,2025-08-07,清算の結了等,,,2015-10-05,1,,,,,サンテイ,0
308,2020001088394,登記記録の閉鎖等,0,2025-08-27,2025-07-25,株式会社フランジェ,,株式会社,東京都,渋谷区,代々木４丁目２２番２－６０３号,,13,113,1510053,,,2025-07-25,清算の結了等,,,2015-10-05,1,,,,,フランジェ,0
319,2021001080218,登記記録の閉鎖等,0,2025-08-27,2025-08-18,株式会社デジタル旅館計画,,株式会社,神奈川県,秦野市,下大槻７２８番地の６コーポ関口２０１号,,14,211,2570004,,,2025-08-18,清算の結了等,,,2023-09-20,1,,,,,デジタルリョカンケイカク,0
341,2040002096972,登記記録の閉鎖等,0,2025-08-27,2025-08-01,有限会社小沼工務店,,有限会社,千葉県,野田市,春日町１番地３,,12,208,2780052,,,2025-08-01,清算の結了等,,,2024-08-16,1,,,,,コヌマコウムテン,0
348,2060002022522,登記記録の閉鎖等,0,2025-08-27,2025-08-20,有限会社那須化成,,有限会社,栃木県,那須塩原市,鍋掛字鍋掛原１０８５番７９６,,09,213,3250013,,,2025-08-20,清算の結了等,,,2015-10-05,1,,,,,,0
351,2070002005435,登記記録の閉鎖等,0,2025-08-27,2025-08-21,有限会社諸岡総合建築,,有限会社,群馬県,前橋市,滝窪町１３３３番地１,,10,201,3710235,,,2025-08-21,清算の結了等,,,2015-10-05,1,,,,,モロオカソウゴウケンチク,0
354,2080002014286,登記記録の閉鎖等,0,2025-08-27,2025-08-22,有限会社中原建材店,,有限会社,静岡県,榛原郡川根本町,上長尾７６７番地の１,,22,429,4280313,,,2025-08-22,清算の結了等,,,2015-10-05,1,,,,,ナカハラケンザイテン,0
362,2120001256032,登記記録の閉鎖等,0,2025-08-27,2025-08-06,ＳｕＪＰ株式会社,,株式会社,大阪府,大阪市旭区,今市１丁目２－５カルム千林４０２号室,,27,117,5350011,,,2025-08-06,清算の結了等,,,2023-07-11,1,,,,,エスユージェーピー,0
382,2120902002162,登記記録の閉鎖等,0,2025-08-27,2025-08-05,有限会社忠重工務店,,有限会社,大阪府,茨木市,南春日丘３丁目２番３号,,27,211,5670046,,,2025-08-05,清算の結了等,,,2015-10-05,1,,,,,タダシゲコウムテン,0
391,2140002044970,登記記録の閉鎖等,0,2025-08-27,2025-08-25,有限会社リフォルム・デザイン,,有限会社,兵庫県,尼崎市,富松町３丁目４番４３－４０３号,,28,202,6610003,,,2025-08-25,清算の結了等,,,2015-10-05,1,,,,,リフォルムデザイン,0
394,2160001011144,登記記録の閉鎖等,0,2025-08-27,2025-08-04,株式会社井上製作所,,株式会社,滋賀県,近江八幡市,安土町西老蘇１６８４番地,,25,204,5211334,,,2025-08-04,清算の結了等,,,2015-10-05,1,,,,,イノウエセイサクショ,0
407,2180302019388,登記記録の閉鎖等,0,2025-08-27,2025-08-19,有限会社サカエ商会,,有限会社,愛知県,知立市,八ツ田町２丁目２番地５,,23,225,4720012,,,2025-08-19,清算の結了等,,,2015-10-05,1,,,,,サカエショウカイ,0
413,2220002015187,登記記録の閉鎖等,0,2025-08-27,2025-08-25,有限会社中村精機,,有限会社,石川県,羽咋市,兵庫町リ２０番地３,,17,207,9250046,,,2025-08-25,清算の結了等,,,2015-10-05,1,,,,,ナカムラセイキ,0
414,2230001013216,登記記録の閉鎖等,0,2025-08-27,2025-08-25,株式会社一郎屋,,株式会社,富山県,射水市,二口８２９番地３,,16,211,9390234,,,2025-08-25,清算の結了等,,,2015-10-05,1,,,,,イチロウヤ,0
417,2240002006804,登記記録の閉鎖等,0,2025-08-27,2025-08-21,有限会社桜石土地建物,,有限会社,広島県,広島市佐伯区,五月が丘４丁目８番２６号,,34,108,7315101,,,2025-08-21,清算の結了等,,,2015-10-05,1,,,,,,0
431,2290005017315,登記記録の閉鎖等,0,2025-08-27,2025-08-05,一般社団法人感性ひらく空間,,その他の設立登記法人,福岡県,福岡市中央区,天神２丁目３－１０天神パインクレスト７１６,,40,133,8100001,,,2025-08-05,清算の結了等,,,2019-05-17,1,,,,,カンセイヒラククウカン,0
435,2290802023589,登記記録の閉鎖等,0,2025-08-27,2025-08-19,有限会社フィールド企画,,有限会社,福岡県,行橋市,大字下稗田１３４６番地１４２,,40,213,8240054,,,2025-08-19,清算の結了等,,,2015-10-05,1,,,,,フィールドキカク,0
436,2310002007530,登記記録の閉鎖等,0,2025-08-27,2025-08-25,有限会社アド．ストライク,,有限会社,長崎県,長崎市,新戸町２丁目１０番５号,,42,201,8500954,,,2025-08-25,清算の結了等,,,2015-10-05,1,,,,,アドストライク,0
437,2320005002536,登記記録の閉鎖等,0,2025-08-27,2025-08-20,特定非営利活動法人あしがる,,その他の設立登記法人,大分県,大分市,大津町１丁目２１番２０号,,44,201,8700907,,,2025-08-20,清算の結了等,,,2015-10-05,1,,,,,アシガル,0
440,2330002006737,登記記録の閉鎖等,0,2025-08-27,2025-08-13,有限会社玉木不動産,,有限会社,熊本県,熊本市東区,保田窪５丁目１０番３８号,,43,102,8620926,,,2025-08-13,清算の結了等,,,2015-10-05,1,,,,,タマキフドウサン,0
441,2330005002064,登記記録の閉鎖等,0,2025-08-27,2025-08-13,マックグループ保険協同組合,,その他の設立登記法人,熊本県,熊本市中央区,九品寺５丁目１１番１号,,43,101,8620976,,,2025-08-13,清算の結了等,,,2015-10-05,1,,,,,マックグループホケン,0
451,2360002016626,登記記録の閉鎖等,0,2025-08-27,2025-08-19,有限会社ニュースブリッジ,,有限会社,沖縄県,中頭郡西原町,字桃原７３番地（２階）,,47,329,9030114,,,2025-08-19,清算の結了等,,,2015-10-05,1,,,,,,0
471,2430001069659,登記記録の閉鎖等,0,2025-08-27,2025-08-05,シン・システム株式会社,,株式会社,北海道,札幌市北区,新琴似一条４丁目１番１１号,,01,102,0010901,,,2025-08-05,清算の結了等,,,2015-10-05,1,,,,,,0
479,2460305001026,登記記録の閉鎖等,0,2025-08-27,2025-08-22,佐呂間町商店街振興協同組合,,その他の設立登記法人,北海道,常呂郡佐呂間町,字永代町３番地,,01,552,0930502,,,2025-08-22,清算の結了等,,,2015-10-05,1,,,,,サロマチョウショウテンガイシンコウ,0
482,2480001003497,登記記録の閉鎖等,0,2025-08-27,2025-08-25,まるや石油株式会社,,株式会社,徳島県,小松島市,小松島町字房浜１０５番地の１,,36,203,7730001,,,2025-08-25,清算の結了等,,,2015-10-05,1,,,,,マルヤセキユ,0
489,3010001020043,登記記録の閉鎖等,0,2025-08-27,2025-08-01,株式会社シロノ,,株式会社,東京都,中央区,築地３丁目１番４号,,13,102,1040045,,,2025-08-01,清算の結了等,,,2015-10-05,1,,,,,シロノ,0
493,3010003034702,登記記録の閉鎖等,0,2025-08-27,2025-07-31,ＧＯ－ＹＥＮ　ＵＭＥ合同会社,,合同会社,東京都,中央区,銀座１丁目６番１１号土志田ビルディング３Ｆ,,13,102,1040061,,,2025-07-31,清算の結了等,,,2021-04-20,1,,,,,ゴーエンウメ,0
510,3010801019251,登記記録の閉鎖等,0,2025-08-27,2025-08-01,株式会社オフィス・カノウ,,株式会社,千葉県,柏市,高田１０７８番地２ウィズ柏の葉１１０７号,,12,217,2770861,,,2025-08-01,清算の結了等,,,2015-10-05,1,,,,,オフィスカノウ,0
514,3010901047053,登記記録の閉鎖等,0,2025-08-27,2025-08-25,株式会社ＮＥＸＴ　ＮＯＤＥ,,株式会社,東京都,世田谷区,太子堂４丁目２３番１５号Ｔ－ハウス三軒茶屋６０１,,13,112,1540004,,,2025-08-25,清算の結了等,,,2020-09-18,1,,,,,ネクストノード,0
518,3011001160721,登記記録の閉鎖等,0,2025-08-27,2025-07-25,株式会社アクシデンシャル,,株式会社,東京都,渋谷区,神泉町１０－１５アネックス神泉１１０２,,13,113,1500045,,,2025-07-25,清算の結了等,,,2024-03-21,1,,,,,アクシデンシャル,0
520,3011001164268,登記記録の閉鎖等,0,2025-08-27,2025-08-22,株式会社ＮＪＫ,,株式会社,東京都,渋谷区,恵比寿西１丁目２０番５号恵比寿ＳＡビル８階,,13,113,1500021,,,2025-08-22,合併による解散等,4020001156810,令和７年８月１日横浜市中区相生町二丁目５０番地大和地所相生町ビル４０１株式会社ジェーシーインターナショナルワークス（4020001156810）に合併し解散,2024-08-26,1,,,,,エヌジェーケー,0
529,3011103008645,登記記録の閉鎖等,0,2025-08-27,2025-07-28,合同会社Ｓ企画,,合同会社,東京都,渋谷区,宇田川町１２番３号,,13,113,1500042,,,2025-07-28,清算の結了等,,,2019-03-06,1,,,,,エスキカク,0
559,3020005008967,登記記録の閉鎖等,0,2025-08-27,2025-08-06,特定非営利活動法人ぐるーぷ麦,,その他の設立登記法人,神奈川県,川崎市高津区,二子２丁目１７番２号,,14,134,2130002,,,2025-08-06,清算の結了等,,,2015-10-05,1,,,,,グループムギ,0
566,3021005002902,登記記録の閉鎖等,0,2025-08-27,2025-08-19,医療法人こどもの城,,その他の設立登記法人,神奈川県,相模原市中央区,鹿沼台１丁目７番７号,,14,152,2520233,,,2025-08-19,清算の結了等,,,2015-10-05,1,,,,,コドモノシロ,0
570,3030001139352,登記記録の閉鎖等,0,2025-08-27,2025-08-21,株式会社Ｔｒｉｄｅａ,,株式会社,埼玉県,吉川市,美南４丁目１９番地１９,,11,243,3420038,,,2025-08-21,清算の結了等,,,2020-11-20,1,,,,,トライデア,0
572,3030002086404,登記記録の閉鎖等,0,2025-08-27,2025-08-26,有限会社新清電機,,有限会社,東京都,足立区,東保木間２丁目８番１７号,,13,121,1210063,,,2025-08-26,清算の結了等,,,2015-10-05,1,,,,,シンセデンキ,0
586,3070001015649,登記記録の閉鎖等,0,2025-08-27,2025-08-25,株式会社エクセル製作所,,株式会社,群馬県,桐生市,新里町板橋字下田３２８番地３０,,10,203,3760136,,,2025-08-25,合併による解散等,4040001034948,令和７年８月１日東京都中央区京橋二丁目１０番２号エクセル株式会社（4040001034948）に合併し解散,2015-10-05,1,,,,,エクセルセイサクショ,0
588,3070002011746,登記記録の閉鎖等,0,2025-08-27,2025-08-21,有限会社ファインウェザー,,有限会社,群馬県,高崎市,下中居町１０３番地１,,10,202,3700853,,,2025-08-21,清算の結了等,,,2015-10-05,1,,,,,ファインウェザー,0
589,3070002019913,登記記録の閉鎖等,0,2025-08-27,2025-08-15,有限会社森本商店,,有限会社,群馬県,伊勢崎市,連取元町１３３番地４,,10,204,3720818,,,2025-08-15,清算の結了等,,,2015-10-05,1,,,,,モリモトショウテン,0
594,3090001000979,登記記録の閉鎖等,0,2025-08-27,2025-08-22,三和商事株式会社,,株式会社,山梨県,甲府市,中央５丁目１番２８号,,19,201,4000032,,,2025-08-22,清算の結了等,,,2015-10-05,1,,,,,,0
597,3110001010091,登記記録の閉鎖等,0,2025-08-27,2025-08-08,株式会社保険プロジェクト,,株式会社,新潟県,新潟市西区,西有明町１３番１１号ネオハイツ有明３０７号,,15,107,9502071,,,2025-08-08,清算の結了等,,,2015-10-05,1,,,,,ホケンプロジェクト,0
598,3110002033397,登記記録の閉鎖等,0,2025-08-27,2025-08-08,有限会社大和部品,,有限会社,新潟県,南魚沼市,浦佐８１１番地,,15,226,9497302,,,2025-08-08,清算の結了等,,,2015-10-05,1,,,,,ヤマトブヒン,0
628,3120902018315,登記記録の閉鎖等,0,2025-08-27,2025-08-05,有限会社浩善,,有限会社,大阪府,豊中市,蛍池南町二丁目１１番２３号,,27,203,5600000,,,2025-08-05,清算の結了等,,,2015-10-05,1,,,,,ヒロゼン,0
642,3140001112637,登記記録の閉鎖等,0,2025-08-27,2025-08-25,株式会社ノトス,,株式会社,兵庫県,伊丹市,荻野２丁目３０御園第５マンション１０１号,,28,207,6640002,,,2025-08-25,清算の結了等,,,2019-02-06,1,,,,,ノトス,0
655,3180002077165,登記記録の閉鎖等,0,2025-08-27,2025-08-01,有限会社ニュースショップ青山,,有限会社,愛知県,一宮市,千秋町加納馬場字井ノ上西１９番地,,23,203,4910811,,,2025-08-01,清算の結了等,,,2015-10-05,1,,,,,ニュースショップアオヤマ,0
658,3180002088138,登記記録の閉鎖等,0,2025-08-27,2025-08-01,有限会社愛光産業,,有限会社,愛知県,知多市,八幡字荒古後６７番地,,23,224,4780001,,,2025-08-01,清算の結了等,,,2015-10-05,1,,,,,アイコウサンギョウ,0
659,3180003009167,登記記録の閉鎖等,0,2025-08-27,2025-08-01,合同会社マルサン,,合同会社,愛知県,名古屋市北区,山田４丁目１３番２９号,,23,103,4620810,,,2025-08-01,清算の結了等,,,2015-10-05,1,,,,,マルサン,0
662,3180302024809,登記記録の閉鎖等,0,2025-08-27,2025-08-08,有限会社クラフト,,有限会社,愛知県,豊田市,上原町上原１番地１０,,23,211,4700341,,,2025-08-08,清算の結了等,,,2015-10-05,1,,,,,クラフト,0
675,3260001021628,登記記録の閉鎖等,0,2025-08-27,2025-08-08,東備汽船株式会社,,株式会社,岡山県,備前市,日生町寒河２３５０番地の５,,33,211,7013202,,,2025-08-08,清算の結了等,,,2015-10-05,1,,,,,トウビキセン,0
680,3260002000424,登記記録の閉鎖等,0,2025-08-27,2025-08-07,有限会社アドバンス岡山,,有限会社,岡山県,岡山市南区,福富東２丁目２番９号,,33,104,7028033,,,2025-08-07,清算の結了等,,,2015-10-05,1,,,,,アドバンスオカヤマ,0
701,3360005001946,登記記録の閉鎖等,0,2025-08-27,2025-08-18,一般財団法人地球共生ゆいまーる,,その他の設立登記法人,沖縄県,沖縄市,上地１丁目１０番１９号コンフォートＫ４０１号,,47,211,9040031,,,2025-08-18,清算の結了等,,,2015-10-05,1,,,,,チキュウキョウセイユイマール,0
702,3360005004206,登記記録の閉鎖等,0,2025-08-27,2025-08-25,一般社団法人沖縄・ビジネスインキュベーション・プラザ,,その他の設立登記法人,沖縄県,那覇市,松山１丁目３番１８号,,47,201,9000032,,,2025-08-25,清算の結了等,,,2015-10-05,1,,,,,オキナワビジネスインキュベーションプラザ,0
705,3380001033520,登記記録の閉鎖等,0,2025-08-27,2025-08-21,株式会社ＥＫテック,,株式会社,福島県,郡山市,富田西３丁目１番地,,07,203,9638048,,,2025-08-21,清算の結了等,,,2023-03-06,1,,,,,イーケーテック,0
713,3430002045897,登記記録の閉鎖等,0,2025-08-27,2025-08-06,有限会社中川電気設備,,有限会社,北海道,江別市,緑町東４丁目２番地の８,,01,217,0670003,,,2025-08-06,清算の結了等,,,2015-10-05,1,,,,,ナカガワデンキセツビ,0
714,3430003002781,登記記録の閉鎖等,0,2025-08-27,2025-08-05,合資会社交映,,合資会社,北海道,小樽市,稲穂２丁目１７番１号,,01,203,0470032,,,2025-08-05,清算の結了等,,,2015-10-05,1,,,,,コウエイ,0
716,3450005004428,登記記録の閉鎖等,0,2025-08-27,2025-08-15,下勇知農事實行組合,,その他の設立登記法人,北海道,稚内市,大字抜海村字下勇知,,01,214,0984581,,,2025-08-15,清算の結了等,,,2024-10-16,1,,,,,シモユウチ,0
717,3460102000122,登記記録の閉鎖等,0,2025-08-27,2025-08-22,有限会社浅原栄陽堂,,有限会社,北海道,帯広市,東一条南９丁目３番地,,01,207,0800801,,,2025-08-22,清算の結了等,,,2015-10-05,1,,,,,アサハラエイヨウドウ,0
718,3470001015526,登記記録の閉鎖等,0,2025-08-27,2025-08-25,西工業株式会社,,株式会社,香川県,善通寺市,木徳町７５６番地５,,37,204,7650033,,,2025-08-25,清算の結了等,,,2016-01-25,1,,,,,ニシコウギョウ,0
730,4010001097295,登記記録の閉鎖等,0,2025-08-27,2025-07-28,株式会社パチンコビスタ,,株式会社,東京都,渋谷区,代々木１丁目５７－１,,13,113,1510053,,,2025-07-28,清算の結了等,,,2015-10-05,1,,,,,パチンコビスタ,0
732,4010001220996,登記記録の閉鎖等,0,2025-08-27,2025-08-01,大澤製薬株式会社,,株式会社,東京都,中央区,日本橋蛎殻町１丁目３番５号共同ビル２階２３号,,13,102,1030014,,,2025-08-01,清算の結了等,,,2021-09-08,1,,,,,ダイザワセイヤク,0
749,4010401066627,登記記録の閉鎖等,0,2025-08-27,2025-07-25,株式会社ネットスクウェア,,株式会社,東京都,目黒区,平町２丁目１８番１６号,,13,110,1520032,,,2025-07-25,清算の結了等,,,2015-10-05,1,,,,,ネットスクウェア,0
753,4010401141933,登記記録の閉鎖等,0,2025-08-27,2025-07-30,株式会社ｔｍｇ,,株式会社,東京都,港区,三田３丁目１番２３メザキビル,,13,103,1080073,,,2025-07-30,清算の結了等,,,2018-11-08,1,,,,,ティーエムジー,0
774,4011001032952,登記記録の閉鎖等,0,2025-08-27,2025-07-23,株式会社ユー研究室,,株式会社,東京都,渋谷区,道玄坂１丁目１５番３号プリメーラ道玄坂９１１,,13,113,1500043,,,2025-07-23,清算の結了等,,,2015-10-05,1,,,,,ユーケンキュウシツ,0
775,4011001054699,登記記録の閉鎖等,0,2025-08-27,2025-07-28,株式会社デジプラネット,,株式会社,東京都,渋谷区,代々木５丁目７番５号ＰＯＲＴＡＬＰＯＩＮＴＹｏｙｏｇｉ－Ｋｏｅｎ５０１,,13,113,1510053,,,2025-07-28,清算の結了等,,,2015-10-05,1,,,,,デジプラネット,0
800,4011802011626,登記記録の閉鎖等,0,2025-08-27,2025-08-25,協和興業有限会社,,有限会社,東京都,足立区,保塚町４番１０号,00139717,13,121,1210072,,,2025-08-25,清算の結了等,,,2015-10-05,1,,,,,キョウワコウギョウ,0
819,4020001158542,登記記録の閉鎖等,0,2025-08-27,2025-07-25,ＡＩＨ株式会社,,株式会社,東京都,渋谷区,道玄坂１丁目１０番８号渋谷道玄坂東急ビル２Ｆ－Ｃ,,13,113,1500043,,,2025-07-25,清算の結了等,,,2024-08-21,1,,,,,エイアイエイチ,0
820,4020002027325,登記記録の閉鎖等,0,2025-08-27,2025-08-12,有限会社露崎建材,,有限会社,神奈川県,横浜市神奈川区,菅田町１１４７番地の２,,14,102,2210864,,,2025-08-12,清算の結了等,,,2015-10-05,1,,,,,ツユザキケンザイ,0
825,4021001074845,登記記録の閉鎖等,0,2025-08-27,2025-08-15,エービヨンド株式会社,,株式会社,神奈川県,茅ヶ崎市,萩園２３３９番地３８,,14,207,2530071,,,2025-08-15,合併による解散等,4011003012366,令和７年８月１日神奈川県茅ヶ崎市新栄町７番５号ＣＨＩＧＡＳＡＫＩＢｉｚ－Ｎａｚ４階Ｃ区画株式会社Ｐｒｏｄｕｃｔ　Ａｒｃｓ（4011003012366）に合併し解散,2022-01-06,1,,,,,エービヨンド,0
828,4021002048939,登記記録の閉鎖等,0,2025-08-27,2025-08-18,有限会社リサイクルガーデン,,有限会社,神奈川県,大和市,上草柳６丁目１８番１５号,,14,213,2420029,,,2025-08-18,清算の結了等,,,2015-10-05,1,,,,,リサイクルガーデン,0
830,4030001134047,登記記録の閉鎖等,0,2025-08-27,2025-08-20,株式会社臨床医化学研究所,,株式会社,埼玉県,比企郡嵐山町,むさし台２丁目１８番地８,,11,342,3550216,,,2025-08-20,清算の結了等,,,2019-12-05,1,,,,,リンショウイカガクケンキュウジョ,0
842,4040001056538,登記記録の閉鎖等,0,2025-08-27,2025-08-01,株式会社興新電設,,株式会社,千葉県,柏市,松葉町５丁目１番地の１,,12,217,2770827,,,2025-08-01,清算の結了等,,,2015-10-05,1,,,,,コウシンデンセツ,0
847,4040001123429,登記記録の閉鎖等,0,2025-08-27,2025-08-01,さくら建機販売株式会社,,株式会社,千葉県,佐倉市,馬渡１３４０番地１,,12,212,2850804,,,2025-08-01,清算の結了等,,,2022-05-20,1,,,,,サクラケンキハンバイ,0
878,4100001023614,登記記録の閉鎖等,0,2025-08-27,2025-08-25,株式会社ＥＳＰ清水,,株式会社,長野県,飯田市,北方２６６９番地,,20,205,3950151,,,2025-08-25,清算の結了等,,,2015-10-05,1,,,,,イーエスピーシミズ,0
883,4110001036425,登記記録の閉鎖等,0,2025-08-27,2025-08-08,株式会社ＴＯＭＯＳＨＩＢＩ,,株式会社,新潟県,新潟市中央区,大島６９－２,,15,103,9500953,,,2025-08-08,清算の結了等,,,2022-02-09,1,,,,,トモシビ,0
884,4110002004513,登記記録の閉鎖等,0,2025-08-27,2025-08-08,有限会社トロピコ,,有限会社,新潟県,新潟市西区,浦山２丁目３番５号,,15,107,9502001,,,2025-08-08,清算の結了等,,,2015-10-05,1,,,,,トロピコ,0
896,4120002019527,登記記録の閉鎖等,0,2025-08-27,2025-08-18,株式会社井上ビル,,株式会社,大阪府,大阪市浪速区,下寺３丁目３番１０号,,27,111,5560001,,,2025-08-18,清算の結了等,,,2015-10-05,1,,,,,イノウエビル,0
903,4120005022115,登記記録の閉鎖等,0,2025-08-27,2025-08-25,一般社団法人真癒会,,その他の設立登記法人,大阪府,大阪市北区,芝田１丁目１０番地１０号芝田グランドビル１１０４号室,,27,127,5300012,,,2025-08-25,清算の結了等,,,2021-02-05,1,,,,,シンユカイ,0
918,4122002000284,登記記録の閉鎖等,0,2025-08-27,2025-08-12,有限会社井元板金,,有限会社,大阪府,東大阪市,横沼町２丁目１３番８号,,27,227,5770808,,,2025-08-12,清算の結了等,,,2015-10-05,1,,,,,イモトバンキン,0
926,4140001055298,登記記録の閉鎖等,0,2025-08-27,2025-08-25,株式会社ティーオーエムアイ,,株式会社,兵庫県,尼崎市,稲葉元町２丁目１５番７号,,28,202,6600055,,,2025-08-25,清算の結了等,,,2015-10-05,1,,,,,ティーオーエムアイ,0
937,4170005004224,登記記録の閉鎖等,0,2025-08-27,2025-08-25,御坊小売酒販組合,,その他の設立登記法人,和歌山県,御坊市,薗３１５番地１,,30,205,6440002,,,2025-08-25,清算の結了等,,,2015-10-05,1,,,,,ゴボウコウリシュハン,0
944,4180002034090,登記記録の閉鎖等,0,2025-08-27,2025-08-01,有限会社五家製作所,,有限会社,愛知県,名古屋市緑区,姥子山４丁目２１５番地,,23,114,4580830,,,2025-08-01,清算の結了等,,,2015-10-05,1,,,,,ゴカセイサクショ,0
946,4180301034329,登記記録の閉鎖等,0,2025-08-27,2025-08-13,株式会社ハートブレインラボ,,株式会社,愛知県,岡崎市,東明大寺町９番地７,,23,202,4440863,,,2025-08-13,清算の結了等,,,2020-11-20,1,,,,,ハートブレインラボ,0
954,4200002024576,登記記録の閉鎖等,0,2025-08-27,2025-08-25,有限会社工藤石材施工,,有限会社,岐阜県,恵那市,三郷町野井１６８１番地,,21,210,5097123,,,2025-08-25,清算の結了等,,,2015-10-05,1,,,,,クドウセキザイセコウ,0
961,4230001018551,登記記録の閉鎖等,0,2025-08-27,2025-08-26,株式会社ジャパングローバルステンレス,,株式会社,富山県,富山市,婦中町地角５９６番地,,16,201,9392744,,,2025-08-26,清算の結了等,,,2020-11-13,1,,,,,ジャパングローバルステンレス,0
966,4240002002636,登記記録の閉鎖等,0,2025-08-27,2025-08-25,有限会社エム・プロダクト,,有限会社,広島県,広島市佐伯区,河内南１丁目３５番９号,,34,108,7315153,,,2025-08-25,清算の結了等,,,2015-10-05,1,,,,,エムプロダクト,0
974,4290001079695,登記記録の閉鎖等,0,2025-08-27,2025-07-30,ＹＫ企画株式会社,,株式会社,福岡県,糟屋郡新宮町,中央駅前１丁目１３番４号,,40,345,8110120,,,2025-07-30,清算の結了等,,,2017-11-17,1,,,,,ワイケイキカク,0
982,4290002042207,登記記録の閉鎖等,0,2025-08-27,2025-08-12,有限会社ソレイユオフィス,,有限会社,熊本県,熊本市東区,榎町１１番１５号,,43,102,8620917,,,2025-08-12,清算の結了等,,,2015-10-05,1,,,,,ソレイユオフィス,0
986,4300002010970,登記記録の閉鎖等,0,2025-08-27,2025-08-25,有限会社山崎商事,00095425,有限会社,佐賀県,東松浦郡玄海町,大字小加倉２１７番地５４,,41,387,8471401,,,2025-08-25,清算の結了等,,,2015-10-05,1,,,,,ヤマサキショウジ,0
988,4320001005945,登記記録の閉鎖等,0,2025-08-27,2025-08-22,株式会社大分メディカルサービス,,株式会社,大分県,大分市,新栄町１番２６号,,44,201,8700919,,,2025-08-22,清算の結了等,,,2015-10-05,1,,,,,オオイタメディカルサービス,0
1007,4410001000730,登記記録の閉鎖等,0,2025-08-27,2025-08-26,株式会社越後屋,,株式会社,秋田県,秋田市,外旭川字松崎２２５番地１,,05,201,0100802,,,2025-08-26,清算の結了等,,,2015-10-05,1,,,,,エチゴヤ,0
1018,4460101001979,登記記録の閉鎖等,0,2025-08-27,2025-08-25,株式会社若竹,,株式会社,北海道,帯広市,西四条南１丁目１７番地,,01,207,0800014,,,2025-08-25,清算の結了等,,,2015-10-05,1,,,,,,0
1021,5010001159540,登記記録の閉鎖等,0,2025-08-27,2025-08-01,株式会社ゲイト,,株式会社,東京都,中央区,銀座１丁目９番８号奥野ビル６１６号,,13,102,1040061,,,2025-08-01,清算の結了等,,,2015-10-05,1,,,,,ゲイト,0
1065,5011102003224,登記記録の閉鎖等,0,2025-08-27,2025-07-29,勝又総業有限会社,,有限会社,東京都,新宿区,大久保２丁目２５番４号,,13,104,1690072,,,2025-07-29,清算の結了等,,,2015-10-05,1,,,,,カツマタソウギョウ,0
1100,5030003012051,登記記録の閉鎖等,0,2025-08-27,2025-08-21,合同会社華飾,,合同会社,埼玉県,さいたま市中央区,本町東７丁目１６番８号,,11,105,3380003,,,2025-08-21,清算の結了等,,,2018-06-18,1,,,,,ハナカザリ,0
1102,5030005015993,登記記録の閉鎖等,0,2025-08-27,2025-08-21,和建設業協同組合,,その他の設立登記法人,埼玉県,川口市,北原台１丁目２６番１４号,,11,203,3330815,,,2025-08-21,清算の結了等,,,2015-10-05,1,,,,,ヤマトケンセツギョウ,0
1104,5040001063277,登記記録の閉鎖等,0,2025-08-27,2025-07-31,株式会社ひたちなかＥＬ,,株式会社,千葉県,山武郡芝山町,山田１７１１番地１,,12,409,2891606,,,2025-07-31,清算の結了等,,,2015-10-05,1,,,,,ヒタチナカイーエル,0
1105,5040001083358,登記記録の閉鎖等,0,2025-08-27,2025-08-01,株式会社佑月,,株式会社,千葉県,松戸市,東松戸３丁目５番地の７－２０３号,,12,207,2702225,,,2025-08-01,合併による解散等,3040001050137,令和７年８月１日千葉県松戸市東松戸三丁目５番地の７－２０３株式会社佑星（3040001050137）に合併し解散,2015-10-05,1,,,,,ユヅキ,0
1124,5080402006112,登記記録の閉鎖等,0,2025-08-27,2025-08-22,有限会社浜松製畳,,有限会社,静岡県,浜松市中央区,城北１丁目１２番１号,,22,138,4328011,,,2025-08-22,清算の結了等,,,2015-10-05,1,,,,,ハママツセイジョウ,0
1131,5110002011228,登記記録の閉鎖等,0,2025-08-27,2025-08-08,有限会社小林工業所,,有限会社,新潟県,新潟市西蒲区,今井７５３番地,,15,108,9590515,,,2025-08-08,清算の結了等,,,2015-10-05,1,,,,,コバヤシコウギョウショ,0
1132,5110002020641,登記記録の閉鎖等,0,2025-08-27,2025-08-08,有限会社シナダ板金,,有限会社,新潟県,柏崎市,松波１丁目１４番４８号,,15,205,9450011,,,2025-08-08,清算の結了等,,,2015-10-05,1,,,,,シナダバンキン,0
1141,5120002024591,登記記録の閉鎖等,0,2025-08-27,2025-08-18,有限会社いの上,,有限会社,大阪府,大阪市東淀川区,菅原３丁目９番２２号,,27,114,5330022,,,2025-08-18,清算の結了等,,,2015-10-05,1,,,,,イノウエ,0
1158,5122003001842,登記記録の閉鎖等,0,2025-08-27,2025-08-07,合同会社優ＹＯＵ,,合同会社,大阪府,八尾市,恩智中町３丁目２４５コープ野村恩智Ｂ－５０９,,27,212,5810883,,,2025-08-07,清算の結了等,,,2020-04-28,1,,,,,ユウユウ,0
1169,5150005008300,登記記録の閉鎖等,0,2025-08-27,2025-08-25,特定非営利活動法人児童支援グループわたげ,,その他の設立登記法人,奈良県,天理市,武蔵町５４番地,,29,204,6320065,,,2025-08-25,清算の結了等,,,2015-10-05,1,,,,,ジドウシエングループワタゲ,0
1183,5180002052991,登記記録の閉鎖等,0,2025-08-27,2025-08-01,有限会社ハッピートクガワ,,有限会社,愛知県,名古屋市東区,相生町１６番地１,,23,102,4610012,,,2025-08-01,清算の結了等,,,2015-10-05,1,,,,,ハッピートクガワ,0
1226,5360003009964,登記記録の閉鎖等,0,2025-08-27,2025-08-19,エターナルピース合同会社,,合同会社,沖縄県,沖縄市,与儀１丁目３０番２０号ザ・プレースライカムプラチナムテラス３０４号室,,47,211,9042174,,,2025-08-19,清算の結了等,,,2019-12-11,1,,,,,エターナルピース,0
1232,5380003001184,登記記録の閉鎖等,0,2025-08-27,2025-08-08,合資会社二戸商店,,合資会社,福島県,いわき市,岩間町上山２７９番地,,07,204,9748222,,,2025-08-08,清算の結了等,,,2015-10-05,1,,,,,ニトショウテン,0
1235,5430001008564,登記記録の閉鎖等,0,2025-08-27,2025-08-05,株式会社すみよし,,株式会社,北海道,札幌市南区,澄川二条５丁目６番１号アーバンハイツＮＡＫＡＩ６０２号室,,01,106,0050002,,,2025-08-05,清算の結了等,,,2015-10-05,1,,,,,スミヨシ,0
1240,5430002003985,登記記録の閉鎖等,0,2025-08-27,2025-08-05,有限会社大畑商事,,有限会社,北海道,札幌市東区,北二十六条東１４丁目３９８番地,,01,103,0650026,,,2025-08-05,清算の結了等,,,2015-10-05,1,,,,,オオハタショウジ,0
1241,5430002037232,登記記録の閉鎖等,0,2025-08-27,2025-08-06,三井ビル興産有限会社,,有限会社,北海道,札幌市白石区,菊水上町二条４丁目２０２番地,,01,104,0030812,,,2025-08-06,清算の結了等,,,2015-10-05,1,,,,,ミツイビルコウサン,0
1242,5430002055291,登記記録の閉鎖等,0,2025-08-27,2025-08-05,有限会社丸河河村商店,,有限会社,北海道,小樽市,長橋２丁目１７番２号,,01,203,0470036,,,2025-08-05,清算の結了等,,,2015-10-05,1,,,,,マルカワカワムラショウテン,0
1254,6010003037900,登記記録の閉鎖等,0,2025-08-27,2025-08-21,合同会社ＡＭ　ａｌｐｈａ　Ｆｏｕｒ,,合同会社,東京都,千代田区,霞が関３丁目２番５号,,13,101,1000013,,,2025-08-21,清算の結了等,,,2022-06-15,1,,,,,エーエムアルファフォー,0
1271,6010901043826,登記記録の閉鎖等,0,2025-08-27,2025-08-25,株式会社ＤｉｇｉＺ,,株式会社,東京都,世田谷区,太子堂４丁目２３番１５号Ｔ－ハウス三軒茶屋４Ｆ,,13,112,1540004,,,2025-08-25,清算の結了等,,,2019-03-18,1,,,,,ディジッツ,0
1278,6011001119558,登記記録の閉鎖等,0,2025-08-27,2025-07-28,株式会社シアッテ,,株式会社,東京都,渋谷区,千駄ヶ谷４丁目３番１号,,13,113,1510051,,,2025-07-28,清算の結了等,,,2017-12-06,1,,,,,シアッテ,0
1299,6011701015370,登記記録の閉鎖等,0,2025-08-27,2025-08-25,株式会社ＤＭＲ,,株式会社,北海道,札幌市西区,琴似一条４丁目１番２２－４０２号,,01,107,0630811,,,2025-08-25,清算の結了等,,,2015-10-05,1,,,,,デイーエムアール,0
1309,6020001023083,登記記録の閉鎖等,0,2025-08-27,2025-08-01,株式会社ゴルフジョイ,,株式会社,東京都,中央区,新川１丁目２３番１号,,13,102,1040033,,,2025-08-01,清算の結了等,,,2015-10-05,1,,,,,ゴルフジョイ,0
1315,6020002069209,登記記録の閉鎖等,0,2025-08-27,2025-08-12,有限会社ディアックス,,有限会社,神奈川県,横浜市神奈川区,三枚町１０８番地の７ライオンズマンション片倉町第３・５０２号,,14,102,2210862,,,2025-08-12,清算の結了等,,,2015-10-05,1,,,,,ディアックス,0
1318,6020005005929,登記記録の閉鎖等,0,2025-08-27,2025-08-07,特定非営利活動法人Ｒｅライフスタイル,,その他の設立登記法人,神奈川県,横浜市金沢区,鳥浜町１７番地３,,14,108,2360002,,,2025-08-07,清算の結了等,,,2015-10-05,1,,,,,リライフスタイル,0
1329,6030003016126,登記記録の閉鎖等,0,2025-08-27,2025-08-21,ＣＡＲＺ合同会社,,合同会社,埼玉県,春日部市,金崎１０２５番地１号,,11,214,3440117,,,2025-08-21,清算の結了等,,,2020-11-04,1,,,,,カーズ,0
1336,6040001091764,登記記録の閉鎖等,0,2025-08-27,2025-07-25,株式会社成和,,株式会社,千葉県,成田市,津富浦７６６番地,,12,211,2870236,,,2025-07-25,合併による解散等,9040001091126,令和７年７月１日千葉県成田市津富浦７６６番地株式会社昭伸商事（9040001091126）に合併し解散,2015-10-05,1,,,,,セイワ,0
1352,6070001017015,登記記録の閉鎖等,0,2025-08-27,2025-08-25,株式会社エクセルエンジニアリング,,株式会社,群馬県,桐生市,新里町板橋３２８番地３０,,10,203,3760136,,,2025-08-25,合併による解散等,4040001034948,令和７年８月１日東京都中央区京橋二丁目１０番２号エクセル株式会社（4040001034948）に合併し解散,2015-10-05,1,,,,,エクセルエンジニアリング,0
1354,6070005003300,登記記録の閉鎖等,0,2025-08-27,2025-08-22,特定非営利活動法人キャリア倶楽部,,その他の設立登記法人,群馬県,太田市,新井町２４４番地の１,,10,205,3730852,,,2025-08-22,清算の結了等,,,2015-10-05,1,,,,,キャリアクラブ,0
1356,6080002017970,登記記録の閉鎖等,0,2025-08-27,2025-08-20,有限会社藤枝通信建設,,有限会社,静岡県,藤枝市,大東町７５７番地の３,,22,214,4260044,,,2025-08-20,清算の結了等,,,2015-10-05,1,,,,,フジエダツウシンケンセツ,0
1358,6080401004090,登記記録の閉鎖等,0,2025-08-27,2025-08-22,株式会社浜松歯科インプラント研究所,,株式会社,静岡県,浜松市中央区,広沢３丁目３０番１２号,,22,138,4328013,,,2025-08-22,清算の結了等,,,2015-10-05,1,,,,,ハママツシカインプラントケンキュウジョ,0
1371,6110002021936,登記記録の閉鎖等,0,2025-08-27,2025-08-08,有限会社須貝工務店,,有限会社,新潟県,岩船郡関川村,大字高田１３７番地,,15,581,9593252,,,2025-08-08,清算の結了等,,,2015-10-05,1,,,,,スガイコウムテン,0
1395,6122001028151,登記記録の閉鎖等,0,2025-08-27,2025-08-13,株式会社和花,,株式会社,大阪府,東大阪市,楠根３丁目９番１８号,,27,227,5770006,,,2025-08-13,清算の結了等,,,2015-10-05,1,,,,,ワカ,0
1396,6122003002212,登記記録の閉鎖等,0,2025-08-27,2025-08-15,合同会社名入れｄｅギフト,,合同会社,大阪府,東大阪市,楠根２丁目９番５号,,27,227,5770006,,,2025-08-15,清算の結了等,,,2021-11-10,1,,,,,ナイレデギフト,0
1406,6140001056484,登記記録の閉鎖等,0,2025-08-27,2025-08-25,株式会社岡崎工務店,,株式会社,兵庫県,豊岡市,日高町鶴岡３７番地の７,,28,209,6695313,,,2025-08-25,清算の結了等,,,2015-10-05,1,,,,,,0
1410,6140002046410,登記記録の閉鎖等,0,2025-08-27,2025-08-22,第八長栄有限会社,,有限会社,兵庫県,美方郡香美町,香住区一日市２５５番地,,28,585,6696542,,,2025-08-22,清算の結了等,,,2015-10-05,1,,,,,ダイハチチョウエイ,0
1412,6140002065633,登記記録の閉鎖等,0,2025-08-27,2025-08-25,有限会社Ｓ＆Ｃ,,有限会社,兵庫県,川西市,栄根２丁目２番１６号,,28,217,6660021,,,2025-08-25,清算の結了等,,,2015-10-05,1,,,,,エスアンドシー,0
1418,6150005003309,登記記録の閉鎖等,0,2025-08-27,2025-08-22,西部水道協同組合サービスセンター,,その他の設立登記法人,奈良県,生駒郡斑鳩町,稲葉車瀬１丁目２０番２５号,00048969,29,344,6360141,,,2025-08-22,清算の結了等,,,2015-10-05,1,,,,,セイブスイドウサービスセンター,0
1421,6170002010363,登記記録の閉鎖等,0,2025-08-27,2025-08-25,有限会社紀杉木工,,有限会社,和歌山県,日高郡由良町,大字里６９１番地の１,,30,383,6491111,,,2025-08-25,清算の結了等,,,2015-10-05,1,,,,,キスギモッコウ,0
1422,6170005004214,登記記録の閉鎖等,0,2025-08-27,2025-08-25,日高酒販協同組合,,その他の設立登記法人,和歌山県,御坊市,薗３１５番地１,,30,205,6440002,,,2025-08-25,清算の結了等,,,2015-10-05,1,,,,,ヒダカシュハン,0
1426,6180001154086,登記記録の閉鎖等,0,2025-08-27,2025-08-01,ホガエンターテインメント株式会社,,株式会社,愛知県,名古屋市中村区,名駅４丁目２４番５号第２森ビル４０１,,23,105,4500002,,,2025-08-01,清算の結了等,,,2022-12-05,1,,,,,ホガエンターテインメント,0
1427,6180001158822,登記記録の閉鎖等,0,2025-08-27,2025-08-01,株式会社ファニチャーデコール,,株式会社,愛知県,海部郡大治町,大字西條字壱町田２５番地の２,,23,424,4901144,,,2025-08-01,清算の結了等,,,2023-11-06,1,,,,,ファニチャーデコール,0
1434,6180003012110,登記記録の閉鎖等,0,2025-08-27,2025-08-08,合資会社トゥーウォーカー,,合資会社,愛知県,一宮市,萩原町中島１５１９番地,,23,203,4910364,,,2025-08-08,清算の結了等,,,2015-10-05,1,,,,,トゥーウォーカー,0
1435,6180003027711,登記記録の閉鎖等,0,2025-08-27,2025-08-01,アカウンティングサポート合同会社,,合同会社,愛知県,名古屋市千種区,菊坂町１丁目９番地グランドメゾン菊坂町７０１号,,23,101,4640836,,,2025-08-01,清算の結了等,,,2024-12-03,1,,,,,アカウンティングサポート,0
1436,6180302007785,登記記録の閉鎖等,0,2025-08-27,2025-08-19,有限会社シミズ企画,,有限会社,愛知県,豊橋市,南小池町１１５番地の２,,23,201,4418044,,,2025-08-19,清算の結了等,,,2015-10-05,1,,,,,,0
1443,6180305008013,登記記録の閉鎖等,0,2025-08-27,2025-08-20,特定非営利活動法人ＨＷＣＳ,,その他の設立登記法人,愛知県,みよし市,三好町上１５番地の３,,23,236,4700224,,,2025-08-20,清算の結了等,,,2015-10-05,1,,,,,フックス,0
1445,6190001011187,登記記録の閉鎖等,0,2025-08-27,2025-08-25,前納鉄工株式会社,,株式会社,三重県,多気郡大台町,佐原４４４番地,,24,443,5192404,,,2025-08-25,清算の結了等,,,2015-10-05,1,,,,,マエノウテッコウ,0
1448,6220001017032,登記記録の閉鎖等,0,2025-08-27,2025-08-26,株式会社輪島製塩,,株式会社,石川県,輪島市,町野町大川ハ１７番地２,,17,204,9280231,,,2025-08-26,清算の結了等,,,2015-10-05,1,,,,,ワジマセイエン,0
1455,6260002030575,登記記録の閉鎖等,0,2025-08-27,2025-08-06,ティーエヌケー工業有限会社,,有限会社,岡山県,美作市,城田２７３番地,,33,215,7012625,,,2025-08-06,清算の結了等,,,2015-10-05,1,,,,,ティーエヌケーコウギョウ,0
1464,6290002006093,登記記録の閉鎖等,0,2025-08-27,2025-08-01,有限会社三川屋商店,,有限会社,福岡県,福岡市東区,下原３丁目１１番５号,,40,131,8130002,,,2025-08-01,清算の結了等,,,2015-10-05,1,,,,,ミカワヤショウテン,0
1472,6350005003197,登記記録の閉鎖等,0,2025-08-27,2025-08-12,社会福祉法人やまと福祉会,,その他の設立登記法人,宮崎県,延岡市,北浦町宮野浦４８２番地１,,45,203,8890303,,,2025-08-12,清算の結了等,,,2015-10-05,1,,,,,ヤマトフクシカイ,0
1474,6360001015427,登記記録の閉鎖等,0,2025-08-27,2025-08-26,株式会社フォレシティ,,株式会社,佐賀県,伊万里市,松浦町中野原１６６８番地,,41,205,8495262,,,2025-08-26,清算の結了等,,,2015-10-05,1,,,,,フォレシティ,0
1483,6380001013370,登記記録の閉鎖等,0,2025-08-27,2025-08-07,株式会社天榮丸漁業,,株式会社,福島県,いわき市,小名浜字栄町１１番地,,07,204,9718101,,,2025-08-07,清算の結了等,,,2015-10-05,1,,,,,テンエイマルギョギョウ,0
1486,6380003001811,登記記録の閉鎖等,0,2025-08-27,2025-08-07,合資会社鳥一旅館,,合資会社,福島県,会津若松市,東山町大字湯本字居平１２２番地,,07,202,9650814,,,2025-08-07,清算の結了等,,,2015-10-05,1,,,,,トリイチリョカン,0
1493,6430001049723,登記記録の閉鎖等,0,2025-08-27,2025-08-25,大山食品株式会社,,株式会社,北海道,小樽市,天神２丁目９番２８号,,01,203,0470011,,,2025-08-25,清算の結了等,,,2015-10-05,1,,,,,,0
1496,6430002002235,登記記録の閉鎖等,0,2025-08-27,2025-08-05,有限会社岩田クリーニング,,有限会社,北海道,札幌市豊平区,中の島一条７丁目７番２８号,,01,105,0620921,,,2025-08-05,清算の結了等,,,2015-10-05,1,,,,,イワタクリーニング,0
1497,6430002014775,登記記録の閉鎖等,0,2025-08-27,2025-08-04,有限会社新妻商事,,有限会社,北海道,札幌市東区,本町二条２丁目１番２８号,,01,103,0650042,,,2025-08-04,清算の結了等,,,2015-10-05,1,,,,,ニイズマショウジ,0
1499,6430002058789,登記記録の閉鎖等,0,2025-08-27,2025-08-06,有限会社森英建設,,有限会社,北海道,苫小牧市,見山町２丁目２番２５号,,01,213,0530855,,,2025-08-06,清算の結了等,,,2015-10-05,1,,,,,シンエイケンセツ,0
1502,6460003001051,登記記録の閉鎖等,0,2025-08-27,2025-08-21,合同会社コスモサイエンスＡＭ,,合同会社,北海道,釧路市,鳥取南５丁目１２番５号,,01,206,0840905,,,2025-08-21,合併による解散等,6462502000260,令和７年８月１５日北海道標津郡中標津町東七条南十丁目４番地１株式会社コスモサイエンス（6462502000260）に合併し解散,2025-05-08,1,,,,,コスモサイエンスエーエム,0
1504,6470001010284,登記記録の閉鎖等,0,2025-08-27,2025-08-22,森電業株式会社,,株式会社,香川県,三豊市,高瀬町新名９００番地の１,,37,208,7670002,,,2025-08-22,清算の結了等,,,2015-10-05,1,,,,,モリデンギョウ,0
1505,6480003001693,登記記録の閉鎖等,0,2025-08-27,2025-08-01,金子設計合同会社,,合同会社,福岡県,飯塚市,下三緒９９５番地２,,40,205,8200012,,,2025-08-01,清算の結了等,,,2021-07-29,1,,,,,カネコセッケイ,0
1536,7010701042564,登記記録の閉鎖等,0,2025-08-27,2025-08-12,株式会社ＳＡＫＵＲＡ,,株式会社,神奈川県,横浜市中区,桜木町１丁目１－７ヒューリックみなとみらい１０階,,14,104,2310062,,,2025-08-12,清算の結了等,,,2022-04-26,1,,,,,サクラ,0
1553,7011103004806,登記記録の閉鎖等,0,2025-08-27,2025-08-21,合同会社日本セーフティプランニング,,合同会社,埼玉県,狭山市,大字水野１８９番３４号,,11,215,3501317,,,2025-08-21,清算の結了等,,,2015-10-05,1,,,,,ニホンセーフティプランニング,0
1564,7012702007430,登記記録の閉鎖等,0,2025-08-27,2025-08-15,有限会社森田園,,有限会社,東京都,東久留米市,神宝町２丁目１４番２５号,,13,222,2030002,,,2025-08-15,清算の結了等,,,2015-10-05,1,,,,,モリタエン,0
1569,7020001055539,登記記録の閉鎖等,0,2025-08-27,2025-08-07,株式会社タカシゲ,,株式会社,神奈川県,横浜市瀬谷区,相沢３丁目２８－４,,14,114,2460013,,,2025-08-07,清算の結了等,,,2015-10-05,1,,,,,タカシゲ,0
1572,7020001113404,登記記録の閉鎖等,0,2025-08-27,2025-08-18,ｉＳファクトリー株式会社,,株式会社,東京都,品川区,北品川３丁目６番６号品川御殿山ビル２Ｆ,,13,109,1400001,,,2025-08-18,清算の結了等,,,2015-10-30,1,,,,,,0
1575,7020002077086,登記記録の閉鎖等,0,2025-08-27,2025-08-08,有限会社Ｓｗａｎ,,有限会社,神奈川県,横浜市緑区,長津田４丁目２０番Ｄ－３０１号,,14,113,2260027,,,2025-08-08,清算の結了等,,,2015-10-05,1,,,,,スワン,0
1579,7020005009160,登記記録の閉鎖等,0,2025-08-27,2025-07-25,特定非営利活動法人フォレストフリーク,,その他の設立登記法人,神奈川県,横浜市金沢区,西柴４丁目１２番１７号,,14,108,2360017,,,2025-07-25,清算の結了等,,,2015-10-05,1,,,,,フォレストフリーク,0
1583,7030001060414,登記記録の閉鎖等,0,2025-08-27,2025-08-20,株式会社マルタ,,株式会社,埼玉県,本庄市,本庄１丁目２番１１号,,11,211,3670051,,,2025-08-20,清算の結了等,,,2015-10-05,1,,,,,マルタ,0
1589,7030002097323,登記記録の閉鎖等,0,2025-08-27,2025-08-15,有限会社尾崎商店,,有限会社,埼玉県,比企郡小川町,大字大塚１７６番地の３,,11,343,3550328,,,2025-08-15,清算の結了等,,,2015-10-05,1,,,,,オザキショウテン,0
1598,7060001015745,登記記録の閉鎖等,0,2025-08-27,2025-08-18,株式会社森屋電気管理,,株式会社,栃木県,小山市,大字南飯田６６４番地７２,,09,208,3290213,,,2025-08-18,清算の結了等,,,2015-10-05,1,,,,,モリヤデンキカンリ,0
1599,7060002002866,登記記録の閉鎖等,0,2025-08-27,2025-08-20,有限会社カネト銘木店,,有限会社,栃木県,宇都宮市,氷室町２０２６番地,,09,201,3213232,,,2025-08-20,清算の結了等,,,2015-10-05,1,,,,,カネトメイボクテン,0
1601,7080001018226,登記記録の閉鎖等,0,2025-08-27,2025-08-22,株式会社エムジー,,株式会社,静岡県,静岡市清水区,三保５８７番地の１６,,22,103,4240901,,,2025-08-22,清算の結了等,,,2015-10-05,1,,,,,エムジー,0
1604,7080101022524,登記記録の閉鎖等,0,2025-08-27,2025-08-22,株式会社オリーブファーマシー,,株式会社,静岡県,伊豆市,柏久保６３６番地の４,,22,222,4102407,,,2025-08-22,清算の結了等,,,2021-05-20,1,,,,,オリーブファーマシー,0
1613,7110002033658,登記記録の閉鎖等,0,2025-08-27,2025-08-12,共和工業有限会社,,有限会社,新潟県,魚沼市,日渡新田５０番地１,,15,225,9460001,,,2025-08-12,清算の結了等,,,2015-10-05,1,,,,,キョウワコウギョウ,0
1614,7120001122493,登記記録の閉鎖等,0,2025-08-27,2025-08-01,青山製作所株式会社,,株式会社,大阪府,豊中市,上新田２丁目４番２９号,,27,203,5600085,,,2025-08-01,清算の結了等,,,2015-10-05,1,,,,,アオヤマセイサクショ,0
1626,7120002008337,登記記録の閉鎖等,0,2025-08-27,2025-08-18,有限会社ダイヤ無線,,有限会社,大阪府,大阪市城東区,新喜多１丁目３番７号,,27,118,5360015,,,2025-08-18,清算の結了等,,,2015-10-05,1,,,,,ダイヤムセン,0
1651,7130003009069,登記記録の閉鎖等,0,2025-08-27,2025-08-25,宝仙合同会社,,合同会社,兵庫県,養父市,大久保７３番地－２０４,,28,222,6671127,,,2025-08-25,清算の結了等,,,2023-12-13,1,,,,,ホウセン,0
1661,7150001007155,登記記録の閉鎖等,0,2025-08-27,2025-08-21,ベステック株式会社,,株式会社,奈良県,生駒郡安堵町,大字かしの木台１丁目１２番地の１９,,29,345,6391063,,,2025-08-21,清算の結了等,,,2015-10-05,1,,,,,ベステック,0
1663,7180001050227,登記記録の閉鎖等,0,2025-08-27,2025-08-01,株式会社昆虫王国,,株式会社,愛知県,名古屋市中川区,尾頭橋１丁目１番３５号シティーコーポ尾頭橋４号棟７０３号,,23,110,4540012,,,2025-08-01,清算の結了等,,,2015-10-05,1,,,,,コンチュウオウコク,0
1678,7180003023585,登記記録の閉鎖等,0,2025-08-27,2025-08-01,合同会社楽福,,合同会社,愛知県,名古屋市昭和区,鶴舞３丁目１２番２号,,23,107,4660064,,,2025-08-01,清算の結了等,,,2022-03-04,1,,,,,ラック,0
1679,7180003027883,登記記録の閉鎖等,0,2025-08-27,2025-08-01,ＡＰＥＸ　ＩＮＴＥＲＮＡＴＩＯＮＡＬ合同会社,,合同会社,愛知県,名古屋市中村区,烏森町１丁目１０４番地,,23,105,4530855,,,2025-08-01,清算の結了等,,,2025-01-20,1,,,,,アペックスインターナショナル,0
1684,7180302021760,登記記録の閉鎖等,0,2025-08-27,2025-08-18,有限会社勝龍建設,,有限会社,愛知県,豊田市,荒井町下原４２１番地６,,23,211,4700333,,,2025-08-18,清算の結了等,,,2015-10-05,1,,,,,ショウリュウケンセツ,0
1695,7240001015223,登記記録の閉鎖等,0,2025-08-27,2025-08-25,株式会社クリンディ,,株式会社,広島県,広島市安佐南区,山本１丁目７番３号,,34,105,7310137,,,2025-08-25,清算の結了等,,,2015-10-05,1,,,,,クリンディ,0
1697,7240002018027,登記記録の閉鎖等,0,2025-08-27,2025-08-25,有限会社ライズワン,,有限会社,広島県,広島市東区,若草町１８番２７号,,34,102,7320053,,,2025-08-25,清算の結了等,,,2015-10-05,1,,,,,ライズワン,0
1698,7240002039064,登記記録の閉鎖等,0,2025-08-27,2025-08-25,有限会社アイサカ工業,,有限会社,広島県,福山市,藤江町２６５０番地の３,,34,207,7200543,,,2025-08-25,清算の結了等,,,2015-10-05,1,,,,,アイサカコウギョウ,0
1706,7270005005283,登記記録の閉鎖等,0,2025-08-27,2025-08-26,特定非営利活動法人あいおらいと,,その他の設立登記法人,鳥取県,鳥取市,気高町浜村３４２番地,,31,201,6890331,,,2025-08-26,清算の結了等,,,2017-07-18,1,,,,,アイオライト,0
1728,7340001020304,登記記録の閉鎖等,0,2025-08-27,2025-08-18,株式会社薩摩きらら農園倶楽部,00110295,株式会社,鹿児島県,薩摩川内市,中郷町６４８５番地７,,46,215,8950072,,,2025-08-18,清算の結了等,,,2017-05-24,1,,,,,サツマキララノウエンクラブ,0
1730,7340003003174,登記記録の閉鎖等,0,2025-08-27,2025-08-18,ｈａｒｕｈａｎａ合同会社,,合同会社,鹿児島県,薩摩川内市,大小路町５５番１号,,46,215,8950076,,,2025-08-18,清算の結了等,,,2020-08-24,1,,,,,ハルハナ,0
1733,7370001047096,登記記録の閉鎖等,0,2025-08-27,2025-08-07,株式会社メディカルデータサービス,,株式会社,宮城県,宮城郡利府町,青葉台２丁目２番地１０７,,04,406,9810133,,,2025-08-07,清算の結了等,,,2021-05-17,1,,,,,メディカルデータサービス,0
1750,8010001121068,登記記録の閉鎖等,0,2025-08-27,2025-08-01,株式会社リアル・タウン・ジャパン,,株式会社,東京都,千代田区,富士見２丁目４番３号,,13,101,1020071,,,2025-08-01,清算の結了等,,,2015-10-05,1,,,,,リアルタウンジャパン,0
1758,8010001248679,登記記録の閉鎖等,0,2025-08-27,2025-08-01,株式会社大楽之野,,株式会社,東京都,中央区,東日本橋３丁目９番２サンクビル,,13,102,1030004,,,2025-08-01,清算の結了等,,,2024-10-02,1,,,,,ダイラクノヤ,0
1765,8010401087958,登記記録の閉鎖等,0,2025-08-27,2025-07-29,株式会社フルーティフライ,,株式会社,東京都,港区,麻布台１丁目９番１０号飯倉ＩＴビル７階,,13,103,1060041,,,2025-07-29,清算の結了等,,,2015-10-05,1,,,,,フルーティフライ,0
1771,8010602008829,登記記録の閉鎖等,0,2025-08-27,2025-08-25,有限会社大塚商店,00051653,有限会社,東京都,墨田区,向島５丁目４８番１２号,,13,107,1310033,,,2025-08-25,清算の結了等,,,2015-10-05,1,,,,,,0
1785,8011105011171,登記記録の閉鎖等,0,2025-08-27,2025-08-22,アイ・アドバイザリー税理士法人,,その他の設立登記法人,東京都,新宿区,天神町７番地１１,,13,104,1620808,,,2025-08-22,清算の結了等,,,2024-10-02,1,,,,,アイアドバイザリー,0
1787,8011201014111,登記記録の閉鎖等,0,2025-08-27,2025-08-18,株式会社プライム・インク,,株式会社,東京都,中野区,南台３丁目１２番１０－４０４号,,13,114,1640014,,,2025-08-18,清算の結了等,,,2015-10-05,1,,,,,,0
1788,8011202011628,登記記録の閉鎖等,0,2025-08-27,2025-08-15,有限会社タキニュースセンター,,有限会社,東京都,中野区,江原町２丁目２０番２０号,,13,114,1650023,,,2025-08-15,清算の結了等,,,2015-10-05,1,,,,,タキニュースセンター,0
1795,8011501019735,登記記録の閉鎖等,0,2025-08-27,2025-08-25,株式会社ＥＬＥＶＥＮ,,株式会社,東京都,北区,神谷１丁目３１番４号,,13,117,1150043,,,2025-08-25,清算の結了等,,,2015-10-05,1,,,,,,0
1805,8012401019296,登記記録の閉鎖等,0,2025-08-27,2025-08-25,株式会社ジェイガーデン,,株式会社,東京都,府中市,若松町３丁目１８番１号,,13,206,1830005,,,2025-08-25,清算の結了等,,,2015-10-05,1,,,,,ジェイガーデン,0
1806,8012402016177,登記記録の閉鎖等,0,2025-08-27,2025-08-22,有限会社五十嵐工業,,有限会社,東京都,武蔵野市,吉祥寺北町４丁目６番８号,,13,203,1800001,,,2025-08-22,清算の結了等,,,2015-10-05,1,,,,,イガラシコウギョウ,0
1815,8020002070404,登記記録の閉鎖等,0,2025-08-27,2025-08-07,有限会社内田組,,有限会社,神奈川県,横浜市鶴見区,東寺尾６丁目２４番２４─１０５号,,14,101,2300077,,,2025-08-07,清算の結了等,,,2015-10-05,1,,,,,,0
1816,8020003025035,登記記録の閉鎖等,0,2025-08-27,2025-08-08,Ｅｎｄｌｅｓｓ　Ｖｅｎｔｕｒｅｓ合同会社,,合同会社,神奈川県,横浜市西区,みなとみらい５丁目３番３－１９０８号,,14,103,2200012,,,2025-08-08,清算の結了等,,,2023-11-20,1,,,,,エンドレスベンチャー,0
1819,8021001024268,登記記録の閉鎖等,0,2025-08-27,2025-08-18,フジ技研株式会社,,株式会社,神奈川県,秦野市,渋沢３丁目２１番１１号,,14,211,2591322,,,2025-08-18,清算の結了等,,,2015-10-05,1,,,,,フジギケン,0
1820,8021001047888,登記記録の閉鎖等,0,2025-08-27,2025-08-06,株式会社薫風交易,,株式会社,神奈川県,平塚市,西真土３丁目２１番２１号,,14,203,2540019,,,2025-08-06,清算の結了等,,,2015-10-05,1,,,,,クンプウコウエキ,0
1827,8030001105952,登記記録の閉鎖等,0,2025-08-27,2025-08-21,株式会社レガーメ,,株式会社,埼玉県,吉川市,木売２丁目６番５号,,11,243,3420045,,,2025-08-21,清算の結了等,,,2015-10-05,1,,,,,レガーメ,0
1828,8030001112866,登記記録の閉鎖等,0,2025-08-27,2025-08-21,Ｌｉｎｅ　Ａｒｔ株式会社,,株式会社,埼玉県,さいたま市西区,西大宮４丁目６０番地２０,,11,101,3310078,,,2025-08-21,清算の結了等,,,2016-02-16,1,,,,,,0
1857,8070002021971,登記記録の閉鎖等,0,2025-08-27,2025-08-21,有限会社ＲＡＤ,,有限会社,群馬県,佐波郡玉村町,大字藤川３２番地４,,10,464,3701101,,,2025-08-21,清算の結了等,,,2015-10-05,1,,,,,アールエーディー,0
1860,8090002011731,登記記録の閉鎖等,0,2025-08-27,2025-08-21,有限会社長田莊,00068926,有限会社,山梨県,南都留郡忍野村,忍草２９４４番地,,19,424,4010511,,,2025-08-21,清算の結了等,,,2015-10-05,1,,,,,オサダソウ,0
1865,8120001056328,登記記録の閉鎖等,0,2025-08-27,2025-08-07,染川商事株式会社,,株式会社,大阪府,大阪市淀川区,十三元今里１丁目８番８号,,27,123,5320028,,,2025-08-07,清算の結了等,,,2015-10-05,1,,,,,ソメカワショウジ,0
1867,8120001157472,登記記録の閉鎖等,0,2025-08-27,2025-08-18,株式会社佐伯工業所,,株式会社,大阪府,大阪市浪速区,湊町１丁目４番３６－１２０４号,,27,111,5560017,,,2025-08-18,清算の結了等,,,2015-10-05,1,,,,,サエキコウギョウショ,0
1878,8120002031998,登記記録の閉鎖等,0,2025-08-27,2025-08-08,有限会社ナカガミ,,有限会社,大阪府,大阪市北区,中崎２丁目３番１９号,,27,127,5300016,,,2025-08-08,清算の結了等,,,2015-10-05,1,,,,,ナカガミ,0
1897,8130002022526,登記記録の閉鎖等,0,2025-08-27,2025-08-04,有限会社オーク,,有限会社,大阪府,茨木市,舟木町８番４－３０７号,,27,211,5670828,,,2025-08-04,清算の結了等,,,2015-10-05,1,,,,,オーク,0
1924,8180003000988,登記記録の閉鎖等,0,2025-08-27,2025-08-01,合資会社森治具工作所,,合資会社,愛知県,名古屋市昭和区,車田町２丁目２０７番地,,23,107,4660001,,,2025-08-01,清算の結了等,,,2015-10-05,1,,,,,モリヂグコウサクショ,0
1927,8190002007182,登記記録の閉鎖等,0,2025-08-27,2025-08-25,有限会社三重工業,,有限会社,三重県,鈴鹿市,池田町字櫛引１１１５番地の２,00075895,24,207,5130032,,,2025-08-25,清算の結了等,,,2015-10-05,1,,,,,ミエコウギョウ,0
1930,8200001005251,登記記録の閉鎖等,0,2025-08-27,2025-08-25,三田洞建設株式会社,,株式会社,岐阜県,岐阜市,三田洞５０番地,,21,201,5020004,,,2025-08-25,清算の結了等,,,2015-10-05,1,,,,,ミタホラケンセツ,0
1932,8220001005423,登記記録の閉鎖等,0,2025-08-27,2025-08-26,株式会社エムズエージェント,,株式会社,石川県,白山市,八ツ矢町４３９番地２,,17,210,9240882,,,2025-08-26,清算の結了等,,,2015-10-05,1,,,,,エムズエージェント,0
1953,8300005004933,登記記録の閉鎖等,0,2025-08-27,2025-08-26,本明院,,その他の設立登記法人,佐賀県,神埼郡吉野ヶ里町,吉田６７２番地,,41,327,8420031,,,2025-08-26,清算の結了等,,,2015-10-05,1,,,,,,0
1959,8340003003628,登記記録の閉鎖等,0,2025-08-27,2025-08-20,Ｇｏｏｄ　Ｖｉｅｗ合同会社,,合同会社,鹿児島県,南九州市,川辺町永田１４７６番地１,,46,223,8970222,,,2025-08-20,清算の結了等,,,2021-11-15,1,,,,,グッドビュー,0
1960,8350001008108,登記記録の閉鎖等,0,2025-08-27,2025-08-21,株式会社田之上薬品,,株式会社,宮崎県,都城市,郡元１丁目３番地２０,,45,202,8850018,,,2025-08-21,清算の結了等,,,2015-10-05,1,,,,,タノウエヤクヒン,0
1972,8380002035899,登記記録の閉鎖等,0,2025-08-27,2025-08-06,有限会社開成環境エンジニアリング,,有限会社,福島県,いわき市,好間町上好間字南町田３０番地,,07,204,9701153,,,2025-08-06,清算の結了等,,,2015-10-05,1,,,,,カイセイカンキョウエンジニアリング,0
1978,8430001038071,登記記録の閉鎖等,0,2025-08-27,2025-08-05,株式会社シマセイマシナリー,,株式会社,北海道,札幌市東区,伏古十条３丁目９番１号,,01,103,0070870,,,2025-08-05,清算の結了等,,,2015-10-05,1,,,,,シマセイマシナリー,0
1989,9010001146353,登記記録の閉鎖等,0,2025-08-27,2025-08-25,株式会社ドラン,,株式会社,東京都,北区,浮間３丁目１０番６号,,13,117,1150051,,,2025-08-25,清算の結了等,,,2015-10-05,1,,,,,ドラン,0
1994,9010001235825,登記記録の閉鎖等,0,2025-08-27,2025-08-01,株式会社イトーヨーカドーネットスーパー,,株式会社,東京都,千代田区,二番町８番地８,,13,101,1020084,,,2025-08-01,清算の結了等,,,2023-06-05,1,,,,,イトーヨーカドーネットスーパー,0
1996,9010001238142,登記記録の閉鎖等,0,2025-08-27,2025-08-21,ＧＥＮＳＥＮ　ＨＯＬＤＩＮＧＳ株式会社,,株式会社,東京都,中央区,銀座７丁目１６番２１号,,13,102,1040061,,,2025-08-21,合併による解散等,9010001199095,令和７年８月１日京都市下京区五条通河原町西入本覚寺前町８３０湯快リゾート株式会社（9010001199095）に合併し解散,2023-09-05,1,,,,,ゲンセンホールディングス,0
2016,9010601047653,登記記録の閉鎖等,0,2025-08-27,2025-08-21,芯誠貿易株式会社,,株式会社,東京都,江東区,豊洲６丁目４－３４,,13,108,1350061,,,2025-08-21,清算の結了等,,,2015-10-05,1,,,,,シンセイボウエキ,0
2046,9011201024448,登記記録の閉鎖等,0,2025-08-27,2025-08-18,明杰株式会社,,株式会社,東京都,中野区,江古田４丁目２５番３号,,13,114,1650022,,,2025-08-18,清算の結了等,,,2023-03-01,1,,,,,メイケツ,0
2066,9020001041727,登記記録の閉鎖等,0,2025-08-27,2025-08-12,株式会社ホワイトパレス,,株式会社,神奈川県,横浜市港北区,綱島西１丁目２番１号,,14,109,2230053,,,2025-08-12,清算の結了等,,,2015-10-05,1,,,,,ホワイトパレス,0
2077,9020002036585,登記記録の閉鎖等,0,2025-08-27,2025-08-12,有限会社ワイネス,,有限会社,神奈川県,横浜市港北区,菊名６丁目２４番５号,,14,109,2220011,,,2025-08-12,清算の結了等,,,2015-10-05,1,,,,,ワイネス,0
2085,9021003012071,登記記録の閉鎖等,0,2025-08-27,2025-08-19,もちづき農園合同会社,,合同会社,神奈川県,綾瀬市,吉岡２３２２番地,,14,218,2521124,,,2025-08-19,清算の結了等,,,2022-09-07,1,,,,,モチヅキノウエン,0
2097,9040002011941,登記記録の閉鎖等,0,2025-08-27,2025-07-31,有限会社山三,,有限会社,千葉県,千葉市花見川区,幕張町４丁目８２２番地,,12,102,2620032,,,2025-07-31,清算の結了等,,,2015-10-05,1,,,,,ヤマサン,0
2107,9060005005963,登記記録の閉鎖等,0,2025-08-27,2025-08-20,とちぎ未来ロジスティクス協同組合,,その他の設立登記法人,栃木県,栃木市,箱森町４１番３２号,,09,203,3280075,,,2025-08-20,清算の結了等,,,2015-10-05,1,,,,,トチギミライロジスティクス,0
2108,9060005008933,登記記録の閉鎖等,0,2025-08-27,2025-08-20,一般社団法人ヘルスフードマイスター協会,,その他の設立登記法人,栃木県,宇都宮市,陽東２丁目１６番１８号,,09,201,3210904,,,2025-08-20,清算の結了等,,,2015-10-05,1,,,,,ヘルスフードマイスターキョウカイ,0
2109,9080001001270,登記記録の閉鎖等,0,2025-08-27,2025-08-25,久保田工業株式会社,,株式会社,静岡県,静岡市葵区,大岩４丁目１番３２号,,22,101,4200886,,,2025-08-25,清算の結了等,,,2015-10-05,1,,,,,クボタコウギョウ,0
2110,9080101021739,登記記録の閉鎖等,0,2025-08-27,2025-08-25,株式会社ＤＡＩＫＯＫＵ,,株式会社,静岡県,沼津市,今沢３８番地の２,,22,203,4100875,,,2025-08-25,清算の結了等,,,2020-04-07,1,,,,,ダイコク,0
2127,9110001021901,登記記録の閉鎖等,0,2025-08-27,2025-08-08,株式会社童,,株式会社,新潟県,糸魚川市,本町７番１号,,15,216,9410068,,,2025-08-08,清算の結了等,,,2015-10-05,1,,,,,ワラベ,0
2129,9110002014961,登記記録の閉鎖等,0,2025-08-27,2025-08-07,有限会社河崎工業所,,有限会社,新潟県,新発田市,佐々木字地利目木２８１８番地３,,15,206,9570082,,,2025-08-07,清算の結了等,,,2015-10-05,1,,,,,カワサキコウギョウショ,0
2143,9120002076282,登記記録の閉鎖等,0,2025-08-27,2025-08-18,有限会社三徳社,,有限会社,大阪府,寝屋川市,池田南町１番３号,,27,215,5720034,,,2025-08-18,清算の結了等,,,2015-10-05,1,,,,,サントクシャ,0
2145,9120101025058,登記記録の閉鎖等,0,2025-08-27,2025-08-12,大浦産業株式会社,,株式会社,大阪府,松原市,天美南６丁目８番２８号,,27,217,5800033,,,2025-08-12,清算の結了等,,,2015-10-05,1,,,,,オオウラサンギョウ,0
2171,9150002007656,登記記録の閉鎖等,0,2025-08-27,2025-08-25,株式会社西平観光晃車,,株式会社,奈良県,橿原市,小槻町２７７番地の２８,,29,205,6340846,,,2025-08-25,清算の結了等,,,2015-10-05,1,,,,,ニシヒラカンコウコウシャ,0
2174,9170002010229,登記記録の閉鎖等,0,2025-08-27,2025-08-25,有限会社丸正橋本商店,,有限会社,和歌山県,御坊市,名田町楠井２４０２番地の１,,30,205,6440021,,,2025-08-25,清算の結了等,,,2015-10-05,1,,,,,マルショウハシモトショウテン,0
2180,9180001142402,登記記録の閉鎖等,0,2025-08-27,2025-08-22,株式会社サンクトレフル,,株式会社,愛知県,名古屋市中川区,畑田町３丁目１番地ＧＩＭＵＣＯ・Ａ棟,,23,110,4540860,,,2025-08-22,合併による解散等,2011101039899,令和７年８月１日東京都新宿区西新宿六丁目１６番６号新宿タツミビル７階株式会社キャトルプラン（2011101039899）に合併し解散,2020-08-14,1,,,,,サンクトレフル,0
2212,9260002032263,登記記録の閉鎖等,0,2025-08-27,2025-08-07,有限会社辰巳グループ,,有限会社,岡山県,備前市,西片上８番地,,33,211,7050021,,,2025-08-07,清算の結了等,,,2015-10-05,1,,,,,タツミグループ,0
2238,9340002014435,登記記録の閉鎖等,0,2025-08-27,2025-08-19,有限会社シェルパ,,有限会社,鹿児島県,伊佐市,菱刈川北２４７７番地３,,46,224,8952708,,,2025-08-19,清算の結了等,,,2015-10-05,1,,,,,シェルパ,0
2243,9380002027193,登記記録の閉鎖等,0,2025-08-27,2025-08-06,有限会社レフティモールド設計,,有限会社,福島県,いわき市,仁井田町寺前１６番地,,07,204,9748252,,,2025-08-06,清算の結了等,,,2015-10-05,1,,,,,レフティモールドセッケイ,0
2246,9390002000323,登記記録の閉鎖等,0,2025-08-27,2025-08-21,有限会社伊藤土建,,有限会社,山形県,山形市,天神町１３９６番地,,06,201,9900801,,,2025-08-21,清算の結了等,,,2015-10-05,1,,,,,イトウドケン,0
2248,9400002000073,登記記録の閉鎖等,0,2025-08-27,2025-08-06,有限会社会津青果,,有限会社,岩手県,盛岡市,南仙北３丁目６番３５号,,03,201,0200863,,,2025-08-06,清算の結了等,,,2015-10-05,1,,,,,アイヅセイカ,0
2249,9420005002585,登記記録の閉鎖等,0,2025-08-27,2025-08-12,はちのへ共通商品券協同組合,,その他の設立登記法人,青森県,八戸市,大字堀端町２番地３,,02,203,0310076,,,2025-08-12,清算の結了等,,,2015-10-05,1,,,,,ハチノヘキョウツウショウヒンケン,0
2251,9430001048004,登記記録の閉鎖等,0,2025-08-27,2025-08-25,株式会社Ｎ３プランニング,,株式会社,北海道,札幌市東区,北十二条東７丁目１番１５号セレスタ札幌,,01,103,0650012,,,2025-08-25,清算の結了等,,,2015-10-05,1,,,,,エヌサンプランニング,0
2258,9430002020812,登記記録の閉鎖等,0,2025-08-27,2025-08-04,有限会社山本燃料電器店,,有限会社,北海道,札幌市中央区,南十七条西１５丁目１番３４号,,01,101,0640917,,,2025-08-04,清算の結了等,,,2015-10-05,1,,,,,ヤマモトネンリョウデンキテン,0
2260,9430002039885,登記記録の閉鎖等,0,2025-08-27,2025-08-07,有限会社マーチ調剤薬局,,有限会社,北海道,札幌市北区,あいの里四条１丁目２番１６号,,01,102,0028074,,,2025-08-07,清算の結了等,,,2015-10-05,1,,,,,マーチチョウザイヤッキョク,0
