sequenceNumber,corporateNumber,process,correct,updateDate,changeDate,name,nameImageId,kind,prefectureName,cityName,streetNumber,addressImageId,prefectureCode,cityCode,postCode,addressOutside,addressOutsideImageId,closeDate,closeCause,successorCorporateNumber,changeCause,assignmentDate,latest,enName,enPrefectureName,enCityName,enAddressOutside,furigana,hihyoji
5,1010001144819,登記記録の閉鎖等,0,2025-03-18,2025-02-26,ぷらんにんぐ・けい株式会社,,株式会社,東京都,中央区,銀座１丁目１５番７号ＭＡＣ銀座ビル３階,,13,102,1040061,,,2025-02-26,清算の結了等,,,2015-10-05,1,,,,,プランニングケイ,0
12,1010002002975,登記記録の閉鎖等,0,2025-03-18,2025-03-04,有限会社イーグルソフトウェア,,有限会社,東京都,千代田区,外神田５丁目４番６号,,13,101,1010021,,,2025-03-04,清算の結了等,,,2015-10-05,1,,,,,イーグルソフトウェア,0
18,1010403013010,登記記録の閉鎖等,0,2025-03-18,2025-02-28,合同会社Ｅａｓｔ　Ｇｉｎｚａ　Ｉｎｖｅｓｔｍｅｎｔ,,合同会社,東京都,港区,元赤坂１丁目１番７号,,13,103,1070051,,,2025-02-28,清算の結了等,,,2015-10-05,1,,,,,イーストギンザインベストメント,0
19,1010403015130,登記記録の閉鎖等,0,2025-03-18,2025-02-28,合同会社Ｉｉｋｕｒａ,,合同会社,東京都,港区,元赤坂１丁目１番７号,,13,103,1070051,,,2025-02-28,清算の結了等,,,2016-08-03,1,,,,,イイクラ,0
54,1011501027802,登記記録の閉鎖等,0,2025-03-18,2025-03-11,グリーン燃料開発株式会社,,株式会社,東京都,世田谷区,三軒茶屋２丁目６番１０号,,13,112,1540024,,,2025-03-11,清算の結了等,,,2022-03-09,1,,,,,グリーンネンリョウカイハツ,0
66,1012401024963,登記記録の閉鎖等,0,2025-03-18,2025-03-11,株式会社岩月,,株式会社,東京都,西東京市,南町３丁目１９番２４号,,13,229,1880012,,,2025-03-11,合併による解散等,1012702010233,令和７年３月１日東京都西東京市南町三丁目１９番２４号株式会社リンクス（1012702010233）に合併し解散,2015-10-05,1,,,,,イワツキ,0
79,1021001044520,登記記録の閉鎖等,0,2025-03-18,2025-03-13,株式会社生科研,,株式会社,神奈川県,逗子市,沼間１丁目１９番８号,,14,208,2490004,,,2025-03-13,清算の結了等,,,2015-10-05,1,,,,,セイカケン,0
85,1030001046344,登記記録の閉鎖等,0,2025-03-18,2025-03-14,株式会社リバティ,,株式会社,埼玉県,新座市,野火止４丁目５番４１号,,11,230,3520011,,,2025-03-14,清算の結了等,,,2015-10-05,1,,,,,リバティ,0
103,1030003011973,登記記録の閉鎖等,0,2025-03-18,2025-03-14,合同会社ドリームラボ,,合同会社,埼玉県,さいたま市浦和区,上木崎５丁目６番１２号,,11,107,3300071,,,2025-03-14,清算の結了等,,,2018-06-01,1,,,,,ドリームラボ,0
104,1030005021558,登記記録の閉鎖等,0,2025-03-18,2025-03-12,エフコラム一般社団法人,,その他の設立登記法人,埼玉県,行田市,大字埼玉５３００番地,,11,206,3610025,,,2025-03-12,清算の結了等,,,2024-02-21,1,,,,,エフコラム,0
122,1060003004776,登記記録の閉鎖等,0,2025-03-18,2025-03-12,合同会社黒磯ＢＡＳＥ,,合同会社,栃木県,那須塩原市,洞島２５７番地１９,,09,213,3250106,,,2025-03-12,清算の結了等,,,2023-10-24,1,,,,,クロイソベース,0
129,1080402004656,登記記録の閉鎖等,0,2025-03-18,2025-03-11,有限会社大洋興産社,,有限会社,静岡県,浜松市中央区,高丘東２丁目１２番５５号,,22,138,4338117,,,2025-03-11,清算の結了等,,,2015-10-05,1,,,,,タイヨウコウサンシャ,0
139,1120001257790,登記記録の閉鎖等,0,2025-03-18,2025-03-14,ＩＮＯ　ＢＡＫＥ株式会社,,株式会社,大阪府,大阪市北区,南森町２丁目４番１２号,,27,127,5300054,,,2025-03-14,清算の結了等,,,2023-09-05,1,,,,,イノベイク,0
153,1120005005601,登記記録の閉鎖等,0,2025-03-18,2025-03-17,医療法人北新会藤原耳鼻咽喉科医院,,その他の設立登記法人,大阪府,大阪市大正区,三軒家東４丁目１０番３１号,,27,108,5510002,,,2025-03-17,清算の結了等,,,2015-10-05,1,,,,,ホクシンカイフジワラジビインコウカイイン,0
168,1140001033868,登記記録の閉鎖等,0,2025-03-18,2025-03-12,株式会社カラカル,,株式会社,兵庫県,神戸市灘区,篠原本町１丁目３番１２号,,28,102,6570067,,,2025-03-12,清算の結了等,,,2015-10-05,1,,,,,カラカル,0
189,1180302019620,登記記録の閉鎖等,0,2025-03-18,2025-03-11,有限会社ヒカリ,,有限会社,愛知県,知立市,新富１丁目７番地,,23,225,4720047,,,2025-03-11,清算の結了等,,,2015-10-05,1,,,,,ヒカリ,0
196,1200003000728,登記記録の閉鎖等,0,2025-03-18,2025-03-13,合資会社丸栄商店,,合資会社,岐阜県,岐阜市,元町２丁目５番地,,21,201,5008185,,,2025-03-13,清算の結了等,,,2015-10-05,1,,,,,マルエイショウテン,0
223,1370001021825,登記記録の閉鎖等,0,2025-03-18,2025-03-07,株式会社オクダ・エンタープライズ,,株式会社,宮城県,仙台市青葉区,中山１丁目２２番１１号,,04,101,9810952,,,2025-03-07,清算の結了等,,,2015-10-05,1,,,,,オクダエンタープライズ,0
224,1370001039181,登記記録の閉鎖等,0,2025-03-18,2025-03-06,株式会社五大,,株式会社,宮城県,宮城郡松島町,松島字普賢堂２３番地,,04,401,9810213,,,2025-03-06,清算の結了等,,,2016-02-12,1,,,,,ゴダイ,0
234,1430001034300,登記記録の閉鎖等,0,2025-03-18,2025-03-12,株式会社大新,,株式会社,北海道,札幌市中央区,南七条西１５丁目２番２１号,,01,101,0640807,,,2025-03-12,清算の結了等,,,2015-10-05,1,,,,,ダイシン,0
235,1430001048226,登記記録の閉鎖等,0,2025-03-18,2025-03-11,株式会社木川電機商会,,株式会社,北海道,樺戸郡新十津川町,字中央３４８番地１８,,01,432,0731103,,,2025-03-11,清算の結了等,,,2015-10-05,1,,,,,キカワデンキショウカイ,0
237,1430002054248,登記記録の閉鎖等,0,2025-03-18,2025-03-10,協和産業有限会社,,有限会社,北海道,小樽市,色内３丁目８番２０号,,01,203,0470031,,,2025-03-10,清算の結了等,,,2015-10-05,1,,,,,キョウワサンギョウ,0
240,1430005012558,登記記録の閉鎖等,0,2025-03-18,2025-03-17,特定非営利活動法人高齢を逆手にとる会,,その他の設立登記法人,北海道,札幌市中央区,南七条西１７丁目１番１２号,,01,101,0640807,,,2025-03-17,清算の結了等,,,2015-10-05,1,,,,,コウレイヲサカテニトルカイ,0
245,1480002008777,登記記録の閉鎖等,0,2025-03-18,2025-03-05,有限会社しあわせ,,有限会社,徳島県,鳴門市,撫養町立岩字六枚１７７番地,,36,202,7720017,,,2025-03-05,合併による解散等,6480002007543,令和７年３月１日徳島県鳴門市撫養町立岩字六枚１７７番地株式会社ソリシターコンサルティング（6480002007543）に合併し解散,2015-10-05,1,,,,,シアワセ,0
246,1500003001258,登記記録の閉鎖等,0,2025-03-18,2025-03-10,合同会社ブルーム,,合同会社,愛媛県,今治市,片山３丁目９番４号リーベ片山１０１号,,38,202,7940063,,,2025-03-10,清算の結了等,,,2015-10-05,1,,,,,ブルーム,0
250,2010001094988,登記記録の閉鎖等,0,2025-03-18,2025-03-03,株式会社トーコーサービス,,株式会社,東京都,中央区,新川２丁目１番５号,,13,102,1040033,,,2025-03-03,清算の結了等,,,2015-10-05,1,,,,,トーコーサービス,0
257,2010003042160,登記記録の閉鎖等,0,2025-03-18,2025-03-04,合同会社ジャパンレジデンス１,,合同会社,東京都,千代田区,内神田２丁目２番６号５階あすな会計事務所内,,13,101,1010047,,,2025-03-04,清算の結了等,,,2023-11-15,1,,,,,ジャパンレジデンスワン,0
260,2010102002684,登記記録の閉鎖等,0,2025-03-18,2025-03-11,有限会社小林鉄工,,有限会社,東京都,八王子市,台町４丁目７番６号,,13,201,1930931,,,2025-03-11,清算の結了等,,,2015-10-05,1,,,,,コバヤシテッコウ,0
305,2013401006604,登記記録の閉鎖等,0,2025-03-18,2025-03-17,株式会社Ｂｌｕｅ　Ｌｉｂｅｒｔｙ,,株式会社,東京都,多摩市,一ノ宮３丁目７番地の１３カサ・ロサ聖蹟２１８,,13,224,2060002,,,2025-03-17,清算の結了等,,,2015-10-05,1,,,,,ブルーリバティー,0
316,2020002040536,登記記録の閉鎖等,0,2025-03-18,2025-03-10,有限会社森工業,,有限会社,神奈川県,横浜市緑区,十日市場町８４５番地６,,14,113,2260025,,,2025-03-10,清算の結了等,,,2015-10-05,1,,,,,モリコウギョウ,0
317,2020002088393,登記記録の閉鎖等,0,2025-03-18,2025-03-03,有限会社ヨコヤマ商事,,有限会社,神奈川県,川崎市宮前区,土橋６丁目３番地２４,,14,136,2160005,,,2025-03-03,清算の結了等,,,2015-10-05,1,,,,,,0
335,2030002003780,登記記録の閉鎖等,0,2025-03-18,2025-03-13,有限会社川崎造花,,有限会社,埼玉県,さいたま市北区,日進町３丁目３４４番地１,,11,102,3310823,,,2025-03-13,清算の結了等,,,2015-10-05,1,,,,,,0
346,2040001092717,登記記録の閉鎖等,0,2025-03-18,2025-03-07,松栄建材株式会社,,株式会社,千葉県,千葉市花見川区,武石町１丁目１３９０番地１,,12,102,2620031,,,2025-03-07,清算の結了等,,,2015-11-12,1,,,,,,0
357,2060001006435,登記記録の閉鎖等,0,2025-03-18,2025-03-10,株式会社マリノフーズ,,株式会社,栃木県,宇都宮市,ゆいの杜５丁目１０番４４号,,09,201,3213226,,,2025-03-10,清算の結了等,,,2015-10-05,1,,,,,マリノフーズ,0
358,2070001015575,登記記録の閉鎖等,0,2025-03-18,2025-03-10,株式会社アルバ,,株式会社,群馬県,桐生市,広沢町５丁目１７５５番地４,,10,203,3760013,,,2025-03-10,清算の結了等,,,2015-10-05,1,,,,,アルバ,0
379,2120003010065,登記記録の閉鎖等,0,2025-03-18,2025-03-14,合同会社フィールド企画,,合同会社,大阪府,大阪市中央区,東心斎橋１丁目５番５号,,27,128,5420083,,,2025-03-14,清算の結了等,,,2015-10-05,1,,,,,フィールドキカク,0
398,2140001112885,登記記録の閉鎖等,0,2025-03-18,2025-03-13,Ｉ＆Ｈ株式会社,,株式会社,兵庫県,芦屋市,大桝町１番１８号,,28,206,6590066,,,2025-03-13,合併による解散等,7180301016951,令和７年３月１日愛知県安城市三河安城町一丁目８番地４株式会社スギ薬局（7180301016951）に合併し解散,2019-03-06,1,,,,,アイアンドエイチ,0
408,2170002000153,登記記録の閉鎖等,0,2025-03-18,2025-03-17,有限会社明間石油,,有限会社,和歌山県,和歌山市,島橋北ノ丁４番３号,,30,201,6408416,,,2025-03-17,清算の結了等,,,2015-10-05,1,,,,,アケマセキユ,0
410,2180001127715,登記記録の閉鎖等,0,2025-03-18,2025-03-11,株式会社石羽興業,,株式会社,愛知県,名古屋市中区,丸の内２丁目１８番１１号,,23,106,4600002,,,2025-03-11,合併による解散等,1020001027460,令和７年３月１日横浜市中区山下町７４番地１株式会社大和地所（1020001027460）に合併し解散,2017-05-11,1,,,,,イシバコウギョウ,0
411,2180001128003,登記記録の閉鎖等,0,2025-03-18,2025-03-11,株式会社ＩＢＣ,,株式会社,愛知県,名古屋市中区,丸の内２丁目１８番１１号,,23,106,4600002,,,2025-03-11,合併による解散等,1020001027460,令和７年３月１日横浜市中区山下町７４番地１株式会社大和地所（1020001027460）に合併し解散,2017-05-29,1,,,,,アイビーシー,0
426,2240001055546,登記記録の閉鎖等,0,2025-03-18,2025-03-17,株式会社ワキタクリエイト,,株式会社,広島県,広島市西区,井口台２丁目２３－３７－４０３,,34,104,7330844,,,2025-03-17,清算の結了等,,,2020-01-16,1,,,,,ワキタクリエイト,0
432,2290001104975,登記記録の閉鎖等,0,2025-03-18,2025-03-03,株式会社みんなの風,,株式会社,福岡県,糟屋郡志免町,別府１丁目２２－２７,,40,343,8112205,,,2025-03-03,合併による解散等,6290005006223,令和７年３月１日福岡県糟屋郡志免町別府一丁目２２番２７号株式会社オフィスツーワン（6290005006223）に合併し解散,2024-03-06,1,,,,,ミンナノカゼ,0
456,2370202003794,登記記録の閉鎖等,0,2025-03-18,2025-03-07,有限会社早坂薬品,,有限会社,宮城県,加美郡加美町,字南町１４６番地の１,,04,445,9814241,,,2025-03-07,清算の結了等,,,2015-10-05,1,,,,,ハヤサカヤクヒン,0
457,2370602002082,登記記録の閉鎖等,0,2025-03-18,2025-03-10,有限会社渡辺商事,,有限会社,宮城県,宮城郡利府町,赤沼字中倉５１番地の５,,04,406,9810101,,,2025-03-10,清算の結了等,,,2015-10-05,1,,,,,ワタナベショウジ,0
474,2500005007649,登記記録の閉鎖等,0,2025-03-18,2025-03-13,特定非営利活動法人輝け上浦,,その他の設立登記法人,愛媛県,今治市,上浦町井口５７９２番地１,,38,202,7941402,,,2025-03-13,清算の結了等,,,2015-10-05,1,,,,,カガヤケカミウラ,0
493,3010005017721,登記記録の閉鎖等,0,2025-03-18,2025-03-12,特定非営利活動法人集団日本舞踊２１,,その他の設立登記法人,東京都,世田谷区,北沢２丁目３９番１３号,,13,112,1550031,,,2025-03-12,清算の結了等,,,2015-10-05,1,,,,,シュウダンニホンブヨウニジュウイチ,0
496,3010005030055,登記記録の閉鎖等,0,2025-03-18,2025-03-14,一般社団法人ポルックス１６５,,その他の設立登記法人,東京都,中央区,日本橋１丁目４番１号,,13,102,1030027,,,2025-03-14,清算の結了等,,,2019-04-17,1,,,,,ポルックスイチロクゴ,0
517,3010601020145,登記記録の閉鎖等,0,2025-03-18,2025-03-13,株式会社チェリー,,株式会社,東京都,墨田区,向島２丁目１１番８号,,13,107,1310033,,,2025-03-13,合併による解散等,2010601016755,令和７年２月２６日東京都墨田区向島二丁目１１番８号株式会社ロジック（2010601016755）に合併し解散,2015-10-05,1,,,,,チェリー,0
524,3010801033351,登記記録の閉鎖等,0,2025-03-18,2025-03-04,株式会社Ｍｏｆｕ　Ｍｏｎｓｔｅｒ,,株式会社,東京都,大田区,池上３丁目３２番２０－１０３号,,13,111,1460082,,,2025-03-04,清算の結了等,,,2022-10-13,1,,,,,モフモンスター,0
565,3021001051531,登記記録の閉鎖等,0,2025-03-18,2025-03-17,株式会社イエローツリー,,株式会社,神奈川県,相模原市中央区,相模原３丁目８番２５号第３ＪＳビル７０１,,14,152,2520231,,,2025-03-17,合併による解散等,2021001012625,令和７年３月１日神奈川県相模原市中央区相模原三丁目８番２５号第３ＪＳビル７０１株式会社昭和メディカ・ジャパン（2021001012625）に合併し解散,2015-10-05,1,,,,,イエローツリー,0
572,3030001003624,登記記録の閉鎖等,0,2025-03-18,2025-03-14,株式会社坂上工務店,,株式会社,埼玉県,さいたま市北区,植竹町１丁目７８８番地,,11,102,3310813,,,2025-03-14,清算の結了等,,,2015-10-05,1,,,,,サカガミコウムテン,0
577,3030002087278,登記記録の閉鎖等,0,2025-03-18,2025-03-12,有限会社ワイケイクラフト,,有限会社,埼玉県,さいたま市見沼区,春岡１丁目３３番地８,,11,104,3370008,,,2025-03-12,清算の結了等,,,2015-10-05,1,,,,,ワイケイクラフト,0
580,3040001063238,登記記録の閉鎖等,0,2025-03-18,2025-03-06,コアオートモビル株式会社,,株式会社,千葉県,銚子市,松岸町４丁目７９２番地の３,,12,202,2880836,,,2025-03-06,清算の結了等,,,2015-10-05,1,,,,,コアオートモビル,0
604,3080402016765,登記記録の閉鎖等,0,2025-03-18,2025-03-11,有限会社テクノオーエン,,有限会社,静岡県,浜松市浜名区,細江町三和２６６番地の１,,22,139,4311303,,,2025-03-11,清算の結了等,,,2015-10-05,1,,,,,テクノオーエン,0
628,3130001032646,登記記録の閉鎖等,0,2025-03-18,2025-03-14,株式会社サイビック,,株式会社,京都府,宇治市,五ケ庄福角３６番地の９,,26,204,6110011,,,2025-03-14,清算の結了等,,,2015-10-05,1,,,,,サイビック,0
631,3130001060291,登記記録の閉鎖等,0,2025-03-18,2025-03-10,日本ＺＨＬ株式会社,,株式会社,兵庫県,神戸市兵庫区,梅元町１－１８,,28,105,6520003,,,2025-03-10,清算の結了等,,,2017-08-08,1,,,,,ニホンゼットエイチエル,0
656,3190001002206,登記記録の閉鎖等,0,2025-03-18,2025-03-14,株式会社トミテック,,株式会社,三重県,津市,美杉町竹原１７２番地の１６,,24,201,5153201,,,2025-03-14,清算の結了等,,,2015-10-05,1,,,,,トミテック,0
668,3260001037260,登記記録の閉鎖等,0,2025-03-18,2025-03-13,株式会社医食同源社,,株式会社,岡山県,加賀郡吉備中央町,豊岡上３１８番地,,33,681,7092664,,,2025-03-13,清算の結了等,,,2022-09-22,1,,,,,イショクドウゲンシャ,0
672,3290001058948,登記記録の閉鎖等,0,2025-03-18,2025-02-28,株式会社帰信,,株式会社,福岡県,柳川市,有明町２５３５番地２２,,40,207,8320054,,,2025-02-28,清算の結了等,,,2015-10-05,1,,,,,キシン,0
684,3320002018823,登記記録の閉鎖等,0,2025-03-18,2025-03-14,有限会社さかもと製材,,有限会社,大分県,日田市,大字小迫５１８番地の１,,44,204,8770000,,,2025-03-14,清算の結了等,,,2015-10-05,1,,,,,サカモトセイザイ,0
688,3340002017055,登記記録の閉鎖等,0,2025-03-18,2025-03-10,有限会社福山電工,,有限会社,鹿児島県,薩摩川内市,田海町１１番地３８,,46,215,8950071,,,2025-03-10,清算の結了等,,,2015-10-05,1,,,,,フクヤマデンコウ,0
726,4010403016340,登記記録の閉鎖等,0,2025-03-18,2025-02-26,武蔵合同会社,,合同会社,東京都,港区,南青山２丁目２番１５号ウィン青山９４２,,13,103,1070062,,,2025-02-26,清算の結了等,,,2017-03-27,1,,,,,ムサシ,0
737,4010801019184,登記記録の閉鎖等,0,2025-03-18,2025-03-12,ミンバイ石油株式会社,,株式会社,東京都,大田区,平和島５丁目２番２８号,,13,111,1430006,,,2025-03-12,合併による解散等,8020001041232,令和７年２月２３日横浜市中区扇町四丁目１２番１号株式会社横浜米油（8020001041232）に合併し解散,2015-10-05,1,,,,,ミンバイセキユ,0
740,4010802005621,登記記録の閉鎖等,0,2025-03-18,2025-03-06,有限会社五葉精工,,有限会社,東京都,大田区,西六郷１丁目２４番１号,,13,111,1440056,,,2025-03-06,清算の結了等,,,2015-10-05,1,,,,,ゴヨウセイコウ,0
742,4010901051104,登記記録の閉鎖等,0,2025-03-18,2025-03-13,株式会社ＭＥＤＩＡ　ＨＡＣＫ,,株式会社,東京都,世田谷区,松原４丁目１１番１０－４０９号,,13,112,1560043,,,2025-03-13,清算の結了等,,,2022-06-23,1,,,,,メディアハック,0
761,4011602023020,登記記録の閉鎖等,0,2025-03-18,2025-03-07,有限会社明興シーリング,,有限会社,東京都,練馬区,早宮４丁目２８番７号,,13,120,1790085,,,2025-03-07,清算の結了等,,,2015-10-05,1,,,,,,0
768,4020001078848,登記記録の閉鎖等,0,2025-03-18,2025-03-03,株式会社プロテック,,株式会社,神奈川県,川崎市川崎区,日ノ出２丁目９番７号臨海ビル三階,,14,131,2100824,,,2025-03-03,清算の結了等,,,2015-10-05,1,,,,,プロテック,0
806,4040005006976,登記記録の閉鎖等,0,2025-03-18,2025-03-03,日本オーストリッチ事業協同組合,,その他の設立登記法人,千葉県,印旛郡栄町,安食台２丁目２７番２０号,,12,329,2701515,,,2025-03-03,清算の結了等,,,2015-10-05,1,,,,,ニホンオーストリッチ,0
849,4122003000671,登記記録の閉鎖等,0,2025-03-18,2025-03-12,合同会社殖産企画,,合同会社,大阪府,四條畷市,大字下田原１２５２－１,,27,229,5750012,,,2025-03-12,清算の結了等,,,2015-10-05,1,,,,,ショクサンキカク,0
917,4410002012072,登記記録の閉鎖等,0,2025-03-18,2025-03-12,有限会社ニュークロ,,有限会社,秋田県,大仙市,大曲黒瀬町１０番１６号,,05,212,0140023,,,2025-03-12,清算の結了等,,,2015-10-05,1,,,,,ニュークロ,0
931,4480001009311,登記記録の閉鎖等,0,2025-03-18,2025-03-17,株式会社ＨＡＬＵ,,株式会社,徳島県,徳島市,紺屋町１３番地１,,36,201,7700918,,,2025-03-17,清算の結了等,,,2015-10-05,1,,,,,ハル,0
938,5010001215483,登記記録の閉鎖等,0,2025-03-18,2025-03-07,ＪＷＤホールディングス３株式会社,,株式会社,東京都,千代田区,霞が関３丁目２番５号,,13,101,1000013,,,2025-03-07,合併による解散等,3010001221541,令和７年３月７日東京都千代田区富士見二丁目１０番２号インフロニア・ホールディングス株式会社（3010001221541）に合併し解散,2021-01-29,1,,,,,ジェイダブリューディーホールディングススリー,0
987,5011602010752,登記記録の閉鎖等,0,2025-03-18,2025-03-07,有限会社ライフアウトリガー,,有限会社,東京都,練馬区,富士見台４丁目２０番１１号,,13,120,1770034,,,2025-03-07,清算の結了等,,,2015-10-05,1,,,,,ライフアウトリガー,0
1000,5020001013523,登記記録の閉鎖等,0,2025-03-18,2025-03-10,株式会社日本ビルダー環境設計研究所,,株式会社,神奈川県,横浜市南区,平楽１４８番地の３,,14,105,2320035,,,2025-03-10,清算の結了等,,,2015-10-05,1,,,,,ニホンビルダーカンキョウセッケイケンキュウショ,0
1027,5030001045020,登記記録の閉鎖等,0,2025-03-18,2025-03-14,株式会社パイン,,株式会社,埼玉県,朝霞市,幸町１丁目５番８号,,11,227,3510015,,,2025-03-14,清算の結了等,,,2015-10-05,1,,,,,パイン,0
1092,5122001019317,登記記録の閉鎖等,0,2025-03-18,2025-03-12,株式会社辻工務店,00034478,株式会社,大阪府,八尾市,八尾木２丁目４８番地２,,27,212,5810027,,,2025-03-12,清算の結了等,,,2015-10-05,1,,,,,ツジコウムテン,0
1101,5140001067359,登記記録の閉鎖等,0,2025-03-18,2025-02-28,株式会社ＯＤＩＬＥ,,株式会社,東京都,港区,赤坂６丁目５番２５－３０１号,,13,103,1070052,,,2025-02-28,清算の結了等,,,2015-10-05,1,,,,,オディール,0
1119,5180001037944,登記記録の閉鎖等,0,2025-03-18,2025-03-12,株式会社中日エムエス,,株式会社,愛知県,名古屋市中区,新栄町１丁目３番地,,23,106,4600004,,,2025-03-12,合併による解散等,7290001008379,令和７年３月１日福岡市中央区大名二丁目９番２３号総合メディカル株式会社（7290001008379）に合併し解散,2015-10-05,1,,,,,チュウニチエムエス,0
1146,5320002017889,登記記録の閉鎖等,0,2025-03-18,2025-03-13,有限会社酒見竹材,,有限会社,大分県,竹田市,大字挾田２４番地,,44,208,8780000,,,2025-03-13,清算の結了等,,,2015-10-05,1,,,,,,0
1176,5420002008226,登記記録の閉鎖等,0,2025-03-18,2025-03-14,有限会社ノンブル・ノワール,,有限会社,青森県,八戸市,大字常海町１３番地２サンデュエル内丸７０５号,,02,203,0310082,,,2025-03-14,清算の結了等,,,2015-10-05,1,,,,,ノンブルノワール,0
1183,5430001093004,登記記録の閉鎖等,0,2025-03-18,2025-03-11,昌東株式会社,,株式会社,北海道,札幌市豊平区,中の島一条９丁目４番１４－１０５号,,01,105,0620921,,,2025-03-11,清算の結了等,,,2024-11-08,1,,,,,ショウトウ,0
1201,6010501032907,登記記録の閉鎖等,0,2025-03-18,2025-03-07,新聯株式会社,,株式会社,東京都,中央区,東日本橋２丁目１３番５号秋山ビル７Ｆ,,13,102,1030004,,,2025-03-07,清算の結了等,,,2015-10-05,1,,,,,シンレン,0
1214,6010902003829,登記記録の閉鎖等,0,2025-03-18,2025-03-12,有限会社快晴館,,有限会社,東京都,世田谷区,南烏山６丁目２９番３号,,13,112,1570062,,,2025-03-12,清算の結了等,,,2015-10-05,1,,,,,カイセイカン,0
1222,6011003017124,登記記録の閉鎖等,0,2025-03-18,2025-02-19,合同会社Ｃａｒｖｅ,,合同会社,東京都,目黒区,目黒本町５丁目２５番１０号,,13,110,1520002,,,2025-02-19,清算の結了等,,,2023-07-13,1,,,,,カーヴ,0
1260,6030002113799,登記記録の閉鎖等,0,2025-03-18,2025-03-13,有限会社東京通商,,有限会社,埼玉県,熊谷市,川原明戸５２８番地,,11,202,3600837,,,2025-03-13,清算の結了等,,,2015-10-05,1,,,,,,0
1289,6070001007718,登記記録の閉鎖等,0,2025-03-18,2025-03-14,塚越重機工業株式会社,,株式会社,群馬県,高崎市,飯塚町１４４６番地,,10,202,3700069,,,2025-03-14,清算の結了等,,,2015-10-05,1,,,,,ツカゴシジュウキコウギョウ,0
1300,6100005007537,登記記録の閉鎖等,0,2025-03-18,2025-03-10,特定非営利活動法人つがの木,,その他の設立登記法人,長野県,北安曇郡小谷村,大字千国乙１２８４０番地１,,20,486,3999422,,,2025-03-10,清算の結了等,,,2015-10-05,1,,,,,ツガノキ,0
1318,6120901033881,登記記録の閉鎖等,0,2025-03-18,2025-03-05,株式会社アルフィード,,株式会社,大阪府,池田市,室町１－６,,27,204,5630047,,,2025-03-05,清算の結了等,,,2015-10-05,1,,,,,アルフィード,0
1322,6130001025382,登記記録の閉鎖等,0,2025-03-18,2025-03-13,株式会社陀羅谷,,株式会社,京都府,京都市伏見区,醍醐一ノ切町２８番地,,26,109,6011387,,,2025-03-13,清算の結了等,,,2015-10-05,1,,,,,ダラダニ,0
1329,6140001061971,登記記録の閉鎖等,0,2025-03-18,2025-03-10,森山美術印刷株式会社,,株式会社,兵庫県,姫路市,坂元町６０番地,,28,201,6700016,,,2025-03-10,清算の結了等,,,2015-10-05,1,,,,,モリヤマビジュツインサツ,0
1340,6180001138122,登記記録の閉鎖等,0,2025-03-18,2025-03-10,株式会社Ｌ　ＡＧＥＮＴ,,株式会社,愛知県,名古屋市中区,栄３丁目２１番２９号,,23,106,4600008,,,2025-03-10,清算の結了等,,,2019-09-18,1,,,,,エルエージェント,0
1347,6180002015601,登記記録の閉鎖等,0,2025-03-18,2025-03-10,有限会社オカダ,,有限会社,愛知県,名古屋市東区,代官町３２番５号,,23,102,4610002,,,2025-03-10,清算の結了等,,,2015-10-05,1,,,,,オカダ,0
1358,6180305003402,登記記録の閉鎖等,0,2025-03-18,2025-03-10,特定非営利活動法人東三河骨髄バンクを支える会,,その他の設立登記法人,愛知県,豊橋市,南牛川２丁目１番１１号学校法人桜丘学園内,,23,201,4400014,,,2025-03-10,清算の結了等,,,2015-10-05,1,,,,,ヒガシミカワコツズイバンクヲササエルカイ,0
1386,6290801015864,登記記録の閉鎖等,0,2025-03-18,2025-03-14,株式会社エー・エヌ・イー,,株式会社,福岡県,築上郡吉富町,大字幸子３９６番地５,,40,642,8710821,,,2025-03-14,清算の結了等,,,2015-10-05,1,,,,,エーエヌイー,0
1427,7010002000759,登記記録の閉鎖等,0,2025-03-18,2025-03-10,有限会社ヴォーグ,,有限会社,東京都,文京区,後楽２丁目１８番１４号,,13,105,1120004,,,2025-03-10,清算の結了等,,,2015-10-05,1,,,,,ヴォーグ,0
1428,7010003040829,登記記録の閉鎖等,0,2025-03-18,2025-02-26,合同会社エルモス,,合同会社,東京都,中央区,銀座７丁目１３番６号サガミビル２階,,13,102,1040061,,,2025-02-26,清算の結了等,,,2023-06-14,1,,,,,エルモス,0
1447,7010702003210,登記記録の閉鎖等,0,2025-03-18,2025-03-03,有限会社小柳製作所,,有限会社,東京都,品川区,西大井２丁目８番１３号,,13,109,1400015,,,2025-03-03,清算の結了等,,,2015-10-05,1,,,,,コヤナギセイサクショ,0
1448,7010801006171,登記記録の閉鎖等,0,2025-03-18,2025-03-04,株式会社関宮精研,,株式会社,東京都,大田区,大森南２丁目８番８号,,13,111,1430013,,,2025-03-04,清算の結了等,,,2015-10-05,1,,,,,セキミヤセイケン,0
1474,7011401002445,登記記録の閉鎖等,0,2025-03-18,2025-03-03,株式会社サンコーハウジング,,株式会社,東京都,板橋区,桜川２丁目２２番８号,,13,119,1740075,,,2025-03-03,合併による解散等,7011401001637,令和７年３月１日東京都板橋区桜川三丁目２１番７号株式会社北八（7011401001637）に合併し解散,2015-10-05,1,,,,,サンコーハウジング,0
1487,7020001099214,登記記録の閉鎖等,0,2025-03-18,2025-03-10,株式会社ドクターシモンズ,,株式会社,神奈川県,横浜市青葉区,たちばな台２丁目１８番地２５,,14,117,2270046,,,2025-03-10,清算の結了等,,,2015-10-05,1,,,,,ドクターシモンズ,0
1501,7030001068060,登記記録の閉鎖等,0,2025-03-18,2025-03-14,ハイサービス株式会社,,株式会社,埼玉県,越谷市,宮前１丁目２１番地８,,11,222,3430014,,,2025-03-14,清算の結了等,,,2015-10-05,1,,,,,ハイサービス,0
1507,7030005003071,登記記録の閉鎖等,0,2025-03-18,2025-03-14,公益社団法人厚生車輌福祉協会,,その他の設立登記法人,埼玉県,戸田市,大字新曽２２４５番地,,11,224,3350021,,,2025-03-14,清算の結了等,,,2015-10-05,1,,,,,コウセイシャリョウフクシキョウカイ,0
1542,7120002019722,登記記録の閉鎖等,0,2025-03-18,2025-03-04,株式会社東京西陣販売,,株式会社,東京都,千代田区,平河町１丁目４番３号,,13,101,1020093,,,2025-03-04,清算の結了等,,,2015-10-05,1,,,,,トウキョウニシジンハンバイ,0
1570,7180001138121,登記記録の閉鎖等,0,2025-03-18,2025-03-10,株式会社ＥＬＬＥ　ＰＬＡＣＥ,,株式会社,愛知県,名古屋市中村区,名駅１丁目１番１号ＪＰタワー名古屋２１階,,23,105,4500002,,,2025-03-10,清算の結了等,,,2019-09-18,1,,,,,エルプレイス,0
1584,7190002022257,登記記録の閉鎖等,0,2025-03-18,2025-03-13,有限会社ミソノ産業,,有限会社,三重県,四日市市,七つ屋町２９番地,,24,202,5100856,,,2025-03-13,清算の結了等,,,2015-10-05,1,,,,,ミソノサンギョウ,0
1586,7200002024821,登記記録の閉鎖等,0,2025-03-18,2025-03-03,株式会社ひだ青果市場,,株式会社,岐阜県,高山市,問屋町６番地,,21,203,5060002,,,2025-03-03,合併による解散等,1200001024902,令和７年３月１日岐阜県高山市岡本町二丁目４５番地の１株式会社駿河屋魚一（1200001024902）に合併し解散,2015-10-05,1,,,,,ヒダセイカイチバ,0
1587,7200003003964,登記記録の閉鎖等,0,2025-03-18,2025-03-17,合同会社まんまるかふぇ,,合同会社,岐阜県,土岐市,土岐口中町５丁目７３番地,,21,212,5095124,,,2025-03-17,清算の結了等,,,2017-04-17,1,,,,,マンマルカフェ,0
1589,7230001015785,登記記録の閉鎖等,0,2025-03-18,2025-03-13,株式会社シーフード魚河岸,,株式会社,富山県,南砺市,寺家新屋敷３６６番地,,16,210,9391577,,,2025-03-13,清算の結了等,,,2015-10-05,1,,,,,シーフードウオガシ,0
1594,7240002029536,登記記録の閉鎖等,0,2025-03-18,2025-03-13,株式会社五反田ゴム工業,,株式会社,広島県,山県郡北広島町,今田３０２番地の１,,34,369,7311535,,,2025-03-13,合併による解散等,6250001011635,令和７年３月１日山口県岩国市多田二丁目１０１－１０株式会社ベンリナー（6250001011635）に合併し解散,2015-10-05,1,,,,,ゴタンダゴムコウギョウ,0
1595,7240002041219,登記記録の閉鎖等,0,2025-03-18,2025-03-14,有限会社新光,,有限会社,広島県,福山市,曙町３丁目１８番１６号,00001341,34,207,7210952,,,2025-03-14,清算の結了等,,,2015-10-05,1,,,,,シンコウ,0
1607,7310002009893,登記記録の閉鎖等,0,2025-03-18,2025-03-17,有限会社光洋ビル,,有限会社,長崎県,佐世保市,京坪町６番５号,,42,202,8570874,,,2025-03-17,清算の結了等,,,2015-10-05,1,,,,,コウヨウビル,0
1608,7320002002708,登記記録の閉鎖等,0,2025-03-18,2025-03-17,有限会社ウエキエンタープライズ,,有限会社,大分県,大分市,上田町３丁目２番２８号,,44,201,8700886,,,2025-03-17,清算の結了等,,,2015-10-05,1,,,,,,0
1622,7430002024204,登記記録の閉鎖等,0,2025-03-18,2025-03-11,有限会社フジブラインドサービス,,有限会社,北海道,札幌市東区,北十八条東２０丁目４番２０－１０６号,,01,103,0650018,,,2025-03-11,清算の結了等,,,2015-10-05,1,,,,,フジブラインドサービス,0
1635,8010003039829,登記記録の閉鎖等,0,2025-03-18,2025-03-12,男鹿潟上秋田洋上風力合同会社,,合同会社,東京都,千代田区,大手町１丁目４番２号,,13,101,1000004,,,2025-03-12,清算の結了等,,,2023-02-13,1,,,,,オガカタガミアキタヨウジョウフウリョク,0
1642,8010401139404,登記記録の閉鎖等,0,2025-03-18,2025-03-06,プレミアシステムサービス株式会社,,株式会社,東京都,港区,虎ノ門２丁目１０番４号オークラプレステージタワー,,13,103,1050001,,,2025-03-06,清算の結了等,,,2018-07-05,1,,,,,プレミアシステムサービス,0
1652,8010501009382,登記記録の閉鎖等,0,2025-03-18,2025-03-05,株式会社東京包装センター,,株式会社,東京都,台東区,浅草橋５丁目１８番７号,,13,106,1110053,,,2025-03-05,清算の結了等,,,2015-10-05,1,,,,,トウキョウホウソウセンター,0
1673,8010801010643,登記記録の閉鎖等,0,2025-03-18,2025-03-03,株式会社ブルックス,,株式会社,神奈川県,横浜市都筑区,中川１丁目２１番１１号,,14,118,2240001,,,2025-03-03,清算の結了等,,,2015-10-05,1,,,,,ブルックス,0
1717,8020001115465,登記記録の閉鎖等,0,2025-03-18,2025-03-05,株式会社マリンスタイル,,株式会社,神奈川県,川崎市宮前区,有馬１丁目１番２５号,,14,136,2160003,,,2025-03-05,清算の結了等,,,2016-03-29,1,,,,,マリンスタイル,0
1722,8020002014096,登記記録の閉鎖等,0,2025-03-18,2025-03-12,有限会社グルメ倶楽部,,有限会社,神奈川県,横浜市青葉区,藤が丘２丁目１３番地１５,,14,117,2270043,,,2025-03-12,清算の結了等,,,2015-10-05,1,,,,,グルメクラブ,0
1745,8040002086233,登記記録の閉鎖等,0,2025-03-18,2025-03-07,有限会社壱善水産,,有限会社,千葉県,銚子市,川口町２丁目６５２９番地の４６,,12,202,2880001,,,2025-03-07,清算の結了等,,,2015-10-05,1,,,,,イチゼンスイサン,0
1761,8080101014470,登記記録の閉鎖等,0,2025-03-18,2025-03-05,こみづや建材株式会社,,株式会社,静岡県,下田市,柿崎３３番３３号,,22,219,4150013,,,2025-03-05,清算の結了等,,,2015-10-05,1,,,,,コミヅヤケンザイ,0
1763,8080102002796,登記記録の閉鎖等,0,2025-03-18,2025-03-10,有限会社沼津通信電設,,有限会社,静岡県,沼津市,下香貫藤井原１６７２‐２,,22,203,4100822,,,2025-03-10,清算の結了等,,,2015-10-05,1,,,,,ヌマヅツウシンデンセツ,0
1789,8120002076119,登記記録の閉鎖等,0,2025-03-18,2025-03-17,有限会社ライフインテック,,有限会社,大阪府,寝屋川市,池田中町３番２７号,,27,215,5720074,,,2025-03-17,清算の結了等,,,2015-10-05,1,,,,,ライフインテック,0
1800,8122001030361,登記記録の閉鎖等,0,2025-03-18,2025-03-17,株式会社宮本産業,,株式会社,大阪府,東大阪市,長瀬町３丁目６番１４号,,27,227,5770832,,,2025-03-17,清算の結了等,,,2017-02-24,1,,,,,,0
1828,8180301028426,登記記録の閉鎖等,0,2025-03-18,2025-03-11,フカヤ商會株式会社,,株式会社,愛知県,高浜市,湯山町６丁目１番地１９,,23,227,4441332,,,2025-03-11,清算の結了等,,,2015-10-05,1,,,,,フカヤショウカイ,0
1831,8180302023657,登記記録の閉鎖等,0,2025-03-18,2025-03-10,有限会社三宅工作所,,有限会社,愛知県,豊田市,小坂本町４丁目７番地５,,23,211,4710034,,,2025-03-10,清算の結了等,,,2015-10-05,1,,,,,ミヤケコウサクショ,0
1837,8220002011263,登記記録の閉鎖等,0,2025-03-18,2025-02-26,有限会社ミドリ電機,,有限会社,石川県,小松市,長谷町岡１５,,17,203,9230181,,,2025-02-26,清算の結了等,,,2015-10-05,1,,,,,ミドリデンキ,0
1849,8290003008822,登記記録の閉鎖等,0,2025-03-18,2025-03-06,ＢＬＯＯＭＬＩＮＫ株式会社,,株式会社,福岡県,福岡市中央区,天神１丁目９－１７福岡天神フコク生命ビル１５階,,40,133,8100001,,,2025-03-06,合併による解散等,5290003007645,令和７年２月２８日福岡市中央区天神一丁目１番１号アクロス福岡１Ｆ福岡商事株式会社（5290003007645）に合併し解散,2019-03-06,1,,,,,ブルームリンク,0
1880,8430002010293,登記記録の閉鎖等,0,2025-03-18,2025-03-17,株式会社水車,,株式会社,北海道,札幌市手稲区,手稲本町一条３丁目１番１７号,,01,109,0060021,,,2025-03-17,清算の結了等,,,2015-10-05,1,,,,,スイシャ,0
1884,8460001000284,登記記録の閉鎖等,0,2025-03-18,2025-03-13,川内塗装店株式会社,,株式会社,北海道,釧路市,新橋大通９丁目１番１１号,,01,206,0850046,,,2025-03-13,清算の結了等,,,2015-10-05,1,,,,,カワウチトソウテン,0
1889,9010001152343,登記記録の閉鎖等,0,2025-03-18,2025-03-04,株式会社ＦＣＣＨ,,株式会社,東京都,千代田区,神田富山町７番,,13,101,1010043,,,2025-03-04,清算の結了等,,,2015-10-05,1,,,,,エフシイシイエイチ,0
1893,9010001171194,登記記録の閉鎖等,0,2025-03-18,2025-03-03,Ｊ・Ｆホールディングス株式会社,,株式会社,東京都,中央区,築地６丁目１７番４号,,13,102,1040045,,,2025-03-03,合併による解散等,5010001248112,令和７年３月１日東京都中央区築地六丁目１７番４号ＳＹＪホールディングス株式会社（5010001248112）に合併し解散,2015-10-27,1,,,,,ジェーエフホールディングス,0
1904,9010401116724,登記記録の閉鎖等,0,2025-03-18,2025-03-12,株式会社帝国フードクリエイト,,株式会社,新潟県,新潟市南区,上塩俵１７６２番地１,,15,106,9501244,,,2025-03-12,清算の結了等,,,2015-10-05,1,,,,,テイコクフードクリエイト,0
1982,9080001025914,登記記録の閉鎖等,0,2025-03-18,2025-03-13,株式会社サポートすず,,株式会社,静岡県,静岡市葵区,瀬名川１丁目１０番２０号,,22,101,4200913,,,2025-03-13,清算の結了等,,,2023-10-13,1,,,,,サポートスズ,0
1996,9120001163916,登記記録の閉鎖等,0,2025-03-18,2025-03-17,Ｓ＆Ｃ　ＪＡＰＡＮ株式会社,,株式会社,大阪府,大阪市東住吉区,公園南矢田１丁目１７番７－３０１号,,27,121,5460024,,,2025-03-17,清算の結了等,,,2015-10-05,1,,,,,エスアンドシージャパン,0
2025,9120901037616,登記記録の閉鎖等,0,2025-03-18,2025-03-05,株式会社システムワーク,,株式会社,大阪府,豊中市,服部豊町１丁目３番２７－４０５号,,27,203,5610859,,,2025-03-05,清算の結了等,,,2016-10-31,1,,,,,システムワーク,0
2043,9180002017363,登記記録の閉鎖等,0,2025-03-18,2025-03-06,有限会社石川製本,,有限会社,愛知県,名古屋市中川区,長良町２丁目８６番地の５,,23,110,4540815,,,2025-03-06,清算の結了等,,,2015-10-05,1,,,,,イシカワセイホン,0
2046,9180302023870,登記記録の閉鎖等,0,2025-03-18,2025-03-10,有限会社吉田プレス機械,00075197,有限会社,愛知県,豊田市,上丘町山の神２７番地１,,23,211,4730931,,,2025-03-10,清算の結了等,,,2015-10-05,1,,,,,ヨシダプレスキカイ,0
2057,9250001019832,登記記録の閉鎖等,0,2025-03-18,2025-03-13,松栄マリン株式会社,,株式会社,山口県,周南市,栄町２丁目３６,,35,215,7450037,,,2025-03-13,清算の結了等,,,2022-11-07,1,,,,,ショウエイマリン,0
2065,9290801003081,登記記録の閉鎖等,0,2025-03-18,2025-03-11,パンジャパン貿易株式会社,,株式会社,福岡県,北九州市小倉北区,熊本３丁目５番１３号,,40,106,8020044,,,2025-03-11,清算の結了等,,,2015-10-05,1,,,,,パンジャパンボウエキ,0
2067,9310002018050,登記記録の閉鎖等,0,2025-03-18,2025-03-17,有限会社ネットワーク・ナカムラ,,有限会社,長崎県,南島原市,深江町丁７４９２番地３１,,42,214,8591504,,,2025-03-17,清算の結了等,,,2015-10-05,1,,,,,ネットワークナカムラ,0
