sequenceNumber,corporateNumber,process,correct,updateDate,changeDate,name,nameImageId,kind,prefectureName,cityName,streetNumber,addressImageId,prefectureCode,cityCode,postCode,addressOutside,addressOutsideImageId,closeDate,closeCause,successorCorporateNumber,changeCause,assignmentDate,latest,enName,enPrefectureName,enCityName,enAddressOutside,furigana,hihyoji
11,1010001242820,新規,0,2024-03-05,2024-03-05,アベールグループ株式会社,,株式会社,東京都,中央区,銀座５丁目９番８号,,13,102,1040061,,,,,,,2024-03-05,1,,,,,アベールグループ,0
12,1010001242829,新規,0,2024-03-05,2024-03-05,株式会社ＨＯＮＯＫＡ．ｌａｂ,,株式会社,東京都,中央区,銀座１丁目２２番１１号銀座大竹ビジデンス２Ｆ,,13,102,1040061,,,,,,,2024-03-05,1,,,,,ホノカラボ,0
15,1010003043102,新規,0,2024-03-05,2024-03-05,サステナブルローンファンド２３号合同会社,,合同会社,東京都,中央区,八丁堀４丁目２番１０号ＡＯＪ税理士法人内,,13,102,1040032,,,,,,,2024-03-05,1,,,,,サステナブルローンファンドニジュウサンゴウ,0
16,1010003043110,新規,0,2024-03-05,2024-03-05,合同会社アイランドシップ６号,,合同会社,東京都,中央区,八丁堀４丁目２番１０号ＡＯＪ税理士法人内,,13,102,1040032,,,,,,,2024-03-05,1,,,,,アイランドシップロクゴウ,0
27,1010401180777,新規,0,2024-03-05,2024-03-05,株式会社Ｆｏｌｋ　ａｎｄ　Ｔａｌｅｓ,,株式会社,東京都,港区,芝５丁目２９番３－２０５号,,13,103,1080014,,,,,,,2024-03-05,1,,,,,フォークアンドテイルズ,0
28,1010403032101,新規,0,2024-03-05,2024-03-05,合同会社弥栄,,合同会社,東京都,港区,南青山１丁目１４番４号,,13,103,1070062,,,,,,,2024-03-05,1,,,,,イヤサカ,0
29,1010403032118,新規,0,2024-03-05,2024-03-05,岐阜モールマネジメント合同会社,,合同会社,東京都,港区,虎ノ門４丁目３番１号城山トラストタワー１８階,,13,103,1050001,,,,,,,2024-03-05,1,,,,,ギフモールマネジメント,0
30,1010501051878,新規,0,2024-03-05,2024-03-05,株式会社シーカーズ,,株式会社,東京都,台東区,上野７丁目３番９号,,13,106,1100005,,,,,,,2024-03-05,1,,,,,シーカーズ,0
33,1010605004294,新規,0,2024-03-05,2024-03-05,医療法人社団誠西会,,その他の設立登記法人,東京都,墨田区,錦糸３丁目１４番９号ペタロスデキンシ１階,,13,107,1300013,,,,,,,2024-03-05,1,,,,,セイセイカイ,0
38,1010701045630,新規,0,2024-03-05,2024-03-05,株式会社ランメディカル,,株式会社,東京都,品川区,小山３丁目２７番１号武蔵小山駅前ビル２０１,,13,109,1420062,,,,,,,2024-03-05,1,,,,,ランメディカル,0
39,1010703007075,新規,0,2024-03-05,2024-03-05,白金ファイナンス合同会社,,合同会社,東京都,品川区,東五反田４丁目３番８号,,13,109,1410022,,,,,,,2024-03-05,1,,,,,シロカネファイナンス,0
42,1010805003096,新規,0,2024-03-05,2024-03-05,医療法人社団ＴＩＯ,,その他の設立登記法人,東京都,大田区,南馬込５丁目２７番１３号クールバレー南馬込１Ａ,,13,111,1430025,,,,,,,2024-03-05,1,,,,,ティオ,0
50,1011001160368,新規,0,2024-03-05,2024-03-05,ＡＴＥＬＩＥＲ　ＬＩＢＥＲＴＡ株式会社,,株式会社,東京都,渋谷区,神宮前５丁目３９番８号,,13,113,1500001,,,,,,,2024-03-05,1,,,,,アトリエリベルタ,0
51,1011001160384,新規,0,2024-03-05,2024-03-05,株式会社ｐａｒａｄｉｓｅ,,株式会社,東京都,渋谷区,上原２丁目２８番５号,,13,113,1510064,,,,,,,2024-03-05,1,,,,,パラダイス,0
52,1011001160392,新規,0,2024-03-05,2024-03-05,株式会社ＮＡＮＺＵＫＡ　ＴＡＫＥＮ,,株式会社,東京都,渋谷区,神宮前３丁目３０番１０号,,13,113,1500001,,,,,,,2024-03-05,1,,,,,ナンヅカテイクン,0
53,1011001160434,新規,0,2024-03-05,2024-03-05,株式会社東京アイスラボ,,株式会社,東京都,目黒区,祐天寺２丁目１５番１７号,,13,110,1530052,,,,,,,2024-03-05,1,,,,,トウキョウアイスラボ,0
55,1011003018622,新規,0,2024-03-05,2024-03-05,合同会社ｏｎ　ｔｈｅ　ＳＣＥＮＥ,,合同会社,東京都,渋谷区,道玄坂１丁目１６番６号二葉ビル８ｂ,,13,113,1500043,,,,,,,2024-03-05,1,,,,,オンザシーン,0
56,1011101106428,新規,0,2024-03-05,2024-03-05,フォースコンサルティング株式会社,,株式会社,東京都,新宿区,中里町２７－１０,,13,104,1620804,,,,,,,2024-03-05,1,,,,,フォースコンサルティング,0
58,1011205002589,新規,0,2024-03-05,2024-03-05,医療法人社団ニーレ,,その他の設立登記法人,東京都,中野区,南台３丁目６番１７号クリスタルコート８８イマス中野南台３Ｆ,,13,114,1640014,,,,,,,2024-03-05,1,,,,,ニーレ,0
63,1011701027057,新規,0,2024-03-05,2024-03-05,株式会社ＹＭＴ,,株式会社,東京都,江戸川区,東小岩６丁目２６－１３－２０５,,13,123,1330052,,,,,,,2024-03-05,1,,,,,ワイエムティ,0
65,1011801043870,新規,0,2024-03-05,2024-03-05,株式会社優義,,株式会社,東京都,足立区,鹿浜８丁目３０番１２号１Ｆ,,13,121,1230864,,,,,,,2024-03-05,1,,,,,ユウギ,0
66,1011801043879,新規,0,2024-03-05,2024-03-05,株式会社Ｎｅｇｕｌｕｓ　Ｃｏｎｓｕｌｔｉｎｇ,,株式会社,東京都,足立区,佐野１丁目３５－１６アローキャニオンカオール２０２,,13,121,1210053,,,,,,,2024-03-05,1,,,,,ネグルスコンサルティング,0
68,1012303001945,新規,0,2024-03-05,2024-03-05,ａｂｅ合同会社,,合同会社,東京都,町田市,木曽西３丁目２６番地１,,13,209,1940037,,,,,,,2024-03-05,1,,,,,アベ,0
71,1012701018120,新規,0,2024-03-05,2024-03-05,Ｃｏｎｎｅｃｔ　ｆｏｒ株式会社,,株式会社,東京都,小平市,小川町１丁目９４２番地の１３,,13,211,1870032,,,,,,,2024-03-05,1,,,,,コネクトフォー,0
72,1012801023004,新規,0,2024-03-05,2024-03-05,株式会社ＲＥＶＥＬＩＺＥ,,株式会社,東京都,国分寺市,西恋ヶ窪４丁目２番２－６０２号,,13,214,1850013,,,,,,,2024-03-05,1,,,,,リヴライズ,0
92,1040001132465,新規,0,2024-03-05,2024-03-05,株式会社ＲＦＫ,,株式会社,千葉県,千葉市中央区,登戸１丁目１８番９号,,12,101,2600032,,,,,,,2024-03-05,1,,,,,アールエフケー,0
93,1040001132531,新規,0,2024-03-05,2024-03-05,株式会社ベイフィールド,,株式会社,千葉県,松戸市,松飛台５３５－７,,12,207,2702214,,,,,,,2024-03-05,1,,,,,ベイフィールド,0
99,1040003024470,新規,0,2024-03-05,2024-03-05,ＴＹ合同会社,,合同会社,千葉県,千葉市美浜区,稲毛海岸４丁目９番１号東映マンションＡ棟１００８号,,12,106,2610005,,,,,,,2024-03-05,1,,,,,ティワイ,0
100,1040003024479,新規,0,2024-03-05,2024-03-05,合同会社ｓａｈａｓ　ｉｎｔｅｒｎａｔｉｏｎａｌ,,合同会社,千葉県,市川市,市川南３丁目５－２７－２０３,,12,203,2720033,,,,,,,2024-03-05,1,,,,,サハスインターナショナル,0
102,1040005022308,新規,0,2024-03-05,2024-03-05,リンデンハイム白山管理組合法人,,その他の設立登記法人,千葉県,松戸市,松戸２２８０番地の４,,12,207,2710092,,,,,,,2024-03-05,1,,,,,リンデンハイムハクサン,0
104,1050001054394,新規,0,2024-03-05,2024-03-05,リーフプラント株式会社,,株式会社,茨城県,ひたちなか市,大字津田３５０８番地,,08,221,3120032,,,,,,,2024-03-05,1,,,,,リーフプラント,0
115,1100005013127,新規,0,2024-03-05,2024-03-05,一般社団法人蓼科芸術文化スポーツアカデミー,,その他の設立登記法人,長野県,北佐久郡立科町,大字芦田八ケ野字蓼科牧場南１０９６番地,,20,324,3842309,,,,,,,2024-03-05,1,,,,,タテシナゲイジュツブンカスポーツアカデミー,0
126,1120001262790,新規,0,2024-03-05,2024-03-05,株式会社セブンデュース,,株式会社,大阪府,大阪市生野区,巽中１丁目１８番３１号,00133948,27,116,5440013,,,,,,,2024-03-05,1,,,,,セブンデュース,0
127,1120001262832,新規,0,2024-03-05,2024-03-05,株式会社Ｓ‐ＲＡＮＫ,,株式会社,大阪府,大阪市天王寺区,生玉町５番３１号,,27,109,5430071,,,,,,,2024-03-05,1,,,,,エスランク,0
128,1120001262873,新規,0,2024-03-05,2024-03-05,ＰＬＡＮＮＩＮＧ株式会社,,株式会社,大阪府,大阪市港区,夕凪１丁目１３番２号,,27,107,5520004,,,,,,,2024-03-05,1,,,,,プランニング,0
129,1120001262898,新規,0,2024-03-05,2024-03-05,株式会社Ｍｅｉｐｏｎ,,株式会社,大阪府,大阪市北区,万歳町３番１２号,,27,127,5300028,,,,,,,2024-03-05,1,,,,,メイポン,0
130,1120001262931,新規,0,2024-03-05,2024-03-05,コーヨーケミカル株式会社,,株式会社,大阪府,門真市,四宮２丁目１１番６０号,,27,223,5710017,,,,,,,2024-03-05,1,,,,,コーヨーケミカル,0
132,1120003026013,新規,0,2024-03-05,2024-03-05,合同会社Ｖａｎｎｄｙｙ　Ｓｈｏｐ,,合同会社,大阪府,大阪市生野区,新今里３丁目２番１９号音羽アパートメント５Ｂ,,27,116,5440001,,,,,,,2024-03-05,1,,,,,ヴァンディショップ,0
133,1120003026062,新規,0,2024-03-05,2024-03-05,ＬＶｘＧＤ　Ｓｔｕｄｉｏ合同会社,,合同会社,大阪府,大阪市中央区,玉造１丁目６番２２－２０８号,,27,128,5400004,,,,,,,2024-03-05,1,,,,,エルヴイグッドデザインスタジオ,0
135,1120101069153,新規,0,2024-03-05,2024-03-05,株式会社ファイブ,,株式会社,大阪府,堺市西区,太平寺１５５番地４,,27,144,5938314,,,,,,,2024-03-05,1,,,,,ファイブ,0
136,1120103005701,新規,0,2024-03-05,2024-03-05,合同会社田中商店,,合同会社,大阪府,南河内郡河南町,大字寛弘寺８９３番地の５,,27,382,5850035,,,,,,,2024-03-05,1,,,,,タナカショウテン,0
145,1130001076406,新規,0,2024-03-05,2024-03-05,株式会社ＨＩＬＡＲＩＯＵＳ,,株式会社,京都府,城陽市,平川中道表１２－２,,26,207,6100101,,,,,,,2024-03-05,1,,,,,ヒラリアス,0
146,1130001076488,新規,0,2024-03-05,2024-03-05,株式会社皐盧庵茶舗,,株式会社,京都府,京都市北区,紫野雲林院町６番地,,26,101,6038214,,,,,,,2024-03-05,1,,,,,コウロアンチャホ,0
147,1130001076505,新規,0,2024-03-05,2024-03-05,Ｎｅｕｒｏｓｍｉｔｈ株式会社,,株式会社,京都府,京都市下京区,大黒町２２７番地第２キョートビル４０２,,26,106,6008043,,,,,,,2024-03-05,1,,,,,ニューロスミス,0
148,1130001076521,新規,0,2024-03-05,2024-03-05,株式会社プレ・ディオス,,株式会社,京都府,京都市左京区,田中南大久保町６９番地リバティ東大路１階,,26,103,6068214,,,,,,,2024-03-05,1,,,,,プレディオス,0
149,1130003009347,新規,0,2024-03-05,2024-03-05,グローシンク合同会社,,合同会社,京都府,京都市下京区,七条通油小路東入大黒町２２７番地第２キョートビル４０２,,26,106,6008223,,,,,,,2024-03-05,1,,,,,グローシンク,0
161,1140001133528,新規,0,2024-03-05,2024-03-05,福東興業株式会社,,株式会社,兵庫県,姫路市,広畑区北河原町７８－１北河原マンション２号棟４０１号室,,28,201,6711111,,,,,,,2024-03-05,1,,,,,フドウコウギョウ,0
162,1140001133544,新規,0,2024-03-05,2024-03-05,株式会社ＴｈｉｒｄＴｉｍｅ,,株式会社,兵庫県,西宮市,甲子園口４丁目６番２８号,,28,204,6638113,,,,,,,2024-03-05,1,,,,,サードタイム,0
166,1140003020237,新規,0,2024-03-05,2024-03-05,ＪｕｌｉｅｎＳｏｒｅｌ合同会社,,合同会社,兵庫県,神崎郡市川町,西川辺２７番地の１０,,28,442,6792315,,,,,,,2024-03-05,1,,,,,ジュリアンソレル,0
167,1140005026959,新規,0,2024-03-05,2024-03-05,特定非営利活動法人地域政策Ｌａｂ,,その他の設立登記法人,兵庫県,西宮市,宮前町５番１５号,,28,204,6620947,,,,,,,2024-03-05,1,,,,,チイキセイサクラボ,0
178,1180001160378,新規,0,2024-03-05,2024-03-05,株式会社アイロム・サポート,,株式会社,愛知県,名古屋市中区,丸の内３丁目１９番５号ＦＬＥＺＩＯＬＡ１０Ｆ,,23,106,4600002,,,,,,,2024-03-05,1,,,,,アイロムサポート,0
179,1180001160394,新規,0,2024-03-05,2024-03-05,株式会社ＫＯＫＥＲＡ,,株式会社,愛知県,知多郡南知多町,大字内海字東郷４５番地の１,,23,445,4703321,,,,,,,2024-03-05,1,,,,,コケラ,0
180,1180001160428,新規,0,2024-03-05,2024-03-05,Ｃａｄｒｅ株式会社,,株式会社,愛知県,名古屋市緑区,若田２丁目１０１０番地福松ビル２０２,,23,114,4580034,,,,,,,2024-03-05,1,,,,,カドレ,0
191,1180301038381,新規,0,2024-03-05,2024-03-05,株式会社アルファスペースステーション,,株式会社,愛知県,岡崎市,上地１丁目１３番地３５,,23,202,4440823,,,,,,,2024-03-05,1,,,,,アルファスペースステーション,0
200,1240001062865,新規,0,2024-03-05,2024-03-05,プラットフォース株式会社,,株式会社,広島県,福山市,花園町１丁目３番１９号アプローズ９０２,,34,207,7200803,,,,,,,2024-03-05,1,,,,,プラットフォース,0
201,1240001062881,新規,0,2024-03-05,2024-03-05,株式会社ガレージカジカワ,,株式会社,広島県,広島市安佐南区,伴東７丁目２番１号,,34,105,7313164,,,,,,,2024-03-05,1,,,,,ガレージカジカワ,0
203,1240005015737,新規,0,2024-03-05,2024-03-05,一般社団法人ＳＥＴＯＮＡＭＩ　ＳＰＯＲＴＳ　ＣＬＵＢ,,その他の設立登記法人,広島県,尾道市,高須町３８１４番地４,,34,205,7290141,,,,,,,2024-03-05,1,,,,,セトナミスポーツクラブ,0
206,1250001020541,新規,0,2024-03-05,2024-03-05,株式会社石本工業,,株式会社,山口県,宇部市,西宇部南１丁目３番２９号,,35,202,7590208,,,,,,,2024-03-05,1,,,,,イシモトコウギョウ,0
216,1260001038797,新規,0,2024-03-05,2024-03-05,株式会社昇一楼,,株式会社,岡山県,岡山市北区,天神町２番１０号,,33,101,7000814,,,,,,,2024-03-05,1,,,,,ショウイチロウ,0
217,1260001038806,新規,0,2024-03-05,2024-03-05,株式会社山翔,,株式会社,岡山県,新見市,哲西町矢田２５９４番地４,,33,210,7193701,,,,,,,2024-03-05,1,,,,,ヤマショウ,0
219,1260003004599,新規,0,2024-03-05,2024-03-05,アーニャファンド合同会社,,合同会社,岡山県,岡山市北区,新庄下９２８,,33,101,7011344,,,,,,,2024-03-05,1,,,,,アーニャファンド,0
220,1260005006486,新規,0,2024-03-05,2024-03-05,協同組合津山模範店会,,その他の設立登記法人,岡山県,津山市,大手町８番地の５,,33,203,7080023,,,,,,,2024-03-05,1,,,,,ツヤマモハンテンカイ,0
221,1280001009128,新規,0,2024-03-05,2024-03-05,株式会社シルバーオーク,,株式会社,島根県,益田市,三宅町２番３５号,,32,204,6980006,,,,,,,2024-03-05,1,,,,,シルバーオーク,0
224,1290001104877,新規,0,2024-03-05,2024-03-05,株式会社Ｒｕｔｈ,,株式会社,福岡県,福岡市東区,和白５丁目１３－２２,,40,131,8110202,,,,,,,2024-03-05,1,,,,,ルース,0
225,1290001104893,新規,0,2024-03-05,2024-03-05,株式会社サンライズ,,株式会社,福岡県,福岡市博多区,中洲４丁目１番３５号中洲岡部ビル１号館３階３０１号室,,40,132,8100801,,,,,,,2024-03-05,1,,,,,サンライズ,0
226,1290001104943,新規,0,2024-03-05,2024-03-05,株式会社Ｒｅｏｓ,,株式会社,福岡県,福岡市博多区,諸岡３丁目２０－３２－６０１,,40,132,8120894,,,,,,,2024-03-05,1,,,,,レオス,0
227,1290001104968,新規,0,2024-03-05,2024-03-05,株式会社ＪＵＮＳ,,株式会社,福岡県,福岡市博多区,竹丘町２丁目１番１１－４０２号,,40,132,8120878,,,,,,,2024-03-05,1,,,,,ジュンズ,0
228,1290003015016,新規,0,2024-03-05,2024-03-05,合同会社Ｉ＆Ｉ　Ｌｉｎｋ,,合同会社,福岡県,福岡市博多区,築港本町１１番１１－７０１号,,40,132,8120021,,,,,,,2024-03-05,1,,,,,アイアンドアイリンク,0
233,1310001018884,新規,0,2024-03-05,2024-03-05,ＪＯＳＵＩ　ＳＩＭＥＯＮ株式会社,,株式会社,長崎県,長崎市,桜馬場１丁目８番６号３Ｆ,,42,201,8500015,,,,,,,2024-03-05,1,,,,,ジョスイシメオン,0
242,1360003013763,新規,0,2024-03-05,2024-03-05,合同会社野原商会,,合同会社,沖縄県,浦添市,勢理客４丁目１３番１号浦添市産業振興センター５０１－２,,47,208,9012122,,,,,,,2024-03-05,1,,,,,ノハラショウカイ,0
244,1370001050989,新規,0,2024-03-05,2024-03-05,Ｎｅｘｔ　ｉｎｎｏｖａｔｉｏｎ株式会社,,株式会社,宮城県,多賀城市,八幡４丁目６－４チャコール２０１号室,,04,209,9850874,,,,,,,2024-03-05,1,,,,,ネクストイノベーション,0
245,1370001050997,新規,0,2024-03-05,2024-03-05,株式会社インフィニティ３１０,,株式会社,宮城県,仙台市太白区,泉崎２丁目３番１１号,,04,104,9820031,,,,,,,2024-03-05,1,,,,,インフィニティサトウ,0
246,1370001051005,新規,0,2024-03-05,2024-03-05,株式会社まほろカンパニー,,株式会社,宮城県,仙台市青葉区,花京院１丁目５番１２－６０１号,,04,101,9800013,,,,,,,2024-03-05,1,,,,,マホロカンパニー,0
250,1380001034339,新規,0,2024-03-05,2024-03-05,株式会社恵杜,,株式会社,福島県,郡山市,字石塚５６番地４,,07,203,9638825,,,,,,,2024-03-05,1,,,,,ケイト,0
252,1380003005701,新規,0,2024-03-05,2024-03-05,合同会社悠ハウスクリーニング,,合同会社,福島県,福島市,飯坂町字清水上２６番地の８,,07,201,9600201,,,,,,,2024-03-05,1,,,,,ハルカハウスクリーニング,0
261,1420002018575,新規,0,2024-03-05,2024-03-05,有限会社上北商事,,有限会社,青森県,上北郡野辺地町,字笹舘３０番地６,,02,401,0393100,,,,,,,2024-03-05,1,,,,,カミキタショウジ,0
266,1430001091242,新規,0,2024-03-05,2024-03-05,株式会社越路,,株式会社,北海道,夕張郡長沼町,西１線北１０番地,,01,428,0691318,,,,,,,2024-03-05,1,,,,,コシジ,0
269,1430003016008,新規,0,2024-03-05,2024-03-05,合同会社フェニックス,,合同会社,北海道,江別市,新栄台７番地の４,,01,217,0690806,,,,,,,2024-03-05,1,,,,,フェニックス,0
270,1430003016016,新規,0,2024-03-05,2024-03-05,合同会社ヤマト,,合同会社,北海道,札幌市西区,山の手四条１０丁目２番１８－３０２号,,01,107,0630004,,,,,,,2024-03-05,1,,,,,ヤマト,0
272,1440001009391,新規,0,2024-03-05,2024-03-05,株式会社ＴＫｋｏｙａｎａｇｉ,,株式会社,北海道,函館市,鍛治２丁目２７番８号,,01,202,0410852,,,,,,,2024-03-05,1,,,,,ティーケイコヤナギ,0
274,1450001014242,新規,0,2024-03-05,2024-03-05,株式会社オフィスオハナ,,株式会社,北海道,旭川市,四条西７丁目２番２号,,01,204,0700054,,,,,,,2024-03-05,1,,,,,オフィスオハナ,0
280,1500001025498,新規,0,2024-03-05,2024-03-05,株式会社中谷園,,株式会社,愛媛県,新居浜市,庄内町２丁目８番２１号,,38,205,7920811,,,,,,,2024-03-05,1,,,,,ナカタニエン,0
292,2010001242761,新規,0,2024-03-05,2024-03-05,株式会社ＨｉｔｔｉｎｇＶｉｓｉｏｎ,,株式会社,東京都,中央区,日本橋室町１丁目１１番１２号日本橋水野ビル７階,,13,102,1030022,,,,,,,2024-03-05,1,,,,,ヒッティングビジョン,0
293,2010001242778,新規,0,2024-03-05,2024-03-05,株式会社エヌケーワールドウェイズ,,株式会社,東京都,千代田区,飯田橋４丁目９番９号,,13,101,1020072,,,,,,,2024-03-05,1,,,,,エヌケーワールドウェイズ,0
303,2010401180660,新規,0,2024-03-05,2024-03-05,株式会社ＤＤＰ,,株式会社,東京都,港区,台場１丁目３－４３０１,,13,103,1350091,,,,,,,2024-03-05,1,,,,,ディディピィ,0
304,2010401180768,新規,0,2024-03-05,2024-03-05,株式会社Ａｍａｔｅｒａｓｕ,,株式会社,東京都,港区,芝浦４丁目１３番１２－６０４号,,13,103,1080023,,,,,,,2024-03-05,1,,,,,アマテラス,0
305,2010401180784,新規,0,2024-03-05,2024-03-05,株式会社エヌ・エイ・シー・ケア,,株式会社,東京都,港区,西新橋１丁目６番２１号,,13,103,1050003,,,,,,,2024-03-05,1,,,,,エヌエイシーケア,0
306,2010405023007,新規,0,2024-03-05,2024-03-05,医療法人社団晴栄会,,その他の設立登記法人,東京都,港区,白金６丁目６番１号マンション芝白金３階,,13,103,1080072,,,,,,,2024-03-05,1,,,,,セイエイカイ,0
307,2010405023015,新規,0,2024-03-05,2024-03-05,一般社団法人Ｂ　Ｍａｒｋｅｔ　Ｂｕｉｌｄｅｒ　Ｊａｐａｎ,,その他の設立登記法人,東京都,港区,虎ノ門１丁目１７番１号虎ノ門ヒルズビジネスタワー１５階,,13,103,1050001,,,,,,,2024-03-05,1,,,,,ビーマーケットビルダージャパン,0
308,2010501051877,新規,0,2024-03-05,2024-03-05,株式会社ミライコンサルティング,,株式会社,東京都,台東区,台東２丁目５番１号,,13,106,1100016,,,,,,,2024-03-05,1,,,,,ミライコンサルティング,0
309,2010501051885,新規,0,2024-03-05,2024-03-05,悦熹国際株式会社,,株式会社,東京都,台東区,台東２丁目３１－１０ＩＮＣ御徒町事務所１１２号室,,13,106,1100016,,,,,,,2024-03-05,1,,,,,エツキコクサイ,0
312,2010603010665,新規,0,2024-03-05,2024-03-05,合同会社ＳＯＲＩＭＡ,,合同会社,東京都,江東区,豊洲５丁目１番１３号,,13,108,1350061,,,,,,,2024-03-05,1,,,,,ソリマ,0
313,2010605004293,新規,0,2024-03-05,2024-03-05,医療法人社団隣有会,,その他の設立登記法人,東京都,墨田区,京島１丁目３９番１号曳舟西ビューハイツ１階店舗１２２,,13,107,1310046,,,,,,,2024-03-05,1,,,,,リンユウカイ,0
314,2010701045605,新規,0,2024-03-05,2024-03-05,株式会社Ｂｏｎｅｗｏｒｋｓ,,株式会社,東京都,品川区,上大崎３丁目１番２－１４０７号,,13,109,1410021,,,,,,,2024-03-05,1,,,,,ボーンワークス,0
319,2010901054802,新規,0,2024-03-05,2024-03-05,リアルベースアーキテクト株式会社,,株式会社,東京都,世田谷区,弦巻４丁目９番１７－２０２号,,13,112,1540016,,,,,,,2024-03-05,1,,,,,リアルベースアーキテクト,0
336,2011001160350,新規,0,2024-03-05,2024-03-05,株式会社ＪＰ　ＭＡＧＩＣ,,株式会社,東京都,渋谷区,道玄坂１丁目１０番８号渋谷道玄坂東急ビル２Ｆ－Ｃ,,13,113,1500043,,,,,,,2024-03-05,1,,,,,ジェーピーマジック,0
337,2011001160409,新規,0,2024-03-05,2024-03-05,ＧＳＯプロフェッショナルズ株式会社,,株式会社,東京都,渋谷区,南平台町８番１４号１０３,,13,113,1500036,,,,,,,2024-03-05,1,,,,,ジーエスオープロフェッショナルズ,0
340,2011003018621,新規,0,2024-03-05,2024-03-05,ＧＹ＆ＫＡＩＨＡＴＳＵ合同会社,,合同会社,東京都,渋谷区,道玄坂１丁目１０番８号渋谷道玄坂東急ビル２Ｆ－Ｃ,,13,113,1500043,,,,,,,2024-03-05,1,,,,,ジーワイアンドカイハツ,0
341,2011005010386,新規,0,2024-03-05,2024-03-05,一般社団法人宅地建物取引支援センター,,その他の設立登記法人,東京都,渋谷区,代々木３丁目５８番６号スノハラビル３０５,,13,113,1510053,,,,,,,2024-03-05,1,,,,,タクチタテモノトリヒキシエンセンター,0
343,2011101106377,新規,0,2024-03-05,2024-03-05,Ｃｏｉｎｃｏｌａ株式会社,,株式会社,東京都,新宿区,高田馬場４丁目１８－９ハイシテイ高田馬場２０１号Ｃ室,,13,104,1690075,,,,,,,2024-03-05,1,,,,,コインコラ,0
344,2011101106427,新規,0,2024-03-05,2024-03-05,ＨｕｓｔｌｅｃａｔＧａｍｅｓ株式会社,,株式会社,東京都,新宿区,新宿２丁目４番１－１１０２号,,13,104,1600022,,,,,,,2024-03-05,1,,,,,ハッスルキャットゲームズ,0
345,2011103014149,新規,0,2024-03-05,2024-03-05,合同会社加藤守,,合同会社,東京都,新宿区,西新宿４丁目２番１５－３４０３号,,13,104,1600023,,,,,,,2024-03-05,1,,,,,カトウマモル,0
346,2011103014173,新規,0,2024-03-05,2024-03-05,合同会社新倉事務所,,合同会社,東京都,新宿区,大京町２２番地,,13,104,1600015,,,,,,,2024-03-05,1,,,,,ニイクラジムショ,0
349,2011201025279,新規,0,2024-03-05,2024-03-05,株式会社ＳＩＬＫＹＣＵＴ　ｉｎｔｅｒｎａｔｉｏｎａｌ,,株式会社,東京都,中野区,東中野３丁目１番１号,,13,114,1640003,,,,,,,2024-03-05,1,,,,,シルキーカットインターナショナル,0
350,2011301029452,新規,0,2024-03-05,2024-03-05,株式会社ＫＡＭＩＪＯ,,株式会社,東京都,杉並区,方南２丁目１８番８号,,13,115,1680062,,,,,,,2024-03-05,1,,,,,カミジョウ,0
354,2011501030400,新規,0,2024-03-05,2024-03-05,ＢＥＭＩ　ＴＥＣＨＮＯＬＯＧＹ株式会社,,株式会社,東京都,荒川区,南千住１丁目４５番８－１０３Ｆ,,13,118,1160003,,,,,,,2024-03-05,1,,,,,ベミテクノロジー,0
358,2011701027064,新規,0,2024-03-05,2024-03-05,株式会社技‐Ｔａｋｕｍｉ　Ｇｒｏｕｐ,,株式会社,東京都,江戸川区,西小岩４丁目３番２２－４０５号,,13,123,1330057,,,,,,,2024-03-05,1,,,,,ワザタクミグループ,0
360,2011803006115,新規,0,2024-03-05,2024-03-05,Ｌａｓｙｓ＆カンパニー合同会社,,合同会社,東京都,足立区,栗原３丁目２７番２－１０１号,,13,121,1230842,,,,,,,2024-03-05,1,,,,,ラシサカンパニー,0
370,2013303007031,新規,0,2024-03-05,2024-03-05,ＭＡＧ合同会社,,合同会社,東京都,豊島区,上池袋１丁目１５番１０号メゾンクレール１０２号,,13,116,1700012,,,,,,,2024-03-05,1,,,,,マグ,0
386,2030001158948,新規,0,2024-03-05,2024-03-05,株式会社三和商事,,株式会社,埼玉県,羽生市,南７丁目２番１３号２０２,,11,216,3480053,,,,,,,2024-03-05,1,,,,,サンワショウジ,0
387,2030001159046,新規,0,2024-03-05,2024-03-05,プラスワン産業医事務所株式会社,,株式会社,埼玉県,さいたま市中央区,上落合２丁目３番２号５階,,11,105,3380001,,,,,,,2024-03-05,1,,,,,プラスワンサンギョウイジムショ,0
392,2030003023729,新規,0,2024-03-05,2024-03-05,合同会社Ｈａｍａｋａｎ　Ｃｒｅａｔｅ,,合同会社,埼玉県,川越市,大字的場１９１４番地５,,11,201,3501101,,,,,,,2024-03-05,1,,,,,ハマカンクリエイト,0
393,2030003023761,新規,0,2024-03-05,2024-03-05,合同会社アキヤマカセ,,合同会社,埼玉県,川越市,大字砂７１６－１８,,11,201,3501133,,,,,,,2024-03-05,1,,,,,アキヤマカセ,0
398,2040001132472,新規,0,2024-03-05,2024-03-05,株式会社ココハレ,,株式会社,千葉県,流山市,野々下５丁目９７４番地の２４,,12,220,2700135,,,,,,,2024-03-05,1,,,,,ココハレ,0
403,2040003024486,新規,0,2024-03-05,2024-03-05,合同会社勝浦ベース,,合同会社,千葉県,勝浦市,鵜原９３３番地１,,12,218,2995243,,,,,,,2024-03-05,1,,,,,カツウラベース,0
404,2040005022307,新規,0,2024-03-05,2024-03-05,Ｋ・Ｉパートナーズ土地家屋調査士法人,,その他の設立登記法人,千葉県,船橋市,本町３丁目１９番２号,,12,204,2730005,,,,,,,2024-03-05,1,,,,,ケイアイパートナーズ,0
413,2050003008174,新規,0,2024-03-05,2024-03-05,合同会社Ｓ＆Ｋプランニング,,合同会社,茨城県,水戸市,西原１丁目１４－１３,,08,201,3100044,,,,,,,2024-03-05,1,,,,,エスアンドケイプランニング,0
416,2060001036878,新規,0,2024-03-05,2024-03-05,株式会社葵凪鈑金塗装,,株式会社,栃木県,芳賀郡芳賀町,大字西高橋３７９３－１,,09,345,3213315,,,,,,,2024-03-05,1,,,,,アオナバンキントソウ,0
423,2080101024566,新規,0,2024-03-05,2024-03-05,株式会社ワンテック,,株式会社,静岡県,富士市,国久保３丁目２番２６号,,22,210,4170071,,,,,,,2024-03-05,1,,,,,ワンテック,0
424,2080401027038,新規,0,2024-03-05,2024-03-05,株式会社プラスイチド,,株式会社,静岡県,浜松市中央区,萩丘４丁目２０番２４号,,22,138,4338121,,,,,,,2024-03-05,1,,,,,プラスイチド,0
431,2100001037244,新規,0,2024-03-05,2024-03-05,トウシンホールディングス株式会社,,株式会社,長野県,上田市,住吉１１番地１０,,20,203,3860002,,,,,,,2024-03-05,1,,,,,トウシンホールディングス,0
432,2100001037252,新規,0,2024-03-05,2024-03-05,アトリスマネジメント株式会社,,株式会社,長野県,茅野市,ちの上原２３７－１３,,20,214,3910001,,,,,,,2024-03-05,1,,,,,アトリスマネジメント,0
441,2110001038209,新規,0,2024-03-05,2024-03-05,株式会社Ｖ‐１,,株式会社,新潟県,長岡市,西神田町１番地２２,,15,202,9400051,,,,,,,2024-03-05,1,,,,,ブイワン,0
442,2110001038217,新規,0,2024-03-05,2024-03-05,株式会社河内架設,,株式会社,新潟県,新潟市東区,上木戸２丁目２６番５号,,15,102,9500891,,,,,,,2024-03-05,1,,,,,カワウチカセツ,0
454,2120001262773,新規,0,2024-03-05,2024-03-05,株式会社成夢,,株式会社,大阪府,枚方市,津田駅前２丁目９番２５－７０４号,,27,210,5730125,,,,,,,2024-03-05,1,,,,,,0
455,2120001262807,新規,0,2024-03-05,2024-03-05,株式会社Ｎｅｗ　Ｗｏｒｋ　Ｓｔｙｌｅ　Ｌａｂ,,株式会社,大阪府,大阪市浪速区,幸町２丁目３－２０ＳＷＩＳＳ難波西９０５,,27,111,5560021,,,,,,,2024-03-05,1,,,,,ニューウォークスタイルラボ,0
456,2120001262815,新規,0,2024-03-05,2024-03-05,未央株式会社,,株式会社,大阪府,大阪市中央区,島之内２丁目９番１５－２０７号,,27,128,5420082,,,,,,,2024-03-05,1,,,,,ミオ,0
457,2120001262831,新規,0,2024-03-05,2024-03-05,株式会社ｉｇｎｉｔｅ,,株式会社,大阪府,大阪市福島区,福島８丁目１２番１０号シャトー福島４０５号室,,27,103,5530003,,,,,,,2024-03-05,1,,,,,イグナイト,0
458,2120001262848,新規,0,2024-03-05,2024-03-05,株式会社スカイライン,,株式会社,大阪府,大阪市浪速区,敷津東２丁目４番１７号,,27,111,5560012,,,,,,,2024-03-05,1,,,,,スカイライン,0
459,2120001262864,新規,0,2024-03-05,2024-03-05,株式会社日本オフィスコンサルティング,,株式会社,大阪府,大阪市東淀川区,東中島１丁目１７番５号,,27,114,5330033,,,,,,,2024-03-05,1,,,,,ニホンオフィスコンサルティング,0
462,2120101069144,新規,0,2024-03-05,2024-03-05,株式会社ＭＡＧＯＫＯＲＯ,,株式会社,大阪府,和泉市,伯太町３丁目３番４５－２０１号,,27,219,5940023,,,,,,,2024-03-05,1,,,,,マゴコロ,0
463,2120101069160,新規,0,2024-03-05,2024-03-05,株式会社イサカ,,株式会社,大阪府,和泉市,国分町８２５番地,,27,219,5941114,,,,,,,2024-03-05,1,,,,,イサカ,0
464,2120101069169,新規,0,2024-03-05,2024-03-05,株式会社ケアメカ,,株式会社,大阪府,藤井寺市,小山８丁目１５番３３号,,27,226,5830033,,,,,,,2024-03-05,1,,,,,ケアメカ,0
465,2120105009831,新規,0,2024-03-05,2024-03-05,一般社団法人空の御伽話,,その他の設立登記法人,大阪府,堺市南区,原山台３丁１番２５－３０４号,,27,145,5900132,,,,,,,2024-03-05,1,,,,,ソラノオトギバナシ,0
466,2120903005073,新規,0,2024-03-05,2024-03-05,合同会社ハマダフードビジネス,,合同会社,大阪府,茨木市,東太田４丁目１０番３３号の３,,27,211,5670012,,,,,,,2024-03-05,1,,,,,ハマダフードビジネス,0
475,2130001076446,新規,0,2024-03-05,2024-03-05,株式会社アミー,,株式会社,京都府,京都市伏見区,革屋町７９４－１,,26,109,6128356,,,,,,,2024-03-05,1,,,,,アミー,0
480,2140003020228,新規,0,2024-03-05,2024-03-05,合同会社創庵,,合同会社,兵庫県,伊丹市,宮ノ前３丁目５番７号,,28,207,6640895,,,,,,,2024-03-05,1,,,,,ソウアン,0
489,2180001160360,新規,0,2024-03-05,2024-03-05,株式会社Ｂｉｇ　Ｂｒｉｄｇｅ,,株式会社,愛知県,名古屋市中川区,助光１丁目１９０３番地の１,,23,110,4540947,,,,,,,2024-03-05,1,,,,,ビックブリッジ,0
490,2180001160377,新規,0,2024-03-05,2024-03-05,株式会社ＨＯＰＥ,,株式会社,愛知県,清須市,一場１２３３番地１１,,23,233,4520931,,,,,,,2024-03-05,1,,,,,ホープ,0
491,2180001160385,新規,0,2024-03-05,2024-03-05,ＤＲＵＣＫＥＮ株式会社,,株式会社,愛知県,東海市,加木屋町社山１５７番地,,23,222,4770032,,,,,,,2024-03-05,1,,,,,ドルッケン,0
492,2180001160402,新規,0,2024-03-05,2024-03-05,株式会社カーボン・アセット,,株式会社,愛知県,名古屋市東区,芳野３丁目２番２６号,,23,102,4610027,,,,,,,2024-03-05,1,,,,,カーボンアセット,0
497,2180005020536,新規,0,2024-03-05,2024-03-05,一般社団法人霊鷲山文化思想研究会,,その他の設立登記法人,愛知県,名古屋市中区,丸の内２丁目１６番２１号ライオンズマンション丸の内２０２号,,23,106,4600002,,,,,,,2024-03-05,1,,,,,リョウジュセンブンカシソウケンキュウカイ,0
505,2220001025848,新規,0,2024-03-05,2024-03-05,株式会社ＬＥＡＤ,,株式会社,石川県,金沢市,畝田東３丁目５１６番地,,17,201,9200344,,,,,,,2024-03-05,1,,,,,リード,0
506,2230001020237,新規,0,2024-03-05,2024-03-05,株式会社柳屋,,株式会社,富山県,小矢部市,西中野１２１２番地１３,,16,209,9320035,,,,,,,2024-03-05,1,,,,,ヤナギヤ,0
508,2240001062848,新規,0,2024-03-05,2024-03-05,株式会社ＦＵＮＮＹＳ,,株式会社,広島県,広島市安佐北区,落合南１丁目２番１３号,,34,106,7391732,,,,,,,2024-03-05,1,,,,,ファニーズ,0
510,2250001020540,新規,0,2024-03-05,2024-03-05,株式会社オール・メンテナンス,,株式会社,山口県,宇部市,大字西万倉１９８７番地８,,35,202,7570214,,,,,,,2024-03-05,1,,,,,オールメンテナンス,0
513,2280005007597,新規,0,2024-03-05,2024-03-05,農事組合法人翼の里うちだ,,その他の設立登記法人,島根県,益田市,内田町イ３１３番地,,32,204,6982143,,,,,,,2024-03-05,1,,,,,ツバサノサトウチダ,0
517,2290001104926,新規,0,2024-03-05,2024-03-05,株式会社福産不動産,,株式会社,福岡県,糟屋郡粕屋町,大字仲原１７９１番１号,,40,349,8112304,,,,,,,2024-03-05,1,,,,,フクサンフドウサン,0
527,2320003004303,新規,0,2024-03-05,2024-03-05,合同会社おおの,,合同会社,大分県,別府市,大字鶴見６３７番地の１０,,44,202,8740840,,,,,,,2024-03-05,1,,,,,オオノ,0
530,2330003010250,新規,0,2024-03-05,2024-03-05,Ｒａｎｄ合同会社,,合同会社,熊本県,合志市,豊岡２０００番地８１６,,43,216,8611115,,,,,,,2024-03-05,1,,,,,アールアンド,0
532,2340002024548,新規,0,2024-03-05,2024-03-05,有限会社頴娃新聞販売所,,有限会社,鹿児島県,南九州市,頴娃町御領３８３８番地,,46,223,8910703,,,,,,,2024-03-05,1,,,,,エイシンブンハンバイショ,0
534,2340003004391,新規,0,2024-03-05,2024-03-05,合同会社カナン,,合同会社,鹿児島県,鹿児島市,武２丁目７－１７,,46,201,8900045,,,,,,,2024-03-05,1,,,,,カナン,0
535,2350001018822,新規,0,2024-03-05,2024-03-05,株式会社Ｎｉｐｐｏｎ　ｔｒａｄｉｎｇ,,株式会社,宮崎県,延岡市,大貫町２丁目２９８６番地４,,45,203,8820803,,,,,,,2024-03-05,1,,,,,ニッポントレーディング,0
539,2360001033283,新規,0,2024-03-05,2024-03-05,株式会社Ｃｒｅａｔｅ　Ｏｎｅｓ,,株式会社,沖縄県,那覇市,牧志２丁目１７番２７－４０１号,,47,201,9000013,,,,,,,2024-03-05,1,,,,,クリエイトワンズ,0
540,2360001033291,新規,0,2024-03-05,2024-03-05,株式会社Ｉａｍ,,株式会社,沖縄県,宜野湾市,真栄原１丁目２３番１６号,,47,205,9012215,,,,,,,2024-03-05,1,,,,,アイアム,0
541,2360003013762,新規,0,2024-03-05,2024-03-05,合同会社ＥｄｇｅＣａｒｄ,,合同会社,沖縄県,中頭郡北谷町,字伊平４１４番地５・２階,,47,326,9040102,,,,,,,2024-03-05,1,,,,,エッジカード,0
542,2370001050996,新規,0,2024-03-05,2024-03-05,株式会社Ｃｏｍｅ　Ｐｒｉｍａ,,株式会社,宮城県,仙台市若林区,河原町１丁目４番２０－６０３号,,04,103,9840816,,,,,,,2024-03-05,1,,,,,コメプリマ,0
543,2370003006501,新規,0,2024-03-05,2024-03-05,Ｏｐｅｎ　Ｕｐ合同会社,,合同会社,宮城県,大崎市,古川北町１丁目６番３７号松竹第一ビル２階Ａ号室,,04,215,9896171,,,,,,,2024-03-05,1,,,,,オープンアップ,0
554,2400001016572,新規,0,2024-03-05,2024-03-05,株式会社藤原米製作所,,株式会社,岩手県,岩手郡雫石町,御明神大曲戸２２６番地,,03,301,0200581,,,,,,,2024-03-05,1,,,,,フジワラコメセイサクジョ,0
557,2430001091209,新規,0,2024-03-05,2024-03-05,キャリアート株式会社,,株式会社,北海道,札幌市東区,北十五条東１５丁目２－４７,,01,103,0650015,,,,,,,2024-03-05,1,,,,,キャリアート,0
558,2430001091217,新規,0,2024-03-05,2024-03-05,株式会社ＴＯＮＴＯＮ,,株式会社,北海道,札幌市北区,篠路町太平２０８番地,,01,102,0028051,,,,,,,2024-03-05,1,,,,,トントン,0
559,2430001091233,新規,0,2024-03-05,2024-03-05,株式会社海光丸,,株式会社,北海道,石狩郡当別町,西町１１番地２,,01,303,0610234,,,,,,,2024-03-05,1,,,,,カイコウマル,0
560,2430001091241,新規,0,2024-03-05,2024-03-05,株式会社ユーティリティー・Ｆ,,株式会社,北海道,札幌市厚別区,厚別中央二条５丁目３番３３－８０２号,,01,108,0040052,,,,,,,2024-03-05,1,,,,,ユーティリティーエフ,0
562,2430003016023,新規,0,2024-03-05,2024-03-05,合同会社樽前ロードサービス,,合同会社,北海道,苫小牧市,花園町２丁目７－１９,,01,213,0530853,,,,,,,2024-03-05,1,,,,,タルマエロードサービス,0
569,2470001020056,新規,0,2024-03-05,2024-03-05,株式会社ＡＬＰＨＡ,,株式会社,香川県,高松市,元山町５１１番地２１,,37,201,7610311,,,,,,,2024-03-05,1,,,,,アルファ,0
588,3010001242760,新規,0,2024-03-05,2024-03-05,ＸＴＥＭ株式会社,,株式会社,東京都,中央区,銀座１丁目１２－４Ｎ＆ＥＢＬＤ．７階,,13,102,1040061,,,,,,,2024-03-05,1,,,,,エクステム,0
590,3010003043125,新規,0,2024-03-05,2024-03-05,ホープソリューションズ合同会社,,合同会社,東京都,千代田区,神田和泉町１番地６－１６ヤマトビル４０５,,13,101,1010024,,,,,,,2024-03-05,1,,,,,ホープソリューションズ,0
591,3010005037991,新規,0,2024-03-05,2024-03-05,司法書士法人五番町法務事務所,,その他の設立登記法人,東京都,千代田区,五番町１２番７号,,13,101,1020076,,,,,,,2024-03-05,1,,,,,,0
599,3010401180809,新規,0,2024-03-05,2024-03-05,株式会社Ｑｕｅｓｔ,,株式会社,東京都,港区,南青山１丁目１２番３号,,13,103,1070062,,,,,,,2024-03-05,1,,,,,クエスト,0
601,3010403032074,新規,0,2024-03-05,2024-03-05,ＫＯＴＡＴＳＵ　Ｌａｂ合同会社,,合同会社,東京都,港区,六本木３丁目２番１号,,13,103,1060032,,,,,,,2024-03-05,1,,,,,コタツラボ,0
603,3010501051876,新規,0,2024-03-05,2024-03-05,株式会社スターリージャパン,,株式会社,東京都,台東区,台東３丁目４０－３ユーハイツ御徒町５０３,,13,106,1100016,,,,,,,2024-03-05,1,,,,,スターリージャパン,0
604,3010503007356,新規,0,2024-03-05,2024-03-05,合同会社ＡＫＡＲＩ,,合同会社,東京都,台東区,今戸２丁目３５番７－５０３号Ａ－ＨＯＵＳＥ浅草,,13,106,1110024,,,,,,,2024-03-05,1,,,,,アカリ,0
607,3010701045637,新規,0,2024-03-05,2024-03-05,株式会社ＳｕｎｎｙＳｐｏｔ,,株式会社,東京都,品川区,西品川１丁目２０－１６－２００３,,13,109,1410033,,,,,,,2024-03-05,1,,,,,サニースポット,0
608,3010703007073,新規,0,2024-03-05,2024-03-05,合同会社丸二剣片喰,,合同会社,東京都,品川区,荏原４丁目１６番８号,,13,109,1420063,,,,,,,2024-03-05,1,,,,,マルニケンカタバミ,0
609,3010703007081,新規,0,2024-03-05,2024-03-05,合同会社ライフデザインパートナーズ,,合同会社,東京都,品川区,西大井３丁目１５番９号ＴＯＫＹＯβ西大井６－２０４,,13,109,1400015,,,,,,,2024-03-05,1,,,,,ライフデザインパートナーズ,0
622,3011001160374,新規,0,2024-03-05,2024-03-05,株式会社ＴｉｎｙＴｉｎｔ,,株式会社,東京都,渋谷区,神宮前６丁目２９番４号原宿Ｋｏｍｉｙａビル６階,,13,113,1500001,,,,,,,2024-03-05,1,,,,,タイニーティント,0
623,3011001160390,新規,0,2024-03-05,2024-03-05,株式会社ＰｌｕｓＰａｓｓ,,株式会社,東京都,渋谷区,渋谷２丁目２１番１号渋谷ヒカリエ３２Ｆ,,13,113,1500002,,,,,,,2024-03-05,1,,,,,プラスパス,0
628,3011103014172,新規,0,2024-03-05,2024-03-05,ウイズユー合同会社,,合同会社,東京都,新宿区,下落合４丁目２３番１２号,,13,104,1610033,,,,,,,2024-03-05,1,,,,,ウイズユー,0
631,3011301029468,新規,0,2024-03-05,2024-03-05,株式会社おかだ商店,,株式会社,東京都,杉並区,荻窪５丁目２８番７号エクセレントシティ荻窪１Ｆ－Ｃ,,13,115,1670051,,,,,,,2024-03-05,1,,,,,オカダショウテン,0
632,3011401025904,新規,0,2024-03-05,2024-03-05,株式会社ＣＯＺＹ　ＰＬＡＣＥ,,株式会社,東京都,板橋区,板橋４丁目５０番１１号,,13,119,1730004,,,,,,,2024-03-05,1,,,,,コージープレイス,0
633,3011403004294,新規,0,2024-03-05,2024-03-05,合同会社ケイマティック,,合同会社,東京都,板橋区,蓮根３丁目２５－１４－５０２,,13,119,1740046,,,,,,,2024-03-05,1,,,,,ケイマティック,0
635,3011501030390,新規,0,2024-03-05,2024-03-05,株式会社ＭＥＩ,,株式会社,東京都,荒川区,東尾久１丁目１番９号,,13,118,1160012,,,,,,,2024-03-05,1,,,,,メイ,0
636,3011701027071,新規,0,2024-03-05,2024-03-05,株式会社プロス,,株式会社,東京都,江戸川区,北小岩２丁目２２番３号ユーザンコートＩＩ２０３,00133949,13,123,1330051,,,,,,,2024-03-05,1,,,,,プロス,0
638,3011803006114,新規,0,2024-03-05,2024-03-05,ＡＹＡ合同会社,,合同会社,東京都,足立区,新田３丁目３６－２１ロイヤルパークスリバーサイド８１３,,13,121,1230865,,,,,,,2024-03-05,1,,,,,アヤ,0
640,3012701018119,新規,0,2024-03-05,2024-03-05,株式会社ｇｒｉｐ,,株式会社,東京都,清瀬市,元町２丁目１６番３３－１号,,13,221,2040021,,,,,,,2024-03-05,1,,,,,グリップ,0
642,3013301052169,新規,0,2024-03-05,2024-03-05,株式会社トリガー商会,,株式会社,東京都,豊島区,池袋２丁目２３－４池袋見真ビル４０３,,13,116,1710014,,,,,,,2024-03-05,1,,,,,トリガーショウカイ,0
654,3021001081603,新規,0,2024-03-05,2024-03-05,株式会社ＫＯＡ　ｍｅｄｉｃａｌ,,株式会社,神奈川県,鎌倉市,坂ノ下２８番１４号,,14,204,2480021,,,,,,,2024-03-05,1,,,,,コアメディカル,0
658,3030001158996,新規,0,2024-03-05,2024-03-05,ＤＰＭ株式会社,,株式会社,埼玉県,川口市,東川口１丁目３２番１３号,,11,203,3330801,,,,,,,2024-03-05,1,,,,,ディーピーエム,0
666,3040001132538,新規,0,2024-03-05,2024-03-05,株式会社サクラエステート,,株式会社,千葉県,船橋市,三咲２丁目１０－６－Ａ０２,,12,204,2740812,,,,,,,2024-03-05,1,,,,,サクラエステート,0
669,3040003024477,新規,0,2024-03-05,2024-03-05,グランシェルパ合同会社,,合同会社,千葉県,流山市,後平井１７０番地（運Ｂ１０２街区１）８０２,,12,220,2700151,,,,,,,2024-03-05,1,,,,,グランシェルパ,0
670,3050001054401,新規,0,2024-03-05,2024-03-05,常陸國Ｅｎｇｉｎｅｅｒｉｎｇ株式会社,,株式会社,茨城県,土浦市,中貫１２６４番地２,,08,203,3000005,,,,,,,2024-03-05,1,,,,,ヒタチノクニエンジニアリング,0
675,3080401027029,新規,0,2024-03-05,2024-03-05,クレスクリエイターズ株式会社,,株式会社,静岡県,浜松市中央区,初生町１１８０番地の１４,,22,138,4338112,,,,,,,2024-03-05,1,,,,,クレスクリエイターズ,0
677,3090001018567,新規,0,2024-03-05,2024-03-05,ブルーバード株式会社,,株式会社,山梨県,南都留郡鳴沢村,字富士山８５４５番地１０７９－１０１号室,,19,429,4010320,,,,,,,2024-03-05,1,,,,,ブルーバード,0
678,3090005007616,新規,0,2024-03-05,2024-03-05,一般社団法人やまなかこミライパートナーズ,,その他の設立登記法人,山梨県,南都留郡山中湖村,平野１８２５番地の４テルゾ山中湖４０４,,19,425,4010502,,,,,,,2024-03-05,1,,,,,ヤマナカコミライパートナーズ,0
679,3100001037251,新規,0,2024-03-05,2024-03-05,株式会社ＨＩ,,株式会社,長野県,小諸市,大字御影新田７５１番地,,20,208,3840808,,,,,,,2024-03-05,1,,,,,エイチアイ,0
693,3120001262715,新規,0,2024-03-05,2024-03-05,キャリアワーク株式会社,,株式会社,大阪府,大阪市北区,東天満１丁目１１番１３号ＡＸＩＳ南森町ビル１０Ｆ,,27,127,5300044,,,,,,,2024-03-05,1,,,,,キャリアワーク,0
694,3120001262772,新規,0,2024-03-05,2024-03-05,株式会社Ｅｌｉｍｕ　Ｉｔ　Ｓｕｐｐｏｒｔ,,株式会社,大阪府,大阪市淀川区,西宮原１丁目５番３３号新大阪飯田ビル１Ｆ,,27,123,5320004,,,,,,,2024-03-05,1,,,,,エリムアイティーサポート,0
695,3120001262863,新規,0,2024-03-05,2024-03-05,株式会社テキスタイルパントリー,,株式会社,大阪府,大阪市中央区,淡路町２丁目１番１－６０２号,,27,128,5410047,,,,,,,2024-03-05,1,,,,,テキスタイルパントリー,0
697,3120003026069,新規,0,2024-03-05,2024-03-05,天誠合同会社,,合同会社,大阪府,大阪市北区,長柄東２丁目３番２８号１００１室,,27,127,5310063,,,,,,,2024-03-05,1,,,,,テンセイ,0
700,3120101069143,新規,0,2024-03-05,2024-03-05,ａｓｉｓ株式会社,,株式会社,大阪府,和泉市,槇尾山町３７番地の１,,27,219,5941131,,,,,,,2024-03-05,1,,,,,アズイズ,0
701,3120101069151,新規,0,2024-03-05,2024-03-05,株式会社ＬＰ通信,,株式会社,大阪府,和泉市,池田下町１７７９番地の３４,,27,219,5940032,,,,,,,2024-03-05,1,,,,,エルピーツウシン,0
703,3120105009830,新規,0,2024-03-05,2024-03-05,一般社団法人ＷｅｌｌＳｔｅｐ,,その他の設立登記法人,大阪府,堺市北区,百舌鳥梅北町５丁４２２番３－１Ｆ,,27,146,5918031,,,,,,,2024-03-05,1,,,,,ウェルステップ,0
711,3130001076486,新規,0,2024-03-05,2024-03-05,Ｌｉｎｋ株式会社,,株式会社,京都府,京都市中京区,三条通新町西入ル釜座町２２番地ストークビル三条烏丸２０４号,,26,104,6040000,,,,,,,2024-03-05,1,,,,,リンク,0
712,3130003009353,新規,0,2024-03-05,2024-03-05,合同会社ｆａｍ,,合同会社,京都府,京都市北区,大宮南山ノ前町３５番地７,,26,101,6038473,,,,,,,2024-03-05,1,,,,,ファム,0
714,3130005017024,新規,0,2024-03-05,2024-03-05,一般社団法人京都伝承佛所,,その他の設立登記法人,京都府,京都市西京区,大枝沓掛町１３番地３６１,,26,111,6101106,,,,,,,2024-03-05,1,,,,,キョウトデンショウブッショ,0
717,3140001133534,新規,0,2024-03-05,2024-03-05,株式会社ＥＸＳＴＡ,,株式会社,兵庫県,芦屋市,朝日ケ丘町８－１８－１１１,,28,206,6590012,,,,,,,2024-03-05,1,,,,,エクスタ,0
720,3140003020219,新規,0,2024-03-05,2024-03-05,蒲公英合同会社,,合同会社,兵庫県,西脇市,高田井町１３９番地の５,,28,213,6770016,,,,,,,2024-03-05,1,,,,,タンポポ,0
731,3180001084583,新規,0,2024-03-05,2024-03-05,栄光電子株式会社,,株式会社,愛知県,一宮市,木曽川町黒田字寺東１番地,,23,203,4930001,,,,,,,2024-03-05,1,,,,,エイコウデンシ,0
735,3180001160384,新規,0,2024-03-05,2024-03-05,オータク金属株式会社,,株式会社,愛知県,愛西市,大野町郷裏６６番地,,23,232,4960922,,,,,,,2024-03-05,1,,,,,オータクキンゾク,0
736,3180001160434,新規,0,2024-03-05,2024-03-05,株式会社ＡＮＯＷＡ　ＰＵＲＥ,,株式会社,愛知県,清須市,新清洲１丁目４番地６,,23,233,4520943,,,,,,,2024-03-05,1,,,,,アノワピュア,0
737,3180001160442,新規,0,2024-03-05,2024-03-05,名古屋エステート・リンク株式会社,,株式会社,愛知県,名古屋市千種区,千種３丁目２５番１９号,,23,101,4640858,,,,,,,2024-03-05,1,,,,,ナゴヤエステートリンク,0
741,3200001042209,新規,0,2024-03-05,2024-03-05,株式会社ＣＲゴルフ,,株式会社,岐阜県,岐阜市,一日市場４丁目１７番３号,,21,201,5010103,,,,,,,2024-03-05,1,,,,,シーアールゴルフ,0
743,3200003006252,新規,0,2024-03-05,2024-03-05,合同会社Ｌｉｍｉｔ,,合同会社,岐阜県,土岐市,妻木平成町３丁目１３番地,,21,212,5095302,,,,,,,2024-03-05,1,,,,,リミット,0
744,3200005013577,新規,0,2024-03-05,2024-03-05,一般社団法人大垣イスラミックセンター,,その他の設立登記法人,岐阜県,大垣市,島里３丁目８７番地１,,21,202,5030935,,,,,,,2024-03-05,1,,,,,オオガキイスラミックセンター,0
747,3230001020236,新規,0,2024-03-05,2024-03-05,株式会社Ｙｏｋｕｂａｒｉ　ｆａｒｍ,,株式会社,富山県,富山市,高田９番地３,,16,201,9300866,,,,,,,2024-03-05,1,,,,,ヨクバリファーム,0
751,3240003006570,新規,0,2024-03-05,2024-03-05,合同会社アンサンブル,,合同会社,広島県,広島市南区,向洋新町２丁目２番３０号,,34,103,7340055,,,,,,,2024-03-05,1,,,,,アンサンブル,0
762,3290001104909,新規,0,2024-03-05,2024-03-05,Ｓｕｎ　ｏｆ　九州株式会社,,株式会社,福岡県,福岡市中央区,渡辺通５丁目１５－２５,,40,133,8100004,,,,,,,2024-03-05,1,,,,,サンオブキュウシュウ,0
763,3290001104941,新規,0,2024-03-05,2024-03-05,株式会社わかみや動物医療センター,,株式会社,福岡県,福岡市東区,若宮４丁目２番３９号,,40,131,8130036,,,,,,,2024-03-05,1,,,,,ワカミヤドウブツイリョウセンター,0
769,3290805009717,新規,0,2024-03-05,2024-03-05,一般社団法人Ｇｒｅｅｎｅａｒ,,その他の設立登記法人,福岡県,北九州市八幡東区,勝山１丁目２７番３０号,,40,108,8050043,,,,,,,2024-03-05,1,,,,,グリーニア,0
774,3320001020326,新規,0,2024-03-05,2024-03-05,株式会社積新不動産,,株式会社,大分県,大分市,古国府４丁目１０番４号,,44,201,8700844,,,,,,,2024-03-05,1,,,,,セキシンフドウサン,0
775,3320001020334,新規,0,2024-03-05,2024-03-05,三金トラベル株式会社,,株式会社,大分県,大分市,碩田町３丁目１番３５号,,44,201,8700048,,,,,,,2024-03-05,1,,,,,ミツキントラベル,0
777,3340001026338,新規,0,2024-03-05,2024-03-05,株式会社志布志自動車,,株式会社,鹿児島県,志布志市,志布志町安楽２５０８番地２,,46,221,8997104,,,,,,,2024-03-05,1,,,,,シブシジドウシャ,0
783,3370001050995,新規,0,2024-03-05,2024-03-05,株式会社稚日女,,株式会社,宮城県,石巻市,前谷地字横須賀１０３－１６,,04,202,9871101,,,,,,,2024-03-05,1,,,,,ワカヒルメ,0
784,3370001051003,新規,0,2024-03-05,2024-03-05,株式会社ＣＨＩＹＵＵ,,株式会社,宮城県,仙台市青葉区,本町１丁目５番２８号カーニープレイス仙台駅前通６０３号室,,04,101,9800014,,,,,,,2024-03-05,1,,,,,チユウ,0
795,3400001016571,新規,0,2024-03-05,2024-03-05,株式会社アンビシャスファーム,,株式会社,岩手県,北上市,和賀町煤孫２１地割１２番地,,03,206,0240323,,,,,,,2024-03-05,1,,,,,アンビシャスファーム,0
799,3430001091182,新規,0,2024-03-05,2024-03-05,株式会社児島ファーム,,株式会社,北海道,岩内郡岩内町,字相生１９７番地６,,01,402,0450023,,,,,,,2024-03-05,1,,,,,コジマファーム,0
800,3430001091190,新規,0,2024-03-05,2024-03-05,株式会社スノーリース,,株式会社,北海道,札幌市豊平区,豊平二条１丁目１番３７号,,01,105,0620902,,,,,,,2024-03-05,1,,,,,スノーリース,0
801,3430001091224,新規,0,2024-03-05,2024-03-05,株式会社カエサルプラス,,株式会社,北海道,札幌市北区,屯田七条９丁目１０番３－２０５号,,01,102,0020857,,,,,,,2024-03-05,1,,,,,カエサルプラス,0
803,3430003016014,新規,0,2024-03-05,2024-03-05,合同会社Ｒｉｐｐｌｅ,,合同会社,北海道,札幌市北区,北十六条西４丁目２番１号ＬＥＥ北１６条ビル１階,,01,102,0010016,,,,,,,2024-03-05,1,,,,,リップル,0
804,3430003016022,新規,0,2024-03-05,2024-03-05,コンテンツクリエイト合同会社,,合同会社,北海道,札幌市中央区,南五条西１５丁目２番３号リズム医大前５０３号室,,01,101,0640805,,,,,,,2024-03-05,1,,,,,コンテンツクリエイト,0
807,3470001020055,新規,0,2024-03-05,2024-03-05,協和興業株式会社,,株式会社,香川県,高松市,錦町１丁目７番４号１階,,37,201,7600020,,,,,,,2024-03-05,1,,,,,キョウワコウギョウ,0
809,3500005008679,新規,0,2024-03-05,2024-03-05,特定非営利活動法人えひめインターナショナルＭｅｅｔ‐ｕｐ,,その他の設立登記法人,愛媛県,新居浜市,新田町１丁目８番５６号ワクリエ新居浜内,,38,205,7920003,,,,,,,2024-03-05,1,,,,,エヒメインターナショナルミートアップ,0
831,4010001242768,新規,0,2024-03-05,2024-03-05,レインボーテクノロジー株式会社,,株式会社,東京都,中央区,晴海３丁目１０番１号Ｄａｉｗａ晴海ビル２Ｆ,,13,102,1040053,,,,,,,2024-03-05,1,,,,,レインボーテクノロジー,0
832,4010001242784,新規,0,2024-03-05,2024-03-05,株式会社ＲＯＳＹ,,株式会社,東京都,中央区,銀座８丁目６番８号フローレンスビル２階,,13,102,1040061,,,,,,,2024-03-05,1,,,,,ロージー,0
835,4010003043116,新規,0,2024-03-05,2024-03-05,合同会社ＭＯＭＩ,,合同会社,東京都,千代田区,神田淡路町２丁目１０１番地,,13,101,1010063,,,,,,,2024-03-05,1,,,,,モミ,0
836,4010003043124,新規,0,2024-03-05,2024-03-05,合同会社ａｎａｇｒａｍｓ,,合同会社,東京都,中央区,銀座１丁目１２－４Ｎ＆Ｅ－ＢＬＤ．７階,,13,102,1040061,,,,,,,2024-03-05,1,,,,,アナグラムス,0
838,4010005037982,新規,0,2024-03-05,2024-03-05,一般社団法人こども未来教育協議会,,その他の設立登記法人,東京都,千代田区,神田和泉町１番地,,13,101,1010024,,,,,,,2024-03-05,1,,,,,コドモミライキョウイクキョウギカイ,0
847,4010403032073,新規,0,2024-03-05,2024-03-05,ＯＮＩＧＩＲＩ　ＧＡＭＥＳ合同会社,,合同会社,東京都,港区,六本木３丁目２番１号,,13,103,1060032,,,,,,,2024-03-05,1,,,,,オニギリゲームス,0
859,4010703007072,新規,0,2024-03-05,2024-03-05,合同会社Ｓｅｂｚ,,合同会社,東京都,品川区,北品川５丁目１０番６号ＫＤＡ品川大崎１００１,,13,109,1410001,,,,,,,2024-03-05,1,,,,,セブズ,0
871,4011001160233,新規,0,2024-03-05,2024-03-05,Ｈｙｐｙ株式会社,,株式会社,東京都,渋谷区,渋谷２丁目１９－１５宮益坂ビルディング６０９,,13,113,1500002,,,,,,,2024-03-05,1,,,,,ハイピー,0
872,4011001160349,新規,0,2024-03-05,2024-03-05,トロン株式会社,,株式会社,東京都,渋谷区,渋谷２丁目１９－１５宮益坂ビルディング６０９,,13,113,1500002,,,,,,,2024-03-05,1,,,,,トロン,0
873,4011001160381,新規,0,2024-03-05,2024-03-05,株式会社Ｓｅｅ　ＴＡＰ,,株式会社,東京都,渋谷区,渋谷２丁目９番１１号青山シティビル３Ｆ,,13,113,1500002,,,,,,,2024-03-05,1,,,,,シータップ,0
874,4011001160407,新規,0,2024-03-05,2024-03-05,エス・コミュニティ株式会社,,株式会社,東京都,目黒区,五本木１丁目２０－３,,13,110,1530053,,,,,,,2024-03-05,1,,,,,エスコミュニティ,0
882,4011301029467,新規,0,2024-03-05,2024-03-05,株式会社ストレンジャー・イン・パラダイス,,株式会社,東京都,杉並区,高円寺北２丁目３７番８号２階,,13,115,1660002,,,,,,,2024-03-05,1,,,,,ストレンジャーインパラダイス,0
883,4011401025903,新規,0,2024-03-05,2024-03-05,ＭＳフォロー株式会社,,株式会社,東京都,板橋区,坂下３丁目４番２１号Ｎ３０５,,13,119,1740043,,,,,,,2024-03-05,1,,,,,エムエスフォロー,0
884,4011403004285,新規,0,2024-03-05,2024-03-05,合同会社レッドベア,,合同会社,東京都,板橋区,熊野町３９－２サニーコート手塚１階,,13,119,1730025,,,,,,,2024-03-05,1,,,,,レッドベア,0
885,4011403004293,新規,0,2024-03-05,2024-03-05,Ｆｕｔｕｒｅ　Ｃｏ‐Ｌａｂ合同会社,,合同会社,東京都,板橋区,四葉１丁目９番６号,,13,119,1750084,,,,,,,2024-03-05,1,,,,,フューチャーコラブ,0
886,4011501030381,新規,0,2024-03-05,2024-03-05,興智仁株式会社,,株式会社,東京都,北区,浮間１丁目１番１４号リムジンビル１０４,,13,117,1150051,,,,,,,2024-03-05,1,,,,,コウチジン,0
887,4011501030398,新規,0,2024-03-05,2024-03-05,株式会社サポート,,株式会社,東京都,北区,田端新町１丁目４番２号ＮＫハイツ１０２,,13,117,1140012,,,,,,,2024-03-05,1,,,,,サポート,0
888,4011701027062,新規,0,2024-03-05,2024-03-05,株式会社Ｙａｍａｔｏ　Ｔｒａｖｅｌ＆Ｂｕｓｉｎｅｓｓ,,株式会社,東京都,江戸川区,西葛西２丁目２２番４５－９１４号,,13,123,1340088,,,,,,,2024-03-05,1,,,,,ヤマトトラベルアンドビジネス,0
889,4011701027079,新規,0,2024-03-05,2024-03-05,株式会社建陶,,株式会社,東京都,江戸川区,東小松川１丁目９番８号,,13,123,1320033,,,,,,,2024-03-05,1,,,,,ケント,0
890,4011703003755,新規,0,2024-03-05,2024-03-05,合同会社ＥＷＢ,,合同会社,東京都,江戸川区,中葛西５丁目４１－１０ＢＰＲプレイス葛西６Ｆ,,13,123,1340083,,,,,,,2024-03-05,1,,,,,イーダブルビー,0
892,4011801043868,新規,0,2024-03-05,2024-03-05,清水ソフト株式会社,,株式会社,東京都,足立区,千住橋戸町１－５４ザ・サンメゾン千住大橋７０２号,,13,121,1200038,,,,,,,2024-03-05,1,,,,,シミズソフト,0
893,4011801043876,新規,0,2024-03-05,2024-03-05,株式会社コンシスト,,株式会社,東京都,葛飾区,小菅２丁目１３番９号,,13,122,1240001,,,,,,,2024-03-05,1,,,,,コンシスト,0
897,4013301052151,新規,0,2024-03-05,2024-03-05,海南鎰＿株式会社,00133950,株式会社,東京都,豊島区,南大塚２丁目３８番１号リードシー大塚ビル６－０３,,13,116,1700005,,,,,,,2024-03-05,1,,,,,カイナンイツヒン,0
918,4030001158855,新規,0,2024-03-05,2024-03-05,サイカン工業ホールディングス株式会社,,株式会社,埼玉県,行田市,栄町５番３号,,11,206,3610071,,,,,,,2024-03-05,1,,,,,サイカンコウギョウホールディングス,0
919,4030001158970,新規,0,2024-03-05,2024-03-05,株式会社Ｂ＆Ｍスターズ,,株式会社,埼玉県,三郷市,戸ケ崎３丁目７２７番地,,11,237,3410044,,,,,,,2024-03-05,1,,,,,ビーアンドエムスターズ,0
922,4040001132529,新規,0,2024-03-05,2024-03-05,サンリーディング株式会社,,株式会社,千葉県,市川市,相之川１丁目５－１０,,12,203,2720143,,,,,,,2024-03-05,1,,,,,サンリーディング,0
926,4040003024484,新規,0,2024-03-05,2024-03-05,合同会社クラブトリガー,,合同会社,千葉県,松戸市,中和倉１４３番地コンフォート１０１号,,12,207,2700025,,,,,,,2024-03-05,1,,,,,クラブトリガー,0
927,4050001054375,新規,0,2024-03-05,2024-03-05,ＦＲＩＥＮＤＳ　ＥＮＴＥＲＰＲＩＳＥＳ株式会社,,株式会社,茨城県,小美玉市,羽刈２４８番地２４第２ヒヤマコーポ１号室,,08,236,3190121,,,,,,,2024-03-05,1,,,,,フレンズエンタープライズ,0
928,4050001054383,新規,0,2024-03-05,2024-03-05,株式会社ＫＨＡＮ　ＩＮＴＥＲＮＡＴＩＯＮＡＬ,,株式会社,茨城県,結城市,大字結城１３１８番地１りんどうハイム１１０,,08,207,3070001,,,,,,,2024-03-05,1,,,,,カーンインターナショナル,0
929,4050001054409,新規,0,2024-03-05,2024-03-05,常陽リファイン株式会社,,株式会社,茨城県,土浦市,虫掛３６９５つくばＳＫビル１Ｆ,,08,203,3000066,,,,,,,2024-03-05,1,,,,,ジョウヨウリファイン,0
931,4060001036876,新規,0,2024-03-05,2024-03-05,株式会社ｏｆｆｉｃｅＷＡＴＡＮＡＢＥ,,株式会社,栃木県,足利市,借宿町１丁目１番地１８,,09,202,3260826,,,,,,,2024-03-05,1,,,,,オフィスワタナベ,0
932,4060003004947,新規,0,2024-03-05,2024-03-05,合同会社ミナノ,,合同会社,栃木県,宇都宮市,越戸３丁目８―４７,,09,201,3210951,,,,,,,2024-03-05,1,,,,,ミナノ,0
936,4070001041454,新規,0,2024-03-05,2024-03-05,株式会社岩井解体興業,,株式会社,群馬県,太田市,丸山町１４２０番地,,10,205,3730018,,,,,,,2024-03-05,1,,,,,イワイカイタイコウギョウ,0
937,4070003005300,新規,0,2024-03-05,2024-03-05,ＥＬＩＴＥ　ＭＯＴＯＲ合同会社,,合同会社,群馬県,前橋市,東大室町１２７１番地２,,10,201,3792105,,,,,,,2024-03-05,1,,,,,エリートモーター,0
939,4080001026149,新規,0,2024-03-05,2024-03-05,株式会社ＣＨＩＳＯＵ,,株式会社,静岡県,静岡市葵区,両替町２丁目６番地の１０ＳＫＴ第一ビル４階,,22,101,4200032,,,,,,,2024-03-05,1,,,,,チーソウ,0
940,4080001026157,新規,0,2024-03-05,2024-03-05,株式会社Ｓｋｙ,,株式会社,静岡県,焼津市,中里５５６番地の１,,22,212,4250014,,,,,,,2024-03-05,1,,,,,スカイ,0
942,4080101024572,新規,0,2024-03-05,2024-03-05,株式会社鈴春,,株式会社,静岡県,沼津市,白銀町７番地の１１,,22,203,4100805,,,,,,,2024-03-05,1,,,,,スズハル,0
951,4080401027036,新規,0,2024-03-05,2024-03-05,株式会社ＪＭＣパートナーズ,,株式会社,静岡県,浜松市中央区,肴町３２２番地の１ぬい屋ビル２階,,22,138,4300932,,,,,,,2024-03-05,1,,,,,ジェイエムシーパートナーズ,0
954,4090001018582,新規,0,2024-03-05,2024-03-05,株式会社ＦｏｒｔｕＮａｔｅ,,株式会社,山梨県,南都留郡忍野村,忍草３２１８番１号ロイヤル山中湖ハイム２１１号室,,19,424,4010511,,,,,,,2024-03-05,1,,,,,フォーチューネイト,0
959,4100005013132,新規,0,2024-03-05,2024-03-05,医療法人ＹＡＣ,,その他の設立登記法人,長野県,長野市,大字北長池字山王南沖１９９８番１,,20,201,3810025,,,,,,,2024-03-05,1,,,,,ヤック,0
962,4110001038215,新規,0,2024-03-05,2024-03-05,ＳＨＩＮ株式会社,,株式会社,新潟県,新潟市秋葉区,新町３丁目７－３５,,15,105,9560862,,,,,,,2024-03-05,1,,,,,シン,0
963,4110001038223,新規,0,2024-03-05,2024-03-05,株式会社くろしろ木工所,,株式会社,新潟県,燕市,小池１５４８番地,,15,213,9591276,,,,,,,2024-03-05,1,,,,,クロシロモッコウショ,0
964,4110003005312,新規,0,2024-03-05,2024-03-05,令和地所合同会社,,合同会社,新潟県,新潟市西区,内野上新町１２６１９番地４,,15,107,9502172,,,,,,,2024-03-05,1,,,,,レイワチショ,0
971,4120001262838,新規,0,2024-03-05,2024-03-05,株式会社トリコ,,株式会社,大阪府,大阪市天王寺区,夕陽丘町４番２号,,27,109,5430075,,,,,,,2024-03-05,1,,,,,トリコ,0
972,4120001262846,新規,0,2024-03-05,2024-03-05,みなみの株式会社,,株式会社,大阪府,大阪市西淀川区,大和田６丁目１１－４,,27,113,5550032,,,,,,,2024-03-05,1,,,,,ミナミノ,0
973,4120001262862,新規,0,2024-03-05,2024-03-05,株式会社ＰＩＮＥ　ＷＯＲＫＳ,,株式会社,大阪府,大阪市城東区,新喜多東１丁目５番１４－１００１号,,27,118,5360017,,,,,,,2024-03-05,1,,,,,パインワークス,0
974,4120001262879,新規,0,2024-03-05,2024-03-05,株式会社ビームド,,株式会社,大阪府,大阪市北区,西天満５丁目８番１５号,,27,127,5300047,,,,,,,2024-03-05,1,,,,,ビームド,0
980,4120101069150,新規,0,2024-03-05,2024-03-05,株式会社Ｈｉｉ‐Ｌｉｎｅ,,株式会社,大阪府,岸和田市,中井町１丁目１２番７号,,27,202,5960003,,,,,,,2024-03-05,1,,,,,ヒーライン,0
981,4120101069167,新規,0,2024-03-05,2024-03-05,ＢＢタクシー株式会社,,株式会社,大阪府,堺市西区,津久野町１丁２６番１１号,,27,144,5938322,,,,,,,2024-03-05,1,,,,,ビービータクシー,0
984,4120103005707,新規,0,2024-03-05,2024-03-05,天焔合同会社,,合同会社,大阪府,岸和田市,天神山町２丁目９－６－１０５,,27,202,5960834,,,,,,,2024-03-05,1,,,,,テンエン,0
987,4120901048849,新規,0,2024-03-05,2024-03-05,株式会社ＳＨＩＭＯＸ,,株式会社,大阪府,高槻市,津之江町１丁目３６番２号,,27,207,5690822,,,,,,,2024-03-05,1,,,,,シモックス,0
994,4122001037880,新規,0,2024-03-05,2024-03-05,加納ブラスト株式会社,,株式会社,大阪府,東大阪市,加納６丁目２番１７号,,27,227,5780901,,,,,,,2024-03-05,1,,,,,カノウブラスト,0
999,4130001076502,新規,0,2024-03-05,2024-03-05,株式会社アドメクスイニシアティブ,,株式会社,京都府,相楽郡精華町,光台７丁目１８番地９,,26,366,6190237,,,,,,,2024-03-05,1,,,,,アドメクスイニシアティブ,0
1000,4130001076510,新規,0,2024-03-05,2024-03-05,ｔａｓｋｆｏｒｃｅ株式会社,,株式会社,京都府,京都市中京区,御倉町７５ファーストコート三条両替町４階,,26,104,6048166,,,,,,,2024-03-05,1,,,,,タスクフォース,0
1001,4130001076519,新規,0,2024-03-05,2024-03-05,Ｇｒｏｗｔｈ＆Ａｄｖｉｓｏｒｓ株式会社,,株式会社,京都府,京都市山科区,勧修寺縄手町１９番地３,,26,110,6078215,,,,,,,2024-03-05,1,,,,,グロースアンドアドバイザーズ,0
1005,4140001133558,新規,0,2024-03-05,2024-03-05,株式会社Ｆｏｒ．Ｙ,,株式会社,兵庫県,神戸市垂水区,本多聞６丁目１８番３号,,28,108,6550006,,,,,,,2024-03-05,1,,,,,フォーワイ,0
1009,4140003020226,新規,0,2024-03-05,2024-03-05,ミコノス合同会社,,合同会社,兵庫県,神戸市中央区,琴ノ緒町３丁目２－２２ＳＨＥＷＡ’ＳＲＥＧＡＲＩＡ１０Ｆ,,28,110,6510094,,,,,,,2024-03-05,1,,,,,ミコノス,0
1012,4150001027115,新規,0,2024-03-05,2024-03-05,株式会社アルパカ,,株式会社,奈良県,生駒市,萩の台３丁目５番３号,,29,209,6300224,,,,,,,2024-03-05,1,,,,,アルパカ,0
1018,4180001160391,新規,0,2024-03-05,2024-03-05,株式会社ジェイエスブイ・コネクト,,株式会社,愛知県,名古屋市東区,葵２丁目３番１５号,,23,102,4610004,,,,,,,2024-03-05,1,,,,,ジェイエスブイコネクト,0
1021,4180003026368,新規,0,2024-03-05,2024-03-05,合同会社谷安堂,,合同会社,愛知県,日進市,香久山３丁目３０１番地２香久山パークスクエアＳ棟４０３,,23,230,4700134,,,,,,,2024-03-05,1,,,,,タニヤスドウ,0
1022,4180005020534,新規,0,2024-03-05,2024-03-05,特定非営利活動法人日本バリアフリーコーディネーター協会,,その他の設立登記法人,愛知県,名古屋市北区,黒川本通４丁目２５番地,,23,103,4620841,,,,,,,2024-03-05,1,,,,,ニホンバリアフリーコーディネーターキョウカイ,0
1025,4180303006020,新規,0,2024-03-05,2024-03-05,彩和ホーム合同会社,,合同会社,愛知県,岡崎市,井ノ口新町９ー１９,,23,202,4442132,,,,,,,2024-03-05,1,,,,,サイワホーム,0
1028,4200001042216,新規,0,2024-03-05,2024-03-05,株式会社ＬＡ,,株式会社,岐阜県,瑞浪市,学園台２丁目７番地の１０,,21,208,5096106,,,,,,,2024-03-05,1,,,,,エルエー,0
1030,4200003006251,新規,0,2024-03-05,2024-03-05,合同会社ｅｆｆｏｒｔ,,合同会社,岐阜県,岐阜市,加納本石町３丁目７番地テイクオフビル３・１１２号室,,21,201,5008466,,,,,,,2024-03-05,1,,,,,エフォート,0
1031,4200005013576,新規,0,2024-03-05,2024-03-05,一般社団法人ＥＭＥＲＧ緊急通報協会,,その他の設立登記法人,岐阜県,可児郡御嵩町,中２１０２番地１２,,21,521,5050121,,,,,,,2024-03-05,1,,,,,エマージキンキュウツウホウキョウカイ,0
1036,4230001020235,新規,0,2024-03-05,2024-03-05,株式会社ＨＩＫＡＧＥ,,株式会社,富山県,富山市,布目３３１５番地,,16,201,9302233,,,,,,,2024-03-05,1,,,,,ヒカゲ,0
1038,4240001062870,新規,0,2024-03-05,2024-03-05,株式会社木本工業,,株式会社,広島県,安芸高田市,甲田町上甲立３２８番地７,,34,214,7391104,,,,,,,2024-03-05,1,,,,,キモトコウギョウ,0
1039,4240001062887,新規,0,2024-03-05,2024-03-05,株式会社ＫｉＳＳＩＮ,,株式会社,広島県,東広島市,高屋町桧山１１５４番地１１,,34,212,7392105,,,,,,,2024-03-05,1,,,,,キッシン,0
1042,4240005015742,新規,0,2024-03-05,2024-03-05,一般社団法人広島県アーバンスポーツ協会,,その他の設立登記法人,広島県,広島市西区,草津南２丁目４番７号,,34,104,7330863,,,,,,,2024-03-05,1,,,,,アーバンスポーツキョウカイ,0
1044,4250001020539,新規,0,2024-03-05,2024-03-05,株式会社ＴＭＹフードサービス,,株式会社,山口県,宇部市,大字上宇部２８４２番地１３,,35,202,7550091,,,,,,,2024-03-05,1,,,,,ティーエムワイフードサービス,0
1051,4290803004636,新規,0,2024-03-05,2024-03-05,合同会社Ｎｅｋｏｚｕｋｉ,,合同会社,福岡県,鞍手郡鞍手町,弥生２丁目７６番,,40,402,8071315,,,,,,,2024-03-05,1,,,,,ネコズキ,0
1053,4300001013636,新規,0,2024-03-05,2024-03-05,株式会社Ｋｙｏｓｅｉ,,株式会社,佐賀県,神埼郡吉野ヶ里町,吉田１４２９番地,,41,327,8420031,,,,,,,2024-03-05,1,,,,,キョーセイ,0
1056,4330001031809,新規,0,2024-03-05,2024-03-05,株式会社Ｆａｘｉａ,,株式会社,熊本県,熊本市中央区,上水前寺２丁目２３番１２号,,43,101,8620951,,,,,,,2024-03-05,1,,,,,ファクシア,0
1057,4330001031817,新規,0,2024-03-05,2024-03-05,株式会社Ｐｅｔ　Ｓｈｏｐ　Ｃｈｉｅｎ,,株式会社,熊本県,熊本市南区,出仲間１丁目３番２２号,,43,104,8620963,,,,,,,2024-03-05,1,,,,,ペットショップシアン,0
1058,4330001031825,新規,0,2024-03-05,2024-03-05,株式会社フェアネス,,株式会社,熊本県,熊本市中央区,坪井４丁目１８番２７号,,43,101,8600863,,,,,,,2024-03-05,1,,,,,フェアネス,0
1059,4340001026337,新規,0,2024-03-05,2024-03-05,株式会社ＦＯＲＷＡＲＤ,,株式会社,鹿児島県,鹿児島市,鴨池１丁目９番２号１階,,46,201,8900063,,,,,,,2024-03-05,1,,,,,フォワード,0
1070,4370001050994,新規,0,2024-03-05,2024-03-05,株式会社ぶらいとＰｌａｎ,,株式会社,宮城県,仙台市若林区,沖野３丁目１６番６５号１０５号室,,04,103,9840831,,,,,,,2024-03-05,1,,,,,ブライトプラン,0
1071,4370001051002,新規,0,2024-03-05,2024-03-05,ＫＯＳＥＩエステート株式会社,,株式会社,宮城県,仙台市泉区,長命ケ丘３丁目１３番地の１８,,04,105,9813212,,,,,,,2024-03-05,1,,,,,コーセイエステート,0
1074,4380001034336,新規,0,2024-03-05,2024-03-05,株式会社Ｄｉｇｎｉｔａｔｉｏｎ,,株式会社,福島県,いわき市,郷ケ丘４丁目３４番地の９,,07,204,9708045,,,,,,,2024-03-05,1,,,,,ディグニテーション,0
1079,4400001016570,新規,0,2024-03-05,2024-03-05,株式会社ひなた,,株式会社,岩手県,一関市,大町３番８号シティビル１０２号室,,03,209,0210881,,,,,,,2024-03-05,1,,,,,ヒナタ,0
1084,4420001018615,新規,0,2024-03-05,2024-03-05,県南警備株式会社,,株式会社,青森県,八戸市,青葉３丁目２番２５号藤田オフィスＢ号室,,02,203,0310804,,,,,,,2024-03-05,1,,,,,ケンナンケイビ,0
1091,4430001091207,新規,0,2024-03-05,2024-03-05,株式会社タナカ商店,,株式会社,北海道,札幌市手稲区,西宮の沢一条４丁目７番３号,,01,109,0060001,,,,,,,2024-03-05,1,,,,,タナカショウテン,0
1092,4430001091223,新規,0,2024-03-05,2024-03-05,株式会社丸貴架設,,株式会社,北海道,札幌市北区,屯田八条７丁目１番３０号,,01,102,0020858,,,,,,,2024-03-05,1,,,,,マルタカカセツ,0
1093,4430001091231,新規,0,2024-03-05,2024-03-05,株式会社ＨＡＴ,,株式会社,北海道,余市郡余市町,黒川町１２丁目８６番地,,01,408,0460003,,,,,,,2024-03-05,1,,,,,ハアト,0
1095,4430003016013,新規,0,2024-03-05,2024-03-05,合同会社ｍａｒｕ,,合同会社,北海道,札幌市西区,八軒三条東１丁目３番１９号,,01,107,0630863,,,,,,,2024-03-05,1,,,,,マル,0
1096,4430003016021,新規,0,2024-03-05,2024-03-05,合同会社星とネコ,,合同会社,北海道,札幌市西区,八軒三条西４丁目５番７号,,01,107,0630843,,,,,,,2024-03-05,1,,,,,ホシトネコ,0
1103,4470001020062,新規,0,2024-03-05,2024-03-05,Ｏｋａｄｅｍｙ株式会社,,株式会社,香川県,高松市,鹿角町３５３－３,,37,201,7618082,,,,,,,2024-03-05,1,,,,,オカデミー,0
1111,4700150124152,新規,0,2024-03-05,2024-02-22,シーバンス　ア・モールテナント会,,その他,東京都,港区,芝浦１丁目２番２号,,13,103,1050023,,,,,,,2024-02-22,1,,,,,シーバンスアモールテナントカイ,0
1112,4700150124301,新規,0,2024-03-05,2024-03-05,Ｓｃａｎａｖｏ　Ｍａｎｕｆａｃｔｕｒｉｎｇ　Ｈｏｎｇ　Ｋｏｎｇ　Ｌｉｍｉｔｅｄ,,外国会社等,,,,,,,,Ｃ３　５／Ｆ　Ｄｒａｇｏｎ　Ｉｎｄｕｓｔｒｉａｌ　Ｂｕｉｌｄｉｎｇ　９３　Ｋｉｎｇ　Ｌａｍ　Ｓｔｒｅｅｔ　Ｌａｉ　Ｃｈｉ　Ｋｏｋ　Ｋｏｗｌｏｏｎ　Ｈｏｎｇ　Ｋｏｎｇ,,,,,,2024-03-05,1,,,,,スキャナヴォマニュファクチャリングホンコンリミテッド,0
1122,5010005037973,新規,0,2024-03-05,2024-03-05,一般社団法人泰山会,,その他の設立登記法人,東京都,中央区,銀座８丁目１２番１０号銀座槇町ビル２階,,13,102,1040061,,,,,,,2024-03-05,1,,,,,タイザンカイ,0
1127,5010401180757,新規,0,2024-03-05,2024-03-05,株式会社ＹＯＵＲ　ＤＲＩＶＥ,,株式会社,東京都,港区,南青山３丁目１番３６号青山丸竹ビル６Ｆ,,13,103,1070062,,,,,,,2024-03-05,1,,,,,ユアドライブ,0
1133,5010405023020,新規,0,2024-03-05,2024-03-05,一般社団法人ムーバルオリオン,,その他の設立登記法人,東京都,港区,元赤坂１丁目１番８号赤坂コミュニティビル４階,,13,103,1070051,,,,,,,2024-03-05,1,,,,,ムーバルオリオン,0
1134,5010501051858,新規,0,2024-03-05,2024-03-05,株式会社源美,,株式会社,東京都,台東区,台東１丁目２９－３イースタンクロスアキバ５０１,,13,106,1100016,,,,,,,2024-03-05,1,,,,,ゲンミ,0
1135,5010501051874,新規,0,2024-03-05,2024-03-05,株式会社秋桜ホールディングス,,株式会社,東京都,台東区,浅草５丁目４２番１０号,,13,106,1110032,,,,,,,2024-03-05,1,,,,,コスモスホールディングス,0
1139,5010701045627,新規,0,2024-03-05,2024-03-05,株式会社Ｍｉｎｉ　Ｃｏｌｌｅｃｔ,,株式会社,東京都,品川区,西品川１丁目１番１号住友不動産大崎ガーデンタワー９階,,13,109,1410033,,,,,,,2024-03-05,1,,,,,ミニコレクト,0
1140,5010701045635,新規,0,2024-03-05,2024-03-05,株式会社ＫＮＢ,,株式会社,東京都,品川区,上大崎３丁目１０番６０－１０１号,,13,109,1410021,,,,,,,2024-03-05,1,,,,,ケイエヌビー,0
1141,5010701045643,新規,0,2024-03-05,2024-03-05,株式会社ＡＩ,,株式会社,東京都,品川区,西五反田４丁目１０番１号,,13,109,1410031,,,,,,,2024-03-05,1,,,,,エーアイ,0
1142,5010703007071,新規,0,2024-03-05,2024-03-05,合同会社ＲＩＮＧＬＡＮＴ,,合同会社,東京都,品川区,北品川５丁目５番１５号,,13,109,1410001,,,,,,,2024-03-05,1,,,,,リングラント,0
1143,5010705003597,新規,0,2024-03-05,2024-03-05,医療法人社団しあわせの青い鳥,,その他の設立登記法人,東京都,品川区,上大崎３丁目３番１号自転車総合ビル１階,,13,109,1410021,,,,,,,2024-03-05,1,,,,,シアワセノアオイトリ,0
1148,5010901054799,新規,0,2024-03-05,2024-03-05,株式会社Ｌｅ’ａＤＥＳＩＧＮ．ＴＯＫＹＯ,,株式会社,東京都,世田谷区,成城２丁目７番１３号成城コートテラス１０２,,13,112,1570066,,,,,,,2024-03-05,1,,,,,レアデザイントウキョウ,0
1154,5011001160406,新規,0,2024-03-05,2024-03-05,株式会社ファミリアラフ,,株式会社,東京都,渋谷区,恵比寿１丁目２３番２３号恵比寿スクエア１階,,13,113,1500013,,,,,,,2024-03-05,1,,,,,ファミリアラフ,0
1155,5011001160414,新規,0,2024-03-05,2024-03-05,株式会社いちから,,株式会社,東京都,目黒区,中根１丁目６番１号,,13,110,1520031,,,,,,,2024-03-05,1,,,,,イチカラ,0
1156,5011001160439,新規,0,2024-03-05,2024-03-05,Ｍ‐Ｃａｐｉｔａｌ株式会社,,株式会社,東京都,渋谷区,宇田川町１番１２－１１０８号パークコート渋谷ザタワー,,13,113,1500042,,,,,,,2024-03-05,1,,,,,エムキャピタル,0
1157,5011003018627,新規,0,2024-03-05,2024-03-05,合同会社ＯＭＳ,,合同会社,東京都,渋谷区,道玄坂１丁目１０番８号渋谷道玄坂東急ビル２Ｆ－Ｃ,,13,113,1500043,,,,,,,2024-03-05,1,,,,,オーエムエス,0
1161,5011101106432,新規,0,2024-03-05,2024-03-05,株式会社目白キャピタル,,株式会社,東京都,新宿区,築地町６－１６,,13,104,1620818,,,,,,,2024-03-05,1,,,,,メジロキャピタル,0
1163,5011105010960,新規,0,2024-03-05,2024-03-05,医療法人社団ＭＫＥＮＴ,,その他の設立登記法人,東京都,新宿区,高田馬場２丁目１７番６号ゆう文ビル５階,,13,104,1690075,,,,,,,2024-03-05,1,,,,,エムケーイーエヌティー,0
1166,5011301029466,新規,0,2024-03-05,2024-03-05,株式会社Ｊ‐ＦＵＮ１２．５,,株式会社,東京都,杉並区,宮前４丁目２９番３号,,13,115,1680081,,,,,,,2024-03-05,1,,,,,ジェイファントゥエルブポイントファイブ,0
1171,5011403004292,新規,0,2024-03-05,2024-03-05,合同会社博公,,合同会社,東京都,板橋区,中丸町４４番７－１０８号,,13,119,1730026,,,,,,,2024-03-05,1,,,,,ハクコウ,0
1173,5011501030397,新規,0,2024-03-05,2024-03-05,柯南株式会社,,株式会社,東京都,荒川区,南千住３丁目２７－２浅草ビルＦ号室,,13,118,1160003,,,,,,,2024-03-05,1,,,,,コナン,0
1178,5011801043875,新規,0,2024-03-05,2024-03-05,株式会社Ｄｏ　Ｗｅｌｌ　Ｅｓｔａｔｅ,,株式会社,東京都,足立区,花畑１丁目７番７号,,13,121,1210061,,,,,,,2024-03-05,1,,,,,ドゥウェルエステイト,0
1184,5012401041583,新規,0,2024-03-05,2024-03-05,Ｃｌｅａｒ　Ｓｋｉｎ株式会社,,株式会社,東京都,調布市,若葉町３丁目２８番地３１,,13,208,1820003,,,,,,,2024-03-05,1,,,,,クリアスキン,0
1185,5012403006436,新規,0,2024-03-05,2024-03-05,合同会社Ｐ＆Ｍ,,合同会社,東京都,武蔵野市,吉祥寺南町２丁目２‐５‐６４２,,13,203,1800003,,,,,,,2024-03-05,1,,,,,ピーアンドエム,0
1186,5012801023000,新規,0,2024-03-05,2024-03-05,株式会社エム・アール,,株式会社,東京都,武蔵村山市,残堀５丁目１０番地の１５,,13,223,2080034,,,,,,,2024-03-05,1,,,,,エムアール,0
1188,5013301052150,新規,0,2024-03-05,2024-03-05,株式会社ナレッジトーン,,株式会社,東京都,豊島区,東池袋１丁目３４番５号いちご東池袋ビル６階,,13,116,1700013,,,,,,,2024-03-05,1,,,,,ナレッジトーン,0
1208,5030003023742,新規,0,2024-03-05,2024-03-05,ＢｉｚＳｅｒｖｅ合同会社,,合同会社,埼玉県,さいたま市北区,本郷町８３７番地１２０５号,,11,102,3310802,,,,,,,2024-03-05,1,,,,,ビズサーブ,0
1214,5040001132494,新規,0,2024-03-05,2024-03-05,株式会社ＮＲ．ＤＡＹ,,株式会社,千葉県,千葉市中央区,富士見２丁目９番１７号ハセガワビル,,12,101,2600015,,,,,,,2024-03-05,1,,,,,エヌアールデイ,0
1215,5040001132536,新規,0,2024-03-05,2024-03-05,株式会社フリーワールド３３,,株式会社,千葉県,市川市,相之川３丁目１５番６号３０８,,12,203,2720143,,,,,,,2024-03-05,1,,,,,フリーワールドサーティスリー,0
1234,5070003005299,新規,0,2024-03-05,2024-03-05,ＡＵＴＯＬＩＮＥ合同会社,,合同会社,群馬県,桐生市,川内町５丁目３３０３番地１,,10,203,3760041,,,,,,,2024-03-05,1,,,,,オートライン,0
1242,5090001018573,新規,0,2024-03-05,2024-03-05,紡ＨＤ株式会社,,株式会社,山梨県,甲斐市,宇津谷３３５６番地,,19,210,4000108,,,,,,,2024-03-05,1,,,,,ツムギホールディングス,0
1244,5100001037241,新規,0,2024-03-05,2024-03-05,株式会社Ｃｈａｐｓｔａｂｌｏｏｋ,,株式会社,長野県,上田市,中之条５１２番地２６,,20,203,3860034,,,,,,,2024-03-05,1,,,,,チャプスタブルーク,0
1245,5110001038214,新規,0,2024-03-05,2024-03-05,タイヤチェンジニイガタ株式会社,,株式会社,新潟県,新潟市東区,大形本町１９０,,15,102,9500813,,,,,,,2024-03-05,1,,,,,タイヤチェンジニイガタ,0
1261,5120001262795,新規,0,2024-03-05,2024-03-05,帰一株式会社,,株式会社,大阪府,大阪市城東区,野江１丁目７番２４－５０１号,,27,118,5360006,,,,,,,2024-03-05,1,,,,,キイチ,0
1262,5120001262820,新規,0,2024-03-05,2024-03-05,株式会社ＫＡＷＡＩＤＡ,,株式会社,大阪府,大阪市阿倍野区,松崎町２丁目１番２８号,,27,119,5450053,,,,,,,2024-03-05,1,,,,,カワイダ,0
1263,5120001262837,新規,0,2024-03-05,2024-03-05,株式会社ＳＲＭ,,株式会社,大阪府,大阪市住之江区,住之江１丁目４－４１－２Ｆ,,27,125,5590004,,,,,,,2024-03-05,1,,,,,エスアールエム,0
1264,5120001262878,新規,0,2024-03-05,2024-03-05,結和エンジニアリング株式会社,,株式会社,大阪府,大阪市城東区,成育２丁目１３番１７－９０４号,,27,118,5360007,,,,,,,2024-03-05,1,,,,,ユウワエンジニアリング,0
1265,5120003026059,新規,0,2024-03-05,2024-03-05,合同会社ままのて,,合同会社,大阪府,大阪市淀川区,十三東３丁目１０番８号,,27,123,5320023,,,,,,,2024-03-05,1,,,,,ママノテ,0
1266,5120101069141,新規,0,2024-03-05,2024-03-05,株式会社ファンタジーエキスプレス,,株式会社,大阪府,和泉市,山荘町１丁目１６番１２号,,27,219,5940021,,,,,,,2024-03-05,1,,,,,ファンタジーエキスプレス,0
1267,5120101069158,新規,0,2024-03-05,2024-03-05,株式会社ＫＴＳ,,株式会社,大阪府,堺市中区,田園５７９番地,,27,142,5998246,,,,,,,2024-03-05,1,,,,,ケーティーエス,0
1268,5120101069166,新規,0,2024-03-05,2024-03-05,株式会社Ａｔｉｃ,,株式会社,大阪府,和泉市,上町５９５番地の２,,27,219,5940002,,,,,,,2024-03-05,1,,,,,エーティック,0
1272,5120103005706,新規,0,2024-03-05,2024-03-05,てるを合同会社,,合同会社,大阪府,堺市東区,日置荘西町５丁９番１１号,,27,143,5998114,,,,,,,2024-03-05,1,,,,,テルヲ,0
1273,5120105009829,新規,0,2024-03-05,2024-03-05,一般社団法人日本こども戦闘力協会,,その他の設立登記法人,大阪府,堺市南区,原山台４丁８番２－２６号,,27,145,5900132,,,,,,,2024-03-05,1,,,,,ニホンコドモセントウリョクキョウカイ,0
1274,5120901048848,新規,0,2024-03-05,2024-03-05,株式会社フジワークセミコンダクタエンジニアリング,,株式会社,大阪府,高槻市,高槻町１１番２号,,27,207,5690803,,,,,,,2024-03-05,1,,,,,フジワークセミコンダクタエンジニアリング,0
1276,5122003002816,新規,0,2024-03-05,2024-03-05,合同会社福式準調社,,合同会社,大阪府,東大阪市,菱屋西６丁目９番３３－３０３号,,27,227,5770807,,,,,,,2024-03-05,1,,,,,フクシキジュンチョウシャ,0
1280,5130001076476,新規,0,2024-03-05,2024-03-05,株式会社日急ホールディングス,,株式会社,京都府,久世郡久御山町,野村村東７５番地１,,26,322,6130023,,,,,,,2024-03-05,1,,,,,ニッキュウホールディングス,0
1281,5130001076492,新規,0,2024-03-05,2024-03-05,株式会社京都染工所,,株式会社,京都府,京都市北区,紫野南舟岡町４５番地,,26,101,6038225,,,,,,,2024-03-05,1,,,,,キョウトセンコウショ,0
1287,5140001133540,新規,0,2024-03-05,2024-03-05,株式会社ＣＬＧコンサルティングサービス,,株式会社,兵庫県,姫路市,飾磨区阿成１３番地７５,,28,201,6728037,,,,,,,2024-03-05,1,,,,,シーエルジーコンサルティングサービス,0
1288,5140003020225,新規,0,2024-03-05,2024-03-05,合同会社ふじい,,合同会社,兵庫県,淡路市,久留麻１９０７番地,,28,226,6562311,,,,,,,2024-03-05,1,,,,,フジイ,0
1289,5140003020241,新規,0,2024-03-05,2024-03-05,合同会社アベイル,,合同会社,兵庫県,神戸市兵庫区,楠谷町１２番１３号１Ｆ,,28,105,6520004,,,,,,,2024-03-05,1,,,,,アベイル,0
1297,5180001160382,新規,0,2024-03-05,2024-03-05,株式会社ＢＬＳ,,株式会社,愛知県,小牧市,大字三ツ渕２３５０番地３８,,23,219,4850075,,,,,,,2024-03-05,1,,,,,ビーエルエス,0
1298,5180001160390,新規,0,2024-03-05,2024-03-05,株式会社ＦＲＩＥＮＤ　ＯＮＥ　ＰＬＡＮＮＩＮＧ,,株式会社,愛知県,名古屋市中村区,塩池町１丁目１２番８号－２,,23,105,4530032,,,,,,,2024-03-05,1,,,,,フレンドワンプランニング,0
1299,5180001160399,新規,0,2024-03-05,2024-03-05,株式会社Ｍｏｖｅ　ｆｏｒｗａｒｄ．ＲＡ,,株式会社,愛知県,名古屋市中川区,吉津２丁目６１３番地の１,,23,110,4540981,,,,,,,2024-03-05,1,,,,,ムーヴフォワードアールエー,0
1303,5200001042223,新規,0,2024-03-05,2024-03-05,株式会社スカイレンタカー,,株式会社,岐阜県,多治見市,明和町１丁目１３３番地,,21,204,5070072,,,,,,,2024-03-05,1,,,,,スカイレンタカー,0
1305,5210001019658,新規,0,2024-03-05,2024-03-05,株式会社Ｔｏ　Ｓｏｎｓ,,株式会社,福井県,勝山市,鹿谷町保田第３３号１０番地２,,18,206,9110848,,,,,,,2024-03-05,1,,,,,トゥサンズ,0
1307,5220005008813,新規,0,2024-03-05,2024-03-05,ＷＩＮＧ国際事業協同組合,,その他の設立登記法人,石川県,金沢市,吉原町ワ２０３番地,,17,201,9203114,,,,,,,2024-03-05,1,,,,,ウイングコクサイジギョウ,0
1309,5230001020234,新規,0,2024-03-05,2024-03-05,株式会社ＨＡＰＰＹ　ＴＲＥＥ,,株式会社,富山県,富山市,上滝５３８番地８,,16,201,9301312,,,,,,,2024-03-05,1,,,,,ハッピーツリー,0
1311,5240001062878,新規,0,2024-03-05,2024-03-05,株式会社Ｎ‐Ｊ‐Ｓ,,株式会社,広島県,広島市中区,中町４番６号,,34,101,7300037,,,,,,,2024-03-05,1,,,,,エヌジェイエス,0
1313,5240003006569,新規,0,2024-03-05,2024-03-05,インキュベーション共創合同会社,,合同会社,広島県,広島市中区,十日市町２丁目９番８－２０１号,,34,101,7300805,,,,,,,2024-03-05,1,,,,,インキュベーションキョウソウ,0
1315,5240005015733,新規,0,2024-03-05,2024-03-05,特定非営利活動法人ペットマナーおのみち,,その他の設立登記法人,広島県,尾道市,土堂２丁目３番２０号,,34,205,7220035,,,,,,,2024-03-05,1,,,,,ペットマナーオノミチ,0
1321,5290001104915,新規,0,2024-03-05,2024-03-05,株式会社ｐｏｕｒ　ｔｏｉ,,株式会社,福岡県,福岡市中央区,薬院３丁目７番３０－８０１号,,40,133,8100022,,,,,,,2024-03-05,1,,,,,プールトワ,0
1322,5290001104964,新規,0,2024-03-05,2024-03-05,株式会社マッセ,,株式会社,福岡県,筑紫野市,大字山家２２３５番地１７,,40,217,8180003,,,,,,,2024-03-05,1,,,,,マッセ,0
1323,5290801030369,新規,0,2024-03-05,2024-03-05,株式会社奏建,,株式会社,福岡県,田川郡香春町,大字中津原１０８１番地１５,,40,601,8221405,,,,,,,2024-03-05,1,,,,,ソウケン,0
1329,5330003010248,新規,0,2024-03-05,2024-03-05,ＰＩＮＥＢＯＯＫ合同会社,,合同会社,熊本県,熊本市中央区,本荘３丁目６番１０号,,43,101,8600811,,,,,,,2024-03-05,1,,,,,パインブック,0
1330,5340001026328,新規,0,2024-03-05,2024-03-05,種子島物流株式会社,,株式会社,鹿児島県,熊毛郡南種子町,中之上２１８０番地２２,,46,502,8913701,,,,,,,2024-03-05,1,,,,,タネガシマブツリュウ,0
1331,5340001026336,新規,0,2024-03-05,2024-03-05,株式会社南日電設,,株式会社,鹿児島県,南九州市,知覧町郡１６５６１番地,,46,223,8970302,,,,,,,2024-03-05,1,,,,,ナンニチデンセツ,0
1334,5350002002087,新規,0,2024-03-05,2024-03-05,有限会社サンライト住宅,,有限会社,宮崎県,宮崎市,祇園３丁目４４番地１,,45,201,8800024,,,,,,,2024-03-05,1,,,,,,0
1335,5360001033280,新規,0,2024-03-05,2024-03-05,Ｎ２メディカルパートナーズ株式会社,,株式会社,沖縄県,那覇市,字安里１７２,,47,201,9020067,,,,,,,2024-03-05,1,,,,,エヌツーメディカルパートナーズ,0
1340,5370001050993,新規,0,2024-03-05,2024-03-05,株式会社ＧＳＴレンタカー,,株式会社,宮城県,仙台市宮城野区,日の出町２丁目５番３５号,,04,102,9830035,,,,,,,2024-03-05,1,,,,,ジーエスティーレンタカー,0
1341,5370001051001,新規,0,2024-03-05,2024-03-05,株式会社ＲＡＩプロモーション,,株式会社,宮城県,仙台市青葉区,大町２丁目１４番１１号ファーストステージＩ４０５号,00133952,04,101,9800804,,,,,,,2024-03-05,1,,,,,ライプロモーション,0
1342,5380001034335,新規,0,2024-03-05,2024-03-05,株式会社浪江商事,,株式会社,福島県,双葉郡浪江町,大字権現堂字下川原３８番地１,,07,547,9791521,,,,,,,2024-03-05,1,,,,,ナミエショウジ,0
1343,5380001034343,新規,0,2024-03-05,2024-03-05,グリーンアースソリューションズ株式会社,,株式会社,福島県,福島市,笹谷字古屋東４番地の２１,,07,201,9600241,,,,,,,2024-03-05,1,,,,,グリーンアースソリューションズ,0
1345,5390001017545,新規,0,2024-03-05,2024-03-05,株式会社ＭＥＲ,,株式会社,山形県,山形市,清住町１丁目１番３５号,,06,201,9900834,,,,,,,2024-03-05,1,,,,,メル,0
1348,5420001018614,新規,0,2024-03-05,2024-03-05,株式会社ひろさき家守舎,,株式会社,青森県,弘前市,大字土手町１３３番地１西谷ビル　１Ｆ,,02,202,0368182,,,,,,,2024-03-05,1,,,,,ヒロサキイエモリシャ,0
1349,5420001018622,新規,0,2024-03-05,2024-03-05,株式会社一華ベジフル,,株式会社,青森県,弘前市,大字小比内２丁目２番地７,,02,202,0368102,,,,,,,2024-03-05,1,,,,,,0
1355,5430001091206,新規,0,2024-03-05,2024-03-05,株式会社横山興産,,株式会社,北海道,札幌市南区,澄川五条１３丁目３番２２号,,01,106,0050005,,,,,,,2024-03-05,1,,,,,ヨコヤマコウサン,0
1356,5430001091222,新規,0,2024-03-05,2024-03-05,株式会社ラヴィローズ,,株式会社,北海道,札幌市中央区,北四条西１２丁目１番地２７－５０１号,,01,101,0600004,,,,,,,2024-03-05,1,,,,,ラヴィローズ,0
1357,5430001091239,新規,0,2024-03-05,2024-03-05,ナルシステムズ株式会社,,株式会社,北海道,札幌市東区,北十九条東７丁目３番１４号,,01,103,0650019,,,,,,,2024-03-05,1,,,,,ナルシステムズ,0
1361,5460101007505,新規,0,2024-03-05,2024-03-05,株式会社ＲＥＩＫＵＮ,,株式会社,北海道,河西郡中札内村,南常盤東４線２８３番地,,01,638,0891368,,,,,,,2024-03-05,1,,,,,レイクン,0
1368,5700150032998,新規,0,2024-03-05,2015-10-09,長万部スタンプ会,,その他,北海道,山越郡長万部町,字長万部３６－２,,01,347,0493521,,,,,,,2015-10-09,1,,,,,オシヤマンベスタンプカイ,0
1373,5700150124300,新規,0,2024-03-05,2024-03-05,ＧＥＮＥＲＡＬ　ＷＩＲＩＮＧ　ＣＯＭＰＯＮＥＮＴＳ　ＬＩＭＩＴＥＤ,,外国会社等,,,,,,,,６Ｆ．－７，Ｎｏ．５０，Ｌｉｎｓｅｎ　Ｎ．Ｒｄ．，Ｚｈｏｎｇｓｈａｎ　Ｄｉｓｔ．，Ｔａｉｐｅｉ　Ｃｉｔｙ　１０４４１，Ｔａｉｗａｎ（Ｒ．Ｏ．Ｃ．）,,,,,,2024-03-05,1,,,,,ジェンネラルウィンリングコンポネンズ,0
1379,6010001241990,新規,0,2024-03-05,2024-03-05,ＭＡＳＡ株式会社,,株式会社,東京都,中央区,銀座１丁目１２番４号Ｎ＆ＥＢＬＤ．６Ｆ,,13,102,1040061,,,,,,,2024-03-05,1,,,,,マサ,0
1380,6010001242436,新規,0,2024-03-05,2024-03-05,株式会社Ａｔｏｍｉｙａ,,株式会社,東京都,中央区,銀座３丁目１２番１２－１００１号,,13,102,1040061,,,,,,,2024-03-05,1,,,,,アトミヤ,0
1385,6010401180797,新規,0,2024-03-05,2024-03-05,株式会社ＰＡＣＨＩＲＡ．ＣＯ,,株式会社,東京都,港区,六本木３丁目９番１１号,,13,103,1060032,,,,,,,2024-03-05,1,,,,,パキラドットシーオー,0
1386,6010401180847,新規,0,2024-03-05,2024-03-05,株式会社オフショアカンパニー,,株式会社,東京都,港区,赤坂４丁目１５番１号,,13,103,1070052,,,,,,,2024-03-05,1,,,,,オフショアカンパニー,0
1389,6010503007361,新規,0,2024-03-05,2024-03-05,合同会社イリナ,,合同会社,東京都,台東区,谷中３丁目５番６号ルリアンヴィラ１０３,,13,106,1100001,,,,,,,2024-03-05,1,,,,,イリナ,0
1395,6010703007070,新規,0,2024-03-05,2024-03-05,合同会社リリー,,合同会社,東京都,品川区,大井２丁目７－１１,,13,109,1400014,,,,,,,2024-03-05,1,,,,,リリー,0
1396,6010705003596,新規,0,2024-03-05,2024-03-05,医療法人社団ヴィオレ,,その他の設立登記法人,東京都,品川区,小山３丁目１４番１号シティタワー武蔵小山２階２０１－２号,,13,109,1420062,,,,,,,2024-03-05,1,,,,,ヴィオレ,0
1397,6010803004868,新規,0,2024-03-05,2024-03-05,合同会社ＦＫＪ,,合同会社,東京都,大田区,田園調布２丁目２６番７号,,13,111,1450071,,,,,,,2024-03-05,1,,,,,エフケージェー,0
1398,6010901054807,新規,0,2024-03-05,2024-03-05,株式会社ＢＥＡＣＥ,,株式会社,東京都,世田谷区,松原２丁目１８番１ハイムリード明大前１０２号,,13,112,1560043,,,,,,,2024-03-05,1,,,,,ビーエース,0
1402,6011001160347,新規,0,2024-03-05,2024-03-05,Ｃｉｐｈｅｒ　Ｃｉｔｙ株式会社,,株式会社,東京都,渋谷区,渋谷１丁目２０番２６号,,13,113,1500002,,,,,,,2024-03-05,1,,,,,サイファーシティー,0
1403,6011001160388,新規,0,2024-03-05,2024-03-05,株式会社東京サプリメントラボ,,株式会社,東京都,渋谷区,代々木１丁目５４番５号Ｊ－ｈｏｕｓｅ代々木２０４,,13,113,1510053,,,,,,,2024-03-05,1,,,,,トウキョウサプリメントラボ,0
1405,6011003018618,新規,0,2024-03-05,2024-03-05,合同会社ＤｒｅａｍＤｒｉｖｅ,,合同会社,東京都,渋谷区,恵比寿４丁目２０－３恵比寿ガーデンプレイス１８Ｆ,,13,113,1500013,,,,,,,2024-03-05,1,,,,,ドリームドライブ,0
1406,6011003018626,新規,0,2024-03-05,2024-03-05,合同会社わびとさび,,合同会社,東京都,目黒区,上目黒２丁目１４番１号,,13,110,1530051,,,,,,,2024-03-05,1,,,,,ワビトサビ,0
1409,6011101106407,新規,0,2024-03-05,2024-03-05,青木株式会社,,株式会社,東京都,新宿区,北新宿３丁目８番３号,,13,104,1690074,,,,,,,2024-03-05,1,,,,,アオキ,0
1412,6011203004319,新規,0,2024-03-05,2024-03-05,ファイズミュージック合同会社,,合同会社,東京都,中野区,中野２丁目１１番４－２０３号,,13,114,1640001,,,,,,,2024-03-05,1,,,,,ファイズミュージック,0
1415,6011501030396,新規,0,2024-03-05,2024-03-05,株式会社ｂｌａｓｔ　ｏｎｅ,,株式会社,東京都,北区,志茂５丁目１３番７号,,13,117,1150042,,,,,,,2024-03-05,1,,,,,ブラストワン,0
1417,6011801043866,新規,0,2024-03-05,2024-03-05,株式会社ケイトホーム,,株式会社,東京都,足立区,新田３丁目３６－３１オーベルグランディオハートアイランド２１６,,13,121,1230865,,,,,,,2024-03-05,1,,,,,ケイトホーム,0
1418,6011801043874,新規,0,2024-03-05,2024-03-05,株式会社コウユウテクノ,,株式会社,東京都,葛飾区,東堀切２丁目２５番１５号ヴィルフォーレ２１－３０６号,,13,122,1240004,,,,,,,2024-03-05,1,,,,,コウユウテクノ,0
1420,6012301013806,新規,0,2024-03-05,2024-03-05,ＪＰＧ株式会社,,株式会社,東京都,町田市,鶴間６丁目４５番３号,,13,209,1940004,,,,,,,2024-03-05,1,,,,,ジェイピージー,0
1421,6012401041582,新規,0,2024-03-05,2024-03-05,株式会社舘クリーンサービス,,株式会社,東京都,多摩市,関戸４丁目２７番地の１８聖蹟ヒルズ３０３,,13,224,2060011,,,,,,,2024-03-05,1,,,,,タテクリーンサービス,0
1422,6012401041590,新規,0,2024-03-05,2024-03-05,万事屋兼子株式会社,,株式会社,東京都,三鷹市,上連雀９丁目２７―１０スノーベル２０２,,13,204,1810012,,,,,,,2024-03-05,1,,,,,ヨロズヤカネコ,0
1425,6012405004949,新規,0,2024-03-05,2024-03-05,一般社団法人ＡＬＢＡ,,その他の設立登記法人,東京都,三鷹市,下連雀３丁目３８番１４号５０１,,13,204,1810013,,,,,,,2024-03-05,1,,,,,アルバ,0
1426,6012801023008,新規,0,2024-03-05,2024-03-05,Ｋ．Ｍ．Ｊ株式会社,,株式会社,東京都,立川市,曙町２丁目２番２２号２８０１号室,,13,202,1900012,,,,,,,2024-03-05,1,,,,,ケーエムジェイ,0
1432,6013301052166,新規,0,2024-03-05,2024-03-05,株式会社そめいよしの総合管財,,株式会社,東京都,豊島区,駒込６丁目３４番７号,,13,116,1700003,,,,,,,2024-03-05,1,,,,,ソメイヨシノソウゴウカンザイ,0
1448,6030001159050,新規,0,2024-03-05,2024-03-05,株式会社ウェルカムホーム,,株式会社,埼玉県,川口市,坂下町３丁目３２番２１号,,11,203,3340003,,,,,,,2024-03-05,1,,,,,ウェルカムホーム,0
1450,6030003023741,新規,0,2024-03-05,2024-03-05,合同会社吉平,,合同会社,埼玉県,吉川市,大字平方新田１３００番地１,,11,243,3420012,,,,,,,2024-03-05,1,,,,,ヨシヒラ,0
1456,6040001132519,新規,0,2024-03-05,2024-03-05,株式会社エヌケミカル,,株式会社,千葉県,船橋市,丸山３丁目４０番２６号,,12,204,2730048,,,,,,,2024-03-05,1,,,,,エヌケミカル,0
1461,6050001054398,新規,0,2024-03-05,2024-03-05,株式会社ＬＵＸ,,株式会社,茨城県,水戸市,河和田町３１１番地,,08,201,3114153,,,,,,,2024-03-05,1,,,,,ラックス,0
1464,6050003008170,新規,0,2024-03-05,2024-03-05,ＭＡＫＫＡＨ　ＴＲＡＤＩＮＧ合同会社,,合同会社,茨城県,筑西市,藤ケ谷２０９１,,08,227,3080112,,,,,,,2024-03-05,1,,,,,マッカトレーディング,0
1465,6050003008179,新規,0,2024-03-05,2024-03-05,ＳＩＮＧＨ　ＳＨＯＫＡＩ合同会社,,合同会社,茨城県,古河市,上辺見６８５番地３プレステージＮＯ３アイダ２号,,08,204,3060234,,,,,,,2024-03-05,1,,,,,シングショウカイ,0
1467,6060001036874,新規,0,2024-03-05,2024-03-05,ＬＩＥＮ株式会社,,株式会社,栃木県,宇都宮市,宝木町２丁目１０３６番地８,,09,201,3200061,,,,,,,2024-03-05,1,,,,,リアン,0
1470,6070001041460,新規,0,2024-03-05,2024-03-05,株式会社みやま犬猫病院,,株式会社,群馬県,前橋市,天川大島町２丁目３２番地１,,10,201,3792154,,,,,,,2024-03-05,1,,,,,ミヤマイヌネコビョウイン,0
1471,6070003005307,新規,0,2024-03-05,2024-03-05,ジェイエム・ジャパン合同会社,,合同会社,群馬県,前橋市,五代町４５０番地,,10,201,3710132,,,,,,,2024-03-05,1,,,,,,0
1472,6080003003144,新規,0,2024-03-05,2024-03-05,合同会社ＧＭサポート,,合同会社,静岡県,静岡市葵区,昭和町３－１静岡昭和町ビル５０４,,22,101,4200033,,,,,,,2024-03-05,1,,,,,,0
1474,6080101024562,新規,0,2024-03-05,2024-03-05,エーピーワークス株式会社,,株式会社,静岡県,富士市,今泉２３９８番地の１,,22,210,4170001,,,,,,,2024-03-05,1,,,,,エーピーワークス,0
1476,6090001018572,新規,0,2024-03-05,2024-03-05,八ヶ岳クライマー不動産株式会社,,株式会社,山梨県,北杜市,高根町清里３５４５番地１２８８,,19,209,4070301,,,,,,,2024-03-05,1,,,,,ヤツガタケクライマーフドウサン,0
1481,6100001037208,新規,0,2024-03-05,2024-03-05,浅間開発株式会社,,株式会社,長野県,上田市,中丸子１０４番地,,20,203,3860405,,,,,,,2024-03-05,1,,,,,アサマカイハツ,0
1486,6110001038213,新規,0,2024-03-05,2024-03-05,令和ロードサービス株式会社,,株式会社,新潟県,村上市,山居町１丁目１４番１７号,,15,212,9580853,,,,,,,2024-03-05,1,,,,,レイワロードサービス,0
1487,6110001038221,新規,0,2024-03-05,2024-03-05,株式会社Ｏ．Ｋ,,株式会社,新潟県,新潟市中央区,東堀通８番町１４２６,,15,103,9518065,,,,,,,2024-03-05,1,,,,,オーケー,0
1489,6110003005310,新規,0,2024-03-05,2024-03-05,合同会社ムツキ,,合同会社,新潟県,新潟市秋葉区,山谷町１丁目１３番３７号,,15,105,9560024,,,,,,,2024-03-05,1,,,,,ムツキ,0
1499,6120001262836,新規,0,2024-03-05,2024-03-05,Ａｃｅ　Ｖａｌｕｅ株式会社,,株式会社,大阪府,大阪市天王寺区,東高津町１１番７号上本町グランディムビル８０３,,27,109,5430021,,,,,,,2024-03-05,1,,,,,エースバリュー,0
1500,6120001262844,新規,0,2024-03-05,2024-03-05,森川キャピタル株式会社,,株式会社,大阪府,大阪市東成区,中本５丁目２２番１１号ウエストハイツ中本４０１号室,,27,115,5370022,,,,,,,2024-03-05,1,,,,,モリカワキャピタル,0
1501,6120001262877,新規,0,2024-03-05,2024-03-05,株式会社パワーケーブルコンサルティング,,株式会社,大阪府,大阪市港区,波除５丁目１１番７－１４０２号,,27,107,5520001,,,,,,,2024-03-05,1,,,,,パワーケーブルコンサルティング,0
1508,6120003026074,新規,0,2024-03-05,2024-03-05,合同会社ＪＳオフィス,,合同会社,大阪府,大阪市東成区,大今里４丁目１６番３６号ＫＩＭ,,27,115,5370012,,,,,,,2024-03-05,1,,,,,ジェイエスオフィス,0
1509,6120003026082,新規,0,2024-03-05,2024-03-05,合同会社ＡＫＩ,,合同会社,大阪府,大阪市中央区,東心斎橋１丁目８番１１号アルグラッドザタワー心斎橋１９０７号室,,27,128,5420083,,,,,,,2024-03-05,1,,,,,アキ,0
1513,6120101069165,新規,0,2024-03-05,2024-03-05,弥生工業株式会社,,株式会社,大阪府,和泉市,弥生町３丁目３番１－４０４号,,27,219,5940061,,,,,,,2024-03-05,1,,,,,ヤヨイコウギョウ,0
1518,6120901048839,新規,0,2024-03-05,2024-03-05,株式会社Ｃｉｒｃｌｅ　ＮＩＴＴＡ,,株式会社,大阪府,茨木市,玉櫛２丁目２５番２３号,,27,211,5670895,,,,,,,2024-03-05,1,,,,,サークルニッタ,0
1519,6120901048855,新規,0,2024-03-05,2024-03-05,株式会社ＥＮＥＰＲＯＵＤ,,株式会社,大阪府,豊中市,長興寺北３丁目５－２４－２０３,,27,203,5610875,,,,,,,2024-03-05,1,,,,,エネプラウド,0
1523,6122001037879,新規,0,2024-03-05,2024-03-05,株式会社冨山工務店,,株式会社,大阪府,東大阪市,西岩田３丁目３番５２－１３１５号,,27,227,5780947,,,,,,,2024-03-05,1,,,,,トミヤマコウムテン,0
1528,6130001076459,新規,0,2024-03-05,2024-03-05,ＡＨＡ株式会社,,株式会社,京都府,京都市右京区,嵯峨折戸町２４－３１－２０３,,26,108,6168345,,,,,,,2024-03-05,1,,,,,エーエイチエー,0
1529,6130001076483,新規,0,2024-03-05,2024-03-05,アストロコンサルティング株式会社,,株式会社,京都府,京都市西京区,樫原平田町１５番地３４,,26,111,6158141,,,,,,,2024-03-05,1,,,,,アストロコンサルティング,0
1530,6130001076509,新規,0,2024-03-05,2024-03-05,株式会社まなぶん,,株式会社,京都府,京都市上京区,智恵光院通上長者町下る下山里町２４３番地ベルスーズ西陣６０３,,26,102,6028265,,,,,,,2024-03-05,1,,,,,マナブン,0
1531,6130003009342,新規,0,2024-03-05,2024-03-05,合同会社Ｅ．ｅ,,合同会社,京都府,京都市山科区,西野野色町１５番地８１,,26,110,6078353,,,,,,,2024-03-05,1,,,,,イーイー,0
1535,6130005017021,新規,0,2024-03-05,2024-03-05,一般社団法人京都道教協会,,その他の設立登記法人,京都府,京都市東山区,本町２２丁目４９２－４,,26,105,6050981,,,,,,,2024-03-05,1,,,,,キョウトドウキョウキョウカイ,0
1538,6140001133564,新規,0,2024-03-05,2024-03-05,株式会社あそびばすツアー,,株式会社,兵庫県,伊丹市,西台３丁目９番２２号西台駅前ビル２Ｆ２０９号室,,28,207,6640858,,,,,,,2024-03-05,1,,,,,アソビバスツアー,0
1540,6140003020224,新規,0,2024-03-05,2024-03-05,合同会社イードッグライフ,,合同会社,兵庫県,西宮市,甲子園口３丁目２５番１１号,,28,204,6638113,,,,,,,2024-03-05,1,,,,,イードッグライフ,0
1541,6140003020232,新規,0,2024-03-05,2024-03-05,合同会社ニッチソリューションテラス,,合同会社,兵庫県,神戸市東灘区,御影３丁目５番１４－１０１号,,28,101,6580047,,,,,,,2024-03-05,1,,,,,ニッチソリューションテラス,0
1542,6140003020240,新規,0,2024-03-05,2024-03-05,合同会社クリアダイニング,,合同会社,兵庫県,西宮市,東鳴尾町２丁目１３番３－２号,,28,204,6638132,,,,,,,2024-03-05,1,,,,,クリアダイニング,0
1552,6180001160357,新規,0,2024-03-05,2024-03-05,ＫＯＮＣＩＷＡ株式会社,,株式会社,愛知県,名古屋市中区,金山１丁目１１番１０号金山ハイホーム５０９号,,23,106,4600022,,,,,,,2024-03-05,1,,,,,コンチワ,0
1553,6180001160381,新規,0,2024-03-05,2024-03-05,万達株式会社,,株式会社,愛知県,名古屋市昭和区,向山町１丁目５０番５号メゾンドスイート３０１号,,23,107,4660829,,,,,,,2024-03-05,1,,,,,マンタツ,0
1555,6180003026449,新規,0,2024-03-05,2024-03-05,ｓｕｋｕｎｅ合同会社,,合同会社,愛知県,名古屋市中村区,名駅４丁目２４番５号第２森ビル４０１,,23,105,4500002,,,,,,,2024-03-05,1,,,,,スクネ,0
1556,6180301038369,新規,0,2024-03-05,2024-03-05,トヨタレジン株式会社,,株式会社,愛知県,豊田市,中垣内町大久後１番地１０,,23,211,4442215,,,,,,,2024-03-05,1,,,,,トヨタレジン,0
1557,6180301038377,新規,0,2024-03-05,2024-03-05,株式会社ＦＬＥＣ,,株式会社,愛知県,知立市,上重原町己ノ池３０番地１シャトレー知立ガーデン４０１号,,23,225,4720026,,,,,,,2024-03-05,1,,,,,フレック,0
1558,6180301038385,新規,0,2024-03-05,2024-03-05,ＡＯＩホールディングス株式会社,,株式会社,愛知県,豊橋市,神野新田町字ハノ割３３番地１８,,23,201,4418077,,,,,,,2024-03-05,1,,,,,アオイホールディングス,0
1565,6190005011910,新規,0,2024-03-05,2024-03-05,一般社団法人ｗａｋｕｒａｂａ,,その他の設立登記法人,三重県,鈴鹿市,神戸１丁目１０番１８号,,24,207,5130801,,,,,,,2024-03-05,1,,,,,ワクラバ,0
1566,6200001042222,新規,0,2024-03-05,2024-03-05,魁工業株式会社,,株式会社,岐阜県,岐阜市,雄総緑町６丁目６番地２,,21,201,5020014,,,,,,,2024-03-05,1,,,,,カイコウギョウ,0
1567,6220001025852,新規,0,2024-03-05,2024-03-05,ＴＳＵＴＳＵＪＩ株式会社,,株式会社,石川県,金沢市,つつじが丘７５番地,,17,201,9218103,,,,,,,2024-03-05,1,,,,,ツツジ,0
1574,6240001062860,新規,0,2024-03-05,2024-03-05,株式会社Ｌｉｔａｒｄａｎｄｏ．,,株式会社,広島県,広島市南区,出島２丁目１９番１１号,,34,103,7340013,,,,,,,2024-03-05,1,,,,,リタルダンド,0
1575,6240001062877,新規,0,2024-03-05,2024-03-05,株式会社Ｌ．,,株式会社,広島県,広島市中区,銀山町１１番１２号,,34,101,7300022,,,,,,,2024-03-05,1,,,,,エルドット,0
1576,6240001062893,新規,0,2024-03-05,2024-03-05,株式会社ＳＢｃｏｒｅ,,株式会社,広島県,広島市安佐南区,伴南１丁目５－３０－１４－１１０２,,34,105,7313168,,,,,,,2024-03-05,1,,,,,エスビーコア,0
1579,6250001020537,新規,0,2024-03-05,2024-03-05,株式会社東谷きのこ園,,株式会社,山口県,岩国市,美和町渋前１０７８７番地１,,35,208,7401225,,,,,,,2024-03-05,1,,,,,ヒガシダニキノコエン,0
1588,6290001104864,新規,0,2024-03-05,2024-03-05,秋田レガシー株式会社,,株式会社,福岡県,久留米市,篠山町一丁目１２番３パークノヴァ５０１号,,40,203,8300021,,,,,,,2024-03-05,1,,,,,アキタレガシー,0
1589,6290001104897,新規,0,2024-03-05,2024-03-05,三子産業株式会社,,株式会社,福岡県,福岡市東区,香椎照葉６丁目４番４号１００３室,,40,131,8130017,,,,,,,2024-03-05,1,,,,,ミツコサンギョウ,0
1590,6290001104906,新規,0,2024-03-05,2024-03-05,株式会社城南区不動産,,株式会社,福岡県,福岡市城南区,片江５丁目３９番７号,,40,136,8140142,,,,,,,2024-03-05,1,,,,,ジョウナンクフドウサン,0
1591,6290001104914,新規,0,2024-03-05,2024-03-05,株式会社Ｒｉｎｇｒａｎｔ,,株式会社,福岡県,福岡市中央区,伊崎３番１２号,,40,133,8100067,,,,,,,2024-03-05,1,,,,,リングラント,0
1592,6290001104955,新規,0,2024-03-05,2024-03-05,キンケイ株式会社,,株式会社,福岡県,福岡市博多区,美野島１丁目１７－７,,40,132,8120017,,,,,,,2024-03-05,1,,,,,キンケイ,0
1593,6290003015028,新規,0,2024-03-05,2024-03-05,合同会社アイケンココ,,合同会社,福岡県,福岡市西区,上山門１丁目８番３８号,,40,135,8190054,,,,,,,2024-03-05,1,,,,,アイケンココ,0
1594,6290005019308,新規,0,2024-03-05,2024-03-05,一般社団法人日本動物取扱業協会,,その他の設立登記法人,福岡県,福岡市博多区,博多駅前４丁目１３番２７号グランドハイツ博多９０１号,,40,132,8120011,,,,,,,2024-03-05,1,,,,,ニホンドウブツトリアツカイギョウキョウカイ,0
1596,6290801030368,新規,0,2024-03-05,2024-03-05,株式会社アクティブ．Ｋ,,株式会社,福岡県,北九州市小倉北区,下到津４丁目５番２８号,,40,106,8030846,,,,,,,2024-03-05,1,,,,,アクティブケイ,0
1602,6300003002081,新規,0,2024-03-05,2024-03-05,合同会社あめのひ,,合同会社,佐賀県,鹿島市,大字高津原１１３９－４,,41,207,8491311,,,,,,,2024-03-05,1,,,,,アメノヒ,0
1603,6310005008745,新規,0,2024-03-05,2024-03-05,一般財団法人長崎福建会館,,その他の設立登記法人,長崎県,長崎市,新地町１０番１３号,,42,201,8500842,,,,,,,2024-03-05,1,,,,,ナガサキフッケンカイカン,0
1605,6320001020323,新規,0,2024-03-05,2024-03-05,株式会社Ｉｎｄｉｖｉｄｕａｌｉｔｙ　Ｃａｒｅ,,株式会社,大分県,大分市,三佐６丁目８番２３号,,44,201,8700108,,,,,,,2024-03-05,1,,,,,インディヴィジュアリティケア,0
1609,6330003010247,新規,0,2024-03-05,2024-03-05,合同会社寿映像製作所,,合同会社,熊本県,阿蘇郡高森町,大字色見１３１－１１,,43,428,8691603,,,,,,,2024-03-05,1,,,,,コトブキエイゾウセイサクジョ,0
1612,6360001033271,新規,0,2024-03-05,2024-03-05,株式会社テンフィート,,株式会社,沖縄県,宮古島市,平良字東仲宗根６９３－２０,,47,214,9060007,,,,,,,2024-03-05,1,,,,,テンフィート,0
1613,6360003013767,新規,0,2024-03-05,2024-03-05,合同会社Ａｉｍａｂｌｅ,,合同会社,沖縄県,那覇市,寄宮２丁目６－１０－１０１号室,,47,201,9020064,,,,,,,2024-03-05,1,,,,,エマーブル,0
1614,6370005010753,新規,0,2024-03-05,2024-03-05,一般社団法人コソダテノミカタ,,その他の設立登記法人,宮城県,気仙沼市,内の脇１丁目１３番１５号,,04,205,9880025,,,,,,,2024-03-05,1,,,,,コソダテノミカタ,0
1616,6380001034334,新規,0,2024-03-05,2024-03-05,株式会社ナイツ,,株式会社,福島県,郡山市,芳賀１丁目１１番５号,,07,203,9638813,,,,,,,2024-03-05,1,,,,,ナイツ,0
1617,6380001034342,新規,0,2024-03-05,2024-03-05,株式会社わたなべファーム,,株式会社,福島県,須賀川市,森宿字広町１４２番地,,07,207,9620001,,,,,,,2024-03-05,1,,,,,ワタナベファーム,0
1625,6430001091213,新規,0,2024-03-05,2024-03-05,株式会社クラウド,,株式会社,北海道,札幌市中央区,南三条西８丁目２－１ＳＡＫＵＲＡ－Ｓ３,,01,101,0600063,,,,,,,2024-03-05,1,,,,,クラウド,0
1626,6430001091238,新規,0,2024-03-05,2024-03-05,株式会社暮らしのＲｅｂｏｒｎ,,株式会社,北海道,札幌市南区,石山四条６丁目１番２０号,,01,106,0050844,,,,,,,2024-03-05,1,,,,,クラシノリボーン,0
1632,6470001020060,新規,0,2024-03-05,2024-03-05,ＮＩＣＯＡ　ＣＯＶＥＲ株式会社,,株式会社,香川県,高松市,常磐町２丁目８番地２コリドールウエスト１階,,37,201,7600054,,,,,,,2024-03-05,1,,,,,ニコアカバー,0
1634,6500001025485,新規,0,2024-03-05,2024-03-05,株式会社ＡＺＵＬ,,株式会社,愛媛県,西条市,朔日市６７番地７,,38,206,7930027,,,,,,,2024-03-05,1,,,,,アズール,0
1649,7010001242682,新規,0,2024-03-05,2024-03-05,グローバルデータ株式会社,,株式会社,東京都,千代田区,神田錦町３丁目７番地２東京堂錦町ビルディング７階・８階・９階,,13,101,1010054,,,,,,,2024-03-05,1,,,,,グローバルデータ,0
1650,7010001242781,新規,0,2024-03-05,2024-03-05,クリーチャースタジオ株式会社,,株式会社,東京都,中央区,東日本橋３丁目３番１７号Ｒｅ－Ｋｎｏｗ東日本橋Ｂ１階,,13,102,1030004,,,,,,,2024-03-05,1,,,,,クリーチャースタジオ,0
1661,7010401180813,新規,0,2024-03-05,2024-03-05,株式会社インナチュラル,,株式会社,東京都,港区,赤坂８丁目１０番２２号ニュー新坂ビル４Ｆ,,13,103,1070052,,,,,,,2024-03-05,1,,,,,インナチュラル,0
1665,7010403032070,新規,0,2024-03-05,2024-03-05,Ｂ．Ｏ．Ｓ．Ｓ．Ｃｏｎｓｕｌｔｉｎｇ合同会社,,合同会社,東京都,港区,新橋４丁目３１番３号第三名和ビル,,13,103,1050004,,,,,,,2024-03-05,1,,,,,ボスコンサルティング,0
1668,7010501051880,新規,0,2024-03-05,2024-03-05,ＭＴＯ企画株式会社,,株式会社,東京都,台東区,元浅草１丁目１５－２,,13,106,1110041,,,,,,,2024-03-05,1,,,,,エムティーオーキカク,0
1676,7010703007078,新規,0,2024-03-05,2024-03-05,合同会社ミッション,,合同会社,東京都,品川区,東大井５丁目８－１０－５０３,,13,109,1400011,,,,,,,2024-03-05,1,,,,,ミッション,0
1679,7010903008867,新規,0,2024-03-05,2024-03-05,ＢＬＵＥＳＫＹＥ合同会社,,合同会社,東京都,世田谷区,玉堤１丁目１５番１８－５０６号,,13,112,1580087,,,,,,,2024-03-05,1,,,,,ブルースカイ,0
1683,7011001160354,新規,0,2024-03-05,2024-03-05,ｍａｔｅ株式会社,,株式会社,東京都,渋谷区,道玄坂１丁目１０番８号渋谷道玄坂東急ビル２Ｆ－Ｃ,,13,113,1500043,,,,,,,2024-03-05,1,,,,,メイト,0
1684,7011001160370,新規,0,2024-03-05,2024-03-05,株式会社Ｐｌａｙｅｒ　Ｖｉｓｉｏｎ,,株式会社,東京都,渋谷区,幡ヶ谷１丁目１１番９－５０５号,,13,113,1510072,,,,,,,2024-03-05,1,,,,,プレイヤービジョン,0
1685,7011001160387,新規,0,2024-03-05,2024-03-05,株式会社スマート,,株式会社,東京都,渋谷区,恵比寿西２丁目４番８号,,13,113,1500021,,,,,,,2024-03-05,1,,,,,スマート,0
1686,7011001160404,新規,0,2024-03-05,2024-03-05,株式会社ＧＲＯＯＭＥＲＳ,,株式会社,東京都,渋谷区,東１丁目２６番３０号,,13,113,1500011,,,,,,,2024-03-05,1,,,,,グルーマーズ,0
1687,7011001160412,新規,0,2024-03-05,2024-03-05,ＺＥＩＲＩＣ株式会社,,株式会社,東京都,渋谷区,円山町５番５号Ｎａｖｉ渋谷Ｖ３階,,13,113,1500044,,,,,,,2024-03-05,1,,,,,ゼイリック,0
1692,7011003018625,新規,0,2024-03-05,2024-03-05,合同会社プライム,,合同会社,東京都,渋谷区,神泉町８番１０号,,13,113,1500045,,,,,,,2024-03-05,1,,,,,プライム,0
1697,7011101106422,新規,0,2024-03-05,2024-03-05,株式会社ＤＡＲＵＣＯＭＩ,,株式会社,東京都,新宿区,新宿５丁目１番１９－１０２号,,13,104,1600022,,,,,,,2024-03-05,1,,,,,ダルコミ,0
1698,7011101106439,新規,0,2024-03-05,2024-03-05,株式会社ベストコース,,株式会社,東京都,新宿区,西新宿３丁目３－１３西新宿水間ビル２Ｆ,,13,104,1600023,,,,,,,2024-03-05,1,,,,,ベストコース,0
1700,7011103014136,新規,0,2024-03-05,2024-03-05,合同会社Ｚｉ,,合同会社,東京都,新宿区,神楽坂６丁目２６神楽坂ＹＭビル１０１,,13,104,1620825,,,,,,,2024-03-05,1,,,,,ジ,0
1706,7011501030395,新規,0,2024-03-05,2024-03-05,オリーブ株式会社,,株式会社,東京都,北区,中里１丁目２１番２号中里ビル１Ｆ,,13,117,1140015,,,,,,,2024-03-05,1,,,,,オリーブ,0
1711,7011703003760,新規,0,2024-03-05,2024-03-05,ＲＥＤ合同会社,,合同会社,東京都,江戸川区,平井３丁目２４－２４カゲヤマハイツ２０３号,,13,123,1320035,,,,,,,2024-03-05,1,,,,,レッド,0
1713,7011801043865,新規,0,2024-03-05,2024-03-05,株式会社Ｆｉｒｓｔ,,株式会社,東京都,葛飾区,奥戸８丁目８－１５カーサエスペランサ１０４,,13,122,1240022,,,,,,,2024-03-05,1,,,,,ファースト,0
1714,7011803006110,新規,0,2024-03-05,2024-03-05,合同会社ポテチ,,合同会社,東京都,足立区,六月３丁目４－１１－５０３,,13,121,1210814,,,,,,,2024-03-05,1,,,,,ポテチ,0
1716,7012301013805,新規,0,2024-03-05,2024-03-05,株式会社寿商事,,株式会社,東京都,町田市,野津田町９７９番地１,,13,209,1950063,,,,,,,2024-03-05,1,,,,,コトブキショウジ,0
1717,7012405004948,新規,0,2024-03-05,2024-03-05,医療法人社団美優会,,その他の設立登記法人,東京都,調布市,布田４丁目１７番地１０セントラルレジデンス調布地下１階１０２－２号室,,13,208,1820024,,,,,,,2024-03-05,1,,,,,ビユウカイ,0
1719,7012801023007,新規,0,2024-03-05,2024-03-05,株式会社シャトーレ,,株式会社,東京都,立川市,栄町４丁目２３番地１３,,13,202,1900003,,,,,,,2024-03-05,1,,,,,シャトーレ,0
1721,7013301052165,新規,0,2024-03-05,2024-03-05,金大株式会社,,株式会社,東京都,豊島区,南池袋２丁目３２番６,,13,116,1710022,,,,,,,2024-03-05,1,,,,,キンダイ,0
1725,7020001155982,新規,0,2024-03-05,2024-03-05,株式会社日新,,株式会社,神奈川県,横浜市青葉区,田奈町２３－４,,14,117,2270064,,,,,,,2024-03-05,1,,,,,ニッシン,0
1736,7030003023765,新規,0,2024-03-05,2024-03-05,アスクリス合同会社,,合同会社,埼玉県,さいたま市大宮区,宮町４丁目４１番４０２,,11,103,3300802,,,,,,,2024-03-05,1,,,,,アスクリス,0
1742,7040001132518,新規,0,2024-03-05,2024-03-05,株式会社プロフレームス,,株式会社,千葉県,市川市,八幡４丁目１８番２９号,,12,203,2720021,,,,,,,2024-03-05,1,,,,,プロフレームス,0
1748,7040003024399,新規,0,2024-03-05,2024-03-05,合同会社ＵＣＤ,,合同会社,千葉県,千葉市中央区,本千葉町３－７－１１０３号室,,12,101,2600014,,,,,,,2024-03-05,1,,,,,ユーシーディー,0
1749,7040003024424,新規,0,2024-03-05,2024-03-05,合同会社ＩＤＥＡＬ　ＩＮＴＥＲＮＡＴＩＯＮＡＬ,,合同会社,千葉県,山武市,実門１４６番３４,,12,237,2891221,,,,,,,2024-03-05,1,,,,,アイデアルインターナショナル,0
1750,7040003024473,新規,0,2024-03-05,2024-03-05,カエルミライ合同会社,,合同会社,千葉県,千葉市緑区,越智町１７１番地,,12,105,2670055,,,,,,,2024-03-05,1,,,,,カエルミライ,0
1751,7040003024481,新規,0,2024-03-05,2024-03-05,Ｑｕａｌｉｔｙ　Ｌｉｆｅ合同会社,,合同会社,千葉県,八千代市,八千代台北１１丁目２１番３号,,12,221,2760031,,,,,,,2024-03-05,1,,,,,クオリティライフ,0
1752,7050001054389,新規,0,2024-03-05,2024-03-05,株式会社左官．ＳＨＩＭＩＺＵ,,株式会社,茨城県,笠間市,大渕１７０１番地１,,08,216,3091604,,,,,,,2024-03-05,1,,,,,サカンシミズ,0
1754,7050003008178,新規,0,2024-03-05,2024-03-05,合同会社ＨＥＴ,,合同会社,茨城県,日立市,十王町城の丘２丁目７番地４,,08,202,3191308,,,,,,,2024-03-05,1,,,,,エイチイーティー,0
1756,7060001036873,新規,0,2024-03-05,2024-03-05,ＡＩＬＥ株式会社,,株式会社,栃木県,宇都宮市,陽東５丁目１９番１号２階,,09,201,3210904,,,,,,,2024-03-05,1,,,,,エイル,0
1759,7070003005306,新規,0,2024-03-05,2024-03-05,合同会社Ｓａｆｅ　Ｊａｐａｎ,,合同会社,群馬県,館林市,本町１丁目１番１号アルテルース－４０１,,10,207,3740024,,,,,,,2024-03-05,1,,,,,,0
1763,7080001026154,新規,0,2024-03-05,2024-03-05,株式会社ＴＨＥ　ＴＲＡＮＳＰＯＲＴＥＲ,,株式会社,静岡県,静岡市駿河区,中野新田４０３番地の８,,22,102,4228051,,,,,,,2024-03-05,1,,,,,ザトランスポーター,0
1764,7080003003143,新規,0,2024-03-05,2024-03-05,合同会社ウィッシュ,,合同会社,静岡県,静岡市駿河区,下川原５丁目１５番５号,,22,102,4210113,,,,,,,2024-03-05,1,,,,,ウィッシュ,0
1765,7080101024561,新規,0,2024-03-05,2024-03-05,コーチョーホールディングス株式会社,,株式会社,静岡県,富士市,厚原字川窪２９５番地,,22,210,4190201,,,,,,,2024-03-05,1,,,,,コーチョーホールディングス,0
1769,7100001037248,新規,0,2024-03-05,2024-03-05,株式会社ＳＩＮＤ,,株式会社,長野県,長野市,松岡１丁目６－１７,,20,201,3810026,,,,,,,2024-03-05,1,,,,,シンド,0
1772,7110001038212,新規,0,2024-03-05,2024-03-05,株式会社ふるさと不動産総研,,株式会社,新潟県,新潟市中央区,天神１丁目１番地プラーカ３、２Ｆ、ＨＵＢ、ＳＴＡＴＩＯＮ、ＫＥＮＴＯ内,,15,103,9500917,,,,,,,2024-03-05,1,,,,,フルサトフドウサンソウケン,0
1790,7120001262810,新規,0,2024-03-05,2024-03-05,株式会社Ａｉｍｅｅｓ,,株式会社,大阪府,交野市,星田４丁目１３－１９－１０３,,27,230,5760016,,,,,,,2024-03-05,1,,,,,エイミー,0
1791,7120001262835,新規,0,2024-03-05,2024-03-05,株式会社Ｌａｕｇｈｔｅｒ,,株式会社,大阪府,大阪市北区,梅田１丁目３番１－４００号,,27,127,5300001,,,,,,,2024-03-05,1,,,,,ラフター,0
1792,7120001262868,新規,0,2024-03-05,2024-03-05,ゆっくり株式会社,,株式会社,大阪府,大阪市淀川区,野中南１丁目８－２８,,27,123,5320022,,,,,,,2024-03-05,1,,,,,ユックリ,0
1793,7120001262901,新規,0,2024-03-05,2024-03-05,ＭＹ株式会社,,株式会社,大阪府,大阪市西淀川区,姫里２丁目６番１２号,,27,113,5550025,,,,,,,2024-03-05,1,,,,,エムワイ,0
1796,7120003026065,新規,0,2024-03-05,2024-03-05,合同会社笑夢,,合同会社,大阪府,大阪市平野区,喜連５丁目１－３５,,27,126,5470027,,,,,,,2024-03-05,1,,,,,エム,0
1799,7120101069164,新規,0,2024-03-05,2024-03-05,株式会社ａｎｄ　Ｒｅｌｉｅｆ,,株式会社,大阪府,堺市北区,百舌鳥梅北町４丁１６,,27,146,5918031,,,,,,,2024-03-05,1,,,,,アンドリリーフ,0
1805,7120903005069,新規,0,2024-03-05,2024-03-05,神亀科技合同会社,,合同会社,大阪府,豊中市,豊南町東３丁目３番３－２０３号,,27,203,5610814,,,,,,,2024-03-05,1,,,,,カミカメカギ,0
1811,7140003020223,新規,0,2024-03-05,2024-03-05,合同会社結び,,合同会社,兵庫県,伊丹市,山田４丁目７番２８号,,28,207,6640874,,,,,,,2024-03-05,1,,,,,ムスビ,0
1812,7150001027112,新規,0,2024-03-05,2024-03-05,株式会社華東金属,,株式会社,奈良県,北葛城郡河合町,大字池部１０１番地１,,29,427,6360053,,,,,,,2024-03-05,1,,,,,カトウキンゾク,0
1813,7150003003193,新規,0,2024-03-05,2024-03-05,合同会社山下塗装店,,合同会社,奈良県,大和高田市,大字根成柿３８０番地１（Ｃ１２６号室）ネオシティ大和高田,,29,202,6350051,,,,,,,2024-03-05,1,,,,,ヤマシタトソウテン,0
1815,7160001025726,新規,0,2024-03-05,2024-03-05,株式会社Ｒｅｑｕｅｓｔ　Ｆｉｅｌｄ,,株式会社,滋賀県,大津市,青山６丁目１２番１０号,,25,201,5202101,,,,,,,2024-03-05,1,,,,,リクエストフィールド,0
1822,7180001160356,新規,0,2024-03-05,2024-03-05,株式会社ネクストライフ,,株式会社,愛知県,名古屋市中区,金山１丁目１１番１０号金山ハイホーム５０９号,,23,106,4600022,,,,,,,2024-03-05,1,,,,,ネクストライフ,0
1823,7180001160372,新規,0,2024-03-05,2024-03-05,株式会社海麒商事,,株式会社,愛知県,名古屋市中川区,大当郎三丁目１０１０番地２,00133961,23,110,4540000,,,,,,,2024-03-05,1,,,,,カイキショウジ,0
1824,7180001160397,新規,0,2024-03-05,2024-03-05,株式会社コムズワールド,,株式会社,愛知県,名古屋市西区,名駅２丁目２４番９号,,23,104,4510045,,,,,,,2024-03-05,1,,,,,コムズワールド,0
1825,7180001160463,新規,0,2024-03-05,2024-03-05,株式会社ＥＫホームズ,,株式会社,愛知県,瀬戸市,道泉町１番地の３ニューコーポ瀬戸５０２,,23,204,4890054,,,,,,,2024-03-05,1,,,,,イーケーホームズ,0
1826,7180301038384,新規,0,2024-03-05,2024-03-05,株式会社ＧＯＡＬＭＥＮＴ,,株式会社,愛知県,安城市,篠目町童子９５番地１,,23,212,4460073,,,,,,,2024-03-05,1,,,,,ゴールメント,0
1827,7190003004601,新規,0,2024-03-05,2024-03-05,ＭＳコンサルティング合同会社,,合同会社,三重県,四日市市,別名５丁目４番１２号,,24,202,5100007,,,,,,,2024-03-05,1,,,,,エムエスコンサルティング,0
1831,7200001042213,新規,0,2024-03-05,2024-03-05,株式会社Ｓハッピーフーズ,,株式会社,岐阜県,大垣市,南頬町２丁目７４番地１,,21,202,5030864,,,,,,,2024-03-05,1,,,,,エスハッピーフーズ,0
1832,7200001042221,新規,0,2024-03-05,2024-03-05,株式会社與野工業,,株式会社,岐阜県,岐阜市,三番町１番地１幸輝ビル２０２,,21,201,5008189,,,,,,,2024-03-05,1,,,,,ヨノコウギョウ,0
1834,7230001020232,新規,0,2024-03-05,2024-03-05,株式会社メタル・トリート,,株式会社,富山県,砺波市,狐島２１５番地１,,16,208,9391346,,,,,,,2024-03-05,1,,,,,メタルトリート,0
1838,7240001062892,新規,0,2024-03-05,2024-03-05,Ａ．Ｍ．Ｙ株式会社,,株式会社,広島県,広島市中区,西白島町２７番２－９１５号,,34,101,7300005,,,,,,,2024-03-05,1,,,,,エーエムワイ,0
1842,7250001020536,新規,0,2024-03-05,2024-03-05,株式会社ビー・イー・ティ,,株式会社,山口県,下松市,望町４丁目１４番３３号,,35,207,7440072,,,,,,,2024-03-05,1,,,,,ビーイーティ,0
1843,7250003003448,新規,0,2024-03-05,2024-03-05,合同会社ＢＡＳＥＦＵＬ,,合同会社,山口県,宇部市,明治町１丁目６番１８号,,35,202,7550013,,,,,,,2024-03-05,1,,,,,ベースフル,0
1849,7290001104896,新規,0,2024-03-05,2024-03-05,株式会社ＬＡＩＱ,,株式会社,福岡県,福岡市中央区,天神２丁目２番１２号Ｔ＆Ｊビルディング７Ｆ,,40,133,8100001,,,,,,,2024-03-05,1,,,,,ライク,0
1850,7290001104905,新規,0,2024-03-05,2024-03-05,株式会社ＥＭＭＡ,,株式会社,福岡県,福岡市中央区,小笹４丁目５番３－１１０３号クラシオン小笹山手３番館,,40,133,8100033,,,,,,,2024-03-05,1,,,,,エマ,0
1853,7290801030367,新規,0,2024-03-05,2024-03-05,株式会社鹿島商店,,株式会社,福岡県,北九州市門司区,東本町１丁目７番６号,,40,101,8010851,,,,,,,2024-03-05,1,,,,,カシマショウテン,0
1855,7310001018887,新規,0,2024-03-05,2024-03-05,ＮＡＳＡホールディングス株式会社,,株式会社,長崎県,五島市,奈留町浦１０６２番地５,,42,211,8532201,,,,,,,2024-03-05,1,,,,,ナサホールディングス,0
1857,7320001020322,新規,0,2024-03-05,2024-03-05,株式会社ＬＵＴＥＬＬＡ　ＣＯＣＯ,,株式会社,大分県,大分市,大字森８６１番地の５,,44,201,8700128,,,,,,,2024-03-05,1,,,,,ルテラココ,0
1858,7320001020330,新規,0,2024-03-05,2024-03-05,株式会社ｚｅｒｏｏｎｅ,,株式会社,大分県,大分市,三佐４丁目９番１９号,,44,201,8700108,,,,,,,2024-03-05,1,,,,,ゼロワン,0
1861,7330001031814,新規,0,2024-03-05,2024-03-05,株式会社ＮｅｘｔＬｉｎｋｓＫＭ,,株式会社,熊本県,熊本市中央区,神水１丁目６番１－１０２号室,,43,101,8620954,,,,,,,2024-03-05,1,,,,,ネクストリンクスケーエム,0
1862,7330003010246,新規,0,2024-03-05,2024-03-05,合同会社倫吉,,合同会社,熊本県,熊本市西区,谷尾崎町４４－３,,43,103,8600044,,,,,,,2024-03-05,1,,,,,トモヨシ,0
1863,7340001026326,新規,0,2024-03-05,2024-03-05,迦楼羅株式会社,,株式会社,鹿児島県,薩摩川内市,向田本町１１番１０号濱ビル２０３号,,46,215,8950021,,,,,,,2024-03-05,1,,,,,カルラ,0
1864,7340001026342,新規,0,2024-03-05,2024-03-05,株式会社Ｒｅ‐ｓｅｔ,,株式会社,鹿児島県,日置市,伊集院町郡１８５５番地２,,46,216,8992504,,,,,,,2024-03-05,1,,,,,リセット,0
1865,7340003004387,新規,0,2024-03-05,2024-03-05,合同会社Ｔｓｕｄｏｉ,,合同会社,鹿児島県,鹿児島市,山之口町８番３７号,,46,201,8920844,,,,,,,2024-03-05,1,,,,,ツドイ,0
1871,7370001050991,新規,0,2024-03-05,2024-03-05,株式会社ＯＷＮＰＡＣＥ,,株式会社,宮城県,仙台市青葉区,旭ケ丘４丁目１７番１６号マリーンレイク１０１号室,,04,101,9810904,,,,,,,2024-03-05,1,,,,,オウンペース,0
1882,7420001018612,新規,0,2024-03-05,2024-03-05,株式会社クラヴィッツ,,株式会社,青森県,八戸市,大字八日町３６番地八戸第一ビル５階,,02,203,0310086,,,,,,,2024-03-05,1,,,,,クラヴィッツ,0
1886,7430001091195,新規,0,2024-03-05,2024-03-05,株式会社一蓮,,株式会社,北海道,石狩郡当別町,弥生６５６４－４０,,01,303,0610223,,,,,,,2024-03-05,1,,,,,イチレン,0
1888,7430003016019,新規,0,2024-03-05,2024-03-05,合同会社ＪＨ,,合同会社,北海道,札幌市厚別区,厚別西四条１丁目８番３－１３０１号,,01,108,0040064,,,,,,,2024-03-05,1,,,,,ジェイエイチ,0
1893,7700150123622,新規,0,2024-03-05,2024-03-05,Ｂｌｏｏｍｉｎｇ　Ｓｔａｒ　Ｃｏｒｐｏｒａｔｉｏｎ,,外国会社等,,,,,,,,Ｔｒｕｓｔ　Ｃｏｍｐａｎｙ　Ｃｏｍｐｌｅｘ，Ａｊｅｌｔａｋｅ　Ｒｏａｄ，Ａｊｅｌｔａｋｅ　Ｉｓｌａｎｄ，Ｍａｊｕｒｏ，Ｍａｒｓｈａｌｌ　Ｉｓｌａｎｄｓ　ＭＨ９６９６０,,,,,,2024-03-05,1,,,,,ブルーミングスターコーポレーシヨン,0
1894,7700150124307,新規,0,2024-03-05,2024-03-05,ＮＸ　Ｇｌｏｂａｌ　Ｏｃｅａｎ　Ｎｅｔｗｏｒｋ　Ｐｔｅ．Ｌｔｄ．,,外国会社等,東京都,千代田区,神田和泉町２番地,,13,101,1010024,シンガポール共和国５Ｃト－グアンロードイ－スト,,,,,,2024-03-05,1,,,,,エヌエツクスグローバルオーシヤンネツトワークピーテイーイーエルテイデイ,0
1901,8010001242764,新規,0,2024-03-05,2024-03-05,株式会社田島理奈設計事務所,,株式会社,東京都,文京区,本郷１丁目４番１１号岡野ビル２階,,13,105,1130033,,,,,,,2024-03-05,1,,,,,タジマリナセッケイジムショ,0
1902,8010001242780,新規,0,2024-03-05,2024-03-05,株式会社カーサポートジャパン,,株式会社,東京都,千代田区,九段北１丁目１３番５号,,13,101,1020073,,,,,,,2024-03-05,1,,,,,カーサポートジャパン,0
1903,8010001242789,新規,0,2024-03-05,2024-03-05,ＴＰＣ株式会社,,株式会社,東京都,中央区,勝どき４丁目６－２,,13,102,1040054,,,,,,,2024-03-05,1,,,,,ティピィシー,0
1904,8010001242806,新規,0,2024-03-05,2024-03-05,きわみインシュアランス・パーク株式会社,,株式会社,東京都,中央区,八重洲２丁目２番１号,,13,102,1040028,,,,,,,2024-03-05,1,,,,,キワミインシュアランスパーク,0
1911,8010003043145,新規,0,2024-03-05,2024-03-05,合同会社ＲＡＭ,,合同会社,東京都,中央区,勝どき５丁目１０－１０－９１４,,13,102,1040054,,,,,,,2024-03-05,1,,,,,ラム,0
1919,8010403032086,新規,0,2024-03-05,2024-03-05,合同会社ＡＲＴＳ,,合同会社,東京都,港区,南青山５丁目９番１０号サンク青山６階,,13,103,1070062,,,,,,,2024-03-05,1,,,,,アーツ,0
1923,8010501051871,新規,0,2024-03-05,2024-03-05,Ａｒｃｅｄ株式会社,,株式会社,東京都,台東区,東上野６丁目２７番６号イグレック３０１,,13,106,1100015,,,,,,,2024-03-05,1,,,,,アークド,0
1924,8010501051888,新規,0,2024-03-05,2024-03-05,株式会社Ｂａｒｏ　Ｓｏｌｕｔｉｏｎｓ　Ｃｏｍｐａｎｙ　Ｌｉｍｉｔｅｄ,,株式会社,東京都,台東区,根岸５丁目１６番５－７０５号,,13,106,1100003,,,,,,,2024-03-05,1,,,,,バロソリューションズカンパニーリミテッド,0
1926,8010701045624,新規,0,2024-03-05,2024-03-05,ダウ製薬株式会社,,株式会社,東京都,品川区,平塚２丁目９番１号東武ハイライン戸越銀座６０５号室,,13,109,1420051,,,,,,,2024-03-05,1,,,,,ダウセイヤク,0
1927,8010701045632,新規,0,2024-03-05,2024-03-05,株式会社科学的看護・介護研究機構,,株式会社,東京都,品川区,東品川２丁目２番２４号天王洲セントラルタワー１８階,,13,109,1400002,,,,,,,2024-03-05,1,,,,,カガクテキカンゴカイゴケンキュウキコウ,0
1928,8010703007077,新規,0,2024-03-05,2024-03-05,アイナ合同会社,,合同会社,東京都,品川区,東五反田１丁目８－１１,,13,109,1410022,,,,,,,2024-03-05,1,,,,,アイナ,0
1929,8010705003603,新規,0,2024-03-05,2024-03-05,医療法人社団アクト,,その他の設立登記法人,東京都,品川区,小山４丁目１４番２３号豊田ビル１０２,,13,109,1420062,,,,,,,2024-03-05,1,,,,,アクト,0
1932,8010803004866,新規,0,2024-03-05,2024-03-05,合同会社カレリア,,合同会社,東京都,大田区,西蒲田１丁目１６番６号,,13,111,1440051,,,,,,,2024-03-05,1,,,,,カレリア,0
1947,8011001160394,新規,0,2024-03-05,2024-03-05,株式会社なりたんこーぽれーしょん,,株式会社,東京都,渋谷区,道玄坂１丁目１０番８号渋谷道玄坂東急ビル２Ｆ－Ｃ,,13,113,1500043,,,,,,,2024-03-05,1,,,,,ナリタンコーポレーション,0
1951,8011003018624,新規,0,2024-03-05,2024-03-05,エスプランニング合同会社,,合同会社,東京都,渋谷区,宇田川町２番１－１００４号,,13,113,1500042,,,,,,,2024-03-05,1,,,,,エスプランニング,0
1952,8011005010406,新規,0,2024-03-05,2024-03-05,司法書士法人渋谷桜丘総合事務所,,その他の設立登記法人,東京都,渋谷区,桜丘町１３番９号クリエート桜丘４０４号,,13,113,1500031,,,,,,,2024-03-05,1,,,,,シブヤサクラガオカソウゴウジムショ,0
1956,8011101106223,新規,0,2024-03-05,2024-03-05,アジア・ネットワークテクノロジー株式会社,,株式会社,東京都,新宿区,百人町２丁目１番４５号赤煉瓦２４８,,13,104,1690073,,,,,,,2024-03-05,1,,,,,アジアネットワークテクノロジー,0
1957,8011101106421,新規,0,2024-03-05,2024-03-05,株式会社Ｌ,,株式会社,東京都,新宿区,西新宿３丁目３番１３号西新宿水間ビル２Ｆ,,13,104,1600023,,,,,,,2024-03-05,1,,,,,エル,0
1958,8011101106438,新規,0,2024-03-05,2024-03-05,株式会社クラウントウキョウ,,株式会社,東京都,新宿区,歌舞伎町１丁目９番１号ヒサコービル１Ｆ,,13,104,1600021,,,,,,,2024-03-05,1,,,,,クラウントウキョウ,0
1965,8011203004317,新規,0,2024-03-05,2024-03-05,合同会社ギークシック,,合同会社,東京都,中野区,中野１丁目４９番８号,,13,114,1640001,,,,,,,2024-03-05,1,,,,,ギークシック,0
1966,8011205002590,新規,0,2024-03-05,2024-03-05,医療法人社団あしかりクリニック,,その他の設立登記法人,東京都,中野区,中央５丁目４４番９号,,13,114,1640011,,,,,,,2024-03-05,1,,,,,アシカリクリニック,0
1968,8011301029430,新規,0,2024-03-05,2024-03-05,株式会社ＦＵＬＬｃｏｍｍｉｔ,,株式会社,東京都,杉並区,和田１丁目３９－３０ルフォンプログレ中野富士見町ザレジデンス３０６号室,,13,115,1660012,,,,,,,2024-03-05,1,,,,,フルコミット,0
1975,8011701027067,新規,0,2024-03-05,2024-03-05,株式会社ＫＭＨ,,株式会社,東京都,江戸川区,東小岩３丁目９番１７号,,13,123,1330052,,,,,,,2024-03-05,1,,,,,ケイエムエイチ,0
1979,8012301013804,新規,0,2024-03-05,2024-03-05,株式会社小橋眼科研究所,,株式会社,東京都,町田市,南成瀬４丁目３番地１０,,13,209,1940045,,,,,,,2024-03-05,1,,,,,コバシガンカケンキュウジョ,0
1981,8012401041589,新規,0,2024-03-05,2024-03-05,株式会社Ｅｓｔｒｅｌｌａ,,株式会社,東京都,小金井市,前原町２丁目２３番３号,,13,210,1840013,,,,,,,2024-03-05,1,,,,,,0
1982,8012403006441,新規,0,2024-03-05,2024-03-05,合同会社ｒｅｉｎ　ａｌｔｏ,,合同会社,東京都,狛江市,和泉本町１丁目２２番７号ラ・フォーレ絹山Ｐ１、２０１,,13,219,2010003,,,,,,,2024-03-05,1,,,,,リーンアルト,0
1984,8012701018114,新規,0,2024-03-05,2024-03-05,トムケア株式会社,,株式会社,東京都,東村山市,秋津町４丁目４０番地４７,,13,213,1890001,,,,,,,2024-03-05,1,,,,,トムケア,0
1986,8013301052148,新規,0,2024-03-05,2024-03-05,株式会社Ｍｏｎｉｃａ,,株式会社,東京都,豊島区,南池袋２丁目２９番１６号ルボワ平喜南池袋５０２号,,13,116,1710022,,,,,,,2024-03-05,1,,,,,モニカ,0
1987,8013301052164,新規,0,2024-03-05,2024-03-05,株式会社ＳＫ,,株式会社,東京都,豊島区,池袋２丁目４０番１２号西池袋第一生命ビル９Ｆ,,13,116,1710014,,,,,,,2024-03-05,1,,,,,エスケー,0
1993,8021001081607,新規,0,2024-03-05,2024-03-05,株式会社駄菓子屋ＲＯＣＫ,,株式会社,神奈川県,藤沢市,辻堂元町１丁目１２番６号,,14,205,2510043,,,,,,,2024-03-05,1,,,,,ダガシヤロック,0
1995,8021003014226,新規,0,2024-03-05,2024-03-05,Ｎｅｘｔ　Ｆｕｔｕｒｅ合同会社,,合同会社,神奈川県,藤沢市,大鋸１２１１番地の７,,14,205,2510002,,,,,,,2024-03-05,1,,,,,ネクストフューチャー,0
1998,8030001159049,新規,0,2024-03-05,2024-03-05,株式会社エラムド,,株式会社,埼玉県,坂戸市,関間２丁目９番１１号,,11,239,3500215,,,,,,,2024-03-05,1,,,,,エラムド,0
2009,8040001132491,新規,0,2024-03-05,2024-03-05,株式会社ＳＵＰ,,株式会社,千葉県,松戸市,二十世紀が丘丸山町４３番地の２,,12,207,2710084,,,,,,,2024-03-05,1,,,,,サップ,0
2010,8040001132500,新規,0,2024-03-05,2024-03-05,株式会社ＯｎｅＳｔｅｐ,,株式会社,千葉県,浦安市,東野２丁目２６番６８号,,12,227,2790042,,,,,,,2024-03-05,1,,,,,ワンステップ,0
2013,8040003024415,新規,0,2024-03-05,2024-03-05,合同会社ミライプロ,,合同会社,千葉県,佐倉市,宮ノ台３丁目１５番８号,,12,212,2850857,,,,,,,2024-03-05,1,,,,,ミライプロ,0
2014,8040003024456,新規,0,2024-03-05,2024-03-05,ＩＣＣ合同会社,,合同会社,千葉県,千葉市美浜区,高浜５丁目３２－１６,,12,106,2610003,,,,,,,2024-03-05,1,,,,,アイシーシー,0
2016,8050001054396,新規,0,2024-03-05,2024-03-05,株式会社グットコース,,株式会社,茨城県,水戸市,住吉町４３番地の２６,,08,201,3100844,,,,,,,2024-03-05,1,,,,,グットコース,0
2018,8050003008177,新規,0,2024-03-05,2024-03-05,フレッシュ合同会社,,合同会社,茨城県,石岡市,下林８５０番地６,,08,205,3150131,,,,,,,2024-03-05,1,,,,,フレッシュ,0
2019,8060001036864,新規,0,2024-03-05,2024-03-05,株式会社ＮＫＹ,,株式会社,栃木県,宇都宮市,宿郷３丁目５番２３号,,09,201,3210945,,,,,,,2024-03-05,1,,,,,エヌケイワイ,0
2020,8060001036872,新規,0,2024-03-05,2024-03-05,株式会社Ｒ,,株式会社,栃木県,宇都宮市,瑞穂３丁目９番地１７,,09,201,3210921,,,,,,,2024-03-05,1,,,,,アール,0
2023,8070003005305,新規,0,2024-03-05,2024-03-05,Ｒｉｙａｎ　Ｓｐｏｒｔｓ　Ｌｅａｇｕｅ合同会社,,合同会社,群馬県,太田市,宝町３６番地３,,10,205,3730042,,,,,,,2024-03-05,1,,,,,リアンスポーツリーグ,0
2031,8080101024569,新規,0,2024-03-05,2024-03-05,株式会社ＳＴＡＲ　ＣＡＰＩＴＡＬ,,株式会社,静岡県,沼津市,三枚橋町２番１０号ＦＩＬＡＴＵＲＡ６０１,,22,203,4100037,,,,,,,2024-03-05,1,,,,,スターキャピタル,0
2041,8100003007438,新規,0,2024-03-05,2024-03-05,合同会社アルプスＰＬＵＳ,,合同会社,長野県,飯山市,大字静間２２５３番地１,,20,213,3892255,,,,,,,2024-03-05,1,,,,,アルプスプラス,0
2051,8120001262826,新規,0,2024-03-05,2024-03-05,ＭｅｇａＳｉＣ株式会社,,株式会社,大阪府,大阪市中央区,南本町２丁目３番１２号ＥＤＧＥ本町３Ｆ,,27,128,5410054,,,,,,,2024-03-05,1,,,,,メガエスアイシー,0
2052,8120001262909,新規,0,2024-03-05,2024-03-05,株式会社ＥＭＰキャリアサポート,,株式会社,大阪府,大阪市北区,西天満５丁目６番１０号,,27,127,5300047,,,,,,,2024-03-05,1,,,,,イーエムピーキャリアサポート,0
2053,8120003026064,新規,0,2024-03-05,2024-03-05,合同会社ＴＮＭ,,合同会社,大阪府,大阪市北区,天神橋４丁目１０番７号２階,,27,127,5300041,,,,,,,2024-03-05,1,,,,,ティーエヌエム,0
2058,8120101069147,新規,0,2024-03-05,2024-03-05,株式会社ＭＵコーポレーション,,株式会社,大阪府,和泉市,伯太町５丁目５番９号,,27,219,5940023,,,,,,,2024-03-05,1,,,,,エムユーコーポレーション,0
2059,8120101069155,新規,0,2024-03-05,2024-03-05,株式会社サンエイト設備,,株式会社,大阪府,堺市中区,東山３５２－１,,27,142,5998247,,,,,,,2024-03-05,1,,,,,サンエイトセツビ,0
2060,8120101069171,新規,0,2024-03-05,2024-03-05,ローズライフフード株式会社,,株式会社,大阪府,和泉市,唐国町１丁目１８番６０号,,27,219,5941151,,,,,,,2024-03-05,1,,,,,ローズライフフード,0
2061,8120901048837,新規,0,2024-03-05,2024-03-05,株式会社リンクアライズ,,株式会社,大阪府,吹田市,江坂町２丁目１番３５号,,27,205,5640063,,,,,,,2024-03-05,1,,,,,リンクアライズ,0
2069,8130001076457,新規,0,2024-03-05,2024-03-05,株式会社ジャムセッションズ,,株式会社,京都府,京都市下京区,室町通綾小路上る鶏鉾町４８０番地オフィスワン四条烏丸１３０１,,26,106,6008491,,,,,,,2024-03-05,1,,,,,ジャムセッションズ,0
2070,8130003009332,新規,0,2024-03-05,2024-03-05,合同会社Ｋｙｏ．,,合同会社,京都府,福知山市,字天田５０５番地の３,,26,201,6200000,,,,,,,2024-03-05,1,,,,,キョウ,0
2071,8130003009357,新規,0,2024-03-05,2024-03-05,合同会社Ｉｎｎｅｒｐｅａｃｅ,,合同会社,京都府,京都市南区,東九条中御霊町５２ＣＵＢＥＳＵＣＲＥＫ．Ｓ１０２,,26,107,6018027,,,,,,,2024-03-05,1,,,,,インナーピース,0
2087,8140003020189,新規,0,2024-03-05,2024-03-05,合同会社舶進会,,合同会社,兵庫県,神戸市西区,玉津町西河原１４４－１,,28,111,6512127,,,,,,,2024-03-05,1,,,,,ハクシンカイ,0
2092,8170001018026,新規,0,2024-03-05,2024-03-05,株式会社鈴木衛生,,株式会社,和歌山県,有田市,初島町浜１７６９－１,,30,204,6490306,,,,,,,2024-03-05,1,,,,,スズキエイセイ,0
2098,8180001160371,新規,0,2024-03-05,2024-03-05,株式会社ＰｏｒｔＢｌｕｅ,,株式会社,愛知県,名古屋市名東区,梅森坂３丁目２９１５番地,,23,115,4650065,,,,,,,2024-03-05,1,,,,,ポートブルー,0
2099,8180001160421,新規,0,2024-03-05,2024-03-05,株式会社マグリカルチャー,,株式会社,愛知県,知多郡南知多町,大字片名字浜山１番地３７,,23,445,4703502,,,,,,,2024-03-05,1,,,,,マグリカルチャー,0
2103,8180003026447,新規,0,2024-03-05,2024-03-05,Ａｔｅｌｉｅｒ　ＴＥＰ合同会社,,合同会社,愛知県,名古屋市千種区,若水３丁目１８番２号（ライフコア若水Ｂ３）,,23,101,4640071,,,,,,,2024-03-05,1,,,,,アトリエテップ,0
2115,8250001020535,新規,0,2024-03-05,2024-03-05,株式会社ＭＩＤＯＲＩ,,株式会社,山口県,周南市,大字須々万本郷３６２番地の５６,,35,215,7450122,,,,,,,2024-03-05,1,,,,,ミドリ,0
2119,8260001038808,新規,0,2024-03-05,2024-03-05,ケーイズム株式会社,,株式会社,岡山県,岡山市南区,南輝２丁目２８番３９号,,33,104,7028023,,,,,,,2024-03-05,1,,,,,ケーイズム,0
2126,8290001104904,新規,0,2024-03-05,2024-03-05,株式会社トラスタス,,株式会社,福岡県,福岡市中央区,大名２丁目６番５０号福岡大名ガーデンシティ８階,,40,133,8100041,,,,,,,2024-03-05,1,,,,,トラスタス,0
2129,8290003015018,新規,0,2024-03-05,2024-03-05,合同会社ＦＩＶＥ,,合同会社,福岡県,福岡市東区,名島４丁目１６番８号リバーウォーク３０５号,,40,131,8130043,,,,,,,2024-03-05,1,,,,,ファイブ,0
2133,8300001013640,新規,0,2024-03-05,2024-03-05,情報技術研究サービス株式会社,,株式会社,佐賀県,佐賀市,大和町大字久留間４９７２番地,,41,201,8400213,,,,,,,2024-03-05,1,,,,,ジョウホウギジュツケンキュウサービス,0
2141,8340001026341,新規,0,2024-03-05,2024-03-05,株式会社リバティ,,株式会社,鹿児島県,薩摩川内市,隈之城町３４５番地２,,46,215,8950041,,,,,,,2024-03-05,1,,,,,リバティ,0
2143,8340003004386,新規,0,2024-03-05,2024-03-05,合同会社ＴＥＮＴＥＮ,,合同会社,鹿児島県,薩摩川内市,樋脇町市比野２５２４,,46,215,8951203,,,,,,,2024-03-05,1,,,,,テンテン,0
2149,8370001050999,新規,0,2024-03-05,2024-03-05,株式会社ハチロク,,株式会社,宮城県,仙台市青葉区,一番町４丁目５番１６号,,04,101,9800811,,,,,,,2024-03-05,1,,,,,ハチロク,0
2151,8370003006504,新規,0,2024-03-05,2024-03-05,合同会社めーぷるＳｅｎｄａｉ,,合同会社,宮城県,仙台市泉区,紫山４丁目１４番地の６,,04,105,9813205,,,,,,,2024-03-05,1,,,,,メープルセンダイ,0
2153,8380001034332,新規,0,2024-03-05,2024-03-05,株式会社Ｐｌｕｓ　Ｕｌｔｒａ,,株式会社,福島県,郡山市,横塚３丁目６３番地１,,07,203,9638803,,,,,,,2024-03-05,1,,,,,プラスウルトラ,0
2154,8380001034340,新規,0,2024-03-05,2024-03-05,株式会社ＥＭＡＧ,,株式会社,福島県,いわき市,後田町町田５６番地,,07,204,9748203,,,,,,,2024-03-05,1,,,,,イーマグ,0
2157,8390005009057,新規,0,2024-03-05,2024-03-05,一般社団法人長岡山会議,,その他の設立登記法人,山形県,寒河江市,中央工業団地６４番地,,06,206,9910061,,,,,,,2024-03-05,1,,,,,ナガオカヤマカイギ,0
2160,8430001091211,新規,0,2024-03-05,2024-03-05,株式会社ＣＯＳ,,株式会社,北海道,札幌市中央区,北二条東９丁目１１番地１０ダイアパレス永山公園通９０１号,,01,101,0600032,,,,,,,2024-03-05,1,,,,,シーオーエス,0
2161,8430001091236,新規,0,2024-03-05,2024-03-05,株式会社アシストグループ,,株式会社,北海道,札幌市北区,篠路町拓北３０番地３８,,01,102,0028054,,,,,,,2024-03-05,1,,,,,アシストグループ,0
2162,8440001009393,新規,0,2024-03-05,2024-03-05,株式会社サトウホーム,,株式会社,北海道,檜山郡江差町,字新地町１２９番地１,,01,361,0430053,,,,,,,2024-03-05,1,,,,,サトウホーム,0
2165,8470001020059,新規,0,2024-03-05,2024-03-05,株式会社ＨＭＳ,,株式会社,香川県,仲多度郡多度津町,大字山階１８６８番地,,37,404,7640034,,,,,,,2024-03-05,1,,,,,エイチエムエス,0
2171,8500001025491,新規,0,2024-03-05,2024-03-05,ＲＥＩＮ　ＦＯＲＣＥ株式会社,,株式会社,愛媛県,宇和島市,和霊東町３丁目８番１６号,,38,203,7980017,,,,,,,2024-03-05,1,,,,,レインフォース,0
2173,8500005008682,新規,0,2024-03-05,2024-03-05,一般社団法人ローカル採用デジマ推進協会,,その他の設立登記法人,愛媛県,松山市,内浜町１２番２８号,,38,201,7918077,,,,,,,2024-03-05,1,,,,,ローカルサイヨウデジマスイシンキョウカイ,0
2175,9010001242689,新規,0,2024-03-05,2024-03-05,株式会社ＣＨＡＮＧ’Ｓ　ＪＡＰＡＮ,,株式会社,東京都,中央区,築地３丁目２番５号第２平和田ビル３階,,13,102,1040045,,,,,,,2024-03-05,1,,,,,チャングスジャパン,0
2176,9010001242747,新規,0,2024-03-05,2024-03-05,ＬＵＣ株式会社,,株式会社,東京都,千代田区,神田和泉町１番地６－１６ヤマトビル４０５,,13,101,1010024,,,,,,,2024-03-05,1,,,,,ルーク,0
2177,9010001242796,新規,0,2024-03-05,2024-03-05,株式会社ＢＧＬ,,株式会社,東京都,千代田区,神田和泉町１番地６－１６ヤマトビル４０５,,13,101,1010024,,,,,,,2024-03-05,1,,,,,ビージーエル,0
2178,9010001242821,新規,0,2024-03-05,2024-03-05,株式会社ＳＴＡＮＤＰＯＷＥＲ,,株式会社,東京都,千代田区,神田錦町３丁目７番地２東京堂錦町ビルディング７Ｆ,,13,101,1010054,,,,,,,2024-03-05,1,,,,,スタンドパワー,0
2179,9010001242846,新規,0,2024-03-05,2024-03-05,梅野企画株式会社,,株式会社,東京都,千代田区,丸の内２丁目７番２号ＪＰタワー,,13,101,1000005,,,,,,,2024-03-05,1,,,,,ウメノキカク,0
2180,9010003043094,新規,0,2024-03-05,2024-03-05,エイチ・エス・マネー合同会社,,合同会社,東京都,中央区,銀座１丁目１２－４Ｎ＆ＥＢＬＤ．７階,,13,102,1040061,,,,,,,2024-03-05,1,,,,,エイチエスマネー,0
2181,9010003043103,新規,0,2024-03-05,2024-03-05,サステナブルローンファンド２４号合同会社,,合同会社,東京都,中央区,八丁堀４丁目２番１０号ＡＯＪ税理士法人内,,13,102,1040032,,,,,,,2024-03-05,1,,,,,サステナブルローンファンドニジュウヨンゴウ,0
2182,9010003043128,新規,0,2024-03-05,2024-03-05,合同会社ＨＵＭＡ,,合同会社,東京都,中央区,晴海２丁目３番３０－４０１０号,,13,102,1040053,,,,,,,2024-03-05,1,,,,,ヒューマ,0
2183,9010003043136,新規,0,2024-03-05,2024-03-05,きずな３合同会社,,合同会社,東京都,千代田区,飯田橋４丁目７番１号結和税理士法人内,,13,101,1020072,,,,,,,2024-03-05,1,,,,,キズナスリー,0
2185,9010005037994,新規,0,2024-03-05,2024-03-05,一般社団法人ＮＮプロパティ・ツー,,その他の設立登記法人,東京都,千代田区,丸の内３丁目１番１号東京共同会計事務所内,,13,101,1000005,,,,,,,2024-03-05,1,,,,,エヌエヌプロパティツー,0
2200,9010501051862,新規,0,2024-03-05,2024-03-05,千手株式会社,,株式会社,東京都,台東区,根岸３丁目２番１３－６０７号,,13,106,1100003,,,,,,,2024-03-05,1,,,,,センジュ,0
2201,9010501051879,新規,0,2024-03-05,2024-03-05,株式会社多＿宝石,00133958,株式会社,東京都,台東区,下谷３丁目１番３３－１２０１号,,13,106,1100004,,,,,,,2024-03-05,1,,,,,ダエンホウセキ,0
2203,9010601064599,新規,0,2024-03-05,2024-03-05,瑞創株式会社,,株式会社,東京都,江東区,佐賀１丁目１６番３号林ビル２０１－８Ａ,,13,108,1350031,,,,,,,2024-03-05,1,,,,,ズイソウ,0
2206,9010701045623,新規,0,2024-03-05,2024-03-05,株式会社ｃｒｅａｍｓ,,株式会社,東京都,品川区,小山台１丁目４番１７号,,13,109,1420061,,,,,,,2024-03-05,1,,,,,クリームズ,0
2207,9010705003593,新規,0,2024-03-05,2024-03-05,一般社団法人ＪＤＭジャパンドッグマッサージ協会,,その他の設立登記法人,東京都,品川区,東五反田１丁目１０－７－８０５,,13,109,1410022,,,,,,,2024-03-05,1,,,,,ジェイディーエムジャパンドッグマッサージキョウカイ,0
2216,9010901054804,新規,0,2024-03-05,2024-03-05,株式会社メモリードリアルエステート,,株式会社,東京都,世田谷区,砧２丁目４番３号,,13,112,1570073,,,,,,,2024-03-05,1,,,,,メモリードリアルエステート,0
2219,9011001160393,新規,0,2024-03-05,2024-03-05,株式会社ＦＧ,,株式会社,東京都,渋谷区,道玄坂２丁目１５番１号,,13,113,1500043,,,,,,,2024-03-05,1,,,,,エフジー,0
2222,9011005010396,新規,0,2024-03-05,2024-03-05,医療法人社団Ｂｅｙｏｎｄ　Ｒｏｏｔｓ,,その他の設立登記法人,東京都,渋谷区,神宮前５丁目２番６号ＦＰＧｌｉｎｋｓＯＭＯＴＥＳＡＮＤＯＩＶＢ１階,00133951,13,113,1500001,,,,,,,2024-03-05,1,,,,,ビヨンドルーツ,0
2228,9011101106429,新規,0,2024-03-05,2024-03-05,株式会社ホーネット,,株式会社,東京都,新宿区,新宿５丁目１８番２０号ルックハイツ新宿８０３号,,13,104,1600022,,,,,,,2024-03-05,1,,,,,ホーネット,0
2229,9011101106437,新規,0,2024-03-05,2024-03-05,海倫投資株式会社,,株式会社,東京都,新宿区,西早稲田３丁目１２－３－３０１,,13,104,1690051,,,,,,,2024-03-05,1,,,,,カイレントウシ,0
2232,9011103014175,新規,0,2024-03-05,2024-03-05,ｉｃｈｉＸｅｎ合同会社,,合同会社,東京都,新宿区,西新宿３丁目３番１３号西新宿水間ビル６階,,13,104,1600023,,,,,,,2024-03-05,1,,,,,イチゼン,0
2234,9011203004316,新規,0,2024-03-05,2024-03-05,合同会社ユナイト,,合同会社,東京都,中野区,弥生町４丁目２番３０号ユーコート中野新橋１０３,,13,114,1640013,,,,,,,2024-03-05,1,,,,,ユナイト,0
2235,9011303005073,新規,0,2024-03-05,2024-03-05,合同会社ウホウホどんぐり,,合同会社,東京都,杉並区,堀ノ内３丁目８－５,,13,115,1660013,,,,,,,2024-03-05,1,,,,,ウホウホドングリ,0
2236,9011401025907,新規,0,2024-03-05,2024-03-05,株式会社櫻総業,,株式会社,東京都,板橋区,桜川２丁目１４番４号,,13,119,1740075,,,,,,,2024-03-05,1,,,,,サクラソウギョウ,0
2245,9012405004946,新規,0,2024-03-05,2024-03-05,医療法人社団爽祥会,,その他の設立登記法人,東京都,武蔵野市,吉祥寺南町２丁目１３番１８号ルジェンテ吉祥寺１階,,13,203,1800003,,,,,,,2024-03-05,1,,,,,ソウショウカイ,0
2253,9013301052163,新規,0,2024-03-05,2024-03-05,株式会社家ＡＧＥＮＴ分割準備会社,,株式会社,東京都,豊島区,南池袋２丁目３２番４号,,13,116,1710022,,,,,,,2024-03-05,1,,,,,イエエージェントブンカツジュンビガイシャ,0
2259,9021001081606,新規,0,2024-03-05,2024-03-05,株式会社ＰＫＩＤＳ,,株式会社,神奈川県,相模原市中央区,淵野辺５丁目９番８号,,14,152,2520206,,,,,,,2024-03-05,1,,,,,ピーキッズ,0
2264,9030001158859,新規,0,2024-03-05,2024-03-05,吉利株式会社,,株式会社,埼玉県,ふじみ野市,福岡中央１丁目１－１５－４０８,,11,245,3560031,,,,,,,2024-03-05,1,,,,,ヨシリ,0
2265,9030001158999,新規,0,2024-03-05,2024-03-05,ベル・エトワール株式会社,,株式会社,埼玉県,越谷市,南越谷４丁目９番地２,,11,222,3430845,,,,,,,2024-03-05,1,,,,,ベルエトワール,0
2270,9040001132441,新規,0,2024-03-05,2024-03-05,Ａｒｍｅｒｉａ株式会社,,株式会社,千葉県,千葉市花見川区,幕張町４丁目７９３番地,,12,102,2620032,,,,,,,2024-03-05,1,,,,,アルメリア,0
2271,9040001132482,新規,0,2024-03-05,2024-03-05,株式会社ＤＥＮｚ,,株式会社,千葉県,野田市,吉春９０２番地の２,,12,208,2780042,,,,,,,2024-03-05,1,,,,,デンズ,0
2272,9040001132540,新規,0,2024-03-05,2024-03-05,株式会社みらキャリ,,株式会社,千葉県,流山市,平和台３丁目４番１１,,12,220,2700157,,,,,,,2024-03-05,1,,,,,ミラキャリ,0
2274,9040003024356,新規,0,2024-03-05,2024-03-05,ＳＩＤＤＩＫＥ　ＩＮＴＬ合同会社,,合同会社,千葉県,八街市,八街に１３６番地２５,,12,230,2891103,,,,,,,2024-03-05,1,,,,,シデックインターナショナル,0
2275,9040003024463,新規,0,2024-03-05,2024-03-05,合同会社Ｉｋｅｎｏ．Ｓ,,合同会社,千葉県,市川市,稲越１丁目２０番７号,,12,203,2720831,,,,,,,2024-03-05,1,,,,,イケノエス,0
2278,9050001054395,新規,0,2024-03-05,2024-03-05,株式会社アディド,,株式会社,茨城県,常総市,坂手町２８０８番地２,,08,211,3030042,,,,,,,2024-03-05,1,,,,,アディド,0
2280,9050003008176,新規,0,2024-03-05,2024-03-05,合同会社８１７,,合同会社,茨城県,つくば市,梅園２丁目１番地１５スプリングテックつくばビル４０１,,08,220,3050045,,,,,,,2024-03-05,1,,,,,ハチイチナナ,0
2284,9070005010236,新規,0,2024-03-05,2024-03-05,一般社団法人パームツリー,,その他の設立登記法人,群馬県,高崎市,東中里町１４９番地,,10,202,3701204,,,,,,,2024-03-05,1,,,,,パームツリー,0
2285,9080003003141,新規,0,2024-03-05,2024-03-05,合同会社ＮＥＸＴ,,合同会社,静岡県,静岡市葵区,瀬名川２丁目１２番地５７‐２０６号,,22,101,4200913,,,,,,,2024-03-05,1,,,,,ネクスト,0
2300,9100005013128,新規,0,2024-03-05,2024-03-05,一般社団法人蓼科霧ヶ峰高原国際自然学校,,その他の設立登記法人,長野県,茅野市,北山３４１３番地,,20,214,3910301,,,,,,,2024-03-05,1,,,,,タテシナキリガミネコウゲンコクサイシゼンガッコウ,0
2301,9110001038219,新規,0,2024-03-05,2024-03-05,ルミエルコード株式会社,,株式会社,新潟県,長岡市,新保１丁目１７番２１号,,15,202,9400875,,,,,,,2024-03-05,1,,,,,ルミエルコード,0
2320,9120001262767,新規,0,2024-03-05,2024-03-05,株式会社ワンシード,,株式会社,大阪府,大阪市中央区,材木町１番８号ＳＲビル本町東８Ｆ－２,,27,128,5400010,,,,,,,2024-03-05,1,,,,,ワンシード,0
2321,9120001262817,新規,0,2024-03-05,2024-03-05,株式会社ＨＡＬＯネスト,,株式会社,大阪府,大阪市東住吉区,今川６丁目４番２８号,,27,121,5460003,,,,,,,2024-03-05,1,,,,,ハローネスト,0
2322,9120001262841,新規,0,2024-03-05,2024-03-05,イノセント塗装株式会社,,株式会社,大阪府,大阪市平野区,加美東１丁目２番３９号,,27,126,5470002,,,,,,,2024-03-05,1,,,,,イノセントトソウ,0
2323,9120001262858,新規,0,2024-03-05,2024-03-05,株式会社ハッピーコーポレーション,,株式会社,大阪府,大阪市中央区,南船場２丁目３番１７号,,27,128,5420081,,,,,,,2024-03-05,1,,,,,ハッピーコーポレーション,0
2324,9120001262890,新規,0,2024-03-05,2024-03-05,株式会社ロックローズＬａｂ,,株式会社,大阪府,大阪市港区,池島３丁目５番２－１４０５号,,27,107,5520015,,,,,,,2024-03-05,1,,,,,ロックローズラボ,0
2329,9120101069146,新規,0,2024-03-05,2024-03-05,株式会社ＲＯＣＫＳ,,株式会社,大阪府,和泉市,いぶき野３丁目１４番２号グランドメゾン２番館２０２号室,,27,219,5940041,,,,,,,2024-03-05,1,,,,,ロックス,0
2330,9120101069162,新規,0,2024-03-05,2024-03-05,株式会社ＭＵＴＳＵ,,株式会社,大阪府,泉大津市,春日町九丁目３番グレカーレ春日１－３,,27,206,5950061,,,,,,,2024-03-05,1,,,,,ムツ,0
2335,9120903005067,新規,0,2024-03-05,2024-03-05,合同会社てのば,,合同会社,大阪府,豊中市,庄内西町３丁目１９番４号,,27,203,5610832,,,,,,,2024-03-05,1,,,,,テノバ,0
2336,9120903005075,新規,0,2024-03-05,2024-03-05,合同会社サードクロス,,合同会社,大阪府,吹田市,原町２丁目５番１６－２号,,27,205,5640004,,,,,,,2024-03-05,1,,,,,サードクロス,0
2339,9122001037876,新規,0,2024-03-05,2024-03-05,株式会社Ｓｕｎｎｙ　Ｌａｂｏ,,株式会社,大阪府,東大阪市,西岩田４丁目７番５１－１０５号,,27,227,5780947,,,,,,,2024-03-05,1,,,,,サニーラボ,0
2346,9130001076489,新規,0,2024-03-05,2024-03-05,株式会社ＣＡＲ　ＳＰＡ,,株式会社,京都府,京都市伏見区,深草直違橋２丁目４１６番地藤森コーポ２０６,,26,109,6120889,,,,,,,2024-03-05,1,,,,,カースパ,0
2348,9130003009356,新規,0,2024-03-05,2024-03-05,ＡＰＡＣ　Ｐａｒｔｎｅｒｓ合同会社,,合同会社,京都府,京都市中京区,錦小路通室町西入天神山町２８０石勘ビル５Ｆ－２６号室,,26,104,6048221,,,,,,,2024-03-05,1,,,,,エーパクパートナース,0
2356,9140003020238,新規,0,2024-03-05,2024-03-05,合同会社四季,,合同会社,兵庫県,神戸市中央区,山本通２丁目９番１９号,,28,110,6500003,,,,,,,2024-03-05,1,,,,,シキ,0
2357,9160001025732,新規,0,2024-03-05,2024-03-05,株式会社ユタカ塗装,,株式会社,滋賀県,草津市,北山田町２５９番地１３,,25,206,5250061,,,,,,,2024-03-05,1,,,,,ユタカトソウ,0
2367,9180001160370,新規,0,2024-03-05,2024-03-05,株式会社ＭＩＨＯＦＩＴ,,株式会社,愛知県,名古屋市千種区,今池４丁目６番１８号ＳＢＰ今池ビル３Ｆ,,23,101,4640850,,,,,,,2024-03-05,1,,,,,ミホフィット,0
2368,9180001160379,新規,0,2024-03-05,2024-03-05,株式会社ＫＥＩＴＩＭ,,株式会社,愛知県,名古屋市東区,泉１丁目２０番１９号（プレサンスタワー久屋大通ザ・レジデンス１９０３号）,,23,102,4610001,,,,,,,2024-03-05,1,,,,,ケイティム,0
2369,9180001160453,新規,0,2024-03-05,2024-03-05,環球ビジネス株式会社,,株式会社,愛知県,名古屋市西区,山木２丁目２５１番地の４,,23,104,4520833,,,,,,,2024-03-05,1,,,,,カンキュウビジネス,0
2371,9180003026446,新規,0,2024-03-05,2024-03-05,合同会社Ｔｅｒｍｉｎａｌ,,合同会社,愛知県,名古屋市千種区,日岡町１丁目３１番地の１,,23,101,4640834,,,,,,,2024-03-05,1,,,,,ターミナル,0
2374,9180301038374,新規,0,2024-03-05,2024-03-05,株式会社リライブ,,株式会社,愛知県,安城市,高棚町大道１８番地１,00133953,23,212,4460053,,,,,,,2024-03-05,1,,,,,リライブ,0
2375,9180301038382,新規,0,2024-03-05,2024-03-05,株式会社エネライフ,,株式会社,愛知県,豊橋市,王ケ崎町字汐崎１７番地６,,23,201,4418066,,,,,,,2024-03-05,1,,,,,エネライフ,0
2378,9180303006016,新規,0,2024-03-05,2024-03-05,合同会社ハイライト,,合同会社,愛知県,高浜市,論地町３丁目２－２７－Ｃ３０８,,23,227,4441314,,,,,,,2024-03-05,1,,,,,ハイライト,0
2380,9200001042211,新規,0,2024-03-05,2024-03-05,株式会社ＳＨＯＷ‐ＹＡ,,株式会社,岐阜県,美濃加茂市,本郷町１丁目７番５１号,,21,211,5050027,,,,,,,2024-03-05,1,,,,,ショウヤ,0
2387,9240001062890,新規,0,2024-03-05,2024-03-05,株式会社ＳＡＴＯＵ,,株式会社,広島県,広島市西区,庚午中２丁目９番１１－４０２号,,34,104,7330822,,,,,,,2024-03-05,1,,,,,サトウ,0
2395,9250001020534,新規,0,2024-03-05,2024-03-05,株式会社絆,,株式会社,山口県,周南市,秋月２丁目３番８号エステル秋月２０１号,,35,215,7450825,,,,,,,2024-03-05,1,,,,,キズナ,0
2396,9250001020542,新規,0,2024-03-05,2024-03-05,株式会社ＭＹＫ,,株式会社,山口県,光市,島田２丁目１６番１１号,,35,210,7430063,,,,,,,2024-03-05,1,,,,,エムワイケイ,0
2400,9260001038798,新規,0,2024-03-05,2024-03-05,株式会社Ｌｉｅｎ,,株式会社,岡山県,岡山市南区,妹尾３５１番地ＶａｇｕｅＩＩ２０２,00133957,33,104,7010205,,,,,,,2024-03-05,1,,,,,リアン,0
2401,9260001038807,新規,0,2024-03-05,2024-03-05,ゼロウェイスト株式会社,,株式会社,岡山県,瀬戸内市,邑久町虫明大平山５６５２－１１,,33,212,7014501,,,,,,,2024-03-05,1,,,,,ゼロウェイスト,0
2403,9260003004600,新規,0,2024-03-05,2024-03-05,合同会社こころ,,合同会社,岡山県,岡山市中区,浜３丁目４番２号,,33,102,7038256,,,,,,,2024-03-05,1,,,,,ココロ,0
2421,9290801030365,新規,0,2024-03-05,2024-03-05,株式会社マルベックジャパン,,株式会社,福岡県,北九州市八幡西区,穴生１丁目１８番３号,,40,109,8060049,,,,,,,2024-03-05,1,,,,,マルベックジャパン,0
2422,9290801030373,新規,0,2024-03-05,2024-03-05,株式会社ＫＴＣ,,株式会社,福岡県,北九州市小倉北区,香春口２丁目１０－８－２０４,,40,106,8020084,,,,,,,2024-03-05,1,,,,,ケーティーシー,0
2424,9310003004743,新規,0,2024-03-05,2024-03-05,合同会社メグシア,,合同会社,長崎県,大村市,森園町１４４６番地４,,42,205,8560815,,,,,,,2024-03-05,1,,,,,メグシア,0
2425,9320001020320,新規,0,2024-03-05,2024-03-05,株式会社ｃｒａｆｔｙ,,株式会社,大分県,由布市,湯布院町川上２９３７番地１,,44,213,8795102,,,,,,,2024-03-05,1,,,,,,0
2426,9320001020329,新規,0,2024-03-05,2024-03-05,株式会社天遥興業,,株式会社,大分県,大分市,大字葛木２６３番地の１サザンヴィラ１０３,,44,201,8700133,,,,,,,2024-03-05,1,,,,,テンヨウコウギョウ,0
2428,9330001031812,新規,0,2024-03-05,2024-03-05,株式会社振興社,,株式会社,熊本県,山鹿市,小群３３２番地３,,43,208,8610555,,,,,,,2024-03-05,1,,,,,シンコウシャ,0
2429,9340001026332,新規,0,2024-03-05,2024-03-05,株式会社ＨＵＲＳＴ,,株式会社,鹿児島県,鹿屋市,旭原町３６２１番地６,,46,203,8930022,,,,,,,2024-03-05,1,,,,,ハースト,0
2435,9360001033269,新規,0,2024-03-05,2024-03-05,株式会社ハリウッドベース,,株式会社,沖縄県,中頭郡北谷町,伊平１丁目１３番１４号プレミスト北谷伊平Ｓｅａ＆Ｆｏｒｅｓｔ２０５,,47,326,9040102,,,,,,,2024-03-05,1,,,,,ハリウッドベース,0
2436,9370001050998,新規,0,2024-03-05,2024-03-05,七十七ほけんサービス株式会社,,株式会社,宮城県,仙台市青葉区,中央１丁目７番５号,,04,101,9800021,,,,,,,2024-03-05,1,,,,,シチジュウシチホケンサービス,0
2437,9370003006503,新規,0,2024-03-05,2024-03-05,ｆａｃｔｏｒｙ　ｍａｒｋ合同会社,,合同会社,宮城県,仙台市泉区,住吉台西３丁目１番地の６,,04,105,9813223,,,,,,,2024-03-05,1,,,,,ファクトリーマーク,0
2442,9380003005702,新規,0,2024-03-05,2024-03-05,合同会社さくらコーポレーション,,合同会社,福島県,郡山市,八山田西１丁目２４３番地エスペランサＡ１０２号,,07,203,9638053,,,,,,,2024-03-05,1,,,,,サクラコーポレーション,0
2445,9410001013744,新規,0,2024-03-05,2024-03-05,強盛貿易株式会社,,株式会社,秋田県,大仙市,太田町駒場字二ツ塚５１,,05,212,0191604,,,,,,,2024-03-05,1,,,,,キョウセイボウエキ,0
2446,9420001018619,新規,0,2024-03-05,2024-03-05,株式会社アクセス工業,,株式会社,青森県,八戸市,大字市川町字船場川原２９番地１,,02,203,0392241,,,,,,,2024-03-05,1,,,,,アクセスコウギョウ,0
2448,9430001091227,新規,0,2024-03-05,2024-03-05,株式会社三方リフォーム,,株式会社,北海道,札幌市北区,篠路町篠路３９４番地２１８,,01,102,0028053,,,,,,,2024-03-05,1,,,,,サンポウリフォーム,0
2450,9430003016017,新規,0,2024-03-05,2024-03-05,合同会社ＴＯＭＯ,,合同会社,北海道,札幌市白石区,川北二条３丁目１３番１号,,01,104,0030852,,,,,,,2024-03-05,1,,,,,トモ,0
2451,9440001009392,新規,0,2024-03-05,2024-03-05,ウィンドテック株式会社,,株式会社,北海道,函館市,桔梗町３９４番地１７,,01,202,0410801,,,,,,,2024-03-05,1,,,,,ウィンドテック,0
2452,9450001014243,新規,0,2024-03-05,2024-03-05,株式会社Ｋふぁーむ,,株式会社,北海道,深川市,多度志１２５７番地,,01,228,0740141,,,,,,,2024-03-05,1,,,,,ケイファーム,0
2454,9470001020058,新規,0,2024-03-05,2024-03-05,株式会社Ｎｉｃｏ,,株式会社,香川県,丸亀市,金倉町１９３５番地,,37,202,7630053,,,,,,,2024-03-05,1,,,,,ニコ,0
2459,9480003002103,新規,0,2024-03-05,2024-03-05,合同会社ＳＡＮＯＭＥＩ,,合同会社,徳島県,板野郡上板町,瀬部字前須賀１６０７番地１,,36,405,7711350,,,,,,,2024-03-05,1,,,,,サノメイ,0
2462,9500001025490,新規,0,2024-03-05,2024-03-05,株式会社エムシーアヴァンセ愛媛,,株式会社,愛媛県,松山市,朝生田町７丁目１０－７,,38,201,7900952,,,,,,,2024-03-05,1,,,,,エムシーアヴァンセエヒメ,0
2463,9500005008681,新規,0,2024-03-05,2024-03-05,ＮＰＯ法人ピアリンクえひめ,,その他の設立登記法人,愛媛県,松山市,生石町１５３番地,,38,201,7900051,,,,,,,2024-03-05,1,,,,,ピアリンクエヒメ,0
