sequenceNumber,corporateNumber,process,correct,updateDate,changeDate,name,nameImageId,kind,prefectureName,cityName,streetNumber,addressImageId,prefectureCode,cityCode,postCode,addressOutside,addressOutsideImageId,closeDate,closeCause,successorCorporateNumber,changeCause,assignmentDate,latest,enName,enPrefectureName,enCityName,enAddressOutside,furigana,hihyoji
4,1010001207022,登記記録の閉鎖等,0,2022-04-08,2022-03-31,株式会社ティーフロンティア,,株式会社,東京都,千代田区,九段南１丁目５番６号りそな九段ビル５階,,13,101,1020074,,,2022-03-31,清算の結了等,,,2020-01-27,1,,,,,ティーフロンティア,0
14,1010401124866,登記記録の閉鎖等,0,2022-04-08,2022-03-30,Ｒａｄｌｅｙ　Ｊａｐａｎ株式会社,,株式会社,東京都,千代田区,麹町３丁目４番地３シエルブルー麹町２０２みなと国際会計事務所内,,13,101,1020083,,,2022-03-30,清算の結了等,,,2016-05-18,1,,,,,ラドリージャパン,0
23,1010405017455,登記記録の閉鎖等,0,2022-04-08,2022-03-30,一般社団法人レジデンス・ファイブ,,その他の設立登記法人,東京都,港区,赤坂２丁目１０番５号税理士法人赤坂国際会計事務所内,,13,103,1070052,,,2022-03-30,清算の結了等,,,2019-02-15,1,,,,,レジデンスファイブ,0
41,1010902020333,登記記録の閉鎖等,0,2022-04-08,2022-04-04,有限会社むさし管財,,有限会社,東京都,世田谷区,世田谷１丁目４番２１号,,13,112,1540017,,,2022-04-04,清算の結了等,,,2015-10-05,1,,,,,ムサシカンザイ,0
75,1012402010574,登記記録の閉鎖等,0,2022-04-08,2022-04-01,有限会社オー・ケイ・アイ,,有限会社,東京都,調布市,八雲台１丁目４番１デ・リード調布４０２,,13,208,1820015,,,2022-04-01,清算の結了等,,,2015-10-05,1,,,,,オーケイアイ,0
81,1013101006822,登記記録の閉鎖等,0,2022-04-08,2022-04-01,株式会社エムビークル,,株式会社,東京都,福生市,大字福生２１１９番地,,13,218,1970011,,,2022-04-01,合併による解散等,5013101006793,令和４年４月１日東京都福生市大字福生２１１９番地株式会社エムケーコーポレーション（5013101006793）に合併し解散,2015-10-05,1,,,,,エムビークル,0
122,1040001060815,登記記録の閉鎖等,0,2022-04-08,2022-04-01,株式会社めぐみのさとファーム,,株式会社,兵庫県,神戸市須磨区,弥栄台３丁目１番地の６,,28,107,6540161,,,2022-04-01,合併による解散等,1140001093689,令和４年４月１日神戸市須磨区弥栄台三丁目１番地の６株式会社Ｇ７アグリジャパン（1140001093689）に合併し解散,2015-10-05,1,,,,,メグミノサトファーム,0
130,1040002074938,登記記録の閉鎖等,0,2022-04-08,2022-04-01,有限会社フジトーイ,,有限会社,千葉県,市原市,福増９７５番地１５０,,12,219,2900202,,,2022-04-01,清算の結了等,,,2015-10-05,1,,,,,フジトーイ,0
144,1070001030922,登記記録の閉鎖等,0,2022-04-08,2022-04-01,株式会社コンパクト,,株式会社,群馬県,沼田市,下沼田町３４５番地,,10,206,3780063,,,2022-04-01,合併による解散等,1070001022845,令和４年４月１日群馬県沼田市恩田町３７６番地１株式会社オリエント（1070001022845）に合併し解散,2015-10-05,1,,,,,コンパクト,0
148,1080102012777,登記記録の閉鎖等,0,2022-04-08,2022-04-05,有限会社パティックス・リサーチ,,有限会社,静岡県,三島市,長伏２０番地の８,,22,206,4110824,,,2022-04-05,清算の結了等,,,2015-10-05,1,,,,,パティックスリサーチ,0
150,1080405004397,登記記録の閉鎖等,0,2022-04-08,2022-03-30,学校法人天然寺学園,,その他の設立登記法人,静岡県,掛川市,仁藤町５番地の５,,22,213,4360075,,,2022-03-30,清算の結了等,,,2015-10-05,1,,,,,テンネンジガクエン,0
153,1100001001985,登記記録の閉鎖等,0,2022-04-08,2022-04-01,長鉄開発株式会社,,株式会社,長野県,長野市,大字南長野山王１２２３番地,,20,201,3810000,,,2022-04-01,合併による解散等,9100001002373,令和４年４月１日長野市南千歳一丁目２２番地６株式会社ステーションビルＭＩＤＯＲＩ（9100001002373）に合併し解散,2015-10-05,1,,,,,チョウテツカイハツ,0
157,1100002037376,登記記録の閉鎖等,0,2022-04-08,2022-04-04,丸ケイ小池醸造有限会社,,有限会社,長野県,飯田市,下久堅知久平６２１番地,,20,205,3992603,,,2022-04-04,清算の結了等,,,2015-10-05,1,,,,,マルケイコイケジョウゾウ,0
162,1110002017096,登記記録の閉鎖等,0,2022-04-08,2022-04-01,有限会社五ノ町屋商店,,有限会社,新潟県,三条市,南四日町１丁目９番１９号,,15,204,9550852,,,2022-04-01,清算の結了等,,,2015-10-05,1,,,,,ゴノチョウヤショウテン,0
169,1120001127226,登記記録の閉鎖等,0,2022-04-08,2022-04-01,株式会社パークス,,株式会社,大阪府,大阪市天王寺区,上汐３丁目８番４号プラスビル４Ｆ,,27,109,5430002,,,2022-04-01,清算の結了等,,,2015-10-05,1,,,,,,0
170,1120001162264,登記記録の閉鎖等,0,2022-04-08,2022-04-06,株式会社ハピネス,,株式会社,大阪府,寝屋川市,東大利町１３番１８号,,27,215,5720042,,,2022-04-06,合併による解散等,5150001000095,令和４年４月１日兵庫県尼崎市御園町２４番地尼崎第一ビル４０２号株式会社キューミック（5150001000095）に合併し解散,2015-10-05,1,,,,,ハピネス,0
195,1122001017035,登記記録の閉鎖等,0,2022-04-08,2022-04-06,株式会社メディキュア,,株式会社,大阪府,大阪市西成区,玉出中２丁目１番２８号,,27,122,5570044,,,2022-04-06,合併による解散等,5150001000095,令和４年４月１日兵庫県尼崎市御園町２４番地尼崎第一ビル４０２号株式会社キューミック（5150001000095）に合併し解散,2015-10-05,1,,,,,メディキュア,0
197,1140001060193,登記記録の閉鎖等,0,2022-04-08,2022-04-01,株式会社東京日東社,,株式会社,兵庫県,姫路市,東山５２４番地,,28,201,6728014,,,2022-04-01,合併による解散等,3140001060547,令和４年４月１日兵庫県姫路市東山５２４番地株式会社日東社（3140001060547）に合併し解散,2015-10-05,1,,,,,トウキョウニットウシャ,0
202,1140001115138,登記記録の閉鎖等,0,2022-04-08,2022-04-01,日東建物株式会社,,株式会社,兵庫県,姫路市,東山５２４番地,,28,201,6728014,,,2022-04-01,合併による解散等,3140001060547,令和４年４月１日兵庫県姫路市東山５２４番地株式会社日東社（3140001060547）に合併し解散,2019-11-01,1,,,,,ニットウタテモノ,0
207,1140005013180,登記記録の閉鎖等,0,2022-04-08,2022-04-01,広告燐寸株式会社,,株式会社,兵庫県,姫路市,白浜町丙４８４番地,,28,201,6728023,,,2022-04-01,合併による解散等,3140001060547,令和４年４月１日兵庫県姫路市東山５２４番地株式会社日東社（3140001060547）に合併し解散,2015-10-05,1,,,,,コウコクマッチ,0
210,1160001011509,登記記録の閉鎖等,0,2022-04-08,2022-04-01,株式会社オフィス澤田,,株式会社,滋賀県,東近江市,市子松井町１９１番地３,,25,213,5291532,,,2022-04-01,合併による解散等,4200001020808,令和４年４月１日岐阜県多治見市高根町四丁目２９番地中部薬品株式会社（4200001020808）に合併し解散,2015-10-05,1,,,,,オフィスサワダ,0
211,1160001022266,登記記録の閉鎖等,0,2022-04-08,2022-04-01,株式会社ＣＡＴ,,株式会社,滋賀県,甲賀市,甲賀町大原市場３番地,,25,209,5203433,,,2022-04-01,合併による解散等,9160001005346,令和４年４月１日滋賀県甲賀市甲賀町鳥居野１２１番地１５大原薬品工業株式会社（9160001005346）に合併し解散,2020-02-07,1,,,,,キャット,0
235,1210001016007,登記記録の閉鎖等,0,2022-04-08,2022-03-25,ＴＯＹＢＯＸ株式会社,,株式会社,福井県,福井市,中央１丁目４番２０号,,18,201,9100006,,,2022-03-25,清算の結了等,,,2015-10-05,1,,,,,トイボックス,0
245,1250001003645,登記記録の閉鎖等,0,2022-04-08,2022-04-04,明和化成株式会社,,株式会社,山口県,宇部市,大字小串１９８８番地の２０,,35,202,7550067,,,2022-04-04,合併による解散等,2250001002992,令和４年４月１日山口県宇部市大字小串１９７８番地の９６ＵＢＥ株式会社（2250001002992）に合併し解散,2015-10-05,1,,,,,メイワカセイ,0
252,1260002030670,登記記録の閉鎖等,0,2022-04-08,2022-04-05,有限会社藤本工業,,有限会社,岡山県,美作市,楢原中３８６番地の１,,33,215,7070021,,,2022-04-05,清算の結了等,,,2015-10-05,1,,,,,フジモトコウギョウ,0
253,1260005007658,登記記録の閉鎖等,0,2022-04-08,2022-04-05,備前商工業福祉事業協同組合,,その他の設立登記法人,岡山県,備前市,東片上２３０番地,,33,211,7050022,,,2022-04-05,清算の結了等,,,2015-10-05,1,,,,,ビゼンショウコウギョウフクシ,0
271,1300001000364,登記記録の閉鎖等,0,2022-04-08,2022-04-01,受験研究会出版株式会社,,株式会社,佐賀県,佐賀市,久保泉町大字上和泉１８４８番地２０,,41,201,8490902,,,2022-04-01,合併による解散等,3300001000817,令和４年４月１日佐賀市久保泉町大字上和泉１８４８番地２０大同印刷株式会社（3300001000817）に合併し解散,2015-10-05,1,,,,,ジュケンケンキュウカイシュッパン,0
278,1320001018685,登記記録の閉鎖等,0,2022-04-08,2022-04-06,光不動産株式会社,,株式会社,大分県,別府市,石垣東８丁目１番１３号,,44,202,8740919,,,2022-04-06,合併による解散等,2290001002254,令和４年４月１日福岡市博多区博多駅東二丁目６番２３号株式会社ダブリュコーポレーション（2290001002254）に合併し解散,2021-10-28,1,,,,,ヒカリフドウサン,0
279,1320002019096,登記記録の閉鎖等,0,2022-04-08,2022-04-04,カネモ有限会社坂本製材所,,有限会社,大分県,日田市,大字大肥６６３番地,,44,204,8770000,,,2022-04-04,清算の結了等,,,2015-10-05,1,,,,,カネモサカモトセイザイショ,0
303,1400001005717,登記記録の閉鎖等,0,2022-04-08,2022-04-05,サンポット株式会社,,株式会社,岩手県,花巻市,北湯口第２地割１番地２６,,03,205,0250301,,,2022-04-05,合併による解散等,8250001005924,令和４年４月１日山口県下関市長府扇町２番１号株式会社長府製作所（8250001005924）に合併し解散,2015-10-05,1,,,,,,0
304,1400001008975,登記記録の閉鎖等,0,2022-04-08,2022-04-07,ジキュウ・ハチマン株式会社,,株式会社,岩手県,九戸郡野田村,大字野田第２７地割１７７番地２,,03,503,0288201,,,2022-04-07,清算の結了等,,,2015-10-05,1,,,,,ジキュウハチマン,0
307,1410005004870,登記記録の閉鎖等,0,2022-04-08,2022-03-25,特定非営利活動法人きたうらアクアスポーツクラブ,,その他の設立登記法人,秋田県,仙北市,西木町門屋字屋敷田８４番地仙北市西木保健センター内,,05,215,0140515,,,2022-03-25,清算の結了等,,,2015-10-05,1,,,,,キタウラアクアスポーツクラブ,0
317,1440001006505,登記記録の閉鎖等,0,2022-04-08,2022-03-31,株式会社ファッション吉田,,株式会社,北海道,檜山郡上ノ国町,字大留２４７番地,,01,362,0490611,,,2022-03-31,清算の結了等,,,2015-10-05,1,,,,,ファッションヨシダ,0
327,2010001191109,登記記録の閉鎖等,0,2022-04-08,2022-03-31,株式会社リーガル・テクノロジーズ,,株式会社,東京都,千代田区,平河町１丁目６番１５号,,13,101,1020093,,,2022-03-31,清算の結了等,,,2018-04-17,1,,,,,リーガルテクノロジーズ,0
328,2010001192115,登記記録の閉鎖等,0,2022-04-08,2022-04-01,ＭＨＣユーティリティーイノベーション株式会社,,株式会社,東京都,千代田区,丸の内１丁目５番１号,,13,101,1000005,,,2022-04-01,合併による解散等,7010001171163,令和４年４月１日東京都千代田区神田神保町一丁目１０５番地三菱ＨＣキャピタルエナジー株式会社（7010001171163）に合併し解散,2018-05-25,1,,,,,エムエイチシーユーティリティーイノベーション,0
336,2010401057677,登記記録の閉鎖等,0,2022-04-08,2022-03-31,株式会社ヒューマニアインターナショナル,,株式会社,千葉県,市川市,原木３０２７番地,,12,203,2720004,,,2022-03-31,清算の結了等,,,2015-10-05,1,,,,,ヒューマニアインターナショナル,0
350,2010405012471,登記記録の閉鎖等,0,2022-04-08,2022-03-30,一般社団法人日本エイチ・シー・ホールディングス,,その他の設立登記法人,東京都,港区,虎ノ門４丁目３番１号城山トラストタワー３３階,,13,103,1050001,,,2022-03-30,清算の結了等,,,2015-10-05,1,,,,,ニホンエイチシーホールディングス,0
352,2010405019319,登記記録の閉鎖等,0,2022-04-08,2022-03-30,一般社団法人ＤＡヘルスケア５,,その他の設立登記法人,東京都,港区,元赤坂１丁目１番７号,,13,103,1070051,,,2022-03-30,清算の結了等,,,2020-12-04,1,,,,,ディーエイヘルスケアファイブ,0
365,2010802003081,登記記録の閉鎖等,0,2022-04-08,2022-04-04,有限会社尾川企画,,有限会社,東京都,大田区,蒲田５丁目４０番１０－６０２号,,13,111,1440052,,,2022-04-04,清算の結了等,,,2015-10-05,1,,,,,オガワキカク,0
394,2011501016011,登記記録の閉鎖等,0,2022-04-08,2022-04-01,株式会社佐藤青果,,株式会社,東京都,北区,赤羽北２丁目１８番１７号,,13,117,1150052,,,2022-04-01,清算の結了等,,,2015-10-05,1,,,,,サトウセイカ,0
401,2011803002881,登記記録の閉鎖等,0,2022-04-08,2022-03-30,データメイクラボ合同会社,,合同会社,東京都,中央区,日本橋２丁目１－１７丹生ビル２階,,13,102,1030027,,,2022-03-30,清算の結了等,,,2017-05-02,1,,,,,データメイクラボ,0
429,2021003006385,登記記録の閉鎖等,0,2022-04-08,2022-04-01,合同会社ふじのその,,合同会社,神奈川県,藤沢市,石川３丁目３０番地の１３コスモヒルズ弐番館２０１,,14,205,2520815,,,2022-04-01,清算の結了等,,,2016-12-27,1,,,,,フジノソノ,0
435,2030001088542,登記記録の閉鎖等,0,2022-04-08,2022-04-01,オウキ株式会社,,株式会社,埼玉県,深谷市,東方町２丁目１０番地２１,,11,218,3660042,,,2022-04-01,合併による解散等,8030001088479,令和４年４月１日埼玉県深谷市東方町二丁目１０番地２１シンリツＡＧＳ株式会社（8030001088479）に合併し解散,2015-10-05,1,,,,,オウキ,0
451,2040002046366,登記記録の閉鎖等,0,2022-04-08,2022-03-31,有限会社新葉,,有限会社,千葉県,松戸市,新松戸４丁目２６３番地,,12,207,2700034,,,2022-03-31,清算の結了等,,,2015-10-05,1,,,,,シンヨウ,0
482,2080401013054,登記記録の閉鎖等,0,2022-04-08,2022-04-01,スワインジェネティクス株式会社,,株式会社,静岡県,浜松市天竜区,二俣町鹿島１２番地の２,,22,137,4313313,,,2022-04-01,合併による解散等,6080401012523,令和４年４月１日静岡県浜松市天竜区二俣町鹿島１２番地の２株式会社春野コーポレーション（6080401012523）に合併し解散,2015-10-05,1,,,,,スワインジェネティクス,0
516,2120101022144,登記記録の閉鎖等,0,2022-04-08,2022-04-04,ジェット株式会社,,株式会社,大阪府,堺市美原区,太井５０５番地１,,27,147,5870062,,,2022-04-04,清算の結了等,,,2015-10-05,1,,,,,ジェット,0
517,2120101037381,登記記録の閉鎖等,0,2022-04-08,2022-04-01,野上織布株式会社,,株式会社,大阪府,岸和田市,田治米町５１３番地,,27,202,5960805,,,2022-04-01,清算の結了等,,,2015-10-05,1,,,,,ノガミショクフ,0
520,2120901019455,登記記録の閉鎖等,0,2022-04-08,2022-04-05,株式会社大阪工技研究所,,株式会社,大阪府,池田市,呉服町１１番１９号,,27,204,5630048,,,2022-04-05,清算の結了等,,,2015-10-05,1,,,,,オオサカコウギケンキュウショ,0
521,2120901027391,登記記録の閉鎖等,0,2022-04-08,2022-04-01,株式会社メディカルフォーラムジャパン,,株式会社,大阪府,豊中市,寺内２丁目１３番３号,,27,203,5610872,,,2022-04-01,合併による解散等,8010001126018,令和４年４月１日大阪府豊中市寺内二丁目１３番３号ＮＫＧＲコンサルティング株式会社（8010001126018）に合併し解散,2015-10-05,1,,,,,メディカルフォーラムジャパン,0
527,2120902011758,登記記録の閉鎖等,0,2022-04-08,2022-04-04,大市工業有限会社,,有限会社,大阪府,三島郡島本町,広瀬４丁目２２番２７－２０５号,,27,301,6180011,,,2022-04-04,清算の結了等,,,2015-10-05,1,,,,,ダイイチコウギョウ,0
553,2160001017406,登記記録の閉鎖等,0,2022-04-08,2022-04-04,株式会社Ｍａｚｅｎｏ　ｒｉｄｇｅ,,株式会社,滋賀県,米原市,本市場４番地１１,,25,214,5210223,,,2022-04-04,清算の結了等,,,2015-10-05,1,,,,,マゼノリッジ,0
595,2240005014028,登記記録の閉鎖等,0,2022-04-08,2022-04-01,特定非営利活動法人若者支援ネットはつかいち,,その他の設立登記法人,広島県,廿日市市,廿日市２丁目２－１７,,34,213,7380013,,,2022-04-01,清算の結了等,,,2015-11-04,1,,,,,ワカモノシエンネットハツカイチ,0
602,2280001003807,登記記録の閉鎖等,0,2022-04-08,2022-04-04,株式会社三和印刷,,株式会社,島根県,出雲市,大塚町１１４８番地,,32,203,6930063,,,2022-04-04,合併による解散等,3280001003161,令和４年４月１日島根県出雲市大塚町１１４８番地株式会社山広（3280001003161）に合併し解散,2015-10-05,1,,,,,サンワインサツ,0
604,2280003001420,登記記録の閉鎖等,0,2022-04-08,2022-04-04,合同会社ダイチ,,合同会社,島根県,出雲市,西郷町３３５番地,,32,203,6910015,,,2022-04-04,合併による解散等,3280001006321,令和４年４月４日島根県出雲市平田町５７１番地３株式会社パナム（3280001006321）に合併し解散,2020-10-30,1,,,,,ダイチ,0
624,2290003008737,登記記録の閉鎖等,0,2022-04-08,2022-04-04,合同会社隆法投資研究所,,合同会社,福岡県,糟屋郡篠栗町,大字尾仲３４１番地２８,,40,342,8112413,,,2022-04-04,清算の結了等,,,2019-02-06,1,,,,,リュウホウトウシケンキュウショ,0
650,2380002011534,登記記録の閉鎖等,0,2022-04-08,2022-04-01,有限会社橋本ビジネス,,有限会社,福島県,郡山市,三穂田町鍋山字四十坦原１８３番地の４８,,07,203,9630123,,,2022-04-01,清算の結了等,,,2015-10-05,1,,,,,,0
695,3010001219643,登記記録の閉鎖等,0,2022-04-08,2022-03-31,日向建物株式会社,,株式会社,東京都,千代田区,一番町６番地１ロイアル一番町Ａ－６０３号,,13,101,1020082,,,2022-03-31,清算の結了等,,,2021-07-15,1,,,,,ヒナタタテモノ,0
709,3010401122967,登記記録の閉鎖等,0,2022-04-08,2022-03-30,ロイヤルソーラー合同会社,,合同会社,東京都,港区,東新橋１丁目９番２号,,13,103,1050021,,,2022-03-30,清算の結了等,,,2016-02-04,1,,,,,ロイヤルソーラー,0
726,3010801029829,登記記録の閉鎖等,0,2022-04-08,2022-04-04,リコーテックビジョン株式会社,,株式会社,東京都,大田区,中馬込１丁目３番６号,,13,111,1430027,,,2022-04-04,清算の結了等,,,2019-05-13,1,,,,,リコーテックビジョン,0
730,3010901014994,登記記録の閉鎖等,0,2022-04-08,2022-04-06,株式会社ホンダドリーム東京,,株式会社,東京都,世田谷区,奥沢６丁目３番２号,,13,112,1580083,,,2022-04-06,合併による解散等,1011801020861,令和４年４月１日東京都葛飾区柴又二丁目２１番１１号株式会社ホンダドリームジャパン（1011801020861）に合併し解散,2015-10-05,1,,,,,ホンダドリームトウキョウ,0
775,3020001077280,登記記録の閉鎖等,0,2022-04-08,2022-04-01,株式会社富士通ＳＳＬパワードサービス,,株式会社,神奈川県,川崎市幸区,大宮町１番地５,,14,132,2120014,,,2022-04-01,合併による解散等,8010401056384,令和４年４月１日川崎市中原区中丸子１３番地２株式会社富士通エフサス（8010401056384）に合併し解散,2015-10-05,1,,,,,フジツウエスエスエルパワードサービス,0
786,3020002061770,登記記録の閉鎖等,0,2022-04-08,2022-04-01,有限会社エスエスシィ,,有限会社,神奈川県,横浜市金沢区,能見台３丁目５１番地の１ふれあいの街Ｅ棟４０３号,,14,108,2360057,,,2022-04-01,清算の結了等,,,2015-10-05,1,,,,,エスエスシィ,0
789,3021002053493,登記記録の閉鎖等,0,2022-04-08,2022-04-01,有限会社リホーム美光,,有限会社,神奈川県,小田原市,蓮正寺９１９番地,00013662,14,206,2500865,,,2022-04-01,清算の結了等,,,2015-10-05,1,,,,,リホームビコウ,0
809,3030002062826,登記記録の閉鎖等,0,2022-04-08,2022-04-04,有限会社ウイング,,有限会社,埼玉県,富士見市,大字下南畑３７９９番地１１,,11,235,3540004,,,2022-04-04,清算の結了等,,,2015-10-05,1,,,,,ウイング,0
844,3080001014030,登記記録の閉鎖等,0,2022-04-08,2022-04-01,株式会社瑞穂,,株式会社,静岡県,静岡市駿河区,森下町４番地２１,,22,102,4228061,,,2022-04-01,合併による解散等,6080001013946,令和４年４月１日静岡市駿河区森下町４番地２１株式会社慧泉（6080001013946）に合併し解散,2015-10-05,1,,,,,ミズホ,0
853,3100002019620,登記記録の閉鎖等,0,2022-04-08,2022-04-04,梶原運送有限会社,,有限会社,長野県,松本市,大字今井２３２７番地１,,20,202,3901131,,,2022-04-04,清算の結了等,,,2015-10-05,1,,,,,カジワラウンソウ,0
858,3120001026517,登記記録の閉鎖等,0,2022-04-08,2022-03-31,株式会社田中鉄工所,,株式会社,大阪府,大阪市此花区,島屋６丁目２番７－１２０６号,,27,104,5540024,,,2022-03-31,清算の結了等,,,2015-10-05,1,,,,,タナカテッコウショ,0
873,3120002005701,登記記録の閉鎖等,0,2022-04-08,2022-04-01,双和紙料有限会社,,有限会社,大阪府,大阪市東住吉区,今林４丁目１番７号,,27,121,5460001,,,2022-04-01,清算の結了等,,,2015-10-05,1,,,,,フタワシリョウ,0
875,3120002075876,登記記録の閉鎖等,0,2022-04-08,2022-04-01,有限会社ディーエーアイ,,有限会社,大阪府,交野市,妙見坂１丁目２７番９号,,27,230,5760021,,,2022-04-01,清算の結了等,,,2015-10-05,1,,,,,ディーエーアイ,0
886,3122001019896,登記記録の閉鎖等,0,2022-04-08,2022-04-01,株式会社フジヤ,,株式会社,大阪府,八尾市,本町５丁目３番６号,,27,212,5810003,,,2022-04-01,清算の結了等,,,2015-10-05,1,,,,,フジヤ,0
917,3190001000168,登記記録の閉鎖等,0,2022-04-08,2022-04-01,株式会社エヌピーカーサービス三重,,株式会社,三重県,津市,藤方１０７６番地１,,24,201,5140815,,,2022-04-01,合併による解散等,2190001017642,令和４年４月１日三重県四日市市八田三丁目３番３２号日産プリンス三重販売株式会社（2190001017642）に合併し解散,2015-10-05,1,,,,,エヌピーカーサービスミエ,0
918,3190001011685,登記記録の閉鎖等,0,2022-04-08,2022-04-01,株式会社エコエナジー,,株式会社,三重県,松阪市,中町１９９２番地,,24,204,5150083,,,2022-04-01,合併による解散等,7190001010205,令和４年４月１日三重県松阪市大塚町３８１番地の１株式会社クレサンベール五十鈴（7190001010205）に合併し解散,2015-10-05,1,,,,,エコエナジー,0
923,3190001020819,登記記録の閉鎖等,0,2022-04-08,2022-04-06,株式会社スタミナ大将東海,,株式会社,岐阜県,各務原市,鵜沼各務原町１丁目１３６番地,,21,213,5090141,,,2022-04-06,合併による解散等,6180001019818,令和４年３月３１日名古屋市中川区西中島二丁目１０６番地株式会社スタミナ大将（6180001019818）に合併し解散,2015-10-05,1,,,,,,0
938,3240002012108,登記記録の閉鎖等,0,2022-04-08,2022-04-04,ニシキ食品有限会社,,有限会社,広島県,広島市西区,井口３丁目１２番２１号,,34,104,7330842,,,2022-04-04,清算の結了等,,,2015-10-05,1,,,,,ニシキショクヒン,0
983,3340002005448,登記記録の閉鎖等,0,2022-04-08,2022-04-04,有限会社総研,,有限会社,鹿児島県,鹿児島市,田上２丁目３番３３号,,46,201,8900034,,,2022-04-04,清算の結了等,,,2015-10-05,1,,,,,ソウケン,0
1002,3380002001063,登記記録の閉鎖等,0,2022-04-08,2022-04-01,有限会社共和交通,,有限会社,福島県,福島市,入江町１３番２２号,,07,201,9608117,,,2022-04-01,合併による解散等,2380001000802,令和４年４月１日福島市入江町１３番２２号大和自動車交通株式会社（2380001000802）に合併し解散,2015-10-05,1,,,,,,0
1007,3400002003057,登記記録の閉鎖等,0,2022-04-08,2022-04-07,有限会社升屋,,有限会社,岩手県,盛岡市,月が丘２丁目５番２１号,,03,201,0200121,,,2022-04-07,清算の結了等,,,2015-10-05,1,,,,,マスヤ,0
1017,3460102000592,登記記録の閉鎖等,0,2022-04-08,2022-04-06,有限会社オビヒロ・ガラス,,有限会社,北海道,帯広市,西十一条南３４丁目３０番地,,01,207,0800021,,,2022-04-06,清算の結了等,,,2015-10-05,1,,,,,オビヒロガラス,0
1022,3500001011109,登記記録の閉鎖等,0,2022-04-08,2022-04-04,株式会社石丸,,株式会社,愛媛県,今治市,桜井４丁目４番３号,,38,202,7991522,,,2022-04-04,清算の結了等,,,2015-10-05,1,,,,,イシマル,0
1046,4010402018750,登記記録の閉鎖等,0,2022-04-08,2022-03-30,有限会社オプ,,有限会社,東京都,港区,南麻布１丁目１番５号,,13,103,1060047,,,2022-03-30,清算の結了等,,,2015-10-05,1,,,,,,0
1052,4010601014501,登記記録の閉鎖等,0,2022-04-08,2022-04-01,東武ランドシステム株式会社,,株式会社,東京都,墨田区,向島１丁目３３番９号,,13,107,1310033,,,2022-04-01,合併による解散等,4010601029887,令和４年４月１日東京都墨田区向島一丁目３３番１２号東武商事株式会社（4010601029887）に合併し解散,2015-10-05,1,,,,,トウブランドシステム,0
1061,4010903005859,登記記録の閉鎖等,0,2022-04-08,2022-04-01,ＰＴＴ合同会社,,合同会社,東京都,世田谷区,上馬４丁目１４番６号サンメール駒沢１－Ｃ,,13,112,1540011,,,2022-04-01,清算の結了等,,,2020-07-29,1,,,,,ピーティーティー,0
1080,4011501008865,登記記録の閉鎖等,0,2022-04-08,2022-04-01,丸保木工株式会社,,株式会社,栃木県,栃木市,岩舟町静２１８６番地１０,,09,203,3294307,,,2022-04-01,清算の結了等,,,2015-10-05,1,,,,,マルヤスモッコウ,0
1086,4011502016140,登記記録の閉鎖等,0,2022-04-08,2022-04-01,有限会社コネクト,,有限会社,東京都,荒川区,東尾久５丁目３番１２－２０１号,,13,118,1160012,,,2022-04-01,合併による解散等,4011501009252,令和４年４月１日東京都荒川区東尾久五丁目３番１２－２０１号株式会社ラインテック（4011501009252）に合併し解散,2015-10-05,1,,,,,コネクト,0
1089,4011605000355,登記記録の閉鎖等,0,2022-04-08,2022-04-04,医療法人社団三歯会,,その他の設立登記法人,東京都,練馬区,立野町１４番２１号ライオンズマンション吉祥寺北１０３Ａ号室,,13,120,1770054,,,2022-04-04,清算の結了等,,,2015-10-05,1,,,,,サンシカイ,0
1102,4012702003647,登記記録の閉鎖等,0,2022-04-08,2022-03-31,株式会社ムラノ医療事務センター,,株式会社,東京都,西東京市,田無町３丁目７番３４号,,13,229,1880011,,,2022-03-31,合併による解散等,6012701001914,令和４年３月３１日東京都西東京市田無町三丁目７番３４号株式会社グリーンファーマシー（6012701001914）に合併し解散,2015-10-05,1,,,,,ムラノイリョウジムセンター,0
1117,4021001046200,登記記録の閉鎖等,0,2022-04-08,2022-04-01,アライオートオークション仙台株式会社,,株式会社,神奈川県,平塚市,紅谷町１７番２号,,14,203,2540043,,,2022-04-01,合併による解散等,7021001037824,令和４年４月１日神奈川県平塚市紅谷町１７番２号荒井商事株式会社（7021001037824）に合併し解散,2015-10-05,1,,,,,アライオートオークションセンダイ,0
1163,4080101000342,登記記録の閉鎖等,0,2022-04-08,2022-04-06,株式会社オキシーテック,,株式会社,静岡県,沼津市,内浦三津字小島５３７番の５,,22,203,4100223,,,2022-04-06,合併による解散等,9080101000718,令和４年４月１日静岡県沼津市大諏訪字薊原６８１番地１株式会社ＯＫＩコムエコーズ（9080101000718）に合併し解散,2015-10-05,1,,,,,オキシーテック,0
1170,4090003000654,登記記録の閉鎖等,0,2022-04-08,2022-04-01,合資会社雨宮呉服店,,合資会社,山梨県,西八代郡市川三郷町,市川大門９５３番地,,19,346,4093601,,,2022-04-01,清算の結了等,,,2015-10-05,1,,,,,アメミヤゴフクテン,0
1171,4090005000776,登記記録の閉鎖等,0,2022-04-08,2022-04-01,金刀比羅本教山梨県教会所,,その他の設立登記法人,山梨県,甲府市,武田１丁目３番２号,,19,201,4000016,,,2022-04-01,清算の結了等,,,2015-10-05,1,,,,,コトヒラホンキョウヤマナシケンキョウカイジョ,0
1181,4120001025063,登記記録の閉鎖等,0,2022-04-08,2022-04-04,光工業株式会社,,株式会社,大阪府,大阪市天王寺区,東上町７番３５号,,27,109,5430026,,,2022-04-04,清算の結了等,,,2015-10-05,1,,,,,ヒカリコウギョウ,0
1206,4120103002150,登記記録の閉鎖等,0,2022-04-08,2022-03-31,ＮＯ　ＭＡＴＴＥＲ合同会社,,合同会社,大阪府,羽曳野市,誉田３丁目１６番１５－１０１号,,27,222,5830857,,,2022-03-31,清算の結了等,,,2015-10-05,1,,,,,ノーマター,0
1209,4120901026565,登記記録の閉鎖等,0,2022-04-08,2022-04-01,株式会社日本経営ＩＳＯコンサルティング,,株式会社,大阪府,豊中市,寺内２丁目１３番３号,,27,203,5610872,,,2022-04-01,合併による解散等,8010001126018,令和４年４月１日大阪府豊中市寺内二丁目１３番３号ＮＫＧＲコンサルティング株式会社（8010001126018）に合併し解散,2015-10-05,1,,,,,ニホンケイエイアイエスオーコンサルティング,0
1225,4140001109335,登記記録の閉鎖等,0,2022-04-08,2022-04-01,安富ロジスティックス株式会社,,株式会社,兵庫県,姫路市,安富町長野１５２番地３,,28,201,6712421,,,2022-04-01,清算の結了等,,,2018-03-07,1,,,,,ヤストミロジスティックス,0
1235,4140002049357,登記記録の閉鎖等,0,2022-04-08,2022-03-31,有限会社大伸ファーマシー,,有限会社,兵庫県,姫路市,書写１０１９番地５６６,,28,201,6712201,,,2022-03-31,清算の結了等,,,2015-10-05,1,,,,,ダイシンファーマシー,0
1240,4160001005128,登記記録の閉鎖等,0,2022-04-08,2022-04-01,白井松商事株式会社,,株式会社,滋賀県,甲賀市,水口町宇川３７番地１,,25,209,5280052,,,2022-04-01,合併による解散等,2160001005245,令和４年４月１日滋賀県甲賀市水口町宇川３７番地２メデイカルサービス株式会社（2160001005245）に合併し解散,2015-10-05,1,,,,,シライマツショウジ,0
1243,4170002011124,登記記録の閉鎖等,0,2022-04-08,2022-03-31,有限会社紀宝プロパン,,有限会社,和歌山県,新宮市,橋本２丁目６番１７号,,30,207,6470052,,,2022-03-31,清算の結了等,,,2015-10-05,1,,,,,キホウプロパン,0
1266,4240005007797,登記記録の閉鎖等,0,2022-04-08,2022-04-01,一般社団法人福山労働会館,,その他の設立登記法人,広島県,福山市,南蔵王町４丁目５番１８号,,34,207,7210973,,,2022-04-01,合併による解散等,7240005000873,令和４年４月１日広島市南区金屋町１番１７号一般社団法人広島県労働会館（7240005000873）に合併し解散,2015-10-05,1,,,,,フクヤマロウドウカイカン,0
1268,4260001009572,登記記録の閉鎖等,0,2022-04-08,2022-04-01,株式会社コザックススポーツ,,株式会社,岡山県,岡山市北区,津高１４０番地３,,33,101,7011152,,,2022-04-01,合併による解散等,5260001011775,令和４年４月１日岡山市北区津高１４０番地３株式会社コザックスホールディングス（5260001011775）に合併し解散,2015-10-05,1,,,,,コザックススポーツ,0
1273,4290001027539,登記記録の閉鎖等,0,2022-04-08,2022-04-05,株式会社オリエンタル・ホーム,,株式会社,福岡県,福岡市中央区,天神４丁目４番１号,,40,133,8100001,,,2022-04-05,合併による解散等,1012401010815,令和４年４月１日東京都武蔵野市境二丁目２番２号株式会社飯田産業（1012401010815）に合併し解散,2015-10-05,1,,,,,オリエンタルホーム,0
1280,4290801003532,登記記録の閉鎖等,0,2022-04-08,2022-03-31,株式会社マタマ,,株式会社,福岡県,北九州市小倉北区,大手町６番１４号,,40,106,8030814,,,2022-03-31,合併による解散等,5290001071486,令和４年３月３１日福岡市中央区天神二丁目１４番８号株式会社三好ホールディングス（5290001071486）に合併し解散,2015-10-05,1,,,,,,0
1301,4370001023397,登記記録の閉鎖等,0,2022-04-08,2022-04-01,株式会社ラムス,,株式会社,宮城県,仙台市太白区,西中田２丁目２番５号,,04,104,9811105,,,2022-04-01,清算の結了等,,,2015-10-05,1,,,,,ラムス,0
1318,4420001006074,登記記録の閉鎖等,0,2022-04-08,2022-04-01,太陽青果株式会社,,株式会社,青森県,八戸市,大字河原木字神才７番地の４,,02,203,0391161,,,2022-04-01,合併による解散等,9420001006037,令和４年４月１日青森県八戸市大字河原木字神才７番地４第一青果株式会社（9420001006037）に合併し解散,2015-10-05,1,,,,,タイヨウセイカ,0
1330,4450001002731,登記記録の閉鎖等,0,2022-04-08,2022-04-01,ホクトサービス株式会社,,株式会社,北海道,旭川市,南五条通２３丁目１９７５番地,,01,204,0788335,,,2022-04-01,合併による解散等,4450001002129,令和４年４月１日北海道旭川市南五条通二十三丁目１９７５番地東芝ホクト電子株式会社（4450001002129）に合併し解散,2015-10-05,1,,,,,ホクトサービス,0
1334,4450002003258,登記記録の閉鎖等,0,2022-04-08,2022-04-01,有限会社ボストーク,,有限会社,北海道,札幌市中央区,南六条西７丁目１番地４,,01,101,0640806,,,2022-04-01,合併による解散等,3430001067463,令和４年４月１日札幌市中央区南六条西七丁目１番地４共同住宅会館４０１号株式会社アイラック（3430001067463）に合併し解散,2015-10-05,1,,,,,ボストーク,0
1363,5010001188291,登記記録の閉鎖等,0,2022-04-08,2022-03-31,株式会社ウインドミル・マネジメント,,株式会社,東京都,中央区,日本橋２丁目１番１７号,,13,102,1030027,,,2022-03-31,清算の結了等,,,2017-12-13,1,,,,,ウインドミルマネジメント,0
1365,5010001199561,登記記録の閉鎖等,0,2022-04-08,2022-03-30,オースリー株式会社,,株式会社,東京都,中央区,八重洲１丁目４番２０号,,13,102,1030028,,,2022-03-30,清算の結了等,,,2019-03-27,1,,,,,オースリー,0
1387,5010601058019,登記記録の閉鎖等,0,2022-04-08,2022-04-01,ＢＩＰＲＯＧＹ株式会社,,株式会社,東京都,江東区,豊洲１丁目１番１号,,13,108,1350061,,,2022-04-01,合併による解散等,2010601029542,令和４年４月１日東京都江東区豊洲一丁目１番１号ＢＩＰＲＯＧＹ株式会社（2010601029542）に合併し解散,2020-09-18,1,,,,,ビプロジー,0
1390,5010801018136,登記記録の閉鎖等,0,2022-04-08,2022-04-04,エフエムマーケティング株式会社,,株式会社,東京都,大田区,池上６丁目３番８号,,13,111,1460082,,,2022-04-04,清算の結了等,,,2015-10-05,1,,,,,エフエムマーケティング,0
1424,5011701024604,登記記録の閉鎖等,0,2022-04-08,2022-04-06,エム・ワイ・エンジニアリング株式会社,,株式会社,東京都,江戸川区,下篠崎町４番９－８０３号,,13,123,1330064,,,2022-04-06,清算の結了等,,,2021-08-05,1,,,,,エムワイエンジニアリング,0
1444,5013301016279,登記記録の閉鎖等,0,2022-04-08,2022-04-01,ワイ・エス・アイ株式会社,,株式会社,東京都,豊島区,東池袋１丁目１番１号,,13,116,1700013,,,2022-04-01,合併による解散等,8013301007317,令和４年４月１日東京都豊島区東池袋一丁目１番２号高村紙業株式会社（8013301007317）に合併し解散,2015-10-05,1,,,,,ワイエスアイ,0
1448,5020001043306,登記記録の閉鎖等,0,2022-04-08,2022-04-04,株式会社モンブーシェ,,株式会社,東京都,世田谷区,赤堤２丁目３０番２号,,13,112,1560044,,,2022-04-04,清算の結了等,,,2015-10-05,1,,,,,モンブーシェ,0
1463,5020003011830,登記記録の閉鎖等,0,2022-04-08,2022-03-31,サンセットインポート合同会社,,合同会社,神奈川県,横浜市都筑区,見花山１番３０号見花山ビル,,14,118,2240066,,,2022-03-31,清算の結了等,,,2016-09-23,1,,,,,サンセットインポート,0
1476,5030001025583,登記記録の閉鎖等,0,2022-04-08,2022-04-05,株式会社セルコ,,株式会社,埼玉県,所沢市,大字久米１４１６番地の４,,11,208,3591131,,,2022-04-05,合併による解散等,9290001023293,令和４年４月１日福岡市博多区上呉服町１０番１号エア・ウォーター・マテリアル株式会社（9290001023293）に合併し解散,2015-10-05,1,,,,,セルコ,0
1480,5030001107324,登記記録の閉鎖等,0,2022-04-08,2022-04-04,株式会社フラワーグループ,,株式会社,埼玉県,草加市,氷川町２１１６番地２０号フロールビル３階,,11,221,3400034,,,2022-04-04,清算の結了等,,,2015-10-05,1,,,,,フラワーグループ,0
1497,5030003016143,登記記録の閉鎖等,0,2022-04-08,2022-03-31,合同会社滑川ひまわり会,,合同会社,埼玉県,比企郡滑川町,大字山田２１５５番地１,,11,341,3550802,,,2022-03-31,清算の結了等,,,2020-11-05,1,,,,,ナメガワヒマワリカイ,0
1518,5060005004911,登記記録の閉鎖等,0,2022-04-08,2022-04-01,桑絹商工会,,その他の設立登記法人,栃木県,小山市,大字荒井５６番地１,,09,208,3230013,,,2022-04-01,合併による解散等,6060005004910,令和４年４月１日栃木県小山市大字間々田１１８３番地２間々田商工会（6060005004910）に合併し解散,2015-10-05,1,,,,,クワキヌ,0
1570,5130001062897,登記記録の閉鎖等,0,2022-04-08,2022-04-01,株式会社フォレスト,,株式会社,京都府,京都市伏見区,深草西伊達町８８番地３パデシオン藤森グランデ４２５号,,26,109,6120876,,,2022-04-01,清算の結了等,,,2018-09-10,1,,,,,フォレスト,0
1604,5180003016351,登記記録の閉鎖等,0,2022-04-08,2022-04-01,合同会社スミス情報サービス,,合同会社,愛知県,名古屋市天白区,元植田１丁目２００５番地,,23,116,4680009,,,2022-04-01,清算の結了等,,,2015-10-05,1,,,,,スミスジョウホウサービス,0
1610,5200001014239,登記記録の閉鎖等,0,2022-04-08,2022-04-04,株式会社ホンダ四輪販売丸順,,株式会社,岐阜県,大垣市,新田町２丁目１２３４番地,,21,202,5030856,,,2022-04-04,合併による解散等,8180001094917,令和４年４月１日名古屋市昭和区滝川町６２番地の１株式会社ホンダカーズ東海（8180001094917）に合併し解散,2015-10-05,1,,,,,,0
1648,5290801017762,登記記録の閉鎖等,0,2022-04-08,2022-04-01,株式会社サイキョー,,株式会社,福岡県,北九州市若松区,大谷町５番１号,,40,103,8080051,,,2022-04-01,清算の結了等,,,2015-10-05,1,,,,,サイキョー,0
1658,5320002006470,登記記録の閉鎖等,0,2022-04-08,2022-04-01,有限会社丸五商事,,有限会社,大分県,大分市,大字片島５００番地,,44,201,8700943,,,2022-04-01,合併による解散等,1320001003695,令和４年４月１日大分市大字片島５００番地株式会社安東商会（1320001003695）に合併し解散,2015-10-05,1,,,,,マルゴショウジ,0
1659,5320002017484,登記記録の閉鎖等,0,2022-04-08,2022-04-04,有限会社旅館裕,,有限会社,大分県,佐伯市,向島２丁目１８番２１号,,44,205,8760844,,,2022-04-04,清算の結了等,,,2015-10-05,1,,,,,リョカンヒロ,0
1682,5420001006734,登記記録の閉鎖等,0,2022-04-08,2022-04-01,横田商事株式会社,,株式会社,青森県,八戸市,大字尻内町字島田１７番地５,,02,203,0391101,,,2022-04-01,合併による解散等,9420001006615,令和４年４月１日青森県八戸市大字尻内町字島田１７番地５株式会社まるとも（9420001006615）に合併し解散,2015-10-05,1,,,,,ヨコタショウジ,0
1683,5430001025584,登記記録の閉鎖等,0,2022-04-08,2022-04-01,株式会社エポックス,,株式会社,北海道,札幌市白石区,栄通４丁目２番１１号,,01,104,0030021,,,2022-04-01,合併による解散等,2430002042144,令和４年４月１日札幌市中央区南四条東二丁目１２川村ビル６階株式会社ユーコー企画（2430002042144）に合併し解散,2015-10-05,1,,,,,エポックス,0
1707,6010001136687,登記記録の閉鎖等,0,2022-04-08,2022-04-05,わかば紙商事株式会社,,株式会社,東京都,江東区,亀戸２丁目３６番１２号,,13,108,1360071,,,2022-04-05,合併による解散等,3010501032728,令和４年４月１日東京都台東区北上野一丁目９番１２号株式会社共同紙販ホールディングス（3010501032728）に合併し解散,2015-10-05,1,,,,,ワカバカミショウジ,0
1713,6010001173895,登記記録の閉鎖等,0,2022-04-08,2022-03-30,日本金橋株式会社,,株式会社,東京都,千代田区,岩本町２丁目１０番９号手塚ビル３階,00116909,13,101,1010032,,,2022-03-30,清算の結了等,,,2016-02-26,1,,,,,ニホンカナハシ,0
1730,6010405014068,登記記録の閉鎖等,0,2022-04-08,2022-03-30,ヴィルゴ特定目的会社,,その他の設立登記法人,東京都,港区,虎ノ門３丁目２２番１０－２０１号,,13,103,1050001,,,2022-03-30,清算の結了等,,,2015-10-05,1,,,,,ヴィルゴ,0
1751,6011001054433,登記記録の閉鎖等,0,2022-04-08,2022-03-30,株式会社大和経営サービス,,株式会社,東京都,渋谷区,渋谷２丁目１番６号,,13,113,1500002,,,2022-03-30,清算の結了等,,,2015-10-05,1,,,,,ヤマトケイエイサービス,0
1758,6011101087317,登記記録の閉鎖等,0,2022-04-08,2022-04-01,ＭＡリファイニングシステムズ株式会社,,株式会社,東京都,新宿区,西新宿２丁目４番１号,,13,104,1600023,,,2022-04-01,合併による解散等,5011101035813,令和４年４月１日東京都新宿区西新宿二丁目４番１号ミサワホーム株式会社（5011101035813）に合併し解散,2019-04-10,1,,,,,エムエーリファイニングシステムズ,0
1789,6013301000678,登記記録の閉鎖等,0,2022-04-08,2022-04-04,新井塗装工業株式会社,,株式会社,東京都,豊島区,池袋本町３丁目５番４号,,13,116,1700011,,,2022-04-04,清算の結了等,,,2015-10-05,1,,,,,アライトソウコウギョウ,0
1797,6020001061075,登記記録の閉鎖等,0,2022-04-08,2022-04-01,株式会社しらくら,,株式会社,神奈川県,横浜市港北区,高田東３丁目４１番１５号,,14,109,2230065,,,2022-04-01,清算の結了等,,,2015-10-05,1,,,,,シラクラ,0
1809,6020005012685,登記記録の閉鎖等,0,2022-04-08,2022-03-28,一般社団法人ＰＥＡＣＥ　ＰＩＥＣＥ,,その他の設立登記法人,神奈川県,横浜市神奈川区,鶴屋町３丁目３３－１７大河原ビル４Ｆ,,14,102,2210835,,,2022-03-28,清算の結了等,,,2016-07-19,1,,,,,ピースピース,0
1825,6030002075726,登記記録の閉鎖等,0,2022-04-08,2022-04-01,有限会社アド．オフィス．アライ,,有限会社,埼玉県,ふじみ野市,上福岡１丁目７番２７号アライビル６階,,11,245,3560004,,,2022-04-01,清算の結了等,,,2015-10-05,1,,,,,アドオフィスアライ,0
1832,6040001062435,登記記録の閉鎖等,0,2022-04-08,2022-03-29,株式会社ホンダエスアール,,株式会社,千葉県,銚子市,三崎町２丁目２５６６番地の３,,12,202,2880815,,,2022-03-29,清算の結了等,,,2015-10-05,1,,,,,ホンダエスアール,0
1850,6050003002173,登記記録の閉鎖等,0,2022-04-08,2022-03-31,合同会社子ども支援研究所,,合同会社,茨城県,つくばみらい市,小張５２２９番地（陽光台一丁目１２７街区２画地）センチュリーつくばみらい平Ｂ－４２８,,08,235,3002353,,,2022-03-31,清算の結了等,,,2015-10-05,1,,,,,コドモシエンケンキュウジョ,0
1861,6070001036551,登記記録の閉鎖等,0,2022-04-08,2022-04-01,株式会社ヤマダフードサービス,,株式会社,群馬県,高崎市,栄町１番１号,,10,202,3700841,,,2022-04-01,合併による解散等,2070001036729,令和４年４月１日群馬県高崎市栄町１番１号株式会社ヤマダデンキ（2070001036729）に合併し解散,2020-02-06,1,,,,,ヤマダフードサービス,0
1865,6080001009671,登記記録の閉鎖等,0,2022-04-08,2022-04-05,株式会社ｉｎｏｘ,,株式会社,静岡県,静岡市清水区,長崎９７９番８,,22,103,4240065,,,2022-04-05,合併による解散等,1011101002081,令和４年４月１日東京都新宿区左門町３番地１井上金属株式会社（1011101002081）に合併し解散,2015-10-05,1,,,,,イノックス,0
1871,6080101003871,登記記録の閉鎖等,0,2022-04-08,2022-04-06,株式会社アドビッグ沼津,,株式会社,静岡県,沼津市,寿町４番３号,,22,203,4100053,,,2022-04-06,清算の結了等,,,2015-10-05,1,,,,,アドビッグヌマヅ,0
1879,6100001012334,登記記録の閉鎖等,0,2022-04-08,2022-04-04,株式会社長鍛豊田製作所,,株式会社,長野県,中野市,大字穴田１８５４番地３,,20,211,3892103,,,2022-04-04,合併による解散等,8100001002424,令和４年４月１日長野市大字穂保字中之配２９１番地１長野鍛工株式会社（8100001002424）に合併し解散,2015-10-05,1,,,,,チョウタントヨダセイサクショ,0
1902,6120901024311,登記記録の閉鎖等,0,2022-04-08,2022-04-01,株式会社セキサン,,株式会社,大阪府,豊中市,寺内２丁目１３番３号,,27,203,5610872,,,2022-04-01,合併による解散等,8010001126018,令和４年４月１日大阪府豊中市寺内二丁目１３番３号ＮＫＧＲコンサルティング株式会社（8010001126018）に合併し解散,2015-10-05,1,,,,,セキサン,0
1915,6140001007636,登記記録の閉鎖等,0,2022-04-08,2022-04-01,シスメックス国際試薬株式会社,,株式会社,兵庫県,神戸市西区,高塚台４丁目３番地２,,28,111,6512271,,,2022-04-01,合併による解散等,9140001009530,令和４年４月１日神戸市中央区脇浜海岸通一丁目５番１号シスメックス株式会社（9140001009530）に合併し解散,2015-10-05,1,,,,,シスメックスコクサイシヤク,0
1919,6140001119217,登記記録の閉鎖等,0,2022-04-08,2022-04-01,ノアインベストメント株式会社,,株式会社,兵庫県,姫路市,東山５２４番地,,28,201,6728014,,,2022-04-01,合併による解散等,7140001102097,令和４年４月１日兵庫県姫路市東山５２４番地ノアファシリティーズ株式会社（7140001102097）に合併し解散,2020-10-27,1,,,,,ノアインベストメント,0
1968,6240005002656,登記記録の閉鎖等,0,2022-04-08,2022-04-04,特定非営利活動法人広島女子スポーツクラブ,,その他の設立登記法人,広島県,広島市中区,三川町１０番１１号,,34,101,7300029,,,2022-04-04,清算の結了等,,,2015-10-05,1,,,,,ヒロシマジョシスポーツクラブ,0
1987,6290002041826,登記記録の閉鎖等,0,2022-04-08,2022-04-01,有限会社オカフジ技研,,有限会社,福岡県,筑紫野市,むさしヶ丘１丁目１７番２号,,40,217,8180043,,,2022-04-01,清算の結了等,,,2015-10-05,1,,,,,オカフジギケン,0
2013,6340005003660,登記記録の閉鎖等,0,2022-04-08,2022-03-31,東郷物産品販売協同組合,,その他の設立登記法人,鹿児島県,薩摩川内市,東郷町斧渕１９４０番地１,,46,215,8951106,,,2022-03-31,清算の結了等,,,2015-10-05,1,,,,,トウゴウブッサンピンハンバイ,0
2093,7010401053886,登記記録の閉鎖等,0,2022-04-08,2022-03-30,株式会社トップラインエージェンシー,,株式会社,東京都,港区,東麻布１丁目２８番１２号,,13,103,1060044,,,2022-03-30,清算の結了等,,,2015-10-05,1,,,,,トップラインエージェンシー,0
2108,7010402006331,登記記録の閉鎖等,0,2022-04-08,2022-03-30,有限会社シバタデンキ,,有限会社,東京都,港区,白金台４丁目１０番１号,,13,103,1080071,,,2022-03-30,清算の結了等,,,2015-10-05,1,,,,,,0
2110,7010405013333,登記記録の閉鎖等,0,2022-04-08,2022-03-30,一般社団法人ＧＤＰ２,,その他の設立登記法人,東京都,港区,虎ノ門３丁目２２番１０－２０１号,,13,103,1050001,,,2022-03-30,清算の結了等,,,2015-10-05,1,,,,,ジーディーピーツー,0
2127,7010901003515,登記記録の閉鎖等,0,2022-04-08,2022-04-01,株式会社クレスト,,株式会社,東京都,世田谷区,太子堂１丁目１５番６号,,13,112,1540004,,,2022-04-01,合併による解散等,4010902011957,令和４年４月１日東京都世田谷区太子堂一丁目１５番６号株式会社クレスト（4010902011957）に合併し解散,2015-10-05,1,,,,,クレスト,0
2134,7011001141370,登記記録の閉鎖等,0,2022-04-08,2022-04-05,ＤＩ　Ｆｕｔｕｒｅｓ株式会社,,株式会社,東京都,渋谷区,笹塚２丁目１番６号,,13,113,1510073,,,2022-04-05,合併による解散等,7010401001556,令和４年４月１日東京都港区赤坂一丁目８番１号アクセンチュア株式会社（7010401001556）に合併し解散,2021-06-25,1,,,,,ディアイフューチャーズ,0
2156,7011301025521,登記記録の閉鎖等,0,2022-04-08,2022-04-04,株式会社ＣＴＨ,,株式会社,東京都,杉並区,和田３丁目１１番２２号,,13,115,1660012,,,2022-04-04,清算の結了等,,,2019-11-27,1,,,,,シーティーエイチ,0
2159,7011401013293,登記記録の閉鎖等,0,2022-04-08,2022-04-04,株式会社ＦＴＲ,,株式会社,東京都,板橋区,加賀２丁目３番１－１３０８号,,13,119,1730003,,,2022-04-04,清算の結了等,,,2015-10-05,1,,,,,エフティーアール,0
2199,7013201017482,登記記録の閉鎖等,0,2022-04-08,2022-03-30,株式会社ライトハウス・パートナーズ,,株式会社,東京都,目黒区,下目黒５丁目１５番３号,,13,110,1530064,,,2022-03-30,清算の結了等,,,2015-10-05,1,,,,,ライトハウスパートナーズ,0
2202,7020001044582,登記記録の閉鎖等,0,2022-04-08,2022-04-01,株式会社アオイ産業,,株式会社,神奈川県,横浜市戸塚区,名瀬町７６４番地１２,,14,110,2450051,,,2022-04-01,合併による解散等,2020001012404,令和４年４月１日横浜市南区大岡四丁目８番１２号青野建設株式会社（2020001012404）に合併し解散,2015-10-05,1,,,,,アオイサンギョウ,0
2251,7050001008155,登記記録の閉鎖等,0,2022-04-08,2022-03-31,常井木材興業株式会社,,株式会社,茨城県,笠間市,下郷４１０１番地３,,08,216,3190202,,,2022-03-31,清算の結了等,,,2015-10-05,1,,,,,トコイモクザイコウギョウ,0
2321,7120101046114,登記記録の閉鎖等,0,2022-04-08,2022-04-01,セルフ株式会社,,株式会社,大阪府,岸和田市,下池田町１丁目１７番６号,,27,202,5960811,,,2022-04-01,清算の結了等,,,2015-10-05,1,,,,,セルフ,0
2322,7120101059974,登記記録の閉鎖等,0,2022-04-08,2022-04-01,株式会社アイエクス大仙,,株式会社,大阪府,堺市堺区,大仙町３番２９号,,27,141,5900035,,,2022-04-01,合併による解散等,7120101000005,令和４年４月１日大阪府堺市堺区大仙町３番２９号株式会社アイエー（7120101000005）に合併し解散,2019-06-07,1,,,,,アイエクスダイセン,0
2336,7140001057606,登記記録の閉鎖等,0,2022-04-08,2022-04-01,旭燐寸株式会社,,株式会社,兵庫県,姫路市,東山１２４５番地,,28,201,6728014,,,2022-04-01,合併による解散等,3140001060547,令和４年４月１日兵庫県姫路市東山５２４番地株式会社日東社（3140001060547）に合併し解散,2015-10-05,1,,,,,アサヒマッチ,0
2337,7140001058091,登記記録の閉鎖等,0,2022-04-08,2022-04-01,株式会社大阪日東社,,株式会社,兵庫県,姫路市,東山５２４番地,,28,201,6728014,,,2022-04-01,合併による解散等,3140001060547,令和４年４月１日兵庫県姫路市東山５２４番地株式会社日東社（3140001060547）に合併し解散,2015-10-05,1,,,,,オオサカニットウシャ,0
2354,7180001117348,登記記録の閉鎖等,0,2022-04-08,2022-04-01,株式会社ＭＡＲＵＷＡ　ＣＥＲＡＭＩＣ,,株式会社,愛知県,尾張旭市,南本地ケ原町３丁目８３番地,,23,226,4880044,,,2022-04-01,合併による解散等,2180001079691,令和４年４月１日愛知県尾張旭市南本地ケ原町三丁目８３番地株式会社ＭＡＲＵＷＡ（2180001079691）に合併し解散,2015-10-05,1,,,,,マルワセラミック,0
2360,7180002008125,登記記録の閉鎖等,0,2022-04-08,2022-04-01,有限会社重吉建材,00072812,有限会社,愛知県,名古屋市昭和区,隼人町７番地の５,,23,107,4660833,,,2022-04-01,清算の結了等,,,2015-10-05,1,,,,,シゲヨシケンザイ,0
2363,7190002009452,登記記録の閉鎖等,0,2022-04-08,2022-04-01,有限会社白山研網社,,有限会社,三重県,伊勢市,辻久留２丁目１１番２１号,00075936,24,203,5160066,,,2022-04-01,清算の結了等,,,2015-10-05,1,,,,,,0
2373,7210001001985,登記記録の閉鎖等,0,2022-04-08,2022-04-01,大成株式会社,,株式会社,福井県,福井市,高木中央１丁目３００９番地３,,18,201,9100804,,,2022-04-01,清算の結了等,,,2015-10-05,1,,,,,タイセイ,0
2406,7290802006325,登記記録の閉鎖等,0,2022-04-08,2022-04-01,有限会社西南タクシー,,有限会社,福岡県,北九州市小倉北区,神岳２丁目５番２１号,,40,106,8020045,,,2022-04-01,合併による解散等,9290801002678,令和４年４月１日北九州市小倉北区三萩野二丁目３番３号南国産業株式会社（9290801002678）に合併し解散,2015-10-05,1,,,,,セイナンタクシー,0
2436,7380001013898,登記記録の閉鎖等,0,2022-04-08,2022-04-01,マルシチ砕石販売株式会社,,株式会社,福島県,いわき市,四倉町上仁井田字北細谷４番地の２,,07,204,9790202,,,2022-04-01,合併による解散等,6380001014121,令和４年４月１日福島県いわき市四倉町上仁井田字北細谷４番地の２株式会社ＮＣＴ四倉（6380001014121）に合併し解散,2015-10-05,1,,,,,マルシチサイセキハンバイ,0
2452,7430001081048,登記記録の閉鎖等,0,2022-04-08,2022-04-01,アイジェックス・マネジメント株式会社,,株式会社,北海道,札幌市東区,北十八条東１丁目３番３号,,01,103,0650018,,,2022-04-01,合併による解散等,8430001003612,令和４年４月１日札幌市東区北十九条東一丁目１番１号環境エンジニアリング株式会社（8430001003612）に合併し解散,2020-03-13,1,,,,,アイジェックスマネジメント,0
2473,8010001115359,登記記録の閉鎖等,0,2022-04-08,2022-03-31,株式会社ユースーツ,,株式会社,東京都,千代田区,神田須田町２丁目１９番,,13,101,1010041,,,2022-03-31,清算の結了等,,,2015-10-05,1,,,,,ユースーツ,0
2481,8010002001186,登記記録の閉鎖等,0,2022-04-08,2022-03-31,有限会社大坂屋,,有限会社,東京都,文京区,本郷２丁目３８番１４号,,13,105,1130033,,,2022-03-31,清算の結了等,,,2015-10-05,1,,,,,オオサカヤ,0
2493,8010401093106,登記記録の閉鎖等,0,2022-04-08,2022-04-06,株式会社電通オンデマンドグラフィック,,株式会社,東京都,港区,東新橋１丁目８番３号,,13,103,1050021,,,2022-04-06,合併による解散等,5010001110503,令和４年４月１日東京都千代田区内幸町一丁目５番３号株式会社電通プロモーションエグゼ（5010001110503）に合併し解散,2015-10-05,1,,,,,デンツウオンデマンドグラフィック,0
2502,8010601028365,登記記録の閉鎖等,0,2022-04-08,2022-04-01,東武商事株式会社,,株式会社,東京都,墨田区,向島１丁目３３番１２号,,13,107,1310033,,,2022-04-01,合併による解散等,4010601029887,令和４年４月１日東京都墨田区向島一丁目３３番１２号東武商事株式会社（4010601029887）に合併し解散,2015-10-05,1,,,,,トウブショウジ,0
2509,8010701016286,登記記録の閉鎖等,0,2022-04-08,2022-04-01,株式会社中島興産,,株式会社,東京都,板橋区,板橋２丁目６５番８号ＭＳビル,,13,119,1730004,,,2022-04-01,合併による解散等,2011402006474,令和４年４月１日東京都板橋区板橋二丁目６５番８号ＭＳビル株式会社冨田商事（2011402006474）に合併し解散,2015-10-05,1,,,,,ナカジマコウサン,0
2547,8011802017009,登記記録の閉鎖等,0,2022-04-08,2022-03-25,有限会社日進商会,,有限会社,東京都,足立区,舎人３丁目１番２９号,,13,121,1210831,,,2022-03-25,清算の結了等,,,2015-10-05,1,,,,,ニッシンショウカイ,0
2550,8012701012843,登記記録の閉鎖等,0,2022-04-08,2022-04-04,住生活空間株式会社,,株式会社,東京都,新宿区,高田馬場３丁目４６番２５号ＩＤビル５階,,13,104,1690075,,,2022-04-04,合併による解散等,8012701004700,令和４年４月１日東京都新宿区高田馬場三丁目４６番２５号アイディホーム株式会社（8012701004700）に合併し解散,2015-10-05,1,,,,,ジュウセイカツクウカン,0
2558,8020001040572,登記記録の閉鎖等,0,2022-04-08,2022-04-06,株式会社バディエデュケーション,,株式会社,神奈川県,横浜市都筑区,荏田東４丁目９番８号,,14,118,2240006,,,2022-04-06,合併による解散等,5010901009737,令和４年３月３１日東京都世田谷区千歳台三丁目１８番１０号株式会社バディ企画研究所（5010901009737）に合併し解散,2015-10-05,1,,,,,バディエデュケーション,0
2562,8020001115069,登記記録の閉鎖等,0,2022-04-08,2022-04-01,株式会社ポケッタブル,,株式会社,神奈川県,横浜市港北区,下田町１丁目１番１－４０９号,,14,109,2230064,,,2022-04-01,清算の結了等,,,2016-03-08,1,,,,,ポケッタブル,0
2605,8060001022550,登記記録の閉鎖等,0,2022-04-08,2022-04-01,株式会社那須高林ファーム,,株式会社,栃木県,那須塩原市,末広町５３番地,,09,213,3250061,,,2022-04-01,清算の結了等,,,2015-10-05,1,,,,,ナスタカバヤシファーム,0
2610,8060005004909,登記記録の閉鎖等,0,2022-04-08,2022-04-01,小山市美田商工会,,その他の設立登記法人,栃木県,小山市,大字松沼９６４番地４,,09,208,3230007,,,2022-04-01,合併による解散等,6060005004910,令和４年４月１日栃木県小山市大字間々田１１８３番地２間々田商工会（6060005004910）に合併し解散,2015-10-05,1,,,,,オヤマシミタ,0
2620,8080101000157,登記記録の閉鎖等,0,2022-04-08,2022-04-04,株式会社イシバシプラザ,,株式会社,静岡県,沼津市,高島本町１番地の５,,22,203,4100055,,,2022-04-04,合併による解散等,8020001025433,令和４年３月３１日横浜市中区山下町１番地石橋生絲株式会社（8020001025433）に合併し解散,2015-10-05,1,,,,,イシバシプラザ,0
2636,8110001021480,登記記録の閉鎖等,0,2022-04-08,2022-04-01,株式会社ノースライン,,株式会社,新潟県,十日町市,山野田２６８番地２,,15,210,9480143,,,2022-04-01,合併による解散等,7110001020979,令和４年４月１日新潟県十日町市山野田２６８番地２株式会社クローバフォー（7110001020979）に合併し解散,2015-10-05,1,,,,,ノースライン,0
2649,8120001192321,登記記録の閉鎖等,0,2022-04-08,2022-04-01,株式会社ＴＭネットワーク,,株式会社,大阪府,大阪市浪速区,日本橋５丁目９番１９号,,27,111,5560005,,,2022-04-01,合併による解散等,4120001125359,令和４年４月１日大阪市浪速区日本橋五丁目９番１９号株式会社タイムマシン（4120001125359）に合併し解散,2015-10-05,1,,,,,ティーエムネットワーク,0
2668,8122005001945,登記記録の閉鎖等,0,2022-04-08,2022-03-30,医療法人望月医院,,その他の設立登記法人,大阪府,八尾市,末広町４丁目５番４号,,27,212,5810001,,,2022-03-30,清算の結了等,,,2015-10-05,1,,,,,モチヅキイイン,0
2675,8130005015790,登記記録の閉鎖等,0,2022-04-08,2022-04-01,医療法人菱令会,,その他の設立登記法人,京都府,京都市西京区,桂御所町１番地,,26,111,6158087,,,2022-04-01,清算の結了等,,,2020-01-10,1,,,,,リョウレイカイ,0
2683,8140001060476,登記記録の閉鎖等,0,2022-04-08,2022-04-01,株式会社九州西日本日東社,,株式会社,兵庫県,姫路市,東山５２４番地,,28,201,6728014,,,2022-04-01,合併による解散等,3140001060547,令和４年４月１日兵庫県姫路市東山５２４番地株式会社日東社（3140001060547）に合併し解散,2015-10-05,1,,,,,キュウシュウニシニホンニットウシャ,0
2721,8240001034057,登記記録の閉鎖等,0,2022-04-08,2022-04-01,悠々自適株式会社,,株式会社,広島県,福山市,明神町２丁目１４番２９号,,34,207,7210961,,,2022-04-01,合併による解散等,2240001029830,令和４年４月１日広島県福山市明神町二丁目１４番２９号ハルクホールディングス株式会社（2240001029830）に合併し解散,2015-10-05,1,,,,,ユウユウジテキ,0
2731,8280001000195,登記記録の閉鎖等,0,2022-04-08,2022-04-04,合銀ビジネスサービス株式会社,,株式会社,島根県,松江市,灘町１番地７,,32,201,6900065,,,2022-04-04,合併による解散等,7280001002300,令和４年４月１日島根県松江市灘町１番地７松江プラザビル３階株式会社山陰オフィスサービス（7280001002300）に合併し解散,2015-10-05,1,,,,,ゴウギンビジネスサービス,0
2732,8280001005756,登記記録の閉鎖等,0,2022-04-08,2022-04-01,株式会社にしき保険サービス,,株式会社,島根県,雲南市,大東町大東２３４３番地１７,,32,209,6991251,,,2022-04-01,合併による解散等,3280002004159,令和４年４月１日島根県松江市古志原二丁目９番３２号株式会社安心サポート（3280002004159）に合併し解散,2015-10-05,1,,,,,ニシキホケンサービス,0
2750,8310002001131,登記記録の閉鎖等,0,2022-04-08,2022-04-01,有限会社幹成電設,,有限会社,長崎県,長崎市,平山町７００番地３,,42,201,8500995,,,2022-04-01,清算の結了等,,,2015-10-05,1,,,,,カンセイデンセツ,0
2773,8380002032228,登記記録の閉鎖等,0,2022-04-08,2022-04-01,有限会社西部運転代行,,有限会社,福島県,会津若松市,柳原町３丁目２番５４号,,07,202,9650857,,,2022-04-01,清算の結了等,,,2015-10-05,1,,,,,,0
2777,8400001015560,登記記録の閉鎖等,0,2022-04-08,2022-04-07,旦誠産業株式会社,,株式会社,岩手県,滝沢市,巣子９６４番３７マトリョーシカ１０１,,03,216,0200611,,,2022-04-07,清算の結了等,,,2021-08-06,1,,,,,タンセイサンギョウ,0
2785,8430001012712,登記記録の閉鎖等,0,2022-04-08,2022-04-01,株式会社くるまるく工房,,株式会社,北海道,札幌市中央区,大通西１７丁目１番地２３,,01,101,0600042,,,2022-04-01,合併による解散等,1430001006844,令和４年４月１日札幌市中央区大通西十七丁目１番地２３札日興産株式会社（1430001006844）に合併し解散,2015-10-05,1,,,,,クルマルクコウボウ,0
2795,8440003000862,登記記録の閉鎖等,0,2022-04-08,2022-03-31,合同会社新谷縫製,,合同会社,北海道,檜山郡上ノ国町,字大留２４７番地,,01,362,0490611,,,2022-03-31,清算の結了等,,,2015-10-05,1,,,,,シンヤホウセイ,0
2803,8500001004958,登記記録の閉鎖等,0,2022-04-08,2022-04-04,株式会社フェニックスフーズ,,株式会社,愛媛県,伊予郡松前町,大字西高柳２３７番地の１,,38,401,7913132,,,2022-04-04,清算の結了等,,,2015-10-05,1,,,,,フェニックスフーズ,0
2813,9010002053417,登記記録の閉鎖等,0,2022-04-08,2022-03-30,有限会社ＮＮマネージメントオフィス,,有限会社,東京都,港区,西新橋３丁目２３番１１号,,13,103,1050003,,,2022-03-30,清算の結了等,,,2015-10-05,1,,,,,エヌエヌマネージメントオフィス,0
2815,9010005001918,登記記録の閉鎖等,0,2022-04-08,2022-03-31,東京和装服飾品卸協同組合,,その他の設立登記法人,東京都,中央区,日本橋堀留町１丁目９番６号,,13,102,1030012,,,2022-03-31,清算の結了等,,,2015-10-05,1,,,,,トウキョウワソウフクショクヒンオロシ,0
2816,9010005026106,登記記録の閉鎖等,0,2022-04-08,2022-04-05,一般社団法人国際教育,,その他の設立登記法人,東京都,八王子市,みなみ野１丁目７番１号,,13,201,1920916,,,2022-04-05,清算の結了等,,,2016-12-13,1,,,,,コクサイキョウイク,0
2867,9011102006594,登記記録の閉鎖等,0,2022-04-08,2022-04-01,有限会社新宿家電,,有限会社,東京都,新宿区,若松町３６番地２６,,13,104,1620056,,,2022-04-01,清算の結了等,,,2015-10-05,1,,,,,シンジュクカデン,0
2875,9011402003804,登記記録の閉鎖等,0,2022-04-08,2022-04-04,有限会社サキムラ製作所,,有限会社,東京都,板橋区,小豆沢２丁目２４番６号,,13,119,1740051,,,2022-04-04,清算の結了等,,,2015-10-05,1,,,,,サキムラセイサクショ,0
2892,9013301034392,登記記録の閉鎖等,0,2022-04-08,2022-03-30,株式会社美健,,株式会社,東京都,渋谷区,千駄ヶ谷５丁目２７番３号やまとビル８階,,13,113,1510051,,,2022-03-30,清算の結了等,,,2015-10-05,1,,,,,ビケン,0
2898,9013401004452,登記記録の閉鎖等,0,2022-04-08,2022-04-01,京王バス小金井株式会社,,株式会社,東京都,多摩市,関戸１丁目９番地１,,13,224,2060011,,,2022-04-01,合併による解散等,9013401002381,令和４年４月１日東京都多摩市関戸一丁目９番地１京王電鉄バス株式会社（9013401002381）に合併し解散,2015-10-05,1,,,,,ケイオウバスコガネイ,0
2904,9020001096242,登記記録の閉鎖等,0,2022-04-08,2022-04-06,株式会社サクラ薬局,,株式会社,神奈川県,横浜市神奈川区,西神奈川２丁目６番地１－１Ｂ,,14,102,2210822,,,2022-04-06,合併による解散等,6080001016668,令和４年４月１日静岡県藤枝市大洲四丁目１番地の６株式会社ニイム（6080001016668）に合併し解散,2015-10-05,1,,,,,サクラヤッキョク,0
2926,9021002051772,登記記録の閉鎖等,0,2022-04-08,2022-04-01,有限会社小西漢方薬局,,有限会社,神奈川県,小田原市,南鴨宮３丁目５番２１号,,14,206,2500875,,,2022-04-01,清算の結了等,,,2015-10-05,1,,,,,コニシカンポウヤッキョク,0
2931,9030001078272,登記記録の閉鎖等,0,2022-04-08,2022-04-04,栄給食株式会社,,株式会社,埼玉県,川口市,栄町１丁目１９番１５号,,11,203,3320017,,,2022-04-04,清算の結了等,,,2015-10-05,1,,,,,サカエキュウショク,0
2932,9030001101554,登記記録の閉鎖等,0,2022-04-08,2022-04-04,株式会社ＣＯＮＣＩＥＲＧＥ,,株式会社,埼玉県,草加市,氷川町２１３１番地１７,,11,221,3400034,,,2022-04-04,清算の結了等,,,2015-10-05,1,,,,,コンシェルジュ,0
2934,9030001147291,登記記録の閉鎖等,0,2022-04-08,2022-04-01,株式会社木村屋パン店,,株式会社,埼玉県,川越市,連雀町９番地２,,11,201,3500066,,,2022-04-01,清算の結了等,,,2022-03-24,1,,,,,キムラヤパンテン,0
2981,9100001009261,登記記録の閉鎖等,0,2022-04-08,2022-04-04,株式会社信州食道楽,,株式会社,長野県,小諸市,南町３丁目６番９号,,20,208,3840012,,,2022-04-04,清算の結了等,,,2015-10-05,1,,,,,シンシュウショクドウラク,0
2990,9110002017270,登記記録の閉鎖等,0,2022-04-08,2022-04-01,すみれ曾根プレス工業有限会社,,有限会社,新潟県,三条市,柳場新田４０６番地,,15,204,9550003,,,2022-04-01,清算の結了等,,,2015-10-05,1,,,,,スミレソネプレスコウギョウ,0
3000,9120001159583,登記記録の閉鎖等,0,2022-04-08,2022-04-01,株式会社マネージメントワークス,,株式会社,大阪府,大阪市浪速区,難波中２丁目１０番５２－３３０１号,,27,111,5560011,,,2022-04-01,清算の結了等,,,2015-10-05,1,,,,,,0
3004,9120001219180,登記記録の閉鎖等,0,2022-04-08,2022-04-01,株式会社ＣＲＩ,,株式会社,大阪府,大阪市浪速区,幸町３丁目３番１０号,,27,111,5560021,,,2022-04-01,合併による解散等,9120001029258,令和４年４月１日大阪市大正区泉尾一丁目１８番２０号株式会社ＣＲＩ（9120001029258）に合併し解散,2019-02-25,1,,,,,シーアールアイ,0
3021,9120101058000,登記記録の閉鎖等,0,2022-04-08,2022-04-06,ＤＭＳＴＥＣＨ株式会社,,株式会社,大阪府,高石市,高砂３丁目３８番地,,27,225,5920001,,,2022-04-06,合併による解散等,5122001015555,令和４年３月３１日大阪府大東市氷野三丁目１５２番地大同ＤＭソリューション株式会社（5122001015555）に合併し解散,2018-04-06,1,,,,,ディーエムエステック,0
3024,9120901026296,登記記録の閉鎖等,0,2022-04-08,2022-04-01,株式会社近畿エム・アンド・エーセンター,,株式会社,大阪府,豊中市,寺内２丁目１３番３号,,27,203,5610872,,,2022-04-01,合併による解散等,8010001126018,令和４年４月１日大阪府豊中市寺内二丁目１３番３号ＮＫＧＲコンサルティング株式会社（8010001126018）に合併し解散,2015-10-05,1,,,,,キンキエムアンドエーセンター,0
3035,9140001077081,登記記録の閉鎖等,0,2022-04-08,2022-04-01,株式会社山本工務店,,株式会社,兵庫県,西脇市,和布町１９番地,,28,213,6770053,,,2022-04-01,清算の結了等,,,2015-10-05,1,,,,,ヤマモトコウムテン,0
3058,9180001116843,登記記録の閉鎖等,0,2022-04-08,2022-04-01,Ｇｒａｃｉａｓ　ａ　ｌａ　ｖｉｄａ株式会社,,株式会社,愛知県,名古屋市中区,丸の内２丁目１８番１０号,,23,106,4600002,,,2022-04-01,清算の結了等,,,2015-10-05,1,,,,,グラシアスラビダ,0
3062,9180001148226,登記記録の閉鎖等,0,2022-04-08,2022-03-30,株式会社ｊｕｓｈｅａｒｔｓ,,株式会社,愛知県,名古屋市天白区,平針５丁目８０４番地,,23,116,4680011,,,2022-03-30,清算の結了等,,,2021-10-13,1,,,,,ジュハーツ,0
3076,9200001021636,登記記録の閉鎖等,0,2022-04-08,2022-04-05,株式会社ヤマサ沢田商店,,株式会社,岐阜県,土岐市,泉町大富２１９番地の９,,21,212,5095132,,,2022-04-05,清算の結了等,,,2015-10-05,1,,,,,ヤマササワダショウテン,0
3078,9200005009826,登記記録の閉鎖等,0,2022-04-08,2022-04-06,医療法人悟賛会,,その他の設立登記法人,岐阜県,高山市,西之一色町２丁目２０番地の３,,21,203,5060031,,,2022-04-06,清算の結了等,,,2015-10-05,1,,,,,ゴサンカイ,0
3080,9220005000246,登記記録の閉鎖等,0,2022-04-08,2022-04-01,公益財団法人金沢まちづくり財団,,その他の設立登記法人,石川県,金沢市,柿木畠１番１号,,17,201,9200999,,,2022-04-01,合併による解散等,1220005007364,令和４年４月１日石川県金沢市泉野出町三丁目８番１号公益財団法人金沢市スポーツ事業団（1220005007364）に合併し解散,2015-10-05,1,,,,,カナザワマチヅクリザイダン,0
3090,9260001030920,登記記録の閉鎖等,0,2022-04-08,2022-04-04,祥希海運株式会社,,株式会社,岡山県,岡山市北区,学南町３丁目１４番４５号,,33,101,7000011,,,2022-04-04,清算の結了等,,,2017-06-07,1,,,,,ショウキカイウン,0
3093,9280001000260,登記記録の閉鎖等,0,2022-04-08,2022-04-01,株式会社ダナック,,株式会社,島根県,松江市,殿町３８３番地,,32,201,6900887,,,2022-04-01,合併による解散等,7280001002473,令和４年４月１日島根県松江市向島町１４０番地１株式会社ＴＳＫエンタープライズ（7280001002473）に合併し解散,2015-10-05,1,,,,,ダナック,0
3094,9280001004492,登記記録の閉鎖等,0,2022-04-08,2022-04-05,株式会社協和,,株式会社,島根県,浜田市,下府町２１６４番地６７,,32,202,6970006,,,2022-04-05,清算の結了等,,,2015-10-05,1,,,,,キョウワ,0
3145,9430001070016,登記記録の閉鎖等,0,2022-04-08,2022-03-31,モンテリエ株式会社,,株式会社,北海道,札幌市中央区,北一条西２２丁目１番１号,,01,101,0640821,,,2022-03-31,合併による解散等,5430001040253,令和４年３月３１日札幌市白石区平和通七丁目南３番１１号株式会社トビキン（5430001040253）に合併し解散,2015-10-05,1,,,,,モンテリエ,0
3148,9460001004838,登記記録の閉鎖等,0,2022-04-08,2022-04-07,株式会社アース測量プランニング,,株式会社,北海道,釧路市,芦野３丁目１番１０号,00110038,01,206,0850061,,,2022-04-07,清算の結了等,,,2015-10-05,1,,,,,アースソクリョウプランニング,0
