sequenceNumber,corporateNumber,process,correct,updateDate,changeDate,name,nameImageId,kind,prefectureName,cityName,streetNumber,addressImageId,prefectureCode,cityCode,postCode,addressOutside,addressOutsideImageId,closeDate,closeCause,successorCorporateNumber,changeCause,assignmentDate,latest,enName,enPrefectureName,enCityName,enAddressOutside,furigana,hihyoji
6,1010001253149,新規,0,2025-03-21,2025-03-21,ビーフラット株式会社,,株式会社,東京都,中央区,日本橋蛎殻町２丁目１０番１０号,,13,102,1030014,,,,,,,2025-03-21,1,,,,,ビーフラット,0
7,1010001253289,新規,0,2025-03-21,2025-03-21,株式会社ホワイトベリー,,株式会社,東京都,中央区,日本橋浜町２丁目６０番１０号浜町公園ビル３階,,13,102,1030007,,,,,,,2025-03-21,1,,,,,ホワイトベリー,0
8,1010001253306,新規,0,2025-03-21,2025-03-21,ＳＮＯＷ　ＫＩＮＧ株式会社,,株式会社,東京都,中央区,八丁堀２丁目１３番２号ドミノビル６０１,,13,102,1040032,,,,,,,2025-03-21,1,,,,,スノーキング,0
9,1010001253330,新規,0,2025-03-21,2025-03-21,株式会社慶和,,株式会社,東京都,千代田区,麹町４丁目４－５－６０１,,13,101,1020083,,,,,,,2025-03-21,1,,,,,ケイワ,0
10,1010001253339,新規,0,2025-03-21,2025-03-21,株式会社Ｊ‐ＦＵＮ１６,,株式会社,東京都,千代田区,丸の内１丁目８番２号,,13,101,1000005,,,,,,,2025-03-21,1,,,,,ジェイファンジュウロク,0
11,1010001253363,新規,0,2025-03-21,2025-03-21,株式会社珠羽商事,,株式会社,東京都,中央区,東日本橋２丁目１７－７クリエイトビル７Ｆ,,13,102,1030004,,,,,,,2025-03-21,1,,,,,シュウショウジ,0
12,1010001253388,新規,0,2025-03-21,2025-03-21,株式会社ＲＡホールディングス,,株式会社,東京都,千代田区,富士見２丁目１０番２号飯田橋グラン・ブルーム４階,,13,101,1020071,,,,,,,2025-03-21,1,,,,,アールエーホールディングス,0
13,1010003046781,新規,0,2025-03-21,2025-03-21,松枝合同会社,,合同会社,東京都,中央区,築地２丁目１２番１６号イースト銀座ビル２階,,13,102,1040045,,,,,,,2025-03-21,1,,,,,マツガエ,0
14,1010103002536,新規,0,2025-03-21,2025-03-21,合同会社ＹＯＵスケッチ,,合同会社,東京都,八王子市,小比企町５３５番地３９,,13,201,1930934,,,,,,,2025-03-21,1,,,,,ユースケッチ,0
19,1010401188928,新規,0,2025-03-21,2025-03-21,株式会社ＨＩＭＡＷＡＲＩ　ＥＳＴＡＴＥＳ,,株式会社,東京都,港区,芝２丁目２８番１１号芝ＭＫビル７Ｆ,,13,103,1050014,,,,,,,2025-03-21,1,,,,,ヒマワリエステーツ,0
20,1010401189026,新規,0,2025-03-21,2025-03-21,ＣＲＯＳＳ　ＷＩＮＥＳ　ＩＮＴＥＲＮＡＴＩＯＮＡＬ株式会社,,株式会社,東京都,港区,南青山４丁目１８－１１,,13,103,1070062,,,,,,,2025-03-21,1,,,,,クロスワインズインターナショナル,0
22,1010405024154,新規,0,2025-03-21,2025-03-21,一般社団法人Ｂｏｒｎｅｏ　Ｏｒａｎｇｕｔａｎ　Ｓｕｒｖｉｖａｌ　Ｊａｐａｎ,,その他の設立登記法人,東京都,港区,赤坂４丁目７番７号Ｈ＆Ｋ赤坂レジデンス２０１,,13,103,1070052,,,,,,,2025-03-21,1,,,,,ボルネオオランウータンサバイバルジャパン,0
23,1010405024162,新規,0,2025-03-21,2025-03-21,一般社団法人Ｆｕｌｌ　Ｏｆ　Ｓｍｉｌｅｓ,,その他の設立登記法人,東京都,港区,西麻布２丁目２５番１２号－３Ｆ,,13,103,1060031,,,,,,,2025-03-21,1,,,,,フルオブスマイルズ,0
26,1010601066999,新規,0,2025-03-21,2025-03-21,株式会社針谷テック,,株式会社,東京都,墨田区,本所４丁目８番１０号,,13,107,1300004,,,,,,,2025-03-21,1,,,,,ハリヤテック,0
31,1010801035936,新規,0,2025-03-21,2025-03-21,株式会社ＳＨＩＮ‐ＹＯＵ,,株式会社,東京都,大田区,大森北１丁目３８－１－２Ｆ,,13,111,1430016,,,,,,,2025-03-21,1,,,,,シンユー,0
32,1010803005326,新規,0,2025-03-21,2025-03-21,合同会社ＺＡＤ,,合同会社,東京都,大田区,千鳥２丁目９－１５,,13,111,1460083,,,,,,,2025-03-21,1,,,,,ザッド,0
35,1011001168295,新規,0,2025-03-21,2025-03-21,株式会社Ａｉｄｅａ,,株式会社,東京都,渋谷区,道玄坂１丁目１０番８号渋谷道玄坂東急ビル２Ｆ－Ｃ,,13,113,1500043,,,,,,,2025-03-21,1,,,,,アイディア,0
36,1011001168304,新規,0,2025-03-21,2025-03-21,株式会社ＩＴエグゼクティブ,,株式会社,東京都,渋谷区,恵比寿西２丁目４番８号ウィンド恵比寿ビル８Ｆ,,13,113,1500021,,,,,,,2025-03-21,1,,,,,アイティエグゼクティブ,0
40,1011003021171,新規,0,2025-03-21,2025-03-21,合同会社Ｏｐｕｒｅ,,合同会社,東京都,渋谷区,恵比寿西２丁目４番８号ウィンド恵比寿ビル８Ｆ,,13,113,1500021,,,,,,,2025-03-21,1,,,,,オピュレ,0
42,1011101110982,新規,0,2025-03-21,2025-03-21,フューチャーマップ株式会社,,株式会社,東京都,新宿区,西新宿２丁目６番１号新宿住友ビル３７階,,13,104,1600023,,,,,,,2025-03-21,1,,,,,フューチャーマップ,0
43,1011101111015,新規,0,2025-03-21,2025-03-21,株式会社Ｃｒａｆｔ　Ｐｌｕｓ,,株式会社,東京都,新宿区,新宿１丁目２４番１－３０６号,,13,104,1600022,,,,,,,2025-03-21,1,,,,,クラフトプラス,0
44,1011101111064,新規,0,2025-03-21,2025-03-21,株式会社福福,,株式会社,東京都,新宿区,新宿２丁目１２番１３号新宿アントレサロンビル２階,,13,104,1600022,,,,,,,2025-03-21,1,,,,,フクフク,0
45,1011101111080,新規,0,2025-03-21,2025-03-21,株式会社ＫＭアセット,,株式会社,東京都,新宿区,市谷本村町３番２３－１１０２号,,13,104,1620845,,,,,,,2025-03-21,1,,,,,ケーエムアセット,0
52,1011401026920,新規,0,2025-03-21,2025-03-21,株式会社アトラス,,株式会社,東京都,板橋区,高島平６丁目１番５号板橋市場内,,13,119,1750082,,,,,,,2025-03-21,1,,,,,アトラス,0
53,1011401026937,新規,0,2025-03-21,2025-03-21,株式会社Ｌ４Ｕ,,株式会社,東京都,板橋区,大山金井町３８－６,,13,119,1730024,,,,,,,2025-03-21,1,,,,,エルフォーユー,0
55,1011403004651,新規,0,2025-03-21,2025-03-21,アンプラー合同会社,,合同会社,東京都,板橋区,仲町３１番６号１０２号室,,13,119,1730022,,,,,,,2025-03-21,1,,,,,アンプラー,0
59,1011603004633,新規,0,2025-03-21,2025-03-21,合同会社Ｃｏ‐Ｃｒｅａｔｅ　Ｆｒｏｎｔｉｅｒ,,合同会社,東京都,練馬区,三原台１丁目１０番５号,,13,120,1770031,,,,,,,2025-03-21,1,,,,,コクリエイトフロンティア,0
60,1011603004641,新規,0,2025-03-21,2025-03-21,合同会社ＢＩＺＡＲＴ,,合同会社,東京都,練馬区,石神井町３丁目１６－１９－３０２,,13,120,1770041,,,,,,,2025-03-21,1,,,,,ビザート,0
62,1011801045751,新規,0,2025-03-21,2025-03-21,ＯＨＪ株式会社,,株式会社,東京都,葛飾区,白鳥４丁目９―１３,,13,122,1250063,,,,,,,2025-03-21,1,,,,,オーエイチジェイ,0
67,1012805003324,新規,0,2025-03-21,2025-03-21,一般社団法人日野市介護医療福祉対策協議会,,その他の設立登記法人,東京都,日野市,豊田３丁目１番地の８プレシス豊田１階,,13,212,1910053,,,,,,,2025-03-21,1,,,,,,0
74,1020001161986,新規,0,2025-03-21,2025-03-21,株式会社伊藤電設,,株式会社,神奈川県,横浜市港北区,大倉山６丁目２１番６号,,14,109,2220037,,,,,,,2025-03-21,1,,,,,イトウデンセツ,0
81,1030001165490,新規,0,2025-03-21,2025-03-21,アルベラータ・リアルティ株式会社,,株式会社,埼玉県,さいたま市南区,大字大谷口１８８５番地,,11,108,3360042,,,,,,,2025-03-21,1,,,,,アルベラータリアルティ,0
82,1030001165516,新規,0,2025-03-21,2025-03-21,株式会社ファースト,,株式会社,埼玉県,和光市,白子３丁目２５番３０号,,11,229,3510101,,,,,,,2025-03-21,1,,,,,ファースト,0
83,1030001165532,新規,0,2025-03-21,2025-03-21,株式会社鵬誠,,株式会社,埼玉県,草加市,新里町７２３番地６,,11,221,3400031,,,,,,,2025-03-21,1,,,,,ホウセイ,0
86,1030003026352,新規,0,2025-03-21,2025-03-21,川口美装合同会社,,合同会社,埼玉県,蕨市,南町３丁目２－６ライオンズシティ蕨２０２,,11,223,3350003,,,,,,,2025-03-21,1,,,,,カワグチビソウ,0
87,1030005022085,新規,0,2025-03-21,2025-03-21,医療法人社団昌福会,,その他の設立登記法人,埼玉県,所沢市,西所沢１丁目９番１８号第二鹿島屋ビル２階,,11,208,3591144,,,,,,,2025-03-21,1,,,,,ショウフクカイ,0
96,1040001137943,新規,0,2025-03-21,2025-03-21,株式会社ＮＨＩ　ＧＲＯＵＰ,,株式会社,千葉県,八千代市,大和田新田３５３番地１００,,12,221,2760046,,,,,,,2025-03-21,1,,,,,エヌエイチアイグループ,0
101,1040003027127,新規,0,2025-03-21,2025-03-21,合同会社ＴＡＫＵＭＩ,,合同会社,千葉県,木更津市,田川６４１番地,,12,206,2920207,,,,,,,2025-03-21,1,,,,,タクミ,0
106,1050003009099,新規,0,2025-03-21,2025-03-21,満天ノ星合同会社,,合同会社,茨城県,稲敷郡阿見町,大字阿見４２８０番地１,,08,443,3000331,,,,,,,2025-03-21,1,,,,,マンテンノホシ,0
107,1050003009116,新規,0,2025-03-21,2025-03-21,合同会社ＲＧＢ　Ｌａｂ,,合同会社,茨城県,つくば市,花畑２丁目８番地１号ガリレオプレイス７０３,,08,220,3003261,,,,,,,2025-03-21,1,,,,,アールジービーラボ,0
108,1070001042744,新規,0,2025-03-21,2025-03-21,株式会社ＡＩＭＸ,,株式会社,群馬県,邑楽郡大泉町,大字寄木戸１２６６番地の４,,10,524,3700535,,,,,,,2025-03-21,1,,,,,アイエムエックス,0
112,1080401027815,新規,0,2025-03-21,2025-03-21,株式会社ＣｏＣｏＬｉｎｏ,,株式会社,静岡県,浜松市中央区,砂山町３２４番地１８,,22,138,4300926,,,,,,,2025-03-21,1,,,,,ココリノ,0
124,1120001273755,新規,0,2025-03-21,2025-03-21,株式会社Ｌｏｉｒｅ,,株式会社,大阪府,交野市,星田５丁目１０番８ルミエール星田１０１,,27,230,5760016,,,,,,,2025-03-21,1,,,,,ロアール,0
125,1120001273796,新規,0,2025-03-21,2025-03-21,株式会社Ｍｅｌｌｉｅｒ,,株式会社,大阪府,枚方市,春日元町１丁目８番２０号,,27,210,5730135,,,,,,,2025-03-21,1,,,,,メリエル,0
126,1120001273912,新規,0,2025-03-21,2025-03-21,株式会社Ｎａｎａｌａ,,株式会社,大阪府,大阪市住之江区,粉浜西２丁目１３番２２号,,27,125,5590007,,,,,,,2025-03-21,1,,,,,ナナラ,0
130,1120003028967,新規,0,2025-03-21,2025-03-21,家具レンタルシックス合同会社,,合同会社,大阪府,大阪市中央区,北浜３丁目５番２２号オリックス淀屋橋ビル７階,,27,128,5410041,,,,,,,2025-03-21,1,,,,,カグレンタルシックス,0
133,1120101071282,新規,0,2025-03-21,2025-03-21,Ａトラベル株式会社,,株式会社,大阪府,堺市堺区,南半町東１丁１番１０号,,27,141,5900966,,,,,,,2025-03-21,1,,,,,エートラベル,0
134,1120101071308,新規,0,2025-03-21,2025-03-21,株式会社ＲｅＬＩＦＥ建設,,株式会社,大阪府,松原市,小川４丁目８番４号Ｂ,,27,217,5800002,,,,,,,2025-03-21,1,,,,,リライフケンセツ,0
136,1120103006336,新規,0,2025-03-21,2025-03-21,合同会社ティーエス,,合同会社,大阪府,富田林市,加太１丁目１８番７号,,27,214,5840078,,,,,,,2025-03-21,1,,,,,ティーエス,0
137,1120901050618,新規,0,2025-03-21,2025-03-21,株式会社夢来り逢,,株式会社,大阪府,豊中市,東豊中町５丁目３５－７,,27,203,5600003,,,,,,,2025-03-21,1,,,,,ムクリア,0
142,1130001079235,新規,0,2025-03-21,2025-03-21,株式会社ｅ‐Ｍａｉｓｏｎ,,株式会社,京都府,京都市中京区,西ノ京下合町１１番地島津プラザ３階,,26,104,6048436,,,,,,,2025-03-21,1,,,,,イーメゾン,0
143,1130001079243,新規,0,2025-03-21,2025-03-21,ＭＡ　ＴＲＡＤＩＮＧ株式会社,,株式会社,京都府,京都市右京区,山ノ内宮前町２７－９ハイネス山ノ内１０３号室,,26,108,6150093,,,,,,,2025-03-21,1,,,,,エムエートレーディング,0
147,1130003010288,新規,0,2025-03-21,2025-03-21,Ｆ．Ｅ．４８２Ｍｉｙａｇａｗａ合同会社,,合同会社,京都府,京都市中京区,御池通東洞院東入笹屋町４３６永和御池ビル６０６号,,26,104,6048187,,,,,,,2025-03-21,1,,,,,エフイーフォーエートトゥーミヤガワ,0
150,1140001137792,新規,0,2025-03-21,2025-03-21,株式会社三華月,,株式会社,兵庫県,神戸市長田区,東尻池町２丁目２番１号,,28,106,6530022,,,,,,,2025-03-21,1,,,,,ミカヅキ,0
151,1140001137834,新規,0,2025-03-21,2025-03-21,神戸京町株式会社,,株式会社,兵庫県,神戸市北区,谷上西町２４番５－３０２号,,28,109,6511246,,,,,,,2025-03-21,1,,,,,コウベキョウマチ,0
153,1140003021755,新規,0,2025-03-21,2025-03-21,Ａ‐ｓｔｙｌｅ合同会社,,合同会社,兵庫県,神戸市中央区,下山手通２丁目１１番２５－３０５号,,28,110,6500011,,,,,,,2025-03-21,1,,,,,エースタイル,0
154,1140003021805,新規,0,2025-03-21,2025-03-21,ＮＳ合同会社,,合同会社,兵庫県,神戸市兵庫区,羽坂通３丁目７番３号豊緑兵庫ビル２階２０２号室,,28,105,6520805,,,,,,,2025-03-21,1,,,,,エヌエス,0
161,1180001165947,新規,0,2025-03-21,2025-03-21,コンストラクトグローブ株式会社,,株式会社,愛知県,名古屋市港区,当知１丁目１３１３グレイスＫ３０３号,,23,111,4550804,,,,,,,2025-03-21,1,,,,,コンストラクトグローブ,0
162,1180001166012,新規,0,2025-03-21,2025-03-21,株式会社ハル,,株式会社,愛知県,名古屋市中川区,牛立町１丁目１２６番地,,23,110,4540043,,,,,,,2025-03-21,1,,,,,ハル,0
163,1180003028160,新規,0,2025-03-21,2025-03-21,合同会社キャンパスコンパス,,合同会社,愛知県,名古屋市中村区,名駅４丁目２４番５号第２森ビル４０１,,23,105,4500002,,,,,,,2025-03-21,1,,,,,キャンパスコンパス,0
164,1180301039636,新規,0,2025-03-21,2025-03-21,株式会社ＴＲＹ　ＷＯＲＫＳ,,株式会社,愛知県,豊田市,逢妻町３丁目６番地６,,23,211,4710052,,,,,,,2025-03-21,1,,,,,トライワークス,0
168,1190001032089,新規,0,2025-03-21,2025-03-21,株式会社アイズ,,株式会社,三重県,鈴鹿市,高岡台３丁目２０番１５号ハニーネストＡ２０２,,24,207,5130019,,,,,,,2025-03-21,1,,,,,アイズ,0
175,1220005008940,新規,0,2025-03-21,2025-03-21,一般社団法人ＤＳＬ,,その他の設立登記法人,石川県,金沢市,富樫３丁目１番２５号,,17,201,9218171,,,,,,,2025-03-21,1,,,,,ディーエスエル,0
177,1240001064671,新規,0,2025-03-21,2025-03-21,株式会社クローザー,,株式会社,広島県,広島市東区,光町２丁目１４番１６‐３０２号,,34,102,7320052,,,,,,,2025-03-21,1,,,,,クローザー,0
188,1290001109356,新規,0,2025-03-21,2025-03-21,株式会社ｔｈｒｅｅ　ｄｏｔｓ．,,株式会社,福岡県,福岡市中央区,天神４丁目６－２８天神ファーストビル７階,,40,133,8100001,,,,,,,2025-03-21,1,,,,,スリードッツ,0
189,1290001109389,新規,0,2025-03-21,2025-03-21,株式会社Ｒ‐ＺＥＲＯＨＯＭＥ,,株式会社,福岡県,福岡市南区,老司１丁目３１番３０－２号,,40,134,8111346,,,,,,,2025-03-21,1,,,,,アールゼロホーム,0
190,1290001109397,新規,0,2025-03-21,2025-03-21,九州グローバルサービス株式会社,,株式会社,福岡県,久留米市,御井旗崎５丁目４－４－２,,40,203,8390841,,,,,,,2025-03-21,1,,,,,,0
191,1290001109406,新規,0,2025-03-21,2025-03-21,株式会社香椎浜北テラス,,株式会社,福岡県,福岡市東区,多の津１丁目４番５号,,40,131,8130034,,,,,,,2025-03-21,1,,,,,カシイハマキタテラス,0
193,1290003016534,新規,0,2025-03-21,2025-03-21,合同会社３８５Ｂｅａｕｔｅ,,合同会社,福岡県,久留米市,津福今町６２０番地３,,40,203,8300061,,,,,,,2025-03-21,1,,,,,ミヤコボーテ,0
194,1290003016567,新規,0,2025-03-21,2025-03-21,ＳＴ　ＧＲＯＵＰ合同会社,,合同会社,福岡県,福岡市博多区,住吉５丁目２－１３ロケーションズビル１Ｆ,,40,132,8120018,,,,,,,2025-03-21,1,,,,,エスティーグループ,0
195,1290003016575,新規,0,2025-03-21,2025-03-21,リズミックデザイン合同会社,,合同会社,福岡県,福岡市東区,松崎１丁目４４－３,,40,131,8130035,,,,,,,2025-03-21,1,,,,,リズミックデザイン,0
199,1320003004601,新規,0,2025-03-21,2025-03-21,ジョブパートナーアグリ合同会社,,合同会社,大分県,大分市,大字白木２４２０番地１,,44,201,8792202,,,,,,,2025-03-21,1,,,,,ジョブパートナーアグリ,0
203,1350003004879,新規,0,2025-03-21,2025-03-21,合同会社ウッドファミリー,,合同会社,宮崎県,宮崎市,船塚３丁目７２番地,,45,201,8800031,,,,,,,2025-03-21,1,,,,,ウッドファミリー,0
204,1360001034943,新規,0,2025-03-21,2025-03-21,株式会社ＷＡＴＥＲ　ＢＯＹ,,株式会社,沖縄県,うるま市,石川伊波１５５３番地２５０沖縄安全体験ダイビングセンターＮｏ．４,,47,213,9041115,,,,,,,2025-03-21,1,,,,,ウォーターボーイ,0
205,1360003014778,新規,0,2025-03-21,2025-03-21,ＡＹＭセブンコンサルティング合同会社,,合同会社,沖縄県,うるま市,字天願１３０番地３グランツ天願Ｂ棟３０２,,47,213,9042202,,,,,,,2025-03-21,1,,,,,エーワイエムセブンコンサルティング,0
206,1370001052374,新規,0,2025-03-21,2025-03-21,リガーレ仙台株式会社,,株式会社,宮城県,仙台市宮城野区,榴岡１丁目２－４８櫻井ビル６Ｆ－２,,04,102,9830852,,,,,,,2025-03-21,1,,,,,リガーレセンダイ,0
210,1430001093973,新規,0,2025-03-21,2025-03-21,株式会社ｃｏｐａｉｎ,,株式会社,北海道,札幌市白石区,菊水一条１丁目３番３４号,,01,104,0030801,,,,,,,2025-03-21,1,,,,,コパン,0
219,1500001026208,新規,0,2025-03-21,2025-03-21,株式会社ルナソーレ,,株式会社,愛媛県,松山市,土居田町５９８－７パールハイツ２０１,,38,201,7900056,,,,,,,2025-03-21,1,,,,,ルナソーレ,0
220,1500005008771,新規,0,2025-03-21,2025-03-21,一般社団法人ベースｉｎえひめ,,その他の設立登記法人,愛媛県,四国中央市,土居町小林１７８５－３,,38,213,7990702,,,,,,,2025-03-21,1,,,,,ベースインエヒメ,0
222,2010001253362,新規,0,2025-03-21,2025-03-21,Ｕｎｐｌｕｇｇｅｄ株式会社,,株式会社,東京都,中央区,銀座７丁目１３番６号サガミビル２階,,13,102,1040061,,,,,,,2025-03-21,1,,,,,アンプラグド,0
223,2010001253370,新規,0,2025-03-21,2025-03-21,株式会社ＫＲＴＳ２,,株式会社,東京都,千代田区,内幸町２丁目１番６号,,13,101,1000011,,,,,,,2025-03-21,1,,,,,ケイアールティーエスツー,0
226,2010003046814,新規,0,2025-03-21,2025-03-21,合同会社ＷＳ３,,合同会社,東京都,千代田区,永田町２丁目１７番５号,,13,101,1000014,,,,,,,2025-03-21,1,,,,,ダブリュエススリー,0
227,2010003046839,新規,0,2025-03-21,2025-03-21,ハルカ合同会社,,合同会社,東京都,千代田区,富士見２丁目１０－３－３３１１,,13,101,1020071,,,,,,,2025-03-21,1,,,,,ハルカ,0
231,2010401189033,新規,0,2025-03-21,2025-03-21,株式会社ｍａｇｉｎｅａ,,株式会社,東京都,港区,南青山３丁目１番３６号青山丸竹ビル６Ｆ,,13,103,1070062,,,,,,,2025-03-21,1,,,,,マジネア,0
232,2010401189090,新規,0,2025-03-21,2025-03-21,ｅｎｕｆｌｏｗ株式会社,,株式会社,東京都,港区,南青山３丁目１番３６号青山丸竹ビル６Ｆ,,13,103,1070062,,,,,,,2025-03-21,1,,,,,エニュフロー,0
233,2010403034609,新規,0,2025-03-21,2025-03-21,アーティーデザイン合同会社,,合同会社,東京都,港区,北青山１丁目３番１号アールキューブ青山３階,,13,103,1070061,,,,,,,2025-03-21,1,,,,,アーティーデザイン,0
235,2010405024228,新規,0,2025-03-21,2025-03-21,モアザンミュージカル一般社団法人,,その他の設立登記法人,東京都,港区,芝２丁目１０番６号ＥＡＲＴＨＳＨＩＢＡＢＬＤ．３Ｆイントリム内,,13,103,1050014,,,,,,,2025-03-21,1,,,,,モアザンミュージカル,0
236,2010501053790,新規,0,2025-03-21,2025-03-21,ＢＰ株式会社,,株式会社,東京都,台東区,上野３丁目２番２号４０３号室,,13,106,1100005,,,,,,,2025-03-21,1,,,,,ビーピー,0
239,2010901057037,新規,0,2025-03-21,2025-03-21,Ｓｈｉｚｕ株式会社,,株式会社,東京都,世田谷区,等々力８丁目１６番７－４０８号,,13,112,1580082,,,,,,,2025-03-21,1,,,,,シズ,0
242,2011001168286,新規,0,2025-03-21,2025-03-21,株式会社ＰｒｏＢｕｄｄｙ,,株式会社,東京都,目黒区,下目黒１丁目１番１４号コノトラビル７Ｆ,,13,110,1530064,,,,,,,2025-03-21,1,,,,,プロバディ,0
243,2011003021179,新規,0,2025-03-21,2025-03-21,ＪＱＥ合同会社,,合同会社,東京都,渋谷区,円山町１６－８粕谷ビル２０２,,13,113,1500044,,,,,,,2025-03-21,1,,,,,ジェーキューイー,0
247,2011101111030,新規,0,2025-03-21,2025-03-21,株式会社ＩＡＣＤＣ,,株式会社,東京都,新宿区,四谷４丁目１３番地７,,13,104,1600004,,,,,,,2025-03-21,1,,,,,アイエイシーディーシー,0
250,2011501031786,新規,0,2025-03-21,2025-03-21,オリエンタルエンヂニアリング株式会社,,株式会社,東京都,荒川区,西日暮里２丁目２５番１－９０２号,,13,118,1160013,,,,,,,2025-03-21,1,,,,,オリエンタルエンヂニアリング,0
251,2011501031844,新規,0,2025-03-21,2025-03-21,株式会社恒盛,,株式会社,東京都,荒川区,荒川５丁目３０番６号１０９号室,,13,118,1160002,,,,,,,2025-03-21,1,,,,,コウセイ,0
252,2011701028153,新規,0,2025-03-21,2025-03-21,株式会社ｗａｖｅ,,株式会社,東京都,江戸川区,篠崎町６丁目１番２号,,13,123,1330061,,,,,,,2025-03-21,1,,,,,ウェーブ,0
253,2011703004169,新規,0,2025-03-21,2025-03-21,合同会社Ｊ,,合同会社,東京都,江戸川区,南小岩３丁目２５番２号,,13,123,1330056,,,,,,,2025-03-21,1,,,,,ジェイ,0
254,2012301014304,新規,0,2025-03-21,2025-03-21,株式会社ＰＵＬＳＥ,,株式会社,東京都,町田市,小川３丁目１１番地６,,13,209,1940003,,,,,,,2025-03-21,1,,,,,パルス,0
262,2013303007584,新規,0,2025-03-21,2025-03-21,アップデート合同会社,,合同会社,東京都,豊島区,南大塚１丁目３１－１７マイスターＳＹ,,13,116,1700005,,,,,,,2025-03-21,1,,,,,アップデート,0
268,2020001161911,新規,0,2025-03-21,2025-03-21,株式会社ビーフィニティ,,株式会社,神奈川県,横浜市保土ケ谷区,鎌谷町３１９番地１,,14,106,2400063,,,,,,,2025-03-21,1,,,,,ビーフィニティ,0
273,2021001084771,新規,0,2025-03-21,2025-03-21,Ｓ技研株式会社,,株式会社,神奈川県,海老名市,国分南２丁目１１番１７号倉橋コーポ１号室,,14,215,2430405,,,,,,,2025-03-21,1,,,,,エスギケン,0
274,2021003015758,新規,0,2025-03-21,2025-03-21,Ｈｕｅ１ｓｔ合同会社,,合同会社,神奈川県,茅ヶ崎市,赤羽根１３２２番地１,,14,207,2530001,,,,,,,2025-03-21,1,,,,,ヒューファースト,0
277,2030001165465,新規,0,2025-03-21,2025-03-21,飛天商事株式会社,,株式会社,埼玉県,川口市,並木３丁目８番２３号,,11,203,3320034,,,,,,,2025-03-21,1,,,,,ヒテンショウジ,0
283,2030005022084,新規,0,2025-03-21,2025-03-21,一般社団法人人力,,その他の設立登記法人,埼玉県,さいたま市桜区,大字上大久保２８４番地１８,,11,106,3380824,,,,,,,2025-03-21,1,,,,,ジンリョク,0
286,2040001137942,新規,0,2025-03-21,2025-03-21,株式会社Ｋ　ａｎｄ,,株式会社,千葉県,流山市,大字東深井９２１番地の１４０,,12,220,2700101,,,,,,,2025-03-21,1,,,,,ケイアンド,0
288,2040003027118,新規,0,2025-03-21,2025-03-21,合同会社Ｙｏｐｐｙ　Ｊａｐａｎ,,合同会社,千葉県,千葉市中央区,中央４丁目３番４号ハミング中央ビル,,12,101,2600013,,,,,,,2025-03-21,1,,,,,ヨッピージャパン,0
290,2050001056357,新規,0,2025-03-21,2025-03-21,ＥＮＩＸＩｎｅｘｕｓ株式会社,,株式会社,茨城県,土浦市,荒川沖東１丁目３－２１－１,,08,203,3000871,,,,,,,2025-03-21,1,,,,,エニシネクサス,0
291,2050001056365,新規,0,2025-03-21,2025-03-21,株式会社レイワホールディング,,株式会社,茨城県,牛久市,栄町１丁目９番地２,,08,219,3001233,,,,,,,2025-03-21,1,,,,,レイワホールディング,0
292,2050001056373,新規,0,2025-03-21,2025-03-21,株式会社Ｙｏｕ．Ｌｉｆｅ,,株式会社,茨城県,つくば市,研究学園５丁目５番地１０,,08,220,3050817,,,,,,,2025-03-21,1,,,,,ユーライフ,0
294,2060005010318,新規,0,2025-03-21,2025-03-21,特定非営利活動法人寺尾学童保育の会,,その他の設立登記法人,栃木県,栃木市,都賀町大柿１０１７番地,,09,203,3280101,,,,,,,2025-03-21,1,,,,,テラオガクドウホイクノカイ,0
299,2100001038399,新規,0,2025-03-21,2025-03-21,ソアル株式会社,,株式会社,長野県,岡谷市,中央町２丁目２－１アミューズメント施設２階,,20,204,3940027,,,,,,,2025-03-21,1,,,,,ソアル,0
302,2110005017200,新規,0,2025-03-21,2025-03-21,一般社団法人ガーディアンズネット長岡,,その他の設立登記法人,新潟県,長岡市,下山３丁目２３９０番地６,,15,202,9402115,,,,,,,2025-03-21,1,,,,,ガーディアンズネットナガオカ,0
306,2120001273795,新規,0,2025-03-21,2025-03-21,株式会社ミカタ,,株式会社,大阪府,大阪市北区,梅田１丁目２番２号大阪駅前第２ビル１２－１２,,27,127,5300001,,,,,,,2025-03-21,1,,,,,ミカタ,0
307,2120001273812,新規,0,2025-03-21,2025-03-21,株式会社ジェイド,,株式会社,大阪府,大阪市北区,梅田１丁目３番１号大阪駅前第１ビル８階５号,,27,127,5300001,,,,,,,2025-03-21,1,,,,,ジェイド,0
308,2120001273820,新規,0,2025-03-21,2025-03-21,澳華国際株式会社,,株式会社,大阪府,大阪市浪速区,恵美須東２丁目６番１５－２０２号,,27,111,5560002,,,,,,,2025-03-21,1,,,,,オキカコクサイ,0
309,2120001273837,新規,0,2025-03-21,2025-03-21,株式会社Ｏｌｉｖｅ　Ｏｗｌ,,株式会社,大阪府,寝屋川市,香里新町２４番１４号,,27,215,5720085,,,,,,,2025-03-21,1,,,,,オリーブオラ,0
310,2120001273878,新規,0,2025-03-21,2025-03-21,株式会社Ｓｕｏｉｉ,,株式会社,大阪府,大阪市城東区,関目５丁目１９番９号関目花博公館６１１Ａ,,27,118,5360008,,,,,,,2025-03-21,1,,,,,サオイー,0
311,2120001273886,新規,0,2025-03-21,2025-03-21,株式会社徳天商事,,株式会社,大阪府,大阪市城東区,諏訪３丁目１７－９放出南コーポ４０２,,27,118,5360021,,,,,,,2025-03-21,1,,,,,トクテンショージ,0
312,2120001273894,新規,0,2025-03-21,2025-03-21,株式会社キタケンホールディングス,,株式会社,大阪府,大阪市中央区,博労町４丁目４番１号,,27,128,5410059,,,,,,,2025-03-21,1,,,,,キタケンホールディングス,0
313,2120001273903,新規,0,2025-03-21,2025-03-21,株式会社ＧＥＭ,,株式会社,大阪府,大阪市東淀川区,東中島２丁目８番２１－１３０１号,,27,114,5330033,,,,,,,2025-03-21,1,,,,,ジーイーエム,0
314,2120001273985,新規,0,2025-03-21,2025-03-21,株式会社Ｎ‐Ｖｉｓｉｏｎ,,株式会社,大阪府,大阪市北区,梅田１丁目１‐３大阪駅前第３ビル２９階１‐１‐１号室,,27,127,5300001,,,,,,,2025-03-21,1,,,,,エヌビジョン,0
315,2120003028875,新規,0,2025-03-21,2025-03-21,サンク合同会社,,合同会社,大阪府,大阪市北区,梅田１丁目１番３号,,27,127,5300001,,,,,,,2025-03-21,1,,,,,サンク,0
316,2120003028883,新規,0,2025-03-21,2025-03-21,合同会社ノックオンウッド,,合同会社,大阪府,大阪市福島区,大開３丁目７番１－３０６号,,27,103,5530007,,,,,,,2025-03-21,1,,,,,ノックオンウッド,0
323,2120101071281,新規,0,2025-03-21,2025-03-21,Ａモバイル株式会社,,株式会社,大阪府,堺市堺区,南半町東１丁１番１０号,,27,141,5900966,,,,,,,2025-03-21,1,,,,,エーモバイル,0
324,2120101071298,新規,0,2025-03-21,2025-03-21,株式会社萬亮貿易,,株式会社,大阪府,貝塚市,三ツ松１３４１番地２,,27,208,5970105,,,,,,,2025-03-21,1,,,,,マンリョウボウエキ,0
326,2120103006310,新規,0,2025-03-21,2025-03-21,Ｎｅｘｔ　ｈｅａｌ合同会社,,合同会社,大阪府,堺市堺区,向陵中町４丁５番２７号中谷ビル別館２Ｆ,,27,141,5900024,,,,,,,2025-03-21,1,,,,,ネクストヒール,0
328,2120903005593,新規,0,2025-03-21,2025-03-21,合同会社篝火プロジェクト,,合同会社,大阪府,箕面市,箕面５丁目１１番２号,,27,220,5620001,,,,,,,2025-03-21,1,,,,,カガリビプロジェクト,0
330,2122001039004,新規,0,2025-03-21,2025-03-21,株式会社ＳＬＯＷＨＯＭＥ,,株式会社,大阪府,八尾市,若林町３丁目２平尾マンション１０５号室,,27,212,5810038,,,,,,,2025-03-21,1,,,,,スローホーム,0
337,2180001165979,新規,0,2025-03-21,2025-03-21,株式会社Ｃｏｎｎｅｃｔ　ｗｉｔｈ　Ｙｏｕ,,株式会社,愛知県,知多郡南知多町,大字片名字浜山１番地の３７チッタナポリＧ４１１,,23,445,4703502,,,,,,,2025-03-21,1,,,,,コネクトウィズユー,0
338,2180001165995,新規,0,2025-03-21,2025-03-21,株式会社三幸,,株式会社,愛知県,日進市,藤塚６丁目３５９－１,,23,230,4700117,,,,,,,2025-03-21,1,,,,,ミサチ,0
341,2190001032088,新規,0,2025-03-21,2025-03-21,株式会社奥野屋,,株式会社,三重県,伊勢市,宇治今在家町１８番地,,24,203,5160024,,,,,,,2025-03-21,1,,,,,オクノヤ,0
342,2190003004969,新規,0,2025-03-21,2025-03-21,合同会社水谷Ｅｓｔａｔｅ,,合同会社,三重県,員弁郡東員町,大字中上５１４番地１,,24,324,5110254,,,,,,,2025-03-21,1,,,,,ミズタニエステート,0
345,2200001043554,新規,0,2025-03-21,2025-03-21,株式会社ちさと舘,,株式会社,岐阜県,大垣市,林町８丁目５３番地,,21,202,5030015,,,,,,,2025-03-21,1,,,,,チサトカン,0
352,2240001064670,新規,0,2025-03-21,2025-03-21,株式会社相生橋ビル,,株式会社,広島県,広島市安佐南区,中須１丁目４６番６－１号,,34,105,7310121,,,,,,,2025-03-21,1,,,,,アイオイバシビル,0
365,2290001109388,新規,0,2025-03-21,2025-03-21,和源智上株式会社,,株式会社,福岡県,福岡市中央区,荒戸１丁目１５番１１号グランパーク西公園６０５号室,,40,133,8100062,,,,,,,2025-03-21,1,,,,,ワゲンチジョウ,0
366,2290003016566,新規,0,2025-03-21,2025-03-21,合同会社イシダ音楽企画,,合同会社,福岡県,久留米市,通東町６番地４,,40,203,8300016,,,,,,,2025-03-21,1,,,,,イシダオンガクキカク,0
367,2290003016574,新規,0,2025-03-21,2025-03-21,ゆたか堂本舗合同会社,,合同会社,福岡県,糟屋郡志免町,南里６丁目３－１７－３０２,,40,343,8112207,,,,,,,2025-03-21,1,,,,,ユタカドウホンポ,0
369,2290005019682,新規,0,2025-03-21,2025-03-21,一般社団法人地域ブランド創造ラボ,,その他の設立登記法人,福岡県,福岡市博多区,博多駅前４丁目１８－２５エスリードグランビューロー博多駅前９０１,,40,132,8120011,,,,,,,2025-03-21,1,,,,,チイキブランドソウゾウラボ,0
372,2330001032957,新規,0,2025-03-21,2025-03-21,株式会社ゼロニフューネ,,株式会社,熊本県,玉名郡南関町,大字関町１番地,,43,367,8610803,,,,,,,2025-03-21,1,,,,,ゼロニフューネ,0
382,2360005007192,新規,0,2025-03-21,2025-03-21,一般社団法人ＲｉｓｅＢａｓｅおきなわ,,その他の設立登記法人,沖縄県,那覇市,田原３丁目７－２小禄リースビル４０５,,47,201,9010156,,,,,,,2025-03-21,1,,,,,ライズベースオキナワ,0
385,2370001052365,新規,0,2025-03-21,2025-03-21,Ｗｅｌｌ‐４Ｂ株式会社,,株式会社,宮城県,宮城郡利府町,花園２丁目６番地６,,04,406,9810132,,,,,,,2025-03-21,1,,,,,ウェルフォービー,0
387,2380001035170,新規,0,2025-03-21,2025-03-21,株式会社光,,株式会社,福島県,安達郡大玉村,大山字岩ケ作７番地,,07,322,9691301,,,,,,,2025-03-21,1,,,,,ヒカリ,0
391,2380005012934,新規,0,2025-03-21,2025-03-21,特定非営利活動法人ＳＨＩＯＲＩＣＨ,,その他の設立登記法人,福島県,郡山市,桑野３丁目１４番２７号カレッツァ桑野１０５,,07,203,9638025,,,,,,,2025-03-21,1,,,,,シオリッチ,0
394,2430001093964,新規,0,2025-03-21,2025-03-21,Ｓｍａｌｌ　Ｊａｐａｎｅｓｅ株式会社,,株式会社,北海道,札幌市豊平区,豊平八条８丁目１番１３－２０１号,,01,105,0620908,,,,,,,2025-03-21,1,,,,,スモールジャパニーズ,0
395,2430001093972,新規,0,2025-03-21,2025-03-21,株式会社エイルブリッジ,,株式会社,北海道,札幌市中央区,北十条西１５丁目１番地４,,01,101,0600010,,,,,,,2025-03-21,1,,,,,エイルブリッジ,0
396,2430001093980,新規,0,2025-03-21,2025-03-21,株式会社どさんこ建築,,株式会社,北海道,札幌市東区,北四十九条東１４丁目２番１８号サンパティックメゾン栄Ａ２０１号,,01,103,0070849,,,,,,,2025-03-21,1,,,,,ドサンコケンチク,0
402,2500001026207,新規,0,2025-03-21,2025-03-21,株式会社バイロン,,株式会社,愛媛県,松山市,堀江町甲４２６番地１,,38,201,7992651,,,,,,,2025-03-21,1,,,,,バイロン,0
412,3010001253353,新規,0,2025-03-21,2025-03-21,株式会社ＯＭＮＩＦＬＯＷ,,株式会社,東京都,千代田区,平河町１丁目６番１５号ＵＳビル８Ｆ,,13,101,1020093,,,,,,,2025-03-21,1,,,,,オムニフロー,0
413,3010001253361,新規,0,2025-03-21,2025-03-21,株式会社ＴＬメディカル,,株式会社,東京都,千代田区,四番町２番地６四番町二ノ六２０２号,,13,101,1020081,,,,,,,2025-03-21,1,,,,,ティーエルメディカル,0
419,3010003046747,新規,0,2025-03-21,2025-03-21,合同会社ＭＯＺＵ,,合同会社,東京都,中央区,日本橋室町１丁目１１番１２号日本橋水野ビル７階,,13,102,1030022,,,,,,,2025-03-21,1,,,,,モズ,0
420,3010003046813,新規,0,2025-03-21,2025-03-21,合同会社アーク,,合同会社,東京都,千代田区,永田町２丁目１７番５号,,13,101,1000014,,,,,,,2025-03-21,1,,,,,アーク,0
421,3010003046821,新規,0,2025-03-21,2025-03-21,サトコト合同会社,,合同会社,東京都,中央区,日本橋兜町１７番２号兜町第六葉山ビル４階,,13,102,1030026,,,,,,,2025-03-21,1,,,,,サトコト,0
422,3010003046838,新規,0,2025-03-21,2025-03-21,合同会社フロンティア,,合同会社,東京都,中央区,銀座１丁目１２番４号Ｎ＆Ｅ－ＢＬＤ．６Ｆ,,13,102,1040061,,,,,,,2025-03-21,1,,,,,フロンティア,0
432,3010401189032,新規,0,2025-03-21,2025-03-21,令和ディベロッパー株式会社,,株式会社,東京都,港区,芝浦４丁目１９番１－４８０４号,,13,103,1080023,,,,,,,2025-03-21,1,,,,,レイワディベロッパー,0
433,3010401189065,新規,0,2025-03-21,2025-03-21,株式会社ＣＩＥＬ,,株式会社,東京都,港区,北青山１丁目３―３三橋ビル３階,,13,103,1070061,,,,,,,2025-03-21,1,,,,,シエル,0
436,3010403034673,新規,0,2025-03-21,2025-03-21,合同会社Ｄｉｆｉゲーミングバンク,,合同会社,東京都,港区,芝５丁目１９番５号３０２,,13,103,1080014,,,,,,,2025-03-21,1,,,,,ディファゲーミングバンク,0
438,3010405024210,新規,0,2025-03-21,2025-03-21,医療法人社団東京メディカルテラス,,その他の設立登記法人,東京都,港区,北青山２丁目１３番４号青山ＭＹビル４階,,13,103,1070061,,,,,,,2025-03-21,1,,,,,トウキョウメディカルテラス,0
442,3010701047360,新規,0,2025-03-21,2025-03-21,テクス株式会社,,株式会社,東京都,品川区,北品川４丁目８番１４－１０８号,,13,109,1400001,,,,,,,2025-03-21,1,,,,,テクス,0
443,3010703007619,新規,0,2025-03-21,2025-03-21,ＢＬＯＳＳＯＭ合同会社,,合同会社,東京都,品川区,西五反田２丁目２２番６号－１３０１,,13,109,1410031,,,,,,,2025-03-21,1,,,,,ブロッサム,0
446,3010901057060,新規,0,2025-03-21,2025-03-21,株式会社コウグ,,株式会社,東京都,世田谷区,若林４丁目２３番１１号２階,,13,112,1540023,,,,,,,2025-03-21,1,,,,,コウグ,0
451,3011001168327,新規,0,2025-03-21,2025-03-21,株式会社ＳｕｓｈｉＬｉｎＸ,,株式会社,東京都,渋谷区,恵比寿４丁目２２番２１号ヒルサイド恵比寿２０１,,13,113,1500013,,,,,,,2025-03-21,1,,,,,スシリンクス,0
452,3011001168335,新規,0,2025-03-21,2025-03-21,株式会社ＫＡＥＮＳ,,株式会社,東京都,渋谷区,桜丘町１５番１４号,,13,113,1500031,,,,,,,2025-03-21,1,,,,,カエンス,0
453,3011001168566,新規,0,2025-03-21,2025-03-21,株式会社ラフロード,,株式会社,東京都,渋谷区,道玄坂１丁目１０‐８渋谷道玄坂東急ビル２Ｆ‐Ｃ,,13,113,1500043,,,,,,,2025-03-21,1,,,,,ラフロード,0
455,3011003021194,新規,0,2025-03-21,2025-03-21,ＵＳＧＦＸ合同会社,,合同会社,東京都,渋谷区,渋谷２丁目１９‐１５宮益坂ビルディング６０９,,13,113,1500002,,,,,,,2025-03-21,1,,,,,ユーエスジーエフエックス,0
461,3011103015666,新規,0,2025-03-21,2025-03-21,合同会社ＭＩＣＯ,,合同会社,東京都,新宿区,西新宿３丁目３番１３号西新宿水間ビル２Ｆ,,13,104,1600023,,,,,,,2025-03-21,1,,,,,ミコ,0
478,3012401042906,新規,0,2025-03-21,2025-03-21,Ｔ’ｓ　ｈｏｍｅ株式会社,,株式会社,東京都,武蔵野市,関前３丁目３０番１１－１１１号,,13,203,1800014,,,,,,,2025-03-21,1,,,,,ティーズホーム,0
480,3012403007023,新規,0,2025-03-21,2025-03-21,合同会社ＢＬＯＯＭ,,合同会社,東京都,調布市,佐須町４丁目１６番地７,,13,208,1820016,,,,,,,2025-03-21,1,,,,,ブルーム,0
481,3012701018762,新規,0,2025-03-21,2025-03-21,株式会社Ｋ．Ｈ．Ｔ,,株式会社,東京都,東村山市,富士見町３丁目１２番地９３,,13,213,1890024,,,,,,,2025-03-21,1,,,,,ケーエイチティー,0
490,3020001161910,新規,0,2025-03-21,2025-03-21,株式会社Ｆａｎｃｙ,,株式会社,神奈川県,横浜市保土ケ谷区,常盤台２６番１８号,,14,106,2400067,,,,,,,2025-03-21,1,,,,,ファンシー,0
491,3020001161968,新規,0,2025-03-21,2025-03-21,株式会社ライトモード,,株式会社,神奈川県,横浜市港北区,箕輪町３丁目５番７－２号,,14,109,2230051,,,,,,,2025-03-21,1,,,,,ライトモード,0
492,3020003028083,新規,0,2025-03-21,2025-03-21,ＫＡＮコンサルティング合同会社,,合同会社,神奈川県,横浜市青葉区,桜台４４番１８号,,14,117,2270061,,,,,,,2025-03-21,1,,,,,カンコンサルティング,0
493,3020003028109,新規,0,2025-03-21,2025-03-21,ＢＬＡ薬事戦略コンサルティング合同会社,,合同会社,神奈川県,横浜市都筑区,中川中央１丁目３０番１号プレミアヨコハマ３Ｆ,,14,118,2240003,,,,,,,2025-03-21,1,,,,,ビーエルエーヤクジセンリャクコンサルティング,0
494,3021003015765,新規,0,2025-03-21,2025-03-21,Ｌａｎｋａ　ＲＮＡ合同会社,,合同会社,神奈川県,綾瀬市,小園１４６７－３２,,14,218,2521121,,,,,,,2025-03-21,1,,,,,ランカアールエヌエー,0
495,3030001165497,新規,0,2025-03-21,2025-03-21,株式会社エヌイーテック,,株式会社,埼玉県,本庄市,児玉町共栄３５０番地２４,,11,211,3670206,,,,,,,2025-03-21,1,,,,,エヌイーテック,0
496,3030001165522,新規,0,2025-03-21,2025-03-21,株式会社ＪＬＢ,,株式会社,埼玉県,川口市,西川口３丁目１０番２５号,,11,203,3320021,,,,,,,2025-03-21,1,,,,,ジェーエルビー,0
497,3030001165530,新規,0,2025-03-21,2025-03-21,株式会社ＵＮＩＴＹ,,株式会社,埼玉県,蕨市,塚越７丁目６番２号,,11,223,3350002,,,,,,,2025-03-21,1,,,,,ユニティ,0
505,3030003026383,新規,0,2025-03-21,2025-03-21,ＮＯＳＴＡＬＧ合同会社,,合同会社,埼玉県,川口市,芝中田１丁目２６－２５,,11,203,3330847,,,,,,,2025-03-21,1,,,,,ノスタルジー,0
506,3030003026391,新規,0,2025-03-21,2025-03-21,合同会社カーメイクエスエス,,合同会社,埼玉県,さいたま市西区,大字中釘８００－３,,11,101,3310077,,,,,,,2025-03-21,1,,,,,カーメイクエスエス,0
509,3040001137925,新規,0,2025-03-21,2025-03-21,株式会社ＡＳＴＯＶＡ,,株式会社,千葉県,松戸市,本町１７番地１１芹澤ビル６Ｆ,,12,207,2710091,,,,,,,2025-03-21,1,,,,,アストヴァ,0
514,3050003009122,新規,0,2025-03-21,2025-03-21,カオリショウカイ合同会社,,合同会社,茨城県,結城市,大字上山川字百野６１１８番１,,08,207,3070021,,,,,,,2025-03-21,1,,,,,カオリショウカイ,0
515,3050005013584,新規,0,2025-03-21,2025-03-21,一般社団法人Ｍ＆Ｎ・ＣＯＮＮＥＣＴ,,その他の設立登記法人,茨城県,水戸市,梅香２丁目３番３８号,,08,201,3100022,,,,,,,2025-03-21,1,,,,,エムアンドエヌコネクト,0
526,3090001019185,新規,0,2025-03-21,2025-03-21,株式会社いけぶくろ商会,,株式会社,山梨県,山梨市,小原東９２７番地１,,19,205,4050005,,,,,,,2025-03-21,1,,,,,イケブクロショウカイ,0
535,3120001273794,新規,0,2025-03-21,2025-03-21,株式会社Ｗｅｌｉｎａ．,,株式会社,大阪府,大阪市中央区,北浜東４－３３北浜ネクスビルディングＢ１,,27,128,5400031,,,,,,,2025-03-21,1,,,,,ウェリナ,0
536,3120001273902,新規,0,2025-03-21,2025-03-21,株式会社Ａｐｏｌｌｏ,,株式会社,大阪府,大阪市中央区,宗右衛門町３番１１号ダテビル２階南側,,27,128,5420084,,,,,,,2025-03-21,1,,,,,アポロ,0
540,3120003028924,新規,0,2025-03-21,2025-03-21,合同会社ルミナス,,合同会社,大阪府,大阪市西成区,萩之茶屋１丁目５番６号１階,,27,122,5570004,,,,,,,2025-03-21,1,,,,,ルミナス,0
546,3120101071272,新規,0,2025-03-21,2025-03-21,株式会社Ｇｏｏｄ　Ｌｉｆｅ,,株式会社,大阪府,岸和田市,尾生町３丁目４番１１号,,27,202,5960816,,,,,,,2025-03-21,1,,,,,グッドライフ,0
547,3120101071280,新規,0,2025-03-21,2025-03-21,Ａスキン株式会社,,株式会社,大阪府,堺市堺区,南半町東１丁１番１０号,,27,141,5900966,,,,,,,2025-03-21,1,,,,,エースキン,0
548,3120101071289,新規,0,2025-03-21,2025-03-21,株式会社心芽翔,,株式会社,大阪府,岸和田市,尾生町７丁目８番３５号,,27,202,5960816,,,,,,,2025-03-21,1,,,,,ココメイト,0
549,3120101071297,新規,0,2025-03-21,2025-03-21,株式会社プレシアフクル,,株式会社,大阪府,堺市堺区,熊野町東１丁１番２号,,27,141,5900946,,,,,,,2025-03-21,1,,,,,プレシアフクル,0
550,3120103006326,新規,0,2025-03-21,2025-03-21,合同会社庭フク,,合同会社,大阪府,岸和田市,岡山町２２３番地,,27,202,5960814,,,,,,,2025-03-21,1,,,,,ニワフク,0
551,3120103006334,新規,0,2025-03-21,2025-03-21,合同会社ｍｉｎａｍｉ,,合同会社,大阪府,河内長野市,木戸３丁目２３番１１号,,27,216,5860001,,,,,,,2025-03-21,1,,,,,ミナミ,0
557,3130001079241,新規,0,2025-03-21,2025-03-21,株式会社Ｔ２警備保障,,株式会社,京都府,京都市山科区,川田御輿塚町２４番地１７,00138407,26,110,6070000,,,,,,,2025-03-21,1,,,,,ティーツーケイビホショウ,0
558,3130003010294,新規,0,2025-03-21,2025-03-21,合同会社ＳＥＳＭＥＤ,,合同会社,京都府,亀岡市,大井町小金岐２丁目１９番１号,,26,206,6210018,,,,,,,2025-03-21,1,,,,,セスメッド,0
559,3130003010303,新規,0,2025-03-21,2025-03-21,水野商事合同会社,,合同会社,京都府,京都市西京区,上桂森下町１番地１４７,,26,111,6158225,,,,,,,2025-03-21,1,,,,,ミズノショウジ,0
566,3180001166002,新規,0,2025-03-21,2025-03-21,株式会社Ｓｕｐｅｒｆａｓｔ,,株式会社,愛知県,名古屋市中区,錦１丁目２番２５号グランドメゾン伏見９０２号,,23,106,4600003,,,,,,,2025-03-21,1,,,,,スーパーファスト,0
571,3180003028183,新規,0,2025-03-21,2025-03-21,ＡＢＩＤ　ＡＵＴＯ　ＴＲＡＤＩＮＧ合同会社,,合同会社,愛知県,岩倉市,下本町燈明庵１５９番１マンション千代１０２,,23,228,4820005,,,,,,,2025-03-21,1,,,,,アビッドオートトレーディング,0
576,3190001032087,新規,0,2025-03-21,2025-03-21,株式会社鷲竹アグリ,,株式会社,三重県,尾鷲市,瀬木山町８番１号,,24,209,5193613,,,,,,,2025-03-21,1,,,,,ワシタケアグリ,0
581,3230001020797,新規,0,2025-03-21,2025-03-21,株式会社たつきマリンサービス,,株式会社,富山県,富山市,永久町１６番８号,,16,201,9318456,,,,,,,2025-03-21,1,,,,,タツキマリンサービス,0
582,3240001064678,新規,0,2025-03-21,2025-03-21,株式会社ヘルシアシティ,,株式会社,広島県,広島市中区,東白島町１１番２０号グラステック多田ビル２０１,,34,101,7300004,,,,,,,2025-03-21,1,,,,,ヘルシアシティ,0
598,3290001109346,新規,0,2025-03-21,2025-03-21,株式会社アスリープ,,株式会社,福岡県,福岡市博多区,博多駅東２丁目４番１７号,,40,132,8120013,,,,,,,2025-03-21,1,,,,,アスリープ,0
599,3290003016565,新規,0,2025-03-21,2025-03-21,合同会社ｍｉｎａｌｉｏｎ,,合同会社,福岡県,福岡市博多区,博多駅前１丁目２３番２号ＰａｒｋＦｒｏｎｔ博多駅前１丁目５Ｆ－Ｂ,,40,132,8120011,,,,,,,2025-03-21,1,,,,,ミナリオン,0
608,3340001027204,新規,0,2025-03-21,2025-03-21,株式会社ＫＭＸ,,株式会社,鹿児島県,出水市,大野原町２１４１番地,,46,208,8990216,,,,,,,2025-03-21,1,,,,,ケイエムエックス,0
610,3350003004877,新規,0,2025-03-21,2025-03-21,合同会社ｎｏｂｅｋｕｒｕｎａｉｓａ,,合同会社,宮崎県,延岡市,東本小路１２１－１　２Ｆ,,45,203,8820813,,,,,,,2025-03-21,1,,,,,ノベクルナイサ,0
613,3360001034941,新規,0,2025-03-21,2025-03-21,株式会社Ｓｗｉｆｔ　Ａｄｖａｎｃｅ,,株式会社,沖縄県,豊見城市,宜保１丁目６番地６（１－Ｃ）,,47,212,9010244,,,,,,,2025-03-21,1,,,,,スイフトアドバンス,0
624,3430003017409,新規,0,2025-03-21,2025-03-21,アミバ合同会社,,合同会社,北海道,札幌市中央区,南二条西８丁目１０番地シャンボール南２条８０５号,,01,101,0600062,,,,,,,2025-03-21,1,,,,,アミバ,0
625,3430003017417,新規,0,2025-03-21,2025-03-21,合同会社ａｒｕｋｕ,,合同会社,北海道,札幌市西区,二十四軒一条４丁目４番２号,,01,107,0630801,,,,,,,2025-03-21,1,,,,,アルク,0
626,3430003017425,新規,0,2025-03-21,2025-03-21,合同会社Ｒｙｕｃａ,,合同会社,北海道,札幌市中央区,南十八条西７丁目１番１５号４０５,,01,101,0640918,,,,,,,2025-03-21,1,,,,,リュカ,0
628,3450005004444,新規,0,2025-03-21,2025-03-21,医療法人社団わっかない皮フ科クリニック,,その他の設立登記法人,北海道,稚内市,潮見１丁目２番１号,,01,214,0970002,,,,,,,2025-03-21,1,,,,,ワッカナイヒフカクリニック,0
631,3500001026206,新規,0,2025-03-21,2025-03-21,株式会社ｖｉｂｅｓ,,株式会社,愛媛県,松山市,二番町１丁目９番地２１魚政ビル５Ｆ,,38,201,7900002,,,,,,,2025-03-21,1,,,,,バイブス,0
634,4010001253352,新規,0,2025-03-21,2025-03-21,Ｊｏｕｅｒ株式会社,,株式会社,東京都,中央区,銀座１丁目２２番１１号銀座大竹ビジデンス２Ｆ,,13,102,1040061,,,,,,,2025-03-21,1,,,,,ジュエ,0
635,4010001253377,新規,0,2025-03-21,2025-03-21,ＨＳＲ株式会社,,株式会社,東京都,千代田区,飯田橋３丁目１１番２２号,,13,101,1020072,,,,,,,2025-03-21,1,,,,,エイチエスアール,0
636,4010001253385,新規,0,2025-03-21,2025-03-21,金橋不動産株式会社,,株式会社,東京都,中央区,新富１丁目１６番８号日本印刷会館６階,,13,102,1040041,,,,,,,2025-03-21,1,,,,,カナハシフドウサン,0
639,4010003046812,新規,0,2025-03-21,2025-03-21,合同会社白桃社,,合同会社,東京都,文京区,春日１丁目５－３春日タウンホーム８０４号,,13,105,1120003,,,,,,,2025-03-21,1,,,,,ハクトウシャ,0
640,4010003046829,新規,0,2025-03-21,2025-03-21,合同会社小田橋,,合同会社,東京都,中央区,勝どき３丁目１２番１２号１１０４号,,13,102,1040054,,,,,,,2025-03-21,1,,,,,オダバシ,0
641,4010003046837,新規,0,2025-03-21,2025-03-21,ＭＳＧ合同会社,,合同会社,東京都,千代田区,四番町８番地１８プラネスーペリア四番町１００１号,,13,101,1020081,,,,,,,2025-03-21,1,,,,,エムエスジー,0
644,4010101016576,新規,0,2025-03-21,2025-03-21,Ｇｏｏｄ　Ｈｅａｒｔ　Ｃｏｒｐｏｒａｔｉｏｎ株式会社,,株式会社,東京都,八王子市,上柚木１６０２番地４,,13,201,1920373,,,,,,,2025-03-21,1,,,,,グッドハートコーポレーション,0
653,4010403034516,新規,0,2025-03-21,2025-03-21,ＤＥＶＴＲＥ合同会社,,合同会社,東京都,港区,南青山３丁目１番３６号青山丸竹ビル６Ｆ,,13,103,1070062,,,,,,,2025-03-21,1,,,,,デブトレ,0
654,4010403034598,新規,0,2025-03-21,2025-03-21,合同会社エテルナ,,合同会社,東京都,港区,西麻布４丁目２１番３号ヴェルス西麻布４０１,,13,103,1060031,,,,,,,2025-03-21,1,,,,,エテルナ,0
655,4010503007768,新規,0,2025-03-21,2025-03-21,ＳＡＬ　Ｉｎｎｏｖａｔｉｏｎｓ　Ｊａｐａｎ合同会社,,合同会社,東京都,台東区,寿３丁目９－３丸大ビル３Ｆ－０３,,13,106,1110042,,,,,,,2025-03-21,1,,,,,サルイノベーションズジャパン,0
657,4010601066996,新規,0,2025-03-21,2025-03-21,株式会社セイコードー,,株式会社,東京都,江東区,潮見２丁目４番１８号,,13,108,1350052,,,,,,,2025-03-21,1,,,,,セイコードー,0
660,4010905004751,新規,0,2025-03-21,2025-03-21,特定非営利活動法人Ｊａｐａｎ　Ａｆｒｉｃａ　Ｓａｋｕｒａ　Ｐｒｏｊｅｃｔ,,その他の設立登記法人,東京都,世田谷区,祖師谷４丁目６番３号,,13,112,1570072,,,,,,,2025-03-21,1,,,,,ジャパンアフリカサクラプロジェクト,0
662,4011001168318,新規,0,2025-03-21,2025-03-21,株式会社Ｏｃｃｉｄｅｎｔ,,株式会社,東京都,渋谷区,東１丁目８－８,,13,113,1500011,,,,,,,2025-03-21,1,,,,,オクシデント,0
663,4011001168458,新規,0,2025-03-21,2025-03-21,株式会社６９３インターナショナル,,株式会社,東京都,渋谷区,大山町２番１０号７０１,,13,113,1510065,,,,,,,2025-03-21,1,,,,,ムクサンインターナショナル,0
670,4011101111020,新規,0,2025-03-21,2025-03-21,株式会社ＣＩＺＭＯ,,株式会社,東京都,新宿区,新宿７丁目２６－３－４０５,,13,104,1600022,,,,,,,2025-03-21,1,,,,,シムモ,0
672,4011301030441,新規,0,2025-03-21,2025-03-21,株式会社宮崎電気商会,00138405,株式会社,東京都,杉並区,松ノ木２丁目２３番１１号,,13,115,1660014,,,,,,,2025-03-21,1,,,,,ミヤザキデンキショウカイ,0
674,4011303005466,新規,0,2025-03-21,2025-03-21,加瀬合同会社,,合同会社,東京都,杉並区,和田２丁目２９番１４号Ｋ’ｓｈｏｕｓｅ１０２,,13,115,1660012,,,,,,,2025-03-21,1,,,,,カセ,0
689,4020001161711,新規,0,2025-03-21,2025-03-21,株式会社ＹＯＵＲ,,株式会社,神奈川県,横浜市戸塚区,戸塚町１０８－４ワイエスビル１Ｆ,,14,110,2440003,,,,,,,2025-03-21,1,,,,,アワー,0
690,4020001161926,新規,0,2025-03-21,2025-03-21,株式会社ＩＧＱ,,株式会社,神奈川県,横浜市港南区,上大岡東１丁目１１番２７－３０１号,,14,111,2330001,,,,,,,2025-03-21,1,,,,,アイジーキュー,0
691,4020003028108,新規,0,2025-03-21,2025-03-21,合同会社ＵＬＵ,,合同会社,神奈川県,川崎市高津区,久地４丁目１３番１号３階,,14,134,2130032,,,,,,,2025-03-21,1,,,,,ウル,0
692,4020003028124,新規,0,2025-03-21,2025-03-21,合同会社Ｍｕｒｉｋａｂｏｓｈｉ,,合同会社,神奈川県,横浜市西区,浅間町１丁目４番３号ウィザードビル４０２,,14,103,2200072,,,,,,,2025-03-21,1,,,,,ムリカボシ,0
693,4020005016738,新規,0,2025-03-21,2025-03-21,医療法人迅誠会,,その他の設立登記法人,神奈川県,横浜市都筑区,中川中央１丁目２番１号ヴァンクールセンター北２Ｆ,,14,118,2240003,,,,,,,2025-03-21,1,,,,,ジンセイカイ,0
694,4021001084778,新規,0,2025-03-21,2025-03-21,株式会社和縁,,株式会社,神奈川県,中郡大磯町,西小磯４０６番地１,,14,341,2550005,,,,,,,2025-03-21,1,,,,,ワエン,0
696,4030001165488,新規,0,2025-03-21,2025-03-21,株式会社Ｅｒａｐｔｏｒ,,株式会社,埼玉県,草加市,青柳２丁目２７－６７－１０４－２,,11,221,3400002,,,,,,,2025-03-21,1,,,,,エラプトル,0
697,4030001165538,新規,0,2025-03-21,2025-03-21,株式会社兆景グループ,,株式会社,埼玉県,川口市,元郷２丁目１５番１－２５０７号エルザタワー５５,,11,203,3320011,,,,,,,2025-03-21,1,,,,,チョウケイグループ,0
704,4040001137908,新規,0,2025-03-21,2025-03-21,株式会社アゲイン,,株式会社,千葉県,船橋市,本町４丁目１６番３０号第一田中ハイツ１０１,,12,204,2730005,,,,,,,2025-03-21,1,,,,,アゲイン,0
705,4040001137916,新規,0,2025-03-21,2025-03-21,株式会社まめまる,,株式会社,千葉県,松戸市,小金きよしケ丘４丁目１５番地の１,,12,207,2700013,,,,,,,2025-03-21,1,,,,,マメマル,0
710,4050001056355,新規,0,2025-03-21,2025-03-21,株式会社マーキュリー,,株式会社,茨城県,水戸市,笠原町５３５番地の２ベルメゾンＢ１０２号,,08,201,3100852,,,,,,,2025-03-21,1,,,,,マーキュリー,0
711,4050001056363,新規,0,2025-03-21,2025-03-21,株式会社ＭＨプランニング,,株式会社,茨城県,水戸市,元吉田町６３１番地の３２,,08,201,3100836,,,,,,,2025-03-21,1,,,,,エムエイチプランニング,0
712,4050003009113,新規,0,2025-03-21,2025-03-21,合同会社Ｋｎｕｃｋｌｅ,,合同会社,茨城県,水戸市,元吉田町２６２３番地の４,,08,201,3100836,,,,,,,2025-03-21,1,,,,,ナックル,0
723,4100001038372,新規,0,2025-03-21,2025-03-21,株式会社ＩＭＡＤＥＹＡホールディングス,,株式会社,長野県,北佐久郡軽井沢町,大字長倉４４７番地７,,20,321,3890111,,,,,,,2025-03-21,1,,,,,イマデヤホールディングス,0
724,4100001038406,新規,0,2025-03-21,2025-03-21,株式会社アフル,,株式会社,長野県,佐久市,中込３６１１番地２０３,,20,217,3850051,,,,,,,2025-03-21,1,,,,,アフル,0
725,4100003008051,新規,0,2025-03-21,2025-03-21,紅虎合同会社,,合同会社,長野県,須坂市,大字沼目４６７番地２,,20,207,3820000,,,,,,,2025-03-21,1,,,,,ベニトラ,0
726,4100005013314,新規,0,2025-03-21,2025-03-21,一般社団法人りりなパンダ基金会,,その他の設立登記法人,長野県,松本市,大手３丁目４番３号,,20,202,3900874,,,,,,,2025-03-21,1,,,,,リリナパンダキキンカイ,0
739,4120001273752,新規,0,2025-03-21,2025-03-21,株式会社トライフォース,,株式会社,大阪府,門真市,三ツ島４丁目６９８番１０,,27,223,5710015,,,,,,,2025-03-21,1,,,,,トライフォース,0
740,4120001273810,新規,0,2025-03-21,2025-03-21,碩豊株式会社,,株式会社,大阪府,大阪市西成区,萩之茶屋１丁目１２番７号万葉ビル３１号室,,27,122,5570004,,,,,,,2025-03-21,1,,,,,セキホウ,0
744,4120003028758,新規,0,2025-03-21,2025-03-21,合同会社西野ゆがみリセット,,合同会社,大阪府,大阪市中央区,高麗橋２丁目２－２日宝北浜ビル３Ｆ５,,27,128,5410043,,,,,,,2025-03-21,1,,,,,,0
745,4120003028923,新規,0,2025-03-21,2025-03-21,合同会社ココハナ,,合同会社,大阪府,大阪市北区,梅田１丁目１－３大阪駅前第３ビル２９階１－１－１号室,,27,127,5300001,,,,,,,2025-03-21,1,,,,,ココハナ,0
748,4120101071271,新規,0,2025-03-21,2025-03-21,株式会社わっぜん,,株式会社,大阪府,堺市堺区,北庄町１丁６－２グランデ堺東１階,,27,141,5900007,,,,,,,2025-03-21,1,,,,,ワッゼン,0
749,4120101071296,新規,0,2025-03-21,2025-03-21,ＯＭＯＲＯＢＯＴ株式会社,,株式会社,大阪府,松原市,高見の里６丁目７－１８,,27,217,5800021,,,,,,,2025-03-21,1,,,,,オモロボット,0
750,4120101071305,新規,0,2025-03-21,2025-03-21,株式会社デザインエッジ,,株式会社,大阪府,堺市南区,原山台５丁３番３－３１２号,,27,145,5900132,,,,,,,2025-03-21,1,,,,,デザインエッジ,0
752,4120103006333,新規,0,2025-03-21,2025-03-21,ＣＲＯＣＯＳ合同会社,,合同会社,大阪府,大阪狭山市,池尻自由丘２丁目７番７号,,27,231,5890008,,,,,,,2025-03-21,1,,,,,クロコズ,0
755,4130001079249,新規,0,2025-03-21,2025-03-21,株式会社猪奥,,株式会社,京都府,南丹市,日吉町胡麻ドバシ４番地１,,26,213,6290311,,,,,,,2025-03-21,1,,,,,イノオク,0
763,4150001027957,新規,0,2025-03-21,2025-03-21,株式会社Ｕ’ｓ,,株式会社,奈良県,生駒市,小明町７８１番地１３,,29,209,6300201,,,,,,,2025-03-21,1,,,,,ユーズ,0
768,4170001018541,新規,0,2025-03-21,2025-03-21,株式会社ＯＴＡ,,株式会社,和歌山県,和歌山市,杭ノ瀬１０１番地２７,,30,201,6410001,,,,,,,2025-03-21,1,,,,,オオタ,0
774,4180001165977,新規,0,2025-03-21,2025-03-21,ＨＡＭＺＡ　ＴＲＡＤＩＮＧ株式会社,,株式会社,愛知県,弥富市,鯏浦町気開１３６番地ユーパティオ３０１,,23,235,4980024,,,,,,,2025-03-21,1,,,,,ハムザトレーディング,0
775,4180001166001,新規,0,2025-03-21,2025-03-21,株式会社地域企画,,株式会社,愛知県,愛西市,柚木町中田面５３０番地,,23,232,4960904,,,,,,,2025-03-21,1,,,,,チイキキカク,0
778,4180003028174,新規,0,2025-03-21,2025-03-21,合同会社ｗｅａｖｅ,,合同会社,愛知県,海部郡大治町,大字北間島字屋敷９２番地,,23,424,4901132,,,,,,,2025-03-21,1,,,,,ウィーヴ,0
785,4190005012027,新規,0,2025-03-21,2025-03-21,一般社団法人桑名市観光協会,,その他の設立登記法人,三重県,桑名市,有楽町５９番地,,24,205,5110079,,,,,,,2025-03-21,1,,,,,クワナシカンコウキョウカイ,0
790,4240001064669,新規,0,2025-03-21,2025-03-21,株式会社三晃社西日本,,株式会社,広島県,広島市中区,立町２番２７号,,34,101,7300032,,,,,,,2025-03-21,1,,,,,サンコウシャニシニホン,0
791,4240001064677,新規,0,2025-03-21,2025-03-21,株式会社元気が一番,,株式会社,広島県,福山市,西深津町６丁目１番１９－６号,,34,207,7210975,,,,,,,2025-03-21,1,,,,,ゲンキガイチバン,0
794,4260003005099,新規,0,2025-03-21,2025-03-21,水星合同会社,,合同会社,岡山県,岡山市中区,原尾島２丁目１３番３３号,,33,102,7038235,,,,,,,2025-03-21,1,,,,,スイセイ,0
800,4290001109386,新規,0,2025-03-21,2025-03-21,株式会社三代目,,株式会社,福岡県,久留米市,六ツ門町７番地５２久留米ザ・ミッドタワー１８０１号,,40,203,8300031,,,,,,,2025-03-21,1,,,,,サンダイメ,0
801,4290001109394,新規,0,2025-03-21,2025-03-21,株式会社ＳＥＩＥＩ,,株式会社,福岡県,福岡市東区,千早１丁目１２番１２号,,40,131,8130044,,,,,,,2025-03-21,1,,,,,セイエイ,0
802,4290001109403,新規,0,2025-03-21,2025-03-21,梅田建設工業株式会社,,株式会社,福岡県,福岡市博多区,上呉服町１４番２７号,,40,132,8120036,,,,,,,2025-03-21,1,,,,,ウメダケンセツコウギョウ,0
804,4290003016473,新規,0,2025-03-21,2025-03-21,合同会社Ｗｅｌｌｎｅｓｓ　Ｉｎｆｉｎｉｔｙ,,合同会社,福岡県,福岡市早良区,飯倉３丁目１７－８,,40,137,8140161,,,,,,,2025-03-21,1,,,,,ウェルネスインフィニティ,0
805,4290003016564,新規,0,2025-03-21,2025-03-21,ｔｏｍｉｃ合同会社,,合同会社,福岡県,福岡市中央区,天神２丁目２番１２号Ｔ＆Ｊビルディング７階,,40,133,8100001,,,,,,,2025-03-21,1,,,,,トーミック,0
806,4290005019680,新規,0,2025-03-21,2025-03-21,ＮＰＯ法人Ｂｕｉｌｄ　Ｕｐ　Ｉｎｃｌｕｓｉｏｎ　ＦＵＫＵＯＫＡ,,その他の設立登記法人,福岡県,糟屋郡粕屋町,長者原東７丁目５－１９,,40,349,8112317,,,,,,,2025-03-21,1,,,,,ビルドアップインクルージョンフクオカ,0
809,4300003002249,新規,0,2025-03-21,2025-03-21,合同会社ジョー,,合同会社,佐賀県,佐賀市,川副町大字早津江津２３番地７,,41,201,8402202,,,,,,,2025-03-21,1,,,,,ジョー,0
815,4360005007190,新規,0,2025-03-21,2025-03-21,有機フッ素化合物除去事業協同組合,,その他の設立登記法人,沖縄県,沖縄市,諸見里３丁目３２番１８号．１階,,47,211,9040032,,,,,,,2025-03-21,1,,,,,ユウキフッソカゴウブツジョキョ,0
824,4380005012932,新規,0,2025-03-21,2025-03-21,医療法人絆永会,,その他の設立登記法人,福島県,須賀川市,大町４０３番地９,,07,207,9620839,,,,,,,2025-03-21,1,,,,,ハンナカイ,0
828,4430001093954,新規,0,2025-03-21,2025-03-21,株式会社ＫＯＳ,,株式会社,北海道,札幌市西区,八軒七条西７丁目２番２６号,,01,107,0630847,,,,,,,2025-03-21,1,,,,,コス,0
829,4430001093970,新規,0,2025-03-21,2025-03-21,株式会社Ｊｉｎｎ,,株式会社,北海道,札幌市中央区,南六条西１６丁目２番１０号メゾンラコム２０１号,,01,101,0640806,,,,,,,2025-03-21,1,,,,,ジン,0
830,4430001093979,新規,0,2025-03-21,2025-03-21,エス・ワーク株式会社,,株式会社,北海道,札幌市北区,新琴似三条６丁目４番６―１０５号,,01,102,0010903,,,,,,,2025-03-21,1,,,,,エスワーク,0
849,4700150129663,新規,0,2025-03-21,2025-03-21,デンバー・エクスポート・アンド・カーゴー・プライベート・リミテッド,,外国会社等,千葉県,千葉市花見川区,柏井町１５９３－２、１Ｆ,,12,102,2620041,ネパール連邦民主共和国タラケショル市第５区、カトマンズ,,,,,,2025-03-21,1,,,,,デンバーエクスポートアンドカーゴープライベートリミテツド,0
853,5010001253368,新規,0,2025-03-21,2025-03-21,株式会社Ｒｅｆｒａ,,株式会社,東京都,中央区,日本橋茅場町２丁目８－１ＢＲＩＣＫＧＡＴＥ茅場町株式会社Ｒｅｆｒａ,,13,102,1030025,,,,,,,2025-03-21,1,,,,,リフラ,0
854,5010001253384,新規,0,2025-03-21,2025-03-21,株式会社サワテック,,株式会社,東京都,千代田区,神田鍛冶町３丁目５,,13,101,1010045,,,,,,,2025-03-21,1,,,,,サワテック,0
856,5010003046794,新規,0,2025-03-21,2025-03-21,合同会社Ｐｒｏｕｄ　Ｌｉｆｅ,,合同会社,東京都,文京区,春日１丁目１１番１６－５０４,,13,105,1120003,,,,,,,2025-03-21,1,,,,,プラウドライフ,0
857,5010003046811,新規,0,2025-03-21,2025-03-21,Ｔｒｅｖｉ　Ｓｙｓｔｅｍｓ　Ｊａｐａｎ合同会社,,合同会社,東京都,中央区,八丁堀４丁目４番４号梅崎ビル３階,,13,102,1040032,,,,,,,2025-03-21,1,,,,,トレビシステムズジャパン,0
858,5010003046836,新規,0,2025-03-21,2025-03-21,ＺＩＰＰＥＲ合同会社,,合同会社,東京都,中央区,銀座１丁目２２番１１号,,13,102,1040061,,,,,,,2025-03-21,1,,,,,ジッパー,0
859,5010003046852,新規,0,2025-03-21,2025-03-21,合同会社ハッチワークス,,合同会社,東京都,中央区,銀座１丁目１２－４Ｎ＆Ｅ－ＢＬＤ．７階,,13,102,1040061,,,,,,,2025-03-21,1,,,,,ハッチワークス,0
861,5010101016575,新規,0,2025-03-21,2025-03-21,禅千株式会社,,株式会社,東京都,八王子市,小比企町１３５２番地１,,13,201,1930934,,,,,,,2025-03-21,1,,,,,ゼンセン,0
868,5010401189014,新規,0,2025-03-21,2025-03-21,ペアポイントアジアパシフィック株式会社,,株式会社,東京都,港区,芝大門１丁目１０番１１号芝大門センタービル１０階,,13,103,1050012,,,,,,,2025-03-21,1,,,,,ペアポイントアジアパシフィック,0
869,5010401189022,新規,0,2025-03-21,2025-03-21,ＡＩＢＡ株式会社,,株式会社,東京都,港区,北青山１丁目３番１号アールキューブ青山３階,,13,103,1070061,,,,,,,2025-03-21,1,,,,,アイバ,0
870,5010401189030,新規,0,2025-03-21,2025-03-21,Ｊａｐａｎ　Ｏｐｐｏｒｔｕｎｉｔｉｅｓ　ＩＩ　Ｊａｐａｎ株式会社,,株式会社,東京都,港区,西新橋２丁目２０番１号Ｎａｎ－ｏＢｌｄｇ．新虎５階,,13,103,1050003,,,,,,,2025-03-21,1,,,,,ジャパンオポチュニティーズツージャパン,0
871,5010401189039,新規,0,2025-03-21,2025-03-21,株式会社トリバーフィールド,,株式会社,東京都,港区,白金６丁目１６番２０号,,13,103,1080072,,,,,,,2025-03-21,1,,,,,トリバーフィールド,0
874,5010405024159,新規,0,2025-03-21,2025-03-21,医療法人社団志清会,,その他の設立登記法人,東京都,港区,元麻布３丁目１０番５号カドル元麻布２階,,13,103,1060046,,,,,,,2025-03-21,1,,,,,シセイカイ,0
876,5010603011462,新規,0,2025-03-21,2025-03-21,合同会社ボタンルージュ,,合同会社,東京都,江東区,南砂２丁目４番２５－６０８号,,13,108,1360076,,,,,,,2025-03-21,1,,,,,ボタンルージュ,0
878,5010703007633,新規,0,2025-03-21,2025-03-21,合同会社Ｍａ．Ｔｏ．Ｔｉｍｉｎｇ,,合同会社,東京都,品川区,南大井３丁目２９番８号勝又ビル３０２,,13,109,1400013,,,,,,,2025-03-21,1,,,,,マトタイミング,0
880,5010901057042,新規,0,2025-03-21,2025-03-21,株式会社ｎａｍ,,株式会社,東京都,世田谷区,代田１丁目３２番１７号,,13,112,1550033,,,,,,,2025-03-21,1,,,,,ナム,0
891,5011001168325,新規,0,2025-03-21,2025-03-21,株式会社ＦＥＬＩＴＡＳ,,株式会社,東京都,渋谷区,南平台町１３番４－８０２号,,13,113,1500036,,,,,,,2025-03-21,1,,,,,フェリタス,0
892,5011001168374,新規,0,2025-03-21,2025-03-21,株式会社ル・リアンパーソネス,,株式会社,東京都,渋谷区,恵比寿４丁目２０－３恵比寿ガーデンプレイスタワー１８階,,13,113,1500013,,,,,,,2025-03-21,1,,,,,ルリアンパーソネス,0
893,5011003021176,新規,0,2025-03-21,2025-03-21,合同会社サロク,,合同会社,東京都,渋谷区,渋谷２丁目１９－１５宮益坂ビルディング６０９,,13,113,1500002,,,,,,,2025-03-21,1,,,,,サロク,0
899,5011303005465,新規,0,2025-03-21,2025-03-21,合同会社シラフ,,合同会社,東京都,杉並区,久我山５丁目６番２３－１号,,13,115,1680082,,,,,,,2025-03-21,1,,,,,シラフ,0
901,5011401026933,新規,0,2025-03-21,2025-03-21,株式会社ＧｒｉｎＳｔｙｌｅ,,株式会社,東京都,板橋区,徳丸５丁目２８番９号,,13,119,1750083,,,,,,,2025-03-21,1,,,,,グリンスタイル,0
908,5012401042904,新規,0,2025-03-21,2025-03-21,株式会社玄尽,,株式会社,東京都,武蔵野市,境南町２丁目２０番８号セレッソＡ１０１,,13,203,1800023,,,,,,,2025-03-21,1,,,,,ゲンジン,0
910,5012703003224,新規,0,2025-03-21,2025-03-21,コゾノラボ合同会社,,合同会社,東京都,清瀬市,下清戸５丁目８３７番地の７,,13,221,2040011,,,,,,,2025-03-21,1,,,,,コゾノラボ,0
924,5020001161925,新規,0,2025-03-21,2025-03-21,株式会社ＯＮ,,株式会社,神奈川県,横浜市港北区,師岡町３６８番地６ＷＯＯＤＢＥＬＬＩＩＢ棟１階倉庫,00138402,14,109,2220002,,,,,,,2025-03-21,1,,,,,オン,0
925,5020001161933,新規,0,2025-03-21,2025-03-21,株式会社プロデュースハウスＳＨＩＮＯ,,株式会社,神奈川県,川崎市宮前区,鷺沼３丁目４番地１イトーピア鷺沼イル・スタジオーネ１０４,,14,136,2160004,,,,,,,2025-03-21,1,,,,,プロデュースハウスシノ,0
926,5020001161958,新規,0,2025-03-21,2025-03-21,ＰＫ　Ｉｎｔｅｒｎａｔｉｏｎａｌ株式会社,,株式会社,神奈川県,横浜市鶴見区,小野町２７番地３８新菱ハイツ１Ｆ,,14,101,2300046,,,,,,,2025-03-21,1,,,,,ピーケーインターナショナル,0
930,5021001084760,新規,0,2025-03-21,2025-03-21,株式会社日京アセンション,,株式会社,神奈川県,足柄上郡大井町,金子１１４３番地５,,14,362,2580019,,,,,,,2025-03-21,1,,,,,ニッキョウアセンション,0
931,5021003015755,新規,0,2025-03-21,2025-03-21,合同会社Ｄａｃｃｏ,,合同会社,神奈川県,茅ヶ崎市,赤松町１３－２３－２１１,,14,207,2530013,,,,,,,2025-03-21,1,,,,,ダッコ,0
933,5030001165495,新規,0,2025-03-21,2025-03-21,株式会社キングダム,,株式会社,埼玉県,本庄市,児玉町長沖２７９番地１,,11,211,3670215,,,,,,,2025-03-21,1,,,,,キングダム,0
934,5030001165512,新規,0,2025-03-21,2025-03-21,株式会社ｂｋ,,株式会社,埼玉県,川越市,通町１５番地２（アンビシャス川越９０３号室）,,11,201,3500044,,,,,,,2025-03-21,1,,,,,ビーケー,0
949,5040005022691,新規,0,2025-03-21,2025-03-21,一般社団法人Ｄｏｗｎ　ｔｏ　Ｅａｒｔｈ　ＢＥＹＯＮＤ　ＨＥＡＬＴＨ　ＩＮＳＴＩＴＵＴＥ,,その他の設立登記法人,千葉県,香取市,佐原イ３４０８番地,,12,236,2870003,,,,,,,2025-03-21,1,,,,,ダウントゥアースビヨンドヘルスインスティチュート,0
950,5050001056346,新規,0,2025-03-21,2025-03-21,株式会社ひまわり不動産,,株式会社,茨城県,那珂郡東海村,大字村松３１１４番地１,,08,341,3191112,,,,,,,2025-03-21,1,,,,,ヒマワリフドウサン,0
951,5050001056354,新規,0,2025-03-21,2025-03-21,株式会社ジュピター,,株式会社,茨城県,水戸市,笠原町１０６０番地の２タウンハイツてらかどＢ１０１号,,08,201,3100852,,,,,,,2025-03-21,1,,,,,ジュピター,0
952,5050001056362,新規,0,2025-03-21,2025-03-21,株式会社エポラール,,株式会社,茨城県,つくば市,島名１２７４番地１（香取台Ａ２６街区１７）ＧｒａｎｄＲｉｓｅＴｓｕｋｕｂａＣ棟１０３号,,08,220,3002655,,,,,,,2025-03-21,1,,,,,エポラール,0
965,5080401027811,新規,0,2025-03-21,2025-03-21,株式会社ＣＡＩＲＡ,,株式会社,静岡県,浜松市中央区,高丘西２丁目１番２４号,,22,138,4338118,,,,,,,2025-03-21,1,,,,,カイラ,0
968,5100001038413,新規,0,2025-03-21,2025-03-21,ＷＩＴＨＤＯＭ　Ｎａｇａｎｏ株式会社,,株式会社,長野県,長野市,大字南長野西後町１５９７番地１長野表参道ビル４階,,20,201,3800845,,,,,,,2025-03-21,1,,,,,ウィズダムナガノ,0
979,5120001273768,新規,0,2025-03-21,2025-03-21,株式会社Ｎａｔｕｒａｌ　Ｆｏｒｅｓｔ,,株式会社,大阪府,枚方市,東山２丁目３番地４０８号,,27,210,5731114,,,,,,,2025-03-21,1,,,,,ナチュラルフォレスト,0
980,5120001273784,新規,0,2025-03-21,2025-03-21,株式会社ＫＣ,,株式会社,大阪府,大阪市都島区,東野田町２丁目３－１２－３０１,,27,102,5340024,,,,,,,2025-03-21,1,,,,,ケーシー,0
981,5120001273792,新規,0,2025-03-21,2025-03-21,株式会社ｓｃｒｕｍ　ｅｎｇｉｎｅ,,株式会社,大阪府,大阪市淀川区,田川北１丁目９－１７－２階,,27,123,5320021,,,,,,,2025-03-21,1,,,,,スクラムエンジン,0
982,5120001273883,新規,0,2025-03-21,2025-03-21,株式会社豊茂,,株式会社,大阪府,大阪市西区,川口３丁目３番２号１Ｆ,,27,106,5500021,,,,,,,2025-03-21,1,,,,,ホウモ,0
983,5120001273891,新規,0,2025-03-21,2025-03-21,星躍株式会社,,株式会社,大阪府,大阪市港区,池島３丁目１０－１１－５０４号室,,27,107,5520015,,,,,,,2025-03-21,1,,,,,セイヤク,0
984,5120001273909,新規,0,2025-03-21,2025-03-21,株式会社Ａｓｔｒｏ,,株式会社,大阪府,大阪市北区,堂島浜２丁目２－２８堂島アクシスビル４階,,27,127,5300004,,,,,,,2025-03-21,1,,,,,アストロ,0
985,5120003028897,新規,0,2025-03-21,2025-03-21,合同会社ＡｍＳ,,合同会社,大阪府,大阪市北区,梅田１丁目１－３大阪駅前第３ビル２９階１－１－１号室,,27,127,5300001,,,,,,,2025-03-21,1,,,,,エーエムエス,0
986,5120101071254,新規,0,2025-03-21,2025-03-21,タカラワークス株式会社,,株式会社,大阪府,河内長野市,菊水町６番１８号,,27,216,5860012,,,,,,,2025-03-21,1,,,,,タカラワークス,0
987,5120101071279,新規,0,2025-03-21,2025-03-21,Ａやん株式会社,,株式会社,大阪府,堺市堺区,南半町東１丁１番１０号,,27,141,5900966,,,,,,,2025-03-21,1,,,,,エーヤン,0
988,5120101071287,新規,0,2025-03-21,2025-03-21,株式会社創壱設備工業,,株式会社,大阪府,岸和田市,南上町１丁目１２番１２号,,27,202,5960078,,,,,,,2025-03-21,1,,,,,ソウイチセツビコウギョウ,0
989,5120101071295,新規,0,2025-03-21,2025-03-21,株式会社Ｃａｒｒｙ　Ｌｕｃｋ,,株式会社,大阪府,藤井寺市,小山４丁目１６番４４号,,27,226,5830033,,,,,,,2025-03-21,1,,,,,キャリーラック,0
991,5120905006703,新規,0,2025-03-21,2025-03-21,弁理士法人アルプラス,,その他の設立登記法人,大阪府,茨木市,大手町８番１３号日本医科薬品ビルディング４０１号,,27,211,5670883,,,,,,,2025-03-21,1,,,,,アルプラス,0
994,5130001079198,新規,0,2025-03-21,2025-03-21,Ａｎｃｈｏｒ　Ｄｅｓｉｇｎｅｒｓ株式会社,,株式会社,京都府,京都市下京区,七条通油小路東入大黒町２２７番地第２キョートビル４０２,,26,106,6008223,,,,,,,2025-03-21,1,,,,,アンカーデザイナーズ,0
1002,5170003002179,新規,0,2025-03-21,2025-03-21,ＧＭＧＯＬＦ　ＪＡＰＡＮ合同会社,,合同会社,和歌山県,西牟婁郡白浜町,３２１２－１０ヴィラ古賀浦３１０号,,30,401,6492211,,,,,,,2025-03-21,1,,,,,ジーエムゴルフジャパン,0
1014,5180001165992,新規,0,2025-03-21,2025-03-21,ＴＡＫＡＤＥＮ株式会社,,株式会社,愛知県,春日井市,味美白山町２丁目９番地１ベルニシキＮ－４１１号,,23,206,4860969,,,,,,,2025-03-21,1,,,,,タカデン,0
1022,5180005020995,新規,0,2025-03-21,2025-03-21,一般社団法人サロンシード,,その他の設立登記法人,愛知県,名古屋市中区,新栄２丁目３５番２１号,,23,106,4600007,,,,,,,2025-03-21,1,,,,,サロンシード,0
1024,5180301039632,新規,0,2025-03-21,2025-03-21,株式会社クラウド,,株式会社,愛知県,豊橋市,西小鷹野４丁目２番地１,,23,201,4400013,,,,,,,2025-03-21,1,,,,,クラウド,0
1037,5250003003680,新規,0,2025-03-21,2025-03-21,合同会社すえながく,,合同会社,山口県,長門市,東深川１８８８番地１８,,35,211,7594101,,,,,,,2025-03-21,1,,,,,スエナガク,0
1042,5290001109352,新規,0,2025-03-21,2025-03-21,株式会社トータルオート,,株式会社,福岡県,福岡市博多区,吉塚２丁目２０番４８－１２０２号,,40,132,8120041,,,,,,,2025-03-21,1,,,,,トータルオート,0
1043,5290001109393,新規,0,2025-03-21,2025-03-21,株式会社肉典食堂Ｇｌｏｂａｌ,,株式会社,福岡県,福岡市博多区,東光２丁目９番３１－２０３号,,40,132,8120008,,,,,,,2025-03-21,1,,,,,ユッチョンシッタングローバル,0
1044,5290001109402,新規,0,2025-03-21,2025-03-21,株式会社イーツー,,株式会社,福岡県,久留米市,善導寺町木塚４４８番地１,,40,203,8390822,,,,,,,2025-03-21,1,,,,,イーツー,0
1045,5290001109410,新規,0,2025-03-21,2025-03-21,オートメディカル株式会社,,株式会社,福岡県,福岡市西区,福重４丁目１６番１号,,40,135,8190022,,,,,,,2025-03-21,1,,,,,オートメディカル,0
1047,5290003016563,新規,0,2025-03-21,2025-03-21,合同会社Ｓａｐｐｈｉｒｅ　Ｒｏａｄ,,合同会社,福岡県,八女市,川犬１５０４番地５,,40,210,8340053,,,,,,,2025-03-21,1,,,,,サファイアロード,0
1049,5300003002248,新規,0,2025-03-21,2025-03-21,ＡＵＲＵＭ　ＦＡＮＣＹ合同会社,,合同会社,佐賀県,唐津市,京町１７８３ＫＡＲＡＥ,,41,202,8470045,,,,,,,2025-03-21,1,,,,,オーラムファンシー,0
1051,5330001032995,新規,0,2025-03-21,2025-03-21,株式会社一期一会ホールディングス,,株式会社,熊本県,熊本市中央区,国府３丁目１５番２１号,,43,101,8620949,,,,,,,2025-03-21,1,,,,,イチゴイチエホールディングス,0
1058,5380001035176,新規,0,2025-03-21,2025-03-21,株式会社エリサ,,株式会社,福島県,河沼郡会津坂下町,字東南町裏甲３９６８桜コ－ポ２０５号室,,07,421,9696544,,,,,,,2025-03-21,1,,,,,エリサ,0
1062,5430003017423,新規,0,2025-03-21,2025-03-21,合同会社風鈴,,合同会社,北海道,室蘭市,宮の森町４丁目５番２号,,01,205,0500073,,,,,,,2025-03-21,1,,,,,フウリン,0
1064,5450003002621,新規,0,2025-03-21,2025-03-21,合同会社ＯＹＦ,,合同会社,北海道,旭川市,末広六条１２丁目２番１２号ＡＰＥＸ　ＧａｒｄｅｎＨｉｌｌ’ｓ　Ｒｏｓｓｏ２０２,,01,204,0718136,,,,,,,2025-03-21,1,,,,,オーワイエフ,0
1069,5700150129662,新規,0,2025-03-21,2025-03-21,煙台東星磁性材料股分有限公司,,外国会社等,愛知県,名古屋市中村区,名駅南２丁目８番１号,,23,105,4500003,中華人民共和国山東省煙台市福山高新技術産業区永達街８８８号,,,,,,2025-03-21,1,,,,,エンタイトウセイジセイザイリヨウコフンユウゲンコウシ,0
1076,6010001253128,新規,0,2025-03-21,2025-03-21,株式会社ＵＰＲＩＶＥＲ,,株式会社,東京都,中央区,銀座１丁目２２番１１号銀座大竹ビジデンス２階,,13,102,1040061,,,,,,,2025-03-21,1,,,,,アップリバー,0
1077,6010001253326,新規,0,2025-03-21,2025-03-21,Ｌｉｆｉｎｉｔｙ．株式会社,,株式会社,東京都,中央区,銀座７丁目１３番２０号銀座ＴＨビル９階,,13,102,1040061,,,,,,,2025-03-21,1,,,,,ライフィニティ,0
1078,6010001253367,新規,0,2025-03-21,2025-03-21,株式会社大仲,,株式会社,東京都,中央区,日本橋横山町３番８号オーヒロローズハイツ７０２号室,,13,102,1030003,,,,,,,2025-03-21,1,,,,,オオナカ,0
1079,6010001253383,新規,0,2025-03-21,2025-03-21,竜馬株式会社,,株式会社,東京都,中央区,新川１丁目７番１号,,13,102,1040033,,,,,,,2025-03-21,1,,,,,リョウマ,0
1081,6010003046835,新規,0,2025-03-21,2025-03-21,センターファーム合同会社,,合同会社,東京都,中央区,銀座７丁目１５番８号タウンハイツ銀座４０６,,13,102,1040061,,,,,,,2025-03-21,1,,,,,センターファーム,0
1082,6010101016574,新規,0,2025-03-21,2025-03-21,株式会社Ｌｉｎｋ,,株式会社,東京都,八王子市,明神町２丁目２０番７号アクトプレイス２階,,13,201,1920046,,,,,,,2025-03-21,1,,,,,リンク,0
1088,6010401188857,新規,0,2025-03-21,2025-03-21,株式会社創・整流,,株式会社,東京都,港区,高輪４丁目２３番６号ハイホーム高輪７０８,,13,103,1080074,,,,,,,2025-03-21,1,,,,,ソウセイリュウ,0
1089,6010401189005,新規,0,2025-03-21,2025-03-21,株式会社環虫社,,株式会社,東京都,港区,新橋４丁目１４番１号新橋ＡＵＮ　ＢＬＤＧ４階,,13,103,1050004,,,,,,,2025-03-21,1,,,,,カンチュウシャ,0
1092,6010403034539,新規,0,2025-03-21,2025-03-21,４Ｌｏｔｕｓ　Ｐａｒｔｎｅｒｓ合同会社,,合同会社,東京都,港区,赤坂１丁目１４番１５号第３５興和ビル別館３Ｆ,,13,103,1070052,,,,,,,2025-03-21,1,,,,,フォーロータスパートナーズ,0
1094,6010501053829,新規,0,2025-03-21,2025-03-21,株式会社和楽,,株式会社,東京都,台東区,上野４丁目２番１０号,,13,106,1100005,,,,,,,2025-03-21,1,,,,,ワラ,0
1095,6010505003581,新規,0,2025-03-21,2025-03-21,一般社団法人フリーランス支援機構,,その他の設立登記法人,東京都,台東区,蔵前４丁目１０－４コンフォルテハイム蔵前６０５,,13,106,1110051,,,,,,,2025-03-21,1,,,,,フリーランスシエンキコウ,0
1096,6010603011461,新規,0,2025-03-21,2025-03-21,合同会社Ｂａｍｂｉ,,合同会社,東京都,墨田区,江東橋２丁目６番１４号エスカイア錦糸町プラザ２階,,13,107,1300022,,,,,,,2025-03-21,1,,,,,バンビ,0
1097,6010701047440,新規,0,2025-03-21,2025-03-21,株式会社ピーオーワークス,,株式会社,東京都,品川区,八潮５丁目８番４７－６０３号,,13,109,1400003,,,,,,,2025-03-21,1,,,,,ピーオーワークス,0
1101,6010901057033,新規,0,2025-03-21,2025-03-21,株式会社モンレーブ,,株式会社,東京都,世田谷区,松原１丁目５３番９－１０２号,,13,112,1560043,,,,,,,2025-03-21,1,,,,,モンレーブ,0
1102,6010903009783,新規,0,2025-03-21,2025-03-21,よぬあ合同会社,,合同会社,東京都,世田谷区,若林１丁目８番２５号,,13,112,1540023,,,,,,,2025-03-21,1,,,,,ヨヌア,0
1103,6010903009791,新規,0,2025-03-21,2025-03-21,合同会社笹フィルム,,合同会社,東京都,世田谷区,太子堂４丁目１８番１５号マガザン三軒茶屋２、３Ｆ－３,,13,112,1540004,,,,,,,2025-03-21,1,,,,,ササフィルム,0
1104,6011001168308,新規,0,2025-03-21,2025-03-21,株式会社ＴＳＵＭＵＧＵ,,株式会社,東京都,目黒区,碑文谷５丁目２番５号,,13,110,1520003,,,,,,,2025-03-21,1,,,,,ツムグ,0
1105,6011001168316,新規,0,2025-03-21,2025-03-21,Ｎｕｅ株式会社,,株式会社,東京都,渋谷区,恵比寿４丁目２０－４恵比寿ガーデンプレイスＢ１ＦＰＯＲＴＡＬＰＯＩＮＴＥＢＩＳＵＨ４,,13,113,1500013,,,,,,,2025-03-21,1,,,,,ヌエ,0
1106,6011001168332,新規,0,2025-03-21,2025-03-21,株式会社外壁塗装くらべる,,株式会社,東京都,渋谷区,道玄坂１丁目１０番８号渋谷道玄坂東急ビル２Ｆ－Ｃ,,13,113,1500043,,,,,,,2025-03-21,1,,,,,ガイヘキトソウクラベル,0
1107,6011001168464,新規,0,2025-03-21,2025-03-21,株式会社ＧＩＦＴ,,株式会社,東京都,渋谷区,恵比寿西１丁目３３番６号ＪＰｎｏｉｅ恵比寿西１Ｆ,,13,113,1500021,,,,,,,2025-03-21,1,,,,,ギフト,0
1108,6011001168563,新規,0,2025-03-21,2025-03-21,ＰｒｏＦｉｔ株式会社,,株式会社,東京都,渋谷区,代々木３丁目２５番３号,,13,113,1510053,,,,,,,2025-03-21,1,,,,,プロフィット,0
1109,6011001168621,新規,0,2025-03-21,2025-03-21,うさぎとひつじの株式会社,,株式会社,東京都,渋谷区,渋谷２丁目１９番１５号宮益坂ビルディング６０９,,13,113,1500002,,,,,,,2025-03-21,1,,,,,ウサギトヒツジノ,0
1110,6011003021209,新規,0,2025-03-21,2025-03-21,合同会社ワンダークエストグローバル,,合同会社,東京都,目黒区,目黒３丁目１１－９－１階Ｂ,,13,110,1530063,,,,,,,2025-03-21,1,,,,,ワンダークエストグローバル,0
1111,6011003021274,新規,0,2025-03-21,2025-03-21,合同会社木田,,合同会社,東京都,渋谷区,恵比寿南１丁目２０‐６第２１荒井ビル４Ｆ,,13,113,1500022,,,,,,,2025-03-21,1,,,,,キダ,0
1117,6011401026932,新規,0,2025-03-21,2025-03-21,株式会社ＥｖｅｒＧｒｅｅｎ,,株式会社,東京都,板橋区,熊野町８番２－９０３号アイルグランデ池袋ノース,,13,119,1730025,,,,,,,2025-03-21,1,,,,,エバーグリーン,0
1119,6011501031832,新規,0,2025-03-21,2025-03-21,株式会社正一バイオテクノロジー研究所,,株式会社,東京都,北区,浮間１丁目７－２３兆豊浮間ビル５０２号室,,13,117,1150051,,,,,,,2025-03-21,1,,,,,ショウイチバイオテクノロジーケンキュウジョ,0
1124,6012705002454,新規,0,2025-03-21,2025-03-21,医療法人社団Ｔ．Ｄ．Ｃ．,,その他の設立登記法人,東京都,清瀬市,元町１丁目３番３８号レフィアント１階,,13,221,2040021,,,,,,,2025-03-21,1,,,,,ティーディーシー,0
1125,6012803003668,新規,0,2025-03-21,2025-03-21,合同会社さきはふ,,合同会社,東京都,武蔵村山市,大南１丁目１１７－１５,,13,223,2080013,,,,,,,2025-03-21,1,,,,,サキハフ,0
1132,6020001161908,新規,0,2025-03-21,2025-03-21,ＮＩＰＰＯＮＥＸＵＳ株式会社,,株式会社,神奈川県,横浜市神奈川区,栄町１６番地５プレミスト横浜ポートサイド１２１０号,,14,102,2210052,,,,,,,2025-03-21,1,,,,,ニッポンネクサス,0
1133,6020001161957,新規,0,2025-03-21,2025-03-21,株式会社ｔｏＹｏｕ,,株式会社,神奈川県,川崎市中原区,宮内３丁目２番１６号,,14,133,2110051,,,,,,,2025-03-21,1,,,,,トゥーユー,0
1134,6020001161973,新規,0,2025-03-21,2025-03-21,株式会社創志左官,,株式会社,神奈川県,横浜市南区,井土ケ谷下町３２番地１８,,14,105,2320053,,,,,,,2025-03-21,1,,,,,ソウシサカン,0
1137,6021001084768,新規,0,2025-03-21,2025-03-21,株式会社ハロガロ,,株式会社,神奈川県,鎌倉市,由比ガ浜３丁目１－２８鎌倉テーラービル１Ｆ,,14,204,2480014,,,,,,,2025-03-21,1,,,,,ハロガロ,0
1145,6030001165494,新規,0,2025-03-21,2025-03-21,株式会社アミュレット,,株式会社,埼玉県,さいたま市大宮区,桜木町２丁目３番地大宮マルイ７階,,11,103,3300854,,,,,,,2025-03-21,1,,,,,アミュレット,0
1146,6030001165503,新規,0,2025-03-21,2025-03-21,株式会社ｇｒｏｗｔｈ　ｐｌｕｓ,,株式会社,埼玉県,所沢市,大字上安松１１３１番地の１プレジャー８Ｂ－２０１,,11,208,3590025,,,,,,,2025-03-21,1,,,,,グロースプラス,0
1147,6030001165511,新規,0,2025-03-21,2025-03-21,株式会社万助,,株式会社,埼玉県,草加市,谷塚町１３６３番地１,,11,221,3400023,,,,,,,2025-03-21,1,,,,,マンスケ,0
1148,6030003026389,新規,0,2025-03-21,2025-03-21,大滝万屋合同会社,,合同会社,埼玉県,秩父市,大滝８６７,,11,207,3691901,,,,,,,2025-03-21,1,,,,,オオタキヨロズヤ,0
1158,6040001137889,新規,0,2025-03-21,2025-03-21,株式会社アールプラス,,株式会社,千葉県,松戸市,大橋４５５番地の６８,,12,207,2702224,,,,,,,2025-03-21,1,,,,,アールプラス,0
1159,6040001137922,新規,0,2025-03-21,2025-03-21,メリディアン・エアロ・ソリューションズ株式会社,,株式会社,千葉県,市川市,南八幡３丁目１３番１３－１０４号,,12,203,2720023,,,,,,,2025-03-21,1,,,,,メリディアンエアロソリューションズ,0
1160,6040003027106,新規,0,2025-03-21,2025-03-21,合同会社Ａｗｏｒｋｓ,,合同会社,千葉県,四街道市,もねの里２丁目１‐２０,,12,228,2840016,,,,,,,2025-03-21,1,,,,,エーワークス,0
1161,6040003027130,新規,0,2025-03-21,2025-03-21,ＡＤＰＧｒｏｕｐ合同会社,,合同会社,千葉県,船橋市,西船１丁目２４－１１,,12,204,2730031,,,,,,,2025-03-21,1,,,,,エーディーピーグループ,0
1163,6050001056320,新規,0,2025-03-21,2025-03-21,株式会社丸美屋,,株式会社,茨城県,那珂市,戸崎１９４３番地３,,08,226,3110121,,,,,,,2025-03-21,1,,,,,マルミヤ,0
1180,6120001273750,新規,0,2025-03-21,2025-03-21,爍楓株式会社,,株式会社,大阪府,大阪市生野区,巽西３丁目１３番１０号３０１室,,27,116,5440012,,,,,,,2025-03-21,1,,,,,シャクフウ,0
1181,6120001273791,新規,0,2025-03-21,2025-03-21,株式会社にじのはし不動産,,株式会社,大阪府,大阪市中央区,西心斎橋２丁目２番３号Ａ－ＰＬＡＣＥ心斎橋７階Ｌ．Ｔ．Ｃｏｎｎｅｃｔ,,27,128,5420086,,,,,,,2025-03-21,1,,,,,ニジノハシフドウサン,0
1182,6120001273866,新規,0,2025-03-21,2025-03-21,株式会社ゲンキンカ,,株式会社,大阪府,大阪市中央区,南船場３丁目２番２２号おおきに南船場ビル２０５,,27,128,5420081,,,,,,,2025-03-21,1,,,,,ゲンキンカ,0
1184,6120003028822,新規,0,2025-03-21,2025-03-21,合同会社ＢＭＬ,,合同会社,大阪府,大阪市中央区,南船場３丁目２番２２号おおきに南船場ビル２０５,,27,128,5420081,,,,,,,2025-03-21,1,,,,,ビーエムエル,0
1185,6120003028888,新規,0,2025-03-21,2025-03-21,合同会社ＮｅｖｅｒＥＮＮＺ,,合同会社,大阪府,大阪市浪速区,稲荷１丁目８番２１－３０３号,,27,111,5560023,,,,,,,2025-03-21,1,,,,,ネヴァーエンズ,0
1186,6120003028921,新規,0,2025-03-21,2025-03-21,ＡＴ合同会社,,合同会社,大阪府,大阪市西区,本田２丁目１３番７―３０７号,,27,106,5500022,,,,,,,2025-03-21,1,,,,,エーティ,0
1188,6120101071278,新規,0,2025-03-21,2025-03-21,Ａ株式会社,,株式会社,大阪府,堺市堺区,南半町東１丁１番１０号,,27,141,5900966,,,,,,,2025-03-21,1,,,,,エー,0
1197,6130001079247,新規,0,2025-03-21,2025-03-21,株式会社エングレース,,株式会社,京都府,京都市伏見区,深草大門町１５－７,,26,109,6120888,,,,,,,2025-03-21,1,,,,,エングレース,0
1202,6140001137821,新規,0,2025-03-21,2025-03-21,株式会社金辰国際,,株式会社,兵庫県,芦屋市,涼風町２２－１１,,28,206,6590036,,,,,,,2025-03-21,1,,,,,カネタツ,0
1203,6150001027971,新規,0,2025-03-21,2025-03-21,株式会社慶雲,,株式会社,奈良県,奈良市,宝来３丁目１６番４号,,29,201,6310845,,,,,,,2025-03-21,1,,,,,ケイウン,0
1207,6160001026618,新規,0,2025-03-21,2025-03-21,唐虞株式会社,,株式会社,滋賀県,栗東市,安養寺２丁目６番１号,,25,208,5203015,,,,,,,2025-03-21,1,,,,,トウグ,0
1208,6160003003425,新規,0,2025-03-21,2025-03-21,合同会社ｒａｙ　ｉｎｔｅｒｎａｔｉｏｎａｌ,,合同会社,滋賀県,大津市,花園町１３－２３,,25,201,5200222,,,,,,,2025-03-21,1,,,,,レイインターナショナル,0
1213,6180001166008,新規,0,2025-03-21,2025-03-21,株式会社ＰＯＰ,,株式会社,愛知県,一宮市,北方町北方字東本郷下１８９番地,,23,203,4938001,,,,,,,2025-03-21,1,,,,,ポップ,0
1215,6180003028164,新規,0,2025-03-21,2025-03-21,合同会社ＲＥＰＯＳ　Ｅｓｔａｔｅ,,合同会社,愛知県,名古屋市千種区,池下町２丁目６３番地の２５,,23,101,4640066,,,,,,,2025-03-21,1,,,,,ルポエステート,0
1230,6240001064675,新規,0,2025-03-21,2025-03-21,ＫＡＫＩＺＹＵ株式会社,,株式会社,広島県,広島市東区,温品６丁目１６番９号,,34,102,7320033,,,,,,,2025-03-21,1,,,,,カキジュウ,0
1235,6240003007120,新規,0,2025-03-21,2025-03-21,ｍｏｎａｃｏ合同会社,,合同会社,広島県,東広島市,八本松町飯田１１７７０－５０,,34,212,7390141,,,,,,,2025-03-21,1,,,,,モナコ,0
1237,6260001040030,新規,0,2025-03-21,2025-03-21,恒祥ｆａｍｉｌｙ株式会社,,株式会社,岡山県,岡山市南区,福富西１丁目４番５号４０３号室,,33,104,7028031,,,,,,,2025-03-21,1,,,,,コウショウファミリー,0
1238,6260005011457,新規,0,2025-03-21,2025-03-21,一般社団法人和魂喝采,,その他の設立登記法人,岡山県,岡山市北区,表町１丁目３番９号,,33,101,7000822,,,,,,,2025-03-21,1,,,,,ワコンカッサイ,0
1243,6290001109376,新規,0,2025-03-21,2025-03-21,株式会社博多マテリアル,,株式会社,福岡県,福岡市西区,横浜３丁目６番４号,,40,135,8190366,,,,,,,2025-03-21,1,,,,,ハカタマテリアル,0
1244,6290001109384,新規,0,2025-03-21,2025-03-21,株式会社ＡＬＡＮＡ,,株式会社,福岡県,福岡市中央区,白金２丁目４－２８ロマネスク白金１０６号,,40,133,8100012,,,,,,,2025-03-21,1,,,,,アラナ,0
1245,6290001109401,新規,0,2025-03-21,2025-03-21,株式会社占部総建,,株式会社,福岡県,嘉麻市,上臼井２８７番地９,,40,227,8200502,,,,,,,2025-03-21,1,,,,,ウラベソウケン,0
1247,6290003016562,新規,0,2025-03-21,2025-03-21,合同会社サクラ,,合同会社,福岡県,久留米市,小森野２丁目１５番１４号,,40,203,8300001,,,,,,,2025-03-21,1,,,,,サクラ,0
1248,6290003016570,新規,0,2025-03-21,2025-03-21,合同会社フリックス,,合同会社,福岡県,福岡市博多区,博多駅南２丁目１７－１４－３０３,,40,132,8120016,,,,,,,2025-03-21,1,,,,,フリックス,0
1256,6360001034939,新規,0,2025-03-21,2025-03-21,株式会社新洋開発,,株式会社,沖縄県,宜野湾市,字佐真下６２番地の１０,,47,205,9012216,,,,,,,2025-03-21,1,,,,,シンヨウカイハツ,0
1275,6430003017422,新規,0,2025-03-21,2025-03-21,合同会社雅,,合同会社,北海道,札幌市豊平区,西岡四条１丁目８番１１号,,01,105,0620034,,,,,,,2025-03-21,1,,,,,ミヤビ,0
1276,6440001009585,新規,0,2025-03-21,2025-03-21,株式会社ＴＯｙｏｕ,,株式会社,北海道,函館市,湯川町２丁目４３－４,,01,202,0420932,,,,,,,2025-03-21,1,,,,,トゥーユー,0
1279,6460101007685,新規,0,2025-03-21,2025-03-21,株式会社ＯＦＦＩＣＥ　Ｋ,,株式会社,北海道,帯広市,西二十条南３丁目５３番１９号,,01,207,0802470,,,,,,,2025-03-21,1,,,,,オフィスケー,0
1290,6700150129661,新規,0,2025-03-21,2025-03-21,株式会社アートボックス,,外国会社等,福岡県,福岡市博多区,祇園町８番１３号第１プリンスビル１階,,40,132,8120038,大韓民国ソウル特別市瑞草区盤浦大路１２ギル４１（瑞草洞）,,,,,,2025-03-21,1,,,,,カブシキガイシヤアートボツクス,0
1298,7010001253341,新規,0,2025-03-21,2025-03-21,株式会社Ｒ‐Ｎｕ,,株式会社,東京都,中央区,日本橋蛎殻町１丁目３番６号,,13,102,1030014,,,,,,,2025-03-21,1,,,,,アールニュー,0
1299,7010001253366,新規,0,2025-03-21,2025-03-21,株式会社Ｎｅｏｆｌｉｘ,,株式会社,東京都,文京区,大塚４丁目４番８－７０５号,00138406,13,105,1120012,,,,,,,2025-03-21,1,,,,,ネオフリックス,0
1300,7010001253390,新規,0,2025-03-21,2025-03-21,テクノスプランニング株式会社,,株式会社,東京都,千代田区,神田須田町１丁目７－８ＶＯＲＴ秋葉原ＩＶ２Ｆ,00138404,13,101,1010041,,,,,,,2025-03-21,1,,,,,テクノスプランニング,0
1301,7010001253399,新規,0,2025-03-21,2025-03-21,株式会社ちよだみらいマネジメント,,株式会社,東京都,千代田区,二番町１－２番町ハイム３０７,,13,101,1020084,,,,,,,2025-03-21,1,,,,,チヨダミライマネジメント,0
1302,7010001253416,新規,0,2025-03-21,2025-03-21,株式会社アセンティア,,株式会社,東京都,中央区,銀座６丁目１３番１６号銀座ＷａｌｌビルＵＣＦ５階,,13,102,1040061,,,,,,,2025-03-21,1,,,,,アセンティア,0
1303,7010001253457,新規,0,2025-03-21,2025-03-21,株式会社エスジービーガイア,,株式会社,東京都,千代田区,丸の内３丁目２番２号丸の内二重橋ビル２階,,13,101,1000005,,,,,,,2025-03-21,1,,,,,エスジービーガイア,0
1306,7010003046818,新規,0,2025-03-21,2025-03-21,ＪＭＣライフランプラス合同会社,,合同会社,東京都,千代田区,平河町１丁目７番２２号,,13,101,1020093,,,,,,,2025-03-21,1,,,,,ジェイエムシーライフランプラス,0
1307,7010003046826,新規,0,2025-03-21,2025-03-21,Ａｍｉｒｅａ合同会社,,合同会社,東京都,中央区,銀座１丁目１２番４号Ｎ＆ＥＢＬＤ．６Ｆ,,13,102,1040061,,,,,,,2025-03-21,1,,,,,アミレア,0
1310,7010401189004,新規,0,2025-03-21,2025-03-21,株式会社Ｋプラスホスピタリティマネジメント,,株式会社,東京都,港区,虎ノ門１丁目２番８号虎ノ門琴平タワー２４階,,13,103,1050001,,,,,,,2025-03-21,1,,,,,ケープラスホスピタリティマネジメント,0
1311,7010401189029,新規,0,2025-03-21,2025-03-21,Ｊａｐａｎ　Ｏｐｐｏｒｔｕｎｉｔｉｅｓ　Ｉ　Ｊａｐａｎ株式会社,,株式会社,東京都,港区,西新橋２丁目２０番１号Ｎａｎ－ｏＢｌｄｇ．新虎５階,,13,103,1050003,,,,,,,2025-03-21,1,,,,,ジャパンオポチュニティーズワンジャパン,0
1315,7010403034694,新規,0,2025-03-21,2025-03-21,合同会社ヒトコト,,合同会社,東京都,港区,高輪２丁目１３－１,,13,103,1080074,,,,,,,2025-03-21,1,,,,,ヒトコト,0
1316,7010501053761,新規,0,2025-03-21,2025-03-21,株式会社お庭アセット,,株式会社,東京都,台東区,浅草橋２丁目２９－１５,,13,106,1110053,,,,,,,2025-03-21,1,,,,,オニワアセット,0
1321,7010703007573,新規,0,2025-03-21,2025-03-21,合同会社Ｉｎｃｏｒｒｅｃｔ,,合同会社,東京都,品川区,平塚２丁目２０－１ＲｏｏｍｓＤ,,13,109,1420051,,,,,,,2025-03-21,1,,,,,インコレクト,0
1329,7011001168307,新規,0,2025-03-21,2025-03-21,株式会社ＴＭＭＫ,,株式会社,東京都,目黒区,八雲３丁目２３－１７,,13,110,1520023,,,,,,,2025-03-21,1,,,,,ティーエムエムケー,0
1332,7011101111026,新規,0,2025-03-21,2025-03-21,株式会社創青,,株式会社,東京都,新宿区,北町２３－２ロワール神楽坂８０３号室,,13,104,1620834,,,,,,,2025-03-21,1,,,,,ソウセイ,0
1335,7011401026923,新規,0,2025-03-21,2025-03-21,和光株式会社,,株式会社,東京都,板橋区,南常盤台１丁目１６－１５嶋崎第二ビル４０６号,,13,119,1740072,,,,,,,2025-03-21,1,,,,,ワコウ,0
1336,7011405002383,新規,0,2025-03-21,2025-03-21,一般社団法人バチャマガ,,その他の設立登記法人,東京都,板橋区,舟渡２丁目５番１１号大塚方２０１,,13,119,1740041,,,,,,,2025-03-21,1,,,,,バチャマガ,0
1338,7011701028165,新規,0,2025-03-21,2025-03-21,美舎建商株式会社,,株式会社,東京都,江戸川区,南小岩７丁目３６番６号,,13,123,1330056,,,,,,,2025-03-21,1,,,,,ビシャケンショウ,0
1342,7012303002129,新規,0,2025-03-21,2025-03-21,合同会社ＡＬＩＦＥＺ,,合同会社,東京都,町田市,本町田１４７２番地６,,13,209,1940032,,,,,,,2025-03-21,1,,,,,アライフズ,0
1343,7013101009654,新規,0,2025-03-21,2025-03-21,クレアチオ株式会社,,株式会社,東京都,あきる野市,山田６４５番地１２,,13,228,1900144,,,,,,,2025-03-21,1,,,,,クレアチオ,0
1352,7020001161972,新規,0,2025-03-21,2025-03-21,株式会社司商事,,株式会社,神奈川県,横浜市泉区,緑園３丁目２番地４ガーデンズコート緑園都市６０８号,,14,116,2450002,,,,,,,2025-03-21,1,,,,,ツカサショウジ,0
1357,7030001165493,新規,0,2025-03-21,2025-03-21,株式会社ねこぱんち,,株式会社,埼玉県,さいたま市緑区,美園６丁目２５－１９,,11,109,3360967,,,,,,,2025-03-21,1,,,,,ネコパンチ,0
1358,7030001165502,新規,0,2025-03-21,2025-03-21,株式会社想設,,株式会社,埼玉県,所沢市,北有楽町２番１４－５０３号ラ・アトレ所沢航空公園,,11,208,3591114,,,,,,,2025-03-21,1,,,,,ソウセツ,0
1359,7030001165535,新規,0,2025-03-21,2025-03-21,株式会社天野ホールディングス,,株式会社,埼玉県,蓮田市,関山３丁目１３番２号,,11,238,3490121,,,,,,,2025-03-21,1,,,,,アマノホールディングス,0
1366,7040001137896,新規,0,2025-03-21,2025-03-21,株式会社ＤｒｅａｍＰａｔｈ,,株式会社,千葉県,成田市,美郷台１丁目１９番地７－１０１,,12,211,2860013,,,,,,,2025-03-21,1,,,,,ドリームパス,0
1367,7040001137921,新規,0,2025-03-21,2025-03-21,ＭＯＮＯＡＳ株式会社,,株式会社,千葉県,鎌ケ谷市,中沢新町７番２３号,,12,224,2730119,,,,,,,2025-03-21,1,,,,,モノアス,0
1368,7040001137938,新規,0,2025-03-21,2025-03-21,向日葵コンサルティング株式会社,,株式会社,千葉県,船橋市,藤原７丁目５番１号１０２号室,,12,204,2730047,,,,,,,2025-03-21,1,,,,,ヒマワリコンサルティング,0
1371,7050001056344,新規,0,2025-03-21,2025-03-21,株式会社Ｒｉｚｅ,,株式会社,茨城県,土浦市,富士崎２丁目５番６－３号,,08,203,3000813,,,,,,,2025-03-21,1,,,,,ライズ,0
1373,7050003009127,新規,0,2025-03-21,2025-03-21,合同会社Ｈｙａｋｋａ,,合同会社,茨城県,水戸市,袴塚３丁目１０－１５アーバンハイツＡＮＡ１０２号室,,08,201,3100055,,,,,,,2025-03-21,1,,,,,ヒャッカ,0
1395,7120001273758,新規,0,2025-03-21,2025-03-21,株式会社シルベ,,株式会社,大阪府,大阪市中央区,南船場３丁目１１番１０号Ｂ１Ｆ,,27,128,5420081,,,,,,,2025-03-21,1,,,,,シルベ,0
1396,7120001273766,新規,0,2025-03-21,2025-03-21,株式会社Ｌｉｃｏ　Ｓｔｙｌｅ,,株式会社,大阪府,大阪市中央区,安土町１丁目７番２０号新トヤマビル中央館４Ｆ,,27,128,5410052,,,,,,,2025-03-21,1,,,,,リコスタイル,0
1397,7120001273865,新規,0,2025-03-21,2025-03-21,株式会社クレエドソリール,,株式会社,大阪府,大阪市天王寺区,四天王寺１丁目５番２２－１００４号,,27,109,5430051,,,,,,,2025-03-21,1,,,,,クレエドソリール,0
1398,7120001273907,新規,0,2025-03-21,2025-03-21,株式会社ＮＩＰＰＯＮ‐ＳＴＯＲＩＥＳ,,株式会社,大阪府,大阪市北区,大淀南１丁目３－１３－１,,27,127,5310075,,,,,,,2025-03-21,1,,,,,ニッポンストーリーズ,0
1399,7120001273915,新規,0,2025-03-21,2025-03-21,株式会社ＮＥＹＤＩＳ,,株式会社,大阪府,大阪市中央区,南本町２丁目３番１２号ＥＤＧＥ本町,,27,128,5410054,,,,,,,2025-03-21,1,,,,,ネイディス,0
1404,7120101071277,新規,0,2025-03-21,2025-03-21,株式会社三友電設,,株式会社,大阪府,南河内郡太子町,大字太子２９番地の５,,27,381,5830995,,,,,,,2025-03-21,1,,,,,サンユウデンセツ,0
1422,7150001027970,新規,0,2025-03-21,2025-03-21,株式会社中広,,株式会社,奈良県,生駒市,小瀬町１０８－３ジュネス・Ｎ４０５,,29,209,6300223,,,,,,,2025-03-21,1,,,,,ナカヒロ,0
1425,7160001026617,新規,0,2025-03-21,2025-03-21,株式会社西原水道設備工業,,株式会社,滋賀県,大津市,和邇高城１０番地９,,25,201,5200528,,,,,,,2025-03-21,1,,,,,ニシハラスイドウセツビコウギョウ,0
1426,7160003003424,新規,0,2025-03-21,2025-03-21,合同会社Ｆ．Ａ．Ｂ,,合同会社,滋賀県,大津市,花園町１３－２３,,25,201,5200222,,,,,,,2025-03-21,1,,,,,エフエービー,0
1433,7180003028171,新規,0,2025-03-21,2025-03-21,合同会社ＴＹＳ,,合同会社,愛知県,一宮市,起字与三ケ巻６７番地１３,,23,203,4940006,,,,,,,2025-03-21,1,,,,,ティーワイエス,0
1443,7250001021055,新規,0,2025-03-21,2025-03-21,カノウエフエイ株式会社,,株式会社,山口県,周南市,大字金峰４３００番地,,35,215,7450402,,,,,,,2025-03-21,1,,,,,カノウエフエイ,0
1451,7290001109391,新規,0,2025-03-21,2025-03-21,株式会社ｐｏｐｏｌｏ　ａｎｄ,,株式会社,福岡県,福岡市南区,清水３丁目１－９,,40,134,8150031,,,,,,,2025-03-21,1,,,,,ポポロアンド,0
1452,7290001109400,新規,0,2025-03-21,2025-03-21,株式会社漣建築設計,,株式会社,福岡県,福岡市早良区,室見４丁目１７番１４号,,40,137,8140015,,,,,,,2025-03-21,1,,,,,レンケンチクセッケイ,0
1461,7350001019444,新規,0,2025-03-21,2025-03-21,株式会社ほんじつ,,株式会社,宮崎県,延岡市,博労町２番地９,,45,203,8820044,,,,,,,2025-03-21,1,,,,,ホンジツ,0
1467,7380001035174,新規,0,2025-03-21,2025-03-21,株式会社宝ボディー,,株式会社,福島県,須賀川市,畑田字みどりが丘１番地１７,,07,207,9620315,,,,,,,2025-03-21,1,,,,,タカラボディー,0
1468,7390003002361,新規,0,2025-03-21,2025-03-21,合同会社みくりやプロジェクト,,合同会社,山形県,最上郡真室川町,大字川ノ内５３９番地,,06,364,9995301,,,,,,,2025-03-21,1,,,,,ミクリヤプロジェクト,0
1470,7410003004066,新規,0,2025-03-21,2025-03-21,合同会社トレンドボックス,,合同会社,秋田県,由利本荘市,矢島町七日町字羽坂２１番地６,,05,210,0150404,,,,,,,2025-03-21,1,,,,,トレンドボックス,0
1474,7430001093976,新規,0,2025-03-21,2025-03-21,株式会社グローバルハウス,,株式会社,北海道,千歳市,千代田町３丁目７番地,,01,224,0660062,,,,,,,2025-03-21,1,,,,,グローバルハウス,0
1475,7430003017363,新規,0,2025-03-21,2025-03-21,エイチティエー管理合同会社,,合同会社,北海道,恵庭市,住吉町２丁目３番２１号ＨＴＡビル２階,,01,231,0611441,,,,,,,2025-03-21,1,,,,,エイチティエーカンリ,0
1476,7430003017421,新規,0,2025-03-21,2025-03-21,合同会社リンクス,,合同会社,北海道,札幌市中央区,南五条西１５丁目２番３号５０３,,01,101,0640805,,,,,,,2025-03-21,1,,,,,リンクス,0
1478,7450001014567,新規,0,2025-03-21,2025-03-21,株式会社タムート,,株式会社,北海道,上川郡東神楽町,南一条西３丁目５番２号,,01,453,0711501,,,,,,,2025-03-21,1,,,,,タムート,0
1482,7480001012782,新規,0,2025-03-21,2025-03-21,株式会社メディオルト,,株式会社,徳島県,徳島市,佐古一番町１４番１８号,,36,201,7700021,,,,,,,2025-03-21,1,,,,,メディオルト,0
1483,7480005007069,新規,0,2025-03-21,2025-03-21,特定非営利活動法人あろまぷらす,,その他の設立登記法人,徳島県,板野郡北島町,北村字東蛭子７８番地１,,36,402,7710201,,,,,,,2025-03-21,1,,,,,アロマプラス,0
1494,8010001253324,新規,0,2025-03-21,2025-03-21,サイオニックエーアイ株式会社,,株式会社,東京都,中央区,銀座６丁目６番１号銀座風月堂ビル５Ｆ,,13,102,1040061,,,,,,,2025-03-21,1,,,,,サイオニックエーアイ,0
1495,8010001253349,新規,0,2025-03-21,2025-03-21,株式会社アシュタルテ,,株式会社,東京都,中央区,銀座１丁目１２番４号Ｎ＆Ｅ・ＢＬＤ．６Ｆ,,13,102,1040061,,,,,,,2025-03-21,1,,,,,アシュタルテ,0
1496,8010001253373,新規,0,2025-03-21,2025-03-21,株式会社エースパートナーズ,,株式会社,東京都,中央区,新川１丁目７番１号３１１,,13,102,1040033,,,,,,,2025-03-21,1,,,,,エースパートナーズ,0
1497,8010003046817,新規,0,2025-03-21,2025-03-21,茨木松下３合同会社,,合同会社,東京都,千代田区,飯田橋４丁目７番１号結和税理士法人内,,13,101,1020072,,,,,,,2025-03-21,1,,,,,イバラキマツシタスリー,0
1498,8010003046825,新規,0,2025-03-21,2025-03-21,Ａｄｖａｎｃｅｄ　Ｅｎｅｒｇｙ　Ｍｉｎｅｒａｌｓ　Ｊａｐａｎ合同会社,,合同会社,東京都,中央区,日本橋室町４丁目３番９号,,13,102,1030022,,,,,,,2025-03-21,1,,,,,アドヴァンストエナジーミネラルズジャパン,0
1503,8010401188905,新規,0,2025-03-21,2025-03-21,株式会社ＭＹＬＥＧＥＮＤ,,株式会社,東京都,港区,南麻布５丁目１５番２３号ピィクブラン佐々木ビル５階,,13,103,1060047,,,,,,,2025-03-21,1,,,,,マイレジェンド,0
1504,8010401189028,新規,0,2025-03-21,2025-03-21,Ｏａｓｉｓ　Ｆｕｎｄａｍｅｎｔａｌ　Ｖａｌｕｅ　ＩＩ　Ｊａｐａｎ株式会社,,株式会社,東京都,港区,西新橋２丁目２０番１号Ｎａｎ－ｏＢｌｄｇ．新虎５階,,13,103,1050003,,,,,,,2025-03-21,1,,,,,オアシスファンダメンタルバリューツージャパン,0
1507,8010601066984,新規,0,2025-03-21,2025-03-21,株式会社ＬＵＸ　ＲＡＤＩＵＳ,,株式会社,東京都,江東区,木場５丁目１番５号メイプルハイム木場Ｂ１１３,,13,108,1350042,,,,,,,2025-03-21,1,,,,,ラックスレイディアス,0
1516,8011001168297,新規,0,2025-03-21,2025-03-21,株式会社ＬＩＦＩＸ,,株式会社,東京都,渋谷区,恵比寿西２丁目８番４号ＥＸ恵比寿西ビル５階,,13,113,1500021,,,,,,,2025-03-21,1,,,,,リフィックス,0
1517,8011001168339,新規,0,2025-03-21,2025-03-21,株式会社Ｆｅａｔｕｒｅｄ　Ｐｒｏｊｅｃｔｓ,,株式会社,東京都,渋谷区,渋谷２丁目１９－１５宮益坂ビルディング６０９,,13,113,1500002,,,,,,,2025-03-21,1,,,,,フィーチャードプロジェクツ,0
1519,8011101110943,新規,0,2025-03-21,2025-03-21,株式会社ｙｏｇｕｒｔ＆ｍｉｌｋ,,株式会社,東京都,新宿区,岩戸町１６－２メイジャー神楽坂９階,,13,104,1620832,,,,,,,2025-03-21,1,,,,,ヨーグルトアンドミルク,0
1520,8011101110968,新規,0,2025-03-21,2025-03-21,株式会社いちぷら,,株式会社,東京都,新宿区,西新宿３丁目３番１３号西新宿水間ビル２Ｆ,,13,104,1600023,,,,,,,2025-03-21,1,,,,,イチプラ,0
1521,8011101111017,新規,0,2025-03-21,2025-03-21,株式会社ＬＴＬ　Ｊａｐａｎ,,株式会社,東京都,新宿区,大久保１丁目１７番１６号第２玉屋ビル２０７,,13,104,1690072,,,,,,,2025-03-21,1,,,,,エルティエルジャパン,0
1522,8011101111033,新規,0,2025-03-21,2025-03-21,ＫｅｙＡｒｋ株式会社,,株式会社,東京都,新宿区,西新宿３丁目３番１３号西新宿水間ビル２Ｆ,,13,104,1600023,,,,,,,2025-03-21,1,,,,,キーアーク,0
1525,8011105011386,新規,0,2025-03-21,2025-03-21,一般社団法人小瀬川トラスト,,その他の設立登記法人,東京都,新宿区,大京町２番地６,,13,104,1600015,,,,,,,2025-03-21,1,,,,,コセガワトラスト,0
1529,8011401026922,新規,0,2025-03-21,2025-03-21,ＡＡ株式会社,,株式会社,東京都,板橋区,仲宿６３番７号ＯＥＯｆｆｉｃｅＢｌｄｇ．２０２号,,13,119,1730005,,,,,,,2025-03-21,1,,,,,エイエイ,0
1531,8011405002382,新規,0,2025-03-21,2025-03-21,医療法人社団玲芳,,その他の設立登記法人,東京都,板橋区,常盤台１丁目７番１７号１階,,13,119,1740071,,,,,,,2025-03-21,1,,,,,リョウホウ,0
1533,8011501031830,新規,0,2025-03-21,2025-03-21,株式会社Ｄｅａｒ,,株式会社,東京都,荒川区,東日暮里４丁目２２番１４号,,13,118,1160014,,,,,,,2025-03-21,1,,,,,ディアー,0
1537,8011701028164,新規,0,2025-03-21,2025-03-21,株式会社自ずから然る,,株式会社,東京都,江戸川区,清新町１丁目２－１－５１４,,13,123,1340087,,,,,,,2025-03-21,1,,,,,オノズカラシカル,0
1541,8012405005094,新規,0,2025-03-21,2025-03-21,福原社会保険労務士法人,,その他の設立登記法人,東京都,武蔵野市,吉祥寺本町２丁目８番４号ｉ－ｏｆｆｉｃｅ吉祥寺,,13,203,1800004,,,,,,,2025-03-21,1,,,,,フクハラ,0
1549,8013101009653,新規,0,2025-03-21,2025-03-21,賽爾環球科技株式会社,,株式会社,東京都,青梅市,東青梅１丁目４－６井村高木ビル４０１号室,,13,205,1980042,,,,,,,2025-03-21,1,,,,,サイルカンキュウカギ,0
1552,8020001161831,新規,0,2025-03-21,2025-03-21,株式会社コペンローズ,,株式会社,神奈川県,横浜市西区,浅間町５丁目３８０番地３,,14,103,2200072,,,,,,,2025-03-21,1,,,,,コペンローズ,0
1553,8020003028046,新規,0,2025-03-21,2025-03-21,Ｃａｒｂａｒｎ合同会社,,合同会社,神奈川県,横浜市西区,浅間町１丁目４番３号ウィザードビル４０２,,14,103,2200072,,,,,,,2025-03-21,1,,,,,カーバーン,0
1554,8020003028112,新規,0,2025-03-21,2025-03-21,合同会社鉄川,,合同会社,神奈川県,横浜市都筑区,東方町６３１番地２,,14,118,2240045,,,,,,,2025-03-21,1,,,,,テツカワ,0
1558,8021001084758,新規,0,2025-03-21,2025-03-21,株式会社Ｌｉｖｅ　Ｓｔｒａｉｇｈｔ,,株式会社,神奈川県,綾瀬市,上土棚中３丁目１１番３１号,,14,218,2521113,,,,,,,2025-03-21,1,,,,,リブストレイト,0
1565,8030001165492,新規,0,2025-03-21,2025-03-21,株式会社浦舟コーポレーション,,株式会社,埼玉県,さいたま市桜区,西堀４丁目７番１－４０１号,,11,106,3380832,,,,,,,2025-03-21,1,,,,,ウラフネコーポレーション,0
1566,8030001165542,新規,0,2025-03-21,2025-03-21,株式会社社畜も元氣堂,,株式会社,埼玉県,川越市,大字山田１６２１－１モンドビル２Ｆ,,11,201,3500822,,,,,,,2025-03-21,1,,,,,シャチクモゲンキドウ,0
1573,8030003026362,新規,0,2025-03-21,2025-03-21,Ｐｒｏｇｒｅｓｓ合同会社,,合同会社,埼玉県,越谷市,西方１丁目３５３１－１越谷シティハウス６－１０３,,11,222,3430822,,,,,,,2025-03-21,1,,,,,プログレス,0
1574,8030003026370,新規,0,2025-03-21,2025-03-21,えんまぷろだくしょん合同会社,,合同会社,埼玉県,所沢市,西所沢１丁目２２番２－１００１号アルシオーネ西所沢,,11,208,3591144,,,,,,,2025-03-21,1,,,,,エンマプロダクション,0
1575,8030003026387,新規,0,2025-03-21,2025-03-21,合同会社ＴＳＣＡ,,合同会社,埼玉県,所沢市,大字下安松１５７７－８,,11,208,3590024,,,,,,,2025-03-21,1,,,,,ティエスシィエー,0
1576,8030003026395,新規,0,2025-03-21,2025-03-21,合同会社ゆうざん,,合同会社,埼玉県,さいたま市見沼区,大字蓮沼１４３６番地,,11,104,3370015,,,,,,,2025-03-21,1,,,,,ユウザン,0
1580,8040001137912,新規,0,2025-03-21,2025-03-21,ＷＶ　Ｄｙｎａｍｉｃｓ株式会社,,株式会社,千葉県,船橋市,西船１丁目２６番５号ベルハイム２０１号,,12,204,2730031,,,,,,,2025-03-21,1,,,,,ダブリュービーダイナミクス,0
1585,8040003027129,新規,0,2025-03-21,2025-03-21,合同会社有心,,合同会社,千葉県,千葉市中央区,祐光４丁目３番７－２０１号,,12,101,2600007,,,,,,,2025-03-21,1,,,,,ユウシン,0
1587,8050001056376,新規,0,2025-03-21,2025-03-21,株式会社ｋｉｉｔｏｓ,,株式会社,茨城県,神栖市,知手中央５丁目６－２０アーバニズム６５Ｅ１０５,,08,232,3140112,,,,,,,2025-03-21,1,,,,,キートス,0
1589,8060001038043,新規,0,2025-03-21,2025-03-21,ＭＨＹ‐ＪＡＰＡＮ株式会社,,株式会社,栃木県,足利市,今福町２５０番地３,,09,202,3260842,,,,,,,2025-03-21,1,,,,,エムエイチワイジャパン,0
1595,8060003005479,新規,0,2025-03-21,2025-03-21,いろはエナジー合同会社,,合同会社,栃木県,栃木市,片柳町４丁目５番３７号,,09,203,3280053,,,,,,,2025-03-21,1,,,,,イロハエナジー,0
1601,8100001038427,新規,0,2025-03-21,2025-03-21,Ｖｉｓｔａ　Ｓｔｕｄｉｏ株式会社,,株式会社,長野県,上伊那郡中川村,大草３６３２番地１アルプスハイツ中組Ｂ２０１号,,20,386,3993801,,,,,,,2025-03-21,1,,,,,ヴィスタスタジオ,0
1612,8120001273088,新規,0,2025-03-21,2025-03-21,株式会社ＳＨＥＥＰ　ＰＲＯＪＥＣＴ,,株式会社,大阪府,大阪市北区,梅田１丁目１－３大阪駅前第３ビル２９階１－１－１号室,,27,127,5300001,,,,,,,2025-03-21,1,,,,,シーププロジェクト,0
1613,8120001273542,新規,0,2025-03-21,2025-03-21,信和株式会社,,株式会社,大阪府,大阪市生野区,新今里３丁目４番１７号ＯＧビル１０３Ａ,,27,116,5440001,,,,,,,2025-03-21,1,,,,,シンワ,0
1614,8120001273609,新規,0,2025-03-21,2025-03-21,株式会社為一,,株式会社,大阪府,大阪市都島区,都島北通２丁目１－２３－２Ｆ,,27,102,5340014,,,,,,,2025-03-21,1,,,,,イイツ,0
1615,8120001273690,新規,0,2025-03-21,2025-03-21,湯澤経営サポート株式会社,,株式会社,大阪府,大阪市北区,芝田２丁目８番１１号共栄ビル３階,,27,127,5300012,,,,,,,2025-03-21,1,,,,,ユザワケイエイサポート,0
1616,8120001273757,新規,0,2025-03-21,2025-03-21,株式会社ＢｅＲｉｋｕ,,株式会社,大阪府,大阪市西区,新町４丁目１１番１２－２０３号,,27,106,5500013,,,,,,,2025-03-21,1,,,,,ビィーリク,0
1617,8120001273798,新規,0,2025-03-21,2025-03-21,株式会社ｅｎｇｉｎｅｐｏｔなにわ,,株式会社,大阪府,大阪市淀川区,田川北１丁目９－１７－２階,,27,123,5320021,,,,,,,2025-03-21,1,,,,,エンジンポットナニワ,0
1618,8120001273815,新規,0,2025-03-21,2025-03-21,くまーず株式会社,,株式会社,大阪府,大阪市北区,梅田１丁目２番２号大阪駅前第２ビル１２－１２,,27,127,5300001,,,,,,,2025-03-21,1,,,,,クマーズ,0
1619,8120001273996,新規,0,2025-03-21,2025-03-21,株式会社Ｇｅｔ　Ｗｉｌｄ,,株式会社,大阪府,大阪市北区,梅田２丁目４番９号ブリーゼタワー３階,,27,127,5300001,,,,,,,2025-03-21,1,,,,,ゲットワイルド,0
1622,8120003028911,新規,0,2025-03-21,2025-03-21,ＳＯＲＡ合同会社,,合同会社,大阪府,大阪市天王寺区,味原町１１番２１号,,27,109,5430023,,,,,,,2025-03-21,1,,,,,ソラ,0
1623,8120101071292,新規,0,2025-03-21,2025-03-21,株式会社颯建,,株式会社,大阪府,堺市南区,豊田３３３番地（２０８号）,,27,145,5900106,,,,,,,2025-03-21,1,,,,,ソウケン,0
1624,8120101071301,新規,0,2025-03-21,2025-03-21,未名株式会社,,株式会社,大阪府,阪南市,貝掛６３番３号シーサイド貝掛Ｂ棟４０７号室,,27,232,5990231,,,,,,,2025-03-21,1,,,,,ミメイ,0
1626,8120103006338,新規,0,2025-03-21,2025-03-21,新竹合同会社,,合同会社,大阪府,岸和田市,松風町１３番５８号春木ｗｏｒｋｓｐａｃｅ１０１号室,,27,202,5960021,,,,,,,2025-03-21,1,,,,,シンチク,0
1629,8120901050611,新規,0,2025-03-21,2025-03-21,株式会社ＯｐｔＣａｒｅ,,株式会社,大阪府,豊中市,桜の町３丁目１１番１号リハビリテーション科学総合研究所内,,27,203,5600054,,,,,,,2025-03-21,1,,,,,オプトケア,0
1634,8140001137828,新規,0,2025-03-21,2025-03-21,株式会社ＯＧＡＷＡ,,株式会社,兵庫県,たつの市,揖保町中臣１１１５番地３,,28,229,6794152,,,,,,,2025-03-21,1,,,,,オガワ,0
1635,8140003021815,新規,0,2025-03-21,2025-03-21,合同会社舞子天野ビル,,合同会社,兵庫県,神戸市垂水区,舞子台８丁目６番１号,,28,108,6550046,,,,,,,2025-03-21,1,,,,,マイコアマノビル,0
1636,8150003003531,新規,0,2025-03-21,2025-03-21,ＯＲＩＺＵＲＵ　ＪＡＰＡＮ合同会社,,合同会社,奈良県,生駒郡平群町,大字椣原５２３番地の２２,,29,342,6360901,,,,,,,2025-03-21,1,,,,,オリズルジャパン,0
1639,8160003003423,新規,0,2025-03-21,2025-03-21,合同会社ハイドラント,,合同会社,滋賀県,大津市,二本松１番１号ブランチ大津京１Ｆ,,25,201,5200021,,,,,,,2025-03-21,1,,,,,ハイドラント,0
1641,8160005011382,新規,0,2025-03-21,2025-03-21,一般社団法人ＯＭＵＳＵＢＩ,,その他の設立登記法人,滋賀県,東近江市,小倉町１８３０番地,,25,213,5270165,,,,,,,2025-03-21,1,,,,,オムスビ,0
1642,8170001018538,新規,0,2025-03-21,2025-03-21,株式会社グッドフラットプラス,,株式会社,和歌山県,田辺市,たきない町１３番１号,,30,206,6460015,,,,,,,2025-03-21,1,,,,,グッドフラットプラス,0
1648,8180001166006,新規,0,2025-03-21,2025-03-21,株式会社リボンホールディングス,,株式会社,愛知県,小牧市,小木１丁目４８番地,,23,219,4850058,,,,,,,2025-03-21,1,,,,,リボンホールディングス,0
1652,8180003028162,新規,0,2025-03-21,2025-03-21,ＲＳ　ＴＲＡＤＩＮＧ合同会社,,合同会社,愛知県,海部郡飛島村,大字服岡８丁目８６番地の１,,23,427,4901431,,,,,,,2025-03-21,1,,,,,アールエストレーディング,0
1653,8180005020992,新規,0,2025-03-21,2025-03-21,医療法人黒猫会,,その他の設立登記法人,愛知県,長久手市,根嶽８０５番地,,23,238,4801148,,,,,,,2025-03-21,1,,,,,クロネコカイ,0
1659,8180303006495,新規,0,2025-03-21,2025-03-21,合同会社サプライズ,,合同会社,愛知県,岡崎市,宮地町字北浦３５番地１０１,,23,202,4440202,,,,,,,2025-03-21,1,,,,,サプライズ,0
1661,8190003004971,新規,0,2025-03-21,2025-03-21,合同会社ＭＩＲＡＥ,,合同会社,三重県,鈴鹿市,長太栄町３丁目１０番２９コーポラメール２０２,,24,207,5130043,,,,,,,2025-03-21,1,,,,,ミラエ,0
1668,8240001064673,新規,0,2025-03-21,2025-03-21,株式会社エスポワール,,株式会社,広島県,広島市中区,田中町４番１号,,34,101,7300026,,,,,,,2025-03-21,1,,,,,エスポワール,0
1669,8240003007119,新規,0,2025-03-21,2025-03-21,Ｎｅｐ‐ｐｉｏｎ合同会社,,合同会社,広島県,廿日市市,宮園５丁目４－７,,34,213,7380035,,,,,,,2025-03-21,1,,,,,ネプピオーン,0
1677,8290001109390,新規,0,2025-03-21,2025-03-21,株式会社エルハート,,株式会社,福岡県,福岡市城南区,友丘６丁目２０番２７号,,40,136,8140112,,,,,,,2025-03-21,1,,,,,エルハート,0
1679,8290003016569,新規,0,2025-03-21,2025-03-21,エンレン合同会社,,合同会社,福岡県,久留米市,西町１０２２番地１,,40,203,8300038,,,,,,,2025-03-21,1,,,,,エンレン,0
1680,8290003016577,新規,0,2025-03-21,2025-03-21,ＮＩＮＯ合同会社,,合同会社,福岡県,福岡市早良区,百道浜１丁目５－３－１０３,,40,137,8140001,,,,,,,2025-03-21,1,,,,,ニノ,0
1683,8310003004967,新規,0,2025-03-21,2025-03-21,ＴＨＥ　ＺＥＮ　ＳＡＭＵＲＡＩ　ＪＡＰＡＮ合同会社,,合同会社,長崎県,対馬市,厳原町豆酘２１１３番地１,,42,209,8170154,,,,,,,2025-03-21,1,,,,,ザゼンサムライジャパン,0
1684,8320003004603,新規,0,2025-03-21,2025-03-21,合同会社Ａｚｕ＆Ｉｚｕ２５１２,,合同会社,大分県,別府市,大字鶴見３０３０番地の５,,44,202,8740840,,,,,,,2025-03-21,1,,,,,アズアンドイズニーゴーイチニ,0
1686,8340001027199,新規,0,2025-03-21,2025-03-21,株式会社宗,,株式会社,鹿児島県,薩摩川内市,御陵下町１３番６号,,46,215,8950061,,,,,,,2025-03-21,1,,,,,ソウ,0
1687,8360003014788,新規,0,2025-03-21,2025-03-21,合同会社スクラムワークス,,合同会社,沖縄県,うるま市,字赤道６５６番地,,47,213,9042245,,,,,,,2025-03-21,1,,,,,スクラムワークス,0
1688,8360005007187,新規,0,2025-03-21,2025-03-21,一般社団法人さんずスマイル,,その他の設立登記法人,沖縄県,沖縄市,高原３丁目１１番５３号２Ｆ,,47,211,9042171,,,,,,,2025-03-21,1,,,,,サンズスマイル,0
1693,8380001035173,新規,0,2025-03-21,2025-03-21,株式会社ミルズ,,株式会社,福島県,郡山市,三穂田町川田字大徳原１番地の１５２,,07,203,9630121,,,,,,,2025-03-21,1,,,,,ミルズ,0
1694,8380003005991,新規,0,2025-03-21,2025-03-21,あいらいふ合同会社,,合同会社,福島県,いわき市,平字田町１２０番地ＬＡＴＯＶ６階いわき産業創造館シェアオフィス内,,07,204,9708026,,,,,,,2025-03-21,1,,,,,アイライフ,0
1700,8430001093975,新規,0,2025-03-21,2025-03-21,株式会社ＡＮホールディングス,,株式会社,北海道,札幌市豊平区,西岡三条１丁目１番６号,,01,105,0620033,,,,,,,2025-03-21,1,,,,,エーエヌホールディングス,0
1701,8430005015182,新規,0,2025-03-21,2025-03-21,医療法人社団おかざき眼科,,その他の設立登記法人,北海道,江別市,野幌町２６番１２野幌メディカルビル１階,,01,217,0690813,,,,,,,2025-03-21,1,,,,,オカザキガンカ,0
1708,8500003003462,新規,0,2025-03-21,2025-03-21,合同会社レオテック,,合同会社,愛媛県,新居浜市,東田３丁目乙６１－４,,38,205,7920852,,,,,,,2025-03-21,1,,,,,レオテック,0
1709,8700150129668,新規,0,2025-03-21,2025-03-21,ｈａｎｇｚｈｏｕｌｉｎａｎｇｏｕｘｉｎｇｄｉａｎｚｉｓｈａｎｇｗｕｙｏｕｘｉａｎｇｏｎｇｓｉ,,外国会社等,,,,,,,,ｓｈｉｄｉｊｉｅ３３ｈａｏ５ｈａｏｌｏｕ３０８－２０６５ｓｈｉ　ｌｉｎａｎｑｕｑｉｎｇｓｈａｎｈｕｊｉｅｄａｏ　ｈａｎｇｚｈｏｕｓｈｉｚｈｅｊｉａｎｇ　３１１３０５　ＣＮ,,,,,,2025-03-21,1,,,,,ハンジョウリンアンゴウシンディエンズーシャンウヨウシェンゴンスー,0
1717,9010001253364,新規,0,2025-03-21,2025-03-21,株式会社Ｌｅ　Ｃｈａｍｂｒｅ,,株式会社,東京都,中央区,銀座６丁目４番８－８０３号,,13,102,1040061,,,,,,,2025-03-21,1,,,,,ルシャンブル,0
1724,9010401189027,新規,0,2025-03-21,2025-03-21,Ｏａｓｉｓ　Ｆｕｎｄａｍｅｎｔａｌ　Ｖａｌｕｅ　Ｉ　Ｊａｐａｎ株式会社,,株式会社,東京都,港区,西新橋２丁目２０番１号Ｎａｎ－ｏＢｌｄｇ．新虎５階,,13,103,1050003,,,,,,,2025-03-21,1,,,,,オアシスファンダメンタルバリューワンジャパン,0
1725,9010405024155,新規,0,2025-03-21,2025-03-21,一般社団法人ＨＤＧ４３,,その他の設立登記法人,東京都,港区,虎ノ門３丁目２２番１０－２０１号,,13,103,1050001,,,,,,,2025-03-21,1,,,,,エイチディージーフォースリー,0
1726,9010501053784,新規,0,2025-03-21,2025-03-21,Ｓｕｎｒｉｓｅ株式会社,,株式会社,東京都,台東区,竜泉１丁目３０－１藤和シティコープ入谷９０２号,,13,106,1100012,,,,,,,2025-03-21,1,,,,,サンライズ,0
1734,9010901057047,新規,0,2025-03-21,2025-03-21,株式会社Ｓｕｇａｒｔｙ,,株式会社,東京都,世田谷区,北烏山１丁目１番５号,,13,112,1570061,,,,,,,2025-03-21,1,,,,,シュガーティー,0
1738,9011001167604,新規,0,2025-03-21,2025-03-21,株式会社ｎｅｄｏｋｏ,,株式会社,東京都,渋谷区,恵比寿西２丁目４－８,,13,113,1500021,,,,,,,2025-03-21,1,,,,,ネドコ,0
1739,9011001168296,新規,0,2025-03-21,2025-03-21,株式会社トキリンク,,株式会社,東京都,目黒区,下目黒３丁目１０番３４－４２０号,,13,110,1530064,,,,,,,2025-03-21,1,,,,,トキリンク,0
1740,9011001168305,新規,0,2025-03-21,2025-03-21,株式会社スマートエイト,,株式会社,東京都,渋谷区,道玄坂１丁目１６－６二葉ビル８ｂ,,13,113,1500043,,,,,,,2025-03-21,1,,,,,スマートエイト,0
1742,9011003021180,新規,0,2025-03-21,2025-03-21,合同会社ＭＴＧ,,合同会社,東京都,渋谷区,神南１丁目１１－４ＦＰＧリンクス神南５Ｆ,,13,113,1500041,,,,,,,2025-03-21,1,,,,,エムティージー,0
1743,9011003021255,新規,0,2025-03-21,2025-03-21,合同会社ルモラ,,合同会社,東京都,渋谷区,渋谷２丁目１９‐１５宮益坂ビルディング６０９,,13,113,1500002,,,,,,,2025-03-21,1,,,,,ルモラ,0
1745,9011101110991,新規,0,2025-03-21,2025-03-21,ビークル株式会社,,株式会社,東京都,新宿区,納戸町２７―１７,,13,104,1620837,,,,,,,2025-03-21,1,,,,,ビークル,0
1746,9011101111016,新規,0,2025-03-21,2025-03-21,株式会社Ｋ．ｆｉｌｍ,,株式会社,東京都,新宿区,西新宿８丁目８番６号ＬＵビル５０１,,13,104,1600023,,,,,,,2025-03-21,1,,,,,ケードットフィルム,0
1747,9011101111032,新規,0,2025-03-21,2025-03-21,株式会社檜扇,,株式会社,東京都,新宿区,若葉１丁目１４番地ステュディオ若葉１０２,,13,104,1600011,,,,,,,2025-03-21,1,,,,,ヒオウギ,0
1748,9011101111065,新規,0,2025-03-21,2025-03-21,トレックサイド株式会社,,株式会社,東京都,新宿区,西新宿１丁目４－１１,,13,104,1600023,,,,,,,2025-03-21,1,,,,,トレックサイド,0
1753,9011401026913,新規,0,2025-03-21,2025-03-21,株式会社サン姉妹舎,,株式会社,東京都,板橋区,坂下１丁目３５番１６号,,13,119,1740043,,,,,,,2025-03-21,1,,,,,サンシマイシャ,0
1754,9011401026938,新規,0,2025-03-21,2025-03-21,株式会社ＭＹ　Ｉｎｔｅｒｎａｔｉｏｎａｌ,,株式会社,東京都,板橋区,赤塚５丁目２３番９号,,13,119,1750092,,,,,,,2025-03-21,1,,,,,エムワイインターナショナル,0
1757,9012301014306,新規,0,2025-03-21,2025-03-21,株式会社クロスセクター,,株式会社,東京都,町田市,森野１丁目３６－２セレステ町田１Ｆリージャス町田センター,,13,209,1940022,,,,,,,2025-03-21,1,,,,,クロスセクター,0
1764,9013305003699,新規,0,2025-03-21,2025-03-21,医療法人社団悠生会,,その他の設立登記法人,東京都,豊島区,池袋２丁目１番１号千野時計店本社ビル４階,,13,116,1710014,,,,,,,2025-03-21,1,,,,,ユウセイカイ,0
1767,9020001161938,新規,0,2025-03-21,2025-03-21,株式会社サムネスト,,株式会社,神奈川県,横浜市神奈川区,斎藤分町４番１２号セレッソコート白楽１０１号,,14,102,2210811,,,,,,,2025-03-21,1,,,,,サムネスト,0
1768,9020001161962,新規,0,2025-03-21,2025-03-21,ＧｉｇａＥａｓｅ　Ｋｕｍｏ国際株式会社,,株式会社,神奈川県,横浜市中区,弥生町２丁目１５番１号ストークタワー大通り公園ＩＩＩ２０４－Ａ,00138403,14,104,2310058,,,,,,,2025-03-21,1,,,,,ギガイーセクモコクサイ,0
1769,9020003028053,新規,0,2025-03-21,2025-03-21,ＳＥＭ合同会社,,合同会社,神奈川県,川崎市川崎区,中島３丁目５番２号シュテルハオス１０１,,14,131,2100806,,,,,,,2025-03-21,1,,,,,エスイーエム,0
1770,9020003028094,新規,0,2025-03-21,2025-03-21,合同会社ハヤテプログレス,,合同会社,神奈川県,横浜市保土ケ谷区,権太坂１丁目３３番１５号,,14,106,2400026,,,,,,,2025-03-21,1,,,,,ハヤテプログレス,0
1771,9020005016733,新規,0,2025-03-21,2025-03-21,医療法人社団真心,,その他の設立登記法人,神奈川県,横浜市港北区,箕輪町１丁目２４番９号１Ｆ２Ｆ,,14,109,2230051,,,,,,,2025-03-21,1,,,,,マゴコロ,0
1773,9021001084757,新規,0,2025-03-21,2025-03-21,株式会社影山建設,,株式会社,神奈川県,秦野市,渋沢上１丁目９番１７号ヴィラ萩が丘１０２号室,,14,211,2591326,,,,,,,2025-03-21,1,,,,,カゲヤマケンセツ,0
1774,9021005013308,新規,0,2025-03-21,2025-03-21,医療法人ベルクフルス,,その他の設立登記法人,神奈川県,藤沢市,藤沢５４１番地,,14,205,2510052,,,,,,,2025-03-21,1,,,,,ベルクフルス,0
1783,9030001165401,新規,0,2025-03-21,2025-03-21,クレヨンサービス株式会社,,株式会社,埼玉県,春日部市,内牧５０３２番地１アトム北春日部１０６,,11,214,3440051,,,,,,,2025-03-21,1,,,,,クレヨンサービス,0
1784,9030001165434,新規,0,2025-03-21,2025-03-21,ファーストヒル株式会社,,株式会社,埼玉県,所沢市,松が丘１丁目１２番地の１２,,11,208,3591132,,,,,,,2025-03-21,1,,,,,ファーストヒル,0
1785,9030001165491,新規,0,2025-03-21,2025-03-21,株式会社ＭＪメンテナンス,,株式会社,埼玉県,幸手市,大字外国府間３７３－１,,11,240,3400101,,,,,,,2025-03-21,1,,,,,エムジェイメンテナンス,0
1791,9040001137903,新規,0,2025-03-21,2025-03-21,大山商事株式会社,,株式会社,千葉県,柏市,高柳８６６番地２３,,12,217,2770941,,,,,,,2025-03-21,1,,,,,オオヤマショウジ,0
1792,9040001137911,新規,0,2025-03-21,2025-03-21,株式会社ＫＨＲＯＮＯＳ,,株式会社,千葉県,千葉市若葉区,都賀４丁目２番１８号,,12,104,2640025,,,,,,,2025-03-21,1,,,,,クロノス,0
1796,9040003027128,新規,0,2025-03-21,2025-03-21,ＹＳ合同会社,,合同会社,千葉県,千葉市緑区,誉田町２丁目２０番地５０９ピオニエール２０４号,,12,105,2660005,,,,,,,2025-03-21,1,,,,,ワイエス,0
1797,9040003027160,新規,0,2025-03-21,2025-03-21,合同会社コーペレイション,,合同会社,千葉県,市原市,北国分寺台１丁目３番地５,,12,219,2900071,,,,,,,2025-03-21,1,,,,,コーペレイション,0
1799,9050001056359,新規,0,2025-03-21,2025-03-21,株式会社エグバル,,株式会社,茨城県,日立市,平和町１丁目１番６号,,08,202,3170062,,,,,,,2025-03-21,1,,,,,エグバル,0
1800,9050001056375,新規,0,2025-03-21,2025-03-21,株式会社ミルオーラフーズ,,株式会社,茨城県,水戸市,千波町２７７０番４号,,08,201,3100851,,,,,,,2025-03-21,1,,,,,ミルオーラフーズ,0
1801,9050003009125,新規,0,2025-03-21,2025-03-21,アースコンテナ合同会社,,合同会社,茨城県,牛久市,ひたち野東５丁目３０番地１０,,08,219,3001207,,,,,,,2025-03-21,1,,,,,アースコンテナ,0
1808,9060003005478,新規,0,2025-03-21,2025-03-21,合同会社ＦＫ‐ｗｏｒｋｓ,,合同会社,栃木県,佐野市,山形町５３７－４,,09,204,3270324,,,,,,,2025-03-21,1,,,,,エフケイワークス,0
1815,9090001019188,新規,0,2025-03-21,2025-03-21,ＳＨＡＢＤＡＶＩＤＳ　ＧＬＯＢＡＬ株式会社,,株式会社,山梨県,南都留郡山中湖村,平野１２７２番地３１,,19,425,4010502,,,,,,,2025-03-21,1,,,,,シャブデイビシシグローバル,0
1828,9120001273632,新規,0,2025-03-21,2025-03-21,Ｋａｎｅｉｋｏ　Ｉｎｔｅｒｎａｔｉｏｎａｌ株式会社,,株式会社,大阪府,大阪市中央区,粉川町７番２－９０３号,,27,128,5400018,,,,,,,2025-03-21,1,,,,,カネイコインターナショナル,0
1829,9120001273748,新規,0,2025-03-21,2025-03-21,ＮＡＦＡ株式会社,,株式会社,大阪府,大阪市北区,大淀北１丁目５番２９－２０６号,,27,127,5310077,,,,,,,2025-03-21,1,,,,,ナファ,0
1830,9120001273756,新規,0,2025-03-21,2025-03-21,株式会社福八,,株式会社,大阪府,大阪市住吉区,東粉浜１丁目９番１０号,,27,120,5580051,,,,,,,2025-03-21,1,,,,,フクヤ,0
1831,9120001273896,新規,0,2025-03-21,2025-03-21,株式会社アクティブ,,株式会社,大阪府,大阪市北区,堂島２丁目２－３４クリエ堂島１Ｆ,,27,127,5300003,,,,,,,2025-03-21,1,,,,,アクティブ,0
1832,9120001274093,新規,0,2025-03-21,2025-03-21,株式会社ＢＲＡＮＺ,,株式会社,大阪府,大阪市北区,豊崎３丁目１６番１６号ブランズタワー梅田Ｎｏｒｔｈ１８１０号室,,27,127,5310072,,,,,,,2025-03-21,1,,,,,ブランズ,0
1834,9120003028919,新規,0,2025-03-21,2025-03-21,合同会社かぼす,,合同会社,大阪府,大阪市北区,梅田１丁目２－２大阪駅前第２ビル１２－１２,,27,127,5300001,,,,,,,2025-03-21,1,,,,,カボス,0
1838,9120101071275,新規,0,2025-03-21,2025-03-21,Ｌｉｎｏ’ａ株式会社,,株式会社,大阪府,岸和田市,磯上町６丁目９番５号,,27,202,5960001,,,,,,,2025-03-21,1,,,,,リノア,0
1839,9120101071291,新規,0,2025-03-21,2025-03-21,株式会社永松,,株式会社,大阪府,和泉市,はつが野４丁目１５番１１号,,27,219,5941106,,,,,,,2025-03-21,1,,,,,エイショウ,0
1841,9120103006337,新規,0,2025-03-21,2025-03-21,合同会社ｊａｄｅ,,合同会社,大阪府,羽曳野市,東阪田２７５番地の１２,,27,222,5830846,,,,,,,2025-03-21,1,,,,,ジェイド,0
1852,9140001137827,新規,0,2025-03-21,2025-03-21,株式会社ＮＣメディカルコンサルティング,,株式会社,兵庫県,神戸市中央区,御幸通４丁目２番１５号三宮米本ビル８Ｆ－Ｂ室,,28,110,6510087,,,,,,,2025-03-21,1,,,,,エヌシーメディカルコンサルティング,0
1854,9180001166005,新規,0,2025-03-21,2025-03-21,株式会社ＴＡＴＥ,,株式会社,愛知県,名古屋市東区,筒井３丁目２５番１９号,,23,102,4610003,,,,,,,2025-03-21,1,,,,,タテ,0
1855,9180001166013,新規,0,2025-03-21,2025-03-21,あつた宮宿エリアマネジメント株式会社,,株式会社,愛知県,名古屋市熱田区,神戸町８０１番地神戸荘１棟１０９号,,23,109,4560043,,,,,,,2025-03-21,1,,,,,アツタミヤシュクエリアマネジメント,0
1857,9180003028153,新規,0,2025-03-21,2025-03-21,合同会社フィクシス,,合同会社,愛知県,名古屋市中村区,名駅４丁目２４番５号第２森ビル４０１,,23,105,4500002,,,,,,,2025-03-21,1,,,,,フィクシス,0
1858,9180003028178,新規,0,2025-03-21,2025-03-21,ＳＯＵＬ合同会社,,合同会社,愛知県,名古屋市緑区,太子３丁目１５シーズンコート有松１０７号,,23,114,4580823,,,,,,,2025-03-21,1,,,,,ソウル,0
1864,9190003004970,新規,0,2025-03-21,2025-03-21,合同会社ＡＮ　ＴＲＡＤＩＮＧ,,合同会社,三重県,津市,白塚町４６１２－５（ｗｉｎ２４－２０８号室）,,24,201,5140101,,,,,,,2025-03-21,1,,,,,エーエヌトレーディング,0
1875,9260005011454,新規,0,2025-03-21,2025-03-21,一般社団法人宮大工養成塾岡山西大寺校,,その他の設立登記法人,岡山県,岡山市東区,西大寺中３丁目８番８号,,33,103,7048116,,,,,,,2025-03-21,1,,,,,ミヤダイクヨウセイジュクオカヤマサイダイジコウ,0
1881,9300003002244,新規,0,2025-03-21,2025-03-21,合同会社古今東西トラの巻,,合同会社,佐賀県,武雄市,朝日町中野８６０４－２,,41,206,8430000,,,,,,,2025-03-21,1,,,,,ココントウザイトラノマキ,0
1882,9320001021005,新規,0,2025-03-21,2025-03-21,大喜建業株式会社,,株式会社,大分県,大分市,大字口戸３２４,,44,201,8701162,,,,,,,2025-03-21,1,,,,,ダイキケンギョウ,0
1884,9320003004602,新規,0,2025-03-21,2025-03-21,合同会社Ｔ＆Ｓ４１７８,,合同会社,大分県,別府市,石垣東１丁目９番１４号,,44,202,8740919,,,,,,,2025-03-21,1,,,,,ティーアンドエスヨンイチナナハチ,0
1885,9330003010905,新規,0,2025-03-21,2025-03-21,合同会社Ｒｏｂｂｙ,,合同会社,熊本県,熊本市南区,並建町７８９番地２,,43,104,8615263,,,,,,,2025-03-21,1,,,,,ロービー,0
1886,9330005010886,新規,0,2025-03-21,2025-03-21,ＮＰＯ法人ミモザ,,その他の設立登記法人,熊本県,八代市,郡築四番町８０番地２,,43,202,8660021,,,,,,,2025-03-21,1,,,,,ミモザ,0
1893,9360001034944,新規,0,2025-03-21,2025-03-21,株式会社人間模様,,株式会社,沖縄県,沖縄市,中央２丁目６番５号,,47,211,9040004,,,,,,,2025-03-21,1,,,,,ニンゲンモヨウ,0
1895,9370001052375,新規,0,2025-03-21,2025-03-21,株式会社Ａ＆Ｔ　Ｐｏｗｅｒ　Ｓｏｌｕｔｉｏｎｓ,,株式会社,宮城県,仙台市若林区,大和町４丁目１６番５－３号,,04,103,9840042,,,,,,,2025-03-21,1,,,,,エーアンドティパワーソリューションズ,0
1901,9380001035164,新規,0,2025-03-21,2025-03-21,株式会社国茂,,株式会社,福島県,相馬市,中村１丁目２番地の６,,07,209,9760042,,,,,,,2025-03-21,1,,,,,クニシゲ,0
1902,9380001035172,新規,0,2025-03-21,2025-03-21,株式会社ジョイント,,株式会社,福島県,いわき市,平字堂根町４番地の１７いわき中央ビル４０２－Ｂ,,07,204,9708026,,,,,,,2025-03-21,1,,,,,ジョイント,0
1903,9380003005982,新規,0,2025-03-21,2025-03-21,合同会社Ｌａｓｔ　Ｒｅｓｏｒｔ,,合同会社,福島県,二本松市,西町９番地,,07,210,9640856,,,,,,,2025-03-21,1,,,,,ラストリゾート,0
1904,9380003005990,新規,0,2025-03-21,2025-03-21,合同会社ＦＤサポート,,合同会社,福島県,福島市,町庭坂字金腐８番地,,07,201,9602261,,,,,,,2025-03-21,1,,,,,エフディーサポート,0
1906,9390001017921,新規,0,2025-03-21,2025-03-21,アイシャテラス株式会社,,株式会社,山形県,山形市,城西町５丁目３番２７号,,06,201,9900832,,,,,,,2025-03-21,1,,,,,アイシャテラス,0
1911,9420003003081,新規,0,2025-03-21,2025-03-21,合同会社Ｆｗｏｒｋｓ,,合同会社,青森県,八戸市,小中野７丁目５番２２号レオパレスセブンシー１０２,,02,203,0310802,,,,,,,2025-03-21,1,,,,,エフワークス,0
1916,9430001093958,新規,0,2025-03-21,2025-03-21,株式会社ＴＲＹＲ,,株式会社,北海道,札幌市北区,新川西四条３丁目１番１６号アトランティス新川２０７号,,01,102,0010934,,,,,,,2025-03-21,1,,,,,トライロ,0
1923,9460301005288,新規,0,2025-03-21,2025-03-21,ｓｕｍｍｅｒ　ｔｒｅｅ株式会社,,株式会社,北海道,網走市,新町３丁目２番１８号,,01,211,0930046,,,,,,,2025-03-21,1,,,,,サマーツリー,0
1924,9470003002839,新規,0,2025-03-21,2025-03-21,ユーリアライズ合同会社,,合同会社,香川県,高松市,三谷町２５９７―２,,37,201,7610450,,,,,,,2025-03-21,1,,,,,ユーリアライズ,0
