sequenceNumber,corporateNumber,process,correct,updateDate,changeDate,name,nameImageId,kind,prefectureName,cityName,streetNumber,addressImageId,prefectureCode,cityCode,postCode,addressOutside,addressOutsideImageId,closeDate,closeCause,successorCorporateNumber,changeCause,assignmentDate,latest,enName,enPrefectureName,enCityName,enAddressOutside,furigana,hihyoji
3,1010001133160,登記記録の閉鎖等,0,2021-09-09,2021-09-01,株式会社セブン＆アイ・アセットマネジメント,,株式会社,東京都,千代田区,二番町８番地８,,13,101,1020084,,,2021-09-01,合併による解散等,6010001127026,令和３年９月１日東京都千代田区二番町５番地２５株式会社そごう・西武（6010001127026）に合併し解散,2015-10-05,1,,,,,セブンアンドアイアセットマネジメント,0
11,1010003032963,登記記録の閉鎖等,0,2021-09-09,2021-09-03,紀尾井町第二金融準備合同会社,,合同会社,東京都,千代田区,紀尾井町１番３号,,13,101,1020094,,,2021-09-03,清算の結了等,,,2020-09-04,1,,,,,キオイチョウダイニキンユウジュンビ,0
15,1010005024323,登記記録の閉鎖等,0,2021-09-09,2021-09-02,一般社団法人ウィメンズ整体協会,,その他の設立登記法人,東京都,千代田区,東神田１丁目１４番１３号,,13,101,1010031,,,2021-09-02,清算の結了等,,,2015-10-05,1,,,,,ウィメンズセイタイキョウカイ,0
16,1010005028662,登記記録の閉鎖等,0,2021-09-09,2021-09-03,アール・ピー・ベータ一般社団法人,,その他の設立登記法人,東京都,中央区,日本橋１丁目４番１号,,13,102,1030027,,,2021-09-03,清算の結了等,,,2018-06-14,1,,,,,アールピーベータ,0
27,1010901038946,登記記録の閉鎖等,0,2021-09-09,2021-09-02,株式会社ＲＫＳ,,株式会社,東京都,世田谷区,代沢１丁目２７－３,,13,112,1550032,,,2021-09-02,清算の結了等,,,2016-10-19,1,,,,,アールケイエス,0
41,1011001103062,登記記録の閉鎖等,0,2021-09-09,2021-09-01,株式会社バーガーキング・ジャパン,,株式会社,東京都,千代田区,一番町１６番１号,,13,101,1020082,,,2021-09-01,合併による解散等,2011001118150,令和３年９月１日東京都千代田区一番町１６番１号共同ビル一番町３階株式会社ビーケージャパンホールディングス（2011001118150）に合併し解散,2015-10-05,1,,,,,バーガーキングジャパン,0
60,1011502002192,登記記録の閉鎖等,0,2021-09-09,2021-09-06,有限会社コスモ設計亊務所,00055773,有限会社,東京都,北区,西ケ原１丁目１７番８号ＳＫハイツ２０２号,,13,117,1140024,,,2021-09-06,清算の結了等,,,2015-10-05,1,,,,,コスモセッケイジムショ,0
65,1011801033871,登記記録の閉鎖等,0,2021-09-09,2021-09-03,ヒマリ不動産株式会社,,株式会社,東京都,葛飾区,亀有５丁目４１番３号ハルミテラス亀有１０１,,13,122,1250061,,,2021-09-03,合併による解散等,9011803002677,令和３年８月３１日東京都葛飾区亀有五丁目４１番３号ハルミテラス亀有１０１東京レジデンスリサーチ＆サポート合同会社（9011803002677）に合併し解散,2017-09-14,1,,,,,ヒマリフドウサン,0
68,1012401008702,登記記録の閉鎖等,0,2021-09-09,2021-09-06,株式会社明倫鑑定,,株式会社,東京都,調布市,国領町３丁目１番地３８,,13,208,1820022,,,2021-09-06,清算の結了等,,,2015-10-05,1,,,,,メイリンカンテイ,0
80,1020001004352,登記記録の閉鎖等,0,2021-09-09,2021-09-03,ハマ住宅株式会社,,株式会社,神奈川県,横浜市港南区,大久保２丁目３１番２１号,,14,111,2330007,,,2021-09-03,清算の結了等,,,2015-10-05,1,,,,,ハマジュウタク,0
83,1020001057961,登記記録の閉鎖等,0,2021-09-09,2021-09-06,株式会社ａ－ＭＡＸ,,株式会社,神奈川県,横浜市港北区,小机町１２２３番地３ファミールガーデン横浜小机四番館１０３号,,14,109,2220036,,,2021-09-06,清算の結了等,,,2015-10-05,1,,,,,アーマックス,0
89,1021001010159,登記記録の閉鎖等,0,2021-09-09,2021-09-02,株式会社ＰＸ,,株式会社,神奈川県,鎌倉市,稲村ガ崎３丁目７番１１号,,14,204,2480024,,,2021-09-02,清算の結了等,,,2015-10-05,1,,,,,ピーエックス,0
98,1021002051763,登記記録の閉鎖等,0,2021-09-09,2021-09-02,有限会社寿商店,,有限会社,神奈川県,小田原市,板橋９４番地,,14,206,2500034,,,2021-09-02,清算の結了等,,,2015-10-05,1,,,,,コトブキショウテン,0
102,1021005002193,登記記録の閉鎖等,0,2021-09-09,2021-09-03,特定非営利活動法人輝き・遊っ子楽っ子,,その他の設立登記法人,神奈川県,鎌倉市,岡本２丁目７番３号,,14,204,2470072,,,2021-09-03,清算の結了等,,,2015-10-05,1,,,,,カガヤキユッコラッコ,0
104,1030001049454,登記記録の閉鎖等,0,2021-09-09,2021-08-31,イムズ株式会社,,株式会社,埼玉県,新座市,北野２丁目１０番２５号,,11,230,3520003,,,2021-08-31,清算の結了等,,,2015-10-05,1,,,,,イムズ,0
113,1030002102914,登記記録の閉鎖等,0,2021-09-09,2021-08-30,有限会社斉藤不動産,,有限会社,埼玉県,川口市,大字安行藤八７６５番地の２,,11,203,3340051,,,2021-08-30,清算の結了等,,,2015-10-05,1,,,,,サイトウフドウサン,0
115,1040001019621,登記記録の閉鎖等,0,2021-09-09,2021-09-01,ワイティーパーク株式会社,,株式会社,千葉県,船橋市,上山町２丁目２８３番地,,12,204,2730046,,,2021-09-01,清算の結了等,,,2015-10-05,1,,,,,ワイティーパーク,0
128,1050002039485,登記記録の閉鎖等,0,2021-09-09,2021-09-01,有限会社寿恵メディカルサービス,,有限会社,茨城県,取手市,藤代１０７６番地,,08,217,3001512,,,2021-09-01,清算の結了等,,,2015-10-05,1,,,,,ジュケイメディカルサービス,0
134,1060002008316,登記記録の閉鎖等,0,2021-09-09,2021-09-01,有限会社マルソー管工,,有限会社,栃木県,宇都宮市,兵庫塚１丁目１８番２号,,09,201,3210138,,,2021-09-01,清算の結了等,,,2015-10-05,1,,,,,マルソーカンコウ,0
135,1060003000016,登記記録の閉鎖等,0,2021-09-09,2021-09-01,合名会社大湊書店,,合名会社,栃木県,宇都宮市,江野町１０番１号,,09,201,3200802,,,2021-09-01,清算の結了等,,,2015-10-05,1,,,,,オオミナトショテン,0
136,1070001008588,登記記録の閉鎖等,0,2021-09-09,2021-09-03,茂木商事株式会社,,株式会社,群馬県,高崎市,中居町３丁目２９番地２,,10,202,3700852,,,2021-09-03,清算の結了等,,,2015-10-05,1,,,,,モギショウジ,0
138,1070005003395,登記記録の閉鎖等,0,2021-09-09,2021-09-01,特定非営利活動法人ケアサポート・愛,,その他の設立登記法人,群馬県,高崎市,宿大類町９２１番地２,,10,202,3700032,,,2021-09-01,清算の結了等,,,2015-10-05,1,,,,,ケアサポートアイ,0
142,1080002014428,登記記録の閉鎖等,0,2021-09-09,2021-09-06,有限会社日東,,有限会社,静岡県,牧之原市,菅ケ谷１９１１番地,,22,226,4210514,,,2021-09-06,清算の結了等,,,2015-10-05,1,,,,,ニットウ,0
144,1080405003127,登記記録の閉鎖等,0,2021-09-09,2021-09-06,医療法人社団内科循環器科井上医院,,その他の設立登記法人,静岡県,浜松市中区,助信町２０番４０号,,22,131,4300903,,,2021-09-06,清算の結了等,,,2015-10-05,1,,,,,ナイカジュンカンキカイノウエイイン,0
145,1100001012710,登記記録の閉鎖等,0,2021-09-09,2021-09-06,アルプス商事株式会社,,株式会社,長野県,塩尻市,大字塩尻町２６０番地,,20,215,3990712,,,2021-09-06,合併による解散等,6100001015485,令和３年９月１日長野県塩尻市大字塩尻町２６０番地株式会社アルプス（6100001015485）に合併し解散,2015-10-05,1,,,,,アルプスショウジ,0
171,1120101049221,登記記録の閉鎖等,0,2021-09-09,2021-09-06,株式会社ＴａｒｏＴａｄｏ,,株式会社,大阪府,富田林市,大字伏見堂８６７番地１０,,27,214,5840055,,,2021-09-06,清算の結了等,,,2015-10-05,1,,,,,タロタド,0
188,1150002005205,登記記録の閉鎖等,0,2021-09-09,2021-08-30,有限会社ビガラス,,有限会社,奈良県,大和郡山市,新町８７５番地の２７,,29,203,6391054,,,2021-08-30,清算の結了等,,,2015-10-05,1,,,,,ビガラス,0
196,1180002020481,登記記録の閉鎖等,0,2021-09-09,2021-09-03,有限会社タナベ,,有限会社,愛知県,名古屋市熱田区,花町１０番７号,,23,109,4560011,,,2021-09-03,清算の結了等,,,2015-10-05,1,,,,,タナベ,0
207,1200001014201,登記記録の閉鎖等,0,2021-09-09,2021-09-03,株式会社藤垣不動産鑑定事務所,,株式会社,岐阜県,大垣市,恵比寿町南８丁目１９番地２,,21,202,5030827,,,2021-09-03,清算の結了等,,,2015-10-05,1,,,,,フジガキフドウサンカンテイジムショ,0
221,1260002016991,登記記録の閉鎖等,0,2021-09-09,2021-09-08,有限会社太田青果,,有限会社,岡山県,倉敷市,玉島１丁目１３番１号,,33,202,7138102,,,2021-09-08,清算の結了等,,,2015-10-05,1,,,,,オオタセイカ,0
222,1270001002678,登記記録の閉鎖等,0,2021-09-09,2021-09-06,ＰＲＯＭＯＴＩＯＮ株式会社,,株式会社,鳥取県,鳥取市,千代水３丁目４１番地,,31,201,6800911,,,2021-09-06,清算の結了等,,,2015-10-05,1,,,,,プロモーション,0
249,1360002002692,登記記録の閉鎖等,0,2021-09-09,2021-09-02,有限会社平良売店,,有限会社,沖縄県,那覇市,首里平良町１丁目３番地,,47,201,9030803,,,2021-09-02,清算の結了等,,,2015-10-05,1,,,,,タイラバイテン,0
250,1370002011726,登記記録の閉鎖等,0,2021-09-09,2021-09-02,有限会社スズショウ測量,,有限会社,宮城県,仙台市青葉区,春日町３番３１号,,04,101,9800821,,,2021-09-02,清算の結了等,,,2015-10-05,1,,,,,スズショウソクリョウ,0
251,1370002020289,登記記録の閉鎖等,0,2021-09-09,2021-09-02,有限会社芳賀内装,,有限会社,宮城県,富谷市,ひより台１丁目８番地の２６,,04,216,9813304,,,2021-09-02,清算の結了等,,,2015-10-05,1,,,,,ハガナイソウ,0
256,1430001004807,登記記録の閉鎖等,0,2021-09-09,2021-09-01,株式会社協和プラント,,株式会社,北海道,札幌市西区,発寒十五条１２丁目３番５５号,,01,107,0630835,,,2021-09-01,合併による解散等,2430001004731,令和３年９月１日札幌市西区発寒十五条十二丁目３番２５号株式会社協和機械製作所（2430001004731）に合併し解散,2015-10-05,1,,,,,キョウワプラント,0
278,2010001163834,登記記録の閉鎖等,0,2021-09-09,2021-09-01,株式会社ペイミー,,株式会社,東京都,千代田区,平河町１丁目７番１１号,,13,101,1020093,,,2021-09-01,清算の結了等,,,2015-10-05,1,,,,,ペイミー,0
281,2010001201453,登記記録の閉鎖等,0,2021-09-09,2021-09-01,株式会社アーバンクラウド,,株式会社,東京都,中央区,日本橋兜町１７番１号日本橋ロイヤルプラザ７０６,,13,102,1030026,,,2021-09-01,清算の結了等,,,2019-06-06,1,,,,,アーバンクラウド,0
297,2010403010122,登記記録の閉鎖等,0,2021-09-09,2021-09-01,ユピテル１合同会社,,合同会社,東京都,港区,愛宕２丁目５番１号愛宕グリーンヒルズＭＯＲＩタワー２７階,,13,103,1050002,,,2021-09-01,合併による解散等,9010401140856,令和３年９月１日東京都港区愛宕二丁目５番１号アウロラホールディングス株式会社（9010401140856）に合併し解散,2015-10-05,1,,,,,ユピテルワン,0
316,2010602032652,登記記録の閉鎖等,0,2021-09-09,2021-08-25,有限会社ヤスインターナショナル,,有限会社,東京都,墨田区,江東橋３丁目３番２号,,13,107,1300022,,,2021-08-25,清算の結了等,,,2015-10-05,1,,,,,ヤスインターナショナル,0
338,2011101004440,登記記録の閉鎖等,0,2021-09-09,2021-09-06,カールツァイスＩＭＴ株式会社,,株式会社,東京都,千代田区,麹町２丁目１０番９号,,13,101,1020083,,,2021-09-06,清算の結了等,,,2015-10-05,1,,,,,カールツァイスアイエムティー,0
358,2012305001637,登記記録の閉鎖等,0,2021-09-09,2021-08-30,特定非営利活動法人町田市民後見かわせみの会,,その他の設立登記法人,東京都,町田市,玉川学園４丁目１５番１６号,,13,209,1940041,,,2021-08-30,清算の結了等,,,2015-10-05,1,,,,,マチダシミンコウケンカワセミノカイ,0
404,2070001015212,登記記録の閉鎖等,0,2021-09-09,2021-09-02,株式会社ＭＫシステム,,株式会社,群馬県,伊勢崎市,富塚町２２１番地１２,,10,204,3720833,,,2021-09-02,清算の結了等,,,2015-10-05,1,,,,,エムケイシステム,0
407,2070001026457,登記記録の閉鎖等,0,2021-09-09,2021-09-03,株式会社トレスト,,株式会社,群馬県,高崎市,緑町１丁目３番地２ヤマリビル１０１,,10,202,3700073,,,2021-09-03,清算の結了等,,,2015-10-05,1,,,,,トレスト,0
411,2080001005328,登記記録の閉鎖等,0,2021-09-09,2021-09-07,株式会社安梅商店,,株式会社,静岡県,静岡市葵区,井宮町１３５番地,,22,101,4200001,,,2021-09-07,清算の結了等,,,2015-10-05,1,,,,,ヤスウメショウテン,0
420,2080102016967,登記記録の閉鎖等,0,2021-09-09,2021-09-01,有限会社タンブルウィード,,有限会社,静岡県,富士宮市,万野原新田３１４９番地の１４,,22,207,4180001,,,2021-09-01,清算の結了等,,,2015-10-05,1,,,,,タンブルウィード,0
433,2120101010173,登記記録の閉鎖等,0,2021-09-09,2021-09-06,ミツマス都市開発株式会社,,株式会社,大阪府,堺市東区,丈六１２３番地８,,27,143,5998122,,,2021-09-06,清算の結了等,,,2015-10-05,1,,,,,ミツマストシカイハツ,0
443,2140001001527,登記記録の閉鎖等,0,2021-09-09,2021-09-06,駒姫交通株式会社,,株式会社,兵庫県,神戸市東灘区,本山南町６丁目１０番２８号,,28,101,6580015,,,2021-09-06,合併による解散等,7140001002850,令和３年８月３０日神戸市東灘区本山南町六丁目１０番２８号神戸相互タクシー株式会社（7140001002850）に合併し解散,2015-10-05,1,,,,,コマヒメコウツウ,0
455,2140001078895,登記記録の閉鎖等,0,2021-09-09,2021-09-07,平成香料株式会社,,株式会社,兵庫県,伊丹市,岩屋１丁目４番３０号,,28,207,6640843,,,2021-09-07,清算の結了等,,,2015-10-05,1,,,,,ヘイセイコウリョウ,0
467,2170005005257,登記記録の閉鎖等,0,2021-09-09,2021-09-07,学校法人羽根学園,,その他の設立登記法人,和歌山県,新宮市,新宮７６８３番地,,30,207,6470081,,,2021-09-07,清算の結了等,,,2015-10-05,1,,,,,ハネガクエン,0
474,2180005012574,登記記録の閉鎖等,0,2021-09-09,2021-09-07,東名港トラック事業協同組合,,その他の設立登記法人,愛知県,東海市,名和町一ノ下２番地の１,,23,222,4760002,,,2021-09-07,清算の結了等,,,2015-10-05,1,,,,,トウメイコウトラック,0
476,2180301022698,登記記録の閉鎖等,0,2021-09-09,2021-09-07,株式会社西尾工機製作所,,株式会社,愛知県,西尾市,山下町西八幡山８番地１,,23,213,4450877,,,2021-09-07,清算の結了等,,,2015-10-05,1,,,,,ニシオコウキセイサクジョ,0
493,2240002020565,登記記録の閉鎖等,0,2021-09-09,2021-09-07,有限会社アルフ,,有限会社,広島県,広島市西区,己斐大迫１丁目２６番５号,,34,104,7330816,,,2021-09-07,清算の結了等,,,2015-10-05,1,,,,,アルフ,0
497,2240002036322,登記記録の閉鎖等,0,2021-09-09,2021-09-06,有限会社有田家具店,00001164,有限会社,広島県,廿日市市,廿日市１丁目６番３５号,,34,213,7380013,,,2021-09-06,清算の結了等,,,2015-10-05,1,,,,,アリタカグテン,0
500,2270001007511,登記記録の閉鎖等,0,2021-09-09,2021-09-07,株式会社ＧＲＡＶＹ,,株式会社,鳥取県,米子市,角盤町１丁目２７番地６,,31,202,6830812,,,2021-09-07,清算の結了等,,,2018-05-07,1,,,,,グレービー,0
501,2280001003419,登記記録の閉鎖等,0,2021-09-09,2021-09-07,島根コシカワ株式会社,,株式会社,島根県,出雲市,斐川町神氷２７２７番地３,,32,203,6990613,,,2021-09-07,合併による解散等,1270001003247,令和３年９月１日鳥取県米子市旗ヶ崎２０３５番地株式会社越河（1270001003247）に合併し解散,2015-10-05,1,,,,,シマネコシカワ,0
511,2290002006741,登記記録の閉鎖等,0,2021-09-09,2021-08-27,有限会社コジマ管建,,有限会社,福岡県,福岡市城南区,東油山１丁目１２番７号,,40,136,8140155,,,2021-08-27,清算の結了等,,,2015-10-05,1,,,,,コジマカンケン,0
554,2500002014895,登記記録の閉鎖等,0,2021-09-09,2021-09-06,有限会社黒河食品,,有限会社,愛媛県,西条市,丹原町徳能甲２７８番地４,,38,206,7910506,,,2021-09-06,清算の結了等,,,2015-10-05,1,,,,,クロカワショクヒン,0
566,3010402003836,登記記録の閉鎖等,0,2021-09-09,2021-08-31,有限会社喜多嶋,,有限会社,東京都,港区,芝５丁目３２番８号,,13,103,1080014,,,2021-08-31,清算の結了等,,,2015-10-05,1,,,,,キタジマ,0
571,3010601052873,登記記録の閉鎖等,0,2021-09-09,2021-09-06,大栄物産株式会社,,株式会社,東京都,江東区,佐賀１丁目６番１０号,,13,108,1350031,,,2021-09-06,合併による解散等,6010001008894,令和３年９月１日東京都千代田区東神田三丁目２番４号朝日物産株式会社（6010001008894）に合併し解散,2018-02-13,1,,,,,ダイエイブッサン,0
574,3010901031899,登記記録の閉鎖等,0,2021-09-09,2021-09-02,株式会社タカシカンパニー,,株式会社,東京都,世田谷区,成城４丁目１９番１０号,,13,112,1570066,,,2021-09-02,合併による解散等,2010401097566,令和３年９月１日東京都世田谷区成城四丁目９番２１号株式会社オーク（2010401097566）に合併し解散,2015-10-05,1,,,,,,0
589,3011401018197,登記記録の閉鎖等,0,2021-09-09,2021-09-07,株式会社Ｈａｐｐｙ　Ｓｉｚｅ,,株式会社,東京都,板橋区,高島平２丁目５番５号,,13,119,1750082,,,2021-09-07,清算の結了等,,,2015-10-05,1,,,,,ハッピーサイズ,0
592,3011802016270,登記記録の閉鎖等,0,2021-09-09,2021-09-07,有限会社堂下電機工業所,,有限会社,東京都,足立区,関原３丁目８番１１号,,13,121,1230852,,,2021-09-07,清算の結了等,,,2015-10-05,1,,,,,ドウシタデンキコウギョウショ,0
600,3012802006410,登記記録の閉鎖等,0,2021-09-09,2021-09-02,有限会社サンクリエイト,,有限会社,東京都,昭島市,田中町２丁目２４番１－６０１号,,13,207,1960014,,,2021-09-02,清算の結了等,,,2015-10-05,1,,,,,サンクリエイト,0
608,3020001005415,登記記録の閉鎖等,0,2021-09-09,2021-09-03,株式会社ナカガワ,,株式会社,東京都,世田谷区,玉川１丁目３番２６号カーサカテナチオ１０３,,13,112,1580094,,,2021-09-03,清算の結了等,,,2015-10-05,1,,,,,ナカガワ,0
609,3020001050808,登記記録の閉鎖等,0,2021-09-09,2021-09-03,プライムエンジニアリング株式会社,,株式会社,神奈川県,横浜市金沢区,富岡東１丁目１８番９号,,14,108,2360051,,,2021-09-03,清算の結了等,,,2015-10-05,1,,,,,プライムエンジニアリング,0
634,3030002116425,登記記録の閉鎖等,0,2021-09-09,2021-08-31,有限会社卜部商店,,有限会社,埼玉県,深谷市,原郷８０番地８,,11,218,3660035,,,2021-08-31,清算の結了等,,,2015-10-05,1,,,,,ウラベショウテン,0
641,3040002080546,登記記録の閉鎖等,0,2021-09-09,2021-09-07,渚石材有限会社,,有限会社,千葉県,長生郡長南町,笠森３０１番地の４,,12,427,2970125,,,2021-09-07,合併による解散等,2010601056248,令和３年８月１日東京都墨田区江東橋四丁目２９番１３号渚石材株式会社（2010601056248）に合併し解散,2015-10-05,1,,,,,ナギサセキザイ,0
642,3040002092632,登記記録の閉鎖等,0,2021-09-09,2021-08-31,有限会社さくら園,,有限会社,千葉県,我孫子市,南新木１丁目２４番地の１３,,12,222,2701119,,,2021-08-31,清算の結了等,,,2015-10-05,1,,,,,サクラエン,0
646,3060002007076,登記記録の閉鎖等,0,2021-09-09,2021-09-02,有限会社日本経営企画センター,,有限会社,栃木県,宇都宮市,緑３丁目３３番１６号,,09,201,3210165,,,2021-09-02,清算の結了等,,,2015-10-05,1,,,,,ニホンケイエイキカクセンター,0
655,3080001003272,登記記録の閉鎖等,0,2021-09-09,2021-09-07,株式会社谷岡商店,,株式会社,静岡県,静岡市駿河区,みずほ４丁目４番地の６,,22,102,4210115,,,2021-09-07,清算の結了等,,,2015-10-05,1,,,,,タニオカショウテン,0
659,3080102009458,登記記録の閉鎖等,0,2021-09-09,2021-09-01,有限会社伊東商事,,有限会社,静岡県,三島市,泉町１番４９号,,22,206,4110037,,,2021-09-01,清算の結了等,,,2015-10-05,1,,,,,イトウショウジ,0
667,3110003004125,登記記録の閉鎖等,0,2021-09-09,2021-09-03,合同会社トゥーリ,,合同会社,新潟県,新潟市西区,みずき野６丁目１３－３０ビューレインボー２０３,,15,107,9502264,,,2021-09-03,清算の結了等,,,2020-03-12,1,,,,,トゥーリ,0
669,3110005013784,登記記録の閉鎖等,0,2021-09-09,2021-09-02,特定非営利活動法人シーター,,その他の設立登記法人,新潟県,魚沼市,大沢５２６番地,,15,225,9460073,,,2021-09-02,清算の結了等,,,2015-10-05,1,,,,,シーター,0
679,3120101027605,登記記録の閉鎖等,0,2021-09-09,2021-09-06,株式会社デンタルアシスト,,株式会社,大阪府,松原市,大堀３丁目９番１１号,,27,217,5800006,,,2021-09-06,清算の結了等,,,2015-10-05,1,,,,,デンタルアシスト,0
687,3130001015064,登記記録の閉鎖等,0,2021-09-09,2021-09-06,中央道路株式会社,,株式会社,京都府,京都市伏見区,久我東町１番地５３,,26,109,6128494,,,2021-09-06,清算の結了等,,,2015-10-05,1,,,,,チュウオウドウロ,0
696,3140001037644,登記記録の閉鎖等,0,2021-09-09,2021-09-06,株式会社ＫＴＳ,,株式会社,兵庫県,神戸市中央区,中山手通２丁目１番３－９０４号,,28,110,6500004,,,2021-09-06,清算の結了等,,,2015-10-05,1,,,,,ケイティエス,0
699,3140001075958,登記記録の閉鎖等,0,2021-09-09,2021-09-02,水尾染色株式会社,,株式会社,兵庫県,西脇市,水尾町１９番地,,28,213,6770066,,,2021-09-02,清算の結了等,,,2015-10-05,1,,,,,ミズオセンショク,0
742,3270001003435,登記記録の閉鎖等,0,2021-09-09,2021-09-07,東光観光株式会社,,株式会社,鳥取県,米子市,皆生温泉１丁目１番６４号,,31,202,6830001,,,2021-09-07,清算の結了等,,,2015-10-05,1,,,,,トウコウカンコウ,0
749,3290002041952,登記記録の閉鎖等,0,2021-09-09,2021-08-26,有限会社ハラオカ,,有限会社,福岡県,筑紫野市,紫６丁目１５番１２号,,40,217,8180061,,,2021-08-26,清算の結了等,,,2015-10-05,1,,,,,ハラオカ,0
760,3330002018005,登記記録の閉鎖等,0,2021-09-09,2021-09-06,有限会社宮村フロアー,,有限会社,熊本県,菊池市,今５４１番地,,43,210,8611303,,,2021-09-06,清算の結了等,,,2015-10-05,1,,,,,ミヤムラフロアー,0
764,3360001024892,登記記録の閉鎖等,0,2021-09-09,2021-09-01,株式会社１１ｗｉｎｇ,,株式会社,沖縄県,中頭郡北中城村,字喜舎場１５２４番地,,47,327,9012311,,,2021-09-01,清算の結了等,,,2018-11-26,1,,,,,イレブンウィング,0
772,3410002010036,登記記録の閉鎖等,0,2021-09-09,2021-09-06,有限会社Ｃａｒ－Ｂｕ,,有限会社,秋田県,大館市,餌釣字沢１８８番地２,00086816,05,204,0170837,,,2021-09-06,清算の結了等,,,2015-10-05,1,,,,,カーブ,0
782,3430002064369,登記記録の閉鎖等,0,2021-09-09,2021-09-02,有限会社正建工務店,,有限会社,北海道,室蘭市,増市町１丁目６番７号,,01,205,0510034,,,2021-09-02,清算の結了等,,,2015-10-05,1,,,,,ショウケンコウムテン,0
789,3480002008354,登記記録の閉鎖等,0,2021-09-09,2021-09-06,有限会社徳島キリスト教書店,,有限会社,徳島県,徳島市,中島田町３丁目５７番地の１,,36,201,7700052,,,2021-09-06,清算の結了等,,,2015-10-05,1,,,,,トクシマキリストキョウショテン,0
790,3480002009947,登記記録の閉鎖等,0,2021-09-09,2021-09-03,野口運送有限会社,,有限会社,徳島県,阿波市,市場町大野島字天神１５９番地,,36,206,7711627,,,2021-09-03,清算の結了等,,,2015-10-05,1,,,,,,0
792,3490001000591,登記記録の閉鎖等,0,2021-09-09,2021-09-08,高知エー・ビー・シー建材株式会社,,株式会社,高知県,高知市,大川筋１丁目７番１８号,,39,201,7800052,,,2021-09-08,清算の結了等,,,2015-10-05,1,,,,,コウチエービーシーケンザイ,0
795,3500002001026,登記記録の閉鎖等,0,2021-09-09,2021-09-08,有限会社一眞建設,,有限会社,愛媛県,松山市,小坂町二丁目２番１９号,,38,201,7910000,,,2021-09-08,清算の結了等,,,2015-10-05,1,,,,,イッシンケンセツ,0
801,4010001105487,登記記録の閉鎖等,0,2021-09-09,2021-09-06,ブヘラジャパン株式会社,,株式会社,東京都,中央区,築地２丁目１５番１９号,,13,102,1040045,,,2021-09-06,清算の結了等,,,2015-10-05,1,,,,,ブヘラジャパン,0
816,4010401143376,登記記録の閉鎖等,0,2021-09-09,2021-08-31,Ｓｔａｋｅ　Ｔｅｃｈｎｏｌｏｇｉｅｓ株式会社,,株式会社,東京都,港区,浜松町２丁目２番１５号浜松町ダイヤビル２Ｆ,,13,103,1050013,,,2021-08-31,清算の結了等,,,2019-01-25,1,,,,,ステイクテクノロジーズ,0
822,4010502001243,登記記録の閉鎖等,0,2021-09-09,2021-09-06,有限会社入山,,有限会社,東京都,台東区,浅草１丁目１３番４号,,13,106,1110032,,,2021-09-06,清算の結了等,,,2015-10-05,1,,,,,イリヤマ,0
829,4010802010035,登記記録の閉鎖等,0,2021-09-09,2021-09-01,有限会社東海空調設備,,有限会社,東京都,大田区,山王２丁目８番１４号,,13,111,1430023,,,2021-09-01,清算の結了等,,,2015-10-05,1,,,,,トウカイクウチョウセツビ,0
842,4011301005121,登記記録の閉鎖等,0,2021-09-09,2021-09-03,東和商事株式会社,,株式会社,東京都,杉並区,高井戸東３丁目１９番１９号,,13,115,1680072,,,2021-09-03,清算の結了等,,,2015-10-05,1,,,,,トウワショウジ,0
858,4012401015737,登記記録の閉鎖等,0,2021-09-09,2021-09-06,株式会社ノーサイドエージェンシー,,株式会社,東京都,調布市,入間町１丁目３８番地１１２,,13,208,1820004,,,2021-09-06,清算の結了等,,,2015-10-05,1,,,,,ノーサイドエージェンシー,0
883,4021002060514,登記記録の閉鎖等,0,2021-09-09,2021-08-27,有限会社添田重機,,有限会社,神奈川県,中郡大磯町,国府本郷１２３４番地４,,14,341,2590111,,,2021-08-27,清算の結了等,,,2015-10-05,1,,,,,ソエダジュウキ,0
889,4030002080042,登記記録の閉鎖等,0,2021-09-09,2021-09-01,有限会社ユニ工芸,,有限会社,埼玉県,ふじみ野市,新駒林４丁目３番１１号,,11,245,3560030,,,2021-09-01,清算の結了等,,,2015-10-05,1,,,,,ユニコウゲイ,0
904,4060002023931,登記記録の閉鎖等,0,2021-09-09,2021-09-02,有限会社オーマン,,有限会社,栃木県,那須塩原市,四区町１５２８番地２,,09,213,3292746,,,2021-09-02,清算の結了等,,,2015-10-05,1,,,,,オーマン,0
908,4080102000036,登記記録の閉鎖等,0,2021-09-09,2021-08-31,有限会社アオキエンジニアリング,,有限会社,静岡県,沼津市,大岡２８２６番地の４,,22,203,4100022,,,2021-08-31,清算の結了等,,,2015-10-05,1,,,,,アオキエンジニアリング,0
916,4110002021541,登記記録の閉鎖等,0,2021-09-09,2021-09-01,有限会社山北魚類,,有限会社,新潟県,村上市,勝木１１５９番地５,,15,212,9593942,,,2021-09-01,合併による解散等,7110002021547,令和３年９月１日新潟県村上市勝木１０４４番地４株式会社山北鮮魚センター（7110002021547）に合併し解散,2015-10-05,1,,,,,サンポクギョルイ,0
959,4130001002722,登記記録の閉鎖等,0,2021-09-09,2021-09-06,オンライナー株式会社,,株式会社,京都府,京都市上京区,上ノ下立売通紙屋川東入る上る堀川町５２７番地,,26,102,6020000,,,2021-09-06,清算の結了等,,,2015-10-05,1,,,,,オンライナー,0
985,4180302010659,登記記録の閉鎖等,0,2021-09-09,2021-09-07,有限会社エイビープランニング,,有限会社,愛知県,田原市,豊島町道南２７番地,,23,231,4413417,,,2021-09-07,清算の結了等,,,2015-10-05,1,,,,,エイビープランニング,0
993,4200005010549,登記記録の閉鎖等,0,2021-09-09,2021-09-06,下呂漁業生産組合,,その他の設立登記法人,岐阜県,下呂市,野尻１９０２番地の１,,21,220,5092313,,,2021-09-06,清算の結了等,,,2015-10-05,1,,,,,ゲロ,0
1016,4260005010064,登記記録の閉鎖等,0,2021-09-09,2021-09-07,ももたろう福祉事業協同組合,,その他の設立登記法人,岡山県,岡山市北区,津島福居１丁目５番１６号シャトレハイツ津島住宅Ａ棟３０６号,,33,101,7000080,,,2021-09-07,清算の結了等,,,2016-04-05,1,,,,,モモタロウフクシ,0
1023,4290002017423,登記記録の閉鎖等,0,2021-09-09,2021-08-25,有限会社幸輝商事,,有限会社,福岡県,福岡市博多区,金の隈２丁目１６番１２号,,40,132,8120863,,,2021-08-25,清算の結了等,,,2015-10-05,1,,,,,コウキショウジ,0
1031,4310001008874,登記記録の閉鎖等,0,2021-09-09,2021-09-07,株式会社西工務店,,株式会社,長崎県,大村市,西大村本町７６５番地３,,42,205,8560813,,,2021-09-07,清算の結了等,,,2015-10-05,1,,,,,ニシコウムテン,0
1033,4310001012397,登記記録の閉鎖等,0,2021-09-09,2021-09-08,株式会社てまり,,株式会社,長崎県,長崎市,女の都３丁目２０番１１号,,42,201,8528144,,,2021-09-08,清算の結了等,,,2015-10-05,1,,,,,テマリ,0
1038,4340005005527,登記記録の閉鎖等,0,2021-09-09,2021-09-03,特定非営利活動法人ＮＰＯ北薩倶楽部,00100322,その他の設立登記法人,鹿児島県,出水市,上鯖渕１７４３番地３３,00100323,46,208,8990203,,,2021-09-03,清算の結了等,,,2015-10-05,1,,,,,ホクサツクラブ,0
1050,4420001013095,登記記録の閉鎖等,0,2021-09-09,2021-09-01,株式会社エヌシーソリューションズ,,株式会社,青森県,三沢市,深谷２丁目９４番地３０３号,,02,207,0330152,,,2021-09-01,合併による解散等,3420001011471,令和３年９月１日青森県三沢市深谷二丁目９４番地３０３号株式会社中屋敷建設（3420001011471）に合併し解散,2015-10-05,1,,,,,エヌシーソリューションズ,0
1056,4470001006292,登記記録の閉鎖等,0,2021-09-09,2021-09-06,国道フェリー株式会社,,株式会社,香川県,高松市,北浜町１番１号,,37,201,7600031,,,2021-09-06,清算の結了等,,,2015-10-05,1,,,,,コクドウフェリー,0
1079,5010005007308,登記記録の閉鎖等,0,2021-09-09,2021-09-03,久喜ホールディングス一般社団法人,,その他の設立登記法人,東京都,中央区,日本橋１丁目４番１号,,13,102,1030027,,,2021-09-03,清算の結了等,,,2015-10-05,1,,,,,クキホールディングス,0
1082,5010401104402,登記記録の閉鎖等,0,2021-09-09,2021-09-01,ベターライフハウス株式会社,,株式会社,東京都,港区,白金台３丁目１９番１号,,13,103,1080071,,,2021-09-01,合併による解散等,3021001005256,令和３年９月１日東京都港区白金台三丁目１９番１号ベターライフプロパティ株式会社（3021001005256）に合併し解散,2015-10-05,1,,,,,ベターライフハウス,0
1088,5010601031405,登記記録の閉鎖等,0,2021-09-09,2021-08-25,シーエルディー株式会社,,株式会社,東京都,江東区,枝川２丁目１６番５号,,13,108,1350051,,,2021-08-25,清算の結了等,,,2015-10-05,1,,,,,シーエルディー,0
1092,5010602011827,登記記録の閉鎖等,0,2021-09-09,2021-08-25,小島米菓有限会社,,有限会社,東京都,墨田区,八広１丁目１４番３号,,13,107,1310041,,,2021-08-25,清算の結了等,,,2015-10-05,1,,,,,コジマベイカ,0
1108,5011205001793,登記記録の閉鎖等,0,2021-09-09,2021-09-02,サンクス東中野管理組合法人,,その他の設立登記法人,東京都,中野区,東中野１丁目３２番１号,,13,114,1640003,,,2021-09-02,清算の結了等,,,2015-10-05,1,,,,,サンクスヒガシナカノ,0
1113,5011502007452,登記記録の閉鎖等,0,2021-09-09,2021-09-06,有限会社オーケーカンパニー,,有限会社,東京都,荒川区,西尾久７丁目１１番１１号,,13,118,1160011,,,2021-09-06,清算の結了等,,,2015-10-05,1,,,,,オーケーカンパニー,0
1123,5012301006967,登記記録の閉鎖等,0,2021-09-09,2021-09-01,株式会社丸共布団店,,株式会社,東京都,町田市,原町田６丁目１１番１６号,,13,209,1940013,,,2021-09-01,合併による解散等,2012301001260,令和３年９月１日東京都町田市原町田六丁目１１番１６号株式会社スリープファッション丸共（2012301001260）に合併し解散,2015-10-05,1,,,,,マルキョウフトンテン,0
1141,5020002072428,登記記録の閉鎖等,0,2021-09-09,2021-09-03,有限会社綾工業,,有限会社,神奈川県,横浜市港北区,新吉田東６丁目４番１１号,,14,109,2230058,,,2021-09-03,清算の結了等,,,2015-10-05,1,,,,,アヤコウギョウ,0
1153,5030001106012,登記記録の閉鎖等,0,2021-09-09,2021-09-01,株式会社高萩緑地,,株式会社,埼玉県,日高市,大字高萩２２７８番地７,,11,242,3501213,,,2021-09-01,清算の結了等,,,2015-10-05,1,,,,,タカハギリョクチ,0
1160,5030002062824,登記記録の閉鎖等,0,2021-09-09,2021-08-31,有限会社内田商店,,有限会社,埼玉県,富士見市,関沢１丁目７番２号,,11,235,3540025,,,2021-08-31,清算の結了等,,,2015-10-05,1,,,,,ウチダショウテン,0
1162,5030002107117,登記記録の閉鎖等,0,2021-09-09,2021-08-30,有限会社ＳＭＩ保険企画,,有限会社,埼玉県,川口市,本町１丁目１６番４－２０２号,,11,203,3320012,,,2021-08-30,清算の結了等,,,2015-10-05,1,,,,,エスエムアイホケンキカク,0
1166,5040001095659,登記記録の閉鎖等,0,2021-09-09,2021-08-31,株式会社ＫＡＩＲＩスピリッツ,,株式会社,千葉県,松戸市,下矢切３６９番地,,12,207,2710096,,,2021-08-31,清算の結了等,,,2016-06-13,1,,,,,カイリスピリッツ,0
1171,5040002064092,登記記録の閉鎖等,0,2021-09-09,2021-08-31,有限会社プロテックサービス,,有限会社,千葉県,八街市,滝台字丹尾台１５７４番地１,,12,230,2891123,,,2021-08-31,清算の結了等,,,2015-10-05,1,,,,,プロテックサービス,0
1172,5040002091343,登記記録の閉鎖等,0,2021-09-09,2021-09-02,有限会社フィギア,,有限会社,千葉県,柏市,松葉町４丁目７番地１棟３０１号,,12,217,2770827,,,2021-09-02,清算の結了等,,,2015-10-05,1,,,,,フィギア,0
1189,5080002000556,登記記録の閉鎖等,0,2021-09-09,2021-09-06,有限会社一休,,有限会社,静岡県,静岡市葵区,沓谷６丁目２６番地の２,,22,101,4200816,,,2021-09-06,清算の結了等,,,2015-10-05,1,,,,,イッキュウ,0
1190,5080002001620,登記記録の閉鎖等,0,2021-09-09,2021-09-03,有限会社キタムラ,,有限会社,静岡県,静岡市駿河区,寿町１７番１７号,,22,102,4228055,,,2021-09-03,清算の結了等,,,2015-10-05,1,,,,,キタムラ,0
1200,5120001006707,登記記録の閉鎖等,0,2021-09-09,2021-09-02,株式会社リパブリック,,株式会社,大阪府,大阪市中央区,内本町２丁目３番１１号,,27,128,5400026,,,2021-09-02,清算の結了等,,,2015-10-05,1,,,,,リパブリック,0
1223,5120105008228,登記記録の閉鎖等,0,2021-09-09,2021-09-07,一般社団法人日比地域教育振興会,,その他の設立登記法人,大阪府,羽曳野市,はびきの５丁目２番２号,,27,222,5830872,,,2021-09-07,清算の結了等,,,2015-10-05,1,,,,,ニッピチイキキョウイクシンコウカイ,0
1241,5140001098065,登記記録の閉鎖等,0,2021-09-09,2021-09-06,株式会社Ｌｕｘ,,株式会社,兵庫県,神戸市長田区,北町２丁目５５番地２０１号,,28,106,6530016,,,2021-09-06,清算の結了等,,,2015-10-05,1,,,,,ラクス,0
1245,5140005004894,登記記録の閉鎖等,0,2021-09-09,2021-09-07,特定非営利活動法人ＷＩＮＮＩＮＧ　ＦＡＣＴＯＲＹ,,その他の設立登記法人,兵庫県,神戸市中央区,旗塚通４丁目２番１号,,28,110,6510068,,,2021-09-07,清算の結了等,,,2015-10-05,1,,,,,ウィニングファクトリー,0
1246,5150005002336,登記記録の閉鎖等,0,2021-09-09,2021-09-03,医療法人沢井小児科医院,,その他の設立登記法人,奈良県,生駒市,萩の台３丁目１０番２９号,,29,209,6300224,,,2021-09-03,清算の結了等,,,2015-10-05,1,,,,,サワイショウニカイイン,0
1249,5180001019950,登記記録の閉鎖等,0,2021-09-09,2021-09-02,株式会社大輪,,株式会社,愛知県,名古屋市中川区,富田町大字千音寺字上之坪４２６番地の２５,,23,110,4540971,,,2021-09-02,清算の結了等,,,2015-10-05,1,,,,,ダイワ,0
1253,5180001080052,登記記録の閉鎖等,0,2021-09-09,2021-09-02,株式会社ＨＩＴＳ,,株式会社,愛知県,瀬戸市,田端町１丁目８２番地,,23,204,4890921,,,2021-09-02,清算の結了等,,,2015-10-05,1,,,,,,0
1258,5180001138008,登記記録の閉鎖等,0,2021-09-09,2021-09-02,株式会社ナシタベーグル,,株式会社,愛知県,名古屋市守山区,大谷町一丁目５５番地,,23,113,4630041,,,2021-09-02,清算の結了等,,,2019-09-05,1,,,,,ナシタベーグル,0
1262,5180301007390,登記記録の閉鎖等,0,2021-09-09,2021-09-08,株式会社名豊ミュージックショップ,,株式会社,愛知県,豊橋市,駅前大通２丁目３３番地の１,,23,201,4400888,,,2021-09-08,清算の結了等,,,2015-10-05,1,,,,,,0
1268,5200002015847,登記記録の閉鎖等,0,2021-09-09,2021-09-02,エスアンドエステクノロジー有限会社,,有限会社,愛知県,名古屋市中区,丸の内３丁目６番４１号,,23,106,4600002,,,2021-09-02,清算の結了等,,,2015-10-05,1,,,,,エスアンドエステクノロジー,0
1290,5260001007617,登記記録の閉鎖等,0,2021-09-09,2021-09-07,株式会社田井住宅,,株式会社,岡山県,赤磐市,下市３８２番地の５,,33,213,7090816,,,2021-09-07,清算の結了等,,,2015-10-05,1,,,,,タイジュウタク,0
1297,5270005004865,登記記録の閉鎖等,0,2021-09-09,2021-08-31,一般社団法人鳥取県デジタルコンテンツビジネス創出協議会,,その他の設立登記法人,鳥取県,米子市,角盤町１丁目５５番地２,,31,202,6830812,,,2021-08-31,清算の結了等,,,2015-10-05,1,,,,,トットリケンデジタルコンテンツビジネスソウシュツキョウギカイ,0
1308,5290801012813,登記記録の閉鎖等,0,2021-09-09,2021-09-01,安川設備メンテナンス株式会社,,株式会社,福岡県,北九州市小倉北区,大手町１２番１号,,40,106,8030814,,,2021-09-01,合併による解散等,1290801010770,令和３年９月１日北九州市八幡西区黒崎城石２番１号安川マニュファクチャリング株式会社（1290801010770）に合併し解散,2015-10-05,1,,,,,ヤスカワセツビメンテナンス,0
1360,6010401094790,登記記録の閉鎖等,0,2021-09-09,2021-09-03,株式会社ＫＩＮＣＳ,,株式会社,東京都,世田谷区,代沢２丁目４３番４号,,13,112,1550032,,,2021-09-03,清算の結了等,,,2015-10-05,1,,,,,キンクス,0
1383,6011101052568,登記記録の閉鎖等,0,2021-09-09,2021-08-31,株式会社神無月,,株式会社,東京都,新宿区,大久保２丁目７番１７号,,13,104,1690072,,,2021-08-31,合併による解散等,2011101003649,令和３年８月３１日東京都新宿区大久保二丁目７番１７号株式会社エルディーム（2011101003649）に合併し解散,2015-10-05,1,,,,,カンナズキ,0
1407,6020001077922,登記記録の閉鎖等,0,2021-09-09,2021-09-06,株式会社イージェット,,株式会社,神奈川県,川崎市川崎区,鋼管通１丁目１８番６号,,14,131,2100852,,,2021-09-06,清算の結了等,,,2015-10-05,1,,,,,イージェット,0
1432,6040001072145,登記記録の閉鎖等,0,2021-09-09,2021-08-31,株式会社タカハシテクノエンジニアリング,,株式会社,千葉県,野田市,桐ケ作１２３４番地,,12,208,2700213,,,2021-08-31,清算の結了等,,,2015-10-05,1,,,,,タカハシテクノエンジニアリング,0
1433,6040002026463,登記記録の閉鎖等,0,2021-09-09,2021-09-01,有限会社渡辺左官,,有限会社,千葉県,船橋市,丸山４丁目４９番４号,,12,204,2730048,,,2021-09-01,清算の結了等,,,2015-10-05,1,,,,,ワタナベサカン,0
1434,6040002039696,登記記録の閉鎖等,0,2021-09-09,2021-08-31,有限会社ｙａｍａ３３,,有限会社,千葉県,市川市,真間２丁目４番１号,,12,203,2720826,,,2021-08-31,清算の結了等,,,2015-10-05,1,,,,,ヤマサンサン,0
1435,6040003013221,登記記録の閉鎖等,0,2021-09-09,2021-09-02,Ｇａｒｌｉｃ　Ｒｉｃｅ　Ｕｎｌｉｍｉｔｅｄ合同会社,,合同会社,千葉県,成田市,馬橋１番地１８号,,12,211,2860034,,,2021-09-02,清算の結了等,,,2019-04-11,1,,,,,ガーリックライスアンリミテッド,0
1443,6070002008310,登記記録の閉鎖等,0,2021-09-09,2021-09-02,有限会社好日ビル,,有限会社,群馬県,前橋市,下細井町３８５番地４,,10,201,3710054,,,2021-09-02,清算の結了等,,,2015-10-05,1,,,,,コウニチビル,0
1457,6120001006004,登記記録の閉鎖等,0,2021-09-09,2021-08-31,株式会社永田商店,,株式会社,大阪府,大阪市阿倍野区,王子町１丁目５番２０号,,27,119,5450023,,,2021-08-31,合併による解散等,5120001006005,令和３年８月３１日大阪市阿倍野区王子町一丁目５番２０号永田産業株式会社（5120001006005）に合併し解散,2015-10-05,1,,,,,ナガタショウテン,0
1458,6120001011144,登記記録の閉鎖等,0,2021-09-09,2021-09-02,ミサカ興産株式会社,,株式会社,大阪府,大阪市東住吉区,杭全３丁目９番２４号,,27,121,5460002,,,2021-09-02,清算の結了等,,,2015-10-05,1,,,,,ミサカコウサン,0
1464,6120001172614,登記記録の閉鎖等,0,2021-09-09,2021-08-25,株式会社アドビームス,,株式会社,福岡県,福岡市博多区,博多駅南６丁目１０番１３号,,40,132,8120016,,,2021-08-25,清算の結了等,,,2015-10-05,1,,,,,アドビームス,0
1485,6160001019654,登記記録の閉鎖等,0,2021-09-09,2021-09-07,株式会社山真,,株式会社,滋賀県,犬上郡甲良町,大字小川原８０８番地２０,,25,442,5220243,,,2021-09-07,清算の結了等,,,2016-08-05,1,,,,,ヤマシン,0
1487,6170001014976,登記記録の閉鎖等,0,2021-09-09,2021-09-08,株式会社みのり,,株式会社,和歌山県,海南市,鳥居１７３番地１,,30,202,6420033,,,2021-09-08,清算の結了等,,,2017-11-17,1,,,,,ミノリ,0
1490,6180001007566,登記記録の閉鎖等,0,2021-09-09,2021-09-01,メイフード株式会社,,株式会社,愛知県,名古屋市港区,大江町１０番地,,23,111,4550024,,,2021-09-01,合併による解散等,1180001001037,令和３年９月１日名古屋市中区千代田五丁目７番５号日本ゼネラルフード株式会社（1180001001037）に合併し解散,2015-10-05,1,,,,,メイフード,0
1497,6180301011458,登記記録の閉鎖等,0,2021-09-09,2021-09-03,株式会社ワイズダム,,株式会社,愛知県,豊川市,大橋町２丁目５１番地の２,,23,207,4420809,,,2021-09-03,清算の結了等,,,2015-10-05,1,,,,,ワイズダム,0
1501,6190002011913,登記記録の閉鎖等,0,2021-09-09,2021-09-07,有限会社Ｏ．Ｍ．Ｄ,,有限会社,三重県,志摩市,阿児町志島６９７番地,,24,215,5170504,,,2021-09-07,清算の結了等,,,2015-10-05,1,,,,,オーエムディー,0
1504,6200001013735,登記記録の閉鎖等,0,2021-09-09,2021-09-06,株式会社白木屋商店,,株式会社,岐阜県,大垣市,赤坂町２９４９番地の１,,21,202,5032213,,,2021-09-06,清算の結了等,,,2015-10-05,1,,,,,,0
1505,6200001022645,登記記録の閉鎖等,0,2021-09-09,2021-09-01,株式会社ネット,,株式会社,愛知県,春日井市,高蔵寺町２丁目１０３番地,,23,206,4870013,,,2021-09-01,合併による解散等,8180001078119,令和３年９月１日愛知県春日井市南下原町四丁目１４番地５エムエイトアイ株式会社（8180001078119）に合併し解散,2015-10-05,1,,,,,ネット,0
1517,6260001000777,登記記録の閉鎖等,0,2021-09-09,2021-09-07,株式会社エスアールシー,,株式会社,岡山県,岡山市南区,北浦２１６番地の１,,33,104,7028012,,,2021-09-07,清算の結了等,,,2015-10-05,1,,,,,エスアールシー,0
1537,6290803002695,登記記録の閉鎖等,0,2021-09-09,2021-08-31,合同会社さくらヒューマンサポート,,合同会社,福岡県,北九州市小倉北区,中井口３番１６号,,40,106,8030837,,,2021-08-31,清算の結了等,,,2016-06-08,1,,,,,サクラヒューマンサポート,0
1548,6370001042560,登記記録の閉鎖等,0,2021-09-09,2021-07-28,株式会社ＯＮＥ　ＷＡＮ　ＯＮＥ,,株式会社,宮城県,仙台市青葉区,荒巻中央１８番１０号ルミエール荒巻中央１０１,,04,101,9810964,,,2021-07-28,清算の結了等,,,2018-01-15,1,,,,,ワンワンワン,0
1557,6420002011930,登記記録の閉鎖等,0,2021-09-09,2021-09-06,有限会社丸正きくち,,有限会社,青森県,北津軽郡中泊町,大字中里字亀山４７８番地１,,02,387,0370305,,,2021-09-06,清算の結了等,,,2015-10-05,1,,,,,マルショウキクチ,0
1560,6430001061397,登記記録の閉鎖等,0,2021-09-09,2021-09-07,オーナーズメカ株式会社,,株式会社,北海道,苫小牧市,北栄町１丁目１４番２６号,,01,213,0591304,,,2021-09-07,清算の結了等,,,2015-10-05,1,,,,,,0
1567,6450002000996,登記記録の閉鎖等,0,2021-09-09,2021-09-07,有限会社永大設備工業所,,有限会社,北海道,旭川市,豊岡五条４丁目１番６号,,01,204,0788235,,,2021-09-07,清算の結了等,,,2015-10-05,1,,,,,エイダイセツビコウギョウショ,0
1620,7010901009280,登記記録の閉鎖等,0,2021-09-09,2021-09-03,日新製罐株式会社,,株式会社,東京都,世田谷区,大原１丁目１７番１４号,,13,112,1560041,,,2021-09-03,清算の結了等,,,2015-10-05,1,,,,,ニッシンセイカン,0
1635,7011101031819,登記記録の閉鎖等,0,2021-09-09,2021-09-03,株式会社ケルン,,株式会社,神奈川県,足柄下郡湯河原町,城堀１９９－６サンクタス湯河原ラ・ヴュー４２５号,,14,384,2590305,,,2021-09-03,清算の結了等,,,2015-10-05,1,,,,,ケルン,0
1656,7012301001545,登記記録の閉鎖等,0,2021-09-09,2021-08-30,株式会社多田電機,,株式会社,東京都,町田市,野津田町１４６８番地２,,13,209,1950063,,,2021-08-30,清算の結了等,,,2015-10-05,1,,,,,タダデンキ,0
1659,7012801009154,登記記録の閉鎖等,0,2021-09-09,2021-09-01,株式会社ＭＹスタイルホーム,,株式会社,東京都,昭島市,宮沢町２丁目５番４１号,,13,207,1960024,,,2021-09-01,清算の結了等,,,2015-10-05,1,,,,,マイスタイルホーム,0
1660,7012801016183,登記記録の閉鎖等,0,2021-09-09,2021-08-31,株式会社Ｆ－ＰＲＩＤＥ,,株式会社,東京都,立川市,柴崎町５丁目１８番２３号,,13,202,1900023,,,2021-08-31,清算の結了等,,,2015-10-05,1,,,,,エフプライド,0
1663,7013301024528,登記記録の閉鎖等,0,2021-09-09,2021-09-03,株式会社アセスト,,株式会社,東京都,豊島区,池袋２丁目５１番９号,,13,116,1710014,,,2021-09-03,清算の結了等,,,2015-10-05,1,,,,,アセスト,0
1672,7021002022965,登記記録の閉鎖等,0,2021-09-09,2021-09-03,有限会社中村産業,,有限会社,神奈川県,相模原市中央区,上溝３丁目６番４３号,,14,152,2520243,,,2021-09-03,清算の結了等,,,2015-10-05,1,,,,,ナカムラサンギョウ,0
1677,7021005010629,登記記録の閉鎖等,0,2021-09-09,2021-09-06,ＮＰＯ法人草の根サッカー支援あさ風,,その他の設立登記法人,滋賀県,長浜市,三ツ矢町９番１３号,,25,203,5260023,,,2021-09-06,清算の結了等,,,2016-04-21,1,,,,,クサノネサッカーシエンアサヒカゼ,0
1698,7040002001201,登記記録の閉鎖等,0,2021-09-09,2021-09-02,有限会社インテリア佐藤表具店,,有限会社,千葉県,千葉市若葉区,西都賀２丁目５番４号,,12,104,2640026,,,2021-09-02,清算の結了等,,,2015-10-05,1,,,,,インテリアサトウヒョウグテン,0
1700,7040002060783,登記記録の閉鎖等,0,2021-09-09,2021-09-02,有限会社さつきえん,,有限会社,千葉県,佐倉市,中志津１丁目３番１号,,12,212,2850843,,,2021-09-02,清算の結了等,,,2015-10-05,1,,,,,サツキエン,0
1712,7080001010315,登記記録の閉鎖等,0,2021-09-09,2021-09-06,株式会社ＴＭＷ,,株式会社,静岡県,静岡市葵区,西瀬名町１２番１７号,,22,101,4200914,,,2021-09-06,清算の結了等,,,2015-10-05,1,,,,,ティエムダブリュ,0
1714,7080102000702,登記記録の閉鎖等,0,2021-09-09,2021-09-02,有限会社大嶽工業,,有限会社,静岡県,沼津市,大岡１９９９番地,,22,203,4100022,,,2021-09-02,清算の結了等,,,2015-10-05,1,,,,,オオタケコウギョウ,0
1715,7080102018802,登記記録の閉鎖等,0,2021-09-09,2021-09-02,有限会社トミオカ,,有限会社,静岡県,熱海市,下多賀１１０３番地の１,,22,205,4130102,,,2021-09-02,清算の結了等,,,2015-10-05,1,,,,,トミオカ,0
1734,7120001085030,登記記録の閉鎖等,0,2021-09-09,2021-08-31,株式会社データワン,,株式会社,大阪府,大阪市中央区,南船場１丁目１１番９号,,27,128,5420081,,,2021-08-31,合併による解散等,8120001088965,令和３年８月３１日大阪市中央区南船場一丁目１１番９号株式会社ドゥーマ（8120001088965）に合併し解散,2015-10-05,1,,,,,データワン,0
1741,7120002010631,登記記録の閉鎖等,0,2021-09-09,2021-09-02,有限会社イミヤ,,有限会社,大阪府,大阪市平野区,西脇１丁目７番５号,,27,126,5470035,,,2021-09-02,清算の結了等,,,2015-10-05,1,,,,,イミヤ,0
1751,7120903003345,登記記録の閉鎖等,0,2021-09-09,2021-09-06,合同会社ダイヤ,,合同会社,大阪府,豊中市,千里園２丁目８番５３号,,27,203,5600046,,,2021-09-06,清算の結了等,,,2020-09-14,1,,,,,ダイヤ,0
1757,7130002023079,登記記録の閉鎖等,0,2021-09-09,2021-09-01,有限会社ＣＲＫ長楽館,,有限会社,京都府,京都市東山区,八坂鳥居前東入円山町６０４番地,,26,105,6050071,,,2021-09-01,合併による解散等,4130001009461,令和３年８月３１日京都市東山区八坂鳥居前東入円山町６０４番地株式会社長楽館（4130001009461）に合併し解散,2015-10-05,1,,,,,シーアールケーチョウラクカン,0
1758,7130002027451,登記記録の閉鎖等,0,2021-09-09,2021-09-02,京みがわ株式会社,,株式会社,京都府,京都市下京区,五条通烏丸東入松屋町４３８番地,,26,106,6008105,,,2021-09-02,清算の結了等,,,2015-10-05,1,,,,,キョウミガワ,0
1766,7140002045980,登記記録の閉鎖等,0,2021-09-09,2021-09-02,有限会社城山商事,,有限会社,兵庫県,豊岡市,日撫３１４番地の１,,28,209,6680815,,,2021-09-02,清算の結了等,,,2015-10-05,1,,,,,シロヤマショウジ,0
1788,7210001007660,登記記録の閉鎖等,0,2021-09-09,2021-09-06,丸越繊維株式会社,,株式会社,福井県,坂井市,丸岡町巽町３丁目１４番地,,18,210,9100235,,,2021-09-06,清算の結了等,,,2015-10-05,1,,,,,マルコシセンイ,0
1792,7220002007444,登記記録の閉鎖等,0,2021-09-09,2021-09-07,有限会社力耕,,有限会社,石川県,白山市,安養寺町戊１０１の１番地,,17,210,9202141,,,2021-09-07,合併による解散等,1230001006550,令和３年９月１日富山県中新川郡立山町米沢３５９番地株式会社アスコ（1230001006550）に合併し解散,2015-10-05,1,,,,,リキコウ,0
1803,7250002019775,登記記録の閉鎖等,0,2021-09-09,2021-09-03,有限会社トラベルプラザワールド,,有限会社,山口県,柳井市,余田１４８５番地８１,,35,212,7420034,,,2021-09-03,清算の結了等,,,2015-10-05,1,,,,,トラベルプラザワールド,0
1814,7290001048128,登記記録の閉鎖等,0,2021-09-09,2021-08-24,未来開発株式会社,,株式会社,福岡県,飯塚市,新飯塚２４番１６号,,40,205,8200005,,,2021-08-24,清算の結了等,,,2015-10-05,1,,,,,ミライカイハツ,0
1847,7410005003512,登記記録の閉鎖等,0,2021-09-09,2021-09-01,農事組合法人大欠組合,,その他の設立登記法人,秋田県,鹿角市,十和田末広字沖ノ平６３番地,,05,209,0185337,,,2021-09-01,清算の結了等,,,2015-10-05,1,,,,,オオカケクミアイ,0
1878,8010002027669,登記記録の閉鎖等,0,2021-09-09,2021-09-07,有限会社タカラフーズ,,有限会社,東京都,板橋区,高島平８丁目６番１０号アゼリアハイム高島平５０１,,13,119,1750082,,,2021-09-07,清算の結了等,,,2015-10-05,1,,,,,,0
1881,8010003032965,登記記録の閉鎖等,0,2021-09-09,2021-09-03,紀尾井町第五金融準備合同会社,,合同会社,東京都,千代田区,紀尾井町１番３号,,13,101,1020094,,,2021-09-03,清算の結了等,,,2020-09-04,1,,,,,キオイチョウダイニキンユウジュンビ,0
1893,8010802003349,登記記録の閉鎖等,0,2021-09-09,2021-09-01,有限会社開成コレートサービス,,有限会社,東京都,大田区,東糀谷３丁目９番１５号,,13,111,1440033,,,2021-09-01,清算の結了等,,,2015-10-05,1,,,,,カイセイコレートサービス,0
1909,8011301013640,登記記録の閉鎖等,0,2021-09-09,2021-09-02,光永株式会社,,株式会社,東京都,杉並区,高井戸東３丁目１４番１１号,,13,115,1680072,,,2021-09-02,清算の結了等,,,2015-10-05,1,,,,,コウエイ,0
1915,8011601021153,登記記録の閉鎖等,0,2021-09-09,2021-09-06,セミナルトラベラーズ株式会社,,株式会社,東京都,練馬区,春日町５丁目４－１６,,13,120,1790074,,,2021-09-06,清算の結了等,,,2016-08-19,1,,,,,セミナルトラベラーズ,0
1935,8020002040101,登記記録の閉鎖等,0,2021-09-09,2021-09-06,有限会社満束綜合建築,,有限会社,神奈川県,横浜市鶴見区,寺谷２丁目２番１号,,14,101,2300015,,,2021-09-06,清算の結了等,,,2015-10-05,1,,,,,ミツツカソウゴウケンチク,0
1959,8030005006305,登記記録の閉鎖等,0,2021-09-09,2021-08-31,伊奈工業団地協同組合,,その他の設立登記法人,埼玉県,北足立郡伊奈町,西小針７丁目１４番地,,11,301,3620811,,,2021-08-31,清算の結了等,,,2015-10-05,1,,,,,イナコウギョウダンチ,0
1962,8040001030126,登記記録の閉鎖等,0,2021-09-09,2021-09-02,リビングワイズ株式会社,,株式会社,千葉県,市川市,行徳駅前２丁目１７番５号,,12,203,2720133,,,2021-09-02,清算の結了等,,,2015-10-05,1,,,,,リビングワイズ,0
1972,8040002049990,登記記録の閉鎖等,0,2021-09-09,2021-09-02,有限会社スィード・リーフ,,有限会社,千葉県,松戸市,西馬橋５丁目１３番地,,12,207,2710044,,,2021-09-02,清算の結了等,,,2015-10-05,1,,,,,スィードリーフ,0
1977,8050005006583,登記記録の閉鎖等,0,2021-09-09,2021-09-02,一般財団法人行方市開発公社,,その他の設立登記法人,茨城県,行方市,玉造甲１２３４番地,,08,233,3113512,,,2021-09-02,清算の結了等,,,2015-10-05,1,,,,,ナメガタシカイハツコウシャ,0
1987,8070002000026,登記記録の閉鎖等,0,2021-09-09,2021-09-02,有限会社葵商事,,有限会社,群馬県,前橋市,上泉町９３１番地１,,10,201,3710007,,,2021-09-02,清算の結了等,,,2015-10-05,1,,,,,アオイショウジ,0
1992,8100001025185,登記記録の閉鎖等,0,2021-09-09,2021-09-07,株式会社農耕百花,,株式会社,長野県,飯田市,川路４７６４番地５,,20,205,3992431,,,2021-09-07,清算の結了等,,,2015-10-05,1,,,,,ノウコウヒャッカ,0
1997,8110002006951,登記記録の閉鎖等,0,2021-09-09,2021-09-06,有限会社横堀商事,,有限会社,新潟県,新潟市西区,須賀１１番１１号,,15,107,9502043,,,2021-09-06,清算の結了等,,,2015-10-05,1,,,,,ヨコボリショウジ,0
2040,8140002029165,登記記録の閉鎖等,0,2021-09-09,2021-09-06,有限会社瀧野商店,,有限会社,兵庫県,明石市,本町１丁目５番２０号,,28,203,6730892,,,2021-09-06,清算の結了等,,,2015-10-05,1,,,,,タキノショウテン,0
2055,8180001069927,登記記録の閉鎖等,0,2021-09-09,2021-09-06,株式会社クレア,,株式会社,愛知県,みよし市,三好町西中島２６番地県営中島住宅８棟３０２号,,23,236,4700224,,,2021-09-06,清算の結了等,,,2015-10-05,1,,,,,クレア,0
2068,8180003017999,登記記録の閉鎖等,0,2021-09-09,2021-09-02,鵜飼コンサルティングオフィス合同会社,,合同会社,愛知県,名古屋市名東区,貴船１丁目９１番地,,23,115,4650058,,,2021-09-02,清算の結了等,,,2017-06-01,1,,,,,ウカイコンサルティングオフィス,0
2075,8190001012480,登記記録の閉鎖等,0,2021-09-09,2021-09-08,日本鋳工株式会社,,株式会社,三重県,桑名市,大字東金井字掛樋６０６番地の１,,24,205,5110921,,,2021-09-08,清算の結了等,,,2015-10-05,1,,,,,,0
2079,8190002016101,登記記録の閉鎖等,0,2021-09-09,2021-09-08,翼運輸商事有限会社,,有限会社,三重県,松阪市,大津町４８２番地３３,,24,204,5150031,,,2021-09-08,清算の結了等,,,2015-10-05,1,,,,,ツバサウンユショウジ,0
2085,8200001022668,登記記録の閉鎖等,0,2021-09-09,2021-08-31,株式会社ダイトー苑,,株式会社,岐阜県,土岐市,肥田町肥田３６４番地の３,,21,212,5095115,,,2021-08-31,清算の結了等,,,2015-10-05,1,,,,,ダイトーエン,0
2100,8240002038932,登記記録の閉鎖等,0,2021-09-09,2021-09-06,矢田製瓦工業有限会社,,有限会社,広島県,福山市,神辺町大字八尋９７１番地,,34,207,7202112,,,2021-09-06,清算の結了等,,,2015-10-05,1,,,,,ヤタセイガワラコウギヨウ,0
2105,8260001018628,登記記録の閉鎖等,0,2021-09-09,2021-09-07,ローザンヌ株式会社,,株式会社,岡山県,小田郡矢掛町,矢掛２９９０番地１,,33,461,7141201,,,2021-09-07,清算の結了等,,,2015-10-05,1,,,,,,0
2151,8402705000425,登記記録の閉鎖等,0,2021-09-09,2021-09-07,特定非営利活動法人Ｃｏｌｏｒ　Ｖｉｓｉｏｎ,,その他の設立登記法人,岩手県,大船渡市,大船渡町字猪頭４２番地,,03,203,0220002,,,2021-09-07,清算の結了等,,,2015-10-05,1,,,,,カラービジョン,0
2158,8470001016445,登記記録の閉鎖等,0,2021-09-09,2021-09-06,正浩株式会社,,株式会社,香川県,高松市,木太町５１１６番地２０,,37,201,7600080,,,2021-09-06,清算の結了等,,,2017-08-04,1,,,,,セイコウ,0
2159,8470002014877,登記記録の閉鎖等,0,2021-09-09,2021-09-06,坂出鋼材有限会社,,有限会社,香川県,坂出市,福江町２丁目１番１１－２号,,37,203,7620034,,,2021-09-06,清算の結了等,,,2015-10-05,1,,,,,サカイデコウザイ,0
2174,9010001186151,登記記録の閉鎖等,0,2021-09-09,2021-09-02,株式会社Ｋｏｔｏ　Ｃｏｒｐｏｒａｔｉｏｎ,,株式会社,愛知県,名古屋市西区,城西３丁目３番１３号,,23,104,4510031,,,2021-09-02,合併による解散等,7160001016205,令和３年８月３１日滋賀県野洲市栄５番５号株式会社湖都コーポレーション（7160001016205）に合併し解散,2017-09-07,1,,,,,コトコーポレーション,0
2179,9010005013954,登記記録の閉鎖等,0,2021-09-09,2021-08-27,税理士法人真正総合事務所,,その他の設立登記法人,東京都,中央区,銀座２丁目４番１号銀楽ビル４階,,13,102,1040061,,,2021-08-27,清算の結了等,,,2015-10-05,1,,,,,シンセイソウゴウジムショ,0
2186,9010401042821,登記記録の閉鎖等,0,2021-09-09,2021-08-31,株式会社ヒトヒト,,株式会社,東京都,港区,三田１丁目４番２８号,,13,103,1080073,,,2021-08-31,清算の結了等,,,2015-10-05,1,,,,,ヒトヒト,0
2187,9010401067249,登記記録の閉鎖等,0,2021-09-09,2021-09-01,ブノワ株式会社,,株式会社,東京都,港区,新橋４丁目２０番８号,,13,103,1050004,,,2021-09-01,合併による解散等,7010402011587,令和３年９月１日東京都港区新橋四丁目２０番８号株式会社フジウェルズ（7010402011587）に合併し解散,2015-10-05,1,,,,,ブノワ,0
2203,9010601010743,登記記録の閉鎖等,0,2021-09-09,2021-09-03,佐藤自動車株式会社,,株式会社,東京都,墨田区,立川４丁目１番３号,,13,107,1300023,,,2021-09-03,清算の結了等,,,2020-01-30,1,,,,,サトウジドウシャ,0
2210,9011002011158,登記記録の閉鎖等,0,2021-09-09,2021-08-25,有限会社藤建築事務所,,有限会社,東京都,渋谷区,千駄ヶ谷２丁目２９番８号,,13,113,1510051,,,2021-08-25,清算の結了等,,,2015-10-05,1,,,,,トウケンチクジムショ,0
2225,9011402009974,登記記録の閉鎖等,0,2021-09-09,2021-09-07,有限会社東京ニユープリント,,有限会社,東京都,板橋区,仲宿５８番３号,,13,119,1730005,,,2021-09-07,清算の結了等,,,2015-10-05,1,,,,,トウキョウニュープリント,0
2243,9012701012371,登記記録の閉鎖等,0,2021-09-09,2021-09-07,株式会社フォーユー１０１,,株式会社,東京都,東村山市,青葉町２丁目１８番地４１,,13,213,1890002,,,2021-09-07,清算の結了等,,,2015-10-05,1,,,,,,0
2250,9020001096168,登記記録の閉鎖等,0,2021-09-09,2021-09-03,株式会社日山工業,,株式会社,神奈川県,横浜市南区,堀ノ内町１丁目８４番地１,,14,105,2320042,,,2021-09-03,清算の結了等,,,2015-10-05,1,,,,,ヒヤマコウギョウ,0
2281,9040001105117,登記記録の閉鎖等,0,2021-09-09,2021-09-01,ＮＡＳＫＡ防災株式会社,,株式会社,千葉県,船橋市,松が丘４丁目３５番８号,,12,204,2740064,,,2021-09-01,清算の結了等,,,2018-06-22,1,,,,,ナスカボウサイ,0
2287,9040003015578,登記記録の閉鎖等,0,2021-09-09,2021-09-01,合同会社シュウユウ企画,,合同会社,千葉県,船橋市,本町３丁目１番２１号－４Ｆ,,12,204,2730005,,,2021-09-01,清算の結了等,,,2020-06-22,1,,,,,シュウユウキカク,0
2295,9080401001077,登記記録の閉鎖等,0,2021-09-09,2021-09-07,株式会社岡田住建,,株式会社,静岡県,浜松市東区,市野町３６番地の２,,22,132,4350051,,,2021-09-07,清算の結了等,,,2015-10-05,1,,,,,オカダジュウケン,0
2303,9110002028524,登記記録の閉鎖等,0,2021-09-09,2021-09-03,有限会社長岡電装サービス,,有限会社,新潟県,長岡市,新保３丁目８番３７号,,15,202,9400875,,,2021-09-03,清算の結了等,,,2015-10-05,1,,,,,ナガオカデンソウサービス,0
2330,9120901010283,登記記録の閉鎖等,0,2021-09-09,2021-09-08,株式会社新井工業所,,株式会社,大阪府,高槻市,大塚町２丁目４１番２号,,27,207,5690034,,,2021-09-08,清算の結了等,,,2015-10-05,1,,,,,アライコウギョウショ,0
2345,9140001061300,登記記録の閉鎖等,0,2021-09-09,2021-09-07,福住株式会社,,株式会社,兵庫県,姫路市,神屋町２丁目４２番地の６,,28,201,6700836,,,2021-09-07,合併による解散等,7120001077804,令和３年８月２１日大阪市中央区南本町三丁目６番１４号イトウビル内北恵株式会社（7120001077804）に合併し解散,2015-10-05,1,,,,,フクズミ,0
2351,9140002045450,登記記録の閉鎖等,0,2021-09-09,2021-09-03,有限会社カヅキ企画,,有限会社,兵庫県,尼崎市,西昆陽２丁目９番１号,,28,202,6610047,,,2021-09-03,清算の結了等,,,2015-10-05,1,,,,,カヅキキカク,0
2352,9140002064640,登記記録の閉鎖等,0,2021-09-09,2021-09-03,有限会社鶴本工管,,有限会社,兵庫県,川西市,小戸３丁目１４番９号,,28,217,6660014,,,2021-09-03,清算の結了等,,,2015-10-05,1,,,,,ツルモトコウカン,0
2368,9180005006314,登記記録の閉鎖等,0,2021-09-09,2021-09-07,税理士法人Ｔ＆Ｌ,,その他の設立登記法人,愛知県,名古屋市中区,橘１丁目１０番１号,,23,106,4600016,,,2021-09-07,清算の結了等,,,2015-10-05,1,,,,,ティーアンドエル,0
2393,9240001048031,登記記録の閉鎖等,0,2021-09-09,2021-09-07,株式会社広永電業,,株式会社,広島県,広島市中区,東平塚町９番４号,,34,101,7300025,,,2021-09-07,清算の結了等,,,2015-10-05,1,,,,,ヒロナガデンギョウ,0
2408,9280002011356,登記記録の閉鎖等,0,2021-09-09,2021-09-07,有限会社さんせん,,有限会社,島根県,雲南市,三刀屋町三刀屋１０７番地１９,,32,209,6902404,,,2021-09-07,清算の結了等,,,2015-10-05,1,,,,,サンセン,0
2422,9330003004361,登記記録の閉鎖等,0,2021-09-09,2021-09-06,合資会社東田商店,,合資会社,熊本県,球磨郡湯前町,２５５７番地の２,,43,506,8680600,,,2021-09-06,清算の結了等,,,2015-10-05,1,,,,,ヒガシダショウテン,0
2426,9340002024921,登記記録の閉鎖等,0,2021-09-09,2021-09-06,有限会社一松設備,,有限会社,鹿児島県,肝属郡肝付町,前田５５３番地７,,46,492,8931206,,,2021-09-06,清算の結了等,,,2015-10-05,1,,,,,,0
2436,9430001033526,登記記録の閉鎖等,0,2021-09-09,2021-09-01,道央産業株式会社,,株式会社,北海道,北広島市,南の里１３番地３,,01,234,0611154,,,2021-09-01,清算の結了等,,,2015-10-05,1,,,,,ドウオウサンギョウ,0
2438,9430001074743,登記記録の閉鎖等,0,2021-09-09,2021-09-08,株式会社ヴィヴィッドキャリアサポート,,株式会社,北海道,札幌市中央区,大通西１丁目１４番２号桂和大通ビル５０　９Ｆ,,01,101,0600042,,,2021-09-08,清算の結了等,,,2017-08-10,1,,,,,ヴィヴィッドキャリアサポート,0
2443,9430002051205,登記記録の閉鎖等,0,2021-09-09,2021-09-02,有限会社もみじやま,,有限会社,北海道,夕張市,紅葉山４７１番地,,01,209,0680755,,,2021-09-02,清算の結了等,,,2015-10-05,1,,,,,モミジヤマ,0
2444,9430003007701,登記記録の閉鎖等,0,2021-09-09,2021-09-08,株式会社ヴィヴィッドキッズサポート,,株式会社,北海道,札幌市中央区,大通西１丁目１４番２号桂和大通ビル５０　９Ｆ,,01,101,0600042,,,2021-09-08,清算の結了等,,,2016-07-01,1,,,,,ヴィヴィッドキッズサポート,0
2453,9500002019203,登記記録の閉鎖等,0,2021-09-09,2021-09-08,有限会社南工業,,有限会社,愛媛県,今治市,中寺９０８番地６,,38,202,7940840,,,2021-09-08,清算の結了等,,,2015-10-05,1,,,,,,0
