sequenceNumber,corporateNumber,process,correct,updateDate,changeDate,name,nameImageId,kind,prefectureName,cityName,streetNumber,addressImageId,prefectureCode,cityCode,postCode,addressOutside,addressOutsideImageId,closeDate,closeCause,successorCorporateNumber,changeCause,assignmentDate,latest,enName,enPrefectureName,enCityName,enAddressOutside,furigana,hihyoji
5,1010001249956,新規,0,2024-11-19,2024-11-19,株式会社トランジットサイエンティフィックジャパン,,株式会社,東京都,文京区,本郷１丁目２８番１０号,,13,105,1130033,,,,,,,2024-11-19,1,,,,,トランジットサイエンティフィックジャパン,0
6,1010001250039,新規,0,2024-11-19,2024-11-19,株式会社壁眞利子,,株式会社,東京都,中央区,銀座１丁目２２番１１号銀座大竹ビジデンス２階,,13,102,1040061,,,,,,,2024-11-19,1,,,,,カベマリコ,0
7,1010001250047,新規,0,2024-11-19,2024-11-19,株式会社ＫＰ,,株式会社,東京都,中央区,明石町１番３１－１０１０号,,13,102,1040044,,,,,,,2024-11-19,1,,,,,ケーピー,0
46,1010005039123,新規,0,2024-11-19,2024-11-19,一般社団法人ＯＴＳ,,その他の設立登記法人,東京都,千代田区,丸の内１丁目４番１号東京共同会計事務所内,,13,101,1000005,,,,,,,2024-11-19,1,,,,,オーティーエス,0
53,1010401186485,新規,0,2024-11-19,2024-11-19,株式会社Ａｎｔｈｅｉａ,,株式会社,東京都,港区,北青山１丁目３番１号アールキューブ青山３階,,13,103,1070061,,,,,,,2024-11-19,1,,,,,アンテイア,0
56,1010403033710,新規,0,2024-11-19,2024-11-19,合同会社Ｍｏｎ　Ｃｏｅｕｒ　Ｍａｉｓｏｎ,,合同会社,東京都,港区,浜松町２丁目２番１５号浜松町ダイヤビル２Ｆ,,13,103,1050013,,,,,,,2024-11-19,1,,,,,モンクールメゾン,0
57,1010405023750,新規,0,2024-11-19,2024-11-19,一般社団法人ＴＳＭ１６７,,その他の設立登記法人,東京都,港区,元赤坂１丁目１番７号,,13,103,1070051,,,,,,,2024-11-19,1,,,,,ティーエスエムヒャクロクジュウナナ,0
63,1010601066264,新規,0,2024-11-19,2024-11-19,ビアマイスター株式会社,,株式会社,東京都,江東区,富岡２丁目１０番１号,,13,108,1350047,,,,,,,2024-11-19,1,,,,,ビアマイスター,0
64,1010601066306,新規,0,2024-11-19,2024-11-19,株式会社ナチュラ・ワークス,,株式会社,東京都,江東区,扇橋２丁目１０番９号,,13,108,1350011,,,,,,,2024-11-19,1,,,,,ナチュラワークス,0
65,1010603011210,新規,0,2024-11-19,2024-11-19,合同会社フルドライブ,,合同会社,東京都,江東区,北砂３丁目４番１５－７１４号,,13,108,1360073,,,,,,,2024-11-19,1,,,,,フルドライブ,0
72,1010903009508,新規,0,2024-11-19,2024-11-19,よだアカウンティング合同会社,,合同会社,東京都,世田谷区,南烏山６丁目１９番９－２０３号,,13,112,1570062,,,,,,,2024-11-19,1,,,,,ヨダアカウンティング,0
73,1010905004696,新規,0,2024-11-19,2024-11-19,一般社団法人百川会,,その他の設立登記法人,東京都,世田谷区,代田２丁目７番地６号株式会社藤居事務所内,,13,112,1550033,,,,,,,2024-11-19,1,,,,,ヒャクセンカイ,0
78,1011001165870,新規,0,2024-11-19,2024-11-19,ブループリント株式会社,,株式会社,東京都,渋谷区,桜丘町２３番６号,,13,113,1500031,,,,,,,2024-11-19,1,,,,,ブループリント,0
79,1011001165879,新規,0,2024-11-19,2024-11-19,ＩＦ　ＷＯＲＫＳ株式会社,,株式会社,東京都,目黒区,中目黒１丁目４番３－２０３号,,13,110,1530061,,,,,,,2024-11-19,1,,,,,アイエフワークス,0
80,1011001166002,新規,0,2024-11-19,2024-11-19,株式会社グリーンナッツ,,株式会社,東京都,目黒区,東が丘１丁目１９－８－３１２,,13,110,1520021,,,,,,,2024-11-19,1,,,,,グリーンナッツ,0
81,1011001166043,新規,0,2024-11-19,2024-11-19,ＴＢ　Ｐａｒｔｎｅｒｓ株式会社,,株式会社,東京都,渋谷区,恵比寿西２丁目４番８号ウィンド恵比寿ビル８Ｆ,,13,113,1500021,,,,,,,2024-11-19,1,,,,,ティービーパートナーズ,0
83,1011003020421,新規,0,2024-11-19,2024-11-19,合同会社Ｔｈｉｒｄｔｅｃｈ,,合同会社,東京都,渋谷区,神南１丁目１１－４ＦＰＧリンクス神南５階,,13,113,1500041,,,,,,,2024-11-19,1,,,,,サードテック,0
85,1011101109554,新規,0,2024-11-19,2024-11-19,ＳＩＬＶＥＲ　ＬＩＮＩＮＧ株式会社,,株式会社,東京都,新宿区,山吹町３３７－５都住創山吹町ビル６０４Ｄ,,13,104,1620801,,,,,,,2024-11-19,1,,,,,シルバーライニング,0
86,1011101109620,新規,0,2024-11-19,2024-11-19,銘恒株式会社,,株式会社,東京都,新宿区,百人町２丁目２１番１号Ｂ棟３Ｆ,,13,104,1690073,,,,,,,2024-11-19,1,,,,,メイコウ,0
87,1011101109629,新規,0,2024-11-19,2024-11-19,東京ＩＣＴ株式会社,,株式会社,東京都,新宿区,新宿１丁目３６－２新宿第七葉山ビル３Ｆ,,13,104,1600022,,,,,,,2024-11-19,1,,,,,トウキョウアイシーティー,0
90,1011103015189,新規,0,2024-11-19,2024-11-19,合同会社ストーリーズ,,合同会社,東京都,新宿区,西新宿５丁目８－１第一ともえビル１０６,,13,104,1600023,,,,,,,2024-11-19,1,,,,,ストーリーズ,0
91,1011103015197,新規,0,2024-11-19,2024-11-19,合同会社ＴＯＴＴＩ,,合同会社,東京都,新宿区,四谷２丁目９番地１５東京ユナイテッド綜合事務所内,,13,104,1600004,,,,,,,2024-11-19,1,,,,,ティーオーティーティーアイ,0
94,1011501031382,新規,0,2024-11-19,2024-11-19,ユニフィコ株式会社,,株式会社,東京都,荒川区,町屋４丁目３６番１８号,,13,118,1160001,,,,,,,2024-11-19,1,,,,,ユニフィコ,0
95,1011701027825,新規,0,2024-11-19,2024-11-19,株式会社といろ,,株式会社,東京都,江戸川区,北小岩６丁目１番８－１０６号,,13,123,1330051,,,,,,,2024-11-19,1,,,,,,0
99,1011801045181,新規,0,2024-11-19,2024-11-19,株式会社Ｔｈｅ　ＡＮＳＷＥＲ,,株式会社,東京都,足立区,入谷５丁目１１番２号,,13,121,1210836,,,,,,,2024-11-19,1,,,,,ジアンサー,0
100,1011803006561,新規,0,2024-11-19,2024-11-19,ＳＳＧ合同会社,,合同会社,東京都,足立区,柳原１丁目８番６－４０４号,,13,121,1200022,,,,,,,2024-11-19,1,,,,,,0
105,1013303007395,新規,0,2024-11-19,2024-11-19,Ｋｏｋｏｒｏ　Ｈｏｓｐｉｔａｌｉｔｙ合同会社,,合同会社,東京都,豊島区,南池袋１丁目３番６号,,13,116,1710022,,,,,,,2024-11-19,1,,,,,ココロホスピタリティ,0
117,1020001159997,新規,0,2024-11-19,2024-11-19,株式会社ＬＤＢ,,株式会社,神奈川県,川崎市川崎区,砂子２丁目１番地７太陽軒ビル５階,,14,131,2100006,,,,,,,2024-11-19,1,,,,,エルディビー,0
118,1020001160113,新規,0,2024-11-19,2024-11-19,株式会社ｍｉｒｉ,,株式会社,神奈川県,横浜市南区,大岡３丁目３１番１１号,,14,105,2320061,,,,,,,2024-11-19,1,,,,,ミリ,0
119,1020001160162,新規,0,2024-11-19,2024-11-19,株式会社ＶＮＣ,,株式会社,神奈川県,川崎市川崎区,宮前町８番１４号,,14,131,2100012,,,,,,,2024-11-19,1,,,,,ブイエヌシー,0
126,1020003027260,新規,0,2024-11-19,2024-11-19,合同会社Ｐ＆Ｋプロダクション,,合同会社,神奈川県,横浜市神奈川区,金港町５－１４クアドリフォリオ８階,,14,102,2210056,,,,,,,2024-11-19,1,,,,,ピーアンドケープロダクション,0
127,1020005016600,新規,0,2024-11-19,2024-11-19,一般社団法人横浜市終活相談窓口,,その他の設立登記法人,神奈川県,横浜市南区,宮元町２丁目３７番地,,14,105,2320016,,,,,,,2024-11-19,1,,,,,ヨコハマシシュウカツソウダンマドグチ,0
130,1021001083758,新規,0,2024-11-19,2024-11-19,ＨＫコンサルティング株式会社,,株式会社,神奈川県,藤沢市,円行１丁目１４番地の１１,,14,205,2520805,,,,,,,2024-11-19,1,,,,,エイチケーコンサルティング,0
145,1040001136193,新規,0,2024-11-19,2024-11-19,株式会社リンクコア,,株式会社,千葉県,松戸市,二十世紀が丘戸山町１３２番地の６,,12,207,2710082,,,,,,,2024-11-19,1,,,,,リンクコア,0
150,1040003026228,新規,0,2024-11-19,2024-11-19,イノベーションリンク合同会社,,合同会社,千葉県,千葉市中央区,中央１丁目１―１４クレアホームズ千葉センタークロス４０１,,12,101,2600013,,,,,,,2024-11-19,1,,,,,イノベーションリンク,0
154,1050003008811,新規,0,2024-11-19,2024-11-19,ＭＹ投資合同会社,,合同会社,茨城県,取手市,戸頭１０９５番地４,,08,217,3020034,,,,,,,2024-11-19,1,,,,,エムワイトウシ,0
159,1060001037662,新規,0,2024-11-19,2024-11-19,トライブ株式会社,,株式会社,栃木県,大田原市,新富町３丁目２２番４号,,09,210,3240055,,,,,,,2024-11-19,1,,,,,トライブ,0
165,1070001042380,新規,0,2024-11-19,2024-11-19,株式会社ＴＨＥ・ＦＩＳＨ　ＴＡＮＡＫＡ,,株式会社,群馬県,桐生市,相生町５丁目４５９番地の４,,10,203,3760011,,,,,,,2024-11-19,1,,,,,ザフィッシュタナカ,0
166,1070005010326,新規,0,2024-11-19,2024-11-19,Ｊａｐａｎ　Ｍａｌａｙａｌｉ　Ｔｒｕｓｔ一般社団法人,,その他の設立登記法人,群馬県,太田市,新道町１３３０番地３１メゾンアルファ１０６,,10,205,3730037,,,,,,,2024-11-19,1,,,,,ジャパンマラヤーリトラスト,0
170,1080101025136,新規,0,2024-11-19,2024-11-19,株式会社ＢＲＡＶＥ,,株式会社,静岡県,熱海市,梅園町２３番２１号田島アパート１０１号,,22,205,4130032,,,,,,,2024-11-19,1,,,,,ブレイブ,0
171,1080401027575,新規,0,2024-11-19,2024-11-19,ＬＩＦＴ株式会社,,株式会社,静岡県,浜松市浜名区,新原４４６８番地の１,,22,139,4340003,,,,,,,2024-11-19,1,,,,,リフト,0
177,1100001038020,新規,0,2024-11-19,2024-11-19,株式会社吉祥,,株式会社,長野県,諏訪市,大字四賀１８０３番地２,,20,206,3920012,,,,,,,2024-11-19,1,,,,,キッショウ,0
178,1100001038037,新規,0,2024-11-19,2024-11-19,株式会社ＴＴＴ,,株式会社,長野県,南佐久郡佐久穂町,大字穂積２３４９番地５,,20,309,3840702,,,,,,,2024-11-19,1,,,,,ティーティーティー,0
181,1100003007873,新規,0,2024-11-19,2024-11-19,合同会社ＳＫＩＷＩ,,合同会社,長野県,下高井郡山ノ内町,大字平穏７９８番地４,,20,561,3810401,,,,,,,2024-11-19,1,,,,,スキーウィ,0
183,1110001038845,新規,0,2024-11-19,2024-11-19,策株式会社,,株式会社,新潟県,新潟市中央区,南笹口１丁目１－３８コープオリンピア８０８,,15,103,9500912,,,,,,,2024-11-19,1,,,,,,0
192,1120001270380,新規,0,2024-11-19,2024-11-19,株式会社ＦｒｅｅＳｔｙｌｅ,,株式会社,大阪府,大阪市西淀川区,御幣島３丁目１３番２７号,,27,113,5550012,,,,,,,2024-11-19,1,,,,,フリースタイル,0
193,1120001270389,新規,0,2024-11-19,2024-11-19,ＭＩＮＫＯＮ株式会社,,株式会社,大阪府,大阪市中央区,松屋町９番２０号ローレルステート松屋町９０３Ａ,,27,128,5420067,,,,,,,2024-11-19,1,,,,,ミンコン,0
194,1120001270422,新規,0,2024-11-19,2024-11-19,久越株式会社,,株式会社,大阪府,大阪市生野区,新今里７丁目５番１８－２０１号,,27,116,5440001,,,,,,,2024-11-19,1,,,,,キュウエツ,0
195,1120001270447,新規,0,2024-11-19,2024-11-19,株式会社ＲＭ,,株式会社,大阪府,大阪市平野区,平野市町１丁目６番２号,,27,126,5470042,,,,,,,2024-11-19,1,,,,,ラーム,0
201,1120101070565,新規,0,2024-11-19,2024-11-19,ＫＵＢＯ株式会社,,株式会社,大阪府,阪南市,尾崎町１丁目９番７号２Ｆ,,27,232,5990201,,,,,,,2024-11-19,1,,,,,クボ,0
202,1120101070607,新規,0,2024-11-19,2024-11-19,株式会社プロクロス,,株式会社,大阪府,堺市中区,深井沢町３２８２番地ＫＭＫアドバンスビル,,27,142,5998236,,,,,,,2024-11-19,1,,,,,プロクロス,0
206,1120103006121,新規,0,2024-11-19,2024-11-19,ｌｕａｎａ　ａｉｎａ合同会社,,合同会社,大阪府,大阪狭山市,東野西１丁目１０３３番地の３,,27,231,5890001,,,,,,,2024-11-19,1,,,,,ルアナアイナ,0
207,1120901050048,新規,0,2024-11-19,2024-11-19,株式会社さくらこいしわら,,株式会社,大阪府,豊中市,向丘２丁目１１番１号ディアコート向丘１０４,,27,203,5600053,,,,,,,2024-11-19,1,,,,,サクラコイシワラ,0
209,1120905006657,新規,0,2024-11-19,2024-11-19,一般社団法人ＯＮＺＥ,,その他の設立登記法人,大阪府,茨木市,大池２丁目２１－４,,27,211,5670826,,,,,,,2024-11-19,1,,,,,オンズ,0
213,1130001078377,新規,0,2024-11-19,2024-11-19,株式会社Ｇ‐ＷＥＳＴ,,株式会社,京都府,長岡京市,神足大張２０－１メイツブラン長岡京Ａ－９０７,,26,209,6170833,,,,,,,2024-11-19,1,,,,,ジーウェスト,0
214,1130003010008,新規,0,2024-11-19,2024-11-19,Ｓｈｉｃｈｉｂｕｋａｉ合同会社,,合同会社,京都府,京都市下京区,茶磨屋町２３６番地Ａ－Ｔｅｒｒａｃｅ４Ｂ,,26,106,6008045,,,,,,,2024-11-19,1,,,,,シチブカイ,0
216,1130005017240,新規,0,2024-11-19,2024-11-19,特定非営利活動法人ｉｍｍｉ　ｌａｂ,,その他の設立登記法人,京都府,京都市伏見区,山崎町３６７番地,,26,109,6128367,,,,,,,2024-11-19,1,,,,,イミラボ,0
217,1140001136464,新規,0,2024-11-19,2024-11-19,株式会社迎賓堂,,株式会社,兵庫県,姫路市,安田４丁目１０２番地,,28,201,6700955,,,,,,,2024-11-19,1,,,,,ゲイヒンドウ,0
219,1140003021334,新規,0,2024-11-19,2024-11-19,合同会社ＯＮＣＥ　ＬＡＢＯ,,合同会社,兵庫県,神戸市灘区,森後町１丁目３番１９号,,28,102,6570028,,,,,,,2024-11-19,1,,,,,ワンスラボ,0
220,1140005027271,新規,0,2024-11-19,2024-11-19,弁護士法人ルーセント,,その他の設立登記法人,兵庫県,宝塚市,川面５丁目１０番３２号,,28,214,6650842,,,,,,,2024-11-19,1,,,,,ルーセント,0
228,1180001164148,新規,0,2024-11-19,2024-11-19,水野組株式会社,,株式会社,愛知県,海部郡蟹江町,舟入３丁目６１５番地,,23,425,4970048,,,,,,,2024-11-19,1,,,,,ミズノグミ,0
229,1180001164172,新規,0,2024-11-19,2024-11-19,株式会社ミラテクト,,株式会社,愛知県,名古屋市東区,東桜２丁目３番４号２Ｆ,,23,102,4610005,,,,,,,2024-11-19,1,,,,,ミラテクト,0
234,1180003027600,新規,0,2024-11-19,2024-11-19,合同会社スマイニー,,合同会社,愛知県,名古屋市中村区,名駅４丁目２４番５号第２森ビル４０１,,23,105,4500002,,,,,,,2024-11-19,1,,,,,スマイニー,0
235,1180003027633,新規,0,2024-11-19,2024-11-19,合同会社クレディアス,,合同会社,愛知県,名古屋市中村区,名駅４丁目２４番５号第２森ビル４０１,,23,105,4500002,,,,,,,2024-11-19,1,,,,,クレディアス,0
241,1180301039248,新規,0,2024-11-19,2024-11-19,株式会社ＨＴ重建,,株式会社,愛知県,豊橋市,大岩町字車田３１番９,,23,201,4413147,,,,,,,2024-11-19,1,,,,,エイチティジュウケン,0
242,1180301039256,新規,0,2024-11-19,2024-11-19,株式会社比良プラント,,株式会社,愛知県,安城市,古井町亀山１１番地ガーデンコート古井Ｂ１０１,,23,212,4460025,,,,,,,2024-11-19,1,,,,,ヒラプラント,0
243,1180303006345,新規,0,2024-11-19,2024-11-19,アジェ・デュ・プロ合同会社,,合同会社,愛知県,豊橋市,中原町字東山２１番地５,,23,201,4413106,,,,,,,2024-11-19,1,,,,,アジェデュプロ,0
259,1220001026343,新規,0,2024-11-19,2024-11-19,ＥＮＦＡＮＴ株式会社,,株式会社,石川県,金沢市,横川７丁目３５番地１ルミエール横川,,17,201,9218163,,,,,,,2024-11-19,1,,,,,アンファン,0
260,1220001026351,新規,0,2024-11-19,2024-11-19,株式会社三圭,,株式会社,石川県,河北郡内灘町,字向陽台１丁目１８２番地,,17,365,9200272,,,,,,,2024-11-19,1,,,,,サンケイ,0
261,1230001020626,新規,0,2024-11-19,2024-11-19,株式会社セールスレップ,,株式会社,富山県,高岡市,福岡町赤丸６５７番地,,16,202,9390101,,,,,,,2024-11-19,1,,,,,セールスレップ,0
265,1260003004970,新規,0,2024-11-19,2024-11-19,合同会社百伸工業,,合同会社,岡山県,倉敷市,水島東常盤町２番９号,,33,202,7128058,,,,,,,2024-11-19,1,,,,,ヒャクシンコウギョウ,0
271,1290001107962,新規,0,2024-11-19,2024-11-19,あすなろブルワリー株式会社,,株式会社,福岡県,福岡市博多区,千代４丁目６番３号,,40,132,8120044,,,,,,,2024-11-19,1,,,,,アスナロブルワリー,0
272,1290001108003,新規,0,2024-11-19,2024-11-19,株式会社テックブレンド,,株式会社,福岡県,糟屋郡志免町,別府西３丁目３番１６号,,40,343,8112232,,,,,,,2024-11-19,1,,,,,テックブレンド,0
273,1290001108028,新規,0,2024-11-19,2024-11-19,株式会社Ｃｏｎｎｅｃｔ　Ｈｏｐｅ,,株式会社,福岡県,福岡市中央区,天神５丁目４番１－４０６号,,40,133,8100001,,,,,,,2024-11-19,1,,,,,コネクトホープ,0
274,1290001108036,新規,0,2024-11-19,2024-11-19,株式会社ＧＯＡＴ,,株式会社,福岡県,福岡市博多区,祇園町８番１３号,,40,132,8120038,,,,,,,2024-11-19,1,,,,,ゴート,0
279,1290003016071,新規,0,2024-11-19,2024-11-19,合同会社ジオスペース,,合同会社,福岡県,糟屋郡宇美町,桜原２丁目９番２３号,,40,341,8112109,,,,,,,2024-11-19,1,,,,,ジオスペース,0
282,1290803004894,新規,0,2024-11-19,2024-11-19,合同会社ココロザシ,,合同会社,福岡県,北九州市戸畑区,丸町１丁目４番１－３０５号,,40,105,8040052,,,,,,,2024-11-19,1,,,,,ココロザシ,0
283,1300005007216,新規,0,2024-11-19,2024-11-19,医療法人前山皮膚科,,その他の設立登記法人,佐賀県,佐賀市,神野東３丁目７－１,,41,201,8400804,,,,,,,2024-11-19,1,,,,,マエヤマヒフカ,0
288,1340001026942,新規,0,2024-11-19,2024-11-19,株式会社ステップアップ,,株式会社,鹿児島県,曽於市,財部町北俣字谷ノ口７０６－１－２,,46,217,8994102,,,,,,,2024-11-19,1,,,,,ステップアップ,0
300,1370001051946,新規,0,2024-11-19,2024-11-19,株式会社フレックス,,株式会社,宮城県,仙台市泉区,将監殿５丁目３番地の１２,,04,105,9813136,,,,,,,2024-11-19,1,,,,,フレックス,0
305,1380001034917,新規,0,2024-11-19,2024-11-19,株式会社貴興業,,株式会社,福島県,郡山市,富久山町福原字道ノ窪２０番地の１３新生ハウス１０１号,,07,203,9638061,,,,,,,2024-11-19,1,,,,,タカコウギョウ,0
306,1380001034925,新規,0,2024-11-19,2024-11-19,福島ＳｉＣ応用技研株式会社,,株式会社,福島県,双葉郡楢葉町,大字山田岡字仲丸１－７,,07,542,9790513,,,,,,,2024-11-19,1,,,,,フクシマエスアイシーオウヨウギケン,0
307,1380003005890,新規,0,2024-11-19,2024-11-19,Ｓホールディングス合同会社,,合同会社,福島県,白河市,八竜神６９番地１,,07,205,9610047,,,,,,,2024-11-19,1,,,,,エスホールディングス,0
311,1420001018915,新規,0,2024-11-19,2024-11-19,日本青森彩甘果園農協株式会社,,株式会社,青森県,青森市,長島２丁目１３番１号アクア青森スクエア６階,,02,201,0300861,,,,,,,2024-11-19,1,,,,,ニホンアオモリサイカンカエンノウキョウ,0
320,1500001026001,新規,0,2024-11-19,2024-11-19,株式会社幸和水産,,株式会社,愛媛県,宇和島市,築地町２丁目５番１７号,,38,203,7980005,,,,,,,2024-11-19,1,,,,,コウワスイサン,0
327,2010001249939,新規,0,2024-11-19,2024-11-19,ＡＫｅｂｏｎｏＷｏｒｋｓ株式会社,,株式会社,東京都,中央区,日本橋３丁目２番１４号新槇町ビル別館第一２階,,13,102,1030027,,,,,,,2024-11-19,1,,,,,アケボノワークス,0
328,2010001250038,新規,0,2024-11-19,2024-11-19,株式会社ケイスリー,,株式会社,東京都,中央区,日本橋室町１丁目１１番１２号日本橋水野ビル７階,,13,102,1030022,,,,,,,2024-11-19,1,,,,,ケイスリー,0
329,2010001250046,新規,0,2024-11-19,2024-11-19,株式会社Ｓｕｚｕｋｉ,,株式会社,東京都,中央区,勝どき４丁目６番１－４２０９号,,13,102,1040054,,,,,,,2024-11-19,1,,,,,スズキ,0
366,2010003045469,新規,0,2024-11-19,2024-11-19,合同会社ＣＢ３,,合同会社,東京都,中央区,京橋１丁目１４番９号株式会社えいえん堂内,,13,102,1040031,,,,,,,2024-11-19,1,,,,,シービースリー,0
367,2010003045543,新規,0,2024-11-19,2024-11-19,マルズジャパン合同会社,,合同会社,東京都,中央区,銀座１丁目１２番４号Ｎ＆ＥＢＬＤ．６Ｆ,,13,102,1040061,,,,,,,2024-11-19,1,,,,,マルズジャパン,0
383,2010401186410,新規,0,2024-11-19,2024-11-19,インスティテューテン株式会社,,株式会社,東京都,港区,元麻布３丁目１番６号,,13,103,1060046,,,,,,,2024-11-19,1,,,,,インスティテューテン,0
385,2010501053205,新規,0,2024-11-19,2024-11-19,株式会社Ｆｌｅｃｔｏｒａ,,株式会社,東京都,台東区,千束３丁目１０－５千濱ビル９０１号室,,13,106,1110031,,,,,,,2024-11-19,1,,,,,フレクトラ,0
386,2010505003569,新規,0,2024-11-19,2024-11-19,一般社団法人ｍｏｔｈｅｒ　ｐｅａｃｅ,,その他の設立登記法人,東京都,台東区,上野２丁目１２番１８号－２階,,13,106,1100005,,,,,,,2024-11-19,1,,,,,マザーピース,0
387,2010601066305,新規,0,2024-11-19,2024-11-19,株式会社八広商会,,株式会社,東京都,墨田区,八広３丁目３１番１４－８０３号,,13,107,1310041,,,,,,,2024-11-19,1,,,,,ヤヒロショウカイ,0
389,2010701046818,新規,0,2024-11-19,2024-11-19,うみねこ物産株式会社,,株式会社,東京都,品川区,東中延２丁目９番１９号,,13,109,1420052,,,,,,,2024-11-19,1,,,,,ウミネコブッサン,0
390,2010701046834,新規,0,2024-11-19,2024-11-19,株式会社ＦＬＯＷ,,株式会社,東京都,品川区,小山３丁目１４番２－１７１０号,,13,109,1420062,,,,,,,2024-11-19,1,,,,,フロウ,0
393,2010703007446,新規,0,2024-11-19,2024-11-19,合同会社ＦｕｊｉＭｏｒｅ,,合同会社,東京都,品川区,勝島１丁目４番２０－６１２号,,13,109,1400012,,,,,,,2024-11-19,1,,,,,フジモア,0
394,2010801035571,新規,0,2024-11-19,2024-11-19,株式会社辰正,,株式会社,東京都,大田区,東海３丁目７番１号,,13,111,1430001,,,,,,,2024-11-19,1,,,,,タツマサ,0
396,2010901056344,新規,0,2024-11-19,2024-11-19,株式会社Ｍｉｄｎｉｇｈｔ　Ｃｒｕｉｓｉｎｇ　Ｃｌｕｂ,,株式会社,東京都,世田谷区,太子堂５丁目２番２号サンライズハウス３０２,,13,112,1540004,,,,,,,2024-11-19,1,,,,,ミッドナイトクルージングクラブ,0
397,2010903009498,新規,0,2024-11-19,2024-11-19,Ｏｒａｎｔｅ合同会社,,合同会社,東京都,世田谷区,奥沢５丁目１４－２２－１０３,,13,112,1580083,,,,,,,2024-11-19,1,,,,,オランテ,0
405,2011001165845,新規,0,2024-11-19,2024-11-19,ＪＯＥ株式会社,,株式会社,東京都,渋谷区,神宮前６丁目２３番４号桑野ビル２階,,13,113,1500001,,,,,,,2024-11-19,1,,,,,ジョー,0
408,2011003020395,新規,0,2024-11-19,2024-11-19,Ａｒｃｈｉｖｅ　ａｐｐ　ｓｅｒｖｉｃｅ合同会社,,合同会社,東京都,渋谷区,道玄坂１丁目１６－６二葉ビル８ｂ,,13,113,1500043,,,,,,,2024-11-19,1,,,,,アーカイブアップサービス,0
409,2011103015196,新規,0,2024-11-19,2024-11-19,角川イマーシブゲイト合同会社,,合同会社,東京都,新宿区,住吉町６番１０号,,13,104,1620065,,,,,,,2024-11-19,1,,,,,カドカワイマーシブゲイト,0
417,2011701027824,新規,0,2024-11-19,2024-11-19,ケーズトラックス株式会社,,株式会社,東京都,江戸川区,篠崎町４丁目８番９号,,13,123,1330061,,,,,,,2024-11-19,1,,,,,ケーズトラックス,0
422,2011803006552,新規,0,2024-11-19,2024-11-19,合同会社ＭＡＲＵＦＵＫＵ,,合同会社,東京都,足立区,千住橋戸町９３－２－２１２,,13,121,1200038,,,,,,,2024-11-19,1,,,,,マルフク,0
423,2011803006560,新規,0,2024-11-19,2024-11-19,尚平合同会社,,合同会社,東京都,葛飾区,西亀有３丁目３２番８号,,13,122,1250002,,,,,,,2024-11-19,1,,,,,ナオヒラ,0
432,2012701018532,新規,0,2024-11-19,2024-11-19,株式会社ＪＯＵＴＯ,,株式会社,東京都,西東京市,芝久保町５丁目４－３９,,13,229,1880014,,,,,,,2024-11-19,1,,,,,ジョウト,0
452,2020001159996,新規,0,2024-11-19,2024-11-19,株式会社ＬＤＳ,,株式会社,神奈川県,川崎市川崎区,砂子２丁目１番地７太陽軒ビル５階,,14,131,2100006,,,,,,,2024-11-19,1,,,,,エルディーエス,0
453,2020001160145,新規,0,2024-11-19,2024-11-19,河本不動産株式会社,,株式会社,神奈川県,横浜市西区,中央１丁目２８番１３号ライオンズプラザヨコハマ戸部４０４号,,14,103,2200051,,,,,,,2024-11-19,1,,,,,コウモトフドウサン,0
454,2020003027292,新規,0,2024-11-19,2024-11-19,合同会社りんごペンギンカンパニー,,合同会社,神奈川県,横浜市中区,麦田町３丁目７２番地１,,14,104,2310849,,,,,,,2024-11-19,1,,,,,リンゴペンギンカンパニー,0
463,2021003015254,新規,0,2024-11-19,2024-11-19,Ｖｉｎａｋａ合同会社,,合同会社,神奈川県,足柄下郡湯河原町,宮上４５８－３,,14,384,2590314,,,,,,,2024-11-19,1,,,,,ビナカ,0
464,2021005013223,新規,0,2024-11-19,2024-11-19,一般社団法人大磯空家等活用まちづくり協会,,その他の設立登記法人,神奈川県,中郡大磯町,東町１丁目９番１７号,,14,341,2550002,,,,,,,2024-11-19,1,,,,,オオイソアキヤトウカツヨウマチヅクリキョウカイ,0
471,2030001163551,新規,0,2024-11-19,2024-11-19,Ｇａｒｔｓ　Ａｗｔｏ　Ｔｒａｄｅ株式会社,,株式会社,埼玉県,和光市,南１丁目８番１４号サンヒルズ和光３０２,,11,229,3510104,,,,,,,2024-11-19,1,,,,,ガルツオートトレード,0
473,2030003025510,新規,0,2024-11-19,2024-11-19,合同会社サンアント,,合同会社,埼玉県,川口市,戸塚５丁目１０番１８号カーサ東川口１０２号室,,11,203,3330811,,,,,,,2024-11-19,1,,,,,サンアント,0
482,2040003026219,新規,0,2024-11-19,2024-11-19,合同会社Ｎｏｖｅｍｂｅｒ,,合同会社,千葉県,勝浦市,上植野５０４番地７,,12,218,2995252,,,,,,,2024-11-19,1,,,,,ノベンバー,0
486,2050003008802,新規,0,2024-11-19,2024-11-19,合同会社ライフサポート,,合同会社,茨城県,つくば市,東新井２２番地１０サンガーデン大山ＩＩＩ棟３０３号,00137051,08,220,3050033,,,,,,,2024-11-19,1,,,,,ライフサポート,0
491,2070003005665,新規,0,2024-11-19,2024-11-19,Ｔ．Ｎ．ラモス建設開発合同会社,,合同会社,群馬県,伊勢崎市,昭和町４０１１－２,,10,204,3720014,,,,,,,2024-11-19,1,,,,,ティーエヌラモスケンセツカイハツ,0
501,2100003007864,新規,0,2024-11-19,2024-11-19,ＫＥＲＯ　ＫＥＲＯ　ＨＩＬＬＳ合同会社,,合同会社,長野県,北安曇郡白馬村,大字神城２４１９９番地６３,,20,485,3999211,,,,,,,2024-11-19,1,,,,,ケロケロヒルズ,0
502,2100003007872,新規,0,2024-11-19,2024-11-19,合同会社エルグリーン,,合同会社,長野県,北安曇郡白馬村,大字北城２８６４－１,,20,485,3999301,,,,,,,2024-11-19,1,,,,,エルグリーン,0
515,2120001270223,新規,0,2024-11-19,2024-11-19,気楽ハウス株式会社,,株式会社,大阪府,大阪市城東区,野江１丁目７番２４－５０１号,,27,118,5360006,,,,,,,2024-11-19,1,,,,,キラクハウス,0
516,2120001270371,新規,0,2024-11-19,2024-11-19,＿＿珠宝株式会社,00137052,株式会社,大阪府,大阪市中央区,平野町１丁目８番１３号平野町八千代ビル３階,,27,128,5410046,,,,,,,2024-11-19,1,,,,,キキシュホウ,0
517,2120001270388,新規,0,2024-11-19,2024-11-19,徳瑪克株式会社,00137065,株式会社,大阪府,大阪市中央区,松屋町９番２０号ローレルステート松屋町５１０Ｂ,,27,128,5420067,,,,,,,2024-11-19,1,,,,,トクバコク,0
518,2120001270413,新規,0,2024-11-19,2024-11-19,誠達株式会社,,株式会社,大阪府,大阪市生野区,新今里７丁目５番１８－３０４号,,27,116,5440001,,,,,,,2024-11-19,1,,,,,セイタツ,0
519,2120001270421,新規,0,2024-11-19,2024-11-19,米泰家居株式会社,,株式会社,大阪府,大阪市生野区,新今里７丁目５番１８－３０１号,,27,116,5440001,,,,,,,2024-11-19,1,,,,,ベイタイカキョ,0
528,2120101070614,新規,0,2024-11-19,2024-11-19,株式会社千勝堂,,株式会社,大阪府,岸和田市,小松里町２０３４番地,,27,202,5960821,,,,,,,2024-11-19,1,,,,,センショウドウ,0
529,2120101070630,新規,0,2024-11-19,2024-11-19,株式会社ＡＫＯＧＡＲＥ,,株式会社,大阪府,岸和田市,磯上町５丁目１９番１６号,,27,202,5960001,,,,,,,2024-11-19,1,,,,,アコガレ,0
536,2120901050047,新規,0,2024-11-19,2024-11-19,株式会社Ｅｎ　Ａｒｋ,,株式会社,大阪府,吹田市,穂波町１１番３６号,,27,205,5640042,,,,,,,2024-11-19,1,,,,,エンアーク,0
562,2140003021325,新規,0,2024-11-19,2024-11-19,天蓋舎合同会社,,合同会社,兵庫県,芦屋市,奥池町９－５,,28,206,6590003,,,,,,,2024-11-19,1,,,,,テンガイシャ,0
563,2140003021333,新規,0,2024-11-19,2024-11-19,トワハート合同会社,,合同会社,兵庫県,神戸市中央区,加納町６丁目３番１－９１０号,,28,110,6500001,,,,,,,2024-11-19,1,,,,,トワハート,0
569,2170001018386,新規,0,2024-11-19,2024-11-19,籔中興業株式会社,,株式会社,和歌山県,橋本市,城山台３丁目２２番地の４,,30,203,6480054,,,,,,,2024-11-19,1,,,,,ヤブナカコウギョウ,0
571,2180001164163,新規,0,2024-11-19,2024-11-19,株式会社近藤内装,,株式会社,愛知県,春日井市,堀ノ内町北１丁目１０５番地１０１,,23,206,4860828,,,,,,,2024-11-19,1,,,,,コンドウナイソウ,0
577,2180003027624,新規,0,2024-11-19,2024-11-19,合同会社オリオンレイ,,合同会社,愛知県,名古屋市名東区,一社４丁目１８３番地藤和シティコープ一社１０３号,,23,115,4650093,,,,,,,2024-11-19,1,,,,,オリオンレイ,0
578,2180003027632,新規,0,2024-11-19,2024-11-19,ＮＥＸＴＳＨＩＰ合同会社,,合同会社,愛知県,名古屋市中村区,名駅南４丁目１２番１７号,,23,105,4500003,,,,,,,2024-11-19,1,,,,,ネクストシップ,0
582,2180301039255,新規,0,2024-11-19,2024-11-19,はたらくよろこび株式会社,,株式会社,愛知県,豊田市,花園町新田４１番地６,,23,211,4730924,,,,,,,2024-11-19,1,,,,,ハタラクヨロコビ,0
585,2180305009626,新規,0,2024-11-19,2024-11-19,一般社団法人ダム際ワーキング協会,,その他の設立登記法人,愛知県,北設楽郡設楽町,津具字上古町２８番地２,,23,561,4412601,,,,,,,2024-11-19,1,,,,,ダムギワワーキングキョウカイ,0
589,2200005013685,新規,0,2024-11-19,2024-11-19,一般社団法人関水道協会,,その他の設立登記法人,岐阜県,関市,小瀬９５３番地１,,21,205,5013265,,,,,,,2024-11-19,1,,,,,セキスイドウキョウカイ,0
600,2250001020904,新規,0,2024-11-19,2024-11-19,株式会社まる建築事務所,,株式会社,山口県,下松市,北斗町４－３－２０１,,35,207,7440012,,,,,,,2024-11-19,1,,,,,マルケンチクジムショ,0
602,2260001039654,新規,0,2024-11-19,2024-11-19,株式会社ＬＯＦ,,株式会社,岡山県,岡山市北区,富原３６９７番地５,,33,101,7011153,,,,,,,2024-11-19,1,,,,,エルオーエフ,0
606,2280001009291,新規,0,2024-11-19,2024-11-19,株式会社ＹＵＫＳ,,株式会社,島根県,出雲市,今市町９２８番地２ユーアイプラザビル３階,,32,203,6930001,,,,,,,2024-11-19,1,,,,,ユークス,0
615,2290001108002,新規,0,2024-11-19,2024-11-19,株式会社ｐｌｕｓ,,株式会社,福岡県,福岡市中央区,赤坂１丁目１４番３７号１Ｆ,,40,133,8100042,,,,,,,2024-11-19,1,,,,,プリュス,0
616,2290001108027,新規,0,2024-11-19,2024-11-19,マンウェイ株式会社,,株式会社,福岡県,福岡市南区,井尻１丁目２６－１７－３０３号室,,40,134,8111302,,,,,,,2024-11-19,1,,,,,マンウェイ,0
617,2290001108035,新規,0,2024-11-19,2024-11-19,株式会社Ｒｅ‐ＴＥＮ,,株式会社,福岡県,福岡市南区,大橋４丁目２９番１９－３０３号,,40,134,8150033,,,,,,,2024-11-19,1,,,,,リテン,0
622,2290003016070,新規,0,2024-11-19,2024-11-19,ゼロスターツ合同会社,,合同会社,福岡県,福岡市西区,小戸４丁目１７－２４－２０２,,40,135,8190001,,,,,,,2024-11-19,1,,,,,ゼロスターツ,0
630,2330001032635,新規,0,2024-11-19,2024-11-19,株式会社ＡｄＬｉｎｋ,,株式会社,熊本県,熊本市西区,田崎１丁目３番９３－１１０２号,,43,103,8600053,,,,,,,2024-11-19,1,,,,,アドリンク,0
631,2330003010647,新規,0,2024-11-19,2024-11-19,合同会社Ｙ’ｚ,,合同会社,熊本県,熊本市南区,田迎５丁目６‐２６イーストハイツＡ１０１,,43,104,8620962,,,,,,,2024-11-19,1,,,,,ワイズ,0
637,2360001034422,新規,0,2024-11-19,2024-11-19,株式会社東村Ｐｉｎｅａｐｐｌｅ　Ｌａｂ．,,株式会社,沖縄県,国頭郡東村,字平良１１１番地１,,47,303,9051204,,,,,,,2024-11-19,1,,,,,ヒガシソンパイナップルラボ,0
638,2360001034447,新規,0,2024-11-19,2024-11-19,京和不動産株式会社,,株式会社,沖縄県,南城市,大里字大城６１９番地,,47,215,9011203,,,,,,,2024-11-19,1,,,,,キョウワフドウサン,0
639,2360001034455,新規,0,2024-11-19,2024-11-19,株式会社うちなーＭ＆Ａパートナーズ,,株式会社,沖縄県,那覇市,泊３丁目４番１号ベイサイド泊１階,,47,201,9000012,,,,,,,2024-11-19,1,,,,,ウチナーエムアンドエーパートナーズ,0
649,2380001034924,新規,0,2024-11-19,2024-11-19,株式会社佐々木建設,,株式会社,福島県,郡山市,西田町三町目字仁王ケ作２５番地の７,,07,203,9630922,,,,,,,2024-11-19,1,,,,,ササキケンセツ,0
663,2460103001665,新規,0,2024-11-19,2024-11-19,合同会社貴志聖,,合同会社,北海道,帯広市,東十二条南５丁目２番地１１,,01,207,0800812,,,,,,,2024-11-19,1,,,,,キシセイ,0
665,2470001020469,新規,0,2024-11-19,2024-11-19,株式会社トライアード,,株式会社,香川県,高松市,林町２５６４番地７,,37,201,7610301,,,,,,,2024-11-19,1,,,,,トライアード,0
667,2500001026000,新規,0,2024-11-19,2024-11-19,株式会社ＩＣＨＩＥ,,株式会社,愛媛県,今治市,片山３丁目１番１０号,,38,202,7940063,,,,,,,2024-11-19,1,,,,,イチエ,0
680,3010001249830,新規,0,2024-11-19,2024-11-19,株式会社Ｒ２Ａ,,株式会社,東京都,中央区,日本橋横山町７－１６ゼンパレス日本橋２０３,,13,102,1030003,,,,,,,2024-11-19,1,,,,,アールツーエー,0
681,3010001249871,新規,0,2024-11-19,2024-11-19,株式会社ＨＡＮＡＢＩ,,株式会社,東京都,中央区,銀座８丁目２番１０号銀座誠和シルバービル４Ｆ,,13,102,1040061,,,,,,,2024-11-19,1,,,,,ハナビ,0
682,3010001249938,新規,0,2024-11-19,2024-11-19,株式会社ｓａｉ　Ｘ　ａｉｄ,,株式会社,東京都,文京区,本郷４丁目１－３明和本郷ビル７Ｆ,,13,105,1130033,,,,,,,2024-11-19,1,,,,,サイエイド,0
683,3010001249970,新規,0,2024-11-19,2024-11-19,グケン株式会社,,株式会社,東京都,中央区,日本橋室町１丁目１１番１２号日本橋水野ビル７階,,13,102,1030022,,,,,,,2024-11-19,1,,,,,グケン,0
684,3010001250037,新規,0,2024-11-19,2024-11-19,株式会社Ｂｉｚｒｉｏ,,株式会社,東京都,文京区,千駄木２丁目３２番８号シュプリーム４０１,,13,105,1130022,,,,,,,2024-11-19,1,,,,,ビズリオ,0
685,3010001250061,新規,0,2024-11-19,2024-11-19,株式会社Ｔａｓｔｅ　Ｉｎｎｏｖａｔｏｒ,,株式会社,東京都,中央区,日本橋茅場町１丁目１３番１３号,,13,102,1030025,,,,,,,2024-11-19,1,,,,,,0
731,3010005039121,新規,0,2024-11-19,2024-11-19,一般社団法人自然エネルギーＳＩＰＰ１５,,その他の設立登記法人,東京都,中央区,日本橋本町２丁目４番７号,,13,102,1030023,,,,,,,2024-11-19,1,,,,,シゼンエネルギーエスアイピーピージュウゴ,0
744,3010401186525,新規,0,2024-11-19,2024-11-19,株式会社ＳＵＳＨＩ　ＧＯ,,株式会社,東京都,港区,六本木３丁目３－２７スハラ六本木３階,,13,103,1060032,,,,,,,2024-11-19,1,,,,,スシゴー,0
749,3010405023749,新規,0,2024-11-19,2024-11-19,一般社団法人ＴＳＭ　ＳＨＤ２,,その他の設立登記法人,東京都,港区,元赤坂１丁目１番７号,,13,103,1070051,,,,,,,2024-11-19,1,,,,,ティーエスエムエスエイチディーニ,0
755,3010601066295,新規,0,2024-11-19,2024-11-19,唐宋株式会社,,株式会社,東京都,江東区,亀戸５丁目２０番２６号,,13,108,1360071,,,,,,,2024-11-19,1,,,,,トウソウ,0
758,3010701046833,新規,0,2024-11-19,2024-11-19,株式会社ハコカラ,,株式会社,東京都,品川区,西品川１丁目１番１号,,13,109,1410033,,,,,,,2024-11-19,1,,,,,ハコカラ,0
760,3010703007445,新規,0,2024-11-19,2024-11-19,ＫＯＹＯ合同会社,,合同会社,東京都,品川区,西品川１丁目２９番１２号ＣＳＲ品川,,13,109,1410033,,,,,,,2024-11-19,1,,,,,コーヨー,0
761,3010801035579,新規,0,2024-11-19,2024-11-19,株式会社スリーウェイ,,株式会社,東京都,大田区,西蒲田６丁目９番３号藤和西蒲田コープ,,13,111,1440051,,,,,,,2024-11-19,1,,,,,スリーウェイ,0
762,3010803005167,新規,0,2024-11-19,2024-11-19,ＮＩＳＨＩＫＩコンサルタント合同会社,,合同会社,東京都,大田区,山王３丁目２７番１号,,13,111,1430023,,,,,,,2024-11-19,1,,,,,ニシキコンサルタント,0
767,3011001165844,新規,0,2024-11-19,2024-11-19,株式会社ＳＮＯＷ,,株式会社,東京都,渋谷区,神南１丁目１４－７ワイズ神南ビル２Ｆ,,13,113,1500041,,,,,,,2024-11-19,1,,,,,スノウ,0
768,3011001165852,新規,0,2024-11-19,2024-11-19,株式会社ＣｏｒｐＸｒｏｓ,,株式会社,東京都,渋谷区,道玄坂１丁目１０番８号渋谷道玄坂東急ビル２Ｆ－Ｃ,,13,113,1500043,,,,,,,2024-11-19,1,,,,,コーポクロス,0
774,3011101109453,新規,0,2024-11-19,2024-11-19,ＲＥＰＯストレージ株式会社,,株式会社,東京都,新宿区,神楽坂６丁目３８中島ビル４０２,,13,104,1620825,,,,,,,2024-11-19,1,,,,,レポストレージ,0
775,3011101109552,新規,0,2024-11-19,2024-11-19,株式会社飛亜,,株式会社,東京都,新宿区,西早稲田１丁目９番６－５０１号ライオンズ早稲田ミレス,,13,104,1690051,,,,,,,2024-11-19,1,,,,,トウア,0
776,3011101109577,新規,0,2024-11-19,2024-11-19,株式会社ＶａｌｏｒｉｚｅＡＩ,,株式会社,東京都,新宿区,弁天町７６－１パティオ神楽坂２０４,,13,104,1620851,,,,,,,2024-11-19,1,,,,,バロライズエーアイ,0
777,3011103015195,新規,0,2024-11-19,2024-11-19,合同会社ＧＡＯ,,合同会社,東京都,新宿区,西新宿３丁目３番１３号西新宿水間ビル２Ｆ,,13,104,1600023,,,,,,,2024-11-19,1,,,,,ガオ,0
779,3011105011234,新規,0,2024-11-19,2024-11-19,一般社団法人芸能プロフェッショナル協会,,その他の設立登記法人,東京都,新宿区,新宿１丁目３６番２号新宿第七葉山ビル３階,,13,104,1600022,,,,,,,2024-11-19,1,,,,,ゲイノウプロフェッショナルキョウカイ,0
780,3011105011242,新規,0,2024-11-19,2024-11-19,一般社団法人ＴＯＴＴＩ,,その他の設立登記法人,東京都,新宿区,四谷２丁目９番地１５東京ユナイテッド綜合事務所内,,13,104,1600004,,,,,,,2024-11-19,1,,,,,ティーオーティーティーアイ,0
784,3011401026596,新規,0,2024-11-19,2024-11-19,株式会社成就花伝,,株式会社,東京都,板橋区,若木３丁目２０番１３号,,13,119,1740065,,,,,,,2024-11-19,1,,,,,ジョウジュカデン,0
786,3011501031372,新規,0,2024-11-19,2024-11-19,株式会社アプリグレス,,株式会社,東京都,荒川区,南千住６丁目４１番１０－７２４号,,13,118,1160003,,,,,,,2024-11-19,1,,,,,アプリグレス,0
793,3013303007393,新規,0,2024-11-19,2024-11-19,彩華スタジオ合同会社,,合同会社,東京都,豊島区,高田３丁目３－１６東方高田ビル２１４号室,,13,116,1710033,,,,,,,2024-11-19,1,,,,,サイカスタジオ,0
802,3020001159995,新規,0,2024-11-19,2024-11-19,株式会社ＬＤＨＤ,,株式会社,神奈川県,川崎市川崎区,砂子２丁目１番地７太陽軒ビル５階,,14,131,2100006,,,,,,,2024-11-19,1,,,,,エルディーホールディングス,0
803,3020001160128,新規,0,2024-11-19,2024-11-19,Ｓｕｙｏｒｕｋｕｎ株式会社,,株式会社,神奈川県,横浜市神奈川区,金港町５－１４クアドリフォリオ８階,,14,102,2210056,,,,,,,2024-11-19,1,,,,,スヨルクン,0
804,3020001160136,新規,0,2024-11-19,2024-11-19,株式会社パラパス,,株式会社,神奈川県,横浜市港北区,大曽根２丁目４０番１４号,,14,109,2220003,,,,,,,2024-11-19,1,,,,,パラパス,0
805,3020001160177,新規,0,2024-11-19,2024-11-19,株式会社ロアー,,株式会社,神奈川県,横浜市南区,吉野町３丁目１０シャンテ吉野町２０２,,14,105,2320014,,,,,,,2024-11-19,1,,,,,ロアー,0
812,3020003027267,新規,0,2024-11-19,2024-11-19,合同会社クラウドフォレスト,,合同会社,神奈川県,横浜市都筑区,川和町３０５２番地１０１２号,,14,118,2240057,,,,,,,2024-11-19,1,,,,,クラウドフォレスト,0
818,3021001083789,新規,0,2024-11-19,2024-11-19,株式会社リバーロード,,株式会社,神奈川県,横須賀市,安浦町３丁目１番地１シーサイドパレス１０１号,,14,201,2380012,,,,,,,2024-11-19,1,,,,,リバーロード,0
819,3021003015253,新規,0,2024-11-19,2024-11-19,ファントム合同会社,,合同会社,神奈川県,横須賀市,金谷１丁目５番２号,,14,201,2380034,,,,,,,2024-11-19,1,,,,,ファントム,0
823,3021005013222,新規,0,2024-11-19,2024-11-19,一般社団法人よこすか後見サポート,,その他の設立登記法人,神奈川県,横須賀市,日の出町１丁目７番地１６よこすか法務ビル１Ｆ,,14,201,2380006,,,,,,,2024-11-19,1,,,,,ヨコスカコウケンサポート,0
854,3040003026218,新規,0,2024-11-19,2024-11-19,合同会社軽井沢企画,,合同会社,千葉県,浦安市,高洲４丁目３番１－８１４号,,12,227,2790023,,,,,,,2024-11-19,1,,,,,カルイザワキカク,0
857,3050001055713,新規,0,2024-11-19,2024-11-19,株式会社ケア・アシスト関東,,株式会社,茨城県,小美玉市,小岩戸２０２４番地１２６,,08,236,3190107,,,,,,,2024-11-19,1,,,,,ケアアシストカントウ,0
867,3080001026612,新規,0,2024-11-19,2024-11-19,株式会社Ｄ＆Ｃ犬猫専科,,株式会社,静岡県,静岡市葵区,若松町１２６番地の１２,,22,101,4200006,,,,,,,2024-11-19,1,,,,,ディーアンドシーイヌネコセンカ,0
872,3080101025134,新規,0,2024-11-19,2024-11-19,ＧｒｏｖｅＫｉｄｓ株式会社,,株式会社,静岡県,沼津市,大手町５丁目９－４さくらビル３Ｆ,,22,203,4100801,,,,,,,2024-11-19,1,,,,,グローブキッズ,0
877,3100003007863,新規,0,2024-11-19,2024-11-19,ウォーターファクトリー合同会社,,合同会社,長野県,上伊那郡箕輪町,大字中箕輪８９９５番地,,20,383,3994601,,,,,,,2024-11-19,1,,,,,ウォーターファクトリー,0
878,3100005013257,新規,0,2024-11-19,2024-11-19,ネクサスタレント協同組合,,その他の設立登記法人,長野県,松本市,大字内田７１番地４,,20,202,3990023,,,,,,,2024-11-19,1,,,,,ネクサスタレント,0
880,3110001038851,新規,0,2024-11-19,2024-11-19,ＡＬＰ株式会社,,株式会社,新潟県,新潟市西区,青山８丁目３番１１号,,15,107,9502002,,,,,,,2024-11-19,1,,,,,エーエルピー,0
885,3120001269504,新規,0,2024-11-19,2024-11-19,株式会社ヘルスエンジン・ベンチャーズ,,株式会社,大阪府,大阪市東住吉区,矢田１丁目１０‐６清貴マンション５０５,,27,121,5460023,,,,,,,2024-11-19,1,,,,,ヘルスエンジンベンチャーズ,0
886,3120001270255,新規,0,2024-11-19,2024-11-19,株式会社ホワイト,,株式会社,大阪府,大阪市北区,西天満３丁目８番４－１００３号,,27,127,5300047,,,,,,,2024-11-19,1,,,,,ホワイト,0
887,3120001270362,新規,0,2024-11-19,2024-11-19,株式会社Ｒｉｓｅ　Ｔｅｃｈ,,株式会社,大阪府,大阪市北区,兎我野町５番９号梅田ＵＫビル８０１号,,27,127,5300056,,,,,,,2024-11-19,1,,,,,ライズテック,0
888,3120001270379,新規,0,2024-11-19,2024-11-19,ツミイジャパン株式会社,,株式会社,大阪府,大阪市西成区,玉出西２丁目１４番８－３０１号,,27,122,5570045,,,,,,,2024-11-19,1,,,,,ツミイジャパン,0
889,3120001270395,新規,0,2024-11-19,2024-11-19,Ｍ＆Ｍメディカル株式会社,,株式会社,大阪府,大阪市住吉区,長居東４丁目６番８号,,27,120,5580004,,,,,,,2024-11-19,1,,,,,エムアンドエムメディカル,0
890,3120001270420,新規,0,2024-11-19,2024-11-19,株式会社ハーゼ,,株式会社,大阪府,大阪市福島区,海老江３丁目２４番４２－４０３号,,27,103,5530001,,,,,,,2024-11-19,1,,,,,ハーゼ,0
891,3120001270437,新規,0,2024-11-19,2024-11-19,株式会社ソレス,,株式会社,大阪府,寝屋川市,香里西之町１９番２２号,,27,215,5720089,,,,,,,2024-11-19,1,,,,,ソレス,0
892,3120003027991,新規,0,2024-11-19,2024-11-19,Ｌｉｂｅｒｔａ合同会社,,合同会社,大阪府,寝屋川市,高宮新町６番８－８０３号,,27,215,5720847,,,,,,,2024-11-19,1,,,,,リベルタ,0
894,3120101070613,新規,0,2024-11-19,2024-11-19,株式会社泉佐野不動産,,株式会社,大阪府,泉佐野市,上町３丁目１０番１７号,,27,213,5980007,,,,,,,2024-11-19,1,,,,,イズミサノフドウサン,0
896,3120901050021,新規,0,2024-11-19,2024-11-19,株式会社ＵＴ　ＳＯＬＵＴＩＯＮ,,株式会社,大阪府,豊中市,向丘１丁目２番２号,,27,203,5600053,,,,,,,2024-11-19,1,,,,,ユーティーソリューション,0
897,3120901050046,新規,0,2024-11-19,2024-11-19,株式会社山崎商事,00137067,株式会社,大阪府,摂津市,庄屋１丁目８番２９号,,27,224,5660012,,,,,,,2024-11-19,1,,,,,ヤマサキショウジ,0
901,3122001038665,新規,0,2024-11-19,2024-11-19,株式会社Ｋ’ｓ　ｃｏｒｐｏｒａｔｉｏｎ,,株式会社,大阪府,八尾市,楠根町３丁目３５番２号,,27,212,5810814,,,,,,,2024-11-19,1,,,,,ケーズコーポレーション,0
910,3140003021332,新規,0,2024-11-19,2024-11-19,合同会社ＳＯＣＩＡＬ　ＡＩＤ,,合同会社,兵庫県,神戸市長田区,五番町３丁目１０番地３２－１００５,,28,106,6530003,,,,,,,2024-11-19,1,,,,,ソーシャルエイド,0
919,3180001164105,新規,0,2024-11-19,2024-11-19,株式会社ＬＥＱＵＩＯＳ５８,,株式会社,愛知県,名古屋市緑区,大清水東５１１,,23,114,4580849,,,,,,,2024-11-19,1,,,,,レキオスゴジューハチ,0
920,3180001164187,新規,0,2024-11-19,2024-11-19,株式会社ＫＡＪＩＨＡＲＡ,,株式会社,愛知県,丹羽郡扶桑町,大字高雄字南屋敷１０５番地４,,23,362,4800102,,,,,,,2024-11-19,1,,,,,カジハラ,0
921,3180001164204,新規,0,2024-11-19,2024-11-19,セントラル・アイ国際知財サービス株式会社,,株式会社,愛知県,名古屋市千種区,北千種２丁目２番２号,,23,101,4640083,,,,,,,2024-11-19,1,,,,,セントラルアイコクサイチザイサービス,0
928,3190001031808,新規,0,2024-11-19,2024-11-19,株式会社ＭＦＣ,,株式会社,三重県,四日市市,阿倉川町１０番２７号,,24,202,5100803,,,,,,,2024-11-19,1,,,,,エムエフシー,0
930,3200003006590,新規,0,2024-11-19,2024-11-19,合同会社Ｃｈｅｒｉｒ,,合同会社,岐阜県,関市,西町６番地,,21,205,5013819,,,,,,,2024-11-19,1,,,,,シェリール,0
945,3290001107960,新規,0,2024-11-19,2024-11-19,株式会社アイナトラスト,,株式会社,福岡県,福岡市中央区,地行浜１丁目１番１５号,,40,133,8100065,,,,,,,2024-11-19,1,,,,,アイナトラスト,0
946,3290001107977,新規,0,2024-11-19,2024-11-19,株式会社Ｌｉｌｙ,,株式会社,福岡県,福岡市南区,長丘２丁目１３番１３－７０５号コスモ長丘パークフォルム,,40,134,8150075,,,,,,,2024-11-19,1,,,,,リリー,0
947,3290001107993,新規,0,2024-11-19,2024-11-19,タイムレスアセット株式会社,,株式会社,福岡県,飯塚市,椋本５５１番地１０ＳＵＬ－Ｂ,,40,205,8200077,,,,,,,2024-11-19,1,,,,,タイムレスアセット,0
948,3290001108001,新規,0,2024-11-19,2024-11-19,株式会社スペーステレリンク,,株式会社,福岡県,久留米市,梅満町８４０番地１ブリーズ・ジュネス１０２号,,40,203,8300048,,,,,,,2024-11-19,1,,,,,スペーステレリンク,0
949,3290001108042,新規,0,2024-11-19,2024-11-19,株式会社Ｗａｓｓｙｏｉ８８,,株式会社,福岡県,宗像市,武丸２３８番地,,40,220,8114152,,,,,,,2024-11-19,1,,,,,ワッショイハチハチ,0
950,3290001108050,新規,0,2024-11-19,2024-11-19,株式会社ＲＡＳＨＩＫＵ,,株式会社,福岡県,筑後市,大字前津７２８－８,,40,211,8330002,,,,,,,2024-11-19,1,,,,,ラシク,0
957,3350003004786,新規,0,2024-11-19,2024-11-19,合同会社善心,,合同会社,宮崎県,児湯郡木城町,大字高城１５６－１,,45,404,8840101,,,,,,,2024-11-19,1,,,,,ゼンシン,0
959,3360001034454,新規,0,2024-11-19,2024-11-19,株式会社有志ホールディングス,,株式会社,沖縄県,中頭郡読谷村,字座喜味１０２６番地１,,47,324,9040301,,,,,,,2024-11-19,1,,,,,ユウシホールディングス,0
960,3360003014462,新規,0,2024-11-19,2024-11-19,合同会社サクラーレ,,合同会社,沖縄県,宜野湾市,大謝名５丁目９番６号,,47,205,9012225,,,,,,,2024-11-19,1,,,,,サクラーレ,0
961,3370003006830,新規,0,2024-11-19,2024-11-19,ＦＩＴ合同会社,,合同会社,宮城県,仙台市宮城野区,銀杏町１１番１２号,,04,102,9830047,,,,,,,2024-11-19,1,,,,,フィット,0
963,3380001034923,新規,0,2024-11-19,2024-11-19,株式会社Ｄｅ　ｉ　ｂｌｏｏｍ,,株式会社,福島県,会津若松市,花畑東１番４０号,,07,202,9650027,,,,,,,2024-11-19,1,,,,,デアイブルーム,0
965,3400001016860,新規,0,2024-11-19,2024-11-19,Ｈｉｍａｗａｒｉ　Ｅｆｆｅｃｔ株式会社,,株式会社,岩手県,紫波郡紫波町,平沢字松田１１番地４,,03,321,0283308,,,,,,,2024-11-19,1,,,,,ヒマワリエフェクト,0
970,3430001093096,新規,0,2024-11-19,2024-11-19,株式会社リクエッジ,,株式会社,北海道,札幌市中央区,南五条西１５丁目２番３号リズム医大前５０３号室,,01,101,0640805,,,,,,,2024-11-19,1,,,,,リクエッジ,0
971,3430003016996,新規,0,2024-11-19,2024-11-19,合同会社ｆａｖｏｒｉ,,合同会社,北海道,札幌市西区,琴似一条５丁目４－１４内澤ビル４Ｆ,,01,107,0630811,,,,,,,2024-11-19,1,,,,,ファヴォリ,0
987,4010001250003,新規,0,2024-11-19,2024-11-19,Ｖｅｒｔ株式会社,,株式会社,東京都,文京区,春日２丁目４番１０号,,13,105,1120003,,,,,,,2024-11-19,1,,,,,ヴァート,0
1043,4010003045525,新規,0,2024-11-19,2024-11-19,合同会社ＹＳＭ,,合同会社,東京都,中央区,銀座１丁目１２番４号Ｎ＆Ｅ，ＢＬＤ．７階,,13,102,1040061,,,,,,,2024-11-19,1,,,,,ワイエスエム,0
1044,4010005039120,新規,0,2024-11-19,2024-11-19,一般社団法人自然エネルギーＳＩＰＰ１６,,その他の設立登記法人,東京都,中央区,日本橋本町２丁目４番７号,,13,102,1030023,,,,,,,2024-11-19,1,,,,,シゼンエネルギーエスアイピーピージュウロク,0
1045,4010005039145,新規,0,2024-11-19,2024-11-19,弁理士法人Ｂｅ‐Ｇｅｅｔａ,,その他の設立登記法人,東京都,中央区,日本橋蛎殻町１丁目１３番７号日本橋人形町プレイス７階,,13,102,1030014,,,,,,,2024-11-19,1,,,,,ビーギータ,0
1058,4010601066303,新規,0,2024-11-19,2024-11-19,心美株式会社,,株式会社,東京都,墨田区,石原２丁目１６番１０－４０２号,,13,107,1300011,,,,,,,2024-11-19,1,,,,,ココミ,0
1059,4010603011216,新規,0,2024-11-19,2024-11-19,合同会社あずきのサポートサービス,,合同会社,東京都,江東区,冬木２１番２３－２０４号,,13,108,1350041,,,,,,,2024-11-19,1,,,,,アズキノサポートサービス,0
1060,4010603011224,新規,0,2024-11-19,2024-11-19,合同会社モコウィズプランニング,,合同会社,東京都,墨田区,石原２丁目２５番３号,,13,107,1300011,,,,,,,2024-11-19,1,,,,,モコウィズプランニング,0
1062,4010703007444,新規,0,2024-11-19,2024-11-19,インターナショナルデザイン合同会社,,合同会社,東京都,品川区,東品川４丁目１２番８号品川シーサイドイーストタワー１５階１５３１号室,,13,109,1400002,,,,,,,2024-11-19,1,,,,,インターナショナルデザイン,0
1064,4010801035561,新規,0,2024-11-19,2024-11-19,株式会社Ｋ＆Ｙ,,株式会社,東京都,大田区,中央４丁目３番１号３０１号室,,13,111,1430024,,,,,,,2024-11-19,1,,,,,ケーアンドワイ,0
1076,4011003020393,新規,0,2024-11-19,2024-11-19,合同会社ＫＥＭＳ,,合同会社,東京都,目黒区,鷹番３丁目４番１７号ウェルフラッグ学芸大学１０３号室,,13,110,1520004,,,,,,,2024-11-19,1,,,,,ケーイーエムエス,0
1080,4011101109584,新規,0,2024-11-19,2024-11-19,ＰＯＰＳ株式会社,,株式会社,東京都,新宿区,西新宿６丁目５番１号,,13,104,1600023,,,,,,,2024-11-19,1,,,,,ポップス,0
1084,4011103015178,新規,0,2024-11-19,2024-11-19,合同会社プロジェリアス,,合同会社,東京都,新宿区,西新宿３丁目３番１３号西新宿水間ビル２Ｆ,,13,104,1600023,,,,,,,2024-11-19,1,,,,,プロジェリアス,0
1085,4011103015194,新規,0,2024-11-19,2024-11-19,合同会社マネーチャイルド,,合同会社,東京都,新宿区,中落合４丁目２０－６,,13,104,1610032,,,,,,,2024-11-19,1,,,,,マネーチャイルド,0
1088,4011401026595,新規,0,2024-11-19,2024-11-19,ＳｈｉＺａｎ株式会社,,株式会社,東京都,板橋区,仲宿６３番地７号ＯＥＯｆｆｉｃｅＢｌｄｇ２１０号,,13,119,1730005,,,,,,,2024-11-19,1,,,,,シザン,0
1089,4011403004558,新規,0,2024-11-19,2024-11-19,合同会社パンタレイ,,合同会社,東京都,板橋区,板橋３丁目１８番１０号,,13,119,1730004,,,,,,,2024-11-19,1,,,,,パンタレイ,0
1090,4011501031371,新規,0,2024-11-19,2024-11-19,株式会社アルテスルミナ,,株式会社,東京都,北区,赤羽１丁目６０番８号,,13,117,1150045,,,,,,,2024-11-19,1,,,,,アルテスルミナ,0
1092,4011701027822,新規,0,2024-11-19,2024-11-19,ＵＴＯ　Ｃｏｎｓｕｌｔｉｎｇ株式会社,,株式会社,東京都,江戸川区,松島３丁目１４番７号３階３０３号室,,13,123,1320031,,,,,,,2024-11-19,1,,,,,ユートコンサルティング,0
1095,4011801045187,新規,0,2024-11-19,2024-11-19,株式会社ＬＩＦＥ・Ｑｕａｌｉｔｙ,,株式会社,東京都,足立区,東和３丁目７番７号,,13,121,1200003,,,,,,,2024-11-19,1,,,,,ライフクオリティ,0
1096,4011803006534,新規,0,2024-11-19,2024-11-19,愛誠合同会社,,合同会社,東京都,足立区,千住５丁目２３番１２号,,13,121,1200034,,,,,,,2024-11-19,1,,,,,,0
1097,4012301014161,新規,0,2024-11-19,2024-11-19,株式会社インキャピ,,株式会社,東京都,町田市,中町３丁目６番１１号,,13,209,1940021,,,,,,,2024-11-19,1,,,,,インキャピ,0
1107,4013301053389,新規,0,2024-11-19,2024-11-19,熙瑞株式会社,,株式会社,東京都,豊島区,上池袋１丁目５番５号,,13,116,1700012,,,,,,,2024-11-19,1,,,,,ヒロミズ,0
1124,4020001159994,新規,0,2024-11-19,2024-11-19,株式会社富士一門,,株式会社,神奈川県,横浜市港北区,樽町４丁目４番４０号２０２,,14,109,2220001,,,,,,,2024-11-19,1,,,,,フジイチモン,0
1125,4020001160143,新規,0,2024-11-19,2024-11-19,株式会社アミラ,,株式会社,神奈川県,川崎市中原区,上平間１４０２番地２４４,,14,133,2110013,,,,,,,2024-11-19,1,,,,,アミラ,0
1132,4020005016597,新規,0,2024-11-19,2024-11-19,一般社団法人ねこのようちえん,,その他の設立登記法人,神奈川県,横浜市青葉区,荏田町４７８番地３５,,14,117,2250013,,,,,,,2024-11-19,1,,,,,ネコノヨウチエン,0
1140,4021003015228,新規,0,2024-11-19,2024-11-19,ティーエンジ合同会社,,合同会社,神奈川県,藤沢市,鵠沼松が岡２丁目５番３０～７号,00137059,14,205,2510038,,,,,,,2024-11-19,1,,,,,ティーエンジ,0
1141,4021003015244,新規,0,2024-11-19,2024-11-19,吉飛合同会社,,合同会社,神奈川県,厚木市,中町２丁目１２番２１号サンロードＡ－３,,14,212,2430018,,,,,,,2024-11-19,1,,,,,ヨシトビ,0
1143,4030001163525,新規,0,2024-11-19,2024-11-19,株式会社小原電業,,株式会社,埼玉県,川口市,大字峯４８９番地１,,11,203,3340056,,,,,,,2024-11-19,1,,,,,オハラデンギョウ,0
1144,4030001163541,新規,0,2024-11-19,2024-11-19,株式会社高下興業,00137058,株式会社,埼玉県,越谷市,七左町６丁目２３番６号,,11,222,3430851,,,,,,,2024-11-19,1,,,,,タカシタコウギョウ,0
1148,4030003025541,新規,0,2024-11-19,2024-11-19,合同会社ヨルベアル,,合同会社,埼玉県,川口市,大字辻６２０番地の２,,11,203,3340004,,,,,,,2024-11-19,1,,,,,ヨルベアル,0
1155,4040001136216,新規,0,2024-11-19,2024-11-19,クリーン株式会社,,株式会社,千葉県,君津市,郡２丁目１３番４号,,12,225,2991127,,,,,,,2024-11-19,1,,,,,クリーン,0
1160,4040003026225,新規,0,2024-11-19,2024-11-19,合同会社ＷｏｒｌｄＰｉｌｅＣｏｎｓｕｌｔａｎｔ,,合同会社,千葉県,松戸市,金ケ作１１５番地の６,,12,207,2702251,,,,,,,2024-11-19,1,,,,,ワールドパイルコンサルタント,0
1161,4050001055745,新規,0,2024-11-19,2024-11-19,株式会社アイコーポレーション,,株式会社,茨城県,高萩市,大字高戸４６２番地の２,,08,214,3180002,,,,,,,2024-11-19,1,,,,,アイコーポレーション,0
1164,4050003008825,新規,0,2024-11-19,2024-11-19,合同会社ＹＵＫＩアセットマネジメント,,合同会社,茨城県,守谷市,薬師台５丁目６番地２２,,08,224,3020105,,,,,,,2024-11-19,1,,,,,ユキアセットマネジメント,0
1175,4100001037993,新規,0,2024-11-19,2024-11-19,株式会社Ｆｒｏｍ．１０２,,株式会社,長野県,長野市,大字栗田１２３番地４,,20,201,3800921,,,,,,,2024-11-19,1,,,,,フロムドットイチマルニ,0
1186,4120001270337,新規,0,2024-11-19,2024-11-19,株式会社建盈,,株式会社,大阪府,大阪市中央区,島之内２丁目８番３３号,,27,128,5420082,,,,,,,2024-11-19,1,,,,,ケンエイ,0
1187,4120001270403,新規,0,2024-11-19,2024-11-19,深呼吸環境健康促進会株式会社,,株式会社,大阪府,大阪市西成区,花園南１丁目６番１０号花園ハイツ３０３号,,27,122,5570015,,,,,,,2024-11-19,1,,,,,シンコキュウカンキョウケンコウソクシンカイ,0
1188,4120001270428,新規,0,2024-11-19,2024-11-19,日本生活第一株式会社,,株式会社,大阪府,大阪市西区,新町１丁目８－１行成ビル６階Ｆ号室,,27,106,5500013,,,,,,,2024-11-19,1,,,,,ニホンセイカツダイイチ,0
1189,4120001270436,新規,0,2024-11-19,2024-11-19,株式会社御門電気通信,,株式会社,大阪府,守口市,祝町９－１６ライゼボビー０４号,,27,209,5700071,,,,,,,2024-11-19,1,,,,,ミカドデンキツウシン,0
1193,4120101070604,新規,0,2024-11-19,2024-11-19,株式会社ｄｏｔＹ　ｃｏｎｓｕｌｔｉｎｇ,,株式会社,大阪府,岸和田市,大工町１１番３号,,27,202,5960066,,,,,,,2024-11-19,1,,,,,ドットワイコンサルティング,0
1194,4120101070612,新規,0,2024-11-19,2024-11-19,株式会社スマイルリンク,,株式会社,大阪府,貝塚市,畠中２丁目１６番３０号,,27,208,5970072,,,,,,,2024-11-19,1,,,,,スマイルリンク,0
1195,4120101070620,新規,0,2024-11-19,2024-11-19,ＴＭＴ株式会社,,株式会社,大阪府,堺市中区,八田南之町４０４番地,,27,142,5998263,,,,,,,2024-11-19,1,,,,,ティエムティ,0
1196,4120101070629,新規,0,2024-11-19,2024-11-19,フォーステップ株式会社,,株式会社,大阪府,河内長野市,上原町７１８番地の４３,,27,216,5860037,,,,,,,2024-11-19,1,,,,,フォーステップ,0
1199,4120103006151,新規,0,2024-11-19,2024-11-19,合同会社れんじゅ,,合同会社,大阪府,河内長野市,千代田南町２３番１９号,,27,216,5860018,,,,,,,2024-11-19,1,,,,,レンジュ,0
1203,4120901050020,新規,0,2024-11-19,2024-11-19,株式会社ＮＥＸＴＡ,,株式会社,大阪府,豊中市,向丘１丁目２番２号,,27,203,5600053,,,,,,,2024-11-19,1,,,,,ネクスタ,0
1204,4120901050037,新規,0,2024-11-19,2024-11-19,株式会社Ｋ‐Ｐ９,,株式会社,大阪府,茨木市,藤の里１丁目１１番５号,,27,211,5670054,,,,,,,2024-11-19,1,,,,,ケーピーナイン,0
1213,4130001078382,新規,0,2024-11-19,2024-11-19,中央チキンファーム株式会社,,株式会社,京都府,船井郡京丹波町,大朴小字奥塩谷４２,,26,407,6220322,,,,,,,2024-11-19,1,,,,,チュウオウチキンファーム,0
1220,4140001136461,新規,0,2024-11-19,2024-11-19,株式会社メガハイ,,株式会社,兵庫県,神戸市中央区,磯辺通１丁目１番１８号カサベラ国際プラザビル７０７号室,,28,110,6510084,,,,,,,2024-11-19,1,,,,,メガハイ,0
1227,4140003021331,新規,0,2024-11-19,2024-11-19,デジタル化サポート合同会社,,合同会社,兵庫県,神戸市中央区,琴ノ緒町４丁目５番７号,,28,110,6510094,,,,,,,2024-11-19,1,,,,,デジタルカサポート,0
1230,4150001027684,新規,0,2024-11-19,2024-11-19,株式会社ポポらす,,株式会社,奈良県,桜井市,大字粟殿７７２番地の２８,,29,206,6330062,,,,,,,2024-11-19,1,,,,,ポポラス,0
1231,4150001027692,新規,0,2024-11-19,2024-11-19,株式会社Ｂ‐Ｎｕｔｓ,,株式会社,奈良県,大和高田市,南陽町５－１９,,29,202,6350057,,,,,,,2024-11-19,1,,,,,ビーナッツ,0
1242,4180001164194,新規,0,2024-11-19,2024-11-19,株式会社ワンダイアリー,,株式会社,愛知県,名古屋市中区,錦３丁目１３番３号ラグラックスビル錦本館５Ｂ,,23,106,4600003,,,,,,,2024-11-19,1,,,,,ワンダイアリー,0
1243,4180001164228,新規,0,2024-11-19,2024-11-19,株式会社ＴＡＴＳＵＭＩ,,株式会社,愛知県,名古屋市東区,泉２丁目１３番２７号クレスト泉４０１号,,23,102,4610001,,,,,,,2024-11-19,1,,,,,タツミ,0
1252,4180301039253,新規,0,2024-11-19,2024-11-19,株式会社サンエイホールディングス,,株式会社,愛知県,豊田市,高丘新町春日５３番地１８,,23,211,4730921,,,,,,,2024-11-19,1,,,,,サンエイホールディングス,0
1262,4220001026349,新規,0,2024-11-19,2024-11-19,株式会社アルクタス,,株式会社,石川県,金沢市,笠市町４番３５号サンライズ山善・４０２号,,17,201,9200851,,,,,,,2024-11-19,1,,,,,アルクタス,0
1263,4220003003890,新規,0,2024-11-19,2024-11-19,谷内商店合同会社,,合同会社,石川県,鹿島郡中能登町,良川へ部６番地,,17,407,9291717,,,,,,,2024-11-19,1,,,,,ヤチショウテン,0
1264,4220005008905,新規,0,2024-11-19,2024-11-19,一般社団法人唯夢,,その他の設立登記法人,石川県,白山市,向島町２５番地,,17,210,9240833,,,,,,,2024-11-19,1,,,,,ユイム,0
1268,4250001020902,新規,0,2024-11-19,2024-11-19,株式会社早鞆建鉄,,株式会社,山口県,下関市,大学町１丁目６番４８号,,35,201,7510831,,,,,,,2024-11-19,1,,,,,ハヤトモケンテツ,0
1276,4270003001683,新規,0,2024-11-19,2024-11-19,そらいろ合同会社,,合同会社,鳥取県,米子市,昭和町４１‐８,,31,202,6830037,,,,,,,2024-11-19,1,,,,,ソライロ,0
1277,4270005005617,新規,0,2024-11-19,2024-11-19,一般社団法人鳥取クリエイティブプラットフォーム,,その他の設立登記法人,鳥取県,鳥取市,湖山町南４丁目１０１番地鳥取大学地域学部竹内研究室,,31,201,6800945,,,,,,,2024-11-19,1,,,,,トットリクリエイティブプラットフォーム,0
1281,4290001107943,新規,0,2024-11-19,2024-11-19,株式会社Ｔｅｋｋ,,株式会社,福岡県,福岡市中央区,天神２丁目３番１０号天神パインクレスト１００４,,40,133,8100001,,,,,,,2024-11-19,1,,,,,テック,0
1282,4290001108000,新規,0,2024-11-19,2024-11-19,株式会社Ｔ．Ｋ．ａｓｓｅｔｓ,,株式会社,福岡県,福岡市南区,長丘４丁目８番２２号,,40,134,8150075,,,,,,,2024-11-19,1,,,,,ティーケーアセット,0
1284,4290003016077,新規,0,2024-11-19,2024-11-19,ＮＩＧＨＴ合同会社,,合同会社,福岡県,那珂川市,今光５丁目１５９番地２,,40,231,8111211,,,,,,,2024-11-19,1,,,,,ナイト,0
1288,4290803004891,新規,0,2024-11-19,2024-11-19,志輝通商合同会社,,合同会社,福岡県,行橋市,行事２丁目６番６６号,,40,213,8240001,,,,,,,2024-11-19,1,,,,,シキツウショウ,0
1292,4310001019327,新規,0,2024-11-19,2024-11-19,三栄電気株式会社,,株式会社,長崎県,平戸市,新町１０番地１,,42,207,8595115,,,,,,,2024-11-19,1,,,,,サンエイデンキ,0
1297,4320003004516,新規,0,2024-11-19,2024-11-19,はち合同会社,,合同会社,大分県,別府市,大字鉄輪字ヲリ立８０２番地２６,,44,202,8740000,,,,,,,2024-11-19,1,,,,,ハチ,0
1302,4330003010645,新規,0,2024-11-19,2024-11-19,ＭｙＳ合同会社,,合同会社,熊本県,熊本市北区,弓削５丁目１４番２１号,,43,105,8618002,,,,,,,2024-11-19,1,,,,,ミース,0
1313,4370001051943,新規,0,2024-11-19,2024-11-19,株式会社縁月,,株式会社,宮城県,登米市,迫町森字平柳２６８番地２,,04,212,9870512,,,,,,,2024-11-19,1,,,,,エンゲツ,0
1324,4450001014454,新規,0,2024-11-19,2024-11-19,株式会社Ａｉｍ　Ｈｉｇｈ,,株式会社,北海道,旭川市,一条通２１丁目１番地の１３７,,01,204,0788211,,,,,,,2024-11-19,1,,,,,エイムハイ,0
1330,4500001026007,新規,0,2024-11-19,2024-11-19,ハイブリッジ株式会社,,株式会社,愛媛県,新居浜市,萩生２４８番地の２,,38,205,7920050,,,,,,,2024-11-19,1,,,,,ハイブリッジ,0
1344,5010001249936,新規,0,2024-11-19,2024-11-19,ＭＹＹホールディングス株式会社,,株式会社,東京都,千代田区,麹町３丁目５－２,,13,101,1020083,,,,,,,2024-11-19,1,,,,,エムワイワイホールディングス,0
1345,5010001249969,新規,0,2024-11-19,2024-11-19,株式会社ＶＶＶＶ,,株式会社,東京都,中央区,日本橋本町３丁目３番６号ワカ末ビル４階,,13,102,1030023,,,,,,,2024-11-19,1,,,,,フォーブイ,0
1346,5010001250043,新規,0,2024-11-19,2024-11-19,ヘンカ株式会社,,株式会社,東京都,千代田区,神田錦町１丁目２３番地シティカレント大手町１００１号,,13,101,1010054,,,,,,,2024-11-19,1,,,,,ヘンカ,0
1389,5010003045474,新規,0,2024-11-19,2024-11-19,合同会社カーディナル１,,合同会社,東京都,千代田区,霞が関３丁目２番５号,,13,101,1000013,,,,,,,2024-11-19,1,,,,,カーディナルワン,0
1390,5010003045490,新規,0,2024-11-19,2024-11-19,合同会社ｃｌｏｕｂｌｅ,,合同会社,東京都,中央区,銀座８丁目１８－７－５０５,,13,102,1040061,,,,,,,2024-11-19,1,,,,,クラウブル,0
1391,5010003045499,新規,0,2024-11-19,2024-11-19,サステナブルローンファンド３１号合同会社,,合同会社,東京都,中央区,京橋２丁目１２番６号ＡＯＪ税理士法人内,,13,102,1040031,,,,,,,2024-11-19,1,,,,,サステナブルローンファンドサンジュウイチゴウ,0
1392,5010003045524,新規,0,2024-11-19,2024-11-19,ＬＩＢＥＲＡＴＥ合同会社,,合同会社,東京都,中央区,日本橋室町１丁目１１番１２号日本橋水野ビル７階,,13,102,1030022,,,,,,,2024-11-19,1,,,,,リベレイト,0
1393,5010003045540,新規,0,2024-11-19,2024-11-19,ネクシア合同会社,,合同会社,東京都,中央区,勝どき１丁目３番１－３８０８号,,13,102,1040054,,,,,,,2024-11-19,1,,,,,ネクシア,0
1395,5010005039111,新規,0,2024-11-19,2024-11-19,一般社団法人ＳＤＧｓ協会日本支部,,その他の設立登記法人,東京都,中央区,日本橋兜町１７番２号兜町第６葉山ビル４Ｆ,,13,102,1030026,,,,,,,2024-11-19,1,,,,,エスディージーズキョウカイニホンシブ,0
1401,5010401186449,新規,0,2024-11-19,2024-11-19,株式会社Ｍｉｃｈａｅｌ　Ｂｒｏｗｎ,,株式会社,東京都,港区,北青山１丁目３番１号アールキューブ青山３階,,13,103,1070061,,,,,,,2024-11-19,1,,,,,ミハエルブラウン,0
1405,5010403033822,新規,0,2024-11-19,2024-11-19,合同会社ＲＰＨ倉敷,,合同会社,東京都,港区,赤坂７丁目６番１５号,,13,103,1070052,,,,,,,2024-11-19,1,,,,,アールピーエイチクラシキ,0
1411,5010603011207,新規,0,2024-11-19,2024-11-19,合同会社Ｋｏｔｏｎａｒｅ,,合同会社,東京都,江東区,大島３丁目９番９号ベレオ正木２０２,,13,108,1360072,,,,,,,2024-11-19,1,,,,,コトナレ,0
1412,5010603011223,新規,0,2024-11-19,2024-11-19,合同会社ピノ,,合同会社,東京都,墨田区,八広１丁目４１番１６号,,13,107,1310041,,,,,,,2024-11-19,1,,,,,ピノ,0
1415,5010901056325,新規,0,2024-11-19,2024-11-19,株式会社ＨＵＭＡＮ　ＬＩＮＫ,,株式会社,東京都,世田谷区,駒沢５丁目１５番１７号グリーンコート駒沢公園２０４,,13,112,1540012,,,,,,,2024-11-19,1,,,,,ヒューマンリンク,0
1421,5011001165867,新規,0,2024-11-19,2024-11-19,Ｎｅｘｕｓ株式会社,,株式会社,東京都,渋谷区,元代々木町３９－１０－３０５,,13,113,1510062,,,,,,,2024-11-19,1,,,,,ネクサス,0
1422,5011001166015,新規,0,2024-11-19,2024-11-19,株式会社Ｌ’ＯＭＢＲＥ,,株式会社,東京都,渋谷区,千駄ヶ谷５丁目２６番５号２階,,13,113,1510051,,,,,,,2024-11-19,1,,,,,ロンブル,0
1425,5011003020392,新規,0,2024-11-19,2024-11-19,合同会社ＶＡＣＣＩＮＥ中央協会,,合同会社,東京都,渋谷区,恵比寿西２丁目４番８号ウィンド恵比寿ビル８Ｆ,,13,113,1500021,,,,,,,2024-11-19,1,,,,,ワクチンチュウオウキョウカイ,0
1426,5011003020401,新規,0,2024-11-19,2024-11-19,合同会社フォリオ,,合同会社,東京都,渋谷区,鶯谷町２番７号,,13,113,1500032,,,,,,,2024-11-19,1,,,,,,0
1427,5011003020442,新規,0,2024-11-19,2024-11-19,Ｆａｎ　ｔｏ　ｍｅ．ｌｉｖｅ合同会社,,合同会社,東京都,渋谷区,道玄坂１丁目１０番８号渋谷道玄坂東急ビル２Ｆ‐Ｃ,,13,113,1500043,,,,,,,2024-11-19,1,,,,,ファントゥーミーライブ,0
1432,5011101109600,新規,0,2024-11-19,2024-11-19,株式会社ペイメントサポート,,株式会社,東京都,新宿区,西新宿３丁目２番９号新宿ワシントンビル本館２Ｆ,,13,104,1600023,,,,,,,2024-11-19,1,,,,,ペイメントサポート,0
1433,5011101109633,新規,0,2024-11-19,2024-11-19,株式会社Ｍａｔｓｕｚａｋａ　Ｇｒｏｕｐ　Ｈｏｌｄｉｎｇｓ,,株式会社,東京都,新宿区,新宿１丁目８番１１号旭新宿ビル３０２,,13,104,1600022,,,,,,,2024-11-19,1,,,,,マツザカグループホールディングス,0
1435,5011103015177,新規,0,2024-11-19,2024-11-19,ＺＡＳＳＯ合同会社,,合同会社,東京都,新宿区,西新宿３丁目５－１２トーカン新宿第２キャステール５０７号室,,13,104,1600023,,,,,,,2024-11-19,1,,,,,ザッソー,0
1436,5011201025937,新規,0,2024-11-19,2024-11-19,株式会社イエッテ,,株式会社,東京都,中野区,野方６丁目２番８号,,13,114,1650027,,,,,,,2024-11-19,1,,,,,イエッテ,0
1441,5011701027813,新規,0,2024-11-19,2024-11-19,森＿株式会社,00137061,株式会社,東京都,江戸川区,南小岩３丁目１番１４号プランドールＭ１１２号室,,13,123,1330056,,,,,,,2024-11-19,1,,,,,シンビョウ,0
1442,5011701027821,新規,0,2024-11-19,2024-11-19,网融株式会社,,株式会社,東京都,江戸川区,松島３丁目１４番７－３０７号若林ビル,,13,123,1320031,,,,,,,2024-11-19,1,,,,,モウユウ,0
1444,5011703004034,新規,0,2024-11-19,2024-11-19,合同会社Ｐｌｕｓ　Ｄｅｌｔａ,,合同会社,東京都,江戸川区,北葛西２丁目１４－５,,13,123,1340081,,,,,,,2024-11-19,1,,,,,プラスデルタ,0
1458,5020001160142,新規,0,2024-11-19,2024-11-19,株式会社シードリング,,株式会社,神奈川県,川崎市川崎区,藤崎３丁目１５番１３号下條ハイム,,14,131,2100804,,,,,,,2024-11-19,1,,,,,シードリング,0
1459,5020001160150,新規,0,2024-11-19,2024-11-19,株式会社ｈａｐｐｙ　ｍｉｕｍｉｕ,,株式会社,神奈川県,横浜市中区,山下町１１７－５,,14,104,2310023,,,,,,,2024-11-19,1,,,,,ハッピーミュウミュウ,0
1464,5020003027265,新規,0,2024-11-19,2024-11-19,合同会社ＧＹＭ　ＣＯＮＮＥＣＴ,,合同会社,神奈川県,横浜市西区,高島２丁目１１番２号スカイメナー横浜５１９,,14,103,2200011,,,,,,,2024-11-19,1,,,,,ジムコネクト,0
1465,5020003027273,新規,0,2024-11-19,2024-11-19,合同会社ＺＥＲＯ設備,,合同会社,神奈川県,横浜市南区,別所中里台２４番１－１０９号,,14,105,2320065,,,,,,,2024-11-19,1,,,,,ゼロセツビ,0
1487,5040001136149,新規,0,2024-11-19,2024-11-19,株式会社リアン,,株式会社,千葉県,船橋市,上山町１丁目１３０番地６,,12,204,2730046,,,,,,,2024-11-19,1,,,,,リアン,0
1491,5050001055728,新規,0,2024-11-19,2024-11-19,株式会社安重水産,,株式会社,茨城県,鹿嶋市,大字武井釜８８０番地,,08,222,3112202,,,,,,,2024-11-19,1,,,,,アンジュウスイサン,0
1499,5070003005662,新規,0,2024-11-19,2024-11-19,合同会社ＴＥＫＵＹＥ,,合同会社,群馬県,高崎市,正観寺町６６２－３,,10,202,3700008,,,,,,,2024-11-19,1,,,,,テクイェ,0
1501,5080001026610,新規,0,2024-11-19,2024-11-19,株式会社ネットソサエティジャパン,,株式会社,静岡県,藤枝市,岡部町岡部４３８番地の１,,22,214,4211121,,,,,,,2024-11-19,1,,,,,ネットソサエティジャパン,0
1506,5100001038017,新規,0,2024-11-19,2024-11-19,ＳＨＩＮ株式会社,,株式会社,長野県,小県郡青木村,大字当郷１４８－７,,20,349,3861603,,,,,,,2024-11-19,1,,,,,シン,0
1508,5100003007861,新規,0,2024-11-19,2024-11-19,佐藤合同会社,,合同会社,長野県,長野市,大字上駒沢２３番地７,,20,201,3810082,,,,,,,2024-11-19,1,,,,,サトウ,0
1512,5110003005575,新規,0,2024-11-19,2024-11-19,合同会社ＭＥＲＣＵＲＹ,,合同会社,新潟県,新潟市江南区,中野山７‐６‐９モンブランＢ２０２,,15,104,9500841,,,,,,,2024-11-19,1,,,,,マーキュリー,0
1516,5120001270352,新規,0,2024-11-19,2024-11-19,琴元株式会社,,株式会社,大阪府,大阪市中央区,松屋町９番２０号ローレルステート松屋町１３０４Ａ,,27,128,5420067,,,,,,,2024-11-19,1,,,,,キンゲン,0
1517,5120001270435,新規,0,2024-11-19,2024-11-19,株式会社ｆｏｒ　Ｕ,,株式会社,大阪府,枚方市,南楠葉１丁目３４番２０号,,27,210,5731105,,,,,,,2024-11-19,1,,,,,フォーユー,0
1522,5120103006142,新規,0,2024-11-19,2024-11-19,合同会社中村コーポレーション,,合同会社,大阪府,堺市西区,浜寺南町１丁２番地１,,27,144,5928344,,,,,,,2024-11-19,1,,,,,ナカムラコーポレーション,0
1523,5120103006150,新規,0,2024-11-19,2024-11-19,合同会社Ｎ,,合同会社,大阪府,松原市,河合３丁目７番６号,,27,217,5800022,,,,,,,2024-11-19,1,,,,,エヌ,0
1526,5120901050044,新規,0,2024-11-19,2024-11-19,株式会社新流アセットマネジメント,,株式会社,大阪府,茨木市,水尾１丁目１番１号,,27,211,5670891,,,,,,,2024-11-19,1,,,,,ニールアセットマネジメント,0
1527,5120901050052,新規,0,2024-11-19,2024-11-19,ボンシック株式会社,,株式会社,大阪府,箕面市,桜１丁目１番１号,,27,220,5620041,,,,,,,2024-11-19,1,,,,,ボンシック,0
1528,5120903005426,新規,0,2024-11-19,2024-11-19,合同会社アシスト,,合同会社,大阪府,高槻市,昭和台町２丁目１５番１３号,,27,207,5690815,,,,,,,2024-11-19,1,,,,,アシスト,0
1532,5122001038663,新規,0,2024-11-19,2024-11-19,ＦＩＬＬＥＴ株式会社,,株式会社,大阪府,東大阪市,西石切町２丁目４番１－７２１号,,27,227,5798013,,,,,,,2024-11-19,1,,,,,フィレット,0
1546,5140003021339,新規,0,2024-11-19,2024-11-19,合同会社ｈｙｇｇｅ,,合同会社,兵庫県,小野市,市場町１１７３番地の２,,28,218,6751327,,,,,,,2024-11-19,1,,,,,ヒュッゲ,0
1549,5150003003427,新規,0,2024-11-19,2024-11-19,合同会社Ｈ’ｓ　ｏｆｆｉｃｅ,,合同会社,奈良県,生駒市,松美台５２番地１１０,,29,209,6300241,,,,,,,2024-11-19,1,,,,,ヒーズオフィス,0
1550,5160003003335,新規,0,2024-11-19,2024-11-19,合同会社なべ塾,,合同会社,滋賀県,甲賀市,甲賀町滝５６３,,25,209,5203432,,,,,,,2024-11-19,1,,,,,,0
1559,5180001164210,新規,0,2024-11-19,2024-11-19,株式会社ＡＳＴ,,株式会社,愛知県,清須市,西枇杷島町二見３２番地サンコートにしび４Ｅ,,23,233,4520033,,,,,,,2024-11-19,1,,,,,アスト,0
1573,5180301039252,新規,0,2024-11-19,2024-11-19,株式会社あけそら,,株式会社,愛知県,岡崎市,美合町字平地５４番地２５,,23,202,4440802,,,,,,,2024-11-19,1,,,,,アケソラ,0
1577,5200001043147,新規,0,2024-11-19,2024-11-19,株式会社Ｋ＆Ｍ,,株式会社,岐阜県,岐阜市,南鶉５丁目５２番地の１,,21,201,5008285,,,,,,,2024-11-19,1,,,,,ケイアンドエム,0
1582,5220001026348,新規,0,2024-11-19,2024-11-19,株式会社川昭,,株式会社,石川県,輪島市,河井町５部４１番地,,17,204,9280001,,,,,,,2024-11-19,1,,,,,カワショウ,0
1594,5250001020901,新規,0,2024-11-19,2024-11-19,株式会社須佐海興,,株式会社,山口県,萩市,大字須佐４９６３番地３,,35,204,7593411,,,,,,,2024-11-19,1,,,,,スサカイコウ,0
1595,5260001039651,新規,0,2024-11-19,2024-11-19,エヌ・エヌ・シー・ジャパン株式会社,,株式会社,岡山県,瀬戸内市,長船町西須恵６０３番地２,,33,212,7014263,,,,,,,2024-11-19,1,,,,,エヌエヌシージャパン,0
1602,5290001107950,新規,0,2024-11-19,2024-11-19,株式会社Ｒ　ｓｔｙｌｅ　ｂｅａｕｔｙ,,株式会社,福岡県,久留米市,本山１丁目１３番３０号,,40,203,8300056,,,,,,,2024-11-19,1,,,,,アールスタイルビューティー,0
1603,5290001107991,新規,0,2024-11-19,2024-11-19,株式会社ｚｅｒｏリーシング,,株式会社,福岡県,久留米市,山川神代３丁目８番２０号,,40,203,8390811,,,,,,,2024-11-19,1,,,,,ゼロリーシング,0
1604,5290001108008,新規,0,2024-11-19,2024-11-19,株式会社ＦＵＸＫ,,株式会社,福岡県,福岡市博多区,博多駅前１丁目２３番２号ＰａｒｋＦｒｏｎｔ博多駅前１丁目５Ｆ－Ｂ,,40,132,8120011,,,,,,,2024-11-19,1,,,,,ファック,0
1605,5290001108049,新規,0,2024-11-19,2024-11-19,株式会社カーテイラー,,株式会社,福岡県,朝倉市,馬田９０９番地１,,40,228,8380058,,,,,,,2024-11-19,1,,,,,カーテイラー,0
1606,5290001108081,新規,0,2024-11-19,2024-11-19,株式会社Ｏ．Ａ,,株式会社,福岡県,久留米市,国分町８５６－３,,40,203,8390863,,,,,,,2024-11-19,1,,,,,オーエー,0
1611,5290003016068,新規,0,2024-11-19,2024-11-19,合同会社はるおき,,合同会社,福岡県,久留米市,国分町１３１１番地３,,40,203,8390863,,,,,,,2024-11-19,1,,,,,ハルオキ,0
1612,5290003016101,新規,0,2024-11-19,2024-11-19,合同会社スニフ,,合同会社,福岡県,福岡市南区,横手１丁目６番２８号,,40,134,8111311,,,,,,,2024-11-19,1,,,,,スニフ,0
1614,5310001019326,新規,0,2024-11-19,2024-11-19,株式会社ＫＲ,,株式会社,長崎県,松浦市,志佐町里免１７０番地１３,,42,208,8594502,,,,,,,2024-11-19,1,,,,,ケイアール,0
1617,5340001026939,新規,0,2024-11-19,2024-11-19,株式会社かみむら,,株式会社,鹿児島県,鹿児島市,荒田２丁目６２番１６号,,46,201,8900054,,,,,,,2024-11-19,1,,,,,カミムラ,0
1618,5340003004661,新規,0,2024-11-19,2024-11-19,合同会社Ｋｉｉｓ　ｓｕｐｐｏｒｔ,,合同会社,鹿児島県,霧島市,隼人町神宮３丁目６－２,,46,218,8995121,,,,,,,2024-11-19,1,,,,,キーズサポート,0
1626,5370003006829,新規,0,2024-11-19,2024-11-19,合同会社Ｔｈｒｅｅ　ＣＧ,,合同会社,宮城県,名取市,飯野坂４丁目７番４号,,04,207,9811225,,,,,,,2024-11-19,1,,,,,スリーシージー,0
1630,5380001034921,新規,0,2024-11-19,2024-11-19,株式会社ＯＫＵＮＩＭＵＳＵＢＩ,,株式会社,福島県,会津若松市,門田町大字一ノ堰字村西６１４番地３,,07,202,9650844,,,,,,,2024-11-19,1,,,,,オクニムスビ,0
1632,5400001016859,新規,0,2024-11-19,2024-11-19,株式会社八興ホールディングス,,株式会社,岩手県,一関市,滝沢字鶴ケ沢７番地の４４,,03,209,0290132,,,,,,,2024-11-19,1,,,,,ハッコウホールディングス,0
1634,5440003001640,新規,0,2024-11-19,2024-11-19,合同会社ＫＳＴ,,合同会社,北海道,亀田郡七飯町,字中島１６３番地１,,01,337,0411133,,,,,,,2024-11-19,1,,,,,ケーエスティー,0
1635,5450003002555,新規,0,2024-11-19,2024-11-19,合同会社風と空と花,,合同会社,北海道,旭川市,北門町１４丁目２１４４番地の１４６,,01,204,0700825,,,,,,,2024-11-19,1,,,,,カゼトソラトハナ,0
1639,5480003002206,新規,0,2024-11-19,2024-11-19,合同会社ｍｏｏｎ　ｓｔｏｎｅ,,合同会社,徳島県,徳島市,名東町２丁目３００番地１,,36,201,7700047,,,,,,,2024-11-19,1,,,,,ムーンストーン,0
1647,6010001249927,新規,0,2024-11-19,2024-11-19,株式会社ヨロズホームマネジメント,,株式会社,東京都,文京区,関口２丁目４番１９－６０１号,,13,105,1120014,,,,,,,2024-11-19,1,,,,,ヨロズホームマネジメント,0
1648,6010001250026,新規,0,2024-11-19,2024-11-19,Ｃ’ＲｅＡｉｍ株式会社,,株式会社,東京都,千代田区,神田錦町３丁目７番地２東京堂錦町ビルディング７０７号室,,13,101,1010054,,,,,,,2024-11-19,1,,,,,リエイム,0
1695,6010003045523,新規,0,2024-11-19,2024-11-19,合同会社スタジオＩＸ,,合同会社,東京都,千代田区,神田和泉町１番地６－１６ヤマトビル４０５,,13,101,1010024,,,,,,,2024-11-19,1,,,,,スタジオアイエックス,0
1696,6010003045531,新規,0,2024-11-19,2024-11-19,合同会社Ｃａｍｐ　ｆｏｒ　Ｌｉｆｅ,,合同会社,東京都,中央区,銀座１丁目１２－４Ｎ＆ＥＢＬＤ．７階,,13,102,1040061,,,,,,,2024-11-19,1,,,,,キャンプフォーライフ,0
1698,6010005039119,新規,0,2024-11-19,2024-11-19,一般社団法人自然エネルギーＳＩＰＰ１８,,その他の設立登記法人,東京都,中央区,日本橋本町２丁目４番７号,,13,102,1030023,,,,,,,2024-11-19,1,,,,,シゼンエネルギーエスアイピーピージュウハチ,0
1702,6010401186497,新規,0,2024-11-19,2024-11-19,ＲＭＡ３　Ｃｏｒｐｏｒａｔｉｏｎ株式会社,,株式会社,東京都,港区,赤坂７丁目６番６６－３０４号,,13,103,1070052,,,,,,,2024-11-19,1,,,,,アールエムエイスリーコーポレーション,0
1706,6010405023795,新規,0,2024-11-19,2024-11-19,ＡＣＰトライベッカ特定目的会社,,その他の設立登記法人,東京都,港区,六本木１丁目６番１号泉ガーデンタワー,,13,103,1060032,,,,,,,2024-11-19,1,,,,,エーシーピートライベッカ,0
1711,6010603011222,新規,0,2024-11-19,2024-11-19,合同会社リファル,,合同会社,東京都,墨田区,菊川２丁目９―２ロイジェント菊川９０１,,13,107,1300024,,,,,,,2024-11-19,1,,,,,リファル,0
1723,6011001165841,新規,0,2024-11-19,2024-11-19,ＮＥＯ　ＩＮＳＨＯＣＫ株式会社,,株式会社,東京都,渋谷区,道玄坂１丁目１０番８号渋谷道玄坂東急ビル２Ｆ－Ｃ,,13,113,1500043,,,,,,,2024-11-19,1,,,,,ネオインショック,0
1724,6011001165981,新規,0,2024-11-19,2024-11-19,株式会社永楽ＥＳＴＡＴＥ,,株式会社,東京都,渋谷区,神宮前１丁目２０番７号,,13,113,1500001,,,,,,,2024-11-19,1,,,,,エイラクエステート,0
1729,6011003020375,新規,0,2024-11-19,2024-11-19,合同会社Ｃｏｍｆｉｒｅｓｔ,,合同会社,東京都,目黒区,駒場１丁目１９番２０号サニーコート駒場２０３,,13,110,1530041,,,,,,,2024-11-19,1,,,,,コンフィレスト,0
1730,6011003020400,新規,0,2024-11-19,2024-11-19,Ｖｅｇｅｔａｋｅ合同会社,,合同会社,東京都,渋谷区,神宮前６丁目２３番４号桑野ビル２階,,13,113,1500001,,,,,,,2024-11-19,1,,,,,ベジテイク,0
1731,6011003020409,新規,0,2024-11-19,2024-11-19,合同会社カンテナ,,合同会社,東京都,渋谷区,道玄坂１丁目１０番８号渋谷道玄坂東急ビル２Ｆ－Ｃ,,13,113,1500043,,,,,,,2024-11-19,1,,,,,カンテナ,0
1733,6011005010746,新規,0,2024-11-19,2024-11-19,一般社団法人Ｒｕｎｎｉｎｇ　Ｓｉｌｅｎｔ　Ｓｐｉｒｉｔ,,その他の設立登記法人,東京都,渋谷区,道玄坂１丁目１０番８号渋谷道玄坂東急ビル２Ｆ－Ｃ,,13,113,1500043,,,,,,,2024-11-19,1,,,,,ランニングサイレントスピリット,0
1737,6011101109574,新規,0,2024-11-19,2024-11-19,株式会社Ｂｏｈｎｅｓ,,株式会社,東京都,新宿区,西新宿１丁目２２番２号,,13,104,1600023,,,,,,,2024-11-19,1,,,,,ボーネス,0
1738,6011101109599,新規,0,2024-11-19,2024-11-19,株式会社安心ガス設備,,株式会社,東京都,新宿区,西新宿３丁目７番１号,,13,104,1600023,,,,,,,2024-11-19,1,,,,,アンシンガスセツビ,0
1739,6011101109632,新規,0,2024-11-19,2024-11-19,株式会社ウェルビーイングパートナーズ,,株式会社,東京都,新宿区,西新宿６丁目５番１号新宿アイランドタワー２階,,13,104,1600023,,,,,,,2024-11-19,1,,,,,ウェルビーイングパートナーズ,0
1743,6011103015184,新規,0,2024-11-19,2024-11-19,合同会社Ｊ．ｍｅｒ,,合同会社,東京都,新宿区,西新宿３丁目３番１３号,,13,104,1600023,,,,,,,2024-11-19,1,,,,,ゼイメル,0
1744,6011103015192,新規,0,2024-11-19,2024-11-19,ＰＡＴＨ　Ｊａｐａｎ合同会社,,合同会社,東京都,新宿区,西新宿１丁目４－１１全研プラザＳＰＡＣＥＳ新宿,,13,104,1600023,,,,,,,2024-11-19,1,,,,,パスジャパン,0
1748,6011301030167,新規,0,2024-11-19,2024-11-19,ＭＤＶＩＳＩＯＮ株式会社,,株式会社,東京都,杉並区,下高井戸１丁目１番９号,,13,115,1680073,,,,,,,2024-11-19,1,,,,,エムディビジョン,0
1752,6011601028209,新規,0,2024-11-19,2024-11-19,章円株式会社,,株式会社,東京都,練馬区,上石神井３丁目２９－７－４０６,,13,120,1770044,,,,,,,2024-11-19,1,,,,,ショウエン,0
1754,6011701027829,新規,0,2024-11-19,2024-11-19,株式会社ハルノキワークス,,株式会社,東京都,江戸川区,松島２丁目２６番１号,,13,123,1320031,,,,,,,2024-11-19,1,,,,,ハルノキワークス,0
1755,6011703004033,新規,0,2024-11-19,2024-11-19,合同会社Ｆｉｎａｌｌｙ,,合同会社,東京都,江戸川区,南葛西７丁目１番３号メゾンクレールＡ棟１０５,,13,123,1340085,,,,,,,2024-11-19,1,,,,,ファイナリー,0
1757,6011801045185,新規,0,2024-11-19,2024-11-19,株式会社ムービーアーツ,,株式会社,東京都,足立区,西新井４丁目１５番２号,,13,121,1230841,,,,,,,2024-11-19,1,,,,,ムービーアーツ,0
1766,6013301053379,新規,0,2024-11-19,2024-11-19,株式会社ピロモント,,株式会社,東京都,豊島区,巣鴨３丁目６番１５号末吉ビル１Ｆ２号,,13,116,1700002,,,,,,,2024-11-19,1,,,,,ピロモント,0
1778,6020001160026,新規,0,2024-11-19,2024-11-19,森澤明善国際株式会社,,株式会社,神奈川県,横浜市鶴見区,鶴見中央１丁目２１番１１号ＮＩＣハイム鶴見渡辺ビル第１－１００４,,14,101,2300051,,,,,,,2024-11-19,1,,,,,モリサワメイゼンコクサイ,0
1779,6020001160273,新規,0,2024-11-19,2024-11-19,株式会社アイエーギルド,,株式会社,神奈川県,横浜市西区,北幸１丁目１１番１号水信ビル７階,,14,103,2200004,,,,,,,2024-11-19,1,,,,,アイエーギルド,0
1788,6020003027256,新規,0,2024-11-19,2024-11-19,Ｉｎｈｅｒｉｇｅｎｃｙ合同会社,,合同会社,神奈川県,横浜市神奈川区,東神奈川１丁目９－８びゅうリエット横浜東神奈川５１９,,14,102,2210044,,,,,,,2024-11-19,1,,,,,インヘリジェンシー,0
1805,6050001055702,新規,0,2024-11-19,2024-11-19,ＨＩＫＡＲＩ‐ＯＤ株式会社,,株式会社,茨城県,稲敷市,浮島字前浦６９７７－５９－５号室,,08,229,3000641,,,,,,,2024-11-19,1,,,,,ヒカリオド,0
1806,6050001055710,新規,0,2024-11-19,2024-11-19,泰峰商事株式会社,,株式会社,茨城県,つくば市,島名５４１番地６,,08,220,3002655,,,,,,,2024-11-19,1,,,,,タイホウショウジ,0
1812,6070001042376,新規,0,2024-11-19,2024-11-19,株式会社ＦＩＴ　ＳＴＹＬＥ,,株式会社,群馬県,邑楽郡大泉町,大字寄木戸１２８９番地の１,,10,524,3700535,,,,,,,2024-11-19,1,,,,,フィットスタイル,0
1813,6080105006466,新規,0,2024-11-19,2024-11-19,三力協同組合,,その他の設立登記法人,静岡県,富士市,永田町１丁目６１番地ＲＥＬＡＸＩＡ・ＦＵＪＩ１階,,22,210,4170055,,,,,,,2024-11-19,1,,,,,サンリキ,0
1825,6100001038049,新規,0,2024-11-19,2024-11-19,株式会社堀川工業,,株式会社,長野県,上水内郡信濃町,大字穂波１３９４番地,,20,583,3891314,,,,,,,2024-11-19,1,,,,,ホリカワコウギョウ,0
1837,6120001270302,新規,0,2024-11-19,2024-11-19,株式会社静昇建設,,株式会社,大阪府,大阪市中央区,北久宝寺町１丁目７番１０号,,27,128,5410057,,,,,,,2024-11-19,1,,,,,セイショウケンセツ,0
1838,6120001270351,新規,0,2024-11-19,2024-11-19,欧楚株式会社,,株式会社,大阪府,大阪市中央区,松屋町９番２０号ローレルステート松屋町１００３Ｂ,,27,128,5420067,,,,,,,2024-11-19,1,,,,,オウソ,0
1839,6120001270368,新規,0,2024-11-19,2024-11-19,株式会社ＦＬＹＩＮＧ　ＪＡＰＡＮ,,株式会社,大阪府,大阪市東淀川区,東中島３丁目２番６号１Ｆ,,27,114,5330033,,,,,,,2024-11-19,1,,,,,フライングジャパン,0
1844,6120101070610,新規,0,2024-11-19,2024-11-19,株式会社楠本商店,,株式会社,大阪府,堺市堺区,海山町１丁１８番地９,,27,141,5900982,,,,,,,2024-11-19,1,,,,,クスモトショウテン,0
1845,6120101070619,新規,0,2024-11-19,2024-11-19,株式会社アイニティ,,株式会社,大阪府,堺市北区,中百舌鳥町６丁８８２番地１植松ビル２Ｆ,,27,146,5918023,,,,,,,2024-11-19,1,,,,,アイニティ,0
1846,6120103006141,新規,0,2024-11-19,2024-11-19,合同会社ありろさ,,合同会社,大阪府,松原市,南新町２丁目１番３３号,,27,217,5800023,,,,,,,2024-11-19,1,,,,,アリロサ,0
1848,6120901050035,新規,0,2024-11-19,2024-11-19,株式会社フードプロモート,,株式会社,大阪府,吹田市,南吹田１丁目１４番１０号,,27,205,5640043,,,,,,,2024-11-19,1,,,,,フードプロモート,0
1849,6120901050051,新規,0,2024-11-19,2024-11-19,Ｕｅｎｏ株式会社,,株式会社,大阪府,豊中市,刀根山４丁目２番７号,,27,203,5600045,,,,,,,2024-11-19,1,,,,,ウエノ,0
1864,6140001136451,新規,0,2024-11-19,2024-11-19,株式会社ＳＥＡ　ＢＲＩＤＧＥ,,株式会社,兵庫県,明石市,朝霧南町２丁目２３２番地橋本ビル２Ｆ,,28,203,6730870,,,,,,,2024-11-19,1,,,,,シーブリッジ,0
1873,6170003002129,新規,0,2024-11-19,2024-11-19,Ｗｏｒｋ　ｏｕｔ合同会社,,合同会社,和歌山県,岩出市,紀泉台７８番地,,30,209,6496253,,,,,,,2024-11-19,1,,,,,ワークアウト,0
1882,6180001164176,新規,0,2024-11-19,2024-11-19,日昇株式会社,,株式会社,愛知県,名古屋市天白区,高坂町３１４番地の１,,23,116,4680025,,,,,,,2024-11-19,1,,,,,ニッショウ,0
1883,6180001164201,新規,0,2024-11-19,2024-11-19,株式会社カスグラ,,株式会社,愛知県,名古屋市千種区,春岡通５丁目１９番地の２,,23,101,4640847,,,,,,,2024-11-19,1,,,,,カスグラ,0
1884,6180001164218,新規,0,2024-11-19,2024-11-19,株式会社グリーンズグリーン東海,,株式会社,愛知県,名古屋市緑区,青山３丁目２３番地,,23,114,4580833,,,,,,,2024-11-19,1,,,,,グリーンズグリーントウカイ,0
1889,6180003027637,新規,0,2024-11-19,2024-11-19,合同会社Ｇ‐Ｓｗｅｌｌ,,合同会社,愛知県,名古屋市中村区,名駅３丁目４－１０アルティメイト名駅１ｓｔ２階,,23,105,4500002,,,,,,,2024-11-19,1,,,,,ジースウェル,0
1893,6180301039251,新規,0,2024-11-19,2024-11-19,エーシーアイ・ホールディングス株式会社,,株式会社,愛知県,岡崎市,滝町字山籠１３５番地２０,,23,202,4443173,,,,,,,2024-11-19,1,,,,,エーシーアイホールディングス,0
1895,6200001043146,新規,0,2024-11-19,2024-11-19,株式会社たいよう,,株式会社,岐阜県,可児郡御嵩町,上恵土３９５番地１,,21,521,5050126,,,,,,,2024-11-19,1,,,,,タイヨウ,0
1897,6200005013681,新規,0,2024-11-19,2024-11-19,一般社団法人あめ福祉会,,その他の設立登記法人,岐阜県,岐阜市,柳津町本郷５丁目２番２号,,21,201,5016104,,,,,,,2024-11-19,1,,,,,,0
1900,6220001026339,新規,0,2024-11-19,2024-11-19,株式会社Ｍグループ,,株式会社,石川県,金沢市,森山２丁目１番２９号,,17,201,9200843,,,,,,,2024-11-19,1,,,,,エムグループ,0
1904,6270001009090,新規,0,2024-11-19,2024-11-19,株式会社中井窯,,株式会社,鳥取県,鳥取市,河原町中井２４３番地５,,31,201,6801224,,,,,,,2024-11-19,1,,,,,ナカイガマ,0
1909,6290001107982,新規,0,2024-11-19,2024-11-19,添富株式会社,,株式会社,福岡県,福岡市東区,箱崎４丁目２５番１０－１０６号,,40,131,8120053,,,,,,,2024-11-19,1,,,,,テンフ,0
1910,6290001108015,新規,0,2024-11-19,2024-11-19,株式会社ソニアエステート,,株式会社,福岡県,糸島市,志摩師吉９１１番地５０,,40,230,8191314,,,,,,,2024-11-19,1,,,,,ソニアエステート,0
1911,6290001108031,新規,0,2024-11-19,2024-11-19,株式会社志岐建築舎,,株式会社,福岡県,柳川市,大和町塩塚９４９番地,,40,207,8390243,,,,,,,2024-11-19,1,,,,,シキケンチクシャ,0
1912,6290001108064,新規,0,2024-11-19,2024-11-19,株式会社オーガメディカルスマート,,株式会社,福岡県,福岡市博多区,博多駅前３丁目９番１号大賀博多駅前ビル３階,,40,132,8120011,,,,,,,2024-11-19,1,,,,,オーガメディカルスマート,0
1914,6290003016067,新規,0,2024-11-19,2024-11-19,合同会社壱徳,,合同会社,福岡県,福岡市西区,姪の浜４丁目１０番１９－３０４号,,40,135,8190002,,,,,,,2024-11-19,1,,,,,イチトク,0
1915,6290003016075,新規,0,2024-11-19,2024-11-19,合同会社原まるホーム,,合同会社,福岡県,糸島市,二丈深江５丁目１番２号,,40,230,8191601,,,,,,,2024-11-19,1,,,,,ハラマルホーム,0
1916,6290003016083,新規,0,2024-11-19,2024-11-19,合同会社みらいホームケア,,合同会社,福岡県,福岡市中央区,今泉１丁目１８番１－６０３号天神通弐番館,,40,133,8100021,,,,,,,2024-11-19,1,,,,,ミライホームケア,0
1919,6320003004514,新規,0,2024-11-19,2024-11-19,合同会社らんぷの宿,,合同会社,大分県,由布市,湯布院町川上３６３９番地１,,44,213,8795102,,,,,,,2024-11-19,1,,,,,ランプ,0
1931,6390001017800,新規,0,2024-11-19,2024-11-19,ＹＯＬＯ株式会社,,株式会社,山形県,天童市,大字高野辺５３番地３,,06,210,9940076,,,,,,,2024-11-19,1,,,,,ヨロ,0
1946,6450003002554,新規,0,2024-11-19,2024-11-19,ビースターズ合同会社,,合同会社,北海道,旭川市,神居町雨粉３８０番地の９６,,01,204,0700000,,,,,,,2024-11-19,1,,,,,ビースターズ,0
1947,6450005004433,新規,0,2024-11-19,2024-11-19,一般社団法人大雪山森林保全協議会,,その他の設立登記法人,北海道,上川郡上川町,中央町５６６番,,01,457,0781741,,,,,,,2024-11-19,1,,,,,タイセツザンシンリンホゼンキョウギカイ,0
1949,6500001026005,新規,0,2024-11-19,2024-11-19,株式会社Ｈ＆Ｋ,,株式会社,愛媛県,宇和島市,並松１丁目２番４３号,,38,203,7980074,,,,,,,2024-11-19,1,,,,,エッチアンドケイ,0
1957,7010001249926,新規,0,2024-11-19,2024-11-19,キカクビジョン株式会社,,株式会社,東京都,中央区,日本橋２丁目２番３号ＲＩＳＨＥビルＵＣＦ４０２,,13,102,1030027,,,,,,,2024-11-19,1,,,,,キカクビジョン,0
1958,7010001249983,新規,0,2024-11-19,2024-11-19,株式会社ジェイ・エフ・パートナーズ,,株式会社,東京都,千代田区,有楽町１丁目７番１号,,13,101,1000006,,,,,,,2024-11-19,1,,,,,ジェイエフパートナーズ,0
1959,7010001249991,新規,0,2024-11-19,2024-11-19,ＴＥＡＭ　ＭＵＭＵ株式会社,,株式会社,東京都,千代田区,神田猿楽町１丁目４番１３号チェスターハウス猿楽町２０３号,,13,101,1010064,,,,,,,2024-11-19,1,,,,,チームムム,0
1960,7010001250033,新規,0,2024-11-19,2024-11-19,株式会社アーク・アンシェル,,株式会社,東京都,中央区,日本橋室町１丁目１１－１２日本橋水野ビル７階,,13,102,1030022,,,,,,,2024-11-19,1,,,,,アークアンシェル,0
2002,7010003045514,新規,0,2024-11-19,2024-11-19,合同会社ドン・ペリニヨン,,合同会社,東京都,中央区,銀座１丁目２２番１１号銀座大竹ビジデンス２階,,13,102,1040061,,,,,,,2024-11-19,1,,,,,ドンペリニヨン,0
2003,7010005039118,新規,0,2024-11-19,2024-11-19,一般社団法人自然エネルギーＳＩＰＰ１７,,その他の設立登記法人,東京都,中央区,日本橋本町２丁目４番７号,,13,102,1030023,,,,,,,2024-11-19,1,,,,,シゼンエネルギーエスアイピーピージュウナナ,0
2012,7010401186348,新規,0,2024-11-19,2024-11-19,株式会社ＢＬＡＣＫ　ＢＩＲＤ,,株式会社,東京都,港区,六本木３丁目３－１０アパートメンツタワー六本木６０５,,13,103,1060032,,,,,,,2024-11-19,1,,,,,ブラックバード,0
2013,7010401186488,新規,0,2024-11-19,2024-11-19,株式会社ＴＨＬＥＥ,,株式会社,東京都,港区,東麻布１丁目１７番１５号ザ・パーク麻布レジデンス３階,,13,103,1060044,,,,,,,2024-11-19,1,,,,,スリー,0
2014,7010401186496,新規,0,2024-11-19,2024-11-19,ＲＭＡ２　Ｃｏｒｐｏｒａｔｉｏｎ株式会社,,株式会社,東京都,港区,赤坂７丁目６番６６－３０４号,,13,103,1070052,,,,,,,2024-11-19,1,,,,,アールエムエイツーコーポレーション,0
2015,7010401186505,新規,0,2024-11-19,2024-11-19,株式会社Ｓ＆Ｃ,,株式会社,東京都,港区,芝３丁目２２番８号ベルファース芝公園１３０７,,13,103,1050014,,,,,,,2024-11-19,1,,,,,エスアンドシー,0
2020,7010403033812,新規,0,2024-11-19,2024-11-19,パーシモン合同会社,,合同会社,東京都,港区,赤坂６丁目１２番１４－１２０７号,,13,103,1070052,,,,,,,2024-11-19,1,,,,,パーシモン,0
2036,7011001165849,新規,0,2024-11-19,2024-11-19,株式会社ｅｙｅｇｅａｒ,,株式会社,東京都,渋谷区,渋谷２丁目１９－１５宮益坂ビルディング６０９,,13,113,1500002,,,,,,,2024-11-19,1,,,,,アイギア,0
2039,7011003020325,新規,0,2024-11-19,2024-11-19,合同会社ＤｏｕｂｌｅＤｙｎｏ,,合同会社,東京都,渋谷区,神宮前５丁目３０番５号スカイラーク神宮前５０１,,13,113,1500001,,,,,,,2024-11-19,1,,,,,ダブルダイノ,0
2040,7011003020390,新規,0,2024-11-19,2024-11-19,テバ・リサーチ・インスティテュート合同会社,,合同会社,東京都,渋谷区,恵比寿４丁目２０番３号,,13,113,1500013,,,,,,,2024-11-19,1,,,,,テバリサーチインスティテュート,0
2041,7011003020408,新規,0,2024-11-19,2024-11-19,合同会社ａｉｍｙ,,合同会社,東京都,渋谷区,恵比寿西２丁目４番８号ウィンド恵比寿ビル８Ｆ,,13,113,1500021,,,,,,,2024-11-19,1,,,,,エイミー,0
2046,7011101109631,新規,0,2024-11-19,2024-11-19,ロイヤル株式会社,,株式会社,東京都,新宿区,百人町１丁目１８番８号大久保カドビル２階ＬｉｎｋＳｐａｃｅ百人町Ｓ０１号室,,13,104,1690073,,,,,,,2024-11-19,1,,,,,ロイヤル,0
2047,7011103015191,新規,0,2024-11-19,2024-11-19,Ａｎｄｕｒｉｌ　Ｉｎｄｕｓｔｒｉｅｓ　Ｊａｐａｎ合同会社,,合同会社,東京都,新宿区,新宿１丁目３６番２号新宿第七葉山ビル３階,,13,104,1600022,,,,,,,2024-11-19,1,,,,,アンデュリルインダストリーズジャパン,0
2051,7011401026584,新規,0,2024-11-19,2024-11-19,株式会社セルメディ,,株式会社,東京都,板橋区,成増１丁目３０番１３号,,13,119,1750094,,,,,,,2024-11-19,1,,,,,セルメディ,0
2055,7011501031369,新規,0,2024-11-19,2024-11-19,ＴＭ産業株式会社,,株式会社,東京都,荒川区,東日暮里１丁目３７番５－８０１号,,13,118,1160014,,,,,,,2024-11-19,1,,,,,ティーエムサンギョウ,0
2059,7011801045168,新規,0,2024-11-19,2024-11-19,株式会社ＡｍｉｊｉＫ,,株式会社,東京都,足立区,梅田８丁目８番１０号シャルマンコーポ梅島２０６号室,,13,121,1230851,,,,,,,2024-11-19,1,,,,,アミジック,0
2060,7011801045176,新規,0,2024-11-19,2024-11-19,株式会社ＳＳＫ．ｃｏｍ,,株式会社,東京都,葛飾区,堀切３丁目２６番１号酒井マンション３０１号室,,13,122,1240006,,,,,,,2024-11-19,1,,,,,エスエスケードットコム,0
2061,7011801045184,新規,0,2024-11-19,2024-11-19,株式会社ＷＩＬＬ,,株式会社,東京都,足立区,花畑３丁目１３番１８号,,13,121,1210061,,,,,,,2024-11-19,1,,,,,ウィル,0
2065,7012403006847,新規,0,2024-11-19,2024-11-19,エイチワイ・アドバイザーズ合同会社,,合同会社,東京都,三鷹市,下連雀３丁目２７番１号三協ビル,,13,204,1810013,,,,,,,2024-11-19,1,,,,,エイチワイアドバイザーズ,0
2067,7013301053386,新規,0,2024-11-19,2024-11-19,丞明株式会社,,株式会社,東京都,豊島区,高田３丁目７番１７安斎ビル２階２１０号室,,13,116,1710033,,,,,,,2024-11-19,1,,,,,ジョウメイ,0
2068,7013301053394,新規,0,2024-11-19,2024-11-19,株式会社コンサル,,株式会社,東京都,豊島区,巣鴨４丁目９－５太陽ビル３０２,,13,116,1700002,,,,,,,2024-11-19,1,,,,,コンサル,0
2076,7020001160124,新規,0,2024-11-19,2024-11-19,株式会社レイズファクトリー,,株式会社,神奈川県,横浜市都筑区,加賀原１丁目２４番地シンフォニックヒルズ４号棟１０４,,14,118,2240055,,,,,,,2024-11-19,1,,,,,レイズファクトリー,0
2077,7020001160132,新規,0,2024-11-19,2024-11-19,株式会社Ｍ２,,株式会社,神奈川県,横浜市都筑区,すみれが丘３１番地２７,,14,118,2240013,,,,,,,2024-11-19,1,,,,,エムツー,0
2087,7020003027180,新規,0,2024-11-19,2024-11-19,ＴＧＬジャパン合同会社,,合同会社,神奈川県,横浜市西区,北幸１丁目１１番１号水信ビル７階,,14,103,2200004,,,,,,,2024-11-19,1,,,,,ティージーエルジャパン,0
2093,7021001083777,新規,0,2024-11-19,2024-11-19,大津商事株式会社,,株式会社,神奈川県,横須賀市,大津町３丁目７番４ヴァンハウス横須賀３０１号室,,14,201,2390808,,,,,,,2024-11-19,1,,,,,オオツショウジ,0
2097,7030001163530,新規,0,2024-11-19,2024-11-19,株式会社栄翔,,株式会社,埼玉県,越谷市,大字大里４２番地９－２階,,11,222,3430031,,,,,,,2024-11-19,1,,,,,エイショウ,0
2100,7030003025514,新規,0,2024-11-19,2024-11-19,ＬｉＮＯ合同会社,,合同会社,埼玉県,加須市,下高柳１５８９番地１,,11,210,3470000,,,,,,,2024-11-19,1,,,,,リノ,0
2106,7040001136205,新規,0,2024-11-19,2024-11-19,株式会社Ｇｅｒｍｅｒ,,株式会社,千葉県,千葉市中央区,新田町２－１９岩澤ビル,,12,101,2600027,,,,,,,2024-11-19,1,,,,,ジョルメ,0
2119,7060003005331,新規,0,2024-11-19,2024-11-19,合同会社ゆうオート,,合同会社,栃木県,宇都宮市,五代１丁目４番１号,,09,201,3210135,,,,,,,2024-11-19,1,,,,,ユウオート,0
2123,7080001026609,新規,0,2024-11-19,2024-11-19,株式会社ゾンネ,,株式会社,静岡県,静岡市葵区,大岩２丁目２３番１号,,22,101,4200886,,,,,,,2024-11-19,1,,,,,ゾンネ,0
2124,7080003003333,新規,0,2024-11-19,2024-11-19,合同会社ＡＹＹ,,合同会社,静岡県,静岡市駿河区,中吉田２２番９号,,22,102,4228001,,,,,,,2024-11-19,1,,,,,エーワイワイ,0
2125,7080103003200,新規,0,2024-11-19,2024-11-19,合同会社Ｒ．Ｏ　Ｌａｎｋａ　Ｉｎｔｅｒｎａｔｉｏｎａｌ,,合同会社,静岡県,富士宮市,杉田１２６１番地,,22,207,4180021,,,,,,,2024-11-19,1,,,,,アールオーランカインターナショナル,0
2128,7090001019009,新規,0,2024-11-19,2024-11-19,株式会社オーワンジュエリー,,株式会社,山梨県,甲府市,右左口町１６０８番地１,,19,201,4001504,,,,,,,2024-11-19,1,,,,,オーワンジュエリー,0
2131,7100001038048,新規,0,2024-11-19,2024-11-19,ＫＩＬＬＹホールディングス株式会社,,株式会社,長野県,長野市,檀田２丁目４４番２１号,,20,201,3810052,,,,,,,2024-11-19,1,,,,,キリーホールディングス,0
2133,7100003007868,新規,0,2024-11-19,2024-11-19,合同会社ノーマル,,合同会社,長野県,長野市,大字川合新田３７０番地２４,,20,201,3800913,,,,,,,2024-11-19,1,,,,,ノーマル,0
2134,7100003007876,新規,0,2024-11-19,2024-11-19,合同会社クライムアウト,,合同会社,長野県,長野市,大字上駒沢字新町２９２番地６５クローバーヒルズ管理室,,20,201,3810082,,,,,,,2024-11-19,1,,,,,クライムアウト,0
2143,7120001270383,新規,0,2024-11-19,2024-11-19,株式会社ベストハート,,株式会社,大阪府,大阪市住之江区,北加賀屋５丁目６－１８,,27,125,5590011,,,,,,,2024-11-19,1,,,,,ベストハート,0
2144,7120001270391,新規,0,2024-11-19,2024-11-19,花梨魅影芸術家居株式会社,,株式会社,大阪府,大阪市大正区,三軒家西３丁目４番１６号中山ビル１０１Ｂ,,27,108,5510001,,,,,,,2024-11-19,1,,,,,カリンミカゲゲイジュツカキョ,0
2145,7120001270409,新規,0,2024-11-19,2024-11-19,エバーグリーンエステート株式会社,,株式会社,大阪府,大阪市淀川区,西中島７丁目７番３号,,27,123,5320011,,,,,,,2024-11-19,1,,,,,エバーグリーンエステート,0
2146,7120001270425,新規,0,2024-11-19,2024-11-19,株式会社想,,株式会社,大阪府,大阪市西区,南堀江１丁目３番１２－１２０３号,,27,106,5500015,,,,,,,2024-11-19,1,,,,,ソウ,0
2148,7120003028004,新規,0,2024-11-19,2024-11-19,合同会社イレブン,,合同会社,大阪府,大阪市中央区,高津１丁目９番８号１１Ｆ,,27,128,5420072,,,,,,,2024-11-19,1,,,,,イレブン,0
2153,7120103006149,新規,0,2024-11-19,2024-11-19,合同会社ＳＥＦＬ,,合同会社,大阪府,泉大津市,池園町７番２８号,,27,206,5950017,,,,,,,2024-11-19,1,,,,,セーフル,0
2155,7120903005424,新規,0,2024-11-19,2024-11-19,キャリオン合同会社,,合同会社,大阪府,吹田市,佐竹台３丁目１番６号,,27,205,5650855,,,,,,,2024-11-19,1,,,,,キャリオン,0
2157,7122001038653,新規,0,2024-11-19,2024-11-19,関西工建株式会社,,株式会社,大阪府,大東市,三箇２丁目８番５号,,27,218,5740077,,,,,,,2024-11-19,1,,,,,カンサイコウケン,0
2167,7130003010010,新規,0,2024-11-19,2024-11-19,千樹合同会社,,合同会社,京都府,京都市西京区,嵐山風呂ノ橋町２番地１,,26,111,6160013,,,,,,,2024-11-19,1,,,,,センジュ,0
2171,7140001136467,新規,0,2024-11-19,2024-11-19,株式会社ＵＮＶＥＩＬＥＤ,,株式会社,兵庫県,西宮市,津門仁辺町２番２１－６０５号,,28,204,6638246,,,,,,,2024-11-19,1,,,,,アンヴェイルド,0
2174,7140003021337,新規,0,2024-11-19,2024-11-19,ジオリサーチ合同会社,,合同会社,兵庫県,神戸市灘区,城内通４丁目５番１０－１０１号,,28,102,6570836,,,,,,,2024-11-19,1,,,,,ジオリサーチ,0
2181,7180001164175,新規,0,2024-11-19,2024-11-19,株式会社Ｍｕｎｎｉ,,株式会社,愛知県,名古屋市中区,錦２丁目５－３１長者町相互ビル２０６号,,23,106,4600003,,,,,,,2024-11-19,1,,,,,ムンニ,0
2182,7180001164191,新規,0,2024-11-19,2024-11-19,株式会社ＴＳＳ,,株式会社,愛知県,長久手市,戸田谷８１３番地,,23,238,4801124,,,,,,,2024-11-19,1,,,,,ティーエスエス,0
2183,7180001164200,新規,0,2024-11-19,2024-11-19,株式会社峰丸,,株式会社,愛知県,小牧市,小木東３丁目１３０番地,,23,219,4850059,,,,,,,2024-11-19,1,,,,,ミネマル,0
2184,7180001164209,新規,0,2024-11-19,2024-11-19,株式会社ＭＹＳ,,株式会社,愛知県,北名古屋市,二子屋敷３５２番地ＦＧメゾンＣ号室,,23,234,4810013,,,,,,,2024-11-19,1,,,,,エムワイエス,0
2185,7180001164217,新規,0,2024-11-19,2024-11-19,株式会社アイ・エピック,,株式会社,愛知県,名古屋市南区,三吉町２丁目５７番地,,23,112,4570805,,,,,,,2024-11-19,1,,,,,アイエピック,0
2189,7180003027628,新規,0,2024-11-19,2024-11-19,合同会社ＯＦＦＩＣＥ　ＳＨＩＢＡ,,合同会社,愛知県,名古屋市守山区,向台３丁目１２０２－２,,23,113,4630036,,,,,,,2024-11-19,1,,,,,オフィスシバ,0
2191,7180301039250,新規,0,2024-11-19,2024-11-19,株式会社ＭＫＹ,,株式会社,愛知県,岡崎市,宇頭町字東山７０番地５,,23,202,4440905,,,,,,,2024-11-19,1,,,,,エムケーワイ,0
2195,7190001031812,新規,0,2024-11-19,2024-11-19,株式会社ベル,,株式会社,三重県,亀山市,田村町１７７７番地の４３,,24,210,5190213,,,,,,,2024-11-19,1,,,,,ベル,0
2202,7220005008902,新規,0,2024-11-19,2024-11-19,一般財団法人喜,00137070,その他の設立登記法人,石川県,羽咋郡志賀町,舘ワの２９番地,,17,384,9250136,,,,,,,2024-11-19,1,,,,,ヨロコビ,0
2210,7250001020899,新規,0,2024-11-19,2024-11-19,株式会社Ｍｅｒｒｉｌｙ,,株式会社,山口県,周南市,銀南街９－３,,35,215,7450031,,,,,,,2024-11-19,1,,,,,メリリー,0
2216,7260003004973,新規,0,2024-11-19,2024-11-19,ＳＵＣＣＥＳＳ　ＭＡＲＴ合同会社,,合同会社,岡山県,岡山市北区,撫川３０３番地,,33,101,7010164,,,,,,,2024-11-19,1,,,,,サクセスマート,0
2217,7260005011423,新規,0,2024-11-19,2024-11-19,一般社団法人国際社会交流センター,,その他の設立登記法人,岡山県,岡山市北区,京町３番３号,,33,101,7000838,,,,,,,2024-11-19,1,,,,,コクサイシャカイコウリュウセンター,0
2219,7290001107981,新規,0,2024-11-19,2024-11-19,株式会社ハイロード企画,,株式会社,福岡県,福岡市博多区,銀天町３丁目６番２６号Ｅｙｅ’ｓ銀天町４０１号,,40,132,8120879,,,,,,,2024-11-19,1,,,,,ハイロードキカク,0
2220,7290001108006,新規,0,2024-11-19,2024-11-19,株式会社０ＮＤ０,,株式会社,福岡県,福岡市中央区,天神２丁目３番１０号天神パインクレスト７１９号,,40,133,8100001,,,,,,,2024-11-19,1,,,,,オンド,0
2221,7290001108030,新規,0,2024-11-19,2024-11-19,株式会社ＫＳＢ,,株式会社,福岡県,福岡市城南区,長尾４丁目１１番８号３階,,40,136,8140123,,,,,,,2024-11-19,1,,,,,ケーエスビー,0
2222,7290001108039,新規,0,2024-11-19,2024-11-19,株式会社藤好建装,,株式会社,福岡県,大野城市,山田２丁目７番３２号,,40,219,8160922,,,,,,,2024-11-19,1,,,,,フジヨシケンソウ,0
2227,7290003016082,新規,0,2024-11-19,2024-11-19,小林森宇合同会社,,合同会社,福岡県,福岡市博多区,奈良屋町４番１０号,,40,132,8120023,,,,,,,2024-11-19,1,,,,,ショウリンシンウ,0
2231,7320003004513,新規,0,2024-11-19,2024-11-19,翔心合同会社,,合同会社,大分県,別府市,大字鶴見４５４８番地の１９５６,,44,202,8740840,,,,,,,2024-11-19,1,,,,,ショウシン,0
2232,7330001032663,新規,0,2024-11-19,2024-11-19,株式会社Ｔａｎａｋａ,,株式会社,熊本県,熊本市東区,花立３丁目１７番８号,,43,102,8612118,,,,,,,2024-11-19,1,,,,,タナカ,0
2237,7360001034442,新規,0,2024-11-19,2024-11-19,ＡＳＩ株式会社,,株式会社,沖縄県,石垣市,字新川２４４５番地１コーラルベイ石垣島伍番館６０１号,,47,207,9070024,,,,,,,2024-11-19,1,,,,,エイエスアイ,0
2240,7360003014467,新規,0,2024-11-19,2024-11-19,合同会社ｂｅｎｏＶ８,,合同会社,沖縄県,国頭郡宜野座村,字松田５７３－１,,47,313,9041301,,,,,,,2024-11-19,1,,,,,ビノベイト,0
2254,7390001017799,新規,0,2024-11-19,2024-11-19,株式会社エコーワイヤレス,,株式会社,山形県,山形市,あこや町１丁目６番２０号,,06,201,9900025,,,,,,,2024-11-19,1,,,,,エコーワイヤレス,0
2256,7390003002312,新規,0,2024-11-19,2024-11-19,合同会社エコパーク,,合同会社,山形県,鶴岡市,文園町６番５５号文園ハイツ１号室,,06,203,9970816,,,,,,,2024-11-19,1,,,,,エコパーク,0
2273,7430003016984,新規,0,2024-11-19,2024-11-19,合同会社Ｓｋｙｎｅｃｔ,,合同会社,北海道,札幌市白石区,南郷通１丁目北４－１３－４０５,,01,104,0030023,,,,,,,2024-11-19,1,,,,,スカイネクト,0
2278,7480005007044,新規,0,2024-11-19,2024-11-19,一般社団法人源流の郷あかまつ,,その他の設立登記法人,徳島県,海部郡美波町,赤松字寺野２０４番地１,,36,387,7792301,,,,,,,2024-11-19,1,,,,,ゲンリュウノサトアカマツ,0
2294,8010001249941,新規,0,2024-11-19,2024-11-19,株式会社ＥＤＥＮ,,株式会社,東京都,千代田区,平河町１丁目６番１５号,,13,101,1020093,,,,,,,2024-11-19,1,,,,,エデン,0
2295,8010001249966,新規,0,2024-11-19,2024-11-19,株式会社Ｍｉｏｓｙｎｃ,,株式会社,東京都,千代田区,神田和泉町１－６－１６ヤマトビル４０５,,13,101,1010024,,,,,,,2024-11-19,1,,,,,ミオシンク,0
2296,8010001250016,新規,0,2024-11-19,2024-11-19,ＮＣＣＡＰ１‐２株式会社,,株式会社,東京都,千代田区,大手町１丁目３番１号,,13,101,1000004,,,,,,,2024-11-19,1,,,,,エヌシーキャップイチノニ,0
2297,8010001250024,新規,0,2024-11-19,2024-11-19,ＡＤＥＬＥＳ株式会社,,株式会社,東京都,文京区,千石４丁目２６番２号ＳＡＮＳＡＮ千石ビル４階,,13,105,1120011,,,,,,,2024-11-19,1,,,,,アデリス,0
2298,8010001250049,新規,0,2024-11-19,2024-11-19,株式会社名業グループ,,株式会社,東京都,文京区,本郷２丁目９番８号本郷朝風ビル３階,,13,105,1130033,,,,,,,2024-11-19,1,,,,,メイギョウグループ,0
2299,8010001250065,新規,0,2024-11-19,2024-11-19,帝合株式会社,,株式会社,東京都,中央区,日本橋人形町３丁目６番３号５０１室,,13,102,1030013,,,,,,,2024-11-19,1,,,,,テイコウ,0
2330,8010003045496,新規,0,2024-11-19,2024-11-19,松井リアルエステート合同会社,,合同会社,東京都,千代田区,四番町４番地６パークコート千代田四番町８０５号,,13,101,1020081,,,,,,,2024-11-19,1,,,,,マツイリアルエステート,0
2332,8010005039117,新規,0,2024-11-19,2024-11-19,一般社団法人自然エネルギーＳＩＰＰ１９,,その他の設立登記法人,東京都,中央区,日本橋本町２丁目４番７号,,13,102,1030023,,,,,,,2024-11-19,1,,,,,シゼンエネルギーエスアイピーピージュウク,0
2333,8010005039125,新規,0,2024-11-19,2024-11-19,特定目的会社ＯＴＳ　Ｏｎｅ,,その他の設立登記法人,東京都,千代田区,丸の内１丁目４番１号東京共同会計事務所内,,13,101,1000005,,,,,,,2024-11-19,1,,,,,オーティーエスワン,0
2344,8010401186454,新規,0,2024-11-19,2024-11-19,ＡＰホールディングス株式会社,,株式会社,東京都,港区,南麻布３丁目１１番２３号アンティシペーション株式会社内,,13,103,1060047,,,,,,,2024-11-19,1,,,,,エーピーホールディングス,0
2345,8010401186487,新規,0,2024-11-19,2024-11-19,Ｑｕａｎｔｕｍ　Ｆｕｎｄ　Ｔｒａｄｅｒｓ株式会社,,株式会社,東京都,港区,西新橋１丁目１番１号日比谷フォートタワー１０Ｆ,,13,103,1050003,,,,,,,2024-11-19,1,,,,,クオンタムファンドトレーダーズ,0
2346,8010401186495,新規,0,2024-11-19,2024-11-19,ＲＭＡ１　Ｃｏｒｐｏｒａｔｉｏｎ株式会社,,株式会社,東京都,港区,赤坂７丁目６番６６－３０４号,,13,103,1070052,,,,,,,2024-11-19,1,,,,,アールエムエイワンコーポレーション,0
2347,8010401186504,新規,0,2024-11-19,2024-11-19,水谷キャピタルパートナーズ株式会社,,株式会社,東京都,港区,芝３丁目２２番８号ベルファース芝公園１３０７,,13,103,1050014,,,,,,,2024-11-19,1,,,,,ミズタニキャピタルパートナーズ,0
2352,8010405023744,新規,0,2024-11-19,2024-11-19,一般社団法人ビジネスサポート協会,,その他の設立登記法人,東京都,港区,新橋６丁目７番９号新橋アイランドビル３階事務センター内,,13,103,1050004,,,,,,,2024-11-19,1,,,,,ビジネスサポートキョウカイ,0
2355,8010505003571,新規,0,2024-11-19,2024-11-19,一般社団法人地域再生機構,,その他の設立登記法人,東京都,台東区,東上野３丁目２８番５号日正堂ビル２階,,13,106,1100015,,,,,,,2024-11-19,1,,,,,チイキサイセイキコウ,0
2358,8010601066282,新規,0,2024-11-19,2024-11-19,ｓｕｎｌｉｇｈｔ株式会社,,株式会社,東京都,墨田区,文花１丁目３３番７号,,13,107,1310044,,,,,,,2024-11-19,1,,,,,サンライト,0
2359,8010603011220,新規,0,2024-11-19,2024-11-19,合同会社フォース,,合同会社,東京都,墨田区,業平５丁目１０－１,,13,107,1300002,,,,,,,2024-11-19,1,,,,,フォース,0
2360,8010701046845,新規,0,2024-11-19,2024-11-19,エンブライト株式会社,,株式会社,東京都,品川区,小山５丁目１６番１３号グローリアスガーデン２０５,,13,109,1420062,,,,,,,2024-11-19,1,,,,,エンブライト,0
2373,8011003020398,新規,0,2024-11-19,2024-11-19,Ｇｉｎｋｇｏ合同会社,,合同会社,東京都,目黒区,中根２丁目１７番１０号,,13,110,1520031,,,,,,,2024-11-19,1,,,,,ギンコ,0
2374,8011005010736,新規,0,2024-11-19,2024-11-19,一般社団法人子どもの成長実感支援センター,,その他の設立登記法人,東京都,目黒区,緑が丘１丁目２２－２さくら自由が丘マンション１０３,,13,110,1520034,,,,,,,2024-11-19,1,,,,,コドモノセイチョウジッカンシエンセンター,0
2375,8011101109580,新規,0,2024-11-19,2024-11-19,株式会社オーケーコンサルティング,,株式会社,東京都,新宿区,高田馬場１丁目１６番１３－２０１号,,13,104,1690075,,,,,,,2024-11-19,1,,,,,オーケーコンサルティング,0
2376,8011101109622,新規,0,2024-11-19,2024-11-19,株式会社Ｋａｒａｄａ　Ｗｏｒｋｓ,,株式会社,東京都,新宿区,北新宿３丁目３５番６－３０１号,,13,104,1690074,,,,,,,2024-11-19,1,,,,,カラダワークス,0
2377,8011101109639,新規,0,2024-11-19,2024-11-19,株式会社ＢＵＺＺ,,株式会社,東京都,新宿区,西新宿３丁目７番３０号フロンティアグラン西新宿４Ｆ,,13,104,1600023,,,,,,,2024-11-19,1,,,,,バズ,0
2384,8011703004031,新規,0,2024-11-19,2024-11-19,合同会社Ｎｅｘｕｓ,,合同会社,東京都,江戸川区,西小岩３丁目１１番４号セトルＭ１０２,,13,123,1330057,,,,,,,2024-11-19,1,,,,,ネクサス,0
2386,8011801045167,新規,0,2024-11-19,2024-11-19,株式会社Ｂｅｌｌｅ　Ｖｕｅ,,株式会社,東京都,葛飾区,青戸７丁目１９番２１号,,13,122,1250062,,,,,,,2024-11-19,1,,,,,ベルビュー,0
2387,8011801045175,新規,0,2024-11-19,2024-11-19,大来株式会社,,株式会社,東京都,葛飾区,四つ木５丁目２３番１４号メゾン・ノワ４Ｉ,00137068,13,122,1240011,,,,,,,2024-11-19,1,,,,,,0
2390,8011803006547,新規,0,2024-11-19,2024-11-19,合同会社ｍｉｋａｎ,,合同会社,東京都,足立区,千住曙町４１番１－７０７号,,13,121,1200023,,,,,,,2024-11-19,1,,,,,ミカン,0
2392,8011805003419,新規,0,2024-11-19,2024-11-19,一般社団法人スポーツと協働実践研究会,,その他の設立登記法人,東京都,葛飾区,東水元４丁目６番１６号,,13,122,1250033,,,,,,,2024-11-19,1,,,,,スポーツトキョウドウジッセンケンキュウカイ,0
2405,8020001160123,新規,0,2024-11-19,2024-11-19,株式会社トリマルセ,,株式会社,神奈川県,川崎市川崎区,駅前本町１１番地２,,14,131,2100007,,,,,,,2024-11-19,1,,,,,トリマルセ,0
2406,8020001160131,新規,0,2024-11-19,2024-11-19,株式会社オーヴァルオプティ,,株式会社,神奈川県,横浜市西区,浅間町１丁目４番３号ウィザードビル４０２,,14,103,2200072,,,,,,,2024-11-19,1,,,,,オーヴァルオプティ,0
2407,8020001160189,新規,0,2024-11-19,2024-11-19,株式会社ＭＥＧＭＩＮＸ,,株式会社,神奈川県,横浜市西区,浅間町１丁目４番３号ウィザードビル４０２,,14,103,2200072,,,,,,,2024-11-19,1,,,,,メグミンクス,0
2410,8020003027262,新規,0,2024-11-19,2024-11-19,クリエイト・アーツ合同会社,,合同会社,神奈川県,横浜市都筑区,平台１番１６－３０１号,,14,118,2240064,,,,,,,2024-11-19,1,,,,,クリエイトアーツ,0
2415,8021001083719,新規,0,2024-11-19,2024-11-19,ＬＥＡＤ　ＣＨＡＮＣＥ株式会社,,株式会社,神奈川県,厚木市,中町４丁目１３番１－３０１号,,14,212,2430018,,,,,,,2024-11-19,1,,,,,リードチャンス,0
2419,8030001163562,新規,0,2024-11-19,2024-11-19,株式会社モーモー,,株式会社,埼玉県,朝霞市,栄町１丁目７－３９,,11,227,3510012,,,,,,,2024-11-19,1,,,,,モーモー,0
2426,8040003025875,新規,0,2024-11-19,2024-11-19,合同会社ＣＣＳＳ,,合同会社,千葉県,市川市,平田２丁目２３－２６,,12,203,2720031,,,,,,,2024-11-19,1,,,,,シーシーエスエス,0
2428,8050001055725,新規,0,2024-11-19,2024-11-19,株式会社ＬＩＢＥＲＴＹ,,株式会社,茨城県,土浦市,右籾３０３１番地２,,08,203,3000837,,,,,,,2024-11-19,1,,,,,リバティ,0
2429,8050003008813,新規,0,2024-11-19,2024-11-19,合同会社ＨＲＫｓｔｙｌｅ,,合同会社,茨城県,水戸市,常磐町２丁目１－２０,,08,201,3100033,,,,,,,2024-11-19,1,,,,,エイチアールケースタイル,0
2431,8070001042382,新規,0,2024-11-19,2024-11-19,株式会社あいびー,,株式会社,群馬県,高崎市,旭町２６番地２,,10,202,3700052,,,,,,,2024-11-19,1,,,,,アイビー,0
2438,8080101025138,新規,0,2024-11-19,2024-11-19,ジャパンフード株式会社,,株式会社,静岡県,伊豆の国市,北江間１４７番地の１,,22,225,4102223,,,,,,,2024-11-19,1,,,,,,0
2446,8100003007859,新規,0,2024-11-19,2024-11-19,ＡＹソリューション合同会社,,合同会社,長野県,長野市,松代町東条２５９８番地１,,20,201,3811221,,,,,,,2024-11-19,1,,,,,エーワイソリューション,0
2447,8110001038855,新規,0,2024-11-19,2024-11-19,タクグラス株式会社,,株式会社,新潟県,西蒲原郡弥彦村,大字弥彦３０２２番地４,,15,342,9590323,,,,,,,2024-11-19,1,,,,,タクグラス,0
2459,8120001270341,新規,0,2024-11-19,2024-11-19,旭日株式会社,,株式会社,大阪府,大阪市東成区,玉津２丁目５番１４号パシフィック玉津１１６号室,,27,115,5370023,,,,,,,2024-11-19,1,,,,,アサヒ,0
2460,8120001270374,新規,0,2024-11-19,2024-11-19,ラソスメディカル株式会社,,株式会社,大阪府,大阪市生野区,鶴橋２丁目１６番８号永和薬品ビル１階,,27,116,5440031,,,,,,,2024-11-19,1,,,,,ラソスメディカル,0
2461,8120001270390,新規,0,2024-11-19,2024-11-19,宏澄株式会社,,株式会社,大阪府,大阪市生野区,巽中１丁目２１番３号博文ビル４０１Ｅ,00137066,27,116,5440013,,,,,,,2024-11-19,1,,,,,コウチョウ,0
2462,8120001270399,新規,0,2024-11-19,2024-11-19,株式会社ＲＥＧＡＬＯ,,株式会社,大阪府,大阪市北区,豊崎６丁目１０番８－７０６号,,27,127,5310072,,,,,,,2024-11-19,1,,,,,レガロ,0
2463,8120001270408,新規,0,2024-11-19,2024-11-19,珍利堂株式会社,,株式会社,大阪府,大阪市西成区,橘１丁目１番１２号,,27,122,5570051,,,,,,,2024-11-19,1,,,,,チンリドウ,0
2468,8120101070617,新規,0,2024-11-19,2024-11-19,株式会社ＩＳＳＥＩ,,株式会社,大阪府,堺市堺区,今池町６丁５－１７,,27,141,5900018,,,,,,,2024-11-19,1,,,,,イッセイ,0
2470,8120103006148,新規,0,2024-11-19,2024-11-19,合同会社ｂｌｅｓｓｉｎｇ,,合同会社,大阪府,松原市,天美東１丁目７０－５,,27,217,5800032,,,,,,,2024-11-19,1,,,,,ブレシング,0
2473,8120903005423,新規,0,2024-11-19,2024-11-19,Ｐｅｂｂｌｅ　Ｃｒｅａｔｉｖｅ合同会社,,合同会社,大阪府,高槻市,天神町１丁目８番１３号２階,,27,207,5691117,,,,,,,2024-11-19,1,,,,,ペブルクリエイティブ,0
2491,8140001136466,新規,0,2024-11-19,2024-11-19,株式会社Ｒｅｊｏｉｃｅ,,株式会社,兵庫県,川西市,下加茂１丁目３０番１２号３０２,,28,217,6660022,,,,,,,2024-11-19,1,,,,,リジョイス,0
2492,8140001136474,新規,0,2024-11-19,2024-11-19,猫ミント株式会社,,株式会社,兵庫県,神戸市兵庫区,上三条町１番２３号－２０３号室,,28,105,6520013,,,,,,,2024-11-19,1,,,,,ネコミント,0
2496,8140005027273,新規,0,2024-11-19,2024-11-19,一般社団法人日本終活支援機構,,その他の設立登記法人,兵庫県,神戸市中央区,港島中町６丁目２番１号神戸パークシティＣ－１Ｆ,,28,110,6500046,,,,,,,2024-11-19,1,,,,,ニホンシュウカツシエンキコウ,0
2498,8150003003408,新規,0,2024-11-19,2024-11-19,合同会社ＭｅｄＬａｗ,,合同会社,奈良県,生駒市,東旭ケ丘５番６号,,29,209,6300254,,,,,,,2024-11-19,1,,,,,メドロー,0
2499,8150005009642,新規,0,2024-11-19,2024-11-19,一般社団法人希明,,その他の設立登記法人,奈良県,大和郡山市,小泉町２８０１－６,,29,203,6391042,,,,,,,2024-11-19,1,,,,,ノア,0
2511,8180001164158,新規,0,2024-11-19,2024-11-19,株式会社冨田不動産,,株式会社,愛知県,名古屋市港区,小碓４丁目１５２番地,,23,111,4550801,,,,,,,2024-11-19,1,,,,,トミタフドウサン,0
2512,8180001164190,新規,0,2024-11-19,2024-11-19,ＴＲ　ＴＲＡＤＩＮＧ株式会社,,株式会社,愛知県,名古屋市南区,西又兵ヱ町３丁目５７番地大生荘２棟６０３号,,23,112,4570835,,,,,,,2024-11-19,1,,,,,ティーアールトレーディング,0
2513,8180001164199,新規,0,2024-11-19,2024-11-19,ＹＵＫＩＨＡＮＡ　ＣＭＳ株式会社,,株式会社,愛知県,名古屋市中区,栄２丁目１番１２号ダイアパレス伏見２０６号,,23,106,4600008,,,,,,,2024-11-19,1,,,,,ユキハナシーエムエス,0
2514,8180001164232,新規,0,2024-11-19,2024-11-19,株式会社たのしく,,株式会社,愛知県,半田市,更生町２丁目１５２番地１２,,23,205,4750856,,,,,,,2024-11-19,1,,,,,タノシク,0
2519,8180003027627,新規,0,2024-11-19,2024-11-19,合資会社ＴＲＵＳＴｂｏｎｄｓ,,合資会社,愛知県,清須市,西田中本城６３番地,,23,233,4520933,,,,,,,2024-11-19,1,,,,,トラストボンズ,0
2520,8180003027635,新規,0,2024-11-19,2024-11-19,ＣＨＥＭ‐ＢＡコンサルティング合同会社,,合同会社,愛知県,名古屋市西区,則武新町３丁目１－８６ザ・パークハウス名古屋１９１２号,,23,104,4510051,,,,,,,2024-11-19,1,,,,,ケムビーエーコンサルティング,0
2528,8190001031811,新規,0,2024-11-19,2024-11-19,株式会社いつみや木工,,株式会社,三重県,三重郡川越町,大字当新田６５６番地１,,24,344,5108111,,,,,,,2024-11-19,1,,,,,イツミヤモッコウ,0
2529,8190003004856,新規,0,2024-11-19,2024-11-19,合同会社ｒａｎｃｈ,,合同会社,三重県,桑名市,宮通３７番地,,24,205,5110082,,,,,,,2024-11-19,1,,,,,ランチ,0
2536,8240001064129,新規,0,2024-11-19,2024-11-19,株式会社カイエイ工業,,株式会社,広島県,福山市,駅家町近田１４３番地１（Ｂ１０１）,,34,207,7210000,,,,,,,2024-11-19,1,,,,,カイエイコウギョウ,0
2537,8240001064137,新規,0,2024-11-19,2024-11-19,佐羽商事株式会社,,株式会社,広島県,東広島市,黒瀬楢原東３丁目２９番３１号,00137062,34,212,7392628,,,,,,,2024-11-19,1,,,,,サワショウジ,0
2539,8240003006946,新規,0,2024-11-19,2024-11-19,合同会社キッズパス,,合同会社,広島県,広島市中区,紙屋町２丁目２番２号,,34,101,7300031,,,,,,,2024-11-19,1,,,,,キッズパス,0
2543,8250005008964,新規,0,2024-11-19,2024-11-19,山口県イベント出店者協同組合,,その他の設立登記法人,山口県,山口市,平井字上大道１０５０番地１,,35,203,7530831,,,,,,,2024-11-19,1,,,,,ヤマグチケンイベントシュッテンシャ,0
2551,8290001107972,新規,0,2024-11-19,2024-11-19,Ｖ　ｔｅｃｈｎｏｌｏｇｙ株式会社,,株式会社,福岡県,福岡市博多区,下川端町９－１５溝口ビル行の町テラス２０４,,40,132,8120027,,,,,,,2024-11-19,1,,,,,ブイテクノロジー,0
2552,8290001107997,新規,0,2024-11-19,2024-11-19,株式会社ドットベース,,株式会社,福岡県,大野城市,つつじケ丘５丁目２番７号,,40,219,8160962,,,,,,,2024-11-19,1,,,,,ドットベース,0
2553,8290001108021,新規,0,2024-11-19,2024-11-19,ＡＳＫ　ＪＡＰＡＮ株式会社,,株式会社,福岡県,筑紫野市,大字阿志岐２４８９番地８７,,40,217,8180011,,,,,,,2024-11-19,1,,,,,アスクジャパン,0
2554,8290001108038,新規,0,2024-11-19,2024-11-19,株式会社ｔｒｉａｎｇｌｅ,,株式会社,福岡県,福岡市中央区,谷１丁目１６番３－３０１号ライオンズマンション六本松,,40,133,8100031,,,,,,,2024-11-19,1,,,,,トライアングル,0
2561,8300001013979,新規,0,2024-11-19,2024-11-19,唐津興産株式会社,,株式会社,佐賀県,唐津市,八幡町７５３番地３７,,41,202,8470102,,,,,,,2024-11-19,1,,,,,カラツコウサン,0
2562,8320001020791,新規,0,2024-11-19,2024-11-19,株式会社ＷＡＤＡＩＫＵ,,株式会社,大分県,竹田市,大字竹田町４０５番地３ＴＨＥ３ＲＤ　ＰＬＡＣＥ　ＴＡＫＥＴＡ３０１,,44,208,8780012,,,,,,,2024-11-19,1,,,,,ワダイク,0
2565,8330001032662,新規,0,2024-11-19,2024-11-19,株式会社天橋,,株式会社,熊本県,上天草市,松島町合津３５４８番地２,,43,212,8616102,,,,,,,2024-11-19,1,,,,,アマハシ,0
2566,8340005009788,新規,0,2024-11-19,2024-11-19,一般社団法人かなえるＨＯＵＳＥ,,その他の設立登記法人,鹿児島県,鹿児島市,魚見町１３１番地９シャレードＩＩ２０２号,00137055,46,201,8910112,,,,,,,2024-11-19,1,,,,,カナエルハウス,0
2567,8350001019294,新規,0,2024-11-19,2024-11-19,Ａｖｏｎ株式会社,,株式会社,宮崎県,都城市,立野町３６７２番地５,,45,202,8850035,,,,,,,2024-11-19,1,,,,,エイヴォン,0
2570,8370005010859,新規,0,2024-11-19,2024-11-19,特定非営利活動法人ＦＯＲＥＳＴ　ＪＡＰＡＮ,,その他の設立登記法人,宮城県,仙台市宮城野区,福室字御蔵前二番７５番地の１,,04,102,9830005,,,,,,,2024-11-19,1,,,,,フォレストジャパン,0
2574,8390001017798,新規,0,2024-11-19,2024-11-19,株式会社ダブルケイワイ,,株式会社,山形県,天童市,東長岡１丁目３番６号,,06,210,9940063,,,,,,,2024-11-19,1,,,,,ダブルケイワイ,0
2583,8430001093100,新規,0,2024-11-19,2024-11-19,東日本イーステック株式会社,,株式会社,北海道,札幌市中央区,南四条西２１丁目２番１７－５０１号,,01,101,0640804,,,,,,,2024-11-19,1,,,,,ヒガシニホンイーステック,0
2591,8500001026003,新規,0,2024-11-19,2024-11-19,株式会社菊池自動車鈑金,,株式会社,愛媛県,西予市,三瓶町和泉甲６６０番地１,,38,214,7960906,,,,,,,2024-11-19,1,,,,,キクチジドウシャバンキン,0
2592,8700150127903,新規,0,2024-11-19,2024-11-19,竹上裕子事務所,,その他,愛知県,豊橋市,駅前大通３丁目２６番地　岡田ビル１階,,23,201,4400888,,,,,,,2024-11-19,1,,,,,タケガミユウコジムショ,0
2600,9010001249940,新規,0,2024-11-19,2024-11-19,株式会社Ｒａｖｉｓｓａｎｔｅ,,株式会社,東京都,千代田区,神田淡路町２丁目１０１番地ワテラスタワーレジデンス３６１１号,,13,101,1010063,,,,,,,2024-11-19,1,,,,,ラヴィソン,0
2601,9010001249957,新規,0,2024-11-19,2024-11-19,株式会社トラフィックニュース,,株式会社,東京都,中央区,銀座７丁目１７番８号銀座松良ビル３Ｆ,,13,102,1040061,,,,,,,2024-11-19,1,,,,,トラフィックニュース,0
2602,9010001249965,新規,0,2024-11-19,2024-11-19,株式会社ＮａｏｓｈｉＴＥ,,株式会社,東京都,千代田区,岩本町２丁目５番６号,,13,101,1010032,,,,,,,2024-11-19,1,,,,,ナオシテ,0
2603,9010001249998,新規,0,2024-11-19,2024-11-19,Ｊ＆Ｋ　ＪＡＰＡＮ株式会社,,株式会社,東京都,千代田区,神田須田町１丁目７番地８ＶＯＲＴ秋葉原ＩＶ２Ｆ,00137056,13,101,1010041,,,,,,,2024-11-19,1,,,,,ジェイアンドケイジャパン,0
2604,9010001250015,新規,0,2024-11-19,2024-11-19,エンデバー・ユナイテッド・パートナーズ・３７株式会社,,株式会社,東京都,千代田区,丸の内２丁目５番１号丸の内二丁目ビル６階,,13,101,1000005,,,,,,,2024-11-19,1,,,,,エンデバーユナイテッドパートナーズサーティーセブン,0
2605,9010001250023,新規,0,2024-11-19,2024-11-19,コスコシッピングジャパン・サプライチェーン株式会社,,株式会社,東京都,千代田区,霞が関３丁目２番１号,,13,101,1000013,,,,,,,2024-11-19,1,,,,,コスコシッピングジャパンサプライチェーン,0
2606,9010001250048,新規,0,2024-11-19,2024-11-19,株式会社ＴＥＣＨ　ＦＲＯＮＴ,,株式会社,東京都,千代田区,神田和泉町１番地６－１６ヤマトビル４０５,,13,101,1010024,,,,,,,2024-11-19,1,,,,,テックフロント,0
2607,9010001250080,新規,0,2024-11-19,2024-11-19,ＥＫＣアドバンスド・エレクトロニクス１ジャパン株式会社,,株式会社,東京都,千代田区,永田町２丁目１１番１号,,13,101,1000014,,,,,,,2024-11-19,1,,,,,イーケーシーアドバンスドエレクトロニクスワンジャパン,0
2648,9010003045479,新規,0,2024-11-19,2024-11-19,Ｋ‐Ｋ‐Ｋ合同会社,,合同会社,東京都,中央区,銀座１丁目１２番４号Ｎ＆ＥＢＬＤ．６Ｆ,,13,102,1040061,,,,,,,2024-11-19,1,,,,,ケーケーケー,0
2649,9010003045520,新規,0,2024-11-19,2024-11-19,合同会社Ｎｏｖｅｍｂｅｒ,,合同会社,東京都,中央区,晴海２丁目３番３０－４２１１号,,13,102,1040053,,,,,,,2024-11-19,1,,,,,ノベンバー,0
2652,9010005039116,新規,0,2024-11-19,2024-11-19,税理士法人大村・竹内税理士事務所,,その他の設立登記法人,東京都,文京区,本郷１丁目２５－５見学ビル６階,,13,105,1130033,,,,,,,2024-11-19,1,,,,,オオムラタケウチゼイリシジムショ,0
2653,9010005039132,新規,0,2024-11-19,2024-11-19,一般社団法人日本橋なに河岸,,その他の設立登記法人,東京都,中央区,日本橋茅場町２丁目４番１０号,,13,102,1030025,,,,,,,2024-11-19,1,,,,,ニホンバシナニガシ,0
2663,9010401186222,新規,0,2024-11-19,2024-11-19,株式会社Ｐｌｕｓ　Ｓｍｉｌｅ,,株式会社,東京都,港区,南青山１丁目１５番９号,,13,103,1070062,,,,,,,2024-11-19,1,,,,,プラススマイル,0
2673,9010601066281,新規,0,2024-11-19,2024-11-19,平上株式会社,,株式会社,東京都,江東区,牡丹２丁目９番１６－４１２号,,13,108,1350046,,,,,,,2024-11-19,1,,,,,ヒラカミ,0
2674,9010601066323,新規,0,2024-11-19,2024-11-19,株式会社ＴＣＹ,,株式会社,東京都,墨田区,向島５丁目１０番８－１０２号,,13,107,1310033,,,,,,,2024-11-19,1,,,,,ティーシーワイ,0
2681,9010801035581,新規,0,2024-11-19,2024-11-19,株式会社ユニバーサルピース,,株式会社,東京都,大田区,蒲田４丁目２８番９号,,13,111,1440052,,,,,,,2024-11-19,1,,,,,ユニバーサルピース,0
2683,9010905004697,新規,0,2024-11-19,2024-11-19,一般社団法人日本貿易機構,,その他の設立登記法人,東京都,世田谷区,太子堂４丁目４番１号,,13,112,1540004,,,,,,,2024-11-19,1,,,,,ニホンボウエキキコウ,0
2690,9011001165913,新規,0,2024-11-19,2024-11-19,ｍｉｎｉｃａｌ株式会社,,株式会社,東京都,渋谷区,道玄坂１丁目１０番８号渋谷道玄坂東急ビル２Ｆ－Ｃ,,13,113,1500043,,,,,,,2024-11-19,1,,,,,ミニカル,0
2695,9011101109472,新規,0,2024-11-19,2024-11-19,株式会社スリーシープ,,株式会社,東京都,新宿区,富久町８番１６号日神パレステージ市谷富久町６０３,,13,104,1620067,,,,,,,2024-11-19,1,,,,,スリーシープ,0
2696,9011101109571,新規,0,2024-11-19,2024-11-19,Ｈｕｎｉｔｅｄ株式会社,,株式会社,東京都,新宿区,河田町３番５１号,,13,104,1620054,,,,,,,2024-11-19,1,,,,,エイチユナイテッド,0
2697,9011101109596,新規,0,2024-11-19,2024-11-19,株式会社こふく,,株式会社,東京都,新宿区,西新宿３丁目３番１３号西新宿水間ビル２Ｆ,,13,104,1600023,,,,,,,2024-11-19,1,,,,,コフク,0
2698,9011101109621,新規,0,2024-11-19,2024-11-19,瑞吉コンサルティング株式会社,,株式会社,東京都,新宿区,新宿３丁目４番８号４階４２２号室,,13,104,1600022,,,,,,,2024-11-19,1,,,,,レジスコンサルティング,0
2699,9011103015181,新規,0,2024-11-19,2024-11-19,合同会社Ｄｉａｍｏｎｄ,,合同会社,東京都,新宿区,百人町１丁目２３番１７号大久保南口共同ビル,,13,104,1690073,,,,,,,2024-11-19,1,,,,,ダイヤモンド,0
2700,9011105011229,新規,0,2024-11-19,2024-11-19,一般社団法人日本セキュリティ心理学会,,その他の設立登記法人,東京都,新宿区,北新宿３丁目８番９号,,13,104,1690074,,,,,,,2024-11-19,1,,,,,ニホンセキュリティシンリガッカイ,0
2701,9011201025925,新規,0,2024-11-19,2024-11-19,株式会社ＲＯＨＥＮ,,株式会社,東京都,中野区,弥生町４丁目３４番５号,,13,114,1640013,,,,,,,2024-11-19,1,,,,,ローエン,0
2711,9011801045182,新規,0,2024-11-19,2024-11-19,株式会社プラストリーム,,株式会社,東京都,足立区,東伊興２丁目１３番９号,,13,121,1210801,,,,,,,2024-11-19,1,,,,,プラストリーム,0
2715,9012403006845,新規,0,2024-11-19,2024-11-19,ブルーバード合同会社,,合同会社,東京都,稲城市,大丸３８３番地の４,,13,225,2060801,,,,,,,2024-11-19,1,,,,,ブルーバード,0
2716,9012701018567,新規,0,2024-11-19,2024-11-19,福來株式会社,,株式会社,東京都,東村山市,青葉町３丁目２０番地４８,,13,213,1890002,,,,,,,2024-11-19,1,,,,,フクライ,0
2726,9020001160089,新規,0,2024-11-19,2024-11-19,株式会社Ｒｏｇｉ,,株式会社,神奈川県,川崎市麻生区,多摩美２丁目１５番１－４０１,,14,137,2150002,,,,,,,2024-11-19,1,,,,,ロギ,0
2727,9020001160114,新規,0,2024-11-19,2024-11-19,株式会社ＤＯＬＡ,,株式会社,神奈川県,横浜市保土ケ谷区,権太坂１丁目３１番１７号,,14,106,2400026,,,,,,,2024-11-19,1,,,,,ドーラ,0
2728,9020001160139,新規,0,2024-11-19,2024-11-19,株式会社ＳＰＳファクトリー,,株式会社,神奈川県,川崎市幸区,南加瀬２丁目２０番１号南加瀬ビル１０４,,14,132,2120055,,,,,,,2024-11-19,1,,,,,エスピイエスファクトリー,0
2729,9020001160147,新規,0,2024-11-19,2024-11-19,株式会社グランフィナーレ,,株式会社,神奈川県,横浜市中区,伊勢佐木町１丁目２番地５,,14,104,2310045,,,,,,,2024-11-19,1,,,,,グランフィナーレ,0
2737,9021001083800,新規,0,2024-11-19,2024-11-19,株式会社楓,,株式会社,神奈川県,足柄上郡松田町,松田庶子１１１５番地１,,14,363,2580004,,,,,,,2024-11-19,1,,,,,カエデ,0
2743,9021003015248,新規,0,2024-11-19,2024-11-19,懐湖屋合同会社,,合同会社,神奈川県,足柄下郡箱根町,箱根２４９番地の３,,14,382,2500521,,,,,,,2024-11-19,1,,,,,ナツコヤ,0
2753,9030001163520,新規,0,2024-11-19,2024-11-19,久喜資産管理株式会社,,株式会社,埼玉県,久喜市,除堀１０９９番地１,,11,232,3460027,,,,,,,2024-11-19,1,,,,,クキシサンカンリ,0
2754,9030001163529,新規,0,2024-11-19,2024-11-19,株式会社ミライエース,,株式会社,埼玉県,さいたま市桜区,西堀４丁目１１番７－６１２号,,11,106,3380832,,,,,,,2024-11-19,1,,,,,ミライエース,0
2762,9040001136203,新規,0,2024-11-19,2024-11-19,株式会社ＵｎｄｅｒＣｏｒｅ　ＩＴ,,株式会社,千葉県,千葉市中央区,中央２丁目５番１号千葉中央ツインビル２号館７階,,12,101,2600013,,,,,,,2024-11-19,1,,,,,アンダーコアアイティ,0
2763,9040001136211,新規,0,2024-11-19,2024-11-19,興佳工業株式会社,,株式会社,千葉県,松戸市,西馬橋幸町１１７番地ロザール松戸２１５号室,,12,207,2710047,,,,,,,2024-11-19,1,,,,,コウカコウギョウ,0
2765,9040003026220,新規,0,2024-11-19,2024-11-19,合同会社関東オート,,合同会社,千葉県,千葉市若葉区,金親町１８７番地５８,,12,104,2640001,,,,,,,2024-11-19,1,,,,,カントウオート,0
2769,9050003008812,新規,0,2024-11-19,2024-11-19,合同会社Ｌ＆Ｓ,,合同会社,茨城県,古河市,下山町１番３０号,,08,204,3060014,,,,,,,2024-11-19,1,,,,,エルアンドエス,0
2783,9080401027527,新規,0,2024-11-19,2024-11-19,株式会社ｉｌｌｕｍｉ,,株式会社,静岡県,浜松市中央区,有玉南町１８６７番地の１,,22,138,4313122,,,,,,,2024-11-19,1,,,,,イルミ,0
2787,9100001038054,新規,0,2024-11-19,2024-11-19,株式会社ズクトチエ八方,,株式会社,長野県,北安曇郡白馬村,大字北城１２１４７番地,,20,485,3999301,,,,,,,2024-11-19,1,,,,,ズクトチエハッポウ,0
2796,9120001270349,新規,0,2024-11-19,2024-11-19,明徳株式会社,00137054,株式会社,大阪府,大阪市西成区,太子２丁目４番１号４５６プラザ２Ｆ２０３,,27,122,5570002,,,,,,,2024-11-19,1,,,,,メイトク,0
2797,9120001270373,新規,0,2024-11-19,2024-11-19,株式会社Ｎｉｎｒｉｋｉ,,株式会社,大阪府,大阪市浪速区,下寺３丁目１番１８－２１２号,,27,111,5560001,,,,,,,2024-11-19,1,,,,,ニンリキ,0
2798,9120001270407,新規,0,2024-11-19,2024-11-19,新原株式会社,,株式会社,大阪府,大阪市西成区,橘１丁目１番１２号,,27,122,5570051,,,,,,,2024-11-19,1,,,,,シンゲン,0
2804,9120101070590,新規,0,2024-11-19,2024-11-19,Ｗｅｌｌｎｅｓｓ　Ｓｙｍｐｈｏｎｙ株式会社,,株式会社,大阪府,松原市,一津屋２丁目８番５号河内松原団地Ａ－５号棟２０３号室,,27,217,5800003,,,,,,,2024-11-19,1,,,,,ウェルネスシンフォニー,0
2805,9120101070608,新規,0,2024-11-19,2024-11-19,株式会社寿テラス,,株式会社,大阪府,松原市,南新町２丁目３番１０号,,27,217,5800023,,,,,,,2024-11-19,1,,,,,コトブキテラス,0
2806,9120101070616,新規,0,2024-11-19,2024-11-19,株式会社山野クレーン,,株式会社,大阪府,泉大津市,式内町１１番２８号,,27,206,5950035,,,,,,,2024-11-19,1,,,,,ヤマノクレーン,0
2809,9120103006147,新規,0,2024-11-19,2024-11-19,合同会社シータイガー小豆島,,合同会社,大阪府,和泉市,富秋町２丁目１０番２号,,27,219,5940082,,,,,,,2024-11-19,1,,,,,シータイガーショウドシマ,0
2810,9120901050049,新規,0,2024-11-19,2024-11-19,株式会社Ｍａｙａ,,株式会社,大阪府,高槻市,安岡寺町１丁目２６番１９号,,27,207,5691029,,,,,,,2024-11-19,1,,,,,マヤ,0
2814,9122003003042,新規,0,2024-11-19,2024-11-19,合同会社ＶＲ　ｇｒｏｕｐ　ｍｉｎｄ,,合同会社,大阪府,東大阪市,善根寺町６丁目１１番１４号,,27,227,5798001,,,,,,,2024-11-19,1,,,,,ブイアールグループマインド,0
2819,9130003010009,新規,0,2024-11-19,2024-11-19,Ａｎｔａｒｅｓ合同会社,,合同会社,京都府,京都市下京区,茶磨屋町２３６番地Ａ－Ｔｅｒｒａｃｅ４Ｂ,,26,106,6008045,,,,,,,2024-11-19,1,,,,,アンタレス,0
2826,9140001136440,新規,0,2024-11-19,2024-11-19,ＣＡＲ　ＨＵＢ株式会社,,株式会社,兵庫県,神戸市長田区,寺池町２丁目２番２号１０２室,,28,106,6530804,,,,,,,2024-11-19,1,,,,,カーハブ,0
2827,9140001136465,新規,0,2024-11-19,2024-11-19,アクアシャイン株式会社,,株式会社,兵庫県,丹波市,氷上町横田８４５番地２３,,28,223,6693465,,,,,,,2024-11-19,1,,,,,アクアシャイン,0
2828,9140001136473,新規,0,2024-11-19,2024-11-19,微盈株式会社,,株式会社,兵庫県,神戸市中央区,旭通１丁目２番１７－４Ｃ号室,,28,110,6510095,,,,,,,2024-11-19,1,,,,,ビエイ,0
2846,9180001164181,新規,0,2024-11-19,2024-11-19,株式会社Ｇｒａｔｉｓ,,株式会社,愛知県,津島市,愛宕町３丁目５２番地１－１１４号,,23,208,4960036,,,,,,,2024-11-19,1,,,,,グラティス,0
2847,9180001164215,新規,0,2024-11-19,2024-11-19,株式会社アイ・ショットプラスケイ,,株式会社,愛知県,名古屋市北区,城東町１丁目３１番地４ＮＡＧＯＹＡ・ｔｈｅ・ＣＡＳＴＬＥ・Ｓ１０３,,23,103,4620831,,,,,,,2024-11-19,1,,,,,アイショットプラスケイ,0
2848,9180001164223,新規,0,2024-11-19,2024-11-19,株式会社中村芸能プロダクション,,株式会社,愛知県,名古屋市中区,新栄３丁目１４番３３号,,23,106,4600007,,,,,,,2024-11-19,1,,,,,ナカムラゲイノウプロダクション,0
2849,9180001164231,新規,0,2024-11-19,2024-11-19,株式会社トライアス,,株式会社,愛知県,清須市,西堀江１３８７番地,,23,233,4520917,,,,,,,2024-11-19,1,,,,,トライアス,0
2854,9180303006346,新規,0,2024-11-19,2024-11-19,合同会社ＳＡＶＯＸ　ＪＡＰＡＮ,,合同会社,愛知県,岡崎市,大和町字家下３８番地,,23,202,4440931,,,,,,,2024-11-19,1,,,,,サボックスジャパン,0
2857,9200001043143,新規,0,2024-11-19,2024-11-19,株式会社アルク製工,,株式会社,岐阜県,加茂郡富加町,羽生１４２８番地２,,21,502,5013303,,,,,,,2024-11-19,1,,,,,アルクセイコウ,0
2864,9240003006945,新規,0,2024-11-19,2024-11-19,合同会社イートウェル西日本,,合同会社,広島県,広島市安佐南区,緑井３丁目１０番８―２０３号,,34,105,7310103,,,,,,,2024-11-19,1,,,,,イートウェルニシニホン,0
2877,9290001107947,新規,0,2024-11-19,2024-11-19,株式会社Ｓｅｌｆ　Ｍａｋｅ,,株式会社,福岡県,春日市,紅葉ヶ丘西６丁目１番地１コモンシティ紅葉ヶ丘西Ｂ棟２０２号,,40,218,8160832,,,,,,,2024-11-19,1,,,,,セルフメイク,0
2878,9290001108012,新規,0,2024-11-19,2024-11-19,株式会社つる薬局,,株式会社,福岡県,飯塚市,下三緒１２６８－５,,40,205,8200012,,,,,,,2024-11-19,1,,,,,ツルヤッキョク,0
2879,9290001108029,新規,0,2024-11-19,2024-11-19,株式会社ＳＫＲ,,株式会社,福岡県,福岡市中央区,今泉１丁目１９番１５号,,40,133,8100021,,,,,,,2024-11-19,1,,,,,エスケーアール,0
2880,9290001108037,新規,0,2024-11-19,2024-11-19,株式会社サンナン,,株式会社,福岡県,糸島市,高田４丁目１５番３８号,,40,230,8191102,,,,,,,2024-11-19,1,,,,,サンナン,0
2881,9290001108045,新規,0,2024-11-19,2024-11-19,株式会社フリカケ,,株式会社,福岡県,福岡市中央区,天神２丁目３番１０号天神パインクレスト７１９号,,40,133,8100001,,,,,,,2024-11-19,1,,,,,フリカケ,0
2886,9310003004900,新規,0,2024-11-19,2024-11-19,合同会社福久暖,,合同会社,長崎県,長崎市,宮崎町１８６番地１,,42,201,8510408,,,,,,,2024-11-19,1,,,,,フクハル,0
2887,9330001032661,新規,0,2024-11-19,2024-11-19,株式会社福田ファーム,,株式会社,熊本県,熊本市南区,富合町木原７０４番地,,43,104,8614153,,,,,,,2024-11-19,1,,,,,フクダファーム,0
2889,9350001019293,新規,0,2024-11-19,2024-11-19,株式会社ＨＡＤＩモータース,,株式会社,宮崎県,都城市,高崎町大牟田１８７７番地３２,,45,202,8894505,,,,,,,2024-11-19,1,,,,,ハディモータース,0
2893,9360001034449,新規,0,2024-11-19,2024-11-19,株式会社Ｂａｓｅ　Ｄｏｇｓ,,株式会社,沖縄県,糸満市,字兼城７２４ポルトパレ３０６,,47,210,9010303,,,,,,,2024-11-19,1,,,,,ベースドッグス,0
2896,9360003014465,新規,0,2024-11-19,2024-11-19,合同会社Ｍｕｓｉｃ　Ｌａｂｏ２６,,合同会社,沖縄県,中頭郡北谷町,美浜２丁目５番地７プレミスト美浜１１０５,,47,326,9040115,,,,,,,2024-11-19,1,,,,,ミュージックラボトゥエンティシックス,0
2900,9390001017797,新規,0,2024-11-19,2024-11-19,株式会社ＴＦＣ,,株式会社,山形県,天童市,芳賀タウン北３丁目６番３号,,06,210,9940082,,,,,,,2024-11-19,1,,,,,ティエフシ,0
2901,9400003003348,新規,0,2024-11-19,2024-11-19,合同会社Ｒｅａｃｔ,,合同会社,岩手県,盛岡市,中央通３丁目１４番４号,,03,201,0200021,,,,,,,2024-11-19,1,,,,,リアクト,0
2904,9430003017007,新規,0,2024-11-19,2024-11-19,合同会社スポカル,,合同会社,北海道,札幌市白石区,中央一条５丁目１番１５－３０１,,01,104,0030011,,,,,,,2024-11-19,1,,,,,スポカル,0
2905,9440003001645,新規,0,2024-11-19,2024-11-19,合同会社幸治,,合同会社,北海道,函館市,若松町３４番８－９０５号,,01,202,0400063,,,,,,,2024-11-19,1,,,,,コウジ,0
2908,9470001020470,新規,0,2024-11-19,2024-11-19,株式会社ＰＲＯＵＤ　ＨＯＲＳＥ,,株式会社,香川県,高松市,西ハゼ町１３１番地１,,37,201,7618053,,,,,,,2024-11-19,1,,,,,プラウドホース,0
2913,9700150127902,新規,0,2024-11-19,2024-11-19,竹上ゆうこ後援会,,その他,愛知県,豊橋市,駅前大通３丁目２６番地　岡田ビル１階,,23,201,4400888,,,,,,,2024-11-19,1,,,,,タケガミユウココウエンカイ,0
