sequenceNumber,corporateNumber,process,correct,updateDate,changeDate,name,nameImageId,kind,prefectureName,cityName,streetNumber,addressImageId,prefectureCode,cityCode,postCode,addressOutside,addressOutsideImageId,closeDate,closeCause,successorCorporateNumber,changeCause,assignmentDate,latest,enName,enPrefectureName,enCityName,enAddressOutside,furigana,hihyoji
6,1010001243430,新規,0,2024-03-28,2024-03-28,株式会社ＡＳＵＲＸ,,株式会社,東京都,文京区,本郷５丁目１－１１ＫＩＩＨＯＵＳＥ２０２,,13,105,1130033,,,,,,,2024-03-28,1,,,,,アシュリックス,0
7,1010001243471,新規,0,2024-03-28,2024-03-28,株式会社日東,,株式会社,東京都,中央区,新富１丁目１２番４号,,13,102,1040041,,,,,,,2024-03-28,1,,,,,ニットウ,0
8,1010001243488,新規,0,2024-03-28,2024-03-28,株式会社ＮＧＮ,,株式会社,東京都,中央区,銀座１丁目２２番１１号銀座大竹ビジデンス２Ｆ,,13,102,1040061,,,,,,,2024-03-28,1,,,,,エヌジーエヌ,0
9,1010001243496,新規,0,2024-03-28,2024-03-28,シー・シックス・セブン株式会社,,株式会社,東京都,千代田区,丸の内１丁目４番１号,,13,101,1000005,,,,,,,2024-03-28,1,,,,,シーシックスセブン,0
10,1010001243505,新規,0,2024-03-28,2024-03-28,株式会社カネシン,,株式会社,東京都,千代田区,神田佐久間町１丁目８番４号アルテール秋葉原７０８,,13,101,1010025,,,,,,,2024-03-28,1,,,,,カネシン,0
11,1010005038100,新規,0,2024-03-28,2024-03-28,ＧＬＰ白井３特定目的会社,,その他の設立登記法人,東京都,中央区,八重洲２丁目２番１号,,13,102,1040028,,,,,,,2024-03-28,1,,,,,ジーエルピーシロイスリー,0
18,1010401181338,新規,0,2024-03-28,2024-03-28,株式会社ＥＶＥＲＳＯＭＥ,,株式会社,東京都,港区,北青山１丁目３番１号アールキューブ青山３階,,13,103,1070061,,,,,,,2024-03-28,1,,,,,エバーソーム,0
19,1010401181346,新規,0,2024-03-28,2024-03-28,株式会社Ｓｕｍｉｎｏ　Ｐｉａｎｏ　Ａｃａｄｅｍｙ,,株式会社,東京都,港区,海岸３丁目２４番１８号３０１,,13,103,1080022,,,,,,,2024-03-28,1,,,,,スミノピアノアカデミー,0
20,1010401181354,新規,0,2024-03-28,2024-03-28,株式会社ハママツ,,株式会社,東京都,港区,浜松町２丁目４番１号世界貿易センタービルディング南館１１階,,13,103,1050013,,,,,,,2024-03-28,1,,,,,ハママツ,0
21,1010401181362,新規,0,2024-03-28,2024-03-28,株式会社ＳｙｓｔｅｍＳ,,株式会社,東京都,港区,南青山３丁目１５番９号ｍｉｎｏｗａ表参道３階,,13,103,1070062,,,,,,,2024-03-28,1,,,,,システムエス,0
22,1010401181370,新規,0,2024-03-28,2024-03-28,株式会社フェニックス・イノベーション,,株式会社,東京都,港区,東麻布２丁目２２番５号,,13,103,1060044,,,,,,,2024-03-28,1,,,,,フェニックスイノベーション,0
25,1010403032274,新規,0,2024-03-28,2024-03-28,合同会社ステッチネットワーク,,合同会社,東京都,港区,南青山２丁目２番１５号,,13,103,1070062,,,,,,,2024-03-28,1,,,,,ステッチネットワーク,0
26,1010403032282,新規,0,2024-03-28,2024-03-28,合同会社Ｋｉｎｇｍａｎ,,合同会社,東京都,港区,虎ノ門１丁目１番１８号ヒューリック虎ノ門ビル９階Ｌ＆Ｐ司法書士法人内,,13,103,1050001,,,,,,,2024-03-28,1,,,,,キングマン,0
27,1010403032308,新規,0,2024-03-28,2024-03-28,Ｍｏｒｅ　Ｇｏｏｄ合同会社,,合同会社,東京都,港区,浜松町２丁目２番１５号浜松町ダイヤビル２Ｆ,,13,103,1050013,,,,,,,2024-03-28,1,,,,,モアグッド,0
31,1010603010732,新規,0,2024-03-28,2024-03-28,源合同会社,,合同会社,東京都,墨田区,八広１丁目１６番２６号,,13,107,1310041,,,,,,,2024-03-28,1,,,,,ゲン,0
32,1010701045746,新規,0,2024-03-28,2024-03-28,株式会社クリークス,,株式会社,東京都,品川区,東五反田１丁目２３番７号,,13,109,1410022,,,,,,,2024-03-28,1,,,,,クリークス,0
34,1010703007100,新規,0,2024-03-28,2024-03-28,合同会社Ｉ　Ｂｅ,,合同会社,東京都,品川区,上大崎２丁目１８－２５目黒三田フラワーマンション５０９,,13,109,1410021,,,,,,,2024-03-28,1,,,,,アイビー,0
35,1010803004889,新規,0,2024-03-28,2024-03-28,ＡＬＬ　ＰＯＴ合同会社,,合同会社,東京都,大田区,蒲田本町２丁目６－４,,13,111,1440053,,,,,,,2024-03-28,1,,,,,オールポット,0
41,1011001160954,新規,0,2024-03-28,2024-03-28,キャンビーエッジ株式会社,,株式会社,東京都,渋谷区,恵比寿西２丁目８番４号ＥＸ恵比寿西ビル５階,,13,113,1500021,,,,,,,2024-03-28,1,,,,,キャンビーエッジ,0
42,1011003018795,新規,0,2024-03-28,2024-03-28,合同会社ＣＨＲＯＭＡ,,合同会社,東京都,渋谷区,恵比寿南３丁目１番８号Ｂ１階,,13,113,1500022,,,,,,,2024-03-28,1,,,,,クロマ,0
43,1011003018804,新規,0,2024-03-28,2024-03-28,合同会社ＴＯＰＡＺ,,合同会社,東京都,渋谷区,恵比寿西１丁目２０番６号,,13,113,1500021,,,,,,,2024-03-28,1,,,,,トパーズ,0
45,1011101106700,新規,0,2024-03-28,2024-03-28,株式会社ＧＥＮＵＩＮＥＮＥＳＳ　ＪＡＰＡＮ,,株式会社,東京都,新宿区,新宿５丁目１４番１２号天翔オフィス新宿三丁目５０５号室,,13,104,1600022,,,,,,,2024-03-28,1,,,,,ジェニュインネスジャパン,0
50,1011303005106,新規,0,2024-03-28,2024-03-28,キーノート合同会社,,合同会社,東京都,杉並区,高円寺南２丁目１６番１３号,,13,115,1660003,,,,,,,2024-03-28,1,,,,,キーノート,0
59,1011501030459,新規,0,2024-03-28,2024-03-28,株式会社グロース,,株式会社,東京都,北区,中里１丁目８番３号駒込ＭＳビル４０１号,,13,117,1140015,,,,,,,2024-03-28,1,,,,,グロース,0
63,1011803006149,新規,0,2024-03-28,2024-03-28,合同会社ｙ‐ｐｒｏｃｅｓｓ,,合同会社,東京都,足立区,舎人５丁目５番２０－２０３号,,13,121,1210831,,,,,,,2024-03-28,1,,,,,ワイプロセス,0
65,1012401041686,新規,0,2024-03-28,2024-03-28,コクシネル株式会社,,株式会社,東京都,調布市,多摩川５丁目１０番地３グランドコンシェルジュ南調布３０５,,13,208,1820025,,,,,,,2024-03-28,1,,,,,コクシネル,0
67,1012801023061,新規,0,2024-03-28,2024-03-28,株式会社ＥＸ,,株式会社,東京都,東大和市,立野１丁目１４番地の５ボンアージュ１０２,,13,220,2070021,,,,,,,2024-03-28,1,,,,,イーエックス,0
74,1020001156482,新規,0,2024-03-28,2024-03-28,株式会社チャームプランニング,,株式会社,神奈川県,横浜市保土ケ谷区,藤塚町６番２１号,,14,106,2400031,,,,,,,2024-03-28,1,,,,,チャームプランニング,0
79,1020003025768,新規,0,2024-03-28,2024-03-28,合同会社マナビメイト,,合同会社,神奈川県,横浜市西区,浅間町１丁目４番３号ウィザードビル４０２,,14,103,2200072,,,,,,,2024-03-28,1,,,,,マナビメイト,0
88,1030001075269,新規,0,2024-03-28,2024-03-28,株式会社信栄工務店,,株式会社,埼玉県,川口市,元郷６丁目１８番１７号,,11,203,3320011,,,,,,,2024-03-28,1,,,,,シンエイコウムテン,0
90,1030001159476,新規,0,2024-03-28,2024-03-28,モリタ建設興業株式会社,,株式会社,埼玉県,入間市,扇台５丁目１０番５号,,11,225,3580023,,,,,,,2024-03-28,1,,,,,モリタケンセツコウギョウ,0
95,1040001132886,新規,0,2024-03-28,2024-03-28,株式会社ＴＯＯ　ＢＯＷ,,株式会社,千葉県,習志野市,本大久保２丁目６番１８号,,12,216,2750012,,,,,,,2024-03-28,1,,,,,ツーボー,0
100,1040003024628,新規,0,2024-03-28,2024-03-28,ＬＤ　ＭＯＴＯＲＳ合同会社,,合同会社,千葉県,山武市,白幡１３２１番地４２,,12,237,2891306,,,,,,,2024-03-28,1,,,,,エルディーモータース,0
102,1050001054519,新規,0,2024-03-28,2024-03-28,株式会社はなまるＢＡＳＥ,,株式会社,茨城県,結城郡八千代町,大字菅谷１１７０番地,,08,521,3003572,,,,,,,2024-03-28,1,,,,,ハナマルベース,0
111,1070003005328,新規,0,2024-03-28,2024-03-28,ＳＨＩＦＴ合同会社,,合同会社,群馬県,高崎市,和田多中町４６８ＴＨＥ、ＨＩＲＩＮ、ＧＡＲＤＥＮ、Ｅ,,10,202,3700844,,,,,,,2024-03-28,1,,,,,,0
114,1090001018619,新規,0,2024-03-28,2024-03-28,株式会社富士日本,,株式会社,山梨県,南都留郡忍野村,内野２００６番地,,19,424,4010512,,,,,,,2024-03-28,1,,,,,フジニッポン,0
115,1100001037328,新規,0,2024-03-28,2024-03-28,株式会社はじめ電工,,株式会社,長野県,安曇野市,豊科１１６番地３,,20,220,3998205,,,,,,,2024-03-28,1,,,,,ハジメデンコウ,0
120,1120001263104,新規,0,2024-03-28,2024-03-28,ＬＩＴＴＬＥ　ＳＫＹ株式会社,,株式会社,大阪府,大阪市福島区,福島７丁目４番２２－３０３号,,27,103,5530003,,,,,,,2024-03-28,1,,,,,リトルスカイ,0
121,1120001263277,新規,0,2024-03-28,2024-03-28,株式会社Ｒ‐Ｃｏｍｐａｎｙ．,,株式会社,大阪府,枚方市,磯島元町２番９号,,27,210,5731187,,,,,,,2024-03-28,1,,,,,アールカンパニー,0
123,1120001263491,新規,0,2024-03-28,2024-03-28,日升株式会社,,株式会社,大阪府,大阪市中央区,島之内２丁目２－２０－３０１号室,,27,128,5420082,,,,,,,2024-03-28,1,,,,,ニッショウ,0
124,1120001263517,新規,0,2024-03-28,2024-03-28,ＡＤＯＡＭＯＵＲ株式会社,,株式会社,大阪府,大阪市西区,九条１丁目２１－３,,27,106,5500027,,,,,,,2024-03-28,1,,,,,アドアムール,0
125,1120001263541,新規,0,2024-03-28,2024-03-28,林泉株式会社,,株式会社,大阪府,大阪市生野区,中川３丁目４番１７号２１０号室,,27,116,5440005,,,,,,,2024-03-28,1,,,,,リンセン,0
130,1120103005750,新規,0,2024-03-28,2024-03-28,合同会社ＨａｈａＮａｎａ,,合同会社,大阪府,泉南郡熊取町,朝代東４丁目５番２３号,,27,361,5900457,,,,,,,2024-03-28,1,,,,,ハハナナ,0
131,1120105009840,新規,0,2024-03-28,2024-03-28,ＮＰＯ法人虹,,その他の設立登記法人,大阪府,泉南市,信達牧野１０００－７１－Ｂ１０１,,27,228,5900522,,,,,,,2024-03-28,1,,,,,ニジ,0
137,1130001076686,新規,0,2024-03-28,2024-03-28,参意経株式会社,,株式会社,京都府,京都市伏見区,深草極楽寺町７２番地１０,,26,109,6120886,,,,,,,2024-03-28,1,,,,,シンイケイ,0
146,1140001133858,新規,0,2024-03-28,2024-03-28,チェリーブロッサムガーデン株式会社,,株式会社,兵庫県,高砂市,阿弥陀町北池２９５番地の１,,28,216,6760825,,,,,,,2024-03-28,1,,,,,チェリーブロッサムガーデン,0
147,1140001133890,新規,0,2024-03-28,2024-03-28,株式会社ＳＡＤＡ,,株式会社,兵庫県,明石市,貴崎３丁目２２番４号,,28,203,6730037,,,,,,,2024-03-28,1,,,,,サダ,0
149,1140005026991,新規,0,2024-03-28,2024-03-28,特定非営利活動法人地域見守りネットＳｅｒｖｅ,,その他の設立登記法人,兵庫県,伊丹市,大鹿５丁目４４番地,,28,207,6640899,,,,,,,2024-03-28,1,,,,,チイキミマモリネットサーブ,0
152,1160001025780,新規,0,2024-03-28,2024-03-28,株式会社エレット,,株式会社,滋賀県,高島市,安曇川町西万木４１９番地１,,25,212,5201212,,,,,,,2024-03-28,1,,,,,エレット,0
160,1180001160691,新規,0,2024-03-28,2024-03-28,株式会社今非,,株式会社,愛知県,名古屋市守山区,桔梗平１丁目２００２番地の８,,23,113,4630814,,,,,,,2024-03-28,1,,,,,イマヒ,0
161,1180001160709,新規,0,2024-03-28,2024-03-28,株式会社サングランツ,,株式会社,愛知県,名古屋市港区,名港２丁目１番４号,,23,111,4550037,,,,,,,2024-03-28,1,,,,,サングランツ,0
164,1180005020561,新規,0,2024-03-28,2024-03-28,一般社団法人スーパー耐久未来機構,,その他の設立登記法人,愛知県,名古屋市中村区,名駅４丁目７番１号,,23,105,4500002,,,,,,,2024-03-28,1,,,,,スーパータイキュウミライキコウ,0
170,1180301038464,新規,0,2024-03-28,2024-03-28,みはたま株式会社,,株式会社,愛知県,豊田市,東大林町岩本２９番地３,,23,211,4443261,,,,,,,2024-03-28,1,,,,,ミハタマ,0
171,1190001031215,新規,0,2024-03-28,2024-03-28,マルトシ株式会社,,株式会社,三重県,度会郡大紀町,錦８０８番地の１３,,24,471,5192911,,,,,,,2024-03-28,1,,,,,マルトシ,0
175,1200003006279,新規,0,2024-03-28,2024-03-28,合同会社大久保自動車鈑金店,,合同会社,岐阜県,高山市,国府町金桶２３６番地１,,21,203,5094123,,,,,,,2024-03-28,1,,,,,オオクボジドウシャバンキンテン,0
177,1240005015753,新規,0,2024-03-28,2024-03-28,一般社団法人ＰＥＡＣＥアスリートクラブ,,その他の設立登記法人,広島県,広島市中区,大手町１丁目１番２６号大手町一番ビル３０５,,34,101,7300051,,,,,,,2024-03-28,1,,,,,ピースアスリートクラブ,0
184,1290001105256,新規,0,2024-03-28,2024-03-28,株式会社ＳＫシンキ,,株式会社,福岡県,福岡市中央区,天神５丁目１番１５－３０７号,,40,133,8100001,,,,,,,2024-03-28,1,,,,,エスケイシンキ,0
187,1290003015123,新規,0,2024-03-28,2024-03-28,合同会社Ｒｅｌａｘｔａｒ,,合同会社,福岡県,福岡市博多区,古門戸町８番７－５０１号エステムプラザ天神ＥＡＳＴプレミアムタワー,,40,132,8120029,,,,,,,2024-03-28,1,,,,,リラックスター,0
188,1290003015131,新規,0,2024-03-28,2024-03-28,ＨＰ合同会社,,合同会社,福岡県,福岡市博多区,千代２丁目４番２３－４１０号,,40,132,8120044,,,,,,,2024-03-28,1,,,,,エイチピー,0
190,1290005019329,新規,0,2024-03-28,2024-03-28,一般社団法人ＦＩＲＥＳＴＡＲＴＥＲＺ,,その他の設立登記法人,福岡県,糸島市,泊６４７番地２,,40,230,8191111,,,,,,,2024-03-28,1,,,,,ファイアースターターズ,0
193,1290803004663,新規,0,2024-03-28,2024-03-28,鵬程貿易合同会社,,合同会社,福岡県,北九州市小倉北区,片野３丁目１１番１－２０３号室,,40,106,8020064,,,,,,,2024-03-28,1,,,,,ホウテイボウエキ,0
206,1340005009712,新規,0,2024-03-28,2024-03-28,一般社団法人ＧＯ　ＵＰ　ＫＡＧＯＳＨＩＭＡ,,その他の設立登記法人,鹿児島県,鹿児島市,与次郎２丁目５番１２号,,46,201,8900062,,,,,,,2024-03-28,1,,,,,ゴーアップカゴシマ,0
212,1350001018864,新規,0,2024-03-28,2024-03-28,ＣｙＬ．株式会社,,株式会社,宮崎県,宮崎市,橘通西３丁目１０番地４０中めがねタワービル７階,,45,201,8800001,,,,,,,2024-03-28,1,,,,,サイル,0
222,1360003013838,新規,0,2024-03-28,2024-03-28,合同会社有村,,合同会社,沖縄県,宮古島市,上野字宮国６０８番地３,,47,214,9060203,,,,,,,2024-03-28,1,,,,,アリムラ,0
223,1370001051104,新規,0,2024-03-28,2024-03-28,千馬未来技研株式会社,,株式会社,宮城県,仙台市太白区,八木山南４丁目７番地の８,,04,104,9820807,,,,,,,2024-03-28,1,,,,,センバイミライギケン,0
225,1380001034396,新規,0,2024-03-28,2024-03-28,株式会社東北フィクス,,株式会社,福島県,郡山市,喜久田町字菖蒲池２２番地１０８,,07,203,9630551,,,,,,,2024-03-28,1,,,,,トウホクフィクス,0
230,1430005014942,新規,0,2024-03-28,2024-03-28,一般社団法人日本未来信託コンサルタント協会,,その他の設立登記法人,北海道,苫小牧市,表町１丁目３番４号大東ビル１階,,01,213,0530022,,,,,,,2024-03-28,1,,,,,ニホンミライシンタクコンサルタントキョウカイ,0
236,1480001012425,新規,0,2024-03-28,2024-03-28,株式会社ＤＴＴメディカル,,株式会社,徳島県,吉野川市,鴨島町内原２５９番地,,36,205,7760003,,,,,,,2024-03-28,1,,,,,ディーティーティ,0
247,2010001243446,新規,0,2024-03-28,2024-03-28,Ｈｉｇｈ　Ｇａｒｄｅｎ株式会社,,株式会社,東京都,文京区,白山１丁目２５番１４号－６０１,,13,105,1130001,,,,,,,2024-03-28,1,,,,,ハイガーデン,0
248,2010001243462,新規,0,2024-03-28,2024-03-28,ＳｈｏｗＤｏｗｎＧｒｏｕｐ株式会社,,株式会社,東京都,中央区,築地２丁目１０番２号ＪＰＢＡＳＥ３階,,13,102,1040045,,,,,,,2024-03-28,1,,,,,ショウダウングループ,0
249,2010001243479,新規,0,2024-03-28,2024-03-28,株式会社Ｌｉｎｋ‐Ｕ　Ｍａｒｋｅｔｉｎｇ,,株式会社,東京都,千代田区,外神田２丁目２番３号,,13,101,1010021,,,,,,,2024-03-28,1,,,,,リンクユーマーケティング,0
250,2010001243529,新規,0,2024-03-28,2024-03-28,株式会社１６‐ＥＤＩＴ,,株式会社,東京都,文京区,湯島３丁目２番１４－１３１９号,,13,105,1130034,,,,,,,2024-03-28,1,,,,,イチロクエディット,0
252,2010003043299,新規,0,2024-03-28,2024-03-28,合同会社照輝,,合同会社,東京都,文京区,小石川４丁目５番２川幡ビル２０１号,,13,105,1120002,,,,,,,2024-03-28,1,,,,,ショウキ,0
253,2010003043332,新規,0,2024-03-28,2024-03-28,スターダスト合同会社,,合同会社,東京都,中央区,銀座１丁目９番１２号西山興業東銀座ビル４Ｆ,,13,102,1040061,,,,,,,2024-03-28,1,,,,,スターダスト,0
257,2010005038099,新規,0,2024-03-28,2024-03-28,ＧＬＰ白井２特定目的会社,,その他の設立登記法人,東京都,中央区,八重洲２丁目２番１号,,13,102,1040028,,,,,,,2024-03-28,1,,,,,ジーエルピーシロイツー,0
262,2010401181188,新規,0,2024-03-28,2024-03-28,株式会社ゼファーテック,,株式会社,東京都,港区,浜松町２丁目２番１５号浜松町ダイヤビル２Ｆ,,13,103,1050013,,,,,,,2024-03-28,1,,,,,ゼファーテック,0
263,2010401181205,新規,0,2024-03-28,2024-03-28,株式会社フラメル,,株式会社,東京都,港区,六本木２丁目４番１２号,,13,103,1060032,,,,,,,2024-03-28,1,,,,,フラメル,0
264,2010401181337,新規,0,2024-03-28,2024-03-28,株式会社ＣＡＳＴＡＬＫ,,株式会社,東京都,港区,六本木１丁目４番５号アークヒルズサウス１６階,,13,103,1060032,,,,,,,2024-03-28,1,,,,,キャストーク,0
265,2010401181361,新規,0,2024-03-28,2024-03-28,株式会社ハートビーツ,,株式会社,東京都,港区,北青山１丁目３番１号アールキューブ青山３階,,13,103,1070061,,,,,,,2024-03-28,1,,,,,ハートビーツ,0
268,2010601064903,新規,0,2024-03-28,2024-03-28,株式会社小谷田架設,,株式会社,東京都,江東区,大島５丁目１２番１２－１０４号,,13,108,1360072,,,,,,,2024-03-28,1,,,,,コヤタカセツ,0
269,2010601064911,新規,0,2024-03-28,2024-03-28,バルブテクノロジー株式会社,,株式会社,東京都,江東区,深川１丁目３番１１号,,13,108,1350033,,,,,,,2024-03-28,1,,,,,バルブテクノロジー,0
274,2010701045761,新規,0,2024-03-28,2024-03-28,ＨＯＲＩＺＯＮ株式会社,,株式会社,東京都,品川区,西品川１丁目２２番１７号,,13,109,1410033,,,,,,,2024-03-28,1,,,,,ホライゾン,0
278,2010805003104,新規,0,2024-03-28,2024-03-28,特定非営利活動法人どこでもオリヒメ,,その他の設立登記法人,東京都,大田区,南六郷２丁目５番１０号サンアイランドビル１０２号室,,13,111,1440045,,,,,,,2024-03-28,1,,,,,ドコデモオリヒメ,0
280,2010901054959,新規,0,2024-03-28,2024-03-28,株式会社ＮＩＫＯ,,株式会社,東京都,世田谷区,北烏山１丁目５２番６号,,13,112,1570061,,,,,,,2024-03-28,1,,,,,ニコー,0
288,2011003018745,新規,0,2024-03-28,2024-03-28,Ｂｅ　Ｅｒａ合同会社,,合同会社,東京都,渋谷区,道玄坂１丁目１０番８号渋谷道玄坂東急ビル２Ｆ－Ｃ,,13,113,1500043,,,,,,,2024-03-28,1,,,,,ビーエラ,0
289,2011003018811,新規,0,2024-03-28,2024-03-28,ロケット団合同会社,,合同会社,東京都,渋谷区,恵比寿西２丁目８番４号ＥＸ恵比寿西ビル５階,,13,113,1500021,,,,,,,2024-03-28,1,,,,,ロケットダン,0
292,2011101106699,新規,0,2024-03-28,2024-03-28,今コンサルティング株式会社,,株式会社,東京都,新宿区,西新宿３丁目３番１３号西新宿水間ビル６階,,13,104,1600023,,,,,,,2024-03-28,1,,,,,イマコンサルティング,0
297,2011401025962,新規,0,2024-03-28,2024-03-28,株式会社丸和創建,,株式会社,東京都,板橋区,赤塚４丁目３９番３３－３１０号,,13,119,1750092,,,,,,,2024-03-28,1,,,,,マルワソウケン,0
298,2011501030466,新規,0,2024-03-28,2024-03-28,株式会社ｆａｎｆｒｏｎｔ,,株式会社,東京都,北区,十条仲原２丁目１０番８号Ｓｏｌａｒｉｓ－１０４号,,13,117,1140031,,,,,,,2024-03-28,1,,,,,ファンフロント,0
300,2011701027155,新規,0,2024-03-28,2024-03-28,株式会社Ｌｉｆｅ　Ｃｏｎｃｅｐｔｉｏｎ,,株式会社,東京都,江戸川区,瑞江２丁目４－３プラウド瑞江５０１,,13,123,1320011,,,,,,,2024-03-28,1,,,,,ライフコンセプション,0
309,2013301052260,新規,0,2024-03-28,2024-03-28,株式会社スーパーハムスター,,株式会社,東京都,豊島区,西池袋２丁目３９－１１英興ビル２階,,13,116,1710021,,,,,,,2024-03-28,1,,,,,スーパーハムスター,0
316,2020001156481,新規,0,2024-03-28,2024-03-28,株式会社ジニアスアカデミー,,株式会社,神奈川県,横浜市中区,元町２丁目８１番地,,14,104,2310861,,,,,,,2024-03-28,1,,,,,ジニアスアカデミー,0
321,2020003025833,新規,0,2024-03-28,2024-03-28,ＢａｙＨｉｌｌ　Ｌａｂ合同会社,,合同会社,神奈川県,横浜市鶴見区,馬場４丁目３０番２４号,,14,101,2300076,,,,,,,2024-03-28,1,,,,,,0
322,2020005016335,新規,0,2024-03-28,2024-03-28,医療法人東戸塚駅前なかやまクリニック,,その他の設立登記法人,神奈川県,横浜市戸塚区,品濃町５１６番地５パラダイスガーデン３階Ｃ室,,14,110,2440801,,,,,,,2024-03-28,1,,,,,ヒガシトツカエキマエナカヤマクリニック,0
329,2030001159426,新規,0,2024-03-28,2024-03-28,株式会社プランク,,株式会社,埼玉県,所沢市,けやき台１丁目１５番地の１リラハイツＡ－２０２,,11,208,3591118,,,,,,,2024-03-28,1,,,,,プランク,0
330,2030001159450,新規,0,2024-03-28,2024-03-28,株式会社マイスタンド,,株式会社,埼玉県,朝霞市,本町１丁目８番５号,,11,227,3510011,,,,,,,2024-03-28,1,,,,,マイスタンド,0
331,2030001159483,新規,0,2024-03-28,2024-03-28,株式会社ｃｒａｗｌ　ｕｐ,,株式会社,埼玉県,川口市,芝塚原２丁目４番６号,,11,203,3330856,,,,,,,2024-03-28,1,,,,,クロールアップ,0
334,2030003023893,新規,0,2024-03-28,2024-03-28,嘉達商事合同会社,,合同会社,埼玉県,蕨市,塚越２丁目１２番１７号,,11,223,3350002,,,,,,,2024-03-28,1,,,,,カタチショウジ,0
341,2040001132852,新規,0,2024-03-28,2024-03-28,株式会社ａｎｄｏ,,株式会社,千葉県,千葉市美浜区,中瀬１丁目３番地,,12,106,2610023,,,,,,,2024-03-28,1,,,,,アンド,0
342,2040001132869,新規,0,2024-03-28,2024-03-28,株式会社八建設,,株式会社,千葉県,成田市,並木町９９番地１１－２Ｆ,,12,211,2860045,,,,,,,2024-03-28,1,,,,,ハチケンセツ,0
347,2060003004998,新規,0,2024-03-28,2024-03-28,ＢＥＧＵＭ　ＨＯＬＤＩＮＧＳ合同会社,,合同会社,栃木県,足利市,大前町８３８番地１シティクラブＥ－２０３,,09,202,3260845,,,,,,,2024-03-28,1,,,,,ベガムホールディングス,0
351,2070001041539,新規,0,2024-03-28,2024-03-28,アイソル株式会社,,株式会社,群馬県,佐波郡玉村町,大字飯塚１１４番地１１,,10,464,3701102,,,,,,,2024-03-28,1,,,,,アイソル,0
355,2080101024624,新規,0,2024-03-28,2024-03-28,株式会社ＦＯＰＬＵＳ,,株式会社,静岡県,富士市,新橋町３－７,,22,210,4170004,,,,,,,2024-03-28,1,,,,,フォープラス,0
365,2120001263490,新規,0,2024-03-28,2024-03-28,嘉和不動産コンサルタント株式会社,,株式会社,大阪府,大阪市中央区,心斎橋筋１丁目２－２３東心斎橋ビル西館１階,,27,128,5420085,,,,,,,2024-03-28,1,,,,,カワフドウサンコンサルタント,0
366,2120001263532,新規,0,2024-03-28,2024-03-28,株式会社エムズテック,,株式会社,大阪府,大阪市天王寺区,堂ケ芝１丁目１０番４号三鈴ビル４階,,27,109,5430033,,,,,,,2024-03-28,1,,,,,エムズテック,0
367,2120001263540,新規,0,2024-03-28,2024-03-28,株式会社みなはれ,,株式会社,大阪府,大阪市浪速区,敷津東１丁目８番９号ロジュマン浪速８０６号室,,27,111,5560012,,,,,,,2024-03-28,1,,,,,ミナハレ,0
368,2120001263549,新規,0,2024-03-28,2024-03-28,株式会社ＦＬＥＥＬＹ,,株式会社,大阪府,大阪市中央区,瓦町４丁目３番８号ＨＡＮＡＢＬＤＧ６Ｆ,,27,128,5410048,,,,,,,2024-03-28,1,,,,,フリーリー,0
369,2120001263615,新規,0,2024-03-28,2024-03-28,株式会社結恵,,株式会社,大阪府,大阪市中央区,南船場３丁目６番１号サイプレス心斎橋６０５号室,,27,128,5420081,,,,,,,2024-03-28,1,,,,,ユイエ,0
372,2120003026160,新規,0,2024-03-28,2024-03-28,ＢｏＢｏ　Ｓｏｕｔｈｅａｓｔ　Ａｓｉａ　Ｆｏｏｄ合同会社,,合同会社,大阪府,大阪市東淀川区,小松１丁目１０番１８号４階Ｃ－３号室,,27,114,5330004,,,,,,,2024-03-28,1,,,,,ボボトウナンアジアショクヒン,0
373,2120003026235,新規,0,2024-03-28,2024-03-28,合同会社青海波,,合同会社,大阪府,大阪市北区,西天満３丁目３番１３号,,27,127,5300047,,,,,,,2024-03-28,1,,,,,セイガイハ,0
374,2120003026251,新規,0,2024-03-28,2024-03-28,唐古合同会社,,合同会社,大阪府,大阪市都島区,都島中通２丁目５番１２－２０１号,,27,102,5340022,,,,,,,2024-03-28,1,,,,,カラコ,0
382,2120901048958,新規,0,2024-03-28,2024-03-28,株式会社Ｂｒｕｓｈ　Ｕｐ,,株式会社,大阪府,箕面市,彩都粟生北２丁目６番２９０号,,27,220,5620029,,,,,,,2024-03-28,1,,,,,ブラッシュアップ,0
386,2122001037949,新規,0,2024-03-28,2024-03-28,株式会社パキラ,,株式会社,大阪府,東大阪市,松原１丁目１７番２２号,,27,227,5780922,,,,,,,2024-03-28,1,,,,,パキラ,0
391,2130001076628,新規,0,2024-03-28,2024-03-28,株式会社Ｌｏｃａ‐Ｌｉｎｋ,,株式会社,京都府,京都市下京区,仏光寺通烏丸東入上柳町３３１,,26,106,6008099,,,,,,,2024-03-28,1,,,,,ロカリンク,0
392,2130001076685,新規,0,2024-03-28,2024-03-28,フェニックス株式会社,,株式会社,京都府,京都市中京区,三条通新町西入釜座町８番地コンフォレスト三条２０２号,,26,104,6048241,,,,,,,2024-03-28,1,,,,,フェニックス,0
395,2130003009412,新規,0,2024-03-28,2024-03-28,ホワイエ合同会社,,合同会社,京都府,京都市西京区,樫原久保町２１番地１レ・メゾンベアト第２号棟２１１号室,,26,111,6158171,,,,,,,2024-03-28,1,,,,,ホワイエ,0
398,2140001133857,新規,0,2024-03-28,2024-03-28,株式会社ハヤトトレーディング,,株式会社,兵庫県,神戸市西区,神出町勝成１１６番地の２４,,28,111,6512301,,,,,,,2024-03-28,1,,,,,ハヤトトレーディング,0
405,2180001160641,新規,0,2024-03-28,2024-03-28,株式会社ケーティー,,株式会社,愛知県,名古屋市中区,栄１丁目２２番２号５２５号,,23,106,4600008,,,,,,,2024-03-28,1,,,,,ケーティー,0
406,2180001160690,新規,0,2024-03-28,2024-03-28,株式会社レラン,,株式会社,愛知県,名古屋市緑区,旭出１丁目４０５番地,,23,114,4580031,,,,,,,2024-03-28,1,,,,,レラン,0
407,2180001160699,新規,0,2024-03-28,2024-03-28,株式会社Ｒａｎｇｅ　ｏｆ　ｍｏｔｉｏｎ,,株式会社,愛知県,名古屋市中区,丸の内３丁目１５番２１号Ｃｅｒｅｓ丸の内２０１,,23,106,4600002,,,,,,,2024-03-28,1,,,,,レンジオブモーション,0
408,2180001160749,新規,0,2024-03-28,2024-03-28,株式会社トゥモローテック,,株式会社,愛知県,名古屋市東区,徳川１丁目９０１番地サンエース徳川５０３号室,,23,102,4610025,,,,,,,2024-03-28,1,,,,,トゥモローテック,0
415,2180301038463,新規,0,2024-03-28,2024-03-28,株式会社勝龍興商,,株式会社,愛知県,新城市,富栄字正木貝津６番地１,,23,221,4411632,,,,,,,2024-03-28,1,,,,,ショウリュウコウショウ,0
416,2180303006055,新規,0,2024-03-28,2024-03-28,Ｇ＆Ｓ　Ｃａｒｓ合同会社,,合同会社,愛知県,みよし市,三好丘旭５丁目６番地３ドゥ・ロジュマンＩＩＩ棟２０３号,00134219,23,236,4700203,,,,,,,2024-03-28,1,,,,,ジーアンドエスカーズ,0
419,2200005013586,新規,0,2024-03-28,2024-03-28,一般財団法人ＵＡＶ＆ＩＮＣ協会,,その他の設立登記法人,岐阜県,羽島市,足近町市場１２５５－５,,21,209,5016202,,,,,,,2024-03-28,1,,,,,ユーアーブイアンドアイエヌシーキョウカイ,0
423,2230001020253,新規,0,2024-03-28,2024-03-28,株式会社リセンス,,株式会社,富山県,小矢部市,泉町１２番１０号,,16,209,9320052,,,,,,,2024-03-28,1,,,,,リセンス,0
425,2230003002175,新規,0,2024-03-28,2024-03-28,ＨＡ合同会社,,合同会社,富山県,富山市,新保４２７番地４,,16,201,9398253,,,,,,,2024-03-28,1,,,,,ハ,0
429,2280003001825,新規,0,2024-03-28,2024-03-28,ＡＰＰ合同会社,,合同会社,島根県,出雲市,今市町１４１４番地５,,32,203,6930001,,,,,,,2024-03-28,1,,,,,エーピーピー,0
455,2350001018863,新規,0,2024-03-28,2024-03-28,株式会社針山林業,,株式会社,宮崎県,小林市,須木中原２１０４番地５,,45,205,8860111,,,,,,,2024-03-28,1,,,,,ハリヤマリンギョウ,0
458,2360001033408,新規,0,2024-03-28,2024-03-28,株式会社Ｌｉｇｈｔｈｏｕｓｅ,,株式会社,沖縄県,那覇市,おもろまち３丁目６－３愛和ビル５００,,47,201,9000006,,,,,,,2024-03-28,1,,,,,ライトハウス,0
461,2370003006542,新規,0,2024-03-28,2024-03-28,合同会社ＲＥＢ,,合同会社,宮城県,仙台市宮城野区,栄２丁目２２番２号,,04,102,9830011,,,,,,,2024-03-28,1,,,,,レブ,0
469,2420001018658,新規,0,2024-03-28,2024-03-28,株式会社志心会,,株式会社,青森県,黒石市,緑ケ丘８７番地３,,02,204,0360524,,,,,,,2024-03-28,1,,,,,シシンカイ,0
472,2430003016130,新規,0,2024-03-28,2024-03-28,合同会社Ａｃｃｅｓｓ　ｒｏｏｍ,,合同会社,北海道,札幌市中央区,宮の森三条１０丁目１番１号,,01,101,0640953,,,,,,,2024-03-28,1,,,,,アクセスルーム,0
473,2430003016139,新規,0,2024-03-28,2024-03-28,合同会社ＨＯＵＳＥＮ,,合同会社,北海道,札幌市中央区,南四条西１０丁目１００４番地１南４条ユニハウス９０１,,01,101,0640804,,,,,,,2024-03-28,1,,,,,ホウセン,0
475,2460105002281,新規,0,2024-03-28,2024-03-28,農事組合法人ファーム石橋,,その他の設立登記法人,北海道,中川郡幕別町,札内中央町４４２番地の２ＴＯＷＮＳｅｉｒｙｏｕ１０１,,01,643,0890543,,,,,,,2024-03-28,1,,,,,ファームイシバシ,0
480,2700150124633,新規,0,2024-03-28,2024-03-28,ＶＩＡ　Ｖ　ＨＯＬＤＣＯ２ＰＴＥ．ＬＴＤ．,,外国会社等,東京都,港区,六本木１丁目９番１０号アークヒルズ仙石山森タワー４０階,,13,103,1060032,シンガポール共和国０６８８９３、６１ロビンソン、６１ロビンソンロード、＃１６－０２,,,,,,2024-03-28,1,,,,,ヴイアイエーフアイブホールドコーツーピーテイーイーエルテイーデイー,0
484,3010001243172,新規,0,2024-03-28,2024-03-28,株式会社えん,,株式会社,東京都,中央区,東日本橋２丁目２８番４号日本橋ＣＥＴビル２階,,13,102,1030004,,,,,,,2024-03-28,1,,,,,エン,0
485,3010001243429,新規,0,2024-03-28,2024-03-28,三鈞日本株式会社,,株式会社,東京都,中央区,八丁堀４丁目１４－７ファイブビル八丁堀５０７号室,,13,102,1040032,,,,,,,2024-03-28,1,,,,,サンキンニホン,0
486,3010001243445,新規,0,2024-03-28,2024-03-28,株式会社ストラッツ,,株式会社,東京都,文京区,根津１丁目２１－１１ＧＡＴＥ根津,,13,105,1130031,,,,,,,2024-03-28,1,,,,,ストラッツ,0
489,3010003043331,新規,0,2024-03-28,2024-03-28,合同会社ピヨシロー,,合同会社,東京都,中央区,銀座１丁目１２番４号Ｎ＆ＥＢＬＤ．６Ｆ,,13,102,1040061,,,,,,,2024-03-28,1,,,,,ピヨシロー,0
493,3010401181369,新規,0,2024-03-28,2024-03-28,株式会社ｒｉｎ,,株式会社,東京都,港区,南青山５丁目５番２０号アルファエイト南青山１０２,,13,103,1070062,,,,,,,2024-03-28,1,,,,,リン,0
497,3010503007389,新規,0,2024-03-28,2024-03-28,ｈａｎａｎｏｋｉ合同会社,,合同会社,東京都,台東区,浅草橋１丁目３４番７号横山ビル２階,,13,106,1110053,,,,,,,2024-03-28,1,,,,,ハナノキ,0
499,3010703007115,新規,0,2024-03-28,2024-03-28,合同会社いづみ屋,,合同会社,東京都,品川区,東五反田５丁目２番３７－２０４号,,13,109,1410022,,,,,,,2024-03-28,1,,,,,イヅミヤ,0
502,3010901054974,新規,0,2024-03-28,2024-03-28,株式会社Ｓａｎｇａ　Ｉｎｔｅｒｎａｔｉｏｎａｌ,,株式会社,東京都,世田谷区,用賀４丁目９－３－６０６,,13,112,1580097,,,,,,,2024-03-28,1,,,,,サンガインターナショナル,0
506,3011001160845,新規,0,2024-03-28,2024-03-28,株式会社前髪鷲掴,,株式会社,東京都,渋谷区,渋谷２丁目１９－１５宮益坂ビルディング６０９,,13,113,1500002,,,,,,,2024-03-28,1,,,,,マエガミワシヅカミ,0
507,3011001160861,新規,0,2024-03-28,2024-03-28,雪友株式会社,,株式会社,東京都,渋谷区,代々木２丁目２３番１－２２７号,,13,113,1510053,,,,,,,2024-03-28,1,,,,,ユキトモ,0
508,3011001160928,新規,0,2024-03-28,2024-03-28,株式会社ＭＡＳＨＩＲＯ,,株式会社,東京都,目黒区,目黒本町１丁目１３番１５号ＭＥＧＵＲＯ－ＳＵＲ－ＭＥＲ,,13,110,1520002,,,,,,,2024-03-28,1,,,,,マシロ,0
510,3011003018810,新規,0,2024-03-28,2024-03-28,Ｎｏｖｉｑ合同会社,,合同会社,東京都,渋谷区,桜丘町４－１４ＶＯＲＴ渋谷桜ヶ丘５Ｆ,,13,113,1500031,,,,,,,2024-03-28,1,,,,,ノビック,0
511,3011101106748,新規,0,2024-03-28,2024-03-28,株式会社ダイゴＦＰ,,株式会社,東京都,新宿区,高田馬場４丁目４０番２－２０８号,,13,104,1690075,,,,,,,2024-03-28,1,,,,,ダイゴエフピー,0
512,3011103014263,新規,0,2024-03-28,2024-03-28,合同会社高丸,,合同会社,東京都,新宿区,高田馬場４丁目４番１８号工藤ビル１０２号室,,13,104,1690075,,,,,,,2024-03-28,1,,,,,タカマル,0
518,3011501030481,新規,0,2024-03-28,2024-03-28,株式会社プリマベーラ,,株式会社,東京都,北区,志茂２丁目３８番１５号,,13,117,1150042,,,,,,,2024-03-28,1,,,,,プリマベーラ,0
521,3011801044000,新規,0,2024-03-28,2024-03-28,株式会社ｄｏｔ５,,株式会社,東京都,葛飾区,東新小岩６丁目１３番地,,13,122,1240023,,,,,,,2024-03-28,1,,,,,ドットファイブ,0
522,3011803006147,新規,0,2024-03-28,2024-03-28,合同会社今元,,合同会社,東京都,足立区,西新井６丁目４０－１３,,13,121,1230841,,,,,,,2024-03-28,1,,,,,イマモト,0
524,3012401041684,新規,0,2024-03-28,2024-03-28,株式会社ホライゾン,,株式会社,東京都,武蔵野市,吉祥寺東町３丁目１６番８号グランドメゾン吉祥寺コート０１３,,13,203,1800002,,,,,,,2024-03-28,1,,,,,ホライゾン,0
526,3012801023068,新規,0,2024-03-28,2024-03-28,株式会社成功の橋,,株式会社,東京都,国分寺市,西町４丁目２９番地６５,,13,214,1850035,,,,,,,2024-03-28,1,,,,,,0
532,3020001156448,新規,0,2024-03-28,2024-03-28,日進紡株式会社,,株式会社,神奈川県,横浜市保土ケ谷区,上菅田町１１１４番地,,14,106,2400051,,,,,,,2024-03-28,1,,,,,ニッシンボウ,0
536,3020003025832,新規,0,2024-03-28,2024-03-28,合同会社ファーストスター,,合同会社,神奈川県,横浜市保土ケ谷区,藤塚町６番２１号,,14,106,2400031,,,,,,,2024-03-28,1,,,,,ファーストスター,0
537,3020005016334,新規,0,2024-03-28,2024-03-28,医療法人社団幸樹会,,その他の設立登記法人,神奈川県,横浜市青葉区,新石川２丁目２番２号ＦＵＪＩＫＹＵ３階,,14,117,2250003,,,,,,,2024-03-28,1,,,,,コウジュカイ,0
542,3021003014305,新規,0,2024-03-28,2024-03-28,合同会社ＭＩＲＡＩ,,合同会社,神奈川県,相模原市緑区,東橋本３丁目７番４号スクエアハウス３―２０３,,14,151,2520144,,,,,,,2024-03-28,1,,,,,ミライ,0
546,3030001159375,新規,0,2024-03-28,2024-03-28,朋騰株式会社,,株式会社,埼玉県,蓮田市,西新宿３丁目５４番地６,,11,238,3490141,,,,,,,2024-03-28,1,,,,,ホウトウ,0
547,3030001159441,新規,0,2024-03-28,2024-03-28,株式会社ＩＴＥＭ,,株式会社,埼玉県,所沢市,大字南永井５８８番地の１,,11,208,3590011,,,,,,,2024-03-28,1,,,,,アイテム,0
548,3030001159466,新規,0,2024-03-28,2024-03-28,ハウスコンシェルジュ株式会社,,株式会社,埼玉県,越谷市,大字大杉６４３番地２,,11,222,3430005,,,,,,,2024-03-28,1,,,,,ハウスコンシェルジュ,0
550,3030003023892,新規,0,2024-03-28,2024-03-28,ＬＵＣＩＡＺ合同会社,,合同会社,埼玉県,川越市,清水町１６番地２（ホワイトベル上福岡Ａ１０３号室）,,11,201,3501145,,,,,,,2024-03-28,1,,,,,ルシアス,0
551,3030003023901,新規,0,2024-03-28,2024-03-28,メープルホーム合同会社,,合同会社,埼玉県,桶川市,大字加納１７６０番地,,11,231,3630001,,,,,,,2024-03-28,1,,,,,メープルホーム,0
568,3040005022330,新規,0,2024-03-28,2024-03-28,一般社団法人千葉県教育・文化・スポーツ振興協会,,その他の設立登記法人,千葉県,千葉市中央区,中央４丁目１４番１０号,,12,101,2600013,,,,,,,2024-03-28,1,,,,,チバケンキョウイクブンカスポーツシンコウキョウカイ,0
572,3050001054517,新規,0,2024-03-28,2024-03-28,株式会社エスライン,,株式会社,茨城県,結城市,大字小田林１４２２番地８,,08,207,3070007,,,,,,,2024-03-28,1,,,,,エスライン,0
573,3050001054525,新規,0,2024-03-28,2024-03-28,株式会社ＴＢＭ・Ｃｏｍｐａｎｙ,,株式会社,茨城県,下妻市,五箇１５２番地１,,08,210,3040823,,,,,,,2024-03-28,1,,,,,ティービーエムカンパニー,0
577,3060003004997,新規,0,2024-03-28,2024-03-28,ＣＡＰＩＴＡＬ　ＭＯＴＯＲＳ合同会社,,合同会社,栃木県,足利市,鹿島町３１８番地１階１０５号室,,09,202,3260844,,,,,,,2024-03-28,1,,,,,キャピタルモータース,0
583,3070003005334,新規,0,2024-03-28,2024-03-28,合同会社ｎｅｘｔｏｎｅ,,合同会社,群馬県,伊勢崎市,東小保方町３４５３－１,,10,204,3792234,,,,,,,2024-03-28,1,,,,,ネクストーン,0
591,3100001037318,新規,0,2024-03-28,2024-03-28,株式会社Ｄ‐ＧＲＯＵＰ,,株式会社,長野県,長野市,大字鶴賀問御所町１３２４番地２ナポレオンビル３階,,20,201,3800834,,,,,,,2024-03-28,1,,,,,ディーグループ,0
599,3120001263515,新規,0,2024-03-28,2024-03-28,株式会社Ｌｉｂｅｒｔｅ,,株式会社,大阪府,大阪市浪速区,元町２丁目２番１７号賛興ビル４０１,,27,111,5560016,,,,,,,2024-03-28,1,,,,,リベルテ,0
600,3120001263564,新規,0,2024-03-28,2024-03-28,株式会社ディスカバリーワン,,株式会社,大阪府,大阪市中央区,安土町１丁目８－１５,,27,128,5410052,,,,,,,2024-03-28,1,,,,,ディスカバリーワン,0
601,3120001263630,新規,0,2024-03-28,2024-03-28,株式会社Ｋａｓｓｙ１２０,,株式会社,大阪府,大阪市北区,梅田１丁目１－３大阪駅前第３ビル２９階１－１－１号室,,27,127,5300001,,,,,,,2024-03-28,1,,,,,カッシィヒャクニジュウ,0
603,3120003026234,新規,0,2024-03-28,2024-03-28,旭住宅メンテナンス合同会社,,合同会社,大阪府,大阪市旭区,中宮２丁目１５番２５号,,27,117,5350003,,,,,,,2024-03-28,1,,,,,アサヒジュウタクメンテナンス,0
604,3120003026250,新規,0,2024-03-28,2024-03-28,合同会社光保,,合同会社,大阪府,大阪市生野区,田島１丁目１１番３８号,,27,116,5440011,,,,,,,2024-03-28,1,,,,,ミツヤス,0
607,3120103005749,新規,0,2024-03-28,2024-03-28,ランタン合同会社,,合同会社,大阪府,河内長野市,楠ケ丘３番９号,,27,216,5860039,,,,,,,2024-03-28,1,,,,,ランタン,0
608,3120105009839,新規,0,2024-03-28,2024-03-28,ＮＰＯ法人ココまな,,その他の設立登記法人,大阪府,岸和田市,戎町３番１号,,27,202,5960022,,,,,,,2024-03-28,1,,,,,ココマナ,0
609,3120903005097,新規,0,2024-03-28,2024-03-28,オーセンティック・グロース合同会社,,合同会社,大阪府,茨木市,南春日丘３丁目８－２,,27,211,5670046,,,,,,,2024-03-28,1,,,,,オーセンティックグロース,0
619,3140001133864,新規,0,2024-03-28,2024-03-28,株式会社ＣＩＶＩＬ,,株式会社,兵庫県,尼崎市,立花町２丁目１６番１２号エクセルハイツ２０４号,,28,202,6610025,,,,,,,2024-03-28,1,,,,,シヴィル,0
620,3140001133872,新規,0,2024-03-28,2024-03-28,株式会社ジョイベスト,,株式会社,兵庫県,尼崎市,西難波町１丁目１２－２２紀の国屋ＩＩ１０２,00134216,28,202,6600893,,,,,,,2024-03-28,1,,,,,ジョイベスト,0
637,3180003026567,新規,0,2024-03-28,2024-03-28,合同会社ルココン,,合同会社,愛知県,名古屋市西区,栄生１丁目１７番８号,,23,104,4510052,,,,,,,2024-03-28,1,,,,,ルココン,0
640,3180005020568,新規,0,2024-03-28,2024-03-28,医療法人おおしまハートクリニック,,その他の設立登記法人,愛知県,常滑市,虹の丘２丁目１番地,,23,216,4790849,,,,,,,2024-03-28,1,,,,,オオシマハートクリニック,0
642,3180301038462,新規,0,2024-03-28,2024-03-28,Ｙ’ｓ　ｃｏｌｏｒ株式会社,,株式会社,愛知県,岡崎市,大西１丁目８番地１８,,23,202,4440871,,,,,,,2024-03-28,1,,,,,ワイズカラー,0
644,3190001031221,新規,0,2024-03-28,2024-03-28,ふるさと未来ラボ株式会社,,株式会社,三重県,四日市市,西新地７番地３,,24,202,5100087,,,,,,,2024-03-28,1,,,,,フルサトミライラボ,0
648,3200001042324,新規,0,2024-03-28,2024-03-28,Ｍ．Ｓ　ＴＲＡＤＩＮＧ株式会社,,株式会社,岐阜県,大垣市,荒川町６５５番地２荒川ラインハイツＢ２,,21,202,5030993,,,,,,,2024-03-28,1,,,,,エムエストレーディング,0
652,3230003002174,新規,0,2024-03-28,2024-03-28,ＳＫＹ合同会社,,合同会社,富山県,射水市,津幡江７３３番地,,16,211,9340038,,,,,,,2024-03-28,1,,,,,,0
661,3290001105254,新規,0,2024-03-28,2024-03-28,株式会社ＦＴＭ,,株式会社,福岡県,福岡市中央区,大名１丁目１５番３５号４Ｆ－Ｂ,,40,133,8100041,,,,,,,2024-03-28,1,,,,,エフティーエム,0
664,3290005019327,新規,0,2024-03-28,2024-03-28,一般社団法人日本寿司職人協会,,その他の設立登記法人,福岡県,福岡市博多区,博多駅南２丁目１３番７号,,40,132,8120016,,,,,,,2024-03-28,1,,,,,ニホンスシショクニンキョウカイ,0
670,3310003004757,新規,0,2024-03-28,2024-03-28,みらいえのしま合同会社,,合同会社,長崎県,西海市,大瀬戸町瀬戸板浦郷９２２番地１,,42,212,8572301,,,,,,,2024-03-28,1,,,,,ミライエノシマ,0
674,3320003004319,新規,0,2024-03-28,2024-03-28,合同会社Ｈｉｎａｔａ,,合同会社,大分県,宇佐市,大字下拝田１５１１番地の２８,,44,211,8790465,,,,,,,2024-03-28,1,,,,,ヒナタ,0
677,3350001018862,新規,0,2024-03-28,2024-03-28,株式会社ＴＡＮＯ　ＢＡＳＥ,,株式会社,宮崎県,宮崎市,田野町乙１０９０５番地１４,,45,201,8891702,,,,,,,2024-03-28,1,,,,,タノベース,0
679,3360001033381,新規,0,2024-03-28,2024-03-28,株式会社ＮｏｍａｄＲｅｓｏｒｔ,,株式会社,沖縄県,名護市,字宮里１００４番地,,47,209,9050011,,,,,,,2024-03-28,1,,,,,ノマドリゾート,0
680,3360001033407,新規,0,2024-03-28,2024-03-28,株式会社ＬＩＦＥＷＯＲＫ技研,,株式会社,沖縄県,那覇市,久茂地２丁目１６番３号３０１,,47,201,9000015,,,,,,,2024-03-28,1,,,,,ライフワークギケン,0
687,3430001091406,新規,0,2024-03-28,2024-03-28,株式会社トレーラー５６,,株式会社,北海道,札幌市中央区,大通西１４丁目３番地２７,,01,101,0600042,,,,,,,2024-03-28,1,,,,,トレーラーゴジュウロク,0
695,3700150124632,新規,0,2024-03-28,2024-03-28,Ａｖｅｎｕｅ　Ｊａｐａｎ　Ｌｉｍｉｔｅｄ,,外国会社等,神奈川県,横浜市磯子区,森１丁目２番１－４１１号,,14,107,2350023,中華人民共和国香港特別行政区、セントラル、コンノート・プレイス８、ツー・エクスチェンジ・スクエア、スイート３６０８ａ,,,,,,2024-03-28,1,,,,,アベニユージヤパンリミテツド,0
700,4010001243452,新規,0,2024-03-28,2024-03-28,株式会社東京備長,,株式会社,東京都,大島町,元町１丁目８番５号,,13,361,1000101,,,,,,,2024-03-28,1,,,,,トウキョウビンチョウ,0
701,4010001243469,新規,0,2024-03-28,2024-03-28,株式会社プラノ,,株式会社,東京都,千代田区,九段南１丁目５番６号りそな九段ビル５Ｆ・ＫＳフロア,,13,101,1020074,,,,,,,2024-03-28,1,,,,,プラノ,0
702,4010001243493,新規,0,2024-03-28,2024-03-28,株式会社懐徳,,株式会社,東京都,文京区,本郷３丁目６番７号,,13,105,1130033,,,,,,,2024-03-28,1,,,,,カイトク,0
704,4010003043339,新規,0,2024-03-28,2024-03-28,合同会社ＪＯＵＲＮＥＹ,,合同会社,東京都,中央区,日本橋室町１丁目１１番１２号日本橋水野ビル７階,,13,102,1030022,,,,,,,2024-03-28,1,,,,,ジャーニー,0
713,4010401181335,新規,0,2024-03-28,2024-03-28,株式会社ＫＲＹ　Ａｇｅｎｔ,,株式会社,東京都,港区,赤坂３丁目２１番１５号東都赤坂ビル４階Ａ,,13,103,1070052,,,,,,,2024-03-28,1,,,,,クライエージェント,0
714,4010401181368,新規,0,2024-03-28,2024-03-28,株式会社ＤｅｅｐＩｎｓｉｇｈｔ,,株式会社,東京都,港区,六本木３丁目３－２７スハラ六本木３階,,13,103,1060032,,,,,,,2024-03-28,1,,,,,ディープインサイト,0
720,4010603010721,新規,0,2024-03-28,2024-03-28,合同会社べっぴん,,合同会社,東京都,墨田区,押上２丁目２８－７クレールシャンブル２０１,,13,107,1310045,,,,,,,2024-03-28,1,,,,,ベッピン,0
725,4010801034885,新規,0,2024-03-28,2024-03-28,株式会社豊田商店ホールディングス,,株式会社,東京都,大田区,雪谷大塚町９番１３号,,13,111,1450067,,,,,,,2024-03-28,1,,,,,トヨダショウテンホールディングス,0
729,4010901054965,新規,0,2024-03-28,2024-03-28,アニカホスピス株式会社,,株式会社,東京都,世田谷区,大原１丁目２０番１７号トレスＭ２０３,,13,112,1560041,,,,,,,2024-03-28,1,,,,,アニカホスピス,0
731,4010903008928,新規,0,2024-03-28,2024-03-28,合同会社風と土,,合同会社,東京都,世田谷区,桜丘２丁目８番２３号,,13,112,1560054,,,,,,,2024-03-28,1,,,,,カゼトツチ,0
736,4011001160885,新規,0,2024-03-28,2024-03-28,ＭＭＹＷＯＲＬＤ　Ｊａｐａｎ株式会社,,株式会社,東京都,渋谷区,神宮前６丁目３番９号ユーハイム表参道アネックスビル４Ｆ,,13,113,1500001,,,,,,,2024-03-28,1,,,,,エムエムワイワールドジャパン,0
737,4011001160935,新規,0,2024-03-28,2024-03-28,ファブグッズ株式会社,,株式会社,東京都,渋谷区,広尾２丁目２番１６号ＢＬＡＮＶＯＡＧＥＨＩＲＯＯ２０２号室,,13,113,1500012,,,,,,,2024-03-28,1,,,,,ファブグッズ,0
738,4011003018660,新規,0,2024-03-28,2024-03-28,ＭＵＳＥＫＡＩ　ＪＡＰＡＮ合同会社,,合同会社,東京都,渋谷区,渋谷３丁目１－９ＹＡＺＡＷＡビル３階,,13,113,1500002,,,,,,,2024-03-28,1,,,,,ムセカイジャパン,0
739,4011003018768,新規,0,2024-03-28,2024-03-28,Ｏ６合同会社,,合同会社,東京都,渋谷区,渋谷２丁目１９－１５宮益坂ビルディング６０９,,13,113,1500002,,,,,,,2024-03-28,1,,,,,オーシックス,0
742,4011101106730,新規,0,2024-03-28,2024-03-28,鳳凰株式会社,,株式会社,東京都,新宿区,西早稲田２丁目１５－９ニューハイム早稲田１０１号室,,13,104,1690051,,,,,,,2024-03-28,1,,,,,ホウオウ,0
743,4011101106739,新規,0,2024-03-28,2024-03-28,東沐株式会社,,株式会社,東京都,新宿区,西新宿４丁目４１番１０号スカイコート西新宿３０３号,,13,104,1600023,,,,,,,2024-03-28,1,,,,,トウボク,0
745,4011103014279,新規,0,2024-03-28,2024-03-28,ケイデンス・プラス合同会社,,合同会社,東京都,新宿区,西新宿３丁目３番１３号西新宿水間ビル６階,,13,104,1600023,,,,,,,2024-03-28,1,,,,,ケイデンスプラス,0
748,4011403004319,新規,0,2024-03-28,2024-03-28,合同会社ファレノプシス,,合同会社,東京都,板橋区,赤塚３丁目３５番４号,,13,119,1750092,,,,,,,2024-03-28,1,,,,,ファレノプシス,0
749,4011501030456,新規,0,2024-03-28,2024-03-28,ソフトメディカル株式会社,,株式会社,東京都,荒川区,東日暮里３丁目９－１４ハイネスニッポリ４０２号,,13,118,1160014,,,,,,,2024-03-28,1,,,,,ソフトメディカル,0
750,4011501030464,新規,0,2024-03-28,2024-03-28,ＡＩ　ＦＵＴＵＲＥ株式会社,,株式会社,東京都,荒川区,東尾久６丁目１２番２６号,,13,118,1160012,,,,,,,2024-03-28,1,,,,,エーアイフューチャー,0
752,4011801043991,新規,0,2024-03-28,2024-03-28,株式会社マルス,,株式会社,東京都,足立区,西新井５丁目１６番１０号,,13,121,1230841,,,,,,,2024-03-28,1,,,,,マルス,0
753,4011803006113,新規,0,2024-03-28,2024-03-28,合同会社ブラウン工業,,合同会社,東京都,葛飾区,西新小岩４丁目９番２５号アサヒマンション３０２,,13,122,1240025,,,,,,,2024-03-28,1,,,,,ブラウンコウギョウ,0
755,4012801023067,新規,0,2024-03-28,2024-03-28,ＡＯＣジャパン株式会社,,株式会社,東京都,昭島市,昭和町５丁目６番８号,,13,207,1960015,,,,,,,2024-03-28,1,,,,,エーオーシージャパン,0
760,4020001156471,新規,0,2024-03-28,2024-03-28,株式会社ＫＯＵＳＥＩ,,株式会社,神奈川県,横浜市西区,浅間町１丁目１１番地１２横濱ビル２階,,14,103,2200072,,,,,,,2024-03-28,1,,,,,コウセイ,0
761,4020005016333,新規,0,2024-03-28,2024-03-28,医療法人社団一穂,,その他の設立登記法人,神奈川県,横浜市金沢区,六浦南２丁目８番５号神田ビル２階,,14,108,2360038,,,,,,,2024-03-28,1,,,,,カズホ,0
766,4030001159473,新規,0,2024-03-28,2024-03-28,株式会社ＴＺカンパニー,,株式会社,埼玉県,所沢市,大字下富９２０番地の１３,,11,208,3590001,,,,,,,2024-03-28,1,,,,,ティーゼットカンパニー,0
771,4040001132867,新規,0,2024-03-28,2024-03-28,株式会社ｗｅ　ｗｏｒｋ,,株式会社,千葉県,千葉市中央区,中央４丁目３番１号－２階,,12,101,2600013,,,,,,,2024-03-28,1,,,,,ウィーワーク,0
772,4040001132883,新規,0,2024-03-28,2024-03-28,株式会社佐栄,,株式会社,千葉県,千葉市中央区,都町２丁目２７－６ルネマルス４０２,,12,101,2600001,,,,,,,2024-03-28,1,,,,,サエイ,0
773,4040001132891,新規,0,2024-03-28,2024-03-28,ＳＫＹ　Ｂｅｓｔ株式会社,,株式会社,千葉県,柏市,根戸４６７番地１１１,,12,217,2770831,,,,,,,2024-03-28,1,,,,,スカイベスト,0
785,4070001041537,新規,0,2024-03-28,2024-03-28,株式会社ＡＳＩＭ　ＥＮＴＥＲＰＲＩＳＥＳ,,株式会社,群馬県,太田市,藤阿久町４９４番地３,,10,205,3730034,,,,,,,2024-03-28,1,,,,,,0
786,4070001041553,新規,0,2024-03-28,2024-03-28,株式会社塩原工業,,株式会社,群馬県,前橋市,二之宮町１８４２番地７,,10,201,3792117,,,,,,,2024-03-28,1,,,,,シオバラコウギョウ,0
793,4080405007620,新規,0,2024-03-28,2024-03-28,医療法人社団寛生会,,その他の設立登記法人,静岡県,浜松市浜名区,細江町中川７１７２番地の１７０３,,22,139,4311304,,,,,,,2024-03-28,1,,,,,カンセイカイ,0
795,4090005007623,新規,0,2024-03-28,2024-03-28,甲府昭和キリスト集会,,その他の設立登記法人,山梨県,中巨摩郡昭和町,上河東１３１４番地１,,19,384,4093862,,,,,,,2024-03-28,1,,,,,コウフショウワキリストシュウカイ,0
806,4120001263489,新規,0,2024-03-28,2024-03-28,株式会社ＳＡＮＧＡ　ＬＩＮＫＳ,,株式会社,大阪府,大阪市中央区,南本町４丁目５番７号東亜ビル５Ｆ,,27,128,5410054,,,,,,,2024-03-28,1,,,,,サンガリンクス,0
807,4120001263539,新規,0,2024-03-28,2024-03-28,株式会社ｃａｍｐｕｓ,,株式会社,大阪府,大阪市東住吉区,杭全５丁目７番１２号,,27,121,5460002,,,,,,,2024-03-28,1,,,,,キャンパス,0
808,4120003026225,新規,0,2024-03-28,2024-03-28,合同会社ノチェヤン,,合同会社,大阪府,大阪市東成区,大今里南２丁目１５－１４,,27,115,5370013,,,,,,,2024-03-28,1,,,,,ノチェヤン,0
809,4120003026233,新規,0,2024-03-28,2024-03-28,ワールド合同会社,,合同会社,大阪府,大阪市生野区,林寺４丁目１０番２７号,,27,116,5440023,,,,,,,2024-03-28,1,,,,,ワールド,0
810,4120003026241,新規,0,2024-03-28,2024-03-28,Ｓｏｕ合同会社,,合同会社,大阪府,大阪市福島区,玉川２丁目１１番－４３号アメニティハウス玉川２０３,,27,103,5530004,,,,,,,2024-03-28,1,,,,,ソウ,0
814,4122001037947,新規,0,2024-03-28,2024-03-28,株式会社ＩＢＵＫＩ,,株式会社,大阪府,大東市,赤井２丁目１１番６号フォーチュン住道３０１号,,27,218,5740046,,,,,,,2024-03-28,1,,,,,イブキ,0
815,4122003002841,新規,0,2024-03-28,2024-03-28,合同会社フジ電気サービス,,合同会社,大阪府,東大阪市,西岩田３丁目２－１７フォレストフィールドＩＩ１０６号室,00134217,27,227,5780947,,,,,,,2024-03-28,1,,,,,フジデンキサービス,0
832,4170003001999,新規,0,2024-03-28,2024-03-28,ライフハーモニー合同会社,,合同会社,和歌山県,橋本市,さつき台１丁目１７番地の１５,,30,203,6480075,,,,,,,2024-03-28,1,,,,,ライフハーモニー,0
840,4180001160771,新規,0,2024-03-28,2024-03-28,株式会社まなこ関東,,株式会社,愛知県,名古屋市中村区,那古野１丁目４５番２号,00134227,23,105,4500001,,,,,,,2024-03-28,1,,,,,マナコカントウ,0
842,4180003026558,新規,0,2024-03-28,2024-03-28,合同会社南成商会,,合同会社,愛知県,名古屋市港区,本宮町２丁目３４番地の５,,23,111,4550064,,,,,,,2024-03-28,1,,,,,ナンセイショウカイ,0
843,4180301038461,新規,0,2024-03-28,2024-03-28,株式会社マルナナ商店,,株式会社,愛知県,豊田市,西町６丁目７－４・１０１,,23,211,4710025,,,,,,,2024-03-28,1,,,,,マルナナショウテン,0
844,4180301038478,新規,0,2024-03-28,2024-03-28,株式会社Ｃｏｎｎｅｃｔ,,株式会社,愛知県,豊橋市,草間町字平南５９－１,,23,201,4418141,,,,,,,2024-03-28,1,,,,,コネクト,0
849,4200003006284,新規,0,2024-03-28,2024-03-28,合同会社碧トレーディング,,合同会社,岐阜県,各務原市,那加門前町４丁目２３番地２２,,21,213,5040911,,,,,,,2024-03-28,1,,,,,アオイトレーディング,0
851,4210001019691,新規,0,2024-03-28,2024-03-28,株式会社弘電工,,株式会社,福井県,敦賀市,莇生野６６号１２番地,,18,202,9140141,,,,,,,2024-03-28,1,,,,,ヒロデンコウ,0
857,4230003002173,新規,0,2024-03-28,2024-03-28,Ｙプランニング合同会社,,合同会社,富山県,魚津市,浜経田３３１０－２,,16,204,9370001,,,,,,,2024-03-28,1,,,,,ワイプランニング,0
858,4240001063010,新規,0,2024-03-28,2024-03-28,株式会社栗栖運送,,株式会社,広島県,広島市西区,三滝本町２丁目２３番７号,,34,104,7330802,,,,,,,2024-03-28,1,,,,,クリスウンソウ,0
868,4290001105187,新規,0,2024-03-28,2024-03-28,北辰商事株式会社,,株式会社,福岡県,福岡市南区,高宮１丁目１６番２２号,,40,134,8150083,,,,,,,2024-03-28,1,,,,,ホクシンショウジ,0
869,4290001105237,新規,0,2024-03-28,2024-03-28,株式会社ＨＡＲ．Ｓｔａｇｅ,,株式会社,福岡県,福岡市博多区,博多駅前１丁目１５番２０号ＮＭＦ博多駅前ビル２Ｆ,,40,132,8120011,,,,,,,2024-03-28,1,,,,,ハルステージ,0
870,4290005019326,新規,0,2024-03-28,2024-03-28,一般社団法人ＣＡＭＰ　ＵＳ,,その他の設立登記法人,福岡県,福岡市中央区,舞鶴２丁目７番１号,,40,133,8100073,,,,,,,2024-03-28,1,,,,,キャンパス,0
873,4290801030411,新規,0,2024-03-28,2024-03-28,株式会社ＤＥＬＴＡ　ＰＬＵＳ,,株式会社,福岡県,北九州市八幡西区,黒崎３丁目５番１２号ＳＥＩＴＯビル３Ｆ,,40,109,8060021,,,,,,,2024-03-28,1,,,,,デルタプラス,0
887,4350003004604,新規,0,2024-03-28,2024-03-28,ＭＥＮＤ　Ｅｎｇｉｎｅｅｒｉｎｇ　Ｓｅｒｖｉｃｅｓ合同会社,,合同会社,宮崎県,日向市,比良町５丁目２番地リベラルひむか２０２号,,45,206,8830031,,,,,,,2024-03-28,1,,,,,メンドエンジニアリングサービス,0
891,4360003013827,新規,0,2024-03-28,2024-03-28,吉の見える宝くじ売場合同会社,,合同会社,沖縄県,中頭郡嘉手納町,字屋良８２３番地,,47,325,9040202,,,,,,,2024-03-28,1,,,,,キチノミエルタカラクジウリバ,0
897,4400001016604,新規,0,2024-03-28,2024-03-28,株式会社かみやま農園,,株式会社,岩手県,九戸郡軽米町,大字山内第９地割７番地３,,03,501,0286222,,,,,,,2024-03-28,1,,,,,カミヤマノウエン,0
902,4430001091388,新規,0,2024-03-28,2024-03-28,マルタ吉田漁業株式会社,,株式会社,北海道,苫小牧市,汐見町２丁目９番１４号,,01,213,0530012,,,,,,,2024-03-28,1,,,,,マルタヨシダギョギョウ,0
903,4450001014264,新規,0,2024-03-28,2024-03-28,株式会社馬場,,株式会社,北海道,上川郡当麻町,宇園別１区,,01,454,0781332,,,,,,,2024-03-28,1,,,,,ババ,0
904,4460101007522,新規,0,2024-03-28,2024-03-28,株式会社広薬,,株式会社,北海道,帯広市,清川町仲通西２１番地,,01,207,0802115,,,,,,,2024-03-28,1,,,,,コウヤク,0
909,4500001025537,新規,0,2024-03-28,2024-03-28,海株式会社,,株式会社,愛媛県,松山市,和泉南４丁目２番２４号,,38,201,7900941,,,,,,,2024-03-28,1,,,,,カイ,0
910,4700150124615,新規,0,2024-03-28,2024-03-28,渋谷コーポラスマンション建替組合,,その他,東京都,千代田区,神田神保町１丁目１０５旭化成不動産レジデンス株式会社内,,13,101,1010051,,,,,,,2024-03-28,1,,,,,シブヤコーポラスマンシヨンタテカエクミアイ,0
911,4700150124631,新規,0,2024-03-28,2024-03-28,ＳＨＥＮＺＨＥＮ　ＤＡＫＥ　ＩＮＤＵＳＴＲＹ　ＣＯ．，ＬＴＤ,,外国会社等,,,,,,,,Ｒｏｏｍ　４０５，Ｂｕｉｌｄｉｎｇ　Ａ４，Ｗｏｒｋｓｈｏｐ　２，Ｌｉ　Ｌａｎｇ　Ｉｎｔｅｒｎａｔｉｏｎａｌ　Ｊｅｗｅｌｒｙ　Ｉｎｄｕｓｔｒｉａｌ　Ｐａｒｋ，３１　Ｂｏｌａｎ　Ｒｏａｄ，Ｘｉａｌｉｌａｎｇ　Ｃｏｍｍｕｎｉｔｙ，Ｎａｎｗａｎ　Ｓｔｒｅｅｔ，Ｌｏｎｇｇａｎｇ　Ｄｉｓｔｒｉｃｔ，Ｓｈｅｎｚｈｅｎ,,,,,,2024-03-28,1,,,,,シンセンシダイカジツギョウユウゲンコウシ,0
915,5010001243435,新規,0,2024-03-28,2024-03-28,株式会社東宣エイディ地震共済,,株式会社,東京都,中央区,日本橋２丁目２番２１号,,13,102,1030027,,,,,,,2024-03-28,1,,,,,トウセンエイディジシンキョウサイ,0
916,5010001243492,新規,0,2024-03-28,2024-03-28,エヌビービークラークキーリース株式会社,,株式会社,東京都,中央区,日本橋浜町３丁目３番２号,,13,102,1030007,,,,,,,2024-03-28,1,,,,,エヌビービークラークキーリース,0
917,5010001243526,新規,0,2024-03-28,2024-03-28,明治健康株式会社,,株式会社,東京都,中央区,銀座３丁目２－１２Ｔ８銀座ビル９Ｆ,,13,102,1040061,,,,,,,2024-03-28,1,,,,,メイジケンコウ,0
919,5010005038096,新規,0,2024-03-28,2024-03-28,一般社団法人ＬｅＳＳ　Ｃｏｍｐａｎｙ　Ｊａｐａｎ,,その他の設立登記法人,東京都,中央区,東日本橋３丁目９番１５号,,13,102,1030004,,,,,,,2024-03-28,1,,,,,レスカンパニージャパン,0
920,5010101016055,新規,0,2024-03-28,2024-03-28,株式会社ＴＫ　Ｆｌｏｗ,,株式会社,東京都,八王子市,八幡町９－１２,,13,201,1920053,,,,,,,2024-03-28,1,,,,,,0
926,5010401181334,新規,0,2024-03-28,2024-03-28,ＬｉｖｅＰｏｃｋｅｔ株式会社,,株式会社,東京都,港区,三田１丁目４番１号,,13,103,1080073,,,,,,,2024-03-28,1,,,,,ライヴポケット,0
927,5010401181367,新規,0,2024-03-28,2024-03-28,株式会社ＢＥＡＵＴＹ　ＳＣＡＮＤＡＬ,,株式会社,東京都,港区,六本木７丁目６番２－４０８号,,13,103,1060032,,,,,,,2024-03-28,1,,,,,ビューティースキャンダル,0
930,5010601064909,新規,0,2024-03-28,2024-03-28,株式会社糸数不動産,,株式会社,東京都,江東区,豊洲５丁目６番２９－２１０１号,,13,108,1350061,,,,,,,2024-03-28,1,,,,,イトカズフドウサン,0
932,5010603010729,新規,0,2024-03-28,2024-03-28,合同会社ＦＡＳＴＬＡＮＥ,,合同会社,東京都,墨田区,緑１丁目７番１号,,13,107,1300021,,,,,,,2024-03-28,1,,,,,ファストレーン,0
933,5010603010737,新規,0,2024-03-28,2024-03-28,合同会社ｍｅ＆ｙｏｕ,,合同会社,東京都,江東区,東陽２丁目２番‐１４‐１４１６号,,13,108,1350016,,,,,,,2024-03-28,1,,,,,ミーアンドユー,0
939,5010901054964,新規,0,2024-03-28,2024-03-28,株式会社ナウェルデザイン,,株式会社,東京都,世田谷区,豪徳寺２丁目２番１１号,,13,112,1540021,,,,,,,2024-03-28,1,,,,,ナウェルデザイン,0
940,5010901054972,新規,0,2024-03-28,2024-03-28,株式会社ＡＫＧ,,株式会社,東京都,世田谷区,野沢３丁目７番８－７０１号,,13,112,1540003,,,,,,,2024-03-28,1,,,,,エーケージー,0
945,5011001160777,新規,0,2024-03-28,2024-03-28,株式会社ヒカリノアトリエ,,株式会社,東京都,渋谷区,恵比寿西２丁目８番４号ＥＸ恵比寿西ビル５階,,13,113,1500021,,,,,,,2024-03-28,1,,,,,ヒカリノアトリエ,0
946,5011001160851,新規,0,2024-03-28,2024-03-28,株式会社ＬＩｌｉａｍ,,株式会社,東京都,渋谷区,神宮前６丁目２３－４－２Ｆ,,13,113,1500001,,,,,,,2024-03-28,1,,,,,リリアム,0
947,5011001160901,新規,0,2024-03-28,2024-03-28,株式会社オティアススタジオ,,株式会社,東京都,目黒区,目黒２丁目１１番３号印刷工場２階ｂ号室,,13,110,1530063,,,,,,,2024-03-28,1,,,,,オティアススタジオ,0
949,5011003018759,新規,0,2024-03-28,2024-03-28,ＹＡＭＵ　ＪＡＰＡＮ合同会社,,合同会社,東京都,渋谷区,渋谷２丁目１９－１５宮益坂ビルディング６０９,,13,113,1500002,,,,,,,2024-03-28,1,,,,,ヤムジャパン,0
950,5011101106548,新規,0,2024-03-28,2024-03-28,ＪＳ‐ＬＩＮＥ株式会社,,株式会社,東京都,新宿区,西新宿３丁目３番１３号西新宿水間ビル６階,,13,104,1600023,,,,,,,2024-03-28,1,,,,,ジェイエスライン,0
951,5011101106713,新規,0,2024-03-28,2024-03-28,株式会社Ｍｏｏｎ　Ｓｔａｒ　Ｐｒｏｄｕｃｔｉｏｎｓ,,株式会社,東京都,新宿区,西新宿７丁目２番６号西新宿Ｋ－１ビル,,13,104,1600023,,,,,,,2024-03-28,1,,,,,ムーンスタープロダクションズ,0
953,5011403004318,新規,0,2024-03-28,2024-03-28,どろっぷいん合同会社,,合同会社,東京都,板橋区,栄町２６番６号プレミール板橋,,13,119,1730015,,,,,,,2024-03-28,1,,,,,ドロップイン,0
954,5011601027649,新規,0,2024-03-28,2024-03-28,株式会社Ａトラスト,,株式会社,東京都,練馬区,高松５丁目４番６号,,13,120,1790075,,,,,,,2024-03-28,1,,,,,エートラスト,0
955,5011703003787,新規,0,2024-03-28,2024-03-28,合同会社Ｊ・Ｉ　ｏｆｆｉｃｅ,,合同会社,東京都,江戸川区,平井５丁目２６番５号,,13,123,1320035,,,,,,,2024-03-28,1,,,,,ジェイアイオフィス,0
958,5011801043999,新規,0,2024-03-28,2024-03-28,アコレアー株式会社,,株式会社,東京都,足立区,舎人３丁目６―２２,,13,121,1210831,,,,,,,2024-03-28,1,,,,,アコレアー,0
961,5011803006145,新規,0,2024-03-28,2024-03-28,合同会社アストロメク・ドロイド,,合同会社,東京都,葛飾区,柴又１丁目１５番１４号,,13,122,1250052,,,,,,,2024-03-28,1,,,,,アストロメクドロイド,0
962,5011805003355,新規,0,2024-03-28,2024-03-28,一般社団法人日本長寿研究学会,,その他の設立登記法人,東京都,足立区,青井２丁目１４番６号,,13,121,1200012,,,,,,,2024-03-28,1,,,,,ニホンチョウジュケンキュウガッカイ,0
967,5020001156446,新規,0,2024-03-28,2024-03-28,株式会社アルバフォースエステート,,株式会社,神奈川県,横浜市栄区,本郷台３丁目３１番１１号,,14,115,2470008,,,,,,,2024-03-28,1,,,,,アルバフォースエステート,0
973,5020003025830,新規,0,2024-03-28,2024-03-28,合同会社スペランツァ,,合同会社,神奈川県,横浜市港南区,丸山台１丁目１４番１５ライオンズステーションプラザ横浜丸山台２０９,,14,111,2330013,,,,,,,2024-03-28,1,,,,,スペランツァ,0
977,5021001081725,新規,0,2024-03-28,2024-03-28,株式会社もりおカンパニー,,株式会社,神奈川県,藤沢市,湘南台１丁目２０番地３サンセードール湘南１０３,,14,205,2520804,,,,,,,2024-03-28,1,,,,,モリオカンパニー,0
978,5021001081766,新規,0,2024-03-28,2024-03-28,株式会社ユニバースメディア,,株式会社,神奈川県,綾瀬市,寺尾釜田２丁目１７番３３－３０５号,,14,218,2521135,,,,,,,2024-03-28,1,,,,,ユニバースメディア,0
979,5021001081808,新規,0,2024-03-28,2024-03-28,株式会社Ｈｕ‐Ｆｌｏｗ,,株式会社,神奈川県,藤沢市,片瀬４丁目１７番５－７０３号,,14,205,2510032,,,,,,,2024-03-28,1,,,,,フフロー,0
984,5030001159431,新規,0,2024-03-28,2024-03-28,株式会社Ｈ．Ｋ．Ｍ,,株式会社,埼玉県,草加市,北谷２丁目２４番１９号,,11,221,3400046,,,,,,,2024-03-28,1,,,,,エイチケイエム,0
985,5030001159448,新規,0,2024-03-28,2024-03-28,株式会社ライフネットウェブ,,株式会社,埼玉県,川口市,朝日１丁目２５番２２号,,11,203,3320001,,,,,,,2024-03-28,1,,,,,ライフネットウェブ,0
988,5030003023890,新規,0,2024-03-28,2024-03-28,合同会社Ｊ‐ｅｃｏ‐Ｄｅｓｉｇｎ,,合同会社,埼玉県,入間郡三芳町,大字北永井９９４番地９,,11,324,3540044,,,,,,,2024-03-28,1,,,,,ジェイエコデザイン,0
989,5030003023908,新規,0,2024-03-28,2024-03-28,合同会社Ｒ・Ｍ　ｍａｎａｇｅｍｅｎｔ,,合同会社,埼玉県,戸田市,喜沢南２丁目１番２５号,,11,224,3350014,,,,,,,2024-03-28,1,,,,,アールエムマネジメント,0
990,5030003023916,新規,0,2024-03-28,2024-03-28,合同会社オーディーエー,,合同会社,埼玉県,久喜市,東大輪２６７番地２,,11,232,3400202,,,,,,,2024-03-28,1,,,,,オーディーエー,0
994,5040001132882,新規,0,2024-03-28,2024-03-28,株式会社長興,,株式会社,千葉県,我孫子市,布佐３２７５－２２－２０１,,12,222,2701101,,,,,,,2024-03-28,1,,,,,チョウコウ,0
995,5040001132890,新規,0,2024-03-28,2024-03-28,株式会社大阪英才日本語学院,,株式会社,千葉県,富里市,日吉台３丁目３５番地４,,12,233,2860201,,,,,,,2024-03-28,1,,,,,オオサカエイサイニホンゴガクイン,0
997,5040003024649,新規,0,2024-03-28,2024-03-28,ＳＴ　ＧＬＯＢＡＬ合同会社,,合同会社,千葉県,習志野市,藤崎６丁目１０－９－２０１,,12,216,2750017,,,,,,,2024-03-28,1,,,,,エスティグローバル,0
999,5050005013418,新規,0,2024-03-28,2024-03-28,一般社団法人ＲＫ雄,,その他の設立登記法人,茨城県,龍ケ崎市,藤ケ丘１丁目９番地５流通経済大学サッカー部龍駿寮,,08,208,3010855,,,,,,,2024-03-28,1,,,,,アールケーユウ,0
1001,5060005010182,新規,0,2024-03-28,2024-03-28,医療法人いわい歯科クリニック,,その他の設立登記法人,栃木県,鹿沼市,千渡１７５４番４,,09,205,3220002,,,,,,,2024-03-28,1,,,,,イワイシカクリニック,0
1002,5070001041536,新規,0,2024-03-28,2024-03-28,アド・ベンチャー株式会社,,株式会社,群馬県,伊勢崎市,安堀町１８９５番地５ルーシーエメラルド１０３,,10,204,3720007,,,,,,,2024-03-28,1,,,,,,0
1003,5070001041544,新規,0,2024-03-28,2024-03-28,株式会社ＳＭ　ＴＲＡＤＩＮＧ,,株式会社,群馬県,館林市,新栄町１８６１番地の１９,,10,207,3740051,,,,,,,2024-03-28,1,,,,,,0
1005,5070003005332,新規,0,2024-03-28,2024-03-28,コヌマ商事合同会社,,合同会社,群馬県,渋川市,赤城町溝呂木４２５番地１,,10,208,3791115,,,,,,,2024-03-28,1,,,,,コヌマショウジ,0
1012,5110003005344,新規,0,2024-03-28,2024-03-28,合同会社ＢＲＡＮＤ　ＮＥＷ　ＤＡＹ,,合同会社,新潟県,長岡市,大島本町５丁目１０１番地３１,,15,202,9402112,,,,,,,2024-03-28,1,,,,,ブランニューデイ,0
1022,5120001263513,新規,0,2024-03-28,2024-03-28,株式会社フェアビジョンコンサルティング,,株式会社,大阪府,大阪市北区,芝田２丁目９番１７号,,27,127,5300012,,,,,,,2024-03-28,1,,,,,フェアビジョンコンサルティング,0
1023,5120001263538,新規,0,2024-03-28,2024-03-28,株式会社ＹＫ,,株式会社,大阪府,大阪市港区,波除２丁目５番２６号,,27,107,5520001,,,,,,,2024-03-28,1,,,,,ワイケイ,0
1024,5120001263546,新規,0,2024-03-28,2024-03-28,宣子株式会社,,株式会社,大阪府,大阪市住吉区,山之内１丁目７番２号１０１号室,,27,120,5580023,,,,,,,2024-03-28,1,,,,,ノリコ,0
1025,5120001263604,新規,0,2024-03-28,2024-03-28,株式会社ＡＺ　ＨＯＭＥ　ＧＲＯＵＰ,,株式会社,大阪府,大阪市中央区,日本橋１丁目１８番１号日本一会舘４０１号室,,27,128,5420073,,,,,,,2024-03-28,1,,,,,エイジェトホームグループ,0
1026,5120001263620,新規,0,2024-03-28,2024-03-28,株式会社マルカート,,株式会社,大阪府,大阪市西区,南堀江４丁目２１番９号,,27,106,5500015,,,,,,,2024-03-28,1,,,,,マルカート,0
1027,5120001263637,新規,0,2024-03-28,2024-03-28,澤＿新生商事株式会社,00134220,株式会社,大阪府,大阪市大正区,平尾４丁目１１－７共栄ビル３０１,,27,108,5510012,,,,,,,2024-03-28,1,,,,,タクズイシンセイショウジ,0
1028,5120003026232,新規,0,2024-03-28,2024-03-28,ＲｅＳｃａｐｅ合同会社,,合同会社,大阪府,大阪市北区,西天満３丁目５番１６－６０２号,,27,127,5300047,,,,,,,2024-03-28,1,,,,,リスケイプ,0
1032,5120103005747,新規,0,2024-03-28,2024-03-28,合同会社ソステヌート,,合同会社,大阪府,和泉市,山荘町３丁目１１番２３号,,27,219,5940021,,,,,,,2024-03-28,1,,,,,ソステヌート,0
1035,5122003002840,新規,0,2024-03-28,2024-03-28,ＤｏＭａｋｅ合同会社,,合同会社,大阪府,東大阪市,寺前町１丁目７番１３号,,27,227,5770845,,,,,,,2024-03-28,1,,,,,ドゥメイク,0
1039,5130001076674,新規,0,2024-03-28,2024-03-28,藤原設備株式会社,,株式会社,京都府,八幡市,八幡軸４２番地の３１,,26,210,6148073,,,,,,,2024-03-28,1,,,,,フジハラセツビ,0
1042,5140001133846,新規,0,2024-03-28,2024-03-28,ＳＪＷ株式会社,,株式会社,兵庫県,西宮市,甲子園三番町５番８号,,28,204,6638173,,,,,,,2024-03-28,1,,,,,エスジェーダブリュー,0
1043,5140001133854,新規,0,2024-03-28,2024-03-28,株式会社ＬＥＧＥＤ,,株式会社,兵庫県,神戸市須磨区,須磨浦通４丁目７番８号,,28,107,6540055,,,,,,,2024-03-28,1,,,,,リジッド,0
1044,5140001133870,新規,0,2024-03-28,2024-03-28,株式会社長井工業,,株式会社,兵庫県,明石市,大久保町八木１７８番地の４Ａ,,28,203,6740063,,,,,,,2024-03-28,1,,,,,ナガイコウギョウ,0
1046,5140003020349,新規,0,2024-03-28,2024-03-28,合同会社ＹＯＬＯ,,合同会社,兵庫県,丹波篠山市,東岡屋２７番地,,28,221,6692345,,,,,,,2024-03-28,1,,,,,ヨロ,0
1053,5180001160762,新規,0,2024-03-28,2024-03-28,株式会社繋かけはし,,株式会社,愛知県,名古屋市千種区,東山元町２丁目５３番地の２,,23,101,4640804,,,,,,,2024-03-28,1,,,,,ツナグカケハシ,0
1054,5180001160787,新規,0,2024-03-28,2024-03-28,株式会社琉井総業,,株式会社,愛知県,小牧市,小松寺５丁目１２番地,,23,219,4850828,,,,,,,2024-03-28,1,,,,,ルイソウギョウ,0
1061,5180301038477,新規,0,2024-03-28,2024-03-28,株式会社渥美ホールディングス,,株式会社,愛知県,豊橋市,三弥町字新大口１番地７,,23,201,4413114,,,,,,,2024-03-28,1,,,,,アツミホールディングス,0
1065,5200003006283,新規,0,2024-03-28,2024-03-28,合同会社Ｒシステムズ,,合同会社,岐阜県,岐阜市,薮田南１丁目７－１６第一岐阜県ビル７０７－２,,21,201,5008384,,,,,,,2024-03-28,1,,,,,アールシステムズ,0
1076,5250003003466,新規,0,2024-03-28,2024-03-28,シルバ合同会社,,合同会社,山口県,岩国市,川下町１丁目１３番１０号,,35,208,7400023,,,,,,,2024-03-28,1,,,,,シルバ,0
1081,5260001038892,新規,0,2024-03-28,2024-03-28,株式会社エスフィールド,,株式会社,岡山県,岡山市北区,野殿西町１５８番地１１,,33,101,7000066,,,,,,,2024-03-28,1,,,,,エスフィールド,0
1089,5290005019325,新規,0,2024-03-28,2024-03-28,一般社団法人レイ・フィールド,,その他の設立登記法人,福岡県,久留米市,小森野５丁目１５番２６号,,40,203,8300001,,,,,,,2024-03-28,1,,,,,レイフィールド,0
1092,5290801030393,新規,0,2024-03-28,2024-03-28,株式会社上川緑化建設,,株式会社,福岡県,直方市,大字上頓野３７８９番地１,,40,204,8220003,,,,,,,2024-03-28,1,,,,,カミカワリョクカケンセツ,0
1093,5290805009723,新規,0,2024-03-28,2024-03-28,一般社団法人Ｌｏｃａｌ　Ｅｄｕｃａｔｉｏｎ,,その他の設立登記法人,福岡県,田川市,大字伊田５５８番地３プリエールヒルＡ棟２０２,,40,206,8250002,,,,,,,2024-03-28,1,,,,,ローカルエデュケーション,0
1106,5350001018860,新規,0,2024-03-28,2024-03-28,株式会社クマモト自動車,,株式会社,宮崎県,北諸県郡三股町,大字宮村１５９１番地１,,45,341,8891912,,,,,,,2024-03-28,1,,,,,クマモトジドウシャ,0
1108,5360005007009,新規,0,2024-03-28,2024-03-28,沖縄県まごころサービス企業組合,,その他の設立登記法人,沖縄県,那覇市,宇栄原３丁目２５番２１号オートヌフルール２０３,,47,201,9010153,,,,,,,2024-03-28,1,,,,,オキナワケンマゴコロサービス,0
1115,5400001016603,新規,0,2024-03-28,2024-03-28,株式会社創正舎,,株式会社,岩手県,盛岡市,西仙北２丁目５番１１号,,03,201,0200864,,,,,,,2024-03-28,1,,,,,ソウセイシャ,0
1118,5430001091412,新規,0,2024-03-28,2024-03-28,株式会社札幌ロジスティクス,,株式会社,北海道,札幌市厚別区,大谷地西３丁目１０番１０号,,01,108,0040042,,,,,,,2024-03-28,1,,,,,サッポロロジスティクス,0
1121,5440003001582,新規,0,2024-03-28,2024-03-28,ビトイーンベアーズ合同会社,,合同会社,北海道,茅部郡森町,字砂原５丁目１９４番地３,,01,345,0492222,,,,,,,2024-03-28,1,,,,,ビトイーンベアーズ,0
1123,5460103001605,新規,0,2024-03-28,2024-03-28,合同会社ｔｅｔｏｔｅ,,合同会社,北海道,足寄郡足寄町,北三条１丁目６番地３４,,01,647,0893703,,,,,,,2024-03-28,1,,,,,テトテ,0
1124,5470001020103,新規,0,2024-03-28,2024-03-28,アイケーエル株式会社,,株式会社,香川県,観音寺市,豊浜町和田乙１０１７番地,,37,205,7691603,,,,,,,2024-03-28,1,,,,,アイケーエル,0
1126,5470003002611,新規,0,2024-03-28,2024-03-28,合同会社ＤＲＩＶＥ　ＰＡＲＴＮＥＲＳ,,合同会社,香川県,東かがわ市,松原９８６番地７,,37,207,7692702,,,,,,,2024-03-28,1,,,,,ドライブパートナーズ,0
1130,5700150124630,新規,0,2024-03-28,2024-03-28,ｗｕｈａｎｑｉｗｕｋｅｊｉｙｏｕｘｉａｎｇｏｎｇｓｉ,,外国会社等,,,,,,,,Ｈｕｂｅｉ　Ｐｒｏｖｉｎｃｅ，Ｗｕｈａｎ　Ｃｉｔｙ，Ｈｏｎｇｓｈａｎ　Ｄｉｓｔｒｉｃｔ，Ｎｏ．１６　Ｙｅｚｈｉｈｕ　Ｗｅｓｔ　Ｒｏａｄ，３／Ｆ，ｃｒｅａｔｉｖｅ　ｗｏｒｋｓｈｏｐ，Ｎｏ．０４，Ｄｉｓｔｒｉｃｔ　Ｄ，ｃｒｅａｔｉｖｅ　ｗｏｒｌｄ,,,,,,2024-03-28,1,,,,,ブカンセイブツカギユウゲンコウシ,0
1132,6010001243467,新規,0,2024-03-28,2024-03-28,東田産業株式会社,,株式会社,東京都,千代田区,神田錦町３丁目１５番６号名鉄不動産竹橋ビル４階,,13,101,1010054,,,,,,,2024-03-28,1,,,,,トウダサンギョウ,0
1133,6010001243483,新規,0,2024-03-28,2024-03-28,株式会社ガイアース,,株式会社,東京都,中央区,銀座５丁目４番１８号,,13,102,1040061,,,,,,,2024-03-28,1,,,,,ガイアース,0
1134,6010001243509,新規,0,2024-03-28,2024-03-28,株式会社ＳＣパートナーズ,,株式会社,東京都,千代田区,丸の内１丁目８番３号丸の内トラストタワー本館２０階,,13,101,1000005,,,,,,,2024-03-28,1,,,,,エスシーパートナーズ,0
1136,6010003043262,新規,0,2024-03-28,2024-03-28,合同会社スリープ,,合同会社,東京都,中央区,日本橋小網町１６－２１－５０１,,13,102,1030016,,,,,,,2024-03-28,1,,,,,スリープ,0
1138,6010005038095,新規,0,2024-03-28,2024-03-28,一般社団法人地域文化承継パートナーズ,,その他の設立登記法人,東京都,千代田区,九段南１丁目６－５九段会館テラス１階,,13,101,1020074,,,,,,,2024-03-28,1,,,,,チイキブンカショウケイパートナーズ,0
1143,6010401181374,新規,0,2024-03-28,2024-03-28,Ｃｈａｒｌｏｔｔｅ　Ｃｈｅｓｎａｉｓ　Ｊａｐａｎ株式会社,,株式会社,東京都,港区,赤坂１丁目１１番４４号赤坂インターシティ５階ＭａｚａｒｓＪａｐａｎ株式会社内,,13,103,1070052,,,,,,,2024-03-28,1,,,,,シャルロットシェネジャパン,0
1145,6010405023102,新規,0,2024-03-28,2024-03-28,一般社団法人Ｗｕｋｏｎｇ,,その他の設立登記法人,東京都,港区,虎ノ門１丁目１番１８号ヒューリック虎ノ門ビル９階Ｌ＆Ｐ司法書士法人内,,13,103,1050001,,,,,,,2024-03-28,1,,,,,ウーコン,0
1148,6010501052013,新規,0,2024-03-28,2024-03-28,株式会社グレートカンパニー,,株式会社,東京都,台東区,三ノ輪２丁目１５番８号パールマンション三ノ輪１００１号室,,13,106,1100011,,,,,,,2024-03-28,1,,,,,グレートカンパニー,0
1154,6010503007353,新規,0,2024-03-28,2024-03-28,合同会社Ｃｏｌｏｒ,,合同会社,東京都,台東区,浅草５丁目１－１０ＫＭビル４階,,13,106,1110032,,,,,,,2024-03-28,1,,,,,カラー,0
1155,6010605004307,新規,0,2024-03-28,2024-03-28,一般社団法人ＣＬＩ研究所,,その他の設立登記法人,東京都,墨田区,本所１丁目２７番３号,,13,107,1300004,,,,,,,2024-03-28,1,,,,,シーエルアイケンキュウジョ,0
1164,6011001160784,新規,0,2024-03-28,2024-03-28,株式会社ＭＦＴｒｕｓｔＬｅａｄ,,株式会社,東京都,渋谷区,桜丘町１８番４号二宮ビル１Ｆ－５１,,13,113,1500031,,,,,,,2024-03-28,1,,,,,エムエフトラストリード,0
1174,6011101106720,新規,0,2024-03-28,2024-03-28,川東株式会社,,株式会社,東京都,新宿区,西新宿４丁目１６－３マンション西新宿２０５Ｇ号室,,13,104,1600023,,,,,,,2024-03-28,1,,,,,カワヒガシ,0
1175,6011403004317,新規,0,2024-03-28,2024-03-28,ＳＤ　Ａｓｓｅｔ　Ｍａｎａｇｅｍｅｎｔ合同会社,,合同会社,東京都,板橋区,大原町１１番１７－８０１号,,13,119,1740061,,,,,,,2024-03-28,1,,,,,エスディーアセットマネジメント,0
1176,6011405002285,新規,0,2024-03-28,2024-03-28,土地家屋調査士法人アイ・エス,,その他の設立登記法人,東京都,板橋区,板橋１丁目４８番４号４Ｆ,,13,119,1730004,,,,,,,2024-03-28,1,,,,,アイエス,0
1177,6011501030479,新規,0,2024-03-28,2024-03-28,株式会社ＥＳＳＳ,,株式会社,東京都,北区,豊島４丁目１１番７号,,13,117,1140003,,,,,,,2024-03-28,1,,,,,イーエスエスエス,0
1178,6011601027648,新規,0,2024-03-28,2024-03-28,株式会社髪笑,,株式会社,東京都,練馬区,豊玉南２丁目９番１５号,,13,120,1760014,,,,,,,2024-03-28,1,,,,,ハッショウ,0
1180,6011703003786,新規,0,2024-03-28,2024-03-28,合同会社Ｂａｃｋ　Ｎｉｎｅ,,合同会社,東京都,江戸川区,篠崎町２丁目２３番２０－３０３号,,13,123,1330061,,,,,,,2024-03-28,1,,,,,,0
1184,6011805003354,新規,0,2024-03-28,2024-03-28,特定非営利活動法人ハートフル法務協会,,その他の設立登記法人,東京都,足立区,梅島３丁目３３番１８－３０２号外尾行政法務事務所内,,13,121,1210816,,,,,,,2024-03-28,1,,,,,ハートフルホウムキョウカイ,0
1185,6012303001965,新規,0,2024-03-28,2024-03-28,合同会社ナカマチ建物,,合同会社,東京都,町田市,中町１丁目２８番１２－１０５号,,13,209,1940021,,,,,,,2024-03-28,1,,,,,ナカマチタテモノ,0
1186,6013301052265,新規,0,2024-03-28,2024-03-28,株式会社ＳＹ,,株式会社,東京都,豊島区,池袋２丁目１０－８大晃第８ビル７０２,,13,116,1710014,,,,,,,2024-03-28,1,,,,,エスワイ,0
1187,6013301052273,新規,0,2024-03-28,2024-03-28,博信金属株式会社,,株式会社,東京都,豊島区,東池袋１丁目３１番１３号４０３室,,13,116,1700013,,,,,,,2024-03-28,1,,,,,ハクシンキンゾク,0
1192,6020001156354,新規,0,2024-03-28,2024-03-28,株式会社ＭｉＳｃｅｒｅ,,株式会社,神奈川県,川崎市宮前区,鷺沼３丁目１番地２７,,14,136,2160004,,,,,,,2024-03-28,1,,,,,ミスケーレ,0
1193,6020001156453,新規,0,2024-03-28,2024-03-28,逸見教育コンサルタント株式会社,,株式会社,神奈川県,川崎市多摩区,西生田４丁目２５番２２号,,14,135,2140037,,,,,,,2024-03-28,1,,,,,ヘンミキョウイクコンサルタント,0
1194,6020001156478,新規,0,2024-03-28,2024-03-28,株式会社ＣＡＳＥＤＥＳＩＧＮ,,株式会社,神奈川県,横浜市神奈川区,反町２丁目１６番地５,,14,102,2210825,,,,,,,2024-03-28,1,,,,,ケースデザイン,0
1198,6020003025788,新規,0,2024-03-28,2024-03-28,合同会社Ｂｅ　Ｙｏｕｒｓｅｌｆ,,合同会社,神奈川県,横浜市青葉区,若草台１０－７,,14,117,2270045,,,,,,,2024-03-28,1,,,,,ビーユアセルフ,0
1199,6020005016323,新規,0,2024-03-28,2024-03-28,特定非営利活動法人みらいっ子,,その他の設立登記法人,神奈川県,川崎市麻生区,細山２丁目１０番７号,,14,137,2150001,,,,,,,2024-03-28,1,,,,,ミライッコ,0
1204,6021001081815,新規,0,2024-03-28,2024-03-28,株式会社新道,,株式会社,神奈川県,大和市,上和田１０５３番地デュプレックス青山ＩＩＩ１０２,00134222,14,213,2420014,,,,,,,2024-03-28,1,,,,,シンドウ,0
1205,6021001081823,新規,0,2024-03-28,2024-03-28,株式会社あつぎ塗装工業,,株式会社,神奈川県,厚木市,下川入２８４番地１クレールメゾン２０２,,14,212,2430206,,,,,,,2024-03-28,1,,,,,アツギトソウコウギョウ,0
1209,6021003014252,新規,0,2024-03-28,2024-03-28,ＫＩＹ合同会社,,合同会社,神奈川県,鎌倉市,材木座６丁目６－３２,,14,204,2480013,,,,,,,2024-03-28,1,,,,,ケイアイワイ,0
1211,6021005013054,新規,0,2024-03-28,2024-03-28,行政書士法人グローバルＢＡＳＥ,,その他の設立登記法人,神奈川県,茅ヶ崎市,新栄町７－５－３Ｆｏｆｆｉｃｅ２７,,14,207,2530044,,,,,,,2024-03-28,1,,,,,グローバルベース,0
1217,6030001159430,新規,0,2024-03-28,2024-03-28,株式会社ＬＡＴＥＣ,,株式会社,埼玉県,鶴ヶ島市,脚折町２丁目４番２号,,11,241,3502211,,,,,,,2024-03-28,1,,,,,ラテック,0
1218,6030001159463,新規,0,2024-03-28,2024-03-28,大洋商事株式会社,,株式会社,埼玉県,戸田市,大字新曽１９１８番地の１,,11,224,3350021,,,,,,,2024-03-28,1,,,,,タイヨウショウジ,0
1219,6030001159471,新規,0,2024-03-28,2024-03-28,株式会社新井建設,,株式会社,埼玉県,所沢市,大字中富３３番地の１２エスポワール中富１０５,,11,208,3590002,,,,,,,2024-03-28,1,,,,,アライケンセツ,0
1222,6030003023907,新規,0,2024-03-28,2024-03-28,ＬＡＤＯＢ合同会社,,合同会社,埼玉県,蕨市,北町３丁目６番１５号,,11,223,3350001,,,,,,,2024-03-28,1,,,,,ラドブ,0
1223,6030003023915,新規,0,2024-03-28,2024-03-28,春水合同会社,,合同会社,埼玉県,川口市,飯塚３丁目４番２３号,,11,203,3320023,,,,,,,2024-03-28,1,,,,,シュンスイ,0
1231,6040001132881,新規,0,2024-03-28,2024-03-28,株式会社ヤジマホールディングス,,株式会社,千葉県,印西市,戸神台２丁目１番地１棟２０８号,,12,231,2701349,,,,,,,2024-03-28,1,,,,,ヤジマホールディングス,0
1233,6040003024615,新規,0,2024-03-28,2024-03-28,クローバー商社合同会社,,合同会社,千葉県,船橋市,南本町２９－２３－１,,12,204,2730004,,,,,,,2024-03-28,1,,,,,クローバーショウシャ,0
1246,6070001041543,新規,0,2024-03-28,2024-03-28,株式会社Ｐ．Ｋ,,株式会社,群馬県,邑楽郡大泉町,西小泉４丁目３番１０号パナハイツ引間Ｂ棟２０１号,,10,524,3700517,,,,,,,2024-03-28,1,,,,,ピーケイ,0
1253,6100001037315,新規,0,2024-03-28,2024-03-28,タビシロ株式会社,,株式会社,長野県,松本市,城西１丁目３番６号,,20,202,3900875,,,,,,,2024-03-28,1,,,,,タビシロ,0
1254,6100001037331,新規,0,2024-03-28,2024-03-28,美徳屋株式会社,,株式会社,長野県,長野市,三輪１丁目２２番４号,,20,201,3800803,,,,,,,2024-03-28,1,,,,,ビトクヤ,0
1262,6120001263504,新規,0,2024-03-28,2024-03-28,作陽ビジネスサポート株式会社,,株式会社,大阪府,大阪市阿倍野区,長池町４番４号パステル２０１号,,27,119,5450013,,,,,,,2024-03-28,1,,,,,サクヨウビジネスサポート,0
1263,6120001263529,新規,0,2024-03-28,2024-03-28,株式会社Ｔスタッフ,,株式会社,大阪府,大阪市中央区,大手前１丁目７番３１号,,27,128,5400008,,,,,,,2024-03-28,1,,,,,ティースタッフ,0
1264,6120001263537,新規,0,2024-03-28,2024-03-28,君楽株式会社,,株式会社,大阪府,大阪市浪速区,大国２丁目５番１８号,,27,111,5560014,,,,,,,2024-03-28,1,,,,,クンラク,0
1265,6120003026248,新規,0,2024-03-28,2024-03-28,合同会社スイートピー,,合同会社,大阪府,大阪市平野区,平野本町５丁目１番１７号,,27,126,5470044,,,,,,,2024-03-28,1,,,,,スイートピー,0
1268,6120901048962,新規,0,2024-03-28,2024-03-28,株式会社匠研フラット,,株式会社,大阪府,池田市,旭丘２丁目１２番２５号,,27,204,5630022,,,,,,,2024-03-28,1,,,,,ショウケンフラット,0
1273,6130001076673,新規,0,2024-03-28,2024-03-28,ＳＣＡＬＥ株式会社,,株式会社,京都府,京都市伏見区,深草泓ノ壺町１２３番地日大ハイツ１階東側,,26,109,6128435,,,,,,,2024-03-28,1,,,,,スケール,0
1274,6130003009409,新規,0,2024-03-28,2024-03-28,合同会社ＫＡＮＪＵＡＮ,,合同会社,京都府,京都市南区,東九条中御霊町５２番地１５,,26,107,6018027,,,,,,,2024-03-28,1,,,,,カンジュアン,0
1282,6140001133829,新規,0,2024-03-28,2024-03-28,株式会社Ｖｅｒｉｔａｓ,,株式会社,兵庫県,神戸市兵庫区,三石通３丁目２番１５－２０１号,,28,105,6520861,,,,,,,2024-03-28,1,,,,,ヴェリタス,0
1283,6140001133845,新規,0,2024-03-28,2024-03-28,株式会社ヒシャク,,株式会社,兵庫県,神戸市中央区,磯辺通１丁目１番１８号カサベラ国際プラザビル７０７号室,,28,110,6510084,,,,,,,2024-03-28,1,,,,,,0
1287,6140003020265,新規,0,2024-03-28,2024-03-28,合同会社シマック,,合同会社,兵庫県,高砂市,北浜町牛谷３２６番地の１３,,28,216,6710121,,,,,,,2024-03-28,1,,,,,シマック,0
1288,6140003020348,新規,0,2024-03-28,2024-03-28,合同会社ＵＰ＆ＧＯ,,合同会社,兵庫県,西宮市,山口町上山口１３０６番地２２,,28,204,6511421,,,,,,,2024-03-28,1,,,,,アップアンドゴー,0
1289,6140005026987,新規,0,2024-03-28,2024-03-28,一般社団法人愛神会,,その他の設立登記法人,兵庫県,神戸市垂水区,城が山１丁目１０番３８号,,28,108,6550884,,,,,,,2024-03-28,1,,,,,アイシンカイ,0
1299,6180301038468,新規,0,2024-03-28,2024-03-28,株式会社カネナカフーズ,,株式会社,愛知県,豊橋市,牟呂町字西明治新右前５７番地,,23,201,4418087,,,,,,,2024-03-28,1,,,,,カネナカフーズ,0
1306,6240001063009,新規,0,2024-03-28,2024-03-28,株式会社ＭＯＳＴ,,株式会社,広島県,広島市中区,小町３番３１号,,34,101,7300041,,,,,,,2024-03-28,1,,,,,モスト,0
1311,6250001020586,新規,0,2024-03-28,2024-03-28,株式会社ＩＴＡＤＡＫＩ,,株式会社,山口県,下松市,潮音町１丁目１５番１７号,,35,207,7440074,,,,,,,2024-03-28,1,,,,,イタダキ,0
1312,6260001038891,新規,0,2024-03-28,2024-03-28,小田象商店株式会社,,株式会社,岡山県,岡山市南区,妹尾７６７番地３,,33,104,7010205,,,,,,,2024-03-28,1,,,,,オダゾウショウテン,0
1320,6290001105268,新規,0,2024-03-28,2024-03-28,ＫＲ商事株式会社,,株式会社,福岡県,福津市,宮司ヶ丘２９番６号,,40,224,8113312,,,,,,,2024-03-28,1,,,,,ケイアールショウジ,0
1323,6290003015127,新規,0,2024-03-28,2024-03-28,日向貿易合同会社,,合同会社,福岡県,福岡市博多区,石城町５番１１－１１０１号クレアウォーターマーク,,40,132,8120032,,,,,,,2024-03-28,1,,,,,ヒュウガボウエキ,0
1324,6290005019324,新規,0,2024-03-28,2024-03-28,弁護士法人舞田法律事務所,,その他の設立登記法人,福岡県,福岡市中央区,天神１丁目１４番４号天神平和ビル２階,,40,133,8100001,,,,,,,2024-03-28,1,,,,,マイタホウリツジムショ,0
1325,6290805009722,新規,0,2024-03-28,2024-03-28,一般社団法人ＳＴＡＲ　ＧＥＯＲＧＥ,,その他の設立登記法人,福岡県,北九州市小倉南区,下吉田４丁目３番１１号,,40,107,8000203,,,,,,,2024-03-28,1,,,,,スタージョージ,0
1332,6320001020380,新規,0,2024-03-28,2024-03-28,永興商事株式会社,,株式会社,大分県,大分市,賀来新川１丁目４番１－１１０２号,,44,201,8700892,,,,,,,2024-03-28,1,,,,,リョウゴショウジ,0
1336,6330005010773,新規,0,2024-03-28,2024-03-28,社会保険労務士法人アスワン,,その他の設立登記法人,熊本県,熊本市中央区,八王寺町３０番１号,,43,101,8600831,,,,,,,2024-03-28,1,,,,,アスワン,0
1339,6350003004602,新規,0,2024-03-28,2024-03-28,合同会社Ｔｈｒｅｅ　Ｌ　Ｓｑｕａｄ,,合同会社,宮崎県,都城市,大王町４５号２番地１,,45,202,8850026,,,,,,,2024-03-28,1,,,,,スリーエルスクワッド,0
1344,6360001033395,新規,0,2024-03-28,2024-03-28,株式会社大話,,株式会社,沖縄県,那覇市,泉崎１丁目１３番８号ハーモニー泉崎３階,,47,201,9000021,,,,,,,2024-03-28,1,,,,,テーファー,0
1345,6360001033404,新規,0,2024-03-28,2024-03-28,株式会社ＴＯＲＩＴＴＹ,,株式会社,沖縄県,宜野湾市,伊佐２丁目５番１７号３Ｆ,,47,205,9012221,,,,,,,2024-03-28,1,,,,,トリティー,0
1346,6360003013841,新規,0,2024-03-28,2024-03-28,合同会社はる,,合同会社,沖縄県,宮古島市,下地字上地６２８番地１下地第４上地市営住宅８棟８－２－Ｂ号,,47,214,9060304,,,,,,,2024-03-28,1,,,,,ハル,0
1361,6500005008692,新規,0,2024-03-28,2024-03-28,一般社団法人愛媛福祉美容資格認定協会,,その他の設立登記法人,愛媛県,松山市,南梅本町１２６３－３,,38,201,7910245,,,,,,,2024-03-28,1,,,,,エヒメフクシビヨウシカクニンテイキョウカイ,0
1362,6700150124646,新規,0,2024-03-28,2024-03-28,和知川原二区自治会,,その他,宮崎県,宮崎市,和知川原３丁目７４,,45,201,8800023,,,,,,,2024-03-28,1,,,,,ワチガワラニクジチカイ,0
1367,7010001243466,新規,0,2024-03-28,2024-03-28,株式会社グッドベイス,,株式会社,東京都,文京区,本駒込１丁目１５番９号,,13,105,1130021,,,,,,,2024-03-28,1,,,,,グッドベイス,0
1368,7010001243474,新規,0,2024-03-28,2024-03-28,株式会社Ｓｐｒｉｎｇ　Ｒｏａｄ,,株式会社,東京都,千代田区,鍛冶町１丁目１０番６号ＢＩＺＳＭＡＲＴ神田,,13,101,1010044,,,,,,,2024-03-28,1,,,,,スプリングロード,0
1369,7010001243490,新規,0,2024-03-28,2024-03-28,株式会社ブルーライン,,株式会社,東京都,中央区,東日本橋３丁目１２番１２号第５高野ビル４Ｆ,,13,102,1030004,,,,,,,2024-03-28,1,,,,,ブルーライン,0
1370,7010001243508,新規,0,2024-03-28,2024-03-28,ＵＢＳホールディングス株式会社,,株式会社,東京都,千代田区,大手町１丁目５番１号,,13,101,1000004,,,,,,,2024-03-28,1,,,,,ユービーエスホールディングス,0
1372,7010003043328,新規,0,2024-03-28,2024-03-28,ＧＬＰ白井合同会社,,合同会社,東京都,中央区,八重洲２丁目２番１号,,13,102,1040028,,,,,,,2024-03-28,1,,,,,ジーエルピーシロイ,0
1373,7010003043336,新規,0,2024-03-28,2024-03-28,Ｄ＆Ｃｏｍｐａｎｙ合同会社,,合同会社,東京都,千代田区,富士見１丁目３番１１号富士見デュープレックスＢ‘ｓ４Ｆ,,13,101,1020071,,,,,,,2024-03-28,1,,,,,ディーアンドカンパニー,0
1380,7010401181332,新規,0,2024-03-28,2024-03-28,株式会社ＡＤＫソーシャルメディア・マーケティング,,株式会社,東京都,港区,虎ノ門３丁目８番２１号,,13,103,1050001,,,,,,,2024-03-28,1,,,,,エイディケイソーシャルメディアマーケティング,0
1381,7010401181365,新規,0,2024-03-28,2024-03-28,株式会社東京ラボ,,株式会社,東京都,港区,台場１丁目１番１－１４０３号,,13,103,1350091,,,,,,,2024-03-28,1,,,,,トウキョウラボ,0
1384,7010403032260,新規,0,2024-03-28,2024-03-28,合同会社リトス,,合同会社,東京都,港区,六本木７丁目１２番１２号,,13,103,1060032,,,,,,,2024-03-28,1,,,,,リトス,0
1385,7010405023101,新規,0,2024-03-28,2024-03-28,一般社団法人Ａｍｐｉｌ,,その他の設立登記法人,東京都,港区,虎ノ門１丁目１番１８号ヒューリック虎ノ門ビル９階Ｌ＆Ｐ司法書士法人内,,13,103,1050001,,,,,,,2024-03-28,1,,,,,アンピル,0
1386,7010501052012,新規,0,2024-03-28,2024-03-28,株式会社ＰＨＩＥＲ,,株式会社,東京都,台東区,東上野２丁目８番２－９０２号ヴォーガコルテ御徒町,,13,106,1100015,,,,,,,2024-03-28,1,,,,,ファイアー,0
1393,7010701045765,新規,0,2024-03-28,2024-03-28,株式会社ワークアンドウェルビーイング,,株式会社,東京都,品川区,西五反田１丁目２４番４－８０１号,,13,109,1410031,,,,,,,2024-03-28,1,,,,,ワークアンドウェルビーイング,0
1395,7010901054938,新規,0,2024-03-28,2024-03-28,株式会社アエナホールディングス,,株式会社,東京都,世田谷区,三軒茶屋２丁目２番１６号,,13,112,1540024,,,,,,,2024-03-28,1,,,,,アエナホールディングス,0
1396,7010905004591,新規,0,2024-03-28,2024-03-28,一般社団法人医科歯科マーケティング協会,,その他の設立登記法人,東京都,世田谷区,松原５丁目４８番２４号,,13,112,1560043,,,,,,,2024-03-28,1,,,,,イカシカマーケティングキョウカイ,0
1407,7011003018732,新規,0,2024-03-28,2024-03-28,合同会社ＭＣＴ,,合同会社,東京都,目黒区,上目黒４丁目９番２号,,13,110,1530051,,,,,,,2024-03-28,1,,,,,エムシーティー,0
1408,7011005010448,新規,0,2024-03-28,2024-03-28,一般社団法人山手労働福祉協会,,その他の設立登記法人,東京都,渋谷区,猿楽町２９番８号ヒルサイドテラスＥ棟６号室,,13,113,1500033,,,,,,,2024-03-28,1,,,,,ヤマノテロウドウフクシキョウカイ,0
1409,7011101106728,新規,0,2024-03-28,2024-03-28,株式会社ＡＫＩＥ,,株式会社,東京都,新宿区,西落合２丁目１５－１０ＪＡＳＰＥＲＮｉｓｈｉｏｃｈｉａｉ１０１号室,,13,104,1610031,,,,,,,2024-03-28,1,,,,,アキエ,0
1412,7011301029530,新規,0,2024-03-28,2024-03-28,ＦＥＬＩＸ株式会社,,株式会社,東京都,杉並区,天沼３丁目２番１８号フォルトゥーナ荻窪３０１,,13,115,1670032,,,,,,,2024-03-28,1,,,,,フェリックス,0
1418,7011701027134,新規,0,2024-03-28,2024-03-28,株式会社ＮＪ,,株式会社,東京都,江戸川区,鹿骨１丁目２０番９号ラ・マドレＶＩＩ２０２,00134228,13,123,1330073,,,,,,,2024-03-28,1,,,,,エヌジェー,0
1419,7011801043989,新規,0,2024-03-28,2024-03-28,株式会社Ｊｅｙｓｔｕｄｉｏ,,株式会社,東京都,足立区,平野３丁目７番６号,,13,121,1210076,,,,,,,2024-03-28,1,,,,,ジェイスタジオ,0
1420,7011801043997,新規,0,2024-03-28,2024-03-28,株式会社ＧＲＯＷ　ＳＰＯＲＴＳ　ＣＬＵＢ,,株式会社,東京都,足立区,扇３丁目１９番２１－３１１号,,13,121,1230873,,,,,,,2024-03-28,1,,,,,グロウスポーツクラブ,0
1421,7011803006151,新規,0,2024-03-28,2024-03-28,ＮＴＰ合同会社,,合同会社,東京都,葛飾区,宝町２丁目２３番１１号エムハウス１０２,,13,122,1240005,,,,,,,2024-03-28,1,,,,,エヌティーピー,0
1425,7012801023072,新規,0,2024-03-28,2024-03-28,株式会社北誠,,株式会社,東京都,日野市,大坂上４丁目１１番地の１７,,13,212,1910061,,,,,,,2024-03-28,1,,,,,ホクセイ,0
1430,7013301052264,新規,0,2024-03-28,2024-03-28,株式会社７ＧＲＯＵＰ,,株式会社,東京都,豊島区,池袋２丁目１０－８大晃第８ビル６０２,,13,116,1710014,,,,,,,2024-03-28,1,,,,,セブングループ,0
1436,7020001156411,新規,0,2024-03-28,2024-03-28,株式会社ベジテフレス,,株式会社,神奈川県,横浜市神奈川区,片倉４丁目６番３号,,14,102,2210865,,,,,,,2024-03-28,1,,,,,ベジテフレス,0
1437,7020001156469,新規,0,2024-03-28,2024-03-28,株式会社カリー,,株式会社,神奈川県,横浜市南区,白妙町５丁目６５番地１,,14,105,2320023,,,,,,,2024-03-28,1,,,,,カリー,0
1444,7021005013053,新規,0,2024-03-28,2024-03-28,一般社団法人神奈川オレンジネットワーク,,その他の設立登記法人,神奈川県,鎌倉市,今泉台４丁目５番１６号,,14,204,2470053,,,,,,,2024-03-28,1,,,,,カナガワオレンジネットワーク,0
1456,7030001159421,新規,0,2024-03-28,2024-03-28,株式会社スターシェア,,株式会社,埼玉県,久喜市,伊坂中央２丁目１番地２５,,11,232,3491127,,,,,,,2024-03-28,1,,,,,スターシェア,0
1459,7030003023906,新規,0,2024-03-28,2024-03-28,合同会社いーりお,,合同会社,埼玉県,川口市,中青木１丁目２番３号ラ・アトレ中青木３０３号,,11,203,3320032,,,,,,,2024-03-28,1,,,,,イーリオ,0
1460,7030003023914,新規,0,2024-03-28,2024-03-28,ＧＴモーター合同会社,,合同会社,埼玉県,鶴ヶ島市,新町１丁目９番地８,,11,241,3502227,,,,,,,2024-03-28,1,,,,,ジーティーモーター,0
1467,7040003024639,新規,0,2024-03-28,2024-03-28,合同会社八田建築計画工房,,合同会社,千葉県,市川市,八幡２丁目９番１５号ブラッサムフォーラム市川,,12,203,2720021,,,,,,,2024-03-28,1,,,,,ハッタケンチクケイカクコウボウ,0
1468,7040003024647,新規,0,2024-03-28,2024-03-28,合同会社ＳＲトレーディングジャパン,,合同会社,千葉県,市川市,東大和田１丁目２６番３号アーバンハイム２０５号,,12,203,2720026,,,,,,,2024-03-28,1,,,,,エスアールトレーディングジャパン,0
1477,7050005013416,新規,0,2024-03-28,2024-03-28,医療法人社団将英会,,その他の設立登記法人,茨城県,取手市,戸頭４丁目１５番１８号１０２号室,,08,217,3020034,,,,,,,2024-03-28,1,,,,,ショウエイカイ,0
1481,7060003005001,新規,0,2024-03-28,2024-03-28,合同会社Ａｌｌｉａｃ,,合同会社,栃木県,鹿沼市,緑町１丁目１－２０大森ビル２０２,,09,205,3220025,,,,,,,2024-03-28,1,,,,,オーリエック,0
1486,7070001041542,新規,0,2024-03-28,2024-03-28,荻原物産ホールディングス株式会社,,株式会社,群馬県,太田市,東矢島町７６７番地の１,,10,205,3730816,,,,,,,2024-03-28,1,,,,,オギハラブッサンホールディングス,0
1487,7070001041550,新規,0,2024-03-28,2024-03-28,Ｂｅ　Ｃｏｎｎｅｃｔ株式会社,,株式会社,群馬県,前橋市,朝日町３丁目４番２号,,10,201,3710014,,,,,,,2024-03-28,1,,,,,,0
1494,7100001037306,新規,0,2024-03-28,2024-03-28,株式会社＿,00134218,株式会社,長野県,諏訪市,大字四賀１９４２番地１,,20,206,3920012,,,,,,,2024-03-28,1,,,,,ライヨン,0
1495,7100003007471,新規,0,2024-03-28,2024-03-28,合同会社ＳＫエネルギー,,合同会社,長野県,千曲市,大字雨宮１７００番地４,,20,218,3870001,,,,,,,2024-03-28,1,,,,,エスケイエネルギー,0
1502,7120001263263,新規,0,2024-03-28,2024-03-28,ＭＭＭホールディングス株式会社,,株式会社,大阪府,大阪市中央区,今橋２丁目５番８号,,27,128,5410042,,,,,,,2024-03-28,1,,,,,エムエムエムホールディングス,0
1503,7120001263536,新規,0,2024-03-28,2024-03-28,株式会社大日本警備,,株式会社,大阪府,大阪市北区,東天満１丁目１２－１３ＩＡＧ天満ビル５階,,27,127,5300044,,,,,,,2024-03-28,1,,,,,ダイニホンケイビ,0
1504,7120003026239,新規,0,2024-03-28,2024-03-28,フレイザープライス合同会社,,合同会社,大阪府,大阪市都島区,都島北通１丁目１番４号,,27,102,5340014,,,,,,,2024-03-28,1,,,,,フレイザープライス,0
1506,7120005024216,新規,0,2024-03-28,2024-03-28,雅土地家屋調査士法人,,その他の設立登記法人,大阪府,大阪市中央区,鎗屋町１丁目３番１０－２０３号,,27,128,5400027,,,,,,,2024-03-28,1,,,,,ミヤビ,0
1509,7120103005745,新規,0,2024-03-28,2024-03-28,合同会社おくり火,,合同会社,大阪府,岸和田市,葛城町１２５０番地の３,,27,202,5960824,,,,,,,2024-03-28,1,,,,,オクリビ,0
1512,7122001037928,新規,0,2024-03-28,2024-03-28,株式会社スカイリフォーム,,株式会社,大阪府,東大阪市,近江堂２丁目１０番４６号,,27,227,5770817,,,,,,,2024-03-28,1,,,,,スカイリフォーム,0
1513,7122001037944,新規,0,2024-03-28,2024-03-28,株式会社Ｍ‐Ｎ　ＴＯＯＬＩＮＧ,,株式会社,大阪府,大東市,南新田１丁目５番１号,,27,218,5740023,,,,,,,2024-03-28,1,,,,,エムエヌツーリング,0
1514,7122001037952,新規,0,2024-03-28,2024-03-28,エコリス株式会社,,株式会社,大阪府,東大阪市,荒川１丁目６－１１－４０３,,27,227,5770843,,,,,,,2024-03-28,1,,,,,エコリス,0
1515,7122003002839,新規,0,2024-03-28,2024-03-28,合同会社ＩＲＩＥ,,合同会社,大阪府,八尾市,恩智中町２丁目１１３－９,,27,212,5810883,,,,,,,2024-03-28,1,,,,,アイリー,0
1523,7130003009408,新規,0,2024-03-28,2024-03-28,合同会社Ｌｅｖｉ,,合同会社,京都府,京都市伏見区,竹田西桶ノ井町１５番地,,26,109,6128428,,,,,,,2024-03-28,1,,,,,レビ,0
1524,7130005017045,新規,0,2024-03-28,2024-03-28,特定非営利活動法人京都福祉事業支援友の会,,その他の設立登記法人,京都府,京都市中京区,場之町５９６エスメラルダ１００３,,26,104,6048172,,,,,,,2024-03-28,1,,,,,キョウトフクシジギョウシエントモノカイ,0
1530,7140001133860,新規,0,2024-03-28,2024-03-28,株式会社ＴＡＳＨＩトレーディング,,株式会社,兵庫県,姫路市,香寺町香呂５２番地５,,28,201,6792151,,,,,,,2024-03-28,1,,,,,タシトレーディング,0
1536,7160003003151,新規,0,2024-03-28,2024-03-28,合同会社Ｍｏｏｓｅ,,合同会社,滋賀県,大津市,際川４丁目１１番２２号,,25,201,5200002,,,,,,,2024-03-28,1,,,,,ムース,0
1548,7190001031226,新規,0,2024-03-28,2024-03-28,株式会社地盤解析テクノロジー,,株式会社,三重県,津市,高茶屋小森町１７０７番地２５８,,24,201,5140817,,,,,,,2024-03-28,1,,,,,ジバンカイセキテクノロジー,0
1549,7190003004626,新規,0,2024-03-28,2024-03-28,合同会社フラット,,合同会社,三重県,南牟婁郡御浜町,大字下市木３３２９番地,,24,561,5195203,,,,,,,2024-03-28,1,,,,,フラット,0
1555,7200003006281,新規,0,2024-03-28,2024-03-28,合同会社カルテット・Ｈ,,合同会社,岐阜県,加茂郡富加町,滝田１３９７番地１,,21,502,5013305,,,,,,,2024-03-28,1,,,,,カルテットエイチ,0
1559,7240001063008,新規,0,2024-03-28,2024-03-28,株式会社Ａｖｅｎｉｒ,,株式会社,広島県,福山市,本郷町４３３５番地,,34,207,7290252,,,,,,,2024-03-28,1,,,,,アヴニール,0
1561,7240003006600,新規,0,2024-03-28,2024-03-28,合同会社ＴＳヒロケン,,合同会社,広島県,広島市東区,中山東１丁目１番７－１０３号,,34,102,7320023,,,,,,,2024-03-28,1,,,,,ティーエスヒロケン,0
1562,7260001038899,新規,0,2024-03-28,2024-03-28,トクラフードエンターテイメント＆トラスト株式会社,,株式会社,岡山県,倉敷市,水江１５４４番地１,,33,202,7100802,,,,,,,2024-03-28,1,,,,,トクラフードエンターテイメントアンドトラスト,0
1568,7280005007601,新規,0,2024-03-28,2024-03-28,一般社団法人安来市観光協会,,その他の設立登記法人,島根県,安来市,安来町２０９３番地３,,32,206,6920011,,,,,,,2024-03-28,1,,,,,,0
1572,7290001105242,新規,0,2024-03-28,2024-03-28,株式会社Ｔ＆Ａ,,株式会社,福岡県,福岡市中央区,六本松３丁目１１番３９号,,40,133,8100044,,,,,,,2024-03-28,1,,,,,ティーアンドエイ,0
1573,7290001105267,新規,0,2024-03-28,2024-03-28,株式会社マジカルミュゼ,,株式会社,福岡県,久留米市,天神町１１６番地永利ビル１－Ａ,,40,203,8300033,,,,,,,2024-03-28,1,,,,,マジカルミュゼ,0
1582,7330001031896,新規,0,2024-03-28,2024-03-28,株式会社ＳＵＮ　ＡＣＥ,,株式会社,熊本県,熊本市北区,楠２丁目１番４０－１１０１号,,43,105,8618003,,,,,,,2024-03-28,1,,,,,サンエース,0
1591,7350003004601,新規,0,2024-03-28,2024-03-28,合同会社高岡新聞販売所,,合同会社,宮崎県,宮崎市,高岡町五町１６番地１８,,45,201,8802322,,,,,,,2024-03-28,1,,,,,タカオカシンブンハンバイショ,0
1592,7360001033386,新規,0,2024-03-28,2024-03-28,株式会社Ｍ’ｓ　ｃｏｍｐａｎｙ,,株式会社,沖縄県,宮古島市,平良字下里３５６番地６６パイナガマＵ－１０７号室,,47,214,9060013,,,,,,,2024-03-28,1,,,,,エムズカンパニー,0
1595,7370001051107,新規,0,2024-03-28,2024-03-28,オアシス・アンド・カンパニー仙台株式会社,,株式会社,宮城県,仙台市青葉区,八幡２丁目１１番１７号,,04,101,9800871,,,,,,,2024-03-28,1,,,,,オアシスアンドカンパニーセンダイ,0
1605,7410003003910,新規,0,2024-03-28,2024-03-28,合同会社ブレイブ,,合同会社,秋田県,秋田市,横森４丁目７番３９号,,05,201,0100044,,,,,,,2024-03-28,1,,,,,ブレイブ,0
1607,7430001091419,新規,0,2024-03-28,2024-03-28,三田工業株式会社,,株式会社,北海道,札幌市清田区,美しが丘二条７丁目３番１２号,,01,110,0040812,,,,,,,2024-03-28,1,,,,,ミタコウギョウ,0
1620,7700150124629,新規,0,2024-03-28,2024-03-28,ＪｉｎｇＤｅＺｈｅｎ　ＲｕｉＱｕ　Ｉｎｔｅｒｎｅｔ　Ｔｅｃｈｎｏｌｏｇｙ　Ｃｏ　Ｌｔｄ,,外国会社等,,,,,,,,Ｒｏｏｍ　１１０２，Ｂｕｉｌｄｉｎｇ　Ａ３，Ｔｉａｎｙｕ　Ｇｒｅｅｎ　Ｇａｒｄｅｎ，Ｓｈｕｇｕａｎｇ　Ｒｏａｄ，Ｚｈｕｓｈａｎ　Ｄｉｓｔｒｉｃｔ，Ｊｉｎｇｄｅｚｈｅｎ　Ｃｉｔｙ，Ｊｉａｎｇｘｉ　Ｐｒｏｖｉｎｃｅ,,,,,,2024-03-28,1,,,,,ケイトクチンエイシュモウラクカギユウゲンコウシ,0
1623,8010001243333,新規,0,2024-03-28,2024-03-28,株式会社ＵＡＰ,,株式会社,東京都,中央区,銀座１丁目１２－４Ｎ＆Ｅ．ＢＬＤ．７階,,13,102,1040061,,,,,,,2024-03-28,1,,,,,ユニエーポータル,0
1624,8010001243457,新規,0,2024-03-28,2024-03-28,株式会社マイメディア,,株式会社,東京都,中央区,京橋１丁目１４番５号,,13,102,1040031,,,,,,,2024-03-28,1,,,,,マイメディア,0
1625,8010001243473,新規,0,2024-03-28,2024-03-28,山勝ホールディングス株式会社,,株式会社,東京都,中央区,銀座７丁目１５番１７号,,13,102,1040061,,,,,,,2024-03-28,1,,,,,ヤマカツホールディングス,0
1626,8010001243481,新規,0,2024-03-28,2024-03-28,株式会社鴻鵠,,株式会社,東京都,中央区,八重洲２丁目２番１号東京ミッドタウン八重洲八重洲セントラルタワー,,13,102,1040028,,,,,,,2024-03-28,1,,,,,コウコク,0
1627,8010003043277,新規,0,2024-03-28,2024-03-28,Ｈｏｐｐｅｒ　Ｊａｐａｎ合同会社,,合同会社,東京都,千代田区,五番町１２番地７－２０４３,,13,101,1020076,,,,,,,2024-03-28,1,,,,,ホッパージャパン,0
1628,8010003043327,新規,0,2024-03-28,2024-03-28,合同会社大希,,合同会社,東京都,文京区,大塚１丁目４番１５－１１０４号,,13,105,1120012,,,,,,,2024-03-28,1,,,,,ダイキ,0
1629,8010005038093,新規,0,2024-03-28,2024-03-28,一般社団法人医匠会,,その他の設立登記法人,東京都,中央区,銀座７丁目１３番２０号８階,,13,102,1040061,,,,,,,2024-03-28,1,,,,,イショウカイ,0
1630,8010101016060,新規,0,2024-03-28,2024-03-28,株式会社高尾商店,,株式会社,東京都,八王子市,七国１丁目１０番８号,,13,201,1920919,,,,,,,2024-03-28,1,,,,,タカオショウテン,0
1636,8010401181298,新規,0,2024-03-28,2024-03-28,ＫｉＭｉｄｏｒｉ株式会社,,株式会社,東京都,港区,三田３丁目１－２３－３０１,,13,103,1080073,,,,,,,2024-03-28,1,,,,,キミドリ,0
1637,8010401181348,新規,0,2024-03-28,2024-03-28,株式会社ＬＵＮＡ,,株式会社,東京都,港区,赤坂４丁目５番２０－２０２号,,13,103,1070052,,,,,,,2024-03-28,1,,,,,ルナ,0
1646,8010503007392,新規,0,2024-03-28,2024-03-28,ときた合同会社,,合同会社,東京都,台東区,池之端３丁目１番２７号,,13,106,1100008,,,,,,,2024-03-28,1,,,,,トキタ,0
1651,8010805003107,新規,0,2024-03-28,2024-03-28,一般社団法人Ｂｌｏｏｍ．Ｍ,,その他の設立登記法人,東京都,大田区,上池台５丁目１１番１５号,,13,111,1450064,,,,,,,2024-03-28,1,,,,,ブルームエム,0
1658,8011001160774,新規,0,2024-03-28,2024-03-28,株式会社リクルーティングサービス,,株式会社,東京都,渋谷区,道玄坂２丁目１６番４号野村不動産渋谷道玄坂ビル３階,,13,113,1500043,,,,,,,2024-03-28,1,,,,,リクルーティングサービス,0
1659,8011001160832,新規,0,2024-03-28,2024-03-28,ｄｒｏｍｅｎ株式会社,,株式会社,東京都,渋谷区,恵比寿西２丁目４番８号ウィンド恵比寿ビル８Ｆ,,13,113,1500021,,,,,,,2024-03-28,1,,,,,ドロームン,0
1660,8011001160840,新規,0,2024-03-28,2024-03-28,Ｓｔａｙ　ｔｏ　Ｓｔａｙ株式会社,,株式会社,東京都,渋谷区,渋谷２丁目１９－１５宮益坂ビルディング６０９,,13,113,1500002,,,,,,,2024-03-28,1,,,,,ステイツーステイ,0
1666,8011101106735,新規,0,2024-03-28,2024-03-28,株式会社アールズフローコーポレーション,,株式会社,東京都,新宿区,西新宿１丁目２６－２新宿野村ビル３２階,,13,104,1600023,,,,,,,2024-03-28,1,,,,,アールズフローコーポレーション,0
1678,8011801043996,新規,0,2024-03-28,2024-03-28,株式会社木村耐火,,株式会社,東京都,足立区,西新井本町４丁目１２番２２号,,13,121,1230845,,,,,,,2024-03-28,1,,,,,キムラタイカ,0
1680,8012403006482,新規,0,2024-03-28,2024-03-28,ＴｈｒｅｅＴｈｉｎｇｓ合同会社,,合同会社,東京都,府中市,小柳町４丁目１５番地の８,,13,206,1830013,,,,,,,2024-03-28,1,,,,,,0
1686,8020001156377,新規,0,2024-03-28,2024-03-28,株式会社Ｇｒａｎｉｚｍ,,株式会社,神奈川県,横浜市戸塚区,上矢部町２９３８番地８,,14,110,2450053,,,,,,,2024-03-28,1,,,,,グラニズム,0
1687,8020001156451,新規,0,2024-03-28,2024-03-28,株式会社グリーンホープ,,株式会社,神奈川県,横浜市戸塚区,原宿３丁目５７番２－６－５０１号,,14,110,2450063,,,,,,,2024-03-28,1,,,,,グリーンホープ,0
1688,8020001156468,新規,0,2024-03-28,2024-03-28,株式会社ＴＡＫＡＳＨＩＭＡ,,株式会社,神奈川県,川崎市川崎区,小田栄１丁目１２番８号,,14,131,2100843,,,,,,,2024-03-28,1,,,,,タカシマ,0
1689,8020001156476,新規,0,2024-03-28,2024-03-28,株式会社ＴＲＹ,,株式会社,神奈川県,横浜市都筑区,勝田南１丁目４番８号マーリエ１０１,,14,118,2240036,,,,,,,2024-03-28,1,,,,,トライ,0
1690,8020001156501,新規,0,2024-03-28,2024-03-28,ナオサイバーテック株式会社,,株式会社,神奈川県,横浜市青葉区,美しが丘２丁目１７番地４－４０４,,14,117,2250002,,,,,,,2024-03-28,1,,,,,ナオサイバーテック,0
1696,8021003014317,新規,0,2024-03-28,2024-03-28,湘南フィッシュ合同会社,,合同会社,神奈川県,横須賀市,追浜本町１丁目２８番地５サンビーチ追浜ハイツ１階,,14,201,2370068,,,,,,,2024-03-28,1,,,,,ショウナンフィッシュ,0
1700,8030001159486,新規,0,2024-03-28,2024-03-28,株式会社ＬＵＣ,,株式会社,埼玉県,さいたま市大宮区,仲町１丁目９６番地２折原ビル４階,,11,103,3300845,,,,,,,2024-03-28,1,,,,,ラック,0
1711,8040001132888,新規,0,2024-03-28,2024-03-28,株式会社ＳＭＩＬＥ,,株式会社,千葉県,船橋市,湊町２丁目１－１８新堀ギタービル２Ｆ,,12,204,2730011,,,,,,,2024-03-28,1,,,,,スマイル,0
1713,8040003024646,新規,0,2024-03-28,2024-03-28,美建合同会社,,合同会社,千葉県,市川市,南行徳４丁目９番６号,,12,203,2720138,,,,,,,2024-03-28,1,,,,,ビケン,0
1714,8040005022326,新規,0,2024-03-28,2024-03-28,一般社団法人ＭＡＲＵＣＵ,,その他の設立登記法人,千葉県,千葉市美浜区,打瀬３丁目１番地１幕張ビーチテラス１３０２号,,12,106,2610013,,,,,,,2024-03-28,1,,,,,マルク,0
1717,8050001054537,新規,0,2024-03-28,2024-03-28,株式会社Ｐｌａｙｅｒｉａ,,株式会社,茨城県,筑西市,下岡崎３丁目８番地１２,,08,227,3080826,,,,,,,2024-03-28,1,,,,,プレイエリア,0
1719,8060001036955,新規,0,2024-03-28,2024-03-28,ＯＮＥ　ＲＯＣＫ株式会社,,株式会社,栃木県,宇都宮市,岩曽１２５６番地１,,09,201,3210000,,,,,,,2024-03-28,1,,,,,ワンロック,0
1721,8060003005000,新規,0,2024-03-28,2024-03-28,合同会社ヤマナカ,,合同会社,栃木県,那須烏山市,高瀬７０８－８,,09,215,3210512,,,,,,,2024-03-28,1,,,,,ヤマナカ,0
1722,8080001026194,新規,0,2024-03-28,2024-03-28,清光土地住宅株式会社,,株式会社,静岡県,藤枝市,小石川町４丁目２番４１号,,22,214,4260033,,,,,,,2024-03-28,1,,,,,セイコウトチジュウタク,0
1723,8080001026211,新規,0,2024-03-28,2024-03-28,株式会社ダイニングＫ,,株式会社,静岡県,静岡市葵区,瀬名６丁目７番１２号,,22,101,4200911,,,,,,,2024-03-28,1,,,,,ダイニングケイ,0
1726,8080103003018,新規,0,2024-03-28,2024-03-28,ＡＪＧ合同会社,,合同会社,静岡県,富士宮市,小泉１４４９番２５,,22,207,4180022,,,,,,,2024-03-28,1,,,,,エージェージー,0
1729,8100003007470,新規,0,2024-03-28,2024-03-28,合同会社フォーチュン,,合同会社,長野県,東御市,和１５６３－２宮坂住宅東３,,20,219,3890505,,,,,,,2024-03-28,1,,,,,フォーチュン,0
1736,8120001263543,新規,0,2024-03-28,2024-03-28,株式会社ル・ソレイユ,,株式会社,大阪府,枚方市,片鉾本町２３番１６号,,27,210,5731157,,,,,,,2024-03-28,1,,,,,ルソレイユ,0
1737,8120003026221,新規,0,2024-03-28,2024-03-28,合同会社ＣＡＮＨ　ＴＲＡＤＩＮＧ,,合同会社,大阪府,大阪市西成区,北津守４丁目１３番４３号,,27,122,5570061,,,,,,,2024-03-28,1,,,,,カイントレーディング,0
1739,8120901048969,新規,0,2024-03-28,2024-03-28,株式会社ＴＯＲＵＭ,,株式会社,大阪府,豊中市,上新田１丁目１８－１ロジュマン千里中央３０３,,27,203,5600085,,,,,,,2024-03-28,1,,,,,トルム,0
1745,8130001076663,新規,0,2024-03-28,2024-03-28,株式会社京都トータルビジネス,,株式会社,京都府,相楽郡和束町,大字釜塚小字河原１４番地１１,,26,365,6191212,,,,,,,2024-03-28,1,,,,,キョウトトータルビジネス,0
1748,8130005017044,新規,0,2024-03-28,2024-03-28,一般社団法人竹文化振興協会,,その他の設立登記法人,京都府,京都市左京区,岡崎成勝寺町９－１京都市勧業館内,,26,103,6068343,,,,,,,2024-03-28,1,,,,,タケブンカシンコウキョウカイ,0
1751,8140001133835,新規,0,2024-03-28,2024-03-28,小林テクノ株式会社,,株式会社,兵庫県,尼崎市,稲葉荘２丁目２１番２２－４０４号,,28,202,6600064,,,,,,,2024-03-28,1,,,,,コバヤシテクノ,0
1752,8140003020346,新規,0,2024-03-28,2024-03-28,合同会社ケアクラース,,合同会社,兵庫県,西宮市,平松町２番２８,,28,204,6620044,,,,,,,2024-03-28,1,,,,,ケアクラース,0
1753,8140005026993,新規,0,2024-03-28,2024-03-28,医療法人社団明香会,,その他の設立登記法人,兵庫県,姫路市,駅前町２７１番地姫路駅前メディカルガーデン２階,,28,201,6700927,,,,,,,2024-03-28,1,,,,,メイコウカイ,0
1767,8180003026554,新規,0,2024-03-28,2024-03-28,合同会社リアン,,合同会社,愛知県,江南市,飛高町宮町１０６番地１,,23,217,4838069,,,,,,,2024-03-28,1,,,,,リアン,0
1781,8210001019696,新規,0,2024-03-28,2024-03-28,株式会社シュラインエス,,株式会社,福井県,福井市,二の宮４丁目１－１０,,18,201,9100015,,,,,,,2024-03-28,1,,,,,シュラインエス,0
1783,8240001063007,新規,0,2024-03-28,2024-03-28,株式会社ＮＯＳ,,株式会社,広島県,広島市南区,上東雲町１０－１２,,34,103,7340021,,,,,,,2024-03-28,1,,,,,エヌオーエス,0
1785,8240003006599,新規,0,2024-03-28,2024-03-28,合同会社Ｓｔｅｌｌａｂｏ,,合同会社,広島県,福山市,新涯町３丁目１０番２１号,,34,207,7210955,,,,,,,2024-03-28,1,,,,,ステラボ,0
1787,8290001105266,新規,0,2024-03-28,2024-03-28,株式会社ｈｏｏｄｅｓ,,株式会社,福岡県,福岡市南区,井尻４丁目２－４９－１０２,,40,134,8111302,,,,,,,2024-03-28,1,,,,,フッデス,0
1790,8290003015117,新規,0,2024-03-28,2024-03-28,ＤＭＴ合同会社,,合同会社,福岡県,福岡市東区,馬出４丁目４－２５エーデル箱崎４０２,,40,131,8120054,,,,,,,2024-03-28,1,,,,,ディーエムティー,0
1791,8290003015133,新規,0,2024-03-28,2024-03-28,マービンテストソリューションズジャパン合同会社,,合同会社,福岡県,糟屋郡新宮町,中央駅前１丁目６番１号,,40,345,8110120,,,,,,,2024-03-28,1,,,,,マービンテストソリューションズジャパン,0
1792,8290801030432,新規,0,2024-03-28,2024-03-28,株式会社大海パーツ,,株式会社,福岡県,北九州市若松区,響町１丁目６２番地２６,,40,103,8080021,,,,,,,2024-03-28,1,,,,,タイカイパーツ,0
1796,8320001020379,新規,0,2024-03-28,2024-03-28,株式会社Ｂａｎｓｏ‐Ｃｏ,,株式会社,大分県,大分市,大字佐野４０５８番地,,44,201,8700315,,,,,,,2024-03-28,1,,,,,バンソーコーポレーション,0
1798,8330001031904,新規,0,2024-03-28,2024-03-28,ＪｅｎｇＧｕａｎｇ株式会社,,株式会社,熊本県,合志市,幾久富１８３３番地９８,,43,216,8611112,,,,,,,2024-03-28,1,,,,,ジェングァン,0
1801,8330003010286,新規,0,2024-03-28,2024-03-28,合同会社Ｎｃｏｎ,,合同会社,熊本県,人吉市,下戸越町１０５８番地１西瀬団地１８棟１－１,,43,203,8680077,,,,,,,2024-03-28,1,,,,,,0
1804,8360001033410,新規,0,2024-03-28,2024-03-28,株式会社ＪＯＹＸＥＥＤ,,株式会社,沖縄県,沖縄市,古謝３丁目３２番２９号,,47,211,9042161,,,,,,,2024-03-28,1,,,,,ジョイシード,0
1806,8360005007006,新規,0,2024-03-28,2024-03-28,土地家屋調査士法人田場事務所,,その他の設立登記法人,沖縄県,島尻郡南風原町,字宮平７４５番地１５,,47,350,9011104,,,,,,,2024-03-28,1,,,,,タバジムショ,0
1809,8370001051114,新規,0,2024-03-28,2024-03-28,株式会社Ａｒｇｏｐｉｌｏｔ,,株式会社,宮城県,富谷市,富谷清水仲１１０番地８,,04,216,9813311,,,,,,,2024-03-28,1,,,,,アルゴパイロット,0
1812,8400003003233,新規,0,2024-03-28,2024-03-28,合同会社べごっこ牧場,,合同会社,岩手県,一関市,千厩町磐清水字躑躅３３番地,,03,209,0290804,,,,,,,2024-03-28,1,,,,,ベゴッコボクジョウ,0
1818,8420005007890,新規,0,2024-03-28,2024-03-28,一般社団法人ＲＯＵＴＥ２２,,その他の設立登記法人,青森県,南津軽郡藤崎町,大字常盤字一西田２５－１１,,02,361,0381214,,,,,,,2024-03-28,1,,,,,ルートフジ,0
1823,8430003016141,新規,0,2024-03-28,2024-03-28,合同会社ＥＺＯ　ＳＴＡＧ,,合同会社,北海道,沙流郡日高町,字富浜２２３番地の１０３,,01,601,0550005,,,,,,,2024-03-28,1,,,,,エゾスタッグ,0
1828,8480001012427,新規,0,2024-03-28,2024-03-28,株式会社ツジミ電子,,株式会社,徳島県,板野郡板野町,那東字野神前７番地２,,36,404,7790111,,,,,,,2024-03-28,1,,,,,ツジミデンシ,0
1834,8700150124628,新規,0,2024-03-28,2024-03-28,ｋｅ　ｌｉｎｇ　ｓｈｉ　ｙｅ（ｓｈｅｎ　ｚｈｅｎ）ｙｏｕ　ｘｉａｎ　ｇｏｎｇ　ｓｉ,,外国会社等,,,,,,,,ｇｕａｎ　ｌａｎ　ｊｉｅ　ｄａｏ　ｇｕｉ　ｈｕａ　ｓｈｅ　ｑｕ　ｈｕｉ　ｍｉｎ　ｙｉ　ｌｕ　３２ｈａｏ　ｃｈａｎｇ　ｆａｎｇ　２０１ｓｈｅｎ　ｚｈｅｎ　ｓｈｉ　ｌｏｎｇ　ｈｕａ　ｑｕ　ｇｕａｎｇ　ｄｏｎｇ　ｓｈｅｎｇ　５１８０００　ＣＮ,,,,,,2024-03-28,1,,,,,コーリンシーイエシェンジェンヨウシエンゴンスー,0
1835,8700150124636,新規,0,2024-03-28,2024-03-28,ポーラ・オルビスグループ健康保険組合,,その他,東京都,品川区,西五反田２丁目１９－３五反田第一生命ビル４階,,13,109,1410031,,,,,,,2024-03-28,1,,,,,ポーラオルビスグループケンコウホケンクミアイ,0
1839,9010001242739,新規,0,2024-03-28,2024-03-28,株式会社じぶんでオーナー,,株式会社,東京都,中央区,勝どき５丁目３番地１勝どきザ・タワー４９１１,,13,102,1040054,,,,,,,2024-03-28,1,,,,,ジブンデオーナー,0
1840,9010001243464,新規,0,2024-03-28,2024-03-28,株式会社Ｓｕｉ　Ｃｏｍｐａｎｙ,,株式会社,東京都,中央区,銀座１丁目１２番４号Ｎ＆ＥＢＬＤ．６Ｆ,,13,102,1040061,,,,,,,2024-03-28,1,,,,,スイカンパニー,0
1841,9010001243497,新規,0,2024-03-28,2024-03-28,シー・シックス・シックス株式会社,,株式会社,東京都,千代田区,丸の内１丁目４番１号,,13,101,1000005,,,,,,,2024-03-28,1,,,,,シーシックスシックス,0
1842,9010001243539,新規,0,2024-03-28,2024-03-28,ＪＳＦＰ　Ｊｅｗｅｌ株式会社,,株式会社,東京都,千代田区,大手町２丁目２番２号,,13,101,1000004,,,,,,,2024-03-28,1,,,,,ジェイエスエフピージュエル,0
1845,9010003043334,新規,0,2024-03-28,2024-03-28,合同会社桜坂３号,,合同会社,東京都,文京区,本郷２丁目３５番１０号本郷瀬川ビル４Ｆ,,13,105,1130033,,,,,,,2024-03-28,1,,,,,サクラザカサンゴウ,0
1846,9010005038101,新規,0,2024-03-28,2024-03-28,ＧＬＰ白井４特定目的会社,,その他の設立登記法人,東京都,中央区,八重洲２丁目２番１号,,13,102,1040028,,,,,,,2024-03-28,1,,,,,ジーエルピーシロイフォー,0
1849,9010401181306,新規,0,2024-03-28,2024-03-28,アラジン交通株式会社,,株式会社,東京都,港区,赤坂３丁目２番８号ＶＯＲＴ赤坂見附ＩＩ６階,00134221,13,103,1070052,,,,,,,2024-03-28,1,,,,,アラジンコウツウ,0
1850,9010401181347,新規,0,2024-03-28,2024-03-28,株式会社Ａｈｅａｄ　ｏｆ　ｔｈｅ　ｃｕｒｖｅ,,株式会社,東京都,港区,南青山３丁目１番３６号青山丸竹ビル６Ｆ,,13,103,1070062,,,,,,,2024-03-28,1,,,,,アヘッドオヴザカーヴ,0
1851,9010401181355,新規,0,2024-03-28,2024-03-28,株式会社ライドシェアリース,,株式会社,東京都,港区,虎ノ門５丁目９番１号麻布台ヒルズガーデンプラザＢ４階,,13,103,1050001,,,,,,,2024-03-28,1,,,,,ライドシェアリース,0
1852,9010401181363,新規,0,2024-03-28,2024-03-28,株式会社ライズｐｌｕｓリゾート,,株式会社,東京都,港区,東麻布２丁目３５番１号ＫＣビル６Ｆ,,13,103,1060044,,,,,,,2024-03-28,1,,,,,ライズプラスリゾート,0
1854,9010403032267,新規,0,2024-03-28,2024-03-28,合同会社エスコート,,合同会社,東京都,港区,西麻布２丁目１６番２号西麻布ルックアウト４０２,,13,103,1060031,,,,,,,2024-03-28,1,,,,,エスコート,0
1855,9010403032283,新規,0,2024-03-28,2024-03-28,合同会社Ａｚｒａ,,合同会社,東京都,港区,虎ノ門１丁目１番１８号ヒューリック虎ノ門ビル９階Ｌ＆Ｐ司法書士法人内,,13,103,1050001,,,,,,,2024-03-28,1,,,,,アズラ,0
1856,9010601064888,新規,0,2024-03-28,2024-03-28,株式会社ＷＣＡ,,株式会社,東京都,墨田区,江東橋１丁目２番６号パークアクシス錦糸町レジデンス,,13,107,1300022,,,,,,,2024-03-28,1,,,,,ダブリューシーエー,0
1862,9010701045747,新規,0,2024-03-28,2024-03-28,福島商事株式会社,,株式会社,東京都,品川区,東五反田１丁目１０番７号,,13,109,1410022,,,,,,,2024-03-28,1,,,,,フクシマショウジ,0
1870,9011001160930,新規,0,2024-03-28,2024-03-28,Ｙａｍａｇａｔａ　Ｉｎｃ株式会社,,株式会社,東京都,渋谷区,神山町３８番１３号ヒルクレスト神山１０３,,13,113,1500047,,,,,,,2024-03-28,1,,,,,ヤマガタインク,0
1873,9011103014266,新規,0,2024-03-28,2024-03-28,合同会社あたりめ,,合同会社,東京都,新宿区,西新宿３丁目３番１３号西新宿水間ビル６階,,13,104,1600023,,,,,,,2024-03-28,1,,,,,アタリメ,0
1877,9011303005107,新規,0,2024-03-28,2024-03-28,合同会社ＫｃＡ,,合同会社,東京都,杉並区,高井戸東１丁目３１番４－１０９号,,13,115,1680072,,,,,,,2024-03-28,1,,,,,ケーシーエー,0
1879,9011703003791,新規,0,2024-03-28,2024-03-28,合同会社ファインライフ,,合同会社,東京都,江戸川区,南篠崎町１丁目２２番１９号,,13,123,1330065,,,,,,,2024-03-28,1,,,,,ファインライフ,0
1880,9011801043987,新規,0,2024-03-28,2024-03-28,株式会社富士メタル通商,,株式会社,東京都,葛飾区,立石８丁目４６番１５号,,13,122,1240012,,,,,,,2024-03-28,1,,,,,フジメタルツウショウ,0
1882,9012401041654,新規,0,2024-03-28,2024-03-28,潤徳株式会社,,株式会社,東京都,武蔵野市,御殿山１丁目５－３第２ジョージパークハイツ２０３号室,,13,203,1800005,,,,,,,2024-03-28,1,,,,,ジュントク,0
1884,9012403006481,新規,0,2024-03-28,2024-03-28,ポートワシントン合同会社,,合同会社,東京都,三鷹市,大沢６丁目３番５号,,13,204,1810015,,,,,,,2024-03-28,1,,,,,ポートワシントン,0
1885,9012801023070,新規,0,2024-03-28,2024-03-28,株式会社ＩｎｄｕｓｔｒＹ’ｓ,,株式会社,東京都,立川市,羽衣町１丁目１８番１号土方ビル３Ｆ,,13,202,1900021,,,,,,,2024-03-28,1,,,,,インダストリーズ,0
1886,9012803003343,新規,0,2024-03-28,2024-03-28,合同会社ｇｏ　ｓｔｒａｉｇｈｔ,,合同会社,東京都,立川市,曙町１丁目４番１４号ＲＥＡＬＩＺＥ立川ＡＺ３０５,,13,202,1900012,,,,,,,2024-03-28,1,,,,,ゴーストレイト,0
1891,9020001156450,新規,0,2024-03-28,2024-03-28,あおぞら株式会社,,株式会社,神奈川県,横浜市港北区,日吉本町１丁目３９－１９ビラ・ビアンカＡ２０５,,14,109,2230062,,,,,,,2024-03-28,1,,,,,アオゾラ,0
1892,9020001156459,新規,0,2024-03-28,2024-03-28,タカシロ株式会社,,株式会社,神奈川県,川崎市高津区,溝口３丁目８番６号七洋ビル５０１号室,,14,134,2130001,,,,,,,2024-03-28,1,,,,,タカシロ,0
1893,9020001156467,新規,0,2024-03-28,2024-03-28,株式会社太志,,株式会社,神奈川県,横浜市保土ケ谷区,仏向町８４５番地１８シティテラス横濱和田町ブリーズコートＢ６２５,,14,106,2400044,,,,,,,2024-03-28,1,,,,,タイシ,0
1897,9020003025744,新規,0,2024-03-28,2024-03-28,日新開発合同会社,,合同会社,神奈川県,川崎市高津区,北見方２丁目６番３０－４０２号パークスクエア二子多摩川,,14,134,2130005,,,,,,,2024-03-28,1,,,,,ニッシンカイハツ,0
1899,9020005016337,新規,0,2024-03-28,2024-03-28,医療法人社団ＦＹＣ,,その他の設立登記法人,神奈川県,横浜市西区,藤棚町１丁目１２０番地中島ビル３階,,14,103,2200053,,,,,,,2024-03-28,1,,,,,エフワイシー,0
1905,9021001081795,新規,0,2024-03-28,2024-03-28,ＺＥＴＷＯ貿易株式会社,,株式会社,神奈川県,厚木市,上荻野５４６０番地,,14,212,2430201,,,,,,,2024-03-28,1,,,,,ジーツーボウエキ,0
1912,9030001159428,新規,0,2024-03-28,2024-03-28,株式会社孔切工業,,株式会社,埼玉県,川口市,大字安行原２１４９番地１,,11,203,3340057,,,,,,,2024-03-28,1,,,,,コウセツコウギョウ,0
1913,9030001159444,新規,0,2024-03-28,2024-03-28,ネクストソーシャリティ株式会社,,株式会社,埼玉県,さいたま市中央区,下落合６丁目１９－６－４０５号,,11,105,3380002,,,,,,,2024-03-28,1,,,,,ネクストソーシャリティ,0
1914,9030001159460,新規,0,2024-03-28,2024-03-28,株式会社まどか,,株式会社,埼玉県,越谷市,レイクタウン１丁目２５番地１,,11,222,3430828,,,,,,,2024-03-28,1,,,,,マドカ,0
1915,9030001159477,新規,0,2024-03-28,2024-03-28,株式会社ティ・アンド・ティ,,株式会社,埼玉県,さいたま市西区,大字土屋１７９５番地９,,11,101,3310062,,,,,,,2024-03-28,1,,,,,ティアンドティ,0
1917,9030003023904,新規,0,2024-03-28,2024-03-28,蔵本屋合同会社,,合同会社,埼玉県,新座市,大和田５丁目４番３５号,,11,230,3520004,,,,,,,2024-03-28,1,,,,,クラモトヤ,0
1918,9030003023912,新規,0,2024-03-28,2024-03-28,合同会社マサキテック,,合同会社,埼玉県,本庄市,児玉町高柳１０１－１,,11,211,3670224,,,,,,,2024-03-28,1,,,,,マサキテック,0
1925,9040001132821,新規,0,2024-03-28,2024-03-28,Ｏａｓｉｓ株式会社,,株式会社,千葉県,勝浦市,興津１５３４－３,,12,218,2995245,,,,,,,2024-03-28,1,,,,,オアシス,0
1926,9040001132862,新規,0,2024-03-28,2024-03-28,株式会社ＢＬＵＥ　ＡＮＣＨＯＲ,,株式会社,千葉県,成田市,田町３２０番地,,12,211,2860024,,,,,,,2024-03-28,1,,,,,ブルーアンカー,0
1927,9040001132870,新規,0,2024-03-28,2024-03-28,ＴＳＣ株式会社,,株式会社,千葉県,松戸市,本町３番地の２,,12,207,2710091,,,,,,,2024-03-28,1,,,,,ティーエスシー,0
1928,9040001132904,新規,0,2024-03-28,2024-03-28,株式会社アールユー,,株式会社,千葉県,千葉市中央区,生実町１９７９番地１１,,12,101,2600813,,,,,,,2024-03-28,1,,,,,アールユー,0
1929,9040001132920,新規,0,2024-03-28,2024-03-28,株式会社メイスカイ,,株式会社,千葉県,市川市,宮久保１丁目３３番２０号,,12,203,2720822,,,,,,,2024-03-28,1,,,,,メイスカイ,0
1941,9060001036954,新規,0,2024-03-28,2024-03-28,ＢＡＮＤＩ　ＡＳＩＡＮ株式会社,,株式会社,栃木県,那須塩原市,下永田１丁目９９８番地１,,09,213,3292712,,,,,,,2024-03-28,1,,,,,バンディアジア,0
1950,9070001041549,新規,0,2024-03-28,2024-03-28,エー・アール株式会社,,株式会社,群馬県,伊勢崎市,曲沢町７４９番地１,,10,204,3792203,,,,,,,2024-03-28,1,,,,,エーアール,0
1952,9070003005329,新規,0,2024-03-28,2024-03-28,ｃｏｌｏｒｓ合同会社,,合同会社,群馬県,利根郡みなかみ町,小仁田６９７番地１,,10,449,3791615,,,,,,,2024-03-28,1,,,,,カラーズ,0
1953,9080001026210,新規,0,2024-03-28,2024-03-28,誠伸サポート株式会社,,株式会社,静岡県,静岡市清水区,高橋４丁目１－１５,,22,103,4240041,,,,,,,2024-03-28,1,,,,,セイシンサポート,0
1954,9080005007594,新規,0,2024-03-28,2024-03-28,医療法人社団慶藍会,,その他の設立登記法人,静岡県,静岡市葵区,沓谷５丁目１４番地の２１,,22,101,4200816,,,,,,,2024-03-28,1,,,,,ケイランカイ,0
1955,9080101024618,新規,0,2024-03-28,2024-03-28,３６０ｆａｓｈｉｏｎ　ｌａｂ　Ｊａｐａｎ株式会社,,株式会社,静岡県,下田市,吉佐美２１６７番２,,22,219,4150028,,,,,,,2024-03-28,1,,,,,スリーハンドレッドシックスティファッションラボジャパン,0
1960,9110001038284,新規,0,2024-03-28,2024-03-28,株式会社Ｉ＆Ｂ,,株式会社,新潟県,新潟市中央区,柳島町１丁目７番１号ＥＳＴＥＲＯ２０３,,15,103,9518013,,,,,,,2024-03-28,1,,,,,アイビー,0
1966,9120001263484,新規,0,2024-03-28,2024-03-28,株式会社ＮＥＸＴトランスポート,,株式会社,大阪府,大阪市東淀川区,豊新１丁目４番２９号,,27,114,5330014,,,,,,,2024-03-28,1,,,,,ネクストトランスポート,0
1967,9120001263492,新規,0,2024-03-28,2024-03-28,株式会社ビッグフラッグ,,株式会社,大阪府,大阪市東淀川区,東中島１丁目１７番５号,,27,114,5330033,,,,,,,2024-03-28,1,,,,,ビッグフラッグ,0
1968,9120001263501,新規,0,2024-03-28,2024-03-28,株式会社オーエヌ,,株式会社,大阪府,大阪市浪速区,湊町１丁目４番３８号,,27,111,5560017,,,,,,,2024-03-28,1,,,,,オーエヌ,0
1969,9120001263534,新規,0,2024-03-28,2024-03-28,拙本君株式会社,,株式会社,大阪府,大阪市中央区,瓦屋町３丁目９－７ＣｉｔｙＬｉｆｅディナスティ日本橋２０４号室,,27,128,5420066,,,,,,,2024-03-28,1,,,,,セツモトクン,0
1971,9120003026220,新規,0,2024-03-28,2024-03-28,合同会社ＨＡＤＵ　ＶＩＮＡ,,合同会社,大阪府,大阪市浪速区,大国１丁目８番１－４０１号,,27,111,5560014,,,,,,,2024-03-28,1,,,,,ハドゥビナ,0
1972,9120003026229,新規,0,2024-03-28,2024-03-28,ＴＲＵＮＧ３６合同会社,,合同会社,大阪府,大阪市西成区,天下茶屋北１丁目２－１６－２０１号,,27,122,5570003,,,,,,,2024-03-28,1,,,,,チュンサンロク,0
1973,9120101069303,新規,0,2024-03-28,2024-03-28,株式会社エクサリフォーム,,株式会社,大阪府,堺市中区,毛穴町４９５番地４,,27,142,5998266,,,,,,,2024-03-28,1,,,,,エクサリフォーム,0
1976,9120901048852,新規,0,2024-03-28,2024-03-28,Ｒ　ｇｒｏｕｎｄ株式会社,,株式会社,大阪府,豊中市,東泉丘４丁目３番４－１００４号,,27,203,5610861,,,,,,,2024-03-28,1,,,,,アールグラウンド,0
1983,9130001076687,新規,0,2024-03-28,2024-03-28,ヤマシロアセットマネジメント株式会社,,株式会社,京都府,宇治市,木幡南山３番地４,,26,204,6110002,,,,,,,2024-03-28,1,,,,,ヤマシロアセットマネジメント,0
1988,9140001133743,新規,0,2024-03-28,2024-03-28,株式会社リハ鍼,,株式会社,兵庫県,神戸市須磨区,常盤町１丁目１番１３号,,28,107,6540028,,,,,,,2024-03-28,1,,,,,リハシン,0
2006,9180303006049,新規,0,2024-03-28,2024-03-28,サンユー合同会社,,合同会社,愛知県,西尾市,丁田町杢左６２番地ファミール丁田４０３号室,,23,213,4450062,,,,,,,2024-03-28,1,,,,,サンユー,0
2014,9200001042319,新規,0,2024-03-28,2024-03-28,株式会社メルド,,株式会社,岐阜県,高山市,山田町１３０７番地４１,,21,203,5060058,,,,,,,2024-03-28,1,,,,,メルド,0
2021,9240001062973,新規,0,2024-03-28,2024-03-28,株式会社ブルーアース,,株式会社,広島県,東広島市,西条中央７丁目３番１７号新井ビル２０３号,,34,212,7390025,,,,,,,2024-03-28,1,,,,,ブルーアース,0
2024,9240003006598,新規,0,2024-03-28,2024-03-28,合同会社ａｇｇｒｅｇａｔｉｏｎ,,合同会社,広島県,広島市西区,井口鈴が台１丁目２－１－４１１,,34,104,7330843,,,,,,,2024-03-28,1,,,,,アグリゲーション,0
2031,9290001105240,新規,0,2024-03-28,2024-03-28,株式会社ＳＳＴＭ,,株式会社,福岡県,久留米市,篠山町一丁目１２番３パークノヴァ５０１号,,40,203,8300021,,,,,,,2024-03-28,1,,,,,エスエスティエム,0
2032,9290001105265,新規,0,2024-03-28,2024-03-28,Ｎａｃｏ　Ｓｔｙｌｅホールディングス株式会社,,株式会社,福岡県,福岡市中央区,白金１丁目１２番２９－１０２号,,40,133,8100012,,,,,,,2024-03-28,1,,,,,ナコスタイルホールディングス,0
2033,9290003015108,新規,0,2024-03-28,2024-03-28,合同会社ＳＣ,,合同会社,福岡県,嘉麻市,上山田９９２番地２,,40,227,8210012,,,,,,,2024-03-28,1,,,,,,0
2034,9290003015132,新規,0,2024-03-28,2024-03-28,リクルーティングモア合同会社,,合同会社,福岡県,福岡市博多区,博多駅前１丁目２３番２号ＰａｒｋＦｒｏｎｔ博多駅前１丁目５Ｆ,,40,132,8120011,,,,,,,2024-03-28,1,,,,,リクルーティングモア,0
2035,9290003015140,新規,0,2024-03-28,2024-03-28,合同会社堺工業,,合同会社,福岡県,福岡市早良区,原２丁目４番１９－１０１号エコハウスおひさま,,40,137,8140022,,,,,,,2024-03-28,1,,,,,サカイコウギョウ,0
2042,9320001020378,新規,0,2024-03-28,2024-03-28,株式会社神栄建設,,株式会社,大分県,大分市,明野東５丁目４３２４番地の２,,44,201,8700161,,,,,,,2024-03-28,1,,,,,シンエイケンセツ,0
2049,9340001026398,新規,0,2024-03-28,2024-03-28,株式会社Ａｚｕｒｅ　Ｌａｂ．,,株式会社,鹿児島県,伊佐市,大口里１７９２番地,,46,224,8952511,,,,,,,2024-03-28,1,,,,,アズールラボ,0
2060,9360003013839,新規,0,2024-03-28,2024-03-28,合同会社グリーンテック浦西,,合同会社,沖縄県,浦添市,西原５丁目１９番８号,,47,208,9012101,,,,,,,2024-03-28,1,,,,,グリーンテックウラニシ,0
2062,9370003006536,新規,0,2024-03-28,2024-03-28,ソラクリエイト合同会社,,合同会社,宮城県,仙台市宮城野区,萩野町３丁目８－１９－８２６,,04,102,9830043,,,,,,,2024-03-28,1,,,,,ソラクリエイト,0
2063,9380001034397,新規,0,2024-03-28,2024-03-28,株式会社グリーンサーマルフォレスト,,株式会社,福島県,会津若松市,河東町工業団地２番地４,,07,202,9693464,,,,,,,2024-03-28,1,,,,,グリーンサーマルフォレスト,0
2065,9390002016443,新規,0,2024-03-28,2024-03-28,有限会社田沢木工所,,有限会社,山形県,酒田市,田沢字小女房５６番地,,06,204,9996731,,,,,,,2024-03-28,1,,,,,タザワモッコウジョ,0
2078,9700150124627,新規,0,2024-03-28,2024-03-28,ＧｕａｎｇＺｈｏｕＪｕＹｉＫｕａＪｉｎｇＤｉａｎＺｉＳｈａｎｇＷｕＹｏｕＸｉａｎＧｏｎｇＳｉ,,外国会社等,,,,,,,,ＣｈａｎｇＳｈａＬｕ２１Ｈａｏ　４Ｄｏｎｇ　４０５ＦａｎｇＤａＬｏｎｇＪｉｅＳｈａＹｏｎｇＣｕｎＧｕａｎｇＺｈｏｕＰａｎＹｕＧｕａｎｇＤｏｎｇ５１００００ＣＮ,,,,,,2024-03-28,1,,,,,グワンジョウジーイークワージンディエンズーシャンウーヨウシエンゴンスー,0
