sequenceNumber,corporateNumber,process,correct,updateDate,changeDate,name,nameImageId,kind,prefectureName,cityName,streetNumber,addressImageId,prefectureCode,cityCode,postCode,addressOutside,addressOutsideImageId,closeDate,closeCause,successorCorporateNumber,changeCause,assignmentDate,latest,enName,enPrefectureName,enCityName,enAddressOutside,furigana,hihyoji
14,1010001236780,新規,0,2023-07-24,2023-07-24,江宇株式会社,,株式会社,東京都,千代田区,外神田５丁目２番３号アソルティビル６Ｆ,,13,101,1010021,,,,,,,2023-07-24,1,,,,,コウウ,0
15,1010001237003,新規,0,2023-07-24,2023-07-24,ＷＴＣ日本株式会社,,株式会社,東京都,中央区,銀座３丁目１０番９号ＫＥＣ銀座ビル８階,,13,102,1040061,,,,,,,2023-07-24,1,,,,,ダブリューティーシーニホン,0
16,1010001237077,新規,0,2023-07-24,2023-07-24,ＰＴＣＪ‐４ホールディングス株式会社,,株式会社,東京都,千代田区,丸の内１丁目９番１号,,13,101,1000005,,,,,,,2023-07-24,1,,,,,ピーティーシージェイフォーホールディングス,0
19,1010003041171,新規,0,2023-07-24,2023-07-24,ＳＪＥ合同会社,,合同会社,東京都,中央区,銀座１丁目１２番４号Ｎ＆Ｅ・ＢＬＤ．６Ｆ,,13,102,1040061,,,,,,,2023-07-24,1,,,,,エスジェイイー,0
29,1010401175802,新規,0,2023-07-24,2023-07-24,株式会社谷吉商事,,株式会社,東京都,港区,赤坂６丁目１３番６－２０７号,,13,103,1070052,,,,,,,2023-07-24,1,,,,,タニヨシショウジ,0
30,1010401175950,新規,0,2023-07-24,2023-07-24,株式会社ＪＧ１９,,株式会社,東京都,港区,虎ノ門１丁目３番１号,,13,103,1050001,,,,,,,2023-07-24,1,,,,,ジェイジージュウキュウ,0
32,1010501050806,新規,0,2023-07-24,2023-07-24,高杉商店株式会社,00131253,株式会社,東京都,台東区,雷門１丁目１６番８号丹野ビル１Ｆ,,13,106,1110034,,,,,,,2023-07-24,1,,,,,タカスギショウテン,0
36,1010803004609,新規,0,2023-07-24,2023-07-24,合同会社フォトムジーク,,合同会社,東京都,大田区,久が原５丁目１４番７－９０２号,,13,111,1460085,,,,,,,2023-07-24,1,,,,,フォトムジーク,0
43,1010903008328,新規,0,2023-07-24,2023-07-24,Ｌｉｆｔ＆Ｃｏａｓｔ合同会社,,合同会社,東京都,世田谷区,池尻３丁目１９番５－１００３号,,13,112,1540001,,,,,,,2023-07-24,1,,,,,リフトアンドコースト,0
44,1010903008336,新規,0,2023-07-24,2023-07-24,合同会社ＨＩＩＲＡＧＩ,,合同会社,東京都,世田谷区,駒沢３丁目６－１５－１０２,,13,112,1540012,,,,,,,2023-07-24,1,,,,,ヒイラギ,0
52,1011001155814,新規,0,2023-07-24,2023-07-24,株式会社ｕｎｉ　ｃｒｅａｔｉｖｅ,,株式会社,東京都,渋谷区,道玄坂１丁目１０番８号渋谷道玄坂東急ビル２Ｆ－Ｃ,,13,113,1500043,,,,,,,2023-07-24,1,,,,,,0
53,1011001155822,新規,0,2023-07-24,2023-07-24,Ｘ‐Ｔｅｃｈ株式会社,,株式会社,東京都,渋谷区,東１丁目２７番７号渋谷東ＫＷビル６Ｆ,,13,113,1500011,,,,,,,2023-07-24,1,,,,,エックステック,0
54,1011003017228,新規,0,2023-07-24,2023-07-24,合同会社Ｂｅ　Ａｒｃｈｉｔｅｃｔ,,合同会社,東京都,渋谷区,道玄坂１丁目１６－６二葉ビル８ｂ,,13,113,1500043,,,,,,,2023-07-24,1,,,,,ビーアーキテクト,0
59,1011101103664,新規,0,2023-07-24,2023-07-24,マルセン株式会社,,株式会社,東京都,新宿区,中落合１丁目１８番６－２０３号,,13,104,1610032,,,,,,,2023-07-24,1,,,,,マルセン,0
60,1011101103706,新規,0,2023-07-24,2023-07-24,株式会社Ｌｅａｐ　Ｓｔｙｌｅ,,株式会社,東京都,新宿区,西新宿７丁目５番５号Ｐｌａｚａ西新宿ＵＣＦ４０６,,13,104,1600023,,,,,,,2023-07-24,1,,,,,リープスタイル,0
62,1011105010733,新規,0,2023-07-24,2023-07-24,一般社団法人ジェイ・エイチ・オー,,その他の設立登記法人,東京都,新宿区,下宮比町１番４号,,13,104,1620822,,,,,,,2023-07-24,1,,,,,ジェイエイチオー,0
63,1011201024785,新規,0,2023-07-24,2023-07-24,ＪＯＪＯ株式会社,,株式会社,東京都,中野区,松が丘２丁目６番１１号,,13,114,1650024,,,,,,,2023-07-24,1,,,,,ジョジョ,0
66,1011301028876,新規,0,2023-07-24,2023-07-24,株式会社京悦堂,,株式会社,東京都,杉並区,下井草１丁目２９－１３,,13,115,1670022,,,,,,,2023-07-24,1,,,,,,0
71,1011401025303,新規,0,2023-07-24,2023-07-24,株式会社ファンクール,,株式会社,東京都,板橋区,中台２丁目１６番４号,,13,119,1740064,,,,,,,2023-07-24,1,,,,,ファンクール,0
72,1011501029550,新規,0,2023-07-24,2023-07-24,瓦奈株式会社,,株式会社,東京都,北区,浮間１丁目７－２３兆豊浮間ビル２０４号室,,13,117,1150051,,,,,,,2023-07-24,1,,,,,ガナ,0
80,1011601027000,新規,0,2023-07-24,2023-07-24,株式会社ＵＲＡＫＡＴＡＳＯＵＬ,,株式会社,東京都,練馬区,北町３丁目１５番１号ＳｉｅｔｅＰｕｅｒｔａｓ２０３,,13,120,1790081,,,,,,,2023-07-24,1,,,,,ウラカタソウル,0
84,1012301013521,新規,0,2023-07-24,2023-07-24,株式会社ＮＧＩリフォーム,,株式会社,東京都,町田市,森野１丁目３６番２号セレステ町田１Ｆ,,13,209,1940022,,,,,,,2023-07-24,1,,,,,エヌジーアイ,0
97,1020001152564,新規,0,2023-07-24,2023-07-24,ＬａｐＴｉｍｅ株式会社,,株式会社,神奈川県,横浜市西区,北幸２丁目１０－２８むつみビル３Ｆ,,14,103,2200004,,,,,,,2023-07-24,1,,,,,,0
98,1020001152639,新規,0,2023-07-24,2023-07-24,ＳＴＵＤＩＯ　ＣＯＴＴＯ株式会社,,株式会社,神奈川県,横浜市鶴見区,佃野町２９番３８号ＶＩＰ三晃ビル３Ｆ,,14,101,2300061,,,,,,,2023-07-24,1,,,,,スタジオコット,0
99,1020001152647,新規,0,2023-07-24,2023-07-24,株式会社Ｔｓｕｊｉｍｕｒａ,,株式会社,神奈川県,横浜市西区,岡野１丁目１８番４号,,14,103,2200073,,,,,,,2023-07-24,1,,,,,ツジムラ,0
102,1020003024266,新規,0,2023-07-24,2023-07-24,合同会社ｋｙｋｌｏｓ,,合同会社,神奈川県,横浜市瀬谷区,二ツ橋町１２９番地２メゾン・レ・シエル２０３号室,,14,114,2460021,,,,,,,2023-07-24,1,,,,,キクロス,0
107,1021001079665,新規,0,2023-07-24,2023-07-24,株式会社Ｋｅｉｓｈｏ,,株式会社,神奈川県,相模原市南区,南台４丁目１番９号,,14,153,2520314,,,,,,,2023-07-24,1,,,,,ケイショウ,0
108,1021001079673,新規,0,2023-07-24,2023-07-24,株式会社テックリベルタ,,株式会社,神奈川県,相模原市中央区,南橋本２丁目６番１８号,,14,152,2520253,,,,,,,2023-07-24,1,,,,,テックリベルタ,0
124,1030005021335,新規,0,2023-07-24,2023-07-24,司法書士法人プレスティ,,その他の設立登記法人,埼玉県,さいたま市大宮区,高鼻町１丁目４０番地１ＰＲＳビル２階Ｂ号室,,11,103,3300803,,,,,,,2023-07-24,1,,,,,プレスティ,0
131,1040003022994,新規,0,2023-07-24,2023-07-24,双栄合同会社,,合同会社,千葉県,松戸市,栄町西５丁目１３２５番地の５,,12,207,2710061,,,,,,,2023-07-24,1,,,,,ソウエイ,0
141,1080403004837,新規,0,2023-07-24,2023-07-24,合同会社ｋａｇａｒｉｂｉ,,合同会社,静岡県,菊川市,半済２３２８番地の５３,,22,224,4390019,,,,,,,2023-07-24,1,,,,,カガリビ,0
163,1120001256396,新規,0,2023-07-24,2023-07-24,株式会社サンライズＢＨＤ,,株式会社,大阪府,大阪市旭区,大宮４丁目２３番７号,,27,117,5350002,,,,,,,2023-07-24,1,,,,,サンライズビーエイチディ,0
164,1120001256652,新規,0,2023-07-24,2023-07-24,三宝株式会社,,株式会社,大阪府,大阪市城東区,東中浜７丁目３番１６号,,27,118,5360023,,,,,,,2023-07-24,1,,,,,サンポウ,0
165,1120001256660,新規,0,2023-07-24,2023-07-24,株式会社ミセスロザリー,,株式会社,大阪府,大阪市西区,北堀江３丁目４番１９号１階,,27,106,5500014,,,,,,,2023-07-24,1,,,,,ミセスロザリー,0
166,1120001256677,新規,0,2023-07-24,2023-07-24,ＹＺＹ株式会社,,株式会社,大阪府,大阪市大正区,三軒家西３丁目４番１６号中山ビル１００４,,27,108,5510001,,,,,,,2023-07-24,1,,,,,ワイゼットワイ,0
167,1120001256702,新規,0,2023-07-24,2023-07-24,コサギ株式会社,,株式会社,大阪府,大阪市淀川区,西宮原３丁目２番１－４０８号,,27,123,5320004,,,,,,,2023-07-24,1,,,,,コサギ,0
168,1120001256710,新規,0,2023-07-24,2023-07-24,株式会社楽希,,株式会社,大阪府,大阪市浪速区,浪速東３丁目９－１７,,27,111,5560025,,,,,,,2023-07-24,1,,,,,ラキ,0
169,1120001256751,新規,0,2023-07-24,2023-07-24,株式会社マシンヘッドワークス,,株式会社,大阪府,大阪市中央区,北久宝寺町１丁目４番１１－４０１号,,27,128,5410057,,,,,,,2023-07-24,1,,,,,マシンヘッドワークス,0
170,1120001256768,新規,0,2023-07-24,2023-07-24,株式会社ミールステイ,,株式会社,大阪府,大阪市北区,曾根崎２丁目１６番１９号メッセージ梅田ビル１階,,27,127,5300057,,,,,,,2023-07-24,1,,,,,ミールステイ,0
179,1120005023743,新規,0,2023-07-24,2023-07-24,一般社団法人日本製造業協会,,その他の設立登記法人,大阪府,大阪市北区,西天満５丁目１５番９号アバンセ西天満ビル３０１号室,,27,127,5300047,,,,,,,2023-07-24,1,,,,,ニホンセイゾウギョウキョウカイ,0
180,1120005023768,新規,0,2023-07-24,2023-07-24,一般社団法人ＮＩＣＯＭＭＵＮ,,その他の設立登記法人,大阪府,大阪市北区,芝田２丁目２番１３号日生ビル東館４０５Ｂ号,,27,127,5300012,,,,,,,2023-07-24,1,,,,,ニコモン,0
181,1120103005338,新規,0,2023-07-24,2023-07-24,酒平合同会社,,合同会社,大阪府,岸和田市,別所町３丁目３７番１４,,27,202,5960045,,,,,,,2023-07-24,1,,,,,サカヒラ,0
182,1120901047820,新規,0,2023-07-24,2023-07-24,株式会社ＺｅｎＮ,,株式会社,大阪府,豊中市,上野西３丁目２０番７－４０３号,,27,203,5600011,,,,,,,2023-07-24,1,,,,,ゼン,0
188,1130001074780,新規,0,2023-07-24,2023-07-24,曼欄株式会社,,株式会社,京都府,京都市伏見区,深草西浦町２丁目９９番地コーポフローラ２０３室,,26,109,6120029,,,,,,,2023-07-24,1,,,,,マンラン,0
203,1140001130946,新規,0,2023-07-24,2023-07-24,株式会社エスニカ,,株式会社,兵庫県,加古川市,加古川町南備後２５番地の１,,28,210,6750033,,,,,,,2023-07-24,1,,,,,エスニカ,0
204,1140001130954,新規,0,2023-07-24,2023-07-24,株式会社ＦＳＫ,,株式会社,兵庫県,姫路市,佃町１９番地ライオンズマンション３０２号,,28,201,6728049,,,,,,,2023-07-24,1,,,,,エフエスケイ,0
205,1140001130987,新規,0,2023-07-24,2023-07-24,株式会社Ｅｂｂｉｎｇｈａｕｓ　Ｓｔａｔｉｏｎｅｒｙ,,株式会社,兵庫県,神戸市中央区,中町通３丁目１－１６－５０２,,28,110,6500027,,,,,,,2023-07-24,1,,,,,エビングハウスステーショナリー,0
215,1170001017703,新規,0,2023-07-24,2023-07-24,株式会社ＬＩＴシステム,,株式会社,和歌山県,西牟婁郡白浜町,２５６５番地の３１,,30,401,6492211,,,,,,,2023-07-24,1,,,,,エルアイティーシステム,0
225,1180001157218,新規,0,2023-07-24,2023-07-24,株式会社ＭＯＴＯコンサルティング,,株式会社,愛知県,名古屋市西区,名駅２丁目２９番２号プリマヴェール名駅ノルテ６０５号,,23,104,4510045,,,,,,,2023-07-24,1,,,,,モトコンサルティング,0
226,1180001157226,新規,0,2023-07-24,2023-07-24,株式会社ＩｓＦＣ,,株式会社,愛知県,津島市,高台寺町字尼ケ御堂１番地１,,23,208,4960015,,,,,,,2023-07-24,1,,,,,アイエスエフシー,0
232,1180003025521,新規,0,2023-07-24,2023-07-24,ＢＳ４合同会社,,合同会社,愛知県,名古屋市西区,新道１丁目３番３１号サニーハイツ４０５号,,23,104,4510043,,,,,,,2023-07-24,1,,,,,ビーエスフォー,0
235,1200001041526,新規,0,2023-07-24,2023-07-24,スタービーム株式会社,,株式会社,岐阜県,岐阜市,雄総桜町３丁目６０番地,,21,201,5020016,,,,,,,2023-07-24,1,,,,,スタービーム,0
241,1230001019908,新規,0,2023-07-24,2023-07-24,株式会社ＪＣＨＲ,,株式会社,富山県,富山市,上冨居１丁目７番２号,,16,201,9300835,,,,,,,2023-07-24,1,,,,,ジェイシーエイチアール,0
245,1240001061850,新規,0,2023-07-24,2023-07-24,株式会社ＯＯＺ,,株式会社,広島県,広島市安佐南区,祇園３丁目４番９－１０１号,,34,105,7310138,,,,,,,2023-07-24,1,,,,,オーズ,0
263,1290001102344,新規,0,2023-07-24,2023-07-24,株式会社イエローバード,,株式会社,福岡県,福岡市西区,姪浜駅南１丁目３番１号,,40,135,8190006,,,,,,,2023-07-24,1,,,,,イエローバード,0
264,1290001102385,新規,0,2023-07-24,2023-07-24,株式会社トレーディングフェロー,,株式会社,福岡県,久留米市,東櫛原町２６３３番地１のばらビル２Ｆ,00131262,40,203,8300003,,,,,,,2023-07-24,1,,,,,トレーディングフェロー,0
265,1290001102393,新規,0,2023-07-24,2023-07-24,株式会社排毒の森,,株式会社,福岡県,福岡市中央区,春吉３丁目２１番２１号春野ビル７０１,,40,133,8100003,,,,,,,2023-07-24,1,,,,,ハイドクノモリ,0
280,1330003009913,新規,0,2023-07-24,2023-07-24,アルファ合同会社,,合同会社,熊本県,熊本市東区,健軍１丁目１９番１９号サンヒルズマンション１０１号,,43,102,8620911,,,,,,,2023-07-24,1,,,,,アルファ,0
287,1360005006880,新規,0,2023-07-24,2023-07-24,一般社団法人ＳＴＥＬＬＡ,,その他の設立登記法人,沖縄県,那覇市,銘苅２丁目１１番１８号,,47,201,9000004,,,,,,,2023-07-24,1,,,,,ステッラ,0
301,1400003003116,新規,0,2023-07-24,2023-07-24,合同会社ＭＡＫＡＭＩ　ＣＡＦＥ,,合同会社,岩手県,九戸郡九戸村,大字荒谷第１４地割３１番地１荒谷団地５号,,03,506,0286501,,,,,,,2023-07-24,1,,,,,マカミカフェ,0
309,1430001089484,新規,0,2023-07-24,2023-07-24,株式会社ヴェルテホーム,,株式会社,北海道,札幌市厚別区,厚別南２丁目３番２９－１０６号,,01,108,0040022,,,,,,,2023-07-24,1,,,,,ヴェルテホーム,0
310,1430001089600,新規,0,2023-07-24,2023-07-24,シンセイ国際株式会社,,株式会社,北海道,札幌市東区,東苗穂八条１丁目５番１２号,,01,103,0070808,,,,,,,2023-07-24,1,,,,,シンセイコクサイ,0
314,1430003015249,新規,0,2023-07-24,2023-07-24,Ｂｙ　ｕｓ　Ｔｒｕｓｔ合同会社,,合同会社,北海道,苫小牧市,表町５丁目２番７号表町五丁目ビル１Ｆ,,01,213,0530022,,,,,,,2023-07-24,1,,,,,バイアストラスト,0
315,1440005002756,新規,0,2023-07-24,2023-07-24,特定非営利活動法人道南スポーツまちづくり振興会,,その他の設立登記法人,北海道,函館市,川原町１０番６－２０１号シンシアジュード,,01,202,0410844,,,,,,,2023-07-24,1,,,,,ドウナンスポーツマチヅクリシンコウカイ,0
318,1480001012152,新規,0,2023-07-24,2023-07-24,サブローグループ株式会社,,株式会社,徳島県,美馬市,穴吹町穴吹字市ノ下１００－６,,36,207,7770005,,,,,,,2023-07-24,1,,,,,サブローグループ,0
335,2010001237076,新規,0,2023-07-24,2023-07-24,株式会社Ｉｎｄｅｐｔ,,株式会社,東京都,文京区,音羽１丁目２１番１１－Ａ７０４号,,13,105,1120013,,,,,,,2023-07-24,1,,,,,インデプト,0
336,2010001237150,新規,0,2023-07-24,2023-07-24,株式会社ＢＲＩＬＬＡＮＴＥ,,株式会社,東京都,千代田区,平河町２丁目８番１０号,,13,101,1020093,,,,,,,2023-07-24,1,,,,,ブリアンテ,0
342,2010003041162,新規,0,2023-07-24,2023-07-24,合同会社ＪＤＩＰ‐９,,合同会社,東京都,千代田区,九段北３丁目２番４号,,13,101,1020073,,,,,,,2023-07-24,1,,,,,ジェイディーアイピーナイン,0
353,2010403030533,新規,0,2023-07-24,2023-07-24,合同会社ＡＲＮＯＮ,,合同会社,東京都,港区,北青山１丁目３番１号アールキューブ青山３階,,13,103,1070061,,,,,,,2023-07-24,1,,,,,アーノン,0
355,2010505003429,新規,0,2023-07-24,2023-07-24,特定非営利活動法人ｎｅｗＩＬすみだ,,その他の設立登記法人,東京都,台東区,浅草５丁目１５番２号,,13,106,1110032,,,,,,,2023-07-24,1,,,,,ニュウアイエルスミダ,0
357,2010603010260,新規,0,2023-07-24,2023-07-24,合同会社Ｌｉｂｅｒｏ,,合同会社,東京都,江東区,白河３丁目８番１４－９０３号,,13,108,1350021,,,,,,,2023-07-24,1,,,,,リベロ,0
358,2010701044598,新規,0,2023-07-24,2023-07-24,株式会社コヤナギワールドワイド,,株式会社,東京都,品川区,上大崎２丁目１３番３２号富田ビル６０２,,13,109,1410021,,,,,,,2023-07-24,1,,,,,コヤナギワールドワイド,0
368,2011001155821,新規,0,2023-07-24,2023-07-24,株式会社ＳＨＩＭＩＴＡＫＡ,,株式会社,東京都,渋谷区,恵比寿南３丁目２番２号－１０４,,13,113,1500022,,,,,,,2023-07-24,1,,,,,シミタカ,0
369,2011003017227,新規,0,2023-07-24,2023-07-24,合同会社げっと,,合同会社,東京都,渋谷区,神泉町１０番１５号,,13,113,1500045,,,,,,,2023-07-24,1,,,,,ゲット,0
376,2011101103688,新規,0,2023-07-24,2023-07-24,株式会社Ｒｅ　ｒａｉｓｅ,,株式会社,東京都,新宿区,富久町１５－１富久クロスコンフォートタワー,,13,104,1620067,,,,,,,2023-07-24,1,,,,,リレイズ,0
380,2011103013282,新規,0,2023-07-24,2023-07-24,ｍａｃｏｓｇａｍｅ合同会社,,合同会社,東京都,新宿区,信濃町１番地７メインステージ信濃町５０１,,13,104,1600016,,,,,,,2023-07-24,1,,,,,マクオエスゲーム,0
382,2011301028875,新規,0,2023-07-24,2023-07-24,株式会社万福,,株式会社,東京都,杉並区,堀ノ内３丁目３１番１１号,,13,115,1660013,,,,,,,2023-07-24,1,,,,,,0
384,2011403004056,新規,0,2023-07-24,2023-07-24,合同会社ＭＡＮＵＩＡ,,合同会社,東京都,板橋区,徳丸７丁目９番１０号,,13,119,1750083,,,,,,,2023-07-24,1,,,,,マヌイア,0
386,2011601026991,新規,0,2023-07-24,2023-07-24,株式会社ＧＣＣ,,株式会社,東京都,練馬区,関町南２丁目７番３０号,,13,120,1770053,,,,,,,2023-07-24,1,,,,,ジーシーシー,0
388,2011701026438,新規,0,2023-07-24,2023-07-24,株式会社良介,,株式会社,東京都,江戸川区,本一色２丁目１７－１９－２０１号室,,13,123,1330044,,,,,,,2023-07-24,1,,,,,ヨイカイ,0
393,2011801042772,新規,0,2023-07-24,2023-07-24,株式会社ＩＹＯＮ　ＬＡＮＫＡ,,株式会社,東京都,足立区,南花畑３丁目５番３号,,13,121,1210062,,,,,,,2023-07-24,1,,,,,イオンランカ,0
394,2011803005752,新規,0,2023-07-24,2023-07-24,合同会社三方良し,,合同会社,東京都,葛飾区,四つ木４丁目１７番４号,,13,122,1240011,,,,,,,2023-07-24,1,,,,,サンポウヨシ,0
396,2012403006083,新規,0,2023-07-24,2023-07-24,ｆ．ｅ．ｅ．ｌ合同会社,,合同会社,東京都,府中市,八幡町２丁目２７‐１３,,13,206,1830016,,,,,,,2023-07-24,1,,,,,フィール,0
399,2012703002757,新規,0,2023-07-24,2023-07-24,Ｃｈｕｌｕｕｔ合同会社,,合同会社,東京都,東村山市,多摩湖町４丁目３番８号ソフィア西武園２０２号室,,13,213,1890026,,,,,,,2023-07-24,1,,,,,チュルート,0
407,2020001152605,新規,0,2023-07-24,2023-07-24,株式会社ＳＵＮ,,株式会社,神奈川県,横浜市青葉区,すすき野１丁目４－７－２０６,,14,117,2250021,,,,,,,2023-07-24,1,,,,,サン,0
408,2020001152654,新規,0,2023-07-24,2023-07-24,株式会社ＡＬＩＴＡ,,株式会社,神奈川県,横浜市神奈川区,栄町１３番地１１ルピナス横濱ポートサイド１００１,,14,102,2210052,,,,,,,2023-07-24,1,,,,,アリタ,0
415,2021001079631,新規,0,2023-07-24,2023-07-24,ｉ＆ｉ株式会社,,株式会社,神奈川県,海老名市,上郷１丁目１番１号海老名マンション１階,,14,215,2430434,,,,,,,2023-07-24,1,,,,,アイアンドアイ,0
416,2021001079672,新規,0,2023-07-24,2023-07-24,株式会社リライズ,,株式会社,神奈川県,海老名市,門沢橋２丁目１１番２６号,,14,215,2430426,,,,,,,2023-07-24,1,,,,,リライズ,0
418,2021003013332,新規,0,2023-07-24,2023-07-24,合同会社ＬＩＦＩＸ,,合同会社,神奈川県,綾瀬市,綾西５丁目２番１０号,,14,218,2521126,,,,,,,2023-07-24,1,,,,,,0
419,2021003013340,新規,0,2023-07-24,2023-07-24,合同会社湘南ＭＩ通商,,合同会社,神奈川県,鎌倉市,七里ガ浜東５丁目１０―５,,14,204,2480025,,,,,,,2023-07-24,1,,,,,ショウナンエムアイツウショウ,0
434,2040001129304,新規,0,2023-07-24,2023-07-24,貴美商店株式会社,,株式会社,千葉県,野田市,野田４３１番地の１８,,12,208,2780037,,,,,,,2023-07-24,1,,,,,タカミショウテン,0
435,2040001129329,新規,0,2023-07-24,2023-07-24,デルタフォースジャパン株式会社,,株式会社,千葉県,印西市,和泉１３６５番地３５,,12,231,2701351,,,,,,,2023-07-24,1,,,,,デルタフォースジャパン,0
436,2040001129345,新規,0,2023-07-24,2023-07-24,株式会社裕富商事,,株式会社,千葉県,野田市,西高野４５５番１０,,12,208,2700216,,,,,,,2023-07-24,1,,,,,ユウフショウジ,0
439,2040003022960,新規,0,2023-07-24,2023-07-24,ＡＬＰＨＡＪＡＰＡＮ合同会社,,合同会社,千葉県,野田市,吉春２６２－１,,12,208,2780042,,,,,,,2023-07-24,1,,,,,アルファジャパン,0
440,2040003022993,新規,0,2023-07-24,2023-07-24,合同会社ＤＵＣ　ＴＲＡＮＧ,,合同会社,千葉県,千葉市花見川区,検見川町５丁目２４２４番地３第３フラワーハイツ１０１号,,12,102,2620023,,,,,,,2023-07-24,1,,,,,ドゥックチャン,0
446,2050003007663,新規,0,2023-07-24,2023-07-24,合同会社ＲＯＹＡＬ　ＡＳＳＥＴ　ＨＯＬＤＩＮＧＳ,,合同会社,茨城県,稲敷市,月出里５６５番地１８７－１０３号棟,,08,229,3000521,,,,,,,2023-07-24,1,,,,,ロイヤルアセットホールディングス,0
449,2060001036176,新規,0,2023-07-24,2023-07-24,株式会社ルスール,,株式会社,栃木県,小山市,大字喜沢１２０１－１ＹＮＳハイツ１０８号室,,09,208,3230014,,,,,,,2023-07-24,1,,,,,ルスール,0
482,2120001256668,新規,0,2023-07-24,2023-07-24,株式会社ＫＡＢＥ　ｔｏ　ＹＡＮＥ,,株式会社,大阪府,大阪市大正区,千島１丁目１４番１号明伸ビル１０２,,27,108,5510003,,,,,,,2023-07-24,1,,,,,カベトヤネ,0
483,2120001256692,新規,0,2023-07-24,2023-07-24,株式会社エムアンドエムホスピタリティ,,株式会社,大阪府,大阪市中央区,北浜２丁目６番２６号大阪グリーンビル８階,,27,128,5410041,,,,,,,2023-07-24,1,,,,,エムアンドエムホスピタリティ,0
488,2120101067932,新規,0,2023-07-24,2023-07-24,株式会社村田水産,,株式会社,大阪府,泉南郡岬町,淡輪４６０２番地,,27,366,5990301,,,,,,,2023-07-24,1,,,,,ムラタスイサン,0
489,2120103005337,新規,0,2023-07-24,2023-07-24,合同会社エフ・ブルーム,,合同会社,大阪府,富田林市,桜井町１丁目１８番３１号,,27,214,5840013,,,,,,,2023-07-24,1,,,,,エフブルーム,0
500,2130001074788,新規,0,2023-07-24,2023-07-24,株式会社Ｕ．Ｃ．,,株式会社,京都府,宇治市,槇島町一ノ坪４１番地の２,,26,204,6110041,,,,,,,2023-07-24,1,,,,,ユーシー,0
503,2130005016836,新規,0,2023-07-24,2023-07-24,一般社団法人京都哲学研究所,,その他の設立登記法人,京都府,京都市南区,西九条菅田町１９番１号,,26,107,6018445,,,,,,,2023-07-24,1,,,,,キョウトテツガクケンキュウジョ,0
515,2140003019344,新規,0,2023-07-24,2023-07-24,ＣｏｃｒｅＣｏコンサルティング合同会社,,合同会社,兵庫県,姫路市,南町６３ミツワビル１Ｆ,,28,201,6700912,,,,,,,2023-07-24,1,,,,,コクリココンサルティング,0
532,2180001157217,新規,0,2023-07-24,2023-07-24,株式会社ＳＴＩ,,株式会社,愛知県,春日井市,桃山町２丁目４３０番地,,23,206,4860802,,,,,,,2023-07-24,1,,,,,エスティーアイ,0
537,2180003025495,新規,0,2023-07-24,2023-07-24,合同会社ハル,,合同会社,愛知県,名古屋市北区,大曽根４丁目１９番１５号ダイアパレス大曽根ＵＲＳ８０２号,,23,103,4620825,,,,,,,2023-07-24,1,,,,,ハル,0
538,2180003025512,新規,0,2023-07-24,2023-07-24,ｐｒｏｕｄ合同会社,,合同会社,愛知県,清須市,西田中松本７３番地ＶＩＬＬＡＧＥ３０５,,23,233,4520933,,,,,,,2023-07-24,1,,,,,プラウド,0
539,2180003025520,新規,0,2023-07-24,2023-07-24,楽のや合同会社,,合同会社,愛知県,名古屋市緑区,鳴海町字乙子山６０番地１,,23,114,4580801,,,,,,,2023-07-24,1,,,,,ラクノヤ,0
541,2180005020305,新規,0,2023-07-24,2023-07-24,一般社団法人らいふサポートセンターアシスト,,その他の設立登記法人,愛知県,名古屋市中川区,中花町１７３番地,,23,110,4540931,,,,,,,2023-07-24,1,,,,,ライフサポートセンターアシスト,0
549,2200001041525,新規,0,2023-07-24,2023-07-24,スカイルナ株式会社,,株式会社,岐阜県,岐阜市,雄総桜町３丁目６０番地,,21,201,5020016,,,,,,,2023-07-24,1,,,,,スカイルナ,0
562,2270001008815,新規,0,2023-07-24,2023-07-24,株式会社ライオンマート,,株式会社,鳥取県,米子市,熊党１８１番地２,,31,202,6893546,,,,,,,2023-07-24,1,,,,,ライオンマート,0
563,2280003001750,新規,0,2023-07-24,2023-07-24,合同会社日昇興業,,合同会社,島根県,出雲市,白枝町１２４３番地,,32,203,6930006,,,,,,,2023-07-24,1,,,,,ヒノボリコウギョウ,0
571,2290001102228,新規,0,2023-07-24,2023-07-24,ＷＮＤ株式会社,,株式会社,福岡県,福岡市中央区,天神４丁目６番２８号天神ファーストビル７階,,40,133,8100001,,,,,,,2023-07-24,1,,,,,ダブリューエヌディー,0
572,2290001102392,新規,0,2023-07-24,2023-07-24,株式会社トライアルチャレンジド,,株式会社,福岡県,福岡市東区,多の津１丁目１２番２号,,40,131,8130034,,,,,,,2023-07-24,1,,,,,トライアルチャレンジド,0
578,2300001013381,新規,0,2023-07-24,2023-07-24,株式会社夢翔ＬＩＮＥ,,株式会社,佐賀県,神埼市,千代田町用作１９５２番地３,,41,210,8420066,,,,,,,2023-07-24,1,,,,,ムショウライン,0
595,2350003004399,新規,0,2023-07-24,2023-07-24,合同会社Ｌｉｎｄｅｌ,,合同会社,宮崎県,日向市,大字塩見９６１番地ジェントリープレイス２０４号,,45,206,8830033,,,,,,,2023-07-24,1,,,,,リンデル,0
597,2360001032319,新規,0,2023-07-24,2023-07-24,株式会社ＡＫ　Ｉｎｔｅｒｎａｔｉｏｎａｌ,,株式会社,沖縄県,那覇市,松山２丁目１５番１号,,47,201,9000032,,,,,,,2023-07-24,1,,,,,エーケーインターナショナル,0
604,2370001050212,新規,0,2023-07-24,2023-07-24,名仙株式会社,,株式会社,宮城県,仙台市太白区,茂庭台４丁目３番３－２６０５号,,04,104,9820252,,,,,,,2023-07-24,1,,,,,メイセン,0
615,2400003003115,新規,0,2023-07-24,2023-07-24,合同会社ＳＵＭＵＲＯ,,合同会社,岩手県,花巻市,下北万丁目１６９番地１サンシャインＢ棟,,03,205,0250054,,,,,,,2023-07-24,1,,,,,スムロ,0
618,2420003002759,新規,0,2023-07-24,2023-07-24,クリエイティブ・アメージング・ライフ合同会社,,合同会社,青森県,弘前市,大字五十石町２番地２階,,02,202,0368362,,,,,,,2023-07-24,1,,,,,,0
621,2430001089475,新規,0,2023-07-24,2023-07-24,株式会社タカマサオフィス,,株式会社,北海道,札幌市中央区,北五条西６丁目１番２３号,,01,101,0600005,,,,,,,2023-07-24,1,,,,,タカマサオフィス,0
623,2440003001528,新規,0,2023-07-24,2023-07-24,合同会社メルコマース,,合同会社,北海道,亀田郡七飯町,鳴川３丁目１０番１号,,01,337,0411112,,,,,,,2023-07-24,1,,,,,メルコマース,0
627,2470001019718,新規,0,2023-07-24,2023-07-24,株式会社マリモ,,株式会社,香川県,高松市,室新町１０１９番地１０カスタネア栗林南２０１,,37,201,7618062,,,,,,,2023-07-24,1,,,,,マリモ,0
629,2470002019683,新規,0,2023-07-24,2023-07-24,鈴丸産業有限会社,,有限会社,香川県,高松市,牟礼町原５６５番地,,37,201,7610123,,,,,,,2023-07-24,1,,,,,,0
642,3010001237067,新規,0,2023-07-24,2023-07-24,岳株式会社,,株式会社,東京都,文京区,本郷４丁目１５番３－４０１号,,13,105,1130033,,,,,,,2023-07-24,1,,,,,オカ,0
643,3010001237075,新規,0,2023-07-24,2023-07-24,株式会社アークタンジェント,,株式会社,東京都,中央区,日本橋兜町１７－２兜町第６葉山ビル４Ｆ,,13,102,1030026,,,,,,,2023-07-24,1,,,,,アークタンジェント,0
648,3010003041161,新規,0,2023-07-24,2023-07-24,合同会社ＯＵ　Ｗｈｏｌｅｓａｌｅ,,合同会社,東京都,中央区,湊３丁目５番４－２０２号,,13,102,1040043,,,,,,,2023-07-24,1,,,,,オーユーホールセール,0
664,3010601063458,新規,0,2023-07-24,2023-07-24,株式会社ＳＵＳＡ　ＥＮＴＥＲＰＲＩＳＥＳ,,株式会社,東京都,江東区,東陽７丁目４番２号東陽町ダイヤモンドマンション５０３,,13,108,1350016,,,,,,,2023-07-24,1,,,,,スサエンタープライゼズ,0
667,3010801034184,新規,0,2023-07-24,2023-07-24,株式会社Ｂ．Ｋ　ＩＮＴ,,株式会社,東京都,大田区,西蒲田５丁目１６番３号－１０１,,13,111,1440051,,,,,,,2023-07-24,1,,,,,ビーケーインターナショナル,0
671,3010901053480,新規,0,2023-07-24,2023-07-24,株式会社トータルソリューション,,株式会社,東京都,世田谷区,三軒茶屋１丁目１６番８号－３０２,,13,112,1540024,,,,,,,2023-07-24,1,,,,,トータルソリューション,0
676,3011003017218,新規,0,2023-07-24,2023-07-24,合同会社ｓａｎｓｕｍｍｅｒ,,合同会社,東京都,渋谷区,渋谷１丁目１番６号エムエフ青山６０４,,13,113,1500002,,,,,,,2023-07-24,1,,,,,,0
689,3011301028882,新規,0,2023-07-24,2023-07-24,株式会社バンドワゴン・エンターテイメント,,株式会社,東京都,杉並区,高井戸西２丁目１６番２８号,,13,115,1680071,,,,,,,2023-07-24,1,,,,,バンドワゴンエンターテイメント,0
695,3011703003533,新規,0,2023-07-24,2023-07-24,合同会社Ｖｉｖｉｄ,,合同会社,東京都,江戸川区,平井１丁目１２－１２,,13,123,1320035,,,,,,,2023-07-24,1,,,,,ヴィヴィッド,0
698,3012403006074,新規,0,2023-07-24,2023-07-24,合同会社山崎エステイト,,合同会社,東京都,稲城市,長峰２丁目１４番地の５,,13,225,2060821,,,,,,,2023-07-24,1,,,,,ヤマザキエステイト,0
714,3020001152562,新規,0,2023-07-24,2023-07-24,株式会社ＮＯＶＡＲＣＡ,,株式会社,神奈川県,横浜市港南区,港南１丁目７番２６号,,14,111,2330003,,,,,,,2023-07-24,1,,,,,ノバルカ,0
715,3020001152595,新規,0,2023-07-24,2023-07-24,株式会社ｍ‐ａｆｆｉｒｍ,,株式会社,神奈川県,川崎市川崎区,小田１丁目２０－１６,,14,131,2100846,,,,,,,2023-07-24,1,,,,,エムアファーム,0
716,3020001152645,新規,0,2023-07-24,2023-07-24,株式会社Ｇ＆Ｔ,,株式会社,神奈川県,横浜市西区,みなとみらい５丁目３番１号オーシャンタワー７０５,,14,103,2200012,,,,,,,2023-07-24,1,,,,,ジーアンドティー,0
725,3021001079564,新規,0,2023-07-24,2023-07-24,株式会社ＨＯＬＯＭＵＡ,,株式会社,神奈川県,横須賀市,武４丁目２７－３－５０４,,14,201,2380313,,,,,,,2023-07-24,1,,,,,ホロムア,0
726,3021001079671,新規,0,2023-07-24,2023-07-24,Ｏｐｅｎｐａｔｈ株式会社,,株式会社,神奈川県,三浦郡葉山町,堀内４９７－３,,14,301,2400112,,,,,,,2023-07-24,1,,,,,オープンパス,0
727,3021003013348,新規,0,2023-07-24,2023-07-24,合同会社セブントゥーエイト,,合同会社,神奈川県,鎌倉市,材木座６丁目１６番３号,,14,204,2480013,,,,,,,2023-07-24,1,,,,,セブントゥーエイト,0
736,3040001129261,新規,0,2023-07-24,2023-07-24,株式会社八六商会,,株式会社,千葉県,八千代市,八千代台南２丁目１０番５号,,12,221,2760033,,,,,,,2023-07-24,1,,,,,ハチロクショウカイ,0
737,3040001129352,新規,0,2023-07-24,2023-07-24,旅有株式会社,,株式会社,千葉県,千葉市美浜区,浜田１丁目４番１００３室,,12,106,2610025,,,,,,,2023-07-24,1,,,,,タビアリ,0
739,3040003022992,新規,0,2023-07-24,2023-07-24,はな合同会社,,合同会社,千葉県,千葉市花見川区,作新台８丁目１２番８棟３０３号,,12,102,2620045,,,,,,,2023-07-24,1,,,,,ハナ,0
747,3060003004650,新規,0,2023-07-24,2023-07-24,合同会社ＡＵＴＯ　ＨＵＴ,,合同会社,栃木県,栃木市,大平町富田２４０９番地５,,09,203,3294404,,,,,,,2023-07-24,1,,,,,オートハット,0
749,3070001040663,新規,0,2023-07-24,2023-07-24,株式会社家和金属,,株式会社,群馬県,桐生市,相生町２丁目７４０番地の９グロースベルクＢ２０１,,10,203,3760011,,,,,,,2023-07-24,1,,,,,カワキンゾク,0
755,3080401026617,新規,0,2023-07-24,2023-07-24,株式会社ＳＫ,,株式会社,静岡県,浜松市南区,増楽町１５９１番地の１,,22,134,4328062,,,,,,,2023-07-24,1,,,,,エスケイ,0
762,3110001037713,新規,0,2023-07-24,2023-07-24,株式会社ＴＲＹＡＳ,,株式会社,新潟県,新潟市中央区,南笹口１丁目１４番地３号コーポ日光１１０号室,,15,103,9500912,,,,,,,2023-07-24,1,,,,,トライアス,0
765,3110005016969,新規,0,2023-07-24,2023-07-24,一般社団法人Ｇｒｏｗ　Ｗｉｔｈ,,その他の設立登記法人,新潟県,北蒲原郡聖籠町,大字三賀９３４番地７,,15,307,9570122,,,,,,,2023-07-24,1,,,,,グロウウィズ,0
779,3120001256634,新規,0,2023-07-24,2023-07-24,株式会社小牟田設備,,株式会社,大阪府,大阪市港区,三先２丁目９番１７－１０３号,,27,107,5520016,,,,,,,2023-07-24,1,,,,,コムタセツビ,0
780,3120001256650,新規,0,2023-07-24,2023-07-24,ＥＢＯ産業株式会社,,株式会社,大阪府,大阪市城東区,鴫野西５丁目１３番３０号,,27,118,5360014,,,,,,,2023-07-24,1,,,,,イービーオーサンギョウ,0
781,3120001256659,新規,0,2023-07-24,2023-07-24,株式会社ＬＳＢ,,株式会社,大阪府,枚方市,香里ケ丘１１丁目２９番１２号,,27,210,5730084,,,,,,,2023-07-24,1,,,,,エルエスビー,0
782,3120001256667,新規,0,2023-07-24,2023-07-24,Ｈｅａｒｔ　Ｇｉｆｔ株式会社,,株式会社,大阪府,大阪市北区,梅田１丁目２番２号大阪駅前第２ビル１２－１２,,27,127,5300001,,,,,,,2023-07-24,1,,,,,ハートギフト,0
783,3120001256683,新規,0,2023-07-24,2023-07-24,株式会社Ｌｉｂｅｒｔｙ　Ｗｅｌｌｎｅｓｓ,,株式会社,大阪府,大阪市北区,豊崎３丁目１６番１６－３４１０号,,27,127,5310072,,,,,,,2023-07-24,1,,,,,リバティウェルネス,0
784,3120001256700,新規,0,2023-07-24,2023-07-24,株式会社ランドアド,,株式会社,大阪府,大阪市阿倍野区,西田辺町２丁目２－２３フェニックス若潮３０２号,,27,119,5450014,,,,,,,2023-07-24,1,,,,,ランドアド,0
786,3120101067898,新規,0,2023-07-24,2023-07-24,旭企画株式会社,,株式会社,大阪府,阪南市,貝掛６３番３号シーサイド貝掛Ｂ棟１０８号室,,27,232,5990231,,,,,,,2023-07-24,1,,,,,アサヒキカク,0
787,3120101067931,新規,0,2023-07-24,2023-07-24,株式会社ニッシン,,株式会社,大阪府,泉佐野市,南中安松１０２８番地の１（３０３）,,27,213,5980033,,,,,,,2023-07-24,1,,,,,ニッシン,0
788,3120103005336,新規,0,2023-07-24,2023-07-24,アゼイリアホーム合同会社,,合同会社,大阪府,泉南市,新家１４１４－２６０,,27,228,5900503,,,,,,,2023-07-24,1,,,,,アゼイリアホーム,0
795,3130001074779,新規,0,2023-07-24,2023-07-24,株式会社Ａｕｇｕｓｔ,,株式会社,京都府,京都市上京区,小川通寺之内下る挽木町５１６番地,,26,102,6020065,,,,,,,2023-07-24,1,,,,,オーガスト,0
804,3140001130944,新規,0,2023-07-24,2023-07-24,株式会社Ｉ．Ｒ．Ｏ,,株式会社,兵庫県,姫路市,南条５００番地,,28,201,6700952,,,,,,,2023-07-24,1,,,,,アイアールオー,0
805,3140001130952,新規,0,2023-07-24,2023-07-24,株式会社サポーターズ,,株式会社,兵庫県,加西市,北条町横尾１１０７番地,,28,220,6752311,,,,,,,2023-07-24,1,,,,,サポーターズ,0
808,3140003019335,新規,0,2023-07-24,2023-07-24,合同会社ながハウジング,,合同会社,兵庫県,西宮市,上甲子園３丁目１番２５号,,28,204,6638114,,,,,,,2023-07-24,1,,,,,ナガハウジング,0
809,3140003019343,新規,0,2023-07-24,2023-07-24,合同会社ＧＡＰ　ＷＯＲＫＳ,,合同会社,兵庫県,宝塚市,平井２丁目４－３５－３０２,,28,214,6650816,,,,,,,2023-07-24,1,,,,,ギャップワークス,0
819,3180001157249,新規,0,2023-07-24,2023-07-24,株式会社Ｍｉｇａｋｕ,,株式会社,愛知県,名古屋市中区,栄１丁目２番３号,,23,106,4600008,,,,,,,2023-07-24,1,,,,,ミガク,0
823,3180003025511,新規,0,2023-07-24,2023-07-24,合同会社ＴＷＳ,,合同会社,愛知県,名古屋市中村区,名駅４丁目２４番５号第２森ビル４０１,,23,105,4500002,,,,,,,2023-07-24,1,,,,,ティダブルエス,0
825,3180303005766,新規,0,2023-07-24,2023-07-24,グロウスレボリューション合同会社,,合同会社,愛知県,豊田市,栄生町４丁目２５番地１１,,23,211,4710067,,,,,,,2023-07-24,1,,,,,グロウスレボリューション,0
828,3210001019395,新規,0,2023-07-24,2023-07-24,株式会社Ｅｉｋｏｕ,,株式会社,福井県,あわら市,大溝１丁目２５番１５号,,18,208,9190628,,,,,,,2023-07-24,1,,,,,エイコウ,0
835,3240003006232,新規,0,2023-07-24,2023-07-24,合同会社ハチミツ会計,,合同会社,広島県,広島市安佐南区,安東２丁目５番１８号,,34,105,7310153,,,,,,,2023-07-24,1,,,,,,0
839,3250001020192,新規,0,2023-07-24,2023-07-24,株式会社森人舎,,株式会社,山口県,岩国市,南岩国町４丁目９０番４号,,35,208,7400034,,,,,,,2023-07-24,1,,,,,シンジンシャ,0
845,3280001008994,新規,0,2023-07-24,2023-07-24,高津屋技研株式会社,,株式会社,島根県,益田市,高津６丁目１８番１９号,,32,204,6980041,,,,,,,2023-07-24,1,,,,,タカツヤギケン,0
848,3290001102375,新規,0,2023-07-24,2023-07-24,ＹＳＫＭ株式会社,,株式会社,福岡県,福岡市南区,若久５丁目１２番２号,,40,134,8150042,,,,,,,2023-07-24,1,,,,,ワイエスケーエム,0
854,3310003004609,新規,0,2023-07-24,2023-07-24,合同会社樹,,合同会社,長崎県,諫早市,真崎町１６７４番地１１Ｄ・ファミーユＤ棟,,42,204,8540084,,,,,,,2023-07-24,1,,,,,ミキ,0
864,3360001032318,新規,0,2023-07-24,2023-07-24,福建ネクスト株式会社,,株式会社,沖縄県,那覇市,寄宮３丁目１８番６号ライオンズマンション寄宮２０８,,47,201,9020064,,,,,,,2023-07-24,1,,,,,フクケンネクスト,0
891,3430003015230,新規,0,2023-07-24,2023-07-24,合同会社丸〆ストア,00131259,合同会社,北海道,江別市,四条４丁目８番地９,,01,217,0670014,,,,,,,2023-07-24,1,,,,,マルシメストア,0
892,3430003015239,新規,0,2023-07-24,2023-07-24,合同会社ＮＪＴエンジニアリング,,合同会社,北海道,苫小牧市,拓勇東町６丁目２１番２７号,,01,213,0591303,,,,,,,2023-07-24,1,,,,,エヌジェーティーエンジニアリング,0
895,3470001019717,新規,0,2023-07-24,2023-07-24,Ｓファインオフィス株式会社,,株式会社,香川県,高松市,屋島西町２２８５番地２３,,37,201,7610113,,,,,,,2023-07-24,1,,,,,エスファインオフィス,0
906,4010001236778,新規,0,2023-07-24,2023-07-24,前錦国際株式会社,,株式会社,東京都,千代田区,外神田５丁目２番３号アソルティビル６Ｆ,,13,101,1010021,,,,,,,2023-07-24,1,,,,,センキンコクサイ,0
907,4010001237074,新規,0,2023-07-24,2023-07-24,株式会社ｆｉｒｓｔ,,株式会社,東京都,千代田区,麹町４丁目５番地２０ＫＳビル８階７階４階,,13,101,1020083,,,,,,,2023-07-24,1,,,,,ファースト,0
922,4010503007090,新規,0,2023-07-24,2023-07-24,合同会社Ｎ,,合同会社,東京都,台東区,上野７丁目３番７号群邸Ａ１階,,13,106,1100005,,,,,,,2023-07-24,1,,,,,エヌ,0
924,4010603010250,新規,0,2023-07-24,2023-07-24,ＥＴＩＶＮＩ合同会社,,合同会社,東京都,江東区,南砂６丁目１１番１２号プレシス南砂３０２,,13,108,1360076,,,,,,,2023-07-24,1,,,,,エティブニ,0
927,4010701044605,新規,0,2023-07-24,2023-07-24,株式会社ＡＧＡＲＹＳ,,株式会社,東京都,品川区,西大井４丁目２２－１３,,13,109,1400015,,,,,,,2023-07-24,1,,,,,アガリース,0
929,4010801034183,新規,0,2023-07-24,2023-07-24,株式会社ｒｅｖｅｓ,,株式会社,東京都,大田区,西蒲田６丁目１６番１４号,,13,111,1440051,,,,,,,2023-07-24,1,,,,,レーヴ,0
931,4010803004614,新規,0,2023-07-24,2023-07-24,合同会社アリア,,合同会社,東京都,大田区,大森北６丁目２９番１０号第３ＴＡＣ平和島駅前ビル５Ｆ,,13,111,1430016,,,,,,,2023-07-24,1,,,,,アリア,0
942,4011001155844,新規,0,2023-07-24,2023-07-24,株式会社ＹＭＡ,,株式会社,東京都,渋谷区,鶯谷町１３番１号Ｇ４０３,,13,113,1500032,,,,,,,2023-07-24,1,,,,,ワイエムエー,0
943,4011001155852,新規,0,2023-07-24,2023-07-24,株式会社ワンドライバー,,株式会社,東京都,渋谷区,渋谷２丁目１９番１５号宮益坂ビルディング６０９,,13,113,1500002,,,,,,,2023-07-24,1,,,,,ワンドライバー,0
946,4011003017209,新規,0,2023-07-24,2023-07-24,合同会社Ｔｅｎｂｉｎ,,合同会社,東京都,渋谷区,神泉町１０番１５号,,13,113,1500045,,,,,,,2023-07-24,1,,,,,テンビン,0
947,4011003017217,新規,0,2023-07-24,2023-07-24,合同会社後藤プロダクション,,合同会社,東京都,渋谷区,初台２丁目６－１２タウンコート初台１０１,,13,113,1510061,,,,,,,2023-07-24,1,,,,,ゴトウプロダクション,0
948,4011003017225,新規,0,2023-07-24,2023-07-24,合同会社ＧＩ,,合同会社,東京都,目黒区,上目黒３丁目８番５－５０４号,,13,110,1530051,,,,,,,2023-07-24,1,,,,,ジーアイ,0
950,4011101103678,新規,0,2023-07-24,2023-07-24,株式会社コラボハーツ,,株式会社,東京都,新宿区,西新宿３丁目３番１３号西新宿水間ビル２Ｆ,,13,104,1600023,,,,,,,2023-07-24,1,,,,,コラボハーツ,0
957,4011601026998,新規,0,2023-07-24,2023-07-24,ロカヒアンフォールディング株式会社,,株式会社,東京都,練馬区,大泉学園町６丁目２－１６,,13,120,1780061,,,,,,,2023-07-24,1,,,,,ロカヒアンフォールディング,0
960,4011801042770,新規,0,2023-07-24,2023-07-24,株式会社ＫＭＣメディカル,,株式会社,東京都,足立区,中川４丁目２３番１９－７０１号,,13,121,1200002,,,,,,,2023-07-24,1,,,,,ケーエムシーメディカル,0
961,4011801042779,新規,0,2023-07-24,2023-07-24,株式会社アルバソリューション,,株式会社,東京都,葛飾区,青戸７丁目１１番１３－５０３号センチュリー青砥,,13,122,1250062,,,,,,,2023-07-24,1,,,,,アルバソリューション,0
965,4012401040768,新規,0,2023-07-24,2023-07-24,株式会社ランドスケープ,,株式会社,東京都,三鷹市,井の頭５丁目１７番４１号－６,,13,204,1810001,,,,,,,2023-07-24,1,,,,,ランドスケープ,0
968,4012403006081,新規,0,2023-07-24,2023-07-24,合同会社ＲＭＯ,,合同会社,東京都,小金井市,貫井南町５丁目１１番１８号,,13,210,1840014,,,,,,,2023-07-24,1,,,,,アールエムオー,0
970,4012801022523,新規,0,2023-07-24,2023-07-24,リリー・ＥＣＯ株式会社,,株式会社,東京都,国分寺市,南町３丁目１９番６号,,13,214,1850021,,,,,,,2023-07-24,1,,,,,リリーエコ,0
977,4020001152644,新規,0,2023-07-24,2023-07-24,株式会社ヒデヤマ販売,,株式会社,神奈川県,横浜市南区,白妙町２丁目７番地１０グランパーク横濱南６０３号,,14,105,2320023,,,,,,,2023-07-24,1,,,,,ヒデヤマハンバイ,0
978,4020001152652,新規,0,2023-07-24,2023-07-24,株式会社シンエイ,,株式会社,神奈川県,川崎市中原区,新丸子東３丁目１２０４番地１００３,,14,133,2110004,,,,,,,2023-07-24,1,,,,,シンエイ,0
983,4020003024263,新規,0,2023-07-24,2023-07-24,タローパーク合同会社,,合同会社,神奈川県,横浜市青葉区,奈良２丁目２２番地２０,,14,117,2270038,,,,,,,2023-07-24,1,,,,,タローパーク,0
1005,4040001129351,新規,0,2023-07-24,2023-07-24,株式会社ＨＩＧＨ　ＧＡＲＤＥＮ　ＰＬＵＳ,,株式会社,千葉県,君津市,東日笠５１７番地２,,12,225,2921164,,,,,,,2023-07-24,1,,,,,ハイガーデンプラス,0
1007,4040003022991,新規,0,2023-07-24,2023-07-24,ＲＯＹＡＬ　ＲＡＹＺ合同会社,,合同会社,千葉県,千葉市花見川区,幕張本郷７丁目１５番１０号パウゼ幕張ＩＩ１０１,00131252,12,102,2620033,,,,,,,2023-07-24,1,,,,,ロイヤルレイズ,0
1009,4050001053170,新規,0,2023-07-24,2023-07-24,株式会社ＳＫファーム,,株式会社,茨城県,桜川市,真壁町東山田１０３番地２,,08,231,3004415,,,,,,,2023-07-24,1,,,,,エスケーファーム,0
1010,4050001053195,新規,0,2023-07-24,2023-07-24,株式会社リノケン,,株式会社,茨城県,水戸市,宮町１丁目２番４号ＭＹＭビル３ＦＢＩＺｃｏｍｆｏｒｔ水戸,,08,201,3100015,,,,,,,2023-07-24,1,,,,,リノケン,0
1015,4060001036182,新規,0,2023-07-24,2023-07-24,ＳＺＳ　ＲＡＮＡ　ＴＲＡＤＩＮＧ株式会社,,株式会社,栃木県,佐野市,下羽田町２８番地１,,09,204,3270044,,,,,,,2023-07-24,1,,,,,エスゼッドエスラナトレーディング,0
1018,4070001040662,新規,0,2023-07-24,2023-07-24,ＡＭＭＳ株式会社,,株式会社,群馬県,館林市,大谷町８８４番地の１谷越コーポ－１０１,,10,207,3740054,,,,,,,2023-07-24,1,,,,,エイエムエムエス,0
1042,4100003007111,新規,0,2023-07-24,2023-07-24,合同会社アーキテックス,,合同会社,長野県,松本市,大字寿豊丘１０９３番地２,,20,202,3990021,,,,,,,2023-07-24,1,,,,,アーキテックス,0
1052,4120001256625,新規,0,2023-07-24,2023-07-24,株式会社いつもありがちょんまげ,,株式会社,大阪府,大阪市福島区,海老江４丁目７番１３号ル・ドゥーズィエム・シャピトゥル福島５０４号,,27,103,5530001,,,,,,,2023-07-24,1,,,,,イツモアリガチョンマゲ,0
1053,4120001256658,新規,0,2023-07-24,2023-07-24,株式会社ＬａＳｈｉｃｕ,,株式会社,大阪府,大阪市中央区,船場中央２丁目３番６－２１４,,27,128,5410055,,,,,,,2023-07-24,1,,,,,ラシク,0
1054,4120001256666,新規,0,2023-07-24,2023-07-24,株式会社トーダ製作所,,株式会社,大阪府,大阪市大正区,小林東２丁目１番１４号,,27,108,5510011,,,,,,,2023-07-24,1,,,,,トーダセイサクショ,0
1055,4120001256674,新規,0,2023-07-24,2023-07-24,株式会社ベアハウジング,,株式会社,大阪府,守口市,佐太東町１丁目１６番５号,,27,209,5700017,,,,,,,2023-07-24,1,,,,,ベアハウジング,0
1056,4120001256682,新規,0,2023-07-24,2023-07-24,良言株式会社,,株式会社,大阪府,大阪市大正区,三軒家西３丁目４番１６号中山ビル１００７,,27,108,5510001,,,,,,,2023-07-24,1,,,,,リョウゲン,0
1059,4120003024534,新規,0,2023-07-24,2023-07-24,合同会社坂上会計事務所,,合同会社,大阪府,大阪市天王寺区,生玉町９番１６号,,27,109,5430071,,,,,,,2023-07-24,1,,,,,サカガミカイケイジムショ,0
1060,4120003024542,新規,0,2023-07-24,2023-07-24,合同会社ＫＲＩＡ,,合同会社,大阪府,大阪市平野区,加美南５丁目１１番１０号ＳＥＮＳＥ加美南１０１号,,27,126,5470003,,,,,,,2023-07-24,1,,,,,クリア,0
1063,4120005023773,新規,0,2023-07-24,2023-07-24,一般社団法人マナベル,,その他の設立登記法人,大阪府,大阪市東淀川区,上新庄２丁目４番１０－５０５号,,27,114,5330006,,,,,,,2023-07-24,1,,,,,マナベル,0
1065,4120103005335,新規,0,2023-07-24,2023-07-24,合同会社ここいろ,,合同会社,大阪府,堺市西区,浜寺船尾町西２丁９１番地１１,,27,144,5928342,,,,,,,2023-07-24,1,,,,,ココイロ,0
1077,4130001074803,新規,0,2023-07-24,2023-07-24,Ｉ’ｚ　ｆａｃｔｏｒｙ株式会社,,株式会社,京都府,京都市山科区,小山中ノ川町５５番地１４,,26,110,6078112,,,,,,,2023-07-24,1,,,,,アイズファクトリー,0
1080,4130003008874,新規,0,2023-07-24,2023-07-24,合同会社アネモネ,,合同会社,京都府,京都市東山区,今熊野椥ノ森町３１番地７,,26,105,6050971,,,,,,,2023-07-24,1,,,,,アネモネ,0
1088,4140001130943,新規,0,2023-07-24,2023-07-24,株式会社テレファイト,,株式会社,兵庫県,神戸市中央区,脇浜海岸通３丁目１番１８－１６０５号,,28,110,6510073,,,,,,,2023-07-24,1,,,,,テレファイト,0
1098,4150005009497,新規,0,2023-07-24,2023-07-24,社会保険労務士法人ＨＩＤＡＭＡＲＩ,,その他の設立登記法人,奈良県,橿原市,葛本町１５３番地の２,,29,205,6340007,,,,,,,2023-07-24,1,,,,,ヒダマリ,0
1099,4160001025200,新規,0,2023-07-24,2023-07-24,株式会社トラスティ,,株式会社,滋賀県,彦根市,後三条町７２１,,25,202,5220086,,,,,,,2023-07-24,1,,,,,トラスティ,0
1100,4160001025209,新規,0,2023-07-24,2023-07-24,株式会社ｃｏｍｆｏｒｔ,,株式会社,滋賀県,栗東市,小柿１０丁目１６番５号,,25,208,5203024,,,,,,,2023-07-24,1,,,,,コンフォート,0
1109,4180001157215,新規,0,2023-07-24,2023-07-24,株式会社レーヴェ,,株式会社,愛知県,稲沢市,正明寺１丁目１２番３号,,23,220,4928145,,,,,,,2023-07-24,1,,,,,レーヴェ,0
1110,4180001157248,新規,0,2023-07-24,2023-07-24,株式会社フューチャービジョン,,株式会社,愛知県,弥富市,前ケ須町東勘助１０８－１－６Ｆ,,23,235,4980017,,,,,,,2023-07-24,1,,,,,フューチャービジョン,0
1116,4180003025519,新規,0,2023-07-24,2023-07-24,合同会社ＹＳＫ,,合同会社,愛知県,名古屋市千種区,大久手町７丁目２番地,,23,101,4640854,,,,,,,2023-07-24,1,,,,,ワイエスケー,0
1117,4180005020303,新規,0,2023-07-24,2023-07-24,社会福祉法人犬山市楽田福祉会,,その他の設立登記法人,愛知県,犬山市,字中唐曽１番地１２３,,23,215,4840934,,,,,,,2023-07-24,1,,,,,イヌヤマシガクデンフクシカイ,0
1119,4190001030602,新規,0,2023-07-24,2023-07-24,株式会社Ｈｏｕｓｅ　Ｏｗｎｅｒ,,株式会社,三重県,桑名市,長島町出口２１８番地,,24,205,5111142,,,,,,,2023-07-24,1,,,,,ハウスオーナー,0
1122,4200001041523,新規,0,2023-07-24,2023-07-24,中部技研工業株式会社,,株式会社,岐阜県,可児郡御嵩町,顔戸７７番地２,,21,521,5050122,,,,,,,2023-07-24,1,,,,,チュウブギケンコウギョウ,0
1137,4240003006231,新規,0,2023-07-24,2023-07-24,ｔｈｅ　ＳＵＮ合同会社,,合同会社,広島県,広島市南区,東雲１丁目９番２６号,,34,103,7340022,,,,,,,2023-07-24,1,,,,,ザサン,0
1140,4250001020200,新規,0,2023-07-24,2023-07-24,株式会社ＳＯＩＬ　Ｎａｇａｔｏｙｕｍｏｔｏ,,株式会社,山口県,長門市,深川湯本２２５７番地,,35,211,7594103,,,,,,,2023-07-24,1,,,,,ソイルナガトユモト,0
1148,4290001102366,新規,0,2023-07-24,2023-07-24,株式会社コーソンレポート,,株式会社,福岡県,福岡市博多区,東雲町３丁目３番１号,,40,132,8120871,,,,,,,2023-07-24,1,,,,,コーソンレポート,0
1149,4290001102374,新規,0,2023-07-24,2023-07-24,株式会社クラテール,,株式会社,福岡県,福岡市南区,市崎１丁目１番５号,,40,134,8150084,,,,,,,2023-07-24,1,,,,,クラテール,0
1150,4290001102382,新規,0,2023-07-24,2023-07-24,株式会社ＦＸＣ,,株式会社,福岡県,福岡市早良区,高取２丁目１６番９－１０１号,,40,137,8140011,,,,,,,2023-07-24,1,,,,,,0
1151,4290003014155,新規,0,2023-07-24,2023-07-24,合同会社ウエルネスＣｏ’Ｈｅｉ,,合同会社,福岡県,うきは市,浮羽町高見２０２番地６,,40,225,8391406,,,,,,,2023-07-24,1,,,,,ウエルネスコーヘー,0
1153,4290005019094,新規,0,2023-07-24,2023-07-24,行政書士法人ＷＯＲＬＤ　ＢＲＩＤＧＥ,,その他の設立登記法人,福岡県,福岡市南区,大橋２丁目４番６号緒方ビル２Ｆ,,40,134,8150033,,,,,,,2023-07-24,1,,,,,ワールドブリッジ,0
1163,4330005010676,新規,0,2023-07-24,2023-07-24,一般社団法人杜の声,,その他の設立登記法人,熊本県,人吉市,上青井町１１８番地,,43,203,8680005,,,,,,,2023-07-24,1,,,,,,0
1189,4390001017323,新規,0,2023-07-24,2023-07-24,道楽株式会社,,株式会社,山形県,最上郡金山町,大字金山２６７,,06,361,9995402,,,,,,,2023-07-24,1,,,,,ドウラク,0
1199,4420005007861,新規,0,2023-07-24,2023-07-24,一般社団法人ライフパートナーズ,,その他の設立登記法人,青森県,弘前市,大字独狐字石田１２１番地１,,02,202,0368381,,,,,,,2023-07-24,1,,,,,ライフパートナーズ,0
1209,4470001019716,新規,0,2023-07-24,2023-07-24,株式会社フル,,株式会社,香川県,善通寺市,与北町２４７４番地３,,37,204,7650040,,,,,,,2023-07-24,1,,,,,フル,0
1219,5010001236802,新規,0,2023-07-24,2023-07-24,レイナ株式会社,,株式会社,東京都,千代田区,岩本町２丁目１７番４号泰合ビルＩＩ４０４号室,00131254,13,101,1010032,,,,,,,2023-07-24,1,,,,,レイナ,0
1221,5010003041143,新規,0,2023-07-24,2023-07-24,合同会社ＰＲＯＴＯＣＯＬ　Ｃａｐｉｔａｌ,,合同会社,東京都,千代田区,岩本町２丁目１４番１２号,,13,101,1010032,,,,,,,2023-07-24,1,,,,,プロトコルキャピタル,0
1222,5010003041168,新規,0,2023-07-24,2023-07-24,ヒロ合同会社,,合同会社,東京都,文京区,本駒込５丁目３番３号,,13,105,1130021,,,,,,,2023-07-24,1,,,,,ヒロ,0
1236,5010601063456,新規,0,2023-07-24,2023-07-24,衡一株式会社,,株式会社,東京都,江東区,亀戸７丁目４１番１１号金森マンション６０３号室,,13,108,1360071,,,,,,,2023-07-24,1,,,,,コウイチ,0
1237,5010601063472,新規,0,2023-07-24,2023-07-24,株式会社カザハナ,,株式会社,東京都,江東区,豊洲３丁目４番１－２８０３号,,13,108,1350061,,,,,,,2023-07-24,1,,,,,カザハナ,0
1239,5010901053479,新規,0,2023-07-24,2023-07-24,株式会社Ｃｏｎｓｔａｎｔ,,株式会社,東京都,世田谷区,代沢５丁目３６－１６－３Ｂ,,13,112,1550032,,,,,,,2023-07-24,1,,,,,コンスタント,0
1240,5010903008324,新規,0,2023-07-24,2023-07-24,３‐５‐２合同会社,,合同会社,東京都,世田谷区,弦巻２丁目３３番９号,,13,112,1540016,,,,,,,2023-07-24,1,,,,,サンゴウニ,0
1246,5011001155835,新規,0,2023-07-24,2023-07-24,トゥーエイト株式会社,,株式会社,東京都,目黒区,目黒本町４丁目１６番７号サンワールドビル,,13,110,1520002,,,,,,,2023-07-24,1,,,,,トゥーエイト,0
1247,5011001155843,新規,0,2023-07-24,2023-07-24,株式会社ＮＹＧ,,株式会社,東京都,渋谷区,道玄坂１丁目１０番８号渋谷道玄坂東急ビル２Ｆ－Ｃ,,13,113,1500043,,,,,,,2023-07-24,1,,,,,エヌワイジー,0
1248,5011001155851,新規,0,2023-07-24,2023-07-24,株式会社ＵＮアセットマネジメント,,株式会社,東京都,渋谷区,広尾３丁目１４番１７号クラッシィハウス広尾フィオリーレ４０２,,13,113,1500012,,,,,,,2023-07-24,1,,,,,ユーエヌアセットマネジメント,0
1254,5011003017109,新規,0,2023-07-24,2023-07-24,合同会社Ｓｉｎｃｅｒｉｔｙ,,合同会社,東京都,目黒区,東山２丁目７－１８－５０１,,13,110,1530043,,,,,,,2023-07-24,1,,,,,シンセリティ,0
1258,5011303004839,新規,0,2023-07-24,2023-07-24,ハーベストインク合同会社,,合同会社,東京都,杉並区,成田東５丁目１７番１８号－７０５,,13,115,1660015,,,,,,,2023-07-24,1,,,,,,0
1268,5011801042761,新規,0,2023-07-24,2023-07-24,株式会社ワールドフラワーマーケット,,株式会社,東京都,足立区,古千谷本町４丁目９番２０号,,13,121,1210832,,,,,,,2023-07-24,1,,,,,ワールドフラワーマーケット,0
1269,5011801042778,新規,0,2023-07-24,2023-07-24,株式会社ＳｔａｙＧｏｌｄ,,株式会社,東京都,足立区,東和２丁目２８番１号,,13,121,1200003,,,,,,,2023-07-24,1,,,,,ステイゴールド,0
1272,5012801022522,新規,0,2023-07-24,2023-07-24,ＫＩＣＫＫ株式会社,,株式会社,東京都,昭島市,武蔵野３丁目５番４０－１００４号,,13,207,1960021,,,,,,,2023-07-24,1,,,,,キック,0
1283,5020001152643,新規,0,2023-07-24,2023-07-24,株式会社ＯＸ３,,株式会社,神奈川県,川崎市中原区,木月１丁目２９番３号オークトピア吉田２０２,,14,133,2110025,,,,,,,2023-07-24,1,,,,,オークスリー,0
1284,5020001152651,新規,0,2023-07-24,2023-07-24,株式会社ＩＰ　Ｓｕｒｖｅｙ,,株式会社,神奈川県,横浜市西区,北幸２丁目１０番地２８むつみビル３Ｆ,,14,103,2200004,,,,,,,2023-07-24,1,,,,,アイピーサーベイ,0
1292,5021003013338,新規,0,2023-07-24,2023-07-24,合同会社ＰＪブラザーズインターナショナル,,合同会社,神奈川県,愛甲郡愛川町,中津３００番地の１エスポワールＡ１０３,,14,401,2430303,,,,,,,2023-07-24,1,,,,,ピージェイブラザーズインターナショナル,0
1297,5030001154960,新規,0,2023-07-24,2023-07-24,株式会社アライブ,,株式会社,埼玉県,さいたま市大宮区,桜木町２丁目３番地大宮マルイ７階,,11,103,3300854,,,,,,,2023-07-24,1,,,,,アライブ,0
1302,5040001129350,新規,0,2023-07-24,2023-07-24,株式会社ダンケシェーン,,株式会社,千葉県,柏市,逆井１丁目１１番２３号リ・ファインパレスＡ－２０３号,,12,217,2770042,,,,,,,2023-07-24,1,,,,,ダンケシェーン,0
1306,5040003022990,新規,0,2023-07-24,2023-07-24,合同会社ＩＫＥ,,合同会社,千葉県,野田市,木間ケ瀬５０５番地,,12,208,2700222,,,,,,,2023-07-24,1,,,,,イケ,0
1312,5060001036173,新規,0,2023-07-24,2023-07-24,株式会社Ｄｉａｃｈｒｏｎｏｓ,,株式会社,栃木県,足利市,新宿町１１６１番地１,,09,202,3260834,,,,,,,2023-07-24,1,,,,,ディアクロノス,0
1313,5060001036181,新規,0,2023-07-24,2023-07-24,株式会社Ｎ．Ｋ．ＴＲＡＤＩＮＧ,,株式会社,栃木県,小山市,東城南１丁目１０番地２２メープルハウス２０３号,,09,208,3230829,,,,,,,2023-07-24,1,,,,,エヌケートレーディング,0
1316,5070003005027,新規,0,2023-07-24,2023-07-24,合同会社ＳＫ,,合同会社,群馬県,高崎市,倉賀野町２２９４－８ニューセンチュリーＡ１０１,,10,202,3701201,,,,,,,2023-07-24,1,,,,,エスケー,0
1320,5080401026615,新規,0,2023-07-24,2023-07-24,エムイーエル株式会社,,株式会社,静岡県,磐田市,見付１６６３－１６元天神ハウス１号,,22,211,4380086,,,,,,,2023-07-24,1,,,,,エムイーエル,0
1324,5100003007110,新規,0,2023-07-24,2023-07-24,友好合同会社,,合同会社,長野県,下高井郡野沢温泉村,大字豊郷８６６６番地１,,20,563,3892502,,,,,,,2023-07-24,1,,,,,ユウコウ,0
1327,5110001037711,新規,0,2023-07-24,2023-07-24,株式会社リバイ,,株式会社,新潟県,新潟市中央区,笹口３番１７号,,15,103,9500911,,,,,,,2023-07-24,1,,,,,リバイ,0
1335,5120001256590,新規,0,2023-07-24,2023-07-24,株式会社山田ワークス,,株式会社,大阪府,大阪市都島区,中野町１丁目２番２－５０８号,,27,102,5340027,,,,,,,2023-07-24,1,,,,,ヤマダワークス,0
1336,5120001256632,新規,0,2023-07-24,2023-07-24,アイテム株式会社,,株式会社,大阪府,大阪市天王寺区,小橋町１３番１２号,,27,109,5430028,,,,,,,2023-07-24,1,,,,,アイテム,0
1337,5120001256649,新規,0,2023-07-24,2023-07-24,株式会社ＭＡＷ,,株式会社,大阪府,大阪市浪速区,桜川１丁目２番６号ＺｅｎＩＩ８０２号,00131258,27,111,5560022,,,,,,,2023-07-24,1,,,,,エムエイダブル,0
1338,5120001256698,新規,0,2023-07-24,2023-07-24,株式会社ＯＬＩ鶴,,株式会社,大阪府,大阪市福島区,福島６丁目４番１１号,,27,103,5530003,,,,,,,2023-07-24,1,,,,,オリヅル,0
1339,5120001256772,新規,0,2023-07-24,2023-07-24,Ｍギフト株式会社,,株式会社,大阪府,大阪市此花区,春日出南３丁目３－４１,,27,104,5540023,,,,,,,2023-07-24,1,,,,,エムギフト,0
1343,5120003024533,新規,0,2023-07-24,2023-07-24,合同会社ＴＲＹ　ＳＥＥＤ,,合同会社,大阪府,大阪市東淀川区,西淡路１丁目１５番１０－２０５号,,27,114,5330031,,,,,,,2023-07-24,1,,,,,トライシード,0
1348,5120903004741,新規,0,2023-07-24,2023-07-24,合同会社ｋｉｋｉｒａｒａ,,合同会社,大阪府,箕面市,瀬川４丁目１５番４５－３１２号,,27,220,5620045,,,,,,,2023-07-24,1,,,,,キキララ,0
1350,5122005003696,新規,0,2023-07-24,2023-07-24,一般社団法人シネマ＆プロモーション協会,,その他の設立登記法人,大阪府,東大阪市,岸田堂西２丁目８番２５号,,27,227,5770848,,,,,,,2023-07-24,1,,,,,シネマアンドプロモーションキョウカイ,0
1362,5140001130950,新規,0,2023-07-24,2023-07-24,Ｅ‐ＦＩＴ株式会社,,株式会社,兵庫県,神崎郡福崎町,高岡１４８５番地３,,28,443,6792217,,,,,,,2023-07-24,1,,,,,イーフィット,0
1372,5160001025208,新規,0,2023-07-24,2023-07-24,株式会社トリプルウィン,,株式会社,滋賀県,大津市,大江１丁目３８番６号,,25,201,5202141,,,,,,,2023-07-24,1,,,,,トリプルウィン,0
1374,5160002015067,新規,0,2023-07-24,2023-07-24,有限会社盛雲,,有限会社,滋賀県,草津市,上笠町３７８番地の１０,,25,206,5250000,,,,,,,2023-07-24,1,,,,,セイウン,0
1380,5180001157222,新規,0,2023-07-24,2023-07-24,株式会社パキラ・コンサルティング,,株式会社,愛知県,江南市,曽本町幼川添１４３番地,,23,217,4838123,,,,,,,2023-07-24,1,,,,,パキラコンサルティング,0
1381,5180001157239,新規,0,2023-07-24,2023-07-24,Ｅｑｕｉｎｏｘ株式会社,,株式会社,愛知県,丹羽郡大口町,河北２丁目４９１番地１,,23,361,4800121,,,,,,,2023-07-24,1,,,,,イクイノックス,0
1382,5180001157247,新規,0,2023-07-24,2023-07-24,株式会社ひなの杜,,株式会社,愛知県,名古屋市守山区,大字上志段味字前山１３９６番地（リースホーム上志段味Ｃ）,,23,113,4630001,,,,,,,2023-07-24,1,,,,,ヒナノモリ,0
1390,5180003025526,新規,0,2023-07-24,2023-07-24,合同会社ハルツゲグサ,,合同会社,愛知県,名古屋市中村区,名駅３丁目４－１０アルティメイト名駅１ｓｔ　２階,,23,105,4500002,,,,,,,2023-07-24,1,,,,,ハルツゲグサ,0
1395,5200001041514,新規,0,2023-07-24,2023-07-24,栄光株式会社,,株式会社,岐阜県,多治見市,根本町５丁目３７番１,,21,204,5070065,,,,,,,2023-07-24,1,,,,,エイコウ,0
1403,5220001025515,新規,0,2023-07-24,2023-07-24,株式会社ＡｇｅｎｔＳｔｏｃｋ,,株式会社,石川県,羽咋郡宝達志水町,紺屋町ホ３３番地,,17,386,9291314,,,,,,,2023-07-24,1,,,,,エージェントストック,0
1404,5230001019929,新規,0,2023-07-24,2023-07-24,株式会社京成商事,,株式会社,富山県,富山市,綾田町１丁目８番２３－０１号ＳＵＭＩＫＡ,,16,201,9300845,,,,,,,2023-07-24,1,,,,,キョウセイショウジ,0
1418,5240003006230,新規,0,2023-07-24,2023-07-24,ゆのちゃん合同会社,,合同会社,広島県,広島市南区,段原３丁目３－３１ソリッドＮ３０２号室,,34,103,7320811,,,,,,,2023-07-24,1,,,,,ユノチャン,0
1427,5280005007561,新規,0,2023-07-24,2023-07-24,医療法人蒼葉会,,その他の設立登記法人,島根県,益田市,かもしま西町２番地１２,,32,204,6980047,,,,,,,2023-07-24,1,,,,,アオバカイ,0
1439,5290801029725,新規,0,2023-07-24,2023-07-24,株式会社ｄａｉｎａ,,株式会社,福岡県,北九州市八幡西区,青山２丁目１１番１号（１Ｆ）,,40,109,8060043,,,,,,,2023-07-24,1,,,,,ダイナ,0
1443,5310001018501,新規,0,2023-07-24,2023-07-24,株式会社クリタカトータルコマース,,株式会社,長崎県,諫早市,森山町上井牟田８５５番地１,,42,204,8540209,,,,,,,2023-07-24,1,,,,,クリタカトータルコマース,0
1444,5310001018526,新規,0,2023-07-24,2023-07-24,ＳＰＡＭ株式会社,,株式会社,長崎県,佐世保市,島瀬町９番１７号,,42,202,8570806,,,,,,,2023-07-24,1,,,,,エスピーエーエム,0
1462,5360005006885,新規,0,2023-07-24,2023-07-24,一般社団法人響,,その他の設立登記法人,沖縄県,那覇市,おもろまち２丁目１１－３,,47,201,9000006,,,,,,,2023-07-24,1,,,,,ヒビキ,0
1472,5400005008349,新規,0,2023-07-24,2023-07-24,特定非営利活動法人多文化共生Ｉ　ｃａｎ,,その他の設立登記法人,岩手県,一関市,大町４番２９号,,03,209,0210881,,,,,,,2023-07-24,1,,,,,タブンカキョウセイアイキャン,0
1483,5430001089605,新規,0,2023-07-24,2023-07-24,株式会社たつざき不動産,,株式会社,北海道,札幌市手稲区,前田十条１１丁目３番２１号,,01,109,0060820,,,,,,,2023-07-24,1,,,,,タツザキフドウサン,0
1504,6010003041134,新規,0,2023-07-24,2023-07-24,合同会社ＦＩＲＳＴ　ＰＲＯＪＥＣＴ,,合同会社,東京都,文京区,本郷１丁目３３番１２号,,13,105,1130033,,,,,,,2023-07-24,1,,,,,ファーストプロジェクト,0
1511,6010401175789,新規,0,2023-07-24,2023-07-24,株式会社Ｐ＆ＳＭＩＬＥ,,株式会社,東京都,港区,芝浦４丁目１５番１－５１４号,,13,103,1080023,,,,,,,2023-07-24,1,,,,,ピーアンドスマイル,0
1514,6010601063488,新規,0,2023-07-24,2023-07-24,株式会社グローバルビュー,,株式会社,東京都,江東区,東砂７丁目１８番４－５０３号,,13,108,1360074,,,,,,,2023-07-24,1,,,,,グローバルビュー,0
1517,6010603010265,新規,0,2023-07-24,2023-07-24,合同会社かっぱ,,合同会社,東京都,江東区,亀戸５丁目１０番６号,,13,108,1360071,,,,,,,2023-07-24,1,,,,,カッパ,0
1521,6010803004612,新規,0,2023-07-24,2023-07-24,ＥＡＲＴＨ　ＡＮＧＥＬ合同会社,,合同会社,東京都,大田区,矢口３丁目２８－８－２０６,,13,111,1460093,,,,,,,2023-07-24,1,,,,,アースエンジェル,0
1525,6010901053478,新規,0,2023-07-24,2023-07-24,溢香株式会社,,株式会社,東京都,世田谷区,世田谷１丁目４番９号ウィンコーポ世田谷１０２号室,,13,112,1540017,,,,,,,2023-07-24,1,,,,,イーシャン,0
1532,6011001155867,新規,0,2023-07-24,2023-07-24,株式会社Ｇｒａｎｄｙｓｓｅｙ,,株式会社,東京都,渋谷区,神泉町１０番１５号,,13,113,1500045,,,,,,,2023-07-24,1,,,,,,0
1542,6011103013270,新規,0,2023-07-24,2023-07-24,合同会社ナカヤ,,合同会社,東京都,新宿区,西新宿３丁目３番１３号,,13,104,1600023,,,,,,,2023-07-24,1,,,,,ナカヤ,0
1544,6011401025307,新規,0,2023-07-24,2023-07-24,株式会社ＣＲＥＳｉＡＬ,,株式会社,東京都,板橋区,志村１丁目３０番３号,,13,119,1740056,,,,,,,2023-07-24,1,,,,,クレシアル,0
1549,6011603003993,新規,0,2023-07-24,2023-07-24,ｎｅｘｔ　ｃｏｍｍｕｎｉｔｉｅｓ合同会社,,合同会社,東京都,練馬区,上石神井３丁目７－７,,13,120,1770044,,,,,,,2023-07-24,1,,,,,ネクストコミュニティーズ,0
1551,6011701026450,新規,0,2023-07-24,2023-07-24,株式会社ＡＬＯＨＡ　ＩＬＩＯ,,株式会社,東京都,江戸川区,中央２丁目３６番１２号,,13,123,1320021,,,,,,,2023-07-24,1,,,,,アロハイリオ,0
1554,6012301013517,新規,0,2023-07-24,2023-07-24,株式会社ＴＷＥ,,株式会社,東京都,町田市,大蔵町３０８４番地２,,13,209,1950062,,,,,,,2023-07-24,1,,,,,ティーダブリューイー,0
1555,6012301013533,新規,0,2023-07-24,2023-07-24,Ｚａｎｉ株式会社,,株式会社,東京都,町田市,鶴間３丁目４－１，グランベリーパーク，セントラルコート３Ｆ，Ｌ３０２,,13,209,1940004,,,,,,,2023-07-24,1,,,,,ザニ,0
1557,6012401040766,新規,0,2023-07-24,2023-07-24,Ｘｒｏｓｓｐｏｉｎｔ株式会社,,株式会社,東京都,多摩市,永山１丁目１５番地の２９,,13,224,2060025,,,,,,,2023-07-24,1,,,,,クロスポイント,0
1559,6013301051044,新規,0,2023-07-24,2023-07-24,株式会社ビーエスパートナー,,株式会社,東京都,豊島区,目白５丁目１８番５号,,13,116,1710031,,,,,,,2023-07-24,1,,,,,ビーエスパートナー,0
1560,6013301051077,新規,0,2023-07-24,2023-07-24,株式会社Ｙｏｌｉ　Ｐａｒｔｎｅｒｓ,,株式会社,東京都,豊島区,池袋１丁目１番５号ムラタビル３０２号,,13,116,1700014,,,,,,,2023-07-24,1,,,,,ヨリパートナーズ,0
1561,6013301051102,新規,0,2023-07-24,2023-07-24,株式会社ＩＷＡＯ,,株式会社,東京都,豊島区,高田２丁目８番１６－７０１号,,13,116,1710033,,,,,,,2023-07-24,1,,,,,イワオ,0
1570,6020001152171,新規,0,2023-07-24,2023-07-24,株式会社Ｍａｙｂｅ　Ｂｌｕｅ,,株式会社,神奈川県,川崎市多摩区,登戸６４４番地,,14,135,2140014,,,,,,,2023-07-24,1,,,,,メイビーブルー,0
1571,6020001152584,新規,0,2023-07-24,2023-07-24,株式会社ＲＩＮＮＡ,,株式会社,神奈川県,川崎市宮前区,犬蔵２丁目１４番２６号,,14,136,2160011,,,,,,,2023-07-24,1,,,,,リンナ,0
1572,6020001152642,新規,0,2023-07-24,2023-07-24,パワードメカニクス株式会社,,株式会社,神奈川県,川崎市宮前区,鷺沼４丁目１０番地１２,,14,136,2160004,,,,,,,2023-07-24,1,,,,,パワードメカニクス,0
1573,6020005016059,新規,0,2023-07-24,2023-07-24,一般社団法人フットボールクラブ鷹,,その他の設立登記法人,神奈川県,川崎市川崎区,小田４丁目３７番５号レジデンスアサマＩＩ一階,00131257,14,131,2100846,,,,,,,2023-07-24,1,,,,,フットボールクラブタカ,0
1575,6021001079693,新規,0,2023-07-24,2023-07-24,株式会社家和,,株式会社,神奈川県,中郡大磯町,国府新宿５９０番地６,,14,341,2590112,,,,,,,2023-07-24,1,,,,,カワ,0
1576,6021003013337,新規,0,2023-07-24,2023-07-24,合同会社グッドヘルスケア,,合同会社,神奈川県,海老名市,今里３丁目７番２７号,,14,215,2430423,,,,,,,2023-07-24,1,,,,,グッドヘルスケア,0
1591,6040001129317,新規,0,2023-07-24,2023-07-24,株式会社中崎工業,,株式会社,千葉県,流山市,野々下３丁目７６２番地の１フォレストハイム２０６,,12,220,2700135,,,,,,,2023-07-24,1,,,,,ナカザキコウギョウ,0
1592,6040001129333,新規,0,2023-07-24,2023-07-24,ＨＲＴコンサルティング株式会社,,株式会社,千葉県,松戸市,常盤平２丁目６番地の２３,,12,207,2702261,,,,,,,2023-07-24,1,,,,,エイチイアールティーコンサルティング,0
1593,6040001129341,新規,0,2023-07-24,2023-07-24,株式会社ゼネラルリーヴ,,株式会社,千葉県,流山市,江戸川台東４丁目６３番地,,12,220,2700111,,,,,,,2023-07-24,1,,,,,ゼネラルリーヴ,0
1598,6050003007619,新規,0,2023-07-24,2023-07-24,合同会社Ｎｅｘｔ,,合同会社,茨城県,龍ケ崎市,松ケ丘３丁目１３－６５,,08,208,3010853,,,,,,,2023-07-24,1,,,,,ネクスト,0
1599,6050003007643,新規,0,2023-07-24,2023-07-24,ＫＩＪＩ　ＴＲＡＤＩＮＧ合同会社,,合同会社,茨城県,桜川市,真壁町古城３２１番地２（５）,,08,231,3004407,,,,,,,2023-07-24,1,,,,,キジトレーディング,0
1600,6060001036180,新規,0,2023-07-24,2023-07-24,株式会社ＧｉａｎｔＷａｖｅ,,株式会社,栃木県,宇都宮市,針ケ谷１丁目２７－４,,09,201,3210137,,,,,,,2023-07-24,1,,,,,ジャイアントウェイブ,0
1613,6100001036614,新規,0,2023-07-24,2023-07-24,元不動産株式会社,,株式会社,長野県,北安曇郡白馬村,大字北城２１２１－１,,20,485,3999301,,,,,,,2023-07-24,1,,,,,ゲンフドウサン,0
1616,6110001037710,新規,0,2023-07-24,2023-07-24,株式会社タカクワ,,株式会社,新潟県,燕市,田中新４６８番地４,,15,213,9590223,,,,,,,2023-07-24,1,,,,,タカクワ,0
1617,6110005016974,新規,0,2023-07-24,2023-07-24,労働者協同組合パンプアップせきかわ,,その他の設立登記法人,新潟県,岩船郡関川村,下土沢１８８４番地１,,15,581,9593200,,,,,,,2023-07-24,1,,,,,パンプアップセキカワ,0
1631,6120001256631,新規,0,2023-07-24,2023-07-24,株式会社ＣＥＡ,,株式会社,大阪府,大阪市中央区,博労町１丁目８番８号２０４号室,,27,128,5410059,,,,,,,2023-07-24,1,,,,,シーイーエー,0
1632,6120001256648,新規,0,2023-07-24,2023-07-24,株式会社ＮＥＣＨＡＩ,,株式会社,大阪府,大阪市港区,市岡１丁目１２番１３号花月荘１０２号,,27,107,5520012,,,,,,,2023-07-24,1,,,,,ネチャイ,0
1633,6120001256656,新規,0,2023-07-24,2023-07-24,はなふさ株式会社,,株式会社,大阪府,大阪市都島区,高倉町１丁目２番２７－２０７号,,27,102,5340011,,,,,,,2023-07-24,1,,,,,ハナフサ,0
1634,6120001256680,新規,0,2023-07-24,2023-07-24,株式会社阿倍野ニクラス不動産,,株式会社,大阪府,大阪市阿倍野区,昭和町２丁目１３－３０,,27,119,5450011,,,,,,,2023-07-24,1,,,,,アベノニクラスフドウサン,0
1635,6120001256722,新規,0,2023-07-24,2023-07-24,旭＿株式会社,00131261,株式会社,大阪府,大阪市西区,立売堀４丁目３番１６号５階,,27,106,5500012,,,,,,,2023-07-24,1,,,,,キョクエン,0
1636,6120001256739,新規,0,2023-07-24,2023-07-24,株式会社ＹＡＴＴＥＭＩＲＵ,,株式会社,大阪府,寝屋川市,菅相塚町１番３４号,,27,215,5720008,,,,,,,2023-07-24,1,,,,,ヤッテミル,0
1637,6120001256755,新規,0,2023-07-24,2023-07-24,株式会社美藤Ｂｉｔｏｕ,,株式会社,大阪府,枚方市,東香里南町５番２０号,,27,210,5730074,,,,,,,2023-07-24,1,,,,,ビトウ,0
1639,6120003024557,新規,0,2023-07-24,2023-07-24,ベイビーステップ合同会社,,合同会社,大阪府,大阪市城東区,関目４丁目２番２－６０６号,,27,118,5360008,,,,,,,2023-07-24,1,,,,,ベイビーステップ,0
1642,6120101067929,新規,0,2023-07-24,2023-07-24,株式会社Ｈｏｌｄｉｎｇｓ１９４４,,株式会社,大阪府,堺市美原区,木材通２丁目２番８７号,,27,147,5870042,,,,,,,2023-07-24,1,,,,,ホールディングスイチキュウヨンヨン,0
1644,6120901047832,新規,0,2023-07-24,2023-07-24,株式会社ＦＲＥＥＤＯＭ,,株式会社,大阪府,茨木市,島２丁目１１番１５号,,27,211,5670854,,,,,,,2023-07-24,1,,,,,フリーダム,0
1647,6122001037185,新規,0,2023-07-24,2023-07-24,株式会社Ａｓｓｅｔｓ　Ｂｏｘ,,株式会社,大阪府,八尾市,南亀井町２丁目１番６９号,,27,212,5810054,,,,,,,2023-07-24,1,,,,,アセッツボックス,0
1653,6130003008872,新規,0,2023-07-24,2023-07-24,合同会社あじげん,,合同会社,京都府,京都市下京区,七条通猪熊東入ル西八百屋町１６２－１,,26,106,6000000,,,,,,,2023-07-24,1,,,,,アジゲン,0
1654,6130005016840,新規,0,2023-07-24,2023-07-24,一般社団法人創和,,その他の設立登記法人,京都府,京都市上京区,宮垣町９１－１０２,,26,102,6020853,,,,,,,2023-07-24,1,,,,,ソウワ,0
1661,6140001130891,新規,0,2023-07-24,2023-07-24,ＤＥＬＩＧＨＴ株式会社,,株式会社,兵庫県,西宮市,若松町４番１７号,,28,204,6620035,,,,,,,2023-07-24,1,,,,,ディライト,0
1662,6140001130941,新規,0,2023-07-24,2023-07-24,株式会社ＩＴＡ,,株式会社,兵庫県,姫路市,飾磨区西浜町１丁目６番地１,,28,201,6728086,,,,,,,2023-07-24,1,,,,,アイティーエー,0
1664,6160001025207,新規,0,2023-07-24,2023-07-24,株式会社くぼ建築工房,,株式会社,滋賀県,大津市,雄琴５丁目１５番５号,,25,201,5200101,,,,,,,2023-07-24,1,,,,,クボケンチクコウボウ,0
1673,6180001157238,新規,0,2023-07-24,2023-07-24,株式会社Ｌｕｘｌｉｓｓ,,株式会社,愛知県,名古屋市西区,名駅２丁目２８番２２号,,23,104,4510045,,,,,,,2023-07-24,1,,,,,ラグリス,0
1674,6180001157254,新規,0,2023-07-24,2023-07-24,株式会社ＴＩＫ,,株式会社,愛知県,名古屋市熱田区,八番２丁目１６番１２号,,23,109,4560059,,,,,,,2023-07-24,1,,,,,ティック,0
1675,6180001157262,新規,0,2023-07-24,2023-07-24,ｂｅａｕｔｙｂｏｏｋ株式会社,,株式会社,愛知県,名古屋市中区,富士見町２－２８宗念寺ビル１０１,,23,106,4600014,,,,,,,2023-07-24,1,,,,,,0
1686,6200001041521,新規,0,2023-07-24,2023-07-24,ワイエム工業株式会社,,株式会社,岐阜県,揖斐郡大野町,大字瀬古小字瀬古４０８番地２,,21,403,5010563,,,,,,,2023-07-24,1,,,,,ワイエムコウギョウ,0
1691,6230001019928,新規,0,2023-07-24,2023-07-24,株式会社デリーズ,,株式会社,富山県,高岡市,広小路５番２２号,,16,202,9330057,,,,,,,2023-07-24,1,,,,,デリーズ,0
1705,6290001102380,新規,0,2023-07-24,2023-07-24,株式会社喜蓮,,株式会社,福岡県,福岡市東区,西戸崎５丁目２０番２８号,,40,131,8110321,,,,,,,2023-07-24,1,,,,,,0
1707,6290003014153,新規,0,2023-07-24,2023-07-24,合同会社ダイコン,,合同会社,福岡県,福岡市博多区,下川端町１０番１６－４０５号,,40,132,8120027,,,,,,,2023-07-24,1,,,,,ダイコン,0
1718,6310001018491,新規,0,2023-07-24,2023-07-24,クリタカホールディングス株式会社,,株式会社,長崎県,諫早市,森山町上井牟田８５５番地１,,42,204,8540209,,,,,,,2023-07-24,1,,,,,クリタカホールディングス,0
1719,6310001018525,新規,0,2023-07-24,2023-07-24,株式会社Ｎ‐ｃｕｂｅ,,株式会社,長崎県,長崎市,矢の平１丁目９番１９号,,42,201,8500811,,,,,,,2023-07-24,1,,,,,エヌキューブ,0
1740,6360003013148,新規,0,2023-07-24,2023-07-24,ＨＡＦ合同会社,,合同会社,沖縄県,那覇市,西３丁目８－３０－６０８,,47,201,9000036,,,,,,,2023-07-24,1,,,,,ハフ,0
1741,6370003006209,新規,0,2023-07-24,2023-07-24,合同会社アーネスト,,合同会社,宮城県,仙台市泉区,泉中央１丁目３５番地の３ネオハイツ泉中央３０３,,04,105,9813133,,,,,,,2023-07-24,1,,,,,アーネスト,0
1750,6380001033864,新規,0,2023-07-24,2023-07-24,株式会社楽園アメニティ,,株式会社,福島県,白河市,大信下小屋字大山６０番地,,07,205,9690303,,,,,,,2023-07-24,1,,,,,ラクエンアメニティ,0
1758,6410005006532,新規,0,2023-07-24,2023-07-24,ＮＰＯ法人ガンバってらよ田沢,,その他の設立登記法人,秋田県,仙北市,田沢湖田沢字大山７番地,,05,215,0141204,,,,,,,2023-07-24,1,,,,,ガンバッテラヨタザワ,0
1759,6420003002763,新規,0,2023-07-24,2023-07-24,合同会社ＭＥＧＵ,,合同会社,青森県,上北郡おいらせ町,向山東１丁目２８５５番地３,,02,412,0392152,,,,,,,2023-07-24,1,,,,,メグ,0
1769,6430003015244,新規,0,2023-07-24,2023-07-24,ＳＯＵコンサルティング合同会社,,合同会社,北海道,札幌市中央区,南二条西１０丁目１０００－２４ＴＡＫＥＴＯビル,,01,101,0600062,,,,,,,2023-07-24,1,,,,,ソウコンサルティング,0
1776,6700150118598,新規,0,2023-07-24,2023-07-24,ｓｈａｎｇｈａｉ　ｒｏｎｇｄｉｎｇ　ｘｉｎｘｉ　ｋｅｊｉ　ｇｏｎｇｚｕｏｓｈｉ,,外国会社等,,,,,,,,ｃｈａｎｇｘｉｎｇｚｈｅｎｐａｎｙｕａｎｇｏｎｇｌｕ１８００ｈａｏ（ｓｈａｎｇｈａｉｔａｉｈｅｊｉｎｇｊｉｆａｚｈａｎｑｕ）ｓｈａｎｇｈａｉｓｈｉ　ｃｈｏｎｇｍｉｎｇｑｕ　ｓｈａｎｇｈａｉｓｈｉ　ＣＮ,,,,,,2023-07-24,1,,,,,シャンハイロンディンシンシケジゴンズオシ,0
1789,7010001236973,新規,0,2023-07-24,2023-07-24,ＯＮＥ　ＰＬＵＳ　ＯＮＥ株式会社,,株式会社,東京都,中央区,京橋２丁目１番１号,,13,102,1040031,,,,,,,2023-07-24,1,,,,,ワンプラスワン,0
1790,7010001237113,新規,0,2023-07-24,2023-07-24,株式会社リンクステック,,株式会社,東京都,千代田区,神田佐久間町３丁目２８番地星野ビル５Ｆ,,13,101,1010025,,,,,,,2023-07-24,1,,,,,リンクステック,0
1801,7010401175838,新規,0,2023-07-24,2023-07-24,ノウブル・アセット・マネジメント株式会社,,株式会社,東京都,港区,六本木７丁目１９－９ＶＯＲＴ六本木５Ｆ,,13,103,1060032,,,,,,,2023-07-24,1,,,,,ノウブルアセットマネジメント,0
1806,7010403030537,新規,0,2023-07-24,2023-07-24,合同会社ＡＵＧコンサルティング,,合同会社,東京都,港区,浜松町２丁目２番１５号浜松町ダイヤビル２Ｆ,,13,103,1050013,,,,,,,2023-07-24,1,,,,,エーユージーコンサルティング,0
1824,7011001155809,新規,0,2023-07-24,2023-07-24,株式会社Ｃｏｐｅｌ,,株式会社,東京都,渋谷区,神宮前６丁目２３番４号桑野ビル２階,,13,113,1500001,,,,,,,2023-07-24,1,,,,,コペル,0
1827,7011003017222,新規,0,2023-07-24,2023-07-24,合同会社ＥＦＪ　ＴＲＡＤＩＮＧ,,合同会社,東京都,渋谷区,本町２丁目２６－２－１０１号,,13,113,1510071,,,,,,,2023-07-24,1,,,,,イーエフジェートレーディング,0
1832,7011101103618,新規,0,2023-07-24,2023-07-24,ＪＭ株式会社,,株式会社,東京都,新宿区,榎町３４－３榎町ビル５階－６室,,13,104,1620806,,,,,,,2023-07-24,1,,,,,ジェイエム,0
1833,7011101103659,新規,0,2023-07-24,2023-07-24,株式会社ＣｏｍｉＪｏｙ,,株式会社,東京都,新宿区,西新宿３丁目７－１新宿パークタワーＮ３０Ｆ,,13,104,1600023,,,,,,,2023-07-24,1,,,,,コミジョイ,0
1847,7012301013532,新規,0,2023-07-24,2023-07-24,株式会社ＡＧＯＲＡ,,株式会社,東京都,町田市,原町田６丁目９番８号ＡＥＴＡ町田４Ｆ,,13,209,1940013,,,,,,,2023-07-24,1,,,,,アゴラ,0
1855,7013305003494,新規,0,2023-07-24,2023-07-24,日本労働者協同組合連合会,,その他の設立登記法人,東京都,豊島区,東池袋１丁目４４－３池袋ＩＳＰタマビル,,13,116,1700013,,,,,,,2023-07-24,1,,,,,ニホン,0
1864,7020001152567,新規,0,2023-07-24,2023-07-24,株式会社Ｃｌｉｍｂｉｎｇ　ｇｙｍ　ＰＵＭＰ,,株式会社,神奈川県,川崎市多摩区,中野島２丁目９番３０号,,14,135,2140012,,,,,,,2023-07-24,1,,,,,クライミングジムパンプ,0
1867,7020003024236,新規,0,2023-07-24,2023-07-24,合同会社ＡＫ７,,合同会社,神奈川県,横浜市青葉区,しらとり台５６番地６－３１１号,,14,117,2270054,,,,,,,2023-07-24,1,,,,,エイケイセブン,0
1869,7021001079544,新規,0,2023-07-24,2023-07-24,株式会社Ｌｉｎｃ‐Ｈ,,株式会社,神奈川県,茅ヶ崎市,共恵２丁目４番５－２号,,14,207,2530056,,,,,,,2023-07-24,1,,,,,リンクエイチ,0
1870,7021001079684,新規,0,2023-07-24,2023-07-24,株式会社ネクサス,,株式会社,神奈川県,足柄下郡箱根町,仙石原３０４番地１,,14,382,2500631,,,,,,,2023-07-24,1,,,,,ネクサス,0
1874,7030001154703,新規,0,2023-07-24,2023-07-24,亜歌株式会社,,株式会社,埼玉県,朝霞市,三原１丁目７－１０スカイピア朝霞台１０１号,,11,227,3510025,,,,,,,2023-07-24,1,,,,,アカ,0
1881,7040001129308,新規,0,2023-07-24,2023-07-24,株式会社Ｓｍａｒｔ　Ｌｉｎｋ,,株式会社,千葉県,鎌ケ谷市,東鎌ケ谷１丁目１－３５,,12,224,2730104,,,,,,,2023-07-24,1,,,,,スマートリンク,0
1882,7040001129349,新規,0,2023-07-24,2023-07-24,株式会社花武,,株式会社,千葉県,柏市,増尾台１丁目１２番４９号,,12,217,2770052,,,,,,,2023-07-24,1,,,,,ハナタケ,0
1891,7050001053192,新規,0,2023-07-24,2023-07-24,リバーシ株式会社,,株式会社,茨城県,ひたちなか市,大字東石川３０１９番地１ＭＫ－Ｂ棟１０５号,,08,221,3120052,,,,,,,2023-07-24,1,,,,,リバーシ,0
1892,7050003007642,新規,0,2023-07-24,2023-07-24,ＮＡＲＵ　ＴＲＡＤＩＮＧ合同会社,,合同会社,茨城県,結城市,大字東茂呂１３３６番地１－（２）,,08,207,3070037,,,,,,,2023-07-24,1,,,,,ナルトレーディング,0
1894,7060001036171,新規,0,2023-07-24,2023-07-24,金属資源開発株式会社,,株式会社,栃木県,小山市,城山町２丁目９番２３号アトラスタワー小山城山町１５０２号室,,09,208,3230025,,,,,,,2023-07-24,1,,,,,キンゾクシゲンカイハツ,0
1899,7100001036613,新規,0,2023-07-24,2023-07-24,株式会社ＡＲモータース,,株式会社,長野県,北佐久郡御代田町,大字馬瀬口１６２５番地８,,20,323,3890207,,,,,,,2023-07-24,1,,,,,エーアールモータース,0
1914,7120001256572,新規,0,2023-07-24,2023-07-24,ルークス・パートナーズ株式会社,,株式会社,大阪府,大阪市淀川区,西中島４丁目２－２１ミツフ新御堂筋ビル６０５,,27,123,5320011,,,,,,,2023-07-24,1,,,,,ルークスパートナーズ,0
1915,7120001256597,新規,0,2023-07-24,2023-07-24,株式会社ブルージール,,株式会社,大阪府,大阪市北区,中之島２丁目３番３３号大阪三井物産ビル１３階,,27,127,5300005,,,,,,,2023-07-24,1,,,,,ブルージール,0
1916,7120001256639,新規,0,2023-07-24,2023-07-24,株式会社ブライフ,,株式会社,大阪府,大阪市西区,南堀江４丁目３０番２８－４０８号,,27,106,5500015,,,,,,,2023-07-24,1,,,,,ブライフ,0
1917,7120001256671,新規,0,2023-07-24,2023-07-24,株式会社アベイル,,株式会社,大阪府,大阪市港区,市岡元町２丁目２番２３号,,27,107,5520002,,,,,,,2023-07-24,1,,,,,アベイル,0
1918,7120001256688,新規,0,2023-07-24,2023-07-24,共治株式会社,,株式会社,大阪府,大阪市阿倍野区,阪南町３丁目３６番１－４０７号,,27,119,5450021,,,,,,,2023-07-24,1,,,,,キョウジ,0
1919,7120001256696,新規,0,2023-07-24,2023-07-24,株式会社焼肉侘び寂び,,株式会社,大阪府,大阪市中央区,難波１丁目１番５号,,27,128,5420076,,,,,,,2023-07-24,1,,,,,ヤキニクワビサビ,0
1920,7120001256705,新規,0,2023-07-24,2023-07-24,株式会社ＨＲＫ　ＪＡＰＡＮ,,株式会社,大阪府,大阪市中央区,日本橋１丁目２５番２３号４０８号室,,27,128,5420073,,,,,,,2023-07-24,1,,,,,エイチアールケージャパン,0
1921,7120001256770,新規,0,2023-07-24,2023-07-24,創新紀株式会社,,株式会社,大阪府,大阪市中央区,久太郎町１丁目９－１０プレサンス東本町ＶＯＬ．２、５０２号室,,27,128,5410056,,,,,,,2023-07-24,1,,,,,ソウシンキ,0
1924,7120003024531,新規,0,2023-07-24,2023-07-24,柚子星合同会社,,合同会社,大阪府,大阪市都島区,都島本通３丁目２４番６号西田ビル２０３号室,,27,102,5340021,,,,,,,2023-07-24,1,,,,,ユズホシ,0
1925,7120003024556,新規,0,2023-07-24,2023-07-24,Ｒ＆Ｒ合同会社,,合同会社,大阪府,大阪市北区,中津６丁目８番３３号第一三井ビル５０４号室,,27,127,5310071,,,,,,,2023-07-24,1,,,,,アールアンドアール,0
1926,7120005023738,新規,0,2023-07-24,2023-07-24,弁護士法人榊綜合法律事務所,,その他の設立登記法人,大阪府,大阪市中央区,千日前２丁目５番２号日本一歯科センタービル３Ｆ,,27,128,5420074,,,,,,,2023-07-24,1,,,,,サカキソウゴウホウリツジムショ,0
1931,7130003008855,新規,0,2023-07-24,2023-07-24,合同会社３Ｄｓｕｒｖｅｙ,,合同会社,京都府,綾部市,青野町西ノ後２０番地の５,,26,203,6230011,,,,,,,2023-07-24,1,,,,,スリーディーサーベイ,0
1940,7140001130924,新規,0,2023-07-24,2023-07-24,株式会社ＳＭＤ,,株式会社,兵庫県,尼崎市,塚口本町３丁目１６番１４号,,28,202,6610001,,,,,,,2023-07-24,1,,,,,エスエムディー,0
1941,7140001130940,新規,0,2023-07-24,2023-07-24,株式会社アルク,,株式会社,兵庫県,加古川市,平岡町高畑２２４番地の７,,28,210,6750103,,,,,,,2023-07-24,1,,,,,アルク,0
1942,7140001130965,新規,0,2023-07-24,2023-07-24,株式会社ひまわり,,株式会社,兵庫県,神戸市西区,竜が岡２丁目２４番地の１１,,28,111,6512412,,,,,,,2023-07-24,1,,,,,ヒマワリ,0
1948,7160003002938,新規,0,2023-07-24,2023-07-24,合同会社ＴＮＳ,,合同会社,滋賀県,守山市,立田町１７４６番地,,25,207,5240214,,,,,,,2023-07-24,1,,,,,ティーエヌエス,0
1951,7180001157245,新規,0,2023-07-24,2023-07-24,株式会社シムル,,株式会社,愛知県,名古屋市名東区,社台１丁目２４２番地,,23,115,4650092,,,,,,,2023-07-24,1,,,,,シムル,0
1962,7190001030599,新規,0,2023-07-24,2023-07-24,Ａ　ＰＬＵＳ　Ｔｒａｄｉｎｇ株式会社,,株式会社,三重県,三重郡菰野町,大字潤田１０８５番地１,,24,341,5101253,,,,,,,2023-07-24,1,,,,,エイプラストレイディング,0
1964,7200003006026,新規,0,2023-07-24,2023-07-24,合同会社小栗塗料店,,合同会社,岐阜県,美濃加茂市,下米田町西脇１２３番地６,,21,211,5050018,,,,,,,2023-07-24,1,,,,,オグリトリョウテン,0
1965,7230003002055,新規,0,2023-07-24,2023-07-24,ＪＲ　ＴＲＡＤＩＮＧ合同会社,,合同会社,富山県,富山市,岩瀬天神町１３６,,16,201,9318378,,,,,,,2023-07-24,1,,,,,ジェイアールトレーディング,0
1968,7240001061829,新規,0,2023-07-24,2023-07-24,株式会社ＯＳ,,株式会社,広島県,福山市,東深津町６丁目３番５８－４号,,34,207,7210974,,,,,,,2023-07-24,1,,,,,オウエス,0
1975,7290001102371,新規,0,2023-07-24,2023-07-24,株式会社ａｉｒ　ｈｏｕｓｅ,,株式会社,福岡県,福岡市早良区,有田５丁目９番２９－１０１号ピノコーダ・カーサＳ棟,,40,137,8140033,,,,,,,2023-07-24,1,,,,,エアハウス,0
1999,7360005006883,新規,0,2023-07-24,2023-07-24,一般社団法人教育カウンセリング実践センター,,その他の設立登記法人,沖縄県,宜野湾市,宜野湾１丁目１９番２７号,,47,205,9012211,,,,,,,2023-07-24,1,,,,,キョウイクカウンセリングジッセンセンター,0
2009,7400005008347,新規,0,2023-07-24,2023-07-24,一般社団法人いちのせきニューツーリズム,,その他の設立登記法人,岩手県,一関市,花泉町涌津字一ノ町２９番地,,03,209,0293105,,,,,,,2023-07-24,1,,,,,イチノセキニューツーリズム,0
2011,7410005006531,新規,0,2023-07-24,2023-07-24,企業組合ｂｅｙｏｎｄ　ｔｈａｔ　ｈｉｌｌ,,その他の設立登記法人,秋田県,南秋田郡八郎潟町,夜叉袋字一本木８６番地１,,05,363,0181606,,,,,,,2023-07-24,1,,,,,ビヨンドザッツヒル,0
2037,8010001237062,新規,0,2023-07-24,2023-07-24,株式会社ビズスタジオ,,株式会社,東京都,千代田区,麹町４丁目５－２０ＫＳビル８階,,13,101,1020083,,,,,,,2023-07-24,1,,,,,ビズスタジオ,0
2038,8010001237112,新規,0,2023-07-24,2023-07-24,株式会社楽楽,,株式会社,東京都,千代田区,神田三崎町３丁目３番３号太陽ビル４０４,,13,101,1010061,,,,,,,2023-07-24,1,,,,,ラクラク,0
2039,8010001237161,新規,0,2023-07-24,2023-07-24,株式会社ＧＩＧＡＢＡＮＫ,,株式会社,東京都,千代田区,大手町１丁目９番２号大手町フィナンシャルシティグランキューブ,,13,101,1000004,,,,,,,2023-07-24,1,,,,,ギガバンク,0
2040,8010003041149,新規,0,2023-07-24,2023-07-24,合同会社Ｒａｄｙ,,合同会社,東京都,中央区,銀座１丁目１２－４Ｎ＆ＥＢＬＤ．７階,,13,102,1040061,,,,,,,2023-07-24,1,,,,,レディ,0
2046,8010401175837,新規,0,2023-07-24,2023-07-24,ＡＸＩ株式会社,,株式会社,東京都,港区,六本木７丁目１９－９ＶＯＲＴ六本木５Ｆ,,13,103,1060032,,,,,,,2023-07-24,1,,,,,エーエックスアイ,0
2047,8010401175845,新規,0,2023-07-24,2023-07-24,株式会社ＡＩ　Ｉｍｐｕｌｓｅ,,株式会社,東京都,港区,南青山２丁目２番１５号,,13,103,1070062,,,,,,,2023-07-24,1,,,,,エーアイインパルス,0
2060,8010703006789,新規,0,2023-07-24,2023-07-24,合同会社プロメトリ,,合同会社,東京都,品川区,東五反田２丁目９番７―８０１号,,13,109,1410022,,,,,,,2023-07-24,1,,,,,プロメトリ,0
2061,8010801034188,新規,0,2023-07-24,2023-07-24,全日本通信サービス株式会社,,株式会社,東京都,大田区,池上７丁目２－７,,13,111,1460082,,,,,,,2023-07-24,1,,,,,ゼンニホンツウシンサービス,0
2075,8010903008338,新規,0,2023-07-24,2023-07-24,蒼龍合同会社,,合同会社,東京都,世田谷区,太子堂３丁目３７番１－Ｂ５０２号,,13,112,1540004,,,,,,,2023-07-24,1,,,,,ソウリュウ,0
2081,8011001155824,新規,0,2023-07-24,2023-07-24,株式会社Ｆｌｏｏｏｗ,,株式会社,東京都,渋谷区,上原１丁目４５番４号ゼフィーロ代々木公園１０２,,13,113,1510064,,,,,,,2023-07-24,1,,,,,フロウ,0
2082,8011001155832,新規,0,2023-07-24,2023-07-24,株式会社Ｍｉｇｈｔｙ　Ｌｅａｄ,,株式会社,東京都,渋谷区,道玄坂１丁目１０番８号渋谷道玄坂東急ビル２Ｆ－Ｃ,,13,113,1500043,,,,,,,2023-07-24,1,,,,,マイティーリード,0
2083,8011001155849,新規,0,2023-07-24,2023-07-24,株式会社Ａｋｅｍ,,株式会社,東京都,渋谷区,西原１丁目４３番３号,,13,113,1510066,,,,,,,2023-07-24,1,,,,,アケム,0
2084,8011003017221,新規,0,2023-07-24,2023-07-24,Ｈａｒａｊｕｋｕ合同会社,,合同会社,東京都,渋谷区,神宮前３丁目１８番３０号神宮前ＫＨＰビル１階,,13,113,1500001,,,,,,,2023-07-24,1,,,,,ハラジュク,0
2090,8011103013269,新規,0,2023-07-24,2023-07-24,アウトサイド合同会社,,合同会社,東京都,新宿区,西早稲田１丁目１７－５－２Ｆ,,13,104,1690051,,,,,,,2023-07-24,1,,,,,アウトサイド,0
2091,8011103013277,新規,0,2023-07-24,2023-07-24,ＰＭＲＳ合同会社,,合同会社,東京都,新宿区,新宿２丁目１２番１３号アントレサロンビル２階,,13,104,1600022,,,,,,,2023-07-24,1,,,,,ピーエムアールエス,0
2092,8011103013285,新規,0,2023-07-24,2023-07-24,合同会社ジェイ・イー・エヌ,,合同会社,東京都,新宿区,下宮比町１番４号,,13,104,1620822,,,,,,,2023-07-24,1,,,,,ジェイイーエヌ,0
2095,8011201024795,新規,0,2023-07-24,2023-07-24,ＧｕｉｄｅＰａｌ株式会社,,株式会社,東京都,中野区,上鷺宮３丁目６番２２号,,13,114,1650031,,,,,,,2023-07-24,1,,,,,ガイドパル,0
2107,8020001152558,新規,0,2023-07-24,2023-07-24,株式会社ＣＲＵＩＳＩＮＧ　ＳＴＹＬＥ,,株式会社,神奈川県,横浜市中区,仲尾台４３－７,,14,104,2310839,,,,,,,2023-07-24,1,,,,,クルージングスタイル,0
2108,8020001152574,新規,0,2023-07-24,2023-07-24,株式会社ＳＤＴホールディングス,,株式会社,神奈川県,横浜市西区,高島２丁目１１番２号スカイメナー横浜５１９,,14,103,2200011,,,,,,,2023-07-24,1,,,,,エスディーティホールディングス,0
2109,8020003024235,新規,0,2023-07-24,2023-07-24,ＴＯＹ合同会社,,合同会社,神奈川県,川崎市幸区,塚越２丁目１５５サンパティーク１Ｆ,,14,132,2120024,,,,,,,2023-07-24,1,,,,,トイ,0
2110,8020005016065,新規,0,2023-07-24,2023-07-24,レジデンス・ザ・武蔵小杉管理組合法人,,その他の設立登記法人,神奈川県,川崎市中原区,新丸子東３丁目１１１１番地１,,14,133,2110004,,,,,,,2023-07-24,1,,,,,レジデンスザムサシコスギ,0
2115,8021001079675,新規,0,2023-07-24,2023-07-24,株式会社ライズアート,,株式会社,神奈川県,相模原市中央区,南橋本２丁目５番１０号,,14,152,2520253,,,,,,,2023-07-24,1,,,,,ライズアート,0
2116,8021001079683,新規,0,2023-07-24,2023-07-24,株式会社ｇａｉｎ　ｐｅｒｉｏｄ,,株式会社,神奈川県,小田原市,小船９３番地の３,,14,206,2560806,,,,,,,2023-07-24,1,,,,,ゲインピリオド,0
2127,8030003022089,新規,0,2023-07-24,2023-07-24,合同会社Ｆｕｔｕｒｅ　Ｌａｎｄ,,合同会社,埼玉県,川越市,大字小仙波三丁目２１番６,,11,201,3500031,,,,,,,2023-07-24,1,,,,,フューチャーランド,0
2135,8040003022922,新規,0,2023-07-24,2023-07-24,合同会社Ｎ．Ｎ．,,合同会社,千葉県,船橋市,夏見台５丁目１６－３４,,12,204,2730866,,,,,,,2023-07-24,1,,,,,エヌエヌ,0
2136,8040003022939,新規,0,2023-07-24,2023-07-24,ＢＵＴＴ　ＴＲＡＤＩＮＧ合同会社,,合同会社,千葉県,我孫子市,中峠３０６６番地１６,,12,222,2701121,,,,,,,2023-07-24,1,,,,,バットトレーディング,0
2142,8050003007641,新規,0,2023-07-24,2023-07-24,ＰＲＯ　ＭＯＴＯＲＳ合同会社,,合同会社,茨城県,猿島郡境町,大字内門１１１５番地１２－Ｂ棟,,08,546,3060414,,,,,,,2023-07-24,1,,,,,プロモーターズ,0
2145,8070005010146,新規,0,2023-07-24,2023-07-24,医療法人しおざわ整形外科クリニック,,その他の設立登記法人,群馬県,前橋市,上細井町２０４４番地１,,10,201,3710051,,,,,,,2023-07-24,1,,,,,シオザワセイケイゲカクリニック,0
2151,8100001036612,新規,0,2023-07-24,2023-07-24,株式会社ジェイワン,,株式会社,長野県,上田市,常田３丁目５番３６号,,20,203,3860018,,,,,,,2023-07-24,1,,,,,ジェイワン,0
2167,8120001256555,新規,0,2023-07-24,2023-07-24,株式会社Ｅｄｇｅ　Ｌｅａｄ,,株式会社,大阪府,大阪市北区,中崎１丁目６番３号,,27,127,5300016,,,,,,,2023-07-24,1,,,,,エッジリード,0
2168,8120001256654,新規,0,2023-07-24,2023-07-24,株式会社徳成物産,,株式会社,大阪府,大阪市生野区,桃谷２丁目１番３１号,,27,116,5440034,,,,,,,2023-07-24,1,,,,,トクナリブッサン,0
2169,8120001256662,新規,0,2023-07-24,2023-07-24,株式会社Ｋ２Ｃ,,株式会社,大阪府,大阪市旭区,赤川２丁目２番４－６０５号,,27,117,5350005,,,,,,,2023-07-24,1,,,,,ケーツーシー,0
2170,8120001256729,新規,0,2023-07-24,2023-07-24,株式会社夢家ホールディングス,,株式会社,大阪府,門真市,中町３番７号,,27,223,5710055,,,,,,,2023-07-24,1,,,,,ユメヤホールディングス,0
2171,8120001256753,新規,0,2023-07-24,2023-07-24,ｉＣａｐｉｔａｌ株式会社,,株式会社,大阪府,大阪市住吉区,万代東１丁目６番１６号,,27,120,5580056,,,,,,,2023-07-24,1,,,,,アイキャピタル,0
2175,8120003024530,新規,0,2023-07-24,2023-07-24,テンスピン・マネジメント・コンサルタンツ合同会社,,合同会社,大阪府,大阪市北区,角田町８番４７号阪急グランドビル２０Ｆ,,27,127,5300017,,,,,,,2023-07-24,1,,,,,テンスピンマネジメントコンサルタンツ,0
2176,8120003024539,新規,0,2023-07-24,2023-07-24,合同会社ＢＥＣＯＭＩＮＧ,,合同会社,大阪府,大阪市北区,天満２丁目７番２１号マジェスティ天満橋３０４号室,,27,127,5300043,,,,,,,2023-07-24,1,,,,,ビカミング,0
2177,8120005023753,新規,0,2023-07-24,2023-07-24,一般社団法人経営管理者検定協会,,その他の設立登記法人,大阪府,大阪市中央区,久太郎町３丁目６番８号,,27,128,5410056,,,,,,,2023-07-24,1,,,,,ケイエイカンリシャケンテイキョウカイ,0
2181,8120101067910,新規,0,2023-07-24,2023-07-24,株式会社ＫＳＭ,,株式会社,大阪府,泉大津市,旭町１８番１－５０３号,,27,206,5950025,,,,,,,2023-07-24,1,,,,,ケイエスエム,0
2182,8120101067927,新規,0,2023-07-24,2023-07-24,株式会社ＩＳＳＡ,,株式会社,大阪府,堺市北区,百舌鳥赤畑町４丁２２６番地２なかコーポ２０２号,,27,146,5918037,,,,,,,2023-07-24,1,,,,,イッサ,0
2197,8130001074766,新規,0,2023-07-24,2023-07-24,株式会社西山建工,,株式会社,京都府,京都市伏見区,深草東伊達町１８番地７,,26,109,6120874,,,,,,,2023-07-24,1,,,,,ニシヤマケンコウ,0
2198,8130001074782,新規,0,2023-07-24,2023-07-24,ジョイブ株式会社,,株式会社,京都府,京都市左京区,岩倉花園町２１３番地９,,26,103,6060024,,,,,,,2023-07-24,1,,,,,ジョイブ,0
2202,8130005016839,新規,0,2023-07-24,2023-07-24,一般社団法人日本プロパティ,,その他の設立登記法人,京都府,京都市中京区,御池通高倉西入ル高宮町２１９番地サニーフォレストビル４階,,26,104,6040000,,,,,,,2023-07-24,1,,,,,ニホンプロパティ,0
2212,8140003019330,新規,0,2023-07-24,2023-07-24,合同会社テンエイト,,合同会社,兵庫県,西宮市,苦楽園二番町１０番８号,,28,204,6620082,,,,,,,2023-07-24,1,,,,,テンエイト,0
2213,8160003002937,新規,0,2023-07-24,2023-07-24,合同会社カーキ,,合同会社,滋賀県,大津市,南郷２丁目３２番１１号,,25,201,5200865,,,,,,,2023-07-24,1,,,,,カーキ,0
2222,8180001157236,新規,0,2023-07-24,2023-07-24,株式会社宮宇浄心,,株式会社,愛知県,名古屋市西区,浄心１丁目１番４５号,,23,104,4510061,,,,,,,2023-07-24,1,,,,,ミヤウジョウシン,0
2223,8180001157252,新規,0,2023-07-24,2023-07-24,株式会社エンライン,,株式会社,愛知県,名古屋市東区,徳川１丁目８番３９号,,23,102,4610025,,,,,,,2023-07-24,1,,,,,エンライン,0
2233,8190005011850,新規,0,2023-07-24,2023-07-24,一般社団法人ワイジーライフ,,その他の設立登記法人,三重県,桑名市,藤が丘５丁目７０６番地,,24,205,5110865,,,,,,,2023-07-24,1,,,,,ワイジーライフ,0
2242,8210001019399,新規,0,2023-07-24,2023-07-24,株式会社デイリーエッグツチダ南越前農場,,株式会社,福井県,南条郡南越前町,湯尾第２３０号５番地の１,,18,404,9190101,,,,,,,2023-07-24,1,,,,,デイリーエッグツチダミナミエチゼンノウジョウ,0
2244,8220001025512,新規,0,2023-07-24,2023-07-24,株式会社ＢＩＧＧＡＴＥ,,株式会社,石川県,金沢市,八日市５丁目５４６番地にしき堂ビル２Ｆ‐３,,17,201,9218064,,,,,,,2023-07-24,1,,,,,ビッグゲート,0
2249,8230001019926,新規,0,2023-07-24,2023-07-24,株式会社Ｎ．ＳＴＯＲＹ,,株式会社,富山県,高岡市,吉久３丁目３番３号,,16,202,9330002,,,,,,,2023-07-24,1,,,,,エヌストーリー,0
2250,8230005009320,新規,0,2023-07-24,2023-07-24,土地家屋調査士法人パズル・アンド・クリア,,その他の設立登記法人,富山県,富山市,蓮町１丁目７番３ＳＣＯＰＴＯＹＡＭＡセンター棟４０４号,,16,201,9318333,,,,,,,2023-07-24,1,,,,,パズルアンドクリア,0
2255,8250001020188,新規,0,2023-07-24,2023-07-24,香川工業株式会社,,株式会社,山口県,下関市,長府才川１丁目２３番２８号,,35,201,7520928,,,,,,,2023-07-24,1,,,,,カガワコウギョウ,0
2268,8290001102370,新規,0,2023-07-24,2023-07-24,ＪＰＲＥ株式会社,,株式会社,福岡県,福岡市博多区,博多駅前１丁目２３番２号ＰａｒｋＦｒｏｎｔ博多駅前一丁目５Ｆ－Ｂ,,40,132,8120011,,,,,,,2023-07-24,1,,,,,ジェーピーアールイー,0
2270,8290003014151,新規,0,2023-07-24,2023-07-24,ＴＨＡＮＨ　ＴＵＮＧ合同会社,,合同会社,福岡県,福岡市南区,大楠１丁目６－１南博多パールシャトー５１２号,,40,134,8150082,,,,,,,2023-07-24,1,,,,,タイントウン,0
2274,8290803004467,新規,0,2023-07-24,2023-07-24,ＪＳＩ合同会社,,合同会社,福岡県,北九州市小倉北区,京町３丁目７番１号ガーデンシティ小倉３０１号,,40,106,8020002,,,,,,,2023-07-24,1,,,,,ジェイエスアイ,0
2276,8310001018523,新規,0,2023-07-24,2023-07-24,江南産業株式会社,,株式会社,長崎県,西海市,西海町中浦北郷２６７７番地５Ｂ棟,,42,212,8572222,,,,,,,2023-07-24,1,,,,,コウナンサンギョウ,0
2281,8330001031053,新規,0,2023-07-24,2023-07-24,クレドール株式会社,,株式会社,熊本県,熊本市中央区,桜町３－３０ザ・熊本ガーデンズ１４０７号,,43,101,8600805,,,,,,,2023-07-24,1,,,,,クレドール,0
2283,8330003009907,新規,0,2023-07-24,2023-07-24,合同会社エレガンハート,,合同会社,熊本県,玉名市,岩崎９４４番地１,,43,206,8650016,,,,,,,2023-07-24,1,,,,,エレガンハート,0
2288,8360001032271,新規,0,2023-07-24,2023-07-24,株式会社美ら島,,株式会社,沖縄県,宮古島市,平良字西里３０３番地,,47,214,9060012,,,,,,,2023-07-24,1,,,,,チュラシマ,0
2289,8360001032313,新規,0,2023-07-24,2023-07-24,株式会社ＲＥＶＯＬＵＴＩＯＮ琉球,,株式会社,沖縄県,豊見城市,字豊崎１番地４１５豊崎レインボービル３階,,47,212,9010225,,,,,,,2023-07-24,1,,,,,レボリューションリュウキュウ,0
2293,8360003013105,新規,0,2023-07-24,2023-07-24,エムエス合同会社,,合同会社,沖縄県,宮古島市,平良字荷川取１３６３番地,,47,214,9060008,,,,,,,2023-07-24,1,,,,,エムエス,0
2294,8360005006882,新規,0,2023-07-24,2023-07-24,一般社団法人レアーズ,,その他の設立登記法人,沖縄県,中頭郡読谷村,字大木３７５番地２階,,47,324,9040316,,,,,,,2023-07-24,1,,,,,レアーズ,0
2315,8430003015242,新規,0,2023-07-24,2023-07-24,ｍａｌｅｔｔ合同会社,,合同会社,北海道,札幌市白石区,本郷通９丁目北１－８－４０６,,01,104,0030025,,,,,,,2023-07-24,1,,,,,マレット,0
2323,8500003003066,新規,0,2023-07-24,2023-07-24,合同会社ＳＡＧＡＳ,,合同会社,愛媛県,今治市,菊間町浜８５１,,38,202,7992303,,,,,,,2023-07-24,1,,,,,,0
2327,9010001237004,新規,0,2023-07-24,2023-07-24,株式会社デンホミ,,株式会社,東京都,中央区,勝どき５丁目３番１号勝どきザ・タワー４９１１,,13,102,1040054,,,,,,,2023-07-24,1,,,,,デンホミ,0
2328,9010001237053,新規,0,2023-07-24,2023-07-24,宮澤産業株式会社,,株式会社,東京都,中央区,銀座８丁目１７番５号,,13,102,1040061,,,,,,,2023-07-24,1,,,,,ミヤザワサンギョウ,0
2329,9010001237078,新規,0,2023-07-24,2023-07-24,ＭＯＮ　ＡＩＲ　ＪＡＰＡＮ株式会社,,株式会社,東京都,千代田区,大手町１丁目５番１号ファーストスクエアイーストタワー４Ｆ,,13,101,1000004,,,,,,,2023-07-24,1,,,,,モンエアジャパン,0
2330,9010001237103,新規,0,2023-07-24,2023-07-24,第一出版ホールディングス株式会社,,株式会社,東京都,千代田区,神田神保町１丁目３９番地,,13,101,1010051,,,,,,,2023-07-24,1,,,,,ダイイチシュッパンホールディングス,0
2354,9010601063469,新規,0,2023-07-24,2023-07-24,株式会社ＢＯＷＥＮ,,株式会社,東京都,江東区,大島３丁目２６番２－５０２号,,13,108,1360072,,,,,,,2023-07-24,1,,,,,ボーウェン,0
2359,9010603010262,新規,0,2023-07-24,2023-07-24,合同会社Ｍｏｎ．ＣＯＮＳＵＬＴＩＮＧ,,合同会社,東京都,江東区,豊洲５丁目１番１３－３５２２号,,13,108,1350061,,,,,,,2023-07-24,1,,,,,モンコンサルティング,0
2363,9010703006788,新規,0,2023-07-24,2023-07-24,合同会社ＩＰマネジメント,,合同会社,東京都,品川区,東大井５丁目９番１０－１００１号,,13,109,1400011,,,,,,,2023-07-24,1,,,,,アイピーマネジメント,0
2372,9011001155815,新規,0,2023-07-24,2023-07-24,株式会社Ｈａｎｉｌ,,株式会社,東京都,渋谷区,道玄坂１丁目１２番１号,,13,113,1500043,,,,,,,2023-07-24,1,,,,,ハニル,0
2373,9011001155848,新規,0,2023-07-24,2023-07-24,株式会社Ａｎｄｒａｆｔ,,株式会社,東京都,渋谷区,道玄坂１丁目１０番８号渋谷道玄坂東急ビル２Ｆ－Ｃ,,13,113,1500043,,,,,,,2023-07-24,1,,,,,アンドラフト,0
2374,9011001155856,新規,0,2023-07-24,2023-07-24,株式会社Ｒｅａｐｌｕｓ,,株式会社,東京都,目黒区,五本木２丁目１３－２－１階,,13,110,1530053,,,,,,,2023-07-24,1,,,,,リアプラス,0
2378,9011101103698,新規,0,2023-07-24,2023-07-24,株式会社ＮＯＥ　ＪＡＰＡＮ,,株式会社,東京都,新宿区,高田馬場１丁目３１番８号高田馬場ダイカンプラザ６０７号室,,13,104,1690075,,,,,,,2023-07-24,1,,,,,ノエジャパン,0
2379,9011101103715,新規,0,2023-07-24,2023-07-24,株式会社ＡＳＨ,,株式会社,東京都,新宿区,西新宿７丁目１８番１８号新宿税理士ビル別館４１２号室,,13,104,1600023,,,,,,,2023-07-24,1,,,,,エーエスエイチ,0
2383,9011103013284,新規,0,2023-07-24,2023-07-24,合同会社ジェイ・イー・エム,,合同会社,東京都,新宿区,下宮比町１番４号,,13,104,1620822,,,,,,,2023-07-24,1,,,,,ジェイイーエム,0
2384,9011203004134,新規,0,2023-07-24,2023-07-24,Ｔ＆Ｔ合同会社,,合同会社,東京都,中野区,大和町２丁目１２番５号ＹＫＢＡホーム野方３０１号,,13,114,1650034,,,,,,,2023-07-24,1,,,,,テイーアンドテイー,0
2385,9011401025254,新規,0,2023-07-24,2023-07-24,ＫＩＭＩＴＯＫＩ株式会社,,株式会社,東京都,板橋区,前野町６丁目２６番７号ヴィラサンベルナールときわ台１０１号室,,13,119,1740063,,,,,,,2023-07-24,1,,,,,キミトキ,0
2387,9011503005690,新規,0,2023-07-24,2023-07-24,アリエス合同会社,,合同会社,東京都,北区,上十条５丁目３３番４号,,13,117,1140034,,,,,,,2023-07-24,1,,,,,アリエス,0
2388,9011601027001,新規,0,2023-07-24,2023-07-24,株式会社ｇｌｉｏｎ,,株式会社,東京都,練馬区,豊玉中２丁目２番７号,,13,120,1760013,,,,,,,2023-07-24,1,,,,,グリオン,0
2390,9011801042766,新規,0,2023-07-24,2023-07-24,株式会社リープ,,株式会社,東京都,足立区,弘道１丁目４番２０－１０４号,,13,121,1200013,,,,,,,2023-07-24,1,,,,,リープ,0
2392,9012301013530,新規,0,2023-07-24,2023-07-24,トミックジャパン株式会社,,株式会社,東京都,町田市,原町田４丁目１１番１４号コロンブスビル３Ｆ,,13,209,1940013,,,,,,,2023-07-24,1,,,,,トミックジャパン,0
2398,9012403006077,新規,0,2023-07-24,2023-07-24,合同会社ｔｒｉｃｋ　ｔａｋｉｎｇ,,合同会社,東京都,多摩市,永山４丁目３‐１２‐５０５,,13,224,2060025,,,,,,,2023-07-24,1,,,,,トリックテイキング,0
2416,9020001152573,新規,0,2023-07-24,2023-07-24,モナコハウス株式会社,,株式会社,神奈川県,横浜市港南区,最戸１丁目２２番２号・１階,,14,111,2330008,,,,,,,2023-07-24,1,,,,,モナコハウス,0
2417,9020001152631,新規,0,2023-07-24,2023-07-24,株式会社東京さくらサービス,,株式会社,神奈川県,川崎市宮前区,宮崎５丁目５番地４９,,14,136,2160033,,,,,,,2023-07-24,1,,,,,トウキョウサクラサービス,0
2418,9020001152656,新規,0,2023-07-24,2023-07-24,株式会社Ｄ‐ＬＩＮＥ,,株式会社,神奈川県,横浜市金沢区,富岡東４丁目５番２６号,,14,108,2360051,,,,,,,2023-07-24,1,,,,,ディーライン,0
2419,9020001152664,新規,0,2023-07-24,2023-07-24,株式会社ＫＭＲ,,株式会社,神奈川県,横浜市港北区,新羽町１５８８番地,,14,109,2230057,,,,,,,2023-07-24,1,,,,,ケーエムアール,0
2425,9021001079658,新規,0,2023-07-24,2023-07-24,株式会社ｐｏｓｔ　ｃａｆｅ,,株式会社,神奈川県,横須賀市,野比２丁目３３番１３号,,14,201,2390841,,,,,,,2023-07-24,1,,,,,ポストカフェ,0
2426,9021003013326,新規,0,2023-07-24,2023-07-24,合同会社Ｋ’Ｓ‐ＦＡＣＴＯＲＹ,,合同会社,神奈川県,横須賀市,船越町１丁目５７番地井上ビル１Ｆ,,14,201,2370076,,,,,,,2023-07-24,1,,,,,ケーズファクトリー,0
2427,9021003013334,新規,0,2023-07-24,2023-07-24,シムテック合同会社,,合同会社,神奈川県,藤沢市,本町２丁目７－１０マンション蔵１０３,,14,205,2510053,,,,,,,2023-07-24,1,,,,,シムテック,0
2432,9030001154916,新規,0,2023-07-24,2023-07-24,ＳＰＳネクスト株式会社,,株式会社,埼玉県,さいたま市北区,盆栽町９０番地４大宮公園ＯＮＥ’Ｓビル３０１,,11,102,3310805,,,,,,,2023-07-24,1,,,,,エスピーエスネクスト,0
2443,9040001129322,新規,0,2023-07-24,2023-07-24,株式会社Ｓｏａｒ,,株式会社,千葉県,千葉市美浜区,幸町１丁目５番２棟１２０５号,,12,106,2610001,,,,,,,2023-07-24,1,,,,,ソアー,0
2444,9040001129347,新規,0,2023-07-24,2023-07-24,田麻和株式会社,,株式会社,千葉県,市川市,末広１丁目１４番１６号,,12,203,2720121,,,,,,,2023-07-24,1,,,,,タマワ,0
2450,9040003022863,新規,0,2023-07-24,2023-07-24,Ｙｕｋｉ　Ｈｏｕｓｅ合同会社,,合同会社,千葉県,松戸市,金ケ作４０８番地の６２８,,12,207,2702251,,,,,,,2023-07-24,1,,,,,ユキハウス,0
2451,9040003022938,新規,0,2023-07-24,2023-07-24,Ｍａｍａ’ｓ　ｓｐｉｃｙ＆Ｃｅｙｌｏｎ　ｆｏｏｄｓ合同会社,,合同会社,千葉県,富里市,七栄６５０番地１４３５,,12,233,2860221,,,,,,,2023-07-24,1,,,,,ママズスパイシーアンドセイロンフーズ,0
2454,9050001053174,新規,0,2023-07-24,2023-07-24,株式会社いわきホールディングス,,株式会社,茨城県,守谷市,久保ケ丘４丁目１４番地１,,08,224,3020104,,,,,,,2023-07-24,1,,,,,イワキホールディングス,0
2455,9050001053182,新規,0,2023-07-24,2023-07-24,ＪＥホールディングス株式会社,,株式会社,茨城県,つくばみらい市,田村４５０番地,,08,235,3002413,,,,,,,2023-07-24,1,,,,,ジェイイーホールディングス,0
2457,9060001036186,新規,0,2023-07-24,2023-07-24,株式会社ｙｕｕ,,株式会社,栃木県,下都賀郡壬生町,大字安塚１１８９番地７０,,09,361,3210201,,,,,,,2023-07-24,1,,,,,ユウ,0
2458,9060003004653,新規,0,2023-07-24,2023-07-24,ミラケス合同会社,,合同会社,栃木県,宇都宮市,塙田５丁目２番５１号グリーンハイツ３０８,,09,201,3200027,,,,,,,2023-07-24,1,,,,,ミラケス,0
2474,9100001036611,新規,0,2023-07-24,2023-07-24,株式会社Ｕｎｐｌｕｇ,,株式会社,長野県,北佐久郡軽井沢町,大字長倉２８２番地７,,20,321,3890111,,,,,,,2023-07-24,1,,,,,アンプラグ,0
2489,9120001256570,新規,0,2023-07-24,2023-07-24,九洲株式会社,,株式会社,大阪府,大阪市西区,新町３丁目６－１７ＧＳハイム西長堀６０５号室,,27,106,5500013,,,,,,,2023-07-24,1,,,,,キュウシュウ,0
2490,9120001256653,新規,0,2023-07-24,2023-07-24,株式会社Ｌｅｘｉａｎ,,株式会社,大阪府,大阪市城東区,今福西２丁目１番８号,,27,118,5360004,,,,,,,2023-07-24,1,,,,,レキシアン,0
2491,9120001256661,新規,0,2023-07-24,2023-07-24,株式会社ＬＯＵＶＲＥＤＯ西日本,,株式会社,大阪府,大阪市淀川区,西中島６丁目７番９号Ｒｎビル,,27,123,5320011,,,,,,,2023-07-24,1,,,,,ルーヴルドーニシニホン,0
2492,9120001256694,新規,0,2023-07-24,2023-07-24,株式会社Ｃｅｎｔｅｒ　Ｆｉｅｌｄ,,株式会社,大阪府,大阪市阿倍野区,阿倍野元町１８番３９号ＨＰ北畠ビル２階,,27,119,5450034,,,,,,,2023-07-24,1,,,,,センターフィールド,0
2493,9120001256769,新規,0,2023-07-24,2023-07-24,ＪＯＹ株式会社,,株式会社,大阪府,大阪市北区,天満２丁目１－１２天満橋ＳＥビル４階,,27,127,5300043,,,,,,,2023-07-24,1,,,,,ジョイ,0
2496,9120003024538,新規,0,2023-07-24,2023-07-24,合同会社ツジエ,,合同会社,大阪府,大阪市城東区,今福西５丁目６番２３号,,27,118,5360004,,,,,,,2023-07-24,1,,,,,ツジエ,0
2497,9120003024554,新規,0,2023-07-24,2023-07-24,合同会社パール,,合同会社,大阪府,大阪市西成区,天下茶屋３丁目２８番７－５０１号,,27,122,5570014,,,,,,,2023-07-24,1,,,,,パール,0
2498,9120003024570,新規,0,2023-07-24,2023-07-24,合同会社ＬＯＧＩ　ＰＲＥＭＩＡ,,合同会社,大阪府,大阪市北区,大淀南２丁目２番９－３３１４号,,27,127,5310075,,,,,,,2023-07-24,1,,,,,,0
2503,9120903004746,新規,0,2023-07-24,2023-07-24,合同会社ＵＮＩＶＥＲＳＥ　ＭＩＮＤ,,合同会社,大阪府,豊中市,熊野町４丁目２番３０号,,27,203,5600014,,,,,,,2023-07-24,1,,,,,ユニバースマインド,0
2504,9120903004754,新規,0,2023-07-24,2023-07-24,Ｗｉｓｔｅｒｉａｓ合同会社,,合同会社,大阪府,豊中市,南桜塚４丁目１２－３５－１０６,,27,203,5610882,,,,,,,2023-07-24,1,,,,,ウィステリアス,0
2520,9140001130939,新規,0,2023-07-24,2023-07-24,株式会社トップリーフ,,株式会社,兵庫県,加古川市,平岡町新在家９２９番地の３０,,28,210,6750101,,,,,,,2023-07-24,1,,,,,トップリーフ,0
2521,9140001130955,新規,0,2023-07-24,2023-07-24,株式会社ＳＡＩ,,株式会社,兵庫県,高砂市,米田町米田新２３番地の１,,28,216,6760801,,,,,,,2023-07-24,1,,,,,エスエイアイ,0
2522,9140001130963,新規,0,2023-07-24,2023-07-24,株式会社Ｃｉｅｌ,,株式会社,兵庫県,芦屋市,涼風町２０－２５,,28,206,6590036,,,,,,,2023-07-24,1,,,,,シエル,0
2530,9140003019338,新規,0,2023-07-24,2023-07-24,合同会社Ｄ＆Ｂ,,合同会社,兵庫県,神戸市東灘区,岡本１丁目１４番１７号－１０１号,,28,101,6580072,,,,,,,2023-07-24,1,,,,,ディーアンドビー,0
2536,9170001017704,新規,0,2023-07-24,2023-07-24,株式会社中井林業,,株式会社,和歌山県,田辺市,中辺路町栗栖川６７１番地の１０,,30,206,6461421,,,,,,,2023-07-24,1,,,,,ナカイリンギョウ,0
2544,9180001157243,新規,0,2023-07-24,2023-07-24,新宝技研株式会社,,株式会社,愛知県,名古屋市中川区,下之一色町字宮分１３番地３,,23,110,4540945,,,,,,,2023-07-24,1,,,,,シンポウギケン,0
2555,9200001041510,新規,0,2023-07-24,2023-07-24,株式会社はぎわら建装,,株式会社,岐阜県,岐阜市,東鶉３丁目５８番地,,21,201,5008281,,,,,,,2023-07-24,1,,,,,ハギワラケンソウ,0
2556,9200001041519,新規,0,2023-07-24,2023-07-24,株式会社ＭＹ　ＳＴＹＬＥ,,株式会社,岐阜県,大垣市,久徳町３９８番地,,21,202,5030982,,,,,,,2023-07-24,1,,,,,マイスタイル,0
2558,9210001019398,新規,0,2023-07-24,2023-07-24,株式会社タイニーランド,,株式会社,福井県,吉田郡永平寺町,松岡室第３１号５５番地５,,18,322,9101135,,,,,,,2023-07-24,1,,,,,タイニーランド,0
2571,9260003004369,新規,0,2023-07-24,2023-07-24,ＭＡＮＤＡＲｉＳＭ合同会社,,合同会社,岡山県,倉敷市,児島下の町９丁目１２番ス３号,,33,202,7110906,,,,,,,2023-07-24,1,,,,,マンダリズム,0
2577,9290001102378,新規,0,2023-07-24,2023-07-24,株式会社テックガウン,,株式会社,福岡県,福岡市博多区,店屋町２－２９ｉＧＳ博多ビルｉＧｒｏｗｔｈＳｈｉｐ７２１号,,40,132,8120025,,,,,,,2023-07-24,1,,,,,テックガウン,0
2578,9290001102386,新規,0,2023-07-24,2023-07-24,８９工業株式会社,,株式会社,福岡県,福岡市東区,香住ヶ丘２丁目１５－２１－篠原ビル５０３,,40,131,8130003,,,,,,,2023-07-24,1,,,,,ハチキュウコウギョウ,0
2580,9290003014150,新規,0,2023-07-24,2023-07-24,Ｒｅｎｅｗａｂｌｅ　Ｅｎｅｒｇｙ　Ｏｖｅｒａｌｌ　Ｓｅｒｖｉｃｅｓ合同会社,,合同会社,福岡県,筑紫野市,美しが丘北１丁目１０番地１１,,40,217,8180035,,,,,,,2023-07-24,1,,,,,リニューアブルエナジーオーバーオールサービシズ,0
2584,9290803004466,新規,0,2023-07-24,2023-07-24,合同会社ユエマホールディングス,,合同会社,福岡県,北九州市小倉北区,中井３丁目１－３０－２Ｆ,,40,106,8030836,,,,,,,2023-07-24,1,,,,,ユエマホールディングス,0
2590,9330001031085,新規,0,2023-07-24,2023-07-24,株式会社ＨｉＢｉソリューションズ,,株式会社,熊本県,熊本市中央区,八王寺町８番２号,,43,101,8600831,,,,,,,2023-07-24,1,,,,,ヒビソリューションズ,0
2597,9350001018460,新規,0,2023-07-24,2023-07-24,浩正株式会社,,株式会社,宮崎県,宮崎市,大字恒久１４１０番地６ハピネス恒久７０３号,,45,201,8800916,,,,,,,2023-07-24,1,,,,,コウセイ,0
2601,9360003013145,新規,0,2023-07-24,2023-07-24,合同会社ＣＨＵＲＡ　Ｇｒｏｕｐ　Ｊａｐａｎ,,合同会社,沖縄県,国頭郡金武町,字金武４３２３－１,,47,314,9041201,,,,,,,2023-07-24,1,,,,,チュラグループジャパン,0
2631,9460101007410,新規,0,2023-07-24,2023-07-24,株式会社川瀬不動産,00131251,株式会社,北海道,中川郡池田町,字西三条８丁目３７番地の１,,01,644,0830023,,,,,,,2023-07-24,1,,,,,カワセフドウサン,0
