sequenceNumber,corporateNumber,process,correct,updateDate,changeDate,name,nameImageId,kind,prefectureName,cityName,streetNumber,addressImageId,prefectureCode,cityCode,postCode,addressOutside,addressOutsideImageId,closeDate,closeCause,successorCorporateNumber,changeCause,assignmentDate,latest,enName,enPrefectureName,enCityName,enAddressOutside,furigana,hihyoji
24,1010402036243,登記記録の閉鎖等,0,2022-07-28,2022-07-06,有限会社シン・ホソカワ・プランニング,,有限会社,東京都,港区,芝浦４丁目２１番１－２９０４号,,13,103,1080023,,,2022-07-06,清算の結了等,,,2015-10-05,1,,,,,シンホソカワプランニング,0
51,1011101059873,登記記録の閉鎖等,0,2022-07-28,2022-07-25,株式会社ＷＯＲＬＤ　ＣＡＢＩＮ,,株式会社,東京都,新宿区,新宿５丁目１７番１１号白鳳ビル８階,,13,104,1600022,,,2022-07-25,合併による解散等,1011101051979,令和４年７月１日東京都港区東新橋一丁目１番１９号ヤクルト本社ビル１１階株式会社ＡＬＥＸＡＮＤＥＲ＆ＳＵＮ（1011101051979）に合併し解散,2015-10-05,1,,,,,ワールドキャビン,0
57,1011401015139,登記記録の閉鎖等,0,2022-07-28,2022-07-27,株式会社エス・エス・ケー,,株式会社,東京都,板橋区,蓮根２丁目２８番４－６０１号,00054948,13,119,1740046,,,2022-07-27,清算の結了等,,,2015-10-05,1,,,,,エスエスケー,0
60,1011701011861,登記記録の閉鎖等,0,2022-07-28,2022-07-26,加藤繊維株式会社,,株式会社,東京都,江戸川区,北小岩３丁目１８番１７号,,13,123,1330051,,,2022-07-26,清算の結了等,,,2015-10-05,1,,,,,カトウセンイ,0
76,1020001001259,登記記録の閉鎖等,0,2022-07-28,2022-07-19,神奈川農産工業株式会社,,株式会社,神奈川県,横浜市瀬谷区,瀬谷６丁目１１番地の１,,14,114,2460031,,,2022-07-19,清算の結了等,,,2015-10-05,1,,,,,カナガワノウサンコウギョウ,0
84,1020002081003,登記記録の閉鎖等,0,2022-07-28,2022-07-26,有限会社佐治モーター,,有限会社,神奈川県,横須賀市,秋谷４４１２番地,,14,201,2400105,,,2022-07-26,清算の結了等,,,2015-10-05,1,,,,,サジモーター,0
95,1030002105660,登記記録の閉鎖等,0,2022-07-28,2022-07-15,有限会社中山造園土木,,有限会社,埼玉県,川口市,大字安行領家６１３番地,,11,203,3340058,,,2022-07-15,清算の結了等,,,2015-10-05,1,,,,,ナカヤマゾウエンドボク,0
120,1080001011574,登記記録の閉鎖等,0,2022-07-28,2022-07-22,株式会社ハイエスト,,株式会社,静岡県,静岡市駿河区,泉町５番２７号,,22,102,4228066,,,2022-07-22,清算の結了等,,,2015-10-05,1,,,,,ハイエスト,0
123,1080102008453,登記記録の閉鎖等,0,2022-07-28,2022-07-27,有限会社ツインズ,,有限会社,静岡県,伊豆市,柏久保１３４０番地,,22,222,4102407,,,2022-07-27,清算の結了等,,,2015-10-05,1,,,,,ツインズ,0
129,1110001007833,登記記録の閉鎖等,0,2022-07-28,2022-07-25,株式会社長場鉄工作所,,株式会社,新潟県,新潟市北区,島見町３６７１番地６,,15,101,9503102,,,2022-07-25,清算の結了等,,,2015-10-05,1,,,,,ナガバテツコウサクショ,0
137,1120001073081,登記記録の閉鎖等,0,2022-07-28,2022-07-25,アイケイ工業株式会社,,株式会社,大阪府,大阪市中央区,平野町１丁目６番８号,,27,128,5410046,,,2022-07-25,清算の結了等,,,2015-10-05,1,,,,,アイケイコウギョウ,0
152,1130001023829,登記記録の閉鎖等,0,2022-07-28,2022-07-13,株式会社ユーシーエム,,株式会社,京都府,京都市左京区,一乗寺庵野町３３－１,,26,103,6068166,,,2022-07-13,清算の結了等,,,2015-10-05,1,,,,,ユーシーエム,0
157,1130001063643,登記記録の閉鎖等,0,2022-07-28,2022-07-15,Ｇｙｒｆａｌｃｏｎ　Ｔｅｃｈｎｏｌｏｇｙ　Ｊａｐａｎ株式会社,,株式会社,京都府,京都市下京区,中堂寺粟田町９３,,26,106,6008815,,,2022-07-15,清算の結了等,,,2019-01-10,1,,,,,ジルファルコンテクノロジージャパン,0
158,1130001066407,登記記録の閉鎖等,0,2022-07-28,2022-07-19,杉山株式会社,,株式会社,京都府,京都市右京区,西京極東側町２５番地１１,,26,108,6150844,,,2022-07-19,清算の結了等,,,2020-03-02,1,,,,,スギヤマ,0
174,1180001083570,登記記録の閉鎖等,0,2022-07-28,2022-07-25,株式会社フォレス,,株式会社,愛知県,一宮市,本町４丁目２２番１０号,,23,203,4910859,,,2022-07-25,清算の結了等,,,2015-10-05,1,,,,,フォレス,0
177,1180001137269,登記記録の閉鎖等,0,2022-07-28,2022-07-22,ファイズコンピュータテクノロジーズ株式会社,,株式会社,愛知県,名古屋市中区,丸の内２丁目１８番２５号,,23,106,4600002,,,2022-07-22,合併による解散等,3120001179942,令和４年６月２１日大阪市北区梅田三丁目４番５号毎日インテシオ１３階ファイズホールディングス株式会社（3120001179942）に合併し解散,2019-07-04,1,,,,,ファイズコンピュータテクノロジーズ,0
184,1180002074494,登記記録の閉鎖等,0,2022-07-28,2022-07-25,有限会社藤原技研,,有限会社,愛知県,犬山市,字郷西２５０番地の１,,23,215,4840817,,,2022-07-25,清算の結了等,,,2015-10-05,1,,,,,フジワラギケン,0
187,1180302020603,登記記録の閉鎖等,0,2022-07-28,2022-07-19,有限会社福田クリーンサービス,,有限会社,愛知県,碧南市,善明町１丁目５７番地,,23,209,4470875,,,2022-07-19,清算の結了等,,,2015-10-05,1,,,,,フクダクリーンサービス,0
192,1200002005942,登記記録の閉鎖等,0,2022-07-28,2022-07-26,有限会社リョーワ石油,,有限会社,岐阜県,岐阜市,芥見東山５番１３号,,21,201,5013112,,,2022-07-26,清算の結了等,,,2015-10-05,1,,,,,リョーワセキユ,0
198,1230001015031,登記記録の閉鎖等,0,2022-07-28,2022-07-27,イマジン株式会社,,株式会社,富山県,富山市,婦中町蛍川５１番６,,16,201,9392728,,,2022-07-27,清算の結了等,,,2015-10-05,1,,,,,,0
207,1290803003070,登記記録の閉鎖等,0,2022-07-28,2022-07-26,合同会社リリース,,合同会社,福岡県,田川郡福智町,伊方３４６０－３,,40,610,8221211,,,2022-07-26,清算の結了等,,,2018-02-28,1,,,,,リリース,0
219,1370001046260,登記記録の閉鎖等,0,2022-07-28,2022-07-12,ｉ－ＤＲＴｓ株式会社,,株式会社,宮城県,仙台市青葉区,星陵町２番１号,,04,101,9800872,,,2022-07-12,清算の結了等,,,2020-10-16,1,,,,,アイダーツ,0
223,1370202004637,登記記録の閉鎖等,0,2022-07-28,2022-07-12,有限会社はが事務器,,有限会社,宮城県,栗原市,若柳字下畑岡内谷川５０番地の１,,04,213,9895503,,,2022-07-12,清算の結了等,,,2015-10-05,1,,,,,ハガジムキ,0
235,1430001066392,登記記録の閉鎖等,0,2022-07-28,2022-07-25,株式会社武蔵野インターナショナル,,株式会社,岩手県,陸前高田市,高田町字鳴石５１番地９１,,03,210,0292205,,,2022-07-25,清算の結了等,,,2015-10-05,1,,,,,ムサシノインターナショナル,0
237,1430002019548,登記記録の閉鎖等,0,2022-07-28,2022-07-12,有限会社宮浦木材店,,有限会社,北海道,札幌市中央区,南十三条西１４丁目３番３０号,,01,101,0640913,,,2022-07-12,清算の結了等,,,2015-10-05,1,,,,,ミヤウラモクザイテン,0
241,1450005002219,登記記録の閉鎖等,0,2022-07-28,2022-07-12,天理教富陽分教会,,その他の設立登記法人,北海道,富良野市,朝日町１１番３３号,,01,229,0760026,,,2022-07-12,合併による解散等,8450005002212,令和４年７月１２日北海道空知郡上富良野町東町一丁目６番３２号天理教上富良野分教会（8450005002212）に合併し解散,2015-10-05,1,,,,,テンリキョウトミヨウブンキョウカイ,0
262,2010003028985,登記記録の閉鎖等,0,2022-07-28,2022-07-11,合同会社宮城県川崎メガソーラーＰＪ,,合同会社,東京都,中央区,日本橋１丁目３番１３号東京建物日本橋ビル１１階,,13,102,1030027,,,2022-07-11,清算の結了等,,,2018-12-25,1,,,,,ミヤギケンカワサキメガソーラーピージェイ,0
264,2010005028083,登記記録の閉鎖等,0,2022-07-28,2022-07-15,一般社団法人ナカノ開発プロジェクト,,その他の設立登記法人,東京都,千代田区,神田神保町１丁目１１番地さくら綜合事務所内,,13,101,1010051,,,2022-07-15,清算の結了等,,,2018-02-09,1,,,,,ナカノカイハツプロジェクト,0
265,2010005030873,登記記録の閉鎖等,0,2022-07-28,2022-07-15,一般財団法人Ｎｏｂｅｌ　Ｓｕｓｔａｉｎａｂｉｌｉｔｙ　Ｔｒｕｓｔ,,その他の設立登記法人,東京都,千代田区,丸の内２丁目２番１号,,13,101,1000005,,,2022-07-15,清算の結了等,,,2019-10-08,1,,,,,ノーベルサステナビリティトラスト,0
283,2010601040251,登記記録の閉鎖等,0,2022-07-28,2022-07-15,株式会社ミライト,,株式会社,東京都,江東区,豊洲５丁目６番３６号,,13,108,1350061,,,2022-07-15,合併による解散等,6010601040090,令和４年７月１日東京都江東区豊洲五丁目６番３６号株式会社ミライト・ワン（6010601040090）に合併し解散,2015-10-05,1,,,,,ミライト,0
300,2011002026352,登記記録の閉鎖等,0,2022-07-28,2022-07-11,有限会社アトリーチェ,,有限会社,東京都,中央区,京橋２丁目２番１号,,13,102,1040031,,,2022-07-11,清算の結了等,,,2015-10-05,1,,,,,アトリーチェ,0
318,2011301001997,登記記録の閉鎖等,0,2022-07-28,2022-07-25,協和物産株式会社,,株式会社,東京都,杉並区,和田１丁目４５番６号,,13,115,1660012,,,2022-07-25,清算の結了等,,,2015-10-05,1,,,,,キョウワブッサン,0
329,2012302003000,登記記録の閉鎖等,0,2022-07-28,2022-07-25,有限会社玉城重機,,有限会社,東京都,町田市,小山町１６３９番地１,,13,209,1940212,,,2022-07-25,清算の結了等,,,2015-10-05,1,,,,,タマキジュウキ,0
371,2030002003509,登記記録の閉鎖等,0,2022-07-28,2022-07-15,有限会社カスタマネツト総合企画,,有限会社,埼玉県,さいたま市桜区,栄和２丁目２１番１１号,,11,106,3380823,,,2022-07-15,清算の結了等,,,2015-10-05,1,,,,,カスタマネットソウゴウキカク,0
379,2040002031401,登記記録の閉鎖等,0,2022-07-28,2022-07-20,有限会社サンウェル,,有限会社,東京都,墨田区,立花５丁目５０番２８－５０８号,,13,107,1310043,,,2022-07-20,清算の結了等,,,2015-10-05,1,,,,,サンウェル,0
383,2050001047686,登記記録の閉鎖等,0,2022-07-28,2022-07-14,株式会社３ステップ,,株式会社,茨城県,守谷市,小山字長作３９３番１,,08,224,3020122,,,2022-07-14,清算の結了等,,,2020-06-17,1,,,,,スリーステップ,0
392,2070002005492,登記記録の閉鎖等,0,2022-07-28,2022-07-13,有限会社矢内商店,,有限会社,群馬県,前橋市,大胡町８番地,,10,201,3710223,,,2022-07-13,清算の結了等,,,2015-10-05,1,,,,,ヤナイショウテン,0
401,2120001218619,登記記録の閉鎖等,0,2022-07-28,2022-07-19,株式会社上善,,株式会社,大阪府,大阪市北区,梅田２丁目５－１３桜橋第一ビル３０４号,,27,127,5300001,,,2022-07-19,清算の結了等,,,2019-01-28,1,,,,,ジョウゼン,0
413,2120901008326,登記記録の閉鎖等,0,2022-07-28,2022-07-25,株式会社ホープ商事,,株式会社,大阪府,吹田市,江の木町８番１５号,,27,205,5640053,,,2022-07-25,清算の結了等,,,2015-10-05,1,,,,,ホープショウジ,0
426,2140002065496,登記記録の閉鎖等,0,2022-07-28,2022-07-25,有限会社コーチ・エンジニアリング,,有限会社,兵庫県,川西市,大和東５丁目１８番地の１６,,28,217,6660111,,,2022-07-25,清算の結了等,,,2015-10-05,1,,,,,コーチエンジニアリング,0
436,2180002087479,登記記録の閉鎖等,0,2022-07-28,2022-07-25,有限会社サンマル,,有限会社,愛知県,東海市,加木屋町丸根１６番地の１０,,23,222,4770032,,,2022-07-25,清算の結了等,,,2015-10-05,1,,,,,サンマル,0
438,2190001011686,登記記録の閉鎖等,0,2022-07-28,2022-07-19,株式会社珍道建設,,株式会社,三重県,松阪市,石津町１００番地,,24,204,5150006,,,2022-07-19,清算の結了等,,,2015-10-05,1,,,,,チンドウケンセツ,0
439,2190001020010,登記記録の閉鎖等,0,2022-07-28,2022-07-21,株式会社花こころ,,株式会社,三重県,桑名市,星見ヶ丘９丁目８０１番地１,,24,205,5110912,,,2022-07-21,清算の結了等,,,2015-10-05,1,,,,,ハナココロ,0
441,2190002017864,登記記録の閉鎖等,0,2022-07-28,2022-07-22,有限会社カメラの寺田,,有限会社,三重県,いなべ市,員弁町大泉１２８０番地の５,,24,214,5110224,,,2022-07-22,清算の結了等,,,2015-10-05,1,,,,,カメラノテラダ,0
446,2200002026839,登記記録の閉鎖等,0,2022-07-28,2022-07-27,有限会社小水電機,,有限会社,岐阜県,飛騨市,神岡町船津９５７番地の１８,,21,217,5061161,,,2022-07-27,清算の結了等,,,2015-10-05,1,,,,,,0
478,2370002004514,登記記録の閉鎖等,0,2022-07-28,2022-07-08,有限会社出雲,,有限会社,宮城県,仙台市若林区,上飯田１丁目７番４０号,,04,103,9840838,,,2022-07-08,清算の結了等,,,2015-10-05,1,,,,,イズモ,0
489,2380005011647,登記記録の閉鎖等,0,2022-07-28,2022-07-19,一般社団法人福島県柔道整復師会,,その他の設立登記法人,福島県,いわき市,常磐下湯長谷町１丁目５４番地,,07,204,9728317,,,2022-07-19,清算の結了等,,,2016-04-18,1,,,,,フクシマケンジュウドウセイフクシカイ,0
496,2430005005073,登記記録の閉鎖等,0,2022-07-28,2022-07-13,特定非営利活動法人ウィズ会,,その他の設立登記法人,北海道,札幌市東区,北十九条東１３丁目５番１号,,01,103,0650019,,,2022-07-13,清算の結了等,,,2015-10-05,1,,,,,ウィズカイ,0
502,2480001006756,登記記録の閉鎖等,0,2022-07-28,2022-07-27,株式会社土佐野組,,株式会社,徳島県,阿南市,椿泊町寺谷７番地,,36,204,7791740,,,2022-07-27,清算の結了等,,,2015-10-05,1,,,,,トサノグミ,0
510,3010001106874,登記記録の閉鎖等,0,2022-07-28,2022-07-11,株式会社清海,,株式会社,東京都,中央区,月島１丁目２番６号,,13,102,1040052,,,2022-07-11,清算の結了等,,,2015-10-05,1,,,,,セイカイ,0
511,3010001154568,登記記録の閉鎖等,0,2022-07-28,2022-07-11,ｃｏｔｏ株式会社,,株式会社,東京都,中央区,銀座２丁目７番６号,,13,102,1040061,,,2022-07-11,合併による解散等,6350001004496,令和４年７月１日東京都中央区銀座二丁目７番６号株式会社一品堂（6350001004496）に合併し解散,2015-10-05,1,,,,,コト,0
512,3010001173989,登記記録の閉鎖等,0,2022-07-28,2022-07-11,株式会社プロジェティーム,,株式会社,東京都,文京区,白山３丁目３番４号,,13,105,1120001,,,2022-07-11,清算の結了等,,,2016-03-04,1,,,,,プロジェティーム,0
543,3010403025045,登記記録の閉鎖等,0,2022-07-28,2022-07-06,合同会社ｃａｍｅｒｉｅｎ,,合同会社,東京都,港区,浜松町２丁目２番１５号浜松町ダイヤビル２Ｆ,,13,103,1050013,,,2022-07-06,清算の結了等,,,2021-04-05,1,,,,,カメリアン,0
562,3010903002403,登記記録の閉鎖等,0,2022-07-28,2022-07-20,合同会社ＬＢコンサルティング,,合同会社,京都府,京都市伏見区,淀新町１２２番地の１０,,26,109,6130906,,,2022-07-20,清算の結了等,,,2015-10-05,1,,,,,エルビーコンサルティング,0
563,3010903004779,登記記録の閉鎖等,0,2022-07-28,2022-07-26,徳倉貿易合同会社,,合同会社,東京都,狛江市,和泉本町３丁目３０番１３号,,13,219,2010003,,,2022-07-26,清算の結了等,,,2019-02-05,1,,,,,トククラボウエキ,0
570,3011101073690,登記記録の閉鎖等,0,2022-07-28,2022-06-27,株式会社エムティーカンパニー,,株式会社,東京都,新宿区,舟町４番地４,,13,104,1600006,,,2022-06-27,合併による解散等,5011101081089,令和４年６月１日東京都新宿区舟町４番地４株式会社エヌビーシーカンパニー（5011101081089）に合併し解散,2015-10-05,1,,,,,エムティーカンパニー,0
606,3021002069696,登記記録の閉鎖等,0,2022-07-28,2022-07-26,有限会社オカダプロデュース,,有限会社,神奈川県,横須賀市,船越町６丁目３７番地９,,14,201,2370076,,,2022-07-26,清算の結了等,,,2015-10-05,1,,,,,オカダプロデュース,0
609,3030001094374,登記記録の閉鎖等,0,2022-07-28,2022-07-15,株式会社シンコー電気,,株式会社,埼玉県,日高市,大字高萩１１５番地４,,11,242,3501213,,,2022-07-15,清算の結了等,,,2015-10-05,1,,,,,,0
622,3040002098893,登記記録の閉鎖等,0,2022-07-28,2022-07-15,有限会社五十五開発,,有限会社,千葉県,野田市,山崎２７１５番地の２１,,12,208,2780022,,,2022-07-15,清算の結了等,,,2015-10-05,1,,,,,イソゴカイハツ,0
624,3050001046217,登記記録の閉鎖等,0,2022-07-28,2022-07-19,Ｙ＆Ｍホーム株式会社,,株式会社,茨城県,東茨城郡茨城町,大字上石崎４６１８番地１４,,08,302,3113122,,,2022-07-19,清算の結了等,,,2019-07-04,1,,,,,ワイアンドエムホーム,0
634,3070002000229,登記記録の閉鎖等,0,2022-07-28,2022-07-15,有限会社アグリビジネス,,有限会社,群馬県,前橋市,荒口町１０４１番地,,10,201,3792107,,,2022-07-15,清算の結了等,,,2015-10-05,1,,,,,アグリビジネス,0
640,3100001000795,登記記録の閉鎖等,0,2022-07-28,2022-07-20,株式会社杏林,,株式会社,長野県,長野市,大字風間１１８６番地２５,,20,201,3810023,,,2022-07-20,清算の結了等,,,2015-10-05,1,,,,,キョウリン,0
645,3110005012191,登記記録の閉鎖等,0,2022-07-28,2022-07-01,清正寺,,その他の設立登記法人,新潟県,長岡市,中之島中条丙３７０番地,,15,202,9540216,,,2022-07-01,合併による解散等,8110005012385,令和４年７月１日新潟県長岡市寺泊上田町２８９９番地明聖寺（8110005012385）に合併し解散,2015-10-05,1,,,,,セイショウジ,0
660,3122002006035,登記記録の閉鎖等,0,2022-07-28,2022-07-15,有限会社シバガキ商店,,有限会社,大阪府,東大阪市,友井５丁目４番２５号,,27,227,5770816,,,2022-07-15,清算の結了等,,,2015-10-05,1,,,,,シバガキショウテン,0
693,3180001000755,登記記録の閉鎖等,0,2022-07-28,2022-07-26,株式会社タムラ,,株式会社,愛知県,名古屋市守山区,小幡南３丁目５番２０号,,23,113,4630048,,,2022-07-26,清算の結了等,,,2015-10-05,1,,,,,タムラ,0
706,3200001017672,登記記録の閉鎖等,0,2022-07-28,2022-07-26,株式会社日栄造園,,株式会社,岐阜県,可児市,大森１５３４番地の３,,21,214,5090238,,,2022-07-26,清算の結了等,,,2015-10-05,1,,,,,ニチエイゾウエン,0
713,3240002045792,登記記録の閉鎖等,0,2022-07-28,2022-07-26,株式会社リペアスリーエー,,株式会社,広島県,福山市,加茂町大字下加茂１８２番地の１,,34,207,7202412,,,2022-07-26,清算の結了等,,,2015-10-05,1,,,,,リペアスリーエー,0
720,3270002010488,登記記録の閉鎖等,0,2022-07-28,2022-07-22,有限会社中尾左官工業所,,有限会社,鳥取県,倉吉市,駄経寺町８７番地１,,31,203,6820816,,,2022-07-22,清算の結了等,,,2015-10-05,1,,,,,ナカオサカンコウギョウショ,0
763,3440002008432,登記記録の閉鎖等,0,2022-07-28,2022-07-22,亀田基礎工業有限会社,,有限会社,北海道,函館市,桔梗町５５３番地,,01,202,0410801,,,2022-07-22,清算の結了等,,,2015-10-05,1,,,,,カメダキソコウギョウ,0
767,3470002009956,登記記録の閉鎖等,0,2022-07-28,2022-07-26,有限会社国分寺建工,,有限会社,香川県,高松市,国分寺町新名１２４３番地５,,37,201,7690104,,,2022-07-26,清算の結了等,,,2015-10-05,1,,,,,コクブンジケンコウ,0
772,4010001061144,登記記録の閉鎖等,0,2022-07-28,2022-07-25,東京石田電材株式会社,,株式会社,東京都,港区,赤坂３丁目１番２号,,13,103,1070052,,,2022-07-25,合併による解散等,3011301013298,令和４年７月１０日東京都杉並区和田三丁目４４番１６号株式会社将弘（3011301013298）に合併し解散,2015-10-05,1,,,,,トウキョウイシダデンザイ,0
786,4010005026993,登記記録の閉鎖等,0,2022-07-28,2022-07-19,日本生命２０１７基金特定目的会社,,その他の設立登記法人,東京都,千代田区,丸の内３丁目１番１号東京共同会計事務所内,,13,101,1000005,,,2022-07-19,清算の結了等,,,2017-06-22,1,,,,,ニホンセイメイニセンジュウナナキキン,0
787,4010005030987,登記記録の閉鎖等,0,2022-07-28,2022-07-14,一般社団法人Ｆ９－１,,その他の設立登記法人,東京都,千代田区,九段南２丁目２番１号,,13,101,1020074,,,2022-07-14,清算の結了等,,,2019-11-07,1,,,,,エフナインワン,0
788,4010005031515,登記記録の閉鎖等,0,2022-07-28,2022-07-14,一般社団法人アルファ,,その他の設立登記法人,東京都,千代田区,九段南２丁目２番１号,,13,101,1020074,,,2022-07-14,清算の結了等,,,2020-03-04,1,,,,,アルファ,0
795,4010401155025,登記記録の閉鎖等,0,2022-07-28,2022-07-06,ＩＢＩＳ　Ｄａｔａ株式会社,,株式会社,東京都,港区,六本木６丁目１０番１号六本木ヒルズ森タワー,,13,103,1060032,,,2022-07-06,合併による解散等,2011001129858,令和４年７月１日東京都港区六本木六丁目１０番１号六本木ヒルズ森タワーＴｈｅ　ＲＯＯＭ　Ｄｏｏｒ株式会社（2011001129858）に合併し解散,2020-09-07,1,,,,,アイビスデータ,0
819,4011001110493,登記記録の閉鎖等,0,2022-07-28,2022-07-11,株式会社ＴＧエム・ホールディングス,,株式会社,東京都,渋谷区,代々木１丁目７番３号マノアールビル２０１,,13,113,1510053,,,2022-07-11,清算の結了等,,,2016-04-19,1,,,,,ティージーエムホールディングス,0
834,4011402003627,登記記録の閉鎖等,0,2022-07-28,2022-07-26,有限会社斎藤商店,,有限会社,東京都,板橋区,小豆沢２丁目１６番１０号,,13,119,1740051,,,2022-07-26,清算の結了等,,,2015-10-05,1,,,,,サイトウショウテン,0
852,4020001087114,登記記録の閉鎖等,0,2022-07-28,2022-07-14,株式会社アルファコア,,株式会社,神奈川県,横浜市南区,高根町３丁目１８－８メゾン・ド・ポワリエ５０９,,14,105,2320022,,,2022-07-14,清算の結了等,,,2015-10-05,1,,,,,アルファコア,0
868,4021005002843,登記記録の閉鎖等,0,2022-07-28,2022-07-22,弁護士法人谷口綜合法律事務所,,その他の設立登記法人,神奈川県,相模原市南区,相模大野７丁目８番１０号大塚ビル４階,,14,153,2520303,,,2022-07-22,清算の結了等,,,2015-10-05,1,,,,,タニグチソウゴウホウリツジムショ,0
869,4021005008997,登記記録の閉鎖等,0,2022-07-28,2022-07-22,特定非営利活動法人キッズルームさくらんぼぅ,,その他の設立登記法人,神奈川県,横須賀市,若松町３丁目４番地ファーストビル３階,,14,201,2380007,,,2022-07-22,清算の結了等,,,2015-10-05,1,,,,,キッズルームサクランボゥ,0
876,4040001046398,登記記録の閉鎖等,0,2022-07-28,2022-07-15,株式会社ダイタツコーポレーション,,株式会社,千葉県,白井市,堀込２丁目１番５棟４０２号,,12,232,2701424,,,2022-07-15,清算の結了等,,,2015-10-05,1,,,,,ダイタツコーポレーション,0
899,4080102007700,登記記録の閉鎖等,0,2022-07-28,2022-07-26,有限会社前之原,,有限会社,静岡県,御殿場市,茱萸沢１２７６番地,,22,215,4120041,,,2022-07-26,清算の結了等,,,2015-10-05,1,,,,,マエノハラ,0
911,4120001069201,登記記録の閉鎖等,0,2022-07-28,2022-07-05,阪急観光バス株式会社,,株式会社,大阪府,大阪市北区,中津７丁目７番１９号,,27,127,5310071,,,2022-07-05,合併による解散等,4120901019437,令和４年７月１日大阪府豊中市螢池西町二丁目１７番３号大阪空港交通株式会社（4120901019437）に合併し解散,2015-10-05,1,,,,,ハンキュウカンコウバス,0
946,4120905005144,登記記録の閉鎖等,0,2022-07-28,2022-07-26,ＮＰＯ法人摂津市断酒会,,その他の設立登記法人,大阪府,摂津市,一津屋１丁目１１番１６号,,27,224,5660043,,,2022-07-26,清算の結了等,,,2015-10-05,1,,,,,セッツシダンシュカイ,0
947,4130001008430,登記記録の閉鎖等,0,2022-07-28,2022-07-20,株式会社アステンコック,,株式会社,京都府,京都市西京区,樫原秤谷町４４番地の４,,26,111,6158158,,,2022-07-20,清算の結了等,,,2015-10-05,1,,,,,アステンコック,0
963,4150002000772,登記記録の閉鎖等,0,2022-07-28,2022-07-26,有限会社三和車体工業,,有限会社,奈良県,奈良市,西ノ京町１８９番地,,29,201,6308042,,,2022-07-26,清算の結了等,,,2015-10-05,1,,,,,サンワシャタイコウギョウ,0
975,4180002006718,登記記録の閉鎖等,0,2022-07-28,2022-07-25,有限会社当知動物病院,,有限会社,愛知県,名古屋市港区,入場１丁目６０４番地,,23,111,4550803,,,2022-07-25,清算の結了等,,,2015-10-05,1,,,,,トウチドウブツビョウイン,0
988,4220002004915,登記記録の閉鎖等,0,2022-07-28,2022-07-22,有限会社広坂グループ,,有限会社,石川県,金沢市,福久町へ９番地１,,17,201,9203122,,,2022-07-22,清算の結了等,,,2015-10-05,1,,,,,ヒロサカグループ,0
1001,4250005007111,登記記録の閉鎖等,0,2022-07-28,2022-06-30,天理教大屋島分教会,,その他の設立登記法人,山口県,大島郡周防大島町,大字西屋代１６１０番地,,35,305,7422103,,,2022-06-30,合併による解散等,7250005005434,令和４年６月３０日山口県周南市二番町二丁目８番地天理教都山分教会（7250005005434）に合併し解散,2015-10-05,1,,,,,,0
1008,4290001028693,登記記録の閉鎖等,0,2022-07-28,2022-07-15,株式会社ルートロワイヤル,,株式会社,福岡県,福岡市中央区,大濠２丁目１３番２６号レジデンス大濠２０２,,40,133,8100052,,,2022-07-15,清算の結了等,,,2015-10-05,1,,,,,ルートロワイヤル,0
1014,4290805009419,登記記録の閉鎖等,0,2022-07-28,2022-07-20,一般社団法人ＺＥＲＯ　Ｇｒａｖｉｔｙ,,その他の設立登記法人,福岡県,京都郡苅田町,大字提３２８９番地１２,,40,621,8000364,,,2022-07-20,清算の結了等,,,2021-04-05,1,,,,,ゼログラビティ,0
1020,4340001006628,登記記録の閉鎖等,0,2022-07-28,2022-07-26,株式会社サンホーム,,株式会社,鹿児島県,鹿児島市,下荒田１丁目１１番２号,,46,201,8900056,,,2022-07-26,清算の結了等,,,2015-10-05,1,,,,,,0
1025,4370001041283,登記記録の閉鎖等,0,2022-07-28,2022-07-12,株式会社スズキ建商,,株式会社,宮城県,仙台市太白区,袋原６丁目１３番３２号,,04,104,9811102,,,2022-07-12,清算の結了等,,,2017-04-11,1,,,,,スズキケンショウ,0
1034,4410002005910,登記記録の閉鎖等,0,2022-07-28,2022-07-15,有限会社みうら工業,,有限会社,秋田県,潟上市,天王字北野３０２番地１０３,,05,211,0100201,,,2022-07-15,清算の結了等,,,2015-10-05,1,,,,,ミウラコウギョウ,0
1037,4420005005361,登記記録の閉鎖等,0,2022-07-28,2022-07-22,高舘生産森林組合,,その他の設立登記法人,青森県,黒石市,大字高舘字丁高原２１番地,00088140,02,204,0360535,,,2022-07-22,清算の結了等,,,2015-10-05,1,,,,,タカダテ,0
1051,4500001010266,登記記録の閉鎖等,0,2022-07-28,2022-07-26,株式会社船本工務店,,株式会社,愛媛県,新居浜市,中西町１４番５１号,,38,205,7920834,,,2022-07-26,清算の結了等,,,2015-10-05,1,,,,,フナモトコウムテン,0
1061,5010001198092,登記記録の閉鎖等,0,2022-07-28,2022-07-21,株式会社Ｇｒｅｅｎ　Ｇｏｌｆ　Ｍａｎａｇｅｍｅｎｔ,,株式会社,東京都,品川区,東品川４丁目１２番４号,,13,109,1400002,,,2022-07-21,合併による解散等,2010001188749,令和４年７月１日東京都品川区東品川四丁目１２番４号ネクスト・ゴルフ・マネジメント株式会社（2010001188749）に合併し解散,2019-01-28,1,,,,,グリーンゴルフマネジメント,0
1072,5010101012772,登記記録の閉鎖等,0,2022-07-28,2022-07-14,エヌ・エヌメンテナンス株式会社,,株式会社,東京都,八王子市,中野上町２丁目３１番１号,,13,201,1920041,,,2022-07-14,清算の結了等,,,2017-04-07,1,,,,,,0
1078,5010401159223,登記記録の閉鎖等,0,2022-07-28,2022-07-07,株式会社スマッシュ新設会社,,株式会社,東京都,港区,南麻布３丁目１７番１４号,,13,103,1060047,,,2022-07-07,合併による解散等,7010401015267,令和４年７月１日東京都港区南麻布三丁目１７番１４号株式会社スマツシユ（7010401015267）に合併し解散,2021-04-05,1,,,,,スマッシュシンセツガイシャ,0
1114,5011802027217,登記記録の閉鎖等,0,2022-07-28,2022-07-22,有限会社キッズアイ,,有限会社,東京都,葛飾区,鎌倉４丁目２２番４号,,13,122,1250053,,,2022-07-22,清算の結了等,,,2015-10-05,1,,,,,,0
1140,5021001023306,登記記録の閉鎖等,0,2022-07-28,2022-07-21,株式会社リアルフィールド,,株式会社,神奈川県,厚木市,温水２２２５番地３２,,14,212,2430033,,,2022-07-21,清算の結了等,,,2015-10-05,1,,,,,リアルフィールド,0
1141,5021001024386,登記記録の閉鎖等,0,2022-07-28,2022-07-22,株式会社ＣＭＣ,,株式会社,神奈川県,愛甲郡愛川町,田代２１０番地の２,,14,401,2430306,,,2022-07-22,清算の結了等,,,2015-10-05,1,,,,,シーエムシー,0
1153,5030001039030,登記記録の閉鎖等,0,2022-07-28,2022-07-25,株式会社冨居興業,,株式会社,東京都,新宿区,大久保３丁目１０番１－７０３号,,13,104,1690072,,,2022-07-25,清算の結了等,,,2015-10-05,1,,,,,トミイコウギョウ,0
1160,5040001079174,登記記録の閉鎖等,0,2022-07-28,2022-07-20,株式会社ディー・ラボ,,株式会社,千葉県,市原市,青葉台３丁目４番地１７,,12,219,2990117,,,2022-07-20,清算の結了等,,,2015-10-05,1,,,,,ディーラボ,0
1181,5090002010884,登記記録の閉鎖等,0,2022-07-28,2022-07-22,有限会社笛吹商事,,有限会社,山梨県,山梨市,市川２７７番地６,,19,205,4050044,,,2022-07-22,清算の結了等,,,2015-10-05,1,,,,,,0
1189,5120001117000,登記記録の閉鎖等,0,2022-07-28,2022-07-26,株式会社Ａ．ｔ,,株式会社,大阪府,大阪市西成区,南津守１丁目５番５９号,,27,122,5570063,,,2022-07-26,清算の結了等,,,2015-10-05,1,,,,,エーティー,0
1197,5120001234142,登記記録の閉鎖等,0,2022-07-28,2022-07-14,成蹊株式会社,,株式会社,大阪府,大阪市西成区,千本南１丁目１７番２１号２０２－Ｂ室,,27,122,5570055,,,2022-07-14,清算の結了等,,,2021-01-22,1,,,,,セイケイ,0
1201,5120002025425,登記記録の閉鎖等,0,2022-07-28,2022-07-19,有限会社トレンドエステート,,有限会社,大阪府,大阪市東淀川区,東中島４丁目１１番３－７０４号,,27,114,5330033,,,2022-07-19,清算の結了等,,,2015-10-05,1,,,,,トレンドエステート,0
1219,5140001039390,登記記録の閉鎖等,0,2022-07-28,2022-07-22,株式会社しんぐう,,株式会社,兵庫県,宍粟市,一宮町伊和５９６番地の１,,28,227,6714134,,,2022-07-22,清算の結了等,,,2015-10-05,1,,,,,シングウ,0
1234,5180001112739,登記記録の閉鎖等,0,2022-07-28,2022-07-25,株式会社ヴィトゥルース,,株式会社,愛知県,名古屋市西区,浮野町１０９番地の１,,23,104,4520846,,,2022-07-25,清算の結了等,,,2015-10-05,1,,,,,ビトゥルース,0
1238,5180002070630,登記記録の閉鎖等,0,2022-07-28,2022-07-25,有限会社武田建築,,有限会社,愛知県,小牧市,大字西之島１６８０番地の２１,,23,219,4850077,,,2022-07-25,清算の結了等,,,2015-10-05,1,,,,,タケダケンチク,0
1241,5200001020971,登記記録の閉鎖等,0,2022-07-28,2022-07-26,株式会社ブライダル二十一,,株式会社,岐阜県,多治見市,平井町６丁目３１番地の２,,21,204,5070058,,,2022-07-26,清算の結了等,,,2015-10-05,1,,,,,ブライダルニジュウイチ,0
1254,5250002001025,登記記録の閉鎖等,0,2022-07-28,2022-07-22,有限会社テックケィズ,,有限会社,山口県,山口市,黒川２６６０番地の１０２,,35,203,7530851,,,2022-07-22,清算の結了等,,,2015-10-05,1,,,,,テックケイズ,0
1259,5260003003226,登記記録の閉鎖等,0,2022-07-28,2022-07-27,Ｌｅｏ　ＧＫ合同会社,,合同会社,岡山県,岡山市南区,東畦８２番地３８,,33,104,7010211,,,2022-07-27,合併による解散等,4260001033366,令和４年７月２７日岡山市北区下中野５６４番地８Ｃｈｉｈｉｒｏ’ｓカンパニィー株式会社（4260001033366）に合併し解散,2020-06-11,1,,,,,レオジーケー,0
1260,5270002002401,登記記録の閉鎖等,0,2022-07-28,2022-07-22,有限会社岩美牛乳,,有限会社,鳥取県,岩美郡岩美町,大字浦富１５２９番地,,31,302,6810003,,,2022-07-22,清算の結了等,,,2015-10-05,1,,,,,イワミギュウニュウ,0
1265,5290801018208,登記記録の閉鎖等,0,2022-07-28,2022-07-26,アムスター交易株式会社,,株式会社,福岡県,北九州市八幡西区,里中２丁目１９番３６号,,40,109,8070846,,,2022-07-26,清算の結了等,,,2015-10-05,1,,,,,アムスターコウエキ,0
1287,5380001015038,登記記録の閉鎖等,0,2022-07-28,2022-07-20,株式会社福島ポート商事,,株式会社,福島県,いわき市,小名浜花畑町１０番地の７,,07,204,9718162,,,2022-07-20,清算の結了等,,,2015-10-05,1,,,,,フクシマポートショウジ,0
1291,5390003001002,登記記録の閉鎖等,0,2022-07-28,2022-07-19,合同会社桧木,,合同会社,山形県,西置賜郡白鷹町,大字菖蒲１０４番地１,,06,402,9920863,,,2022-07-19,清算の結了等,,,2015-10-05,1,,,,,ヒノキ,0
1309,5460105000266,登記記録の閉鎖等,0,2022-07-28,2022-07-25,帯広エルピーガス協同組合,,その他の設立登記法人,北海道,帯広市,西三条北１丁目２０－２,,01,207,0800033,,,2022-07-25,清算の結了等,,,2015-10-05,1,,,,,オビヒロエルピーガス,0
1314,6010001027325,登記記録の閉鎖等,0,2022-07-28,2022-07-21,株式会社ＰＣＭ竹尾,,株式会社,東京都,千代田区,神田錦町３丁目１２番地６,,13,101,1010054,,,2022-07-21,清算の結了等,,,2015-10-05,1,,,,,ピーシーエムタケオ,0
1316,6010001166148,登記記録の閉鎖等,0,2022-07-28,2022-07-11,株式会社ボンヘルスヌトリエント研究所,,株式会社,東京都,文京区,向丘２丁目１２番３号,,13,105,1130023,,,2022-07-11,清算の結了等,,,2015-10-05,1,,,,,ボンヘルスヌトリエントケンキュウショ,0
1318,6010001217248,登記記録の閉鎖等,0,2022-07-28,2022-07-11,株式会社ａｌｙｓｓｕｍ　ｂｅａｕｔｙ,,株式会社,東京都,目黒区,三田２丁目１０番１５－３０３号クレイオ三田,,13,110,1530062,,,2022-07-11,清算の結了等,,,2021-04-13,1,,,,,アリッサムビューティー,0
1333,6010501032568,登記記録の閉鎖等,0,2022-07-28,2022-07-27,株式会社理想,,株式会社,東京都,台東区,寿３丁目１９番２号,,13,106,1110042,,,2022-07-27,清算の結了等,,,2015-10-05,1,,,,,リソウ,0
1348,6011001128765,登記記録の閉鎖等,0,2022-07-28,2022-07-12,株式会社リップススタイル,,株式会社,東京都,世田谷区,北沢３丁目２６番１５号,,13,112,1550031,,,2022-07-12,合併による解散等,1011201023639,令和４年７月１日東京都中野区弥生町五丁目９番２１号株式会社リップススタイル（1011201023639）に合併し解散,2019-07-05,1,,,,,リップススタイル,0
1373,6020001096641,登記記録の閉鎖等,0,2022-07-28,2022-07-15,株式会社どん,,株式会社,神奈川県,川崎市高津区,下作延１丁目２番６号,,14,134,2130033,,,2022-07-15,清算の結了等,,,2015-10-05,1,,,,,ドン,0
1399,6040002012331,登記記録の閉鎖等,0,2022-07-28,2022-07-15,有限会社よしみつ,,有限会社,千葉県,千葉市花見川区,三角町２３０番地の６,,12,102,2620011,,,2022-07-15,清算の結了等,,,2015-10-05,1,,,,,ヨシミツ,0
1410,6070001021850,登記記録の閉鎖等,0,2022-07-28,2022-07-12,泰世産業株式会社,,株式会社,群馬県,邑楽郡明和町,斗合田１７２番地,,10,522,3700704,,,2022-07-12,清算の結了等,,,2015-10-05,1,,,,,タイセイサンギョウ,0
1437,6120101062112,登記記録の閉鎖等,0,2022-07-28,2022-07-25,株式会社ＷＯＲＬＤ　ＣＡＢＩＮ関西,,株式会社,大阪府,羽曳野市,向野３丁目２番２１号,,27,222,5830883,,,2022-07-25,合併による解散等,1011101051979,令和４年７月１日東京都港区東新橋一丁目１番１９号ヤクルト本社ビル１１階株式会社ＡＬＥＸＡＮＤＥＲ＆ＳＵＮ（1011101051979）に合併し解散,2020-08-04,1,,,,,ワールドキャビンカンサイ,0
1443,6122001030520,登記記録の閉鎖等,0,2022-07-28,2022-07-19,株式会社ニシガキ,,株式会社,大阪府,東大阪市,西石切町７丁目６番７号,,27,227,5798013,,,2022-07-19,清算の結了等,,,2017-04-20,1,,,,,ニシガキ,0
1444,6122002003203,登記記録の閉鎖等,0,2022-07-28,2022-07-15,有限会社出口冷機工業,,有限会社,大阪府,東大阪市,布市町１丁目６番３２号,,27,227,5798004,,,2022-07-15,清算の結了等,,,2015-10-05,1,,,,,デグチレイキコウギョウ,0
1447,6130001035596,登記記録の閉鎖等,0,2022-07-28,2022-07-15,株式会社三宏,,株式会社,京都府,亀岡市,＿田野町鹿谷浄門５０番地,00036250,26,206,6210037,,,2022-07-15,清算の結了等,,,2015-10-05,1,,,,,サンコウ,0
1468,6160001016494,登記記録の閉鎖等,0,2022-07-28,2022-07-25,株式会社ピースプラウト,,株式会社,滋賀県,大津市,比叡平１丁目３８番２４号,,25,201,5200016,,,2022-07-25,清算の結了等,,,2015-10-05,1,,,,,ピースプラウト,0
1473,6180001087419,登記記録の閉鎖等,0,2022-07-28,2022-07-25,株式会社コイケ商事,,株式会社,愛知県,江南市,古知野町北屋敷２２番地,,23,217,4838272,,,2022-07-25,清算の結了等,,,2015-10-05,1,,,,,コイケショウジ,0
1479,6180005003875,登記記録の閉鎖等,0,2022-07-28,2022-07-25,名古屋理容美容協同組合,,その他の設立登記法人,愛知県,名古屋市中村区,稲葉地本通３丁目３６番地,,23,105,4530057,,,2022-07-25,清算の結了等,,,2015-10-05,1,,,,,ナゴヤリヨウビヨウ,0
1480,6180005007538,登記記録の閉鎖等,0,2022-07-28,2022-07-26,特定非営利活動法人ゴジラの会,,その他の設立登記法人,愛知県,名古屋市南区,六条町４丁目５３番地,,23,112,4570853,,,2022-07-26,清算の結了等,,,2015-10-05,1,,,,,ゴジラノカイ,0
1498,6240001021619,登記記録の閉鎖等,0,2022-07-28,2022-07-26,株式会社木坂木工,,株式会社,広島県,広島市西区,井口明神２丁目１３番７－２０１号,,34,104,7330841,,,2022-07-26,清算の結了等,,,2015-10-05,1,,,,,キサカモッコウ,0
1505,6250002007112,登記記録の閉鎖等,0,2022-07-28,2022-07-25,有限会社ハラノ住設,,有限会社,山口県,山陽小野田市,大字東高泊６４４番地の１,,35,216,7560088,,,2022-07-25,清算の結了等,,,2015-10-05,1,,,,,,0
1530,6410001008417,登記記録の閉鎖等,0,2022-07-28,2022-07-21,株式会社米結び,,株式会社,秋田県,大仙市,下深井字鰌沼３番地,,05,212,0140065,,,2022-07-21,清算の結了等,,,2015-10-05,1,,,,,コメムスビ,0
1584,7011201013378,登記記録の閉鎖等,0,2022-07-28,2022-07-15,株式会社ヒューマンズ・ビィ,,株式会社,東京都,中野区,中野１丁目５３番２号,,13,114,1640001,,,2022-07-15,清算の結了等,,,2015-10-05,1,,,,,ヒューマンズビィ,0
1586,7011302003641,登記記録の閉鎖等,0,2022-07-28,2022-07-26,有限会社小島紙器製作所,,有限会社,東京都,杉並区,成田東３丁目２番７－４号,,13,115,1660015,,,2022-07-26,清算の結了等,,,2015-10-05,1,,,,,コジマシキセイサクショ,0
1598,7011701024651,登記記録の閉鎖等,0,2022-07-28,2022-07-27,真輝商事株式会社,,株式会社,東京都,江戸川区,東小松川４丁目５４番８号,,13,123,1320033,,,2022-07-27,清算の結了等,,,2021-08-23,1,,,,,マサキショウジ,0
1604,7011801027158,登記記録の閉鎖等,0,2022-07-28,2022-07-22,株式会社大日本防水,,株式会社,東京都,足立区,加平２丁目１２番１５号,,13,121,1210055,,,2022-07-22,清算の結了等,,,2015-10-05,1,,,,,ダイニホンボウスイ,0
1609,7012302002609,登記記録の閉鎖等,0,2022-07-28,2022-07-26,有限会社末広商事,,有限会社,東京都,町田市,鶴川４丁目４番地２６,,13,209,1950061,,,2022-07-26,清算の結了等,,,2015-10-05,1,,,,,スエヒロショウジ,0
1627,7020002065347,登記記録の閉鎖等,0,2022-07-28,2022-07-11,株式会社坂本畳店,,株式会社,神奈川県,横浜市神奈川区,西神奈川１丁目９番３号,,14,102,2210822,,,2022-07-11,合併による解散等,5012402011156,令和４年７月１日東京都調布市国領町七丁目１番地１株式会社坂本畳店（5012402011156）に合併し解散,2015-10-05,1,,,,,,0
1640,7030002004568,登記記録の閉鎖等,0,2022-07-28,2022-07-13,有限会社建築屋今川,,有限会社,埼玉県,さいたま市緑区,大字南部領辻３２３１番地２,00015950,11,109,3360973,,,2022-07-13,清算の結了等,,,2015-10-05,1,,,,,,0
1651,7040002061897,登記記録の閉鎖等,0,2022-07-28,2022-07-14,有限会社印旛物流サービス,,有限会社,千葉県,八街市,八街は５０番地４,,12,230,2891107,,,2022-07-14,清算の結了等,,,2015-10-05,1,,,,,インバブツリュウサービス,0
1652,7040002091390,登記記録の閉鎖等,0,2022-07-28,2022-07-15,有限会社富士建鉄,,有限会社,千葉県,柏市,藤心９６２番地,,12,217,2770034,,,2022-07-15,清算の結了等,,,2015-10-05,1,,,,,フジケンテツ,0
1658,7050002025372,登記記録の閉鎖等,0,2022-07-28,2022-07-19,有限会社わたらせ交通バス,,有限会社,茨城県,古河市,諸川１５０２番地５,,08,204,3060126,,,2022-07-19,清算の結了等,,,2015-10-05,1,,,,,ワタラセコウツウバス,0
1679,7120001182604,登記記録の閉鎖等,0,2022-07-28,2022-07-25,株式会社クリア,,株式会社,兵庫県,神戸市中央区,御幸通４丁目２番１５号,,28,110,6510087,,,2022-07-25,清算の結了等,,,2015-10-05,1,,,,,クリア,0
1682,7120101064421,登記記録の閉鎖等,0,2022-07-28,2022-07-25,株式会社國岡フードシステム,,株式会社,大阪府,堺市中区,深井水池町３１３９番地コスモ深井２０９号,,27,142,5998237,,,2022-07-25,清算の結了等,,,2021-10-07,1,,,,,クニオカフードシステム,0
1687,7120903001720,登記記録の閉鎖等,0,2022-07-28,2022-07-26,海楽合同会社,,合同会社,大阪府,茨木市,東太田１丁目５番１０３号,,27,211,5670012,,,2022-07-26,清算の結了等,,,2015-10-05,1,,,,,カイラク,0
1715,7180003015649,登記記録の閉鎖等,0,2022-07-28,2022-07-25,合同会社ＬＩＢＲＡ,,合同会社,愛知県,瀬戸市,上之山町３丁目１８７番地の２,,23,204,4890964,,,2022-07-25,清算の結了等,,,2015-10-05,1,,,,,リブラ,0
1718,7180305000761,登記記録の閉鎖等,0,2022-07-28,2022-07-19,医療法人大竹医院,,その他の設立登記法人,愛知県,岡崎市,明大寺町字川端２０番地,,23,202,4440864,,,2022-07-19,清算の結了等,,,2015-10-05,1,,,,,オオタケイイン,0
1722,7200001000360,登記記録の閉鎖等,0,2022-07-28,2022-07-27,株式会社伊藤時計店,,株式会社,岐阜県,岐阜市,長良福光２４０５番地の１,,21,201,5020817,,,2022-07-27,清算の結了等,,,2015-10-05,1,,,,,イトウトケイテン,0
1724,7200001002200,登記記録の閉鎖等,0,2022-07-28,2022-07-27,株式会社サンクローバー,,株式会社,岐阜県,岐阜市,茜部中島１丁目１４１番地,,21,201,5008269,,,2022-07-27,清算の結了等,,,2015-10-05,1,,,,,,0
1731,7240002040435,登記記録の閉鎖等,0,2022-07-28,2022-07-26,株式会社ケーアールコーポレーション,,株式会社,広島県,福山市,加茂町大字下加茂１８２番地の１,,34,207,7202412,,,2022-07-26,清算の結了等,,,2015-10-05,1,,,,,ケーアールコーポレーション,0
1744,7290005010835,登記記録の閉鎖等,0,2022-07-28,2022-07-27,特定非営利活動法人ワンハート陽だまり,,その他の設立登記法人,福岡県,小郡市,小郡１０９５番地１,,40,216,8380141,,,2022-07-27,清算の結了等,,,2015-10-05,1,,,,,ワンハートヒダマリ,0
1773,7380002012726,登記記録の閉鎖等,0,2022-07-28,2022-07-20,有限会社森根設備設計事務所,,有限会社,福島県,郡山市,安積町笹川字北向２番地の８７,,07,203,9630102,,,2022-07-20,清算の結了等,,,2015-10-05,1,,,,,モリネセツビセッケイジムショ,0
1774,7380005010314,登記記録の閉鎖等,0,2022-07-28,2022-07-21,一般社団法人ふくしま原発避難子供・若者支援機構,,その他の設立登記法人,福島県,福島市,中町５番１８号,,07,201,9608043,,,2022-07-21,清算の結了等,,,2015-10-05,1,,,,,フクシマゲンパツヒナンコドモワカモノシエンキコウ,0
1778,7400601000541,登記記録の閉鎖等,0,2022-07-28,2022-07-25,東北シントク工業株式会社,,株式会社,岩手県,奥州市,胆沢小山字長根２１番地１,,03,215,0230402,,,2022-07-25,合併による解散等,2010401013300,令和４年７月１日東京都港区芝三丁目１４番６号シントク工業株式会社（2010401013300）に合併し解散,2015-10-05,1,,,,,トウホクシントクコウギョウ,0
1781,7430001048947,登記記録の閉鎖等,0,2022-07-28,2022-07-08,株式会社ポパイ遊技場,,株式会社,北海道,赤平市,本町１丁目２番地,,01,218,0791136,,,2022-07-08,清算の結了等,,,2015-10-05,1,,,,,ポパイユウギジョウ,0
1789,7430002045349,登記記録の閉鎖等,0,2022-07-28,2022-07-13,有限会社ウエダ,,有限会社,北海道,江別市,四条３丁目１８番地,,01,217,0670014,,,2022-07-13,清算の結了等,,,2015-10-05,1,,,,,ウエダ,0
1790,7450002004815,登記記録の閉鎖等,0,2022-07-28,2022-07-27,有限会社ホシケン,,有限会社,北海道,上川郡比布町,南町１丁目１番２４号,,01,455,0780345,,,2022-07-27,清算の結了等,,,2015-10-05,1,,,,,ホシケン,0
1850,8011101096687,登記記録の閉鎖等,0,2022-07-28,2022-07-15,株式会社ナースのみかた,,株式会社,東京都,新宿区,若葉１丁目６－１－１１５,,13,104,1600011,,,2022-07-15,清算の結了等,,,2021-11-02,1,,,,,ナースノミカタ,0
1869,8011702013561,登記記録の閉鎖等,0,2022-07-28,2022-07-25,有限会社カタ企画,,有限会社,東京都,江戸川区,東葛西１丁目４２番１８号,,13,123,1340084,,,2022-07-25,清算の結了等,,,2015-10-05,1,,,,,カタキカク,0
1885,8020002004139,登記記録の閉鎖等,0,2022-07-28,2022-07-15,有限会社栗田建材店,,有限会社,神奈川県,横浜市緑区,長津田町５００６番地３,,14,113,2260026,,,2022-07-15,清算の結了等,,,2015-10-05,1,,,,,クリタケンザイテン,0
1890,8021002015456,登記記録の閉鎖等,0,2022-07-28,2022-07-22,有限会社ヒバリメンズショップ,,有限会社,神奈川県,茅ヶ崎市,松林２丁目７番７号,,14,207,2530017,,,2022-07-22,清算の結了等,,,2015-10-05,1,,,,,ヒバリメンズショップ,0
1921,8070001022285,登記記録の閉鎖等,0,2022-07-28,2022-07-12,株式会社ラフ,,株式会社,群馬県,邑楽郡明和町,梅原５８８番地,,10,522,3700714,,,2022-07-12,清算の結了等,,,2015-10-05,1,,,,,ラフ,0
1951,8120005009109,登記記録の閉鎖等,0,2022-07-28,2022-07-22,特定非営利活動法人建築コストセンター,,その他の設立登記法人,大阪府,大阪市中央区,東心斎橋１丁目３番１０号,,27,128,5420083,,,2022-07-22,清算の結了等,,,2015-10-05,1,,,,,ケンチクコストセンター,0
1961,8122001035088,登記記録の閉鎖等,0,2022-07-28,2022-07-19,ダイイチハウス株式会社,,株式会社,大阪府,八尾市,久宝寺６丁目６番５８号,,27,212,5810072,,,2022-07-19,清算の結了等,,,2021-08-19,1,,,,,ダイイチハウス,0
1969,8140001040899,登記記録の閉鎖等,0,2022-07-28,2022-07-21,株式会社アーバンピュア,,株式会社,兵庫県,丹波市,市島町下竹田９７番地の３,,28,223,6694301,,,2022-07-21,清算の結了等,,,2015-10-05,1,,,,,アーバンピュア,0
2014,8240001034668,登記記録の閉鎖等,0,2022-07-28,2022-07-26,株式会社ケイワイケイ福山,,株式会社,広島県,福山市,加茂町大字下加茂１８２番地の１,,34,207,7202412,,,2022-07-26,清算の結了等,,,2015-10-05,1,,,,,ケイワイケイフクヤマ,0
2025,8280002009871,登記記録の閉鎖等,0,2022-07-28,2022-07-26,有限会社岡崎,,有限会社,島根県,益田市,白上町イ１０４８番地８,,32,204,6982141,,,2022-07-26,清算の結了等,,,2015-10-05,1,,,,,オカザキ,0
2034,8310001004317,登記記録の閉鎖等,0,2022-07-28,2022-07-26,株式会社タガワ,,株式会社,長崎県,長崎市,田上４丁目４番５号,,42,201,8510251,,,2022-07-26,清算の結了等,,,2015-10-05,1,,,,,タガワ,0
2067,8490001000694,登記記録の閉鎖等,0,2022-07-28,2022-07-22,株式会社高知流通情報サービス,,株式会社,高知県,高知市,南久保１１番２３号,,39,201,7800087,,,2022-07-22,清算の結了等,,,2015-10-05,1,,,,,コウチリュウツウジョウホウサービス,0
2085,9010002004790,登記記録の閉鎖等,0,2022-07-28,2022-07-11,有限会社パトラ,,有限会社,東京都,文京区,本駒込６丁目１４番１４－５０７号,,13,105,1130021,,,2022-07-11,清算の結了等,,,2015-10-05,1,,,,,パトラ,0
2090,9010003032857,登記記録の閉鎖等,0,2022-07-28,2022-07-11,ｔａｃｈｉｋｏｇｉ合同会社,,合同会社,東京都,文京区,本郷２丁目２０番１号,,13,105,1130033,,,2022-07-11,清算の結了等,,,2020-08-18,1,,,,,タチコギ,0
2101,9010501035270,登記記録の閉鎖等,0,2022-07-28,2022-07-22,ＩＣＰＡ国際文化促進会株式会社,,株式会社,東京都,練馬区,中村北１丁目１１－６プラウドタワー練馬２２０８号室,,13,120,1760023,,,2022-07-22,清算の結了等,,,2015-10-05,1,,,,,アイシーピーエイコクサイブンカソクシンカイ,0
2118,9011002007073,登記記録の閉鎖等,0,2022-07-28,2022-07-04,有限会社善美堂,,有限会社,東京都,渋谷区,渋谷１丁目１番１０号,,13,113,1500002,,,2022-07-04,清算の結了等,,,2015-10-05,1,,,,,,0
2151,9013405000373,登記記録の閉鎖等,0,2022-07-28,2022-07-13,特定非営利活動法人熱帯海洋生物環境保全研究会,,その他の設立登記法人,東京都,日野市,大坂上４丁目１３番３号コーシャハイム日野大坂上１号棟１０４号室,,13,212,1910061,,,2022-07-13,清算の結了等,,,2015-10-05,1,,,,,ネッタイカイヨウセイブツカンキョウホゼンケンキュウカイ,0
2171,9030001068389,登記記録の閉鎖等,0,2022-07-28,2022-07-15,啓悦電子株式会社,,株式会社,埼玉県,越谷市,千間台西２丁目１８番１号,,11,222,3430041,,,2022-07-15,清算の結了等,,,2015-10-05,1,,,,,,0
2179,9030002029324,登記記録の閉鎖等,0,2022-07-28,2022-07-11,有限会社彩コーポレーション,,有限会社,埼玉県,所沢市,美原町３丁目２９４４番地の２ワイズユウラク新所沢６０３,,11,208,3590045,,,2022-07-11,清算の結了等,,,2015-10-05,1,,,,,サイコーポレーション,0
2193,9050005007275,登記記録の閉鎖等,0,2022-07-28,2022-07-19,Ｅテック協同組合,,その他の設立登記法人,茨城県,日立市,助川町２丁目６番９号,,08,202,3170065,,,2022-07-19,清算の結了等,,,2015-10-05,1,,,,,イーテック,0
2200,9080401004658,登記記録の閉鎖等,0,2022-07-28,2022-07-26,株式会社フェニックステクノ,,株式会社,静岡県,浜松市中区,砂山町３５５－４、４階,,22,131,4300926,,,2022-07-26,清算の結了等,,,2015-10-05,1,,,,,フェニックステクノ,0
2219,9122002005254,登記記録の閉鎖等,0,2022-07-28,2022-07-19,有限会社ラタン今枝,,有限会社,大阪府,東大阪市,柏田東町３番３４号,,27,227,5770833,,,2022-07-19,清算の結了等,,,2015-10-05,1,,,,,ラタンイマエダ,0
2229,9140002030626,登記記録の閉鎖等,0,2022-07-28,2022-07-20,株式会社エムズ・インダストリー,,株式会社,兵庫県,三木市,加佐１０１番地の１,,28,215,6730402,,,2022-07-20,清算の結了等,,,2015-10-05,1,,,,,エムズインダストリー,0
2230,9140002064599,登記記録の閉鎖等,0,2022-07-28,2022-07-22,大京有限会社,,有限会社,兵庫県,川西市,清和台東１丁目４番地の６２,,28,217,6660142,,,2022-07-22,清算の結了等,,,2015-10-05,1,,,,,ダイキョウ,0
2250,9220002008746,登記記録の閉鎖等,0,2022-07-28,2022-07-25,有限会社竹内工務店,,有限会社,石川県,白山市,長屋町イ７９番地１,,17,210,9290214,,,2022-07-25,清算の結了等,,,2015-10-05,1,,,,,タケウチコウムテン,0
2282,9370602000617,登記記録の閉鎖等,0,2022-07-28,2022-07-14,有限会社光装,,有限会社,宮城県,多賀城市,桜木２丁目３番１５号,,04,209,9850842,,,2022-07-14,清算の結了等,,,2015-10-05,1,,,,,コウソウ,0
2286,9380002003277,登記記録の閉鎖等,0,2022-07-28,2022-07-19,有限会社福島ヤツダ,,有限会社,福島県,福島市,瀬上町字東町２丁目３番地の２,,07,201,9600101,,,2022-07-19,清算の結了等,,,2015-10-05,1,,,,,,0
2299,9480005003438,登記記録の閉鎖等,0,2022-07-28,2022-07-27,宗教法人心行全能教会,,その他の設立登記法人,徳島県,鳴門市,撫養町南浜字権現８１番地の５,,36,202,7720003,,,2022-07-27,清算の結了等,,,2015-10-05,1,,,,,シンギョウゼンノウキョウカイ,0
2302,9490005002851,登記記録の閉鎖等,0,2022-07-28,2022-07-19,特定非営利活動法人ほっとハート,,その他の設立登記法人,高知県,四万十市,駅前町１５番１３号,,39,210,7870014,,,2022-07-19,清算の結了等,,,2015-10-05,1,,,,,ホットハート,0
2303,9500001015203,登記記録の閉鎖等,0,2022-07-28,2022-07-26,株式会社サンワ,,株式会社,愛媛県,四国中央市,土居町津根３６２４番地,,38,213,7990704,,,2022-07-26,清算の結了等,,,2015-10-05,1,,,,,サンワ,0
