sequenceNumber,corporateNumber,process,correct,updateDate,changeDate,name,nameImageId,kind,prefectureName,cityName,streetNumber,addressImageId,prefectureCode,cityCode,postCode,addressOutside,addressOutsideImageId,closeDate,closeCause,successorCorporateNumber,changeCause,assignmentDate,latest,enName,enPrefectureName,enCityName,enAddressOutside,furigana,hihyoji
9,1010001220446,新規,0,2021-08-17,2021-08-17,株式会社ＦＵＲＡＧＥ,,株式会社,東京都,中央区,湊３丁目５番７号,,13,102,1040043,,,,,,,2021-08-17,1,,,,,フラジ,0
10,1010001220512,新規,0,2021-08-17,2021-08-17,株式会社ポンドピエール,,株式会社,東京都,千代田区,神田小川町２丁目１４番地,,13,101,1010052,,,,,,,2021-08-17,1,,,,,ポンドピエール,0
17,1010401162123,新規,0,2021-08-17,2021-08-17,株式会社ＯＭＵ,,株式会社,東京都,港区,南青山４丁目１７番３５号,,13,103,1070062,,,,,,,2021-08-17,1,,,,,オム,0
18,1010401162172,新規,0,2021-08-17,2021-08-17,株式会社サウスゴルフアカデミー,,株式会社,東京都,港区,港南２丁目１６－４品川グランドセントラルタワー１７階,,13,103,1080075,,,,,,,2021-08-17,1,,,,,サウスゴルフアカデミー,0
19,1010403025914,新規,0,2021-08-17,2021-08-17,合同会社ユージーン７,,合同会社,東京都,港区,南青山７丁目５番１６－３０１号,,13,103,1070062,,,,,,,2021-08-17,1,,,,,ユージーンセブン,0
26,1010603009097,新規,0,2021-08-17,2021-08-17,合同会社北原会,,合同会社,東京都,江東区,亀戸４丁目２９－１,,13,108,1360071,,,,,,,2021-08-17,1,,,,,キタハラカイ,0
30,1010703005905,新規,0,2021-08-17,2021-08-17,合同会社ゆうゆう会計,,合同会社,東京都,品川区,中延６丁目６番２１号プレミール中延３０２,,13,109,1420053,,,,,,,2021-08-17,1,,,,,ユウユウカイケイ,0
44,1011001142309,新規,0,2021-08-17,2021-08-17,株式会社トゥ―ンワークス,,株式会社,東京都,渋谷区,東１丁目２８－６,,13,113,1500011,,,,,,,2021-08-17,1,,,,,トゥーンワークス,0
46,1011003013202,新規,0,2021-08-17,2021-08-17,ウートチカ不動産合同会社,,合同会社,東京都,渋谷区,神宮前６丁目２３番４号桑野ビル２階,,13,113,1500001,,,,,,,2021-08-17,1,,,,,ウートチカフドウサン,0
49,1011102013004,新規,0,2021-08-17,2021-08-17,有限会社八百誠,,有限会社,東京都,新宿区,下落合３丁目２２番１７号,,13,104,1610033,,,,,,,2021-08-17,1,,,,,ヤオマセイ,0
54,1011403003414,新規,0,2021-08-17,2021-08-17,合同会社色どり,,合同会社,東京都,板橋区,四葉２丁目２３番８号,,13,119,1750084,,,,,,,2021-08-17,1,,,,,イロドリ,0
71,1020001142631,新規,0,2021-08-17,2021-08-17,徳信商事株式会社,,株式会社,神奈川県,川崎市中原区,中丸子１３番地１０リエトコート武蔵小杉ザ・クラッシィタワー４４０８,,14,133,2110012,,,,,,,2021-08-17,1,,,,,,0
75,1020003020323,新規,0,2021-08-17,2021-08-17,Ｊ．アセットマネジメント合同会社,,合同会社,神奈川県,横浜市旭区,鶴ケ峰本町３丁目２５番２０号,,14,112,2410021,,,,,,,2021-08-17,1,,,,,ジェイアセットマネジメント,0
76,1020003020348,新規,0,2021-08-17,2021-08-17,合同会社リンク,,合同会社,神奈川県,横浜市栄区,笠間３丁目２４－４５リブリコーワハイム１０７,,14,115,2470006,,,,,,,2021-08-17,1,,,,,リンク,0
89,1030001143785,新規,0,2021-08-17,2021-08-17,株式会社ＲＥＣ－ＥＣＯ,,株式会社,埼玉県,幸手市,大字神明内２１０－７,,11,240,3400122,,,,,,,2021-08-17,1,,,,,リクエコ,0
90,1030001143793,新規,0,2021-08-17,2021-08-17,株式会社フェイト,,株式会社,埼玉県,川口市,芝園町３番９－２１６号芝園団地,,11,203,3330853,,,,,,,2021-08-17,1,,,,,フェイト,0
91,1030001143802,新規,0,2021-08-17,2021-08-17,二藍株式会社,,株式会社,埼玉県,戸田市,新曽南３丁目２番６－１０２号,,11,224,3350026,,,,,,,2021-08-17,1,,,,,フタアイ,0
92,1030001143819,新規,0,2021-08-17,2021-08-17,株式会社トウレイ,,株式会社,埼玉県,川口市,芝園町３番２－１２０６,,11,203,3330853,,,,,,,2021-08-17,1,,,,,トウレイ,0
93,1030001143851,新規,0,2021-08-17,2021-08-17,株式会社ＩＫＵＮＵＳ,,株式会社,埼玉県,和光市,本町１５番２８号,,11,229,3510114,,,,,,,2021-08-17,1,,,,,イクナス,0
95,1030003017780,新規,0,2021-08-17,2021-08-17,スティモランテ合同会社,,合同会社,埼玉県,川越市,中原町１丁目９番１１号ＬＳビル２０１,,11,201,3500042,,,,,,,2021-08-17,1,,,,,スティモランテ,0
104,1050001049709,新規,0,2021-08-17,2021-08-17,株式会社たまご屋ホールディングス,,株式会社,茨城県,土浦市,卸町２丁目５番１９号,,08,203,3000847,,,,,,,2021-08-17,1,,,,,タマゴヤホールディングス,0
107,1060001033991,新規,0,2021-08-17,2021-08-17,Ｓ２ＧＡ株式会社,,株式会社,栃木県,宇都宮市,西原町１６５番地２ヒルズＭ１－５０６号室,,09,201,3200826,,,,,,,2021-08-17,1,,,,,エスツージーケー,0
110,1070001038354,新規,0,2021-08-17,2021-08-17,株式会社ＭＩＺＵＴＡ,,株式会社,群馬県,高崎市,下里見町１４７６番地３,,10,202,3703343,,,,,,,2021-08-17,1,,,,,ミズタ,0
112,1080001024386,新規,0,2021-08-17,2021-08-17,壱産業株式会社,,株式会社,静岡県,静岡市葵区,西草深町６番３９号,,22,101,4200866,,,,,,,2021-08-17,1,,,,,イチサンギョウ,0
124,1120001239748,新規,0,2021-08-17,2021-08-17,鑫銘世康株式会社,00123948,株式会社,大阪府,大阪市生野区,巽北１丁目１番１号１Ｆ－Ｆ,,27,116,5440004,,,,,,,2021-08-17,1,,,,,キンメイセイコウ,0
125,1120001239772,新規,0,2021-08-17,2021-08-17,株式会社にくきゅう部,,株式会社,大阪府,大阪市都島区,善源寺町１丁目５番４３号ＶＥＧＡ１ビル,,27,102,5340015,,,,,,,2021-08-17,1,,,,,ニクキュウブ,0
126,1120001239789,新規,0,2021-08-17,2021-08-17,株式会社ＴＫＳ,,株式会社,大阪府,大阪市中央区,伏見町２丁目１番１号,,27,128,5410044,,,,,,,2021-08-17,1,,,,,ティーケーエス,0
128,1120003020040,新規,0,2021-08-17,2021-08-17,合同会社オハナ,,合同会社,大阪府,大阪市旭区,高殿２丁目１０番９号,,27,117,5350031,,,,,,,2021-08-17,1,,,,,オハナ,0
130,1120005022448,新規,0,2021-08-17,2021-08-17,一般社団法人日本プロポーズ協会,,その他の設立登記法人,大阪府,大阪市西区,北堀江１丁目３番２号,,27,106,5500014,,,,,,,2021-08-17,1,,,,,ニホンプロポーズキョウカイ,0
139,1130001069946,新規,0,2021-08-17,2021-08-17,株式会社カーシェアカルチャー,,株式会社,京都府,宇治市,神明宮北３０番地の４,,26,204,6110025,,,,,,,2021-08-17,1,,,,,カーシェアカルチャー,0
148,1140001122670,新規,0,2021-08-17,2021-08-17,株式会社堂阪電気商会,,株式会社,兵庫県,川辺郡猪名川町,原字湯屋向２６２－１,,28,301,6660242,,,,,,,2021-08-17,1,,,,,ドウサカデンキショウカイ,0
149,1140001122679,新規,0,2021-08-17,2021-08-17,株式会社翔建,,株式会社,兵庫県,西宮市,神祇官町７番１６－３０４号,00123946,28,204,6620843,,,,,,,2021-08-17,1,,,,,ショウケン,0
150,1140001122704,新規,0,2021-08-17,2021-08-17,ＩＦＡオフィスＴＲＵＳＴ株式会社,,株式会社,兵庫県,尼崎市,西長洲町２丁目３番１１号,,28,202,6600805,,,,,,,2021-08-17,1,,,,,アイエフエーオフィストラスト,0
151,1140001122712,新規,0,2021-08-17,2021-08-17,株式会社鼎貿易,,株式会社,兵庫県,神戸市垂水区,霞ケ丘４丁目３番５号,,28,108,6550039,,,,,,,2021-08-17,1,,,,,カナエボウエキ,0
154,1140003016631,新規,0,2021-08-17,2021-08-17,合同会社アギラ,,合同会社,兵庫県,神戸市北区,大原１丁目１番７０７号,,28,109,6511222,,,,,,,2021-08-17,1,,,,,アギラ,0
165,1180001147367,新規,0,2021-08-17,2021-08-17,株式会社ネクシィーズ中部,,株式会社,愛知県,名古屋市中区,錦３丁目４番６号,,23,106,4600003,,,,,,,2021-08-17,1,,,,,ネクシィーズチュウブ,0
169,1180003022865,新規,0,2021-08-17,2021-08-17,合同会社ギグナス,,合同会社,愛知県,名古屋市昭和区,吹上町２丁目７番地の６,,23,107,4660002,,,,,,,2021-08-17,1,,,,,ギグナス,0
172,1180303005082,新規,0,2021-08-17,2021-08-17,合同会社アール不動産,,合同会社,愛知県,豊川市,千両町昇貝津４番地,,23,207,4420001,,,,,,,2021-08-17,1,,,,,アールフドウサン,0
176,1200001039025,新規,0,2021-08-17,2021-08-17,株式会社明エコロジーハウス,,株式会社,岐阜県,各務原市,那加西野町３９番地１,,21,213,5040968,,,,,,,2021-08-17,1,,,,,メイエコロジーハウス,0
187,1240001058426,新規,0,2021-08-17,2021-08-17,株式会社まこと,,株式会社,広島県,東広島市,西条町御薗宇八幡山３２７－４,,34,212,7390024,,,,,,,2021-08-17,1,,,,,マコト,0
188,1240001058442,新規,0,2021-08-17,2021-08-17,株式会社ハッピーマウンテン・カンパニー,,株式会社,広島県,福山市,御船町２丁目５番５号,,34,207,7200042,,,,,,,2021-08-17,1,,,,,ハッピーマウンテンカンパニー,0
192,1260005010959,新規,0,2021-08-17,2021-08-17,行政書士法人いしい事務所,,その他の設立登記法人,岡山県,美作市,豊国原３４３番地１Ｋスペース１０１,,33,215,7070015,,,,,,,2021-08-17,1,,,,,イシイジムショ,0
199,1290001094227,新規,0,2021-08-17,2021-08-17,株式会社ＳＡＱ,,株式会社,福岡県,筑紫野市,大字若江４１番地４メゾンエルムＡ棟２０２,,40,217,8180023,,,,,,,2021-08-17,1,,,,,サック,0
200,1290001094235,新規,0,2021-08-17,2021-08-17,シンセロライン株式会社,,株式会社,福岡県,福岡市東区,筥松４丁目４番４９号ウィング筥松Ａ棟２０１,,40,131,8120061,,,,,,,2021-08-17,1,,,,,シンセロライン,0
203,1290003011510,新規,0,2021-08-17,2021-08-17,スマイルリング合同会社,,合同会社,福岡県,久留米市,津福今町４９９番地２７,,40,203,8300061,,,,,,,2021-08-17,1,,,,,スマイルリング,0
205,1310001017424,新規,0,2021-08-17,2021-08-17,株式会社サンライズ,,株式会社,長崎県,長崎市,横尾２丁目１９－１０　２０１,,42,201,8528065,,,,,,,2021-08-17,1,,,,,サンライズ,0
214,1340001024021,新規,0,2021-08-17,2021-08-17,株式会社三佑,,株式会社,鹿児島県,鹿児島市,玉里団地１丁目１６番２０号,,46,201,8900011,,,,,,,2021-08-17,1,,,,,サンユウ,0
216,1360001029233,新規,0,2021-08-17,2021-08-17,株式会社ガンバ,,株式会社,沖縄県,中頭郡西原町,字小波津２０９番地の１,,47,329,9030118,,,,,,,2021-08-17,1,,,,,ガンバ,0
238,1430001084700,新規,0,2021-08-17,2021-08-17,Ｔ．Ｋ．Ｓ株式会社,,株式会社,北海道,苫小牧市,澄川町４丁目７番４号,,01,213,0591271,,,,,,,2021-08-17,1,,,,,ティーケーエス,0
259,2010001220445,新規,0,2021-08-17,2021-08-17,株式会社ｎｏｎ－ｆｉｎｉｔｅ,,株式会社,東京都,千代田区,外神田６丁目１１－１０西岡第二ビル２Ｆ,,13,101,1010021,,,,,,,2021-08-17,1,,,,,ノンフィニティ,0
266,2010003035619,新規,0,2021-08-17,2021-08-17,合同会社ワイズクラニオ,,合同会社,東京都,文京区,白山２丁目７番２号,,13,105,1120001,,,,,,,2021-08-17,1,,,,,ワイズクラニオ,0
268,2010005033793,新規,0,2021-08-17,2021-08-17,一般社団法人リゾートツーリズム協会,,その他の設立登記法人,東京都,中央区,日本橋浜町１丁目２－８日本橋ＢＮＫビル３階,,13,102,1030007,,,,,,,2021-08-17,1,,,,,リゾートツーリズムキョウカイ,0
269,2010101014813,新規,0,2021-08-17,2021-08-17,ＨＫＴ梱包サービス株式会社,,株式会社,東京都,八王子市,七国３丁目５５番３号,,13,201,1920919,,,,,,,2021-08-17,1,,,,,エイチケーティーコンポウサービス,0
278,2010401162122,新規,0,2021-08-17,2021-08-17,株式会社知財ラボ,,株式会社,東京都,港区,西新橋１丁目２３－３ＳＡグレイス５階,,13,103,1050003,,,,,,,2021-08-17,1,,,,,,0
279,2010401162147,新規,0,2021-08-17,2021-08-17,ＮＢＣＳ株式会社,,株式会社,東京都,港区,赤坂４丁目８番１９号赤坂フロントタウン３階,,13,103,1070052,,,,,,,2021-08-17,1,,,,,エヌビーシーエス,0
282,2010403025913,新規,0,2021-08-17,2021-08-17,合同会社ＲＡＢＩ　ＴＡＬＫ,,合同会社,東京都,港区,台場１丁目１番１－１８０７号,,13,103,1350091,,,,,,,2021-08-17,1,,,,,ラビトーク,0
283,2010403025921,新規,0,2021-08-17,2021-08-17,合同会社ＥＡＲＴＨ　ＬＥＩ,,合同会社,東京都,港区,白金１丁目１５番３６号４０１号室,,13,103,1080072,,,,,,,2021-08-17,1,,,,,アースレイ,0
296,2011001142316,新規,0,2021-08-17,2021-08-17,株式会社ｍｏｄ,,株式会社,東京都,渋谷区,渋谷２丁目１９－１５宮益坂ビルディング６０９,,13,113,1500002,,,,,,,2021-08-17,1,,,,,モッド,0
297,2011001142324,新規,0,2021-08-17,2021-08-17,Ｄｉｆｆｅｒｅｎｔ株式会社,,株式会社,東京都,渋谷区,代々木２丁目３４番１１号協栄メゾン代々木２０８,,13,113,1510053,,,,,,,2021-08-17,1,,,,,ディファレント,0
307,2011401023603,新規,0,2021-08-17,2021-08-17,恒興国際株式会社,,株式会社,東京都,板橋区,仲宿３５番４号,,13,119,1730005,,,,,,,2021-08-17,1,,,,,コウコウコクサイ,0
317,2011801039579,新規,0,2021-08-17,2021-08-17,株式会社油有,,株式会社,東京都,葛飾区,新小岩１丁目１６－１８パルデンス藤井２０１,,13,122,1240024,,,,,,,2021-08-17,1,,,,,ユーアール,0
318,2011801039587,新規,0,2021-08-17,2021-08-17,株式会社日新商事,,株式会社,東京都,葛飾区,新宿２丁目１３番４号,,13,122,1250051,,,,,,,2021-08-17,1,,,,,ニッシンショウジ,0
322,2012401038203,新規,0,2021-08-17,2021-08-17,株式会社はしばみ,,株式会社,東京都,三鷹市,大沢１丁目３番４号,,13,204,1810015,,,,,,,2021-08-17,1,,,,,ハシバミ,0
326,2013103001069,新規,0,2021-08-17,2021-08-17,合同会社グラント,,合同会社,東京都,あきる野市,菅生１０４７番地９,,13,228,1970801,,,,,,,2021-08-17,1,,,,,グラント,0
327,2013303005778,新規,0,2021-08-17,2021-08-17,不動さん合同会社,,合同会社,東京都,豊島区,西池袋５丁目１２番１２ＭＦビル６０２号,,13,116,1710021,,,,,,,2021-08-17,1,,,,,フドウサン,0
331,2020001142630,新規,0,2021-08-17,2021-08-17,株式会社田口興業,,株式会社,神奈川県,川崎市川崎区,小田４丁目６番８号,,14,131,2100846,,,,,,,2021-08-17,1,,,,,タグチコウギョウ,0
332,2020001142639,新規,0,2021-08-17,2021-08-17,株式会社アンド・アール,,株式会社,神奈川県,横浜市港南区,丸山台２丁目４１－３０,,14,111,2330013,,,,,,,2021-08-17,1,,,,,アンドアール,0
337,2021001073691,新規,0,2021-08-17,2021-08-17,株式会社石善,,株式会社,神奈川県,鎌倉市,大船５丁目９番１９号,,14,204,2470056,,,,,,,2021-08-17,1,,,,,イシゼン,0
357,2040001119825,新規,0,2021-08-17,2021-08-17,株式会社Ｏｎｅ　ａｎｄ　Ｏｎｌｙ　ＪＡＰＡＮ,,株式会社,千葉県,船橋市,小室町５４００番地,,12,204,2701471,,,,,,,2021-08-17,1,,,,,ワンアンドオンリージャパン,0
365,2060001034007,新規,0,2021-08-17,2021-08-17,株式会社雅家,,株式会社,栃木県,宇都宮市,江曽島町１２００番地１６,,09,201,3210102,,,,,,,2021-08-17,1,,,,,ミヤビヤ,0
379,2100003006206,新規,0,2021-08-17,2021-08-17,合同会社Ｉ’ｓ　ｆａｒｍ,,合同会社,長野県,中野市,大字越５６３番地,,20,211,3830005,,,,,,,2021-08-17,1,,,,,アイズファーム,0
382,2100005012755,新規,0,2021-08-17,2021-08-17,一般社団法人ドリームサポート,,その他の設立登記法人,長野県,須坂市,大字須坂１４５７番地,,20,207,3820000,,,,,,,2021-08-17,1,,,,,ドリームサポート,0
386,2110005016697,新規,0,2021-08-17,2021-08-17,医療法人社団木戸歯科,,その他の設立登記法人,新潟県,新潟市東区,上木戸４丁目７番１３号,,15,102,9500891,,,,,,,2021-08-17,1,,,,,キドシカ,0
395,2120001239771,新規,0,2021-08-17,2021-08-17,ＴＫ株式会社,,株式会社,大阪府,大阪市中央区,宗右衛門町７番９号宗右衛門町ビル１Ｆ,,27,128,5420084,,,,,,,2021-08-17,1,,,,,ティーケー,0
396,2120001239788,新規,0,2021-08-17,2021-08-17,ＨＲ総研株式会社,,株式会社,大阪府,大阪市中央区,備後町１丁目２番６－９０６号,,27,128,5410051,,,,,,,2021-08-17,1,,,,,エイチアールソウケン,0
402,2120903003787,新規,0,2021-08-17,2021-08-17,ｃｅｄｗｏｒｋｓ合同会社,,合同会社,大阪府,吹田市,藤が丘町１３番２号,,27,205,5640081,,,,,,,2021-08-17,1,,,,,セドワークス,0
405,2130001069937,新規,0,2021-08-17,2021-08-17,株式会社ドリームシップ,,株式会社,京都府,長岡京市,一文橋１丁目１０番４３－７４５号,,26,209,6170825,,,,,,,2021-08-17,1,,,,,ドリームシップ,0
410,2140001035277,新規,0,2021-08-17,2021-08-17,日栄産業株式会社,,株式会社,兵庫県,明石市,相生町２丁目８番２号,,28,203,6730882,,,,,,,2021-08-17,1,,,,,,0
413,2140001122678,新規,0,2021-08-17,2021-08-17,株式会社ＺＥＬＯＳ,,株式会社,兵庫県,尼崎市,潮江３丁目５－１８,,28,202,6610976,,,,,,,2021-08-17,1,,,,,ゼロス,0
414,2140001122703,新規,0,2021-08-17,2021-08-17,株式会社Ｍ・Ｋワークス,,株式会社,兵庫県,加古川市,東神吉町砂部３４７番地ドルチェ１０６号,,28,210,6750056,,,,,,,2021-08-17,1,,,,,エムケイワークス,0
415,2140001122728,新規,0,2021-08-17,2021-08-17,株式会社ＭＩＣＨＩ　ＲＯＵＴＥＲ,,株式会社,兵庫県,神戸市中央区,磯上通８丁目１番２９号カサベラビルＣ＆Ｍ４０３号室,,28,110,6510086,,,,,,,2021-08-17,1,,,,,ミチルーター,0
430,2160001023560,新規,0,2021-08-17,2021-08-17,はやし設備株式会社,,株式会社,滋賀県,草津市,馬場町２９８番地５,,25,206,5250043,,,,,,,2021-08-17,1,,,,,ハヤシセツビ,0
444,2180001147473,新規,0,2021-08-17,2021-08-17,ＯＶＥＲＳＥＡＳ株式会社,,株式会社,愛知県,名古屋市中区,新栄２丁目５番７号レジデンス新栄５０１,,23,106,4600007,,,,,,,2021-08-17,1,,,,,オーバーシーズ,0
447,2180003022856,新規,0,2021-08-17,2021-08-17,合同会社Ｓ．Ｓ　ｃｏｍｐａｎｙ,,合同会社,愛知県,常滑市,字古道東割７番地の１,,23,216,4790029,,,,,,,2021-08-17,1,,,,,エスエスカンパニー,0
448,2180003022864,新規,0,2021-08-17,2021-08-17,合同会社Ｋコネクトエナジー,,合同会社,愛知県,名古屋市昭和区,御器所２丁目５番６号,,23,107,4660051,,,,,,,2021-08-17,1,,,,,ケイコネクトエナジー,0
449,2180005019405,新規,0,2021-08-17,2021-08-17,弁護士法人東海ブライト法律事務所,,その他の設立登記法人,愛知県,東海市,大田町後田２０番地１ソラト太田川２階,,23,222,4770031,,,,,,,2021-08-17,1,,,,,トウカイブライトホウリツジムショ,0
450,2180301035270,新規,0,2021-08-17,2021-08-17,株式会社ＡＫＣ,,株式会社,愛知県,碧南市,若松町２丁目２７６番地,,23,209,4470836,,,,,,,2021-08-17,1,,,,,エーケーシー,0
477,2290001094218,新規,0,2021-08-17,2021-08-17,荒木商店株式会社,,株式会社,福岡県,飯塚市,有井５８３番地１９,,40,205,8200112,,,,,,,2021-08-17,1,,,,,アラキショウテン,0
478,2290001094275,新規,0,2021-08-17,2021-08-17,Ｔｏｒａｃｏｃｏ株式会社,,株式会社,福岡県,大牟田市,大字橘１５２１番地２６,,40,202,8370911,,,,,,,2021-08-17,1,,,,,トラココ,0
479,2290801027715,新規,0,2021-08-17,2021-08-17,株式会社晴二郎,,株式会社,福岡県,北九州市八幡西区,黒崎２丁目４番６号第９晴和ビル４Ｆ,,40,109,8060021,,,,,,,2021-08-17,1,,,,,ハルジロウ,0
480,2290803003904,新規,0,2021-08-17,2021-08-17,合同会社ヤマツネ商店,,合同会社,福岡県,北九州市小倉北区,萩崎１３－１,,40,106,8020000,,,,,,,2021-08-17,1,,,,,ヤマツネショウテン,0
488,2340001024029,新規,0,2021-08-17,2021-08-17,株式会社Ｔ．Ｊ．テック,,株式会社,鹿児島県,鹿児島市,郡山町７３１番地１,,46,201,8911105,,,,,,,2021-08-17,1,,,,,ティージェーテック,0
502,2400001015566,新規,0,2021-08-17,2021-08-17,マーマフーズ株式会社,,株式会社,岩手県,花巻市,桜町４丁目２４１番地２,,03,205,0250084,,,,,,,2021-08-17,1,,,,,マーマフーズ,0
503,2410001012926,新規,0,2021-08-17,2021-08-17,株式会社イズミヤ,,株式会社,秋田県,横手市,増田町増田字上川原１１番地２６,,05,203,0190701,,,,,,,2021-08-17,1,,,,,イズミヤ,0
506,2420001017552,新規,0,2021-08-17,2021-08-17,株式会社Ｋ．Ｉ．Ｂ．Ｓ,,株式会社,青森県,弘前市,大字取上５丁目４－２０中村方,,02,202,0368171,,,,,,,2021-08-17,1,,,,,ケーアイビーエス,0
508,2430001084666,新規,0,2021-08-17,2021-08-17,株式会社ＡＬＩＶＥ　ＭＥＥＴ,,株式会社,北海道,札幌市中央区,大通東４丁目２番地２米澤ビル４Ｆ,,01,101,0600041,,,,,,,2021-08-17,1,,,,,アライブミート,0
509,2430001084749,新規,0,2021-08-17,2021-08-17,株式会社岡田ツリーサービス,,株式会社,北海道,虻田郡京極町,字川西１０１番地５,,01,399,0440131,,,,,,,2021-08-17,1,,,,,オカダツリーサービス,0
510,2430001084765,新規,0,2021-08-17,2021-08-17,株式会社エコロジック,,株式会社,北海道,室蘭市,海岸町１丁目５８番３４号,,01,205,0510022,,,,,,,2021-08-17,1,,,,,エコロジック,0
512,2430003013053,新規,0,2021-08-17,2021-08-17,合同会社ナインスコード,,合同会社,北海道,札幌市厚別区,大谷地西１丁目５番１８－３０１号,,01,108,0040042,,,,,,,2021-08-17,1,,,,,ナインスコード,0
517,2700150104429,新規,0,2021-08-17,2021-08-17,Ｓ．Ｎ．Ａ．ＥＮＴＥＲＰＲＩＳＥＳ,,外国会社等,千葉県,八街市,榎戸４０７番地１４５－Ａ,,12,230,2891106,スリランカ民主社会主義共和国、ルウェンウェラ、モスクロード、１４０－３０,,,,,,2021-08-17,1,,,,,エスエヌエイエンタープライセス,0
526,3010001220444,新規,0,2021-08-17,2021-08-17,株式会社緑金,,株式会社,東京都,文京区,千駄木２丁目２６番７－４０４号,,13,105,1130022,,,,,,,2021-08-17,1,,,,,ミドリガネ,0
527,3010001220452,新規,0,2021-08-17,2021-08-17,株式会社ユアボイス,,株式会社,東京都,中央区,銀座６丁目６番１号,,13,102,1040061,,,,,,,2021-08-17,1,,,,,ユアボイス,0
528,3010003035634,新規,0,2021-08-17,2021-08-17,アスターホールディング合同会社,,合同会社,東京都,千代田区,丸の内３丁目１番１号東京共同会計事務所内,,13,101,1000005,,,,,,,2021-08-17,1,,,,,アスターホールディング,0
532,3010005033818,新規,0,2021-08-17,2021-08-17,新成リーガル司法書士法人,,その他の設立登記法人,東京都,中央区,日本橋本町１丁目４番９号日本橋ＭＭＩビル４階,,13,102,1030023,,,,,,,2021-08-17,1,,,,,シンセイリーガル,0
534,3010401162146,新規,0,2021-08-17,2021-08-17,株式会社Ｗａｌｋｅｒｓ,,株式会社,東京都,港区,南青山２丁目２番１５号,,13,103,1070062,,,,,,,2021-08-17,1,,,,,ウォーカーズ,0
535,3010403025920,新規,0,2021-08-17,2021-08-17,合同会社ＡＣ,,合同会社,東京都,港区,新橋５丁目６番５号コンシェリア新橋トーキョープレミアム５０３号室,,13,103,1050004,,,,,,,2021-08-17,1,,,,,エーシー,0
541,3010603009104,新規,0,2021-08-17,2021-08-17,誠功合同会社,,合同会社,東京都,墨田区,江東橋４丁目５番５－８０５号トーア錦糸町マンション,,13,107,1300022,,,,,,,2021-08-17,1,,,,,セイコウ,0
550,3010705003260,新規,0,2021-08-17,2021-08-17,一般社団法人アートグローブ協会,,その他の設立登記法人,東京都,品川区,西五反田５丁目１２番３号,,13,109,1410031,,,,,,,2021-08-17,1,,,,,アートグローブキョウカイ,0
554,3010903006734,新規,0,2021-08-17,2021-08-17,合同会社ＡＮＤ　ＥＤＩＴ,,合同会社,東京都,世田谷区,玉川３丁目２０－２マノア玉川第３ビル内,,13,112,1580094,,,,,,,2021-08-17,1,,,,,アンドエディット,0
562,3011001142315,新規,0,2021-08-17,2021-08-17,株式会社鑑定事務所ＩＬＵ,,株式会社,東京都,渋谷区,桜丘町２３番１７号シティコート桜丘４０８,,13,113,1500031,,,,,,,2021-08-17,1,,,,,カンテイジムショエル,0
563,3011003013225,新規,0,2021-08-17,2021-08-17,フアムサンゴウ合同会社,,合同会社,東京都,渋谷区,本町１丁目７番１６－１３０６号,,13,113,1510071,,,,,,,2021-08-17,1,,,,,フアムサンゴウ,0
568,3011201023190,新規,0,2021-08-17,2021-08-17,株式会社ファースト・コーティング,,株式会社,東京都,中野区,白鷺２丁目１９番３号,,13,114,1650035,,,,,,,2021-08-17,1,,,,,ファーストコーティング,0
569,3011205002447,新規,0,2021-08-17,2021-08-17,一般社団法人日本フラッシュ暗算協会,,その他の設立登記法人,東京都,中野区,若宮３丁目２５番２号,,13,114,1650033,,,,,,,2021-08-17,1,,,,,ニホンフラッシュアンザンキョウカイ,0
570,3011301027109,新規,0,2021-08-17,2021-08-17,ネクティス株式会社,,株式会社,東京都,杉並区,南荻窪３丁目１１番１０号１０２,,13,115,1670052,,,,,,,2021-08-17,1,,,,,ネクティス,0
574,3011601025332,新規,0,2021-08-17,2021-08-17,株式会社ＡＣＲＯ,,株式会社,東京都,練馬区,旭丘２丁目７番８号,,13,120,1760005,,,,,,,2021-08-17,1,,,,,アクロ,0
585,3012701016618,新規,0,2021-08-17,2021-08-17,株式会社ａｉｒｉｐｉ,,株式会社,東京都,西東京市,南町５丁目３番５号サウスタウン２０１,,13,229,1880012,,,,,,,2021-08-17,1,,,,,アイリピ,0
592,3020001142638,新規,0,2021-08-17,2021-08-17,ＳＹＺＹＧＹ株式会社,,株式会社,神奈川県,川崎市川崎区,駅前本町１１番地２川崎フロンティアビル４階,,14,131,2100007,,,,,,,2021-08-17,1,,,,,シザジー,0
593,3020001142646,新規,0,2021-08-17,2021-08-17,株式会社ゴールドフィールド,,株式会社,神奈川県,横浜市都筑区,早渕３丁目２番５－３０２号,,14,118,2240025,,,,,,,2021-08-17,1,,,,,ゴールドフィールド,0
598,3020003020346,新規,0,2021-08-17,2021-08-17,合同会社麻衣花,,合同会社,神奈川県,横浜市青葉区,桂台１丁目６番地３,,14,117,2270034,,,,,,,2021-08-17,1,,,,,マイカ,0
603,3021001073699,新規,0,2021-08-17,2021-08-17,株式会社ゆい,,株式会社,神奈川県,鎌倉市,大船１丁目２４番１１号ドン・キホーテピカソ大船店３階,,14,204,2470056,,,,,,,2021-08-17,1,,,,,ユイ,0
605,3021003010808,新規,0,2021-08-17,2021-08-17,合同会社ミラクル,,合同会社,神奈川県,相模原市南区,新磯野２丁目４８,,14,153,2520325,,,,,,,2021-08-17,1,,,,,ミラクル,0
616,3030001143858,新規,0,2021-08-17,2021-08-17,株式会社Ｂｕｉｌｄｋ,,株式会社,埼玉県,さいたま市浦和区,大東１丁目２１番１号,,11,107,3300043,,,,,,,2021-08-17,1,,,,,ビルデック,0
617,3030003017779,新規,0,2021-08-17,2021-08-17,ＡＴＴＥＮＤ・ＲＥＢＯＲＮ合同会社,,合同会社,埼玉県,北本市,高尾５丁目４５番地,,11,233,3640034,,,,,,,2021-08-17,1,,,,,アテンドリボーン,0
618,3030005020475,新規,0,2021-08-17,2021-08-17,特定非営利活動法人ほんじょう寺子屋,,その他の設立登記法人,埼玉県,本庄市,寿１丁目２２番９号,,11,211,3670023,,,,,,,2021-08-17,1,,,,,ホンジョウテラコヤ,0
624,3040001119766,新規,0,2021-08-17,2021-08-17,株式会社ピーターパン,,株式会社,千葉県,我孫子市,古戸２６０番地の１５,,12,222,2701111,,,,,,,2021-08-17,1,,,,,ピーターパン,0
625,3040001119799,新規,0,2021-08-17,2021-08-17,ＬＴサービス株式会社,,株式会社,千葉県,大網白里市,季美の森南４丁目１３番地６,,12,239,2993241,,,,,,,2021-08-17,1,,,,,エルティーサービス,0
633,3070001038344,新規,0,2021-08-17,2021-08-17,株式会社Ｗｉｔｈ　Ｙｏｕ,,株式会社,群馬県,太田市,下小林町３２番地２８,,10,205,3730807,,,,,,,2021-08-17,1,,,,,ウィズユー,0
636,3080003002628,新規,0,2021-08-17,2021-08-17,合同会社Ｃａｌｍｏｒｅ,,合同会社,静岡県,藤枝市,田沼２丁目２２番１３号,,22,214,4260061,,,,,,,2021-08-17,1,,,,,カルモーレ,0
637,3080101022718,新規,0,2021-08-17,2021-08-17,株式会社ＴＡＫＩ企画,,株式会社,静岡県,三島市,徳倉３丁目２番８０号,,22,206,4110044,,,,,,,2021-08-17,1,,,,,タキキカク,0
640,3080401025271,新規,0,2021-08-17,2021-08-17,株式会社瀧星機械,,株式会社,静岡県,浜松市北区,細江町中川６５４７番地の４０,,22,135,4311304,,,,,,,2021-08-17,1,,,,,リュウセイキカイ,0
659,3120001239498,新規,0,2021-08-17,2021-08-17,株式会社レクストレントプラス,,株式会社,大阪府,大阪市中央区,本町２丁目６番１０号,,27,128,5410053,,,,,,,2021-08-17,1,,,,,レクストレントプラス,0
660,3120001239705,新規,0,2021-08-17,2021-08-17,株式会社天波,,株式会社,大阪府,大阪市北区,曾根崎新地１丁目７－２１エスパス北新地８、２階,,27,127,5300002,,,,,,,2021-08-17,1,,,,,テンパ,0
674,3130001069936,新規,0,2021-08-17,2021-08-17,株式会社ソウルヴィジョン,,株式会社,京都府,長岡京市,一文橋１丁目１０番４３－７４５号,,26,209,6170825,,,,,,,2021-08-17,1,,,,,ソウルヴィジョン,0
683,3140001122677,新規,0,2021-08-17,2021-08-17,ＵｍｉＬａｂ株式会社,,株式会社,兵庫県,神戸市灘区,高徳町５丁目４番４号,,28,102,6570025,,,,,,,2021-08-17,1,,,,,ウミラボ,0
684,3140001122685,新規,0,2021-08-17,2021-08-17,株式会社ＡＷ実業,,株式会社,兵庫県,淡路市,生穂１４６７番地,,28,226,6562223,,,,,,,2021-08-17,1,,,,,アーダブリュージツギョウ,0
685,3140001122702,新規,0,2021-08-17,2021-08-17,ＷＫＷｇｒｏｕｐ株式会社,,株式会社,兵庫県,加古川市,西神吉町岸５８８番地の９,,28,210,6750045,,,,,,,2021-08-17,1,,,,,ダブルケイグループ,0
686,3140001122719,新規,0,2021-08-17,2021-08-17,株式会社アスファレス,,株式会社,兵庫県,神戸市中央区,琴ノ緒町５丁目２番２号三信ビル４０１,,28,110,6510094,,,,,,,2021-08-17,1,,,,,アスファレス,0
703,3180001147472,新規,0,2021-08-17,2021-08-17,１株式会社,,株式会社,愛知県,名古屋市中区,大須１丁目７番１４号パークＩＭビル２Ｆ,,23,106,4600011,,,,,,,2021-08-17,1,,,,,イチ,0
708,3180003022863,新規,0,2021-08-17,2021-08-17,合同会社メルヴェイユリーゼ,,合同会社,愛知県,名古屋市守山区,喜多山南２１番地９,,23,113,4630043,,,,,,,2021-08-17,1,,,,,メルヴェイユリーゼ,0
709,3180005019404,新規,0,2021-08-17,2021-08-17,特定非営利活動法人顎顔面医療振興会,,その他の設立登記法人,愛知県,名古屋市緑区,鳴海町字本町８２番地の２,,23,114,4580801,,,,,,,2021-08-17,1,,,,,ガクガンメンイリョウシンコウカイ,0
724,3230003001713,新規,0,2021-08-17,2021-08-17,合同会社アンアン,,合同会社,富山県,魚津市,釈迦堂１丁目２番１７号,,16,204,9370067,,,,,,,2021-08-17,1,,,,,アンアン,0
726,3240001058457,新規,0,2021-08-17,2021-08-17,株式会社ＬＩＷＥＩ,,株式会社,広島県,福山市,沖野上町５丁目２９番２７号大黒ビル３０３,,34,207,7200825,,,,,,,2021-08-17,1,,,,,リーウェイ,0
727,3240005015256,新規,0,2021-08-17,2021-08-17,土地家屋調査士法人あさぎり,,その他の設立登記法人,広島県,広島市中区,八丁堀７番２号,,34,101,7300013,,,,,,,2021-08-17,1,,,,,アサギリ,0
742,3290003011509,新規,0,2021-08-17,2021-08-17,合同会社小橋断熱,,合同会社,福岡県,福岡市早良区,内野５丁目２２番２９－５号,,40,137,8111123,,,,,,,2021-08-17,1,,,,,コバシダンネツ,0
743,3290801027706,新規,0,2021-08-17,2021-08-17,株式会社アムール,,株式会社,福岡県,北九州市戸畑区,菅原３丁目２番８号,,40,105,8040044,,,,,,,2021-08-17,1,,,,,アムール,0
744,3310001017414,新規,0,2021-08-17,2021-08-17,株式会社安達製麺所,,株式会社,長崎県,西彼杵郡長与町,岡郷６１４番地１３,,42,307,8512121,,,,,,,2021-08-17,1,,,,,アダチセイメンジョ,0
759,3350003003912,新規,0,2021-08-17,2021-08-17,合同会社松尾林業,,合同会社,宮崎県,日向市,大字富高６２７６番地２９,,45,206,8830034,,,,,,,2021-08-17,1,,,,,マツオリンギョウ,0
761,3360001029231,新規,0,2021-08-17,2021-08-17,雄途コーポレーション株式会社,,株式会社,沖縄県,那覇市,首里末吉町２丁目１０４番地３－Ａ,,47,201,9030801,,,,,,,2021-08-17,1,,,,,ユウトコーポレーション,0
770,3430001084698,新規,0,2021-08-17,2021-08-17,ＴＫホールディングス株式会社,,株式会社,北海道,室蘭市,高砂町４丁目１４番１６号,,01,205,0500072,,,,,,,2021-08-17,1,,,,,ティーケーホールディングス,0
773,3430003013052,新規,0,2021-08-17,2021-08-17,合同会社Ｓプランニング,,合同会社,北海道,札幌市豊平区,西岡五条１１丁目２７番２号,,01,105,0620035,,,,,,,2021-08-17,1,,,,,エスプランニング,0
779,3700150104436,新規,0,2021-08-17,2021-08-17,ＪＬ　ＥＮＴＥＲＰＲＩＳＥＳ,,外国会社等,奈良県,宇陀市,室生無山１０５番地２１２テロオフィスビルディング１号,,29,212,6320207,スリランカ民主社会主義共和国、アビッサウェラ、コロンボロード、２８７,,,,,,2021-08-17,1,,,,,ジエイエルエンタープライセス,0
792,4010001220451,新規,0,2021-08-17,2021-08-17,Ａｒｇｏ株式会社,,株式会社,東京都,中央区,日本橋兜町１７番１号日本橋ロイヤルプラザ７０６,,13,102,1030026,,,,,,,2021-08-17,1,,,,,アルゴ,0
799,4010401162129,新規,0,2021-08-17,2021-08-17,ｔｅｆｕｔｅｆｕ株式会社,,株式会社,東京都,港区,南青山１丁目１５番１４号,,13,103,1070062,,,,,,,2021-08-17,1,,,,,テフテフ,0
800,4010401162153,新規,0,2021-08-17,2021-08-17,株式会社Ｎａｒｔｉｃｌｅ,,株式会社,東京都,港区,麻布十番１丁目２番７号ラフィネ麻布十番７０１,,13,103,1060045,,,,,,,2021-08-17,1,,,,,ナーティクル,0
804,4010405020084,新規,0,2021-08-17,2021-08-17,一般財団法人パナック財団,,その他の設立登記法人,東京都,港区,芝浦３丁目１番１号田町ステーションタワーＮ３３階,,13,103,1080023,,,,,,,2021-08-17,1,,,,,パナックザイダン,0
806,4010501047683,新規,0,2021-08-17,2021-08-17,未来コンサルティング株式会社,,株式会社,東京都,台東区,東上野３丁目２１番７－４０２号,,13,106,1100015,,,,,,,2021-08-17,1,,,,,ミライコンサルティング,0
808,4010601059810,新規,0,2021-08-17,2021-08-17,株式会社東京アクア,,株式会社,東京都,江東区,北砂２丁目１８番２－１０３号,,13,108,1360073,,,,,,,2021-08-17,1,,,,,,0
810,4010605003987,新規,0,2021-08-17,2021-08-17,一般社団法人適正価格協会,,その他の設立登記法人,東京都,江東区,辰巳１丁目９番５１－１０４号室,,13,108,1350053,,,,,,,2021-08-17,1,,,,,,0
811,4010703005902,新規,0,2021-08-17,2021-08-17,合同会社ＨＡＮＥＵＭＡ,,合同会社,東京都,品川区,上大崎３丁目１４番１号,,13,109,1410021,,,,,,,2021-08-17,1,,,,,ハネウマ,0
817,4011001142306,新規,0,2021-08-17,2021-08-17,株式会社ＯＲＡＲＹ,,株式会社,東京都,渋谷区,神宮前６丁目２３番４号桑野ビル２階,,13,113,1500001,,,,,,,2021-08-17,1,,,,,オラリー,0
818,4011001142314,新規,0,2021-08-17,2021-08-17,カム・トゥゲザー株式会社,,株式会社,東京都,渋谷区,富ヶ谷１丁目９－２０リンデン代々木公園３Ｆ,,13,113,1510063,,,,,,,2021-08-17,1,,,,,カムトゥゲザー,0
822,4011101096006,新規,0,2021-08-17,2021-08-17,株式会社ヒツジラボ,,株式会社,東京都,新宿区,富久町４番３－４０２号,,13,104,1620067,,,,,,,2021-08-17,1,,,,,ヒツジラボ,0
830,4011501027221,新規,0,2021-08-17,2021-08-17,株式会社ＳＨＯコンサルティング,,株式会社,東京都,北区,田端３丁目１６番９号,,13,117,1140014,,,,,,,2021-08-17,1,,,,,ショウコンサルティング,0
832,4011601025323,新規,0,2021-08-17,2021-08-17,株式会社アウルキュアー,,株式会社,東京都,練馬区,栄町１１番２号,,13,120,1760006,,,,,,,2021-08-17,1,,,,,アウルキュアー,0
840,4012403004993,新規,0,2021-08-17,2021-08-17,合同会社ＪＴアセットマネジメント,,合同会社,東京都,小金井市,東町１丁目４５番２号（２２）,,13,210,1840011,,,,,,,2021-08-17,1,,,,,ジェイティーアセットマネジメント,0
851,4020003020345,新規,0,2021-08-17,2021-08-17,Ｆｏｒｅｓｔａ合同会社,,合同会社,神奈川県,川崎市宮前区,東有馬２丁目９－３１,,14,136,2160002,,,,,,,2021-08-17,1,,,,,フォレスタ,0
855,4021001073707,新規,0,2021-08-17,2021-08-17,三元株式会社,,株式会社,神奈川県,相模原市南区,上鶴間本町６丁目２５番２号,,14,153,2520318,,,,,,,2021-08-17,1,,,,,サンゲン,0
858,4021005012280,新規,0,2021-08-17,2021-08-17,特定非営利活動法人ベテルス,,その他の設立登記法人,神奈川県,相模原市中央区,宮下２丁目１０番１８号,,14,152,2520212,,,,,,,2021-08-17,1,,,,,ベテルス,0
862,4030001143849,新規,0,2021-08-17,2021-08-17,Ｇ’ＭＡ株式会社,,株式会社,埼玉県,狭山市,狭山台４丁目１６番地の２パークアベニュー狭山台３０７,,11,215,3501304,,,,,,,2021-08-17,1,,,,,ジーマ,0
863,4030001143857,新規,0,2021-08-17,2021-08-17,株式会社グランテラ,,株式会社,埼玉県,川口市,芝２丁目１７番２８号,,11,203,3330866,,,,,,,2021-08-17,1,,,,,グランテラ,0
864,4030001143881,新規,0,2021-08-17,2021-08-17,株式会社ヤスヒコ商事,,株式会社,埼玉県,川口市,芝富士２丁目９番１１号,,11,203,3330854,,,,,,,2021-08-17,1,,,,,ヤスヒコショウジ,0
867,4030003017654,新規,0,2021-08-17,2021-08-17,合同会社かっちん,,合同会社,埼玉県,川口市,芝塚原２丁目１４番１－２０５号第３センチュリーパーク,,11,203,3330856,,,,,,,2021-08-17,1,,,,,カッチン,0
880,4050001049706,新規,0,2021-08-17,2021-08-17,株式会社Ｎ．Ｒ．ＡＵＴＯ　ＴＲＡＤＩＮＧ,,株式会社,茨城県,石岡市,東大橋３００３番地３シティハイム藤枝Ｄ－１０２号室,,08,205,3150031,,,,,,,2021-08-17,1,,,,,エヌアールオートトレーディング,0
881,4050001049714,新規,0,2021-08-17,2021-08-17,株式会社ＭＥＩＲＩＮ,,株式会社,茨城県,神栖市,木崎２８２７番地２０２号,,08,232,3140127,,,,,,,2021-08-17,1,,,,,メイリン,0
891,4080405007380,新規,0,2021-08-17,2021-08-17,ＮＰＯ法人縁衆打樂,,その他の設立登記法人,静岡県,浜松市浜北区,東美薗１１８８番地の２,,22,136,4340026,,,,,,,2021-08-17,1,,,,,エンシュウダラ,0
893,4100001034529,新規,0,2021-08-17,2021-08-17,株式会社矢野製作所,,株式会社,長野県,伊那市,美篶８９４３番地９,,20,209,3960111,,,,,,,2021-08-17,1,,,,,ヤノセイサクショ,0
897,4110005016695,新規,0,2021-08-17,2021-08-17,土地家屋調査士法人トーセン,,その他の設立登記法人,新潟県,新潟市西区,寺尾１０番３３号,,15,107,9502052,,,,,,,2021-08-17,1,,,,,トーセン,0
906,4120001238862,新規,0,2021-08-17,2021-08-17,Ｏｓａｍｐｏ　Ｐｈａｒｍａｃｙ株式会社,,株式会社,大阪府,大阪市淀川区,三津屋北１丁目３６番１０－１０５号,,27,123,5320032,,,,,,,2021-08-17,1,,,,,オサンポファーマシー,0
907,4120001239431,新規,0,2021-08-17,2021-08-17,Ｐａｒｓｉｒｉ株式会社,,株式会社,大阪府,交野市,星田８丁目３２番４号,,27,230,5760016,,,,,,,2021-08-17,1,,,,,パシリ,0
908,4120001239704,新規,0,2021-08-17,2021-08-17,株式会社ＡＳＰ,,株式会社,大阪府,大阪市浪速区,難波中１丁目３－１，ＲＥ－０１６，４０２,,27,111,5560011,,,,,,,2021-08-17,1,,,,,エーエスピー,0
909,4120001239761,新規,0,2021-08-17,2021-08-17,株式会社ネクストステージ１,,株式会社,大阪府,大阪市港区,磯路１丁目８番１６号,,27,107,5520003,,,,,,,2021-08-17,1,,,,,ネクストステージワン,0
913,4120901044781,新規,0,2021-08-17,2021-08-17,株式会社デザイン＆クラフト建築工房,,株式会社,大阪府,豊能郡能勢町,杉原１４６番地の２,,27,322,5630112,,,,,,,2021-08-17,1,,,,,デザインアンドクラフトケンチクコウボウ,0
935,4150001024863,新規,0,2021-08-17,2021-08-17,株式会社オヅロジ,,株式会社,奈良県,大和郡山市,馬司町３５番地１,,29,203,6391124,,,,,,,2021-08-17,1,,,,,オヅロジ,0
947,4180001147439,新規,0,2021-08-17,2021-08-17,株式会社ＳＴＫ,,株式会社,愛知県,一宮市,平島１丁目４番３号,,23,203,4910833,,,,,,,2021-08-17,1,,,,,エスティーケー,0
948,4180001147463,新規,0,2021-08-17,2021-08-17,株式会社かまど,,株式会社,愛知県,一宮市,島村字南裏山４１番地１１,,23,203,4910121,,,,,,,2021-08-17,1,,,,,カマド,0
949,4180001147471,新規,0,2021-08-17,2021-08-17,株式会社エコサービス,,株式会社,愛知県,稲沢市,松下１丁目１７番２２号,,23,220,4928208,,,,,,,2021-08-17,1,,,,,エコサービス,0
953,4180003022862,新規,0,2021-08-17,2021-08-17,合同会社ＲｉＭ,,合同会社,愛知県,丹羽郡扶桑町,大字柏森字乙寺裏３３番地,,23,362,4800103,,,,,,,2021-08-17,1,,,,,リム,0
954,4180005019403,新規,0,2021-08-17,2021-08-17,一般社団法人日本野球指導協会,,その他の設立登記法人,愛知県,名古屋市昭和区,福江３丁目２番２０号リバーサイドドリーム１０５号,,23,107,4660059,,,,,,,2021-08-17,1,,,,,ニホンヤキュウシドウキョウカイ,0
965,4200003005286,新規,0,2021-08-17,2021-08-17,協和合同会社,,合同会社,岐阜県,岐阜市,下奈良２丁目１８番１３号ステラ２１－１０１号,,21,201,5008385,,,,,,,2021-08-17,1,,,,,キョウワ,0
973,4240001058423,新規,0,2021-08-17,2021-08-17,なかむら株式会社,,株式会社,広島県,福山市,神辺町字湯野３０４番地１,,34,207,7202121,,,,,,,2021-08-17,1,,,,,ナカムラ,0
984,4290001094224,新規,0,2021-08-17,2021-08-17,株式会社Ｒｅａｚｅｎ,,株式会社,福岡県,福岡市東区,馬出２丁目３－４１,,40,131,8120054,,,,,,,2021-08-17,1,,,,,リーゼン,0
985,4290001094232,新規,0,2021-08-17,2021-08-17,株式会社上松農業,,株式会社,福岡県,久留米市,大橋町常持１２１番地１１,,40,203,8390833,,,,,,,2021-08-17,1,,,,,ウエマツノウギョウ,0
993,4310001017413,新規,0,2021-08-17,2021-08-17,株式会社植木工業,,株式会社,長崎県,大村市,宮小路３丁目１３８０番地１０,,42,205,8560807,,,,,,,2021-08-17,1,,,,,ウエキコウギョウ,0
997,4330003009010,新規,0,2021-08-17,2021-08-17,ＫＵＭＡＭＯＴＯ　ＭＩＲＡＣＲＥＡ合同会社,,合同会社,熊本県,熊本市南区,南高江１丁目１２－７４コンフォーレ南高江１０１,,43,104,8614106,,,,,,,2021-08-17,1,,,,,クマモトミラクレア,0
1011,4350003003911,新規,0,2021-08-17,2021-08-17,合同会社辰巳林業,,合同会社,宮崎県,都城市,太郎坊町１７９１番地１７,,45,202,8850002,,,,,,,2021-08-17,1,,,,,タツミリンギョウ,0
1014,4360001029239,新規,0,2021-08-17,2021-08-17,株式会社高里エンジニアリング,,株式会社,沖縄県,島尻郡与那原町,字与那原１０９１番地６,,47,348,9011303,,,,,,,2021-08-17,1,,,,,タカザトエンジニアリング,0
1025,4380003004997,新規,0,2021-08-17,2021-08-17,合同会社栄クリーンサービス,,合同会社,福島県,田村郡三春町,大字北成田字坂ノ下３６番地の２,,07,521,9637781,,,,,,,2021-08-17,1,,,,,サカエクリーンサービス,0
1032,4410001012924,新規,0,2021-08-17,2021-08-17,なるせ自然冷媒株式会社,,株式会社,秋田県,雄勝郡東成瀬村,田子内字田子内６番地,,05,464,0190801,,,,,,,2021-08-17,1,,,,,ナルセシゼンレイバイ,0
1041,4430001084771,新規,0,2021-08-17,2021-08-17,株式会社ビッグブッダ,,株式会社,北海道,札幌市東区,北三十条東１５丁目３番２０号,,01,103,0650030,,,,,,,2021-08-17,1,,,,,ビッグブッダ,0
1060,5010001220153,新規,0,2021-08-17,2021-08-17,株式会社ＱａｎｄＢ　Ｊａｐａｎ,,株式会社,東京都,千代田区,九段南１丁目５番６号りそな九段ビル５階ＫＳフロア,,13,101,1020074,,,,,,,2021-08-17,1,,,,,キューアンドビージャパン,0
1070,5010401162128,新規,0,2021-08-17,2021-08-17,株式会社帆姫,,株式会社,東京都,港区,浜松町２丁目２番１５号浜松町ダイヤビル２Ｆ,,13,103,1050013,,,,,,,2021-08-17,1,,,,,ホノヒメ,0
1078,5010501047708,新規,0,2021-08-17,2021-08-17,株式会社ゴールドテック,,株式会社,東京都,台東区,東上野１丁目１１番１号,,13,106,1100015,,,,,,,2021-08-17,1,,,,,,0
1079,5010503006356,新規,0,2021-08-17,2021-08-17,Ｋ　Ｏｎｅ合同会社,,合同会社,東京都,台東区,上野２丁目１２番２号池本ビル４階,,13,106,1100005,,,,,,,2021-08-17,1,,,,,ケワン,0
1089,5010701041394,新規,0,2021-08-17,2021-08-17,株式会社ＢＭＣ,,株式会社,東京都,品川区,南品川６丁目１２番２１号,,13,109,1400004,,,,,,,2021-08-17,1,,,,,ビーエムシー,0
1092,5010903006724,新規,0,2021-08-17,2021-08-17,タイムエキス合同会社,,合同会社,東京都,世田谷区,千歳台２丁目４６番２３号,,13,112,1570071,,,,,,,2021-08-17,1,,,,,タイムエキス,0
1095,5011003013140,新規,0,2021-08-17,2021-08-17,ＩＳＳＨＯＮＩ合同会社,,合同会社,東京都,渋谷区,神宮前６丁目２３番４号桑野ビル２階,,13,113,1500001,,,,,,,2021-08-17,1,,,,,イッショニ,0
1105,5011101095956,新規,0,2021-08-17,2021-08-17,株式会社クマの里,,株式会社,東京都,新宿区,矢来町３７番地,,13,104,1620805,,,,,,,2021-08-17,1,,,,,,0
1110,5011501027220,新規,0,2021-08-17,2021-08-17,ＳＴＴ株式会社,,株式会社,東京都,荒川区,西日暮里１丁目６１－７東栄コーポ１０２号室,,13,118,1160013,,,,,,,2021-08-17,1,,,,,エスティーティー,0
1117,5011801039592,新規,0,2021-08-17,2021-08-17,株式会社ＲＵＮ　ＷＩＴＨ　ＹＯＵ,,株式会社,東京都,葛飾区,水元４丁目１１番２６号,,13,122,1250032,,,,,,,2021-08-17,1,,,,,ランウィズユー,0
1123,5012801021020,新規,0,2021-08-17,2021-08-17,株式会社Ｔｒｕｓｔ　Ｆｕｎｃｔｉｏｎ,,株式会社,東京都,東大和市,桜が丘４丁目２９番地の４１,,13,220,2070022,,,,,,,2021-08-17,1,,,,,トラストファンクション,0
1131,5020001142545,新規,0,2021-08-17,2021-08-17,株式会社アイトラスティー,,株式会社,神奈川県,横浜市泉区,岡津町１１８番地１,,14,116,2450003,,,,,,,2021-08-17,1,,,,,アイトラスティー,0
1132,5020003020278,新規,0,2021-08-17,2021-08-17,Ｓａｂｕｒａｉ合同会社,,合同会社,神奈川県,横浜市中区,桜木町１丁目１０１－１クロスゲート７階,,14,104,2310062,,,,,,,2021-08-17,1,,,,,サブライ,0
1133,5020003020328,新規,0,2021-08-17,2021-08-17,合同会社ワークライフシナジー,,合同会社,神奈川県,川崎市宮前区,土橋１丁目７番地１ヒルハイツ宮前平イースト４１３,,14,136,2160005,,,,,,,2021-08-17,1,,,,,ワークライフシナジー,0
1134,5020003020336,新規,0,2021-08-17,2021-08-17,パークタウン合同会社,,合同会社,神奈川県,横浜市南区,弘明寺町字前田２２７番地の１,,14,105,2320067,,,,,,,2021-08-17,1,,,,,パークタウン,0
1135,5020003020344,新規,0,2021-08-17,2021-08-17,合同会社プライム名古屋,,合同会社,神奈川県,横浜市中区,太田町３丁目３５番地３,,14,104,2310011,,,,,,,2021-08-17,1,,,,,プライムナゴヤ,0
1137,5020005015169,新規,0,2021-08-17,2021-08-17,一般社団法人関内まちづくり振興会,,その他の設立登記法人,神奈川県,横浜市中区,相生町３丁目６１番地泰生ビル４０９,,14,104,2310012,,,,,,,2021-08-17,1,,,,,カンナイマチヅクリシンコウカイ,0
1142,5021001073680,新規,0,2021-08-17,2021-08-17,Ａｐｒｏｔｏｄｏ’Ｓ株式会社,,株式会社,神奈川県,藤沢市,円行１８７３番地の１ＢｅｌＦｉｏｒｅ３０３,,14,205,2520805,,,,,,,2021-08-17,1,,,,,アプロトドス,0
1146,5021003010806,新規,0,2021-08-17,2021-08-17,合同会社ＣＳ　Ｐｒｏ,,合同会社,神奈川県,綾瀬市,寺尾本町１丁目１５番１５－１号,,14,218,2521133,,,,,,,2021-08-17,1,,,,,シーエスプロ,0
1147,5030001143880,新規,0,2021-08-17,2021-08-17,株式会社ネットアンドアーツ,,株式会社,埼玉県,所沢市,有楽町３番６号,,11,208,3591117,,,,,,,2021-08-17,1,,,,,ネットアンドアーツ,0
1150,5030003017785,新規,0,2021-08-17,2021-08-17,合同会社ＨＥＲＭＡＮＡ,,合同会社,埼玉県,さいたま市見沼区,大字笹丸７２－２Ｆ,,11,104,3370031,,,,,,,2021-08-17,1,,,,,エルマーナ,0
1151,5030003017793,新規,0,2021-08-17,2021-08-17,合同会社統星,,合同会社,埼玉県,さいたま市緑区,原山１丁目２９番９－３号,,11,109,3360931,,,,,,,2021-08-17,1,,,,,スバル,0
1155,5040001119806,新規,0,2021-08-17,2021-08-17,株式会社美創研,,株式会社,千葉県,千葉市花見川区,幕張町６丁目２７３番地,,12,102,2620032,,,,,,,2021-08-17,1,,,,,ビソウケン,0
1158,5060003003782,新規,0,2021-08-17,2021-08-17,合同会社ＢＵＰＡＮ,,合同会社,栃木県,宇都宮市,南大通り１丁目１番３号,,09,201,3210963,,,,,,,2021-08-17,1,,,,,ブッパン,0
1161,5070001038350,新規,0,2021-08-17,2021-08-17,ＴＯＫＡＭＩ株式会社,,株式会社,群馬県,前橋市,元総社町９３８番地２０,,10,201,3710846,,,,,,,2021-08-17,1,,,,,トカミ,0
1168,5090001017154,新規,0,2021-08-17,2021-08-17,株式会社メイプル,,株式会社,山梨県,甲斐市,龍地３６７３番地８,,19,210,4000104,,,,,,,2021-08-17,1,,,,,,0
1170,5120001239587,新規,0,2021-08-17,2021-08-17,株式会社ネクシィーズ関西,,株式会社,大阪府,大阪市西区,阿波座１丁目３番１５号,,27,106,5500011,,,,,,,2021-08-17,1,,,,,ネクシィーズカンサイ,0
1171,5120001239810,新規,0,2021-08-17,2021-08-17,株式会社レンタカープラス,,株式会社,大阪府,門真市,城垣町１６－３０,,27,223,5710072,,,,,,,2021-08-17,1,,,,,レンタカープラス,0
1173,5120003020020,新規,0,2021-08-17,2021-08-17,合同会社ひがし,,合同会社,大阪府,大阪市中央区,森ノ宮中央２丁目５番１５号フジアドバンスビル１０１,,27,128,5400003,,,,,,,2021-08-17,1,,,,,ヒガシ,0
1179,5120901044780,新規,0,2021-08-17,2021-08-17,株式会社セブン,,株式会社,大阪府,吹田市,山田西４丁目２番５２－１００４号,,27,205,5650824,,,,,,,2021-08-17,1,,,,,セブン,0
1180,5120903003784,新規,0,2021-08-17,2021-08-17,合同会社ビズトランスレーション,,合同会社,大阪府,豊中市,利倉西２丁目９番３１号,,27,203,5610844,,,,,,,2021-08-17,1,,,,,ビズトランスレーション,0
1182,5122001035090,新規,0,2021-08-17,2021-08-17,大司運送株式会社,,株式会社,大阪府,大東市,幸町２０番４号,,27,218,5740028,,,,,,,2021-08-17,1,,,,,タイシウンソウ,0
1186,5130001069934,新規,0,2021-08-17,2021-08-17,株式会社日陽トレーディング,,株式会社,京都府,京都市南区,久世殿城町２７０番地１１,,26,107,6018205,,,,,,,2021-08-17,1,,,,,カヨトレーディング,0
1193,5140001122675,新規,0,2021-08-17,2021-08-17,株式会社Ｔｏｒｃｈ,,株式会社,兵庫県,神戸市中央区,八幡通４丁目２－１２カサベラＦＲⅡビル１０Ｆ,00123947,28,110,6510085,,,,,,,2021-08-17,1,,,,,トーチ,0
1196,5140003016628,新規,0,2021-08-17,2021-08-17,合同会社Ｓａｌｅ,,合同会社,兵庫県,姫路市,香寺町中寺３０７番地３４,,28,201,6792164,,,,,,,2021-08-17,1,,,,,サーレ,0
1204,5180001147470,新規,0,2021-08-17,2021-08-17,株式会社Ｗ＆Ｈエンターテイメント,,株式会社,愛知県,名古屋市中区,大須２丁目２５－５３表参道テラス３階Ａ,,23,106,4600011,,,,,,,2021-08-17,1,,,,,ダブリューアンドエイチエンターテイメント,0
1208,5180003022861,新規,0,2021-08-17,2021-08-17,合同会社サポートひだまり,,合同会社,愛知県,春日井市,瑞穂通１丁目１７１番地マンション柏東２０１,,23,206,4860845,,,,,,,2021-08-17,1,,,,,サポートヒダマリ,0
1210,5180303005079,新規,0,2021-08-17,2021-08-17,合同会社メルヴェイユＬａｎｉ,,合同会社,愛知県,豊田市,京町６丁目１０番地１６,,23,211,4710063,,,,,,,2021-08-17,1,,,,,メルヴェイユラニ,0
1213,5190001028604,新規,0,2021-08-17,2021-08-17,リンクディー株式会社,,株式会社,三重県,四日市市,日永西３丁目１番２１号,,24,202,5100891,,,,,,,2021-08-17,1,,,,,リンクディー,0
1214,5190003003745,新規,0,2021-08-17,2021-08-17,合同会社よつば,,合同会社,三重県,津市,白山町川口２３８番地１,,24,201,5152603,,,,,,,2021-08-17,1,,,,,ヨツバ,0
1220,5210003001399,新規,0,2021-08-17,2021-08-17,合同会社ハルノヒ,,合同会社,福井県,吉田郡永平寺町,松岡松ケ原１丁目１０１番地,,18,322,9101138,,,,,,,2021-08-17,1,,,,,ハルノヒ,0
1226,5240001058455,新規,0,2021-08-17,2021-08-17,株式会社エアピース,,株式会社,広島県,東広島市,高屋町中島５０２番地２－３Ｆ,,34,212,7392125,,,,,,,2021-08-17,1,,,,,エアピース,0
1236,5290801027712,新規,0,2021-08-17,2021-08-17,株式会社アスト,,株式会社,福岡県,北九州市若松区,青葉台南２丁目４番１２号,,40,103,8080142,,,,,,,2021-08-17,1,,,,,アスト,0
1242,5300001012595,新規,0,2021-08-17,2021-08-17,株式会社ＡＭＣＣ,,株式会社,佐賀県,佐賀市,高木瀬東３丁目９－９,,41,201,8490922,,,,,,,2021-08-17,1,,,,,エーエムシーシー,0
1244,5310001017412,新規,0,2021-08-17,2021-08-17,株式会社フェクト,,株式会社,長崎県,西海市,西海町木場郷２４１４番地１,,42,212,8513504,,,,,,,2021-08-17,1,,,,,フェクト,0
1256,5350003003910,新規,0,2021-08-17,2021-08-17,合同会社グランデ,,合同会社,宮崎県,都城市,下水流町３１３３番地２,,45,202,8851102,,,,,,,2021-08-17,1,,,,,グランデ,0
1261,5380003004996,新規,0,2021-08-17,2021-08-17,合同会社ＰＡＲＴＳ,,合同会社,福島県,郡山市,希望ヶ丘１番１号,,07,203,9638035,,,,,,,2021-08-17,1,,,,,パーツ,0
1271,5430001084754,新規,0,2021-08-17,2021-08-17,株式会社広野青果,,株式会社,北海道,北広島市,希望ヶ丘１丁目１４番地６,,01,234,0611261,,,,,,,2021-08-17,1,,,,,ヒロノセイカ,0
1272,5430001084762,新規,0,2021-08-17,2021-08-17,株式会社ＨＵＭＡＮ　ＣＯＭＰＡＮＹ,,株式会社,北海道,札幌市中央区,南五条西４丁目１番地３日劇ビル３Ｆ,,01,101,0640805,,,,,,,2021-08-17,1,,,,,ヒューマンカンパニー,0
1275,5430003013050,新規,0,2021-08-17,2021-08-17,合同会社佐藤工業,,合同会社,北海道,札幌市北区,篠路二条２丁目９番５号,,01,102,0028022,,,,,,,2021-08-17,1,,,,,サトウコウギョウ,0
1289,6010001220433,新規,0,2021-08-17,2021-08-17,株式会社ｋｉｃｋｆｌｏｗ,,株式会社,東京都,千代田区,九段南１丁目５番６号りそな九段ビル５Ｆ－ＫＳフロア,,13,101,1020074,,,,,,,2021-08-17,1,,,,,キックフロー,0
1294,6010005033773,新規,0,2021-08-17,2021-08-17,リードブレーン社会保険労務士法人,,その他の設立登記法人,東京都,千代田区,岩本町２丁目５－１１岩本町Ｔ・Ｉビル８階,,13,101,1010032,,,,,,,2021-08-17,1,,,,,リードブレーン,0
1295,6010101014818,新規,0,2021-08-17,2021-08-17,株式会社倫理審査申請支援センター,,株式会社,東京都,八王子市,東町１２番８号長澤ビル４階３６,,13,201,1920082,,,,,,,2021-08-17,1,,,,,リンリシンサシンセイシエンセンター,0
1296,6010103001748,新規,0,2021-08-17,2021-08-17,ＰｅａｃｅＭａｋｉｎｇ　Ｆａｒｍ合同会社,,合同会社,東京都,八王子市,上恩方町４７７番地５,,13,201,1920156,,,,,,,2021-08-17,1,,,,,ピースメイキングファーム,0
1309,6010401162127,新規,0,2021-08-17,2021-08-17,株式会社狐兵,,株式会社,東京都,港区,浜松町２丁目２番１５号浜松町ダイヤビル２Ｆ,,13,103,1050013,,,,,,,2021-08-17,1,,,,,コヘイ,0
1310,6010401162143,新規,0,2021-08-17,2021-08-17,株式会社ａｍｂｉｔｉｏｎ,,株式会社,東京都,港区,北青山３丁目１５番１６号,,13,103,1070061,,,,,,,2021-08-17,1,,,,,アンビション,0
1336,6010901049170,新規,0,2021-08-17,2021-08-17,ネクストキャリアコンサルティング株式会社,,株式会社,東京都,世田谷区,代沢２丁目４７－５オリエンタルハイツ１０１,,13,112,1550032,,,,,,,2021-08-17,1,,,,,ネクストキャリアコンサルティング,0
1338,6011001142205,新規,0,2021-08-17,2021-08-17,Ａｓａｂｉｓ株式会社,,株式会社,東京都,渋谷区,神宮前６丁目２３番４号桑野ビル２階,,13,113,1500001,,,,,,,2021-08-17,1,,,,,アサビス,0
1339,6011001142329,新規,0,2021-08-17,2021-08-17,株式会社ＪＯＣＯＬＬＡ,,株式会社,東京都,渋谷区,神宮前６丁目２３番４号桑野ビル２階,,13,113,1500001,,,,,,,2021-08-17,1,,,,,ジョコラ,0
1340,6011003013222,新規,0,2021-08-17,2021-08-17,合同会社ＳＨＩＰ　ＨＥＩＭ,,合同会社,東京都,渋谷区,神宮前６丁目２３番４号桑野ビル２Ｆ,,13,113,1500001,,,,,,,2021-08-17,1,,,,,シップハイム,0
1343,6011101095988,新規,0,2021-08-17,2021-08-17,株式会社ブルーシー,,株式会社,東京都,新宿区,新宿１丁目２４番７号ルネ御苑プラザ４１８号室,,13,104,1600022,,,,,,,2021-08-17,1,,,,,ブルーシー,0
1344,6011101096020,新規,0,2021-08-17,2021-08-17,株式会社Ｄ＆Ｐｅｔｉｍｅ,,株式会社,東京都,新宿区,大久保２丁目７番１号,,13,104,1690072,,,,,,,2021-08-17,1,,,,,ディアンドペッタイム,0
1349,6011203003618,新規,0,2021-08-17,2021-08-17,合同会社ｍａｓａ,,合同会社,東京都,中野区,東中野５丁目１番１７０４号,,13,114,1640003,,,,,,,2021-08-17,1,,,,,マサ,0
1354,6011503004860,新規,0,2021-08-17,2021-08-17,合同会社ＭＴＹ,,合同会社,東京都,北区,豊島８丁目３１番５号,,13,117,1140003,,,,,,,2021-08-17,1,,,,,エムティーワイ,0
1359,6011603003374,新規,0,2021-08-17,2021-08-17,合同会社ワイルドキャット,,合同会社,東京都,練馬区,南田中３丁目２８番１２号シャリエ練馬高野台ハウス４０１,,13,120,1770035,,,,,,,2021-08-17,1,,,,,ワイルドキャット,0
1363,6011801039583,新規,0,2021-08-17,2021-08-17,株式会社ｏｎｅ’ｓ,,株式会社,東京都,足立区,南花畑２丁目１８番１２号,,13,121,1210062,,,,,,,2021-08-17,1,,,,,ワンズ,0
1366,6012401038208,新規,0,2021-08-17,2021-08-17,大竹商事株式会社,,株式会社,東京都,多摩市,連光寺３丁目１２番地の９,,13,224,2060021,,,,,,,2021-08-17,1,,,,,オオタケショウジ,0
1369,6013101008698,新規,0,2021-08-17,2021-08-17,株式会社Ｔｈｉｎｋ　Ａｓｉａ,,株式会社,東京都,福生市,武蔵野台１丁目１番地４,,13,218,1970013,,,,,,,2021-08-17,1,,,,,シンクアジア,0
1376,6020001142602,新規,0,2021-08-17,2021-08-17,株式会社Ｒｅｉｎｇ,,株式会社,神奈川県,横浜市鶴見区,鶴見中央３丁目１０番２６－５０６号,,14,101,2300051,,,,,,,2021-08-17,1,,,,,リーイング,0
1380,6020003020335,新規,0,2021-08-17,2021-08-17,アイエスカンパニー合同会社,,合同会社,神奈川県,横浜市西区,南浅間町８番地２２河本ビル２０１,,14,103,2200074,,,,,,,2021-08-17,1,,,,,アイエスカンパニー,0
1393,6030001143814,新規,0,2021-08-17,2021-08-17,株式会社永堀電気保安管理事務所,,株式会社,埼玉県,入間市,扇町屋５丁目４番２５号,,11,225,3580022,,,,,,,2021-08-17,1,,,,,ナガホリデンキホアンカンリジムショ,0
1394,6030001143855,新規,0,2021-08-17,2021-08-17,株式会社スモビー,,株式会社,埼玉県,川口市,幸町２丁目１番４－３０４号アレイポウル,,11,203,3320016,,,,,,,2021-08-17,1,,,,,スモビー,0
1398,6030003017784,新規,0,2021-08-17,2021-08-17,合同会社子ども時代,,合同会社,埼玉県,富士見市,水谷東３丁目４５番１４－４１１号,,11,235,3540013,,,,,,,2021-08-17,1,,,,,コドモジダイ,0
1399,6030005020480,新規,0,2021-08-17,2021-08-17,一般社団法人高齢者見守り支援協会,,その他の設立登記法人,埼玉県,さいたま市北区,宮原町２丁目９０番地４アイネットビル４Ｆ,,11,102,3310812,,,,,,,2021-08-17,1,,,,,コウレイシャミマモリシエンキョウカイ,0
1409,6040001119796,新規,0,2021-08-17,2021-08-17,株式会社ＭＣ,,株式会社,千葉県,南房総市,和田町海発１５１８番地３,,12,234,2992712,,,,,,,2021-08-17,1,,,,,エムシー,0
1422,6050001049704,新規,0,2021-08-17,2021-08-17,株式会社ＰＡＫ　ＴＲＡＤＩＮＧ,,株式会社,茨城県,筑西市,辻１８６３番地７,,08,227,3080103,,,,,,,2021-08-17,1,,,,,パークトレーディング,0
1423,6050001049712,新規,0,2021-08-17,2021-08-17,ばらもん警備保障株式会社,,株式会社,茨城県,牛久市,久野町字久野１７３番地４,,08,219,3001288,,,,,,,2021-08-17,1,,,,,バラモンケイビホショウ,0
1426,6050003006034,新規,0,2021-08-17,2021-08-17,ＳＤ　ＴＲＡＤＩＮＧ合同会社,,合同会社,茨城県,坂東市,みむら６２０番地１,,08,228,3060655,,,,,,,2021-08-17,1,,,,,エスディートレーディング,0
1432,6060001033995,新規,0,2021-08-17,2021-08-17,株式会社Ｆｅｉ,,株式会社,栃木県,栃木市,新井町１０１２番地４蔵シティ新井６０３,,09,203,3280061,,,,,,,2021-08-17,1,,,,,エフイーアイ,0
1439,6060003003781,新規,0,2021-08-17,2021-08-17,合同会社Ｆｉｒｓｔ　Ｉｍｐｒｅｓｓｉｏｎ,,合同会社,栃木県,足利市,朝倉町６１４番地２２パナハイツＨＡＮＤＡ１０２,,09,202,3260823,,,,,,,2021-08-17,1,,,,,,0
1456,6120001239768,新規,0,2021-08-17,2021-08-17,株式会社ｂｏｎｄ,,株式会社,大阪府,大阪市住之江区,新北島７丁目４番６８号,,27,125,5590024,,,,,,,2021-08-17,1,,,,,ボンド,0
1458,6120005022443,新規,0,2021-08-17,2021-08-17,一般社団法人肌断食協会,,その他の設立登記法人,大阪府,大阪市西区,南堀江４丁目１０番９号パークヴィレッジ南堀江９０１,,27,106,5500015,,,,,,,2021-08-17,1,,,,,ハダダンジキキョウカイ,0
1480,6140001122674,新規,0,2021-08-17,2021-08-17,フジナガホールディングス株式会社,,株式会社,兵庫県,尼崎市,道意町６丁目２８番地７,,28,202,6600083,,,,,,,2021-08-17,1,,,,,フジナガホールディングス,0
1481,6140001122682,新規,0,2021-08-17,2021-08-17,株式会社ビーナ,,株式会社,兵庫県,尼崎市,東難波町５丁目１９番２３号,,28,202,6600892,,,,,,,2021-08-17,1,,,,,ビーナ,0
1482,6140001122699,新規,0,2021-08-17,2021-08-17,株式会社西川工業,,株式会社,兵庫県,尼崎市,久々知１丁目１３番１０号,,28,202,6610977,,,,,,,2021-08-17,1,,,,,ニシカワコウギョウ,0
1483,6140001122708,新規,0,2021-08-17,2021-08-17,株式会社ワイテック,,株式会社,兵庫県,伊丹市,鈴原町５丁目１２番地１,,28,207,6640882,,,,,,,2021-08-17,1,,,,,ワイテック,0
1484,6140001122724,新規,0,2021-08-17,2021-08-17,株式会社ＭＴＮ,,株式会社,兵庫県,尼崎市,西本町６丁目２６番地,,28,202,6600874,,,,,,,2021-08-17,1,,,,,エムティーエヌ,0
1506,6180003022869,新規,0,2021-08-17,2021-08-17,合同会社Ｐｒｏｔａｇｏｎｉｓｔ,,合同会社,愛知県,春日井市,西屋町字南野池６４番地１１,,23,206,4860908,,,,,,,2021-08-17,1,,,,,ゴウドウガイシャプロタゴニスト,0
1509,6180303005078,新規,0,2021-08-17,2021-08-17,合同会社メルヴェイユプリエ,,合同会社,愛知県,豊田市,京町６丁目１０番地１６,,23,211,4710063,,,,,,,2021-08-17,1,,,,,メルヴェイユプリエ,0
1512,6190003003744,新規,0,2021-08-17,2021-08-17,Ｆｌａｗｅｒｃｉｔａ’ｓ合同会社,,合同会社,三重県,鈴鹿市,高岡町２７２６番地の６,,24,207,5130014,,,,,,,2021-08-17,1,,,,,フラワシタス,0
1526,6240003005248,新規,0,2021-08-17,2021-08-17,アパートメントラボ合同会社,,合同会社,広島県,東広島市,八本松南４丁目２４－１１,,34,212,7390144,,,,,,,2021-08-17,1,,,,,アパートメントラボ,0
1539,6290001094214,新規,0,2021-08-17,2021-08-17,株式会社ＭＯＶＥＭＴＳ,,株式会社,福岡県,福岡市中央区,天神２丁目３番１０号天神パインクレスト７１９号,,40,133,8100001,,,,,,,2021-08-17,1,,,,,ムーヴェンツ,0
1540,6290001094230,新規,0,2021-08-17,2021-08-17,株式会社クリエイション,,株式会社,福岡県,福岡市中央区,天神２丁目３番１０号天神パインクレスト７１９号,,40,133,8100001,,,,,,,2021-08-17,1,,,,,クリエイション,0
1544,6290801027711,新規,0,2021-08-17,2021-08-17,株式会社ＧＥＮＫＩＤＡＭＡ,,株式会社,福岡県,行橋市,行事３丁目２８番６０号プラザ行橋ビル２階,,40,213,8240001,,,,,,,2021-08-17,1,,,,,ゲンキダマ,0
1561,6360003011366,新規,0,2021-08-17,2021-08-17,合同会社しげんちゅ,,合同会社,沖縄県,中頭郡北中城村,字安谷屋２１５５番地ＨＱＤＭＴＡＵＲＵＳマンション２０３号室,,47,327,9012316,,,,,,,2021-08-17,1,,,,,シゲンチュ,0
1562,6360005006496,新規,0,2021-08-17,2021-08-17,一般社団法人尖閣諸島海域保全機構,,その他の設立登記法人,沖縄県,石垣市,字大川４０番地,,47,207,9070022,,,,,,,2021-08-17,1,,,,,センカクショトウカイイキホゼンキコウ,0
1587,6480003001710,新規,0,2021-08-17,2021-08-17,ＵＳＡＮＥＴ合同会社,,合同会社,徳島県,徳島市,大原町内開４５番地の１５,,36,201,7708012,,,,,,,2021-08-17,1,,,,,ウサネット,0
1602,7010001220416,新規,0,2021-08-17,2021-08-17,江上流東京酒造場株式会社,,株式会社,東京都,中央区,東日本橋２丁目２８番５号５０８,,13,102,1030004,,,,,,,2021-08-17,1,,,,,コウジョウリュウトウキョウシュゾウジョウ,0
1603,7010001220432,新規,0,2021-08-17,2021-08-17,パイ・ラディアン・キャピタル株式会社,,株式会社,東京都,中央区,日本橋兜町６番５号兜町第６平和ビル,,13,102,1030026,,,,,,,2021-08-17,1,,,,,パイラディアンキャピタル,0
1607,7010101014817,新規,0,2021-08-17,2021-08-17,株式会社デンケン,,株式会社,東京都,八王子市,中野山王２丁目３番１３号,,13,201,1920042,,,,,,,2021-08-17,1,,,,,デンケン,0
1613,7010401162118,新規,0,2021-08-17,2021-08-17,１０８・ＨｉＲｏＫｏ株式会社,,株式会社,東京都,港区,西新橋２丁目２１番６号,,13,103,1050003,,,,,,,2021-08-17,1,,,,,トウハチヒロコ,0
1614,7010401162134,新規,0,2021-08-17,2021-08-17,株式会社ＤＩＧＳ,,株式会社,東京都,港区,南青山２丁目２番１５号ＷＩＮ青山５３１,,13,103,1070062,,,,,,,2021-08-17,1,,,,,ディグス,0
1615,7010401162175,新規,0,2021-08-17,2021-08-17,株式会社Ｓ＆Ｃホールディングス,,株式会社,東京都,港区,港南４丁目６番１－９０８号,,13,103,1080075,,,,,,,2021-08-17,1,,,,,エスアンドシーホールディングス,0
1640,7011001142311,新規,0,2021-08-17,2021-08-17,Ｅ－Ｍｅｄｉｃａｌ株式会社,,株式会社,東京都,渋谷区,渋谷２丁目２１番１号渋谷ヒカリエ８ＦＣｒｅａｔｉｖｅＬｏｕｎｇｅＭＯＶ,,13,113,1500002,,,,,,,2021-08-17,1,,,,,イーメディカル,0
1641,7011003013213,新規,0,2021-08-17,2021-08-17,ＳＯＵ合同会社,,合同会社,東京都,渋谷区,恵比寿２丁目１４番５号シルバラード００１,,13,113,1500013,,,,,,,2021-08-17,1,,,,,ソウ,0
1649,7011101096003,新規,0,2021-08-17,2021-08-17,株式会社ｎｏｍａｄｉｋｎｏｗ,,株式会社,東京都,新宿区,若葉３丁目１,,13,104,1600011,,,,,,,2021-08-17,1,,,,,ノマディクナウ,0
1655,7011201023187,新規,0,2021-08-17,2021-08-17,株式会社ハニカム,,株式会社,東京都,中野区,江原町２丁目２２番３号,,13,114,1650023,,,,,,,2021-08-17,1,,,,,ハニカム,0
1661,7011403003417,新規,0,2021-08-17,2021-08-17,合同会社Ｉ’ｌｌ,,合同会社,東京都,板橋区,板橋３丁目２４番９号板橋タイガービル５０１,,13,119,1730004,,,,,,,2021-08-17,1,,,,,アイル,0
1665,7011801039590,新規,0,2021-08-17,2021-08-17,株式会社エイム,,株式会社,東京都,足立区,鹿浜２丁目６番７号,,13,121,1230864,,,,,,,2021-08-17,1,,,,,エイム,0
1688,7020003020326,新規,0,2021-08-17,2021-08-17,ＬＡＬＡＬＩＮ合同会社,,合同会社,神奈川県,横浜市中区,長者町６丁目１０７－９ジェノビア横浜関内Ⅱスカイガーデン３０４号,00123952,14,104,2310033,,,,,,,2021-08-17,1,,,,,ララリン,0
1689,7020003020342,新規,0,2021-08-17,2021-08-17,ミヤビエレットリチタ合同会社,,合同会社,神奈川県,横浜市鶴見区,下末吉２丁目５番１４号,,14,101,2300012,,,,,,,2021-08-17,1,,,,,ミヤビエレットリチタ,0
1691,7021001073687,新規,0,2021-08-17,2021-08-17,株式会社ライフスタイルラボ,,株式会社,神奈川県,小田原市,堀之内１９６番地の２平塚ビルＡ－１０３,,14,206,2500853,,,,,,,2021-08-17,1,,,,,ライフスタイルラボ,0
1696,7021003010812,新規,0,2021-08-17,2021-08-17,合同会社ＥＰＯＣＨ,,合同会社,神奈川県,南足柄市,岩原６９４－５,,14,217,2500113,,,,,,,2021-08-17,1,,,,,エポック,0
1704,7040003018319,新規,0,2021-08-17,2021-08-17,合同会社ヘルパーステーショングラッド,,合同会社,千葉県,銚子市,長塚町３丁目６７７番地の１３アーバンコーポ長塚Ａ－１０３,,12,202,2880837,,,,,,,2021-08-17,1,,,,,ヘルパーステーショングラッド,0
1705,7040003018335,新規,0,2021-08-17,2021-08-17,合同会社あさひソーラー,,合同会社,千葉県,柏市,柏４丁目５番１０号,,12,217,2770005,,,,,,,2021-08-17,1,,,,,アサヒソーラー,0
1710,7050001049711,新規,0,2021-08-17,2021-08-17,株式会社マネージメント,,株式会社,茨城県,稲敷郡阿見町,うずら野４丁目１８番地１０,,08,443,3000341,,,,,,,2021-08-17,1,,,,,マネージメント,0
1715,7050003006033,新規,0,2021-08-17,2021-08-17,Ｄｅｓｉｇｎ　Ｔａｋａｄａ合同会社,,合同会社,茨城県,取手市,井野９５９番地１６,,08,217,3020011,,,,,,,2021-08-17,1,,,,,デザインタカダ,0
1718,7070003004200,新規,0,2021-08-17,2021-08-17,合同会社ＪＩＮ,,合同会社,群馬県,桐生市,錦町２丁目４番３５号大田ビル１階２号,,10,203,3760023,,,,,,,2021-08-17,1,,,,,ジン,0
1723,7100001034534,新規,0,2021-08-17,2021-08-17,株式会社お米の座光寺農園,,株式会社,長野県,上伊那郡飯島町,飯島２０９１番地２,,20,384,3993702,,,,,,,2021-08-17,1,,,,,オコメノザコウジノウエン,0
1734,7120001239726,新規,0,2021-08-17,2021-08-17,株式会社ＭＴＳ,,株式会社,大阪府,枚方市,三栗２丁目１６番１７－３０１号,,27,210,5731171,,,,,,,2021-08-17,1,,,,,エムティーエス,0
1736,7120003020043,新規,0,2021-08-17,2021-08-17,ルトム合同会社,,合同会社,大阪府,大阪市住之江区,南加賀屋４丁目７－２９,,27,125,5590015,,,,,,,2021-08-17,1,,,,,ルトム,0
1740,7120901044770,新規,0,2021-08-17,2021-08-17,株式会社エム企画,,株式会社,大阪府,摂津市,別府１丁目６番１４号,,27,224,5660046,,,,,,,2021-08-17,1,,,,,エムキカク,0
1742,7122001035089,新規,0,2021-08-17,2021-08-17,株式会社ニューヒューマン,,株式会社,大阪府,東大阪市,長栄寺１７番１９号,,27,227,5770055,,,,,,,2021-08-17,1,,,,,ニューヒューマン,0
1744,7130001069932,新規,0,2021-08-17,2021-08-17,株式会社ファンクル,,株式会社,京都府,城陽市,寺田宮ノ谷２９番地３２２,,26,207,6100121,,,,,,,2021-08-17,1,,,,,ファンクル,0
1748,7140001068958,新規,0,2021-08-17,2021-08-17,株式会社ジーエッチ貿易,,株式会社,兵庫県,西宮市,樋ノ口町１丁目１２番１２号,,28,204,6638011,,,,,,,2021-08-17,1,,,,,ジーエッチボウエキ,0
1750,7140001122673,新規,0,2021-08-17,2021-08-17,株式会社リアライズ,,株式会社,兵庫県,神戸市長田区,松野通３丁目２番３８－９０３号,,28,106,6530841,,,,,,,2021-08-17,1,,,,,リアライズ,0
1751,7140001122681,新規,0,2021-08-17,2021-08-17,株式会社六甲コンサルタント,,株式会社,兵庫県,神戸市灘区,楠丘町１丁目３番６号,,28,102,6570024,,,,,,,2021-08-17,1,,,,,ロッコウコンサルタント,0
1752,7140001122707,新規,0,2021-08-17,2021-08-17,株式会社ＩＫＧ,,株式会社,兵庫県,神崎郡市川町,西田中５８９番地,,28,442,6792313,,,,,,,2021-08-17,1,,,,,アイケージー,0
1753,7140001122715,新規,0,2021-08-17,2021-08-17,株式会社ＣＯＬＯＲＥＲ,,株式会社,兵庫県,神戸市中央区,中山手通３丁目７番２８－１００６号,,28,110,6500004,,,,,,,2021-08-17,1,,,,,クロレ,0
1755,7140003016634,新規,0,2021-08-17,2021-08-17,合同会社ＫＡＬＡ卓球スタジオ,,合同会社,兵庫県,姫路市,西新在家２丁目１３番６号,,28,201,6700096,,,,,,,2021-08-17,1,,,,,カラタッキュウスタジオ,0
1770,7180001147312,新規,0,2021-08-17,2021-08-17,マグパック株式会社,,株式会社,愛知県,名古屋市西区,牛島町６番１号名古屋ルーセントタワー４０階,,23,104,4510046,,,,,,,2021-08-17,1,,,,,マグパック,0
1771,7180001147460,新規,0,2021-08-17,2021-08-17,株式会社ＥＬｅ,,株式会社,愛知県,名古屋市守山区,川北町２０２番地,,23,113,4630098,,,,,,,2021-08-17,1,,,,,エレ,0
1786,7210001018575,新規,0,2021-08-17,2021-08-17,株式会社未来,,株式会社,福井県,越前市,向陽町１６２番地,,18,209,9150874,,,,,,,2021-08-17,1,,,,,ミライ,0
1788,7230001018945,新規,0,2021-08-17,2021-08-17,株式会社ミチカ板金工業,,株式会社,富山県,富山市,婦中町中名２１１８番地,,16,201,9392741,,,,,,,2021-08-17,1,,,,,ミチカバンキンコウギョウ,0
1792,7240001058461,新規,0,2021-08-17,2021-08-17,株式会社セキュライト,,株式会社,広島県,広島市安佐南区,祇園５丁目１７番１５号,,34,105,7310138,,,,,,,2021-08-17,1,,,,,セキュライト,0
1793,7240003005247,新規,0,2021-08-17,2021-08-17,合同会社こはる,,合同会社,広島県,広島市中区,立町２番６号Ｔ＆Ｓビル１０２号,,34,101,7300032,,,,,,,2021-08-17,1,,,,,コハル,0
1804,7290001094221,新規,0,2021-08-17,2021-08-17,株式会社ＢＬＩＳＳ　ＫＮＯＬＬ,,株式会社,福岡県,福岡市城南区,長尾２丁目１３番１１号,,40,136,8140123,,,,,,,2021-08-17,1,,,,,ブリスノール,0
1805,7290001094238,新規,0,2021-08-17,2021-08-17,土下座餃子株式会社,,株式会社,福岡県,福岡市早良区,百道浜４丁目３１番１－２５０５号ネクサス百道レジデンシャルタワー,,40,137,8140001,,,,,,,2021-08-17,1,,,,,ドゲザギョウザ,0
1807,7290801027710,新規,0,2021-08-17,2021-08-17,株式会社ＡＨＳ　Ｃｏｒｐｏｒａｔｉｏｎ,,株式会社,福岡県,北九州市小倉南区,徳力１丁目２５番３４号,,40,107,8020974,,,,,,,2021-08-17,1,,,,,エーエイチエスコーポレーション,0
1811,7320003003564,新規,0,2021-08-17,2021-08-17,合同会社やまもと,,合同会社,大分県,佐伯市,直川大字上直見７０８－５,,44,205,8793102,,,,,,,2021-08-17,1,,,,,ヤマモト,0
1826,7380001032122,新規,0,2021-08-17,2021-08-17,株式会社ショウナン環境センター,,株式会社,福島県,郡山市,安積町荒井字西北井５番地,,07,203,9630111,,,,,,,2021-08-17,1,,,,,ショウナンカンキョウセンター,0
1838,7430001084760,新規,0,2021-08-17,2021-08-17,Ｂｉｏｍａｔｅ株式会社,,株式会社,北海道,千歳市,都２５５番地の４９,,01,224,0660003,,,,,,,2021-08-17,1,,,,,ビオメイト,0
1839,7430001084769,新規,0,2021-08-17,2021-08-17,株式会社アストライア,,株式会社,北海道,札幌市中央区,南一条西１６丁目１番地３２３,,01,101,0600061,,,,,,,2021-08-17,1,,,,,アストライア,0
1842,7430003013049,新規,0,2021-08-17,2021-08-17,合同会社札幌醸々,,合同会社,北海道,札幌市中央区,南四条西８丁目７番地１シティハウス資生館前１５０６号,,01,101,0640804,,,,,,,2021-08-17,1,,,,,サッポロジョウジョウ,0
1863,8010001220407,新規,0,2021-08-17,2021-08-17,株式会社ＲａｄｉａｎｔＢｅａｕｔｙ　ＭＨＫ,,株式会社,東京都,中央区,銀座２丁目１１－１５ＳＦ銀座ビルＢ２Ｆ,,13,102,1040061,,,,,,,2021-08-17,1,,,,,ラディアントビューティーエムエイチケー,0
1866,8010003035621,新規,0,2021-08-17,2021-08-17,合同会社志楽社,,合同会社,東京都,千代田区,神田佐久間町３丁目３８第５東ビル５Ｆ,,13,101,1010025,,,,,,,2021-08-17,1,,,,,,0
1876,8010401162091,新規,0,2021-08-17,2021-08-17,株式会社ＢＲＡＮＤＩ　ＪＡＰＡＮ,,株式会社,東京都,港区,海岸３丁目３番８号,,13,103,1080022,,,,,,,2021-08-17,1,,,,,ブランディジャパン,0
1877,8010401162158,新規,0,2021-08-17,2021-08-17,株式会社ａｐｈｒｏｄｉｔｅ,,株式会社,東京都,港区,北青山１丁目４番１号,,13,103,1070061,,,,,,,2021-08-17,1,,,,,アフロディテ,0
1878,8010401162190,新規,0,2021-08-17,2021-08-17,ｈａｒｍｏ株式会社,,株式会社,東京都,港区,芝浦１丁目１番１号,,13,103,1050023,,,,,,,2021-08-17,1,,,,,ハルモ,0
1901,8011001142310,新規,0,2021-08-17,2021-08-17,株式会社Ｈａｌｌｏｔ,,株式会社,東京都,渋谷区,神宮前５丁目１２番６号,,13,113,1500001,,,,,,,2021-08-17,1,,,,,ハロット,0
1903,8011003013220,新規,0,2021-08-17,2021-08-17,合同会社ＪＨＲ,,合同会社,東京都,渋谷区,神宮前６丁目２３番４号桑野ビル２階,,13,113,1500001,,,,,,,2021-08-17,1,,,,,ジェイエイチアール,0
1904,8011003013229,新規,0,2021-08-17,2021-08-17,ＣＴＤＩ　Ｊａｐａｎ合同会社,,合同会社,東京都,渋谷区,渋谷２丁目１４番１３号岡崎ビルＱｕａｎｔｕｍＡｃｃｏｕｎｔｉｎｇ株式会社内,,13,113,1500002,,,,,,,2021-08-17,1,,,,,シーティーディーアイジャパン,0
1911,8011301027112,新規,0,2021-08-17,2021-08-17,株式会社ヤマダリペア,,株式会社,東京都,杉並区,成田西１丁目２５番７号,,13,115,1660016,,,,,,,2021-08-17,1,,,,,ヤマダリペア,0
1914,8011401023606,新規,0,2021-08-17,2021-08-17,株式会社ＡｃｒｏｓｓＢ,,株式会社,東京都,板橋区,成増３丁目２番１６号,,13,119,1750094,,,,,,,2021-08-17,1,,,,,アクロスビー,0
1916,8011501027218,新規,0,2021-08-17,2021-08-17,株式会社貝栄,,株式会社,東京都,荒川区,東尾久１丁目３１番８－６０３号,,13,118,1160012,,,,,,,2021-08-17,1,,,,,カイエイ,0
1920,8011605002389,新規,0,2021-08-17,2021-08-17,一般社団法人藍の風,,その他の設立登記法人,東京都,練馬区,豊玉南３丁目２３番１５－１０２号,,13,120,1760014,,,,,,,2021-08-17,1,,,,,アイノカゼ,0
1930,8020001142609,新規,0,2021-08-17,2021-08-17,株式会社ｂｕｏｙ,,株式会社,神奈川県,横浜市青葉区,藤が丘２丁目２８番地１１,,14,117,2270043,,,,,,,2021-08-17,1,,,,,ブイ,0
1931,8020001142633,新規,0,2021-08-17,2021-08-17,株式会社ＳＫコミュニケーション,,株式会社,神奈川県,横浜市保土ケ谷区,今井町４１２番地１７ヴィルヌーブ保土ケ谷Ⅲ３０３号,00123953,14,106,2400035,,,,,,,2021-08-17,1,,,,,エスケーコミュニケーション,0
1933,8020003020325,新規,0,2021-08-17,2021-08-17,ＰＩＮＥ　ＥＤＧＥ合同会社,,合同会社,神奈川県,横浜市西区,桜木町４丁目２０番１１号,,14,103,2200021,,,,,,,2021-08-17,1,,,,,パインエッジ,0
1937,8021001073686,新規,0,2021-08-17,2021-08-17,株式会社ＬｏＰｒｏｔｈ,,株式会社,神奈川県,横須賀市,岩戸１丁目７番５号,,14,201,2390844,,,,,,,2021-08-17,1,,,,,ロプロス,0
1941,8030001143837,新規,0,2021-08-17,2021-08-17,株式会社イーライフ,,株式会社,埼玉県,川口市,西川口２丁目１０番１－３０１号,,11,203,3320021,,,,,,,2021-08-17,1,,,,,イーライフ,0
1943,8030003017774,新規,0,2021-08-17,2021-08-17,合同会社ｔａｋａ　ｃｏｍｐａｎｙ,,合同会社,埼玉県,蕨市,中央１丁目２番１号,,11,223,3350004,,,,,,,2021-08-17,1,,,,,タカカンパニー,0
1953,8050001049693,新規,0,2021-08-17,2021-08-17,紫村工業株式会社,,株式会社,茨城県,土浦市,川口２丁目１番１９号,,08,203,3000033,,,,,,,2021-08-17,1,,,,,シムラコウギョウ,0
1954,8050001049710,新規,0,2021-08-17,2021-08-17,株式会社ＰＡＳ企画,,株式会社,茨城県,つくば市,花畑３丁目１３番地１０,,08,220,3003261,,,,,,,2021-08-17,1,,,,,パスキカク,0
1956,8050003006032,新規,0,2021-08-17,2021-08-17,マイクロイメージング合同会社,,合同会社,茨城県,つくば市,東２丁目２２番地１,,08,220,3050046,,,,,,,2021-08-17,1,,,,,マイクロイメージング,0
1957,8060001033993,新規,0,2021-08-17,2021-08-17,富田鋼業株式会社,,株式会社,栃木県,下都賀郡野木町,大字丸林６７５－７,,09,364,3290111,,,,,,,2021-08-17,1,,,,,トミタコウギョウ,0
1960,8070001038356,新規,0,2021-08-17,2021-08-17,株式会社アイリス,,株式会社,群馬県,渋川市,村上３７８１番地１,,10,208,3770311,,,,,,,2021-08-17,1,,,,,アイリス,0
1965,8080101022713,新規,0,2021-08-17,2021-08-17,株式会社エフェクト,,株式会社,静岡県,富士宮市,弓沢町９２４番地,,22,207,4180073,,,,,,,2021-08-17,1,,,,,エフェクト,0
1972,8120001239709,新規,0,2021-08-17,2021-08-17,山宗商事株式会社,,株式会社,大阪府,大阪市東淀川区,西淡路２丁目１４番４号Ｔ‘ｓＣＵＢＥ東淀川２０２号室,,27,114,5330031,,,,,,,2021-08-17,1,,,,,ヤマソウショウジ,0
1973,8120001239733,新規,0,2021-08-17,2021-08-17,株式会社ゼロプランニング,,株式会社,大阪府,大阪市福島区,海老江４丁目３番１０－８０５号,,27,103,5530001,,,,,,,2021-08-17,1,,,,,ゼロプランニング,0
1974,8120001239766,新規,0,2021-08-17,2021-08-17,株式会社ＲＥＤ　Ｍａｊｅｓｔｉｃ,,株式会社,大阪府,大阪市浪速区,元町３丁目１３番２３－７０１号,,27,111,5560016,,,,,,,2021-08-17,1,,,,,レッドマジェスティック,0
1975,8120001239782,新規,0,2021-08-17,2021-08-17,株式会社中村設備,,株式会社,大阪府,大阪市平野区,喜連５丁目２番５号グランディール喜連１０１号,,27,126,5470027,,,,,,,2021-08-17,1,,,,,ナカムラセツビ,0
1976,8120001239808,新規,0,2021-08-17,2021-08-17,株式会社ＨＹｄｅｓｉｇｎ,,株式会社,大阪府,大阪市北区,中津１丁目１８番１８号若杉ビル９階,,27,127,5310071,,,,,,,2021-08-17,1,,,,,エイチワイデザイン,0
1986,8120901044761,新規,0,2021-08-17,2021-08-17,３・６５株式会社,,株式会社,大阪府,吹田市,山田南４５番Ｂ－９１２号,,27,205,5650823,,,,,,,2021-08-17,1,,,,,サンテンロクゴウ,0
1989,8120905006213,新規,0,2021-08-17,2021-08-17,一般社団法人和郷村,,その他の設立登記法人,大阪府,吹田市,内本町２丁目２番５号,,27,205,5640032,,,,,,,2021-08-17,1,,,,,ワゴウムラ,0
1992,8130001069907,新規,0,2021-08-17,2021-08-17,株式会社Ｎ２ＬＡＮＤ,,株式会社,京都府,宇治市,槇島町落合９７番地の４５,,26,204,6110041,,,,,,,2021-08-17,1,,,,,エヌツーランド,0
1993,8130003007427,新規,0,2021-08-17,2021-08-17,合同会社ＭＯＯ,,合同会社,京都府,京都市伏見区,石田桜木８－１モイセス桜木３０３,,26,109,6011435,,,,,,,2021-08-17,1,,,,,ムー,0
2002,8140001122714,新規,0,2021-08-17,2021-08-17,株式会社３Ｙ’ｓ,,株式会社,兵庫県,尼崎市,三反田町２丁目１番３２－１０２号,,28,202,6610024,,,,,,,2021-08-17,1,,,,,スリーワイズ,0
2003,8140001122722,新規,0,2021-08-17,2021-08-17,株式会社ユニックス,,株式会社,兵庫県,西宮市,建石町１番１９号,,28,204,6620943,,,,,,,2021-08-17,1,,,,,ユニックス,0
2014,8150003002459,新規,0,2021-08-17,2021-08-17,合同会社オリーブの木,,合同会社,奈良県,北葛城郡広陵町,大字南６３番地５マ・メゾン・ヴェール１０１,,29,426,6350818,,,,,,,2021-08-17,1,,,,,オリーブノキ,0
2015,8150005009320,新規,0,2021-08-17,2021-08-17,一般社団法人奈良県中部で地域ＦＭを作る会,,その他の設立登記法人,奈良県,磯城郡田原本町,大字千代５７２－１オーエム八千代北３号室,,29,363,6360246,,,,,,,2021-08-17,1,,,,,ナラケンチュウブデチイキエフエムヲツクルカイ,0
2034,8210001018574,新規,0,2021-08-17,2021-08-17,株式会社ＨＩＲＯＭＡＲＵ,,株式会社,福井県,勝山市,郡町１丁目１番２６号,,18,206,9110035,,,,,,,2021-08-17,1,,,,,ヒロマル,0
2041,8240001058452,新規,0,2021-08-17,2021-08-17,株式会社前田設備,,株式会社,広島県,福山市,新市町大字相方３９９番地３,,34,207,7293102,,,,,,,2021-08-17,1,,,,,マエダセツビ,0
2042,8240003005246,新規,0,2021-08-17,2021-08-17,ＴＲＩＰ　ＰＡＣＥ合同会社,,合同会社,広島県,広島市中区,鶴見町３番２１号,,34,101,7300045,,,,,,,2021-08-17,1,,,,,トリップペース,0
2047,8270001008339,新規,0,2021-08-17,2021-08-17,タルマーリー醸造株式会社,,株式会社,鳥取県,八頭郡智頭町,大字智頭５９４番地,,31,328,6891402,,,,,,,2021-08-17,1,,,,,タルマーリージョウゾウ,0
2058,8350001017265,新規,0,2021-08-17,2021-08-17,株式会社ことぶき,,株式会社,宮崎県,日南市,西弁分４丁目７番地１１,,45,204,8870024,,,,,,,2021-08-17,1,,,,,コトブキ,0
2086,8450003002115,新規,0,2021-08-17,2021-08-17,合同会社ヒマワリ介護サービス,,合同会社,北海道,留萌市,大町１丁目１９番地の２,,01,212,0770048,,,,,,,2021-08-17,1,,,,,ヒマワリカイゴサービス,0
2104,9010001220430,新規,0,2021-08-17,2021-08-17,株式会社ビアークス,,株式会社,東京都,中央区,銀座１丁目２２番１１号銀座大竹ビジデンス２階,,13,102,1040061,,,,,,,2021-08-17,1,,,,,ビアークス,0
2105,9010001220455,新規,0,2021-08-17,2021-08-17,株式会社バリューファクトリーズ,,株式会社,東京都,中央区,銀座３丁目１０番７号,,13,102,1040061,,,,,,,2021-08-17,1,,,,,バリューファクトリーズ,0
2115,9010401162181,新規,0,2021-08-17,2021-08-17,水素ステーション株式会社,,株式会社,東京都,港区,南麻布３丁目２０番１号Ｄａｉｗａ麻布テラス５Ｆ,,13,103,1060047,,,,,,,2021-08-17,1,,,,,スイソステーション,0
2119,9010403025915,新規,0,2021-08-17,2021-08-17,エルニド合同会社,,合同会社,東京都,港区,芝浦４丁目２０番２号,,13,103,1080023,,,,,,,2021-08-17,1,,,,,エルニド,0
2120,9010403025923,新規,0,2021-08-17,2021-08-17,ＤＮ　Ｇｌｏｖｅｓ　Ｊａｐａｎ合同会社,,合同会社,東京都,港区,南青山２丁目４番１５号,,13,103,1070062,,,,,,,2021-08-17,1,,,,,ディーエヌグローブジャパン,0
2122,9010703005906,新規,0,2021-08-17,2021-08-17,合同会社ＣＯＳ,,合同会社,東京都,品川区,東品川３丁目１０番１－４１７号,,13,109,1400002,,,,,,,2021-08-17,1,,,,,シーオーエス,0
2125,9010901049267,新規,0,2021-08-17,2021-08-17,ｍｉａ株式会社,,株式会社,東京都,世田谷区,宇奈根２丁目１２－１３,,13,112,1570068,,,,,,,2021-08-17,1,,,,,ミア,0
2131,9011003013194,新規,0,2021-08-17,2021-08-17,ｏｒ合同会社,,合同会社,東京都,渋谷区,富ヶ谷１丁目３１番１０号ライオンズマンション代々木公園６０２,,13,113,1510063,,,,,,,2021-08-17,1,,,,,オア,0
2132,9011003013203,新規,0,2021-08-17,2021-08-17,合同会社ウートチカ,,合同会社,東京都,渋谷区,神宮前６丁目２３番４号桑野ビル２階,,13,113,1500001,,,,,,,2021-08-17,1,,,,,ウートチカ,0
2134,9011103010918,新規,0,2021-08-17,2021-08-17,合同会社ＭＹ企画,,合同会社,東京都,新宿区,歌舞伎町２丁目１０番７号ダイヤモンドビル地下２階,,13,104,1600021,,,,,,,2021-08-17,1,,,,,エムワイキカク,0
2140,9011403003415,新規,0,2021-08-17,2021-08-17,合同会社ＨＯＭＥ　ＡＴＴＲＡＣＴＩＯＮ,,合同会社,東京都,板橋区,成増２丁目１５番１７－１２０１号,,13,119,1750094,,,,,,,2021-08-17,1,,,,,ホームアトラクション,0
2142,9011701010212,新規,0,2021-08-17,2021-08-17,株式会社三村商事,,株式会社,東京都,江戸川区,上篠崎町１丁目７９番地,,13,123,,,,,,,,2021-08-17,1,,,,,,0
2144,9011801039589,新規,0,2021-08-17,2021-08-17,株式会社大将組,,株式会社,東京都,足立区,花畑３丁目２４番６号,,13,121,1210061,,,,,,,2021-08-17,1,,,,,ダイマサグミ,0
2149,9012805003044,新規,0,2021-08-17,2021-08-17,一般社団法人礎,,その他の設立登記法人,東京都,日野市,東平山３丁目１８番地の２８,,13,212,1910054,,,,,,,2021-08-17,1,,,,,イシズエ,0
2158,9020001142608,新規,0,2021-08-17,2021-08-17,株式会社ＢＭＳ,,株式会社,神奈川県,横浜市金沢区,富岡東２丁目３番７号,,14,108,2360051,,,,,,,2021-08-17,1,,,,,ビーエムエス,0
2159,9020001142640,新規,0,2021-08-17,2021-08-17,株式会社ＴＡＫＵＭＩプランニング,,株式会社,神奈川県,横浜市栄区,長沼町６４４番地４－６１０号,,14,115,2440841,,,,,,,2021-08-17,1,,,,,タクミプランニング,0
2160,9020003020340,新規,0,2021-08-17,2021-08-17,合同会社Ｔｈａｏ’ｓ　Ｐｒｅｃｉｏｕｓ,,合同会社,神奈川県,川崎市幸区,鹿島田１丁目１１－８,,14,132,2120058,,,,,,,2021-08-17,1,,,,,タオズプレシャス,0
2166,9021001073685,新規,0,2021-08-17,2021-08-17,株式会社ケンケン,,株式会社,神奈川県,三浦市,南下浦町菊名５８番地１２,,14,210,2380102,,,,,,,2021-08-17,1,,,,,ケンケン,0
2167,9021001073702,新規,0,2021-08-17,2021-08-17,キューブマーケティング開発株式会社,,株式会社,神奈川県,相模原市南区,相模大野６丁目１５番２８号シュバルブラン１０２,,14,153,2520303,,,,,,,2021-08-17,1,,,,,キューブマーケティングカイハツ,0
2173,9030001143885,新規,0,2021-08-17,2021-08-17,Ａｌｍｏｓｔ株式会社,,株式会社,埼玉県,入間郡三芳町,大字藤久保６４９１番地ガレージハウスＦ－ＢａｓｅＢ号,,11,324,3540041,,,,,,,2021-08-17,1,,,,,オルモスト,0
2178,9040001119827,新規,0,2021-08-17,2021-08-17,株式会社石の華,,株式会社,千葉県,千葉市中央区,中央１丁目６番４号中央ハイツ１Ｆ,,12,101,2600013,,,,,,,2021-08-17,1,,,,,イシノハナ,0
2185,9050001049718,新規,0,2021-08-17,2021-08-17,株式会社ＴＯＷＡ,,株式会社,茨城県,下妻市,高道祖４３１８番地の４,,08,210,3040031,,,,,,,2021-08-17,1,,,,,トワ,0
2186,9050003006031,新規,0,2021-08-17,2021-08-17,合同会社エンビー,,合同会社,茨城県,常総市,本石下４８０２番地２,,08,211,3002707,,,,,,,2021-08-17,1,,,,,エンビー,0
2224,9120001239724,新規,0,2021-08-17,2021-08-17,Ｆ．Ｙ株式会社,,株式会社,大阪府,大阪市東成区,玉津２丁目５番１９－５０５号,,27,115,5370023,,,,,,,2021-08-17,1,,,,,エフワイ,0
2225,9120001239807,新規,0,2021-08-17,2021-08-17,株式会社ＲＥＧＯＬＩＴＨ,,株式会社,大阪府,大阪市平野区,加美北３丁目１０番１０号,,27,126,5470001,,,,,,,2021-08-17,1,,,,,レゴリス,0
2235,9130003007426,新規,0,2021-08-17,2021-08-17,合同会社ＭｙＫｙ,,合同会社,京都府,宇治市,宇治半白１９－６,,26,204,6110021,,,,,,,2021-08-17,1,,,,,マイキー,0
2249,9140001122696,新規,0,2021-08-17,2021-08-17,株式会社ＫＡＮＯＴＯ,,株式会社,兵庫県,西宮市,南甲子園１丁目４番８－２０６号,,28,204,6638153,,,,,,,2021-08-17,1,,,,,カノト,0
2250,9140001122705,新規,0,2021-08-17,2021-08-17,株式会社ＯＫＵＧＡＷＡ,,株式会社,兵庫県,神戸市中央区,元町通２丁目９番１号元町プラザ８Ｆ,,28,110,6500022,,,,,,,2021-08-17,1,,,,,オクガワ,0
2253,9140003016624,新規,0,2021-08-17,2021-08-17,合同会社じゃがいも,,合同会社,兵庫県,神戸市中央区,脇浜町３丁目４－１３ザ・パークハウス神戸春日野道１５０２,,28,110,6510072,,,,,,,2021-08-17,1,,,,,ジャガイモ,0
2254,9140003016632,新規,0,2021-08-17,2021-08-17,ワンレム合同会社,,合同会社,兵庫県,神戸市灘区,桜口町３丁目１番２１－４１２号,,28,102,6570036,,,,,,,2021-08-17,1,,,,,ワンレム,0
2255,9140003016640,新規,0,2021-08-17,2021-08-17,合同会社スピラックマーケティング,,合同会社,兵庫県,神戸市灘区,宮山町３丁目１番１８－３０６号,,28,102,6570065,,,,,,,2021-08-17,1,,,,,スピラックマーケティング,0
2257,9150001024859,新規,0,2021-08-17,2021-08-17,株式会社エコファーム,,株式会社,奈良県,北葛城郡広陵町,みささぎ台２７番４１,,29,426,6350835,,,,,,,2021-08-17,1,,,,,エコファーム,0
2261,9180001147434,新規,0,2021-08-17,2021-08-17,ササエルデザイン株式会社,,株式会社,愛知県,名古屋市西区,浄心２丁目１番６号ソブエビル７０３号室,,23,104,4510061,,,,,,,2021-08-17,1,,,,,ササエルデザイン,0
2267,9190001028609,新規,0,2021-08-17,2021-08-17,株式会社アイティーエス工務店,,株式会社,三重県,度会郡玉城町,小社曽根２２０８番地,,24,461,5190422,,,,,,,2021-08-17,1,,,,,アイティーエスコウムテン,0
2272,9200003005281,新規,0,2021-08-17,2021-08-17,ＭＴ６合同会社,,合同会社,岐阜県,岐阜市,茜部菱野１丁目６７番地３ファイン河八１－Ｂ,,21,201,5008268,,,,,,,2021-08-17,1,,,,,エムティーシックス,0
2275,9220005008586,新規,0,2021-08-17,2021-08-17,ＮＰＯ法人未来創造うちなだ,,その他の設立登記法人,石川県,河北郡内灘町,字鶴ケ丘２丁目３１１番地,,17,365,9200271,,,,,,,2021-08-17,1,,,,,ミライソウゾウウチナダ,0
2285,9280003001521,新規,0,2021-08-17,2021-08-17,合同会社ＮＣＳ,,合同会社,島根県,松江市,上乃木８丁目１６番２３号,,32,201,6900015,,,,,,,2021-08-17,1,,,,,,0
2290,9290001094228,新規,0,2021-08-17,2021-08-17,株式会社丸筑農園,,株式会社,福岡県,久留米市,田主丸町常盤６４５番地２,,40,203,8391232,,,,,,,2021-08-17,1,,,,,マルチクノウエン,0
2292,9290801027709,新規,0,2021-08-17,2021-08-17,株式会社秀明,,株式会社,福岡県,北九州市八幡西区,日吉台１丁目２番８号,,40,109,8070866,,,,,,,2021-08-17,1,,,,,シュウメイ,0
2295,9320005009913,新規,0,2021-08-17,2021-08-17,一般社団法人ＪＫＳＡ,,その他の設立登記法人,大分県,日田市,天瀬町出口１２０７番地,,44,204,8770114,,,,,,,2021-08-17,1,,,,,ジエイケイエスエイ,0
2303,9340001024022,新規,0,2021-08-17,2021-08-17,株式会社小宮山金属設計事務所,,株式会社,鹿児島県,薩摩川内市,中福良町２１３２番地１,,46,215,8950042,,,,,,,2021-08-17,1,,,,,コミヤマキンゾクセッケイジムショ,0
2307,9360001029242,新規,0,2021-08-17,2021-08-17,株式会社カート,,株式会社,沖縄県,豊見城市,字我那覇５４６番地３,,47,212,9010231,,,,,,,2021-08-17,1,,,,,カート,0
2317,9430001084726,新規,0,2021-08-17,2021-08-17,株式会社ＫＯＴＯＢＵＫＩ,,株式会社,北海道,札幌市中央区,北三条東２丁目２番地３０,,01,101,0600033,,,,,,,2021-08-17,1,,,,,コトブキ,0
2319,9450001013443,新規,0,2021-08-17,2021-08-17,株式会社電業ホールディングス,,株式会社,北海道,旭川市,十条通２２丁目１番地３,,01,204,0788220,,,,,,,2021-08-17,1,,,,,デンギョウホールディングス,0
2327,9700150104422,新規,0,2021-08-17,2021-08-17,Ｄａｔａ　Ｗｏｒｋｓｈｏｐ　Ｎｅｐａｌ　Ｐｖｔ．Ｌｔｄ,,外国会社等,愛知県,名古屋市中区,栄１丁目２３番２９号サンハイツ伏見３Ｄ号,,23,106,4600008,ネパール国バグマティ州バクタプル郡チャングナラヤン市第３区,,,,,,2021-08-17,1,,,,,データーワークシヨツプネパールプライベートリミテツド,0
2328,9700150104439,新規,0,2021-08-17,2021-08-17,ＡＱＵＡ　ＬＡＮＫＡ　ＥＮＴＲＰＲＩＳＥＳ　ＰＶＴ　ＬＴＤ,,外国会社等,奈良県,宇陀市,室生無山１０５番地２１２テロオフィスビルディング２号,,29,212,6320207,スリランカ民主社会主義共和国、アクラナ、ドダンゴラ、２３６－１,,,,,,2021-08-17,1,,,,,アクアランカエンタープライセスピーヴイテイリミテツド,0
