sequenceNumber,corporateNumber,process,correct,updateDate,changeDate,name,nameImageId,kind,prefectureName,cityName,streetNumber,addressImageId,prefectureCode,cityCode,postCode,addressOutside,addressOutsideImageId,closeDate,closeCause,successorCorporateNumber,changeCause,assignmentDate,latest,enName,enPrefectureName,enCityName,enAddressOutside,furigana,hihyoji
9,1010001229264,新規,0,2022-09-07,2022-09-07,株式会社ＥＬＩＮＨＡ　Ｊａｐａｎ,,株式会社,東京都,中央区,銀座６丁目１０番１号,,13,102,1040061,,,,,,,2022-09-07,1,,,,,エリナジャパン,0
10,1010001229280,新規,0,2022-09-07,2022-09-07,マルベリーアセットマネジメント株式会社,,株式会社,東京都,中央区,月島３丁目１３番７号‐３０２,,13,102,1040052,,,,,,,2022-09-07,1,,,,,マルベリーアセットマネジメント,0
11,1010001229314,新規,0,2022-09-07,2022-09-07,株式会社ＥＳ,,株式会社,東京都,中央区,日本橋室町２丁目４番３号,,13,102,1030022,,,,,,,2022-09-07,1,,,,,イーエス,0
12,1010001229339,新規,0,2022-09-07,2022-09-07,株式会社ｂｌｏｏｍｉｅ,,株式会社,東京都,中央区,日本橋人形町１丁目７番４－８０２号,,13,102,1030013,,,,,,,2022-09-07,1,,,,,ブルーミー,0
13,1010003038580,新規,0,2022-09-07,2022-09-07,合同会社ｕｎーＧｒａｐｈｉｃｓ,,合同会社,東京都,中央区,晴海３丁目１３番１－７１３号,,13,102,1040053,,,,,,,2022-09-07,1,,,,,アングラフィクス,0
14,1010003038597,新規,0,2022-09-07,2022-09-07,２４６ラボ合同会社,,合同会社,東京都,中央区,銀座１丁目１２番４号Ｎ＆ＥＢＬＤ．６Ｆ,,13,102,1040061,,,,,,,2022-09-07,1,,,,,,0
23,1010401169358,新規,0,2022-09-07,2022-09-07,株式会社ピアコミット,,株式会社,東京都,港区,北青山２丁目７第２猪瀬ビル２Ｆ,,13,103,1070061,,,,,,,2022-09-07,1,,,,,ピアコミット,0
24,1010401169374,新規,0,2022-09-07,2022-09-07,株式会社ＯＷＬ,,株式会社,東京都,港区,六本木３丁目１４番９号ユア六本木５Ｆ,,13,103,1060032,,,,,,,2022-09-07,1,,,,,アウル,0
25,1010401169473,新規,0,2022-09-07,2022-09-07,株式会社ＡＶＡＮＺＡＲＥ,,株式会社,東京都,港区,南青山２丁目２番１５号ウィン青山９４２,,13,103,1070062,,,,,,,2022-09-07,1,,,,,アヴァンツァーレ,0
26,1010401169531,新規,0,2022-09-07,2022-09-07,ビ・リチュアルズ株式会社,,株式会社,東京都,港区,高輪３丁目１１番８－２４０６号,,13,103,1080074,,,,,,,2022-09-07,1,,,,,ビリチュアルズ,0
27,1010401169548,新規,0,2022-09-07,2022-09-07,株式会社Ｍ．Ｃ,,株式会社,東京都,港区,高輪１丁目４番３－１９０３号,,13,103,1080074,,,,,,,2022-09-07,1,,,,,エムシー,0
34,1010403028355,新規,0,2022-09-07,2022-09-07,合同会社エム・シー・エー,,合同会社,東京都,港区,東麻布２丁目２０－３アザビーテラス４Ｆ,,13,103,1060044,,,,,,,2022-09-07,1,,,,,エムシーエー,0
35,1010403028388,新規,0,2022-09-07,2022-09-07,ＥＭＢＥＲＳ合同会社,,合同会社,東京都,港区,南青山２丁目２番１５号,,13,103,1070062,,,,,,,2022-09-07,1,,,,,エンバース,0
36,1010403028438,新規,0,2022-09-07,2022-09-07,合同会社港ｅｒｋ,,合同会社,東京都,港区,芝浦４丁目２２番１号,,13,103,1080023,,,,,,,2022-09-07,1,,,,,ミナトイーアールケー,0
42,1010601061793,新規,0,2022-09-07,2022-09-07,株式会社ＰＯＲＴＥ　ＨＯＭＭＥ,,株式会社,東京都,江東区,東陽５丁目１７番９号,,13,108,1350016,,,,,,,2022-09-07,1,,,,,ポルテオム,0
43,1010601061810,新規,0,2022-09-07,2022-09-07,株式会社アライアンスプラス,,株式会社,東京都,江東区,大島１丁目２番２ザ・ガーデンタワーズサンセットタワー２０３号,,13,108,1360072,,,,,,,2022-09-07,1,,,,,アライアンスプラス,0
44,1010601061827,新規,0,2022-09-07,2022-09-07,株式会社奥富工務店,,株式会社,東京都,江東区,大島７丁目２１番１３号,,13,108,1360072,,,,,,,2022-09-07,1,,,,,オクドミコウムテン,0
49,1010701043171,新規,0,2022-09-07,2022-09-07,株式会社ＣＡＬＭＡ,,株式会社,東京都,品川区,東五反田４丁目１番２７－２－３０６号,,13,109,1410022,,,,,,,2022-09-07,1,,,,,カルマ,0
59,1010905004366,新規,0,2022-09-07,2022-09-07,一般社団法人ＳＴＲヘルスケアグループ,,その他の設立登記法人,東京都,世田谷区,松原６丁目３９番１８号自然センタービル梅ヶ丘事務所棟４階,,13,112,1560043,,,,,,,2022-09-07,1,,,,,エスティアールヘルスケアグループ,0
64,1011001149584,新規,0,2022-09-07,2022-09-07,株式会社事業人,,株式会社,東京都,渋谷区,渋谷２丁目２４番１２号渋谷スクランブルスクエア３９階,,13,113,1500002,,,,,,,2022-09-07,1,,,,,ジギョウジン,0
65,1011001149592,新規,0,2022-09-07,2022-09-07,株式会社Ｓｉｎｃｅｒｅ,,株式会社,東京都,渋谷区,代々木３丁目３６番１号,,13,113,1510053,,,,,,,2022-09-07,1,,,,,シンシアー,0
66,1011001149683,新規,0,2022-09-07,2022-09-07,株式会社チャージサポート,,株式会社,東京都,渋谷区,神宮前６丁目２３番４号桑野ビル２階,,13,113,1500001,,,,,,,2022-09-07,1,,,,,チャージサポート,0
69,1011101100083,新規,0,2022-09-07,2022-09-07,株式会社ＬｉｎＫ　Ｓｏｕｎｄ　Ｄｅｓｉｇｎ,,株式会社,東京都,新宿区,下宮比町２番２８号飯田橋ハイタウン９１６,,13,104,1620822,,,,,,,2022-09-07,1,,,,,リンクサウンドデザイン,0
70,1011101100091,新規,0,2022-09-07,2022-09-07,ｍ＆ｓｐａ株式会社,,株式会社,東京都,新宿区,新宿５丁目１３番１号,,13,104,1600022,,,,,,,2022-09-07,1,,,,,エムアンドスパ,0
71,1011103012137,新規,0,2022-09-07,2022-09-07,合同会社サイズ・オリエンタル,,合同会社,東京都,新宿区,西新宿５丁目２４番１６号,,13,104,1600023,,,,,,,2022-09-07,1,,,,,サイズオリエンタル,0
72,1011201024083,新規,0,2022-09-07,2022-09-07,株式会社ユーストジャパン,,株式会社,東京都,中野区,江古田２丁目２２番４号,,13,114,1650022,,,,,,,2022-09-07,1,,,,,ユーストジャパン,0
74,1011305002852,新規,0,2022-09-07,2022-09-07,医療法人社団Ｎ　ｉｇｒｅｋ,,その他の設立登記法人,東京都,杉並区,高円寺南１丁目６番１３号エスポワール１階,,13,115,1660003,,,,,,,2022-09-07,1,,,,,エヌイグレック,0
79,1011701025589,新規,0,2022-09-07,2022-09-07,Ｏｐｅｎ　Ｒｅａｃｈ　Ｍａｒｋｅｔｉｎｇ株式会社,,株式会社,東京都,江戸川区,西葛西６丁目１５－１５ミューズ西葛西９０１,,13,123,1340088,,,,,,,2022-09-07,1,,,,,オープンリーチマーケティング,0
83,1012301013125,新規,0,2022-09-07,2022-09-07,エムエー株式会社,,株式会社,東京都,町田市,金井３丁目８番地１,,13,209,1950072,,,,,,,2022-09-07,1,,,,,エムエー,0
86,1012401039598,新規,0,2022-09-07,2022-09-07,株式会社ＲＩＳＫ,,株式会社,東京都,武蔵野市,西久保１丁目３番１０号,,13,203,1800013,,,,,,,2022-09-07,1,,,,,リスク,0
87,1012401039607,新規,0,2022-09-07,2022-09-07,エフシー設備株式会社,,株式会社,東京都,府中市,小柳町２丁目４７番地の２９,,13,206,1830013,,,,,,,2022-09-07,1,,,,,エフシーセツビ,0
88,1012401039623,新規,0,2022-09-07,2022-09-07,ビルホーク株式会社,,株式会社,東京都,武蔵野市,境南町２丁目３番１４‐８０２号,,13,203,1800023,,,,,,,2022-09-07,1,,,,,ビルホーク,0
98,1013301049621,新規,0,2022-09-07,2022-09-07,株式会社ノヴァリンク,,株式会社,東京都,豊島区,南長崎４丁目３３番９号ルミエール４０１号,,13,116,1710052,,,,,,,2022-09-07,1,,,,,ノヴァリンク,0
107,1020003022352,新規,0,2022-09-07,2022-09-07,合同会社Ｋ２Ｃ,,合同会社,神奈川県,川崎市高津区,久末１７７８番地１,,14,134,2130026,,,,,,,2022-09-07,1,,,,,ケーツーシー,0
118,1021001076893,新規,0,2022-09-07,2022-09-07,株式会社ＲＳみらいパートナーズ,,株式会社,神奈川県,小田原市,城山２丁目２６番２７－１５号,,14,206,2500045,,,,,,,2022-09-07,1,,,,,アールエスミライパートナーズ,0
119,1021001076927,新規,0,2022-09-07,2022-09-07,株式会社アインビクトリーナ,,株式会社,神奈川県,横須賀市,若宮台３３番１８号,,14,201,2390829,,,,,,,2022-09-07,1,,,,,アインビクトリーナ,0
129,1030001149931,新規,0,2022-09-07,2022-09-07,ＳＨＩＮＳＥＩ株式会社,,株式会社,埼玉県,蕨市,中央２丁目１番２８号,,11,223,3350004,,,,,,,2022-09-07,1,,,,,シンセイ,0
130,1030001149956,新規,0,2022-09-07,2022-09-07,モビリティプラットフォーム株式会社,,株式会社,埼玉県,さいたま市大宮区,桜木町１丁目７番地５,,11,103,3300854,,,,,,,2022-09-07,1,,,,,モビリティプラットフォーム,0
131,1030001149964,新規,0,2022-09-07,2022-09-07,株式会社ウィルハート,,株式会社,埼玉県,川口市,大字差間８８番地の２０,,11,203,3330816,,,,,,,2022-09-07,1,,,,,ウィルハート,0
135,1030003020149,新規,0,2022-09-07,2022-09-07,グロバリーフ合同会社,,合同会社,埼玉県,越谷市,宮本町１丁目１１９番地５－００１,,11,222,3430806,,,,,,,2022-09-07,1,,,,,グロバリーフ,0
138,1040001124875,新規,0,2022-09-07,2022-09-07,株式会社かえる,,株式会社,千葉県,柏市,手賀の杜３丁目１５－５メゾンドジャンシアーヌＢ１０２,,12,217,2701447,,,,,,,2022-09-07,1,,,,,カエル,0
139,1040001124925,新規,0,2022-09-07,2022-09-07,株式会社福和工業,,株式会社,千葉県,市原市,村上６５５番地１１,,12,219,2900031,,,,,,,2022-09-07,1,,,,,フクワコウギョウ,0
140,1040001124933,新規,0,2022-09-07,2022-09-07,株式会社ヒロプラス,,株式会社,千葉県,君津市,泉３５２番地４,,12,225,2991112,,,,,,,2022-09-07,1,,,,,ヒロプラス,0
141,1040001124966,新規,0,2022-09-07,2022-09-07,ＡＭＥ交通株式会社,,株式会社,千葉県,成田市,取香５９８番地２,,12,211,2860106,,,,,,,2022-09-07,1,,,,,アメコウツウ,0
142,1040001124982,新規,0,2022-09-07,2022-09-07,株式会社電気ハツラツ,,株式会社,千葉県,船橋市,芝山４丁目１８番１号,,12,204,2740816,,,,,,,2022-09-07,1,,,,,デンキハツラツ,0
143,1040001124999,新規,0,2022-09-07,2022-09-07,株式会社ＪＩＮ,,株式会社,千葉県,山武郡芝山町,香山新田２９番地４,,12,409,2891601,,,,,,,2022-09-07,1,,,,,ジン,0
144,1040001125007,新規,0,2022-09-07,2022-09-07,株式会社アステリズム,,株式会社,千葉県,浦安市,弁天１丁目１７番３号,,12,227,2790026,,,,,,,2022-09-07,1,,,,,アステリズム,0
148,1050001051623,新規,0,2022-09-07,2022-09-07,株式会社３ｒｄ,,株式会社,茨城県,東茨城郡茨城町,大字奥谷１８８８番地１,,08,302,3113156,,,,,,,2022-09-07,1,,,,,サード,0
153,1060001035237,新規,0,2022-09-07,2022-09-07,株式会社栃木精密,,株式会社,栃木県,栃木市,新井町１０３３番地５,,09,203,3280061,,,,,,,2022-09-07,1,,,,,トチギセイミツ,0
154,1060001035245,新規,0,2022-09-07,2022-09-07,村上電気株式会社,,株式会社,栃木県,さくら市,蒲須坂２７６番地７,,09,214,3291332,,,,,,,2022-09-07,1,,,,,ムラカミデンキ,0
155,1060001035253,新規,0,2022-09-07,2022-09-07,株式会社ネパール＆ジャパン,,株式会社,栃木県,宇都宮市,菊水町１１番１９号,,09,201,3200844,,,,,,,2022-09-07,1,,,,,ネパールアンドジャパン,0
157,1070001039600,新規,0,2022-09-07,2022-09-07,株式会社グルーヴミュージック,,株式会社,群馬県,高崎市,連雀町１３４番地Ｂ１,,10,202,3700826,,,,,,,2022-09-07,1,,,,,グルーヴミュージック,0
161,1080001025178,新規,0,2022-09-07,2022-09-07,株式会社ことぶき農園,,株式会社,静岡県,静岡市清水区,下野西５番１３号,,22,103,4240012,,,,,,,2022-09-07,1,,,,,コトブキノウエン,0
175,1110005016847,新規,0,2022-09-07,2022-09-07,医療法人雅美会,,その他の設立登記法人,新潟県,十日町市,春日町１丁目１０２番地,,15,210,9480057,,,,,,,2022-09-07,1,,,,,マサミカイ,0
188,1120001248633,新規,0,2022-09-07,2022-09-07,九英株式会社,,株式会社,大阪府,大阪市住吉区,万代東１丁目３－２２メゾン東和１０２号室,,27,120,5580056,,,,,,,2022-09-07,1,,,,,キュウエイ,0
189,1120001248682,新規,0,2022-09-07,2022-09-07,株式会社ジュエルプロ,,株式会社,大阪府,大阪市中央区,谷町７丁目２番６号クレール谷町１Ｆ,,27,128,5420012,,,,,,,2022-09-07,1,,,,,ジュエルプロ,0
190,1120001248690,新規,0,2022-09-07,2022-09-07,株式会社あん巣木工所,,株式会社,大阪府,寝屋川市,仁和寺本町５丁目３番４号,,27,215,5720076,,,,,,,2022-09-07,1,,,,,アンズモッコウショ,0
195,1120005023173,新規,0,2022-09-07,2022-09-07,一般社団法人いろは,,その他の設立登記法人,大阪府,大阪市東淀川区,小松４丁目９－２４,,27,114,5330004,,,,,,,2022-09-07,1,,,,,イロハ,0
197,1120101066200,新規,0,2022-09-07,2022-09-07,株式会社ザナドゥ,,株式会社,大阪府,河内長野市,栄町３７番３号,,27,216,5860032,,,,,,,2022-09-07,1,,,,,ザナドゥ,0
199,1120901046426,新規,0,2022-09-07,2022-09-07,株式会社小澤商事,,株式会社,大阪府,池田市,鉢塚３丁目１－１０,,27,204,5630024,,,,,,,2022-09-07,1,,,,,オザワショウジ,0
214,1150001025798,新規,0,2022-09-07,2022-09-07,株式会社ＡＲＣＯ,,株式会社,奈良県,大和郡山市,城町６９１番地１,,29,203,6391051,,,,,,,2022-09-07,1,,,,,アルコ,0
216,1170005006974,新規,0,2022-09-07,2022-09-07,一般社団法人しろにし,,その他の設立登記法人,和歌山県,有田郡有田川町,大字二川３６１番地,,30,366,6430542,,,,,,,2022-09-07,1,,,,,シロニシ,0
220,1180001152953,新規,0,2022-09-07,2022-09-07,株式会社こぐま会計社,,株式会社,愛知県,名古屋市千種区,上野２丁目１３－１５,,23,101,4640082,,,,,,,2022-09-07,1,,,,,コグマカイケイシャ,0
222,1180003024218,新規,0,2022-09-07,2022-09-07,合同会社桑夢,,合同会社,愛知県,名古屋市西区,菊井２丁目６番１号,,23,104,4510044,,,,,,,2022-09-07,1,,,,,ソウム,0
223,1180003024226,新規,0,2022-09-07,2022-09-07,合同会社ＳＨＵＢＩ,,合同会社,愛知県,春日井市,旭町４丁目５６番地,,23,206,4860929,,,,,,,2022-09-07,1,,,,,シュビ,0
224,1180005019918,新規,0,2022-09-07,2022-09-07,医療法人友虹会,,その他の設立登記法人,愛知県,稲沢市,増田北町１４７番地,,23,220,4928425,,,,,,,2022-09-07,1,,,,,ユウコウカイ,0
234,1210001019075,新規,0,2022-09-07,2022-09-07,ＩＲＯＨＡ　ＦＡＣＴＯＲＹ株式会社,,株式会社,福井県,小浜市,平野１３番地９,,18,204,9170226,,,,,,,2022-09-07,1,,,,,イロハファクトリー,0
238,1220003003357,新規,0,2022-09-07,2022-09-07,合同会社こわん,,合同会社,石川県,金沢市,泉２丁目１５番２９号,,17,201,9218041,,,,,,,2022-09-07,1,,,,,コワン,0
241,1240001060349,新規,0,2022-09-07,2022-09-07,和修外装株式会社,,株式会社,広島県,広島市西区,南観音２丁目７番２１号,,34,104,7330035,,,,,,,2022-09-07,1,,,,,ワシュウガイソウ,0
246,1260001037238,新規,0,2022-09-07,2022-09-07,株式会社ＴＩ＆ＭＯＰＨ　ＪＡＰＡＮ,,株式会社,岡山県,岡山市南区,万倍１０１番地４,,33,104,7000955,,,,,,,2022-09-07,1,,,,,ティーアイアンドモフジャパン,0
253,1290001098847,新規,0,2022-09-07,2022-09-07,株式会社マストリーチ,,株式会社,福岡県,福岡市中央区,今泉２丁目３－３８,,40,133,8100021,,,,,,,2022-09-07,1,,,,,マストリーチ,0
254,1290001098863,新規,0,2022-09-07,2022-09-07,株式会社ＦＲＥＬＩ,,株式会社,福岡県,福岡市東区,舞松原６丁目１番１７号,,40,131,8130042,,,,,,,2022-09-07,1,,,,,フレリ,0
257,1290003012913,新規,0,2022-09-07,2022-09-07,安全衛生マネジメントセンター合同会社,,合同会社,福岡県,福岡市南区,五十川２丁目２４番３０号,,40,134,8150001,,,,,,,2022-09-07,1,,,,,アンゼンエイセイマネジメントセンター,0
258,1290801028870,新規,0,2022-09-07,2022-09-07,株式会社Ｔｈａｎｋｓ,,株式会社,福岡県,遠賀郡岡垣町,南高陽２番１３号,,40,383,8114226,,,,,,,2022-09-07,1,,,,,サンクス,0
262,1310001018026,新規,0,2022-09-07,2022-09-07,株式会社ＬＩＦＥ　ＧＲＯＷ,,株式会社,長崎県,大村市,大川田町９３６－２,,42,205,8560804,,,,,,,2022-09-07,1,,,,,ライフグロウ,0
270,1340005009497,新規,0,2022-09-07,2022-09-07,医療法人ななつ星,,その他の設立登記法人,鹿児島県,鹿児島市,加治屋町１番１,,46,201,8920846,,,,,,,2022-09-07,1,,,,,ナナツボシ,0
276,1370001049024,新規,0,2022-09-07,2022-09-07,株式会社西条内装,,株式会社,宮城県,仙台市太白区,秋保町湯向１番地の５,,04,104,9820245,,,,,,,2022-09-07,1,,,,,サイジョウナイソウ,0
285,1400001015996,新規,0,2022-09-07,2022-09-07,株式会社ＣＲＥＳＴ,,株式会社,岩手県,盛岡市,大通２丁目６－６京藤ビル１Ｆ,,03,201,0200022,,,,,,,2022-09-07,1,,,,,クレスト,0
286,1420001017999,新規,0,2022-09-07,2022-09-07,株式会社セーフティファースト青森,,株式会社,青森県,青森市,浪岡大字杉沢字山元２４６番地３,,02,201,0381305,,,,,,,2022-09-07,1,,,,,セーフティファーストアオモリ,0
290,1440001009144,新規,0,2022-09-07,2022-09-07,株式会社Ｅ‐ｆｉｖｅ,,株式会社,北海道,函館市,高松町５３３番地４３,,01,202,0420952,,,,,,,2022-09-07,1,,,,,イーファイブ,0
293,1480003001871,新規,0,2022-09-07,2022-09-07,ｃｉｅｌ合同会社,,合同会社,徳島県,三好市,池田町シマ８７１－２,,36,208,7780005,,,,,,,2022-09-07,1,,,,,シエル,0
294,1500001024450,新規,0,2022-09-07,2022-09-07,中央コンサルティング株式会社,,株式会社,愛媛県,四国中央市,寒川町１８４１番地,,38,213,7990431,,,,,,,2022-09-07,1,,,,,チュウオウコンサルティング,0
305,2010005035526,新規,0,2022-09-07,2022-09-07,医療法人社団ＮＥＸＵＳ,,その他の設立登記法人,東京都,千代田区,有楽町２丁目３番５号ａｕｎｅ有楽町６階,,13,101,1000006,,,,,,,2022-09-07,1,,,,,ネクサス,0
313,2010401169480,新規,0,2022-09-07,2022-09-07,株式会社Ｊｉｅｌ,,株式会社,東京都,港区,新橋６丁目１１番１３－２７０５号,,13,103,1050004,,,,,,,2022-09-07,1,,,,,ジエル,0
314,2010401169555,新規,0,2022-09-07,2022-09-07,株式会社ミギカタアガリ,,株式会社,東京都,港区,浜松町２丁目２番１５号,,13,103,1050013,,,,,,,2022-09-07,1,,,,,ミギカタアガリ,0
315,2010401169563,新規,0,2022-09-07,2022-09-07,ナカミツ株式会社,,株式会社,東京都,港区,南青山７丁目４番１８号,,13,103,1070062,,,,,,,2022-09-07,1,,,,,ナカミツ,0
319,2010403028420,新規,0,2022-09-07,2022-09-07,Ａｕｄｉｔ　Ｃｏｎｓｕｌｔｉｎｇ　Ｊａｐａｎ合同会社,,合同会社,東京都,港区,浜松町２丁目２番１５号浜松町ダイヤビル２Ｆ,,13,103,1050013,,,,,,,2022-09-07,1,,,,,オーディットコンサルティングジャパン,0
320,2010403028429,新規,0,2022-09-07,2022-09-07,合同会社ｓｔｒａｙａ,,合同会社,東京都,港区,南青山２丁目２番１５号,,13,103,1070062,,,,,,,2022-09-07,1,,,,,ストラーヤ,0
322,2010501049335,新規,0,2022-09-07,2022-09-07,川南株式会社,,株式会社,東京都,台東区,上野６丁目７番１６号川久保ビル４０１号室,,13,106,1100005,,,,,,,2022-09-07,1,,,,,カワナン,0
323,2010601061801,新規,0,2022-09-07,2022-09-07,株式会社Ｄｉｖｉｔｅｃ,,株式会社,東京都,江東区,亀戸１丁目２８番６号タニビル４階,,13,108,1360071,,,,,,,2022-09-07,1,,,,,ディヴィテック,0
324,2010601061818,新規,0,2022-09-07,2022-09-07,夢未来株式会社,,株式会社,東京都,江東区,豊洲３丁目４番２－３１０２号Ａ室,,13,108,1350061,,,,,,,2022-09-07,1,,,,,ユメミライ,0
325,2010701043154,新規,0,2022-09-07,2022-09-07,株式会社Ｇｌｉｇｈｔ,,株式会社,東京都,品川区,西品川１丁目１－１住友不動産大崎ガーデンタワー９階,,13,109,1410033,,,,,,,2022-09-07,1,,,,,グライト,0
326,2010701043162,新規,0,2022-09-07,2022-09-07,株式会社ａｕｌａ,,株式会社,東京都,品川区,大井１丁目５２番５号青木ビル２Ｆ,,13,109,1400014,,,,,,,2022-09-07,1,,,,,アウラ,0
331,2010901051519,新規,0,2022-09-07,2022-09-07,赤兎馬株式会社,,株式会社,東京都,世田谷区,玉川田園調布１丁目１４番３号,,13,112,1580085,,,,,,,2022-09-07,1,,,,,セキトバ,0
339,2011001149591,新規,0,2022-09-07,2022-09-07,株式会社ＳＨＩＲＡＨＡ,,株式会社,東京都,目黒区,東山１丁目２２番２７－１０１号エスペランサ東山,,13,110,1530043,,,,,,,2022-09-07,1,,,,,シラハ,0
340,2011001149600,新規,0,2022-09-07,2022-09-07,株式会社クロスオーバー,,株式会社,東京都,渋谷区,代々木２丁目３４番１１－４０４号,,13,113,1510053,,,,,,,2022-09-07,1,,,,,クロスオーバー,0
341,2011001149617,新規,0,2022-09-07,2022-09-07,株式会社ＳＡＬＩＦＯＲＴ,,株式会社,東京都,渋谷区,神南１丁目５－４ロイヤルパレス原宿３０２,,13,113,1500041,,,,,,,2022-09-07,1,,,,,サリフォート,0
347,2011101100082,新規,0,2022-09-07,2022-09-07,大信株式会社,,株式会社,東京都,新宿区,高田馬場１丁目３１番８号高田馬場ダイカンプラザ７０８,,13,104,1690075,,,,,,,2022-09-07,1,,,,,ダイシン,0
348,2011101100090,新規,0,2022-09-07,2022-09-07,株式会社推進塾,,株式会社,東京都,新宿区,新宿２丁目１２番１３号新宿アントレサロンビル２階,,13,104,1600022,,,,,,,2022-09-07,1,,,,,スイシンジュク,0
349,2011101100099,新規,0,2022-09-07,2022-09-07,株式会社エグゼクティブ研究所,,株式会社,東京都,新宿区,余丁町８番２１号,,13,104,1620055,,,,,,,2022-09-07,1,,,,,エグゼクティブケンキュウジョ,0
351,2011105010393,新規,0,2022-09-07,2022-09-07,一般社団法人手相心理学協会,,その他の設立登記法人,東京都,新宿区,天神町６６,,13,104,1620808,,,,,,,2022-09-07,1,,,,,テソウシンリガクキョウカイ,0
354,2011201024082,新規,0,2022-09-07,2022-09-07,株式会社ＳＳＥＮＳＥ,,株式会社,東京都,中野区,東中野１丁目１１番２６－３０３号,,13,114,1640003,,,,,,,2022-09-07,1,,,,,センス,0
356,2011203003902,新規,0,2022-09-07,2022-09-07,合同会社プライムパートナー,,合同会社,東京都,中野区,中野５丁目３２番１１号,,13,114,1640001,,,,,,,2022-09-07,1,,,,,プライムパートナー,0
359,2011301028082,新規,0,2022-09-07,2022-09-07,株式会社ろっかん塾,,株式会社,東京都,杉並区,高円寺南４丁目２７番１８号,,13,115,1660003,,,,,,,2022-09-07,1,,,,,ロッカンジュク,0
368,2011601026216,新規,0,2022-09-07,2022-09-07,株式会社Ｐｕｒｅ,,株式会社,東京都,練馬区,関町北３丁目４３番３０号,,13,120,1770051,,,,,,,2022-09-07,1,,,,,ピュア,0
375,2012401039606,新規,0,2022-09-07,2022-09-07,株式会社Ｎａｖｉａ,,株式会社,東京都,武蔵野市,吉祥寺本町１丁目２１番２号,,13,203,1800004,,,,,,,2022-09-07,1,,,,,ナビア,0
376,2012403005572,新規,0,2022-09-07,2022-09-07,合同会社ＳＴＯ,,合同会社,東京都,調布市,入間町２丁目２１番６５号,,13,208,1820004,,,,,,,2022-09-07,1,,,,,エスティーオー,0
377,2012405004779,新規,0,2022-09-07,2022-09-07,一般社団法人アレオラ,,その他の設立登記法人,東京都,小金井市,緑町４丁目１０番３号,,13,210,1840003,,,,,,,2022-09-07,1,,,,,アレオラ,0
378,2012803002871,新規,0,2022-09-07,2022-09-07,ＴＯＫＹＯ　ＦＩＢＥＲ合同会社,,合同会社,東京都,武蔵村山市,学園４丁目２１－４４,,13,223,2080011,,,,,,,2022-09-07,1,,,,,トウキョウファイバー,0
383,2013301049612,新規,0,2022-09-07,2022-09-07,Ｊ＆Ｚ株式会社,,株式会社,東京都,豊島区,北大塚１丁目２６番６号菅原ビル５０２号,,13,116,1700004,,,,,,,2022-09-07,1,,,,,ジェイアンドジー,0
384,2013301049620,新規,0,2022-09-07,2022-09-07,株式会社パラレルワールド,,株式会社,東京都,豊島区,北大塚１丁目１３－２－２００２,,13,116,1700004,,,,,,,2022-09-07,1,,,,,パラレルワールド,0
398,2020003022335,新規,0,2022-09-07,2022-09-07,Ｓ‐ＫＥＹ合同会社,,合同会社,神奈川県,横浜市中区,上野町１丁目１２番地,,14,104,2310842,,,,,,,2022-09-07,1,,,,,エスキー,0
404,2021001076934,新規,0,2022-09-07,2022-09-07,株式会社エートレス,,株式会社,神奈川県,座間市,緑ケ丘２丁目２４番１５号,,14,216,2520021,,,,,,,2022-09-07,1,,,,,エートレス,0
413,2030001149939,新規,0,2022-09-07,2022-09-07,株式会社レインボーリンク,,株式会社,埼玉県,新座市,栗原５丁目２番２０号ライオンズマンションひばりヶ丘６０４号室,,11,230,3520035,,,,,,,2022-09-07,1,,,,,レインボーリンク,0
414,2030001149955,新規,0,2022-09-07,2022-09-07,Ｌａｓｈｉｋｕ・Ｂｅｌｌｅ株式会社,,株式会社,埼玉県,越谷市,蒲生旭町９番４１号エントリービル,,11,222,3430842,,,,,,,2022-09-07,1,,,,,ラシクベル,0
415,2030001150021,新規,0,2022-09-07,2022-09-07,東林株式会社,,株式会社,埼玉県,志木市,柏町６丁目１番２９号レジデンス志木２０１号,,11,228,3530007,,,,,,,2022-09-07,1,,,,,トウリン,0
419,2030003020123,新規,0,2022-09-07,2022-09-07,合同会社ＩＭＡＧＥ　ＳＣＡＮＥＲ,,合同会社,埼玉県,幸手市,東３丁目１１番８号,,11,240,3400114,,,,,,,2022-09-07,1,,,,,イメージスキャナー,0
425,2040001124882,新規,0,2022-09-07,2022-09-07,ソヨンドリ株式会社,,株式会社,千葉県,市川市,塩焼４丁目１０番１棟７１１号行徳ニューハイツ,,12,203,2720114,,,,,,,2022-09-07,1,,,,,ソヨンドリ,0
426,2040001124916,新規,0,2022-09-07,2022-09-07,エステック・イースト株式会社,,株式会社,千葉県,市原市,能満２０８９番地２６,,12,219,2900011,,,,,,,2022-09-07,1,,,,,エステックイースト,0
427,2040001124949,新規,0,2022-09-07,2022-09-07,建物診断サポート株式会社,,株式会社,千葉県,市川市,福栄１丁目２番１４号,,12,203,2720137,,,,,,,2022-09-07,1,,,,,タテモノシンダンサポート,0
428,2040003020709,新規,0,2022-09-07,2022-09-07,合同会社Ｖ．ｅｌｍｅ,,合同会社,千葉県,八千代市,高津１３２６番地１ステラ２０３号,,12,221,2760036,,,,,,,2022-09-07,1,,,,,ヴィルーメ,0
435,2050003006830,新規,0,2022-09-07,2022-09-07,合同会社豊家,,合同会社,茨城県,つくば市,学園南３丁目５３番地２マリカコートＩＩ棟２０１号,00127776,08,220,3050818,,,,,,,2022-09-07,1,,,,,ユタカ,0
437,2060001035244,新規,0,2022-09-07,2022-09-07,吉田農園株式会社,,株式会社,栃木県,佐野市,高橋町３１３番地,,09,204,3270045,,,,,,,2022-09-07,1,,,,,ヨシダノウエン,0
438,2060001035252,新規,0,2022-09-07,2022-09-07,エン・ジェネレート株式会社,,株式会社,栃木県,鹿沼市,府中町１３２番地１,,09,205,3220034,,,,,,,2022-09-07,1,,,,,エンジェネレート,0
444,2070001039599,新規,0,2022-09-07,2022-09-07,株式会社Ｓ企画舎,,株式会社,群馬県,高崎市,緑町１丁目２７番地４,,10,202,3700073,,,,,,,2022-09-07,1,,,,,エスキカクシャ,0
445,2070001039608,新規,0,2022-09-07,2022-09-07,株式会社ｍａｒｓｈｍａｌｌｏｗ　ｈｅａｄ　ｐａｒｔｙ,,株式会社,群馬県,前橋市,川原町１丁目５６番地１６,,10,201,3710046,,,,,,,2022-09-07,1,,,,,マシュマロヘッドパーティー,0
446,2070005010036,新規,0,2022-09-07,2022-09-07,一般社団法人群馬県相続支援協会,,その他の設立登記法人,群馬県,前橋市,六供町１丁目１８番５号,,10,201,3710804,,,,,,,2022-09-07,1,,,,,グンマケンソウゾクシエンキョウカイ,0
453,2100001035685,新規,0,2022-09-07,2022-09-07,株式会社サンロック不動産,,株式会社,長野県,上田市,中之条７４１番地４２,,20,203,3860034,,,,,,,2022-09-07,1,,,,,サンロックフドウサン,0
463,2120001248624,新規,0,2022-09-07,2022-09-07,株式会社Ｔａｌｅａ,,株式会社,大阪府,大阪市城東区,蒲生３丁目８番６号,,27,118,5360016,,,,,,,2022-09-07,1,,,,,テンリー,0
464,2120001248665,新規,0,2022-09-07,2022-09-07,株式会社ＬｉＰＲＯ,,株式会社,大阪府,大阪市平野区,長吉出戸４丁目４番５０号,,27,126,5470011,,,,,,,2022-09-07,1,,,,,リプロ,0
465,2120001248673,新規,0,2022-09-07,2022-09-07,株式会社Ｓ＆Ｃ,,株式会社,大阪府,大阪市中央区,宗右衛門町５－３日宝ベルソワール玉屋町３階１号,,27,128,5420084,,,,,,,2022-09-07,1,,,,,エスアンドシー,0
466,2120001248681,新規,0,2022-09-07,2022-09-07,株式会社Ｙｏｕプラス,,株式会社,大阪府,大阪市中央区,北浜東５番４号コーシン北浜１０１,,27,128,5400031,,,,,,,2022-09-07,1,,,,,ユープラス,0
467,2120001248698,新規,0,2022-09-07,2022-09-07,ＨＩＰＰＯ株式会社,,株式会社,大阪府,大阪市東淀川区,小松１丁目１４－１５,,27,114,5330004,,,,,,,2022-09-07,1,,,,,ヒッポ,0
474,2120003022416,新規,0,2022-09-07,2022-09-07,デジタルヒーロー合同会社,,合同会社,大阪府,大阪市中央区,備後町３丁目６－２大雅ビル１０Ｆ,,27,128,5410051,,,,,,,2022-09-07,1,,,,,デジタルヒーロー,0
482,2120103004842,新規,0,2022-09-07,2022-09-07,廉商事合同会社,,合同会社,大阪府,貝塚市,水間３５８番,,27,208,5970104,,,,,,,2022-09-07,1,,,,,レンショウジ,0
496,2140003018098,新規,0,2022-09-07,2022-09-07,合同会社トモナリ,,合同会社,兵庫県,尼崎市,南武庫之荘５丁目１７番２７－１０２号,,28,202,6610033,,,,,,,2022-09-07,1,,,,,トモナリ,0
499,2160001024501,新規,0,2022-09-07,2022-09-07,土井商会株式会社,,株式会社,滋賀県,守山市,大門町３１２番地４,,25,207,5240052,,,,,,,2022-09-07,1,,,,,ドイショウカイ,0
501,2160005011108,新規,0,2022-09-07,2022-09-07,一般社団法人ＯＡＳＩＳ,,その他の設立登記法人,滋賀県,大津市,島の関７‐１３レジデンス琵琶２０５号,,25,201,5200042,,,,,,,2022-09-07,1,,,,,オアシス,0
504,2180001034325,新規,0,2022-09-07,2022-09-07,株式会社イマジン,,株式会社,愛知県,名古屋市中区,千代田１丁目８番２１号,,23,106,4600012,,,,,,,2022-09-07,1,,,,,イマジン,0
511,2180003024217,新規,0,2022-09-07,2022-09-07,ｃｒｅｓｃ．合同会社,,合同会社,愛知県,一宮市,千秋町加納馬場字魚目７番地１,,23,203,4910811,,,,,,,2022-09-07,1,,,,,クレッシェンド,0
512,2180003024241,新規,0,2022-09-07,2022-09-07,だるま美建合同会社,,合同会社,愛知県,名古屋市中村区,岩塚町４丁目３３,,23,105,4530862,,,,,,,2022-09-07,1,,,,,ダルマビケン,0
513,2180005019917,新規,0,2022-09-07,2022-09-07,医療法人加藤医院,,その他の設立登記法人,愛知県,瀬戸市,品野町５丁目３３３番地,,23,204,4801207,,,,,,,2022-09-07,1,,,,,カトウイイン,0
514,2180005019925,新規,0,2022-09-07,2022-09-07,医療法人光輪会,,その他の設立登記法人,愛知県,名古屋市南区,赤坪町６番地,,23,112,4570024,,,,,,,2022-09-07,1,,,,,コウリンカイ,0
522,2210001019041,新規,0,2022-09-07,2022-09-07,株式会社メイトスタジオ,,株式会社,福井県,福井市,大宮４丁目１５番２６号メイトビル２Ｆ,,18,201,9100016,,,,,,,2022-09-07,1,,,,,メイトスタジオ,0
526,2220001025022,新規,0,2022-09-07,2022-09-07,株式会社もりびと林業,,株式会社,石川県,加賀市,上野町１４９番地７,,17,206,9220322,,,,,,,2022-09-07,1,,,,,モリビトリンギョウ,0
531,2240001060356,新規,0,2022-09-07,2022-09-07,ライフスタイル・ラボ株式会社,,株式会社,広島県,広島市南区,翠４丁目９番１３号,,34,103,7340005,,,,,,,2022-09-07,1,,,,,ライフスタイルラボ,0
532,2240003005788,新規,0,2022-09-07,2022-09-07,合同会社Ｂ・Ｂ・ＳＴＹＬＥ,,合同会社,広島県,府中市,上下町上下５１５番地１,,34,208,7293431,,,,,,,2022-09-07,1,,,,,ビービースタイル,0
534,2250001019756,新規,0,2022-09-07,2022-09-07,株式会社福田,,株式会社,山口県,宇部市,上条３丁目３番３－８号,,35,202,7550801,,,,,,,2022-09-07,1,,,,,フクダ,0
536,2260001037229,新規,0,2022-09-07,2022-09-07,株式会社リカバリー,,株式会社,岡山県,岡山市東区,宍甘６４６番地１,,33,103,7038216,,,,,,,2022-09-07,1,,,,,リカバリー,0
547,2340001025019,新規,0,2022-09-07,2022-09-07,株式会社ＭＹ　ＬＩＶＥ　ＨＯＭＥＳ,,株式会社,鹿児島県,鹿児島市,玉里団地３丁目３７番２０－１３ダイヤハイツ玉里Ｂ棟１０３号,,46,201,8920811,,,,,,,2022-09-07,1,,,,,マイライブホームズ,0
553,2350001017948,新規,0,2022-09-07,2022-09-07,株式会社ＳＰＵＲ,,株式会社,宮崎県,宮崎市,神宮東１丁目１－６５－１４０４,,45,201,8800056,,,,,,,2022-09-07,1,,,,,シュプール,0
557,2360001030941,新規,0,2022-09-07,2022-09-07,株式会社ヨシダ,,株式会社,沖縄県,糸満市,字座波４番地の３,,47,210,9010314,,,,,,,2022-09-07,1,,,,,ヨシダ,0
558,2360003012277,新規,0,2022-09-07,2022-09-07,サンホライズン合同会社,,合同会社,沖縄県,沖縄市,比屋根２丁目１番７号ワイズベイシティ泡瀬１００６,,47,211,9042173,,,,,,,2022-09-07,1,,,,,サンホライズン,0
567,2430001087438,新規,0,2022-09-07,2022-09-07,株式会社フォルサス,,株式会社,北海道,札幌市豊平区,美園四条８丁目１番１号,,01,105,0620004,,,,,,,2022-09-07,1,,,,,フォルサス,0
568,2430001087462,新規,0,2022-09-07,2022-09-07,株式会社ＡＫＲ,,株式会社,北海道,札幌市中央区,南八条西５丁目２８９－１９０,,01,101,0640808,,,,,,,2022-09-07,1,,,,,エーケーアール,0
573,2430003014258,新規,0,2022-09-07,2022-09-07,合同会社ＧＦサービス,,合同会社,北海道,札幌市西区,平和二条４丁目４番３８号,,01,107,0630022,,,,,,,2022-09-07,1,,,,,ジーエフサービス,0
576,2450005004346,新規,0,2022-09-07,2022-09-07,税理士法人田村会計,,その他の設立登記法人,北海道,稚内市,潮見２丁目２番２２号,,01,214,0970002,,,,,,,2022-09-07,1,,,,,タムラカイケイ,0
578,2470005006464,新規,0,2022-09-07,2022-09-07,医療法人社団桜樹会こまつ歯科クリニック,,その他の設立登記法人,香川県,高松市,国分寺町新名６９４番地１,,37,201,7690104,,,,,,,2022-09-07,1,,,,,オウジュカイコマツシカクリニック,0
582,2500003002890,新規,0,2022-09-07,2022-09-07,合同会社ＲＥ０,,合同会社,愛媛県,松山市,中村１丁目１番２８－５０３号,,38,201,7900964,,,,,,,2022-09-07,1,,,,,,0
588,3010001229221,新規,0,2022-09-07,2022-09-07,ＯＤＳ株式会社,,株式会社,東京都,千代田区,神田須田町２丁目５番地,,13,101,1010041,,,,,,,2022-09-07,1,,,,,オーディーエス,0
589,3010001229238,新規,0,2022-09-07,2022-09-07,株式会社ＮＩＳＩＪＩＭＡリソース,,株式会社,東京都,中央区,銀座１丁目２２番１１号銀座大竹ビジデンス２Ｆ,,13,102,1040061,,,,,,,2022-09-07,1,,,,,ニシジマリソース,0
594,3010005035517,新規,0,2022-09-07,2022-09-07,一般社団法人固定チームナーシング研究会,,その他の設立登記法人,東京都,千代田区,丸の内１丁目６番２号,,13,101,1000005,,,,,,,2022-09-07,1,,,,,コテイチームナーシングケンキュウカイ,0
595,3010005035525,新規,0,2022-09-07,2022-09-07,医療法人社団永志会,,その他の設立登記法人,東京都,中央区,勝どき４丁目９番８号１階,,13,102,1040054,,,,,,,2022-09-07,1,,,,,エイシカイ,0
603,3010401169521,新規,0,2022-09-07,2022-09-07,株式会社Ｆｒｏｇｍｏｒｅ,,株式会社,東京都,港区,港南４丁目７番５９－３０１号,,13,103,1080075,,,,,,,2022-09-07,1,,,,,フロッグモア,0
609,3010405021331,新規,0,2022-09-07,2022-09-07,一般社団法人Ｊａｐａｎ　Ｃａｓｔｉｎｇ,,その他の設立登記法人,東京都,港区,南青山３丁目１５－９ＭＩＮＯＷＡ表参道３階,,13,103,1070062,,,,,,,2022-09-07,1,,,,,ジャパンキャスティング,0
610,3010405021372,新規,0,2022-09-07,2022-09-07,医療法人社団Ｊ＆Ｂ,,その他の設立登記法人,東京都,港区,六本木１丁目７番２８号落合麻布台ビル２０１号室,,13,103,1060032,,,,,,,2022-09-07,1,,,,,ジェイアンドビー,0
613,3010501049334,新規,0,2022-09-07,2022-09-07,株式会社エスジー・ミュージック・ファクトリー,,株式会社,東京都,台東区,寿１丁目３番４号,,13,106,1110042,,,,,,,2022-09-07,1,,,,,エスジーミュージックファクトリー,0
614,3010601061800,新規,0,2022-09-07,2022-09-07,株式会社ハッピードリーム,,株式会社,東京都,江東区,有明１丁目５番２－１１０９号,,13,108,1350063,,,,,,,2022-09-07,1,,,,,ハッピードリーム,0
620,3010701043153,新規,0,2022-09-07,2022-09-07,株式会社シャンティ・インターナショナル,,株式会社,東京都,品川区,上大崎２丁目２５番２号新目黒東急ビル１０階,,13,109,1410021,,,,,,,2022-09-07,1,,,,,シャンティインターナショナル,0
621,3010701043161,新規,0,2022-09-07,2022-09-07,ＴＨＥ　ＭＥＤＩＣＡＬ株式会社,,株式会社,東京都,品川区,東品川４丁目１１番３６－１２１７号,,13,109,1400002,,,,,,,2022-09-07,1,,,,,ザメディカル,0
623,3010801033244,新規,0,2022-09-07,2022-09-07,株式会社Ｔｒａｃｔｉｏｎ,,株式会社,東京都,大田区,東蒲田２丁目１５番６号,,13,111,1440031,,,,,,,2022-09-07,1,,,,,トラクション,0
624,3010805002971,新規,0,2022-09-07,2022-09-07,医療法人社団ＡＲｅｎ,,その他の設立登記法人,東京都,大田区,大森北１丁目２番２号福和ビル４階,,13,111,1430016,,,,,,,2022-09-07,1,,,,,アレン,0
625,3010901051583,新規,0,2022-09-07,2022-09-07,株式会社Ｋ３６,,株式会社,東京都,世田谷区,深沢７丁目５番２号ディアガーデン深沢Ａ棟,,13,112,1580081,,,,,,,2022-09-07,1,,,,,ケーサーティシックス,0
630,3011001149590,新規,0,2022-09-07,2022-09-07,株式会社ＨＯＬＯＮＩＣＡＬ,,株式会社,東京都,渋谷区,神宮前６丁目２３番４号,,13,113,1500001,,,,,,,2022-09-07,1,,,,,ホロニカル,0
631,3011001149616,新規,0,2022-09-07,2022-09-07,ＧＥ‐Ｏ‐ＡＤ株式会社,,株式会社,東京都,渋谷区,道玄坂１丁目１０番８号渋谷道玄坂東急ビル２Ｆ－Ｃ,,13,113,1500043,,,,,,,2022-09-07,1,,,,,ジオーアド,0
632,3011003015147,新規,0,2022-09-07,2022-09-07,合同会社ＬｉＭｏｏｍ,,合同会社,東京都,渋谷区,道玄坂１丁目１０番８号渋谷道玄坂東急ビル２Ｆ－Ｃ,,13,113,1500043,,,,,,,2022-09-07,1,,,,,リムーム,0
633,3011003015329,新規,0,2022-09-07,2022-09-07,Ｕｔｉｍａｃｏ　Ｊａｐａｎ合同会社,,合同会社,東京都,渋谷区,東１丁目２８番６号ライオンズマンション渋谷シティ１１０２,,13,113,1500011,,,,,,,2022-09-07,1,,,,,ウティマコジャパン,0
636,3011101100098,新規,0,2022-09-07,2022-09-07,株式会社未来,,株式会社,東京都,新宿区,新宿７丁目１１番５号,,13,104,1600022,,,,,,,2022-09-07,1,,,,,ミライ,0
637,3011103012135,新規,0,2022-09-07,2022-09-07,合同会社メジコン,,合同会社,東京都,新宿区,北新宿１丁目２０番１１号イスタナ北新宿３０１,,13,104,1690074,,,,,,,2022-09-07,1,,,,,メジコン,0
638,3011105010392,新規,0,2022-09-07,2022-09-07,医療法人社団志朋会,,その他の設立登記法人,東京都,新宿区,四谷三栄町１２番７号ＴＥＲＲＡＣＥＳＩＴＥ四谷１階,,13,104,1600008,,,,,,,2022-09-07,1,,,,,シホウカイ,0
641,3011305002850,新規,0,2022-09-07,2022-09-07,医療法人社団ＫＩＭＣ,,その他の設立登記法人,東京都,杉並区,久我山２丁目２８番４号久我山ＭＣビルディング２階・３階,,13,115,1680082,,,,,,,2022-09-07,1,,,,,ケイアイエムシイ,0
645,3011601026215,新規,0,2022-09-07,2022-09-07,株式会社ＲｉｎＣｏ．,,株式会社,東京都,練馬区,光が丘５丁目６番４－５０７号,,13,120,1790072,,,,,,,2022-09-07,1,,,,,リンカンパニー,0
649,3012301013123,新規,0,2022-09-07,2022-09-07,ＹＭＲ株式会社,,株式会社,東京都,町田市,常盤町３３３１番地２５,,13,209,1940213,,,,,,,2022-09-07,1,,,,,ワイエムアール,0
650,3012401039605,新規,0,2022-09-07,2022-09-07,いぬわん株式会社,,株式会社,東京都,調布市,深大寺元町２丁目１２番地１３,,13,208,1820017,,,,,,,2022-09-07,1,,,,,イヌワン,0
651,3012401039613,新規,0,2022-09-07,2022-09-07,Ｓｔａｇｅｌｉｎｋ株式会社,,株式会社,東京都,狛江市,岩戸南４丁目３番２５号,,13,219,2010005,,,,,,,2022-09-07,1,,,,,ステージリンク,0
652,3012401039621,新規,0,2022-09-07,2022-09-07,株式会社ＡＣＴ,,株式会社,東京都,多摩市,豊ヶ丘１丁目４７番地の６,,13,224,2060031,,,,,,,2022-09-07,1,,,,,アクト,0
653,3012403005571,新規,0,2022-09-07,2022-09-07,合同会社Ｂｌｉｎｋｓ,,合同会社,東京都,武蔵野市,吉祥寺本町４丁目２０番１５－３０４号,,13,203,1800004,,,,,,,2022-09-07,1,,,,,ブリンクス,0
654,3012801021831,新規,0,2022-09-07,2022-09-07,株式会社ＦＴＳ,,株式会社,東京都,立川市,上砂町４丁目３９番地の１,,13,202,1900032,,,,,,,2022-09-07,1,,,,,エフティーエス,0
655,3013301049611,新規,0,2022-09-07,2022-09-07,株式会社アスク東京,,株式会社,東京都,豊島区,東池袋１丁目４５番３号,,13,116,1700013,,,,,,,2022-09-07,1,,,,,アスクトウキョウ,0
667,3020001148073,新規,0,2022-09-07,2022-09-07,ＦＵＪＩホールディングス株式会社,,株式会社,神奈川県,川崎市川崎区,東扇島９２番地,,14,131,2100869,,,,,,,2022-09-07,1,,,,,フジホールディングス,0
668,3020001148123,新規,0,2022-09-07,2022-09-07,株式会社ヨシノコミュニケーションズ,,株式会社,神奈川県,横浜市鶴見区,市場富士見町１番２１号,,14,101,2300026,,,,,,,2022-09-07,1,,,,,ヨシノコミュニケーションズ,0
669,3020001148156,新規,0,2022-09-07,2022-09-07,ＯＮＥＳ　ＪＡＰＡＮ株式会社,,株式会社,神奈川県,横浜市中区,長者町５丁目７５番地１スクエア長者町５１４号,,14,104,2310033,,,,,,,2022-09-07,1,,,,,ワンズジャパン,0
675,3020003022350,新規,0,2022-09-07,2022-09-07,合同会社ＮＫ‐ｓｔｙｌｅ,,合同会社,神奈川県,横浜市南区,別所４丁目４番１９号ルピナス上大岡Ｉ－１０１,00127765,14,105,2320064,,,,,,,2022-09-07,1,,,,,エヌケイスタイル,0
676,3020003022359,新規,0,2022-09-07,2022-09-07,ＬＷツインズ合同会社,,合同会社,神奈川県,横浜市青葉区,みたけ台２番地２５,,14,117,2270047,,,,,,,2022-09-07,1,,,,,エルダブリューツインズ,0
679,3021001076891,新規,0,2022-09-07,2022-09-07,株式会社Ｌｉｇｕｌａ,,株式会社,神奈川県,秦野市,鶴巻北２丁目５番２０号,,14,211,2570001,,,,,,,2022-09-07,1,,,,,リグラ,0
680,3021001076933,新規,0,2022-09-07,2022-09-07,株式会社エムティ,,株式会社,神奈川県,海老名市,門沢橋６丁目２１番４号,,14,215,2430426,,,,,,,2022-09-07,1,,,,,エムティ,0
684,3021003012093,新規,0,2022-09-07,2022-09-07,合同会社ＷＡＲＮＥＲ,,合同会社,神奈川県,伊勢原市,高森２丁目２８番５号,,14,214,2591114,,,,,,,2022-09-07,1,,,,,ワーナー,0
685,3021003012102,新規,0,2022-09-07,2022-09-07,ＳＡＫＵＹＡ合同会社,,合同会社,神奈川県,足柄下郡箱根町,仙石原２２８,,14,382,2500631,,,,,,,2022-09-07,1,,,,,サクヤ,0
686,3021005012612,新規,0,2022-09-07,2022-09-07,一般社団法人誠心会,,その他の設立登記法人,神奈川県,藤沢市,辻堂元町６丁目２３番１号,,14,205,2510043,,,,,,,2022-09-07,1,,,,,セイシンカイ,0
688,3030001149938,新規,0,2022-09-07,2022-09-07,株式会社ＬＣコンサルティング,,株式会社,埼玉県,朝霞市,幸町１丁目８番２８号,,11,227,3510015,,,,,,,2022-09-07,1,,,,,エルシーコンサルティング,0
691,3030003020130,新規,0,2022-09-07,2022-09-07,合同会社晶彩,,合同会社,埼玉県,春日部市,不動院野１４８４番地５１,,11,214,3440001,,,,,,,2022-09-07,1,,,,,ショウサイ,0
694,3040001124931,新規,0,2022-09-07,2022-09-07,グルメ株式会社,,株式会社,千葉県,柏市,松葉町２丁目３番地１,,12,217,2770827,,,,,,,2022-09-07,1,,,,,グルメ,0
695,3040001124964,新規,0,2022-09-07,2022-09-07,ＢｉｔＲｅｉｎ株式会社,,株式会社,千葉県,千葉市緑区,おゆみ野３丁目３４番地１Ｌ．シャルル１０６号,,12,105,2660031,,,,,,,2022-09-07,1,,,,,ビットレイン,0
696,3040001124972,新規,0,2022-09-07,2022-09-07,明羅電気動力株式会社,,株式会社,千葉県,松戸市,本町４番地の５,,12,207,2710091,,,,,,,2022-09-07,1,,,,,アキラデンキドウリョク,0
697,3040001124980,新規,0,2022-09-07,2022-09-07,株式会社昌夢会,,株式会社,千葉県,柏市,若柴１７８番地４柏の葉キャンパス１４８街区２ショップ＆オフィス棟６Ｆ,,12,217,2770871,,,,,,,2022-09-07,1,,,,,マサユメカイ,0
698,3040001124989,新規,0,2022-09-07,2022-09-07,株式会社ｌｅ　ｓｏｌｅｉｌ,,株式会社,千葉県,千葉市若葉区,桜木北２丁目１０番６号,,12,104,2640029,,,,,,,2022-09-07,1,,,,,ルソレイユ,0
702,3040003020749,新規,0,2022-09-07,2022-09-07,合同会社八千代食品,,合同会社,千葉県,八千代市,高津東２丁目６番地３,,12,221,2760037,,,,,,,2022-09-07,1,,,,,ヤチヨショクヒン,0
703,3040003020765,新規,0,2022-09-07,2022-09-07,合同会社ＰＥＹ,,合同会社,千葉県,木更津市,清見台南４丁目１３番６号,,12,206,2920042,,,,,,,2022-09-07,1,,,,,ペイ,0
706,3060001035235,新規,0,2022-09-07,2022-09-07,株式会社Ｎ’ｓ　Ｐｌｕｓ,,株式会社,栃木県,宇都宮市,インターパーク３丁目１４番地９,,09,201,3210118,,,,,,,2022-09-07,1,,,,,エヌズプラス,0
710,3070001039598,新規,0,2022-09-07,2022-09-07,株式会社インファ,,株式会社,群馬県,沼田市,上原町１６６４番地８,,10,206,3780051,,,,,,,2022-09-07,1,,,,,インファ,0
711,3070001039607,新規,0,2022-09-07,2022-09-07,株式会社アイ設備,,株式会社,群馬県,桐生市,堤町３丁目７番１７号,,10,203,3760042,,,,,,,2022-09-07,1,,,,,アイセツビ,0
721,3100001035676,新規,0,2022-09-07,2022-09-07,株式会社カネイ工業,,株式会社,長野県,諏訪市,大字中洲３４６３番地,,20,206,3920015,,,,,,,2022-09-07,1,,,,,カネイコウギョウ,0
722,3100001035684,新規,0,2022-09-07,2022-09-07,株式会社白鳥設備,,株式会社,長野県,中野市,大字西条３２５番地６,,20,211,3830042,,,,,,,2022-09-07,1,,,,,シロトリセツビ,0
727,3110001036954,新規,0,2022-09-07,2022-09-07,株式会社新しい土地,,株式会社,新潟県,新潟市西区,平島１２７７番地７,,15,107,9502004,,,,,,,2022-09-07,1,,,,,アタラシイトチ,0
738,3120001248615,新規,0,2022-09-07,2022-09-07,株式会社レガシィ,,株式会社,大阪府,大阪市阿倍野区,松崎町４丁目６番１７号,,27,119,5450053,,,,,,,2022-09-07,1,,,,,レガシィ,0
739,3120001248631,新規,0,2022-09-07,2022-09-07,ＡＯＩ株式会社,,株式会社,大阪府,大阪市北区,豊崎３丁目１６番１６－３０１４号,,27,127,5310072,,,,,,,2022-09-07,1,,,,,アオイ,0
740,3120001248656,新規,0,2022-09-07,2022-09-07,株式会社プロパワー,,株式会社,大阪府,大阪市中央区,城見２丁目１番６１号ツイン２１ＭＩＤタワー３１Ｆ,,27,128,5400001,,,,,,,2022-09-07,1,,,,,プロパワー,0
741,3120001248680,新規,0,2022-09-07,2022-09-07,株式会社Ｙｕｇｕｎｉｔｙ,,株式会社,大阪府,大阪市城東区,鴫野西５丁目２番２１号,,27,118,5360014,,,,,,,2022-09-07,1,,,,,ユグニティ,0
745,3120003022381,新規,0,2022-09-07,2022-09-07,ＴＡＩＧＵ合同会社,,合同会社,大阪府,大阪市西区,立売堀４丁目７番２４－７０１号,,27,106,5500012,,,,,,,2022-09-07,1,,,,,タイグ,0
746,3120003022415,新規,0,2022-09-07,2022-09-07,合同会社ＲＯＵＴＥ３,,合同会社,大阪府,大阪市東住吉区,杭全７丁目４番２４号,,27,121,5460002,,,,,,,2022-09-07,1,,,,,ルートスリー,0
754,3120101066198,新規,0,2022-09-07,2022-09-07,株式会社Ｂｅｓｏ　ＡＰ,,株式会社,大阪府,河内長野市,北青葉台９番１５号,,27,216,5860068,,,,,,,2022-09-07,1,,,,,ベソエーピー,0
755,3120901046481,新規,0,2022-09-07,2022-09-07,株式会社ＧＲＡＮＦＬＯＷ,,株式会社,大阪府,茨木市,南目垣１丁目４番１号２階,,27,211,5670837,,,,,,,2022-09-07,1,,,,,グランフロー,0
765,3140001127321,新規,0,2022-09-07,2022-09-07,株式会社ストロベリー,,株式会社,兵庫県,姫路市,香寺町中仁野１１２番地,,28,201,6792143,,,,,,,2022-09-07,1,,,,,ストロベリー,0
766,3140003018048,新規,0,2022-09-07,2022-09-07,ＤＯ合同会社,,合同会社,兵庫県,三田市,高次２丁目５番１３号,,28,219,6691512,,,,,,,2022-09-07,1,,,,,ドゥ,0
770,3160001024500,新規,0,2022-09-07,2022-09-07,株式会社ＳＥＮ,,株式会社,滋賀県,彦根市,西今町６７２番地,,25,202,5220054,,,,,,,2022-09-07,1,,,,,セン,0
771,3160005011107,新規,0,2022-09-07,2022-09-07,一般社団法人ゆいまーる,,その他の設立登記法人,滋賀県,彦根市,森堂町３－３２,,25,202,5220234,,,,,,,2022-09-07,1,,,,,ユイマール,0
774,3170003001769,新規,0,2022-09-07,2022-09-07,合同会社ＣＡＭＯＦＬＡ,,合同会社,和歌山県,橋本市,光陽台１丁目５－１１,,30,203,6480099,,,,,,,2022-09-07,1,,,,,カモフラ,0
783,3180001152885,新規,0,2022-09-07,2022-09-07,株式会社Ｇ．Ｓ．Ｐ,,株式会社,愛知県,名古屋市中区,錦２丁目１２番８号,,23,106,4600003,,,,,,,2022-09-07,1,,,,,ジーエスピー,0
784,3180001152910,新規,0,2022-09-07,2022-09-07,アクシス株式会社,,株式会社,愛知県,名古屋市中区,栄３丁目２番３号日興證券ビル４階,,23,106,4600008,,,,,,,2022-09-07,1,,,,,アクシス,0
785,3180001152927,新規,0,2022-09-07,2022-09-07,株式会社レラシオン,,株式会社,愛知県,春日井市,篠木町８丁目２８９０番地７,,23,206,4860851,,,,,,,2022-09-07,1,,,,,レラシオン,0
789,3190001029744,新規,0,2022-09-07,2022-09-07,株式会社ＣＲＡＤＬＥ,,株式会社,三重県,津市,神戸６５２番地１,,24,201,5140824,,,,,,,2022-09-07,1,,,,,クレイドル,0
794,3200001040427,新規,0,2022-09-07,2022-09-07,シーイー株式会社,,株式会社,岐阜県,土岐市,下石町４５５番地,,21,212,5095202,,,,,,,2022-09-07,1,,,,,シーイー,0
795,3200001040435,新規,0,2022-09-07,2022-09-07,株式会社バット商会,,株式会社,岐阜県,瑞穂市,十九条３４８番地１,,21,216,5010235,,,,,,,2022-09-07,1,,,,,バットショウカイ,0
798,3200005013387,新規,0,2022-09-07,2022-09-07,一般社団法人黎明,,その他の設立登記法人,岐阜県,海津市,平田町野寺１０９２番地の１,,21,221,5030303,,,,,,,2022-09-07,1,,,,,レイメイ,0
801,3220005008699,新規,0,2022-09-07,2022-09-07,税理士法人フェアタックス,,その他の設立登記法人,石川県,金沢市,尾張町１丁目９番３０号,,17,201,9200902,,,,,,,2022-09-07,1,,,,,フェアタックス,0
806,3240001060347,新規,0,2022-09-07,2022-09-07,株式会社ベルニッシュ,,株式会社,広島県,福山市,加茂町大字下加茂４１５番地２コラッジオＭ２,,34,207,7202412,,,,,,,2022-09-07,1,,,,,ベルニッシュ,0
807,3240001060355,新規,0,2022-09-07,2022-09-07,アネックス井口株式会社,,株式会社,広島県,広島市西区,井口３丁目６番４６号,,34,104,7330842,,,,,,,2022-09-07,1,,,,,アネックスイノクチ,0
809,3240005015446,新規,0,2022-09-07,2022-09-07,学校法人広島県東部美容学園,,その他の設立登記法人,広島県,福山市,西町２丁目１６番１５号,,34,207,7200067,,,,,,,2022-09-07,1,,,,,ヒロシマケントウブビヨウガクエン,0
810,3260001037203,新規,0,2022-09-07,2022-09-07,物流ライン株式会社,,株式会社,岡山県,小田郡矢掛町,矢掛２６６５,,33,461,7141201,,,,,,,2022-09-07,1,,,,,ブツリュウライン,0
815,3290001098779,新規,0,2022-09-07,2022-09-07,ＨＩＧＨＥＲ　ＤＡＹＳ株式会社,,株式会社,福岡県,福岡市博多区,那珂３丁目２５番２０－７０３号,00127762,40,132,8120893,,,,,,,2022-09-07,1,,,,,ハイヤーデイズ,0
816,3290001098845,新規,0,2022-09-07,2022-09-07,株式会社承継支援機構,,株式会社,福岡県,福岡市中央区,天神１丁目９番１７号福岡天神フコク生命ビル１５階,,40,133,8100001,,,,,,,2022-09-07,1,,,,,ショウケイシエンキコウ,0
817,3290001098853,新規,0,2022-09-07,2022-09-07,株式会社リバティコンサルティング,,株式会社,福岡県,福岡市博多区,銀天町３丁目６番２７号パシフィックグランシャイン銀天町２０１号,,40,132,8120879,,,,,,,2022-09-07,1,,,,,リバティコンサルティング,0
818,3290001098861,新規,0,2022-09-07,2022-09-07,株式会社博多久松,,株式会社,福岡県,糟屋郡粕屋町,大字仲原２８３９番地７,,40,349,8112304,,,,,,,2022-09-07,1,,,,,ハカタヒサマツ,0
820,3300003001879,新規,0,2022-09-07,2022-09-07,合同会社誠,,合同会社,佐賀県,鳥栖市,宿町９６５番地２,,41,203,8410052,,,,,,,2022-09-07,1,,,,,マコト,0
822,3320001019310,新規,0,2022-09-07,2022-09-07,株式会社アイビーユー,,株式会社,大分県,中津市,大字大貞３８３番地７４,,44,203,8710153,,,,,,,2022-09-07,1,,,,,アイビーユー,0
829,3350001017947,新規,0,2022-09-07,2022-09-07,株式会社Ｒｅｍｉｘ,,株式会社,宮崎県,延岡市,大武町２６８番地１,,45,203,8820024,,,,,,,2022-09-07,1,,,,,リミックス,0
832,3350005006095,新規,0,2022-09-07,2022-09-07,特定非営利活動法人バリアフリーサークルこゆ,,その他の設立登記法人,宮崎県,児湯郡高鍋町,大字北高鍋９５６番地３,,45,401,8840002,,,,,,,2022-09-07,1,,,,,バリアフリーサークルコユ,0
835,3370001049006,新規,0,2022-09-07,2022-09-07,株式会社スケット・ジェイズ,,株式会社,宮城県,富谷市,富ケ丘２丁目６番２５号,,04,216,9813352,,,,,,,2022-09-07,1,,,,,スケットジェイズ,0
841,3380001033099,新規,0,2022-09-07,2022-09-07,株式会社隆建工務店,,株式会社,福島県,伊達郡川俣町,大綱木字＿方２０番地の１,00127758,07,308,9601403,,,,,,,2022-09-07,1,,,,,タカケンコウムテン,0
854,3420001017997,新規,0,2022-09-07,2022-09-07,優成建設株式会社,,株式会社,青森県,八戸市,大字鮫町字大草離１２番地１０,,02,203,0310841,,,,,,,2022-09-07,1,,,,,ユウセイケンセツ,0
857,3420003002568,新規,0,2022-09-07,2022-09-07,合同会社ポムの木,,合同会社,青森県,弘前市,大字高杉字阿部野１２番地１,,02,202,0368302,,,,,,,2022-09-07,1,,,,,ポムノキ,0
868,3430001087437,新規,0,2022-09-07,2022-09-07,株式会社アクアテックス,,株式会社,北海道,札幌市北区,麻生町５丁目３番９－４０２号,,01,102,0010045,,,,,,,2022-09-07,1,,,,,アクアテックス,0
869,3470003002241,新規,0,2022-09-07,2022-09-07,合同会社０１工房ドローンワーク研究所,,合同会社,香川県,高松市,鬼無町鬼無４４９番地１,,37,201,7618026,,,,,,,2022-09-07,1,,,,,ゼロワンコウボウドローンワークケンキュウショ,0
888,4010001229278,新規,0,2022-09-07,2022-09-07,Ｏｎｅコンサルティング株式会社,,株式会社,東京都,千代田区,神田三崎町２丁目２０番７号,,13,101,1010061,,,,,,,2022-09-07,1,,,,,ワンコンサルティング,0
889,4010003038553,新規,0,2022-09-07,2022-09-07,合同会社ＶＷコンセプト,,合同会社,東京都,中央区,銀座１丁目１２番４号Ｎ＆Ｅ・ＢＬＤ．６階,,13,102,1040061,,,,,,,2022-09-07,1,,,,,ブイダブリューコンセプト,0
890,4010003038561,新規,0,2022-09-07,2022-09-07,Ｅｌｓｔｉｎ合同会社,,合同会社,東京都,中央区,銀座１丁目１２番４号Ｎ＆ＥＢＬＤ．６Ｆ,,13,102,1040061,,,,,,,2022-09-07,1,,,,,エルスティン,0
891,4010003038578,新規,0,2022-09-07,2022-09-07,北里星盛堂医療開発合同会社,,合同会社,東京都,文京区,本郷３丁目２４番９号,,13,105,1130033,,,,,,,2022-09-07,1,,,,,キタザトホシセイドウイリョウカイハツ,0
895,4010005035524,新規,0,2022-09-07,2022-09-07,一般社団法人未来ウエディングＪＡＰＡＮ,,その他の設立登記法人,東京都,中央区,銀座８丁目１８番１号,,13,102,1040061,,,,,,,2022-09-07,1,,,,,ミライウエディングジャパン,0
896,4010101015322,新規,0,2022-09-07,2022-09-07,Ｎａｖｉｓ　Ｊａｐａｎ株式会社,,株式会社,東京都,八王子市,めじろ台３丁目３７番地９,,13,201,1930833,,,,,,,2022-09-07,1,,,,,ナビスジャパン,0
906,4010401169470,新規,0,2022-09-07,2022-09-07,株式会社Ｒｕｓｋａ,,株式会社,東京都,港区,赤坂８丁目４－１４青山タワープレイス８Ｆ,,13,103,1070052,,,,,,,2022-09-07,1,,,,,ルスカ,0
907,4010401169479,新規,0,2022-09-07,2022-09-07,株式会社Ｃｏｍｐａｓｓｉｏｎ,,株式会社,東京都,港区,東麻布２丁目２９番１１号シャローム東麻布１０２,,13,103,1060044,,,,,,,2022-09-07,1,,,,,コンパッション,0
908,4010401169504,新規,0,2022-09-07,2022-09-07,株式会社ＬｏｇｉｔｅＸ,,株式会社,東京都,港区,新橋２丁目１０番５号新橋原ビル３Ｆ,,13,103,1050004,,,,,,,2022-09-07,1,,,,,ロジテックス,0
909,4010401169545,新規,0,2022-09-07,2022-09-07,株式会社ジョブフル,,株式会社,東京都,港区,浜松町１丁目２３番９号セゾンビル浜松町５階,,13,103,1050013,,,,,,,2022-09-07,1,,,,,ジョブフル,0
910,4010401169553,新規,0,2022-09-07,2022-09-07,株式会社ＸＹＺプロジェクト,,株式会社,東京都,港区,元麻布３丁目１２番１号,,13,103,1060046,,,,,,,2022-09-07,1,,,,,エックスワイジープロジェクト,0
920,4010403028352,新規,0,2022-09-07,2022-09-07,合同会社防災研究支援サービス,,合同会社,東京都,港区,浜松町２丁目２番１５号浜松町ダイヤビル２Ｆ,,13,103,1050013,,,,,,,2022-09-07,1,,,,,ボウサイケンキュウシエンサービス,0
921,4010403028410,新規,0,2022-09-07,2022-09-07,谷田部ファシリティ３合同会社,,合同会社,東京都,港区,六本木１丁目６番１号泉ガーデンタワー,,13,103,1060032,,,,,,,2022-09-07,1,,,,,ヤタベファシリティスリー,0
922,4010403028427,新規,0,2022-09-07,2022-09-07,ナカミツトラスト合同会社,,合同会社,東京都,港区,南青山７丁目４番１８号,,13,103,1070062,,,,,,,2022-09-07,1,,,,,ナカミツトラスト,0
923,4010405021371,新規,0,2022-09-07,2022-09-07,Ｐｒｉｎｃｅｔｏｎ　Ｄｉｇｉｔａｌ　Ｇｒｏｕｐ　Ｊａｐａｎ特定目的会社,,その他の設立登記法人,東京都,港区,虎ノ門３丁目２２番１０－２０１号,,13,103,1050001,,,,,,,2022-09-07,1,,,,,プリンストンデジタルグループジャパン,0
925,4010503006687,新規,0,2022-09-07,2022-09-07,合同会社マキシマム,,合同会社,東京都,台東区,東上野２丁目１８番１９ファーストビル２Ｆ・Ｂｏｏｔｈ１２,,13,106,1100015,,,,,,,2022-09-07,1,,,,,マキシマム,0
928,4010601061774,新規,0,2022-09-07,2022-09-07,株式会社アルボリブロ,,株式会社,東京都,江東区,富岡１丁目６番８号,,13,108,1350047,,,,,,,2022-09-07,1,,,,,アルボリブロ,0
929,4010601061808,新規,0,2022-09-07,2022-09-07,株式会社イーリス,,株式会社,東京都,墨田区,錦糸４丁目１０番９－６０１号クレヴィア錦糸公園,,13,107,1300013,,,,,,,2022-09-07,1,,,,,イーリス,0
930,4010601061816,新規,0,2022-09-07,2022-09-07,ＯＨＡＮＡ株式会社,,株式会社,東京都,江東区,亀戸２丁目４４番地５号ＴＯＷＡイマス亀戸ビル６階,,13,108,1360071,,,,,,,2022-09-07,1,,,,,オハナ,0
931,4010603009714,新規,0,2022-09-07,2022-09-07,合同会社ニシムラ,,合同会社,東京都,江東区,富岡２丁目１２番８号,,13,108,1350047,,,,,,,2022-09-07,1,,,,,ニシムラ,0
932,4010701043152,新規,0,2022-09-07,2022-09-07,Ａｍｉｅｉ　Ｌａｂ株式会社,,株式会社,東京都,品川区,荏原３丁目４番９号,,13,109,1420063,,,,,,,2022-09-07,1,,,,,エイミーラボ,0
933,4010701043169,新規,0,2022-09-07,2022-09-07,Ｔｏｇｏｓｙｓ株式会社,,株式会社,東京都,品川区,西五反田５丁目３１番２－２０１号,,13,109,1410031,,,,,,,2022-09-07,1,,,,,トゴシス,0
937,4010705003417,新規,0,2022-09-07,2022-09-07,医療法人社団ＢＣＤ,,その他の設立登記法人,東京都,品川区,大井２丁目２７番２５号１階,,13,109,1400014,,,,,,,2022-09-07,1,,,,,ビーシーディー,0
940,4010903007624,新規,0,2022-09-07,2022-09-07,Ｎ．Ｉ．Ｌ．合同会社,,合同会社,東京都,世田谷区,成城９丁目１０番２４号,,13,112,1570066,,,,,,,2022-09-07,1,,,,,エヌアイエル,0
941,4010903007632,新規,0,2022-09-07,2022-09-07,Ｍｕｗａｙ合同会社,,合同会社,東京都,世田谷区,世田谷２丁目２７番７号,,13,112,1540017,,,,,,,2022-09-07,1,,,,,ムーウェイ,0
945,4011001149598,新規,0,2022-09-07,2022-09-07,株式会社トロン,,株式会社,東京都,渋谷区,恵比寿１丁目１５番９号,,13,113,1500013,,,,,,,2022-09-07,1,,,,,トロン,0
946,4011001149615,新規,0,2022-09-07,2022-09-07,株式会社アクシーエンターテイメント,,株式会社,東京都,渋谷区,桜丘町２６－１セルリアンタワー１５階,,13,113,1500031,,,,,,,2022-09-07,1,,,,,アクシーエンターテイメント,0
951,4011005009732,新規,0,2022-09-07,2022-09-07,税理士法人アップライズ,,その他の設立登記法人,東京都,渋谷区,代々木１丁目４５番３号代々木ビル３階,,13,113,1510053,,,,,,,2022-09-07,1,,,,,アップライズ,0
955,4011101100048,新規,0,2022-09-07,2022-09-07,株式会社ネクスト,,株式会社,東京都,新宿区,新宿５丁目１７番６号,,13,104,1600022,,,,,,,2022-09-07,1,,,,,ネクスト,0
956,4011101100097,新規,0,2022-09-07,2022-09-07,株式会社ジェイコネクト,,株式会社,東京都,新宿区,西五軒町３番７号,,13,104,1620812,,,,,,,2022-09-07,1,,,,,ジェイコネクト,0
960,4011105010391,新規,0,2022-09-07,2022-09-07,税理士法人角陸会計パートナーズ,,その他の設立登記法人,東京都,新宿区,西新宿３丁目１番４号第２佐山ビル１０Ｆ,,13,104,1600023,,,,,,,2022-09-07,1,,,,,カドリクカイケイパートナーズ,0
962,4011401024525,新規,0,2022-09-07,2022-09-07,神来商事株式会社,,株式会社,東京都,板橋区,高島平７丁目３８番１０－２０３号,,13,119,1750082,,,,,,,2022-09-07,1,,,,,シンライショウジ,0
971,4011703003251,新規,0,2022-09-07,2022-09-07,ＧＹＡＴ合同会社,,合同会社,東京都,江戸川区,平井４丁目２２番２－５０８号,,13,123,1320035,,,,,,,2022-09-07,1,,,,,ギャット,0
978,4012403005570,新規,0,2022-09-07,2022-09-07,合同会社リトルスターワークス,,合同会社,東京都,三鷹市,北野３丁目２番４５－３０９号,,13,204,1810003,,,,,,,2022-09-07,1,,,,,リトルスターワークス,0
979,4012801021822,新規,0,2022-09-07,2022-09-07,ｃａｅｍ株式会社,,株式会社,東京都,立川市,若葉町２丁目８番地の４８,,13,202,1900001,,,,,,,2022-09-07,1,,,,,カエム,0
984,4013301049627,新規,0,2022-09-07,2022-09-07,株式会社コラボリンク,,株式会社,東京都,豊島区,南大塚３丁目４１番８号,,13,116,1700005,,,,,,,2022-09-07,1,,,,,コラボリンク,0
993,4020001148106,新規,0,2022-09-07,2022-09-07,株式会社オンキューブ,,株式会社,神奈川県,横浜市中区,桜木町１丁目１０１－１クロスゲート７階,,14,104,2310062,,,,,,,2022-09-07,1,,,,,オンキューブ,0
998,4020003022358,新規,0,2022-09-07,2022-09-07,合同会社ギ,,合同会社,神奈川県,横浜市都筑区,加賀原１丁目２２番２３－３号,,14,118,2240055,,,,,,,2022-09-07,1,,,,,ギ,0
1008,4021001076932,新規,0,2022-09-07,2022-09-07,株式会社オーンズ,,株式会社,神奈川県,大和市,中央林間５丁目１６番１２号,,14,213,2420007,,,,,,,2022-09-07,1,,,,,オーンズ,0
1009,4021001076957,新規,0,2022-09-07,2022-09-07,ペットプロテクト株式会社,,株式会社,神奈川県,横須賀市,津久井３丁目１６番７－１０２号,,14,201,2390843,,,,,,,2022-09-07,1,,,,,ペットプロテクト,0
1010,4021003012092,新規,0,2022-09-07,2022-09-07,せいちんデザイン合同会社,,合同会社,神奈川県,鎌倉市,大町６丁目６番２号,,14,204,2480007,,,,,,,2022-09-07,1,,,,,セイチンデザイン,0
1011,4021003012118,新規,0,2022-09-07,2022-09-07,Ｒｅｔｒｉｅｖｅ合同会社,,合同会社,神奈川県,小田原市,小竹１５７－１０,,14,206,2560802,,,,,,,2022-09-07,1,,,,,リトリーブ,0
1012,4021005012603,新規,0,2022-09-07,2022-09-07,一般社団法人トルコキキョウの会,,その他の設立登記法人,神奈川県,相模原市中央区,相生３丁目３番９号,,14,152,2520235,,,,,,,2022-09-07,1,,,,,トルコキキョウノカイ,0
1014,4030001149937,新規,0,2022-09-07,2022-09-07,株式会社網野古着,,株式会社,埼玉県,越谷市,蒲生寿町１８番４９号マルコービル３０１,,11,222,3430836,,,,,,,2022-09-07,1,,,,,アミノフルギ,0
1015,4030001149945,新規,0,2022-09-07,2022-09-07,マノビル株式会社,,株式会社,埼玉県,飯能市,仲町９番２２号,,11,209,3570038,,,,,,,2022-09-07,1,,,,,マノビル,0
1016,4030001149953,新規,0,2022-09-07,2022-09-07,株式会社ＴｓｕＫｕＲｕ,,株式会社,埼玉県,所沢市,西狭山ケ丘１丁目２４６０番地の２５,,11,208,3591163,,,,,,,2022-09-07,1,,,,,ツクル,0
1022,4040001124914,新規,0,2022-09-07,2022-09-07,Ｍ＆Ｓネクスト株式会社,,株式会社,千葉県,成田市,猿山４３４番地１サントーレ滑河１０３号,,12,211,2890107,,,,,,,2022-09-07,1,,,,,エムアンドエスネクスト,0
1023,4040001124930,新規,0,2022-09-07,2022-09-07,株式会社カイゴマン,,株式会社,千葉県,千葉市中央区,都町５丁目１８番１７号,,12,101,2600001,,,,,,,2022-09-07,1,,,,,カイゴマン,0
1024,4040001124939,新規,0,2022-09-07,2022-09-07,ズイコウ株式会社,,株式会社,千葉県,千葉市稲毛区,小深町１０８番地１,,12,103,2630003,,,,,,,2022-09-07,1,,,,,ズイコウ,0
1025,4040001124947,新規,0,2022-09-07,2022-09-07,株式会社公共ＢＰＯ,,株式会社,千葉県,富津市,金谷２２５４番地３,,12,226,2991861,,,,,,,2022-09-07,1,,,,,コウキョウビーピーオー,0
1026,4040001124963,新規,0,2022-09-07,2022-09-07,株式会社ライト,,株式会社,千葉県,市原市,北国分寺台４丁目１５番地１５,,12,219,2900071,,,,,,,2022-09-07,1,,,,,ライト,0
1027,4040003020715,新規,0,2022-09-07,2022-09-07,Ｋ＆Ｓ合同会社,,合同会社,千葉県,柏市,柏５丁目３－６,,12,217,2770005,,,,,,,2022-09-07,1,,,,,ケーアンドエス,0
1028,4040003020764,新規,0,2022-09-07,2022-09-07,合同会社Ｂ．ＢＲＡＮＣＨ,,合同会社,千葉県,千葉市中央区,中央３丁目１３番１１号第１ＴＫビル１階,,12,101,2600013,,,,,,,2022-09-07,1,,,,,ビーブランチ,0
1029,4040003020780,新規,0,2022-09-07,2022-09-07,合同会社ａｎｄ‐Ｙ,,合同会社,千葉県,松戸市,馬橋１８９０－１ウェルネス馬橋５１５,,12,207,2710051,,,,,,,2022-09-07,1,,,,,アンドワイ,0
1032,4050001051653,新規,0,2022-09-07,2022-09-07,株式会社エムエフプラン,,株式会社,茨城県,石岡市,国府６丁目１番６号,,08,205,3150014,,,,,,,2022-09-07,1,,,,,エムエフプラン,0
1040,4070001039597,新規,0,2022-09-07,2022-09-07,Ｍ　ｐｌｕｓ株式会社,,株式会社,群馬県,高崎市,連雀町２５番地寿ビル１Ｆ,,10,202,3700826,,,,,,,2022-09-07,1,,,,,エムプラス,0
1042,4070003004608,新規,0,2022-09-07,2022-09-07,合同会社花園和香,,合同会社,群馬県,渋川市,阿久津６番地１,,10,208,3770031,,,,,,,2022-09-07,1,,,,,ハナゾノワカ,0
1045,4090005007508,新規,0,2022-09-07,2022-09-07,一般社団法人ｃｕｌｔｉｖａｔｅ　ｔｈｅ　ｌｉｆｅ　ｓｃｈｏｏｌ,,その他の設立登記法人,山梨県,南巨摩郡身延町,上之平５５８,,19,365,4092947,,,,,,,2022-09-07,1,,,,,カルチベイトザライフスクール,0
1047,4100001035683,新規,0,2022-09-07,2022-09-07,株式会社ＴＡＨＡＲＡ,,株式会社,長野県,上田市,天神１丁目５－２８デュオヒルズ２０３,,20,203,3860025,,,,,,,2022-09-07,1,,,,,タハラ,0
1061,4120001248622,新規,0,2022-09-07,2022-09-07,株式会社ＮＧＣ,,株式会社,大阪府,大阪市東淀川区,豊里３丁目１２番２０号,,27,114,5330013,,,,,,,2022-09-07,1,,,,,エヌジーシー,0
1062,4120001248630,新規,0,2022-09-07,2022-09-07,株式会社かえで,,株式会社,大阪府,大阪市平野区,背戸口２丁目２番３２号Ｒｉｎｏｎ背戸口６０１号,,27,126,5470034,,,,,,,2022-09-07,1,,,,,カエデ,0
1063,4120001248663,新規,0,2022-09-07,2022-09-07,株式会社ライズコネクト,,株式会社,大阪府,大阪市福島区,福島１丁目２番１２－３０５号,,27,103,5530003,,,,,,,2022-09-07,1,,,,,ライズコネクト,0
1064,4120001248696,新規,0,2022-09-07,2022-09-07,源智株式会社,,株式会社,大阪府,大阪市天王寺区,東高津町７番２３号ラーク浜田ビル２０１号,,27,109,5430021,,,,,,,2022-09-07,1,,,,,ゲンチ,0
1065,4120001248738,新規,0,2022-09-07,2022-09-07,一屹株式会社,,株式会社,大阪府,大阪市西成区,北津守２丁目５番２－６号,,27,122,5570061,,,,,,,2022-09-07,1,,,,,イチキツ,0
1073,4120101066197,新規,0,2022-09-07,2022-09-07,株式会社アイムファイン,,株式会社,大阪府,和泉市,府中町１丁目２番９号,,27,219,5940071,,,,,,,2022-09-07,1,,,,,アイムファイン,0
1082,4130001072575,新規,0,2022-09-07,2022-09-07,株式会社石建,,株式会社,京都府,向日市,物集女町南条４３番地の３５,,26,208,6170001,,,,,,,2022-09-07,1,,,,,イシケン,0
1085,4140001127279,新規,0,2022-09-07,2022-09-07,ＴＥＲＹ企画株式会社,,株式会社,兵庫県,三田市,中央町１５番３号,,28,219,6691529,,,,,,,2022-09-07,1,,,,,テリーキカク,0
1088,4160001024490,新規,0,2022-09-07,2022-09-07,株式会社ＧＲＥＥＤ,,株式会社,滋賀県,高島市,マキノ町海津２４６１,,25,212,5201811,,,,,,,2022-09-07,1,,,,,グリード,0
1089,4160001024499,新規,0,2022-09-07,2022-09-07,株式会社日昇パートナーズ,,株式会社,滋賀県,栗東市,綣４丁目１１番２５号,,25,208,5203031,,,,,,,2022-09-07,1,,,,,ニッショウパートナーズ,0
1093,4180001152934,新規,0,2022-09-07,2022-09-07,エナジースタッフ中日本株式会社,,株式会社,愛知県,名古屋市西区,名駅２丁目３４番１７号セントラル名古屋１１０１号,,23,104,4510045,,,,,,,2022-09-07,1,,,,,エナジースタッフナカニホン,0
1094,4180001152950,新規,0,2022-09-07,2022-09-07,株式会社令和マテリアル,,株式会社,愛知県,春日井市,味美町１丁目１７１番地１,,23,206,4860968,,,,,,,2022-09-07,1,,,,,レイワマテリアル,0
1098,4180005019915,新規,0,2022-09-07,2022-09-07,一般社団法人製造業から日本を盛り上げる会,,その他の設立登記法人,愛知県,名古屋市中区,栄５丁目２６－３９ＧＳ栄ビル３Ｆ,,23,106,4600008,,,,,,,2022-09-07,1,,,,,セイゾウギョウカラニホンヲモリアゲルカイ,0
1100,4190001029751,新規,0,2022-09-07,2022-09-07,株式会社松電社,,株式会社,三重県,桑名市,松ノ木７丁目１７番地４０,,24,205,5110902,,,,,,,2022-09-07,1,,,,,ショウデンシャ,0
1108,4220001025012,新規,0,2022-09-07,2022-09-07,株式会社品質ＩＴソリューションオオカワ,,株式会社,石川県,能美市,泉台町中２０９番地,,17,211,9231111,,,,,,,2022-09-07,1,,,,,ヒンシツアイティソリューションオオカワ,0
1109,4220001025020,新規,0,2022-09-07,2022-09-07,ひかりクリーンシステム株式会社,,株式会社,石川県,金沢市,柳橋町甲１１番地２ポンテ・エム・６号,,17,201,9203133,,,,,,,2022-09-07,1,,,,,ヒカリクリーンシステム,0
1112,4220005008698,新規,0,2022-09-07,2022-09-07,弁護士法人クオリティ・ワン,,その他の設立登記法人,石川県,金沢市,長町１丁目４番４５号,,17,201,9200865,,,,,,,2022-09-07,1,,,,,クオリティワン,0
1113,4230001019517,新規,0,2022-09-07,2022-09-07,ＳＥＫＡＩ　ＨＯＴＥＬ　Ｔａｋａｏｋａ株式会社,,株式会社,富山県,高岡市,末広町４１番地,,16,202,9330023,,,,,,,2022-09-07,1,,,,,セカイホテルタカオカ,0
1116,4240001060354,新規,0,2022-09-07,2022-09-07,株式会社黒木総合建設,,株式会社,広島県,東広島市,黒瀬楢原東３丁目１１番１７号,00127761,34,212,7392628,,,,,,,2022-09-07,1,,,,,クロキソウゴウケンセツ,0
1121,4250001019754,新規,0,2022-09-07,2022-09-07,株式会社彩,,株式会社,山口県,下関市,岬之町１５番１３号,,35,201,7500014,,,,,,,2022-09-07,1,,,,,サイ,0
1130,4260003004027,新規,0,2022-09-07,2022-09-07,合同会社１８７,,合同会社,岡山県,岡山市北区,今８丁目９番３４－３号,,33,101,7000975,,,,,,,2022-09-07,1,,,,,イチハチナナ,0
1136,4290001098860,新規,0,2022-09-07,2022-09-07,株式会社ちえり,,株式会社,福岡県,福岡市中央区,警固２丁目１３番１７号,,40,133,8100023,,,,,,,2022-09-07,1,,,,,チエリ,0
1138,4290003012910,新規,0,2022-09-07,2022-09-07,合同会社Ｙａｍａｄａ,,合同会社,福岡県,福岡市博多区,東那珂２丁目１０番２５－４０３号,,40,132,8120892,,,,,,,2022-09-07,1,,,,,ヤマダ,0
1139,4290003012927,新規,0,2022-09-07,2022-09-07,合同会社そら,,合同会社,福岡県,福岡市西区,今宿駅前１丁目１５番１８号マリブ今宿シーサイドテラス３Ｆ,,40,135,8190168,,,,,,,2022-09-07,1,,,,,ソラ,0
1146,4310005008631,新規,0,2022-09-07,2022-09-07,一般社団法人九州電気管理技術者協会長崎,,その他の設立登記法人,長崎県,諫早市,堀の内町１９番地５,,42,204,8540086,,,,,,,2022-09-07,1,,,,,,0
1156,4340005009494,新規,0,2022-09-07,2022-09-07,医療法人あんず東洋医学クリニック,,その他の設立登記法人,鹿児島県,霧島市,国分中央４丁目１７番２５－２号,,46,218,8994332,,,,,,,2022-09-07,1,,,,,アンズトウヨウイガククリニック,0
1157,4350001017946,新規,0,2022-09-07,2022-09-07,株式会社Ｗｅｌｌｓ,,株式会社,宮崎県,宮崎市,清武町あさひ１丁目５－１０７,,45,201,8891609,,,,,,,2022-09-07,1,,,,,ウェルズ,0
1160,4360001030931,新規,0,2022-09-07,2022-09-07,株式会社琉球ＬＩＮＥ,,株式会社,沖縄県,那覇市,識名４丁目１１番３０号新海アパートＩＩ２０２,00127766,47,201,9020078,,,,,,,2022-09-07,1,,,,,リュウキュウライン,0
1161,4370001049013,新規,0,2022-09-07,2022-09-07,東洋建装株式会社,,株式会社,宮城県,東松島市,矢本字下浦２９５番地１キャッスル五番街１０１,,04,214,9810503,,,,,,,2022-09-07,1,,,,,トウヨウケンソウ,0
1162,4370001049021,新規,0,2022-09-07,2022-09-07,株式会社高橋工務店,00127768,株式会社,宮城県,大崎市,古川小野字西舘１１番地,,04,215,9896251,,,,,,,2022-09-07,1,,,,,タカハシコウムテン,0
1163,4370003005823,新規,0,2022-09-07,2022-09-07,合同会社樋口総業,00127767,合同会社,宮城県,仙台市太白区,東中田２丁目９番１３号,,04,104,9811107,,,,,,,2022-09-07,1,,,,,ヒグチソウギョウ,0
1166,4380001033098,新規,0,2022-09-07,2022-09-07,株式会社Ｓ．ｔｒｅ,,株式会社,福島県,郡山市,安積町笹川字南向３番地の５,,07,203,9630102,,,,,,,2022-09-07,1,,,,,エストレ,0
1169,4390003001993,新規,0,2022-09-07,2022-09-07,東日本トータルサービス合同会社,,合同会社,山形県,天童市,大字荒谷１４３７番地,,06,210,9940054,,,,,,,2022-09-07,1,,,,,ヒガシニホントータルサービス,0
1175,4420001017996,新規,0,2022-09-07,2022-09-07,株式会社ヤーズ,,株式会社,青森県,八戸市,吹上２丁目２０番２４号,,02,203,0310003,,,,,,,2022-09-07,1,,,,,ヤーズ,0
1195,4480001011853,新規,0,2022-09-07,2022-09-07,株式会社スマサポ,,株式会社,徳島県,板野郡北島町,中村字明神下４番地１,,36,402,7710203,,,,,,,2022-09-07,1,,,,,スマサポ,0
1198,4490001010276,新規,0,2022-09-07,2022-09-07,株式会社ワイズクラフト,,株式会社,高知県,高岡郡日高村,岩目地９３０－１,,39,410,7812154,,,,,,,2022-09-07,1,,,,,ワイズクラフト,0
1204,4500003002889,新規,0,2022-09-07,2022-09-07,梅崎農園合同会社,,合同会社,愛媛県,宇和島市,大浦甲１８７４番地１,,38,203,7980002,,,,,,,2022-09-07,1,,,,,ウメザキノウエン,0
1215,5010001229211,新規,0,2022-09-07,2022-09-07,フィールエアＥＡＳＴ株式会社,,株式会社,東京都,中央区,晴海３丁目１３－１ＤＥＵＸＴＯＵＲＳＥａｓｔ棟４６１７号,,13,102,1040053,,,,,,,2022-09-07,1,,,,,フィールエアイースト,0
1216,5010001229327,新規,0,2022-09-07,2022-09-07,株式会社ＰｒｅｓｔｉｇｅＭｏｏｎ,,株式会社,東京都,中央区,勝どき６丁目３－１－３１１８,,13,102,1040054,,,,,,,2022-09-07,1,,,,,プレステッジムーン,0
1217,5010001229335,新規,0,2022-09-07,2022-09-07,株式会社プロセスエッグ,,株式会社,東京都,中央区,銀座６丁目１３番１６号銀座ＷａｌｌビルＵＣＦ５０１,,13,102,1040061,,,,,,,2022-09-07,1,,,,,プロセスエッグ,0
1222,5010003038643,新規,0,2022-09-07,2022-09-07,合同会社９６,,合同会社,東京都,中央区,銀座１丁目２２番１１号銀座大竹ビジデンス２階,,13,102,1040061,,,,,,,2022-09-07,1,,,,,クロ,0
1223,5010005035523,新規,0,2022-09-07,2022-09-07,医療法人社団ココ・クリニカ,,その他の設立登記法人,東京都,千代田区,九段北１丁目２番１号九段中央ビル３階,,13,101,1020073,,,,,,,2022-09-07,1,,,,,ココクリニカ,0
1233,5010401169528,新規,0,2022-09-07,2022-09-07,株式会社４３５,,株式会社,東京都,港区,六本木３丁目４番３５号,,13,103,1060032,,,,,,,2022-09-07,1,,,,,フォーサーティーファイブ,0
1234,5010401169552,新規,0,2022-09-07,2022-09-07,株式会社Ｆａｃｔ　Ｂａｓｅ,,株式会社,東京都,港区,西新橋３丁目２５番３１号愛宕山ＰＲＥＸ１０Ｆ,,13,103,1050003,,,,,,,2022-09-07,1,,,,,ファクトベース,0
1235,5010401169577,新規,0,2022-09-07,2022-09-07,株式会社Ｃｏｒｎｕｃｏｐｉａ　Ｉｎｃ．,,株式会社,東京都,港区,六本木４丁目２番４１－２０２号,,13,103,1060032,,,,,,,2022-09-07,1,,,,,コルヌコピアインク,0
1244,5010501049340,新規,0,2022-09-07,2022-09-07,株式会社一穂一帆,,株式会社,東京都,台東区,台東１丁目２４－１燦坤日本電器ビル６階,,13,106,1100016,,,,,,,2022-09-07,1,,,,,イッポイッポ,0
1248,5010701043151,新規,0,2022-09-07,2022-09-07,株式会社トライベッカ,,株式会社,東京都,品川区,上大崎３丁目１０番２５号,,13,109,1410021,,,,,,,2022-09-07,1,,,,,トライベッカ,0
1249,5010705003416,新規,0,2022-09-07,2022-09-07,医療法人社団ＹＳ,,その他の設立登記法人,東京都,品川区,戸越１丁目７番１号東急戸越ビル１階,,13,109,1420041,,,,,,,2022-09-07,1,,,,,ワイエス,0
1251,5010801033250,新規,0,2022-09-07,2022-09-07,株式会社蒲田増田屋,,株式会社,東京都,大田区,蒲田５丁目１８番３号,,13,111,1440052,,,,,,,2022-09-07,1,,,,,カマタマスダヤ,0
1262,5011001149597,新規,0,2022-09-07,2022-09-07,アプコグループサポート株式会社,,株式会社,東京都,渋谷区,円山町５番５号,,13,113,1500044,,,,,,,2022-09-07,1,,,,,アプコグループサポート,0
1263,5011003015327,新規,0,2022-09-07,2022-09-07,合同会社Ｅｓｔａｔｅ　Ｏｎ　Ｄｅｍａｎｄ,,合同会社,東京都,渋谷区,恵比寿２丁目２５番１９－１０３号,,13,113,1500013,,,,,,,2022-09-07,1,,,,,エーデルシュロス,0
1266,5011101100105,新規,0,2022-09-07,2022-09-07,株式会社Ｐａｕｌ＆Ｅｍｍａ,,株式会社,東京都,新宿区,左門町１６番地１トレステージ四谷７１２,,13,104,1600017,,,,,,,2022-09-07,1,,,,,ポールアンドエマ,0
1275,5011401024524,新規,0,2022-09-07,2022-09-07,株式会社ヤマダイ,,株式会社,東京都,板橋区,前野町６丁目３１番１１－３０８号,,13,119,1740063,,,,,,,2022-09-07,1,,,,,ヤマダイ,0
1280,5012301013121,新規,0,2022-09-07,2022-09-07,株式会社Ｗｏｒｌｄ　Ｗｉｄｅ,,株式会社,東京都,町田市,大蔵町１７８０番地３,,13,209,1950062,,,,,,,2022-09-07,1,,,,,ワールドワイド,0
1281,5012401039611,新規,0,2022-09-07,2022-09-07,キセキメディア東京株式会社,,株式会社,東京都,調布市,柴崎１丁目５４番地１４－２０２号,,13,208,1820014,,,,,,,2022-09-07,1,,,,,キセキメディアトウキョウ,0
1283,5012405004776,新規,0,2022-09-07,2022-09-07,医療法人社団むさしの青山,,その他の設立登記法人,東京都,武蔵野市,中町１丁目１７番２号ステラ武蔵野３階,,13,203,1800006,,,,,,,2022-09-07,1,,,,,ムサシノアオヤマ,0
1285,5013305003380,新規,0,2022-09-07,2022-09-07,医療法人社団たなか耳鼻咽喉科,,その他の設立登記法人,東京都,豊島区,目白５丁目４番７号１階,,13,116,1710031,,,,,,,2022-09-07,1,,,,,タナカジビインコウカ,0
1290,5020001148105,新規,0,2022-09-07,2022-09-07,株式会社Ｇｒａｎ　Ａｃｔｉｖｏ,,株式会社,神奈川県,横浜市金沢区,六浦３丁目４番６号,,14,108,2360031,,,,,,,2022-09-07,1,,,,,グランアクティボ,0
1301,5021001076898,新規,0,2022-09-07,2022-09-07,株式会社Ｈ　ＢＲＡＮＤ,,株式会社,神奈川県,藤沢市,長後４６５番地１リブェ－ル２０１,,14,205,2520801,,,,,,,2022-09-07,1,,,,,エイチブランド,0
1302,5021001076931,新規,0,2022-09-07,2022-09-07,株式会社ＭＡＰＬＥ　ＬＩＮＥ,,株式会社,神奈川県,座間市,栗原１２７６番地の１１,,14,216,2520013,,,,,,,2022-09-07,1,,,,,メープルライン,0
1303,5021003012117,新規,0,2022-09-07,2022-09-07,合同会社Ｆｏｒｔｈ,,合同会社,神奈川県,相模原市中央区,共和１丁目３番地３３―１１０号,,14,152,2520234,,,,,,,2022-09-07,1,,,,,フォース,0
1308,5030001149936,新規,0,2022-09-07,2022-09-07,株式会社パンプキン,,株式会社,埼玉県,草加市,草加２丁目１７番１号,,11,221,3400043,,,,,,,2022-09-07,1,,,,,パンプキン,0
1309,5030001149944,新規,0,2022-09-07,2022-09-07,株式会社ほくさいグリーンアグリ,,株式会社,埼玉県,羽生市,大字須影１５４６番地２,,11,216,3480033,,,,,,,2022-09-07,1,,,,,ホクサイグリーンアグリ,0
1310,5030001150019,新規,0,2022-09-07,2022-09-07,アイデザイン株式会社,,株式会社,埼玉県,春日部市,梅田本町１丁目１０番１９号,,11,214,3440053,,,,,,,2022-09-07,1,,,,,アイデザイン,0
1314,5030003020112,新規,0,2022-09-07,2022-09-07,合同会社Ｓｏｕｒｉｃｈｅ,,合同会社,埼玉県,川口市,芝塚原１丁目１２番１３号リヴェール川口芝２０３号,,11,203,3330856,,,,,,,2022-09-07,1,,,,,スリーシュ,0
1315,5030003020129,新規,0,2022-09-07,2022-09-07,合同会社グローバルサポート,,合同会社,埼玉県,行田市,忍２丁目１５番１６号デュオスクエア２０２,,11,206,3610077,,,,,,,2022-09-07,1,,,,,グローバルサポート,0
1316,5030003020145,新規,0,2022-09-07,2022-09-07,合同会社ＣＯＣＯ．Ｎ,,合同会社,埼玉県,さいたま市南区,文蔵１丁目２０番１３号,,11,108,3360025,,,,,,,2022-09-07,1,,,,,ココドットエヌ,0
1317,5030003020161,新規,0,2022-09-07,2022-09-07,合同会社山口商事,,合同会社,埼玉県,越谷市,大字北川崎３６０番地１,,11,222,3430006,,,,,,,2022-09-07,1,,,,,ヤマグチショウジ,0
1320,5040001124913,新規,0,2022-09-07,2022-09-07,星海株式会社,,株式会社,千葉県,千葉市美浜区,浜田１丁目３番地コロンブスシティ１３０５号,,12,106,2610025,,,,,,,2022-09-07,1,,,,,セイカイ,0
1321,5040001124938,新規,0,2022-09-07,2022-09-07,株式会社ＯＮＥ　ＵＰ,,株式会社,千葉県,野田市,山崎１４１８番地の６－Ｃ１０５,,12,208,2780022,,,,,,,2022-09-07,1,,,,,ワンアップ,0
1322,5040001124946,新規,0,2022-09-07,2022-09-07,株式会社タカラ企画,,株式会社,千葉県,千葉市中央区,川戸町５１６番地１６,,12,101,2600802,,,,,,,2022-09-07,1,,,,,タカラキカク,0
1323,5040001124962,新規,0,2022-09-07,2022-09-07,株式会社らん丸商会,,株式会社,千葉県,市原市,北国分寺台４丁目１５番地１５,,12,219,2900071,,,,,,,2022-09-07,1,,,,,ランマルショウカイ,0
1324,5040001124970,新規,0,2022-09-07,2022-09-07,Ａｚｉｚｉ株式会社,,株式会社,千葉県,八街市,東吉田５６７番地２グリーンハイツ１０５,,12,230,2891114,,,,,,,2022-09-07,1,,,,,アジジ,0
1325,5040001124995,新規,0,2022-09-07,2022-09-07,株式会社ＴＲ,,株式会社,千葉県,船橋市,前原西２丁目１４番２号,,12,204,2740825,,,,,,,2022-09-07,1,,,,,ティーアール,0
1327,5040003020747,新規,0,2022-09-07,2022-09-07,合同会社ＡＲＡＫＡＷＡ,,合同会社,千葉県,千葉市美浜区,高洲１丁目２４番１号クレアシティ稲毛海岸６０６号,,12,106,2610004,,,,,,,2022-09-07,1,,,,,アラカワ,0
1328,5040003020755,新規,0,2022-09-07,2022-09-07,合同会社津田梅Ａｇｅｎｃｙ,,合同会社,千葉県,松戸市,松戸２３００番地の３加藤ビル３階,,12,207,2710092,,,,,,,2022-09-07,1,,,,,ツダウメエージェンシー,0
1329,5040003020763,新規,0,2022-09-07,2022-09-07,合同会社保育・教育研究所,,合同会社,千葉県,野田市,尾崎６８４番地の６,,12,208,2700235,,,,,,,2022-09-07,1,,,,,ホイクキョウイクケンキュウジョ,0
1333,5050003006811,新規,0,2022-09-07,2022-09-07,ＭＰＥＸＳ合同会社,,合同会社,茨城県,つくば市,大穂１－１高エネルギー加速器研究機構計算機北棟,,08,220,3003256,,,,,,,2022-09-07,1,,,,,エムペックス,0
1342,5080401026037,新規,0,2022-09-07,2022-09-07,株式会社古橋精工,,株式会社,静岡県,浜松市南区,金折町４０８番地の１,,22,134,4350026,,,,,,,2022-09-07,1,,,,,フルハシセイコウ,0
1344,5100001035682,新規,0,2022-09-07,2022-09-07,デンドーヒューマンリソースソリューションズ株式会社,,株式会社,長野県,飯田市,上郷黒田２７１４番地１０,,20,205,3950004,,,,,,,2022-09-07,1,,,,,デンドーヒューマンリソースソリューションズ,0
1351,5110001036952,新規,0,2022-09-07,2022-09-07,株式会社Ｊ　Ｃｌａｓｓ,,株式会社,新潟県,上越市,春日新田２丁目７番２号,,15,222,9420061,,,,,,,2022-09-07,1,,,,,ジェイクラス,0
1357,5120001248596,新規,0,2022-09-07,2022-09-07,珍口屋株式会社,,株式会社,大阪府,大阪市東成区,東小橋１丁目１７－３１グランドハイツ東小橋４１５号室,,27,115,5370024,,,,,,,2022-09-07,1,,,,,チンコウヤ,0
1364,5120101066188,新規,0,2022-09-07,2022-09-07,株式会社ＴＲＹＳ,,株式会社,大阪府,堺市北区,北花田町４丁１１４番地２１,,27,146,5918002,,,,,,,2022-09-07,1,,,,,トライズ,0
1384,5140001127253,新規,0,2022-09-07,2022-09-07,ホクシン工業株式会社,,株式会社,兵庫県,たつの市,龍野町堂本４８番地１０,,28,229,6794129,,,,,,,2022-09-07,1,,,,,ホクシンコウギョウ,0
1385,5140001127294,新規,0,2022-09-07,2022-09-07,株式会社Ｏ．Ｔ．Ｌｉｎｋ,,株式会社,兵庫県,西宮市,苦楽園二番町１４番４５号,,28,204,6620082,,,,,,,2022-09-07,1,,,,,オーティーリンク,0
1386,5150001025803,新規,0,2022-09-07,2022-09-07,株式会社Ｎメディカルサービス,,株式会社,奈良県,北葛城郡王寺町,本町１丁目５番３６号－１０１号,,29,425,6360012,,,,,,,2022-09-07,1,,,,,エヌメディカルサービス,0
1389,5160001024498,新規,0,2022-09-07,2022-09-07,株式会社ガサガサ,,株式会社,滋賀県,大津市,石山寺２丁目１３番１１号,,25,201,5200861,,,,,,,2022-09-07,1,,,,,ガサガサ,0
1396,5180001152883,新規,0,2022-09-07,2022-09-07,Ａ‐ｈｏｐｅ株式会社,,株式会社,愛知県,名古屋市中村区,平池町４丁目６０番地の１２グローバルゲート名古屋１１Ｆ,,23,105,4530872,,,,,,,2022-09-07,1,,,,,エーホープ,0
1397,5180001152900,新規,0,2022-09-07,2022-09-07,株式会社たくみ弥,,株式会社,愛知県,名古屋市昭和区,鶴羽町２丁目１５番地の２,,23,107,4660011,,,,,,,2022-09-07,1,,,,,タクミヤ,0
1398,5180001152925,新規,0,2022-09-07,2022-09-07,株式会社Ｕｐｓｅｔｓ,,株式会社,愛知県,春日井市,浅山町１３１０番地８２クレールＢ棟１０１号,,23,206,4860857,,,,,,,2022-09-07,1,,,,,アップセット,0
1399,5180001152933,新規,0,2022-09-07,2022-09-07,ｓａｎａ　ａｌｌ株式会社,,株式会社,愛知県,名古屋市中区,栄４丁目６番４２号ＤＵＭＵＳ２１　９０６号,,23,106,4600008,,,,,,,2022-09-07,1,,,,,サナオール,0
1400,5180001152941,新規,0,2022-09-07,2022-09-07,株式会社パーセル,,株式会社,愛知県,名古屋市中区,丸の内２丁目１７番１３号ＮＫ丸の内ビル２階,,23,106,4600002,,,,,,,2022-09-07,1,,,,,パーセル,0
1401,5180001152958,新規,0,2022-09-07,2022-09-07,株式会社イワマテクニカ,,株式会社,愛知県,一宮市,木曽川町黒田字酉新田中ノ切３１番地２,,23,203,4930001,,,,,,,2022-09-07,1,,,,,イワマテクニカ,0
1403,5180003024222,新規,0,2022-09-07,2022-09-07,合同会社ワイズワン千葉船橋,,合同会社,愛知県,名古屋市中区,栄２丁目３番１号名古屋広小路ビルヂング１７階,,23,106,4600008,,,,,,,2022-09-07,1,,,,,ワイズワンチバフナバシ,0
1405,5180005019922,新規,0,2022-09-07,2022-09-07,医療法人彩心会,,その他の設立登記法人,愛知県,名古屋市熱田区,白鳥３丁目１０番１９号ＢＬＧ白鳥２階,,23,109,4560035,,,,,,,2022-09-07,1,,,,,サイシンカイ,0
1406,5180005019930,新規,0,2022-09-07,2022-09-07,医療法人ｎｅｕ,,その他の設立登記法人,愛知県,名古屋市瑞穂区,八勝通２丁目１２番地１,,23,108,4670042,,,,,,,2022-09-07,1,,,,,ノイ,0
1407,5180301036596,新規,0,2022-09-07,2022-09-07,株式会社六ッ美,,株式会社,愛知県,岡崎市,牧御堂町字郷中９２番地,,23,202,4440205,,,,,,,2022-09-07,1,,,,,ムツミ,0
1418,5200003005665,新規,0,2022-09-07,2022-09-07,たまき自動車合同会社,,合同会社,岐阜県,美濃加茂市,下米田町西脇８９－３,,21,211,5050018,,,,,,,2022-09-07,1,,,,,タマキジドウシャ,0
1422,5230001019516,新規,0,2022-09-07,2022-09-07,株式会社Ｓｔｕｄｉｏ３０２,,株式会社,富山県,富山市,粟島町１丁目８番２１号,,16,201,9318314,,,,,,,2022-09-07,1,,,,,スタジオサンマルニ,0
1423,5230005009257,新規,0,2022-09-07,2022-09-07,医療法人社団明清会,,その他の設立登記法人,富山県,下新川郡入善町,入膳７７１４番地１,,16,342,9390626,,,,,,,2022-09-07,1,,,,,メイセイカイ,0
1425,5250001019753,新規,0,2022-09-07,2022-09-07,株式会社インディペンデントＪ,,株式会社,山口県,周南市,若宮町２丁目４０番地３階,,35,215,7450016,,,,,,,2022-09-07,1,,,,,インディペンデントジェイ,0
1427,5250003003144,新規,0,2022-09-07,2022-09-07,グリーンギア合同会社,,合同会社,山口県,周南市,大字大道理１９３,,35,215,7450242,,,,,,,2022-09-07,1,,,,,グリーンギア,0
1433,5280001008778,新規,0,2022-09-07,2022-09-07,株式会社エイケイツール,,株式会社,島根県,益田市,久々茂町イ１２６３番地,,32,204,6980013,,,,,,,2022-09-07,1,,,,,エイケイツール,0
1437,5290001098777,新規,0,2022-09-07,2022-09-07,エネシーベース鹿児島株式会社,,株式会社,福岡県,福岡市博多区,博多駅東２丁目１４番１号,,40,132,8120013,,,,,,,2022-09-07,1,,,,,エネシーベースカゴシマ,0
1438,5290003012918,新規,0,2022-09-07,2022-09-07,ＨＡＩ　ＧＩＡＮＧ合同会社,,合同会社,福岡県,福岡市博多区,那珂６丁目２４－２２松本ハイツＩ２０５号,00127775,40,132,8120893,,,,,,,2022-09-07,1,,,,,ハイギアン,0
1441,5320003003896,新規,0,2022-09-07,2022-09-07,合同会社ＫＲＭ,,合同会社,大分県,中津市,豊田町１２番地５センチュリーアネックス９０２号,,44,203,8710058,,,,,,,2022-09-07,1,,,,,ケーアールエム,0
1454,5350001017945,新規,0,2022-09-07,2022-09-07,八光未来宮崎株式会社,,株式会社,宮崎県,宮崎市,村角町吉十２８７５番地１,,45,201,8800837,,,,,,,2022-09-07,1,,,,,ハッコウミライミヤザキ,0
1457,5360001030930,新規,0,2022-09-07,2022-09-07,株式会社畑道,,株式会社,沖縄県,糸満市,字阿波根１１１８番地３,,47,210,9010301,,,,,,,2022-09-07,1,,,,,ハルミチ,0
1458,5360001030939,新規,0,2022-09-07,2022-09-07,株式会社じょりートラック,,株式会社,沖縄県,宜野湾市,野嵩１丁目１９番１号,,47,205,9012203,,,,,,,2022-09-07,1,,,,,ジョリートラック,0
1459,5370001049020,新規,0,2022-09-07,2022-09-07,株式会社ＳＰ,,株式会社,宮城県,気仙沼市,松崎上赤田５７番地１９,,04,205,9880134,,,,,,,2022-09-07,1,,,,,エスピー,0
1460,5370001049029,新規,0,2022-09-07,2022-09-07,株式会社マイクロエア,,株式会社,宮城県,仙台市宮城野区,岩切３丁目２番２０号,,04,102,9830821,,,,,,,2022-09-07,1,,,,,マイクロエア,0
1472,5410001013277,新規,0,2022-09-07,2022-09-07,株式会社このまち,,株式会社,秋田県,秋田市,桜台２丁目１３番２号,,05,201,0100059,,,,,,,2022-09-07,1,,,,,コノマチ,0
1484,5480001011852,新規,0,2022-09-07,2022-09-07,エムシン株式会社,,株式会社,徳島県,徳島市,方上町合ノ町４番地の９,,36,201,7708033,,,,,,,2022-09-07,1,,,,,エムシン,0
1488,5500001024447,新規,0,2022-09-07,2022-09-07,株式会社さいみょう,,株式会社,愛媛県,今治市,鯉池町１丁目１番３３号,,38,202,7940059,,,,,,,2022-09-07,1,,,,,サイミョウ,0
1501,6010001229227,新規,0,2022-09-07,2022-09-07,株式会社ＮＳＤｒｅａｍ,,株式会社,東京都,千代田区,神田小川町２丁目１－１３,,13,101,1010052,,,,,,,2022-09-07,1,,,,,エヌエスドリーム,0
1502,6010001229235,新規,0,2022-09-07,2022-09-07,株式会社ユニヴァンス,,株式会社,東京都,千代田区,神田司町２丁目１６番７号第二小林ビル３階,,13,101,1010048,,,,,,,2022-09-07,1,,,,,ユニヴァンス,0
1503,6010001229268,新規,0,2022-09-07,2022-09-07,アース・ケア株式会社,,株式会社,東京都,中央区,日本橋茅場町１丁目９番４号長寿ビル３階,,13,102,1030025,,,,,,,2022-09-07,1,,,,,アースケア,0
1504,6010003038576,新規,0,2022-09-07,2022-09-07,合同会社服部企画,,合同会社,東京都,中央区,銀座１丁目５番１号ＨＯＬＯＮ・ＧＩＮＺＡＩＩ,00127769,13,102,1040061,,,,,,,2022-09-07,1,,,,,ハットリキカク,0
1508,6010005035522,新規,0,2022-09-07,2022-09-07,弁理士法人シエル国際特許事務所,,その他の設立登記法人,東京都,千代田区,岩本町１丁目１２番１号,,13,101,1010032,,,,,,,2022-09-07,1,,,,,シエルコクサイトッキョジムショ,0
1509,6010005035539,新規,0,2022-09-07,2022-09-07,一般社団法人ＮＯＨＬ,,その他の設立登記法人,東京都,中央区,日本橋大伝馬町１２番９号日本橋ライフサイエンスビルディング９－４階,,13,102,1030011,,,,,,,2022-09-07,1,,,,,ノール,0
1520,6010401169502,新規,0,2022-09-07,2022-09-07,株式会社Ｒｏｏｋ,,株式会社,東京都,港区,東麻布２丁目２３－３,,13,103,1060044,,,,,,,2022-09-07,1,,,,,ルーク,0
1521,6010401169519,新規,0,2022-09-07,2022-09-07,株式会社ザ・パス,,株式会社,東京都,港区,南青山６丁目７番７号ファーロ南青山４０１,,13,103,1070062,,,,,,,2022-09-07,1,,,,,,0
1522,6010401169535,新規,0,2022-09-07,2022-09-07,ラ・ルーチェ株式会社,,株式会社,東京都,港区,赤坂６丁目１９番４０号,,13,103,1070052,,,,,,,2022-09-07,1,,,,,ラルーチェ,0
1523,6010401169543,新規,0,2022-09-07,2022-09-07,株式会社Ｗｉｔｈ　ＨＲ,,株式会社,東京都,港区,南麻布１丁目７番２８－１３０１号,,13,103,1060047,,,,,,,2022-09-07,1,,,,,ウィズエイチアール,0
1524,6010401169568,新規,0,2022-09-07,2022-09-07,Ｊ‐Ｔｅｃｈ　Ｓｏｌｕｔｉｏｎｓ株式会社,,株式会社,東京都,港区,浜松町２丁目５番３号リブポート浜松町５０５号室,,13,103,1050013,,,,,,,2022-09-07,1,,,,,ジェイテックソリューションズ,0
1528,6010403028425,新規,0,2022-09-07,2022-09-07,合同会社ＬＥＸＥＲ,,合同会社,東京都,港区,南青山２丁目２番１５号,,13,103,1070062,,,,,,,2022-09-07,1,,,,,レクサー,0
1529,6010405021320,新規,0,2022-09-07,2022-09-07,リベ大税理士法人,,その他の設立登記法人,東京都,港区,南青山２丁目４番１２号南青山アサヒビルＢ１－０１１号,,13,103,1070062,,,,,,,2022-09-07,1,,,,,リベダイ,0
1532,6010503006710,新規,0,2022-09-07,2022-09-07,合同会社ゾンプラスト,,合同会社,東京都,台東区,鳥越１丁目３０番８号中山ビル３０１号室,,13,106,1110054,,,,,,,2022-09-07,1,,,,,ゾンプラスト,0
1533,6010601061806,新規,0,2022-09-07,2022-09-07,株式会社ディアマンテネグロ,,株式会社,東京都,江東区,豊洲３丁目６番８－４２１４号,,13,108,1350061,,,,,,,2022-09-07,1,,,,,ディアマンテネグロ,0
1534,6010601061822,新規,0,2022-09-07,2022-09-07,ひぐま堂株式会社,,株式会社,東京都,江東区,東雲１丁目９－３２－２６０３,,13,108,1350062,,,,,,,2022-09-07,1,,,,,ヒグマドウ,0
1538,6010701043150,新規,0,2022-09-07,2022-09-07,株式会社Ｕｒｅｍａｓｕ,,株式会社,東京都,品川区,小山１丁目３番７－１０１号,,13,109,1420062,,,,,,,2022-09-07,1,,,,,ウレマス,0
1539,6010701043159,新規,0,2022-09-07,2022-09-07,株式会社オープンゲート,,株式会社,東京都,品川区,東五反田２丁目１０番１－４１２号,,13,109,1410022,,,,,,,2022-09-07,1,,,,,オープンゲート,0
1550,6011001149588,新規,0,2022-09-07,2022-09-07,Ｓｔｒｅｅｔ　Ｖｉｓｉｏｎ株式会社,,株式会社,東京都,渋谷区,渋谷１丁目２０番２１号,,13,113,1500002,,,,,,,2022-09-07,1,,,,,ストリートビジョン,0
1551,6011001149596,新規,0,2022-09-07,2022-09-07,株式会社Ｍａｌｏｈａ,,株式会社,東京都,渋谷区,道玄坂１丁目１０番８号渋谷道玄坂東急ビル２Ｆ－Ｃ,,13,113,1500043,,,,,,,2022-09-07,1,,,,,マロハ,0
1552,6011003015276,新規,0,2022-09-07,2022-09-07,Ｒｕ　Ａｎｄ　Ｃｏｍｐａｎｙ合同会社,,合同会社,東京都,渋谷区,代々木２丁目２７－８－５０１,,13,113,1510053,,,,,,,2022-09-07,1,,,,,ルーアンドカンパニー,0
1554,6011101100054,新規,0,2022-09-07,2022-09-07,株式会社ＡＧＭ,,株式会社,東京都,新宿区,西新宿３丁目３番１３号西新宿水間ビル６階,,13,104,1600023,,,,,,,2022-09-07,1,,,,,エージーエム,0
1555,6011101100062,新規,0,2022-09-07,2022-09-07,株式会社Ｍａｍｍｏｎ,,株式会社,東京都,新宿区,西新宿３丁目３番１３号西新宿水間ビル６階,,13,104,1600023,,,,,,,2022-09-07,1,,,,,マモン,0
1556,6011101100079,新規,0,2022-09-07,2022-09-07,株式会社ＡＴＲＡＰＳ,,株式会社,東京都,新宿区,荒木町９番地８ラピスパーク四谷三丁目４０３,,13,104,1600007,,,,,,,2022-09-07,1,,,,,アトラプス,0
1557,6011101100087,新規,0,2022-09-07,2022-09-07,心成株式会社,,株式会社,東京都,新宿区,百人町１丁目２０－３バラードハイム新宿渡辺ビル７０２号,,13,104,1690073,,,,,,,2022-09-07,1,,,,,シンセイ,0
1558,6011101100104,新規,0,2022-09-07,2022-09-07,株式会社ＡＮＫ　ＤＯＬ,,株式会社,東京都,新宿区,新宿５丁目１０番１１号朝日ビル３階,,13,104,1600022,,,,,,,2022-09-07,1,,,,,アンクドル,0
1563,6011201024087,新規,0,2022-09-07,2022-09-07,株式会社アイセント,,株式会社,東京都,中野区,沼袋２丁目３３番１９号２Ｆ,,13,114,1650025,,,,,,,2022-09-07,1,,,,,アイセント,0
1575,6011805003206,新規,0,2022-09-07,2022-09-07,事業協同組合東部会,,その他の設立登記法人,東京都,足立区,六木１丁目２番１０号,,13,121,1210052,,,,,,,2022-09-07,1,,,,,トウブカイ,0
1578,6012401039610,新規,0,2022-09-07,2022-09-07,株式会社三倉,,株式会社,東京都,府中市,南町３丁目１７番地の２,,13,206,1830026,,,,,,,2022-09-07,1,,,,,ミクラ,0
1579,6012801021820,新規,0,2022-09-07,2022-09-07,株式会社ふれあいｍａｒｋｅｔ,,株式会社,東京都,国分寺市,泉町３丁目２２番３号,,13,214,1850024,,,,,,,2022-09-07,1,,,,,フレアイマーケット,0
1584,6013301049617,新規,0,2022-09-07,2022-09-07,株式会社ＰＬＵＭ,,株式会社,東京都,豊島区,東池袋２丁目２６番１３号カーサ・グレーシア東池袋２０２号,,13,116,1700013,,,,,,,2022-09-07,1,,,,,プラム,0
1596,6020001148079,新規,0,2022-09-07,2022-09-07,株式会社ＬＵＡＮＡ,,株式会社,神奈川県,川崎市川崎区,浅田４丁目１３番４号,,14,131,2100847,,,,,,,2022-09-07,1,,,,,ルアナ,0
1597,6020001148112,新規,0,2022-09-07,2022-09-07,株式会社坂本家,,株式会社,神奈川県,川崎市中原区,市ノ坪３５９番地４クレストフォルム武蔵小杉サウスステージ７０２,,14,133,2110016,,,,,,,2022-09-07,1,,,,,サカモトケ,0
1598,6020001148129,新規,0,2022-09-07,2022-09-07,株式会社謙心建設,,株式会社,神奈川県,川崎市宮前区,神木本町２丁目１８番１５号,,14,136,2160031,,,,,,,2022-09-07,1,,,,,ケンシンケンセツ,0
1599,6020001148137,新規,0,2022-09-07,2022-09-07,株式会社若林設備工業,,株式会社,神奈川県,横浜市旭区,西川島町８３番地２１,,14,112,2410012,,,,,,,2022-09-07,1,,,,,ワカバヤシセツビコウギョウ,0
1608,6021001076922,新規,0,2022-09-07,2022-09-07,株式会社ペニンシュラヒルズ,,株式会社,神奈川県,三浦市,三崎町六合１番地３２,,14,210,2380221,,,,,,,2022-09-07,1,,,,,ペニンシュラヒルズ,0
1609,6021001076930,新規,0,2022-09-07,2022-09-07,ソラテック株式会社,,株式会社,神奈川県,座間市,ひばりが丘５丁目１３番３－１０１号,,14,216,2520003,,,,,,,2022-09-07,1,,,,,ソラテック,0
1618,6030001149935,新規,0,2022-09-07,2022-09-07,株式会社タグワークス,,株式会社,埼玉県,さいたま市南区,大字円正寺５１４番地１９,,11,108,3360043,,,,,,,2022-09-07,1,,,,,タグワークス,0
1619,6030001149968,新規,0,2022-09-07,2022-09-07,株式会社Ｈｅａｌｔｈ　Ｒｅｌａｔｉｏｎｓ,,株式会社,埼玉県,さいたま市大宮区,大成町３丁目５４４番地２,,11,103,3300852,,,,,,,2022-09-07,1,,,,,ヘルスリレーションズ,0
1620,6030001149984,新規,0,2022-09-07,2022-09-07,株式会社ＳＴＡＲＴｕｐ,,株式会社,埼玉県,さいたま市大宮区,大門町２丁目２０番地２ＴＭＯ北棟２０１号室,,11,103,3300846,,,,,,,2022-09-07,1,,,,,スタートアップ,0
1633,6040001124912,新規,0,2022-09-07,2022-09-07,株式会社ジャスミン,,株式会社,千葉県,千葉市美浜区,浜田１丁目３番地コロンブスシティ１３０５号,,12,106,2610025,,,,,,,2022-09-07,1,,,,,ジャスミン,0
1634,6040001124937,新規,0,2022-09-07,2022-09-07,キュウセイ株式会社,,株式会社,千葉県,千葉市稲毛区,小深町１０８番地１,,12,103,2630003,,,,,,,2022-09-07,1,,,,,キュウセイ,0
1635,6040001124945,新規,0,2022-09-07,2022-09-07,わかば企画株式会社,,株式会社,千葉県,船橋市,湊町２丁目１２番２４号湊町日本橋ビル６階,,12,204,2730011,,,,,,,2022-09-07,1,,,,,ワカバキカク,0
1636,6040001125010,新規,0,2022-09-07,2022-09-07,Ｎｅｎｅ株式会社,,株式会社,千葉県,東金市,松之郷３６０８番地２１,,12,213,2830805,,,,,,,2022-09-07,1,,,,,ネネ,0
1642,6070001039595,新規,0,2022-09-07,2022-09-07,株式会社はなまる,,株式会社,群馬県,邑楽郡邑楽町,大字赤堀１０４番地１,,10,525,3700614,,,,,,,2022-09-07,1,,,,,ハナマル,0
1643,6070001039612,新規,0,2022-09-07,2022-09-07,ホワイトウイングス株式会社,,株式会社,群馬県,富岡市,黒川９１５番地１,,10,210,3702344,,,,,,,2022-09-07,1,,,,,ホワイトウイングス,0
1650,6090001017772,新規,0,2022-09-07,2022-09-07,ＡＳ　ＷＯＲＬＤ株式会社,,株式会社,山梨県,甲府市,朝日５丁目１３－６ケンプラザ３階,,19,201,4000025,,,,,,,2022-09-07,1,,,,,アスワールド,0
1653,6100001035681,新規,0,2022-09-07,2022-09-07,株式会社Ｓｔａｃｋｓ,,株式会社,長野県,佐久市,長土呂１１８５番地４,,20,217,3850021,,,,,,,2022-09-07,1,,,,,スタックス,0
1656,6110001036951,新規,0,2022-09-07,2022-09-07,株式会社新潟放送分割準備会社,,株式会社,新潟県,新潟市中央区,川岸町３丁目１８番地,,15,103,9518133,,,,,,,2022-09-07,1,,,,,ニイガタホウソウブンカツジュンビカイシャ,0
1657,6110005016850,新規,0,2022-09-07,2022-09-07,医療法人社団わかば内科クリニック,,その他の設立登記法人,新潟県,糸魚川市,大字平牛２１２４番地,,15,216,9410047,,,,,,,2022-09-07,1,,,,,ワカバナイカクリニック,0
1667,6120001248595,新規,0,2022-09-07,2022-09-07,日本聖徳生物技術株式会社,,株式会社,大阪府,大阪市住吉区,万代東町一丁目３番２２－２０６号,,27,120,5580000,,,,,,,2022-09-07,1,,,,,ニホンショウトクセイブツギジュツ,0
1668,6120001248678,新規,0,2022-09-07,2022-09-07,ＫＡＴＡＮＡ　ＧＯＬＦ株式会社,,株式会社,大阪府,大阪市平野区,平野西１丁目７番１２号,,27,126,5470033,,,,,,,2022-09-07,1,,,,,カタナゴルフ,0
1669,6120001248694,新規,0,2022-09-07,2022-09-07,株式会社ＴＣ　ｃｏｍｐａｎｙ,,株式会社,大阪府,大阪市東淀川区,西淡路６丁目１番４５号,,27,114,5330031,,,,,,,2022-09-07,1,,,,,ティーシーカンパニー,0
1670,6120001248728,新規,0,2022-09-07,2022-09-07,株式会社ストレスフリー,,株式会社,大阪府,大阪市北区,浮田１丁目４番１３号,,27,127,5300021,,,,,,,2022-09-07,1,,,,,ストレスフリー,0
1672,6120003022395,新規,0,2022-09-07,2022-09-07,合同会社みなと総研,,合同会社,大阪府,大阪市港区,市岡元町１丁目５番３０号,,27,107,5520002,,,,,,,2022-09-07,1,,,,,ミナトソウケン,0
1673,6120003022420,新規,0,2022-09-07,2022-09-07,鼎乾合同会社,,合同会社,大阪府,大阪市生野区,桃谷３丁目１３番１５号,,27,116,5440034,,,,,,,2022-09-07,1,,,,,テイカン,0
1674,6120005023160,新規,0,2022-09-07,2022-09-07,弁理士法人清原国際特許事務所,,その他の設立登記法人,大阪府,大阪市北区,堂島１丁目５番１７号堂島グランドビル,,27,127,5300003,,,,,,,2022-09-07,1,,,,,キヨハラコクサイトッキョジムショ,0
1679,6120101066195,新規,0,2022-09-07,2022-09-07,株式会社サンチェス,,株式会社,大阪府,堺市堺区,市之町東４丁１番１４－１００２号,,27,141,5900952,,,,,,,2022-09-07,1,,,,,サンチェス,0
1694,6130005016568,新規,0,2022-09-07,2022-09-07,一般社団法人明日に架ける橋,,その他の設立登記法人,京都府,京都市伏見区,京町北７丁目９－１,,26,109,6128086,,,,,,,2022-09-07,1,,,,,アスニカケルハシ,0
1701,6140001127252,新規,0,2022-09-07,2022-09-07,株式会社ＨＡＮＡＴＥＣ,,株式会社,兵庫県,姫路市,書写１０１９番地５７０,,28,201,6712201,,,,,,,2022-09-07,1,,,,,ハナテック,0
1702,6140001127285,新規,0,2022-09-07,2022-09-07,冨士樹脂化工株式会社,,株式会社,兵庫県,川西市,小花２丁目２２番１１号,,28,217,6660015,,,,,,,2022-09-07,1,,,,,フジジュシカコウ,0
1703,6140001127293,新規,0,2022-09-07,2022-09-07,株式会社虎丸,,株式会社,兵庫県,川西市,けやき坂５丁目６番地の４２,,28,217,6660145,,,,,,,2022-09-07,1,,,,,トラマル,0
1708,6180001152866,新規,0,2022-09-07,2022-09-07,株式会社Ｍａｒｓ建託,,株式会社,愛知県,小牧市,小牧５丁目３９８番地,,23,219,4850041,,,,,,,2022-09-07,1,,,,,マーズケンタク,0
1709,6180001152899,新規,0,2022-09-07,2022-09-07,二十七建設株式会社,,株式会社,愛知県,知多郡美浜町,美浜緑苑１丁目１１番地３,,23,446,4703232,,,,,,,2022-09-07,1,,,,,フタジュウナナケンセツ,0
1710,6180001152932,新規,0,2022-09-07,2022-09-07,株式会社Ｃｇｒｏｗ,,株式会社,愛知県,名古屋市港区,小碓１丁目１２６番地,,23,111,4550801,,,,,,,2022-09-07,1,,,,,シーグロウ,0
1714,6180301036587,新規,0,2022-09-07,2022-09-07,株式会社ｎｉｅｕｗ　ｂｅｇｉｎ,,株式会社,愛知県,岡崎市,上和田町字南天白５番地１,,23,202,4440201,,,,,,,2022-09-07,1,,,,,ニュービギン,0
1728,6240001060352,新規,0,2022-09-07,2022-09-07,株式会社ｂｌｏｏｍ,,株式会社,広島県,広島市中区,本通２番３号,,34,101,7300035,,,,,,,2022-09-07,1,,,,,ブルーム,0
1731,6240003005776,新規,0,2022-09-07,2022-09-07,広島電動モビリティ合同会社,,合同会社,広島県,広島市中区,大手町１丁目１番２６号,,34,101,7300051,,,,,,,2022-09-07,1,,,,,ヒロシマデンドウモビリティ,0
1736,6260003004025,新規,0,2022-09-07,2022-09-07,合同会社ＬＡＹＵＰ,,合同会社,岡山県,岡山市東区,広谷４２６番地９,,33,103,7048182,,,,,,,2022-09-07,1,,,,,レイアップ,0
1741,6290001098776,新規,0,2022-09-07,2022-09-07,株式会社九州建改,,株式会社,福岡県,那珂川市,片縄２丁目３５番地,,40,231,8111201,,,,,,,2022-09-07,1,,,,,キュシュウケンカイ,0
1742,6290001098859,新規,0,2022-09-07,2022-09-07,株式会社リコレン,,株式会社,福岡県,福岡市早良区,弥生２丁目４番８－５０１号,,40,137,8140014,,,,,,,2022-09-07,1,,,,,リコレン,0
1748,6300001013056,新規,0,2022-09-07,2022-09-07,株式会社三陽消防設備,,株式会社,佐賀県,伊万里市,山代町福川内１１８８番地,,41,205,8494255,,,,,,,2022-09-07,1,,,,,サンヨウショウボウセツビ,0
1752,6330001030098,新規,0,2022-09-07,2022-09-07,株式会社まさたつ,,株式会社,熊本県,合志市,栄３７９２番地９９Ａ－２０１,,43,216,8611113,,,,,,,2022-09-07,1,,,,,マサタツ,0
1757,6360001030938,新規,0,2022-09-07,2022-09-07,株式会社ゆいフェア,,株式会社,沖縄県,那覇市,おもろまち４丁目８番３号,,47,201,9000006,,,,,,,2022-09-07,1,,,,,ユイフェア,0
1758,6360003012281,新規,0,2022-09-07,2022-09-07,合同会社名護冷機設備,,合同会社,沖縄県,名護市,大東２丁目１０番２２号,,47,209,9050016,,,,,,,2022-09-07,1,,,,,ナゴレイキセツビ,0
1759,6360005006711,新規,0,2022-09-07,2022-09-07,一般社団法人かりゆしｖａｃａｔｉｏｎ４３,,その他の設立登記法人,沖縄県,中頭郡読谷村,字楚辺１９１５－２番地（合同会社さびら会内）,,47,324,9040304,,,,,,,2022-09-07,1,,,,,カリユシバケーションヨンサン,0
1760,6370001049028,新規,0,2022-09-07,2022-09-07,株式会社かわぺん,,株式会社,宮城県,塩竈市,一森山８番２２号,,04,203,9850074,,,,,,,2022-09-07,1,,,,,カワペン,0
1764,6390001017016,新規,0,2022-09-07,2022-09-07,株式会社あけぼの健康ネット,,株式会社,山形県,西置賜郡小国町,大字あけぼの２丁目７番１３号,,06,401,9991356,,,,,,,2022-09-07,1,,,,,アケボノスコヤカネット,0
1768,6420001018002,新規,0,2022-09-07,2022-09-07,株式会社理広,,株式会社,青森県,上北郡おいらせ町,境田６５番地１８,,02,412,0392124,,,,,,,2022-09-07,1,,,,,リコウ,0
1776,6430001087418,新規,0,2022-09-07,2022-09-07,株式会社ショートムービー,,株式会社,北海道,札幌市中央区,南一条西１６丁目１番地３２３春野ビル３Ｆ,,01,101,0600061,,,,,,,2022-09-07,1,,,,,ショートムービー,0
1787,6470001019251,新規,0,2022-09-07,2022-09-07,株式会社Ａｒｔ　Ｈｏｕｓｅ,,株式会社,香川県,高松市,福岡町１丁目７番地２,,37,201,7600066,,,,,,,2022-09-07,1,,,,,アートハウス,0
1789,6480001011851,新規,0,2022-09-07,2022-09-07,株式会社ＫＡＭＡＤＡ,,株式会社,徳島県,徳島市,応神町東貞方字八幡前２番地の１,,36,201,7711154,,,,,,,2022-09-07,1,,,,,カマダ,0
1790,6490001010282,新規,0,2022-09-07,2022-09-07,株式会社関西林業,,株式会社,高知県,高岡郡中土佐町,矢井賀甲８７番地,,39,401,7891303,,,,,,,2022-09-07,1,,,,,カンサイリンギョウ,0
1792,6500001024446,新規,0,2022-09-07,2022-09-07,山和メンテナンス株式会社,,株式会社,愛媛県,今治市,桜井甲１００９番地,,38,202,7991524,,,,,,,2022-09-07,1,,,,,サンワメンテナンス,0
1813,7010001229259,新規,0,2022-09-07,2022-09-07,株式会社タカゾノシステムイノベーション,,株式会社,東京都,中央区,勝どき３丁目１２番１号,,13,102,1040054,,,,,,,2022-09-07,1,,,,,タカゾノシステムイノベーション,0
1814,7010001229309,新規,0,2022-09-07,2022-09-07,盛栄国際株式会社,,株式会社,東京都,文京区,小石川５丁目６番９号ドミ小石川ビル１Ｆ,,13,105,1120002,,,,,,,2022-09-07,1,,,,,セイエイコクサイ,0
1820,7010003038575,新規,0,2022-09-07,2022-09-07,Ｍｕｌｌｉｇａｎ合同会社,,合同会社,東京都,中央区,銀座１丁目２２番１１号銀座大竹ビジデンス２階,,13,102,1040061,,,,,,,2022-09-07,1,,,,,マリガン,0
1821,7010005035521,新規,0,2022-09-07,2022-09-07,一般社団法人ＫＭＰ１,,その他の設立登記法人,東京都,千代田区,内神田２丁目２番６号５階あすな会計事務所内,,13,101,1010047,,,,,,,2022-09-07,1,,,,,ケーエムピーワン,0
1823,7010105002181,新規,0,2022-09-07,2022-09-07,特定非営利活動法人はちおうじこどもえがおプロジェクト,,その他の設立登記法人,東京都,八王子市,元本郷町２丁目８番６号,,13,201,1920051,,,,,,,2022-09-07,1,,,,,ハチオウジコドモエガオプロジェクト,0
1827,7010401169518,新規,0,2022-09-07,2022-09-07,株式会社ＣＩＥＬＡ,,株式会社,東京都,港区,白金台２丁目１２番１８号１０２,,13,103,1080071,,,,,,,2022-09-07,1,,,,,シエラ,0
1828,7010401169534,新規,0,2022-09-07,2022-09-07,スプラウトインベストメント株式会社,,株式会社,東京都,港区,六本木６丁目１５番１号けやき坂テラス３０５,,13,103,1060032,,,,,,,2022-09-07,1,,,,,スプラウトインベストメント,0
1829,7010401169575,新規,0,2022-09-07,2022-09-07,ＭＡＧＯ　ＭＯＴＯＲＳ　ＪＡＰＡＮ株式会社,,株式会社,東京都,港区,芝３丁目３１番２１号,,13,103,1050014,,,,,,,2022-09-07,1,,,,,マゴモーターズジャパン,0
1832,7010403028399,新規,0,2022-09-07,2022-09-07,合同会社フォルトナ,,合同会社,東京都,港区,南青山２丁目２番１５号,,13,103,1070062,,,,,,,2022-09-07,1,,,,,フォルトナ,0
1834,7010405021336,新規,0,2022-09-07,2022-09-07,大阪ロジスティクス特定目的会社,,その他の設立登記法人,東京都,港区,六本木１丁目６番１号泉ガーデンタワー,,13,103,1060032,,,,,,,2022-09-07,1,,,,,オオサカロジスティクス,0
1837,7010601061821,新規,0,2022-09-07,2022-09-07,株式会社熊川,,株式会社,東京都,江東区,大島７丁目３９番１－８１０号,,13,108,1360072,,,,,,,2022-09-07,1,,,,,クマカワ,0
1840,7010701043158,新規,0,2022-09-07,2022-09-07,株式会社トライブ,,株式会社,東京都,品川区,北品川２丁目４番２１号,,13,109,1400001,,,,,,,2022-09-07,1,,,,,トライブ,0
1841,7010701043166,新規,0,2022-09-07,2022-09-07,株式会社クオーレ,,株式会社,東京都,品川区,東五反田１丁目１９番８－４０５号,,13,109,1410022,,,,,,,2022-09-07,1,,,,,クオーレ,0
1846,7011001149587,新規,0,2022-09-07,2022-09-07,株式会社リサイズカンパニー,,株式会社,東京都,目黒区,青葉台３丁目１８番１０号第一目黒橋ビルカーサ青葉台２０３,,13,110,1530042,,,,,,,2022-09-07,1,,,,,リサイズカンパニー,0
1847,7011001149595,新規,0,2022-09-07,2022-09-07,株式会社Ｐｏｔ,,株式会社,東京都,渋谷区,富ヶ谷１丁目６番７号ベルビーマツヤ３０１号室,,13,113,1510063,,,,,,,2022-09-07,1,,,,,ポット,0
1848,7011001149612,新規,0,2022-09-07,2022-09-07,株式会社Ｗｅｌｌｓ,,株式会社,東京都,渋谷区,東４丁目４番８号,,13,113,1500011,,,,,,,2022-09-07,1,,,,,ウェルズ,0
1854,7011101100053,新規,0,2022-09-07,2022-09-07,ＡＬＬ　ＦＯＲ　ＯＮＥ株式会社,,株式会社,東京都,新宿区,荒木町１１番地２北斗四谷ビル３０１号,,13,104,1600007,,,,,,,2022-09-07,1,,,,,オールフォーワン,0
1855,7011101100094,新規,0,2022-09-07,2022-09-07,株式会社ｔｏｒａ,,株式会社,東京都,新宿区,四谷４丁目１３－４５四谷市川ビル,,13,104,1600004,,,,,,,2022-09-07,1,,,,,トラ,0
1856,7011101100103,新規,0,2022-09-07,2022-09-07,株式会社メイクセキュア,,株式会社,東京都,新宿区,富久町１６番９号,,13,104,1620067,,,,,,,2022-09-07,1,,,,,メイクセキュア,0
1857,7011101100111,新規,0,2022-09-07,2022-09-07,Ｃｏｒｅ　Ｅｄｕｃａｔｉｏｎ株式会社,,株式会社,東京都,新宿区,新宿２丁目１２番１３号新宿アントレサロンビル２Ｆ,,13,104,1600022,,,,,,,2022-09-07,1,,,,,コアエデュケーション,0
1858,7011105010389,新規,0,2022-09-07,2022-09-07,ＨＩＰＦ弁理士法人,,その他の設立登記法人,東京都,新宿区,西新宿８丁目１番２号ＰＭＯ西新宿５階,,13,104,1600023,,,,,,,2022-09-07,1,,,,,エイチアイピーエフ,0
1859,7011201024086,新規,0,2022-09-07,2022-09-07,株式会社ＧｉｖｅＮｅｗＷｉｎｇ,,株式会社,東京都,中野区,中野４丁目１－１中野サンプラザ９Ｆ,,13,114,1640001,,,,,,,2022-09-07,1,,,,,ギブニューウイング,0
1867,7011701025591,新規,0,2022-09-07,2022-09-07,ＬＹ株式会社,,株式会社,東京都,江戸川区,南篠崎町４丁目７－１９,,13,123,1330065,,,,,,,2022-09-07,1,,,,,エルワイ,0
1868,7011705001746,新規,0,2022-09-07,2022-09-07,医療法人社団青鳥会,,その他の設立登記法人,東京都,江戸川区,北小岩６丁目８番１５号フィルパーク１階,,13,123,1330051,,,,,,,2022-09-07,1,,,,,セイチョウカイ,0
1870,7012401039601,新規,0,2022-09-07,2022-09-07,株式会社ＭＵＮＩ,,株式会社,東京都,多摩市,愛宕４丁目２８番地,,13,224,2060041,,,,,,,2022-09-07,1,,,,,ムニ,0
1871,7012803002875,新規,0,2022-09-07,2022-09-07,合同会社楝,,合同会社,東京都,国分寺市,光町１丁目３３番地１０ファミール国立２０３,,13,214,1850034,,,,,,,2022-09-07,1,,,,,オウチ,0
1879,7013301049616,新規,0,2022-09-07,2022-09-07,株式会社ＨＳＪＰ,,株式会社,東京都,豊島区,巣鴨３丁目３８－４１階,,13,116,1700002,,,,,,,2022-09-07,1,,,,,エイチエスジェイピー,0
1884,7020001148152,新規,0,2022-09-07,2022-09-07,株式会社ジィエヌピー,,株式会社,神奈川県,横浜市金沢区,六浦南５丁目３番２３号２階,,14,108,2360038,,,,,,,2022-09-07,1,,,,,ジィエヌピー,0
1886,7020003022347,新規,0,2022-09-07,2022-09-07,合同会社ＨＭＫ,,合同会社,神奈川県,川崎市中原区,上小田中７丁目２０番地１６号,,14,133,2110053,,,,,,,2022-09-07,1,,,,,,0
1893,7021001076905,新規,0,2022-09-07,2022-09-07,株式会社堀米興業,,株式会社,神奈川県,相模原市南区,大野台５丁目２番１３号,,14,153,2520331,,,,,,,2022-09-07,1,,,,,ホリゴメコウギョウ,0
1894,7021001076938,新規,0,2022-09-07,2022-09-07,株式会社ＪａｍｍｙＴｏｎｅ,,株式会社,神奈川県,秦野市,鶴巻南４丁目２４番１４号,,14,211,2570002,,,,,,,2022-09-07,1,,,,,ジャミートーン,0
1896,7021003012098,新規,0,2022-09-07,2022-09-07,合同会社Ａｉｉｒｏ,,合同会社,神奈川県,藤沢市,辻堂東海岸２丁目２番２０号アルテックスＩＩ１Ｆ,00127760,14,205,2510045,,,,,,,2022-09-07,1,,,,,アイイロ,0
1897,7021003012115,新規,0,2022-09-07,2022-09-07,ＲＳＧ合同会社,,合同会社,神奈川県,横須賀市,ハイランド３丁目１番４号,,14,201,2390833,,,,,,,2022-09-07,1,,,,,アールエスジー,0
1904,7030001149884,新規,0,2022-09-07,2022-09-07,株式会社日進,,株式会社,埼玉県,蕨市,塚越５丁目５１番１３号クリシャン塚越２０１号室,,11,223,3350002,,,,,,,2022-09-07,1,,,,,ニッシン,0
1905,7030001149942,新規,0,2022-09-07,2022-09-07,ヤマぷらす株式会社,,株式会社,埼玉県,幸手市,戸島２丁目４１番地,,11,240,3400144,,,,,,,2022-09-07,1,,,,,ヤマプラス,0
1907,7030003020135,新規,0,2022-09-07,2022-09-07,合同会社ワンハート,,合同会社,埼玉県,和光市,南１丁目１１－７６第二福寿ビル３０２,,11,229,3510104,,,,,,,2022-09-07,1,,,,,ワンハート,0
1908,7030003020176,新規,0,2022-09-07,2022-09-07,エルチカ合同会社,,合同会社,埼玉県,さいたま市浦和区,領家４丁目８番１２号クラレンス浦和領家１０１号室,,11,107,3300072,,,,,,,2022-09-07,1,,,,,エルチカ,0
1914,7040001124903,新規,0,2022-09-07,2022-09-07,株式会社ＲＥＤ　ＶＡＬＬＥＹ,,株式会社,千葉県,千葉市美浜区,中瀬１丁目３番地,,12,106,2610023,,,,,,,2022-09-07,1,,,,,レッドヴァレー,0
1915,7040001124936,新規,0,2022-09-07,2022-09-07,株式会社正栄商会,,株式会社,千葉県,柏市,増尾台３丁目８番１８号,,12,217,2770052,,,,,,,2022-09-07,1,,,,,ショウエイショウカイ,0
1916,7040001124944,新規,0,2022-09-07,2022-09-07,株式会社中島電気,,株式会社,千葉県,銚子市,明神町２丁目３２２番地の１３,,12,202,2880002,,,,,,,2022-09-07,1,,,,,ナカジマデンキ,0
1917,7040001124969,新規,0,2022-09-07,2022-09-07,株式会社ＵＰ　ＷＩＤＥ,,株式会社,千葉県,松戸市,西馬橋３丁目２４－２０,,12,207,2710044,,,,,,,2022-09-07,1,,,,,アップワイド,0
1918,7040001125018,新規,0,2022-09-07,2022-09-07,株式会社翔計社,,株式会社,千葉県,山武市,成東１９９番地２,,12,237,2891326,,,,,,,2022-09-07,1,,,,,ショウケイシャ,0
1920,7040003020753,新規,0,2022-09-07,2022-09-07,ウルクス合同会社,,合同会社,千葉県,柏市,泉町１番１８－５号,,12,217,2770022,,,,,,,2022-09-07,1,,,,,ウルクス,0
1922,7050001051618,新規,0,2022-09-07,2022-09-07,株式会社ニチコムホールディングス,,株式会社,茨城県,守谷市,本町２８８番地１,,08,224,3020109,,,,,,,2022-09-07,1,,,,,ニチコムホールディングス,0
1923,7050003006826,新規,0,2022-09-07,2022-09-07,合同会社ＫＳＰＡＣＥ,,合同会社,茨城県,つくば市,梅園２丁目１番１５号スプリングテックつくばビル４０１,,08,220,3050045,,,,,,,2022-09-07,1,,,,,ケイスペース,0
1924,7060001035256,新規,0,2022-09-07,2022-09-07,株式会社ｊａｍ,,株式会社,栃木県,宇都宮市,大谷町１１６９番地,,09,201,3210345,,,,,,,2022-09-07,1,,,,,ジャム,0
1927,7070001039594,新規,0,2022-09-07,2022-09-07,ニットー株式会社,,株式会社,群馬県,太田市,浜町２０番２８号,,10,205,3730853,,,,,,,2022-09-07,1,,,,,ニットー,0
1928,7070001039603,新規,0,2022-09-07,2022-09-07,株式会社ｏｎｅ’ｓ,,株式会社,群馬県,高崎市,栄町２２番２９号,,10,202,3700841,,,,,,,2022-09-07,1,,,,,ワンズ,0
1929,7070001039611,新規,0,2022-09-07,2022-09-07,下田建設株式会社,,株式会社,群馬県,佐波郡玉村町,大字上之手２１１２番地５,,10,464,3701127,,,,,,,2022-09-07,1,,,,,シモダケンセツ,0
1930,7070003004613,新規,0,2022-09-07,2022-09-07,あいうえお合同会社,,合同会社,群馬県,伊勢崎市,香林町２丁目１５０８番地２,,10,204,3792206,,,,,,,2022-09-07,1,,,,,アイウエオ,0
1934,7080001025180,新規,0,2022-09-07,2022-09-07,株式会社七施,,株式会社,静岡県,静岡市葵区,浅間町１丁目１５番地の１,,22,101,4200862,,,,,,,2022-09-07,1,,,,,ナナセ,0
1935,7080101023514,新規,0,2022-09-07,2022-09-07,プラスａ株式会社,,株式会社,静岡県,伊東市,八幡野１０３３番地の４３,,22,208,4130232,,,,,,,2022-09-07,1,,,,,プラスエー,0
1938,7080401026035,新規,0,2022-09-07,2022-09-07,サイノウ塗装株式会社,,株式会社,静岡県,菊川市,東横地２０８番地の１,,22,224,4390022,,,,,,,2022-09-07,1,,,,,サイノウトソウ,0
1941,7080403004609,新規,0,2022-09-07,2022-09-07,合同会社川上工業,,合同会社,静岡県,掛川市,三俣１３７６番地の１サンバーストＭ３０２,,22,213,4371416,,,,,,,2022-09-07,1,,,,,カワカミコウギョウ,0
1943,7100001035680,新規,0,2022-09-07,2022-09-07,株式会社ひよの家,,株式会社,長野県,松本市,征矢野２丁目１０番４号,,20,202,3900842,,,,,,,2022-09-07,1,,,,,ヒヨノイエ,0
1945,7110001036950,新規,0,2022-09-07,2022-09-07,株式会社森栄工業,,株式会社,新潟県,妙高市,大字吉木７６３番地５,,15,217,9440022,,,,,,,2022-09-07,1,,,,,シンエイコウギョウ,0
1946,7110001036959,新規,0,2022-09-07,2022-09-07,株式会社ハーメックジャパン,,株式会社,新潟県,刈羽郡刈羽村,大字刈羽６８４番地,,15,504,9450307,,,,,,,2022-09-07,1,,,,,ハーメックジャパン,0
1948,7110003004856,新規,0,2022-09-07,2022-09-07,合同会社ひまわり,,合同会社,新潟県,新潟市西区,五十嵐１の町６６８２番地７,,15,107,9502101,,,,,,,2022-09-07,1,,,,,ヒマワリ,0
1961,7120001248636,新規,0,2022-09-07,2022-09-07,株式会社正和,,株式会社,大阪府,大阪市浪速区,元町１丁目１１番１０号難波コープ６０４号,,27,111,5560016,,,,,,,2022-09-07,1,,,,,セイワ,0
1962,7120001248652,新規,0,2022-09-07,2022-09-07,株式会社Ｑｌａｓｓｉｃ,,株式会社,大阪府,大阪市北区,中崎西４丁目２番２１－１１０８号,,27,127,5300015,,,,,,,2022-09-07,1,,,,,クラシック,0
1963,7120001248693,新規,0,2022-09-07,2022-09-07,株式会社レクストロジスティクス,,株式会社,大阪府,大阪市中央区,平野町２丁目２番８号,,27,128,5410046,,,,,,,2022-09-07,1,,,,,レクストロジスティクス,0
1964,7120001248710,新規,0,2022-09-07,2022-09-07,株式会社Ｉ．ｍａｊｏｒ,,株式会社,大阪府,大阪市港区,築港４丁目２番３２号３Ｆ,,27,107,5520021,,,,,,,2022-09-07,1,,,,,アイメジャー,0
1965,7120001248776,新規,0,2022-09-07,2022-09-07,株式会社プライマーパートナーズ,,株式会社,大阪府,大阪市北区,梅田１丁目１－３大阪駅前第３ビル２９階１－１－１号室,,27,127,5300001,,,,,,,2022-09-07,1,,,,,プライマーパートナーズ,0
1972,7120101066153,新規,0,2022-09-07,2022-09-07,株式会社榎谷建設,,株式会社,大阪府,泉南郡岬町,深日３４９４番地の３,,27,366,5990303,,,,,,,2022-09-07,1,,,,,エノタニケンセツ,0
1973,7120101066203,新規,0,2022-09-07,2022-09-07,株式会社ＬＩＰ,,株式会社,大阪府,和泉市,和気町４丁目７番２－５０９号,,27,219,5940073,,,,,,,2022-09-07,1,,,,,リップ,0
1976,7120901046478,新規,0,2022-09-07,2022-09-07,株式会社ｈａｐｐｉｎｅｓｓ,,株式会社,大阪府,茨木市,南耳原２丁目１１番１５号ウエストＶ２０３号,00127757,27,211,5670004,,,,,,,2022-09-07,1,,,,,ハピネス,0
1979,7140001127292,新規,0,2022-09-07,2022-09-07,株式会社リールズ,,株式会社,兵庫県,加古郡播磨町,古田１丁目９番２６号,,28,382,6750146,,,,,,,2022-09-07,1,,,,,リールズ,0
1981,7140003018102,新規,0,2022-09-07,2022-09-07,合同会社雨過天晴,,合同会社,兵庫県,川西市,水明台４丁目２番地の２５,,28,217,6660116,,,,,,,2022-09-07,1,,,,,ウカテンセイ,0
1985,7180001152799,新規,0,2022-09-07,2022-09-07,金洲株式会社,,株式会社,愛知県,知多郡美浜町,大字上野間字北川９６番地１,,23,446,4703231,,,,,,,2022-09-07,1,,,,,キンシュウ,0
1986,7180001152923,新規,0,2022-09-07,2022-09-07,株式会社Ｅｎ,,株式会社,愛知県,名古屋市天白区,植田南２丁目３０１番地ライオンズマンション植田南５０１号,,23,116,4680053,,,,,,,2022-09-07,1,,,,,エン,0
1987,7180005019929,新規,0,2022-09-07,2022-09-07,医療法人津島,,その他の設立登記法人,愛知県,津島市,蛭間町字宮重４５７番地,,23,208,4960004,,,,,,,2022-09-07,1,,,,,ツシマ,0
1988,7180301036611,新規,0,2022-09-07,2022-09-07,株式会社東和キャスト豊田,,株式会社,愛知県,豊田市,神田町２丁目９番地８ルック神田２０３,,23,211,4710868,,,,,,,2022-09-07,1,,,,,トウワキャストトヨタ,0
1995,7200001040431,新規,0,2022-09-07,2022-09-07,株式会社ＡＭホールディングス,,株式会社,岐阜県,岐阜市,吉野町６丁目３１番地,,21,201,5008844,,,,,,,2022-09-07,1,,,,,エイエムホールディングス,0
1997,7210001019078,新規,0,2022-09-07,2022-09-07,エスティスマート株式会社,,株式会社,福井県,福井市,別所町第３号１３番地,,18,201,9188115,,,,,,,2022-09-07,1,,,,,エスティスマート,0
2000,7220001025018,新規,0,2022-09-07,2022-09-07,ＴＨＥ　ＵＰＤＡＴＥ　ＯＲＧＡＮＩＺＡＴＩＯＮ株式会社,,株式会社,石川県,金沢市,桂町ハ６・１Ｆ,,17,201,9200334,,,,,,,2022-09-07,1,,,,,ジアップデイトオーガニゼーション,0
2008,7240001060351,新規,0,2022-09-07,2022-09-07,株式会社一栄金属,,株式会社,広島県,東広島市,西条町田口２１３５番地７,,34,212,7390036,,,,,,,2022-09-07,1,,,,,イチエイキンゾク,0
2011,7240003005791,新規,0,2022-09-07,2022-09-07,Ｒｅｓｆｅｂｅｒ合同会社,,合同会社,広島県,広島市南区,京橋町１番７号アスティ広島京橋ビルディング,,34,103,7320828,,,,,,,2022-09-07,1,,,,,レースフェーベル,0
2024,7290001098882,新規,0,2022-09-07,2022-09-07,株式会社フィット不動産,,株式会社,福岡県,福岡市中央区,白金１丁目１番３－６０４号,,40,133,8100012,,,,,,,2022-09-07,1,,,,,フィットフドウサン,0
2026,7290003012924,新規,0,2022-09-07,2022-09-07,合同会社Ｐｕｌｅｏ　Ｃｏｒｐｏｒａｔｉｏｎ,,合同会社,福岡県,福岡市東区,香椎照葉７丁目１番２０号,,40,131,8130017,,,,,,,2022-09-07,1,,,,,プレオコーポレイション,0
2029,7290801028873,新規,0,2022-09-07,2022-09-07,アクエルクラウド株式会社,,株式会社,福岡県,北九州市八幡東区,清田１丁目９番２号,,40,108,8050034,,,,,,,2022-09-07,1,,,,,アクエルクラウド,0
2030,7300001013055,新規,0,2022-09-07,2022-09-07,株式会社川原設計,,株式会社,佐賀県,伊万里市,東山代町浦川内５３４８番地,,41,205,8494284,,,,,,,2022-09-07,1,,,,,カワハラセッケイ,0
2041,7330001030064,新規,0,2022-09-07,2022-09-07,株式会社美整健,,株式会社,熊本県,八代市,通町参号８番地１,,43,202,8660856,,,,,,,2022-09-07,1,,,,,ビセイケン,0
2053,7350003004163,新規,0,2022-09-07,2022-09-07,宮崎クリエイティブワールド合同会社,,合同会社,宮崎県,宮崎市,江南１丁目１７番１０号,,45,201,8800944,,,,,,,2022-09-07,1,,,,,ミヤザキクリエイティブワールド,0
2058,7360001030937,新規,0,2022-09-07,2022-09-07,農業生産法人幸和農園株式会社,,株式会社,沖縄県,沖縄市,字知花２９０２番地１,,47,211,9042143,,,,,,,2022-09-07,1,,,,,ノウギョウセイサンホウジンコウワノウエン,0
2061,7370001049010,新規,0,2022-09-07,2022-09-07,株式会社厨冷,,株式会社,宮城県,仙台市宮城野区,新田３丁目１９番３０号小鶴参番館２０６,,04,102,9830038,,,,,,,2022-09-07,1,,,,,チュウレイ,0
2062,7370001049019,新規,0,2022-09-07,2022-09-07,株式会社ジェイリンク,,株式会社,宮城県,仙台市太白区,諏訪町６番４０号メゾンＴ＆Ｍ１０３,,04,104,9820005,,,,,,,2022-09-07,1,,,,,ジェイリンク,0
2074,7420001018001,新規,0,2022-09-07,2022-09-07,株式会社エイビス青森,,株式会社,青森県,三沢市,日の出４丁目９４番地３２７号,,02,207,0330154,,,,,,,2022-09-07,1,,,,,エイビスアオモリ,0
2080,7440001009139,新規,0,2022-09-07,2022-09-07,株式会社光栄,,株式会社,北海道,函館市,昭和１丁目３番８号,,01,202,0410812,,,,,,,2022-09-07,1,,,,,コウエイ,0
2081,7460103001479,新規,0,2022-09-07,2022-09-07,合同会社Ｏｆｕｒｏｔｏ,,合同会社,北海道,十勝郡浦幌町,字幸町７０番地２,,01,649,0895613,,,,,,,2022-09-07,1,,,,,オフロト,0
2086,7490003001700,新規,0,2022-09-07,2022-09-07,合同会社ワールドトレード,,合同会社,高知県,高知市,南万々９番地１－１０１号,,39,201,7800971,,,,,,,2022-09-07,1,,,,,ワールドトレード,0
2094,8010001229266,新規,0,2022-09-07,2022-09-07,株式会社ミライデザインＧＸ,,株式会社,東京都,千代田区,神田松永町１０４番地ＴＳＫビル３Ｆ,,13,101,1010023,,,,,,,2022-09-07,1,,,,,ミライデザインジーエックス,0
2095,8010001229299,新規,0,2022-09-07,2022-09-07,株式会社ＳＥＮＥＣＡ,,株式会社,東京都,中央区,銀座１丁目２２番１１号銀座大竹ビジデンス２階,,13,102,1040061,,,,,,,2022-09-07,1,,,,,セネカ,0
2097,8010003038566,新規,0,2022-09-07,2022-09-07,合同会社オルタナ１５,,合同会社,東京都,千代田区,丸の内３丁目１番１号東京共同会計事務所内,,13,101,1000005,,,,,,,2022-09-07,1,,,,,オルタナフィフティーン,0
2098,8010003038599,新規,0,2022-09-07,2022-09-07,合同会社アクシスソーラー１号,,合同会社,東京都,千代田区,一ツ橋２丁目６番３号アクシスインベストメントアドバイザーズ株式会社内,,13,101,1010003,,,,,,,2022-09-07,1,,,,,アクシスソーラーイチゴウ,0
2105,8010401169500,新規,0,2022-09-07,2022-09-07,株式会社はなわホールディングス,,株式会社,東京都,港区,東新橋１丁目９番２号汐留住友ビル１６階,,13,103,1050021,,,,,,,2022-09-07,1,,,,,ハナワホールディングス,0
2106,8010401169509,新規,0,2022-09-07,2022-09-07,株式会社Ｐｒｏｄｕｅｔ,,株式会社,東京都,港区,南青山３丁目１番３６号青山丸竹ビル６Ｆ,,13,103,1070062,,,,,,,2022-09-07,1,,,,,プロデュエット,0
2107,8010401169566,新規,0,2022-09-07,2022-09-07,株式会社ベルビージュ,,株式会社,東京都,港区,南麻布２丁目３番１１号,,13,103,1060047,,,,,,,2022-09-07,1,,,,,ベルビージュ,0
2116,8010405021335,新規,0,2022-09-07,2022-09-07,大阪ロジスティクス一般社団法人,,その他の設立登記法人,東京都,港区,六本木１丁目６番１号泉ガーデンタワー,,13,103,1060032,,,,,,,2022-09-07,1,,,,,オオサカロジスティクス,0
2122,8010603009719,新規,0,2022-09-07,2022-09-07,合同会社エソラ,,合同会社,東京都,墨田区,菊川２丁目５番２－２０１号武藤ビル,,13,107,1300024,,,,,,,2022-09-07,1,,,,,エソラ,0
2123,8010605004123,新規,0,2022-09-07,2022-09-07,医療法人社団眞風会,,その他の設立登記法人,東京都,墨田区,錦糸１丁目７番１５号Ｔ’ｚビル錦糸町３階,,13,107,1300013,,,,,,,2022-09-07,1,,,,,シンプウカイ,0
2125,8010701043149,新規,0,2022-09-07,2022-09-07,株式会社鹿児島ガーデンゴルフ倶楽部,,株式会社,東京都,品川区,東品川４丁目１２番４号,,13,109,1400002,,,,,,,2022-09-07,1,,,,,カゴシマガーデンゴルフクラブ,0
2127,8010705003413,新規,0,2022-09-07,2022-09-07,一般社団法人オレンジ,,その他の設立登記法人,東京都,品川区,上大崎３丁目５番８－５０９号,,13,109,1410021,,,,,,,2022-09-07,1,,,,,オレンジ,0
2150,8011101100060,新規,0,2022-09-07,2022-09-07,株式会社ｉｌｍａ　ｄｅｓｉｇｎ,,株式会社,東京都,新宿区,西新宿７丁目１番７号新宿ダイカンプラザＡ１０１８,,13,104,1600023,,,,,,,2022-09-07,1,,,,,イルマデザイン,0
2151,8011101100069,新規,0,2022-09-07,2022-09-07,株式会社リリーズ・トランサポート,,株式会社,東京都,新宿区,西新宿７丁目１番７号新宿ダイカンプラザＡ１０１８,,13,104,1600023,,,,,,,2022-09-07,1,,,,,リリーズトランサポート,0
2152,8011103012122,新規,0,2022-09-07,2022-09-07,合同会社Ｍｆｒｅｅ,,合同会社,東京都,新宿区,西新宿６丁目２０－７－１２１８,,13,104,1600023,,,,,,,2022-09-07,1,,,,,エムフリー,0
2156,8011201024093,新規,0,2022-09-07,2022-09-07,Ｗｅｌｌ　Ｂｏｄｙ株式会社,,株式会社,東京都,中野区,中野５丁目２４－１８クロススクエアＮＡＫＡＮＯ７０５,,13,114,1640001,,,,,,,2022-09-07,1,,,,,ウェルボディ,0
2161,8011601026227,新規,0,2022-09-07,2022-09-07,株式会社ＸＹＬＯＣＯＰＡ,,株式会社,東京都,練馬区,旭町３丁目２８番１５号,,13,120,1790071,,,,,,,2022-09-07,1,,,,,ザイロコーパ,0
2168,8011801041240,新規,0,2022-09-07,2022-09-07,株式会社シーエイト,,株式会社,東京都,葛飾区,お花茶屋３丁目３番３号,,13,122,1240003,,,,,,,2022-09-07,1,,,,,シーエイト,0
2170,8011803005251,新規,0,2022-09-07,2022-09-07,キーメトロン合同会社,,合同会社,東京都,葛飾区,西新小岩４丁目３４番３号,,13,122,1240025,,,,,,,2022-09-07,1,,,,,キーメトロン,0
2173,8012401039600,新規,0,2022-09-07,2022-09-07,株式会社ＲＥＶＥ,,株式会社,東京都,小金井市,本町６丁目２番２０－Ｅ２４０１号,,13,210,1840004,,,,,,,2022-09-07,1,,,,,レイブ,0
2174,8012405004781,新規,0,2022-09-07,2022-09-07,医療法人社団緑明会,,その他の設立登記法人,東京都,府中市,寿町２丁目４番４２号ＣＯＯＰ府中寿町店３階府中寿町医療モール,,13,206,1830056,,,,,,,2022-09-07,1,,,,,リョクメイカイ,0
2177,8012801021819,新規,0,2022-09-07,2022-09-07,イリュージョンアーツ株式会社,,株式会社,東京都,東大和市,奈良橋３丁目４９１番地,,13,220,2070031,,,,,,,2022-09-07,1,,,,,イリュージョンアーツ,0
2178,8012801021827,新規,0,2022-09-07,2022-09-07,株式会社ＢＡＳＥカンパニー,,株式会社,東京都,昭島市,田中町２丁目１０番９号,,13,207,1960014,,,,,,,2022-09-07,1,,,,,ベースカンパニー,0
2183,8013301049615,新規,0,2022-09-07,2022-09-07,株式会社栄成ホールディングス,,株式会社,東京都,豊島区,池袋１丁目６番１号,,13,116,1700014,,,,,,,2022-09-07,1,,,,,エイセイホールディングス,0
2184,8013301049623,新規,0,2022-09-07,2022-09-07,ＦＯＸ株式会社,,株式会社,東京都,豊島区,池袋１丁目１番２－３０１号,,13,116,1700014,,,,,,,2022-09-07,1,,,,,フォックス,0
2185,8013305003378,新規,0,2022-09-07,2022-09-07,医療法人社団白樹会,,その他の設立登記法人,東京都,豊島区,雑司が谷２丁目２番１号リバーシティ目白１階,,13,116,1710032,,,,,,,2022-09-07,1,,,,,ハクジュカイ,0
2193,8020001148077,新規,0,2022-09-07,2022-09-07,株式会社フェアリーズ,,株式会社,神奈川県,横浜市港北区,高田東１丁目３１番８－６０３号,,14,109,2230065,,,,,,,2022-09-07,1,,,,,フェアリーズ,0
2194,8020001148110,新規,0,2022-09-07,2022-09-07,ＭＳ株式会社,,株式会社,神奈川県,横浜市保土ケ谷区,狩場町２９２番地８９ヒルテラス横浜・保土ケ谷壱番館６０８号,,14,106,2400025,,,,,,,2022-09-07,1,,,,,エムエス,0
2195,8020001148119,新規,0,2022-09-07,2022-09-07,ＭＲエンジニアリング株式会社,,株式会社,神奈川県,横浜市保土ケ谷区,仏向西１番１７号,,14,106,2400046,,,,,,,2022-09-07,1,,,,,エムアールエンジニアリング,0
2202,8020003022354,新規,0,2022-09-07,2022-09-07,合同会社須藤商店,,合同会社,神奈川県,横浜市中区,相生町１丁目２６番小島屋ビル２０１号室,,14,104,2310012,,,,,,,2022-09-07,1,,,,,スドウショウテン,0
2207,8021001076895,新規,0,2022-09-07,2022-09-07,株式会社Ｌｕｎａ　ｅ　Ｔｅｒｒａ,,株式会社,神奈川県,藤沢市,湘南台４丁目３４番地の６,,14,205,2520804,,,,,,,2022-09-07,1,,,,,ルナエテラ,0
2208,8021001076904,新規,0,2022-09-07,2022-09-07,株式会社ＨＹ．ｌｉｎｋｓ,,株式会社,神奈川県,伊勢原市,伊勢原２丁目５番３９号ＵＮＯイダビル３０１号,,14,214,2591131,,,,,,,2022-09-07,1,,,,,エイチワイリンクス,0
2209,8021001076945,新規,0,2022-09-07,2022-09-07,株式会社山口コンプリートタワー,,株式会社,神奈川県,茅ヶ崎市,共恵１丁目３番３－１１０４号,,14,207,2530056,,,,,,,2022-09-07,1,,,,,ヤマグチコンプリートタワー,0
2210,8021001076953,新規,0,2022-09-07,2022-09-07,株式会社ＴＴＣ,,株式会社,神奈川県,伊勢原市,板戸８８９番地２,,14,214,2591145,,,,,,,2022-09-07,1,,,,,ティーティーシー,0
2212,8021003012114,新規,0,2022-09-07,2022-09-07,ＡＫＡＨＡＩ　ＬＩＦＥ合同会社,,合同会社,神奈川県,相模原市緑区,青根３０７５－２,,14,151,2520162,,,,,,,2022-09-07,1,,,,,アカハイライフ,0
2213,8021003012122,新規,0,2022-09-07,2022-09-07,幸フードコミュニケーションズ合同会社,,合同会社,神奈川県,相模原市南区,新戸１８８２－７,,14,153,2520326,,,,,,,2022-09-07,1,,,,,コウフードコミュニケーションズ,0
2214,8021005012608,新規,0,2022-09-07,2022-09-07,地域福祉葬祭協同組合,,その他の設立登記法人,神奈川県,相模原市中央区,中央３丁目７番９号,,14,152,2520239,,,,,,,2022-09-07,1,,,,,チイキフクシキョウサイ,0
2217,8030001149958,新規,0,2022-09-07,2022-09-07,株式会社ＥＳＴＣＯＲＥ,,株式会社,埼玉県,さいたま市大宮区,櫛引町１丁目７９８番地３,,11,103,3300851,,,,,,,2022-09-07,1,,,,,イーストコア,0
2218,8030001149974,新規,0,2022-09-07,2022-09-07,株式会社アドヴァン,,株式会社,埼玉県,蓮田市,西新宿３丁目８０番地５,,11,238,3490141,,,,,,,2022-09-07,1,,,,,アドヴァン,0
2221,8030003020159,新規,0,2022-09-07,2022-09-07,合同会社唯,,合同会社,埼玉県,草加市,花栗１丁目１４－３３,,11,221,3400044,,,,,,,2022-09-07,1,,,,,ユイ,0
2224,8040001124919,新規,0,2022-09-07,2022-09-07,株式会社君津サンソセンター,,株式会社,千葉県,君津市,君津１番地,,12,225,2991141,,,,,,,2022-09-07,1,,,,,キミツサンソセンター,0
2225,8040001124968,新規,0,2022-09-07,2022-09-07,ポラーノのお家株式会社,,株式会社,千葉県,千葉市稲毛区,長沼原町４５０番地１５,,12,103,2630001,,,,,,,2022-09-07,1,,,,,ポラーノノオウチ,0
2226,8040001124976,新規,0,2022-09-07,2022-09-07,株式会社ワークス,,株式会社,千葉県,茂原市,町保１０番地９６,,12,210,2970022,,,,,,,2022-09-07,1,,,,,ワークス,0
2228,8050001051658,新規,0,2022-09-07,2022-09-07,株式会社結城,,株式会社,茨城県,常陸太田市,金井町３６０１番地,,08,212,3130016,,,,,,,2022-09-07,1,,,,,ユウキ,0
2230,8050003006825,新規,0,2022-09-07,2022-09-07,ＡＡ　ＴＲＡＤＩＮＧ合同会社,,合同会社,茨城県,稲敷郡美浦村,大字木原１８７５番地１０,,08,442,3000421,,,,,,,2022-09-07,1,,,,,エーエートレーディング,0
2231,8050005013134,新規,0,2022-09-07,2022-09-07,医療法人三笠会,,その他の設立登記法人,茨城県,水戸市,笠原町８８７番地の１０,,08,201,3100852,,,,,,,2022-09-07,1,,,,,ミカサカイ,0
2233,8060001035247,新規,0,2022-09-07,2022-09-07,リバーストンエステート株式会社,,株式会社,栃木県,真岡市,伊勢崎３７０番地,,09,209,3214342,,,,,,,2022-09-07,1,,,,,リバーストンエステート,0
2234,8060001035255,新規,0,2022-09-07,2022-09-07,株式会社ＨＡＢＩＢ　ＴＲＡＤＩＮＧ　ＣＯＭＰＡＮＹ,,株式会社,栃木県,小山市,駅南町６丁目１１番１９号望月アパート２０１号,,09,208,3230822,,,,,,,2022-09-07,1,,,,,ハビブトレーディングカンパニー,0
2238,8070001039602,新規,0,2022-09-07,2022-09-07,ラフィキエリ株式会社,,株式会社,群馬県,前橋市,上細井町２０２７番地１６,,10,201,3710051,,,,,,,2022-09-07,1,,,,,ラフィキエリ,0
2251,8100001035688,新規,0,2022-09-07,2022-09-07,サカイ技研株式会社,,株式会社,長野県,伊那市,東春近４１９２番地１,,20,209,3994432,,,,,,,2022-09-07,1,,,,,サカイギケン,0
2259,8110001036958,新規,0,2022-09-07,2022-09-07,株式会社ヘルスケア＆ライフサポート,,株式会社,新潟県,新潟市中央区,神道寺南２丁目７番３６号,,15,103,9500986,,,,,,,2022-09-07,1,,,,,ヘルスケアアンドライフサポート,0
2260,8110005016849,新規,0,2022-09-07,2022-09-07,社会保険労務士法人ヨシノ事務所,,その他の設立登記法人,新潟県,長岡市,笹崎１丁目５番地１４,,15,202,9400833,,,,,,,2022-09-07,1,,,,,ヨシノジムショ,0
2273,8120001248610,新規,0,2022-09-07,2022-09-07,株式会社高見設備,,株式会社,大阪府,大阪市城東区,放出西１丁目７番３０号,,27,118,5360011,,,,,,,2022-09-07,1,,,,,タカミセツビ,0
2279,8120101066185,新規,0,2022-09-07,2022-09-07,株式会社エイコー,,株式会社,大阪府,貝塚市,澤６６５番地３,,27,208,5970062,,,,,,,2022-09-07,1,,,,,エイコー,0
2280,8120101066202,新規,0,2022-09-07,2022-09-07,ミニード株式会社,,株式会社,大阪府,貝塚市,海塚１丁目１番２３号,,27,208,5970083,,,,,,,2022-09-07,1,,,,,ミニード,0
2287,8122003002417,新規,0,2022-09-07,2022-09-07,合同会社ハナタバ,,合同会社,大阪府,東大阪市,西岩田３丁目３－１３－１０２８号,,27,227,5780947,,,,,,,2022-09-07,1,,,,,ハナタバ,0
2297,8140001127250,新規,0,2022-09-07,2022-09-07,株式会社ｔｅｔｏｒｉ,,株式会社,兵庫県,西宮市,中須佐町５番１１号,,28,204,6620851,,,,,,,2022-09-07,1,,,,,テトリ,0
2299,8140003018092,新規,0,2022-09-07,2022-09-07,合同会社ＨＭＳ,,合同会社,兵庫県,尼崎市,東難波町２丁目１６番１７号,,28,202,6600892,,,,,,,2022-09-07,1,,,,,エイチエムエス,0
2311,8180001152897,新規,0,2022-09-07,2022-09-07,株式会社メハールトレーディング,,株式会社,愛知県,半田市,鵜ノ池町１３－８１,,23,205,4750958,,,,,,,2022-09-07,1,,,,,メハールトレーディング,0
2312,8180001152955,新規,0,2022-09-07,2022-09-07,株式会社トランクイフ,,株式会社,愛知県,名古屋市中区,新栄２丁目１番２５号ＮＲ新栄９０１,,23,106,4600007,,,,,,,2022-09-07,1,,,,,トランクイフ,0
2316,8180301036593,新規,0,2022-09-07,2022-09-07,万事株式会社,,株式会社,愛知県,岡崎市,北野町字東山２０９番地１,,23,202,4440951,,,,,,,2022-09-07,1,,,,,バンジ,0
2333,8240001060326,新規,0,2022-09-07,2022-09-07,株式会社ＭＡＲＫ,,株式会社,広島県,三次市,十日市南５丁目７番１４号,,34,209,7280014,,,,,,,2022-09-07,1,,,,,マーク,0
2334,8240001060342,新規,0,2022-09-07,2022-09-07,株式会社Ｓｔａｒｋ,,株式会社,広島県,福山市,川口町２丁目９番３７－２０４号,,34,207,7200822,,,,,,,2022-09-07,1,,,,,スターク,0
2335,8240001060350,新規,0,2022-09-07,2022-09-07,株式会社ヒロカミ,,株式会社,広島県,安芸郡海田町,国信１丁目７番２－２０１号Ａ棟,,34,304,7360002,,,,,,,2022-09-07,1,,,,,ヒロカミ,0
2336,8240001060359,新規,0,2022-09-07,2022-09-07,株式会社ｉｓｍ,,株式会社,広島県,広島市南区,宇品西２丁目１６番５１号ベイシティ宇品１Ｆ,,34,103,7340014,,,,,,,2022-09-07,1,,,,,イズム,0
2339,8280005007501,新規,0,2022-09-07,2022-09-07,一般社団法人ｏｎｋａｉ,,その他の設立登記法人,島根県,出雲市,馬木町８６番地,,32,203,6930212,,,,,,,2022-09-07,1,,,,,オンカイ,0
2346,8290001098824,新規,0,2022-09-07,2022-09-07,タクシードジャパンホールディングス株式会社,,株式会社,福岡県,福岡市博多区,博多駅中央街８番１号ＪＲＪＰ博多ビル３Ｆ,,40,132,8120012,,,,,,,2022-09-07,1,,,,,タクシードジャパンホールディングス,0
2347,8290001098849,新規,0,2022-09-07,2022-09-07,ｓｅｎｓｅ　ｏｆ　ｖａｌｕｅｓ株式会社,,株式会社,福岡県,福岡市中央区,天神３丁目６番１６号オフィスニューガイアクレール天神５Ｆ,,40,133,8100001,,,,,,,2022-09-07,1,,,,,センスオブバリューズ,0
2349,8290003012923,新規,0,2022-09-07,2022-09-07,合同会社Ｌｉｌｙ＆Ｓｕｎｒｉｓｅ,,合同会社,福岡県,久留米市,西町１０８番地１２,,40,203,8300038,,,,,,,2022-09-07,1,,,,,リリーアンドサンライズ,0
2353,8320001019314,新規,0,2022-09-07,2022-09-07,株式会社Ｔ‐Ｇａｒａｇｅ,,株式会社,大分県,中津市,大字大塚８００番地７,,44,203,8710008,,,,,,,2022-09-07,1,,,,,ティーガレージ,0
2356,8350003004162,新規,0,2022-09-07,2022-09-07,合同会社ラ・メーラ,,合同会社,宮崎県,西都市,大字上三財５４４７番地７,,45,208,8810115,,,,,,,2022-09-07,1,,,,,ラメーラ,0
2360,8370001049026,新規,0,2022-09-07,2022-09-07,大伸興業株式会社,,株式会社,宮城県,登米市,南方町梶沼６７番地２,,04,212,9870425,,,,,,,2022-09-07,1,,,,,ダイシンコウギョウ,0
2380,8430001087440,新規,0,2022-09-07,2022-09-07,株式会社サイトビルド,,株式会社,北海道,札幌市清田区,美しが丘三条２丁目１番３号,,01,110,0040813,,,,,,,2022-09-07,1,,,,,サイトビルド,0
2384,8460101007246,新規,0,2022-09-07,2022-09-07,株式会社秀栄企画,,株式会社,北海道,帯広市,大通南３０丁目５番地１,,01,207,0800010,,,,,,,2022-09-07,1,,,,,シュウエイキカク,0
2388,8500001024452,新規,0,2022-09-07,2022-09-07,ガクカンセツ株式会社,,株式会社,愛媛県,松山市,宮西３丁目５番３号,,38,201,7900065,,,,,,,2022-09-07,1,,,,,ガクカンセツ,0
2401,9010001229315,新規,0,2022-09-07,2022-09-07,Ｏｒｇｗａｒｅ　Ｔｅｃｈｎｏｌｏｇｉｅｓ株式会社,,株式会社,東京都,中央区,日本橋人形町１丁目１６番６号ルースタワー３階,,13,102,1030013,,,,,,,2022-09-07,1,,,,,アールクワールテクノロジーズ,0
2421,9010401169458,新規,0,2022-09-07,2022-09-07,Ｍｉｘ株式会社,,株式会社,東京都,港区,芝５丁目３６番４号札の辻スクエア９階,,13,103,1080014,,,,,,,2022-09-07,1,,,,,ミックス,0
2422,9010401169474,新規,0,2022-09-07,2022-09-07,株式会社ｂａｌｌａｄｅ,,株式会社,東京都,港区,浜松町２丁目２番１５号浜松町ダイヤビル２Ｆ,,13,103,1050013,,,,,,,2022-09-07,1,,,,,バラード,0
2423,9010401169524,新規,0,2022-09-07,2022-09-07,株式会社アステージ,,株式会社,東京都,港区,三田１丁目３番４０号天翔オフィス麻布十番６０２,,13,103,1080073,,,,,,,2022-09-07,1,,,,,アステージ,0
2424,9010401169532,新規,0,2022-09-07,2022-09-07,株式会社ＳＥＩ,,株式会社,東京都,港区,六本木２丁目２番４号,,13,103,1060032,,,,,,,2022-09-07,1,,,,,エスイーアイ,0
2425,9010401169573,新規,0,2022-09-07,2022-09-07,ＭＴＢ　Ｖｉｎｏ　Ｖｅｎｔｕｒｅｓ株式会社,,株式会社,東京都,港区,三田１丁目３番４０号天翔オフィス麻布十番８０８,,13,103,1080073,,,,,,,2022-09-07,1,,,,,エムティービービノベンチャーズ,0
2429,9010403028380,新規,0,2022-09-07,2022-09-07,ＲＩＧＨＥＲ合同会社,,合同会社,東京都,港区,南青山２丁目２番１５号ウィン青山１２１４,,13,103,1070062,,,,,,,2022-09-07,1,,,,,リガー,0
2430,9010403028422,新規,0,2022-09-07,2022-09-07,合同会社ウニコ,,合同会社,東京都,港区,三田１丁目６番３号,,13,103,1080073,,,,,,,2022-09-07,1,,,,,ウニコ,0
2436,9010701043131,新規,0,2022-09-07,2022-09-07,株式会社Ｇｅｐｐｉｘ,,株式会社,東京都,品川区,西大井５丁目１０番１８号,,13,109,1400015,,,,,,,2022-09-07,1,,,,,ゲピックス,0
2448,9011001149577,新規,0,2022-09-07,2022-09-07,株式会社國光ＤＡＯ,,株式会社,東京都,渋谷区,鶯谷町１３番１号,,13,113,1500032,,,,,,,2022-09-07,1,,,,,クニミツダオ,0
2449,9011001149593,新規,0,2022-09-07,2022-09-07,株式会社ＴＡＰＰＥＩ　Ｇｒｏｕｐ,,株式会社,東京都,目黒区,上目黒１丁目１７番６号２０１,,13,110,1530051,,,,,,,2022-09-07,1,,,,,タッペイグループ,0
2450,9011001149635,新規,0,2022-09-07,2022-09-07,株式会社Ｔｈａｔ,,株式会社,東京都,渋谷区,渋谷２丁目１０番１５号,,13,113,1500002,,,,,,,2022-09-07,1,,,,,ザット,0
2455,9011101100068,新規,0,2022-09-07,2022-09-07,株式会社エーリバー,,株式会社,東京都,新宿区,払方町１番地５０２号室,,13,104,1620841,,,,,,,2022-09-07,1,,,,,エーリバー,0
2456,9011101100092,新規,0,2022-09-07,2022-09-07,株式会社ＦＬＯＷ,,株式会社,東京都,新宿区,新宿７丁目２番１号学友社ビル２階Ａ号室,,13,104,1600022,,,,,,,2022-09-07,1,,,,,フロウ,0
2457,9011101100101,新規,0,2022-09-07,2022-09-07,株式会社ＷｅＣａｎＤｏＩｔ,,株式会社,東京都,新宿区,西新宿３丁目３番１３号西新宿水間ビル６階,,13,104,1600023,,,,,,,2022-09-07,1,,,,,ウィキャンドゥイット,0
2458,9011103012138,新規,0,2022-09-07,2022-09-07,ケイコネクト合同会社,,合同会社,東京都,新宿区,西新宿３丁目３番１３号西新宿水間ビル６階,,13,104,1600023,,,,,,,2022-09-07,1,,,,,ケイコネクト,0
2460,9011203003904,新規,0,2022-09-07,2022-09-07,合同会社達磨,,合同会社,東京都,中野区,江古田４丁目３４－５シルクマンション３０２,,13,114,1650022,,,,,,,2022-09-07,1,,,,,ダルマ,0
2468,9011603003693,新規,0,2022-09-07,2022-09-07,セイク合同会社,,合同会社,東京都,練馬区,小竹町１丁目７８番地３号メゾンマサトＡ号室,,13,120,1760004,,,,,,,2022-09-07,1,,,,,セイク,0
2471,9011703003247,新規,0,2022-09-07,2022-09-07,合同会社ホークアイ,,合同会社,東京都,江戸川区,西葛西２丁目２０－１０－１１０２,,13,123,1340088,,,,,,,2022-09-07,1,,,,,ホークアイ,0
2472,9011705001744,新規,0,2022-09-07,2022-09-07,医療法人社団明松会,,その他の設立登記法人,東京都,江戸川区,平井４丁目１０番７号,,13,123,1320035,,,,,,,2022-09-07,1,,,,,メイショウカイ,0
2477,9012401039599,新規,0,2022-09-07,2022-09-07,株式会社エルビーオネスト,,株式会社,東京都,府中市,武蔵台３丁目１６番地の１,,13,206,1830042,,,,,,,2022-09-07,1,,,,,エルビーオネスト,0
2478,9012401039616,新規,0,2022-09-07,2022-09-07,はぐくむ株式会社,,株式会社,東京都,調布市,上石原２丁目２５番地４２,,13,208,1820035,,,,,,,2022-09-07,1,,,,,ハグクム,0
2480,9012403005566,新規,0,2022-09-07,2022-09-07,合同会社あいの手,,合同会社,東京都,府中市,若松町４丁目３４番地の４０リオファーム１０２,,13,206,1830005,,,,,,,2022-09-07,1,,,,,アイノテ,0
2481,9012405004780,新規,0,2022-09-07,2022-09-07,医療法人社団三柚会,,その他の設立登記法人,東京都,調布市,小島町１丁目２１番地６－５階,,13,208,1820026,,,,,,,2022-09-07,1,,,,,サンユカイ,0
2483,9012803002873,新規,0,2022-09-07,2022-09-07,合同会社ＲＪＰ　ｗｏｒｌｄ,,合同会社,東京都,立川市,曙町２丁目２３番１号,00127763,13,202,1900012,,,,,,,2022-09-07,1,,,,,アールジェイピーワールド,0
2493,9020001148126,新規,0,2022-09-07,2022-09-07,新東洋ゲートインターナショナル株式会社,,株式会社,神奈川県,横浜市中区,千歳町１番地２横浜ＴＨビル５０９号室,,14,104,2310035,,,,,,,2022-09-07,1,,,,,シントウヨウゲートインターナショナル,0
2494,9020001148150,新規,0,2022-09-07,2022-09-07,Ｋ．Ｙプライマリー株式会社,,株式会社,神奈川県,横浜市中区,尾上町４丁目５７横浜尾上町ビルディング８Ｆ,,14,104,2310015,,,,,,,2022-09-07,1,,,,,ケイワイプライマリー,0
2498,9020003022353,新規,0,2022-09-07,2022-09-07,天馬合同会社,,合同会社,神奈川県,横浜市中区,本郷町３丁目２６４－１,,14,104,2310843,,,,,,,2022-09-07,1,,,,,テンマ,0
2499,9020005015652,新規,0,2022-09-07,2022-09-07,一般社団法人ｔｗｉｎｋｌｅ‐ｍｏｍ,,その他の設立登記法人,神奈川県,横浜市中区,山下町９８番地ＧＳハイム山下町２０２,,14,104,2310023,,,,,,,2022-09-07,1,,,,,トゥインクルマム,0
2506,9021001076894,新規,0,2022-09-07,2022-09-07,株式会社ｓｔｕｄｉｏＴＡＳＵ,,株式会社,神奈川県,藤沢市,辻堂６丁目２－３９,,14,205,2510047,,,,,,,2022-09-07,1,,,,,スタジオタス,0
2507,9021001076903,新規,0,2022-09-07,2022-09-07,株式会社森住工務店,,株式会社,神奈川県,足柄上郡中井町,井ノ口１８１７番地９,,14,361,2590151,,,,,,,2022-09-07,1,,,,,モリズミコウムテン,0
2512,9021003012071,新規,0,2022-09-07,2022-09-07,もちづき農園合同会社,,合同会社,神奈川県,綾瀬市,吉岡２３２２番地,,14,218,2521124,,,,,,,2022-09-07,1,,,,,モチヅキノウエン,0
2513,9021003012121,新規,0,2022-09-07,2022-09-07,合同会社ビスタ,,合同会社,神奈川県,相模原市中央区,相生２丁目１２番３号,,14,152,2520235,,,,,,,2022-09-07,1,,,,,ビスタ,0
2517,9030001149940,新規,0,2022-09-07,2022-09-07,株式会社滑川リサイクルセンター,,株式会社,埼玉県,比企郡滑川町,大字羽尾２２６７番地３,,11,341,3550811,,,,,,,2022-09-07,1,,,,,ナメガワリサイクルセンター,0
2518,9030001150023,新規,0,2022-09-07,2022-09-07,株式会社ＪＥＳＴＥＲ,,株式会社,埼玉県,草加市,青柳３丁目１４－１５,,11,221,3400002,,,,,,,2022-09-07,1,,,,,ジェスター,0
2519,9030001150048,新規,0,2022-09-07,2022-09-07,株式会社ＡＬＰ,,株式会社,埼玉県,さいたま市緑区,東浦和７丁目２２番地３,,11,109,3360926,,,,,,,2022-09-07,1,,,,,アルプ,0
2530,9040001124918,新規,0,2022-09-07,2022-09-07,株式会社高木,,株式会社,千葉県,市川市,新井３丁目２１番９号,,12,203,2720144,,,,,,,2022-09-07,1,,,,,タカギ,0
2531,9040001124926,新規,0,2022-09-07,2022-09-07,株式会社ＲＪＣ,,株式会社,千葉県,浦安市,高洲４丁目３番１－１９２２号プラウド新浦安,,12,227,2790023,,,,,,,2022-09-07,1,,,,,アールジェイシー,0
2532,9040001124934,新規,0,2022-09-07,2022-09-07,株式会社ＭＹ　Ｐｒｅｃｉｏｕｓ,,株式会社,千葉県,船橋市,藤原２丁目８番７号,,12,204,2730047,,,,,,,2022-09-07,1,,,,,マイプレシャス,0
2533,9040001124967,新規,0,2022-09-07,2022-09-07,株式会社幸洋,,株式会社,千葉県,船橋市,本町７丁目１３番１１号,,12,204,2730005,,,,,,,2022-09-07,1,,,,,コウヨウ,0
2534,9040001124975,新規,0,2022-09-07,2022-09-07,株式会社ドリーマーズ,,株式会社,千葉県,千葉市花見川区,長作町７８１番地３４,,12,102,2620044,,,,,,,2022-09-07,1,,,,,ドリーマーズ,0
2535,9040001125016,新規,0,2022-09-07,2022-09-07,株式会社神山美装,,株式会社,千葉県,四街道市,大日１９９３番地,,12,228,2840001,,,,,,,2022-09-07,1,,,,,カミヤマビソウ,0
2537,9040003020751,新規,0,2022-09-07,2022-09-07,ＳＨＯＴＥＣＨ合同会社,,合同会社,千葉県,柏市,若柴１番地８２,,12,217,2770871,,,,,,,2022-09-07,1,,,,,ショウテック,0
2538,9040003020768,新規,0,2022-09-07,2022-09-07,合同会社Ｙ’Ｊ,,合同会社,千葉県,船橋市,本町６丁目３番１０－３０１号,,12,204,2730005,,,,,,,2022-09-07,1,,,,,ワイジェイ,0
2539,9040003020792,新規,0,2022-09-07,2022-09-07,トッパジャパン合同会社,,合同会社,千葉県,市原市,君塚１丁目２８番４,,12,219,2900051,,,,,,,2022-09-07,1,,,,,トッパジャパン,0
2540,9050001051649,新規,0,2022-09-07,2022-09-07,株式会社トライエース,,株式会社,茨城県,稲敷市,柴崎８４３７番地,,08,229,3001412,,,,,,,2022-09-07,1,,,,,トライエース,0
2541,9050001051657,新規,0,2022-09-07,2022-09-07,ＢＯＲＤＥＲＬＥＳＳ　ＦＡＲＭ株式会社,,株式会社,茨城県,稲敷郡美浦村,大字木原５６６番地１,,08,442,3000421,,,,,,,2022-09-07,1,,,,,ボーダレスファーム,0
2545,9050003006790,新規,0,2022-09-07,2022-09-07,ＡＹＡ　ＡＹＡ　ＴＲＡＤＩＮＧ合同会社,,合同会社,茨城県,かすみがうら市,下稲吉７７８番地１,,08,230,3150052,,,,,,,2022-09-07,1,,,,,アヤアヤトレーディング,0
2546,9050003006824,新規,0,2022-09-07,2022-09-07,合同会社Ｈ＆Ｙ,,合同会社,茨城県,取手市,野々井２３番地３,,08,217,3020032,,,,,,,2022-09-07,1,,,,,エイチアンドワイ,0
2548,9060001035238,新規,0,2022-09-07,2022-09-07,金田実業株式会社,,株式会社,栃木県,宇都宮市,鶴田町１５５９番地２,,09,201,3200851,,,,,,,2022-09-07,1,,,,,カネダジツギョウ,0
2566,9100001035679,新規,0,2022-09-07,2022-09-07,シュライフ株式会社,,株式会社,長野県,松本市,野溝西１丁目６番２９号,,20,202,3990006,,,,,,,2022-09-07,1,,,,,シュライフ,0
2567,9100001035687,新規,0,2022-09-07,2022-09-07,株式会社こばやし塗装,,株式会社,長野県,長野市,上野１丁目１５５８番地１,,20,201,3810085,,,,,,,2022-09-07,1,,,,,コバヤシトソウ,0
2578,9120001248601,新規,0,2022-09-07,2022-09-07,高橋アセット株式会社,00127774,株式会社,大阪府,大阪市中央区,南本町４丁目３番１６号,,27,128,5410054,,,,,,,2022-09-07,1,,,,,タカハシアセット,0
2579,9120001248683,新規,0,2022-09-07,2022-09-07,株式会社ＨＡ　ＬＯＮＧ,,株式会社,大阪府,大阪市西区,北堀江１丁目１４番２２号,,27,106,5500014,,,,,,,2022-09-07,1,,,,,ハロン,0
2580,9120001248700,新規,0,2022-09-07,2022-09-07,株式会社ＮＫ・Ｌｉｎｋ,,株式会社,大阪府,大阪市大正区,千島２丁目４番３－５４８号,,27,108,5510003,,,,,,,2022-09-07,1,,,,,エヌケーリンク,0
2586,9120101066192,新規,0,2022-09-07,2022-09-07,伊勢ＴＲＵＳＴパートナーズ株式会社,,株式会社,大阪府,堺市中区,土塔町２３００番地２６,,27,142,5998234,,,,,,,2022-09-07,1,,,,,イセトラストパートナーズ,0
2587,9120101066201,新規,0,2022-09-07,2022-09-07,株式会社ＡＤバリュ,,株式会社,大阪府,貝塚市,津田北町１０番１０号,,27,208,5970013,,,,,,,2022-09-07,1,,,,,エーディバリュ,0
2594,9130005016565,新規,0,2022-09-07,2022-09-07,一般社団法人自己生涯健康管理研究所,,その他の設立登記法人,京都府,京田辺市,薪長尾谷５３番地２,,26,211,6100341,,,,,,,2022-09-07,1,,,,,ジコショウガイケンコウカンリケンキュウショ,0
2599,9140001127290,新規,0,2022-09-07,2022-09-07,ハンスケール株式会社,,株式会社,兵庫県,神戸市西区,伊川谷町有瀬１４１番地５－１－６３５号,,28,111,6512113,,,,,,,2022-09-07,1,,,,,ハンスケール,0
2600,9140001127299,新規,0,2022-09-07,2022-09-07,株式会社エクステンド,,株式会社,兵庫県,芦屋市,朝日ケ丘町１番２２－２０３号,,28,206,6590012,,,,,,,2022-09-07,1,,,,,エクステンド,0
2608,9160003002663,新規,0,2022-09-07,2022-09-07,合同会社ＴＡＫＥ,,合同会社,滋賀県,守山市,浮気町３００－１５グランドメゾン守山１１５,,25,207,5240033,,,,,,,2022-09-07,1,,,,,テイク,0
2615,9180001152905,新規,0,2022-09-07,2022-09-07,株式会社ＡＲＩＮＣＯ,,株式会社,愛知県,知多郡武豊町,字砂川２丁目４７番地８,,23,447,4702317,,,,,,,2022-09-07,1,,,,,アリンコ,0
2616,9180001152921,新規,0,2022-09-07,2022-09-07,株式会社イーテクノ伊東,,株式会社,愛知県,名古屋市中区,千代田２丁目１７番３号,,23,106,4600012,,,,,,,2022-09-07,1,,,,,イーテクノイトウ,0
2617,9180001152946,新規,0,2022-09-07,2022-09-07,株式会社ＰＲＯＴＥＡＮ　ＨＩＲＯ,,株式会社,愛知県,名古屋市守山区,大字下志段味字東新外５９１番地,,23,113,4630003,,,,,,,2022-09-07,1,,,,,プロティアンヒロ,0
2618,9180005019919,新規,0,2022-09-07,2022-09-07,医療法人桜山会,,その他の設立登記法人,愛知県,名古屋市緑区,太子２丁目１８８番地,,23,114,4580823,,,,,,,2022-09-07,1,,,,,オウザンカイ,0
2627,9200001040413,新規,0,2022-09-07,2022-09-07,株式会社田中塗装,,株式会社,岐阜県,岐阜市,中西郷２丁目２１８番地３,,21,201,5011177,,,,,,,2022-09-07,1,,,,,タナカトソウ,0
2637,9240001060358,新規,0,2022-09-07,2022-09-07,株式会社ＹＳ都市開発,,株式会社,広島県,呉市,焼山西２丁目１１番１６号,,34,202,7370903,,,,,,,2022-09-07,1,,,,,ワイエストシカイハツ,0
2644,9260001037206,新規,0,2022-09-07,2022-09-07,株式会社ブルーハウス,,株式会社,岡山県,都窪郡早島町,早島１９８７番地（２Ｆ）,,33,423,7010304,,,,,,,2022-09-07,1,,,,,ブルーハウス,0
2645,9260001037230,新規,0,2022-09-07,2022-09-07,株式会社樹工舎,,株式会社,岡山県,高梁市,川面町１７８３番地２,,33,209,7192121,,,,,,,2022-09-07,1,,,,,ジュコウシャ,0
2649,9290001098848,新規,0,2022-09-07,2022-09-07,株式会社Ｇｒａｃｅ,,株式会社,福岡県,福岡市早良区,室見４丁目２４番２１号,,40,137,8140015,,,,,,,2022-09-07,1,,,,,グレイス,0
2650,9290001098864,新規,0,2022-09-07,2022-09-07,株式会社佑翔,,株式会社,福岡県,糟屋郡志免町,南里６丁目６番２１－３０５号,,40,343,8112207,,,,,,,2022-09-07,1,,,,,ユウショウ,0
2654,9290003012922,新規,0,2022-09-07,2022-09-07,合同会社ＵＦＢ福岡,,合同会社,福岡県,福岡市城南区,長尾３丁目２４番２１号,,40,136,8140123,,,,,,,2022-09-07,1,,,,,ユーエフビーフクオカ,0
2655,9290801028871,新規,0,2022-09-07,2022-09-07,株式会社永建,,株式会社,福岡県,遠賀郡芦屋町,西浜町８番２号,,40,381,8070102,,,,,,,2022-09-07,1,,,,,エエケン,0
2657,9320001019305,新規,0,2022-09-07,2022-09-07,株式会社燕,,株式会社,大分県,大分市,中春日町１２番３５号,,44,201,8700039,,,,,,,2022-09-07,1,,,,,ツバメ,0
2664,9340001025020,新規,0,2022-09-07,2022-09-07,株式会社美麗社,,株式会社,鹿児島県,鹿屋市,田崎町２２９０番地７,,46,203,8930037,,,,,,,2022-09-07,1,,,,,ミレイシャ,0
2668,9340005009498,新規,0,2022-09-07,2022-09-07,医療法人つくし歯科医院,,その他の設立登記法人,鹿児島県,姶良市,東餅田２４６９番地２,,46,225,8995421,,,,,,,2022-09-07,1,,,,,ツクシシカイイン,0
2670,9360001030935,新規,0,2022-09-07,2022-09-07,スプライス株式会社,,株式会社,沖縄県,沖縄市,高原７丁目１５番４０号,,47,211,9042171,,,,,,,2022-09-07,1,,,,,スプライス,0
2671,9360001030943,新規,0,2022-09-07,2022-09-07,株式会社徳元企画,,株式会社,沖縄県,中頭郡中城村,字南上原６４９番地１－１０１街区８－４画地,,47,328,9012424,,,,,,,2022-09-07,1,,,,,トクモトキカク,0
2673,9360003012279,新規,0,2022-09-07,2022-09-07,合同会社おむすび,,合同会社,沖縄県,島尻郡八重瀬町,字港川１１７番地,,47,362,9010511,,,,,,,2022-09-07,1,,,,,オムスビ,0
2674,9360003012287,新規,0,2022-09-07,2022-09-07,合同会社Ｗｉｎｇ　Ｐｉｔ,,合同会社,沖縄県,うるま市,石川東恩納１１３２番地,,47,213,9041111,,,,,,,2022-09-07,1,,,,,ウィングピット,0
2687,9420003002570,新規,0,2022-09-07,2022-09-07,合同会社園田商事,,合同会社,青森県,八戸市,大字大久保字大山３番地２６６,,02,203,0310833,,,,,,,2022-09-07,1,,,,,ソノダショウジ,0
2693,9430005014547,新規,0,2022-09-07,2022-09-07,司法書士法人いしづか事務所,,その他の設立登記法人,北海道,札幌市北区,北二十一条西６丁目１番３６号グラッサ２１６,,01,102,0010021,,,,,,,2022-09-07,1,,,,,イシヅカジムショ,0
2700,9500001024451,新規,0,2022-09-07,2022-09-07,株式会社Ｒ．ｓｔｙｌｅ,,株式会社,愛媛県,松山市,土居田町５６番地１ハナミズキビル２０２,,38,201,7900056,,,,,,,2022-09-07,1,,,,,アールスタイル,0
