sequenceNumber,corporateNumber,process,correct,updateDate,changeDate,name,nameImageId,kind,prefectureName,cityName,streetNumber,addressImageId,prefectureCode,cityCode,postCode,addressOutside,addressOutsideImageId,closeDate,closeCause,successorCorporateNumber,changeCause,assignmentDate,latest,enName,enPrefectureName,enCityName,enAddressOutside,furigana,hihyoji
17,1010001235865,新規,0,2023-07-03,2023-07-03,株式会社ナナ,,株式会社,東京都,中央区,日本橋小舟町４番５号ＳＫ小舟町ビル７階,,13,102,1030024,,,,,,,2023-07-03,1,,,,,ナナ,0
18,1010001236541,新規,0,2023-07-03,2023-07-03,株式会社ＶＥＴ・ＢＯＴ,,株式会社,東京都,千代田区,二番町９－３ＴＨＥＢＡＳＥ麹町１Ｆ,,13,101,1020084,,,,,,,2023-07-03,1,,,,,ベットボット,0
35,1010605004212,新規,0,2023-07-03,2023-07-03,一般社団法人イーストエンド,,その他の設立登記法人,東京都,江東区,木場６丁目３番１号ルート木場２階,,13,108,1350042,,,,,,,2023-07-03,1,,,,,イーストエンド,0
41,1010803004591,新規,0,2023-07-03,2023-07-03,合同会社ＦＯ　Ｃａｐｉｔａｌ　ｐａｒｔｎｅｒｓ,,合同会社,東京都,大田区,上池台１丁目２０番２３－２０１号,,13,111,1450064,,,,,,,2023-07-03,1,,,,,エフオーキャピタルパートナーズ,0
47,1011001155392,新規,0,2023-07-03,2023-07-03,株式会社Ｔｗｅｌｖｅ,,株式会社,東京都,渋谷区,富ヶ谷２丁目４１－７,,13,113,1510063,,,,,,,2023-07-03,1,,,,,トゥエルブ,0
54,1011101103433,新規,0,2023-07-03,2023-07-03,株式会社タレントナビゲーター,,株式会社,東京都,新宿区,西新宿６丁目８番１号住友不動産新宿オークタワー２１階,,13,104,1600023,,,,,,,2023-07-03,1,,,,,タレントナビゲーター,0
55,1011103013218,新規,0,2023-07-03,2023-07-03,合同会社Ｎｔｉｍ,,合同会社,東京都,新宿区,喜久井町１０番,,13,104,1620044,,,,,,,2023-07-03,1,,,,,エヌティム,0
56,1011203004117,新規,0,2023-07-03,2023-07-03,合同会社Ｙ２ＦＡＣＴＯＲＹ,,合同会社,東京都,中野区,中野４丁目１０－２中野ＣＰ２階,,13,114,1640001,,,,,,,2023-07-03,1,,,,,ワイツーファクトリー,0
58,1011601026935,新規,0,2023-07-03,2023-07-03,雷原株式会社,,株式会社,東京都,練馬区,豊玉上２丁目２１番１５号,,13,120,1760011,,,,,,,2023-07-03,1,,,,,ライハラ,0
59,1011701026389,新規,0,2023-07-03,2023-07-03,株式会社ＤＩＯ,,株式会社,東京都,江戸川区,南小岩５丁目７－１５,,13,123,1330056,,,,,,,2023-07-03,1,,,,,ディオ,0
79,1020001152291,新規,0,2023-07-03,2023-07-03,株式会社ｆｒａｎｋ,,株式会社,神奈川県,川崎市麻生区,栗平２丁目２番９－７０１号,,14,137,2150031,,,,,,,2023-07-03,1,,,,,フランク,0
85,1030001154683,新規,0,2023-07-03,2023-07-03,株式会社ＯＫＢ,,株式会社,埼玉県,新座市,菅沢１丁目３番６号,,11,230,3520017,,,,,,,2023-07-03,1,,,,,オーケイビー,0
86,1030001154691,新規,0,2023-07-03,2023-07-03,株式会社Ｂ‐Ｍａｒｋｅｔ,,株式会社,埼玉県,さいたま市浦和区,領家７丁目１－１－５０９,,11,107,3300072,,,,,,,2023-07-03,1,,,,,ビーマーケット,0
87,1030001154709,新規,0,2023-07-03,2023-07-03,衆誠自動車株式会社,,株式会社,埼玉県,さいたま市岩槻区,大字表慈恩寺６１３番地２,,11,110,3390008,,,,,,,2023-07-03,1,,,,,シュウセイジドウシャ,0
94,1030003022062,新規,0,2023-07-03,2023-07-03,ＫＪＳ合同会社,,合同会社,埼玉県,川口市,芝中田１丁目６番１２号１Ｆ,,11,203,3330847,,,,,,,2023-07-03,1,,,,,ケイジェイエス,0
102,1040003022887,新規,0,2023-07-03,2023-07-03,合同会社ＣＬＡＳＳ,,合同会社,千葉県,流山市,おおたかの森南２丁目１８番地の２２,,12,220,2700139,,,,,,,2023-07-03,1,,,,,クラス,0
106,1050001053058,新規,0,2023-07-03,2023-07-03,株式会社ＴＣ関東,,株式会社,茨城県,日立市,かみあい町１丁目１番１号,,08,202,3191417,,,,,,,2023-07-03,1,,,,,ティーシーカントウ,0
113,1070001040582,新規,0,2023-07-03,2023-07-03,株式会社イチガイ商事,,株式会社,群馬県,前橋市,富士見町時沢３０７８番地１０,,10,201,3710104,,,,,,,2023-07-03,1,,,,,イチガイショウジ,0
117,1080101024096,新規,0,2023-07-03,2023-07-03,株式会社サーラーエンタープライズ,,株式会社,静岡県,富士市,富士岡２１５２番地の５８,,22,210,4170841,,,,,,,2023-07-03,1,,,,,サーラーエンタープライズ,0
124,1100005013036,新規,0,2023-07-03,2023-07-03,特定非営利活動法人中信たすけ愛ネット,,その他の設立登記法人,長野県,松本市,巾上９番２６号松本協立病院内,,20,202,3900817,,,,,,,2023-07-03,1,,,,,タスケアイネット,0
134,1120001256132,新規,0,2023-07-03,2023-07-03,株式会社けあＭＡＸ,,株式会社,大阪府,大阪市東淀川区,菅原２丁目９番２８号１Ａ,,27,114,5330022,,,,,,,2023-07-03,1,,,,,ケアマックス,0
141,1120101067792,新規,0,2023-07-03,2023-07-03,株式会社慶ｏｎｅ,,株式会社,大阪府,泉佐野市,日根野２６１１番地の１,,27,213,5980021,,,,,,,2023-07-03,1,,,,,ケイワン,0
142,1120101067801,新規,0,2023-07-03,2023-07-03,株式会社倖永工業,,株式会社,大阪府,堺市堺区,石津町３丁７番１９号－１,,27,141,5900814,,,,,,,2023-07-03,1,,,,,コウエイコウギョウ,0
149,1130001074608,新規,0,2023-07-03,2023-07-03,株式会社ゼロ,,株式会社,京都府,京都市伏見区,深草西浦町６番地３４,,26,109,,,,,,,,2023-07-03,1,,,,,ゼロ,0
152,1140001130698,新規,0,2023-07-03,2023-07-03,株式会社プライモーディアル,,株式会社,兵庫県,芦屋市,呉川町６番２０号,,28,206,6590051,,,,,,,2023-07-03,1,,,,,プライモーディアル,0
153,1140001130707,新規,0,2023-07-03,2023-07-03,株式会社ＷＡＣＣＡ,,株式会社,兵庫県,西宮市,鷲林寺町７番６号,,28,204,6620003,,,,,,,2023-07-03,1,,,,,ワッカ,0
154,1140001130715,新規,0,2023-07-03,2023-07-03,Ｔ．２商会株式会社,,株式会社,兵庫県,明石市,魚住町住吉１丁目８番９－１号,,28,203,6740083,,,,,,,2023-07-03,1,,,,,,0
156,1140003019246,新規,0,2023-07-03,2023-07-03,合同会社寺子屋ホロ,,合同会社,兵庫県,姫路市,三左衛門堀西の町２０８ハイツ和光５０５,,28,201,6700940,,,,,,,2023-07-03,1,,,,,テラコヤホロ,0
158,1160005011208,新規,0,2023-07-03,2023-07-03,一般社団法人ココヒト,,その他の設立登記法人,滋賀県,高島市,今津町今津３番地１０,,25,212,5201621,,,,,,,2023-07-03,1,,,,,ココヒト,0
177,1180003025406,新規,0,2023-07-03,2023-07-03,合同会社ＡＲＣ１１０,,合同会社,愛知県,名古屋市中川区,東春田３丁目１１０番地,,23,110,4540983,,,,,,,2023-07-03,1,,,,,アークイトウ,0
178,1180003025422,新規,0,2023-07-03,2023-07-03,合同会社ＰＯＷＥＲ,,合同会社,愛知県,名古屋市中区,栄１丁目１３番４号,,23,106,4600008,,,,,,,2023-07-03,1,,,,,パワー,0
179,1180005020280,新規,0,2023-07-03,2023-07-03,医療法人名甲会,,その他の設立登記法人,愛知県,名古屋市東区,芳野１丁目１番地１５,,23,102,4610027,,,,,,,2023-07-03,1,,,,,メイコウカイ,0
180,1180301037516,新規,0,2023-07-03,2023-07-03,株式会社エスケイ,,株式会社,愛知県,岡崎市,福岡町字辻１０番地フォレストパレス五番館１０３,00131032,23,202,4440825,,,,,,,2023-07-03,1,,,,,エスケイ,0
181,1180305009486,新規,0,2023-07-03,2023-07-03,特定非営利活動法人ＩＣＴサポート研究会,,その他の設立登記法人,愛知県,岡崎市,羽根北町４丁目２番地１６,,23,202,4440831,,,,,,,2023-07-03,1,,,,,アイシーティーサポートケンキュウカイ,0
183,1220001025477,新規,0,2023-07-03,2023-07-03,株式会社大正産業,,株式会社,石川県,羽咋郡志賀町,福野へ１９番地,,17,384,9250142,,,,,,,2023-07-03,1,,,,,タイショウサンギョウ,0
197,1290801029654,新規,0,2023-07-03,2023-07-03,星のＨＯＭＥ’Ｓ株式会社,,株式会社,福岡県,北九州市八幡西区,本城東３丁目４番４６号,,40,109,8070815,,,,,,,2023-07-03,1,,,,,ホシノホームズ,0
201,1320001019857,新規,0,2023-07-03,2023-07-03,株式会社独艸園,,株式会社,大分県,別府市,大字内竈７１２番地の８,,44,202,8740011,,,,,,,2023-07-03,1,,,,,ドクソウエン,0
202,1330001031002,新規,0,2023-07-03,2023-07-03,株式会社吉田林業建設,,株式会社,熊本県,阿蘇郡南阿蘇村,大字河陰３９５７－８,,43,433,8691411,,,,,,,2023-07-03,1,,,,,ヨシダリンギョウケンセツ,0
210,1370005010650,新規,0,2023-07-03,2023-07-03,一般社団法人手のひらに太陽の家,,その他の設立登記法人,宮城県,登米市,登米町寺池辺室山１７番地１,,04,212,9870702,,,,,,,2023-07-03,1,,,,,テノヒラニタイヨウノイエ,0
215,1400501000283,新規,0,2023-07-03,2023-07-03,株式会社三星,,株式会社,岩手県,一関市,地主町４番１０号,,03,209,0210893,,,,,,,2023-07-03,1,,,,,ミツボシ,0
218,1460101007401,新規,0,2023-07-03,2023-07-03,株式会社プロシス,,株式会社,北海道,帯広市,西十一条南２８丁目９番地,,01,207,0800021,,,,,,,2023-07-03,1,,,,,プロシス,0
224,1700150115154,新規,0,2023-07-03,2023-07-03,蘇州群邁自動化科技有限公司,,外国会社等,,,,,,,,中国蘇州市呉中区越溪街道北官渡路５０号５幢二楼西Ａ,,,,,,2023-07-03,1,,,,,ソシュウグンマイジドウカカギユウゲンコウシ,0
225,1700150115591,新規,0,2023-07-03,2023-07-03,深セン市の蘇ヤン技術有限公司,,外国会社等,,,,,,,,中国深セン市南山区西麗街道麗新弁公楼４０２号,,,,,,2023-07-03,1,,,,,シンセンシノソヤンギジュツユウゲンコウシ,0
226,1700150115600,新規,0,2023-07-03,2023-07-03,恵州市声瑞科技有限公司,,外国会社等,,,,,,,,中国広東省恵州市恵陽区淡水古屋村地段（厂房Ｂ）,,,,,,2023-07-03,1,,,,,ケイシュウシセイズイカギユウゲンコウシ,0
227,1700150116672,新規,0,2023-07-03,2023-07-03,ｓｈｅｎｚｈｅｎｓｈｉａｋａｚｈｉｋｅｊｉｙｏｕｘｉａｎｇｏｎｇｓｉ,,外国会社等,,,,,,,,２－１１３，Ｌ２１，Ｓｏｕｔｈ　Ｃｈｉｎａ　Ｌｅａｔｈｅｒ　ａｎｄ　Ｌｅａｔｈｅｒ　Ｒａｗ　Ｍａｔｅｒｉａｌｓ　Ｌｏｇｉｓｔｉｃｓ　Ｚｏｎｅ（ＰｈａｓｅＩ），Ｌｏｎｇｇａｎｇ，Ｓｈｅｎｚｈｅｎ，ＧＤ,,,,,,2023-07-03,1,,,,,シンセンシアカシカギユウゲンコウシ,0
228,1700150118058,新規,0,2023-07-03,2023-07-03,ＧｕａｎｇＺｈｏｕＳｈｉＹｕＹｕＤｉａｎＺｉＳｈａｎｇＷｕＹｏｕＸｉａｎＧｏｎｇＳｉ,,外国会社等,,,,,,,,ｇｕａｎｇｚｈｏｕｓｈｉ　ｔｉａｎｈｅｑｕｔａｎｇｘｉｈｅｎｇｌｕ５ｈａｏ５４３－４６ｆａｎｇ,,,,,,2023-07-03,1,,,,,コウシュウシユユウデンシショウムユウゲンコウシ,0
229,1700150118066,新規,0,2023-07-03,2023-07-03,ｓｈｅｎ　ｚｈｅｎ　ｓｈｉ　ｊｉａ　ｘｉｎｇ　ｎｉｎｇ　ｍａｏｙｉ　ｙｏｕ　ｘｉａｎ　ｇｏｎｇ　ｓｉ,,外国会社等,,,,,,,,ｓｈｅｎ　ｚｈｅｎ　ｓｈｉ　ｌｏｎｇ　ｇａｎｇ　ｑｕ　ｌｏｎｇ　ｃｈｅｎｇ　ｊｉｅ　ｄａｏ　ｌｏｎｇ　ｘｉ　ｓｈｅ　ｑｕ　ｗｕ　ｌｉａｎ　ｌｕ　２５－３－１　ｓｈｅｎ　ｚｈｅｎ　ｇｕａｎｇ　ｄｏｎｇ,,,,,,2023-07-03,1,,,,,シンセンシカコウネイボウエキユウゲンコウシ,0
230,1700150118074,新規,0,2023-07-03,2023-07-03,Ｄｏｎｇｇｕａｎｓｈｉ　ｃａｎｇｙｕａｎ　ｓｕｊｉａｏ　ｙｕａｎｌｉａｏ　ｃｏ．，ｌｔｄ,,外国会社等,,,,,,,,ｈｕａｎｇｊｉａｎｇ　ｚｈｅｎ　ｊｉｔｉｇａｎｇ　ｃｕｎ　ｃａｎｂｏｃｈａｎｙｅｙｕａｎ　Ａ　ｄｏｎｇ　ｙｉｌｏｕ　Ｆｑｕ　ｄｏｎｇｇｕａｎ　ｇｕａｎｇｄｏｎｇ，Ｃｈｉｎａ,,,,,,2023-07-03,1,,,,,トンカンシソウエンソコウゲンリョウユウゲンコウシ,0
231,1700150118090,新規,0,2023-07-03,2023-07-03,ｚｈｕｚｈｏｕｓｈｕｌａｎｌｉｎｈｏｎｇｍａｏｙｉｙｏｕｘｉａｎｇｏｎｇｓｉ,,外国会社等,,,,,,,,Ｃｈｉｎａ，ｈｕｎａｎｓｈｅｎｇ　ｔｉａｎｙｕａｎｑｕ　ｌｉａｎｈｕａｌｕ　５５５ｈａｏ　ｊｉｎｘｉｕｈｕａｄｏｕ　５ｄｏｎｇ２８０４,,,,,,2023-07-03,1,,,,,シュシュウシュクランコウボウエキユウゲンコウシ,0
232,1700150118099,新規,0,2023-07-03,2023-07-03,Ｗｕｘｉ　Ｂａｉｙｉｊｉａ　Ｉｎｔｅｒｎａｔｉｏｎａｌ　Ｔｒａｄｅ　Ｃｏ．，Ｌｔｄ,,外国会社等,,,,,,,,Ｘｉｓｈａｎ　Ｅｃоｎｏｍｉｃ　ａｎｄ　Ｔｅｃｈｎｏｌｏｇｉｃａｌ　Ｄｅｖｅｌｏｐｍｅｎｔ　Ｚｏｎｅ　ＴＣ－３０３，Ｎｏ．２９６，Ｃｈａｎｇｔａｉ　Ｗｕｘｉ　Ｊｉａｎｇｓｕ，Ｃｈｉｎａ,,,,,,2023-07-03,1,,,,,ムセキヒャッカコクサイボウエキユウゲンコウシ,0
233,1700150118108,新規,0,2023-07-03,2023-07-03,Ｐｅｋｉｎｇ　ｈｅｎｇｘｉａｎｇ　ｆｕｔｕｒｅ　ｔｅｃｈｎｏｌｏｇｙ　ｌｉｍｉｔｅｄ　ｃｏｍｐａｎｙ,,外国会社等,,,,,,,,１２１０，１２／Ｆ，ＢＵＩＬＤＩＮＧ　１，ＮО．３　ＧＵＡＮＹＩＮ’ＡＮ　ＮＯＲＴＨ　ＳＴＲＥＥＴ，ＴＯＮＧＺＨＯＵ，ＢＥＩＪＩＮＧ,,,,,,2023-07-03,1,,,,,ペキンコウキョウミライカギハッテンユウゲンコウシ,0
234,1700150118116,新規,0,2023-07-03,2023-07-03,Ｈｕｎａｎｈｅｎｇｚｈｉｆｅｎｇ　Ｅ－Ｃｏｍｍｅｒｃｅ　Ｃｏ．，Ｌｔｄ,,外国会社等,,,,,,,,Ｎｏ．４１０，４ｔｈ　Ｆｌｏｏｒ，Ｂｕｉｌｄｉｎｇ　Ｂ３，Ｎｏ．５６８，Ｑｕｅｙｕａｎ　Ｒｏａｄ，Ｔｉａｎｘｉｎ　Ｄｉｓｔｒｉｃｔ　Ｃｈａｎｇｓｈａ　Ｈｕｎａｎ　４１０１１８　ＣＮ,,,,,,2023-07-03,1,,,,,コナンコウシホウデンシショウムユウゲンコウシ,0
235,1700150118124,新規,0,2023-07-03,2023-07-03,Ｑｉｎｇｄａｏ　Ｓｈａｎｇｃｈｅｎ　Ｈｏｍｅ　Ｆｕｒｎｉｓｈｉｎｇ　Ｃｏ．,,外国会社等,,,,,,,,Ｕｎｉｔ　３０２，Ｕｎｉｔ　３，Ｂｕｉｌｄｉｎｇ　５，Ｎｏ．２３６　Ｊｉｎｓｏｎｇ　７　Ｒｏａｄ，Ｌａｏｓｈａｎ　Ｄｉｓｔｒｉｃｔ，Ｑｉｎｇｄａｏ　Ｃｉｔｙ，Ｓｈａｎｄｏｎｇ　Ｐｒｏｖｉｎｃｅ,,,,,,2023-07-03,1,,,,,チンダオシャンチェンジャージーヨンピンヨウシエンゴンスー,0
236,1700150118132,新規,0,2023-07-03,2023-07-03,Ｓｈｅｎｚｈｅｎ　ｓｈｉ　Ｚｈｕｏｙｉｎｇ　Ｓｈｉｊｕｅ　Ｙｏｕｘｉａｎ　Ｇｏｎｇｓｉ,,外国会社等,,,,,,,,ｌｏｎｇ　ｈｕａ　ｘｉｎ　ｑｕ　ｓｈａｎｇ　ｙｏｕ　ｓｏｎｇ　ｃｕｎ　３２　ｄｏｎｇ５０６　Ｓｈｅｎｚｈｅｎ　Ｇｕａｎｇｄｏｎｇ　Ｃｈｉｎａ,,,,,,2023-07-03,1,,,,,シンセンシゾォウインシジュエユウゲンコウシ,0
237,1700150118140,新規,0,2023-07-03,2023-07-03,ＳｈｅｎＺｈｅｎＳｈｉ　ＷａｎｇＪｉＫｅＪｉ　ＹｏｕＸｉａｎＧｏｎｇＳｉ,,外国会社等,,,,,,,,ＦｕＴｉａｎＪｉｅＤａｏ　ＦｕＴｉａｎＳｈｅＱｕＤａＭｅｎＦａｎｇ８５Ｈａｏ２０２　ＳｈｅｎＺｈｅｎＳｈｉ　ＦｕＴｉａｎＱｕ　Ｃｈｉｎａ,,,,,,2023-07-03,1,,,,,シンセンシワンジケジユウゲンコウシ,0
238,1700150118149,新規,0,2023-07-03,2023-07-03,ｓｈｅｎ　ｚｈｅｎ　ｓｈｉ　ｎｕｏ　ｙｏｕ　ｙｕ　ｋｅ　ｊｉ　ｙｏｕ　ｘｉａｎ　ｇｏｎｇ　ｓｉ,,外国会社等,,,,,,,,ｆｕ　ｔｉａｎ　ｑｕ　ｈｕａ　ｑｉａｎｇ　ｂｅｉ　Ｊｉｅ　ｄａｏ　ｚｈｅｎ　ｘｉｎｇ　ｌｕ　１２０ｈａｏ　ｓａｉ　ｇｅ　ｋｅ　ｊｉ　ｙｕａｎ　３ｄｏｎｇ　ｄｏｎｇ　６Ｋ１６　ｓｈｅｎ　ｚｈｅｎ　ｇｕａｎｇ　ｄｏｎｇ　Ｃｈｉｎａ,,,,,,2023-07-03,1,,,,,シンセンシノヨウユケジユウゲンコウシ,0
239,1700150118157,新規,0,2023-07-03,2023-07-03,Ｇｕａｎｇ　Ｚｈｏｕ　Ｊｉｅ　Ｘｉ　Ｒｕｉ　Ｋｅ　Ｊｉ　Ｙｏｕ　Ｘｉａｎ　Ｇｏｎｇ　Ｓｉ,,外国会社等,,,,,,,,Ｇｕａｎｇ　Ｚｈｏｕ　Ｓｈｉ　Ｔｉａｎ　Ｈｅ　Ｑｕ　Ｃｅｎ　Ｃｕｎ　Ｓｈｅｎｇ　Ｔａｎｇ　Ｄａ　Ｊｉｅ　１４　Ｈａｏ　Ｂ　Ｚｕｏ　Ｓａｎ　Ｃｅｎｇ　Ｂ６０６（Ｊｉｎ　Ｘｉａｎ　Ｂａｎ　Ｇｏｎｇ）Ｃｈｉｎａ,,,,,,2023-07-03,1,,,,,グゥアンゾォウジエシルイケジユウゲンコウシ,0
240,1700150118165,新規,0,2023-07-03,2023-07-03,ｓｈａｎｇｈａｉ　ｃｈｅｎｋｕｎｇｏｎｇｙｉｐｉｎ　ｙｏｕｘｉａｎｇｏｎｇｓｉ,,外国会社等,,,,,,,,Ｎｏ．１２６，Ｈｕｎａｎ　Ｈｉｇｈｗａｙ　５４６９　Ｎｏｎｇ　Ｐｕｄｏｎｇ　Ｎｅｗ　Ａｒｅａ　ｈａｎｇｔｏｕ　ｔｏｗｎ　Ｓｈａｎｇｈａｉ　Ｃｈｉｎａ,,,,,,2023-07-03,1,,,,,シャンハイチェンクンゴンイピンユウゲンコウシ,0
241,1700150118173,新規,0,2023-07-03,2023-07-03,ｇｕａｎｇｚｈｏｕ　ｓｈｉｇｕａｎｇｌｉａｎｇｚｉ　ｋｅｊｉ　ｙｏｕｘｉａｎｇｏｎｇｓｉ,,外国会社等,,,,,,,,ｇａｕｎｇｚｈｏｕｓｈｉｔｉａｎｈｅｑｕｙｉｎｇｌｏｎｇｌｕ３ｈａｏ５０２ｓｈｉ　Ｃｈｉｎａ,,,,,,2023-07-03,1,,,,,グアンヂョウシグアンリャンジケジユウゲンコウシ,0
242,1700150118181,新規,0,2023-07-03,2023-07-03,Ｓｈｅｎｚｈｅｎｊｉｎｇｒｕｉｈｕｉｃｈｕａｎｇｋｅｊｉｙｏｕｘｉａｎｇｏｎｇｓｉ,,外国会社等,,,,,,,,ＣＮ，ＧＤ　Ｓｈｅｎｚｈｅｎ　Ｌｏｎｇｇａｎｇ　ｂａｎｔｉａｎｊｉｅｄａｏ　ｗａｎｋｅｃｈｅｎｇ　Ｓｈｅｑｕｊｕｌｉｆｕｒｅｎｄａｄａｏ　ｓｈｅｎｚｈｏｕ　ｄｉａｎｎａｏ　ｄａｓｈａ７Ｆ,,,,,,2023-07-03,1,,,,,シンセンセイエイエソウカギユウゲンコウシ,0
257,2010001236557,新規,0,2023-07-03,2023-07-03,株式会社Ｍｅｔａ　Ｅｎｇｉｎｅ,,株式会社,東京都,千代田区,二番町９－３ＴＨＥＢＡＳＥ麹町Ｗ－３０１号室,,13,101,1020084,,,,,,,2023-07-03,1,,,,,メタエンジン,0
258,2010001236565,新規,0,2023-07-03,2023-07-03,株式会社ＴＡｄ,,株式会社,東京都,千代田区,岩本町２丁目１７番１３号,,13,101,1010032,,,,,,,2023-07-03,1,,,,,タッド,0
268,2010401175446,新規,0,2023-07-03,2023-07-03,株式会社ブルーブリック,,株式会社,東京都,港区,芝大門２丁目９番１９号きねやビル２階,,13,103,1050012,,,,,,,2023-07-03,1,,,,,ブルーブリック,0
273,2010501050680,新規,0,2023-07-03,2023-07-03,株式会社ＧＭ,,株式会社,東京都,台東区,三筋２丁目４番１０号,,13,106,1110055,,,,,,,2023-07-03,1,,,,,ジーエム,0
276,2010605004211,新規,0,2023-07-03,2023-07-03,一般社団法人どんぶり,,その他の設立登記法人,東京都,江東区,豊洲３丁目６番８,,13,108,1350061,,,,,,,2023-07-03,1,,,,,ドンブリ,0
280,2010701044458,新規,0,2023-07-03,2023-07-03,株式会社Ｄａｔａ　Ｎｏｔｅ,,株式会社,東京都,品川区,東品川１丁目３－１５,,13,109,1400002,,,,,,,2023-07-03,1,,,,,データノート,0
281,2010701044482,新規,0,2023-07-03,2023-07-03,株式会社ｂｉｐｅ,,株式会社,東京都,品川区,二葉３丁目２３番６－２０６号,,13,109,1420043,,,,,,,2023-07-03,1,,,,,バイプ,0
298,2011001155391,新規,0,2023-07-03,2023-07-03,エステルオカダファインアーツ株式会社,,株式会社,東京都,渋谷区,代々木５丁目２４番１０号,,13,113,1510053,,,,,,,2023-07-03,1,,,,,エステルオカダファインアーツ,0
299,2011003017094,新規,0,2023-07-03,2023-07-03,Ｈ＆Ｂ渋谷合同会社,,合同会社,東京都,渋谷区,桜丘町９番１８－２０５号,,13,113,1500031,,,,,,,2023-07-03,1,,,,,エイチアンドビーシブヤ,0
305,2011101103408,新規,0,2023-07-03,2023-07-03,株式会社ｍｏｃｈｉｃｏ,,株式会社,東京都,新宿区,新宿５丁目８番地２０コンフォリア新宿３０８,,13,104,1600022,,,,,,,2023-07-03,1,,,,,モチコ,0
306,2011103013209,新規,0,2023-07-03,2023-07-03,合同会社ＬＡＵ,,合同会社,東京都,新宿区,西新宿３丁目３番１３号西新宿水間ビル２Ｆ,,13,104,1600023,,,,,,,2023-07-03,1,,,,,ラウ,0
318,2012401040687,新規,0,2023-07-03,2023-07-03,ファルコン株式会社,,株式会社,東京都,多摩市,関戸５丁目１７番地の１６けえどの長屋１０２,,13,224,2060011,,,,,,,2023-07-03,1,,,,,ファルコン,0
322,2020001152266,新規,0,2023-07-03,2023-07-03,株式会社ぼんてん企画,,株式会社,神奈川県,川崎市高津区,末長１丁目５２番３３－３０９号,,14,134,2130013,,,,,,,2023-07-03,1,,,,,,0
323,2020001152290,新規,0,2023-07-03,2023-07-03,株式会社デジタルクラフト,,株式会社,神奈川県,横浜市西区,みなとみらい４丁目４番２号,,14,103,2200012,,,,,,,2023-07-03,1,,,,,デジタルクラフト,0
325,2020003024133,新規,0,2023-07-03,2023-07-03,雲華合同会社,,合同会社,神奈川県,横浜市南区,万世町１丁目１０番２フォーチュンハイツ２０１,,14,105,2320032,,,,,,,2023-07-03,1,,,,,ウンカ,0
328,2021005012852,新規,0,2023-07-03,2023-07-03,一般社団法人白鯨会,,その他の設立登記法人,神奈川県,鎌倉市,長谷１丁目１１番１５号Ｂ棟,,14,204,2480016,,,,,,,2023-07-03,1,,,,,ハクゲイカイ,0
335,2030001154674,新規,0,2023-07-03,2023-07-03,株式会社ＲＩＳＥ,,株式会社,埼玉県,さいたま市北区,東大成町１丁目６１番地２ベルピア北大宮１－１－１０１,,11,102,3310814,,,,,,,2023-07-03,1,,,,,ライズ,0
336,2030001154682,新規,0,2023-07-03,2023-07-03,株式会社Ｔ・ＴＮＥＸＴ,,株式会社,埼玉県,川口市,南鳩ヶ谷７丁目４０番１２号,,11,203,3340013,,,,,,,2023-07-03,1,,,,,ティーティーネクスト,0
337,2030001154690,新規,0,2023-07-03,2023-07-03,株式会社イナガキ,,株式会社,埼玉県,川口市,幸町１丁目１番２６号,,11,203,3320016,,,,,,,2023-07-03,1,,,,,イナガキ,0
345,2030003022053,新規,0,2023-07-03,2023-07-03,合同会社訪問看護ステーション縁,,合同会社,埼玉県,狭山市,大字南入曽４４５－７,,11,215,3501316,,,,,,,2023-07-03,1,,,,,ホウモンカンゴステーションエニシ,0
349,2040001129023,新規,0,2023-07-03,2023-07-03,株式会社ａｔｔ,,株式会社,千葉県,船橋市,大穴北４丁目１９番３号,,12,204,2740068,,,,,,,2023-07-03,1,,,,,アット,0
361,2050001053057,新規,0,2023-07-03,2023-07-03,株式会社ＦＳＴ,,株式会社,茨城県,古河市,上辺見６４０番地６,,08,204,3060234,,,,,,,2023-07-03,1,,,,,エフエスティー,0
364,2050003007614,新規,0,2023-07-03,2023-07-03,ＡＬＩ　ＡＺＥＥＭ　ＴＲＡＤＩＮＧ合同会社,,合同会社,茨城県,古河市,東山田１８１５番地１９８細渕貸家１棟２階Ｆ号室,,08,204,3060112,,,,,,,2023-07-03,1,,,,,アリアジームトレーディング,0
368,2070001040581,新規,0,2023-07-03,2023-07-03,株式会社ＣＬＯＶＥＲワークス,,株式会社,群馬県,前橋市,千代田町２丁目２番１１,,10,201,3710022,,,,,,,2023-07-03,1,,,,,,0
375,2090001018196,新規,0,2023-07-03,2023-07-03,株式会社ＳＱＵＩＤ,,株式会社,山梨県,甲府市,高畑１丁目３番９号,,19,201,4000042,,,,,,,2023-07-03,1,,,,,スクイード,0
380,2100003007088,新規,0,2023-07-03,2023-07-03,ｓｏｗａｒａ合同会社,,合同会社,長野県,駒ヶ根市,赤穂７１６６番地,,20,210,3994117,,,,,,,2023-07-03,1,,,,,ソワラ,0
402,2120003024379,新規,0,2023-07-03,2023-07-03,東森貿易合同会社,,合同会社,大阪府,大阪市西成区,花園北１丁目７番４－３０４号,,27,122,5570016,,,,,,,2023-07-03,1,,,,,ヒガシモリボウエキ,0
403,2120003024404,新規,0,2023-07-03,2023-07-03,Ｇｅｎｅｒａｔｅ合同会社,,合同会社,大阪府,大阪市北区,角田町８－４７阪急グランドビル２０Ｆ,,27,127,5300017,,,,,,,2023-07-03,1,,,,,ジェネレート,0
407,2120101067800,新規,0,2023-07-03,2023-07-03,株式会社ＳＯＵＩＫＩ,,株式会社,大阪府,富田林市,富美ケ丘町１３－１８,,27,214,5840094,,,,,,,2023-07-03,1,,,,,ソウイキ,0
408,2120101067809,新規,0,2023-07-03,2023-07-03,エルプラス株式会社,,株式会社,大阪府,堺市南区,野々井２６０番地１,,27,145,5900155,,,,,,,2023-07-03,1,,,,,エルプラス,0
412,2130001074623,新規,0,2023-07-03,2023-07-03,株式会社ＭＵホールディングス,,株式会社,京都府,京都市南区,東九条柳下町７番地,,26,107,6018025,,,,,,,2023-07-03,1,,,,,エムユーホールディングス,0
415,2140001130697,新規,0,2023-07-03,2023-07-03,株式会社まるく,,株式会社,兵庫県,神戸市垂水区,桃山台６丁目１５番地の１４,,28,108,6550854,,,,,,,2023-07-03,1,,,,,マルク,0
416,2140001130714,新規,0,2023-07-03,2023-07-03,株式会社増本軌道,,株式会社,兵庫県,神戸市北区,東大池２丁目１０番１８－２０２号,,28,109,6511333,,,,,,,2023-07-03,1,,,,,マスモトキドウ,0
429,2180301037515,新規,0,2023-07-03,2023-07-03,株式会社タロットカレー屋チヒロ,,株式会社,愛知県,碧南市,笹山町７丁目４５番地,,23,209,4470053,,,,,,,2023-07-03,1,,,,,タロットカレーヤチヒロ,0
430,2180305009485,新規,0,2023-07-03,2023-07-03,医療法人快晴会,,その他の設立登記法人,愛知県,岡崎市,青木町２１番８号,,23,202,4442131,,,,,,,2023-07-03,1,,,,,カイセイカイ,0
432,2200001041450,新規,0,2023-07-03,2023-07-03,株式会社ｎｉｚｏ,,株式会社,岐阜県,高山市,丹生川町折敷地１２２０番地,,21,203,5062103,,,,,,,2023-07-03,1,,,,,ニゾウ,0
450,2260003004350,新規,0,2023-07-03,2023-07-03,合同会社やまのたみ,,合同会社,岡山県,岡山市北区,神田町１丁目８－１５グリーンハイツ４１０,,33,101,7000935,,,,,,,2023-07-03,1,,,,,ヤマノタミ,0
452,2290001102095,新規,0,2023-07-03,2023-07-03,株式会社スタジオＮ,,株式会社,福岡県,福岡市東区,東浜１丁目１３番７－８０６号オリエントビルＮｏ．９３マリナゲート,,40,131,8120055,,,,,,,2023-07-03,1,,,,,スタジオエヌ,0
453,2290003014090,新規,0,2023-07-03,2023-07-03,合同会社トライアルサポート,,合同会社,福岡県,福岡市西区,大字飯氏９８５番地４,,40,135,8190371,,,,,,,2023-07-03,1,,,,,トライアルサポート,0
474,2410001013528,新規,0,2023-07-03,2023-07-03,株式会社ＬＩＦＸＩＳ,,株式会社,秋田県,秋田市,寺内後城１７番１号,,05,201,0110906,,,,,,,2023-07-03,1,,,,,リフシス,0
478,2430001089426,新規,0,2023-07-03,2023-07-03,株式会社ＫＩＴＡＭＯＫＵ,,株式会社,北海道,北広島市,大曲２９８番地５,,01,234,0611270,,,,,,,2023-07-03,1,,,,,キタモク,0
486,2700150115153,新規,0,2023-07-03,2023-07-03,蘇州蘇桜屋国際貿易有限公司,,外国会社等,,,,,,,,中国蘇州市呉中区越溪鎮越城西路,,,,,,2023-07-03,1,,,,,ソシュウソヨウヤコクサイボウエキユウゲンコウシ,0
487,2700150116589,新規,0,2023-07-03,2023-05-30,ワーカーズ・コレクティブ　つなぐ,,その他,山梨県,南都留郡富士河口湖町,小立１１６７のれん村東３号,,19,430,4010302,,,,,,,2023-05-30,1,,,,,ワーカーズコレクテイブツナグ,0
488,2700150118049,新規,0,2023-07-03,2023-07-03,Ｃｈｏｎｇ　Ｑｉｎｇ　Ｊｉｎｇ　Ｒａｎ　Ｙｏｕ　Ｘｕ　Ｋｅ　Ｊｉ　Ｙｏｕ　Ｘｉａｎ　Ｇｏｎｇ　Ｓｉ,,外国会社等,,,,,,,,Ｃｈｉｎａ，Ｃｈｏｎｇｑｉｎｇ　ＢｅｉＢｕＸｉｎＱｕ　ＧａｏＸｉｎＹｕａｎ　ＨｕａｎｇＳｈａｎＤａＤａｏ　Ｎｏ．５　ＳｈｕｉＸｉｎｇＫｅＪｉＤａＳｈａ　ＺｈｏｎｇＨｏｕＸｉｅＺｉＬｏｕ　６Ｆ　１＃,,,,,,2023-07-03,1,,,,,ジュウケイイゼンユウジョカギユウゲンコウシ,0
489,2700150118057,新規,0,2023-07-03,2023-07-03,ＧｕａｎｇＺｈｏｕＳｈｉ　ＳｕＰｅｉＬａｎ　ＦｕＳｈｉ　ＹｏｕＸｉａｎ　ＧｏｎｇＳｉ,,外国会社等,,,,,,,,Ｃｈｉｎａ，ｇｕａｎｇｚｈｏｕ　ｔｉａｎｈｅ　ｈｕａｎｇｐｕ　ｄａｄａｏｚｈｏｎｇ　６６２　ｈａｏ　２４０６ｆａｎｇｃ２５８,,,,,,2023-07-03,1,,,,,コウシュウシスーペイランフクショクユウゲンコウシ,0
490,2700150118065,新規,0,2023-07-03,2023-07-03,ｓｈｅｎ　ｚｈｅｎ　ｓｈｉ　ａｏ　ｊｉ　ｄｉａｎ　ｚｉ　ｓｈａｎｇ　ｗｕ　ｙｏｕ　ｘｉａｎ　ｇｏｎｇ　ｓｉ,,外国会社等,,,,,,,,ｗｕ　ｌｉａｎ　ｌｕ　２５　ｈａｏ　２　ｄｏｎｇ　３　ｌｏｕ　ｌｏｎｇ　ｇａｎｇ　ｑｕ　ｌｏｎｇ　ｃｈｅｎｇ　ｊｉｅ　ｄａｏ　ｓｈｅｎ　ｚｈｅｎ　ｓｈｉ　Ｃｈｉｎａ　５１８１７２,,,,,,2023-07-03,1,,,,,シンセンシオウサイデンシショウムユウゲンコウシ,0
491,2700150118073,新規,0,2023-07-03,2023-07-03,ｃｈｅｎｇｄｕ　ｎｉｎｇｙａｚｈｉ　ｋｅｊｉ　ｙｏｕｘｉａｎｇｏｎｇｓｉ,,外国会社等,,,,,,,,Ｃｈｉｎａ　Ｓｉｃｈｕａｎ　Ｃｈｅｎｇｄｕ　Ｊｉｎｊｉａｎｇｑｕ　Ｊｉａｈｏｎｇｂｅｉｌｕ　６１ｈａｏ,,,,,,2023-07-03,1,,,,,セイトチョガシカギユウゲンコウシ,0
492,2700150118098,新規,0,2023-07-03,2023-07-03,Ｓｈｅｎｚｈｅｎ　Ｈｅｎｇｔａｉ　Ｂｏｙｕａｎ　Ｔｒａｄｉｎｇ　Ｃｏ．，Ｌｔｄ．,,外国会社等,,,,,,,,２０１　Ｂｕｉｌｄｉｎｇ　Ａ，Ｒｏａｄ　ＮＯ　１，Ｑｉａｎｗａｎｙｉｌｕ　Ｓｈｅｎｇａｎｇ　Ｃｏｏｐｅｒａｔｉｏｎ，Ｑｉａｎｈａｉ　ｄｉｓｃｔｒｉｃｔ　ｓｈｅｎｚｈｅｎ　ｇｕａｎｇｄｏｎｇ　ＣＮ,,,,,,2023-07-03,1,,,,,シンセンシコウタイハクエンボウエキユウゲンコウシ,0
493,2700150118107,新規,0,2023-07-03,2023-07-03,Ｓｈｅｎｚｈｅｎ　Ｗｅｉｎｉｋａｎｇ　Ｅｌｅｃｔｒｏｎｉｃｓ　Ｃｏ．，Ｌｔｄ,,外国会社等,,,,,,,,Ｂ０１３，１ｓｔ　Ｆｌｏｏｒ，Ｂｕｉｌｄｉｎｇ　４，Ｎｏ．２０７０　Ｓｈｅｎｎａｎ　Ｍｉｄｄｌｅ　Ｒｏａｄ，Ｆｕｑｉａｎｇ　Ｃｏｍｍｕｎｉｔｙ，Ｈｕａｑｉａｎｇ　Ｎｏｒｔｈ　Ｓｔｒｅｅｔ　Ｆｕｔｉａｎ　Ｄｉｓｔｒｉｃｔ　Ｓｈｅｎｚｈｅｎ　Ｇｕａｎｇｄｏｎｇ，ＣＮ,,,,,,2023-07-03,1,,,,,シンセンシイニコウデンシユウゲンコウシ,0
494,2700150118115,新規,0,2023-07-03,2023-07-03,Ｄｏｎｇｇｕａｎｓｈｉｘｉｎｐｉｎｄｉａｎｚｉｓｈａｎｇｗｕｙｏｕｘｉａｎｇｏｎｇｓｉ,,外国会社等,,,,,,,,Ｇｕａｎｇｄｏｎｇ　Ｓｈｅｎｇ　Ｄｏｎｇｇｕａｎ　Ｓｈｉ　Ｆｅｎｇｇａｎｇｚｈｅｎｌｕｚｈｕｔｉａｎｌｕ３０ｈａｏ１０１ｆａｎｇ,,,,,,2023-07-03,1,,,,,トウカンシシンピンデンシショウムユウゲンコウシ,0
495,2700150118123,新規,0,2023-07-03,2023-07-03,Ｓｈａｎｄｏｎｇ　Ｗａｎｆａｎｇ　Ｉｎｄｕｓｔｒｉａｌ　Ｃｏ．,,外国会社等,,,,,,,,Ｗｅｓｔ　ｓｉｄｅ　ｏｆ　Ｇｕａｎｇｚｈｏｕ　Ｒｏａｄ，Ｎｅｗ　Ｉｎｄｕｓｔｒｉａｌ　Ｚｏｎｅ，Ｐｉｎｇｄｕ　Ｃｉｔｙ，Ｑｉｎｇｄａｏ,,,,,,2023-07-03,1,,,,,シャンドンワンファンシーイエヨウシエンゴンスー,0
496,2700150118131,新規,0,2023-07-03,2023-07-03,Ｓｈｅｎｚｈｅｎ　Ｓｈｉ　Ｓａｎｌｉａｎ　Ｘｉｔｏｎｇ　Ｋｅｊｉ　Ｙｏｕｘｉａｎｇｏｎｇｓｉ,,外国会社等,,,,,,,,Ｓｅｃｔｉｏｎ　Ｂ，３ｒｄ　Ｆｌｏｏｒ　Ａｐａｒｔｍｅｎｔ　Ａ　Ｇｕａｎｌｏｎｇｃｕｎ　ｃｏｍｐｌｅｘ　ｂｕｉｌｄｉｎｇ　Ｓｈｅｎｚｈｅｎ　Ｃｉｔｙ　Ｇｕａｎｇｄｏｎｇ　Ｃｈｉｎａ,,,,,,2023-07-03,1,,,,,シンセンシサンレンシトンケジユウゲンコウシ,0
497,2700150118148,新規,0,2023-07-03,2023-07-03,ＹＩＷＵ　ＡＮＣＨＥＮ　ＣＯＭＭＯＤＩＴＹ　ＣＯＭＰＡＮＹ　ＬＩＭＩＴＥＤ,,外国会社等,,,,,,,,ｂｅｉｙｕａｎ　ｄｉｓｔｒｉｃｔ　ｚｏｎｇｚｅｂｅｉ　ｒｏａｄ　Ｎｏ．５０５　ｙｉｗｕ　ｚｈｅｊｉａｎｇ　Ｃｈｉｎａ,,,,,,2023-07-03,1,,,,,イウアンチェンコモディティーカンパニーリミテッド,0
498,2700150118156,新規,0,2023-07-03,2023-07-03,Ｓｈｅｎｚｈｅｎ　ＨｕｉＤａ　Ｔｅｃｈｎｏｌｏｇｙ　Ｃｏ．，Ｌｔｄ,,外国会社等,,,,,,,,Ｒｏｏｍ　３０５，Ｂｕｉｌｄｉｎｇ　Ａ，ＳｈｉｗａｉＴａｏｙｕａｎ　Ｃｒｅａｔｉｖｅ　Ｐａｒｋ　Ｎｏ．１　Ｐｉｎｇｓｈａｎ　Ｒｏａｄ，Ｎａｎｓｈａｎ　Ｄｉｓｔｒｉｃｔ　Ｓｈｅｎｚｈｅｎ　Ｇｕａｎｇｄｏｎｇ　Ｃｈｉｎａ,,,,,,2023-07-03,1,,,,,シェンゼェンフイダテクノロジーカンパニーリミテッド,0
499,2700150118164,新規,0,2023-07-03,2023-07-03,ＳｈｅｎＺｈｅｎＳｈｉ　ＷｅｎＷｕＢｅｉ　ＤｉａｎＺｉ　ＳｈａｎｇＷｕ　ＹｏｕＸｉａｎ　ＧｏｎｇＳｉ,,外国会社等,,,,,,,,ＢａｏＡｎＱｕ　ＸｉｎＡｎＪｉｅＤａｏ　ＨａｉＹｕＳｈｅＱｕ　Ｎ１５Ｑｕ　ＸｉｎｇＦｕＨａｉＡｎＨｕａＹｕａｎ　２ＤｏｎｇＢＺｕｏ８Ｄ　ＳｈｅｎＺｈｅｎＳｈｉ　ＧｕａｎｇＤｏｎｇＳｈｅｎｇ　Ｃｈｉｎａ,,,,,,2023-07-03,1,,,,,シンセンシウェンウベイデンシシャンウユウゲンコウシ,0
500,2700150118172,新規,0,2023-07-03,2023-07-03,ｐｉｎｇｘｉａｎｇ　ｃｈｕａｎｇｆｕ　ｍａｏｙｉ　ｙｏｕｘｉａｎｇｏｎｇｓｉ,,外国会社等,,,,,,,,ｓｈａｎｇｌｉｘｉａｎｓｈａｎｇｌｉｚｈｅｎｄｏｎｇｓｈｕｎｊｉｅ（ｚｈｏｎｇｑｉａｎｇｂｕｘｉｎｇｊｉｅｎｅｉ）　ｐｉｎｇｘｉａｎｇｓｈｉ　ｊｉａｎｇｘｉｓｈｅｎｇ　Ｃｈｉｎａ,,,,,,2023-07-03,1,,,,,ピンシャンチゥアンフマオイユウゲンコウシ,0
501,2700150118180,新規,0,2023-07-03,2023-07-03,Ｋｒｏｎｅ　Ｋａｌｐａｓｍｏｓ　Ｃｏ．，Ｌｉｍｉｔｅｄ,,外国会社等,,,,,,,,ＦＬＡＴ／ＲＭ　８０３　ＣＨＥＶＡＬＩＥＲ　ＨＯＵＳＥ　４５－５１　ＣＨＡＴＨＡＭ　ＲＯＡＤ　ＳＯＵＴＨ　ＴＳＩＭ　ＳＨＡ　ＴＳＵＩ　ＫＬ,,,,,,2023-07-03,1,,,,,クローネカルパスモズシーオーリミテッド,0
502,2700150118189,新規,0,2023-07-03,2023-07-03,Ｎｉｎｇｆｕ　Ｔｒａｄｉｎｇ（Ｓｈｅｎｚｈｅｎ）Ｃｏ．，Ｌｔｄ,,外国会社等,,,,,,,,ｓｈｅｎｚｈｅｎｓｈｉｌｏｎｇｇａｎｇｑｕｂｕｊｉｊｉｅｄａｏｇｕｏｚｈａｎｓｈｅｑｕｌｏｎｇｇａｎｇｄａｄａｏｇｕｏｚｈａｎｙｕａｎ７ｈａｏｌｏｕｇｕｏａｎｔａｉ２９Ｂ　ｇｕａｎｇｄｏｎｇｓｈｅｎｇ,,,,,,2023-07-03,1,,,,,ニンフーマオイーシェンジェンヨウシエンゴンスー,0
503,2700150118197,新規,0,2023-07-03,2023-07-03,Ｘｕｚｈｏｕ　Ｆｌｅｓｄａ　Ｔｒａｄｉｎｇ　Ｃｏ．，ＬＴＤ,,外国会社等,,,,,,,,Ｌｏｎｇｇｕ　ｚｈｅｎ，Ｎａｉｚｈｕａｎｇ　ｇｏｎｇｙｅｑｕ　Ｐｅｉｘｉａｎ　Ｊｉａｎｇｓｕ,,,,,,2023-07-03,1,,,,,シージョウフーライスーダーシャンマオヨウシエンゴンスー,0
512,3010005036886,新規,0,2023-07-03,2023-07-03,一般社団法人ドラムズＷＥ,,その他の設立登記法人,東京都,千代田区,丸の内３丁目１番１号東京共同会計事務所内,,13,101,1000005,,,,,,,2023-07-03,1,,,,,ドラムズウィー,0
531,3010601063334,新規,0,2023-07-03,2023-07-03,宜買買株式会社,,株式会社,東京都,江東区,北砂３丁目２８番１号不動コーポ３０７号室,,13,108,1360073,,,,,,,2023-07-03,1,,,,,ギバイバイ,0
532,3010601063342,新規,0,2023-07-03,2023-07-03,ｉｌｔｅｃｈ株式会社,,株式会社,東京都,江東区,有明２丁目１番地８,,13,108,1350063,,,,,,,2023-07-03,1,,,,,イルテック,0
533,3010601063359,新規,0,2023-07-03,2023-07-03,ＡｄｖａｎｃｅＱｕｅｓｔ株式会社,,株式会社,東京都,墨田区,東駒形２丁目８－１１ｉｓｔ浅草５０１,,13,107,1300005,,,,,,,2023-07-03,1,,,,,アドバンスクエスト,0
557,3011001155408,新規,0,2023-07-03,2023-07-03,株式会社Ｋｏｓｅｌｉｇ　Ｐａｒｔｎｅｒｓ,,株式会社,東京都,渋谷区,円山町５番５号Ｎａｖｉ渋谷Ｖ３階,,13,113,1500044,,,,,,,2023-07-03,1,,,,,コーシェリパートナーズ,0
560,3011003017085,新規,0,2023-07-03,2023-07-03,合同会社ＺＡＫＵＲＯ　ＳＨＯＷ,,合同会社,東京都,渋谷区,神宮前６丁目３４－１４原宿表参道ビル３階,,13,113,1500001,,,,,,,2023-07-03,1,,,,,ザクロショー,0
561,3011003017093,新規,0,2023-07-03,2023-07-03,合同会社ＮＥＯ,,合同会社,東京都,渋谷区,道玄坂１丁目１０番８号渋谷道玄坂東急ビル２Ｆ－Ｃ,,13,113,1500043,,,,,,,2023-07-03,1,,,,,ネオ,0
567,3011101103299,新規,0,2023-07-03,2023-07-03,日本観光開発株式会社,,株式会社,東京都,新宿区,大久保２丁目２番６号第三松田ビル,,13,104,1690072,,,,,,,2023-07-03,1,,,,,ニホンカンコウカイハツ,0
569,3011103013208,新規,0,2023-07-03,2023-07-03,合同会社ｏｆｆｉｃｅ　ＨＥＲＯ,,合同会社,東京都,新宿区,西新宿３丁目３番１３号西新宿水間ビル２Ｆ,,13,104,1600023,,,,,,,2023-07-03,1,,,,,オフィスヒーロー,0
575,3011703003509,新規,0,2023-07-03,2023-07-03,合同会社Ｋ＆Ｔコーポレーション,,合同会社,東京都,江戸川区,新堀２丁目２番２４号,,13,123,1320001,,,,,,,2023-07-03,1,,,,,ケーアンドティーコーポレーション,0
578,3012401040686,新規,0,2023-07-03,2023-07-03,株式会社心羽管工,,株式会社,東京都,調布市,八雲台１丁目２８番地１,,13,208,1820015,,,,,,,2023-07-03,1,,,,,シンワカンコウ,0
588,3020003024140,新規,0,2023-07-03,2023-07-03,合同会社パソコンクリニックさくま,,合同会社,神奈川県,川崎市多摩区,長尾５丁目１１番１－２号,,14,135,2140023,,,,,,,2023-07-03,1,,,,,パソコンクリニックサクマ,0
600,3030001154665,新規,0,2023-07-03,2023-07-03,マルマツ株式会社,,株式会社,埼玉県,蓮田市,大字黒浜３４５０番地５,,11,238,3490101,,,,,,,2023-07-03,1,,,,,マルマツ,0
601,3030001154673,新規,0,2023-07-03,2023-07-03,ＴＡＨＡ　ＩＮＴＥＲＮＡＴＩＯＮＡＬ株式会社,,株式会社,埼玉県,朝霞市,大字上内間木５１５番地１,,11,227,3510001,,,,,,,2023-07-03,1,,,,,タハインターナショナル,0
613,3040001129014,新規,0,2023-07-03,2023-07-03,株式会社大平運送,,株式会社,千葉県,千葉市若葉区,多部田町７６０番地１８,,12,104,2650066,,,,,,,2023-07-03,1,,,,,オオヒラウンソウ,0
614,3040001129022,新規,0,2023-07-03,2023-07-03,株式会社みらいフーズ,,株式会社,千葉県,南房総市,白浜町乙浜１２６８番地８,,12,234,2950101,,,,,,,2023-07-03,1,,,,,ミライフーズ,0
615,3040001129039,新規,0,2023-07-03,2023-07-03,株式会社ＩＮＦＩＮＩＡ,,株式会社,千葉県,市川市,市川１丁目７番６号愛愛ビル１Ｆ,,12,203,2720034,,,,,,,2023-07-03,1,,,,,インフィニア,0
616,3040001129055,新規,0,2023-07-03,2023-07-03,株式会社夢喜志,,株式会社,千葉県,千葉市美浜区,高洲１丁目２２番１０号金谷ビル４Ｆ－Ｂ,,12,106,2610004,,,,,,,2023-07-03,1,,,,,ムサシ,0
619,3050001018174,新規,0,2023-07-03,2023-07-03,株式会社Ｅｒｉｎｉａｎ,,株式会社,茨城県,土浦市,大町９番２号,,08,203,3000038,,,,,,,2023-07-03,1,,,,,エリニアン,0
620,3050001053064,新規,0,2023-07-03,2023-07-03,ＡＮＤＳＵＮＳ株式会社,,株式会社,茨城県,下妻市,平方１９４番地,,08,210,3040001,,,,,,,2023-07-03,1,,,,,アンドサンズ,0
622,3050003007613,新規,0,2023-07-03,2023-07-03,ＩＨＳＡＮ　ＩＱＢＡＬ　ＴＲＡＤＩＮＧ合同会社,,合同会社,茨城県,常総市,豊岡町乙１２９２番地７クラ第８ハイツ１０１,,08,211,3030041,,,,,,,2023-07-03,1,,,,,イーサンイクバルトレーディング,0
624,3060001036118,新規,0,2023-07-03,2023-07-03,株式会社ＡＢＣマーケティング,,株式会社,栃木県,さくら市,松山１０９０番地２,,09,214,3291303,,,,,,,2023-07-03,1,,,,,エービーシーマーケティング,0
635,3080103002841,新規,0,2023-07-03,2023-07-03,ｍｏｏｎｓｈｉｎｅ合同会社,,合同会社,静岡県,三島市,東本町１丁目１３番１８号,,22,206,4110831,,,,,,,2023-07-03,1,,,,,ムーンシャイン,0
636,3080401026559,新規,0,2023-07-03,2023-07-03,ロジワークス光株式会社,,株式会社,静岡県,磐田市,中野１１８番地,,22,211,4380053,,,,,,,2023-07-03,1,,,,,ロジワークスヒカリ,0
651,3120001256089,新規,0,2023-07-03,2023-07-03,ＹＯＵＭＥメディケア株式会社,,株式会社,大阪府,大阪市中央区,高津１丁目９番１０－２０１号,,27,128,5420072,,,,,,,2023-07-03,1,,,,,ユメメディケア,0
652,3120001256106,新規,0,2023-07-03,2023-07-03,株式会社Ｂｒｉｌｌｅｒ　Ｋｏａｋｉ,,株式会社,大阪府,大阪市西区,九条３丁目２１－１,,27,106,5500027,,,,,,,2023-07-03,1,,,,,ブリエコアキ,0
665,3140001130688,新規,0,2023-07-03,2023-07-03,心グループ株式会社,,株式会社,兵庫県,神戸市垂水区,青山台７丁目７番１号,,28,108,6550873,,,,,,,2023-07-03,1,,,,,ココログループ,0
666,3140001130696,新規,0,2023-07-03,2023-07-03,株式会社仲政工業,,株式会社,兵庫県,川西市,西多田２丁目５番３３号,,28,217,6660138,,,,,,,2023-07-03,1,,,,,ナカマサコウギョウ,0
667,3150003002991,新規,0,2023-07-03,2023-07-03,ＩＮＴＥＲＬＩＮＫ　ＳＨＩＰＳ合同会社,,合同会社,奈良県,葛城市,兵家１４３９番地１,,29,211,6392154,,,,,,,2023-07-03,1,,,,,インターリンクシップス,0
678,3180003025412,新規,0,2023-07-03,2023-07-03,Ｊａｐａｎ　Ｇｌｏｂａｌ合同会社,,合同会社,愛知県,あま市,木田申尾１０番地５クオリティハイム１０１号,,23,237,4901222,,,,,,,2023-07-03,1,,,,,ジャパングローバル,0
679,3180003025420,新規,0,2023-07-03,2023-07-03,合同会社Ｋ＆Ｋ,,合同会社,愛知県,稲沢市,下津小井戸１丁目３番地６,,23,220,4928093,,,,,,,2023-07-03,1,,,,,ケーアンドケー,0
680,3180005020270,新規,0,2023-07-03,2023-07-03,一般社団法人Ｐｅａｃｅ＆Ｈｏｐｅ,,その他の設立登記法人,愛知県,名古屋市中川区,丹後町２丁目１３番地－４Ｃ,,23,110,4540045,,,,,,,2023-07-03,1,,,,,ピースアンドホープ,0
681,3180005020279,新規,0,2023-07-03,2023-07-03,一般社団法人アロマ免疫協会,,その他の設立登記法人,愛知県,春日井市,角崎町８４番地４,,23,206,4860943,,,,,,,2023-07-03,1,,,,,アロマメンエキキョウカイ,0
685,3200001041441,新規,0,2023-07-03,2023-07-03,ＳＴＡＲＡＮＩＳ株式会社,,株式会社,岐阜県,各務原市,那加門前町１丁目２７－２門前ビル３Ｉ,,21,213,5040911,,,,,,,2023-07-03,1,,,,,スターアニス,0
696,3260005011245,新規,0,2023-07-03,2023-07-03,一般社団法人鏡野観光局,,その他の設立登記法人,岡山県,苫田郡鏡野町,河内６０番地８,,33,606,7080431,,,,,,,2023-07-03,1,,,,,カガミノカンコウキョク,0
697,3270001008806,新規,0,2023-07-03,2023-07-03,株式会社祗園ヤマナカ商店,,株式会社,鳥取県,境港市,上道町２１７７番地１９,,31,204,6840033,,,,,,,2023-07-03,1,,,,,ギオンヤマナカショウテン,0
706,3290801029652,新規,0,2023-07-03,2023-07-03,株式会社久崇,,株式会社,福岡県,北九州市小倉北区,井堀５丁目３番３号,,40,106,8030835,,,,,,,2023-07-03,1,,,,,キュウソウ,0
716,3440001009282,新規,0,2023-07-03,2023-07-03,株式会社チェーズ,,株式会社,北海道,函館市,港町１丁目２８番１２号,,01,202,0410821,,,,,,,2023-07-03,1,,,,,チェーズ,0
728,3500001025026,新規,0,2023-07-03,2023-07-03,株式会社ひらまつ地所,,株式会社,愛媛県,松山市,持田町４丁目２番１５号,,38,201,7900855,,,,,,,2023-07-03,1,,,,,ヒラマツジショ,0
730,3700150010329,新規,0,2023-07-03,2015-10-09,島根四丁目住宅自治会,,その他,東京都,足立区,島根４丁目１９－１,,13,121,1210815,,,,,,,2015-10-09,1,,,,,シマネヨンチヨウメジユウタクジチカイ,0
731,3700150115771,新規,0,2023-07-03,2023-04-27,銀座７ビルディング管理組合,,その他,東京都,中央区,銀座７丁目１５番１１号,,13,102,1040061,,,,,,,2023-04-27,1,,,,,ギンザセブンビルデイングカンリクミアイ,0
732,3700150117339,新規,0,2023-07-03,2023-06-14,屋久島里めぐり推進協議会,,その他,鹿児島県,熊毛郡屋久島町,宮之浦８２３－１,,46,505,8914205,,,,,,,2023-06-14,1,,,,,ヤクシマサトメグリスイシンキヨウギカイ,0
733,3700150118048,新規,0,2023-07-03,2023-07-03,Ｈｏｎｇｋｏｎｇ　Ｌｕｎｇｓｈｉｎｇｔａｔ　Ｔｒａｄｉｎｇ　Ｃｏ．，Ｌｉｍｉｔｅｄ,,外国会社等,,,,,,,,Ｒｏｏｍ　１３０１　１３／Ｆ　Ｆｏｏｋ　Ｃｈｅｏｎｇ　Ｂｕｉｌｄｉｎｇ　６３　Ｈｏｉ　Ｙｕｅｎ　Ｒｏａｄ　Ｋｗｕｎ　Ｔｏｎｇ　ＫＬ，Ｃｈｉｎａ,,,,,,2023-07-03,1,,,,,ホンコンリュウセイタツショウボウユウゲンコウシ,0
734,3700150118056,新規,0,2023-07-03,2023-07-03,ｓｈｅｎｚｈｅｎｓｈｉ　ｓｈｕａｎｇｙａｏｒｏｎｇ　ｗａｎｊｕ　ｙｏｕｘｉａｎ　ｇｏｎｇｓｉ,,外国会社等,,,,,,,,ＣＮ，Ｓｈｅｎｚｈｅｎ　Ｌｏｎｇｇａｎｇ　ｇｕａｎｈｕ　ｊｉｅｄａｏ　ｓｏｎｇｙｕａｎｓｈａｓｈｅｑｕ　ｄａｂｕｔｏｕｌｕ　３３０　ｂａｉｂａｎｇ　ｇｏｎｇｙｅｙｕａｎ　Ｃ－３０５,,,,,,2023-07-03,1,,,,,シンセンシソウヨウエイガングユウゲンコウシ,0
735,3700150118064,新規,0,2023-07-03,2023-07-03,ｄｏｎｇｇｕａｎｇｓｈｉ　ｔｉａｎｍｉｍｉ　ｄｉａｎｚｉ　ｓｈａｎｇｗｕ　ｙｏｕｘｉａｎｇｏｎｇｓｉ,,外国会社等,,,,,,,,Ｒｏｏｍ　３０２，Ｎｏ．５１，Ｓｈｒｉｍｐ　Ｔａｉｌ　Ｆｉｅｌｄ　Ｌａｎｅ，Ｔａｎｇｘｉａ　Ｔｏｗｎ，Ｄｏｎｇｇｕａｎ　Ｃｉｔｙ，Ｇｕａｎｇｄｏｎｇ　Ｐｒｏｖｉｎｃｅ，Ｃｈｉｎａ,,,,,,2023-07-03,1,,,,,トンカンシテンミツミツデンシショウムユウゲンコウシ,0
736,3700150118072,新規,0,2023-07-03,2023-07-03,ｓｈｅｎｚｈｅｎｓｈｉ　ｇａｏｋａｎｇｘｉｎｇ　ｊｉａｊｕ　ｙｏｕｘｉａｎｇｏｎｇｓｉ,,外国会社等,,,,,,,,ｂａｏａｎｑｕ　ｘｉｎａｎｊｉｅｄａｏ　ｘｉｎｌｅｓｈｅｑｕ　１１ｑｕ　ｇｕａｎｇｓｈｅｎｌｕ　５ｄｏｎｇ　１０２　ｓｈｅｎｚｈｅｎｓｈｉ　Ｇｕａｎｇｄｏｎｇｓｈｅｎｇ　Ｃｈｉｎａ,,,,,,2023-07-03,1,,,,,シンセンシコウコウコウカキョユウゲンコウシ,0
737,3700150118089,新規,0,2023-07-03,2023-07-03,Ｓａｎｍｅｎｘｉａｘｉｎｙａｓｈａｎｇｍａｏｙｏｕｘｉａｎｇｏｎｇｓｉ,,外国会社等,,,,,,,,Ｈｅｎａｎｓｈｅｎｇ　ｓａｎｍｅｎｘｉａｓｈｉ　ｈｕｂｉｎｑｕ　ｙｉｎｃｈａｎｇｌｕ　ｌｖｃｈａｎｇｘｉａｏｑｕ　１６ｈａｏｌｏｕ　４ｄａｎｙｕａｎ　４０２，ＣＮ,,,,,,2023-07-03,1,,,,,サンモンコウシンアショウボウユウゲンコウシ,0
738,3700150118097,新規,0,2023-07-03,2023-07-03,Ｃｈｅｎｇｄｕｓｈｉ　ｊｉａｗｅｉ　ｓｈｉｊｉｅ　ｋｅｊｉ　ｙｏｕｘｉａｎ　ｇｏｎｇｓｉ,,外国会社等,,,,,,,,Ｃｈｉｎａ，Ｓｉｃｈｕａｎ　Ｃｈｅｎｇｄｕ　ｊｉｎｎｉｕｑｕ　ｗｕｆｕ　ｑｉａｏｄｏｎｇｌｕ　２２９ｈａｏ　３０ｄｏｎｇ　９ｌｏｕ　８ｈａｏ,,,,,,2023-07-03,1,,,,,セイトシカイセカイカギユウゲンコウシ,0
739,3700150118106,新規,0,2023-07-03,2023-07-03,Ｓｈｅｎｚｈｅｎ　Ｋｕｎｌｕｎ　Ｅ－ｃｏｍｍｅｒｃｅ　Ｃｏ．，Ｌｔｄ,,外国会社等,,,,,,,,７０１　Ｂｌｏｃｋ　Ｅ　Ｚｈａｎｔａｏ　Ｃｏｍｍｅｒｃｉａｌ　Ｐｌａｚａ　Ｔａｏｊｉｎｄｉ　Ｅ－ｃｏｍｍｅｒｃｅ　Ｉｎｃｕｂａｔｉｏｎ　Ｂａｓｅ　Ｔｅｎｇｌｏｎｇ　Ｒｏａｄ　Ｌｏｎｇｐｉｎｇ　Ｃｏｍｍｕｎｉｔｙ　Ｄａｌａｎｇ　Ｓｔｒｅｅｔ　Ｌｏｎｇｈｕａ　Ｄｉｓｔｒｉｃｔ　Ｓｈｅｎｚｈｅｎ　ＣＨＩＮＡ,,,,,,2023-07-03,1,,,,,シンセンシクンルンデンシショウムユウゲンコウシ,0
740,3700150118114,新規,0,2023-07-03,2023-07-03,ｓｈｅｎｚｈｅｎｓｈｉｊｉｎｋａｉｗａｎｇｌｕｏｘｉｎｘｉｙｏｕｘｉａｎｇｏｎｇｓｉ,,外国会社等,,,,,,,,ｇａｎｇｚｈｉｌｏｎｇｋｅｊｉｙｕａｎ　ｓｈａｎｇｗｕｚｈｏｎｇｘｉｎ　ｃｄｏｎｇ５０７　ｌｏｎｇｈｕａｊｉｅｄａｏ　ｑｉｎｇｈｕａｓｈｅｑｕ　ｑｉｎｇｌｏｎｇｌｕｌｉｕｈａｏ　Ｓｈｅｎｚｈｅｎ　Ｇｕａｎｇｄｏｎｇ　５１８０００　ＣＮ,,,,,,2023-07-03,1,,,,,シンセンシキンガイモウラクシンソクユウゲンコウシ,0
741,3700150118122,新規,0,2023-07-03,2023-07-03,Ｓｈｅｎｚｈｅｎｓｈｉ　Ｋｅｍｅｉｇｅ　Ｘｉｎｘｉｋｅｊｉ　Ｙｏｕｘｉａｎ　Ｇｏｎｇｓｉ,,外国会社等,,,,,,,,Ｃｈｉｎａ　Ｇｕａｎｇｄｏｎｇ　Ｓｈｅｎｚｈｅｎ　Ｌｏｎｇｈｕａｑｕ　Ｆｕｃｈｅｎｇｊｉｅｄａｏ　Ｆｕｍｉｎｓｈｅｑｕ　Ｆｕｑｉａｎｌｕ　６９－２ｈａｏ　１１Ａ,,,,,,2023-07-03,1,,,,,シンセンシカビカクシンソクカギユウゲンコウシ,0
742,3700150118130,新規,0,2023-07-03,2023-07-03,Ｓｈｅｎｚｈｅｎｓｈｉ　ｘｉｎｙｕｅｄｉａｎｚｉ　ｙｏｕｘｉａｎｇｏｎｇｓｉ,,外国会社等,,,,,,,,ＧｕａｎｇＤｏｎｇ，Ｓｈｅｎｚｈｅｎｓｈｉ，ｌｏｎｇｇａｎｇｑｕ，ｂａｎｔｉａｎｊｉｅｄａｏ，ｂａｎｘｕｅｇａｎｇｄａｄａｏ　４０８８ｈａｏ　ｚｅｒｕｎｚｈｏｎｇｘｉｎＡ３２３ｆａｎｇ　Ｃｈｉｎａ,,,,,,2023-07-03,1,,,,,シンセンシシンユエデンシユウゲンコウシ,0
743,3700150118139,新規,0,2023-07-03,2023-07-03,Ｙｕｓｕｎ　Ｅｌｅｃｔｒｏｎｉｃ　Ｃｏｍｍｅｒｃｅ（Ｎｉｎｇｂｏ）Ｃｏ．，Ｌｔｄ．,,外国会社等,,,,,,,,Ｂａｉｚｈａｎｇ　ｒｏａｄ　Ｎｏ．１６８　２５－３９　Ｎｉｎｇｂｏ　Ｚｈｅｊｉａｎｇ　Ｃｈｉｎａ,,,,,,2023-07-03,1,,,,,ユスンイレクトゥロニックコマースニンボカンパニーリミテッド,0
744,3700150118147,新規,0,2023-07-03,2023-07-03,Ｏｕｌｅｍｅ　Ｔｅｃｈｎｏｌｏｇｙ　Ｑｉｎｇｄａｏ　Ｃｏ．，Ｌｔｄ,,外国会社等,,,,,,,,ｄｏｎｇｙｕｅｘｉｌｕ　２２３７ｈａｏｃｈａｎｇｆａｎｇ　ｑｉｎｇｄａｏｓｈｉ　ｈｕａｎｇｄａｏｑｕ　ｓｈａｎｄｏｎｇ　Ｃｈｉｎａ,,,,,,2023-07-03,1,,,,,オウレメテクノロジーチンダオカンパニーリミテッド,0
745,3700150118155,新規,0,2023-07-03,2023-07-03,ｓｈｅｎｚｈｅｎ　ｙｏｎｇｈｅｎｇｄｏｎｇｌｉ　ｄｉａｎｚｉｓｈａｎｇｗｕ　ｙｏｕｘｉａｎｇｏｎｇｓｉ,,外国会社等,,,,,,,,ｓｈｅｎｚｈｅｎｌｏｎｇｈｕａｑｕｌｏｎｇｈｕａｊｉｅｄａｏｙｏｕｓｏｎｇｓｈｅｑｕｈｅｎｇｆｅｎｇｘｉａｏｑｕ２ｈａｏｌｏｕｘｉｎｚｈｏｎｇｔａｉｇｏｎｇｙｅｙｕａｎ１０５　Ｃｈｉｎａ,,,,,,2023-07-03,1,,,,,シェンゼェンヨンヘンドンリデンシショウムユウゲンコウシ,0
746,3700150118163,新規,0,2023-07-03,2023-07-03,Ｄｏｎｇｇｕａｎ　Ｓｈｉ　ＳｈｅＣａｉ　Ｍａｏ　Ｙｉ　Ｙｏｕ　Ｘｉａｎ　Ｇｏｎｇ　Ｓｉ,,外国会社等,,,,,,,,ＴａｎｇｘｉａＺｈｅｎ　ＳｉｃｕｎＳｈｅｑｕ　ＡｉｍｉｎＪｉｅ　６　Ｈａｏ　ＹｉｘｉｎｇＳｈａｎｇｍａｏＧｕａｎｇｃｈａｎｇ　Ｂａｎｇｏｎｇ　６１１　Ｄｏｎｇｇｕａｎ　Ｇｕａｎｇｄｏｎｇ　Ｃｈｉｎａ,,,,,,2023-07-03,1,,,,,ドングアンシシェツアイマオイユウゲンコウシ,0
747,3700150118171,新規,0,2023-07-03,2023-07-03,Ｈｏｎｇ　Ｋｏｎｇ　Ｘｉｎｇ　Ｙｕ　Ｅｌｅｃｔｒｏｎｉｃ　Ｂｕｓｉｎｅｓｓ　Ｃｏ．，Ｌｉｍｉｔｅｄ,,外国会社等,,,,,,,,ＦＬＡＴ　／ＲＭ　Ａ３７　９／Ｆ　ＳＩＬＶＥＲＣＯＲＰ　ＩＮＴＥＲＮＡＴＩＯＮＡＬ　ＴＯＷＥＲ　７０７－７１３　ＮＡＴＨＡＮ　ＲＯＡＤ　ＭＯＮＧＫＯＫ　ＫＬ　ＨＯＮＧ　ＫＯＮＧ,,,,,,2023-07-03,1,,,,,ホンコンシンユエレクトロニックビジネスカンパニーリミテッド,0
748,3700150118188,新規,0,2023-07-03,2023-07-03,ｙａｎｔａｉｓｈｅｎｇｍｉｎｇｄｉａｎｚｉｓｈａｎｇｗｕｙｏｕｘｉａｎｇｏｎｇｓｉ,,外国会社等,,,,,,,,Ｎｏ．２０１－１，Ｂｕｉｌｄｉｎｇ　１，Ｎｏ．５，Ｗａｎｓｈｏｕｓｈａｎ　Ｒｏａｄ，Ｙａｎｔａｉ　Ａｒｅａ，Ｃｈｉｎａ（Ｓｈａｎｄｏｎｇ）Ｐｉｌｏｔ　Ｆｒｅｅ　Ｔｒａｄｅ　Ｚｏｎｅ,,,,,,2023-07-03,1,,,,,イエンタイションミンディエンズーシャンウーヨウシエンゴンスー,0
749,3700150118196,新規,0,2023-07-03,2023-07-03,Ｓｈａｎｇｈａｉ　Ｚｈｅ　Ｌｉ　Ｃｏｍｍｅｒｃｉａｌ　＆　Ｔｒａｄｉｎｇ　Ｃｏ．，ＬＴＤ,,外国会社等,,,,,,,,Ｒｍ．４７６，Ｎｏ．１３３８－１，Ｈｕａｎ　Ｃｈｅｎｇ　Ｒｏａｄ　Ｓｏｕｔｈ，Ｎａｎ　Ｑｉａｏ　Ｚｈｅｎ，Ｆｅｎｇ　Ｘｉａｎ　Ｄｉｓｔｒｉｃｔ,,,,,,2023-07-03,1,,,,,シャンハイジョーリーシャンマオヨウシエンゴンスー,0
762,4010001236547,新規,0,2023-07-03,2023-07-03,株式会社ネクスゲート,,株式会社,東京都,文京区,本駒込２丁目１０番５号,,13,105,1130021,,,,,,,2023-07-03,1,,,,,ネクスゲート,0
769,4010401175361,新規,0,2023-07-03,2023-07-03,咲玖矢株式会社,,株式会社,東京都,港区,南麻布４丁目９番１７号,,13,103,1060047,,,,,,,2023-07-03,1,,,,,サクヤ,0
770,4010405022254,新規,0,2023-07-03,2023-07-03,一般社団法人中央ラグビー倶楽部,,その他の設立登記法人,東京都,港区,浜松町２丁目１番地１３号,,13,103,1050013,,,,,,,2023-07-03,1,,,,,チュウオウラグビークラブ,0
771,4010405022295,新規,0,2023-07-03,2023-07-03,ジャパン・ダイセン特定目的会社,,その他の設立登記法人,東京都,港区,虎ノ門３丁目２２番１０－２０１号,,13,103,1050001,,,,,,,2023-07-03,1,,,,,ジャパンダイセン,0
773,4010501050687,新規,0,2023-07-03,2023-07-03,株式会社ｍバランス,,株式会社,東京都,台東区,浅草橋５丁目８番１１号大富ビル２Ｆ,,13,106,1110053,,,,,,,2023-07-03,1,,,,,エムバランス,0
778,4010701044489,新規,0,2023-07-03,2023-07-03,株式会社ｐｏｍｍ　ｆａｃｔｏｒｙ,,株式会社,東京都,品川区,二葉４丁目７番８号ミリアレジデンス品川中延３０８,,13,109,1420043,,,,,,,2023-07-03,1,,,,,ポムムファクトリー,0
793,4011001155365,新規,0,2023-07-03,2023-07-03,株式会社ｖｉｄｒｏ,,株式会社,東京都,渋谷区,幡ヶ谷１丁目２－２京王幡ヶ谷ビル４ＦＭＩＤＰＯＩＮＴ幡ヶ谷４－３１,,13,113,1510072,,,,,,,2023-07-03,1,,,,,ビードロ,0
795,4011003017068,新規,0,2023-07-03,2023-07-03,合同会社Ａｍｏｌｕｓ,,合同会社,東京都,渋谷区,神宮前６丁目２３番４号桑野ビル２階,,13,113,1500001,,,,,,,2023-07-03,1,,,,,アモルス,0
796,4011003017084,新規,0,2023-07-03,2023-07-03,合同会社ノースモールビアー,,合同会社,東京都,渋谷区,道玄坂１丁目１０番８号渋谷道玄坂東急ビル２Ｆ－Ｃ,,13,113,1500043,,,,,,,2023-07-03,1,,,,,ノースモールビアー,0
797,4011003017092,新規,0,2023-07-03,2023-07-03,合同会社ＴＨＥ　ＳＣＵＬＴＵＲＥ,,合同会社,東京都,渋谷区,道玄坂１丁目１０番８号渋谷道玄坂東急ビル２Ｆ－Ｃ,,13,113,1500043,,,,,,,2023-07-03,1,,,,,ザエスカルチャー,0
806,4011101103430,新規,0,2023-07-03,2023-07-03,ＳＺマシン制御株式会社,,株式会社,東京都,新宿区,四谷４丁目２８番１９号大木戸ビル６０３室,,13,104,1600004,,,,,,,2023-07-03,1,,,,,エスゼットマシンセイギョ,0
807,4011101103439,新規,0,2023-07-03,2023-07-03,ＨＲマネージドサービス株式会社,,株式会社,東京都,新宿区,西新宿３丁目３番１３号西新宿水間ビル６階,,13,104,1600023,,,,,,,2023-07-03,1,,,,,エイチアールマネージドサービス,0
810,4011103013207,新規,0,2023-07-03,2023-07-03,ＴＩ　ｗｅａｌｔｈ　ｍａｎｅｇｅｍｅｎｔ合同会社,,合同会社,東京都,新宿区,北新宿３丁目２７－１６,,13,104,1690074,,,,,,,2023-07-03,1,,,,,ティアイウェルスマネジメント,0
818,4011501029473,新規,0,2023-07-03,2023-07-03,赤羽産業株式会社,,株式会社,東京都,北区,浮間３丁目１１番３０－５０７号,,13,117,1150051,,,,,,,2023-07-03,1,,,,,アカバネサンギョウ,0
819,4011503005670,新規,0,2023-07-03,2023-07-03,合同会社ＫＯＳ,,合同会社,東京都,荒川区,東日暮里６丁目５３番４号アイマンションＩＩ６０２,00131034,13,118,1160014,,,,,,,2023-07-03,1,,,,,ケイオーエス,0
824,4011801042647,新規,0,2023-07-03,2023-07-03,株式会社ノマド国際事業,,株式会社,東京都,足立区,綾瀬４丁目８番１６－１１０５号リビオレゾン綾瀬ステーションプレミア,,13,121,1200005,,,,,,,2023-07-03,1,,,,,ノマドコクサイジギョウ,0
828,4012401040652,新規,0,2023-07-03,2023-07-03,株式会社平成音楽会,,株式会社,東京都,府中市,白糸台３丁目１６番地の６‐４１０号,,13,206,1830011,,,,,,,2023-07-03,1,,,,,ヘイセイオンガクカイ,0
829,4012401040685,新規,0,2023-07-03,2023-07-03,株式会社天馬総合商事,,株式会社,東京都,武蔵野市,吉祥寺南町３丁目１３番７号アバンティ吉祥寺２１２,,13,203,1800003,,,,,,,2023-07-03,1,,,,,テンマソウゴウショウジ,0
837,4013305003489,新規,0,2023-07-03,2023-07-03,一般社団法人ビーラインドプロジェクト,,その他の設立登記法人,東京都,豊島区,南大塚２丁目４５－１１,,13,116,1700005,,,,,,,2023-07-03,1,,,,,ビーラインドプロジェクト,0
841,4020001152297,新規,0,2023-07-03,2023-07-03,インテクソフト株式会社,,株式会社,神奈川県,横浜市中区,桜木町１丁目１０１番地１クロスゲート７階,,14,104,2310062,,,,,,,2023-07-03,1,,,,,インテクソフト,0
852,4030001154664,新規,0,2023-07-03,2023-07-03,株式会社ＡＬＢＡＴＲＯＳＳ,,株式会社,埼玉県,川口市,飯塚１丁目３番６－１２０６号,,11,203,3320023,,,,,,,2023-07-03,1,,,,,アルバトロス,0
853,4030001154706,新規,0,2023-07-03,2023-07-03,株式会社ＴＫ２,,株式会社,埼玉県,桶川市,末広２丁目１１番５号コスモ桶川１０６号,,11,231,3630012,,,,,,,2023-07-03,1,,,,,ティーケーツー,0
854,4030001154722,新規,0,2023-07-03,2023-07-03,ＣＧ株式会社,,株式会社,埼玉県,川口市,飯塚４丁目１１番１５－５号,,11,203,3320023,,,,,,,2023-07-03,1,,,,,シージ,0
861,4030003022027,新規,0,2023-07-03,2023-07-03,合同会社バイス,,合同会社,埼玉県,上尾市,西宮下３丁目２１１－１０１,,11,219,3620043,,,,,,,2023-07-03,1,,,,,バイス,0
862,4030003022051,新規,0,2023-07-03,2023-07-03,慧瑜合同会社,,合同会社,埼玉県,川口市,飯塚３丁目１－２４－２０２,,11,203,3320023,,,,,,,2023-07-03,1,,,,,ケイユ,0
873,4040001129046,新規,0,2023-07-03,2023-07-03,株式会社Ｒｅｌｉｅｖｅ,,株式会社,千葉県,印旛郡栄町,安食台２丁目２４番６号,,12,329,2701515,,,,,,,2023-07-03,1,,,,,リリーブ,0
876,4040003022876,新規,0,2023-07-03,2023-07-03,合同会社ボトムアップ,,合同会社,千葉県,佐倉市,下志津１０８７番地１,,12,212,2850841,,,,,,,2023-07-03,1,,,,,ボトムアップ,0
877,4040003022884,新規,0,2023-07-03,2023-07-03,合同会社ｍａｋｅ．Ｌ．Ｂ,,合同会社,千葉県,船橋市,本郷町６６３番地３ソレーユ西船橋１０３号,,12,204,2730033,,,,,,,2023-07-03,1,,,,,メイクエルビー,0
884,4050003007612,新規,0,2023-07-03,2023-07-03,合同会社たつのこ,,合同会社,茨城県,龍ケ崎市,佐貫町７５８番地１,,08,208,3010033,,,,,,,2023-07-03,1,,,,,タツノコ,0
889,4070003005011,新規,0,2023-07-03,2023-07-03,合同会社Ｇａｌｅｒａ,,合同会社,群馬県,北群馬郡榛東村,大字新井２５５４番地,,10,344,3703503,,,,,,,2023-07-03,1,,,,,ガレーラ,0
894,4090001018194,新規,0,2023-07-03,2023-07-03,株式会社みずの風,,株式会社,山梨県,南都留郡富士河口湖町,大石１２４番地１,,19,430,4010305,,,,,,,2023-07-03,1,,,,,ミズノカゼ,0
896,4100003007086,新規,0,2023-07-03,2023-07-03,合同会社ＳＴＡＲＴ　ｆａｒｍ,,合同会社,長野県,中野市,大字越７１９番地,,20,211,3830005,,,,,,,2023-07-03,1,,,,,スタートファーム,0
907,4120001256105,新規,0,2023-07-03,2023-07-03,株式会社灑音,,株式会社,大阪府,大阪市北区,長柄東１丁目５さざなみプラザ第三第２１号棟９０３号室,,27,127,5310063,,,,,,,2023-07-03,1,,,,,レイオン,0
908,4120001256113,新規,0,2023-07-03,2023-07-03,株式会社海聞,,株式会社,大阪府,大阪市生野区,巽西３丁目８－２２巽セントポーリア１０６号室,00131039,27,116,5440012,,,,,,,2023-07-03,1,,,,,カイブン,0
911,4120003024402,新規,0,2023-07-03,2023-07-03,合同会社景,,合同会社,大阪府,大阪市北区,梅田１丁目２番２号大阪駅前第２ビル１２－１２,,27,127,5300001,,,,,,,2023-07-03,1,,,,,ケイ,0
915,4120101067807,新規,0,2023-07-03,2023-07-03,村上商事株式会社,,株式会社,大阪府,阪南市,緑ヶ丘３丁目１６－１９,,27,232,5990216,,,,,,,2023-07-03,1,,,,,ムラカミショウジ,0
924,4120905006480,新規,0,2023-07-03,2023-07-03,一般社団法人キッズクラフトラボ,,その他の設立登記法人,大阪府,吹田市,上山田８番１３－６２０号,,27,205,5650872,,,,,,,2023-07-03,1,,,,,キッズクラフトラボ,0
941,4180001156910,新規,0,2023-07-03,2023-07-03,株式会社にしむら食品,,株式会社,愛知県,名古屋市中川区,打出１丁目１３番地,,23,110,4540926,,,,,,,2023-07-03,1,,,,,ニシムラショクヒン,0
942,4180001156919,新規,0,2023-07-03,2023-07-03,株式会社メイクライフ,,株式会社,愛知県,名古屋市名東区,勢子坊１丁目２１２番地の２,,23,115,4650055,,,,,,,2023-07-03,1,,,,,メイクライフ,0
957,4260001038068,新規,0,2023-07-03,2023-07-03,ＴＥＰＰＥＮ株式会社,,株式会社,岡山県,岡山市北区,駅前町１丁目１０番２０号放駒ビル２Ｆ,,33,101,7000023,,,,,,,2023-07-03,1,,,,,テッペン,0
962,4290001102102,新規,0,2023-07-03,2023-07-03,株式会社ＡＤサポート,,株式会社,福岡県,福岡市博多区,住吉４丁目２番１９号,,40,132,8120018,,,,,,,2023-07-03,1,,,,,エーディーサポート,0
963,4290001102110,新規,0,2023-07-03,2023-07-03,株式会社Ｔｗｅｎｔｙ　Ｆｉｖｅ,,株式会社,福岡県,福岡市中央区,天神２丁目２番１２号Ｔ＆Ｊビルディング７Ｆ,,40,133,8100001,,,,,,,2023-07-03,1,,,,,トゥエンティファイブ,0
973,4310001018485,新規,0,2023-07-03,2023-07-03,株式会社佐藤水産,,株式会社,長崎県,佐世保市,下船越町３５２番地１３,,42,202,8571232,,,,,,,2023-07-03,1,,,,,サトウスイサン,0
983,4370003006185,新規,0,2023-07-03,2023-07-03,合同会社真我,,合同会社,宮城県,仙台市泉区,南光台６丁目１７－３６,,04,105,9818003,,,,,,,2023-07-03,1,,,,,シンガ,0
999,4450001014025,新規,0,2023-07-03,2023-07-03,株式会社島田企画,,株式会社,北海道,旭川市,東旭川北一条６丁目９番３号,,01,204,0788251,,,,,,,2023-07-03,1,,,,,シマダキカク,0
1006,4490003001793,新規,0,2023-07-03,2023-07-03,合同会社シンケン,,合同会社,高知県,高知市,孕西町９４番地１２松浦マンション９号,,39,201,7808022,,,,,,,2023-07-03,1,,,,,シンケン,0
1008,4700150063557,新規,0,2023-07-03,2015-10-09,大分企業共済会,,その他,大分県,大分市,大字皆春５７５－４,,44,201,8700131,,,,,,,2015-10-09,1,,,,,オオイタキギヨウキヨウサイカイ,0
1009,4700150115589,新規,0,2023-07-03,2023-07-03,深セン市鴻＿貿易有限公司,00131016,外国会社等,,,,,,,,中国深セン市福田区華強北街道福田社区華強北路１００２号賽格広場１８０３Ｂ,,,,,,2023-07-03,1,,,,,シンセンシコウキョウボウエキユウゲンコウシ,0
1010,4700150117404,新規,0,2023-07-03,2023-07-03,Ｓｈｅｎｚｈｅｎ　Ｌｉｔｉｍｅ　Ｔｅｃｈｎｏｌｏｇｙ　Ｃｏ．，Ｌｔｄ,,外国会社等,,,,,,,,Ｒｏｏｍ　３０１，Ｂｕｉｌｄｉｎｇ　Ｂ，Ｔｏｎｇｚｈｏｕ　Ｅｌｅｃｔｒｏｎｉｃｓ　Ｌｏｎｇｇａｎｇ　Ｆａｃｔｏｒｙ，Ｎｏ．１，Ｂａｏｌｏｎｇ　５ｔｈ　Ｒｏａｄ，Ｂａｏｌｏｎｇ　Ｃｏｍｍｕｎｉｔｙ，Ｂａｏｌｏｎｇ　Ｓｔｒｅｅｔ，Ｌｏｎｇｇａｎｇ　Ｄｉｓｔｒｉｃｔ，Ｓｈｅｎｚｈｅｎ，Ｃｈｉｎａ,,,,,,2023-07-03,1,,,,,シンセンリゲンジダイカギユウゲンコウシ,0
1011,4700150118047,新規,0,2023-07-03,2023-07-03,ｓｈｅｎｚｈｅｎｓｈｉ　ｊｉｎｓｈｅｎｇｔｉａｎ　ｍａｏｙｉ　ｆａｚｈａｎ　ｙｏｕｘｉａｎ　ｇｏｎｇｓｉ,,外国会社等,,,,,,,,Ｃｈｉｎａ，ｇｕａｎｇｄｏｎｇ　ｓｈｅｎｚｈｅｎ　Ｌｏｎｇｇａｎｇ　ｎａｎｗａｎｊｉｅｄａｏ　ｂａｏｌｉｎｇｓｈｅｑｕ　ｇｕｉｆａｎｇｙｕａｎ　２６ｄｏｎｇ　ｌｉｎｇｂｏｊｕ　Ｄ１７０５,,,,,,2023-07-03,1,,,,,シンセンシキンセイデンボウエキハッテンユウゲンコウシ,0
1012,4700150118055,新規,0,2023-07-03,2023-07-03,ｓｈｅｎｚｈｅｎｓｈｉ　ｙｕｅｈｏｎｇｊｉａ　ｓｈｉｐｉｎ　ｙｏｕｘｉａｎ　ｇｏｎｇｓｉ,,外国会社等,,,,,,,,Ｃｈｉｎａ，Ｓｈｅｎｚｈｅｎ　Ｌｏｎｇｇａｎｇ　ｇｕａｎｈｕ　ｊｉｅｄａｏ　ｓｏｎｇｙｕａｎｘｉａ　ｓｈｅｑｕ　ｄａｂｕｔｏｕ　ｌｕ３２６　ｃｈｕａｎｇｘｉｎ　ｇｏｎｇｙｅｙｕａｎ　Ｂ－５０２,,,,,,2023-07-03,1,,,,,シンセンシエツコウカショクヒンユウゲンコウシ,0
1013,4700150118063,新規,0,2023-07-03,2023-07-03,ｇｕａｎｇｚｈｏｕ　ｃｈｅｎｇｓｅｎｍｅｉ　ｓｈｉｐｉｎ　ｙｏｕｘｉａｎ　ｇｏｎｇｓｉ,,外国会社等,,,,,,,,ｈｕａｎｇｐｕｑｕ　ｋｅｈｕｉ　ｙｉｊｉｅ１６ｈａｏ　６０１ｆａｎｇ９０　ｑｉｎｇｃｈｕａｎｇｓｈｅ　ｂａｎｇｏｎｇ　ｋａｗｅｉＡ６８４　ｇｕａｎｇｚｈｏｕ　ｇｕａｎｇｄｏｎｇ，Ｃｈｉｎａ,,,,,,2023-07-03,1,,,,,コウシュウセイシンビショクヒンユウゲンコウシ,0
1014,4700150118071,新規,0,2023-07-03,2023-07-03,ｓｈｅｎｚｈｅｎｓｈｉ　ｈｅｎｇｍｅｉａｎｊｉａｊｕ　ｙｏｕｘｉａｎｇｏｎｇｓｉ,,外国会社等,,,,,,,,ｂａｏａｎｑｕ　ｆｕｈａｉｊｉｅｄａｏ　ｈｅｐｉｎｇｓｈｅｑｕ　ｔｏｎｇｙｉｘｉｎｃｕｎ　ｄｏｎｇｅｒｘｉａｎｇ　１０ｈａｏ　７０２　ｓｈｅｎｚｈｅｎｓｈｉ　ｇｕａｎｇｄｏｎｇｓｈｅｎｇ，Ｃｈｉｎａ,,,,,,2023-07-03,1,,,,,シンセンシコウビアンカキョユウゲンコウシ,0
1015,4700150118088,新規,0,2023-07-03,2023-07-03,Ｂｅｉｊｉｎｇ　Ｙｉ　Ｓｉｃｈｕａｎｇ　Ｔｒａｄｅ　Ｃｏ．，Ｌｔｄ．,,外国会社等,,,,,,,,Ｂｅｉｊｉｎｇ　Ｒｏｏｍ　３０１，４Ｆ，Ｂｕｉｌｄｉｎｇ　９，Ｎｏ．２，Ｘｉｎｇｌｏｎｇ　Ｓｏｕｔｈ　Ｓｔｒｅｅ　Ｋａｎｇｚｈｕａｎｇ　Ｔｏｗｎ　Ｂｅｉｊｉｎｇ　Ｙａｎｑｉｎｇ，ＣＮ,,,,,,2023-07-03,1,,,,,ペキンエキシソウボウエキユウゲンコウシ,0
1016,4700150118096,新規,0,2023-07-03,2023-07-03,ＳＨＥＮＺＨＥＮ　ＴＵＧＡＵ　ＴＥＣＨＮＯＬＯＧＹ　ＣＯ．，ＬＴＤ,,外国会社等,,,,,,,,Ｒｏｏｍ　４０１，Ｂｕｉｌｄｉｎｇ　６，Ｎｏ．５　ＩＮＤＵＳＴＲＩＡＬ　ＺＯＮＥ，Ｔｉａｎｌｉａｏ　Ｃｏｍｍｕｎｉｔｙ，Ｔｉａｎｌｉａｏ　Ｃｏｍｍｕｎｉｔｙ，Ｙｕｔａｎｇ　Ｓｔｒｅｅｔ，Ｇｕａｎｇｍｉｎｇ　Ｄｉｓｔｒｉｃｔ，Ｓｈｅｎｚｈｅｎ，ＧｕａｎｇＤｏｎｇ，ＣＮ,,,,,,2023-07-03,1,,,,,シンセンシトコウカギユウゲンコウシ,0
1017,4700150118105,新規,0,2023-07-03,2023-07-03,ｗｅｉｈａｉ　ｙａｎｇｇｕａｎｇ　ｙｏｕｔｉｎｇ　ｇｕｆｅｎ　ｙｏｕｘｉａｎｇｏｎｇｓｉ,,外国会社等,,,,,,,,ｓｈａｎｄｏｎｇｓｈｅｎｇｗｅｉｈａｉｌｉｎｇａｎｇｊｉｎｇｊｉｊｉｓｈｕｋａｉｆａｑｕ　ｔａｉｗａｎｌｕ４５－１ｈａｏ　Ｗｅｉｈａｉ　Ｓｈａｎｄｏｎｇ　ＣＮ,,,,,,2023-07-03,1,,,,,イカイヨウコウユウテイコフンユウゲンコウシ,0
1018,4700150118113,新規,0,2023-07-03,2023-07-03,ＸＩＡＭＥＮＢＯＱＩＡＯＭＡＯＹＩＹＯＵＸＩＡＮＧＯＮＧＳＩ,,外国会社等,,,,,,,,ＣＮ　Ｆｕｊｉａｎ　Ｘｉａｍｅｎｓｈｉ　ｓｉｍｉｎｇｑｕｊｉｎｑｉａｏｌｕ１０１－７０１,,,,,,2023-07-03,1,,,,,アモイハッキョウボウエキユウゲンコウシ,0
1019,4700150118121,新規,0,2023-07-03,2023-07-03,Ｗｅｎｚｈｏｕｈｏｎｇｑｉａｏｋｅｊｉｙｏｕｘｉａｎｇｏｎｇｓｉ,,外国会社等,,,,,,,,ｒｕｉａｎｓｈｉｊｉｎｇｊｉｋａｉｆａｑｕｔｉａｎｒｕｉｌｕ８８ｈａｏｂｚｈｕａｎｇ５１３ｓｈｉ　ｗｅｎｚｈｏｕｓｈｉ　Ｚｈｅｊｉａｎｇｓｈｅｎｇ,,,,,,2023-07-03,1,,,,,オンシュウホンチャオカギユウゲンコウシ,0
1020,4700150118138,新規,0,2023-07-03,2023-07-03,ｓｈｅｎ　ｚｈｅｎ　ｙｉ　ｌａｉ　ｙａ　ｍａｏ　ｙｉ　ｙｏｕ　ｘｉａｎ　ｇｏｎｇ　ｓｉ,,外国会社等,,,,,,,,ｓｈｅｎ　ｚｈｅｎ　ｓｈｉ　ｌｏｎｇ　ｇａｎｇ　ｑｕ　ｂａｎ　ｔｉａｎ　ｊｉｅ　ｄａｏ　ｘｉａｎｇ　ｊｉａｏ　ｔａｎｇ　ｓｈｅ　ｑｕ　ｊｉａ　ｚｈａｏ　ｙｅ　ｚｈｏｎｇ　ｙａｎｇ　ｇｕａｎｇ　ｃｈａｎｇ　ｓａｎ　ｑｉ　１　ｄｏｎｇ　４　ｈａｏ　ｌｏｕ　Ｂ　ｚｕｏ　３４０１　Ｃｈｉｎａ,,,,,,2023-07-03,1,,,,,シンセンイライヤマオイユウゲンコウシ,0
1021,4700150118146,新規,0,2023-07-03,2023-07-03,Ｙｉｗｕ　Ｓｉｂｏ　Ｎｅｔｗｏｒｋ　Ｔｅｃｈｎｏｌｏｇｙ　Ｌｉｍｉｔｅｄ　Ｃｏｍｐａｎｙ,,外国会社等,,,,,,,,Ｆｌｏｏｒ　３　Ｎｏ．３１１　Ｗａｎｇｄａｏ　Ｒｏａｄ　Ｂｅｉｙｕａｎ　Ｓｔｒｅｅｔ　Ｙｉｗｕ　Ｚｈｅｊｉａｎｇ　Ｃｈｉｎａ,,,,,,2023-07-03,1,,,,,イウシボネットワークテクノロジーリミテッドカンパニー,0
1022,4700150118154,新規,0,2023-07-03,2023-07-03,ＷＩＬＳＯＮ　ＡＲＴＷＥＬＬ　ＰＴＹ　ＬＴＤ,,外国会社等,,,,,,,,５　Ｄａｖｉｓｏｎ　Ｓｔｒｅｅｔ　Ｍｏｕｎｔ　Ｗａｖｅｒｌｅｙ　ＶＩＣ　３１４９　ＡＵ　Ａｕｓｔｒａｌｉａ,,,,,,2023-07-03,1,,,,,ウィルソンアートウェルプロプラィエタリーリミテッド,0
1023,4700150118162,新規,0,2023-07-03,2023-07-03,Ｑｕａｎｚｈｏｕ　Ｄａｏｃｈｏｎｇ　Ｔｒａｄｉｎｇ　Ｃｏ．，Ｌｔｄ．,,外国会社等,,,,,,,,Ｎｏ．１８７，Ｈｕｚｈｏｎｇ　Ｖｉｌｌａｇｅ　Ｓｏｕｔｈ，Ｃｈｅｎ　Ｔａｉ　Ｔｏｗｎ　Ｐｌａｎｔａ　ｂａｊａ　Ｑｕａｎｚｈｏｕ　Ｊｉｎｊｉａｎｇ　Ｐｒｏｖｉｎｃｉａ　ｄｅ　Ｆｕｊｉａｎ　Ｃｈｉｎａ,,,,,,2023-07-03,1,,,,,ツェンゾォウダオツォントゥレイディングカンパニーリミテッド,0
1024,4700150118170,新規,0,2023-07-03,2023-07-03,ｓｈｅｎ　ｚｈｅｎ　ｓｈｉ　ｙｉｓｕｉｐｕ　ｗｕｊｉｎ　ｋｅｊｉ　ｙｏｕ　ｘｉａｎ　ｇｏｎｇ　ｓｉ,,外国会社等,,,,,,,,ｓｈｅｎｚｈｅｎｓｈｉｇｕａｎｇｍｉｎｇｑｕｇｏｎｇｍｉｎｇｊｉｅｄａｏｓｈａｎｇｃｕｎｓｈｅｑｕ　ｌｉａｎｔａｎｇｇｏｎｇｙｅｃｈｅｎｇＢｑｕｄｉ１５ｄｏｎｇ１０１Ｓｈｅｎｚｈｅｎ　Ｇｕａｎｇ　ｄｏｎｇ　Ｃｈｉｎａ,,,,,,2023-07-03,1,,,,,シンセンシイスイプウジンケジユウゲンコウシ,0
1025,4700150118179,新規,0,2023-07-03,2023-07-03,Ｓｈｅｎｚｈｅｎ　Ｊｉｕｌｉｎｇｑｉｎｇｃｈｕａｎｇ　Ｅ－Ｃｏｍｍｅｒｃｅ　Ｃｏ．，Ｌｔｄ．,,外国会社等,,,,,,,,Ｂｌｏｃｋ　１６Ｃ，Ｌｏｎｇｈｕａ　ｐａｖｉｌｉｏｎ，Ｌｏｎｇｃｈｅｎｇ　Ｇａｒｄｅｎ　Ｙｕｅｈａｉ　Ｓｕｂ－ｄｉｓｔｒｉｃｔ　Ｓｈｅｎｚｈｅｎ　Ｇｕａｎｇｄｏｎｇ,,,,,,2023-07-03,1,,,,,シンセンシキュウゼロケイソウデンシショウムユウゲンコウシ,0
1026,4700150118187,新規,0,2023-07-03,2023-07-03,ｓｈｅｎｚｈｅｎｓｈｉｙｉｈａｉｓｈｉｂｅｉｄｉａｎｚｉｓｈａｎｇｗｕｙｏｕｘｉａｎｇｏｎｇｓｉ,,外国会社等,,,,,,,,ＧｕａｎｇＤｏｎｇ　ｓｈｅｎｚｈｅｎ　Ｌｏｎｇｇａｎｇｑｕｐｉｎｇｈｕｊｉｅｄａｏｈｅｈｕａｓｈｅｑｕｈｕａｎａｎｄａｄａｏ１ｈａｏ　ｈｕａｎａｎｇｕｏｊｉｙｉｎｓｈｕａｚｈｉｐｉｎｇｂａｏｚｈｕａｎｇｗｕｌｉｕｅｒｑｉ２ｈａｏｌｏｕＣ１８２８,,,,,,2023-07-03,1,,,,,シェンジェンシーイーハイシーベイディエンズーシャンウーヨウシエンゴンスー,0
1027,4700150118195,新規,0,2023-07-03,2023-07-03,Ｈａｎｇｚｈｏｕ　Ｙｕｅｎ　Ｔｅｃｈｎｏｌｏｇｙ　Ｃｏ．，Ｌｔｄ,,外国会社等,,,,,,,,Ｒｏｏｍ　３１２，Ｂｕｉｌｄｉｎｇ　１，Ｎｏ．６１１　Ｊｉａｎｇｈｏｎｇ　Ｒｏａｄ，Ｃｈａｎｇｈｅ　Ｓｔｒｅｅｔ，Ｂｉｎｊｉａｎｇ　Ｄｉｓｔｒｉｃｔ，Ｈａｎｇｚｈｏｕ　Ｃｉｔｙ，Ｚｈｅｊｉａｎｇ　Ｐｒｏｖｉｎｃｅ,,,,,,2023-07-03,1,,,,,ハンジョウイーエンコージーヨウシエンゴンスー,0
1048,5010001236562,新規,0,2023-07-03,2023-07-03,株式会社ＺＥＲ０１ＣＨＩ,,株式会社,東京都,千代田区,大手町１丁目７番２号東京サンケイビル２７階,,13,101,1000004,,,,,,,2023-07-03,1,,,,,ゼロイチ,0
1053,5010003041011,新規,0,2023-07-03,2023-07-03,合同会社日天ホーム,,合同会社,東京都,中央区,晴海２丁目３番２－６１７号,,13,102,1040053,,,,,,,2023-07-03,1,,,,,ニッテンホーム,0
1060,5010403030381,新規,0,2023-07-03,2023-07-03,Ｎｅｔｉｍｐ合同会社,,合同会社,東京都,港区,南青山３丁目１番３６号青山丸竹ビル６Ｆ,,13,103,1070062,,,,,,,2023-07-03,1,,,,,ネットインプ,0
1064,5010501050686,新規,0,2023-07-03,2023-07-03,株式会社京一資業,,株式会社,東京都,台東区,千束２丁目３番８号,,13,106,1110031,,,,,,,2023-07-03,1,,,,,キョウイチシギョウ,0
1072,5011001155199,新規,0,2023-07-03,2023-07-03,ＴＡＡＬ　Ｔｅｃｈ株式会社,,株式会社,東京都,渋谷区,代々木２丁目２３番１号,,13,113,1510053,,,,,,,2023-07-03,1,,,,,タールテック,0
1073,5011001155348,新規,0,2023-07-03,2023-07-03,株式会社ＢＲＥＡＫＦＡＳＴ,,株式会社,東京都,目黒区,中目黒２丁目１番２３－２０１号,,13,110,1530061,,,,,,,2023-07-03,1,,,,,ブレックファスト,0
1074,5011001155356,新規,0,2023-07-03,2023-07-03,はじめての占いアカデミー株式会社,,株式会社,東京都,渋谷区,桜丘町２６－１セルリアンタワー１５階,,13,113,1500031,,,,,,,2023-07-03,1,,,,,ハジメテノウラナイアカデミー,0
1076,5011003016911,新規,0,2023-07-03,2023-07-03,合同会社ＳｅｅｋｉｎｇＳｔａｒ,,合同会社,東京都,渋谷区,本町１丁目１５番１号,,13,113,1510071,,,,,,,2023-07-03,1,,,,,シーキングスター,0
1077,5011003017091,新規,0,2023-07-03,2023-07-03,合同会社三宿ｗｏｒｋｓ,,合同会社,東京都,渋谷区,道玄坂１丁目１０番８号渋谷道玄坂東急ビル２Ｆ－Ｃ,,13,113,1500043,,,,,,,2023-07-03,1,,,,,ミシュクワークス,0
1080,5011101103421,新規,0,2023-07-03,2023-07-03,株式会社ＪＡＮＵＡＲＩＥＳ,,株式会社,東京都,新宿区,新宿１丁目２４番１号藤和ハイタウン６０２,,13,104,1600022,,,,,,,2023-07-03,1,,,,,ジャヌアリーズ,0
1081,5011101103446,新規,0,2023-07-03,2023-07-03,株式会社エスエムエス,,株式会社,東京都,新宿区,西新宿３丁目３番１３号西新宿水間ビル２Ｆ,,13,104,1600023,,,,,,,2023-07-03,1,,,,,エスムエムエス,0
1082,5011101103454,新規,0,2023-07-03,2023-07-03,株式会社ｐａｒａｍｉｔａ,,株式会社,東京都,新宿区,西新宿８丁目１４番２４号,,13,104,1600023,,,,,,,2023-07-03,1,,,,,パラミタ,0
1083,5011103013206,新規,0,2023-07-03,2023-07-03,合同会社ファイブ,,合同会社,東京都,新宿区,西新宿３丁目２０番２号,,13,104,1600023,,,,,,,2023-07-03,1,,,,,ファイブ,0
1084,5011103013214,新規,0,2023-07-03,2023-07-03,合同会社白浜カメラ,,合同会社,東京都,新宿区,市谷薬王寺町６１番地イヌイハイム市谷５０４,,13,104,1620063,,,,,,,2023-07-03,1,,,,,シラハマカメラ,0
1106,5020003024130,新規,0,2023-07-03,2023-07-03,合同会社Ｂハーベスト,,合同会社,神奈川県,横浜市港北区,日吉４丁目８番２３号,,14,109,2230061,,,,,,,2023-07-03,1,,,,,ビーハーベスト,0
1107,5020003024139,新規,0,2023-07-03,2023-07-03,合同会社モイテリカ,,合同会社,神奈川県,横浜市港南区,野庭町２２９番地６,,14,111,2340056,,,,,,,2023-07-03,1,,,,,モイテリカ,0
1118,5030001154639,新規,0,2023-07-03,2023-07-03,株式会社Ａｒｏｏｎ,,株式会社,埼玉県,新座市,新堀２丁目８番４０号,,11,230,3520032,,,,,,,2023-07-03,1,,,,,アルーン,0
1119,5030001154647,新規,0,2023-07-03,2023-07-03,株式会社Ｆ．Ｐ,,株式会社,埼玉県,所沢市,大字下富１２６２－２,,11,208,3590001,,,,,,,2023-07-03,1,,,,,エフピー,0
1127,5030005021307,新規,0,2023-07-03,2023-07-03,一般社団法人日本パーソナルトレーナー養成スクール協会,,その他の設立登記法人,埼玉県,戸田市,南町４番１６－１０６号,,11,224,3350025,,,,,,,2023-07-03,1,,,,,ニホンパーソナルトレーナーヨウセイスクールキョウカイ,0
1131,5040001129029,新規,0,2023-07-03,2023-07-03,株式会社雲鶴,,株式会社,千葉県,白井市,冨士１１４－３６,,12,232,2701432,,,,,,,2023-07-03,1,,,,,ウンカク,0
1132,5040001129053,新規,0,2023-07-03,2023-07-03,株式会社根本商事,,株式会社,千葉県,千葉市中央区,要町１１番１３号,,12,101,2600017,,,,,,,2023-07-03,1,,,,,ネモトショウジ,0
1133,5040003022891,新規,0,2023-07-03,2023-07-03,合同会社アンリミテッド,,合同会社,千葉県,千葉市花見川区,検見川町１丁目７２７－４－３０３,,12,102,2620023,,,,,,,2023-07-03,1,,,,,アンリミテッド,0
1147,5080001025694,新規,0,2023-07-03,2023-07-03,株式会社Ｖｉｔａメディカルサービス,,株式会社,静岡県,静岡市葵区,常磐町２丁目１２番地の４タウンコート常磐町２０Ｃ,,22,101,4200034,,,,,,,2023-07-03,1,,,,,ヴィータメディカルサービス,0
1149,5080105006351,新規,0,2023-07-03,2023-07-03,一般社団法人ＭＩＲＡＩ‐ＩＳＡＮ,,その他の設立登記法人,静岡県,沼津市,高沢町１番９号９０７号,,22,203,4100057,,,,,,,2023-07-03,1,,,,,ミライイサン,0
1150,5080403004817,新規,0,2023-07-03,2023-07-03,合同会社まほろ,,合同会社,静岡県,浜松市浜北区,新原３８８２番地の２,,22,136,4340003,,,,,,,2023-07-03,1,,,,,マホロ,0
1157,5090001018193,新規,0,2023-07-03,2023-07-03,株式会社ピースフル,,株式会社,山梨県,富士吉田市,旭５丁目１２番１３号,,19,202,4030012,,,,,,,2023-07-03,1,,,,,ピースフル,0
1159,5090005007580,新規,0,2023-07-03,2023-07-03,一般社団法人ＳＤＧｓ太陽光再生可能エネ推進協会,,その他の設立登記法人,山梨県,甲府市,中央４丁目１１番９号,,19,201,4000032,,,,,,,2023-07-03,1,,,,,エスディージーズタイヨウコウサイセイカノウエネスイシンキョウカイ,0
1160,5100003007085,新規,0,2023-07-03,2023-07-03,合同会社ｅｎ．ｔｏ,,合同会社,長野県,塩尻市,大門八番町１番２８号,,20,215,3990737,,,,,,,2023-07-03,1,,,,,エント,0
1175,5120001256104,新規,0,2023-07-03,2023-07-03,株式会社Ｒａｒａ　ｓｍｉｌｅ,,株式会社,大阪府,大阪市西区,北堀江２丁目２番２４号ＰａｒｋＬａｎｅＨｏｒｉｅＢｌｄ８０６号,,27,106,5500014,,,,,,,2023-07-03,1,,,,,ララスマイル,0
1176,5120001256137,新規,0,2023-07-03,2023-07-03,株式会社ｉｘｉａ,,株式会社,大阪府,大阪市都島区,都島北通２丁目８番１６－６０２号,,27,102,5340014,,,,,,,2023-07-03,1,,,,,イキシア,0
1189,5140001130703,新規,0,2023-07-03,2023-07-03,株式会社一商事,,株式会社,兵庫県,神戸市中央区,御幸通３丁目２－４コスモプラザ三宮６１１室,,28,110,6510087,,,,,,,2023-07-03,1,,,,,ハジメショウジ,0
1194,5160001025133,新規,0,2023-07-03,2023-07-03,株式会社創楽舎,,株式会社,滋賀県,蒲生郡竜王町,大字田中２３２番地,,25,384,5202523,,,,,,,2023-07-03,1,,,,,ソウガクシャ,0
1195,5160003002915,新規,0,2023-07-03,2023-07-03,Ｔｒｅ　ｃａｓａ　ｈｏｔｅｌｓ合同会社,,合同会社,滋賀県,大津市,におの浜４丁目１番３１号１０１１号室,,25,201,5200801,,,,,,,2023-07-03,1,,,,,トレカーサホテルズ,0
1196,5170001017666,新規,0,2023-07-03,2023-07-03,株式会社Ｓａｂａｍｂｏｏ,,株式会社,和歌山県,西牟婁郡上富田町,朝来１５４４番地の２,,30,404,6492105,,,,,,,2023-07-03,1,,,,,サバンブー,0
1201,5180001156918,新規,0,2023-07-03,2023-07-03,ｍｉｒｏｋｕ株式会社,,株式会社,愛知県,名古屋市中区,大須３丁目１４番５５号,,23,106,4600011,,,,,,,2023-07-03,1,,,,,ミロク,0
1203,5180003025410,新規,0,2023-07-03,2023-07-03,合同会社Ｌｅａｄ　Ｅｘｐｒｅｓｓ,,合同会社,愛知県,あま市,甚目寺飛殿３５－１,,23,237,4901111,,,,,,,2023-07-03,1,,,,,リードエクスプレス,0
1206,5180005020277,新規,0,2023-07-03,2023-07-03,一般社団法人もっと身近な政治研究会,,その他の設立登記法人,愛知県,春日井市,角崎町７７番地ロイヤルシャトー勝川ＩＩ２０４号,00131040,23,206,4860943,,,,,,,2023-07-03,1,,,,,モットミジカナセイジケンキュウカイ,0
1213,5190001030535,新規,0,2023-07-03,2023-07-03,株式会社ＬＷ　ＪＡＰＡＮ,,株式会社,三重県,四日市市,小山町２２０番地１,,24,202,5121102,,,,,,,2023-07-03,1,,,,,エルダブリュージャパン,0
1218,5230005009315,新規,0,2023-07-03,2023-07-03,一般社団法人ＩＲ　ＳＰＯＲＴＳ,,その他の設立登記法人,富山県,富山市,窪新町４番６１－１５０１号,,16,201,9300842,,,,,,,2023-07-03,1,,,,,アイアールスポーツ,0
1226,5260001038067,新規,0,2023-07-03,2023-07-03,株式会社Ｇｌｏｂａｌ　Ｓｔｅｐ,,株式会社,岡山県,岡山市北区,南方３丁目１０－３１メゾンホワイト１０２,,33,101,7000807,,,,,,,2023-07-03,1,,,,,グローバルステップ,0
1237,5370003006184,新規,0,2023-07-03,2023-07-03,合同会社ＧＡＮＴＺ．,,合同会社,宮城県,仙台市青葉区,国分町２丁目５番１７号ＹＳ５１ビル４階,,04,101,9800803,,,,,,,2023-07-03,1,,,,,ガンツドット,0
1241,5390005009019,新規,0,2023-07-03,2023-07-03,一般社団法人クローバー,,その他の設立登記法人,山形県,長井市,歌丸１２８６番地,,06,209,9930034,,,,,,,2023-07-03,1,,,,,クローバー,0
1243,5410003003813,新規,0,2023-07-03,2023-07-03,合同会社大池地所,,合同会社,秋田県,秋田市,東通１丁目１９番１８号東通ビル１０２号,,05,201,0100003,,,,,,,2023-07-03,1,,,,,オオイケジショ,0
1248,5430001089431,新規,0,2023-07-03,2023-07-03,株式会社ＤＸＩテックサービス,,株式会社,北海道,札幌市東区,北五条東１０丁目１６番地４,,01,103,0650005,,,,,,,2023-07-03,1,,,,,ディーエックスアイテックサービス,0
1251,5470001019681,新規,0,2023-07-03,2023-07-03,ＭＨＩＥＣ　ＥＮＶＩＲＯＮＭＥＮＴＡＬ＆ＣＨＥＭＩＣＡＬ　ＥＮＧＩＮＥＥＲＩＮＧ株式会社,,株式会社,香川県,高松市,古新町１番地８富士ロイヤル３０２,,37,201,7600025,,,,,,,2023-07-03,1,,,,,エムエイチアイイーシーエンバイロンメンタルアンドケミカルエンジニニアリング,0
1257,5700150047591,新規,0,2023-07-03,2015-10-09,花垣地区住民自治協議会,,その他,三重県,伊賀市,予野９６６９番地２,,24,216,5181152,,,,,,,2015-10-09,1,,,,,ハナガキチクジユウミンジチキヨウギカイ,0
1258,5700150115076,新規,0,2023-07-03,2023-03-30,家政学図書目録刊行会,,その他,東京都,新宿区,西早稲田２丁目３－２６株式会社日本アド　内,,13,104,1690051,,,,,,,2023-03-30,1,,,,,カセイガクトシヨモクロクカンコウカイ,0
1259,5700150115266,新規,0,2023-07-03,2023-07-03,湖北九鳳来儀国際貿易有限公司,,外国会社等,,,,,,,,中国湖北省武漢市江夏区蔵龍島弁事処長咀村黎明機電産業園二期１棟２単元２層９室,,,,,,2023-07-03,1,,,,,コホクキュウホウライギコクサイボウエキユウゲンコウシ,0
1260,5700150116958,新規,0,2023-07-03,2023-06-07,オーベルグランディオ八王子エアーズ管理組合,,その他,東京都,八王子市,八幡町４－１１,,13,201,1920053,,,,,,,2023-06-07,1,,,,,オーベルグランデイオハチオウジエアーズカンリクミアイ,0
1261,5700150118046,新規,0,2023-07-03,2023-07-03,Ｓｈｅｎｚｈｅｎｓｈｉ　Ｓｕｍ　ａｉｄａｄｉａｎｚｉｓｈａｎｇｗｕ　ＣＯ　ＬＴＤ,,外国会社等,,,,,,,,Ｎａｎｓｈａｎｑｕｎａｎｓｈａｎｊｉｅｄａｏｎａｎｘｉｎｌｕ　ＹａｎｇｇｕａｎｇｋｅｃｈｕａｎｇｚｈｏｎｇｘｉｎＡｚｕｏ　Ｓｈｅｎｚｈｅｎ　Ｇｕａｎｇｄｏｎｇ　５１８０００　ＣＮ,,,,,,2023-07-03,1,,,,,シンセンシソクマイタツデンシショウムユウゲンコウシ,0
1262,5700150118054,新規,0,2023-07-03,2023-07-03,ＳＨＥＮＺＨＥＮＳＨＩ　ＨＥＮＧＫＡＩ　ＤＩＡＮＺＩ　ＳＨＡＮＧＷＵ　ＹＯＵＸＩＡＮ　ＧＯＮＧＳＩ,,外国会社等,,,,,,,,ＣＮ　Ｇｕａｎｇｄｏｎｇ　Ｓｈｅｎｚｈｅｎ　Ｌｏｎｇｇａｎｇｑｕ　ｂａｎｔｉａｎｊｉｅｄａｏ　ｗｕｈｅｓｈｅｑｕ　ｙａｙｕａｎｌｕ　２８ｈａｏ　ｒｏｎｇｃｈｅｎｇｄａｓｈａ　Ａｄｏｎｇ　６０２,,,,,,2023-07-03,1,,,,,シンセンシコウガイデンシショウムユウゲンコウシ,0
1263,5700150118062,新規,0,2023-07-03,2023-07-03,ＧｕａｎｇＺｈｏｕ　ＭｅｉＬａｉ　ＦｕＳｈｉ　ＹｏｕＸｉａｎ　ＧｏｎｇＳｉ,,外国会社等,,,,,,,,Ｃｈｉｎａ，ＧｕａｎｇＤｏｎｇ　ＧｕａｎｇＺｈｏｕ　ＴｉａｎＨｅＱｕ　ＬｏｎｇＤｏｎｇＣｕｉＺｈｕ　ＷｕＸｉａｎｇ１Ｈａｏ４０３,,,,,,2023-07-03,1,,,,,コウシュウビライフクショクユウゲンコウシ,0
1264,5700150118070,新規,0,2023-07-03,2023-07-03,ｗｕｈａｎｓｈｉ　ｄｉｄａｅｒ　ｄｉａｎｚｉ　ｙｏｕｘｉａｎ　ｇｏｎｇｓｉ,,外国会社等,,,,,,,,Ｃｈｉｎａ　Ｗｕｈａｎ　ｗｕｃｈａｎｇ　ｓａｎｊｉａｏｌｕ　ｆｕｘｉｎｇ　ｈｕｉｙｕｓｈｕｉａｎｇｕｏｊｉ　４　ｄｉｋｕａｉ　１－１９Ｆ　１３－１８　ｑｉａｎｃｈｅｎｇ　ｒｕｎｊｉｎｆｕｈｕａｑｉ　Ｃ３８,,,,,,2023-07-03,1,,,,,ブカンシテキタツジデンシユウゲンコウシ,0
1265,5700150118079,新規,0,2023-07-03,2023-07-03,ｈｅｎａｎｓｈｅｎｇ　ｈａｏｙｉｆａｎ　ｄｉａｎｚｉ　ｋｅｊｉ　ｙｏｕｘｉａｎ　ｇｏｎｇｓｉ,,外国会社等,,,,,,,,Ｃｈｉｎａ　ｈｅｎａｎ　ｘｉｎｘｉａｎｇ　ｙａｎｊｉｎｘｉａｎ　ｃｈｅｎｇｇｕａｎｚｈｅｎ　ｒｅｎｍｉｎｌｕ　６７　ｃａｉｆｕ　ｄａｓｈａ　１０ｌｏｕ,,,,,,2023-07-03,1,,,,,カナンショウゴウイクボンデンシカギユウゲンコウシ,0
1266,5700150118087,新規,0,2023-07-03,2023-07-03,Ｎｏｒｔｈｅｒｎ　Ｓｔｏｎｅ　Ｌｉｍｉｔｅｄ,,外国会社等,,,,,,,,Ｕｎｉｔ　８１１　Ｂｅｖｅｒｌｅｙ　Ｃｏｍｍｅｒｃｉａｌ　ＣＴＲ　８７－１０５　Ｃｈａｔｈａｍ　Ｒｏａｄ　Ｓｏｕｔｈ　Ｔｓｉｍ　Ｓｈａ　Ｔｓｕｉ　ＫＬ，Ｃｈｉｎａ,,,,,,2023-07-03,1,,,,,ノーザーンストーン,0
1267,5700150118095,新規,0,2023-07-03,2023-07-03,ＳＨＥＮＺＨＥＮ　ＪＩＪＩＡ　ＴＥＣＨＮＯＬＯＧＹ　ＣＯ．，ＬＴＤ,,外国会社等,,,,,,,,Ｃｈｉｎａ，ＧｕａｎｇＤｏｎｇ　ｓｈｅｎｚｈｅｎ　ｎａｎｓｈａｎｑｕ，ｎａｎｔｏｕｊｉｅｄａｏ　ｄａｗａｎｇｓｈａｎｓｈｅｑｕ，ｔａｏｙｕａｎｌｕ８　ｈａｏｔｉａｎｘｉａｇｕｏｊｉｚｈｏｎｇｘｉｎＢｚｕｏ２００２,,,,,,2023-07-03,1,,,,,シンセンシキョッカカギユウゲンコウシ,0
1268,5700150118104,新規,0,2023-07-03,2023-07-03,Ｌｕｏｙａｎｇ　ｋａｌｅｓｉ　ｍａｏｙｉｙｏｕｘｉａｎｇｏｎｇｓｉ,,外国会社等,,,,,,,,Ｋａｉｙｕａｎ　Ｄａｄａо　２１０　ｈａｏ，１２０５　ｓｈｉ，Ｊｉａｎｙｅ　Ｚｈｉｈｕｉｇａｎｇ　Ｌｕｏｙａｎｇ　Ｈｅｎａｎ，Ｃｈｉｎａ,,,,,,2023-07-03,1,,,,,ラクヨウカラクシボウエキユウゲンコウシ,0
1269,5700150118112,新規,0,2023-07-03,2023-07-03,ｈｅｙｕａｎｓｈｉ　ｊｉｎｇｑｉｎ　ｋｅｊｉ　ｙｏｕｘｉａｎ　ｇｏｎｇｓｉ,,外国会社等,,,,,,,,ｈｅｙｕａｎ　ｄａｄａｏ　ｄｏｎｇｂｉａｎ　ｎｏｎｇｃｈａｎｇｌｕ　ｎａｎｂｉａｎ　ｋｅｙａｎｌｏｕ　ｓａｎｌｏｕ　ｄｏｎｇｃｅ　Ｈｅｙｕａｎ　Ｇｕａｎｇｄｏｎｇ，Ｃｈｉｎａ,,,,,,2023-07-03,1,,,,,カゲンシキョウキンカギユウゲンコウシ,0
1270,5700150118120,新規,0,2023-07-03,2023-07-03,ＦＯ　ＳＨＡＮ　ＳＨＩ　ＴＥ　ＤＡ　ＳＨＥ　ＹＩＮＧ　ＱＩ　ＣＡＩ　ＹＯＵ　ＸＩＡＮ　ＧＯＮＧ　ＳＩ,,外国会社等,,,,,,,,ｇｕａｎｇｄｏｎｇ　ｆｏｓｈａｎｓｈｉｎａｎｈａｉｑｕ　ｌｉｓｈｕｉｚｈｅｎ　ｄｅｓｈｅｎｇｃｕｎ　ｄｅｊｉｎｇｏｎｇｙｅｑｕ　ｍｅｉｇａｎｇｌｕ１ｈａｏｚｈｉｅｒ,,,,,,2023-07-03,1,,,,,フォーシャンシーターダーショーインチーツァイヨウシエンゴンスー,0
1271,5700150118129,新規,0,2023-07-03,2023-07-03,Ｓｈｅｎｚｈｅｎｓｈｉ　Ｌｉａｎｃｈｅｎｇｗｅｉｙｅ　Ｓｈｉｙｅｙｏｕｘｉａｎｇｏｎｇｓｉ,,外国会社等,,,,,,,,ｂａｏ　ａｎ　ｑｕｆｕ　ｈａｉ　ｊｉｅ　ｄａｏ　ｘｉｎ　ｈｅ　ｓｈｅ　ｑｕ　ｆｕ　ｑｉａｏ　ｓａｎ　ｑｕ　ｅｒ　ｑｉ　ｃｈａｎｇ　ｆａｎｇ　Ａ１５２ｃｅｎｇ　ｓｈｅｎ　ｚｈｅｎ　ｓｈｉ　ｇｕａｎｇ　ｄｏｎｇ　ｓｈｅｎｇ　Ｃｈｉｎａ,,,,,,2023-07-03,1,,,,,シンセンシレンチェンウェイイェシイェユウゲンコウシ,0
1272,5700150118137,新規,0,2023-07-03,2023-07-03,ｓｈｅｎｚｈｅｎｓｈｉ　ｙａｓｈａｎｇｔｅｆｕｓｈｉ　ｙｏｕｘｉａｎｇｏｎｇｓｉ,,外国会社等,,,,,,,,ｈｕａｑｉａｎｇｂｅｉｊｉｅｄａｏｈｕａｑｉａｎｇｂｅｉｌｕｑｕｎｘｉｎｇｇｕａｎｇｃｈａｎｇＡ１００６　ｆｕｔｉａｎｑｕ　ｓｈｅｎｚｈｅｎｓｈｉ　Ｃｈｉｎａ,,,,,,2023-07-03,1,,,,,シンセンシヤサンテフシユウゲンコウシ,0
1273,5700150118145,新規,0,2023-07-03,2023-07-03,ｗｕｈａｎ　ｅｎｔａｉｚｅｄｉａｎｚｉｓｈａｎｇｗｕ　ｙｏｕｘｉａｎｇｏｎｇｓｉ,,外国会社等,,,,,,,,ｊｉａｎｇｘｉａｑｕ　ｚｈｉｆａｎｇｊｉｅ　ｆｅｎｇｓｈｏｕｃｕｎ　２ｚｕｔａｎｇｊｉａｏｌｉ４２ｈａｏ　ｗｕｈａｎｓｈｉ　ｈｕｂｅｉｓｈｅｎｇ　Ｃｈｉｎａ,,,,,,2023-07-03,1,,,,,ウハンエンタイゼデンシシャンウユウゲンコウシ,0
1274,5700150118153,新規,0,2023-07-03,2023-07-03,Ｓｈｅｎｚｈｅｎ　Ｘｉｎｙｅ　Ｐｒｏｄｕｃｔｓ　Ｔｅｃｈｎｏｌｏｇｙ　Ｃｏ．，Ｌｔｄ．,,外国会社等,,,,,,,,Ｓｅｃｏｎｄ　ｆｌｏｏｒ，Ｎｏ．２５７，Ｓｈａｎｇｗｕ　Ａｖｅｎｕｅ，Ｓｈａｎｇｗｕ　Ｃｏｍｍｕｎｉｔｙ，Ｓｈｉｙａｎ　Ｓｔｒｅｅｔ　Ｂａｏａｎ　Ｄｉｓｔｒｉｃｔ，Ｓｈｅｎｚｈｅｎ　Ｃｉｔｙ，Ｇｕａｎｇｄｏｎｇ　Ｐｒｏｖｉｎｃｅ　Ｃｈｉｎａ,,,,,,2023-07-03,1,,,,,シンセンシンイェプロダクツテクノロジーカンパニーリミテッド,0
1275,5700150118161,新規,0,2023-07-03,2023-07-03,Ｇｕａｎｇｄｏｎｇ　Ｂｃｏｍ　Ｅｌｅｃｔｒｏｎｉｃ　Ｔｅｃｈｎｏｌｏｇｙ　Ｃｏ　Ｌｔｄ,,外国会社等,,,,,,,,５０１Ｂ，Ｂｕｉｌｄｉｎｇ　６，Ｎｏ．１９　Ｙｏｎｇｔｉａｎ　Ｒｏａｄ，Ｘｉａｎｇｚｈｏｕ　Ｄｉｓｔｒｉｃｔ　ＺｈｕＨａｉ　ＧｕａｎｇＤｏｎｇ　Ｃｈｉｎａ,,,,,,2023-07-03,1,,,,,カントンビーコムイレクトゥロニックテクノロジーカンパニーリミテッド,0
1276,5700150118178,新規,0,2023-07-03,2023-07-03,ＩＦＲＳ財団　アジア・オセアニアオフィス,,外国会社等,東京都,千代田区,大手町１丁目９－７大手町フィナンシャルシティサウスタワー５階,,13,101,1000004,Ｃｏｌｕｍｂｕｓ　Ｂｕｉｌｄｉｎｇ，７　Ｗｅｓｔｆｅｒｒｙ　Ｃｉｒｃｕｓ，Ｃａｎａｒｙ　Ｗｈａｒｆ，Ｌｏｎｄｏｎ　Ｅ１４　４ＨＤ，ＵＫ,,,,,,2023-07-03,1,,,,,アイエフアールエスザイダンアジアオセアニアオフィス,0
1277,5700150118186,新規,0,2023-07-03,2023-07-03,ｓｈｅｎ　ｚｈｅｎ　ｈｕａ　ｋａｉ　ｗｅｉ　ｓｈｉ　ｋｅ　ｊｉ　ｙｏｕ　ｘｉａｎ　ｇｏｎｇ　ｓｉ,,外国会社等,,,,,,,,ｐｉｎｇ　ｓｈａｎ　ｄａ　ｄａｏ　２００９　ｈａｏ　ｚｈｏｎｇ　ｔｉａｎ　ｍｅｉ　ｊｉｎｇ　ｄａ　ｓｈａ　１５１１　ｐｉｎｇ　ｓｈａｎ　ｑｕ　ｐｉｎｇ　ｓｈａｎ　ｊｉｅ　ｄａｏ　ｌｉｕ　ｌｉａｎ　ｓｈｅ　ｑｕ　ｓｈｅｎ　ｚｈｅｎ　ｓｈｉ　ｇｕａｎｇ　ｄｏｎｇ　ｓｈｅｎｇ　ＣＮ,,,,,,2023-07-03,1,,,,,シンセンホゥアカイウェイシケジユウゲンコウシ,0
1278,5700150118194,新規,0,2023-07-03,2023-07-03,Ｃｈｕｚｈｏｕ　Ｊｉａｎｌｉｎｇ　Ｅｌｅｃｔｒｏｎｉｃ　Ｃｏｍｍｅｒｃｅ　Ｃｏ．，Ｌｔｄ．,,外国会社等,,,,,,,,Ｒｏｏｍ　１０１，Ｕｎｉｔ　２，Ｂｕｉｌｄｉｎｇ　１３，Ｎｏ．１１６８　Ｆｅｎｇｌｅ　Ａｖｅｎｕｅ（Ｊｉｎｐｅｎｇ　Ｌｕｓｈａｎ　Ｇａｒｄｅｎ），Ｎａｎｑｉａｏ　Ｄｉｓｔｒｉｃｔ，Ｃｈｕｚｈｏｕ　Ｃｉｔｙ，Ａｎｈｕｉ　Ｐｒｏｖｉｎｃｅ　２３９０００ＣＮ,,,,,,2023-07-03,1,,,,,チュージョウジエンリンディエンズーシャンウーヨウシエンゴンスー,0
1290,6010001236537,新規,0,2023-07-03,2023-07-03,株式会社Ｂｒｉｇｈｔ　Ｓｕｎｓｈｉｎｅ　Ｉｎｔｅｒｎａｔｉｏｎａｌ,,株式会社,東京都,千代田区,神田岩本町１番地２３ＶＯＲＴ秋葉原ＩＩＩ７階,00131031,13,101,1010033,,,,,,,2023-07-03,1,,,,,ブライトサンシャインインターナショナル,0
1291,6010001236545,新規,0,2023-07-03,2023-07-03,株式会社エムケイフーズプラス,,株式会社,東京都,中央区,銀座７丁目１３番２０号銀座ＴＨビル９Ｆ,,13,102,1040061,,,,,,,2023-07-03,1,,,,,エムケイフーズプラス,0
1294,6010003041010,新規,0,2023-07-03,2023-07-03,合同会社日天アセット,,合同会社,東京都,中央区,晴海２丁目３番２－６１７号,,13,102,1040053,,,,,,,2023-07-03,1,,,,,ニッテンアセット,0
1305,6010401175178,新規,0,2023-07-03,2023-07-03,株式会社さくらプロジェクト,,株式会社,東京都,港区,台場１丁目５番６－３０７号,,13,103,1350091,,,,,,,2023-07-03,1,,,,,サクラプロジェクト,0
1323,6011001155446,新規,0,2023-07-03,2023-07-03,株式会社エカラノ,,株式会社,東京都,目黒区,柿の木坂１丁目２８－１５ーザパークハビオ３０３,,13,110,1520022,,,,,,,2023-07-03,1,,,,,エカラノ,0
1324,6011005010127,新規,0,2023-07-03,2023-07-03,特定非営利活動法人新時代キャリアサポート,,その他の設立登記法人,東京都,渋谷区,本町４丁目８番１０号ブライト西新宿Ｂ２０１号室,,13,113,1510071,,,,,,,2023-07-03,1,,,,,シンジダイキャリアサポート,0
1325,6011101103412,新規,0,2023-07-03,2023-07-03,ミズノアセットマネジメント株式会社,,株式会社,東京都,新宿区,西新宿６丁目６番３号新宿国際ビルディング新館８階,,13,104,1600023,,,,,,,2023-07-03,1,,,,,ミズノアセットマネジメント,0
1326,6011101103429,新規,0,2023-07-03,2023-07-03,シン・コンサルティング株式会社,,株式会社,東京都,新宿区,西新宿６丁目１２番７－８０４号,,13,104,1600023,,,,,,,2023-07-03,1,,,,,シンコンサルティング,0
1327,6011101103453,新規,0,2023-07-03,2023-07-03,益成株式会社,,株式会社,東京都,新宿区,大久保２丁目１番３号,,13,104,1690072,,,,,,,2023-07-03,1,,,,,マスナリ,0
1330,6011103013205,新規,0,2023-07-03,2023-07-03,合同会社ＫＯＵＦＵＫＵ,,合同会社,東京都,新宿区,四谷坂町１番７号,,13,104,1600002,,,,,,,2023-07-03,1,,,,,コウフク,0
1331,6011103013213,新規,0,2023-07-03,2023-07-03,大久保ホーム合同会社,,合同会社,東京都,新宿区,大久保２丁目１７番１７号,,13,104,1690072,,,,,,,2023-07-03,1,,,,,オオクボホーム,0
1343,6011803005716,新規,0,2023-07-03,2023-07-03,遊技日本合同会社,,合同会社,東京都,葛飾区,亀有５丁目４４番１２号,,13,122,1250061,,,,,,,2023-07-03,1,,,,,ユウギニッポン,0
1353,6020001152270,新規,0,2023-07-03,2023-07-03,株式会社ＴｈｅＳｕｎ,,株式会社,神奈川県,川崎市宮前区,西野川２丁目１番３３号,,14,136,2160044,,,,,,,2023-07-03,1,,,,,ザサン,0
1368,6030001154670,新規,0,2023-07-03,2023-07-03,ＳａｎＪｏ株式会社,,株式会社,埼玉県,草加市,中根３丁目１－３１アルファグランデ草加松原２０９,,11,221,3400005,,,,,,,2023-07-03,1,,,,,サンジョウ,0
1374,6030003021877,新規,0,2023-07-03,2023-07-03,金徳合同会社,,合同会社,埼玉県,蕨市,中央３丁目５番１号中央マンション４１１,,11,223,3350004,,,,,,,2023-07-03,1,,,,,キントク,0
1375,6030003022074,新規,0,2023-07-03,2023-07-03,ＴＲＩＯ合同会社,,合同会社,埼玉県,入間郡三芳町,大字竹間沢４４７番地１９,,11,324,3540043,,,,,,,2023-07-03,1,,,,,トリオ,0
1380,6040001129044,新規,0,2023-07-03,2023-07-03,株式会社泰人つばき工務店,,株式会社,千葉県,木更津市,真舟５丁目１５－１９,,12,206,2920802,,,,,,,2023-07-03,1,,,,,ヤスヒトツバキコウムテン,0
1381,6040001129052,新規,0,2023-07-03,2023-07-03,株式会社ＷＡＫＵ　ｄｅｓｉｇｎ,,株式会社,千葉県,柏市,若柴１７８番地４柏の葉キャンパス１４８街区１パークシティ柏の葉キャンパスザ・ゲートタワーウェスト３Ｆ,,12,217,2770871,,,,,,,2023-07-03,1,,,,,ワクデザイン,0
1388,6040003022874,新規,0,2023-07-03,2023-07-03,ＮＦＥ合同会社,,合同会社,千葉県,松戸市,大谷口１９１番地の１７,,12,207,2700005,,,,,,,2023-07-03,1,,,,,エヌエフイー,0
1389,6040003022890,新規,0,2023-07-03,2023-07-03,合同会社エキスプレス,,合同会社,千葉県,千葉市花見川区,検見川町１丁目７２７－４－３０３,,12,102,2620023,,,,,,,2023-07-03,1,,,,,エキスプレス,0
1391,6040005022014,新規,0,2023-07-03,2023-07-03,一般社団法人むげんながら,,その他の設立登記法人,千葉県,長生郡長柄町,刑部５２番地２,,12,426,2970225,,,,,,,2023-07-03,1,,,,,ムゲンナガラ,0
1400,6080001025693,新規,0,2023-07-03,2023-07-03,株式会社ＭＡＳＵ＆Ｋ,,株式会社,静岡県,焼津市,三和７２１番地１,,22,212,4250064,,,,,,,2023-07-03,1,,,,,マスアンドケイ,0
1406,6080105006350,新規,0,2023-07-03,2023-07-03,一般社団法人ＩＷＩＡ,,その他の設立登記法人,静岡県,伊東市,八幡野１３０７番地の５,,22,208,4130232,,,,,,,2023-07-03,1,,,,,アイダブリューアイエー,0
1431,6130001074644,新規,0,2023-07-03,2023-07-03,株式会社アスカ技研,,株式会社,京都府,京都市右京区,西京極末広町６ルミエール西京極２０５号,,26,108,6150845,,,,,,,2023-07-03,1,,,,,アスカギケン,0
1432,6140001130693,新規,0,2023-07-03,2023-07-03,ＳＯＲＡ　Ｃｏｍｍｕｎｉｃａｔｉｏｎｓ株式会社,,株式会社,兵庫県,神戸市東灘区,御影山手３丁目３番２－８０４号,,28,101,6580065,,,,,,,2023-07-03,1,,,,,ソラコミュニケーションズ,0
1435,6150001026511,新規,0,2023-07-03,2023-07-03,株式会社ＰＬＡＣＥ,,株式会社,奈良県,奈良市,帝塚山５丁目６番２５号,00131030,29,201,6310062,,,,,,,2023-07-03,1,,,,,プレイス,0
1436,6160003002914,新規,0,2023-07-03,2023-07-03,ＹＯＲＩＳＯＩ合同会社,,合同会社,滋賀県,彦根市,野田山町５５２番地（１０１号）,,25,202,5220025,,,,,,,2023-07-03,1,,,,,ヨリソイ,0
1437,6170001017665,新規,0,2023-07-03,2023-07-03,株式会社ＭＯＧＭＯＧ,,株式会社,和歌山県,和歌山市,神前１２８番地６,,30,201,6408314,,,,,,,2023-07-03,1,,,,,モグモグ,0
1442,6180301037511,新規,0,2023-07-03,2023-07-03,株式会社ＧＥＭＳＴＯＮＥ,,株式会社,愛知県,豊田市,深見町常楽３７９番地７,,23,211,4700441,,,,,,,2023-07-03,1,,,,,ジェムストーン,0
1446,6190005011836,新規,0,2023-07-03,2023-07-03,一般社団法人三重サイクリング協会,,その他の設立登記法人,三重県,伊賀市,印代２８１番地,,24,216,5180008,,,,,,,2023-07-03,1,,,,,ミエサイクリングキョウカイ,0
1466,6260001038066,新規,0,2023-07-03,2023-07-03,株式会社ＨｉＶＥ,,株式会社,岡山県,岡山市南区,西市４９３番地２アルファステイツツインズＩ７０６号室,00131033,33,104,7000953,,,,,,,2023-07-03,1,,,,,ハイヴ,0
1469,6260003004347,新規,0,2023-07-03,2023-07-03,ＲＥＤＥＡＬ合同会社,,合同会社,岡山県,倉敷市,徳芳１５６番地２イデアーレ中庄Ａ２０６号室,,33,202,7100011,,,,,,,2023-07-03,1,,,,,リディール,0
1477,6310001018483,新規,0,2023-07-03,2023-07-03,株式会社中村機工,,株式会社,長崎県,長崎市,戸町２丁目４番４１号,,42,201,8500952,,,,,,,2023-07-03,1,,,,,ナカムラキコウ,0
1478,6340005009625,新規,0,2023-07-03,2023-07-03,特定非営利活動法人奄美大島サステナブル共同体,,その他の設立登記法人,鹿児島県,奄美市,名瀬大字小宿７３番地１,,46,222,8940046,,,,,,,2023-07-03,1,,,,,アマミオオシマサステナブルキョウドウタイ,0
1481,6360001032208,新規,0,2023-07-03,2023-07-03,株式会社ＢＬＵＥ　ＯＮＥ,,株式会社,沖縄県,国頭郡本部町,字健堅１１４３番地,,47,308,9050226,,,,,,,2023-07-03,1,,,,,ブルーワン,0
1488,6390003002115,新規,0,2023-07-03,2023-07-03,合同会社ダンクスタジオ,,合同会社,山形県,鶴岡市,切添町５番３０号,,06,203,9970022,,,,,,,2023-07-03,1,,,,,ダンクスタジオ,0
1490,6390005009018,新規,0,2023-07-03,2023-07-03,特定非営利活動法人こみっとＡＦＣ,,その他の設立登記法人,山形県,鶴岡市,熊出字日鑓８７番地,,06,203,9970411,,,,,,,2023-07-03,1,,,,,コミットエイエフシー,0
1495,6430001089406,新規,0,2023-07-03,2023-07-03,ＳＴＲＥＡＭ　Ｍａｎａｇｅｍｅｎｔ株式会社,,株式会社,北海道,磯谷郡蘭越町,字湯里７００番地３２,,01,394,0481321,,,,,,,2023-07-03,1,,,,,ストリームマネジメント,0
1497,6460001005806,新規,0,2023-07-03,2023-07-03,株式会社ＮＯＲＴＨ　ＤＥＥＲ蝦夷八,,株式会社,北海道,川上郡標茶町,常盤７丁目２０番地,,01,664,0882313,,,,,,,2023-07-03,1,,,,,ノースディアエゾハチ,0
1500,6700150115265,新規,0,2023-07-03,2023-07-03,山東広佳縄網有限公司,,外国会社等,,,,,,,,中国山東省浜州市恵民県姜楼鎮蘭家村,,,,,,2023-07-03,1,,,,,サントウコウカジョウモウユウゲンコウシ,0
1501,6700150115587,新規,0,2023-07-03,2023-07-03,深セン市欧西克斯貿易有限公司,,外国会社等,,,,,,,,中国深セン市龍崗区龍崗街道龍崗中心城龍翔大道９００９号珠江国際中心５０５室,,,,,,2023-07-03,1,,,,,シンセンシオウサイコクシボウエキユウゲンコウシ,0
1502,6700150117402,新規,0,2023-07-03,2023-07-03,ａｎｈｕｉ　ｈｕａｑｉ　ｑｉｃｈｅ　ｚｈｕａｎｇｓｈｉ　ｙｏｕｘｉａｎｇｏｎｇｓｉ,,外国会社等,,,,,,,,３Ｆ，２Ｂ，Ｉｎｄｕｓｔｒｉａｌ　Ｐａｒｋ　Ｗｅｉｙｉ　Ｒｏａｄ　ａｎｄ　Ｐｒｏｖｉｎｃｉａｌ　Ｈｉｇｈｗａｙ　３１８　ｉｎ　Ｆｕｎａｎ　Ｆｕｙａｎｇ，Ａｎｈｕｉ　ＣＮ,,,,,,2023-07-03,1,,,,,アンキカキキシャソウショクユウゲンコウシ,0
1503,6700150118053,新規,0,2023-07-03,2023-07-03,ＳＨＥＮＺＨＥＮ　ＱＩＡＮＨＡＩ　ＢＯＫＡＩＭＡＩ　ＫＥＪＩ　ＹＯＵＸＩＡＮ　ＧＯＮＧＳＩ,,外国会社等,,,,,,,,ＱＩＡＮＨＡＩ　ＳＨＥＮＧＡＮＧ　ＨＥＺＵＯ　ＱＵ　ｎａｎｓｈａｎｊｉｅｄａｏ　ｌｉｎｈａｉｄａｄａｏ　５９ｈａｏ　ｈａｉｙｕｎｚｈｏｎｇｘｉｎ　ｋｏｕａｎｌｏｕ　３ｌｏｕ　Ｇ３７８　Ｓｈｅｎｚｈｅｎ　Ｇｕａｎｇｄｏｎｇ,,,,,,2023-07-03,1,,,,,シンセンシゼンカイハクガイマイカギユウゲンコウシ,0
1504,6700150118061,新規,0,2023-07-03,2023-07-03,ｓｈｅｎ　ｚｈｅｎ　ｓｈｉ　ｄｅ　ｓｈｉ　ｊｉａ　ｍａｏ　ｙｉ　ｙｏｕ　ｘｉａｎ　ｇｏｎｇ　ｓｉ,,外国会社等,,,,,,,,ｎａｎ　ｓｈａｎ　ｑｕ　ｎａｎ　ｙｏｕ　ｄａ　ｄａｏ　ｂａｏ　ｌｉ　ｃｈｅｎｇ　ｈｕａ　ｙｕａｎ　１＃，２＃ｌｏｕ　ｓｈａｎｇ　ｐｕ　１０８Ａ　ｓｈｅｎ　ｚｈｅｎ　ｓｈｉ　ｇｕａｎｇ　ｄｏｎｇ　ｓｈｅｎｇ　Ｃｈｉｎａ,,,,,,2023-07-03,1,,,,,シンセンシトクシカボウエキユウゲンコウシ,0
1505,6700150118078,新規,0,2023-07-03,2023-07-03,ｓｈｅｎｚｈｅｎｓｈｉ　ｌｉａｎｈｅｃｈｕａｎｇ　ｍａｏｙｉ　ｆａｚｈａｎ　ｙｏｕｘｉａｎｇｏｎｇｓｉ,,外国会社等,,,,,,,,ｆｕｈａｉｘｉｎｘｉｇａｎｇＡ１ｄｏｎｇ２０２　ｂａｏａｎｑｕ，ｆｕｈａｉｊｉｅｄａｏ，ｑｉａｏｔｏｕｓｈｅｑｕ，ｓｈｅｎｚｈｅｎｓｈｉ，ｇｕａｎｇｄｏｎｇ，Ｃｈｉｎａ,,,,,,2023-07-03,1,,,,,シンセンシレンワソウボウエキハッテンユウゲンコウシ,0
1506,6700150118086,新規,0,2023-07-03,2023-07-03,Ｓｈｅｎｚｈｅｎｓｈｉｔａｉｐｉｎｇｙａｎｇｓｈａｎｇｙｅｍａｏｙｉｙｏｕｘｉａｎｇｏｎｇｓｉ,,外国会社等,,,,,,,,ｆｕａｎｓｈｅｑｕ　ｆｕｈｕａｙｉｌｕ　１３８ｈａｏ　ｇｕｏｊｉ　ｓｈａｎｇｈｕｉ　ｄａｓｈａ　Ａ　ｄｏｎｇ７０９－Ｆ５，　ｆｕｔｉａｎ　ｊｉｅｄａｏ，　ｆｕｔｉａｎｑｕ，ｓｈｅｎｚｈｅｎ，ｇｕａｎｇｄｏｎｇ　Ｃｈｉｎａ,,,,,,2023-07-03,1,,,,,シンセンシタイヘイヨウショウギョウボウエキユウゲンコウシ,0
1507,6700150118094,新規,0,2023-07-03,2023-07-03,ＳＨＥＮＺＨＥＮ　ＰＲＩＭＥ　ＤＩＧＩＴＡＬ　ＣＯ．，ＬＴＤ,,外国会社等,,,,,,,,Ｈｕａｑｉａｎｇ　Ｎｏｒｔｈ　Ｓａｉｇｅ　Ｐｌａｚａ　３１０７Ｂ　Ｆｕｔｉａｎ　Ｓｈｅｎｚｈｅｎ　Ｇｕａｎｇｄｏｎｇ　Ｃｈｉｎａ,,,,,,2023-07-03,1,,,,,シンセンシフリビスウマユウゲンコウシ,0
1508,6700150118103,新規,0,2023-07-03,2023-07-03,ｓｈｅｎ　ｚｈｅｎ　ｓｈｉ　ｈａｎ　ｘｉｎ　ｂａｉ　ｆｕ　ｋｅ　ｊｉ　ｙｏｕ　ｘｉａｎ　ｇｏｎｇ　ｓｉ,,外国会社等,,,,,,,,Ｒｏｏｍ　１６１３，Ｄｏｎｇｆｅｎｇ　Ｂｕｉｌｄｉｎｇ，Ｎｏ．２０１０　Ｓｈｅｎｎａｎ　Ｍｉｄｄｌｅ　Ｒｏａｄ，Ｈｕａｑｉａｎｇ　Ｎｏｒｔｈ　Ｓｔｒｅｅｔ，Ｆｕｔｉａｎ　ＤｉｓｔｒｉｃｔＳｈｅｎｚｈｅｎ　Ｃｉｔｙ，Ｇｕａｎｇｄｏｎｇ　Ｐｒｏｖｉｎｃｅ,,,,,,2023-07-03,1,,,,,シンセンシカンキンバイフカギユウゲンコウシ,0
1509,6700150118111,新規,0,2023-07-03,2023-07-03,Ｓｈｅｎｚｈｅｎ　Ｙｏｕｍｉ　Ｉｎｔｅｌｌｉｇｅｎｔ　Ｔｅｃｈｎｏｌｏｇｙ　Ｃｏ．，Ｌｔｄ．,,外国会社等,,,,,,,,Ｒｏｏｍ　４０６－４０７，Ｆｌｏｏｒ　４，Ｊｉｎｑｉｚｈｉｇｕ　Ｂｕｉｌｄｉｎｇ，Ｔａｎｇｌｉｎｇ　Ｒｏａｄ，ＮａｎｓｈａｎＤｉｓｔｒｉｃｔ，Ｓｈｅｎｚｈｅｎ，Ｇｕａｎｇｄｏｎｇ，Ｃｈｉｎａ,,,,,,2023-07-03,1,,,,,シンセンユウベイチノウカギユウゲンコウシ,0
1510,6700150118128,新規,0,2023-07-03,2023-07-03,ＳＨＥＮＺＨＥＮＳＨＩ　ＹＵＥＥＲＳＨＡＮＧ　ＤＩＡＮＺＩ　ＹＯＵＸＩＡＮＧＯＮＧＳＩ,,外国会社等,,,,,,,,Ｌｏｎｇｈｕａｑｕ　Ｌｏｎｇｈｕａｊｉｅｄａｏ　Ｙｏｕｓｏｎｇｓｈｅｑｕ　Ｙｕｘｉｎｇｊｉｔｕａｎ　Ａ　ｑｕ　２　ｃｅｎｇ　２０４　Ｓｈｅｎｚｈｅｎｓｈｉ　Ｇｕａｎｇｄｏｎｇ　Ｃｈｉｎａ,,,,,,2023-07-03,1,,,,,シンセンシユエシャンデンシユウゲンコウシ,0
1511,6700150118136,新規,0,2023-07-03,2023-07-03,ｃｈａｎｇ　ｓｈａ　ｓｈｉ　ｌｉｕ　ｚｈｏｕ　ｄｉａｎ　ｚｉ　ｓｈａｎｇ　ｗｕ　Ｃｏ．，Ｌｔｄ,,外国会社等,,,,,,,,ｇａｏ　ｘｉｎ　ｑｕ　ｌｕ　ｓｏｎｇ　ｌｕ　４５９　ｈａｏ　ｄｏｎｇ　ｆａｎｇ　ｈｏｎｇ　ｘｉａｏ　ｑｕ　ｙａｎ　ｎｏｎｇ　ｚｏｎｇ　ｈｅ　ｌｏｕ　７　ｌｏｕ　ｋａ－５６５　ｃｈａｎｇ　ｓｈａ　ｓｈｉ　ｈｕ　ｎａｎ　ｓｈｅｎｇ　Ｃｈｉｎａ,,,,,,2023-07-03,1,,,,,チャンシャシリュウゾォウデンシシャンウカンパニーリミテッド,0
1512,6700150118144,新規,0,2023-07-03,2023-07-03,Ｆｕｊｉａ　Ｔｉａｎｌｉ　Ｓａｎｉｔａｒｙｗａｒｅ　Ｔｅｃｈｎｏｌｏｇｙ　Ｃｏ．，Ｌｔｄ,,外国会社等,,,,,,,,ＮО．１９．ＣＨＵＡＮＧＸＩＮ　ＲОＡＤ，ＸＩＡＭＥＩ　ＴＯＷＮ，ＮＡＮ’ＡＮ　ＣＩＴＹ（Ｎｏ．１，ＢＩＮＮＡＮ　ＴＨＩＲＤ　ＲＯＡＤ，ＸＩＡＭＥＩ　ＴＯＷＮ，ＮＡＮ’ＡＮ　ＣＩＴＹ）ＱＵＡＮＺＨＯＵ　ＦＵＪＩＡＮ　ＣＨＩＮＡ,,,,,,2023-07-03,1,,,,,フジャテェンリサニタリーウェアテクノロジーカンパニーリミテッド,0
1513,6700150118152,新規,0,2023-07-03,2023-07-03,Ｚｈｅｊｉａｎｇ　Ｑｉｈｕｉ　Ｇｕｏｊｉ　Ｗｕｌｉｕ　Ｙｏｕｘｉａｎｇｏｎｇｓｉ,,外国会社等,,,,,,,,ａｎｊｉｘｉａｎｄｉｐｕｊｉｅｄａｏｌｉｎｇｆｅｎｇｂｅｉｌｕ６８５，６８７ｈａｏｅｒｌｏｕｈｕｚｈｏｕｓｈｉｚｈｅｊｉａｎｇ　Ｃｈｉｎａ,,,,,,2023-07-03,1,,,,,ヂェジャンチフイグオジウリュユウゲンコウシ,0
1514,6700150118160,新規,0,2023-07-03,2023-07-03,ｗａｎｓｈｅｎｇｒｕｉ　ｋｅｊｉ（ｓｈｅｎｚｈｅｎ）ｙｏｕｘｉａｎｇｏｎｇｓｉ,,外国会社等,,,,,,,,２９０５，８ｈａｏｌｏｕ，Ｓａｉｇｅｘｉｎｃｈｅｎｇ　Ｓａｎｌｉａｎｓｈｅｑｕ，Ｊｉｈｕａｊｉｅｄａｏ，Ｌｏｎｇｇａｎｇｑｕ　Ｓｈｅｎｚｈｅｎｓｈｉ　Ｇｕａｎｇｄｏｎｇｓｈｅｎｇ　Ｃｈｉｎａ,,,,,,2023-07-03,1,,,,,ワンシェンルイケジシェンゼェンユウゲンコウシ,0
1515,6700150118169,新規,0,2023-07-03,2023-07-03,ｓｈｅｎｚｈｅｎｓｈｉ　ｈｅｎｇｍａｉｄｉａｎｚｉｓｈａｎｇｗｕ　ｙｏｕｘｉａｎｇｏｎｇｓｉ,,外国会社等,,,,,,,,Ｗｕｈｅ　Ｃｏｍｍｕｎｉｔｙ，Ｂａｎｔｉａｎ　Ｓｔｒｅｅｔ　Ｂｅｒｔｕｓ　Ｓｈｏｐ　１０９　Ｌｏｎｇｇａｎｇ　Ｄｉｓｔｒｉｃｔ，Ｇｕａｎｇｄｏｎｇ　Ｐｒｏｖｉｎｃｅ，Ｓｈｅｎｚｈｅｎ　Ｃｉｔｙ　Ｃｈｉｎａ,,,,,,2023-07-03,1,,,,,シンセンシヘンマイデンシシャンウユウゲンコウシ,0
1516,6700150118177,新規,0,2023-07-03,2023-07-03,ＤＯＮＧＧＵＡＮ　ＲＵＩＢＩ　ＣＨＵＫＯＮＧ　ＪＩＳＨＵ　ＹＯＵＸＩＡＮＧＯＮＧＳＩ,,外国会社等,,,,,,,,Ｘｉｅｇａｎｇｚｈｅｎ　Ｘｉｅｇａｎｇｃｕｎ　Ｊｉｎｃｈｕａｎｇｏｎｇｙｅｑｕ　Ｊｉｎｍｉｎｇｌｕ　Ｂｅｉｄｅｙｉｃｈａｎｙｅｙｕａｎ　Ｄ　Ｄｏｎｇ　４　Ｌｏｕ　４０１　Ｄｏｎｇｇｕａｎ　Ｇｕａｎｇｄｏｎｇ　Ｃｈｉｎａ,,,,,,2023-07-03,1,,,,,ドングゥアンルイビツコンジスユウゲンコウシ,0
1517,6700150118185,新規,0,2023-07-03,2023-07-03,ＣｈｕａｎＨｕＴｏｎｇＦａｎ（Ｓｈｅｎｚｈｅｎ）Ｔｅｃｈｎｏｌｏｇｙ　Ｃｏ．Ｌｔｄ　　　　,,外国会社等,,,,,,,,Ｎｏ．２３３４　Ｂｉｘｉｎ　Ｒｏａｄ，Ｌｏｎｇｇａｎｇ　Ｄｉｓｔｒｉｃｔ　Ａ５０１　Ｂａｉｆｕｘｉｎ　Ｂｕｉｌｄｉｎｇ　Ｓｈｅｎｚｈｅｎ　Ｃｈｉｎａ,,,,,,2023-07-03,1,,,,,ツゥアンフトンファンシンセンテクノロジーカンパニーリミテッド,0
1518,6700150118193,新規,0,2023-07-03,2023-07-03,ｓｈｅｎｚｈｅｎｔｉａｎｚｈｉｑｕｇｏｎｇｃｈｅｎｇｚｈｕａｎｇｓｈｉｙｏｕｘｉａｎｇｏｎｇｓｉ,,外国会社等,,,,,,,,ｌｕｏｈｕｑｕｈｕａｎｇｂｅｉｊｉｅｄａｏａｉｇｕｏｌｕｈｕａｓｈｅｎｄａｓｈａ３１０　ｓｈｅｎｚｈｅｎｓｈｉ　ｇｕａｎｇｄｏｎｇｓｈｅｎｇ　５１８００３　ＣＮ,,,,,,2023-07-03,1,,,,,シェンジェンシーティエンジーチーゴンチョンジュワンシーヨウシエンゴンスー,0
1546,7010801034107,新規,0,2023-07-03,2023-07-03,株式会社コネクト,,株式会社,東京都,大田区,南馬込２丁目２４番２７号,,13,111,1430025,,,,,,,2023-07-03,1,,,,,コネクト,0
1553,7011001155387,新規,0,2023-07-03,2023-07-03,株式会社Ｐｒｅｖａｉｌ　Ｌａｂ,,株式会社,東京都,渋谷区,道玄坂１丁目１０番８号渋谷道玄坂東急ビル２Ｆ－Ｃ,,13,113,1500043,,,,,,,2023-07-03,1,,,,,プリベイルラボ,0
1554,7011001155412,新規,0,2023-07-03,2023-07-03,アルブストリクス株式会社,,株式会社,東京都,渋谷区,神宮前６丁目２３番４号桑野ビル２階,,13,113,1500001,,,,,,,2023-07-03,1,,,,,アルブストリクス,0
1559,7011103013212,新規,0,2023-07-03,2023-07-03,済南外国語学校合同会社,,合同会社,東京都,新宿区,百人町３丁目１番３－２４０７号,,13,104,1690073,,,,,,,2023-07-03,1,,,,,サイナンガイコクゴガッコウ,0
1564,7011501029462,新規,0,2023-07-03,2023-07-03,株式会社ＪＡＤキャピタル,,株式会社,東京都,北区,岸町１丁目５番２０号太春ビル２階,,13,117,1140021,,,,,,,2023-07-03,1,,,,,ジャドキャピタル,0
1565,7011501029479,新規,0,2023-07-03,2023-07-03,領耀株式会社,,株式会社,東京都,荒川区,南千住７丁目２１番２－２０５号,,13,118,1160003,,,,,,,2023-07-03,1,,,,,,0
1577,7013101009200,新規,0,2023-07-03,2023-07-03,株式会社ｌｕｃａｉｒｏ,,株式会社,東京都,羽村市,富士見平２丁目２２番地６,,13,227,2050013,,,,,,,2023-07-03,1,,,,,ルカイロ,0
1582,7020001152303,新規,0,2023-07-03,2023-07-03,Ｓｋｉｘ株式会社,,株式会社,神奈川県,横浜市南区,六ツ川２丁目１１３番地１５,,14,105,2320066,,,,,,,2023-07-03,1,,,,,スキックス,0
1593,7030001154678,新規,0,2023-07-03,2023-07-03,ＭＡＯ株式会社,,株式会社,埼玉県,川口市,上青木西１丁目４番３－５０５号ライオンズマンション川口青木町公園,,11,203,3330845,,,,,,,2023-07-03,1,,,,,マオ,0
1597,7030003022065,新規,0,2023-07-03,2023-07-03,ＡＲＡＦ　ＥＮＴＥＲＰＲＩＳＥ合同会社,,合同会社,埼玉県,川口市,弥平２丁目１２番２９号英錦マンション２０１,,11,203,3320002,,,,,,,2023-07-03,1,,,,,アラフエンタープライズ,0
1603,7040001129043,新規,0,2023-07-03,2023-07-03,株式会社Ｆｉｅｌｄ　Ｗｅｌｌ,,株式会社,千葉県,習志野市,秋津１丁目４－６,,12,216,2750025,,,,,,,2023-07-03,1,,,,,フィールドウェル,0
1609,7040003022865,新規,0,2023-07-03,2023-07-03,ＳＥＩＫＯ　ＬＯＧＩＳＴＩＣＳ合同会社,,合同会社,千葉県,成田市,猿山４５７番地５大竹コーポ１０１,,12,211,2890107,,,,,,,2023-07-03,1,,,,,セイコーロジスティクス,0
1610,7040003022873,新規,0,2023-07-03,2023-07-03,輪工合同会社,,合同会社,千葉県,木更津市,請西東２丁目１３番地１５,,12,206,2920806,,,,,,,2023-07-03,1,,,,,リンク,0
1618,7080001025692,新規,0,2023-07-03,2023-07-03,株式会社ＺＸＧ,,株式会社,静岡県,牧之原市,女神３８－１,,22,226,4210516,,,,,,,2023-07-03,1,,,,,ゼットエックスジー,0
1623,7090001018191,新規,0,2023-07-03,2023-07-03,株式会社ＰＥＡＣＥ,,株式会社,山梨県,富士吉田市,新西原３丁目３番４３号,,19,202,4030017,,,,,,,2023-07-03,1,,,,,ピース,0
1627,7100003007083,新規,0,2023-07-03,2023-07-03,フレアヴィーナス合同会社,,合同会社,長野県,茅野市,豊平泉２００番地１４４,,20,214,3910000,,,,,,,2023-07-03,1,,,,,フレアヴィーナス,0
1628,7100003007091,新規,0,2023-07-03,2023-07-03,合同会社ピトシャシポイエ,,合同会社,長野県,長野市,中条日下野５４２２－１,,20,201,3813202,,,,,,,2023-07-03,1,,,,,ピトシャシポイエ,0
1634,7120001256119,新規,0,2023-07-03,2023-07-03,株式会社エムズエンジニア,,株式会社,大阪府,守口市,南寺方東通４丁目２３番１８号,,27,209,5700043,,,,,,,2023-07-03,1,,,,,エムズエンジニア,0
1635,7120001256151,新規,0,2023-07-03,2023-07-03,株式会社Ｊ．Ｏ,,株式会社,大阪府,枚方市,長尾元町７丁目７１番３９号,,27,210,5730163,,,,,,,2023-07-03,1,,,,,ジェイオー,0
1638,7120005023705,新規,0,2023-07-03,2023-07-03,一般社団法人Ｒ・ＡＳＫ１０,,その他の設立登記法人,大阪府,大阪市中央区,南船場１丁目１３番２０号,,27,128,5420081,,,,,,,2023-07-03,1,,,,,アールエーエスケーテン,0
1645,7140001130692,新規,0,2023-07-03,2023-07-03,ファントフット株式会社,,株式会社,兵庫県,西宮市,甲子園口３丁目１５番７－６０３号,,28,204,6638113,,,,,,,2023-07-03,1,,,,,ファントフット,0
1647,7160003002913,新規,0,2023-07-03,2023-07-03,合同会社スリーコードプロジェクト,,合同会社,滋賀県,大津市,滋賀里２丁目２番２４号,,25,201,5200006,,,,,,,2023-07-03,1,,,,,スリーコードプロジェクト,0
1655,7180001156916,新規,0,2023-07-03,2023-07-03,株式会社東方緑洲,,株式会社,愛知県,名古屋市東区,泉１丁目４番６号,,23,102,4610001,,,,,,,2023-07-03,1,,,,,トウホウリョクシュウ,0
1656,7180001156924,新規,0,2023-07-03,2023-07-03,株式会社Ａｐｒｉｃｉｔｙ,,株式会社,愛知県,名古屋市中区,栄５丁目２６番３９号ＧＳ栄ビル３Ｆ,,23,106,4600008,,,,,,,2023-07-03,1,,,,,アプリシティー,0
1662,7180003025417,新規,0,2023-07-03,2023-07-03,Ｏｃｔｏｐｕｓ合同会社,,合同会社,愛知県,一宮市,三ツ井５丁目１０番２９号,,23,203,4910827,,,,,,,2023-07-03,1,,,,,オクトパス,0
1663,7180005020275,新規,0,2023-07-03,2023-07-03,一般社団法人藝檀,,その他の設立登記法人,愛知県,海部郡蟹江町,桜２丁目５５番地パナホームガーデンＡ棟,,23,425,4970038,,,,,,,2023-07-03,1,,,,,ゲイダン,0
1665,7190005011835,新規,0,2023-07-03,2023-07-03,一般社団法人三井家発祥の地松阪まちづくり会,,その他の設立登記法人,三重県,松阪市,白粉町５１２番地,,24,204,5150076,,,,,,,2023-07-03,1,,,,,ミツイケハッショウノチマツサカマチヅクリカイ,0
1667,7200001041446,新規,0,2023-07-03,2023-07-03,ライフワークゲームズ株式会社,,株式会社,岐阜県,岐阜市,金町６丁目２１番地岐阜ステーションビル３０４,,21,201,5008842,,,,,,,2023-07-03,1,,,,,ライフワークゲームズ,0
1672,7230003002039,新規,0,2023-07-03,2023-07-03,Ｔ．ｌａｂ合同会社,,合同会社,富山県,射水市,戸破４０７１番地,,16,211,9390351,,,,,,,2023-07-03,1,,,,,ティードットラボ,0
1677,7240001061738,新規,0,2023-07-03,2023-07-03,ＲＯＮＳ株式会社,,株式会社,広島県,広島市西区,中広町３丁目２番６号－３Ｆ,,34,104,7330012,,,,,,,2023-07-03,1,,,,,ロンズ,0
1679,7260003004354,新規,0,2023-07-03,2023-07-03,後浪半導体合同会社,,合同会社,岡山県,岡山市北区,富町１丁目２０番１４号デュナミス富町６０４号,,33,101,7000031,,,,,,,2023-07-03,1,,,,,コウロウハンドウタイ,0
1682,7290001102108,新規,0,2023-07-03,2023-07-03,株式会社ユニバースオン,,株式会社,福岡県,福岡市中央区,大名１丁目１０番３３－５０１号東峰マンション大名,,40,133,8100041,,,,,,,2023-07-03,1,,,,,ユニバースオン,0
1687,7330001031005,新規,0,2023-07-03,2023-07-03,株式会社ＡＬＬＯＲＡ,,株式会社,熊本県,熊本市中央区,新屋敷２丁目１３番１２号１Ｆ,,43,101,8620975,,,,,,,2023-07-03,1,,,,,アローラ,0
1688,7350001018421,新規,0,2023-07-03,2023-07-03,株式会社ひむかＤ＆Ａ,,株式会社,宮崎県,日向市,大字日知屋１４８６４番地７,,45,206,8830062,,,,,,,2023-07-03,1,,,,,ヒムカディーアンドエー,0
1703,7500001025022,新規,0,2023-07-03,2023-07-03,株式会社水野工業,,株式会社,愛媛県,宇和島市,坂下津甲４０７番地１４５,,38,203,7980087,,,,,,,2023-07-03,1,,,,,ミズノコウギョウ,0
1704,7500001025030,新規,0,2023-07-03,2023-07-03,株式会社Ｃｏｍｐａｓｓ,,株式会社,愛媛県,松山市,南吉田町２５８６番地１,,38,201,7918042,,,,,,,2023-07-03,1,,,,,コンパス,0
1705,7700150115264,新規,0,2023-07-03,2023-07-03,東莞市盛耀電動工具製造有限公司,,外国会社等,,,,,,,,中国広東省東莞市長安鎮烏沙社区李屋工業大道興発路２２０号三楼,,,,,,2023-07-03,1,,,,,トウカンシセイヨウデンドウコウグセイゾウユウゲンコウシ,0
1706,7700150118052,新規,0,2023-07-03,2023-07-03,ｓｈｅｎｚｈｅｎｓｈｉ　ｎｕｏｓｈｉｌａｎ　ｄｉａｎｚｉ　ｙｏｕｘｉａｎ　ｇｏｎｇｓｉ,,外国会社等,,,,,,,,Ｌｏｎｇｇａｎｇｑｕ　ｂａｎｔｉａｎｊｉｅｄａｏ　ｗｕｈｅｓｈｅｑｕ　ｙａｙｕａｎｌｕ　２８ｈａｏ　ｒｏｎｇｃｈｅｎｇｄａｓｈａ　Ａｄｏｎｇ　６０１　Ｓｈｅｎｚｈｅｎ　Ｇｕａｎｇｄｏｎｇ,,,,,,2023-07-03,1,,,,,シンセンシダクシランデンシユウゲンコウシ,0
1707,7700150118060,新規,0,2023-07-03,2023-07-03,ｙａｎｃｈｅｎｇｊｉｕｓｉｋｅｊｉｙｏｕｘｉａｎｇｏｎｇｓｉ,,外国会社等,,,,,,,,ＲＭ　２２０３－２２０６，Ｂｌｄｇ　Ｓ，Ｋｅｃｈｕａｎｇ　Ｂｕｉｌｄｉｎｇ，Ｂｉｇ　Ｄａｔａ　Ｉｎｄｕｓｔｒｉａｌ　Ｐａｒｋ，Ｋｅｃｈｅｎｇ　Ｓｔｒ，Ｙａｎｎａｎ　Ｈｉｇｈ－ｔｅｃｈ　Ｚｏｎｅ，Ｙａｎｃｈｅｎｇ,,,,,,2023-07-03,1,,,,,エンジョウキュウシカギユウゲンコウシ,0
1708,7700150118069,新規,0,2023-07-03,2023-07-03,ｓｈｅｎｚｈｅｎｓｈｉ　ｋｏｕｂｅｉｃｈｕａｎｍｅｉ　ｙｏｕｘｉａｎｇｏｎｇｓｉ,,外国会社等,,,,,,,,Ｃｈｉｎａ，Ｇｕａｎｇｄｏｎｇ　Ｓｈｅｎｚｈｅｎ　ｌｏｎｇｈｕａ　ｄａｌａｎｇｊｉｅｄａｏ　ｇａｏｆｅｎｇｓｈｅｑｕ　ｌｏｎｇｇｕａｎｘｉｌｕ　２ｈａｏ　Ｂ１５０７,,,,,,2023-07-03,1,,,,,シンセンシコウヒデンバイユウゲンコウシ,0
1709,7700150118077,新規,0,2023-07-03,2023-07-03,ｓｈｅｎｚｈｅｎｓｈｉ　ｏｕｗａｎｌａｉ　ｋｅｊｉ　ｙｏｕｘｉａｎｇｏｇｎｓｉ,,外国会社等,,,,,,,,ｘｉｎｇｈｕａ　ｙｉｌｕ　ｎａｎｓａｎｘｉａｎｇ　１６ｈａｏ３０１　ｂａｏａｎｑｕ　ｘｉｎａｎｊｉｅｄａｏ　ａｎｌｅｓｈｅｑｕ　ｓｈｅｎｚｈｅｎｓｈｉ，ｇｕａｎｇｄｏｎｇｓｈｅｎｇ，Ｃｈｉｎａ,,,,,,2023-07-03,1,,,,,シンセンシオウマンライカギユウゲンコウシ,0
1710,7700150118085,新規,0,2023-07-03,2023-07-03,Ｘｉｗａｎｇｘｉｎｃａｉｌｉａｏ　Ｋｅｊｉｇｕｆｅｎ　Ｙｏｕｘｉａｎｇｏｎｇｓｉ,,外国会社等,,,,,,,,Ｋｅｊｉｙｕａｎｎａｎｑｕ，Ｙｕｅｈａｉｌｕ，ＳｈｅｎｚｈｅｎｑｉｎｇｈｕａｄａｘｕｅｙａｎｊｉｕｙｕａｎＡ３０４　Ｓｈｅｎｚｈｅｎ　Ｇｕａｎｇｄｏｎｇ，ＣＮ,,,,,,2023-07-03,1,,,,,シワンシンザイリョウカギコブンユウゲンコウシ,0
1711,7700150118093,新規,0,2023-07-03,2023-07-03,Ｗｕｈａｎ　Ｈａｎｙｕｚａｎ　Ｔｅｃｈｎｏｌｏｇｙ　Ｃｏ．，Ｌｔｄ．,,外国会社等,,,,,,,,Ｃｈｉｎａ，Ｈｕｂｅｉ　Ｗｕｈａｎ　Ｊｉａｎｇ’ａｎＱｕ，ＨｏｕｈｕＪｉｅ，ＳｈｉｑｉａｏＹｉＬｕ　Ｎｏ　５　４　Ｄｏｎｇ　１１　Ｃｅｎｇ　２　Ｈａｏ,,,,,,2023-07-03,1,,,,,ブカンカンウサンカギユウゲンコウシ,0
1712,7700150118102,新規,0,2023-07-03,2023-07-03,ＹａｎｇＪｉａｎｇＳｈｉＸｉｎＹｕａｎＭａｏＹｉＹｏｕＸｉａｎＧｏｎｇＳｉ,,外国会社等,,,,,,,,ｇｕａｎｇｄｏｎｇｓｈｅｎｇ　ｙａｎｇｊｉａｎｇｓｈｉ　ｊｉａｎｇｃｈｅｎｇｑｕ　ｇｕａｎｇｚｈａｎｇｏｎｇｌｕ　ｃｈｅｎｇｘｉｍａｙａｎｌｕｄｕａｎｌｉｕｓａｎｋａｎ,,,,,,2023-07-03,1,,,,,ヨウコウシシンエンボウエキユウゲンコウシ,0
1713,7700150118110,新規,0,2023-07-03,2023-07-03,ｔａｉｚｈｏｕｓｈｉｙｉｂｅｎｔａｉｓｈａｏｗｅｎｊｕｙｏｕｘｉａｎｇｏｎｇｓｉ,,外国会社等,,,,,,,,Ｈｕａｎｇｙａｎｑｕｙｕａｎｑｉａｏｚｈｅｎ　Ｌｉａｎｇｈｕｑｉａｏ　ｖｉｌｌａｇｅ　Ｔａｉｚｈｏｕ　Ｚｈｅｊｉａｎｇ　３１８０２５　ＣＮ,,,,,,2023-07-03,1,,,,,タイシュウシイッポンタイショウブングユウゲンコウシ,0
1714,7700150118119,新規,0,2023-07-03,2023-07-03,Ｄｏｎｇｇｕａｎｚｈｉｃｈｅｎｋｅｊｉｙｏｕｘｉａｎｇｏｎｇｓｉ,,外国会社等,,,,,,,,Ｄｏｎｇｇｕａｎｄａｄａｏ　Ｎａｎｃｈｅｎｇｄｕａｎ　ＮＯ４２８，Ｈｕａｎｙｕｈｕｉｊｉｎｚｈｏｎｇｘｉｎ　５Ｄｏｎｇ　１９０７ｓｈｉ，Ｄｏｎｇｇｕａｎ,,,,,,2023-07-03,1,,,,,トウカンシシシンデンシカギユウゲンコウシ,0
1715,7700150118127,新規,0,2023-07-03,2023-07-03,Ｓｕｚｈｏｕ　Ｌｉ　Ｚｈｏｕ　Ｔｉａｎ　Ｘｉａ　Ｔｒａｄｅ　Ｃｏ．，Ｌｔｄ．,,外国会社等,,,,,,,,ｇａｏｘｉｎｑｕｂｉｎｈｅｌｕ５８８ｈａｏ　ｓａｉｇｅｄｉａｎｚｉｓｈｉｃｈａｎｇＡ７０３　ｓｕｚｈｏｕｓｈｉ　ｊｉａｎｇｓｕｓｈｅｎｇ　Ｃｈｉｎａ,,,,,,2023-07-03,1,,,,,スゾォウリゾォウテェンシャトレードカンパニーリミテッド,0
1716,7700150118135,新規,0,2023-07-03,2023-07-03,Ｌｉａｎｙｕｎｇａｎｇ　ｋｕａｈａｉ　ｉｎｆｏｒｍａｔｉｏｎ　ｔｅｃｈｎｏｌｏｇｙ　ｃｏ．，ｌｔｄ,,外国会社等,,,,,,,,Ｈｕａｇｕｏｓｈａｎ　Ａｖｅｎｕｅ，Ｈａｉｚｈｏｕ　Ｄｉｓｔｒｉｃｔ　Ｎｏ．５２０－２，Ｂｕｉｌｄｉｎｇ　３，Ｎｏ．１７，Ｌｉａｎｙｕｎｇａｎｇ　Ｃｉｔｙ　Ｊｉａｎｇｓｕ　Ｐｒｏｖｉｎｃｅ　Ｃｈｉｎａ,,,,,,2023-07-03,1,,,,,リィエンユンガンクアハイインフォメーションテクノロジーカンパニーリミテッド,0
1717,7700150118143,新規,0,2023-07-03,2023-07-03,ＧＵＡＮＧ　ＺＨＯＵ　ＳＨＩ　ＳＨＥＮＧ　ＪＩＮＧ　ＴＲＡＤＩＮＧ　ＣＯ．，ＬＴＤ,,外国会社等,,,,,,,,４０１Ａ，２７，ＳＯＮＧ　ＢＥＩ　ＳＨＡＮＧ　ＣＵＮ，ＬＵＯ　ＣＨＯＮＧ　ＷＥＩ，ＢＡＩ　ＹＵＮ　ＧＵＡＮＧＺＨＯＵ　ＧＵＡＮＧＤＯＮＧ　ＣＨＩＮＡ,,,,,,2023-07-03,1,,,,,グゥアンゾォウシセンジントゥレイディングカンパニーリミテッド,0
1718,7700150118151,新規,0,2023-07-03,2023-07-03,ＳｈｅｎＺｈｅｎＳｈｉ　ＭｅｎｇＨａｎＫｅＪｉ　ＹｏｕＸｉａｎＧｏｎｇＳｉ,,外国会社等,,,,,,,,ＨｕａＱｉａｎｇＢｅｉＪｉｅＤａｏＦｕＱｉａｎｇＳｈｅＱｕＨｕａＱｉａｎｇＢｅｉＬｕ１００２Ｈａｏ　ＳａｉＧｅＧｕａｎｇＣｈａｎｇ７Ｃｅｎｇ７４２６　Ｓｈｅｎｚｈｅｎ　Ｇｕａｎｇｄｏｎｇ　Ｃｈｉｎａ,,,,,,2023-07-03,1,,,,,シェンゼェンシメンハンケジユウゲンコウシ,0
1719,7700150118168,新規,0,2023-07-03,2023-07-03,Ｄｏｎｇｇｕａｎ　Ｚｈｉｓｈａｎｇ　Ｅｌｅｃｔｒｏｎｉｃ　Ｔｅｃｈｎｏｌｏｇｙ　Ｃｏ．，Ｌｔｄ．,,外国会社等,,,,,,,,Ｔａｎｇｘｉａ　Ｔｏｗｎ，Ｑｉｎｇｈｕｔｏｕ　Ｃｏｍｍｕｎｉｔｙ，Ｇａｏｌｉ　３ｒｄ　Ｒｏａｄ　Ｎｏ．２，Ｒｕｉｙｉｊｉａ　Ｔｅｃｈｎｏｌｏｇｙ，Ｂｕｉｌｄｉｎｇ　８Ｆ，Ｒｏｏｍ　３０２　Ｄｏｎｇｇｕａｎ　Ｃｉｔｙ　Ｇｕａｎｇｄｏｎｇ　Ｐｒｏｖｉｎｃｅ　Ｃｈｉｎａ,,,,,,2023-07-03,1,,,,,ドングアンジシャンエレクトロニックテクノロジーカンパニーリミテッド,0
1720,7700150118176,新規,0,2023-07-03,2023-07-03,Ｓｈｅｎｚｈｅｎ　Ｓｎｏｗｆｕｎ　Ｏｕｔｄｏｏｒ　ＣＯ．，ＬＴＤ．,,外国会社等,,,,,,,,ｔａｏｙｕａｎｊｉｅｄａｏｐｉｎｇｓｈａｎｓｈｅｑｕｌｉｕｘｉａｎｄａｄａｏ４０９３ｈａｏｎａｎｓｈａｎｙｕｎｇｕｃｈｕａｎｇｘｉｎｃｈａｎｙｅｙｕａｎｌｏｎｇｔａｎｇｇｅ７０２　ｓｈｅｎｚｈｅｎｓｈｉ　ｎａｎｓｈａｎｑｕ　ｇｕａｎｇｄｏｎｇｓｈｅｎｇ　Ｃｈｉｎａ,,,,,,2023-07-03,1,,,,,シンセンスノウファンアウトドアカンパニーリミテッド,0
1721,7700150118184,新規,0,2023-07-03,2023-07-03,Ｆｏｓｈａｎｓｈｉ　Ｗａｎｓｉｇｕａｎｇｄｉａｎ　Ｋｅｊｉｙｏｕｘｉａｎｇｏｎｇｓｉ　　　,,外国会社等,,,,,,,,Ｎｏ．２７９　Ｂａｉａｎ　Ｒｏａｄ，Ｊｕｎａｎ　Ｃｏｍｍｕｎｉｔｙ，Ｊｕｎａｎ　Ｔｏｗｎ　Ｓｈｕｎｄｅ　Ｄｉｓｔｒｉｃｔ，Ｆｏｓｈａｎ　Ｃｉｔｙ　Ｇｕａｎｇｄｏｎｇ　Ｐｒｏｖｉｎｃｅ　Ｃｈｉｎａ,,,,,,2023-07-03,1,,,,,フォサンシワンシグゥアンデェンケジユウゲンコウシ,0
1722,7700150118192,新規,0,2023-07-03,2023-07-03,Ｓｈｅｎｚｈｅｎｓｈｉ　Ｊｉａｘｉｎｇ　Ｚｈｉｎｅｎｇｋａ　Ｙｏｕｘｉａｎｇｏｎｇｓｉ,,外国会社等,,,,,,,,Ｌｏｎｇ　Ｇａｎｇ　Ｄａ　Ｄａｏ　２２２１　Ｈａｏ　Ｙｉｋａｎｇ　Ｊｉａｙｕａｎ　Ｌａｎ　Ｈｕａ　Ｊｕ　１８Ｄ　Ｌｏｎｇ　Ｇａｎｇ　Ｑｕ　Ｂｕ　Ｊｉ　Ｊｉｅ　Ｄａｏ　Ｓｈｅｎ　Ｚｈｅｎ　５１８０００　ＣＮ,,,,,,2023-07-03,1,,,,,シェンジェンシージャーシンジーノンカーヨウシエンゴンスー,0
1743,8010001236535,新規,0,2023-07-03,2023-07-03,株式会社荒木企画,,株式会社,東京都,中央区,東日本橋３丁目３番１０－３０６号,,13,102,1030004,,,,,,,2023-07-03,1,,,,,アラキキカク,0
1744,8010001236551,新規,0,2023-07-03,2023-07-03,Ｗｏｒｇｒａｃｅ株式会社,,株式会社,東京都,中央区,銀座１丁目２２番１１号銀座大竹ビジデンス２Ｆ,,13,102,1040061,,,,,,,2023-07-03,1,,,,,ワーグレス,0
1751,8010403030370,新規,0,2023-07-03,2023-07-03,ＳＯ電力１号合同会社,,合同会社,東京都,港区,芝大門２丁目１２番３号,,13,103,1050012,,,,,,,2023-07-03,1,,,,,エスオーデンリョクイチゴウ,0
1752,8010403030412,新規,0,2023-07-03,2023-07-03,ＬＡＳＥＮＡＳ合同会社,,合同会社,東京都,港区,浜松町２丁目２番１５号浜松町ダイヤビル２Ｆ,,13,103,1050013,,,,,,,2023-07-03,1,,,,,ラセーニャス,0
1770,8011001155386,新規,0,2023-07-03,2023-07-03,株式会社ｍｉｍｏｓａ,,株式会社,東京都,目黒区,東山３丁目１－１－２０４,,13,110,1530043,,,,,,,2023-07-03,1,,,,,ミモザ,0
1771,8011001155394,新規,0,2023-07-03,2023-07-03,株式会社ＲＩＢ,,株式会社,東京都,渋谷区,代々木５丁目５７番２号,,13,113,1510053,,,,,,,2023-07-03,1,,,,,リブ,0
1774,8011003017072,新規,0,2023-07-03,2023-07-03,Ｎｅｘｔ　Ａｐｅ　Ｌａｂ合同会社,,合同会社,東京都,渋谷区,道玄坂１丁目１０番８号渋谷道玄坂東急ビル２Ｆ－Ｃ,,13,113,1500043,,,,,,,2023-07-03,1,,,,,ネクストエイプラボ,0
1775,8011003017089,新規,0,2023-07-03,2023-07-03,姫野資産管理合同会社,,合同会社,東京都,渋谷区,代々木３丁目５８番２号グランドメゾン参宮橋３０２,,13,113,1510053,,,,,,,2023-07-03,1,,,,,ヒメノシサンカンリ,0
1779,8011101103427,新規,0,2023-07-03,2023-07-03,株式会社同和配送,,株式会社,東京都,新宿区,原町３丁目３７番地安藤ビル３０１,,13,104,1620053,,,,,,,2023-07-03,1,,,,,ドウワハイソウ,0
1780,8011101103443,新規,0,2023-07-03,2023-07-03,彩月不動産株式会社,,株式会社,東京都,新宿区,新宿１丁目５番６号御苑ビル４階,,13,104,1600022,,,,,,,2023-07-03,1,,,,,アヤツキフドウサン,0
1798,8011603003975,新規,0,2023-07-03,2023-07-03,合同会社グレースプロパティ,,合同会社,東京都,練馬区,関町南３丁目２０－２,,13,120,1770053,,,,,,,2023-07-03,1,,,,,グレースプロパティ,0
1800,8011801042643,新規,0,2023-07-03,2023-07-03,株式会社ＡＥ　ＷＯＲＫＳ,,株式会社,東京都,足立区,栗原３丁目１８番１１号,,13,121,1230842,,,,,,,2023-07-03,1,,,,,エーイーワークス,0
1811,8020001152252,新規,0,2023-07-03,2023-07-03,株式会社ｉｎｎｏｖａｔｏｒ,,株式会社,神奈川県,川崎市高津区,下作延１丁目８番１０号,,14,134,2130033,,,,,,,2023-07-03,1,,,,,イノベーター,0
1812,8020001152319,新規,0,2023-07-03,2023-07-03,株式会社ホワイト経理サポート,,株式会社,神奈川県,川崎市川崎区,境町４番１４号,,14,131,2100838,,,,,,,2023-07-03,1,,,,,ホワイトケイリサポート,0
1829,8030001154669,新規,0,2023-07-03,2023-07-03,株式会社森久保興業,,株式会社,埼玉県,吉川市,きよみ野３丁目１３番地２３,,11,243,3420058,,,,,,,2023-07-03,1,,,,,モリクボコウギョウ,0
1830,8030001154677,新規,0,2023-07-03,2023-07-03,Ｒｅｌｉａｂｌｅ　ｐｅｒｓｏｎ株式会社,,株式会社,埼玉県,さいたま市岩槻区,古ヶ場１丁目８番地１１,,11,110,3390072,,,,,,,2023-07-03,1,,,,,レリアブルパーソン,0
1831,8030001154685,新規,0,2023-07-03,2023-07-03,ＮＴ株式会社,,株式会社,埼玉県,川口市,並木４丁目２番１６号,,11,203,3320034,,,,,,,2023-07-03,1,,,,,エヌティー,0
1832,8030001154693,新規,0,2023-07-03,2023-07-03,株式会社緑,,株式会社,埼玉県,川口市,栄町３丁目１３－１プラウドタワー川口クロス５０１,,11,203,3320017,,,,,,,2023-07-03,1,,,,,ミドリ,0
1833,8030001154702,新規,0,2023-07-03,2023-07-03,泰耀工業株式会社,,株式会社,埼玉県,和光市,南２丁目１番１２号５０４南大和団地,,11,229,3510104,,,,,,,2023-07-03,1,,,,,タイヨウコウギョウ,0
1834,8030001154710,新規,0,2023-07-03,2023-07-03,株式会社グリーンフード,,株式会社,埼玉県,川口市,中青木４丁目８－１９－１０２号室,,11,203,3320032,,,,,,,2023-07-03,1,,,,,グリーンフード,0
1839,8030003022064,新規,0,2023-07-03,2023-07-03,青葉合同会社,,合同会社,埼玉県,川口市,西川口５丁目３－１１,,11,203,3320021,,,,,,,2023-07-03,1,,,,,アオバ,0
1847,8040001129042,新規,0,2023-07-03,2023-07-03,株式会社マジョリカ,,株式会社,千葉県,松戸市,根本４６６番地,,12,207,2710077,,,,,,,2023-07-03,1,,,,,マジョリカ,0
1848,8040001129050,新規,0,2023-07-03,2023-07-03,Ｔｕｌａｓｉ株式会社,,株式会社,千葉県,柏市,豊四季５０８番地９９,,12,217,2770863,,,,,,,2023-07-03,1,,,,,トゥラシ,0
1851,8040003022864,新規,0,2023-07-03,2023-07-03,合同会社ＲＥＯ,,合同会社,千葉県,八千代市,八千代台東２丁目１２番８号,,12,221,2760032,,,,,,,2023-07-03,1,,,,,レオ,0
1852,8040003022889,新規,0,2023-07-03,2023-07-03,合同会社メディアスペード,,合同会社,千葉県,千葉市花見川区,検見川町１丁目７２７－４－３０３,,12,102,2620023,,,,,,,2023-07-03,1,,,,,メディアスペード,0
1853,8050001053051,新規,0,2023-07-03,2023-07-03,株式会社興和工業,,株式会社,茨城県,水戸市,南町３丁目３番３５号栗原ビル１Ｆ,,08,201,3100021,,,,,,,2023-07-03,1,,,,,コウワコウギョウ,0
1854,8050003007600,新規,0,2023-07-03,2023-07-03,合同会社焼き栗のいそやま,,合同会社,茨城県,笠間市,下郷４４５５－２,,08,216,3190202,,,,,,,2023-07-03,1,,,,,ヤキグリノイソヤマ,0
1857,8070005010138,新規,0,2023-07-03,2023-07-03,群馬キッチンカー協同組合,,その他の設立登記法人,群馬県,高崎市,下小鳥町８８番地１１シェイプエル１０２,,10,202,3700074,,,,,,,2023-07-03,1,,,,,グンマキッチンカー,0
1870,8100001036546,新規,0,2023-07-03,2023-07-03,株式会社輪根コンポストプラン,,株式会社,長野県,長野市,松代町小島田３４２６番地,,20,201,3811213,,,,,,,2023-07-03,1,,,,,リンネコンポストプラン,0
1872,8100003007082,新規,0,2023-07-03,2023-07-03,合同会社コネクト,,合同会社,長野県,飯田市,松尾水城３５６５番地１５,,20,205,3950826,,,,,,,2023-07-03,1,,,,,コネクト,0
1880,8120001256142,新規,0,2023-07-03,2023-07-03,株式会社ハイテナ,,株式会社,大阪府,大阪市住之江区,北加賀屋５丁目５番４４－１０１０号,,27,125,5590011,,,,,,,2023-07-03,1,,,,,ハイテナ,0
1881,8120003024407,新規,0,2023-07-03,2023-07-03,合同会社ＡＮ　ＮＨＩＥＮ,,合同会社,大阪府,大阪市住吉区,我孫子２丁目７番７－１０３号,,27,120,5580014,,,,,,,2023-07-03,1,,,,,アンニェン,0
1884,8120101067803,新規,0,2023-07-03,2023-07-03,株式会社ケイコネクト,,株式会社,大阪府,堺市西区,浜寺昭和町２丁３１９ライオネル浜寺２０３号,,27,144,5928345,,,,,,,2023-07-03,1,,,,,ケイコネクト,0
1896,8160003002912,新規,0,2023-07-03,2023-07-03,合同会社Ｇ‐ＦＡＣＴＯＲＹ,,合同会社,滋賀県,米原市,西山４０３番地１,,25,214,5210241,,,,,,,2023-07-03,1,,,,,ジーファクトリー,0
1903,8180001156898,新規,0,2023-07-03,2023-07-03,株式会社Ｌーエル,,株式会社,愛知県,名古屋市南区,鶴田１丁目７番１５号,,23,112,4570003,,,,,,,2023-07-03,1,,,,,エル,0
1914,8180301037518,新規,0,2023-07-03,2023-07-03,株式会社アルジャン,,株式会社,愛知県,刈谷市,井ケ谷町下前田５３番地２,,23,210,4480001,,,,,,,2023-07-03,1,,,,,アルジャン,0
1916,8200001041453,新規,0,2023-07-03,2023-07-03,村瀬看板株式会社,,株式会社,岐阜県,岐阜市,月丘町３丁目３１番地２,,21,201,5008141,,,,,,,2023-07-03,1,,,,,ムラセカンバン,0
1917,8200003006000,新規,0,2023-07-03,2023-07-03,オゼ薬品合同会社,,合同会社,岐阜県,関市,小瀬２０３４番地２,,21,205,5013265,,,,,,,2023-07-03,1,,,,,オゼヤクヒン,0
1926,8240001061737,新規,0,2023-07-03,2023-07-03,株式会社ＲＥＩＶＥＮＴ,,株式会社,広島県,安芸高田市,吉田町多治比５７４番地９,,34,214,7310544,,,,,,,2023-07-03,1,,,,,レイベント,0
1948,8290801029656,新規,0,2023-07-03,2023-07-03,株式会社大輪,,株式会社,福岡県,北九州市八幡西区,楠橋西２丁目１２番,,40,109,8071145,,,,,,,2023-07-03,1,,,,,ダイリン,0
1952,8310003004595,新規,0,2023-07-03,2023-07-03,合同会社アトラップレーブ,,合同会社,長崎県,佐世保市,棚方町６３２番地１,,42,202,8580907,,,,,,,2023-07-03,1,,,,,アトラップレーブ,0
1954,8370001050124,新規,0,2023-07-03,2023-07-03,株式会社ＢＰＧ,,株式会社,宮城県,仙台市宮城野区,榴岡１丁目６番３７号,,04,102,9830852,,,,,,,2023-07-03,1,,,,,ビーピージー,0
1976,8460001005804,新規,0,2023-07-03,2023-07-03,株式会社鈴久名産業,,株式会社,北海道,厚岸郡浜中町,西円朱別西１８線１３２番地３,,01,663,0881370,,,,,,,2023-07-03,1,,,,,スズクナサンギョウ,0
1979,8500002024492,新規,0,2023-07-03,2023-07-03,有限会社川上ミシン電業社,,有限会社,愛媛県,西条市,大町１０５９番地,,38,206,7930030,,,,,,,2023-07-03,1,,,,,カワカミミシンデンギョウシャ,0
1981,8700150115156,新規,0,2023-07-03,2023-07-03,蘇州桑群国際貿易有限公司,,外国会社等,,,,,,,,中国江蘇省蘇州市呉中区経済開発区越溪街道溪虹路１００８号２幢２１５６室,,,,,,2023-07-03,1,,,,,ソシュウソウグンコクサイボウエキユウゲンコウシ,0
1982,8700150115602,新規,0,2023-07-03,2023-07-03,武漢佳邁貿易有限公司,,外国会社等,,,,,,,,中国武漢東湖新技術開発区関山二路特１号国際企業中心２棟５層０２室Ｔ２－２（自貿区武漢片区）,,,,,,2023-07-03,1,,,,,ブカンカマイボウエキユウゲンコウシ,0
1983,8700150116492,新規,0,2023-07-03,2023-07-03,丹陽市毅徳達工工具製造有限公司,,外国会社等,,,,,,,,中国江蘇省丹陽市開発区後王工業園５号,,,,,,2023-07-03,1,,,,,タンヨウシキトクタツコウコウグセイゾウユウゲンコウシ,0
1984,8700150118051,新規,0,2023-07-03,2023-07-03,ＧｕａｎｇＤｏｎｇＢｉＨｏｎｇＣｈｕＦａｎｇＳｈａｎｇＭａｏＹｏｕＸｉａｎＧｏｎｇＳｉ,,外国会社等,,,,,,,,Ｂｉｃｈｏｎｇ　Ｋｉｔｃｈｅｎ　ｂｙ　３２５　Ｎａｔｉｏｎａｌ　Ｒｏａｄ，Ｌｉｊｉ　Ｄｕｎ，Ｂｅｉｗｕ　Ｔｏｗｎ　Ｙａｎｇｊｉａｎｇ　Ｃｉｔｙ　Ｇｕａｎｇｄｏｎｇ　Ｐｒｏｖｉｎｃｅ　Ｙａｎｇｄｏｎｇ　Ｄｉｓｔｒｉｃｔ,,,,,,2023-07-03,1,,,,,カントンヒッコウチュウボウショウボウユウゲンコウシ,0
1985,8700150118068,新規,0,2023-07-03,2023-07-03,ｙｉｗｕｓｈｉ　ｓｏｎｇｔｅｎｇ　ｍａｏｙｉ　ｙｏｕｘｉａｎ　ｇｏｎｇｓｉ,,外国会社等,,,,,,,,５０１－４９，Ｋａｉｘｕａｎｂｅｉ－ｒｏａｄ，Ｆｕｔｉａｎ，Ｙｉｗｕ－ｃｉｔｙ，Ｚｈｅｊｉａｎｇ，Ｃｈｉｎａ,,,,,,2023-07-03,1,,,,,ギチョウシマツテンボウエキユウゲンコウシ,0
1986,8700150118076,新規,0,2023-07-03,2023-07-03,ｓｈｅｎｚｈｅｎｓｈｉ　ｎｕｏｓｅｎ　ｈｏｎｇｔｕ　ｋｅｊｉ　ｙｏｕｘｉａｎｇｏｎｇｓｉ,,外国会社等,,,,,,,,ｇｏｎｇｈｅｈｕａｙｕａｎ　２５ｄｏｎｇ　４０１　ｌｏｎｇｈｕａｑｕ　ｌｏｎｇｈｕａｊｉｅｄａｏ　ｓｏｎｇｈｅｓｈｅｑｕ　ｓｈｅｎｚｈｅｎｓｈｉ　ｇｕａｎｇｄｏｎｇ，Ｃｈｉｎａ,,,,,,2023-07-03,1,,,,,シンセンシダクシンコウズカギユウゲンコウシ,0
1987,8700150118084,新規,0,2023-07-03,2023-07-03,ＮＯＲＴＨＢＲＩＤＧＥ　ＮＥＷ　ＭＡＴＥＲＩＡＬ　ＴＥＣＨＮＯＬＯＧＹ　ＳＵＺＨＯＵＣＯ．，ＬＴＤ,,外国会社等,,,,,,,,Ｂｕｉｌｄｉｎｇ　Ｂ２，Ｃｈａｏｙａｎｇ　Ｉｎｄｕｓｔｒｉａｌ　Ａｒｅａ，Ｃａｏｈｕ　Ｉｎｄｕｓｔｒｉａ　Ｓｕｚｈｏｕ　Ｊｉａｎｇｓｕ，ＣＮ,,,,,,2023-07-03,1,,,,,ダクシカイズイシンザイリョウカギソシュウユウゲンコウシ,0
1988,8700150118092,新規,0,2023-07-03,2023-07-03,ＲＥＰＲＡＰＰＥＲ　ＴＥＣＨ　ＣＯ．，ＬＩＭＩＴＥＤ,,外国会社等,,,,,,,,ＨｏｎｇＫｏｎｇ　ＦＬＡＴ／ＲＭ　８０３　ＣＨＥＶＡＬＩＥＲ　ＨＯＵＳＥ　４５－５１　ＣＨＡＴＨＡＭ　ＲＯＡＤ　ＳＯＵＴＨ　ＴＳＩＭ　ＳＨＡ　ＴＳＵＩ　ＫＬ　ＣＮ,,,,,,2023-07-03,1,,,,,エイフカギユウゲンコウシ,0
1989,8700150118101,新規,0,2023-07-03,2023-07-03,ｙａｎｇｊｉａｎｇｓｈｉ　ｎａｎｆａｎｇｘｉｏｎｇｄｉ　ｇｏｎｇｍａｏｙｏｕｘｉａｎｇｏｎｇｓｉ,,外国会社等,,,,,,,,ｇｕａｎｇｄｏｎｇｓｈｅｎｇ　ｙａｎｇｊｉａｎｇｓｈｉ　ｍａｙａｎｇｏｎｇｙｅｑｕ　ｎａｎｆａｎｇｇｏｎｇｙｅｄａｄａｏ１－５ｈａｏ,,,,,,2023-07-03,1,,,,,ヨウコウシナンポウキョウダイコウボウユウゲンコウシ,0
1990,8700150118118,新規,0,2023-07-03,2023-07-03,ＧＵＡＮＧＺＨＯＵ　ＸＩＡＮＧＹＵ　ＱＩＣＨＥＹＯＮＧＰＩＮ　ＹＯＵＸＩＡＮＧＯＮＧＳＩ,,外国会社等,,,,,,,,Ｇｕａｎｇｈｚｈｏｕ　Ｇｕａｎｇｄｏｎｇ　４０２　Ｓｏｕｔｈ　Ｙｏｎｇｆｕ　Ｉｎｔｅｒｎａｔｉｏｎａｌ　Ｂｕｉｌｄｉｎｇ　ＮＯ．２　Ｎｏ．３ＴＯＮｏ．６Ｎｏ．３５　Ｙｏｎｇｆｕ　Ｒｏａｄ　Ｙｕｅｘｉｕ,,,,,,2023-07-03,1,,,,,コウシュウキョウゴキシャユウゲンコウシ,0
1991,8700150118126,新規,0,2023-07-03,2023-07-03,Ｓｈｅｎｚｈｅｎ　Ｓａｎｓｈｉ　Ｓｅｃｕｒｉｔｙ　Ｔｅｃｈｎｏｌｏｇｙ　Ｃｏ．，Ｌｔｄ　　　　,,外国会社等,,,,,,,,Ｋｕｋｅｎｇ　Ｃｏｍｍｕｎｉｔｙ，Ｇｕａｎｌａｎ　Ｓｔｒｅｅｔ，Ｌｏｎｇｈｕａ　Ｄｉｓｔｒｉｃｔ　Ｋｕｋｅｎｇ　Ｔｏｎｇｆｕ　Ｉｎｄｕｓｔｒｉａｌ　Ｚｏｎｅ　１３　Ｂｕｉｌｄｉｎｇ　Ａ　Ｂａｏｓａｎｈｅ　Ｃｅｒａｍｉｃ　Ｆａｃｔｏｒｙ　Ｂｕｉｌｄｉｎｇ　３０１　Ｓｈｅｎｚｈｅｎ　Ｃｉｔｙ　Ｇｕａｎｇｄｏｎｇ　Ｐｒｏｖｉｎｃｅ　ＣＮ,,,,,,2023-07-03,1,,,,,シンセンサンシセキュリティーテクノロジーカンパニーリミテッド,0
1992,8700150118134,新規,0,2023-07-03,2023-07-03,ｓｈｅｎｚｈｅｎｇｓｈｉ　ｊｕｎｙｕｅｋｅｊｉ　ｙｏｕｘｉａｎｇｏｎｇｓｉ,,外国会社等,,,,,,,,ｂａｏ　ａｎ　ｑｕ　ｓｏｎｇ　ｇａｎｇ　ｊｉｅ　ｄａｏ　ｒｅｎ　ｍｉｎ　ｌｕ　１４～２４　ｈａо　ｚｏｎｇ　ｇｕａｎ　ｄａ　ｌｏｕ　６０２　ｓｈｅｎ　ｚｈｅｎ　ｇｕａｎｇ　ｄｏｎｇ　Ｃｈｉｎａ,,,,,,2023-07-03,1,,,,,シンセンシジュンユエケジユウゲンコウシ,0
1993,8700150118142,新規,0,2023-07-03,2023-07-03,ｎｉｎｇｂｏ　ｐｉａｎｚｈｏｕｚｉｄｉａｎｚｉｓｈａｎｇｗｕ　ｙｏｕｘｉａｎｇｏｎｇｓｉ,,外国会社等,,,,,,,,２１　ｈａｏ　１０　ｚｈｕａｎｇ　１１２ｓｈｉ　ｔｕｏｇｕａｎ１７６８　ｃｈａｎｇｘｉｎｇｌｕ　６８９　ｌｏｎｇ　ｎｉｎｇｂｏ　ｚｈｅｊｉａｎｇ　Ｃｈｉｎａ,,,,,,2023-07-03,1,,,,,ニンボピェンゾォウジデンシシャンウユウゲンコウシ,0
1994,8700150118150,新規,0,2023-07-03,2023-07-03,Ｈｕｉｚｈｏｕ　Ｙｉｊｉｂａｎｇ　Ｔｒａｄｉｎｇ　Ｃｏ．，Ｌｔｄ．,,外国会社等,,,,,,,,ＹＡＮＤＡＤＡＤＡＯ　１４ＨＡＯ　ＹＵＮＴＩＡＮＨＵＡＴＩＮＧ　５ＣＥＮＧ　０９ＨＡＯＦＡＮＧ　ＨＵＩＺＨＯＵ　ＧＵＡＮＧＤＯＮＧ　ＣＨＩＮＡ,,,,,,2023-07-03,1,,,,,フイヂョウイジバントゥレイディングカンパニーリミテッド,0
1995,8700150118159,新規,0,2023-07-03,2023-07-03,Ａｎｊｉ　Ｈｏｎｇｙｕａｎ　Ｊｉａｊｕ　Ｙｏｎｇｐｉｎ　Ｙｏｕｘｉａｎ　Ｇｏｎｇｓｉ,,外国会社等,,,,,,,,ｄｉｐｕｊｉｅｄａｏｗｕｓｈａｎｓｉｌｕ５７５ｈａｏ２１ｏｕ（ｚｉｚｈｕｓｈｅｎｂａｏ）ｈｕｚｈｏｕｓｈｉ，ａｎｊｉｘｉａｎ，Ｚｈｅｊｉａｎｇ　Ｃｈｉｎａ,,,,,,2023-07-03,1,,,,,アンジホンユェンジャジュヨンピンユウゲンコウシ,0
1996,8700150118167,新規,0,2023-07-03,2023-07-03,ｙａｎｇｊｉａｎｇｓｈｉ　ｃｈｕａｎｇｈｏｎｇｇｏｎｇｍａｏ　ｙｏｕｘｉａｎｇｏｎｇｓｉ,,外国会社等,,,,,,,,Ｓｈｏｐ　４２，Ｆｌｏｏｒ　１－２，Ｂｕｉｌｄｉｎｇ　４，Ｙｕｊｉｎｇｈａｏｙｕａｎ，Ｎｏ．２６３　Ｃｈｕａｎｇｙｅ　Ｎｏｒｔｈ　Ｒｏａｄ，Ｊｉａｎｇｃｈｅｎｇ　Ｄｉｓｔｒｉｃｔ　Ｙａｎｇｊｉａｎｇ　Ｇｕａｎｇｄｏｎｇ　Ｃｈｉｎａ,,,,,,2023-07-03,1,,,,,ヤンジャンシツゥアンホンゴンマオユウゲンコウシ,0
1997,8700150118175,新規,0,2023-07-03,2023-07-03,ｓｈｅｎ　ｚｈｅｎ　ｓｈｉ　ｒａｎ　ｄｉａｎ　ｊｉａｎ　ｓｈｅｎ　ｙｏｕ　ｘｉａｎ　ｇｏｎｇ　ｓｉ,,外国会社等,,,,,,,,ｓｈｅｎ　ｚｈｅｎ　ｓｈｉ　ｙａｎ　ｔｉａｎ　ｑｕ　ｈａｉ　ｓｈａｎ　ｊｉｅ　ｄａｏ　ｐｅｎｇ　ｗａｎ　ｓｈｅ　ｑｕ　ｈａｉ　ｊｉｎｇ　ｅｒ　ｌｕ　１０３８　ｈａｏ　ｙｉ　ｈａｉ　ｇｏｎｇ　ｙｕ　ｙｉ　ｑｕ　０２　ｄｏｎｇ　０１０７　Ｃｈｉｎａ,,,,,,2023-07-03,1,,,,,シェンゼェンシランデンジャンシェンユウゲンコウシ,0
1998,8700150118183,新規,0,2023-07-03,2023-07-03,Ｄｏｎｇｇｕａｎ　ＤＥＭＥＩＹＩＮ　Ｅｌｅｃｔｒｉｃ　Ｃｏ．，Ｌｔｄ．,,外国会社等,,,,,,,,Ｒｏｏｍ　１９０４，Ｂｕｉｌｄｉｎｇ　５，ｕｃｃｈｕａｎｙｕｈｕｉｊｉｎ，Ｎｏ　４２８，Ｄｏｎｇｇｕａｎ　Ｄａｄａｏ　Ｎａｎｃｈｅｎｇｄｕａｎ，Ｎａｎｃｈｅｎｇ　Ｊｉｅｄａｏ，Ｄｏｎｇｇｕａｎ,,,,,,2023-07-03,1,,,,,トウカントクビギンデンシカギユウゲンコウシ,0
1999,8700150118191,新規,0,2023-07-03,2023-07-03,Ｇｕａｎｇｚｈｏｕ　ＨＩＢＯ　Ｉｎｄｕｓｔｒｉｅｓ　Ｃｏ．，Ｌｔｄ,,外国会社等,,,,,,,,Ｎｏ．１２，Ｌｉａｎｘｉｎｇ　１ｓｔ　Ｒｏａｄ，Ｙｉｎｂｉａｎ，Ｌｉａｎｂｉａｎ　Ｈｅｌｏｎｇ　Ｓｔｒｅｅｔ　Ｂａｉｙｕｎ　Ｄｉｓｔｒｉｃｔ　Ｇｕａｎｇｚｈｏｕ　Ｇｕａｎｇｄｏｎｇ　５１０４４０　ＣＮ,,,,,,2023-07-03,1,,,,,グワンジョウハイボーシーイエヨウシエンゴンスー,0
2011,9010001236542,新規,0,2023-07-03,2023-07-03,株式会社ＹＧＥ,,株式会社,東京都,中央区,日本橋本町１丁目２番５号,,13,102,1030023,,,,,,,2023-07-03,1,,,,,ワイジーイー,0
2020,9010405022258,新規,0,2023-07-03,2023-07-03,一般社団法人ＳＯエナジー,,その他の設立登記法人,東京都,港区,芝大門２丁目１２番３号,,13,103,1050012,,,,,,,2023-07-03,1,,,,,エスオーエナジー,0
2025,9010701044484,新規,0,2023-07-03,2023-07-03,デジタルスタートアップインベストメント株式会社,,株式会社,東京都,品川区,上大崎２丁目２５番２号新目黒東急ビル９階,,13,109,1410021,,,,,,,2023-07-03,1,,,,,デジタルスタートアップインベストメント,0
2035,9011001155360,新規,0,2023-07-03,2023-07-03,株式会社ＳｔａｒｔＳａｌｅｓ,,株式会社,東京都,渋谷区,渋谷２丁目１９番１５号宮益坂ビルディング６０９,,13,113,1500002,,,,,,,2023-07-03,1,,,,,スタートセールス,0
2036,9011001155393,新規,0,2023-07-03,2023-07-03,株式会社ＳｕｎＥｍｏｔｉｏｎ,,株式会社,東京都,渋谷区,道玄坂１丁目１０番８号渋谷道玄坂東急ビル２Ｆ－Ｃ,,13,113,1500043,,,,,,,2023-07-03,1,,,,,サンエモーション,0
2037,9011003017055,新規,0,2023-07-03,2023-07-03,Ｋｅｙｅｓ合同会社,,合同会社,東京都,目黒区,祐天寺２丁目９番１２号,,13,110,1530052,,,,,,,2023-07-03,1,,,,,,0
2038,9011101103434,新規,0,2023-07-03,2023-07-03,株式会社ユーティケイ,,株式会社,東京都,新宿区,四谷４丁目３０,,13,104,1600004,,,,,,,2023-07-03,1,,,,,ユーティケイ,0
2039,9011101103450,新規,0,2023-07-03,2023-07-03,ＡＢＣ　Ｃｏｎｓｕｌｔｉｎｇ　Ｆｉｒｍ株式会社,,株式会社,東京都,新宿区,大久保１丁目１６－１５豊生堂マンション１００２号,,13,104,1690072,,,,,,,2023-07-03,1,,,,,エービーシーコンサルティングファーム,0
2041,9011103013210,新規,0,2023-07-03,2023-07-03,合同会社ＣＫＲ,,合同会社,東京都,新宿区,西新宿４丁目１６番６号マルブン西新宿４０６,,13,104,1600023,,,,,,,2023-07-03,1,,,,,シーケーアール,0
2046,9011301028836,新規,0,2023-07-03,2023-07-03,株式会社Ｓｕｒｖｉｂｅ,,株式会社,東京都,杉並区,上高井戸２丁目８番２０号プラウド杉並高井戸サウス４０３,,13,115,1680074,,,,,,,2023-07-03,1,,,,,サヴァイブ,0
2048,9011303004802,新規,0,2023-07-03,2023-07-03,ＡＳＡ‐ＭＩＮＡ合同会社,,合同会社,東京都,杉並区,阿佐谷北２丁目１３番１３号アミュレット２０１,,13,115,1660001,,,,,,,2023-07-03,1,,,,,アサミナ,0
2051,9011601026936,新規,0,2023-07-03,2023-07-03,株式会社ＬｕＡ　Ｇｌｙｃｉｎｅ,,株式会社,東京都,練馬区,下石神井２丁目３６番４号ラフィナート嶋３０１号室,,13,120,1770042,,,,,,,2023-07-03,1,,,,,ルアグリィシーヌ,0
2052,9011803005713,新規,0,2023-07-03,2023-07-03,合同会社Ｓｋｙｓｐａコスメティクス,,合同会社,東京都,葛飾区,立石１丁目２１番１０号－１Ｆ,,13,122,1240012,,,,,,,2023-07-03,1,,,,,スカイスパコスメティクス,0
2055,9012401040689,新規,0,2023-07-03,2023-07-03,株式会社ＣＡＲＳＯＬ,,株式会社,東京都,多摩市,和田１１６７,,13,224,2060001,,,,,,,2023-07-03,1,,,,,カーソル,0
2057,9012403006052,新規,0,2023-07-03,2023-07-03,Ａｒｃｈｉ‐Ｏｎｅ合同会社,,合同会社,東京都,調布市,小島町２丁目５２番地１調布住宅１０１５,,13,208,1820026,,,,,,,2023-07-03,1,,,,,アーキーワン,0
2067,9020001152301,新規,0,2023-07-03,2023-07-03,株式会社ａｎｚｕｕ,,株式会社,神奈川県,横浜市都筑区,見花山１番３０号３階,,14,118,2240066,,,,,,,2023-07-03,1,,,,,アンズー,0
2068,9020003024110,新規,0,2023-07-03,2023-07-03,合同会社善正,,合同会社,神奈川県,横浜市神奈川区,大口通１３８番地４－６０２,,14,102,2210002,,,,,,,2023-07-03,1,,,,,ゼンショウ,0
2072,9021001079377,新規,0,2023-07-03,2023-07-03,株式会社オレンジモーメント,,株式会社,神奈川県,藤沢市,辻堂太平台２丁目３番２号,,14,205,2510044,,,,,,,2023-07-03,1,,,,,オレンジモーメント,0
2083,9030001154668,新規,0,2023-07-03,2023-07-03,株式会社Ｒｏｕｎｄ‐Ｌ,,株式会社,埼玉県,ふじみ野市,苗間３３６番地１カーサカスターニャＢ２０３,,11,245,3560052,,,,,,,2023-07-03,1,,,,,ラウンドエル,0
2084,9030001154701,新規,0,2023-07-03,2023-07-03,株式会社ＭＩＮＩＭＡＬＥＳＳ,,株式会社,埼玉県,吉川市,道庭１丁目８番５号,,11,243,3420034,,,,,,,2023-07-03,1,,,,,ミニマレス,0
2085,9030001154726,新規,0,2023-07-03,2023-07-03,ＢＲＩＧＨＴ　ＳＴＡＲ　ＴＲＡＤＩＮＧ株式会社,,株式会社,埼玉県,熊谷市,石原８８６番地１３号あすなろ１０１号室,,11,202,3600816,,,,,,,2023-07-03,1,,,,,ブライトスタートレーディング,0
2089,9030003022071,新規,0,2023-07-03,2023-07-03,ミズノ・ホースマネジメント合同会社,,合同会社,埼玉県,さいたま市緑区,大字南部領辻４０５０番地,00131038,11,109,3360973,,,,,,,2023-07-03,1,,,,,ミズノホースマネジメント,0
2094,9040003022871,新規,0,2023-07-03,2023-07-03,合同会社ＤＹ企画,,合同会社,千葉県,市川市,鬼高２丁目２６番１－７０２号（コスモシティ市川イースト）,,12,203,2720015,,,,,,,2023-07-03,1,,,,,ディーワイキカク,0
2095,9040003022888,新規,0,2023-07-03,2023-07-03,合同会社ＣＬＵＥ　Ｅ＆Ａ,,合同会社,千葉県,野田市,野田２７９番地の１０,,12,208,2780037,,,,,,,2023-07-03,1,,,,,クルーイーアンドエー,0
2096,9050001053067,新規,0,2023-07-03,2023-07-03,株式会社Ｒｏｏｔｖｅｇｅ,,株式会社,茨城県,つくば市,天久保１丁目１６－７,,08,220,3050005,,,,,,,2023-07-03,1,,,,,ルートヴェージ,0
2102,9080101024097,新規,0,2023-07-03,2023-07-03,株式会社テクノサック,,株式会社,静岡県,沼津市,原１７６７番地の１,,22,203,4100312,,,,,,,2023-07-03,1,,,,,テクノサック,0
2113,9120001256109,新規,0,2023-07-03,2023-07-03,馬九行株式会社,,株式会社,大阪府,大阪市住之江区,南港北２丁目１－１０ＡＴＣビルＩＴＭ棟５階Ｇ４－Ａ２,,27,125,5590034,,,,,,,2023-07-03,1,,,,,ウマクイク,0
2115,9120003024406,新規,0,2023-07-03,2023-07-03,合同会社イースト,,合同会社,大阪府,寝屋川市,萱島南町１４番１３－２０１号,,27,215,5720825,,,,,,,2023-07-03,1,,,,,イースト,0
2118,9120101067793,新規,0,2023-07-03,2023-07-03,株式会社ＱＱＱ,,株式会社,大阪府,松原市,天美東８丁目７番１５号,,27,217,5800032,,,,,,,2023-07-03,1,,,,,キュウキュウキュウ,0
2128,9140001130690,新規,0,2023-07-03,2023-07-03,スマート貿易株式会社,,株式会社,兵庫県,神戸市西区,大津和１丁目２－２８パラディッソコート６０１号室,,28,111,6512112,,,,,,,2023-07-03,1,,,,,スマートボウエキ,0
2129,9140001130699,新規,0,2023-07-03,2023-07-03,株式会社ＡＳＫ,,株式会社,兵庫県,神戸市西区,竹の台５丁目１９番地の２１,,28,111,6512274,,,,,,,2023-07-03,1,,,,,アスク,0
2130,9140001130708,新規,0,2023-07-03,2023-07-03,株式会社町おこしエナジー,,株式会社,兵庫県,加古川市,平岡町新在家１３７９番地の１,,28,210,6750101,,,,,,,2023-07-03,1,,,,,マチオコシエナジー,0
2134,9150003002994,新規,0,2023-07-03,2023-07-03,エレミタヴィオラ合同会社,,合同会社,奈良県,生駒市,山崎町１３番２６号,,29,209,6300252,,,,,,,2023-07-03,1,,,,,エレミタヴィオラ,0
2144,9180001156914,新規,0,2023-07-03,2023-07-03,株式会社フルタ,,株式会社,愛知県,北名古屋市,石橋五反田３３番地,,23,234,4810046,,,,,,,2023-07-03,1,,,,,フルタ,0
2149,9180003025423,新規,0,2023-07-03,2023-07-03,ＡＱ　ＮＯＯＲ　ＴＲＡＤＩＮＧ合同会社,,合同会社,愛知県,小牧市,大字池之内１２２０番地１,,23,219,4850804,,,,,,,2023-07-03,1,,,,,エーキューノールトレーディング,0
2152,9180005020273,新規,0,2023-07-03,2023-07-03,一般社団法人和わわ,,その他の設立登記法人,愛知県,名古屋市緑区,徳重１丁目８０８番地グローリアス徳重１１０１号,,23,114,4580815,,,,,,,2023-07-03,1,,,,,ワワワ,0
2165,9240003006202,新規,0,2023-07-03,2023-07-03,合同会社ｋｏｔｏｂａ．ｂｉｚ,,合同会社,広島県,福山市,駅家町上山守６４－１アンジュベル２０２,,34,207,7210000,,,,,,,2023-07-03,1,,,,,コトバドットビズ,0
2168,9260001038055,新規,0,2023-07-03,2023-07-03,株式会社ＯＮＥｌｙ,,株式会社,岡山県,岡山市北区,今１丁目４番３６号カーサデルソール６０２,,33,101,7000975,,,,,,,2023-07-03,1,,,,,ワンリー,0
2169,9260003004352,新規,0,2023-07-03,2023-07-03,合同会社ＬＯＣ,,合同会社,岡山県,岡山市北区,富原３６９７‐５,,33,101,7011153,,,,,,,2023-07-03,1,,,,,エルオーシー,0
2173,9290001102106,新規,0,2023-07-03,2023-07-03,ＡＳＵＴＯ株式会社,,株式会社,福岡県,福岡市東区,社領１丁目５番１４号,,40,131,8120068,,,,,,,2023-07-03,1,,,,,アスト,0
2174,9290003014002,新規,0,2023-07-03,2023-07-03,Ｔ．Ｓ．７合同会社,,合同会社,福岡県,福岡市城南区,田島２丁目１８－２４ラフレシーサ別府７０３,,40,136,8140113,,,,,,,2023-07-03,1,,,,,ティーエスセブン,0
2175,9290003014092,新規,0,2023-07-03,2023-07-03,合同会社楽々屋,,合同会社,福岡県,久留米市,中央町５‐８‐４０２,,40,203,8300023,,,,,,,2023-07-03,1,,,,,ラクラクヤ,0
2179,9290801029655,新規,0,2023-07-03,2023-07-03,株式会社祥,,株式会社,福岡県,北九州市八幡西区,青山３丁目１９番１３号,,40,109,8060043,,,,,,,2023-07-03,1,,,,,ショウ,0
2187,9340003004170,新規,0,2023-07-03,2023-07-03,合同会社ＹＯＳＨＩＮＯ,,合同会社,鹿児島県,鹿児島市,城山町２番３０号,,46,201,8920853,,,,,,,2023-07-03,1,,,,,ヨシノ,0
2199,9390001017293,新規,0,2023-07-03,2023-07-03,ヤマリョー建販株式会社,,株式会社,山形県,山形市,流通センター３丁目６番地の５,,06,201,9900071,,,,,,,2023-07-03,1,,,,,ヤマリョーケンパン,0
2206,9430001089428,新規,0,2023-07-03,2023-07-03,株式会社ＴＯＮＡＲＩ,,株式会社,北海道,札幌市中央区,北三条西４丁目１番１号日本生命札幌ビル１７階,,01,101,0600003,,,,,,,2023-07-03,1,,,,,トナリ,0
2207,9430003015200,新規,0,2023-07-03,2023-07-03,合同会社ヒトシロ,,合同会社,北海道,札幌市北区,あいの里四条４丁目６番１１号,,01,102,0028074,,,,,,,2023-07-03,1,,,,,ヒトシロ,0
2210,9500005008624,新規,0,2023-07-03,2023-07-03,税理士法人ＩＳＪ,,その他の設立登記法人,愛媛県,松山市,紅葉町７番９号,,38,201,7900861,,,,,,,2023-07-03,1,,,,,,0
2211,9700150115155,新規,0,2023-07-03,2023-07-03,浙江凱莱特工貿有限公司,,外国会社等,,,,,,,,中国浙江省麗水市縉雲県舒洪鎮黄平路８号,,,,,,2023-07-03,1,,,,,セッコウカイライトクコウボウユウゲンコウシ,0
2212,9700150115766,新規,0,2023-07-03,2023-04-27,ローレルタワー名古屋栄管理組合,,その他,愛知県,名古屋市中区,栄１丁目７番２８号,,23,106,4600008,,,,,,,2023-04-27,1,,,,,ローレルタワーナゴヤサカエカンリクミアイ,0
2213,9700150118050,新規,0,2023-07-03,2023-07-03,Ｙｉｗｕ　ｓｈｉ　ｊｉａｎ　ｔｕｏ　ｄｉａｎｚｉ　ｓｈａｎｇｗｕ　ｙｏｕｘｉａｎ　ｇｏｎｇｓｉ,,外国会社等,,,,,,,,Ｂｅｉｙｕａｎ　Ｓｔｒｅｅｔ　Ｕｎｉｔ　４０２，Ｕｎｉｔ　５，Ｂｕｉｌｄｉｎｇ　２３，Ｌｉｕｑｉｎｇ　Ｓｅｃｏｎｄ　Ｄｉｓｔｒｉｃｔ　Ｙｉｗｕ　Ｚｈｅｊｉａｎｇ　ＣＮ,,,,,,2023-07-03,1,,,,,ギウシカンタクデンシショウムユウゲンコウシ,0
2214,9700150118059,新規,0,2023-07-03,2023-07-03,ＧｕａｎｇＺｈｏｕＳｈｉ　ＹｉＹｉＹｕｎＳｈａｎｇＭａｏＹｏｕＸｉａｎＧｏｎｇＳｉ,,外国会社等,,,,,,,,ｇｕａｎｇｚｈｏｕｓｈｉ　ｔｉａｎｈｅｑｕ　ｇｕａｎｇｔａｎｇｘｉｈｅｎｇｌｕ５ｈａｏ５２５－２５ｆａｎｇ　ｇｕａｎｇｚｈｏｕｓｈｉ,,,,,,2023-07-03,1,,,,,コウシュウシエキイウンショウボウユウゲンコウシ,0
2215,9700150118067,新規,0,2023-07-03,2023-07-03,ＧＵＡＮＧＺＨＯＵ　ＹＵＮＰＩＮＧＫＥＪＩ　ＹＯＵＸＩＡＮＧＯＮＧＳＩ,,外国会社等,,,,,,,,Ｂａｉｙｕｎｑｕ　Ｈｅｌｏｎｇｊｉｅ　Ｐｅｎｇｓｈａｎｇ　Ｘｉｎｇｆｕｌｕ　６　Ｈａｏ　Ｈｕｉｑｉａｏｄａｓｈａ　５０１５　Ｆａｎｇ　Ｇｕａｎｇｚｈｏｕ　Ｇｕａｎｇｄｏｎｇ,,,,,,2023-07-03,1,,,,,コウシュウウンビンカギユウゲンコウシ,0
2216,9700150118075,新規,0,2023-07-03,2023-07-03,ｓｈｅｎｚｈｅｎｓｈｉ　ｏｕｓｈｉｈｕｉ　ｋｅｊｉ　ｙｏｕｘｉａｎｇｏｎｇｓｉ,,外国会社等,,,,,,,,ｆｕｈａｉｘｉｎｘｉｇａｎｇＡ１ｄｏｎｇ２０１，ｂａｏａｎｑｕ　ｆｕｈａｉｊｉｅｄａｏ，ｑｉａｏｔｏｕｓｈｅｑｕ，ｓｈｅｎｚｈｅｎｓｈｉ，ｇｕａｎｇｄｏｎｇ，Ｃｈｉｎａ,,,,,,2023-07-03,1,,,,,シンセンシオウシケイカギユウゲンコウシ,0
2217,9700150118083,新規,0,2023-07-03,2023-07-03,Ｓｈｅｎｚｈｅｎ　Ｎｅｗｔｏｎ　Ｎｅｗ　Ｅｎｅｒｇｙ　Ｔｅｃｈｎｏｌｏｇｙ　Ｃｏ．，Ｌｔｄ,,外国会社等,,,,,,,,１９０２，Ｂｕｉｌｄｉｎｇ　２，Ｊｉｎｇｊｉ　Ｙｕｊｉｎｇ　Ｔｉｍｅｓ　Ｂｕｉｌｄｉｎｇ　Ｈｕａｎｇｇｅｋｅｎｇ　Ｃｏｍｍｕｎｉｔｙ，Ｌｏｎｇｃｈｅｎｇ　Ｓｔｒｅｅｔ　Ｌｏｎｇｇａｎｇ　Ｄｉｓｔｒｉｃｔ，Ｓｈｅｎｚｈｅｎ　ＣＨＩＮＡ,,,,,,2023-07-03,1,,,,,シンセンギュウトンシンノウゲンカギユウゲンコウシ,0
2218,9700150118091,新規,0,2023-07-03,2023-07-03,ｎｉｎｇｂｏａｎｌｕｏｅｒｙｉｎｇｔｏｎｇｙｏｎｇｐｉｎｙｏｕｘｉａｎｇｏｎｇｓｉ,,外国会社等,,,,,,,,Ｃｈｉｎａ，ｚｈｅｊｉａｎｇｓｈｅｎｇ　ｎｉｎｇｂｏｓｈｉ　ｊｉａｎｇｂｅｉｑｕ　ｃｉｃｈｅｎｇｚｈｅｎｈｕａｎｇｊｉｐｕｌｕ２７６ｈａｏ３ｄｏｎｇ４０１ｓｈｉ,,,,,,2023-07-03,1,,,,,ネイハアンラクジエイドウヨウヒンユウゲンコウシ,0
2219,9700150118100,新規,0,2023-07-03,2023-07-03,ｓｈｅｎ　ｚｈｅｎ　ｓｈｉ　ｔｉｅ　ｔｏｕ　ｋｅ　ｊｉ　ｙｏｕ　ｘｉａｎ　ｇｏｎｇ　ｓｉ,,外国会社等,,,,,,,,Ｃｈｉｎａ，ＧｕａｎｇＤｏｎｇ　ｓｈｅｎｚｈｅｎ　ｇｕａｎｇ　ｍｉｎｇ　ｑｕ　ｙｕ　ｔａｎｇ　ｊｉｅ　ｄａｏ　ｇｕａｎｇ　ｍｉｎｇ　ｇａｏ　ｘｉｎ　ｙｕａｎ　ｘｉ　ｑｕ　ｑｉ　ｈａｏ　ｑｉａｏ　ｄｅ　ｋｅ　ｊｉ　ｙｕａｎ　ｃｈａｎｇ　ｆａｎｇ　Ｂｄｏｎｇ　１０１ｙｉ　ｃｅｎｇ、ｅｒ　ｃｅｎｇ,,,,,,2023-07-03,1,,,,,シンセンシテットウカギユウゲンコウシ,0
2220,9700150118109,新規,0,2023-07-03,2023-07-03,ｓｈａｎｇｈａｉｌｕｘｉｎｓｈａｎｇｗｕｚｉｘｕｎｙｏｕｘｉａｎｇｏｎｇｓｉ,,外国会社等,,,,,,,,ｌｅｄｕｘｉｌｕ８２５ｎｏｎｇ８９、９０ｈａｏ５ｃｅｎｇ　ｓｏｎｇｊｉａｎｇｑｕ　ｓｈａｎｇｈａｉｓｈｉ　２０１６９９　ＣＮ,,,,,,2023-07-03,1,,,,,シャンハイロキンショウムシジュンユウゲンコウシ,0
2221,9700150118117,新規,0,2023-07-03,2023-07-03,Ｙｉｗｕ　Ｓｈｉ　Ｚｈｉｘｕ　Ｄｉａｎｚｉ　Ｓｈａｎｇｗｕ　Ｙｏｕｘｉａｎ　Ｇｏｎｇｓｉ,,外国会社等,,,,,,,,Ｂｅｉｙｕａｎ　Ｊｉｅｄａｏ　Ｃｈｕｎｙｕｅ　Ｌｕ　４３７Ｈａｏ　２Ｌｏ　Ｚｈｅｊｉａｎｇ，Ｃｈｉｎａ,,,,,,2023-07-03,1,,,,,ギウシチゾクデンシショウムユウゲンコウシ,0
2222,9700150118125,新規,0,2023-07-03,2023-07-03,Ｑｉｎｇｄａｏ　Ｙａｊｉａ　Ｉｎｔｅｒｉｏｒ　Ｐｒｏｄｕｃｔｓ　Ｃｏ．,,外国会社等,,,,,,,,Ｎｏ．７　Ｑｕａｎｚｈｏｕ　Ｒｏａｄ，Ｅｃｏｎｏｍｉｃ　ａｎｄ　Ｔｅｃｈｎｏｌｏｇｉｃａｌ　Ｄｅｖｅｌｏｐｍｅｎｔ　Ｚｏｎｅ，Ｐｉｎｇｄｕ　Ｃｉｔｙ，Ｑｉｎｇｄａｏ,,,,,,2023-07-03,1,,,,,チンダオヤージャーシーネイヨンピンヨウシエンゴンスー,0
2223,9700150118133,新規,0,2023-07-03,2023-07-03,Ｆｕｊｉａｎ　Ｆｕｂｏｏ　Ｂａｍｂｏｏ　ａｎｄ　Ｗｏｏｄ　Ｐｒｏｄｕｃｔｓ　Ｃｏ．，Ｌｔｄ,,外国会社等,,,,,,,,１４１３Ｒｏｏｍ，６　Ｂｉｎｈｅ　Ａｖｅｎｕｅ，Ｃｈｅｎｇｇｕａｎ　Ｔｏｗｎ，Ｙｏｕｘｉ　Ｃｏｕｎｔｙ　Ｓａｎｍｉｎｇ　Ｆｕｊｉａｎ　Ｃｈｉｎａ,,,,,,2023-07-03,1,,,,,フジェンフボバンブーアンドウッドプロダクツカンパニーリミテッド,0
2224,9700150118141,新規,0,2023-07-03,2023-07-03,Ｙｉｗｕｓｈｉ　Ｆｅｎｇｂａｉ　Ｗａｎｇｌｕｏ　Ｋｅｊｉ　Ｙｏｕｘｉａｎｇｏｎｇｓｉ,,外国会社等,,,,,,,,Ｂｅｉｙｕａｎ　Ｊｉｅｄａｏ　Ｃｈｏｕｓｈａｎ２ｑｕ　３８Ｄｏｎｇ　１Ｌｏｕ　１０１Ｓｈｉ　Ｙｉｗｕｓｈｉ　Ｚｈｅｊｉａｎｇｓｈｅｎｇ　Ｃｈｉｎａ,,,,,,2023-07-03,1,,,,,イウシフェンバイワンロケジユウゲンコウシ,0
2225,9700150118158,新規,0,2023-07-03,2023-07-03,Ｑｕａｎｚｈｏｕ　ＨｗａＧｕｉ　Ｉｎｆｏ　Ｔｅｃｈｎｏｌｏｇｙ　Ｃｏ．，Ｌｔｄ,,外国会社等,,,,,,,,ｆｅｎｇｚｅ　ｑｕ　ｑｕａｎｘｉｕ　ｊｉｅｄａｏ，ｃｈｅｎｚｈｏｕ　ｌｕ　ｌｉａｎｈｕａ　ｄａｓｈａ　４０２－Ｂ　Ｑｕａｎｚｈｏｕ　ｃｉｔｙ　ｆｕｊｉａｎ　Ｃｈｉｎａ,,,,,,2023-07-03,1,,,,,ツェンゾォウホゥアグイインフォメーションテクノロジーカンパニーリミテッド,0
2226,9700150118166,新規,0,2023-07-03,2023-07-03,ｓｕｚｈｏｕ　ｌｖｘｉａｏ　ｈｅｔａｄｅ　ｐｅｎｇｙｏｕｍｅｎ　ｄｉａｎｚｉｓｈａｎｇｗｕ　Ｃｏ．，Ｌｔｄ．,,外国会社等,,,,,,,,Ｄｏｎｇｆｕｌｕ３２ｈａｏ　Ｃｄｏｎｇ　２０８ｓｈｉ　Ｇｏｎｇｙｅｙｕａｎｑｕ　Ｓｕｚｈｏｕ　Ｊｉａｎｇｓｕ　Ｃｈｉｎａ,,,,,,2023-07-03,1,,,,,スチョウルシャオヘタデペンヨウメンデンシショウムカンパニーリミテッド,0
2227,9700150118174,新規,0,2023-07-03,2023-07-03,ＥＩＧＤＡＹ　ＰＯＷＥＲ　ＥＬＥＣＴＲＯＮＩＣＳ　ＬＩＭＩＴＥＤ,,外国会社等,,,,,,,,４５－５１　ＣＨＡＴＨＡＭ　ＲＯＡＤ　ＳＯＵＴＨ，ＴＳＩＭ　ＳＨＡ　ＴＳＵＩ，ＫＬ　ＲＯＯＭ　８０３，ＣＨＥＶＡＬＩＥＲ　ＨＯＮＧ　ＫＯＮＧ,,,,,,2023-07-03,1,,,,,エイグデイパワーイレクトゥロニクスリミティッド,0
2228,9700150118182,新規,0,2023-07-03,2023-07-03,Ｈｏｎｇ　Ｋｏｎｇ　Ｄｏｎｇｓｈｅｎｇ　Ｔｒａｄｉｎｇ　Ｃｏ．，Ｌｉｍｉｔｅｄ,,外国会社等,,,,,,,,ＲＭ４，１６／Ｆ，ＨＯ　ＫＩＮＧ　ＣＯＭＭ　ＣＴＲ，２－１６　ＦＡＹＵＥＮ　ＳＴ，ＭＯＮＧＫＯＫ　ＫＯＷＬＯＯＮ　ＨＯＮＧ　ＫＯＮＧ,,,,,,2023-07-03,1,,,,,ホンコントウショウボウエキユウゲンコウシ,0
2229,9700150118190,新規,0,2023-07-03,2023-07-03,Ｓｈｅｎｚｈｅｎｓｈｉｊｉｒｕｉｓｈｉｐｉｎｋｅｊｉｙｏｕｘｉａｎｇｏｎｇｓｉ,,外国会社等,,,,,,,,Ｌｏｎｇｈｕａｘｉｎｑｕ　Ｌｏｎｇｈｕａｊｉｅｄａｏ　Ｈｅｐｉｎｇｌｕ６４ｈａｏ　Ｚｈｅｎｈｕａｇｏｎｇｙｅｙｕａｎ　Ａ５０１　ＳＨＥＮＺＨＥＮ　ＧＵＡＮＧＤＯＮＧ　５１８０００　ＣＮ,,,,,,2023-07-03,1,,,,,シェンジェンシージールイシーピンコージーヨウシエンゴンスー,0
