sequenceNumber,corporateNumber,process,correct,updateDate,changeDate,name,nameImageId,kind,prefectureName,cityName,streetNumber,addressImageId,prefectureCode,cityCode,postCode,addressOutside,addressOutsideImageId,closeDate,closeCause,successorCorporateNumber,changeCause,assignmentDate,latest,enName,enPrefectureName,enCityName,enAddressOutside,furigana,hihyoji
10,1010005035188,新規,0,2022-06-29,2022-06-29,はつな弁理士法人,,その他の設立登記法人,東京都,千代田区,内幸町２丁目１番１号,,13,101,1000011,,,,,,,2022-06-29,1,,,,,ハツナ,0
14,1010405021110,新規,0,2022-06-29,2022-06-29,一般社団法人地球循環再興機構,,その他の設立登記法人,東京都,港区,南青山２丁目２番１５号,,13,103,1070062,,,,,,,2022-06-29,1,,,,,チキュウジュンカンサイコウキコウ,0
15,1010405021151,新規,0,2022-06-29,2022-06-29,ＪＭカリーナ特定目的会社,,その他の設立登記法人,東京都,港区,六本木１丁目９番１０号アークヒルズ仙石山森タワー４０階,,13,103,1060032,,,,,,,2022-06-29,1,,,,,ジェイエムカリーナ,0
16,1010601061397,新規,0,2022-06-29,2022-06-29,日本明京株式会社,,株式会社,東京都,江東区,亀戸７丁目３９番４号２０５号室,,13,108,1360071,,,,,,,2022-06-29,1,,,,,ニホンメイキョウ,0
36,1011001148355,新規,0,2022-06-29,2022-06-29,株式会社ｎｏｂｉｌｉｓ,,株式会社,東京都,渋谷区,富ヶ谷１丁目４９番３号フェリーチェ代々木公園２０１,,13,113,1510063,,,,,,,2022-06-29,1,,,,,ノビリス,0
37,1011001148388,新規,0,2022-06-29,2022-06-29,株式会社ＳＴＡＲＧａｉａ８８８,,株式会社,東京都,渋谷区,恵比寿西１丁目１７番２号シャルマンコーポ恵比寿１階,,13,113,1500021,,,,,,,2022-06-29,1,,,,,スターガイアハチハチハチ,0
40,1011003014935,新規,0,2022-06-29,2022-06-29,合同会社ＡＫ,,合同会社,東京都,渋谷区,笹塚２丁目１－１２プレールドゥーク笹塚１００１,,13,113,1510073,,,,,,,2022-06-29,1,,,,,エーケー,0
46,1011501028197,新規,0,2022-06-29,2022-06-29,株式会社アミティ燦,,株式会社,東京都,北区,神谷２丁目４５番７－２０８号,,13,117,1150043,,,,,,,2022-06-29,1,,,,,アミティサン,0
52,1011701025416,新規,0,2022-06-29,2022-06-29,株式会社天菜研究所,,株式会社,東京都,江戸川区,瑞江２丁目５－３グレイス瑞江２Ｆ,,13,123,1320011,,,,,,,2022-06-29,1,,,,,アマナケンキュウジョ,0
56,1012701017122,新規,0,2022-06-29,2022-06-29,株式会社ＨＭＳパートナーズ,,株式会社,東京都,西東京市,下保谷３丁目４番４号,,13,229,2020004,,,,,,,2022-06-29,1,,,,,エイチエムエスパートナーズ,0
57,1012803002823,新規,0,2022-06-29,2022-06-29,合同会社ゆめのみ,,合同会社,東京都,国分寺市,新町３丁目２５番地２,,13,214,1850004,,,,,,,2022-06-29,1,,,,,ユメノミ,0
61,1013301049316,新規,0,2022-06-29,2022-06-29,Ｗａｔｃｈａ　Ｊａｐａｎ株式会社,,株式会社,東京都,豊島区,池袋２丁目６８番５号７０５室,,13,116,1710014,,,,,,,2022-06-29,1,,,,,ウォッチャジャパン,0
68,1020001147093,新規,0,2022-06-29,2022-06-29,株式会社Ｓｔｒｏｎｇ　Ｗｉｌｌ,,株式会社,神奈川県,横浜市神奈川区,橋本町２丁目５番地３,,14,102,2210053,,,,,,,2022-06-29,1,,,,,ストロングウィル,0
69,1020001147110,新規,0,2022-06-29,2022-06-29,株式会社レイナス,,株式会社,神奈川県,横浜市戸塚区,舞岡町１２２番地６１ヴェールシャルマン舞岡２０２号,,14,110,2440813,,,,,,,2022-06-29,1,,,,,レイナス,0
72,1020003022014,新規,0,2022-06-29,2022-06-29,合同会社だんだん,,合同会社,神奈川県,横浜市港北区,篠原北１丁目１－１２,,14,109,2220021,,,,,,,2022-06-29,1,,,,,ダンダン,0
81,1021003011881,新規,0,2022-06-29,2022-06-29,合同会社まるた商店,,合同会社,神奈川県,三浦郡葉山町,長柄１５５０－３３,,14,301,2400113,,,,,,,2022-06-29,1,,,,,マルタショウテン,0
95,1040001124033,新規,0,2022-06-29,2022-06-29,株式会社ＮＡＮＳＯ　Ｌｕｃｋｙ　Ｐｒｏ．,,株式会社,千葉県,南房総市,山田６８２,,12,234,2992203,,,,,,,2022-06-29,1,,,,,ナンソーラッキープロ,0
103,1050003006633,新規,0,2022-06-29,2022-06-29,Ｋａｃｃｈｉｎ　Ｋｏｃｃｈｉｎ合同会社,,合同会社,茨城県,北茨城市,磯原町磯原１６３０－１９３Ｂ２０３号室,,08,215,3191541,,,,,,,2022-06-29,1,,,,,カッチンコッチン,0
106,1080403004572,新規,0,2022-06-29,2022-06-29,合同会社ＫＴＴ,,合同会社,静岡県,浜松市中区,蜆塚１丁目６番３６号,,22,131,4328018,,,,,,,2022-06-29,1,,,,,ケーティーティー,0
107,1090001017637,新規,0,2022-06-29,2022-06-29,株式会社Ａ２Ｄ４,,株式会社,山梨県,甲府市,古府中町８５８番地３,,19,201,4000014,,,,,,,2022-06-29,1,,,,,エーツゥーディーフォー,0
110,1110001036766,新規,0,2022-06-29,2022-06-29,株式会社ワークステップ,,株式会社,新潟県,見附市,今町７丁目１３９６番地３,,15,211,9540111,,,,,,,2022-06-29,1,,,,,ワークステップ,0
144,1140001126564,新規,0,2022-06-29,2022-06-29,江華アセット株式会社,,株式会社,兵庫県,神戸市東灘区,御影中町６丁目４番１２号,,28,101,6580054,,,,,,,2022-06-29,1,,,,,コウカアセット,0
147,1150001025658,新規,0,2022-06-29,2022-06-29,株式会社リラックスリビング,,株式会社,奈良県,生駒市,南田原町１０５１番地２３,,29,209,6300135,,,,,,,2022-06-29,1,,,,,リラックスリビング,0
166,1180001151930,新規,0,2022-06-29,2022-06-29,株式会社吉川商事,,株式会社,愛知県,名古屋市北区,楠味鋺２丁目２０５番地の６,,23,103,4620014,,,,,,,2022-06-29,1,,,,,ヨシカワショウジ,0
167,1180001151955,新規,0,2022-06-29,2022-06-29,株式会社舞台工房伽藍堂,,株式会社,愛知県,弥富市,川平１丁目９番地,,23,235,4980013,,,,,,,2022-06-29,1,,,,,ブタイコウボウガランドウ,0
168,1180001151963,新規,0,2022-06-29,2022-06-29,株式会社伍人会,,株式会社,愛知県,名古屋市中川区,山王４丁目２番７号,,23,110,4540011,,,,,,,2022-06-29,1,,,,,ゴニンカイ,0
171,1180003023987,新規,0,2022-06-29,2022-06-29,ＳＰＩＲＡＬＳ合同会社,,合同会社,愛知県,江南市,赤童子町大堀３２番地４,,23,217,4838221,,,,,,,2022-06-29,1,,,,,スパイラルズ,0
188,1250001019633,新規,0,2022-06-29,2022-06-29,株式会社クラタ,,株式会社,山口県,宇部市,助田町６番２１号,,35,202,7550054,,,,,,,2022-06-29,1,,,,,クラタ,0
199,1290001098087,新規,0,2022-06-29,2022-06-29,株式会社ひまきの犬猫病院,,株式会社,福岡県,福津市,日蒔野５丁目２番１号,,40,224,8113209,,,,,,,2022-06-29,1,,,,,ヒマキノイヌネコビョウイン,0
201,1290801028672,新規,0,2022-06-29,2022-06-29,ＳＰＥＥＤＫＥＮ株式会社,,株式会社,福岡県,北九州市小倉南区,田原新町１丁目１３番２号,,40,107,8000226,,,,,,,2022-06-29,1,,,,,スピードケン,0
210,1360003012096,新規,0,2022-06-29,2022-06-29,合同会社ＬＥＶＥＣＨ,,合同会社,沖縄県,沖縄市,中央２丁目１０番１０号２Ｆ,,47,211,9040004,,,,,,,2022-06-29,1,,,,,レベチ,0
212,1370001048694,新規,0,2022-06-29,2022-06-29,株式会社サカモト,,株式会社,宮城県,富谷市,太子堂２丁目１７番２３号,,04,216,9813303,,,,,,,2022-06-29,1,,,,,サカモト,0
224,1430001086936,新規,0,2022-06-29,2022-06-29,太平洋国際株式会社,,株式会社,北海道,札幌市中央区,南三条西６丁目５番セザール第１札幌１００３号室,,01,101,0600063,,,,,,,2022-06-29,1,,,,,タイヘイヨウコクサイ,0
225,1430001086969,新規,0,2022-06-29,2022-06-29,株式会社ＴＨＦ,,株式会社,北海道,札幌市東区,北四十条東３丁目２番２号,,01,103,0070840,,,,,,,2022-06-29,1,,,,,ティーエイチエフ,0
226,1430003014052,新規,0,2022-06-29,2022-06-29,合同会社ｅｒｉテック,,合同会社,北海道,登別市,若山町２丁目４３番地６６,,01,230,0590026,,,,,,,2022-06-29,1,,,,,エリテック,0
237,1700150053180,新規,0,2022-06-29,2015-10-09,防府競輪運営事務協力会,,その他,山口県,防府市,国分寺町８番２号,,35,206,7470021,,,,,,,2015-10-09,1,,,,,ホウフケイリンウンエイジムキヨウリヨクカイ,0
244,2010001227705,新規,0,2022-06-29,2022-06-29,Ｐｌａｎｅｔホールディングス株式会社,,株式会社,東京都,千代田区,永田町１丁目１１番３０号サウスヒル永田町５階,,13,101,1000014,,,,,,,2022-06-29,1,,,,,プラネットホールディングス,0
249,2010005035187,新規,0,2022-06-29,2022-06-29,ディエイチ・ディベロップメント・ファイブ特定目的会社,,その他の設立登記法人,東京都,千代田区,飯田橋４丁目７番１号結和税理士法人内,,13,101,1020072,,,,,,,2022-06-29,1,,,,,ディエイチディベロップメントファイブ,0
256,2010401168004,新規,0,2022-06-29,2022-06-29,株式会社ＡＤ　ｈｏｌｄｉｎｇｓ,,株式会社,東京都,港区,南青山２丁目２番１５号,,13,103,1070062,,,,,,,2022-06-29,1,,,,,アドホールディングス,0
257,2010401168219,新規,0,2022-06-29,2022-06-29,株式会社ライゾーマビジネス,,株式会社,東京都,港区,赤坂８丁目１０番２４号,,13,103,1070052,,,,,,,2022-06-29,1,,,,,ライゾーマビジネス,0
258,2010401168227,新規,0,2022-06-29,2022-06-29,株式会社Ｅｖｏｌｖｅ,,株式会社,東京都,港区,北青山２丁目７番２６号Ｌａｎｄｗｏｒｋ青山ビル２階,,13,103,1070061,,,,,,,2022-06-29,1,,,,,イボルブ,0
261,2010403027950,新規,0,2022-06-29,2022-06-29,合同会社ＺｉＥｉｇｈｔ,,合同会社,東京都,港区,浜松町２丁目２番１５号浜松町ダイヤビル２Ｆ,,13,103,1050013,,,,,,,2022-06-29,1,,,,,ズィーエイト,0
263,2010501049021,新規,0,2022-06-29,2022-06-29,Ｙｏａｋｅ　Ｆａｓｈｉｏｎ株式会社,,株式会社,東京都,台東区,三ノ輪２丁目３番８－１０７号,,13,106,1100011,,,,,,,2022-06-29,1,,,,,ヨアケファッション,0
278,2010901051122,新規,0,2022-06-29,2022-06-29,株式会社カンナビノベーション,,株式会社,東京都,世田谷区,桜丘２丁目２９番６号ＳＫビル２Ｆ,,13,112,1560054,,,,,,,2022-06-29,1,,,,,カンナビノベーション,0
290,2011001148370,新規,0,2022-06-29,2022-06-29,株式会社グラニーエステート,,株式会社,東京都,目黒区,平町１丁目２２番１２号,,13,110,1520032,,,,,,,2022-06-29,1,,,,,グラニーエステート,0
294,2011101099365,新規,0,2022-06-29,2022-06-29,株式会社Ｓ．Ｉ　Ｃｏｍｐａｎｙ,,株式会社,東京都,新宿区,大久保１丁目１番４５－３０６号,,13,104,1690072,,,,,,,2022-06-29,1,,,,,エスアイカンパニー,0
295,2011103011889,新規,0,2022-06-29,2022-06-29,合同会社イーグルキャピタル２号ファンド,,合同会社,東京都,新宿区,西新宿２丁目１番１号新宿三井ビルディング４９階,,13,104,1600023,,,,,,,2022-06-29,1,,,,,イーグルキャピタルニゴウファンド,0
308,2011501028196,新規,0,2022-06-29,2022-06-29,株式会社Ｕｎｌｏｃｋ,,株式会社,東京都,荒川区,南千住４丁目７番３－９１６号,,13,118,1160003,,,,,,,2022-06-29,1,,,,,アンロック,0
310,2011503005202,新規,0,2022-06-29,2022-06-29,輝かしい未来トータルサポート合同会社,,合同会社,東京都,北区,上十条５丁目３９番２号,,13,117,1140034,,,,,,,2022-06-29,1,,,,,カガヤカシイミライトータルサポート,0
313,2011805003184,新規,0,2022-06-29,2022-06-29,一般社団法人ブックフィルムフェスティバル,,その他の設立登記法人,東京都,足立区,千住河原町７－１３－１４０１,,13,121,1200037,,,,,,,2022-06-29,1,,,,,ブックフィルムフェスティバル,0
316,2012403005449,新規,0,2022-06-29,2022-06-29,合同会社Ｌｅａ,,合同会社,東京都,武蔵野市,境３丁目１３番４号,,13,203,1800022,,,,,,,2022-06-29,1,,,,,レア,0
317,2012801021683,新規,0,2022-06-29,2022-06-29,３６９株式会社,,株式会社,東京都,立川市,若葉町１丁目３２番地の２９,,13,202,1900001,,,,,,,2022-06-29,1,,,,,ミロク,0
318,2012803002822,新規,0,2022-06-29,2022-06-29,合同会社ＭＯＲＯ,,合同会社,東京都,日野市,日野本町３丁目３番地の１レクセルヒルズ日野４１０,,13,212,1910011,,,,,,,2022-06-29,1,,,,,モロ,0
329,2020003021898,新規,0,2022-06-29,2022-06-29,合同会社Ｇｒｏｏｖｅ,,合同会社,神奈川県,川崎市多摩区,登戸２９７３手塚ビル３０１,,14,135,2140014,,,,,,,2022-06-29,1,,,,,グルーヴ,0
332,2021003011872,新規,0,2022-06-29,2022-06-29,タケザワ合同会社,,合同会社,神奈川県,藤沢市,立石１丁目７番地３,,14,205,2510872,,,,,,,2022-06-29,1,,,,,タケザワ,0
335,2030001148866,新規,0,2022-06-29,2022-06-29,株式会社ＭＩＹＡＢＩ,,株式会社,埼玉県,川口市,宮町１番８号,,11,203,3320028,,,,,,,2022-06-29,1,,,,,ミヤビ,0
336,2030001148916,新規,0,2022-06-29,2022-06-29,株式会社ｍａｙ,,株式会社,埼玉県,入間郡三芳町,大字上富１５４５番地５９,,11,324,3540045,,,,,,,2022-06-29,1,,,,,メイ,0
340,2030005020906,新規,0,2022-06-29,2022-06-29,一般社団法人断機,,その他の設立登記法人,埼玉県,幸手市,中１丁目７番９号,,11,240,3400115,,,,,,,2022-06-29,1,,,,,ダンキ,0
345,2040001123901,新規,0,2022-06-29,2022-06-29,Ｊ＆Ｍ　ＩＮＴＥＲＮＡＴＩＯＮＡＬ　ＥＸＰＯＲＴ株式会社,,株式会社,千葉県,四街道市,鹿放ケ丘３２９番地４,,12,228,2840008,,,,,,,2022-06-29,1,,,,,ジェイアンドエムインターナショナルエクスポート,0
346,2040001124016,新規,0,2022-06-29,2022-06-29,株式会社桜来,,株式会社,千葉県,習志野市,大久保１丁目２０番７号コーポ杉浦２１０号,,12,216,2750011,,,,,,,2022-06-29,1,,,,,オウライ,0
347,2040001124032,新規,0,2022-06-29,2022-06-29,株式会社ＮＥＸＵＳ,,株式会社,千葉県,市川市,稲荷木２丁目２１番２０号（Ｌｉｂｒａ１０２号）,,12,203,2720024,,,,,,,2022-06-29,1,,,,,ネクサス,0
353,2040003020295,新規,0,2022-06-29,2022-06-29,ＢＣＯＳ　Ｐａｒｔｎｅｒｓ合同会社,,合同会社,千葉県,佐倉市,ユーカリが丘４丁目１－１スカイプラザ・モール３Ｆ,,12,212,2850858,,,,,,,2022-06-29,1,,,,,ビーコスパートナーズ,0
355,2050001051317,新規,0,2022-06-29,2022-06-29,株式会社トラスト,,株式会社,茨城県,土浦市,桜町２丁目４番８号,,08,203,3000037,,,,,,,2022-06-29,1,,,,,,0
360,2060003004115,新規,0,2022-06-29,2022-06-29,トライコーポレーション合同会社,,合同会社,栃木県,矢板市,片岡２１５８番地１２,,09,211,3291571,,,,,,,2022-06-29,1,,,,,トライコーポレーション,0
361,2060003004123,新規,0,2022-06-29,2022-06-29,合同会社Ｃｅｙｌｏｎ　Ｓｐｉｃｅｓ,,合同会社,栃木県,宇都宮市,西川田３丁目１１番１８号リバーウエストハイツ２０２,,09,201,3210152,,,,,,,2022-06-29,1,,,,,セイロンスパイシーズ,0
368,2100003006593,新規,0,2022-06-29,2022-06-29,雪の音合同会社,,合同会社,長野県,飯山市,大字飯山１１４９２番地３３１,,20,213,3892253,,,,,,,2022-06-29,1,,,,,ユキノオト,0
369,2100003006602,新規,0,2022-06-29,2022-06-29,合同会社ＭＡＦＩＳ,,合同会社,長野県,上田市,国分６６６番地５,,20,203,3860016,,,,,,,2022-06-29,1,,,,,マフィス,0
383,2120003021995,新規,0,2022-06-29,2022-06-29,合同会社Ｉｖｙ,,合同会社,大阪府,大阪市中央区,南船場４丁目１０番５号南船場ＳＯＨＯビル７０２,,27,128,5420081,,,,,,,2022-06-29,1,,,,,アイビー,0
400,2140001126547,新規,0,2022-06-29,2022-06-29,株式会社棚原写真事務所,,株式会社,兵庫県,川西市,大和東４丁目１４番地の１５,,28,217,6660111,,,,,,,2022-06-29,1,,,,,タナハラシャシンジムショ,0
414,2180001151913,新規,0,2022-06-29,2022-06-29,ＭＴソリューション株式会社,,株式会社,愛知県,一宮市,浅井町尾関字上川田６９番地,,23,203,4910101,,,,,,,2022-06-29,1,,,,,エムティソリューション,0
415,2180001151954,新規,0,2022-06-29,2022-06-29,株式会社中京アクティブ,,株式会社,愛知県,名古屋市東区,東片端町２７番１,,23,102,4610015,,,,,,,2022-06-29,1,,,,,チュウキョウアクティブ,0
418,2180003023986,新規,0,2022-06-29,2022-06-29,合同会社ＡＬＯＨＡ　ＳＣＲＯＬＬ,,合同会社,愛知県,名古屋市西区,南川町３０５番地の２,,23,104,4520814,,,,,,,2022-06-29,1,,,,,アロハスクロール,0
431,2240001060001,新規,0,2022-06-29,2022-06-29,株式会社Ｍ＆Ｈトラスト,,株式会社,広島県,広島市中区,南竹屋町２番３４－１３０１号,,34,101,7300049,,,,,,,2022-06-29,1,,,,,エムアンドエイチトラスト,0
437,2250003003106,新規,0,2022-06-29,2022-06-29,合同会社ニアフレンド,,合同会社,山口県,長門市,油谷新別名９９９番地１,,35,211,7594503,,,,,,,2022-06-29,1,,,,,ニアフレンド,0
461,2350003004110,新規,0,2022-06-29,2022-06-29,章成工業合同会社,,合同会社,宮崎県,都城市,都北町５８７５番地４,,45,202,8850004,,,,,,,2022-06-29,1,,,,,ショウセイコウギョウ,0
478,2410001013222,新規,0,2022-06-29,2022-06-29,株式会社ゼロ・マネジメント,,株式会社,秋田県,横手市,横手町字三ノ口１８番地１,,05,203,0130061,,,,,,,2022-06-29,1,,,,,ゼロマネジメント,0
490,2500001024301,新規,0,2022-06-29,2022-06-29,株式会社クリーン開発,,株式会社,愛媛県,松山市,和泉北１丁目５番３号,,38,201,7900038,,,,,,,2022-06-29,1,,,,,クリーンカイハツ,0
491,2700150109279,新規,0,2022-06-29,2022-06-07,アクアジャズオーケストラ,,その他,大阪府,吹田市,新芦屋下１７－７,,27,205,5650803,,,,,,,2022-06-07,1,,,,,アクアジヤズオーケストラ,0
492,2700150109907,新規,0,2022-06-29,2022-06-16,全日本剛柔流空手道連盟総本部剛武舘,,その他,宮城県,仙台市若林区,連坊２丁目３－２１,,04,103,9840052,,,,,,,2022-06-16,1,,,,,ゼンニホンゴウジユウリユウカラテドウレンメイソウホンブゴウブカン,0
498,3010001227605,新規,0,2022-06-29,2022-06-29,祥＿株式会社,00127047,株式会社,東京都,千代田区,岩本町２丁目１８番１５号Ａｓａｈｉ．ＢＬＤ５Ｆ,,13,101,1010032,,,,,,,2022-06-29,1,,,,,ショウキン,0
512,3010601061321,新規,0,2022-06-29,2022-06-29,ＳＡＭＪＨＡＮＡ　ＩＮＴＥＲＮＡＴＩＯＮＡＬ株式会社,,株式会社,東京都,江東区,南砂２丁目３番６－１１０３号,,13,108,1360076,,,,,,,2022-06-29,1,,,,,サマザナインターナショナル,0
521,3011001148337,新規,0,2022-06-29,2022-06-29,株式会社ＧｉｆｔＸ,,株式会社,東京都,渋谷区,宇田川町２番１号,,13,113,1500042,,,,,,,2022-06-29,1,,,,,ギフトエックス,0
523,3011003014941,新規,0,2022-06-29,2022-06-29,Ｏｕｔ　ｏｆ　Ｂｌｕｅ合同会社,,合同会社,東京都,渋谷区,恵比寿３丁目９番１０号ビューコート恵比寿３０５,,13,113,1500013,,,,,,,2022-06-29,1,,,,,アウトオブブルー,0
531,3011103011888,新規,0,2022-06-29,2022-06-29,合同会社イーグルキャピタル１号ファンド,,合同会社,東京都,新宿区,西新宿２丁目１番１号新宿三井ビルディング４９階,,13,104,1600023,,,,,,,2022-06-29,1,,,,,イーグルキャピタルイチゴウファンド,0
532,3011103011896,新規,0,2022-06-29,2022-06-29,ＴＨＡＯ　ＴＨＡＯ合同会社,,合同会社,東京都,新宿区,百人町２丁目１８番１５号,,13,104,1690073,,,,,,,2022-06-29,1,,,,,タオタオ,0
538,3011401024360,新規,0,2022-06-29,2022-06-29,株式会社ＴＹＫ,,株式会社,東京都,板橋区,新河岸３丁目８番８号,,13,119,1750081,,,,,,,2022-06-29,1,,,,,ティーワイケー,0
544,3011501028179,新規,0,2022-06-29,2022-06-29,Ｃｏｓｔａｔｉｏｎ株式会社,,株式会社,東京都,荒川区,東尾久２丁目２番９号三祥ビル２１３号室,,13,118,1160012,,,,,,,2022-06-29,1,,,,,コステーション,0
545,3011501028195,新規,0,2022-06-29,2022-06-29,日本宝研株式会社,,株式会社,東京都,荒川区,東日暮里６丁目３３番７号,,13,118,1160014,,,,,,,2022-06-29,1,,,,,ニホンタカラケン,0
546,3011503005201,新規,0,2022-06-29,2022-06-29,合同会社ＨＩＴ,,合同会社,東京都,荒川区,西尾久４丁目５番２０号,,13,118,1160011,,,,,,,2022-06-29,1,,,,,ヒット,0
550,3011801040924,新規,0,2022-06-29,2022-06-29,高愛株式会社,,株式会社,東京都,足立区,綾瀬２丁目２０番１２－４０２号,,13,121,1200005,,,,,,,2022-06-29,1,,,,,コウアイ,0
555,3012803002821,新規,0,2022-06-29,2022-06-29,合同会社ＭＥＧＵＭＩ,,合同会社,東京都,日野市,新町５丁目１１番地の４２,,13,212,1910002,,,,,,,2022-06-29,1,,,,,メグミ,0
556,3013305003358,新規,0,2022-06-29,2022-06-29,特定非営利活動法人空家対策コンサルティング協会,,その他の設立登記法人,東京都,豊島区,北大塚２丁目７番９号第３３東京ビル４階,,13,116,1700004,,,,,,,2022-06-29,1,,,,,アキヤタイサクコンサルティングキョウカイ,0
563,3020001147125,新規,0,2022-06-29,2022-06-29,株式会社まなびヶ丘,,株式会社,神奈川県,川崎市麻生区,百合丘３丁目１９番１４号,,14,137,2150011,,,,,,,2022-06-29,1,,,,,マナビガオカ,0
587,3040003020344,新規,0,2022-06-29,2022-06-29,合同会社ＴＲＡＮＧＥ,,合同会社,千葉県,千葉市美浜区,打瀬２丁目５番地,,12,106,2610013,,,,,,,2022-06-29,1,,,,,トランジ,0
588,3040005021662,新規,0,2022-06-29,2022-06-29,一般社団法人国際コンフィジェンヌ協会,,その他の設立登記法人,千葉県,千葉市中央区,松ケ丘町９６番地１４,,12,101,2600807,,,,,,,2022-06-29,1,,,,,コクサイコンフィジェンヌキョウカイ,0
600,3070001039375,新規,0,2022-06-29,2022-06-29,株式会社エクシト,,株式会社,群馬県,高崎市,旭町１３８番地１ラディファンス１０３号,,10,202,3700052,,,,,,,2022-06-29,1,,,,,エクシト,0
610,3090005007500,新規,0,2022-06-29,2022-06-29,特定非営利活動法人にららん,,その他の設立登記法人,山梨県,韮崎市,本町４丁目３番７号,,19,207,4070024,,,,,,,2022-06-29,1,,,,,ニララン,0
628,3120003021904,新規,0,2022-06-29,2022-06-29,合同会社ぱぱらくＬａｂ．,,合同会社,大阪府,枚方市,宮之阪４丁目１５－１６－２,,27,210,5730022,,,,,,,2022-06-29,1,,,,,パパラクラボ,0
629,3120005023015,新規,0,2022-06-29,2022-06-29,一般社団法人はーしみ,,その他の設立登記法人,大阪府,大阪市住吉区,山之内１丁目２７番１１号,,27,120,5580023,,,,,,,2022-06-29,1,,,,,ハーシミ,0
633,3120101065794,新規,0,2022-06-29,2022-06-29,株式会社ＬＩＧＯ,,株式会社,大阪府,堺市西区,鳳東町１丁４番地３１・４階Ｂ区画,,27,144,5938324,,,,,,,2022-06-29,1,,,,,リゴ,0
634,3120101065811,新規,0,2022-06-29,2022-06-29,株式会社ＤＡＩＲＥＮホールディングス,,株式会社,大阪府,松原市,田井城１丁目５－１８－３０１,,27,217,5800044,,,,,,,2022-06-29,1,,,,,ダイレンホールディングス,0
637,3120105009582,新規,0,2022-06-29,2022-06-29,一般財団法人きのした未来財団,,その他の設立登記法人,大阪府,堺市堺区,南瓦町１番１９,,27,141,5900078,,,,,,,2022-06-29,1,,,,,キノシタミライザイダン,0
639,3120901046168,新規,0,2022-06-29,2022-06-29,洋銘株式会社,,株式会社,大阪府,吹田市,江坂町５丁目１１－１０サンシャイン緑地公園３０２号,,27,205,5640063,,,,,,,2022-06-29,1,,,,,ヨウメイ,0
641,3122001036025,新規,0,2022-06-29,2022-06-29,株式会社Ｏｎｅ　ａｎｄ　ｏｎｌｙ,,株式会社,大阪府,東大阪市,日下町１丁目２番３０－４０２号,,27,227,5798003,,,,,,,2022-06-29,1,,,,,ワンアンドオンリー,0
647,3130001072056,新規,0,2022-06-29,2022-06-29,株式会社Ｗ．Ｅホールディングス,,株式会社,京都府,京都市東山区,廿一軒町２２７番地岩橋ビル１Ｆ,,26,105,6050077,,,,,,,2022-06-29,1,,,,,ウイーホールディングス,0
653,3140003017826,新規,0,2022-06-29,2022-06-29,合同会社ＬＩＢＥＲＴＡ,,合同会社,兵庫県,神戸市中央区,栄町通３丁目６番２７－２４０３号,,28,110,6500023,,,,,,,2022-06-29,1,,,,,リベルタ,0
668,3180001151929,新規,0,2022-06-29,2022-06-29,Ａｒｇｏｓｙ　Ｊａｐａｎ　Ａｅｒｏｓｐａｃｅ　Ｍａｔｅｒｉａｌｓ株式会社,,株式会社,愛知県,名古屋市中村区,名駅４丁目４番３８号,,23,105,4500002,,,,,,,2022-06-29,1,,,,,アーガシージャパンエアロスペースマテリアルズ,0
672,3190001029546,新規,0,2022-06-29,2022-06-29,株式会社ＤＲＥＡＭ　ＢＵＩＬＤ,,株式会社,三重県,松阪市,駅部田町１２５０番地１２,,24,204,5150045,,,,,,,2022-06-29,1,,,,,ドリームビルド,0
679,3230003001878,新規,0,2022-06-29,2022-06-29,合同会社ＴＯＭ’Ｓ,,合同会社,富山県,富山市,若竹町５丁目７０番地,,16,201,9398181,,,,,,,2022-06-29,1,,,,,,0
688,3240003005688,新規,0,2022-06-29,2022-06-29,合同会社モエリス,,合同会社,広島県,広島市中区,江波西１丁目１８番８－３０１号,,34,101,7300831,,,,,,,2022-06-29,1,,,,,モエリス,0
692,3280003001626,新規,0,2022-06-29,2022-06-29,合同会社Ｔｅａｍ　Ｌｅｏ,,合同会社,島根県,松江市,学園２丁目１５－７ドミールＳＳ２０７号室,,32,201,6900825,,,,,,,2022-06-29,1,,,,,チームレオ,0
707,3320003003840,新規,0,2022-06-29,2022-06-29,合同会社ライスリバー,,合同会社,大分県,別府市,北浜１丁目１番１５号北浜プラザビル３０３号,,44,202,8740920,,,,,,,2022-06-29,1,,,,,ライスリバー,0
726,3430003014050,新規,0,2022-06-29,2022-06-29,合同会社ＴＨＯＲ,,合同会社,北海道,札幌市豊平区,月寒西四条５丁目１番３－１号Ｌｏｈａｓ　Ｔ４５－２０７号,,01,105,0620024,,,,,,,2022-06-29,1,,,,,トール,0
727,3430005014494,新規,0,2022-06-29,2022-06-29,胆振水産加工協同組合,,その他の設立登記法人,北海道,白老郡白老町,字虎杖浜５６番地７,,01,578,0590641,,,,,,,2022-06-29,1,,,,,イブリスイサンカコウ,0
739,3700150109451,新規,0,2022-06-29,2022-06-10,湯来ふるさとプロジェクト,,その他,広島県,広島市佐伯区,湯来町大字伏谷５３５,,34,108,7380513,,,,,,,2022-06-10,1,,,,,ユキフルサトプロジエクト,0
740,3700150109550,新規,0,2022-06-29,2022-06-13,飯塚地域雇用創造協議会,,その他,福岡県,飯塚市,吉原町６－１あいタウン２Ｆ　つなぐカフェ　飯塚,,40,205,8200040,,,,,,,2022-06-13,1,,,,,イイヅカチイキコヨウソウゾウキヨウギカイ,0
742,4010001227661,新規,0,2022-06-29,2022-06-29,伊豆大島ナチュラルファーム株式会社,,株式会社,東京都,大島町,岡田字沢立１１１番地１５－１０１号室,,13,361,1000102,,,,,,,2022-06-29,1,,,,,イズオオシマナチュラルファーム,0
748,4010003037943,新規,0,2022-06-29,2022-06-29,合同会社ＵＲＢＡＮＣＲＡＦＴ,,合同会社,東京都,中央区,銀座４丁目３－５ハトリビル４Ｆ,,13,102,1040061,,,,,,,2022-06-29,1,,,,,アーバンクラフト,0
749,4010003038000,新規,0,2022-06-29,2022-06-29,合同会社フィオーナ,,合同会社,東京都,文京区,春日１丁目１６番２１号文京シビックセンター地下２階,,13,105,1120003,,,,,,,2022-06-29,1,,,,,フィオーナ,0
750,4010003038009,新規,0,2022-06-29,2022-06-29,アクティブリーシング１７号合同会社,,合同会社,東京都,千代田区,麹町４丁目７番２号,,13,101,1020083,,,,,,,2022-06-29,1,,,,,アクティブリーシングジュウナナゴウ,0
787,4011201023925,新規,0,2022-06-29,2022-06-29,株式会社ベラ,,株式会社,東京都,中野区,鷺宮５丁目２番１１号,,13,114,1650032,,,,,,,2022-06-29,1,,,,,ベラ,0
788,4011303004451,新規,0,2022-06-29,2022-06-29,Ｓｑｕｅｅｅｚｅ合同会社,,合同会社,東京都,杉並区,久我山４丁目３９－１２,,13,115,1680082,,,,,,,2022-06-29,1,,,,,スクイーズ,0
791,4011501028194,新規,0,2022-06-29,2022-06-29,株式会社サザンスター,,株式会社,東京都,北区,西ケ原３丁目４９番２号,,13,117,1140024,,,,,,,2022-06-29,1,,,,,サザンスター,0
792,4012303001694,新規,0,2022-06-29,2022-06-29,合同会社Ｓｏｓｉｏ,,合同会社,東京都,町田市,玉川学園４丁目１０番２３号,,13,209,1940041,,,,,,,2022-06-29,1,,,,,ソシオ,0
816,4030001148922,新規,0,2022-06-29,2022-06-29,株式会社スウィート,,株式会社,埼玉県,さいたま市大宮区,北袋町２丁目６８番地７,,11,103,3300835,,,,,,,2022-06-29,1,,,,,スウィート,0
833,4080101023384,新規,0,2022-06-29,2022-06-29,ｄｉｖｅｒｇｅ株式会社,,株式会社,静岡県,伊豆の国市,寺家１２１７－１,,22,225,4102122,,,,,,,2022-06-29,1,,,,,ダイバージ,0
860,4120001246997,新規,0,2022-06-29,2022-06-29,株式会社ＫＡＮＯＮ,,株式会社,大阪府,大阪市東淀川区,瑞光１丁目２番１４号,,27,114,5330005,,,,,,,2022-06-29,1,,,,,カノン,0
861,4120001247005,新規,0,2022-06-29,2022-06-29,真心株式会社,,株式会社,大阪府,大阪市天王寺区,石ケ辻町１４番１２－２００３号,00127048,27,109,5430031,,,,,,,2022-06-29,1,,,,,マゴコロ,0
862,4120001247021,新規,0,2022-06-29,2022-06-29,株式会社Ｌｕｘｕｒｙ　Ｈａｎ,,株式会社,大阪府,大阪市中央区,島之内１丁目１４番８号長堀小谷マンション６０１号室,,27,128,5420082,,,,,,,2022-06-29,1,,,,,ラクシュアリーハン,0
863,4120001247046,新規,0,2022-06-29,2022-06-29,ノースシステムズ株式会社,,株式会社,大阪府,守口市,大日東町４番Ｇ－１３０５,,27,209,5700016,,,,,,,2022-06-29,1,,,,,ノースシステムズ,0
866,4120003021993,新規,0,2022-06-29,2022-06-29,合同会社Ｍｏｓｙｕ,,合同会社,大阪府,大阪市天王寺区,勝山１丁目７番２８号,,27,109,5430043,,,,,,,2022-06-29,1,,,,,モシュ,0
883,4130001072055,新規,0,2022-06-29,2022-06-29,株式会社ＢＯＮＴＥＣ,,株式会社,京都府,京都市左京区,岩倉花園町２４６番地,,26,103,6060024,,,,,,,2022-06-29,1,,,,,ボンテック,0
887,4140001126545,新規,0,2022-06-29,2022-06-29,こめや株式会社,,株式会社,兵庫県,西宮市,羽衣町７番３０号夙川グリーンタウン３階コワクラ内,,28,204,6620051,,,,,,,2022-06-29,1,,,,,コメヤ,0
889,4140005026221,新規,0,2022-06-29,2022-06-29,一般社団法人リカバリーライフ,,その他の設立登記法人,兵庫県,宝塚市,安倉中５丁目１０番１２号,,28,214,6650822,,,,,,,2022-06-29,1,,,,,リカバリーライフ,0
895,4180001151837,新規,0,2022-06-29,2022-06-29,株式会社世家,,株式会社,愛知県,名古屋市中村区,中島町４丁目１８番地の４,,23,105,4530022,,,,,,,2022-06-29,1,,,,,セイカ,0
896,4180001151952,新規,0,2022-06-29,2022-06-29,株式会社ブッキングライン,,株式会社,愛知県,名古屋市中区,千代田５丁目５０８番リエス千代田３０３,,23,106,4600012,,,,,,,2022-06-29,1,,,,,ブッキングライン,0
911,4230005009241,新規,0,2022-06-29,2022-06-29,協同組合Ｐｏｎｔｅ,,その他の設立登記法人,富山県,小矢部市,埴生１７番地３,,16,209,9320836,,,,,,,2022-06-29,1,,,,,ポンテ,0
913,4250001019630,新規,0,2022-06-29,2022-06-29,株式会社美令,,株式会社,山口県,柳井市,新庄１９６９番地１,,35,212,7420033,,,,,,,2022-06-29,1,,,,,ミレイ,0
914,4250005008753,新規,0,2022-06-29,2022-06-29,一般社団法人いちごの里,,その他の設立登記法人,山口県,熊毛郡田布施町,大字麻郷３０５９－１,,35,343,7421513,,,,,,,2022-06-29,1,,,,,イチゴノサト,0
930,4310003004401,新規,0,2022-06-29,2022-06-29,ＳＴＫ不動産合同会社,,合同会社,長崎県,長崎市,花丘町３番３－９０２号,,42,201,8528153,,,,,,,2022-06-29,1,,,,,エスティーケーフドウサン,0
939,4340003003838,新規,0,2022-06-29,2022-06-29,合同会社ＷＡｃｒｅａｔｅ,,合同会社,鹿児島県,姶良市,加治木町木田５３４８番地４０７,,46,225,8995241,,,,,,,2022-06-29,1,,,,,ワクリエイト,0
945,4350003004109,新規,0,2022-06-29,2022-06-29,合同会社Ｊ．Ｆｏｒｃｅ,,合同会社,宮崎県,宮崎市,松山２丁目１－１－１５０８,,45,201,8800865,,,,,,,2022-06-29,1,,,,,ジェイフォース,0
950,4370001048733,新規,0,2022-06-29,2022-06-29,ＫＴＫ株式会社,,株式会社,宮城県,東松島市,赤井字南三２４２番地１,,04,214,9810501,,,,,,,2022-06-29,1,,,,,ケイティケイ,0
951,4380001032926,新規,0,2022-06-29,2022-06-29,株式会社特建工業,,株式会社,福島県,二本松市,高平６７番地１,,07,210,9640028,,,,,,,2022-06-29,1,,,,,トッケンコウギョウ,0
953,4400001015928,新規,0,2022-06-29,2022-06-29,株式会社下道畜産,,株式会社,岩手県,滝沢市,根堀坂５９５番地４,,03,216,0200631,,,,,,,2022-06-29,1,,,,,シタミチチクサン,0
955,4420001017914,新規,0,2022-06-29,2022-06-29,株式会社ＢＯＮＪＩＪＩ,,株式会社,青森県,青森市,奥野１丁目１６番２７号,,02,201,0300841,,,,,,,2022-06-29,1,,,,,ボンジジ,0
968,4700150109319,新規,0,2022-06-29,2022-06-09,３．１４ｃｈ,,その他,東京都,世田谷区,三宿２丁目１９－１６－２０１,,13,112,1540005,,,,,,,2022-06-09,1,,,,,サンテンイチヨンチヤンネル,0
969,4700150109541,新規,0,2022-06-29,2022-06-13,中部医師厚生会,,その他,富山県,富山市,蜷川３３６,,16,201,9398222,,,,,,,2022-06-13,1,,,,,チユウブイシコウセイカイ,0
978,5010003038008,新規,0,2022-06-29,2022-06-29,合同会社３３,,合同会社,東京都,中央区,銀座１丁目２２番１１号銀座大竹ビジデンス２階,,13,102,1040061,,,,,,,2022-06-29,1,,,,,サンジュウサン,0
981,5010101015239,新規,0,2022-06-29,2022-06-29,株式会社Ｍ．Ｔ．Ｓ,,株式会社,東京都,八王子市,めじろ台３丁目１５番２,,13,201,1930833,,,,,,,2022-06-29,1,,,,,エムティエス,0
990,5010403027997,新規,0,2022-06-29,2022-06-29,ニシムラ合同会社,,合同会社,東京都,港区,南青山２丁目２番１５号ウィン青山,,13,103,1070062,,,,,,,2022-06-29,1,,,,,,0
991,5010403028005,新規,0,2022-06-29,2022-06-29,ＳｅｎｉｏｒＬｉｆｅ合同会社,,合同会社,東京都,港区,西新橋２丁目２１番２号,,13,103,1050003,,,,,,,2022-06-29,1,,,,,シニアライフ,0
1007,5010901051128,新規,0,2022-06-29,2022-06-29,株式会社ＥＮＬＯＯＰ,,株式会社,東京都,世田谷区,経堂１丁目１２番８号４階,,13,112,1560052,,,,,,,2022-06-29,1,,,,,エンループ,0
1009,5010903007490,新規,0,2022-06-29,2022-06-29,オンネリネン合同会社,,合同会社,東京都,世田谷区,下馬１丁目２５番３号,,13,112,1540002,,,,,,,2022-06-29,1,,,,,オンネリネン,0
1020,5011001148376,新規,0,2022-06-29,2022-06-29,株式会社ＴａＧ,,株式会社,東京都,渋谷区,道玄坂１丁目１０番８号渋谷道玄坂東急ビル２Ｆ－Ｃ,,13,113,1500043,,,,,,,2022-06-29,1,,,,,タグ,0
1025,5011103011894,新規,0,2022-06-29,2022-06-29,合同会社バーナブル,,合同会社,東京都,新宿区,富久町１６番９号,,13,104,1620067,,,,,,,2022-06-29,1,,,,,バーナブル,0
1033,5011403003708,新規,0,2022-06-29,2022-06-29,合同会社いづみ,,合同会社,東京都,板橋区,大谷口北町２０番２号,,13,119,1730031,,,,,,,2022-06-29,1,,,,,イヅミ,0
1035,5011501028202,新規,0,2022-06-29,2022-06-29,ｗｉｎｗｉｎ　ｓｅｍｉ株式会社,,株式会社,東京都,荒川区,町屋３丁目２番１号Ｂ１Ｆ,,13,118,1160001,,,,,,,2022-06-29,1,,,,,ウインウインセミ,0
1046,5011801040939,新規,0,2022-06-29,2022-06-29,株式会社日本キーサービス,,株式会社,東京都,足立区,千住河原町９番１０号,,13,121,1200037,,,,,,,2022-06-29,1,,,,,ニホンキーサービス,0
1065,5020001147107,新規,0,2022-06-29,2022-06-29,ＲＳ株式会社,,株式会社,神奈川県,横浜市西区,南幸２丁目８番９号ブライト横浜ビル５階,,14,103,2200005,,,,,,,2022-06-29,1,,,,,アールエス,0
1066,5020001147115,新規,0,2022-06-29,2022-06-29,ヤマダ電子国際貿易株式会社,,株式会社,神奈川県,川崎市川崎区,砂子２丁目８番地１シャンボール互恵ビル７０１,,14,131,2100006,,,,,,,2022-06-29,1,,,,,ヤマダデンシコクサイボウエキ,0
1073,5020003022019,新規,0,2022-06-29,2022-06-29,合同会社厚木１号開発,,合同会社,神奈川県,横浜市西区,みなとみらい２丁目３番５号,,14,103,2200012,,,,,,,2022-06-29,1,,,,,アツギイチゴウカイハツ,0
1077,5021001076386,新規,0,2022-06-29,2022-06-29,ＫＩＤＳ．ＳＥＲＶＩＣＥ．ＤＥＳＩＧＮ株式会社,,株式会社,神奈川県,三浦郡葉山町,木古庭１４７８番地の１,,14,301,2400114,,,,,,,2022-06-29,1,,,,,キッズサービスデザイン,0
1082,5030001148896,新規,0,2022-06-29,2022-06-29,株式会社ＩＳＷ,,株式会社,埼玉県,熊谷市,銀座２丁目５８番地１コンフォートポエム１２０４,,11,202,3600032,,,,,,,2022-06-29,1,,,,,アイエスダブリュー,0
1083,5030001148921,新規,0,2022-06-29,2022-06-29,株式会社Ｐ＆Ｚ商事,,株式会社,埼玉県,三郷市,中央２丁目１４番地１８,,11,237,3410038,,,,,,,2022-06-29,1,,,,,ピーアンドゼットショウジ,0
1090,5040001124038,新規,0,2022-06-29,2022-06-29,株式会社カリテスラボ,,株式会社,千葉県,茂原市,千沢１０９９－１,,12,210,2994103,,,,,,,2022-06-29,1,,,,,カリテスラボ,0
1098,5050001051306,新規,0,2022-06-29,2022-06-29,株式会社Ｎｉｄｏｍｉ,,株式会社,茨城県,水戸市,大町３丁目２番４８号,,08,201,3100062,,,,,,,2022-06-29,1,,,,,ニドミ,0
1102,5080001025042,新規,0,2022-06-29,2022-06-29,株式会社岡田総業,,株式会社,静岡県,島田市,稲荷３丁目２０番５３号,,22,209,4270038,,,,,,,2022-06-29,1,,,,,オカダソウギョウ,0
1103,5080003002824,新規,0,2022-06-29,2022-06-29,３５８商店合同会社,,合同会社,静岡県,焼津市,田尻１４１８番地,,22,212,4250052,,,,,,,2022-06-29,1,,,,,サゴハチショウテン,0
1106,5080101023383,新規,0,2022-06-29,2022-06-29,総合技術研究所メタルフォレスト株式会社,,株式会社,静岡県,三島市,大場３７９－２６,,22,206,4110803,,,,,,,2022-06-29,1,,,,,ソウゴウギジュツケンキュウショメタルフォレスト,0
1107,5080401025914,新規,0,2022-06-29,2022-06-29,株式会社ＰＩＮＫ　ｎｏ　ＧＡＫＫＯＵ,,株式会社,静岡県,浜松市西区,入野町１００２１－５－１０３,,22,133,4328061,,,,,,,2022-06-29,1,,,,,ピンクノガッコウ,0
1111,5110001036754,新規,0,2022-06-29,2022-06-29,株式会社ＨＡＰＰＹ　ＦＡＣＴＯＲＹ,,株式会社,新潟県,長岡市,長倉１丁目５５番地,,15,202,9400829,,,,,,,2022-06-29,1,,,,,ハッピーファクトリー,0
1121,5120001247020,新規,0,2022-06-29,2022-06-29,株式会社ベイビーシャーク,,株式会社,大阪府,大阪市中央区,南久宝寺町２丁目６－８クラウンハイム北心斎橋フラワーコート７０６号,,27,128,5410058,,,,,,,2022-06-29,1,,,,,ベイビーシャーク,0
1141,5130001072087,新規,0,2022-06-29,2022-06-29,株式会社ＳＨＩＮ,,株式会社,京都府,京都市中京区,町頭町８７番地４,,26,104,6048206,,,,,,,2022-06-29,1,,,,,シン,0
1146,5140001126544,新規,0,2022-06-29,2022-06-29,株式会社ＭＣ,,株式会社,兵庫県,姫路市,香寺町岩部３６１番地,,28,201,6792141,,,,,,,2022-06-29,1,,,,,エムシー,0
1150,5140003017857,新規,0,2022-06-29,2022-06-29,ＡＪＵＧＡ合同会社,,合同会社,兵庫県,伊丹市,堀池３丁目６番６－２号,,28,207,6640871,,,,,,,2022-06-29,1,,,,,,0
1152,5160001024317,新規,0,2022-06-29,2022-06-29,株式会社コラボヌーク,,株式会社,滋賀県,大津市,下阪本２丁目２１番７６号,,25,201,5200105,,,,,,,2022-06-29,1,,,,,コラボヌーク,0
1161,5180001151943,新規,0,2022-06-29,2022-06-29,株式会社虎渓三笑ＴＶ,,株式会社,愛知県,名古屋市西区,名駅２丁目３４番１７号セントラル名古屋１１０１号,,23,104,4510045,,,,,,,2022-06-29,1,,,,,コケイサンショウテレビ,0
1164,5180003023991,新規,0,2022-06-29,2022-06-29,合同会社Ｍ．Ｓガレージ,,合同会社,愛知県,豊明市,沓掛町十王堂４７番地１０,,23,229,4701101,,,,,,,2022-06-29,1,,,,,エムエスガレージ,0
1167,5190001029544,新規,0,2022-06-29,2022-06-29,株式会社つかさ物流,,株式会社,三重県,三重郡川越町,大字当新田１１４番地,,24,344,5108111,,,,,,,2022-06-29,1,,,,,ツカサブツリュウ,0
1168,5190001029552,新規,0,2022-06-29,2022-06-29,Ｎ．Ｓ．Ｐ株式会社,,株式会社,三重県,桑名市,大字東方７４８番地２,,24,205,5110811,,,,,,,2022-06-29,1,,,,,エヌエスピー,0
1176,5200003005590,新規,0,2022-06-29,2022-06-29,ＴＩＭＡ　Ｇｉｆｕ合同会社,,合同会社,岐阜県,岐阜市,殿町１丁目７番地ライオンズ岐阜殿町マークスフォート１３０５号室,,21,201,5008116,,,,,,,2022-06-29,1,,,,,ティーマギフ,0
1183,5240001059981,新規,0,2022-06-29,2022-06-29,株式会社ＦＯＵＲ　ＦＬＯＷＳ,,株式会社,広島県,広島市西区,山田町２９８番地,,34,104,7330854,,,,,,,2022-06-29,1,,,,,フォーフローズ,0
1192,5260003003960,新規,0,2022-06-29,2022-06-29,合同会社便利屋さん風雅,,合同会社,岡山県,岡山市南区,福富西２丁目９番２９号,,33,104,7028031,,,,,,,2022-06-29,1,,,,,ベンリヤサンフウガ,0
1204,5290001098075,新規,0,2022-06-29,2022-06-29,株式会社ＲＥサービス,,株式会社,福岡県,福岡市博多区,博多駅南５丁目２３番７号,,40,132,8120016,,,,,,,2022-06-29,1,,,,,アールイーサービス,0
1206,5290003012686,新規,0,2022-06-29,2022-06-29,合同会社金子技研,,合同会社,福岡県,福津市,宮司２丁目１０番５号,,40,224,8113305,,,,,,,2022-06-29,1,,,,,カネコギケン,0
1229,5380001032933,新規,0,2022-06-29,2022-06-29,ＭＢＬ株式会社,,株式会社,福島県,郡山市,中町１１番２号,,07,203,9638004,,,,,,,2022-06-29,1,,,,,エムビイエル,0
1252,5430003014049,新規,0,2022-06-29,2022-06-29,合同会社Ｆサポート芽,,合同会社,北海道,札幌市白石区,菊水九条３丁目５番１９－３１８号,,01,104,0030809,,,,,,,2022-06-29,1,,,,,エフサポートメグム,0
1262,5700150109722,新規,0,2022-06-29,2022-06-15,仰木学区まちづくり協議会,,その他,滋賀県,大津市,仰木４丁目１５番１１号,,25,201,5200247,,,,,,,2022-06-15,1,,,,,オオギガツクマチヅクリキヨウギカイ,0
1265,6010001227676,新規,0,2022-06-29,2022-06-29,株式会社アウタレイア,,株式会社,東京都,千代田区,外神田３丁目６番５号外神田永谷タウンプラザ９０６,,13,101,1010021,,,,,,,2022-06-29,1,,,,,アウタレイア,0
1277,6010701042879,新規,0,2022-06-29,2022-06-29,株式会社リエゾン,,株式会社,東京都,品川区,上大崎２丁目７番２５号パークコート白金長者丸２０４,,13,109,1410021,,,,,,,2022-06-29,1,,,,,リエゾン,0
1278,6010701042887,新規,0,2022-06-29,2022-06-29,Ｆｕｎｄｉｎ株式会社,,株式会社,東京都,品川区,東五反田２丁目１０番１－３４０５号,,13,109,1410022,,,,,,,2022-06-29,1,,,,,ファンディン,0
1283,6010901051135,新規,0,2022-06-29,2022-06-29,株式会社ｇｏｏｄ　ｖｉｂｅｓ,,株式会社,東京都,世田谷区,経堂１丁目２１－１６経堂森ビルＩＩ３Ｆ,00127042,13,112,1560052,,,,,,,2022-06-29,1,,,,,グッドバイブス,0
1286,6011003014922,新規,0,2022-06-29,2022-06-29,ＧｒｅｅｎＴｅａ合同会社,,合同会社,東京都,渋谷区,渋谷２丁目１９－１５宮益坂ビルディング６０９,,13,113,1500002,,,,,,,2022-06-29,1,,,,,グリーンティー,0
1296,6011403003707,新規,0,2022-06-29,2022-06-29,合同会社じゅんしん,,合同会社,東京都,板橋区,中板橋２番９号,,13,119,1730016,,,,,,,2022-06-29,1,,,,,ジュンシン,0
1298,6011503005198,新規,0,2022-06-29,2022-06-29,合同会社ＨＪ,,合同会社,東京都,荒川区,荒川１丁目３３番２,,13,118,1160002,,,,,,,2022-06-29,1,,,,,エイチジェイ,0
1299,6011601026063,新規,0,2022-06-29,2022-06-29,カシワリーフ株式会社,,株式会社,東京都,練馬区,小竹町１丁目３２番３号カーサクレッシェンド１０２,,13,120,1760004,,,,,,,2022-06-29,1,,,,,カシワリーフ,0
1304,6011803005154,新規,0,2022-06-29,2022-06-29,ユニコーン警備合同会社,,合同会社,東京都,足立区,梅田７丁目２９－１４－２０２,,13,121,1230851,,,,,,,2022-06-29,1,,,,,ユニコーンケイビ,0
1320,6020001147089,新規,0,2022-06-29,2022-06-29,株式会社菅谷商会,,株式会社,神奈川県,川崎市高津区,末長２丁目２２番４号ロイヤルプラザ１０１,,14,134,2130013,,,,,,,2022-06-29,1,,,,,スガヤショウカイ,0
1321,6020001147097,新規,0,2022-06-29,2022-06-29,株式会社アシストエンジニアリング,,株式会社,神奈川県,横浜市保土ケ谷区,狩場町４５１番地１ライオンズマンション保土ケ谷南５０２号,,14,106,2400025,,,,,,,2022-06-29,1,,,,,アシストエンジニアリング,0
1326,6020003022018,新規,0,2022-06-29,2022-06-29,合同会社ＪＫＥコンサルティング,,合同会社,神奈川県,横浜市都筑区,すみれが丘３７番地３３カーサフローレンス４０２,,14,118,2240013,,,,,,,2022-06-29,1,,,,,ジェイケイイーコンサルティング,0
1329,6021001076377,新規,0,2022-06-29,2022-06-29,株式会社ｓｔＲａｄｉ,,株式会社,神奈川県,藤沢市,湘南台５丁目４番地の１ブレクレール湘南８０１Ａ号室,,14,205,2520804,,,,,,,2022-06-29,1,,,,,ストラディ,0
1338,6030001148895,新規,0,2022-06-29,2022-06-29,株式会社ＴＡＫＡＶＥＴ,,株式会社,埼玉県,さいたま市大宮区,下町３丁目７番地１Ｓ３００９号,,11,103,3300844,,,,,,,2022-06-29,1,,,,,タカベット,0
1340,6030003019681,新規,0,2022-06-29,2022-06-29,リンタックス合同会社,,合同会社,埼玉県,越谷市,宮本町５丁目４１番地１０,,11,222,3430806,,,,,,,2022-06-29,1,,,,,リンタックス,0
1341,6030003019698,新規,0,2022-06-29,2022-06-29,合同会社ウチュウチョウワ,,合同会社,埼玉県,さいたま市北区,日進町１丁目２７４番地,,11,102,3310823,,,,,,,2022-06-29,1,,,,,ウチュウチョウワ,0
1347,6040001124037,新規,0,2022-06-29,2022-06-29,あい・コンサルティングファーム株式会社,,株式会社,千葉県,野田市,山崎２１９６,,12,208,2780022,,,,,,,2022-06-29,1,,,,,アイコンサルティングファーム,0
1359,6090003002120,新規,0,2022-06-29,2022-06-29,合同会社Ｐａｒａｖｒｔｔｉ,,合同会社,山梨県,山梨市,小原東７７７番地３,,19,205,4050005,,,,,,,2022-06-29,1,,,,,パラブリッティ,0
1378,6120001246789,新規,0,2022-06-29,2022-06-29,株式会社森口商店,,株式会社,大阪府,大阪市住吉区,杉本２丁目５番１８号,,27,120,5580022,,,,,,,2022-06-29,1,,,,,モリグチショウテン,0
1379,6120001246888,新規,0,2022-06-29,2022-06-29,株式会社Ｃｒｏｓｓ　Ｍｅｄｉａ,,株式会社,大阪府,大阪市中央区,高麗橋１丁目７番７号４２０１,,27,128,5410043,,,,,,,2022-06-29,1,,,,,クロスメディア,0
1382,6120003021991,新規,0,2022-06-29,2022-06-29,合同会社Ｒｅｆｅｓｔａ,,合同会社,大阪府,大阪市淀川区,十三東２丁目１０番９号ポンテビル４Ｆ,,27,123,5320023,,,,,,,2022-06-29,1,,,,,リフェスタ,0
1389,6120901046173,新規,0,2022-06-29,2022-06-29,龍乃工業株式会社,,株式会社,大阪府,吹田市,南吹田３丁目１６番３－１号,,27,205,5640043,,,,,,,2022-06-29,1,,,,,タツノコウギョウ,0
1391,6120905006339,新規,0,2022-06-29,2022-06-29,一般社団法人Ｌｅａｒｎｉｎｎｇ　ｆｏｒ　Ｌｉｆｅ研究所,,その他の設立登記法人,大阪府,箕面市,外院３丁目２３番８号,,27,220,5620026,,,,,,,2022-06-29,1,,,,,ラーニングフォーライフケンキュウジョ,0
1398,6140001126527,新規,0,2022-06-29,2022-06-29,株式会社三期テクニカ,,株式会社,兵庫県,姫路市,別所町北宿１０７６番地３－２,,28,201,6710223,,,,,,,2022-06-29,1,,,,,サンキテクニカ,0
1412,6180001151892,新規,0,2022-06-29,2022-06-29,株式会社運輸情報事務センター,,株式会社,愛知県,小牧市,若草町１７４番地２,,23,219,4850031,,,,,,,2022-06-29,1,,,,,ウンユジョウホウジムセンター,0
1413,6180001151942,新規,0,2022-06-29,2022-06-29,Ｈｉｇｈｌｉｇｈｔｓ株式会社,,株式会社,愛知県,名古屋市千種区,桜が丘１１９番地（バンベール星ケ丘ヒルズ９０３号）,,23,101,4640025,,,,,,,2022-06-29,1,,,,,ハイライツ,0
1419,6190001029535,新規,0,2022-06-29,2022-06-29,株式会社フロンティアエンタープライズ,,株式会社,三重県,四日市市,別名６丁目９番２３号ホームワン別名１０８,,24,202,5100007,,,,,,,2022-06-29,1,,,,,フロンティアエンタープライズ,0
1428,6210003001530,新規,0,2022-06-29,2022-06-29,合同会社ＴＷＩＮ　ＴＡＩＬ,,合同会社,福井県,鯖江市,川島町第１７号２７番地１７,,18,207,9161116,,,,,,,2022-06-29,1,,,,,ツインテイル,0
1445,6250001019629,新規,0,2022-06-29,2022-06-29,株式会社Ｄ‐ＰＬＡＮＴ,,株式会社,山口県,周南市,大字徳山１０９５１番地の１３４,,35,215,7450851,,,,,,,2022-06-29,1,,,,,ディープラント,0
1447,6260001036994,新規,0,2022-06-29,2022-06-29,Ｍｏｄｓ６株式会社,,株式会社,岡山県,玉野市,築港３丁目１３－１８,,33,204,7060002,,,,,,,2022-06-29,1,,,,,モッズシックス,0
1457,6290001098066,新規,0,2022-06-29,2022-06-29,株式会社なごみ不動産,,株式会社,福岡県,飯塚市,忠隈４７２番地１,,40,205,8200071,,,,,,,2022-06-29,1,,,,,ナゴミフドウサン,0
1458,6290001098082,新規,0,2022-06-29,2022-06-29,株式会社Ｒｉｓｅ　Ｏｎｅ,,株式会社,福岡県,糟屋郡粕屋町,大字仲原２７４５番地９フォーレスト仲原２０３,,40,349,8112304,,,,,,,2022-06-29,1,,,,,ライズワン,0
1463,6290805009565,新規,0,2022-06-29,2022-06-29,一般社団法人福岡県リカレント教育普及協会,,その他の設立登記法人,福岡県,北九州市若松区,ひびきの１番８号,,40,103,8080135,,,,,,,2022-06-29,1,,,,,フクオカケンリカレントキョウイクフキュウキョウカイ,0
1464,6310001017923,新規,0,2022-06-29,2022-06-29,株式会社昇華,,株式会社,長崎県,佐世保市,新行江町１３１０番地１３,,42,202,8593152,,,,,,,2022-06-29,1,,,,,ショウカ,0
1465,6310003004399,新規,0,2022-06-29,2022-06-29,合同会社レクトス,,合同会社,長崎県,島原市,江里町乙２２０３番地,,42,203,8550017,,,,,,,2022-06-29,1,,,,,レクトス,0
1472,6350001017829,新規,0,2022-06-29,2022-06-29,株式会社Ｍｏｂｉｕｓ,,株式会社,宮崎県,延岡市,北川町川内名９６６－５,,45,203,8890101,,,,,,,2022-06-29,1,,,,,メビウス,0
1511,6480001011777,新規,0,2022-06-29,2022-06-29,株式会社松栄水産,,株式会社,徳島県,小松島市,和田島町字松田新田１９５番地の３ヴィラナリー小松島２０２,,36,203,7730031,,,,,,,2022-06-29,1,,,,,ショウエイスイサン,0
1519,6700150003453,新規,0,2022-06-29,2015-10-09,日本労働組合総連合会,,その他,東京都,千代田区,神田駿河台３丁目２―１１連合会館,,13,101,1010062,,,,,,,2015-10-09,1,,,,,ニツポンロウドウクミアイソウレンゴウカイ,0
1523,7010001227667,新規,0,2022-06-29,2022-06-29,豊甲株式会社,,株式会社,東京都,中央区,八丁堀２丁目３０番１６号,,13,102,1040032,,,,,,,2022-06-29,1,,,,,ホウコウ,0
1524,7010001227691,新規,0,2022-06-29,2022-06-29,株式会社三晃,,株式会社,東京都,千代田区,有楽町２丁目１０番１号,,13,101,1000006,,,,,,,2022-06-29,1,,,,,サンコウ,0
1525,7010101015237,新規,0,2022-06-29,2022-06-29,株式会社ニッポングローバル・サービス,,株式会社,東京都,八王子市,大谷町１０３４番地３４,,13,201,1920034,,,,,,,2022-06-29,1,,,,,ニッポングローバルサービス,0
1530,7010403027970,新規,0,2022-06-29,2022-06-29,合同会社Ｌｌｏｙｄ,,合同会社,東京都,港区,新橋３丁目１６番１９号,,13,103,1050004,,,,,,,2022-06-29,1,,,,,ロイド,0
1567,7011103011901,新規,0,2022-06-29,2022-06-29,Ｔ＆Ｔ合同会社,,合同会社,東京都,新宿区,百人町２丁目１８番１５号,,13,104,1690073,,,,,,,2022-06-29,1,,,,,ティーアンドティー,0
1568,7011301027889,新規,0,2022-06-29,2022-06-29,株式会社Ｓ,,株式会社,東京都,杉並区,西荻北３丁目１４－２深山ビル１Ｆ,,13,115,1670042,,,,,,,2022-06-29,1,,,,,エス,0
1582,7011803005153,新規,0,2022-06-29,2022-06-29,四方吉合同会社,,合同会社,東京都,葛飾区,堀切１丁目８番１２－４０６号サンクレイドル堀切四季のみち,,13,122,1240006,,,,,,,2022-06-29,1,,,,,ヨモキチ,0
1584,7012401039345,新規,0,2022-06-29,2022-06-29,株式会社ＳＡＬ,,株式会社,東京都,三鷹市,下連雀３丁目４２番１３－２１１号,,13,204,1810013,,,,,,,2022-06-29,1,,,,,エスエーエル,0
1593,7020001147088,新規,0,2022-06-29,2022-06-29,株式会社ＥＮＩＳＨＩ,,株式会社,神奈川県,横浜市旭区,川島町２１５１番地１５,,14,112,2410011,,,,,,,2022-06-29,1,,,,,エニシ,0
1594,7020001147096,新規,0,2022-06-29,2022-06-29,株式会社ＵＬＰ,,株式会社,神奈川県,川崎市宮前区,南野川１丁目１－２５,,14,136,2160042,,,,,,,2022-06-29,1,,,,,ユーエルピー,0
1595,7020001147105,新規,0,2022-06-29,2022-06-29,旧市街株式会社,,株式会社,神奈川県,横浜市南区,永楽町２丁目２６－３－９０５,,14,105,2320031,,,,,,,2022-06-29,1,,,,,キュウシガイ,0
1596,7020001147113,新規,0,2022-06-29,2022-06-29,株式会社ＰＲＯＭＥＴＨＥＵＳ　ＡＩ,,株式会社,神奈川県,横浜市中区,山田町４番地フロール山田町第１－１０９号室,,14,104,2310036,,,,,,,2022-06-29,1,,,,,プラメシュウスエーアイ,0
1598,7020003022017,新規,0,2022-06-29,2022-06-29,合同会社小熊,,合同会社,神奈川県,横浜市中区,北仲通５丁目５７番地２－１００２号室,,14,104,2310003,,,,,,,2022-06-29,1,,,,,オグマ,0
1613,7030003019697,新規,0,2022-06-29,2022-06-29,合同会社ＮＯＯＲ　ＴＲＡＤＩＮＧ,,合同会社,埼玉県,加須市,騎西６２番地８,,11,210,3470105,,,,,,,2022-06-29,1,,,,,ヌールトレーディング,0
1621,7040003020349,新規,0,2022-06-29,2022-06-29,壱ノ家合同会社,,合同会社,千葉県,松戸市,五香６丁目２３－１６,,12,207,2702213,,,,,,,2022-06-29,1,,,,,イチノイエ,0
1640,7080405007469,新規,0,2022-06-29,2022-06-29,アンビシャス協同組合,,その他の設立登記法人,静岡県,浜松市東区,北島町８４４番地の１,,22,132,4350041,,,,,,,2022-06-29,1,,,,,アンビシャス,0
1653,7120001246961,新規,0,2022-06-29,2022-06-29,株式会社ＳＥＥＰ,,株式会社,大阪府,大阪市中央区,博労町１丁目９－７セントラル南船場２０２,,27,128,5410059,,,,,,,2022-06-29,1,,,,,シープ,0
1654,7120001246994,新規,0,2022-06-29,2022-06-29,株式会社ガレーラ・ワークス,,株式会社,大阪府,大阪市東成区,東中本３丁目９－２１,,27,115,5370021,,,,,,,2022-06-29,1,,,,,ガレーラワークス,0
1658,7120003021982,新規,0,2022-06-29,2022-06-29,Ｌｕｃｉａｚ合同会社,,合同会社,大阪府,大阪市旭区,千林２丁目１８－２０スワーイ千林１０１号,,27,117,5350012,,,,,,,2022-06-29,1,,,,,ルシアス,0
1662,7120103004747,新規,0,2022-06-29,2022-06-29,アドアディション合同会社,,合同会社,大阪府,堺市北区,百舌鳥陵南町３丁４９,,27,146,5918034,,,,,,,2022-06-29,1,,,,,アドアディション,0
1667,7120903004203,新規,0,2022-06-29,2022-06-29,合同会社Ｓｕｍｍｅｒ　Ｈｉｌｌ,,合同会社,大阪府,豊中市,春日町２丁目１３番３８－１０１号,,27,203,5600052,,,,,,,2022-06-29,1,,,,,サマーヒル,0
1675,7140001126550,新規,0,2022-06-29,2022-06-29,株式会社セイワ,,株式会社,兵庫県,尼崎市,立花町２丁目２番１１－５０６号,,28,202,6610025,,,,,,,2022-06-29,1,,,,,セイワ,0
1676,7140003017863,新規,0,2022-06-29,2022-06-29,トリニティ合同会社,,合同会社,兵庫県,西宮市,甲子園浜１丁目２番地１,,28,204,6638155,,,,,,,2022-06-29,1,,,,,トリニティ,0
1687,7180001151792,新規,0,2022-06-29,2022-06-29,株式会社ＦＯＯＺＹ,,株式会社,愛知県,名古屋市中区,錦１丁目７番４０号第二ユアサビル４階,,23,106,4600003,,,,,,,2022-06-29,1,,,,,フージー,0
1688,7180001151925,新規,0,2022-06-29,2022-06-29,株式会社Ａｍｌｕｋｉ,,株式会社,愛知県,名古屋市中川区,福住町１番５号,,23,110,4540802,,,,,,,2022-06-29,1,,,,,アモルキ,0
1689,7180001151941,新規,0,2022-06-29,2022-06-29,アルヴァリンクグループ株式会社,,株式会社,愛知県,名古屋市中区,丸の内３丁目６－２７ＥＢＳビル５階Ａ,,23,106,4600002,,,,,,,2022-06-29,1,,,,,アルヴァリンクグループ,0
1703,7200003005606,新規,0,2022-06-29,2022-06-29,ＴＯＰ‐ＯＮＥ合同会社,,合同会社,岐阜県,可児市,土田２７５２－４,,21,214,5090206,,,,,,,2022-06-29,1,,,,,トップワン,0
1727,7290001098081,新規,0,2022-06-29,2022-06-29,岩永板金工業株式会社,,株式会社,福岡県,三潴郡大木町,大字上白垣８０４番地,,40,522,8300404,,,,,,,2022-06-29,1,,,,,イワナガバンキンコウギョウ,0
1739,7340001024841,新規,0,2022-06-29,2022-06-29,株式会社シーブルー,,株式会社,鹿児島県,姶良市,脇元１８５１番地２山中アパート２０１号,,46,225,8995651,,,,,,,2022-06-29,1,,,,,シーブルー,0
1745,7380001032931,新規,0,2022-06-29,2022-06-29,アクセルロードサービス株式会社,,株式会社,福島県,須賀川市,岩渕字日照田２８番地３,,07,207,9620043,,,,,,,2022-06-29,1,,,,,アクセルロードサービス,0
1746,7380003005209,新規,0,2022-06-29,2022-06-29,合同会社吉田設備,,合同会社,福島県,会津若松市,栄町８番３５号ヴェルファーレ上六日４０６号,,07,202,9650871,,,,,,,2022-06-29,1,,,,,ヨシダセツビ,0
1750,7410005006473,新規,0,2022-06-29,2022-06-29,農事組合法人三高クラブ,,その他の設立登記法人,秋田県,秋田市,雄和左手子字上野４５番地,,05,201,0101225,,,,,,,2022-06-29,1,,,,,サンコウクラブ,0
1754,7430003014047,新規,0,2022-06-29,2022-06-29,合同会社すまいる企画,,合同会社,北海道,札幌市手稲区,曙四条３丁目１４番１３号,00127043,01,109,0060834,,,,,,,2022-06-29,1,,,,,スマイルキカク,0
1758,7450003002223,新規,0,2022-06-29,2022-06-29,合同会社築古再生研究所,,合同会社,北海道,旭川市,末広一条９丁目３番７号,,01,204,0718131,,,,,,,2022-06-29,1,,,,,チクフルサイセイケンキュウジョ,0
1765,7480001011776,新規,0,2022-06-29,2022-06-29,株式会社徳島オフィスサービス,,株式会社,徳島県,徳島市,中徳島町２丁目５－２,,36,201,7700853,,,,,,,2022-06-29,1,,,,,トクシマオフィスサービス,0
1767,7700150028235,新規,0,2022-06-29,2015-10-09,兵庫中小企業労務協会,,その他,兵庫県,神戸市兵庫区,中道通７丁目１－１３－２０６,,28,105,6520801,,,,,,,2015-10-09,1,,,,,ヒヨウゴチユウシヨウキギヨウロウムキヨウカイ,0
1776,8010003038013,新規,0,2022-06-29,2022-06-29,Ｂｅｙｏｎｄ　Ｐｅｒｆｏｒｍａｎｃｅ合同会社,,合同会社,東京都,中央区,日本橋蛎殻町１丁目３７－１２,,13,102,1030014,,,,,,,2022-06-29,1,,,,,ビヨンドパフォーマンス,0
1780,8010401168221,新規,0,2022-06-29,2022-06-29,株式会社Ａｌｌｕｒｉｎｇ,,株式会社,東京都,港区,虎ノ門３丁目１８番６号朝日虎ノ門マンション６１４号室,,13,103,1050001,,,,,,,2022-06-29,1,,,,,アルアリング,0
1795,8011001148340,新規,0,2022-06-29,2022-06-29,株式会社Ａａｌｔｏ　Ａｇｅｎｃｙ　Ｊａｐａｎ,,株式会社,東京都,目黒区,中目黒５丁目６－３,,13,110,1530061,,,,,,,2022-06-29,1,,,,,アールトエージェンシージャパン,0
1798,8011003014937,新規,0,2022-06-29,2022-06-29,ＭｅｒｒｙＬｏｏ合同会社,,合同会社,東京都,渋谷区,神宮前６丁目２３－４桑野ビル２階,,13,113,1500001,,,,,,,2022-06-29,1,,,,,メリールー,0
1800,8011101099368,新規,0,2022-06-29,2022-06-29,アイティーネックス株式会社,,株式会社,東京都,新宿区,西新宿５丁目５番１－３７０８号,,13,104,1600023,,,,,,,2022-06-29,1,,,,,アイティーネックス,0
1809,8011501028190,新規,0,2022-06-29,2022-06-29,株式会社ばんぶー,,株式会社,東京都,荒川区,西日暮里２丁目５４番２号４０１号室,,13,118,1160013,,,,,,,2022-06-29,1,,,,,バンブー,0
1810,8011801040911,新規,0,2022-06-29,2022-06-29,株式会社秋玉,,株式会社,東京都,足立区,谷中１丁目１０－３第二ジュネス倉田２０１号室,,13,121,1200006,,,,,,,2022-06-29,1,,,,,アキタマ,0
1815,8013301049318,新規,0,2022-06-29,2022-06-29,株式会社Ｓｕｎｓｅｔ,,株式会社,東京都,豊島区,北大塚１丁目２番６号,,13,116,1700004,,,,,,,2022-06-29,1,,,,,サンセット,0
1824,8020001147095,新規,0,2022-06-29,2022-06-29,株式会社キャッツワークス,,株式会社,神奈川県,横浜市戸塚区,戸塚町１８２１番地,,14,110,2440003,,,,,,,2022-06-29,1,,,,,キャッツワークス,0
1825,8020001147104,新規,0,2022-06-29,2022-06-29,株式会社Ｓｈｒｉ,,株式会社,神奈川県,川崎市宮前区,宮崎２丁目８－１２ローズプラザ宮崎台６０３,,14,136,2160033,,,,,,,2022-06-29,1,,,,,シュリ,0
1829,8021001076375,新規,0,2022-06-29,2022-06-29,株式会社ＭＬＰ,,株式会社,神奈川県,茅ヶ崎市,ひばりが丘４－１０コスモ茅ヶ崎サザンヒル２０９号,,14,207,2530027,,,,,,,2022-06-29,1,,,,,エムエルビー,0
1830,8021003011875,新規,0,2022-06-29,2022-06-29,合同会社シーワン,,合同会社,神奈川県,逗子市,小坪１丁目２６番３９号,,14,208,2490008,,,,,,,2022-06-29,1,,,,,シーワン,0
1834,8030001148910,新規,0,2022-06-29,2022-06-29,株式会社一心工業,,株式会社,埼玉県,川越市,大字古市場１８５番地６,,11,201,3500014,,,,,,,2022-06-29,1,,,,,イッシンコウギョウ,0
1835,8030001148919,新規,0,2022-06-29,2022-06-29,株式会社Ｒｅｆｉｎｅ,,株式会社,埼玉県,川越市,宮元町８０番地４（クリオコート川越１０２号室）,,11,201,3500838,,,,,,,2022-06-29,1,,,,,リファイン,0
1837,8030003019688,新規,0,2022-06-29,2022-06-29,合同会社未来架設,,合同会社,埼玉県,草加市,金明町２７０番地２０,,11,221,3400052,,,,,,,2022-06-29,1,,,,,ミライカセツ,0
1840,8040001123920,新規,0,2022-06-29,2022-06-29,株式会社ＭＸ,,株式会社,千葉県,船橋市,葛飾町２丁目３７７－１ウィステミラ西船橋１２０３,,12,204,2730032,,,,,,,2022-06-29,1,,,,,エムエックス,0
1841,8040001123978,新規,0,2022-06-29,2022-06-29,株式会社ＴＲＹ　Ｃ,,株式会社,千葉県,八千代市,高津４１５番２１号,,12,221,2760036,,,,,,,2022-06-29,1,,,,,トライシー,0
1842,8040001124019,新規,0,2022-06-29,2022-06-29,株式会社コバヤシ,,株式会社,千葉県,香取市,玉造１丁目７番地９,,12,236,2870041,,,,,,,2022-06-29,1,,,,,コバヤシ,0
1843,8040001124027,新規,0,2022-06-29,2022-06-29,スーパーソフトシェア株式会社,,株式会社,千葉県,千葉市中央区,中央２丁目９番１号,,12,101,2600013,,,,,,,2022-06-29,1,,,,,スーパーソフトシェア,0
1844,8040001124035,新規,0,2022-06-29,2022-06-29,ＪＭ　ＴＲＡＤＩＮＧ株式会社,,株式会社,千葉県,四街道市,大日２０２２番地５,,12,228,2840001,,,,,,,2022-06-29,1,,,,,ジェイエムトレーディング,0
1848,8050005013101,新規,0,2022-06-29,2022-06-29,弁理士法人公文社特許商標事務所,,その他の設立登記法人,茨城県,水戸市,吉沢町７１５番地の１,,08,201,3100845,,,,,,,2022-06-29,1,,,,,コウブンシャトッキョショウヒョウジムショ,0
1871,8120001246993,新規,0,2022-06-29,2022-06-29,株式会社ＣＯＢＡＴＡ,,株式会社,大阪府,枚方市,朝日丘町２番２８号２階,,27,210,5730026,,,,,,,2022-06-29,1,,,,,コバタ,0
1872,8120001247034,新規,0,2022-06-29,2022-06-29,株式会社ＭＩＲＡＩＺＵ,,株式会社,大阪府,大阪市北区,梅田１丁目１－３大阪駅前第３ビル２９階１－１－１号室,,27,127,5300001,,,,,,,2022-06-29,1,,,,,ミライズ,0
1878,8120003021981,新規,0,2022-06-29,2022-06-29,合同会社ＰａｋｕＰａｈｕ,,合同会社,大阪府,大阪市北区,梅田１丁目１－３大阪駅前第３ビル２９階１－１－１号室,,27,127,5300001,,,,,,,2022-06-29,1,,,,,パクパフ,0
1883,8120103004754,新規,0,2022-06-29,2022-06-29,合同会社Ｒａｉｓｅ,,合同会社,大阪府,和泉市,池田下町１７７９－３３,,27,219,5940032,,,,,,,2022-06-29,1,,,,,レイズ,0
1890,8130001072068,新規,0,2022-06-29,2022-06-29,株式会社ずいしょう,,株式会社,京都府,京都市下京区,東若松町８３０番地,,26,106,6008305,,,,,,,2022-06-29,1,,,,,ズイショウ,0
1897,8140001126525,新規,0,2022-06-29,2022-06-29,株式会社ラヴィデボーテ,,株式会社,兵庫県,宝塚市,御殿山３丁目８番２８号,,28,214,6650841,,,,,,,2022-06-29,1,,,,,ラヴィデボーテ,0
1898,8140001126558,新規,0,2022-06-29,2022-06-29,株式会社フォーブ,,株式会社,兵庫県,宝塚市,南口１丁目１６番２１号,,28,214,6650011,,,,,,,2022-06-29,1,,,,,フォーブ,0
1905,8140005026218,新規,0,2022-06-29,2022-06-29,一般社団法人かえでの会,,その他の設立登記法人,兵庫県,尼崎市,築地５丁目７－１３,,28,202,6600858,,,,,,,2022-06-29,1,,,,,,0
1917,8180001151924,新規,0,2022-06-29,2022-06-29,株式会社風望,,株式会社,愛知県,春日井市,勝川町西１丁目４０番地,,23,206,4860946,,,,,,,2022-06-29,1,,,,,ガゼボ,0
1918,8180001151932,新規,0,2022-06-29,2022-06-29,株式会社ＬＳＩ　ＭＵＳＩＣ,,株式会社,愛知県,名古屋市緑区,浦里３丁目６５番地,,23,114,4580847,,,,,,,2022-06-29,1,,,,,エルエスアイミュージック,0
1919,8180001151940,新規,0,2022-06-29,2022-06-29,株式会社河合設備,,株式会社,愛知県,名古屋市守山区,村合町１５２番地,,23,113,4630083,,,,,,,2022-06-29,1,,,,,カワイセツビ,0
1928,8200001040216,新規,0,2022-06-29,2022-06-29,株式会社ＳＡＶＡＭＯＳ,,株式会社,岐阜県,岐阜市,西中島７丁目１２番３２号,,21,201,5020916,,,,,,,2022-06-29,1,,,,,サヴァモス,0
1929,8200003005605,新規,0,2022-06-29,2022-06-29,合同会社ユナイト,,合同会社,岐阜県,恵那市,山岡町田沢２６７６番地,,21,210,5097608,,,,,,,2022-06-29,1,,,,,ユナイト,0
1944,8250003003109,新規,0,2022-06-29,2022-06-29,嘉興合同会社,,合同会社,山口県,光市,虹ケ浜１丁目６番地１,,35,210,7430022,,,,,,,2022-06-29,1,,,,,カコウ,0
1957,8290001098072,新規,0,2022-06-29,2022-06-29,株式会社Ｌ＆Ｓ,,株式会社,福岡県,福岡市博多区,博多駅前３丁目２３番１７号,,40,132,8120011,,,,,,,2022-06-29,1,,,,,エルアンドエス,0
1971,8360001030614,新規,0,2022-06-29,2022-06-29,株式会社伊豆田,,株式会社,沖縄県,那覇市,前島３丁目１０番５号マンションピアソルト２０２,,47,201,9000016,,,,,,,2022-06-29,1,,,,,イズタ,0
1974,8370003005745,新規,0,2022-06-29,2022-06-29,合同会社もものわ,,合同会社,宮城県,石巻市,駅前北通り１丁目１２番５号５シティハイム北通り１０２,,04,202,9860813,,,,,,,2022-06-29,1,,,,,モモノワ,0
1980,8390001016949,新規,0,2022-06-29,2022-06-29,株式会社三奨建設工業,,株式会社,山形県,山形市,桜田西４丁目１０番４１号パークシティよしだ１Ｆ,,06,201,9902321,,,,,,,2022-06-29,1,,,,,サンショウケンセツコウギョウ,0
1984,8420001017910,新規,0,2022-06-29,2022-06-29,株式会社平澤建設,,株式会社,青森県,上北郡野辺地町,字松ノ木平８３番地８９,,02,401,0393145,,,,,,,2022-06-29,1,,,,,ヒラサワケンセツ,0
1996,8462503000200,新規,0,2022-06-29,2022-06-29,合同会社知床クルーズ英人丸,,合同会社,北海道,目梨郡羅臼町,礼文町３２４番地１,,01,694,0861834,,,,,,,2022-06-29,1,,,,,シレトコクルーズヒデトマル,0
1999,8490003001674,新規,0,2022-06-29,2022-06-29,合同会社ばびょーん,,合同会社,高知県,香美市,香北町根須５３６番１,,39,212,7814204,,,,,,,2022-06-29,1,,,,,,0
2003,8700150109389,新規,0,2022-06-29,2022-06-10,ＭｕｓｉｃＬａｂｏ１４１４２１,,その他,京都府,城陽市,寺田庭井１６８番地,,26,207,6100121,,,,,,,2022-06-10,1,,,,,ミユージツクラボイチヨンイチヨンニイチ,0
2013,9010001227649,新規,0,2022-06-29,2022-06-29,株式会社ＢＬＵＥ　ＲＥＶＥＲＢ,,株式会社,東京都,文京区,向丘２丁目１４番９号岸田ビル２Ｆ,,13,105,1130023,,,,,,,2022-06-29,1,,,,,ブルーリヴァーブ,0
2014,9010001227657,新規,0,2022-06-29,2022-06-29,千代田インベストメント株式会社,,株式会社,東京都,千代田区,西神田３丁目８番３号,,13,101,1010065,,,,,,,2022-06-29,1,,,,,チヨダインベストメント,0
2015,9010001227665,新規,0,2022-06-29,2022-06-29,ランドソフト株式会社,,株式会社,東京都,中央区,銀座１丁目２１番１６号,,13,102,1040061,,,,,,,2022-06-29,1,,,,,ランドソフト,0
2017,9010003037996,新規,0,2022-06-29,2022-06-29,木越商会合同会社,,合同会社,東京都,中央区,日本橋人形町２丁目１０番１２号,,13,102,1030013,,,,,,,2022-06-29,1,,,,,キゴシショウカイ,0
2023,9010401168195,新規,0,2022-06-29,2022-06-29,株式会社ハル,,株式会社,東京都,港区,南青山３丁目２番６号モリヤサンライトビル１階,,13,103,1070062,,,,,,,2022-06-29,1,,,,,ハル,0
2024,9010401168220,新規,0,2022-06-29,2022-06-29,株式会社シンシア・ハート,,株式会社,東京都,港区,芝大門２丁目２－１ＡＣＮ芝大門ビル６階,,13,103,1050012,,,,,,,2022-06-29,1,,,,,シンシアハート,0
2025,9010401168245,新規,0,2022-06-29,2022-06-29,株式会社Ｏｔｏｒｉ　ｃａｐｉｔａｌ,,株式会社,東京都,港区,六本木１丁目９番３９号,,13,103,1060032,,,,,,,2022-06-29,1,,,,,オオトリキャピタル,0
2030,9010405021128,新規,0,2022-06-29,2022-06-29,一般社団法人日本ベーシックボディーケア協会,,その他の設立登記法人,東京都,港区,東麻布２丁目１０番６号,,13,103,1060044,,,,,,,2022-06-29,1,,,,,ニホンベーシックボディーケアキョウカイ,0
2034,9010601061381,新規,0,2022-06-29,2022-06-29,株式会社松浦リッチ研究所別働隊,,株式会社,東京都,墨田区,立花３丁目１７番５号リバーハイツ小出３０３,,13,107,1310043,,,,,,,2022-06-29,1,,,,,マツラリッチケンキュウジョベツドウタイ,0
2035,9010601061398,新規,0,2022-06-29,2022-06-29,ＶＲドリームス株式会社,,株式会社,東京都,墨田区,石原３丁目２２番８号,,13,107,1300011,,,,,,,2022-06-29,1,,,,,ブイアールドリームス,0
2042,9010701042876,新規,0,2022-06-29,2022-06-29,大和電器ホールディングス株式会社,,株式会社,東京都,品川区,小山３丁目２番１４号,,13,109,1420062,,,,,,,2022-06-29,1,,,,,ヤマトデンキホールディングス,0
2053,9011003014936,新規,0,2022-06-29,2022-06-29,合同会社フリージア,,合同会社,東京都,渋谷区,恵比寿４丁目２２番８号,,13,113,1500013,,,,,,,2022-06-29,1,,,,,,0
2055,9011101099367,新規,0,2022-06-29,2022-06-29,ＢｅｅＩｎｖｅｎｔｏｒ株式会社,,株式会社,東京都,新宿区,西新宿７丁目２番６号西新宿Ｋ－１ビル３階,,13,104,1600023,,,,,,,2022-06-29,1,,,,,ビーインベンター,0
2061,9011501028198,新規,0,2022-06-29,2022-06-29,Ｋａｓｕｍｉ　Ｆａｓｈｉｏｎ株式会社,,株式会社,東京都,荒川区,南千住１丁目４５番８－１０３号Ａ,,13,118,1160003,,,,,,,2022-06-29,1,,,,,カスミファッション,0
2065,9011701025417,新規,0,2022-06-29,2022-06-29,株式会社Ｅｌｅｃｒｅｗ,,株式会社,東京都,江戸川区,中央２丁目３４－１５,,13,123,1320021,,,,,,,2022-06-29,1,,,,,エレクルー,0
2067,9013105001804,新規,0,2022-06-29,2022-06-29,一般社団法人紡ぐ手,,その他の設立登記法人,東京都,西多摩郡日の出町,大字大久野１０６２番地８,,13,305,1900181,,,,,,,2022-06-29,1,,,,,ツムグテ,0
2073,9013301049317,新規,0,2022-06-29,2022-06-29,株式会社ＯｎＳｔｙｌｅＴｏｋｙｏ,,株式会社,東京都,豊島区,池袋３丁目３４番７号ビジネスパーク池袋２階,,13,116,1710014,,,,,,,2022-06-29,1,,,,,オンスタイルトウキョウ,0
2079,9020001147094,新規,0,2022-06-29,2022-06-29,株式会社Ｂ・Ｍ・Ｊ,,株式会社,神奈川県,横浜市保土ケ谷区,岩崎町３２番１３号,,14,106,2400015,,,,,,,2022-06-29,1,,,,,ビーエムジェイ,0
2080,9020001147111,新規,0,2022-06-29,2022-06-29,株式会社ＬＡ　ＬＵＭＩＥＲＥ,,株式会社,神奈川県,横浜市港北区,鳥山町５２９番地１２加瀬ビル９８－１階,,14,109,2220035,,,,,,,2022-06-29,1,,,,,ラリュミエール,0
2082,9020003022015,新規,0,2022-06-29,2022-06-29,トクシュン合同会社,,合同会社,神奈川県,川崎市川崎区,日進町２３番地９－１００３,,14,131,2100024,,,,,,,2022-06-29,1,,,,,トクシュン,0
2091,9030005020899,新規,0,2022-06-29,2022-06-29,一般社団法人Ｔｅｒｒａｃｅ,,その他の設立登記法人,埼玉県,春日部市,藤塚２３７８番地１,,11,214,3440011,,,,,,,2022-06-29,1,,,,,テラス,0
2103,9040001123936,新規,0,2022-06-29,2022-06-29,株式会社内田興業,,株式会社,千葉県,千葉市若葉区,愛生町５４番地４－１０３,,12,104,2640031,,,,,,,2022-06-29,1,,,,,ウチダコウギョウ,0
2104,9040001123985,新規,0,2022-06-29,2022-06-29,株式会社ホームリガティー,,株式会社,千葉県,千葉市中央区,末広２丁目３－２,,12,101,2600843,,,,,,,2022-06-29,1,,,,,ホームリガティー,0
2107,9040003020347,新規,0,2022-06-29,2022-06-29,合同会社ゆにわ,,合同会社,千葉県,野田市,野田６７７番地１ローズハイツ野田愛宕Ａ－３０８,,12,208,2780037,,,,,,,2022-06-29,1,,,,,ユニワ,0
2121,9080401025902,新規,0,2022-06-29,2022-06-29,遠州フォレスト株式会社,,株式会社,静岡県,浜松市西区,大山町３３７２番地の２,,22,133,4311102,,,,,,,2022-06-29,1,,,,,エンシュウフォレスト,0
2122,9090001017638,新規,0,2022-06-29,2022-06-29,Ｆｒｕｉｔｓ　Ｄｅｓｉｇｎ　Ｆａｃｔｏｒｙ株式会社,,株式会社,山梨県,甲州市,塩山藤木１８７０番地,,19,213,4040054,,,,,,,2022-06-29,1,,,,,フルーツデザインファクトリー,0
2136,9120001247009,新規,0,2022-06-29,2022-06-29,株式会社ＥＬＤＯＲＡＤＯ,,株式会社,大阪府,大阪市北区,西天満６丁目９番９号,,27,127,5300047,,,,,,,2022-06-29,1,,,,,エルドラド,0
2138,9120003021989,新規,0,2022-06-29,2022-06-29,合同会社ＳＫＮ,,合同会社,大阪府,大阪市西区,北堀江２丁目２－６,,27,106,5500014,,,,,,,2022-06-29,1,,,,,エスケーエヌ,0
2144,9120901046170,新規,0,2022-06-29,2022-06-29,株式会社ＢＡＳＩＣ　ＤＥＳＩＧＮ,,株式会社,大阪府,箕面市,百楽荘４丁目３番５号,,27,220,5620042,,,,,,,2022-06-29,1,,,,,ベーシックデザイン,0
2148,9122001036011,新規,0,2022-06-29,2022-06-29,チカルミー株式会社,,株式会社,大阪府,東大阪市,寿町１丁目４番１号,,27,227,5770837,,,,,,,2022-06-29,1,,,,,チカルミー,0
2169,9180001151915,新規,0,2022-06-29,2022-06-29,株式会社果実,,株式会社,愛知県,一宮市,大志１丁目２番４号２階,,23,203,4910852,,,,,,,2022-06-29,1,,,,,カジツ,0
2170,9180001151956,新規,0,2022-06-29,2022-06-29,株式会社角井実業,,株式会社,愛知県,名古屋市港区,木場町９番地の５南木場荘６棟５０３号,,23,111,4550021,,,,,,,2022-06-29,1,,,,,ツノイジツギョウ,0
2172,9190001029549,新規,0,2022-06-29,2022-06-29,株式会社ノルディックバディズジャパン,,株式会社,三重県,桑名市,大字額田２２番地１,,24,205,5110911,,,,,,,2022-06-29,1,,,,,ノルディックバディズジャパン,0
2174,9200003005604,新規,0,2022-06-29,2022-06-29,ＢＩＫＡＮＳＨＵ合同会社,,合同会社,岐阜県,岐阜市,問屋町１丁目４番地,,21,201,5008845,,,,,,,2022-06-29,1,,,,,ビカンス,0
2175,9210001018978,新規,0,2022-06-29,2022-06-29,日ノ輪開発株式会社,,株式会社,福井県,坂井市,丸岡町南横地第１０号４３番地１５,,18,210,9100375,,,,,,,2022-06-29,1,,,,,ヒノワカイハツ,0
2186,9260001036991,新規,0,2022-06-29,2022-06-29,株式会社ＮＡＫＡＭＵＲＡ機工,,株式会社,岡山県,倉敷市,中島１６０５番地１三島コーポ１０４号,,33,202,7100803,,,,,,,2022-06-29,1,,,,,ナカムラキコウ,0
2199,9320001019164,新規,0,2022-06-29,2022-06-29,圭咲株式会社,,株式会社,大分県,大分市,大字中戸次９６２番地の５,,44,201,8797761,,,,,,,2022-06-29,1,,,,,キヨザキ,0
2206,9360003012122,新規,0,2022-06-29,2022-06-29,合同会社にんじゃにゃんじゃ,,合同会社,沖縄県,糸満市,西崎６丁目１３番３号１－Ａ,,47,210,9010305,,,,,,,2022-06-29,1,,,,,ニンジャニャンジャ,0
