sequenceNumber,corporateNumber,process,correct,updateDate,changeDate,name,nameImageId,kind,prefectureName,cityName,streetNumber,addressImageId,prefectureCode,cityCode,postCode,addressOutside,addressOutsideImageId,closeDate,closeCause,successorCorporateNumber,changeCause,assignmentDate,latest,enName,enPrefectureName,enCityName,enAddressOutside,furigana,hihyoji
6,1010001252638,新規,0,2025-02-28,2025-02-28,株式会社ＴＯＯＮ　ＣＯＮＳＴＲＵＣＴＩＯＮ,,株式会社,東京都,千代田区,神田淡路町１丁目９番地５－２１２号,,13,101,1010063,,,,,,,2025-02-28,1,,,,,トゥーンコンストラクション,0
7,1010001252679,新規,0,2025-02-28,2025-02-28,時見株式会社,,株式会社,東京都,中央区,築地４丁目２番７－６０１号,,13,102,1040045,,,,,,,2025-02-28,1,,,,,トキミ,0
8,1010003046591,新規,0,2025-02-28,2025-02-28,Ｌａ　Ｃａｍｐａｎｅｌｌａ合同会社,,合同会社,東京都,中央区,勝どき６丁目３番１号,,13,102,1040054,,,,,,,2025-02-28,1,,,,,ラカンパネラ,0
9,1010003046600,新規,0,2025-02-28,2025-02-28,合同会社ＢＬＯＯＭ,,合同会社,東京都,中央区,勝どき６丁目３番２－１２０５号,,13,102,1040054,,,,,,,2025-02-28,1,,,,,ブルーム,0
10,1010005039651,新規,0,2025-02-28,2025-02-28,前津蓄電所一般社団法人,,その他の設立登記法人,東京都,中央区,京橋２丁目１２番６号ＡＯＪ税理士法人内,,13,102,1040031,,,,,,,2025-02-28,1,,,,,マエヅチクデンショ,0
14,1010401188473,新規,0,2025-02-28,2025-02-28,ピュア・ジャパン株式会社,,株式会社,東京都,港区,北青山３丁目６番７号青山パラシオタワー１１階,,13,103,1070061,,,,,,,2025-02-28,1,,,,,ピュアジャパン,0
15,1010401188481,新規,0,2025-02-28,2025-02-28,株式会社ＰＬＥＡＳＵＲＥ,,株式会社,東京都,港区,六本木４丁目３番１１号六本木ユニハウス２２３,,13,103,1060032,,,,,,,2025-02-28,1,,,,,プレジャー,0
16,1010401188498,新規,0,2025-02-28,2025-02-28,株式会社Ｃｏｎｎｅｃｔｉｖｅ,,株式会社,東京都,港区,芝５丁目３６番４号札の辻スクエア９階,,13,103,1080014,,,,,,,2025-02-28,1,,,,,コネクティヴ,0
17,1010401188523,新規,0,2025-02-28,2025-02-28,ネクスジェンウェーハシステムズジャパン株式会社,,株式会社,東京都,港区,元麻布３丁目１番６号,,13,103,1060046,,,,,,,2025-02-28,1,,,,,ネクスジェンウェーハシステムズジャパン,0
21,1010403034469,新規,0,2025-02-28,2025-02-28,合同会社レイクアンタレス,,合同会社,東京都,港区,北青山１丁目３－３三橋ビル３階,,13,103,1070061,,,,,,,2025-02-28,1,,,,,レイクアンタレス,0
25,1010501053726,新規,0,2025-02-28,2025-02-28,株式会社ゴールド丸コーポレーション,,株式会社,東京都,台東区,上野７丁目３番２号ＧＥ上野駅前ビル７Ｆ,,13,106,1100005,,,,,,,2025-02-28,1,,,,,ゴールドマルコーポレーション,0
36,1010901056898,新規,0,2025-02-28,2025-02-28,株式会社ＴＫＤ,,株式会社,東京都,世田谷区,北沢１丁目１８番１２号,,13,112,1550031,,,,,,,2025-02-28,1,,,,,ティーケイディー,0
43,1011005010908,新規,0,2025-02-28,2025-02-28,一般社団法人シニア住活協議会,,その他の設立登記法人,東京都,渋谷区,代々木１丁目３０番１５号,,13,113,1510053,,,,,,,2025-02-28,1,,,,,シニアジュウカツキョウギカイ,0
50,1011501031762,新規,0,2025-02-28,2025-02-28,池田芳香株式会社,,株式会社,東京都,荒川区,東尾久５丁目３２番８－１０２号,,13,118,1160012,,,,,,,2025-02-28,1,,,,,イケダホウコウ,0
56,1011803006710,新規,0,2025-02-28,2025-02-28,合同会社ギグル,,合同会社,東京都,足立区,東伊興４丁目１番６号,,13,121,1210801,,,,,,,2025-02-28,1,,,,,ギグル,0
69,1020001161474,新規,0,2025-02-28,2025-02-28,エネホーム株式会社,,株式会社,神奈川県,横浜市中区,翁町１丁目３－１０ニッセンビル７Ｆ,,14,104,2310028,,,,,,,2025-02-28,1,,,,,エネホーム,0
70,1020001161573,新規,0,2025-02-28,2025-02-28,株式会社Ｂｅｅ　Ｔｒｉｂｅ,,株式会社,神奈川県,横浜市神奈川区,三ツ沢上町３０番４１－２０３号,,14,102,2210856,,,,,,,2025-02-28,1,,,,,ビートライブ,0
80,1021001084558,新規,0,2025-02-28,2025-02-28,ＲＤプラットフォーム株式会社,,株式会社,神奈川県,大和市,桜森２丁目１０番１４号ジェームス・タウン相模大塚１０２号室,,14,213,2420028,,,,,,,2025-02-28,1,,,,,アールディープラットフォーム,0
81,1021001084566,新規,0,2025-02-28,2025-02-28,ＨＥＡＲＴ　ＴＲＥＥＳ株式会社,,株式会社,神奈川県,茅ヶ崎市,菱沼海岸２番８号,,14,207,2530037,,,,,,,2025-02-28,1,,,,,ハートツリーズ,0
82,1021003015651,新規,0,2025-02-28,2025-02-28,合同会社ＵＮＯＢＩＴＯ,,合同会社,神奈川県,愛甲郡清川村,宮ヶ瀬９４０番地２０,,14,402,2430111,,,,,,,2025-02-28,1,,,,,ウノビト,0
83,1030001165061,新規,0,2025-02-28,2025-02-28,株式会社Ｌｅｏｐａｒｄ,,株式会社,埼玉県,さいたま市大宮区,宮町２丁目７４番地４号第３秀宝ビル３階,,11,103,3300802,,,,,,,2025-02-28,1,,,,,レオパード,0
84,1030001165078,新規,0,2025-02-28,2025-02-28,株式会社ＲｉＴＡジャパン,,株式会社,埼玉県,北葛飾郡杉戸町,大字才羽１８５番地,,11,464,3450014,,,,,,,2025-02-28,1,,,,,リタ,0
88,1030003026220,新規,0,2025-02-28,2025-02-28,ＴｏＦｕ合同会社,,合同会社,埼玉県,越谷市,北越谷１丁目４番２号,,11,222,3430026,,,,,,,2025-02-28,1,,,,,トーフ,0
98,1040003026979,新規,0,2025-02-28,2025-02-28,ＣＯＮＰＬＥ合同会社,,合同会社,千葉県,市川市,大野町３丁目２０７２番地の１,,12,203,2720805,,,,,,,2025-02-28,1,,,,,コンプル,0
99,1040003026995,新規,0,2025-02-28,2025-02-28,合同会社ＴＫリフォーム,,合同会社,千葉県,千葉市花見川区,宮野木台４丁目２３番１８号,,12,102,2620015,,,,,,,2025-02-28,1,,,,,ティーケーリフォーム,0
102,1050001056234,新規,0,2025-02-28,2025-02-28,株式会社ｃｌｏｕｄ９,,株式会社,茨城県,水戸市,西原１丁目１番８９－３０１号ヴァレンティーナＥ棟,,08,201,3100044,,,,,,,2025-02-28,1,,,,,クラウドナイン,0
112,1080003003396,新規,0,2025-02-28,2025-02-28,合同会社翡翠,,合同会社,静岡県,静岡市葵区,追手町１０番９１１号,,22,101,4200853,,,,,,,2025-02-28,1,,,,,ヒスイ,0
113,1080101025334,新規,0,2025-02-28,2025-02-28,Ｈｉｋａｒｉ　Ｔａｂｌｅ株式会社,,株式会社,静岡県,富士市,原田１３３２番地の１,,22,210,4170852,,,,,,,2025-02-28,1,,,,,ヒカリテーブル,0
119,1090005007683,新規,0,2025-02-28,2025-02-28,一般社団法人リイズスポーツクラブ,,その他の設立登記法人,山梨県,甲斐市,島上条１４８６番地１,,19,210,4000123,,,,,,,2025-02-28,1,,,,,リイズスポーツクラブ,0
121,1100001038334,新規,0,2025-02-28,2025-02-28,株式会社Ｇｒａｎｄ　Ｍ’ｓ,,株式会社,長野県,上田市,上塩尻１７１番地１・Ｂ号室,,20,203,3860042,,,,,,,2025-02-28,1,,,,,グランエムズ,0
123,1110001039050,新規,0,2025-02-28,2025-02-28,新洋商事株式会社,,株式会社,新潟県,上越市,柿崎区直海浜１６３６番地２,,15,222,9493215,,,,,,,2025-02-28,1,,,,,シンヨウショウジ,0
133,1120001273251,新規,0,2025-02-28,2025-02-28,株式会社Ｌｉｂｅｒａｌ　Ｌｉｆｅ,,株式会社,大阪府,大阪市中央区,北久宝寺町４丁目４番１５－４０３号,,27,128,5410057,,,,,,,2025-02-28,1,,,,,リベラルライフ,0
134,1120001273342,新規,0,2025-02-28,2025-02-28,関西建託株式会社,,株式会社,大阪府,大阪市北区,梅田１丁目２番２号大阪駅前第２ビル１２－１２,,27,127,5300001,,,,,,,2025-02-28,1,,,,,カンサイケンタク,0
137,1120003028728,新規,0,2025-02-28,2025-02-28,ＲｅＮｏｖａ　Ｏｓａｋａ合同会社,,合同会社,大阪府,大阪市中央区,島之内２丁目１３番３１－４０５号,,27,128,5420082,,,,,,,2025-02-28,1,,,,,レノバオオサカ,0
138,1120003028736,新規,0,2025-02-28,2025-02-28,合同会社ＨＩＫＩＣＨＩ,,合同会社,大阪府,大阪市淀川区,西中島１丁目６番１３号,,27,123,5320011,,,,,,,2025-02-28,1,,,,,ヒキチ,0
142,1122001000437,新規,0,2025-02-28,2025-02-28,株式会社石田商会,,株式会社,大阪府,東大阪市,瓜生堂３丁目１番１０号,,27,227,5780946,,,,,,,2025-02-28,1,,,,,イシダショウカイ,0
143,1130001079078,新規,0,2025-02-28,2025-02-28,宝邁商事株式会社,,株式会社,京都府,京都市東山区,上新シ町３７１番地６,,26,105,6050877,,,,,,,2025-02-28,1,,,,,ホウマイショウジ,0
144,1130003010239,新規,0,2025-02-28,2025-02-28,合同会社ひろ,,合同会社,京都府,京都市右京区,梅津尻溝町８タウンハイツ嵐山１１０,,26,108,6150924,,,,,,,2025-02-28,1,,,,,ヒロ,0
149,1140001137537,新規,0,2025-02-28,2025-02-28,株式会社Ｄシングス,,株式会社,兵庫県,宝塚市,中山桜台３丁目１１番３号,,28,214,6650877,,,,,,,2025-02-28,1,,,,,ディーシングス,0
150,1140001137545,新規,0,2025-02-28,2025-02-28,ラズライト不動産株式会社,,株式会社,兵庫県,尼崎市,椎堂１丁目１番１０号,,28,202,6610952,,,,,,,2025-02-28,1,,,,,ラズライトフドウサン,0
155,1150001027910,新規,0,2025-02-28,2025-02-28,株式会社朝日堂,,株式会社,奈良県,宇陀市,菟田野松井２４２番地の２,,29,212,6332221,,,,,,,2025-02-28,1,,,,,アサヒドウ,0
157,1150003003513,新規,0,2025-02-28,2025-02-28,合同会社飛鳥・藤原ＤＡＯ,,合同会社,奈良県,橿原市,今井町１丁目６番１号,,29,205,6340812,,,,,,,2025-02-28,1,,,,,アスカフジワラダオ,0
165,1180001165617,新規,0,2025-02-28,2025-02-28,メディカルラボサービス株式会社,,株式会社,愛知県,名古屋市昭和区,御器所３丁目１０番５号,,23,107,4660051,,,,,,,2025-02-28,1,,,,,メディカルラボサービス,0
166,1180003028061,新規,0,2025-02-28,2025-02-28,合同会社ＮＫＳ,,合同会社,愛知県,小牧市,桜井本町５０番地,,23,219,4850043,,,,,,,2025-02-28,1,,,,,エヌケーエス,0
171,1200001043472,新規,0,2025-02-28,2025-02-28,ＦＴサービス株式会社,,株式会社,岐阜県,下呂市,萩原町奥田洞１１１０番地２,,21,220,5092519,,,,,,,2025-02-28,1,,,,,エフティーサービス,0
172,1200001043480,新規,0,2025-02-28,2025-02-28,株式会社アプレンティスシップ,,株式会社,岐阜県,多治見市,幸町６丁目３番地の３５,,21,204,5070077,,,,,,,2025-02-28,1,,,,,アプレンティスシップ,0
173,1210001020074,新規,0,2025-02-28,2025-02-28,繋ぐ株式会社,,株式会社,福井県,福井市,長本町５１０番地南後ビル２Ｆ,,18,201,9100844,,,,,,,2025-02-28,1,,,,,ツナグ,0
175,1230001020766,新規,0,2025-02-28,2025-02-28,株式会社得産,,株式会社,富山県,南砺市,高畠１０８５番地,,16,210,9391714,,,,,,,2025-02-28,1,,,,,トクサン,0
189,1290001109125,新規,0,2025-02-28,2025-02-28,株式会社ＬＩＮＫＵＰ,,株式会社,福岡県,福岡市博多区,博多駅前１丁目２３番２号ＰａｒｋＦｒｏｎｔ博多駅前１丁目５Ｆ－Ｂ,,40,132,8120011,,,,,,,2025-02-28,1,,,,,リンクアップ,0
200,1330001032925,新規,0,2025-02-28,2025-02-28,株式会社ＱＵＡ,,株式会社,熊本県,熊本市中央区,中央街１番２９号ＪＡＣＫビル４Ｆ,,43,101,8600802,,,,,,,2025-02-28,1,,,,,キュア,0
201,1330003010838,新規,0,2025-02-28,2025-02-28,ＩＭ３４号蓄電所合同会社,,合同会社,熊本県,球磨郡あさぎり町,深田西２３２６番地１６８,,43,514,8680444,,,,,,,2025-02-28,1,,,,,アイエムサンジュウヨンゴウチクデンショ,0
204,1330005010877,新規,0,2025-02-28,2025-02-28,宗教法人ハーベストチャーチ熊本,,その他の設立登記法人,熊本県,熊本市西区,春日５丁目２３－１３,,43,103,8600047,,,,,,,2025-02-28,1,,,,,ハーベストチャーチクマモト,0
208,1360001034828,新規,0,2025-02-28,2025-02-28,株式会社ＳＨＩＳＨＩ石垣島,,株式会社,沖縄県,石垣市,字登野城５７６番地１ＴＡＫＥＨＡＩＩＩ６－Ｄ,00138169,47,207,9070004,,,,,,,2025-02-28,1,,,,,シシイシガキジマ,0
209,1360001034836,新規,0,2025-02-28,2025-02-28,株式会社Ｈ＆Ｋ,,株式会社,沖縄県,那覇市,真嘉比１丁目２７番２１号アルカンシエル２０２,,47,201,9020068,,,,,,,2025-02-28,1,,,,,エイチアンドケイ,0
234,1700150129336,新規,0,2025-02-28,2025-02-28,ＦＡＴＨＩＭＡ　ＴＲＡＤＩＮＧ,,外国会社等,千葉県,山武市,木原１４００番地オフィス１０,,12,237,2891212,スリランカ民主社会主義共和国、キャンディ、バトゥゴダ、カサワッタ、Ｎｏ．８１／Ａ,,,,,,2025-02-28,1,,,,,フアテイマトレーデイング,0
243,2010001252645,新規,0,2025-02-28,2025-02-28,株式会社東宝ハウス東京,,株式会社,東京都,中央区,八重洲１丁目５番１７号,,13,102,1030028,,,,,,,2025-02-28,1,,,,,トウホウハウストウキョウ,0
244,2010001252653,新規,0,2025-02-28,2025-02-28,株式会社ＭＯＭＥ,,株式会社,東京都,中央区,日本橋大伝馬町１５番３号,,13,102,1030011,,,,,,,2025-02-28,1,,,,,モミー,0
249,2010003046616,新規,0,2025-02-28,2025-02-28,合同会社Ｓａｎｐｏ　Ｓｔｕｄｉｏ,,合同会社,東京都,中央区,銀座１丁目１２－４Ｎ＆ＥＢＬＤ．７階,,13,102,1040061,,,,,,,2025-02-28,1,,,,,サンポスタジオ,0
258,2010401188464,新規,0,2025-02-28,2025-02-28,株式会社ｏｆｆｉｃｅ．Ｍ,,株式会社,東京都,港区,六本木２丁目２番４－１６０６号,,13,103,1060032,,,,,,,2025-02-28,1,,,,,オフィスエム,0
259,2010401188506,新規,0,2025-02-28,2025-02-28,ファストペイメント株式会社,,株式会社,東京都,港区,麻布狸穴町５１番地１,,13,103,1060042,,,,,,,2025-02-28,1,,,,,ファストペイメント,0
261,2010403034501,新規,0,2025-02-28,2025-02-28,四ツ谷エナジー太陽光７合同会社,,合同会社,東京都,港区,西新橋１丁目１番１号ＥＰコンサルティングサービス内,,13,103,1050003,,,,,,,2025-02-28,1,,,,,ヨツヤエナジータイヨウコウセブン,0
262,2010405024137,新規,0,2025-02-28,2025-02-28,一般社団法人四ツ谷エナジー太陽光９,,その他の設立登記法人,東京都,港区,西新橋１丁目１番１号ＥＰコンサルティングサービス内,,13,103,1050003,,,,,,,2025-02-28,1,,,,,ヨツヤエナジータイヨウコウナイン,0
263,2010501053709,新規,0,2025-02-28,2025-02-28,株式会社ライフケアサービス・フレット,,株式会社,東京都,台東区,上野３丁目２１－１－２Ｆ,,13,106,1100005,,,,,,,2025-02-28,1,,,,,ライフケアサービスフレット,0
268,2010701047304,新規,0,2025-02-28,2025-02-28,株式会社ＴＲＥインベストメント,,株式会社,東京都,品川区,小山３丁目１４―２,,13,109,1420062,,,,,,,2025-02-28,1,,,,,ティアールイーインベストメント,0
269,2010801035877,新規,0,2025-02-28,2025-02-28,楽詩株式会社,,株式会社,東京都,大田区,東海３丁目７番３号東海ビル３０６室,,13,111,1430001,,,,,,,2025-02-28,1,,,,,ガクシ,0
271,2010901056897,新規,0,2025-02-28,2025-02-28,株式会社エスクラピウス,,株式会社,東京都,世田谷区,玉川台２丁目２５番１－４０９号,,13,112,1580096,,,,,,,2025-02-28,1,,,,,エスクラピウス,0
279,2011001168055,新規,0,2025-02-28,2025-02-28,株式会社ｍｉｚｕｎａｍｉ,,株式会社,東京都,渋谷区,渋谷２丁目１０番６号山田青山ビル３Ｆ,,13,113,1500002,,,,,,,2025-02-28,1,,,,,ミズナミ,0
281,2011103015592,新規,0,2025-02-28,2025-02-28,合同会社Ｅｎｖａｒ,,合同会社,東京都,新宿区,西新宿７丁目５番５号Ｐｌａｚａ西新宿ＵＣＦ４０６,,13,104,1600023,,,,,,,2025-02-28,1,,,,,エンヴァー,0
282,2011301030385,新規,0,2025-02-28,2025-02-28,株式会社ブイヨン,,株式会社,東京都,杉並区,天沼３丁目３０番７号,,13,115,1670032,,,,,,,2025-02-28,1,,,,,ブイヨン,0
283,2011301030393,新規,0,2025-02-28,2025-02-28,株式会社Ｌｏｇｉｃ,,株式会社,東京都,杉並区,桃井２丁目１番９号アイムタウン荻窪３Ａ,,13,115,1670034,,,,,,,2025-02-28,1,,,,,ロジック,0
289,2011705001874,新規,0,2025-02-28,2025-02-28,特定非営利活動法人アイ＆ユー,,その他の設立登記法人,東京都,江戸川区,南篠崎町５丁目１３番４１－３１０号,,13,123,1330065,,,,,,,2025-02-28,1,,,,,アイアンドユー,0
291,2011801045718,新規,0,2025-02-28,2025-02-28,株式会社ＭＩＵＲＡ,,株式会社,東京都,足立区,伊興４丁目１７－５ベルメゾン中田１０３,,13,121,1210823,,,,,,,2025-02-28,1,,,,,ミウラ,0
293,2012303002117,新規,0,2025-02-28,2025-02-28,合同会社誠光建設,,合同会社,東京都,町田市,中町１丁目２８番２号アビダス町田中町ブライト９０１,,13,209,1940021,,,,,,,2025-02-28,1,,,,,セイコウケンセツ,0
297,2012801023779,新規,0,2025-02-28,2025-02-28,株式会社ＳＭＩＬＥ　ＬＯＧ,,株式会社,東京都,国分寺市,東元町１丁目４０番１２号テラセパーシモン１０１,,13,214,1850022,,,,,,,2025-02-28,1,,,,,スマイルログ,0
308,2020001161548,新規,0,2025-02-28,2025-02-28,株式会社ハサウェイ,,株式会社,神奈川県,川崎市高津区,久地３丁目１６番６－２０３号,,14,134,2130032,,,,,,,2025-02-28,1,,,,,ハサウェイ,0
309,2020001161556,新規,0,2025-02-28,2025-02-28,株式会社ｅｌｅｖｅｎ,,株式会社,神奈川県,川崎市高津区,溝口１丁目１９番１１号－１００号室,,14,134,2130001,,,,,,,2025-02-28,1,,,,,イレブン,0
310,2020001161606,新規,0,2025-02-28,2025-02-28,株式会社バイアノーズ,,株式会社,神奈川県,横浜市西区,戸部本町９番６号ポートサイド戸部６０３号,,14,103,2200041,,,,,,,2025-02-28,1,,,,,バイアノーズ,0
311,2020001161622,新規,0,2025-02-28,2025-02-28,株式会社ＤＩＸ,,株式会社,神奈川県,川崎市麻生区,岡上４丁目５番２－２０３号,,14,137,2150027,,,,,,,2025-02-28,1,,,,,ディーアイエックス,0
316,2020003027912,新規,0,2025-02-28,2025-02-28,Ｔｈａｔ　ｈａｙ合同会社,,合同会社,神奈川県,横浜市都筑区,中川２丁目９番８号,,14,118,2240001,,,,,,,2025-02-28,1,,,,,ザットハイ,0
317,2020003027920,新規,0,2025-02-28,2025-02-28,合同会社ユナイテッド,,合同会社,神奈川県,横浜市保土ケ谷区,釜台町５番４－４０１号,,14,106,2400066,,,,,,,2025-02-28,1,,,,,ユナイテッド,0
319,2021001084557,新規,0,2025-02-28,2025-02-28,株式会社雑賀総業,,株式会社,神奈川県,横須賀市,大矢部１丁目１５番２８号,,14,201,2380024,,,,,,,2025-02-28,1,,,,,サイカソウギョウ,0
320,2021001084565,新規,0,2025-02-28,2025-02-28,株式会社ＣＡＴＳＢＹ,,株式会社,神奈川県,藤沢市,南藤沢７番２号沢滝ビル２ＦｔｈｅＫＡＩＤＡＮｆｕｊｉｓａｗａ内,,14,205,2510055,,,,,,,2025-02-28,1,,,,,キャッツビー,0
328,2030001165044,新規,0,2025-02-28,2025-02-28,ノエビア埼玉北販売株式会社,,株式会社,埼玉県,本庄市,大字西富田２３５番地６,,11,211,3670000,,,,,,,2025-02-28,1,,,,,,0
329,2030001165069,新規,0,2025-02-28,2025-02-28,株式会社ひまわり工房,,株式会社,埼玉県,春日部市,大場１３１６－９－１０２号室,,11,214,3440021,,,,,,,2025-02-28,1,,,,,ヒマワリコウボウ,0
330,2030001165077,新規,0,2025-02-28,2025-02-28,株式会社ピーケーティー,,株式会社,埼玉県,新座市,東北２丁目３９番２０号茜レジデンス３０７号室,,11,230,3520001,,,,,,,2025-02-28,1,,,,,ピーケーティー,0
339,2040001137562,新規,0,2025-02-28,2025-02-28,株式会社アントニオアンドコー,,株式会社,千葉県,松戸市,高塚新田６３０番地の１０８,,12,207,2702222,,,,,,,2025-02-28,1,,,,,アントニオアンドコー,0
343,2040003026994,新規,0,2025-02-28,2025-02-28,合同会社Ｍａｈｏｌａｂ．,,合同会社,千葉県,千葉市稲毛区,小仲台２丁目６－１京成稲毛ビル２Ｆ,,12,103,2630043,,,,,,,2025-02-28,1,,,,,マホラボ,0
346,2060003005443,新規,0,2025-02-28,2025-02-28,合同会社ＭＡｏＳ,,合同会社,栃木県,小山市,犬塚３丁目６番地３１,,09,208,3230811,,,,,,,2025-02-28,1,,,,,マオズ,0
362,2120001273226,新規,0,2025-02-28,2025-02-28,株式会社ウラノス,,株式会社,大阪府,大阪市北区,梅田１丁目１番３号大阪駅前第３ビル２９階１－１－１号室,,27,127,5300001,,,,,,,2025-02-28,1,,,,,ウラノス,0
363,2120001273275,新規,0,2025-02-28,2025-02-28,株式会社Ｍ．Ｍ．Ｋ,,株式会社,大阪府,大阪市天王寺区,上本町６丁目２番３－２３０２号,,27,109,5430001,,,,,,,2025-02-28,1,,,,,エムエムケー,0
364,2120001273325,新規,0,2025-02-28,2025-02-28,株式会社ｈｍ　ａｌｌｙ,,株式会社,大阪府,大阪市北区,曾根崎新地１丁目３番３号好陽ビル１階,,27,127,5300002,,,,,,,2025-02-28,1,,,,,エイチエムアライ,0
365,2120003028719,新規,0,2025-02-28,2025-02-28,合同会社まいどおもてなしクルー,,合同会社,大阪府,大阪市城東区,関目５丁目１５番１０号,,27,118,5360008,,,,,,,2025-02-28,1,,,,,マイドオモテナシクルー,0
366,2120003028727,新規,0,2025-02-28,2025-02-28,合同会社ＥＶＥＲＰＬＡＹ,,合同会社,大阪府,大阪市中央区,南船場３丁目２番２２号おおきに南船場ビル２０５,,27,128,5420081,,,,,,,2025-02-28,1,,,,,エバープレイ,0
367,2120003028751,新規,0,2025-02-28,2025-02-28,次元合同会社,,合同会社,大阪府,大阪市東住吉区,照ケ丘矢田１丁目３番１４号２０３号室,,27,121,5460021,,,,,,,2025-02-28,1,,,,,ジゲン,0
371,2130001079060,新規,0,2025-02-28,2025-02-28,株式会社月阿弥,,株式会社,京都府,京都市北区,上賀茂朝露ケ原町３０番１９号タマヤビル６０９,,26,101,6038035,,,,,,,2025-02-28,1,,,,,ユアミ,0
372,2130001079069,新規,0,2025-02-28,2025-02-28,株式会社生そば大黒屋,,株式会社,京都府,京都市下京区,下魚棚通堀川西入南八百屋町３３４番地,,26,106,6008251,,,,,,,2025-02-28,1,,,,,キソバダイコクヤ,0
373,2130001079077,新規,0,2025-02-28,2025-02-28,照良屋株式会社,,株式会社,京都府,京都市下京区,七条御所ノ内北町６８ユニティ西大路２Ｆ,,26,106,6008861,,,,,,,2025-02-28,1,,,,,テラヤ,0
388,2180001165566,新規,0,2025-02-28,2025-02-28,和笙国際株式会社,,株式会社,愛知県,名古屋市中区,錦２丁目１６番４号,,23,106,4600003,,,,,,,2025-02-28,1,,,,,ワショウコクサイ,0
389,2180001165649,新規,0,2025-02-28,2025-02-28,株式会社ｐｏｎｐｏｎ,,株式会社,愛知県,名古屋市中村区,名駅４丁目２４番５号第２森ビル４０１,,23,105,4500002,,,,,,,2025-02-28,1,,,,,ポンポン,0
395,2200003006708,新規,0,2025-02-28,2025-02-28,合同会社プロミス,,合同会社,岐阜県,岐阜市,東鶉３丁目７０番地１ロワメゾンのぞみ１０１,,21,201,5008281,,,,,,,2025-02-28,1,,,,,プロミス,0
396,2210001020073,新規,0,2025-02-28,2025-02-28,株式会社ＭＥＤＩＣＡＬ　ＣＯＭＭＯＮＳ,,株式会社,福井県,福井市,和田１丁目７番３号,,18,201,9188238,,,,,,,2025-02-28,1,,,,,メディカルコモンズ,0
397,2210003001889,新規,0,2025-02-28,2025-02-28,合同会社チーム在田,,合同会社,福井県,福井市,在田町第８号１５番地３,,18,201,9103614,,,,,,,2025-02-28,1,,,,,チームアイダ,0
400,2230001020765,新規,0,2025-02-28,2025-02-28,株式会社富山うにファーム,,株式会社,富山県,射水市,本町３丁目５番２号,,16,211,9340011,,,,,,,2025-02-28,1,,,,,トヤマウニファーム,0
402,2230003002381,新規,0,2025-02-28,2025-02-28,合同会社Ｂａｙｏｎｎｅ,,合同会社,富山県,高岡市,角１０６‐４２,,16,202,9330007,,,,,,,2025-02-28,1,,,,,ベイヨン,0
408,2260001039951,新規,0,2025-02-28,2025-02-28,Ｌｅｉ株式会社,,株式会社,岡山県,玉野市,東紅陽台２丁目１９番地２４２,,33,204,7060131,,,,,,,2025-02-28,1,,,,,エルイーアイ,0
415,2290001109124,新規,0,2025-02-28,2025-02-28,株式会社ネクスト,,株式会社,福岡県,朝倉市,甘木１０８５番地１,,40,228,8380068,,,,,,,2025-02-28,1,,,,,ネクスト,0
416,2290003016401,新規,0,2025-02-28,2025-02-28,合同会社ヘルスプラス,,合同会社,福岡県,福岡市博多区,金の隈３丁目９番地１６号４０３号室,,40,132,8120863,,,,,,,2025-02-28,1,,,,,ヘルスプラス,0
418,2290803004976,新規,0,2025-02-28,2025-02-28,ストラト・ビジョン合同会社,,合同会社,福岡県,北九州市八幡西区,美吉野町１６番北九州イノベーションセンター内,,40,109,8070865,,,,,,,2025-02-28,1,,,,,ストラトビジョン,0
423,2320001020970,新規,0,2025-02-28,2025-02-28,株式会社Ｐｉｘｅｏｍ,,株式会社,大分県,大分市,中央町１丁目４番２４号,,44,201,8700035,,,,,,,2025-02-28,1,,,,,ピクシオム,0
424,2330003010829,新規,0,2025-02-28,2025-02-28,ＩＭ２５号蓄電所合同会社,,合同会社,熊本県,球磨郡あさぎり町,深田西２３２６番地１６８,,43,514,8680444,,,,,,,2025-02-28,1,,,,,アイエムニジュウゴゴウチクデンショ,0
425,2330003010837,新規,0,2025-02-28,2025-02-28,ＩＭ３３号蓄電所合同会社,,合同会社,熊本県,球磨郡あさぎり町,深田西２３２６番地１６８,,43,514,8680444,,,,,,,2025-02-28,1,,,,,アイエムサンジュウサンゴウチクデンショ,0
426,2330003010861,新規,0,2025-02-28,2025-02-28,合同会社熊本シロアリホウ酸駆除,,合同会社,熊本県,八代市,古閑浜町３１８３番地２,,43,202,8660891,,,,,,,2025-02-28,1,,,,,クマモトシロアリホウサンクジョ,0
430,2350003004853,新規,0,2025-02-28,2025-02-28,合同会社ライフアップ,,合同会社,宮崎県,東諸県郡綾町,大字北俣６２８番地３,,45,383,8801302,,,,,,,2025-02-28,1,,,,,ライフアップ,0
433,2370001052290,新規,0,2025-02-28,2025-02-28,株式会社Ｈａｂｉ,,株式会社,宮城県,大崎市,古川新堀字東城野１６番地５,,04,215,9896214,,,,,,,2025-02-28,1,,,,,ハビ,0
439,2390001017894,新規,0,2025-02-28,2025-02-28,株式会社ＭＯＩ野菜研究所,,株式会社,山形県,鶴岡市,東原町２４番３４号,,06,203,9970801,,,,,,,2025-02-28,1,,,,,モイヤサイケンキュウジョ,0
445,2430001021982,新規,0,2025-02-28,2025-02-28,株式会社北海道相互土建興業,,株式会社,北海道,札幌市豊平区,西岡二条８丁目１番４５号第二相互ビル１階,,01,105,0620032,,,,,,,2025-02-28,1,,,,,ホッカイドウソウゴドケンコウギョウ,0
448,2450003002608,新規,0,2025-02-28,2025-02-28,合同会社シンバグループ,,合同会社,北海道,旭川市,末広東二条１０丁目２番８号,,01,204,0718122,,,,,,,2025-02-28,1,,,,,シンバグループ,0
451,2470003002820,新規,0,2025-02-28,2025-02-28,合同会社Ｆ‐Ｌａｂ,,合同会社,香川県,高松市,出作町２２４番地１,,37,201,7618077,,,,,,,2025-02-28,1,,,,,エフラボ,0
453,2480001012754,新規,0,2025-02-28,2025-02-28,株式会社なると動物病院,,株式会社,徳島県,鳴門市,大津町吉永２７４番地,,36,202,7720032,,,,,,,2025-02-28,1,,,,,ナルトドウブツビョウイン,0
458,2700150129335,新規,0,2025-02-28,2025-02-28,ＲＩＫＺＡＨ　ＴＲＡＤＩＮＧ,,外国会社等,千葉県,山武市,木原１４００番地オフィス９,,12,237,2891212,スリランカ民主社会主義共和国、キャンディ、アラワトゥゴダ、マタレロード、Ｎｏ．２７／３,,,,,,2025-02-28,1,,,,,リクザトレーデイング,0
466,3010001252644,新規,0,2025-02-28,2025-02-28,Ｏｒｂｉｔｏｒｕｓ株式会社,,株式会社,東京都,中央区,日本橋茅場町１丁目８番１号,,13,102,1030025,,,,,,,2025-02-28,1,,,,,オービトルス,0
467,3010001252652,新規,0,2025-02-28,2025-02-28,上京グループ株式会社,,株式会社,東京都,中央区,銀座１丁目１２番４号Ｎ＆Ｅ・ＢＬＤ．６Ｆ,,13,102,1040061,,,,,,,2025-02-28,1,,,,,ジョウキョウグループ,0
475,3010401188471,新規,0,2025-02-28,2025-02-28,アゾーン株式会社,,株式会社,東京都,港区,新橋５丁目１２番１１号－２０７,,13,103,1050004,,,,,,,2025-02-28,1,,,,,アゾーン,0
478,3010403034459,新規,0,2025-02-28,2025-02-28,合同会社Ｇｕｇｅｎ,,合同会社,東京都,港区,高輪２丁目１７番１２号カスタリア高輪９０８,,13,103,1080074,,,,,,,2025-02-28,1,,,,,グゲン,0
479,3010403034500,新規,0,2025-02-28,2025-02-28,四ツ谷エナジー太陽光６合同会社,,合同会社,東京都,港区,西新橋１丁目１番１号ＥＰコンサルティングサービス内,,13,103,1050003,,,,,,,2025-02-28,1,,,,,ヨツヤエナジータイヨウコウシックス,0
481,3010405024136,新規,0,2025-02-28,2025-02-28,一般社団法人四ツ谷エナジー太陽光８,,その他の設立登記法人,東京都,港区,西新橋１丁目１番１号ＥＰコンサルティングサービス内,,13,103,1050003,,,,,,,2025-02-28,1,,,,,ヨツヤエナジータイヨウコウエイト,0
501,3011101110758,新規,0,2025-02-28,2025-02-28,株式会社歩縁,,株式会社,東京都,新宿区,新宿１丁目１３番１２号ファーストビル４Ｂ,,13,104,1600022,,,,,,,2025-02-28,1,,,,,ホエン,0
503,3011401026852,新規,0,2025-02-28,2025-02-28,株式会社ＫＥＥＬ,,株式会社,東京都,板橋区,大山金井町３６番１０号シャトーフレンズ１Ｆ,,13,119,1730024,,,,,,,2025-02-28,1,,,,,キール,0
504,3011403004625,新規,0,2025-02-28,2025-02-28,合同会社ＰＫＰＸＳ,,合同会社,東京都,板橋区,南常盤台１丁目１１－６－１０１,,13,119,1740072,,,,,,,2025-02-28,1,,,,,ピクス,0
505,3011403004633,新規,0,2025-02-28,2025-02-28,合同会社Ｒｅｖｅｒｅｎｃｅ‐ＳＡ,,合同会社,東京都,板橋区,仲宿１３番２号,,13,119,1730005,,,,,,,2025-02-28,1,,,,,レヴェランスーエスエー,0
521,3020001161555,新規,0,2025-02-28,2025-02-28,株式会社宏興業,,株式会社,神奈川県,横浜市戸塚区,原宿２丁目２２番１５－１０１号,,14,110,2450063,,,,,,,2025-02-28,1,,,,,ヒロコウギョウ,0
522,3020001161596,新規,0,2025-02-28,2025-02-28,株式会社東恒,,株式会社,神奈川県,横浜市中区,山下町１９１番地９白鳳方,,14,104,2310023,,,,,,,2025-02-28,1,,,,,トウコウ,0
528,3020003027903,新規,0,2025-02-28,2025-02-28,サムライエステート合同会社,,合同会社,神奈川県,川崎市宮前区,有馬２丁目３番１－２０６号パークハイツ鷺沼,,14,136,2160003,,,,,,,2025-02-28,1,,,,,サムライエステート,0
531,3021001084556,新規,0,2025-02-28,2025-02-28,株式会社ＳＮＳ,,株式会社,神奈川県,横須賀市,追浜本町１丁目３６番地２,,14,201,2370068,,,,,,,2025-02-28,1,,,,,エスエヌエス,0
532,3021001084572,新規,0,2025-02-28,2025-02-28,株式会社うみのかぜファーム,,株式会社,神奈川県,平塚市,平塚２丁目１番１１号,,14,203,2540052,,,,,,,2025-02-28,1,,,,,ウミノカゼファーム,0
533,3021003015641,新規,0,2025-02-28,2025-02-28,ＧＵＳＴＯ　ＪＡＰＡＮ　ＰＶＴ合同会社,,合同会社,神奈川県,海老名市,東柏ケ谷１丁目２４番地１２号３０５号室,,14,215,2430401,,,,,,,2025-02-28,1,,,,,ガストジャパンピーブイティー,0
539,3030001165126,新規,0,2025-02-28,2025-02-28,株式会社ＡＮＣＲＥ,,株式会社,埼玉県,和光市,新倉２丁目２５番４６号,,11,229,3510115,,,,,,,2025-02-28,1,,,,,アンカー,0
542,3030003026219,新規,0,2025-02-28,2025-02-28,さくらＳｔａｍｐ合同会社,,合同会社,埼玉県,越谷市,北越谷１丁目４番２号,,11,222,3430026,,,,,,,2025-02-28,1,,,,,サクラスタンプ,0
543,3030003026227,新規,0,2025-02-28,2025-02-28,合同会社埼玉マガジン,,合同会社,埼玉県,比企郡川島町,大字中山１２９２番地２１,,11,346,3500165,,,,,,,2025-02-28,1,,,,,サイタママガジン,0
551,3040001137586,新規,0,2025-02-28,2025-02-28,株式会社スミフク,,株式会社,千葉県,市川市,富浜２丁目１７番２－１０４号,,12,203,2720115,,,,,,,2025-02-28,1,,,,,スミフク,0
556,3040003026960,新規,0,2025-02-28,2025-02-28,ネイリスタ合同会社,,合同会社,千葉県,千葉市稲毛区,小仲台６丁目１８番１－９０７号,,12,103,2630043,,,,,,,2025-02-28,1,,,,,ネイリスタ,0
557,3040003026993,新規,0,2025-02-28,2025-02-28,合同会社Ｗ,,合同会社,千葉県,千葉市中央区,汐見丘町１７－１６,,12,101,2600034,,,,,,,2025-02-28,1,,,,,ダブリュー,0
565,3060005010309,新規,0,2025-02-28,2025-02-28,一般社団法人たんぽぽ,,その他の設立登記法人,栃木県,那須郡那須町,大字豊原甲４９２７番地９,,09,407,3293211,,,,,,,2025-02-28,1,,,,,タンポポ,0
566,3070005010349,新規,0,2025-02-28,2025-02-28,特定非営利活動法人Ｔｈｅ　ｗａｙ　ｏｆ　ｇｏｏｄｎｅｓｓ,,その他の設立登記法人,群馬県,邑楽郡大泉町,大字寄木戸１５８５番地の１,,10,524,3700535,,,,,,,2025-02-28,1,,,,,ザウェイオブグッドネス,0
570,3090003002750,新規,0,2025-02-28,2025-02-28,あと５分合同会社,,合同会社,山梨県,南都留郡山中湖村,平野５１９番地の９－１２１１シェスタ山中湖,,19,425,4010502,,,,,,,2025-02-28,1,,,,,アトゴフン,0
584,3120001273225,新規,0,2025-02-28,2025-02-28,株式会社ＡＤＤＩＣＴＩＯＮ,,株式会社,大阪府,大阪市北区,曾根崎新地１丁目７番６号,,27,127,5300002,,,,,,,2025-02-28,1,,,,,アディクション,0
585,3120001273274,新規,0,2025-02-28,2025-02-28,大賀株式会社,,株式会社,大阪府,大阪市淀川区,東三国６丁目９番２２号第３キャッスルハイツ２０２,,27,123,5320002,,,,,,,2025-02-28,1,,,,,オオガ,0
586,3120001273316,新規,0,2025-02-28,2025-02-28,夢飛行株式会社,,株式会社,大阪府,大阪市中央区,船場中央２丁目１番４号船場センタービル４号館地下一階Ｂ１０８ＲＯＹＡＬＯＦＦＩＣＥ内,,27,128,5410055,,,,,,,2025-02-28,1,,,,,ユメヒコウ,0
591,3120003028643,新規,0,2025-02-28,2025-02-28,Ｔｈｅ　ｆｌｏｗｉｎｇ　ｒｉｖｅｒ合同会社,,合同会社,大阪府,大阪市東淀川区,瑞光１丁目８－８誠春ビル２０１号,,27,114,5330005,,,,,,,2025-02-28,1,,,,,ザフローイングリバーエルエルシー,0
592,3120003028718,新規,0,2025-02-28,2025-02-28,合同会社ＦＯＬ,,合同会社,大阪府,大阪市北区,梅田１丁目２番２号大阪駅前第２ビル１２－１２,,27,127,5300001,,,,,,,2025-02-28,1,,,,,エフオーエル,0
593,3120003028726,新規,0,2025-02-28,2025-02-28,合同会社玲菜,,合同会社,大阪府,門真市,浜町２４番１４号,,27,223,5710054,,,,,,,2025-02-28,1,,,,,レナ,0
594,3120003028742,新規,0,2025-02-28,2025-02-28,禾澤智心合同会社,,合同会社,大阪府,大阪市東成区,東中本３丁目２０番２２号関西マンション２０４号室,,27,115,5370021,,,,,,,2025-02-28,1,,,,,イネサワチシン,0
595,3120003028767,新規,0,2025-02-28,2025-02-28,合同会社Ｒｉｃｈｔ,,合同会社,大阪府,大阪市西成区,長橋２丁目１－４－１０５,,27,122,5570025,,,,,,,2025-02-28,1,,,,,リヒト,0
596,3120101071149,新規,0,2025-02-28,2025-02-28,山義管財株式会社,,株式会社,大阪府,大阪狭山市,今熊７丁目１６０番地,,27,231,5890021,,,,,,,2025-02-28,1,,,,,ヤマヨシカンザイ,0
603,3130001079076,新規,0,2025-02-28,2025-02-28,株式会社にゃんこ組,,株式会社,京都府,京都市中京区,六角通室町西入玉蔵町１２１美濃利ビル４０７号,,26,104,6048211,,,,,,,2025-02-28,1,,,,,ニャンコグミ,0
605,3130003010237,新規,0,2025-02-28,2025-02-28,合同会社ハルモニエ,,合同会社,京都府,京都市伏見区,向島庚申町８８番地１ジーメゾン向島シェルール１０２,,26,109,6128122,,,,,,,2025-02-28,1,,,,,ハルモニエ,0
610,3140003021712,新規,0,2025-02-28,2025-02-28,合同会社ライズ,,合同会社,兵庫県,加古川市,平岡町二俣７８２－３鈴木ビル２０２,,28,210,6750111,,,,,,,2025-02-28,1,,,,,ライズ,0
612,3150001027909,新規,0,2025-02-28,2025-02-28,株式会社中剛,,株式会社,奈良県,桜井市,大字谷６５６番地,,29,206,6330053,,,,,,,2025-02-28,1,,,,,ナカタケ,0
614,3170005007137,新規,0,2025-02-28,2025-02-28,和歌山県青果輸送事業協同組合連合会,,その他の設立登記法人,和歌山県,紀の川市,粉河４２０番地の２瑞穂ビル２階,,30,208,6496531,,,,,,,2025-02-28,1,,,,,ワカヤマケンセイカユソウレンゴウカイ,0
622,3180305009666,新規,0,2025-02-28,2025-02-28,一般社団法人奥三河トレイルクラブ,,その他の設立登記法人,愛知県,新城市,豊岡字ソリ畠１６番１・１６番２合併地,,23,221,4411631,,,,,,,2025-02-28,1,,,,,オクミカワトレイルクラブ,0
635,3240005015909,新規,0,2025-02-28,2025-02-28,一般社団法人ｂｌａｎｋｅｔ,,その他の設立登記法人,広島県,安芸高田市,美土里町生田２９５８番地１,,34,214,7310703,,,,,,,2025-02-28,1,,,,,ブランケット,0
638,3260001039942,新規,0,2025-02-28,2025-02-28,株式会社クリーンフォレスト,,株式会社,岡山県,倉敷市,玉島陶４９１７番地２,,33,202,7138112,,,,,,,2025-02-28,1,,,,,クリーンフォレスト,0
639,3260001039950,新規,0,2025-02-28,2025-02-28,株式会社ＴＳＵＫＵＳＨＩ,,株式会社,岡山県,岡山市中区,長岡２５６番地２,,33,102,7038221,,,,,,,2025-02-28,1,,,,,ツクシ,0
646,3290001109123,新規,0,2025-02-28,2025-02-28,株式会社Ｇａｉｎ,,株式会社,福岡県,福岡市博多区,空港前１丁目４－１,,40,132,8120002,,,,,,,2025-02-28,1,,,,,ゲイン,0
649,3300001014098,新規,0,2025-02-28,2025-02-28,株式会社ジャパン・オニオン・ハウス,,株式会社,佐賀県,佐賀市,川副町大字犬井道４００９番地２,,41,201,8402212,,,,,,,2025-02-28,1,,,,,ジャパンオニオンハウス,0
656,3330003010836,新規,0,2025-02-28,2025-02-28,ＩＭ３２号蓄電所合同会社,,合同会社,熊本県,球磨郡あさぎり町,深田西２３２６番地１６８,,43,514,8680444,,,,,,,2025-02-28,1,,,,,アイエムサンジュウニゴウチクデンショ,0
661,3350001019415,新規,0,2025-02-28,2025-02-28,丸一株式会社,,株式会社,宮崎県,延岡市,妙見町３９１６番地１,,45,203,8890515,,,,,,,2025-02-28,1,,,,,マルイチ,0
662,3350003004852,新規,0,2025-02-28,2025-02-28,ＥＭＹＣＯ　ＡＵＴＯＭＯＢＩＬＥ合同会社,,合同会社,宮崎県,小林市,細野７３１番地１,,45,205,8860004,,,,,,,2025-02-28,1,,,,,エミコオートモービル,0
668,3380001035104,新規,0,2025-02-28,2025-02-28,株式会社ＤＡＣＣＳ,,株式会社,福島県,郡山市,桑野２丁目３９番２１号,,07,203,9638025,,,,,,,2025-02-28,1,,,,,ダックス,0
673,3390005009103,新規,0,2025-02-28,2025-02-28,一般社団法人ｍａｈａＬｉｍ,,その他の設立登記法人,山形県,東置賜郡高畠町,大字時沢４１１番地の２,,06,381,9920341,,,,,,,2025-02-28,1,,,,,マハリム,0
675,3420001019036,新規,0,2025-02-28,2025-02-28,株式会社Ｆテクノ,,株式会社,青森県,青森市,里見２丁目１２番２３号,,02,201,0380032,,,,,,,2025-02-28,1,,,,,エフテクノ,0
678,3430003017326,新規,0,2025-02-28,2025-02-28,ＭＯハウス合同会社,,合同会社,北海道,滝川市,黄金町西４丁目６－１５,,01,225,0730011,,,,,,,2025-02-28,1,,,,,エムオー,0
681,3430005015162,新規,0,2025-02-28,2025-02-28,一般社団法人ファースト,,その他の設立登記法人,北海道,札幌市中央区,北二条西３丁目１番地１２,,01,101,0600002,,,,,,,2025-02-28,1,,,,,ファースト,0
682,3440003001667,新規,0,2025-02-28,2025-02-28,合同会社サファイア企画,,合同会社,北海道,函館市,本通３丁目２番２４号,,01,202,0410851,,,,,,,2025-02-28,1,,,,,サファイアキカク,0
684,3450003002607,新規,0,2025-02-28,2025-02-28,合同会社ＮｏｒｄＴｙｐｈｏｏｎ,,合同会社,北海道,旭川市,九条通１５丁目２４－１３９,,01,204,0700039,,,,,,,2025-02-28,1,,,,,ノルドタイフーン,0
688,3490001010979,新規,0,2025-02-28,2025-02-28,株式会社Ｆクリーン,,株式会社,高知県,南国市,明見９１３番地９,,39,204,7830007,,,,,,,2025-02-28,1,,,,,エフクリーン,0
690,3700150129334,新規,0,2025-02-28,2025-02-28,Ｊ．Ｌ．ＬＡＮＫＡ　ＭＯＴＯＲＳ,,外国会社等,千葉県,山武市,木原１４００番地オフィス８,,12,237,2891212,スリランカ民主社会主義共和国、キャンディ、カトゥガストタ、クルネガラロード、Ｎｏ．４４／Ａ,,,,,,2025-02-28,1,,,,,ジエイエルランカモータース,0
691,3700150129342,新規,0,2025-02-28,2025-02-28,Ｅｍｐｉｒｅ　Ｔｒａｎｓｐｏｒｔ＆Ｆｏｒｗａｒｄｉｎｇ．Ｉｎｃ．,,外国会社等,大阪府,堺市堺区,今池町２丁９番３号,,27,141,5900018,アメリカ合衆国カリフォルニア州トーランス２４２１ウエスト２０５ストリートＤ－１０６,,,,,,2025-02-28,1,,,,,エンパイアトランスポートアンドフオワーデイングインク,0
698,4010001252528,新規,0,2025-02-28,2025-02-28,ＭＤ　ＧＲＯＵＰ株式会社,,株式会社,東京都,千代田区,神田平河町１番地第３東ビル５階７号室,,13,101,1010027,,,,,,,2025-02-28,1,,,,,エムディグループ,0
699,4010001252635,新規,0,2025-02-28,2025-02-28,アップリフト株式会社,,株式会社,東京都,千代田区,神田司町２丁目１３神田第４アメレックスビル,,13,101,1010048,,,,,,,2025-02-28,1,,,,,アップリフト,0
700,4010001252651,新規,0,2025-02-28,2025-02-28,株式会社ＹＯＬＯｓ　Ｐ＆Ｐ,,株式会社,東京都,中央区,銀座１丁目１２番４号Ｎ＆ＥＢＬＤ．６Ｆ,,13,102,1040061,,,,,,,2025-02-28,1,,,,,ヨロズピーアンドピー,0
701,4010001252668,新規,0,2025-02-28,2025-02-28,Ｄｏｃｔｏｒ　ＳＵＧＩ株式会社,,株式会社,東京都,中央区,湊１丁目６番１１号ＡＣＮ八丁堀ビル５Ｆ,,13,102,1040043,,,,,,,2025-02-28,1,,,,,ドクタースギ,0
702,4010001252676,新規,0,2025-02-28,2025-02-28,フェニックスキャピタルパートナーズ株式会社,,株式会社,東京都,中央区,銀座７丁目１３番２０号銀座ＴＨビル９階,,13,102,1040061,,,,,,,2025-02-28,1,,,,,フェニックスキャピタルパートナーズ,0
703,4010001252783,新規,0,2025-02-28,2025-02-28,Ｓｕａｒａ　Ｃａｐｉｔａｌ　Ｐａｒｔｎｅｒｓ株式会社,,株式会社,東京都,千代田区,丸の内２丁目２番１号岸本ビルヂング６階,,13,101,1000005,,,,,,,2025-02-28,1,,,,,スアラキャピタルパートナーズ,0
706,4010003046572,新規,0,2025-02-28,2025-02-28,オキナ商事合同会社,,合同会社,東京都,中央区,銀座６丁目１３番１６号銀座ＷａｌｌビルＵＣＦ５０１,,13,102,1040061,,,,,,,2025-02-28,1,,,,,オキナショウジ,0
712,4010401188306,新規,0,2025-02-28,2025-02-28,株式会社ＣＳホールディングス,,株式会社,東京都,港区,虎ノ門１丁目２３番１号ジャフコグループ株式会社内,,13,103,1050001,,,,,,,2025-02-28,1,,,,,シーエスホールディングス,0
713,4010401188413,新規,0,2025-02-28,2025-02-28,ＡｖｅｎＴｅｃｈ　Ｃｏｎｓｕｌｔｉｎｇ株式会社,,株式会社,東京都,港区,新橋４丁目１４番１新橋ＡＵＮビル４階,,13,103,1050004,,,,,,,2025-02-28,1,,,,,アベンテックコンサルティング,0
714,4010401188421,新規,0,2025-02-28,2025-02-28,株式会社ボウスミュージック,,株式会社,東京都,港区,新橋５丁目２５番３号第２一松ビル３階,,13,103,1050004,,,,,,,2025-02-28,1,,,,,ボウスミュージック,0
715,4010401188504,新規,0,2025-02-28,2025-02-28,株式会社インベスト,,株式会社,東京都,港区,北青山３丁目４番３－１２０８号,,13,103,1070061,,,,,,,2025-02-28,1,,,,,インベスト,0
716,4010401188520,新規,0,2025-02-28,2025-02-28,株式会社アンドワークス,,株式会社,東京都,港区,北青山１丁目３番１号アールキューブ青山３階,,13,103,1070061,,,,,,,2025-02-28,1,,,,,アンドワークス,0
717,4010401188529,新規,0,2025-02-28,2025-02-28,株式会社リアライズファクター,,株式会社,東京都,港区,六本木６丁目１０番１号六本木ヒルズ森タワー３４階,,13,103,1060032,,,,,,,2025-02-28,1,,,,,リアライズファクター,0
727,4010403034482,新規,0,2025-02-28,2025-02-28,合同会社テック,,合同会社,東京都,港区,芝大門２丁目１２番６－５０１号ダイアパレス芝大門,,13,103,1050012,,,,,,,2025-02-28,1,,,,,テック,0
728,4010403034499,新規,0,2025-02-28,2025-02-28,四ツ谷エナジー太陽光８合同会社,,合同会社,東京都,港区,西新橋１丁目１番１号ＥＰコンサルティングサービス内,,13,103,1050003,,,,,,,2025-02-28,1,,,,,ヨツヤエナジータイヨウコウエイト,0
730,4010405024135,新規,0,2025-02-28,2025-02-28,一般社団法人四ツ谷エナジー太陽光７,,その他の設立登記法人,東京都,港区,西新橋１丁目１番１号ＥＰコンサルティングサービス内,,13,103,1050003,,,,,,,2025-02-28,1,,,,,ヨツヤエナジータイヨウコウセブン,0
736,4010603011406,新規,0,2025-02-28,2025-02-28,合同会社ビジネスコネクト,,合同会社,東京都,江東区,有明３丁目７番２６号有明フロンティアビルＢ棟９階,,13,108,1350063,,,,,,,2025-02-28,1,,,,,ビジネスコネクト,0
743,4010901056879,新規,0,2025-02-28,2025-02-28,株式会社ｙｕｍｅｔｒｉｃ,,株式会社,東京都,世田谷区,太子堂４丁目６番４号アーバイル三軒茶屋１０２号室,,13,112,1540004,,,,,,,2025-02-28,1,,,,,ユーメトリック,0
744,4010901056895,新規,0,2025-02-28,2025-02-28,株式会社Ｕｎｉｖｅｒｓａｌ　Ｐｉｎｅ,,株式会社,東京都,世田谷区,下馬１丁目１９－５,,13,112,1540002,,,,,,,2025-02-28,1,,,,,ユニバーサルパイン,0
748,4011001168012,新規,0,2025-02-28,2025-02-28,ＰＶＧホールディングス株式会社,,株式会社,東京都,渋谷区,渋谷１丁目１６番９号,,13,113,1500002,,,,,,,2025-02-28,1,,,,,ピーブイジーホールディングス,0
752,4011101110798,新規,0,2025-02-28,2025-02-28,株式会社ＫＳＪ,,株式会社,東京都,新宿区,百人町３丁目１４番５号メゾン・ド・ジュンＧ号室,,13,104,1690073,,,,,,,2025-02-28,1,,,,,ケーエスジェー,0
755,4011603004622,新規,0,2025-02-28,2025-02-28,Ｆａｖｏｕｒｉｔｅ　Ｄａｙｓ合同会社,,合同会社,東京都,練馬区,富士見台４丁目４５番１５号,,13,120,1770034,,,,,,,2025-02-28,1,,,,,フェイバリットデイズ,0
756,4011701028093,新規,0,2025-02-28,2025-02-28,株式会社ＢＹネット,,株式会社,東京都,江戸川区,東葛西６丁目５－３－７０５号,,13,123,1340084,,,,,,,2025-02-28,1,,,,,ビーワイネット,0
757,4011701028102,新規,0,2025-02-28,2025-02-28,ＴＨＨＴ　ＪＰＮ　Ｎｅｔｗｏｒｋｓ　Ｔｅｃｈｎｏｌｏｇｙ株式会社,,株式会社,東京都,江戸川区,江戸川６丁目４０番１４－２０３号,,13,123,1340013,,,,,,,2025-02-28,1,,,,,ティーエイチエイチティージェーピーエヌネットワークステクノロジー,0
768,4012303002115,新規,0,2025-02-28,2025-02-28,合同会社ＳＳＩ,,合同会社,東京都,町田市,原町田６丁目２７番８号サイドパーク３０７,,13,209,1940013,,,,,,,2025-02-28,1,,,,,エスエスアイ,0
769,4012401042822,新規,0,2025-02-28,2025-02-28,株式会社メリープランニング,,株式会社,東京都,狛江市,東和泉３丁目１０番５－２０３号,,13,219,2010014,,,,,,,2025-02-28,1,,,,,メリープランニング,0
774,4012703003209,新規,0,2025-02-28,2025-02-28,合同会社Ｇ‐ＬＯＶＥ　ＬＩＢＥＲＴＹ,,合同会社,東京都,小平市,学園西町２丁目１２番１９号,,13,211,1870045,,,,,,,2025-02-28,1,,,,,グラブリバティ,0
781,4020001161505,新規,0,2025-02-28,2025-02-28,株式会社トクソープランニング,,株式会社,神奈川県,横浜市中区,太田町２丁目３２番地１,,14,104,2310011,,,,,,,2025-02-28,1,,,,,トクソープランニング,0
782,4020001161538,新規,0,2025-02-28,2025-02-28,フェロウリンク株式会社,,株式会社,神奈川県,川崎市幸区,南加瀬１丁目７番１号メイツ新川崎３２８号室,,14,132,2120055,,,,,,,2025-02-28,1,,,,,フェロウリンク,0
783,4020001161620,新規,0,2025-02-28,2025-02-28,ＫＴＹ株式会社,,株式会社,神奈川県,川崎市麻生区,虹ケ丘３丁目３番５－１号,,14,137,2150015,,,,,,,2025-02-28,1,,,,,ケーティーワイ,0
784,4020001161637,新規,0,2025-02-28,2025-02-28,ＶＳマネジメント株式会社,,株式会社,神奈川県,横浜市中区,本牧間門２０番５号,,14,104,2310825,,,,,,,2025-02-28,1,,,,,ブイエスマネジメント,0
786,4020003027877,新規,0,2025-02-28,2025-02-28,ハセコー合同会社,,合同会社,神奈川県,横浜市鶴見区,北寺尾２丁目１１－１４,,14,101,2300074,,,,,,,2025-02-28,1,,,,,ハセコー,0
787,4020003027893,新規,0,2025-02-28,2025-02-28,ＡＧＭＯＮ合同会社,,合同会社,神奈川県,横浜市南区,六ツ川１丁目２４６番地１９弘明寺パークハイツ２０１,,14,105,2320066,,,,,,,2025-02-28,1,,,,,アグモン,0
788,4020003027902,新規,0,2025-02-28,2025-02-28,合同会社ＴＨ,,合同会社,神奈川県,横浜市旭区,川島町２１４６番地１ＰＡＬＡＣＥ鶴ヶ峰ＩＩ２０４,00138163,14,112,2410011,,,,,,,2025-02-28,1,,,,,ティーエイチ,0
789,4020003027910,新規,0,2025-02-28,2025-02-28,藤崎住デザイン合同会社,00138162,合同会社,神奈川県,横浜市西区,みなとみらい４丁目７番１－５１４号,,14,103,2200012,,,,,,,2025-02-28,1,,,,,フジサキジュウデザイン,0
793,4021003015649,新規,0,2025-02-28,2025-02-28,合同会社ウェルニティ,,合同会社,神奈川県,秦野市,平沢８２４番地の６,,14,211,2570015,,,,,,,2025-02-28,1,,,,,ウェルニティ,0
794,4021003015657,新規,0,2025-02-28,2025-02-28,合同会社ＫＡＩ,,合同会社,神奈川県,南足柄市,関本７９２番地,,14,217,2500105,,,,,,,2025-02-28,1,,,,,カイ,0
803,4030003026218,新規,0,2025-02-28,2025-02-28,合同会社ブースト,,合同会社,埼玉県,熊谷市,妻沼中央１７番地２セルシオールＩＩＡ２０１,00138160,11,202,3600204,,,,,,,2025-02-28,1,,,,,ブースト,0
812,4040001137445,新規,0,2025-02-28,2025-02-28,株式会社谷口重機運輸,,株式会社,千葉県,浦安市,堀江３丁目２８番５－２０２号,,12,227,2790041,,,,,,,2025-02-28,1,,,,,タニグチジュウキウンユ,0
813,4040001137560,新規,0,2025-02-28,2025-02-28,株式会社アセントインターナショナル,,株式会社,千葉県,柏市,柏１３３８－１０,,12,217,2770005,,,,,,,2025-02-28,1,,,,,アセントインターナショナル,0
814,4040001137577,新規,0,2025-02-28,2025-02-28,株式会社Ｄ・ＢＲＩＧＨＴ,,株式会社,千葉県,市川市,二俣２丁目１２番６号,,12,203,2720001,,,,,,,2025-02-28,1,,,,,ディブライト,0
815,4040001137593,新規,0,2025-02-28,2025-02-28,茂建設株式会社,,株式会社,千葉県,成田市,東金山４２４番地１,,12,211,2860833,,,,,,,2025-02-28,1,,,,,シゲルケンセツ,0
824,4040003026976,新規,0,2025-02-28,2025-02-28,合同会社山口内装店,,合同会社,千葉県,市原市,古市場３６番地,,12,219,2900008,,,,,,,2025-02-28,1,,,,,ヤマグチナイソウテン,0
827,4050005013559,新規,0,2025-02-28,2025-02-28,一般社団法人アグリ耕房,,その他の設立登記法人,茨城県,土浦市,下坂田４７４番地１,,08,203,3004113,,,,,,,2025-02-28,1,,,,,アグリコウボウ,0
829,4070001042659,新規,0,2025-02-28,2025-02-28,株式会社セレナ,,株式会社,群馬県,吾妻郡中之条町,大字伊勢町１４４７番地２１,,10,421,3770423,,,,,,,2025-02-28,1,,,,,セレナ,0
836,4110001039072,新規,0,2025-02-28,2025-02-28,株式会社ＪＥＦ,,株式会社,新潟県,燕市,吉田文京町１５番６号,,15,213,9590266,,,,,,,2025-02-28,1,,,,,ジェイイーエフ,0
843,4120001273141,新規,0,2025-02-28,2025-02-28,隆幸商事株式会社,,株式会社,大阪府,大阪市西成区,橘１丁目１１－２８オフィスポート橘３１３号室,,27,122,5570051,,,,,,,2025-02-28,1,,,,,リュウコウショウジ,0
844,4120001273216,新規,0,2025-02-28,2025-02-28,株式会社ＡＳＫ,,株式会社,大阪府,大阪市中央区,南本町２丁目５番１３－３９０３号,,27,128,5410054,,,,,,,2025-02-28,1,,,,,アスク,0
845,4120001273249,新規,0,2025-02-28,2025-02-28,清谷グループ株式会社,,株式会社,大阪府,大阪市平野区,加美北１丁目１８番１７号,,27,126,5470001,,,,,,,2025-02-28,1,,,,,キヨタニグループ,0
846,4120001273257,新規,0,2025-02-28,2025-02-28,三潤株式会社,,株式会社,大阪府,大阪市北区,長柄西１丁目１番１３号グラン・ピア天神橋５０１,,27,127,5310061,,,,,,,2025-02-28,1,,,,,サンジュン,0
847,4120001273273,新規,0,2025-02-28,2025-02-28,潤澤株式会社,,株式会社,大阪府,大阪市西成区,萩之茶屋１丁目１２－７万葉ビル２７号室,,27,122,5570004,,,,,,,2025-02-28,1,,,,,ジュンザワ,0
848,4120001273307,新規,0,2025-02-28,2025-02-28,熊本商事株式会社,,株式会社,大阪府,大阪市中央区,南本町２丁目５番１３－３８０５号,,27,128,5410054,,,,,,,2025-02-28,1,,,,,クマモトショウジ,0
850,4120003028717,新規,0,2025-02-28,2025-02-28,合同会社燈,,合同会社,大阪府,守口市,南寺方東通２丁目８番６号,,27,209,5700043,,,,,,,2025-02-28,1,,,,,アカリ,0
851,4120003028741,新規,0,2025-02-28,2025-02-28,Ｐｒｉｓｏｎ　Ｂｒｅａｋ合同会社,,合同会社,大阪府,大阪市北区,中津３丁目７－１５－１０３,,27,127,5310071,,,,,,,2025-02-28,1,,,,,プリズンブレイク,0
854,4120901050516,新規,0,2025-02-28,2025-02-28,株式会社寛,,株式会社,大阪府,茨木市,春日４丁目１０番４号リヴェール春日３０６号,,27,211,5670031,,,,,,,2025-02-28,1,,,,,カン,0
862,4130001079075,新規,0,2025-02-28,2025-02-28,株式会社さつき商事,,株式会社,京都府,相楽郡精華町,精華台４丁目１８番地１２,,26,366,6190238,,,,,,,2025-02-28,1,,,,,サツキショウジ,0
863,4130001079083,新規,0,2025-02-28,2025-02-28,株式会社Ｒｏｓｓｏ４０’ｓ,,株式会社,京都府,亀岡市,曽我部町南条竹谷１－１６－１００,,26,206,6210022,,,,,,,2025-02-28,1,,,,,ローソフォーティーズ,0
865,4130003010236,新規,0,2025-02-28,2025-02-28,合同会社ＦｏｒＣＥ,,合同会社,京都府,京都市伏見区,羽束師菱川町５５９番地８４ヴィラ羽束師３０２,,26,109,6128487,,,,,,,2025-02-28,1,,,,,フォース,0
870,4140001137518,新規,0,2025-02-28,2025-02-28,株式会社宮園エンジニアリング,,株式会社,兵庫県,伊丹市,荒牧南３丁目１７番２０号グットライフ桑田２０７号室,,28,207,6640008,,,,,,,2025-02-28,1,,,,,ミヤゾノエンジニアリング,0
872,4160001026578,新規,0,2025-02-28,2025-02-28,万客隆株式会社,,株式会社,滋賀県,東近江市,市子松井町１５７－２,,25,213,5291532,,,,,,,2025-02-28,1,,,,,バンキャクリュウ,0
880,4180305009665,新規,0,2025-02-28,2025-02-28,司法書士法人あいち司法＆相続,,その他の設立登記法人,愛知県,刈谷市,南桜町２丁目５８番地１第３ＯＴＡビル２階,,23,210,4480841,,,,,,,2025-02-28,1,,,,,アイチシホウアンドソウゾク,0
897,4290801031302,新規,0,2025-02-28,2025-02-28,株式会社ＳＯ‐ＤＯクリエイティブ,,株式会社,福岡県,北九州市小倉北区,真鶴１丁目６番２５号３Ｆ,,40,106,8030844,,,,,,,2025-02-28,1,,,,,ソードークリエイティブ,0
899,4290803004974,新規,0,2025-02-28,2025-02-28,茉莉花合同会社,,合同会社,福岡県,北九州市小倉北区,真鶴１丁目６番２１号‐２階,,40,106,8030844,,,,,,,2025-02-28,1,,,,,マツリカ,0
900,4330001032922,新規,0,2025-02-28,2025-02-28,株式会社ナカシンヤ,,株式会社,熊本県,熊本市東区,健軍３丁目１番５４号３Ｆ,,43,102,8620911,,,,,,,2025-02-28,1,,,,,ナカシンヤ,0
901,4330003010835,新規,0,2025-02-28,2025-02-28,ＩＭ３１号蓄電所合同会社,,合同会社,熊本県,球磨郡あさぎり町,深田西２３２６番地１６８,,43,514,8680444,,,,,,,2025-02-28,1,,,,,アイエムサンジュウイチゴウチクデンショ,0
902,4330003010868,新規,0,2025-02-28,2025-02-28,合同会社風,,合同会社,熊本県,上益城郡益城町,大字広崎１１２７番地５,,43,443,8612236,,,,,,,2025-02-28,1,,,,,カゼ,0
908,4360001034833,新規,0,2025-02-28,2025-02-28,株式会社フォーカス,,株式会社,沖縄県,那覇市,高良３丁目５番１号,,47,201,9010145,,,,,,,2025-02-28,1,,,,,フォーカス,0
910,4380003005970,新規,0,2025-02-28,2025-02-28,合同会社ＦＬＭ,,合同会社,福島県,いわき市,平字十五町目２０番地４,,07,204,9708026,,,,,,,2025-02-28,1,,,,,エフエルエム,0
924,4430003017325,新規,0,2025-02-28,2025-02-28,合同会社Ｋ．ＬｉＢＲｅ,,合同会社,北海道,札幌市中央区,北五条西２１丁目３番１４号,,01,101,0600005,,,,,,,2025-02-28,1,,,,,ケイリブレ,0
928,4500001026163,新規,0,2025-02-28,2025-02-28,ＭＳＦ株式会社,,株式会社,愛媛県,今治市,しまなみヒルズ７番７,,38,202,7940087,,,,,,,2025-02-28,1,,,,,エムエスエフ,0
929,4700150129325,新規,0,2025-02-28,2025-02-28,認可地縁団体東岩代区,,その他,和歌山県,日高郡みなべ町,東岩代９０３番地１,,30,391,6450013,,,,,,,2025-02-28,1,,,,,ニンカチエンダンタイヒガシイワシロク,0
930,4700150129333,新規,0,2025-02-28,2025-02-28,ＭＩＮＡＭＩ　ＴＲＡＤＩＮＧ,,外国会社等,千葉県,山武市,木原１４００番地オフィス５,,12,237,2891212,スリランカ民主社会主義共和国、キャンディ、アクラナ、８ｔｈマイルポスト、Ｎｏ．２２／３,,,,,,2025-02-28,1,,,,,ミナミトレーデイング,0
931,4700150129341,新規,0,2025-02-28,2025-02-28,ＣＥＹＬＯＮＴＥＸ　ＡＬＵＭＩＮＩＵＭ,,外国会社等,長野県,長野市,鬼無里２６５－２,,20,201,3814301,スリランカ民主社会主義共和国、プジャピティヤ、アンクンブラロード、Ｎｏ．７４,,,,,,2025-02-28,1,,,,,セイロンテツクスアルミニウム,0
942,5010001252675,新規,0,2025-02-28,2025-02-28,株式会社トレカバンク,,株式会社,東京都,千代田区,外神田３丁目１６番１３号,,13,101,1010021,,,,,,,2025-02-28,1,,,,,トレカバンク,0
952,5010401188494,新規,0,2025-02-28,2025-02-28,株式会社ＪＩＤ,,株式会社,東京都,港区,麻布十番２丁目２０番７号麻布十番高木ビル,00138161,13,103,1060045,,,,,,,2025-02-28,1,,,,,ジェイアイディー,0
953,5010401188503,新規,0,2025-02-28,2025-02-28,株式会社ピナイ・インターナショナル東京,,株式会社,東京都,港区,六本木３丁目２番１号,,13,103,1060032,,,,,,,2025-02-28,1,,,,,ピナイインターナショナルトウキョウ,0
954,5010401188528,新規,0,2025-02-28,2025-02-28,維旺株式会社,,株式会社,東京都,港区,芝大門２丁目４番５号芝ダイヤハイツ８０３号室,,13,103,1050012,,,,,,,2025-02-28,1,,,,,イオウ,0
958,5010403034473,新規,0,2025-02-28,2025-02-28,ウェルストン合同会社,,合同会社,東京都,港区,北青山１丁目３－３三橋ビル３階,,13,103,1070061,,,,,,,2025-02-28,1,,,,,ウェルストン,0
959,5010403034498,新規,0,2025-02-28,2025-02-28,四ツ谷エナジー太陽光９合同会社,,合同会社,東京都,港区,西新橋１丁目１番１号ＥＰコンサルティングサービス内,,13,103,1050003,,,,,,,2025-02-28,1,,,,,ヨツヤエナジータイヨウコウナイン,0
960,5010405024134,新規,0,2025-02-28,2025-02-28,一般社団法人四ツ谷エナジー太陽光６,,その他の設立登記法人,東京都,港区,西新橋１丁目１番１号ＥＰコンサルティングサービス内,,13,103,1050003,,,,,,,2025-02-28,1,,,,,ヨツヤエナジータイヨウコウシックス,0
962,5010501053722,新規,0,2025-02-28,2025-02-28,株式会社Ａｂｏｕｔ,,株式会社,東京都,台東区,浅草橋２丁目３番２号,,13,106,1110053,,,,,,,2025-02-28,1,,,,,アバウト,0
963,5010503007742,新規,0,2025-02-28,2025-02-28,合同会社訪問介護ハートフル,,合同会社,東京都,台東区,竜泉１丁目２７番８号,,13,106,1100012,,,,,,,2025-02-28,1,,,,,ホウモンカイゴハートフル,0
971,5010903009743,新規,0,2025-02-28,2025-02-28,Ｍｙ合同会社,,合同会社,東京都,世田谷区,北沢１丁目１２―１６,,13,112,1550031,,,,,,,2025-02-28,1,,,,,マイ,0
978,5011001167954,新規,0,2025-02-28,2025-02-28,ＦｌｅｘｉＣｏｄｅ株式会社,,株式会社,東京都,渋谷区,恵比寿西２丁目４番８号ウィンド恵比寿ビル８Ｆ,,13,113,1500021,,,,,,,2025-02-28,1,,,,,フレキシコード,0
979,5011001168069,新規,0,2025-02-28,2025-02-28,サンズサンホールディングス株式会社,,株式会社,東京都,目黒区,上目黒３丁目３３番５号,,13,110,1530051,,,,,,,2025-02-28,1,,,,,サンズサンホールディングス,0
990,5011403004631,新規,0,2025-02-28,2025-02-28,ＰＥＮＮＡ合同会社,,合同会社,東京都,板橋区,南町５５番１号,,13,119,1730027,,,,,,,2025-02-28,1,,,,,ペナ,0
1003,5020001161553,新規,0,2025-02-28,2025-02-28,株式会社ブルー・オーシャン,,株式会社,神奈川県,横浜市都筑区,荏田南５丁目２３番１４号,,14,118,2240007,,,,,,,2025-02-28,1,,,,,ブルーオーシャン,0
1004,5020001161594,新規,0,2025-02-28,2025-02-28,株式会社新総合装備,,株式会社,神奈川県,川崎市幸区,南幸町２丁目２６番地１２,,14,132,2120016,,,,,,,2025-02-28,1,,,,,シンソウゴウソウビ,0
1005,5020001161669,新規,0,2025-02-28,2025-02-28,株式会社ＡＧＯＧＬＩＦＥ,,株式会社,神奈川県,川崎市川崎区,鋼管通１丁目１９番２２号,,14,131,2100852,,,,,,,2025-02-28,1,,,,,アガーグライフ,0
1014,5021003015648,新規,0,2025-02-28,2025-02-28,ＲＡＡＹモータース合同会社,,合同会社,神奈川県,茅ヶ崎市,赤羽根３３８６番４,,14,207,2530001,,,,,,,2025-02-28,1,,,,,ラーイモータース,0
1018,5030001165074,新規,0,2025-02-28,2025-02-28,株式会社天格計器,,株式会社,埼玉県,川口市,並木３丁目３１番１７号,,11,203,3320034,,,,,,,2025-02-28,1,,,,,テンカクケイキ,0
1020,5030003026217,新規,0,2025-02-28,2025-02-28,合同会社あじさい,,合同会社,埼玉県,さいたま市見沼区,東大宮４丁目７３－３－１０４,,11,104,3370051,,,,,,,2025-02-28,1,,,,,アジサイ,0
1026,5040001137543,新規,0,2025-02-28,2025-02-28,株式会社Ｒｅｓｔａ,,株式会社,千葉県,松戸市,新松戸南１丁目３２９番地の３,,12,207,2700035,,,,,,,2025-02-28,1,,,,,リスタ,0
1027,5040001137568,新規,0,2025-02-28,2025-02-28,株式会社バニーズ,,株式会社,千葉県,成田市,郷部１３７７番地,,12,211,2860014,,,,,,,2025-02-28,1,,,,,バニーズ,0
1028,5040001137601,新規,0,2025-02-28,2025-02-28,株式会社ＳｅａＨｏｒｓｅ,,株式会社,千葉県,館山市,大賀７９２番地,,12,205,2940031,,,,,,,2025-02-28,1,,,,,シーホース,0
1034,5040003026975,新規,0,2025-02-28,2025-02-28,オクト・リーブス合同会社,,合同会社,千葉県,千葉市若葉区,貝塚２丁目８番１３号シティハイムタカハシ２０２号,,12,104,2640020,,,,,,,2025-02-28,1,,,,,オクトリーブス,0
1035,5040003026991,新規,0,2025-02-28,2025-02-28,Ｓｏｌｏｐｒｅｎｅｕｒｓ合同会社,,合同会社,千葉県,千葉市花見川区,朝日ケ丘４丁目６番８号ソーシャルアパートメント新検見川１０７号,,12,102,2620019,,,,,,,2025-02-28,1,,,,,ソロプレナーズ,0
1044,5050003009070,新規,0,2025-02-28,2025-02-28,坂本ファーム合同会社,,合同会社,茨城県,稲敷市,須賀津１３９番地,,08,229,3000625,,,,,,,2025-02-28,1,,,,,サカモトファーム,0
1046,5070003005803,新規,0,2025-02-28,2025-02-28,合同会社Ｌａ．ｒｉｂｅｒｔａ,,合同会社,群馬県,伊勢崎市,安堀町１２６９－１モンパレス伊勢崎第１－２号館１０２号室,,10,204,3720007,,,,,,,2025-02-28,1,,,,,ラリベルタ,0
1069,5120001273215,新規,0,2025-02-28,2025-02-28,星河株式会社,,株式会社,大阪府,大阪市淀川区,東三国６丁目２３番１４号１０２室,,27,123,5320002,,,,,,,2025-02-28,1,,,,,セイガ,0
1070,5120001273264,新規,0,2025-02-28,2025-02-28,清瀾株式会社,,株式会社,大阪府,大阪市中央区,島之内１丁目１１番２９－７０２号,,27,128,5420082,,,,,,,2025-02-28,1,,,,,セイラン,0
1071,5120001273306,新規,0,2025-02-28,2025-02-28,株式会社Ｓｔｅｌｌａ　Ｖｏｙａｇｅ,,株式会社,大阪府,大阪市東住吉区,公園南矢田３丁目２４番２号,,27,121,5460024,,,,,,,2025-02-28,1,,,,,ステラボヤージュ,0
1075,5120003028716,新規,0,2025-02-28,2025-02-28,アスナル合同会社,,合同会社,大阪府,大阪市中央区,日本橋２丁目１４番１７号イスラボニータ９０１,,27,128,5420073,,,,,,,2025-02-28,1,,,,,アスナル,0
1076,5120003028740,新規,0,2025-02-28,2025-02-28,合同会社ｆｕｒｉｋａｋｅ,,合同会社,大阪府,大阪市都島区,都島北通２丁目１０－１１－８０２号室,,27,102,5340014,,,,,,,2025-02-28,1,,,,,フリカケ,0
1077,5120003028757,新規,0,2025-02-28,2025-02-28,合同会社信是義元,,合同会社,大阪府,大阪市住之江区,南港中３丁目９番サンコーポラス南港２７号棟２０２号室,,27,125,5590033,,,,,,,2025-02-28,1,,,,,シンコレギモト,0
1081,5130001079082,新規,0,2025-02-28,2025-02-28,株式会社アシストオカ,,株式会社,京都府,福知山市,字天田８番地の２,,26,201,6200000,,,,,,,2025-02-28,1,,,,,アシストオカ,0
1088,5140003021702,新規,0,2025-02-28,2025-02-28,合同会社Ｎａｔｕｒａｌ．ｍｅ,,合同会社,兵庫県,淡路市,志筑新島１０番地４０,,28,226,6562132,,,,,,,2025-02-28,1,,,,,ナチュラルミー,0
1089,5140005027383,新規,0,2025-02-28,2025-02-28,ＮＰＯ法人Ｅａｒｔｈ　Ｆａｍｉｌｙ農と食と教育,,その他の設立登記法人,兵庫県,養父市,八鹿町国木４１６,,28,222,6670044,,,,,,,2025-02-28,1,,,,,アースファミリーノウトショクトキョウイク,0
1101,5180001165638,新規,0,2025-02-28,2025-02-28,株式会社明丈,,株式会社,愛知県,名古屋市昭和区,高峯町１２３番地,,23,107,4660811,,,,,,,2025-02-28,1,,,,,メイジョウ,0
1105,5180303006465,新規,0,2025-02-28,2025-02-28,合同会社Ｒ．Ｙ．Ｓ,,合同会社,愛知県,豊橋市,東幸町字大山１０‐１７,,23,201,4400843,,,,,,,2025-02-28,1,,,,,アールワイエス,0
1109,5200001043477,新規,0,2025-02-28,2025-02-28,株式会社ＫＹＯＴＯＨ,,株式会社,岐阜県,多治見市,旭ケ丘９丁目４番地の８,,21,204,5070071,,,,,,,2025-02-28,1,,,,,キョートー,0
1118,5240001064577,新規,0,2025-02-28,2025-02-28,株式会社隆清,,株式会社,広島県,福山市,川口町２丁目１８番地２６,,34,207,7200822,,,,,,,2025-02-28,1,,,,,リュウセイ,0
1123,5260001039949,新規,0,2025-02-28,2025-02-28,キングラン中四国リニューアル株式会社,,株式会社,岡山県,岡山市南区,福浜西町２番１６号,,33,104,7028034,,,,,,,2025-02-28,1,,,,,キングランチュウシコクリニューアル,0
1137,5320001020968,新規,0,2025-02-28,2025-02-28,株式会社ミヤマ環境センター,,株式会社,大分県,玖珠郡玖珠町,大字塚脇１２６番地,,44,462,8794413,,,,,,,2025-02-28,1,,,,,ミヤマカンキョウセンター,0
1142,5330001032921,新規,0,2025-02-28,2025-02-28,株式会社ロメロブリット,,株式会社,熊本県,熊本市中央区,新屋敷３丁目７番７号,,43,101,8620975,,,,,,,2025-02-28,1,,,,,ロメロブリット,0
1143,5330003010834,新規,0,2025-02-28,2025-02-28,ＩＭ３０号蓄電所合同会社,,合同会社,熊本県,球磨郡あさぎり町,深田西２３２６番地１６８,,43,514,8680444,,,,,,,2025-02-28,1,,,,,アイエムサンジュウゴウチクデンショ,0
1144,5330003010867,新規,0,2025-02-28,2025-02-28,合同会社フットレジリエンス,,合同会社,熊本県,熊本市北区,武蔵ケ丘８丁目６－４４,,43,105,8618001,,,,,,,2025-02-28,1,,,,,フットレジリエンス,0
1146,5340003004760,新規,0,2025-02-28,2025-02-28,ＰＡＴ合同会社,,合同会社,鹿児島県,鹿屋市,王子町３８６９番地３サンヴェールマンション１０３号,,46,203,8930012,,,,,,,2025-02-28,1,,,,,ピーエーティー,0
1148,5360001034832,新規,0,2025-02-28,2025-02-28,江洲不動産株式会社,,株式会社,沖縄県,うるま市,字江洲５３８番地１０,,47,213,9042244,,,,,,,2025-02-28,1,,,,,エスフドウサン,0
1149,5380001035119,新規,0,2025-02-28,2025-02-28,株式会社福島ストラーダ,,株式会社,福島県,郡山市,日和田町高倉字大口原１番地の１７３,,07,203,9630531,,,,,,,2025-02-28,1,,,,,フクシマストラーダ,0
1154,5390003002355,新規,0,2025-02-28,2025-02-28,合同会社介護カウンセリングステーション高橋,,合同会社,山形県,東村山郡山辺町,大字山辺７５５番地１５,,06,301,9900301,,,,,,,2025-02-28,1,,,,,カイゴカウンセリングステーションタカハシ,0
1155,5400001016958,新規,0,2025-02-28,2025-02-28,株式会社ＭＩＮＡ・ＴＥＲＲＡＣＥ,,株式会社,岩手県,紫波郡矢巾町,大字西徳田第６地割１６６番地１サンハイツ宮田Ａ‐４号室,,03,322,0283603,,,,,,,2025-02-28,1,,,,,ミナテラス,0
1166,5430003017324,新規,0,2025-02-28,2025-02-28,合同会社トリノ,,合同会社,北海道,札幌市中央区,南六条西１２丁目７６０番地５,,01,101,0640806,,,,,,,2025-02-28,1,,,,,トリノ,0
1168,5450001014544,新規,0,2025-02-28,2025-02-28,株式会社リデラス,,株式会社,北海道,名寄市,西二条南６丁目２７番地２メディケアビル３Ｆ,,01,221,0960012,,,,,,,2025-02-28,1,,,,,リデラス,0
1169,5450005004442,新規,0,2025-02-28,2025-02-28,労働者協同組合みなにこ,,その他の設立登記法人,北海道,空知郡南富良野町,字幾寅６４１番地１０,,01,462,0792400,,,,,,,2025-02-28,1,,,,,ミナニコ,0
1170,5460103001687,新規,0,2025-02-28,2025-02-28,合同会社ＫＡＩＳＥＩ,,合同会社,北海道,帯広市,西二十五条南２丁目１８番地５２,,01,207,0802475,,,,,,,2025-02-28,1,,,,,カイセイ,0
1173,5470001020598,新規,0,2025-02-28,2025-02-28,株式会社ｓｔｙｌｅ‐Ｍ,,株式会社,香川県,坂出市,池園町３番２４号,,37,203,7620035,,,,,,,2025-02-28,1,,,,,,0
1179,5700150129332,新規,0,2025-02-28,2025-02-28,ＦＵＪＩ　ＴＲＡＤＩＮＧ,,外国会社等,千葉県,山武市,木原１４００番地オフィス４,,12,237,2891212,スリランカ民主社会主義共和国、キャンディ、アラワトゥゴダ、マワトゥポラ、Ｎｏ．９,,,,,,2025-02-28,1,,,,,フジトレーデイング,0
1180,5700150129340,新規,0,2025-02-28,2025-02-28,ホライゾンズ－４・サテライト・ＬＬＣ,,外国会社等,東京都,港区,赤坂１丁目８番１号　赤坂インターシティＡＩＲ１２階,,13,103,1070052,アメリカ合衆国バージニア州マクリーン、タイソンズ・ワン・プレイス７９００,,,,,,2025-02-28,1,,,,,ホライゾンズフオーサテライトエルエルシー,0
1186,6010001252658,新規,0,2025-02-28,2025-02-28,株式会社Ｉｖｙ　Ｏｎｅ,,株式会社,東京都,中央区,日本橋室町１丁目１１番１２号日本橋水野ビル７階,,13,102,1030022,,,,,,,2025-02-28,1,,,,,アイビーワン,0
1187,6010001252666,新規,0,2025-02-28,2025-02-28,ＮＯＶＡインテリジェン株式会社,,株式会社,東京都,千代田区,神田佐久間町３丁目２８星野ビル５０５号室,,13,101,1010025,,,,,,,2025-02-28,1,,,,,ノヴァインテリジェン,0
1188,6010001252690,新規,0,2025-02-28,2025-02-28,株式会社ＧＯＬＤ　ＣＯＵＮＴＲＹ,,株式会社,東京都,中央区,月島１丁目８番１－１１０９号,,13,102,1040052,,,,,,,2025-02-28,1,,,,,ゴールドカントリー,0
1191,6010003046546,新規,0,2025-02-28,2025-02-28,合同会社Ｍｉｘ　Ｓａｎｄ　Ｈａｋａｔａ　Ｅａｓｔ　ＭＬ,,合同会社,東京都,千代田区,霞が関３丁目２番５号,,13,101,1000013,,,,,,,2025-02-28,1,,,,,ミックスサンドハカタイーストエムエル,0
1192,6010003046562,新規,0,2025-02-28,2025-02-28,ＭＳシステムエンジニアリング合同会社,,合同会社,東京都,中央区,銀座１丁目１２－４Ｎ＆ＥＢＬＤ．７Ｆ,,13,102,1040061,,,,,,,2025-02-28,1,,,,,エムエスシステムエンジニアリング,0
1193,6010003046570,新規,0,2025-02-28,2025-02-28,ラボート合同会社,,合同会社,東京都,千代田区,神田須田町１丁目７番８号ＶＯＲＴ秋葉原ＩＶ２Ｆ,00138156,13,101,1010041,,,,,,,2025-02-28,1,,,,,ラボート,0
1201,6010401188452,新規,0,2025-02-28,2025-02-28,アニファム株式会社,,株式会社,東京都,港区,六本木３丁目６－９Ｋ２ビル,,13,103,1060032,,,,,,,2025-02-28,1,,,,,アニファム,0
1202,6010401188469,新規,0,2025-02-28,2025-02-28,ＡＢＣメディカルグループ株式会社,,株式会社,東京都,港区,赤坂３丁目１９番２号,,13,103,1070052,,,,,,,2025-02-28,1,,,,,エービーシーメディカルグループ,0
1203,6010401188510,新規,0,2025-02-28,2025-02-28,秀彩商事株式会社,,株式会社,東京都,港区,六本木７丁目１４番２３号ラウンドクロス六本木５Ｆ,,13,103,1060032,,,,,,,2025-02-28,1,,,,,シュウサイショウジ,0
1204,6010401188568,新規,0,2025-02-28,2025-02-28,株式会社ＰＲＹホールディングス,,株式会社,東京都,港区,三田１丁目５番５号ファーストアパートメンツ三田４０４号室,,13,103,1080073,,,,,,,2025-02-28,1,,,,,ピーアールワイホールディングス,0
1207,6010403034456,新規,0,2025-02-28,2025-02-28,合同会社ａｙｊ,,合同会社,東京都,港区,芝浦２丁目６番１１－１５０５号,,13,103,1080023,,,,,,,2025-02-28,1,,,,,エーワイジェイ,0
1208,6010403034480,新規,0,2025-02-28,2025-02-28,合同会社ココン,,合同会社,東京都,港区,北青山１丁目３番３号三橋ビル３階,,13,103,1070061,,,,,,,2025-02-28,1,,,,,ココン,0
1209,6010501053713,新規,0,2025-02-28,2025-02-28,福源株式会社,,株式会社,東京都,台東区,東上野５丁目１８番１号上野アインスタワー１５０６,,13,106,1100015,,,,,,,2025-02-28,1,,,,,フクゲン,0
1210,6010503007741,新規,0,2025-02-28,2025-02-28,合同会社ＯｐｅｎＰｌａｉｎ,,合同会社,東京都,台東区,下谷１丁目１番７－８０４号ＧｒａｃｅＣｏｕｒｔＵｅｎｏ,,13,106,1100004,,,,,,,2025-02-28,1,,,,,オープンプレイン,0
1229,6011003021068,新規,0,2025-02-28,2025-02-28,高田承継合同会社,,合同会社,東京都,渋谷区,道玄坂１丁目１０番８号渋谷道玄坂東急ビル２Ｆ－Ｃ,,13,113,1500043,,,,,,,2025-02-28,1,,,,,タカダショウケイ,0
1241,6011603004620,新規,0,2025-02-28,2025-02-28,合同会社ＴＦＢ,,合同会社,東京都,練馬区,氷川台４丁目４７番１８号,,13,120,1790084,,,,,,,2025-02-28,1,,,,,ティーエフビー,0
1244,6011803006706,新規,0,2025-02-28,2025-02-28,合同会社いやさか,,合同会社,東京都,足立区,花畑６丁目２６番６号,,13,121,1210061,,,,,,,2025-02-28,1,,,,,イヤサカ,0
1245,6012401042820,新規,0,2025-02-28,2025-02-28,株式会社かし建,,株式会社,東京都,稲城市,大丸１０４１番地の１０ＫＹビル２Ｆ,,13,225,2060801,,,,,,,2025-02-28,1,,,,,カシケン,0
1246,6012403006988,新規,0,2025-02-28,2025-02-28,合同会社プルアップ,,合同会社,東京都,府中市,府中町２丁目７番２号,,13,206,1830055,,,,,,,2025-02-28,1,,,,,プルアップ,0
1248,6012801023783,新規,0,2025-02-28,2025-02-28,株式会社ホームささえあい,,株式会社,東京都,昭島市,田中町２丁目２４番地４号,,13,207,1960014,,,,,,,2025-02-28,1,,,,,ホームササエアイ,0
1258,6020001161593,新規,0,2025-02-28,2025-02-28,株式会社Ａｌｆｉｎｅ,,株式会社,神奈川県,川崎市宮前区,宮崎１丁目１番地３,,14,136,2160033,,,,,,,2025-02-28,1,,,,,アルフィン,0
1259,6020001161610,新規,0,2025-02-28,2025-02-28,株式会社ＧＯＬＤ　ＳＴＯＮＥ,,株式会社,神奈川県,川崎市川崎区,港町５番３－１５３６号,,14,131,2100807,,,,,,,2025-02-28,1,,,,,ゴールドストーン,0
1263,6020003027891,新規,0,2025-02-28,2025-02-28,合同会社つくし,,合同会社,神奈川県,横浜市神奈川区,金港町５－１４クアドリフォリオ８階,,14,102,2210056,,,,,,,2025-02-28,1,,,,,ツクシ,0
1264,6020003027909,新規,0,2025-02-28,2025-02-28,合同会社岡由,,合同会社,神奈川県,横浜市鶴見区,東寺尾５丁目６番１１号,,14,101,2300077,,,,,,,2025-02-28,1,,,,,オカユ,0
1265,6020003027925,新規,0,2025-02-28,2025-02-28,合同会社Ｄｅｌｉｚｅ,,合同会社,神奈川県,横浜市泉区,岡津町１１１番地１９,,14,116,2450003,,,,,,,2025-02-28,1,,,,,ディライズ,0
1268,6021003015647,新規,0,2025-02-28,2025-02-28,ＭＥＥＮＡ　ＴＲＡＤＩＮＧ合同会社,,合同会社,神奈川県,厚木市,妻田東２丁目１６－１２本厚木第７－１０５号,,14,212,2430813,,,,,,,2025-02-28,1,,,,,ミーナトレーディング,0
1273,6030001165065,新規,0,2025-02-28,2025-02-28,株式会社結美,,株式会社,埼玉県,さいたま市見沼区,東大宮４丁目１７－１８－２階,,11,104,3370051,,,,,,,2025-02-28,1,,,,,ムスビ,0
1275,6030003026216,新規,0,2025-02-28,2025-02-28,合同会社藤の里,,合同会社,埼玉県,さいたま市見沼区,東大宮４丁目７３－３－１０４,,11,104,3370051,,,,,,,2025-02-28,1,,,,,フジノサト,0
1276,6030003026232,新規,0,2025-02-28,2025-02-28,合同会社輝章,,合同会社,埼玉県,春日部市,栄町１丁目１３４番地,,11,214,3440058,,,,,,,2025-02-28,1,,,,,キショウ,0
1277,6030005022056,新規,0,2025-02-28,2025-02-28,農事組合法人大地,,その他の設立登記法人,埼玉県,加須市,東栄１丁目９－１８オフィス東栄Ｄ,,11,210,3470064,,,,,,,2025-02-28,1,,,,,,0
1283,6040001137609,新規,0,2025-02-28,2025-02-28,株式会社Ｊｏｕｒｎｅｙ　Ｒｅｈａｂ,,株式会社,千葉県,松戸市,松戸１２２８―１松戸ステーションビル５Ｆ,,12,207,2710092,,,,,,,2025-02-28,1,,,,,ジャーニーリハブ,0
1287,6040003026859,新規,0,2025-02-28,2025-02-28,合同会社ｎｅｋｏｔｏ,,合同会社,千葉県,印西市,草深６０‐２２,,12,231,2701337,,,,,,,2025-02-28,1,,,,,ネコト,0
1288,6040003026999,新規,0,2025-02-28,2025-02-28,アイザック合同会社,,合同会社,千葉県,柏市,小青田５丁目１０―１６,,12,217,2770803,,,,,,,2025-02-28,1,,,,,アイザック,0
1292,6050005013557,新規,0,2025-02-28,2025-02-28,一般社団法人Ｃｏｍｐａｎｉ,,その他の設立登記法人,茨城県,下妻市,長塚１２１番地,,08,210,3040056,,,,,,,2025-02-28,1,,,,,カンパーニ,0
1296,6070003005802,新規,0,2025-02-28,2025-02-28,合同会社丸橋,,合同会社,群馬県,伊勢崎市,曲輪町３４番地２,,10,204,3720055,,,,,,,2025-02-28,1,,,,,マルバシ,0
1301,6110001039070,新規,0,2025-02-28,2025-02-28,株式会社Ｂｅｒｇ　Ｄｅｓｉｇｎ,,株式会社,新潟県,南魚沼郡湯沢町,大字湯沢２１５０番地－１６０２号,,15,461,9496101,,,,,,,2025-02-28,1,,,,,ベルグデザイン,0
1310,6120001273172,新規,0,2025-02-28,2025-02-28,ｋｉｎｇｐｉｎｇ株式会社,,株式会社,大阪府,大阪市北区,西天満４丁目８－２８－４Ｆ,,27,127,5300047,,,,,,,2025-02-28,1,,,,,キンピン,0
1311,6120001273189,新規,0,2025-02-28,2025-02-28,株式会社ＥＭＩＦＵＬＬ,,株式会社,大阪府,大阪市北区,梅田１丁目３番１－６００号大阪駅前第１ビル６階,,27,127,5300001,,,,,,,2025-02-28,1,,,,,エミフル,0
1312,6120001273222,新規,0,2025-02-28,2025-02-28,楽風株式会社,,株式会社,大阪府,大阪市東住吉区,駒川５丁目１５番１０号,,27,121,5460043,,,,,,,2025-02-28,1,,,,,ラクフウ,0
1313,6120001273263,新規,0,2025-02-28,2025-02-28,ＪＣ株式会社,,株式会社,大阪府,大阪市西成区,千本南１丁目１６番２８－２０２号,,27,122,5570055,,,,,,,2025-02-28,1,,,,,ジェーシー,0
1317,6120003028715,新規,0,2025-02-28,2025-02-28,ストック合同会社,,合同会社,大阪府,大阪市中央区,谷町１丁目３－１８イディアクロス天満橋ビル４階,,27,128,5400012,,,,,,,2025-02-28,1,,,,,ストック,0
1318,6120003028764,新規,0,2025-02-28,2025-02-28,日本アナシス合同会社,,合同会社,大阪府,大阪市北区,梅田１丁目２番２号大阪駅前第２ビル１２－１２,,27,127,5300001,,,,,,,2025-02-28,1,,,,,ニホンアナシス,0
1319,6120101071146,新規,0,2025-02-28,2025-02-28,株式会社素戔嗚,,株式会社,大阪府,河内長野市,末広町６番２１号,,27,216,5860051,,,,,,,2025-02-28,1,,,,,スサノオ,0
1320,6120105009976,新規,0,2025-02-28,2025-02-28,一般社団法人愛よりそい,,その他の設立登記法人,大阪府,羽曳野市,東阪田１７７番１ウィズテリア東阪田４０１号,,27,222,5830846,,,,,,,2025-02-28,1,,,,,アイヨリソイ,0
1324,6130003010234,新規,0,2025-02-28,2025-02-28,合同会社ＳＰＩＲＩＴ　ＲＤ,,合同会社,京都府,京都市右京区,北嵯峨山王町１５番地１０,,26,108,6168406,,,,,,,2025-02-28,1,,,,,スピリットアールディー,0
1329,6140001137516,新規,0,2025-02-28,2025-02-28,株式会社ＰＬＵＳ　Ｑ,,株式会社,兵庫県,加古川市,加古川町木村６６９番地の１１,,28,210,6750038,,,,,,,2025-02-28,1,,,,,プラスキュー,0
1334,6160005011376,新規,0,2025-02-28,2025-02-28,農事組合法人ＳＩＤＥ　ＷＡＶＥ,,その他の設立登記法人,滋賀県,長浜市,西浅井町横波４８１番地,,25,203,5290705,,,,,,,2025-02-28,1,,,,,サイドウェーブ,0
1343,6180001165645,新規,0,2025-02-28,2025-02-28,株式会社ＬＴＣ,,株式会社,愛知県,名古屋市中区,新栄３丁目２０番２７号,,23,106,4600007,,,,,,,2025-02-28,1,,,,,エルティーシー,0
1345,6180301039557,新規,0,2025-02-28,2025-02-28,株式会社稲垣ｂｌｏｃｋ,,株式会社,愛知県,西尾市,一色町味浜東乾地４５番地,,23,213,4440422,,,,,,,2025-02-28,1,,,,,イナガキブロック,0
1347,6200001043468,新規,0,2025-02-28,2025-02-28,株式会社未来価値創造研究所,,株式会社,岐阜県,恵那市,大井町２６３２番地の１０５,,21,210,5097201,,,,,,,2025-02-28,1,,,,,ミライカチソウゾウケンキュウジョ,0
1348,6200001043476,新規,0,2025-02-28,2025-02-28,株式会社明智製陶,,株式会社,岐阜県,恵那市,明智町５４３番地１,,21,210,5097731,,,,,,,2025-02-28,1,,,,,アケチセイトウ,0
1354,6250005008982,新規,0,2025-02-28,2025-02-28,ＬＡとくぢ協同組合,,その他の設立登記法人,山口県,山口市,徳地堀１７５０番地,,35,203,7470231,,,,,,,2025-02-28,1,,,,,エルエートクヂ,0
1355,6270003001715,新規,0,2025-02-28,2025-02-28,合同会社ａ．ｔ,,合同会社,鳥取県,鳥取市,河原町小畑１３６番地,,31,201,6801232,,,,,,,2025-02-28,1,,,,,アット,0
1357,6290001109129,新規,0,2025-02-28,2025-02-28,株式会社Ｄ‐ＲＥＮＴ,,株式会社,福岡県,柳川市,筑紫町７０－４７,,40,207,8320077,,,,,,,2025-02-28,1,,,,,ディーレント,0
1358,6290003016471,新規,0,2025-02-28,2025-02-28,合同会社ＴＹＬ,,合同会社,福岡県,福岡市博多区,博多駅前１丁目２３－２ＰａｒｋＦｒｏｎｔ５Ｆ－Ｂ,,40,132,8120011,,,,,,,2025-02-28,1,,,,,ティーワイエル,0
1362,6310001019473,新規,0,2025-02-28,2025-02-28,株式会社誠屋,,株式会社,長崎県,佐世保市,大岳台町１３番７号,,42,202,8571163,,,,,,,2025-02-28,1,,,,,セイヤ,0
1370,6330001032920,新規,0,2025-02-28,2025-02-28,株式会社ＫＴＴ,,株式会社,熊本県,熊本市中央区,坪井６丁目２８番８－２０５号,,43,101,8600863,,,,,,,2025-02-28,1,,,,,ケーティーティー,0
1374,6330003010833,新規,0,2025-02-28,2025-02-28,ＩＭ２９号蓄電所合同会社,,合同会社,熊本県,球磨郡あさぎり町,深田西２３２６番地１６８,,43,514,8680444,,,,,,,2025-02-28,1,,,,,アイエムニジュウキュウゴウチクデンショ,0
1376,6370003006951,新規,0,2025-02-28,2025-02-28,ＭＳＴ企画合同会社,,合同会社,宮城県,柴田郡川崎町,大字前川字六方山４番地５４,,04,324,9891501,,,,,,,2025-02-28,1,,,,,エムエスティキカク,0
1384,6390003002354,新規,0,2025-02-28,2025-02-28,合同会社ネヲハル,,合同会社,山形県,東村山郡山辺町,大字山辺２８５３番地１６,,06,301,9900301,,,,,,,2025-02-28,1,,,,,ネヲハル,0
1387,6410003004050,新規,0,2025-02-28,2025-02-28,ライスフェルト合同会社,,合同会社,秋田県,南秋田郡大潟村,字東２丁目３番地８,,05,368,0100442,,,,,,,2025-02-28,1,,,,,,0
1388,6420003003076,新規,0,2025-02-28,2025-02-28,合同会社ダイニングルーム絆,,合同会社,青森県,五所川原市,字鎌谷町１６２番地,,02,205,0370033,,,,,,,2025-02-28,1,,,,,ダイニングルームキズナ,0
1392,6430001093779,新規,0,2025-02-28,2025-02-28,株式会社エコグリーン,,株式会社,北海道,苫小牧市,字勇払５番地の５,,01,213,0591372,,,,,,,2025-02-28,1,,,,,エコグリーン,0
1394,6440001009569,新規,0,2025-02-28,2025-02-28,ｂｉｒｃｈ株式会社,,株式会社,北海道,二海郡八雲町,上八雲２９６－１,,01,346,0493121,,,,,,,2025-02-28,1,,,,,バーチ,0
1400,6700150129331,新規,0,2025-02-28,2025-02-28,Ｕ．Ｎ．Ｓ．ＴＲＡＤＩＮＧ,,外国会社等,千葉県,山武市,木原１４００番地オフィス３,,12,237,2891212,スリランカ民主社会主義共和国、キャンディ、カトゥガストタ、ラナワナロード、Ｎｏ．２４／２,,,,,,2025-02-28,1,,,,,ユーエヌエストレーデイング,0
1413,7010001252599,新規,0,2025-02-28,2025-02-28,株式会社ママミー,,株式会社,東京都,千代田区,九段南１丁目５番６号りそな九段ビル５ＦＫＳフロア,,13,101,1020074,,,,,,,2025-02-28,1,,,,,ママミー,0
1414,7010001252624,新規,0,2025-02-28,2025-02-28,株式会社ｅｇｇ,,株式会社,東京都,中央区,日本橋浜町３丁目２７番１１－９０４号,,13,102,1030007,,,,,,,2025-02-28,1,,,,,エッグ,0
1415,7010001252665,新規,0,2025-02-28,2025-02-28,株式会社ＹＭ　ＣＯＭＰＡＮＹ,,株式会社,東京都,中央区,銀座１丁目１２番４号Ｎ＆ＥＢＬＤ．６Ｆ,,13,102,1040061,,,,,,,2025-02-28,1,,,,,ワイエムカンパニー,0
1416,7010001252673,新規,0,2025-02-28,2025-02-28,Ｔｅｉａ　ＩＩ株式会社,,株式会社,東京都,千代田区,永田町２丁目１４番２号山王グランドビル３階スリーアイズキャピタル株式会社内,,13,101,1000014,,,,,,,2025-02-28,1,,,,,テイアツー,0
1417,7010001252681,新規,0,2025-02-28,2025-02-28,おもてなしロボティクス株式会社,,株式会社,東京都,千代田区,麹町２丁目１０－２－２Ｆ,,13,101,1020083,,,,,,,2025-02-28,1,,,,,オモテナシロボティクス,0
1418,7010005039646,新規,0,2025-02-28,2025-02-28,一般財団法人ＡＩ・量子国際振興財団,,その他の設立登記法人,東京都,千代田区,紀尾井町４番１号ニューオータニ・ガーデンタワー１０階,,13,101,1020094,,,,,,,2025-02-28,1,,,,,エーアイリョウシコクサイシンコウザイダン,0
1422,7010401188393,新規,0,2025-02-28,2025-02-28,ＣＬＵＢ　ＣＬＵＢ株式会社,,株式会社,東京都,港区,赤坂９丁目６－２８アルベルゴ乃木坂９１１,,13,103,1070052,,,,,,,2025-02-28,1,,,,,クラブクラブ,0
1423,7010401188468,新規,0,2025-02-28,2025-02-28,株式会社ＴＡＳＨＯＫ・Ａ,,株式会社,東京都,港区,北青山１丁目３番３号三橋ビル３階,,13,103,1070061,,,,,,,2025-02-28,1,,,,,タショクエー,0
1424,7010401188484,新規,0,2025-02-28,2025-02-28,株式会社Ｅｎｓｐｉｒｅ,,株式会社,東京都,港区,三田５丁目１番１２－５０３号,,13,103,1080073,,,,,,,2025-02-28,1,,,,,エンスパイア,0
1425,7010401188518,新規,0,2025-02-28,2025-02-28,ビー・エックス・ジェイ・ディー・ツー・ホールディング株式会社,,株式会社,東京都,港区,虎ノ門５丁目１番４号,,13,103,1050001,,,,,,,2025-02-28,1,,,,,ビーエックスジェイディーツーホールディング,0
1426,7010401188542,新規,0,2025-02-28,2025-02-28,ドライブギア株式会社,,株式会社,東京都,港区,芝５丁目３２番１２号,,13,103,1080014,,,,,,,2025-02-28,1,,,,,ドライブギア,0
1435,7010605004413,新規,0,2025-02-28,2025-02-28,一般社団法人歯科情報セキュリティ協議会,,その他の設立登記法人,東京都,江東区,東陽３丁目２３番３号,,13,108,1350016,,,,,,,2025-02-28,1,,,,,シカジョウホウセキュリティキョウギカイ,0
1437,7010701047299,新規,0,2025-02-28,2025-02-28,株式会社ＡＬＢＡ,,株式会社,東京都,品川区,西五反田４丁目３１－２３－３１１,,13,109,1410031,,,,,,,2025-02-28,1,,,,,アルバ,0
1438,7010701047324,新規,0,2025-02-28,2025-02-28,株式会社アンドボナ,,株式会社,東京都,品川区,南品川６丁目１０番１１号,,13,109,1400004,,,,,,,2025-02-28,1,,,,,アンドボナ,0
1443,7010801035880,新規,0,2025-02-28,2025-02-28,株式会社ヴェルデ・ノヴォ,,株式会社,東京都,大田区,中央１丁目１１番１７号,,13,111,1430024,,,,,,,2025-02-28,1,,,,,ヴェルデノヴォ,0
1446,7010903009741,新規,0,2025-02-28,2025-02-28,合同会社ＮＳコンサルティング,,合同会社,東京都,世田谷区,世田谷２丁目１５番１号,,13,112,1540017,,,,,,,2025-02-28,1,,,,,エヌエスコンサルティング,0
1455,7011003021050,新規,0,2025-02-28,2025-02-28,合同会社ＰＬＵＲ,,合同会社,東京都,目黒区,柿の木坂１丁目３４番１８号メゾンＹＡ３０１,,13,110,1520022,,,,,,,2025-02-28,1,,,,,プラー,0
1457,7011101110754,新規,0,2025-02-28,2025-02-28,株式会社奏夢エージェンシー,,株式会社,東京都,新宿区,百人町１丁目２３番１１号土田ビル２階,,13,104,1690073,,,,,,,2025-02-28,1,,,,,カナデムエージェンシー,0
1469,7011801045713,新規,0,2025-02-28,2025-02-28,株式会社ＤＧｒｅｅｎ,,株式会社,東京都,足立区,古千谷本町３丁目５番５号,,13,121,1210832,,,,,,,2025-02-28,1,,,,,ディーグリーン,0
1470,7011803006713,新規,0,2025-02-28,2025-02-28,ＦＡ合同会社,,合同会社,東京都,足立区,千住寿町３９－１４－１３０４,,13,121,1200033,,,,,,,2025-02-28,1,,,,,ファイナンシャルアライアンス,0
1472,7012401042828,新規,0,2025-02-28,2025-02-28,株式会社ＢＬＯＯＭ　ＴＯＫＹＯ,,株式会社,東京都,三鷹市,井口２丁目１４番１‐２０２号,,13,204,1810011,,,,,,,2025-02-28,1,,,,,ブルームトウキョウ,0
1475,7012801023782,新規,0,2025-02-28,2025-02-28,株式会社かがやき,,株式会社,東京都,日野市,南平４丁目４３番７号,,13,212,1910041,,,,,,,2025-02-28,1,,,,,カガヤキ,0
1485,7020001161601,新規,0,2025-02-28,2025-02-28,ＭＥＤＩＡ国際人材サービスジャパン株式会社,,株式会社,神奈川県,横浜市西区,北幸１丁目１１番１号水信ビル７階,,14,103,2200004,,,,,,,2025-02-28,1,,,,,メディアコクサイジンザイサービスジャパン,0
1488,7020003027908,新規,0,2025-02-28,2025-02-28,合同会社ＴＭコーポレーション,,合同会社,神奈川県,川崎市中原区,上丸子天神町３８２番地２４,,14,133,2110007,,,,,,,2025-02-28,1,,,,,ティーエムコーポレーション,0
1492,7021001084552,新規,0,2025-02-28,2025-02-28,株式会社ヒラチュウ,,株式会社,神奈川県,伊勢原市,下谷３４７番地,,14,214,2591123,,,,,,,2025-02-28,1,,,,,ヒラチュウ,0
1493,7021001084560,新規,0,2025-02-28,2025-02-28,株式会社ｃｌａｐｏｔｉｓ,,株式会社,神奈川県,藤沢市,鵠沼海岸３丁目６番１６号Ｂ１０２,,14,205,2510037,,,,,,,2025-02-28,1,,,,,クラポティ,0
1494,7021001084569,新規,0,2025-02-28,2025-02-28,株式会社ｍｆｍｆ,,株式会社,神奈川県,相模原市南区,上鶴間本町３丁目９番１０号レーベンリヴァーレ町田ルージアタワー９０５,,14,153,2520318,,,,,,,2025-02-28,1,,,,,モフモフ,0
1495,7021003015646,新規,0,2025-02-28,2025-02-28,拡声器合同会社,,合同会社,神奈川県,藤沢市,鵠沼松が岡１丁目９番３号,00138168,14,205,2510038,,,,,,,2025-02-28,1,,,,,カクセイキ,0
1505,7030001164909,新規,0,2025-02-28,2025-02-28,株式会社ＹＭＲ,,株式会社,埼玉県,所沢市,寿町２９番７－１００５号プラウド所沢寿町,,11,208,3591122,,,,,,,2025-02-28,1,,,,,ワイエムアール,0
1506,7030001165064,新規,0,2025-02-28,2025-02-28,株式会社Ｃｏｎｎｅｃｔ　Ｌａｂｏｒａｔｏｒｙ,,株式会社,埼玉県,南埼玉郡宮代町,和戸２丁目６番３３号和戸クレストヒルズ６０６号室,,11,442,3450836,,,,,,,2025-02-28,1,,,,,コネクトラボラトリー,0
1507,7030001165072,新規,0,2025-02-28,2025-02-28,深根株式会社,,株式会社,埼玉県,坂戸市,南町２２－２１ソリット・リファイン坂戸４０８,,11,239,3500233,,,,,,,2025-02-28,1,,,,,フカネ,0
1508,7030001165080,新規,0,2025-02-28,2025-02-28,株式会社Ｂｅａｓｏｌ,,株式会社,埼玉県,越谷市,川柳町１丁目１２０番地６,,11,222,3430827,,,,,,,2025-02-28,1,,,,,ベアソル,0
1511,7030003026140,新規,0,2025-02-28,2025-02-28,ＥＳＰＡＲＫ　ｐｒｏｊｅｃｔ合同会社,,合同会社,埼玉県,吉川市,新栄２丁目１１－５,,11,243,3420059,,,,,,,2025-02-28,1,,,,,エスパークプロジェクト,0
1512,7030005022055,新規,0,2025-02-28,2025-02-28,農事組合法人スターファーム,,その他の設立登記法人,埼玉県,加須市,東栄１丁目９－１８オフィス東栄Ｂ,,11,210,3470064,,,,,,,2025-02-28,1,,,,,スターファーム,0
1527,7060001037954,新規,0,2025-02-28,2025-02-28,株式会社Ｌｙｔａ,,株式会社,栃木県,宇都宮市,宝木本町１２３１番地１９チャコールグリーンＡ棟,,09,201,3200075,,,,,,,2025-02-28,1,,,,,リタ,0
1530,7070001042664,新規,0,2025-02-28,2025-02-28,株式会社タワーグリーンサービス,,株式会社,群馬県,多野郡上野村,大字乙父１１７２番地,,10,366,3701616,,,,,,,2025-02-28,1,,,,,タワーグリーンサービス,0
1534,7080102022556,新規,0,2025-02-28,2025-02-28,有限会社瀬尾薬局,,有限会社,静岡県,沼津市,市場町２１番１０号,,22,203,4100831,,,,,,,2025-02-28,1,,,,,セオヤッキョク,0
1550,7120001273139,新規,0,2025-02-28,2025-02-28,平安株式会社,,株式会社,大阪府,大阪市西成区,橘１丁目１１－２８オフィスポート橘３１４号室,,27,122,5570051,,,,,,,2025-02-28,1,,,,,ヘイアン,0
1551,7120001273171,新規,0,2025-02-28,2025-02-28,ＳＬ株式会社,,株式会社,大阪府,大阪市東住吉区,矢田１丁目２６－７ＵＩＩＴビル矢田２０２号室,,27,121,5460023,,,,,,,2025-02-28,1,,,,,エスエル,0
1552,7120001273221,新規,0,2025-02-28,2025-02-28,株式会社ＬＩＢＥＥＬ,,株式会社,大阪府,大阪市北区,梅田１丁目１番３号大阪駅前第３ビル２９階１－１－１号室,,27,127,5300001,,,,,,,2025-02-28,1,,,,,リベル,0
1553,7120001273270,新規,0,2025-02-28,2025-02-28,豊禾株式会社,,株式会社,大阪府,大阪市大正区,平尾４丁目１１番７号,,27,108,5510012,,,,,,,2025-02-28,1,,,,,ホウカ,0
1554,7120001273279,新規,0,2025-02-28,2025-02-28,株式会社Ｔハウス,,株式会社,大阪府,大阪市中央区,南船場１丁目１３番２０－３０２号,,27,128,5420081,,,,,,,2025-02-28,1,,,,,ティーハウス,0
1555,7120001273287,新規,0,2025-02-28,2025-02-28,大有株式会社,,株式会社,大阪府,大阪市東淀川区,瑞光１丁目２番１１－３０７号,,27,114,5330005,,,,,,,2025-02-28,1,,,,,ダイユウ,0
1556,7120001273304,新規,0,2025-02-28,2025-02-28,株式会社シーゴートゥ,,株式会社,大阪府,大阪市中央区,久太郎町４丁目１－３大阪センタービル６Ｆ－３４１,,27,128,5410056,,,,,,,2025-02-28,1,,,,,シーゴートゥ,0
1558,7120003028689,新規,0,2025-02-28,2025-02-28,合同会社ＡＭＡＣＳ,,合同会社,大阪府,大阪市北区,梅田１丁目２番２号大阪駅前第二ビル１２－１２,,27,127,5300001,,,,,,,2025-02-28,1,,,,,アマックス,0
1559,7120003028714,新規,0,2025-02-28,2025-02-28,合同会社Ｖａｌｕｅ　Ｐａｓｓｏ,,合同会社,大阪府,大阪市旭区,高殿７丁目２１番１３－３０４号,,27,117,5350031,,,,,,,2025-02-28,1,,,,,バリューパッソ,0
1560,7120003028722,新規,0,2025-02-28,2025-02-28,合同会社ＴＯＲＡ　ＣＯＲＰＯＲＡＴＩＯＮ,,合同会社,大阪府,大阪市天王寺区,大道４丁目１番８号ベルメゾンナカエ４階Ａ号室,,27,109,5430052,,,,,,,2025-02-28,1,,,,,トラコーポレーション,0
1561,7120101071153,新規,0,2025-02-28,2025-02-28,株式会社イノヤ,,株式会社,大阪府,堺市中区,福田５１２番地２,,27,142,5998241,,,,,,,2025-02-28,1,,,,,イノヤ,0
1563,7120103006297,新規,0,2025-02-28,2025-02-28,合同会社Ｌｉｆｅｈａｃｋ,,合同会社,大阪府,堺市中区,小阪６７４番地６,,27,142,5998276,,,,,,,2025-02-28,1,,,,,ライフハック,0
1564,7120901050505,新規,0,2025-02-28,2025-02-28,株式会社ここ・いろ,,株式会社,大阪府,吹田市,片山町１丁目３番１３－２０２号,,27,205,5640082,,,,,,,2025-02-28,1,,,,,ココイロ,0
1567,7130001079072,新規,0,2025-02-28,2025-02-28,株式会社ＳＡＮＲＡＫ,,株式会社,京都府,京丹後市,弥栄町吉沢８２番地,,26,212,6270123,,,,,,,2025-02-28,1,,,,,サンラク,0
1568,7130001079080,新規,0,2025-02-28,2025-02-28,ＷｉｎＢｅＸ株式会社,,株式会社,京都府,相楽郡精華町,光台７丁目１２番地８,,26,366,6190237,,,,,,,2025-02-28,1,,,,,ウィンベックス,0
1572,7140001137515,新規,0,2025-02-28,2025-02-28,株式会社Ｔｈｒｉｖｅ　Ｃｏｒｅ,,株式会社,兵庫県,西宮市,大畑町５番３６－４０４号,,28,204,6620836,,,,,,,2025-02-28,1,,,,,スライブコア,0
1576,7150003003508,新規,0,2025-02-28,2025-02-28,Ｎｅｘｃｅｅｄ合同会社,,合同会社,奈良県,五條市,田園４丁目２４－２,,29,207,6370093,,,,,,,2025-02-28,1,,,,,ネクシード,0
1577,7160001026575,新規,0,2025-02-28,2025-02-28,株式会社律光,,株式会社,滋賀県,草津市,南笠町１８９６番地４０,,25,206,5250056,,,,,,,2025-02-28,1,,,,,リッコウ,0
1579,7180001004174,新規,0,2025-02-28,2025-02-28,株式会社シービーシー,,株式会社,愛知県,名古屋市千種区,内山３丁目３３番８号,,23,101,4640075,,,,,,,2025-02-28,1,,,,,シービーシー,0
1584,7180001165628,新規,0,2025-02-28,2025-02-28,株式会社メルヴェイユ工務店,,株式会社,愛知県,名古屋市西区,万代町１丁目２７番地の１・１階Ｃ号室,,23,104,4510074,,,,,,,2025-02-28,1,,,,,メルヴェイユコウムテン,0
1593,7200001043475,新規,0,2025-02-28,2025-02-28,株式会社本間興業,,株式会社,岐阜県,瑞穂市,牛牧２６５番地２,,21,216,5010234,,,,,,,2025-02-28,1,,,,,ホンマコウギョウ,0
1601,7260001039939,新規,0,2025-02-28,2025-02-28,株式会社小林,,株式会社,岡山県,津山市,川崎４３８番地１ルビアン東津山８０３,,33,203,7080841,,,,,,,2025-02-28,1,,,,,コバヤシ,0
1606,7290001109128,新規,0,2025-02-28,2025-02-28,ＭＳＲ株式会社,,株式会社,福岡県,糸島市,有田中央２丁目７番２号,,40,230,8191127,,,,,,,2025-02-28,1,,,,,エムエスアール,0
1608,7290003016454,新規,0,2025-02-28,2025-02-28,合同会社Ｎｅｘｂｒｉｄｇｅ,,合同会社,福岡県,福岡市東区,香椎照葉６丁目４番１－３０３号,,40,131,8130017,,,,,,,2025-02-28,1,,,,,ネクスブリッジ,0
1612,7290801031308,新規,0,2025-02-28,2025-02-28,ＮＫＣ株式会社,,株式会社,福岡県,北九州市小倉南区,葛原高松１丁目６番７号,,40,107,8000252,,,,,,,2025-02-28,1,,,,,エヌケイシー,0
1616,7320001020966,新規,0,2025-02-28,2025-02-28,株式会社リペアフル,,株式会社,大分県,大分市,大字下郡１２６７番地の１９,,44,201,8700951,,,,,,,2025-02-28,1,,,,,リペアフル,0
1622,7330003010832,新規,0,2025-02-28,2025-02-28,ＩＭ２８号蓄電所合同会社,,合同会社,熊本県,球磨郡あさぎり町,深田西２３２６番地１６８,,43,514,8680444,,,,,,,2025-02-28,1,,,,,アイエムニジュウハチゴウチクデンショ,0
1623,7330003010840,新規,0,2025-02-28,2025-02-28,ＩＭ３６号蓄電所合同会社,,合同会社,熊本県,球磨郡あさぎり町,深田西２３２６番地１６８,,43,514,8680444,,,,,,,2025-02-28,1,,,,,アイエムサンジュウロクゴウチクデンショ,0
1629,7360001034839,新規,0,2025-02-28,2025-02-28,株式会社大城貴紀父子商会,,株式会社,沖縄県,中頭郡読谷村,字楚辺１０９８番地,,47,324,9040304,,,,,,,2025-02-28,1,,,,,オオシロタカノリフシショウカイ,0
1638,7390003002353,新規,0,2025-02-28,2025-02-28,合同会社吉光工業,,合同会社,山形県,南陽市,宮内２９５９番地の１,,06,213,9920472,,,,,,,2025-02-28,1,,,,,ヨシミツコウギョウ,0
1641,7420003003075,新規,0,2025-02-28,2025-02-28,ふれあいケアＯＦＮ合同会社,,合同会社,青森県,八戸市,南郷大字市野沢字黄檗１５番地１,,02,203,0310111,,,,,,,2025-02-28,1,,,,,フレアイケアオーエフエヌ,0
1648,7500001026160,新規,0,2025-02-28,2025-02-28,株式会社マモルバ,,株式会社,愛媛県,松山市,木屋町４丁目３５番地２,,38,201,7900821,,,,,,,2025-02-28,1,,,,,マモルバ,0
1649,7700150129339,新規,0,2025-02-28,2025-02-28,Ｒｉｄｅｓｔｏｒｅ　ＡＢ,,外国会社等,,,,,,,,Ｆｒｉｈａｍｎｅｎ　１６Ａ，Ｇｏｅｔｅｂｏｒｇ，Ｖａｓｔｒａ　Ｇｏｅｔａｌａｎｄ，４１７５５　Ｓｗｅｄｅｎ,,,,,,2025-02-28,1,,,,,ライドストアエービー,0
1654,8010001252607,新規,0,2025-02-28,2025-02-28,株式会社ＷＲＩＴＩＮＧ＆ＤＥＳＩＧＮ,,株式会社,東京都,中央区,佃２丁目１１番６号,,13,102,1040051,,,,,,,2025-02-28,1,,,,,ライティングアンドデザイン,0
1655,8010001252664,新規,0,2025-02-28,2025-02-28,株式会社Ｏｎｅ　Ａｃｒｅ　Ｓｈｏｒｔ　Ｄｒａｍａ,,株式会社,東京都,中央区,日本橋富沢町７番１６号ＴｈｅＧａｔｅ日本橋人形町７階,,13,102,1030006,,,,,,,2025-02-28,1,,,,,ワンエーカーショートドラマ,0
1656,8010001252672,新規,0,2025-02-28,2025-02-28,Ｔｅｉａ　Ｉ株式会社,,株式会社,東京都,千代田区,永田町２丁目１４番２号山王グランドビル３階スリーアイズキャピタル株式会社内,,13,101,1000014,,,,,,,2025-02-28,1,,,,,テイアワン,0
1657,8010001252730,新規,0,2025-02-28,2025-02-28,株式会社エドケン設計工房,,株式会社,東京都,中央区,銀座７丁目１５番８号タウンハイツ銀座４０６,,13,102,1040061,,,,,,,2025-02-28,1,,,,,エドケンセッケイコウボウ,0
1661,8010003046585,新規,0,2025-02-28,2025-02-28,オレガノ１３合同会社,,合同会社,東京都,千代田区,平河町１丁目６番１５号シルスフィア会計事務所内,,13,101,1020093,,,,,,,2025-02-28,1,,,,,オレガノサーティーン,0
1662,8010003046627,新規,0,2025-02-28,2025-02-28,合同会社ＲＩＳＯＤＡ,,合同会社,東京都,中央区,銀座１丁目２２番１１号銀座大竹ビジデンス２Ｆ,,13,102,1040061,,,,,,,2025-02-28,1,,,,,リソダ,0
1663,8010103002521,新規,0,2025-02-28,2025-02-28,ディエンパワー合同会社,,合同会社,東京都,八王子市,石川町２４７４番地１３,,13,201,1920032,,,,,,,2025-02-28,1,,,,,ディエンパワー,0
1667,8010401188343,新規,0,2025-02-28,2025-02-28,株式会社ＧＡマネジメント,,株式会社,東京都,港区,虎ノ門４丁目３－１城山トラストタワー２７階,,13,103,1050001,,,,,,,2025-02-28,1,,,,,ジーエマネジメント,0
1668,8010401188426,新規,0,2025-02-28,2025-02-28,株式会社ベルズ,,株式会社,東京都,港区,西新橋１丁目２１－１－５Ｆ,,13,103,1050003,,,,,,,2025-02-28,1,,,,,ベルズ,0
1669,8010401188500,新規,0,2025-02-28,2025-02-28,株式会社ＮＤホールディングス,,株式会社,東京都,港区,虎ノ門１丁目２３番１号ジャフコグループ株式会社内,,13,103,1050001,,,,,,,2025-02-28,1,,,,,エヌディーホールディングス,0
1670,8010401188517,新規,0,2025-02-28,2025-02-28,ビー・エックス・ジェイ・ディー・ワン・ホールディング株式会社,,株式会社,東京都,港区,虎ノ門５丁目１番４号,,13,103,1050001,,,,,,,2025-02-28,1,,,,,ビーエックスジェイディーワンホールディング,0
1671,8010401188624,新規,0,2025-02-28,2025-02-28,Ｃ＆Ｉシステムズ株式会社,,株式会社,東京都,港区,新橋２丁目２０－１５新橋駅前ビル１号館６０１号室,,13,103,1050004,,,,,,,2025-02-28,1,,,,,シーアンドアイシステムズ,0
1690,8010901056891,新規,0,2025-02-28,2025-02-28,株式会社Ｓｗｅｅｐ,,株式会社,東京都,世田谷区,野沢２丁目５番１号ダヤワルディ１０２,,13,112,1540003,,,,,,,2025-02-28,1,,,,,スイープ,0
1691,8010901056900,新規,0,2025-02-28,2025-02-28,株式会社激流,,株式会社,東京都,世田谷区,経堂１丁目７番９号第二小澤ビル２Ｆ,,13,112,1560052,,,,,,,2025-02-28,1,,,,,ゲキリュウ,0
1696,8011001168058,新規,0,2025-02-28,2025-02-28,株式会社ＢｌｕｅＯｒｂｉｔ,,株式会社,東京都,渋谷区,道玄坂１丁目１０番８号渋谷道玄坂東急ビル２Ｆ‐Ｃ,,13,113,1500043,,,,,,,2025-02-28,1,,,,,ブルーオービット,0
1697,8011001168066,新規,0,2025-02-28,2025-02-28,株式会社リトルアックスデザイン,,株式会社,東京都,渋谷区,東１丁目３１番１９－２０２号,,13,113,1500011,,,,,,,2025-02-28,1,,,,,リトルアックスデザイン,0
1698,8011001168074,新規,0,2025-02-28,2025-02-28,株式会社たつみ,,株式会社,東京都,渋谷区,幡ヶ谷３丁目６６番２号,,13,113,1510072,,,,,,,2025-02-28,1,,,,,タツミ,0
1704,8011003021041,新規,0,2025-02-28,2025-02-28,合同会社Ｗｉｌｄ　Ｐｌａｎｎｉｎｇ,,合同会社,東京都,渋谷区,恵比寿西２丁目４番８号ウィンド恵比寿ビル８Ｆ,,13,113,1500021,,,,,,,2025-02-28,1,,,,,ワイルドプランニング,0
1708,8011101110786,新規,0,2025-02-28,2025-02-28,株式会社オリオンエンターテインメント,,株式会社,東京都,新宿区,西新宿３丁目３番１３号西新宿水間ビル６階,,13,104,1600023,,,,,,,2025-02-28,1,,,,,オリオンエンターテインメント,0
1713,8011201026156,新規,0,2025-02-28,2025-02-28,株式会社Ｎｅｘｕｓ　Ｊａｐａｎ,,株式会社,東京都,中野区,東中野５丁目１番１号,,13,114,1640003,,,,,,,2025-02-28,1,,,,,ネクサスジャパン,0
1717,8011601028454,新規,0,2025-02-28,2025-02-28,勇幸株式会社,,株式会社,東京都,練馬区,豊玉北３丁目１５番３－４０３号,,13,120,1760012,,,,,,,2025-02-28,1,,,,,ユウコウ,0
1718,8011603004619,新規,0,2025-02-28,2025-02-28,合同会社ＴＦＣ,,合同会社,東京都,練馬区,氷川台４丁目４７番１８号,,13,120,1790084,,,,,,,2025-02-28,1,,,,,ティーエフシー,0
1725,8011801045712,新規,0,2025-02-28,2025-02-28,株式会社ゼラニウム,,株式会社,東京都,足立区,千住東２丁目５番５号ＮＳビル２階,,13,121,1200025,,,,,,,2025-02-28,1,,,,,ゼラニウム,0
1729,8012801023781,新規,0,2025-02-28,2025-02-28,株式会社ライフアップ,,株式会社,東京都,武蔵村山市,榎２丁目７６番地の９,,13,223,2080022,,,,,,,2025-02-28,1,,,,,ライフアップ,0
1738,8020001161468,新規,0,2025-02-28,2025-02-28,Ａｉｏｒａ株式会社,,株式会社,神奈川県,横浜市鶴見区,平安町２丁目１番地６１,,14,101,2300031,,,,,,,2025-02-28,1,,,,,アイオラ,0
1739,8020001161567,新規,0,2025-02-28,2025-02-28,株式会社ＪＣｄｏｔ,,株式会社,神奈川県,川崎市川崎区,小田栄２丁目１番５－１７１８号,,14,131,2100843,,,,,,,2025-02-28,1,,,,,ジェーシードット,0
1740,8020001161575,新規,0,2025-02-28,2025-02-28,株式会社石原工建,,株式会社,神奈川県,横浜市磯子区,岡村３丁目１４番３号,,14,107,2350021,,,,,,,2025-02-28,1,,,,,イシハラコウケン,0
1741,8020001161600,新規,0,2025-02-28,2025-02-28,株式会社Ｊトラスト,,株式会社,神奈川県,横浜市旭区,市沢町１４２番地６,,14,112,2410014,,,,,,,2025-02-28,1,,,,,ジェイトラスト,0
1742,8020001161609,新規,0,2025-02-28,2025-02-28,ｋｏｋｏｒｏｙａ　ｇｒｏｕｐ株式会社,,株式会社,神奈川県,横浜市中区,太田町６丁目７９番地,,14,104,2310011,,,,,,,2025-02-28,1,,,,,ココロヤグループ,0
1746,8020003027907,新規,0,2025-02-28,2025-02-28,Ｔ２合同会社,,合同会社,神奈川県,川崎市高津区,諏訪２丁目４番８号,,14,134,2130004,,,,,,,2025-02-28,1,,,,,ティーツー,0
1747,8020005016718,新規,0,2025-02-28,2025-02-28,一般財団法人ペルポラヴィパッシ記念財団,,その他の設立登記法人,神奈川県,横浜市西区,西戸部町３丁目２５２番地９,,14,103,2200046,,,,,,,2025-02-28,1,,,,,ペルポラヴィパッシキネンザイダン,0
1749,8021001084568,新規,0,2025-02-28,2025-02-28,ラティスワーク・キャピタル株式会社,,株式会社,神奈川県,小田原市,城山１丁目２４－２０,,14,206,2500045,,,,,,,2025-02-28,1,,,,,ラティスワークキャピタル,0
1751,8021003015645,新規,0,2025-02-28,2025-02-28,合同会社悠愛,,合同会社,神奈川県,座間市,ひばりが丘５丁目５１番７ー１０８ライネスハイムひばりが丘,,14,216,2520003,,,,,,,2025-02-28,1,,,,,ユウアイ,0
1757,8030001165063,新規,0,2025-02-28,2025-02-28,株式会社ＥＮＳＥＭＢＬＥ,,株式会社,埼玉県,八潮市,大字南川崎２９－１－５,,11,234,3400814,,,,,,,2025-02-28,1,,,,,アンサンブル,0
1758,8030001165071,新規,0,2025-02-28,2025-02-28,株式会社よつば工業,,株式会社,埼玉県,草加市,旭町２丁目１番２３号メイツ草加２０３号室,,11,221,3400053,,,,,,,2025-02-28,1,,,,,ヨツバコウギョウ,0
1759,8030001165138,新規,0,2025-02-28,2025-02-28,株式会社アラキ商事,,株式会社,埼玉県,加須市,正能１９番地１５－１０２,,11,210,3470107,,,,,,,2025-02-28,1,,,,,,0
1763,8030002092281,新規,0,2025-02-28,2025-02-28,有限会社木村板金工業,,有限会社,埼玉県,坂戸市,大字森戸１３３番地９,,11,239,3500244,,,,,,,2025-02-28,1,,,,,キムラバンキンコウギョウ,0
1765,8030005022054,新規,0,2025-02-28,2025-02-28,農事組合法人イシジマ産業,,その他の設立登記法人,埼玉県,加須市,東栄１丁目９－１８オフィス東栄Ａ,,11,210,3470064,,,,,,,2025-02-28,1,,,,,,0
1768,8040001137607,新規,0,2025-02-28,2025-02-28,株式会社Ｆｉｒｓｔ　Ｄｏｗｎ,,株式会社,千葉県,千葉市美浜区,真砂１丁目２番８－１２５号,,12,106,2610011,,,,,,,2025-02-28,1,,,,,ファーストダウン,0
1769,8040001137615,新規,0,2025-02-28,2025-02-28,株式会社アンソムニア,,株式会社,千葉県,四街道市,美しが丘３丁目７番１６号,,12,228,2840045,,,,,,,2025-02-28,1,,,,,アンソムニア,0
1770,8040003026980,新規,0,2025-02-28,2025-02-28,合同会社ＭＡＲＫＡＢ,,合同会社,千葉県,船橋市,前原西１丁目１７番２号レオパレスコニファー２０１号,,12,204,2740825,,,,,,,2025-02-28,1,,,,,マルカブ,0
1776,8050001056186,新規,0,2025-02-28,2025-02-28,株式会社ＢＯＩＺ,,株式会社,茨城県,土浦市,荒川本郷２１８－１４５,,08,203,3000877,,,,,,,2025-02-28,1,,,,,ボイジー,0
1777,8050001056236,新規,0,2025-02-28,2025-02-28,紫峰メディカル株式会社,,株式会社,茨城県,つくば市,吾妻２丁目５番地１,,08,220,3050031,,,,,,,2025-02-28,1,,,,,シホウメディカル,0
1779,8050003009043,新規,0,2025-02-28,2025-02-28,合同会社ククナ,,合同会社,茨城県,水戸市,河和田町１６０番地の３,,08,201,3114153,,,,,,,2025-02-28,1,,,,,ククナ,0
1785,8080001026772,新規,0,2025-02-28,2025-02-28,株式会社とこ十和,,株式会社,静岡県,牧之原市,中７３４番地,,22,226,4210403,,,,,,,2025-02-28,1,,,,,トコトワ,0
1788,8080401027767,新規,0,2025-02-28,2025-02-28,株式会社創希,,株式会社,静岡県,浜松市中央区,新津町２９５番地,,22,138,4300911,,,,,,,2025-02-28,1,,,,,ソウキ,0
1794,8120001273237,新規,0,2025-02-28,2025-02-28,有魚株式会社,,株式会社,大阪府,大阪市北区,黒崎町３番２６号キャッスルマンション１Ｂ,,27,127,5300023,,,,,,,2025-02-28,1,,,,,ユウギョ,0
1795,8120001273278,新規,0,2025-02-28,2025-02-28,株式会社いまここから,,株式会社,大阪府,大阪市住吉区,苅田５丁目１８－４ローズハイツ１階店舗にじいろ工房,,27,120,5580011,,,,,,,2025-02-28,1,,,,,イマココカラ,0
1796,8120001273311,新規,0,2025-02-28,2025-02-28,株式会社河東,,株式会社,大阪府,大阪市生野区,桃谷３丁目１０番８号,,27,116,5440034,,,,,,,2025-02-28,1,,,,,ハドン,0
1799,8120003028746,新規,0,2025-02-28,2025-02-28,合同会社スウィートアップ,,合同会社,大阪府,大阪市平野区,長吉長原２丁目１１番８号,,27,126,5470016,,,,,,,2025-02-28,1,,,,,スウィートアップ,0
1801,8120005024818,新規,0,2025-02-28,2025-02-28,特定非営利活動法人青い空,,その他の設立登記法人,大阪府,大阪市平野区,西脇１丁目２１番１５号,,27,126,5470035,,,,,,,2025-02-28,1,,,,,アオイソラ,0
1802,8120101071152,新規,0,2025-02-28,2025-02-28,株式会社ＥＣＳ　Ｃｏｒｐｏｒａｔｉｏｎ,,株式会社,大阪府,堺市堺区,北庄町３丁２番２０号,,27,141,5900007,,,,,,,2025-02-28,1,,,,,イーシーエスコーポレーション,0
1803,8120101071160,新規,0,2025-02-28,2025-02-28,株式会社グリー,,株式会社,大阪府,貝塚市,堤８５番地２,,27,208,5970054,,,,,,,2025-02-28,1,,,,,グリー,0
1804,8120105009974,新規,0,2025-02-28,2025-02-28,一般社団法人大阪モンゴル親善協会,,その他の設立登記法人,大阪府,岸和田市,新港町１０番地の９,,27,202,5960012,,,,,,,2025-02-28,1,,,,,オオサカモンゴルシンゼンキョウカイ,0
1805,8120901050520,新規,0,2025-02-28,2025-02-28,株式会社Ｔｏｍ’ｓ　Ｅｓｔａｔｅ　Ｐａｒｔｎｅｒｓ,,株式会社,大阪府,豊中市,玉井町２丁目９番２９号,,27,203,5600026,,,,,,,2025-02-28,1,,,,,トムズエステートパートナーズ,0
1812,8130003010240,新規,0,2025-02-28,2025-02-28,１３テーブルウェア合同会社,,合同会社,京都府,城陽市,平川大将軍２３番地１７,,26,207,6100101,,,,,,,2025-02-28,1,,,,,イチサンテーブルウェア,0
1817,8140001137514,新規,0,2025-02-28,2025-02-28,株式会社ＹＯＳＣＩＩ,,株式会社,兵庫県,西宮市,松生町１８番２４－３０２号,,28,204,6620076,,,,,,,2025-02-28,1,,,,,ヨスキー,0
1818,8140001137522,新規,0,2025-02-28,2025-02-28,株式会社Ｂｅａｕｔｙ　Ｔｒｅｅ,,株式会社,兵庫県,高砂市,神爪１丁目１０番３号宝殿マンション１Ｆ,,28,216,6760808,,,,,,,2025-02-28,1,,,,,ビューティーツリー,0
1821,8140003021682,新規,0,2025-02-28,2025-02-28,合同会社ＨａＲｕ,,合同会社,兵庫県,宝塚市,山手台西４丁目２１番６号,,28,214,6650886,,,,,,,2025-02-28,1,,,,,ハル,0
1823,8150003003515,新規,0,2025-02-28,2025-02-28,合同会社ＪＵＩＣＹ,,合同会社,奈良県,大和高田市,大字大谷４５４番地１２,,29,202,6350076,,,,,,,2025-02-28,1,,,,,ジェシー,0
1831,8180001165627,新規,0,2025-02-28,2025-02-28,株式会社ジョイントワークス,,株式会社,愛知県,名古屋市東区,芳野１丁目７番２３号,,23,102,4610027,,,,,,,2025-02-28,1,,,,,ジョイントワークス,0
1832,8180001165635,新規,0,2025-02-28,2025-02-28,株式会社Ｍ＆Ｓフーズ,,株式会社,愛知県,あま市,下萱津坪井９番地,,23,237,4901114,,,,,,,2025-02-28,1,,,,,エムアンドエスフーズ,0
1833,8180001165651,新規,0,2025-02-28,2025-02-28,株式会社ナレッジサポート,,株式会社,愛知県,名古屋市中村区,名駅４丁目２４番５号第２森ビル４０１,,23,105,4500002,,,,,,,2025-02-28,1,,,,,ナレッジサポート,0
1836,8180003028030,新規,0,2025-02-28,2025-02-28,大地合同会社,,合同会社,愛知県,あま市,甚目寺山王５６番地３,,23,237,4901111,,,,,,,2025-02-28,1,,,,,ダイチ,0
1841,8180305009661,新規,0,2025-02-28,2025-02-28,農事組合法人柳沢農園,,その他の設立登記法人,愛知県,豊橋市,内張町２－３－１１６オフィス重本Ｅ室,,23,201,4418147,,,,,,,2025-02-28,1,,,,,ヤナギサワノウエン,0
1845,8200001043466,新規,0,2025-02-28,2025-02-28,株式会社ＭＥＧＡ　ＡＳＩＡ　ＪＡＰＡＮ,,株式会社,岐阜県,各務原市,那加緑町２丁目１６番地,,21,213,5040944,,,,,,,2025-02-28,1,,,,,メガアジアジャパン,0
1846,8200001043482,新規,0,2025-02-28,2025-02-28,株式会社カナリア,,株式会社,岐阜県,安八郡神戸町,大字神戸１５６８番地の１,,21,381,5032305,,,,,,,2025-02-28,1,,,,,カナリア,0
1847,8200003006710,新規,0,2025-02-28,2025-02-28,輝隆合同会社,,合同会社,岐阜県,岐阜市,水海道２丁目９番１７－１号,,21,201,5008223,,,,,,,2025-02-28,1,,,,,リュウキ,0
1849,8210001020076,新規,0,2025-02-28,2025-02-28,株式会社むげん,,株式会社,福井県,福井市,大和田２丁目２０２番地ｏｐｍビル１０４,,18,201,9100836,,,,,,,2025-02-28,1,,,,,ムゲン,0
1858,8240001064566,新規,0,2025-02-28,2025-02-28,株式会社ローズ開発,,株式会社,広島県,呉市,本通３丁目２番１０号,,34,202,7370045,,,,,,,2025-02-28,1,,,,,,0
1859,8240001064582,新規,0,2025-02-28,2025-02-28,ＳＴＳ株式会社,,株式会社,広島県,広島市安芸区,船越南４丁目５番１８号,,34,107,7360082,,,,,,,2025-02-28,1,,,,,エスティエス,0
1866,8290001109127,新規,0,2025-02-28,2025-02-28,桜ｉｔｏ株式会社,,株式会社,福岡県,福岡市東区,香椎１丁目７番４１号,,40,131,8130011,,,,,,,2025-02-28,1,,,,,サクライト,0
1871,8330001032927,新規,0,2025-02-28,2025-02-28,株式会社清水冷熱,,株式会社,熊本県,熊本市南区,土河原町３９番地,,43,104,8615252,,,,,,,2025-02-28,1,,,,,シミズレイネツ,0
1873,8330003010831,新規,0,2025-02-28,2025-02-28,ＩＭ２７号蓄電所合同会社,,合同会社,熊本県,球磨郡あさぎり町,深田西２３２６番地１６８,,43,514,8680444,,,,,,,2025-02-28,1,,,,,アイエムニジュウナナゴウチクデンショ,0
1875,8340003004758,新規,0,2025-02-28,2025-02-28,ＩＴ・ＣＲＥＷ合同会社,,合同会社,鹿児島県,鹿児島市,皆与志町４２０７番地４,,46,201,8911206,,,,,,,2025-02-28,1,,,,,アイティクルー,0
1876,8340005009821,新規,0,2025-02-28,2025-02-28,特定非営利活動法人インポータント,,その他の設立登記法人,鹿児島県,鹿児島市,桜ヶ丘８丁目２０番８号,,46,201,8900075,,,,,,,2025-02-28,1,,,,,インポータント,0
1889,8390003002352,新規,0,2025-02-28,2025-02-28,合同会社エンドウグループ,,合同会社,山形県,寒河江市,大字寒河江字鶴田２番地の２,,06,206,9910041,,,,,,,2025-02-28,1,,,,,エンドウグループ,0
1907,8700150129338,新規,0,2025-02-28,2025-02-28,ＷＡＴＴＥＧＡＭＡ　ＡＵＴＯＭＯＢＩＬＥ　ＳＰＡＲＥＳ　ＰＶＴ　ＬＴＤ,,外国会社等,千葉県,山武市,白幡２７３６番地１オフィス５,,12,237,2891306,スリランカ民主社会主義共和国、キャンディ、ワッテガマ、マタレロード、Ｎｏ．２３４,,,,,,2025-02-28,1,,,,,ワツテガマオートモバイルスペアズプライベートリミテツド,0
1915,9010001252606,新規,0,2025-02-28,2025-02-28,株式会社サプルホールディングス,,株式会社,東京都,千代田区,飯田橋１丁目１２番１５号,,13,101,1020072,,,,,,,2025-02-28,1,,,,,サプルホールディングス,0
1916,9010001252696,新規,0,2025-02-28,2025-02-28,株式会社緑辰将,,株式会社,東京都,中央区,銀座６丁目５番１２号新堀ギタービル１０階,,13,102,1040061,,,,,,,2025-02-28,1,,,,,ロクシンショウ,0
1920,9010003046551,新規,0,2025-02-28,2025-02-28,合同会社ｍＯＮプラス,,合同会社,東京都,文京区,向丘１丁目７番７号,,13,105,1130023,,,,,,,2025-02-28,1,,,,,ミリオンプラス,0
1921,9010003046584,新規,0,2025-02-28,2025-02-28,鳥栖産業施設合同会社,,合同会社,東京都,千代田区,平河町１丁目６番１５号シルスフィア会計事務所内,,13,101,1020093,,,,,,,2025-02-28,1,,,,,トスサンギョウシセツ,0
1923,9010005039652,新規,0,2025-02-28,2025-02-28,一般社団法人リエネみどりファーム,,その他の設立登記法人,東京都,中央区,京橋２丁目１２番６号ＡＯＪ税理士法人内,,13,102,1040031,,,,,,,2025-02-28,1,,,,,リエネミドリファーム,0
1931,9010401188482,新規,0,2025-02-28,2025-02-28,株式会社インバウンド・バズ,,株式会社,東京都,港区,虎ノ門４丁目１番１３号,,13,103,1050001,,,,,,,2025-02-28,1,,,,,,0
1932,9010401188516,新規,0,2025-02-28,2025-02-28,Ｕｎｄｅｆｉｎｅｄ　Ｉｓｌａｎｄｓ株式会社,,株式会社,東京都,港区,北青山１丁目３－３三橋ビル３階,,13,103,1070061,,,,,,,2025-02-28,1,,,,,アンディファインドアイランズ,0
1935,9010403034461,新規,0,2025-02-28,2025-02-28,合同会社ＫＮＬ,,合同会社,東京都,港区,北青山１丁目３－３三橋ビル３階,,13,103,1070061,,,,,,,2025-02-28,1,,,,,ケーエヌエル,0
1939,9010703007596,新規,0,2025-02-28,2025-02-28,合同会社ｍｅｍｏｒｙ　ｃｈａｍ,,合同会社,東京都,品川区,北品川３丁目４番３号ジョイヴィレッジ御殿山４１０,,13,109,1400001,,,,,,,2025-02-28,1,,,,,メモリーチャム,0
1941,9010901003315,新規,0,2025-02-28,2025-02-28,株式会社キリエラ企画,,株式会社,東京都,世田谷区,代沢４丁目３３番７号,,13,112,1550032,,,,,,,2025-02-28,1,,,,,,0
1947,9010901056890,新規,0,2025-02-28,2025-02-28,株式会社Ｂｌｕｅｎｄｌｅｓｓ,,株式会社,東京都,世田谷区,瀬田３丁目１－８ラポール上野毛７０４,,13,112,1580095,,,,,,,2025-02-28,1,,,,,ブルーエンドレス,0
1948,9010901056899,新規,0,2025-02-28,2025-02-28,兵コンサルティングサービス株式会社,,株式会社,東京都,世田谷区,代沢４丁目２４番１０－１０１号,,13,112,1550032,,,,,,,2025-02-28,1,,,,,ツワモノコンサルティングサービス,0
1950,9011001167892,新規,0,2025-02-28,2025-02-28,ワインアドベンチャー株式会社,,株式会社,東京都,渋谷区,宇田川町６番２０号,,13,113,1500042,,,,,,,2025-02-28,1,,,,,ワインアドベンチャー,0
1951,9011001167991,新規,0,2025-02-28,2025-02-28,株式会社Ｊｏｂ　Ｂｒｉｄｇｅ,,株式会社,東京都,渋谷区,恵比寿西２丁目８番４号ＥＸ恵比寿西ビル５階,,13,113,1500021,,,,,,,2025-02-28,1,,,,,ジョブブリッジ,0
1957,9011003021065,新規,0,2025-02-28,2025-02-28,合同会社ぴえにん,,合同会社,東京都,目黒区,自由が丘２丁目１６番１２号ＲＪ３,,13,110,1520035,,,,,,,2025-02-28,1,,,,,ピエニン,0
1963,9011201026155,新規,0,2025-02-28,2025-02-28,聖地陽光株式会社,,株式会社,東京都,中野区,中央４丁目１番３号ボニータ新中野ビル８０５,,13,114,1640011,,,,,,,2025-02-28,1,,,,,セイチヨウコウ,0
1964,9011301030387,新規,0,2025-02-28,2025-02-28,依泓国際実業株式会社,,株式会社,東京都,杉並区,梅里２丁目２５番１３号高円寺プラザ２０２号－Ｅ室,,13,115,1660011,,,,,,,2025-02-28,1,,,,,イオウコクサイジツギョウ,0
1968,9011603004618,新規,0,2025-02-28,2025-02-28,合同会社ＴＦＡ,,合同会社,東京都,練馬区,氷川台４丁目４７番１８号,,13,120,1790084,,,,,,,2025-02-28,1,,,,,ティーエフエー,0
1970,9011701028097,新規,0,2025-02-28,2025-02-28,ａｓｈｉａ株式会社,,株式会社,東京都,江戸川区,西小岩５丁目１３－１３小出マンション１１８号室,,13,123,1330057,,,,,,,2025-02-28,1,,,,,アシア,0
1971,9011701028106,新規,0,2025-02-28,2025-02-28,株式会社サムレア,,株式会社,東京都,江戸川区,北小岩６丁目５２番４号旭コーポ２０１,,13,123,1330051,,,,,,,2025-02-28,1,,,,,サムレア,0
1974,9012401042801,新規,0,2025-02-28,2025-02-28,きなこもち株式会社,,株式会社,東京都,武蔵野市,吉祥寺本町１丁目２２－５－６０２,,13,203,1800004,,,,,,,2025-02-28,1,,,,,キナコモチ,0
1975,9012403006985,新規,0,2025-02-28,2025-02-28,合同会社ＵｎｉｔｙＳｐｒｏｕｔ,,合同会社,東京都,三鷹市,下連雀７丁目６番３４－２０１号,,13,204,1810013,,,,,,,2025-02-28,1,,,,,ユニティスプラウト,0
1981,9012801023780,新規,0,2025-02-28,2025-02-28,株式会社アーキテクツヒナタ,,株式会社,東京都,立川市,上砂町５丁目７２番地の３ハイホーム立川８０３号,,13,202,1900032,,,,,,,2025-02-28,1,,,,,アーキテクツヒナタ,0
1989,9020001161434,新規,0,2025-02-28,2025-02-28,株式会社コーエーテクモコーポレートファイナンス,,株式会社,神奈川県,横浜市港北区,箕輪町１丁目１８番１２号,,14,109,2230051,,,,,,,2025-02-28,1,,,,,コーエーテクモコーポレートファイナンス,0
1990,9020001161475,新規,0,2025-02-28,2025-02-28,睿億吉株式会社,,株式会社,神奈川県,川崎市高津区,東野川２丁目２８－１,,14,134,2130029,,,,,,,2025-02-28,1,,,,,エイオクヨシ,0
1991,9020001161574,新規,0,2025-02-28,2025-02-28,首山産業株式会社,,株式会社,神奈川県,横浜市中区,曙町３丁目３２番地１０,,14,104,2310057,,,,,,,2025-02-28,1,,,,,シュサンサンギョウ,0
1992,9020001161608,新規,0,2025-02-28,2025-02-28,株式会社セブンスリーリンクス,,株式会社,神奈川県,横浜市中区,山下町１３７番地２２,,14,104,2310023,,,,,,,2025-02-28,1,,,,,セブンスリーリンクス,0
1993,9020001161624,新規,0,2025-02-28,2025-02-28,株式会社大平ラボ,,株式会社,神奈川県,川崎市多摩区,三田１丁目２８番地３８,,14,135,2140034,,,,,,,2025-02-28,1,,,,,オオヒララボ,0
1998,9021001084559,新規,0,2025-02-28,2025-02-28,ＷｉｎＷｉｎ株式会社,,株式会社,神奈川県,相模原市南区,磯部４４２０番地６,,14,153,2520327,,,,,,,2025-02-28,1,,,,,ウインウイン,0
1999,9021003015644,新規,0,2025-02-28,2025-02-28,合同会社ＡＴＥＬＩＥＲＯＲＣＡ,,合同会社,神奈川県,横須賀市,西逸見町３丁目９６－２,,14,201,2380046,,,,,,,2025-02-28,1,,,,,アトリエオルカ,0
2008,9030001165070,新規,0,2025-02-28,2025-02-28,Ａｏｙａｍａ商事株式会社,,株式会社,埼玉県,蕨市,南町３丁目５番９号２０１号,,11,223,3350003,,,,,,,2025-02-28,1,,,,,アオヤマショウジ,0
2009,9030001165079,新規,0,2025-02-28,2025-02-28,株式会社ムスブエステート,,株式会社,埼玉県,越谷市,レイクタウン１丁目２６番地２,,11,222,3430828,,,,,,,2025-02-28,1,,,,,ムスブエステート,0
2013,9030003026238,新規,0,2025-02-28,2025-02-28,高泉合同会社,,合同会社,埼玉県,川口市,芝富士１丁目９番２４号,,11,203,3330854,,,,,,,2025-02-28,1,,,,,タカイズミ,0
2014,9030005022053,新規,0,2025-02-28,2025-02-28,農事組合法人Ｋ’ｓ,,その他の設立登記法人,埼玉県,加須市,東栄１丁目９－１８オフィス東栄Ｃ,,11,210,3470064,,,,,,,2025-02-28,1,,,,,,0
2018,9040001137564,新規,0,2025-02-28,2025-02-28,株式会社三代川,,株式会社,千葉県,浦安市,弁天４丁目１８番９号,,12,227,2790026,,,,,,,2025-02-28,1,,,,,ミヨカワ,0
2024,9040003026963,新規,0,2025-02-28,2025-02-28,合同会社きなり,,合同会社,千葉県,銚子市,本城町４丁目３９３―１,,12,202,2880831,,,,,,,2025-02-28,1,,,,,キナリ,0
2029,9060001037960,新規,0,2025-02-28,2025-02-28,慶理建築設計株式会社,,株式会社,栃木県,芳賀郡茂木町,大字町田１１７７番５,,09,343,3213556,,,,,,,2025-02-28,1,,,,,キョウリケンチクセッケイ,0
2032,9080401027766,新規,0,2025-02-28,2025-02-28,株式会社ＳＭＴ,,株式会社,静岡県,浜松市中央区,三島町１０６０番地の１,,22,138,4300853,,,,,,,2025-02-28,1,,,,,エスエムティ,0
2033,9080403005209,新規,0,2025-02-28,2025-02-28,プランＢｅ合同会社,,合同会社,静岡県,袋井市,山崎５７０４番地の１,,22,216,4371311,,,,,,,2025-02-28,1,,,,,プランビー,0
2037,9100003008014,新規,0,2025-02-28,2025-02-28,合同会社ＢＯＵＮＣＥ　ＦＯＵＲ,,合同会社,長野県,北佐久郡軽井沢町,大字長倉３２０８番地,,20,321,3890111,,,,,,,2025-02-28,1,,,,,バウンスフォー,0
2038,9100005013301,新規,0,2025-02-28,2025-02-28,一般社団法人療育教育支援センター,,その他の設立登記法人,長野県,安曇野市,豊科高家２５２６番地１,,20,220,3998204,,,,,,,2025-02-28,1,,,,,リョウイクキョウイクシエンセンター,0
2047,9120001273137,新規,0,2025-02-28,2025-02-28,葡萄樹株式会社,,株式会社,大阪府,大阪市港区,八幡屋２丁目１４番１１号２階,,27,107,5520014,,,,,,,2025-02-28,1,,,,,ブドウジュ,0
2048,9120001273236,新規,0,2025-02-28,2025-02-28,株式会社ＬＡＳＥＥＤ,,株式会社,大阪府,大阪市中央区,難波４丁目１番１５号近鉄難波ビル２Ｆ,,27,128,5420076,,,,,,,2025-02-28,1,,,,,ラシード,0
2049,9120001273319,新規,0,2025-02-28,2025-02-28,秦貿易株式会社,,株式会社,大阪府,大阪市中央区,南船場３丁目１番１６号５Ｆ３,,27,128,5420081,,,,,,,2025-02-28,1,,,,,シンボウエキ,0
2050,9120001273368,新規,0,2025-02-28,2025-02-28,サポートメイト株式会社,,株式会社,大阪府,大阪市北区,梅田１丁目２‐２大阪駅前第２ビル１２‐１２,,27,127,5300001,,,,,,,2025-02-28,1,,,,,サポートメイト,0
2053,9120003028720,新規,0,2025-02-28,2025-02-28,合同会社トパーズグループ,,合同会社,大阪府,大阪市中央区,伏見町３丁目１番１－３２０４号,,27,128,5410044,,,,,,,2025-02-28,1,,,,,トパーズグループ,0
2054,9120003028729,新規,0,2025-02-28,2025-02-28,合同会社フェリック,,合同会社,大阪府,大阪市東淀川区,淡路４丁目７－２１,,27,114,5330032,,,,,,,2025-02-28,1,,,,,フェリック,0
2055,9120003028761,新規,0,2025-02-28,2025-02-28,合同会社ＰＩＶＯＴ,,合同会社,大阪府,大阪市東淀川区,豊新１丁目１９－４－１０２,,27,114,5330014,,,,,,,2025-02-28,1,,,,,ピボット,0
2056,9120005024817,新規,0,2025-02-28,2025-02-28,一般社団法人つなぐチカラ,,その他の設立登記法人,大阪府,大阪市東淀川区,大桐４丁目１－７９,,27,114,5330011,,,,,,,2025-02-28,1,,,,,ツナグチカラ,0
2057,9120101071151,新規,0,2025-02-28,2025-02-28,株式会社東利,,株式会社,大阪府,堺市堺区,柏木町４丁２番２２号オーク柏木５０１,,27,141,5900837,,,,,,,2025-02-28,1,,,,,トウリ,0
2060,9120901050511,新規,0,2025-02-28,2025-02-28,株式会社はなさく住まいる,,株式会社,大阪府,池田市,井口堂１丁目６番１９号,,27,204,5630023,,,,,,,2025-02-28,1,,,,,ハナサクスマイル,0
2068,9130001079070,新規,0,2025-02-28,2025-02-28,株式会社Ｄ’ｓ　Ｓｙｎｅｒｇｙ,,株式会社,京都府,亀岡市,東別院町鎌倉見立１９番地２７９,,26,206,6210114,,,,,,,2025-02-28,1,,,,,ディーズシナジー,0
2073,9130003010231,新規,0,2025-02-28,2025-02-28,合同会社ＫＥＮＳＴＯＵＲＳ,,合同会社,京都府,京都市東山区,山崎町３５１－１,,26,105,6050841,,,,,,,2025-02-28,1,,,,,ケンズツアーズ,0
2085,9140005027388,新規,0,2025-02-28,2025-02-28,一般社団法人エッセンスオブケア,,その他の設立登記法人,兵庫県,神戸市中央区,熊内町４丁目１１番１６号ライオンズマンション新神戸２０４号,,28,110,6510056,,,,,,,2025-02-28,1,,,,,エッセンスオブケア,0
2087,9150001027911,新規,0,2025-02-28,2025-02-28,丸洋食品工業株式会社,,株式会社,奈良県,北葛城郡河合町,高塚台３丁目７番地１４,00138158,29,427,6360071,,,,,,,2025-02-28,1,,,,,マルヒロショクヒンコウギョウ,0
2094,9180001165618,新規,0,2025-02-28,2025-02-28,株式会社Ｎｅｘｔ　Ｉｎｎｏｖａｔｉｏｎ,,株式会社,愛知県,稲沢市,清水郷西町１３９番地,,23,220,4928315,,,,,,,2025-02-28,1,,,,,ネクストイノベーション,0
2098,9180003028046,新規,0,2025-02-28,2025-02-28,合同会社セナピ,,合同会社,愛知県,稲沢市,一色市場町４５,,23,220,4928356,,,,,,,2025-02-28,1,,,,,セナピ,0
2103,9180301039554,新規,0,2025-02-28,2025-02-28,ＡＳＭＥＡ　ＴＲＡＤＥＲＳ株式会社,,株式会社,愛知県,知立市,昭和１丁目１２番地６,,23,225,4720011,,,,,,,2025-02-28,1,,,,,アスミアトレーダーズ,0
2104,9180301039562,新規,0,2025-02-28,2025-02-28,株式会社みらいび,,株式会社,愛知県,北設楽郡設楽町,津具字上古町２８－２,,23,561,4412601,,,,,,,2025-02-28,1,,,,,ミライビ,0
2105,9180305009660,新規,0,2025-02-28,2025-02-28,農事組合法人アグリ川崎,00138170,その他の設立登記法人,愛知県,豊橋市,内張町２－３－１１６オフィス重本Ｆ室,,23,201,4418147,,,,,,,2025-02-28,1,,,,,アグリカワサキ,0
2107,9200001043473,新規,0,2025-02-28,2025-02-28,株式会社イクマ,,株式会社,岐阜県,土岐市,妻木町２０６４番地の５,,21,212,5095301,,,,,,,2025-02-28,1,,,,,イクマ,0
2108,9200001043481,新規,0,2025-02-28,2025-02-28,株式会社ｅ‐ＴＲＹ,,株式会社,岐阜県,岐阜市,宇佐南４丁目１６番２１号,,21,201,5008367,,,,,,,2025-02-28,1,,,,,イートライ,0
2109,9210005010188,新規,0,2025-02-28,2025-02-28,一般財団法人福井県社会福祉事業者共済財団,,その他の設立登記法人,福井県,福井市,光陽２丁目３番２２号,,18,201,9100026,,,,,,,2025-02-28,1,,,,,フクイケンシャカイフクシジギョウシャキョウサイザイダン,0
2113,9240001064581,新規,0,2025-02-28,2025-02-28,株式会社Ｏｃｅａｎｉｃｓ　Ｊａｐａｎ,,株式会社,広島県,東広島市,鏡山１丁目４番４号,,34,212,7390046,,,,,,,2025-02-28,1,,,,,オセアニクスジャパン,0
2118,9250001021020,新規,0,2025-02-28,2025-02-28,株式会社ＨＯＭＥ　Ｒｅｂｏｒｎ,,株式会社,山口県,山口市,宮野上１１３４番地１,,35,203,7530001,,,,,,,2025-02-28,1,,,,,ホームリボーン,0
2123,9290001109118,新規,0,2025-02-28,2025-02-28,株式会社ＡＩ’ｍ　Ｆｏｒ　Ｔｈｅ　Ｆｕｔｕｒｅ,,株式会社,福岡県,福岡市博多区,博多駅前２丁目３番２３号明治安田第３ビル７Ｆ,,40,132,8120011,,,,,,,2025-02-28,1,,,,,エイムフォーザフューチャー,0
2124,9290001109126,新規,0,2025-02-28,2025-02-28,株式会社アスリーピア,,株式会社,福岡県,福岡市博多区,博多駅前２丁目１０番１２号ハイラーク博多駅前７１１,,40,132,8120011,,,,,,,2025-02-28,1,,,,,アスリーピア,0
2132,9310001019470,新規,0,2025-02-28,2025-02-28,陸王株式会社,,株式会社,長崎県,佐世保市,小野町１４２３番地,,42,202,8580965,,,,,,,2025-02-28,1,,,,,リクオウ,0
2133,9330001032926,新規,0,2025-02-28,2025-02-28,株式会社工務店Ｌｉｂｅｒｏ,,株式会社,熊本県,球磨郡あさぎり町,免田東２８２０番地１２４,,43,514,8680408,,,,,,,2025-02-28,1,,,,,コウムテンリベロ,0
2135,9330003010830,新規,0,2025-02-28,2025-02-28,ＩＭ２６号蓄電所合同会社,,合同会社,熊本県,球磨郡あさぎり町,深田西２３２６番地１６８,,43,514,8680444,,,,,,,2025-02-28,1,,,,,アイエムニジュウロクゴウチクデンショ,0
2136,9330003010839,新規,0,2025-02-28,2025-02-28,ＩＭ３５号蓄電所合同会社,,合同会社,熊本県,球磨郡あさぎり町,深田西２３２６番地１６８,,43,514,8680444,,,,,,,2025-02-28,1,,,,,アイエムサンジュウゴゴウチクデンショ,0
2141,9340001027140,新規,0,2025-02-28,2025-02-28,鶴洋工業株式会社,,株式会社,鹿児島県,鹿児島市,紫原３丁目３２番３号,,46,201,8900082,,,,,,,2025-02-28,1,,,,,カクヨウコウギョウ,0
2143,9350005006288,新規,0,2025-02-28,2025-02-28,一般社団法人ツノスポーツアカデミー,,その他の設立登記法人,宮崎県,児湯郡都農町,大字川北１１４２番地１,,45,406,8891201,,,,,,,2025-02-28,1,,,,,ツノスポーツアカデミー,0
2150,9400001016946,新規,0,2025-02-28,2025-02-28,株式会社サンブレラ８,,株式会社,岩手県,盛岡市,本宮６丁目１番８－１４０１号,,03,201,0200866,,,,,,,2025-02-28,1,,,,,サンブレラエイト,0
2157,9470003002822,新規,0,2025-02-28,2025-02-28,合同会社ＡＳＫ,,合同会社,香川県,高松市,古馬場町１３番地１９アーバン会館４Ｆ,,37,201,7600045,,,,,,,2025-02-28,1,,,,,,0
2158,9490005006976,新規,0,2025-02-28,2025-02-28,一般社団法人Ｅｎ高知,,その他の設立登記法人,高知県,高知市,朝倉本町１丁目１３番２９号,,39,201,7808073,,,,,,,2025-02-28,1,,,,,,0
2160,9700150129337,新規,0,2025-02-28,2025-02-28,ＰＡＮＣＨＩＫＡＷＡＴＨＴＨＡ　ＡＵＴＯＭＯＢＩＬＥ　ＰＶＴ　ＬＴＤ,,外国会社等,千葉県,山武市,白幡２７３６番地１オフィス４,,12,237,2891306,スリランカ民主社会主義共和国、コロンボ１、パンチカワスタロード、Ｎｏ．１７１,,,,,,2025-02-28,1,,,,,パンチカワスタオートモバイルプライベートリミテツド,0
