sequenceNumber,corporateNumber,process,correct,updateDate,changeDate,name,nameImageId,kind,prefectureName,cityName,streetNumber,addressImageId,prefectureCode,cityCode,postCode,addressOutside,addressOutsideImageId,closeDate,closeCause,successorCorporateNumber,changeCause,assignmentDate,latest,enName,enPrefectureName,enCityName,enAddressOutside,furigana,hihyoji
25,1010501033711,登記記録の閉鎖等,0,2023-06-15,2023-06-12,株式会社ケーズカンパニー,,株式会社,東京都,足立区,中央本町２丁目１番１３号,,13,121,1200011,,,2023-06-12,清算の結了等,,,2015-10-05,1,,,,,ケーズカンパニー,0
31,1010705002099,登記記録の閉鎖等,0,2023-06-15,2023-06-13,一般財団法人船井財団,,その他の設立登記法人,東京都,品川区,西五反田６丁目１２番１号,,13,109,1410031,,,2023-06-13,清算の結了等,,,2015-10-05,1,,,,,フナイザイダン,0
34,1010803004204,登記記録の閉鎖等,0,2023-06-15,2023-06-06,合同会社森貿易,,合同会社,東京都,大田区,南馬込５丁目５－１１,,13,111,1430025,,,2023-06-06,清算の結了等,,,2022-06-10,1,,,,,モリボウエキ,0
44,1011001131996,登記記録の閉鎖等,0,2023-06-15,2023-06-08,株式会社デバンサー,,株式会社,東京都,目黒区,柿の木坂２丁目１５－８,,13,110,1520022,,,2023-06-08,清算の結了等,,,2020-01-24,1,,,,,デバンサー,0
48,1011005009041,登記記録の閉鎖等,0,2023-06-15,2023-06-08,一般社団法人魔女スクール協会,,その他の設立登記法人,東京都,渋谷区,松濤１丁目２８番２号,,13,113,1500046,,,2023-06-08,清算の結了等,,,2021-05-24,1,,,,,マジョスクールキョウカイ,0
61,1011202001932,登記記録の閉鎖等,0,2023-06-15,2023-06-12,有限会社Ｔｏｋｙｏ会計サポート,,有限会社,東京都,杉並区,堀ノ内２丁目１６番２０号,,13,115,1660013,,,2023-06-12,清算の結了等,,,2015-10-05,1,,,,,トウキョウカイケイサポート,0
62,1011205001459,登記記録の閉鎖等,0,2023-06-15,2023-06-15,特定非営利活動法人ビーヴ,,その他の設立登記法人,東京都,中野区,野方１丁目５番１７号中野ダイヤハイツ１０８号,,13,114,1650027,,,2023-06-15,清算の結了等,,,2015-10-05,1,,,,,ビーヴ,0
93,1040002002907,登記記録の閉鎖等,0,2023-06-15,2023-05-31,有限会社カネゲン,,有限会社,千葉県,千葉市美浜区,新港２０２番地,,12,106,2610002,,,2023-05-31,清算の結了等,,,2015-10-05,1,,,,,カネゲン,0
96,1050003005940,登記記録の閉鎖等,0,2023-06-15,2023-06-05,合同会社ＦＮＧ,,合同会社,茨城県,守谷市,百合ケ丘１丁目２３５４番地の１４４,,08,224,3020110,,,2023-06-05,清算の結了等,,,2021-06-24,1,,,,,エフエヌジー,0
114,1120001114827,登記記録の閉鎖等,0,2023-06-15,2023-06-13,株式会社キャドオフィス・ケイ,,株式会社,大阪府,大阪市中央区,安堂寺町２丁目２番２４号ニッシンビル３０３,,27,128,5420061,,,2023-06-13,清算の結了等,,,2015-10-05,1,,,,,キャドオフィスケイ,0
123,1120001192773,登記記録の閉鎖等,0,2023-06-15,2023-06-13,株式会社ブルーウインド,,株式会社,大阪府,大阪市北区,万歳町３番３９－１９０６号,,27,127,5300028,,,2023-06-13,清算の結了等,,,2015-10-05,1,,,,,ブルーウインド,0
138,1122002011268,登記記録の閉鎖等,0,2023-06-15,2023-06-12,有限会社鈴屋,,有限会社,大阪府,大東市,学園町３番１２号,,27,218,5740001,,,2023-06-12,清算の結了等,,,2015-10-05,1,,,,,スズヤ,0
141,1130001054931,登記記録の閉鎖等,0,2023-06-15,2023-06-12,キレイト株式会社,,株式会社,大阪府,大阪市中央区,南船場４丁目１０番５号南船場ＳＯＨＯビル７０２,,27,128,5420081,,,2023-06-12,清算の結了等,,,2015-10-05,1,,,,,キレイト,0
150,1160001020113,登記記録の閉鎖等,0,2023-06-15,2023-06-12,株式会社トロワランジェ,,株式会社,滋賀県,大津市,梅林１丁目３－４京都屋大津駅前ビル１階,,25,201,5200051,,,2023-06-12,清算の結了等,,,2017-04-07,1,,,,,,0
152,1180001097851,登記記録の閉鎖等,0,2023-06-15,2023-06-12,加藤式三郎商店株式会社,,株式会社,愛知県,あま市,上萱津薬師４５番地２,,23,237,4901112,,,2023-06-12,清算の結了等,,,2015-10-05,1,,,,,カトウシキサブロウショウテン,0
157,1180002033442,登記記録の閉鎖等,0,2023-06-15,2023-06-13,有限会社ヨシマサエステイト,,有限会社,愛知県,名古屋市中区,丸の内１丁目８番２４号,,23,106,4600002,,,2023-06-13,清算の結了等,,,2015-10-05,1,,,,,ヨシマサエステイト,0
181,1260001009947,登記記録の閉鎖等,0,2023-06-15,2023-06-13,株式会社アートジャンク,,株式会社,岡山県,岡山市東区,瀬戸町寺地５４７番地８,,33,103,7090875,,,2023-06-13,清算の結了等,,,2015-10-05,1,,,,,アートジャンク,0
210,1320002007927,登記記録の閉鎖等,0,2023-06-15,2023-06-07,有限会社コンフィアンス,,有限会社,大分県,大分市,南津留２３番９号,,44,201,8700937,,,2023-06-07,清算の結了等,,,2015-10-05,1,,,,,コンフィアンス,0
223,1370002015990,登記記録の閉鎖等,0,2023-06-15,2023-06-12,有限会社斎藤建築工房,,有限会社,宮城県,仙台市青葉区,大手町９番１０号,,04,101,9800805,,,2023-06-12,清算の結了等,,,2015-10-05,1,,,,,サイトウケンチクコウボウ,0
232,1420001018188,登記記録の閉鎖等,0,2023-06-15,2023-06-09,株式会社宝来ハウス,,株式会社,青森県,八戸市,小中野１丁目１番２７号,,02,203,0310802,,,2023-06-09,清算の結了等,,,2023-03-23,1,,,,,ホウライハウス,0
235,1430001077076,登記記録の閉鎖等,0,2023-06-15,2023-06-01,Ｍｏｕｒｉ　ｉｎｖｅｓｔｍｅｎｔ株式会社,,株式会社,北海道,札幌市中央区,南六条西９丁目１０１９番地１２札幌第一パークハイツ８１２号室,,01,101,0640806,,,2023-06-01,合併による解散等,6430001082419,令和５年６月１日北海道余市郡余市町大川町一丁目２６番地株式会社モウリグローバルカンパニー（6430001082419）に合併し解散,2018-07-30,1,,,,,モウリインベストメント,0
237,1430002050073,登記記録の閉鎖等,0,2023-06-15,2023-06-01,有限会社関口アグリシステム,,有限会社,北海道,美唄市,字上美唄原野２８９９番地,,01,215,0720000,,,2023-06-01,清算の結了等,,,2015-10-05,1,,,,,,0
262,2010005008853,登記記録の閉鎖等,0,2023-06-15,2023-06-13,タカサキ一般社団法人,,その他の設立登記法人,東京都,千代田区,有楽町１丁目５番１号,,13,101,1000006,,,2023-06-13,清算の結了等,,,2015-10-05,1,,,,,タカサキ,0
267,2010401123495,登記記録の閉鎖等,0,2023-06-15,2023-06-12,ネイティブ株式会社,,株式会社,東京都,新宿区,西新宿７丁目７番２６号ワコーレ新宿第一ビル２ＦＷｏｒｋｍｅｄｉ,,13,104,1600023,,,2023-06-12,合併による解散等,7021001010079,令和５年５月１日神奈川県鎌倉市御成町１１番８号株式会社カヤック（7021001010079）に合併し解散,2016-03-09,1,,,,,ネイティブ,0
288,2010701025144,登記記録の閉鎖等,0,2023-06-15,2023-06-12,株式会社Ｄｕａｌｔａｐ　Ｐｒｏｐｅｒｔｙ　Ｍａｎａｇｅｍｅｎｔ,,株式会社,東京都,品川区,西品川１丁目１番１号,,13,109,1410033,,,2023-06-12,清算の結了等,,,2015-10-05,1,,,,,デュアルタッププロパティーマネジメント,0
323,2012302007819,登記記録の閉鎖等,0,2023-06-15,2023-06-13,有限会社エビサワプラスター,,有限会社,東京都,町田市,野津田町１８６３番地３,,13,209,1950063,,,2023-06-13,清算の結了等,,,2015-10-05,1,,,,,エビサワプラスター,0
335,2020002033944,登記記録の閉鎖等,0,2023-06-15,2023-06-08,有限会社サツマ電気技研,,有限会社,神奈川県,横浜市港北区,小机町１７５番地の９サニーウエル泉谷Ａ－３０６,,14,109,2220036,,,2023-06-08,清算の結了等,,,2015-10-05,1,,,,,サツマデンキギケン,0
368,2070001023909,登記記録の閉鎖等,0,2023-06-15,2023-06-02,中之条運輸株式会社,,株式会社,群馬県,吾妻郡中之条町,大字伊勢町１８番地１１,,10,421,3770423,,,2023-06-02,清算の結了等,,,2015-10-05,1,,,,,ナカノジョウウンユ,0
374,2110001007782,登記記録の閉鎖等,0,2023-06-15,2023-06-08,株式会社白樹屋,,株式会社,新潟県,新潟市北区,柳原３丁目２番８号,,15,101,9503326,,,2023-06-08,清算の結了等,,,2015-10-05,1,,,,,シラキヤ,0
380,2120001090101,登記記録の閉鎖等,0,2023-06-15,2023-06-12,丸久株式会社,,株式会社,大阪府,貝塚市,堀３丁目２７番８－２０６号,,27,208,5970015,,,2023-06-12,清算の結了等,,,2015-10-05,1,,,,,マルキュウ,0
393,2120003015956,登記記録の閉鎖等,0,2023-06-15,2023-05-30,合同会社プランバルーン,,合同会社,大阪府,大阪市北区,天神西町６番地の５,,27,127,5300045,,,2023-05-30,清算の結了等,,,2019-07-08,1,,,,,プランバルーン,0
397,2130001007847,登記記録の閉鎖等,0,2023-06-15,2023-06-12,いずみ石材株式会社,,株式会社,京都府,京都市西京区,大枝沓掛町２６番地の６０,,26,111,6101106,,,2023-06-12,清算の結了等,,,2015-10-05,1,,,,,イズミセキザイ,0
408,2140001076569,登記記録の閉鎖等,0,2023-06-15,2023-06-08,青山木材株式会社,,株式会社,兵庫県,小野市,復井町７８６番地の８,,28,218,6751352,,,2023-06-08,清算の結了等,,,2015-10-05,1,,,,,アオヤマモクザイ,0
419,2160001009279,登記記録の閉鎖等,0,2023-06-15,2023-06-12,株式会社エコネット,,株式会社,滋賀県,米原市,醒井６６６番地２,,25,214,5210035,,,2023-06-12,清算の結了等,,,2015-10-05,1,,,,,エコネット,0
424,2180002049735,登記記録の閉鎖等,0,2023-06-15,2023-06-13,有限会社トランスフロンティア,,有限会社,愛知県,名古屋市港区,九番町５丁目１９番地の７,,23,111,4550008,,,2023-06-13,清算の結了等,,,2015-10-05,1,,,,,トランスフロンティア,0
425,2180003024852,登記記録の閉鎖等,0,2023-06-15,2023-06-13,いろは合同会社,,合同会社,愛知県,名古屋市千種区,覚王山通８丁目７０番地の１サンクレア池下１号棟１１０３号室,,23,101,4640841,,,2023-06-13,清算の結了等,,,2023-02-16,1,,,,,イロハ,0
448,2290802012245,登記記録の閉鎖等,0,2023-06-15,2023-06-12,有限会社ユタカ技研工業,,有限会社,福岡県,北九州市門司区,東本町１丁目７－２０－７０２号,,40,101,8010851,,,2023-06-12,清算の結了等,,,2015-10-05,1,,,,,ユタカギケンコウギョウ,0
453,2380001008606,登記記録の閉鎖等,0,2023-06-15,2023-06-05,株式会社初美,,株式会社,福島県,郡山市,富久山町久保田字梅田１２９番地,,07,203,9638071,,,2023-06-05,清算の結了等,,,2015-10-05,1,,,,,ハツミ,0
463,2410002004146,登記記録の閉鎖等,0,2023-06-15,2023-06-09,有限会社環拓,,有限会社,秋田県,秋田市,寺内字イサノ３９番地２,,05,201,0110901,,,2023-06-09,清算の結了等,,,2015-10-05,1,,,,,カンタク,0
492,3010005024701,登記記録の閉鎖等,0,2023-06-15,2023-06-13,一般社団法人建物損害サポート協会,,その他の設立登記法人,東京都,千代田区,神田三崎町３丁目２番１３号,,13,101,1010061,,,2023-06-13,清算の結了等,,,2015-12-08,1,,,,,タテモノソンガイサポートキョウカイ,0
493,3010401053023,登記記録の閉鎖等,0,2023-06-15,2023-06-09,日立ＳＣ株式会社,,株式会社,東京都,港区,港南２丁目１６番１号,,13,103,1080075,,,2023-06-09,合併による解散等,3020001032599,令和５年６月１日横浜市西区みなとみらい二丁目２番１号株式会社日立ハイシステム２１（3020001032599）に合併し解散,2015-10-05,1,,,,,ヒタチエスシー,0
512,3010901050024,登記記録の閉鎖等,0,2023-06-15,2023-06-12,株式会社ＮＯＤＥクリエイティブ,,株式会社,東京都,世田谷区,羽根木１丁目２１番１号亀甲新は６６,,13,112,1560042,,,2023-06-12,清算の結了等,,,2021-12-21,1,,,,,ノードクリエイティブ,0
538,3012402008567,登記記録の閉鎖等,0,2023-06-15,2023-06-12,有限会社パークコート小金井,,有限会社,東京都,新宿区,若松町１６番１７－３号,,13,104,1620056,,,2023-06-12,清算の結了等,,,2015-10-05,1,,,,,パークコートコガネイ,0
556,3021001001032,登記記録の閉鎖等,0,2023-06-15,2023-06-09,シーマ電子株式会社,,株式会社,神奈川県,藤沢市,善行７丁目８番１８－５０６号,,14,205,2510871,,,2023-06-09,清算の結了等,,,2015-10-05,1,,,,,シーマデンシ,0
560,3030001093707,登記記録の閉鎖等,0,2023-06-15,2023-06-09,株式会社アット・ホープ,,株式会社,福岡県,福岡市博多区,博多駅東３丁目９番２１号２０２,,40,132,8120013,,,2023-06-09,清算の結了等,,,2015-10-05,1,,,,,,0
571,3040002105146,登記記録の閉鎖等,0,2023-06-15,2023-05-30,有限会社キムラ電機商会,,有限会社,千葉県,富里市,七栄６４７番地１３６,,12,233,2860221,,,2023-05-30,清算の結了等,,,2023-05-26,1,,,,,キムラデンキショウカイ,0
573,3050001030848,登記記録の閉鎖等,0,2023-06-15,2023-06-06,株式会社日本コミュニケーショントレーナー協会,,株式会社,茨城県,つくばみらい市,谷井田１３７９番地７,,08,235,3002337,,,2023-06-06,清算の結了等,,,2015-10-05,1,,,,,ニホンコミュニケーショントレーナーキョウカイ,0
582,3080102017444,登記記録の閉鎖等,0,2023-06-15,2023-06-12,有限会社旅館しのはら,,有限会社,静岡県,富士宮市,西町１７番１号,,22,207,4180056,,,2023-06-12,清算の結了等,,,2015-10-05,1,,,,,リョカンシノハラ,0
596,3120001166065,登記記録の閉鎖等,0,2023-06-15,2023-06-09,株式会社エムズロマン,,株式会社,大阪府,守口市,京阪本通１丁目３番６号,,27,209,5700083,,,2023-06-09,清算の結了等,,,2015-10-05,1,,,,,エムズロマン,0
616,3140001001336,登記記録の閉鎖等,0,2023-06-15,2023-06-08,株式会社キットシステム,,株式会社,兵庫県,神戸市中央区,八幡通３丁目１番１９号,,28,110,6510085,,,2023-06-08,清算の結了等,,,2015-10-05,1,,,,,キットシステム,0
622,3140001112967,登記記録の閉鎖等,0,2023-06-15,2023-06-09,松井工業株式会社,,株式会社,兵庫県,神戸市東灘区,向洋町東４丁目３番地の９・１－３号,,28,101,6580031,,,2023-06-09,清算の結了等,,,2019-03-11,1,,,,,マツイコウギョウ,0
638,3180301014174,登記記録の閉鎖等,0,2023-06-15,2023-06-06,大東石油株式会社,,株式会社,愛知県,刈谷市,東境町奥町屋３５番地,,23,210,4480007,,,2023-06-06,清算の結了等,,,2015-10-05,1,,,,,ダイトウセキユ,0
639,3180301021807,登記記録の閉鎖等,0,2023-06-15,2023-06-06,株式会社杉太,,株式会社,愛知県,豊田市,貝津町片坂５７番地,,23,211,4700348,,,2023-06-06,清算の結了等,,,2015-10-05,1,,,,,スギタ,0
655,3250002017675,登記記録の閉鎖等,0,2023-06-15,2023-06-08,有限会社伊藤印刷,,有限会社,山口県,岩国市,昭和町２丁目１０番４号,,35,208,7400004,,,2023-06-08,清算の結了等,,,2015-10-05,1,,,,,イトウインサツ,0
658,3260002008624,登記記録の閉鎖等,0,2023-06-15,2023-06-13,有限会社瓠商事,,有限会社,岡山県,岡山市東区,西大寺中１丁目２番１７号,,33,103,7048116,,,2023-06-13,清算の結了等,,,2015-10-05,1,,,,,フクベショウジ,0
671,3290002027786,登記記録の閉鎖等,0,2023-06-15,2023-06-09,有限会社卓保,,有限会社,福岡県,福岡市西区,内浜１丁目６番１－３０７号,,40,135,8190005,,,2023-06-09,清算の結了等,,,2015-10-05,1,,,,,タクホ,0
691,3360001010686,登記記録の閉鎖等,0,2023-06-15,2023-06-12,株式会社アルジョンインターナショナル,,株式会社,沖縄県,宜野湾市,新城２丁目３５番１号アルジョンビル１Ｆ,,47,205,9012201,,,2023-06-12,清算の結了等,,,2015-10-05,1,,,,,,0
700,3380001009322,登記記録の閉鎖等,0,2023-06-15,2023-06-01,株式会社ティー・エス・ユー,,株式会社,東京都,港区,赤坂７丁目６番７－１０１号,,13,103,1070052,,,2023-06-01,清算の結了等,,,2015-10-05,1,,,,,ティーエスユー,0
764,4010901044371,登記記録の閉鎖等,0,2023-06-15,2023-06-13,株式会社ＫＳＨＹ,,株式会社,東京都,世田谷区,松原２丁目３７番１８号,,13,112,1560043,,,2023-06-13,清算の結了等,,,2019-06-14,1,,,,,ケスワイ,0
768,4011001138403,登記記録の閉鎖等,0,2023-06-15,2023-06-06,プラスユー株式会社,,株式会社,東京都,渋谷区,渋谷１丁目２番５号,,13,113,1500002,,,2023-06-06,合併による解散等,5011001138402,令和５年６月１日東京都渋谷区渋谷一丁目２番５号ユナイテッドマーケティングテクノロジーズ株式会社（5011001138402）に合併し解散,2021-02-16,1,,,,,プラスユー,0
775,4011101100007,登記記録の閉鎖等,0,2023-06-15,2023-06-14,大超株式会社,,株式会社,東京都,新宿区,西新宿３丁目３番－１３号西新宿水間ビル６階,,13,104,1600023,,,2023-06-14,清算の結了等,,,2022-08-29,1,,,,,ダイチョウ,0
776,4011101100246,登記記録の閉鎖等,0,2023-06-15,2023-06-14,傑瑞新材料株式会社,,株式会社,東京都,新宿区,西新宿３丁目３番１３号西新宿水間ビル６階,,13,104,1600023,,,2023-06-14,清算の結了等,,,2022-09-20,1,,,,,ケツズイシンザイリョウ,0
778,4011103007200,登記記録の閉鎖等,0,2023-06-15,2023-06-15,合同会社エルエムシー,,合同会社,東京都,新宿区,新宿２丁目４番６号,,13,104,1600022,,,2023-06-15,清算の結了等,,,2017-07-19,1,,,,,エルエムシー,0
790,4013202004375,登記記録の閉鎖等,0,2023-06-15,2023-06-08,有限会社テラダ・コーポレーション,,有限会社,神奈川県,川崎市高津区,久本３丁目４番７－４０１号,,14,134,2130011,,,2023-06-08,清算の結了等,,,2015-10-05,1,,,,,テラダコーポレーション,0
793,4020001050212,登記記録の閉鎖等,0,2023-06-15,2023-06-09,日伸工業株式会社,,株式会社,神奈川県,横浜市青葉区,青葉台１丁目１６番地１７,,14,117,2270062,,,2023-06-09,清算の結了等,,,2015-10-05,1,,,,,ニッシンコウギョウ,0
799,4021002012969,登記記録の閉鎖等,0,2023-06-15,2023-06-12,有限会社のぞみコーポレーション,,有限会社,神奈川県,高座郡寒川町,一之宮９丁目２８番２０号,,14,321,2530111,,,2023-06-12,清算の結了等,,,2015-10-05,1,,,,,ノゾミコーポレーション,0
808,4040002017811,登記記録の閉鎖等,0,2023-06-15,2023-05-30,有限会社エクスペクト,,有限会社,千葉県,千葉市中央区,弁天１丁目１５番３号地下１階,,12,101,2600045,,,2023-05-30,清算の結了等,,,2015-10-05,1,,,,,エクスペクト,0
816,4080101010795,登記記録の閉鎖等,0,2023-06-15,2023-06-12,株式会社Ｗｉｎ堂,,株式会社,静岡県,富士市,中丸８２番地の８,,22,210,4160933,,,2023-06-12,清算の結了等,,,2015-10-05,1,,,,,ウインドウ,0
823,4120001067353,登記記録の閉鎖等,0,2023-06-15,2023-06-14,株式会社ティープレス,,株式会社,大阪府,大阪市北区,東天満２丁目５番６号孫田ビル１Ｆ,,27,127,5300044,,,2023-06-14,清算の結了等,,,2015-10-05,1,,,,,ティープレス,0
863,4150001014014,登記記録の閉鎖等,0,2023-06-15,2023-06-12,株式会社吉井商店,,株式会社,奈良県,御所市,７１１番地,,29,208,6392200,,,2023-06-12,清算の結了等,,,2015-10-05,1,,,,,ヨシイショウテン,0
873,4180302020476,登記記録の閉鎖等,0,2023-06-15,2023-06-08,有限会社栄建築板金,,有限会社,愛知県,刈谷市,小垣江町西中根１７番地１８,,23,210,4480813,,,2023-06-08,清算の結了等,,,2015-10-05,1,,,,,サカエケンチクバンキン,0
881,4200002026341,登記記録の閉鎖等,0,2023-06-15,2023-06-12,有限会社ＴＨＳ,,有限会社,岐阜県,高山市,松之木町１５４１番地２,,21,203,5060802,,,2023-06-12,清算の結了等,,,2015-10-05,1,,,,,ティーエッチエス,0
887,4240002038242,登記記録の閉鎖等,0,2023-06-15,2023-06-09,シーテック有限会社,,有限会社,広島県,大竹市,東栄１丁目１０－２－１０１,,34,211,7390601,,,2023-06-09,清算の結了等,,,2015-10-05,1,,,,,シーテック,0
901,4290002040648,登記記録の閉鎖等,0,2023-06-15,2023-06-12,有限会社オーエスケイ,,有限会社,福岡県,春日市,紅葉ヶ丘東７丁目１３番地２,,40,218,8160833,,,2023-06-12,清算の結了等,,,2015-10-05,1,,,,,オーエスケイ,0
902,4290002053055,登記記録の閉鎖等,0,2023-06-15,2023-06-05,有限会社エフ．ブイ．エル,,有限会社,福岡県,三潴郡大木町,大字横溝１５３８番地の３,,40,522,8300405,,,2023-06-05,清算の結了等,,,2015-10-05,1,,,,,エフブイエル,0
911,4320001016249,登記記録の閉鎖等,0,2023-06-15,2023-06-07,はっぴーフィットネスクラブ株式会社,,株式会社,大分県,大分市,府内町１丁目１番１５号府内センタービル３０２,,44,201,8700021,,,2023-06-07,清算の結了等,,,2018-03-22,1,,,,,ハッピーフィットネスクラブ,0
912,4330001015349,登記記録の閉鎖等,0,2023-06-15,2023-06-09,株式会社山口建設,,株式会社,熊本県,天草市,牛深町２４８５番地の２,,43,215,8631901,,,2023-06-09,清算の結了等,,,2015-10-05,1,,,,,ヤマグチケンセツ,0
920,4380001029583,登記記録の閉鎖等,0,2023-06-15,2023-06-12,株式会社信夫和紙工房,,株式会社,福島県,福島市,北町２番１７号,,07,201,9608102,,,2023-06-12,清算の結了等,,,2018-11-15,1,,,,,シノブワシコウボウ,0
926,4430001021386,登記記録の閉鎖等,0,2023-06-15,2023-06-01,富士溶融工業株式会社,,株式会社,北海道,札幌市東区,北丘珠四条４丁目２番５０号,,01,103,0070884,,,2023-06-01,清算の結了等,,,2015-10-05,1,,,,,フジヨウユウコウギョウ,0
930,4430002032317,登記記録の閉鎖等,0,2023-06-15,2023-06-09,有限会社朝日ビルメンテナンス,,有限会社,北海道,札幌市厚別区,厚別南４丁目１番９号,,01,108,0040022,,,2023-06-09,清算の結了等,,,2015-10-05,1,,,,,,0
957,5010003028561,登記記録の閉鎖等,0,2023-06-15,2023-06-13,Ｂｌｕｅ　Ｇｌｏｂｅ合同会社,,合同会社,東京都,杉並区,善福寺１丁目１７番１０号,,13,115,1670041,,,2023-06-13,清算の結了等,,,2018-10-29,1,,,,,ブルーグローブ,0
973,5010501047567,登記記録の閉鎖等,0,2023-06-15,2023-06-12,株式会社日新国際,,株式会社,東京都,台東区,北上野２丁目２５番９号－３０７号室,,13,106,1100014,,,2023-06-12,清算の結了等,,,2021-07-21,1,,,,,ニッシンコクサイ,0
984,5011101100006,登記記録の閉鎖等,0,2023-06-15,2023-06-09,大祥株式会社,,株式会社,東京都,新宿区,西新宿３丁目３番－１３号西新宿水間ビル６階,,13,104,1600023,,,2023-06-09,清算の結了等,,,2022-08-29,1,,,,,ダイショウ,0
985,5011101100575,登記記録の閉鎖等,0,2023-06-15,2023-06-14,聖伯利株式会社,,株式会社,東京都,新宿区,西新宿３丁目３番－１３号西新宿水間ビル６階,,13,104,1600023,,,2023-06-14,清算の結了等,,,2022-10-24,1,,,,,セイハクリ,0
986,5011105008897,登記記録の閉鎖等,0,2023-06-15,2023-06-13,一般社団法人日本ヘルスケアサプリメント協会,,その他の設立登記法人,東京都,新宿区,西新宿１丁目２５番１号,,13,104,1600023,,,2023-06-13,清算の結了等,,,2019-06-27,1,,,,,ニホンヘルスケアサプリメントキョウカイ,0
994,5011302005433,登記記録の閉鎖等,0,2023-06-15,2023-06-12,有限会社大兼,,有限会社,東京都,杉並区,堀ノ内２丁目１０番１１号,,13,115,1660013,,,2023-06-12,清算の結了等,,,2015-10-05,1,,,,,,0
1004,5012702006269,登記記録の閉鎖等,0,2023-06-15,2023-06-12,有限会社栄新,,有限会社,東京都,東久留米市,東本町１５番２号ブランシール第３東久留米４０１号,,13,222,2030014,,,2023-06-12,清算の結了等,,,2015-10-05,1,,,,,エイシン,0
1005,5013201007601,登記記録の閉鎖等,0,2023-06-15,2023-06-08,株式会社サウスサイドプロジェクト,,株式会社,東京都,目黒区,緑が丘１丁目３番１４－２０１号,,13,110,1520034,,,2023-06-08,清算の結了等,,,2015-10-05,1,,,,,サウスサイドプロジェクト,0
1017,5030001092590,登記記録の閉鎖等,0,2023-06-15,2023-06-09,タイシ建設株式会社,,株式会社,東京都,足立区,西新井５丁目２０番１４号,,13,121,1230841,,,2023-06-09,清算の結了等,,,2015-10-05,1,,,,,タイシケンセツ,0
1061,5120002014980,登記記録の閉鎖等,0,2023-06-15,2023-06-07,ハッピィー有限会社,,有限会社,大阪府,大阪市大正区,泉尾４丁目１２番１６号,,27,108,5510031,,,2023-06-07,清算の結了等,,,2015-10-05,1,,,,,ハッピィー,0
1063,5120002061619,登記記録の閉鎖等,0,2023-06-15,2023-06-13,有限会社ＭＩＴメディカルコンサルタント,,有限会社,大阪府,大阪市天王寺区,玉造本町１番１７号,,27,109,5430013,,,2023-06-13,清算の結了等,,,2015-10-05,1,,,,,エムアイティーメディカルコンサルタント,0
1085,5140001057401,登記記録の閉鎖等,0,2023-06-15,2023-06-09,岸重機株式会社,,株式会社,兵庫県,神戸市西区,今寺３５番地の１２,,28,111,6512114,,,2023-06-09,清算の結了等,,,2015-10-05,1,,,,,キシジュウキ,0
1091,5140002025695,登記記録の閉鎖等,0,2023-06-15,2023-06-08,有限会社神戸機械設計,,有限会社,兵庫県,神戸市灘区,箕岡通３丁目３番２０号シャトー美野丘２０１号室,,28,102,6570812,,,2023-06-08,清算の結了等,,,2015-10-05,1,,,,,,0
1100,5180001072041,登記記録の閉鎖等,0,2023-06-15,2023-06-13,株式会社エー・ケー・シー,,株式会社,愛知県,名古屋市名東区,文教台１丁目８０８番地,,23,115,4650012,,,2023-06-13,清算の結了等,,,2015-10-05,1,,,,,エーケーシー,0
1108,5180002031525,登記記録の閉鎖等,0,2023-06-15,2023-06-13,大興テクノ有限会社,,有限会社,愛知県,清須市,西須ケ口１０番地,,23,233,4520911,,,2023-06-13,清算の結了等,,,2015-10-05,1,,,,,ダイコウテクノ,0
1110,5180301022662,登記記録の閉鎖等,0,2023-06-15,2023-06-13,株式会社筒井鉄工所,,株式会社,愛知県,西尾市,法光寺町流５５番地１,,23,213,4450892,,,2023-06-13,清算の結了等,,,2015-10-05,1,,,,,ツツイテッコウショ,0
1125,5220002015275,登記記録の閉鎖等,0,2023-06-15,2023-06-12,有限会社松田レース工場,,有限会社,石川県,羽咋市,堀替新町イ２１番地,,17,207,9250622,,,2023-06-12,清算の結了等,,,2015-10-05,1,,,,,マツダレースコウジョウ,0
1130,5240002050254,登記記録の閉鎖等,0,2023-06-15,2023-06-13,有限会社岡野健二商店,,有限会社,広島県,尾道市,因島土生町２２５４番地の１４,,34,205,7222323,,,2023-06-13,清算の結了等,,,2015-10-05,1,,,,,オカノケンジショウテン,0
1131,5240003005554,登記記録の閉鎖等,0,2023-06-15,2023-06-12,合同会社小野,,合同会社,広島県,福山市,本町７番２５号,,34,207,7200056,,,2023-06-12,清算の結了等,,,2022-03-16,1,,,,,オノ,0
1132,5240005006294,登記記録の閉鎖等,0,2023-06-15,2023-06-08,郷原物流事業協同組合,,その他の設立登記法人,広島県,呉市,郷原町字一ノ松光山６２６番地の１２,,34,202,7370161,,,2023-06-08,清算の結了等,,,2015-10-05,1,,,,,ゴウバラブツリュウ,0
1149,5290003012471,登記記録の閉鎖等,0,2023-06-15,2023-06-05,合同会社Ｋｏｔｅｔｓｕ,,合同会社,福岡県,福岡市中央区,荒戸３丁目２番４５－１００４号,,40,133,8100062,,,2023-06-05,清算の結了等,,,2022-05-06,1,,,,,コテツ,0
1152,5300002001093,登記記録の閉鎖等,0,2023-06-15,2023-06-08,有限会社ニューデンタル商事,,有限会社,佐賀県,神埼市,千代田町境原３８６番地１２,,41,210,8420056,,,2023-06-08,清算の結了等,,,2015-10-05,1,,,,,ニューデンタルショウジ,0
1159,5340002000892,登記記録の閉鎖等,0,2023-06-15,2023-06-13,有限会社アカイ,,有限会社,鹿児島県,鹿児島市,東谷山５丁目２４番６号,,46,201,8910113,,,2023-06-13,清算の結了等,,,2015-10-05,1,,,,,アカイ,0
1163,5360001010131,登記記録の閉鎖等,0,2023-06-15,2023-06-13,沖縄ウィンドファーム株式会社,,株式会社,沖縄県,中頭郡中城村,字奥間６５番地の２,,47,328,9012412,,,2023-06-13,清算の結了等,,,2015-10-05,1,,,,,,0
1167,5370003001937,登記記録の閉鎖等,0,2023-06-15,2023-06-12,合同会社ハピネスケア泉,,合同会社,宮城県,仙台市青葉区,国見ケ丘３丁目１４番地の３,,04,101,9893201,,,2023-06-12,清算の結了等,,,2015-10-05,1,,,,,ハピネスケアイズミ,0
1175,5410002008573,登記記録の閉鎖等,0,2023-06-15,2023-06-08,有限会社タカセスポーツ,,有限会社,秋田県,大館市,池内字田中３１番地,,05,204,0170836,,,2023-06-08,清算の結了等,,,2015-10-05,1,,,,,タカセスポーツ,0
1178,5430001008399,登記記録の閉鎖等,0,2023-06-15,2023-06-01,株式会社アイセン,,株式会社,北海道,札幌市東区,北二十四条東１２丁目１番３４号,,01,103,0650024,,,2023-06-01,合併による解散等,5430001030337,令和５年６月１日札幌市東区北二十四条東十二丁目１番３４号株式会社レイワン（5430001030337）に合併し解散,2015-10-05,1,,,,,アイセン,0
1199,6010001184934,登記記録の閉鎖等,0,2023-06-15,2023-06-09,株式会社ＰＣＳホールディングス,,株式会社,東京都,中央区,佃２丁目１－１－４５０１,,13,102,1040051,,,2023-06-09,清算の結了等,,,2017-07-19,1,,,,,ピーシーエスホールディングス,0
1248,6011401011463,登記記録の閉鎖等,0,2023-06-15,2023-06-12,株式会社福生会,,株式会社,東京都,新宿区,内藤町１番地５０朝日新宿御苑マンション３０１,,13,104,1600014,,,2023-06-12,清算の結了等,,,2015-10-05,1,,,,,フッサカイ,0
1249,6011402007411,登記記録の閉鎖等,0,2023-06-15,2023-06-14,光エンタープライズ株式会社,,株式会社,東京都,板橋区,大山東町２７番１２号メゾンフォンテーヌ２０３号室,,13,119,1730014,,,2023-06-14,清算の結了等,,,2015-10-05,1,,,,,ヒカリエンタープライズ,0
1254,6012401031385,登記記録の閉鎖等,0,2023-06-15,2023-06-09,株式会社Ｙｏｚｏｒａ　Ｃｏｍｐａｎｙ,,株式会社,東京都,東村山市,恩多町２丁目２０番２０号３０２,,13,213,1890011,,,2023-06-09,清算の結了等,,,2016-05-23,1,,,,,ヨゾラカンパニー,0
1267,6020001143006,登記記録の閉鎖等,0,2023-06-15,2023-06-09,コンプライアンス・デザイン・ラボ株式会社,,株式会社,神奈川県,横浜市中区,山下町１番地シルクセンタービル９０４号,,14,104,2310023,,,2023-06-09,清算の結了等,,,2021-09-16,1,,,,,コンプライアンスデザインラボ,0
1274,6030001046686,登記記録の閉鎖等,0,2023-06-15,2023-05-31,株式会社小嶋工務店,,株式会社,埼玉県,和光市,白子２丁目１２番１２号,,11,229,3510101,,,2023-05-31,清算の結了等,,,2015-10-05,1,,,,,コジマコウムテン,0
1294,6120001078101,登記記録の閉鎖等,0,2023-06-15,2023-06-09,株式会社協同物産貿易,,株式会社,大阪府,大阪市中央区,南本町２丁目６番５号ファースト船場ビル１００１号,,27,128,5410054,,,2023-06-09,清算の結了等,,,2015-10-05,1,,,,,キョウドウブッサンボウエキ,0
1323,6170002001494,登記記録の閉鎖等,0,2023-06-15,2023-06-13,有限会社コーワ・グループ,,有限会社,和歌山県,和歌山市,紀三井寺１４１番地の１０５,,30,201,6410012,,,2023-06-13,清算の結了等,,,2015-10-05,1,,,,,コーワグループ,0
1340,6200002012793,登記記録の閉鎖等,0,2023-06-15,2023-06-09,有限会社大黒屋食品,,有限会社,岐阜県,大垣市,小泉町１３番地,,21,202,5030816,,,2023-06-09,清算の結了等,,,2015-10-05,1,,,,,ダイコクヤショクヒン,0
1343,6220001011811,登記記録の閉鎖等,0,2023-06-15,2023-06-13,肩兄弟絹撚株式会社,,株式会社,石川県,小松市,下粟津町ツ４３番地,,17,203,9230304,,,2023-06-13,清算の結了等,,,2015-10-05,1,,,,,カタケイテイケンネン,0
1419,7010401032519,登記記録の閉鎖等,0,2023-06-15,2023-06-08,株式会社ラッシュ,,株式会社,神奈川県,横浜市青葉区,市ケ尾町１６７８番地４１,,14,117,2250024,,,2023-06-08,清算の結了等,,,2015-10-05,1,,,,,ラッシュ,0
1433,7010502003311,登記記録の閉鎖等,0,2023-06-15,2023-06-14,有限会社貴和宝飾,,有限会社,東京都,台東区,西浅草３丁目２２番３－１４１５号,,13,106,1110035,,,2023-06-14,清算の結了等,,,2015-10-05,1,,,,,キワホウショク,0
1434,7010502013632,登記記録の閉鎖等,0,2023-06-15,2023-06-13,有限会社レスタウロ,,有限会社,東京都,葛飾区,四つ木４丁目２０番１５号,,13,122,1240011,,,2023-06-13,清算の結了等,,,2015-10-05,1,,,,,レスタウロ,0
1439,7010701023127,登記記録の閉鎖等,0,2023-06-15,2023-06-12,株式会社フィルテック,,株式会社,東京都,品川区,広町１丁目３番２６号,,13,109,1400005,,,2023-06-12,清算の結了等,,,2015-10-05,1,,,,,フィルテック,0
1441,7010702013936,登記記録の閉鎖等,0,2023-06-15,2023-06-13,有限会社フィールドエンジニアリングメンテナンス,,有限会社,東京都,品川区,戸越５丁目２番１４号,,13,109,1420041,,,2023-06-13,清算の結了等,,,2015-10-05,1,,,,,フィールドエンジニアリングメンテナンス,0
1476,7012802005879,登記記録の閉鎖等,0,2023-06-15,2023-06-12,有限会社タケウチ工業,,有限会社,東京都,東大和市,狭山４丁目１５００番地の１３,,13,220,2070003,,,2023-06-12,清算の結了等,,,2015-10-05,1,,,,,,0
1479,7020001049904,登記記録の閉鎖等,0,2023-06-15,2023-06-08,株式会社アルファデータ,,株式会社,神奈川県,横浜市港北区,日吉本町６丁目２３番９号,,14,109,2230062,,,2023-06-08,清算の結了等,,,2015-10-05,1,,,,,アルファデータ,0
1486,7020002091343,登記記録の閉鎖等,0,2023-06-15,2023-06-08,有限会社アイズ,,有限会社,神奈川県,川崎市多摩区,長尾７丁目１５番９号,,14,135,2140023,,,2023-06-08,清算の結了等,,,2015-10-05,1,,,,,アイズ,0
1494,7030001145025,登記記録の閉鎖等,0,2023-06-15,2023-05-31,株式会社ＩＣＴ　ＳＭＡＲＴ,,株式会社,埼玉県,さいたま市緑区,芝原１丁目３０番地９,,11,109,3360917,,,2023-05-31,清算の結了等,,,2021-11-02,1,,,,,アイシーティースマート,0
1507,7050005010826,登記記録の閉鎖等,0,2023-06-15,2023-06-07,特定非営利活動法人アイ・メイック,,その他の設立登記法人,茨城県,つくば市,梅園２丁目１５番地２ボヌール梅園３０４号,,08,220,3050045,,,2023-06-07,清算の結了等,,,2015-10-05,1,,,,,アイメイック,0
1521,7110001018338,登記記録の閉鎖等,0,2023-06-15,2023-06-09,坂町窯業株式会社,,株式会社,新潟県,村上市,坂町６２７番地,,15,212,9593132,,,2023-06-09,清算の結了等,,,2015-10-05,1,,,,,サカマチヨウギョウ,0
1531,7120001222228,登記記録の閉鎖等,0,2023-06-15,2023-06-12,ＩＮｅｔ株式会社,,株式会社,大阪府,大阪市北区,梅田１丁目２番２－２００号大阪駅前第２ビル２階,,27,127,5300001,,,2023-06-12,清算の結了等,,,2019-07-05,1,,,,,アイネット,0
1534,7120002079502,登記記録の閉鎖等,0,2023-06-15,2023-06-14,有限会社カンサイ義肢製作所,,有限会社,大阪府,門真市,新橋町２９番１号,,27,223,5710048,,,2023-06-14,清算の結了等,,,2015-10-05,1,,,,,カンサイギシセイサクショ,0
1537,7120003016586,登記記録の閉鎖等,0,2023-06-15,2023-06-08,合同会社ケアーステーション美奈月,,合同会社,大阪府,寝屋川市,池田１丁目１７番９号,,27,215,5720039,,,2023-06-08,清算の結了等,,,2019-11-22,1,,,,,ケアーステーションミナヅキ,0
1542,7120102026107,登記記録の閉鎖等,0,2023-06-15,2023-06-13,有限会社若林商店,,有限会社,大阪府,泉大津市,春日町１０番２１号,,27,206,5950061,,,2023-06-13,清算の結了等,,,2015-10-05,1,,,,,ワカバヤシショウテン,0
1556,7150001009671,登記記録の閉鎖等,0,2023-06-15,2023-06-12,株式会社Ｎ　ｗｏｒｋｓ,,株式会社,奈良県,桜井市,大字谷１０番１号アミティ桜井１０２号,,29,206,6330053,,,2023-06-12,清算の結了等,,,2015-10-05,1,,,,,エヌワークス,0
1571,7180301022280,登記記録の閉鎖等,0,2023-06-15,2023-06-05,石川地金株式会社,,株式会社,愛知県,西尾市,山下町東八幡山１１番地,,23,213,4450877,,,2023-06-05,清算の結了等,,,2015-10-05,1,,,,,イシカワジガネ,0
1574,7200002012611,登記記録の閉鎖等,0,2023-06-15,2023-06-09,有限会社三貴,,有限会社,岐阜県,大垣市,禾森町６丁目３２番地,,21,202,5030852,,,2023-06-09,清算の結了等,,,2015-10-05,1,,,,,サンキ,0
1577,7220001019135,登記記録の閉鎖等,0,2023-06-15,2023-06-12,株式会社加賀色鯉,,株式会社,石川県,加賀市,伊切町に３１番地,,17,206,9220406,,,2023-06-12,清算の結了等,,,2015-10-05,1,,,,,カガイロゴイ,0
1583,7250002014966,登記記録の閉鎖等,0,2023-06-15,2023-06-08,大進土地建物有限会社,,有限会社,山口県,光市,中央５丁目２番１号,,35,210,7430013,,,2023-06-08,清算の結了等,,,2015-10-05,1,,,,,ダイシントチタテモノ,0
1585,7260003003538,登記記録の閉鎖等,0,2023-06-15,2023-06-13,西日本誘導合同会社,,合同会社,岡山県,赤磐市,桜が丘西３丁目１５番２１号,,33,213,7090802,,,2023-06-13,清算の結了等,,,2021-05-12,1,,,,,ニシニホンユウドウ,0
1593,7290001021662,登記記録の閉鎖等,0,2023-06-15,2023-06-12,株式会社第一サポート,,株式会社,福岡県,福岡市博多区,御供所町２番６３号,,40,132,8120037,,,2023-06-12,清算の結了等,,,2015-10-05,1,,,,,ダイイチサポート,0
1626,7430002019344,登記記録の閉鎖等,0,2023-06-15,2023-06-01,株式会社アースビル,,株式会社,北海道,札幌市中央区,北五条西１２丁目２番地２３,,01,101,0600005,,,2023-06-01,合併による解散等,8430003005243,令和５年６月１日札幌市中央区北二条西十丁目１番地１４ＲＥ資産運用合同会社（8430003005243）に合併し解散,2015-10-05,1,,,,,アースビル,0
1627,7430005012569,登記記録の閉鎖等,0,2023-06-15,2023-05-29,一般社団法人澤田記念会,,その他の設立登記法人,北海道,札幌市中央区,南二十四条西１４丁目２番２８－５０２号,,01,101,0640924,,,2023-05-29,清算の結了等,,,2015-10-05,1,,,,,サワダキネンカイ,0
1630,7470005005998,登記記録の閉鎖等,0,2023-06-15,2023-06-08,行政書士法人中野事務所,,その他の設立登記法人,香川県,綾歌郡宇多津町,２６２８番地８５９,,37,386,7690210,,,2023-06-08,清算の結了等,,,2017-04-13,1,,,,,ナカノジムショ,0
1668,8010901012250,登記記録の閉鎖等,0,2023-06-15,2023-05-31,株式会社山一工務店,,株式会社,東京都,世田谷区,上馬３丁目７番６号,,13,112,1540011,,,2023-05-31,清算の結了等,,,2015-10-05,1,,,,,ヤマイチコウムテン,0
1672,8010905001299,登記記録の閉鎖等,0,2023-06-15,2023-06-12,医療法人社団若桜会,,その他の設立登記法人,東京都,世田谷区,新町２丁目３５番２０号１階,,13,112,1540014,,,2023-06-12,清算の結了等,,,2015-10-05,1,,,,,ワカサクラカイ,0
1681,8011101099657,登記記録の閉鎖等,0,2023-06-15,2023-06-09,大禾健康産業発展株式会社,,株式会社,東京都,新宿区,西新宿３丁目３番－１３号西新宿水間ビル６階,,13,104,1600023,,,2023-06-09,清算の結了等,,,2022-07-28,1,,,,,ダイカケンコウサンギョウハッテン,0
1690,8011505000352,登記記録の閉鎖等,0,2023-06-15,2023-06-09,御嶽山大教大滝教会,,その他の設立登記法人,東京都,荒川区,南千住２丁目３番９号,,13,118,1160003,,,2023-06-09,清算の結了等,,,2015-10-05,1,,,,,オンタケサンダイキョウオオタキキョウカイ,0
1694,8011701010774,登記記録の閉鎖等,0,2023-06-15,2023-06-13,株式会社ビーム,,株式会社,東京都,江戸川区,南葛西４丁目２１番２１号,,13,123,1340085,,,2023-06-13,清算の結了等,,,2015-10-05,1,,,,,ビーム,0
1697,8011801020748,登記記録の閉鎖等,0,2023-06-15,2023-06-13,株式会社バイオ光学研究所,,株式会社,東京都,足立区,島根４丁目７番１５－１０７号,,13,121,1210815,,,2023-06-13,清算の結了等,,,2015-10-05,1,,,,,,0
1710,8013201002566,登記記録の閉鎖等,0,2023-06-15,2023-06-09,株式会社シィル,,株式会社,東京都,目黒区,東山１丁目３番１２－９０２号,,13,110,1530043,,,2023-06-09,清算の結了等,,,2015-10-05,1,,,,,シィル,0
1722,8020001111522,登記記録の閉鎖等,0,2023-06-15,2023-06-09,株式会社ＦＯＸ　ＰＩＥＣＥ,,株式会社,神奈川県,横浜市南区,高砂町１丁目１０番地１０サンハイツＡ１Ｆ,,14,105,2320025,,,2023-06-09,清算の結了等,,,2015-10-05,1,,,,,フォックスピース,0
1731,8020005014382,登記記録の閉鎖等,0,2023-06-15,2023-06-08,一般社団法人経営マネジメント協会メテウス,,その他の設立登記法人,神奈川県,横浜市青葉区,大場町３９１番地３６,,14,117,2250023,,,2023-06-08,清算の結了等,,,2019-11-18,1,,,,,ケイエイマネジメントキョウカイメテウス,0
1753,8040002062250,登記記録の閉鎖等,0,2023-06-15,2023-05-31,有限会社シャレー,,有限会社,千葉県,四街道市,旭ケ丘３丁目１７番８号,,12,228,2840024,,,2023-05-31,清算の結了等,,,2015-10-05,1,,,,,シャレー,0
1808,8122002015477,登記記録の閉鎖等,0,2023-06-15,2023-06-12,有限会社友央,,有限会社,大阪府,柏原市,国分市場１丁目５番２５号,,27,221,5820022,,,2023-06-12,清算の結了等,,,2015-10-05,1,,,,,トモオウ,0
1823,8150005003728,登記記録の閉鎖等,0,2023-06-15,2023-06-14,ＮＰＯ法人ライフケア学園前,,その他の設立登記法人,奈良県,奈良市,学園大和町２丁目２６番ニュー松葉マンション２０６号,,29,201,6310041,,,2023-06-14,清算の結了等,,,2015-10-05,1,,,,,ライフケアガクエンマエ,0
1847,8240001047496,登記記録の閉鎖等,0,2023-06-15,2023-06-09,株式会社スリーライン,,株式会社,広島県,広島市西区,己斐本町２丁目１番３号,,34,104,7330812,,,2023-06-09,清算の結了等,,,2015-10-05,1,,,,,スリーライン,0
1856,8280002007520,登記記録の閉鎖等,0,2023-06-15,2023-06-07,有限会社大田コンタクトレンズ研究所,,有限会社,島根県,大田市,大田町大田イ１９２番地１５,,32,205,6940064,,,2023-06-07,清算の結了等,,,2015-10-05,1,,,,,オオダコンタクトレンズケンキュウジョ,0
1869,8320005001441,登記記録の閉鎖等,0,2023-06-15,2023-06-13,医療法人起山会,,その他の設立登記法人,大分県,大分市,大字光吉１２０７番地の１,,44,201,8701132,,,2023-06-13,清算の結了等,,,2015-10-05,1,,,,,キザンカイ,0
1882,8380001015704,登記記録の閉鎖等,0,2023-06-15,2023-06-09,我妻運送株式会社,,株式会社,福島県,南相馬市,原町区大木戸字南原８８番地の２,,07,212,9750061,,,2023-06-09,清算の結了等,,,2015-10-05,1,,,,,ワガツマウンソウ,0
1890,8430001063012,登記記録の閉鎖等,0,2023-06-15,2023-06-09,株式会社ＦｏＲＬｅａｐｓ,,株式会社,北海道,札幌市中央区,南二条西９丁目１番１－１２０１,,01,101,0600062,,,2023-06-09,清算の結了等,,,2015-10-05,1,,,,,フォアリープス,0
1895,8430003012776,登記記録の閉鎖等,0,2023-06-15,2023-06-02,ＩＭＥソリューション合同会社,,合同会社,北海道,札幌市清田区,真栄４８７－４,,01,110,0040839,,,2023-06-02,清算の結了等,,,2021-05-31,1,,,,,アイエムイーソリューション,0
1949,9010903004022,登記記録の閉鎖等,0,2023-06-15,2023-06-13,合同会社成城投資研究所,,合同会社,東京都,世田谷区,成城９丁目２９番１３－１０２号,,13,112,1570066,,,2023-06-13,清算の結了等,,,2017-12-21,1,,,,,セイジョウトウシケンキュウジョ,0
1950,9010903005739,登記記録の閉鎖等,0,2023-06-15,2023-06-12,合同会社ＤＤＢ,,合同会社,東京都,世田谷区,大蔵６丁目９番１２号,,13,112,1570074,,,2023-06-12,清算の結了等,,,2020-06-08,1,,,,,,0
1954,9011001104813,登記記録の閉鎖等,0,2023-06-15,2023-06-06,トレイス株式会社,,株式会社,東京都,渋谷区,渋谷１丁目２番５号,,13,113,1500002,,,2023-06-06,合併による解散等,5011001138402,令和５年６月１日東京都渋谷区渋谷一丁目２番５号ユナイテッドマーケティングテクノロジーズ株式会社（5011001138402）に合併し解散,2015-10-05,1,,,,,トレイス,0
1960,9011101099656,登記記録の閉鎖等,0,2023-06-15,2023-06-09,済慈健康産業発展株式会社,,株式会社,東京都,新宿区,西新宿３丁目３番－１３号西新宿水間ビル６階,,13,104,1600023,,,2023-06-09,清算の結了等,,,2022-07-28,1,,,,,サイジケンコウサンギョウハッテン,0
1961,9011101100695,登記記録の閉鎖等,0,2023-06-15,2023-06-14,栄大工業株式会社,,株式会社,東京都,新宿区,西新宿３丁目３番１３号西新宿水間ビル６階,,13,104,1600023,,,2023-06-14,清算の結了等,,,2022-11-01,1,,,,,エイダイコウギョウ,0
1974,9011502004776,登記記録の閉鎖等,0,2023-06-15,2023-06-12,有限会社浜野商店,,有限会社,東京都,北区,赤羽１丁目５６番１号,,13,117,1150045,,,2023-06-12,清算の結了等,,,2015-10-05,1,,,,,ハマノショウテン,0
1979,9011801007694,登記記録の閉鎖等,0,2023-06-15,2023-06-13,コスモエステート株式会社,,株式会社,東京都,足立区,綾瀬６丁目２８番７号,,13,121,1200005,,,2023-06-13,清算の結了等,,,2015-10-05,1,,,,,コスモエステート,0
1983,9012303001368,登記記録の閉鎖等,0,2023-06-15,2023-06-12,合同会社ｓａｋａｂａ,,合同会社,東京都,町田市,つくし野１丁目３６－１２ナカシマハイツ８号,,13,209,1940001,,,2023-06-12,清算の結了等,,,2020-02-05,1,,,,,サカバ,0
1998,9020002104219,登記記録の閉鎖等,0,2023-06-15,2023-06-09,有限会社アディック,,有限会社,神奈川県,川崎市宮前区,宮崎５丁目１２番地２６,,14,136,2160033,,,2023-06-09,清算の結了等,,,2015-10-05,1,,,,,アディック,0
2029,9080401002091,登記記録の閉鎖等,0,2023-06-15,2023-06-14,株式会社静岡県西部花き卸売市場,,株式会社,静岡県,浜松市中区,高林４丁目７番３７号,,22,131,4300907,,,2023-06-14,清算の結了等,,,2015-10-05,1,,,,,シズオカケンセイブカキオロシウリイチバ,0
2046,9120101024225,登記記録の閉鎖等,0,2023-06-15,2023-06-12,株式会社エム・ワイクラフト,,株式会社,大阪府,松原市,大堀３丁目１０番１５号,,27,217,5800006,,,2023-06-12,清算の結了等,,,2015-10-05,1,,,,,エムワイクラフト,0
2055,9122001008316,登記記録の閉鎖等,0,2023-06-15,2023-06-12,吉邨撚糸株式会社,,株式会社,大阪府,東大阪市,吉田３丁目８番４３号,,27,227,5780924,,,2023-06-12,清算の結了等,,,2015-10-05,1,,,,,ヨシムラネンシ,0
2093,9180001123534,登記記録の閉鎖等,0,2023-06-15,2023-06-13,株式会社Ｒｉｇｈｔ　Ｉｎｎｏｖａｔｉｏｎ,,株式会社,愛知県,名古屋市中区,栄４丁目７番１４号名妓ビル３Ｆ,,23,106,4600008,,,2023-06-13,清算の結了等,,,2016-06-03,1,,,,,ライトイノベーション,0
2095,9180002040316,登記記録の閉鎖等,0,2023-06-15,2023-06-13,有限会社グルメール,,有限会社,愛知県,清須市,廻間３丁目５番地の６,,23,233,4520946,,,2023-06-13,清算の結了等,,,2015-10-05,1,,,,,グルメール,0
2102,9200002005902,登記記録の閉鎖等,0,2023-06-15,2023-06-13,有限会社喫茶末広,,有限会社,岐阜県,岐阜市,古市場３３６番地,,21,201,5011121,,,2023-06-13,清算の結了等,,,2015-10-05,1,,,,,キッサスエヒロ,0
2106,9210003001040,登記記録の閉鎖等,0,2023-06-15,2023-06-07,合同会社ＧｏＧｌｏｂａｌ,,合同会社,福井県,鯖江市,中野町第１６号４番地,,18,207,9160033,,,2023-06-07,清算の結了等,,,2017-12-21,1,,,,,ゴーグローバル,0
2125,9290002029991,登記記録の閉鎖等,0,2023-06-15,2023-06-12,有限会社オアシス貿易,,有限会社,福岡県,福岡市城南区,七隈４丁目５番１号,,40,136,8140133,,,2023-06-12,清算の結了等,,,2015-10-05,1,,,,,オアシスボウエキ,0
2128,9290003013251,登記記録の閉鎖等,0,2023-06-15,2023-06-12,合同会社Ｔ．Ｍ．Ｋ,,合同会社,福岡県,福岡市早良区,西新５丁目４番１２号,,40,137,8140002,,,2023-06-12,清算の結了等,,,2022-11-29,1,,,,,ティーエムケー,0
2145,9370002008434,登記記録の閉鎖等,0,2023-06-15,2023-06-12,有限会社ピイエスシィ東北,,有限会社,宮城県,仙台市宮城野区,岩切字東河原３０９番地,,04,102,9830821,,,2023-06-12,清算の結了等,,,2015-10-05,1,,,,,ピイエスシィトウホク,0
2148,9370202004943,登記記録の閉鎖等,0,2023-06-15,2023-06-12,有限会社ミヤギプラン,,有限会社,宮城県,栗原市,志波姫北郷荒町前１００番地,,04,213,9895605,,,2023-06-12,清算の結了等,,,2015-10-05,1,,,,,ミヤギプラン,0
