sequenceNumber,corporateNumber,process,correct,updateDate,changeDate,name,nameImageId,kind,prefectureName,cityName,streetNumber,addressImageId,prefectureCode,cityCode,postCode,addressOutside,addressOutsideImageId,closeDate,closeCause,successorCorporateNumber,changeCause,assignmentDate,latest,enName,enPrefectureName,enCityName,enAddressOutside,furigana,hihyoji
5,1010002039729,登記記録の閉鎖等,0,2022-11-16,2022-11-10,アムハースト・アソシエイツ有限会社,,有限会社,東京都,千代田区,一番町１６番地４－８０４号,,13,101,1020082,,,2022-11-10,清算の結了等,,,2015-10-05,1,,,,,アムハーストアソシエイツ,0
27,1010901007752,登記記録の閉鎖等,0,2022-11-16,2022-11-11,株式会社テクニカル・アート,,株式会社,東京都,世田谷区,祖師谷６丁目８番１２号,,13,112,1570072,,,2022-11-11,清算の結了等,,,2015-10-05,1,,,,,テクニカルアート,0
31,1011001001539,登記記録の閉鎖等,0,2022-11-16,2022-11-01,株式会社アン・ミュージック東京,,株式会社,東京都,渋谷区,幡ヶ谷２丁目１７番７号,,13,113,1510072,,,2022-11-01,合併による解散等,7010401070048,令和４年１１月１日東京都渋谷区幡ヶ谷二丁目１７番７号正栄企業株式会社（7010401070048）に合併し解散,2015-10-05,1,,,,,アンミュージックトウキョウ,0
39,1011001142382,登記記録の閉鎖等,0,2022-11-16,2022-11-07,株式会社スピカテクノロジーズ,,株式会社,東京都,目黒区,駒場３丁目２番２３号ＣＡＳＡＦＯＮＴＡＮＡ－１０１,,13,110,1530041,,,2022-11-07,清算の結了等,,,2021-08-23,1,,,,,,0
46,1011101064898,登記記録の閉鎖等,0,2022-11-16,2022-10-28,株式会社アクアキー,,株式会社,千葉県,八千代市,村上３５９０番８、１０３号室,,12,221,2760028,,,2022-10-28,清算の結了等,,,2015-10-05,1,,,,,アクアキー,0
79,1020003010497,登記記録の閉鎖等,0,2022-11-16,2022-10-27,アディエントホールディングジャパン合同会社,,合同会社,神奈川県,横浜市金沢区,幸浦１丁目２番７号,,14,108,2360003,,,2022-10-27,合併による解散等,2020003010496,令和４年１０月１日神奈川県横浜市金沢区幸浦一丁目２番７号アディエント合同会社（2020003010496）に合併し解散,2015-10-22,1,,,,,アディエントホールディングジャパン,0
94,1030002121492,登記記録の閉鎖等,0,2022-11-16,2022-11-09,有限会社相馬商店,,有限会社,埼玉県,秩父市,番場町４番１１号,,11,207,3680041,,,2022-11-09,清算の結了等,,,2015-10-05,1,,,,,ソウマショウテン,0
96,1040001050956,登記記録の閉鎖等,0,2022-11-16,2022-11-10,株式会社真板学園,,株式会社,千葉県,木更津市,大和１丁目１－１おおつビル４階,,12,206,2920805,,,2022-11-10,合併による解散等,2370001013689,令和４年１１月１日仙台市若林区土樋１０４番地株式会社イー・エス・ティ（2370001013689）に合併し解散,2015-10-05,1,,,,,マイタガクエン,0
99,1040001115560,登記記録の閉鎖等,0,2022-11-16,2022-11-07,株式会社Ｒｅｂｒａｓｔ音楽出版,,株式会社,千葉県,松戸市,東平賀１０５番地の１３,,12,207,2700003,,,2022-11-07,清算の結了等,,,2020-10-20,1,,,,,リブラストオンガクシュッパン,0
104,1040002084037,登記記録の閉鎖等,0,2022-11-16,2022-11-01,有限会社ピアサポート,,有限会社,千葉県,旭市,新町７８５番地１２,,12,215,2892501,,,2022-11-01,合併による解散等,8040001062846,令和４年１１月１日千葉県旭市清和乙６９２番地１株式会社ウェッジ（8040001062846）に合併し解散,2015-10-05,1,,,,,ピアサポート,0
107,1050001024959,登記記録の閉鎖等,0,2022-11-16,2022-11-09,株式会社リミテッド,,株式会社,茨城県,水戸市,酒門町４２７９－３,,08,201,3100841,,,2022-11-09,清算の結了等,,,2015-10-05,1,,,,,,0
109,1050003005949,登記記録の閉鎖等,0,2022-11-16,2022-11-08,合同会社ＮＵＭ,,合同会社,茨城県,東茨城郡茨城町,大字長岡３４２２番地１,,08,302,3113116,,,2022-11-08,清算の結了等,,,2021-06-24,1,,,,,エヌユーエム,0
140,1120003010363,登記記録の閉鎖等,0,2022-11-16,2022-11-09,三田エコパーク合同会社,,合同会社,大阪府,大阪市中央区,淡路町２丁目６番１１号４階,,27,128,5410047,,,2022-11-09,清算の結了等,,,2015-10-05,1,,,,,サンダエコパーク,0
158,1140001015263,登記記録の閉鎖等,0,2022-11-16,2022-11-11,株式会社中村フーズ,,株式会社,兵庫県,神戸市北区,星和台２丁目８６番地の１４,,28,109,6511121,,,2022-11-11,清算の結了等,,,2015-10-05,1,,,,,ナカムラフーズ,0
169,1180001011614,登記記録の閉鎖等,0,2022-11-16,2022-11-01,株式会社いづ藤漬物舗,,株式会社,愛知県,名古屋市中区,錦３丁目１３番３３号,,23,106,4600003,,,2022-11-01,合併による解散等,3180001034241,令和４年１１月１日名古屋市中区錦三丁目１３番３３号株式会社いづ藤漬物舗（3180001034241）に合併し解散,2015-10-05,1,,,,,イヅトウツケモノホ,0
176,1180001133986,登記記録の閉鎖等,0,2022-11-16,2022-11-11,株式会社コウジング,,株式会社,愛知県,名古屋市中区,錦３丁目２番３２号,,23,106,4600003,,,2022-11-11,清算の結了等,,,2018-10-04,1,,,,,コウジング,0
179,1180003005168,登記記録の閉鎖等,0,2022-11-16,2022-11-11,合名会社山王,,合名会社,愛知県,名古屋市中区,松原３丁目１６番２１号,,23,106,4600017,,,2022-11-11,清算の結了等,,,2015-10-05,1,,,,,サンノウ,0
182,1180301011867,登記記録の閉鎖等,0,2022-11-16,2022-11-07,株式会社アオバ,,株式会社,愛知県,豊川市,伊奈町佐脇原４１５番地２６８,,23,207,4410105,,,2022-11-07,清算の結了等,,,2015-10-05,1,,,,,アオバ,0
197,1200005010873,登記記録の閉鎖等,0,2022-11-16,2022-11-11,白鳥繊維協業組合,,その他の設立登記法人,岐阜県,郡上市,白鳥町白鳥１５８番地１,,21,219,5015121,,,2022-11-11,清算の結了等,,,2015-10-05,1,,,,,シロトリセンイ,0
203,1240002034657,登記記録の閉鎖等,0,2022-11-16,2022-11-14,有限会社大蔵土木,,有限会社,広島県,呉市,音戸町渡子１丁目１８番２１号,,34,202,7371217,,,2022-11-14,清算の結了等,,,2015-10-05,1,,,,,オオクラドボク,0
204,1240002035168,登記記録の閉鎖等,0,2022-11-16,2022-11-14,有限会社晴海技研,,有限会社,広島県,呉市,安浦町中央５丁目７番４号,,34,202,7372516,,,2022-11-14,清算の結了等,,,2015-10-05,1,,,,,ハルミギケン,0
219,1310001007978,登記記録の閉鎖等,0,2022-11-16,2022-11-14,株式会社サンジョウ,,株式会社,長崎県,諫早市,堂崎町２０番地１,,42,204,8540076,,,2022-11-14,清算の結了等,,,2015-10-05,1,,,,,サンジョウ,0
234,1380002029346,登記記録の閉鎖等,0,2022-11-16,2022-11-08,有限会社石井建築工業所,,有限会社,福島県,南相馬市,小高区小谷字鍛冶前６３番地,,07,212,9792173,,,2022-11-08,清算の結了等,,,2015-10-05,1,,,,,イシイケンチクコウギョウショ,0
247,1430005007946,登記記録の閉鎖等,0,2022-11-16,2022-11-04,小樽市アパート業協同組合,00090152,その他の設立登記法人,北海道,小樽市,花園４丁目１番１６号,,01,203,0470024,,,2022-11-04,清算の結了等,,,2015-10-05,1,,,,,オタルシアパートギョウ,0
263,2010005026921,登記記録の閉鎖等,0,2022-11-16,2022-11-10,ＲＧエナジー一般社団法人,,その他の設立登記法人,東京都,品川区,東品川２丁目３番１４号,,13,109,1400002,,,2022-11-10,清算の結了等,,,2017-06-01,1,,,,,アールジーエナジー,0
268,2010401158418,登記記録の閉鎖等,0,2022-11-16,2022-11-08,株式会社アルゴＧ,,株式会社,東京都,港区,三田３丁目１４番１０号,,13,103,1080073,,,2022-11-08,合併による解散等,5180001078253,令和４年１１月１日名古屋市中村区平池町四丁目６０番１２号株式会社グローバルキャスト（5180001078253）に合併し解散,2021-03-01,1,,,,,アルゴジー,0
279,2010601056660,登記記録の閉鎖等,0,2022-11-16,2022-11-09,株式会社ＭＯＲＩＴＡエンタープライズ,,株式会社,東京都,江東区,東陽５丁目１８番７号,,13,108,1350016,,,2022-11-09,清算の結了等,,,2020-01-08,1,,,,,モリタエンタープライズ,0
300,2011201016154,登記記録の閉鎖等,0,2022-11-16,2022-11-15,株式会社クリエイトアセットマネジメント,,株式会社,東京都,中野区,沼袋３丁目３３番８号,,13,114,1650025,,,2022-11-15,清算の結了等,,,2015-10-05,1,,,,,クリエイトアセットマネジメント,0
314,2013201014831,登記記録の閉鎖等,0,2022-11-16,2022-11-02,株式会社クリセブン,,株式会社,東京都,港区,白金台５丁目８番７－６０２号,,13,103,1080071,,,2022-11-02,清算の結了等,,,2015-10-05,1,,,,,クリセブン,0
320,2020001014219,登記記録の閉鎖等,0,2022-11-16,2022-11-11,株式会社東商会,,株式会社,神奈川県,横浜市中区,山元町１丁目４５番地２レオン山手４０１号室,,14,104,2310851,,,2022-11-11,清算の結了等,,,2015-10-05,1,,,,,アヅマショウカイ,0
338,2030001036583,登記記録の閉鎖等,0,2022-11-16,2022-11-14,大池株式会社,,株式会社,東京都,世田谷区,赤堤１丁目３７番２号,,13,112,1560044,,,2022-11-14,清算の結了等,,,2015-10-05,1,,,,,オオイケ,0
367,2060002004859,登記記録の閉鎖等,0,2022-11-16,2022-11-10,有限会社寿幸商事,,有限会社,栃木県,宇都宮市,中央１丁目１１番６号,,09,201,3200806,,,2022-11-10,清算の結了等,,,2015-10-05,1,,,,,ジュコウショウジ,0
386,2120001035717,登記記録の閉鎖等,0,2022-11-16,2022-11-14,中央フルーツ株式会社,,株式会社,大阪府,松原市,天美東６丁目１５番１１号,,27,217,5800032,,,2022-11-14,清算の結了等,,,2015-10-05,1,,,,,チュウオウフルーツ,0
397,2120005019138,登記記録の閉鎖等,0,2022-11-16,2022-10-31,一般社団法人プラスワン防災,,その他の設立登記法人,大阪府,豊中市,岡町９番６号ＧＳ岡町１０１,,27,203,5610885,,,2022-10-31,清算の結了等,,,2016-12-22,1,,,,,プラスワンボウサイ,0
399,2120901028423,登記記録の閉鎖等,0,2022-11-16,2022-11-14,株式会社日隈,,株式会社,大阪府,箕面市,船場西２丁目４番１４号,,27,220,5620036,,,2022-11-14,清算の結了等,,,2015-10-05,1,,,,,ヒノクマ,0
403,2130002004414,登記記録の閉鎖等,0,2022-11-16,2022-11-11,宮川染工有限会社,,有限会社,京都府,京都市北区,紫野中柏野町４６番地,,26,101,6038312,,,2022-11-11,清算の結了等,,,2015-10-05,1,,,,,ミヤガワセンコウ,0
409,2140001119716,登記記録の閉鎖等,0,2022-11-16,2022-11-14,株式会社Ｊａｐａｎ　Ｈｏｍｅ,,株式会社,兵庫県,加古郡播磨町,宮北３丁目５番３０号シャルマン１０１号室,,28,382,6750143,,,2022-11-14,清算の結了等,,,2020-12-16,1,,,,,ジャパンホーム,0
420,2170002010128,登記記録の閉鎖等,0,2022-11-16,2022-11-15,有限会社ケイエス企画,,有限会社,和歌山県,御坊市,名田町上野３０番地,,30,205,6440022,,,2022-11-15,清算の結了等,,,2015-10-05,1,,,,,ケイエスキカク,0
423,2180001045082,登記記録の閉鎖等,0,2022-11-16,2022-11-11,株式会社クレバーマーケティング,,株式会社,愛知県,名古屋市東区,葵２丁目１１番２２号,,23,102,4610004,,,2022-11-11,清算の結了等,,,2015-10-05,1,,,,,クレバーマーケティング,0
426,2180001087050,登記記録の閉鎖等,0,2022-11-16,2022-11-10,株式会社ミズタ,,株式会社,愛知県,一宮市,今伊勢町本神戸字名栗３番地２,,23,203,4910053,,,2022-11-10,清算の結了等,,,2015-10-05,1,,,,,ミズタ,0
440,2190001024036,登記記録の閉鎖等,0,2022-11-16,2022-11-14,株式会社アレッタ,,株式会社,三重県,津市,久居中町２７６番地７,,24,201,5141107,,,2022-11-14,合併による解散等,6140001040876,令和４年１０月１５日兵庫県丹波市青垣町東芦田４９４番地株式会社アシダコーポレーション（6140001040876）に合併し解散,2016-10-06,1,,,,,アレッタ,0
447,2260002002917,登記記録の閉鎖等,0,2022-11-16,2022-11-11,有限会社キタドノ,,有限会社,岡山県,岡山市北区,東古松２４１番地,,33,101,7000921,,,2022-11-11,清算の結了等,,,2015-10-05,1,,,,,キタドノ,0
448,2280005007102,登記記録の閉鎖等,0,2022-11-16,2022-11-01,農事組合法人いなしろ,,その他の設立登記法人,島根県,浜田市,弥栄町稲代１０８番地２,,32,202,6971215,,,2022-11-01,合併による解散等,5280005004690,令和４年１１月１日島根県浜田市弥栄町木都賀イ８５４番地１農事組合法人西の郷（5280005004690）に合併し解散,2016-01-12,1,,,,,イナシロ,0
456,2290002029197,登記記録の閉鎖等,0,2022-11-16,2022-11-10,有限会社テディリバー,,有限会社,福岡県,福岡市博多区,美野島３丁目２０番１６－５０２号,,40,132,8120017,,,2022-11-10,清算の結了等,,,2015-10-05,1,,,,,テディリバー,0
466,2350001005580,登記記録の閉鎖等,0,2022-11-16,2022-11-09,ケーツー株式会社,,株式会社,宮崎県,西都市,小野崎１丁目７６番地,,45,208,8810012,,,2022-11-09,清算の結了等,,,2015-10-05,1,,,,,ケーツー,0
469,2360001024803,登記記録の閉鎖等,0,2022-11-16,2022-10-31,株式会社おもろプロデュース,,株式会社,沖縄県,那覇市,天久２丁目１８番１４号ＨＯＴＥＬ・ＯＭＯＲＯ５８、２階,,47,201,9000005,,,2022-10-31,合併による解散等,2360002005744,令和４年１０月３１日沖縄県那覇市おもろまち四丁目９番２１号株式会社おもろハウジング（2360002005744）に合併し解散,2018-11-05,1,,,,,オモロプロデュース,0
475,2370802000398,登記記録の閉鎖等,0,2022-11-16,2022-11-07,有限会社大成企画事務所,,有限会社,宮城県,名取市,那智が丘１丁目４番地の６,,04,207,9811244,,,2022-11-07,清算の結了等,,,2015-10-05,1,,,,,タイセイキカクジムショ,0
489,2430002050155,登記記録の閉鎖等,0,2022-11-16,2022-11-07,びばいサッシ有限会社,,有限会社,北海道,美唄市,西三条北５丁目２番６号,,01,215,0720032,,,2022-11-07,清算の結了等,,,2015-10-05,1,,,,,,0
491,2460302004650,登記記録の閉鎖等,0,2022-11-16,2022-11-14,有限会社北登工業,,有限会社,北海道,網走郡大空町,女満別東陽２丁目６番１号,,01,564,0992305,,,2022-11-14,清算の結了等,,,2015-10-05,1,,,,,,0
506,3010002044917,登記記録の閉鎖等,0,2022-11-16,2022-11-10,有限会社エスエス・アセットマネジメント,,有限会社,東京都,千代田区,丸の内３丁目１番１号東京共同会計事務所内,,13,101,1000005,,,2022-11-10,清算の結了等,,,2015-10-05,1,,,,,エスエスアセットマネジメント,0
513,3010401124567,登記記録の閉鎖等,0,2022-11-16,2022-11-02,株式会社中古車流通支援センター,,株式会社,東京都,港区,西新橋２丁目３４番４号,,13,103,1050003,,,2022-11-02,清算の結了等,,,2016-05-10,1,,,,,チュウコシャリュウツウシエンセンター,0
514,3010401140432,登記記録の閉鎖等,0,2022-11-16,2022-11-02,株式会社ＰｌｕｓＵｌｔｒａ,,株式会社,東京都,港区,赤坂３丁目１６番４号中村ビル地下１階,,13,103,1070052,,,2022-11-02,合併による解散等,7010401112519,令和４年１１月１日東京都港区赤坂３－１２－１８第８荒井ビル地下１階株式会社鳳（7010401112519）に合併し解散,2018-08-29,1,,,,,プルスウルトラ,0
517,3010403010988,登記記録の閉鎖等,0,2022-11-16,2022-11-02,合同会社ＳＯＬパーク１２号,,合同会社,東京都,港区,西新橋１丁目１番３号,,13,103,1050003,,,2022-11-02,清算の結了等,,,2015-10-05,1,,,,,エスオーエルパークジュウニゴウ,0
524,3010901007107,登記記録の閉鎖等,0,2022-11-16,2022-11-11,田口工業株式会社,,株式会社,東京都,世田谷区,等々力７丁目４番１６号,,13,112,1580082,,,2022-11-11,清算の結了等,,,2015-10-05,1,,,,,タグチコウギョウ,0
529,3010903005538,登記記録の閉鎖等,0,2022-11-16,2022-11-04,合同会社フレスコ,,合同会社,東京都,世田谷区,太子堂２丁目２８番６号,,13,112,1540004,,,2022-11-04,清算の結了等,,,2020-02-27,1,,,,,フレスコ,0
545,3011403002430,登記記録の閉鎖等,0,2022-11-16,2022-11-14,合同会社星野,,合同会社,東京都,板橋区,相生町１５番５－５０２号,,13,119,1740044,,,2022-11-14,清算の結了等,,,2018-06-15,1,,,,,ホシノ,0
547,3011502008782,登記記録の閉鎖等,0,2022-11-16,2022-11-08,有限会社サンユープロセス,,有限会社,東京都,荒川区,西日暮里１丁目６２番８号,,13,118,1160013,,,2022-11-08,清算の結了等,,,2015-10-05,1,,,,,サンユープロセス,0
553,3012301008858,登記記録の閉鎖等,0,2022-11-16,2022-11-14,株式会社エルソル,,株式会社,東京都,町田市,原町田５丁目４番２４号,,13,209,1940013,,,2022-11-14,清算の結了等,,,2015-10-05,1,,,,,エルソル,0
582,3030001009258,登記記録の閉鎖等,0,2022-11-16,2022-11-04,株式会社ムース,,株式会社,埼玉県,さいたま市中央区,上落合１丁目９番１号,,11,105,3380001,,,2022-11-04,清算の結了等,,,2015-10-05,1,,,,,ムース,0
594,3040002042455,登記記録の閉鎖等,0,2022-11-16,2022-11-07,有限会社エムズ動物病院,,有限会社,千葉県,市川市,国分１丁目５番１０号,,12,203,2720834,,,2022-11-07,清算の結了等,,,2015-10-05,1,,,,,エムズドウブツビョウイン,0
600,3060001003720,登記記録の閉鎖等,0,2022-11-16,2022-11-09,株式会社イー・エイチ・システム,,株式会社,栃木県,宇都宮市,平松本町８６８番地９,,09,201,3210932,,,2022-11-09,清算の結了等,,,2015-10-05,1,,,,,イーエイチシステム,0
606,3080401017426,登記記録の閉鎖等,0,2022-11-16,2022-11-14,ワコーゴルフ株式会社,,株式会社,静岡県,袋井市,諸井２０４０番地,,22,216,4371121,,,2022-11-14,清算の結了等,,,2015-10-05,1,,,,,ワコーゴルフ,0
611,3090002003758,登記記録の閉鎖等,0,2022-11-16,2022-11-11,有限会社須賀企画,,有限会社,山梨県,甲斐市,篠原７９５番地の１５,,19,210,4000115,,,2022-11-11,清算の結了等,,,2015-10-05,1,,,,,スガキカク,0
628,3120003014107,登記記録の閉鎖等,0,2022-11-16,2022-11-09,合同会社ＵＲソーラー開発２号,,合同会社,大阪府,大阪市中央区,淡路町２丁目６番１１号４階,,27,128,5410047,,,2022-11-09,清算の結了等,,,2018-04-02,1,,,,,ユーアールソーラーカイハツニゴウ,0
646,3140001106382,登記記録の閉鎖等,0,2022-11-16,2022-11-11,株式会社デイホーム・矢倉,,株式会社,兵庫県,姫路市,飾磨区矢倉町１丁目１６番地１,,28,201,6728093,,,2022-11-11,清算の結了等,,,2017-06-06,1,,,,,デイホームヤグラ,0
656,3170002004070,登記記録の閉鎖等,0,2022-11-16,2022-11-14,有限会社らいすぴあ・いぐち,,有限会社,和歌山県,和歌山市,有本２０番地,,30,201,6408390,,,2022-11-14,清算の結了等,,,2015-10-05,1,,,,,ライスピアイグチ,0
672,3210001014355,登記記録の閉鎖等,0,2022-11-16,2022-11-14,株式会社松宮電工,,株式会社,福井県,大飯郡高浜町,東三松第２２号１８番地,,18,481,9192382,,,2022-11-14,清算の結了等,,,2015-10-05,1,,,,,マツミヤデンコウ,0
673,3220001009040,登記記録の閉鎖等,0,2022-11-16,2022-11-14,太田撚糸株式会社,,株式会社,石川県,白山市,下柏野町７３番地,,17,210,9240038,,,2022-11-14,清算の結了等,,,2015-10-05,1,,,,,オオタネンシ,0
724,3380002001170,登記記録の閉鎖等,0,2022-11-16,2022-11-07,有限会社ケイ工房,,有限会社,福島県,福島市,宮代字鍛治畑３７番地,,07,201,9600116,,,2022-11-07,清算の結了等,,,2015-10-05,1,,,,,ケイコウボウ,0
725,3380003003785,登記記録の閉鎖等,0,2022-11-16,2022-11-07,合資会社澄心地,,合資会社,福島県,田村郡小野町,大字谷津作字猪久保１８番地の１９,,07,522,9633402,,,2022-11-07,清算の結了等,,,2017-01-24,1,,,,,トウシンチ,0
748,3450002004348,登記記録の閉鎖等,0,2022-11-16,2022-11-15,有限会社浜長末広店,,有限会社,北海道,旭川市,春光一条９丁目１番２２号,,01,204,0700871,,,2022-11-15,清算の結了等,,,2015-10-05,1,,,,,ハマチョウスエヒロテン,0
762,4010001153602,登記記録の閉鎖等,0,2022-11-16,2022-11-01,保険サービスシステムホールディングス株式会社,,株式会社,東京都,目黒区,八雲４丁目７番３号１Ｆ,,13,110,1520023,,,2022-11-01,合併による解散等,3010001137077,令和４年１１月１日東京都目黒区八雲四丁目７番３号１Ｆ株式会社トラストサポート（3010001137077）に合併し解散,2015-10-05,1,,,,,ホケンサービスシステムホールディングス,0
774,4010402005451,登記記録の閉鎖等,0,2022-11-16,2022-11-08,ハルエンタープライズ有限会社,,有限会社,東京都,港区,高輪２丁目１５番１６号,,13,103,1080074,,,2022-11-08,合併による解散等,2010701035589,令和４年１１月１日東京都品川区東五反田三丁目６番１０号株式会社スポケン（2010701035589）に合併し解散,2015-10-05,1,,,,,,0
781,4010501005699,登記記録の閉鎖等,0,2022-11-16,2022-11-11,株式会社シップス,,株式会社,東京都,台東区,入谷２丁目３３番８号,,13,106,1100013,,,2022-11-11,清算の結了等,,,2015-10-05,1,,,,,シップス,0
789,4010705001809,登記記録の閉鎖等,0,2022-11-16,2022-11-11,一般財団法人日本万歩クラブ,,その他の設立登記法人,東京都,品川区,西五反田８丁目３番１３号,,13,109,1410031,,,2022-11-11,清算の結了等,,,2015-10-05,1,,,,,ニホンマンポクラブ,0
806,4011101069713,登記記録の閉鎖等,0,2022-11-16,2022-11-14,日本レンタルカメラ株式会社,,株式会社,広島県,広島市東区,上大須賀町４番２号,,34,102,7320056,,,2022-11-14,清算の結了等,,,2015-10-05,1,,,,,ニホンレンタルカメラ,0
819,4011602011867,登記記録の閉鎖等,0,2022-11-16,2022-11-11,有限会社緑風ガーデン,,有限会社,東京都,練馬区,西大泉４丁目２６番１号,,13,120,1780065,,,2022-11-11,清算の結了等,,,2015-10-05,1,,,,,リョクフウガーデン,0
829,4011802003581,登記記録の閉鎖等,0,2022-11-16,2022-11-11,有限会社椎名製作所,,有限会社,東京都,葛飾区,東四つ木３丁目３２番２号,,13,122,1240014,,,2022-11-11,清算の結了等,,,2015-10-05,1,,,,,シイナセイサクショ,0
831,4011803004728,登記記録の閉鎖等,0,2022-11-16,2022-11-14,合同会社ＣＲＰ,,合同会社,東京都,葛飾区,新小岩２丁目１０番９号新小岩バルコスビル４０１号,,13,122,1240024,,,2022-11-14,清算の結了等,,,2021-08-03,1,,,,,シーアールピー,0
842,4020001065920,登記記録の閉鎖等,0,2022-11-16,2022-11-09,エルアール経営コンサルタンツ株式会社,,株式会社,神奈川県,川崎市高津区,久本３丁目３番１４号,,14,134,2130011,,,2022-11-09,清算の結了等,,,2015-10-05,1,,,,,エルアールケイエイコンサルタンツ,0
851,4020002099406,登記記録の閉鎖等,0,2022-11-16,2022-11-09,有限会社宮里工業,,有限会社,神奈川県,川崎市川崎区,小田３丁目８番１５号,,14,131,2100846,,,2022-11-09,清算の結了等,,,2015-10-05,1,,,,,ミヤザトコウギョウ,0
852,4020003018323,登記記録の閉鎖等,0,2022-11-16,2022-11-11,合同会社ＢＵＧＧＹ　ＰＲＯＪＥＣＴ,,合同会社,神奈川県,横浜市中区,本牧元町９－８－２,,14,104,2310822,,,2022-11-11,清算の結了等,,,2020-08-07,1,,,,,バギープロジェクト,0
853,4020003018645,登記記録の閉鎖等,0,2022-11-16,2022-11-11,合同会社ナイス,,合同会社,神奈川県,横浜市中区,本牧元町９－８－２,,14,104,2310822,,,2022-11-11,清算の結了等,,,2020-10-21,1,,,,,ナイス,0
860,4021002032950,登記記録の閉鎖等,0,2022-11-16,2022-11-10,有限会社藤岡屋酒店,,有限会社,神奈川県,厚木市,元町３番１９号,,14,212,2430002,,,2022-11-10,清算の結了等,,,2015-10-05,1,,,,,フジオカヤサケテン,0
881,4040002049706,登記記録の閉鎖等,0,2022-11-16,2022-11-07,有限会社ワイ・ティー・コーポレーション,,有限会社,千葉県,松戸市,小金原２丁目１１番地の７,,12,207,2700021,,,2022-11-07,清算の結了等,,,2015-10-05,1,,,,,ワイティーコーポレーション,0
885,4040005009905,登記記録の閉鎖等,0,2022-11-16,2022-11-07,東金酪農農業協同組合,,その他の設立登記法人,千葉県,東金市,広瀬４７１番地,,12,213,2830041,,,2022-11-07,清算の結了等,,,2015-10-05,1,,,,,トウガネラクノウ,0
902,4080401020610,登記記録の閉鎖等,0,2022-11-16,2022-11-15,株式会社ＫＣｐｌｕｓ,,株式会社,静岡県,浜松市浜北区,染地台４丁目２０番２３号,,22,136,4340046,,,2022-11-15,清算の結了等,,,2015-10-05,1,,,,,ケーシープラス,0
916,4110005010681,登記記録の閉鎖等,0,2022-11-16,2022-11-14,特定非営利活動法人ほくほく村,,その他の設立登記法人,新潟県,十日町市,松代３４７３番地１,,15,210,9421526,,,2022-11-14,清算の結了等,,,2015-10-05,1,,,,,ホクホクムラ,0
924,4120001236544,登記記録の閉鎖等,0,2022-11-16,2022-11-10,明治工業株式会社,,株式会社,大阪府,大阪市西淀川区,福町２丁目２－２８ピュアライフ福町１０７,,27,113,5550034,,,2022-11-10,清算の結了等,,,2021-04-07,1,,,,,メイジコウギョウ,0
926,4120003015913,登記記録の閉鎖等,0,2022-11-16,2022-11-11,レガート合同会社,,合同会社,大阪府,大阪市中央区,森ノ宮中央１丁目１６番２号森ノ宮コスモビル１階,,27,128,5400003,,,2022-11-11,清算の結了等,,,2019-07-02,1,,,,,,0
938,4130001016490,登記記録の閉鎖等,0,2022-11-16,2022-11-10,イシダ株式会社,,株式会社,京都府,京都市下京区,四条通西洞院東入郭巨山町７番地１０１号,,26,106,6008493,,,2022-11-10,清算の結了等,,,2015-10-05,1,,,,,イシダ,0
942,4140001083893,登記記録の閉鎖等,0,2022-11-16,2022-11-14,株式会社小菅技術開発研究所,,株式会社,兵庫県,宝塚市,泉ガ丘６番３１号,,28,214,6650851,,,2022-11-14,清算の結了等,,,2015-10-05,1,,,,,コスゲギジュツカイハツケンキュウショ,0
949,4150005009233,登記記録の閉鎖等,0,2022-11-16,2022-11-11,一般社団法人アセンティア・インベストメント,,その他の設立登記法人,奈良県,奈良市,大宮町６丁目１番１１号,,29,201,6308115,,,2022-11-11,清算の結了等,,,2020-11-26,1,,,,,アセンティアインベストメント,0
952,4180001065459,登記記録の閉鎖等,0,2022-11-16,2022-11-09,株式会社ＢＡリサーチ,,株式会社,愛知県,名古屋市天白区,久方１丁目１５２番地,,23,116,4680034,,,2022-11-09,清算の結了等,,,2015-10-05,1,,,,,ビーエーリサーチ,0
957,4180001144758,登記記録の閉鎖等,0,2022-11-16,2022-11-10,Ｈｕｃｋｌｅ株式会社,,株式会社,愛知県,名古屋市千種区,城木町２丁目５１番地の１,,23,101,4640846,,,2022-11-10,清算の結了等,,,2021-02-10,1,,,,,ハックル,0
966,4180302022332,登記記録の閉鎖等,0,2022-11-16,2022-11-09,有限会社常起寿し,,有限会社,愛知県,豊田市,中根町町田７９番地,,23,211,4730923,,,2022-11-09,清算の結了等,,,2015-10-05,1,,,,,ツネキズシ,0
989,4240001001366,登記記録の閉鎖等,0,2022-11-16,2022-11-14,株式会社エス・ケー・ケー,,株式会社,広島県,広島市東区,上大須賀町４番２号,,34,102,7320056,,,2022-11-14,清算の結了等,,,2015-10-05,1,,,,,エスケーケー,0
991,4240001044893,登記記録の閉鎖等,0,2022-11-16,2022-11-14,株式会社松本コーポレーション,,株式会社,広島県,福山市,新市町大字下安井４６６番地２,,34,207,7293105,,,2022-11-14,清算の結了等,,,2015-10-05,1,,,,,,0
993,4240002029811,登記記録の閉鎖等,0,2022-11-16,2022-11-15,有限会社シマカワ,,有限会社,広島県,山県郡安芸太田町,大字寺領１９１２番地１,,34,368,7313824,,,2022-11-15,清算の結了等,,,2015-10-05,1,,,,,シマカワ,0
1007,4290002030855,登記記録の閉鎖等,0,2022-11-16,2022-11-10,有限会社エリアサービス,,有限会社,福岡県,福岡市中央区,渡辺通２丁目７－１４,,40,133,8100004,,,2022-11-10,清算の結了等,,,2015-10-05,1,,,,,エリアサービス,0
1014,4330001008534,登記記録の閉鎖等,0,2022-11-16,2022-11-10,株式会社アール・デフィ,,株式会社,熊本県,熊本市北区,鹿子木町１７４番地２,,43,105,8615521,,,2022-11-10,清算の結了等,,,2015-10-05,1,,,,,アールデフィ,0
1016,4330001024473,登記記録の閉鎖等,0,2022-11-16,2022-11-11,株式会社螢丸,,株式会社,熊本県,上益城郡山都町,入佐３３７番地,,43,447,8613511,,,2022-11-11,清算の結了等,,,2017-09-12,1,,,,,ホタルマル,0
1020,4350001009729,登記記録の閉鎖等,0,2022-11-16,2022-11-11,株式会社フリーライン,,株式会社,宮崎県,串間市,大字北方２６３４番地,,45,207,8880005,,,2022-11-11,清算の結了等,,,2015-10-05,1,,,,,フリーライン,0
1030,4370102000023,登記記録の閉鎖等,0,2022-11-16,2022-11-08,有限会社アートステージ,,有限会社,宮城県,柴田郡柴田町,東船迫１丁目４番地の８,,04,323,9891731,,,2022-11-08,清算の結了等,,,2015-10-05,1,,,,,アートステージ,0
1039,4380005002504,登記記録の閉鎖等,0,2022-11-16,2022-11-08,一般社団法人福島県医薬品登録販売者協会,,その他の設立登記法人,福島県,郡山市,開成２丁目３３番５号,,07,203,9638851,,,2022-11-08,清算の結了等,,,2015-10-05,1,,,,,フクシマケンイヤクヒントウロクハンバイシャキョウカイ,0
1069,5010005027413,登記記録の閉鎖等,0,2022-11-16,2022-11-02,一般社団法人国際２２世紀みらい会議,,その他の設立登記法人,千葉県,勝浦市,墨名５９４番地１サンフラワー勝浦４０５号,,12,218,2995225,,,2022-11-02,清算の結了等,,,2017-09-11,1,,,,,コクサイニジュウニセイキミライカイギ,0
1091,5010403010986,登記記録の閉鎖等,0,2022-11-16,2022-11-02,合同会社ＳＯＬパーク１０号,,合同会社,東京都,港区,西新橋１丁目１番３号,,13,103,1050003,,,2022-11-02,清算の結了等,,,2015-10-05,1,,,,,エスオーエルパークジュウゴウ,0
1098,5010502013832,登記記録の閉鎖等,0,2022-11-16,2022-11-11,有限会社ハタ記章,,有限会社,東京都,台東区,蔵前４丁目１７番７号,,13,106,1110051,,,2022-11-11,清算の結了等,,,2015-10-05,1,,,,,ハタキショウ,0
1124,5011201021127,登記記録の閉鎖等,0,2022-11-16,2022-11-14,株式会社ＰＵＥＲＴＯ,,株式会社,東京都,中野区,中野５丁目５８番地９ソシアルビル１０３,,13,114,1640001,,,2022-11-14,清算の結了等,,,2019-02-06,1,,,,,プエルト,0
1139,5011802003291,登記記録の閉鎖等,0,2022-11-16,2022-11-11,有限会社佐々木,,有限会社,東京都,葛飾区,奥戸３丁目７番２号,,13,122,1240022,,,2022-11-11,清算の結了等,,,2015-10-05,1,,,,,ササキ,0
1141,5011805001004,登記記録の閉鎖等,0,2022-11-16,2022-11-14,共栄青果事業協同組合,,その他の設立登記法人,東京都,足立区,入谷６丁目３番１号,,13,121,1210836,,,2022-11-14,清算の結了等,,,2015-10-05,1,,,,,キョウエイセイカ,0
1155,5020001114668,登記記録の閉鎖等,0,2022-11-16,2022-11-11,Ｎｉｓｓａｎ　Ａｌｌｐａｒｔｓ　Ｉｎｔｅｒｎａｔｉｏｎａｌ株式会社,,株式会社,神奈川県,横浜市西区,高島１丁目１番１号,,14,103,2200011,,,2022-11-11,清算の結了等,,,2016-02-01,1,,,,,ニッサンオールパーツインターナショナル,0
1156,5020002080091,登記記録の閉鎖等,0,2022-11-16,2022-11-10,有限会社近岡技術経営研究所,,有限会社,神奈川県,横浜市青葉区,すすき野１丁目５番地１６４,,14,117,2250021,,,2022-11-10,清算の結了等,,,2015-10-05,1,,,,,チカオカギジュツケイエイケンキュウジョ,0
1163,5030001001972,登記記録の閉鎖等,0,2022-11-16,2022-11-10,株式会社イー・ケー,,株式会社,埼玉県,さいたま市西区,大字佐知川１１番地,,11,101,3310064,,,2022-11-10,清算の結了等,,,2015-10-05,1,,,,,イーケー,0
1192,5050002001656,登記記録の閉鎖等,0,2022-11-16,2022-11-09,有限会社シマヤ,,有限会社,茨城県,水戸市,西原２丁目１２番２５号,,08,201,3100044,,,2022-11-09,清算の結了等,,,2015-10-05,1,,,,,シマヤ,0
1204,5110001033735,登記記録の閉鎖等,0,2022-11-16,2022-11-14,株式会社Ｆａｉｔｈ,,株式会社,新潟県,長岡市,東坂之上町３丁目１番地１４,,15,202,9400066,,,2022-11-14,清算の結了等,,,2019-01-07,1,,,,,フェイス,0
1205,5110005016430,登記記録の閉鎖等,0,2022-11-16,2022-11-14,一般社団法人ＲＡＭ占学協会,,その他の設立登記法人,新潟県,新潟市北区,石動１丁目１５番地３,,15,101,9503327,,,2022-11-14,清算の結了等,,,2019-07-30,1,,,,,ラムセンガクキョウカイ,0
1206,5120001068895,登記記録の閉鎖等,0,2022-11-16,2022-11-07,株式会社博潮社,,株式会社,大阪府,八尾市,恩智中町４丁目２１９番地,,27,212,5810883,,,2022-11-07,清算の結了等,,,2015-10-05,1,,,,,ハクチョウシャ,0
1237,5140003011661,登記記録の閉鎖等,0,2022-11-16,2022-11-14,合同会社ＬＥＣ,,合同会社,兵庫県,神戸市東灘区,本庄町２丁目８番２号,,28,101,6580012,,,2022-11-14,清算の結了等,,,2016-10-12,1,,,,,レック,0
1245,5180001046301,登記記録の閉鎖等,0,2022-11-16,2022-11-10,シーエーサービス株式会社,,株式会社,愛知県,名古屋市東区,泉１丁目６番１号,,23,102,4610001,,,2022-11-10,合併による解散等,7180301035010,令和４年１１月１日愛知県豊田市田籾町隠迫間６０５番地１トヨタＧＨサービス株式会社（7180301035010）に合併し解散,2015-10-05,1,,,,,シーエーサービス,0
1256,5180003003853,登記記録の閉鎖等,0,2022-11-16,2022-11-09,合資会社フナハシ,,合資会社,愛知県,名古屋市天白区,植田東２丁目７０８番地,,23,116,4680006,,,2022-11-09,清算の結了等,,,2015-10-05,1,,,,,フナハシ,0
1267,5190002010560,登記記録の閉鎖等,0,2022-11-16,2022-11-14,有限会社大大,,有限会社,三重県,鳥羽市,鳥羽２丁目１６番６号,,24,211,5170011,,,2022-11-14,清算の結了等,,,2015-10-05,1,,,,,ダイダイ,0
1298,5330001019027,登記記録の閉鎖等,0,2022-11-16,2022-11-14,株式会社ＬＥＡＰ,,株式会社,鹿児島県,鹿児島市,松原町１番２号（サクラヒルズ天公前５０２号）,,46,201,8920833,,,2022-11-14,清算の結了等,,,2015-10-05,1,,,,,リープ,0
1305,5350002000792,登記記録の閉鎖等,0,2022-11-16,2022-11-15,有限会社大塚台酒店,,有限会社,宮崎県,宮崎市,大塚台西３丁目２３番地６,,45,201,8802105,,,2022-11-15,清算の結了等,,,2015-10-05,1,,,,,オオツカダイサケテン,0
1318,5420001006445,登記記録の閉鎖等,0,2022-11-16,2022-11-11,株式会社八戸中央産業,,株式会社,青森県,八戸市,大字河原木字宇兵衛河原１番地１号,,02,203,0391161,,,2022-11-11,清算の結了等,,,2015-10-05,1,,,,,ハチノヘチュウオウサンギョウ,0
1326,5430001013787,登記記録の閉鎖等,0,2022-11-16,2022-11-01,株式会社ビーユー,,株式会社,北海道,札幌市南区,澄川六条４丁目１１番１９号,,01,106,0050006,,,2022-11-01,清算の結了等,,,2015-10-05,1,,,,,ビーユー,0
1401,6011701016897,登記記録の閉鎖等,0,2022-11-16,2022-11-14,株式会社アルコ,,株式会社,東京都,江戸川区,西葛西６丁目１０番５号アルファコート西葛西８０２,,13,123,1340088,,,2022-11-14,清算の結了等,,,2015-10-05,1,,,,,アルコ,0
1404,6011801023760,登記記録の閉鎖等,0,2022-11-16,2022-11-11,株式会社三雪,,株式会社,東京都,葛飾区,高砂１丁目２１番１６号,,13,122,1250054,,,2022-11-11,清算の結了等,,,2015-10-05,1,,,,,サンセツ,0
1446,6030002007373,登記記録の閉鎖等,0,2022-11-16,2022-11-10,有限会社須原商店,,有限会社,埼玉県,さいたま市緑区,原山１丁目３０番１号,,11,109,3360931,,,2022-11-10,清算の結了等,,,2015-10-05,1,,,,,スハラショウテン,0
1447,6030002080544,登記記録の閉鎖等,0,2022-11-16,2022-11-08,有限会社カネコ電化,,有限会社,埼玉県,本庄市,駅南１丁目１４番１７号,,11,211,3670041,,,2022-11-08,清算の結了等,,,2015-10-05,1,,,,,カネコデンカ,0
1452,6040001061643,登記記録の閉鎖等,0,2022-11-16,2022-10-31,大田宅建株式会社,,株式会社,千葉県,旭市,川口３５４２番地,,12,215,2892535,,,2022-10-31,清算の結了等,,,2015-10-05,1,,,,,オオタタッケン,0
1463,6040003006547,登記記録の閉鎖等,0,2022-11-16,2022-11-08,Ｄｒ．Ｋｅｎホームスクール合同会社,,合同会社,千葉県,鎌ケ谷市,南初富３丁目２１－３４,,12,224,2730123,,,2022-11-08,清算の結了等,,,2015-10-05,1,,,,,ドクターケンホームスクール,0
1484,6090002011254,登記記録の閉鎖等,0,2022-11-16,2022-11-09,有限会社電機連,,有限会社,山梨県,甲州市,勝沼町山１２８番地１,,19,213,4091306,,,2022-11-09,清算の結了等,,,2015-10-05,1,,,,,デンキレン,0
1490,6120001041827,登記記録の閉鎖等,0,2022-11-16,2022-11-10,株式会社エフ・ティー・ジー,,株式会社,兵庫県,伊丹市,藤ノ木２丁目２番１３号,,28,207,6640847,,,2022-11-10,合併による解散等,7120001049019,令和４年１１月１日兵庫県伊丹市藤ノ木二丁目２番１３号ＴＯＹＯ　ＴＩＲＥ株式会社（7120001049019）に合併し解散,2015-10-05,1,,,,,エフティージー,0
1509,6122001030405,登記記録の閉鎖等,0,2022-11-16,2022-11-10,株式会社竹臣,,株式会社,大阪府,東大阪市,足代１丁目１５番１０号ロータリーマンション布施南１１２号,,27,227,5770841,,,2022-11-10,合併による解散等,9120901031081,令和４年１１月１日静岡県静岡市葵区伝馬町９－７塚本ビル１Ｆ株式会社ＢＡＭＢＯＯ（9120901031081）に合併し解散,2017-03-09,1,,,,,タケシン,0
1510,6122002006981,登記記録の閉鎖等,0,2022-11-16,2022-11-10,有限会社栴檀,,有限会社,大阪府,東大阪市,上小阪３丁目７番３５号,,27,227,5770806,,,2022-11-10,清算の結了等,,,2015-10-05,1,,,,,センダン,0
1517,6140001002455,登記記録の閉鎖等,0,2022-11-16,2022-11-08,株式会社ペリカセブン,,株式会社,兵庫県,神戸市東灘区,深江浜町１４２番地,,28,101,6580023,,,2022-11-08,清算の結了等,,,2016-05-09,1,,,,,ペリカセブン,0
1558,6230001015794,登記記録の閉鎖等,0,2022-11-16,2022-11-14,株式会社Ｓ．Ｎ．Ｇ,,株式会社,富山県,高岡市,福岡町下老子５６３番地５,,16,202,9390121,,,2022-11-14,清算の結了等,,,2015-10-05,1,,,,,,0
1577,6310002000218,登記記録の閉鎖等,0,2022-11-16,2022-11-15,有限会社アタル産業,,有限会社,長崎県,長崎市,小江町２０２８番地,,42,201,8511133,,,2022-11-15,清算の結了等,,,2015-10-05,1,,,,,アタルサンギョウ,0
1598,6380002015746,登記記録の閉鎖等,0,2022-11-16,2022-11-08,有限会社ジープラント,,有限会社,福島県,郡山市,富久山町福原字西原７０番地,,07,203,9638061,,,2022-11-08,清算の結了等,,,2015-10-05,1,,,,,ジープラント,0
1599,6380002023658,登記記録の閉鎖等,0,2022-11-16,2022-11-08,有限会社斉藤農機種苗店,,有限会社,福島県,いわき市,遠野町上遠野字中ノ町５９番地の１,,07,204,9720161,,,2022-11-08,清算の結了等,,,2015-10-05,1,,,,,サイトウノウキシュビョウテン,0
1602,6390001007826,登記記録の閉鎖等,0,2022-11-16,2022-11-14,株式会社丸甚商事,,株式会社,山形県,鶴岡市,斎藤川原字林俣１００番地,,06,203,9970804,,,2022-11-14,清算の結了等,,,2015-10-05,1,,,,,マルジンショウジ,0
1611,6430002019790,登記記録の閉鎖等,0,2022-11-16,2022-11-07,有限会社村上コンサルタント,,有限会社,北海道,札幌市中央区,大通東２丁目３番１号,,01,101,0600041,,,2022-11-07,清算の結了等,,,2015-10-05,1,,,,,ムラカミコンサルタント,0
1613,6430002060051,登記記録の閉鎖等,0,2022-11-16,2022-11-08,有限会社まるしん燃料,,有限会社,北海道,苫小牧市,ときわ町４丁目１３番１８号,,01,213,0591261,,,2022-11-08,清算の結了等,,,2015-10-05,1,,,,,マルシンネンリョウ,0
1623,6500001003747,登記記録の閉鎖等,0,2022-11-16,2022-11-14,株式会社松山倶楽部,,株式会社,愛媛県,松山市,道後樋又４番２３号,,38,201,7900825,,,2022-11-14,清算の結了等,,,2015-10-05,1,,,,,マツヤマクラブ,0
1627,7010001168597,登記記録の閉鎖等,0,2022-11-16,2022-11-14,ＤＥＮＤＥＮモバイル株式会社,,株式会社,東京都,足立区,千住１丁目４番１号,,13,121,1200034,,,2022-11-14,清算の結了等,,,2015-10-05,1,,,,,デンデンモバイル,0
1633,7010005001746,登記記録の閉鎖等,0,2022-11-16,2022-11-14,東京産機協同組合,,その他の設立登記法人,東京都,千代田区,内神田３丁目４番１５号,,13,101,1010047,,,2022-11-14,清算の結了等,,,2015-10-05,1,,,,,トウキョウサンキ,0
1642,7010401144124,登記記録の閉鎖等,0,2022-11-16,2022-11-01,株式会社Ｌｕｓｈ　Ｌｉｆｅ　Ｔｅｃｈｎｏｌｏｇｉｅｓ,,株式会社,東京都,港区,芝浦３丁目７番１２号,,13,103,1080023,,,2022-11-01,清算の結了等,,,2019-03-07,1,,,,,ラッシュライフテクノロジーズ,0
1645,7010402000813,登記記録の閉鎖等,0,2022-11-16,2022-11-01,有限会社朝日政経広報センター,,有限会社,東京都,港区,麻布十番１丁目９番１１号,,13,103,1060045,,,2022-11-01,清算の結了等,,,2015-10-05,1,,,,,アサヒセイケイコウホウセンター,0
1665,7010902005907,登記記録の閉鎖等,0,2022-11-16,2022-11-09,有限会社小作教材社,,有限会社,東京都,世田谷区,北烏山６丁目２０番３号,,13,112,1570061,,,2022-11-09,清算の結了等,,,2015-10-05,1,,,,,コサクキョウザイシャ,0
1673,7011101069652,登記記録の閉鎖等,0,2022-11-16,2022-11-11,株式会社ダンデライオン,,株式会社,東京都,台東区,台東４丁目２９番８号こうしんビル,,13,106,1100016,,,2022-11-11,清算の結了等,,,2015-10-05,1,,,,,ダンデライオン,0
1684,7011602008167,登記記録の閉鎖等,0,2022-11-16,2022-11-11,有限会社晴海テクノ,,有限会社,東京都,練馬区,高松５丁目７番２号,,13,120,1790075,,,2022-11-11,清算の結了等,,,2015-10-05,1,,,,,ハルミテクノ,0
1697,7013302001856,登記記録の閉鎖等,0,2022-11-16,2022-11-11,有限会社エミール小野,,有限会社,東京都,豊島区,要町１丁目３４番３号,,13,116,1710043,,,2022-11-11,清算の結了等,,,2015-10-05,1,,,,,エミールオノ,0
1713,7020002052634,登記記録の閉鎖等,0,2022-11-16,2022-11-11,有限会社黒岩電気エンジニアリング,,有限会社,神奈川県,横浜市泉区,緑園２丁目３８番地１１,,14,116,2450002,,,2022-11-11,清算の結了等,,,2015-10-05,1,,,,,クロイワデンキエンジニアリング,0
1715,7020002085989,登記記録の閉鎖等,0,2022-11-16,2022-11-10,有限会社エス・ビー・ティー,,有限会社,神奈川県,川崎市宮前区,宮崎２９８番地２－３０４,,14,136,2160033,,,2022-11-10,清算の結了等,,,2015-10-05,1,,,,,エスビーティー,0
1716,7020002088612,登記記録の閉鎖等,0,2022-11-16,2022-11-10,有限会社加藤商事,,有限会社,神奈川県,川崎市高津区,下作延２丁目３５番２１号,,14,134,2130033,,,2022-11-10,清算の結了等,,,2015-10-05,1,,,,,,0
1720,7021001030465,登記記録の閉鎖等,0,2022-11-16,2022-11-10,株式会社キヤミ,,株式会社,神奈川県,大和市,林間１丁目１７番２１号,,14,213,2420003,,,2022-11-10,清算の結了等,,,2015-10-05,1,,,,,キヤミ,0
1732,7030002009559,登記記録の閉鎖等,0,2022-11-16,2022-11-10,有限会社トビヨシ,,有限会社,埼玉県,さいたま市緑区,太田窪１丁目２３番３号,,11,109,3360936,,,2022-11-10,清算の結了等,,,2015-10-05,1,,,,,トビヨシ,0
1734,7030003000178,登記記録の閉鎖等,0,2022-11-16,2022-11-08,合資会社モリ商会,,合資会社,埼玉県,さいたま市浦和区,高砂４丁目１５番１３号,,11,107,3300063,,,2022-11-08,清算の結了等,,,2015-10-05,1,,,,,モリショウカイ,0
1740,7040001112197,登記記録の閉鎖等,0,2022-11-16,2022-11-08,株式会社Ａｌｂｉｒｅｏ,,株式会社,千葉県,館山市,亀ケ原１０１６番地の７,,12,205,2940052,,,2022-11-08,清算の結了等,,,2020-01-20,1,,,,,アルビレオ,0
1747,7040002086688,登記記録の閉鎖等,0,2022-11-16,2022-11-07,有限会社イチハチ観光,,有限会社,千葉県,白井市,根４１２番地,,12,232,2701431,,,2022-11-07,清算の結了等,,,2015-10-05,1,,,,,イチハチカンコウ,0
1752,7060001016909,登記記録の閉鎖等,0,2022-11-16,2022-11-01,株式会社岩中,,株式会社,栃木県,小山市,大字卒島１１０７番地１,,09,208,3230061,,,2022-11-01,清算の結了等,,,2015-10-05,1,,,,,イワナカ,0
1759,7070002030024,登記記録の閉鎖等,0,2022-11-16,2022-11-07,有限会社田部井商会,,有限会社,群馬県,邑楽郡邑楽町,大字中野３８２７番地,,10,525,3700603,,,2022-11-07,清算の結了等,,,2015-10-05,1,,,,,タベイショウカイ,0
1768,7120001007422,登記記録の閉鎖等,0,2022-11-16,2022-11-14,株式会社小阪鈑金,,株式会社,大阪府,大阪市都島区,毛馬町１丁目１６番２号,,27,102,5340001,,,2022-11-14,清算の結了等,,,2015-10-05,1,,,,,コサカバンキン,0
1791,7122002014447,登記記録の閉鎖等,0,2022-11-16,2022-11-09,有限会社ニポポ,,有限会社,大阪府,八尾市,山本町北３丁目８番９号,,27,212,5810831,,,2022-11-09,清算の結了等,,,2015-10-05,1,,,,,ニポポ,0
1798,7140001053885,登記記録の閉鎖等,0,2022-11-16,2022-11-14,株式会社サービック,,株式会社,兵庫県,尼崎市,額田町１２番９号,,28,202,6610962,,,2022-11-14,清算の結了等,,,2015-10-05,1,,,,,サービック,0
1808,7180001127909,登記記録の閉鎖等,0,2022-11-16,2022-11-09,株式会社Ｇｏｌｄｅｎ　Ｖｅｃｔｏｒ,,株式会社,愛知県,瀬戸市,追分町３４番地,,23,204,4890803,,,2022-11-09,清算の結了等,,,2017-05-22,1,,,,,ゴールデンベクター,0
1837,7240001027177,登記記録の閉鎖等,0,2022-11-16,2022-11-11,株式会社南広島自動車整備工場,,株式会社,広島県,江田島市,能美町鹿川２７４２番地の１,,34,215,7372302,,,2022-11-11,清算の結了等,,,2015-10-05,1,,,,,ミナミヒロシマジドウシャセイビコウジョウ,0
1841,7240001051152,登記記録の閉鎖等,0,2022-11-16,2022-11-14,辛漬株式会社,,株式会社,広島県,安芸郡海田町,三迫３丁目３－８,,34,304,7360014,,,2022-11-14,清算の結了等,,,2017-05-19,1,,,,,カラツケ,0
1849,7280005007221,登記記録の閉鎖等,0,2022-11-16,2022-11-01,農事組合法人ハツラツ大坪,,その他の設立登記法人,島根県,浜田市,弥栄町大坪２３６番地３,,32,202,6971214,,,2022-11-01,合併による解散等,5280005004690,令和４年１１月１日島根県浜田市弥栄町木都賀イ８５４番地１農事組合法人西の郷（5280005004690）に合併し解散,2018-03-06,1,,,,,ハツラツオオツボ,0
1856,7290002051733,登記記録の閉鎖等,0,2022-11-16,2022-11-10,有限会社ストーク,,有限会社,福岡県,小郡市,小板井４９４番地１,,40,216,8380143,,,2022-11-10,清算の結了等,,,2015-10-05,1,,,,,ストーク,0
1864,7350002002102,登記記録の閉鎖等,0,2022-11-16,2022-11-15,有限会社新栄リース,,有限会社,宮崎県,宮崎市,大字新名爪２１６番地５,,45,201,8800124,,,2022-11-15,清算の結了等,,,2015-10-05,1,,,,,シンエイリース,0
1878,7390002005274,登記記録の閉鎖等,0,2022-11-16,2022-11-11,有限会社テーピーエフ,,有限会社,山形県,天童市,清池東１丁目１番６号,,06,210,9940069,,,2022-11-11,清算の結了等,,,2015-10-05,1,,,,,,0
1893,7430002045142,登記記録の閉鎖等,0,2022-11-16,2022-11-09,ひまわり宅建有限会社,,有限会社,北海道,札幌市白石区,菊水三条５丁目５番１０アルス東札幌グランシップ５０１号,,01,104,0030803,,,2022-11-09,清算の結了等,,,2015-10-05,1,,,,,ヒマワリタッケン,0
1905,7460302000637,登記記録の閉鎖等,0,2022-11-16,2022-11-14,有限会社五条薬局,,有限会社,北海道,北見市,北五条西４丁目７番地２,,01,208,0900045,,,2022-11-14,清算の結了等,,,2015-10-05,1,,,,,ゴジョウヤッキョク,0
1909,7480001004516,登記記録の閉鎖等,0,2022-11-16,2022-11-14,ＴＣ企画株式会社,,株式会社,徳島県,吉野川市,鴨島町上下島４４０番地,,36,205,7760013,,,2022-11-14,清算の結了等,,,2015-10-05,1,,,,,ティーシーキカク,0
1918,8010001161782,登記記録の閉鎖等,0,2022-11-16,2022-11-10,ギルダンブランズ・ジャパン株式会社,,株式会社,東京都,渋谷区,神宮前３丁目２５番１４号エスラ原宿ビル４階,,13,113,1500001,,,2022-11-10,清算の結了等,,,2015-10-05,1,,,,,ギルダンブランズジャパン,0
1919,8010001190443,登記記録の閉鎖等,0,2022-11-16,2022-11-11,株式会社ウィッシュワークメディカルサポート,,株式会社,東京都,中央区,日本橋本石町３丁目２番７号常盤ビル９階,,13,102,1030021,,,2022-11-11,合併による解散等,7010401093494,令和４年１０月３１日東京都港区芝浦四丁目２０番２－１１１２号株式会社ウィッシュワークホールディングス（7010401093494）に合併し解散,2018-03-20,1,,,,,ウィッシュワークメディカルサポート,0
1935,8010401150237,登記記録の閉鎖等,0,2022-11-16,2022-11-01,ミライヨソウズ株式会社,,株式会社,東京都,港区,芝浦３丁目１番２１号,,13,103,1080023,,,2022-11-01,清算の結了等,,,2020-01-09,1,,,,,ミライヨソウズ,0
1948,8010501005588,登記記録の閉鎖等,0,2022-11-16,2022-11-15,四國電機株式会社,,株式会社,東京都,台東区,上野５丁目３番４号,,13,106,1100005,,,2022-11-15,清算の結了等,,,2015-10-05,1,,,,,シコクデンキ,0
1951,8010502015909,登記記録の閉鎖等,0,2022-11-16,2022-11-14,有限会社山生,,有限会社,東京都,台東区,上野１丁目９番６号,,13,106,1100005,,,2022-11-14,清算の結了等,,,2015-10-05,1,,,,,,0
1952,8010502019281,登記記録の閉鎖等,0,2022-11-16,2022-11-14,有限会社エムワングループ,,有限会社,東京都,台東区,上野１丁目７番４－１３０３号,,13,106,1100005,,,2022-11-14,清算の結了等,,,2015-10-05,1,,,,,エムワングループ,0
1957,8010801022052,登記記録の閉鎖等,0,2022-11-16,2022-11-01,株式会社袖田興産,,株式会社,東京都,大田区,大森東２丁目１番６号,,13,111,1430012,,,2022-11-01,合併による解散等,6010801006338,令和４年１１月１日東京都大田区大森東二丁目１番６号袖田工業株式会社（6010801006338）に合併し解散,2015-10-05,1,,,,,ソデタコウサン,0
1985,8011601003449,登記記録の閉鎖等,0,2022-11-16,2022-11-14,株式会社鈴木測器,,株式会社,東京都,練馬区,大泉学園町８丁目２５番２９号,,13,120,1780061,,,2022-11-14,清算の結了等,,,2015-10-05,1,,,,,スズキソッキ,0
2003,8020001043360,登記記録の閉鎖等,0,2022-11-16,2022-11-10,株式会社横浜都市環境,,株式会社,神奈川県,横浜市保土ケ谷区,神戸町１０５,,14,106,2400005,,,2022-11-10,清算の結了等,,,2015-10-05,1,,,,,ヨコハマトシカンキョウ,0
2017,8021002071689,登記記録の閉鎖等,0,2022-11-16,2022-11-10,有限会社花岡新聞店,,有限会社,神奈川県,三浦市,東岡町１番２７号,,14,210,2380242,,,2022-11-10,清算の結了等,,,2015-10-05,1,,,,,ハナオカシンブンテン,0
2048,8050001034167,登記記録の閉鎖等,0,2022-11-16,2022-11-07,株式会社上陽,,株式会社,茨城県,古河市,上辺見３０５５番地２,,08,204,3060234,,,2022-11-07,清算の結了等,,,2015-10-05,1,,,,,ジョウヨウ,0
2064,8080001002690,登記記録の閉鎖等,0,2022-11-16,2022-11-11,静岡金属産業株式会社,,株式会社,静岡県,静岡市駿河区,下川原４丁目２７番１０号,,22,102,4210113,,,2022-11-11,清算の結了等,,,2015-10-05,1,,,,,シズオカキンゾクサンギョウ,0
2080,8120001035422,登記記録の閉鎖等,0,2022-11-16,2022-11-11,株式会社ソーシヤル,,株式会社,大阪府,大阪市福島区,福島３丁目１２番３号,,27,103,5530003,,,2022-11-11,清算の結了等,,,2015-10-05,1,,,,,,0
2088,8120001244840,登記記録の閉鎖等,0,2022-11-16,2022-11-10,株式会社モクｇｙｏｋｋｏｄｏ,,株式会社,大阪府,大阪市東成区,中道３丁目１５番１６号毎日東ビル６Ｆ,,27,115,5370025,,,2022-11-10,合併による解散等,5011101084736,令和４年１１月１日東京都墨田区石原三丁目２番３号株式会社エフエヌリパブリックジャパン（5011101084736）に合併し解散,2022-04-07,1,,,,,モクギョッコードー,0
2105,8130001033375,登記記録の閉鎖等,0,2022-11-16,2022-11-11,株式会社京都フカガワ,,株式会社,京都府,久世郡久御山町,野村村東１７４番地の１,,26,322,6130023,,,2022-11-11,合併による解散等,8030001076970,令和４年１１月１日埼玉県川口市西青木二丁目９番５号株式会社フカガワ（8030001076970）に合併し解散,2015-10-05,1,,,,,キョウトフカガワ,0
2113,8140001025322,登記記録の閉鎖等,0,2022-11-16,2022-11-14,株式会社ホワイトアーク,,株式会社,兵庫県,神戸市灘区,稗原町２丁目３番１５号,,28,102,6570054,,,2022-11-14,清算の結了等,,,2015-10-05,1,,,,,ホワイトアーク,0
2114,8140001062126,登記記録の閉鎖等,0,2022-11-16,2022-11-14,山根機工株式会社,,株式会社,兵庫県,姫路市,飾磨区上野田３丁目１２１番地,,28,201,6728043,,,2022-11-14,清算の結了等,,,2015-10-05,1,,,,,,0
2119,8140002010182,登記記録の閉鎖等,0,2022-11-16,2022-11-10,有限会社チチ,,有限会社,兵庫県,神戸市北区,藤原台北町１丁目１８番１２号,,28,109,6511301,,,2022-11-10,清算の結了等,,,2015-10-05,1,,,,,チチ,0
2120,8140003011080,登記記録の閉鎖等,0,2022-11-16,2022-11-10,合同会社光企画,,合同会社,兵庫県,淡路市,北山７９６番地３,,28,226,6561512,,,2022-11-10,清算の結了等,,,2015-12-03,1,,,,,ヒカリキカク,0
2133,8180302003634,登記記録の閉鎖等,0,2022-11-16,2022-11-08,有限会社片岡,,有限会社,愛知県,岡崎市,牧平町字大崎６１番地２４,,23,202,4443624,,,2022-11-08,清算の結了等,,,2015-10-05,1,,,,,カタオカ,0
2134,8180303002156,登記記録の閉鎖等,0,2022-11-16,2022-11-08,つちや製菓合資会社,,合資会社,愛知県,知立市,中町中５４番地,,23,225,4720033,,,2022-11-08,清算の結了等,,,2015-10-05,1,,,,,ツチヤセイカ,0
2137,8190001008322,登記記録の閉鎖等,0,2022-11-16,2022-11-15,株式会社アライズ,,株式会社,三重県,伊賀市,大内２０２７番地の３,,24,216,5180034,,,2022-11-15,清算の結了等,,,2015-10-05,1,,,,,,0
2143,8210001009796,登記記録の閉鎖等,0,2022-11-16,2022-11-15,株式会社沢田組,,株式会社,福井県,大野市,七板第１５号４１番地,,18,205,9120821,,,2022-11-15,清算の結了等,,,2015-10-05,1,,,,,サワダグミ,0
2166,8290005003243,登記記録の閉鎖等,0,2022-11-16,2022-11-10,特定非営利活動法人タウン・コンパス,,その他の設立登記法人,福岡県,宗像市,朝町１２８１番地,,40,220,8114161,,,2022-11-10,清算の結了等,,,2015-10-05,1,,,,,タウンコンパス,0
2171,8310002002039,登記記録の閉鎖等,0,2022-11-16,2022-11-14,有限会社おおはま調剤薬局,,有限会社,長崎県,長崎市,大浜町１５４６番地６,,42,201,8500066,,,2022-11-14,清算の結了等,,,2015-10-05,1,,,,,オオハマチョウザイヤッキョク,0
2188,8390001011727,登記記録の閉鎖等,0,2022-11-16,2022-11-11,株式会社オオヌマ,,株式会社,山形県,寒河江市,南町２丁目３番９号,,06,206,9910032,,,2022-11-11,清算の結了等,,,2015-10-05,1,,,,,オオヌマ,0
2191,8400002010437,登記記録の閉鎖等,0,2022-11-16,2022-11-14,有限会社耕仁舎,,有限会社,岩手県,遠野市,上組町２番２３号,,03,208,0280517,,,2022-11-14,清算の結了等,,,2015-10-05,1,,,,,コウジンシャ,0
2236,9010403016617,登記記録の閉鎖等,0,2022-11-16,2022-11-02,アデプト・コンサルティング合同会社,,合同会社,東京都,港区,南麻布４丁目９番２１号,,13,103,1060047,,,2022-11-02,清算の結了等,,,2017-05-23,1,,,,,アデプトコンサルティング,0
2254,9011001014120,登記記録の閉鎖等,0,2022-11-16,2022-11-09,株式会社チャイナクリエート,,株式会社,東京都,渋谷区,恵比寿西２丁目７番１０号,,13,113,1500021,,,2022-11-09,清算の結了等,,,2015-10-05,1,,,,,チャイナクリエート,0
2256,9011001107436,登記記録の閉鎖等,0,2022-11-16,2022-11-10,株式会社メディアリサーチ,,株式会社,東京都,新宿区,新宿２丁目１２番１３号新宿アントレサロンビル,,13,104,1600022,,,2022-11-10,清算の結了等,,,2015-10-05,1,,,,,メディアリサーチ,0
2258,9011001129232,登記記録の閉鎖等,0,2022-11-16,2022-11-07,ＴｅｅＭｉｎｄ株式会社,,株式会社,東京都,渋谷区,渋谷３丁目６番２号,,13,113,1500002,,,2022-11-07,清算の結了等,,,2019-07-30,1,,,,,ティーマインド,0
2275,9011402000165,登記記録の閉鎖等,0,2022-11-16,2022-10-31,有限会社アオキスポーツ,,有限会社,東京都,板橋区,本町３９番４号,,13,119,1730001,,,2022-10-31,清算の結了等,,,2015-10-05,1,,,,,アオキスポーツ,0
2282,9011602002861,登記記録の閉鎖等,0,2022-11-16,2022-11-14,有限会社木村屋酒店,,有限会社,東京都,練馬区,練馬２丁目１９番５号,,13,120,1760001,,,2022-11-14,清算の結了等,,,2015-10-05,1,,,,,キムラヤサケテン,0
2287,9011801012760,登記記録の閉鎖等,0,2022-11-16,2022-11-14,株式会社山進フラワー,,株式会社,東京都,足立区,西新井４丁目２８番７号,,13,121,1230841,,,2022-11-14,清算の結了等,,,2015-10-05,1,,,,,ヤマシンフラワー,0
2289,9011801037015,登記記録の閉鎖等,0,2022-11-16,2022-11-14,株式会社花畑ヘルスケア,,株式会社,東京都,足立区,花畑１丁目３番１３号,,13,121,1210061,,,2022-11-14,清算の結了等,,,2019-12-16,1,,,,,ハナハタヘルスケア,0
2294,9012402011433,登記記録の閉鎖等,0,2022-11-16,2022-11-11,有限会社白井米店,,有限会社,東京都,調布市,富士見町３丁目３番地４５,,13,208,1820033,,,2022-11-11,清算の結了等,,,2015-10-05,1,,,,,シライコメテン,0
2311,9020001143861,登記記録の閉鎖等,0,2022-11-16,2022-11-10,株式会社ワイズ不動産,,株式会社,神奈川県,横浜市青葉区,しらとり台２番地２３アンコンフォール２０１,,14,117,2270054,,,2022-11-10,清算の結了等,,,2021-11-11,1,,,,,ワイズフドウサン,0
2329,9030001071938,登記記録の閉鎖等,0,2022-11-16,2022-11-09,オウル株式会社,,株式会社,埼玉県,比企郡嵐山町,大字平澤６９番地２,,11,342,3550215,,,2022-11-09,清算の結了等,,,2015-10-05,1,,,,,オウル,0
2332,9030001100416,登記記録の閉鎖等,0,2022-11-16,2022-11-09,株式会社ウィルクローバー,,株式会社,埼玉県,さいたま市大宮区,吉敷町１丁目６２番地マレーＳＴビル２Ｆ,,11,103,3300843,,,2022-11-09,清算の結了等,,,2015-10-05,1,,,,,ウィルクローバー,0
2338,9030002113391,登記記録の閉鎖等,0,2022-11-16,2022-11-08,有限会社佐藤時計店,,有限会社,埼玉県,熊谷市,本町２丁目１０１番地,,11,202,3600042,,,2022-11-08,清算の結了等,,,2015-10-05,1,,,,,サトウトケイテン,0
2347,9040001036072,登記記録の閉鎖等,0,2022-11-16,2022-11-07,高橋ジーエル工業株式会社,,株式会社,千葉県,松戸市,五香西４丁目２番地の５,,12,207,2702218,,,2022-11-07,清算の結了等,,,2015-10-05,1,,,,,タカハシジーエルコウギョウ,0
2348,9040001114737,登記記録の閉鎖等,0,2022-11-16,2022-11-07,ＮＥＶＥＲＭＯＲＥ　ＷＡＴＣＨ株式会社,,株式会社,千葉県,船橋市,東中山１丁目２３－１８,,12,204,2730036,,,2022-11-07,清算の結了等,,,2020-08-17,1,,,,,ネヴァモアウォッチ,0
2366,9080101000998,登記記録の閉鎖等,0,2022-11-16,2022-11-14,株式会社大晴,,株式会社,静岡県,沼津市,大諏訪字八反田５９１番地,,22,203,4100873,,,2022-11-14,清算の結了等,,,2015-10-05,1,,,,,,0
2367,9080101004405,登記記録の閉鎖等,0,2022-11-16,2022-11-14,ハローワールド株式会社,,株式会社,静岡県,御殿場市,竈１６５０番地,,22,215,4120039,,,2022-11-14,清算の結了等,,,2015-10-05,1,,,,,ハローワールド,0
2412,9140001020545,登記記録の閉鎖等,0,2022-11-16,2022-11-10,株式会社サン・クレア,,株式会社,兵庫県,芦屋市,海洋町１２番１－２２１８号,,28,206,6590035,,,2022-11-10,清算の結了等,,,2015-10-05,1,,,,,サンクレア,0
2417,9140001073056,登記記録の閉鎖等,0,2022-11-16,2022-11-11,株式会社ヒラオカ,,株式会社,兵庫県,西宮市,川東町９番７号,,28,204,6620945,,,2022-11-11,清算の結了等,,,2015-10-05,1,,,,,ヒラオカ,0
2449,9180005003823,登記記録の閉鎖等,0,2022-11-16,2022-11-14,中部コンクリートパイル協同組合,,その他の設立登記法人,愛知県,名古屋市中村区,名駅３丁目２１番４号,,23,105,4500002,,,2022-11-14,清算の結了等,,,2015-10-05,1,,,,,チュウブコンクリートパイル,0
2451,9180301003592,登記記録の閉鎖等,0,2022-11-16,2022-11-10,株式会社プランズ・システム,,株式会社,愛知県,岡崎市,真宮町１４番地,,23,202,4440855,,,2022-11-10,清算の結了等,,,2015-10-05,1,,,,,プランズシステム,0
2458,9190005010934,登記記録の閉鎖等,0,2022-11-16,2022-11-11,芝協同組合,,その他の設立登記法人,三重県,伊賀市,緑ケ丘東町８９４番地グリーンヒルフクヤマ１０４号,,24,216,5180833,,,2022-11-11,清算の結了等,,,2016-04-22,1,,,,,シバ,0
2459,9200003001405,登記記録の閉鎖等,0,2022-11-16,2022-11-14,合名会社服部鉄工所,,合名会社,岐阜県,羽島郡笠松町,二見町６４番地の２,,21,303,5016047,,,2022-11-14,清算の結了等,,,2015-10-05,1,,,,,ハットリテッコウショ,0
2483,9290001014053,登記記録の閉鎖等,0,2022-11-16,2022-11-10,株式会社西部建設コンサルタント,,株式会社,福岡県,福岡市博多区,博多駅南３丁目５番３５号,,40,132,8120016,,,2022-11-10,清算の結了等,,,2015-10-05,1,,,,,セイブケンセツコンサルタント,0
2490,9290005012771,登記記録の閉鎖等,0,2022-11-16,2022-11-10,特定非営利活動法人高齢者グッドケアサポートセンター,,その他の設立登記法人,福岡県,大牟田市,城町２丁目５１番地４,,40,202,8360007,,,2022-11-10,清算の結了等,,,2015-10-05,1,,,,,コウレイシャグドケアサポートセンター,0
2500,9350001012769,登記記録の閉鎖等,0,2022-11-16,2022-11-11,グッドライフ創健株式会社,,株式会社,宮崎県,宮崎市,佐土原町下那珂１２９００番地１８９,,45,201,8800212,,,2022-11-11,清算の結了等,,,2015-10-05,1,,,,,グッドライフソウケン,0
2501,9350002012306,登記記録の閉鎖等,0,2022-11-16,2022-11-14,田尻建設有限会社,,有限会社,宮崎県,延岡市,野地町１丁目２５０４番地２,,45,203,8820802,,,2022-11-14,清算の結了等,,,2015-10-05,1,,,,,タジリケンセツ,0
2510,9390001007609,登記記録の閉鎖等,0,2022-11-16,2022-11-14,株式会社白糸の滝,,株式会社,山形県,鶴岡市,斎藤川原字林俣１００番地,,06,203,9970804,,,2022-11-14,清算の結了等,,,2015-10-05,1,,,,,シライトノタキ,0
2511,9390001009118,登記記録の閉鎖等,0,2022-11-16,2022-11-11,株式会社トーエイ,,株式会社,山形県,村山市,大字杉島５８番地,,06,208,9950042,,,2022-11-11,清算の結了等,,,2015-10-05,1,,,,,トーエイ,0
2517,9430001076582,登記記録の閉鎖等,0,2022-11-16,2022-11-08,株式会社上村商事,,株式会社,北海道,室蘭市,大沢町１丁目２番８号,,01,205,0500086,,,2022-11-08,清算の結了等,,,2018-05-11,1,,,,,ウエムラショウジ,0
2526,9470001015330,登記記録の閉鎖等,0,2022-11-16,2022-11-14,株式会社ａｎｙ,,株式会社,香川県,高松市,太田下町１６７０番地１１,,37,201,7618073,,,2022-11-14,清算の結了等,,,2015-10-05,1,,,,,エニー,0
2527,9480002001543,登記記録の閉鎖等,0,2022-11-16,2022-11-11,有限会社佐川自動車整備工場,,有限会社,徳島県,徳島市,中洲町３丁目３２番地１,,36,201,7700856,,,2022-11-11,清算の結了等,,,2015-10-05,1,,,,,サガワジドウシャセイビコウジョウ,0
