sequenceNumber,corporateNumber,process,correct,updateDate,changeDate,name,nameImageId,kind,prefectureName,cityName,streetNumber,addressImageId,prefectureCode,cityCode,postCode,addressOutside,addressOutsideImageId,closeDate,closeCause,successorCorporateNumber,changeCause,assignmentDate,latest,enName,enPrefectureName,enCityName,enAddressOutside,furigana,hihyoji
7,1010001127492,登記記録の閉鎖等,0,2023-10-26,2023-10-16,株式会社昭和インペックス,,株式会社,東京都,千代田区,岩本町３丁目１１番８号,,13,101,1010032,,,2023-10-16,清算の結了等,,,2015-10-05,1,,,,,,0
36,1010601043148,登記記録の閉鎖等,0,2023-10-26,2023-10-20,株式会社シナリオテカ,,株式会社,東京都,品川区,東品川４丁目１３番２４－１００５号,,13,109,1400002,,,2023-10-20,清算の結了等,,,2015-10-05,1,,,,,,0
41,1010701043287,登記記録の閉鎖等,0,2023-10-26,2023-10-23,株式会社ＷＯＷ　ＷＯＲＬＤ　ＧＲＯＵＰ,,株式会社,東京都,品川区,西五反田７丁目２０番９号ＫＤＸ西五反田ビル４階,,13,109,1410031,,,2023-10-23,合併による解散等,8010401171489,令和５年１０月１日東京都港区虎ノ門一丁目３番１号株式会社ＷＯＷ　ＷＯＲＬＤ　ＧＲＯＵＰ（8010401171489）に合併し解散,2022-10-18,1,,,,,ワオワールドグループ,0
43,1010801007150,登記記録の閉鎖等,0,2023-10-26,2023-10-23,株式会社ダブリンイラストレイテッド,,株式会社,東京都,大田区,西馬込１丁目３２番１５号,,13,111,1430026,,,2023-10-23,清算の結了等,,,2015-10-05,1,,,,,ダブリンイラストレイテッド,0
47,1011001068999,登記記録の閉鎖等,0,2023-10-26,2023-10-24,株式会社Ｆａｎｅｅｙ’ｓ,,株式会社,東京都,渋谷区,渋谷３丁目２５番２１号,,13,113,1500002,,,2023-10-24,清算の結了等,,,2015-10-05,1,,,,,ファニーズ,0
68,1011501014916,登記記録の閉鎖等,0,2023-10-26,2023-10-17,株式会社長江,,株式会社,東京都,港区,麻布十番２丁目１番１０号,,13,103,1060045,,,2023-10-17,清算の結了等,,,2015-10-05,1,,,,,チョウコウ,0
83,1012402015524,登記記録の閉鎖等,0,2023-10-26,2023-10-17,有限会社さわやか介護サービス,,有限会社,東京都,国立市,中１丁目８番地の４アレックス国立５０３,,13,215,1860004,,,2023-10-17,清算の結了等,,,2015-10-05,1,,,,,サワヤカカイゴサービス,0
102,1021003007046,登記記録の閉鎖等,0,2023-10-26,2023-10-19,合同会社Ｇｃｏｍｐａｎｙ,,合同会社,神奈川県,相模原市南区,上鶴間本町１丁目２７番６号,,14,153,2520318,,,2023-10-19,清算の結了等,,,2017-11-09,1,,,,,ジーカンパニー,0
162,1120001045023,登記記録の閉鎖等,0,2023-10-26,2023-10-20,株式会社大輪,,株式会社,東京都,調布市,多摩川６丁目２９番１１号,,13,208,1820025,,,2023-10-20,清算の結了等,,,2015-10-05,1,,,,,ダイリン,0
163,1120001090432,登記記録の閉鎖等,0,2023-10-26,2023-10-24,三ッ矢機械産業株式会社,,株式会社,大阪府,大阪市北区,南扇町１－２伊東ビル３Ｆ,,27,127,5300052,,,2023-10-24,清算の結了等,,,2015-10-05,1,,,,,ミツヤキカイサンギョウ,0
164,1120001170515,登記記録の閉鎖等,0,2023-10-26,2023-10-16,株式会社ＫＳプランニング,,株式会社,大阪府,大阪市西区,本田２丁目１１番１４－８０３号,,27,106,5500022,,,2023-10-16,清算の結了等,,,2015-10-05,1,,,,,,0
177,1120101009646,登記記録の閉鎖等,0,2023-10-26,2023-10-20,日鉄精鋼株式会社,,株式会社,大阪府,堺市堺区,出島西町１番地,,27,141,5900831,,,2023-10-20,合併による解散等,4013101000780,令和５年１０月１日埼玉県飯能市茜台二丁目６番松菱金属工業株式会社（4013101000780）に合併し解散,2015-10-05,1,,,,,ニッテツセイコウ,0
198,1140003004909,登記記録の閉鎖等,0,2023-10-26,2023-10-20,合資会社畦地商会,,合資会社,兵庫県,神戸市北区,山田町小部字宮ノ前４番１号,,28,109,6511101,,,2023-10-20,清算の結了等,,,2015-10-05,1,,,,,アゼチショウカイ,0
204,1180001101951,登記記録の閉鎖等,0,2023-10-26,2023-10-23,株式会社アキュモーマ,,株式会社,愛知県,名古屋市熱田区,六野１丁目２番２１号,,23,109,4560023,,,2023-10-23,清算の結了等,,,2015-10-05,1,,,,,アキュモーマ,0
207,1180001119309,登記記録の閉鎖等,0,2023-10-26,2023-10-19,株式会社ヤナガワ,,株式会社,愛知県,一宮市,明地字井之内３７番地,,23,203,4940012,,,2023-10-19,清算の結了等,,,2015-10-05,1,,,,,ヤナガワ,0
210,1180003022659,登記記録の閉鎖等,0,2023-10-26,2023-10-24,合同会社いろのは,,合同会社,愛知県,名古屋市西区,浄心２丁目１番地６号祖父江ビル７０３号室,,23,104,4510061,,,2023-10-24,清算の結了等,,,2021-06-29,1,,,,,イロノハ,0
218,1200002023341,登記記録の閉鎖等,0,2023-10-26,2023-10-24,有限会社秀栄土木,,有限会社,岐阜県,中津川市,茄子川１１４４番地の５８,,21,206,5099132,,,2023-10-24,清算の結了等,,,2015-10-05,1,,,,,シュウエイドボク,0
223,1220002006328,登記記録の閉鎖等,0,2023-10-26,2023-10-20,有限会社リブホーム,,有限会社,石川県,金沢市,上荒屋５丁目４４１番地,,17,201,9218065,,,2023-10-20,清算の結了等,,,2015-10-05,1,,,,,,0
227,1240002018957,登記記録の閉鎖等,0,2023-10-26,2023-10-23,有限会社バックオフィス広島,,有限会社,広島県,広島市安佐南区,高取南２丁目２０番３０号,,34,105,7310142,,,2023-10-23,清算の結了等,,,2015-10-05,1,,,,,バックオフィスヒロシマ,0
234,1290001026436,登記記録の閉鎖等,0,2023-10-26,2023-10-12,株式会社ネクスト・ワン,,株式会社,福岡県,福岡市中央区,大濠２丁目１３番２６号３０１,,40,133,8100052,,,2023-10-12,清算の結了等,,,2015-10-05,1,,,,,ネクストワン,0
251,1310005008626,登記記録の閉鎖等,0,2023-10-26,2023-10-23,特定非営利活動法人おうち楽幸,,その他の設立登記法人,長崎県,西彼杵郡長与町,嬉里郷４６３番地中村ビル２０１,,42,307,8512128,,,2023-10-23,清算の結了等,,,2022-07-27,1,,,,,,0
272,1380005012497,登記記録の閉鎖等,0,2023-10-26,2023-10-20,特定非営利活動法人だるま,,その他の設立登記法人,福島県,福島市,松川町字鼓ケ岡３５番地の４,,07,201,9601241,,,2023-10-20,清算の結了等,,,2021-10-28,1,,,,,ダルマ,0
275,1410002013791,登記記録の閉鎖等,0,2023-10-26,2023-10-10,有限会社シンエイ精密,,有限会社,秋田県,横手市,十文字町鼎字中川原１６番地１０,,05,203,0190511,,,2023-10-10,清算の結了等,,,2015-10-05,1,,,,,シンエイセイミツ,0
276,1430001034440,登記記録の閉鎖等,0,2023-10-26,2023-10-13,株式会社畠山設備,,株式会社,北海道,札幌市豊平区,西岡一条３丁目１５番２０号,,01,105,0620031,,,2023-10-13,清算の結了等,,,2015-10-05,1,,,,,ハタケヤマセツビ,0
281,1430003004680,登記記録の閉鎖等,0,2023-10-26,2023-10-13,合同会社山英プロパティ,,合同会社,北海道,札幌市西区,山の手一条１３丁目１番１８号,,01,107,0630001,,,2023-10-13,合併による解散等,4430001044981,令和５年８月３１日札幌市西区山の手一条十三丁目１番１８号合同会社山英管理（4430001044981）に合併し解散,2015-10-05,1,,,,,サンエイプロパティ,0
290,1500001012364,登記記録の閉鎖等,0,2023-10-26,2023-10-25,丸満産業株式会社,,株式会社,愛媛県,今治市,馬越町１丁目２番１８号,,38,202,7940062,,,2023-10-25,清算の結了等,,,2015-10-05,1,,,,,マルマンサンギョウ,0
304,2010001216518,登記記録の閉鎖等,0,2023-10-26,2023-10-16,ＮＵＭＡＲＫＥＴＩＮＧ株式会社,,株式会社,東京都,千代田区,神田松永町１３番地ＶＯＲＴ秋葉原ＩＩ,00122391,13,101,1010023,,,2023-10-16,清算の結了等,,,2021-03-15,1,,,,,,0
327,2010802014599,登記記録の閉鎖等,0,2023-10-26,2023-10-20,有限会社モデルワーク,,有限会社,東京都,大田区,西糀谷４丁目１８番６号,,13,111,1440034,,,2023-10-20,清算の結了等,,,2015-10-05,1,,,,,モデルワーク,0
345,2011801015893,登記記録の閉鎖等,0,2023-10-26,2023-10-23,株式会社美装タイラ,,株式会社,東京都,足立区,舎人５丁目２５番４号,,13,121,1210831,,,2023-10-23,清算の結了等,,,2016-04-06,1,,,,,,0
346,2011801028417,登記記録の閉鎖等,0,2023-10-26,2023-10-23,株式会社トレニア,,株式会社,東京都,足立区,青井３丁目２０番３号,,13,121,1200012,,,2023-10-23,清算の結了等,,,2015-10-05,1,,,,,,0
369,2020002074377,登記記録の閉鎖等,0,2023-10-26,2023-10-20,有限会社ムートン,,有限会社,神奈川県,鎌倉市,小袋谷１丁目５番３号,,14,204,2470055,,,2023-10-20,清算の結了等,,,2015-10-05,1,,,,,ムートン,0
389,2030005014180,登記記録の閉鎖等,0,2023-10-26,2023-10-10,川本管工事業協同組合,,その他の設立登記法人,埼玉県,深谷市,田中８７７番地,,11,218,3691108,,,2023-10-10,清算の結了等,,,2015-10-05,1,,,,,カワモトカンコウ,0
406,2060002033123,登記記録の閉鎖等,0,2023-10-26,2023-10-17,有限会社綿貫自動車レンタカー,,有限会社,栃木県,栃木市,大平町榎本６２８番地６,,09,203,3294422,,,2023-10-17,清算の結了等,,,2015-10-05,1,,,,,ワタヌキジドウシャレンタカー,0
410,2060002035466,登記記録の閉鎖等,0,2023-10-26,2023-10-16,株式会社ハイタカ,,株式会社,東京都,千代田区,丸の内３丁目４番１号新国際ビル４階,,13,101,1000005,,,2023-10-16,清算の結了等,,,2015-10-05,1,,,,,,0
414,2070002020005,登記記録の閉鎖等,0,2023-10-26,2023-10-19,有限会社和孝シール,,有限会社,群馬県,伊勢崎市,堀口町８４４番地,,10,204,3720834,,,2023-10-19,清算の結了等,,,2015-10-05,1,,,,,ワコウシール,0
416,2080001023404,登記記録の閉鎖等,0,2023-10-26,2023-10-25,株式会社ｅｉｍｙ,,株式会社,静岡県,静岡市駿河区,国吉田６丁目１５番２０号,,22,102,4228004,,,2023-10-25,清算の結了等,,,2020-02-26,1,,,,,エイミー,0
421,2100001005399,登記記録の閉鎖等,0,2023-10-26,2023-10-13,株式会社コネクトナビ,,株式会社,長野県,長野市,青木島町大塚１２６６番２－１０２,,20,201,3812205,,,2023-10-13,清算の結了等,,,2015-10-05,1,,,,,コネクトナビ,0
457,2180001151987,登記記録の閉鎖等,0,2023-10-26,2023-10-24,株式会社Ｈｙｂｒｉｄ　Ｓｔｙｌｅ,,株式会社,愛知県,江南市,古知野町熱田５７番地江南和光ビル,,23,217,4838207,,,2023-10-24,清算の結了等,,,2022-07-06,1,,,,,ハイブリットスタイル,0
459,2180002053010,登記記録の閉鎖等,0,2023-10-26,2023-10-24,有限会社内藤事務所,,有限会社,愛知県,名古屋市南区,駈上２丁目５番,,23,112,4570007,,,2023-10-24,清算の結了等,,,2015-10-05,1,,,,,ナイトウジムショ,0
481,2250002001119,登記記録の閉鎖等,0,2023-10-26,2023-10-25,有限会社長嶺温故堂,,有限会社,山口県,山口市,小郡明治２丁目１番１０号,,35,203,7540043,,,2023-10-25,清算の結了等,,,2015-10-05,1,,,,,ナガミネオンコドウ,0
494,2290003005701,登記記録の閉鎖等,0,2023-10-26,2023-10-11,合同会社シーマーククリエイション,,合同会社,福岡県,糸島市,志摩稲葉２１４番地,,40,230,8191315,,,2023-10-11,清算の結了等,,,2015-10-05,1,,,,,シーマーククリエイション,0
498,2320002002729,登記記録の閉鎖等,0,2023-10-26,2023-10-25,有限会社後藤タイヤ商会,,有限会社,大分県,大分市,向原沖２丁目３番３,,44,201,8700903,,,2023-10-25,清算の結了等,,,2015-10-05,1,,,,,ゴトウタイヤショウカイ,0
505,2360001026642,登記記録の閉鎖等,0,2023-10-26,2023-10-19,ＳＣＯＭインキュベート株式会社,,株式会社,沖縄県,浦添市,牧港４丁目１１番３号おきでん牧港ビル３Ｆ,,47,208,9012131,,,2023-10-19,合併による解散等,5360001026350,令和５年９月３０日沖縄県浦添市牧港四丁目１１番３号おきでん牧港ビル３ＦＳＣＯＭ株式会社（5360001026350）に合併し解散,2019-12-25,1,,,,,エスコンインキュベート,0
511,2370502001069,登記記録の閉鎖等,0,2023-10-26,2023-10-20,有限会社千元堂,,有限会社,宮城県,本吉郡南三陸町,志津川字中瀬町３１番地７,,04,606,9860767,,,2023-10-20,清算の結了等,,,2015-10-05,1,,,,,,0
512,2380001031013,登記記録の閉鎖等,0,2023-10-26,2023-10-23,株式会社ゆたか,,株式会社,宮城県,宮城郡利府町,しらかし台１丁目１番地５３,,04,406,9810134,,,2023-10-23,清算の結了等,,,2020-06-17,1,,,,,,0
514,2390002002417,登記記録の閉鎖等,0,2023-10-26,2023-10-23,有限会社宝耒,,有限会社,山形県,山形市,香澄町１丁目９番５号,,06,201,9900039,,,2023-10-23,清算の結了等,,,2015-10-05,1,,,,,ホウライ,0
524,2430003014407,登記記録の閉鎖等,0,2023-10-26,2023-10-16,合同会社よつば,,合同会社,北海道,北広島市,稲穂町東１丁目３番地１３,,01,234,0611125,,,2023-10-16,清算の結了等,,,2022-10-27,1,,,,,ヨツバ,0
527,2440001002412,登記記録の閉鎖等,0,2023-10-26,2023-10-24,株式会社室崎,,株式会社,北海道,函館市,宮前町６番１２号,,01,202,0400073,,,2023-10-24,清算の結了等,,,2015-10-05,1,,,,,ムロザキ,0
536,2500002015605,登記記録の閉鎖等,0,2023-10-26,2023-10-26,有限会社美紀ファミリー,,有限会社,愛媛県,西条市,大町８１３番地１,,38,206,7930030,,,2023-10-26,清算の結了等,,,2015-10-05,1,,,,,ミキファミリー,0
537,2700150120236,削除,,2023-10-26,,,,,,,,,,,,,,,,,,,,,,,,,
541,3010001142936,登記記録の閉鎖等,0,2023-10-26,2023-10-16,株式会社彩加堂,,株式会社,東京都,中央区,築地２丁目８番１号築地永谷タウンプラザ３０６,,13,102,1040045,,,2023-10-16,清算の結了等,,,2015-10-05,1,,,,,,0
558,3010403020483,登記記録の閉鎖等,0,2023-10-26,2023-10-19,合同会社ＬＩＦＥ　ＩＳ　ＪＯＵＲＮＥＹ．,,合同会社,青森県,青森市,橋本１丁目３番１４号,,02,201,0300823,,,2023-10-19,清算の結了等,,,2019-04-03,1,,,,,ライフイズジャーニー,0
563,3010701007216,登記記録の閉鎖等,0,2023-10-26,2023-10-23,中嶋製パン株式会社,,株式会社,東京都,品川区,北品川１丁目１番１０－７０５号,,13,109,1400001,,,2023-10-23,清算の結了等,,,2015-10-05,1,,,,,ナカジマセイパン,0
569,3010901035636,登記記録の閉鎖等,0,2023-10-26,2023-10-13,１２ＪＡＰＡＮ株式会社,,株式会社,東京都,世田谷区,羽根木１丁目３０番８号,,13,112,1560042,,,2023-10-13,清算の結了等,,,2015-10-05,1,,,,,ジュウニジャパン,0
573,3011001142967,登記記録の閉鎖等,0,2023-10-26,2023-10-19,ポロッククリエイト株式会社,,株式会社,東京都,渋谷区,代々木２丁目３９番１０号クリエイト代々木４０１号,,13,113,1510053,,,2023-10-19,清算の結了等,,,2021-10-04,1,,,,,ポロッククリエイト,0
576,3011003011749,登記記録の閉鎖等,0,2023-10-26,2023-10-23,合同会社ｇａｔｅｇａｔｅ,,合同会社,東京都,目黒区,駒場１丁目２５番６号,,13,110,1530041,,,2023-10-23,清算の結了等,,,2020-10-12,1,,,,,ガテガテ,0
579,3011101004530,登記記録の閉鎖等,0,2023-10-26,2023-10-23,神楽坂エステート株式会社,,株式会社,東京都,新宿区,四谷１丁目１５番地,,13,104,1600004,,,2023-10-23,清算の結了等,,,2015-10-05,1,,,,,カグラザカエステート,0
585,3011501002373,登記記録の閉鎖等,0,2023-10-26,2023-10-23,株式会社すみれ堂,,株式会社,東京都,北区,浮間３丁目１７番３号,,13,117,1150051,,,2023-10-23,清算の結了等,,,2015-10-05,1,,,,,スミレドウ,0
586,3011501013420,登記記録の閉鎖等,0,2023-10-26,2023-10-23,サンクレア株式会社,,株式会社,東京都,北区,東田端２丁目８番１５号,,13,117,1140013,,,2023-10-23,清算の結了等,,,2015-10-05,1,,,,,,0
609,3020003011452,登記記録の閉鎖等,0,2023-10-26,2023-10-25,Ｄｅａｒｌｙ株式会社,,株式会社,東京都,目黒区,中央町２丁目２８番１５号１Ｆ,,13,110,1520001,,,2023-10-25,清算の結了等,,,2016-06-22,1,,,,,ディアリー,0
616,3021001059764,登記記録の閉鎖等,0,2023-10-26,2023-10-20,シモン・プランニング株式会社,,株式会社,神奈川県,平塚市,東八幡３丁目１２番９号,,14,203,2540016,,,2023-10-20,清算の結了等,,,2016-07-15,1,,,,,シモンプランニング,0
621,3021002055936,登記記録の閉鎖等,0,2023-10-26,2023-10-23,有限会社さとう,,有限会社,神奈川県,小田原市,北ノ窪４６１番地１４,,14,206,2500051,,,2023-10-23,清算の結了等,,,2015-10-05,1,,,,,サトウ,0
647,3040002065084,登記記録の閉鎖等,0,2023-10-26,2023-10-13,有限会社チェリーサービス,,有限会社,千葉県,佐倉市,飯野字見通し８６８番１２,,12,212,2850003,,,2023-10-13,清算の結了等,,,2015-10-05,1,,,,,チェリーサービス,0
656,3050002023405,登記記録の閉鎖等,0,2023-10-26,2023-10-19,有限会社アポロ,,有限会社,茨城県,つくば市,並木３丁目１１番地１６,,08,220,3050044,,,2023-10-19,清算の結了等,,,2015-10-05,1,,,,,アポロ,0
680,3120001196665,登記記録の閉鎖等,0,2023-10-26,2023-10-16,株式会社ＷＩＳＥ　ＵＰ,,株式会社,大阪府,大阪市中央区,本町４丁目５番３号,,27,128,5410053,,,2023-10-16,清算の結了等,,,2016-03-03,1,,,,,,0
703,3140002032990,登記記録の閉鎖等,0,2023-10-26,2023-10-23,有限会社平井電工,,有限会社,兵庫県,佐用郡佐用町,上石井１０４０番地,,28,501,6795322,,,2023-10-23,清算の結了等,,,2015-10-05,1,,,,,ヒライデンコウ,0
704,3140002035432,登記記録の閉鎖等,0,2023-10-26,2023-10-20,有限会社ウエノ電設,,有限会社,兵庫県,加古川市,八幡町宗佐４６７番地,,28,210,6751201,,,2023-10-20,清算の結了等,,,2015-10-05,1,,,,,ウエノデンセツ,0
719,3180002065500,登記記録の閉鎖等,0,2023-10-26,2023-10-23,有限会社オモダカ建築事務所,,有限会社,愛知県,春日井市,鳥居松町７丁目５３番地,,23,206,4860844,,,2023-10-23,清算の結了等,,,2015-10-05,1,,,,,オモダカケンチクジムショ,0
724,3190001000374,登記記録の閉鎖等,0,2023-10-26,2023-10-25,株式会社坂倉屋商店,,株式会社,三重県,津市,江戸橋２丁目７２番地,,24,201,5140001,,,2023-10-25,清算の結了等,,,2015-10-05,1,,,,,サカクラヤショウテン,0
728,3200002005908,登記記録の閉鎖等,0,2023-10-26,2023-10-24,有限会社東海経営オフィス,,有限会社,岐阜県,岐阜市,鏡島２９６８番地１,,21,201,5010111,,,2023-10-24,清算の結了等,,,2015-10-05,1,,,,,トウカイケイエイオフィス,0
734,3220001007077,登記記録の閉鎖等,0,2023-10-26,2023-10-20,株式会社モス,,株式会社,石川県,金沢市,本町２丁目１５番１号,,17,201,9200853,,,2023-10-20,合併による解散等,1010501033785,令和５年１０月１日東京都中央区日本橋小舟町１３番８号ヒューリックホテルマネジメント株式会社（1010501033785）に合併し解散,2015-10-05,1,,,,,,0
735,3220001022877,登記記録の閉鎖等,0,2023-10-26,2023-10-24,株式会社ＨｅａｌｔｈＰｌｕｓ,,株式会社,石川県,金沢市,新神田１丁目８番１２号,,17,201,9218013,,,2023-10-24,清算の結了等,,,2019-05-17,1,,,,,ヘルスプラス,0
740,3230002013957,登記記録の閉鎖等,0,2023-10-26,2023-10-19,協進運輸有限会社,,有限会社,富山県,射水市,小林１５番地の１,,16,211,9390288,,,2023-10-19,合併による解散等,9230001008300,令和５年９月３０日富山県砺波市小杉５８番地たち建設運輸株式会社（9230001008300）に合併し解散,2015-10-05,1,,,,,キョウシンウンユ,0
747,3260003000076,登記記録の閉鎖等,0,2023-10-26,2023-10-24,合資会社川野屋商店,,合資会社,岡山県,岡山市北区,庭瀬５５０番地,,33,101,7010153,,,2023-10-24,清算の結了等,,,2015-10-05,1,,,,,カワノヤショウテン,0
757,3300003001193,登記記録の閉鎖等,0,2023-10-26,2023-10-24,農産かしま合同会社,,合同会社,佐賀県,鹿島市,大字高津原３６３４番地４,,41,207,8491311,,,2023-10-24,清算の結了等,,,2016-06-28,1,,,,,ノウサンカシマ,0
771,3400501000975,登記記録の閉鎖等,0,2023-10-26,2023-10-10,株式会社遠藤興業,,株式会社,岩手県,一関市,千厩町小梨字大登１１２番地１,00085511,03,209,0290802,,,2023-10-10,清算の結了等,,,2015-10-05,1,,,,,エンドウコウギョウ,0
775,3430001044000,登記記録の閉鎖等,0,2023-10-26,2023-10-16,株式会社北海道シントー,,株式会社,北海道,恵庭市,北柏木町３丁目６２番３,,01,231,0611433,,,2023-10-16,合併による解散等,7140001049181,令和５年１０月１日兵庫県尼崎市南塚口町六丁目１０番７３号神東塗料株式会社（7140001049181）に合併し解散,2015-10-05,1,,,,,ホッカイドウシントー,0
778,3430001084095,登記記録の閉鎖等,0,2023-10-26,2023-10-12,株式会社日本ホールディングス,,株式会社,北海道,札幌市豊平区,平岸七条１３丁目１－１５－４０１号,,01,105,0620937,,,2023-10-12,清算の結了等,,,2021-05-19,1,,,,,ニホンホールディングス,0
781,3430002000530,登記記録の閉鎖等,0,2023-10-26,2023-10-05,有限会社アクティ,,有限会社,北海道,札幌市北区,新川二条２丁目１２番２０号,,01,102,0010922,,,2023-10-05,合併による解散等,1430001055197,令和５年１０月１日札幌市東区伏古七条三丁目５番１０号株式会社第一岸本臨床検査センター（1430001055197）に合併し解散,2015-10-05,1,,,,,アクティ,0
786,3490001008230,登記記録の閉鎖等,0,2023-10-26,2023-10-18,株式会社ｐ．ｏ．ｔ,,株式会社,高知県,高知市,本町２丁目２－３８濱口ビル,00113435,39,201,7800870,,,2023-10-18,清算の結了等,,,2016-01-08,1,,,,,ポット,0
793,4010001058396,登記記録の閉鎖等,0,2023-10-26,2023-10-16,株式会社ミツプス,,株式会社,東京都,中央区,新川２丁目８番４号,,13,102,1040033,,,2023-10-16,清算の結了等,,,2015-10-05,1,,,,,,0
794,4010001072026,登記記録の閉鎖等,0,2023-10-26,2023-10-17,大都建設株式会社,,株式会社,東京都,文京区,千石４丁目３４番１０号,,13,105,1120011,,,2023-10-17,清算の結了等,,,2015-10-05,1,,,,,ダイトケンセツ,0
821,4010801022551,登記記録の閉鎖等,0,2023-10-26,2023-10-24,株式会社スマート,,株式会社,東京都,渋谷区,千駄ヶ谷１丁目３番２３－２０２号,,13,113,1510051,,,2023-10-24,清算の結了等,,,2015-10-05,1,,,,,スマート,0
855,4011402007165,登記記録の閉鎖等,0,2023-10-26,2023-10-24,有限会社はすや急便,,有限会社,東京都,板橋区,坂下３丁目１３番１８号,,13,119,1740043,,,2023-10-24,清算の結了等,,,2015-10-05,1,,,,,,0
882,4021001010726,登記記録の閉鎖等,0,2023-10-26,2023-10-18,株式会社横浜総研,,株式会社,神奈川県,鎌倉市,今泉台３丁目１４番９号,,14,204,2470053,,,2023-10-18,清算の結了等,,,2015-10-05,1,,,,,ヨコハマソウケン,0
910,4050002009361,登記記録の閉鎖等,0,2023-10-26,2023-10-16,有限会社秀和,,有限会社,茨城県,東茨城郡大洗町,磯浜町１０９２番地の５,,08,309,3111301,,,2023-10-16,清算の結了等,,,2015-10-05,1,,,,,シュウワ,0
914,4070001008544,登記記録の閉鎖等,0,2023-10-26,2023-10-23,株式会社三山製作所,,株式会社,群馬県,高崎市,沖町４８２番地１,,10,202,3700086,,,2023-10-23,清算の結了等,,,2015-10-05,1,,,,,ミヤマセイサクショ,0
922,4080102004961,登記記録の閉鎖等,0,2023-10-26,2023-10-25,有限会社アート・エージェンシー,,有限会社,静岡県,沼津市,東熊堂７５番地の６,,22,203,4100013,,,2023-10-25,清算の結了等,,,2015-10-05,1,,,,,アートエージェンシー,0
975,4200002005337,登記記録の閉鎖等,0,2023-10-26,2023-10-25,有限会社スプリングバレー,,有限会社,岐阜県,岐阜市,北島７丁目９番１４号,,21,201,5020911,,,2023-10-25,清算の結了等,,,2015-10-05,1,,,,,スプリングバレー,0
979,4220001021341,登記記録の閉鎖等,0,2023-10-26,2023-10-20,株式会社プラスホーム,,株式会社,石川県,白山市,鶴来大国町ホ３１番地甲,,17,210,9202133,,,2023-10-20,清算の結了等,,,2016-11-17,1,,,,,,0
987,4240002033169,登記記録の閉鎖等,0,2023-10-26,2023-10-23,有限会社泉場ビル,,有限会社,広島県,呉市,本通４丁目６番１８号,,34,202,7370045,,,2023-10-23,清算の結了等,,,2015-10-05,1,,,,,センバビル,0
991,4260001010720,登記記録の閉鎖等,0,2023-10-26,2023-10-23,株式会社ＦＯＬＬＯＷ　ＯＮＥ,,株式会社,岡山県,岡山市北区,野田屋町２丁目６番２２号,,33,101,7000815,,,2023-10-23,清算の結了等,,,2015-10-05,1,,,,,フォローワン,0
1000,4300001006821,登記記録の閉鎖等,0,2023-10-26,2023-10-23,精発九州株式会社,,株式会社,佐賀県,神埼郡吉野ヶ里町,大曲４５５０番地５１,,41,327,8420103,,,2023-10-23,合併による解散等,1010801006111,令和５年９月３０日東京都大田区西六郷四丁目３３番５号精発ばね工業株式会社（1010801006111）に合併し解散,2015-10-05,1,,,,,セイハツキュウシュウ,0
1015,4360001027077,登記記録の閉鎖等,0,2023-10-26,2023-10-19,ＲＯＳファイナンシャルソリューション株式会社,,株式会社,沖縄県,浦添市,牧港４丁目１１番３号おきでん牧港ビル３Ｆ,,47,208,9012131,,,2023-10-19,合併による解散等,1360001011868,令和５年９月３０日沖縄県浦添市牧港四丁目１１番３号おきでん牧港ビル３ＦＲＯＳ株式会社（1360001011868）に合併し解散,2020-04-14,1,,,,,アールオーエスファイナンシャルソリューション,0
1025,4380003004709,登記記録の閉鎖等,0,2023-10-26,2023-10-19,合同会社誠工業,,合同会社,福島県,福島市,宮代字田尻７番地の２チェリーハイツＡ２０６号室,,07,201,9600116,,,2023-10-19,清算の結了等,,,2020-08-03,1,,,,,マコトコウギョウ,0
1055,5010003026268,登記記録の閉鎖等,0,2023-10-26,2023-10-16,合同会社１,,合同会社,東京都,文京区,後楽２丁目６番１号,,13,105,1120004,,,2023-10-16,清算の結了等,,,2017-10-24,1,,,,,イチ,0
1061,5010401072855,登記記録の閉鎖等,0,2023-10-26,2023-10-23,株式会社ヒカリクラブ,,株式会社,大阪府,大東市,諸福５丁目１３番１２号,,27,218,5740044,,,2023-10-23,清算の結了等,,,2015-10-05,1,,,,,ヒカリクラブ,0
1083,5010701030513,登記記録の閉鎖等,0,2023-10-26,2023-10-20,株式会社エージェンス,,株式会社,東京都,品川区,東大井１丁目３番１号シャトレ野中５０４,,13,109,1400011,,,2023-10-20,清算の結了等,,,2015-10-05,1,,,,,エージェンス,0
1142,5012703001327,登記記録の閉鎖等,0,2023-10-26,2023-10-23,合同会社Ｍ．Ｋ．カンパニー,,合同会社,長崎県,諫早市,幸町７９番６３号,,42,204,8540022,,,2023-10-23,清算の結了等,,,2016-07-26,1,,,,,,0
1155,5020002057214,登記記録の閉鎖等,0,2023-10-26,2023-10-20,オフィス高田有限会社,00052061,有限会社,東京都,品川区,大崎１丁目２０番１５－５０６号,,13,109,1410032,,,2023-10-20,清算の結了等,,,2015-10-05,1,,,,,,0
1156,5020002073087,登記記録の閉鎖等,0,2023-10-26,2023-10-13,有限会社タケウチ,,有限会社,神奈川県,横浜市栄区,公田町９３１番地の９４,,14,115,2470014,,,2023-10-13,清算の結了等,,,2015-10-05,1,,,,,タケウチ,0
1158,5020003018108,登記記録の閉鎖等,0,2023-10-26,2023-10-13,アイディールエラ合同会社,,合同会社,神奈川県,川崎市宮前区,有馬４丁目４番地２３－１０８,,14,136,2160003,,,2023-10-13,清算の結了等,,,2020-07-07,1,,,,,アイディールエラ,0
1161,5021001053014,登記記録の閉鎖等,0,2023-10-26,2023-10-24,エルソル株式会社,,株式会社,東京都,昭島市,朝日町３丁目２番１７－３０２号,,13,207,1960025,,,2023-10-24,合併による解散等,8011101067325,令和５年１０月１日東京都品川区東品川二丁目２番３３号デイブレイク株式会社（8011101067325）に合併し解散,2015-10-05,1,,,,,エルソル,0
1166,5021002013479,登記記録の閉鎖等,0,2023-10-26,2023-10-19,有限会社マリンテラス,,有限会社,神奈川県,茅ヶ崎市,浜須賀１番４５号,,14,207,2530035,,,2023-10-19,清算の結了等,,,2015-10-05,1,,,,,マリンテラス,0
1178,5040001002598,登記記録の閉鎖等,0,2023-10-26,2023-10-12,三興電機工業株式会社,,株式会社,千葉県,千葉市緑区,高田町２５６番地４,,12,105,2660003,,,2023-10-12,清算の結了等,,,2015-10-05,1,,,,,サンコウデンキコウギョウ,0
1183,5040002018222,登記記録の閉鎖等,0,2023-10-26,2023-10-11,有限会社吉良エンジニアリング,,有限会社,千葉県,習志野市,藤崎４丁目１６番１４号,,12,216,2750017,,,2023-10-11,清算の結了等,,,2015-10-05,1,,,,,キラエンジニアリング,0
1184,5040002055158,登記記録の閉鎖等,0,2023-10-26,2023-10-12,三光緑化開発有限会社,,有限会社,千葉県,成田市,西三里塚２５５番地,,12,211,2860115,,,2023-10-12,清算の結了等,,,2015-10-05,1,,,,,サンコウリョクカカイハツ,0
1187,5040005003725,登記記録の閉鎖等,0,2023-10-26,2023-10-12,ＮＰＯ法人ラフト,,その他の設立登記法人,千葉県,船橋市,海神４丁目１番９号－３,,12,204,2730021,,,2023-10-12,清算の結了等,,,2015-10-05,1,,,,,ラフト,0
1190,5060002040117,登記記録の閉鎖等,0,2023-10-26,2023-10-23,有限会社峰田鉄工所,,有限会社,栃木県,佐野市,葛生西１丁目１０番１９号,,09,204,3270507,,,2023-10-23,清算の結了等,,,2015-10-05,1,,,,,ミネダテッコウジョ,0
1196,5110001034849,登記記録の閉鎖等,0,2023-10-26,2023-10-23,株式会社みょうこう未来創造商社,,株式会社,新潟県,妙高市,大字猪野山５５番地１６,,15,217,9440075,,,2023-10-23,清算の結了等,,,2020-05-18,1,,,,,ミョウコウミライソウゾウショウシャ,0
1209,5122001004021,登記記録の閉鎖等,0,2023-10-26,2023-10-25,株式会社綜合建設はせがわ,,株式会社,大阪府,東大阪市,菱屋西５丁目１０番３号,,27,227,5770807,,,2023-10-25,清算の結了等,,,2015-10-05,1,,,,,,0
1218,5140001026298,登記記録の閉鎖等,0,2023-10-26,2023-10-19,株式会社ティー・エヌ・インターナショナル,,株式会社,兵庫県,芦屋市,浜芦屋町６番２９号,00039304,28,206,6590054,,,2023-10-19,清算の結了等,,,2015-10-05,1,,,,,ティーエヌインターナショナル,0
1221,5140003007800,登記記録の閉鎖等,0,2023-10-26,2023-10-19,合同会社Ａ－Ｒｅｖｏ,,合同会社,兵庫県,洲本市,物部１丁目１２番６３号,,28,205,6560051,,,2023-10-19,清算の結了等,,,2015-10-05,1,,,,,エーレボ,0
1222,5140003011505,登記記録の閉鎖等,0,2023-10-26,2023-10-20,Ｋａｚｕｋｏ　Ｏｆｆｉｃｅ合同会社,,合同会社,兵庫県,西宮市,甲陽園西山町４番１７号,,28,204,6620017,,,2023-10-20,清算の結了等,,,2016-07-13,1,,,,,カズコオフィス,0
1236,5180002055128,登記記録の閉鎖等,0,2023-10-26,2023-10-23,有限会社オンリーワン,,有限会社,愛知県,名古屋市中村区,太閤通８丁目３８番地,,23,105,4530811,,,2023-10-23,清算の結了等,,,2015-10-05,1,,,,,オンリーワン,0
1238,5180301019056,登記記録の閉鎖等,0,2023-10-26,2023-10-18,西垣工業株式会社,,株式会社,愛知県,豊田市,前山町５丁目１８番地,,23,211,4710828,,,2023-10-18,清算の結了等,,,2015-10-05,1,,,,,ニシガキコウギョウ,0
1242,5200002015698,登記記録の閉鎖等,0,2023-10-26,2023-10-24,堀建築鈑金工業有限会社,,有限会社,岐阜県,揖斐郡大野町,大字瀬古２５０番地１,,21,403,5010563,,,2023-10-24,清算の結了等,,,2015-10-05,1,,,,,ホリケンチクバンキンコウギョウ,0
1247,5240001042500,登記記録の閉鎖等,0,2023-10-26,2023-10-24,株式会社瀬戸の風,,株式会社,広島県,福山市,瀬戸町大字山北２３０番地１３,,34,207,7200838,,,2023-10-24,清算の結了等,,,2015-10-05,1,,,,,セトノカゼ,0
1249,5240001052458,登記記録の閉鎖等,0,2023-10-26,2023-10-23,株式会社ｅ－ロジ,,株式会社,広島県,広島市中区,紙屋町２丁目１番１８号,,34,101,7300031,,,2023-10-23,合併による解散等,6010001164696,令和５年１０月１日名古屋市中村区亀島二丁目２６番４号株式会社ジェイトップ（6010001164696）に合併し解散,2018-03-06,1,,,,,イーロジ,0
1259,5260002018183,登記記録の閉鎖等,0,2023-10-26,2023-10-23,有限会社小西ボーリング,,有限会社,岡山県,倉敷市,福井４３０番地,,33,202,7100844,,,2023-10-23,清算の結了等,,,2015-10-05,1,,,,,コニシボーリング,0
1261,5280002004594,登記記録の閉鎖等,0,2023-10-26,2023-10-24,有限会社オカモト板金,,有限会社,島根県,安来市,中津町３８７番地３,,32,206,6920061,,,2023-10-24,清算の結了等,,,2015-10-05,1,,,,,オカモトバンキン,0
1262,5280002006681,登記記録の閉鎖等,0,2023-10-26,2023-10-24,有限会社トヨノオート,,有限会社,島根県,出雲市,湖陵町差海２９５番地,,32,203,6990811,,,2023-10-24,清算の結了等,,,2015-10-05,1,,,,,トヨノオート,0
1268,5290801028479,登記記録の閉鎖等,0,2023-10-26,2023-10-23,株式会社ノゾマン,,株式会社,福岡県,北九州市八幡西区,筒井町７番２０号,,40,109,8060032,,,2023-10-23,清算の結了等,,,2022-04-28,1,,,,,ノゾマン,0
1289,5380001021093,登記記録の閉鎖等,0,2023-10-26,2023-10-19,株式会社ノルディスクアクツ,,株式会社,福島県,南会津郡南会津町,大字東字居平４２６番地１,,07,368,9670000,,,2023-10-19,清算の結了等,,,2015-10-05,1,,,,,ノルディスクアクツ,0
1295,5410001003930,登記記録の閉鎖等,0,2023-10-26,2023-10-20,株式会社デコラート,,株式会社,秋田県,秋田市,川尻みよし町１番４６号オフィスリュウ２Ｆ,,05,201,0100945,,,2023-10-20,清算の結了等,,,2015-10-05,1,,,,,デコラート,0
1303,5430001074846,登記記録の閉鎖等,0,2023-10-26,2023-10-16,ピーダブリュディーインベストメント株式会社,,株式会社,北海道,札幌市中央区,北一条西１８丁目２番２－１６０１号,,01,101,0600001,,,2023-10-16,清算の結了等,,,2017-08-31,1,,,,,ピーダブリュディーインベストメント,0
1313,5460102005821,登記記録の閉鎖等,0,2023-10-26,2023-10-23,有限会社清水養鶏,,有限会社,北海道,河西郡芽室町,本通７丁目２４番地,,01,637,0820030,,,2023-10-23,清算の結了等,,,2015-10-05,1,,,,,シミズヨウケイ,0
1331,6010002028297,登記記録の閉鎖等,0,2023-10-26,2023-10-16,有限会社井上商會,,有限会社,東京都,中央区,日本橋横山町１番３号,,13,102,1030003,,,2023-10-16,清算の結了等,,,2015-10-05,1,,,,,イノウエショウカイ,0
1332,6010003020732,登記記録の閉鎖等,0,2023-10-26,2023-10-16,合同会社ホワイトライズインベストメント,,合同会社,東京都,千代田区,大手町１丁目５番５号,,13,101,1000004,,,2023-10-16,清算の結了等,,,2015-10-05,1,,,,,ホワイトライズインベストメント,0
1335,6010401082713,登記記録の閉鎖等,0,2023-10-26,2023-10-17,ＮＯＶＥＮ株式会社,,株式会社,東京都,港区,南青山４丁目２６番１６号,,13,103,1070062,,,2023-10-17,清算の結了等,,,2015-10-05,1,,,,,ノーベン,0
1350,6010701035412,登記記録の閉鎖等,0,2023-10-26,2023-10-20,株式会社ベスパコンサルティング,,株式会社,東京都,品川区,上大崎２丁目１５番１９号,,13,109,1410021,,,2023-10-20,清算の結了等,,,2018-02-27,1,,,,,ベスパコンサルティング,0
1374,6011101100863,登記記録の閉鎖等,0,2023-10-26,2023-10-23,株式会社Ｗｉｎｅ　Ｒｏａｄ　Ｔｒａｄｉｎｇ　ａｎｄ　Ｃｏｎｓｕｌｔａｔｉｏｎ,,株式会社,東京都,新宿区,赤城下町５３番地４５,,13,104,1620803,,,2023-10-23,清算の結了等,,,2022-11-17,1,,,,,ワインロードトレーディングアンドコンサルテーション,0
1401,6020001027910,登記記録の閉鎖等,0,2023-10-26,2023-10-13,東亜物産株式会社,,株式会社,神奈川県,横浜市中区,住吉町１丁目１３番地,,14,104,2310013,,,2023-10-13,清算の結了等,,,2015-10-05,1,,,,,トウアブッサン,0
1423,6030003012430,登記記録の閉鎖等,0,2023-10-26,2023-10-11,合同会社ＣＬＯＶＥＲ,,合同会社,埼玉県,春日部市,本田町２丁目５９番地４,,11,214,3440016,,,2023-10-11,清算の結了等,,,2018-09-13,1,,,,,クローバー,0
1449,6080101002403,登記記録の閉鎖等,0,2023-10-26,2023-10-25,日本風力コンサルタント株式会社,,株式会社,静岡県,裾野市,伊豆島田４８２番地の７,,22,220,4101123,,,2023-10-25,清算の結了等,,,2015-10-05,1,,,,,ニホンフウリョクコンサルタント,0
1452,6080402018585,登記記録の閉鎖等,0,2023-10-26,2023-10-24,有限会社川崎企画,,有限会社,静岡県,菊川市,加茂３０７３番地の２,,22,224,4390031,,,2023-10-24,清算の結了等,,,2015-10-05,1,,,,,カワサキキカク,0
1453,6080403003966,登記記録の閉鎖等,0,2023-10-26,2023-10-25,合同会社エイチアール,,合同会社,静岡県,浜松市中区,八幡町２３番地,,22,131,4300918,,,2023-10-25,清算の結了等,,,2020-01-07,1,,,,,エイチアール,0
1456,6110002014898,登記記録の閉鎖等,0,2023-10-26,2023-10-24,有限会社慈光コンタクト,,有限会社,新潟県,新発田市,大栄町１丁目８番１号,,15,206,9570056,,,2023-10-24,清算の結了等,,,2015-10-05,1,,,,,ジコウコンタクト,0
1485,6180002072155,登記記録の閉鎖等,0,2023-10-26,2023-09-26,有限会社美容文化社,,有限会社,愛知県,瀬戸市,下半田川町１２３番地,,23,204,4801202,,,2023-09-26,清算の結了等,,,2015-10-05,1,,,,,ビヨウブンカシャ,0
1487,6180003019139,登記記録の閉鎖等,0,2023-10-26,2023-10-23,合同会社ファメール,,合同会社,愛知県,一宮市,大和町北高井１５００番地,,23,203,4910926,,,2023-10-23,清算の結了等,,,2018-07-26,1,,,,,ファメール,0
1494,6200001020079,登記記録の閉鎖等,0,2023-10-26,2023-10-20,日鉄鋼線株式会社,,株式会社,岐阜県,関市,のぞみケ丘７番地,,21,205,5013219,,,2023-10-20,合併による解散等,4013101000780,令和５年１０月１日埼玉県飯能市茜台二丁目６番松菱金属工業株式会社（4013101000780）に合併し解散,2015-10-05,1,,,,,ニッテツコウセン,0
1496,6200003000161,登記記録の閉鎖等,0,2023-10-26,2023-10-25,合名会社みのしげ,,合名会社,岐阜県,岐阜市,日ノ出町２丁目６番地,,21,201,5008876,,,2023-10-25,清算の結了等,,,2015-10-05,1,,,,,ミノシゲ,0
1501,6230001008360,登記記録の閉鎖等,0,2023-10-26,2023-10-23,株式会社時女,,株式会社,石川県,金沢市,広岡１丁目１番１８号伊藤忠金沢ビル,,17,201,9200031,,,2023-10-23,清算の結了等,,,2015-10-05,1,,,,,トメ,0
1508,6240002051301,登記記録の閉鎖等,0,2023-10-26,2023-10-20,有限会社平木調剤薬局,,有限会社,広島県,尾道市,因島土生町２１４７番地の１,,34,205,7222323,,,2023-10-20,清算の結了等,,,2015-10-05,1,,,,,ヒラキチョウザイヤッキョク,0
1515,6260002020295,登記記録の閉鎖等,0,2023-10-26,2023-10-23,有限会社西本商店,,有限会社,岡山県,倉敷市,児島唐琴３丁目７番２９号,,33,202,7110904,,,2023-10-23,清算の結了等,,,2015-10-05,1,,,,,ニシモトショウテン,0
1533,6330001014976,登記記録の閉鎖等,0,2023-10-26,2023-10-12,西日本加工株式会社,,株式会社,熊本県,玉名市,大倉３９９番地１１,,43,206,8650023,,,2023-10-12,清算の結了等,,,2015-10-05,1,,,,,ニシニホンカコウ,0
1537,6330002020908,登記記録の閉鎖等,0,2023-10-26,2023-10-18,有限会社清田金型製作所,,有限会社,熊本県,玉名市,中９２９番地３,,43,206,8650064,,,2023-10-18,清算の結了等,,,2015-10-05,1,,,,,キヨタカナガタ,0
1550,6370003001317,登記記録の閉鎖等,0,2023-10-26,2023-10-20,宮坂康宣分散投資合同会社,,合同会社,宮城県,仙台市泉区,上谷刈１丁目２番３０－４０３号,,04,105,9813121,,,2023-10-20,清算の結了等,,,2015-10-05,1,,,,,ミヤサカヤスノブブンサントウシ,0
1558,6430001037562,登記記録の閉鎖等,0,2023-10-26,2023-10-13,ネクストビジネス企画株式会社,,株式会社,北海道,札幌市北区,新琴似八条１４丁目８番９号,,01,102,0010908,,,2023-10-13,清算の結了等,,,2015-10-05,1,,,,,ネクストビジネスキカク,0
1579,7010001043692,登記記録の閉鎖等,0,2023-10-26,2023-10-13,株式会社さくら小町,,株式会社,千葉県,千葉市花見川区,宇那谷町１５０４番地４,,12,102,2620003,,,2023-10-13,合併による解散等,8040001003206,令和５年１０月１日千葉市花見川区宇那谷町１５０４番地４新橋食品株式会社（8040001003206）に合併し解散,2015-10-05,1,,,,,サクラコマチ,0
1585,7010001235439,登記記録の閉鎖等,0,2023-10-26,2023-10-20,株式会社Ｔ２パートナーズ,,株式会社,岐阜県,羽島市,福寿町平方１０丁目８０番地,,21,209,5016257,,,2023-10-20,合併による解散等,7180001086881,令和５年１０月１５日岐阜県羽島市江吉良町江中四丁目２１番地株式会社ＡＲＴＩＳＴＩＣ＆ＣＯ．（7180001086881）に合併し解散,2023-05-19,1,,,,,ティーツーパートナーズ,0
1586,7010002032224,登記記録の閉鎖等,0,2023-10-26,2023-10-23,有限会社富八,,有限会社,東京都,江東区,豊洲６丁目５番１号,,13,108,1350061,,,2023-10-23,清算の結了等,,,2015-10-05,1,,,,,トミハチ,0
1590,7010401075071,登記記録の閉鎖等,0,2023-10-26,2023-10-24,株式会社ケネディ・コンサルティング,,株式会社,大阪府,大阪市中央区,安土町２丁目３番１３号大阪国際ビルディング１３Ｆ,,27,128,5410052,,,2023-10-24,清算の結了等,,,2015-10-05,1,,,,,ケネディコンサルティング,0
1592,7010401120240,登記記録の閉鎖等,0,2023-10-26,2023-10-17,株式会社ウェアレクス,,株式会社,東京都,港区,赤坂９丁目７番１号,,13,103,1070052,,,2023-10-17,清算の結了等,,,2015-10-05,1,,,,,ウェアレクス,0
1593,7010401152663,登記記録の閉鎖等,0,2023-10-26,2023-10-17,株式会社クローバーマーケティング,,株式会社,東京都,港区,浜松町２丁目２番１５号浜松町ダイヤビル２Ｆ,,13,103,1050013,,,2023-10-17,清算の結了等,,,2020-05-12,1,,,,,クローバーマーケティング,0
1602,7010501049743,登記記録の閉鎖等,0,2023-10-26,2023-10-23,Ｈｅｎｇｉｓｓａ株式会社,,株式会社,東京都,台東区,千束３丁目２１－１２－１０１号,,13,106,1110031,,,2023-10-23,清算の結了等,,,2022-12-15,1,,,,,ヘンニサ,0
1604,7010605004082,登記記録の閉鎖等,0,2023-10-26,2023-10-23,一般社団法人ＭＡＮＡ　Ｊａｐａｎ,,その他の設立登記法人,東京都,江東区,扇橋２丁目７番８号関根マンション３０５,,13,108,1350011,,,2023-10-23,清算の結了等,,,2022-05-31,1,,,,,マナジャパン,0
1647,7011803001945,登記記録の閉鎖等,0,2023-10-26,2023-10-16,合同会社モンターニュ,,合同会社,東京都,足立区,新田２丁目９番２２－４０１号,,13,121,1230865,,,2023-10-16,清算の結了等,,,2015-10-05,1,,,,,モンターニュ,0
1662,7020002006755,登記記録の閉鎖等,0,2023-10-26,2023-10-13,早川自動車有限会社,,有限会社,神奈川県,横浜市都筑区,川和町１４５９番地,,14,118,2240057,,,2023-10-13,清算の結了等,,,2015-10-05,1,,,,,ハヤカワジドウシャ,0
1669,7030001047287,登記記録の閉鎖等,0,2023-10-26,2023-10-13,株式会社誠和工務店,,株式会社,埼玉県,富士見市,ふじみ野西４丁目１番地１,,11,235,3540035,,,2023-10-13,清算の結了等,,,2015-10-05,1,,,,,セイワコウムテン,0
1685,7040002032155,登記記録の閉鎖等,0,2023-10-26,2023-10-11,有限会社アンクル・コパ,,有限会社,千葉県,市川市,福栄３丁目３番１７号,,12,203,2720137,,,2023-10-11,清算の結了等,,,2015-10-05,1,,,,,アンクルコパ,0
1694,7060002011116,登記記録の閉鎖等,0,2023-10-26,2023-10-23,有限会社コーワテクノ,,有限会社,栃木県,河内郡上三川町,大字上蒲生１７７７番地１,,09,301,3290617,,,2023-10-23,清算の結了等,,,2015-10-05,1,,,,,コーワテクノ,0
1709,7100001000619,登記記録の閉鎖等,0,2023-10-26,2023-10-13,株式会社関西ネオン工芸,,株式会社,長野県,長野市,大字富竹中屋敷４７６番地,,20,201,3810006,,,2023-10-13,清算の結了等,,,2015-10-05,1,,,,,カンサイネオンコウゲイ,0
1735,7122002001362,登記記録の閉鎖等,0,2023-10-26,2023-10-24,有限会社喜多商会,,有限会社,大阪府,東大阪市,若江本町１丁目５番３７号,,27,227,5780942,,,2023-10-24,清算の結了等,,,2015-10-05,1,,,,,キタショウカイ,0
1758,7180001005676,登記記録の閉鎖等,0,2023-10-26,2023-10-20,株式会社メカケミカ,,株式会社,愛知県,名古屋市千種区,下方町５丁目３６番地,,23,101,4640096,,,2023-10-20,清算の結了等,,,2015-10-05,1,,,,,メカケミカ,0
1780,7220001004855,登記記録の閉鎖等,0,2023-10-26,2023-10-23,株式会社ナデック,,株式会社,石川県,金沢市,長土塀３丁目１７番１６号,,17,201,9200867,,,2023-10-23,清算の結了等,,,2015-10-05,1,,,,,ナデック,0
1795,7250001018761,登記記録の閉鎖等,0,2023-10-26,2023-10-24,株式会社成工業,,株式会社,山口県,下関市,彦島江の浦町１丁目２番６号,,35,201,7500075,,,2023-10-24,清算の結了等,,,2021-03-19,1,,,,,ナルコウギョウ,0
1799,7270001000024,登記記録の閉鎖等,0,2023-10-26,2023-10-25,株式会社アド・ネットワーク,,株式会社,鳥取県,鳥取市,叶１２５番地の１,,31,201,6800874,,,2023-10-25,清算の結了等,,,2015-10-05,1,,,,,アドネットワーク,0
1808,7330001014736,登記記録の閉鎖等,0,2023-10-26,2023-10-19,地域医療サービス株式会社,,株式会社,熊本県,熊本市北区,貢町２３３番地３,,43,105,8615535,,,2023-10-19,清算の結了等,,,2015-10-05,1,,,,,チイキイリョウサービス,0
1813,7350005004087,登記記録の閉鎖等,0,2023-10-26,2023-10-18,日南造林素材生産事業協同組合,,その他の設立登記法人,宮崎県,日南市,北郷町大藤甲８３８番地１,,45,204,8892401,,,2023-10-18,清算の結了等,,,2015-10-05,1,,,,,ニチナンゾウリンソザイセイサン,0
1816,7360002016984,登記記録の閉鎖等,0,2023-10-26,2023-10-19,有限会社マルケイ圧送,,有限会社,沖縄県,浦添市,伊祖１丁目２０番３号,,47,208,9012132,,,2023-10-19,清算の結了等,,,2015-10-05,1,,,,,マルケイアッソウ,0
1817,7370001016844,登記記録の閉鎖等,0,2023-10-26,2023-10-19,電制エンジニアリング株式会社,,株式会社,宮城県,仙台市宮城野区,鶴ケ谷１丁目２８番地の１９,,04,102,9830824,,,2023-10-19,清算の結了等,,,2015-10-05,1,,,,,デンセイエンジニアリング,0
1821,7370201002132,登記記録の閉鎖等,0,2023-10-26,2023-10-20,株式会社大平工務店,,株式会社,宮城県,遠田郡涌谷町,小塚字権現田一９番地,,04,501,9870151,,,2023-10-20,清算の結了等,,,2015-10-05,1,,,,,オオダイラコウムテン,0
1828,7430001039525,登記記録の閉鎖等,0,2023-10-26,2023-10-13,株式会社伊藤誠吉,,株式会社,北海道,札幌市北区,新琴似八条１４丁目８番９号,,01,102,0010908,,,2023-10-13,清算の結了等,,,2015-10-05,1,,,,,イトウセイキチ,0
1838,7480002008177,登記記録の閉鎖等,0,2023-10-26,2023-10-23,有限会社三溪農園,,有限会社,徳島県,勝浦郡勝浦町,大字三溪字樫渕１３番地の１,,36,301,7714307,,,2023-10-23,清算の結了等,,,2015-10-05,1,,,,,,0
1868,8010405021112,登記記録の閉鎖等,0,2023-10-26,2023-10-17,レオホールディングス一般社団法人,,その他の設立登記法人,東京都,港区,虎ノ門３丁目２２番１０－２０１号,,13,103,1050001,,,2023-10-17,清算の結了等,,,2022-06-15,1,,,,,レオホールディングス,0
1875,8010801004728,登記記録の閉鎖等,0,2023-10-26,2023-10-23,さつま建設株式会社,,株式会社,東京都,大田区,新蒲田３丁目２８番１０号,,13,111,1440054,,,2023-10-23,清算の結了等,,,2015-10-05,1,,,,,サツマケンセツ,0
1894,8011302006016,登記記録の閉鎖等,0,2023-10-26,2023-10-20,有限会社塚原電機,,有限会社,群馬県,太田市,徳川町２８０番地１,,10,205,3700425,,,2023-10-20,清算の結了等,,,2015-10-05,1,,,,,ツカハラデンキ,0
1918,8013302021515,登記記録の閉鎖等,0,2023-10-26,2023-10-16,有限会社新宿南口ビル,,有限会社,東京都,豊島区,東池袋１丁目３番７号,,13,116,1700013,,,2023-10-16,清算の結了等,,,2015-10-05,1,,,,,シンジュクミナミグチビル,0
1919,8013305002223,登記記録の閉鎖等,0,2023-10-26,2023-10-13,一般社団法人日本母親支援協会,,その他の設立登記法人,千葉県,船橋市,海神町南１丁目１６２７番９号－３０６号,,12,204,2730024,,,2023-10-13,清算の結了等,,,2015-10-05,1,,,,,ニホンハハオヤシエンキョウカイ,0
1927,8020002082903,登記記録の閉鎖等,0,2023-10-26,2023-10-13,有限会社井田管工,,有限会社,神奈川県,川崎市中原区,木月３丁目１番地３,,14,133,2110025,,,2023-10-13,清算の結了等,,,2015-10-05,1,,,,,イダカンコウ,0
1948,8030003016669,登記記録の閉鎖等,0,2023-10-26,2023-10-13,合同会社Ｋブックアート,,合同会社,埼玉県,川越市,大字小堤６７７番地１,,11,201,3500811,,,2023-10-13,清算の結了等,,,2021-02-10,1,,,,,ケーブックアート,0
1964,8070002016716,登記記録の閉鎖等,0,2023-10-26,2023-10-20,有限会社横尾螺子工業所,,有限会社,群馬県,富岡市,黒川６５６番地３,,10,210,3702344,,,2023-10-20,清算の結了等,,,2015-10-05,1,,,,,ヨコオネジコウギョウショ,0
1976,8120001168288,登記記録の閉鎖等,0,2023-10-26,2023-10-16,株式会社ワンフィート,,株式会社,大阪府,大阪市天王寺区,清水谷町１４番１８－６０１号,,27,109,5430011,,,2023-10-16,清算の結了等,,,2015-10-05,1,,,,,,0
1992,8120903003939,登記記録の閉鎖等,0,2023-10-26,2023-10-20,合同会社Ｏｆｆｉｃｅ　ｉｚＡＹｏｉ,,合同会社,兵庫県,伊丹市,寺本４丁目６４－１６－６０５,,28,207,6640026,,,2023-10-20,清算の結了等,,,2021-12-13,1,,,,,オフィスイザヨイ,0
1994,8122005003173,登記記録の閉鎖等,0,2023-10-26,2023-10-24,一般社団法人善根寺町資産管理組合,,その他の設立登記法人,大阪府,東大阪市,善根寺町４丁目２番３８号,,27,227,5798001,,,2023-10-24,清算の結了等,,,2016-08-25,1,,,,,,0
2017,8180001089553,登記記録の閉鎖等,0,2023-10-26,2023-10-20,株式会社鷲見,,株式会社,愛知県,名古屋市中区,千代田３丁目１０番２１号,,23,106,4600012,,,2023-10-20,清算の結了等,,,2015-10-05,1,,,,,ワシミ,0
2075,8370001024986,登記記録の閉鎖等,0,2023-10-26,2023-10-20,株式会社ネクストイノベーション,,株式会社,宮城県,仙台市太白区,袋原４丁目１５番４３号,,04,104,9811102,,,2023-10-20,清算の結了等,,,2015-10-05,1,,,,,ネクストイノベーション,0
2082,8380002004417,登記記録の閉鎖等,0,2023-10-26,2023-10-19,有限会社アローコンサル,,有限会社,福島県,福島市,方木田字四斗蒔田３番地の１７,,07,201,9608163,,,2023-10-19,清算の結了等,,,2015-10-05,1,,,,,アローコンサル,0
2084,8400001008696,登記記録の閉鎖等,0,2023-10-26,2023-10-13,株式会社未来,,株式会社,岩手県,盛岡市,向中野字東道明７番地３,,03,201,0200851,,,2023-10-13,清算の結了等,,,2015-10-05,1,,,,,ミライ,0
2091,8430002039647,登記記録の閉鎖等,0,2023-10-26,2023-10-05,有限会社セブンシステム,,有限会社,北海道,札幌市北区,新川二条２丁目１２番２０号,,01,102,0010922,,,2023-10-05,合併による解散等,1430001055197,令和５年１０月１日札幌市東区伏古七条三丁目５番１０号株式会社第一岸本臨床検査センター（1430001055197）に合併し解散,2015-10-05,1,,,,,セブンシステム,0
2092,8430003010929,登記記録の閉鎖等,0,2023-10-26,2023-10-19,合同会社Ｆｒａｎｃｅｓｃａ,,合同会社,北海道,札幌市東区,北十一条東１丁目１－４０,,01,103,0650011,,,2023-10-19,清算の結了等,,,2019-10-30,1,,,,,フランチェスカ,0
2114,9010401096231,登記記録の閉鎖等,0,2023-10-26,2023-09-28,株式会社Ｂｅｓｔ　Ｃｈｏｉｃｅ,,株式会社,東京都,港区,南麻布５丁目１５－２０フラワーマンション２階,,13,103,1060047,,,2023-09-28,清算の結了等,,,2015-10-05,1,,,,,ベストチョイス,0
2128,9010403017458,登記記録の閉鎖等,0,2023-10-26,2023-10-17,汐留事業９号合同会社,,合同会社,東京都,港区,海岸１丁目７番１号,,13,103,1050022,,,2023-10-17,合併による解散等,1010401056795,令和５年９月２１日東京都港区海岸一丁目７番１号ソフトバンクグループ株式会社（1010401056795）に合併し解散,2017-10-30,1,,,,,シオドメジギョウキュウゴウ,0
2138,9010701027225,登記記録の閉鎖等,0,2023-10-26,2023-10-20,株式会社大藤,,株式会社,東京都,品川区,二葉４丁目１０番１１号,,13,109,1420043,,,2023-10-20,清算の結了等,,,2015-10-05,1,,,,,,0
2158,9011202011767,登記記録の閉鎖等,0,2023-10-26,2023-10-12,有限会社便利八,,有限会社,埼玉県,川越市,大字下赤坂６６９番地２３,,11,201,3501155,,,2023-10-12,清算の結了等,,,2015-10-05,1,,,,,ベンリヤ,0
2162,9011401016047,登記記録の閉鎖等,0,2023-10-26,2023-10-20,株式会社ケーエム工房,,株式会社,東京都,荒川区,荒川８丁目９番１０号,,13,118,1160002,,,2023-10-20,清算の結了等,,,2015-10-05,1,,,,,ケーエムコウボウ,0
2163,9011402019750,登記記録の閉鎖等,0,2023-10-26,2023-10-23,ステルスデザイン有限会社,,有限会社,東京都,板橋区,大山西町５８番１０号,,13,119,1730033,,,2023-10-23,清算の結了等,,,2015-10-05,1,,,,,ステルスデザイン,0
2166,9011502002169,登記記録の閉鎖等,0,2023-10-26,2023-10-23,小坂井運送有限会社,,有限会社,東京都,北区,志茂５丁目３７番１６号,,13,117,1150042,,,2023-10-23,清算の結了等,,,2015-10-05,1,,,,,,0
2174,9012303001616,登記記録の閉鎖等,0,2023-10-26,2023-10-04,合同会社Ｍｕｓｉｓａｎ,,合同会社,東京都,町田市,金森４丁目７番４号,,13,209,1940012,,,2023-10-04,清算の結了等,,,2021-11-18,1,,,,,ムーシサン,0
2177,9013201005683,登記記録の閉鎖等,0,2023-10-26,2023-10-24,ミツコアンテイックス株式会社,,株式会社,東京都,目黒区,中目黒４丁目９番６－１０５号,,13,110,1530061,,,2023-10-24,清算の結了等,,,2015-10-05,1,,,,,ミツコアンテイックス,0
2181,9013302007661,登記記録の閉鎖等,0,2023-10-26,2023-10-25,有限会社西邑,,有限会社,東京都,豊島区,池袋本町２丁目１３番１３号エスカイア池袋１０３,,13,116,1700011,,,2023-10-25,清算の結了等,,,2015-10-05,1,,,,,,0
2211,9030005014802,登記記録の閉鎖等,0,2023-10-26,2023-10-16,医療法人圭友会,,その他の設立登記法人,埼玉県,川越市,大字的場８２７番地５,,11,201,3501101,,,2023-10-16,清算の結了等,,,2015-10-05,1,,,,,ケイユウカイ,0
2237,9070002022564,登記記録の閉鎖等,0,2023-10-26,2023-10-23,有限会社新井製作所,,有限会社,群馬県,桐生市,黒保根町下田沢１０１番地,,10,203,3760144,,,2023-10-23,清算の結了等,,,2015-10-05,1,,,,,アライセイサクショ,0
2244,9110002004707,登記記録の閉鎖等,0,2023-10-26,2023-10-24,有限会社新潟軽商,,有限会社,新潟県,新潟市中央区,近江２丁目１０番１５号ライフコア新潟９０４,,15,103,9500971,,,2023-10-24,清算の結了等,,,2015-10-05,1,,,,,ニイガタケイショウ,0
2247,9120001177008,登記記録の閉鎖等,0,2023-10-26,2023-10-16,蒼電機株式会社,,株式会社,大阪府,大阪市中央区,高津３丁目３番３６号ドミールナカオ２０１,,27,128,5420072,,,2023-10-16,清算の結了等,,,2015-10-05,1,,,,,アオイデンキ,0
2265,9130002004465,登記記録の閉鎖等,0,2023-10-26,2023-10-12,有限会社薬師山美術研究所,,有限会社,京都府,京都市北区,大宮薬師山東町３０番地,,26,101,6038474,,,2023-10-12,清算の結了等,,,2015-10-05,1,,,,,ヤクシヤマビジュツケンキュウショ,0
2266,9140001050204,登記記録の閉鎖等,0,2023-10-26,2023-10-20,東洋肥料株式会社,,株式会社,兵庫県,尼崎市,浜１丁目２番３０号,,28,202,6610967,,,2023-10-20,清算の結了等,,,2015-10-05,1,,,,,トウヨウヒリョウ,0
2268,9140001067974,登記記録の閉鎖等,0,2023-10-26,2023-10-19,株式会社市原組,,株式会社,兵庫県,西宮市,大屋町３１番２２号,,28,204,6638106,,,2023-10-19,清算の結了等,,,2015-10-05,1,,,,,イチハラグミ,0
2272,9150002009198,登記記録の閉鎖等,0,2023-10-26,2023-10-24,有限会社仲本経営ブレーン,,有限会社,奈良県,香芝市,真美ヶ丘４丁目７番２５号,,29,210,6390223,,,2023-10-24,清算の結了等,,,2015-10-05,1,,,,,ナカモトケイエイブレーン,0
2275,9170002003224,登記記録の閉鎖等,0,2023-10-26,2023-10-24,有限会社二葉建装社,,有限会社,和歌山県,和歌山市,小松原５丁目８番４号,,30,201,6408265,,,2023-10-24,清算の結了等,,,2015-10-05,1,,,,,フタバケンソウシャ,0
2286,9200002005027,登記記録の閉鎖等,0,2023-10-26,2023-10-25,有限会社ヤマヤ食品,,有限会社,岐阜県,岐阜市,六条東２丁目２２番９号,,21,201,5008353,,,2023-10-25,清算の結了等,,,2015-10-05,1,,,,,ヤマヤショクヒン,0
2293,9260001013727,登記記録の閉鎖等,0,2023-10-26,2023-10-19,株式会社セオ・オートセンター,,株式会社,岡山県,倉敷市,老松町２丁目１２番１０号,,33,202,7100826,,,2023-10-19,清算の結了等,,,2015-10-05,1,,,,,セオオートセンター,0
2294,9260002005847,登記記録の閉鎖等,0,2023-10-26,2023-10-24,有限会社大繊,,有限会社,岡山県,岡山市北区,西古松西町５番２５－６０８号,,33,101,7000926,,,2023-10-24,清算の結了等,,,2015-10-05,1,,,,,ダイセン,0
2297,9260002017256,登記記録の閉鎖等,0,2023-10-26,2023-10-24,有限会社甲斐表具店,,有限会社,岡山県,倉敷市,中庄１１３０番地の１,,33,202,7100016,,,2023-10-24,清算の結了等,,,2015-10-05,1,,,,,カイヒョウグテン,0
2300,9290001024754,登記記録の閉鎖等,0,2023-10-26,2023-10-12,株式会社ブルドジオテクノ,,株式会社,福岡県,福岡市西区,田尻１丁目２０番３号,,40,135,8190383,,,2023-10-12,清算の結了等,,,2015-10-05,1,,,,,ブルドジオテクノ,0
2316,9340002022495,登記記録の閉鎖等,0,2023-10-26,2023-10-23,有限会社しらゆき,,有限会社,鹿児島県,阿久根市,大丸町３番地５,,46,206,8991624,,,2023-10-23,清算の結了等,,,2015-10-05,1,,,,,シラユキ,0
2337,9430003013666,登記記録の閉鎖等,0,2023-10-26,2023-10-12,合同会社Ｒｙｃｈ,,合同会社,北海道,札幌市中央区,南五条西３丁目るりビル５階,,01,101,0640805,,,2023-10-12,清算の結了等,,,2022-03-16,1,,,,,リーチ,0
