sequenceNumber,corporateNumber,process,correct,updateDate,changeDate,name,nameImageId,kind,prefectureName,cityName,streetNumber,addressImageId,prefectureCode,cityCode,postCode,addressOutside,addressOutsideImageId,closeDate,closeCause,successorCorporateNumber,changeCause,assignmentDate,latest,enName,enPrefectureName,enCityName,enAddressOutside,furigana,hihyoji
12,1010001225718,新規,0,2022-04-21,2022-04-21,株式会社Ｏｎｅ‐ｕｐ　ｓｅｒｖｉｃｅ,,株式会社,東京都,千代田区,神田多町２丁目２穂月ビル２階,,13,101,1010046,,,,,,,2022-04-21,1,,,,,ワンアップサービス,0
13,1010001225940,新規,0,2022-04-21,2022-04-21,グローバル・ダン・コンサルティング株式会社,,株式会社,東京都,中央区,日本橋兜町１番７号,,13,102,1030026,,,,,,,2022-04-21,1,,,,,グローバルダンコンサルティング,0
14,1010001225981,新規,0,2022-04-21,2022-04-21,情シスコンサルティング株式会社,,株式会社,東京都,中央区,銀座１丁目１２－４Ｎ＆Ｅ．ＢＬＤ．７階,,13,102,1040061,,,,,,,2022-04-21,1,,,,,ジョウシスコンサルティング,0
15,1010001225998,新規,0,2022-04-21,2022-04-21,Ｌｉｂｌｉ株式会社,,株式会社,東京都,千代田区,九段南１丁目５番６号りそな九段ビル５Ｆ・ＫＳフロア,,13,101,1020074,,,,,,,2022-04-21,1,,,,,リブリ,0
16,1010001226113,新規,0,2022-04-21,2022-04-21,株式会社日庄マーケティング・ソリューション,,株式会社,東京都,中央区,日本橋人形町１丁目１番１１号,,13,102,1030013,,,,,,,2022-04-21,1,,,,,ニッショウマーケティングソリューション,0
31,1010401166958,新規,0,2022-04-21,2022-04-21,ＧＯＡＴ　ＶＥＲＴＥＸ株式会社,,株式会社,東京都,港区,南青山１丁目１１番２５号,,13,103,1070062,,,,,,,2022-04-21,1,,,,,ゴートバーテックス,0
43,1011001146945,新規,0,2022-04-21,2022-04-21,株式会社ＢＬＥＳＳ,,株式会社,東京都,目黒区,鷹番２丁目２０－１４,,13,110,1520004,,,,,,,2022-04-21,1,,,,,,0
44,1011001147051,新規,0,2022-04-21,2022-04-21,株式会社ＨｉＴＯ　ＤＵ　ＡＶＥＣ,,株式会社,東京都,渋谷区,渋谷３丁目１番８号,,13,113,1500002,,,,,,,2022-04-21,1,,,,,ヒトドゥアベック,0
45,1011001147076,新規,0,2022-04-21,2022-04-21,株式会社こころネ,,株式会社,東京都,渋谷区,恵比寿１丁目１５番９号日宝恵比寿ビル４０３,,13,113,1500013,,,,,,,2022-04-21,1,,,,,ココロネ,0
46,1011001147084,新規,0,2022-04-21,2022-04-21,ＭｏａｉＷｏｒｋｓ株式会社,,株式会社,東京都,渋谷区,渋谷１丁目２４番７号渋谷宮下パークビル１００４号,,13,113,1500002,,,,,,,2022-04-21,1,,,,,モアイワークス,0
47,1011001147101,新規,0,2022-04-21,2022-04-21,株式会社ＴＡＭＵＲＡ,,株式会社,東京都,目黒区,上目黒２丁目１１番１号,,13,110,1530051,,,,,,,2022-04-21,1,,,,,タムラ,0
48,1011003014571,新規,0,2022-04-21,2022-04-21,合同会社気づけば,,合同会社,東京都,渋谷区,神宮前６丁目２３番４号桑野ビル２階,,13,113,1500001,,,,,,,2022-04-21,1,,,,,キヅケバ,0
50,1011101098616,新規,0,2022-04-21,2022-04-21,大吉産業株式会社,,株式会社,東京都,新宿区,大久保２丁目２９－２３－２０３,,13,104,1690072,,,,,,,2022-04-21,1,,,,,ダイキチサンギョウ,0
51,1011103011683,新規,0,2022-04-21,2022-04-21,合同会社Ｈｉｇｈ　Ｔｒｅｖｏｒ,,合同会社,東京都,新宿区,西新宿３丁目３番１３号西新宿水間ビル６階,,13,104,1600023,,,,,,,2022-04-21,1,,,,,ハイトレヴァー,0
58,1011501027959,新規,0,2022-04-21,2022-04-21,株式会社Ｅｓ．ｒｅｌｉｅｒ,,株式会社,東京都,北区,中里１丁目１０番１－３０１号,,13,117,1140015,,,,,,,2022-04-21,1,,,,,エスレリエール,0
71,1011801040612,新規,0,2022-04-21,2022-04-21,社寺建築伽藍株式会社,,株式会社,東京都,葛飾区,西亀有４丁目１８番１－１０１号サンシティ弐番館,,13,122,1250002,,,,,,,2022-04-21,1,,,,,シャジケンチクガラン,0
72,1011801040620,新規,0,2022-04-21,2022-04-21,株式会社ゼロワン,,株式会社,東京都,足立区,江北１丁目２５番１８号,,13,121,1230872,,,,,,,2022-04-21,1,,,,,ゼロワン,0
73,1011801040629,新規,0,2022-04-21,2022-04-21,ＢＳ‐Ｋ株式会社,,株式会社,東京都,足立区,西新井本町４丁目２番１０－３０１号,,13,121,1230845,,,,,,,2022-04-21,1,,,,,ビーエスケー,0
75,1012301012960,新規,0,2022-04-21,2022-04-21,株式会社百年戦略ＭＫＴ,,株式会社,東京都,町田市,中町１丁目２番５号ＳＨＥＬＬＭＩＹＡＫＯＶ３Ｆ,,13,209,1940021,,,,,,,2022-04-21,1,,,,,ヒャクネンセンリャクマーケティング,0
79,1012803002757,新規,0,2022-04-21,2022-04-21,合同会社ありか,,合同会社,東京都,国立市,富士見台２丁目２８番地の７,,13,215,1860003,,,,,,,2022-04-21,1,,,,,アリカ,0
92,1020001146203,新規,0,2022-04-21,2022-04-21,パシフィックトレード株式会社,,株式会社,神奈川県,横浜市神奈川区,西神奈川２丁目１番地４土佐ビル４０１号,,14,102,2210822,,,,,,,2022-04-21,1,,,,,パシフィックトレード,0
93,1020001146211,新規,0,2022-04-21,2022-04-21,ＯＲＩＡＬ株式会社,,株式会社,神奈川県,横浜市南区,三春台６３－１１－５１４,,14,105,2320002,,,,,,,2022-04-21,1,,,,,オリアル,0
96,1020003021627,新規,0,2022-04-21,2022-04-21,合同会社Ｄシェアリング,,合同会社,神奈川県,横浜市鶴見区,梶山２丁目３番８号,,14,101,2300072,,,,,,,2022-04-21,1,,,,,ディーシェアリング,0
97,1020003021668,新規,0,2022-04-21,2022-04-21,合同会社５ｓｅｃｏｎｄｓ,,合同会社,神奈川県,横浜市港南区,大久保３丁目４０番１－３１２号,,14,111,2330007,,,,,,,2022-04-21,1,,,,,ファイブセカンズ,0
111,1030001147811,新規,0,2022-04-21,2022-04-21,株式会社水是,,株式会社,埼玉県,草加市,両新田西町１１２番地２２,,11,221,3400027,,,,,,,2022-04-21,1,,,,,ミズヨシ,0
112,1030001147852,新規,0,2022-04-21,2022-04-21,株式会社偉奇サービス,,株式会社,埼玉県,草加市,谷塚上町６９３番地５,,11,221,3400024,,,,,,,2022-04-21,1,,,,,エイキサービス,0
120,1040003019900,新規,0,2022-04-21,2022-04-21,Ｔｈｅｃｏｂｅｌｌｅ合同会社,,合同会社,千葉県,千葉市美浜区,打瀬３丁目６番地ミラマール２番館５０３号,,12,106,2610013,,,,,,,2022-04-21,1,,,,,テコベル,0
121,1040003019917,新規,0,2022-04-21,2022-04-21,ヴァーテクセル合同会社,,合同会社,千葉県,柏市,西原４丁目１３番３３号,,12,217,2770885,,,,,,,2022-04-21,1,,,,,ヴァーテクセル,0
122,1050001050971,新規,0,2022-04-21,2022-04-21,株式会社ＣＲＥＡ,,株式会社,茨城県,神栖市,矢田部７６４番地４６,,08,232,3140341,,,,,,,2022-04-21,1,,,,,クレア,0
126,1070005009987,新規,0,2022-04-21,2022-04-21,医療法人光葉会,,その他の設立登記法人,群馬県,前橋市,富士見町時沢１１６番地３,,10,201,3710104,,,,,,,2022-04-21,1,,,,,コウヨウカイ,0
127,1080001024898,新規,0,2022-04-21,2022-04-21,東海ロジスティックス株式会社,,株式会社,静岡県,静岡市葵区,紺屋町１７番地の１葵タワー１Ｆ,,22,101,4200852,,,,,,,2022-04-21,1,,,,,トウカイロジスティックス,0
153,1120001245390,新規,0,2022-04-21,2022-04-21,株式会社ＳＡＫＵＲＡコンサルティングファーム,,株式会社,大阪府,交野市,星田５丁目６番２１号２Ｆ,,27,230,5760016,,,,,,,2022-04-21,1,,,,,サクラコンサルティングファーム,0
154,1120001245408,新規,0,2022-04-21,2022-04-21,未来国際株式会社,,株式会社,大阪府,大阪市生野区,巽北３丁目３－７,00126371,27,116,5440004,,,,,,,2022-04-21,1,,,,,ミライコクサイ,0
157,1120003021526,新規,0,2022-04-21,2022-04-21,壽福堂合同会社,,合同会社,大阪府,大阪市中央区,南本町４丁目５番７号東亜ビル５Ｆ,,27,128,5410054,,,,,,,2022-04-21,1,,,,,ジュフクドウ,0
158,1120003021534,新規,0,2022-04-21,2022-04-21,ＬａｎｄＢｒｉｄｇｅ合同会社,,合同会社,大阪府,大阪市中央区,北久宝寺町３丁目６番１号本町南ガーデンシティ７階,,27,128,5410057,,,,,,,2022-04-21,1,,,,,ランドブリッジ,0
168,1130003007895,新規,0,2022-04-21,2022-04-21,合同会社ＧＯＲＫＨＡ‐ＤＵＲＢＡＲ,,合同会社,京都府,京都市上京区,七本松通一条下る三軒町６６番地９、１Ｆ,,26,102,6028341,,,,,,,2022-04-21,1,,,,,ゴルカダーバー,0
179,1140003017613,新規,0,2022-04-21,2022-04-21,ＷＡＫＵＷＡＫＵ．Ｂａｓｅ合同会社,,合同会社,兵庫県,たつの市,新宮町香山１５４２－１,,28,229,6794302,,,,,,,2022-04-21,1,,,,,ワクワクベース,0
181,1150003002671,新規,0,2022-04-21,2022-04-21,合同会社いなまる,,合同会社,奈良県,奈良市,菅野台２０番１０号,,29,201,6310043,,,,,,,2022-04-21,1,,,,,イナマル,0
186,1180001150973,新規,0,2022-04-21,2022-04-21,株式会社Ｒｉｐｐｌｅ,,株式会社,愛知県,名古屋市東区,葵１丁目７番１５号葵ツヤトモビル２Ｆ,,23,102,4610004,,,,,,,2022-04-21,1,,,,,リップル,0
187,1180001150981,新規,0,2022-04-21,2022-04-21,株式会社勇徳,,株式会社,愛知県,一宮市,本町１丁目５番８号,,23,203,4910859,,,,,,,2022-04-21,1,,,,,ユウトク,0
188,1180001150998,新規,0,2022-04-21,2022-04-21,株式会社中部トラックス,,株式会社,愛知県,名古屋市中区,丸の内２丁目１４番４号エグゼ丸の内１００２,,23,106,4600002,,,,,,,2022-04-21,1,,,,,チュウブトラックス,0
189,1180001151014,新規,0,2022-04-21,2022-04-21,株式会社ＨＹ,,株式会社,愛知県,一宮市,開明字中屋敷２５番地,,23,203,4940001,,,,,,,2022-04-21,1,,,,,エイチワイ,0
190,1180001151030,新規,0,2022-04-21,2022-04-21,株式会社タナカモータース商会,,株式会社,愛知県,名古屋市北区,辻本通３丁目１５番地,,23,103,4620861,,,,,,,2022-04-21,1,,,,,タナカモータースショウカイ,0
196,1180301036138,新規,0,2022-04-21,2022-04-21,株式会社外国人登録支援協会,,株式会社,愛知県,西尾市,高畠町４丁目９０番地ＣＩＴＹ　ＢＵＩＬＤ地久３０７号室,,23,213,4450064,,,,,,,2022-04-21,1,,,,,ガイコクジントウロクシエンキョウカイ,0
197,1180301036146,新規,0,2022-04-21,2022-04-21,株式会社Ｇ・Ｓエクスプレス,,株式会社,愛知県,高浜市,碧海町４丁目１番地２３,,23,227,4441324,,,,,,,2022-04-21,1,,,,,ジーエスエクスプレス,0
205,1220003003266,新規,0,2022-04-21,2022-04-21,合同会社ＦＥＥＬＳ,,合同会社,石川県,小松市,矢田野町ヌ５１番地１,,17,203,9230342,,,,,,,2022-04-21,1,,,,,フィールズ,0
211,1240001059622,新規,0,2022-04-21,2022-04-21,株式会社松本工業,,株式会社,広島県,竹原市,下野町３２８２番地１,,34,203,7250012,,,,,,,2022-04-21,1,,,,,マツモトコウギョウ,0
212,1240001059655,新規,0,2022-04-21,2022-04-21,株式会社ＫＥＮＳＯＵ,,株式会社,広島県,広島市佐伯区,屋代１丁目２２番２１－１号,,34,108,7315146,,,,,,,2022-04-21,1,,,,,ケンソウ,0
215,1240005015381,新規,0,2022-04-21,2022-04-21,一般社団法人ＫｉＴ,,その他の設立登記法人,広島県,三次市,君田町石原１５１番地,,34,209,7280404,,,,,,,2022-04-21,1,,,,,キット,0
216,1250001019518,新規,0,2022-04-21,2022-04-21,株式会社創友,,株式会社,山口県,宇部市,大字西岐波１１７３番地１７１,,35,202,7550151,,,,,,,2022-04-21,1,,,,,ソウユウ,0
230,1290001097270,新規,0,2022-04-21,2022-04-21,株式会社Ｈ２ワークス,,株式会社,福岡県,福岡市中央区,赤坂１丁目１４番２２号センチュリー赤坂門ビル６階,,40,133,8100042,,,,,,,2022-04-21,1,,,,,エイチツーワークス,0
231,1290003012434,新規,0,2022-04-21,2022-04-21,ココタイ合同会社,,合同会社,福岡県,宗像市,江口１９１番地５,,40,220,8113502,,,,,,,2022-04-21,1,,,,,ココタイ,0
235,1290801028458,新規,0,2022-04-21,2022-04-21,株式会社わくわくファーム,,株式会社,福岡県,京都郡みやこ町,国分１３１９番地３,,40,625,8240123,,,,,,,2022-04-21,1,,,,,ワクワクファーム,0
236,1290801028466,新規,0,2022-04-21,2022-04-21,株式会社ゼロワン,,株式会社,福岡県,北九州市小倉北区,萩崎町１４番２８－３０８号,,40,106,8020066,,,,,,,2022-04-21,1,,,,,ゼロワン,0
239,1300001012896,新規,0,2022-04-21,2022-04-21,株式会社エン・プラン,,株式会社,佐賀県,佐賀市,木原３丁目６番２３号,,41,201,8400015,,,,,,,2022-04-21,1,,,,,エンプラン,0
240,1300003001823,新規,0,2022-04-21,2022-04-21,合同会社シーライオン,,合同会社,佐賀県,嬉野市,塩田町大字真崎１４１１番地,,41,209,8491421,,,,,,,2022-04-21,1,,,,,シーライオン,0
244,1330001029649,新規,0,2022-04-21,2022-04-21,マルワ油工株式会社,,株式会社,熊本県,菊池郡菊陽町,向陽台１４番２号,,43,404,8691114,,,,,,,2022-04-21,1,,,,,マルワユコウ,0
245,1330001029665,新規,0,2022-04-21,2022-04-21,株式会社城南メディカル,,株式会社,熊本県,熊本市南区,城南町隈庄９４３番地７,,43,104,8614203,,,,,,,2022-04-21,1,,,,,ジョウナンメディカル,0
247,1340005009448,新規,0,2022-04-21,2022-04-21,薬師寺,,その他の設立登記法人,鹿児島県,薩摩郡さつま町,求名５７０番地,,46,392,8952201,,,,,,,2022-04-21,1,,,,,ヤクシジ,0
248,1360003011957,新規,0,2022-04-21,2022-04-21,合同会社Ｌｅ　ｔｅｍｐｓ　ｒｉｃｈｅ,,合同会社,沖縄県,浦添市,西原２丁目９－１７,,47,208,9012101,,,,,,,2022-04-21,1,,,,,,0
260,1390003001947,新規,0,2022-04-21,2022-04-21,合同会社ミライプロデュース,,合同会社,山形県,山形市,上町４丁目９番２８‐１０２号ファミーユロージェＡ,,06,201,9902483,,,,,,,2022-04-21,1,,,,,ミライプロデュース,0
270,1430001086465,新規,0,2022-04-21,2022-04-21,株式会社たすき,,株式会社,北海道,札幌市北区,北二十一条西２丁目２番６－１０５号,,01,102,0010021,,,,,,,2022-04-21,1,,,,,タスキ,0
271,1430003013830,新規,0,2022-04-21,2022-04-21,合同会社アプリコット,,合同会社,北海道,札幌市中央区,南十八条西９丁目１番５－９０１号,,01,101,0640918,,,,,,,2022-04-21,1,,,,,アプリコット,0
274,1470001019041,新規,0,2022-04-21,2022-04-21,株式会社ゆうき,,株式会社,香川県,丸亀市,土器町西７丁目９３番地,,37,202,7630081,,,,,,,2022-04-21,1,,,,,ユウキ,0
280,1700150107374,新規,0,2022-04-21,2022-03-14,トロンボーン・アンサンブル・カバーズ,,その他,兵庫県,赤穂市,中広８３４,,28,212,6780232,,,,,,,2022-03-14,1,,,,,トロンボーンアンサンブルカバーズ,0
295,2010001225881,新規,0,2022-04-21,2022-04-21,株式会社プロントン,,株式会社,東京都,千代田区,神田和泉町１番地２の７ＳＫ千代田ビル３階,,13,101,1010024,,,,,,,2022-04-21,1,,,,,プロントン,0
296,2010001226104,新規,0,2022-04-21,2022-04-21,Ｓ＆Ｆ株式会社,,株式会社,東京都,中央区,日本橋本町３丁目８番５号,,13,102,1030023,,,,,,,2022-04-21,1,,,,,エスアンドエフ,0
301,2010003037466,新規,0,2022-04-21,2022-04-21,合同会社リ・バルス,,合同会社,東京都,千代田区,外神田４丁目１２―１１ブリリア秋葉原１２０４,,13,101,1010021,,,,,,,2022-04-21,1,,,,,リバルス,0
302,2010003037516,新規,0,2022-04-21,2022-04-21,Ｔｉｎａ　Ｓｙｓｔｅｍｓ合同会社,,合同会社,東京都,文京区,大塚５丁目１３－１９,,13,105,1120012,,,,,,,2022-04-21,1,,,,,ティナシステムズ,0
314,2010501048733,新規,0,2022-04-21,2022-04-21,株式会社Ｏｐｔｉｏｎｓ,,株式会社,東京都,台東区,東上野１丁目８番２号オーイズミ東上野ビル東館６階,,13,106,1100015,,,,,,,2022-04-21,1,,,,,オプションズ,0
316,2010603009492,新規,0,2022-04-21,2022-04-21,合同会社ベーシックフィル,,合同会社,東京都,墨田区,八広５丁目２４番６号,,13,107,1310041,,,,,,,2022-04-21,1,,,,,ベーシックフィル,0
320,2010903007320,新規,0,2022-04-21,2022-04-21,合同会社Ｒ・３,,合同会社,東京都,世田谷区,宮坂１丁目２３番１１号,,13,112,1560051,,,,,,,2022-04-21,1,,,,,アールサン,0
325,2011001146688,新規,0,2022-04-21,2022-04-21,ｎｅｍｏ株式会社,,株式会社,東京都,渋谷区,神宮前６丁目２３番４号桑野ビル２階,,13,113,1500001,,,,,,,2022-04-21,1,,,,,ニーモ,0
326,2011001147042,新規,0,2022-04-21,2022-04-21,株式会社Ｒ５２,,株式会社,東京都,渋谷区,渋谷１丁目３－９ヒューリック渋谷１丁目ビル７階,,13,113,1500002,,,,,,,2022-04-21,1,,,,,アールゴジュウニ,0
327,2011001147050,新規,0,2022-04-21,2022-04-21,アイオライト株式会社,,株式会社,東京都,渋谷区,渋谷２丁目１９番１５－６０９号,,13,113,1500002,,,,,,,2022-04-21,1,,,,,アイオライト,0
328,2011001147075,新規,0,2022-04-21,2022-04-21,株式会社ＬｏｇＴｅｃｈ,,株式会社,東京都,渋谷区,神宮前６丁目２３－４－２Ｆ,,13,113,1500001,,,,,,,2022-04-21,1,,,,,ログテック,0
329,2011001147083,新規,0,2022-04-21,2022-04-21,メディカルライフ株式会社,,株式会社,東京都,渋谷区,代々木２丁目９番５号ＦＰＧリンクス新宿テラス６Ｆ,,13,113,1510053,,,,,,,2022-04-21,1,,,,,メディカルライフ,0
330,2011001147100,新規,0,2022-04-21,2022-04-21,株式会社エイトデイズキッチン,,株式会社,東京都,渋谷区,千駄ヶ谷４丁目２２番６号－２Ｆ,,13,113,1510051,,,,,,,2022-04-21,1,,,,,エイトデイズキッチン,0
331,2011001147109,新規,0,2022-04-21,2022-04-21,株式会社ｆｒｅａｇｅ,,株式会社,東京都,渋谷区,神宮前６丁目２３番４号,,13,113,1500001,,,,,,,2022-04-21,1,,,,,フレイジ,0
336,2011101098573,新規,0,2022-04-21,2022-04-21,ＳＴＴ　ＨＫ株式会社,,株式会社,東京都,新宿区,北新宿１丁目３０番３０－５３０号,,13,104,1690074,,,,,,,2022-04-21,1,,,,,エスティティエイチケイ,0
340,2011301027729,新規,0,2022-04-21,2022-04-21,株式会社ＡａａＳ　Ｂｒｉｄｇｅ,,株式会社,東京都,杉並区,天沼２丁目１番３号,,13,115,1670032,,,,,,,2022-04-21,1,,,,,アースブリッジ,0
350,2011801040628,新規,0,2022-04-21,2022-04-21,株式会社ＳＥＡＭＳ　Ｓｔａｇｅ　Ｍａｎａｇｅｍｅｎｔ,,株式会社,東京都,足立区,平野１丁目１８番２３号,,13,121,1210076,,,,,,,2022-04-21,1,,,,,シームズステージマネジメント,0
365,2020001146177,新規,0,2022-04-21,2022-04-21,株式会社斉成産業,,株式会社,神奈川県,川崎市麻生区,万福寺４丁目２番２－１０３号,,14,137,2150004,,,,,,,2022-04-21,1,,,,,サイセイサンギョウ,0
372,2020003021667,新規,0,2022-04-21,2022-04-21,Ｍ．Ｋ．合同会社,,合同会社,神奈川県,横浜市南区,新川町１丁目１番地１リーヴェルステージ横浜南４０２,,14,105,2320027,,,,,,,2022-04-21,1,,,,,エムケー,0
373,2020003021675,新規,0,2022-04-21,2022-04-21,合同会社ＨＡＰｉＳＴ,,合同会社,神奈川県,横浜市瀬谷区,阿久和東３丁目４９番地６号,,14,114,2460023,,,,,,,2022-04-21,1,,,,,ハピスト,0
381,2030001147802,新規,0,2022-04-21,2022-04-21,株式会社Ｙ’ｓ,,株式会社,埼玉県,川口市,大字里１１５５番地,,11,203,3340005,,,,,,,2022-04-21,1,,,,,ワイズ,0
394,2040001123050,新規,0,2022-04-21,2022-04-21,株式会社ＡＩＬＩＦＥ,,株式会社,千葉県,千葉市稲毛区,小仲台２丁目６－１京成稲毛ビル２階,,12,103,2630043,,,,,,,2022-04-21,1,,,,,アイライフ,0
397,2040003019908,新規,0,2022-04-21,2022-04-21,ＳＭＯサービス合同会社,,合同会社,千葉県,市川市,市川２丁目２６番１－２０４号（ザ・パークハウス市川二丁目）,,12,203,2720034,,,,,,,2022-04-21,1,,,,,エスエムオーサービス,0
398,2040003019916,新規,0,2022-04-21,2022-04-21,合同会社ガンジウル,,合同会社,千葉県,松戸市,上本郷２２９３－１松戸ＪＫハイツ２、１０１号室,,12,207,2710064,,,,,,,2022-04-21,1,,,,,ガンジウル,0
402,2050003006517,新規,0,2022-04-21,2022-04-21,合同会社ことふみ,,合同会社,茨城県,ひたちなか市,大字高場２５８１番地３２,,08,221,3120062,,,,,,,2022-04-21,1,,,,,コトフミ,0
431,2120001245282,新規,0,2022-04-21,2022-04-21,真華成株式会社,,株式会社,大阪府,大阪市西区,京町堀１丁目３番１３号,,27,106,5500003,,,,,,,2022-04-21,1,,,,,シンカセイ,0
432,2120001245349,新規,0,2022-04-21,2022-04-21,潤生株式会社,,株式会社,大阪府,大阪市天王寺区,上汐３丁目３－２３ライオンズマンション上六第二６０５号室,,27,109,5430002,,,,,,,2022-04-21,1,,,,,ジュンセイ,0
433,2120001245357,新規,0,2022-04-21,2022-04-21,スピカファーマシー株式会社,,株式会社,大阪府,大阪市阿倍野区,播磨町１丁目２３番８号ケイ・クリスタル１０１号室,,27,119,5450022,,,,,,,2022-04-21,1,,,,,スピカファーマシー,0
434,2120001245381,新規,0,2022-04-21,2022-04-21,ＡｉＫＩＳＳ　Ｌａｎｇｕａｇｅ　Ｓｅｒｖｉｃｅ株式会社,,株式会社,大阪府,大阪市都島区,友渕町２丁目８番７－２０４号,,27,102,5340016,,,,,,,2022-04-21,1,,,,,アイキスランゲージサービス,0
435,2120001245398,新規,0,2022-04-21,2022-04-21,株式会社えむりんく,,株式会社,大阪府,大阪市中央区,西心斎橋１丁目１０番１７号ポポロビル４階Ｓ号,,27,128,5420086,,,,,,,2022-04-21,1,,,,,エムリンク,0
449,2120101065416,新規,0,2022-04-21,2022-04-21,友伸株式会社,,株式会社,大阪府,羽曳野市,伊賀２丁目１３番地１４号,,27,222,5830876,,,,,,,2022-04-21,1,,,,,ユウシン,0
450,2120101065424,新規,0,2022-04-21,2022-04-21,株式会社Ｌｉａｃ,,株式会社,大阪府,堺市北区,金岡町９１１番地,,27,146,5918022,,,,,,,2022-04-21,1,,,,,リアック,0
451,2120101065440,新規,0,2022-04-21,2022-04-21,Ｒｅｔｏｍａ株式会社,,株式会社,大阪府,堺市堺区,百舌鳥夕雲町１丁５１番地１２,,27,141,5900802,,,,,,,2022-04-21,1,,,,,レトマ,0
452,2120101065449,新規,0,2022-04-21,2022-04-21,Ｍ．Ｌトレーディング株式会社,,株式会社,大阪府,堺市北区,中百舌鳥町６丁１０３４番地６－２番館１００１号,,27,146,5918023,,,,,,,2022-04-21,1,,,,,エムエルトレーディング,0
453,2120103004669,新規,0,2022-04-21,2022-04-21,合同会社Ｗｅｅｋｅｎｄ,,合同会社,大阪府,泉南郡熊取町,大久保中３丁目２０番７号,,27,361,5900403,,,,,,,2022-04-21,1,,,,,,0
454,2120105009550,新規,0,2022-04-21,2022-04-21,一般社団法人ＯＳＡＫＡゼロカーボンファウンデーション,,その他の設立登記法人,大阪府,岸和田市,地蔵浜町１１番地の１,,27,202,5960015,,,,,,,2022-04-21,1,,,,,,0
459,2120903004125,新規,0,2022-04-21,2022-04-21,ＩＴＵＴＵ　ＧＲＯＵＰ合同会社,,合同会社,大阪府,豊中市,東泉丘２丁目１５番１８－２０７号,,27,203,5610861,,,,,,,2022-04-21,1,,,,,イツツグループ,0
472,2140003017612,新規,0,2022-04-21,2022-04-21,ＭＤ合同会社,,合同会社,兵庫県,加古川市,八幡町船町１９２－２,,28,210,6751206,,,,,,,2022-04-21,1,,,,,エムディ,0
474,2150001025467,新規,0,2022-04-21,2022-04-21,株式会社川東履物商店,,株式会社,奈良県,大和高田市,曙町１５－３３,,29,202,6350012,,,,,,,2022-04-21,1,,,,,カワヒガシハキモノショウテン,0
475,2150001025475,新規,0,2022-04-21,2022-04-21,近畿住宅販売株式会社,,株式会社,奈良県,橿原市,内膳町１丁目３の８,,29,205,6340804,,,,,,,2022-04-21,1,,,,,キンキジュウタクハンバイ,0
484,2180001150972,新規,0,2022-04-21,2022-04-21,株式会社ニューカマーズ,,株式会社,愛知県,名古屋市千種区,春岡通５丁目２９番地の１５,,23,101,4640847,,,,,,,2022-04-21,1,,,,,ニューカマーズ,0
485,2180001150980,新規,0,2022-04-21,2022-04-21,マツダ株式会社,,株式会社,愛知県,あま市,古道屋敷２４２番地,,23,237,4901201,,,,,,,2022-04-21,1,,,,,マツダ,0
486,2180001150989,新規,0,2022-04-21,2022-04-21,株式会社ヤマト工業,,株式会社,愛知県,名古屋市千種区,今池４丁目７番３号アミティヤスダ３０６号,,23,101,4640850,,,,,,,2022-04-21,1,,,,,ヤマトコウギョウ,0
487,2180001151005,新規,0,2022-04-21,2022-04-21,株式会社ロジサイト,,株式会社,愛知県,名古屋市中区,丸の内２丁目１３番１６号－２プレサンスグラン丸の内１４０３号,,23,106,4600002,,,,,,,2022-04-21,1,,,,,ロジサイト,0
491,2180301036137,新規,0,2022-04-21,2022-04-21,株式会社ＫＳＰ,,株式会社,愛知県,蒲郡市,豊岡町石田１７番地１,,23,214,4430011,,,,,,,2022-04-21,1,,,,,ケーエスピー,0
492,2180301036145,新規,0,2022-04-21,2022-04-21,スターローズ株式会社,,株式会社,愛知県,西尾市,楠村町寺下１番地１５,,23,213,4440325,,,,,,,2022-04-21,1,,,,,スターローズ,0
506,2240001059654,新規,0,2022-04-21,2022-04-21,株式会社ＮＥＦ　ＡＩＤ,,株式会社,広島県,広島市西区,大芝２丁目４番９－１０８号,,34,104,7330001,,,,,,,2022-04-21,1,,,,,ネフエイド,0
509,2240005015380,新規,0,2022-04-21,2022-04-21,特定非営利活動法人コドモＰＲＥＳＥＮＴＳ,,その他の設立登記法人,広島県,廿日市市,住吉１丁目５番２１号,,34,213,7380014,,,,,,,2022-04-21,1,,,,,コドモプレゼンツ,0
513,2260001036783,新規,0,2022-04-21,2022-04-21,株式会社ＥＮＡＭＩ,,株式会社,岡山県,総社市,宿１７３９番地６,,33,208,7191161,,,,,,,2022-04-21,1,,,,,エナミ,0
527,2290805009544,新規,0,2022-04-21,2022-04-21,医療法人彩千会,,その他の設立登記法人,福岡県,北九州市戸畑区,千防２丁目１０番６号,,40,105,8040081,,,,,,,2022-04-21,1,,,,,サイセンカイ,0
533,2330001029664,新規,0,2022-04-21,2022-04-21,株式会社Ｎ‐ｏｆｆｉｃｅ,,株式会社,熊本県,熊本市北区,植木町大和３２－１５,,43,105,8610143,,,,,,,2022-04-21,1,,,,,エヌオフィス,0
536,2340001024672,新規,0,2022-04-21,2022-04-21,日向建設株式会社,,株式会社,鹿児島県,鹿児島市,谷山中央２丁目４４２７番地,,46,201,8910141,,,,,,,2022-04-21,1,,,,,ヒュウガケンセツ,0
539,2360001030289,新規,0,2022-04-21,2022-04-21,株式会社うんどうや,,株式会社,沖縄県,石垣市,字真栄里１７０番地７,,47,207,9070002,,,,,,,2022-04-21,1,,,,,ウンドウヤ,0
549,2430001086489,新規,0,2022-04-21,2022-04-21,株式会社秀吉総業,,株式会社,北海道,滝川市,扇町３丁目１４番３９号,,01,225,0730046,,,,,,,2022-04-21,1,,,,,ヒデヨシソウギョウ,0
558,2490005006842,新規,0,2022-04-21,2022-04-21,特定非営利活動法人こうちネットホップ,,その他の設立登記法人,高知県,高知市,本町２丁目２番８号香南ビル６０１号,,39,201,7800870,,,,,,,2022-04-21,1,,,,,コウチネットホップ,0
566,3010001225906,新規,0,2022-04-21,2022-04-21,株式会社イロフル,,株式会社,東京都,中央区,銀座７丁目１３番２１号銀座新六洲ビル２階,,13,102,1040061,,,,,,,2022-04-21,1,,,,,イロフル,0
567,3010001225947,新規,0,2022-04-21,2022-04-21,株式会社トーションメディトロニクスジャパン,,株式会社,東京都,中央区,日本橋大伝馬町１２番３－１２０１号,,13,102,1030011,,,,,,,2022-04-21,1,,,,,,0
568,3010001226086,新規,0,2022-04-21,2022-04-21,株式会社ＳａｖｅＥｘｐａｔｓ,,株式会社,東京都,中央区,銀座１丁目２２番１１号,,13,102,1040061,,,,,,,2022-04-21,1,,,,,セーブエクスパッツ,0
572,3010003037457,新規,0,2022-04-21,2022-04-21,合同会社キングチャイルド,,合同会社,東京都,千代田区,神田錦町３丁目１５番地８三星舎ビル４階,,13,101,1010054,,,,,,,2022-04-21,1,,,,,キングチャイルド,0
573,3010003037523,新規,0,2022-04-21,2022-04-21,山田屋商店合同会社,,合同会社,東京都,中央区,築地６丁目２－１２－５１２,,13,102,1040045,,,,,,,2022-04-21,1,,,,,ヤマダヤショウテン,0
579,3010401166832,新規,0,2022-04-21,2022-04-21,株式会社ｂ．ｐｌｕｓ,,株式会社,東京都,港区,赤坂２丁目２０番７号第２成光ビル２０６,,13,103,1070052,,,,,,,2022-04-21,1,,,,,ビープラス,0
580,3010401166881,新規,0,2022-04-21,2022-04-21,株式会社アインス,,株式会社,東京都,港区,芝浦４丁目１９番１号,,13,103,1080023,,,,,,,2022-04-21,1,,,,,アインス,0
581,3010401166923,新規,0,2022-04-21,2022-04-21,株式会社日本トラストコンサルティング,,株式会社,東京都,港区,南青山２丁目２番１５号ウィン青山１２１４号,,13,103,1070062,,,,,,,2022-04-21,1,,,,,ニホントラストコンサルティング,0
583,3010701042543,新規,0,2022-04-21,2022-04-21,株式会社ＫＡＮＫＩ,,株式会社,東京都,品川区,西五反田６丁目１６番２２号３０３,,13,109,1410031,,,,,,,2022-04-21,1,,,,,カンキ,0
584,3010703006208,新規,0,2022-04-21,2022-04-21,ＴＢＭ合同会社,,合同会社,東京都,品川区,東品川１丁目９番１２－１０１号,,13,109,1400002,,,,,,,2022-04-21,1,,,,,ティビーエム,0
589,3010903007328,新規,0,2022-04-21,2022-04-21,合同会社アイエスロッジ,,合同会社,東京都,世田谷区,給田５丁目６番２４－２１７号,,13,112,1570064,,,,,,,2022-04-21,1,,,,,アイエスロッジ,0
593,3011001147074,新規,0,2022-04-21,2022-04-21,株式会社ＮＡＥ,,株式会社,東京都,渋谷区,神宮前６丁目２３番４号桑野ビル２階,,13,113,1500001,,,,,,,2022-04-21,1,,,,,ナエ,0
594,3011001147099,新規,0,2022-04-21,2022-04-21,株式会社ＹＥＳ．,,株式会社,東京都,渋谷区,代々木３丁目３９番４－３０３号,,13,113,1510053,,,,,,,2022-04-21,1,,,,,イエス,0
596,3011003014578,新規,0,2022-04-21,2022-04-21,ＴＸＯｎｅ　Ｎｅｔｗｏｒｋｓ　Ｊａｐａｎ合同会社,,合同会社,東京都,渋谷区,代々木２丁目１番１号新宿マインズタワー,,13,113,1510053,,,,,,,2022-04-21,1,,,,,ティーエックスワンネットワークスジャパン,0
597,3011103011681,新規,0,2022-04-21,2022-04-21,合同会社ワントゥーワン・グループ,,合同会社,東京都,新宿区,西新宿３丁目３－１３,,13,104,1600023,,,,,,,2022-04-21,1,,,,,ワントゥーワングループ,0
602,3011201023785,新規,0,2022-04-21,2022-04-21,株式会社將,,株式会社,東京都,中野区,南台３丁目６番１４号５１０,,13,114,1640014,,,,,,,2022-04-21,1,,,,,マサト,0
604,3011401024187,新規,0,2022-04-21,2022-04-21,株式会社クロスバトンズ,,株式会社,東京都,板橋区,熊野町３７番１９－５０３号,,13,119,1730025,,,,,,,2022-04-21,1,,,,,クロスバトンズ,0
607,3011403003635,新規,0,2022-04-21,2022-04-21,ｔａｋｌｏｇ　ｆｉｌｍ合同会社,,合同会社,東京都,板橋区,蓮根２丁目２７－２５ル・ヴェール４０３,,13,119,1740046,,,,,,,2022-04-21,1,,,,,タクログフィルム,0
611,3011501027957,新規,0,2022-04-21,2022-04-21,株式会社生仲心,,株式会社,東京都,北区,神谷３丁目１０番８号,,13,117,1150043,,,,,,,2022-04-21,1,,,,,キナコ,0
612,3011503005143,新規,0,2022-04-21,2022-04-21,合同会社エスエスイーサポート,,合同会社,東京都,北区,東田端１丁目１４番１１号,,13,117,1140013,,,,,,,2022-04-21,1,,,,,エスエスイーサポート,0
616,3011801040619,新規,0,2022-04-21,2022-04-21,株式会社ＳＷＥＥＴＢＩＯ,,株式会社,東京都,葛飾区,高砂２丁目２１番１２号,,13,122,1250054,,,,,,,2022-04-21,1,,,,,スウィートバイオ,0
619,3012301012959,新規,0,2022-04-21,2022-04-21,たいよう不動産株式会社,,株式会社,東京都,町田市,金森５丁目８－６,,13,209,1940012,,,,,,,2022-04-21,1,,,,,タイヨウフドウサン,0
620,3012303001662,新規,0,2022-04-21,2022-04-21,合同会社ハッピーシード,,合同会社,東京都,町田市,玉川学園５丁目２４番４９号グリーンヒルフラット２０２号室,,13,209,1940041,,,,,,,2022-04-21,1,,,,,ハッピーシード,0
632,3020001146226,新規,0,2022-04-21,2022-04-21,株式会社盛宝,,株式会社,神奈川県,横浜市中区,相生町３丁目６３番地３ベルビル１階,,14,104,2310012,,,,,,,2022-04-21,1,,,,,セイホウ,0
633,3020001146234,新規,0,2022-04-21,2022-04-21,Ｗｉｓｄｏｍｌｉｎｋｓ株式会社,,株式会社,神奈川県,横浜市神奈川区,松ケ丘５８番地２,,14,102,2210843,,,,,,,2022-04-21,1,,,,,ウィズダムリンクス,0
634,3020003021666,新規,0,2022-04-21,2022-04-21,Ｇｌｏｂａｌ　Ｓｔｅｐ合同会社,,合同会社,神奈川県,川崎市宮前区,宮前平３丁目７－２２－２２７,,14,136,2160006,,,,,,,2022-04-21,1,,,,,グローバルステップ,0
645,3030001147784,新規,0,2022-04-21,2022-04-21,株式会社ＨＮホールディングス,,株式会社,埼玉県,春日部市,粕壁１丁目７番１３号マルヤ住宅第１５ビル１階,,11,214,3440061,,,,,,,2022-04-21,1,,,,,エイチエヌホールディングス,0
646,3030001147842,新規,0,2022-04-21,2022-04-21,株式会社アゲイン,,株式会社,埼玉県,さいたま市浦和区,岸町５丁目１５番２２－３０１号,,11,107,3300064,,,,,,,2022-04-21,1,,,,,アゲイン,0
647,3030001147850,新規,0,2022-04-21,2022-04-21,最新総業株式会社,,株式会社,埼玉県,春日部市,永沼５５５番地１,,11,214,3440123,,,,,,,2022-04-21,1,,,,,サイシンソウギョウ,0
648,3030001147867,新規,0,2022-04-21,2022-04-21,株式会社優美装,,株式会社,埼玉県,新座市,石神５丁目１番１８号,,11,230,3520033,,,,,,,2022-04-21,1,,,,,ユウビソウ,0
658,3040001123074,新規,0,2022-04-21,2022-04-21,株式会社新都市開発,,株式会社,千葉県,千葉市花見川区,武石町１丁目５３４番地１－２０１号,,12,102,2620031,,,,,,,2022-04-21,1,,,,,シントシカイハツ,0
659,3040001123090,新規,0,2022-04-21,2022-04-21,Ｎａｔｕｒｅホールディングス株式会社,,株式会社,千葉県,柏市,大津ケ丘１丁目５４番地３棟４０５号,,12,217,2770921,,,,,,,2022-04-21,1,,,,,ナチュアホールディングス,0
660,3040001123116,新規,0,2022-04-21,2022-04-21,株式会社建翔,,株式会社,千葉県,鎌ケ谷市,東初富４丁目１６番７号,,12,224,2730122,,,,,,,2022-04-21,1,,,,,ケンショウ,0
662,3040003019898,新規,0,2022-04-21,2022-04-21,ヘルフェン合同会社,,合同会社,千葉県,柏市,今谷上町５１番地６リエール１０２号,,12,217,2770074,,,,,,,2022-04-21,1,,,,,ヘルフェン,0
663,3040003019915,新規,0,2022-04-21,2022-04-21,合同会社レーヴドーレ,,合同会社,千葉県,印西市,滝野２丁目１２番３号,,12,231,2702329,,,,,,,2022-04-21,1,,,,,レーヴドーレ,0
666,3050001050986,新規,0,2022-04-21,2022-04-21,株式会社ＴＮ建設,,株式会社,茨城県,稲敷郡美浦村,大字受領１１４７番地４,,08,442,3000424,,,,,,,2022-04-21,1,,,,,ティーエヌケンセツ,0
668,3050003006516,新規,0,2022-04-21,2022-04-21,合同会社クロスライン,,合同会社,茨城県,水戸市,東野町６８５番地の１,,08,201,3100846,,,,,,,2022-04-21,1,,,,,クロスライン,0
672,3070001039152,新規,0,2022-04-21,2022-04-21,ＷａｉＷａｉ・Ｌａｎｄ株式会社,,株式会社,群馬県,桐生市,広沢町５丁目１３８８番地の３０,,10,203,3760013,,,,,,,2022-04-21,1,,,,,ワイワイランド,0
688,3110001036608,新規,0,2022-04-21,2022-04-21,株式会社相川車座,,株式会社,新潟県,佐渡市,相川一町目３２番地,,15,224,9521557,,,,,,,2022-04-21,1,,,,,アイカワクルマザ,0
700,3120001245323,新規,0,2022-04-21,2022-04-21,株式会社ＳＫＹ,,株式会社,大阪府,大阪市西区,北堀江１丁目１－２３養田ビル四ツ橋館７階,,27,106,5500014,,,,,,,2022-04-21,1,,,,,スカイ,0
701,3120001245348,新規,0,2022-04-21,2022-04-21,紅獅株式会社,,株式会社,大阪府,大阪市淀川区,西宮原１丁目７－４オリエント新大阪アーバンライフ９０５号室,,27,123,5320004,,,,,,,2022-04-21,1,,,,,コウシ,0
702,3120001245364,新規,0,2022-04-21,2022-04-21,株式会社たもつメンテナンス,,株式会社,大阪府,大阪市住吉区,山之内２丁目４番２号,,27,120,5580023,,,,,,,2022-04-21,1,,,,,タモツメンテナンス,0
703,3120001245372,新規,0,2022-04-21,2022-04-21,株式会社クレーバー,,株式会社,大阪府,大阪市淀川区,十三東２丁目２－３－４０２,,27,123,5320023,,,,,,,2022-04-21,1,,,,,クレーバー,0
704,3120001245389,新規,0,2022-04-21,2022-04-21,株式会社セサミシール,,株式会社,大阪府,大阪市此花区,春日出南３丁目３番４１号Ｂ－６０２号,,27,104,5540023,,,,,,,2022-04-21,1,,,,,セサミシール,0
707,3120003021474,新規,0,2022-04-21,2022-04-21,合同会社ｕｎｔｒａｃｅ,,合同会社,大阪府,大阪市西区,北堀江２丁目６番１６号ブラン北堀江８０４,,27,106,5500014,,,,,,,2022-04-21,1,,,,,アントレース,0
708,3120003021524,新規,0,2022-04-21,2022-04-21,ＭＶＩ合同会社,,合同会社,大阪府,大阪市浪速区,桜川３丁目５番１４号桜川三丁目貸家２０１号,,27,111,5560022,,,,,,,2022-04-21,1,,,,,エムブイアイ,0
709,3120003021540,新規,0,2022-04-21,2022-04-21,イーストシステム合同会社,,合同会社,大阪府,大阪市中央区,南船場４丁目１０番５号南船場ＳＯＨＯビル７０２,,27,128,5420081,,,,,,,2022-04-21,1,,,,,イーストシステム,0
711,3120005022909,新規,0,2022-04-21,2022-04-21,特定非営利活動法人日本強育普及協会,,その他の設立登記法人,大阪府,守口市,八雲東町２丁目４番４号,,27,209,5700021,,,,,,,2022-04-21,1,,,,,,0
713,3120101065456,新規,0,2022-04-21,2022-04-21,株式会社寿一建設,,株式会社,大阪府,堺市北区,百舌鳥赤畑町５丁５８７－２,,27,146,5918037,,,,,,,2022-04-21,1,,,,,ジュイチケンセツ,0
716,3120903004124,新規,0,2022-04-21,2022-04-21,合同会社ＣＬＯＵＤ９,,合同会社,大阪府,茨木市,目垣２丁目３０番１２号,,27,211,5670836,,,,,,,2022-04-21,1,,,,,クラウドナイン,0
725,3130001071553,新規,0,2022-04-21,2022-04-21,大野興業株式会社,,株式会社,京都府,舞鶴市,字浜１５４８番地,,26,202,6250036,,,,,,,2022-04-21,1,,,,,オオノコウギョウ,0
726,3130001071611,新規,0,2022-04-21,2022-04-21,株式会社ツカサ,,株式会社,京都府,京都市上京区,千本通出水下る十四軒町４０５番地ルミエール聚楽２０６号,,26,102,6028164,,,,,,,2022-04-21,1,,,,,ツカサ,0
732,3140001125696,新規,0,2022-04-21,2022-04-21,株式会社ＫＡＺＵ,,株式会社,兵庫県,加古川市,野口町坂井３１６番地,,28,210,6750015,,,,,,,2022-04-21,1,,,,,カズ,0
733,3140001125738,新規,0,2022-04-21,2022-04-21,株式会社タクスリー,,株式会社,兵庫県,神戸市中央区,八幡通４丁目１番１５－５０２号,,28,110,6510085,,,,,,,2022-04-21,1,,,,,タクスリー,0
745,3180001150988,新規,0,2022-04-21,2022-04-21,株式会社Ｏｎｅｎｅｓｓ,,株式会社,愛知県,名古屋市中区,栄５丁目２６番３９号ＧＳ栄ビル３Ｆ,,23,106,4600008,,,,,,,2022-04-21,1,,,,,ワンネス,0
746,3180001150996,新規,0,2022-04-21,2022-04-21,株式会社エコネスト,,株式会社,愛知県,一宮市,音羽３丁目１４番２５号,,23,203,4910045,,,,,,,2022-04-21,1,,,,,エコネスト,0
747,3180001151004,新規,0,2022-04-21,2022-04-21,Ｓｋｙ　Ｅｄｉｔｏｒ株式会社,,株式会社,愛知県,名古屋市西区,那古野２丁目１４番１号なごのキャンパス,,23,104,4510042,,,,,,,2022-04-21,1,,,,,スカイエディター,0
748,3180001151012,新規,0,2022-04-21,2022-04-21,株式会社マイルド,,株式会社,愛知県,名古屋市天白区,高宮町８１０番地の１,,23,116,4680031,,,,,,,2022-04-21,1,,,,,マイルド,0
749,3180001151037,新規,0,2022-04-21,2022-04-21,株式会社ＣＨＡＴＥＡＵ,,株式会社,愛知県,名古屋市中区,金山５丁目６番７号,,23,106,4600022,,,,,,,2022-04-21,1,,,,,シャトー,0
750,3180003023713,新規,0,2022-04-21,2022-04-21,合同会社ＮｅｗＦａｃｅ,,合同会社,愛知県,名古屋市昭和区,川原通４丁目９番地川原ハイツ２Ｂ号,,23,107,4660853,,,,,,,2022-04-21,1,,,,,ニューフェイス,0
751,3180301036128,新規,0,2022-04-21,2022-04-21,株式会社弘和,,株式会社,愛知県,豊橋市,西山町字西山２４８番地６,,23,201,4413121,,,,,,,2022-04-21,1,,,,,コウワ,0
752,3180301036136,新規,0,2022-04-21,2022-04-21,暮るみ株式会社,,株式会社,愛知県,額田郡幸田町,大字菱池字新田９０番地,,23,501,4440113,,,,,,,2022-04-21,1,,,,,クルミ,0
753,3180301036144,新規,0,2022-04-21,2022-04-21,株式会社古賀技研,,株式会社,愛知県,みよし市,三好町蜂ヶ池４５番地３９,,23,236,4700224,,,,,,,2022-04-21,1,,,,,コガギケン,0
756,3190001029356,新規,0,2022-04-21,2022-04-21,株式会社誠昌陸送,,株式会社,三重県,四日市市,内堀町１９６,,24,202,5100872,,,,,,,2022-04-21,1,,,,,セイショウリクソウ,0
761,3230001019328,新規,0,2022-04-21,2022-04-21,株式会社新設計いみず,,株式会社,富山県,射水市,作道２１００番地４,,16,211,9340042,,,,,,,2022-04-21,1,,,,,シンセッケイイミズ,0
773,3290001097260,新規,0,2022-04-21,2022-04-21,株式会社シュシュテビューティーラボ,,株式会社,福岡県,久留米市,原古賀町２０番地８エンゼルハイム六ツ門７０２号,,40,203,8300046,,,,,,,2022-04-21,1,,,,,シュシュテビューティーラボ,0
774,3290001097293,新規,0,2022-04-21,2022-04-21,ＦＩＲＥ株式会社,,株式会社,福岡県,福岡市中央区,白金１丁目２１番１６号２Ｆ,,40,133,8100012,,,,,,,2022-04-21,1,,,,,ファイヤー,0
776,3290003012432,新規,0,2022-04-21,2022-04-21,合同会社Ｈ＆Ａｓｓｏｃｉａｔｅｓ,,合同会社,福岡県,福岡市城南区,長尾２丁目６番７－６０２号,,40,136,8140123,,,,,,,2022-04-21,1,,,,,エイチアンドアソシエイツ,0
787,3330001029663,新規,0,2022-04-21,2022-04-21,株式会社ＬＯＯＭ,,株式会社,熊本県,八代市,錦町１３番地３,,43,202,8660834,,,,,,,2022-04-21,1,,,,,ルーム,0
798,3350003004068,新規,0,2022-04-21,2022-04-21,合同会社ＬＩＦＥ　ＳＰＡＣＥ３１０,,合同会社,宮崎県,宮崎市,佐土原町東上那珂１６０１３番地８１,,45,201,8800303,,,,,,,2022-04-21,1,,,,,ライフスペースサトウ,0
799,3360003011963,新規,0,2022-04-21,2022-04-21,永安商事合同会社,,合同会社,沖縄県,那覇市,松尾２丁目７番１０号牧志公設市場２階,,47,201,9000014,,,,,,,2022-04-21,1,,,,,エイアンショウジ,0
805,3380003005162,新規,0,2022-04-21,2022-04-21,合同会社福福事務所,,合同会社,福島県,福島市,天神町２番２８号,,07,201,9608001,,,,,,,2022-04-21,1,,,,,フクフクジムショ,0
818,3420005007805,新規,0,2022-04-21,2022-04-21,医療法人ＣｏｆＩ,,その他の設立登記法人,青森県,青森市,大字浜館字見取１５番地１,,02,201,0300947,,,,,,,2022-04-21,1,,,,,シーオブアイ,0
820,3430001086496,新規,0,2022-04-21,2022-04-21,株式会社ｋｏｏｇａ,,株式会社,北海道,恵庭市,島松東町４丁目８番１号,,01,231,0611351,,,,,,,2022-04-21,1,,,,,コオガ,0
829,3480001011714,新規,0,2022-04-21,2022-04-21,株式会社山下工業,,株式会社,徳島県,三好郡東みよし町,加茂３２６１番地１,,36,489,7794701,,,,,,,2022-04-21,1,,,,,ヤマシタコウギョウ,0
832,3700150107224,新規,0,2022-04-21,2022-03-01,かなで屋,,その他,滋賀県,大津市,苗鹿２丁目２３番１８号,,25,201,5200102,,,,,,,2022-03-01,1,,,,,カナデヤ,0
833,3700150107521,新規,0,2022-04-21,2022-03-28,ＷＡＴＡＲｏｏｍ,,その他,東京都,中野区,上高田２丁目１４－８エルウィング上高田３０１,,13,114,1640002,,,,,,,2022-03-28,1,,,,,ワタルーム,0
851,4010001225847,新規,0,2022-04-21,2022-04-21,株式会社日和,,株式会社,東京都,中央区,日本橋兜町１７番２号兜町第６葉山ビル４階,,13,102,1030026,,,,,,,2022-04-21,1,,,,,ヒヨリ,0
852,4010001225946,新規,0,2022-04-21,2022-04-21,孝芳堂株式会社,,株式会社,東京都,千代田区,九段南４丁目２番３号九段木田ビル１０１,,13,101,1020074,,,,,,,2022-04-21,1,,,,,コウホウドウ,0
853,4010001226060,新規,0,2022-04-21,2022-04-21,株式会社Ｒｅｌａｙｓ,,株式会社,東京都,中央区,銀座１丁目２２番１１号銀座大竹ビジデンス２階,,13,102,1040061,,,,,,,2022-04-21,1,,,,,リレイズ,0
855,4010003037514,新規,0,2022-04-21,2022-04-21,トレジャーランド合同会社,,合同会社,東京都,千代田区,飯田橋３丁目１１番３０号,,13,101,1020072,,,,,,,2022-04-21,1,,,,,トレジャーランド,0
857,4010005034906,新規,0,2022-04-21,2022-04-21,一般社団法人日本資産鑑定協会,,その他の設立登記法人,東京都,千代田区,麹町４丁目５番地２１紀尾井町ＰＲＥＸ１０階,,13,101,1020083,,,,,,,2022-04-21,1,,,,,ニホンシサンカンテイキョウカイ,0
866,4010401166641,新規,0,2022-04-21,2022-04-21,株式会社ｉｎｎｅｒ　ｓｃａｐｅ,,株式会社,東京都,港区,高輪４丁目８番１１号高輪マンション７０２号室,,13,103,1080074,,,,,,,2022-04-21,1,,,,,インナースケイプ,0
867,4010401166708,新規,0,2022-04-21,2022-04-21,Ｑｕｉｎｑ　Ｌｉｆｅｓｔｙｌｅｓ株式会社,,株式会社,東京都,港区,北青山３丁目６番７号青山パラシオタワー１１階,,13,103,1070061,,,,,,,2022-04-21,1,,,,,クインクライフスタイル,0
868,4010401167012,新規,0,2022-04-21,2022-04-21,株式会社Ｃａｎｏｐｕｓ,,株式会社,東京都,港区,西新橋２丁目１５番７号ＭＳＣ西新橋ビル３階税理士法人ＡＫＪパートナーズ内,,13,103,1050003,,,,,,,2022-04-21,1,,,,,カノープス,0
871,4010403027528,新規,0,2022-04-21,2022-04-21,さくらのゆめ合同会社,,合同会社,東京都,港区,南青山２丁目２番１５－１３０２号,,13,103,1070062,,,,,,,2022-04-21,1,,,,,サクラノユメ,0
890,4011001147024,新規,0,2022-04-21,2022-04-21,株式会社ＨＰＳ　Ｌｉｎｋ,,株式会社,東京都,渋谷区,道玄坂１丁目２番３号１７階,,13,113,1500043,,,,,,,2022-04-21,1,,,,,エイチピーエスリンク,0
891,4011001147057,新規,0,2022-04-21,2022-04-21,株式会社ｆｉｌｌｉｎｅｒｙ,,株式会社,東京都,目黒区,五本木１丁目１２番１７号,,13,110,1530053,,,,,,,2022-04-21,1,,,,,フィリナリー,0
892,4011001147065,新規,0,2022-04-21,2022-04-21,株式会社レディング,,株式会社,東京都,渋谷区,円山町５番５号,,13,113,1500044,,,,,,,2022-04-21,1,,,,,レディング,0
893,4011001147098,新規,0,2022-04-21,2022-04-21,株式会社ＯＸ　ＧＡＴＥ,,株式会社,東京都,渋谷区,東３丁目１５番９号桑原ビル１Ｆ,,13,113,1500011,,,,,,,2022-04-21,1,,,,,オックスゲート,0
896,4011101098605,新規,0,2022-04-21,2022-04-21,グリーコミュニケーションズ株式会社,,株式会社,東京都,新宿区,西新宿６丁目１８番１号,,13,104,1600023,,,,,,,2022-04-21,1,,,,,グリーコミュニケーションズ,0
900,4011401024186,新規,0,2022-04-21,2022-04-21,株式会社村越薬局,,株式会社,東京都,板橋区,坂下２丁目２６番１９号ダイヤモンドマンション１Ｂ,,13,119,1740043,,,,,,,2022-04-21,1,,,,,ムラコシヤッキョク,0
904,4011403003634,新規,0,2022-04-21,2022-04-21,合同会社オネスティ,,合同会社,東京都,板橋区,板橋３丁目１２番２号,,13,119,1730004,,,,,,,2022-04-21,1,,,,,オネスティ,0
905,4011501027964,新規,0,2022-04-21,2022-04-21,株式会社ＫＣ‐Ｃｏｍｍｕｎｉｃａｔｉｏｎｓ,,株式会社,東京都,北区,中里２丁目１４番８－４０１号シャンボール駒込,,13,117,1140015,,,,,,,2022-04-21,1,,,,,ケーシーコミュニケーションズ,0
910,4011801040618,新規,0,2022-04-21,2022-04-21,株式会社亀山建設,,株式会社,東京都,足立区,鹿浜８丁目２番５－１０６号,,13,121,1230864,,,,,,,2022-04-21,1,,,,,カメヤマケンセツ,0
911,4011801040626,新規,0,2022-04-21,2022-04-21,ｆｏｒｃｅ株式会社,,株式会社,東京都,葛飾区,南水元４丁目１８番１７号メゾンパークサイド１０３,,13,122,1250035,,,,,,,2022-04-21,1,,,,,フォース,0
913,4011803005057,新規,0,2022-04-21,2022-04-21,合同会社ＣＨＩＡＫＩ,,合同会社,東京都,葛飾区,青戸２丁目６番１７号テラス・ブルーリバー１０１,,13,122,1250062,,,,,,,2022-04-21,1,,,,,チアキ,0
915,4012303001653,新規,0,2022-04-21,2022-04-21,Ｋｕｍａｋｕｒａ‐Ｄｅｓｉｇｎ合同会社,,合同会社,東京都,町田市,金森１丁目４２－１,,13,209,1940012,,,,,,,2022-04-21,1,,,,,クマクラデザイン,0
917,4012401039125,新規,0,2022-04-21,2022-04-21,株式会社ＶＯＬＴ,,株式会社,東京都,狛江市,駒井町３丁目３４番６号,,13,219,2010016,,,,,,,2022-04-21,1,,,,,ヴォルト,0
918,4012801021525,新規,0,2022-04-21,2022-04-21,株式会社ＬＩＢＲＥＸ,,株式会社,東京都,立川市,曙町３丁目１２番１６号,,13,202,1900012,,,,,,,2022-04-21,1,,,,,リブレックス,0
928,4020001146233,新規,0,2022-04-21,2022-04-21,株式会社ＮｉＫｉｙ,,株式会社,神奈川県,横浜市中区,羽衣町２丁目７番地４ダイワロイネットホテル２階ｌａｕｎａ,,14,104,2310047,,,,,,,2022-04-21,1,,,,,ニッキー,0
931,4020003021657,新規,0,2022-04-21,2022-04-21,合同会社ＡＹＯＵ,,合同会社,神奈川県,横浜市中区,弁天通３丁目３９ライオンズマンション関内第２－４０９号室,,14,104,2310007,,,,,,,2022-04-21,1,,,,,エーユー,0
932,4020003021665,新規,0,2022-04-21,2022-04-21,合同会社ＴｏｍｍｙＲｉｖｉｎｇ,,合同会社,神奈川県,横浜市鶴見区,東寺尾中台２７番１３号,,14,101,2300017,,,,,,,2022-04-21,1,,,,,トミーリビング,0
948,4030001147783,新規,0,2022-04-21,2022-04-21,株式会社リライフホーム,,株式会社,埼玉県,新座市,石神１丁目９番２７号,,11,230,3520033,,,,,,,2022-04-21,1,,,,,リライフホーム,0
954,4040001123073,新規,0,2022-04-21,2022-04-21,株式会社椿,,株式会社,千葉県,袖ケ浦市,蔵波台５丁目８番地１,,12,229,2990245,,,,,,,2022-04-21,1,,,,,ツバキ,0
955,4040001123131,新規,0,2022-04-21,2022-04-21,株式会社リザルト,,株式会社,千葉県,松戸市,東平賀５７５番地の１エクセレントシティ北小金３１１号,,12,207,2700003,,,,,,,2022-04-21,1,,,,,リザルト,0
965,4050001050985,新規,0,2022-04-21,2022-04-21,東田商事株式会社,,株式会社,茨城県,つくば市,上河原崎６２５－２,,08,220,3002661,,,,,,,2022-04-21,1,,,,,トウダショウジ,0
969,4070001039168,新規,0,2022-04-21,2022-04-21,株式会社根岸商事,,株式会社,群馬県,邑楽郡邑楽町,大字篠塚１２９８‐１,,10,525,3700615,,,,,,,2022-04-21,1,,,,,ネギシショウジ,0
977,4100003006518,新規,0,2022-04-21,2022-04-21,ふう合同会社,,合同会社,長野県,北安曇郡白馬村,大字北城１２１４７番地,,20,485,3999301,,,,,,,2022-04-21,1,,,,,フウ,0
991,4120001245339,新規,0,2022-04-21,2022-04-21,株式会社アノテ,,株式会社,大阪府,大阪市阿倍野区,阿倍野筋１丁目１番４３号あべのハルカス３１階,,27,119,5450052,,,,,,,2022-04-21,1,,,,,アノテ,0
992,4120001245355,新規,0,2022-04-21,2022-04-21,株式会社真商,,株式会社,大阪府,大阪市東淀川区,東中島１丁目５番８号シティステージ新大阪２０１号室,,27,114,5330033,,,,,,,2022-04-21,1,,,,,シンショウ,0
993,4120001245371,新規,0,2022-04-21,2022-04-21,ＤＩＭＰＬＥＳ株式会社,,株式会社,大阪府,大阪市港区,夕凪１丁目１６－２１第４三先ハウス３０１号,,27,107,5520004,,,,,,,2022-04-21,1,,,,,ディンプレス,0
994,4120001245388,新規,0,2022-04-21,2022-04-21,株式会社Ｎｏｂｌｅ　Ｌａｕｒｅｌ,,株式会社,大阪府,大阪市中央区,安堂寺町２丁目２番２４号ニッシンビル３０１,,27,128,5420061,,,,,,,2022-04-21,1,,,,,ノーブルローレル,0
998,4120003021515,新規,0,2022-04-21,2022-04-21,Ｄａｌｉ合同会社,,合同会社,大阪府,大阪市西成区,天神ノ森２丁目１番１９号アマノビルＶＩ１Ｆ,00126370,27,122,5570013,,,,,,,2022-04-21,1,,,,,ダリ,0
1002,4120005022916,新規,0,2022-04-21,2022-04-21,大阪イスラミックセンター,,その他の設立登記法人,大阪府,大阪市西淀川区,中島１丁目１０番２８号,,27,113,5550041,,,,,,,2022-04-21,1,,,,,オオサカイスラミックセンター,0
1014,4120901045879,新規,0,2022-04-21,2022-04-21,今城テクニカル株式会社,,株式会社,大阪府,高槻市,郡家本町５０番１１号,,27,207,5691131,,,,,,,2022-04-21,1,,,,,イマシロテクニカル,0
1018,4130001071610,新規,0,2022-04-21,2022-04-21,株式会社カヴァレッタ,,株式会社,京都府,京都市上京区,今出川通新町東入堀出シ町２８５番地１上野ビル１Ｆ,,26,102,6020931,,,,,,,2022-04-21,1,,,,,カヴァレッタ,0
1019,4130001071619,新規,0,2022-04-21,2022-04-21,株式会社笑愛建装,,株式会社,京都府,八幡市,橋本東浄土ケ原１４番地の２ネオ・フォレスト１０３,,26,210,6148324,,,,,,,2022-04-21,1,,,,,ショウアケンソウ,0
1026,4140001125638,新規,0,2022-04-21,2022-04-21,Ｔｒｉ‐ＴＲＩＣＫ株式会社,,株式会社,兵庫県,神戸市灘区,水道筋５丁目３番２４－１０２号,,28,102,6570831,,,,,,,2022-04-21,1,,,,,トライトリック,0
1027,4140001125720,新規,0,2022-04-21,2022-04-21,株式会社グリーンアイズ,,株式会社,兵庫県,尼崎市,昭和南通５丁目６９－１アミックビル,,28,202,6600882,,,,,,,2022-04-21,1,,,,,グリーンアイズ,0
1028,4140001125729,新規,0,2022-04-21,2022-04-21,株式会社ニノミヤ,,株式会社,兵庫県,神戸市灘区,篠原伯母野山町１丁目１番３－７０８号,,28,102,6570015,,,,,,,2022-04-21,1,,,,,ニノミヤ,0
1042,4180001150954,新規,0,2022-04-21,2022-04-21,株式会社大久保測量調査,,株式会社,愛知県,日進市,栄１丁目５１７番地栄ハピネス３０２,,23,230,4700113,,,,,,,2022-04-21,1,,,,,オオクボソクリョウチョウサ,0
1043,4180001150962,新規,0,2022-04-21,2022-04-21,株式会社ＲＥＷＡＲＤ,,株式会社,愛知県,名古屋市中川区,二女子町４丁目５９番地,,23,110,4540036,,,,,,,2022-04-21,1,,,,,リワード,0
1044,4180001150979,新規,0,2022-04-21,2022-04-21,曽我建築株式会社,,株式会社,愛知県,犬山市,大字上野字石塚４６１番地１エルハイム上野３０２,,23,215,4840077,,,,,,,2022-04-21,1,,,,,ソガケンチク,0
1045,4180001151011,新規,0,2022-04-21,2022-04-21,株式会社エクセルート,,株式会社,愛知県,名古屋市中区,新栄１丁目４６番５号,,23,106,4600007,,,,,,,2022-04-21,1,,,,,エクセルート,0
1046,4180001151028,新規,0,2022-04-21,2022-04-21,株式会社中部運輸サービス,,株式会社,愛知県,大府市,大東町１丁目７２１番地ペルソナ１０３号,,23,223,4740023,,,,,,,2022-04-21,1,,,,,チュウブウンユサービス,0
1050,4180301036135,新規,0,2022-04-21,2022-04-21,株式会社結電商,,株式会社,愛知県,刈谷市,幸町３丁目６番地３,,23,210,4480025,,,,,,,2022-04-21,1,,,,,ユウデンショウ,0
1051,4180301036143,新規,0,2022-04-21,2022-04-21,メイツウネクスト株式会社,,株式会社,愛知県,岡崎市,宇頭町字稲荷６６番地１,,23,202,4440905,,,,,,,2022-04-21,1,,,,,メイツウネクスト,0
1053,4190001029355,新規,0,2022-04-21,2022-04-21,株式会社パレット,,株式会社,三重県,鈴鹿市,南堀江１丁目１１番２３号,,24,207,5130046,,,,,,,2022-04-21,1,,,,,パレット,0
1054,4190003003960,新規,0,2022-04-21,2022-04-21,合同会社アシスト,,合同会社,三重県,松阪市,川井町８３４番地１エルステージ松阪三番館４０４号室,,24,204,5150818,,,,,,,2022-04-21,1,,,,,アシスト,0
1056,4200003005542,新規,0,2022-04-21,2022-04-21,合同会社サンベクトル,,合同会社,岐阜県,岐阜市,岩田西１丁目２１５番地７,,21,201,5013156,,,,,,,2022-04-21,1,,,,,サンベクトル,0
1063,4240001059644,新規,0,2022-04-21,2022-04-21,株式会社Ｓｏｃｃｅｒ　Ｓｔａｔｉｏｎ,,株式会社,広島県,広島市南区,西蟹屋３丁目１０番１２－１２０２号,,34,103,7320804,,,,,,,2022-04-21,1,,,,,サッカーステーション,0
1064,4240001059652,新規,0,2022-04-21,2022-04-21,ＢＯＩＳＥＲ　ＬＵＸＵＲＹ株式会社,,株式会社,広島県,福山市,沼隈町大字草深２０１３番地２１,,34,207,7200311,,,,,,,2022-04-21,1,,,,,ボイサーラグジュアリー,0
1071,4260003003887,新規,0,2022-04-21,2022-04-21,合同会社ｓｐｕｕｎ,,合同会社,岡山県,岡山市北区,野田屋町２丁目２番３号,,33,101,7000815,,,,,,,2022-04-21,1,,,,,スプーン,0
1075,4290001097251,新規,0,2022-04-21,2022-04-21,株式会社フィデスプラス,,株式会社,福岡県,福岡市博多区,博多駅南２丁目３番３２－５１０号,,40,132,8120016,,,,,,,2022-04-21,1,,,,,フィデスプラス,0
1076,4290001097276,新規,0,2022-04-21,2022-04-21,株式会社ＷＯＳ,,株式会社,福岡県,福岡市中央区,今川１丁目２５番２６－１０２号,,40,133,8100054,,,,,,,2022-04-21,1,,,,,ダブリューオーエス,0
1077,4290001097284,新規,0,2022-04-21,2022-04-21,株式会社ＨＡＭＫ　Ａｓｓｅｔ,,株式会社,福岡県,大野城市,下大利１丁目９番１号,,40,219,8160952,,,,,,,2022-04-21,1,,,,,ハンクアセット,0
1078,4290001097292,新規,0,2022-04-21,2022-04-21,株式会社福岡解体建設,,株式会社,福岡県,福岡市東区,原田４丁目７番１－６０４号,,40,131,8120063,,,,,,,2022-04-21,1,,,,,フクオカカイタイケンセツ,0
1090,4320001019029,新規,0,2022-04-21,2022-04-21,株式会社ホウトク,,株式会社,大分県,大分市,大字千歳１９５６番地,,44,201,8700132,,,,,,,2022-04-21,1,,,,,ホウトク,0
1093,4330001029654,新規,0,2022-04-21,2022-04-21,株式会社藤大,,株式会社,熊本県,菊池郡菊陽町,大字原水６０７９番地７,,43,404,8691102,,,,,,,2022-04-21,1,,,,,フジダイ,0
1097,4350001017707,新規,0,2022-04-21,2022-04-21,株式会社大里総業,,株式会社,宮崎県,都城市,志比田町５８２５番地１,,45,202,8850093,,,,,,,2022-04-21,1,,,,,オオサトソウギョウ,0
1103,4360005006639,新規,0,2022-04-21,2022-04-21,ＮＰＯ法人ＰＩＮＫ,,その他の設立登記法人,沖縄県,中頭郡西原町,字幸地３２１－１４,,47,329,9030116,,,,,,,2022-04-21,1,,,,,,0
1123,4430001086487,新規,0,2022-04-21,2022-04-21,株式会社ジョブサポーター北海道,,株式会社,北海道,岩見沢市,日の出台３丁目３番４号,,01,210,0680822,,,,,,,2022-04-21,1,,,,,ジョブサポーターホッカイドウ,0
1126,4430003013836,新規,0,2022-04-21,2022-04-21,合同会社桜城,,合同会社,北海道,札幌市豊平区,月寒東五条１３丁目８番１０号,,01,105,0620055,,,,,,,2022-04-21,1,,,,,サクラギ,0
1131,4450001013679,新規,0,2022-04-21,2022-04-21,株式会社ｐｉｅｔａｓ,,株式会社,北海道,上川郡東川町,西３号北２６番地,,01,458,0711403,,,,,,,2022-04-21,1,,,,,ピエタス,0
1136,4470005006438,新規,0,2022-04-21,2022-04-21,一般社団法人ＲＥ・ＳＯＲＴ,,その他の設立登記法人,香川県,高松市,浜ノ町６０番５５－１０２５号,,37,201,7600011,,,,,,,2022-04-21,1,,,,,リゾート,0
1139,4500003002815,新規,0,2022-04-21,2022-04-21,合同会社ＴＮＫ,,合同会社,愛媛県,松山市,三番町３丁目２番地１６、５０２号,,38,201,7900003,,,,,,,2022-04-21,1,,,,,ティエヌケイ,0
1140,4700150107454,新規,0,2022-04-21,2022-03-22,伏見宇治文化観光研究会,,その他,滋賀県,大津市,苗鹿２丁目２３番１８号,,25,201,5200102,,,,,,,2022-03-22,1,,,,,フシミウジブンカカンコウケンキユウカイ,0
1151,5010001225887,新規,0,2022-04-21,2022-04-21,株式会社ビジョンナビロボティクスジャパン,,株式会社,東京都,中央区,勝どき５丁目１２番４－１２０３号,,13,102,1040054,,,,,,,2022-04-21,1,,,,,ビジョンナビロボティクスジャパン,0
1152,5010001225937,新規,0,2022-04-21,2022-04-21,ジェイコブ・アンド・コー・ジャパン株式会社,,株式会社,東京都,中央区,銀座８丁目５番１号プラザＧ８、１階Ｃ,,13,102,1040061,,,,,,,2022-04-21,1,,,,,ジェイコブアンドコージャパン,0
1153,5010003037521,新規,0,2022-04-21,2022-04-21,合同会社ディボース,,合同会社,東京都,中央区,勝どき１丁目１３番６－２２０７号,,13,102,1040054,,,,,,,2022-04-21,1,,,,,ディボース,0
1171,5010403027527,新規,0,2022-04-21,2022-04-21,合同会社ＫＲアセットマネジメント,,合同会社,東京都,港区,芝浦４丁目２１番１－２４０３号,,13,103,1080023,,,,,,,2022-04-21,1,,,,,ケーアールアセットマネジメント,0
1180,5011001147064,新規,0,2022-04-21,2022-04-21,株式会社ｅｉｇｈｔ,,株式会社,東京都,渋谷区,神宮前６丁目２５番２号７０５号室,,13,113,1500001,,,,,,,2022-04-21,1,,,,,エイト,0
1181,5011001147072,新規,0,2022-04-21,2022-04-21,株式会社ＭＩＳＯＬＡ　ＦＯＯＤＳ,,株式会社,東京都,渋谷区,神宮前６丁目２３番４号桑野ビル２階,,13,113,1500001,,,,,,,2022-04-21,1,,,,,ミソラフーズ,0
1182,5011001147089,新規,0,2022-04-21,2022-04-21,パーキングラボ株式会社,,株式会社,東京都,渋谷区,恵比寿４丁目２０－３恵比寿ガーデンプレイスタワー１８階,,13,113,1500013,,,,,,,2022-04-21,1,,,,,パーキングラボ,0
1183,5011001147097,新規,0,2022-04-21,2022-04-21,株式会社ＯＸ　ＴＡＢＬＥ,,株式会社,東京都,渋谷区,東３丁目１５番９号桑原ビル１Ｆ,,13,113,1500011,,,,,,,2022-04-21,1,,,,,オックステーブル,0
1184,5011001147122,新規,0,2022-04-21,2022-04-21,株式会社Ｒｅｂｏｏｔｕｓ,,株式会社,東京都,渋谷区,恵比寿４丁目２０番３号恵比寿ガーデンプレイスタワー８階,,13,113,1500013,,,,,,,2022-04-21,1,,,,,リブータス,0
1185,5011003014576,新規,0,2022-04-21,2022-04-21,合同会社ビブリオ,,合同会社,東京都,渋谷区,恵比寿西２丁目１４－３ドレッセ代官山１０２,,13,113,1500021,,,,,,,2022-04-21,1,,,,,ビブリオ,0
1189,5011101098620,新規,0,2022-04-21,2022-04-21,株式会社ヒラエス,,株式会社,東京都,新宿区,新宿５丁目４番１号新宿Ｑフラットビル６１１,,13,104,1600022,,,,,,,2022-04-21,1,,,,,ヒラエス,0
1194,5011401024185,新規,0,2022-04-21,2022-04-21,Ｙｚ株式会社,,株式会社,東京都,板橋区,前野町６丁目１０番２－１０５号,,13,119,1740063,,,,,,,2022-04-21,1,,,,,ワイズィー,0
1199,5011501027971,新規,0,2022-04-21,2022-04-21,ＳＪ資本管理株式会社,,株式会社,東京都,荒川区,町屋３丁目２番１号Ｂ１Ｆ,,13,118,1160001,,,,,,,2022-04-21,1,,,,,エスジェーシホンカンリ,0
1202,5011801040617,新規,0,2022-04-21,2022-04-21,株式会社ｂｌｏｏｍ,,株式会社,東京都,足立区,小台１丁目２２番２号尾久橋スカイハイツ６２０,,13,121,1200046,,,,,,,2022-04-21,1,,,,,ブルーム,0
1203,5011801040625,新規,0,2022-04-21,2022-04-21,株式会社スバル,,株式会社,東京都,葛飾区,西水元５丁目１１番２号,,13,122,1250031,,,,,,,2022-04-21,1,,,,,スバル,0
1205,5011803005056,新規,0,2022-04-21,2022-04-21,合同会社林建機サービス,,合同会社,東京都,足立区,本木北町１５番２１号,,13,121,1230857,,,,,,,2022-04-21,1,,,,,ハヤシケンキサービス,0
1214,5012801021524,新規,0,2022-04-21,2022-04-21,株式会社ライフデザイン,,株式会社,東京都,国立市,北２丁目１０番の１,,13,215,1860001,,,,,,,2022-04-21,1,,,,,ライフデザイン,0
1227,5020001146133,新規,0,2022-04-21,2022-04-21,株式会社ＳＡＫＡＥ　ＬＯＧＩＳＴＩＣＳ,,株式会社,神奈川県,横浜市港北区,新横浜１丁目１４番地２０光正第２ビル８Ｆ,,14,109,2220033,,,,,,,2022-04-21,1,,,,,サカエロジスティクス,0
1228,5020001146182,新規,0,2022-04-21,2022-04-21,Ｔｗｏ　Ｆａｃｅ　Ｊａｐａｎ株式会社,,株式会社,神奈川県,横浜市中区,蓬莱町２丁目６番地３ＫＯＹＯ関内ビル４０６,,14,104,2310048,,,,,,,2022-04-21,1,,,,,トゥーフェイスジャパン,0
1229,5020001146199,新規,0,2022-04-21,2022-04-21,株式会社ミヤビプラン,,株式会社,神奈川県,川崎市川崎区,下並木１０７番地１クレストフォルム川崎サウスステージ５０３,,14,131,2100025,,,,,,,2022-04-21,1,,,,,ミヤビプラン,0
1230,5020001146216,新規,0,2022-04-21,2022-04-21,アサヒ株式会社,,株式会社,神奈川県,川崎市川崎区,貝塚２丁目１１番７－３号,,14,131,2100014,,,,,,,2022-04-21,1,,,,,アサヒ,0
1231,5020001146224,新規,0,2022-04-21,2022-04-21,ＬＦ株式会社,,株式会社,神奈川県,川崎市川崎区,京町２丁目１番１号７０１号室,,14,131,2100848,,,,,,,2022-04-21,1,,,,,エルエフ,0
1235,5020003021656,新規,0,2022-04-21,2022-04-21,合同会社彩屋,,合同会社,神奈川県,横浜市神奈川区,羽沢町９４７番地１６宮向団地２街区６号棟３０３号室,,14,102,2210863,,,,,,,2022-04-21,1,,,,,イロドリヤ,0
1236,5020003021664,新規,0,2022-04-21,2022-04-21,サンポーヨシ・エナジー合同会社,,合同会社,神奈川県,横浜市旭区,西川島町７番地８,,14,112,2410012,,,,,,,2022-04-21,1,,,,,サンポーヨシエナジー,0
1252,5040001123080,新規,0,2022-04-21,2022-04-21,ＩＴＫ株式会社,,株式会社,千葉県,白井市,池の上１丁目１７番７号,,12,232,2701425,,,,,,,2022-04-21,1,,,,,アイティケイ,0
1253,5040001123122,新規,0,2022-04-21,2022-04-21,株式会社一羽,,株式会社,千葉県,松戸市,新松戸７丁目５５３番地横須賀ハイツ２０２号,,12,207,2700034,,,,,,,2022-04-21,1,,,,,イチハ,0
1254,5040001123130,新規,0,2022-04-21,2022-04-21,株式会社サイコー千葉,,株式会社,千葉県,市川市,湊新田２丁目９番２１号,,12,203,2720132,,,,,,,2022-04-21,1,,,,,サイコーチバ,0
1255,5040001123139,新規,0,2022-04-21,2022-04-21,株式会社ＯＹＵ,,株式会社,千葉県,市川市,南行徳３丁目３番１８－３０２号,,12,203,2720138,,,,,,,2022-04-21,1,,,,,オーワイユー,0
1258,5050001050968,新規,0,2022-04-21,2022-04-21,株式会社アイクス,,株式会社,茨城県,つくば市,天王台１丁目１番１,,08,220,3050006,,,,,,,2022-04-21,1,,,,,アイクス,0
1259,5050001050984,新規,0,2022-04-21,2022-04-21,株式会社ＦＵＮＡＭＩ,,株式会社,茨城県,結城市,新福寺１丁目１５番地１６,,08,207,3070053,,,,,,,2022-04-21,1,,,,,フナミ,0
1268,5070001039159,新規,0,2022-04-21,2022-04-21,株式会社ＳｏｕｌＵｎｉｔｙ,,株式会社,群馬県,前橋市,粕川町新屋７８５番地３,,10,201,3710206,,,,,,,2022-04-21,1,,,,,ソウルユニティー,0
1269,5070001039167,新規,0,2022-04-21,2022-04-21,ｍＥホールディングス株式会社,,株式会社,群馬県,桐生市,広沢町６丁目２６８番地１,,10,203,3760013,,,,,,,2022-04-21,1,,,,,エムイーホールディングス,0
1270,5080001024894,新規,0,2022-04-21,2022-04-21,株式会社Ｆｅｅｌ　Ｂｅｔｔｅｒ,,株式会社,静岡県,静岡市葵区,松富２丁目１５番１０号,,22,101,4200941,,,,,,,2022-04-21,1,,,,,フィールベター,0
1293,5110005016793,新規,0,2022-04-21,2022-04-21,一般社団法人佐渡あるもんで山,,その他の設立登記法人,新潟県,佐渡市,栗野江７番地,,15,224,9520202,,,,,,,2022-04-21,1,,,,,サドアルモンデヤマ,0
1303,5120001245263,新規,0,2022-04-21,2022-04-21,株式会社ＡＬＬＳＴＡＲＳ,,株式会社,大阪府,大阪市西区,江戸堀２丁目７番２７－９０１号,,27,106,5500002,,,,,,,2022-04-21,1,,,,,オールスターズ,0
1304,5120001245338,新規,0,2022-04-21,2022-04-21,株式会社悠伸,,株式会社,大阪府,大阪市東淀川区,東中島５丁目１－８－１－Ａ,,27,114,5330033,,,,,,,2022-04-21,1,,,,,ユウシン,0
1305,5120001245346,新規,0,2022-04-21,2022-04-21,株式会社Ｒｉｃｈ　Ｆｉｅｌｄ,,株式会社,大阪府,大阪市西成区,潮路１丁目８番３４－３０３号,,27,122,5570052,,,,,,,2022-04-21,1,,,,,リッチフィールド,0
1306,5120001245362,新規,0,2022-04-21,2022-04-21,ＨｉｚｕＴｅｃ株式会社,,株式会社,大阪府,枚方市,長尾元町２丁目１番３５－５０４号,,27,210,5730163,,,,,,,2022-04-21,1,,,,,ヒズテック,0
1309,5120003021530,新規,0,2022-04-21,2022-04-21,ピース合同会社,,合同会社,大阪府,寝屋川市,対馬江東町１０番１９号,,27,215,5720064,,,,,,,2022-04-21,1,,,,,ピース,0
1310,5120003021539,新規,0,2022-04-21,2022-04-21,インサイズ合同会社,,合同会社,大阪府,大阪市北区,梅田１丁目１番３号大阪駅前第３ビル２９階１－１－１号室,,27,127,5300001,,,,,,,2022-04-21,1,,,,,インサイズ,0
1311,5120101065454,新規,0,2022-04-21,2022-04-21,森信株式会社,,株式会社,大阪府,和泉市,弥生町４丁目１４番１１号,,27,219,5940061,,,,,,,2022-04-21,1,,,,,モリシン,0
1316,5130001071527,新規,0,2022-04-21,2022-04-21,株式会社ウィズビー,,株式会社,京都府,京都市下京区,七条御所ノ内中町６４番地１,,26,106,6008862,,,,,,,2022-04-21,1,,,,,ウィズビー,0
1318,5130003007900,新規,0,2022-04-21,2022-04-21,合同会社おはな,,合同会社,京都府,京都市上京区,御前通西裏上の下立売上る北町５７４－８４,,26,102,6028368,,,,,,,2022-04-21,1,,,,,オハナ,0
1327,5140001125629,新規,0,2022-04-21,2022-04-21,株式会社Ｓｈｉｉｎｕｋａ,,株式会社,兵庫県,三田市,波豆川１７４４番地１,,28,219,6691411,,,,,,,2022-04-21,1,,,,,シイヌカ,0
1328,5140001125694,新規,0,2022-04-21,2022-04-21,株式会社プロジェクトフォーナイン,,株式会社,兵庫県,尼崎市,善法寺町１０番３号,,28,202,6610973,,,,,,,2022-04-21,1,,,,,プロジェクトフォーナイン,0
1345,5180001150887,新規,0,2022-04-21,2022-04-21,ＲａｉｎＴｅｃｈ株式会社,,株式会社,愛知県,名古屋市中村区,平池町グローバルゲート１１階ＷｅＷｏｒｋ名古屋,,23,105,4530872,,,,,,,2022-04-21,1,,,,,レインテック,0
1346,5180001150986,新規,0,2022-04-21,2022-04-21,ＰＥＡＣＨ　ＢＬＯＯＭ株式会社,,株式会社,愛知県,名古屋市港区,小賀須３丁目１６０５番地グランマノワール南陽１００１号,,23,111,4550882,,,,,,,2022-04-21,1,,,,,ピーチブルーム,0
1347,5180001150994,新規,0,2022-04-21,2022-04-21,株式会社なごや花壇,,株式会社,愛知県,名古屋市北区,金城町２丁目３５番地の１,,23,103,4620047,,,,,,,2022-04-21,1,,,,,ナゴヤカダン,0
1348,5180001151035,新規,0,2022-04-21,2022-04-21,日昇貿易株式会社,,株式会社,愛知県,名古屋市東区,東桜２丁目１３番１号,,23,102,4610005,,,,,,,2022-04-21,1,,,,,ニッショウボウエキ,0
1353,5180301036142,新規,0,2022-04-21,2022-04-21,ＨＷビルド株式会社,,株式会社,愛知県,岡崎市,真伝１丁目１４番地１スターブルＩＩ２０３,00126358,23,202,4443175,,,,,,,2022-04-21,1,,,,,エイチダブリュービルド,0
1354,5180301036150,新規,0,2022-04-21,2022-04-21,株式会社野遊びヘルスケア,,株式会社,愛知県,豊田市,日南町４丁目３２番地Ｔステージ日南公園スカイデイズ４０５号,,23,211,4710032,,,,,,,2022-04-21,1,,,,,ノアソビヘルスケア,0
1359,5190001029354,新規,0,2022-04-21,2022-04-21,株式会社グレートワン,,株式会社,三重県,津市,下弁財町津興２３９番地４,,24,201,5140805,,,,,,,2022-04-21,1,,,,,クレートワン,0
1365,5210001018866,新規,0,2022-04-21,2022-04-21,株式会社エンバーミングサービス,,株式会社,福井県,福井市,西木田３丁目４番３３号,,18,201,9188004,,,,,,,2022-04-21,1,,,,,エンバーミングサービス,0
1366,5210001018890,新規,0,2022-04-21,2022-04-21,株式会社ＨＭコンサルティング,,株式会社,福井県,大野市,城町８番６号,,18,205,9120087,,,,,,,2022-04-21,1,,,,,エイチエムコンサルティング,0
1370,5230001019334,新規,0,2022-04-21,2022-04-21,株式会社ＧＲ,,株式会社,富山県,滑川市,堀江２９４番地１２,,16,206,9360846,,,,,,,2022-04-21,1,,,,,ジーアール,0
1379,5260001036780,新規,0,2022-04-21,2022-04-21,株式会社谷口自動車,,株式会社,岡山県,倉敷市,東塚３丁目２３－１５,,33,202,7128044,,,,,,,2022-04-21,1,,,,,タニグチジドウシャ,0
1387,5290001097267,新規,0,2022-04-21,2022-04-21,株式会社ＥＬＥＶＩＳＩＯＮ,,株式会社,福岡県,福岡市博多区,中洲５丁目５番９号,,40,132,8100801,,,,,,,2022-04-21,1,,,,,エレビジョン,0
1388,5290001097275,新規,0,2022-04-21,2022-04-21,株式会社豊楽,,株式会社,福岡県,福岡市南区,大橋４丁目１９番４０－１０２号,,40,134,8150033,,,,,,,2022-04-21,1,,,,,ホウラク,0
1391,5290003012422,新規,0,2022-04-21,2022-04-21,合同会社ＭＹＲＩＳＥ,,合同会社,福岡県,福岡市南区,大楠１丁目１１番７号,,40,134,8150082,,,,,,,2022-04-21,1,,,,,ミライズ,0
1399,5300003001828,新規,0,2022-04-21,2022-04-21,合同会社坂下精神分析オフィス,,合同会社,佐賀県,佐賀市,神野東１丁目１番１－１００４号アーサー佐賀駅前ジュエルステージ,,41,201,8400804,,,,,,,2022-04-21,1,,,,,サカシタセイシンブンセキオフィス,0
1402,5330001029653,新規,0,2022-04-21,2022-04-21,株式会社ＨＩＲＯ運輸総合サービス,,株式会社,熊本県,熊本市南区,馬渡１丁目２番２８号グレースフル平成５０１,,43,104,8620968,,,,,,,2022-04-21,1,,,,,ヒロウンユソウゴウサービス,0
1403,5330001029661,新規,0,2022-04-21,2022-04-21,株式会社Ｔ．Ｋ．Ｃ．ｔｅｃｈｎｉｃａｌ,,株式会社,熊本県,熊本市東区,花立５丁目１－２２,,43,102,8620918,,,,,,,2022-04-21,1,,,,,ティーケーシーテクニカル,0
1407,5330005010510,新規,0,2022-04-21,2022-04-21,一般財団法人菊池川流域文化教育振興会,,その他の設立登記法人,熊本県,山鹿市,鹿本町石渕２４番地１,,43,208,8610311,,,,,,,2022-04-21,1,,,,,キクチガワリュウイキブンカキョウイクシンコウカイ,0
1414,5390005008953,新規,0,2022-04-21,2022-04-21,特定非営利活動法人みんクラ,,その他の設立登記法人,山形県,東置賜郡高畠町,大字上平柳２０３７番地の２,,06,381,9992178,,,,,,,2022-04-21,1,,,,,ミンクラ,0
1444,5700150107759,新規,0,2022-04-21,2022-04-11,野田村農林水産物直売所組合,,その他,岩手県,九戸郡野田村,大字野田第３１地割３１－１,,03,503,0288201,,,,,,,2022-04-11,1,,,,,ノダムラノウリンスイサンブツチヨクバイジヨクミアイ,0
1445,5700150107965,新規,0,2022-04-21,2022-04-14,有観客における映像配信ライブの質を向上させる会,,その他,東京都,三鷹市,新川４丁目８－４ボワフルールＢ１０１,,13,204,1810004,,,,,,,2022-04-14,1,,,,,ユウカンキヤクニオケルエイゾウハイシンライブノシツヲコウジヨウサセルカイ,0
1458,6010001225944,新規,0,2022-04-21,2022-04-21,株式会社ゼロプラ,,株式会社,東京都,文京区,後楽２丁目１８番４号,,13,105,1120004,,,,,,,2022-04-21,1,,,,,ゼロプラ,0
1459,6010001225993,新規,0,2022-04-21,2022-04-21,株式会社ＹＭコーポレーション,,株式会社,東京都,中央区,銀座８丁目５番２１号,,13,102,1040061,,,,,,,2022-04-21,1,,,,,ワイエムコーポレーション,0
1460,6010001226050,新規,0,2022-04-21,2022-04-21,株式会社メディカルジャーナル,,株式会社,東京都,千代田区,丸の内２丁目５番１号丸の内二丁目ビル６階,,13,101,1000005,,,,,,,2022-04-21,1,,,,,メディカルジャーナル,0
1463,6010101015147,新規,0,2022-04-21,2022-04-21,株式会社ビクトリー,,株式会社,東京都,八王子市,南町５番１３号八王子ローヤルマンション１００２号,,13,201,1920072,,,,,,,2022-04-21,1,,,,,ビクトリー,0
1470,6010405020917,新規,0,2022-04-21,2022-04-21,一般財団法人ジェネラティブアート振興財団,,その他の設立登記法人,東京都,港区,南青山２丁目１５番５号ＦＡＲＯ青山１階,,13,103,1070062,,,,,,,2022-04-21,1,,,,,ジェネラティブアートシンコウザイダン,0
1472,6010601061005,新規,0,2022-04-21,2022-04-21,Ｋ＆Ｎ株式会社,,株式会社,東京都,墨田区,緑１丁目１４番７－１２０４号,,13,107,1300021,,,,,,,2022-04-21,1,,,,,ケイアンドエヌ,0
1487,6011001147071,新規,0,2022-04-21,2022-04-21,ビューティースタイルズ株式会社,,株式会社,東京都,渋谷区,桜丘町２６番１号,,13,113,1500031,,,,,,,2022-04-21,1,,,,,ビューティースタイルズ,0
1489,6011003014534,新規,0,2022-04-21,2022-04-21,合同会社ｌｅｂｌａｎｃ,,合同会社,東京都,渋谷区,富ヶ谷１丁目３２－２７フォレセーヌ渋谷富ヶ谷１０２,,13,113,1510063,,,,,,,2022-04-21,1,,,,,ルブラン,0
1499,6011601025908,新規,0,2022-04-21,2022-04-21,フォーナックス株式会社,,株式会社,東京都,練馬区,下石神井２丁目３２番８－３１５号,,13,120,1770042,,,,,,,2022-04-21,1,,,,,フォーナックス,0
1501,6011801040624,新規,0,2022-04-21,2022-04-21,達安産業株式会社,,株式会社,東京都,葛飾区,亀有２丁目３１番１０号,,13,122,1250061,,,,,,,2022-04-21,1,,,,,タチアンサンギョウ,0
1502,6011803005055,新規,0,2022-04-21,2022-04-21,ホエール１合同会社,,合同会社,東京都,足立区,千住河原町２１番１４－３０１号,,13,121,1200037,,,,,,,2022-04-21,1,,,,,ホエールワン,0
1503,6012301012956,新規,0,2022-04-21,2022-04-21,株式会社ｂｌａｎｃｊａｐａｎ,,株式会社,東京都,町田市,能ヶ谷６丁目８番１２号１Ｆ,,13,209,1950053,,,,,,,2022-04-21,1,,,,,ブランクジャパン,0
1507,6012401039123,新規,0,2022-04-21,2022-04-21,株式会社ＳｔａｒｔｕｐＳｃａｌｅｕｐ．ｊｐ,,株式会社,東京都,武蔵野市,境南町１丁目２４番４号,,13,203,1800023,,,,,,,2022-04-21,1,,,,,スタートアップスケールアップドットジェイピー,0
1510,6012801021523,新規,0,2022-04-21,2022-04-21,万浩株式会社,,株式会社,東京都,日野市,高幡１００７番地の３クリオ高幡不動駅前８０２,,13,212,1910031,,,,,,,2022-04-21,1,,,,,マヒロ,0
1520,6020001146181,新規,0,2022-04-21,2022-04-21,株式会社メタルテック,,株式会社,神奈川県,横浜市西区,高島２丁目１０番１３号横浜東口ビル８０５号,,14,103,2200011,,,,,,,2022-04-21,1,,,,,メタルテック,0
1521,6020001146215,新規,0,2022-04-21,2022-04-21,ＭＥＥＭＯホールディングス株式会社,,株式会社,神奈川県,川崎市川崎区,駅前本町１１番地２川崎フロンティアビル４階,,14,131,2100007,,,,,,,2022-04-21,1,,,,,ミーモホールディングス,0
1522,6020001146223,新規,0,2022-04-21,2022-04-21,株式会社Ｓ＆ＨＲコンサルティング,,株式会社,神奈川県,横浜市泉区,下和泉４丁目４番１号,,14,116,2450021,,,,,,,2022-04-21,1,,,,,エスアンドエイチアールコンサルティング,0
1523,6020001146231,新規,0,2022-04-21,2022-04-21,株式会社ＲＥＶＯ．,,株式会社,神奈川県,横浜市磯子区,杉田１丁目５番７号ヨコハマＫＹＴビル１Ｆ－Ｃ,,14,107,2350033,,,,,,,2022-04-21,1,,,,,,0
1527,6020003021655,新規,0,2022-04-21,2022-04-21,合同会社桜の木,,合同会社,神奈川県,川崎市幸区,下平間６３番地１０,,14,132,2120053,,,,,,,2022-04-21,1,,,,,サクラノキ,0
1529,6021001075759,新規,0,2022-04-21,2022-04-21,株式会社ナノグラスコーティング,,株式会社,神奈川県,茅ヶ崎市,東海岸北１丁目５番２号サザンコートＩ２階,00126362,14,207,2530053,,,,,,,2022-04-21,1,,,,,ナノグラスコーティング,0
1543,6030003019277,新規,0,2022-04-21,2022-04-21,合同会社ＫＯＳ,,合同会社,埼玉県,戸田市,下前２丁目７番１７－２０３号,,11,224,3350016,,,,,,,2022-04-21,1,,,,,ケイオーエス,0
1544,6030005020836,新規,0,2022-04-21,2022-04-21,一般社団法人ＢＥＬＬ　Ｋｉｄｓ,,その他の設立登記法人,埼玉県,越谷市,南越谷１丁目２０－１２ＭＴビル５Ｆ,,11,222,3430845,,,,,,,2022-04-21,1,,,,,ベルキッズ,0
1547,6040001123088,新規,0,2022-04-21,2022-04-21,株式会社共同総合,,株式会社,千葉県,白井市,冨士６５番地,,12,232,2701432,,,,,,,2022-04-21,1,,,,,キョウドウソウゴウ,0
1548,6040001123096,新規,0,2022-04-21,2022-04-21,シーエンド株式会社,,株式会社,千葉県,成田市,新町８８３番地２１,,12,211,2860031,,,,,,,2022-04-21,1,,,,,シーエンド,0
1549,6040001123138,新規,0,2022-04-21,2022-04-21,株式会社ＹＯＬＯ　ＥＳＴＡＴＥ,,株式会社,千葉県,白井市,白井４３１番地６－１階,,12,232,2701421,,,,,,,2022-04-21,1,,,,,ヨロエステート,0
1555,6070001039166,新規,0,2022-04-21,2022-04-21,あたらしや未来ファーム株式会社,,株式会社,群馬県,太田市,吉沢町１０５８番地５,,10,205,3730019,,,,,,,2022-04-21,1,,,,,アタラシヤミライファーム,0
1575,6120001245320,新規,0,2022-04-21,2022-04-21,株式会社ランドワークス,,株式会社,大阪府,大阪市北区,野崎町６番８号トレックノース梅田ビル３０２,,27,127,5300055,,,,,,,2022-04-21,1,,,,,ランドワークス,0
1576,6120001245337,新規,0,2022-04-21,2022-04-21,株式会社Ｄａｙ　Ｏｎｅｓ　Ｐｒｏｍｏｔｉｏｎ,,株式会社,大阪府,大阪市大正区,南恩加島１丁目５番６号アーバンハイツ１Ｆ,,27,108,5510021,,,,,,,2022-04-21,1,,,,,デイワンズプロモーション,0
1577,6120001245378,新規,0,2022-04-21,2022-04-21,株式会社ミライズ,,株式会社,大阪府,大阪市西区,江戸堀１丁目２３番５号,,27,106,5500002,,,,,,,2022-04-21,1,,,,,ミライズ,0
1581,6120003021513,新規,0,2022-04-21,2022-04-21,合同会社アンドネオ,,合同会社,大阪府,大阪市中央区,博労町１丁目４番１０－１００１号,,27,128,5410059,,,,,,,2022-04-21,1,,,,,アンドネオ,0
1582,6120003021538,新規,0,2022-04-21,2022-04-21,ＫａｒｔＣａｍｐ合同会社,,合同会社,大阪府,大阪市淀川区,西宮原３丁目３番６号ファミールハイツ北大阪５号棟弐番館４０８号室,,27,123,5320004,,,,,,,2022-04-21,1,,,,,カートキャンプ,0
1590,6120101065420,新規,0,2022-04-21,2022-04-21,株式会社ナカムラ,,株式会社,大阪府,貝塚市,名越７６８番地１０,,27,208,5970042,,,,,,,2022-04-21,1,,,,,ナカムラ,0
1591,6120101065453,新規,0,2022-04-21,2022-04-21,株式会社えん,,株式会社,大阪府,松原市,高見の里１丁目２番３０号１０６号室,,27,217,5800021,,,,,,,2022-04-21,1,,,,,エン,0
1592,6120101065461,新規,0,2022-04-21,2022-04-21,株式会社日新,,株式会社,大阪府,貝塚市,鳥羽８９番地７パルズハイム鳥羽２０３号,,27,208,5970084,,,,,,,2022-04-21,1,,,,,ニッシン,0
1598,6122001035783,新規,0,2022-04-21,2022-04-21,志文学館株式会社,,株式会社,大阪府,東大阪市,布市町１丁目１０番３８号,,27,227,5798004,,,,,,,2022-04-21,1,,,,,シブンガッカン,0
1604,6140001125702,新規,0,2022-04-21,2022-04-21,スミテク株式会社,,株式会社,兵庫県,尼崎市,西長洲町２丁目２３番１０－１０２号,,28,202,6600805,,,,,,,2022-04-21,1,,,,,スミテク,0
1606,6140003017600,新規,0,2022-04-21,2022-04-21,ライヒリッチ合同会社,,合同会社,兵庫県,加古川市,別府町新野辺９０番地の３５,,28,210,6750131,,,,,,,2022-04-21,1,,,,,ライヒリッチ,0
1607,6160001024142,新規,0,2022-04-21,2022-04-21,株式会社ＬＯＣＵＳ,,株式会社,滋賀県,近江八幡市,安土町常楽寺３８番地５０,,25,204,5211351,,,,,,,2022-04-21,1,,,,,ロクス,0
1608,6170001017062,新規,0,2022-04-21,2022-04-21,株式会社はぐくみ幸房,,株式会社,和歌山県,有田郡有田川町,大字修理川４５５番地１,,30,366,6430163,,,,,,,2022-04-21,1,,,,,ハグクミコウボウ,0
1613,6180001150993,新規,0,2022-04-21,2022-04-21,株式会社ライフアシスト,,株式会社,愛知県,江南市,慈光堂町南２３５番地,,23,217,4838402,,,,,,,2022-04-21,1,,,,,ライフアシスト,0
1614,6180001151001,新規,0,2022-04-21,2022-04-21,株式会社金融監査コンプライアンス研究所,,株式会社,愛知県,名古屋市東区,橦木町３丁目４３番地の１橦木町パークハウス１１０２号,,23,102,4610014,,,,,,,2022-04-21,1,,,,,キンユウカンサコンプライアンスケンキュウジョ,0
1615,6180001151034,新規,0,2022-04-21,2022-04-21,株式会社とこしば,,株式会社,愛知県,名古屋市港区,善進町４丁目４９番地Ｂ棟,,23,111,4550811,,,,,,,2022-04-21,1,,,,,トコシバ,0
1618,6180003023743,新規,0,2022-04-21,2022-04-21,Ｔｏｒｉｅ　Ｊａｐａｎ合同会社,,合同会社,愛知県,知多郡南知多町,大字内海字小桝９６番地２,,23,445,4703321,,,,,,,2022-04-21,1,,,,,トーリエジャパン,0
1619,6180003023751,新規,0,2022-04-21,2022-04-21,合同会社結糸,,合同会社,愛知県,名古屋市南区,寺部通１丁目２０番地,,23,112,4570072,,,,,,,2022-04-21,1,,,,,イト,0
1624,6180301036133,新規,0,2022-04-21,2022-04-21,株式会社鈴木電工,,株式会社,愛知県,豊橋市,北岩田１丁目６番地１３,,23,201,4400031,,,,,,,2022-04-21,1,,,,,スズキデンコウ,0
1625,6180301036141,新規,0,2022-04-21,2022-04-21,ココロライフ株式会社,,株式会社,愛知県,安城市,赤松町本郷３９番地,,23,212,4460046,,,,,,,2022-04-21,1,,,,,ココロライフ,0
1628,6190001029304,新規,0,2022-04-21,2022-04-21,諸戸林業株式会社,,株式会社,三重県,桑名市,太一丸１８番地,,24,205,5110005,,,,,,,2022-04-21,1,,,,,モロトリンギョウ,0
1629,6190001029353,新規,0,2022-04-21,2022-04-21,株式会社ユイマール,,株式会社,三重県,北牟婁郡紀北町,相賀８２４番地１３,,24,543,5193406,,,,,,,2022-04-21,1,,,,,ユイマール,0
1636,6240003005594,新規,0,2022-04-21,2022-04-21,合同会社Ｗ,,合同会社,広島県,広島市中区,銀山町１１番１－７０１号,,34,101,7300022,,,,,,,2022-04-21,1,,,,,ダブル,0
1660,6330003009339,新規,0,2022-04-21,2022-04-21,オフィスＭＩＹＡＭＯＴＯ合同会社,,合同会社,熊本県,熊本市南区,出仲間２丁目３番２３号,,43,104,8620963,,,,,,,2022-04-21,1,,,,,オフィスミヤモト,0
1661,6340001024669,新規,0,2022-04-21,2022-04-21,株式会社カシラ工業,,株式会社,鹿児島県,薩摩川内市,川永野町６９２２番地,,46,215,8950033,,,,,,,2022-04-21,1,,,,,カシラコウギョウ,0
1664,6340005009451,新規,0,2022-04-21,2022-04-21,特定非営利活動法人奄美ブルー・スカイ,,その他の設立登記法人,鹿児島県,大島郡伊仙町,大字面縄５８９番地１,,46,532,8918114,,,,,,,2022-04-21,1,,,,,アマミブルースカイ,0
1674,6380001032759,新規,0,2022-04-21,2022-04-21,東英ホールディングス株式会社,,株式会社,福島県,石川郡石川町,字梁瀬５１１番地１６,,07,501,9637822,,,,,,,2022-04-21,1,,,,,トウエイホールディングス,0
1681,6400001015868,新規,0,2022-04-21,2022-04-21,株式会社ｒａｇｇａ,,株式会社,岩手県,盛岡市,本宮字小林４５番地８,,03,201,0200866,,,,,,,2022-04-21,1,,,,,ラガ,0
1683,6430001086469,新規,0,2022-04-21,2022-04-21,株式会社海陸運輸興業,,株式会社,北海道,石狩市,新港南１丁目２８番地６,,01,235,0613244,,,,,,,2022-04-21,1,,,,,カイリクウンユコウギョウ,0
1684,6430001086502,新規,0,2022-04-21,2022-04-21,株式会社Ｔ．Ｒ．Ｍ,,株式会社,北海道,札幌市白石区,北郷八条４丁目９番２号,,01,104,0030838,,,,,,,2022-04-21,1,,,,,ティーアールエム,0
1688,6450001013677,新規,0,2022-04-21,2022-04-21,開拓防災株式会社,,株式会社,北海道,旭川市,末広六条５丁目３番２号,,01,204,0718136,,,,,,,2022-04-21,1,,,,,カイタクボウサイ,0
1699,6700150045339,新規,0,2022-04-21,2015-10-09,修善寺ニュータウン温泉管理組合,,その他,静岡県,伊豆市,熊坂１２５６番地の２６,,22,222,4102411,,,,,,,2015-10-09,1,,,,,シユゼンジニユータウンオンセンカンリクミアイ,0
1708,7010001225943,新規,0,2022-04-21,2022-04-21,株式会社コンチネンタル,,株式会社,東京都,中央区,佃３丁目２番７号,,13,102,1040051,,,,,,,2022-04-21,1,,,,,コンチネンタル,0
1709,7010001225976,新規,0,2022-04-21,2022-04-21,株式会社Ｌ．Ｏ．Ｈ,,株式会社,東京都,中央区,銀座７丁目１５番８号タウンハイツ銀座１０３,,13,102,1040061,,,,,,,2022-04-21,1,,,,,,0
1710,7010001226074,新規,0,2022-04-21,2022-04-21,ワディ株式会社,,株式会社,東京都,中央区,日本橋小舟町１４番７号ＳＯＩＬＷＯＲＫ２Ｆ,,13,102,1030024,,,,,,,2022-04-21,1,,,,,ワディ,0
1711,7010001226124,新規,0,2022-04-21,2022-04-21,Ａｇｒｉ　Ｐｏｗｅｒ　Ｓｈａｒｉｎｇ株式会社,,株式会社,東京都,中央区,日本橋箱崎町２０番１号,,13,102,1030015,,,,,,,2022-04-21,1,,,,,アグリパワーシェアリング,0
1724,7010405020916,新規,0,2022-04-21,2022-04-21,一般社団法人ＯｒａｌＸ,,その他の設立登記法人,東京都,港区,北青山３丁目１５番５号１階,,13,103,1070061,,,,,,,2022-04-21,1,,,,,オーラルエックス,0
1732,7010703006204,新規,0,2022-04-21,2022-04-21,Ｗｏｏｈｏｏ合同会社,,合同会社,東京都,品川区,戸越５丁目４－３アズ品川ビル４Ｆ－２６,,13,109,1420041,,,,,,,2022-04-21,1,,,,,ウーフー,0
1739,7010903007324,新規,0,2022-04-21,2022-04-21,合同会社Ｍｏｖｅ　ｔｏ　Ｊａｐａｎ,,合同会社,東京都,世田谷区,上北沢４丁目３３番２１号ヴィラ・ロンド１０９,,13,112,1560057,,,,,,,2022-04-21,1,,,,,ムーブトゥジャパン,0
1748,7011001147062,新規,0,2022-04-21,2022-04-21,ＳＴＥＰ準備株式会社,,株式会社,東京都,渋谷区,道玄坂１丁目２１番１号,,13,113,1500043,,,,,,,2022-04-21,1,,,,,ステップジュンビ,0
1749,7011001147087,新規,0,2022-04-21,2022-04-21,株式会社Ａｌｌ　Ａｂｏｕｔ　Ｂｅａｕｔｙ,,株式会社,東京都,目黒区,中目黒３丁目６番１号千陽アポロンビル４Ｆ,,13,110,1530061,,,,,,,2022-04-21,1,,,,,オールアバウトビューティー,0
1751,7011003014459,新規,0,2022-04-21,2022-04-21,合同会社Ｔｏｋｙｏ１００,,合同会社,東京都,目黒区,祐天寺２丁目１４－１７ジョイコート祐天寺１０２,,13,110,1530052,,,,,,,2022-04-21,1,,,,,トウキョウヒャク,0
1752,7011003014574,新規,0,2022-04-21,2022-04-21,合同会社テクノ角田,,合同会社,東京都,渋谷区,神宮前６丁目２３番４号桑野ビル２階,,13,113,1500001,,,,,,,2022-04-21,1,,,,,テクノツノダ,0
1753,7011003014582,新規,0,2022-04-21,2022-04-21,１８合同会社,,合同会社,東京都,渋谷区,代々木１丁目５８番７号,,13,113,1510053,,,,,,,2022-04-21,1,,,,,イッパチ,0
1756,7011101098610,新規,0,2022-04-21,2022-04-21,篠原製作所株式会社,,株式会社,東京都,新宿区,北新宿１丁目１２番１１号,,13,104,1690074,,,,,,,2022-04-21,1,,,,,シノハラセイサクショ,0
1769,7011801040623,新規,0,2022-04-21,2022-04-21,株式会社ファインスタイル,,株式会社,東京都,葛飾区,新小岩２丁目１番１－９０１号,,13,122,1240024,,,,,,,2022-04-21,1,,,,,ファインスタイル,0
1770,7011801040631,新規,0,2022-04-21,2022-04-21,株式会社暁天,,株式会社,東京都,葛飾区,東新小岩１丁目１０番４号,,13,122,1240023,,,,,,,2022-04-21,1,,,,,ギョウテン,0
1772,7012403005329,新規,0,2022-04-21,2022-04-21,合同会社美庭,,合同会社,東京都,稲城市,向陽台４丁目４番地の２ビュープラザ向陽台２－９１２,,13,225,2060803,,,,,,,2022-04-21,1,,,,,ビテイ,0
1773,7012701017034,新規,0,2022-04-21,2022-04-21,株式会社ＳｋｉｌｌＦｕｌ,,株式会社,東京都,東久留米市,学園町１丁目８番２９号,,13,222,2030021,,,,,,,2022-04-21,1,,,,,スキルフル,0
1778,7020001146206,新規,0,2022-04-21,2022-04-21,株式会社エムワイメタル,,株式会社,神奈川県,川崎市川崎区,桜本１丁目９番１３－２号,,14,131,2100833,,,,,,,2022-04-21,1,,,,,エムワイメタル,0
1779,7020001146230,新規,0,2022-04-21,2022-04-21,Ａｇｅｎｔ　Ｆｏｒｃｅ株式会社,,株式会社,神奈川県,横浜市港北区,新横浜３丁目１７番地１２－２Ｆ,,14,109,2220033,,,,,,,2022-04-21,1,,,,,エージェントフォース,0
1780,7020001146239,新規,0,2022-04-21,2022-04-21,株式会社Ｆ４,,株式会社,神奈川県,川崎市中原区,中丸子１３番地７リエトコート武蔵小杉イーストタワー２６１１,,14,133,2110012,,,,,,,2022-04-21,1,,,,,エフフォー,0
1783,7020003021662,新規,0,2022-04-21,2022-04-21,合同会社ｃｏｓｔａ,,合同会社,神奈川県,横浜市鶴見区,尻手２丁目６番２０号,,14,101,2300003,,,,,,,2022-04-21,1,,,,,コスタ,0
1784,7020003021670,新規,0,2022-04-21,2022-04-21,合同会社オールプランニング,,合同会社,神奈川県,横浜市保土ケ谷区,藤塚町１０番４０－３号,,14,106,2400031,,,,,,,2022-04-21,1,,,,,オールプランニング,0
1799,7030001147649,新規,0,2022-04-21,2022-04-21,株式会社Ｉインターナショナル,,株式会社,埼玉県,入間郡毛呂山町,大字小田谷１２８番地５ハイツ小田谷１号,,11,326,3500446,,,,,,,2022-04-21,1,,,,,アイインターナショナル,0
1804,7030003019251,新規,0,2022-04-21,2022-04-21,合同会社Ｃａｌｏｒ,,合同会社,埼玉県,上尾市,小泉９丁目１１番地１,,11,219,3620063,,,,,,,2022-04-21,1,,,,,カローア,0
1805,7030003019268,新規,0,2022-04-21,2022-04-21,合同会社Ｍｏａｎａ,,合同会社,埼玉県,さいたま市見沼区,東大宮４丁目７３－３－１０４,,11,104,3370051,,,,,,,2022-04-21,1,,,,,,0
1806,7030003019292,新規,0,2022-04-21,2022-04-21,合同会社Ｒｕｓｈ,,合同会社,埼玉県,川越市,大塚新町４０番地１３（メゾン・ド・ルイＢ１０１号室）,,11,201,3501178,,,,,,,2022-04-21,1,,,,,ラッシュ,0
1810,7040001123087,新規,0,2022-04-21,2022-04-21,株式会社江口住設,,株式会社,千葉県,船橋市,習志野２丁目１２番２７号パルティール藤壱番館２０１号,,12,204,2740071,,,,,,,2022-04-21,1,,,,,エグチジュウセツ,0
1811,7040001123095,新規,0,2022-04-21,2022-04-21,株式会社ベクトル,,株式会社,千葉県,千葉市花見川区,浪花町９０７－９３,,12,102,2620024,,,,,,,2022-04-21,1,,,,,ベクトル,0
1812,7040001123129,新規,0,2022-04-21,2022-04-21,株式会社ドゥベスト船橋,,株式会社,千葉県,市川市,湊新田２丁目９番２１号,,12,203,2720132,,,,,,,2022-04-21,1,,,,,ドゥベストフナバシ,0
1813,7040001123137,新規,0,2022-04-21,2022-04-21,瀚誠株式会社,,株式会社,千葉県,八千代市,高津字内山８３２番地３９高津団地６街区９－４０７,,12,221,2760036,,,,,,,2022-04-21,1,,,,,カンセイ,0
1819,7050001050966,新規,0,2022-04-21,2022-04-21,Ｄ＆Ｐ株式会社,,株式会社,茨城県,つくば市,赤塚３５２番地１,,08,220,3050062,,,,,,,2022-04-21,1,,,,,ディーアンドピー,0
1820,7050001050974,新規,0,2022-04-21,2022-04-21,株式会社ＢＵＮＫＡ　ＢＵＤＤＹ,,株式会社,茨城県,水戸市,松本町１４－１２、２３ｒｄＳｔｕｄｉｏ３Ｆ,,08,201,3100052,,,,,,,2022-04-21,1,,,,,ブンカバディ,0
1833,7080001024892,新規,0,2022-04-21,2022-04-21,株式会社ＮＰＬＵＳ,,株式会社,静岡県,静岡市清水区,鳥坂５５３番地の１,,22,103,4240067,,,,,,,2022-04-21,1,,,,,エヌプラス,0
1838,7100001035276,新規,0,2022-04-21,2022-04-21,株式会社ＴＭ　Ｌａｂｏ,,株式会社,長野県,安曇野市,明科七貴６０３３番地１１,,20,220,3997104,,,,,,,2022-04-21,1,,,,,ティーエムラボ,0
1846,7110003004740,新規,0,2022-04-21,2022-04-21,合同会社ＮＡＮＡＲＩ,,合同会社,新潟県,長岡市,笹崎１丁目４番地２８笹崎ファーストビル２階,,15,202,9400833,,,,,,,2022-04-21,1,,,,,ナナリ,0
1867,7120001245237,新規,0,2022-04-21,2022-04-21,株式会社ＴＫ１,,株式会社,大阪府,大阪市生野区,勝山北１丁目５番地６,,27,116,5440033,,,,,,,2022-04-21,1,,,,,ティーケイワン,0
1868,7120001245328,新規,0,2022-04-21,2022-04-21,株式会社大寛,,株式会社,大阪府,大阪市天王寺区,東高津町９番２３号,,27,109,5430021,,,,,,,2022-04-21,1,,,,,タイカン,0
1869,7120001245377,新規,0,2022-04-21,2022-04-21,株式会社りく,,株式会社,大阪府,大阪市北区,神山町７番９号,,27,127,5300026,,,,,,,2022-04-21,1,,,,,リク,0
1870,7120001245402,新規,0,2022-04-21,2022-04-21,株式会社ＤｏＦＬ　ＧＲＯＵＰ,,株式会社,大阪府,大阪市東住吉区,駒川４丁目５番７号,,27,121,5460043,,,,,,,2022-04-21,1,,,,,ドッフグループ,0
1872,7120003021520,新規,0,2022-04-21,2022-04-21,合同会社ネクストシェア,,合同会社,大阪府,大阪市北区,曾根崎新地１丁目３番４号,,27,127,5300002,,,,,,,2022-04-21,1,,,,,ネクストシェア,0
1873,7120101065452,新規,0,2022-04-21,2022-04-21,ＴＯＡ建設株式会社,,株式会社,大阪府,堺市中区,小阪４５２番地３３,,27,142,5998276,,,,,,,2022-04-21,1,,,,,トーアケンセツ,0
1880,7120903004120,新規,0,2022-04-21,2022-04-21,合同会社ノイズコル,,合同会社,大阪府,吹田市,江坂町１丁目１２番４７‐４０５号,,27,205,5640063,,,,,,,2022-04-21,1,,,,,ノイズコル,0
1882,7120905006313,新規,0,2022-04-21,2022-04-21,一般社団法人ポラリッシュ,,その他の設立登記法人,大阪府,箕面市,西小路２丁目１３番３５－３０２号,,27,220,5620003,,,,,,,2022-04-21,1,,,,,ポラリッシュ,0
1901,7140001125494,新規,0,2022-04-21,2022-04-21,株式会社中の坊ホールディングス,,株式会社,兵庫県,神戸市北区,有馬町８０８番地,,28,109,6511401,,,,,,,2022-04-21,1,,,,,ナカノボウホールディングス,0
1902,7140001125684,新規,0,2022-04-21,2022-04-21,株式会社Ｎｉｔｗ,,株式会社,兵庫県,尼崎市,南塚口町２丁目１７番１号,,28,202,6610012,,,,,,,2022-04-21,1,,,,,ニットゥ,0
1903,7140001125734,新規,0,2022-04-21,2022-04-21,株式会社ガーネット,,株式会社,兵庫県,尼崎市,西難波町５丁目１番７号２０２,,28,202,6600893,,,,,,,2022-04-21,1,,,,,ガーネット,0
1907,7140003017599,新規,0,2022-04-21,2022-04-21,ＡＶＥＮＩＲ合同会社,,合同会社,兵庫県,神戸市中央区,栄町通３丁目６番２７－２４０３号,,28,110,6500023,,,,,,,2022-04-21,1,,,,,アブニール,0
1912,7160001024141,新規,0,2022-04-21,2022-04-21,庭一設計企画株式会社,,株式会社,滋賀県,近江八幡市,篠原町２丁目７－１４,,25,204,5230044,,,,,,,2022-04-21,1,,,,,ニワイチセッケイキカク,0
1915,7160005011078,新規,0,2022-04-21,2022-04-21,一般社団法人インフィニティふふ,,その他の設立登記法人,滋賀県,草津市,野路東４丁目１４番１２号,,25,206,5250058,,,,,,,2022-04-21,1,,,,,インフィニティフフ,0
1925,7180001150976,新規,0,2022-04-21,2022-04-21,株式会社ソブラニエ,,株式会社,愛知県,清須市,春日屋敷４３番地,,23,233,4520961,,,,,,,2022-04-21,1,,,,,ソブラニエ,0
1926,7180001150984,新規,0,2022-04-21,2022-04-21,株式会社ＹＲ‐Ｌｉｆｅ,,株式会社,愛知県,名古屋市千種区,園山町２丁目１３番地の１０,,23,101,4640812,,,,,,,2022-04-21,1,,,,,ワイアールライフ,0
1927,7180001150992,新規,0,2022-04-21,2022-04-21,株式会社土地開発ｊｐ,,株式会社,愛知県,名古屋市南区,内田橋１丁目６番２号,,23,112,4570862,,,,,,,2022-04-21,1,,,,,トチカイハツジャパン,0
1928,7180001151000,新規,0,2022-04-21,2022-04-21,株式会社Ｒｉｎｇ,,株式会社,愛知県,丹羽郡大口町,中小口２丁目１４８番地,,23,361,4800142,,,,,,,2022-04-21,1,,,,,リング,0
1929,7180001151017,新規,0,2022-04-21,2022-04-21,ＢＡＧホールディングス株式会社,,株式会社,愛知県,名古屋市中区,丸の内３丁目７番２６号ＡＣＡビル５Ｆ,,23,106,4600002,,,,,,,2022-04-21,1,,,,,バグホールディングス,0
1935,7180301036140,新規,0,2022-04-21,2022-04-21,株式会社碧海エスワイケイホールディングス,,株式会社,愛知県,西尾市,吉良町吉田伝蔵荒子１４番地,,23,213,4440516,,,,,,,2022-04-21,1,,,,,ヘッカイエスワイケイホールディングス,0
1936,7180301036149,新規,0,2022-04-21,2022-04-21,株式会社ＵｎＦｉｋａ,,株式会社,愛知県,岡崎市,羽根町字小豆坂３６－２,,23,202,4440814,,,,,,,2022-04-21,1,,,,,アンフィーカ,0
1938,7190001029344,新規,0,2022-04-21,2022-04-21,ＳＴコネクトロジスティクス株式会社,,株式会社,三重県,四日市市,霞２丁目１番地の１,,24,202,5100011,,,,,,,2022-04-21,1,,,,,エスティコネクトロジスティクス,0
1939,7190001029352,新規,0,2022-04-21,2022-04-21,株式会社伊勢ほりい牧場,,株式会社,三重県,伊勢市,小俣町明野３７４番地,,24,203,5190501,,,,,,,2022-04-21,1,,,,,イセホリイボクジョウ,0
1944,7220001024812,新規,0,2022-04-21,2022-04-21,株式会社ゆうや基礎工事,,株式会社,石川県,金沢市,野田町ワ２０１番地,,17,201,9218104,,,,,,,2022-04-21,1,,,,,ユウヤキソコウジ,0
1951,7240003005593,新規,0,2022-04-21,2022-04-21,エモーションプロダクト合同会社,,合同会社,広島県,広島市中区,富士見町１６番１４－５０３号,,34,101,7300043,,,,,,,2022-04-21,1,,,,,エモーションプロダクト,0
1956,7260001036779,新規,0,2022-04-21,2022-04-21,株式会社ライズ警備保障,,株式会社,岡山県,岡山市南区,妹尾２６８５番地４,,33,104,7010205,,,,,,,2022-04-21,1,,,,,,0
1961,7290001097265,新規,0,2022-04-21,2022-04-21,株式会社ｅａｔ＆ｇｒｏｗ,,株式会社,福岡県,うきは市,吉井町１１２７番地５,,40,225,8391321,,,,,,,2022-04-21,1,,,,,イートアンドグロー,0
1962,7290003012420,新規,0,2022-04-21,2022-04-21,合同会社山下ボーリング工業,,合同会社,福岡県,久留米市,山本町耳納１６８３番地２,,40,203,8390826,,,,,,,2022-04-21,1,,,,,ヤマシタボーリングコウギョウ,0
1965,7290801000031,新規,0,2022-04-21,2022-04-21,朝日基礎株式会社,,株式会社,福岡県,北九州市小倉北区,砂津１丁目６番２５－１２０２号,,40,106,8020014,,,,,,,2022-04-21,1,,,,,アサヒキソ,0
1967,7290803004105,新規,0,2022-04-21,2022-04-21,博合同会社,,合同会社,福岡県,北九州市小倉北区,赤坂２丁目１６番４号,,40,106,8020032,,,,,,,2022-04-21,1,,,,,ヒロ,0
1970,7330001029651,新規,0,2022-04-21,2022-04-21,株式会社ＲＥＤＳＵＮ,,株式会社,熊本県,八代市,郡築一番町２９番地３,,43,202,8660024,,,,,,,2022-04-21,1,,,,,レッドサン,0
1973,7330003009338,新規,0,2022-04-21,2022-04-21,合同会社ナカザキ食品,,合同会社,熊本県,上益城郡嘉島町,大字犬渕３７１番地,,43,442,8613109,,,,,,,2022-04-21,1,,,,,ナカザキショクヒン,0
1974,7340001024668,新規,0,2022-04-21,2022-04-21,株式会社岩切塗装,,株式会社,鹿児島県,薩摩川内市,田崎町５７１番地１,,46,215,8950006,,,,,,,2022-04-21,1,,,,,イワキリトソウ,0
1975,7340001024676,新規,0,2022-04-21,2022-04-21,株式会社ＭＴ　ＦＵＪＩ,,株式会社,鹿児島県,霧島市,国分野口西３番２６－３０２号エミネンス見次,,46,218,8994343,,,,,,,2022-04-21,1,,,,,マウントフジ,0
1976,7340005009450,新規,0,2022-04-21,2022-04-21,特定非営利活動法人メッセンジャーナースかごしま,,その他の設立登記法人,鹿児島県,鹿児島市,東郡元町８番１７―８０５号,,46,201,8900068,,,,,,,2022-04-21,1,,,,,メッセンジャーナースカゴシマ,0
1980,7360003011943,新規,0,2022-04-21,2022-04-21,合同会社アスター,,合同会社,沖縄県,那覇市,首里山川町３丁目５番地,,47,201,9030825,,,,,,,2022-04-21,1,,,,,アスター,0
1982,7370001048474,新規,0,2022-04-21,2022-04-21,株式会社奥州興業,,株式会社,宮城県,仙台市太白区,袋原字堰場６８番地の６,,04,104,9811102,,,,,,,2022-04-21,1,,,,,オウシュウコウギョウ,0
1983,7370001048490,新規,0,2022-04-21,2022-04-21,株式会社サイセット,,株式会社,宮城県,仙台市泉区,松森字明神３０番地の５０ＭＳＫコートＩＩー２０３,00126363,04,105,9813111,,,,,,,2022-04-21,1,,,,,サイセット,0
1984,7370003005663,新規,0,2022-04-21,2022-04-21,合同会社Ｌｅｇｘ,,合同会社,宮城県,仙台市太白区,四郎丸字吹上３番地の３グランデ吹上Ｂ,,04,104,9811101,,,,,,,2022-04-21,1,,,,,レグス,0
1996,7430001086468,新規,0,2022-04-21,2022-04-21,株式会社ＷｅｅＬ,,株式会社,北海道,札幌市厚別区,厚別東三条３丁目６番５号,,01,108,0040003,,,,,,,2022-04-21,1,,,,,ウィール,0
2005,7500001024172,新規,0,2022-04-21,2022-04-21,株式会社華会国際貿易サービス,,株式会社,愛媛県,松山市,桑原７丁目６番３４号,,38,201,7900911,,,,,,,2022-04-21,1,,,,,ハナカイコクサイボウエキサービス,0
2006,7500005008485,新規,0,2022-04-21,2022-04-21,社会保険労務士法人えんむすび,,その他の設立登記法人,愛媛県,松山市,北梅本町２７７５番地,,38,201,7910242,,,,,,,2022-04-21,1,,,,,エンムスビ,0
2015,8010001225942,新規,0,2022-04-21,2022-04-21,株式会社インサイトポリッシュ,,株式会社,東京都,中央区,日本橋横山町９番７－７０４号,,13,102,1030003,,,,,,,2022-04-21,1,,,,,インサイトポリッシュ,0
2016,8010001226024,新規,0,2022-04-21,2022-04-21,Ｙ＆Ｆ商事株式会社,,株式会社,東京都,中央区,晴海３丁目１３－２－２２０１室,,13,102,1040053,,,,,,,2022-04-21,1,,,,,ワイアンドエフショウジ,0
2017,8010001226073,新規,0,2022-04-21,2022-04-21,ＮＦＴ　Ｘ　ＳＫＹ株式会社,,株式会社,東京都,千代田区,神田佐久間河岸５５号地朝風染常ビル２Ｆ２０５,,13,101,1010026,,,,,,,2022-04-21,1,,,,,エヌエフティエックススカイ,0
2026,8010401166885,新規,0,2022-04-21,2022-04-21,ＢｏｘＢｒｏｗｎｉｅ．ｃｏｍ株式会社,,株式会社,東京都,港区,元麻布３丁目１番６号,,13,103,1060046,,,,,,,2022-04-21,1,,,,,ボックスブラウニードットコム,0
2035,8010701042555,新規,0,2022-04-21,2022-04-21,株式会社Ａｌｉｖｅ,,株式会社,東京都,品川区,北品川６丁目４番９－４０８号,,13,109,1410001,,,,,,,2022-04-21,1,,,,,アライブ,0
2036,8010703006203,新規,0,2022-04-21,2022-04-21,合同会社ＧＭＧ,,合同会社,東京都,品川区,東五反田１丁目６番３号,,13,109,1410022,,,,,,,2022-04-21,1,,,,,ジーエムジー,0
2037,8010901050738,新規,0,2022-04-21,2022-04-21,株式会社Ｆａｂｕｌｏｕｓ,,株式会社,東京都,世田谷区,玉川１丁目１５－１二子玉川ライズ２２０５,,13,112,1580094,,,,,,,2022-04-21,1,,,,,ファビュラス,0
2045,8011001147061,新規,0,2022-04-21,2022-04-21,サステナブル・デザイン株式会社,,株式会社,東京都,渋谷区,道玄坂１丁目２１番１号,,13,113,1500043,,,,,,,2022-04-21,1,,,,,サステナブルデザイン,0
2046,8011001147086,新規,0,2022-04-21,2022-04-21,株式会社ジナーダ,,株式会社,東京都,渋谷区,神宮前２丁目４番７号ＦＲＥＳＣＡ神宮前３０２,,13,113,1500001,,,,,,,2022-04-21,1,,,,,ジナーダ,0
2047,8011001147103,新規,0,2022-04-21,2022-04-21,株式会社足柄企画,,株式会社,東京都,目黒区,駒場３丁目３番３号,,13,110,1530041,,,,,,,2022-04-21,1,,,,,アシガラキカク,0
2048,8011003014540,新規,0,2022-04-21,2022-04-21,ＷＥＳＳＡＰ　ＴＯＫＹＯ合同会社,,合同会社,東京都,渋谷区,道玄坂１丁目１０番８号渋谷道玄坂東急ビル２Ｆ－Ｃ,,13,113,1500043,,,,,,,2022-04-21,1,,,,,ウィザップトウキョウ,0
2049,8011003014573,新規,0,2022-04-21,2022-04-21,合同会社アンヴァル,,合同会社,東京都,渋谷区,神宮前６丁目２３番４号２階,,13,113,1500001,,,,,,,2022-04-21,1,,,,,アンヴァル,0
2052,8011203003797,新規,0,2022-04-21,2022-04-21,Ｉ’ｓｗｏｒｌｄ合同会社,,合同会社,東京都,中野区,沼袋３丁目７番１４号アーバンコート沼袋Ｂ２０３,,13,114,1650025,,,,,,,2022-04-21,1,,,,,アイズワールド,0
2056,8011501027960,新規,0,2022-04-21,2022-04-21,株式会社アイリペ,,株式会社,東京都,北区,中十条４丁目４番１号,,13,117,1140032,,,,,,,2022-04-21,1,,,,,アイリペ,0
2059,8011801040622,新規,0,2022-04-21,2022-04-21,株式会社コード・バンク,,株式会社,東京都,葛飾区,青戸７丁目３２番３ー１６０１号,,13,122,1250062,,,,,,,2022-04-21,1,,,,,コードバンク,0
2060,8011801040630,新規,0,2022-04-21,2022-04-21,株式会社三九商事,,株式会社,東京都,足立区,竹の塚１丁目３６番７－１１０１号,00126368,13,121,1210813,,,,,,,2022-04-21,1,,,,,サンキュウショウジ,0
2063,8012301012962,新規,0,2022-04-21,2022-04-21,株式会社ＪＦＩＲＳＴ,,株式会社,東京都,町田市,南大谷２０６番地１１号,,13,209,1940031,,,,,,,2022-04-21,1,,,,,ジェイファースト,0
2074,8013305003337,新規,0,2022-04-21,2022-04-21,ＲＯＬＥ人事パートナーズ社会保険労務士法人,,その他の設立登記法人,東京都,豊島区,東池袋３丁目１５番５－３０６号,,13,116,1700013,,,,,,,2022-04-21,1,,,,,ロールジンジパートナーズ,0
2084,8020001146221,新規,0,2022-04-21,2022-04-21,株式会社アールズ,,株式会社,神奈川県,横浜市港南区,港南２丁目２番１３－３０３号,,14,111,2330003,,,,,,,2022-04-21,1,,,,,アールズ,0
2089,8020003021653,新規,0,2022-04-21,2022-04-21,ＳＥＫＩＹＡ合同会社,,合同会社,神奈川県,川崎市幸区,新川崎５番１－２００１号,,14,132,2120032,,,,,,,2022-04-21,1,,,,,セキヤ,0
2107,8040001123078,新規,0,2022-04-21,2022-04-21,株式会社嶋根総業,,株式会社,千葉県,松戸市,栄町５丁目３６９番地の２,,12,207,2710062,,,,,,,2022-04-21,1,,,,,シマネソウギョウ,0
2108,8040001123103,新規,0,2022-04-21,2022-04-21,株式会社芳禮,,株式会社,千葉県,習志野市,秋津３丁目３番１１－２号,,12,216,2750025,,,,,,,2022-04-21,1,,,,,ホウライ,0
2111,8040005021575,新規,0,2022-04-21,2022-04-21,一般社団法人敬心会,,その他の設立登記法人,千葉県,千葉市中央区,矢作町４０９番地１２,,12,101,2600851,,,,,,,2022-04-21,1,,,,,ケイシンカイ,0
2113,8050001050973,新規,0,2022-04-21,2022-04-21,株式会社ごはん屋,,株式会社,茨城県,水戸市,天王町４－３０加納合名天王町ビル１Ａ,,08,201,3100025,,,,,,,2022-04-21,1,,,,,ゴハンヤ,0
2114,8050001050981,新規,0,2022-04-21,2022-04-21,株式会社五十六,,株式会社,茨城県,東茨城郡大洗町,五反田９０番地エクセルコート１０１号,,08,309,3111306,,,,,,,2022-04-21,1,,,,,イソロク,0
2120,8070001039164,新規,0,2022-04-21,2022-04-21,株式会社１３１２５,,株式会社,群馬県,太田市,龍舞町２８０７番地１,,10,205,3730806,,,,,,,2022-04-21,1,,,,,イチサンイチニゴ,0
2123,8080401025762,新規,0,2022-04-21,2022-04-21,株式会社カインドワーク,,株式会社,静岡県,磐田市,上万能１５８番地４,,22,211,4380817,,,,,,,2022-04-21,1,,,,,カインドワーク,0
2128,8100005012865,新規,0,2022-04-21,2022-04-21,医療法人美隆会,,その他の設立登記法人,長野県,長野市,松代町松代１７３番地,,20,201,3811231,,,,,,,2022-04-21,1,,,,,ビリュウカイ,0
2146,8120001245244,新規,0,2022-04-21,2022-04-21,株式会社ポジ,,株式会社,大阪府,大阪市中央区,上汐２丁目３番６号,,27,128,5420064,,,,,,,2022-04-21,1,,,,,ポジ,0
2147,8120001245327,新規,0,2022-04-21,2022-04-21,株式会社ＤＱセールスアンドプランニング,,株式会社,大阪府,大阪市中央区,南久宝寺町３丁目２－７－９Ｆ,,27,128,5410058,,,,,,,2022-04-21,1,,,,,ディーキューセールスアンドプランニング,0
2148,8120001245376,新規,0,2022-04-21,2022-04-21,株式会社ｅｅｋａｏ,,株式会社,大阪府,大阪市淀川区,西中島７丁目４番１７号,,27,123,5320011,,,,,,,2022-04-21,1,,,,,エカオ,0
2149,8120001245392,新規,0,2022-04-21,2022-04-21,ＪＳ暁牛株式会社,,株式会社,大阪府,大阪市西成区,北津守２丁目５番５－１号,,27,122,5570061,,,,,,,2022-04-21,1,,,,,ジェイエスギョウギュウ,0
2150,8120001245401,新規,0,2022-04-21,2022-04-21,ＭＡＲＳ　Ｇｌｏｂａｌ　Ｓｅｒｖｉｃｅｓ株式会社,,株式会社,大阪府,大阪市阿倍野区,北畠１丁目２２－５－３０２,,27,119,5450035,,,,,,,2022-04-21,1,,,,,マーズグローバルサービシーズ,0
2154,8120003021453,新規,0,2022-04-21,2022-04-21,Ｓ．Ｊ　Ｃｏｎｓｕｌｔｉｎｇ合同会社,,合同会社,大阪府,大阪市住吉区,住吉２丁目５番１２号グルパ住吉２号館３０Ｄ号,,27,120,5580045,,,,,,,2022-04-21,1,,,,,エスジェイコンサルティング,0
2155,8120003021503,新規,0,2022-04-21,2022-04-21,Ａｄｖａｎｃｅ合同会社,,合同会社,大阪府,大阪市福島区,福島６丁目１１番１３－２１６号,,27,103,5530003,,,,,,,2022-04-21,1,,,,,アドバンス,0
2156,8120003021536,新規,0,2022-04-21,2022-04-21,合同会社ＺＥＲＯＮＥ,,合同会社,大阪府,大阪市北区,池田町１７－１７ハイツ十七３０３,,27,127,5300033,,,,,,,2022-04-21,1,,,,,ゼロワン,0
2157,8120003021544,新規,0,2022-04-21,2022-04-21,合同会社Ｆｉｘ,,合同会社,大阪府,大阪市浪速区,難波中３丁目９－３ＲＥ－０２０－１０６,,27,111,5560011,,,,,,,2022-04-21,1,,,,,フィックス,0
2162,8120005022929,新規,0,2022-04-21,2022-04-21,一般社団法人日中教育芸術体育交流協会,,その他の設立登記法人,大阪府,大阪市城東区,永田３丁目１番３－４０６号,,27,118,5360022,,,,,,,2022-04-21,1,,,,,ニッチュウキョウイクゲイジュツタイイクコウリュウキョウカイ,0
2164,8120102025421,新規,0,2022-04-21,2022-04-21,有限会社長尾産業,,有限会社,大阪府,和泉市,九鬼町５５０番地,,27,219,5941126,,,,,,,2022-04-21,1,,,,,ナガオサンギョウ,0
2165,8120103004671,新規,0,2022-04-21,2022-04-21,合同会社Ｍｏｎｄａｙ,,合同会社,大阪府,堺市堺区,榎元町４丁５番２６号,,27,141,5900027,,,,,,,2022-04-21,1,,,,,マンデイ,0
2171,8130001071581,新規,0,2022-04-21,2022-04-21,株式会社ジー・プラン,,株式会社,京都府,京都市中京区,下丸屋町４０４タケウチビル３階,,26,104,6040084,,,,,,,2022-04-21,1,,,,,ジープラン,0
2175,8130003007897,新規,0,2022-04-21,2022-04-21,合同会社八虎,,合同会社,京都府,京都市左京区,岩倉三宅町３１０番地１ソフィスタ洛北３０１号,,26,103,6060022,,,,,,,2022-04-21,1,,,,,ハッコ,0
2179,8140001022138,新規,0,2022-04-21,2022-04-21,株式会社和久,,株式会社,兵庫県,神戸市須磨区,千歳町１丁目１番１号,,28,107,6540027,,,,,,,2022-04-21,1,,,,,ワク,0
2186,8140001125667,新規,0,2022-04-21,2022-04-21,株式会社ｏｍｏｃｈｉ,,株式会社,兵庫県,神戸市灘区,篠原北町４丁目１１番３１号カーサ長峰３０２号室,,28,102,6570068,,,,,,,2022-04-21,1,,,,,オモチ,0
2187,8140001125700,新規,0,2022-04-21,2022-04-21,株式会社ＳＡＫＡＫＩＤＡ,,株式会社,兵庫県,神戸市東灘区,甲南町１丁目４番１８－８０１号,,28,101,6580084,,,,,,,2022-04-21,1,,,,,サカキダ,0
2193,8150001025486,新規,0,2022-04-21,2022-04-21,株式会社ＴＮ,,株式会社,奈良県,奈良市,西大寺新池町５番７号,,29,201,6310834,,,,,,,2022-04-21,1,,,,,ティーエヌ,0
2206,8180001150934,新規,0,2022-04-21,2022-04-21,株式会社ＢｉｌｌＡｌｐｈａ,,株式会社,愛知県,名古屋市西区,枇杷島４丁目１番１５号,,23,104,4510053,,,,,,,2022-04-21,1,,,,,ビルアルファ,0
2207,8180001150983,新規,0,2022-04-21,2022-04-21,株式会社ドラポート,,株式会社,愛知県,名古屋市港区,土古町４丁目１番地,,23,111,4550068,,,,,,,2022-04-21,1,,,,,ドラポート,0
2208,8180001151008,新規,0,2022-04-21,2022-04-21,＿達メタル株式会社,00126361,株式会社,愛知県,稲沢市,今村町沼１３番地１,,23,220,4928453,,,,,,,2022-04-21,1,,,,,シンタツメタル,0
2209,8180001151024,新規,0,2022-04-21,2022-04-21,株式会社トレビ,,株式会社,愛知県,江南市,宮後町西屋敷４３番地１,,23,217,4838044,,,,,,,2022-04-21,1,,,,,トレビ,0
2213,8180003023741,新規,0,2022-04-21,2022-04-21,合同会社ＣＩＴＲＵＳ,,合同会社,愛知県,海部郡大治町,大字砂子字大宮崎２６５７番地の５,,23,424,4901143,,,,,,,2022-04-21,1,,,,,シトラス,0
2215,8180301036131,新規,0,2022-04-21,2022-04-21,株式会社美和通商,,株式会社,愛知県,高浜市,芳川町２丁目１１番地５３エントピア和貴Ｂ,,23,227,4441335,,,,,,,2022-04-21,1,,,,,ミワツウショウ,0
2216,8180301036148,新規,0,2022-04-21,2022-04-21,株式会社アイ・ピックス,,株式会社,愛知県,豊川市,御油町西沢１４０番地,,23,207,4410211,,,,,,,2022-04-21,1,,,,,アイピックス,0
2218,8190001029351,新規,0,2022-04-21,2022-04-21,株式会社堀田鉄工,,株式会社,三重県,員弁郡東員町,城山３丁目２７番４,,24,324,5110233,,,,,,,2022-04-21,1,,,,,ホッタテッコウ,0
2221,8200001039976,新規,0,2022-04-21,2022-04-21,株式会社スタア,,株式会社,岐阜県,揖斐郡揖斐川町,谷汲長瀬７２１番地,,21,401,5011303,,,,,,,2022-04-21,1,,,,,スタア,0
2225,8230001019331,新規,0,2022-04-21,2022-04-21,ミクト株式会社,,株式会社,富山県,富山市,荒川２丁目２４番１５号,,16,201,9300982,,,,,,,2022-04-21,1,,,,,ミクト,0
2227,8230002007277,新規,0,2022-04-21,2022-04-21,有限会社福田建設工業,,有限会社,富山県,中新川郡立山町,半屋１８５番地,,16,323,9300269,,,,,,,2022-04-21,1,,,,,フクダケンセツコウギョウ,0
2235,8250005008741,新規,0,2022-04-21,2022-04-21,龍門寺,,その他の設立登記法人,山口県,岩国市,通津３６３４番地３,,35,208,7400044,,,,,,,2022-04-21,1,,,,,リュウモンジ,0
2239,8280005007476,新規,0,2022-04-21,2022-04-21,一般社団法人島根県クレー射撃協会,,その他の設立登記法人,島根県,松江市,東出雲町意宇東３丁目２番地４,,32,201,6990112,,,,,,,2022-04-21,1,,,,,,0
2248,8290001097256,新規,0,2022-04-21,2022-04-21,株式会社タラモント,,株式会社,福岡県,古賀市,舞の里４丁目１５番２６号,,40,223,8113114,,,,,,,2022-04-21,1,,,,,タラモント,0
2249,8290001097272,新規,0,2022-04-21,2022-04-21,株式会社大亜リース,,株式会社,福岡県,糸島市,末永４３８番地,,40,230,8191572,,,,,,,2022-04-21,1,,,,,ダイアリース,0
2250,8290001097280,新規,0,2022-04-21,2022-04-21,株式会社アーク,,株式会社,福岡県,福岡市博多区,中洲１丁目６番１２号,,40,132,8100801,,,,,,,2022-04-21,1,,,,,アーク,0
2251,8290001097289,新規,0,2022-04-21,2022-04-21,はる建築株式会社,,株式会社,福岡県,福岡市南区,皿山２丁目２番１７－７号,,40,134,8111365,,,,,,,2022-04-21,1,,,,,ハルケンチク,0
2253,8290003012436,新規,0,2022-04-21,2022-04-21,エフェクティオ合同会社,,合同会社,福岡県,福岡市東区,青葉３丁目４２－６１,,40,131,8130025,,,,,,,2022-04-21,1,,,,,エフェクティオ,0
2258,8290801028468,新規,0,2022-04-21,2022-04-21,株式会社ＳＫＩ,,株式会社,福岡県,北九州市門司区,緑ケ丘１１番４号,,40,101,8000043,,,,,,,2022-04-21,1,,,,,エスケーアイ,0
2260,8300003001825,新規,0,2022-04-21,2022-04-21,合同会社ＫＵＮＩ,,合同会社,佐賀県,唐津市,鏡６１番地１,,41,202,8470022,,,,,,,2022-04-21,1,,,,,クニ,0
2263,8320001019025,新規,0,2022-04-21,2022-04-21,ＲＡＩＮＢＯＷ株式会社,,株式会社,大分県,大分市,坂ノ市南１丁目９番１６号,,44,201,8700308,,,,,,,2022-04-21,1,,,,,レインボー,0
2266,8330003009337,新規,0,2022-04-21,2022-04-21,合同会社イムラホーム,,合同会社,熊本県,熊本市西区,花園６丁目１０９７番地２,,43,103,8600072,,,,,,,2022-04-21,1,,,,,イムラホーム,0
2267,8330005010508,新規,0,2022-04-21,2022-04-21,医療法人ライティス,,その他の設立登記法人,熊本県,熊本市東区,錦ケ丘５番２５号,,43,102,8620912,,,,,,,2022-04-21,1,,,,,ライティス,0
2268,8340001024675,新規,0,2022-04-21,2022-04-21,ＷＡＫＷＡＫ指宿株式会社,,株式会社,鹿児島県,指宿市,東方１０７０３番地サザンテラス１Ｆ,,46,210,8910404,,,,,,,2022-04-21,1,,,,,ワクワクイブスキ,0
2275,8360001030283,新規,0,2022-04-21,2022-04-21,株式会社ジェーケーイー,,株式会社,沖縄県,那覇市,松山２丁目１１番６号,,47,201,9000032,,,,,,,2022-04-21,1,,,,,ジェーケーイー,0
2276,8360003011942,新規,0,2022-04-21,2022-04-21,合同会社プチピアノ館,,合同会社,沖縄県,那覇市,小禄２丁目３番地５,,47,201,9010152,,,,,,,2022-04-21,1,,,,,,0
2278,8370001048473,新規,0,2022-04-21,2022-04-21,株式会社海上電工,,株式会社,宮城県,大崎市,田尻蕪栗字筒堀２０番地１,,04,215,9894301,,,,,,,2022-04-21,1,,,,,ウナカミデンコウ,0
2302,8430003013832,新規,0,2022-04-21,2022-04-21,合同会社モーリェ,,合同会社,北海道,札幌市東区,北六条東３丁目３番地１,,01,103,0600906,,,,,,,2022-04-21,1,,,,,モーリェ,0
2308,8500001024171,新規,0,2022-04-21,2022-04-21,株式会社ニッテツ,,株式会社,愛媛県,新居浜市,黒島２丁目３番１８号,,38,205,7920892,,,,,,,2022-04-21,1,,,,,ニッテツ,0
2310,8700150107582,新規,0,2022-04-21,2022-03-31,中倉自治会,,その他,岡山県,真庭市,日野上４７１５,,33,214,7193146,,,,,,,2022-03-31,1,,,,,ナカクラジチカイ,0
2311,8700150107715,新規,0,2022-04-21,2022-04-07,東京Ｅ－Ｄｏ　ｍｏｔｉｏｎｓ．,,その他,東京都,世田谷区,大原１丁目５０－８片岡荘２０２,,13,112,1560041,,,,,,,2022-04-07,1,,,,,トウキヨウエドモーシヨンズ,0
2312,8700150107896,新規,0,2022-04-21,2022-04-13,演劇／微熱少年,,その他,群馬県,太田市,矢場新町３２－２,,10,205,3730802,,,,,,,2022-04-13,1,,,,,エンゲキビネツシヨウネン,0
2321,9010001225883,新規,0,2022-04-21,2022-04-21,株式会社ＫＡＩＫＵ,,株式会社,東京都,文京区,千駄木３丁目４５－１４Ｓ－Ｆｌａｔ３０１,,13,105,1130022,,,,,,,2022-04-21,1,,,,,カイク,0
2322,9010001226064,新規,0,2022-04-21,2022-04-21,株式会社エニドア,,株式会社,東京都,中央区,銀座６丁目１３－１６銀座ウォールビル５階,,13,102,1040061,,,,,,,2022-04-21,1,,,,,エニドア,0
2326,9010003037468,新規,0,2022-04-21,2022-04-21,合同会社ＭａｋｅＬｉｎｅ,,合同会社,東京都,中央区,銀座１丁目２２番１１号２Ｆ,,13,102,1040061,,,,,,,2022-04-21,1,,,,,メイクライン,0
2327,9010003037534,新規,0,2022-04-21,2022-04-21,合同会社ファイナンス研究所,,合同会社,東京都,文京区,千石２丁目４６番４号,,13,105,1120011,,,,,,,2022-04-21,1,,,,,ファイナンスケンキュウジョ,0
2334,9010401166926,新規,0,2022-04-21,2022-04-21,株式会社Ｕ‐Ｆｅ,,株式会社,東京都,港区,六本木５丁目１８－１９－１Ｆ,,13,103,1060032,,,,,,,2022-04-21,1,,,,,ウーフィー,0
2347,9010703006202,新規,0,2022-04-21,2022-04-21,合同会社Ｃｈｅｒ　ａｎｇｅ,,合同会社,東京都,品川区,北品川１丁目２４番４号ディライトフルーＩＩ３０１,00126360,13,109,1400001,,,,,,,2022-04-21,1,,,,,シェールアンジュ,0
2348,9010703006210,新規,0,2022-04-21,2022-04-21,合同会社エムズエステート,,合同会社,東京都,品川区,北品川１丁目２３番１６号ＮｅｏＴｏｋｙｏＡｎｎｅｘ３０３,,13,109,1400001,,,,,,,2022-04-21,1,,,,,エムズエステート,0
2350,9010803004147,新規,0,2022-04-21,2022-04-21,合同会社ｌｉｂｙ,,合同会社,東京都,大田区,中馬込３丁目１６－１９－２１０,,13,111,1430027,,,,,,,2022-04-21,1,,,,,リビー,0
2355,9010903007330,新規,0,2022-04-21,2022-04-21,合同会社アゴラ,,合同会社,東京都,世田谷区,等々力７丁目２４番２２号,,13,112,1580082,,,,,,,2022-04-21,1,,,,,アゴラ,0
2360,9011001147052,新規,0,2022-04-21,2022-04-21,株式会社Ｗｏｒｌｄ　ａｒｔ,,株式会社,東京都,目黒区,青葉台４丁目５番１２号ａｐｌａｃｅ－２０２,,13,110,1530042,,,,,,,2022-04-21,1,,,,,ワールドアート,0
2361,9011001147085,新規,0,2022-04-21,2022-04-21,アークプロモーション株式会社,,株式会社,東京都,渋谷区,神宮前１丁目７番３号１７５番館３０６,,13,113,1500001,,,,,,,2022-04-21,1,,,,,アークプロモーション,0
2362,9011001147093,新規,0,2022-04-21,2022-04-21,株式会社ＯＶＥＲ　ＥＡＲＴｈ,,株式会社,東京都,目黒区,中央町２丁目３６番,,13,110,1520001,,,,,,,2022-04-21,1,,,,,オーバーアース,0
2363,9011005009554,新規,0,2022-04-21,2022-04-21,社会保険労務士法人ＳａｎＲｉｎ,,その他の設立登記法人,東京都,目黒区,目黒本町５丁目８番１２号３階,,13,110,1520002,,,,,,,2022-04-21,1,,,,,サンリン,0
2371,9011801040613,新規,0,2022-04-21,2022-04-21,株式会社テクロスラボ,,株式会社,東京都,葛飾区,小菅３丁目４番２号,,13,122,1240001,,,,,,,2022-04-21,1,,,,,テクロスラボ,0
2372,9011801040621,新規,0,2022-04-21,2022-04-21,Ｂｅａｇｌｅ　Ｍａｎｇｏ株式会社,,株式会社,東京都,葛飾区,青戸７丁目２３番１１号,,13,122,1250062,,,,,,,2022-04-21,1,,,,,ビーグルマンゴー,0
2375,9012301012961,新規,0,2022-04-21,2022-04-21,株式会社ＳＹＨ,,株式会社,東京都,町田市,森野４丁目１０番１４号,,13,209,1940022,,,,,,,2022-04-21,1,,,,,エスワイエイチ,0
2385,9013303006126,新規,0,2022-04-21,2022-04-21,ＭＮＤ合同会社,,合同会社,東京都,豊島区,上池袋１丁目１０番７－３０２号,,13,116,1700012,,,,,,,2022-04-21,1,,,,,エムエヌディー,0
2391,9020001146212,新規,0,2022-04-21,2022-04-21,株式会社ＯＭ不動産コンサルティング,,株式会社,神奈川県,川崎市中原区,小杉町３丁目１５０１－２－１６０４,,14,133,2110063,,,,,,,2022-04-21,1,,,,,オーエムフドウサンコンサルティング,0
2392,9020001146229,新規,0,2022-04-21,2022-04-21,株式会社サンヴェール,,株式会社,神奈川県,横浜市西区,平沼１丁目３３番２１－６０５号,,14,103,2200023,,,,,,,2022-04-21,1,,,,,サンヴェール,0
2393,9020001146237,新規,0,2022-04-21,2022-04-21,株式会社Ｋ＆Ａ,,株式会社,神奈川県,横浜市青葉区,荏田西３丁目１番地５ベルジェンド市ヶ尾アルチザン５０４,,14,117,2250014,,,,,,,2022-04-21,1,,,,,ケーアンドエー,0
2401,9020003021660,新規,0,2022-04-21,2022-04-21,ＪＩＦＵ　Ｊａｐａｎ合同会社,,合同会社,神奈川県,横浜市神奈川区,片倉５丁目３３番１１号,,14,102,2210865,,,,,,,2022-04-21,1,,,,,ジフジャパン,0
2410,9030001147795,新規,0,2022-04-21,2022-04-21,オンラード株式会社,,株式会社,埼玉県,蕨市,中央１丁目７番１－１００７号,,11,223,3350004,,,,,,,2022-04-21,1,,,,,オンラード,0
2421,9040001123127,新規,0,2022-04-21,2022-04-21,あすこっとサポート株式会社,,株式会社,千葉県,我孫子市,南青山３６番地の１１,,12,222,2701178,,,,,,,2022-04-21,1,,,,,アスコットサポート,0
2429,9050003006519,新規,0,2022-04-21,2022-04-21,合同会社養生庵,,合同会社,茨城県,ひたちなか市,大字高場２５８１番地３２,,08,221,3120062,,,,,,,2022-04-21,1,,,,,ヨウジョウアン,0
2435,9060005009972,新規,0,2022-04-21,2022-04-21,特定非営利活動法人奏,,その他の設立登記法人,栃木県,宇都宮市,富士見が丘２丁目１２番２２号,,09,201,3200011,,,,,,,2022-04-21,1,,,,,カナデ,0
2437,9070001039163,新規,0,2022-04-21,2022-04-21,株式会社パワー不動産,,株式会社,群馬県,高崎市,中里見町字根岸３７３番地,,10,202,3703344,,,,,,,2022-04-21,1,,,,,パワーフドウサン,0
2438,9070001039171,新規,0,2022-04-21,2022-04-21,株式会社ＨＡＹＡＴＥ,,株式会社,群馬県,高崎市,箕郷町矢原７０４番地,,10,202,3703107,,,,,,,2022-04-21,1,,,,,ハヤテ,0
2449,9100003006505,新規,0,2022-04-21,2022-04-21,合同会社森に還す,,合同会社,長野県,諏訪郡原村,１７２１７－９６,,20,363,3910100,,,,,,,2022-04-21,1,,,,,モリニカエス,0
2450,9100005012864,新規,0,2022-04-21,2022-04-21,一般社団法人猫１１０番かぎしっぽ,,その他の設立登記法人,長野県,飯田市,松尾常盤台１００番地２,,20,205,3950815,,,,,,,2022-04-21,1,,,,,ネコヒャクトオバンカギシッポ,0
2457,9110003004739,新規,0,2022-04-21,2022-04-21,合同会社ゆうげん,,合同会社,新潟県,佐渡市,三瀬川４１５番地１,,15,224,9521204,,,,,,,2022-04-21,1,,,,,ユウゲン,0
2467,9120001245326,新規,0,2022-04-21,2022-04-21,株式会社ＷＩＮ‐ＷＩＮ,,株式会社,大阪府,守口市,金田町１丁目３７番５号,,27,209,5700011,,,,,,,2022-04-21,1,,,,,ウィンウィン,0
2468,9120001245350,新規,0,2022-04-21,2022-04-21,森株式会社,,株式会社,大阪府,大阪市東淀川区,東中島１丁目１７－５ステュディオ新大阪６３１号室,,27,114,5330033,,,,,,,2022-04-21,1,,,,,モリ,0
2469,9120001245391,新規,0,2022-04-21,2022-04-21,株式会社ｇｏｇｏ貿易,,株式会社,大阪府,大阪市中央区,日本橋１丁目１４番１３号,,27,128,5420073,,,,,,,2022-04-21,1,,,,,ゴーゴーボウエキ,0
2475,9120003021527,新規,0,2022-04-21,2022-04-21,合同会社空色ラッシュ,,合同会社,大阪府,大阪市北区,梅田２丁目５番１３号桜橋第一ビル３０４号,,27,127,5300001,,,,,,,2022-04-21,1,,,,,ソライロラッシュ,0
2477,9120101065459,新規,0,2022-04-21,2022-04-21,株式会社Ｔｈａｎｋ　ｙｏｕ　ａｌｌ,,株式会社,大阪府,堺市中区,平井２７４－１４,,27,142,5998251,,,,,,,2022-04-21,1,,,,,サンキューオール,0
2478,9120103004670,新規,0,2022-04-21,2022-04-21,合同会社アイグランド,,合同会社,大阪府,泉佐野市,日根野５５６０番地の１８６,,27,213,5980021,,,,,,,2022-04-21,1,,,,,アイグランド,0
2484,9130001071606,新規,0,2022-04-21,2022-04-21,弥栄株式会社,,株式会社,京都府,長岡京市,開田１丁目１６番２３号,,26,209,6170826,,,,,,,2022-04-21,1,,,,,ヤサカ,0
2488,9140003017606,新規,0,2022-04-21,2022-04-21,ＡＳＣグローバル合同会社,,合同会社,兵庫県,神戸市東灘区,向洋町中８丁目１,,28,101,6580032,,,,,,,2022-04-21,1,,,,,エーエスシーグローバル,0
2492,9150001025485,新規,0,2022-04-21,2022-04-21,株式会社Ｅｎｉ,,株式会社,奈良県,生駒市,俵口町１３７７番地７,,29,209,6300243,,,,,,,2022-04-21,1,,,,,エニー,0
2504,9180001150974,新規,0,2022-04-21,2022-04-21,株式会社ＡＬＬ　ＢＬＩＳＳ,,株式会社,愛知県,一宮市,せんい２丁目１番地４,,23,203,4910873,,,,,,,2022-04-21,1,,,,,オールブリス,0
2505,9180001150982,新規,0,2022-04-21,2022-04-21,株式会社Ｉ・Ｔ・Ｏ技建,,株式会社,愛知県,名古屋市中村区,西栄町５８番地の２,,23,105,4530846,,,,,,,2022-04-21,1,,,,,アイティーオーギケン,0
2506,9180001150990,新規,0,2022-04-21,2022-04-21,ニコニコ不動産株式会社,,株式会社,愛知県,名古屋市北区,志賀本通２丁目２９番２号,,23,103,4620853,,,,,,,2022-04-21,1,,,,,ニコニコフドウサン,0
2507,9180001150999,新規,0,2022-04-21,2022-04-21,株式会社ＭＥＩコンサルティング,,株式会社,愛知県,名古屋市西区,南川町６４番地の１,,23,104,4520814,,,,,,,2022-04-21,1,,,,,エムイーアイホールディングス,0
2508,9180001151015,新規,0,2022-04-21,2022-04-21,オオツエネルギー株式会社,,株式会社,愛知県,豊明市,間米町榎山８８９番地４３,,23,229,4701132,,,,,,,2022-04-21,1,,,,,オオツエネルギー,0
2509,9180001151023,新規,0,2022-04-21,2022-04-21,株式会社食神,,株式会社,愛知県,名古屋市中区,錦３丁目８番１５号第二スカイビル,,23,106,4600003,,,,,,,2022-04-21,1,,,,,ショクジン,0
2510,9180003023749,新規,0,2022-04-21,2022-04-21,保険ガレージ合同会社,,合同会社,愛知県,名古屋市港区,九番町４丁目２番地５３,,23,111,4550008,,,,,,,2022-04-21,1,,,,,ホケンガレージ,0
2511,9180003023765,新規,0,2022-04-21,2022-04-21,合同会社おれんじ,,合同会社,愛知県,犬山市,上坂町５丁目２２８番地,,23,215,4840059,,,,,,,2022-04-21,1,,,,,オレンジ,0
2517,9190001029350,新規,0,2022-04-21,2022-04-21,株式会社フジ興,,株式会社,三重県,いなべ市,藤原町東禅寺１５４６番地,,24,214,5110515,,,,,,,2022-04-21,1,,,,,フジコウ,0
2519,9220001024810,新規,0,2022-04-21,2022-04-21,株式会社ＳＧＨ,,株式会社,石川県,小松市,粟津町ワ４７番地,,17,203,9230326,,,,,,,2022-04-21,1,,,,,エスジーエイチ,0
2520,9220003003267,新規,0,2022-04-21,2022-04-21,合同会社Ｏｎｌｙ　Ｏｎｅ,,合同会社,石川県,金沢市,田上本町４丁目２００番地,,17,201,9201155,,,,,,,2022-04-21,1,,,,,オンリーワン,0
2521,9220005008660,新規,0,2022-04-21,2022-04-21,医療法人社団Ｎデンタルクリニック,,その他の設立登記法人,石川県,金沢市,直江南１丁目３１番地１,,17,201,9208214,,,,,,,2022-04-21,1,,,,,エヌデンタルクリニック,0
2530,9240005015382,新規,0,2022-04-21,2022-04-21,一般社団法人ガンバルーン体操協会,,その他の設立登記法人,広島県,広島市安佐北区,亀山南４丁目２５－１５,,34,106,7310232,,,,,,,2022-04-21,1,,,,,ガンバルーンタイソウキョウカイ,0
2537,9270005005513,新規,0,2022-04-21,2022-04-21,社会福祉法人ぱれっと,,その他の設立登記法人,鳥取県,米子市,安倍４９２番地２,,31,202,6830846,,,,,,,2022-04-21,1,,,,,パレット,0
2544,9290001097255,新規,0,2022-04-21,2022-04-21,株式会社ランドネット九州,,株式会社,福岡県,福岡市中央区,天神５丁目９番２号,,40,133,8100001,,,,,,,2022-04-21,1,,,,,ランドネットキュウシュウ,0
2545,9290001097263,新規,0,2022-04-21,2022-04-21,株式会社ＧＬＡＹｚ,,株式会社,福岡県,糟屋郡粕屋町,駕与丁３丁目１番１５号,,40,349,8112309,,,,,,,2022-04-21,1,,,,,グレイズ,0
2546,9290001097296,新規,0,2022-04-21,2022-04-21,株式会社山田内装,,株式会社,福岡県,福岡市博多区,奈良屋町１３番１６号,,40,132,8120023,,,,,,,2022-04-21,1,,,,,ヤマダナイソウ,0
2550,9290801028467,新規,0,2022-04-21,2022-04-21,株式会社ツクヨミ,,株式会社,福岡県,直方市,大字感田２３２７番地１,,40,204,8220001,,,,,,,2022-04-21,1,,,,,ツクヨミ,0
2554,9290805009546,新規,0,2022-04-21,2022-04-21,医療法人かわかみ皮ふ科クリニック,,その他の設立登記法人,福岡県,北九州市小倉南区,城野１丁目１３番１５号,,40,107,8020802,,,,,,,2022-04-21,1,,,,,カワカミヒフカクリニック,0
2559,9330001029658,新規,0,2022-04-21,2022-04-21,Ｆ　Ｄｅｓｉｇｎ　Ｓｔａｔｉｏｎ株式会社,,株式会社,熊本県,合志市,須屋１３０８番地１９,,43,216,8611102,,,,,,,2022-04-21,1,,,,,エフデザインステーション,0
2562,9330005010507,新規,0,2022-04-21,2022-04-21,一般社団法人ＡＬＬ　ＳＥＴ,,その他の設立登記法人,熊本県,熊本市東区,山ノ内１丁目１番１３０号,,43,102,8620914,,,,,,,2022-04-21,1,,,,,オールセット,0
2565,9350001017710,新規,0,2022-04-21,2022-04-21,株式会社早樋林業,00126357,株式会社,宮崎県,延岡市,北方町早中巳８７２番地,,45,203,8820244,,,,,,,2022-04-21,1,,,,,ハヤヒリンギョウ,0
2566,9350003004070,新規,0,2022-04-21,2022-04-21,合同会社クラン,,合同会社,宮崎県,宮崎市,佐土原町石崎２丁目８番地１シャイニー・ウイングＢ棟１０１号室,,45,201,8800213,,,,,,,2022-04-21,1,,,,,クラン,0
2567,9360001030233,新規,0,2022-04-21,2022-04-21,株式会社エネルギーラボ沖縄,,株式会社,沖縄県,中頭郡嘉手納町,字屋良６８,,47,325,9040202,,,,,,,2022-04-21,1,,,,,エネルギーラボオキナワ,0
2568,9370001048472,新規,0,2022-04-21,2022-04-21,アグリクロス株式会社,,株式会社,宮城県,仙台市若林区,白萩町３０番５号ベルディンＩＩ－１０１,00126364,04,103,9840048,,,,,,,2022-04-21,1,,,,,アグリクロス,0
2574,9380001032756,新規,0,2022-04-21,2022-04-21,株式会社会光社,,株式会社,福島県,喜多方市,字西四ツ谷９４番地,,07,208,9660086,,,,,,,2022-04-21,1,,,,,,0
2578,9410001013174,新規,0,2022-04-21,2022-04-21,若松工業株式会社,,株式会社,秋田県,横手市,大森町字菅生田２４５番地１４５,,05,203,0130525,,,,,,,2022-04-21,1,,,,,,0
2582,9430001086441,新規,0,2022-04-21,2022-04-21,株式会社Ｇｕａｒｄｉａｎ　Ｗｅａｌｔｈ　Ｍａｎａｇｅｍｅｎｔ　ｏｆ　Ｊａｐａｎ,,株式会社,北海道,札幌市中央区,北五条西１１丁目１４番地,,01,101,0600005,,,,,,,2022-04-21,1,,,,,ガーディアンウェルスマネジメントオブジャパン,0
2583,9430001086466,新規,0,2022-04-21,2022-04-21,株式会社ｏｓｎ,,株式会社,北海道,札幌市白石区,本郷通９丁目北１番８－２０５号,,01,104,0030025,,,,,,,2022-04-21,1,,,,,,0
2597,9700150108225,新規,0,2022-04-21,2022-04-21,益城台地中土地区画整理組合,,その他,熊本県,上益城郡益城町,大字古閑３０１－５,,43,443,8612234,,,,,,,2022-04-21,1,,,,,マシキダイチナカトチクカクセイリクミアイ,0
